{"objects":{"water":{"type":"GeometryCollection","geometries":[]},"buildings":{"type":"GeometryCollection","geometries":[]},"places":{"type":"GeometryCollection","geometries":[{"type":"Point","properties":{"name:el":"\u0396\u03b9\u03b5\u03bb\u03cc\u03bd\u03b1 \u0393\u03ba\u03cc\u03c1\u03b1","kind":"locality","name":"Zielona G\u00f3ra","name:lt":"Zeliona Gura","alt_name:de":"Gr\u00fcnberg in Schlesien","kind_detail":"city","name:de":"Gr\u00fcnberg in Schlesien","source":"openstreetmap.org","min_zoom":8.0,"name:uk":"\u0417\u0435\u043b\u0435\u043d\u0430 \u0413\u0443\u0440\u0430","name:ru":"\u0417\u0435\u043b\u0451\u043d\u0430-\u0413\u0443\u0440\u0430","population":119182,"id":26553051,"name:ja":"\u30b8\u30a7\u30ed\u30ca\u30fb\u30b0\u30e9"},"coordinates":[106,1517]},{"type":"Point","properties":{"kind":"locality","name":"G\u0142og\u00f3w","name:lt":"Gloguvas","alt_name:de":"Gro\u00df-Glogau","kind_detail":"town","name:de":"Glogau","source":"openstreetmap.org","min_zoom":8.0,"name:la":"Glogovia","name:uk":"\u0490\u043b\u043e\u0491\u0443\u0432","name:ru":"\u0413\u043b\u043e\u0433\u0443\u0432","id":1758659813,"population":68997},"coordinates":[1810,219]},{"type":"Point","properties":{"kind":"locality","name":"Leszno","name:lt":"Le\u0161nas","alt_name:de":"Polnisch Lissa","kind_detail":"city","name:de":"Lissa","source":"openstreetmap.org","min_zoom":8.0,"name:uk":"\u041b\u0435\u0448\u043d\u043e","name:ru":"\u041b\u0435\u0448\u043d\u043e","population":64589,"id":155462541,"name:ja":"\u30ec\u30b7\u30e5\u30ce"},"coordinates":[3220,1068]},{"type":"Point","properties":{"kind":"locality","name":"Nowa S\u00f3l","name:lt":"Nova Sul\u0117","kind_detail":"town","name:de":"Neusalz an der Oder","source":"openstreetmap.org","min_zoom":8.0,"name:ru":"\u041d\u043e\u0432\u0430-\u0421\u0443\u043b\u044c","id":1758659862,"population":39721},"coordinates":[708,877]},{"type":"Point","properties":{"kind":"locality","name":"Ko\u015bcian","name:lt":"Koscianas","kind_detail":"town","name:de":"Kosten","source":"openstreetmap.org","min_zoom":8.0,"name:ru":"\u041a\u043e\u0441\u044c\u0446\u044f\u043d","id":31620899,"population":24011},"coordinates":[3426,2218]},{"type":"Point","properties":{"kind":"locality","name":"\u015awiebodzin","name:lt":"Svebodzinas","kind_detail":"town","name:de":"Schwiebus","source":"openstreetmap.org","min_zoom":8.0,"old_name":"Schwiebus, Sipusius Silesius, Suebusianus, Swibusius Silesius, Suebosianus, Sebusianus, Soebosianus","name:ru":"\u0421\u0432\u0435\u0431\u043e\u0434\u0437\u0438\u043d","id":31609130,"population":22064},"coordinates":[191,2990]},{"type":"Point","properties":{"kind":"locality","name":"Mi\u0119dzyrzecz","name:lt":"Mendzy\u017ee\u010das","kind_detail":"town","name:de":"Meseritz","source":"openstreetmap.org","min_zoom":8.0,"name:uk":"\u041c\u0435\u043d\u0434\u0437\u0438\u0436\u0435\u0447","old_name":"Meseritz","name:ru":"\u041c\u0435\u043d\u0434\u0437\u044b\u0436\u0435\u0447","id":31618019,"population":18552},"coordinates":[326,3916]},{"type":"Point","properties":{"kind":"locality","name":"Sulech\u00f3w","name:lt":"Sulechuvas","kind_detail":"town","name:de":"Z\u00fcllichau","source":"openstreetmap.org","min_zoom":8.0,"name:uk":"\u0421\u0443\u043b\u0435\u0445\u0443\u0432","name:ru":"\u0421\u0443\u043b\u0435\u0445\u0443\u0432","id":31609289,"population":17461},"coordinates":[457,2212]},{"type":"Point","properties":{"kind":"locality","old_name:de":"Neutomysl","name":"Nowy Tomy\u015bl","kind_detail":"town","name:de":"Neutomischel","source":"openstreetmap.org","min_zoom":8.0,"name:ru":"\u041d\u043e\u0432\u044b-\u0422\u043e\u043c\u044b\u0441\u043b\u044c","id":31616446,"population":14899},"coordinates":[1924,3314]},{"type":"Point","properties":{"kind":"locality","name":"Grodzisk Wielkopolski","name:lt":"Did\u017eiosios Lenkijos Grodziskas","kind_detail":"town","name:de":"Gr\u00e4tz","source":"openstreetmap.org","min_zoom":8.0,"name:ru":"\u0413\u0440\u043e\u0434\u0437\u0438\u0441\u043a-\u0412\u0435\u043b\u044c\u043a\u043e\u043f\u043e\u043b\u044c\u0441\u043a\u0438\u0439","id":31623501,"population":14339},"coordinates":[2604,2881]},{"type":"Point","properties":{"kind":"locality","name":"Wschowa","name:lt":"Vshova","kind_detail":"town","name:de":"Fraustadt","source":"openstreetmap.org","min_zoom":8.0,"name:ru":"\u0412\u0441\u0445\u043e\u0432\u0430","id":31782947,"population":14329},"coordinates":[2471,880]},{"type":"Point","properties":{"kind":"locality","name":"Wolsztyn","name:lt":"Vol\u0161tynas","kind_detail":"town","name:de":"Wollstein","source":"openstreetmap.org","min_zoom":8.0,"name:ru":"\u0412\u043e\u043b\u044c\u0448\u0442\u044b\u043d","id":31605726,"population":13586},"coordinates":[1891,2332]},{"type":"Point","properties":{"kind":"locality","name":"G\u00f3ra","name:lt":"Kalnas","kind_detail":"town","name:de":"Guhrau","source":"openstreetmap.org","min_zoom":8.0,"name:ru":"\u0413\u0443\u0440\u0430","id":369598568,"population":12448},"coordinates":[3118,237]},{"type":"Point","properties":{"kind":"locality","name":"Mosina","kind_detail":"town","name:de":"Moschin","source":"openstreetmap.org","min_zoom":8.0,"id":1901727112,"population":12252},"coordinates":[4015,2973]},{"type":"Point","properties":{"kind":"locality","name":"Puszczykowo","kind_detail":"town","name:de":"Unterberg","source":"openstreetmap.org","min_zoom":8.0,"name:ru":"\u041f\u0443\u0449\u0438\u043a\u043e\u0432\u043e","id":31613303,"population":9819},"coordinates":[4051,3175]},{"type":"Point","properties":{"kind":"locality","name":"Ko\u017cuch\u00f3w","kind_detail":"town","name:de":"Freystadt in Schlesien","source":"openstreetmap.org","min_zoom":8.0,"name:ru":"\u041a\u043e\u0436\u0443\u0445\u0443\u0432","id":1758659811,"population":9752},"coordinates":[366,604]},{"type":"Point","properties":{"kind":"locality","name":"Opalenica","kind_detail":"town","name:de":"Opalenitza","source":"openstreetmap.org","min_zoom":8.0,"name:ru":"\u041e\u043f\u0430\u043b\u0435\u043d\u0438\u0446\u0430","id":31616190,"population":9591},"coordinates":[2773,3263]},{"type":"Point","properties":{"kind":"locality","name":"Zb\u0105szy\u0144","name:lt":"Zbon\u0161ynis","kind_detail":"town","name:de":"Bentschen","source":"openstreetmap.org","min_zoom":8.0,"old_name":"Zb\u0105sz","name:ru":"\u0417\u0431\u043e\u043d\u0448\u0438\u043d\u044c","id":31605386,"population":7202},"coordinates":[1309,2996]},{"type":"Point","properties":{"kind":"locality","name:lv":"Buka","name":"Buk","kind_detail":"town","name:he":"\u05d1\u05d5\u05e7","name:sr":"\u0411\u0443\u043a","source":"openstreetmap.org","min_zoom":8.0,"name:uk":"\u0411\u0443\u043a","name:be":"\u0411\u0443\u043a","name:ru":"\u0411\u0443\u043a","name:zh":"\u5e03\u514b","id":31626656,"population":6225},"coordinates":[3052,3502]},{"type":"Point","properties":{"kind":"locality","name":"St\u0119szew","kind_detail":"town","name:de":"Stenschewo","source":"openstreetmap.org","min_zoom":8.0,"name:ru":"\u0421\u0442\u0435\u043d\u0448\u0435\u0432","id":31609600,"population":5834},"coordinates":[3586,3132]},{"type":"Point","properties":{"kind":"locality","name":"\u015amigiel","kind_detail":"town","name:de":"Schmiegel","source":"openstreetmap.org","min_zoom":8.0,"name:ru":"\u0421\u043c\u0438\u0433\u0435\u043b\u044c","id":31610588,"population":5603},"coordinates":[3083,1870]},{"type":"Point","properties":{"kind":"locality","name":"Czempi\u0144","alt_name:de":"Tschempin","kind_detail":"town","name:de":"Czempin","source":"openstreetmap.org","min_zoom":8.0,"name:ru":"\u0427\u0435\u043c\u043f\u0438\u043d\u044c","id":31625975,"population":5280},"coordinates":[3765,2487]},{"type":"Point","properties":{"kind":"locality","name":"Zb\u0105szynek","name:lt":"Zbon\u0161ynekas","kind_detail":"town","name:de":"Neu Bentschen","source":"openstreetmap.org","min_zoom":8.0,"old_name":"Neu Bentschen","name:ru":"\u0417\u0431\u043e\u043d\u0448\u0438\u043d\u0435\u043a","id":31605385,"population":5078},"coordinates":[993,2957]},{"type":"Point","properties":{"kind":"locality","name":"Bytom Odrza\u0144ski","kind_detail":"town","name:de":"Beuthen an der Oder","source":"openstreetmap.org","min_zoom":8.0,"name:ru":"\u0411\u044b\u0442\u043e\u043c-\u041e\u0434\u0436\u0430\u043d\u044c\u0441\u043a\u0438\u0439","id":31809716,"population":4408},"coordinates":[1030,533]},{"type":"Point","properties":{"kind":"locality","name":"Babimost","kind_detail":"town","name:de":"Bomst","source":"openstreetmap.org","min_zoom":8.0,"name:ru":"\u0411\u0430\u0431\u0438\u043c\u043e\u0441\u0442","id":31628010,"population":4037},"coordinates":[1048,2592]},{"type":"Point","properties":{"kind":"locality","name":"Kargowa","alt_name:de":"Karge;Kargowo","kind_detail":"town","name:de":"Unruhstadt","source":"openstreetmap.org","min_zoom":8.0,"name:ru":"\u041a\u0430\u0440\u0433\u043e\u0432\u0430","id":31622004,"population":3743},"coordinates":[1158,2151]},{"type":"Point","properties":{"kind":"locality","old_name:de":"Freystadt","name":"Rakoniewice","kind_detail":"town","name:de":"Rakwitz","source":"openstreetmap.org","min_zoom":8.0,"name:uk":"\u0420\u0430\u043a\u043e\u043d\u0435\u0432\u0456\u0446\u0435","name:ru":"\u0420\u0430\u043a\u043e\u043d\u0435\u0432\u0438\u0446\u0435","name:zh":"\u62c9\u79d1\u6d85\u7dad\u91c7","id":387434271,"population":3523},"coordinates":[2345,2469]},{"type":"Point","properties":{"kind":"locality","name":"Lw\u00f3wek","kind_detail":"town","name:de":"Neustadt bei Pinne","source":"openstreetmap.org","min_zoom":8.0,"name:ru":"\u041b\u044c\u0432\u0443\u0432\u0435\u043a","id":31618825,"population":3058},"coordinates":[2073,3936]},{"type":"Point","properties":{"kind":"locality","name":"Bojanowo","kind_detail":"town","source":"openstreetmap.org","min_zoom":8.0,"name:uk":"\u0411\u043e\u044f\u043d\u043e\u0432\u043e","name:ru":"\u0411\u043e\u044f\u043d\u043e\u0432\u043e","id":31810993,"population":2970},"coordinates":[3726,424]},{"type":"Point","properties":{"kind":"locality","name":"Poniec","kind_detail":"town","name:de":"Punitz","source":"openstreetmap.org","min_zoom":8.0,"name:ru":"\u041f\u043e\u043d\u0435\u0446","id":31791224,"population":2910},"coordinates":[3895,696]},{"type":"Point","properties":{"kind":"locality","name":"Nowe Miasteczko","kind_detail":"town","name:de":"Neust\u00e4dtel","source":"openstreetmap.org","min_zoom":8.0,"name:ru":"\u041d\u043e\u0432\u0435-\u041c\u044f\u0441\u0442\u0435\u0447\u043a\u043e","id":1758659863,"population":2884},"coordinates":[764,345]},{"type":"Point","properties":{"kind":"locality","name":"Rydzyna","kind_detail":"town","name:de":"Reisen","source":"openstreetmap.org","min_zoom":8.0,"name:ru":"\u0420\u044b\u0434\u0437\u044b\u043d\u0430","id":1297152960,"population":2762},"coordinates":[3491,797]},{"type":"Point","properties":{"kind":"locality","name":"Trzciel","name:lt":"T\u0161celis","kind_detail":"town","name:de":"Tirschtiegel","source":"openstreetmap.org","min_zoom":8.0,"name:ru":"\u0422\u0448\u0446\u0435\u043b\u044c","id":31607802,"population":2496},"coordinates":[1178,3539]},{"type":"Point","properties":{"kind":"locality","name":"Osieczna","kind_detail":"town","name:de":"Storchnest","source":"openstreetmap.org","min_zoom":8.0,"name:uk":"\u041e\u0441\u0435\u0447\u043d\u0430","name:ru":"\u041e\u0441\u0435\u0447\u043d\u0430","id":308020951,"population":2245},"coordinates":[3517,1352]},{"type":"Point","properties":{"kind":"locality","name":"Wielichowo","name:lt":"Velichovas","kind_detail":"town","source":"openstreetmap.org","min_zoom":8.0,"name:ru":"\u0412\u0435\u043b\u0438\u0445\u043e\u0432\u043e","id":31606757,"population":1766},"coordinates":[2573,2369]},{"type":"Point","properties":{"kind":"locality","name":"Krzywi\u0144","kind_detail":"town","name:de":"Kriewen","source":"openstreetmap.org","min_zoom":8.0,"name:ru":"\u041a\u0448\u0438\u0432\u0438\u043d\u044c","id":472379523,"population":1637},"coordinates":[3934,1634]},{"type":"Point","properties":{"kind":"locality","name":"Szlichtyngowa","kind_detail":"town","name:de":"Schlichtingsheim","source":"openstreetmap.org","min_zoom":8.0,"name:ru":"\u0428\u043b\u0438\u0445\u0442\u044b\u043d\u0433\u043e\u0432\u0430","id":31786128,"population":1328},"coordinates":[2256,455]}]},"transit":{"type":"GeometryCollection","geometries":[{"type":"MultiLineString","properties":{"kind":"train","name":"Linia kolejowa nr 359 Leszno - Zb\u0105szy\u0144","sort_rank":275,"source":"openstreetmap.org","min_zoom":6.0,"operator":"PKP Polskie Linie Kolejowe S.A.","ref":"359","osm_relation":true,"network":"PKP"},"arcs":[[5],[6],[7],[8],[9]]},{"type":"LineString","properties":{"kind":"train","network":"PKP","sort_rank":275,"source":"openstreetmap.org","min_zoom":6.0,"operator":"PKP Polskie Linie Kolejowe S.A.","ref":"370","id":-4755010,"osm_relation":true,"name":"Linia kolejowa nr 370 Zielona G\u00f3ra - \u017bary"},"arcs":[10]},{"type":"MultiLineString","properties":{"kind":"train","name":"Frankfurt (Oder) - Pozna\u0144","sort_rank":275,"name:de":"Frankfurt (Oder) - Posen","source":"openstreetmap.org","min_zoom":6.0,"operator":"PKP","name:pl":"Linia Frankfurt nad Odr\u0105 - Pozna\u0144","ref":"RB91","osm_relation":true},"arcs":[[11],[12],[13],[14],[15],[16],[17],[18]]},{"type":"MultiLineString","properties":{"kind":"train","name":"EC95 Warszawa - Berlin","service":"international","sort_rank":275,"source":"openstreetmap.org","min_zoom":5.0,"operator":"DB Fernverkehr AG;PKP","ref":"EC95","osm_relation":true,"network":"DB InterCity;EuroCity"},"arcs":[[19],[20],[21]]},{"type":"LineString","properties":{"source":"openstreetmap.org","kind":"train","name":"Line 358","sort_rank":275,"ref":"358","min_zoom":6.0,"osm_relation":true},"arcs":[22]},{"type":"MultiLineString","properties":{"kind":"train","name":"EC95 Berlin - Warszawa","service":"international","sort_rank":275,"source":"openstreetmap.org","min_zoom":5.0,"operator":"DB Fernverkehr AG;PKP","ref":"EC95","osm_relation":true,"network":"DB InterCity;EuroCity"},"arcs":[[23],[24],[25]]},{"type":"LineString","properties":{"kind":"train","name":"D19 Wegliniec - Zielona Gora","sort_rank":275,"source":"openstreetmap.org","min_zoom":6.0,"operator":"PKP Polskie Linie Kolejowe S.A.","ref":"356","osm_relation":true,"description":"some services continue from Wegliniec to Luban Slaski and Jelenia Gora"},"arcs":[26]},{"type":"MultiLineString","properties":{"kind":"train","name":"Linia kolejowa nr 354 Pozna\u0144 POD - Pi\u0142a G\u0142\u00f3wna","sort_rank":275,"source":"openstreetmap.org","min_zoom":6.0,"operator":"PKP Polskie Linie Kolejowe S.A.","ref":"354","osm_relation":true,"network":"PKP"},"arcs":[[27],[28]]},{"type":"LineString","properties":{"kind":"train","name":"EN 452 : Moscou \u2212 Berlin \u2212 Paris","service":"international","sort_rank":275,"source":"openstreetmap.org","min_zoom":5.0,"operator":"\u0420\u043e\u0441\u0441\u0438\u0439\u0441\u043a\u0438\u0435 \u0436\u0435\u043b\u0435\u0437\u043d\u044b\u0435 \u0434\u043e\u0440\u043e\u0433\u0438","ref":"EN 452","osm_relation":true,"network":"EuroNight"},"arcs":[29]},{"type":"LineString","properties":{"kind":"train","name":"Linia kolejowa nr 367 Zb\u0105szynek - Gorz\u00f3w Wielkopolski","sort_rank":275,"source":"openstreetmap.org","min_zoom":6.0,"operator":"PKP Polskie Linie Kolejowe S.A.","ref":"367","osm_relation":true,"network":"PKP"},"arcs":[30]},{"type":"LineString","properties":{"kind":"train","name:en":"EN 453 : Paris \u2212 Berlin \u2212 Moscow","network":"EuroNight","service":"international","sort_rank":275,"source":"openstreetmap.org","min_zoom":5.0,"operator":"\u0420\u043e\u0441\u0441\u0438\u0439\u0441\u043a\u0438\u0435 \u0436\u0435\u043b\u0435\u0437\u043d\u044b\u0435 \u0434\u043e\u0440\u043e\u0433\u0438","ref":"EN 453","osm_relation":true,"name":"EN 453 : Paris \u2212 Berlin \u2212 Moscou"},"arcs":[31]},{"type":"MultiLineString","properties":{"kind":"train","name":"Linia kolejowa nr 273 Wroc\u0142aw G\u0142\u00f3wny - Szczecin G\u0142\u00f3wny","sort_rank":275,"source":"openstreetmap.org","min_zoom":6.0,"operator":"PKP Polskie Linie Kolejowe S.A.","ref":"273","osm_relation":true,"network":"PKP"},"arcs":[[32],[33]]},{"type":"MultiLineString","properties":{"kind":"train","name":"Linia kolejowa nr 271 Wroc\u0142aw G\u0142\u00f3wny - Pozna\u0144 G\u0142\u00f3wny","sort_rank":275,"source":"openstreetmap.org","min_zoom":6.0,"operator":"PKP Polskie Linie Kolejowe S.A.","ref":"271","osm_relation":true,"network":"PKP"},"arcs":[[34],[35]]},{"type":"MultiLineString","properties":{"kind":"train","name":"Linia kolejowa nr 351 Pozna\u0144 G\u0142\u00f3wny - Szczecin G\u0142\u00f3wny","sort_rank":275,"source":"openstreetmap.org","min_zoom":6.0,"operator":"PKP Polskie Linie Kolejowe S.A.","ref":"351","osm_relation":true,"network":"PKP"},"arcs":[[36],[37],[38],[39],[40]]}]},"pois":{"type":"GeometryCollection","geometries":[{"type":"Point","properties":{"kind":"national_park","protect_class":"2","area":176072000,"name:de":"Nationalpark Gro\u00dfpolen","source":"openstreetmap.org","min_zoom":7.06,"tier":1,"id":-6252649,"osm_relation":true,"name":"Wielkopolski Park Narodowy"},"coordinates":[3821,3107]},{"type":"Point","properties":{"kind":"nature_reserve","protect_class":"5","area":458355000,"source":"openstreetmap.org","min_zoom":7.87,"tier":2,"id":-4524376,"osm_relation":true,"name":"Park Krajobrazowy im. gen. Dezyderego Ch\u0142apowskiego"},"coordinates":[3915,2072]},{"type":"Point","properties":{"kind":"nature_reserve","protect_class":"5","area":557263000,"name:de":"Landschaftsschutzpark Priment","source":"openstreetmap.org","min_zoom":7.73,"tier":2,"id":-4522387,"osm_relation":true,"name":"Przem\u0119cki Park Krajobrazowy"},"coordinates":[2371,1488]},{"type":"Point","properties":{"kind":"nature_reserve","protect_class":"5","area":293063000,"name:de":"Landschaftsschutzpark Betsche","source":"openstreetmap.org","min_zoom":8.19,"tier":2,"id":-4522377,"osm_relation":true,"name":"Pszczewski Park Krajobrazowy"},"coordinates":[849,4024]}]},"boundaries":{"type":"GeometryCollection","geometries":[{"type":"LineString","properties":{"name:right:nl":"Woiwodschap Groot-Polen","name:right:ja":"\u30f4\u30a3\u30a8\u30eb\u30b3\u30dd\u30eb\u30b9\u30ab\u770c","loc_name:left":"Dolno\u015bl\u0105skie","alt_name:left:en":"Lower Silesian Province","name:right:uk":"\u0412\u0435\u043b\u0438\u043a\u043e\u043f\u043e\u043b\u044c\u0441\u044c\u043a\u0435 \u0432\u043e\u0454\u0432\u043e\u0434\u0441\u0442\u0432\u043e","int_name:left":"wojewodztwo dolnoslaskie","name:left:ja":"\u30c9\u30eb\u30cc\u30a3\u30fb\u30b7\u30ed\u30f3\u30b9\u30af\u770c","id:right":-130971,"name:right:lt":"Did\u017eiosios Lenkijos vaivadija","name:left:sl":"Spodnje\u0161lezijsko vojvodstvo","min_zoom":8.0,"name:left:lt":"\u017demutin\u0117s Silezijos vaivadija","name:left:sk":"Dolnosliezske","name:left:be":"\u041d\u0456\u0436\u043d\u0435\u0441\u0456\u043b\u0435\u0437\u0441\u043a\u0430\u0435 \u0432\u0430\u044f\u0432\u043e\u0434\u0441\u0442\u0432\u0430","name:right:fr":"Grande-Pologne","name:left:hu":"Als\u00f3-Szil\u00e9ziai vajdas\u00e1g","id":-224457,"name:right":"wojew\u00f3dztwo wielkopolskie","short_name:left":"dolno\u015bl\u0105skie","name:left:eo":"Malsuprasilezia Provinco","name:left:en":"Lower Silesian Voivodeship","sort_rank":256,"kind_detail":"4","source":"openstreetmap.org","name:left:nl":"Woiwodschap Neder-Silezi\u00eb","id:left":-224457,"name:left:es":"Voivodato de Baja Silesia","name:right:cs":"Velkopolsk\u00e9 vojvodstv\u00ed","name:left:cs":"Dolnoslezsk\u00e9 vojvodstv\u00ed","name:left":"wojew\u00f3dztwo dolno\u015bl\u0105skie","name:left:ka":"\u10e5\u10d5\u10d4\u10db\u10dd \u10e1\u10d8\u10da\u10d4\u10d6\u10d8\u10d8\u10e1 \u10e1\u10d0\u10d5\u10dd\u10d4\u10d5\u10dd\u10d3\u10dd","name:left:ar":"\u0645\u062d\u0627\u0641\u0638\u0629 \u0633\u064a\u0644\u0632\u064a\u0627 \u0627\u0644\u0633\u0641\u0644\u0649","name:right:ru":"\u0412\u0435\u043b\u0438\u043a\u043e\u043f\u043e\u043b\u044c\u0441\u043a\u043e\u0435 \u0432\u043e\u0435\u0432\u043e\u0434\u0441\u0442\u0432\u043e","name:left:pt":"Voivodia da Baixa Sil\u00e9sia","name:left:ru":"\u041d\u0438\u0436\u043d\u0435\u0441\u0438\u043b\u0435\u0437\u0441\u043a\u043e\u0435 \u0432\u043e\u0435\u0432\u043e\u0434\u0441\u0442\u0432\u043e","short_name:right":"wielkopolskie","name:right:eo":"Grandpollanda Provinco","name:right:en":"Greater Poland Voivodeship","osm_relation":true,"name:left:uk":"\u041d\u0438\u0436\u043d\u044c\u043e\u0441\u0456\u043b\u0435\u0437\u044c\u043a\u0435 \u0432\u043e\u0454\u0432\u043e\u0434\u0441\u0442\u0432\u043e","kind":"region","name":"wojew\u00f3dztwo dolno\u015bl\u0105skie - wojew\u00f3dztwo wielkopolskie","name:right:de":"Woiwodschaft Gro\u00dfpolen","name:left:de":"Woiwodschaft Niederschlesien","name:right:be":"\u0412\u044f\u043b\u0456\u043a\u0430\u043f\u043e\u043b\u044c\u0441\u043a\u0430\u0435 \u0432\u0430\u044f\u0432\u043e\u0434\u0441\u0442\u0432\u0430","name:left:zh":"\u4e0b\u897f\u91cc\u897f\u4e9a\u7701","name:left:fr":"Basse-Sil\u00e9sie"},"arcs":[0]},{"type":"LineString","properties":{"name:right:nl":"Woiwodschap Lubusz","name:right:ja":"\u30eb\u30d6\u30b7\u30e5\u770c","loc_name:left":"Dolno\u015bl\u0105skie","alt_name:left:en":"Lower Silesian Province","alt_name:right:es":"Voivodato de Lubusz","int_name:left":"wojewodztwo dolnoslaskie","name:left:ja":"\u30c9\u30eb\u30cc\u30a3\u30fb\u30b7\u30ed\u30f3\u30b9\u30af\u770c","id:right":-130969,"name:right:lt":"Liubu\u0161o vaivadija","name:left:sl":"Spodnje\u0161lezijsko vojvodstvo","min_zoom":8.0,"name:left:lt":"\u017demutin\u0117s Silezijos vaivadija","alt_name:right:en":"Lubusz Province","name:left:sk":"Dolnosliezske","name:left:be":"\u041d\u0456\u0436\u043d\u0435\u0441\u0456\u043b\u0435\u0437\u0441\u043a\u0430\u0435 \u0432\u0430\u044f\u0432\u043e\u0434\u0441\u0442\u0432\u0430","name:right:fr":"Lubusz","name:left:hu":"Als\u00f3-Szil\u00e9ziai vajdas\u00e1g","id":-224457,"name:right":"wojew\u00f3dztwo lubuskie","short_name:left":"dolno\u015bl\u0105skie","name:left:eo":"Malsuprasilezia Provinco","name:left:en":"Lower Silesian Voivodeship","source":"openstreetmap.org","sort_rank":256,"kind_detail":"4","name:right:uk":"\u041b\u044e\u0431\u0443\u0441\u044c\u043a\u0435 \u0432\u043e\u0454\u0432\u043e\u0434\u0441\u0442\u0432\u043e","name:left:nl":"Woiwodschap Neder-Silezi\u00eb","id:left":-224457,"name:left:es":"Voivodato de Baja Silesia","name:right:cs":"Lubu\u0161sk\u00e9 vojvodstv\u00ed","name:left:cs":"Dolnoslezsk\u00e9 vojvodstv\u00ed","name:left":"wojew\u00f3dztwo dolno\u015bl\u0105skie","name:right:es":"Voivodato de Lubus","name:left:ka":"\u10e5\u10d5\u10d4\u10db\u10dd \u10e1\u10d8\u10da\u10d4\u10d6\u10d8\u10d8\u10e1 \u10e1\u10d0\u10d5\u10dd\u10d4\u10d5\u10dd\u10d3\u10dd","name:left:ar":"\u0645\u062d\u0627\u0641\u0638\u0629 \u0633\u064a\u0644\u0632\u064a\u0627 \u0627\u0644\u0633\u0641\u0644\u0649","kind":"region","name:right:ru":"\u041b\u044e\u0431\u0443\u0441\u043a\u043e\u0435 \u0432\u043e\u0435\u0432\u043e\u0434\u0441\u0442\u0432\u043e","name:left:pt":"Voivodia da Baixa Sil\u00e9sia","name:left:ru":"\u041d\u0438\u0436\u043d\u0435\u0441\u0438\u043b\u0435\u0437\u0441\u043a\u043e\u0435 \u0432\u043e\u0435\u0432\u043e\u0434\u0441\u0442\u0432\u043e","short_name:right":"lubuskie","name:right:eo":"Lubu\u015da Provinco","name:right:en":"Lubusz Voivodeship","osm_relation":true,"name:left:uk":"\u041d\u0438\u0436\u043d\u044c\u043e\u0441\u0456\u043b\u0435\u0437\u044c\u043a\u0435 \u0432\u043e\u0454\u0432\u043e\u0434\u0441\u0442\u0432\u043e","loc_name:right":"Lubuskie","name":"wojew\u00f3dztwo dolno\u015bl\u0105skie - wojew\u00f3dztwo lubuskie","name:right:de":"Woiwodschaft Lebus","name:left:de":"Woiwodschaft Niederschlesien","name:right:be":"\u041b\u044e\u0431\u0443\u0448\u0441\u043a\u0430\u0435 \u0432\u0430\u044f\u0432\u043e\u0434\u0441\u0442\u0432\u0430","name:left:zh":"\u4e0b\u897f\u91cc\u897f\u4e9a\u7701","name:left:fr":"Basse-Sil\u00e9sie","name:right:sl":"Lubu\u0161ko vojvodstvo"},"arcs":[1]},{"type":"LineString","properties":{"name:right:nl":"Woiwodschap Lubusz","name:right:ja":"\u30eb\u30d6\u30b7\u30e5\u770c","loc_name:left":"Dolno\u015bl\u0105skie","alt_name:left:en":"Lower Silesian Province","alt_name:right:es":"Voivodato de Lubusz","int_name:left":"wojewodztwo dolnoslaskie","name:left:ja":"\u30c9\u30eb\u30cc\u30a3\u30fb\u30b7\u30ed\u30f3\u30b9\u30af\u770c","id:right":-130969,"name:right:lt":"Liubu\u0161o vaivadija","name:left:sl":"Spodnje\u0161lezijsko vojvodstvo","min_zoom":8.0,"name:left:lt":"\u017demutin\u0117s Silezijos vaivadija","alt_name:right:en":"Lubusz Province","name:left:sk":"Dolnosliezske","name:left:be":"\u041d\u0456\u0436\u043d\u0435\u0441\u0456\u043b\u0435\u0437\u0441\u043a\u0430\u0435 \u0432\u0430\u044f\u0432\u043e\u0434\u0441\u0442\u0432\u0430","name:right:fr":"Lubusz","name:left:hu":"Als\u00f3-Szil\u00e9ziai vajdas\u00e1g","id":-224457,"name:right":"wojew\u00f3dztwo lubuskie","short_name:left":"dolno\u015bl\u0105skie","name:left:eo":"Malsuprasilezia Provinco","name:left:en":"Lower Silesian Voivodeship","source":"openstreetmap.org","sort_rank":256,"kind_detail":"4","name:right:uk":"\u041b\u044e\u0431\u0443\u0441\u044c\u043a\u0435 \u0432\u043e\u0454\u0432\u043e\u0434\u0441\u0442\u0432\u043e","name:left:nl":"Woiwodschap Neder-Silezi\u00eb","id:left":-224457,"name:left:es":"Voivodato de Baja Silesia","name:right:cs":"Lubu\u0161sk\u00e9 vojvodstv\u00ed","name:left:cs":"Dolnoslezsk\u00e9 vojvodstv\u00ed","name:left":"wojew\u00f3dztwo dolno\u015bl\u0105skie","name:right:es":"Voivodato de Lubus","name:left:ka":"\u10e5\u10d5\u10d4\u10db\u10dd \u10e1\u10d8\u10da\u10d4\u10d6\u10d8\u10d8\u10e1 \u10e1\u10d0\u10d5\u10dd\u10d4\u10d5\u10dd\u10d3\u10dd","name:left:ar":"\u0645\u062d\u0627\u0641\u0638\u0629 \u0633\u064a\u0644\u0632\u064a\u0627 \u0627\u0644\u0633\u0641\u0644\u0649","kind":"region","name:right:ru":"\u041b\u044e\u0431\u0443\u0441\u043a\u043e\u0435 \u0432\u043e\u0435\u0432\u043e\u0434\u0441\u0442\u0432\u043e","name:left:pt":"Voivodia da Baixa Sil\u00e9sia","name:left:ru":"\u041d\u0438\u0436\u043d\u0435\u0441\u0438\u043b\u0435\u0437\u0441\u043a\u043e\u0435 \u0432\u043e\u0435\u0432\u043e\u0434\u0441\u0442\u0432\u043e","short_name:right":"lubuskie","name:right:eo":"Lubu\u015da Provinco","name:right:en":"Lubusz Voivodeship","osm_relation":true,"name:left:uk":"\u041d\u0438\u0436\u043d\u044c\u043e\u0441\u0456\u043b\u0435\u0437\u044c\u043a\u0435 \u0432\u043e\u0454\u0432\u043e\u0434\u0441\u0442\u0432\u043e","loc_name:right":"Lubuskie","name":"wojew\u00f3dztwo dolno\u015bl\u0105skie - wojew\u00f3dztwo lubuskie","name:right:de":"Woiwodschaft Lebus","name:left:de":"Woiwodschaft Niederschlesien","name:right:be":"\u041b\u044e\u0431\u0443\u0448\u0441\u043a\u0430\u0435 \u0432\u0430\u044f\u0432\u043e\u0434\u0441\u0442\u0432\u0430","name:left:zh":"\u4e0b\u897f\u91cc\u897f\u4e9a\u7701","name:left:fr":"Basse-Sil\u00e9sie","name:right:sl":"Lubu\u0161ko vojvodstvo"},"arcs":[2]},{"type":"LineString","properties":{"name:right:nl":"Woiwodschap Lubusz","name:right:ja":"\u30eb\u30d6\u30b7\u30e5\u770c","name:right:fr":"Lubusz","alt_name:right:es":"Voivodato de Lubusz","name:left:ja":"\u30f4\u30a3\u30a8\u30eb\u30b3\u30dd\u30eb\u30b9\u30ab\u770c","id:right":-130969,"name:right:lt":"Liubu\u0161o vaivadija","name:left:nl":"Woiwodschap Groot-Polen","name:left:lt":"Did\u017eiosios Lenkijos vaivadija","alt_name:right:en":"Lubusz Province","name:left:be":"\u0412\u044f\u043b\u0456\u043a\u0430\u043f\u043e\u043b\u044c\u0441\u043a\u0430\u0435 \u0432\u0430\u044f\u0432\u043e\u0434\u0441\u0442\u0432\u0430","id":-130971,"name:right":"wojew\u00f3dztwo lubuskie","short_name:left":"wielkopolskie","name:left:eo":"Grandpollanda Provinco","name:left:en":"Greater Poland Voivodeship","source":"openstreetmap.org","sort_rank":256,"kind_detail":"4","name:right:uk":"\u041b\u044e\u0431\u0443\u0441\u044c\u043a\u0435 \u0432\u043e\u0454\u0432\u043e\u0434\u0441\u0442\u0432\u043e","id:left":-130971,"name:right:cs":"Lubu\u0161sk\u00e9 vojvodstv\u00ed","name:left:cs":"Velkopolsk\u00e9 vojvodstv\u00ed","name:left":"wojew\u00f3dztwo wielkopolskie","name:right:es":"Voivodato de Lubus","kind":"region","name:right:ru":"\u041b\u044e\u0431\u0443\u0441\u043a\u043e\u0435 \u0432\u043e\u0435\u0432\u043e\u0434\u0441\u0442\u0432\u043e","name:left:de":"Woiwodschaft Gro\u00dfpolen","name:left:ru":"\u0412\u0435\u043b\u0438\u043a\u043e\u043f\u043e\u043b\u044c\u0441\u043a\u043e\u0435 \u0432\u043e\u0435\u0432\u043e\u0434\u0441\u0442\u0432\u043e","short_name:right":"lubuskie","name:right:eo":"Lubu\u015da Provinco","name:right:en":"Lubusz Voivodeship","osm_relation":true,"name:left:uk":"\u0412\u0435\u043b\u0438\u043a\u043e\u043f\u043e\u043b\u044c\u0441\u044c\u043a\u0435 \u0432\u043e\u0454\u0432\u043e\u0434\u0441\u0442\u0432\u043e","loc_name:right":"Lubuskie","name":"wojew\u00f3dztwo wielkopolskie - wojew\u00f3dztwo lubuskie","name:right:de":"Woiwodschaft Lebus","min_zoom":8.0,"name:right:be":"\u041b\u044e\u0431\u0443\u0448\u0441\u043a\u0430\u0435 \u0432\u0430\u044f\u0432\u043e\u0434\u0441\u0442\u0432\u0430","name:left:fr":"Grande-Pologne","name:right:sl":"Lubu\u0161ko vojvodstvo"},"arcs":[3]},{"type":"LineString","properties":{"name:right:nl":"Woiwodschap Lubusz","name:right:ja":"\u30eb\u30d6\u30b7\u30e5\u770c","name:right:fr":"Lubusz","alt_name:right:es":"Voivodato de Lubusz","name:left:ja":"\u30f4\u30a3\u30a8\u30eb\u30b3\u30dd\u30eb\u30b9\u30ab\u770c","id:right":-130969,"name:right:lt":"Liubu\u0161o vaivadija","name:left:nl":"Woiwodschap Groot-Polen","name:left:lt":"Did\u017eiosios Lenkijos vaivadija","alt_name:right:en":"Lubusz Province","name:left:be":"\u0412\u044f\u043b\u0456\u043a\u0430\u043f\u043e\u043b\u044c\u0441\u043a\u0430\u0435 \u0432\u0430\u044f\u0432\u043e\u0434\u0441\u0442\u0432\u0430","id":-130971,"name:right":"wojew\u00f3dztwo lubuskie","short_name:left":"wielkopolskie","name:left:eo":"Grandpollanda Provinco","name:left:en":"Greater Poland Voivodeship","source":"openstreetmap.org","sort_rank":256,"kind_detail":"4","name:right:uk":"\u041b\u044e\u0431\u0443\u0441\u044c\u043a\u0435 \u0432\u043e\u0454\u0432\u043e\u0434\u0441\u0442\u0432\u043e","id:left":-130971,"name:right:cs":"Lubu\u0161sk\u00e9 vojvodstv\u00ed","name:left:cs":"Velkopolsk\u00e9 vojvodstv\u00ed","name:left":"wojew\u00f3dztwo wielkopolskie","name:right:es":"Voivodato de Lubus","kind":"region","name:right:ru":"\u041b\u044e\u0431\u0443\u0441\u043a\u043e\u0435 \u0432\u043e\u0435\u0432\u043e\u0434\u0441\u0442\u0432\u043e","name:left:de":"Woiwodschaft Gro\u00dfpolen","name:left:ru":"\u0412\u0435\u043b\u0438\u043a\u043e\u043f\u043e\u043b\u044c\u0441\u043a\u043e\u0435 \u0432\u043e\u0435\u0432\u043e\u0434\u0441\u0442\u0432\u043e","short_name:right":"lubuskie","name:right:eo":"Lubu\u015da Provinco","name:right:en":"Lubusz Voivodeship","osm_relation":true,"name:left:uk":"\u0412\u0435\u043b\u0438\u043a\u043e\u043f\u043e\u043b\u044c\u0441\u044c\u043a\u0435 \u0432\u043e\u0454\u0432\u043e\u0434\u0441\u0442\u0432\u043e","loc_name:right":"Lubuskie","name":"wojew\u00f3dztwo wielkopolskie - wojew\u00f3dztwo lubuskie","name:right:de":"Woiwodschaft Lebus","min_zoom":8.0,"name:right:be":"\u041b\u044e\u0431\u0443\u0448\u0441\u043a\u0430\u0435 \u0432\u0430\u044f\u0432\u043e\u0434\u0441\u0442\u0432\u0430","name:left:fr":"Grande-Pologne","name:right:sl":"Lubu\u0161ko vojvodstvo"},"arcs":[4]}]},"roads":{"type":"GeometryCollection","geometries":[{"type":"MultiLineString","properties":{"kind":"major_road","network":"pl:national","sort_rank":380,"kind_detail":"primary","source":"openstreetmap.org","min_zoom":8.0,"landuse_kind":"urban_area","shield_text":"92","ref":"92"},"arcs":[[41],[42],[43],[44],[45],[46],[47],[48],[49],[50],[51],[52],[53]]},{"type":"MultiLineString","properties":{"kind":"major_road","network":"pl:national","sort_rank":380,"kind_detail":"primary","is_bicycle_related":true,"bicycle_shield_text":null,"bicycle_network":"rcn","source":"openstreetmap.org","min_zoom":8.0,"landuse_kind":"urban_area","shield_text":"12","ref":"12"},"arcs":[[54],[55],[56]]},{"type":"LineString","properties":{"kind":"major_road","network":"pl:regional","sort_rank":377,"kind_detail":"tertiary","is_bicycle_related":true,"bicycle_shield_text":"ORT","bicycle_network":"ncn","source":"openstreetmap.org","min_zoom":8.0,"shield_text":"325","ref":"325","id":208087768},"arcs":[57]},{"type":"MultiLineString","properties":{"kind":"major_road","network":"pl:national","sort_rank":381,"kind_detail":"trunk","source":"openstreetmap.org","min_zoom":8.0,"shield_text":"3","ref":"S3;32"},"arcs":[[58],[59],[60],[61],[62],[63]]},{"type":"MultiLineString","properties":{"kind":"highway","network":"pl:national","sort_rank":383,"kind_detail":"motorway","source":"openstreetmap.org","min_zoom":8.0,"all_networks":["pl:national","e-road","pl:motorways"],"shield_text":"2","ref":"A2","all_shield_texts":["2","30","2"]},"arcs":[[64],[65],[66],[67],[68],[69],[70],[71]]},{"type":"LineString","properties":{"kind":"major_road","sort_rank":377,"kind_detail":"tertiary","is_bicycle_related":true,"bicycle_shield_text":"ORT","bicycle_network":"ncn","source":"openstreetmap.org","min_zoom":8.0,"landuse_kind":"urban_area","ref":"1053D","id":107196742},"arcs":[72]},{"type":"LineString","properties":{"kind":"major_road","sort_rank":379,"kind_detail":"secondary","is_bicycle_related":true,"bicycle_shield_text":"R1","bicycle_network":"icn","source":"openstreetmap.org","min_zoom":8.0,"ref":"137","id":441720278},"arcs":[73]},{"type":"LineString","properties":{"kind":"major_road","network":"pl:regional","sort_rank":377,"kind_detail":"tertiary","is_bicycle_related":true,"bicycle_shield_text":"ORT","bicycle_network":"ncn","source":"openstreetmap.org","min_zoom":8.0,"shield_text":"326","ref":"326","id":263936981},"arcs":[74]},{"type":"MultiLineString","properties":{"kind":"major_road","network":"pl:national","sort_rank":380,"kind_detail":"primary","source":"openstreetmap.org","min_zoom":8.0,"landuse_kind":"residential","shield_text":"12","ref":"12"},"arcs":[[75],[76],[77]]},{"type":"MultiLineString","properties":{"bus_network":"Leszno","network":"pl:national","sort_rank":380,"kind_detail":"primary","kind":"major_road","source":"openstreetmap.org","min_zoom":8.0,"bus_shield_text":"2","shield_text":"12","landuse_kind":"urban_area","ref":"12"},"arcs":[[78],[79],[80],[81],[82],[83],[84],[85],[86],[87],[88],[89],[90],[91],[92],[93]]},{"type":"LineString","properties":{"kind":"major_road","network":"pl:national","sort_rank":380,"kind_detail":"primary","bicycle_shield_text":"zielony","bicycle_network":null,"source":"openstreetmap.org","min_zoom":8.0,"shield_text":"92","ref":"92"},"arcs":[94]},{"type":"MultiLineString","properties":{"kind":"minor_road","sort_rank":358,"kind_detail":"service","is_bicycle_related":true,"bicycle_shield_text":"ORT","bicycle_network":"ncn","source":"openstreetmap.org","min_zoom":8.0},"arcs":[[95],[96],[97]]},{"type":"MultiLineString","properties":{"kind":"major_road","network":"pl:national","sort_rank":380,"kind_detail":"primary","source":"openstreetmap.org","min_zoom":8.0,"landuse_kind":"urban_area","shield_text":"12"},"arcs":[[98],[99]]},{"type":"LineString","properties":{"kind":"major_road","network":"pl:national","sort_rank":380,"kind_detail":"primary","bus_network":"Komorniki","source":"openstreetmap.org","min_zoom":8.0,"bus_shield_text":"703","shield_text":"5","landuse_kind":"urban_area","ref":"5"},"arcs":[100]},{"type":"MultiLineString","properties":{"sort_rank":380,"kind_detail":"primary","min_zoom":8.0,"kind":"major_road","source":"openstreetmap.org"},"arcs":[[101],[102],[103],[104],[105],[106],[107],[108],[109],[110]]},{"type":"MultiLineString","properties":{"bus_network":null,"network":"pl:national","sort_rank":380,"kind_detail":"primary","kind":"major_road","source":"openstreetmap.org","min_zoom":8.0,"bus_shield_text":"10","shield_text":"32","landuse_kind":"urban_area"},"arcs":[[111],[112]]},{"type":"LineString","properties":{"source":"openstreetmap.org","kind":"major_road","landuse_kind":"residential","sort_rank":380,"kind_detail":"primary","min_zoom":8.0,"id":245531573},"arcs":[113]},{"type":"LineString","properties":{"bicycle_shield_text":null,"min_zoom":8.0,"old_name:pl":"R\u00f3\u017cowy Most","bicycle_network":"rcn","id":395956447,"kind":"major_road","name:en":"Bridge of Tolerance","old_name:de":"Hindenburg Br\u00fccke","network":"pl:national","sort_rank":380,"kind_detail":"primary","is_bicycle_related":true,"name:de":"Br\u00fccke der Toleranz","source":"openstreetmap.org","landuse_kind":"urban_area","shield_text":"12","ref":"12"},"arcs":[114]},{"type":"MultiLineString","properties":{"kind":"major_road","network":"pl:national","sort_rank":380,"kind_detail":"primary","source":"openstreetmap.org","min_zoom":8.0,"landuse_kind":"urban_area","shield_text":"12","ref":"12;292"},"arcs":[[115],[116],[117],[118],[119]]},{"type":"MultiLineString","properties":{"kind":"major_road","network":"pl:national","sort_rank":381,"kind_detail":"trunk","source":"openstreetmap.org","min_zoom":8.0,"shield_text":"3","ref":"S3"},"arcs":[[120],[121],[122],[123],[124],[125],[126],[127],[128],[129],[130],[131],[132],[133],[134]]},{"type":"LineString","properties":{"kind":"major_road","network":"pl:national","sort_rank":380,"kind_detail":"primary","is_bicycle_related":true,"bicycle_shield_text":null,"bicycle_network":"lcn","source":"openstreetmap.org","min_zoom":8.0,"shield_text":"3","ref":"3"},"arcs":[135]},{"type":"MultiLineString","properties":{"kind":"minor_road","sort_rank":360,"kind_detail":"residential","is_bicycle_related":true,"bicycle_shield_text":"R1","bicycle_network":"icn","source":"openstreetmap.org","min_zoom":8.0},"arcs":[[136],[137],[138]]},{"type":"MultiLineString","properties":{"kind":"major_road","network":"pl:national","sort_rank":381,"landuse_kind":"urban_area","source":"openstreetmap.org","min_zoom":8.0,"kind_detail":"trunk","shield_text":"11","ref":"S11"},"arcs":[[139],[140]]},{"type":"LineString","properties":{"kind":"major_road","sort_rank":377,"kind_detail":"tertiary","is_bicycle_related":true,"bus_network":"ZTM Pozna\u0144","bicycle_shield_text":"R9","bicycle_network":"ncn","source":"openstreetmap.org","min_zoom":8.0,"bus_shield_text":"651","landuse_kind":"national_park","id":403179298},"arcs":[141]},{"type":"LineString","properties":{"bus_network":null,"network":"pl:national","sort_rank":380,"kind_detail":"primary","kind":"major_road","source":"openstreetmap.org","min_zoom":8.0,"bus_shield_text":"17B","shield_text":"32","landuse_kind":"urban_area","ref":"32"},"arcs":[142]},{"type":"MultiLineString","properties":{"kind":"major_road","sort_rank":377,"kind_detail":"tertiary","is_bicycle_related":true,"bicycle_shield_text":"ORT","bicycle_network":"ncn","source":"openstreetmap.org","min_zoom":8.0,"ref":"1010D"},"arcs":[[143],[144]]},{"type":"MultiLineString","properties":{"bus_network":"ZTM Pozna\u0144","network":"pl:national","sort_rank":380,"kind_detail":"primary","kind":"major_road","source":"openstreetmap.org","min_zoom":8.0,"bus_shield_text":"701","shield_text":"5","ref":"5"},"arcs":[[145],[146],[147],[148],[149]]},{"type":"LineString","properties":{"bus_network":"ZTM Pozna\u0144","sort_rank":377,"kind_detail":"tertiary","is_bicycle_related":true,"kind":"major_road","bicycle_shield_text":"R2","bicycle_network":"ncn","source":"openstreetmap.org","min_zoom":8.0,"bus_shield_text":"95"},"arcs":[150]},{"type":"LineString","properties":{"kind":"major_road","network":"pl:national","sort_rank":380,"kind_detail":"primary","bus_network":"Tarnowo Podg\u00f3rne","source":"openstreetmap.org","min_zoom":8.0,"bus_shield_text":"04","shield_text":"92","landuse_kind":"urban_area","ref":"92","id":429557240},"arcs":[151]},{"type":"LineString","properties":{"kind":"major_road","network":"pl:national","sort_rank":380,"kind_detail":"primary","source":"openstreetmap.org","min_zoom":8.0,"landuse_kind":"nature_reserve","shield_text":"92","ref":"92"},"arcs":[152]},{"type":"MultiLineString","properties":{"kind":"major_road","network":"pl:national","sort_rank":380,"kind_detail":"primary","source":"openstreetmap.org","min_zoom":8.0,"shield_text":"3","ref":"3"},"arcs":[[153],[154],[155],[156],[157],[158],[159],[160],[161],[162],[163],[164],[165],[166],[167]]},{"type":"MultiLineString","properties":{"kind":"path","sort_rank":354,"kind_detail":"path","is_bicycle_related":true,"bicycle_shield_text":"R9","bicycle_network":"ncn","source":"openstreetmap.org","min_zoom":8.0},"arcs":[[168],[169]]},{"type":"LineString","properties":{"kind":"path","sort_rank":354,"kind_detail":"path","is_bicycle_related":true,"bicycle_shield_text":"R9","bicycle_network":"ncn","source":"openstreetmap.org","min_zoom":8.0,"landuse_kind":"national_park","id":403179297},"arcs":[170]},{"type":"LineString","properties":{"kind":"minor_road","sort_rank":360,"kind_detail":"residential","is_bicycle_related":true,"bicycle_shield_text":"R9","bicycle_network":"ncn","source":"openstreetmap.org","min_zoom":8.0},"arcs":[171]},{"type":"LineString","properties":{"kind":"path","sort_rank":354,"kind_detail":"track","is_bicycle_related":true,"bicycle_shield_text":"R9","bicycle_network":"ncn","source":"openstreetmap.org","min_zoom":8.0},"arcs":[172]},{"type":"LineString","properties":{"kind":"major_road","sort_rank":377,"landuse_kind":"nature_reserve","is_bicycle_related":true,"bicycle_shield_text":"R1","bicycle_network":"icn","source":"openstreetmap.org","min_zoom":8.0,"kind_detail":"tertiary"},"arcs":[173]},{"type":"MultiLineString","properties":{"source":"openstreetmap.org","kind":"major_road","network":"pl:national","sort_rank":380,"kind_detail":"primary","min_zoom":8.0,"shield_text":"92"},"arcs":[[174],[175]]},{"type":"MultiLineString","properties":{"kind":"major_road","network":"pl:regional","sort_rank":379,"kind_detail":"secondary","is_bicycle_related":true,"bicycle_shield_text":"ORT","bicycle_network":"ncn","source":"openstreetmap.org","min_zoom":8.0,"shield_text":"282","ref":"282"},"arcs":[[176],[177]]},{"type":"MultiLineString","properties":{"kind":"major_road","network":"pl:national","sort_rank":380,"kind_detail":"primary","source":"openstreetmap.org","min_zoom":8.0,"shield_text":"32","ref":"32"},"arcs":[[178],[179],[180],[181],[182],[183],[184],[185],[186],[187],[188],[189],[190],[191],[192],[193],[194],[195],[196],[197],[198],[199],[200],[201],[202],[203],[204],[205],[206],[207],[208],[209],[210],[211],[212],[213],[214],[215],[216],[217],[218],[219]]},{"type":"MultiLineString","properties":{"kind":"major_road","network":"pl:national","sort_rank":380,"kind_detail":"primary","bus_network":"Tarnowo Podg\u00f3rne","source":"openstreetmap.org","min_zoom":8.0,"bus_shield_text":"01","shield_text":"92","ref":"92"},"arcs":[[220],[221],[222],[223],[224],[225]]},{"type":"LineString","properties":{"bus_network":"ZTM Pozna\u0144","sort_rank":377,"kind_detail":"tertiary","is_bicycle_related":true,"kind":"major_road","bicycle_shield_text":"R9","bicycle_network":"ncn","source":"openstreetmap.org","min_zoom":8.0,"bus_shield_text":"651"},"arcs":[226]},{"type":"LineString","properties":{"kind":"major_road","network":"pl:national","sort_rank":380,"kind_detail":"primary","source":"openstreetmap.org","min_zoom":8.0,"landuse_kind":"national_park","shield_text":"5","ref":"5"},"arcs":[227]},{"type":"MultiLineString","properties":{"kind":"major_road","sort_rank":377,"kind_detail":"tertiary","is_bicycle_related":true,"bicycle_shield_text":"R1","bicycle_network":"icn","source":"openstreetmap.org","min_zoom":8.0},"arcs":[[228],[229]]},{"type":"LineString","properties":{"kind":"major_road","sort_rank":377,"kind_detail":"tertiary","is_bicycle_related":true,"bicycle_shield_text":"ORT","bicycle_network":"ncn","source":"openstreetmap.org","min_zoom":8.0,"ref":"1053D","id":107196742},"arcs":[230]},{"type":"LineString","properties":{"kind":"major_road","network":"pl:national","sort_rank":380,"kind_detail":"primary","is_bicycle_related":true,"bicycle_shield_text":"ORT","bicycle_network":"ncn","source":"openstreetmap.org","min_zoom":8.0,"landuse_kind":"urban_area","shield_text":"12","ref":"12"},"arcs":[231]},{"type":"LineString","properties":{"kind":"major_road","network":"pl:national","sort_rank":381,"landuse_kind":"urban_area","source":"openstreetmap.org","min_zoom":8.0,"kind_detail":"trunk","shield_text":"3","ref":"S3"},"arcs":[232]},{"type":"MultiLineString","properties":{"kind":"major_road","network":"pl:national","sort_rank":380,"kind_detail":"primary","source":"openstreetmap.org","min_zoom":8.0,"shield_text":"92","ref":"92"},"arcs":[[233],[234],[235],[236],[237],[238],[239],[240],[241],[242],[243],[244],[245],[246],[247],[248],[249],[250],[251],[252],[253],[254],[255],[256],[257],[258],[259],[260],[261],[262],[263],[264],[265],[266]]},{"type":"MultiLineString","properties":{"kind":"major_road","sort_rank":377,"landuse_kind":"nature_reserve","is_bicycle_related":true,"bicycle_shield_text":"R9","bicycle_network":"ncn","source":"openstreetmap.org","min_zoom":8.0,"kind_detail":"tertiary"},"arcs":[[267],[268]]},{"type":"LineString","properties":{"bus_network":null,"network":"pl:national","sort_rank":380,"kind_detail":"primary","kind":"major_road","source":"openstreetmap.org","min_zoom":8.0,"bus_shield_text":"1","shield_text":"32","landuse_kind":"urban_area","ref":"32"},"arcs":[269]},{"type":"LineString","properties":{"kind":"major_road","sort_rank":377,"landuse_kind":"nature_reserve","is_bicycle_related":true,"bicycle_shield_text":"R9","bicycle_network":"ncn","source":"openstreetmap.org","min_zoom":8.0,"kind_detail":"tertiary","ref":"3908P"},"arcs":[270]},{"type":"MultiLineString","properties":{"sort_rank":381,"source":"openstreetmap.org","min_zoom":8.0,"kind":"major_road","kind_detail":"trunk"},"arcs":[[271],[272]]},{"type":"LineString","properties":{"kind":"major_road","network":"pl:national","sort_rank":380,"kind_detail":"primary","is_bicycle_related":true,"bicycle_shield_text":"czarny","bicycle_network":"lcn","source":"openstreetmap.org","min_zoom":8.0,"shield_text":"92","ref":"92"},"arcs":[273]},{"type":"MultiLineString","properties":{"bus_network":"Leszno","network":"pl:national","sort_rank":380,"kind_detail":"primary","kind":"major_road","source":"openstreetmap.org","min_zoom":8.0,"bus_shield_text":"3","shield_text":"12","landuse_kind":"urban_area","ref":"12"},"arcs":[[274],[275],[276],[277],[278]]},{"type":"MultiLineString","properties":{"kind":"major_road","network":"pl:expressways","sort_rank":381,"kind_detail":"trunk","source":"openstreetmap.org","min_zoom":8.0,"shield_text":"5","ref":"S5"},"arcs":[[279],[280],[281],[282],[283]]},{"type":"LineString","properties":{"source":"openstreetmap.org","kind":"major_road","sort_rank":380,"kind_detail":"primary","ref":"3","min_zoom":8.0,"id":183874075},"arcs":[284]},{"type":"MultiLineString","properties":{"bus_network":"Leszno","network":"pl:national","sort_rank":380,"kind_detail":"primary","kind":"major_road","source":"openstreetmap.org","min_zoom":8.0,"bus_shield_text":"2","shield_text":"12","ref":"12"},"arcs":[[285],[286],[287],[288]]},{"type":"LineString","properties":{"kind":"path","sort_rank":354,"kind_detail":"cycleway","is_bicycle_related":true,"bicycle_shield_text":"R2","bicycle_network":"ncn","source":"openstreetmap.org","min_zoom":8.0,"id":311749655},"arcs":[289]},{"type":"LineString","properties":{"source":"openstreetmap.org","kind":"major_road","network":"pl:national","sort_rank":380,"kind_detail":"primary","min_zoom":8.0,"shield_text":"5"},"arcs":[290]},{"type":"MultiLineString","properties":{"kind":"major_road","network":"pl:national","sort_rank":380,"kind_detail":"primary","source":"openstreetmap.org","min_zoom":8.0,"landuse_kind":"urban_area","shield_text":"5","ref":"5"},"arcs":[[291],[292],[293],[294],[295],[296],[297],[298],[299],[300],[301],[302],[303],[304],[305],[306],[307]]},{"type":"MultiLineString","properties":{"bus_network":"Leszno","network":"pl:national","sort_rank":380,"kind_detail":"primary","kind":"major_road","source":"openstreetmap.org","min_zoom":8.0,"bus_shield_text":"4","shield_text":"5","landuse_kind":"urban_area","ref":"5"},"arcs":[[308],[309]]},{"type":"LineString","properties":{"kind":"path","sort_rank":354,"landuse_kind":"urban_area","is_bicycle_related":true,"bicycle_shield_text":"ORT","bicycle_network":"ncn","source":"openstreetmap.org","min_zoom":8.0,"kind_detail":"footway"},"arcs":[310]},{"type":"LineString","properties":{"kind":"major_road","network":"pl:national","sort_rank":380,"kind_detail":"primary","source":"openstreetmap.org","min_zoom":8.0,"landuse_kind":"residential","shield_text":"12","id":135734030},"arcs":[311]},{"type":"LineString","properties":{"kind":"major_road","network":"pl:national","sort_rank":380,"kind_detail":"primary","source":"openstreetmap.org","min_zoom":8.0,"shield_text":"5","ref":"5;306","id":23169083},"arcs":[312]},{"type":"LineString","properties":{"kind":"major_road","network":"pl:national","sort_rank":380,"kind_detail":"primary","source":"openstreetmap.org","min_zoom":8.0,"shield_text":"3","ref":"3;293"},"arcs":[313]},{"type":"MultiLineString","properties":{"kind":"highway","network":"pl:national","sort_rank":383,"landuse_kind":"urban_area","source":"openstreetmap.org","min_zoom":8.0,"all_networks":["pl:national","pl:national","pl:national","e-road","e-road","pl:motorways","pl:expressways","pl:expressways"],"kind_detail":"motorway","shield_text":"2","ref":"A2;S5;S11","all_shield_texts":["2","5","11","30","261","2","5","11"]},"arcs":[[314],[315]]},{"type":"MultiLineString","properties":{"kind":"highway","network":"pl:national","sort_rank":383,"landuse_kind":"urban_area","source":"openstreetmap.org","min_zoom":8.0,"all_networks":["pl:national","pl:national","e-road","pl:motorways","pl:expressways","pl:expressways"],"kind_detail":"motorway","shield_text":"2","ref":"A2;S11","all_shield_texts":["2","11","30","2","5","11"]},"arcs":[[316],[317]]},{"type":"MultiLineString","properties":{"kind":"highway","network":"pl:national","sort_rank":383,"kind_detail":"motorway","source":"openstreetmap.org","min_zoom":8.0,"all_networks":["pl:national","pl:national","e-road","pl:motorways","pl:expressways","pl:expressways"],"shield_text":"2","ref":"A2;S11","all_shield_texts":["2","11","30","2","5","11"]},"arcs":[[318],[319]]},{"type":"LineString","properties":{"kind":"major_road","network":"pl:expressways","sort_rank":381,"kind_detail":"trunk","source":"openstreetmap.org","min_zoom":8.0,"shield_text":"5","id":175299280},"arcs":[320]},{"type":"LineString","properties":{"kind":"path","sort_rank":354,"kind_detail":"track","is_bicycle_related":true,"bicycle_shield_text":"R2","bicycle_network":"ncn","source":"openstreetmap.org","min_zoom":8.0},"arcs":[321]},{"type":"LineString","properties":{"kind":"major_road","sort_rank":377,"kind_detail":"tertiary","is_bicycle_related":true,"bicycle_shield_text":"ORT","bicycle_network":"ncn","source":"openstreetmap.org","min_zoom":8.0,"ref":"1009D","id":154048032},"arcs":[322]},{"type":"LineString","properties":{"kind":"major_road","sort_rank":377,"kind_detail":"tertiary","is_bicycle_related":true,"bicycle_shield_text":"R9","bicycle_network":"ncn","source":"openstreetmap.org","min_zoom":8.0,"landuse_kind":"nature_reserve","ref":"3897P","id":245275066},"arcs":[323]},{"type":"MultiLineString","properties":{"kind":"minor_road","sort_rank":360,"kind_detail":"residential","is_bicycle_related":true,"bicycle_shield_text":"ORT","bicycle_network":"ncn","source":"openstreetmap.org","min_zoom":8.0,"landuse_kind":"urban_area"},"arcs":[[324],[325],[326]]},{"type":"MultiLineString","properties":{"bus_network":"Leszno","network":"pl:national","sort_rank":380,"kind_detail":"primary","kind":"major_road","source":"openstreetmap.org","min_zoom":8.0,"bus_shield_text":"12","shield_text":"5","ref":"5"},"arcs":[[327],[328]]},{"type":"MultiLineString","properties":{"kind":"major_road","network":"pl:national","sort_rank":380,"kind_detail":"primary","source":"openstreetmap.org","min_zoom":8.0,"shield_text":"12","ref":"12"},"arcs":[[329],[330],[331],[332],[333]]},{"type":"MultiLineString","properties":{"kind":"major_road","network":"pl:national","sort_rank":380,"kind_detail":"primary","source":"openstreetmap.org","min_zoom":8.0,"landuse_kind":"urban_area","shield_text":"32","ref":"32"},"arcs":[[334],[335],[336],[337],[338],[339],[340],[341],[342],[343],[344]]},{"type":"MultiLineString","properties":{"kind":"major_road","network":"pl:regional","sort_rank":379,"kind_detail":"secondary","is_bicycle_related":true,"bicycle_shield_text":"ORT","bicycle_network":"ncn","source":"openstreetmap.org","min_zoom":8.0,"shield_text":"292","ref":"292"},"arcs":[[345],[346],[347]]},{"type":"LineString","properties":{"kind":"major_road","network":"pl:regional","sort_rank":379,"kind_detail":"secondary","is_bicycle_related":true,"bicycle_shield_text":"ORT","bicycle_network":"ncn","source":"openstreetmap.org","min_zoom":8.0,"shield_text":"315","ref":"315"},"arcs":[348]},{"type":"MultiLineString","properties":{"kind":"major_road","network":"pl:national","sort_rank":380,"kind_detail":"primary","source":"openstreetmap.org","min_zoom":8.0,"landuse_kind":"urban_area","shield_text":"32"},"arcs":[[349],[350]]},{"type":"MultiLineString","properties":{"kind":"minor_road","sort_rank":360,"kind_detail":"residential","is_bicycle_related":true,"bicycle_shield_text":"ORT","bicycle_network":"ncn","source":"openstreetmap.org","min_zoom":8.0},"arcs":[[351],[352],[353],[354],[355],[356],[357],[358],[359],[360],[361],[362],[363],[364],[365]]},{"type":"MultiLineString","properties":{"bus_network":"Leszno","network":"pl:national","sort_rank":380,"kind_detail":"primary","kind":"major_road","source":"openstreetmap.org","min_zoom":8.0,"bus_shield_text":"1","shield_text":"5","landuse_kind":"urban_area","ref":"5"},"arcs":[[366],[367],[368],[369],[370],[371],[372]]},{"type":"MultiLineString","properties":{"kind":"path","sort_rank":354,"kind_detail":"path","is_bicycle_related":true,"bicycle_shield_text":"ORT","bicycle_network":"ncn","source":"openstreetmap.org","min_zoom":8.0},"arcs":[[373],[374]]},{"type":"LineString","properties":{"kind":"major_road","network":"pl:national","sort_rank":380,"kind_detail":"primary","bus_network":"Leszno","source":"openstreetmap.org","min_zoom":8.0,"bus_shield_text":"12","shield_text":"12","landuse_kind":"urban_area","ref":"12","id":172020485},"arcs":[375]},{"type":"MultiLineString","properties":{"source":"openstreetmap.org","kind":"major_road","network":"pl:national","sort_rank":380,"kind_detail":"primary","min_zoom":8.0,"shield_text":"32"},"arcs":[[376],[377],[378]]},{"type":"MultiLineString","properties":{"kind":"minor_road","sort_rank":360,"kind_detail":"unclassified","is_bicycle_related":true,"bicycle_shield_text":"ORT","bicycle_network":"ncn","source":"openstreetmap.org","min_zoom":8.0},"arcs":[[379],[380],[381],[382],[383],[384],[385],[386],[387],[388],[389]]},{"type":"LineString","properties":{"kind":"major_road","sort_rank":380,"landuse_kind":"residential","source":"openstreetmap.org","min_zoom":8.0,"kind_detail":"primary","ref":"12","id":332448182},"arcs":[390]},{"type":"MultiLineString","properties":{"kind":"major_road","network":"pl:national","sort_rank":380,"kind_detail":"primary","source":"openstreetmap.org","min_zoom":8.0,"shield_text":"36","ref":"36"},"arcs":[[391],[392],[393],[394],[395],[396],[397],[398]]},{"type":"MultiLineString","properties":{"kind":"major_road","network":"pl:regional","sort_rank":379,"kind_detail":"secondary","is_bicycle_related":true,"bicycle_shield_text":"ORT","bicycle_network":"ncn","source":"openstreetmap.org","min_zoom":8.0,"shield_text":"281","ref":"281"},"arcs":[[399],[400]]},{"type":"MultiLineString","properties":{"kind":"major_road","network":"pl:national","sort_rank":380,"kind_detail":"primary","source":"openstreetmap.org","min_zoom":8.0,"shield_text":"5","ref":"5"},"arcs":[[401],[402],[403],[404],[405],[406],[407],[408],[409],[410],[411],[412],[413],[414],[415],[416],[417],[418],[419],[420],[421],[422],[423],[424],[425],[426],[427],[428],[429],[430],[431],[432],[433],[434],[435],[436],[437],[438],[439],[440],[441],[442],[443],[444],[445],[446],[447],[448],[449],[450],[451],[452],[453]]},{"type":"MultiLineString","properties":{"kind":"major_road","sort_rank":377,"landuse_kind":"nature_reserve","is_bicycle_related":true,"bicycle_shield_text":"R9","bicycle_network":"ncn","source":"openstreetmap.org","min_zoom":8.0,"kind_detail":"tertiary","ref":"3899P"},"arcs":[[454],[455]]},{"type":"LineString","properties":{"kind":"major_road","network":"pl:national","sort_rank":380,"kind_detail":"primary","source":"openstreetmap.org","min_zoom":8.0,"landuse_kind":"urban_area","shield_text":"5","ref":"5;308","id":23169081},"arcs":[456]},{"type":"LineString","properties":{"kind":"major_road","network":"pl:national","sort_rank":380,"kind_detail":"primary","source":"openstreetmap.org","min_zoom":8.0,"landuse_kind":"urban_area","shield_text":"3","ref":"3"},"arcs":[457]},{"type":"LineString","properties":{"kind":"major_road","network":"pl:national","sort_rank":380,"kind_detail":"primary","is_bicycle_related":true,"bicycle_shield_text":null,"bicycle_network":"rcn","source":"openstreetmap.org","min_zoom":8.0,"shield_text":"12","ref":"12","id":384441283},"arcs":[458]},{"type":"MultiLineString","properties":{"kind":"major_road","network":"pl:national","sort_rank":380,"kind_detail":"primary","bus_network":"Komorniki","source":"openstreetmap.org","min_zoom":8.0,"bus_shield_text":"703","shield_text":"5","ref":"5"},"arcs":[[459],[460],[461],[462],[463],[464],[465],[466],[467],[468]]},{"type":"MultiLineString","properties":{"kind":"path","sort_rank":354,"kind_detail":"track","is_bicycle_related":true,"bicycle_shield_text":"ORT","bicycle_network":"ncn","source":"openstreetmap.org","min_zoom":8.0,"landuse_kind":"urban_area"},"arcs":[[469],[470],[471]]},{"type":"LineString","properties":{"kind":"major_road","network":"pl:expressways","sort_rank":381,"kind_detail":"trunk","source":"openstreetmap.org","min_zoom":8.0,"shield_text":"3","ref":"S3","id":103232991},"arcs":[472]},{"type":"MultiLineString","properties":{"kind":"path","sort_rank":354,"kind_detail":"pedestrian","is_bicycle_related":true,"bicycle_shield_text":"ORT","bicycle_network":"ncn","source":"openstreetmap.org","min_zoom":8.0},"arcs":[[473],[474]]},{"type":"LineString","properties":{"kind":"major_road","network":"pl:national","sort_rank":380,"kind_detail":"primary","source":"openstreetmap.org","min_zoom":8.0,"old_name":"E8","shield_text":"92","ref":"92"},"arcs":[475]},{"type":"LineString","properties":{"kind":"major_road","sort_rank":377,"landuse_kind":"national_park","is_bicycle_related":true,"bicycle_shield_text":"R9","bicycle_network":"ncn","source":"openstreetmap.org","min_zoom":8.0,"kind_detail":"tertiary"},"arcs":[476]},{"type":"LineString","properties":{"kind":"major_road","network":"pl:national","sort_rank":380,"kind_detail":"primary","source":"openstreetmap.org","min_zoom":8.0,"shield_text":"32","ref":"32;305"},"arcs":[477]},{"type":"LineString","properties":{"kind":"major_road","sort_rank":377,"kind_detail":"tertiary","is_bicycle_related":true,"bicycle_shield_text":"ORT","bicycle_network":"ncn","source":"openstreetmap.org","min_zoom":8.0,"ref":"1028F","id":103233003},"arcs":[478]},{"type":"MultiLineString","properties":{"kind":"major_road","sort_rank":377,"landuse_kind":"urban_area","is_bicycle_related":true,"bicycle_shield_text":"ORT","bicycle_network":"ncn","source":"openstreetmap.org","min_zoom":8.0,"kind_detail":"tertiary"},"arcs":[[479],[480],[481],[482]]},{"type":"LineString","properties":{"kind":"minor_road","sort_rank":360,"landuse_kind":"urban_area","is_bicycle_related":true,"bicycle_shield_text":"ORT","bicycle_network":"ncn","source":"openstreetmap.org","min_zoom":8.0,"kind_detail":"unclassified"},"arcs":[483]},{"type":"MultiLineString","properties":{"kind":"major_road","network":"pl:national","sort_rank":381,"kind_detail":"trunk","source":"openstreetmap.org","min_zoom":8.0,"shield_text":"5","ref":"S5"},"arcs":[[484],[485],[486],[487],[488],[489],[490]]},{"type":"LineString","properties":{"kind":"major_road","network":"pl:regional","sort_rank":379,"kind_detail":"secondary","is_bicycle_related":true,"bicycle_shield_text":"R9","bicycle_network":"ncn","source":"openstreetmap.org","min_zoom":8.0,"shield_text":"310","ref":"310","id":245276148},"arcs":[491]},{"type":"LineString","properties":{"kind":"path","sort_rank":354,"kind_detail":"cycleway","is_bicycle_related":true,"bicycle_shield_text":"R2","bicycle_network":"ncn","source":"openstreetmap.org","min_zoom":8.0,"landuse_kind":"urban_area"},"arcs":[492]},{"type":"LineString","properties":{"kind":"path","sort_rank":354,"landuse_kind":"urban_area","is_bicycle_related":true,"bicycle_shield_text":"ORT","bicycle_network":"ncn","source":"openstreetmap.org","min_zoom":8.0,"kind_detail":"path"},"arcs":[493]},{"type":"MultiLineString","properties":{"kind":"major_road","network":"pl:national","sort_rank":380,"kind_detail":"primary","source":"openstreetmap.org","min_zoom":8.0,"landuse_kind":"urban_area","shield_text":"12","ref":"12"},"arcs":[[494],[495],[496],[497],[498],[499],[500],[501],[502],[503],[504],[505],[506]]},{"type":"LineString","properties":{"bus_network":"Leszno","network":"pl:national","sort_rank":380,"kind_detail":"primary","kind":"major_road","source":"openstreetmap.org","min_zoom":8.0,"bus_shield_text":"3","shield_text":"12","ref":"12","id":48765279},"arcs":[507]},{"type":"LineString","properties":{"kind":"path","sort_rank":354,"kind_detail":"cycleway","is_bicycle_related":true,"bicycle_shield_text":"R9","bicycle_network":"ncn","source":"openstreetmap.org","min_zoom":8.0},"arcs":[508]},{"type":"LineString","properties":{"kind":"major_road","sort_rank":377,"kind_detail":"tertiary","is_bicycle_related":true,"bicycle_shield_text":"ORT","bicycle_network":"ncn","source":"openstreetmap.org","min_zoom":8.0,"ref":"1007D"},"arcs":[509]},{"type":"MultiLineString","properties":{"kind":"major_road","network":"pl:national","sort_rank":380,"kind_detail":"primary","source":"openstreetmap.org","min_zoom":8.0,"landuse_kind":"residential","shield_text":"12","ref":"12;305"},"arcs":[[510],[511]]},{"type":"LineString","properties":{"kind":"major_road","network":"pl:national","sort_rank":380,"kind_detail":"primary","old_name":"E8","bus_network":"Tarnowo Podg\u00f3rne","source":"openstreetmap.org","min_zoom":8.0,"bus_shield_text":"01","shield_text":"92","ref":"92"},"arcs":[512]},{"type":"MultiLineString","properties":{"kind":"path","sort_rank":354,"kind_detail":"track","is_bicycle_related":true,"bicycle_shield_text":"ORT","bicycle_network":"ncn","source":"openstreetmap.org","min_zoom":8.0},"arcs":[[513],[514],[515],[516],[517],[518],[519],[520],[521],[522],[523],[524],[525],[526],[527],[528],[529],[530],[531],[532],[533],[534]]},{"type":"LineString","properties":{"kind":"major_road","sort_rank":380,"landuse_kind":"residential","source":"openstreetmap.org","min_zoom":8.0,"kind_detail":"primary","ref":"12;305","id":332448185},"arcs":[535]},{"type":"LineString","properties":{"source":"openstreetmap.org","kind":"major_road","sort_rank":381,"kind_detail":"trunk","ref":"S3","min_zoom":8.0,"id":462989060},"arcs":[536]},{"type":"LineString","properties":{"kind":"major_road","network":"pl:national","sort_rank":380,"kind_detail":"primary","is_bicycle_related":true,"bicycle_shield_text":"br\u0105zowy","bicycle_network":"lcn","source":"openstreetmap.org","min_zoom":8.0,"shield_text":"32","ref":"32","id":65616922},"arcs":[537]},{"type":"LineString","properties":{"kind":"major_road","sort_rank":377,"kind_detail":"tertiary","is_bicycle_related":true,"bicycle_shield_text":"R9","bicycle_network":"ncn","source":"openstreetmap.org","min_zoom":8.0,"ref":"3899P"},"arcs":[538]},{"type":"LineString","properties":{"bus_network":"Mosina","sort_rank":377,"kind_detail":"tertiary","is_bicycle_related":true,"kind":"major_road","bicycle_shield_text":"R9","bicycle_network":"ncn","source":"openstreetmap.org","min_zoom":8.0,"bus_shield_text":"691"},"arcs":[539]},{"type":"MultiLineString","properties":{"kind":"major_road","network":"pl:regional","sort_rank":379,"kind_detail":"secondary","is_bicycle_related":true,"bicycle_shield_text":"R1","bicycle_network":"icn","source":"openstreetmap.org","min_zoom":8.0,"shield_text":"137","ref":"137"},"arcs":[[540],[541],[542],[543],[544],[545],[546]]},{"type":"MultiLineString","properties":{"bus_network":"Leszno","network":"pl:national","sort_rank":380,"kind_detail":"primary","kind":"major_road","source":"openstreetmap.org","min_zoom":8.0,"bus_shield_text":"12","shield_text":"5","landuse_kind":"urban_area","ref":"5"},"arcs":[[547],[548]]},{"type":"MultiLineString","properties":{"kind":"major_road","network":"pl:regional","sort_rank":379,"landuse_kind":"urban_area","is_bicycle_related":true,"bicycle_shield_text":"ORT","bicycle_network":"ncn","source":"openstreetmap.org","min_zoom":8.0,"kind_detail":"secondary","shield_text":"292","ref":"292"},"arcs":[[549],[550],[551]]},{"type":"LineString","properties":{"kind":"major_road","network":"pl:national","sort_rank":380,"kind_detail":"primary","source":"openstreetmap.org","min_zoom":8.0,"shield_text":"32","ref":"32;313"},"arcs":[552]},{"type":"LineString","properties":{"kind":"minor_road","sort_rank":360,"kind_detail":"residential","is_bicycle_related":true,"bicycle_shield_text":"R2","bicycle_network":"ncn","source":"openstreetmap.org","min_zoom":8.0},"arcs":[553]},{"type":"MultiLineString","properties":{"kind":"major_road","sort_rank":377,"kind_detail":"tertiary","is_bicycle_related":true,"bicycle_shield_text":"ORT","bicycle_network":"ncn","source":"openstreetmap.org","min_zoom":8.0},"arcs":[[554],[555],[556],[557],[558],[559]]},{"type":"MultiLineString","properties":{"kind":"major_road","sort_rank":377,"kind_detail":"tertiary","is_bicycle_related":true,"bicycle_shield_text":"R9","bicycle_network":"ncn","source":"openstreetmap.org","min_zoom":8.0},"arcs":[[560],[561],[562],[563],[564],[565]]},{"type":"LineString","properties":{"kind":"major_road","sort_rank":377,"kind_detail":"tertiary","is_bicycle_related":true,"bicycle_shield_text":"R9","bicycle_network":"ncn","source":"openstreetmap.org","min_zoom":8.0,"ref":"2465P"},"arcs":[566]},{"type":"MultiLineString","properties":{"kind":"major_road","network":"pl:national","sort_rank":380,"kind_detail":"primary","bus_network":"Tarnowo Podg\u00f3rne","source":"openstreetmap.org","min_zoom":8.0,"bus_shield_text":"01","shield_text":"92","landuse_kind":"urban_area","ref":"92"},"arcs":[[567],[568],[569],[570],[571],[572],[573],[574],[575],[576],[577],[578]]},{"type":"LineString","properties":{"source":"openstreetmap.org","kind":"major_road","network":"pl:national","sort_rank":381,"kind_detail":"trunk","min_zoom":8.0,"shield_text":"5"},"arcs":[579]},{"type":"LineString","properties":{"kind":"major_road","sort_rank":377,"kind_detail":"tertiary","is_bicycle_related":true,"bicycle_shield_text":"ORT","bicycle_network":"ncn","source":"openstreetmap.org","min_zoom":8.0,"ref":"1007F"},"arcs":[580]},{"type":"MultiLineString","properties":{"bus_network":"Leszno","network":"pl:national","sort_rank":380,"kind_detail":"primary","kind":"major_road","source":"openstreetmap.org","min_zoom":8.0,"bus_shield_text":"5","shield_text":"12","landuse_kind":"urban_area","ref":"12"},"arcs":[[581],[582],[583],[584]]},{"type":"MultiLineString","properties":{"kind":"major_road","network":"pl:national","sort_rank":380,"kind_detail":"primary","source":"openstreetmap.org","min_zoom":8.0,"shield_text":"32","ref":"32;308"},"arcs":[[585],[586],[587],[588],[589],[590],[591],[592]]},{"type":"MultiLineString","properties":{"kind":"major_road","sort_rank":377,"landuse_kind":"nature_reserve","is_bicycle_related":true,"bicycle_shield_text":"R9","bicycle_network":"ncn","source":"openstreetmap.org","min_zoom":8.0,"kind_detail":"tertiary","ref":"3919P"},"arcs":[[593],[594]]},{"type":"MultiLineString","properties":{"kind":"major_road","network":"pl:national","sort_rank":381,"kind_detail":"trunk","source":"openstreetmap.org","min_zoom":8.0,"shield_text":"11","ref":"S11"},"arcs":[[595],[596],[597],[598],[599],[600],[601],[602]]},{"type":"MultiLineString","properties":{"kind":"major_road","network":"pl:regional","sort_rank":379,"kind_detail":"secondary","is_bicycle_related":true,"bicycle_shield_text":"R1","bicycle_network":"icn","source":"openstreetmap.org","min_zoom":8.0,"shield_text":"137"},"arcs":[[603],[604],[605],[606]]}]},"earth":{"type":"GeometryCollection","geometries":[{"type":"Polygon","properties":{"sort_rank":10,"source":"naturalearthdata.com","min_zoom":0.0,"kind":"earth","area":98022885885},"arcs":[[607]]}]},"landuse":{"type":"GeometryCollection","geometries":[{"type":"MultiPolygon","properties":{"kind":"nature_reserve","protect_class":"19","area":23145602,"sort_rank":23,"source":"openstreetmap.org","min_zoom":8.0,"tier":2,"osm_relation":true},"arcs":[[[608]]]},{"type":"MultiPolygon","properties":{"kind":"nature_reserve","protect_class":"5","area":4112056337,"sort_rank":23,"source":"openstreetmap.org","min_zoom":6.0,"tier":2,"osm_relation":true},"arcs":[[[609]],[[610]],[[611]],[[612]],[[613]]]},{"type":"MultiPolygon","properties":{"kind":"nature_reserve","protect_class":"5","area":136441987,"sort_rank":23,"source":"openstreetmap.org","min_zoom":8.0,"tier":2,"osm_relation":true},"arcs":[[[614]]]},{"type":"MultiPolygon","properties":{"kind":"national_park","protect_class":"2","area":63587787,"sort_rank":18,"source":"openstreetmap.org","min_zoom":8.0,"tier":1,"osm_relation":true},"arcs":[[[615]]]},{"type":"MultiPolygon","properties":{"source":"naturalearthdata.com","kind":"urban_area","name":"","area":3898555972,"sort_rank":11,"min_zoom":4.0},"arcs":[[[616]],[[617]],[[618]],[[619]],[[620]],[[621]]]},{"type":"MultiPolygon","properties":{"kind":"national_park","protect_class":"2","area":530012341,"sort_rank":18,"source":"openstreetmap.org","min_zoom":5.0,"tier":1,"osm_relation":true},"arcs":[[[622]]]},{"type":"MultiPolygon","properties":{"source":"openstreetmap.org","kind":"residential","tier":2,"area":130296846,"sort_rank":20,"min_zoom":8.0},"arcs":[[[623]]]}]}},"type":"Topology","transform":{"translate":[15.46875,51.6180165488],"scale":[0.0003433228,0.0002111239]},"arcs":[[[3791,0],[-12,46],[50,63],[-150,8],[-48,28],[-99,-8],[4,46],[-115,19],[-4,108],[64,24],[-18,3],[18,46],[36,-32],[18,61],[-109,80],[-2,114],[-27,15],[-83,-20],[-68,28],[-19,84],[-104,-11],[-1,72],[-140,0],[-127,31],[-95,-15]],[[2075,443],[-43,-10],[-24,31],[57,227],[-129,-26],[2,32],[-111,9],[-76,74],[-101,-5],[-18,99],[-145,-1],[-39,-51],[17,-43],[107,-32],[-116,-35],[15,-104],[18,-5],[-56,-8],[7,-47],[-97,19],[-10,-38],[-41,-20],[-51,23],[-36,-49],[-38,-2],[-20,-84],[17,-62],[-39,0],[-60,-78],[45,-34],[-20,-18],[34,-11],[7,-41],[-79,-63],[12,-70],[-12,-20]],[[2760,790],[-24,-56],[-90,-27],[2,-67],[-47,-55],[22,-60],[-56,-86],[-138,-58],[-9,-40],[-89,-26],[20,-57],[-17,-42],[-52,106],[-84,45],[-17,91],[-52,16],[-54,-31]],[[1212,4096],[23,-69],[-20,-16],[-24,22],[61,-96],[-68,-31],[10,-25],[-64,10],[-10,-37],[-63,18],[-17,91],[-3,-23],[-59,-24],[114,-198],[154,-42],[12,-38],[-36,-67],[6,-88],[-27,-13],[32,-189],[-30,-9],[-1,-117],[-32,-16],[-56,-119],[28,-134],[-33,-66],[34,-74],[-8,-136],[72,-29],[1,-38],[-25,-116],[-119,-104],[77,-104],[51,7],[135,-97],[24,95],[39,1],[63,-28],[63,-98],[40,-15],[7,-18],[-47,-40],[15,-50],[-87,-6],[1,-72],[21,-90],[52,-15],[-5,35],[51,-51],[13,-55],[147,-21],[132,93],[49,-17],[42,-184],[-39,-14],[21,-52],[-14,-31],[35,-40],[-38,-27],[23,-13],[-97,-66],[-3,-44],[131,6],[109,-56]],[[2075,1256],[34,9],[21,-62],[43,-11],[72,67],[25,80],[22,7],[50,-34],[41,25],[75,-66],[114,-27],[-49,-45],[152,-118],[-22,-34],[62,-6],[-20,-86],[23,-71],[-39,-63],[15,-23],[23,17],[43,-25]],[[3196,1155],[0,3]],[[3196,1158],[-82,124],[-224,59],[-219,117],[-243,289],[-12,49],[-255,90],[-685,1031],[-144,110],[-125,11]],[[3188,1065],[7,25]],[[3195,1090],[0,2]],[[3195,1090],[1,68]],[[149,1561],[-115,10],[-34,-13]],[[0,3024],[114,-45],[12,-4],[38,-11],[5,-1],[7,0],[5,0],[7,1],[12,4],[122,48],[9,2],[53,3],[12,1],[11,2],[152,38],[9,2],[59,-3],[151,1],[143,-152]],[[766,3062],[-198,2],[-246,-48],[-146,-53],[-176,62]],[[1007,2938],[-41,-41],[-45,13]],[[1058,3026],[-1,-1]],[[1057,3025],[1,0]],[[4035,3605],[-316,-22],[-20,-2],[-8,-1],[-7,-3],[-5,-2],[-197,-113],[-31,-11],[-337,2],[-10,0],[-7,-2],[-5,-1],[-6,-3],[-66,-32],[-70,-36],[-164,-82],[-5,-2],[-217,-55],[-16,-2],[-657,13],[-16,-1],[-9,-1],[-8,-1],[-8,-2],[-13,-3],[-297,-95],[-12,-4],[-5,-2],[-6,-3],[-10,-6],[-102,-80],[-26,-13],[-289,-1]],[[1090,3039],[289,1],[26,13],[118,89],[343,107],[682,-11],[16,1],[217,55],[5,2],[234,118],[77,37],[354,0],[31,11],[210,118],[343,25]],[[4083,3608],[-17,-1]],[[4096,3609],[-405,-29],[-240,-129],[-354,0],[-316,-156],[-220,-56],[-711,7],[-327,-104],[-144,-102],[-306,-4],[-83,-125],[-36,-16],[-178,167],[-208,2],[-246,-48],[-146,-53],[-176,49]],[[205,2970],[15,6],[-15,-6]],[[1024,2971],[-4,-8],[-5,-8],[8,12],[1,4]],[[1025,2972],[-56,-119],[80,-154],[-68,-140],[-136,-11],[-116,-94],[-151,-26],[-325,-368],[-87,-24],[-69,-85],[-97,-30]],[[0,3011],[176,-48],[146,53],[246,48],[206,-2],[180,-167],[36,16],[84,125],[305,4],[144,102],[327,104],[711,-7],[220,55],[318,157],[352,0],[241,129],[404,29]],[[205,2970],[15,6],[-15,-6]],[[1024,2971],[-4,-8],[-5,-8],[8,12],[1,4]],[[0,1558],[34,13],[115,-10]],[[4096,3952],[-87,144]],[[4009,4096],[19,-45],[4,-8],[64,-91]],[[4096,3609],[-405,-29],[-240,-129],[-354,0],[-316,-156],[-220,-56],[-711,7],[-327,-104],[-144,-102],[-306,-4],[-83,-125],[-36,-16],[-178,167],[-208,2],[-392,-101],[-176,49]],[[212,4096],[44,-28],[72,-127],[206,-84],[99,-177],[84,-66],[124,-189],[67,-228],[145,-145],[-44,-111]],[[0,3011],[176,-48],[392,101],[206,-2],[180,-167],[36,16],[84,125],[305,4],[144,102],[327,104],[711,-7],[220,55],[318,157],[352,0],[241,129],[404,29]],[[2010,0],[-18,53],[-7,13],[-153,157],[-85,28],[-66,-7],[-116,4],[-7,1],[-4,1],[-4,2],[-6,3],[-4,2],[-4,3],[-32,31],[-60,25],[-51,14],[-74,13],[-6,1],[-7,3],[-167,82],[-4,2],[-5,4],[-27,30],[-50,38],[-57,21],[-28,3],[-7,1],[-5,2],[-7,3],[-31,16],[-6,5],[-6,6],[-152,149],[-5,5],[-4,6],[-2,5],[-1,4],[-27,91],[-243,579],[-30,25],[-44,19],[-7,4],[-4,3],[-5,7],[-5,6],[-18,38],[-26,23],[-167,37],[-63,-2],[-99,18],[-4,2]],[[2011,0],[-18,53],[-8,13],[-153,157],[-83,28],[-199,1],[-46,39],[-60,26],[-51,14],[-87,16],[-167,82],[-35,36],[-51,38],[-147,57],[-160,161],[-31,99],[-243,579],[-29,26],[-55,26],[-29,51],[-26,22],[-167,38],[-162,16],[-4,2]],[[4096,3241],[-11,-31],[-2,-6],[-2,-7],[-45,-233],[-202,-358],[-121,-174],[-269,-218],[-7,-6],[-4,-5],[-33,-42],[-3,-5],[-79,-146],[-4,-10],[-2,-4],[-2,-7],[-34,-124],[-15,-30],[-3,-9],[-2,-5],[-1,-8],[-3,-13],[-7,-50],[-46,-421],[-1,-5],[-2,-234],[-1,-18],[1,-11],[1,-6],[1,-5],[2,-5],[4,-7],[313,-432],[406,-487],[51,-119]],[[3975,0],[-46,107],[-6,12],[-406,487],[-322,466],[50,678],[70,253],[118,200],[280,229],[121,174],[203,358],[59,276]],[[4096,3816],[-112,88],[-19,23],[-58,95],[-3,5],[-3,4],[-3,3],[-3,3],[-3,3],[-4,2],[-33,15],[-19,25]],[[3836,4082],[-7,14]],[[3828,4096],[7,-12]],[[3835,4084],[9,-16],[10,-11],[47,-26],[62,-102],[11,-14],[9,-11],[113,-88]],[[3836,4082],[-1,2]],[[3775,3881],[-6,3]],[[3800,3876],[-4,0]],[[3796,3875],[4,-1]],[[3840,3872],[-5,1]],[[3868,3865],[-5,1]],[[3864,3865],[3,0]],[[3925,3855],[-34,4]],[[3891,3858],[24,-4]],[[3986,3853],[-9,1],[-26,1]],[[3951,3854],[35,-1]],[[4016,3849],[-25,3]],[[3992,3851],[24,-2]],[[4096,3883],[-80,-34]],[[1809,226],[5,7]],[[1817,238],[12,26]],[[1921,325],[-94,-52]],[[991,690],[92,-133]],[[268,1629],[-8,-16]],[[268,1629],[43,160],[146,93],[10,53]],[[467,1935],[-11,-53],[-88,-52],[-57,-40],[-43,-161]],[[428,2115],[10,-22],[6,-60],[14,-61]],[[458,1972],[-14,61],[-6,61],[-3,7]],[[467,1935],[-9,37]],[[0,3312],[212,32],[329,-117],[244,3],[242,117],[313,25],[524,144],[401,76],[646,56],[48,-8],[67,4],[55,-5]],[[3081,3639],[13,-1],[11,-5]],[[3105,3633],[66,-28],[33,-16],[152,-90],[127,-35],[196,5]],[[3679,3470],[-195,-6],[-128,35],[-147,88],[-87,42],[-17,4]],[[3105,3633],[-24,6]],[[3081,3639],[-21,5],[-155,6],[-640,-57],[-402,-76],[-253,-65],[-270,-79],[-184,-6],[-129,-19],[-243,-117],[-242,-3],[-293,112],[-22,4],[-14,1],[-20,-1],[-193,-31]],[[3810,3469],[-131,1]],[[3679,3469],[115,0]],[[1907,170],[1,0]],[[268,3902],[0,1],[0,-1]],[[1033,539],[-3,0]],[[2463,833],[3,37]],[[2505,917],[-5,-43]],[[2513,922],[-7,-4]],[[3191,1054],[-10,0],[-9,-2],[-5,-4]],[[3167,1048],[24,5]],[[3236,1052],[-39,1]],[[3198,1053],[29,-2]],[[3304,1071],[-22,-8]],[[3303,1096],[1,-2]],[[3304,1094],[0,2]],[[3304,1071],[4,1]],[[3308,1073],[-4,-2]],[[3304,1094],[4,-15]],[[3308,1079],[0,-6]],[[3309,1074],[-1,5]],[[3304,1096],[-1,1],[0,-1]],[[3303,1096],[1,0]],[[3308,1073],[0,-1]],[[3308,1072],[1,0],[0,1],[-1,0]],[[1892,3685],[-8,-21]],[[89,1954],[14,2]],[[788,1175],[0,4]],[[1276,416],[-2,25]],[[1730,151],[-12,1]],[[1802,215],[12,18]],[[3987,3471],[-2,-2]],[[191,3066],[-3,-14]],[[189,3052],[1,4]],[[194,3108],[-3,-42]],[[193,3049],[-2,17]],[[194,3111],[0,-3]],[[194,3108],[0,3]],[[423,2108],[2,2]],[[434,2115],[2,0]],[[195,3112],[-1,0],[-1,-1],[1,0]],[[194,3111],[1,1]],[[76,1630],[0,-4]],[[78,1626],[-1,4]],[[2505,915],[5,5]],[[1814,233],[3,5]],[[1697,164],[-1,1]],[[1697,164]],[[1767,146],[-70,18]],[[1767,146],[11,-2]],[[1778,144],[-11,2]],[[245,4096],[28,-146],[-58,-206],[14,-195],[30,-130],[-54,-315],[47,-121],[-1,-89],[1,-5]],[[252,2889],[1,-12]],[[253,2877],[7,-61],[4,-6]],[[264,2810],[24,-40]],[[288,2770],[52,-85],[5,-104],[-31,-110],[-3,-39],[1,-3]],[[312,2429],[10,-76]],[[322,2353],[20,-154],[19,-24],[67,-60]],[[435,2101],[-10,19],[-53,47],[-11,9],[-18,23],[-21,154]],[[322,2353],[-10,75],[0,1]],[[312,2429],[0,7],[2,33],[32,112],[-5,104],[-53,85]],[[288,2770],[-24,40]],[[264,2810],[-11,67]],[[253,2877],[-2,9],[1,3]],[[252,2889],[0,2],[1,92],[-13,44],[-34,76],[53,316],[0,21],[-29,108],[-3,130],[-6,41],[-5,25],[28,60],[30,146],[5,41],[1,26],[-34,79]],[[260,1613],[-29,-69],[15,-64],[108,-129],[192,-142],[56,-165],[4,-138]],[[1161,130],[-2,1]],[[895,4096],[10,-14]],[[905,4082],[-7,-11]],[[909,4073],[-4,9]],[[3669,3712],[95,-111]],[[3768,3603],[-99,114]],[[4082,3205]],[[163,1611],[2,3]],[[2407,140],[-5,4]],[[2488,0],[0,44]],[[3883,3371],[12,24]],[[3900,3400],[-5,-5]],[[3900,3400],[19,13]],[[3919,3413],[3,2]],[[3922,3415],[-3,-2]],[[3891,4060],[-7,-16]],[[3836,3872],[4,-1]],[[1175,3561],[44,12]],[[759,519],[8,0],[-165,212],[0,79]],[[758,519],[1,-2]],[[759,517],[0,2]],[[770,356],[-11,161]],[[760,525],[-1,-5]],[[1159,131],[-383,214]],[[1225,88],[-64,42]],[[1225,88],[1,0]],[[1226,88],[-1,0]],[[1227,86],[1,0]],[[1228,86],[-1,1]],[[1331,0],[-103,86]],[[758,519],[1,0],[-1,1],[0,-1]],[[1226,87],[1,-1]],[[1227,86],[1,2],[-2,0],[0,-1]],[[3947,2744],[-46,-30]],[[4079,3215],[17,51]],[[4082,3205],[-3,10]],[[4025,2994],[34,104]],[[3946,2744],[1,0]],[[679,3982],[206,81]],[[3410,3975],[7,0]],[[190,3050],[-1,2],[-1,0],[0,-2],[2,0]],[[888,1554],[1,14]],[[891,1573],[5,6]],[[234,1601],[-61,11]],[[174,1611],[58,-10]],[[241,1599],[-7,2]],[[237,1601],[-3,0]],[[241,1596],[2,-1]],[[436,2116],[-13,-7]],[[440,2118],[-3,-1]],[[437,2116],[3,2]],[[440,2118],[101,119],[224,38],[101,-100],[76,-1],[81,-49],[132,25]],[[1162,2156],[420,232],[238,-51]],[[1820,2337],[2,-2]],[[1822,2335],[-2,2]],[[1823,2334],[3,0]],[[1826,2334],[-2,1]],[[1826,2334],[48,-2]],[[1874,2332],[3,-6],[4,-4]],[[1885,2321],[-11,11]],[[1923,2386],[35,34]],[[1958,2420],[4,2]],[[1962,2422],[-4,-2]],[[1968,2424],[-5,-1]],[[1964,2422],[4,2]],[[1968,2424],[163,14]],[[2131,2438],[3,1]],[[2134,2439],[204,17]],[[2338,2456],[4,1],[9,24]],[[2351,2481],[-13,-25]],[[2351,2481],[139,137],[116,204]],[[2606,2822],[10,18]],[[2616,2841],[-10,-19]],[[2647,2862],[-2,0]],[[2645,2861],[2,1]],[[2647,2862],[184,20],[283,-20]],[[3235,2857],[-119,5]],[[3116,2862],[119,-5]],[[3541,3106],[-210,-131],[-96,-118]],[[3541,3106],[4,2]],[[3545,3110],[-4,-4]],[[423,2107],[0,1],[-1,1],[0,-1],[1,-1]],[[436,2117],[0,-1],[1,-1],[0,1]],[[437,2116],[-1,1]],[[1962,2422],[1,0],[1,1],[-1,0],[-1,-1]],[[3722,3900],[-58,32],[-115,49]],[[3552,3979],[107,-46]],[[3663,3931],[44,-27],[13,-4]],[[3726,3899],[43,-16]],[[3748,3895],[-8,3],[-11,2]],[[3419,3975],[-1,1],[-1,-1],[1,-1],[1,1]],[[4059,3098],[23,1]],[[3672,3189],[119,31]],[[508,3913],[171,69]],[[885,4063],[24,10]],[[1908,170],[42,-28]],[[1829,264],[-2,9]],[[604,827],[2,79]],[[0,3015],[45,-7],[131,44]],[[188,3052],[-12,0]],[[176,3052],[12,-1]],[[190,3050],[13,-8]],[[203,3042],[-13,9]],[[203,3042],[69,-40],[72,29],[64,69],[110,37],[81,190],[181,90],[162,27],[173,64],[60,53]],[[1219,3573],[304,36],[291,-11]],[[1820,3598],[-6,0]],[[1814,3598],[6,0]],[[1820,3598],[1,-1],[1,1],[-1,0],[-1,0]],[[1830,3599],[-9,-1]],[[1821,3597],[9,2]],[[1884,3664],[-54,-65]],[[1892,3693],[0,-8]],[[2022,3883],[-90,-92],[-37,-89]],[[2034,3903],[-12,-20]],[[2043,3946],[-9,-43]],[[2060,3965],[-17,-19]],[[2218,4096],[-94,-110],[-64,-21]],[[3123,4070],[-53,26]],[[3123,4070],[16,-13]],[[3139,4057],[-7,6],[-9,7]],[[3218,3993],[-79,64]],[[3218,3993],[23,-14]],[[3241,3979],[103,-2]],[[3364,3976],[-20,1]],[[3364,3976],[53,0]],[[3418,3975],[5,0]],[[3423,3975],[-4,0]],[[3423,3975],[100,8]],[[3659,3933],[4,-2]],[[3720,3900],[6,-1]],[[3729,3900],[-7,0]],[[3769,3884],[-21,11]],[[4040,1924],[0,-2]],[[4052,1916],[-1,0]],[[163,1615],[-1,-3]],[[4040,1924],[41,95],[-159,89]],[[3742,3439],[11,18]],[[3754,3459],[-6,-9]],[[1895,3702],[-3,-9]],[[3258,1056],[-22,-4]],[[3236,1052],[23,4]],[[3306,1097],[-2,0]],[[3304,1096],[2,1]],[[3306,1097],[6,3]],[[3490,638],[18,-29],[16,-20]],[[3527,587],[-37,51]],[[3742,3441],[-21,-21]],[[3722,3420],[20,19]],[[3759,3450],[-11,0]],[[758,529],[2,-4]],[[3118,1017],[-5,-2]],[[3162,1044],[0,-1]],[[3162,1044],[5,4]],[[3167,1048],[-5,-4]],[[3985,3948],[-32,55],[-69,41]],[[3530,610],[-1,-3]],[[3206,1296],[12,-133]],[[3218,1163],[-1,-2]],[[3218,1161],[0,2]],[[3224,1142],[44,-21]],[[3268,1122],[-43,21]],[[3268,1122],[0,-1]],[[3268,1121],[0,-1]],[[3270,1120],[-2,2]],[[3268,1120],[2,0]],[[3268,1120],[3,-37]],[[3272,1084],[-2,36]],[[3413,2271],[-45,-20]],[[3413,2271],[7,3]],[[3419,2274],[-6,-3]],[[3426,2277],[-6,-2]],[[3421,2274],[5,3]],[[3426,2277],[38,15]],[[3271,1083],[36,-98]],[[3307,986],[-35,98]],[[1834,220],[19,-27]],[[2505,917],[1,0],[0,2],[-1,0],[0,-2]],[[3551,3126],[1,0],[0,1],[-1,0],[0,-1]],[[776,345],[-6,11]],[[4096,3487],[-80,-16]],[[4018,3471],[78,15]],[[4016,3471],[-32,-1]],[[3985,3469],[33,2]],[[3794,3469],[191,0]],[[3984,3470],[-174,-1]],[[3748,3450],[-6,-9]],[[3884,4079],[-6,17]],[[2299,198],[10,44]],[[3862,2194],[9,-6]],[[735,960],[19,36]],[[1822,246],[7,18]],[[1863,190],[-10,3]],[[3325,970],[-12,11]],[[3313,981],[16,-15]],[[1464,0],[15,63],[203,96]],[[2463,833],[-17,-180],[-205,-238],[-109,-48],[-208,-41]],[[3113,1015],[-422,-67],[-112,7],[-66,-33]],[[3162,1043],[-44,-26]],[[4096,1236],[-769,-130]],[[75,1629],[-26,4],[-49,-12]],[[0,1618],[75,9]],[[79,1627],[33,-5]],[[112,1623],[-33,5]],[[114,1621],[48,-9]],[[162,1614],[-48,8]],[[162,1612],[1,-1]],[[165,1614],[-2,1]],[[165,1612],[9,-1]],[[173,1612],[-8,2]],[[112,1621],[2,0],[0,1],[-1,1],[-1,-2]],[[1212,445],[-138,68]],[[1357,332],[-36,2],[-45,82]],[[1557,231],[-22,7]],[[765,854],[20,14]],[[77,1630],[-1,0]],[[76,1626],[2,0]],[[16,1943],[73,11]],[[243,1918],[6,7]],[[742,1029],[-6,-9]],[[741,879],[8,5]],[[755,926],[-3,-34]],[[844,670],[-20,35]],[[953,580],[-21,-8]],[[1027,550],[3,-11]],[[1042,534],[-9,5]],[[1044,532],[30,-19]],[[1212,445],[8,22]],[[1274,441],[3,7]],[[1950,142],[23,-6]],[[2408,148],[-109,50]],[[2314,346],[6,0]],[[3218,1160],[0,-1]],[[3218,1160],[0,1],[0,-1]],[[3218,1159],[0,1]],[[3222,1147],[-4,12]],[[3222,1147],[1,-3]],[[3224,1144],[-2,3]],[[3224,1144],[-1,0]],[[816,1299],[7,-60]],[[1916,270],[197,29]],[[3227,1051],[9,1]],[[232,1601],[1,0]],[[241,1596],[0,3]],[[3116,2862]],[[0,1988],[21,-2]],[[353,1951],[70,-10]],[[742,1029],[81,92],[-25,13]],[[755,926],[-8,-1]],[[788,1139],[-15,13]],[[774,1153],[14,22]],[[797,1134],[-9,5]],[[817,1378],[-2,10]],[[873,1547],[15,7]],[[969,703],[19,-6]],[[1220,467],[0,12]],[[2466,869],[1,1]],[[4019,49],[-59,-49]],[[4019,49],[1,0]],[[4020,50],[-1,-1]],[[4023,51],[-2,-1]],[[4022,50],[1,1]],[[4096,72],[-73,-21]],[[4022,50],[-1,1],[-1,-1]],[[4020,50],[1,-1],[1,1]],[[17,1953],[-1,-10]],[[21,1986],[-4,-33]],[[3112,1766],[23,-202],[63,-138]],[[3124,1980],[-7,-74]],[[3124,1980],[2,5]],[[3247,2069],[-121,-84]],[[3200,1409],[-2,17]],[[3200,1409],[6,-113]],[[3247,2069],[3,2]],[[3261,2079],[-11,-8]],[[3264,2082],[-3,-3]],[[3284,2100],[-20,-18]],[[3286,2101],[-2,-1]],[[3368,2251],[-19,-93],[-63,-57]],[[3445,846],[-120,124]],[[3329,966],[116,-120]],[[3445,846],[2,-31],[58,-53],[25,-152]],[[3464,2292],[59,61],[21,176]],[[3513,589],[0,-1]],[[3513,589],[16,18]],[[3514,588],[-1,1]],[[3529,607],[2,0]],[[3530,608],[-1,-1]],[[3530,610],[0,-1]],[[3531,609],[-1,1]],[[3544,2529],[0,4]],[[3544,2533],[67,106]],[[3550,3125],[1,0]],[[3551,3126],[-1,-1]],[[3612,2677],[-33,48],[-29,400]],[[3553,3128],[-1,-1]],[[3552,3127],[1,1]],[[3553,3128],[49,37]],[[3602,3165],[5,1]],[[3607,3166],[17,0]],[[3611,2639],[5,7]],[[3616,2647],[-5,-8]],[[3614,2675],[-2,2]],[[3615,2674],[-1,1]],[[3615,2673],[0,1]],[[3618,2670],[-3,3]],[[3616,2649],[0,-2]],[[3616,2649],[3,19]],[[3617,2647],[-1,2]],[[3619,2668],[-1,2]],[[3624,3166],[18,8]],[[3642,3174],[24,13]],[[3669,3188],[-3,-1]],[[3669,3188],[3,1]],[[3791,3220],[11,5]],[[3514,587],[-1,1]],[[3513,588],[0,-1],[1,-1],[0,1]],[[3532,608],[0,1],[-2,0]],[[3530,609],[1,-1],[1,0]],[[3616,2646],[1,1],[-1,0],[0,-1]],[[3891,2296],[-29,-102]],[[3871,2188],[51,-80]],[[3421,2274],[-1,1],[-1,-1],[1,0],[1,0]],[[602,810],[2,17]],[[1924,326],[-3,-1]],[[3802,3225],[51,81]],[[3853,3306],[9,20]],[[3862,3326],[21,45]],[[3926,3419],[-4,-4]],[[3922,3415],[4,4]],[[3926,3419],[12,10]],[[3940,3430],[-2,-1]],[[3940,3430],[12,10]],[[3952,3440],[26,22]],[[3985,3469],[-33,-29]],[[737,1019],[17,-23]],[[1241,516],[38,-4],[-1,-48]],[[1638,310],[-174,117],[-111,-2],[-78,121],[-33,-7]],[[271,1453],[-1,2]],[[741,879],[-5,-7]],[[1042,534],[2,-2]],[[3549,3981],[-45,1]],[[4082,3205],[7,-79]],[[1881,2322],[32,15],[10,49]],[[873,1547],[-58,-159]],[[747,952],[-12,8]],[[747,925],[0,27]],[[1677,215],[78,10]],[[1795,217],[-39,8]],[[747,925]],[[3117,1906],[-5,-140]],[[3524,589],[86,-90],[72,-87]],[[3682,412],[165,-202]],[[3847,210],[12,-14],[16,-196]],[[3876,0],[-17,197],[-12,13]],[[3847,210],[-107,119],[-17,15],[-41,68]],[[3682,412],[-9,14],[-63,74],[-83,87]],[[3780,2490],[7,1]],[[4096,3847],[-111,101]],[[1849,279],[67,-9]],[[1682,159],[9,5]],[[1691,164],[6,0]],[[1696,165],[-5,-1]],[[1794,210],[-16,-66]],[[1778,144],[2,2],[9,28],[7,32]],[[1799,217],[-5,-7]],[[1794,210],[2,-4]],[[1796,206],[3,11]],[[1809,226],[-10,-9]],[[3191,1053],[7,0]],[[3197,1053],[-6,1]],[[3276,1061],[-17,-5]],[[3259,1056],[18,4]],[[3312,1100],[15,6]],[[3901,2714],[-8,-68]],[[2080,180],[44,87]],[[2500,874],[-33,-4]],[[2467,871],[0,-1],[0,1]],[[3523,3983],[29,-4]],[[103,1956],[54,7],[86,-45]],[[249,1925],[74,-6],[3,37],[27,-5]],[[736,1019],[1,0]],[[752,892],[-3,-8]],[[785,868],[41,-31],[21,-112],[26,26]],[[823,1239],[-35,-60]],[[806,811],[18,-106]],[[816,1299],[31,22],[-30,57]],[[844,670],[88,-98]],[[969,1127],[10,40],[-42,105],[-69,42],[92,182],[-64,83]],[[1027,550],[-74,30]],[[969,703],[-16,6]],[[988,697],[3,-7]],[[1083,557],[103,-32],[56,14]],[[1241,516],[-21,-37]],[[1278,464],[-1,-16]],[[1973,136],[42,43]],[[2012,190],[68,-10]],[[2113,299],[72,85],[129,-38]],[[2309,242],[-80,73],[-105,-48]],[[2563,0],[-26,100],[-67,87],[-138,88],[0,33]],[[2488,44],[-88,13],[7,83]],[[2467,870],[2,-1]],[[270,1455],[-1,0]],[[1823,2336],[-1,-1],[1,-1],[1,1],[-1,1]],[[3780,2490],[40,-124],[71,-70]],[[3948,2810],[61,130]],[[0,3824],[254,75]],[[259,3900],[8,2]],[[267,3902],[1,0]],[[268,3903],[-1,-1]],[[269,3903],[-1,0]],[[268,3902],[1,1]],[[269,3903],[239,10]],[[3307,985],[6,-4]],[[3313,981],[-6,5]],[[1535,238],[-178,94]],[[1677,215],[-120,16]],[[1907,170],[-44,20]],[[1155,2150],[7,6]],[[3891,4060],[-7,19]],[[736,872],[29,-18]],[[780,852],[26,-41]],[[969,1127],[-184,-259]],[[2015,179],[-3,11]],[[2332,308],[-15,16]],[[2402,144],[6,4]],[[3896,2615],[-3,31]],[[3946,2744],[2,66]],[[4009,2940],[16,24]],[[4025,2965],[0,29]],[[4082,3099],[7,27]],[[4025,2964],[0,1],[0,-1]],[[3787,2491],[109,124]],[[3769,3883],[10,-5],[17,-3]],[[3796,3876],[-21,5]],[[3835,3873],[-35,3]],[[3800,3874],[36,-2]],[[3863,3866],[-23,6]],[[3840,3871],[24,-6]],[[3867,3865],[24,-7]],[[3891,3859],[-23,6]],[[3915,3854],[36,0]],[[3951,3855],[-26,0]],[[3986,3853],[6,-2]],[[3991,3852],[-5,1]],[[3527,587],[-8,13]],[[2317,324],[3,22]],[[3259,1056],[-1,0]],[[3280,1062],[-4,-1]],[[3277,1060],[3,2]],[[3282,1063],[-2,-1]],[[2620,2848],[-4,-6]],[[2617,2842],[3,6]],[[2620,2848],[22,14]],[[2644,2862],[-2,0]],[[2642,2862],[2,-1]],[[2616,2841],[1,0],[0,1]],[[2617,2842],[-1,0],[0,-1]],[[2645,2861],[0,1],[-1,0],[0,-1],[1,0]],[[4040,1922],[11,-6]],[[4052,1916],[44,-16]],[[3716,4096],[-30,-58],[1,-7]],[[3687,4031],[12,-67]],[[3699,3964],[2,-11],[7,-24],[-41,-114],[-6,-94],[8,-9]],[[3669,3717],[-1,98],[40,110],[1,9],[-3,11],[-1,1],[-6,18]],[[3699,3964],[-19,53],[7,14]],[[3687,4031],[25,51],[5,14]],[[3764,3601],[25,-57],[-44,-97],[13,2],[4,2]],[[3768,3457],[21,87],[-21,59]],[[255,3899],[1,0]],[[256,3899],[3,1],[-3,0]],[[256,3899],[0,1],[-1,-1]],[[256,3899]],[[0,4096],[2171,0],[1925,0],[0,-4096],[-4096,0],[0,4096]],[[1361,392],[72,31],[133,-74],[55,-59],[-46,-10],[-17,37],[-86,47],[9,14],[-7,7],[-43,-20],[-70,27]],[[1915,1496],[10,25],[149,44],[107,245],[-6,68],[-25,22],[367,-68],[45,15],[80,-33],[84,62],[98,-7],[-24,-74],[40,-76],[-75,24],[-46,-53],[-94,-31],[-57,-85],[109,-121],[155,-77],[2,-106],[-34,-16],[-82,46],[-123,23],[8,-89],[-52,-24],[-114,-138],[-95,40],[-127,110],[16,124],[-57,102],[-69,26],[-8,48],[-182,-26]],[[3498,2063],[157,121],[38,188],[36,-7],[-3,-19],[63,3],[84,-53],[169,-4],[10,-94],[44,-7],[0,-368],[-118,-43],[-88,15],[-36,-23],[-356,291]],[[4096,2290],[-18,5],[5,32],[13,-4],[0,-33]],[[3942,2740],[60,18],[-12,30],[40,101],[46,-13],[-2,74],[22,27],[0,-252],[-74,-20],[-80,35]],[[875,4096],[14,-47],[99,-1],[66,-53],[-30,-42],[14,-12],[6,22],[12,-92],[58,-17],[-3,-61],[128,-83],[-19,-34],[37,-15],[1,-39],[-35,-49],[-65,-16],[-27,78],[-83,76],[6,20],[-126,75],[-70,8],[-34,38],[-40,-18],[1,49],[-109,82],[7,50],[-63,81],[255,0]],[[1577,4096],[-50,-41],[-45,12],[5,29],[90,0]],[[4042,3142],[18,19],[36,105],[0,-143],[-54,19]],[[655,804],[-60,7],[-2,76],[51,73],[29,119],[117,-110],[-5,-31],[-60,-21],[-70,-113]],[[3157,1304],[123,-21],[33,55],[35,-67],[-39,-186],[4,-116],[-104,2],[-49,90],[-41,277],[38,-34]],[[1501,443],[65,0],[32,-52],[65,0],[0,-53],[259,0],[-20,-231],[-54,-43],[-88,11],[-97,105],[-65,0],[-15,44],[-211,61],[-32,105],[-33,0],[0,53],[-67,49],[2,56],[61,5],[198,-110]],[[0,1484],[0,285],[13,-10],[0,-53],[132,-57],[50,-67],[12,-139],[-44,-28],[-52,-9],[-98,37],[-13,41]],[[3508,2127],[-70,6],[-49,39],[-43,166],[69,-6],[49,-39],[44,-166]],[[4096,3393],[-44,0],[-59,50],[-33,105],[-97,53],[-32,105],[-65,-105],[-64,0],[-65,-105],[-42,-6],[-88,58],[33,106],[65,-53],[64,53],[0,105],[97,0],[4,136],[-58,153],[13,48],[96,0],[54,-134],[53,-45],[97,53],[-6,126],[77,0],[0,-703]],[[3615,3100],[66,72],[-34,66],[48,80],[113,-116],[37,81],[68,43],[139,-32],[27,-31],[-37,-63],[-58,22],[6,-50],[-26,-3],[1,-42],[39,-9],[17,49],[-11,-172],[-49,10],[26,-17],[-16,-33],[-52,-27],[-12,17],[-24,-43],[-75,-1],[16,60],[-33,0],[-9,-72],[-64,146],[-69,24],[-34,41]],[[2376,895],[44,-1],[37,74],[5,-44],[50,-2],[15,-51],[-24,-7],[-3,-18],[27,0],[-35,-6],[-1,19],[-3,-21],[-48,-9],[14,37],[-47,-5],[-31,34]]]}