{"objects":{"water":{"type":"GeometryCollection","geometries":[]},"buildings":{"type":"GeometryCollection","geometries":[]},"places":{"type":"GeometryCollection","geometries":[{"type":"Point","properties":{"name:ja":"\u30c9\u30eb\u30cc\u30a3\u30fb\u30b7\u30ed\u30f3\u30b9\u30af\u770c","name:lt":"\u017demutin\u0117s Silezijos vaivadija","name:eo":"Malsuprasilezia Provinco","min_zoom":4.0,"name:uk":"\u041d\u0438\u0436\u043d\u044c\u043e\u0441\u0456\u043b\u0435\u0437\u044c\u043a\u0435 \u0432\u043e\u0454\u0432\u043e\u0434\u0441\u0442\u0432\u043e","name:be":"\u041d\u0456\u0436\u043d\u0435\u0441\u0456\u043b\u0435\u0437\u0441\u043a\u0430\u0435 \u0432\u0430\u044f\u0432\u043e\u0434\u0441\u0442\u0432\u0430","name:ru":"\u041d\u0438\u0436\u043d\u0435\u0441\u0438\u043b\u0435\u0437\u0441\u043a\u043e\u0435 \u0432\u043e\u0435\u0432\u043e\u0434\u0441\u0442\u0432\u043e","id":505025705,"population":2884000,"kind":"region","name:en":"Lower Silesia","name":"wojew\u00f3dztwo dolno\u015bl\u0105skie","kind_detail":"state","name:de":"Niederschlesien","source":"openstreetmap.org","name:fr":"Basse-Sil\u00e9sie","name:et":"Alam-Sileesia"},"coordinates":[2809,2994]},{"type":"Point","properties":{"kind":"locality","name":"Wa\u0142brzych","name:lt":"Valb\u017eychas","kind_detail":"city","name:cs":"Valb\u0159ich","name:de":"Waldenburg\/Schlesien","source":"openstreetmap.org","min_zoom":8.0,"alt_name:cs":"Valdenburk","name:uk":"\u0412\u0430\u043b\u0431\u0436\u0438\u0445","name:ru":"\u0412\u0430\u043b\u0431\u0436\u0438\u0445","population":122927,"id":31916711,"name:ja":"\u30f4\u30a1\u30a6\u30d6\u30b8\u30d5"},"coordinates":[2370,137]},{"type":"Point","properties":{"name:sr":"\u041b\u0435\u0433\u045a\u0438\u0446\u0430","name:he":"\u05dc\u05d2\u05e0\u05d9\u05e6\u05d4","name:lv":"Leg\u0146ica","name:ja":"\u30ec\u30b0\u30cb\u30c4\u30a1","name:ko":"\ub808\uadf8\ub2c8\ucc28","name:ar":"\u0644\u063a\u0646\u064a\u062a\u0633\u0627","name:cs":"Lehnice","name:tt":"\u041b\u0435\u0433\u043d\u0438\u0446\u0430","min_zoom":8.0,"name:la":"Lignitium","name:uk":"\u041b\u0435\u0433\u043d\u0438\u0446\u044f","name:hy":"\u053c\u0565\u0563\u0576\u056b\u0581\u0561","name:ru":"\u041b\u0435\u0433\u043d\u0438\u0446\u0430","name:mn":"\u041b\u0435\u0433\u043d\u0438\u0446\u0430","id":3952721523,"population":101992,"name:fa":"\u0644\u06af\u0646\u06cc\u062a\u0633\u0627","kind":"locality","name:bg":"\u041b\u0435\u0433\u043d\u0438\u0446\u0430","name":"Legnica","kind_detail":"city","name:de":"Liegnitz","name:nl":"Legnica (plaats)","source":"openstreetmap.org","name:be":"\u0413\u043e\u0440\u0430\u0434 \u041b\u044f\u0433\u043d\u0456\u0446\u0430","name:zh":"\u840a\u683c\u5c3c\u5bdf"},"coordinates":[2034,2182]},{"type":"Point","properties":{"kind":"locality","name":"Jelenia G\u00f3ra","name:lt":"Jelenia Gura","alt_name:de":"Hirschberg im Riesengebirge","kind_detail":"city","name:cs":"Jelen\u00ed Hora","name:de":"Hirschberg","source":"openstreetmap.org","min_zoom":8.0,"name:uk":"\u0404\u043b\u0435\u043d\u044f-\u0490\u0443\u0440\u0430","name:ru":"\u0415\u043b\u0435\u043d\u044f-\u0413\u0443\u0440\u0430","old_name:cs":"Horn\u0161perk","population":81985,"id":246693057,"name:ja":"\u30a4\u30a7\u30ec\u30cb\u30e3\u30fb\u30b0\u30e9"},"coordinates":[774,774]},{"type":"Point","properties":{"kind":"locality","name":"Lubin","name:lt":"Liubinas","kind_detail":"town","name:de":"L\u00fcben","source":"openstreetmap.org","min_zoom":8.0,"name:uk":"\u041b\u044e\u0431\u0456\u043d","name:ru":"\u041b\u044e\u0431\u0438\u043d","id":253531511,"population":74053},"coordinates":[2145,3071]},{"type":"Point","properties":{"kind":"locality","name":"\u015awidnica","name:lt":"Svidnica","kind_detail":"town","name:cs":"Sv\u00eddnice","name:de":"Schweidnitz","source":"openstreetmap.org","min_zoom":8.0,"name:uk":"\u0421\u0432\u0456\u0434\u043d\u0438\u0446\u044f","name:ru":"\u0421\u0432\u0438\u0434\u043d\u0438\u0446\u0430","id":31916945,"population":59182},"coordinates":[2966,493]},{"type":"Point","properties":{"kind":"locality","name":"Boles\u0142awiec","name:lt":"Boleslavecas","alt_name:de":"Buntzlau","kind_detail":"town","name:cs":"Boleslav","name:de":"Bunzlau","source":"openstreetmap.org","min_zoom":8.0,"name:uk":"\u0411\u043e\u043b\u0435\u0441\u043b\u0430\u0432\u0435\u0446\u044c","loc_name":"Miasto Ceramiki","name:ru":"\u0411\u043e\u043b\u0435\u0441\u043b\u0430\u0432\u0435\u0446","id":2175222542,"population":39603},"coordinates":[281,2446]},{"type":"Point","properties":{"kind":"locality","name:lv":"Javora","name":"Jawor","name:lt":"Javoras","kind_detail":"town","name:de":"Jauer","source":"openstreetmap.org","min_zoom":8.0,"name:ru":"\u042f\u0432\u043e\u0440","name:zh":"\u4e9a\u6c83\u5c14","id":31801635,"population":23937},"coordinates":[2110,1459]},{"type":"Point","properties":{"kind":"locality","name":"\u015awiebodzice","name:lt":"Svebodzic\u0117s","alt_name:de":"Uhrenstadt","kind_detail":"town","name:de":"Freiburg","source":"openstreetmap.org","min_zoom":8.0,"old_name":"Frybork","name:ru":"\u0421\u0432\u0435\u0431\u043e\u0434\u0437\u0438\u0446\u0435","id":31916943,"population":23152},"coordinates":[2478,572]},{"type":"Point","properties":{"kind":"locality","name":"Rawicz","name:lt":"Ravi\u010dius","kind_detail":"town","name:de":"Rawitsch","source":"openstreetmap.org","min_zoom":8.0,"name:ru":"\u0420\u0430\u0432\u0438\u0447","id":31789963,"population":20846},"coordinates":[4070,4062]},{"type":"Point","properties":{"kind":"locality","old_name:de":"Landeshut in Schlesien","name":"Kamienna G\u00f3ra","name:lt":"Kamena Gura","kind_detail":"town","name:cs":"Kamenn\u00e1 Hora","name:de":"Landeshut","source":"openstreetmap.org","min_zoom":8.0,"name:ru":"\u041a\u0430\u043c\u0435\u043d\u043d\u0430-\u0413\u0443\u0440\u0430","id":370165392,"population":20014},"coordinates":[1645,220]},{"type":"Point","properties":{"kind":"locality","name":"Strzegom","kind_detail":"town","name:de":"Striegau","source":"openstreetmap.org","min_zoom":8.0,"name:ru":"\u0421\u0442\u0448\u0435\u0433\u043e\u043c","id":31916989,"population":16769},"coordinates":[2556,1039]},{"type":"Point","properties":{"kind":"locality","name":"Z\u0142otoryja","kind_detail":"town","name:de":"Goldberg in Schlesien","source":"openstreetmap.org","min_zoom":8.0,"name:ru":"\u0417\u043b\u043e\u0442\u043e\u0440\u044b\u044f","id":1770680177,"population":16167},"coordinates":[1304,1798]},{"type":"Point","properties":{"kind":"locality","name":"Chojn\u00f3w","kind_detail":"town","name:de":"Haynau","source":"openstreetmap.org","min_zoom":8.0,"old_name":"Haynau","name:ru":"\u0425\u043e\u0439\u043d\u0443\u0432","id":31808857,"population":14071},"coordinates":[1363,2485]},{"type":"Point","properties":{"kind":"locality","name":"Wo\u0142\u00f3w","kind_detail":"town","name:de":"Wohlau","source":"openstreetmap.org","min_zoom":8.0,"name:ru":"\u0412\u043e\u043b\u0443\u0432","id":31783058,"population":12646},"coordinates":[3409,2793]},{"type":"Point","properties":{"kind":"locality","name":"Brzeg Dolny","kind_detail":"town","name:de":"Dyhernfurth","source":"openstreetmap.org","min_zoom":8.0,"name:uk":"\u0411\u0436\u0435\u0433-\u0414\u043e\u043b\u044c\u043d\u0438\u0439","name:ru":"\u0411\u0436\u0435\u0433-\u0414\u043e\u043b\u044c\u043d\u044b","id":31810259,"population":12536},"coordinates":[3653,2466]},{"type":"Point","properties":{"kind":"locality","name":"Szprotawa","kind_detail":"town","name:de":"Sprottau","source":"openstreetmap.org","min_zoom":8.0,"name:uk":"\u0428\u043f\u0440\u043e\u0442\u0430\u0432\u0430","name:ru":"\u0428\u043f\u0440\u043e\u0442\u0430\u0432\u0430","name:zh":"\u4ec0\u666e\u7f85\u5854\u74e6","id":1758660002,"population":12329},"coordinates":[194,3850]},{"type":"Point","properties":{"kind":"locality","name":"Kowary","kind_detail":"town","name:de":"Schmiedeberg im Riesengebirge","source":"openstreetmap.org","min_zoom":8.0,"name:ru":"\u041a\u043e\u0432\u0430\u0440\u044b","id":418569492,"population":11537},"coordinates":[1064,266]},{"type":"Point","properties":{"kind":"locality","name":"\u015aroda \u015al\u0105ska","kind_detail":"town","old_name:de":"Neumarkt in Schlesien","source":"openstreetmap.org","min_zoom":8.0,"name:ru":"\u0421\u044c\u0440\u043e\u0434\u0430-\u0421\u043b\u0451\u043d\u0441\u043a\u0430","id":1770680189,"population":9317},"coordinates":[3278,1986]},{"type":"Point","properties":{"kind":"locality","name":"Lw\u00f3wek \u015al\u0105ski","kind_detail":"town","min_zoom":8.0,"name:de":"L\u00f6wenberg in Schlesien","source":"openstreetmap.org","name:fr":"Lwowek Slaski","name:ru":"\u041b\u044c\u0432\u0443\u0432\u0435\u043a-\u0421\u043b\u0451\u043d\u0441\u043a\u0438","id":2668487945,"name:es":"Lwowek Slaski","population":9271},"coordinates":[348,1739]},{"type":"Point","properties":{"kind":"locality","name":"Chocian\u00f3w","kind_detail":"town","name:de":"Kotzenau","source":"openstreetmap.org","min_zoom":8.0,"name:ru":"\u0425\u043e\u0446\u044f\u043d\u0443\u0432","id":31809141,"population":8194},"coordinates":[1252,3161]},{"type":"Point","properties":{"kind":"locality","name":"\u017bar\u00f3w","kind_detail":"town","name:de":"Saarau","source":"openstreetmap.org","min_zoom":8.0,"name:ru":"\u0416\u0430\u0440\u0443\u0432","id":2300849551,"population":7000},"coordinates":[2988,950]},{"type":"Point","properties":{"kind":"locality","name":"Sob\u00f3tka","kind_detail":"town","name:de":"Zobten am Berge","source":"openstreetmap.org","min_zoom":8.0,"name:ru":"\u0421\u043e\u0431\u0443\u0442\u043a\u0430","id":349011984,"population":6991},"coordinates":[3716,756]},{"type":"Point","properties":{"kind":"locality","name":"Szklarska Por\u0119ba","kind_detail":"town","name:de":"Schreiberhau","source":"openstreetmap.org","min_zoom":8.0,"name:uk":"\u0428\u043a\u043b\u044f\u0440\u0441\u044c\u043a\u0430 \u041f\u043e\u0440\u0435\u043c\u0431\u0430","name:ru":"\u0428\u043a\u043b\u044f\u0440\u0441\u043a\u0430-\u041f\u043e\u0440\u0435\u043c\u0431\u0430","id":31916864,"population":6864},"coordinates":[157,414]},{"type":"Point","properties":{"kind":"locality","name":"Przemk\u00f3w","kind_detail":"town","name:de":"Primkenau","source":"openstreetmap.org","min_zoom":8.0,"name:ru":"\u041f\u0448\u0435\u043c\u043a\u0443\u0432","id":31790682,"population":6484},"coordinates":[928,3676]},{"type":"Point","properties":{"kind":"locality","old_name:de":"Canth","name":"K\u0105ty Wroc\u0142awskie","kind_detail":"town","name:de":"Kanth","source":"openstreetmap.org","min_zoom":8.0,"name:ru":"\u041a\u043e\u043d\u0442\u044b-\u0412\u0440\u043e\u0446\u043b\u0430\u0432\u0441\u043a\u0435","id":1770680184,"population":6422},"coordinates":[3771,1370]},{"type":"Point","properties":{"kind":"locality","name":"\u015acinawa","kind_detail":"town","name:de":"Steinau an der Oder","source":"openstreetmap.org","min_zoom":8.0,"name:ru":"\u0421\u0446\u0438\u043d\u0430\u0432\u0430","id":31788771,"population":5798},"coordinates":[2778,3157]},{"type":"Point","properties":{"kind":"locality","old_name:de":"Ober Salzbrunn","name":"Szczawno-Zdr\u00f3j","kind_detail":"town","name:de":"Bad Salzbrunn","source":"openstreetmap.org","min_zoom":8.0,"name:uk":"\u0429\u0430\u0432\u043d\u043e-\u0417\u0434\u0440\u0443\u0439","old_name":"Solice-Zdr\u00f3j","name:ru":"\u0429\u0430\u0432\u043d\u043e-\u0417\u0434\u0440\u0443\u0439","id":1770680174,"population":5796},"coordinates":[2287,326]},{"type":"Point","properties":{"kind":"locality","old_name:de":"Hain","name":"Bolk\u00f3w","kind_detail":"town","name:de":"Bolkenhain","source":"openstreetmap.org","min_zoom":8.0,"name:uk":"\u0411\u043e\u043b\u044c\u043a\u0443\u0432","name:ru":"\u0411\u043e\u043b\u044c\u043a\u0443\u0432","id":268947528,"population":5584},"coordinates":[1841,862]},{"type":"Point","properties":{"kind":"locality","name":"Jaworzyna \u015al\u0105ska","kind_detail":"town","name:de":"K\u00f6nigszelt","source":"openstreetmap.org","min_zoom":8.0,"name:ru":"\u042f\u0432\u043e\u0436\u0438\u043d\u0430-\u0421\u043b\u0451\u043d\u0441\u043a\u0430","id":282370077,"population":5226},"coordinates":[2793,828]},{"type":"Point","properties":{"kind":"locality","name:lv":"Karpa\u010da","name":"Karpacz","kind_detail":"town","name:de":"Krummh\u00fcbel","source":"openstreetmap.org","min_zoom":8.0,"name:uk":"\u041a\u0430\u0440\u043f\u0430\u0447","name:ru":"\u041a\u0430\u0440\u043f\u0430\u0447","id":385563068,"population":4968},"coordinates":[847,200]},{"type":"Point","properties":{"kind":"locality","name":"Wojciesz\u00f3w","kind_detail":"town","name:de":"Kauffung","source":"openstreetmap.org","min_zoom":8.0,"name:uk":"\u0412\u043e\u0439\u0446\u0435\u0448\u0443\u0432","name:ru":"\u0412\u043e\u0439\u0446\u0435\u0448\u0443\u0432","name:zh":"\u6c83\u4f0a\u5207\u8212\u592b","id":1770680185,"population":3864},"coordinates":[1319,1000]},{"type":"Point","properties":{"kind":"locality","name":"Prochowice","kind_detail":"town","name:de":"Parchwitz","source":"openstreetmap.org","min_zoom":8.0,"name:ru":"\u041f\u0440\u043e\u0445\u043e\u0432\u0438\u0446\u0435","id":31790914,"population":3649},"coordinates":[2609,2495]},{"type":"Point","properties":{"kind":"locality","name":"\u015awierzawa","kind_detail":"town","name:de":"Sch\u00f6nau an der Katzbach","source":"openstreetmap.org","min_zoom":8.0,"name:ru":"\u0421\u0432\u0435\u0436\u0430\u0432\u0430","id":31786495,"population":2376},"coordinates":[1241,1293]},{"type":"Point","properties":{"kind":"locality","name":"Lubomierz","kind_detail":"town","old_name:de":"Liebenthal","source":"openstreetmap.org","min_zoom":8.0,"old_name":"Mi\u0142osna","name:ru":"\u041b\u044e\u0431\u043e\u043c\u0435\u0436","id":31796147,"population":1968},"coordinates":[121,1282]},{"type":"Point","properties":{"kind":"locality","name":"Wle\u0144","kind_detail":"town","name:de":"L\u00e4hn","source":"openstreetmap.org","min_zoom":8.0,"name:ru":"\u0412\u043b\u0435\u043d\u044c","id":31783414,"population":1818},"coordinates":[599,1303]}]},"transit":{"type":"GeometryCollection","geometries":[{"type":"LineString","properties":{"kind":"train","name":"L1 Liberec - Tanvald - Harrachov - Szklarska Poreba Gorna","sort_rank":275,"source":"openstreetmap.org","min_zoom":6.0,"ref":"L1","id":-5409609,"osm_relation":true},"arcs":[6]},{"type":"MultiLineString","properties":{"kind":"train","name":"Linia kolejowa nr 137 Katowice - Legnica","sort_rank":275,"source":"openstreetmap.org","min_zoom":6.0,"operator":"PKP Polskie Linie Kolejowe S.A.","ref":"137","osm_relation":true,"network":"PKP"},"arcs":[[7],[8],[9],[10]]},{"type":"MultiLineString","properties":{"kind":"train","network":"Polskie Koleje Pa\u0144stwowe Polskie Linie Kolejowe sp\u00f3\u0142ka akcyjna","sort_rank":275,"colour":"#004A8F","source":"openstreetmap.org","min_zoom":6.0,"operator":"Koleje Dolno\u015bl\u0105skie sp\u00f3\u0142ka akcyjna","ref":"D2","osm_relation":true,"colour_name":"teal"},"arcs":[[11],[12],[13]]},{"type":"MultiLineString","properties":{"kind":"train","description":"Wroc\u0142aw G\u0142\u00f3wny - Szklarska Poreba","sort_rank":275,"source":"openstreetmap.org","min_zoom":6.0,"network":"PKP PLK S.A.","operator":"Przewozy Regionalne Sp\u00f3\u0142ka z o. o.","ref":"240","osm_relation":true,"name":"D6 Wroc\u0142aw G\u0142\u00f3wny - Szklarska Poreba Gorna"},"arcs":[[14],[15],[16],[17],[18],[19],[20],[21],[22],[23],[24],[25]]},{"type":"LineString","properties":{"kind":"train","name":"D26","sort_rank":275,"source":"openstreetmap.org","min_zoom":6.0,"operator":"KD","ref":"298","id":-7713151,"osm_relation":true},"arcs":[26]},{"type":"MultiLineString","properties":{"kind":"train","name":"Linia kolejowa nr 273 Wroc\u0142aw G\u0142\u00f3wny - Szczecin G\u0142\u00f3wny","sort_rank":275,"source":"openstreetmap.org","min_zoom":6.0,"operator":"PKP Polskie Linie Kolejowe S.A.","ref":"273","osm_relation":true,"network":"PKP"},"arcs":[[27],[28]]},{"type":"LineString","properties":{"kind":"train","network":"PKP","sort_rank":275,"source":"openstreetmap.org","min_zoom":6.0,"operator":"PKP Polskie Linie Kolejowe S.A.","ref":"286","id":-2649021,"osm_relation":true,"name":"Linia kolejowa nr 286 K\u0142odzko G\u0142\u00f3wne - Wa\u0142brzych G\u0142\u00f3wny"},"arcs":[29]},{"type":"MultiLineString","properties":{"kind":"train","name":"Linia kolejowa nr 271 Wroc\u0142aw G\u0142\u00f3wny - Pozna\u0144 G\u0142\u00f3wny","sort_rank":275,"source":"openstreetmap.org","min_zoom":6.0,"operator":"PKP Polskie Linie Kolejowe S.A.","ref":"271","osm_relation":true,"network":"PKP"},"arcs":[[30],[31],[32],[33]]},{"type":"MultiLineString","properties":{"kind":"train","name":"G\u00f6rlitz > Zgorzelec > Legnica > Wroc\u0142aw","sort_rank":275,"source":"openstreetmap.org","min_zoom":6.0,"ref":"TLX1","osm_relation":true,"network":"trilex"},"arcs":[[34],[35],[36]]},{"type":"MultiLineString","properties":{"kind":"train","description":"Some services don't call at Zgorzelec and Goerltiz","sort_rank":275,"source":"openstreetmap.org","min_zoom":6.0,"operator":"Koleje Dolno\u015bl\u0105skie","ref":"255","osm_relation":true,"name":"D19"},"arcs":[[37],[38]]}]},"pois":{"type":"GeometryCollection","geometries":[{"type":"Point","properties":{"kind":"nature_reserve","protect_class":"5","area":172979000,"name:de":"Landschaftsschutzpark Zobtenberg","source":"openstreetmap.org","min_zoom":8.57,"tier":2,"id":-4547457,"osm_relation":true,"name":"\u015al\u0119\u017ca\u0144ski Park Krajobrazowy"},"coordinates":[3693,545]},{"type":"Point","properties":{"kind":"nature_reserve","protect_class":"5","area":202403000,"name:de":"Landschaftsschutzpark Iseritztal","source":"openstreetmap.org","min_zoom":8.46,"tier":2,"id":-4524369,"osm_relation":true,"name":"Park Krajobrazowy Dolina Jezierzycy"},"coordinates":[3149,2935]},{"type":"Point","properties":{"kind":"nature_reserve","protect_class":"5","area":217860000,"name:de":"Landschaftsschutzpark Weistritztal","source":"openstreetmap.org","min_zoom":8.41,"tier":2,"id":-4524365,"osm_relation":true,"name":"Park Krajobrazowy Dolina Bystrzycy"},"coordinates":[3819,1382]},{"type":"Point","properties":{"kind":"nature_reserve","protect_class":"5","area":391454000,"name:de":"Landschaftsschutzpark Landeshuter Kamm","source":"openstreetmap.org","min_zoom":7.98,"tier":2,"id":-4522380,"osm_relation":true,"name":"Rudawski Park Krajobrazowy"},"coordinates":[1281,453]},{"type":"Point","properties":{"kind":"nature_reserve","name:en":"Przemk\u00f3w Landscape Park","protect_class":"5","area":591547000,"name:de":"Landschaftsschutzpark Primkenau","source":"openstreetmap.org","min_zoom":7.69,"tier":2,"id":-4522370,"osm_relation":true,"name":"Przemkowski Park Krajobrazowy"},"coordinates":[846,3468]},{"type":"Point","properties":{"kind":"nature_reserve","protect_class":"5","area":267226000,"name:de":"Landschaftsschutzpark Bobertal","source":"openstreetmap.org","min_zoom":8.26,"tier":2,"id":-4522360,"osm_relation":true,"name":"Park Krajobrazowy Doliny Bobru"},"coordinates":[593,1270]},{"type":"Point","properties":{"kind":"nature_reserve","protect_class":"5","area":397656000,"source":"openstreetmap.org","min_zoom":7.97,"tier":2,"id":-4522352,"osm_relation":true,"name":"Park Krajobrazowy Che\u0142my"},"coordinates":[1697,1337]},{"type":"Point","properties":{"kind":"protected_area","protect_class":"97","area":52829300,"source":"openstreetmap.org","min_zoom":8.0,"tier":2,"id":-2055452,"osm_relation":true,"name":"\u0141\u0119gi nad Bystrzyc\u0105"},"coordinates":[3870,1622]},{"type":"Point","properties":{"kind":"protected_area","protect_class":"97","area":35779700,"source":"openstreetmap.org","min_zoom":8.0,"tier":2,"ref":"PLH020082","id":-2055383,"osm_relation":true,"name":"Wzg\u00f3rza Niemcza\u0144skie"},"coordinates":[3722,124]},{"type":"Point","properties":{"kind":"protected_area","protect_class":"97","area":21052100,"source":"openstreetmap.org","min_zoom":8.0,"tier":2,"id":-2055266,"osm_relation":true,"name":"Przeplatki nad Bystrzyc\u0105"},"coordinates":[3731,1119]},{"type":"Point","properties":{"kind":"national_park","name:en":"Karkonosze National Park","protect_class":"2","area":146728000,"name:cs":"Krkono\u0161sk\u00fd n\u00e1rodn\u00ed park","name:de":"Nationalpark Riesengebirge","source":"openstreetmap.org","min_zoom":7.19,"tier":1,"id":-1329832,"osm_relation":true,"name":"Karkonoski Park Narodowy"},"coordinates":[285,242]},{"type":"Point","properties":{"source":"openstreetmap.org","kind":"military","name":"O\u015brodek Szkolenia Poligonowego Wojsk L\u0105dowych \u017baga\u0144","area":315924000,"tier":3,"min_zoom":8.0,"id":114198124},"coordinates":[65,3331]}]},"boundaries":{"type":"GeometryCollection","geometries":[{"type":"MultiLineString","properties":{"name:right:yo":"Polandi","name:right:yi":"\u05e4\u05d5\u05d9\u05dc\u05df","name:left:la":"Cechia","name:right:qu":"Pulunya","name:left:li":"Tsjechi\u00eb","name:left:vi":"C\u1ed9ng h\u00f2a S\u00e9c","name:left:ik":"Czech Republic","name:left:sw":"Ucheki","name:left:kg":"R\u00e9publique tch\u00e8que","name:left:ka":"\u10e9\u10d4\u10ee\u10d4\u10d7\u10d8","name:left:kl":"Tjekkia","name:left:ko":"\uccb4\ucf54","name:left:kn":"\u0c9c\u0cc6\u0c95\u0ccd \u0c97\u0ca3\u0cb0\u0cbe\u0c9c\u0ccd\u0caf","name:right:is":"P\u00f3lland","name:left:ro":"Cehia","name:left:kk":"\u0427\u0435\u0445\u0438\u044f","name:right:ru":"\u041f\u043e\u043b\u044c\u0448\u0430","name:left:ku":"Komara \u00c7ek\u00ee","name:left:kw":"Pow Chek","name:left:kv":"\u0427\u0435\u0445\u0438\u044f","name:right:rn":"Polonia","name:right:ro":"Polonia","name:left:ru":"\u0427\u0435\u0445\u0438\u044f","name:right:ig":"Poland","name:right:ie":"Polonia","name:right:id":"Polandia","name:left:ky":"\u0427\u0435\u0445\u0438\u044f","name:right:ia":"Polonia","name:right:bi":"Poland","name:right:bn":"\u09aa\u09cb\u09b2\u09cd\u09af\u09be\u09a8\u09cd\u09a1","name:right:bo":"\u0f55\u0f7c\u0f0b\u0f63\u0f53\u0f0d","name:left:sl":"\u010ce\u0161ka","name:right:ba":"\u041f\u043e\u043b\u044c\u0448\u0430","name:right:bg":"\u041f\u043e\u043b\u0448\u0430","name:right:be":"\u041f\u043e\u043b\u044c\u0448\u0447\u0430","name:right:br":"Polonia","name:right:bs":"Poljska","name:right:nn":"Polen","name:right:no":"Polen","name:right:nl":"Polen","name:right:wa":"Pologne","name:right:wo":"Polo\u00f1","name:right:ne":"\u092a\u094b\u0932\u094d\u092f\u093e\u0923\u094d\u0921","name:right:na":"Poran","name:right:gv":"Yn Pholynn","name:right:nv":"P\u00f3olish Dine\u02bc\u00e9 Bik\u00e9yah","kind_detail":"2","name:left:tr":"\u00c7ek Cumhuriyeti","name:right:gu":"\u0aaa\u0acb\u0ab2\u0ac7\u0a82\u0aa1","name:left:ty":"Czech Republic","name:right:ps":"\u067e\u0648\u0644\u0646\u0689","name:right:pt":"Pol\u00f3nia","name:left:mk":"\u0427\u0435\u0448\u043a\u0430","name:left:mi":"T\u012bekia","name:left:tt":"\u0427\u0435\u0445\u0438\u044f","name:left:mn":"\u0411\u04af\u0433\u0434 \u041d\u0430\u0439\u0440\u0430\u043c\u0434\u0430\u0445 \u0427\u0435\u0445 \u0423\u043b\u0441","name:left:ml":"\u0d1a\u0d46\u0d15\u0d4d\u0d15\u0d4d\u200c \u0d31\u0d3f\u0d2a\u0d4d\u0d2a\u0d2c\u0d4d\u0d32\u0d3f\u0d15\u0d4d\u0d15\u0d4d\u200c","name:left:th":"\u0e2a\u0e32\u0e18\u0e32\u0e23\u0e13\u0e23\u0e31\u0e10\u0e40\u0e0a\u0e47\u0e01","name:right:pa":"\u0a2a\u0a4b\u0a32\u0a48\u0a02\u0a21","name:left:tk":"\u00c7ehi\u00fda","name:left:tl":"Republikang Tseko","name:left:mt":"Repubblika \u010aeka","name:right:gl":"Polonia","name:left:my":"\u1001\u103b\u1000\u103a\u101e\u1019\u1039\u1019\u1010\u1014\u102d\u102f\u1004\u103a\u1004\u1036","name:right:gn":"Polo\u00f1a","name:left:te":"\u0c1a\u0c46\u0c15\u0c4d \u0c30\u0c3f\u0c2a\u0c2c\u0c4d\u0c32\u0c3f\u0c15\u0c4d","name:left:tg":"\u0427\u0435\u0445\u0438\u044f","name:left:ms":"Republik Czech","name:left:mr":"\u091a\u0947\u0915 \u092a\u094d\u0930\u091c\u093e\u0938\u0924\u094d\u0924\u093e\u0915","name:left:da":"Tjekkiet","name:left:de":"Tschechien","name:left:dz":"\u0f45\u0f7a\u0f40\u0f0b\u0f62\u0f72\u0f0b\u0f54\u0f56\u0f0b\u0f63\u0f72\u0f40\u0f0b","name:right:ga":"An Pholainn","name:left:dv":"\u0797\u07ac\u0786\u07b0 \u0796\u07aa\u0789\u07b0\u0780\u07ab\u0783\u07a8\u0787\u07b0\u0794\u07a7","name:right:lg":"Bupoolo","name:right:ug":"\u067e\u0648\u0644\u0634\u0627","name:left:hi":"\u091a\u0947\u0915 \u0917\u0923\u0930\u093e\u091c\u094d\u092f","name:right:lb":"Polen","name:right:uk":"\u041f\u043e\u043b\u044c\u0449\u0430","name:left:ca":"Tx\u00e8quia","name:right:ln":"Poloni","name:right:li":"Pole","name:right:lt":"Lenkija","name:right:ur":"\u067e\u0648\u0644\u06cc\u0646\u0688","name:right:lv":"Polija","name:left:hy":"\u0549\u0565\u056d\u056b\u0561","name:left:ta":"\u0b9a\u0bc6\u0b95\u0bcd \u0b95\u0bc1\u0b9f\u0bbf\u0baf\u0bb0\u0b9a\u0bc1","name:left:ht":"Repiblik tch\u00e8k","name:left:hu":"Csehorsz\u00e1g","name:left:hr":"\u010ce\u0161ka","sort_rank":262,"name:right:gd":"A' Ph\u00f2lainn","name:right:rw":"Polonye","name:right:os":"\u041f\u043e\u043b\u044c\u0448\u00e6","name:right:es":"Polonia","name:right:sr":"\u041f\u043e\u0459\u0441\u043a\u0430","name:right:eu":"Polonia","name:right:et":"Poola","name:left:os":"\u0427\u0435\u0445\u0438","name:left:or":"\u0b1a\u0b47\u0b15 \u0b30\u0b3f\u0b2a\u0b2c\u0b4d\u0b32\u0b3f\u0b15","name:right:ee":"Poland","name:left:vo":"Tsyeg\u00e4n","name:left:oc":"Republica Ch\u00e8ca","name:right:eo":"Polujo","name:right:en":"Poland","name:right:el":"\u03a0\u03bf\u03bb\u03c9\u03bd\u03af\u03b1","name:left:fa":"\u062c\u0645\u0647\u0648\u0631\u06cc \u0686\u06a9","name:left:ia":"Republica Chec","name:left:fo":"Kekkia","name:right:sk":"Po\u013esko","name:left:fi":"T\u0161ekki","name:left:fr":"Tch\u00e9quie","name:right:jv":"Polandia","name:left:fy":"Tsjechje","name:right:ja":"\u30dd\u30fc\u30e9\u30f3\u30c9","name:right:sq":"Polonia","name:right:ss":"IPholandi","name:left:ja":"\u30c1\u30a7\u30b3","name:right:su":"Polandia","name:right:st":"Poland","name:right:sw":"Poland","name:right:sv":"Polen","name:right:si":"\u0db4\u0ddd\u0dbd\u0db1\u0dca\u0dad\u0dba","name:right:sh":"Poljska","name:left:qu":"Chiksuyu","name:right:sm":"Polagi","name:right:sl":"Poljska","name:right:so":"Boland","name:right:sa":"\u092a\u094b\u0932\u0948\u0902\u0921","name:right:sc":"Polonia","name:left:jv":"C\u00e9ko","id":-51684,"name:right:sg":"P\u00f6l\u00f4ni","name:right:co":"Polonia","name:right:ca":"Pol\u00f2nia","name:right:ce":"\u041f\u043e\u043b\u044c\u0448\u0430","name:right:cy":"Gwlad Pwyl","name:right:zh-yue":"\u6ce2\u862d","name:right:cs":"Polsko","name:right:cu":"\u041f\u043e\u043b\u0484\u044c\u0441\u043a\u0430","name:right:iu":"\u1433\u14da\u14d0\u1466","name:right:cv":"\u041f\u043e\u043b\u044c\u0448\u0430","name:right:it":"Polonia","name:left:ar":"\u0627\u0644\u062a\u0634\u064a\u0643","name:left:az":"\u00c7exiya","alt_name:left:de":"Tschechei","name:left:af":"Tsjeggi\u00eb","name:left:ab":"\u0427\u0435\u0445\u0438\u0430","name:left:an":"Republica Checa","name:left:am":"\u127c\u12ad \u122a\u1350\u1265\u120a\u12ad","name:right:io":"Polonia","name:left:zh-yue":"\u6377\u514b","name:left:rw":"Cekiya","name:right:hy":"\u053c\u0565\u0570\u0561\u057d\u057f\u0561\u0576","name:left:lb":"Tschechien","alt_name:left:eo":"\u0108e\u0125io","name:left:su":"C\u00e9ko","int_name:left":"Czechia","name:right:hr":"Poljska","name:left:sv":"Tjeckien","name:left:sq":"Republika \u00c7eke","name:right:hu":"Lengyelorsz\u00e1g","name:left:ln":"Republ\u00edki Sheki","name:left:sr":"\u0427\u0435\u0448\u043a\u0430","name:left:sm":"Czechs Republic","name:right:hi":"\u092a\u094b\u0932\u0948\u0902\u0921","name:left:so":"Jamhuuriyadda Tashik","name:left:lt":"\u010cekija","name:left:sh":"\u010ce\u0161ka Republika","name:left:lv":"\u010cehija","name:left:se":"\u010ceahkka","name:right:ha":"Poland","name:left:sa":"\u091c\u093c\u0947\u0915\u094d \u0930\u093f\u092a\u092c\u094d\u0932\u093f\u0915","name:right:he":"\u05e4\u05d5\u05dc\u05d9\u05df","name:right:la":"Polonia","name:right:af":"Pole","name:left:co":"Cechia","name:right:ab":"\u041f\u043e\u043b\u0448\u0430","name:left:ce":"\u0427\u0435\u0445\u0438","name:right:an":"Polonia","name:right:am":"\u1356\u120b\u1295\u12f5","name:right:ak":"Poland","source":"openstreetmap.org","name:left:cy":"Gweriniaeth Tsiec","name:right:ar":"\u0628\u0648\u0644\u0646\u062f\u0627","name:left:he":"\u05e6\u05db\u05d9\u05d4","name:left:cu":"\u0427\u0454\u0448\u044c\u0441\u043a\u043e","name:left:cv":"\u0427\u0435\u0445 \u0420\u0435\u0441\u043f\u0443\u0431\u043b\u0438\u043a\u0438","name:right:az":"Pol\u015fa","name:right:ay":"Pulu\u00f1a","name:right:rm":"Pologna","name":"\u010cesko - Polska","name:right:zu":"IPolandi","name:left:zu":"ITsheki","name:left:zh":"\u6377\u514b","name:right:zh":"\u6ce2\u5170","official_name:left":"\u010cesk\u00e1 republika","name:left:uz":"Chexiya","name:right:fr":"Pologne","name:left:ps":"\u0686\u06d0\u06a9 \u062c\u0645\u0647\u0648\u0631\u064a\u062a","name:left:nv":"Chek Bik\u00e9yah","name:left:ur":"\u0686\u06cc\u06a9 \u062c\u0645\u06c1\u0648\u0631\u06cc\u06c1","id:right":-49715,"name:left:uk":"\u0427\u0435\u0445\u0456\u044f","name:left:no":"Tsjekkia","name:left:nl":"Tsjechi\u00eb","alt_name:right:eo":"Pollando;Polio","name:right:fa":"\u0644\u0647\u0633\u062a\u0627\u0646","name:right:fo":"P\u00f3lland","name:left:ne":"\u091a\u0947\u0915 \u0917\u0923\u0924\u0928\u094d\u0924\u094d\u0930","name:left:ug":"\u0686\u06d0\u062e \u062c\u06c7\u0645\u06be\u06c7\u0631\u0649\u064a\u06d5\u062a\u0649","name:left:na":"Ripubrikin Tsiek","name:left:eo":"\u0108e\u0125ujo","name:left:en":"Czechia","name:left:el":"\u03a4\u03c3\u03b5\u03c7\u03af\u03b1","name:left:ee":"Czech Republic","name:left:pl":"Czechy","name:left:es":"Chequia","name:left:ss":"Shekhi","name:left:ie":"Tchechia","name:left:eu":"Txekia","name:left:et":"T\u0161ehhi","name:right:oc":"Polonha","name:right:tr":"Polonya","short_name:right":"RP","name:right:uz":"Polsha","osm_relation":true,"name:right:or":"\u0b2a\u0b4b\u0b32\u0b3e\u0b23\u0b4d\u0b21","name:left:pt":"Tcheca","name:right:th":"\u0e1b\u0e23\u0e30\u0e40\u0e17\u0e28\u0e42\u0e1b\u0e41\u0e25\u0e19\u0e14\u0e4c","name:right:tk":"Pol\u015fa","min_zoom":8.0,"name:left:wo":"R\u00e9ewum Cek","name:left:ga":"An tSeic","name:left:it":"Repubblica Ceca","name:left:gd":"An t-Seic","name:left:gl":"Rep\u00fablica Checa","name:left:gn":"Cheko","name:left:gv":"Yn Phobblaght \u00c7heck","official_name:right":"Rzeczpospolita Polska","name:left":"\u010cesko","name:right:mk":"\u041f\u043e\u043b\u0441\u043a\u0430","name:right:mi":"P\u014drana","name:right:mn":"\u041f\u043e\u043b\u044c\u0448","name:right:ml":"\u0d2a\u0d4b\u0d33\u0d23\u0d4d\u0d1f\u0d4d","name:right:vo":"Pol\u00e4n","name:right:mg":"Polonia","name:right:vi":"Ba Lan","name:right:my":"\u1015\u102d\u102f\u101c\u1014\u103a\u1014\u102d\u102f\u1004\u103a\u1004\u1036","name:right:ms":"Poland","name:right:mr":"\u092a\u094b\u0932\u0902\u0921","name:right:fy":"Poalen","name:right:mt":"Polonja","name:left:nn":"Tsjekkia","kind":"country","name:left:br":"Tchekia","name:left:bs":"\u010ce\u0161ka","name:left:ba":"\u0427\u0435\u0445\u0438\u044f","name:left:bg":"\u0427\u0435\u0448\u043a\u0430\u0442\u0430 \u0440\u0435\u043f\u0443\u0431\u043b\u0438\u043a\u0430","name:left:be":"\u0427\u044d\u0445\u0456\u044f","name:right:ff":"Poloonya","name:left:bi":"Czech Republic","name:left:bn":"\u099a\u09c7\u0995 \u09aa\u09cd\u09b0\u099c\u09be\u09a4\u09a8\u09cd\u09a4\u09cd\u09b0","name:left:bo":"\u0f45\u0f7a\u0f0b\u0f41\u0f7a\u0f0d","name:right":"Polska","name:left:yo":"Ts\u1eb9\u0301k\u00ec Ol\u00f3m\u00ecnira","name:left:yi":"\u05d8\u05e9\u05e2\u05db\u05d9\u05d9","id:left":-51684,"name:right:fi":"Puola","name:right:ka":"\u10de\u10dd\u10da\u10dd\u10dc\u10d4\u10d7\u10d8","name:left:io":"Chekia","name:left:pa":"\u0a1a\u0a48\u0a71\u0a15 \u0a17\u0a23\u0a30\u0a3e\u0a1c","name:right:kg":"Pologne","name:right:tt":"\u041f\u043e\u043b\u044c\u0448\u0430","name:right:kk":"\u041f\u043e\u043b\u044c\u0448\u0430","name:left:id":"Republik Ceko","name:right:km":"\u1794\u17d2\u179a\u1791\u17c1\u179f\u1794\u17c9\u17bc\u17a1\u17bc\u1789","name:right:kl":"Poleni","name:right:ko":"\ud3f4\ub780\ub4dc","name:right:kn":"\u0caa\u0ccb\u0cb2\u0cc6\u0c82\u0ca1\u0ccd","name:right:tl":"Polonya","name:right:ku":"Polonya","name:right:kw":"Poloni","name:right:kv":"\u041f\u043e\u043b\u044c\u0448\u0430","name:right:ky":"\u041f\u043e\u043b\u044c\u0448\u0430","name:right:te":"\u0c2a\u0c4b\u0c32\u0c3e\u0c02\u0c21\u0c4d","name:right:tg":"\u041b\u0430\u04b3\u0438\u0441\u0442\u043e\u043d","name:left:is":"T\u00e9kkland","name:right:ta":"\u0baa\u0bcb\u0bb2\u0ba8\u0bcd\u0ba4\u0bc1","name:right:de":"Polen","name:right:da":"Polen","name:right:dv":"\u0795\u07ae\u078d\u07ac\u0782\u07b0\u0791\u07aa","name:right:ht":"Pol\u00f2y"},"arcs":[[0],[1]]},{"type":"MultiLineString","properties":{"name:right:es":"Voivodato de Baja Silesia","name:right:nl":"Woiwodschap Neder-Silezi\u00eb","name:right:ja":"\u30c9\u30eb\u30cc\u30a3\u30fb\u30b7\u30ed\u30f3\u30b9\u30af\u770c","name:right:fr":"Basse-Sil\u00e9sie","name:right:uk":"\u041d\u0438\u0436\u043d\u044c\u043e\u0441\u0456\u043b\u0435\u0437\u044c\u043a\u0435 \u0432\u043e\u0454\u0432\u043e\u0434\u0441\u0442\u0432\u043e","name:right:hu":"Als\u00f3-Szil\u00e9ziai vajdas\u00e1g","id:right":-224457,"name:right:lt":"\u017demutin\u0117s Silezijos vaivadija","name:right:sk":"Dolnosliezske","alt_name:right:en":"Lower Silesian Province","id":-435513,"name:right":"wojew\u00f3dztwo dolno\u015bl\u0105skie","name:left:en":"Northeast","sort_rank":256,"kind_detail":"4","int_name:right":"wojewodztwo dolnoslaskie","source":"openstreetmap.org","name:right:ar":"\u0645\u062d\u0627\u0641\u0638\u0629 \u0633\u064a\u0644\u0632\u064a\u0627 \u0627\u0644\u0633\u0641\u0644\u0649","id:left":-435513,"name:right:cs":"Dolnoslezsk\u00e9 vojvodstv\u00ed","name:left":"Severov\u00fdchod","name:right:ka":"\u10e5\u10d5\u10d4\u10db\u10dd \u10e1\u10d8\u10da\u10d4\u10d6\u10d8\u10d8\u10e1 \u10e1\u10d0\u10d5\u10dd\u10d4\u10d5\u10dd\u10d3\u10dd","name:right:pt":"Voivodia da Baixa Sil\u00e9sia","kind":"region","name:right:ru":"\u041d\u0438\u0436\u043d\u0435\u0441\u0438\u043b\u0435\u0437\u0441\u043a\u043e\u0435 \u0432\u043e\u0435\u0432\u043e\u0434\u0441\u0442\u0432\u043e","name:left:de":"Nordosten","name:left:ru":"\u0421\u0435\u0432\u0435\u0440\u043e-\u0412\u043e\u0441\u0442\u043e\u043a","short_name:right":"dolno\u015bl\u0105skie","name:right:eo":"Malsuprasilezia Provinco","name:right:en":"Lower Silesian Voivodeship","osm_relation":true,"loc_name:right":"Dolno\u015bl\u0105skie","name":"Severov\u00fdchod - wojew\u00f3dztwo dolno\u015bl\u0105skie","name:right:de":"Woiwodschaft Niederschlesien","min_zoom":8.0,"name:right:be":"\u041d\u0456\u0436\u043d\u0435\u0441\u0456\u043b\u0435\u0437\u0441\u043a\u0430\u0435 \u0432\u0430\u044f\u0432\u043e\u0434\u0441\u0442\u0432\u0430","name:right:zh":"\u4e0b\u897f\u91cc\u897f\u4e9a\u7701","name:right:sl":"Spodnje\u0161lezijsko vojvodstvo"},"arcs":[[2],[3]]},{"type":"LineString","properties":{"name:right:nl":"Woiwodschap Groot-Polen","name:right:ja":"\u30f4\u30a3\u30a8\u30eb\u30b3\u30dd\u30eb\u30b9\u30ab\u770c","loc_name:left":"Dolno\u015bl\u0105skie","alt_name:left:en":"Lower Silesian Province","name:right:uk":"\u0412\u0435\u043b\u0438\u043a\u043e\u043f\u043e\u043b\u044c\u0441\u044c\u043a\u0435 \u0432\u043e\u0454\u0432\u043e\u0434\u0441\u0442\u0432\u043e","int_name:left":"wojewodztwo dolnoslaskie","name:left:ja":"\u30c9\u30eb\u30cc\u30a3\u30fb\u30b7\u30ed\u30f3\u30b9\u30af\u770c","id:right":-130971,"name:right:lt":"Did\u017eiosios Lenkijos vaivadija","name:left:sl":"Spodnje\u0161lezijsko vojvodstvo","min_zoom":8.0,"name:left:lt":"\u017demutin\u0117s Silezijos vaivadija","name:left:sk":"Dolnosliezske","name:left:be":"\u041d\u0456\u0436\u043d\u0435\u0441\u0456\u043b\u0435\u0437\u0441\u043a\u0430\u0435 \u0432\u0430\u044f\u0432\u043e\u0434\u0441\u0442\u0432\u0430","name:right:fr":"Grande-Pologne","name:left:hu":"Als\u00f3-Szil\u00e9ziai vajdas\u00e1g","id":-224457,"name:right":"wojew\u00f3dztwo wielkopolskie","short_name:left":"dolno\u015bl\u0105skie","name:left:eo":"Malsuprasilezia Provinco","name:left:en":"Lower Silesian Voivodeship","sort_rank":256,"kind_detail":"4","source":"openstreetmap.org","name:left:nl":"Woiwodschap Neder-Silezi\u00eb","id:left":-224457,"name:left:es":"Voivodato de Baja Silesia","name:right:cs":"Velkopolsk\u00e9 vojvodstv\u00ed","name:left:cs":"Dolnoslezsk\u00e9 vojvodstv\u00ed","name:left":"wojew\u00f3dztwo dolno\u015bl\u0105skie","name:left:ka":"\u10e5\u10d5\u10d4\u10db\u10dd \u10e1\u10d8\u10da\u10d4\u10d6\u10d8\u10d8\u10e1 \u10e1\u10d0\u10d5\u10dd\u10d4\u10d5\u10dd\u10d3\u10dd","name:left:ar":"\u0645\u062d\u0627\u0641\u0638\u0629 \u0633\u064a\u0644\u0632\u064a\u0627 \u0627\u0644\u0633\u0641\u0644\u0649","name:right:ru":"\u0412\u0435\u043b\u0438\u043a\u043e\u043f\u043e\u043b\u044c\u0441\u043a\u043e\u0435 \u0432\u043e\u0435\u0432\u043e\u0434\u0441\u0442\u0432\u043e","name:left:pt":"Voivodia da Baixa Sil\u00e9sia","name:left:ru":"\u041d\u0438\u0436\u043d\u0435\u0441\u0438\u043b\u0435\u0437\u0441\u043a\u043e\u0435 \u0432\u043e\u0435\u0432\u043e\u0434\u0441\u0442\u0432\u043e","short_name:right":"wielkopolskie","name:right:eo":"Grandpollanda Provinco","name:right:en":"Greater Poland Voivodeship","osm_relation":true,"name:left:uk":"\u041d\u0438\u0436\u043d\u044c\u043e\u0441\u0456\u043b\u0435\u0437\u044c\u043a\u0435 \u0432\u043e\u0454\u0432\u043e\u0434\u0441\u0442\u0432\u043e","kind":"region","name":"wojew\u00f3dztwo dolno\u015bl\u0105skie - wojew\u00f3dztwo wielkopolskie","name:right:de":"Woiwodschaft Gro\u00dfpolen","name:left:de":"Woiwodschaft Niederschlesien","name:right:be":"\u0412\u044f\u043b\u0456\u043a\u0430\u043f\u043e\u043b\u044c\u0441\u043a\u0430\u0435 \u0432\u0430\u044f\u0432\u043e\u0434\u0441\u0442\u0432\u0430","name:left:zh":"\u4e0b\u897f\u91cc\u897f\u4e9a\u7701","name:left:fr":"Basse-Sil\u00e9sie"},"arcs":[4]},{"type":"LineString","properties":{"name:right:nl":"Woiwodschap Lubusz","name:right:ja":"\u30eb\u30d6\u30b7\u30e5\u770c","loc_name:left":"Dolno\u015bl\u0105skie","alt_name:left:en":"Lower Silesian Province","alt_name:right:es":"Voivodato de Lubusz","int_name:left":"wojewodztwo dolnoslaskie","name:left:ja":"\u30c9\u30eb\u30cc\u30a3\u30fb\u30b7\u30ed\u30f3\u30b9\u30af\u770c","id:right":-130969,"name:right:lt":"Liubu\u0161o vaivadija","name:left:sl":"Spodnje\u0161lezijsko vojvodstvo","min_zoom":8.0,"name:left:lt":"\u017demutin\u0117s Silezijos vaivadija","alt_name:right:en":"Lubusz Province","name:left:sk":"Dolnosliezske","name:left:be":"\u041d\u0456\u0436\u043d\u0435\u0441\u0456\u043b\u0435\u0437\u0441\u043a\u0430\u0435 \u0432\u0430\u044f\u0432\u043e\u0434\u0441\u0442\u0432\u0430","name:right:fr":"Lubusz","name:left:hu":"Als\u00f3-Szil\u00e9ziai vajdas\u00e1g","id":-224457,"name:right":"wojew\u00f3dztwo lubuskie","short_name:left":"dolno\u015bl\u0105skie","name:left:eo":"Malsuprasilezia Provinco","name:left:en":"Lower Silesian Voivodeship","source":"openstreetmap.org","sort_rank":256,"kind_detail":"4","name:right:uk":"\u041b\u044e\u0431\u0443\u0441\u044c\u043a\u0435 \u0432\u043e\u0454\u0432\u043e\u0434\u0441\u0442\u0432\u043e","name:left:nl":"Woiwodschap Neder-Silezi\u00eb","id:left":-224457,"name:left:es":"Voivodato de Baja Silesia","name:right:cs":"Lubu\u0161sk\u00e9 vojvodstv\u00ed","name:left:cs":"Dolnoslezsk\u00e9 vojvodstv\u00ed","name:left":"wojew\u00f3dztwo dolno\u015bl\u0105skie","name:right:es":"Voivodato de Lubus","name:left:ka":"\u10e5\u10d5\u10d4\u10db\u10dd \u10e1\u10d8\u10da\u10d4\u10d6\u10d8\u10d8\u10e1 \u10e1\u10d0\u10d5\u10dd\u10d4\u10d5\u10dd\u10d3\u10dd","name:left:ar":"\u0645\u062d\u0627\u0641\u0638\u0629 \u0633\u064a\u0644\u0632\u064a\u0627 \u0627\u0644\u0633\u0641\u0644\u0649","kind":"region","name:right:ru":"\u041b\u044e\u0431\u0443\u0441\u043a\u043e\u0435 \u0432\u043e\u0435\u0432\u043e\u0434\u0441\u0442\u0432\u043e","name:left:pt":"Voivodia da Baixa Sil\u00e9sia","name:left:ru":"\u041d\u0438\u0436\u043d\u0435\u0441\u0438\u043b\u0435\u0437\u0441\u043a\u043e\u0435 \u0432\u043e\u0435\u0432\u043e\u0434\u0441\u0442\u0432\u043e","short_name:right":"lubuskie","name:right:eo":"Lubu\u015da Provinco","name:right:en":"Lubusz Voivodeship","osm_relation":true,"name:left:uk":"\u041d\u0438\u0436\u043d\u044c\u043e\u0441\u0456\u043b\u0435\u0437\u044c\u043a\u0435 \u0432\u043e\u0454\u0432\u043e\u0434\u0441\u0442\u0432\u043e","loc_name:right":"Lubuskie","name":"wojew\u00f3dztwo dolno\u015bl\u0105skie - wojew\u00f3dztwo lubuskie","name:right:de":"Woiwodschaft Lebus","name:left:de":"Woiwodschaft Niederschlesien","name:right:be":"\u041b\u044e\u0431\u0443\u0448\u0441\u043a\u0430\u0435 \u0432\u0430\u044f\u0432\u043e\u0434\u0441\u0442\u0432\u0430","name:left:zh":"\u4e0b\u897f\u91cc\u897f\u4e9a\u7701","name:left:fr":"Basse-Sil\u00e9sie","name:right:sl":"Lubu\u0161ko vojvodstvo"},"arcs":[5]}]},"roads":{"type":"GeometryCollection","geometries":[{"type":"LineString","properties":{"kind":"minor_road","sort_rank":360,"kind_detail":"residential","is_bicycle_related":true,"bicycle_shield_text":"R9","bicycle_network":"ncn","source":"openstreetmap.org","min_zoom":8.0,"landuse_kind":"urban_area","name:de":"Gr\u00fcnstra\u00dfe","id":53207059},"arcs":[39]},{"type":"LineString","properties":{"kind":"major_road","sort_rank":377,"kind_detail":"tertiary","is_bicycle_related":true,"bicycle_shield_text":"ORT","bicycle_network":"ncn","source":"openstreetmap.org","min_zoom":8.0,"landuse_kind":"nature_reserve","id":294715140},"arcs":[40]},{"type":"LineString","properties":{"kind":"major_road","network":"pl:national","sort_rank":380,"kind_detail":"primary","source":"openstreetmap.org","min_zoom":8.0,"shield_text":"39","ref":"39"},"arcs":[41]},{"type":"MultiLineString","properties":{"kind":"path","sort_rank":354,"kind_detail":"track","is_bicycle_related":true,"bicycle_shield_text":"PL","bicycle_network":"ncn","source":"openstreetmap.org","min_zoom":8.0},"arcs":[[42],[43]]},{"type":"LineString","properties":{"kind":"major_road","sort_rank":377,"kind_detail":"tertiary","is_bicycle_related":true,"bicycle_shield_text":"PL","bicycle_network":"ncn","source":"openstreetmap.org","min_zoom":8.0,"ref":"2524D"},"arcs":[44]},{"type":"LineString","properties":{"bus_network":null,"network":"pl:national","sort_rank":380,"kind_detail":"primary","kind":"major_road","source":"openstreetmap.org","min_zoom":8.0,"bus_shield_text":"0","shield_text":"94","landuse_kind":"urban_area","ref":"94;297"},"arcs":[45]},{"type":"LineString","properties":{"bus_network":"\u015awidnica","network":"pl:national","sort_rank":380,"kind_detail":"primary","kind":"major_road","source":"openstreetmap.org","min_zoom":8.0,"bus_shield_text":"4","shield_text":"35","landuse_kind":"urban_area","ref":"35"},"arcs":[46]},{"type":"MultiLineString","properties":{"bus_network":"\u015awidnica","sort_rank":377,"landuse_kind":"urban_area","is_bicycle_related":true,"kind":"major_road","bicycle_shield_text":"R9","bicycle_network":"ncn","source":"openstreetmap.org","min_zoom":8.0,"bus_shield_text":"50","kind_detail":"tertiary"},"arcs":[[47],[48],[49],[50]]},{"type":"LineString","properties":{"kind":"minor_road","sort_rank":360,"kind_detail":"unclassified","is_bicycle_related":true,"bicycle_shield_text":"R9","bicycle_network":"ncn","source":"openstreetmap.org","min_zoom":8.0,"id":446689771},"arcs":[51]},{"type":"LineString","properties":{"kind":"major_road","sort_rank":380,"landuse_kind":"urban_area","source":"openstreetmap.org","min_zoom":8.0,"kind_detail":"primary","ref":"3;36","id":540174487},"arcs":[52]},{"type":"LineString","properties":{"kind":"major_road","network":"pl:national","sort_rank":380,"kind_detail":"primary","source":"openstreetmap.org","min_zoom":8.0,"landuse_kind":"nature_reserve","shield_text":"35","ref":"35"},"arcs":[53]},{"type":"LineString","properties":{"kind":"major_road","name:en":"\u015aroda \u015al\u0105ska Highway Strip","network":"pl:national","sort_rank":380,"kind_detail":"primary","name:de":"Stra\u00dfenlandeabschnitt \u015aroda \u015al\u0105ska","source":"openstreetmap.org","min_zoom":8.0,"shield_text":"94","ref":"09\/27;94"},"arcs":[54]},{"type":"MultiLineString","properties":{"bus_network":null,"network":"pl:national","sort_rank":380,"kind_detail":"primary","kind":"major_road","source":"openstreetmap.org","min_zoom":8.0,"bus_shield_text":"8","shield_text":"35","landuse_kind":"urban_area"},"arcs":[[55],[56],[57],[58]]},{"type":"MultiLineString","properties":{"kind":"major_road","network":"pl:national","sort_rank":380,"kind_detail":"primary","source":"openstreetmap.org","min_zoom":8.0,"landuse_kind":"urban_area","shield_text":"35","ref":"35"},"arcs":[[59],[60],[61],[62],[63],[64],[65]]},{"type":"MultiLineString","properties":{"kind":"major_road","network":"pl:regional","sort_rank":379,"kind_detail":"secondary","is_bicycle_related":true,"bicycle_shield_text":"ORT","bicycle_network":"ncn","source":"openstreetmap.org","min_zoom":8.0,"shield_text":"341","ref":"341"},"arcs":[[66],[67],[68]]},{"type":"LineString","properties":{"kind":"major_road","sort_rank":377,"landuse_kind":"nature_reserve","is_bicycle_related":true,"bicycle_shield_text":"PL","bicycle_network":"ncn","source":"openstreetmap.org","min_zoom":8.0,"kind_detail":"tertiary","ref":"2507D"},"arcs":[69]},{"type":"LineString","properties":{"kind":"minor_road","service":"driveway","sort_rank":356,"kind_detail":"service","is_bicycle_related":true,"bicycle_shield_text":"ER-2","bicycle_network":"ncn","source":"openstreetmap.org","min_zoom":8.0,"id":542349769},"arcs":[70]},{"type":"LineString","properties":{"kind":"minor_road","sort_rank":360,"landuse_kind":"nature_reserve","is_bicycle_related":true,"bicycle_shield_text":"R9","bicycle_network":"ncn","source":"openstreetmap.org","min_zoom":8.0,"kind_detail":"unclassified"},"arcs":[71]},{"type":"LineString","properties":{"bus_network":"Wa\u0142brzych","network":"pl:national","sort_rank":380,"kind_detail":"primary","kind":"major_road","source":"openstreetmap.org","min_zoom":8.0,"bus_shield_text":"A","shield_text":"35","ref":"35"},"arcs":[72]},{"type":"LineString","properties":{"kind":"major_road","network":"pl:national","sort_rank":380,"kind_detail":"primary","is_bicycle_related":true,"bicycle_shield_text":null,"bicycle_network":"rcn","source":"openstreetmap.org","min_zoom":8.0,"shield_text":"94","ref":"94","id":291978721},"arcs":[73]},{"type":"MultiLineString","properties":{"kind":"major_road","network":"pl:national","sort_rank":380,"kind_detail":"primary","source":"openstreetmap.org","min_zoom":8.0,"landuse_kind":"nature_reserve","shield_text":"3","ref":"3"},"arcs":[[74],[75]]},{"type":"LineString","properties":{"kind":"major_road","network":"pl:regional","sort_rank":379,"kind_detail":"secondary","is_bicycle_related":true,"bicycle_shield_text":"PL","bicycle_network":"ncn","source":"openstreetmap.org","min_zoom":8.0,"shield_text":"364","ref":"364"},"arcs":[76]},{"type":"MultiLineString","properties":{"kind":"major_road","sort_rank":377,"kind_detail":"tertiary","is_bicycle_related":true,"bicycle_shield_text":"PL","bicycle_network":"ncn","source":"openstreetmap.org","min_zoom":8.0},"arcs":[[77],[78],[79],[80],[81]]},{"type":"MultiLineString","properties":{"kind":"minor_road","sort_rank":358,"kind_detail":"service","is_bicycle_related":true,"bicycle_shield_text":"ORT","bicycle_network":"ncn","source":"openstreetmap.org","min_zoom":8.0},"arcs":[[82],[83],[84],[85],[86],[87],[88],[89],[90],[91],[92]]},{"type":"LineString","properties":{"kind":"major_road","network":"pl:national","sort_rank":380,"kind_detail":"primary","source":"openstreetmap.org","min_zoom":8.0,"old_name":"Haynauer Stra\u00dfe","shield_text":"94","landuse_kind":"residential","ref":"94"},"arcs":[93]},{"type":"LineString","properties":{"kind":"minor_road","sort_rank":360,"kind_detail":"residential","is_bicycle_related":true,"bicycle_shield_text":"R9","bicycle_network":"ncn","source":"openstreetmap.org","min_zoom":8.0,"landuse_kind":"urban_area","name:de":"Sedanstra\u00dfe","id":204212601},"arcs":[94]},{"type":"MultiLineString","properties":{"bus_network":null,"network":"pl:national","sort_rank":380,"kind_detail":"primary","kind":"major_road","source":"openstreetmap.org","min_zoom":8.0,"bus_shield_text":"3","shield_text":"94","ref":"94"},"arcs":[[95],[96],[97],[98]]},{"type":"LineString","properties":{"kind":"minor_road","sort_rank":360,"kind_detail":"residential","is_bicycle_related":true,"bicycle_shield_text":"R9","bicycle_network":"ncn","source":"openstreetmap.org","min_zoom":8.0,"landuse_kind":"urban_area","name:de":"\u00c4u\u00dfere Kirchstra\u00dfe","id":44092351},"arcs":[99]},{"type":"MultiLineString","properties":{"sort_rank":380,"kind_detail":"primary","min_zoom":8.0,"kind":"major_road","source":"openstreetmap.org"},"arcs":[[100],[101],[102],[103],[104],[105]]},{"type":"LineString","properties":{"bus_network":"\u015awidnica","network":"pl:national","sort_rank":380,"kind_detail":"primary","kind":"major_road","source":"openstreetmap.org","min_zoom":8.0,"bus_shield_text":"50","shield_text":"35","landuse_kind":"urban_area","ref":"35;382"},"arcs":[106]},{"type":"LineString","properties":{"kind":"major_road","sort_rank":377,"kind_detail":"tertiary","is_bicycle_related":true,"bicycle_shield_text":"PL","bicycle_network":"ncn","source":"openstreetmap.org","min_zoom":8.0,"ref":"2507D","id":310314009},"arcs":[107]},{"type":"MultiLineString","properties":{"kind":"highway","network":"pl:national","sort_rank":383,"kind_detail":"motorway","source":"openstreetmap.org","min_zoom":8.0,"all_networks":["pl:national","e-road"],"shield_text":"18","ref":"A18","all_shield_texts":["18","36"]},"arcs":[[108],[109]]},{"type":"MultiLineString","properties":{"kind":"major_road","network":"pl:national","sort_rank":380,"kind_detail":"primary","source":"openstreetmap.org","min_zoom":8.0,"old_name":"Herzog-Heinrich-Stra\u00dfe","shield_text":"94","landuse_kind":"residential","ref":"94"},"arcs":[[110],[111],[112]]},{"type":"MultiLineString","properties":{"kind":"major_road","network":"pl:national","sort_rank":380,"kind_detail":"primary","is_bicycle_related":true,"bicycle_shield_text":null,"bicycle_network":"lcn","source":"openstreetmap.org","min_zoom":8.0,"shield_text":"3","ref":"3"},"arcs":[[113],[114]]},{"type":"LineString","properties":{"kind":"path","sort_rank":354,"kind_detail":"pedestrian","is_bicycle_related":true,"bicycle_shield_text":"R9","bicycle_network":"ncn","source":"openstreetmap.org","min_zoom":8.0,"landuse_kind":"urban_area","name:de":"Getreidemarkt","id":306030934},"arcs":[115]},{"type":"LineString","properties":{"source":"openstreetmap.org","kind":"major_road","network":"pl:national","sort_rank":380,"kind_detail":"primary","min_zoom":8.0,"shield_text":"35"},"arcs":[116]},{"type":"LineString","properties":{"bus_network":null,"network":"pl:national","sort_rank":380,"kind_detail":"primary","is_bicycle_related":true,"kind":"major_road","bicycle_shield_text":"ER-2","bicycle_network":"ncn","source":"openstreetmap.org","min_zoom":8.0,"bus_shield_text":"2","shield_text":"3","ref":"3","id":246111022},"arcs":[117]},{"type":"MultiLineString","properties":{"kind":"major_road","network":"pl:national","sort_rank":381,"kind_detail":"trunk","source":"openstreetmap.org","min_zoom":8.0,"shield_text":"18","ref":"A18"},"arcs":[[118],[119]]},{"type":"MultiLineString","properties":{"kind":"minor_road","sort_rank":360,"kind_detail":"residential","is_bicycle_related":true,"bicycle_shield_text":"ER-2","bicycle_network":"ncn","source":"openstreetmap.org","min_zoom":8.0},"arcs":[[120],[121],[122],[123],[124],[125],[126],[127]]},{"type":"LineString","properties":{"kind":"major_road","sort_rank":377,"kind_detail":"tertiary","is_bicycle_related":true,"bicycle_shield_text":"PL","bicycle_network":"ncn","source":"openstreetmap.org","min_zoom":8.0,"ref":"2535D"},"arcs":[128]},{"type":"MultiLineString","properties":{"kind":"highway","network":"pl:national","sort_rank":383,"kind_detail":"motorway","source":"openstreetmap.org","min_zoom":8.0,"all_networks":["pl:national","e-road","pl:motorways"],"shield_text":"18","ref":"A18","all_shield_texts":["18","36","18"]},"arcs":[[129],[130]]},{"type":"LineString","properties":{"kind":"path","sort_rank":354,"landuse_kind":"nature_reserve","is_bicycle_related":true,"bicycle_shield_text":"R9","bicycle_network":"ncn","source":"openstreetmap.org","min_zoom":8.0,"kind_detail":"track"},"arcs":[131]},{"type":"LineString","properties":{"kind":"path","sort_rank":354,"kind_detail":"track","is_bicycle_related":true,"bicycle_shield_text":"PL","bicycle_network":"ncn","source":"openstreetmap.org","min_zoom":8.0,"landuse_kind":"nature_reserve","id":172111413},"arcs":[132]},{"type":"LineString","properties":{"kind":"minor_road","sort_rank":360,"landuse_kind":"nature_reserve","is_bicycle_related":true,"bicycle_shield_text":"PL","bicycle_network":"ncn","source":"openstreetmap.org","min_zoom":8.0,"kind_detail":"residential"},"arcs":[133]},{"type":"LineString","properties":{"kind":"major_road","network":"pl:national","sort_rank":380,"kind_detail":"primary","bus_network":null,"source":"openstreetmap.org","min_zoom":8.0,"bus_shield_text":"8","shield_text":"35","landuse_kind":"nature_reserve","id":307649835},"arcs":[134]},{"type":"LineString","properties":{"kind":"major_road","network":"pl:national","sort_rank":380,"kind_detail":"primary","bus_network":"\u015awiebodzice","source":"openstreetmap.org","min_zoom":8.0,"bus_shield_text":"1","shield_text":"34","ref":"34","id":226848735},"arcs":[135]},{"type":"LineString","properties":{"kind":"major_road","network":"pl:national","sort_rank":380,"kind_detail":"primary","is_bicycle_related":true,"bicycle_shield_text":"ER-10","bicycle_network":"rcn","source":"openstreetmap.org","min_zoom":8.0,"shield_text":"30","ref":"30","id":444462337},"arcs":[136]},{"type":"LineString","properties":{"kind":"major_road","sort_rank":377,"kind_detail":"tertiary","is_bicycle_related":true,"bicycle_shield_text":"ORT","bicycle_network":"ncn","source":"openstreetmap.org","min_zoom":8.0,"ref":"1010D"},"arcs":[137]},{"type":"LineString","properties":{"bus_network":"\u015awidnica","network":"pl:national","sort_rank":380,"kind_detail":"primary","kind":"major_road","source":"openstreetmap.org","min_zoom":8.0,"bus_shield_text":"4","shield_text":"35","ref":"35"},"arcs":[138]},{"type":"MultiLineString","properties":{"bus_network":"Aglomeracja Wa\u0142brzyska","network":"pl:national","sort_rank":380,"kind_detail":"primary","kind":"major_road","source":"openstreetmap.org","min_zoom":8.0,"bus_shield_text":"30","shield_text":"35","landuse_kind":"nature_reserve","ref":"35"},"arcs":[[139],[140]]},{"type":"MultiLineString","properties":{"kind":"major_road","sort_rank":377,"kind_detail":"tertiary","is_bicycle_related":true,"bicycle_shield_text":"PL","bicycle_network":"ncn","source":"openstreetmap.org","min_zoom":8.0,"ref":"2520D"},"arcs":[[141],[142]]},{"type":"MultiLineString","properties":{"bus_network":"Wroc\u0142aw","sort_rank":377,"kind_detail":"tertiary","is_bicycle_related":true,"kind":"major_road","bicycle_shield_text":"ORT","bicycle_network":"ncn","source":"openstreetmap.org","min_zoom":8.0,"bus_shield_text":"137"},"arcs":[[143],[144]]},{"type":"LineString","properties":{"kind":"major_road","sort_rank":377,"landuse_kind":"nature_reserve","is_bicycle_related":true,"bicycle_shield_text":"PL","bicycle_network":"ncn","source":"openstreetmap.org","min_zoom":8.0,"kind_detail":"tertiary","ref":"0226 D"},"arcs":[145]},{"type":"MultiLineString","properties":{"kind":"path","sort_rank":354,"kind_detail":"track","is_bicycle_related":true,"bicycle_shield_text":"ER-2","bicycle_network":"ncn","source":"openstreetmap.org","min_zoom":8.0},"arcs":[[146],[147],[148],[149],[150],[151]]},{"type":"LineString","properties":{"kind":"major_road","network":"pl:national","sort_rank":380,"kind_detail":"primary","source":"openstreetmap.org","min_zoom":8.0,"shield_text":"3","ref":"3;94","id":183877004},"arcs":[152]},{"type":"LineString","properties":{"kind":"major_road","network":"pl:regional","sort_rank":379,"kind_detail":"secondary","is_bicycle_related":true,"bicycle_shield_text":"R9","bicycle_network":"ncn","source":"openstreetmap.org","min_zoom":8.0,"shield_text":"346","ref":"346","id":86255571},"arcs":[153]},{"type":"MultiLineString","properties":{"kind":"major_road","sort_rank":377,"kind_detail":"tertiary","is_bicycle_related":true,"bicycle_shield_text":"PL","bicycle_network":"ncn","source":"openstreetmap.org","min_zoom":8.0,"ref":"2509D"},"arcs":[[154],[155]]},{"type":"MultiLineString","properties":{"kind":"major_road","network":"pl:national","sort_rank":380,"kind_detail":"primary","source":"openstreetmap.org","min_zoom":8.0,"shield_text":"3","ref":"3"},"arcs":[[156],[157],[158],[159],[160],[161],[162],[163],[164],[165],[166],[167],[168],[169],[170],[171],[172],[173],[174],[175],[176],[177],[178],[179],[180],[181],[182],[183],[184],[185],[186],[187],[188],[189],[190],[191],[192],[193],[194],[195],[196],[197],[198],[199],[200],[201],[202],[203],[204],[205],[206],[207],[208],[209],[210],[211],[212],[213],[214],[215]]},{"type":"MultiLineString","properties":{"kind":"major_road","network":"pl:national","sort_rank":380,"kind_detail":"primary","source":"openstreetmap.org","min_zoom":8.0,"landuse_kind":"urban_area","shield_text":"35","ref":"35;382"},"arcs":[[216],[217],[218],[219],[220]]},{"type":"LineString","properties":{"bus_network":"Aglomeracja Wa\u0142brzyska","network":"pl:national","sort_rank":380,"kind_detail":"primary","kind":"major_road","source":"openstreetmap.org","min_zoom":8.0,"bus_shield_text":"31","shield_text":"35","ref":"35;382"},"arcs":[221]},{"type":"MultiLineString","properties":{"kind":"minor_road","sort_rank":360,"kind_detail":"residential","is_bicycle_related":true,"bicycle_shield_text":"R9","bicycle_network":"ncn","source":"openstreetmap.org","min_zoom":8.0},"arcs":[[222],[223],[224],[225],[226],[227],[228]]},{"type":"MultiLineString","properties":{"kind":"major_road","network":"pl:regional","sort_rank":379,"landuse_kind":"urban_area","is_bicycle_related":true,"bicycle_shield_text":"R9","bicycle_network":"ncn","source":"openstreetmap.org","min_zoom":8.0,"kind_detail":"secondary","shield_text":"382","ref":"382"},"arcs":[[229],[230],[231]]},{"type":"MultiLineString","properties":{"kind":"path","sort_rank":354,"kind_detail":"track","is_bicycle_related":true,"bicycle_shield_text":"R9","bicycle_network":"ncn","source":"openstreetmap.org","min_zoom":8.0},"arcs":[[232],[233]]},{"type":"LineString","properties":{"kind":"major_road","network":"pl:national","sort_rank":380,"kind_detail":"primary","bus_network":"Wroc\u0142aw","source":"openstreetmap.org","min_zoom":8.0,"bus_shield_text":"243","shield_text":"94","ref":"94","id":37982599},"arcs":[234]},{"type":"LineString","properties":{"bus_network":null,"network":"pl:national","sort_rank":380,"kind_detail":"primary","kind":"major_road","source":"openstreetmap.org","min_zoom":8.0,"bus_shield_text":"1","shield_text":"34","landuse_kind":"urban_area","ref":"34"},"arcs":[235]},{"type":"LineString","properties":{"bus_network":"\u015awidnica","network":"pl:national","sort_rank":380,"kind_detail":"primary","kind":"major_road","source":"openstreetmap.org","min_zoom":8.0,"bus_shield_text":"4","shield_text":"35","landuse_kind":"urban_area","ref":"35;382"},"arcs":[236]},{"type":"LineString","properties":{"kind":"major_road","network":"pl:national","sort_rank":380,"kind_detail":"primary","bus_network":"\u015awiebodzice","source":"openstreetmap.org","min_zoom":8.0,"bus_shield_text":"1","shield_text":"34","landuse_kind":"urban_area","ref":"34","id":179731405},"arcs":[237]},{"type":"LineString","properties":{"bus_network":null,"network":"pl:national","sort_rank":380,"kind_detail":"primary","kind":"major_road","source":"openstreetmap.org","min_zoom":8.0,"bus_shield_text":"1","shield_text":"34","ref":"34"},"arcs":[238]},{"type":"MultiLineString","properties":{"kind":"path","sort_rank":354,"kind_detail":"cycleway","is_bicycle_related":true,"bicycle_shield_text":"PL","bicycle_network":"ncn","source":"openstreetmap.org","min_zoom":8.0},"arcs":[[239],[240],[241]]},{"type":"LineString","properties":{"kind":"major_road","network":"pl:national","sort_rank":380,"kind_detail":"primary","is_bicycle_related":true,"bicycle_shield_text":null,"bicycle_network":"lcn","source":"openstreetmap.org","min_zoom":8.0,"shield_text":"36","ref":"36","id":360152057},"arcs":[242]},{"type":"MultiLineString","properties":{"bus_network":"Aglomeracja Wa\u0142brzyska","network":"pl:national","sort_rank":380,"kind_detail":"primary","kind":"major_road","source":"openstreetmap.org","min_zoom":8.0,"bus_shield_text":"30","shield_text":"35","landuse_kind":"urban_area","ref":"35"},"arcs":[[243],[244],[245]]},{"type":"LineString","properties":{"bus_network":"\u015awidnica","network":"pl:national","sort_rank":380,"kind_detail":"primary","kind":"major_road","source":"openstreetmap.org","min_zoom":8.0,"bus_shield_text":"41","shield_text":"35","ref":"35"},"arcs":[246]},{"type":"LineString","properties":{"kind":"major_road","network":"pl:national","sort_rank":380,"kind_detail":"primary","bus_network":"Aglomeracja Wa\u0142brzyska","source":"openstreetmap.org","min_zoom":8.0,"bus_shield_text":"30","shield_text":"34","landuse_kind":"nature_reserve","ref":"34","id":269895670},"arcs":[247]},{"type":"LineString","properties":{"kind":"major_road","network":"pl:expressways","sort_rank":380,"kind_detail":"primary","source":"openstreetmap.org","min_zoom":8.0,"shield_text":"3","ref":"3"},"arcs":[248]},{"type":"LineString","properties":{"kind":"major_road","network":"pl:national","sort_rank":380,"kind_detail":"primary","source":"openstreetmap.org","min_zoom":8.0,"shield_text":"94","ref":"94;328"},"arcs":[249]},{"type":"LineString","properties":{"bus_network":null,"network":"pl:national","sort_rank":380,"kind_detail":"primary","kind":"major_road","source":"openstreetmap.org","min_zoom":8.0,"bus_shield_text":"0","shield_text":"94","landuse_kind":"urban_area","ref":"94"},"arcs":[250]},{"type":"MultiLineString","properties":{"bus_network":"Jelenia G\u00f3ra","network":"pl:national","sort_rank":380,"kind_detail":"primary","kind":"major_road","source":"openstreetmap.org","min_zoom":8.0,"bus_shield_text":"2","shield_text":"3","ref":"3"},"arcs":[[251],[252],[253]]},{"type":"LineString","properties":{"bus_network":null,"sort_rank":380,"kind_detail":"primary","kind":"major_road","source":"openstreetmap.org","min_zoom":8.0,"bus_shield_text":"6","ref":"94"},"arcs":[254]},{"type":"LineString","properties":{"kind":"major_road","sort_rank":377,"kind_detail":"tertiary","is_bicycle_related":true,"bicycle_shield_text":"PL","bicycle_network":"ncn","source":"openstreetmap.org","min_zoom":8.0,"ref":"2494D","id":39534279},"arcs":[255]},{"type":"MultiLineString","properties":{"kind":"major_road","network":"pl:national","sort_rank":380,"kind_detail":"primary","is_bicycle_related":true,"bicycle_shield_text":"ER-6","bicycle_network":"rcn","source":"openstreetmap.org","min_zoom":8.0,"shield_text":"5","ref":"5;367"},"arcs":[[256],[257]]},{"type":"LineString","properties":{"bus_network":"Wroc\u0142aw","sort_rank":377,"kind_detail":"tertiary","is_bicycle_related":true,"kind":"major_road","bicycle_shield_text":"ORT","bicycle_network":"ncn","source":"openstreetmap.org","min_zoom":8.0,"bus_shield_text":"917"},"arcs":[258]},{"type":"MultiLineString","properties":{"kind":"major_road","sort_rank":377,"landuse_kind":"nature_reserve","is_bicycle_related":true,"bicycle_shield_text":"R9","bicycle_network":"ncn","source":"openstreetmap.org","min_zoom":8.0,"kind_detail":"tertiary"},"arcs":[[259],[260],[261],[262]]},{"type":"LineString","properties":{"kind":"major_road","network":"pl:national","sort_rank":380,"kind_detail":"primary","source":"openstreetmap.org","min_zoom":8.0,"old_name":"Carthausstra\u00dfe","shield_text":"94","landuse_kind":"residential","id":24542216},"arcs":[263]},{"type":"LineString","properties":{"kind":"major_road","network":"pl:regional","sort_rank":379,"kind_detail":"secondary","is_bicycle_related":true,"bicycle_shield_text":"PL","bicycle_network":"ncn","source":"openstreetmap.org","min_zoom":8.0,"shield_text":"297","ref":"297;364"},"arcs":[264]},{"type":"LineString","properties":{"kind":"minor_road","service":"driveway","sort_rank":356,"kind_detail":"service","is_bicycle_related":true,"bicycle_shield_text":"2","bicycle_network":"ncn","source":"openstreetmap.org","min_zoom":8.0,"landuse_kind":"national_park","id":39071269},"arcs":[265]},{"type":"LineString","properties":{"kind":"major_road","sort_rank":377,"kind_detail":"tertiary","is_bicycle_related":true,"bicycle_shield_text":"PL","bicycle_network":"ncn","source":"openstreetmap.org","min_zoom":8.0,"ref":"2774D","id":24442434},"arcs":[266]},{"type":"LineString","properties":{"kind":"path","sort_rank":354,"kind_detail":"pedestrian","is_bicycle_related":true,"bicycle_shield_text":"R9","bicycle_network":"ncn","source":"openstreetmap.org","min_zoom":8.0,"landuse_kind":"urban_area","name:de":"Buttermarkt","id":53207066},"arcs":[267]},{"type":"MultiLineString","properties":{"kind":"minor_road","sort_rank":360,"kind_detail":"unclassified","is_bicycle_related":true,"bicycle_shield_text":"ER-2","bicycle_network":"ncn","source":"openstreetmap.org","min_zoom":8.0},"arcs":[[268],[269],[270],[271],[272]]},{"type":"LineString","properties":{"kind":"minor_road","sort_rank":360,"kind_detail":"residential","is_bicycle_related":true,"bicycle_shield_text":"ORT","bicycle_network":"ncn","source":"openstreetmap.org","min_zoom":8.0,"old_name":"Marsza\u0142ka Micha\u0142a Roli-\u017bymierskiego","id":152662663},"arcs":[273]},{"type":"LineString","properties":{"kind":"major_road","sort_rank":377,"kind_detail":"tertiary","is_bicycle_related":true,"bicycle_shield_text":"PL","bicycle_network":"ncn","source":"openstreetmap.org","min_zoom":8.0,"ref":"2496D"},"arcs":[274]},{"type":"LineString","properties":{"kind":"major_road","network":"pl:regional","sort_rank":379,"kind_detail":"secondary","is_bicycle_related":true,"bicycle_shield_text":"R9","bicycle_network":"ncn","source":"openstreetmap.org","min_zoom":8.0,"landuse_kind":"nature_reserve","shield_text":"362","ref":"362","id":86255575},"arcs":[275]},{"type":"LineString","properties":{"kind":"path","sort_rank":354,"kind_detail":"pedestrian","is_bicycle_related":true,"bicycle_shield_text":"R9","bicycle_network":"ncn","source":"openstreetmap.org","min_zoom":8.0,"landuse_kind":"urban_area","id":50308366},"arcs":[276]},{"type":"LineString","properties":{"kind":"major_road","sort_rank":377,"kind_detail":"tertiary","is_bicycle_related":true,"bicycle_shield_text":"PL","bicycle_network":"ncn","source":"openstreetmap.org","min_zoom":8.0,"ref":"2541D","id":427664986},"arcs":[277]},{"type":"MultiLineString","properties":{"kind":"minor_road","sort_rank":360,"landuse_kind":"nature_reserve","is_bicycle_related":true,"bicycle_shield_text":"R9","bicycle_network":"ncn","source":"openstreetmap.org","min_zoom":8.0,"kind_detail":"residential"},"arcs":[[278],[279]]},{"type":"LineString","properties":{"kind":"minor_road","sort_rank":360,"kind_detail":"residential","is_bicycle_related":true,"bicycle_shield_text":"R9","bicycle_network":"ncn","source":"openstreetmap.org","min_zoom":8.0,"landuse_kind":"urban_area","name:de":"Gartenstra\u00dfe","id":39472641},"arcs":[280]},{"type":"MultiLineString","properties":{"source":"openstreetmap.org","kind":"major_road","network":"pl:national","sort_rank":380,"kind_detail":"primary","min_zoom":8.0,"shield_text":"5"},"arcs":[[281],[282]]},{"type":"LineString","properties":{"kind":"minor_road","sort_rank":360,"kind_detail":"unclassified","is_bicycle_related":true,"bicycle_shield_text":"PL","bicycle_network":"ncn","source":"openstreetmap.org","min_zoom":8.0,"landuse_kind":"nature_reserve","id":427664944},"arcs":[283]},{"type":"LineString","properties":{"kind":"major_road","network":"pl:national","sort_rank":380,"kind_detail":"primary","source":"openstreetmap.org","min_zoom":8.0,"old_name":"Poststra\u00dfe","shield_text":"94","landuse_kind":"residential","ref":"94"},"arcs":[284]},{"type":"LineString","properties":{"kind":"major_road","sort_rank":377,"landuse_kind":"nature_reserve","is_bicycle_related":true,"bicycle_shield_text":"PL","bicycle_network":"ncn","source":"openstreetmap.org","min_zoom":8.0,"kind_detail":"tertiary","ref":"2491D"},"arcs":[285]},{"type":"LineString","properties":{"bus_network":"Jelenia G\u00f3ra","network":"pl:national","sort_rank":380,"kind_detail":"primary","kind":"major_road","source":"openstreetmap.org","min_zoom":8.0,"bus_shield_text":"3","shield_text":"3","landuse_kind":"urban_area","ref":"3"},"arcs":[286]},{"type":"MultiLineString","properties":{"kind":"major_road","network":"pl:national","sort_rank":380,"kind_detail":"primary","source":"openstreetmap.org","min_zoom":8.0,"landuse_kind":"residential","shield_text":"3","ref":"3;363"},"arcs":[[287],[288]]},{"type":"LineString","properties":{"kind":"major_road","network":"pl:national","sort_rank":380,"kind_detail":"primary","source":"openstreetmap.org","min_zoom":8.0,"shield_text":"5","ref":"5;374","id":19114177},"arcs":[289]},{"type":"LineString","properties":{"kind":"minor_road","sort_rank":360,"kind_detail":"residential","is_bicycle_related":true,"bicycle_shield_text":"R9","bicycle_network":"ncn","source":"openstreetmap.org","min_zoom":8.0,"landuse_kind":"urban_area","name:de":"Kroischstra\u00dfe","id":43936133},"arcs":[290]},{"type":"LineString","properties":{"kind":"minor_road","sort_rank":360,"kind_detail":"residential","is_bicycle_related":true,"bicycle_shield_text":"R9","bicycle_network":"ncn","source":"openstreetmap.org","min_zoom":8.0,"landuse_kind":"urban_area","name:de":"Angerstra\u00dfe","id":494826360},"arcs":[291]},{"type":"LineString","properties":{"bus_network":"Wroc\u0142aw","network":"pl:national","sort_rank":380,"kind_detail":"primary","is_bicycle_related":true,"kind":"major_road","bicycle_shield_text":"ORT","bicycle_network":"ncn","source":"openstreetmap.org","min_zoom":8.0,"bus_shield_text":"117","shield_text":"94","ref":"94","id":187990121},"arcs":[292]},{"type":"LineString","properties":{"kind":"path","sort_rank":354,"landuse_kind":"urban_area","is_bicycle_related":true,"bicycle_shield_text":"ORT","bicycle_network":"ncn","source":"openstreetmap.org","min_zoom":8.0,"kind_detail":"footway"},"arcs":[293]},{"type":"MultiLineString","properties":{"kind":"path","sort_rank":354,"kind_detail":"footway","is_bicycle_related":true,"bicycle_shield_text":"ORT","bicycle_network":"ncn","source":"openstreetmap.org","min_zoom":8.0},"arcs":[[294],[295]]},{"type":"MultiLineString","properties":{"kind":"major_road","network":"pl:national","sort_rank":380,"kind_detail":"primary","source":"openstreetmap.org","min_zoom":8.0,"landuse_kind":"urban_area","shield_text":"94","ref":"94"},"arcs":[[296],[297],[298],[299],[300],[301],[302],[303]]},{"type":"LineString","properties":{"kind":"minor_road","sort_rank":360,"kind_detail":"residential","is_bicycle_related":true,"bicycle_shield_text":"R9","bicycle_network":"ncn","source":"openstreetmap.org","min_zoom":8.0,"landuse_kind":"urban_area","name:de":"Untere Bolkostra\u00dfe","id":20567783},"arcs":[304]},{"type":"MultiLineString","properties":{"bus_network":null,"network":"pl:national","sort_rank":380,"kind_detail":"primary","kind":"major_road","source":"openstreetmap.org","min_zoom":8.0,"bus_shield_text":"8","shield_text":"35","landuse_kind":"urban_area","ref":"35"},"arcs":[[305],[306],[307],[308],[309]]},{"type":"LineString","properties":{"kind":"major_road","sort_rank":377,"landuse_kind":"nature_reserve","is_bicycle_related":true,"bicycle_shield_text":"PL","bicycle_network":"ncn","source":"openstreetmap.org","min_zoom":8.0,"kind_detail":"tertiary","ref":"2528D"},"arcs":[310]},{"type":"MultiLineString","properties":{"kind":"major_road","network":"pl:national","sort_rank":380,"kind_detail":"primary","source":"openstreetmap.org","min_zoom":8.0,"shield_text":"30","ref":"30"},"arcs":[[311],[312],[313],[314],[315],[316],[317],[318],[319],[320]]},{"type":"MultiLineString","properties":{"bus_network":null,"network":"pl:national","sort_rank":380,"kind_detail":"primary","kind":"major_road","source":"openstreetmap.org","min_zoom":8.0,"bus_shield_text":"2 bis","shield_text":"94","ref":"94"},"arcs":[[321],[322],[323]]},{"type":"LineString","properties":{"kind":"major_road","network":"pl:national","sort_rank":380,"kind_detail":"primary","source":"openstreetmap.org","min_zoom":8.0,"shield_text":"3","ref":"3;12","id":387731998},"arcs":[324]},{"type":"LineString","properties":{"kind":"major_road","network":"pl:national","sort_rank":380,"kind_detail":"primary","is_bicycle_related":true,"bicycle_shield_text":"ER-2","bicycle_network":"ncn","source":"openstreetmap.org","min_zoom":8.0,"shield_text":"3","ref":"3"},"arcs":[325]},{"type":"MultiLineString","properties":{"bus_network":null,"network":"pl:national","sort_rank":380,"kind_detail":"primary","kind":"major_road","source":"openstreetmap.org","min_zoom":8.0,"bus_shield_text":"2","shield_text":"94","ref":"94"},"arcs":[[326],[327],[328],[329],[330],[331],[332],[333],[334],[335],[336],[337],[338],[339],[340]]},{"type":"LineString","properties":{"kind":"major_road","network":"pl:regional","sort_rank":379,"kind_detail":"secondary","is_bicycle_related":true,"bicycle_shield_text":"R9","bicycle_network":"ncn","source":"openstreetmap.org","min_zoom":8.0,"shield_text":"362","ref":"362"},"arcs":[341]},{"type":"MultiLineString","properties":{"kind":"major_road","network":"e-road","sort_rank":380,"kind_detail":"primary","source":"openstreetmap.org","min_zoom":8.0,"shield_text":"67","ref":"8"},"arcs":[[342],[343],[344]]},{"type":"MultiLineString","properties":{"kind":"highway","network":"pl:national","sort_rank":383,"kind_detail":"motorway","source":"openstreetmap.org","min_zoom":8.0,"all_networks":["pl:national","pl:national","e-road","pl:motorways"],"shield_text":"4","ref":"A4;5","all_shield_texts":["4","5","40","4"]},"arcs":[[345],[346],[347],[348]]},{"type":"LineString","properties":{"kind":"major_road","sort_rank":377,"kind_detail":"tertiary","is_bicycle_related":true,"bicycle_shield_text":"PL","bicycle_network":"ncn","source":"openstreetmap.org","min_zoom":8.0,"landuse_kind":"nature_reserve","ref":"2509D","id":172020473},"arcs":[349]},{"type":"LineString","properties":{"kind":"major_road","network":"pl:national","sort_rank":380,"kind_detail":"primary","source":"openstreetmap.org","min_zoom":8.0,"shield_text":"94","ref":"09\/27;94","id":348495731},"arcs":[350]},{"type":"LineString","properties":{"bus_network":null,"network":"pl:national","sort_rank":380,"kind_detail":"primary","is_bicycle_related":true,"kind":"major_road","bicycle_shield_text":"4","bicycle_network":null,"source":"openstreetmap.org","min_zoom":8.0,"bus_shield_text":"2","shield_text":"3","ref":"3","id":200814832},"arcs":[351]},{"type":"LineString","properties":{"bus_network":"\u015awidnica","bicycle_shield_text":"R9","min_zoom":8.0,"bus_shield_text":"2","name:de":"Wilhelmplatz","id":101772161,"kind":"major_road","network":"pl:regional","sort_rank":379,"landuse_kind":"urban_area","is_bicycle_related":true,"bicycle_network":"ncn","source":"openstreetmap.org","kind_detail":"secondary","shield_text":"379","ref":"379"},"arcs":[352]},{"type":"MultiLineString","properties":{"bus_network":"Wa\u0142brzych","network":"pl:national","sort_rank":380,"kind_detail":"primary","kind":"major_road","source":"openstreetmap.org","min_zoom":8.0,"bus_shield_text":"A","shield_text":"35","landuse_kind":"urban_area","ref":"35"},"arcs":[[353],[354]]},{"type":"MultiLineString","properties":{"kind":"major_road","network":"pl:national","sort_rank":380,"kind_detail":"primary","source":"openstreetmap.org","min_zoom":8.0,"shield_text":"12","ref":"12"},"arcs":[[355],[356],[357],[358],[359],[360],[361],[362],[363]]},{"type":"MultiLineString","properties":{"kind":"major_road","network":"pl:regional","sort_rank":379,"kind_detail":"secondary","is_bicycle_related":true,"bicycle_shield_text":"ORT","bicycle_network":"ncn","source":"openstreetmap.org","min_zoom":8.0,"shield_text":"292","ref":"292"},"arcs":[[364],[365],[366]]},{"type":"MultiLineString","properties":{"kind":"major_road","network":"pl:national","short_name":"KEN","sort_rank":380,"kind_detail":"primary","source":"openstreetmap.org","min_zoom":8.0,"landuse_kind":"urban_area","shield_text":"3","ref":"3"},"arcs":[[367],[368]]},{"type":"MultiLineString","properties":{"kind":"major_road","network":"pl:regional","sort_rank":379,"kind_detail":"secondary","is_bicycle_related":true,"bicycle_shield_text":"ORT","bicycle_network":"ncn","source":"openstreetmap.org","min_zoom":8.0,"shield_text":"334","ref":"334"},"arcs":[[369],[370]]},{"type":"LineString","properties":{"kind":"major_road","sort_rank":377,"kind_detail":"tertiary","is_bicycle_related":true,"bicycle_shield_text":"PL","bicycle_network":"ncn","source":"openstreetmap.org","min_zoom":8.0,"ref":"0226 D"},"arcs":[371]},{"type":"LineString","properties":{"kind":"minor_road","sort_rank":360,"kind_detail":"residential","is_bicycle_related":true,"bicycle_shield_text":"R9","bicycle_network":"ncn","source":"openstreetmap.org","min_zoom":8.0,"landuse_kind":"urban_area","name:de":"Peterstra\u00dfe","id":45405700},"arcs":[372]},{"type":"MultiLineString","properties":{"kind":"major_road","sort_rank":377,"kind_detail":"tertiary","is_bicycle_related":true,"bicycle_shield_text":"PL","bicycle_network":"ncn","source":"openstreetmap.org","min_zoom":8.0,"ref":"2515D"},"arcs":[[373],[374],[375]]},{"type":"LineString","properties":{"kind":"path","sort_rank":354,"landuse_kind":"urban_area","is_bicycle_related":true,"bicycle_shield_text":"R9","bicycle_network":"ncn","source":"openstreetmap.org","min_zoom":8.0,"kind_detail":"footway"},"arcs":[376]},{"type":"LineString","properties":{"bus_network":"Wroc\u0142aw","network":"pl:national","sort_rank":380,"kind_detail":"primary","kind":"major_road","source":"openstreetmap.org","min_zoom":8.0,"bus_shield_text":"138","shield_text":"94","ref":"94"},"arcs":[377]},{"type":"MultiLineString","properties":{"kind":"minor_road","sort_rank":360,"kind_detail":"residential","is_bicycle_related":true,"bicycle_shield_text":"ORT","bicycle_network":"ncn","source":"openstreetmap.org","min_zoom":8.0},"arcs":[[378],[379],[380],[381],[382],[383],[384],[385],[386],[387],[388],[389],[390]]},{"type":"LineString","properties":{"kind":"major_road","sort_rank":377,"kind_detail":"tertiary","is_bicycle_related":true,"bicycle_shield_text":"R9","bicycle_network":"ncn","source":"openstreetmap.org","min_zoom":8.0,"ref":"2877D"},"arcs":[391]},{"type":"MultiLineString","properties":{"kind":"major_road","network":"pl:national","sort_rank":380,"kind_detail":"primary","source":"openstreetmap.org","min_zoom":8.0,"landuse_kind":"urban_area","shield_text":"3","ref":"3;36"},"arcs":[[392],[393]]},{"type":"MultiLineString","properties":{"kind":"highway","network":"pl:national","sort_rank":383,"kind_detail":"motorway","source":"openstreetmap.org","min_zoom":8.0,"all_networks":["pl:national","e-road","pl:motorways"],"shield_text":"4","ref":"A4","all_shield_texts":["4","40","4"]},"arcs":[[394],[395],[396],[397],[398],[399],[400],[401],[402],[403]]},{"type":"MultiLineString","properties":{"kind":"path","sort_rank":354,"kind_detail":"path","is_bicycle_related":true,"bicycle_shield_text":"ORT","bicycle_network":"ncn","source":"openstreetmap.org","min_zoom":8.0},"arcs":[[404],[405],[406],[407],[408]]},{"type":"LineString","properties":{"bus_network":null,"network":"pl:national","sort_rank":380,"kind_detail":"primary","kind":"major_road","source":"openstreetmap.org","min_zoom":8.0,"bus_shield_text":"2","shield_text":"35","landuse_kind":"urban_area","ref":"35"},"arcs":[409]},{"type":"LineString","properties":{"kind":"major_road","sort_rank":379,"kind_detail":"secondary","is_bicycle_related":true,"bicycle_shield_text":"2","bicycle_network":"ncn","source":"openstreetmap.org","min_zoom":8.0,"landuse_kind":"national_park","id":44529262},"arcs":[410]},{"type":"MultiLineString","properties":{"kind":"minor_road","sort_rank":360,"kind_detail":"unclassified","is_bicycle_related":true,"bicycle_shield_text":"ORT","bicycle_network":"ncn","source":"openstreetmap.org","min_zoom":8.0},"arcs":[[411],[412],[413],[414],[415],[416],[417],[418],[419],[420]]},{"type":"LineString","properties":{"kind":"major_road","sort_rank":377,"kind_detail":"tertiary","is_bicycle_related":true,"bicycle_shield_text":"PL","bicycle_network":"ncn","source":"openstreetmap.org","min_zoom":8.0,"ref":"2528D","id":172011582},"arcs":[421]},{"type":"MultiLineString","properties":{"bus_network":"Aglomeracja Wa\u0142brzyska","network":"pl:national","sort_rank":380,"kind_detail":"primary","kind":"major_road","source":"openstreetmap.org","min_zoom":8.0,"bus_shield_text":"31","shield_text":"35","ref":"35"},"arcs":[[422],[423],[424]]},{"type":"MultiLineString","properties":{"bus_network":"Aglomeracja Wa\u0142brzyska","network":"pl:national","sort_rank":380,"kind_detail":"primary","kind":"major_road","source":"openstreetmap.org","min_zoom":8.0,"bus_shield_text":"30","shield_text":"34","landuse_kind":"urban_area","ref":"34"},"arcs":[[425],[426],[427],[428],[429],[430],[431]]},{"type":"LineString","properties":{"kind":"path","sort_rank":354,"kind_detail":"footway","is_bicycle_related":true,"bicycle_shield_text":"PL","bicycle_network":"ncn","source":"openstreetmap.org","min_zoom":8.0},"arcs":[432]},{"type":"MultiLineString","properties":{"kind":"major_road","network":"pl:national","sort_rank":380,"kind_detail":"primary","source":"openstreetmap.org","min_zoom":8.0,"shield_text":"36","ref":"36"},"arcs":[[433],[434],[435],[436],[437],[438],[439],[440],[441],[442],[443],[444],[445],[446],[447],[448],[449],[450],[451],[452],[453],[454],[455]]},{"type":"LineString","properties":{"kind":"major_road","network":"pl:national","sort_rank":380,"kind_detail":"primary","source":"openstreetmap.org","min_zoom":8.0,"landuse_kind":"nature_reserve","shield_text":"12","ref":"12;328"},"arcs":[456]},{"type":"MultiLineString","properties":{"kind":"minor_road","sort_rank":360,"kind_detail":"residential","is_bicycle_related":true,"bicycle_shield_text":"PL","bicycle_network":"ncn","source":"openstreetmap.org","min_zoom":8.0},"arcs":[[457],[458],[459]]},{"type":"MultiLineString","properties":{"kind":"major_road","sort_rank":377,"landuse_kind":"nature_reserve","is_bicycle_related":true,"bicycle_shield_text":"PL","bicycle_network":"ncn","source":"openstreetmap.org","min_zoom":8.0,"kind_detail":"tertiary","ref":"2520D"},"arcs":[[460],[461]]},{"type":"MultiLineString","properties":{"kind":"major_road","network":"pl:national","sort_rank":380,"kind_detail":"primary","source":"openstreetmap.org","min_zoom":8.0,"shield_text":"5","ref":"5"},"arcs":[[462],[463],[464],[465],[466],[467],[468],[469],[470],[471],[472],[473],[474],[475],[476],[477],[478],[479]]},{"type":"MultiLineString","properties":{"kind":"major_road","network":"pl:national","sort_rank":380,"kind_detail":"primary","source":"openstreetmap.org","min_zoom":8.0,"shield_text":"94","ref":"94"},"arcs":[[480],[481],[482],[483],[484],[485],[486],[487],[488],[489],[490],[491],[492],[493],[494],[495],[496],[497],[498],[499],[500],[501],[502],[503],[504],[505],[506],[507],[508],[509],[510],[511]]},{"type":"LineString","properties":{"kind":"major_road","network":"pl:national","sort_rank":380,"kind_detail":"primary","source":"openstreetmap.org","min_zoom":8.0,"landuse_kind":"urban_area","shield_text":"94","ref":"94;297","id":485494770},"arcs":[512]},{"type":"LineString","properties":{"kind":"major_road","network":"pl:national","sort_rank":380,"kind_detail":"primary","source":"openstreetmap.org","min_zoom":8.0,"shield_text":"3","ref":"3;328"},"arcs":[513]},{"type":"MultiLineString","properties":{"kind":"major_road","network":"pl:national","sort_rank":380,"kind_detail":"primary","source":"openstreetmap.org","min_zoom":8.0,"landuse_kind":"nature_reserve","shield_text":"12","ref":"12"},"arcs":[[514],[515]]},{"type":"LineString","properties":{"kind":"major_road","sort_rank":377,"kind_detail":"tertiary","is_bicycle_related":true,"bus_network":"\u015awidnica","bicycle_shield_text":"R9","bicycle_network":"ncn","source":"openstreetmap.org","min_zoom":8.0,"bus_shield_text":"50","id":33137651},"arcs":[516]},{"type":"MultiLineString","properties":{"kind":"major_road","network":"pl:national","sort_rank":380,"kind_detail":"primary","source":"openstreetmap.org","min_zoom":8.0,"landuse_kind":"urban_area","shield_text":"36","ref":"36"},"arcs":[[517],[518],[519]]},{"type":"LineString","properties":{"kind":"major_road","network":"pl:national","sort_rank":380,"kind_detail":"primary","is_bicycle_related":true,"bicycle_shield_text":"ORT","bicycle_network":"ncn","source":"openstreetmap.org","min_zoom":8.0,"shield_text":"36","ref":"36;292","id":152662589},"arcs":[520]},{"type":"MultiLineString","properties":{"kind":"major_road","sort_rank":377,"landuse_kind":"nature_reserve","is_bicycle_related":true,"bicycle_shield_text":"PL","bicycle_network":"ncn","source":"openstreetmap.org","min_zoom":8.0,"kind_detail":"tertiary"},"arcs":[[521],[522],[523]]},{"type":"LineString","properties":{"kind":"minor_road","sort_rank":360,"kind_detail":"residential","is_bicycle_related":true,"bicycle_shield_text":"R9","bicycle_network":"ncn","source":"openstreetmap.org","min_zoom":8.0,"landuse_kind":"urban_area","name:de":"Schlachthofstra\u00dfe","id":36000168},"arcs":[524]},{"type":"MultiLineString","properties":{"kind":"major_road","network":"pl:national","sort_rank":380,"kind_detail":"primary","source":"openstreetmap.org","min_zoom":8.0,"landuse_kind":"residential","shield_text":"94","ref":"94"},"arcs":[[525],[526],[527]]},{"type":"LineString","properties":{"bus_network":"Wa\u0142brzych","network":"pl:national","sort_rank":380,"kind_detail":"primary","kind":"major_road","source":"openstreetmap.org","min_zoom":8.0,"bus_shield_text":"12","shield_text":"35","ref":"35"},"arcs":[528]},{"type":"MultiLineString","properties":{"kind":"major_road","network":"pl:national","sort_rank":380,"kind_detail":"primary","source":"openstreetmap.org","min_zoom":8.0,"landuse_kind":"urban_area","shield_text":"3","ref":"3"},"arcs":[[529],[530],[531],[532],[533],[534],[535],[536],[537],[538],[539],[540],[541],[542],[543],[544],[545],[546],[547],[548],[549]]},{"type":"LineString","properties":{"kind":"path","sort_rank":354,"kind_detail":"footway","is_bicycle_related":true,"bicycle_shield_text":"ER-2","bicycle_network":"ncn","source":"openstreetmap.org","min_zoom":8.0,"id":246111019},"arcs":[550]},{"type":"LineString","properties":{"bus_network":"\u015awidnica","bicycle_shield_text":"R9","min_zoom":8.0,"bus_shield_text":"10","name:de":"Waldenburger Stra\u00dfe","id":53207067,"kind":"major_road","network":"pl:regional","sort_rank":379,"landuse_kind":"urban_area","is_bicycle_related":true,"bicycle_network":"ncn","source":"openstreetmap.org","kind_detail":"secondary","shield_text":"379","ref":"379"},"arcs":[551]},{"type":"MultiLineString","properties":{"kind":"major_road","network":"pl:regional","sort_rank":377,"kind_detail":"tertiary","is_bicycle_related":true,"bicycle_shield_text":"ORT","bicycle_network":"ncn","source":"openstreetmap.org","min_zoom":8.0,"shield_text":"330","ref":"330"},"arcs":[[552],[553]]},{"type":"LineString","properties":{"kind":"minor_road","sort_rank":358,"kind_detail":"service","is_bicycle_related":true,"bicycle_shield_text":"PL","bicycle_network":"ncn","source":"openstreetmap.org","min_zoom":8.0,"id":289082154},"arcs":[554]},{"type":"MultiLineString","properties":{"kind":"major_road","network":"pl:national","sort_rank":380,"kind_detail":"primary","bicycle_shield_text":null,"bicycle_network":"lwn","source":"openstreetmap.org","min_zoom":8.0,"shield_text":"3","ref":"3"},"arcs":[[555],[556],[557]]},{"type":"LineString","properties":{"kind":"path","sort_rank":354,"kind_detail":"cycleway","is_bicycle_related":true,"bicycle_shield_text":"PL","cycleway":"crossing","source":"openstreetmap.org","min_zoom":8.0,"bicycle_network":"ncn","id":488670967},"arcs":[558]},{"type":"MultiLineString","properties":{"kind":"major_road","network":"cz:regional","sort_rank":379,"landuse_kind":"national_park","is_bicycle_related":true,"bicycle_shield_text":"2","bicycle_network":"ncn","source":"openstreetmap.org","min_zoom":8.0,"kind_detail":"secondary","shield_text":"286","ref":"286"},"arcs":[[559],[560]]},{"type":"MultiLineString","properties":{"bus_network":"Wroc\u0142aw","network":"pl:national","sort_rank":380,"kind_detail":"primary","kind":"major_road","source":"openstreetmap.org","min_zoom":8.0,"bus_shield_text":"117","shield_text":"94","ref":"94"},"arcs":[[561],[562]]},{"type":"LineString","properties":{"kind":"major_road","sort_rank":377,"kind_detail":"tertiary","is_bicycle_related":true,"bicycle_shield_text":"ORT","bicycle_network":"ncn","source":"openstreetmap.org","min_zoom":8.0,"ref":"1237D","id":100482718},"arcs":[563]},{"type":"MultiLineString","properties":{"kind":"minor_road","sort_rank":360,"kind_detail":"residential","is_bicycle_related":true,"bicycle_shield_text":"R9","bicycle_network":"ncn","source":"openstreetmap.org","min_zoom":8.0,"landuse_kind":"urban_area"},"arcs":[[564],[565],[566]]},{"type":"LineString","properties":{"kind":"major_road","network":"pl:national","sort_rank":380,"kind_detail":"primary","is_bicycle_related":true,"bicycle_shield_text":"K1","bicycle_network":"rcn","source":"openstreetmap.org","min_zoom":8.0,"shield_text":"3","ref":"3","id":292085900},"arcs":[567]},{"type":"MultiLineString","properties":{"kind":"major_road","network":"pl:national","sort_rank":380,"kind_detail":"primary","source":"openstreetmap.org","min_zoom":8.0,"shield_text":"36","ref":"36;292"},"arcs":[[568],[569]]},{"type":"LineString","properties":{"kind":"major_road","network":"pl:national","sort_rank":380,"kind_detail":"primary","source":"openstreetmap.org","min_zoom":8.0,"landuse_kind":"urban_area","shield_text":"3","id":282460740},"arcs":[570]},{"type":"MultiLineString","properties":{"kind":"major_road","network":"pl:national","sort_rank":380,"kind_detail":"primary","source":"openstreetmap.org","min_zoom":8.0,"shield_text":"35","ref":"35"},"arcs":[[571],[572],[573],[574],[575]]},{"type":"LineString","properties":{"kind":"major_road","network":"pl:regional","sort_rank":379,"kind_detail":"secondary","is_bicycle_related":true,"bicycle_shield_text":"ORT","bicycle_network":"ncn","source":"openstreetmap.org","min_zoom":8.0,"shield_text":"338","ref":"338"},"arcs":[576]},{"type":"LineString","properties":{"bus_network":"\u015awidnica","sort_rank":377,"landuse_kind":"urban_area","is_bicycle_related":true,"kind":"major_road","bicycle_shield_text":"R9","name:de":"Adolf-Freudenberg-Stra\u00dfe","source":"openstreetmap.org","min_zoom":8.0,"bus_shield_text":"50","kind_detail":"tertiary","bicycle_network":"ncn"},"arcs":[577]},{"type":"LineString","properties":{"kind":"major_road","sort_rank":380,"kind_detail":"primary","bus_network":"Wroc\u0142aw","source":"openstreetmap.org","min_zoom":8.0,"bus_shield_text":"138","ref":"94","id":306798370},"arcs":[578]},{"type":"MultiLineString","properties":{"bus_network":"Aglomeracja Wa\u0142brzyska","network":"pl:national","sort_rank":380,"kind_detail":"primary","kind":"major_road","source":"openstreetmap.org","min_zoom":8.0,"bus_shield_text":"31","shield_text":"35","landuse_kind":"urban_area","ref":"35;382"},"arcs":[[579],[580],[581],[582],[583],[584],[585],[586],[587],[588],[589],[590],[591],[592]]},{"type":"LineString","properties":{"bus_network":"Wroc\u0142aw","sort_rank":377,"kind_detail":"tertiary","is_bicycle_related":true,"kind":"major_road","bicycle_shield_text":"ORT","bicycle_network":"ncn","source":"openstreetmap.org","min_zoom":8.0,"bus_shield_text":"123"},"arcs":[593]},{"type":"MultiLineString","properties":{"kind":"major_road","network":"pl:national","sort_rank":381,"kind_detail":"trunk","source":"openstreetmap.org","min_zoom":8.0,"shield_text":"5","ref":"S5"},"arcs":[[594],[595]]},{"type":"LineString","properties":{"kind":"major_road","network":"pl:national","sort_rank":380,"kind_detail":"primary","bus_network":"Aglomeracja Wa\u0142brzyska","source":"openstreetmap.org","min_zoom":8.0,"bus_shield_text":"30","shield_text":"35","landuse_kind":"urban_area","id":350260844},"arcs":[596]},{"type":"LineString","properties":{"kind":"path","sort_rank":354,"landuse_kind":"national_park","is_bicycle_related":true,"bicycle_shield_text":"ER-2","bicycle_network":"ncn","source":"openstreetmap.org","min_zoom":8.0,"kind_detail":"track"},"arcs":[597]},{"type":"LineString","properties":{"kind":"major_road","network":"pl:national","sort_rank":380,"kind_detail":"primary","source":"openstreetmap.org","min_zoom":8.0,"shield_text":"36","ref":"36;334"},"arcs":[598]},{"type":"MultiLineString","properties":{"kind":"major_road","network":"pl:national","sort_rank":380,"kind_detail":"primary","source":"openstreetmap.org","min_zoom":8.0,"landuse_kind":"nature_reserve","shield_text":"30","ref":"30"},"arcs":[[599],[600],[601],[602],[603],[604],[605]]},{"type":"LineString","properties":{"kind":"major_road","sort_rank":377,"kind_detail":"tertiary","is_bicycle_related":true,"bicycle_shield_text":"PL","bicycle_network":"ncn","source":"openstreetmap.org","min_zoom":8.0,"ref":"2516D"},"arcs":[606]},{"type":"LineString","properties":{"kind":"path","sort_rank":354,"landuse_kind":"urban_area","is_bicycle_related":true,"bicycle_shield_text":"ORT","bicycle_network":"ncn","source":"openstreetmap.org","min_zoom":8.0,"kind_detail":"path"},"arcs":[607]},{"type":"LineString","properties":{"bus_network":"\u015awidnica","sort_rank":377,"landuse_kind":"urban_area","is_bicycle_related":true,"kind":"major_road","bicycle_shield_text":"R9","bicycle_network":"ncn","source":"openstreetmap.org","min_zoom":8.0,"bus_shield_text":"50","kind_detail":"tertiary","name:de":"Feldstra\u00dfe"},"arcs":[608]},{"type":"LineString","properties":{"kind":"minor_road","sort_rank":360,"kind_detail":"residential","is_bicycle_related":true,"bicycle_shield_text":"ORT","bicycle_network":"ncn","source":"openstreetmap.org","min_zoom":8.0,"landuse_kind":"nature_reserve","id":360792507},"arcs":[609]},{"type":"MultiLineString","properties":{"bus_network":null,"network":"pl:national","sort_rank":380,"kind_detail":"primary","kind":"major_road","source":"openstreetmap.org","min_zoom":8.0,"bus_shield_text":"9","shield_text":"35","landuse_kind":"urban_area","ref":"35"},"arcs":[[610],[611]]},{"type":"LineString","properties":{"kind":"major_road","network":"pl:regional","sort_rank":379,"kind_detail":"secondary","is_bicycle_related":true,"bicycle_shield_text":"ORT","bicycle_network":"ncn","source":"openstreetmap.org","min_zoom":8.0,"shield_text":"340","ref":"340","id":192933647},"arcs":[612]},{"type":"MultiLineString","properties":{"kind":"major_road","network":"pl:national","sort_rank":380,"kind_detail":"primary","is_bicycle_related":true,"bicycle_shield_text":null,"bicycle_network":"rcn","source":"openstreetmap.org","min_zoom":8.0,"shield_text":"36","ref":"36"},"arcs":[[613],[614]]},{"type":"MultiLineString","properties":{"bus_network":null,"network":"pl:national","sort_rank":380,"kind_detail":"primary","kind":"major_road","source":"openstreetmap.org","min_zoom":8.0,"bus_shield_text":"8","shield_text":"35","landuse_kind":"nature_reserve","ref":"35"},"arcs":[[615],[616]]},{"type":"LineString","properties":{"kind":"major_road","network":"pl:national","sort_rank":380,"kind_detail":"primary","source":"openstreetmap.org","min_zoom":8.0,"shield_text":"35","ref":"35;346"},"arcs":[617]},{"type":"MultiLineString","properties":{"kind":"major_road","network":"pl:national","sort_rank":380,"kind_detail":"primary","source":"openstreetmap.org","min_zoom":8.0,"landuse_kind":"residential","shield_text":"3","ref":"3"},"arcs":[[618],[619],[620],[621],[622],[623],[624],[625],[626],[627],[628],[629]]},{"type":"LineString","properties":{"kind":"major_road","network":"pl:national","sort_rank":380,"kind_detail":"primary","source":"openstreetmap.org","min_zoom":8.0,"old_name":"Haynauer Stra\u00dfe","shield_text":"94","ref":"94"},"arcs":[630]},{"type":"MultiLineString","properties":{"kind":"path","sort_rank":354,"kind_detail":"track","is_bicycle_related":true,"bicycle_shield_text":"ORT","bicycle_network":"ncn","source":"openstreetmap.org","min_zoom":8.0},"arcs":[[631],[632],[633],[634],[635],[636],[637],[638],[639],[640],[641],[642],[643],[644],[645],[646],[647],[648],[649],[650],[651],[652],[653],[654]]},{"type":"MultiLineString","properties":{"kind":"path","sort_rank":354,"kind_detail":"track","is_bicycle_related":true,"bicycle_shield_text":"2","bicycle_network":"ncn","source":"openstreetmap.org","min_zoom":8.0,"landuse_kind":"national_park"},"arcs":[[655],[656]]},{"type":"LineString","properties":{"kind":"minor_road","sort_rank":360,"kind_detail":"unclassified","is_bicycle_related":true,"bicycle_shield_text":"ORT","bicycle_network":"ncn","source":"openstreetmap.org","min_zoom":8.0,"landuse_kind":"nature_reserve","id":192933642},"arcs":[657]},{"type":"MultiLineString","properties":{"source":"openstreetmap.org","kind":"major_road","landuse_kind":"urban_area","sort_rank":380,"kind_detail":"primary","min_zoom":8.0},"arcs":[[658],[659]]},{"type":"MultiLineString","properties":{"kind":"minor_road","sort_rank":360,"kind_detail":"unclassified","is_bicycle_related":true,"bicycle_shield_text":"PL","bicycle_network":"ncn","source":"openstreetmap.org","min_zoom":8.0},"arcs":[[660],[661],[662]]},{"type":"MultiLineString","properties":{"bus_network":"Aglomeracja Wa\u0142brzyska","network":"pl:national","sort_rank":380,"kind_detail":"primary","kind":"major_road","source":"openstreetmap.org","min_zoom":8.0,"bus_shield_text":"31","shield_text":"35","landuse_kind":"urban_area","ref":"35"},"arcs":[[663],[664],[665],[666]]},{"type":"MultiLineString","properties":{"bus_network":null,"network":"pl:national","sort_rank":380,"kind_detail":"primary","kind":"major_road","source":"openstreetmap.org","min_zoom":8.0,"bus_shield_text":"6","shield_text":"94","ref":"94"},"arcs":[[667],[668]]},{"type":"MultiLineString","properties":{"kind":"major_road","network":"pl:national","sort_rank":380,"kind_detail":"primary","source":"openstreetmap.org","min_zoom":8.0,"shield_text":"3","ref":"3;331"},"arcs":[[669],[670],[671]]},{"type":"LineString","properties":{"bus_network":"\u015awidnica","network":"pl:regional","sort_rank":379,"landuse_kind":"urban_area","is_bicycle_related":true,"kind":"major_road","bicycle_shield_text":"R9","bicycle_network":"ncn","source":"openstreetmap.org","min_zoom":8.0,"bus_shield_text":"50","shield_text":"382","kind_detail":"secondary","ref":"382"},"arcs":[672]},{"type":"LineString","properties":{"bus_network":null,"network":"pl:national","sort_rank":380,"kind_detail":"primary","kind":"major_road","bicycle_shield_text":"4","bicycle_network":null,"source":"openstreetmap.org","min_zoom":8.0,"bus_shield_text":"2","shield_text":"3","ref":"3","id":200366153},"arcs":[673]},{"type":"MultiLineString","properties":{"kind":"major_road","network":"pl:national","sort_rank":381,"kind_detail":"trunk","source":"openstreetmap.org","min_zoom":8.0,"shield_text":"18","ref":"18"},"arcs":[[674],[675],[676]]},{"type":"MultiLineString","properties":{"kind":"highway","network":"pl:national","sort_rank":383,"landuse_kind":"nature_reserve","source":"openstreetmap.org","min_zoom":8.0,"all_networks":["pl:national","pl:national","e-road","pl:motorways"],"kind_detail":"motorway","shield_text":"4","ref":"A4;5","all_shield_texts":["4","5","40","4"]},"arcs":[[677],[678]]},{"type":"MultiLineString","properties":{"kind":"major_road","network":"pl:regional","sort_rank":379,"kind_detail":"secondary","is_bicycle_related":true,"bicycle_shield_text":"PL","bicycle_network":"ncn","source":"openstreetmap.org","min_zoom":8.0,"shield_text":"297","ref":"297"},"arcs":[[679],[680],[681]]},{"type":"LineString","properties":{"kind":"path","sort_rank":354,"kind_detail":"pedestrian","is_bicycle_related":true,"bicycle_shield_text":"R9","bicycle_network":"ncn","source":"openstreetmap.org","min_zoom":8.0,"landuse_kind":"urban_area","name:de":"Paradeplatz","id":50308362},"arcs":[682]},{"type":"LineString","properties":{"kind":"major_road","network":"pl:national","sort_rank":380,"kind_detail":"primary","bicycle_shield_text":null,"bicycle_network":"lwn","source":"openstreetmap.org","min_zoom":8.0,"shield_text":"5","ref":"5"},"arcs":[683]},{"type":"LineString","properties":{"kind":"major_road","network":"pl:national","sort_rank":380,"kind_detail":"primary","source":"openstreetmap.org","min_zoom":8.0,"shield_text":"34","ref":"34"},"arcs":[684]},{"type":"LineString","properties":{"bus_network":null,"network":"pl:national","sort_rank":380,"kind_detail":"primary","kind":"major_road","source":"openstreetmap.org","min_zoom":8.0,"bus_shield_text":"1","shield_text":"94","landuse_kind":"urban_area","ref":"94;297"},"arcs":[685]},{"type":"LineString","properties":{"kind":"major_road","sort_rank":377,"kind_detail":"tertiary","is_bicycle_related":true,"bus_network":"\u015awidnica","bicycle_shield_text":"R9","bicycle_network":"ncn","source":"openstreetmap.org","min_zoom":8.0,"bus_shield_text":"50","landuse_kind":"urban_area","name:de":"Wasserstra\u00dfe","id":33201684},"arcs":[686]},{"type":"LineString","properties":{"kind":"major_road","network":"pl:national","sort_rank":380,"kind_detail":"primary","source":"openstreetmap.org","min_zoom":8.0,"shield_text":"3","id":447679608},"arcs":[687]},{"type":"MultiLineString","properties":{"kind":"major_road","sort_rank":377,"kind_detail":"tertiary","is_bicycle_related":true,"bicycle_shield_text":"ORT","bicycle_network":"ncn","source":"openstreetmap.org","min_zoom":8.0},"arcs":[[688],[689],[690],[691],[692],[693],[694],[695],[696],[697],[698]]},{"type":"MultiLineString","properties":{"source":"openstreetmap.org","kind":"major_road","sort_rank":380,"kind_detail":"primary","ref":"94","min_zoom":8.0},"arcs":[[699],[700]]},{"type":"MultiLineString","properties":{"kind":"major_road","network":"pl:national","sort_rank":380,"kind_detail":"primary","source":"openstreetmap.org","min_zoom":8.0,"old_name":"Carthausstra\u00dfe","shield_text":"94","landuse_kind":"residential","ref":"94"},"arcs":[[701],[702]]},{"type":"MultiLineString","properties":{"kind":"major_road","sort_rank":377,"kind_detail":"tertiary","is_bicycle_related":true,"bicycle_shield_text":"R9","bicycle_network":"ncn","source":"openstreetmap.org","min_zoom":8.0},"arcs":[[703],[704],[705],[706],[707],[708],[709],[710],[711],[712],[713],[714],[715],[716],[717],[718],[719]]},{"type":"LineString","properties":{"kind":"major_road","network":"pl:national","sort_rank":380,"kind_detail":"primary","bus_network":null,"source":"openstreetmap.org","min_zoom":8.0,"bus_shield_text":"2","shield_text":"3","ref":"3","id":444942539},"arcs":[720]},{"type":"LineString","properties":{"kind":"minor_road","sort_rank":360,"kind_detail":"living_street","is_bicycle_related":true,"bicycle_shield_text":"ER-2","bicycle_network":"ncn","source":"openstreetmap.org","min_zoom":8.0},"arcs":[721]},{"type":"MultiLineString","properties":{"kind":"major_road","sort_rank":377,"kind_detail":"tertiary","is_bicycle_related":true,"bicycle_shield_text":"ER-2","bicycle_network":"ncn","source":"openstreetmap.org","min_zoom":8.0},"arcs":[[722],[723]]},{"type":"LineString","properties":{"bus_network":"\u015awidnica","network":"pl:regional","sort_rank":377,"kind_detail":"tertiary","is_bicycle_related":true,"kind":"major_road","bicycle_shield_text":"R9","bicycle_network":"ncn","source":"openstreetmap.org","min_zoom":8.0,"bus_shield_text":"50","shield_text":"382","landuse_kind":"urban_area","ref":"382","id":33137640},"arcs":[724]},{"type":"LineString","properties":{"bus_network":"Wroc\u0142aw","network":"pl:national","sort_rank":380,"kind_detail":"primary","kind":"major_road","source":"openstreetmap.org","min_zoom":8.0,"bus_shield_text":"101","shield_text":"94","ref":"94"},"arcs":[725]},{"type":"LineString","properties":{"bus_network":"Wroc\u0142aw","sort_rank":377,"kind_detail":"tertiary","is_bicycle_related":true,"kind":"major_road","bicycle_shield_text":"ORT","bicycle_network":"ncn","source":"openstreetmap.org","min_zoom":8.0,"bus_shield_text":"923"},"arcs":[726]},{"type":"LineString","properties":{"kind":"major_road","network":"pl:national","sort_rank":380,"kind_detail":"primary","is_bicycle_related":true,"bicycle_shield_text":null,"bicycle_network":"lcn","source":"openstreetmap.org","min_zoom":8.0,"shield_text":"12","ref":"12","id":208096774},"arcs":[727]},{"type":"LineString","properties":{"kind":"minor_road","sort_rank":360,"kind_detail":"residential","is_bicycle_related":true,"bicycle_shield_text":"R9","bicycle_network":"ncn","source":"openstreetmap.org","min_zoom":8.0,"landuse_kind":"urban_area","name:de":"Untere Ritterstra\u00dfe","id":44092350},"arcs":[728]},{"type":"LineString","properties":{"kind":"path","sort_rank":354,"kind_detail":"cycleway","is_bicycle_related":true,"bicycle_shield_text":"PL","bicycle_network":"ncn","source":"openstreetmap.org","min_zoom":8.0,"landuse_kind":"nature_reserve","id":430254130},"arcs":[729]},{"type":"MultiLineString","properties":{"kind":"major_road","network":"pl:national","sort_rank":380,"kind_detail":"primary","source":"openstreetmap.org","min_zoom":8.0,"shield_text":"5","ref":"5;367"},"arcs":[[730],[731],[732],[733],[734]]},{"type":"LineString","properties":{"source":"openstreetmap.org","kind":"major_road","sort_rank":380,"kind_detail":"primary","ref":"34","min_zoom":8.0,"id":314223538},"arcs":[735]},{"type":"LineString","properties":{"kind":"major_road","network":"pl:national","sort_rank":380,"kind_detail":"primary","bus_network":null,"source":"openstreetmap.org","min_zoom":8.0,"bus_shield_text":"1","shield_text":"94","landuse_kind":"urban_area","ref":"94","id":432920199},"arcs":[736]},{"type":"MultiLineString","properties":{"kind":"major_road","network":"pl:national","sort_rank":380,"kind_detail":"primary","source":"openstreetmap.org","min_zoom":8.0,"shield_text":"12","ref":"12;297"},"arcs":[[737],[738],[739],[740],[741]]},{"type":"MultiLineString","properties":{"kind":"major_road","network":"pl:national","sort_rank":380,"kind_detail":"primary","source":"openstreetmap.org","min_zoom":8.0,"landuse_kind":"urban_area","shield_text":"30","ref":"30"},"arcs":[[742],[743]]},{"type":"LineString","properties":{"kind":"major_road","network":"pl:national","sort_rank":381,"kind_detail":"trunk","source":"openstreetmap.org","min_zoom":8.0,"landuse_kind":"military","shield_text":"18","ref":"18"},"arcs":[744]}]},"earth":{"type":"GeometryCollection","geometries":[{"type":"Polygon","properties":{"sort_rank":10,"source":"naturalearthdata.com","min_zoom":0.0,"kind":"earth","area":98022885885},"arcs":[[745]]}]},"landuse":{"type":"GeometryCollection","geometries":[{"type":"MultiPolygon","properties":{"kind":"national_park","protect_class":"2","area":1367910016,"sort_rank":18,"source":"openstreetmap.org","min_zoom":3.0,"tier":1,"id":-2327566,"osm_relation":true},"arcs":[[[746]],[[747]]]},{"type":"MultiPolygon","properties":{"kind":"nature_reserve","protect_class":"19","area":23145602,"sort_rank":23,"source":"openstreetmap.org","min_zoom":8.0,"tier":2,"osm_relation":true},"arcs":[[[748],[749]]]},{"type":"Polygon","properties":{"kind":"nature_reserve","protect_class":"19","area":42456900,"sort_rank":23,"source":"openstreetmap.org","min_zoom":8.0,"tier":2,"id":423712491},"arcs":[[750]]},{"type":"MultiPolygon","properties":{"kind":"protected_area","protect_class":"97","area":117075932,"sort_rank":17,"source":"openstreetmap.org","min_zoom":8.0,"tier":2,"osm_relation":true},"arcs":[[[751]],[[752]],[[753]],[[754]]]},{"type":"MultiPolygon","properties":{"kind":"nature_reserve","protect_class":"5","area":4112056337,"sort_rank":23,"source":"openstreetmap.org","min_zoom":6.0,"tier":2,"osm_relation":true},"arcs":[[[755]],[[756]],[[757]],[[758]],[[759]],[[760]],[[761]]]},{"type":"MultiPolygon","properties":{"kind":"nature_reserve","protect_class":"5","area":136441987,"sort_rank":23,"source":"openstreetmap.org","min_zoom":8.0,"tier":2,"osm_relation":true},"arcs":[[[762]],[[763]]]},{"type":"MultiPolygon","properties":{"source":"openstreetmap.org","kind":"nature_reserve","tier":2,"protect_class":"4","area":149603540,"sort_rank":23,"min_zoom":8.0},"arcs":[[[764]]]},{"type":"Polygon","properties":{"kind":"national_park","protect_class":"2","area":146728000,"sort_rank":18,"source":"openstreetmap.org","min_zoom":7.0,"tier":1,"id":-1329832,"osm_relation":true},"arcs":[[765]]},{"type":"MultiPolygon","properties":{"source":"openstreetmap.org","kind":"military","tier":3,"area":920144089,"sort_rank":45,"min_zoom":8.0},"arcs":[[[766]],[[767]]]},{"type":"MultiPolygon","properties":{"source":"naturalearthdata.com","kind":"urban_area","name":"","area":3898555972,"sort_rank":11,"min_zoom":4.0},"arcs":[[[768]],[[769]],[[770]],[[771]],[[772]],[[773]],[[774]],[[775]],[[776]]]},{"type":"MultiPolygon","properties":{"kind":"nature_reserve","protect_class":"5","area":161740992,"sort_rank":23,"operator":"Dolno\u015bl\u0105ski Zesp\u00f3\u0142 Park\u00f3w Krajobrazowych","source":"openstreetmap.org","min_zoom":6.0,"tier":2,"id":245251338},"arcs":[[[777]],[[778]]]},{"type":"MultiPolygon","properties":{"kind":"protected_area","protect_class":"97","area":532174016,"sort_rank":17,"source":"openstreetmap.org","min_zoom":6.0,"tier":2,"id":-2060458,"osm_relation":true},"arcs":[[[779]]]},{"type":"Polygon","properties":{"kind":"nature_reserve","protect_class":"5","area":2223389952,"sort_rank":23,"source":"openstreetmap.org","min_zoom":4.0,"tier":2,"id":-4515666,"osm_relation":true},"arcs":[[780]]},{"type":"MultiPolygon","properties":{"source":"openstreetmap.org","kind":"residential","tier":2,"area":130296846,"sort_rank":20,"min_zoom":8.0},"arcs":[[[781]],[[782]]]},{"type":"MultiPolygon","properties":{"kind":"nature_reserve","protect_class":"4","area":89346042,"sort_rank":23,"source":"openstreetmap.org","min_zoom":8.0,"tier":2,"osm_relation":true},"arcs":[[[783],[784]]]}]}},"type":"Topology","transform":{"translate":[15.46875,50.736455137],"scale":[0.0003433228,0.000215225]},"arcs":[[[773,0],[-113,16],[-44,69],[-169,48],[-60,54],[-163,17],[-62,-16],[-39,65],[-89,0],[-34,24]],[[1054,0],[4,29],[-52,59],[-66,-13],[-36,-48],[-51,7],[-62,-34]],[[773,0],[-113,16],[-44,69],[-169,48],[-60,54],[-163,17],[-62,-16],[-39,65],[-89,0],[-34,24]],[[1054,0],[4,29],[-52,59],[-66,-13],[-36,-48],[-51,7],[-62,-34]],[[4096,3917],[-69,2],[-67,-36],[-37,58],[-67,27],[29,48],[-89,59],[-5,21]],[[1052,4096],[-41,-70],[23,-140],[-157,-15],[-135,-81],[-57,23],[-2,-50],[26,1],[5,-136],[-102,-23],[-67,-186],[-62,31],[0,-32],[-30,0],[-2,-40],[-69,-83],[-8,27],[-47,8],[43,76],[-315,270],[-16,-68],[-39,20]],[[146,447],[-49,13],[-23,-45],[-74,12]],[[2951,473],[1,39],[-6,54],[-83,244],[-39,21],[-51,-32]],[[2773,799],[-83,15],[-62,99],[-43,243],[-49,69],[-427,263],[-119,135],[-11,83],[103,263],[46,213],[-30,44],[-74,-12]],[[2773,799],[51,32],[39,-21],[83,-244],[6,-54],[-2,-17],[0,-14],[1,-8]],[[2951,473],[46,-153],[209,-120],[166,-200]],[[2105,2223],[-76,-7]],[[2152,2223],[-52,3]],[[4096,1855],[-143,183],[-66,36],[-290,39],[-318,-6],[-283,121],[-843,-5]],[[2757,784],[-116,-126],[-129,-64],[36,-29],[-29,-26],[25,-89],[-103,-50],[-23,-89],[-31,-30],[-21,-72],[-84,-65],[7,-23],[54,-11],[-3,-50],[52,0],[-16,-30],[-75,26],[-52,-22],[-29,31],[-46,-24],[-109,58],[-127,113],[-45,140],[-78,-18],[-134,54],[-101,136],[-192,166],[-95,-35],[-139,37],[-133,-2],[-205,87],[-43,56],[-33,-12],[-87,-195],[-94,-21],[-57,-83],[-167,14],[24,41],[-166,9],[76,-52],[-53,-31],[15,-39],[-42,23],[-43,-40]],[[2809,827],[118,97],[14,8],[81,25],[95,72],[20,8],[140,27],[176,88],[56,36],[46,40],[76,122],[465,198]],[[3953,1487],[-8,-4]],[[2331,116],[-11,0],[11,0]],[[2369,31],[-15,4],[15,-4]],[[2377,227],[-1,-1],[2,4],[2,9],[-3,-12]],[[2427,367],[0,1],[4,10],[-1,-7],[-3,-9],[0,5]],[[2512,579],[1,-1],[1,-1],[1,-1],[1,-1],[2,-1],[1,0],[4,0],[-5,0],[-3,1],[-2,2],[-1,2]],[[2976,941],[12,4],[-2,-1],[-10,-3]],[[3238,1055],[-3,-1],[-10,-1],[13,2]],[[3454,1153],[9,6],[-1,0],[-8,-6]],[[3727,1398],[4,2],[6,3],[-10,-5]],[[1504,0],[20,103],[118,154],[4,92],[103,9]],[[4096,2129],[-72,96],[-10,6],[-251,124],[-9,4],[-5,4],[-5,5],[-14,19],[-3,6],[-3,7],[-1,5],[-1,26],[-7,11],[-10,5],[-17,0],[-4,1],[-5,2],[-51,38],[-65,41],[-4,2],[-3,3],[-3,4],[-3,4],[-31,54],[-45,68],[-37,38],[-5,7],[-95,154],[-92,92],[-121,77],[-9,3],[-73,15],[-8,2],[-7,3],[-151,69],[-16,-1],[-25,-21],[-5,-3],[-3,-2],[-6,-1],[-4,0],[-4,0],[-6,2],[-3,1],[-4,2],[-5,4],[-14,15],[-17,18],[-99,151],[-12,9],[-28,14],[-4,3],[-3,3],[-38,42],[-26,32],[-137,93],[-21,9],[-19,5],[-7,3],[-28,15],[-4,2],[-3,3],[-3,3],[-3,6],[-3,6],[-1,4],[-1,4],[0,6],[1,6],[1,4],[2,6],[4,6],[39,47],[6,16],[-29,103],[-43,43],[-120,81],[-6,5],[-3,3],[-151,186],[-3,6],[-3,5],[-9,28]],[[4096,2129],[-72,96],[-9,5],[-261,129],[-27,34],[-5,38],[-7,11],[-158,91],[-38,64],[-45,67],[-42,45],[-94,154],[-93,92],[-119,76],[-5,2],[-6,2],[-83,18],[-156,71],[-16,-1],[-33,-25],[-27,3],[-135,188],[-111,104],[-137,92],[-82,37],[-9,39],[45,59],[4,8],[2,5],[0,5],[-29,101],[-43,43],[-129,89],[-151,186],[-14,39]],[[2451,0],[-138,50]],[[3974,4096],[52,-118],[58,-210],[12,-36]],[[4096,3220],[-76,-154],[-2,-4],[-1,-5],[-1,-5],[0,-5],[0,-4],[2,-10],[51,-239],[2,-5],[2,-7],[2,-4],[4,-6],[4,-5],[4,-5],[5,-5],[4,-4]],[[4096,2754],[-80,293],[80,172]],[[4096,3732],[-69,244],[-3,7],[-49,113]],[[0,2453],[140,49],[163,-41],[110,73],[241,22],[374,-129],[351,89],[156,-97],[147,1],[42,-21]],[[1724,2399],[-2,2]],[[2051,2221],[-63,-1],[-264,179]],[[833,772],[-73,61],[-47,-76],[-70,-28],[-105,75],[-419,53],[-37,92],[-82,23]],[[0,1042],[8,13],[-8,13]],[[2962,474],[-4,2]],[[2972,2915],[-3,12]],[[4008,252],[88,42]],[[172,1075],[18,-58]],[[391,1211],[-78,26],[-39,-27]],[[274,1212],[-145,72]],[[288,2477],[0,1]],[[3041,554],[44,-3]],[[2971,456],[-2,-4]],[[3010,493],[-2,1]],[[2961,460],[1,1],[-1,0],[0,-1]],[[2971,458],[-1,-1],[1,-1],[0,1],[0,1]],[[3091,140],[20,-29]],[[2188,3046],[1,2]],[[3966,1165],[-17,-11]],[[3543,1977],[-62,7]],[[2436,430],[-3,-20]],[[2436,435],[0,-2]],[[2436,436],[1,0]],[[2437,438],[-1,0]],[[2344,152],[-4,-30],[3,-7],[11,-14],[18,-6]],[[2372,95],[-28,55]],[[2372,95],[35,-35]],[[2430,403],[-3,-8]],[[2526,553],[-3,-1],[-27,-15],[-6,-7],[-2,-5]],[[2489,527],[37,26]],[[3041,554]],[[3036,2412],[107,-29],[89,32],[209,-15],[143,28]],[[3588,2428],[-2,0]],[[3588,2428],[86,24]],[[614,1309],[75,33]],[[179,399],[1,-9]],[[3880,1475],[-49,30]],[[2386,29],[10,12]],[[2942,2162],[-2,1]],[[1942,1004],[-4,-2]],[[2007,1088],[-1,-2]],[[26,1652],[-25,-48]],[[26,1652],[-22,31],[24,3]],[[68,1801],[0,2]],[[418,1208],[5,11]],[[614,1527],[-12,-62]],[[737,1373],[-89,104],[-36,-10]],[[2690,3909],[5,-16]],[[2772,3190],[5,20]],[[2803,3325],[-6,10]],[[2826,3870],[4,-1]],[[2874,3248],[-4,-2]],[[2918,2290],[-36,57]],[[2977,2866],[6,-1]],[[3009,2249],[-3,11]],[[3012,2347],[24,65]],[[3588,2428],[1,0]],[[3650,2378],[0,16]],[[1931,2199],[69,-13]],[[2963,463],[-1,-2]],[[212,2450],[-14,-5]],[[198,2445],[14,5]],[[383,2439],[39,-5]],[[379,2440],[1,-1],[1,0],[-1,1],[-1,0]],[[2986,513],[-11,-11]],[[1665,234],[-1,0]],[[1855,840],[-5,34]],[[3335,3409],[1,0]],[[3338,3411],[0,1]],[[3925,1937]],[[3925,1937]],[[2942,532],[22,5]],[[689,1342],[58,24]],[[367,2883],[-3,2]],[[365,2884],[1,-2]],[[2000,2186],[19,24]],[[2025,2210],[-6,0]],[[2019,2210],[7,-1]],[[143,433],[-31,-21]],[[1400,4039],[-10,9]],[[2967,490],[-5,2]],[[4054,1258],[42,25]],[[151,421],[4,0]],[[361,2887],[4,-3]],[[364,2885],[-1,1]],[[151,421],[-26,-10]],[[155,421],[24,-22]],[[533,257],[72,9]],[[559,348],[20,-10],[-32,-30]],[[607,265],[39,1]],[[651,239],[1,28]],[[845,182],[-1,0]],[[953,226],[13,12]],[[129,1284],[48,-119],[-15,-22]],[[366,2882],[143,-132],[33,-20]],[[525,2747],[-24,14],[-60,61],[-74,61]],[[3925,1559],[-34,-40]],[[563,1295]],[[608,1306],[-28,-27],[-17,16]],[[2436,438]],[[2440,592],[3,-3]],[[52,1138],[10,-8]],[[2489,4080],[-1,16]],[[3085,551],[33,3]],[[2479,512],[-18,-16],[-15,-28]],[[2447,468],[30,41]],[[492,1242],[-69,-23]],[[481,1263],[1,-8]],[[3975,2043],[0,-1]],[[4073,1902],[-20,41]],[[494,1579],[-77,65]],[[362,380],[-119,-22],[-55,24]],[[528,338],[-49,3]],[[547,308],[-14,-51]],[[652,267],[-3,-1]],[[899,212],[35,-13],[18,27]],[[966,238],[32,-36],[62,22],[25,-40],[-12,-184]],[[1908,2213],[-1,1],[-1,-2],[2,0],[0,1]],[[3742,1400],[-3,3]],[[588,1593],[-6,13]],[[614,1527],[-9,29]],[[696,724],[-86,2],[-125,-51],[-116,-119],[-66,-26],[-10,-66],[-128,-41]],[[950,795],[-63,41]],[[887,836],[68,-45]],[[1281,783],[-67,-24],[-129,32]],[[1390,4048],[-59,48]],[[1281,783],[53,25]],[[1337,808],[-3,0]],[[1337,808],[74,-9]],[[1400,4039],[34,-34]],[[1424,801],[-13,-2]],[[1840,874],[-71,4],[-44,79],[-181,-15],[-119,-116]],[[1434,4005],[1,0]],[[1435,4005],[-1,0]],[[1437,4004],[1,-1]],[[1438,4003],[-1,1]],[[1647,3849],[-102,46],[-107,108]],[[1647,3849],[1,-1]],[[1648,3848],[-1,1]],[[1649,3846],[1,-1]],[[1650,3845],[-1,1]],[[1728,3559],[4,22],[0,40],[-8,35],[-74,189]],[[1712,3682],[16,-123]],[[1770,3510],[-27,23]],[[1801,3470],[-29,36]],[[1772,3505],[29,-35]],[[1907,3353],[-106,117]],[[1850,874],[-7,3]],[[1938,1002],[-68,-45],[10,-36],[-26,-41]],[[1879,2164],[2,1]],[[1880,2166],[-1,-2]],[[1879,2164],[28,-38]],[[1882,2169],[-1,-2]],[[1882,2167],[0,2]],[[1882,2167],[-2,0],[0,-1]],[[1880,2166],[1,0],[1,1]],[[1907,2210],[-25,-41]],[[1907,2212],[0,-2]],[[1907,2210],[0,2]],[[1918,2217],[-10,-3]],[[1908,2213],[10,4]],[[1983,2390],[-65,-173]],[[2006,1086],[-64,-82]],[[2109,2984],[-67,-112],[-61,-457]],[[2093,1412],[-23,-209],[-63,-115]],[[2027,3230],[29,-28]],[[2056,3204],[-27,27]],[[2047,2029],[5,-48]],[[2052,1981],[-5,48]],[[2052,1981],[-1,-16]],[[2051,1965],[1,-10]],[[2052,1955],[-1,-199],[32,-120]],[[2083,1636],[0,-2]],[[2084,1635],[-1,1]],[[2084,1633],[0,-2]],[[2084,1631],[0,2]],[[2084,1631],[18,-112]],[[2097,1446],[-1,0]],[[1648,3847],[1,-1],[1,1],[-1,1],[-1,-1]],[[2084,1634],[-1,-1],[1,0]],[[2084,1633],[1,1],[-1,0]],[[2930,524],[17,8]],[[2942,532],[-5,-2],[-5,-3]],[[2994,544],[-30,-7]],[[2994,544],[14,4]],[[2999,546],[-5,-2]],[[2868,490],[-56,-8]],[[2961,427],[24,-69]],[[3018,320],[90,-21]],[[3109,298],[-47,-78],[29,-80]],[[3111,111],[7,-5]],[[3742,1400],[46,-20]],[[3888,1506],[-8,-29]],[[3926,1560],[13,5]],[[3042,482],[2,-1]],[[3044,481],[-1,1]],[[3054,477],[-10,4]],[[2984,357],[34,-37]],[[3891,1519],[-3,-13]],[[4089,1899],[-2,0]],[[2476,566],[-2,-30]],[[3041,554],[-42,-8]],[[2474,538],[-1,-2]],[[2443,589],[33,-23]],[[364,1694],[-1,-3]],[[363,1691],[14,-37]],[[364,1696],[5,12]],[[2431,3083],[-2,0]],[[2346,161],[0,5]],[[2477,509],[8,6],[4,12]],[[2488,525],[-9,-13]],[[3118,554],[42,16]],[[2487,527]],[[1983,2390],[-2,25]],[[1338,2465],[59,-19]],[[291,2477],[22,-4]],[[971,796],[-21,-1]],[[955,791],[16,5]],[[1085,791],[-65,22],[-49,-17]],[[479,2442],[4,-2]],[[111,978],[79,39]],[[1608,215],[1,0]],[[1637,245],[6,3]],[[3979,2163],[-4,-120]],[[3442,1121],[41,-123]],[[3511,686],[-11,-46]],[[3514,688],[-1,0]],[[3957,1596],[1,2]],[[2049,2209],[-2,1]],[[359,1729],[-4,5]],[[234,72],[3,-2]],[[105,978],[-105,13]],[[2969,494],[-2,-4]],[[112,412],[13,-1]],[[559,348],[-31,-10]],[[605,266],[2,-1]],[[649,266],[-3,0]],[[651,239],[17,30]],[[2630,2511],[21,-15]],[[327,1735],[-115,51],[-144,15]],[[3831,1505],[-8,-20]],[[2962,492],[-2,-4]],[[327,1734],[0,1]],[[3880,1477],[0,-2]],[[3925,1559],[1,1]],[[2955,483],[9,-6]],[[1855,840],[-1,-1]],[[1857,838],[-2,1]],[[608,1306],[2,2]],[[2026,2209],[-1,1]],[[610,1308],[4,1]],[[737,778],[78,47]],[[2093,1496],[-3,-18]],[[2103,1517],[-9,-18]],[[2571,1012],[-1,0],[0,-1],[1,0],[0,1]],[[2964,477],[-2,-3]],[[3000,496],[2,13]],[[4079,1901],[-6,1]],[[3722,2426]],[[3584,2428],[5,0]],[[3722,2426],[1,-15]],[[241,2462],[-2,0]],[[240,2462],[1,0]],[[281,2476],[-40,-14]],[[281,2476],[7,1]],[[287,2478],[-6,-2]],[[313,2473],[5,-1]],[[318,2472],[-5,1]],[[318,2472],[51,-26]],[[2998,512],[-12,1]],[[2430,402],[1,1],[1,5]],[[2432,408],[2,5],[3,26]],[[2433,410],[0,-2],[-1,0]],[[2432,408],[-1,-4]],[[2436,437],[0,-2]],[[494,1579],[74,23]],[[0,1223],[15,-6],[37,-79]],[[62,1130],[67,-62],[181,-49],[102,-148]],[[412,871],[12,-5]],[[424,866],[22,-20]],[[446,846],[5,-6]],[[451,840],[18,-10]],[[485,821],[4,-3]],[[489,818],[17,-1]],[[506,817],[3,0]],[[618,824],[10,-1]],[[124,2410],[-3,-1]],[[121,2409],[4,1]],[[212,2450],[5,3]],[[1435,4004],[2,0],[0,2],[-2,0],[0,-2]],[[112,412],[-112,4]],[[0,2353],[36,11]],[[36,2364],[20,18]],[[56,2382],[63,27]],[[119,2409],[2,0]],[[121,2409],[-2,0]],[[130,2411],[-6,-1]],[[125,2410],[5,1]],[[130,2411],[63,32]],[[193,2443],[5,2]],[[198,2445],[-5,-2]],[[215,2452],[-3,-2]],[[223,2455],[7,0]],[[230,2455],[1,0]],[[231,2456],[-1,-1]],[[232,2457],[-1,-1],[1,-1],[0,1],[0,1]],[[3823,1485],[-35,-105]],[[3988,0],[33,84],[-35,55],[68,310],[-1,138]],[[4054,608],[-1,-21]],[[4054,608],[-4,46],[46,102]],[[3289,1420],[10,-5],[240,-91],[57,-10],[49,1],[85,4],[28,4],[45,7]],[[3803,1331],[-264,-6],[-250,95]],[[4096,1393],[-197,-7],[-62,-41]],[[3837,1345],[63,41],[196,6]],[[605,1556],[-17,37]],[[3481,1984],[-30,3]],[[143,433],[8,-12]],[[2958,486],[-3,-3]],[[2403,321],[-58,-160]],[[2396,41],[11,19]],[[237,3902],[-104,-17],[-133,67]],[[237,3902],[3,-1]],[[240,3901],[-3,1]],[[705,3658],[-107,45],[-87,-4],[-151,76]],[[1253,3768],[-83,-41]],[[1435,4003],[-96,-225],[-36,-24],[-48,14]],[[1435,4003],[1,1]],[[1435,4004],[0,-1]],[[1453,4049],[11,47]],[[2772,3190],[-4,-35]],[[2853,3530],[-56,-195]],[[2834,2991],[7,45]],[[2170,3039],[-40,-3]],[[2133,3035],[37,4]],[[2817,3905],[-8,-2]],[[2895,3773],[19,64]],[[377,1654],[40,-10]],[[2971,493],[4,9]],[[28,1686],[39,115]],[[67,1801],[1,0]],[[68,1803],[-1,-2]],[[2962,474],[1,-11]],[[4072,1902],[-97,20]],[[2607,2522],[49,35]],[[2770,3134],[-2,21]],[[2800,3908],[9,-5]],[[2846,3838],[-4,-30]],[[2858,3742],[-1,16]],[[2892,2497],[-20,18]],[[2886,3244],[-12,4]],[[2896,2929],[-9,36]],[[2918,2290],[67,-20],[0,-21]],[[3006,2243],[3,6]],[[3650,2339],[0,39]],[[3775,2357],[-7,-21]],[[4050,1967],[3,-24]],[[3112,97],[59,-97]],[[2187,3069],[1,-31]],[[2189,3048],[-1,20]],[[0,2541],[183,118],[103,12],[37,7],[12,3],[91,46],[2,1],[74,20]],[[502,2748],[9,3],[10,-3],[3,-1]],[[524,2747],[0,-1],[89,-75],[144,-49],[153,-89],[146,-106],[43,-22],[77,-32],[61,-32],[33,-15]],[[1270,2326],[72,-33]],[[1342,2293],[2,-1],[112,-26],[80,-85],[167,-137],[148,-45],[325,-51],[251,-108],[172,-33],[102,-75],[81,-119],[132,-65],[375,-128]],[[3289,1420],[-18,8],[-65,23],[-54,18],[-71,29],[-14,5],[-10,4],[-143,41],[-21,12],[-111,53],[-81,119],[-100,75],[-2,1],[-35,10],[-137,22],[-93,59],[-100,34],[-57,15],[-93,22],[-233,30],[-148,45],[-105,93],[-61,43],[-35,51],[-9,9],[-37,25],[-88,22],[-23,4],[-3,1]],[[1342,2293],[-5,1],[-67,32]],[[1270,2326],[-32,15],[-62,32],[-81,34],[-184,126],[-152,89],[-149,52],[-85,73],[-1,0]],[[524,2747],[-22,1]],[[502,2748],[-10,1],[-64,-20],[-20,-9],[-15,-7],[-59,-31],[-11,-3],[-37,-8],[-29,-1],[-75,-11],[-49,-24],[-133,-91]],[[2911,3838],[-4,10]],[[3587,2428],[53,-97]],[[3650,2394],[65,16]],[[3706,2430],[-22,5]],[[3723,2410],[0,1]],[[2408,341],[-5,-20]],[[234,69],[-1,-2]],[[2695,3893],[25,-22],[106,-1]],[[2780,3048],[1,49]],[[2816,2607],[4,19]],[[2887,2965],[-53,26]],[[2842,3808],[15,-50]],[[2870,3643],[-12,99]],[[2882,3764],[13,9]],[[2899,2700],[37,0]],[[2930,3443],[-19,39]],[[2983,2865],[-8,39]],[[568,1602],[14,4]],[[2527,553],[28,-2]],[[2555,551],[-23,3],[-5,0]],[[2812,482],[-63,-12],[-194,81]],[[2473,536],[1,-2],[4,-2],[3,-1]],[[2481,531],[2,0],[2,-1]],[[2485,530],[2,-2],[0,-1]],[[2489,527],[-2,2],[-2,1]],[[2485,530],[-4,1]],[[2481,531],[-3,2],[-2,0],[-2,3]],[[2487,527],[1,-2]],[[368,1708],[0,-1]],[[2192,3018],[59,-86],[227,-215],[78,-133],[19,-96]],[[2429,3083],[-216,-16]],[[2755,3149],[-190,-5],[-134,-61]],[[3039,3260],[-216,-132],[7,-34]],[[3335,3389],[-220,-41],[-79,-74]],[[3335,3408],[4,4]],[[3339,3412],[-3,-1]],[[3558,3833],[-103,-143],[-116,-278]],[[3558,3833],[6,9]],[[3568,3849],[-4,-7]],[[3877,4022],[-80,-57],[-76,-3],[-151,-112]],[[3877,4022],[2,2]],[[3879,4024],[-2,-2]],[[3881,4026],[-1,-1]],[[3880,4025],[1,1]],[[3888,4034],[-7,-8]],[[3888,4034],[2,1]],[[3889,4035],[-1,-1]],[[3906,4052],[-16,-16]],[[3891,4036],[15,16]],[[3960,4096],[-54,-44]],[[3879,4024],[1,0],[0,1],[-1,0],[0,-1]],[[3889,4036],[1,-1],[1,1],[-1,0],[-1,0]],[[956,3661],[-42,-1]],[[368,1708],[1,0]],[[377,1654]],[[747,1366],[-10,7]],[[481,1263],[82,32]],[[482,1255],[10,-13]],[[1573,0],[2,178]],[[1665,234],[-7,101],[22,47],[-32,105],[164,274],[-6,34]],[[2272,836],[-62,-37],[-125,21],[-110,-13],[-133,41]],[[1855,839],[0,1]],[[2272,836],[5,0]],[[2276,837],[-4,-1]],[[2283,838],[-5,-1]],[[2278,837],[5,1]],[[2568,1010],[-167,-136],[-118,-36]],[[2568,1010],[2,1]],[[2570,1011],[-2,-1]],[[2571,1012]],[[2571,1012]],[[3273,1422],[-43,-77],[-98,-89],[-174,-61],[-81,14],[-66,-45],[-151,-5],[-43,-38],[-9,-83],[-37,-26]],[[3287,1421],[-14,1]],[[3273,1422],[11,-3]],[[2278,836],[0,1]],[[2278,837],[-1,1],[-1,-1],[2,-1]],[[223,2455],[-8,-3]],[[239,2462],[-4,-1],[-3,-4]],[[232,2456],[8,6]],[[369,2446],[9,-6]],[[422,2434],[11,1]],[[433,2435],[3,0]],[[436,2436],[-3,-1]],[[440,2436],[-1,0]],[[483,2441],[140,-8]],[[623,2433],[9,4]],[[632,2437],[-3,-1],[-6,-3]],[[632,2437],[184,33]],[[816,2470],[9,4]],[[825,2474],[91,17]],[[916,2491],[10,2]],[[936,2495],[-10,-2]],[[936,2495],[11,2]],[[947,2497],[229,8],[162,-40]],[[1397,2446],[114,-82],[109,-14]],[[1621,2351],[133,-90],[150,-47]],[[1904,2214],[2,-1]],[[1906,2213],[-2,1]],[[1908,2212],[10,-6]],[[1918,2206],[-10,6]],[[1919,2205],[1,1],[-2,0]],[[1918,2206],[0,-1],[1,0]],[[1919,2205],[1,0]],[[2861,2240],[-77,57],[-96,140],[-48,35],[-8,3],[-41,10],[-9,1],[-4,1],[-4,3],[-377,-272]],[[2861,2240],[48,-42]],[[2940,2163],[-31,35]],[[3451,1987],[-180,-28],[-138,57],[-191,146]],[[3975,1922],[-130,39],[-302,16]],[[288,2477]],[[1425,826],[-1,-25]],[[914,3660],[-209,-2]],[[1170,3727],[-92,-71],[-122,5]],[[2969,452],[-8,-25]],[[2188,3069],[-1,0]],[[2188,3038],[4,-20]],[[2213,3067],[-21,1]],[[2766,3132],[15,-35]],[[603,1465],[-3,-1]],[[602,1465],[1,0]],[[612,1467],[-9,-2]],[[3002,509],[-4,3]],[[2157,2203],[-100,6]],[[2157,2203],[32,9]],[[2197,2218],[-8,-6]],[[2362,0],[24,29]],[[727,776],[-31,-52]],[[727,776],[4,2]],[[730,778],[-3,-2]],[[887,836],[-15,13],[-7,4],[-6,2],[-9,-1],[-9,-4],[-49,-44],[-39,-26],[-22,-1]],[[732,778],[5,0]],[[815,825],[37,29],[35,-18]],[[1907,2126],[11,-7]],[[2001,3254],[-94,99]],[[1920,2118],[55,-35]],[[1975,2083],[7,-5]],[[1982,2078],[-7,5]],[[2001,3254],[26,-24]],[[2029,3231],[-28,23]],[[2188,3068],[0,5],[-5,19],[-1,1],[-126,111]],[[2056,3202],[131,-133]],[[2120,3011],[-11,-27]],[[2120,3011],[9,21]],[[2129,3033],[-9,-22]],[[2173,3039],[8,-1]],[[1920,2118],[0,1],[-1,0],[0,-1],[1,0]],[[2171,3040],[-1,-1],[0,-1],[2,0],[-1,2]],[[188,382],[-8,8]],[[2955,483],[-4,-4]],[[2489,4080],[1,-1]],[[2492,4080],[21,16]],[[161,1107],[8,-32]],[[1850,875],[-1,0]],[[1850,875],[0,-1]],[[1854,880],[-4,-5]],[[363,1691]],[[289,0],[-56,67]],[[237,70],[-3,-1]],[[4073,1902],[-1,0]],[[4087,1899],[-8,2]],[[2766,3132],[4,2]],[[2960,488],[-2,-2]],[[2968,503],[-3,-6]],[[2971,493],[-2,1]],[[1843,877],[-3,-3]],[[2755,3149],[11,-17]],[[2781,3097],[49,-3]],[[731,778],[1,0],[-1,1],[-1,-1],[1,0]],[[3160,570],[83,92],[276,186],[36,52],[107,67],[153,38]],[[3824,1011],[-9,-6]],[[3824,1011],[125,143]],[[3972,1166],[-6,-1]],[[3976,1166],[78,92]],[[2867,2394],[59,43],[-17,29]],[[3041,482],[-31,11]],[[3983,1919],[-5,2]],[[2886,492],[-18,-2]],[[2886,492],[6,1]],[[2892,494],[-6,-2]],[[2893,494],[-1,0]],[[2892,494],[0,-1]],[[2892,493],[1,0]],[[2901,496],[-8,-2]],[[2893,493],[0,1]],[[2893,493],[8,3]],[[2913,499],[-12,-3]],[[2917,501],[-4,-2]],[[2917,501],[8,13]],[[2925,514],[5,10]],[[2932,527],[-7,-13]],[[4079,1901],[17,51]],[[3875,4096],[2,-27],[48,-58],[35,-36],[66,-56],[31,-85],[33,-53],[6,-40]],[[4096,3744],[-6,37],[-64,138],[-148,150],[-2,27]],[[2436,433],[0,-3]],[[479,341],[-84,-14],[-33,53]],[[3036,3274],[3,-14]],[[469,830],[16,-9]],[[509,817],[94,7]],[[603,824],[10,1]],[[613,825],[5,-1]],[[628,823],[98,-40]],[[729,781],[-3,2]],[[726,783],[2,-2]],[[0,1604],[1,0]],[[3722,2426],[-16,4]],[[2962,461],[8,-4]],[[2974,2910],[-2,5]],[[2430,402],[-22,-61]],[[2431,404],[-1,-1]],[[2925,3095],[17,-42]],[[3336,3411],[-1,-22]],[[3570,3850],[-2,-1]],[[2446,468],[-4,-9],[-6,-22]],[[2437,439],[10,29]],[[3976,1166],[-4,0]],[[1982,2078],[62,-38]],[[2044,2041],[-62,37]],[[2044,2041],[0,-1]],[[2044,2040],[1,-2]],[[2046,2039],[-2,2]],[[2045,2038],[1,1]],[[2045,2038],[2,-9]],[[2047,2029],[-1,10]],[[2094,1499],[-1,-3]],[[2096,1446],[-3,-34]],[[2100,1467],[-3,-21]],[[2102,1519],[1,-2]],[[1922,2204],[9,-5]],[[2800,3908],[-91,50],[-23,115],[-40,10],[-44,-22],[-39,33],[0,2]],[[2513,4096],[15,-39],[64,-43],[64,2],[34,-107]],[[2607,2514],[23,-3]],[[2651,2496],[21,-14]],[[2656,2557],[225,194],[-27,49],[42,129]],[[2762,2470],[62,8],[46,-73]],[[2777,3210],[26,115]],[[2841,3036],[-61,12]],[[2860,2528],[-69,45],[25,34]],[[2817,3905],[90,-57]],[[2820,2626],[63,92],[16,-18]],[[2830,3869],[16,-31]],[[2853,3530],[17,113]],[[2870,2405],[-3,-11]],[[2870,2405],[25,-30],[-13,-28]],[[2870,3246],[-21,19],[35,115],[40,-13]],[[2911,3482],[-9,24],[61,118],[-53,37],[-28,103]],[[2914,3837],[-3,1]],[[2926,2439],[15,9],[71,-101]],[[2936,2700],[41,65],[-36,76],[36,25]],[[3006,2260],[150,94],[90,8],[56,-28],[51,35],[159,3],[57,-37],[81,59]],[[3674,2452],[10,-17]],[[3715,2410],[8,0]],[[3975,2042],[35,35],[35,-31],[5,-79]],[[234,72],[-41,55],[32,29]],[[294,9],[39,14]],[[2975,2904],[-1,6]],[[2187,3068],[1,0]],[[2488,527],[1,0]],[[162,1143],[-1,-36]],[[355,1734],[-28,0]],[[418,1208],[-27,3]],[[2345,161],[-1,-9]],[[2344,150],[2,11]],[[2526,553],[1,0]],[[2527,554],[-1,-1]],[[483,2441],[-47,-6]],[[439,2436],[-3,0]],[[1728,3559],[14,-26],[30,-28]],[[1743,3533],[-15,26]],[[1772,3506],[-2,4]],[[3042,481],[0,2]],[[161,423],[-6,-2]],[[60,3153],[-9,5],[-51,18]],[[0,3168],[59,-15],[239,-221],[63,-45]],[[363,2886],[-295,261]],[[3803,1330],[34,15]],[[3837,1345],[-34,-14]],[[274,1212],[0,-2]],[[368,1708],[-9,21]],[[377,1654]],[[2965,497],[-3,-5]],[[1806,795],[36,53]],[[2278,836],[34,-113],[128,-131]],[[288,2478],[0,-1]],[[3008,494],[-8,2]],[[1710,3687],[2,-5]],[[2490,4079],[2,1]],[[2607,2514],[0,8]],[[2672,2482],[48,17],[42,-29]],[[2872,2515],[-12,13]],[[2925,3095],[-39,149]],[[2909,2466],[-17,31]],[[2924,3367],[6,76]],[[2969,2927],[-27,126]],[[2985,2249],[21,-6]],[[3768,2336],[-47,15],[-81,-20]],[[3775,2357],[168,-20],[11,-78],[36,-18]],[[483,2440],[3,-2]],[[1620,2350],[1,1]],[[2047,2210],[-9,0]],[[2057,2209],[-8,0]],[[2985,358],[-1,-1]],[[3500,640],[-13,-51],[-40,-12],[-19,-114],[-77,13],[-82,-37],[-164,18]],[[3108,299],[1,-1]],[[3118,106],[-6,-9]],[[3735,1355],[-72,-11],[-23,-35],[-115,-44],[-4,-32],[-75,-43],[-4,-69]],[[3483,998],[120,-182],[2,-80]],[[3513,688],[-2,-2]],[[3605,733],[-91,-45]],[[3605,736],[0,-3]],[[3735,1355],[1,1]],[[3736,1356],[-1,-1]],[[3739,1403],[-4,-44]],[[3735,1359],[1,-2]],[[3736,1357],[-1,2]],[[3939,1565],[18,31]],[[4096,1638],[-123,4],[-15,-44]],[[3737,1357],[-1,0],[0,-1],[1,0],[0,1]],[[165,423],[-4,0]],[[844,182],[-23,-11]],[[821,171],[-69,13],[-29,103],[-36,30],[-19,-48]],[[845,182],[23,-25],[40,26],[-9,29]],[[3042,483],[0,-2]],[[4096,1899],[-7,0]],[[3979,2163],[11,78]],[[1255,3768],[-2,0]],[[2968,503],[6,-3]],[[364,1696],[0,-2]],[[1579,180],[-4,-2]],[[1576,178],[3,2]],[[1579,180],[29,35]],[[1609,215],[28,30]],[[1643,248],[22,-14]],[[2277,836],[1,-2]],[[313,2473],[-7,1]],[[242,3848],[-2,53]],[[242,3848],[1,-2]],[[297,3777],[-54,69]],[[312,3777],[-15,0]],[[360,3775],[-48,2]],[[728,781],[2,-2]],[[731,779],[-2,2]],[[68,3147],[-8,6]],[[2171,0],[-2171,0],[0,4096],[4096,0],[0,-4096],[-1925,0]],[[0,0],[0,277],[35,-25],[88,1],[39,-65],[61,16],[166,-17],[57,-53],[171,-50],[43,-68],[113,-16],[-773,0]],[[791,0],[62,34],[51,-7],[36,48],[62,12],[56,-58],[-4,-29],[-263,0]],[[650,3411],[64,55],[76,-1],[-29,-3],[16,-11],[-19,-24],[40,-20],[-29,4],[-35,-36],[-13,17],[29,12],[-15,14],[-60,-47],[16,-21],[-35,8],[19,33],[-25,20]],[[707,3435],[6,-7],[1,-5],[0,6],[-5,10],[-2,-4]],[[994,3824],[4,62],[36,4],[-23,136],[131,-20],[57,-61],[-7,-77],[-163,-56],[-35,12]],[[4031,0],[12,37],[12,-25],[18,27],[-48,44],[68,38],[3,-121],[-65,0]],[[3592,144],[32,53],[-11,-44],[33,-16],[26,67],[55,15],[3,48],[27,18],[56,-14],[-71,-11],[34,-62],[-19,3],[-11,-42],[41,-49],[2,-55],[33,4],[6,-49],[-65,-10],[3,24],[-25,-13],[-19,44],[-42,-1],[-1,63],[-28,-43],[40,65],[-69,-19],[-30,24]],[[3545,1066],[12,50],[87,-12],[87,20],[55,92],[35,-26],[-47,-18],[3,-47],[-61,-56],[-59,5],[-71,-53],[-33,10],[-8,35]],[[3746,1474],[19,34],[-17,26],[58,72],[73,34],[-10,53],[66,40],[41,68],[-98,0],[34,33],[-27,37],[91,27],[10,-46],[41,-29],[59,43],[-20,-44],[-63,-30],[4,-52],[-43,-31],[-7,-111],[-30,-32],[-39,2],[-15,-132],[-52,-89],[-22,29],[43,66],[-3,70],[100,124],[-125,-57],[-30,-29],[-23,-107],[-15,31]],[[3460,511],[48,7],[10,97],[-26,37],[21,36],[197,77],[23,-20],[-17,-35],[18,-43],[59,-70],[90,44],[-13,-164],[25,-63],[-70,28],[22,-72],[-276,-43],[-56,41],[19,16],[-45,45],[15,20],[56,-3],[-19,79],[-28,8],[-4,-30],[-49,8]],[[925,505],[71,151],[57,-33],[53,22],[12,41],[100,-29],[36,48],[22,-67],[52,-25],[12,135],[-36,39],[65,-32],[53,33],[-12,-43],[27,32],[19,-35],[71,-25],[3,-64],[-59,-36],[10,-47],[90,-59],[-6,-42],[27,15],[38,-30],[8,-73],[-70,-54],[36,-35],[-18,-20],[-69,7],[25,27],[-49,55],[-29,-22],[-28,-107],[-44,-40],[-64,-23],[-52,41],[-100,-92],[-45,43],[25,106],[-41,-9],[-48,58],[-50,11],[-72,105],[-20,73]],[[2959,3034],[74,41],[-2,66],[-30,39],[0,38],[10,14],[62,-31],[4,-64],[41,17],[20,-19],[-13,-48],[88,-58],[29,15],[57,-69],[-29,-44],[96,-87],[-17,-1],[17,-27],[-35,6],[14,-22],[-34,2],[-8,-22],[59,-110],[-63,-11],[-4,43],[-77,-49],[-97,-16],[-121,31],[-4,99],[-19,-2],[28,44],[-37,118],[82,16],[-91,91]],[[430,3362],[53,87],[62,-30],[68,186],[134,23],[-42,29],[5,108],[-27,-1],[2,49],[56,-23],[136,81],[157,14],[-16,141],[124,-19],[60,-52],[-11,-179],[-25,-50],[54,20],[41,-20],[-26,-76],[20,-47],[-72,-26],[-5,-68],[-66,-53],[66,-118],[-5,-62],[-29,-5],[-25,66],[-113,-21],[-69,-44],[-85,-4],[-23,-87],[46,-81],[-12,-31],[42,-16],[-41,6],[-41,-145],[-77,-2],[-44,188],[53,-3],[4,30],[-206,179],[24,33],[-147,23]],[[360,1696],[83,11],[-29,12],[1,36],[196,-75],[-10,-58],[-33,-20],[39,-18],[-7,-119],[35,7],[43,-32],[-16,-52],[-20,0],[16,-39],[31,-6],[12,-126],[-46,-8],[16,-56],[-58,-34],[5,-95],[-34,-12],[78,-96],[111,-48],[-45,-88],[-105,46],[-53,-19],[-105,17],[12,20],[-108,193],[71,100],[-36,31],[1,37],[42,-24],[6,46],[75,-16],[-45,39],[-10,54],[52,28],[-50,90],[18,99],[-87,107],[23,33],[-69,35]],[[1355,1432],[0,63],[49,-9],[22,38],[-38,65],[22,20],[-11,72],[78,-76],[4,73],[48,32],[229,-53],[106,-246],[117,-129],[-15,-26],[38,-73],[3,-96],[-66,-85],[-112,-17],[-35,24],[-69,-45],[20,102],[-18,73],[-44,18],[-11,-29],[-52,25],[-8,33],[-62,-3],[-46,29],[-16,100],[-84,49],[-49,71]],[[3196,999],[53,-9],[13,69],[228,79],[219,7],[26,148],[67,29],[21,113],[2,140],[-44,-8],[7,36],[33,21],[19,104],[84,10],[49,57],[-63,30],[-6,38],[79,55],[32,-91],[44,-6],[-90,-109],[-11,-115],[-67,-78],[-11,-44],[35,-8],[-2,-24],[-85,-75],[29,-72],[82,-69],[27,-62],[-25,-17],[-145,22],[-13,-31],[24,-6],[-45,-47],[-236,-83],[-110,-13],[-7,-30],[-80,-30],[-63,47],[1,-136],[-51,27],[30,64],[-25,-2],[-25,69]],[[3924,529],[56,24],[-18,-64],[51,-14],[-7,-54],[-79,5],[-3,103]],[[2191,683],[25,103],[46,20],[32,-51],[-6,-46],[-35,-8],[31,-37],[27,24],[9,-25],[49,-11],[-96,-17],[20,-78],[63,26],[14,-19],[-30,-17],[22,-31],[126,11],[-54,-93],[-36,22],[-13,-28],[-61,36],[-69,-6],[-16,39],[18,29],[-25,12],[27,25],[-5,57],[-29,50],[28,21],[-62,-8]],[[805,3812],[72,59],[111,17],[5,-65],[31,-4],[9,-32],[-26,-27],[-38,15],[-52,-47],[-28,17],[35,42],[-119,25]],[[0,315],[19,8],[21,-29],[58,88],[106,-124],[60,9],[65,-25],[14,130],[37,16],[18,-14],[-18,-19],[47,1],[-1,30],[44,25],[-7,46],[63,29],[19,-51],[-65,-28],[14,-46],[-50,-65],[17,-137],[151,-11],[20,21],[62,-31],[49,51],[14,-39],[87,-12],[7,-84],[52,-17],[17,67],[58,-2],[9,24],[65,-40],[-18,-35],[-32,36],[-62,-12],[-36,-48],[-214,-23],[-50,25],[-24,56],[-169,48],[-60,54],[-163,17],[-62,-16],[-39,65],[-89,0],[-34,27],[0,35]],[[0,2831],[0,55],[125,93],[55,-65],[101,-23],[-16,-45],[-98,22],[-35,-114],[-57,29],[-25,-18],[-50,66]],[[0,3182],[0,352],[25,-14],[176,1],[163,-115],[-45,-139],[2,-145],[-39,-88],[-78,5],[-169,134],[-35,9]],[[3391,0],[19,39],[98,0],[-3,-39],[-114,0]],[[3009,640],[78,-84],[-24,-78],[-57,-26],[-146,0],[32,155],[53,-5],[64,38]],[[1954,39],[-24,130],[56,77],[0,52],[54,-38],[21,-88],[-24,-90],[-83,-43]],[[1922,2053],[-23,59],[87,147],[0,52],[212,-115],[15,-92],[-159,-3],[-132,-48]],[[2509,447],[28,-150],[-65,-51],[0,-104],[-32,0],[-33,-103],[-48,10],[-192,296],[-19,67],[33,92],[43,-8],[77,-129],[56,79],[76,31],[46,96],[58,34],[-28,-160]],[[887,813],[-12,-31],[-53,-20],[-32,-103],[-65,0],[-65,-104],[-22,19],[2,72],[39,22],[46,146],[32,0],[77,93],[53,10],[0,-104]],[[3723,2608],[42,-67],[1,-127],[-62,17],[-132,138],[19,33],[14,-33],[56,47],[62,-8]],[[2052,3292],[32,0],[46,-88],[116,-15],[-44,-163],[-49,-38],[-69,-6],[-33,258],[-129,-52],[-32,155],[119,68],[43,-16],[0,-103]],[[371,2564],[-2,-150],[-158,58],[-69,-6],[9,79],[171,114],[33,-16],[16,-79]],[[1963,58],[17,30],[60,-19],[61,-69],[-102,0],[-10,20],[34,6],[-23,15],[25,13],[-62,4]],[[2390,0],[32,21],[28,-21],[-60,0]],[[2715,0],[26,21],[-12,66],[83,10],[-3,71],[23,-11],[67,52],[37,-11],[9,-50],[35,1],[-4,-34],[53,-41],[-31,-38],[37,-30],[22,26],[38,-32],[-380,0]],[[3763,3572],[20,26],[53,-26],[96,33],[-12,48],[-66,28],[27,52],[99,20],[38,32],[44,-41],[-27,-12],[-6,-46],[67,-55],[0,-164],[-163,66],[25,-58],[-138,26],[7,30],[-64,41]],[[1981,1622],[5,6],[24,-40],[13,20],[54,-85],[33,-5],[-4,-28],[48,-26],[-42,-67],[-37,29],[26,24],[-14,28],[-37,15],[16,36],[-56,45],[-29,48]],[[1915,2196],[95,19],[-16,59],[30,21],[10,-17],[11,25],[-1,-19],[30,0],[-4,-25],[-47,-9],[1,-19],[23,18],[13,-16],[-29,-16],[85,-16],[82,24],[-9,-37],[25,-22],[-20,-34],[-31,0],[21,-56],[-44,18],[19,40],[-45,11],[43,34],[-36,17],[-5,-28],[-43,-10],[36,-67],[-78,12],[27,54],[-27,25],[-40,-113],[27,18],[-5,-27],[44,-8],[-4,-18],[-28,-25],[-33,21],[2,-33],[-34,-1],[33,45],[-17,24],[19,41],[-65,51],[17,30],[-32,9]],[[3091,2899],[16,77],[53,3],[7,-24],[12,29],[27,-5],[-1,-87],[-113,-27],[-1,34]],[[3176,2925],[1,-5],[20,0],[-10,1],[-11,4]]]}