{"objects":{"water":{"type":"GeometryCollection","geometries":[]},"buildings":{"type":"GeometryCollection","geometries":[]},"places":{"type":"GeometryCollection","geometries":[{"type":"Point","properties":{"name:mt":"\u017bagreb","name:az":"Zaqreb","name:ka":"\u10d6\u10d0\u10d2\u10e0\u10d4\u10d1\u10d8","name:mr":"\u091d\u093e\u0917\u094d\u0930\u0947\u092c","name:ko":"\uc790\uadf8\ub808\ube0c","name:cv":"\u0417\u0430\u0433\u0440\u0435\u0431","name:cu":"\ua640\u0430\u0433\u0440\u0454\u0431\u044a","name:ar":"\u0632\u063a\u0631\u0628","name:cs":"Z\u00e1h\u0159eb","name:co":"Zagabria","name:kv":"\u0417\u0430\u0433\u0440\u0435\u0431","name:th":"\u0e0b\u0e32\u0e40\u0e01\u0e23\u0e47\u0e1a","name:am":"\u12db\u130d\u122c\u1265","name:it":"Zagabria","name:tl":"Lungsod ng Zagreb","name:os":"\u0417\u0430\u0433\u0440\u0435\u0431","name:ru":"\u0417\u0430\u0433\u0440\u0435\u0431","name:pl":"Zagrzeb","name:ta":"\u0b9a\u0bbe\u0b95\u0bbf\u0bb0\u0bc7\u0baa\u0bcd","name:tg":"\u0417\u0430\u0433\u0440\u0435\u0431","name:mk":"\u0417\u0430\u0433\u0440\u0435\u0431","name:fa":"\u0632\u0627\u06af\u0631\u0628","name:hu":"Z\u00e1gr\u00e1b","kind_detail":"city","kind":"locality","id":1551865419,"source":"openstreetmap.org","name:kn":"\u0c9d\u0cbe\u0c97\u0ccd\u0cb0\u0cc6\u0cac\u0ccd","name:zh-yue":"\u85a9\u683c\u52d2\u5e03","name:zh":"\u85a9\u683c\u52d2\u5e03","name":"Zagreb","admin_level":"2","name:lv":"Zagreba","name:ja":"\u30b6\u30b0\u30ec\u30d6","name:lt":"Zagrebas","name:kk":"\u0417\u0430\u0433\u0440\u0435\u0431","name:he":"\u05d6\u05d2\u05e8\u05d1","name:sc":"Zag\u00e0bria","name:ga":"S\u00e1grab","name:ur":"\u0632\u063a\u0631\u0628","name:bn":"\u099c\u09be\u0997\u09b0\u09c7\u09ac","name:la":"Zagrabia","name:sk":"Z\u00e1hreb","name:uk":"\u0417\u0430\u0433\u0440\u0435\u0431","name:hy":"\u0536\u0561\u0563\u0580\u0565\u0562","country_capital":true,"name:be":"\u0417\u0430\u0433\u0440\u0430\u0431","name:ug":"Zagr\u00e9b","name:bg":"\u0417\u0430\u0433\u0440\u0435\u0431","name:wo":"Sagreb","name:sr":"\u0417\u0430\u0433\u0440\u0435\u0431","name:sq":"Zagrebi","population":688163,"name:el":"\u0396\u03ac\u03b3\u03ba\u03c1\u03b5\u03bc\u03c0","name:eo":"Zagrebo","old_name:de":"Agram","name:oc":"Zagr\u00e8b","min_zoom":8.0,"name:bo":"\u0f5b\u0f42\u0f0b\u0f62\u0f7a\u0f56\u0f0d","name:yi":"\u05d6\u05d0\u05d2\u05e8\u05e2\u05d1"},"coordinates":[1481,3014]},{"type":"Point","properties":{"source":"openstreetmap.org","kind":"locality","name":"Sesvete","kind_detail":"town","population":54085,"min_zoom":8.0,"id":4749133276},"coordinates":[1868,3078]},{"type":"Point","properties":{"kind":"locality","name":"Karlovac","alt_name:de":"Karlstadt;Carlstadt","kind_detail":"town","name:sr":"\u041a\u0430\u0440\u043b\u043e\u0432\u0430\u0446","source":"openstreetmap.org","min_zoom":8.0,"name:ru":"\u041a\u0430\u0440\u043b\u043e\u0432\u0430\u0446","name:hu":"K\u00e1rolyv\u00e1ros","id":341465590,"population":46833},"coordinates":[232,1671]},{"type":"Point","properties":{"name:el":"\u03a3\u03af\u03c3\u03b1\u03ba","kind":"locality","name":"Sisak","name:lt":"Sisakas","kind_detail":"town","id":408910962,"source":"openstreetmap.org","min_zoom":8.0,"name:la":"Siscia","name:sr":"\u0421\u0438\u0441\u0430\u043a","name:uk":"\u0421\u0456\u0441\u0430\u043a","name:ru":"\u0421\u0438\u0441\u0430\u043a","name:hu":"Sziszek","old_name:de":"Sissek","population":33322},"coordinates":[2641,1664]},{"type":"Point","properties":{"kind":"locality","name":"Velika Gorica","kind_detail":"town","name:sr":"\u0412\u0435\u043b\u0438\u043a\u0430 \u0413\u043e\u0440\u0438\u0446\u0430","source":"openstreetmap.org","min_zoom":8.0,"name:uk":"\u0412\u0435\u043b\u0438\u043a\u0430 \u0413\u043e\u0440\u0438\u0446\u044f","name:ru":"\u0412\u0435\u043b\u0438\u043a\u0430-\u0413\u043e\u0440\u0438\u0446\u0430","name:hu":"Nagygorica","id":330369640,"population":31553},"coordinates":[1748,2605]},{"type":"Point","properties":{"kind":"locality","name":"Bjelovar","name:lt":"Bjelovaras","kind_detail":"town","name:de":"Bellowar","source":"openstreetmap.org","min_zoom":8.0,"name:sr":"\u0411\u0458\u0435\u043b\u043e\u0432\u0430\u0440","name:ru":"\u0411\u044c\u0435\u043b\u043e\u0432\u0430\u0440","name:hu":"Belov\u00e1r","id":463204318,"population":27024},"coordinates":[4001,3371]},{"type":"Point","properties":{"source":"openstreetmap.org","kind":"locality","name":"Bosanska Dubica","kind_detail":"town","population":23074,"min_zoom":8.0,"id":843251087},"coordinates":[3900,376]},{"type":"Point","properties":{"kind":"locality","name":"Zapre\u0161i\u0107","name:lt":"Zapre\u0161i\u010dius","kind_detail":"town","name:sr":"\u0417\u0430\u043f\u0440\u0435\u0448\u0438\u045b","source":"openstreetmap.org","min_zoom":8.0,"name:ru":"\u0417\u0430\u043f\u0440\u0435\u0448\u0438\u0447","id":1605177300,"population":19644},"coordinates":[970,3208]},{"type":"Point","properties":{"kind":"locality","name":"Samobor","name:lt":"Samoboras","kind_detail":"town","source":"openstreetmap.org","min_zoom":8.0,"name:ru":"\u0421\u0430\u043c\u043e\u0431\u043e\u0440","name:hu":"Szamobor","id":2027048676,"population":15956},"coordinates":[706,2967]},{"type":"Point","properties":{"kind":"locality","name":"Petrinja","kind_detail":"town","name:de":"Petrinia","source":"openstreetmap.org","min_zoom":8.0,"name:it":"Petrinia","name:ru":"\u041f\u0435\u0442\u0440\u0438\u043d\u044f","name:sr":"\u041f\u0435\u0442\u0440\u0438\u045a\u0430","name:hu":"Petrinya","id":2228592112,"population":15683},"coordinates":[2361,1467]},{"type":"Point","properties":{"kind":"locality","name":"Kutina","kind_detail":"town","name:sr":"\u041a\u0443\u0442\u0438\u043d\u0430","source":"openstreetmap.org","min_zoom":8.0,"name:ru":"\u041a\u0443\u0442\u0438\u043d\u0430","id":307686225,"population":13735},"coordinates":[3808,1643]},{"type":"Point","properties":{"kind":"locality","old_name:de":"Kreutz","name":"Kri\u017eevci","kind_detail":"town","id":417180566,"source":"openstreetmap.org","min_zoom":8.0,"name:ru":"\u041a\u0440\u0438\u0436\u0435\u0432\u0446\u044b","name:hu":"K\u0151r\u00f6s","name:sr":"\u041a\u0440\u0438\u0436\u0435\u0432\u0446\u0438","name:mk":"\u041a\u0440\u0438\u0436\u0435\u0432\u0446\u0438","population":11231},"coordinates":[3137,3887]},{"type":"Point","properties":{"kind":"locality","name":"Dugo Selo","kind_detail":"town","name:sr":"\u0414\u0443\u0433\u043e \u0421\u0435\u043b\u043e","source":"openstreetmap.org","min_zoom":8.0,"name:ru":"\u0414\u0443\u0433\u043e-\u0421\u0435\u043b\u043e","id":614617920,"population":10453},"coordinates":[2240,2982]},{"type":"Point","properties":{"kind":"locality","name":"Ivani\u0107 Grad","kind_detail":"town","name:sr":"\u0418\u0432\u0430\u043d\u0438\u045b-\u0413\u0440\u0430\u0434","source":"openstreetmap.org","min_zoom":8.0,"name:ru":"\u0418\u0432\u0430\u043d\u0438\u0447-\u0413\u0440\u0430\u0434","name:hu":"Ivanicsv\u00e1r","id":556739325,"population":9379},"coordinates":[2701,2572]},{"type":"Point","properties":{"kind":"locality","name":"Kr\u0161ko","name:lt":"Kr\u0161kas","kind_detail":"town","name:de":"Gurkfeld","source":"openstreetmap.org","min_zoom":8.0,"name:ru":"\u041a\u0440\u0448\u043a\u043e","id":57082764,"population":7100},"coordinates":[72,3614]},{"type":"Point","properties":{"kind":"locality","name":"Bre\u017eice","name:lt":"Bre\u017eic\u0117s","kind_detail":"town","name:de":"Rann","source":"openstreetmap.org","min_zoom":8.0,"name:ru":"\u0411\u0440\u0435\u0436\u0438\u0446\u0435","id":53385278,"population":6600},"coordinates":[367,3396]},{"type":"Point","properties":{"kind":"locality","name":"Duga Resa","kind_detail":"town","name:sr":"\u0414\u0443\u0433\u0430 \u0420\u0435\u0441\u0430","source":"openstreetmap.org","min_zoom":8.0,"name:ru":"\u0414\u0443\u0433\u0430-\u0420\u0435\u0441\u0430","id":341466732,"population":6011},"coordinates":[84,1493]},{"type":"Point","properties":{"kind":"locality","name":"Jastrebarsko","kind_detail":"town","name:de":"Jaska","source":"openstreetmap.org","min_zoom":8.0,"name:sr":"\u0408\u0430\u0441\u0442\u0440\u0435\u0431\u0430\u0440\u0441\u043a\u043e","name:ru":"\u042f\u0441\u0442\u0440\u0435\u0431\u0430\u0440\u0441\u043a\u043e","name:hu":"Jasztrebarszka","id":341469076,"population":5493},"coordinates":[529,2412]},{"type":"Point","properties":{"kind":"locality","name":"Vrbovec","kind_detail":"town","name:sr":"\u0412\u0440\u0431\u043e\u0432\u0435\u0446","source":"openstreetmap.org","min_zoom":8.0,"name:ru":"\u0412\u0440\u0431\u043e\u0432\u0435\u0446","name:hu":"Verbovec","id":1568096743,"population":4947},"coordinates":[2765,3315]},{"type":"Point","properties":{"kind":"locality","name":"Glina","kind_detail":"town","name:sr":"\u0413\u043b\u0438\u043d\u0430","source":"openstreetmap.org","min_zoom":8.0,"name:ru":"\u0413\u043b\u0438\u043d\u0430","id":2808440038,"population":4680},"coordinates":[1812,1037]},{"type":"Point","properties":{"kind":"locality","name":"Popova\u010da","kind_detail":"town","source":"openstreetmap.org","min_zoom":8.0,"name:ru":"\u041f\u043e\u043f\u043e\u0432\u0430\u0447\u0430","id":496932869,"population":4207},"coordinates":[3374,2006]},{"type":"Point","properties":{"kind":"locality","name":"Oroslavje","kind_detail":"town","name:sr":"\u041e\u0440\u043e\u0441\u043b\u0430\u0432\u0458\u0435","source":"openstreetmap.org","min_zoom":8.0,"name:ru":"\u041e\u0440\u043e\u0441\u043b\u0430\u0432\u044c\u0435","id":1567235911,"population":3368},"coordinates":[1297,3776]},{"type":"Point","properties":{"kind":"locality","name":"\u010cazma","kind_detail":"town","name:sr":"\u0427\u0430\u0437\u043c\u0430","source":"openstreetmap.org","min_zoom":8.0,"name:ru":"\u0427\u0430\u0437\u043c\u0430","name:hu":"Cs\u00e1zma","id":556713833,"population":2801},"coordinates":[3344,2747]},{"type":"Point","properties":{"kind":"locality","name":"Sveti Ivan Zelina","kind_detail":"town","name:sr":"\u0421\u0432\u0435\u0442\u0438 \u0418\u0432\u0430\u043d \u0417\u0435\u043b\u0438\u043d\u0430","source":"openstreetmap.org","min_zoom":8.0,"name:ru":"\u0421\u0432\u0435\u0442\u0438-\u0418\u0432\u0430\u043d-\u0417\u0435\u043b\u0438\u043d\u0430","name:hu":"Szentiv\u00e1nzelina","id":480340577,"population":2764},"coordinates":[2255,3625]},{"type":"Point","properties":{"kind":"locality","name":"Zabok","kind_detail":"town","source":"openstreetmap.org","min_zoom":8.0,"name:ru":"\u0417\u0430\u0431\u043e\u043a","id":1946775557,"population":2714},"coordinates":[1268,3905]},{"type":"Point","properties":{"kind":"locality","name":"Senovo","kind_detail":"town","source":"openstreetmap.org","min_zoom":8.0,"name:ru":"\u0421\u0435\u043d\u043e\u0432\u043e","id":57092691,"population":2304},"coordinates":[23,3878]},{"type":"Point","properties":{"kind":"locality","name":"Donja Stubica","kind_detail":"town","name:sr":"\u0414\u043e\u045a\u0430 \u0421\u0442\u0443\u0431\u0438\u0446\u0430","source":"openstreetmap.org","min_zoom":8.0,"name:ru":"\u0414\u043e\u043d\u044f-\u0421\u0442\u0443\u0431\u0438\u0446\u0430","id":556616213,"population":2200},"coordinates":[1461,3710]},{"type":"Point","properties":{"kind":"locality","name":"Hrvatska Kostajnica","kind_detail":"town","name:sr":"\u0425\u0440\u0432\u0430\u0442\u0441\u043a\u0430 \u041a\u043e\u0441\u0442\u0430\u0458\u043d\u0438\u0446\u0430","source":"openstreetmap.org","min_zoom":8.0,"name:uk":"\u0425\u043e\u0440\u0432\u0430\u0442\u0441\u044c\u043a\u0430 \u041a\u043e\u0441\u0442\u0430\u0439\u043d\u0438\u0446\u044f","name:ru":"\u0425\u0440\u0432\u0430\u0442\u0441\u043a\u0430-\u041a\u043e\u0441\u0442\u0430\u0439\u043d\u0438\u0446\u0430","id":556741405,"population":2127},"coordinates":[3117,580]},{"type":"Point","properties":{"kind":"locality","name":"Slunj","kind_detail":"town","name:de":"Sluin","source":"openstreetmap.org","min_zoom":8.0,"name:sr":"\u0421\u043b\u0443\u045a","name:uk":"\u0421\u043b\u0443\u043d\u044c","name:ru":"\u0421\u043b\u0443\u043d\u044c","name:hu":"Szluin","id":1582702134,"population":1674},"coordinates":[346,107]},{"type":"Point","properties":{"kind":"locality","name":"Sveta Nedelja","kind_detail":"town","source":"openstreetmap.org","min_zoom":8.0,"name:ru":"\u0421\u0432\u0435\u0442\u0430 \u041d\u0435\u0434\u0435\u043b\u044f","id":529132234,"population":1338},"coordinates":[900,2946]},{"type":"Point","properties":{"kind":"locality","name":"Vojni\u0107","kind_detail":"town","source":"openstreetmap.org","min_zoom":8.0,"name:ru":"\u0412\u043e\u0439\u043d\u0438\u0447","id":1576529707,"population":1221},"coordinates":[661,986]},{"type":"Point","properties":{"kind":"locality","name":"Ozalj","kind_detail":"town","name:sr":"\u041e\u0437\u0430\u0459","source":"openstreetmap.org","min_zoom":8.0,"name:ru":"\u041e\u0437\u0430\u043b\u044c","name:hu":"Ozaly","id":556793111,"population":1181},"coordinates":[26,2180]},{"type":"Point","properties":{"kind":"locality","name":"Brestanica","kind_detail":"town","source":"openstreetmap.org","min_zoom":8.0,"name:ru":"\u0411\u0440\u0435\u0441\u0442\u0430\u043d\u0438\u0446\u0430","id":57092468,"population":939},"coordinates":[30,3777]},{"type":"Point","properties":{"kind":"locality","name":"Klanjec","kind_detail":"town","source":"openstreetmap.org","min_zoom":8.0,"name:ru":"\u041a\u043b\u0430\u043d\u0435\u0446","id":556746325,"population":567},"coordinates":[801,4003]},{"type":"Point","properties":{"source":"openstreetmap.org","kind":"locality","name":"Cerklje ob Krki","kind_detail":"town","population":237,"min_zoom":8.0,"id":2911803263},"coordinates":[150,3309]}]},"transit":{"type":"GeometryCollection","geometries":[{"type":"LineString","properties":{"kind":"train","name":"(Gyekenyes) \u2013 Dr\u017eavna granica \u2013 Botovo \u2013 Koprivnica \u2013 Dugo Selo","sort_rank":275,"source":"openstreetmap.org","min_zoom":6.0,"operator":"H\u017d Infrastruktura","ref":"IC","osm_relation":true,"network":"international"},"arcs":[12]},{"type":"LineString","properties":{"kind":"train","network":"regional","sort_rank":275,"source":"openstreetmap.org","min_zoom":6.0,"operator":"Hrvatske \u017deljeznice","ref":"ZG-MO","osm_relation":true,"name":"Zagreb Glavni Kolodvor - Moravice"},"arcs":[13]},{"type":"LineString","properties":{"source":"openstreetmap.org","kind":"train","name":"IC 311: Villach -> Zagreb","sort_rank":275,"ref":"IC 311","min_zoom":6.0,"osm_relation":true},"arcs":[14]},{"type":"LineString","properties":{"source":"openstreetmap.org","kind":"train","name":"EC 213: Villach -> Zagreb","sort_rank":275,"ref":"EC 213","min_zoom":6.0,"osm_relation":true},"arcs":[15]},{"type":"LineString","properties":{"kind":"train","network":"H\u017d ICN","service":"long_distance","sort_rank":275,"colour":"#9D9D9D","name":"ICN Zagreb-Split","source":"openstreetmap.org","min_zoom":5.0,"operator":"H\u017d","ref":"ICN","osm_relation":true,"colour_name":"darkseagreen"},"arcs":[16]},{"type":"MultiLineString","properties":{"kind":"train","network":"international","sort_rank":275,"source":"openstreetmap.org","min_zoom":6.0,"ref":"396, 397","osm_relation":true,"name":"Zagreb Glavni kolodvor \u2013 Sisak \u2013 Novska"},"arcs":[[17],[18]]},{"type":"MultiLineString","properties":{"kind":"train","name":"Zabok - Gornja Stubica","sort_rank":275,"source":"openstreetmap.org","min_zoom":6.0,"operator":"H\u017dPP","ref":"ZA - GS","osm_relation":true},"arcs":[[19],[20]]},{"type":"LineString","properties":{"kind":"train","network":"regional","sort_rank":275,"source":"openstreetmap.org","min_zoom":6.0,"ref":"396, 397","id":-1655010,"osm_relation":true,"name":"Sunja \u2013 Volinja \u2013 Dr\u017eavna granica \u2013 (Dobrljin)"},"arcs":[21]},{"type":"LineString","properties":{"kind":"train","network":"regional","sort_rank":275,"source":"openstreetmap.org","min_zoom":6.0,"operator":"H\u017d Infrastruktura","ref":"S","id":-1650415,"osm_relation":true,"name":"Zabok \u2013 Krapina \u2013 \u0110urmanec \u2013 Dr\u017eavna granica \u2013 (Rogatec)"},"arcs":[22]},{"type":"LineString","properties":{"kind":"train","network":"local","sort_rank":275,"source":"openstreetmap.org","min_zoom":6.0,"operator":"H\u017d Infrastruktura","ref":"R","id":-1649817,"osm_relation":true,"name":"Kri\u017eevci \u2013 Bjelovar \u2013 Klo\u0161tar"},"arcs":[23]},{"type":"MultiLineString","properties":{"kind":"train","name":"Harmica - Dugo Selo","sort_rank":275,"source":"openstreetmap.org","min_zoom":6.0,"operator":"H\u017dPP","ref":"HA - DS","osm_relation":true},"arcs":[[24],[25],[26],[27],[28],[29],[30],[31]]},{"type":"MultiLineString","properties":{"kind":"train","network":"regional","sort_rank":275,"source":"openstreetmap.org","min_zoom":6.0,"operator":"H\u017dPP","ref":"ZG - \u010cA","osm_relation":true,"name":"Zagreb \u2013 \u010cakovec"},"arcs":[[32],[33]]},{"type":"LineString","properties":{"kind":"train","name":"Pruga HR - Bosanski Novi - Biha\u0107 - HR - Kulen Vakuf - HR - Bosanski Osredci - HR - Bosanski Drenovac - HR","sort_rank":275,"source":"openstreetmap.org","min_zoom":6.0,"operator":"\u017dFBIH;\u017dRS","ref":"17","id":-2676373,"osm_relation":true},"arcs":[34]},{"type":"LineString","properties":{"kind":"train","network":"international","sort_rank":275,"source":"openstreetmap.org","min_zoom":6.0,"operator":"H\u017d Infrastruktura","ref":"M202","osm_relation":true,"name":"Zagreb Glavni kolodvor \u2013 Karlovac \u2013 Rijeka"},"arcs":[35]},{"type":"MultiLineString","properties":{"kind":"train","name":"Dugo Selo \u2013 Novska","sort_rank":275,"source":"openstreetmap.org","min_zoom":6.0,"ref":"S","osm_relation":true,"network":"international"},"arcs":[[36],[37]]}]},"pois":{"type":"GeometryCollection","geometries":[{"type":"Point","properties":{"kind":"military","name:en":"Military Training Area \"Eugen Kvaternik\"","name":"Vojni poligon \"Eugen Kvaternik\"","area":444703000,"name:de":"Truppen\u00fcbungsplatz \u201eEugen Kvaternik\u201c","source":"openstreetmap.org","min_zoom":8.0,"tier":3,"id":186706171,"name:mk":"\u0412\u043e\u0435\u043d \u041f\u043e\u043b\u0438\u0433\u043e\u043d \"\u0408\u043e\u0436\u0435\u043d \u041a\u0432\u0430\u0442\u0435\u0440\u043d\u0438\u043a\""},"coordinates":[85,34]},{"type":"Point","properties":{"source":"openstreetmap.org","kind":"nature_reserve","name":"Park prirode Lonjsko polje","area":1052270000,"tier":2,"min_zoom":7.27,"id":422036762},"coordinates":[3939,1133]},{"type":"Point","properties":{"kind":"nature_reserve","protect_class":"4","area":359124000,"name:de":"Naturpark Medvednica","source":"openstreetmap.org","min_zoom":8.05,"tier":2,"id":435626488,"name":"Park prirode Medvednica"},"coordinates":[1423,3390]},{"type":"Point","properties":{"source":"openstreetmap.org","kind":"military","name":"Vojni poligon \"Cerovac\"","area":10260000,"tier":3,"min_zoom":8.0,"id":506748800},"coordinates":[481,1474]}]},"boundaries":{"type":"GeometryCollection","geometries":[{"type":"MultiLineString","properties":{"name:right:yo":"Kroat\u00ed\u00e0","name:right:yi":"\u05e7\u05e8\u05d0\u05d0\u05d8\u05d9\u05e2","name:left:la":"Bosnia et Herzegovina","name:right:qu":"Hurwatsuyu","name:left:li":"Bosni\u00eb en Herzegovina","name:left:vi":"Bosna v\u00e0 Hercegovina","name:left:kg":"Bosna","name:left:ka":"\u10d1\u10dd\u10e1\u10dc\u10d8\u10d0 \u10d3\u10d0 \u10f0\u10d4\u10e0\u10ea\u10d4\u10d2\u10dd\u10d5\u10d8\u10dc\u10d0","name:left:kl":"Bosnia-Hercegovina","name:left:ko":"\ubcf4\uc2a4\ub2c8\uc544 \ud5e4\ub974\uccb4\uace0\ube44\ub098","name:left:kn":"\u0cac\u0cca\u0cb8\u0ccd\u0ca8\u0cbf\u0caf \u0cae\u0ca4\u0ccd\u0ca4\u0cc1 \u0cb9\u0cc6\u0cb0\u0ccd\u0c9c\u0cc6\u0c97\u0cca\u0cb5\u0cbf\u0ca8","name:right:is":"Kr\u00f3at\u00eda","name:right:rw":"Korowatiya","name:left:kk":"\u0411\u043e\u0441\u043d\u0438\u044f \u0436\u04d9\u043d\u0435 \u0413\u0435\u0440\u0446\u0435\u0433\u043e\u0432\u0438\u043d\u0430","name:left:rm":"Bosnia-Erzegovina","name:left:ku":"Bosniya \u00fb Herzegov\u00eena","name:left:kw":"Bosni\u2013Hercegovina","name:left:kv":"\u0411\u043e\u0441\u043d\u0438\u044f \u0434\u0430 \u0413\u0435\u0440\u0446\u0435\u0433\u043e\u0432\u0438\u043d\u0430","name:right:rn":"Croacia","name:left:rw":"Bosiniya na Herizegovina","name:left:ru":"\u0411\u043e\u0441\u043d\u0438\u044f \u0438 \u0413\u0435\u0440\u0446\u0435\u0433\u043e\u0432\u0438\u043d\u0430","name:right:ie":"Croatia","name:right:id":"Kroasia","name:right:ia":"Croatia","name:right:bi":"Croatia","name:right:bn":"\u0995\u09cd\u09b0\u09cb\u09af\u09bc\u09c7\u09b6\u09bf\u09af\u09bc\u09be","name:right:bo":"\u0f41\u0f74\u0f62\u0f7c\u0f0b\u0f64\u0f72\u0f0b\u0f61\u0f0d","name:left:sl":"Bosna in Hercegovina","name:right:ba":"\u0425\u043e\u0440\u0432\u0430\u0442\u0438\u044f","name:right:bg":"\u0425\u044a\u0440\u0432\u0430\u0442\u0438\u044f","name:right:be":"\u0425\u0430\u0440\u0432\u0430\u0442\u044b\u044f","name:right:br":"Kroatia","name:left:lt":"Bosnija ir Hercegovina","name:right:nn":"Kroatia","name:right:no":"Kroatia","name:right:nl":"Kroati\u00eb","name:right:wa":"Crowaceye","name:left:lv":"Bosnija un Hercegovina","name:right:wo":"Korwaasi","name:right:ne":"\u0915\u094d\u0930\u094b\u090f\u0936\u093f\u092f\u093e","name:right:na":"Kroaitsiya","name:right:gv":"Yn Chroit","name:right:nv":"Kw\u00f3\u00f3\u02bcad Bik\u00e9yah","kind_detail":"2","name:left:tr":"Bosna-Hersek","name:right:gu":"\u0a95\u0acd\u0ab0\u0acb\u0a8f\u0ab6\u0abf\u0aaf\u0abe","name:right:ps":"\u06a9\u0631\u0648\u0648\u0627\u0633\u064a\u0627","name:right:pt":"Cro\u00e1cia","name:left:mi":"P\u014dngia-Herek\u014dmina","name:left:tt":"\u0411\u043e\u0441\u043d\u0438\u044f \u04bb\u04d9\u043c \u0413\u0435\u0440\u0446\u0435\u0433\u043e\u0432\u0438\u043d\u0430","name:left:mn":"\u0411\u043e\u0441\u043d\u0438 \u0431\u0430 \u0425\u0435\u0440\u0446\u0435\u0433\u043e\u0432\u0438\u043d\u0430","name:left:ml":"\u0d2c\u0d4b\u0d38\u0d4d\u0d28\u0d3f\u0d2f \u0d39\u0d46\u0d7c\u0d38\u0d46\u0d17\u0d4b\u0d35\u0d3f\u0d28","name:left:th":"\u0e1b\u0e23\u0e30\u0e40\u0e17\u0e28\u0e1a\u0e2d\u0e2a\u0e40\u0e19\u0e35\u0e22\u0e41\u0e25\u0e30\u0e40\u0e2e\u0e2d\u0e23\u0e4c\u0e40\u0e0b\u0e42\u0e01\u0e27\u0e35\u0e19\u0e32","name:right:pa":"\u0a15\u0a4d\u0a30\u0a4b\u0a0f\u0a38\u0a3c\u0a40\u0a06","name:left:tk":"Bosni\u00fda we Gersegowina","name:left:tl":"Bosnia at Herzegovina","name:left:mt":"Bo\u017cnija u \u0126er\u017cegovina","name:right:gl":"Croacia","name:left:my":"\u1018\u1031\u102c\u1037\u1005\u1014\u102e\u1038\u101a\u102c\u1038\u1014\u103e\u1004\u1037\u103a \u101f\u102c\u1007\u102e\u1002\u102d\u102f\u1017\u102e\u1038\u1014\u102c\u1038\u1014\u102d\u102f\u1004\u103a\u1004\u1036","name:right:gn":"Kyoasia","name:right:pl":"Chorwacja","name:left:te":"\u0c2c\u0c4b\u0c38\u0c4d\u0c28\u0c3f\u0c2f\u0c3e \u0c2e\u0c30\u0c3f\u0c2f\u0c41 \u0c39\u0c46\u0c30\u0c4d\u0c1c\u0c46\u0c17\u0c4a\u0c35\u0c40\u0c28\u0c3e","name:left:tg":"\u0411\u043e\u0441\u043d\u0438\u044f \u0432\u0430 \u04b2\u0435\u0440\u0441\u0435\u0433\u043e\u0432\u0438\u043d\u0430","name:left:ms":"Bosnia dan Herzegovina","name:left:mr":"\u092c\u0949\u0938\u094d\u0928\u093f\u092f\u093e \u0906\u0923\u093f \u0939\u0930\u094d\u091d\u0917\u094b\u0935\u094d\u0939\u093f\u0928\u093e","name:left:da":"Bosnien-Hercegovina","name:left:de":"Bosnien und Herzegowina","name:right:ga":"An Chr\u00f3it","name:left:dv":"\u0784\u07ae\u0790\u07b0\u0782\u07a8\u0794\u07a7 \u0787\u07ac\u0782\u07b0\u0791\u07b0 \u0780\u07ac\u0783\u07b0\u0792\u07a8\u078e\u07ae\u0788\u07a9\u0782\u07a7","name:right:ug":"\u0643\u0631\u0648\u062f\u0649\u064a\u06d5","name:left:hi":"\u092c\u0949\u0938\u094d\u0928\u093f\u092f\u093e \u0914\u0930 \u0939\u0930\u094d\u091c\u093c\u0947\u0917\u094b\u0935\u093f\u0928\u093e","name:right:lb":"Kroatien","name:right:uk":"\u0425\u043e\u0440\u0432\u0430\u0442\u0456\u044f","name:left:he":"\u05d1\u05d5\u05e1\u05e0\u05d9\u05d4 \u05d5\u05d4\u05e8\u05e6\u05d2\u05d5\u05d1\u05d9\u05e0\u05d4","name:right:ln":"Kroasia","name:right:li":"Kroati\u00eb","name:right:lt":"Kroatija","name:right:ur":"\u06a9\u0631\u0648\u0634\u06cc\u0627","name:right:lv":"Horv\u0101tija","name:left:hy":"\u0532\u0578\u057d\u0576\u056b\u0561 \u0587 \u0540\u0565\u0580\u0581\u0565\u0563\u0578\u057e\u056b\u0576\u0561","name:left:ta":"\u0baa\u0bca\u0b9a\u0bc1\u0ba9\u0bbf\u0baf\u0bbe \u0b8e\u0bb0\u0bcd\u0b9a\u0bc6\u0b95\u0bcb\u0bb5\u0bbf\u0ba9\u0bbe","name:left:ht":"Bosni ak Erzegovin","name:left:hu":"Bosznia-Hercegovina","name:left:hr":"Bosna i Hercegovina","sort_rank":262,"name:right:gd":"Cro\u00e0isia","name:right:os":"\u0425\u043e\u0440\u0432\u0430\u0442\u0438","name:right:es":"Croacia","name:right:sr":"\u0425\u0440\u0432\u0430\u0442\u0441\u043a\u0430","name:right:eu":"Kroazia","name:right:et":"Horvaatia","name:left:os":"\u0411\u043e\u0441\u043d\u0438 \u00e6\u043c\u00e6 \u0413\u0435\u0440\u0446\u0435\u0433\u043e\u0432\u0438\u043d\u00e6","name:left:or":"\u0b2c\u0b4b\u0b38\u0b28\u0b3f\u0b06 \u0b13 \u0b39\u0b30\u0b1c\u0b17\u0b4b\u0b2d\u0b3f\u0b28\u0b3e","name:right:ee":"Croatia","name:left:vo":"Bosn\u00e4n e H\u00e4rzegov\u00e4n","name:left:oc":"B\u00f2snia e Ercegovina","name:right:eo":"Kroatujo","name:right:en":"Croatia","name:right:el":"\u039a\u03c1\u03bf\u03b1\u03c4\u03af\u03b1","name:left:ff":"Bosniya","name:left:fa":"\u0628\u0648\u0633\u0646\u06cc \u0648 \u0647\u0631\u0632\u06af\u0648\u06cc\u0646","name:left:ia":"Bosnia e Herzegovina","name:left:fo":"Bosnia og Hersegovina","name:right:sk":"Chorv\u00e1tsko","name:left:fi":"Bosnia ja Hertsegovina","name:left:fr":"Bosnie-Herz\u00e9govine","name:right:jv":"Kroasia","name:left:fy":"Bosnje","name:right:ja":"\u30af\u30ed\u30a2\u30c1\u30a2","name:right:sq":"Kroacia","name:right:ss":"IKhuroshiya","name:left:ja":"\u30dc\u30b9\u30cb\u30a2\u30fb\u30d8\u30eb\u30c4\u30a7\u30b4\u30d3\u30ca","name:right:su":"Kroasia","name:right:st":"Kroatia","name:right:sw":"Kroatia","name:right:sv":"Kroatien","name:left:qu":"Busna-Hirsiquwina","name:right:sm":"Croatia","name:right:sl":"Hrva\u0161ka","name:right:so":"Kroatia","name:right:sa":"\u0915\u094d\u0930\u094b\u090f\u0936\u093f\u092f\u093e","name:right:sc":"Croatzia","name:left:jv":"Bosnia-Herzegovina","id":-2528142,"name:right:sg":"Kroas\u00efi","name:right:ca":"Cr\u00f2acia","name:right:se":"Kroatia","name:right:ce":"\u0425\u043e\u0440\u0432\u0430\u0442\u0438","name:right:cy":"Croatia","name:right:zh-yue":"\u514b\u7f85\u5730\u4e9e","name:right:cs":"Chorvatsko","name:right:cu":"\u0425\u0440\u044a\u0432\u0430\u0442\u044c\u0441\u043a\u0430","name:right:it":"Croazia","name:left:ar":"\u0627\u0644\u0628\u0648\u0633\u0646\u0629 \u0648\u0627\u0644\u0647\u0631\u0633\u0643","name:left:az":"Bosniya v\u0259 Herseqovina","name:left:ro":"Bosnia \u0219i Her\u021begovina","name:left:af":"Bosni\u00eb-Herzegowina","name:left:an":"Bosnia y Herzegovina","name:left:am":"\u1266\u1235\u1292\u12eb\u1293 \u1204\u122d\u1338\u130e\u126a\u1293","name:right:ru":"\u0425\u043e\u0440\u0432\u0430\u0442\u0438\u044f","name:right:io":"Kroatia","name:left:zh-yue":"\u6ce2\u65af\u5c3c\u4e9e","name:right:ro":"Croa\u021bia","name:right:hy":"\u053d\u0578\u0580\u057e\u0561\u0569\u056b\u0561","name:left:lb":"Bosnien-Herzegowina","alt_name:left:eo":"Bosnio kaj Hercegovino","name:left:su":"Bosnia jeung H\u00e9rz\u00e9govina","int_name:left":"Bosnia and Herzegovina","name:left:sw":"Bosnia na Herzegovina","name:left:sv":"Bosnien och Hercegovina","name:left:sq":"Bosnja dhe Hercegovina","name:right:hu":"Horv\u00e1torsz\u00e1g","name:left:ln":"Bosnia na Erzegovina","name:left:sr":"\u0411\u043e\u0441\u043d\u0430 \u0438 \u0425\u0435\u0440\u0446\u0435\u0433\u043e\u0432\u0438\u043d\u0430","name:left:sm":"Bosnia ma Herzegovina","name:right:hi":"\u0915\u094d\u0930\u094b\u090f\u0936\u093f\u092f\u093e","name:left:so":"Bosniya","name:left:si":"\u0db6\u0ddc\u0dc3\u0dca\u0db1\u0dd2\u0dba\u0dcf \u0dc3\u0dc4 \u0dc4\u0dbb\u0dca\u0dc3\u0d9c\u0ddd\u0dc0\u0dd2\u0db1\u0dcf","name:left:sh":"Bosna i Hercegovina","name:left:sk":"Bosna a Hercegovina","name:left:se":"Bosnia ja Hercegovina","name:left:sa":"\u092c\u093e\u0938\u094d\u0928\u093f\u092f\u093e","name:right:he":"\u05e7\u05e8\u05d5\u05d0\u05d8\u05d9\u05d4","name:left:sc":"B\u00f2snia Erzegovina","name:right:la":"Croatia","name:right:af":"Kroasi\u00eb","name:left:co":"Bosnia \u00e8 Erzegovina","name:right:ab":"\u0425\u043e\u0440\u0432\u0430\u0442\u0438\u0430","name:left:ce":"\u0411\u043e\u0441\u043d\u0438 \u0430 \u0413\u0435\u0440\u0446\u0435\u0433\u043e\u0432\u0438\u043d\u0430","name:right:an":"Croacia","name:right:am":"\u12ad\u122e\u12a4\u123d\u12eb","name:left:ca":"B\u00f2snia i Hercegovina","source":"openstreetmap.org","name:left:cy":"Bosnia a Hercegovina","name:right:ar":"\u0643\u0631\u0648\u0627\u062a\u064a\u0627","name:left:cu":"\u0411\u043e\u0441\u043d\u0430","name:left:cv":"\u0411\u043e\u0441\u043d\u0438 \u0442\u0430\u0442\u0430 \u0413\u0435\u0440\u0446\u0435\u0433\u043e\u0432\u0438\u043d\u0430","name:right:az":"Xorvatiya","name:left:cs":"Bosna a Hercegovina","name":"Bosna i Hercegovina \/ \u0411\u043e\u0441\u043d\u0430 \u0438 \u0425\u0435\u0440\u0446\u0435\u0433\u043e\u0432\u0438\u043d\u0430 - Hrvatska","name:left:zh":"\u6ce2\u65af\u5c3c\u4e9e\u548c\u9ed1\u585e\u54e5\u7dad\u90a3","name:right:za":"Gwzlozdiya","name:right:zh":"\u514b\u7f85\u5730\u4e9e","official_name:left":"Bosna i Hercegovina","name:left:uz":"Bosniya va Gersegovina","name:right:fr":"Croatie","name:left:nv":"Bosna d\u00f3\u00f3 Hetsog Bik\u00e9yah","name:left:ur":"\u0628\u0648\u0633\u0646\u06cc\u0627 \u0648 \u06c1\u0631\u0632\u06cc\u06af\u0648\u0648\u06cc\u0646\u0627","id:right":-214885,"name:left:uk":"\u0411\u043e\u0441\u043d\u0456\u044f \u0456 \u0413\u0435\u0440\u0446\u0435\u0433\u043e\u0432\u0438\u043d\u0430","name:left:no":"Bosnia-Hercegovina","name:left:nl":"Bosni\u00eb en Herzegovina","alt_name:right:eo":"Kroatio","name:right:fa":"\u06a9\u0631\u0648\u0627\u0633\u06cc","name:right:fo":"Kroatia","name:left:ne":"\u092c\u094b\u0938\u094d\u0928\u093f\u092f\u093e \u0930 \u0939\u0930\u094d\u091c\u0917\u094b\u092d\u093f\u0928\u093e","name:left:ug":"\u0628\u0648\u0633\u0646\u0649\u064a\u06d5 \u06cb\u06d5 \u06be\u06d0\u0631\u0633\u06d0\u06af\u0648\u06cb\u0649\u0646\u0627","name:left:na":"Boteniya me Erdegobina","name:left:eo":"Bosnujo kaj Hercegovino","name:left:en":"Bosnia and Herzegovina","name:left:el":"\u0392\u03bf\u03c3\u03bd\u03af\u03b1 \u03ba\u03b1\u03b9 \u0395\u03c1\u03b6\u03b5\u03b3\u03bf\u03b2\u03af\u03bd\u03b7","name:left:ee":"Bosnia and Herzegovina","name:left:pl":"Bo\u015bnia i Hercegowina","name:left:es":"Bosnia y Herzegovina","name:left:ss":"IBhosinya ne Hezegovi","name:left:ie":"Bosnia e Herzegovina","name:left:eu":"Bosnia and Herzegovina","name:left:et":"Bosnia ja Hertsegoviina","name:right:oc":"Cro\u00e0cia","name:right:ko":"\ud06c\ub85c\uc544\ud2f0\uc544","name:right:uz":"Xorvatiya","osm_relation":true,"name:right:or":"\u0b15\u0b4d\u0b30\u0b4b\u0b0f\u0b38\u0b3f\u0b06","name:left:pt":"B\u00f3snia e Herzegovina","name:right:ku":"Kroatya","name:right:kv":"\u0425\u043e\u0440\u0432\u0430\u0442\u0438\u044f","name:left:gl":"Bosnia e Hercegovina","min_zoom":8.0,"name:left:zh-min-nan":"Bosna kap Hercegovina","name:left:wo":"Bosni","name:left:ga":"An Bhoisnia-Heirseagaiv\u00e9in","name:left:it":"Bosnia ed Erzegovina","name:left:gd":"Bosna agus Hearsagobhana","int_name:right":"Croatia","name:left:gn":"Vonia ha Hesegovina","name:left:gv":"Bosnia as Herzegovina","official_name:right":"Republika Hrvatska","name:left":"Bosna i Hercegovina \/ \u0411\u043e\u0441\u043d\u0430 \u0438 \u0425\u0435\u0440\u0446\u0435\u0433\u043e\u0432\u0438\u043d\u0430","name:right:mk":"\u0425\u0440\u0432\u0430\u0442\u0441\u043a\u0430","name:right:mi":"Koro\u0101tia","name:right:mn":"\u0425\u043e\u0440\u0432\u0430\u0442","name:right:ml":"\u0d15\u0d4d\u0d30\u0d4a\u0d2f\u0d47\u0d37\u0d4d\u0d2f","name:right:vo":"Kroas\u00e4n","name:right:vi":"Croatia","name:right:my":"\u1001\u101b\u102d\u102f\u1021\u1031\u1038\u101b\u103e\u102c\u1038\u1014\u102d\u102f\u1004\u103a\u1004\u1036","name:right:ms":"Croatia","name:right:mr":"\u0915\u094d\u0930\u094b\u090f\u0936\u093f\u092f\u093e","name:right:fy":"Kroaasje","name:right:mt":"Kroazja","name:left:nn":"Bosnia-Hercegovina","kind":"country","name:left:br":"Bosnia-ha-Herzegovina","name:left:bs":"Bosna i Hercegovina","name:left:bg":"\u0411\u043e\u0441\u043d\u0430 \u0438 \u0425\u0435\u0440\u0446\u0435\u0433\u043e\u0432\u0438\u043d\u0430","name:left:be":"\u0411\u043e\u0441\u043d\u0456\u044f \u0456 \u0413\u0435\u0440\u0446\u0430\u0433\u0430\u0432\u0456\u043d\u0430","name:left:bi":"Bosnia & Herzegovina","name:left:bn":"\u09ac\u09b8\u09a8\u09bf\u09af\u09bc\u09be \u0993 \u09b9\u09be\u09b0\u09cd\u099c\u09c7\u0997\u09cb\u09ad\u09bf\u09a8\u09be","name:left:bo":"\u0f56\u0fb7\u0f7c\u0f66\u0f74\u0f0b\u0f53\u0f72\u0f61\u0f0b\u0f51\u0f44\u0f0b\u0f67\u0f62\u0f0b\u0f5b\u0f7a\u0f0b\u0f42\u0fb7\u0f7c\u0f0b\u0f5d\u0f72\u0f0b\u0f53\u0f0d","name:right":"Hrvatska","name:left:yo":"B\u00f3sn\u00ed\u00e0 \u00e0ti H\u1eb9rj\u1eb9g\u00f2f\u00edn\u00e0","name:left:yi":"\u05d1\u05d0\u05e1\u05e0\u05d9\u05e2 \u05d0\u05d5\u05df \u05d4\u05e2\u05e8\u05e6\u05e2\u05d2\u05d0\u05d5\u05d5\u05d9\u05e0\u05e2","id:left":-2528142,"name:right:fi":"Kroatia","name:right:ka":"\u10ee\u10dd\u10e0\u10d5\u10d0\u10e2\u10d8\u10d0","name:left:io":"Bosnia e Herzegovina","name:left:pa":"\u0a2c\u0a4b\u0a38\u0a28\u0a40\u0a06 \u0a05\u0a24\u0a47 \u0a39\u0a30\u0a1c\u0a3c\u0a47\u0a17\u0a4b\u0a35\u0a40\u0a28\u0a3e","name:right:kg":"Kroatia","name:right:tt":"\u0425\u043e\u0440\u0432\u0430\u0442\u0438\u044f","name:right:kk":"\u0425\u043e\u0440\u0432\u0430\u0442\u0438\u044f","name:left:id":"Bosnia dan Herzegovina","name:right:kl":"Kroatia","name:right:tr":"H\u0131rvatistan","name:right:kn":"\u0c95\u0ccd\u0cb0\u0cca\u0caf\u0cc6\u0cb6\u0cbf\u0caf","name:right:tl":"Kroasya","name:right:th":"\u0e1b\u0e23\u0e30\u0e40\u0e17\u0e28\u0e42\u0e04\u0e23\u0e40\u0e2d\u0e40\u0e0a\u0e35\u0e22","name:right:kw":"Kroati","name:right:tk":"Horwati\u00fda","name:right:ky":"\u0425\u043e\u0440\u0432\u0430\u0442\u0438\u044f","name:right:te":"\u0c15\u0c4d\u0c30\u0c4a\u0c2f\u0c47\u0c37\u0c3f\u0c2f\u0c3e","name:right:tg":"\u0425\u043e\u0440\u0432\u0430\u0442\u0438\u044f","name:left:is":"Bosn\u00eda og Herseg\u00f3v\u00edna","name:right:ta":"\u0b95\u0bc1\u0bb0\u0bcb\u0bb5\u0bbe\u0b9a\u0bbf\u0baf\u0bbe","name:right:de":"Kroatien","name:right:da":"Kroatien","name:right:dv":"\u0786\u07aa\u0783\u07ae\u0787\u07ad\u079d\u07a8\u0787\u07a7","name:right:ht":"Kroasi"},"arcs":[[0],[1]]},{"type":"MultiLineString","properties":{"name:right:yo":"Kroat\u00ed\u00e0","name:right:yi":"\u05e7\u05e8\u05d0\u05d0\u05d8\u05d9\u05e2","name:left:la":"Bosnia et Herzegovina","name:right:qu":"Hurwatsuyu","name:left:li":"Bosni\u00eb en Herzegovina","name:left:vi":"Bosna v\u00e0 Hercegovina","name:left:kg":"Bosna","name:left:ka":"\u10d1\u10dd\u10e1\u10dc\u10d8\u10d0 \u10d3\u10d0 \u10f0\u10d4\u10e0\u10ea\u10d4\u10d2\u10dd\u10d5\u10d8\u10dc\u10d0","name:left:kl":"Bosnia-Hercegovina","name:left:ko":"\ubcf4\uc2a4\ub2c8\uc544 \ud5e4\ub974\uccb4\uace0\ube44\ub098","name:left:kn":"\u0cac\u0cca\u0cb8\u0ccd\u0ca8\u0cbf\u0caf \u0cae\u0ca4\u0ccd\u0ca4\u0cc1 \u0cb9\u0cc6\u0cb0\u0ccd\u0c9c\u0cc6\u0c97\u0cca\u0cb5\u0cbf\u0ca8","name:right:is":"Kr\u00f3at\u00eda","name:right:rw":"Korowatiya","name:left:kk":"\u0411\u043e\u0441\u043d\u0438\u044f \u0436\u04d9\u043d\u0435 \u0413\u0435\u0440\u0446\u0435\u0433\u043e\u0432\u0438\u043d\u0430","name:left:rm":"Bosnia-Erzegovina","name:left:ku":"Bosniya \u00fb Herzegov\u00eena","name:left:kw":"Bosni\u2013Hercegovina","name:left:kv":"\u0411\u043e\u0441\u043d\u0438\u044f \u0434\u0430 \u0413\u0435\u0440\u0446\u0435\u0433\u043e\u0432\u0438\u043d\u0430","name:right:rn":"Croacia","name:left:rw":"Bosiniya na Herizegovina","name:left:ru":"\u0411\u043e\u0441\u043d\u0438\u044f \u0438 \u0413\u0435\u0440\u0446\u0435\u0433\u043e\u0432\u0438\u043d\u0430","name:right:ie":"Croatia","name:right:id":"Kroasia","name:right:ia":"Croatia","name:right:bi":"Croatia","name:right:bn":"\u0995\u09cd\u09b0\u09cb\u09af\u09bc\u09c7\u09b6\u09bf\u09af\u09bc\u09be","name:right:bo":"\u0f41\u0f74\u0f62\u0f7c\u0f0b\u0f64\u0f72\u0f0b\u0f61\u0f0d","name:left:sl":"Bosna in Hercegovina","name:right:ba":"\u0425\u043e\u0440\u0432\u0430\u0442\u0438\u044f","name:right:bg":"\u0425\u044a\u0440\u0432\u0430\u0442\u0438\u044f","name:right:be":"\u0425\u0430\u0440\u0432\u0430\u0442\u044b\u044f","name:right:br":"Kroatia","name:left:lt":"Bosnija ir Hercegovina","name:right:nn":"Kroatia","name:right:no":"Kroatia","name:right:nl":"Kroati\u00eb","name:right:wa":"Crowaceye","name:left:lv":"Bosnija un Hercegovina","name:right:wo":"Korwaasi","name:right:ne":"\u0915\u094d\u0930\u094b\u090f\u0936\u093f\u092f\u093e","name:right:na":"Kroaitsiya","name:right:gv":"Yn Chroit","name:right:nv":"Kw\u00f3\u00f3\u02bcad Bik\u00e9yah","kind_detail":"2","name:left:tr":"Bosna-Hersek","name:right:gu":"\u0a95\u0acd\u0ab0\u0acb\u0a8f\u0ab6\u0abf\u0aaf\u0abe","name:right:ps":"\u06a9\u0631\u0648\u0648\u0627\u0633\u064a\u0627","name:right:pt":"Cro\u00e1cia","name:left:mi":"P\u014dngia-Herek\u014dmina","name:left:tt":"\u0411\u043e\u0441\u043d\u0438\u044f \u04bb\u04d9\u043c \u0413\u0435\u0440\u0446\u0435\u0433\u043e\u0432\u0438\u043d\u0430","name:left:mn":"\u0411\u043e\u0441\u043d\u0438 \u0431\u0430 \u0425\u0435\u0440\u0446\u0435\u0433\u043e\u0432\u0438\u043d\u0430","name:left:ml":"\u0d2c\u0d4b\u0d38\u0d4d\u0d28\u0d3f\u0d2f \u0d39\u0d46\u0d7c\u0d38\u0d46\u0d17\u0d4b\u0d35\u0d3f\u0d28","name:left:th":"\u0e1b\u0e23\u0e30\u0e40\u0e17\u0e28\u0e1a\u0e2d\u0e2a\u0e40\u0e19\u0e35\u0e22\u0e41\u0e25\u0e30\u0e40\u0e2e\u0e2d\u0e23\u0e4c\u0e40\u0e0b\u0e42\u0e01\u0e27\u0e35\u0e19\u0e32","name:right:pa":"\u0a15\u0a4d\u0a30\u0a4b\u0a0f\u0a38\u0a3c\u0a40\u0a06","name:left:tk":"Bosni\u00fda we Gersegowina","name:left:tl":"Bosnia at Herzegovina","name:left:mt":"Bo\u017cnija u \u0126er\u017cegovina","name:right:gl":"Croacia","name:left:my":"\u1018\u1031\u102c\u1037\u1005\u1014\u102e\u1038\u101a\u102c\u1038\u1014\u103e\u1004\u1037\u103a \u101f\u102c\u1007\u102e\u1002\u102d\u102f\u1017\u102e\u1038\u1014\u102c\u1038\u1014\u102d\u102f\u1004\u103a\u1004\u1036","name:right:gn":"Kyoasia","name:right:pl":"Chorwacja","name:left:te":"\u0c2c\u0c4b\u0c38\u0c4d\u0c28\u0c3f\u0c2f\u0c3e \u0c2e\u0c30\u0c3f\u0c2f\u0c41 \u0c39\u0c46\u0c30\u0c4d\u0c1c\u0c46\u0c17\u0c4a\u0c35\u0c40\u0c28\u0c3e","name:left:tg":"\u0411\u043e\u0441\u043d\u0438\u044f \u0432\u0430 \u04b2\u0435\u0440\u0441\u0435\u0433\u043e\u0432\u0438\u043d\u0430","name:left:ms":"Bosnia dan Herzegovina","name:left:mr":"\u092c\u0949\u0938\u094d\u0928\u093f\u092f\u093e \u0906\u0923\u093f \u0939\u0930\u094d\u091d\u0917\u094b\u0935\u094d\u0939\u093f\u0928\u093e","name:left:da":"Bosnien-Hercegovina","name:left:de":"Bosnien und Herzegowina","name:right:ga":"An Chr\u00f3it","name:left:dv":"\u0784\u07ae\u0790\u07b0\u0782\u07a8\u0794\u07a7 \u0787\u07ac\u0782\u07b0\u0791\u07b0 \u0780\u07ac\u0783\u07b0\u0792\u07a8\u078e\u07ae\u0788\u07a9\u0782\u07a7","name:right:ug":"\u0643\u0631\u0648\u062f\u0649\u064a\u06d5","name:left:hi":"\u092c\u0949\u0938\u094d\u0928\u093f\u092f\u093e \u0914\u0930 \u0939\u0930\u094d\u091c\u093c\u0947\u0917\u094b\u0935\u093f\u0928\u093e","name:right:lb":"Kroatien","name:right:uk":"\u0425\u043e\u0440\u0432\u0430\u0442\u0456\u044f","name:left:he":"\u05d1\u05d5\u05e1\u05e0\u05d9\u05d4 \u05d5\u05d4\u05e8\u05e6\u05d2\u05d5\u05d1\u05d9\u05e0\u05d4","name:right:ln":"Kroasia","name:right:li":"Kroati\u00eb","name:right:lt":"Kroatija","name:right:ur":"\u06a9\u0631\u0648\u0634\u06cc\u0627","name:right:lv":"Horv\u0101tija","name:left:hy":"\u0532\u0578\u057d\u0576\u056b\u0561 \u0587 \u0540\u0565\u0580\u0581\u0565\u0563\u0578\u057e\u056b\u0576\u0561","name:left:ta":"\u0baa\u0bca\u0b9a\u0bc1\u0ba9\u0bbf\u0baf\u0bbe \u0b8e\u0bb0\u0bcd\u0b9a\u0bc6\u0b95\u0bcb\u0bb5\u0bbf\u0ba9\u0bbe","name:left:ht":"Bosni ak Erzegovin","name:left:hu":"Bosznia-Hercegovina","name:left:hr":"Bosna i Hercegovina","sort_rank":262,"name:right:gd":"Cro\u00e0isia","name:right:os":"\u0425\u043e\u0440\u0432\u0430\u0442\u0438","name:right:es":"Croacia","name:right:sr":"\u0425\u0440\u0432\u0430\u0442\u0441\u043a\u0430","name:right:eu":"Kroazia","name:right:et":"Horvaatia","name:left:os":"\u0411\u043e\u0441\u043d\u0438 \u00e6\u043c\u00e6 \u0413\u0435\u0440\u0446\u0435\u0433\u043e\u0432\u0438\u043d\u00e6","name:left:or":"\u0b2c\u0b4b\u0b38\u0b28\u0b3f\u0b06 \u0b13 \u0b39\u0b30\u0b1c\u0b17\u0b4b\u0b2d\u0b3f\u0b28\u0b3e","name:right:ee":"Croatia","name:left:vo":"Bosn\u00e4n e H\u00e4rzegov\u00e4n","name:left:oc":"B\u00f2snia e Ercegovina","name:right:eo":"Kroatujo","name:right:en":"Croatia","name:right:el":"\u039a\u03c1\u03bf\u03b1\u03c4\u03af\u03b1","name:left:ff":"Bosniya","name:left:fa":"\u0628\u0648\u0633\u0646\u06cc \u0648 \u0647\u0631\u0632\u06af\u0648\u06cc\u0646","name:left:ia":"Bosnia e Herzegovina","name:left:fo":"Bosnia og Hersegovina","name:right:sk":"Chorv\u00e1tsko","name:left:fi":"Bosnia ja Hertsegovina","name:left:fr":"Bosnie-Herz\u00e9govine","name:right:jv":"Kroasia","name:left:fy":"Bosnje","name:right:ja":"\u30af\u30ed\u30a2\u30c1\u30a2","name:right:sq":"Kroacia","name:right:ss":"IKhuroshiya","name:left:ja":"\u30dc\u30b9\u30cb\u30a2\u30fb\u30d8\u30eb\u30c4\u30a7\u30b4\u30d3\u30ca","name:right:su":"Kroasia","name:right:st":"Kroatia","name:right:sw":"Kroatia","name:right:sv":"Kroatien","name:left:qu":"Busna-Hirsiquwina","name:right:sm":"Croatia","name:right:sl":"Hrva\u0161ka","name:right:so":"Kroatia","name:right:sa":"\u0915\u094d\u0930\u094b\u090f\u0936\u093f\u092f\u093e","name:right:sc":"Croatzia","name:left:jv":"Bosnia-Herzegovina","id":-2528142,"name:right:sg":"Kroas\u00efi","name:right:ca":"Cr\u00f2acia","name:right:se":"Kroatia","name:right:ce":"\u0425\u043e\u0440\u0432\u0430\u0442\u0438","name:right:cy":"Croatia","name:right:zh-yue":"\u514b\u7f85\u5730\u4e9e","name:right:cs":"Chorvatsko","name:right:cu":"\u0425\u0440\u044a\u0432\u0430\u0442\u044c\u0441\u043a\u0430","name:right:it":"Croazia","name:left:ar":"\u0627\u0644\u0628\u0648\u0633\u0646\u0629 \u0648\u0627\u0644\u0647\u0631\u0633\u0643","name:left:az":"Bosniya v\u0259 Herseqovina","name:left:ro":"Bosnia \u0219i Her\u021begovina","name:left:af":"Bosni\u00eb-Herzegowina","name:left:an":"Bosnia y Herzegovina","name:left:am":"\u1266\u1235\u1292\u12eb\u1293 \u1204\u122d\u1338\u130e\u126a\u1293","name:right:ru":"\u0425\u043e\u0440\u0432\u0430\u0442\u0438\u044f","name:right:io":"Kroatia","name:left:zh-yue":"\u6ce2\u65af\u5c3c\u4e9e","name:right:ro":"Croa\u021bia","name:right:hy":"\u053d\u0578\u0580\u057e\u0561\u0569\u056b\u0561","name:left:lb":"Bosnien-Herzegowina","alt_name:left:eo":"Bosnio kaj Hercegovino","name:left:su":"Bosnia jeung H\u00e9rz\u00e9govina","int_name:left":"Bosnia and Herzegovina","name:left:sw":"Bosnia na Herzegovina","name:left:sv":"Bosnien och Hercegovina","name:left:sq":"Bosnja dhe Hercegovina","name:right:hu":"Horv\u00e1torsz\u00e1g","name:left:ln":"Bosnia na Erzegovina","name:left:sr":"\u0411\u043e\u0441\u043d\u0430 \u0438 \u0425\u0435\u0440\u0446\u0435\u0433\u043e\u0432\u0438\u043d\u0430","name:left:sm":"Bosnia ma Herzegovina","name:right:hi":"\u0915\u094d\u0930\u094b\u090f\u0936\u093f\u092f\u093e","name:left:so":"Bosniya","name:left:si":"\u0db6\u0ddc\u0dc3\u0dca\u0db1\u0dd2\u0dba\u0dcf \u0dc3\u0dc4 \u0dc4\u0dbb\u0dca\u0dc3\u0d9c\u0ddd\u0dc0\u0dd2\u0db1\u0dcf","name:left:sh":"Bosna i Hercegovina","name:left:sk":"Bosna a Hercegovina","name:left:se":"Bosnia ja Hercegovina","name:left:sa":"\u092c\u093e\u0938\u094d\u0928\u093f\u092f\u093e","name:right:he":"\u05e7\u05e8\u05d5\u05d0\u05d8\u05d9\u05d4","name:left:sc":"B\u00f2snia Erzegovina","name:right:la":"Croatia","name:right:af":"Kroasi\u00eb","name:left:co":"Bosnia \u00e8 Erzegovina","name:right:ab":"\u0425\u043e\u0440\u0432\u0430\u0442\u0438\u0430","name:left:ce":"\u0411\u043e\u0441\u043d\u0438 \u0430 \u0413\u0435\u0440\u0446\u0435\u0433\u043e\u0432\u0438\u043d\u0430","name:right:an":"Croacia","name:right:am":"\u12ad\u122e\u12a4\u123d\u12eb","name:left:ca":"B\u00f2snia i Hercegovina","source":"openstreetmap.org","name:left:cy":"Bosnia a Hercegovina","name:right:ar":"\u0643\u0631\u0648\u0627\u062a\u064a\u0627","name:left:cu":"\u0411\u043e\u0441\u043d\u0430","name:left:cv":"\u0411\u043e\u0441\u043d\u0438 \u0442\u0430\u0442\u0430 \u0413\u0435\u0440\u0446\u0435\u0433\u043e\u0432\u0438\u043d\u0430","name:right:az":"Xorvatiya","name:left:cs":"Bosna a Hercegovina","name":"Bosna i Hercegovina \/ \u0411\u043e\u0441\u043d\u0430 \u0438 \u0425\u0435\u0440\u0446\u0435\u0433\u043e\u0432\u0438\u043d\u0430 - Hrvatska","name:left:zh":"\u6ce2\u65af\u5c3c\u4e9e\u548c\u9ed1\u585e\u54e5\u7dad\u90a3","name:right:za":"Gwzlozdiya","name:right:zh":"\u514b\u7f85\u5730\u4e9e","official_name:left":"Bosna i Hercegovina","name:left:uz":"Bosniya va Gersegovina","name:right:fr":"Croatie","name:left:nv":"Bosna d\u00f3\u00f3 Hetsog Bik\u00e9yah","name:left:ur":"\u0628\u0648\u0633\u0646\u06cc\u0627 \u0648 \u06c1\u0631\u0632\u06cc\u06af\u0648\u0648\u06cc\u0646\u0627","id:right":-214885,"name:left:uk":"\u0411\u043e\u0441\u043d\u0456\u044f \u0456 \u0413\u0435\u0440\u0446\u0435\u0433\u043e\u0432\u0438\u043d\u0430","name:left:no":"Bosnia-Hercegovina","name:left:nl":"Bosni\u00eb en Herzegovina","alt_name:right:eo":"Kroatio","name:right:fa":"\u06a9\u0631\u0648\u0627\u0633\u06cc","name:right:fo":"Kroatia","name:left:ne":"\u092c\u094b\u0938\u094d\u0928\u093f\u092f\u093e \u0930 \u0939\u0930\u094d\u091c\u0917\u094b\u092d\u093f\u0928\u093e","name:left:ug":"\u0628\u0648\u0633\u0646\u0649\u064a\u06d5 \u06cb\u06d5 \u06be\u06d0\u0631\u0633\u06d0\u06af\u0648\u06cb\u0649\u0646\u0627","name:left:na":"Boteniya me Erdegobina","name:left:eo":"Bosnujo kaj Hercegovino","name:left:en":"Bosnia and Herzegovina","name:left:el":"\u0392\u03bf\u03c3\u03bd\u03af\u03b1 \u03ba\u03b1\u03b9 \u0395\u03c1\u03b6\u03b5\u03b3\u03bf\u03b2\u03af\u03bd\u03b7","name:left:ee":"Bosnia and Herzegovina","name:left:pl":"Bo\u015bnia i Hercegowina","name:left:es":"Bosnia y Herzegovina","name:left:ss":"IBhosinya ne Hezegovi","name:left:ie":"Bosnia e Herzegovina","name:left:eu":"Bosnia and Herzegovina","name:left:et":"Bosnia ja Hertsegoviina","name:right:oc":"Cro\u00e0cia","name:right:ko":"\ud06c\ub85c\uc544\ud2f0\uc544","name:right:uz":"Xorvatiya","osm_relation":true,"name:right:or":"\u0b15\u0b4d\u0b30\u0b4b\u0b0f\u0b38\u0b3f\u0b06","name:left:pt":"B\u00f3snia e Herzegovina","name:right:ku":"Kroatya","name:right:kv":"\u0425\u043e\u0440\u0432\u0430\u0442\u0438\u044f","name:left:gl":"Bosnia e Hercegovina","min_zoom":8.0,"name:left:zh-min-nan":"Bosna kap Hercegovina","name:left:wo":"Bosni","name:left:ga":"An Bhoisnia-Heirseagaiv\u00e9in","name:left:it":"Bosnia ed Erzegovina","name:left:gd":"Bosna agus Hearsagobhana","int_name:right":"Croatia","name:left:gn":"Vonia ha Hesegovina","name:left:gv":"Bosnia as Herzegovina","official_name:right":"Republika Hrvatska","name:left":"Bosna i Hercegovina \/ \u0411\u043e\u0441\u043d\u0430 \u0438 \u0425\u0435\u0440\u0446\u0435\u0433\u043e\u0432\u0438\u043d\u0430","name:right:mk":"\u0425\u0440\u0432\u0430\u0442\u0441\u043a\u0430","name:right:mi":"Koro\u0101tia","name:right:mn":"\u0425\u043e\u0440\u0432\u0430\u0442","name:right:ml":"\u0d15\u0d4d\u0d30\u0d4a\u0d2f\u0d47\u0d37\u0d4d\u0d2f","name:right:vo":"Kroas\u00e4n","name:right:vi":"Croatia","name:right:my":"\u1001\u101b\u102d\u102f\u1021\u1031\u1038\u101b\u103e\u102c\u1038\u1014\u102d\u102f\u1004\u103a\u1004\u1036","name:right:ms":"Croatia","name:right:mr":"\u0915\u094d\u0930\u094b\u090f\u0936\u093f\u092f\u093e","name:right:fy":"Kroaasje","name:right:mt":"Kroazja","name:left:nn":"Bosnia-Hercegovina","kind":"country","name:left:br":"Bosnia-ha-Herzegovina","name:left:bs":"Bosna i Hercegovina","name:left:bg":"\u0411\u043e\u0441\u043d\u0430 \u0438 \u0425\u0435\u0440\u0446\u0435\u0433\u043e\u0432\u0438\u043d\u0430","name:left:be":"\u0411\u043e\u0441\u043d\u0456\u044f \u0456 \u0413\u0435\u0440\u0446\u0430\u0433\u0430\u0432\u0456\u043d\u0430","name:left:bi":"Bosnia & Herzegovina","name:left:bn":"\u09ac\u09b8\u09a8\u09bf\u09af\u09bc\u09be \u0993 \u09b9\u09be\u09b0\u09cd\u099c\u09c7\u0997\u09cb\u09ad\u09bf\u09a8\u09be","name:left:bo":"\u0f56\u0fb7\u0f7c\u0f66\u0f74\u0f0b\u0f53\u0f72\u0f61\u0f0b\u0f51\u0f44\u0f0b\u0f67\u0f62\u0f0b\u0f5b\u0f7a\u0f0b\u0f42\u0fb7\u0f7c\u0f0b\u0f5d\u0f72\u0f0b\u0f53\u0f0d","name:right":"Hrvatska","name:left:yo":"B\u00f3sn\u00ed\u00e0 \u00e0ti H\u1eb9rj\u1eb9g\u00f2f\u00edn\u00e0","name:left:yi":"\u05d1\u05d0\u05e1\u05e0\u05d9\u05e2 \u05d0\u05d5\u05df \u05d4\u05e2\u05e8\u05e6\u05e2\u05d2\u05d0\u05d5\u05d5\u05d9\u05e0\u05e2","id:left":-2528142,"name:right:fi":"Kroatia","name:right:ka":"\u10ee\u10dd\u10e0\u10d5\u10d0\u10e2\u10d8\u10d0","name:left:io":"Bosnia e Herzegovina","name:left:pa":"\u0a2c\u0a4b\u0a38\u0a28\u0a40\u0a06 \u0a05\u0a24\u0a47 \u0a39\u0a30\u0a1c\u0a3c\u0a47\u0a17\u0a4b\u0a35\u0a40\u0a28\u0a3e","name:right:kg":"Kroatia","name:right:tt":"\u0425\u043e\u0440\u0432\u0430\u0442\u0438\u044f","name:right:kk":"\u0425\u043e\u0440\u0432\u0430\u0442\u0438\u044f","name:left:id":"Bosnia dan Herzegovina","name:right:kl":"Kroatia","name:right:tr":"H\u0131rvatistan","name:right:kn":"\u0c95\u0ccd\u0cb0\u0cca\u0caf\u0cc6\u0cb6\u0cbf\u0caf","name:right:tl":"Kroasya","name:right:th":"\u0e1b\u0e23\u0e30\u0e40\u0e17\u0e28\u0e42\u0e04\u0e23\u0e40\u0e2d\u0e40\u0e0a\u0e35\u0e22","name:right:kw":"Kroati","name:right:tk":"Horwati\u00fda","name:right:ky":"\u0425\u043e\u0440\u0432\u0430\u0442\u0438\u044f","name:right:te":"\u0c15\u0c4d\u0c30\u0c4a\u0c2f\u0c47\u0c37\u0c3f\u0c2f\u0c3e","name:right:tg":"\u0425\u043e\u0440\u0432\u0430\u0442\u0438\u044f","name:left:is":"Bosn\u00eda og Herseg\u00f3v\u00edna","name:right:ta":"\u0b95\u0bc1\u0bb0\u0bcb\u0bb5\u0bbe\u0b9a\u0bbf\u0baf\u0bbe","name:right:de":"Kroatien","name:right:da":"Kroatien","name:right:dv":"\u0786\u07aa\u0783\u07ae\u0787\u07ad\u079d\u07a8\u0787\u07a7","name:right:ht":"Kroasi"},"arcs":[[2],[3],[4]]},{"type":"MultiLineString","properties":{"name:right:yo":"Kroat\u00ed\u00e0","name:right:yi":"\u05e7\u05e8\u05d0\u05d0\u05d8\u05d9\u05e2","name:left:la":"Slovenia","name:left:lb":"Slowenien","name:left:li":"Sloveni\u00eb","name:left:vi":"Slovenia","name:left:kg":"Slovenia","name:left:ka":"\u10e1\u10da\u10dd\u10d5\u10d4\u10dc\u10d8\u10d0","name:left:kl":"Slovenia","name:left:ko":"\uc2ac\ub85c\ubca0\ub2c8\uc544","name:right:it":"Croazia","name:right:is":"Kr\u00f3at\u00eda","name:right:rw":"Korowatiya","name:left:kk":"\u0421\u043b\u043e\u0432\u0435\u043d\u0438\u044f","name:left:rm":"Slovenia","name:left:ku":"Slovenya","name:left:kw":"Sloveni","name:left:kv":"\u0421\u043b\u043e\u0432\u0435\u043d\u0438\u044f","name:right:rn":"Croacia","name:left:rw":"Siloveniya","name:left:ru":"\u0421\u043b\u043e\u0432\u0435\u043d\u0438\u044f","name:right:ie":"Croatia","name:right:id":"Kroasia","name:right:ia":"Croatia","name:right:bi":"Croatia","name:right:bn":"\u0995\u09cd\u09b0\u09cb\u09af\u09bc\u09c7\u09b6\u09bf\u09af\u09bc\u09be","name:right:bo":"\u0f41\u0f74\u0f62\u0f7c\u0f0b\u0f64\u0f72\u0f0b\u0f61\u0f0d","name:right:ba":"\u0425\u043e\u0440\u0432\u0430\u0442\u0438\u044f","name:right:bg":"\u0425\u044a\u0440\u0432\u0430\u0442\u0438\u044f","name:right:be":"\u0425\u0430\u0440\u0432\u0430\u0442\u044b\u044f","name:right:br":"Kroatia","name:right:nn":"Kroatia","name:right:no":"Kroatia","name:right:nl":"Kroati\u00eb","name:right:wa":"Crowaceye","name:left:lv":"Slov\u0113nija","name:right:wo":"Korwaasi","name:right:ne":"\u0915\u094d\u0930\u094b\u090f\u0936\u093f\u092f\u093e","name:right:na":"Kroaitsiya","name:right:gv":"Yn Chroit","name:right:nv":"Kw\u00f3\u00f3\u02bcad Bik\u00e9yah","kind_detail":"2","name:left:tr":"Slovenya","name:right:gu":"\u0a95\u0acd\u0ab0\u0acb\u0a8f\u0ab6\u0abf\u0aaf\u0abe","name:right:ps":"\u06a9\u0631\u0648\u0648\u0627\u0633\u064a\u0627","name:right:pt":"Cro\u00e1cia","name:left:mk":"\u0421\u043b\u043e\u0432\u0435\u043d\u0438\u0458\u0430","name:left:mi":"Horowinia","name:left:tt":"\u0421\u043b\u043e\u0432\u0435\u043d\u0438\u044f","name:left:mn":"\u0421\u043b\u043e\u0432\u0435\u043d","name:left:ml":"\u0d38\u0d4d\u0d32\u0d4a\u0d35\u0d40\u0d28\u0d4d\u0d2f","name:left:th":"\u0e1b\u0e23\u0e30\u0e40\u0e17\u0e28\u0e2a\u0e42\u0e25\u0e27\u0e35\u0e40\u0e19\u0e35\u0e22","name:right:pa":"\u0a15\u0a4d\u0a30\u0a4b\u0a0f\u0a38\u0a3c\u0a40\u0a06","name:left:tk":"Sloweni\u00fda","name:left:tl":"Eslobenya","name:left:mt":"Slovenja","name:right:gl":"Croacia","name:left:my":"\u1006\u101c\u102d\u102f\u1017\u1031\u1038\u1014\u102e\u1038\u101a\u102c\u1038\u1014\u102d\u102f\u1004\u103a\u1004\u1036","name:right:gn":"Kyoasia","name:right:pl":"Chorwacja","name:left:te":"\u0c38\u0c4d\u0c32\u0c4b\u0c35\u0c47\u0c28\u0c3f\u0c2f\u0c3e","name:left:tg":"\u0421\u043b\u043e\u0432\u0435\u043d\u0438\u044f","name:left:ms":"Slovenia","name:left:mr":"\u0938\u094d\u0932\u094b\u0935\u094d\u0939\u0947\u0928\u093f\u092f\u093e","name:left:da":"Slovenien","name:left:de":"Slowenien","name:right:ga":"An Chr\u00f3it","name:left:dv":"\u0790\u07aa\u078d\u07ae\u0788\u07a9\u0782\u07a8\u0787\u07a7","name:right:ug":"\u0643\u0631\u0648\u062f\u0649\u064a\u06d5","name:left:hi":"\u0938\u094d\u0932\u094b\u0935\u0947\u0928\u093f\u092f\u093e","name:right:lb":"Kroatien","name:right:uk":"\u0425\u043e\u0440\u0432\u0430\u0442\u0456\u044f","name:left:he":"\u05e1\u05dc\u05d5\u05d1\u05e0\u05d9\u05d4","name:right:ln":"Kroasia","name:right:li":"Kroati\u00eb","name:right:lt":"Kroatija","name:right:ur":"\u06a9\u0631\u0648\u0634\u06cc\u0627","name:right:lv":"Horv\u0101tija","name:left:hy":"\u054d\u056c\u0578\u057e\u0565\u0576\u056b\u0561","name:left:ta":"\u0b9a\u0bc1\u0bb2\u0bcb\u0bb5\u0bc0\u0ba9\u0bbf\u0baf\u0bbe","name:left:ht":"Sloveni","name:left:hu":"Szlov\u00e9nia","sort_rank":262,"name:right:gd":"Cro\u00e0isia","name:right:os":"\u0425\u043e\u0440\u0432\u0430\u0442\u0438","name:right:es":"Croacia","name:right:sr":"\u0425\u0440\u0432\u0430\u0442\u0441\u043a\u0430","name:right:eu":"Kroazia","name:right:et":"Horvaatia","name:left:os":"\u0421\u043b\u043e\u0432\u0435\u043d\u0438","name:left:or":"\u0b38\u0b4d\u0b32\u0b4b\u0b2d\u0b47\u0b28\u0b3f\u0b06","name:right:ee":"Croatia","name:left:vo":"Sloveniy\u00e4n","name:left:oc":"Eslov\u00e8nia","name:right:eo":"Kroatujo","name:right:en":"Croatia","name:right:el":"\u039a\u03c1\u03bf\u03b1\u03c4\u03af\u03b1","name:left:fa":"\u0627\u0633\u0644\u0648\u0648\u0646\u06cc","name:left:ia":"Slovenia","name:left:fo":"Slovenia","name:left:qu":"Isluwinya","name:left:fi":"Slovenia","name:left:fr":"Slov\u00e9nie","name:right:jv":"Kroasia","name:left:fy":"Sloveenje","name:right:ja":"\u30af\u30ed\u30a2\u30c1\u30a2","name:right:sq":"Kroacia","name:right:ss":"IKhuroshiya","name:left:ja":"\u30b9\u30ed\u30d9\u30cb\u30a2","name:right:su":"Kroasia","name:right:st":"Kroatia","name:right:sw":"Kroatia","name:right:sv":"Kroatien","name:right:sk":"Chorv\u00e1tsko","name:right:sm":"Croatia","name:right:sl":"Hrva\u0161ka","name:right:so":"Kroatia","name:right:sa":"\u0915\u094d\u0930\u094b\u090f\u0936\u093f\u092f\u093e","name:right:sc":"Croatzia","name:left:jv":"Slov\u00e9nia","id":-218657,"name:right:sg":"Kroas\u00efi","name:right:ca":"Cr\u00f2acia","name:right:se":"Kroatia","name:right:ce":"\u0425\u043e\u0440\u0432\u0430\u0442\u0438","name:right:cy":"Croatia","name:right:zh-yue":"\u514b\u7f85\u5730\u4e9e","name:right:cs":"Chorvatsko","name:right:cu":"\u0425\u0440\u044a\u0432\u0430\u0442\u044c\u0441\u043a\u0430","name:left:ar":"\u0633\u0644\u0648\u0641\u064a\u0646\u064a\u0627","name:left:az":"Sloveniya","name:left:ro":"Slovenia","name:left:af":"Sloweni\u00eb","name:left:an":"Eslovenia","name:left:am":"\u1235\u120e\u126c\u1292\u12eb","name:right:ru":"\u0425\u043e\u0440\u0432\u0430\u0442\u0438\u044f","name:right:io":"Kroatia","name:left:zh-yue":"\u65af\u6d1b\u6587\u5c3c\u4e9e","name:right:ro":"Croa\u021bia","name:right:hy":"\u053d\u0578\u0580\u057e\u0561\u0569\u056b\u0561","name:right:qu":"Hurwatsuyu","alt_name:left:eo":"Slovenio","name:left:su":"Slov\u00e9nia","name:left:st":"Slovenia","name:left:sw":"Slovenia","name:left:sv":"Slovenien","name:left:sq":"Sllovenia","name:right:hu":"Horv\u00e1torsz\u00e1g","name:left:ln":"Slovenia","name:left:sr":"\u0421\u043b\u043e\u0432\u0435\u043d\u0438\u0458\u0430","name:left:sm":"Slovenia","name:right:hi":"\u0915\u094d\u0930\u094b\u090f\u0936\u093f\u092f\u093e","name:left:so":"Isloveeniya","name:left:lt":"Slov\u0117nija","name:left:sk":"Slovinsko","name:left:se":"Slovenia","name:left:sa":"\u0938\u094d\u0932\u094b\u0935\u0940\u0928\u093f\u092f\u093e","name:right:he":"\u05e7\u05e8\u05d5\u05d0\u05d8\u05d9\u05d4","name:left:sc":"Islov\u00e8nia","name:right:la":"Croatia","name:right:af":"Kroasi\u00eb","name:left:co":"Sluvenia","name:right:ab":"\u0425\u043e\u0440\u0432\u0430\u0442\u0438\u0430","name:left:ce":"\u0421\u043b\u043e\u0432\u0435\u043d\u0438","name:right:an":"Croacia","name:right:am":"\u12ad\u122e\u12a4\u123d\u12eb","name:left:ca":"Eslov\u00e8nia","source":"openstreetmap.org","name:left:cy":"Slofenia","name:right:ar":"\u0643\u0631\u0648\u0627\u062a\u064a\u0627","name:left:cu":"\u0407\u043b\u043b\u0477\u0440\u0457\u0438\u0441\u043a\u0430 \u0421\u043b\u043e\u0432\u0463\u043d\u0457\ua657","name:left:cv":"\u0421\u043b\u043e\u0432\u0435\u043d\u0438","name:right:az":"Xorvatiya","name:left:cs":"Slovinsko","name":"Slovenija - Hrvatska","name:left:zh":"\u65af\u6d1b\u6587\u5c3c\u4e9e","name:right:za":"Gwzlozdiya","name:right:zh":"\u514b\u7f85\u5730\u4e9e","official_name:left":"Republika Slovenija","name:left:uz":"Sloveniya","name:right:fr":"Croatie","name:left:nv":"S\u0142ob\u00ed\u00edn Bik\u00e9yah","name:left:ur":"\u0633\u0644\u0648\u0648\u06cc\u0646\u06cc\u0627","id:right":-214885,"name:left:uk":"\u0421\u043b\u043e\u0432\u0435\u043d\u0456\u044f","name:left:no":"Slovenia","name:left:nl":"Sloveni\u00eb","alt_name:right:eo":"Kroatio","name:right:fa":"\u06a9\u0631\u0648\u0627\u0633\u06cc","name:right:fo":"Kroatia","name:left:ne":"\u0938\u094d\u0932\u094b\u092d\u0947\u0928\u093f\u092f\u093e","name:left:ug":"Slow\u00e9niye","name:right:fi":"Kroatia","name:left:eo":"Slovenujo","name:left:en":"Slovenia","name:left:el":"\u03a3\u03bb\u03bf\u03b2\u03b5\u03bd\u03af\u03b1","name:left:ee":"Slovenia","name:left:pl":"S\u0142owenia","name:left:es":"Eslovenia","name:left:ss":"Siloveni","name:left:ie":"Slovenia","name:left:eu":"Eslovenia","name:left:et":"Sloveenia","name:right:oc":"Cro\u00e0cia","name:right:ko":"\ud06c\ub85c\uc544\ud2f0\uc544","name:right:uz":"Xorvatiya","osm_relation":true,"name:right:or":"\u0b15\u0b4d\u0b30\u0b4b\u0b0f\u0b38\u0b3f\u0b06","name:left:pt":"Eslov\u00e9nia","name:right:ku":"Kroatya","name:right:tk":"Horwati\u00fda","name:left:gl":"Eslovenia","min_zoom":8.0,"name:left:zh-min-nan":"Slovenia","name:left:wo":"Esloweeni","name:left:ga":"An tSl\u00f3iv\u00e9in","name:left:it":"Slovenia","name:left:gd":"Sloibh\u00ecnia","int_name:right":"Croatia","name:left:gn":"Elove\u00f1a","name:left:gu":"\u0ab8\u0acd\u0ab2\u0acb\u0ab5\u0ac7\u0aa8\u0abf\u0aaf\u0abe","name:left:gv":"Yn Clovean","official_name:right":"Republika Hrvatska","name:left":"Slovenija","name:right:mk":"\u0425\u0440\u0432\u0430\u0442\u0441\u043a\u0430","name:right:mi":"Koro\u0101tia","name:right:mn":"\u0425\u043e\u0440\u0432\u0430\u0442","name:right:ml":"\u0d15\u0d4d\u0d30\u0d4a\u0d2f\u0d47\u0d37\u0d4d\u0d2f","name:right:vo":"Kroas\u00e4n","name:right:vi":"Croatia","name:right:my":"\u1001\u101b\u102d\u102f\u1021\u1031\u1038\u101b\u103e\u102c\u1038\u1014\u102d\u102f\u1004\u103a\u1004\u1036","name:right:ms":"Croatia","name:right:mr":"\u0915\u094d\u0930\u094b\u090f\u0936\u093f\u092f\u093e","name:right:fy":"Kroaasje","name:right:mt":"Kroazja","name:left:nn":"Slovenia","kind":"country","name:left:br":"Slovenia","int_name:left":"Slovenia","name:left:ba":"\u0421\u043b\u043e\u0432\u0435\u043d\u0438\u044f","name:left:bg":"\u0421\u043b\u043e\u0432\u0435\u043d\u0438\u044f","name:right:kv":"\u0425\u043e\u0440\u0432\u0430\u0442\u0438\u044f","name:left:be":"\u0421\u043b\u0430\u0432\u0435\u043d\u0456\u044f","name:left:bi":"Slovenia","name:left:bn":"\u09b8\u09cd\u09b2\u09cb\u09ad\u09c7\u09a8\u09bf\u09af\u09bc\u09be","name:left:bo":"\u0f66\u0f72\u0f0b\u0f63\u0f7c\u0f0b\u0f5d\u0f7a\u0f0b\u0f53\u0f72\u0f0b\u0f61\u0f0d","name:right":"Hrvatska","name:left:yo":"Slof\u00e9n\u00ed\u00e0","name:left:yi":"\u05e1\u05dc\u05d0\u05d5\u05d5\u05e2\u05e0\u05d9\u05e2","id:left":-218657,"name:left:na":"Tsirobeniya","name:right:ka":"\u10ee\u10dd\u10e0\u10d5\u10d0\u10e2\u10d8\u10d0","name:left:io":"Slovenia","name:right:kg":"Kroatia","name:right:tt":"\u0425\u043e\u0440\u0432\u0430\u0442\u0438\u044f","name:right:kk":"\u0425\u043e\u0440\u0432\u0430\u0442\u0438\u044f","name:left:id":"Slovenia","name:right:kl":"Kroatia","name:right:tr":"H\u0131rvatistan","name:right:kn":"\u0c95\u0ccd\u0cb0\u0cca\u0caf\u0cc6\u0cb6\u0cbf\u0caf","name:right:tl":"Kroasya","name:right:th":"\u0e1b\u0e23\u0e30\u0e40\u0e17\u0e28\u0e42\u0e04\u0e23\u0e40\u0e2d\u0e40\u0e0a\u0e35\u0e22","name:right:kw":"Kroati","name:left:ps":"\u0633\u0644\u0648\u0648\u0627\u0646\u06cc\u0627","name:right:ky":"\u0425\u043e\u0440\u0432\u0430\u0442\u0438\u044f","name:right:te":"\u0c15\u0c4d\u0c30\u0c4a\u0c2f\u0c47\u0c37\u0c3f\u0c2f\u0c3e","name:right:tg":"\u0425\u043e\u0440\u0432\u0430\u0442\u0438\u044f","name:left:is":"Sl\u00f3ven\u00eda","name:right:ta":"\u0b95\u0bc1\u0bb0\u0bcb\u0bb5\u0bbe\u0b9a\u0bbf\u0baf\u0bbe","name:right:de":"Kroatien","name:right:da":"Kroatien","name:right:dv":"\u0786\u07aa\u0783\u07ae\u0787\u07ad\u079d\u07a8\u0787\u07a7","name:right:ht":"Kroasi"},"arcs":[[5],[6]]},{"type":"MultiLineString","properties":{"kind":"region","name:ro":"Republica S\u00e2rb\u0103 a Bosniei","name":"Republika Srpska","sort_rank":256,"kind_detail":"4","name:eo":"Serba Respubliko;Respubliko Serba","name:sr":"\u0420\u0435\u043f\u0443\u0431\u043b\u0438\u043a\u0430 \u0421\u0440\u043f\u0441\u043a\u0430","source":"openstreetmap.org","min_zoom":8.0,"name:es":"Rep\u00fablica Srpska","name:ru":"\u0420\u0435\u0441\u043f\u0443\u0431\u043b\u0438\u043a\u0430 \u0421\u0435\u0440\u0431\u0441\u043a\u0430\u044f","alt_name:ro":"Republica Srpska","id":-2528145,"osm_relation":true},"arcs":[[7],[8],[9]]},{"type":"MultiLineString","properties":{"name:ro":"Federa\u021bia Bosniei \u0219i Her\u021begovinei","name:lt":"Bosnijos ir Hercegovinos Federacija","name:eo":"Federacio Bosnio kaj Hercegovino","name:bs":"Entitet Federacija Bosne i Hercegovine","min_zoom":8.0,"id":-2528144,"name:ru":"\u0424\u0435\u0434\u0435\u0440\u0430\u0446\u0438\u044f \u0411\u043e\u0441\u043d\u0438\u0438 \u0438 \u0413\u0435\u0440\u0446\u0435\u0433\u043e\u0432\u0438\u043d\u044b","name:hr":"Entitet Federacija Bosne i Hercegovine","name:sr":"\u0424\u0435\u0434\u0435\u0440\u0430\u0446\u0438\u0458\u0430 \u0411\u043e\u0441\u043de \u0438 \u0425\u0435\u0440\u0446\u0435\u0433\u043e\u0432\u0438\u043de","osm_relation":true,"kind":"region","name:en":"Entity Federation of Bosnia and Herzegovina","name":"Federacija Bosne i Hercegovine","sort_rank":256,"kind_detail":"4","name:de":"F\u00f6deration Bosnien und Herzegowina","source":"openstreetmap.org","name:ca":"Federaci\u00f3 de B\u00f2snia i Hercegovina","name:es":"Federaci\u00f3n de Bosnia y Herzegovina"},"arcs":[[10],[11]]}]},"roads":{"type":"GeometryCollection","geometries":[{"type":"MultiLineString","properties":{"kind":"major_road","network":"Dr\u017eavne ceste","sort_rank":380,"kind_detail":"primary","is_bicycle_related":true,"bicycle_shield_text":"SM\u017d 01","bicycle_network":"rcn","source":"openstreetmap.org","min_zoom":8.0,"shield_text":"36","ref":"D36"},"arcs":[[38],[39]]},{"type":"MultiLineString","properties":{"kind":"major_road","network":"Dr\u017eavne ceste","sort_rank":380,"kind_detail":"primary","source":"openstreetmap.org","min_zoom":8.0,"landuse_kind":"urban_area","shield_text":"408","ref":"D408"},"arcs":[[40],[41],[42],[43],[44]]},{"type":"LineString","properties":{"kind":"highway","network":"Dr\u017eavne ceste","sort_rank":383,"kind_detail":"motorway","source":"openstreetmap.org","min_zoom":8.0,"all_networks":["Dr\u017eavne ceste","Autoceste","e-road","e-road","e-road"],"shield_text":"3","ref":"A3;D3","all_shield_texts":["3","3","65","70","71"]},"arcs":[45]},{"type":"LineString","properties":{"cycleway_right":"track","network":"\u017dupanijske ceste","sort_rank":379,"landuse_kind":"urban_area","is_bicycle_related":true,"bus_network":"local","bicycle_shield_text":"N2","bicycle_network":"ncn","source":"openstreetmap.org","min_zoom":8.0,"bus_shield_text":"175","shield_text":"2186","kind_detail":"secondary","ref":"2186","kind":"major_road"},"arcs":[46]},{"type":"LineString","properties":{"kind":"major_road","network":"\u017dupanijske ceste","sort_rank":379,"kind_detail":"secondary","is_bicycle_related":true,"bicycle_shield_text":null,"bicycle_network":"ncn","source":"openstreetmap.org","min_zoom":8.0,"shield_text":"3120","ref":"3120"},"arcs":[47]},{"type":"MultiLineString","properties":{"source":"openstreetmap.org","kind":"highway","landuse_kind":"urban_area","sort_rank":383,"kind_detail":"motorway","ref":"1040","min_zoom":8.0},"arcs":[[48],[49],[50]]},{"type":"LineString","properties":{"kind":"major_road","network":"Dr\u017eavne ceste","sort_rank":380,"kind_detail":"primary","bus_network":"local","source":"openstreetmap.org","min_zoom":8.0,"bus_shield_text":"112","shield_text":"1","landuse_kind":"urban_area","ref":"D1;D3","id":141567491},"arcs":[51]},{"type":"LineString","properties":{"kind":"major_road","network":"Dr\u017eavne ceste","sort_rank":380,"kind_detail":"primary","is_bicycle_related":true,"bicycle_shield_text":"TZKZ 2","bicycle_network":"lcn","source":"openstreetmap.org","min_zoom":8.0,"shield_text":"23","ref":"D23","id":283418229},"arcs":[52]},{"type":"LineString","properties":{"kind":"major_road","network":"\u017dupanijske ceste","sort_rank":379,"kind_detail":"secondary","is_bicycle_related":true,"bicycle_shield_text":"N3","bicycle_network":"ncn","source":"openstreetmap.org","min_zoom":8.0,"shield_text":"3073","ref":"3073"},"arcs":[53]},{"type":"LineString","properties":{"kind":"major_road","network":"Dr\u017eavne ceste","sort_rank":380,"kind_detail":"primary","is_bicycle_related":true,"bicycle_shield_text":"TZKZ 1","bicycle_network":"lcn","source":"openstreetmap.org","min_zoom":8.0,"shield_text":"6","ref":"D6"},"arcs":[54]},{"type":"MultiLineString","properties":{"bus_network":"local","network":"Dr\u017eavne ceste","sort_rank":380,"kind_detail":"primary","kind":"major_road","source":"openstreetmap.org","min_zoom":8.0,"bus_shield_text":"302","shield_text":"31","ref":"D31"},"arcs":[[55],[56]]},{"type":"LineString","properties":{"bus_network":"local","network":"\u017dupanijske ceste","sort_rank":379,"kind_detail":"secondary","is_bicycle_related":true,"kind":"major_road","bicycle_shield_text":"N3","bicycle_network":"ncn","source":"openstreetmap.org","min_zoom":8.0,"bus_shield_text":"147","shield_text":"3050","landuse_kind":"urban_area","ref":"\u017d3050","id":149775640},"arcs":[57]},{"type":"MultiLineString","properties":{"kind":"highway","network":"Autoceste","sort_rank":383,"kind_detail":"motorway","source":"openstreetmap.org","min_zoom":8.0,"all_networks":["Autoceste","e-road","e-road"],"shield_text":"4","ref":"A4;D3","all_shield_texts":["4","65","71"]},"arcs":[[58],[59],[60],[61]]},{"type":"LineString","properties":{"kind":"major_road","network":"Dr\u017eavne ceste","sort_rank":380,"kind_detail":"primary","is_bicycle_related":true,"bicycle_shield_text":"RC-1","bicycle_network":"rcn","source":"openstreetmap.org","min_zoom":8.0,"shield_text":"31","ref":"D31;D36","id":162474892},"arcs":[62]},{"type":"LineString","properties":{"kind":"highway","network":"Autoceste","sort_rank":383,"kind_detail":"motorway","source":"openstreetmap.org","min_zoom":8.0,"all_networks":["Autoceste","e-road"],"landuse_kind":"urban_area","shield_text":"3","ref":"A3;D1","id":81339578,"all_shield_texts":["3","70"]},"arcs":[63]},{"type":"MultiLineString","properties":{"sort_rank":380,"kind_detail":"primary","min_zoom":8.0,"kind":"major_road","source":"openstreetmap.org"},"arcs":[[64],[65],[66],[67],[68],[69],[70]]},{"type":"MultiLineString","properties":{"bus_network":"local","network":"Dr\u017eavne ceste","sort_rank":380,"kind_detail":"primary","kind":"major_road","source":"openstreetmap.org","min_zoom":8.0,"bus_shield_text":"260","shield_text":"1","ref":"D1;D3"},"arcs":[[71],[72],[73],[74]]},{"type":"MultiLineString","properties":{"kind":"highway","network":"Autoceste","sort_rank":383,"landuse_kind":"urban_area","reg_name":"Dalmatina","source":"openstreetmap.org","min_zoom":8.0,"all_networks":["Autoceste","e-road","e-road"],"kind_detail":"motorway","shield_text":"1","ref":"A1","all_shield_texts":["1","65","71"]},"arcs":[[75],[76],[77],[78]]},{"type":"LineString","properties":{"bus_network":"local","network":"Lokalne ceste","sort_rank":377,"kind_detail":"tertiary","is_bicycle_related":true,"kind":"major_road","bicycle_shield_text":"N1","bicycle_network":"ncn","source":"openstreetmap.org","min_zoom":8.0,"bus_shield_text":"159","shield_text":"10102","ref":"10102"},"arcs":[79]},{"type":"MultiLineString","properties":{"kind":"highway","network":"Autoceste","sort_rank":383,"landuse_kind":"urban_area","source":"openstreetmap.org","min_zoom":8.0,"all_networks":["Autoceste","e-road","e-road"],"kind_detail":"motorway","shield_text":"1","ref":"A1","all_shield_texts":["1","65","71"]},"arcs":[[80],[81],[82],[83],[84],[85],[86]]},{"type":"MultiLineString","properties":{"kind":"major_road","network":"Dr\u017eavne ceste","sort_rank":380,"kind_detail":"primary","is_bicycle_related":true,"bicycle_shield_text":"N3","bicycle_network":"ncn","source":"openstreetmap.org","min_zoom":8.0,"shield_text":"43","ref":"D43"},"arcs":[[87],[88]]},{"type":"LineString","properties":{"bus_network":null,"network":"Dr\u017eavne ceste","sort_rank":380,"kind_detail":"primary","kind":"major_road","source":"openstreetmap.org","min_zoom":8.0,"bus_shield_text":"5","shield_text":"36","landuse_kind":"urban_area","ref":"D36"},"arcs":[89]},{"type":"MultiLineString","properties":{"kind":"major_road","network":"Lokalne ceste","sort_rank":377,"landuse_kind":"urban_area","is_bicycle_related":true,"bicycle_shield_text":"N3","bicycle_network":"ncn","source":"openstreetmap.org","min_zoom":8.0,"kind_detail":"tertiary","shield_text":"10129","ref":"10129"},"arcs":[[90],[91],[92]]},{"type":"LineString","properties":{"bus_network":"local","cycleway_left":"track","network":"Dr\u017eavne ceste","sort_rank":380,"kind_detail":"primary","is_bicycle_related":true,"kind":"major_road","bicycle_shield_text":"SM\u017d 01","bicycle_network":"rcn","source":"openstreetmap.org","min_zoom":8.0,"bus_shield_text":"2","shield_text":"37","landuse_kind":"urban_area","ref":"D37"},"arcs":[93]},{"type":"LineString","properties":{"kind":"major_road","network":"Dr\u017eavne ceste","sort_rank":380,"kind_detail":"primary","source":"openstreetmap.org","min_zoom":8.0,"shield_text":"540","ref":"D540"},"arcs":[94]},{"type":"LineString","properties":{"kind":"minor_road","sort_rank":360,"kind_detail":"residential","is_bicycle_related":true,"bicycle_shield_text":"N1","bicycle_network":"ncn","source":"openstreetmap.org","min_zoom":8.0},"arcs":[95]},{"type":"MultiLineString","properties":{"kind":"major_road","network":"Dr\u017eavne ceste","sort_rank":380,"kind_detail":"primary","source":"openstreetmap.org","min_zoom":8.0,"landuse_kind":"residential","shield_text":"1","ref":"D1"},"arcs":[[96],[97],[98],[99],[100],[101],[102]]},{"type":"MultiLineString","properties":{"bus_network":null,"sort_rank":380,"kind_detail":"primary","kind":"major_road","source":"openstreetmap.org","min_zoom":8.0,"bus_shield_text":"WG 1","landuse_kind":"urban_area","ref":"D225"},"arcs":[[103],[104]]},{"type":"LineString","properties":{"kind":"highway","network":"Dr\u017eavne ceste","sort_rank":383,"landuse_kind":"urban_area","source":"openstreetmap.org","min_zoom":8.0,"all_networks":["Dr\u017eavne ceste","Autoceste","e-road","e-road",null],"kind_detail":"motorway","shield_text":"3","ref":"A4;D3","all_shield_texts":["3","4","65","71","11"]},"arcs":[105]},{"type":"MultiLineString","properties":{"kind":"major_road","network":"Dr\u017eavne ceste","sort_rank":380,"kind_detail":"primary","source":"openstreetmap.org","min_zoom":8.0,"shield_text":"231","ref":"D231"},"arcs":[[106],[107],[108]]},{"type":"LineString","properties":{"kind":"major_road","network":"Dr\u017eavne ceste","sort_rank":380,"kind_detail":"primary","is_bicycle_related":true,"source":"openstreetmap.org","min_zoom":8.0,"landuse_kind":"residential","shield_text":"3","ref":"D3","id":333831795},"arcs":[109]},{"type":"MultiLineString","properties":{"bus_network":"local","network":"\u017dupanijske ceste","sort_rank":379,"kind_detail":"secondary","is_bicycle_related":true,"kind":"major_road","bicycle_shield_text":"N2","bicycle_network":"ncn","source":"openstreetmap.org","min_zoom":8.0,"bus_shield_text":"174","shield_text":"2195","ref":"2195"},"arcs":[[110],[111]]},{"type":"LineString","properties":{"bus_network":"local","network":"Lokalne ceste","sort_rank":377,"kind_detail":"tertiary","is_bicycle_related":true,"kind":"major_road","bicycle_shield_text":"N1","bicycle_network":"ncn","source":"openstreetmap.org","min_zoom":8.0,"bus_shield_text":"110","shield_text":"10102","landuse_kind":"urban_area","ref":"10102","id":39197785},"arcs":[112]},{"type":"MultiLineString","properties":{"kind":"major_road","network":"Dr\u017eavne ceste","sort_rank":380,"kind_detail":"primary","is_bicycle_related":true,"bicycle_shield_text":"10","bicycle_network":"rcn","source":"openstreetmap.org","min_zoom":8.0,"shield_text":"1","ref":"D1"},"arcs":[[113],[114]]},{"type":"LineString","properties":{"kind":"major_road","network":"Dr\u017eavne ceste","sort_rank":380,"kind_detail":"primary","source":"openstreetmap.org","min_zoom":8.0,"landuse_kind":"urban_area","shield_text":"3","ref":"D3"},"arcs":[115]},{"type":"MultiLineString","properties":{"kind":"major_road","network":"Dr\u017eavne ceste","sort_rank":380,"kind_detail":"primary","source":"openstreetmap.org","min_zoom":8.0,"shield_text":"28","ref":"D28"},"arcs":[[116],[117]]},{"type":"LineString","properties":{"cycleway_right":"track","network":"\u017dupanijske ceste","sort_rank":379,"landuse_kind":"urban_area","is_bicycle_related":true,"bus_network":"local","bicycle_shield_text":"N2","bicycle_network":"ncn","source":"openstreetmap.org","min_zoom":8.0,"bus_shield_text":"172","shield_text":"2186","kind_detail":"secondary","ref":"2186","kind":"major_road"},"arcs":[118]},{"type":"MultiLineString","properties":{"bus_network":"local","network":"Lokalne ceste","sort_rank":377,"landuse_kind":"urban_area","is_bicycle_related":true,"kind":"major_road","bicycle_shield_text":"N1","bicycle_network":"ncn","source":"openstreetmap.org","min_zoom":8.0,"bus_shield_text":"234","shield_text":"10096","kind_detail":"tertiary","ref":"10096"},"arcs":[[119],[120]]},{"type":"MultiLineString","properties":{"bus_network":"local","network":"Dr\u017eavne ceste","sort_rank":380,"kind_detail":"primary","kind":"major_road","source":"openstreetmap.org","min_zoom":8.0,"bus_shield_text":"182","shield_text":"225","landuse_kind":"urban_area","ref":"D225"},"arcs":[[121],[122],[123]]},{"type":"MultiLineString","properties":{"kind":"major_road","network":"Dr\u017eavne ceste","sort_rank":380,"kind_detail":"primary","source":"openstreetmap.org","min_zoom":8.0,"landuse_kind":"nature_reserve","shield_text":"29","ref":"D29"},"arcs":[[124],[125]]},{"type":"LineString","properties":{"kind":"major_road","network":"Dr\u017eavne ceste","sort_rank":380,"kind_detail":"primary","is_bicycle_related":true,"bus_network":"local","source":"openstreetmap.org","min_zoom":8.0,"bus_shield_text":"273","shield_text":"3","ref":"D3","id":131554386},"arcs":[126]},{"type":"LineString","properties":{"kind":"major_road","network":"Dr\u017eavne ceste","sort_rank":380,"kind_detail":"primary","is_bicycle_related":true,"bicycle_shield_text":"2","bicycle_network":"rcn","source":"openstreetmap.org","min_zoom":8.0,"shield_text":"1","ref":"D1;D3"},"arcs":[127]},{"type":"LineString","properties":{"kind":"major_road","sort_rank":355,"kind_detail":"secondary_link","is_bicycle_related":true,"bus_network":"local","bicycle_shield_text":"N3","bicycle_network":"ncn","source":"openstreetmap.org","min_zoom":8.0,"is_link":true,"bus_shield_text":"151","landuse_kind":"urban_area","id":179268111},"arcs":[128]},{"type":"MultiLineString","properties":{"kind":"major_road","int_name":"D43 road","network":"Dr\u017eavne ceste","sort_rank":380,"kind_detail":"primary","is_bicycle_related":true,"source":"openstreetmap.org","min_zoom":8.0,"shield_text":"43","ref":"D43"},"arcs":[[129],[130],[131],[132],[133]]},{"type":"LineString","properties":{"bus_network":"local","network":"Dr\u017eavne ceste","sort_rank":380,"kind_detail":"primary","is_bicycle_related":true,"cycleway_right":"lane","bicycle_shield_text":"SM\u017d 01","bicycle_network":"rcn","source":"openstreetmap.org","min_zoom":8.0,"bus_shield_text":"2","shield_text":"37","landuse_kind":"urban_area","ref":"D37","kind":"major_road"},"arcs":[134]},{"type":"LineString","properties":{"kind":"major_road","network":"Dr\u017eavne ceste","sort_rank":380,"kind_detail":"primary","is_bicycle_related":true,"bicycle_shield_text":"3","bicycle_network":"rcn","source":"openstreetmap.org","min_zoom":8.0,"shield_text":"228","ref":"D228"},"arcs":[135]},{"type":"LineString","properties":{"kind":"major_road","cycleway_left":"lane","network":"Dr\u017eavne ceste","sort_rank":380,"kind_detail":"primary","is_bicycle_related":true,"bicycle_shield_text":"SM\u017d 01","bicycle_network":"rcn","source":"openstreetmap.org","min_zoom":8.0,"landuse_kind":"urban_area","shield_text":"37","ref":"D37","id":194837759},"arcs":[136]},{"type":"LineString","properties":{"sort_rank":381,"source":"openstreetmap.org","min_zoom":8.0,"kind":"major_road","kind_detail":"trunk"},"arcs":[137]},{"type":"LineString","properties":{"kind":"major_road","network":"Dr\u017eavne ceste","sort_rank":380,"kind_detail":"primary","source":"openstreetmap.org","min_zoom":8.0,"shield_text":"30","ref":"D30"},"arcs":[138]},{"type":"MultiLineString","properties":{"source":"openstreetmap.org","kind":"highway","landuse_kind":"urban_area","sort_rank":383,"kind_detail":"motorway","min_zoom":8.0},"arcs":[[139],[140]]},{"type":"LineString","properties":{"bus_network":"local","network":"\u017dupanijske ceste","sort_rank":379,"kind_detail":"secondary","is_bicycle_related":true,"kind":"major_road","bicycle_shield_text":"N3","bicycle_network":"ncn","source":"openstreetmap.org","min_zoom":8.0,"bus_shield_text":"216","shield_text":"1036","ref":"1036"},"arcs":[141]},{"type":"LineString","properties":{"kind":"major_road","network":"\u017dupanijske ceste","sort_rank":379,"kind_detail":"secondary","is_bicycle_related":true,"bicycle_shield_text":null,"bicycle_network":"ncn","source":"openstreetmap.org","min_zoom":8.0,"shield_text":"3121","ref":"3121"},"arcs":[142]},{"type":"MultiLineString","properties":{"kind":"highway","network":"Autoceste","sort_rank":383,"kind_detail":"motorway","source":"openstreetmap.org","min_zoom":8.0,"all_networks":["Autoceste"],"shield_text":"11","ref":"A11","all_shield_texts":["11"]},"arcs":[[143],[144]]},{"type":"LineString","properties":{"kind":"major_road","sort_rank":355,"kind_detail":"secondary_link","is_bicycle_related":true,"bicycle_shield_text":"N3","bicycle_network":"ncn","source":"openstreetmap.org","min_zoom":8.0,"is_link":true,"landuse_kind":"urban_area","id":89361046},"arcs":[145]},{"type":"LineString","properties":{"kind":"major_road","network":"Dr\u017eavne ceste","sort_rank":380,"kind_detail":"primary","source":"openstreetmap.org","min_zoom":8.0,"shield_text":"228","ref":"D228"},"arcs":[146]},{"type":"LineString","properties":{"bus_network":"local","network":"Dr\u017eavne ceste","sort_rank":380,"kind_detail":"primary","kind":"major_road","source":"openstreetmap.org","min_zoom":8.0,"bus_shield_text":"3","shield_text":"36","landuse_kind":"urban_area","ref":"D36"},"arcs":[147]},{"type":"MultiLineString","properties":{"source":"openstreetmap.org","kind":"major_road","sort_rank":380,"kind_detail":"primary","ref":"D26","min_zoom":8.0},"arcs":[[148],[149]]},{"type":"MultiLineString","properties":{"bus_network":null,"network":"Dr\u017eavne ceste","sort_rank":380,"kind_detail":"primary","kind":"major_road","source":"openstreetmap.org","min_zoom":8.0,"bus_shield_text":"290","shield_text":"30","landuse_kind":"urban_area","ref":"D30"},"arcs":[[150],[151],[152]]},{"type":"MultiLineString","properties":{"kind":"major_road","network":"Dr\u017eavne ceste","sort_rank":380,"kind_detail":"primary","source":"openstreetmap.org","min_zoom":8.0,"shield_text":"23","ref":"D23"},"arcs":[[153],[154],[155]]},{"type":"LineString","properties":{"kind":"major_road","network":"Lokalne ceste","sort_rank":377,"kind_detail":"tertiary","is_bicycle_related":true,"bicycle_shield_text":"N1","bicycle_network":"ncn","source":"openstreetmap.org","min_zoom":8.0,"shield_text":"10167","ref":"10167","id":519302170},"arcs":[156]},{"type":"LineString","properties":{"source":"openstreetmap.org","kind":"major_road","landuse_kind":"residential","sort_rank":380,"kind_detail":"primary","ref":"D41","min_zoom":8.0},"arcs":[157]},{"type":"MultiLineString","properties":{"kind":"major_road","network":"Dr\u017eavne ceste","sort_rank":380,"kind_detail":"primary","is_bicycle_related":true,"bicycle_shield_text":"1","bicycle_network":"rcn","source":"openstreetmap.org","min_zoom":8.0,"landuse_kind":"urban_area","shield_text":"6","ref":"D6"},"arcs":[[158],[159]]},{"type":"MultiLineString","properties":{"kind":"major_road","network":"Dr\u017eavne ceste","sort_rank":380,"kind_detail":"primary","source":"openstreetmap.org","min_zoom":8.0,"shield_text":"31","ref":"D31"},"arcs":[[160],[161]]},{"type":"LineString","properties":{"bus_network":"local","network":"Dr\u017eavne ceste","sort_rank":380,"kind_detail":"primary","kind":"major_road","source":"openstreetmap.org","min_zoom":8.0,"bus_shield_text":"260a","shield_text":"1","ref":"D1;D3"},"arcs":[162]},{"type":"LineString","properties":{"bus_network":"local","network":"Lokalne ceste","sort_rank":379,"kind_detail":"secondary","is_bicycle_related":true,"kind":"major_road","bicycle_shield_text":"N3","bicycle_network":"ncn","source":"openstreetmap.org","min_zoom":8.0,"bus_shield_text":"281","shield_text":"10129","landuse_kind":"urban_area","ref":"10129","id":129726106},"arcs":[163]},{"type":"MultiLineString","properties":{"kind":"major_road","network":"Dr\u017eavne ceste","sort_rank":380,"kind_detail":"primary","is_bicycle_related":true,"bicycle_shield_text":"RC-1","bicycle_network":"rcn","source":"openstreetmap.org","min_zoom":8.0,"shield_text":"26","ref":"D26"},"arcs":[[164],[165],[166]]},{"type":"MultiLineString","properties":{"kind":"major_road","network":"Dr\u017eavne ceste","sort_rank":380,"kind_detail":"primary","source":"openstreetmap.org","min_zoom":8.0,"shield_text":"310","ref":"D310"},"arcs":[[167],[168],[169],[170]]},{"type":"MultiLineString","properties":{"kind":"major_road","network":"Dr\u017eavne ceste","sort_rank":380,"kind_detail":"primary","source":"openstreetmap.org","min_zoom":8.0,"shield_text":"29","ref":"D29"},"arcs":[[171],[172],[173],[174],[175]]},{"type":"LineString","properties":{"bus_network":"RBR","network":"Dr\u017eavne ceste","sort_rank":380,"kind_detail":"primary","is_bicycle_related":true,"kind":"major_road","bicycle_shield_text":"5","bicycle_network":"lcn","source":"openstreetmap.org","min_zoom":8.0,"bus_shield_text":"Zg-Brest-To","shield_text":"6","ref":"D6"},"arcs":[176]},{"type":"LineString","properties":{"bus_network":"local","cycleway_left":"track","network":"\u017dupanijske ceste","sort_rank":379,"landuse_kind":"urban_area","is_bicycle_related":true,"kind":"major_road","bicycle_shield_text":"N2","bicycle_network":"ncn","source":"openstreetmap.org","min_zoom":8.0,"bus_shield_text":"175","shield_text":"2186","kind_detail":"secondary","ref":"2186"},"arcs":[177]},{"type":"MultiLineString","properties":{"kind":"highway","network":"Autoceste","sort_rank":383,"kind_detail":"motorway","source":"openstreetmap.org","min_zoom":8.0,"all_networks":["Autoceste","e-road","e-road"],"shield_text":"1","ref":"A1","all_shield_texts":["1","65","71"]},"arcs":[[178],[179],[180],[181],[182],[183],[184],[185],[186],[187]]},{"type":"MultiLineString","properties":{"kind":"major_road","network":"\u017dupanijske ceste","sort_rank":379,"kind_detail":"secondary","is_bicycle_related":true,"bicycle_shield_text":"N3","bicycle_network":"ncn","source":"openstreetmap.org","min_zoom":8.0,"shield_text":"3070","ref":"3070"},"arcs":[[188],[189],[190]]},{"type":"LineString","properties":{"bus_network":"local","network":"\u017dupanijske ceste","sort_rank":379,"landuse_kind":"urban_area","is_bicycle_related":true,"kind":"major_road","bicycle_shield_text":"N3","bicycle_network":"ncn","source":"openstreetmap.org","min_zoom":8.0,"bus_shield_text":"143a","shield_text":"3055","kind_detail":"secondary","ref":"\u017d3055"},"arcs":[191]},{"type":"LineString","properties":{"bus_network":null,"network":"Dr\u017eavne ceste","sort_rank":380,"kind_detail":"primary","is_bicycle_related":true,"kind":"major_road","bicycle_shield_text":"SM\u017d 01","bicycle_network":"rcn","source":"openstreetmap.org","min_zoom":8.0,"bus_shield_text":"1","shield_text":"37","landuse_kind":"urban_area","ref":"D37"},"arcs":[192]},{"type":"MultiLineString","properties":{"kind":"major_road","network":"Dr\u017eavne ceste","sort_rank":380,"kind_detail":"primary","source":"openstreetmap.org","min_zoom":8.0,"landuse_kind":"urban_area","shield_text":"225","ref":"D225"},"arcs":[[193],[194]]},{"type":"LineString","properties":{"bus_network":"local","network":"\u017dupanijske ceste","sort_rank":379,"landuse_kind":"urban_area","is_bicycle_related":true,"kind":"major_road","bicycle_shield_text":"N3","bicycle_network":"ncn","source":"openstreetmap.org","min_zoom":8.0,"bus_shield_text":"156","shield_text":"3060","kind_detail":"secondary","ref":"\u017d3060"},"arcs":[195]},{"type":"MultiLineString","properties":{"kind":"highway","network":"Autoceste","sort_rank":383,"landuse_kind":"residential","source":"openstreetmap.org","min_zoom":8.0,"all_networks":["Autoceste","e-road"],"kind_detail":"motorway","shield_text":"2","ref":"A2","all_shield_texts":["2","59"]},"arcs":[[196],[197],[198],[199]]},{"type":"LineString","properties":{"bus_network":null,"network":"\u017dupanijske ceste","sort_rank":379,"kind_detail":"secondary","is_bicycle_related":true,"kind":"major_road","bicycle_shield_text":"N1","bicycle_network":"ncn","source":"openstreetmap.org","min_zoom":8.0,"bus_shield_text":"263","shield_text":"1037","ref":"1037"},"arcs":[200]},{"type":"LineString","properties":{"kind":"major_road","network":"Dr\u017eavne ceste","sort_rank":380,"kind_detail":"primary","is_bicycle_related":true,"bicycle_shield_text":"TZKZ 5","bicycle_network":"lcn","source":"openstreetmap.org","min_zoom":8.0,"shield_text":"23","ref":"D23","id":283520586},"arcs":[201]},{"type":"LineString","properties":{"bus_network":null,"sort_rank":380,"kind_detail":"primary","kind":"major_road","source":"openstreetmap.org","min_zoom":8.0,"bus_shield_text":"1","landuse_kind":"urban_area"},"arcs":[202]},{"type":"MultiLineString","properties":{"bus_network":"local","network":"Dr\u017eavne ceste","sort_rank":380,"kind_detail":"primary","kind":"major_road","source":"openstreetmap.org","min_zoom":8.0,"bus_shield_text":"151","shield_text":"231","ref":"D231"},"arcs":[[203],[204],[205]]},{"type":"LineString","properties":{"bus_network":"RBR","network":"Dr\u017eavne ceste","sort_rank":380,"kind_detail":"primary","is_bicycle_related":true,"kind":"major_road","bicycle_shield_text":"SM\u017d 01","bicycle_network":"rcn","source":"openstreetmap.org","min_zoom":8.0,"bus_shield_text":"Zg-Brest-To","shield_text":"30","landuse_kind":"residential","ref":"D37","id":42109917},"arcs":[206]},{"type":"MultiLineString","properties":{"kind":"highway","network":"Autoceste","sort_rank":383,"landuse_kind":"urban_area","source":"openstreetmap.org","min_zoom":8.0,"all_networks":["Autoceste"],"kind_detail":"motorway","shield_text":"11","ref":"A11","all_shield_texts":["11"]},"arcs":[[207],[208]]},{"type":"LineString","properties":{"kind":"highway","network":"Dr\u017eavne ceste","sort_rank":383,"kind_detail":"motorway","source":"openstreetmap.org","min_zoom":8.0,"all_networks":["Dr\u017eavne ceste","Autoceste","e-road","e-road",null],"shield_text":"3","ref":"A4;D3","all_shield_texts":["3","4","65","71","11"]},"arcs":[209]},{"type":"MultiLineString","properties":{"kind":"major_road","sort_rank":355,"kind_detail":"secondary_link","is_bicycle_related":true,"bicycle_shield_text":"N2","bicycle_network":"ncn","source":"openstreetmap.org","min_zoom":8.0,"is_link":true},"arcs":[[210],[211],[212]]},{"type":"MultiLineString","properties":{"source":"openstreetmap.org","kind":"major_road","landuse_kind":"urban_area","sort_rank":380,"kind_detail":"primary","min_zoom":8.0},"arcs":[[213],[214],[215],[216],[217],[218],[219]]},{"type":"MultiLineString","properties":{"kind":"major_road","network":"Dr\u017eavne ceste","sort_rank":380,"kind_detail":"primary","source":"openstreetmap.org","min_zoom":8.0,"landuse_kind":"urban_area","shield_text":"1","ref":"D1"},"arcs":[[220],[221],[222],[223],[224],[225],[226],[227],[228],[229],[230],[231],[232]]},{"type":"LineString","properties":{"kind":"major_road","network":"Dr\u017eavne ceste","sort_rank":380,"kind_detail":"primary","source":"openstreetmap.org","min_zoom":8.0,"shield_text":"216","ref":"D216"},"arcs":[233]},{"type":"MultiLineString","properties":{"bus_network":"local","network":"Dr\u017eavne ceste","sort_rank":380,"kind_detail":"primary","kind":"major_road","source":"openstreetmap.org","min_zoom":8.0,"bus_shield_text":"151","shield_text":"231"},"arcs":[[234],[235]]},{"type":"LineString","properties":{"bus_network":null,"network":"Dr\u017eavne ceste","sort_rank":380,"kind_detail":"primary","kind":"major_road","source":"openstreetmap.org","min_zoom":8.0,"bus_shield_text":"WG 1","shield_text":"225","landuse_kind":"urban_area","ref":"D225"},"arcs":[236]},{"type":"MultiLineString","properties":{"kind":"major_road","network":"Dr\u017eavne ceste","sort_rank":380,"kind_detail":"primary","source":"openstreetmap.org","min_zoom":8.0,"landuse_kind":"urban_area","shield_text":"6","ref":"D6"},"arcs":[[237],[238],[239]]},{"type":"LineString","properties":{"bus_network":null,"network":"Lokalne ceste","sort_rank":377,"landuse_kind":"urban_area","is_bicycle_related":true,"kind":"major_road","bicycle_shield_text":"N3","bicycle_network":"ncn","source":"openstreetmap.org","min_zoom":8.0,"bus_shield_text":"107","shield_text":"10133","kind_detail":"tertiary","ref":"10133"},"arcs":[240]},{"type":"LineString","properties":{"kind":"highway","network":"Dr\u017eavne ceste","sort_rank":383,"landuse_kind":"urban_area","source":"openstreetmap.org","min_zoom":8.0,"all_networks":["Dr\u017eavne ceste","Autoceste","e-road"],"kind_detail":"motorway","shield_text":"1","ref":"A3;D1","all_shield_texts":["1","3","70"]},"arcs":[241]},{"type":"LineString","properties":{"kind":"major_road","network":"Dr\u017eavne ceste","sort_rank":380,"kind_detail":"primary","source":"openstreetmap.org","min_zoom":8.0,"shield_text":"225","ref":"D225"},"arcs":[242]},{"type":"MultiLineString","properties":{"kind":"major_road","network":"SI:G1","sort_rank":380,"kind_detail":"primary","source":"openstreetmap.org","min_zoom":8.0,"shield_text":"5","ref":"5"},"arcs":[[243],[244],[245],[246],[247],[248],[249],[250]]},{"type":"LineString","properties":{"kind":"minor_road","sort_rank":360,"kind_detail":"residential","is_bicycle_related":true,"bicycle_shield_text":"N3","bicycle_network":"ncn","source":"openstreetmap.org","min_zoom":8.0},"arcs":[251]},{"type":"LineString","properties":{"kind":"major_road","network":"Dr\u017eavne ceste","sort_rank":380,"kind_detail":"primary","is_bicycle_related":true,"bicycle_shield_text":"N3","bicycle_network":"ncn","source":"openstreetmap.org","min_zoom":8.0,"shield_text":"231","ref":"D231"},"arcs":[252]},{"type":"LineString","properties":{"kind":"major_road","sort_rank":380,"kind_detail":"primary","bus_network":"local","source":"openstreetmap.org","min_zoom":8.0,"bus_shield_text":"111","landuse_kind":"urban_area","id":41242011},"arcs":[253]},{"type":"MultiLineString","properties":{"kind":"major_road","network":"Dr\u017eavne ceste","sort_rank":380,"kind_detail":"primary","source":"openstreetmap.org","min_zoom":8.0,"shield_text":"6","ref":"D6"},"arcs":[[254],[255],[256],[257]]},{"type":"MultiLineString","properties":{"kind":"major_road","network":"Dr\u017eavne ceste","sort_rank":380,"kind_detail":"primary","source":"openstreetmap.org","min_zoom":8.0,"shield_text":"45","ref":"D45"},"arcs":[[258],[259]]},{"type":"MultiLineString","properties":{"bus_network":"local","network":"Dr\u017eavne ceste","sort_rank":380,"kind_detail":"primary","kind":"major_road","source":"openstreetmap.org","min_zoom":8.0,"bus_shield_text":"164","shield_text":"1","ref":"D1;D3"},"arcs":[[260],[261]]},{"type":"LineString","properties":{"kind":"major_road","sort_rank":377,"kind_detail":"tertiary","is_bicycle_related":true,"bicycle_shield_text":"N1","bicycle_network":"ncn","source":"openstreetmap.org","min_zoom":8.0,"landuse_kind":"urban_area","ref":"10096","id":404684376},"arcs":[262]},{"type":"MultiLineString","properties":{"kind":"highway","network":"e-road","sort_rank":383,"kind_detail":"motorway","source":"openstreetmap.org","min_zoom":8.0,"all_networks":["e-road","SI:AC"],"shield_text":"70","ref":"A2","all_shield_texts":["70","2"]},"arcs":[[263],[264],[265],[266],[267],[268]]},{"type":"LineString","properties":{"kind":"major_road","network":"Dr\u017eavne ceste","sort_rank":380,"landuse_kind":"residential","is_bicycle_related":true,"bicycle_shield_text":"SM\u017d 01","bicycle_network":"rcn","source":"openstreetmap.org","min_zoom":8.0,"kind_detail":"primary","shield_text":"36","ref":"D36"},"arcs":[269]},{"type":"LineString","properties":{"kind":"major_road","network":"\u017dupanijske ceste","sort_rank":379,"kind_detail":"secondary","is_bicycle_related":true,"bicycle_shield_text":null,"bicycle_network":"ncn","source":"openstreetmap.org","min_zoom":8.0,"shield_text":"3070","ref":"3070"},"arcs":[270]},{"type":"LineString","properties":{"kind":"minor_road","sort_rank":360,"kind_detail":"unclassified","is_bicycle_related":true,"bicycle_shield_text":"N1","bicycle_network":"ncn","source":"openstreetmap.org","min_zoom":8.0,"id":112466653},"arcs":[271]},{"type":"MultiLineString","properties":{"kind":"highway","network":"Autoceste","sort_rank":383,"landuse_kind":"urban_area","source":"openstreetmap.org","min_zoom":8.0,"all_networks":["Autoceste","e-road"],"kind_detail":"motorway","shield_text":"2","ref":"A2","all_shield_texts":["2","59"]},"arcs":[[272],[273]]},{"type":"LineString","properties":{"bus_network":"local","network":"\u017dupanijske ceste","sort_rank":379,"kind_detail":"secondary","is_bicycle_related":true,"kind":"major_road","bicycle_shield_text":"N1","bicycle_network":"ncn","source":"openstreetmap.org","min_zoom":8.0,"bus_shield_text":"159","shield_text":"1043","ref":"1043"},"arcs":[274]},{"type":"MultiLineString","properties":{"bus_network":"RBR","network":"Dr\u017eavne ceste","sort_rank":380,"kind_detail":"primary","kind":"major_road","source":"openstreetmap.org","min_zoom":8.0,"bus_shield_text":"Zg-Brest-To","shield_text":"30","ref":"D30"},"arcs":[[275],[276],[277],[278]]},{"type":"LineString","properties":{"kind":"major_road","sort_rank":355,"kind_detail":"tertiary_link","is_bicycle_related":true,"bus_network":null,"bicycle_shield_text":"N3","bicycle_network":"ncn","source":"openstreetmap.org","min_zoom":8.0,"is_link":true,"bus_shield_text":"107","landuse_kind":"urban_area","id":171768065},"arcs":[279]},{"type":"LineString","properties":{"kind":"major_road","sort_rank":380,"kind_detail":"primary","bus_network":"local","source":"openstreetmap.org","min_zoom":8.0,"bus_shield_text":"2","landuse_kind":"urban_area","id":291352556},"arcs":[280]},{"type":"LineString","properties":{"kind":"major_road","network":"ba:Magistralne ceste","sort_rank":380,"kind_detail":"primary","source":"openstreetmap.org","min_zoom":8.0,"shield_text":"15","ref":"M-15"},"arcs":[281]},{"type":"LineString","properties":{"kind":"major_road","network":"Dr\u017eavne ceste","sort_rank":380,"kind_detail":"primary","source":"openstreetmap.org","min_zoom":8.0,"shield_text":"536","ref":"D536"},"arcs":[282]},{"type":"LineString","properties":{"kind":"major_road","network":"Dr\u017eavne ceste","sort_rank":381,"kind_detail":"trunk","source":"openstreetmap.org","min_zoom":8.0,"landuse_kind":"urban_area","shield_text":"1","ref":"D1","id":447296977},"arcs":[283]},{"type":"LineString","properties":{"source":"openstreetmap.org","kind":"major_road","sort_rank":380,"kind_detail":"primary","ref":"D28","min_zoom":8.0,"id":184279846},"arcs":[284]},{"type":"LineString","properties":{"bus_network":"local","network":"Lokalne ceste","sort_rank":377,"kind_detail":"tertiary","is_bicycle_related":true,"kind":"major_road","bicycle_shield_text":"N3","bicycle_network":"ncn","source":"openstreetmap.org","min_zoom":8.0,"bus_shield_text":"216","shield_text":"10145","landuse_kind":"urban_area","ref":"10145","id":129728155},"arcs":[285]},{"type":"MultiLineString","properties":{"kind":"major_road","network":"Dr\u017eavne ceste","sort_rank":381,"kind_detail":"trunk","source":"openstreetmap.org","min_zoom":8.0,"shield_text":"10","ref":"D10"},"arcs":[[286],[287],[288]]},{"type":"MultiLineString","properties":{"source":"openstreetmap.org","kind":"major_road","network":"Dr\u017eavne ceste","sort_rank":381,"kind_detail":"trunk","min_zoom":8.0,"shield_text":"14"},"arcs":[[289],[290],[291],[292],[293],[294],[295]]},{"type":"LineString","properties":{"kind":"major_road","network":"Dr\u017eavne ceste","sort_rank":380,"kind_detail":"primary","is_bicycle_related":true,"bicycle_shield_text":"RC-1","bicycle_network":"rcn","source":"openstreetmap.org","min_zoom":8.0,"landuse_kind":"residential","shield_text":"3","ref":"D3"},"arcs":[296]},{"type":"LineString","properties":{"kind":"major_road","network":"ba:Magistralne ceste","sort_rank":380,"kind_detail":"primary","source":"openstreetmap.org","min_zoom":8.0,"shield_text":"14","ref":"M-14"},"arcs":[297]},{"type":"LineString","properties":{"kind":"major_road","network":"Dr\u017eavne ceste","sort_rank":380,"kind_detail":"primary","is_bicycle_related":true,"bicycle_shield_text":null,"bicycle_network":"rcn","source":"openstreetmap.org","min_zoom":8.0,"shield_text":"36","ref":"D36"},"arcs":[298]},{"type":"LineString","properties":{"kind":"major_road","network":"Dr\u017eavne ceste","sort_rank":380,"kind_detail":"primary","is_bicycle_related":true,"bicycle_shield_text":"RC-1","bicycle_network":"rcn","source":"openstreetmap.org","min_zoom":8.0,"shield_text":"36","ref":"D36"},"arcs":[299]},{"type":"LineString","properties":{"kind":"major_road","network":"Dr\u017eavne ceste","sort_rank":380,"kind_detail":"primary","is_bicycle_related":true,"bicycle_shield_text":null,"bicycle_network":"rcn","source":"openstreetmap.org","min_zoom":8.0,"shield_text":"31","ref":"D31;D36"},"arcs":[300]},{"type":"MultiLineString","properties":{"source":"openstreetmap.org","kind":"major_road","landuse_kind":"urban_area","sort_rank":380,"kind_detail":"primary","ref":"D1","min_zoom":8.0},"arcs":[[301],[302]]},{"type":"LineString","properties":{"kind":"major_road","network":"Dr\u017eavne ceste","sort_rank":380,"kind_detail":"primary","is_bicycle_related":true,"bicycle_shield_text":"SM\u017d 03","bicycle_network":"rcn","source":"openstreetmap.org","min_zoom":8.0,"landuse_kind":"residential","shield_text":"30","ref":"D30"},"arcs":[303]},{"type":"LineString","properties":{"kind":"major_road","network":"Dr\u017eavne ceste","sort_rank":380,"kind_detail":"primary","is_bicycle_related":true,"bicycle_shield_text":"SM\u017d 02","bicycle_network":"rcn","source":"openstreetmap.org","min_zoom":8.0,"landuse_kind":"urban_area","shield_text":"224","ref":"D224","id":15581136},"arcs":[304]},{"type":"LineString","properties":{"kind":"major_road","network":"Dr\u017eavne ceste","sort_rank":380,"kind_detail":"primary","bicycle_shield_text":"PPLP 01","bicycle_network":null,"source":"openstreetmap.org","min_zoom":8.0,"shield_text":"224","ref":"D224"},"arcs":[305]},{"type":"MultiLineString","properties":{"kind":"major_road","network":"ba:Magistralne ceste","sort_rank":380,"kind_detail":"primary","source":"openstreetmap.org","min_zoom":8.0,"shield_text":"4.2","ref":"M 101;M 4.2"},"arcs":[[306],[307]]},{"type":"LineString","properties":{"kind":"major_road","network":"Dr\u017eavne ceste","sort_rank":380,"kind_detail":"primary","is_bicycle_related":true,"source":"openstreetmap.org","min_zoom":8.0,"shield_text":"26","ref":"D26; D43","id":150236688},"arcs":[308]},{"type":"LineString","properties":{"bus_network":null,"network":"\u017dupanijske ceste","sort_rank":379,"kind_detail":"secondary","is_bicycle_related":true,"kind":"major_road","bicycle_shield_text":null,"bicycle_network":"ncn","source":"openstreetmap.org","min_zoom":8.0,"bus_shield_text":"5","shield_text":"3120","landuse_kind":"urban_area","ref":"3120","id":205599447},"arcs":[309]},{"type":"LineString","properties":{"kind":"major_road","network":"Dr\u017eavne ceste","sort_rank":380,"kind_detail":"primary","source":"openstreetmap.org","min_zoom":8.0,"landuse_kind":"residential","shield_text":"43","ref":"D43"},"arcs":[310]},{"type":"LineString","properties":{"kind":"major_road","network":"Dr\u017eavne ceste","sort_rank":380,"kind_detail":"primary","source":"openstreetmap.org","min_zoom":8.0,"landuse_kind":"urban_area","shield_text":"1","ref":"D1;D3"},"arcs":[311]},{"type":"LineString","properties":{"kind":"major_road","network":"\u017dupanijske ceste","sort_rank":379,"kind_detail":"secondary","is_bicycle_related":true,"bicycle_shield_text":"N2","bicycle_network":"ncn","source":"openstreetmap.org","min_zoom":8.0,"landuse_kind":"residential","shield_text":"2160","ref":"2160","id":471497287},"arcs":[312]},{"type":"MultiLineString","properties":{"bus_network":"local","network":"Dr\u017eavne ceste","sort_rank":380,"landuse_kind":"urban_area","kind":"major_road","source":"openstreetmap.org","min_zoom":8.0,"bus_shield_text":null,"shield_text":"408","kind_detail":"primary","ref":"D408"},"arcs":[[313],[314]]},{"type":"LineString","properties":{"bus_network":"local","network":"Dr\u017eavne ceste","sort_rank":380,"kind_detail":"primary","kind":"major_road","source":"openstreetmap.org","min_zoom":8.0,"bus_shield_text":"164","shield_text":"1","landuse_kind":"urban_area","ref":"D1;D3"},"arcs":[315]},{"type":"MultiLineString","properties":{"kind":"major_road","network":"Dr\u017eavne ceste","sort_rank":380,"kind_detail":"primary","is_bicycle_related":true,"bicycle_shield_text":"SM\u017d 01","bicycle_network":"rcn","source":"openstreetmap.org","min_zoom":8.0,"shield_text":"47","ref":"D47"},"arcs":[[316],[317]]},{"type":"MultiLineString","properties":{"bus_network":null,"network":"Dr\u017eavne ceste","sort_rank":380,"kind_detail":"primary","kind":"major_road","source":"openstreetmap.org","min_zoom":8.0,"bus_shield_text":"WG 1","shield_text":"1","landuse_kind":"urban_area","ref":"D1"},"arcs":[[318],[319]]},{"type":"LineString","properties":{"bus_network":"local","network":"Lokalne ceste","sort_rank":377,"kind_detail":"tertiary","is_bicycle_related":true,"kind":"major_road","bicycle_shield_text":"N3","bicycle_network":"ncn","source":"openstreetmap.org","min_zoom":8.0,"bus_shield_text":"236","shield_text":"10129","landuse_kind":"urban_area","ref":"10129","id":166849962},"arcs":[320]},{"type":"LineString","properties":{"bus_network":"local","network":"\u017dupanijske ceste","sort_rank":379,"kind_detail":"secondary","is_bicycle_related":true,"kind":"major_road","bicycle_shield_text":"N3","bicycle_network":"ncn","source":"openstreetmap.org","min_zoom":8.0,"bus_shield_text":"147","shield_text":"3050","ref":"\u017d3050"},"arcs":[321]},{"type":"MultiLineString","properties":{"bus_network":"local","network":"Dr\u017eavne ceste","sort_rank":380,"kind_detail":"primary","kind":"major_road","source":"openstreetmap.org","min_zoom":8.0,"bus_shield_text":"146","shield_text":"231","landuse_kind":"urban_area","ref":"D231"},"arcs":[[322],[323],[324],[325],[326]]},{"type":"LineString","properties":{"bus_network":"local","network":"Lokalne ceste","sort_rank":377,"landuse_kind":"urban_area","is_bicycle_related":true,"kind":"major_road","bicycle_shield_text":"N3","bicycle_network":"ncn","source":"openstreetmap.org","min_zoom":8.0,"bus_shield_text":"216","shield_text":"10151","kind_detail":"tertiary","ref":"10151"},"arcs":[327]},{"type":"LineString","properties":{"kind":"major_road","network":"Dr\u017eavne ceste","sort_rank":380,"kind_detail":"primary","bus_network":null,"source":"openstreetmap.org","min_zoom":8.0,"bus_shield_text":"5","shield_text":"36","landuse_kind":"urban_area","id":291352548},"arcs":[328]},{"type":"LineString","properties":{"kind":"major_road","network":"\u017dupanijske ceste","sort_rank":379,"kind_detail":"secondary","is_bicycle_related":true,"bicycle_shield_text":"N2","bicycle_network":"ncn","source":"openstreetmap.org","min_zoom":8.0,"shield_text":"2195","ref":"2195"},"arcs":[329]},{"type":"MultiLineString","properties":{"bus_network":null,"network":"Dr\u017eavne ceste","sort_rank":380,"kind_detail":"primary","kind":"major_road","source":"openstreetmap.org","min_zoom":8.0,"bus_shield_text":"290","shield_text":"408","landuse_kind":"urban_area","ref":"D408"},"arcs":[[330],[331],[332]]},{"type":"LineString","properties":{"kind":"highway","network":"Dr\u017eavne ceste","sort_rank":383,"landuse_kind":"urban_area","source":"openstreetmap.org","min_zoom":8.0,"all_networks":["Dr\u017eavne ceste","Autoceste","e-road","e-road"],"kind_detail":"motorway","shield_text":"3","ref":"A4;D3","all_shield_texts":["3","4","65","71"]},"arcs":[333]},{"type":"MultiLineString","properties":{"bus_network":null,"network":"\u017dupanijske ceste","sort_rank":379,"landuse_kind":"urban_area","is_bicycle_related":true,"kind":"major_road","bicycle_shield_text":"N2","bicycle_network":"ncn","source":"openstreetmap.org","min_zoom":8.0,"bus_shield_text":"WG 1","shield_text":"1015","kind_detail":"secondary","ref":"1015"},"arcs":[[334],[335],[336]]},{"type":"MultiLineString","properties":{"kind":"major_road","network":"Dr\u017eavne ceste","sort_rank":380,"kind_detail":"primary","source":"openstreetmap.org","min_zoom":8.0,"shield_text":"307","ref":"D307"},"arcs":[[337],[338],[339],[340],[341],[342],[343],[344],[345],[346],[347],[348]]},{"type":"LineString","properties":{"kind":"major_road","network":"Dr\u017eavne ceste","sort_rank":380,"kind_detail":"primary","is_bicycle_related":true,"bicycle_shield_text":"TZKZZ","bicycle_network":"rcn","source":"openstreetmap.org","min_zoom":8.0,"shield_text":"307","ref":"D307","id":120183543},"arcs":[349]},{"type":"MultiLineString","properties":{"bus_network":"local","network":"\u017dupanijske ceste","sort_rank":379,"kind_detail":"secondary","is_bicycle_related":true,"kind":"major_road","bicycle_shield_text":"N3","bicycle_network":"ncn","source":"openstreetmap.org","min_zoom":8.0,"bus_shield_text":"156","shield_text":"3060","ref":"\u017d3060"},"arcs":[[350],[351],[352]]},{"type":"LineString","properties":{"kind":"major_road","sort_rank":379,"kind_detail":"secondary","is_bicycle_related":true,"bicycle_shield_text":"N3","bicycle_network":"ncn","source":"openstreetmap.org","min_zoom":8.0,"landuse_kind":"residential","id":238264345},"arcs":[353]},{"type":"LineString","properties":{"bus_network":"local","network":"Lokalne ceste","sort_rank":377,"landuse_kind":"urban_area","is_bicycle_related":true,"kind":"major_road","bicycle_shield_text":"N1","bicycle_network":"ncn","source":"openstreetmap.org","min_zoom":8.0,"bus_shield_text":"159","shield_text":"10102","kind_detail":"tertiary","ref":"10102"},"arcs":[354]},{"type":"MultiLineString","properties":{"kind":"major_road","network":"Dr\u017eavne ceste","sort_rank":380,"kind_detail":"primary","source":"openstreetmap.org","min_zoom":8.0,"landuse_kind":"residential","shield_text":"45","ref":"D45"},"arcs":[[355],[356]]},{"type":"LineString","properties":{"source":"openstreetmap.org","kind":"major_road","network":"Dr\u017eavne ceste","sort_rank":380,"kind_detail":"primary","min_zoom":8.0,"shield_text":"22"},"arcs":[357]},{"type":"LineString","properties":{"kind":"major_road","sort_rank":355,"kind_detail":"secondary_link","is_bicycle_related":true,"bicycle_shield_text":"N3","bicycle_network":"ncn","source":"openstreetmap.org","min_zoom":8.0,"is_link":true,"id":235451590},"arcs":[358]},{"type":"LineString","properties":{"bus_network":null,"network":"Dr\u017eavne ceste","sort_rank":380,"kind_detail":"primary","kind":"major_road","source":"openstreetmap.org","min_zoom":8.0,"bus_shield_text":"WG 1","shield_text":"1","landuse_kind":"urban_area","ref":"D1;D225"},"arcs":[359]},{"type":"MultiLineString","properties":{"kind":"major_road","network":"Dr\u017eavne ceste","sort_rank":380,"kind_detail":"primary","source":"openstreetmap.org","min_zoom":8.0,"shield_text":"43","ref":"D43"},"arcs":[[360],[361]]},{"type":"LineString","properties":{"kind":"major_road","network":"Dr\u017eavne ceste","sort_rank":380,"kind_detail":"primary","source":"openstreetmap.org","min_zoom":8.0,"landuse_kind":"residential","shield_text":"205","ref":"D205"},"arcs":[362]},{"type":"LineString","properties":{"kind":"minor_road","sort_rank":360,"kind_detail":"unclassified","is_bicycle_related":true,"bicycle_shield_text":"N1","bicycle_network":"ncn","source":"openstreetmap.org","min_zoom":8.0,"landuse_kind":"urban_area","id":63977066},"arcs":[363]},{"type":"LineString","properties":{"bus_network":"local","network":"Dr\u017eavne ceste","sort_rank":380,"kind_detail":"primary","is_bicycle_related":true,"kind":"major_road","bicycle_shield_text":"N3","bicycle_network":"ncn","source":"openstreetmap.org","min_zoom":8.0,"bus_shield_text":"142","shield_text":"231","landuse_kind":"urban_area","ref":"D231"},"arcs":[364]},{"type":"LineString","properties":{"kind":"major_road","network":"\u017dupanijske ceste","sort_rank":380,"kind_detail":"primary","source":"openstreetmap.org","min_zoom":8.0,"shield_text":"3300","ref":"3300","id":43739145},"arcs":[365]},{"type":"MultiLineString","properties":{"bus_network":null,"network":"Dr\u017eavne ceste","sort_rank":380,"kind_detail":"primary","kind":"major_road","source":"openstreetmap.org","min_zoom":8.0,"bus_shield_text":"1","shield_text":"36","landuse_kind":"urban_area"},"arcs":[[366],[367]]},{"type":"LineString","properties":{"kind":"major_road","network":"Dr\u017eavne ceste","sort_rank":380,"kind_detail":"primary","bus_network":"RBR","source":"openstreetmap.org","min_zoom":8.0,"bus_shield_text":"Zg-Brest-To","shield_text":"30","landuse_kind":"residential","ref":"D30","id":236291988},"arcs":[368]},{"type":"LineString","properties":{"kind":"major_road","network":"Dr\u017eavne ceste","sort_rank":380,"kind_detail":"primary","is_bicycle_related":true,"bicycle_shield_text":"SM\u017d 01","bicycle_network":"rcn","source":"openstreetmap.org","min_zoom":8.0,"landuse_kind":"urban_area","shield_text":"37","ref":"D37"},"arcs":[369]},{"type":"LineString","properties":{"kind":"major_road","network":"Dr\u017eavne ceste","sort_rank":380,"kind_detail":"primary","is_bicycle_related":true,"bicycle_shield_text":"SM\u017d 01","bicycle_network":"rcn","source":"openstreetmap.org","min_zoom":8.0,"shield_text":"6","ref":"D6"},"arcs":[370]},{"type":"LineString","properties":{"bus_network":"Regional","network":"Dr\u017eavne ceste","sort_rank":380,"kind_detail":"primary","kind":"major_road","source":"openstreetmap.org","min_zoom":8.0,"bus_shield_text":"Karlovac-Topusko","shield_text":"1","ref":"D1"},"arcs":[371]},{"type":"LineString","properties":{"kind":"major_road","network":"Dr\u017eavne ceste","sort_rank":380,"kind_detail":"primary","is_bicycle_related":true,"bicycle_shield_text":"SM\u017d 02","bicycle_network":"rcn","source":"openstreetmap.org","min_zoom":8.0,"shield_text":"224","ref":"D224"},"arcs":[372]},{"type":"LineString","properties":{"bus_network":"local","network":"Dr\u017eavne ceste","sort_rank":380,"kind_detail":"primary","kind":"major_road","source":"openstreetmap.org","min_zoom":8.0,"bus_shield_text":"143a","shield_text":"1","ref":"D1;D3"},"arcs":[373]},{"type":"LineString","properties":{"bus_network":"RBR","network":"Dr\u017eavne ceste","sort_rank":380,"kind_detail":"primary","is_bicycle_related":true,"kind":"major_road","bicycle_shield_text":"RC-1","bicycle_network":"rcn","source":"openstreetmap.org","min_zoom":8.0,"bus_shield_text":"Zg-Brest-To","shield_text":"30","ref":"D30"},"arcs":[374]},{"type":"LineString","properties":{"kind":"major_road","sort_rank":379,"kind_detail":"secondary","is_bicycle_related":true,"bus_network":"local","bicycle_shield_text":"N3","bicycle_network":"ncn","source":"openstreetmap.org","min_zoom":8.0,"bus_shield_text":"116","landuse_kind":"urban_area","ref":"3063","id":157333204},"arcs":[375]},{"type":"MultiLineString","properties":{"bus_network":"Regional","network":"Dr\u017eavne ceste","sort_rank":380,"kind_detail":"primary","kind":"major_road","source":"openstreetmap.org","min_zoom":8.0,"bus_shield_text":"Karlovac-Topusko","shield_text":"6","ref":"D6"},"arcs":[[376],[377]]},{"type":"MultiLineString","properties":{"bus_network":null,"network":"Dr\u017eavne ceste","sort_rank":380,"kind_detail":"primary","kind":"major_road","source":"openstreetmap.org","min_zoom":8.0,"bus_shield_text":"1","shield_text":"37","landuse_kind":"urban_area","ref":"D37"},"arcs":[[378],[379]]},{"type":"LineString","properties":{"kind":"major_road","sort_rank":380,"kind_detail":"primary","bus_network":null,"source":"openstreetmap.org","min_zoom":8.0,"bus_shield_text":"290","landuse_kind":"urban_area","id":509391478},"arcs":[380]},{"type":"LineString","properties":{"bus_network":"RBR","network":"Dr\u017eavne ceste","sort_rank":380,"kind_detail":"primary","is_bicycle_related":true,"kind":"major_road","bicycle_shield_text":"SM\u017d 01","bicycle_network":"rcn","source":"openstreetmap.org","min_zoom":8.0,"bus_shield_text":"Zg-Brest-To","shield_text":"30","landuse_kind":"residential","ref":"D30,D37","id":38991623},"arcs":[381]},{"type":"LineString","properties":{"kind":"major_road","network":"Dr\u017eavne ceste","sort_rank":380,"kind_detail":"primary","is_bicycle_related":true,"bicycle_shield_text":"N1","bicycle_network":"ncn","source":"openstreetmap.org","min_zoom":8.0,"shield_text":"36","ref":"D36"},"arcs":[382]},{"type":"MultiLineString","properties":{"kind":"highway","network":"Autoceste","sort_rank":383,"landuse_kind":"urban_area","source":"openstreetmap.org","min_zoom":8.0,"all_networks":["Autoceste","e-road"],"kind_detail":"motorway","shield_text":"3","ref":"A3","all_shield_texts":["3","70"]},"arcs":[[383],[384],[385],[386],[387]]},{"type":"LineString","properties":{"kind":"major_road","network":"Dr\u017eavne ceste","sort_rank":380,"kind_detail":"primary","is_bicycle_related":true,"source":"openstreetmap.org","min_zoom":8.0,"landuse_kind":"residential","shield_text":"28","ref":"D28","id":389371245},"arcs":[388]},{"type":"LineString","properties":{"kind":"major_road","network":"ba:Magistralne ceste","sort_rank":380,"kind_detail":"primary","source":"openstreetmap.org","min_zoom":8.0,"shield_text":"4.2","ref":"M-4.2"},"arcs":[389]},{"type":"MultiLineString","properties":{"kind":"path","sort_rank":354,"landuse_kind":"urban_area","is_bicycle_related":true,"bicycle_shield_text":"N1","bicycle_network":"ncn","source":"openstreetmap.org","min_zoom":8.0,"kind_detail":"footway"},"arcs":[[390],[391]]},{"type":"LineString","properties":{"kind":"highway","network":"Dr\u017eavne ceste","sort_rank":383,"landuse_kind":"urban_area","source":"openstreetmap.org","min_zoom":8.0,"all_networks":["Dr\u017eavne ceste","Autoceste","e-road"],"kind_detail":"motorway","shield_text":"3","ref":"A3;D3","all_shield_texts":["3","3","70"]},"arcs":[392]},{"type":"LineString","properties":{"kind":"highway","network":"Dr\u017eavne ceste","sort_rank":383,"kind_detail":"motorway","source":"openstreetmap.org","min_zoom":8.0,"all_networks":["Dr\u017eavne ceste","Autoceste","e-road","e-road","e-road",null],"shield_text":"3","ref":"A3;D3","all_shield_texts":["3","3","65","70","71","11"]},"arcs":[393]},{"type":"LineString","properties":{"kind":"highway","network":"Autoceste","sort_rank":383,"landuse_kind":"urban_area","source":"openstreetmap.org","min_zoom":8.0,"all_networks":["Autoceste"],"kind_detail":"motorway","shield_text":"1","ref":"A1","all_shield_texts":["1"]},"arcs":[394]},{"type":"LineString","properties":{"bus_network":"local","network":"\u017dupanijske ceste","sort_rank":379,"kind_detail":"secondary","is_bicycle_related":true,"kind":"major_road","bicycle_shield_text":"N3","bicycle_network":"ncn","source":"openstreetmap.org","min_zoom":8.0,"bus_shield_text":"116","shield_text":"3063","landuse_kind":"urban_area","ref":"3063"},"arcs":[395]},{"type":"LineString","properties":{"kind":"major_road","network":"Dr\u017eavne ceste","sort_rank":380,"kind_detail":"primary","source":"openstreetmap.org","min_zoom":8.0,"shield_text":"26","ref":"D26"},"arcs":[396]},{"type":"MultiLineString","properties":{"kind":"major_road","network":"Dr\u017eavne ceste","sort_rank":380,"kind_detail":"primary","source":"openstreetmap.org","min_zoom":8.0,"shield_text":"22","ref":"D22"},"arcs":[[397],[398],[399],[400],[401]]},{"type":"MultiLineString","properties":{"bus_network":null,"network":"Dr\u017eavne ceste","sort_rank":380,"kind_detail":"primary","kind":"major_road","source":"openstreetmap.org","min_zoom":8.0,"bus_shield_text":"290","shield_text":"430","landuse_kind":"urban_area","ref":"D430"},"arcs":[[402],[403],[404],[405],[406],[407]]},{"type":"LineString","properties":{"kind":"major_road","network":"Dr\u017eavne ceste","sort_rank":380,"kind_detail":"primary","is_bicycle_related":true,"bicycle_shield_text":"SM\u017d 03","bicycle_network":"rcn","source":"openstreetmap.org","min_zoom":8.0,"shield_text":"30","ref":"D30;D47","id":80403357},"arcs":[408]},{"type":"LineString","properties":{"kind":"highway","network":"Autoceste","sort_rank":383,"kind_detail":"motorway","source":"openstreetmap.org","min_zoom":8.0,"all_networks":["Autoceste","e-road","e-road",null],"shield_text":"4","ref":"A4","all_shield_texts":["4","65","71","11"]},"arcs":[409]},{"type":"LineString","properties":{"kind":"major_road","network":"Dr\u017eavne ceste","sort_rank":380,"kind_detail":"primary","bus_network":null,"source":"openstreetmap.org","min_zoom":8.0,"bus_shield_text":"5","shield_text":"37","landuse_kind":"urban_area","ref":"D37","id":40591761},"arcs":[410]},{"type":"LineString","properties":{"bus_network":"RBR","network":"Dr\u017eavne ceste","sort_rank":380,"kind_detail":"primary","is_bicycle_related":true,"kind":"major_road","bicycle_shield_text":"SM\u017d 01","bicycle_network":"rcn","source":"openstreetmap.org","min_zoom":8.0,"bus_shield_text":"Zg-Brest-To","shield_text":"37","ref":"D37"},"arcs":[411]},{"type":"MultiLineString","properties":{"kind":"major_road","network":"Dr\u017eavne ceste","sort_rank":380,"kind_detail":"primary","source":"openstreetmap.org","min_zoom":8.0,"landuse_kind":"residential","shield_text":"28","ref":"D28;D43"},"arcs":[[412],[413],[414]]},{"type":"LineString","properties":{"kind":"major_road","network":"Dr\u017eavne ceste","sort_rank":380,"kind_detail":"primary","is_bicycle_related":true,"bicycle_shield_text":"SM\u017d 01","bicycle_network":"rcn","source":"openstreetmap.org","min_zoom":8.0,"landuse_kind":"urban_area","shield_text":"36","ref":"D36"},"arcs":[415]},{"type":"LineString","properties":{"bus_network":"local","network":"\u017dupanijske ceste","sort_rank":379,"landuse_kind":"urban_area","is_bicycle_related":true,"kind":"major_road","bicycle_shield_text":"N3","bicycle_network":"ncn","source":"openstreetmap.org","min_zoom":8.0,"bus_shield_text":"151","shield_text":"3063","kind_detail":"secondary","ref":"3063"},"arcs":[416]},{"type":"LineString","properties":{"kind":"major_road","network":"Dr\u017eavne ceste","sort_rank":380,"kind_detail":"primary","is_bicycle_related":true,"bicycle_shield_text":null,"bicycle_network":"rcn","source":"openstreetmap.org","min_zoom":8.0,"shield_text":"26","ref":"D26"},"arcs":[417]},{"type":"MultiLineString","properties":{"kind":"major_road","network":"\u017dupanijske ceste","sort_rank":379,"landuse_kind":"urban_area","is_bicycle_related":true,"bicycle_shield_text":null,"bicycle_network":"ncn","source":"openstreetmap.org","min_zoom":8.0,"kind_detail":"secondary","shield_text":"3120","ref":"3120"},"arcs":[[418],[419]]},{"type":"LineString","properties":{"kind":"major_road","network":"\u017dupanijske ceste","sort_rank":379,"kind_detail":"secondary","is_bicycle_related":true,"bicycle_shield_text":"N2","bicycle_network":"ncn","source":"openstreetmap.org","min_zoom":8.0,"shield_text":"2160","ref":"2160"},"arcs":[420]},{"type":"LineString","properties":{"kind":"highway","network":"Autoceste","sort_rank":383,"landuse_kind":"urban_area","source":"openstreetmap.org","min_zoom":8.0,"all_networks":["Autoceste","e-road",null],"kind_detail":"motorway","shield_text":"2","ref":"A2","all_shield_texts":["2","59","11"]},"arcs":[421]},{"type":"MultiLineString","properties":{"kind":"highway","network":"Autoceste","sort_rank":383,"kind_detail":"motorway","reg_name":"Dalmatina","source":"openstreetmap.org","min_zoom":8.0,"all_networks":["Autoceste","e-road","e-road"],"shield_text":"1","ref":"A1","all_shield_texts":["1","65","71"]},"arcs":[[422],[423],[424],[425]]},{"type":"LineString","properties":{"kind":"major_road","sort_rank":380,"kind_detail":"primary","bus_network":"RBR","source":"openstreetmap.org","min_zoom":8.0,"bus_shield_text":"Zg-Brest-To","id":150768304},"arcs":[426]},{"type":"LineString","properties":{"bus_network":"RBR","network":"Dr\u017eavne ceste","sort_rank":380,"kind_detail":"primary","kind":"major_road","source":"openstreetmap.org","min_zoom":8.0,"bus_shield_text":"Zg-Brest-To","shield_text":"30","landuse_kind":"residential","ref":"D30;D37"},"arcs":[427]},{"type":"LineString","properties":{"kind":"major_road","network":"Dr\u017eavne ceste","sort_rank":380,"kind_detail":"primary","is_bicycle_related":true,"bicycle_shield_text":"RC-1","bicycle_network":"rcn","source":"openstreetmap.org","min_zoom":8.0,"shield_text":"31","ref":"D31"},"arcs":[428]},{"type":"LineString","properties":{"bus_network":"local","network":"Lokalne ceste","sort_rank":377,"kind_detail":"tertiary","is_bicycle_related":true,"kind":"major_road","bicycle_shield_text":"N1","bicycle_network":"ncn","source":"openstreetmap.org","min_zoom":8.0,"bus_shield_text":"159","shield_text":"10180","ref":"10180"},"arcs":[429]},{"type":"LineString","properties":{"kind":"major_road","network":"\u017dupanijske ceste","sort_rank":379,"kind_detail":"secondary","is_bicycle_related":true,"bicycle_shield_text":"N3","bicycle_network":"ncn","source":"openstreetmap.org","min_zoom":8.0,"shield_text":"1036","ref":"1036"},"arcs":[430]},{"type":"LineString","properties":{"bus_network":"local","network":"\u017dupanijske ceste","sort_rank":379,"kind_detail":"secondary","is_bicycle_related":true,"kind":"major_road","bicycle_shield_text":"N3","bicycle_network":"ncn","source":"openstreetmap.org","min_zoom":8.0,"bus_shield_text":"276","shield_text":"1036","ref":"1036"},"arcs":[431]},{"type":"LineString","properties":{"bus_network":"local","network":"\u017dupanijske ceste","sort_rank":379,"kind_detail":"secondary","is_bicycle_related":true,"kind":"major_road","bicycle_shield_text":"N1","bicycle_network":"ncn","source":"openstreetmap.org","min_zoom":8.0,"bus_shield_text":"110","shield_text":"1054","landuse_kind":"urban_area","ref":"1054","id":4323195},"arcs":[432]},{"type":"LineString","properties":{"kind":"major_road","network":"\u017dupanijske ceste","sort_rank":380,"kind_detail":"primary","source":"openstreetmap.org","min_zoom":8.0,"shield_text":"507","ref":"D507"},"arcs":[433]},{"type":"MultiLineString","properties":{"kind":"major_road","network":"Dr\u017eavne ceste","sort_rank":380,"kind_detail":"primary","source":"openstreetmap.org","min_zoom":8.0,"landuse_kind":"residential","shield_text":"408","ref":"D408"},"arcs":[[434],[435]]},{"type":"MultiLineString","properties":{"kind":"path","sort_rank":354,"landuse_kind":"urban_area","is_bicycle_related":true,"bicycle_shield_text":"N1","bicycle_network":"ncn","source":"openstreetmap.org","min_zoom":8.0,"kind_detail":"path"},"arcs":[[436],[437],[438],[439],[440]]},{"type":"MultiLineString","properties":{"kind":"highway","network":"Dr\u017eavne ceste","sort_rank":383,"landuse_kind":"urban_area","source":"openstreetmap.org","min_zoom":8.0,"all_networks":["Dr\u017eavne ceste","Autoceste","e-road","e-road","e-road",null],"kind_detail":"motorway","shield_text":"3","ref":"A3;D3","all_shield_texts":["3","3","65","70","71","11"]},"arcs":[[441],[442],[443]]},{"type":"LineString","properties":{"kind":"major_road","network":"ba:Magistralne ceste","sort_rank":380,"kind_detail":"primary","source":"openstreetmap.org","min_zoom":8.0,"shield_text":"4.2","ref":"M 101","id":138275729},"arcs":[444]},{"type":"LineString","properties":{"kind":"major_road","network":"Dr\u017eavne ceste","sort_rank":380,"kind_detail":"primary","is_bicycle_related":true,"bicycle_shield_text":"9","bicycle_network":"rcn","source":"openstreetmap.org","min_zoom":8.0,"shield_text":"1","ref":"D1"},"arcs":[445]},{"type":"MultiLineString","properties":{"source":"openstreetmap.org","kind":"major_road","landuse_kind":"residential","sort_rank":380,"kind_detail":"primary","min_zoom":8.0},"arcs":[[446],[447],[448]]},{"type":"LineString","properties":{"kind":"major_road","network":"Dr\u017eavne ceste","sort_rank":380,"kind_detail":"primary","source":"openstreetmap.org","min_zoom":8.0,"landuse_kind":"residential","shield_text":"28","ref":"D28"},"arcs":[449]},{"type":"LineString","properties":{"bus_network":"local","network":"\u017dupanijske ceste","sort_rank":379,"kind_detail":"secondary","is_bicycle_related":true,"kind":"major_road","bicycle_shield_text":"N2","bicycle_network":"ncn","source":"openstreetmap.org","min_zoom":8.0,"bus_shield_text":"174","shield_text":"2186","ref":"2186","id":145202786},"arcs":[450]},{"type":"LineString","properties":{"kind":"major_road","int_name":"D28 road","network":"Dr\u017eavne ceste","sort_rank":380,"kind_detail":"primary","is_bicycle_related":true,"source":"openstreetmap.org","min_zoom":8.0,"landuse_kind":"residential","shield_text":"28","ref":"D28","id":53378756},"arcs":[451]},{"type":"LineString","properties":{"kind":"major_road","sort_rank":377,"kind_detail":"tertiary","is_bicycle_related":true,"bus_network":"local","bicycle_shield_text":"N3","bicycle_network":"ncn","source":"openstreetmap.org","min_zoom":8.0,"bus_shield_text":"143a","landuse_kind":"urban_area","id":144649439},"arcs":[452]},{"type":"LineString","properties":{"cycleway_right":"track","network":"\u017dupanijske ceste","sort_rank":379,"kind_detail":"secondary","is_bicycle_related":true,"kind":"major_road","bicycle_shield_text":"N2","bicycle_network":"ncn","source":"openstreetmap.org","min_zoom":8.0,"landuse_kind":"urban_area","shield_text":"2186","ref":"2186","id":131120560},"arcs":[453]},{"type":"MultiLineString","properties":{"kind":"major_road","network":"Dr\u017eavne ceste","sort_rank":380,"kind_detail":"primary","source":"openstreetmap.org","min_zoom":8.0,"landuse_kind":"residential","shield_text":"22","ref":"D22"},"arcs":[[454],[455],[456],[457]]},{"type":"LineString","properties":{"kind":"major_road","network":"Dr\u017eavne ceste","sort_rank":380,"kind_detail":"primary","is_bicycle_related":true,"bicycle_shield_text":"N1","bicycle_network":"ncn","source":"openstreetmap.org","min_zoom":8.0,"landuse_kind":"urban_area","shield_text":"36","ref":"D36"},"arcs":[458]},{"type":"LineString","properties":{"kind":"major_road","network":"Dr\u017eavne ceste","sort_rank":380,"kind_detail":"primary","is_bicycle_related":true,"bicycle_shield_text":"RC-1","bicycle_network":"rcn","source":"openstreetmap.org","min_zoom":8.0,"shield_text":"3","ref":"D3"},"arcs":[459]},{"type":"MultiLineString","properties":{"kind":"major_road","network":"Dr\u017eavne ceste","sort_rank":380,"kind_detail":"primary","source":"openstreetmap.org","min_zoom":8.0,"shield_text":"1","ref":"D1"},"arcs":[[460],[461],[462],[463],[464],[465],[466],[467],[468],[469],[470],[471]]},{"type":"MultiLineString","properties":{"kind":"major_road","network":"Dr\u017eavne ceste","sort_rank":380,"kind_detail":"primary","source":"openstreetmap.org","min_zoom":8.0,"landuse_kind":"urban_area","shield_text":"31","ref":"D31"},"arcs":[[472],[473],[474]]},{"type":"MultiLineString","properties":{"kind":"minor_road","sort_rank":360,"landuse_kind":"urban_area","is_bicycle_related":true,"bicycle_shield_text":"N3","bicycle_network":"ncn","source":"openstreetmap.org","min_zoom":8.0,"kind_detail":"residential"},"arcs":[[475],[476],[477],[478]]},{"type":"LineString","properties":{"kind":"major_road","sort_rank":355,"kind_detail":"secondary_link","is_bicycle_related":true,"bicycle_shield_text":"N2","bicycle_network":"ncn","source":"openstreetmap.org","min_zoom":8.0,"is_link":true,"landuse_kind":"residential","id":98988851},"arcs":[479]},{"type":"LineString","properties":{"kind":"major_road","network":"Dr\u017eavne ceste","sort_rank":380,"kind_detail":"primary","source":"openstreetmap.org","min_zoom":8.0,"landuse_kind":"urban_area","shield_text":"3","ref":"D3;D6"},"arcs":[480]},{"type":"LineString","properties":{"bus_network":"local","network":"\u017dupanijske ceste","sort_rank":379,"kind_detail":"secondary","is_bicycle_related":true,"kind":"major_road","bicycle_shield_text":"N1","bicycle_network":"ncn","source":"openstreetmap.org","min_zoom":8.0,"bus_shield_text":"161","shield_text":"1037","ref":"1037","id":516412521},"arcs":[481]},{"type":"LineString","properties":{"kind":"major_road","network":"\u017dupanijske ceste","sort_rank":379,"landuse_kind":"residential","is_bicycle_related":true,"bicycle_shield_text":"N2","bicycle_network":"ncn","source":"openstreetmap.org","min_zoom":8.0,"kind_detail":"secondary","shield_text":"2195","ref":"2195"},"arcs":[482]},{"type":"MultiLineString","properties":{"kind":"major_road","network":"\u017dupanijske ceste","sort_rank":379,"landuse_kind":"urban_area","is_bicycle_related":true,"bicycle_shield_text":"N1","bicycle_network":"ncn","source":"openstreetmap.org","min_zoom":8.0,"kind_detail":"secondary","shield_text":"3148","ref":"3148"},"arcs":[[483],[484],[485]]},{"type":"MultiLineString","properties":{"bus_network":"RBR","network":"Dr\u017eavne ceste","sort_rank":380,"kind_detail":"primary","is_bicycle_related":true,"kind":"major_road","bicycle_shield_text":"SM\u017d 01","bicycle_network":"rcn","source":"openstreetmap.org","min_zoom":8.0,"bus_shield_text":"Zg-Brest-To","shield_text":"30","landuse_kind":"residential","ref":"D30;D37"},"arcs":[[486],[487]]},{"type":"LineString","properties":{"kind":"major_road","network":"Dr\u017eavne ceste","sort_rank":380,"kind_detail":"primary","is_bicycle_related":true,"bicycle_shield_text":"4","bicycle_network":"rcn","source":"openstreetmap.org","min_zoom":8.0,"shield_text":"228","ref":"D228"},"arcs":[488]},{"type":"MultiLineString","properties":{"bus_network":"local","network":"Lokalne ceste","sort_rank":377,"landuse_kind":"urban_area","is_bicycle_related":true,"kind":"major_road","bicycle_shield_text":"N3","bicycle_network":"ncn","source":"openstreetmap.org","min_zoom":8.0,"bus_shield_text":"147","shield_text":"31090","kind_detail":"tertiary","ref":"L31090"},"arcs":[[489],[490]]},{"type":"MultiLineString","properties":{"bus_network":"local","sort_rank":355,"kind_detail":"secondary_link","is_bicycle_related":true,"kind":"major_road","bicycle_shield_text":"N2","bicycle_network":"ncn","source":"openstreetmap.org","min_zoom":8.0,"is_link":true,"bus_shield_text":"172","landuse_kind":"urban_area"},"arcs":[[491],[492]]},{"type":"MultiLineString","properties":{"kind":"major_road","network":"Dr\u017eavne ceste","sort_rank":380,"kind_detail":"primary","source":"openstreetmap.org","min_zoom":8.0,"shield_text":"36","ref":"D36"},"arcs":[[493],[494],[495]]},{"type":"LineString","properties":{"kind":"major_road","network":"\u017dupanijske ceste","sort_rank":379,"landuse_kind":"urban_area","is_bicycle_related":true,"bicycle_shield_text":null,"bicycle_network":"ncn","source":"openstreetmap.org","min_zoom":8.0,"kind_detail":"secondary","shield_text":"3259","ref":"3259"},"arcs":[496]},{"type":"LineString","properties":{"bus_network":"local","network":"Dr\u017eavne ceste","sort_rank":380,"kind_detail":"primary","kind":"major_road","source":"openstreetmap.org","min_zoom":8.0,"bus_shield_text":"263","shield_text":"29","ref":"D29"},"arcs":[497]},{"type":"LineString","properties":{"bus_network":"RBR","network":"Dr\u017eavne ceste","sort_rank":380,"kind_detail":"primary","is_bicycle_related":true,"kind":"major_road","bicycle_shield_text":"SM\u017d 01","bicycle_network":"rcn","source":"openstreetmap.org","min_zoom":8.0,"bus_shield_text":"Zg-Brest-To","shield_text":"37","landuse_kind":"residential","ref":"D37"},"arcs":[498]},{"type":"LineString","properties":{"bus_network":"RBR","network":"Dr\u017eavne ceste","sort_rank":380,"kind_detail":"primary","kind":"major_road","source":"openstreetmap.org","min_zoom":8.0,"bus_shield_text":"Zg-Brest-To","shield_text":"6","ref":"D6"},"arcs":[499]},{"type":"LineString","properties":{"kind":"major_road","network":"\u017dupanijske ceste","sort_rank":379,"kind_detail":"secondary","is_bicycle_related":true,"bicycle_shield_text":"N3","bicycle_network":"ncn","source":"openstreetmap.org","min_zoom":8.0,"shield_text":"3041","ref":"3041"},"arcs":[500]},{"type":"MultiLineString","properties":{"kind":"major_road","network":"Dr\u017eavne ceste","sort_rank":380,"kind_detail":"primary","source":"openstreetmap.org","min_zoom":8.0,"shield_text":"1","ref":"D1;D3"},"arcs":[[501],[502]]},{"type":"LineString","properties":{"kind":"major_road","network":"\u017dupanijske ceste","sort_rank":379,"kind_detail":"secondary","is_bicycle_related":true,"bicycle_shield_text":"N1","bicycle_network":"ncn","source":"openstreetmap.org","min_zoom":8.0,"shield_text":"3106","ref":"3106"},"arcs":[503]},{"type":"LineString","properties":{"bus_network":"local","sort_rank":377,"landuse_kind":"urban_area","is_bicycle_related":true,"kind":"major_road","bicycle_shield_text":"N1","bicycle_network":"ncn","source":"openstreetmap.org","min_zoom":8.0,"bus_shield_text":"234","kind_detail":"tertiary","ref":"10096"},"arcs":[504]},{"type":"LineString","properties":{"bus_network":"RBR","network":"Dr\u017eavne ceste","sort_rank":380,"kind_detail":"primary","kind":"major_road","source":"openstreetmap.org","min_zoom":8.0,"bus_shield_text":"Zg-Brest-To","shield_text":"30","landuse_kind":"urban_area","ref":"D30"},"arcs":[505]},{"type":"MultiLineString","properties":{"kind":"major_road","network":"Dr\u017eavne ceste","sort_rank":380,"kind_detail":"primary","source":"openstreetmap.org","min_zoom":8.0,"landuse_kind":"urban_area","shield_text":"36","ref":"D36"},"arcs":[[506],[507],[508]]},{"type":"LineString","properties":{"bus_network":"local","network":"Dr\u017eavne ceste","sort_rank":380,"kind_detail":"primary","is_bicycle_related":true,"kind":"major_road","bicycle_shield_text":"SM\u017d 01","cycleway":"lane","source":"openstreetmap.org","min_zoom":8.0,"bus_shield_text":"2","shield_text":"37","landuse_kind":"urban_area","ref":"D37","bicycle_network":"rcn"},"arcs":[509]},{"type":"LineString","properties":{"kind":"major_road","network":"Dr\u017eavne ceste","sort_rank":380,"kind_detail":"primary","source":"openstreetmap.org","min_zoom":8.0,"shield_text":"24","ref":"D24"},"arcs":[510]},{"type":"MultiLineString","properties":{"kind":"major_road","network":"Dr\u017eavne ceste","sort_rank":380,"kind_detail":"primary","source":"openstreetmap.org","min_zoom":8.0,"shield_text":"3","ref":"D3"},"arcs":[[511],[512],[513],[514],[515],[516],[517],[518],[519]]},{"type":"LineString","properties":{"bus_network":null,"sort_rank":380,"kind_detail":"primary","kind":"major_road","source":"openstreetmap.org","min_zoom":8.0,"bus_shield_text":"5","landuse_kind":"urban_area"},"arcs":[520]},{"type":"LineString","properties":{"kind":"major_road","network":"Dr\u017eavne ceste","sort_rank":380,"kind_detail":"primary","bus_network":"local","source":"openstreetmap.org","min_zoom":8.0,"bus_shield_text":"143a","shield_text":"231","landuse_kind":"urban_area","ref":"D231","id":139799034},"arcs":[521]},{"type":"LineString","properties":{"kind":"major_road","network":"SI:R1","sort_rank":380,"kind_detail":"primary","source":"openstreetmap.org","min_zoom":8.0,"shield_text":"220","ref":"220"},"arcs":[522]},{"type":"LineString","properties":{"kind":"major_road","network":"Dr\u017eavne ceste","sort_rank":380,"kind_detail":"primary","is_bicycle_related":true,"bicycle_shield_text":"SM\u017d 03","bicycle_network":"rcn","source":"openstreetmap.org","min_zoom":8.0,"shield_text":"30","ref":"D30"},"arcs":[523]},{"type":"LineString","properties":{"kind":"major_road","network":"Dr\u017eavne ceste","sort_rank":380,"kind_detail":"primary","bus_network":"RBR","source":"openstreetmap.org","min_zoom":8.0,"bus_shield_text":"Zg-Brest-To","shield_text":"30","ref":"D30;D36","id":38991842},"arcs":[524]},{"type":"LineString","properties":{"kind":"highway","network":"Dr\u017eavne ceste","sort_rank":383,"landuse_kind":"urban_area","source":"openstreetmap.org","min_zoom":8.0,"all_networks":["Dr\u017eavne ceste","Autoceste","e-road"],"kind_detail":"motorway","shield_text":"1","ref":"A2;D1","all_shield_texts":["1","2","59"]},"arcs":[525]},{"type":"LineString","properties":{"kind":"major_road","network":"\u017dupanijske ceste","sort_rank":379,"kind_detail":"secondary","is_bicycle_related":true,"bicycle_shield_text":"N2","bicycle_network":"ncn","source":"openstreetmap.org","min_zoom":8.0,"landuse_kind":"urban_area","shield_text":"2186","ref":"2186","id":294264509},"arcs":[526]},{"type":"LineString","properties":{"kind":"major_road","network":"Dr\u017eavne ceste","sort_rank":380,"landuse_kind":"nature_reserve","is_bicycle_related":true,"bicycle_shield_text":"SM\u017d 01","bicycle_network":"rcn","source":"openstreetmap.org","min_zoom":8.0,"kind_detail":"primary","shield_text":"36","ref":"D36"},"arcs":[527]},{"type":"MultiLineString","properties":{"kind":"major_road","network":"Dr\u017eavne ceste","sort_rank":380,"kind_detail":"primary","is_bicycle_related":true,"bicycle_shield_text":"N2","bicycle_network":"ncn","source":"openstreetmap.org","min_zoom":8.0,"landuse_kind":"residential","shield_text":"205","ref":"D205"},"arcs":[[528],[529]]},{"type":"LineString","properties":{"kind":"major_road","network":"\u017dupanijske ceste","sort_rank":379,"kind_detail":"secondary","is_bicycle_related":true,"bicycle_shield_text":"N3","bicycle_network":"ncn","source":"openstreetmap.org","min_zoom":8.0,"shield_text":"3123","ref":"3123"},"arcs":[530]},{"type":"LineString","properties":{"kind":"major_road","network":"\u017dupanijske ceste","sort_rank":379,"kind_detail":"secondary","is_bicycle_related":true,"bicycle_shield_text":null,"bicycle_network":"ncn","source":"openstreetmap.org","min_zoom":8.0,"shield_text":"3119","ref":"3119"},"arcs":[531]},{"type":"LineString","properties":{"bus_network":"local","network":"\u017dupanijske ceste","sort_rank":379,"kind_detail":"secondary","is_bicycle_related":true,"kind":"major_road","bicycle_shield_text":"N3","bicycle_network":"ncn","source":"openstreetmap.org","min_zoom":8.0,"bus_shield_text":"146","shield_text":"3050","landuse_kind":"urban_area","ref":"\u017d3050","id":108379090},"arcs":[532]},{"type":"LineString","properties":{"kind":"major_road","network":"Dr\u017eavne ceste","sort_rank":380,"kind_detail":"primary","is_bicycle_related":true,"bicycle_shield_text":"1","bicycle_network":"rcn","source":"openstreetmap.org","min_zoom":8.0,"landuse_kind":"urban_area","shield_text":"228","ref":"D228"},"arcs":[533]},{"type":"LineString","properties":{"kind":"major_road","sort_rank":380,"landuse_kind":"urban_area","source":"openstreetmap.org","min_zoom":8.0,"kind_detail":"primary","ref":"D224","id":185524216},"arcs":[534]},{"type":"LineString","properties":{"kind":"major_road","network":"Dr\u017eavne ceste","sort_rank":380,"kind_detail":"primary","is_bicycle_related":true,"bicycle_shield_text":"SM\u017d 01","bicycle_network":"rcn","source":"openstreetmap.org","min_zoom":8.0,"landuse_kind":"residential","shield_text":"37","ref":"D37"},"arcs":[535]},{"type":"LineString","properties":{"kind":"highway","network":"Dr\u017eavne ceste","sort_rank":383,"landuse_kind":"urban_area","source":"openstreetmap.org","min_zoom":8.0,"all_networks":["Dr\u017eavne ceste","Autoceste","e-road",null],"kind_detail":"motorway","shield_text":"1","ref":"A2;D1","all_shield_texts":["1","2","59","11"]},"arcs":[536]},{"type":"MultiLineString","properties":{"bus_network":null,"network":"Dr\u017eavne ceste","sort_rank":380,"kind_detail":"primary","kind":"major_road","source":"openstreetmap.org","min_zoom":8.0,"bus_shield_text":"1","shield_text":"36","landuse_kind":"urban_area","ref":"D36"},"arcs":[[537],[538]]},{"type":"LineString","properties":{"kind":"major_road","network":"Dr\u017eavne ceste","sort_rank":380,"kind_detail":"primary","is_bicycle_related":true,"bicycle_shield_text":"6","bicycle_network":"rcn","source":"openstreetmap.org","min_zoom":8.0,"shield_text":"23","ref":"D23"},"arcs":[539]},{"type":"LineString","properties":{"kind":"major_road","network":"Dr\u017eavne ceste","sort_rank":380,"kind_detail":"primary","is_bicycle_related":true,"bicycle_shield_text":"1","bicycle_network":"rcn","source":"openstreetmap.org","min_zoom":8.0,"shield_text":"6","ref":"D6","id":52093325},"arcs":[540]},{"type":"LineString","properties":{"source":"openstreetmap.org","kind":"major_road","sort_rank":380,"kind_detail":"primary","ref":"D1;D3","min_zoom":8.0,"id":156836734},"arcs":[541]},{"type":"MultiLineString","properties":{"source":"openstreetmap.org","kind":"major_road","landuse_kind":"urban_area","sort_rank":380,"kind_detail":"primary","ref":"D225","min_zoom":8.0},"arcs":[[542],[543],[544],[545]]},{"type":"LineString","properties":{"kind":"major_road","network":"Lokalne ceste","sort_rank":377,"kind_detail":"tertiary","is_bicycle_related":true,"bicycle_shield_text":"N1","bicycle_network":"ncn","source":"openstreetmap.org","min_zoom":8.0,"shield_text":"10168","ref":"10168","id":516412520},"arcs":[546]},{"type":"MultiLineString","properties":{"kind":"major_road","network":"Dr\u017eavne ceste","sort_rank":380,"kind_detail":"primary","is_bicycle_related":true,"source":"openstreetmap.org","min_zoom":8.0,"shield_text":"43","ref":"D43"},"arcs":[[547],[548],[549]]},{"type":"MultiLineString","properties":{"bus_network":"local","network":"Dr\u017eavne ceste","sort_rank":380,"kind_detail":"primary","kind":"major_road","source":"openstreetmap.org","min_zoom":8.0,"bus_shield_text":"165","shield_text":"1","ref":"D1;D3"},"arcs":[[550],[551],[552],[553],[554]]},{"type":"LineString","properties":{"source":"openstreetmap.org","kind":"major_road","sort_rank":380,"kind_detail":"primary","ref":"M-15","min_zoom":8.0,"id":166708549},"arcs":[555]},{"type":"LineString","properties":{"kind":"major_road","network":"Dr\u017eavne ceste","sort_rank":380,"kind_detail":"primary","is_bicycle_related":true,"bicycle_shield_text":"SM\u017d 01","bicycle_network":"rcn","source":"openstreetmap.org","min_zoom":8.0,"landuse_kind":"residential","shield_text":"30","ref":"D30;D37","id":42109918},"arcs":[556]},{"type":"LineString","properties":{"kind":"major_road","network":"Dr\u017eavne ceste","sort_rank":380,"kind_detail":"primary","is_bicycle_related":true,"bicycle_shield_text":"1","bicycle_network":"rcn","source":"openstreetmap.org","min_zoom":8.0,"shield_text":"228","ref":"D228"},"arcs":[557]},{"type":"MultiLineString","properties":{"kind":"major_road","network":"Dr\u017eavne ceste","sort_rank":380,"kind_detail":"primary","is_bicycle_related":true,"bicycle_shield_text":"SM\u017d 01","bicycle_network":"rcn","source":"openstreetmap.org","min_zoom":8.0,"shield_text":"37","ref":"D37"},"arcs":[[558],[559]]},{"type":"MultiLineString","properties":{"source":"openstreetmap.org","kind":"major_road","sort_rank":380,"kind_detail":"primary","ref":"M 201;R 401","min_zoom":8.0},"arcs":[[560],[561],[562],[563]]},{"type":"MultiLineString","properties":{"bus_network":"local","network":"Dr\u017eavne ceste","sort_rank":380,"kind_detail":"primary","is_bicycle_related":true,"kind":"major_road","bicycle_shield_text":"N2","bicycle_network":"ncn","source":"openstreetmap.org","min_zoom":8.0,"bus_shield_text":"172","shield_text":"225","landuse_kind":"urban_area","ref":"D225"},"arcs":[[564],[565],[566],[567]]},{"type":"LineString","properties":{"bus_network":null,"network":"\u017dupanijske ceste","sort_rank":379,"landuse_kind":"urban_area","is_bicycle_related":true,"kind":"major_road","bicycle_shield_text":"N1","bicycle_network":"ncn","source":"openstreetmap.org","min_zoom":8.0,"bus_shield_text":"Arena","shield_text":"1037","kind_detail":"secondary","ref":"1037"},"arcs":[568]},{"type":"MultiLineString","properties":{"source":"openstreetmap.org","kind":"highway","landuse_kind":"urban_area","sort_rank":383,"kind_detail":"motorway","ref":"A1","min_zoom":8.0},"arcs":[[569],[570]]},{"type":"LineString","properties":{"bus_network":null,"network":"\u017dupanijske ceste","sort_rank":379,"kind_detail":"secondary","is_bicycle_related":true,"kind":"major_road","bicycle_shield_text":"N1","bicycle_network":"ncn","source":"openstreetmap.org","min_zoom":8.0,"bus_shield_text":"263","shield_text":"3106","ref":"3106","id":61590980},"arcs":[571]},{"type":"MultiLineString","properties":{"source":"openstreetmap.org","kind":"major_road","network":"Dr\u017eavne ceste","sort_rank":380,"kind_detail":"primary","min_zoom":8.0,"shield_text":"310"},"arcs":[[572],[573]]},{"type":"MultiLineString","properties":{"kind":"major_road","network":"Dr\u017eavne ceste","sort_rank":380,"kind_detail":"primary","source":"openstreetmap.org","min_zoom":8.0,"landuse_kind":"urban_area","shield_text":"30","ref":"D30"},"arcs":[[574],[575],[576]]},{"type":"MultiLineString","properties":{"kind":"major_road","network":"\u017dupanijske ceste","sort_rank":379,"landuse_kind":"residential","is_bicycle_related":true,"bicycle_shield_text":"N3","bicycle_network":"ncn","source":"openstreetmap.org","min_zoom":8.0,"kind_detail":"secondary","shield_text":"3124","ref":"3124"},"arcs":[[577],[578],[579],[580],[581],[582]]},{"type":"LineString","properties":{"kind":"major_road","network":"Dr\u017eavne ceste","sort_rank":380,"kind_detail":"primary","bus_network":"local","source":"openstreetmap.org","min_zoom":8.0,"bus_shield_text":"111","shield_text":"1","ref":"D1;D3","id":146530126},"arcs":[583]},{"type":"LineString","properties":{"kind":"highway","network":"Dr\u017eavne ceste","sort_rank":383,"landuse_kind":"urban_area","source":"openstreetmap.org","min_zoom":8.0,"all_networks":["Dr\u017eavne ceste","Autoceste","e-road","e-road","e-road"],"kind_detail":"motorway","shield_text":"3","ref":"A3;D3","all_shield_texts":["3","3","65","70","71"]},"arcs":[584]},{"type":"LineString","properties":{"bus_network":"local","network":"Dr\u017eavne ceste","sort_rank":380,"kind_detail":"primary","kind":"major_road","source":"openstreetmap.org","min_zoom":8.0,"bus_shield_text":"111","shield_text":"1","landuse_kind":"urban_area","ref":"D1;D3"},"arcs":[585]},{"type":"MultiLineString","properties":{"bus_network":"local","network":"Dr\u017eavne ceste","sort_rank":380,"kind_detail":"primary","kind":"major_road","source":"openstreetmap.org","min_zoom":8.0,"bus_shield_text":"151","shield_text":"231","landuse_kind":"urban_area","ref":"D231"},"arcs":[[586],[587]]},{"type":"LineString","properties":{"bus_network":"local","network":"Lokalne ceste","sort_rank":377,"kind_detail":"tertiary","is_bicycle_related":true,"kind":"major_road","bicycle_shield_text":"N3","bicycle_network":"ncn","source":"openstreetmap.org","min_zoom":8.0,"bus_shield_text":"119","shield_text":"10018","landuse_kind":"urban_area","ref":"10018"},"arcs":[588]},{"type":"LineString","properties":{"kind":"major_road","network":"Dr\u017eavne ceste","sort_rank":380,"kind_detail":"primary","source":"openstreetmap.org","min_zoom":8.0,"landuse_kind":"urban_area","shield_text":"228","ref":"D228"},"arcs":[589]},{"type":"LineString","properties":{"kind":"major_road","network":"Dr\u017eavne ceste","sort_rank":380,"kind_detail":"primary","is_bicycle_related":true,"bicycle_shield_text":"TZKZ 5","bicycle_network":"lcn","source":"openstreetmap.org","min_zoom":8.0,"shield_text":"3","ref":"D3"},"arcs":[590]},{"type":"LineString","properties":{"source":"openstreetmap.org","kind":"major_road","sort_rank":380,"kind_detail":"primary","ref":"D41","min_zoom":8.0},"arcs":[591]},{"type":"LineString","properties":{"kind":"major_road","network":"Dr\u017eavne ceste","sort_rank":380,"kind_detail":"primary","source":"openstreetmap.org","min_zoom":8.0,"shield_text":"3","id":365835633},"arcs":[592]},{"type":"LineString","properties":{"kind":"major_road","network":"Dr\u017eavne ceste","sort_rank":380,"kind_detail":"primary","bus_network":"local","source":"openstreetmap.org","min_zoom":8.0,"bus_shield_text":"146","shield_text":"231","ref":"D231","id":42389662},"arcs":[593]},{"type":"LineString","properties":{"bus_network":"local","cycleway_left":"track","network":"\u017dupanijske ceste","sort_rank":379,"kind_detail":"secondary","is_bicycle_related":true,"kind":"major_road","bicycle_shield_text":"N2","bicycle_network":"ncn","source":"openstreetmap.org","min_zoom":8.0,"bus_shield_text":"175","shield_text":"2186","ref":"2186","id":197150846},"arcs":[594]},{"type":"LineString","properties":{"source":"openstreetmap.org","kind":"highway","sort_rank":383,"kind_detail":"motorway","ref":"A3","min_zoom":8.0},"arcs":[595]},{"type":"LineString","properties":{"kind":"major_road","network":"Dr\u017eavne ceste","sort_rank":380,"kind_detail":"primary","is_bicycle_related":true,"bus_network":"local","bicycle_shield_text":"Karta 7","bicycle_network":"lcn","source":"openstreetmap.org","min_zoom":8.0,"bus_shield_text":"302","shield_text":"31","ref":"D31"},"arcs":[596]},{"type":"LineString","properties":{"kind":"major_road","network":"\u017dupanijske ceste","sort_rank":379,"kind_detail":"secondary","is_bicycle_related":true,"bicycle_shield_text":"N1","bicycle_network":"ncn","source":"openstreetmap.org","min_zoom":8.0,"shield_text":"3179","ref":"3179"},"arcs":[597]},{"type":"MultiLineString","properties":{"kind":"major_road","network":"Dr\u017eavne ceste","sort_rank":380,"kind_detail":"primary","source":"openstreetmap.org","min_zoom":8.0,"shield_text":"205","ref":"D205"},"arcs":[[598],[599]]},{"type":"MultiLineString","properties":{"kind":"major_road","network":"Dr\u017eavne ceste","sort_rank":381,"kind_detail":"trunk","source":"openstreetmap.org","min_zoom":8.0,"shield_text":"12","ref":"D12"},"arcs":[[600],[601]]},{"type":"LineString","properties":{"bus_network":"local","network":"Dr\u017eavne ceste","sort_rank":380,"kind_detail":"primary","kind":"major_road","source":"openstreetmap.org","min_zoom":8.0,"bus_shield_text":"172","shield_text":"225","landuse_kind":"urban_area","ref":"D225"},"arcs":[602]},{"type":"LineString","properties":{"kind":"major_road","network":"Dr\u017eavne ceste","sort_rank":380,"kind_detail":"primary","source":"openstreetmap.org","min_zoom":8.0,"landuse_kind":"urban_area","shield_text":"430","ref":"D430","id":481865861},"arcs":[603]},{"type":"MultiLineString","properties":{"kind":"highway","network":"Autoceste","sort_rank":383,"landuse_kind":"nature_reserve","source":"openstreetmap.org","min_zoom":8.0,"all_networks":["Autoceste","e-road"],"kind_detail":"motorway","shield_text":"3","ref":"A3","all_shield_texts":["3","70"]},"arcs":[[604],[605]]},{"type":"MultiLineString","properties":{"kind":"highway","network":"Dr\u017eavne ceste","sort_rank":383,"landuse_kind":"urban_area","source":"openstreetmap.org","min_zoom":8.0,"all_networks":["Dr\u017eavne ceste","Autoceste","e-road","e-road","e-road",null],"kind_detail":"motorway","shield_text":"3","ref":"A3; D3","all_shield_texts":["3","3","65","70","71","11"]},"arcs":[[606],[607]]},{"type":"MultiLineString","properties":{"kind":"major_road","network":"\u017dupanijske ceste","sort_rank":379,"landuse_kind":"urban_area","is_bicycle_related":true,"bicycle_shield_text":"N1","bicycle_network":"ncn","source":"openstreetmap.org","min_zoom":8.0,"kind_detail":"secondary","shield_text":"3179","ref":"3179"},"arcs":[[608],[609]]},{"type":"MultiLineString","properties":{"kind":"highway","network":"Autoceste","sort_rank":383,"kind_detail":"motorway","source":"openstreetmap.org","min_zoom":8.0,"all_networks":["Autoceste","e-road"],"shield_text":"2","ref":"A2","all_shield_texts":["2","59"]},"arcs":[[610],[611],[612],[613],[614],[615],[616],[617],[618],[619]]},{"type":"LineString","properties":{"kind":"major_road","network":"Dr\u017eavne ceste","sort_rank":380,"kind_detail":"primary","source":"openstreetmap.org","min_zoom":8.0,"landuse_kind":"urban_area","shield_text":"224","ref":"D224","id":219001055},"arcs":[620]},{"type":"MultiLineString","properties":{"source":"openstreetmap.org","kind":"major_road","network":"Dr\u017eavne ceste","sort_rank":380,"kind_detail":"primary","min_zoom":8.0,"shield_text":"43"},"arcs":[[621],[622]]},{"type":"MultiLineString","properties":{"bus_network":"local","sort_rank":377,"landuse_kind":"urban_area","is_bicycle_related":true,"kind":"major_road","bicycle_shield_text":"N3","bicycle_network":"ncn","source":"openstreetmap.org","min_zoom":8.0,"bus_shield_text":"147","kind_detail":"tertiary","ref":"L31090"},"arcs":[[623],[624]]},{"type":"LineString","properties":{"bus_network":"local","network":"Dr\u017eavne ceste","sort_rank":380,"kind_detail":"primary","kind":"major_road","source":"openstreetmap.org","min_zoom":8.0,"bus_shield_text":"142","shield_text":"231","landuse_kind":"urban_area","ref":"D231"},"arcs":[625]},{"type":"LineString","properties":{"kind":"major_road","network":"Dr\u017eavne ceste","sort_rank":380,"kind_detail":"primary","is_bicycle_related":true,"bicycle_shield_text":"N1","bicycle_network":"ncn","source":"openstreetmap.org","min_zoom":8.0,"landuse_kind":"urban_area","shield_text":"6","ref":"D6"},"arcs":[626]},{"type":"LineString","properties":{"kind":"major_road","network":"Dr\u017eavne ceste","sort_rank":380,"kind_detail":"primary","source":"openstreetmap.org","min_zoom":8.0,"shield_text":"231","id":171842654},"arcs":[627]},{"type":"LineString","properties":{"kind":"major_road","sort_rank":355,"kind_detail":"secondary_link","is_bicycle_related":true,"bicycle_shield_text":null,"bicycle_network":"ncn","source":"openstreetmap.org","min_zoom":8.0,"is_link":true,"id":136796563},"arcs":[628]},{"type":"LineString","properties":{"kind":"major_road","sort_rank":377,"kind_detail":"tertiary","is_bicycle_related":true,"bicycle_shield_text":"N1","bicycle_network":"ncn","source":"openstreetmap.org","min_zoom":8.0},"arcs":[629]},{"type":"LineString","properties":{"kind":"highway","network":"Autoceste","sort_rank":383,"landuse_kind":"urban_area","source":"openstreetmap.org","min_zoom":8.0,"all_networks":["Autoceste","e-road",null],"kind_detail":"motorway","shield_text":"3","ref":"A3","all_shield_texts":["3","70","11"]},"arcs":[630]},{"type":"MultiLineString","properties":{"kind":"major_road","network":"\u017dupanijske ceste","sort_rank":379,"kind_detail":"secondary","is_bicycle_related":true,"bicycle_shield_text":"N3","bicycle_network":"ncn","source":"openstreetmap.org","min_zoom":8.0,"shield_text":"3124","ref":"3124"},"arcs":[[631],[632],[633],[634]]},{"type":"LineString","properties":{"bus_network":null,"network":"Dr\u017eavne ceste","sort_rank":380,"kind_detail":"primary","is_bicycle_related":true,"kind":"major_road","source":"openstreetmap.org","min_zoom":8.0,"bus_shield_text":"264","shield_text":"3","ref":"D3"},"arcs":[635]},{"type":"LineString","properties":{"kind":"major_road","network":"Dr\u017eavne ceste","sort_rank":380,"kind_detail":"primary","is_bicycle_related":true,"bicycle_shield_text":"N2","bicycle_network":"ncn","source":"openstreetmap.org","min_zoom":8.0,"shield_text":"205","ref":"D205"},"arcs":[636]},{"type":"LineString","properties":{"kind":"major_road","network":"Dr\u017eavne ceste","sort_rank":380,"kind_detail":"primary","is_bicycle_related":true,"source":"openstreetmap.org","min_zoom":8.0,"shield_text":"28","ref":"D28"},"arcs":[637]},{"type":"LineString","properties":{"kind":"major_road","network":"Dr\u017eavne ceste","sort_rank":380,"kind_detail":"primary","is_bicycle_related":true,"bicycle_shield_text":"SM\u017d 01","bicycle_network":"rcn","source":"openstreetmap.org","min_zoom":8.0,"shield_text":"30","ref":"D30;D47"},"arcs":[638]},{"type":"MultiLineString","properties":{"kind":"highway","network":"Autoceste","sort_rank":383,"kind_detail":"motorway","source":"openstreetmap.org","min_zoom":8.0,"all_networks":["Autoceste","e-road","e-road"],"shield_text":"4","ref":"A4","all_shield_texts":["4","65","71"]},"arcs":[[639],[640],[641],[642],[643],[644]]},{"type":"LineString","properties":{"kind":"major_road","network":"Dr\u017eavne ceste","sort_rank":380,"kind_detail":"primary","source":"openstreetmap.org","min_zoom":8.0,"landuse_kind":"residential","shield_text":"31","ref":"D31"},"arcs":[645]},{"type":"LineString","properties":{"bus_network":"local","network":"Dr\u017eavne ceste","sort_rank":380,"kind_detail":"primary","kind":"major_road","source":"openstreetmap.org","min_zoom":8.0,"bus_shield_text":"270","shield_text":"29","ref":"D29"},"arcs":[646]},{"type":"LineString","properties":{"kind":"highway","network":"Dr\u017eavne ceste","sort_rank":383,"kind_detail":"motorway","source":"openstreetmap.org","min_zoom":8.0,"all_networks":["Dr\u017eavne ceste","Autoceste","e-road","e-road"],"shield_text":"3","ref":"A4;D3","all_shield_texts":["3","4","65","71"]},"arcs":[647]},{"type":"LineString","properties":{"kind":"major_road","network":"Dr\u017eavne ceste","sort_rank":380,"kind_detail":"primary","is_bicycle_related":true,"source":"openstreetmap.org","min_zoom":8.0,"shield_text":"26","ref":"D26;D43","id":445460215},"arcs":[648]},{"type":"MultiLineString","properties":{"kind":"highway","network":"Autoceste","sort_rank":383,"kind_detail":"motorway","source":"openstreetmap.org","min_zoom":8.0,"all_networks":["Autoceste","e-road"],"shield_text":"3","ref":"A3","all_shield_texts":["3","70"]},"arcs":[[649],[650],[651],[652],[653],[654],[655],[656],[657],[658],[659],[660],[661],[662],[663],[664],[665],[666],[667],[668],[669],[670],[671],[672],[673],[674]]},{"type":"LineString","properties":{"kind":"major_road","network":"Dr\u017eavne ceste","sort_rank":380,"kind_detail":"primary","bus_network":null,"source":"openstreetmap.org","min_zoom":8.0,"bus_shield_text":"WG 1","shield_text":"1","landuse_kind":"urban_area","ref":"D225","id":293559463},"arcs":[675]},{"type":"LineString","properties":{"bus_network":"local","sort_rank":377,"landuse_kind":"urban_area","is_bicycle_related":true,"kind":"major_road","bicycle_shield_text":"N3","bicycle_network":"ncn","source":"openstreetmap.org","min_zoom":8.0,"bus_shield_text":"215","kind_detail":"tertiary"},"arcs":[676]},{"type":"LineString","properties":{"bus_network":"local","network":"\u017dupanijske ceste","sort_rank":379,"kind_detail":"secondary","is_bicycle_related":true,"kind":"major_road","bicycle_shield_text":"N3","bicycle_network":"ncn","source":"openstreetmap.org","min_zoom":8.0,"bus_shield_text":"216","shield_text":"1036","landuse_kind":"urban_area","ref":"1036","id":129728570},"arcs":[677]},{"type":"LineString","properties":{"kind":"highway","network":"Dr\u017eavne ceste","sort_rank":383,"landuse_kind":"urban_area","source":"openstreetmap.org","min_zoom":8.0,"all_networks":["Dr\u017eavne ceste","Autoceste","e-road",null],"kind_detail":"motorway","shield_text":"1","ref":"A3;D1","all_shield_texts":["1","3","70","11"]},"arcs":[678]},{"type":"LineString","properties":{"kind":"major_road","network":"\u017dupanijske ceste","sort_rank":379,"kind_detail":"secondary","is_bicycle_related":true,"bicycle_shield_text":null,"bicycle_network":"ncn","source":"openstreetmap.org","min_zoom":8.0,"landuse_kind":"urban_area","shield_text":"3206","ref":"3206","id":135638837},"arcs":[679]},{"type":"LineString","properties":{"kind":"major_road","network":"Dr\u017eavne ceste","sort_rank":380,"kind_detail":"primary","bus_network":"local","source":"openstreetmap.org","min_zoom":8.0,"bus_shield_text":"182","shield_text":"225","ref":"D225","id":204592652},"arcs":[680]},{"type":"MultiLineString","properties":{"kind":"major_road","network":"Dr\u017eavne ceste","sort_rank":380,"kind_detail":"primary","is_bicycle_related":true,"source":"openstreetmap.org","min_zoom":8.0,"shield_text":"3","ref":"D3"},"arcs":[[681],[682]]}]},"earth":{"type":"GeometryCollection","geometries":[{"type":"MultiPolygon","properties":{"sort_rank":10,"source":"naturalearthdata.com","min_zoom":0.0,"kind":"earth","area":96676069294},"arcs":[[[683]]]}]},"landuse":{"type":"GeometryCollection","geometries":[{"type":"Polygon","properties":{"source":"openstreetmap.org","kind":"nature_reserve","area":1052270016,"tier":2,"id":422036762,"min_zoom":4.0,"sort_rank":23},"arcs":[[684]]},{"type":"MultiPolygon","properties":{"source":"openstreetmap.org","kind":"military","tier":3,"area":276299155,"sort_rank":45,"min_zoom":8.0},"arcs":[[[685]],[[686]]]},{"type":"MultiPolygon","properties":{"source":"naturalearthdata.com","kind":"urban_area","name":"","area":2956313692,"sort_rank":11,"min_zoom":4.0},"arcs":[[[687]],[[688]],[[689]],[[690]]]},{"type":"MultiPolygon","properties":{"source":"openstreetmap.org","kind":"residential","tier":2,"area":317866606,"sort_rank":20,"min_zoom":8.0},"arcs":[[[691]],[[692]],[[693]],[[694]],[[695]],[[696]],[[697]],[[698]],[[699]],[[700]],[[701]],[[702]]]},{"type":"Polygon","properties":{"kind":"residential","name":"Bjelovar","area":22452500,"sort_rank":20,"id":177043665,"source":"openstreetmap.org","min_zoom":8.0,"tier":2,"name:sr":"\u0411\u0458\u0435\u043b\u043e\u0432\u0430\u0440"},"arcs":[[703]]},{"type":"MultiPolygon","properties":{"kind":"nature_reserve","protect_class":"4","area":694579968,"sort_rank":23,"source":"openstreetmap.org","min_zoom":6.0,"tier":2,"id":-6482172,"osm_relation":true},"arcs":[[[704]],[[705]]]},{"type":"MultiPolygon","properties":{"source":"openstreetmap.org","kind":"nature_reserve","tier":2,"protect_class":"4","area":678222934,"sort_rank":23,"min_zoom":6.0},"arcs":[[[706]]]}]}},"type":"Topology","transform":{"translate":[15.46875,45.0890355648],"scale":[0.0003433228,0.000240282]},"arcs":[[[1919,0],[-111,66],[-11,112],[-85,109],[-23,86],[-96,5],[43,88],[-25,4],[-21,67],[-107,52],[-60,-61],[-89,-22],[-17,72],[-25,-17],[-59,22],[4,-49],[-106,-2],[-40,34],[-48,-24],[15,-27],[-18,-24],[-60,7],[12,-13],[-71,-57],[-59,-107],[77,-210],[-64,-111]],[[1955,0],[-14,0]],[[4096,543],[-30,-2],[-33,-61],[4,43],[-57,19],[25,-104],[-83,-41],[-241,96],[-102,-46],[-84,23],[-117,50],[-87,72],[-123,-50],[-83,29],[-106,-75],[-52,-114],[14,-84],[-44,-76],[-200,-122],[-5,-37],[29,-24],[-25,-39]],[[4096,597],[-36,-15],[36,-19]],[[4096,649],[0,-12]],[[0,2941],[7,1],[-7,44]],[[0,3036],[28,4],[2,33],[40,19],[30,-14],[-5,-27],[78,7],[32,51],[-2,48],[37,-9],[24,-46],[10,40],[28,40],[165,-86],[38,-52],[67,87],[73,4],[18,29],[38,-12],[-93,94],[11,56],[23,-10],[9,21],[-35,22],[-2,59],[81,72],[8,167],[-30,146],[46,51],[-28,21],[41,55],[-11,32],[47,39],[-53,63],[-79,19],[-1,23],[-83,6],[1,8]],[[4096,543],[-30,-2],[-33,-61],[4,43],[-57,19],[25,-104],[-83,-41],[-241,96],[-102,-46],[-84,23],[-117,50],[-87,72],[-123,-50],[-83,29],[-106,-75],[-52,-114],[14,-84],[-44,-76],[-200,-122],[-5,-37],[29,-24],[-25,-39]],[[4096,597],[-36,-15],[36,-19]],[[4096,649],[0,-12]],[[1919,0],[-111,66],[-11,112],[-85,109],[-23,86],[-96,5],[43,88],[-25,4],[-21,67],[-107,52],[-60,-61],[-89,-22],[-17,72],[-25,-17],[-59,22],[4,-49],[-106,-2],[-40,34],[-48,-24],[15,-27],[-18,-24],[-60,7],[12,-13],[-71,-57],[-59,-107],[77,-210],[-64,-111]],[[1955,0],[-14,0]],[[2214,2963],[133,16],[368,281],[176,25],[253,550],[142,79],[127,115],[37,67]],[[1466,2976],[-50,-56],[-3,-86],[-423,-249],[-37,-60],[-456,-174],[-68,-325],[-210,-264],[38,-189],[-176,-14],[-14,-32],[30,-57],[-77,-93],[-1,-45],[-19,-5]],[[0,3740],[3,-1],[94,-153],[106,-19],[276,-170],[499,-222],[83,-149],[414,-49]],[[0,3740],[3,-1],[94,-153],[106,-19],[276,-170],[499,-222],[83,-149],[414,-49]],[[1466,2976],[-50,-56],[-3,-86],[-423,-249],[-37,-60],[-456,-174],[-68,-325],[-210,-264],[38,-189],[-176,-14],[-14,-32],[30,-57],[-77,-93],[-1,-45],[-19,-5]],[[1468,2976],[-53,-60],[34,-96],[1071,-1106],[131,-43],[4,-105],[96,-176],[123,-26],[144,-177],[123,-69]],[[1492,2977],[-11,-1]],[[1262,3891],[71,-13]],[[1333,3878],[43,-191],[77,34],[107,0]],[[3141,1118],[32,-35],[-56,-334],[-57,-84],[25,-70],[-102,-81],[-31,-96]],[[1278,4096],[13,-44],[3,-138],[-32,-23]],[[3130,3816],[4,-150],[19,-31],[50,2],[-5,-67],[25,-33],[48,-9],[98,37],[278,-58],[326,-169],[123,84]],[[630,3342],[150,-78]],[[780,3264],[5,-3]],[[785,3261],[194,-87],[47,-61],[26,-77],[6,-8],[5,-2],[2,-1],[3,-1],[393,-49],[56,5],[312,89],[27,-3]],[[781,3263],[-22,10]],[[780,3264],[1,-1]],[[2248,2966],[-89,-4],[-306,106],[-5,1],[-6,1],[-8,0],[-5,-1],[-171,-41],[-46,-12],[-87,-33],[-8,-3],[-56,-4],[-11,2],[-16,14],[-3,2],[-3,1],[-2,1],[-1,0],[-179,14],[-176,14],[-3,0],[-41,89],[-1,2],[-41,54],[-3,3],[-2,2],[-2,2],[-2,0],[-22,11],[-168,74]],[[785,3261],[-4,2]],[[1014,3196],[-26,209],[24,108]],[[1012,3513],[-8,51],[92,106],[-12,58],[23,52],[168,118],[93,-41],[106,77],[193,73],[131,-33],[288,35],[37,87]],[[1486,2978],[-423,48],[-70,133],[21,37]],[[2722,0],[10,75],[203,177],[17,166]],[[1466,2976],[-50,-56],[-3,-86],[-423,-249],[-37,-60],[-456,-174],[-68,-325],[-210,-264],[38,-189],[-176,-14],[-14,-32],[30,-57],[-77,-93],[-1,-45],[-19,-5]],[[2231,2965],[266,-99],[142,-145],[57,-143],[234,-97],[94,-116],[60,-24],[175,-294],[174,-144],[179,-197],[302,-177],[182,-41]],[[4096,1403],[-19,-69],[19,-69]],[[2791,1638],[63,36],[75,-27],[118,69]],[[3110,1807],[217,165]],[[1708,2655],[38,-14]],[[1746,2641],[-38,14]],[[1726,2678],[-7,-6]],[[1803,2620],[-22,8]],[[1781,2627],[21,-8]],[[1919,2926],[-33,-45]],[[973,3258],[0,-11]],[[2653,1782],[0,269],[-27,16]],[[1269,2795],[-2,0]],[[1267,2794],[4,2]],[[1271,2796],[-1,0]],[[1237,2793],[-38,6]],[[57,1415],[-17,-19]],[[2228,2818],[181,-60],[29,-110],[148,-101],[7,-46]],[[17,1775],[53,-22]],[[1694,2254],[29,245]],[[1728,2132],[-29,91]],[[647,3086],[-2,6]],[[2342,3475],[-11,72]],[[2336,3502],[10,-52]],[[2391,3792],[-1,-1]],[[2390,3790],[1,1]],[[1526,1642],[-37,64]],[[1123,2904],[13,-6]],[[944,447],[-4,9]],[[1035,379],[1,0]],[[1508,3941],[-16,8]],[[1509,3940],[21,-9]],[[3147,555],[-7,-15]],[[1131,2060]],[[1508,3941],[0,-1],[1,-1],[0,1],[-1,1]],[[788,2508],[-248,-68]],[[839,2530],[-9,1]],[[863,2538],[-11,-6]],[[952,2699],[-27,-32]],[[145,1751],[71,13],[17,7]],[[233,1771],[-88,-19]],[[278,1813],[-2,-2]],[[276,1811],[3,2]],[[1345,2693],[-15,-46]],[[276,1811],[-43,-40]],[[233,1771],[11,7],[7,6],[25,27]],[[301,1837],[-23,-24]],[[279,1813],[22,23]],[[1208,2744],[-7,-15]],[[1202,2729],[24,37]],[[1227,2769],[-15,-19]],[[2752,2585],[-63,-70]],[[2924,2584],[-169,2]],[[2653,1698],[-3,-1]],[[1579,2969],[47,2]],[[1654,2951],[-17,12]],[[1657,2948],[-3,3]],[[2631,1553],[-4,-35]],[[2362,3779],[4,33],[-114,139],[-53,3],[-37,-46],[-103,107]],[[1216,2434],[-26,-37]],[[1187,3831],[0,1]],[[1187,3832],[-1,0],[0,-1],[1,0]],[[1187,3831],[2,-4]],[[1283,3890],[-96,-58]],[[1302,3913],[-11,-15]],[[1303,3914],[0,64]],[[1304,3913],[-1,1],[-1,-1],[1,0],[1,0]],[[1039,3199],[-1,-2]],[[1049,3163],[-3,17]],[[1934,2980],[24,139]],[[627,3135],[1,-1]],[[638,3126],[33,-39]],[[904,2959],[-2,-1]],[[2349,3719],[-89,-95]],[[950,3341],[43,134]],[[1064,3698],[-63,-102],[-7,-120]],[[1391,2783],[-4,-1]],[[317,145],[13,-10]],[[348,132]],[[231,1651],[-4,-15]],[[3017,3428],[213,7],[98,132],[337,15],[30,-34],[137,-34]],[[3833,3514],[177,-26],[86,32]],[[973,3247],[0,-25]],[[1411,2873],[2,0]],[[1414,2874],[3,14]],[[893,3221],[37,-3]],[[930,3219],[32,-10]],[[930,3219],[0,-1],[0,1]],[[1836,3582],[20,-27]],[[1859,3552],[15,-29]],[[2104,3336],[-51,-37]],[[378,2138],[-36,-155]],[[1035,3003],[1,0],[0,1],[-1,-1]],[[3077,2634],[-60,-3],[-54,-51],[-39,4]],[[3324,2744],[-61,-1]],[[3397,2813],[-51,-60]],[[3920,3283],[2,-25]],[[3942,3121],[-1,-1]],[[2623,1574],[8,-21]],[[0,2181],[26,-1]],[[2627,1518],[-8,-42]],[[2314,3401],[23,-9]],[[2248,1844],[-43,153],[-50,74]],[[1270,2796],[-1,-1]],[[1516,2768],[3,1]],[[1896,2948],[-37,13]],[[2628,2073],[-63,23],[2,26],[40,5],[-26,92],[-34,24],[9,68],[-19,15]],[[1723,2534],[5,-9],[33,-39],[2,-2],[18,-34],[-14,-63],[-3,-21],[0,-2],[65,-64],[1,-44],[9,-37],[71,-77],[69,-39],[127,-44],[70,-79],[17,-14]],[[2193,1967],[-87,93],[-196,82],[-70,76],[-11,82],[-64,64],[17,86],[-17,33],[-42,51]],[[721,2987],[3,-1]],[[54,2025],[62,-47]],[[2643,1696],[8,-66]],[[3113,3117],[1,0]],[[3113,3117]],[[1801,2816],[36,-39]],[[1832,2787],[-11,13],[-20,17]],[[1839,2776],[-4,7]],[[40,1396],[-28,-15]],[[73,1477],[-16,-62]],[[65,1533],[8,-55]],[[1222,2434],[-6,0]],[[3172,3877],[-33,7]],[[209,1677],[-2,1]],[[206,1678],[0,-1],[1,0],[0,1],[-1,0]],[[1556,1649],[27,-36],[-20,-167],[72,-31],[7,-54],[22,4],[35,-124],[-7,-122],[62,-67]],[[1779,2530],[-56,-31],[56,31]],[[498,2373],[-76,-78],[-47,-116]],[[1654,2951]],[[2854,3233],[160,-7],[98,-108]],[[3112,3118],[1,-1]],[[3113,3117],[-1,1]],[[498,2373],[10,-11],[29,10]],[[537,2372],[7,2]],[[533,2379],[4,-7]],[[537,2372],[1,-3],[62,-53],[6,1]],[[1777,4096],[10,-130],[80,-152]],[[1866,3812],[33,-35],[-90,-153],[27,-42]],[[1856,3555],[3,-3]],[[1874,3523],[3,-6]],[[1911,3402],[18,-11]],[[1421,960],[68,63],[190,28]],[[969,3280],[4,-22]],[[143,1751],[-122,21],[-13,-7],[-8,-8]],[[0,1754],[21,18],[122,-21]],[[352,1889],[-51,-52]],[[301,1836],[51,53]],[[1201,2729],[-8,-26],[-88,-133]],[[1105,2570],[-8,-13],[-17,-8]],[[1080,2549],[-152,-79],[-111,-32],[-95,-43],[-106,-77],[-4,-4],[-140,-213],[-115,-206]],[[357,1894],[36,44],[17,26],[13,21],[49,116],[141,214],[108,79],[99,44],[108,32],[115,47],[37,32]],[[1080,2549],[25,21]],[[1105,2570],[30,26],[9,11],[28,43],[22,53],[8,26]],[[2227,2817],[-9,-33]],[[2228,2818],[-1,1],[-1,-1],[1,-1]],[[2227,2817],[1,1]],[[712,2979],[10,9]],[[2616,1634],[-1,-43]],[[1037,3117],[6,4]],[[1045,3122],[-8,-5]],[[757,2982],[-23,-2]],[[1264,3872],[-9,-6]],[[1260,3869],[1,1]],[[1322,3933],[-12,-18]],[[1311,3917],[11,16]],[[1172,2361],[-8,-132],[-61,-84]],[[73,1478],[0,-1]],[[2621,1692],[0,1]],[[757,2955],[115,-6]],[[873,2949],[31,10]],[[905,2960],[19,6]],[[2344,1466],[10,4]],[[1562,2760],[-2,-5],[4,-17],[21,-60],[138,-144]],[[1723,2534],[-138,144],[-22,83]],[[1958,3119],[18,43]],[[1129,3874],[1,-1]],[[1130,3873],[-1,-3]],[[1130,3873],[1,0]],[[984,3172],[19,-19]],[[999,3161],[-15,11]],[[997,3164],[-1,-1]],[[1276,2790],[2,0]],[[2579,1704],[15,-4]],[[2620,1694]],[[2621,1693]],[[243,1651],[-15,106]],[[228,1758],[-3,-1],[-5,-5],[-3,-12],[13,-67],[3,-8],[17,-26],[18,-23]],[[268,1617],[-24,32]],[[1021,3284],[5,-23]],[[1021,3286],[0,-1]],[[1026,3261],[-4,23]],[[1026,3260],[10,-15]],[[1037,3246],[-10,14]],[[1037,3244],[1,1]],[[1046,3217],[-8,27]],[[1022,3285],[-1,0],[0,-1]],[[1021,3284],[1,0],[0,1]],[[1026,3261],[0,-1],[1,0],[0,1],[-1,0]],[[661,987],[-53,-23],[-8,-213],[81,-92],[59,-1],[39,-30],[-22,-94],[31,-17],[34,21],[120,-86]],[[905,2959],[3,1]],[[904,2960],[0,-1],[1,-1],[0,1],[-1,1]],[[1043,3121],[6,42]],[[158,1713],[48,-35]],[[217,1675],[5,-16]],[[225,1656],[4,-5]],[[1728,2966],[-51,-13]],[[1248,2799],[-121,104]],[[627,3342],[262,-121]],[[0,3723],[39,-43]],[[10,3449],[-4,-10]],[[6,3439],[0,-1],[1,1],[-1,0]],[[45,3516],[-34,-66]],[[11,3450],[-1,0],[0,-1],[1,0],[0,1]],[[39,3679],[7,-161]],[[39,3679],[1,0],[-1,1],[-1,-1],[1,0]],[[44,3517],[2,-1],[0,1],[-1,1],[-1,-1]],[[1016,3000],[-3,-1]],[[628,3134],[10,-8]],[[1277,2791],[1,-1]],[[12,1780],[5,-5]],[[70,1753],[19,12],[69,-52]],[[668,986],[-1,0]],[[1792,1022],[39,-4]],[[3804,1589],[-21,-36]],[[4096,1936],[-251,-180],[-19,-49]],[[1064,2774],[-71,-13],[-35,-58]],[[1147,2787],[-78,-13]],[[1414,2874],[-1,-1]],[[658,3147],[-40,66],[-207,120],[-18,8],[-10,3],[-37,1],[-5,3],[-5,4]],[[336,3352],[-74,48]],[[262,3400],[-2,1],[-97,18],[-163,12]],[[0,3427],[10,-2],[25,-4],[128,-2],[96,-18],[1,-1],[2,0]],[[262,3400],[21,-9],[53,-39]],[[336,3352],[5,-4],[5,-3],[54,-7],[218,-125],[41,-67]],[[3382,1998],[-55,-26]],[[2218,2784],[-28,-144],[82,-151]],[[1190,2397],[-10,-6]],[[1045,3183],[8,20],[2,6],[3,30],[-5,29],[-4,17]],[[1048,3285],[-3,-101]],[[1329,2643],[0,-12]],[[1836,2537],[48,-50]],[[1885,2482],[13,-244],[102,-91],[155,-76]],[[2267,1776],[-19,68]],[[2283,1762],[53,-104],[-43,-41],[8,-149]],[[1677,2953],[-1,-1],[1,0],[0,1]],[[2621,1693],[2,1]],[[3528,0],[-8,58],[43,49],[259,114],[66,72],[7,55]],[[1871,2224],[27,14]],[[244,1649],[-1,2]],[[3832,3514],[0,-1],[1,1],[-1,0]],[[1767,2968],[3,-4]],[[2337,3392],[3,-1]],[[2340,3391],[62,-44],[2,-1],[169,-38],[86,-93],[107,-42],[128,87],[87,76],[25,40],[171,453]],[[3176,3829],[-195,-492],[-215,-163],[-106,41],[-87,94],[-169,37],[-64,45]],[[1221,3817],[-15,-2],[-8,-2]],[[1199,3812],[22,5]],[[1349,3850],[-128,-33]],[[1349,3850],[37,-3]],[[1386,3847],[119,67]],[[1505,3914],[12,6]],[[1519,3922],[-14,-8]],[[2260,3624],[-11,-28]],[[2723,0],[37,104],[170,138],[12,135],[44,119],[76,54],[233,0],[269,-107],[97,29],[234,-78],[2,-46],[199,143]],[[1556,1649],[125,9]],[[1137,2047],[-3,-129],[57,-39],[-6,-31],[146,37],[33,-121],[57,-46],[68,-12]],[[1556,1649],[-30,-7]],[[232,1761],[-4,-3]],[[228,1758],[5,3]],[[2358,1463],[42,-102]],[[2619,1474],[20,-40]],[[3057,662],[94,146],[9,112],[59,152]],[[995,377],[26,-1],[-11,-34]],[[1010,340],[100,-149],[46,-20],[3,-93],[47,-27],[18,-51]],[[3325,2744],[10,3]],[[2643,1723],[-7,-21]],[[3995,3360],[-36,-16]],[[284,1859],[-60,-67],[4,-34]],[[1286,3960],[5,-38]],[[1727,2679],[-1,-1]],[[1729,2680],[-1,0]],[[1199,2799],[-52,-12]],[[3109,583],[-95,-45],[-88,-148],[-11,-111],[-224,-183],[-27,-96]],[[4096,653],[-105,-55],[-37,-153],[-50,-34],[-186,76],[-78,14],[-93,-20],[-155,47],[-99,69],[-142,-40]],[[1038,3245],[1,-46]],[[1038,3197],[8,20]],[[1626,2971],[11,-8]],[[645,3092],[-7,34]],[[674,3081],[39,-76]],[[713,3004],[4,-7]],[[713,3004]],[[713,3004],[0,1]],[[713,3005],[0,-1]],[[1842,2966],[-55,4]],[[2623,1694],[-1,0]],[[1129,3870],[-65,-172]],[[1719,2672],[-11,-17]],[[1709,2655],[20,25]],[[1728,2680],[-1,-1]],[[1958,3120],[-25,-142]],[[1035,3107],[19,-73]],[[1054,3034],[-19,74]],[[1055,3033],[-1,1]],[[1191,3823],[5,-9]],[[1196,3814],[1,-2]],[[1197,3813],[-1,1]],[[1198,3811],[1,-1]],[[1199,3810],[0,1]],[[1199,3810],[16,-30],[79,-6]],[[1295,3774],[11,-30]],[[1306,3743],[43,-46],[118,12]],[[1474,3710],[97,21],[47,74],[108,32],[140,-25]],[[1198,3813],[-2,-1],[1,-1],[2,0],[-1,2]],[[1294,3774],[1,0],[0,1],[-1,-1]],[[1306,3744],[0,-1],[0,1]],[[1467,3709],[7,1]],[[934,3004],[-60,-17],[-23,23],[-94,-28]],[[1013,2999],[-78,5]],[[935,3004],[-1,0],[0,-1],[1,0],[0,1]],[[3393,1989],[-1,1],[-1,-1],[1,-1],[1,1]],[[1387,2782],[-42,-89]],[[3816,1612],[-12,-23]],[[3826,1707],[-10,-94]],[[3153,3812],[3,-3]],[[3089,2373],[-2,0],[0,-1],[2,0],[0,1]],[[1038,3197],[8,-17]],[[2689,2515],[-3,-11]],[[3959,3344],[-39,-61]],[[1172,3849],[14,-17]],[[235,1678],[-18,-3]],[[722,2988],[3,-3]],[[3832,3513],[2,-6]],[[2622,1694],[-1,0],[-1,0],[1,-1],[1,1]],[[2622,1694],[1,0]],[[2301,1468],[-2,-12]],[[2619,1476],[-36,-17]],[[1831,1018],[124,-212],[51,-20],[73,-94],[-52,-91],[-52,6],[-41,-46],[-20,-145],[46,-136],[135,-99],[135,22],[209,-203]],[[346,1453],[54,-50],[26,-131],[-11,-68]],[[2639,1434],[101,-95],[117,20],[49,-29],[83,-133],[230,-125]],[[540,2440],[-42,-67]],[[1884,2487],[1,-5]],[[1072,3021],[-2,0]],[[415,1204],[99,-4],[88,-92],[65,-122]],[[668,986],[72,51],[98,1],[119,66],[98,-1],[99,-14],[267,-129]],[[2621,1692],[-10,-28]],[[2611,1664],[-2,-13],[4,-12],[3,-5],[-5,30]],[[1838,2775],[1,1]],[[2354,1470],[3,-4]],[[1131,2060],[-196,-222],[-62,0],[-39,-49],[-276,-35],[-189,72],[-42,-23]],[[1127,2903],[-5,0]],[[1122,2903],[-25,3],[-11,-3]],[[1089,2898],[33,5]],[[1122,2903],[1,1]],[[1262,2779],[-14,20]],[[4018,3358],[18,-21]],[[942,452],[53,-75]],[[1412,2866],[-1,-8]],[[1416,2889],[1,-1]],[[1274,2766],[-12,13]],[[1887,2881],[29,39]],[[1226,2766],[26,20]],[[1141,3011],[-69,10]],[[3113,3117],[51,-55],[56,-138],[-18,-26],[14,-51],[45,-17],[64,-86]],[[2891,4096],[72,-83],[90,-25]],[[3061,3978],[1,-1]],[[3154,3812],[-16,26]],[[3155,3811],[1,1],[-1,0],[-1,0],[1,-1]],[[3155,3811],[149,-194],[8,-51]],[[1836,2775],[-17,-11],[-2,-3],[-6,-15]],[[1811,2746],[-10,-25],[-1,-1]],[[1800,2720],[-2,-2]],[[1799,2718],[1,2]],[[1800,2720],[11,26]],[[1811,2746],[6,15],[21,14]],[[3109,583],[7,-6]],[[1976,3162],[350,214]],[[2621,1693],[0,-1]],[[1809,1049],[145,143],[20,55],[58,21],[23,62],[135,63],[69,63]],[[3991,3375],[0,1],[-1,0],[1,-1]],[[3991,3375],[4,-15]],[[4096,3457],[-64,-75],[-41,-6]],[[2652,1628],[139,10]],[[1070,3021],[-33,-17]],[[3346,2753],[101,-15],[83,-63],[38,-62],[154,-113],[12,-41],[30,0],[13,-48],[50,-6],[62,-56],[69,0],[16,26],[122,-69]],[[2636,1702],[0,-7]],[[2653,1782],[-10,-59]],[[1276,4096],[10,-136]],[[1045,3184],[-7,-14]],[[143,1751],[2,0]],[[145,1752],[-2,-1]],[[357,1895],[-5,-6]],[[352,1889],[5,5]],[[2283,1762],[0,1]],[[2376,1470],[-22,0]],[[1489,1706],[-35,62],[12,81],[108,94],[-15,11],[47,53],[49,15],[73,110]],[[1329,2631],[-68,-91]],[[2218,2784],[-149,43],[-12,49],[-58,5],[-44,46]],[[1955,2927],[-59,21]],[[1391,2822],[0,-39]],[[1098,4096],[40,-64],[-26,-128]],[[1746,2641],[35,-14]],[[1781,2628],[-16,6],[-19,7]],[[1401,2832],[-10,-10]],[[1406,2842],[-5,-10]],[[1401,2832]],[[1410,2895],[6,-6]],[[1412,2866],[-1,7]],[[1270,2769],[50,-25],[197,20]],[[1522,2764],[13,-2]],[[1538,2762],[128,-27],[68,11],[153,135]],[[1010,342],[0,-2]],[[340,103],[26,-103]],[[4013,3366],[5,5]],[[4013,3366],[-2,-3],[2,-1],[2,2],[-2,2]],[[4013,3365],[0,1]],[[3995,3360],[18,2]],[[950,3341],[18,-58]],[[4013,3362],[5,-4]],[[712,2979],[-8,4]],[[973,3222],[5,-17]],[[3053,3988],[8,-10]],[[3062,3977],[57,-22],[6,-25]],[[3124,3927],[14,-89]],[[3125,3928],[0,1],[-1,0],[0,-1],[1,0]],[[231,1749],[96,54]],[[2249,3596],[-9,-137]],[[264,1575],[82,-122]],[[276,1607],[-11,-29]],[[268,1616],[8,-9]],[[276,1607],[-8,10]],[[415,1204],[-19,-46],[31,-247],[-54,-73],[-104,-55],[-29,-68],[19,-133],[-38,-63],[42,-88],[-1,-202],[18,-61],[37,-23]],[[330,135],[18,-3]],[[348,132],[-8,-29]],[[1190,3823],[-88,-87],[2,-70],[-61,-72],[-41,-191],[19,-117]],[[1189,3827],[2,-3]],[[1190,3823],[1,0],[0,1],[-1,-1]],[[1291,3898],[-8,-8]],[[1298,4096],[5,-118]],[[1783,2550],[-4,-20]],[[1779,2530],[14,49]],[[1792,2579],[-6,-17]],[[726,2984],[8,-4]],[[1035,3004],[-19,-4]],[[1657,2948],[19,4]],[[1787,2970],[-17,-6]],[[1291,3922]],[[239,1657],[-8,-6]],[[1173,2378],[-1,-17]],[[1291,3922],[-118,-73]],[[241,1696],[-10,53]],[[236,1679],[10,13]],[[246,1693],[-4,3]],[[2299,1456],[43,9]],[[2357,1466],[19,4]],[[26,2180],[28,-155]],[[663,3065],[-8,13]],[[704,2983],[-22,48]],[[1037,3117],[-2,-10]],[[1035,3108],[3,6],[-1,3]],[[1137,2047],[-6,13]],[[1681,1658],[135,-40],[119,73],[48,-38],[54,1],[90,90],[140,32]],[[2508,1722],[-225,42]],[[2787,1567],[-54,8],[-49,46]],[[1877,3517],[34,-115]],[[2299,1456],[-40,0]],[[1679,1051],[74,1],[39,-30]],[[2593,2501],[58,27]],[[342,1983],[-58,-124]],[[375,2179],[3,-41]],[[1117,2099],[14,-39]],[[1413,2873],[1,1]],[[1792,2579],[44,-42]],[[228,1758],[3,-9]],[[2596,1700],[-88,22]],[[2653,1627],[-1,1]],[[2615,1591],[8,-17]],[[1492,3949],[230,75],[128,-30],[162,41],[48,-20],[45,81]],[[15,1534],[-15,-3]],[[179,1563],[-76,4],[-78,-33]],[[179,1563],[12,15]],[[218,1609],[-27,-31]],[[225,1626],[-6,-16]],[[227,1636],[-2,-10]],[[225,1626]],[[225,1626],[1,0],[-1,0]],[[1978,3176],[-4,14]],[[2594,1700],[27,-7]],[[718,2994],[4,-6]],[[52,3611]],[[2400,1361],[70,-149],[150,-98],[98,-174],[80,-63],[27,-54],[231,-161],[53,-79]],[[2283,1764],[-16,12]],[[1103,2924],[-79,140],[21,119]],[[978,3205],[2,-9]],[[3047,1716],[63,91]],[[1158,3859],[14,-10]],[[1172,3849],[1,0],[-1,1],[0,-1]],[[2689,2515],[-38,13]],[[2537,2326],[-110,-36],[-34,140],[-56,-16],[-65,75]],[[655,3078],[-8,8]],[[204,1872],[7,-40]],[[2619,1474],[-1,1]],[[2539,1464],[-163,6]],[[1038,3170],[-15,-106],[81,-144]],[[2621,1694],[-25,6]],[[2623,1694],[20,2]],[[12,1381],[-12,-4]],[[0,1776],[12,4]],[[801,2511],[-11,-2]],[[928,3217],[2,1]],[[931,3218],[1,1]],[[1019,3129],[4,-2]],[[1018,3129],[1,0],[0,1],[-1,0],[0,-1]],[[1180,2391],[-7,-13]],[[3263,2743],[-129,-110],[-57,1]],[[3941,3120],[-197,-37],[-85,-49],[-22,-74],[-80,-33],[-26,-42],[-98,8],[-36,-80]],[[3922,3258],[-10,-57],[30,-80]],[[790,2509],[-2,-1]],[[801,2511],[29,20]],[[852,2532],[-13,-2]],[[925,2667],[-62,-129]],[[958,2703],[-6,-4]],[[3897,345],[0,3]],[[2342,1465],[2,1]],[[116,1978],[79,-52],[9,-54]],[[1809,1049],[22,-31]],[[2583,1459],[-44,5]],[[1021,376],[14,3]],[[1036,379],[60,-42],[41,34],[85,-30],[34,-45],[46,-12],[30,23],[104,-12],[46,13]],[[1482,308],[5,24],[-5,-24]],[[1482,308],[-7,-29],[32,-15],[-11,-15],[63,-1],[12,-30],[-35,-54],[26,-22],[-8,-79],[38,-63]],[[1018,3130],[-38,66]],[[1003,3153],[15,-23]],[[1037,3117],[-18,12]],[[1023,3127],[14,-10]],[[1411,2859],[-20,-37]],[[1267,2795],[-20,-11],[-20,-15]],[[1252,2786],[15,8]],[[1103,2145],[14,-46]],[[533,2380],[11,-6]],[[533,2379],[0,2],[-1,0],[-1,-1],[2,-1]],[[1837,2777],[22,-44],[-55,-107],[-3,-11],[-9,-36]],[[1793,2579],[63,140],[3,14],[-2,10],[-18,33]],[[1835,2783],[-3,4]],[[3235,2126],[33,-60],[107,-59]],[[3374,2005],[1,2]],[[3374,2005],[18,-15]],[[3431,1934],[-39,54]],[[3791,1634],[-61,20]],[[3842,1607],[-51,27]],[[1069,2774],[-5,0]],[[1886,2881],[-148,-133],[-71,-13],[-168,31],[-179,-22],[-46,22]],[[1260,2798],[-23,-5]],[[750,2958],[7,-3]],[[749,2958],[1,0],[-1,0]],[[1277,3002],[-135,9]],[[211,1832],[13,-40]],[[25,1534],[-10,0]],[[3428,4096],[-16,-49],[-79,-54],[-62,-86],[-99,-30]],[[218,1609],[1,0],[0,1],[-1,-1]],[[671,3087],[3,-6]],[[968,3282],[1,-2]],[[669,3137],[7,-6]],[[1699,2223],[-5,31]],[[168,1685],[-50,4],[-99,-84],[-19,3]],[[560,4085],[2,11]],[[647,4096],[35,-52],[78,-42],[77,15],[-17,45],[139,-23],[55,-82],[49,-42],[41,-1],[27,-41]],[[3016,3363],[-17,-5],[-18,-20]],[[2999,3351],[15,11]],[[962,3209],[18,-13]],[[1838,2776],[-2,-1]],[[3564,1663],[164,-97]],[[3725,1568],[-149,88]],[[1517,2764],[5,0]],[[1535,2762],[3,0]],[[180,1682],[-12,3]],[[180,1681],[26,-4]],[[1255,3866],[-63,-45],[-4,-3]],[[1188,3818],[-32,-27]],[[1156,3791],[-3,-2],[-104,-279],[-19,-75],[5,-91],[13,-59]],[[1049,3285],[-19,150],[20,74],[98,267],[8,15]],[[1156,3791],[3,6],[3,4],[26,17]],[[1188,3818],[4,2],[1,1],[28,19],[39,29]],[[1261,3870],[35,26],[15,21]],[[1310,3915],[-46,-43]],[[1322,3933],[12,16],[-22,80],[2,28],[0,7],[-3,21],[-3,11]],[[1300,4096],[22,-163]],[[2619,1476],[0,-2]],[[2754,2585],[0,1],[-1,1],[0,-1],[1,-1]],[[3324,2744],[1,-1],[0,1],[-1,0]],[[663,3064],[0,1]],[[682,3031],[-18,33]],[[725,2985],[24,-27]],[[207,1677],[10,-2]],[[872,2948],[0,1],[0,-1]],[[2626,2067],[2,6]],[[1262,2539],[-40,-105]],[[1240,2810],[30,-41]],[[2924,2584],[146,-149],[18,-61]],[[3088,2372],[147,-246]],[[3730,1654],[-159,108],[-65,161],[-75,11]],[[3842,1607],[254,-114]],[[2053,3299],[-79,-109]],[[1131,3873],[27,-14]],[[4036,3337],[60,-59]],[[3116,577],[35,-20]],[[2346,3450],[-23,-77],[-348,-211]],[[2326,3376],[19,30],[2,7],[2,22],[-1,11],[-6,29]],[[2331,3547],[42,92],[17,151]],[[2390,3791],[-7,-19],[-2,-20],[-8,-113],[-43,-92],[6,-45]],[[2402,4096],[15,-30],[-26,-274]],[[2391,3791],[27,275],[-16,30]],[[1786,2562],[-3,-12]],[[1929,3391],[67,-165]],[[1975,3162],[-17,-42]],[[3335,2747],[11,6]],[[1086,2903],[-70,-10],[-19,9]],[[997,2902],[-47,20],[-17,16],[-1,1]],[[932,2939],[-2,3],[-55,54],[-73,62],[-144,89]],[[659,3146],[22,-19],[24,-18],[17,-10],[48,-23],[31,-18],[129,-118],[2,-1]],[[932,2939],[65,-37]],[[997,2902],[14,-9],[14,-1],[16,0],[48,6]],[[1916,2920],[6,8]],[[1922,2928],[14,17],[3,2],[9,-3]],[[1948,2944],[102,-30],[169,-112],[67,-24],[124,-22],[28,-6],[5,-2]],[[2443,2748],[2,-1],[23,-13]],[[2468,2734],[23,-13],[1,-1],[113,-185],[59,-45],[31,-7],[4,-1],[72,-7]],[[2771,2475],[114,-10],[1,-1]],[[2886,2464],[58,-53]],[[2944,2411],[32,-30],[3,-5]],[[2979,2376],[2,-3],[11,-18],[31,-50],[4,-6],[93,-107],[71,-152],[132,-174],[84,-56],[101,-114],[56,-33]],[[3576,1656],[-68,41],[-58,74],[-43,39],[-84,56],[-4,5],[-126,166],[-73,155],[-139,183],[-2,1]],[[2979,2376],[-35,35]],[[2944,2411],[-54,52],[-4,1]],[[2886,2464],[-115,11]],[[2771,2475],[-72,8],[-5,0],[-30,8],[-59,44],[-114,186],[-23,13]],[[2468,2734],[-25,14]],[[2443,2748],[-3,2],[-220,52],[-162,109],[-6,3],[-93,37],[-11,-7]],[[1948,2944],[-26,-16]],[[1922,2928],[-3,-2]],[[4096,1207],[-54,119],[-72,107],[-32,37],[-2,1],[-160,59],[-31,26],[-20,12]],[[3728,1566],[48,-37],[161,-60],[159,-262]],[[1046,3180]],[[1728,2966],[39,2]],[[1859,2961],[-17,5]],[[1136,2898],[104,-88]],[[2806,1527],[-19,40]],[[889,3221],[4,0]],[[2240,3459],[-136,-123]],[[2399,4096],[6,-10],[-56,-367]],[[4096,4096],[0,-4096],[-1925,0],[-2171,0],[0,4096],[4096,0]],[[2857,1841],[8,93],[45,33],[-23,15],[38,42],[58,-54],[57,-164],[19,18],[50,-14],[15,-30],[51,55],[151,-19],[13,-46],[112,-18],[60,-60],[189,-104],[42,-34],[-112,-93],[18,-29],[154,3],[-4,-31],[45,0],[92,64],[32,-38],[-50,-33],[-22,-81],[68,30],[-6,42],[39,-41],[-46,-9],[-51,-72],[197,-100],[0,-60],[-31,-14],[-8,-47],[-57,3],[-38,-88],[23,-46],[84,2],[-2,69],[29,36],[0,-226],[-29,-18],[1,-56],[-35,-11],[-160,45],[84,113],[-52,41],[1,-48],[-37,-13],[-8,37],[-38,23],[28,106],[-77,20],[32,39],[-62,9],[9,54],[-114,-1],[-86,-38],[-53,52],[27,41],[-40,22],[-5,41],[-110,7],[-13,71],[-65,-29],[-10,55],[40,35],[-54,67],[-48,148],[-110,36],[-71,79],[-157,72],[-27,47]],[[0,0],[0,331],[7,0],[271,-225],[-28,-56],[35,-50],[-285,0]],[[428,1514],[65,7],[41,-37],[-1,-33],[-54,-40],[-11,38],[-39,16],[-1,49]],[[2772,1791],[24,-79],[-33,-47],[97,-92],[-12,-39],[-85,-100],[-129,0],[0,-46],[-32,21],[-85,225],[-13,124],[73,-14],[125,63],[70,-16]],[[265,1615],[-91,50],[-29,85],[29,100],[46,34],[55,-13],[53,-69],[41,-137],[-104,-50]],[[1825,3284],[75,-52],[22,6],[0,46],[51,-20],[-17,-140],[31,-71],[-19,-61],[-33,-25],[-77,39],[1,-44],[48,-139],[84,-19],[-4,-75],[-65,30],[-42,-71],[-22,-144],[-54,-16],[-206,16],[0,92],[-64,93],[-27,6],[-38,-53],[-65,1],[0,-47],[-97,93],[-129,0],[-97,185],[-65,0],[0,92],[-57,103],[-137,-10],[88,151],[72,37],[115,-3],[16,46],[21,-26],[-21,-20],[6,-72],[91,-113],[130,46],[64,139],[125,-109],[69,17],[29,27],[36,158],[97,-1],[65,-92]],[[757,2914],[-94,50],[-35,135],[101,-40],[28,-53],[0,-92]],[[2235,1459],[56,18],[21,-21],[59,43],[77,2],[18,47],[39,-27],[-48,-21],[80,-15],[3,-41],[-24,11],[-132,-67],[17,-28],[-52,-1],[-14,-44],[-43,35],[-5,49],[20,10],[-17,44],[-55,6]],[[3727,1654],[30,8],[-20,107],[74,-62],[35,0],[-15,-53],[21,-24],[-25,-58],[-40,29],[-29,-44],[-16,9],[35,56],[-50,32]],[[3235,2126],[9,18],[29,-75],[94,-50],[13,87],[24,-71],[70,17],[4,-34],[-51,-19],[37,-14],[-41,2],[29,-21],[-42,-62],[-80,69],[-30,-6],[36,22],[-69,62],[-32,75]],[[1690,2573],[28,26],[-22,35],[44,-3],[12,19],[-27,18],[36,4],[33,-75],[-18,-76],[-86,52]],[[2148,2996],[42,11],[29,-23],[21,39],[1,28],[-37,-22],[16,27],[-22,0],[-11,45],[56,-14],[-37,-2],[24,-31],[45,9],[-17,21],[35,-22],[-32,-10],[12,-8],[-7,-24],[-22,29],[20,-58],[28,12],[-18,29],[7,11],[46,-33],[27,57],[11,-51],[-48,-20],[1,-24],[42,-61],[17,5],[18,-7],[-19,-1],[7,-35],[-21,8],[16,-43],[-31,17],[11,22],[-56,112],[-37,-14],[24,-35],[1,-46],[-23,75],[-48,-4],[18,-31],[-3,-56],[-17,90],[-64,3],[-5,25]],[[1166,3017],[34,107],[28,9],[37,-24],[24,14],[-4,-111],[60,6],[-43,-12],[-136,11]],[[2207,3664],[53,9],[0,35],[49,31],[45,-23],[-86,-117],[-43,-7],[-18,72]],[[1141,3875],[93,30],[15,48],[31,-4],[20,36],[24,-56],[-64,-60],[-70,-43],[-49,49]],[[3030,3856],[3,45],[75,-14],[4,23],[-64,6],[49,4],[-28,42],[50,-37],[-71,66],[65,-32],[-3,21],[12,-24],[4,58],[7,15],[3,-113],[30,45],[10,-25],[-22,-22],[25,-52],[-20,16],[-19,-40],[-22,7],[18,36],[-30,2],[-15,-48],[-4,47],[-46,11],[13,-47],[-24,10]],[[1599,3243],[35,58],[34,-110],[39,-45],[-59,-57],[-49,154]],[[1643,3290],[28,38],[7,81],[47,4],[39,49],[-20,-94],[20,-48],[-19,19],[-33,-37],[34,22],[39,-25],[4,20],[34,-56],[-40,-47],[31,-47],[-25,-24],[-14,21],[30,-66],[-21,-29],[-74,11],[-3,65],[-39,44],[-25,99]],[[2624,3264],[38,56],[61,-1],[-8,100],[14,-46],[51,20],[-11,-52],[45,-18],[-33,-20],[28,-5],[-29,-8],[1,-27],[-49,-4],[-15,-31],[0,47],[28,16],[-53,-26],[-11,18],[-19,-34],[4,-18],[28,9],[-9,-30],[-40,33],[11,24],[-32,-3]],[[3948,3349],[59,83],[1,45],[88,-12],[0,-49],[-69,-90],[-59,-31],[16,38],[-36,16]],[[0,2939],[4,1],[17,11],[-21,60],[0,25],[28,4],[2,33],[40,19],[30,-14],[-5,-27],[56,-4],[45,34],[7,76],[37,-9],[24,-46],[36,80],[115,-64],[-73,-23],[-1,-85],[-38,-74],[60,-25],[83,37],[42,-62],[96,-5],[14,-18],[-62,-97],[54,-24],[126,3],[16,-23],[-64,-21],[8,-39],[-216,-29],[-73,17],[-81,128],[14,-124],[-104,-37],[-35,-54],[-100,-41],[-28,35],[-28,-33],[-25,-4],[0,419]],[[0,2371],[14,-1],[-14,-11],[0,12]],[[1054,3133],[18,70],[135,167],[10,45],[63,16],[2,79],[-25,27],[58,13],[-29,22],[40,118],[104,-13],[27,-57],[20,5],[-10,54],[61,39],[116,-90],[148,12],[79,-104],[13,-45],[-108,7],[-55,-80],[-65,0],[-125,-172],[-197,-64],[-17,-48],[-51,-19],[-59,14],[-23,-37],[-4,22],[-65,-14],[-33,-38],[-28,71]]]}