{"objects":{"water":{"type":"GeometryCollection","geometries":[{"type":"Polygon","properties":{"source":"naturalearthdata.com","kind":"ocean","area":1576712559132672,"sort_rank":200,"min_zoom":0.0,"id":1},"arcs":[[373]]},{"type":"LineString","properties":{"source":"naturalearthdata.com","kind":"ocean","sort_rank":205,"boundary":true,"min_zoom":0.0,"id":19},"arcs":[374]}]},"buildings":{"type":"GeometryCollection","geometries":[]},"places":{"type":"GeometryCollection","geometries":[{"type":"Point","properties":{"name:pt":"Ap\u00falia","name:sk":"Ap\u00falia","short_name":"PUG","name:cs":"Apulie","name:eo":"Apulio","min_zoom":4.0,"name:la":"Apulia","name:uk":"\u0410\u043f\u0443\u043b\u0456\u044f","name:be":"\u0410\u043f\u0443\u043b\u0456\u044f","name:ru":"\u0410\u043f\u0443\u043b\u0438\u044f","id":1781917329,"population":4091259,"kind":"region","name":"Puglia","kind_detail":"state","name:de":"Apulien","source":"openstreetmap.org","name:fr":"Pouilles","name:es":"Apulia"},"coordinates":[3356,17]},{"type":"Point","properties":{"source":"openstreetmap.org","kind":"region","name":"Barletta-Andria-Trani","kind_detail":"province","population":393534,"min_zoom":4.0,"id":4396489972},"coordinates":[1975,779]},{"type":"Point","properties":{"name:el":"\u039c\u03c0\u03ac\u03c1\u03b9","kind":"locality","name":"Bari","name:fa":"\u0628\u0627\u0631\u06cc","kind_detail":"city","name:ar":"\u0628\u0627\u0631\u064a","name:sr":"\u0411\u0430\u0440\u0438","source":"openstreetmap.org","min_zoom":8.0,"name:uk":"\u0411\u0430\u0440\u0456","name:ru":"\u0411\u0430\u0440\u0438","name:zh":"\u5df4\u91cc","id":68528585,"population":326344},"coordinates":[4058,567]},{"type":"Point","properties":{"name:el":"\u03a6\u03cc\u03c4\u03b6\u03b1","kind":"locality","name":"Foggia","name:lt":"Fod\u017ea","kind_detail":"city","source":"openstreetmap.org","min_zoom":8.0,"name:uk":"\u0424\u043e\u0434\u0436\u0430","name:ru":"\u0424\u043e\u0434\u0436\u0430","name:zh":"\u798f\u8cc8","id":1112986261,"population":151991},"coordinates":[216,1877]},{"type":"Point","properties":{"name:el":"\u0386\u03bd\u03c4\u03c1\u03b9\u03b1","kind":"locality","name":"Andria","kind_detail":"city","source":"openstreetmap.org","min_zoom":8.0,"name:ru":"\u0410\u043d\u0434\u0440\u0438\u044f","name:zh":"\u5b89\u5fb7\u91cc\u4e9e","id":68528716,"population":100440},"coordinates":[2406,964]},{"type":"Point","properties":{"name:el":"\u039c\u03c0\u03b1\u03c1\u03bb\u03ad\u03c4\u03c4\u03b1","kind":"locality","name":"Barletta","kind_detail":"city","source":"openstreetmap.org","min_zoom":8.0,"name:ru":"\u0411\u0430\u0440\u043b\u0435\u0442\u0442\u0430","name:zh":"\u5df4\u5217\u5854","id":566812342,"population":94814},"coordinates":[2387,1324]},{"type":"Point","properties":{"kind":"locality","name":"Molfetta","kind_detail":"town","source":"openstreetmap.org","min_zoom":8.0,"name:ru":"\u041c\u043e\u043b\u044c\u0444\u0435\u0442\u0442\u0430","id":68528668,"population":59874},"coordinates":[3286,853]},{"type":"Point","properties":{"kind":"locality","name":"Cerignola","name:lt":"\u010cerinjola","kind_detail":"town","source":"openstreetmap.org","min_zoom":8.0,"name:ru":"\u0427\u0435\u0440\u0438\u043d\u044c\u043e\u043b\u0430","id":68529034,"population":58494},"coordinates":[1255,1109]},{"type":"Point","properties":{"kind":"locality","name":"Manfredonia","kind_detail":"town","source":"openstreetmap.org","min_zoom":8.0,"name:ru":"\u041c\u0430\u043d\u0444\u0440\u0435\u0434\u043e\u043d\u0438\u044f","id":68528929,"population":57279},"coordinates":[1284,2511]},{"type":"Point","properties":{"name:el":"\u03a4\u03c1\u03ac\u03bd\u03b9","kind":"locality","name":"Trani","kind_detail":"city","source":"openstreetmap.org","min_zoom":8.0,"name:ru":"\u0422\u0440\u0430\u043d\u0438","name:zh":"\u7279\u62c9\u5c3c","id":68528809,"population":56217},"coordinates":[2760,1148]},{"type":"Point","properties":{"kind":"locality","name":"Bitonto","kind_detail":"town","source":"openstreetmap.org","min_zoom":8.0,"name:ru":"\u0411\u0438\u0442\u043e\u043d\u0442\u043e","id":68528730,"population":55540},"coordinates":[3562,500]},{"type":"Point","properties":{"source":"openstreetmap.org","kind":"locality","name":"Bisceglie","kind_detail":"town","population":55422,"min_zoom":8.0,"id":68528637},"coordinates":[3007,1013]},{"type":"Point","properties":{"kind":"locality","name":"Corato","kind_detail":"town","source":"openstreetmap.org","min_zoom":8.0,"name:ru":"\u041a\u043e\u0440\u0430\u0442\u043e","id":587737578,"population":48312},"coordinates":[2746,672]},{"type":"Point","properties":{"source":"openstreetmap.org","kind":"locality","name":"Modugno","kind_detail":"town","population":38515,"min_zoom":8.0,"id":68528673},"coordinates":[3821,399]},{"type":"Point","properties":{"source":"openstreetmap.org","kind":"locality","name":"Canosa di Puglia","kind_detail":"town","population":30294,"min_zoom":8.0,"id":68528723},"coordinates":[1744,932]},{"type":"Point","properties":{"source":"openstreetmap.org","kind":"locality","name":"San Giovanni Rotondo","kind_detail":"town","population":27184,"min_zoom":8.0,"id":68528970},"coordinates":[763,2821]},{"type":"Point","properties":{"source":"openstreetmap.org","kind":"locality","name":"Terlizzi","kind_detail":"town","population":26983,"min_zoom":8.0,"id":68528780},"coordinates":[3127,585]},{"type":"Point","properties":{"source":"openstreetmap.org","kind":"locality","name":"Ruvo di Puglia","kind_detail":"town","population":25534,"min_zoom":8.0,"id":68528694},"coordinates":[2964,522]},{"type":"Point","properties":{"source":"openstreetmap.org","kind":"locality","name":"Palo del Colle","kind_detail":"town","population":21651,"min_zoom":8.0,"id":68528676},"coordinates":[3589,302]},{"type":"Point","properties":{"source":"openstreetmap.org","kind":"locality","name":"Giovinazzo","kind_detail":"town","population":20480,"min_zoom":8.0,"id":68528657},"coordinates":[3504,807]},{"type":"Point","properties":{"source":"openstreetmap.org","kind":"locality","name":"Orta Nova","kind_detail":"town","population":17802,"min_zoom":8.0,"id":68529070},"coordinates":[705,1361]},{"type":"Point","properties":{"source":"openstreetmap.org","kind":"locality","name":"Melfi","kind_detail":"town","population":17767,"min_zoom":8.0,"id":67280689},"coordinates":[544,63]},{"type":"Point","properties":{"source":"openstreetmap.org","kind":"locality","name":"Adelfia","kind_detail":"town","population":17184,"min_zoom":8.0,"id":68528708},"coordinates":[4086,95]},{"type":"Point","properties":{"kind":"locality","name":"San Nicandro Garganico","kind_detail":"town","source":"openstreetmap.org","min_zoom":8.0,"old_name":"Sannicandro Garganico","id":68528909,"population":15566},"coordinates":[281,3339]},{"type":"Point","properties":{"source":"openstreetmap.org","kind":"locality","name":"Trinitapoli","kind_detail":"town","population":14733,"min_zoom":8.0,"id":68529015},"coordinates":[1802,1474]},{"type":"Point","properties":{"source":"openstreetmap.org","kind":"locality","name":"San Ferdinando di Puglia","kind_detail":"town","population":13987,"min_zoom":8.0,"id":68529132},"coordinates":[1753,1255]},{"type":"Point","properties":{"source":"openstreetmap.org","kind":"locality","name":"Vieste","kind_detail":"town","population":13975,"min_zoom":8.0,"id":68529247},"coordinates":[2069,3512]},{"type":"Point","properties":{"source":"openstreetmap.org","kind":"locality","name":"Lavello","kind_detail":"town","population":13626,"min_zoom":8.0,"id":67280660},"coordinates":[938,256]},{"type":"Point","properties":{"source":"openstreetmap.org","kind":"locality","name":"San Marco in Lamis","kind_detail":"town","population":13381,"min_zoom":8.0,"id":68529127},"coordinates":[498,2852]},{"type":"Point","properties":{"source":"openstreetmap.org","kind":"locality","name":"Grumo Appula","kind_detail":"town","population":12961,"min_zoom":8.0,"id":68528665},"coordinates":[3611,131]},{"type":"Point","properties":{"source":"openstreetmap.org","kind":"locality","name":"Monte Sant'Angelo","kind_detail":"town","population":12657,"min_zoom":8.0,"id":68528932},"coordinates":[1453,2822]},{"type":"Point","properties":{"source":"openstreetmap.org","kind":"locality","name":"Margherita di Savoia","kind_detail":"town","population":11974,"min_zoom":8.0,"id":68529075},"coordinates":[1985,1534]},{"type":"Point","properties":{"source":"openstreetmap.org","kind":"locality","name":"Bitetto","kind_detail":"town","population":11971,"min_zoom":8.0,"id":68528642},"coordinates":[3728,239]},{"type":"Point","properties":{"source":"openstreetmap.org","kind":"locality","name":"Bitritto","kind_detail":"town","population":11278,"min_zoom":8.0,"id":68528735},"coordinates":[3951,251]},{"type":"Point","properties":{"source":"openstreetmap.org","kind":"locality","name":"Mattinata","kind_detail":"town","population":6333,"min_zoom":8.0,"id":68528925},"coordinates":[1698,2840]},{"type":"Point","properties":{"source":"openstreetmap.org","kind":"locality","name":"Castelluccio dei Sauri","kind_detail":"town","population":2097,"min_zoom":8.0,"id":5044815966},"coordinates":[27,1264]}]},"transit":{"type":"GeometryCollection","geometries":[{"type":"MultiLineString","properties":{"kind":"train","name":"Ferrovie del Nord Barese - Bari Barletta","sort_rank":275,"colour":"#B4CF9B","source":"openstreetmap.org","min_zoom":6.0,"operator":"Ferrovie del Nord Barese","osm_relation":true,"colour_name":"silver"},"arcs":[[8],[9],[10],[11],[12],[13],[14],[15],[16]]},{"type":"LineString","properties":{"kind":"train","name":"Lucera \u2192 Foggia","sort_rank":275,"source":"openstreetmap.org","min_zoom":6.0,"operator":"Ferrovie del Gargano","ref":"FdG","id":-2156901,"osm_relation":true},"arcs":[17]},{"type":"MultiLineString","properties":{"source":"openstreetmap.org","kind":"train","network":"RFI","sort_rank":275,"min_zoom":6.0,"osm_relation":true,"name":"Bari Lamasinata - Bari Centrale (indipendente)"},"arcs":[[18],[19],[20],[21],[22],[23],[24]]},{"type":"MultiLineString","properties":{"kind":"train","name":"FR2 (Bari Centrale \u2192 Barletta Centrale)","sort_rank":275,"colour":"blue","source":"openstreetmap.org","min_zoom":6.0,"network":"Bari","operator":"Ferrovie del Nord Barese","ref":"FR2","osm_relation":true,"colour_name":"blue"},"arcs":[[25],[26],[27],[28],[29],[30],[31],[32]]},{"type":"MultiLineString","properties":{"kind":"train","network":"Bari","sort_rank":275,"colour":"#FF0000","name":"FM1 (Cecilia \u2192 Bari Centrale)","source":"openstreetmap.org","min_zoom":6.0,"operator":"Ferrovie del Nord Barese","ref":"FM1","osm_relation":true,"colour_name":"red"},"arcs":[[33],[34],[35],[36],[37]]},{"type":"LineString","properties":{"kind":"train","name":"Ferrovia Bari-Martina Franca-Taranto","sort_rank":275,"source":"openstreetmap.org","min_zoom":6.0,"operator":"FSE","ref":"1","id":-2204418,"osm_relation":true},"arcs":[38]},{"type":"LineString","properties":{"kind":"train","network":"FAL","sort_rank":275,"source":"openstreetmap.org","min_zoom":6.0,"operator":"FAL","ref":"FAL","id":-2155723,"osm_relation":true,"name":"Matera Sud \u2192 Bari Centrale"},"arcs":[39]},{"type":"MultiLineString","properties":{"kind":"train","name":"FR1 (Bari Centrale \u2192 Barletta Centrale)","sort_rank":275,"colour":"blue","source":"openstreetmap.org","min_zoom":6.0,"network":"Bari","operator":"Ferrovie del Nord Barese","ref":"FR1","osm_relation":true,"colour_name":"blue"},"arcs":[[40],[41],[42],[43],[44],[45]]},{"type":"LineString","properties":{"source":"openstreetmap.org","kind":"train","name":"Ferrovia Adriatica - direzione Sud","sort_rank":275,"min_zoom":6.0,"osm_relation":true},"arcs":[46]},{"type":"LineString","properties":{"kind":"train","network":"FAL","sort_rank":275,"source":"openstreetmap.org","min_zoom":6.0,"operator":"FAL","ref":"FAL","id":-2156759,"osm_relation":true,"name":"Gravina \u2192 Bari Centrale"},"arcs":[47]},{"type":"MultiLineString","properties":{"source":"openstreetmap.org","kind":"train","name":"Ferrovia Bari-Taranto","sort_rank":275,"min_zoom":6.0,"osm_relation":true},"arcs":[[48],[49],[50],[51],[52],[53],[54],[55],[56],[57],[58],[59],[60],[61],[62],[63],[64],[65],[66],[67],[68],[69],[70],[71],[72],[73],[74],[75],[76],[77],[78],[79],[80],[81],[82],[83],[84],[85],[86],[87],[88],[89],[90],[91],[92],[93],[94],[95],[96],[97],[98],[99],[100],[101],[102],[103],[104],[105],[106],[107],[108],[109],[110],[111],[112],[113],[114],[115],[116],[117],[118],[119],[120],[121],[122],[123],[124],[125],[126],[127],[128],[129],[130],[131],[132],[133],[134],[135],[136],[137],[138],[139],[140],[141],[142],[143],[144],[145],[146],[147],[148],[149],[150],[151],[152],[153],[154],[155],[156],[157],[158],[159],[160],[161],[162],[163],[164],[165],[166],[167],[168],[169],[170],[171],[172],[173],[174],[175],[176],[177],[178],[179],[180],[181],[182],[183],[184],[185],[186],[187],[188],[189],[190],[191],[192],[193],[194],[195],[196],[197],[198],[199],[200],[201],[202],[203],[204],[205],[206],[207],[208],[209],[210],[211],[212],[213],[214],[215],[216],[217],[218],[219],[220],[221],[222],[223],[224],[225],[226],[227],[228],[229],[230],[231],[232],[233],[234],[235],[236],[237],[238],[239],[240],[241],[242],[243],[244],[245],[246],[247],[248],[249],[250],[251],[252],[253],[254],[255],[256],[257],[258],[259],[260],[261],[262],[263],[264],[265],[266],[267],[268],[269],[270],[271],[272],[273],[274],[275],[276],[277],[278],[279],[280],[281],[282],[283],[284],[285],[286],[287],[288],[289],[290],[291],[292],[293],[294],[295],[296],[297],[298],[299],[300],[301],[302],[303],[304],[305],[306],[307],[308],[309],[310],[311],[312],[313],[314],[315],[316],[317],[318],[319],[320],[321],[322],[323],[324],[325],[326],[327],[328],[329],[330],[331],[332],[333],[334]]},{"type":"LineString","properties":{"kind":"train","name":"Foggia \u2192 Manfredonia","sort_rank":275,"source":"openstreetmap.org","min_zoom":6.0,"operator":"Trenitalia","ref":"Foggia - Manfredonia","id":-2169424,"osm_relation":true},"arcs":[335]},{"type":"MultiLineString","properties":{"kind":"train","name":"Ferrovia Bari-Casamassima-Putignano","sort_rank":275,"source":"openstreetmap.org","min_zoom":6.0,"operator":"FSE","ref":"1 bis","id":-2204417,"osm_relation":true},"arcs":[[336],[337],[338]]},{"type":"MultiLineString","properties":{"source":"openstreetmap.org","kind":"train","name":"ferrovia Foggia - Potenza","sort_rank":275,"min_zoom":6.0,"osm_relation":true},"arcs":[[339],[340],[341]]},{"type":"MultiLineString","properties":{"kind":"train","name":"FM3 - Ferrovia Metropolitana Bari-Bitritto","sort_rank":275,"source":"openstreetmap.org","min_zoom":6.0,"operator":"FT","osm_relation":true,"network":"RFI"},"arcs":[[342],[343],[344],[345]]},{"type":"MultiLineString","properties":{"kind":"train","network":"Bari","sort_rank":275,"colour":"blue","name":"FR1 (Barletta Centrale \u2192 Bari Centrale)","source":"openstreetmap.org","min_zoom":6.0,"operator":"Ferrovie del Nord Barese","ref":"FR1","osm_relation":true,"colour_name":"blue"},"arcs":[[346],[347]]},{"type":"MultiLineString","properties":{"kind":"train","name":"FM1 (Bari Centrale \u2192 Cecilia)","sort_rank":275,"colour":"#FF0000","source":"openstreetmap.org","min_zoom":6.0,"network":"Bari","operator":"Ferrovie del Nord Barese","ref":"FM1","osm_relation":true,"colour_name":"red"},"arcs":[[348],[349],[350],[351],[352]]},{"type":"MultiLineString","properties":{"source":"openstreetmap.org","kind":"train","name":"Ferrovia Barletta-Spinazzola","sort_rank":275,"min_zoom":6.0,"osm_relation":true},"arcs":[[353],[354],[355],[356],[357]]},{"type":"LineString","properties":{"kind":"train","network":"FAL","sort_rank":275,"source":"openstreetmap.org","min_zoom":6.0,"operator":"FAL","ref":"FAL","id":-2155722,"osm_relation":true,"name":"Bari Centrale \u2192 Potenza Inferiore Scalo"},"arcs":[358]},{"type":"LineString","properties":{"kind":"train","name":"Foggia \u2192 Lucera","sort_rank":275,"source":"openstreetmap.org","min_zoom":6.0,"operator":"Ferrovie del Gargano","ref":"FdG","id":-2156900,"osm_relation":true},"arcs":[359]},{"type":"LineString","properties":{"kind":"train","network":"FAL","sort_rank":275,"source":"openstreetmap.org","min_zoom":6.0,"operator":"FAL","ref":"FAL","id":-2155724,"osm_relation":true,"name":"Potenza Inferiore Scalo \u2192 Bari Centrale"},"arcs":[360]},{"type":"LineString","properties":{"kind":"train","network":"FAL","sort_rank":275,"source":"openstreetmap.org","min_zoom":6.0,"operator":"FAL","ref":"FAL","id":-2156758,"osm_relation":true,"name":"Bari Centrale \u2192 Gravina"},"arcs":[361]},{"type":"LineString","properties":{"kind":"train","name":"Manfredonia \u2192 Foggia","sort_rank":275,"source":"openstreetmap.org","min_zoom":6.0,"operator":"Trenitalia","ref":"Foggia - Manfredonia","id":-2169425,"osm_relation":true},"arcs":[362]},{"type":"MultiLineString","properties":{"kind":"train","name":"FR2 (Barletta Centrale \u2192 Bari Centrale)","sort_rank":275,"colour":"blue","source":"openstreetmap.org","min_zoom":6.0,"network":"Bari","operator":"Ferrovie del Nord Barese","ref":"FR2","osm_relation":true,"colour_name":"blue"},"arcs":[[363],[364],[365],[366],[367]]},{"type":"LineString","properties":{"source":"openstreetmap.org","kind":"train","name":"Ferrovia Adriatica - direzione Nord","sort_rank":275,"min_zoom":6.0,"osm_relation":true},"arcs":[368]},{"type":"MultiLineString","properties":{"source":"openstreetmap.org","kind":"train","network":"GTS","sort_rank":275,"min_zoom":6.0,"osm_relation":true,"name":"GTS - Terminal Bari"},"arcs":[[369],[370],[371]]},{"type":"LineString","properties":{"kind":"train","network":"FAL","sort_rank":275,"source":"openstreetmap.org","min_zoom":6.0,"operator":"FAL","ref":"FAL","id":-2155721,"osm_relation":true,"name":"Bari Centrale \u2192 Matera Sud"},"arcs":[372]}]},"pois":{"type":"GeometryCollection","geometries":[{"type":"Point","properties":{"source":"openstreetmap.org","kind":"military","name":"Amendola","area":17886200,"tier":3,"min_zoom":8.0,"id":30706140},"coordinates":[704,2184]}]},"boundaries":{"type":"GeometryCollection","geometries":[{"type":"LineString","properties":{"name:ty":"\u2019It\u0101ria","name:ka":"\u10d8\u10e2\u10d0\u10da\u10d8\u10d0","name:ko":"\uc774\ud0c8\ub9ac\uc544","name:cv":"\u0418\u0442\u0430\u043b\u0438","name:cu":"\u0418\u0442\u0430\u043b\u0457\ua657","name:cs":"It\u00e1lie","name:cr":"\u1403\u1455\u14d6","name:tt":"\u0418\u0442\u0430\u043b\u0438\u044f","name:kw":"Itali","name:kv":"\u0418\u0442\u0430\u043b\u0438\u044f","name:th":"\u0e1b\u0e23\u0e30\u0e40\u0e17\u0e28\u0e2d\u0e34\u0e15\u0e32\u0e25\u0e35","alt_name:cs":"\u0160v\u00fdcarsk\u00e1 konfederace","name:tl":"Italya","name:ce":"\u0418\u0442\u0430\u043b\u0438","name:ta":"\u0b87\u0ba4\u0bcd\u0ba4\u0bbe\u0bb2\u0bbf","name:tg":"\u0418\u0442\u043e\u043b\u0438\u0451","name:ca":"It\u00e0lia","name:te":"\u0c07\u0c1f\u0c32\u0c40","name:cy":"Yr Eidal","name:qu":"Italya","name:da":"Italien","name:de":"Italien","name:dz":"\u0f68\u0f80\u0f4a\u0f0b\u0f63\u0f72\u0f0b","source":"openstreetmap.org","name:kn":"\u0c87\u0c9f\u0cb2\u0cbf","name:dv":"\u0787\u07a8\u0793\u07a6\u078d\u07a9\u0788\u07a8\u078d\u07a7\u078c\u07b0","name:km":"\u17a2\u17ca\u17b8\u178f\u17b6\u179b\u17b8","name:lv":"It\u0101lija","name:lt":"Italija","name:uz":"Italiya","name:kk":"\u0418\u0442\u0430\u043b\u0438\u044f","name:tw":"Italy","name:lb":"Italien","name:lg":"Yitale","name:uk":"\u0406\u0442\u0430\u043b\u0456\u044f","name:ug":"\u0626\u0649\u062a\u0627\u0644\u0649\u064a\u06d5","name:li":"Itali\u00eb","name:ln":"Italya","name:lo":"\u0ead\u0eb4\u0e95\u0eb2\u0ea5\u0eb5","name:el":"\u0399\u03c4\u03b1\u03bb\u03af\u03b1","name:eo":"Italujo","name:en":"Italy","name":"Italia","name:tk":"Itali\u00fda","name:ee":"Italy","name:ku":"\u00cetalya","name:et":"Itaalia","name:ay":"Italiya","name:az":"\u0130taliya","name:as":"\u0987\u099f\u09be\u09b2\u09c0","name:ar":"\u0625\u064a\u0637\u0627\u0644\u064a\u0627","name:ak":"Italy","name:am":"\u1323\u120d\u12eb\u1295","name:ru":"\u0418\u0442\u0430\u043b\u0438\u044f","name:ab":"\u0418\u0442\u0430\u043b\u0438\u0430","name:af":"Itali\u00eb","name:zu":"ITaliya","kind_detail":"2","name:ky":"\u0418\u0442\u0430\u043b\u0438\u044f","name:zh-yue":"\u610f\u5927\u5229","name:zh":"\u610f\u5927\u5229","name:so":"Talyaaniga","name:sl":"Italija","name:sk":"Taliansko","name:ja":"\u30a4\u30bf\u30ea\u30a2","name:sh":"Italija","name:sg":"Ital\u00f9ii","name:se":"It\u00e1lia","name:sc":"It\u00e0lia","name:sa":"\u0907\u091f\u0932\u0940","name:bs":"Italija","name:bn":"\u0987\u09a4\u09be\u09b2\u09bf","name:bo":"\u0f68\u0f72\u0f0b\u0f4f\u0f0b\u0f63\u0f72\u0f0d","name:bi":"Itali","name:be":"\u0406\u0442\u0430\u043b\u0456\u044f","name:bg":"\u0418\u0442\u0430\u043b\u0438\u044f","name:ss":"INtaliyane","name:ba":"\u0418\u0442\u0430\u043b\u0438\u044f","osm_relation":true,"name:pt":"It\u00e1lia","name:ps":"\u0627\u06d0\u067c\u0627\u0644\u064a\u0627","name:oc":"It\u00e0lia","min_zoom":8.0,"name:pa":"\u0a07\u0a1f\u0a32\u0a40","name:os":"\u0418\u0442\u0430\u043b\u0438","name:or":"\u0b07\u0b1f\u0b3e\u0b32\u0b40","name:pl":"W\u0142ochy","sort_rank":262,"name:sr":"\u0418\u0442\u0430\u043b\u0438\u0458\u0430","name:tr":"\u0130talya","name:hi":"\u0907\u091f\u0932\u0940","name:sv":"Italien","name:he":"\u05d0\u05d9\u05d8\u05dc\u05d9\u05d4","name:hy":"\u053b\u057f\u0561\u056c\u056b\u0561","name:ht":"Itali","name:hu":"Olaszorsz\u00e1g","name:hr":"Italija","kind":"country","name:is":"\u00cdtal\u00eda","name:yi":"\u05d0\u05d9\u05d8\u05d0\u05dc\u05d9\u05e2","name:yo":"It\u00e1l\u00ed\u00e0","name:mt":"Italja","alt_name:eo":"Italio","name:ms":"Itali","name:mr":"\u0907\u091f\u0932\u0940","name:my":"\u1021\u102e\u1010\u101c\u102e\u1014\u102d\u102f\u1004\u103a\u1004\u1036","official_name":"Repubblica Italiana","name:ve":"Italy","name:vi":"\u00dd","name:ml":"\u0d07\u0d31\u0d4d\u0d31\u0d32\u0d3f","name:mn":"\u0418\u0442\u0430\u043b\u0438","name:mi":"It\u0101ria","id":-365331,"name:mk":"\u0418\u0442\u0430\u043b\u0438\u0458\u0430","name:vo":"Litaliy\u00e4n","name:fa":"\u0627\u06cc\u062a\u0627\u0644\u06cc\u0627","name:rw":"Ubutaliyani","name:ff":"Italiya","old_name:vi":"\u00dd \u0110\u1ea1i L\u1ee3i","alt_name:vi":"I-ta-li-a","name:fr":"Italie","name:fy":"Itaalje","name:nl":"Itali\u00eb","name:na":"Itari","name:ne":"\u0907\u091f\u093e\u0932\u0940","name:wa":"It\u00e5leye","name:ur":"\u0627\u0637\u0627\u0644\u06cc\u06c1","name:wo":"Itaali","name:nv":"\u00cddelii","name:ga":"An Iod\u00e1il","name:gd":"An Eadailt","name:gn":"It\u00e1lia","maritime_boundary":true,"name:gv":"Yn Iddaal","name:gu":"\u0a88\u0a9f\u0ab2\u0ac0"},"arcs":[0]},{"type":"LineString","properties":{"name:right:fr":"Basilicate","name:left:pl":"Kampania","id:left":-40218,"short_name:left":"CAM","id:right":-40137,"name:left:sl":"Kampanija","min_zoom":8.0,"name:right:sl":"Bazilikata","name:left:sk":"Kamp\u00e1nia","name:left:ru":"\u041a\u0430\u043c\u043f\u0430\u043d\u0438\u044f","short_name:right":"BAS","name:right:ru":"\u0411\u0430\u0437\u0438\u043b\u0438\u043a\u0430\u0442\u0430","name:right:eo":"Basilikato","id":-40218,"osm_relation":true,"name:right":"Basilicata","kind":"region","name":"Campania - Basilicata","sort_rank":256,"kind_detail":"4","name:left:ca":"Camp\u00e0nia","name:left:de":"Kampanien","source":"openstreetmap.org","name:left:fr":"Campanie","name:right:de":"Basilikata","name:left:cs":"Kamp\u00e1nie","name:left":"Campania"},"arcs":[1]},{"type":"LineString","properties":{"name:right:fr":"Pouilles","name:right:la":"Apulia","id:right":-40095,"name:left:sl":"Kampanija","min_zoom":8.0,"name:right:sl":"Apulija","name:left:sk":"Kamp\u00e1nia","id":-40218,"name:right":"Puglia","short_name:left":"CAM","name:right:ca":"Pulla","name:right:eo":"Apulio","name:left:ca":"Camp\u00e0nia","source":"openstreetmap.org","id:left":-40218,"name:right:cs":"Apulie","name:right:fi":"Apulia","name:left:cs":"Kamp\u00e1nie","name:left":"Campania","name:right:es":"Apulia","name:right:pt":"Ap\u00falia","name:left:pl":"Kampania","name:right:ru":"\u0410\u043f\u0443\u043b\u0438\u044f","name:left:de":"Kampanien","name:left:ru":"\u041a\u0430\u043c\u043f\u0430\u043d\u0438\u044f","short_name:right":"PUG","name:right:pl":"Apulia","name:right:en":"Apulia","osm_relation":true,"kind":"region","name":"Campania - Puglia","name:right:de":"Apulien","name:right:sk":"Ap\u00falia","sort_rank":256,"name:left:fr":"Campanie","kind_detail":"4"},"arcs":[2]},{"type":"LineString","properties":{"name:right:fr":"Pouilles","name:right:la":"Apulia","id:right":-40095,"name:left:sl":"Bazilikata","name:right:sk":"Ap\u00falia","name:right:sl":"Apulija","name:right:eo":"Apulio","id":-40137,"name:right":"Puglia","short_name:left":"BAS","name:left:eo":"Basilikato","name:right:ca":"Pulla","kind_detail":"4","source":"openstreetmap.org","id:left":-40137,"name:right:cs":"Apulie","name:right:fi":"Apulia","name:left":"Basilicata","name:right:es":"Apulia","name:right:pt":"Ap\u00falia","name:right:ru":"\u0410\u043f\u0443\u043b\u0438\u044f","name:left:ru":"\u0411\u0430\u0437\u0438\u043b\u0438\u043a\u0430\u0442\u0430","short_name:right":"PUG","min_zoom":8.0,"name:right:pl":"Apulia","name:right:en":"Apulia","osm_relation":true,"kind":"region","name":"Basilicata - Puglia","name:right:de":"Apulien","name:left:de":"Basilikata","sort_rank":256,"name:left:fr":"Basilicate"},"arcs":[3]},{"type":"MultiLineString","properties":{"name:pt":"Ap\u00falia","name:sl":"Apulija","name:sk":"Ap\u00falia","short_name":"PUG","name:cs":"Apulie","name:eo":"Apulio","min_zoom":8.0,"name:la":"Apulia","name:ru":"\u0410\u043f\u0443\u043b\u0438\u044f","name:pl":"Apulia","id":-40095,"name:ca":"Pulla","kind":"region","name:en":"Apulia","name":"Puglia","sort_rank":256,"kind_detail":"4","name:fr":"Pouilles","name:de":"Apulien","source":"openstreetmap.org","maritime_boundary":true,"osm_relation":true,"name:fi":"Apulia","name:es":"Apulia"},"arcs":[[4],[5],[6],[7]]}]},"roads":{"type":"GeometryCollection","geometries":[{"type":"MultiLineString","properties":{"kind":"major_road","network":null,"sort_rank":380,"kind_detail":"primary","source":"openstreetmap.org","min_zoom":8.0,"shield_text":"95\/bis","ref":"SP95\/bis"},"arcs":[[375],[376],[377]]},{"type":"MultiLineString","properties":{"kind":"major_road","network":null,"sort_rank":380,"kind_detail":"primary","source":"openstreetmap.org","min_zoom":8.0,"shield_text":"93","ref":"SS93"},"arcs":[[378],[379],[380]]},{"type":"MultiLineString","properties":{"bus_network":null,"network":null,"sort_rank":380,"kind_detail":"primary","kind":"major_road","source":"openstreetmap.org","min_zoom":8.0,"bus_shield_text":"A","shield_text":"93","landuse_kind":"urban_area","ref":"SS93"},"arcs":[[381],[382]]},{"type":"MultiLineString","properties":{"kind":"major_road","network":null,"sort_rank":381,"kind_detail":"trunk","source":"openstreetmap.org","min_zoom":8.0,"shield_text":"16","ref":"SS16bis"},"arcs":[[383],[384],[385],[386]]},{"type":"LineString","properties":{"kind":"major_road","network":null,"sort_rank":380,"kind_detail":"primary","bus_network":"ATAF","source":"openstreetmap.org","min_zoom":8.0,"bus_shield_text":"34","shield_text":"89","landuse_kind":"urban_area","ref":"SS89"},"arcs":[387]},{"type":"LineString","properties":{"source":"openstreetmap.org","kind":"major_road","sort_rank":380,"kind_detail":"primary","ref":"SS96","min_zoom":8.0},"arcs":[388]},{"type":"LineString","properties":{"kind":"major_road","sort_rank":381,"landuse_kind":"urban_area","source":"openstreetmap.org","min_zoom":8.0,"kind_detail":"trunk","ref":"SS89","id":107096625},"arcs":[389]},{"type":"MultiLineString","properties":{"kind":"major_road","network":null,"sort_rank":380,"kind_detail":"primary","source":"openstreetmap.org","min_zoom":8.0,"landuse_kind":"urban_area","shield_text":"16","ref":"SS16"},"arcs":[[390],[391],[392],[393],[394],[395],[396],[397],[398]]},{"type":"LineString","properties":{"kind":"major_road","network":null,"sort_rank":381,"kind_detail":"trunk","source":"openstreetmap.org","min_zoom":8.0,"shield_text":"1","ref":"SR1"},"arcs":[399]},{"type":"MultiLineString","properties":{"kind":"highway","network":"e-road","sort_rank":383,"kind_detail":"motorway","source":"openstreetmap.org","min_zoom":8.0,"all_networks":["e-road","IT:A-road"],"shield_text":"842","ref":"A16","all_shield_texts":["842","16"]},"arcs":[[400],[401],[402],[403]]},{"type":"MultiLineString","properties":{"kind":"major_road","network":null,"sort_rank":381,"kind_detail":"trunk","bus_network":"ATAF","source":"openstreetmap.org","min_zoom":8.0,"bus_shield_text":"20","shield_text":"16","landuse_kind":"urban_area","ref":"SS16"},"arcs":[[404],[405],[406]]},{"type":"MultiLineString","properties":{"bus_network":"Bari - Barletta","sort_rank":380,"kind_detail":"primary","kind":"major_road","source":"openstreetmap.org","min_zoom":8.0,"bus_shield_text":null,"landuse_kind":"urban_area","ref":"SS96"},"arcs":[[407],[408]]},{"type":"LineString","properties":{"kind":"major_road","network":null,"sort_rank":381,"landuse_kind":"urban_area","source":"openstreetmap.org","min_zoom":8.0,"kind_detail":"trunk","shield_text":"89","ref":"SS89"},"arcs":[409]},{"type":"LineString","properties":{"kind":"major_road","network":null,"sort_rank":380,"kind_detail":"primary","source":"openstreetmap.org","min_zoom":8.0,"shield_text":"688","ref":"SS688"},"arcs":[410]},{"type":"MultiLineString","properties":{"source":"openstreetmap.org","kind":"major_road","kind_detail":"trunk","sort_rank":381,"landuse_kind":"urban_area","ref":"SS170 dir. A","min_zoom":8.0},"arcs":[[411],[412],[413]]},{"type":"MultiLineString","properties":{"kind":"highway","network":"e-road","sort_rank":383,"landuse_kind":"urban_area","source":"openstreetmap.org","min_zoom":8.0,"all_networks":["e-road",null],"kind_detail":"motorway","shield_text":"55","ref":"A14","all_shield_texts":["55","14"]},"arcs":[[414],[415],[416],[417],[418],[419],[420],[421],[422],[423],[424],[425],[426],[427],[428],[429],[430],[431],[432],[433],[434],[435],[436]]},{"type":"LineString","properties":{"source":"openstreetmap.org","kind":"ferry","name":"Bari-Igoumenitsa","sort_rank":355,"min_zoom":8.0,"id":525232510},"arcs":[437]},{"type":"LineString","properties":{"kind":"major_road","network":null,"sort_rank":380,"kind_detail":"primary","source":"openstreetmap.org","min_zoom":8.0,"shield_text":"161","ref":"SP110"},"arcs":[438]},{"type":"LineString","properties":{"source":"openstreetmap.org","kind":"major_road","landuse_kind":"urban_area","sort_rank":380,"kind_detail":"primary","ref":"SS152","min_zoom":8.0},"arcs":[439]},{"type":"LineString","properties":{"source":"openstreetmap.org","kind":"ferry","name":"Ancona-Korfu","sort_rank":355,"min_zoom":8.0,"osm_relation":true},"arcs":[440]},{"type":"MultiLineString","properties":{"sort_rank":380,"kind_detail":"primary","min_zoom":8.0,"kind":"major_road","source":"openstreetmap.org"},"arcs":[[441],[442],[443],[444],[445]]},{"type":"MultiLineString","properties":{"kind":"major_road","network":null,"sort_rank":380,"kind_detail":"primary","bus_network":"ATAF","source":"openstreetmap.org","min_zoom":8.0,"bus_shield_text":"LS1","shield_text":"16","ref":"SS16"},"arcs":[[446],[447]]},{"type":"LineString","properties":{"source":"openstreetmap.org","kind":"ferry","name":"Bari - Korfu","sort_rank":355,"min_zoom":8.0,"id":361701196},"arcs":[448]},{"type":"MultiLineString","properties":{"source":"openstreetmap.org","kind":"major_road","kind_detail":"trunk","sort_rank":381,"landuse_kind":"urban_area","ref":"SS16 bis","min_zoom":8.0},"arcs":[[449],[450]]},{"type":"MultiLineString","properties":{"kind":"major_road","network":"e-road","sort_rank":381,"landuse_kind":"urban_area","source":"openstreetmap.org","min_zoom":8.0,"kind_detail":"trunk","shield_text":"55","ref":"SS16"},"arcs":[[451],[452],[453]]},{"type":"LineString","properties":{"kind":"ferry","name":"Bari - Dubrovnik","sort_rank":355,"landuse_kind":"urban_area","is_bicycle_related":true,"source":"openstreetmap.org","min_zoom":8.0,"id":178622828},"arcs":[454]},{"type":"MultiLineString","properties":{"bus_network":null,"network":null,"sort_rank":381,"kind_detail":"trunk","kind":"major_road","source":"openstreetmap.org","min_zoom":8.0,"bus_shield_text":"1","shield_text":"16","landuse_kind":"urban_area","ref":"SS16bis"},"arcs":[[455],[456]]},{"type":"LineString","properties":{"kind":"major_road","sort_rank":380,"kind_detail":"primary","bus_network":"ATAF","source":"openstreetmap.org","min_zoom":8.0,"bus_shield_text":"33","ref":"SS90"},"arcs":[457]},{"type":"LineString","properties":{"source":"openstreetmap.org","kind":"ferry","name":"Bari - Kotor","sort_rank":355,"landuse_kind":"urban_area","min_zoom":8.0,"id":36819765},"arcs":[458]},{"type":"LineString","properties":{"kind":"major_road","sort_rank":380,"landuse_kind":"park","source":"openstreetmap.org","min_zoom":8.0,"kind_detail":"primary","ref":"SP144","id":26390544},"arcs":[459]},{"type":"LineString","properties":{"kind":"major_road","network":null,"sort_rank":381,"kind_detail":"trunk","source":"openstreetmap.org","min_zoom":8.0,"landuse_kind":"military","shield_text":"89","ref":"SS89","id":107096639},"arcs":[460]},{"type":"LineString","properties":{"source":"openstreetmap.org","kind":"ferry","name":"Bari - Bar","sort_rank":355,"min_zoom":8.0,"id":146383135},"arcs":[461]},{"type":"MultiLineString","properties":{"kind":"major_road","network":null,"sort_rank":381,"kind_detail":"trunk","bus_network":"ATAF","source":"openstreetmap.org","min_zoom":8.0,"bus_shield_text":"20","shield_text":"16","landuse_kind":"park","ref":"SS16"},"arcs":[[462],[463]]},{"type":"MultiLineString","properties":{"kind":"major_road","network":null,"sort_rank":380,"kind_detail":"primary","source":"openstreetmap.org","min_zoom":8.0,"landuse_kind":"urban_area","shield_text":"230","ref":"SP230"},"arcs":[[464],[465],[466],[467],[468]]},{"type":"MultiLineString","properties":{"source":"openstreetmap.org","kind":"major_road","kind_detail":"trunk","sort_rank":381,"landuse_kind":"urban_area","ref":"SR6","min_zoom":8.0},"arcs":[[469],[470],[471],[472],[473],[474]]},{"type":"LineString","properties":{"source":"openstreetmap.org","kind":"major_road","sort_rank":380,"kind_detail":"primary","ref":"SP138","min_zoom":8.0},"arcs":[475]},{"type":"LineString","properties":{"sort_rank":355,"source":"openstreetmap.org","min_zoom":8.0,"name":"Ancona-Patras","kind":"ferry"},"arcs":[476]},{"type":"MultiLineString","properties":{"kind":"major_road","network":null,"sort_rank":381,"landuse_kind":"urban_area","source":"openstreetmap.org","min_zoom":8.0,"kind_detail":"trunk","shield_text":"16"},"arcs":[[477],[478]]},{"type":"LineString","properties":{"source":"openstreetmap.org","kind":"ferry","name":"Rodi Garganico-San Domino","sort_rank":355,"min_zoom":8.0,"id":174506012},"arcs":[479]},{"type":"LineString","properties":{"kind":"major_road","sort_rank":380,"landuse_kind":"park","source":"openstreetmap.org","min_zoom":8.0,"kind_detail":"primary","ref":"SP53","id":131943418},"arcs":[480]},{"type":"LineString","properties":{"kind":"major_road","network":null,"sort_rank":380,"kind_detail":"primary","source":"openstreetmap.org","min_zoom":8.0,"shield_text":"159","id":205489633},"arcs":[481]},{"type":"MultiLineString","properties":{"source":"openstreetmap.org","kind":"ferry","name":"Ancona-Igoumenitsa-Patras","sort_rank":355,"min_zoom":8.0,"osm_relation":true},"arcs":[[482],[483]]},{"type":"MultiLineString","properties":{"kind":"major_road","network":null,"sort_rank":381,"kind_detail":"trunk","source":"openstreetmap.org","min_zoom":8.0,"shield_text":"6","ref":"SR6"},"arcs":[[484],[485]]},{"type":"LineString","properties":{"source":"openstreetmap.org","kind":"ferry","name":"Barletta, IT - Durazzo, AL","sort_rank":355,"landuse_kind":"urban_area","min_zoom":8.0,"id":410032285},"arcs":[486]},{"type":"MultiLineString","properties":{"kind":"major_road","network":null,"sort_rank":380,"kind_detail":"primary","bus_network":"ATAF","source":"openstreetmap.org","min_zoom":8.0,"bus_shield_text":"33","shield_text":"16","ref":"SS673"},"arcs":[[487],[488],[489],[490]]},{"type":"LineString","properties":{"kind":"major_road","network":null,"sort_rank":380,"kind_detail":"primary","source":"openstreetmap.org","min_zoom":8.0,"landuse_kind":"urban_area","shield_text":"658","ref":"SS658"},"arcs":[491]},{"type":"LineString","properties":{"source":"openstreetmap.org","kind":"ferry","name":"Bari - Zante","sort_rank":355,"is_bicycle_related":true,"min_zoom":8.0,"id":362077182},"arcs":[492]},{"type":"MultiLineString","properties":{"source":"openstreetmap.org","kind":"major_road","sort_rank":381,"kind_detail":"trunk","ref":"SS655","min_zoom":8.0},"arcs":[[493],[494],[495],[496],[497],[498]]},{"type":"LineString","properties":{"source":"openstreetmap.org","kind":"major_road","sort_rank":380,"kind_detail":"primary","ref":"SP144","min_zoom":8.0,"id":26390544},"arcs":[499]},{"type":"LineString","properties":{"source":"openstreetmap.org","kind":"ferry","name":"Bari-Patras","sort_rank":355,"landuse_kind":"urban_area","min_zoom":8.0,"id":352598245},"arcs":[500]},{"type":"MultiLineString","properties":{"kind":"major_road","network":null,"sort_rank":380,"kind_detail":"primary","source":"openstreetmap.org","min_zoom":8.0,"landuse_kind":"urban_area","shield_text":"89","ref":"SS89"},"arcs":[[501],[502]]},{"type":"LineString","properties":{"sort_rank":355,"source":"openstreetmap.org","min_zoom":8.0,"name":"Ancona-Igoumenitsa","kind":"ferry"},"arcs":[503]},{"type":"MultiLineString","properties":{"kind":"major_road","network":null,"sort_rank":380,"kind_detail":"primary","source":"openstreetmap.org","min_zoom":8.0,"shield_text":"89","ref":"SS89"},"arcs":[[504],[505],[506],[507],[508],[509],[510],[511],[512]]},{"type":"LineString","properties":{"bus_network":null,"sort_rank":380,"kind_detail":"primary","kind":"major_road","source":"openstreetmap.org","min_zoom":8.0,"bus_shield_text":"ZI","landuse_kind":"urban_area","ref":"SS170"},"arcs":[513]},{"type":"MultiLineString","properties":{"kind":"major_road","network":null,"sort_rank":380,"kind_detail":"primary","source":"openstreetmap.org","min_zoom":8.0,"landuse_kind":"park","shield_text":"89","ref":"SS89"},"arcs":[[514],[515],[516],[517]]},{"type":"LineString","properties":{"kind":"highway","network":"e-road","sort_rank":383,"landuse_kind":"urban_area","source":"openstreetmap.org","min_zoom":8.0,"all_networks":["e-road","IT:A-road"],"kind_detail":"motorway","shield_text":"842","ref":"A16","all_shield_texts":["842","16"]},"arcs":[518]},{"type":"MultiLineString","properties":{"source":"openstreetmap.org","kind":"major_road","landuse_kind":"urban_area","sort_rank":380,"kind_detail":"primary","ref":"SS96","min_zoom":8.0},"arcs":[[519],[520],[521],[522]]},{"type":"MultiLineString","properties":{"source":"openstreetmap.org","kind":"major_road","landuse_kind":"park","sort_rank":380,"kind_detail":"primary","min_zoom":8.0},"arcs":[[523],[524],[525],[526],[527]]},{"type":"MultiLineString","properties":{"source":"openstreetmap.org","kind":"major_road","sort_rank":381,"kind_detail":"trunk","ref":"SS89","min_zoom":8.0},"arcs":[[528],[529]]},{"type":"MultiLineString","properties":{"kind":"major_road","network":null,"sort_rank":380,"kind_detail":"primary","source":"openstreetmap.org","min_zoom":8.0,"landuse_kind":"urban_area","shield_text":"93","ref":"SS93"},"arcs":[[530],[531],[532],[533],[534]]},{"type":"LineString","properties":{"kind":"major_road","sort_rank":380,"landuse_kind":"urban_area","source":"openstreetmap.org","min_zoom":8.0,"kind_detail":"primary","ref":"SS89","id":172386628},"arcs":[535]},{"type":"MultiLineString","properties":{"source":"openstreetmap.org","kind":"major_road","sort_rank":380,"kind_detail":"primary","ref":"SS655","min_zoom":8.0},"arcs":[[536],[537],[538],[539]]},{"type":"MultiLineString","properties":{"kind":"major_road","network":null,"sort_rank":380,"kind_detail":"primary","source":"openstreetmap.org","min_zoom":8.0,"shield_text":"16","ref":"SS673"},"arcs":[[540],[541],[542]]},{"type":"MultiLineString","properties":{"kind":"major_road","network":null,"sort_rank":380,"kind_detail":"primary","source":"openstreetmap.org","min_zoom":8.0,"shield_text":"231","ref":"SP231"},"arcs":[[543],[544],[545],[546],[547],[548]]},{"type":"MultiLineString","properties":{"kind":"major_road","network":null,"sort_rank":380,"kind_detail":"primary","source":"openstreetmap.org","min_zoom":8.0,"shield_text":"53","ref":"SP53"},"arcs":[[549],[550]]},{"type":"MultiLineString","properties":{"bus_network":null,"sort_rank":381,"landuse_kind":"urban_area","kind":"major_road","source":"openstreetmap.org","min_zoom":8.0,"bus_shield_text":"1","kind_detail":"trunk","ref":"SS16"},"arcs":[[551],[552]]},{"type":"LineString","properties":{"kind":"major_road","network":null,"sort_rank":380,"kind_detail":"primary","source":"openstreetmap.org","min_zoom":8.0,"landuse_kind":"urban_area","shield_text":"95\/bis","ref":"SP95\/bis","id":23179754},"arcs":[553]},{"type":"LineString","properties":{"source":"openstreetmap.org","kind":"major_road","landuse_kind":"urban_area","sort_rank":380,"kind_detail":"primary","ref":"SS17","min_zoom":8.0},"arcs":[554]},{"type":"LineString","properties":{"kind":"major_road","sort_rank":380,"landuse_kind":"urban_area","source":"openstreetmap.org","min_zoom":8.0,"kind_detail":"primary","ref":"SS673","id":26373539},"arcs":[555]},{"type":"MultiLineString","properties":{"kind":"major_road","network":null,"sort_rank":381,"kind_detail":"trunk","source":"openstreetmap.org","min_zoom":8.0,"shield_text":"16","ref":"SS16"},"arcs":[[556],[557],[558],[559]]},{"type":"MultiLineString","properties":{"kind":"major_road","network":null,"sort_rank":380,"kind_detail":"primary","bus_network":"ATAF","source":"openstreetmap.org","min_zoom":8.0,"bus_shield_text":"LS1","shield_text":"16","ref":"SS673"},"arcs":[[560],[561]]},{"type":"MultiLineString","properties":{"kind":"major_road","network":null,"sort_rank":380,"kind_detail":"primary","source":"openstreetmap.org","min_zoom":8.0,"landuse_kind":"park","shield_text":"52","ref":"SP52"},"arcs":[[562],[563]]},{"type":"LineString","properties":{"source":"openstreetmap.org","kind":"ferry","name":"Bari - Kotor","sort_rank":355,"min_zoom":8.0,"id":36819765},"arcs":[564]},{"type":"MultiLineString","properties":{"kind":"major_road","network":null,"sort_rank":381,"kind_detail":"trunk","source":"openstreetmap.org","min_zoom":8.0,"shield_text":"231","ref":"SP231"},"arcs":[[565],[566]]},{"type":"MultiLineString","properties":{"kind":"major_road","network":null,"sort_rank":381,"kind_detail":"trunk","source":"openstreetmap.org","min_zoom":8.0,"landuse_kind":"park","shield_text":"688","ref":"SS688"},"arcs":[[567],[568]]},{"type":"LineString","properties":{"source":"openstreetmap.org","kind":"ferry","name":"Bari-Korfu","sort_rank":355,"min_zoom":8.0,"osm_relation":true,"id":-5384333},"arcs":[569]},{"type":"LineString","properties":{"bus_network":null,"network":null,"sort_rank":380,"kind_detail":"primary","kind":"major_road","source":"openstreetmap.org","min_zoom":8.0,"bus_shield_text":"3","shield_text":"231","landuse_kind":"urban_area","ref":"SP231"},"arcs":[570]},{"type":"LineString","properties":{"source":"openstreetmap.org","kind":"ferry","name":"Bari - Bar","sort_rank":355,"landuse_kind":"urban_area","min_zoom":8.0,"id":146383135},"arcs":[571]},{"type":"LineString","properties":{"kind":"major_road","network":null,"sort_rank":381,"kind_detail":"trunk","source":"openstreetmap.org","min_zoom":8.0,"shield_text":"688","ref":"SS688"},"arcs":[572]},{"type":"MultiLineString","properties":{"kind":"highway","network":"e-road","sort_rank":383,"landuse_kind":"urban_area","source":"openstreetmap.org","min_zoom":8.0,"all_networks":["e-road",null],"kind_detail":"motorway","shield_text":"843","ref":"A14","all_shield_texts":["843","14"]},"arcs":[[573],[574]]},{"type":"MultiLineString","properties":{"source":"openstreetmap.org","kind":"major_road","landuse_kind":"urban_area","sort_rank":380,"kind_detail":"primary","ref":"SS655","min_zoom":8.0},"arcs":[[575],[576]]},{"type":"LineString","properties":{"source":"openstreetmap.org","kind":"major_road","sort_rank":380,"kind_detail":"primary","ref":"SP110","min_zoom":8.0,"id":443061675},"arcs":[577]},{"type":"LineString","properties":{"kind":"major_road","network":null,"sort_rank":380,"kind_detail":"primary","source":"openstreetmap.org","min_zoom":8.0,"shield_text":"142","ref":"SP142","id":23032903},"arcs":[578]},{"type":"LineString","properties":{"kind":"major_road","network":null,"sort_rank":380,"kind_detail":"primary","bus_network":"ATAF","source":"openstreetmap.org","min_zoom":8.0,"bus_shield_text":"28","shield_text":"16","ref":"SS16"},"arcs":[579]},{"type":"MultiLineString","properties":{"source":"openstreetmap.org","kind":"major_road","kind_detail":"trunk","sort_rank":381,"landuse_kind":"urban_area","ref":"SS655","min_zoom":8.0},"arcs":[[580],[581]]},{"type":"LineString","properties":{"kind":"ferry","name":"Bari - Durr\u00ebs","sort_rank":355,"landuse_kind":"urban_area","source":"openstreetmap.org","min_zoom":8.0,"name:it":"Bari - Durazzo","id":69744874},"arcs":[582]},{"type":"MultiLineString","properties":{"sort_rank":381,"source":"openstreetmap.org","min_zoom":8.0,"kind":"major_road","kind_detail":"trunk"},"arcs":[[583],[584],[585]]},{"type":"MultiLineString","properties":{"kind":"major_road","network":null,"sort_rank":381,"landuse_kind":"urban_area","source":"openstreetmap.org","min_zoom":8.0,"kind_detail":"trunk","shield_text":"673","ref":"SS673"},"arcs":[[586],[587],[588]]},{"type":"LineString","properties":{"source":"openstreetmap.org","kind":"ferry","name":"Barletta, IT - Durazzo, AL","sort_rank":355,"min_zoom":8.0,"id":410032285},"arcs":[589]},{"type":"LineString","properties":{"kind":"ferry","name":"Bari-Igoumenitsa-Patras","sort_rank":355,"landuse_kind":"urban_area","source":"openstreetmap.org","min_zoom":8.0,"id":-5261006,"osm_relation":true},"arcs":[590]},{"type":"MultiLineString","properties":{"kind":"highway","network":"e-road","sort_rank":383,"landuse_kind":"urban_area","source":"openstreetmap.org","min_zoom":8.0,"all_networks":["e-road"],"kind_detail":"motorway","shield_text":"55","ref":"A14","all_shield_texts":["55"]},"arcs":[[591],[592],[593],[594],[595]]},{"type":"MultiLineString","properties":{"source":"openstreetmap.org","kind":"major_road","landuse_kind":"urban_area","sort_rank":380,"kind_detail":"primary","ref":"SP110","min_zoom":8.0},"arcs":[[596],[597]]},{"type":"LineString","properties":{"sort_rank":355,"source":"openstreetmap.org","min_zoom":8.0,"name":"Ancona-Korfu","kind":"ferry"},"arcs":[598]},{"type":"LineString","properties":{"kind":"major_road","network":"e-road","sort_rank":381,"kind_detail":"trunk","source":"openstreetmap.org","min_zoom":8.0,"landuse_kind":"urban_area","shield_text":"55","ref":"A14","id":30691723},"arcs":[599]},{"type":"MultiLineString","properties":{"kind":"major_road","network":null,"sort_rank":380,"kind_detail":"primary","source":"openstreetmap.org","min_zoom":8.0,"landuse_kind":"urban_area","shield_text":"231","ref":"SP231"},"arcs":[[600],[601],[602],[603],[604]]},{"type":"LineString","properties":{"source":"openstreetmap.org","kind":"major_road","sort_rank":380,"kind_detail":"primary","ref":"SP231","min_zoom":8.0,"id":23603069},"arcs":[605]},{"type":"MultiLineString","properties":{"source":"openstreetmap.org","kind":"ferry","name":"Bari-Igoumenitsa-Patras","sort_rank":355,"min_zoom":8.0,"osm_relation":true,"id":-5261006},"arcs":[[606],[607]]},{"type":"LineString","properties":{"kind":"major_road","sort_rank":381,"landuse_kind":"urban_area","source":"openstreetmap.org","min_zoom":8.0,"kind_detail":"trunk","ref":"SS16bis","id":27535546},"arcs":[608]},{"type":"MultiLineString","properties":{"kind":"major_road","network":null,"sort_rank":381,"kind_detail":"trunk","source":"openstreetmap.org","min_zoom":8.0,"shield_text":"17","ref":"SS17"},"arcs":[[609],[610]]},{"type":"MultiLineString","properties":{"kind":"major_road","network":null,"sort_rank":380,"kind_detail":"primary","source":"openstreetmap.org","min_zoom":8.0,"landuse_kind":"park","shield_text":"53","ref":"SP53"},"arcs":[[611],[612],[613]]},{"type":"LineString","properties":{"source":"openstreetmap.org","kind":"ferry","name":"Bari-Patras","sort_rank":355,"min_zoom":8.0,"id":352598245},"arcs":[614]},{"type":"MultiLineString","properties":{"source":"openstreetmap.org","kind":"major_road","kind_detail":"trunk","sort_rank":381,"landuse_kind":"urban_area","min_zoom":8.0},"arcs":[[615],[616],[617],[618],[619],[620],[621],[622]]},{"type":"MultiLineString","properties":{"kind":"major_road","network":null,"sort_rank":381,"kind_detail":"trunk","bus_network":"ATAF","source":"openstreetmap.org","min_zoom":8.0,"bus_shield_text":"20","shield_text":"16","ref":"SS16"},"arcs":[[623],[624],[625],[626]]},{"type":"LineString","properties":{"kind":"major_road","network":null,"sort_rank":380,"kind_detail":"primary","source":"openstreetmap.org","min_zoom":8.0,"shield_text":"401dir","ref":"SS401dir"},"arcs":[627]},{"type":"MultiLineString","properties":{"bus_network":null,"sort_rank":380,"kind_detail":"primary","kind":"major_road","source":"openstreetmap.org","min_zoom":8.0,"bus_shield_text":"ZI","landuse_kind":"urban_area"},"arcs":[[628],[629]]},{"type":"MultiLineString","properties":{"bus_network":null,"sort_rank":381,"landuse_kind":"urban_area","kind":"major_road","source":"openstreetmap.org","min_zoom":8.0,"bus_shield_text":"1","kind_detail":"trunk"},"arcs":[[630],[631]]},{"type":"MultiLineString","properties":{"kind":"major_road","network":null,"sort_rank":381,"landuse_kind":"urban_area","source":"openstreetmap.org","min_zoom":8.0,"kind_detail":"trunk","shield_text":"16","ref":"SS16"},"arcs":[[632],[633],[634],[635]]},{"type":"MultiLineString","properties":{"source":"openstreetmap.org","kind":"major_road","landuse_kind":"urban_area","sort_rank":380,"kind_detail":"primary","ref":"SP236","min_zoom":8.0},"arcs":[[636],[637],[638],[639],[640],[641],[642],[643],[644],[645],[646],[647],[648]]},{"type":"LineString","properties":{"kind":"major_road","network":null,"sort_rank":380,"kind_detail":"primary","source":"openstreetmap.org","min_zoom":8.0,"landuse_kind":"urban_area","shield_text":"53","ref":"SP53","id":132570954},"arcs":[649]},{"type":"LineString","properties":{"source":"openstreetmap.org","kind":"ferry","name":"Bari - Cephalonia","sort_rank":355,"landuse_kind":"urban_area","min_zoom":8.0,"id":362077181},"arcs":[650]},{"type":"MultiLineString","properties":{"kind":"highway","network":"e-road","sort_rank":383,"kind_detail":"motorway","source":"openstreetmap.org","min_zoom":8.0,"all_networks":["e-road",null],"shield_text":"843","ref":"A14","all_shield_texts":["843","14"]},"arcs":[[651],[652]]},{"type":"LineString","properties":{"kind":"ferry","name":"Bari - Zante","sort_rank":355,"landuse_kind":"urban_area","is_bicycle_related":true,"source":"openstreetmap.org","min_zoom":8.0,"id":362077182},"arcs":[653]},{"type":"MultiLineString","properties":{"kind":"major_road","network":null,"sort_rank":381,"kind_detail":"trunk","source":"openstreetmap.org","min_zoom":8.0,"landuse_kind":"residential","shield_text":"16","ref":"SS16bis"},"arcs":[[654],[655]]},{"type":"LineString","properties":{"source":"openstreetmap.org","kind":"ferry","name":"Bari - Korfu","sort_rank":355,"landuse_kind":"urban_area","min_zoom":8.0,"id":361701196},"arcs":[656]},{"type":"LineString","properties":{"source":"openstreetmap.org","kind":"ferry","name":"Bari-Igoumenitsa","sort_rank":355,"landuse_kind":"urban_area","min_zoom":8.0,"id":525232510},"arcs":[657]},{"type":"MultiLineString","properties":{"source":"openstreetmap.org","kind":"major_road","sort_rank":380,"kind_detail":"primary","ref":"SP236","min_zoom":8.0},"arcs":[[658],[659],[660],[661]]},{"type":"LineString","properties":{"kind":"major_road","network":null,"sort_rank":380,"kind_detail":"primary","bus_network":"ATAF","source":"openstreetmap.org","min_zoom":8.0,"bus_shield_text":"LS1","shield_text":"16","landuse_kind":"urban_area","ref":"SS673"},"arcs":[662]},{"type":"MultiLineString","properties":{"kind":"highway","network":"e-road","sort_rank":383,"kind_detail":"motorway","source":"openstreetmap.org","min_zoom":8.0,"all_networks":["e-road",null],"shield_text":"55","ref":"A14","all_shield_texts":["55","14"]},"arcs":[[663],[664],[665],[666],[667],[668],[669],[670],[671],[672],[673],[674]]},{"type":"MultiLineString","properties":{"kind":"major_road","network":null,"sort_rank":380,"kind_detail":"primary","source":"openstreetmap.org","min_zoom":8.0,"landuse_kind":"urban_area","shield_text":"16","ref":"SS673"},"arcs":[[675],[676],[677],[678],[679],[680],[681],[682],[683],[684],[685],[686]]},{"type":"LineString","properties":{"kind":"ferry","name":"Bari-Korfu","sort_rank":355,"landuse_kind":"urban_area","source":"openstreetmap.org","min_zoom":8.0,"id":-5384333,"osm_relation":true},"arcs":[687]},{"type":"LineString","properties":{"kind":"major_road","network":null,"sort_rank":380,"kind_detail":"primary","source":"openstreetmap.org","min_zoom":8.0,"shield_text":"658","ref":"SS658"},"arcs":[688]},{"type":"LineString","properties":{"source":"openstreetmap.org","kind":"ferry","name":"Bari - Cephalonia","sort_rank":355,"min_zoom":8.0,"id":362077181},"arcs":[689]},{"type":"LineString","properties":{"kind":"major_road","sort_rank":380,"kind_detail":"primary","is_bicycle_related":true,"source":"openstreetmap.org","min_zoom":8.0,"landuse_kind":"urban_area","ref":"Via Giuseppe Alberto Pugliese","id":244583936},"arcs":[690]},{"type":"MultiLineString","properties":{"source":"openstreetmap.org","kind":"major_road","kind_detail":"trunk","sort_rank":381,"landuse_kind":"urban_area","ref":"SS16","min_zoom":8.0},"arcs":[[691],[692]]},{"type":"LineString","properties":{"kind":"major_road","network":null,"sort_rank":380,"kind_detail":"primary","bus_network":"ATAF","source":"openstreetmap.org","min_zoom":8.0,"bus_shield_text":"LS1","shield_text":"16","landuse_kind":"urban_area","ref":"SS1673","id":161647063},"arcs":[693]},{"type":"MultiLineString","properties":{"bus_network":"Bari - Barletta","network":null,"sort_rank":380,"kind_detail":"primary","kind":"major_road","source":"openstreetmap.org","min_zoom":8.0,"bus_shield_text":null,"shield_text":"231","landuse_kind":"urban_area","ref":"SP231"},"arcs":[[694],[695],[696]]},{"type":"MultiLineString","properties":{"source":"openstreetmap.org","kind":"major_road","landuse_kind":"urban_area","sort_rank":380,"kind_detail":"primary","ref":"SS93","min_zoom":8.0},"arcs":[[697],[698],[699]]},{"type":"MultiLineString","properties":{"source":"openstreetmap.org","kind":"major_road","landuse_kind":"park","sort_rank":381,"kind_detail":"trunk","ref":"SS655","min_zoom":8.0},"arcs":[[700],[701]]},{"type":"MultiLineString","properties":{"kind":"major_road","network":null,"sort_rank":380,"kind_detail":"primary","bus_network":"ATAF","source":"openstreetmap.org","min_zoom":8.0,"bus_shield_text":"33","shield_text":"16","ref":"SS16"},"arcs":[[702],[703]]},{"type":"LineString","properties":{"kind":"major_road","network":null,"sort_rank":380,"kind_detail":"primary","source":"openstreetmap.org","min_zoom":8.0,"landuse_kind":"urban_area","shield_text":"673","ref":"SS673"},"arcs":[704]},{"type":"MultiLineString","properties":{"source":"openstreetmap.org","kind":"major_road","landuse_kind":"urban_area","sort_rank":380,"kind_detail":"primary","min_zoom":8.0},"arcs":[[705],[706],[707],[708],[709],[710],[711],[712],[713],[714],[715],[716],[717],[718]]},{"type":"LineString","properties":{"kind":"major_road","network":null,"sort_rank":380,"kind_detail":"primary","source":"openstreetmap.org","min_zoom":8.0,"landuse_kind":"urban_area","shield_text":"161","ref":"SP110"},"arcs":[719]},{"type":"LineString","properties":{"kind":"major_road","network":null,"sort_rank":380,"kind_detail":"primary","source":"openstreetmap.org","min_zoom":8.0,"shield_text":"52","ref":"SP52","id":328333111},"arcs":[720]},{"type":"MultiLineString","properties":{"kind":"major_road","network":null,"sort_rank":381,"kind_detail":"trunk","source":"openstreetmap.org","min_zoom":8.0,"shield_text":"89","ref":"SS89"},"arcs":[[721],[722],[723]]},{"type":"MultiLineString","properties":{"source":"openstreetmap.org","kind":"major_road","sort_rank":381,"kind_detail":"trunk","ref":"SR6","min_zoom":8.0},"arcs":[[724],[725],[726],[727],[728],[729],[730],[731]]},{"type":"MultiLineString","properties":{"source":"openstreetmap.org","kind":"major_road","kind_detail":"trunk","sort_rank":381,"landuse_kind":"urban_area","ref":"SS673","min_zoom":8.0},"arcs":[[732],[733],[734],[735]]},{"type":"LineString","properties":{"kind":"major_road","sort_rank":380,"kind_detail":"primary","bus_network":"ATAF","source":"openstreetmap.org","min_zoom":8.0,"bus_shield_text":"34","landuse_kind":"urban_area","ref":"SS89"},"arcs":[736]},{"type":"MultiLineString","properties":{"kind":"major_road","network":null,"sort_rank":380,"kind_detail":"primary","source":"openstreetmap.org","min_zoom":8.0,"landuse_kind":"park","shield_text":"688","ref":"SS688"},"arcs":[[737],[738]]},{"type":"MultiLineString","properties":{"kind":"major_road","network":null,"sort_rank":381,"landuse_kind":"urban_area","source":"openstreetmap.org","min_zoom":8.0,"kind_detail":"trunk","shield_text":"17","ref":"SS17"},"arcs":[[739],[740]]},{"type":"MultiLineString","properties":{"source":"openstreetmap.org","kind":"major_road","kind_detail":"trunk","sort_rank":381,"landuse_kind":"urban_area","ref":"SP236","min_zoom":8.0},"arcs":[[741],[742]]},{"type":"LineString","properties":{"kind":"major_road","sort_rank":381,"landuse_kind":"military","source":"openstreetmap.org","min_zoom":8.0,"kind_detail":"trunk","ref":"SS89","id":120611063},"arcs":[743]},{"type":"MultiLineString","properties":{"kind":"major_road","network":null,"sort_rank":381,"landuse_kind":"urban_area","source":"openstreetmap.org","min_zoom":8.0,"kind_detail":"trunk","shield_text":"231","ref":"SP231"},"arcs":[[744],[745],[746],[747],[748],[749],[750]]},{"type":"MultiLineString","properties":{"kind":"major_road","network":null,"sort_rank":381,"kind_detail":"trunk","source":"openstreetmap.org","min_zoom":8.0,"shield_text":"693","ref":"SS693"},"arcs":[[751],[752],[753],[754],[755],[756],[757],[758]]},{"type":"MultiLineString","properties":{"kind":"major_road","network":null,"sort_rank":381,"kind_detail":"trunk","source":"openstreetmap.org","min_zoom":8.0,"landuse_kind":"park","shield_text":"693","ref":"SS693"},"arcs":[[759],[760],[761],[762]]},{"type":"LineString","properties":{"source":"openstreetmap.org","kind":"ferry","name":"Bari - Durr\u00ebs","sort_rank":355,"min_zoom":8.0,"id":69744874,"name:it":"Bari - Durazzo"},"arcs":[763]},{"type":"MultiLineString","properties":{"kind":"major_road","network":null,"sort_rank":380,"kind_detail":"primary","source":"openstreetmap.org","min_zoom":8.0,"landuse_kind":"park","shield_text":"89"},"arcs":[[764],[765],[766]]},{"type":"LineString","properties":{"kind":"major_road","network":null,"sort_rank":380,"kind_detail":"primary","source":"openstreetmap.org","min_zoom":8.0,"shield_text":"230","ref":"SP230"},"arcs":[767]},{"type":"LineString","properties":{"bus_network":null,"network":null,"sort_rank":380,"kind_detail":"primary","kind":"major_road","source":"openstreetmap.org","min_zoom":8.0,"bus_shield_text":"3","shield_text":"231","ref":"SP231"},"arcs":[768]},{"type":"LineString","properties":{"source":"openstreetmap.org","kind":"ferry","name":"Bari - Dubrovnik","sort_rank":355,"is_bicycle_related":true,"min_zoom":8.0,"id":178622828},"arcs":[769]},{"type":"MultiLineString","properties":{"kind":"major_road","network":null,"sort_rank":381,"landuse_kind":"urban_area","source":"openstreetmap.org","min_zoom":8.0,"kind_detail":"trunk","shield_text":"693","ref":"SS693"},"arcs":[[770],[771],[772]]},{"type":"MultiLineString","properties":{"bus_network":null,"sort_rank":380,"kind_detail":"primary","kind":"major_road","source":"openstreetmap.org","min_zoom":8.0,"bus_shield_text":"1","landuse_kind":"urban_area"},"arcs":[[773],[774]]},{"type":"LineString","properties":{"kind":"major_road","network":null,"sort_rank":380,"kind_detail":"primary","bus_network":"ATAF","source":"openstreetmap.org","min_zoom":8.0,"bus_shield_text":"28","shield_text":"16","landuse_kind":"urban_area","ref":"SS16"},"arcs":[775]},{"type":"MultiLineString","properties":{"kind":"major_road","network":null,"sort_rank":381,"landuse_kind":"urban_area","source":"openstreetmap.org","min_zoom":8.0,"kind_detail":"trunk","shield_text":"16","ref":"SS16bis"},"arcs":[[776],[777],[778],[779],[780],[781],[782],[783],[784],[785],[786],[787],[788],[789],[790],[791]]},{"type":"LineString","properties":{"source":"openstreetmap.org","kind":"major_road","sort_rank":380,"kind_detail":"primary","ref":"SP51","min_zoom":8.0,"id":26380275},"arcs":[792]},{"type":"MultiLineString","properties":{"kind":"major_road","network":null,"sort_rank":380,"kind_detail":"primary","source":"openstreetmap.org","min_zoom":8.0,"shield_text":"16","ref":"SS16"},"arcs":[[793],[794]]},{"type":"MultiLineString","properties":{"source":"openstreetmap.org","kind":"major_road","bus_shield_text":"33","sort_rank":380,"kind_detail":"primary","min_zoom":8.0,"bus_network":"ATAF"},"arcs":[[795],[796]]}]},"earth":{"type":"GeometryCollection","geometries":[{"type":"MultiPolygon","properties":{"sort_rank":10,"source":"naturalearthdata.com","min_zoom":0.0,"kind":"earth","area":40700477080},"arcs":[[[797]]]}]},"landuse":{"type":"GeometryCollection","geometries":[{"type":"Polygon","properties":{"source":"openstreetmap.org","kind":"park","area":38350800,"tier":2,"id":243033457,"min_zoom":8.0,"sort_rank":24},"arcs":[[798]]},{"type":"Polygon","properties":{"source":"openstreetmap.org","kind":"military","area":17886200,"tier":3,"id":30706140,"min_zoom":8.0,"sort_rank":45},"arcs":[[799]]},{"type":"MultiPolygon","properties":{"source":"naturalearthdata.com","kind":"urban_area","name":"","area":6537020209,"sort_rank":11,"min_zoom":4.0},"arcs":[[[800]],[[801]],[[802]],[[803]],[[804]],[[805]],[[806]],[[807]],[[808]],[[809]],[[810]],[[811]],[[812]],[[813]],[[814]],[[815]],[[816]]]},{"type":"MultiPolygon","properties":{"source":"openstreetmap.org","kind":"residential","tier":2,"area":39133722,"sort_rank":20,"min_zoom":8.0},"arcs":[[[817]]]},{"type":"MultiPolygon","properties":{"source":"openstreetmap.org","kind":"park","tier":2,"area":2939424009,"sort_rank":24,"min_zoom":4.0,"osm_relation":true},"arcs":[[[818]]]}]}},"type":"Topology","transform":{"translate":[15.46875,40.9798980696],"scale":[0.0003433228,0.0002570987]},"arcs":[[[4096,1439],[-461,165],[-519,292],[-202,1220],[7,216],[-51,336],[-85,243],[-146,185]],[[293,0],[8,72],[-40,94],[14,33],[-59,96]],[[216,295],[-169,60],[-19,29],[-28,-1]],[[1594,0],[49,76],[-12,100],[37,16],[0,31],[-97,89],[-25,-20],[-54,107],[7,30],[-83,15],[17,27],[-19,42],[-94,1],[-59,60],[-23,-13],[-40,60],[-26,5],[-15,-35],[-54,-20],[-43,13],[-20,-43],[-49,-17],[-30,-88],[-86,-30],[-72,62],[-180,-51],[-184,51],[-113,-9],[-89,-89],[-21,-75]],[[4096,578],[-7,45],[-12,12],[-60,18],[68,-31],[-30,-8],[14,-29],[-35,-6],[-24,25],[21,27],[-53,-21],[-72,13],[-88,77],[-242,67],[-70,56],[-134,9],[-93,70],[7,-25],[-43,11],[26,26],[-32,-15],[-157,117],[-212,73],[-89,90],[-7,-19],[-3,17],[14,9],[-68,1],[-121,76],[-164,56],[-24,58],[-2,-47],[-25,10],[12,33],[-26,-34],[-64,23],[-361,235],[-10,-18],[8,15],[-23,-9],[-344,171],[-185,158],[-79,133],[-57,184],[-11,120],[24,125],[29,27],[5,-24],[24,16],[-28,11],[29,20],[8,-34],[-2,43],[32,19],[43,-92],[-41,93],[20,22],[357,200],[22,65],[128,78],[13,32],[67,13],[140,157],[-16,14],[25,23],[-8,105],[20,27],[-33,7],[11,37],[-49,94],[8,72],[23,13],[-39,11],[19,19],[-45,-6],[-32,75],[-99,29],[-76,85],[-92,42],[-79,-14],[-76,19],[-293,-74],[-56,10],[-204,-45],[-329,-30],[-86,2],[-26,31],[-137,25],[-320,-76],[-120,-13]],[[4096,563],[0,5]],[[4096,570],[-7,2],[7,4]],[[4096,571]],[[2358,1302],[31,-11],[1,-144],[-67,-49],[-4,-29],[370,-298],[79,-90],[13,-80],[190,-97],[188,70],[61,-37],[319,-19]],[[3543,520],[177,129],[53,-9],[31,28],[85,-51]],[[3894,614],[1,0]],[[3951,581],[119,-43]],[[4071,538],[-2,0]],[[4070,538],[8,1]],[[4071,538],[-1,0]],[[4071,538],[7,0]],[[4078,538],[-7,0]],[[0,1942],[195,-24],[54,-26]],[[3925,591],[-6,4]],[[3925,591],[-5,4]],[[3927,589],[-1,1]],[[3927,589],[0,1]],[[4067,535],[-136,51]],[[3931,586],[-2,2]],[[3950,572],[-19,14]],[[2358,1302],[31,-11],[1,-144],[-67,-49],[-4,-29],[370,-298],[79,-90],[13,-80],[190,-97],[188,70],[61,-37],[319,-19]],[[3543,520],[98,60]],[[3640,580],[60,-13],[73,24]],[[3781,594],[91,27]],[[3872,621],[22,-7]],[[3894,614],[1,0]],[[3895,614],[42,-27],[20,-9]],[[3951,581],[49,-25],[32,-20],[46,3]],[[3864,574],[-6,-2]],[[3858,572],[-43,-21],[24,-19]],[[3858,572]],[[3858,572],[2,1],[4,1]],[[3864,574],[43,32],[124,-70],[47,3]],[[4082,534],[14,3]],[[4078,539],[-48,-3],[-3,-39],[-143,-32],[-114,-92],[-116,-43],[-35,-44],[-18,-179],[-54,-19],[-65,-88]],[[2358,1302],[31,-11],[1,-144],[-67,-49],[-4,-29],[370,-298],[79,-90],[13,-80],[190,-97],[188,70],[61,-37],[319,-19]],[[3543,520],[172,127],[58,-7],[30,28]],[[3890,616],[-63,39]],[[3894,614],[1,0]],[[3895,614],[42,-27],[20,-9]],[[3951,581],[49,-25],[32,-20],[46,3]],[[0,2413],[75,-104],[52,-97],[87,-295],[128,-73],[440,-416],[389,-132],[106,15],[116,99],[355,39],[277,-53],[171,-65],[178,-30],[370,-149],[493,-295],[460,-146],[341,-178],[58,4]],[[3482,0],[65,88],[54,19],[18,179],[35,44],[116,43],[114,92],[143,32],[3,39],[48,3]],[[3712,0],[-66,92],[-3,6],[-2,5],[-1,6],[0,5],[5,48],[1,6],[3,6],[2,4],[23,34],[2,4],[3,2],[3,3],[15,11],[6,6],[4,6],[10,20],[2,3]],[[3719,267],[1,0]],[[3720,267],[0,1]],[[3720,268],[2,2]],[[3722,270]],[[3722,270],[1,2]],[[3723,272],[1,0]],[[3724,272],[1,1]],[[3725,273],[1,1]],[[3726,274],[2,1]],[[3728,275]],[[3728,275],[1,0]],[[3729,275],[1,1]],[[3730,276],[1,0]],[[3731,276],[2,1]],[[3733,277],[1,1]],[[3734,278],[2,0]],[[3736,278],[8,2]],[[3744,280],[5,2]],[[3749,282],[5,1]],[[3754,283],[4,1]],[[3758,284],[4,1]],[[3762,285],[3,1]],[[3765,286],[2,1]],[[3767,287],[1,0]],[[3768,287],[1,1]],[[3769,288],[2,0]],[[3771,288],[0,1]],[[3771,289],[2,0]],[[3773,289],[1,1]],[[3774,290],[1,1]],[[3775,291],[1,1]],[[3776,292],[2,1]],[[3778,293],[1,1]],[[3779,294],[1,1]],[[3780,295],[1,1]],[[3781,296],[1,1]],[[3782,297],[1,2]],[[3783,299],[1,1]],[[3784,300],[1,1]],[[3785,301],[1,2]],[[3786,303],[0,1]],[[3786,304],[2,3]],[[3788,307],[2,4]],[[3790,311],[3,4]],[[3793,315],[3,5]],[[3796,320],[2,4]],[[3798,324],[2,3]],[[3800,327],[2,3]],[[3802,330],[0,2]],[[3802,332],[1,1]],[[3803,333],[1,2]],[[3804,335],[1,1]],[[3805,336]],[[3805,336],[0,2]],[[3805,338],[1,2]],[[3806,340],[0,2]],[[3806,342],[1,1]],[[3807,343],[0,1]],[[3807,344]],[[3807,344],[0,2]],[[3807,346],[0,1]],[[3807,347],[0,2]],[[3807,349],[0,1]],[[3807,350],[0,1]],[[3807,351],[0,1]],[[3807,352],[0,1]],[[3807,353],[-1,3]],[[3806,356],[0,1]],[[3806,357],[0,1]],[[3806,358],[-2,10]],[[3804,368],[-1,6]],[[3803,374],[0,4]],[[3803,378]],[[3803,378],[-1,3]],[[3802,381],[0,3]],[[3802,384],[0,1]],[[3802,385],[0,1]],[[3802,386],[0,2]],[[3802,388],[0,1]],[[3802,389],[0,1]],[[3802,390],[0,1]],[[3802,391],[0,1]],[[3802,392],[0,2]],[[3802,394],[0,1]],[[3802,395],[1,1]],[[3803,396],[0,2]],[[3803,398],[1,1]],[[3804,399],[0,1]],[[3804,400],[1,1]],[[3805,401],[0,1]],[[3805,402],[1,1]],[[3806,403],[1,1]],[[3807,404],[0,1]],[[3807,405],[1,1]],[[3808,406],[1,1]],[[3809,407],[1,0]],[[3810,407],[0,1]],[[3810,408],[1,0]],[[3811,408],[1,1]],[[3812,409],[1,1]],[[3813,410],[1,1]],[[3814,411],[1,0]],[[3815,411],[0,1]],[[3815,412],[2,1]],[[3817,413],[3,3]],[[3820,416],[4,3]],[[3824,419],[2,2]],[[3826,421],[3,2]],[[3829,423],[2,1]],[[3831,424],[2,2]],[[3833,426],[2,2]],[[3835,428],[3,2]],[[3838,430],[1,1]],[[3839,431],[2,2]],[[3841,433],[2,2]],[[3843,435],[2,1]],[[3845,436],[2,2]],[[3847,438],[2,1]],[[3849,439],[2,2]],[[3851,441],[2,1]],[[3853,442],[2,2]],[[3855,444],[2,2]],[[3857,446],[1,1]],[[3858,447],[5,3]],[[3863,450],[2,2]],[[3865,452],[2,1]],[[3867,453],[1,1]],[[3868,454],[3,3]],[[3871,457],[2,1]],[[3873,458],[1,1]],[[3874,459],[1,1]],[[3875,460],[1,1]],[[3876,461],[2,1]],[[3878,462],[1,0]],[[3879,462],[2,1]],[[3881,463],[1,1]],[[3882,464],[1,0]],[[3883,464],[2,1]],[[3885,465],[1,1]],[[3886,466],[2,1]],[[3888,467],[3,1]],[[3891,468],[4,2]],[[3895,470],[7,3]],[[3902,473],[3,1]],[[3905,474],[3,1]],[[3908,475],[2,1]],[[3910,476],[2,1]],[[3912,477],[3,1]],[[3915,478],[1,1]],[[3916,479],[2,1]],[[3918,480],[2,0]],[[3920,480],[1,1]],[[3921,481],[2,1]],[[3923,482],[1,0]],[[3924,482],[2,1]],[[3926,483],[2,0]],[[3928,483],[1,0]],[[3929,483],[1,1]],[[3930,484],[1,0]],[[3931,484],[2,0]],[[3933,484],[2,1]],[[3935,485],[1,0]],[[3936,485],[1,0]],[[3937,485],[2,0]],[[3939,485],[2,0]],[[3941,485],[3,1]],[[3944,486],[2,0]],[[3946,486],[4,1]],[[3950,487]],[[3950,487],[3,0]],[[3953,487],[1,0]],[[3954,487],[1,0]],[[3955,487],[4,1]],[[3959,488],[2,0]],[[3961,488],[4,1]],[[3965,489],[5,0]],[[3970,489],[2,1]],[[3972,490],[2,0]],[[3974,490],[4,0]],[[3978,490],[2,1]],[[3980,491],[2,0]],[[3982,491],[1,0]],[[3983,491],[1,0]],[[3984,491]],[[3984,491],[2,1]],[[3986,492],[1,1]],[[3987,493],[1,0]],[[3988,493],[1,0]],[[3989,493],[1,1]],[[3990,494]],[[3990,494],[1,1]],[[3991,495],[1,1]],[[3992,496],[1,0]],[[3993,496],[1,1]],[[3994,497],[0,1]],[[3994,498],[1,1]],[[3995,499],[0,1]],[[3995,500],[1,1]],[[3996,501],[1,1]],[[3997,502],[0,1]],[[3997,503],[0,1]],[[3997,504],[1,2]],[[3998,506],[1,3]],[[3999,509],[1,2]],[[4000,511],[0,2]],[[4000,513],[1,1]],[[4001,514],[0,1]],[[4001,515],[1,3]],[[4002,518],[1,2]],[[4003,520],[1,2]],[[4004,522],[0,1]],[[4004,523],[1,2]],[[4005,525],[0,1]],[[4005,526],[1,1]],[[4006,527],[1,1]],[[4007,528],[1,1]],[[4008,529],[1,0]],[[4009,529],[0,1]],[[4009,530],[1,0]],[[4010,530],[1,0]],[[4011,530],[0,1]],[[4011,531],[1,0]],[[4012,531],[1,0]],[[4013,531],[4,2]],[[4017,533],[2,1]],[[4019,534],[2,0]],[[4021,534],[2,1]],[[4023,535],[1,0]],[[4024,535],[1,0]],[[4025,535],[1,0]],[[4026,535],[1,0]],[[4027,535]],[[4027,535],[1,0]],[[4028,535],[1,0]],[[4029,535]],[[4029,535],[1,0]],[[4030,535],[1,0]],[[4031,535],[0,-1]],[[4031,534],[1,0]],[[4032,534],[1,0]],[[4033,534],[1,-1]],[[4034,533],[1,0]],[[4035,533],[1,0]],[[4036,533],[1,-1]],[[4037,532],[1,0]],[[4038,532],[1,0]],[[4039,532],[1,-1]],[[4040,531],[1,0]],[[4041,531],[1,0]],[[4042,531],[1,0]],[[4043,531],[1,0]],[[4044,531],[1,0]],[[4045,531],[1,0]],[[4046,531],[1,0]],[[4047,531],[1,0]],[[4048,531]],[[4048,531],[1,0]],[[4049,531],[1,0]],[[4050,531],[0,1]],[[4050,532],[1,0]],[[4051,532]],[[4051,532],[1,0]],[[4052,532]],[[4052,532],[1,1]],[[4053,533],[1,0]],[[4054,533],[1,0]],[[4055,533],[1,0]],[[4056,533],[0,1]],[[4056,534],[1,0]],[[4057,534]],[[4057,534],[1,0]],[[4058,534],[1,0]],[[4059,534],[1,0]],[[4060,534]],[[4060,534]],[[4060,534],[3,0]],[[4063,534],[1,0]],[[4064,534],[2,1]],[[4066,535],[2,0]],[[4068,535],[1,0]],[[4069,535],[2,0]],[[4071,535],[1,0]],[[4072,535],[2,0]],[[4074,535],[8,1]],[[4082,536],[5,0]],[[3719,267],[-12,-23],[-4,-6],[-54,-64],[-9,-60],[73,-114]],[[254,1891],[32,-13],[415,212],[108,22],[27,54],[171,66],[119,93],[154,177]],[[4082,534],[14,3]],[[4096,366],[0,-80]],[[4096,156],[0,-94]],[[366,1637],[84,-310],[-200,-346],[-55,-151],[3,-197],[129,-117],[-29,-73],[-57,-42]],[[242,371],[51,37],[51,-38],[46,-96],[13,-111],[111,-118]],[[515,45],[37,-45]],[[3974,249],[34,-5]],[[4027,385],[-32,71],[5,57]],[[4008,244],[14,49]],[[4022,293],[5,92]],[[2358,1302],[31,-11],[1,-144],[-67,-49],[-4,-29],[370,-298],[79,-90],[13,-80],[190,-97],[188,70],[61,-37],[319,-19]],[[3543,520],[172,127],[58,-7],[28,28],[229,-131],[48,2]],[[3864,574],[-6,-2]],[[3858,572],[-43,-21],[24,-19]],[[3858,572]],[[3858,572],[2,1],[4,1]],[[3864,574],[43,32],[124,-70],[47,3]],[[2373,1301],[-83,12],[-261,-41],[-99,-81],[-159,-56],[-77,-165],[11,-40]],[[1705,930],[-1,-3]],[[1704,927],[-49,-42],[-62,-144],[22,-76],[114,-83],[52,-388],[144,-106],[-21,-88]],[[1705,928],[-1,-1]],[[1705,930],[0,-2]],[[4078,539],[-48,-3],[-3,-39],[-143,-32],[-114,-92],[-116,-43],[-35,-44],[-18,-179],[-54,-19],[-65,-88]],[[0,1942],[195,-24],[54,-26]],[[4078,539],[-48,-3],[-3,-39],[-143,-32],[-114,-92],[-116,-43],[-35,-44],[-18,-179],[-54,-19],[-65,-88]],[[3482,0],[65,88],[54,19],[18,179],[35,44],[116,43],[114,92],[143,32],[3,39],[48,3]],[[254,1891],[32,-13],[415,212],[108,22],[27,54],[171,66],[119,93],[154,177]],[[2358,1302],[31,-11],[1,-144],[-67,-49],[-4,-29],[370,-298],[79,-90],[13,-80],[190,-97],[188,70],[61,-37],[319,-19]],[[3543,520],[97,60]],[[3640,580],[1,0]],[[3640,580],[60,-13],[73,24]],[[3781,594],[97,28],[153,-85],[47,2]],[[0,2438],[14,-18],[110,-202],[89,-301],[129,-73],[439,-416],[392,-132],[104,16],[115,98],[358,39],[276,-53],[170,-65],[179,-30],[370,-149],[492,-296],[462,-145],[339,-178],[58,4]],[[3930,586],[1,-2]],[[3931,584],[5,-12]],[[3936,572],[-5,12]],[[4078,539],[-48,-3],[-3,-39],[-143,-32],[-114,-92],[-116,-43],[-35,-44],[-18,-179],[-54,-19],[-65,-88]],[[4096,592],[-31,32],[-18,0],[0,-29],[-20,0],[-60,52],[-690,236],[-115,80],[-46,46],[-52,42],[-176,49],[-463,253],[-545,253],[-40,42],[-45,35],[-185,59],[-176,123],[-80,78],[-64,91],[-45,131],[-14,157],[25,147],[74,99],[298,155],[103,84],[78,95],[51,45],[59,19],[53,25],[61,57],[51,63],[25,44],[1,68],[-3,50],[-25,144],[-22,74],[9,62],[-53,-3],[-59,106],[-83,25],[-4,7],[-244,62],[-736,-89],[-475,27],[-415,-71],[0,479],[4096,0],[0,-3504]],[[0,3617],[415,71],[475,-27],[736,89],[244,-62],[4,-7],[83,-25],[59,-106],[53,3],[-9,-62],[22,-74],[25,-144],[3,-50],[-1,-68],[-25,-44],[-51,-63],[-61,-57],[-53,-25],[-59,-19],[-51,-45],[-78,-95],[-103,-84],[-298,-155],[-74,-99],[-25,-147],[14,-157],[45,-131],[64,-91],[80,-78],[176,-123],[185,-59],[45,-35],[40,-42],[545,-253],[463,-253],[176,-49],[52,-42],[46,-46],[115,-80],[690,-236],[60,-52],[20,0],[0,29],[18,0],[31,-32]],[[1450,1039],[149,-61]],[[1599,978],[6,-1]],[[1605,977],[-6,1]],[[692,23],[54,67],[77,27],[4,82],[45,9]],[[1061,392],[262,278],[332,226]],[[1974,1127],[198,95]],[[2309,1287],[15,7]],[[2309,1287],[-1,0],[1,0]],[[1702,1251],[-200,-88]],[[1502,1162],[170,63],[20,14],[10,12]],[[2103,1336],[-57,22],[-86,-22]],[[1960,1336],[85,22],[58,-23]],[[335,2046],[-34,-38]],[[3494,85],[-37,-85]],[[405,2089],[-51,-27]],[[113,1909],[-3,-9]],[[118,1924],[-3,-9]],[[123,1932],[-1,0]],[[158,1986],[0,-1]],[[252,1733],[3,0]],[[262,1734],[2,1]],[[280,1737],[7,1]],[[324,1745],[1,0]],[[335,1747]],[[142,653],[-30,22],[17,83],[-43,40],[-12,67],[-74,51]],[[0,650],[24,13],[94,-9],[216,38],[189,98],[399,-1],[219,106],[138,-31],[206,86],[49,35]],[[1534,985],[55,40]],[[1587,1023],[-53,-38]],[[1534,985],[-49,-35],[-206,-86],[-138,32],[-219,-106],[-399,1],[-189,-99],[-216,-37],[-7,1],[-83,8],[-4,-1],[-24,-13]],[[412,1726],[1,-1]],[[413,1725],[78,-57]],[[491,1668],[-78,57]],[[3809,417],[125,73]],[[3821,426],[-9,-7]],[[354,2062],[51,26]],[[1648,2746],[-19,-24]],[[2392,1255],[9,-181]],[[2401,1074],[-9,183]],[[2402,1060],[-1,14]],[[190,2175],[189,-250],[164,-161],[20,-45],[8,-14]],[[571,1705],[19,-35]],[[589,1669],[-18,36]],[[571,1705],[-8,15],[-20,44],[-164,162],[-189,249]],[[685,1609],[218,-103]],[[903,1507],[-218,103]],[[1178,1366],[95,-41],[176,-183],[9,-5]],[[1458,1137],[76,-40]],[[1534,1093],[-76,44]],[[1458,1137],[-9,5],[-176,183],[-94,42]],[[1588,1061],[-9,6]],[[1579,1067],[-13,7]],[[1568,1079],[2,-1],[9,-11]],[[1579,1067],[20,-24]],[[1639,1033],[-16,4]],[[1981,1018],[-63,-23],[-141,46],[-77,-23],[-60,15]],[[1661,1027],[39,-10],[22,5],[55,19],[140,-47],[64,24]],[[2093,1056],[142,17],[71,20],[209,-44],[476,-230],[227,-56],[8,-3],[2,0],[2,0]],[[3230,760],[0,-1],[30,-13]],[[3260,746],[377,-168],[64,-72],[102,-64]],[[3802,443],[-165,135],[-377,168]],[[3260,746],[-30,14]],[[3230,760],[-2,0],[-237,60],[-476,229],[-209,44],[-212,-37]],[[4053,615],[-39,42],[82,-10]],[[0,1272],[154,17],[239,-49],[54,63],[150,28]],[[2129,1389],[72,-47]],[[3480,4096],[616,-554]],[[405,397],[-11,-161],[70,-118]],[[846,268],[0,-1]],[[1427,3622],[1,-1]],[[1761,334],[-8,-20]],[[1362,2604],[1,1],[-2,0],[0,-1],[1,0]],[[130,1725],[1,-1]],[[157,1716]],[[4053,615],[-43,42],[86,-7]],[[2775,1112],[-1,1]],[[3228,851],[2,-2]],[[3950,462],[0,1]],[[4096,427],[-141,31]],[[3960,454],[136,-28]],[[4051,613],[18,-17]],[[3904,611],[-101,64],[-7,-5]],[[3797,670],[107,-59]],[[87,1800],[11,-139],[-98,-157]],[[4051,613],[18,-17]],[[1438,3721],[-6,-56]],[[632,2203],[23,12]],[[4096,714],[-90,-56],[47,-43]],[[533,1637],[4,-4]],[[537,1633],[-3,4]],[[1755,485],[1,-2]],[[1756,483],[0,2]],[[1760,445],[-4,38]],[[1756,485],[0,1],[-1,1],[0,-2]],[[1755,485],[1,0]],[[1754,495],[14,89]],[[1768,584],[-11,-79]],[[1802,134],[76,-86]],[[1878,49],[-75,85]],[[1860,981],[25,-60],[-22,-58]],[[1864,864],[21,57],[-25,61]],[[2053,12],[3,-12]],[[4096,3642],[-497,454]],[[2386,1261],[7,0]],[[2393,1262],[-7,-1]],[[1228,3705],[-612,391]],[[2052,3509]],[[1152,2400],[-1,1]],[[4096,3642],[-497,454]],[[3659,4096],[437,-402]],[[1895,42],[31,-22],[128,-14]],[[2054,6],[-159,36]],[[2383,1355],[13,12]],[[89,1800],[3,-4]],[[92,1796],[-2,5]],[[92,1796],[38,-70]],[[130,1726],[0,-1]],[[485,58],[6,-16]],[[4053,615],[-40,42],[83,-9]],[[188,645],[21,404],[36,88],[34,311]],[[278,1447],[-25,-179],[-8,-131],[-36,-88],[-32,-372],[11,-32]],[[188,645],[130,-111],[51,-105]],[[262,1713],[5,-76],[12,-111],[1,-53]],[[280,1474],[-1,52],[-17,187]],[[369,429],[7,-10],[29,-18],[6,-2],[-42,30]],[[1432,3665],[-5,-43]],[[4055,612],[-2,3]],[[301,2008],[-34,0]],[[348,2058],[-13,-12]],[[3659,4096],[437,-402]],[[671,2222],[168,81]],[[1009,2402],[125,3]],[[1134,2405],[3,0]],[[1148,2408],[-14,-3]],[[1360,2602],[-9,-10]],[[1471,2707],[-57,-30],[-51,-70]],[[1629,2722],[-154,-14]],[[1592,3708],[7,-71],[77,-21],[20,-35]],[[1473,2707],[1,1],[-1,1],[-1,-1],[1,-1]],[[2403,1053],[-1,7]],[[839,2303],[170,99]],[[1590,3719],[2,-11]],[[1665,2808],[3,8]],[[1696,3581],[9,-16],[65,31],[235,-122],[22,15]],[[1589,1025],[4,3]],[[3494,85],[125,206],[104,70]],[[3799,411],[-76,-50]],[[3723,361],[86,55]],[[3821,426],[184,115]],[[1438,3724],[3,0]],[[2052,3509],[-19,-14]],[[2052,3508]],[[2052,3508]],[[2052,3508],[1,0]],[[632,2203],[-227,-114]],[[671,2222],[-10,-5]],[[692,23],[-27,-23]],[[872,208],[189,184]],[[1655,896],[36,23]],[[1974,1127],[-51,-25],[-90,-147],[-68,2]],[[2172,1222],[136,65]],[[291,1992],[-4,-6]],[[411,399],[128,-43]],[[759,284],[65,8],[22,-24]],[[877,194],[-31,73]],[[1365,0],[-435,172]],[[88,1813],[-2,-8]],[[86,1805],[2,-4]],[[89,1802],[-3,3]],[[1613,976],[-8,1]],[[1611,976],[2,-1]],[[1726,877],[39,-10]],[[1765,867],[85,-48],[66,2]],[[1916,821],[-66,-2],[-85,48]],[[1916,821],[39,2]],[[1945,2968],[7,4]],[[2077,3337],[-20,111]],[[3910,608],[-6,3]],[[3904,611],[3,-2]],[[1333,1098],[117,-59]],[[111,1911],[3,-2],[3,3],[-3,3],[-3,-4]],[[407,1736],[0,1]],[[553,1617],[91,-97],[3,-3],[14,-10]],[[661,1508],[-100,101]],[[807,1400],[148,-108]],[[955,1292],[-148,109]],[[131,1724],[26,-8]],[[157,1716],[36,6]],[[1438,3724],[44,-8]],[[1484,3716],[36,39],[30,-24],[32,27]],[[4096,747],[-91,-89],[46,-45]],[[2528,857],[40,-34]],[[2568,823],[-39,34]],[[1668,2816],[6,20]],[[1692,2874],[147,85]],[[4053,615],[-43,42],[86,-7]],[[2180,860],[141,55]],[[4053,615],[19,-18]],[[1674,2836],[18,38]],[[3983,32],[6,61],[7,174],[-19,51],[-53,72],[-36,24],[-86,29]],[[3803,442],[121,-52],[52,-73],[20,-50],[-13,-235]],[[539,356],[185,-39],[35,-33]],[[930,172],[-53,22]],[[797,1362],[40,11]],[[2078,1178],[-6,2]],[[50,2322],[40,-50],[12,-80]],[[225,1789],[37,-76]],[[262,1713],[2,20],[-2,10],[-35,47]],[[4072,597],[-19,18]],[[1427,3620],[2,0]],[[1427,3621],[0,-1]],[[1428,3620],[0,1]],[[372,1923],[-106,82]],[[405,1786],[-32,136]],[[403,1755],[2,28]],[[2396,1367],[23,20],[175,12]],[[4053,615]],[[3941,452],[-43,-33],[-4,0]],[[3894,419],[-41,6],[-51,18]],[[3803,442],[27,-12],[34,-10]],[[3888,416],[2,0],[4,3]],[[3894,419],[49,35]],[[654,1342],[59,-3]],[[715,1340],[82,22]],[[3480,4096],[616,-554]],[[3955,458],[-5,4]],[[1646,968],[-33,8]],[[1613,975],[33,-7]],[[1646,968],[80,-91]],[[2321,915],[65,-35],[115,1]],[[3477,512],[59,-35],[78,-5]],[[1605,977],[6,-1]],[[4053,615],[-44,42],[87,-6]],[[4096,647],[-82,10],[39,-42]],[[3914,607],[-2,-1]],[[0,1942],[64,-17]],[[64,1925],[-64,17]],[[1841,2958],[104,10]],[[1952,2972],[-1,36],[34,-4],[-65,54],[71,39],[27,69],[50,19],[49,99],[-40,53]],[[2059,3469],[-6,38]],[[4053,615],[-44,42],[87,-6]],[[404,1728],[-3,8]],[[401,1741],[0,1]],[[2727,1139],[-2,-2]],[[3787,655],[-1,0]],[[3786,654],[1,1]],[[3928,601],[-14,6]],[[3930,280],[-8,-81]],[[4002,455],[-8,-14]],[[491,1668],[42,-31]],[[534,1637],[-43,31]],[[537,1633],[16,-16]],[[561,1609],[-24,24]],[[373,417],[-89,7],[-70,-83],[71,-174],[16,-167]],[[2433,1042],[-31,14]],[[2435,1041],[42,-22]],[[3931,600],[-21,8]],[[3930,600],[1,0]],[[661,1507],[146,-107]],[[807,1401],[-146,107]],[[955,1292],[207,-140]],[[1162,1152],[-207,140]],[[3889,121],[-2,-6]],[[3887,114],[1,-3]],[[3888,111],[0,3]],[[3888,111],[9,-26]],[[3888,115],[1,6]],[[3900,143],[-11,-22]],[[3897,79],[-5,-11]],[[3897,85],[0,-2]],[[3897,82],[0,-3]],[[3897,83],[0,2]],[[3897,79],[0,3]],[[3887,115],[0,-1],[1,0],[0,1],[-1,0]],[[3897,83],[-1,-1],[1,0],[1,0],[-1,1]],[[2057,3448],[2,21]],[[4055,612],[-2,3]],[[3983,32],[-3,-32]],[[3980,0],[3,32]],[[4055,612],[-2,3]],[[2969,967],[0,-1]],[[2970,966],[-1,1]],[[4055,612],[-2,3]],[[4055,612],[-2,3]],[[3882,48],[-1,-1]],[[3881,47],[1,1]],[[3892,68],[-10,-20]],[[3881,47],[-1,0],[0,-1],[1,0],[0,1]],[[193,1722],[35,7]],[[0,2470],[143,-160],[29,-105],[18,-30]],[[190,2175],[-46,135],[-144,160]],[[685,1610],[-77,28]],[[608,1638],[-3,1],[-16,30]],[[590,1670],[18,-32]],[[608,1638],[1,-2],[76,-27]],[[903,1506],[149,-87],[126,-53]],[[1179,1367],[-276,140]],[[1534,1097],[34,-18]],[[1566,1074],[-32,19]],[[2094,1056],[-18,-2],[-95,-36]],[[1981,1018],[112,38]],[[110,1900],[-22,-87]],[[115,1915],[-2,-6]],[[122,1932],[-4,-8]],[[158,1985],[-35,-53]],[[224,1728],[11,2]],[[235,1730],[-5,-1]],[[235,1730],[17,3]],[[255,1733],[7,1]],[[264,1735],[16,2]],[[287,1738],[37,7]],[[325,1745],[10,2]],[[335,1747],[48,0]],[[4055,612],[-2,3]],[[491,42],[30,-42]],[[4053,615],[-42,42],[85,-8]],[[3508,46],[36,41]],[[3907,609],[36,-69],[-7,-47],[2,-10],[12,-22],[10,-7]],[[3950,463],[-6,77],[-34,68]],[[230,1729],[-2,0]],[[3614,472],[126,-32]],[[3740,440],[69,-23]],[[3812,419],[-72,21]],[[1690,918],[2,-1]],[[1691,919],[-1,-1]],[[1691,918],[0,1]],[[280,1473],[-2,-26]],[[279,1448],[1,26]],[[88,1801],[1,-1]],[[130,1726]],[[249,2012],[-93,3]],[[383,1747],[24,-10]],[[464,118],[21,-60]],[[2278,1275],[-4,2]],[[2278,1275],[0,-3]],[[2280,1274],[-2,1]],[[2279,1274]],[[2402,1055],[13,-9]],[[2477,1019],[36,-138]],[[2484,892],[0,-9]],[[3756,441]],[[3795,406],[5,5]],[[4003,457],[45,39]],[[714,1339],[1,0],[0,1],[-1,0],[0,-1]],[[2432,1041],[2,-2],[1,2],[-1,1],[-2,-1]],[[597,1331],[57,11]],[[1482,3716],[2,0]],[[405,2088],[227,115]],[[655,2215],[16,7]],[[1137,2405],[11,3],[76,164],[108,9],[7,3],[8,5],[4,3],[-127,-20],[-76,-164]],[[1768,584],[3,20]],[[1771,604],[3,21],[90,239]],[[1863,863],[-89,-237],[-3,-22]],[[1771,604],[-3,-20]],[[1803,134],[-49,177],[48,-177]],[[1895,42],[-17,7]],[[1878,48],[17,-6]],[[2054,6]],[[373,1922],[-1,1]],[[401,1736],[0,5]],[[401,1742],[2,13]],[[405,1783],[0,3]],[[293,1995],[8,13]],[[1648,2746],[17,62]],[[1839,2959],[2,-1]],[[64,1925],[39,-10]],[[109,1913],[-45,12]],[[3922,199],[-1,-13],[-13,-20],[-8,-23],[102,312]],[[3994,441],[-9,-21],[-3,-22],[-20,-42],[-10,-45],[-22,-31]],[[661,2217],[-29,-14]],[[2504,878],[24,-21]],[[2529,857],[-25,21]],[[2568,823],[129,-109],[61,-108],[8,-6]],[[2766,600],[143,-107]],[[2909,493],[2,-1],[349,37],[217,-17],[-217,18],[-351,-37]],[[2909,493],[-8,-1],[-135,108]],[[2766,600],[-8,6],[-60,107],[-130,110]],[[208,3483],[-208,-68]],[[493,3466],[-135,-9]],[[1025,3337],[-203,-16],[-147,42],[-83,76]],[[1052,3373],[-27,-36]],[[1141,3574],[-74,-133]],[[1141,3574],[19,14]],[[1300,3617],[-140,-29]],[[1428,3621],[-46,-7]],[[592,3439],[-99,27]],[[1025,3337]],[[1067,3441],[-15,-68]],[[1378,3614],[-48,-1]],[[4053,615],[-45,43],[88,18]],[[1582,3758],[9,-36]],[[2033,3495],[-6,-6]],[[1591,3720],[1,1],[-1,1],[-1,-1],[1,-1]],[[1761,334],[-1,111]],[[1955,823],[225,37]],[[4096,816],[-92,-158],[47,-45]],[[358,3457],[-150,26]],[[1330,3613],[-30,4]],[[1382,3614],[-4,0]],[[2415,1046],[17,-5]],[[2435,1040],[28,-10]],[[102,2192],[56,-206]],[[1162,1152],[96,17],[46,-43],[38,-22],[160,58]],[[1502,1163],[-160,-59],[-38,22],[-9,15],[-4,3],[-22,19],[-9,5],[-2,1],[-15,2],[-81,-19]],[[1960,1336],[-237,-60],[-21,-25]],[[1702,1251],[21,25],[237,60]],[[2386,1261],[-109,11],[-2,1],[-71,26],[-101,37]],[[2103,1335],[174,-63],[109,-11]],[[2969,967],[-64,80],[-18,12],[-285,148],[-209,55]],[[2393,1261],[209,-54],[95,-59],[38,-20],[40,-16],[31,-25],[2,-1],[79,-27],[18,-13],[30,-45],[34,-34]],[[2969,966],[12,-12],[4,-1],[134,-29],[138,-121],[15,-5],[29,-3],[1,0],[26,11]],[[3328,806],[1,0],[51,-8]],[[3380,798],[29,-5],[45,-28],[104,-14],[166,-90],[58,-13],[4,6]],[[3786,655],[-62,6],[-166,90],[-148,42],[-30,5]],[[3380,798],[-52,8]],[[3328,806],[-1,0],[-70,-2],[-138,121],[-149,41]],[[3796,670],[-9,-15]],[[3787,655],[10,15]],[[1430,3563],[-6,-9]],[[0,2398],[50,-76]],[[90,1801],[-1,1]],[[89,1802],[-1,-1]],[[89,1800],[1,1]],[[4096,592],[0,-592],[-1925,0],[-2171,0],[0,3617],[415,71],[475,-27],[736,89],[244,-62],[4,-7],[83,-25],[59,-106],[53,3],[-9,-62],[22,-74],[25,-144],[3,-50],[-1,-68],[-25,-44],[-51,-63],[-61,-57],[-53,-25],[-59,-19],[-51,-45],[-78,-95],[-103,-84],[-298,-155],[-74,-99],[-25,-147],[14,-157],[45,-131],[64,-91],[80,-78],[176,-123],[185,-59],[45,-35],[40,-42],[291,-134],[254,-119],[463,-253],[176,-49],[52,-42],[46,-46],[115,-80],[690,-236],[60,-52],[20,0],[0,29],[18,0],[31,-32]],[[123,1402],[21,9],[54,6],[-2,27],[38,13],[12,-20],[163,174],[130,27],[-26,-94],[-43,6],[-67,-43],[22,-80],[-26,-3],[4,38],[-74,-39],[0,56],[-111,-69],[-95,-8]],[[632,2204],[80,37],[46,-16],[23,-99],[-123,17],[-26,61]],[[1756,0],[-45,45],[-16,77],[136,15],[37,-43],[20,-94],[-132,0]],[[427,154],[7,-32],[129,-17],[0,-69],[-121,11],[-35,40],[-6,79],[26,-12]],[[701,19],[6,-19],[-47,0],[0,36],[41,-17]],[[918,0],[33,36],[0,86],[56,10],[55,-37],[44,-95],[-188,0]],[[851,585],[68,-117],[162,-86],[3,-65],[-100,-65],[-60,-89],[-37,2],[-39,113],[-26,17],[-100,-18],[-30,-112],[-36,9],[-28,95],[-71,43],[-19,41],[25,115],[32,0],[33,86],[39,-2],[90,-84],[65,130],[29,-13]],[[1693,428],[-62,40],[29,59],[42,41],[123,30],[-17,-95],[-49,-60],[-66,-15]],[[1880,1606],[545,-253],[463,-253],[176,-49],[213,-168],[690,-236],[60,-52],[38,29],[31,-32],[0,-592],[-77,0],[-68,60],[-177,26],[-267,-50],[0,43],[-97,43],[39,201],[-33,118],[-135,27],[-32,43],[-148,-51],[-263,37],[-139,72],[-65,-15],[-67,203],[2,100],[-194,0],[-101,-32],[-41,36],[-52,-4],[-53,142],[-44,31],[22,59],[75,70],[-1,53],[-64,77],[-34,123],[-96,-27],[-27,-41],[28,-401],[-76,-26],[-54,-60],[-97,43],[-65,-43],[-46,45],[-83,171],[21,59],[141,71],[-7,33],[-97,75],[-12,43],[19,108],[32,0],[-32,130],[94,11],[46,88],[109,-85]],[[1081,1338],[129,37],[106,-50],[56,7],[32,43],[97,-43],[6,-20],[-38,-23],[0,-86],[65,-79],[0,-51],[-193,-77],[-120,-13],[-11,47],[-65,0],[0,43],[-64,0],[-33,43],[-129,0],[-58,35],[-90,-25],[38,40],[13,80],[140,49],[66,81],[53,-38]],[[725,1678],[0,-43],[127,28],[67,-115],[-32,-86],[-65,0],[-32,-130],[-100,-43],[-50,8],[-45,35],[0,130],[65,43],[40,169],[25,4]],[[1566,2845],[-129,0],[-16,-36],[-39,5],[-42,161],[96,52],[86,-17],[52,-68],[-8,-97]],[[0,3097],[0,127],[45,-33],[-45,-94]],[[0,2813],[0,125],[13,-6],[11,-76],[-24,-43]],[[725,3018],[-33,-130],[-97,43],[-111,-93],[-51,7],[16,120],[70,47],[206,6]],[[1966,3640],[50,-90],[53,3],[3,-100],[-40,-14],[-62,35],[-34,131],[30,35]],[[1404,3580],[-8,-29],[-24,28],[-65,0],[-11,64],[45,73],[71,2],[-35,-121],[27,-17]],[[321,3314],[-147,49],[1,65],[64,109],[195,-130],[-35,-71],[-78,-22]],[[324,2120],[77,-10],[33,-173],[61,-15],[3,-28],[142,5],[117,38],[-5,-57],[-189,-245],[-65,43],[-32,-43],[-130,91],[-121,-22],[-170,147],[52,198],[-38,53],[18,95],[227,-44],[20,-33]],[[2910,1054],[39,22],[106,-57],[-3,-45],[-45,16],[-12,-32],[-26,8],[16,39],[-75,49]],[[0,3585],[0,19],[120,13],[320,76],[68,-10],[48,-19],[-36,-46],[62,-86],[23,-215],[90,-92],[126,-65],[56,30],[12,93],[38,25],[104,-17],[34,22],[20,-53],[81,-11],[51,-47],[17,31],[87,-15],[-19,32],[20,7],[-104,76],[-90,18],[-3,62],[-34,13],[-66,-89],[-65,51],[-111,-31],[-135,32],[-97,72],[20,66],[-46,114],[438,8],[2,-22],[-51,-19],[-9,-92],[22,-72],[91,-4],[56,49],[76,-61],[10,41],[30,-5],[-3,28],[89,-42],[11,-33],[-24,-34],[82,-23],[28,38],[31,-16],[28,53],[39,11],[57,101],[125,41],[-3,31],[-62,45],[-11,40],[-67,5],[-13,31],[-30,-44],[-51,21],[-53,-54],[-45,27],[-45,-6],[67,-120],[-97,63],[-9,32],[-111,-10],[1,44],[381,81],[76,-19],[79,14],[92,-42],[76,-85],[91,-24],[35,-75],[31,-16],[13,16],[6,1],[-19,-19],[39,-11],[-28,-45],[-78,1],[-43,-33],[-32,-62],[2,-65],[-51,-25],[15,-73],[17,34],[36,-12],[130,39],[24,80],[26,-18],[-11,-37],[33,-7],[-20,-27],[8,-105],[-25,-23],[6,-44],[-63,-33],[-14,-47],[-173,-100],[-40,-53],[-50,-19],[-20,-63],[-77,-49],[-77,96],[65,-8],[62,49],[-82,39],[-71,118],[-76,-17],[-69,37],[8,-50],[-26,-25],[-58,35],[-63,-15],[-41,58],[22,-125],[-32,-33],[282,-45],[72,-93],[-126,-32],[-114,-76],[-156,-33],[-146,-88],[-28,-118],[37,-7],[0,-23],[70,-4],[21,-28],[51,55],[49,-2],[-22,-83],[24,-154],[-93,-20],[-42,72],[-62,-19],[-51,16],[-127,66],[-56,74],[-11,61],[45,-3],[22,79],[-8,156],[-68,27],[4,96],[83,63],[-71,5],[-6,51],[-45,0],[-8,37],[76,7],[-49,28],[101,-2],[-33,48],[48,63],[-226,-119],[55,-41],[43,-74],[-53,23],[-105,-34],[-118,22],[-68,-27],[79,-123],[-27,-85],[-180,91],[17,27],[45,-24],[44,14],[-21,12],[26,31],[-58,35],[12,39],[-51,2],[-57,-37],[42,-35],[-32,-52],[-81,77],[-6,18],[38,16],[37,-21],[-11,47],[68,36],[39,-15],[21,60],[26,4],[-16,50],[-45,8],[-15,-26],[-97,48],[-42,-44],[-64,100],[-5,147],[-73,5],[-2,34],[-26,16],[0,50],[14,0],[-5,33],[41,31],[4,-18],[44,8],[26,-134],[131,-102],[33,3],[17,87],[-86,77],[38,21],[-58,59],[34,27],[13,-53],[52,-32],[-52,-25],[36,-8],[49,-71],[65,2],[-32,36],[44,-2],[37,47],[-60,29],[5,62],[-59,11],[-21,55],[90,-53],[9,15],[37,-43],[47,61],[-1,122],[-24,31],[-32,-2],[-38,60],[-69,-7],[-73,-87],[-88,-4],[-134,-91],[87,150],[-121,-26]]]}