{"objects":{"water":{"type":"GeometryCollection","geometries":[{"type":"MultiPolygon","properties":{"source":"naturalearthdata.com","kind":"ocean","area":1576712559132672,"sort_rank":200,"min_zoom":0.0,"id":1},"arcs":[[[65]],[[66]]]},{"type":"MultiLineString","properties":{"source":"naturalearthdata.com","kind":"ocean","sort_rank":205,"boundary":true,"min_zoom":0.0,"id":19},"arcs":[[67],[68]]}]},"buildings":{"type":"GeometryCollection","geometries":[]},"places":{"type":"GeometryCollection","geometries":[{"type":"Point","properties":{"kind":"region","name":"Basilicata","short_name":"BAS","kind_detail":"state","name:eo":"Basilikato","name:de":"Basilikata","source":"openstreetmap.org","min_zoom":4.0,"name:fr":"Basilicate","name:uk":"\u0411\u0430\u0437\u0438\u043b\u0456\u043a\u0430\u0442\u0430","name:be":"\u0411\u0430\u0437\u0456\u043b\u0456\u043a\u0430\u0442\u0430","name:ru":"\u0411\u0430\u0437\u0438\u043b\u0438\u043a\u0430\u0442\u0430","id":1781917314,"population":587517},"coordinates":[1786,2261]},{"type":"Point","properties":{"kind":"locality","name":"Altamura","kind_detail":"town","source":"openstreetmap.org","min_zoom":8.0,"name:ru":"\u0410\u043b\u044c\u0442\u0430\u043c\u0443\u0440\u0430","id":68528719,"population":70396},"coordinates":[3156,3516]},{"type":"Point","properties":{"name:el":"\u03a0\u03bf\u03c4\u03ad\u03bd\u03c4\u03c3\u03b1","kind":"locality","name":"Potenza","name:fa":"\u067e\u0648\u062a\u0646\u0632\u0627","kind_detail":"city","name:ar":"\u0628\u0648\u062a\u0646\u0633\u0627","source":"openstreetmap.org","min_zoom":8.0,"name:uk":"\u041f\u043e\u0442\u0435\u043d\u0446\u0430","name:ru":"\u041f\u043e\u0442\u0435\u043d\u0446\u0430","name:zh":"\u6ce2\u5766\u5bdf","id":67280322,"population":67122},"coordinates":[971,2789]},{"type":"Point","properties":{"name:el":"\u039c\u03b1\u03c4\u03ad\u03c1\u03b1","kind":"locality","name":"Matera","kind_detail":"city","source":"openstreetmap.org","min_zoom":8.0,"name:ru":"\u041c\u0430\u0442\u0435\u0440\u0430","name:zh":"\u9a6c\u6cf0\u62c9","id":67280326,"population":60436},"coordinates":[3300,2904]},{"type":"Point","properties":{"kind":"locality","name":"Gravina in Puglia","kind_detail":"town","source":"openstreetmap.org","min_zoom":8.0,"name:ru":"\u0413\u0440\u0430\u0432\u0438\u043d\u0430-\u0438\u043d-\u041f\u0443\u043b\u044c\u044f","id":68528748,"population":43872},"coordinates":[2779,3483]},{"type":"Point","properties":{"source":"openstreetmap.org","kind":"locality","name":"Santeramo in Colle","kind_detail":"town","population":26734,"min_zoom":8.0,"id":68528704},"coordinates":[3747,3381]},{"type":"Point","properties":{"source":"openstreetmap.org","kind":"locality","name":"Ginosa","kind_detail":"town","population":22632,"min_zoom":8.0,"id":68529980},"coordinates":[3750,2566]},{"type":"Point","properties":{"source":"openstreetmap.org","kind":"locality","name":"Acquaviva delle Fonti","kind_detail":"town","population":20799,"min_zoom":8.0,"id":68528711},"coordinates":[4001,3782]},{"type":"Point","properties":{"source":"openstreetmap.org","kind":"locality","name":"Pisticci","kind_detail":"town","population":17768,"min_zoom":8.0,"id":67280360},"coordinates":[3169,1840]},{"type":"Point","properties":{"source":"openstreetmap.org","kind":"locality","name":"Policoro","kind_detail":"town","population":17313,"min_zoom":8.0,"id":67280416},"coordinates":[3517,1151]},{"type":"Point","properties":{"source":"openstreetmap.org","kind":"locality","name":"Laterza","kind_detail":"town","population":15290,"min_zoom":8.0,"id":68530104},"coordinates":[3877,2755]},{"type":"Point","properties":{"source":"openstreetmap.org","kind":"locality","name":"Cassano delle Murge","kind_detail":"town","population":14732,"min_zoom":8.0,"id":347423687},"coordinates":[3786,3756]},{"type":"Point","properties":{"source":"openstreetmap.org","kind":"locality","name":"Rionero in Vulture","kind_detail":"town","population":13230,"min_zoom":8.0,"id":67281259},"coordinates":[586,3889]},{"type":"Point","properties":{"source":"openstreetmap.org","kind":"locality","name":"Lauria","kind_detail":"town","population":12919,"min_zoom":8.0,"id":67280671},"coordinates":[1071,527]},{"type":"Point","properties":{"source":"openstreetmap.org","kind":"locality","name":"Sala Consilina","kind_detail":"town","population":12716,"min_zoom":8.0,"id":68582392},"coordinates":[372,1870]},{"type":"Point","properties":{"source":"openstreetmap.org","kind":"locality","name":"Bernalda","kind_detail":"town","population":12453,"min_zoom":8.0,"id":67280332},"coordinates":[3563,1926]},{"type":"Point","properties":{"source":"openstreetmap.org","kind":"locality","name":"Venosa","kind_detail":"town","population":11863,"min_zoom":8.0,"id":67280889},"coordinates":[1008,4025]},{"type":"Point","properties":{"source":"openstreetmap.org","kind":"locality","name":"Avigliano","kind_detail":"town","population":11577,"min_zoom":8.0,"id":67280519},"coordinates":[733,3138]},{"type":"Point","properties":{"source":"openstreetmap.org","kind":"locality","name":"Sapri","kind_detail":"town","population":7022,"min_zoom":8.0,"id":68581508},"coordinates":[469,633]},{"type":"Point","properties":{"source":"openstreetmap.org","kind":"locality","name":"Spinazzola","kind_detail":"town","population":6584,"min_zoom":8.0,"id":4019599023},"coordinates":[1804,4055]}]},"transit":{"type":"GeometryCollection","geometries":[{"type":"LineString","properties":{"kind":"train","network":"FAL","sort_rank":275,"source":"openstreetmap.org","min_zoom":6.0,"operator":"FAL","ref":"FAL","id":-2155723,"osm_relation":true,"name":"Matera Sud \u2192 Bari Centrale"},"arcs":[26]},{"type":"LineString","properties":{"source":"openstreetmap.org","kind":"train","name":"Ferrovia Tirrenica Meridionale - direzione sud","sort_rank":275,"min_zoom":6.0,"osm_relation":true},"arcs":[27]},{"type":"MultiLineString","properties":{"kind":"train","name":"Ferrovia Jonica","sort_rank":275,"source":"openstreetmap.org","min_zoom":6.0,"operator":"RFI","ref":"156","osm_relation":true},"arcs":[[28],[29],[30],[31],[32],[33],[34],[35],[36],[37],[38]]},{"type":"LineString","properties":{"kind":"train","network":"FAL","sort_rank":275,"source":"openstreetmap.org","min_zoom":6.0,"operator":"FAL","ref":"FAL","id":-2156759,"osm_relation":true,"name":"Gravina \u2192 Bari Centrale"},"arcs":[39]},{"type":"MultiLineString","properties":{"source":"openstreetmap.org","kind":"train","name":"Ferrovia Bari-Taranto","sort_rank":275,"min_zoom":6.0,"osm_relation":true},"arcs":[[40],[41]]},{"type":"LineString","properties":{"kind":"train","network":"FAL","sort_rank":275,"source":"openstreetmap.org","min_zoom":6.0,"operator":"FAL","ref":"FAL","id":-2155721,"osm_relation":true,"name":"Bari Centrale \u2192 Matera Sud"},"arcs":[42]},{"type":"MultiLineString","properties":{"source":"openstreetmap.org","kind":"train","name":"ferrovia Foggia - Potenza","sort_rank":275,"min_zoom":6.0,"osm_relation":true},"arcs":[[43],[44],[45],[46]]},{"type":"MultiLineString","properties":{"source":"openstreetmap.org","kind":"train","name":"Altamura - Gioia del Colle","sort_rank":275,"min_zoom":6.0,"osm_relation":true},"arcs":[[47],[48],[49]]},{"type":"LineString","properties":{"source":"openstreetmap.org","kind":"train","name":"Ferrovia Barletta-Spinazzola","sort_rank":275,"min_zoom":6.0,"osm_relation":true,"id":-5617244},"arcs":[50]},{"type":"MultiLineString","properties":{"kind":"train","name":"Bari Centrale \u2192 Potenza Inferiore Scalo","sort_rank":275,"source":"openstreetmap.org","min_zoom":6.0,"operator":"FAL","ref":"FAL","osm_relation":true,"network":"FAL"},"arcs":[[51],[52],[53],[54],[55]]},{"type":"LineString","properties":{"osm_relation":true,"source":"openstreetmap.org","kind":"train","name":"Ferrovia Tirrenica Meridionale - direzione nord","sort_rank":275,"min_zoom":6.0,"operator":"Rete Ferroviaria Italiana"},"arcs":[56]},{"type":"LineString","properties":{"source":"openstreetmap.org","kind":"train","name":"Ferrovia Battipaglia-Potenza","sort_rank":275,"ref":"124","min_zoom":6.0,"osm_relation":true},"arcs":[57]},{"type":"LineString","properties":{"kind":"train","network":"FAL","sort_rank":275,"source":"openstreetmap.org","min_zoom":6.0,"operator":"FAL","ref":"FAL","id":-2156758,"osm_relation":true,"name":"Bari Centrale \u2192 Gravina"},"arcs":[58]},{"type":"LineString","properties":{"source":"openstreetmap.org","kind":"train","name":"Ferrovia Potenza - Metaponto","sort_rank":275,"ref":"135","min_zoom":6.0,"osm_relation":true},"arcs":[59]},{"type":"MultiLineString","properties":{"kind":"train","name":"Potenza Inferiore Scalo \u2192 Bari Centrale","sort_rank":275,"source":"openstreetmap.org","min_zoom":6.0,"operator":"FAL","ref":"FAL","osm_relation":true,"network":"FAL"},"arcs":[[60],[61],[62],[63],[64]]}]},"pois":{"type":"GeometryCollection","geometries":[{"type":"Point","properties":{"kind":"national_park","tier":1,"protect_class":"2","area":1189620000,"source":"openstreetmap.org","min_zoom":5.68,"operator":"Ente Parco Nazionale dell'Appennino Lucano Val D'agri Lagonegrese","id":-6274746,"osm_relation":true,"name":"Parco Nazionale dell'Appennino Lucano"},"coordinates":[782,1634]},{"type":"Point","properties":{"kind":"nature_reserve","name":"Riserva naturale Foce Sele Tanagro","area":96777600,"source":"openstreetmap.org","min_zoom":8.99,"tier":2,"id":-4671891,"osm_relation":true},"coordinates":[69,2331]},{"type":"Point","properties":{"kind":"national_park","protect_class":"2","area":3121460000,"source":"openstreetmap.org","min_zoom":4.99,"tier":1,"id":33911573,"name":"Parco Nazionale del Pollino"},"coordinates":[1957,46]}]},"boundaries":{"type":"GeometryCollection","geometries":[{"type":"MultiLineString","properties":{"name:right:fr":"Basilicate","name:left:ar":"\u0643\u0627\u0644\u0627\u0628\u0631\u064a\u0627","name:left:pl":"Kalabria","id:left":-1783980,"short_name:left":"CAL","id:right":-40137,"name:left:pt":"Cal\u00e1bria","name:left:sl":"Kalabrija","min_zoom":8.0,"name:left:lt":"Kalabrija","name:right:sl":"Bazilikata","name:left:sk":"Kal\u00e1bria","name:left:ru":"\u041a\u0430\u043b\u0430\u0431\u0440\u0438\u044f","short_name:right":"BAS","name:right:ru":"\u0411\u0430\u0437\u0438\u043b\u0438\u043a\u0430\u0442\u0430","name:right:eo":"Basilikato","id":-1783980,"osm_relation":true,"name:right":"Basilicata","kind":"region","name:left:eo":"Kalabrio","name":"Calabria - Basilicata","sort_rank":256,"kind_detail":"4","name:left:ca":"Cal\u00e0bria","name:left:de":"Kalabrien","source":"openstreetmap.org","name:left:fr":"Calabre","name:right:de":"Basilikata","name:left:cs":"Kal\u00e1brie","name:left":"Calabria"},"arcs":[[0],[1],[2]]},{"type":"MultiLineString","properties":{"name:right:fr":"Basilicate","name:left:ar":"\u0643\u0627\u0644\u0627\u0628\u0631\u064a\u0627","name:left:pl":"Kalabria","id:left":-1783980,"short_name:left":"CAL","id:right":-40137,"name:left:pt":"Cal\u00e1bria","name:left:sl":"Kalabrija","min_zoom":8.0,"name:left:lt":"Kalabrija","name:right:sl":"Bazilikata","name:left:sk":"Kal\u00e1bria","name:left:ru":"\u041a\u0430\u043b\u0430\u0431\u0440\u0438\u044f","short_name:right":"BAS","name:right:ru":"\u0411\u0430\u0437\u0438\u043b\u0438\u043a\u0430\u0442\u0430","name:right:eo":"Basilikato","id":-1783980,"osm_relation":true,"name:right":"Basilicata","kind":"region","name:left:eo":"Kalabrio","name":"Calabria - Basilicata","sort_rank":256,"kind_detail":"4","name:left:ca":"Cal\u00e0bria","name:left:de":"Kalabrien","source":"openstreetmap.org","name:left:fr":"Calabre","name:right:de":"Basilikata","name:left:cs":"Kal\u00e1brie","name:left":"Calabria"},"arcs":[[3],[4]]},{"type":"LineString","properties":{"name:pt":"Cal\u00e1bria","name:sl":"Kalabrija","name:sk":"Kal\u00e1bria","short_name":"CAL","name:ar":"\u0643\u0627\u0644\u0627\u0628\u0631\u064a\u0627","name:cs":"Kal\u00e1brie","kind":"region","min_zoom":8.0,"name:ru":"\u041a\u0430\u043b\u0430\u0431\u0440\u0438\u044f","name:pl":"Kalabria","id":-1783980,"name:ca":"Cal\u00e0bria","name":"Calabria","name:eo":"Kalabrio","name:lt":"Kalabrija","sort_rank":256,"kind_detail":"4","name:de":"Kalabrien","source":"openstreetmap.org","name:fr":"Calabre","osm_relation":true},"arcs":[5]},{"type":"LineString","properties":{"name:pt":"Cal\u00e1bria","name:sl":"Kalabrija","name:sk":"Kal\u00e1bria","short_name":"CAL","name:ar":"\u0643\u0627\u0644\u0627\u0628\u0631\u064a\u0627","name:cs":"Kal\u00e1brie","kind":"region","min_zoom":8.0,"name:ru":"\u041a\u0430\u043b\u0430\u0431\u0440\u0438\u044f","name:pl":"Kalabria","id":-1783980,"name:ca":"Cal\u00e0bria","name":"Calabria","name:eo":"Kalabrio","name:lt":"Kalabrija","sort_rank":256,"kind_detail":"4","name:de":"Kalabrien","source":"openstreetmap.org","name:fr":"Calabre","osm_relation":true},"arcs":[6]},{"type":"MultiLineString","properties":{"name:pt":"Cal\u00e1bria","name:sl":"Kalabrija","name:sk":"Kal\u00e1bria","short_name":"CAL","name:ar":"\u0643\u0627\u0644\u0627\u0628\u0631\u064a\u0627","name:cs":"Kal\u00e1brie","name:eo":"Kalabrio","min_zoom":8.0,"name:ru":"\u041a\u0430\u043b\u0430\u0431\u0440\u0438\u044f","name:pl":"Kalabria","name:lt":"Kalabrija","id":-1783980,"name:ca":"Cal\u00e0bria","kind":"region","name":"Calabria","sort_rank":256,"kind_detail":"4","name:fr":"Calabre","name:de":"Kalabrien","source":"openstreetmap.org","maritime_boundary":true,"osm_relation":true},"arcs":[[7],[8]]},{"type":"MultiLineString","properties":{"name:right:fr":"Basilicate","name:left:pl":"Kampania","id:left":-40218,"short_name:left":"CAM","id:right":-40137,"name:left:sl":"Kampanija","min_zoom":8.0,"name:right:sl":"Bazilikata","name:left:sk":"Kamp\u00e1nia","name:left:ru":"\u041a\u0430\u043c\u043f\u0430\u043d\u0438\u044f","short_name:right":"BAS","name:right:ru":"\u0411\u0430\u0437\u0438\u043b\u0438\u043a\u0430\u0442\u0430","name:right:eo":"Basilikato","id":-40218,"osm_relation":true,"name:right":"Basilicata","kind":"region","name":"Campania - Basilicata","sort_rank":256,"kind_detail":"4","name:left:ca":"Camp\u00e0nia","name:left:de":"Kampanien","source":"openstreetmap.org","name:left:fr":"Campanie","name:right:de":"Basilikata","name:left:cs":"Kamp\u00e1nie","name:left":"Campania"},"arcs":[[9],[10],[11],[12]]},{"type":"LineString","properties":{"name:sl":"Kampanija","name:sk":"Kamp\u00e1nia","short_name":"CAM","name:cs":"Kamp\u00e1nie","min_zoom":8.0,"name:ru":"\u041a\u0430\u043c\u043f\u0430\u043d\u0438\u044f","name:pl":"Kampania","id":-40218,"osm_relation":true,"kind":"region","name":"Campania","sort_rank":256,"kind_detail":"4","name:de":"Kampanien","source":"openstreetmap.org","name:fr":"Campanie","name:ca":"Camp\u00e0nia"},"arcs":[13]},{"type":"LineString","properties":{"name:sl":"Kampanija","name:sk":"Kamp\u00e1nia","short_name":"CAM","name:cs":"Kamp\u00e1nie","min_zoom":8.0,"name:ru":"\u041a\u0430\u043c\u043f\u0430\u043d\u0438\u044f","name:pl":"Kampania","id":-40218,"osm_relation":true,"kind":"region","name":"Campania","sort_rank":256,"kind_detail":"4","name:fr":"Campanie","name:de":"Kampanien","source":"openstreetmap.org","maritime_boundary":true,"name:ca":"Camp\u00e0nia"},"arcs":[14]},{"type":"LineString","properties":{"name:right:fr":"Pouilles","name:right:la":"Apulia","id:right":-40095,"name:left:sl":"Bazilikata","name:right:sk":"Ap\u00falia","name:right:sl":"Apulija","name:right:eo":"Apulio","id":-40137,"name:right":"Puglia","short_name:left":"BAS","name:left:eo":"Basilikato","name:right:ca":"Pulla","kind_detail":"4","source":"openstreetmap.org","id:left":-40137,"name:right:cs":"Apulie","name:right:fi":"Apulia","name:left":"Basilicata","name:right:es":"Apulia","name:right:pt":"Ap\u00falia","name:right:ru":"\u0410\u043f\u0443\u043b\u0438\u044f","name:left:ru":"\u0411\u0430\u0437\u0438\u043b\u0438\u043a\u0430\u0442\u0430","short_name:right":"PUG","min_zoom":8.0,"name:right:pl":"Apulia","name:right:en":"Apulia","osm_relation":true,"kind":"region","name":"Basilicata - Puglia","name:right:de":"Apulien","name:left:de":"Basilikata","sort_rank":256,"name:left:fr":"Basilicate"},"arcs":[15]},{"type":"LineString","properties":{"name:right:fr":"Pouilles","name:right:la":"Apulia","id:right":-40095,"name:left:sl":"Bazilikata","name:right:sk":"Ap\u00falia","name:right:sl":"Apulija","name:right:eo":"Apulio","id":-40137,"name:right":"Puglia","short_name:left":"BAS","name:left:eo":"Basilikato","name:right:ca":"Pulla","kind_detail":"4","source":"openstreetmap.org","id:left":-40137,"name:right:cs":"Apulie","name:right:fi":"Apulia","name:left":"Basilicata","name:right:es":"Apulia","name:right:pt":"Ap\u00falia","name:right:ru":"\u0410\u043f\u0443\u043b\u0438\u044f","name:left:ru":"\u0411\u0430\u0437\u0438\u043b\u0438\u043a\u0430\u0442\u0430","short_name:right":"PUG","min_zoom":8.0,"name:right:pl":"Apulia","name:right:en":"Apulia","osm_relation":true,"kind":"region","name":"Basilicata - Puglia","name:right:de":"Apulien","name:left:de":"Basilikata","sort_rank":256,"name:left:fr":"Basilicate"},"arcs":[16]},{"type":"MultiLineString","properties":{"kind":"region","name:sl":"Bazilikata","name":"Basilicata","short_name":"BAS","sort_rank":256,"kind_detail":"4","name:eo":"Basilikato","name:de":"Basilikata","source":"openstreetmap.org","name:fr":"Basilicate","name:ru":"\u0411\u0430\u0437\u0438\u043b\u0438\u043a\u0430\u0442\u0430","min_zoom":8.0,"id":-40137,"osm_relation":true},"arcs":[[17],[18]]},{"type":"MultiLineString","properties":{"kind":"region","name:sl":"Bazilikata","name":"Basilicata","short_name":"BAS","sort_rank":256,"kind_detail":"4","name:eo":"Basilikato","name:de":"Basilikata","source":"openstreetmap.org","name:fr":"Basilicate","name:ru":"\u0411\u0430\u0437\u0438\u043b\u0438\u043a\u0430\u0442\u0430","min_zoom":8.0,"id":-40137,"osm_relation":true},"arcs":[[19],[20]]},{"type":"MultiLineString","properties":{"kind":"region","name:sl":"Bazilikata","name":"Basilicata","short_name":"BAS","sort_rank":256,"kind_detail":"4","name:eo":"Basilikato","name:de":"Basilikata","source":"openstreetmap.org","maritime_boundary":true,"name:fr":"Basilicate","name:ru":"\u0411\u0430\u0437\u0438\u043b\u0438\u043a\u0430\u0442\u0430","min_zoom":8.0,"id":-40137,"osm_relation":true},"arcs":[[21],[22]]},{"type":"MultiLineString","properties":{"name:pt":"Ap\u00falia","name:sl":"Apulija","name:sk":"Ap\u00falia","short_name":"PUG","name:cs":"Apulie","kind":"region","min_zoom":8.0,"name:la":"Apulia","name:ru":"\u0410\u043f\u0443\u043b\u0438\u044f","name:pl":"Apulia","id":-40095,"name:ca":"Pulla","name:eo":"Apulio","name:en":"Apulia","name":"Puglia","sort_rank":256,"kind_detail":"4","name:de":"Apulien","source":"openstreetmap.org","name:fr":"Pouilles","osm_relation":true,"name:fi":"Apulia","name:es":"Apulia"},"arcs":[[23],[24]]},{"type":"LineString","properties":{"name:pt":"Ap\u00falia","name:sl":"Apulija","name:sk":"Ap\u00falia","short_name":"PUG","name:cs":"Apulie","name:eo":"Apulio","min_zoom":8.0,"name:la":"Apulia","name:ru":"\u0410\u043f\u0443\u043b\u0438\u044f","name:pl":"Apulia","id":-40095,"name:ca":"Pulla","kind":"region","name:en":"Apulia","name":"Puglia","sort_rank":256,"kind_detail":"4","name:fr":"Pouilles","name:de":"Apulien","source":"openstreetmap.org","maritime_boundary":true,"osm_relation":true,"name:fi":"Apulia","name:es":"Apulia"},"arcs":[25]}]},"roads":{"type":"GeometryCollection","geometries":[{"type":"LineString","properties":{"source":"openstreetmap.org","kind":"major_road","landuse_kind":"nature_reserve","sort_rank":380,"kind_detail":"primary","ref":"SS166","min_zoom":8.0},"arcs":[69]},{"type":"MultiLineString","properties":{"source":"openstreetmap.org","kind":"major_road","sort_rank":380,"kind_detail":"primary","ref":"SS96","min_zoom":8.0},"arcs":[[70],[71],[72],[73],[74],[75]]},{"type":"LineString","properties":{"source":"openstreetmap.org","kind":"major_road","sort_rank":381,"kind_detail":"trunk","ref":"SS99","min_zoom":8.0},"arcs":[76]},{"type":"MultiLineString","properties":{"kind":"major_road","network":null,"sort_rank":380,"kind_detail":"primary","source":"openstreetmap.org","min_zoom":8.0,"shield_text":"93","ref":"SS93"},"arcs":[[77],[78]]},{"type":"MultiLineString","properties":{"source":"openstreetmap.org","kind":"major_road","sort_rank":380,"kind_detail":"primary","ref":"Var SS517","min_zoom":8.0},"arcs":[[79],[80]]},{"type":"LineString","properties":{"source":"openstreetmap.org","kind":"major_road","sort_rank":380,"kind_detail":"primary","ref":"SS103","min_zoom":8.0},"arcs":[81]},{"type":"MultiLineString","properties":{"bus_network":"Co.Tr.A.B.","network":"e-road","sort_rank":381,"landuse_kind":"urban_area","kind":"major_road","source":"openstreetmap.org","min_zoom":8.0,"bus_shield_text":"6","shield_text":"847","kind_detail":"trunk","ref":"SS407"},"arcs":[[82],[83]]},{"type":"MultiLineString","properties":{"bus_network":"Miccolis","network":null,"sort_rank":381,"kind_detail":"trunk","is_bicycle_related":true,"kind":"major_road","source":"openstreetmap.org","min_zoom":8.0,"bus_shield_text":"7","shield_text":"99","ref":"SS99"},"arcs":[[84],[85],[86]]},{"type":"LineString","properties":{"source":"openstreetmap.org","kind":"major_road","sort_rank":380,"kind_detail":"primary","ref":"SPEXSS380","min_zoom":8.0,"id":34157761},"arcs":[87]},{"type":"MultiLineString","properties":{"source":"openstreetmap.org","kind":"major_road","landuse_kind":"national_park","sort_rank":380,"kind_detail":"primary","ref":"SS598","min_zoom":8.0},"arcs":[[88],[89],[90],[91],[92],[93]]},{"type":"MultiLineString","properties":{"sort_rank":380,"kind_detail":"primary","min_zoom":8.0,"kind":"major_road","source":"openstreetmap.org"},"arcs":[[94],[95],[96],[97],[98],[99],[100],[101],[102],[103],[104],[105],[106],[107],[108],[109],[110],[111],[112],[113],[114],[115],[116],[117],[118],[119],[120],[121],[122],[123],[124],[125],[126],[127],[128],[129],[130],[131],[132],[133],[134],[135],[136],[137]]},{"type":"MultiLineString","properties":{"source":"openstreetmap.org","kind":"major_road","landuse_kind":"national_park","sort_rank":380,"kind_detail":"primary","min_zoom":8.0},"arcs":[[138],[139]]},{"type":"MultiLineString","properties":{"source":"openstreetmap.org","kind":"major_road","landuse_kind":"urban_area","sort_rank":380,"kind_detail":"primary","ref":"SS96","min_zoom":8.0},"arcs":[[140],[141],[142]]},{"type":"MultiLineString","properties":{"source":"openstreetmap.org","kind":"major_road","sort_rank":380,"kind_detail":"primary","ref":"SS585","min_zoom":8.0},"arcs":[[143],[144],[145]]},{"type":"MultiLineString","properties":{"source":"openstreetmap.org","kind":"major_road","sort_rank":380,"kind_detail":"primary","ref":"SS175","min_zoom":8.0},"arcs":[[146],[147],[148],[149],[150],[151],[152],[153],[154],[155],[156]]},{"type":"LineString","properties":{"kind":"major_road","network":null,"sort_rank":381,"landuse_kind":"urban_area","source":"openstreetmap.org","min_zoom":8.0,"kind_detail":"trunk","shield_text":"99"},"arcs":[157]},{"type":"MultiLineString","properties":{"bus_network":null,"sort_rank":380,"kind_detail":"primary","kind":"major_road","source":"openstreetmap.org","min_zoom":8.0,"bus_shield_text":"Lamanna","ref":"NSA 161"},"arcs":[[158],[159],[160],[161]]},{"type":"MultiLineString","properties":{"source":"openstreetmap.org","kind":"major_road","sort_rank":380,"kind_detail":"primary","ref":"SS653","min_zoom":8.0},"arcs":[[162],[163]]},{"type":"LineString","properties":{"bus_network":null,"network":null,"sort_rank":380,"kind_detail":"primary","kind":"major_road","source":"openstreetmap.org","min_zoom":8.0,"bus_shield_text":"Lettieri","shield_text":"18","ref":"SS18"},"arcs":[164]},{"type":"LineString","properties":{"source":"openstreetmap.org","kind":"major_road","sort_rank":381,"kind_detail":"trunk","ref":"SS7Racc","min_zoom":8.0},"arcs":[165]},{"type":"MultiLineString","properties":{"source":"openstreetmap.org","kind":"major_road","sort_rank":380,"kind_detail":"primary","ref":"SP138","min_zoom":8.0},"arcs":[[166],[167],[168]]},{"type":"MultiLineString","properties":{"kind":"major_road","network":"e-road","sort_rank":381,"kind_detail":"trunk","source":"openstreetmap.org","min_zoom":8.0,"shield_text":"90","ref":"SS106"},"arcs":[[169],[170],[171],[172],[173]]},{"type":"LineString","properties":{"bus_network":"Co.Tr.A.B.","sort_rank":380,"kind_detail":"primary","kind":"major_road","source":"openstreetmap.org","min_zoom":8.0,"bus_shield_text":"6","landuse_kind":"urban_area","ref":"SP1"},"arcs":[174]},{"type":"MultiLineString","properties":{"source":"openstreetmap.org","kind":"major_road","landuse_kind":"national_park","sort_rank":380,"kind_detail":"primary","ref":"SS92","min_zoom":8.0},"arcs":[[175],[176],[177],[178],[179]]},{"type":"LineString","properties":{"bus_network":"Miccolis","network":null,"sort_rank":380,"kind_detail":"primary","kind":"major_road","source":"openstreetmap.org","min_zoom":8.0,"bus_shield_text":"5","shield_text":"7","landuse_kind":"urban_area","ref":"SS7"},"arcs":[180]},{"type":"MultiLineString","properties":{"kind":"highway","network":"e-road","sort_rank":383,"landuse_kind":"national_park","source":"openstreetmap.org","min_zoom":8.0,"all_networks":["e-road","IT:A-road"],"kind_detail":"motorway","shield_text":"45","ref":"A2","all_shield_texts":["45","2"]},"arcs":[[181],[182],[183],[184],[185],[186]]},{"type":"LineString","properties":{"kind":"major_road","network":null,"sort_rank":381,"kind_detail":"trunk","source":"openstreetmap.org","min_zoom":8.0,"shield_text":"7","ref":"SS7"},"arcs":[187]},{"type":"LineString","properties":{"source":"openstreetmap.org","kind":"major_road","old_name":"Strada statale 380 dei Tre Confini","sort_rank":380,"kind_detail":"primary","ref":"SPEXSS380","min_zoom":8.0},"arcs":[188]},{"type":"LineString","properties":{"kind":"major_road","network":null,"sort_rank":380,"kind_detail":"primary","source":"openstreetmap.org","min_zoom":8.0,"landuse_kind":"urban_area","shield_text":"658","ref":"SS658"},"arcs":[189]},{"type":"MultiLineString","properties":{"kind":"major_road","network":null,"sort_rank":381,"kind_detail":"trunk","is_bicycle_related":true,"source":"openstreetmap.org","min_zoom":8.0,"shield_text":"99","ref":"SS99"},"arcs":[[190],[191],[192],[193]]},{"type":"MultiLineString","properties":{"source":"openstreetmap.org","kind":"major_road","sort_rank":381,"kind_detail":"trunk","ref":"SS407","min_zoom":8.0},"arcs":[[194],[195]]},{"type":"MultiLineString","properties":{"source":"openstreetmap.org","kind":"major_road","landuse_kind":"urban_area","sort_rank":380,"kind_detail":"primary","ref":"SS92","min_zoom":8.0},"arcs":[[196],[197]]},{"type":"MultiLineString","properties":{"kind":"highway","network":"e-road","sort_rank":383,"landuse_kind":"urban_area","source":"openstreetmap.org","min_zoom":8.0,"all_networks":["e-road"],"kind_detail":"motorway","shield_text":"847","ref":"RA5","all_shield_texts":["847"]},"arcs":[[198],[199]]},{"type":"LineString","properties":{"source":"openstreetmap.org","kind":"ferry","name":"Salerno-Sapri","sort_rank":355,"min_zoom":8.0,"id":102697467},"arcs":[200]},{"type":"LineString","properties":{"kind":"major_road","network":null,"sort_rank":380,"kind_detail":"primary","bus_network":null,"source":"openstreetmap.org","min_zoom":8.0,"bus_shield_text":"Lamanna","shield_text":"18","ref":"SS18","id":131482913},"arcs":[201]},{"type":"LineString","properties":{"bus_network":"Co.Tr.A.B.","sort_rank":380,"kind_detail":"primary","kind":"major_road","source":"openstreetmap.org","min_zoom":8.0,"bus_shield_text":"6","landuse_kind":"urban_area"},"arcs":[202]},{"type":"LineString","properties":{"source":"openstreetmap.org","kind":"major_road","sort_rank":380,"kind_detail":"primary","ref":"SP65","min_zoom":8.0},"arcs":[203]},{"type":"LineString","properties":{"bus_network":"Miccolis","sort_rank":380,"kind_detail":"primary","kind":"major_road","source":"openstreetmap.org","min_zoom":8.0,"bus_shield_text":"5","landuse_kind":"urban_area"},"arcs":[204]},{"type":"MultiLineString","properties":{"kind":"major_road","network":null,"sort_rank":380,"kind_detail":"primary","source":"openstreetmap.org","min_zoom":8.0,"landuse_kind":"urban_area","shield_text":"93","ref":"SS93"},"arcs":[[205],[206]]},{"type":"MultiLineString","properties":{"bus_network":"Miccolis","network":null,"sort_rank":381,"kind_detail":"trunk","is_bicycle_related":true,"kind":"major_road","source":"openstreetmap.org","min_zoom":8.0,"bus_shield_text":"7","shield_text":"99","landuse_kind":"urban_area","ref":"SS99"},"arcs":[[207],[208],[209],[210],[211]]},{"type":"LineString","properties":{"kind":"major_road","network":null,"sort_rank":380,"kind_detail":"primary","bus_network":null,"source":"openstreetmap.org","min_zoom":8.0,"bus_shield_text":"Curcio","shield_text":"18","ref":"SS18 Tirrena Inferiore","id":130634524},"arcs":[212]},{"type":"MultiLineString","properties":{"source":"openstreetmap.org","kind":"major_road","sort_rank":380,"kind_detail":"primary","ref":"SS655","min_zoom":8.0},"arcs":[[213],[214],[215]]},{"type":"LineString","properties":{"source":"openstreetmap.org","kind":"major_road","sort_rank":380,"kind_detail":"primary","ref":"SS94dir","min_zoom":8.0,"id":377069874},"arcs":[216]},{"type":"LineString","properties":{"kind":"major_road","network":"e-road","sort_rank":380,"kind_detail":"primary","source":"openstreetmap.org","min_zoom":8.0,"shield_text":"90","ref":"SS106"},"arcs":[217]},{"type":"LineString","properties":{"bus_network":"Miccolis","network":null,"sort_rank":381,"landuse_kind":"urban_area","kind":"major_road","source":"openstreetmap.org","min_zoom":8.0,"bus_shield_text":"7","shield_text":"99","kind_detail":"trunk"},"arcs":[218]},{"type":"MultiLineString","properties":{"bus_network":null,"sort_rank":380,"kind_detail":"primary","kind":"major_road","source":"openstreetmap.org","min_zoom":8.0,"bus_shield_text":"Curcio","ref":"SS18"},"arcs":[[219],[220]]},{"type":"MultiLineString","properties":{"source":"openstreetmap.org","kind":"major_road","landuse_kind":"urban_area","sort_rank":380,"kind_detail":"primary","ref":"SP235","min_zoom":8.0},"arcs":[[221],[222],[223]]},{"type":"LineString","properties":{"kind":"major_road","network":null,"sort_rank":380,"kind_detail":"primary","source":"openstreetmap.org","min_zoom":8.0,"shield_text":"401","ref":"SS401"},"arcs":[224]},{"type":"LineString","properties":{"source":"openstreetmap.org","kind":"major_road","sort_rank":380,"kind_detail":"primary","ref":"SP25","min_zoom":8.0},"arcs":[225]},{"type":"MultiLineString","properties":{"kind":"highway","network":"e-road","sort_rank":383,"kind_detail":"motorway","source":"openstreetmap.org","min_zoom":8.0,"all_networks":["e-road","IT:A-road"],"shield_text":"45","ref":"A2","all_shield_texts":["45","2"]},"arcs":[[226],[227],[228],[229],[230],[231],[232],[233],[234],[235],[236],[237],[238]]},{"type":"LineString","properties":{"source":"openstreetmap.org","kind":"major_road","sort_rank":380,"kind_detail":"primary","ref":"SP21","min_zoom":8.0,"id":376838650},"arcs":[239]},{"type":"MultiLineString","properties":{"source":"openstreetmap.org","kind":"major_road","landuse_kind":"nature_reserve","sort_rank":380,"kind_detail":"primary","ref":"SS19","min_zoom":8.0},"arcs":[[240],[241]]},{"type":"MultiLineString","properties":{"source":"openstreetmap.org","kind":"major_road","sort_rank":380,"kind_detail":"primary","ref":"SS18","min_zoom":8.0},"arcs":[[242],[243]]},{"type":"MultiLineString","properties":{"bus_network":"Miccolis","network":null,"sort_rank":381,"kind_detail":"trunk","kind":"major_road","source":"openstreetmap.org","min_zoom":8.0,"bus_shield_text":"7","shield_text":"99","landuse_kind":"urban_area","ref":"SS99"},"arcs":[[244],[245],[246],[247],[248]]},{"type":"MultiLineString","properties":{"kind":"major_road","network":null,"sort_rank":380,"kind_detail":"primary","source":"openstreetmap.org","min_zoom":8.0,"shield_text":"18","ref":"SS18"},"arcs":[[249],[250],[251],[252],[253],[254],[255]]},{"type":"MultiLineString","properties":{"source":"openstreetmap.org","kind":"major_road","landuse_kind":"nature_reserve","sort_rank":380,"kind_detail":"primary","min_zoom":8.0},"arcs":[[256],[257],[258]]},{"type":"MultiLineString","properties":{"kind":"highway","network":"e-road","sort_rank":383,"kind_detail":"motorway","source":"openstreetmap.org","min_zoom":8.0,"all_networks":["e-road"],"shield_text":"847","ref":"RA5","all_shield_texts":["847"]},"arcs":[[259],[260],[261],[262],[263],[264]]},{"type":"MultiLineString","properties":{"kind":"major_road","network":null,"sort_rank":380,"kind_detail":"primary","source":"openstreetmap.org","min_zoom":8.0,"shield_text":"95","ref":"SS95 Var"},"arcs":[[265],[266]]},{"type":"MultiLineString","properties":{"bus_network":"Miccolis","network":null,"sort_rank":381,"kind_detail":"trunk","kind":"major_road","source":"openstreetmap.org","min_zoom":8.0,"bus_shield_text":"7","shield_text":"99","ref":"SS99"},"arcs":[[267],[268]]},{"type":"MultiLineString","properties":{"kind":"highway","network":"e-road","sort_rank":383,"landuse_kind":"urban_area","source":"openstreetmap.org","min_zoom":8.0,"all_networks":["e-road",null],"kind_detail":"motorway","shield_text":"843","ref":"A14","all_shield_texts":["843","14"]},"arcs":[[269],[270]]},{"type":"LineString","properties":{"bus_network":"miccolis","network":null,"sort_rank":380,"kind_detail":"primary","kind":"major_road","source":"openstreetmap.org","min_zoom":8.0,"bus_shield_text":"5","shield_text":"7","landuse_kind":"urban_area","ref":"SS7"},"arcs":[271]},{"type":"LineString","properties":{"source":"openstreetmap.org","kind":"major_road","sort_rank":380,"kind_detail":"primary","ref":"SP ex SS7","min_zoom":8.0},"arcs":[272]},{"type":"MultiLineString","properties":{"sort_rank":381,"source":"openstreetmap.org","min_zoom":8.0,"kind":"major_road","kind_detail":"trunk"},"arcs":[[273],[274],[275],[276],[277],[278],[279],[280],[281],[282],[283],[284],[285],[286]]},{"type":"MultiLineString","properties":{"kind":"major_road","network":null,"sort_rank":380,"kind_detail":"primary","source":"openstreetmap.org","min_zoom":8.0,"landuse_kind":"national_park","shield_text":"598","ref":"SS598"},"arcs":[[287],[288],[289]]},{"type":"LineString","properties":{"kind":"major_road","network":null,"sort_rank":380,"kind_detail":"primary","source":"openstreetmap.org","min_zoom":8.0,"landuse_kind":"national_park","shield_text":"95","ref":"SS95 Var"},"arcs":[290]},{"type":"MultiLineString","properties":{"kind":"major_road","network":null,"sort_rank":380,"kind_detail":"primary","source":"openstreetmap.org","min_zoom":8.0,"shield_text":"95","ref":"SS95"},"arcs":[[291],[292]]},{"type":"MultiLineString","properties":{"kind":"highway","network":"e-road","sort_rank":383,"landuse_kind":"nature_reserve","source":"openstreetmap.org","min_zoom":8.0,"all_networks":["e-road","IT:A-road"],"kind_detail":"motorway","shield_text":"45","ref":"A2","all_shield_texts":["45","2"]},"arcs":[[293],[294],[295],[296],[297]]},{"type":"LineString","properties":{"kind":"major_road","network":null,"sort_rank":380,"kind_detail":"primary","source":"openstreetmap.org","min_zoom":8.0,"landuse_kind":"urban_area","shield_text":"169","ref":"SS169","id":528019741},"arcs":[298]},{"type":"MultiLineString","properties":{"source":"openstreetmap.org","kind":"major_road","sort_rank":380,"kind_detail":"primary","ref":"SS598","min_zoom":8.0},"arcs":[[299],[300],[301],[302],[303],[304],[305]]},{"type":"MultiLineString","properties":{"kind":"major_road","network":null,"sort_rank":380,"kind_detail":"primary","source":"openstreetmap.org","min_zoom":8.0,"landuse_kind":"national_park","shield_text":"653","ref":"SS653"},"arcs":[[306],[307],[308],[309],[310]]},{"type":"MultiLineString","properties":{"kind":"major_road","network":null,"sort_rank":380,"kind_detail":"primary","source":"openstreetmap.org","min_zoom":8.0,"shield_text":"598","ref":"SS598"},"arcs":[[311],[312],[313]]},{"type":"MultiLineString","properties":{"kind":"major_road","network":"e-road","sort_rank":381,"kind_detail":"trunk","source":"openstreetmap.org","min_zoom":8.0,"shield_text":"847","ref":"SS407"},"arcs":[[314],[315],[316],[317],[318],[319],[320],[321],[322],[323],[324]]},{"type":"LineString","properties":{"kind":"highway","int_name":"E45","network":"e-road","sort_rank":383,"kind_detail":"motorway","source":"openstreetmap.org","min_zoom":8.0,"all_networks":["e-road","IT:A-road"],"shield_text":"45","ref":"A2","all_shield_texts":["45","2"]},"arcs":[325]},{"type":"MultiLineString","properties":{"source":"openstreetmap.org","kind":"major_road","kind_detail":"trunk","sort_rank":381,"landuse_kind":"urban_area","min_zoom":8.0},"arcs":[[326],[327],[328]]},{"type":"LineString","properties":{"kind":"major_road","network":null,"sort_rank":380,"kind_detail":"primary","bus_network":"Miccolis","source":"openstreetmap.org","min_zoom":8.0,"bus_shield_text":"7","shield_text":"99","landuse_kind":"urban_area","ref":"SS99","id":288082469},"arcs":[329]},{"type":"MultiLineString","properties":{"source":"openstreetmap.org","kind":"major_road","sort_rank":380,"kind_detail":"primary","ref":"SS19","min_zoom":8.0},"arcs":[[330],[331],[332],[333],[334],[335],[336],[337],[338]]},{"type":"LineString","properties":{"kind":"major_road","network":null,"sort_rank":380,"kind_detail":"primary","source":"openstreetmap.org","min_zoom":8.0,"shield_text":"401dir","ref":"SS401dir","id":36961587},"arcs":[339]},{"type":"MultiLineString","properties":{"bus_network":null,"network":null,"sort_rank":380,"kind_detail":"primary","kind":"major_road","source":"openstreetmap.org","min_zoom":8.0,"bus_shield_text":"Curcio","shield_text":"18","ref":"SS18"},"arcs":[[340],[341],[342],[343]]},{"type":"LineString","properties":{"source":"openstreetmap.org","bus_network":null,"bus_shield_text":"Lamanna","sort_rank":380,"kind_detail":"primary","min_zoom":8.0,"kind":"major_road"},"arcs":[344]},{"type":"MultiLineString","properties":{"kind":"highway","network":"e-road","sort_rank":383,"kind_detail":"motorway","source":"openstreetmap.org","min_zoom":8.0,"all_networks":["e-road",null],"shield_text":"843","ref":"A14","all_shield_texts":["843","14"]},"arcs":[[345],[346],[347],[348]]},{"type":"LineString","properties":{"kind":"major_road","sort_rank":380,"kind_detail":"primary","bus_network":"Miccolis","source":"openstreetmap.org","min_zoom":8.0,"bus_shield_text":"7","landuse_kind":"urban_area","id":144276814},"arcs":[349]},{"type":"MultiLineString","properties":{"source":"openstreetmap.org","kind":"major_road","sort_rank":380,"kind_detail":"primary","ref":"SP233","min_zoom":8.0},"arcs":[[350],[351],[352],[353],[354]]},{"type":"MultiLineString","properties":{"source":"openstreetmap.org","kind":"major_road","sort_rank":380,"kind_detail":"primary","ref":"SPex SS7","min_zoom":8.0},"arcs":[[355],[356],[357],[358],[359]]},{"type":"MultiLineString","properties":{"bus_network":null,"sort_rank":380,"kind_detail":"primary","kind":"major_road","source":"openstreetmap.org","min_zoom":8.0,"bus_shield_text":"Lamanna","landuse_kind":"nature_reserve"},"arcs":[[360],[361],[362],[363]]},{"type":"MultiLineString","properties":{"kind":"major_road","network":null,"sort_rank":380,"kind_detail":"primary","source":"openstreetmap.org","min_zoom":8.0,"shield_text":"7","ref":"SS7"},"arcs":[[364],[365],[366],[367]]},{"type":"MultiLineString","properties":{"kind":"major_road","network":"e-road","sort_rank":381,"landuse_kind":"urban_area","source":"openstreetmap.org","min_zoom":8.0,"kind_detail":"trunk","shield_text":"90","ref":"SS106"},"arcs":[[368],[369],[370],[371]]},{"type":"LineString","properties":{"source":"openstreetmap.org","kind":"major_road","sort_rank":380,"kind_detail":"primary","ref":"SS380","min_zoom":8.0},"arcs":[372]},{"type":"MultiLineString","properties":{"kind":"major_road","network":null,"sort_rank":381,"kind_detail":"trunk","source":"openstreetmap.org","min_zoom":8.0,"shield_text":"99","ref":"SS99"},"arcs":[[373],[374],[375],[376]]},{"type":"LineString","properties":{"kind":"major_road","network":null,"sort_rank":381,"kind_detail":"trunk","source":"openstreetmap.org","min_zoom":8.0,"landuse_kind":"urban_area","shield_text":"99","ref":"SS99","id":34934685},"arcs":[377]},{"type":"LineString","properties":{"kind":"major_road","sort_rank":380,"landuse_kind":"urban_area","source":"openstreetmap.org","min_zoom":8.0,"kind_detail":"primary","ref":"SPex SS7","id":228978948},"arcs":[378]},{"type":"LineString","properties":{"source":"openstreetmap.org","kind":"major_road","sort_rank":380,"kind_detail":"primary","ref":"SP219","min_zoom":8.0},"arcs":[379]},{"type":"LineString","properties":{"kind":"major_road","sort_rank":380,"kind_detail":"primary","bus_network":"Co.Tr.A.B.","source":"openstreetmap.org","min_zoom":8.0,"bus_shield_text":"CD","landuse_kind":"urban_area","id":238807363},"arcs":[380]},{"type":"MultiLineString","properties":{"kind":"major_road","network":null,"sort_rank":380,"kind_detail":"primary","source":"openstreetmap.org","min_zoom":8.0,"shield_text":"658","ref":"SS658"},"arcs":[[381],[382]]},{"type":"LineString","properties":{"bus_network":"Co.Tr.A.B.","sort_rank":380,"kind_detail":"primary","kind":"major_road","source":"openstreetmap.org","min_zoom":8.0,"bus_shield_text":"6","landuse_kind":"urban_area","ref":"SPex SS7"},"arcs":[383]},{"type":"LineString","properties":{"kind":"major_road","sort_rank":380,"landuse_kind":"urban_area","source":"openstreetmap.org","min_zoom":8.0,"kind_detail":"primary","ref":"96","id":511756262},"arcs":[384]},{"type":"LineString","properties":{"kind":"major_road","network":null,"sort_rank":380,"kind_detail":"primary","source":"openstreetmap.org","min_zoom":8.0,"shield_text":"169","ref":"SS96bis"},"arcs":[385]},{"type":"LineString","properties":{"source":"openstreetmap.org","kind":"major_road","sort_rank":381,"kind_detail":"trunk","ref":"SS94dir","min_zoom":8.0},"arcs":[386]},{"type":"LineString","properties":{"source":"openstreetmap.org","kind":"major_road","sort_rank":380,"kind_detail":"primary","ref":"SP235","min_zoom":8.0,"id":300619507},"arcs":[387]},{"type":"MultiLineString","properties":{"bus_network":"Co.Tr.A.B.","sort_rank":380,"kind_detail":"primary","kind":"major_road","source":"openstreetmap.org","min_zoom":8.0,"bus_shield_text":"CS","landuse_kind":"urban_area"},"arcs":[[388],[389]]},{"type":"MultiLineString","properties":{"bus_network":"Co.Tr.A.B.","sort_rank":380,"kind_detail":"primary","kind":"major_road","source":"openstreetmap.org","min_zoom":8.0,"bus_shield_text":"9","landuse_kind":"urban_area"},"arcs":[[390],[391],[392]]},{"type":"LineString","properties":{"kind":"major_road","network":null,"sort_rank":380,"kind_detail":"primary","source":"openstreetmap.org","min_zoom":8.0,"landuse_kind":"urban_area","shield_text":"99","ref":"SS99","id":26571305},"arcs":[393]},{"type":"LineString","properties":{"source":"openstreetmap.org","kind":"major_road","landuse_kind":"urban_area","sort_rank":380,"kind_detail":"primary","ref":"SS653","min_zoom":8.0},"arcs":[394]},{"type":"MultiLineString","properties":{"source":"openstreetmap.org","kind":"major_road","landuse_kind":"urban_area","sort_rank":380,"kind_detail":"primary","min_zoom":8.0},"arcs":[[395],[396],[397],[398],[399],[400],[401],[402],[403],[404],[405],[406],[407],[408],[409],[410],[411],[412],[413],[414],[415],[416],[417],[418],[419],[420],[421],[422],[423],[424],[425],[426]]},{"type":"MultiLineString","properties":{"bus_network":null,"sort_rank":380,"kind_detail":"primary","kind":"major_road","source":"openstreetmap.org","min_zoom":8.0,"bus_shield_text":"Lamanna","landuse_kind":"nature_reserve","ref":"NSA 161"},"arcs":[[427],[428],[429],[430],[431],[432],[433]]},{"type":"MultiLineString","properties":{"kind":"major_road","network":null,"sort_rank":380,"kind_detail":"primary","source":"openstreetmap.org","min_zoom":8.0,"shield_text":"169","ref":"SS169"},"arcs":[[434],[435]]},{"type":"MultiLineString","properties":{"source":"openstreetmap.org","kind":"major_road","sort_rank":380,"kind_detail":"primary","ref":"SP1","min_zoom":8.0},"arcs":[[436],[437]]},{"type":"LineString","properties":{"kind":"highway","network":"e-road","sort_rank":383,"kind_detail":"motorway","source":"openstreetmap.org","min_zoom":8.0,"all_networks":["e-road","IT:A-road"],"shield_text":"45","ref":"A3","all_shield_texts":["45","2"]},"arcs":[438]},{"type":"MultiLineString","properties":{"source":"openstreetmap.org","kind":"major_road","sort_rank":380,"kind_detail":"primary","ref":"NSA 161","min_zoom":8.0},"arcs":[[439],[440],[441],[442],[443],[444],[445],[446],[447],[448]]},{"type":"LineString","properties":{"source":"openstreetmap.org","kind":"major_road","sort_rank":380,"kind_detail":"primary","ref":"SS176","min_zoom":8.0},"arcs":[449]},{"type":"LineString","properties":{"source":"openstreetmap.org","kind":"major_road","sort_rank":380,"kind_detail":"primary","ref":"SS517","min_zoom":8.0},"arcs":[450]},{"type":"MultiLineString","properties":{"source":"openstreetmap.org","kind":"major_road","landuse_kind":"nature_reserve","sort_rank":380,"kind_detail":"primary","ref":"NSA 161","min_zoom":8.0},"arcs":[[451],[452],[453],[454],[455],[456]]},{"type":"MultiLineString","properties":{"source":"openstreetmap.org","kind":"major_road","sort_rank":380,"kind_detail":"primary","ref":"SS166","min_zoom":8.0},"arcs":[[457],[458],[459]]},{"type":"LineString","properties":{"kind":"major_road","network":null,"sort_rank":380,"kind_detail":"primary","source":"openstreetmap.org","min_zoom":8.0,"shield_text":"230","ref":"SP230"},"arcs":[460]},{"type":"LineString","properties":{"source":"openstreetmap.org","kind":"major_road","landuse_kind":"urban_area","sort_rank":380,"kind_detail":"primary","ref":"SS93","min_zoom":8.0},"arcs":[461]},{"type":"MultiLineString","properties":{"kind":"major_road","network":null,"sort_rank":380,"kind_detail":"primary","source":"openstreetmap.org","min_zoom":8.0,"landuse_kind":"urban_area","shield_text":"7","ref":"SS7"},"arcs":[[462],[463]]},{"type":"LineString","properties":{"bus_network":"Co.Tr.A.B.","sort_rank":380,"kind_detail":"primary","kind":"major_road","source":"openstreetmap.org","min_zoom":8.0,"bus_shield_text":"CS","landuse_kind":"urban_area","ref":"SS93"},"arcs":[464]},{"type":"LineString","properties":{"kind":"major_road","short_name":"SP430","sort_rank":381,"kind_detail":"trunk","official_name":"Strada provinciale 430 Innesto SS 18 (Paestum)-Svincolo di Policastro Bussentino","source":"openstreetmap.org","min_zoom":8.0,"ref":"SP430"},"arcs":[465]},{"type":"LineString","properties":{"source":"openstreetmap.org","kind":"major_road","sort_rank":381,"kind_detail":"trunk","ref":"SS7","min_zoom":8.0},"arcs":[466]},{"type":"MultiLineString","properties":{"kind":"major_road","network":"e-road","sort_rank":381,"landuse_kind":"urban_area","source":"openstreetmap.org","min_zoom":8.0,"kind_detail":"trunk","shield_text":"847","ref":"SS407"},"arcs":[[467],[468]]},{"type":"LineString","properties":{"source":"openstreetmap.org","kind":"major_road","sort_rank":380,"kind_detail":"primary","ref":"SP232","min_zoom":8.0},"arcs":[469]},{"type":"MultiLineString","properties":{"kind":"major_road","network":null,"sort_rank":380,"kind_detail":"primary","source":"openstreetmap.org","min_zoom":8.0,"shield_text":"653","ref":"SS653"},"arcs":[[470],[471],[472],[473],[474],[475]]},{"type":"MultiLineString","properties":{"source":"openstreetmap.org","kind":"major_road","sort_rank":380,"kind_detail":"primary","ref":"SS92","min_zoom":8.0},"arcs":[[476],[477],[478],[479],[480],[481],[482],[483]]},{"type":"MultiLineString","properties":{"source":"openstreetmap.org","kind":"major_road","landuse_kind":"nature_reserve","sort_rank":380,"kind_detail":"primary","ref":"SS517","min_zoom":8.0},"arcs":[[484],[485]]},{"type":"MultiLineString","properties":{"bus_network":null,"sort_rank":380,"kind_detail":"primary","kind":"major_road","source":"openstreetmap.org","min_zoom":8.0,"bus_shield_text":"Lamanna","landuse_kind":"nature_reserve","ref":"Var SS517"},"arcs":[[486],[487]]}]},"earth":{"type":"GeometryCollection","geometries":[{"type":"Polygon","properties":{"sort_rank":10,"source":"naturalearthdata.com","min_zoom":0.0,"kind":"earth","area":47560956420},"arcs":[[488]]}]},"landuse":{"type":"GeometryCollection","geometries":[{"type":"MultiPolygon","properties":{"kind":"nature_reserve","protect_class":"2","area":3065499904,"sort_rank":23,"source":"openstreetmap.org","min_zoom":4.0,"tier":2,"id":-4100859,"osm_relation":true},"arcs":[[[489]],[[490]],[[491]],[[492]],[[493]]]},{"type":"MultiPolygon","properties":{"source":"openstreetmap.org","kind":"national_park","tier":1,"protect_class":"2","area":4406401924,"sort_rank":18,"min_zoom":3.0},"arcs":[[[494]]]},{"type":"MultiPolygon","properties":{"source":"naturalearthdata.com","kind":"urban_area","name":"","area":4228149852,"sort_rank":11,"min_zoom":4.0},"arcs":[[[495]],[[496]],[[497]],[[498]],[[499]],[[500]],[[501]],[[502]],[[503]],[[504]],[[505]],[[506]],[[507]],[[508]]]},{"type":"Polygon","properties":{"kind":"national_park","protect_class":"2","area":1189619968,"sort_rank":18,"operator":"Ente Parco Nazionale dell'Appennino Lucano Val D'agri Lagonegrese","source":"openstreetmap.org","min_zoom":3.0,"tier":1,"id":-6274746,"osm_relation":true},"arcs":[[509]]},{"type":"Polygon","properties":{"kind":"nature_reserve","area":96777600,"sort_rank":23,"source":"openstreetmap.org","min_zoom":8.0,"tier":2,"id":-4671891,"osm_relation":true},"arcs":[[510]]}]}},"type":"Topology","transform":{"translate":[15.46875,39.9097362345],"scale":[0.0003433228,0.00026127]},"arcs":[[[3428,797],[-70,58],[-172,-9],[-92,-45],[-44,41],[-63,-13],[-66,33],[-107,-24],[-38,62],[-3,-59],[-32,-29],[15,-154],[-62,-146],[16,-98],[-110,-185],[-7,-55],[-59,-69],[63,-63],[-7,-42]],[[2531,0],[-60,77],[-138,27],[-90,-40],[-71,-1],[1,-63]],[[2087,0],[-12,7]],[[2075,7],[-63,36],[-37,-43]],[[1677,0],[-3,10],[-58,47],[-46,129],[78,96],[-9,42],[-64,12],[-8,-27],[-78,-27],[-31,36],[-118,35],[-88,-74],[-22,49],[-39,8],[-27,-24],[-68,54],[-70,-10],[-74,-116],[-62,-39],[-22,-117],[-30,-35]],[[3419,788],[9,9]],[[838,49]],[[838,49],[22,-49]],[[3232,0],[142,182],[-82,325],[19,142],[108,139]],[[515,510],[89,46],[-12,59],[-59,31],[76,23],[82,127],[9,85],[-25,70],[47,44],[-14,31],[52,33],[1,51],[60,4],[68,63],[62,16],[-23,58],[52,57],[-16,62],[19,21],[-41,64],[-71,3],[-8,29],[-62,10],[-49,56],[11,26],[-76,76],[16,135],[-21,23],[-93,57],[-24,-22],[-43,82],[-179,112],[15,11],[-42,51],[4,36],[-118,76],[-8,42],[44,37],[-44,49],[29,36],[-27,15],[-28,84],[38,41],[-18,19],[-39,-10],[-28,58],[-106,27],[-15,13]],[[0,2792],[61,24],[41,70],[-102,51]],[[0,3682],[11,6],[-11,48]],[[0,3752],[170,68],[44,148],[79,128]],[[504,518],[11,-8]],[[0,481],[46,11],[55,98],[80,38],[120,18],[132,-38],[24,21],[20,-23],[-19,-40],[46,-48]],[[4073,1867],[-89,53],[-77,87],[-19,93],[-57,27],[-68,-7],[-18,31],[-29,-23],[-68,58],[49,107],[-62,63],[25,42],[-56,76],[33,104],[-14,40],[48,33],[-46,55],[-10,64],[53,214],[-90,54],[24,34],[12,-23],[47,32],[-179,135],[-5,-47],[-26,-2],[1,30],[-59,37],[-73,-7],[-92,45],[-27,-37],[32,-46],[-16,-19],[-52,79],[-55,-22],[9,-103],[-110,143],[-110,-146],[-146,-89],[-41,29],[-54,107],[-98,59],[-89,120],[-175,152],[-72,119],[-50,192],[-34,51],[-65,22]],[[2075,3883],[-51,20],[-47,-17],[-75,-101],[-82,88],[-338,145],[-14,52],[90,-7],[36,33]],[[3428,797],[9,9]],[[4067,1856],[6,11]],[[515,510],[6,-11]],[[836,54],[2,-5]],[[521,499],[45,0],[40,-38],[10,-90],[117,-114],[44,-76],[-4,-54],[63,-73]],[[3437,806],[110,105],[143,216],[-20,3],[21,0],[50,179],[98,194],[90,112],[-26,24],[12,13],[17,-35],[135,239]],[[4073,1867],[6,12]],[[3396,3236],[4,17],[33,-17],[-12,-10],[-25,10]],[[4079,1879],[17,27]],[[3482,4096],[-81,-181],[-51,-13],[14,-129],[-58,-102],[-103,-105],[-117,-27],[-39,-32],[109,-108],[37,-251],[75,-142],[-6,-55],[48,-22],[-17,-44],[17,-13]],[[0,732],[32,-6],[115,-95],[190,25],[51,-21],[93,7],[129,-180],[9,-77],[81,-54],[188,-331]],[[3352,746],[-41,-71],[-22,-170],[72,-320],[-135,-185]],[[3375,787],[91,108],[80,169],[20,178],[124,260],[406,440]],[[3288,502],[0,-1],[1,0],[0,1],[-1,0]],[[3303,92],[1,0],[0,1],[-1,-1]],[[3341,729],[-1,-1],[1,1]],[[3354,240],[1,0],[-1,0]],[[3423,845],[0,-1],[0,1]],[[3553,1139],[0,-1],[1,0],[0,1],[-1,0]],[[3603,1316],[-1,0],[0,1],[1,-1]],[[3738,1558],[0,1],[1,0],[-1,-1]],[[3922,1757],[-2,-2],[2,2]],[[2760,3510],[112,-23],[334,81],[149,182],[13,68],[-20,79],[54,19],[80,180]],[[4096,3630],[-20,24],[-88,116],[-2,3],[-1,2],[-1,4],[0,3],[0,2],[5,29],[-8,20],[-16,11],[-5,2],[-46,8],[-8,2],[-8,3],[-7,3],[-7,3],[-6,4],[-7,5],[-6,5],[-102,95],[-3,4],[-3,3],[-3,5],[-2,5],[-40,105]],[[3713,4096],[50,-122],[116,-105],[85,-24],[4,-2],[5,-3],[8,-7],[8,-19],[-2,-42],[109,-141]],[[3482,4096],[-81,-181],[-51,-13],[14,-129],[-58,-102],[-103,-105],[-117,-27],[-39,-32],[109,-108],[37,-251],[75,-142],[-6,-55],[48,-22],[-17,-44],[17,-13]],[[552,4096],[-16,-27],[43,-51],[31,-130]],[[612,3871],[49,-99],[62,-38],[28,-78]],[[751,3653],[80,-83],[-33,-77],[23,-98],[30,-44],[53,-19],[36,-92],[-32,-144],[123,-95],[-39,-139],[-32,-32]],[[989,2759],[34,36],[-63,33]],[[4096,3465],[-208,-66],[-112,13]],[[3776,3412],[-8,13]],[[3768,3425],[-31,26],[-139,-19],[-60,-34],[-128,8],[-195,149],[-61,-4]],[[1904,4096],[44,-96],[-92,26],[-55,-31]],[[926,3079]],[[926,3079],[-1,0]],[[925,3079],[-2,3]],[[972,2750],[43,45],[-27,-6],[-28,40],[31,31],[40,139],[-13,19],[-46,17],[-44,40],[-2,4]],[[3482,4096],[-80,-180],[-54,-19],[20,-79],[-20,-81],[-172,-184],[-306,-67],[-78,4],[-64,34],[13,-53],[-25,-18],[-164,-4],[-28,-41],[-103,-54],[-166,22],[-166,-58],[-75,70],[-59,-16],[-41,-55],[-228,105],[-24,-37],[-141,18],[-104,-73],[-22,-46],[-127,-16],[5,-46],[-86,-59],[-186,16],[-75,-100]],[[0,731],[32,-5],[115,-95],[190,25],[49,-21],[95,7],[129,-180],[9,-77],[81,-55],[188,-330]],[[0,2784],[85,60],[39,125],[82,60],[111,-37],[69,-89],[53,42],[25,-9],[1,-103],[113,-95],[40,-68],[146,-9],[111,80],[110,14]],[[2760,3510],[112,-23],[334,81],[149,182],[13,68],[-20,79],[54,19],[80,180]],[[985,2755],[66,51],[75,-1],[62,54],[56,-26],[95,10],[71,-87],[9,-68],[76,-34],[9,-33],[110,-80],[75,-18],[65,-83],[95,25],[35,73],[117,68],[84,16],[145,1],[96,-34],[136,12],[151,-33],[247,-149],[117,-161],[74,-183],[127,-135],[101,-10],[133,-68],[75,19],[278,-50],[122,-87],[35,12]],[[926,3079]],[[926,3079],[-1,0]],[[925,3079],[-2,3]],[[972,2750],[43,45],[-27,-6],[-28,40],[31,31],[40,139],[-105,80]],[[3482,4096],[-80,-180],[-54,-19],[20,-79],[-20,-81],[-172,-184],[-306,-67],[-78,4],[-64,34],[13,-53],[-25,-18],[-164,-4],[-28,-41],[-103,-54],[-166,22],[-166,-58],[-75,70],[-59,-16],[-41,-55],[-228,105],[-24,-37],[-141,18],[-104,-73],[-22,-46],[-127,-16],[5,-46],[-86,-59],[-186,16],[-75,-100]],[[844,0],[-844,0],[0,475],[77,49],[52,81],[64,38],[219,-17],[41,17],[1,-49],[17,-28],[62,-53],[79,-134],[100,-106],[43,-65],[18,-78],[22,-54],[49,-76]],[[4096,1892],[0,-1892],[-873,0],[41,39],[47,88],[47,41],[29,48],[-52,117],[-42,143],[-7,49],[23,144],[57,90],[46,41],[114,105],[107,181],[43,28],[20,39],[69,224],[62,123],[235,342],[34,50]],[[4096,1892],[-34,-50],[-235,-342],[-62,-123],[-69,-224],[-20,-39],[-43,-28],[-107,-181],[-114,-105],[-46,-41],[-57,-90],[-23,-144],[7,-49],[42,-143],[52,-117],[-29,-48],[-47,-41],[-47,-88],[-41,-39]],[[844,0],[-49,76],[-22,54],[-18,78],[-43,65],[-100,106],[-79,134],[-62,53],[-17,28],[-1,49],[-41,-17],[-219,17],[-64,-38],[-52,-81],[-77,-49]],[[161,2081],[13,9]],[[3133,3478],[-118,36],[-137,-30],[-29,-40]],[[3389,3881],[-58,-184],[-82,-94]],[[3249,3603],[83,93],[57,185]],[[3406,3934],[-17,-53]],[[3440,4040],[-34,-106]],[[3457,4096],[-17,-56]],[[3164,3420],[-1,0]],[[595,4076],[0,-14]],[[665,4096],[-28,-5]],[[121,656],[0,1]],[[125,641],[0,2]],[[3070,1478],[-24,110],[-56,44],[3,80]],[[1088,2809],[-6,0]],[[1082,2809],[6,0]],[[3229,3098]],[[3233,3083],[6,-15]],[[3240,3068],[-7,15]],[[3194,2628],[1,0]],[[1341,1479],[84,-32]],[[1434,1444],[169,-52]],[[1661,1384],[4,0]],[[1671,1383],[21,-3]],[[1693,1380],[65,-31]],[[1826,1338],[184,28]],[[103,681],[-4,20]],[[125,643],[-4,13]],[[142,915],[30,37]],[[156,2250],[22,-43]],[[187,1002],[-2,3]],[[214,2095],[8,1]],[[282,1272],[6,7]],[[369,632],[2,0]],[[518,1485],[1,-1]],[[519,1483],[1,0]],[[775,889],[4,-15]],[[787,709],[-8,-3]],[[800,647],[-1,1]],[[821,808],[0,3]],[[866,104],[0,-1]],[[919,13]],[[1464,4073],[-6,1]],[[1668,1799],[25,53]],[[1693,1852],[1,1]],[[1694,1853],[-1,-1]],[[1694,1855],[0,-1]],[[1702,1858],[-8,-3]],[[1695,1854],[-1,1]],[[2447,863],[-3,-4]],[[2493,3309],[1,-1]],[[2625,3074],[-7,5]],[[2619,3072],[0,-2]],[[2619,3070],[1,1]],[[2620,3069],[13,-3]],[[2622,3072],[3,2]],[[2629,3069],[-4,5]],[[3413,1296],[-157,54],[-179,122]],[[3551,1251],[-32,10]],[[3737,2875],[9,-5]],[[3855,1787],[61,-23]],[[3917,1764],[-1,0]],[[3916,1764],[1,0]],[[213,2094],[1,1],[-1,0],[0,-1]],[[1153,629],[0,-1],[1,0],[0,1],[-1,0]],[[1694,1854],[0,-1]],[[1694,1853]],[[1694,1853],[1,0],[-1,1]],[[1972,3737],[-1,-1],[1,-1],[1,1],[-1,1]],[[2800,2781],[-1,0],[-1,0],[1,-1],[1,1]],[[1811,629],[2,1]],[[1816,623],[-2,0]],[[2849,3444],[-5,-8]],[[3249,3603],[-30,-34],[-19,-96],[-67,5]],[[3219,3568],[30,35]],[[792,938],[-17,-49]],[[779,874],[43,-69],[-35,-96]],[[779,706],[-15,-18],[74,-94],[152,-146],[-35,-40],[24,-108],[-95,-103],[-16,-81]],[[3374,2357],[108,-122],[130,-26],[186,-124],[96,-192],[18,-112]],[[3912,1781],[0,-1]],[[3912,1780],[0,1]],[[3912,1780],[0,-1]],[[3912,1779],[0,1]],[[3912,1779],[5,-13]],[[3917,1766],[0,-1]],[[3918,1765],[-1,1]],[[3912,1780]],[[3918,1764],[0,1],[-1,0]],[[3917,1765],[0,-1],[1,0]],[[3263,2955],[3,9]],[[176,1032],[-6,14]],[[170,1047],[7,13]],[[239,1241],[-2,2]],[[252,1261],[18,4]],[[1154,628],[0,1]],[[3438,990],[2,-5]],[[131,627],[86,9]],[[2949,2290],[28,36],[-10,167],[49,-1]],[[2056,4096],[14,-43]],[[2070,4053],[-1,-1]],[[2070,4052],[0,1]],[[3376,806],[-59,-85],[-45,-252],[1,-8],[13,-16],[23,-19],[17,-98],[-17,99],[-35,43],[43,251],[60,84]],[[3442,994],[-4,-8]],[[3438,986],[4,8]],[[4096,2103],[-136,-114],[-20,-49],[-43,-54],[-190,-321],[-84,-170]],[[3623,1395],[84,170],[36,53],[83,133],[71,134],[41,52],[5,8],[18,44],[135,114]],[[1074,2810],[-33,-8]],[[1019,2577],[1,-28],[100,-58],[13,-55]],[[1234,2336],[-9,1]],[[1335,2292],[-48,36]],[[1366,2288],[-10,1]],[[1617,1969],[-57,71]],[[3308,2953],[-36,8]],[[942,767],[32,-39],[83,-29]],[[1057,699],[-84,31],[-30,38]],[[1353,209],[12,-37]],[[1366,172],[-13,37]],[[1401,148],[48,-90],[-9,-58]],[[1441,0],[8,58],[-48,90]],[[3097,2556],[30,56],[65,10],[81,145],[2,54],[-34,31]],[[3195,2632],[25,-26],[20,-156],[134,-93]],[[564,4046],[71,-67],[-8,-145]],[[3163,3419],[47,-268]],[[3211,3152],[-47,267]],[[3211,3150],[4,-16]],[[3229,3098],[-13,35]],[[1766,2431],[1,1]],[[3846,1793],[5,-3]],[[945,2736],[4,-34]],[[974,2692],[33,6]],[[1082,2809],[-4,-1],[-6,-2],[-8,-6],[-31,-32],[-47,-30],[-82,-2]],[[904,2735],[82,3],[48,29],[48,42]],[[464,590],[-82,-68],[-147,-3],[-118,-84],[-104,-115],[-13,-6]],[[348,652],[3,-2]],[[1116,2812],[-42,-2]],[[2618,3079],[2,-10]],[[3271,2960],[1,1]],[[595,4062],[12,-43]],[[637,4091],[-42,-15]],[[3239,3068],[17,-37]],[[3256,3032],[-16,36]],[[3260,3023],[9,-31]],[[3269,2992],[-8,31]],[[3269,2992],[-3,-18],[3,18]],[[390,633],[38,-21]],[[1458,4074],[-93,22]],[[2618,3079],[-85,87],[-44,139],[-121,71],[-139,185],[-319,213],[-81,95],[-192,100],[-98,92],[-79,13]],[[2616,3080],[114,-68],[113,-25],[37,-55]],[[301,2724],[-1,-11]],[[3206,0],[130,145],[25,65],[-32,99]],[[3266,2964],[0,4]],[[336,654],[1,0]],[[338,654]],[[3822,3381],[-3,0]],[[3819,3380],[3,1]],[[3862,3384],[-40,-3]],[[223,3964],[-44,-142],[-179,-82]],[[1699,4010],[-234,55]],[[2,2386],[-2,0]],[[0,2385],[3,0]],[[555,1348],[-36,146],[-28,89],[-58,105],[-42,63],[-9,21],[-10,22],[-44,72],[-55,59],[-146,388],[-87,68]],[[40,2380],[87,-67],[146,-389],[109,-153]],[[386,1760],[5,-9],[41,-64],[59,-105],[62,-233]],[[558,1303],[6,-48]],[[943,768],[-31,50],[-24,20],[-35,15],[-10,27],[-27,48],[-127,151],[-93,83],[-37,142]],[[566,1245],[29,-83],[38,-47],[15,-13],[32,-15],[47,-74],[4,-4],[11,-9],[16,-21],[30,-30],[29,-23]],[[846,870],[7,-17],[59,-36],[30,-50]],[[1057,699],[8,-2],[16,-14],[35,-21],[3,-2],[10,-18],[6,-8],[28,-20],[14,-124],[7,-34],[14,-28],[155,-124],[6,-41],[-7,-33],[1,-21]],[[1353,209],[7,52],[-6,44],[-155,123],[-36,186],[-46,49],[-52,35],[-8,1]],[[1365,172],[36,-24]],[[1401,148],[-35,24]],[[1459,4075],[6,-10]],[[0,2395],[39,-12]],[[582,1333],[40,-138]],[[855,112],[10,-9]],[[867,108],[-1,-1]],[[3261,3023],[-5,9]],[[3256,3031],[4,-8]],[[3266,2968],[0,6]],[[3269,2992]],[[3269,2992]],[[338,654],[10,-2]],[[351,650],[18,-18]],[[445,625],[33,-10],[-17,-48],[152,-105],[12,-90],[68,-54],[16,19],[102,-239],[54,10]],[[866,105],[2,7]],[[866,105],[-1,-2],[1,1],[0,1]],[[866,103],[7,-20]],[[917,0],[-44,58],[1,45],[-6,13]],[[83,752],[-2,11]],[[487,1437],[1,1]],[[488,1438],[0,1]],[[904,2736],[-8,1],[-72,-27],[-6,-4],[-11,-10],[-135,-22],[-74,15],[-138,10],[-34,25],[-4,27],[-4,4],[-4,2],[-35,1],[-10,-4],[-20,-13],[-34,-30],[-33,7],[-5,0],[-6,0],[-7,-2],[-2,-1]],[[262,2715],[-4,-1],[-26,5]],[[232,2719],[-7,1],[-71,11],[-14,-2],[-19,-5],[-30,-4],[-7,-3],[-8,-5],[-39,-3],[-37,-21]],[[0,2688],[154,42],[71,-10],[7,-1]],[[232,2719],[30,-4]],[[262,2715],[1,0],[19,3],[19,-9],[15,1],[53,44],[45,3],[12,-33],[34,-25],[212,-26],[135,23],[97,39]],[[458,2237],[-8,46],[45,46]],[[502,2355],[20,131],[49,41],[53,-11],[20,116]],[[3229,3097],[4,-14]],[[3233,3083],[-4,15]],[[3980,4004],[107,-268]],[[4088,3736],[-107,268]],[[3318,2954],[-10,-1]],[[2024,2720],[15,20],[74,-17],[19,64],[42,24],[232,-65],[35,22],[17,-17],[35,60]],[[83,3159],[134,-153]],[[1022,2906],[17,81]],[[2041,2639],[1,-3]],[[2052,2638],[-4,1]],[[2949,2290],[-3,-2]],[[3155,3394],[2,0]],[[3158,3394],[1,-6]],[[3241,2852],[4,84]],[[3815,1743],[4,-1]],[[3851,1790],[4,-3]],[[3896,1885],[3,1]],[[3897,1885],[2,1]],[[3899,1886],[0,3]],[[3164,3419],[0,1],[-1,0],[0,-1],[1,0]],[[555,2093],[31,-48]],[[766,1941],[3,-11]],[[1317,1491],[24,-12]],[[495,2329],[7,26]],[[458,2237],[13,-55]],[[646,2639],[-2,35]],[[40,2381],[-38,5]],[[3,2385],[37,-5]],[[553,1349],[5,-46]],[[559,1304],[-4,44]],[[564,1255],[2,-10]],[[2784,3428],[38,-7]],[[208,2135],[33,-70]],[[1425,1447],[9,-3]],[[1603,1392],[58,-8]],[[1665,1384],[6,-1]],[[1692,1380],[1,0]],[[1758,1349],[68,-11]],[[2010,1366],[155,20],[49,-35],[199,-5],[92,153],[351,68],[100,-85],[121,-10]],[[1802,628],[55,-15],[74,56],[153,-15],[309,130],[35,56]],[[2476,943],[6,25]],[[2504,1007],[42,54],[62,-4]],[[2612,1056],[102,-76]],[[2720,978],[66,1]],[[241,2065],[38,-18],[-7,-31],[22,25],[-18,69],[118,-3],[60,42],[101,-56]],[[586,2045],[62,-84],[103,37],[15,-57]],[[769,1930],[76,-128],[248,-205],[224,-106]],[[1131,2820],[14,6],[45,35],[63,-29],[83,7],[66,-80],[0,-3],[1,-22],[7,-39],[3,-9],[53,-24],[21,-3],[5,-7]],[[1492,2652],[10,-14],[0,-1]],[[1502,2637],[-1,-7],[5,-9],[67,-46],[15,-5],[9,-18],[10,-8],[15,-9],[10,-4],[19,2],[31,-9],[47,-68],[6,-6],[29,-19],[8,1],[84,37],[41,89],[35,11],[11,14],[58,29],[15,17],[173,0]],[[2189,2629],[-173,0],[-119,-71],[-44,-88],[-88,-38],[-80,91],[-25,9],[-11,1],[-16,-2],[-25,14],[-19,26],[-83,51],[-4,14],[0,1]],[[1502,2637],[-10,15]],[[1492,2652],[-4,7],[-75,28],[-11,72],[-65,80],[-84,-6],[-63,28],[-57,-36]],[[2189,2629],[129,-40],[143,9],[121,-23],[212,-110],[117,-117]],[[2911,2348],[19,-35]],[[3541,1869],[-138,-7],[-127,68],[-137,13],[-37,82],[-40,16],[-132,272]],[[3541,1869],[40,-10]],[[3839,1799],[-258,60]],[[817,926],[29,-56]],[[994,2886],[28,20]],[[3245,2936],[12,14]],[[3257,2950],[6,5]],[[3271,2962],[-1,1]],[[81,2346],[-42,37]],[[81,2346],[8,-8]],[[89,2338],[67,-88]],[[178,2207],[35,-112]],[[213,2094],[42,-143],[108,-72],[44,-86],[47,-96],[12,-121],[116,-243]],[[622,1195],[101,-201],[-45,-63],[31,-33],[65,-8]],[[774,890]],[[775,891],[-1,-1]],[[774,890],[1,-1]],[[301,4096],[-77,-128]],[[217,636],[119,18]],[[337,654],[1,0]],[[371,632],[19,1]],[[428,612],[17,13]],[[237,1243],[15,18]],[[3980,4096],[0,-92]],[[3981,4004],[-1,92]],[[4087,3736],[9,-33]],[[4096,3705],[-8,31]],[[3271,2962],[0,-1]],[[1741,3909],[26,79]],[[1766,3989],[1,-1]],[[1767,3988],[2,1]],[[1767,3989],[0,-1]],[[1767,3988],[0,1]],[[2023,2720],[-54,-24],[-132,29],[-44,51],[-93,23],[-58,-123],[-45,92],[-61,20],[-31,42],[-60,7],[18,52],[-21,20],[-66,-22],[-49,17],[9,-22],[-45,-14],[-98,-1],[-19,20],[-42,-65]],[[2495,2812],[-2,0]],[[2494,2812],[1,0]],[[2495,2812],[245,-1],[57,-30]],[[2493,2811],[1,0],[0,1],[-1,0],[0,-1]],[[184,1066],[8,6]],[[223,1093],[4,3]],[[236,1114],[15,15]],[[250,1146],[35,43]],[[630,3085],[-44,18],[-10,-35],[-33,28],[-22,-47],[-115,-65],[-76,8]],[[631,3084],[-1,1],[0,-1],[1,0]],[[824,2928],[-36,17],[-9,47],[-148,92]],[[4096,2833],[-189,1],[-388,104],[-160,8]],[[3438,986],[-70,-129],[8,-51]],[[3377,805],[-9,52],[70,129]],[[3623,1395],[-181,-401]],[[3442,994],[108,219],[73,182]],[[3195,2628],[6,2]],[[3166,3434],[-4,28]],[[3210,3151],[1,-1]],[[3216,3133],[-5,19]],[[3215,3134],[14,-37]],[[3162,3462],[-1,8]],[[1132,2822],[-16,-10]],[[661,3547],[-167,79],[-72,-3],[-109,-52],[-68,16],[-70,38],[-101,140]],[[965,2846],[0,-1]],[[521,4096],[43,-50]],[[627,3834],[43,-195],[59,-112],[66,-47],[59,-121],[107,-84],[32,-240],[172,-103],[12,-55]],[[1116,2812],[-42,-2]],[[3218,3564],[1,4]],[[1509,3261],[-3,45],[55,-31],[135,-14],[164,25],[154,102],[77,-68],[105,49],[286,-20],[89,90],[151,13],[49,-25]],[[217,3006],[24,-57],[47,-27],[-33,-93],[46,-105]],[[4096,3402],[-234,-18]],[[968,2869],[-3,-23]],[[967,2841],[2,-2]],[[958,2746],[-5,-1],[-5,-4]],[[948,2740],[10,6]],[[958,2746],[13,1]],[[3272,2961],[-1,1]],[[3440,985],[0,-3]],[[925,2736],[19,1]],[[946,2738],[1,1]],[[947,2739],[1,1]],[[948,2741],[-1,-2]],[[957,2745],[-1,1]],[[965,2845],[0,-4]],[[965,2841],[0,-5]],[[965,2841],[2,0]],[[971,2747],[11,4]],[[992,2759],[-10,-8]],[[990,2886],[4,0]],[[992,2759],[50,42]],[[1040,2801],[2,0]],[[2844,3436],[-22,-15]],[[3196,3473],[0,-2]],[[3212,3503],[-5,1]],[[3262,2953],[9,7]],[[3273,2961],[-7,10]],[[3272,2961],[0,1]],[[3519,1261],[-106,35]],[[3558,1249],[-7,2]],[[3786,3371],[21,-5]],[[3807,3366],[2,1]],[[3809,3367],[-2,-1]],[[3811,3369],[-1,-1]],[[3810,3367],[1,2]],[[3811,3369],[5,5]],[[3816,3374],[3,6]],[[3818,3380],[-2,-6]],[[3809,3368],[0,-1],[1,0],[0,1],[-1,0]],[[3818,3381],[0,-1],[1,0]],[[3819,3380],[0,1],[-1,0]],[[170,1046],[0,1]],[[177,1031],[-1,1]],[[177,1060],[7,6]],[[192,1072],[31,21]],[[227,1096],[7,17]],[[285,1189],[-46,52]],[[251,1136],[-1,10]],[[976,3151],[29,30],[101,-7],[191,59],[22,29],[40,-16],[150,15]],[[2771,3427],[13,1]],[[2023,2720],[1,0]],[[2800,2779],[123,-89],[68,-17],[6,-46],[97,-61]],[[382,1771],[4,-11]],[[82,766],[24,55]],[[99,701],[-6,20]],[[121,657],[-18,24]],[[130,628],[-5,13]],[[129,868],[13,47]],[[172,952],[17,26]],[[185,1005],[0,5]],[[189,1000],[-2,2]],[[270,1265],[12,7]],[[288,1279],[153,40],[49,55],[0,35]],[[2993,1712],[69,33],[11,97],[73,106]],[[500,1454],[19,30]],[[81,763],[1,3]],[[93,721],[-10,31]],[[106,821],[23,47]],[[185,1010],[-8,21]],[[189,978],[0,22]],[[490,1409],[-2,28]],[[105,2043],[-20,-30],[-28,22],[-57,-20]],[[106,2045],[55,36]],[[174,2090],[39,4]],[[2070,4052],[-113,-75],[-73,6]],[[990,2886],[-22,-15]],[[963,2861],[-139,67]],[[3359,2946],[-41,8]],[[968,2871],[0,-2]],[[0,671],[119,-30]],[[3016,2492],[47,-7],[34,71]],[[1088,2809],[43,11]],[[1133,2825],[-45,-16]],[[1884,3983],[-185,27]],[[1155,629],[57,-14],[51,34],[122,-19],[115,38],[186,-54],[116,14]],[[2428,840],[48,103]],[[2482,968],[22,39]],[[2608,1057],[4,-1]],[[2714,980],[6,-2]],[[2786,979],[180,160],[168,69],[103,-46],[201,-172]],[[949,2702],[10,-36],[15,26]],[[1007,2698],[21,-10],[-9,-111]],[[1225,2337],[-92,99]],[[1287,2328],[-53,8]],[[1356,2289],[-21,3]],[[1560,2040],[-101,70],[-13,-25],[-37,145],[-43,58]],[[2153,1386],[-78,12],[-5,42],[-57,5],[-59,52],[-105,-47],[-81,131],[-52,16],[-5,73],[-62,103],[43,-23],[-75,219]],[[2479,970],[-79,30],[-21,40],[-4,96],[47,25],[-18,101],[-19,1],[28,78]],[[489,1439],[11,15]],[[488,1438],[-1,0],[1,0]],[[234,1113],[2,1]],[[251,1129],[0,7]],[[4096,1892],[-34,-50],[-235,-342],[-62,-123],[-69,-224],[-20,-39],[-43,-28],[-107,-181],[-114,-105],[-46,-41],[-57,-90],[-23,-144],[7,-49],[42,-143],[52,-117],[-29,-48],[-47,-41],[-47,-88],[-41,-39],[-2379,0],[-49,76],[-22,54],[-18,78],[-43,65],[-100,106],[-79,134],[-62,53],[-17,28],[-1,49],[-41,-17],[-219,17],[-64,-38],[-52,-81],[-77,-49],[0,3621],[2171,0],[1925,0],[0,-2204]],[[0,2311],[30,-24],[9,-84],[-39,-59],[0,167]],[[0,2117],[36,-46],[-36,-39],[0,85]],[[0,1951],[27,-12],[-13,-44],[42,-60],[-56,-11],[0,127]],[[0,1816],[79,-12],[10,-32],[115,-15],[-17,42],[37,17],[-9,-41],[90,-69],[-168,-64],[-24,21],[11,-69],[53,5],[120,-72],[15,38],[-40,55],[28,21],[95,-39],[69,-78],[-39,-169],[-92,-57],[-166,-14],[0,-38],[52,-17],[63,37],[81,-72],[66,31],[26,36],[-17,48],[72,34],[-8,96],[13,-73],[62,-44],[-21,-22],[10,-57],[-43,-26],[-14,-63],[46,7],[60,-30],[33,-92],[-9,-40],[-66,38],[23,-66],[-22,-13],[-56,19],[-39,-62],[-18,26],[-48,-13],[35,-23],[-60,-12],[22,-31],[-60,10],[-33,-38],[-29,25],[-82,-3],[-67,-33],[-18,19],[-43,-59],[19,-78],[-23,-11],[-11,77],[32,55],[-16,16],[40,7],[75,139],[-24,58],[17,33],[-29,23],[-68,28],[-26,-36],[-23,15],[-41,-15],[0,722]],[[0,554],[8,3],[55,-21],[-17,-44],[-46,-12],[0,74]],[[2812,0],[-1691,0],[18,35],[60,6],[-12,69],[-127,-22],[24,26],[-33,33],[32,36],[1,65],[71,75],[23,-35],[23,47],[31,-7],[21,-55],[-21,-89],[80,-8],[0,-33],[57,-20],[49,39],[-58,11],[-13,35],[95,12],[35,-29],[37,46],[-22,30],[12,24],[141,39],[24,27],[3,43],[-100,80],[-50,-11],[-14,-88],[-32,41],[-34,6],[-19,-44],[-90,32],[-4,66],[-36,58],[63,13],[14,-53],[84,55],[66,7],[72,-48],[115,-22],[55,42],[-34,68],[98,35],[0,56],[-36,27],[23,27],[-93,-18],[-54,72],[-12,-40],[-41,34],[-83,-23],[-81,-95],[-63,-3],[83,238],[64,-40],[107,63],[90,-33],[197,-6],[18,28],[-61,28],[-9,28],[79,81],[12,175],[68,-59],[38,5],[125,-123],[73,-23],[-19,-144],[62,-17],[57,-61],[96,44],[17,73],[-25,38],[38,-1],[11,32],[-17,42],[-35,-38],[-21,10],[25,51],[-45,-22],[31,41],[-34,26],[52,6],[78,-47],[100,-18],[76,-73],[69,9],[7,-73],[-142,-143],[19,-87],[39,12],[47,-38],[-58,-118],[12,-118],[-21,-60],[-90,-137],[54,-82],[55,4],[-34,-95],[34,4],[41,-54],[30,12],[33,-14]],[[3731,1268],[-55,-154],[-43,-28],[-107,-181],[-118,-108],[-62,17],[-33,170],[35,30],[95,-30],[-33,340],[49,0],[81,-84],[26,25],[-26,102],[32,128],[92,-182],[67,-45]],[[3540,1920],[-2,56],[34,114],[97,-85],[-50,-62],[-79,-23]],[[1178,1665],[97,-29],[97,29],[-17,-75],[-80,-25],[-80,25],[-17,75]],[[3747,3324],[-78,42],[19,93],[208,77],[-10,-122],[-58,-72],[-81,-18]],[[4096,3445],[-8,93],[8,56],[0,-149]],[[3059,3590],[185,16],[37,-28],[-43,-117],[-83,1],[-165,116],[20,34],[49,-22]],[[4096,3737],[-387,-46],[-72,-28],[-65,213],[210,65],[127,-46],[19,109],[162,0],[-71,92],[77,0],[0,-359]],[[707,4096],[-34,-227],[-26,-35],[-52,-1],[-36,119],[4,94],[32,0],[0,43],[112,7]],[[2828,3408],[-97,43],[32,85],[-54,133],[22,37],[42,0],[14,-32],[9,-96],[54,-135],[-22,-35]],[[1064,4010],[-48,12],[-98,74],[188,0],[7,-50],[-49,-36]],[[1825,4055],[-31,10],[-38,31],[132,0],[-63,-41]],[[3799,2473],[-41,21],[-20,48],[-4,143],[54,-25],[26,-63],[-15,-124]],[[921,2918],[36,-31],[59,11],[32,42],[97,-85],[-59,-143],[-121,-21],[-112,82],[-31,167],[65,43],[34,-65]],[[3346,2813],[-93,90],[-37,165],[130,0],[22,-204],[-22,-51]],[[371,2071],[88,68],[3,-41],[55,-30],[77,50],[16,45],[85,32],[-105,129],[-96,2],[24,80],[49,2],[18,29],[44,-10],[23,17],[-2,44],[51,5],[-35,50],[72,39],[18,-93],[61,39],[-14,-53],[57,-1],[-12,-53],[45,-11],[37,27],[-19,15],[22,119],[41,-16],[24,33],[17,-20],[7,16],[174,-11],[9,-47],[34,-18],[-44,-28],[2,-74],[133,-32],[42,-87],[-54,7],[-64,68],[-24,-30],[-112,121],[-68,-91],[-40,-17],[8,-74],[-132,60],[-25,-77],[43,-47],[111,10],[40,-22],[-77,-65],[-57,-9],[17,-33],[38,3],[-7,-64],[94,-12],[37,-75],[-4,-70],[217,83],[118,-24],[29,43],[30,-6],[10,101],[61,-27],[-27,76],[77,107],[64,-106],[-26,-85],[19,-51],[-75,-17],[-41,-64],[-206,-28],[23,-29],[-32,-4],[-25,-108],[-83,-17],[-20,16],[10,63],[10,25],[30,-2],[-10,19],[-71,5],[-2,-123],[-140,59],[-12,79],[-75,8],[-12,70],[-104,4],[-1,28],[-40,6],[-12,-45],[-16,6],[16,76],[33,3],[15,61],[-73,98],[-239,-177],[72,-106],[172,-49],[18,-132],[86,-62],[-11,-56],[85,-16],[-25,50],[63,25],[51,-65],[-47,-47],[21,-44],[-33,-44],[46,-51],[59,31],[11,-68],[-62,-51],[23,-45],[-62,-24],[22,-49],[33,63],[43,-9],[45,53],[-13,44],[-32,3],[11,32],[29,0],[-25,35],[27,-3],[82,-55],[-12,-143],[45,-12],[32,-74],[49,-4],[11,61],[-79,53],[-28,58],[92,91],[-58,43],[1,56],[73,11],[24,48],[58,-4],[-4,-73],[21,-23],[102,64],[70,-113],[95,-12],[105,-53],[31,14],[18,73],[94,-16],[9,30],[-28,30],[24,21],[51,-57],[12,-71],[-55,-9],[-38,-112],[-42,17],[-43,-15],[-36,73],[-25,-2],[-30,-114],[-42,-10],[-3,-24],[84,-84],[-87,-48],[21,-29],[-12,-46],[-103,-30],[31,74],[-22,62],[-91,-99],[-43,8],[-95,102],[-28,-122],[39,-23],[52,10],[-16,-34],[-71,-19],[-90,95],[-24,-75],[-79,29],[-53,-10],[40,-70],[-22,-121],[-136,-48],[-36,19],[18,25],[-36,45],[43,26],[-24,45],[35,81],[-23,32],[84,-23],[-3,48],[-62,45],[58,-20],[9,24],[29,-21],[3,47],[-7,24],[-30,-12],[-49,27],[-74,87],[26,26],[-28,49],[53,57],[-17,62],[18,26],[-39,59],[-72,3],[-8,29],[-68,16],[-43,50],[12,26],[-76,76],[15,135],[-96,74],[-42,-16],[-43,82],[-133,82],[-17,59]],[[0,2402],[34,-8],[215,-466],[167,-237],[87,-246],[9,-74],[79,-42],[32,-139],[-24,-2],[-31,129],[-59,36],[-115,340],[-181,260],[-161,392],[-52,43],[0,14]]]}