{"objects":{"water":{"type":"GeometryCollection","geometries":[{"type":"MultiPolygon","properties":{"source":"naturalearthdata.com","kind":"ocean","area":1444195503964160,"sort_rank":200,"min_zoom":0.0,"id":1},"arcs":[[[0],[1],[2],[3]],[[4]],[[5],[6]]]},{"type":"Polygon","properties":{"source":"naturalearthdata.com","kind":"lake","name":"Biwa Ko","area":972642048,"sort_rank":200,"min_zoom":0.0,"id":349},"arcs":[[7]]},{"type":"Point","properties":{"label_placement":true,"kind":"lake","name":"Biwa Ko","area":972642048,"sort_rank":200,"source":"naturalearthdata.com","min_zoom":0.0,"id":349},"coordinates":[197,2860]},{"type":"MultiLineString","properties":{"source":"naturalearthdata.com","kind":"ocean","sort_rank":205,"boundary":true,"min_zoom":0.0,"id":110},"arcs":[[8],[9],[10]]},{"type":"LineString","properties":{"source":"naturalearthdata.com","kind":"lake","sort_rank":367,"boundary":true,"min_zoom":0.0,"id":349},"arcs":[11]},{"type":"LineString","properties":{"source":"naturalearthdata.com","kind":"ocean","sort_rank":205,"boundary":true,"min_zoom":0.0,"id":717},"arcs":[12]},{"type":"LineString","properties":{"source":"naturalearthdata.com","kind":"ocean","sort_rank":205,"boundary":true,"min_zoom":0.0,"id":721},"arcs":[13]},{"type":"LineString","properties":{"source":"naturalearthdata.com","kind":"ocean","sort_rank":205,"boundary":true,"min_zoom":0.0,"id":722},"arcs":[14]},{"type":"LineString","properties":{"source":"naturalearthdata.com","kind":"ocean","sort_rank":205,"boundary":true,"min_zoom":0.0,"id":723},"arcs":[15]},{"type":"LineString","properties":{"source":"naturalearthdata.com","kind":"ocean","sort_rank":205,"boundary":true,"min_zoom":0.0,"id":1384},"arcs":[16]}]},"buildings":{"type":"GeometryCollection","geometries":[]},"places":{"type":"GeometryCollection","geometries":[{"type":"Point","properties":{"name:ty":"T\u0101p\u014dn\u0113","name:cy":"Japan","name:ko":"\uc77c\ubcf8","name:cv":"\u042f\u043f\u043e\u043d\u0438","name:cu":"\ua656\u043f\u0461\u043d\u0456\u0301\ua657","name:kl":"Japani","name:cs":"Japonsko","name:tw":"Yapan","name:ki":"Njabani","name:kw":"Nihon","name:kv":"\u042f\u043f\u043e\u043d\u0438\u044f","name:ku":"Japon","name:ti":"\u1303\u1353\u1295","name:ks":"\u091c\u093e\u092a\u093e\u0928","name:to":"Siapani","name:tl":"Hapon","name:ch":"Chapan","name:ce":"\u042f\u043f\u043e\u043d\u0438","name:ta":"\u0b9c\u0baa\u0bcd\u0baa\u0bbe\u0ba9\u0bcd","name:tg":"\u04b6\u043e\u043f\u043e\u043d","name:ca":"Jap\u00f3","name:te":"\u0c1c\u0c2a\u0c3e\u0c28\u0c4d","name:ka":"\u10d8\u10d0\u10de\u10dd\u10dc\u10d8\u10d0","name:hr":"Japan","name:da":"Japan","name:de":"Japan","name:dz":"\u0f47\u0f0b\u0f54\u0f71\u0f53","source":"openstreetmap.org","name:kn":"\u0c9c\u0caa\u0cbe\u0ca8\u0ccd","name:dv":"\u0796\u07a6\u0795\u07a7\u0782\u07aa","name:km":"\u1787\u1794\u17c9\u17bb\u1793","name:lv":"Jap\u0101na","name:lt":"Japonija","name:uz":"Yaponiya","name:kk":"\u0416\u0430\u043f\u043e\u043d\u0438\u044f","name:ur":"\u062c\u0627\u067e\u0627\u0646","name:lb":"Japan","name:la":"Iaponia","name:lg":"Japani","name:uk":"\u042f\u043f\u043e\u043d\u0456\u044f","name:ug":"\u064a\u0627\u067e\u0648\u0646\u0649\u064a\u06d5","name:li":"Japan","name:ln":"Zap\u0254\u0301","name:lo":"\u0e9b\u0eb0\u0ec0\u0e97\u0e94\u0e8d\u0eb5\u0ec8\u0e9b\u0eb8\u0ec8\u0e99","name:el":"\u0399\u03b1\u03c0\u03c9\u03bd\u03af\u03b1","name:eo":"Japanujo","name:en":"Japan","name":"\u65e5\u672c","name:tk":"\u00ddaponi\u00fda","name:ee":"Japan","name:th":"\u0e1b\u0e23\u0e30\u0e40\u0e17\u0e28\u0e0d\u0e35\u0e48\u0e1b\u0e38\u0e48\u0e19","name:eu":"Japonia","name:et":"Jaapan","name:es":"Jap\u00f3n","name:ay":"Nihun","name:rm":"Giapun","name:rn":"Ubuyapani","name:az":"Yaponiya","name:ie":"Japan","name:id":"Jepang","name:ii":"\ua3dd\ua02a","name:as":"\u099c\u09be\u09aa\u09be\u09a8","name:ar":"\u0627\u0644\u064a\u0627\u0628\u0627\u0646","name:io":"Japonia","name:ak":"Gyapan","name:am":"\u1303\u1353\u1295","name:it":"Giappone","name:an":"Chap\u00f3n","name:aa":"Japan","name:ru":"\u042f\u043f\u043e\u043d\u0438\u044f","name:ab":"\u0418\u0430\u043f\u043e\u043d\u0438\u0430","name:af":"Japan","name:zu":"iJapani","name:za":"Nditbonj","name:zh":"R\u00ecb\u011bn","name:so":"Jabaan","name:sn":"Japan","name:sm":"Iapani","name:sl":"Japonska","name:sk":"Japonsko","name:ja":"Nippon","name:si":"\u0da2\u0db4\u0dcf\u0db1\u0dba","name:sh":"Japan","name:sg":"Zap\u00f6on","name:se":"Jap\u00e1na","name:sd":"\u062c\u0627\u067e\u0627\u0646","name:sc":"Giappone","name:br":"Japan","name:bs":"Japan","name:bm":"Zap\u0254n","name:bn":"\u099c\u09be\u09aa\u09be\u09a8","name:bo":"\u0f62\u0f72\u0f0b\u0f54\u0f72\u0f53\u0f0d","name:sa":"\u091c\u093e\u092a\u093e\u0928","name:sw":"Japani","name:be":"\u042f\u043f\u043e\u043d\u0456\u044f","name:su":"Jepang","name:bg":"\u042f\u043f\u043e\u043d\u0438\u044f","name:ss":"IJaphani","name:ba":"\u042f\u043f\u043e\u043d\u0438\u044f","name:sq":"Japonia","name:jv":"Jepang","name:ia":"Japon","name:pt":"Jap\u00e3o","name:ps":"\u062c\u0627\u067e\u0627\u0646","name:om":"Japan","name:oc":"Japon","min_zoom":2.0,"name:ro":"Japonia","name:zh-min-nan":"Ji\u030dt-p\u00fan","name:os":"\u042f\u043f\u043e\u043d","name:or":"\u0b1c\u0b3e\u0b2a\u0b3e\u0b28","name:pl":"Japonia","name:sr":"\u0408\u0430\u043f\u0430\u043d","name:pa":"\u0a1c\u0a2a\u0a3e\u0a28","name:tr":"Japonya","name:hi":"\u091c\u093e\u092a\u093e\u0928","name:sv":"Japan","name:he":"\u05d9\u05e4\u05df","name:ha":"Japan","name:hy":"\u0543\u0561\u057a\u0578\u0576\u056b\u0561","name:ht":"Japon","name:hu":"Jap\u00e1n","name:qu":"Nihun","population":127360000,"kind":"country","name:is":"Japan","name:yi":"\u05d9\u05d0\u05e4\u05d0\u05df","name:iu":"\u14c3\u1449\u140a\u14d0\/niipan","name:yo":"Japan","name:mt":"\u0120appun","alt_name:eo":"Japanio","name:ms":"Jepun","name:mr":"\u091c\u092a\u093e\u0928","name:my":"\u1002\u103b\u1015\u1014\u103a\u1014\u102d\u102f\u1004\u103a\u1004\u1036","int_name":"Japan","name:mg":"Japana","name:ml":"\u0d1c\u0d2a\u0d4d\u0d2a\u0d3e\u0d28\u0d4d\u200d","name:vi":"Nh\u1eadt B\u1ea3n","name:mn":"\u042f\u043f\u043e\u043d","name:mi":"Nipono","id":424313451,"name:mk":"\u0408\u0430\u043f\u043e\u043d\u0438\u0458\u0430","name:vo":"Yap\u00e4n","name:fa":"\u0698\u0627\u067e\u0646","name:rw":"Ubuyapani","name:ff":"Sapoo","name:fi":"Japani","name:ky":"\u0416\u0430\u043f\u043e\u043d\u0438\u044f","old_name:vi":"Nh\u1eadt B\u1ed5n","name:fo":"Japan","alt_name:vi":"Nh\u1eadt","name:fr":"Japon","name:fy":"Japan","name:nl":"Japan","name:nn":"Japan","name:no":"Japan","name:na":"Djapan","name:ne":"\u091c\u093e\u092a\u093e\u0928","name:wo":"Sapo\u014b","name:nv":"Bina'adaa\u0142tz\u00f3z\u00ed","name:ga":"An tSeap\u00e1in","name:gd":"Iapan","name:gn":"Hap\u00f5","name:gl":"Xap\u00f3n - \u65e5\u672c","name:gv":"Yn \u00c7hapaan","name:gu":"\u0a9c\u0abe\u0aaa\u0abe\u0aa8","name:tt":"\u042f\u043f\u043e\u043d\u0438\u044f"},"coordinates":[772,3148]},{"type":"Point","properties":{"source":"naturalearthdata.com","kind":"locality","name":"Tokyo","country_capital":true,"population":35676000,"min_zoom":2.0,"id":7280},"coordinates":[865,2957]},{"type":"Point","properties":{"source":"naturalearthdata.com","kind":"locality","name":"Osaka","population":11294000,"region_capital":true,"min_zoom":3.0,"id":7248},"coordinates":[83,2756]},{"type":"Point","properties":{"admin_level":"4","kind":"region","name:en":"Fukui","name":"\u798f\u4e95\u770c","kind_detail":"province","name:de":"Fukui","source":"openstreetmap.org","min_zoom":4.0,"name:uk":"\u041f\u0440\u0435\u0444\u0435\u043a\u0442\u0443\u0440\u0430 \u0424\u0443\u043a\u0443\u0439","name:ru":"\u0424\u0443\u043a\u0443\u0438","name:pl":"Prefektura Fukui","id":4343334447,"name:ja":"Fukui-ken"},"coordinates":[293,3009]},{"type":"Point","properties":{"kind":"region","name:en":"Wakayama","name":"\u548c\u6b4c\u5c71\u770c","kind_detail":"province","source":"openstreetmap.org","min_zoom":4.0,"name:uk":"\u0412\u0430\u043a\u0430\u044f\u043c\u0430","name:ru":"\u0412\u0430\u043a\u0430\u044f\u043c\u0430","name:pl":"Wakayama","id":3168384018,"name:ja":"\u308f\u304b\u3084\u307e\u3051\u3093"},"coordinates":[108,2553]},{"type":"Point","properties":{"kind":"region","name:en":"Nara Prefecture","name":"\u5948\u826f\u770c (Nara Prefecture)","kind_detail":"province","source":"openstreetmap.org","min_zoom":4.0,"name:uk":"\u041d\u0430\u0440\u0430","name:ru":"\u041d\u0430\u0440\u0430","name:pl":"Nara","id":2489323851,"name:ja":"\u5948\u826f\u770c"},"coordinates":[161,2658]},{"type":"Point","properties":{"kind":"region","name:en":"Osaka Prefecture","name":"\u5927\u962a\u5e9c (Osaka Prefecture)","kind_detail":"province","source":"openstreetmap.org","min_zoom":4.0,"name:uk":"\u041e\u0441\u0430\u043a\u0430","name:ru":"\u041e\u0441\u0430\u043a\u0430","name:pl":"Osaka","id":551366237,"name:ja":"\u5927\u962a\u5e9c"},"coordinates":[89,2728]},{"type":"Point","properties":{"kind":"region","name:en":"Kyoto Prefecture","name":"\u4eac\u90fd\u5e9c","kind_detail":"province","source":"openstreetmap.org","min_zoom":4.0,"name:uk":"\u041a\u0456\u043e\u0442\u043e","name:ru":"\u041a\u0438\u043e\u0442\u043e","name:pl":"Kioto","id":3289871388,"name:ja":"Ky\u014dto-fu"},"coordinates":[134,2823]},{"type":"Point","properties":{"kind":"region","name:en":"Aichi prefecture","name":"\u611b\u77e5\u770c (Aichi)","kind_detail":"province","source":"openstreetmap.org","min_zoom":4.0,"name:uk":"\u0410\u0439\u0442\u0456","name:ru":"\u0410\u0439\u0442\u0438","name:pl":"Aichi","name:hu":"Aicsi prefekt\u00fara","id":569005463,"name:ja":"\u611b\u77e5\u770c"},"coordinates":[410,2809]},{"type":"Point","properties":{"kind":"region","name:en":"Gifu Prefecture","name":"\u5c90\u961c\u770c","kind_detail":"province","name:de":"Gifu","source":"openstreetmap.org","min_zoom":4.0,"name:uk":"\u041f\u0440\u0435\u0444\u0435\u043a\u0442\u0443\u0440\u0430 \u0490\u0456\u0444\u0443","name:ru":"\u0413\u0438\u0444\u0443","name:pl":"Prefektura Gifu","name:hu":"Gifu prefekt\u00fara","id":3416105900,"name:ja":"Gifu-ken"},"coordinates":[372,2979]},{"type":"Point","properties":{"kind":"region","name:en":"Gunma","name":"\u7fa4\u99ac\u770c (Gunma)","kind_detail":"province","source":"openstreetmap.org","min_zoom":4.0,"name:uk":"\u0490\u0443\u043c\u043c\u0430","name:ru":"\u0413\u0443\u043c\u043c\u0430","name:pl":"Gunma","name:hu":"Gunma prefekt\u00fara","id":1068823601,"name:ja":"\u7fa4\u99ac\u770c"},"coordinates":[734,3137]},{"type":"Point","properties":{"admin_level":"4","kind":"region","name:en":"Kanagawa","name":"\u795e\u5948\u5ddd\u770c (Kanagawa)","kind_detail":"province","source":"openstreetmap.org","min_zoom":4.0,"name:uk":"\u041a\u0430\u043d\u0430\u0491\u0430\u0432\u0430","name:ru":"\u041a\u0430\u043d\u0430\u0433\u0430\u0432\u0430","name:pl":"Kanagawa","name:hu":"Kanagawa prefekt\u00fara","id":2719205431,"name:ja":"\u795e\u5948\u5ddd\u770c"},"coordinates":[796,2903]},{"type":"Point","properties":{"admin_level":"4","kind":"region","name:en":"Chiba","name":"\u5343\u8449\u770c (Chiba)","kind_detail":"province","source":"openstreetmap.org","min_zoom":4.0,"name:uk":"\u0427\u0456\u0431\u0430","name:ru":"\u0422\u0438\u0431\u0430","name:pl":"Chiba","name:hu":"Chiba prefekt\u00fara","id":2739381522,"name:ja":"\u5343\u8449\u770c"},"coordinates":[958,2928]},{"type":"Point","properties":{"admin_level":"4","kind":"region","name:en":"Saitama","name":"\u57fc\u7389\u770c","kind_detail":"province","source":"openstreetmap.org","min_zoom":4.0,"name:uk":"\u0421\u0430\u0439\u0442\u0430\u043c\u0430","name:ru":"\u0421\u0430\u0439\u0442\u0430\u043c\u0430","name:pl":"Saitama","name:hu":"Saitama prefekt\u00fara","id":1068823662,"name:ja":"Saitama-ken"},"coordinates":[804,3019]},{"type":"Point","properties":{"admin_level":"4","kind":"region","name:en":"Ibaraki","name":"\u8328\u57ce\u770c (Ibaraki)","kind_detail":"province","source":"openstreetmap.org","min_zoom":4.0,"name:uk":"\u0406\u0431\u0430\u0440\u0430\u043a\u0456","name:ru":"\u0418\u0431\u0430\u0440\u0430\u043a\u0438","name:pl":"Ibaraki","name:hu":"Ibaraki prefekt\u00fara","id":1475102974,"name:ja":"\u8328\u57ce\u770c"},"coordinates":[996,3086]},{"type":"Point","properties":{"kind":"region","name:en":"Ishikawa Prefecture","name":"\u77f3\u5ddd\u770c","kind_detail":"province","name:de":"Ishikawa","source":"openstreetmap.org","min_zoom":4.0,"name:uk":"\u041f\u0440\u0435\u0444\u0435\u043a\u0442\u0443\u0440\u0430 \u0406\u0441\u0456\u043a\u0430\u0432\u0430","name:ru":"\u0418\u0441\u0438\u043a\u0430\u0432\u0430","name:pl":"Prefektura Ishikawa","name:hu":"Isikava prefekt\u00fara","id":3463194939,"name:ja":"Ishikawa-ken"},"coordinates":[331,3237]},{"type":"Point","properties":{"kind":"region","name:en":"Toyama","name":"\u5bcc\u5c71\u770c","kind_detail":"province","name:de":"Toyama","source":"openstreetmap.org","min_zoom":4.0,"name:uk":"\u041f\u0440\u0435\u0444\u0435\u043a\u0442\u0443\u0440\u0430 \u0422\u043e\u044f\u043c\u0430","name:ru":"\u0422\u043e\u044f\u043c\u0430","name:pl":"Prefektura Toyama","name:hu":"Tojama prefekt\u00fara","id":3464760713,"name:ja":"\u3068\u3084\u307e\u3051\u3093"},"coordinates":[404,3164]},{"type":"Point","properties":{"admin_level":"4","kind":"region","name:en":"Tochigi","name":"\u6803\u6728\u770c (Tochigi)","kind_detail":"province","source":"openstreetmap.org","min_zoom":4.0,"name:uk":"\u0422\u043e\u0442\u0456\u0491\u0456","name:ru":"\u0422\u043e\u0442\u0438\u0433\u0438","name:pl":"Tochigi","name:hu":"Tochigi prefekt\u00fara","id":1108891359,"name:ja":"\u6803\u6728\u770c"},"coordinates":[876,3170]},{"type":"Point","properties":{"admin_level":"4","kind":"region","name:en":"Fukushima","name":"\u798f\u5cf6\u770c (Fukushima)","kind_detail":"province","source":"openstreetmap.org","min_zoom":4.0,"name:uk":"\u0424\u0443\u043a\u0443\u0441\u0456\u043c\u0430","name:ru":"\u0424\u0443\u043a\u0443\u0441\u0438\u043c\u0430","name:pl":"Fukushima","id":734866112,"name:ja":"\u798f\u5cf6\u770c"},"coordinates":[929,3322]},{"type":"Point","properties":{"kind":"region","name:en":"Iwate Prefecture","name":"\u5ca9\u624b\u770c","kind_detail":"province","source":"openstreetmap.org","min_zoom":4.0,"name:uk":"\u0406\u0432\u0430\u0442\u0435","name:ru":"\u0418\u0432\u0430\u0442\u044d","name:pl":"Iwate","id":471357231,"name:ja":"\u3044\u308f\u3066\u3051\u3093"},"coordinates":[1170,3793]},{"type":"Point","properties":{"name:sl":"Regija Kanto","name:ja":"Kinki","name:eo":"Kansaja Regiono","min_zoom":4.0,"name:uk":"\u0420\u0435\u0433\u0456\u043e\u043d \u041a\u0456\u043d\u043a\u0456","name:ru":"\u041a\u0430\u043d\u0441\u0430\u0439","name:pl":"Region Kansai","name:hr":"Kinki","id":1491974656,"kind":"region","name:en":"Kinki Region","name":"\u8fd1\u757f","kind_detail":"state","name:de":"Kinki","source":"openstreetmap.org","name:fr":"R\u00e9gion du Kansai"},"coordinates":[139,2813]},{"type":"Point","properties":{"kind":"region","name:en":"Shiga Prefecture","name":"\u6ecb\u8cc0\u770c (Shiga Prefecture)","kind_detail":"province","min_zoom":4.0,"source":"openstreetmap.org","name:fr":"Pr\u00e9fecture de Shiga","name:uk":"\u0428\u0456\u0491\u0430","name:ru":"\u0421\u0438\u0433\u0430","name:pl":"Shiga","id":541403056,"name:ja":"\u6ecb\u8cc0\u770c"},"coordinates":[202,2863]},{"type":"Point","properties":{"kind":"region","name:en":"Mie Prefecture","name":"\u4e09\u91cd\u770c","kind_detail":"province","min_zoom":4.0,"source":"openstreetmap.org","name:fr":"Pr\u00e9fecture de Mie","name:uk":"\u041c\u0456\u0454","name:ru":"\u041c\u0438\u044d","name:pl":"Mie","name:hu":"Mie prefekt\u00fara","id":656291804,"name:ja":"Mie ken"},"coordinates":[276,2752]},{"type":"Point","properties":{"kind":"region","name:en":"Nagano","name":"\u9577\u91ce\u770c (Nagano)","kind_detail":"province","name:pt":"Nagano","id":702987351,"source":"openstreetmap.org","name:fr":"Pr\u00e9fecture de Nagano","name:eo":"Nagano","name:uk":"\u041d\u0430\u0491\u0430\u043d\u043e","name:ru":"\u041d\u0430\u0433\u0430\u043d\u043e","min_zoom":4.0,"name:pl":"Nagano","name:ja":"\u9577\u91ce\u770c"},"coordinates":[552,3049]},{"type":"Point","properties":{"kind":"region","name:en":"Aomori","name":"\u9752\u68ee\u770c","kind_detail":"province","min_zoom":4.0,"source":"openstreetmap.org","name:fr":"Pr\u00e9fecture d'Aomori","name:uk":"\u0410\u043e\u043c\u043e\u0440\u0456","name:ru":"\u0410\u043e\u043c\u043e\u0440\u0438","name:pl":"Aomori","id":734876479,"name:ja":"Aomori-ken"},"coordinates":[1018,4076]},{"type":"Point","properties":{"kind":"region","name:en":"Miyagi","name":"\u5bae\u57ce\u770c","kind_detail":"province","min_zoom":4.0,"source":"openstreetmap.org","name:fr":"Pr\u00e9fecture de Miyagi","name:uk":"\u041c\u0456\u044f\u0491\u0456","name:ru":"\u041c\u0438\u044f\u0433\u0438","name:pl":"Miyagi","name:hu":"Mijagi prefekt\u00fara","id":752184862,"name:ja":"Miyagi-ken"},"coordinates":[1088,3538]},{"type":"Point","properties":{"kind":"region","name:en":"Akita","name":"\u79cb\u7530\u770c","kind_detail":"province","min_zoom":4.0,"source":"openstreetmap.org","name:fr":"Pr\u00e9fecture d'Akita","name:uk":"\u0410\u043a\u0456\u0442\u0430","name:ru":"\u0410\u043a\u0438\u0442\u0430","name:pl":"Akita","name:hu":"Akita prefekt\u00fara","id":752195636,"name:ja":"Akita-ken"},"coordinates":[973,3818]},{"type":"Point","properties":{"kind":"region","name:en":"Yamagata","name":"\u5c71\u5f62\u770c","kind_detail":"province","min_zoom":4.0,"source":"openstreetmap.org","name:fr":"Pr\u00e9fecture de Yamagata","name:uk":"\u042f\u043c\u0430\u0491\u0430\u0442\u0430","name:ru":"\u042f\u043c\u0430\u0433\u0430\u0442\u0430","name:pl":"Yamagata","name:hu":"Jamagata prefekt\u00fara","id":752206841,"name:ja":"Yamagata-ken"},"coordinates":[925,3557]},{"type":"Point","properties":{"kind":"region","name:en":"Tohoku Region","name":"\u6771\u5317\u5730\u65b9","kind_detail":"state","name:eo":"Tohokua Regiono","id":1495303476,"source":"openstreetmap.org","name:fr":"R\u00e9gion de T\u014dhoku","name:uk":"\u0420\u0435\u0433\u0456\u043e\u043d \u0422\u043e\u0445\u043e\u043a\u0443","name:ru":"\u0422\u043e\u0445\u043e\u043a\u0443","min_zoom":4.0,"name:hu":"T\u00f3hoku","name:hr":"T\u014dhoku regija","name:pl":"Region T\u014dhoku","name:ja":"T\u014dhoku Chih\u014d"},"coordinates":[1051,3702]},{"type":"Point","properties":{"kind":"region","name:en":"Yamanashi prefecture","name":"\u5c71\u68a8\u770c (Yamanashi)","kind_detail":"province","source":"openstreetmap.org","min_zoom":4.0,"name:uk":"\u042f\u043c\u0430\u043d\u0430\u0441\u0456","name:ru":"\u042f\u043c\u0430\u043d\u0430\u0441\u0438","name:pl":"Yamanashi","name:hu":"Jamanasi prefekt\u00fara","id":1775025907,"name:ja":"\u5c71\u68a8\u770c"},"coordinates":[662,2947]},{"type":"Point","properties":{"kind":"region","name:en":"Niigata","name":"\u65b0\u6f5f\u770c","kind_detail":"province","min_zoom":4.0,"source":"openstreetmap.org","name:fr":"Pr\u00e9fecture de Niigata","name:uk":"\u041d\u0456\u0457\u0491\u0430\u0442\u0430","name:ru":"\u041d\u0438\u0438\u0433\u0430\u0442\u0430","name:pl":"Niigata","name:hu":"Niigata prefekt\u00fara","id":752398446,"name:ja":"Niigata-ken"},"coordinates":[686,3379]},{"type":"Point","properties":{"name:ia":"Tokyo","admin_level":"4","name:pt":"T\u00f3quio","name:ja":"T\u014dky\u014d-to","name:ko":"\ub3c4\ucfc4 \ub3c4","name:eo":"Tokio","name:io":"Tokyo","min_zoom":4.0,"name:uk":"\u0422\u043e\u043a\u0456\u043e","name:ru":"\u0422\u043e\u043a\u0438\u043e","name:pl":"Tokio","id":4351358847,"kind":"region","name:en":"Tokyo","name":"\u6771\u4eac\u90fd","kind_detail":"province","name:de":"Tokio","source":"openstreetmap.org"},"coordinates":[802,2744]},{"type":"Point","properties":{"kind":"region","name:en":"Shizuoka","name":"\u9759\u5ca1\u770c","kind_detail":"province","source":"openstreetmap.org","min_zoom":4.0,"name:uk":"\u0421\u0456\u0434\u0437\u0443\u043e\u043a\u0430","name:ru":"\u0421\u0438\u0434\u0437\u0443\u043e\u043a\u0430","name:pl":"Shizuoka","id":2035767441},"coordinates":[635,2779]}]},"transit":{"type":"GeometryCollection","geometries":[]},"pois":{"type":"GeometryCollection","geometries":[]},"boundaries":{"type":"GeometryCollection","geometries":[]},"roads":{"type":"GeometryCollection","geometries":[]},"earth":{"type":"GeometryCollection","geometries":[{"type":"MultiPolygon","properties":{"sort_rank":10,"source":"naturalearthdata.com","min_zoom":0.0,"kind":"earth","area":300588470508},"arcs":[[[17]],[[18]],[[19]]]}]},"landuse":{"type":"GeometryCollection","geometries":[{"type":"MultiPolygon","properties":{"source":"naturalearthdata.com","kind":"urban_area","name":"","area":80720044097,"sort_rank":11,"min_zoom":4.0},"arcs":[[[20]],[[21]],[[22]],[[23]],[[24],[25]],[[26]],[[27]],[[28]],[[29]],[[30]],[[31]],[[32]],[[33]],[[34]],[[35]],[[36]],[[37]],[[38]],[[39]],[[40]],[[41]],[[42]],[[43]],[[44]],[[45]],[[46]],[[47]],[[48]],[[49]]]}]}},"type":"Topology","transform":{"translate":[135.0,21.9430455334],"scale":[0.0054931641,0.0046476691]},"arcs":[[[4096,4096],[0,-4096],[-4096,0],[0,2710],[1,1],[-1,0],[0,21],[8,-2],[28,5],[29,0],[11,-8],[-1,-15],[-5,-10],[-14,-18],[-8,-8],[-24,-14],[-6,-6],[7,-23],[-2,-37],[9,-24],[15,-19],[16,-19],[9,-20],[10,-16],[45,-14],[40,16],[28,46],[36,69],[11,17],[39,18],[45,9],[11,5],[5,12],[0,11],[-7,7],[-41,27],[-15,19],[8,24],[21,42],[9,8],[11,6],[9,2],[8,-5],[-8,-12],[1,-14],[5,-23],[-2,-16],[7,-5],[6,2],[-2,21],[5,4],[8,-5],[5,-10],[12,-1],[23,3],[9,-1],[4,-9],[-2,-5],[-38,-18],[-3,-8],[47,11],[41,6],[37,-4],[21,1],[21,-2],[39,-9],[11,29],[18,25],[15,14],[14,16],[5,12],[7,9],[26,8],[19,-6],[15,-15],[-19,-11],[1,-21],[-8,-38],[6,-11],[8,-7],[10,2],[16,15],[6,9],[13,22],[6,25],[-1,30],[4,13],[5,12],[16,14],[20,4],[21,1],[16,-12],[13,-22],[7,1],[10,16],[3,7],[-8,4],[-7,10],[-2,19],[21,19],[1,5],[-1,7],[3,13],[9,10],[14,2],[14,0],[10,-7],[10,-11],[-2,-9],[-11,-12],[-15,-14],[-7,-16],[-14,-11],[4,-14],[-4,-34],[3,-14],[-8,-11],[8,-9],[14,-3],[7,10],[18,20],[18,12],[29,13],[7,5],[7,9],[4,10],[-1,27],[8,25],[26,26],[8,7],[42,13],[-11,13],[-10,13],[-25,46],[-5,18],[-3,19],[3,17],[5,16],[0,13],[1,13],[19,49],[11,25],[9,9],[10,8],[14,16],[6,24],[6,76],[-6,50],[-8,27],[-6,27],[0,22],[6,21],[21,35],[6,6],[27,9],[20,0],[18,5],[8,20],[2,29],[5,28],[6,12],[8,10],[4,11],[2,13],[7,4],[8,1],[7,4],[5,5],[7,10],[10,5],[2,23],[12,45],[3,39],[-2,13],[2,15],[0,11],[-3,12],[-8,24],[-10,24],[-15,48],[-27,39],[-19,12],[-14,18],[-6,24],[-3,25],[-2,30],[2930,0]],[[1294,1028],[11,-23],[4,1],[2,6],[-7,14],[-7,3],[-3,-1]],[[800,2743],[9,-3],[2,11],[-5,10],[-10,0],[-1,-12],[5,-6]],[[869,2396],[9,-7],[3,2],[6,8],[-12,8],[-5,-1],[-2,-4],[1,-6]],[[1132,4096],[-6,-12],[-12,-9],[-33,13],[-11,-3],[-6,-12],[-8,-8],[-9,-1],[-9,6],[-4,7],[-2,19],[100,0]],[[971,4096],[-1,-7],[-9,-22],[-5,-8],[-9,-7],[-10,-5],[-11,-1],[-10,-3],[-12,-13],[-8,-16],[0,-14],[8,-26],[9,-21],[-1,-12],[-7,-26],[-12,-25],[-6,-8],[-9,-4],[-12,-2],[-3,-8],[13,-9],[14,2],[10,-1],[9,-6],[11,-23],[2,-27],[-3,-34],[-2,-12],[-5,-11],[-6,-10],[-7,-8],[-5,-10],[-6,-26],[-14,-48],[-9,-21],[-17,-19],[-14,-21],[-11,-21],[-8,-22],[-6,-28],[-8,-27],[-7,-10],[-21,-19],[-66,-36],[-12,-15],[-9,-24],[-11,-22],[-14,-19],[-15,-17],[-42,-37],[-18,-10],[-20,-5],[-36,-18],[-72,-25],[-6,-6],[-26,-33],[-8,-3],[-9,0],[-22,4],[-20,14],[-1,12],[1,14],[-4,14],[-17,20],[4,12],[11,6],[11,4],[20,14],[34,33],[0,10],[-3,8],[-23,-5],[-43,-18],[-21,-7],[-23,-40],[5,-53],[-9,-45],[-26,-36],[-36,-46],[-17,-16],[-20,-13],[-16,-23],[-11,-28],[3,-25],[13,-22],[-14,-19],[-21,-16],[-19,-12],[-21,-10],[-14,3],[-50,1],[-11,6],[-7,9],[7,14],[-1,14],[-8,4],[-8,1],[-32,-11],[0,1137],[971,0]],[[639,3511],[-1,12],[-8,-5],[-28,-28],[-10,-18],[-1,-18],[14,-1],[0,-5],[-6,-16],[-1,-9],[-11,-5],[4,-2],[18,1],[28,17],[14,35],[-22,2],[1,11],[9,29]],[[193,2893],[4,12],[10,5],[8,-3],[8,-10],[8,-13],[-10,-18],[-42,-36],[-11,-15],[-6,-6],[0,20],[14,24],[12,22],[5,18]],[[0,2959],[32,11],[8,-1],[8,-4],[1,-14],[-7,-14],[7,-9],[11,-6],[50,-1],[14,-3],[21,10],[19,12],[21,16],[14,19],[-13,22],[-3,25],[11,28],[16,23],[20,13],[17,16],[36,46],[26,36],[9,45],[-5,53],[23,40],[21,7],[43,18],[23,5],[3,-8],[0,-10],[-34,-33],[-20,-14],[-11,-4],[-11,-6],[-4,-12],[17,-20],[4,-14],[-1,-14],[1,-12],[20,-14],[22,-4],[9,0],[8,3],[26,33],[6,6],[72,25],[36,18],[20,5],[18,10],[42,37],[15,17],[14,19],[11,22],[9,24],[12,15],[66,36],[21,19],[7,10],[8,27],[6,28],[8,22],[11,21],[14,21],[17,19],[9,21],[14,48],[6,26],[5,10],[7,8],[6,10],[5,11],[2,12],[3,34],[-2,27],[-11,23],[-9,6],[-10,1],[-14,-2],[-13,9],[3,8],[12,2],[9,4],[6,8],[12,25],[7,26],[1,12],[-9,21],[-8,26],[0,14],[8,16],[12,13],[10,3],[11,1],[10,5],[9,7],[5,8],[9,22],[1,7]],[[1032,4096],[2,-19],[4,-7],[9,-6],[9,1],[8,8],[6,12],[11,3],[33,-13],[12,9],[6,12]],[[1166,4096],[2,-30],[3,-25],[6,-24],[14,-18],[19,-12],[27,-39],[15,-48],[10,-24],[8,-24],[3,-12],[0,-11],[-2,-15],[2,-13],[-3,-39],[-12,-45],[-2,-23],[-10,-5],[-7,-10],[-5,-5],[-7,-4],[-8,-1],[-7,-4],[-2,-13],[-4,-11],[-8,-10],[-6,-12],[-5,-28],[-2,-29],[-8,-20],[-18,-5],[-20,0],[-27,-9],[-6,-6],[-21,-35],[-6,-21],[0,-22],[6,-27],[8,-27],[6,-50],[-6,-76],[-6,-24],[-14,-16],[-10,-8],[-9,-9],[-11,-25],[-19,-49],[-1,-13],[0,-13],[-5,-16],[-3,-17],[3,-19],[5,-18],[25,-46],[10,-13],[11,-13],[-42,-13],[-8,-7],[-26,-26],[-8,-25],[1,-27],[-4,-10],[-7,-9],[-7,-5],[-29,-13],[-18,-12],[-18,-20],[-7,-10],[-14,3],[-8,9],[8,11],[-3,14],[4,34],[-4,14],[14,11],[7,16],[15,14],[11,12],[2,9],[-10,11],[-10,7],[-14,0],[-14,-2],[-9,-10],[-3,-13],[1,-7],[-1,-5],[-21,-19],[2,-19],[7,-10],[8,-4],[-3,-7],[-10,-16],[-7,-1],[-13,22],[-16,12],[-21,-1],[-20,-4],[-16,-14],[-5,-12],[-4,-13],[1,-30],[-6,-25],[-13,-22],[-6,-9],[-16,-15],[-10,-2],[-8,7],[-6,11],[8,38],[-1,21],[19,11],[-15,15],[-19,6],[-26,-8],[-7,-9],[-5,-12],[-14,-16],[-15,-14],[-18,-25],[-11,-29],[-39,9],[-21,2],[-21,-1],[-37,4],[-41,-6],[-47,-11],[3,8],[38,18],[2,5],[-4,9],[-9,1],[-23,-3],[-12,1],[-5,10],[-8,5],[-5,-4],[2,-21],[-6,-2],[-7,5],[2,16],[-5,23],[-1,14],[8,12],[-8,5],[-9,-2],[-11,-6],[-9,-8],[-21,-42],[-8,-24],[15,-19],[41,-27],[7,-7],[0,-11],[-5,-12],[-11,-5],[-45,-9],[-39,-18],[-11,-17],[-36,-69],[-28,-46],[-40,-16],[-45,14],[-10,16],[-9,20],[-16,19],[-15,19],[-9,24],[2,37],[-7,23],[6,6],[24,14],[8,8],[14,18],[5,10],[1,15],[-11,8],[-29,0],[-28,-5],[-8,2]],[[193,2893],[4,12],[10,5],[8,-3],[8,-10],[8,-13],[-10,-18],[-42,-36],[-11,-15],[-6,-6],[0,20],[14,24],[12,22],[5,18]],[[639,3511],[-1,12],[-8,-5],[-28,-28],[-10,-18],[-1,-18],[14,-1],[0,-5],[-6,-16],[-1,-9],[-11,-5],[4,-2],[18,1],[28,17],[14,35],[-22,2],[1,11],[9,29]],[[869,2396],[9,-7],[3,2],[6,8],[-12,8],[-5,-1],[-2,-4],[1,-6]],[[796,2761],[-1,-12],[5,-6],[9,-3],[2,11],[-5,10],[-10,0]],[[0,2710],[1,1],[-1,0]],[[1304,1026],[-7,3],[-3,-1],[11,-23],[4,1],[2,6],[-7,14]],[[811,2751],[-2,-11],[-9,3],[-5,6],[1,12],[10,0],[5,-10]],[[1166,4096],[2,-30],[3,-25],[6,-24],[14,-18],[19,-12],[27,-39],[15,-48],[10,-24],[8,-24],[3,-12],[0,-11],[-2,-15],[2,-13],[-3,-39],[-12,-45],[-2,-23],[-10,-5],[-7,-10],[-5,-5],[-7,-4],[-8,-1],[-7,-4],[-2,-13],[-4,-11],[-8,-10],[-6,-12],[-5,-28],[-2,-29],[-8,-20],[-18,-5],[-20,0],[-27,-9],[-6,-6],[-21,-35],[-6,-21],[0,-22],[6,-27],[8,-27],[6,-50],[-6,-76],[-6,-24],[-14,-16],[-10,-8],[-9,-9],[-11,-25],[-19,-49],[-1,-13],[0,-13],[-5,-16],[-3,-17],[3,-19],[5,-18],[25,-46],[10,-13],[11,-13],[-42,-13],[-8,-7],[-26,-26],[-8,-25],[1,-27],[-4,-10],[-7,-9],[-7,-5],[-29,-13],[-18,-12],[-18,-20],[-7,-10],[-14,3],[-8,9],[8,11],[-3,14],[4,34],[-4,14],[14,11],[7,16],[15,14],[11,12],[2,9],[-10,11],[-10,7],[-14,0],[-14,-2],[-9,-10],[-3,-13],[1,-7],[-1,-5],[-21,-19],[2,-19],[7,-10],[8,-4],[-3,-7],[-10,-16],[-7,-1],[-13,22],[-16,12],[-21,-1],[-20,-4],[-16,-14],[-5,-12],[-4,-13],[1,-30],[-6,-25],[-13,-22],[-6,-9],[-16,-15],[-10,-2],[-8,7],[-6,11],[8,38],[-1,21],[19,11],[-15,15],[-19,6],[-26,-8],[-7,-9],[-5,-12],[-14,-16],[-15,-14],[-18,-25],[-11,-29],[-39,9],[-21,2],[-21,-1],[-37,4],[-41,-6],[-47,-11],[3,8],[38,18],[2,5],[-4,9],[-9,1],[-23,-3],[-12,1],[-5,10],[-8,5],[-5,-4],[2,-21],[-6,-2],[-7,5],[2,16],[-5,23],[-1,14],[8,12],[-8,5],[-9,-2],[-11,-6],[-9,-8],[-21,-42],[-8,-24],[15,-19],[41,-27],[7,-7],[0,-11],[-5,-12],[-11,-5],[-45,-9],[-39,-18],[-11,-17],[-36,-69],[-28,-46],[-40,-16],[-45,14],[-10,16],[-9,20],[-16,19],[-15,19],[-9,24],[2,37],[-7,23],[6,6],[24,14],[8,8],[14,18],[5,10],[1,15],[-11,8],[-29,0],[-28,-5],[-8,2],[0,227],[32,11],[8,-1],[8,-4],[1,-14],[-7,-14],[7,-9],[11,-6],[50,-1],[14,-3],[21,10],[19,12],[21,16],[14,19],[-13,22],[-3,25],[11,28],[16,23],[20,13],[17,16],[36,46],[26,36],[9,45],[-5,53],[23,40],[21,7],[43,18],[23,5],[3,-8],[0,-10],[-34,-33],[-20,-14],[-11,-4],[-11,-6],[-4,-12],[17,-20],[4,-14],[-1,-14],[1,-12],[20,-14],[22,-4],[9,0],[8,3],[26,33],[6,6],[72,25],[36,18],[20,5],[18,10],[42,37],[15,17],[14,19],[11,22],[9,24],[12,15],[66,36],[21,19],[7,10],[8,27],[6,28],[8,22],[11,21],[14,21],[17,19],[9,21],[14,48],[6,26],[5,10],[7,8],[6,10],[5,11],[2,12],[3,34],[-2,27],[-11,23],[-9,6],[-10,1],[-14,-2],[-13,9],[3,8],[12,2],[9,4],[6,8],[12,25],[7,26],[1,12],[-9,21],[-8,26],[0,14],[8,16],[12,13],[10,3],[11,1],[10,5],[9,7],[5,8],[9,22],[1,7],[61,0],[2,-19],[4,-7],[9,-6],[9,1],[8,8],[6,12],[11,3],[33,-13],[12,9],[6,12],[34,0]],[[609,3417],[-18,-1],[-4,2],[11,5],[1,9],[6,16],[0,5],[-14,1],[1,18],[10,18],[28,28],[8,5],[1,-12],[-9,-29],[-1,-11],[22,-2],[-14,-35],[-28,-17]],[[82,2523],[-12,-6],[-19,31],[39,-9],[-8,-16]],[[53,2873],[-37,-3],[0,8],[23,5],[14,-10]],[[342,3246],[5,12],[17,-14],[-20,-11],[-2,13]],[[206,3051],[23,29],[18,-35],[-32,-52],[-9,58]],[[38,2600],[-20,56],[58,71],[-76,5],[0,53],[86,19],[11,-22],[19,20],[-21,30],[58,-8],[20,32],[-11,-47],[67,69],[-5,41],[37,-35],[-21,-11],[-25,-145],[-23,-3],[15,69],[-50,2],[-7,-123],[-79,-31],[-33,-42]],[[75,2675],[-20,-15],[42,2],[30,28],[-52,-15]],[[714,2804],[-18,26],[-45,-2],[-70,-105],[-118,14],[-88,-17],[43,31],[-61,23],[-16,-22],[-4,70],[-58,-82],[49,-41],[-37,-15],[-48,47],[30,125],[16,-8],[-23,33],[14,35],[69,17],[76,-33],[-27,-35],[20,-72],[137,-16],[99,57],[3,47],[34,-36],[-4,66],[41,33],[-23,-28],[30,-30],[-16,-30],[16,-46],[-21,-6]],[[465,2919],[-15,-18],[-20,2],[13,24],[22,-8]],[[536,2925],[-32,-14],[42,112],[9,-30],[-19,-68]],[[520,3116],[-2,25],[35,-44],[0,-47],[42,-2],[4,-36],[48,11],[-14,-27],[24,-36],[34,8],[-11,-32],[-53,-11],[-28,71],[-77,49],[-2,71]],[[241,3080],[-5,13],[76,97],[5,-58],[-76,-52]],[[402,3048],[-2,19],[-9,16],[32,-24],[-21,-11]],[[358,3217],[60,-30],[49,45],[-60,-91],[-67,-3],[18,79]],[[1093,3359],[6,-19],[-4,-48],[-13,29],[11,38]],[[1078,3434],[11,-29],[-8,-2],[-12,10],[9,21]],[[1166,3544],[-40,-11],[-5,20],[28,11],[17,-20]],[[879,3602],[-10,31],[10,29],[11,-8],[-11,-52]],[[1112,3761],[14,-6],[-16,-32],[1,21],[1,17]],[[938,3808],[-16,2],[-9,46],[40,-51],[-15,3]],[[959,3520],[-13,22],[39,14],[4,-38],[-30,-36],[0,38]],[[1169,4038],[8,-21],[31,-35],[-45,0],[-12,41],[18,15]],[[992,4006],[-14,1],[2,24],[28,-5],[-16,-20]],[[1140,4009],[-17,8],[-2,20],[23,-8],[-4,-20]],[[1039,4053],[-8,14],[32,0],[-11,-22],[-13,8]],[[1110,3815],[-14,3],[14,52],[21,-68],[-21,13]],[[1108,3532],[-29,-84],[-57,1],[60,118],[-14,33],[40,-68]],[[1078,3270],[9,-30],[-44,-58],[-28,-108],[54,-109],[-76,-46],[-21,-73],[-19,49],[-71,-45],[44,76],[-18,27],[-28,-2],[-33,-54],[4,-56],[-36,33],[-59,-23],[-19,33],[42,24],[-1,100],[-15,29],[-31,-18],[15,34],[-58,28],[28,40],[-26,30],[42,-2],[-12,27],[18,1],[22,-50],[90,-3],[-3,54],[-25,6],[65,-7],[21,89],[30,-11],[-23,-57],[30,-16],[-12,-63],[35,-3],[2,33],[54,4],[53,117]],[[583,3272],[24,15],[-15,-73],[35,11],[2,-38],[-44,-52],[88,-35],[-43,-65],[-77,116],[27,25],[3,96]],[[694,3376],[12,43],[78,41],[7,-30],[-23,1],[-7,-42],[-21,17],[-7,-66],[-30,-22],[28,-22],[-33,-83],[-32,15],[14,52],[14,-22],[20,22],[-31,23],[11,73]],[[936,3258],[31,35],[18,126],[44,8],[-53,-139],[8,-45],[-48,15]]]}