{"objects":{"water":{"type":"GeometryCollection","geometries":[{"type":"Polygon","properties":{"source":"naturalearthdata.com","kind":"ocean","area":1576712559132672,"sort_rank":200,"min_zoom":0.0,"id":1},"arcs":[[0],[1]]},{"type":"LineString","properties":{"source":"naturalearthdata.com","kind":"ocean","sort_rank":205,"boundary":true,"min_zoom":0.0,"id":1947},"arcs":[2]}]},"buildings":{"type":"GeometryCollection","geometries":[]},"places":{"type":"GeometryCollection","geometries":[]},"transit":{"type":"GeometryCollection","geometries":[]},"pois":{"type":"GeometryCollection","geometries":[{"type":"Point","properties":{"kind":"protected_area","protect_class":"4","area":41193700000,"name:no":"Bj\u00f8rn\u00f8ya Nature Reserve","min_zoom":7.0,"source":"openstreetmap.org","name:fr":"R\u00e9serve naturelle de l'\u00cele aux Ours","tier":2,"id":-5734843,"osm_relation":true,"name":"Bear Island"},"coordinates":[3108,2216]}]},"boundaries":{"type":"GeometryCollection","geometries":[]},"roads":{"type":"GeometryCollection","geometries":[]},"earth":{"type":"GeometryCollection","geometries":[{"type":"Polygon","properties":{"sort_rank":10,"source":"naturalearthdata.com","kind":"earth","min_zoom":0.0,"id":4597},"arcs":[[3]]},{"type":"Point","properties":{"label_placement":true,"name:pt":"Ilha do Urso","name:ro":"Insula Ur\u0219ilor","name:ko":"\ube44\uc5d0\ub974\ub1cc\uc704\uc544 \uc12c","name:ar":"\u062c\u0632\u064a\u0631\u0629 \u0627\u0644\u062f\u0628","name:cs":"Medv\u011bd\u00ed ostrov","name:is":"Bjarnarey","name:it":"Isola degli Orsi","name:ru":"\u041c\u0435\u0434\u0432\u0435\u0436\u0438\u0439","name:vi":"\u0110\u1ea3o G\u1ea5u","name:pl":"Wyspa Nied\u017awiedzia","name:de":"B\u00e4reninsel","id":22771813,"name:ca":"Illa de l'\u00d3s","name:fa":"\u062c\u0632\u06cc\u0631\u0647 \u062e\u0631\u0633","area":2460559872,"name:fi":"Karhusaari","name:da":"Bj\u00f8rne\u00f8en","name:fo":"Bjarnoyggin","name:tr":"Ay\u0131 Adas\u0131","name:fr":"\u00cele aux Ours","name:fy":"Beareneil\u00e2n","name:zh":"\u718a\u5c9b","name:sl":"Medvedji otok","name:lv":"L\u0101\u010du sala","name:ja":"\u30d3\u30e5\u30eb\u30cd\u30a4\u5cf6","name:lt":"Loki\u0173 sala","name:sv":"Bj\u00f6rn\u00f6n","name:he":"\u05d1\u05d9\u05d9\u05e8\u05e0\u05d9\u05d9\u05d4","name:eo":"Urso-insulo","name:ur":"\u0628\u06cc\u0648\u0631\u0646\u0648\u06cc\u0627","name:lb":"Biereninsel","name:sk":"Medved\u00ed ostrov","name:uk":"\u0412\u0435\u0434\u043c\u0435\u0436\u0438\u0439 \u043e\u0441\u0442\u0440\u0456\u0432","name:hy":"\u0531\u0580\u057b\u056b \u056f\u0572\u0566\u056b","name:be":"\u041c\u044f\u0434\u0437\u0432\u0435\u0436\u044b \u0432\u043e\u0441\u0442\u0440\u0430\u045e","name:bg":"\u041c\u0435\u0447\u0438 \u043e\u0441\u0442\u0440\u043e\u0432","name:sr":"\u041c\u0435\u0434\u0432\u0435\u0452\u0435 \u043e\u0441\u0442\u0440\u0432\u043e","name:el":"\u039c\u03c0\u03b3\u03b9\u03ad\u03c1\u03bd\u03b5\u03b3\u03b9\u03b1","kind":"island","name:en":"Bear Island","name":"Bj\u00f8rn\u00f8ya","min_zoom":7.0,"name:gl":"Illa do Oso","source":"openstreetmap.org","name:eu":"Hartzen uhartea","name:et":"Karusaar","name:nl":"Bereneiland","name:es":"Isla del Oso"},"coordinates":[3141,2209]}]},"landuse":{"type":"GeometryCollection","geometries":[{"type":"Polygon","properties":{"kind":"protected_area","protect_class":"4","area":41193701376,"sort_rank":17,"source":"openstreetmap.org","min_zoom":4.0,"tier":2,"id":-5734843,"osm_relation":true},"arcs":[[4],[5]]}]}},"type":"Topology","transform":{"translate":[16.875,74.0195433115],"scale":[0.0006866455,0.0001846435]},"arcs":[[[4096,0],[-4096,0],[0,4096],[4096,0],[0,-4096]],[[3507,2299],[2,24],[-9,41],[2,26],[22,69],[4,41],[-16,17],[-52,28],[-132,198],[-66,7],[-128,-78],[-66,37],[-156,-19],[-79,-66],[-44,-140],[34,-53],[76,-206],[97,-136],[27,-70],[18,-34],[58,-48],[20,-8],[15,-15],[11,-36],[18,-81],[39,-22],[137,74],[40,43],[-11,37],[69,126],[0,79],[3,27],[37,88],[20,24],[10,26]],[[3328,2743],[-66,7],[-128,-78],[-66,37],[-156,-19],[-79,-66],[-44,-140],[34,-53],[76,-206],[97,-136],[27,-70],[18,-34],[58,-48],[20,-8],[15,-15],[11,-36],[18,-81],[39,-22],[137,74],[40,43],[-11,37],[69,126],[0,79],[3,27],[37,88],[20,24],[10,26],[2,24],[-9,41],[2,26],[22,69],[4,41],[-16,17],[-52,28],[-132,198]],[[3328,2743],[132,-198],[52,-28],[16,-17],[-4,-41],[-22,-69],[-2,-26],[9,-41],[-2,-24],[-10,-26],[-20,-24],[-37,-88],[-3,-27],[0,-79],[-69,-126],[11,-37],[-40,-43],[-137,-74],[-39,22],[-18,81],[-11,36],[-15,15],[-20,8],[-58,48],[-18,34],[-27,70],[-97,136],[-76,206],[-34,53],[44,140],[79,66],[156,19],[66,-37],[128,78],[66,-7]],[[1632,2444],[28,241],[102,273],[152,256],[168,176],[218,146],[368,148],[589,80],[246,-36],[224,-76],[228,-133],[141,-124],[0,-2323],[-184,-169],[-263,-163],[-224,-82],[-283,-30],[-236,34],[-223,87],[-196,132],[-139,140],[-499,725],[-164,364],[-53,334]],[[3058,2607],[15,-34],[44,2],[3,61],[-43,1],[-19,-30]]]}