{"objects":{"water":{"type":"GeometryCollection","geometries":[]},"buildings":{"type":"GeometryCollection","geometries":[]},"places":{"type":"GeometryCollection","geometries":[{"type":"Point","properties":{"name:pt":"Pol\u00f4nia","name:ps":"\u067e\u0648\u0644\u0646\u0689","name:ka":"\u10de\u10dd\u10da\u10dd\u10dc\u10d4\u10d7\u10d8","name:mt":"Polonja","name:ko":"\ud3f4\ub780\ub4dc","name:kn":"\u0caa\u0ccb\u0cb2\u0ccd\u0caf\u0cbe\u0c82\u0ca1\u0ccd","name:km":"\u1794\u17c9\u17bc\u179b\u17bc\u1789","name:kl":"Poleni","name:cs":"Polsko","alt_name:eo":"Pollando;Polio","name:ki":"Polandi","name:tr":"Polonya","name:ku":"Poland","name:ti":"\u1356\u120b\u1295\u12f5","name:ks":"\u067e\u0648\u0644\u06cc\u0646\u065b\u0691","name:to":"Poleni","name:tl":"Polonya","name:sv":"Polen","name:or":"\u0b2a\u0b4b\u0b32\u0b3e\u0b23\u0b4d\u0b21","name:ta":"\u0baa\u0bcb\u0bb2\u0ba8\u0bcd\u0ba4\u0bc1","name:tg":"\u041b\u0430\u04b3\u0438\u0441\u0442\u043e\u043d","name:ca":"Pol\u00f2nia","name:te":"\u0c2a\u0c4b\u0c32\u0c3e\u0c02\u0c21\u0c4d","name:hu":"Lengyelorsz\u00e1g","name:ro":"Polonia","name:cy":"Gwlad Pwyl","name:hr":"Poljska","name:da":"Polen","name:fr":"Pologne","name:de":"Polen","name:dz":"\u0f54\u0f7c\u0f0b\u0f63\u0f7a\u0f53\u0f4c","source":"openstreetmap.org","name:lv":"Polija","name:lt":"Lenkija","name:uz":"Polsha","name:kk":"\u041f\u043e\u043b\u044c\u0448\u0430","name:he":"\u05e4\u05d5\u05dc\u05d9\u05df","kind":"country","name:ur":"\u067e\u0648\u0644\u06cc\u0646\u0688","name:lb":"Polen","name:la":"Polonia","name:lg":"Polandi","name:uk":"\u041f\u043e\u043b\u044c\u0449\u0430","name:hy":"\u053c\u0565\u0570\u0561\u057d\u057f\u0561\u0576","min_zoom":2.0,"name:li":"Pole","name:ln":"Poloni","name:lo":"\u0ec2\u0e9b\u0ec1\u0ea5\u0e99","name:oc":"Polonha","population":38186860,"name:el":"\u03a0\u03bf\u03bb\u03c9\u03bd\u03af\u03b1","name:eo":"Polujo","name:en":"Poland","name":"Polska","name:is":"P\u00f3lland","name:ee":"Poland nutome","name:th":"\u0e1b\u0e23\u0e30\u0e40\u0e17\u0e28\u0e42\u0e1b\u0e41\u0e25\u0e19\u0e14\u0e4c","name:eu":"Polonia","name:et":"Poola","name:nl":"Polen","name:es":"Polonia","name:ia":"Polonia","name:rm":"Pologna","name:rn":"Polonye","name:az":"Pol\u015fa","name:id":"Polandia","name:ms":"Poland","name:mr":"\u092a\u094b\u0932\u0902\u0921","name:ar":"\u0628\u0648\u0644\u0646\u062f\u0627","name:my":"\u1015\u102d\u102f\u101c\u1014\u103a","name:io":"Polonia","name:ak":"Poland","name:am":"\u1356\u120b\u1295\u12f5","name:it":"Polonia","name:vi":"Ba Lan","name:ru":"\u041f\u043e\u043b\u044c\u0448\u0430","name:mn":"\u041f\u043e\u043b\u044c\u0448","name:mi":"P\u014drana","id":432425060,"name:mk":"\u041f\u043e\u043b\u0441\u043a\u0430","name:af":"Pole","name:zu":"i-Poland","name:ha":"Polan","name:nn":"Polen","name:ff":"Polo\u00f1","name:fi":"Puola","name:hi":"\u092a\u094b\u0932\u0948\u0902\u0921","name:mg":"P\u00f4l\u00f4na","name:fo":"P\u00f3lland","official_name":"Rzeczpospolita Polska","name:ba":"\u041f\u043e\u043b\u044c\u0448\u0430","name:fy":"Poalen","name:vo":"Pol\u00e4n","name:zh":"\u6ce2\u5170","name:gv":"Yn Pholynn","name:so":"Booland","name:sn":"Poland","name:sl":"Poljska","name:sk":"Po\u013esko","name:ja":"\u30dd\u30fc\u30e9\u30f3\u30c9","name:si":"\u0db4\u0ddd\u0dbd\u0db1\u0dca\u0dad\u0dba","name:fa":"\u0644\u0647\u0633\u062a\u0627\u0646","name:sg":"P\u00f6l\u00f4ni","name:se":"Polen","name:ne":"\u092a\u094b\u0932\u094d\u092f\u093e\u0923\u094d\u0921","name:br":"Polonia","name:bs":"Poljska","name:bm":"Polo\u0272i","name:bn":"\u09aa\u09cb\u09b2\u09cd\u09af\u09be\u09a3\u09cd\u09a1","name:bo":"\u0f54\u0f7c\u0f0b\u0f63\u0f53\u0f9c\u0f0d","name:ml":"\u0d2a\u0d4b\u0d33\u0d23\u0d4d\u0d1f\u0d4d","name:no":"Polen","name:sw":"Polandi","name:be":"\u041f\u043e\u043b\u044c\u0448\u0447\u0430","name:bg":"\u041f\u043e\u043b\u0448\u0430","name:sr":"\u041f\u043e\u0459\u0441\u043a\u0430","name:sq":"Poloni","name:ga":"An Pholainn","name:gd":"A' Ph\u00f2lainn","name:gl":"Polonia","name:yo":"Or\u00edl\u1eb9\u0301\u00e8de Polandi","name:gu":"\u0aaa\u0acb\u0ab2\u0ac7\u0a82\u0aa1","name:tt":"\u041f\u043e\u043b\u044c\u0448\u0430"},"coordinates":[3132,3193]},{"type":"Point","properties":{"name:pt":"Grande Pol\u00f4nia","name:ro":"Polonia Mare","name:id":"Polandia Besar","name:ka":"\u10d3\u10d8\u10d3\u10d8 \u10de\u10dd\u10da\u10dd\u10dc\u10e3\u10e0\u10d8 \u10e1\u10d0\u10d5\u10dd\u10d4\u10d5\u10dd\u10d3\u10dd","name:ar":"\u0628\u0648\u0644\u0646\u062f\u0627 \u0627\u0644\u0643\u0628\u0631\u0649","name:cs":"Velkopolsk\u00e9","min_zoom":4.0,"int_name":"wielkopolskie","name:it":"Grande Polonia","name:ru":"\u0412\u0435\u043b\u0438\u043a\u043e\u043f\u043e\u043b\u044c\u0441\u043a\u043e\u0435 \u0432\u043e\u0435\u0432\u043e\u0434\u0441\u0442\u0432\u043e","id":504981968,"kind_detail":"state","name:de":"Gro\u00dfpolen","source":"openstreetmap.org","name:fr":"Grande-Pologne","name:zh":"\u5927\u6ce2\u5170\u7701","name:lv":"Lielpolijas","name:ja":"\u30f4\u30a3\u30a8\u30eb\u30b3\u30dd\u30eb\u30b9\u30ab\u770c","name:lt":"Did\u017eiosios Lenkijos","name:no":"Storpolske","kind":"region","name:eu":"Polonia Handia","name:sk":"Ve\u013ekopo\u013esk\u00e9","name:uk":"\u0412\u0435\u043b\u0438\u043a\u043e\u043f\u043e\u043b\u044c\u0441\u044c\u043a\u0435 \u0432\u043e\u0454\u0432\u043e\u0434\u0441\u0442\u0432\u043e","name:be":"\u0412\u044f\u043b\u0456\u043a\u0430\u043f\u043e\u043b\u044c\u0441\u043a\u0430\u0435 \u0432\u0430\u044f\u0432\u043e\u0434\u0441\u0442\u0432\u0430","name:hu":"Nagy-Lengyelorsz\u00e1gi","name:hr":"Velikopoljsko","name:sr":"\u0412\u043e\u0458\u0432\u043e\u0434\u0441\u0442\u0432\u043e \u0412\u0435\u043b\u0438\u043a\u043e\u043f\u043e\u0459\u0441\u043a\u043e","population":3386882,"name:eo":"Grandpollanda Provinco","name:en":"Greater Poland","name":"wojew\u00f3dztwo wielkopolskie","name:fi":"Ison-Puolan","name:yi":"\u05d2\u05e8\u05d5\u05d9\u05e1\u05e4\u05d5\u05d9\u05dc\u05d9\u05e9\u05e2 \u05d5\u05d5\u05d0\u05d5\u05d9\u05d5\u05d5\u05d0\u05d3\u05e2\u05e9\u05d0\u05e4\u05d8","name:et":"Suur-Poola","name:nl":"Groot-Polen","name:es":"Gran Polonia"},"coordinates":[761,3306]},{"type":"Point","properties":{"name:pt":"\u0141\u00f3d\u017a","name:sk":"Lod\u017esk\u00e9","name:ja":"\u30a6\u30c3\u30c1\u770c","name:ka":"\u10da\u10dd\u10eb\u10d8\u10e1 \u10e1\u10d0\u10d5\u10dd\u10d4\u10d5\u10dd\u10d3\u10dd","kind":"region","min_zoom":4.0,"name:uk":"\u041b\u043e\u0434\u0437\u0438\u043d\u0441\u044c\u043a\u0435 \u0432\u043e\u0454\u0432\u043e\u0434\u0441\u0442\u0432\u043e","name:be":"\u041b\u043e\u0434\u0437\u0456\u043d\u0441\u043a\u0430\u0435 \u0432\u0430\u044f\u0432\u043e\u0434\u0441\u0442\u0432\u0430","name:ru":"\u041b\u043e\u0434\u0437\u0438\u043d\u0441\u043a\u043e\u0435 \u0432\u043e\u0435\u0432\u043e\u0434\u0441\u0442\u0432\u043e","name":"wojew\u00f3dztwo \u0142\u00f3dzkie","id":505043292,"population":2555898,"name:eo":"Lodza Provinco","name:en":"\u0141\u00f3d\u017a","name:lt":"Lodz\u0117s vaivadija","kind_detail":"state","name:de":"Lodz","source":"openstreetmap.org","name:fr":"\u0141\u00f3d\u017a","name:et":"\u0141\u00f3d\u017ai","name:zh":"\u7f57\u5179\u7701"},"coordinates":[3599,1726]},{"type":"Point","properties":{"name:pt":"Voivodia de Opole","name:sl":"Opoljsko vojvodstvo","name:sk":"Opolsk\u00e9","name:ja":"\u30aa\u30dd\u30fc\u30ec\u770c","name:ka":"\u10dd\u10de\u10dd\u10da\u10d4\u10e1 \u10e1\u10d0\u10d5\u10dd\u10d4\u10d5\u10dd\u10d3\u10dd","name:cs":"Opolsk\u00e9 vojvodstv\u00ed","kind":"region","min_zoom":4.0,"name:uk":"\u041e\u043f\u043e\u043b\u044c\u0441\u044c\u043a\u0435 \u0432\u043e\u0454\u0432\u043e\u0434\u0441\u0442\u0432\u043e","name:be":"\u0410\u043f\u043e\u043b\u044c\u0441\u043a\u0430\u0435 \u0432\u0430\u044f\u0432\u043e\u0434\u0441\u0442\u0432\u0430","name:ru":"\u041e\u043f\u043e\u043b\u044c\u0441\u043a\u043e\u0435 \u0432\u043e\u0435\u0432\u043e\u0434\u0441\u0442\u0432\u043e","name":"wojew\u00f3dztwo opolskie","id":505029615,"population":1037000,"name:eo":"Opola Provinco","name:en":"Opole Voivodeship","name:lt":"Opol\u0117s vaivadija","kind_detail":"state","name:de":"Woiwodschaft Oppeln","source":"openstreetmap.org","name:fr":"Vo\u00efvodie d'Opole","name:et":"Opole vojevoodkond","name:zh":"\u5967\u6ce2\u840a\u7701","name:es":"Voivodato de Opole"},"coordinates":[1540,365]},{"type":"Point","properties":{"source":"naturalearthdata.com","kind":"locality","name":"L\u00f3dz","population":758000,"region_capital":true,"min_zoom":6.0,"id":5776},"coordinates":[3749,2440]},{"type":"Point","properties":{"source":"naturalearthdata.com","kind":"locality","name":"Wroclaw","population":634893,"region_capital":true,"min_zoom":7.0,"id":3273},"coordinates":[226,877]},{"type":"Point","properties":{"source":"naturalearthdata.com","kind":"locality","name":"Poznan","population":623997,"region_capital":true,"min_zoom":7.0,"id":3276},"coordinates":[36,3915]}]},"transit":{"type":"GeometryCollection","geometries":[{"type":"LineString","properties":{"kind":"train","network":"PKP","sort_rank":275,"source":"openstreetmap.org","min_zoom":6.0,"operator":"PKP Polskie Linie Kolejowe S.A.","ref":"293","id":-3539682,"osm_relation":true,"name":"Linia kolejowa nr 293 Je\u0142owa - Kluczbork"},"arcs":[40]},{"type":"MultiLineString","properties":{"kind":"train","name":"Frankfurt (Oder) - Pozna\u0144","sort_rank":275,"name:de":"Frankfurt (Oder) - Posen","source":"openstreetmap.org","min_zoom":6.0,"operator":"PKP","name:pl":"Linia Frankfurt nad Odr\u0105 - Pozna\u0144","ref":"RB91","osm_relation":true},"arcs":[[41],[42]]},{"type":"MultiLineString","properties":{"source":"openstreetmap.org","kind":"train","name":"Linia 131","sort_rank":275,"ref":"131","min_zoom":6.0,"osm_relation":true},"arcs":[[43],[44],[45]]},{"type":"LineString","properties":{"source":"openstreetmap.org","kind":"train","name":"Linia 181","sort_rank":275,"ref":"181","min_zoom":6.0,"osm_relation":true},"arcs":[46]},{"type":"MultiLineString","properties":{"kind":"train","name":"Linia kolejowa nr 61 Kielce - Fosowskie","sort_rank":275,"source":"openstreetmap.org","min_zoom":6.0,"operator":"PKP Polskie Linie Kolejowe S.A.","ref":"61","osm_relation":true,"network":"PKP"},"arcs":[[47],[48]]},{"type":"MultiLineString","properties":{"kind":"train","name":"Linia kolejowa nr 276 Wroc\u0142aw G\u0142\u00f3wny - Mi\u0119dzylesie","sort_rank":275,"source":"openstreetmap.org","min_zoom":6.0,"operator":"PKP Polskie Linie Kolejowe S.A.","ref":"276","osm_relation":true,"network":"PKP"},"arcs":[[49],[50],[51]]},{"type":"LineString","properties":{"kind":"train","network":"PKP","sort_rank":275,"source":"openstreetmap.org","min_zoom":6.0,"operator":"PKP Polskie Linie Kolejowe S.A.","ref":"703","id":-4640784,"osm_relation":true,"name":"\u0141\u0105cznica nr 703 Kucelinka - Cz\u0119stochowa Towarowa"},"arcs":[52]},{"type":"MultiLineString","properties":{"kind":"train","network":"PKP","sort_rank":275,"source":"openstreetmap.org","min_zoom":6.0,"operator":"PKP Polskie Linie Kolejowe S.A.","ref":"353","osm_relation":true,"name":"Linia kolejowa nr 353 Pozna\u0144 Wsch\u00f3d - Skandawa"},"arcs":[[53],[54],[55]]},{"type":"LineString","properties":{"kind":"train","network":"PKP","sort_rank":275,"source":"openstreetmap.org","min_zoom":6.0,"operator":"PKP Polskie Linie Kolejowe S.A.","ref":"288","id":-2894389,"osm_relation":true,"name":"Linia kolejowa nr 288 Nysa - Brzeg"},"arcs":[56]},{"type":"MultiLineString","properties":{"kind":"train","name":"EC95 Warszawa - Berlin","service":"international","sort_rank":275,"source":"openstreetmap.org","min_zoom":5.0,"operator":"DB Fernverkehr AG;PKP","ref":"EC95","osm_relation":true,"network":"DB InterCity;EuroCity"},"arcs":[[57],[58],[59],[60]]},{"type":"MultiLineString","properties":{"kind":"train","network":"KSl","sort_rank":275,"name:de":"Linie S1 Tschenstochau - Kattowitz - Gleiwitz","source":"openstreetmap.org","min_zoom":6.0,"operator":"Koleje \u015al\u0105skie","ref":"S1","osm_relation":true,"name":"Linia S1 Cz\u0119stochowa - Katowice - Gliwice"},"arcs":[[61],[62],[63],[64]]},{"type":"MultiLineString","properties":{"kind":"train","name":"Linia kolejowa nr 17 \u0141\u00f3d\u017a Fabryczna - Koluszki","sort_rank":275,"source":"openstreetmap.org","min_zoom":6.0,"operator":"PKP Polskie Linie Kolejowe S.A.","ref":"17","osm_relation":true,"network":"PKP"},"arcs":[[65],[66]]},{"type":"LineString","properties":{"kind":"train","network":"PKP","sort_rank":275,"source":"openstreetmap.org","min_zoom":6.0,"operator":"PKP Polskie Linie Kolejowe S.A.","ref":"687","id":-318923,"osm_relation":true,"name":"\u0141\u0105cznica nr 687 Kalina - Herby Stare"},"arcs":[67]},{"type":"LineString","properties":{"kind":"train","name":"Linia kolejowa nr 16 \u0141\u00f3d\u017a Widzew - Kutno","sort_rank":275,"source":"openstreetmap.org","min_zoom":6.0,"operator":"PKP Polskie Linie Kolejowe S.A.","ref":"16","osm_relation":true,"network":"PKP"},"arcs":[68]},{"type":"MultiLineString","properties":{"kind":"train","name":"Linia kolejowa nr 132 Bytom - Wroc\u0142aw G\u0142\u00f3wny","sort_rank":275,"source":"openstreetmap.org","min_zoom":6.0,"operator":"PKP Polskie Linie Kolejowe S.A.","ref":"132","osm_relation":true,"network":"PKP"},"arcs":[[69],[70]]},{"type":"MultiLineString","properties":{"source":"openstreetmap.org","kind":"train","name":"\u0141\u00f3d\u017a - Pozna\u0144","sort_rank":275,"ref":"R","min_zoom":6.0,"osm_relation":true},"arcs":[[71],[72],[73],[74],[75],[76],[77],[78],[79],[80],[81],[82],[83],[84],[85],[86],[87],[88],[89],[90],[91],[92],[93],[94],[95],[96],[97],[98],[99],[100],[101],[102],[103],[104],[105],[106],[107],[108],[109],[110],[111],[112],[113],[114],[115],[116],[117],[118],[119],[120],[121],[122],[123],[124],[125],[126],[127],[128],[129],[130],[131],[132],[133],[134],[135],[136],[137],[138],[139],[140],[141]]},{"type":"LineString","properties":{"kind":"train","name":"Line 356","sort_rank":275,"source":"openstreetmap.org","min_zoom":6.0,"ref":"356","id":-6762779,"osm_relation":true},"arcs":[142]},{"type":"MultiLineString","properties":{"kind":"train","name":"Linia kolejowa nr 15 Bednary - \u0141\u00f3d\u017a Kaliska","sort_rank":275,"source":"openstreetmap.org","min_zoom":6.0,"operator":"PKP Polskie Linie Kolejowe S.A.","ref":"15","osm_relation":true,"network":"PKP"},"arcs":[[143],[144],[145],[146],[147],[148]]},{"type":"MultiLineString","properties":{"kind":"train","name":"EC95 Berlin - Warszawa","service":"international","sort_rank":275,"source":"openstreetmap.org","min_zoom":5.0,"operator":"DB Fernverkehr AG;PKP","ref":"EC95","osm_relation":true,"network":"DB InterCity;EuroCity"},"arcs":[[149],[150],[151],[152]]},{"type":"LineString","properties":{"kind":"train","network":"Polskie Koleje Pa\u0144stwowe Polskie Linie Kolejowe sp\u00f3\u0142ka akcyjna","sort_rank":275,"colour":"#004A8F","source":"openstreetmap.org","min_zoom":6.0,"operator":"Koleje Dolno\u015bl\u0105skie sp\u00f3\u0142ka akcyjna","ref":"D2","id":-1050561,"osm_relation":true,"colour_name":"teal"},"arcs":[153]},{"type":"MultiLineString","properties":{"kind":"train","name":"Linia kolejowa nr 354 Pozna\u0144 POD - Pi\u0142a G\u0142\u00f3wna","sort_rank":275,"source":"openstreetmap.org","min_zoom":6.0,"operator":"PKP Polskie Linie Kolejowe S.A.","ref":"354","osm_relation":true,"network":"PKP"},"arcs":[[154],[155]]},{"type":"LineString","properties":{"kind":"train","network":"KD","sort_rank":275,"source":"openstreetmap.org","min_zoom":6.0,"operator":"Koleje Dolno\u015bl\u0105skie","ref":"D11","id":-7712643,"osm_relation":true},"arcs":[156]},{"type":"MultiLineString","properties":{"kind":"train","description":"Wroc\u0142aw G\u0142\u00f3wny - Szklarska Poreba","sort_rank":275,"source":"openstreetmap.org","min_zoom":6.0,"network":"PKP PLK S.A.","operator":"Przewozy Regionalne Sp\u00f3\u0142ka z o. o.","ref":"240","osm_relation":true,"name":"D6 Wroc\u0142aw G\u0142\u00f3wny - Szklarska Poreba Gorna"},"arcs":[[157],[158],[159]]},{"type":"MultiLineString","properties":{"kind":"train","name":"Linia kolejowa nr 18 Kutno - Pi\u0142a g\u0142\u00f3wna","sort_rank":275,"source":"openstreetmap.org","min_zoom":6.0,"operator":"PKP Polskie Linie Kolejowe S.A.","ref":"18","osm_relation":true,"network":"PKP"},"arcs":[[160],[161]]},{"type":"MultiLineString","properties":{"kind":"train","name":"Linia kolejowa nr 143 Kalety - Wroc\u0142aw Miko\u0142aj\u00f3w WP2","sort_rank":275,"source":"openstreetmap.org","min_zoom":6.0,"operator":"PKP Polskie Linie Kolejowe S.A.","ref":"143","osm_relation":true,"network":"PKP"},"arcs":[[162],[163]]},{"type":"MultiLineString","properties":{"kind":"train","name":"Linia S1 Gliwice - Katowice - Cz\u0119stochowa","sort_rank":275,"name:de":"Linie S1 Gleiwitz - Kattowitz - Tschenstochau","source":"openstreetmap.org","min_zoom":6.0,"operator":"Koleje \u015al\u0105skie","ref":"S1","osm_relation":true,"network":"KSl"},"arcs":[[164],[165],[166],[167]]},{"type":"LineString","properties":{"kind":"train","name":"EN 452 : Moscou \u2212 Berlin \u2212 Paris","service":"international","sort_rank":275,"source":"openstreetmap.org","min_zoom":5.0,"operator":"\u0420\u043e\u0441\u0441\u0438\u0439\u0441\u043a\u0438\u0435 \u0436\u0435\u043b\u0435\u0437\u043d\u044b\u0435 \u0434\u043e\u0440\u043e\u0433\u0438","ref":"EN 452","osm_relation":true,"network":"EuroNight"},"arcs":[168]},{"type":"LineString","properties":{"kind":"train","name":"33 Sierpc - Kutno","sort_rank":275,"source":"openstreetmap.org","min_zoom":6.0,"ref":"33","id":-7500353,"osm_relation":true},"arcs":[169]},{"type":"LineString","properties":{"kind":"train","network":"PKP","sort_rank":275,"source":"openstreetmap.org","min_zoom":6.0,"operator":"PKP Polskie Linie Kolejowe S.A.","ref":"700","id":-4640535,"osm_relation":true,"name":"\u0141\u0105cznica nr 700 Cz\u0119stochowa - Cz\u0119stochowa Stradom"},"arcs":[170]},{"type":"MultiLineString","properties":{"kind":"train","name":"Linia kolejowa nr 272 Kluczbork - Pozna\u0144 G\u0142\u00f3wny","sort_rank":275,"source":"openstreetmap.org","min_zoom":6.0,"operator":"PKP Polskie Linie Kolejowe S.A.","ref":"272","osm_relation":true,"network":"PKP"},"arcs":[[171],[172]]},{"type":"LineString","properties":{"kind":"train","name:en":"EN 453 : Paris \u2212 Berlin \u2212 Moscow","network":"EuroNight","service":"international","sort_rank":275,"source":"openstreetmap.org","min_zoom":5.0,"operator":"\u0420\u043e\u0441\u0441\u0438\u0439\u0441\u043a\u0438\u0435 \u0436\u0435\u043b\u0435\u0437\u043d\u044b\u0435 \u0434\u043e\u0440\u043e\u0433\u0438","ref":"EN 453","osm_relation":true,"name":"EN 453 : Paris \u2212 Berlin \u2212 Moscou"},"arcs":[173]},{"type":"MultiLineString","properties":{"kind":"train","name":"Linia kolejowa nr 273 Wroc\u0142aw G\u0142\u00f3wny - Szczecin G\u0142\u00f3wny","sort_rank":275,"source":"openstreetmap.org","min_zoom":6.0,"operator":"PKP Polskie Linie Kolejowe S.A.","ref":"273","osm_relation":true,"network":"PKP"},"arcs":[[174],[175],[176]]},{"type":"MultiLineString","properties":{"kind":"train","network":"KD","sort_rank":275,"colour":"#ED1D24","source":"openstreetmap.org","min_zoom":6.0,"operator":"Dolno\u015bl\u0105ski Zak\u0142ad Przewoz\u00f3w Regionalnych","ref":"D1","osm_relation":true,"colour_name":"crimson"},"arcs":[[177],[178],[179],[180],[181],[182],[183],[184],[185]]},{"type":"LineString","properties":{"kind":"train","network":"PKP","sort_rank":275,"source":"openstreetmap.org","min_zoom":6.0,"operator":"PKP Polskie Linie Kolejowe S.A.","ref":"301","id":-3539683,"osm_relation":true,"name":"Linia kolejowa nr 301 Opole G\u0142\u00f3wne - Namys\u0142\u00f3w"},"arcs":[186]},{"type":"LineString","properties":{"kind":"train","network":"PKP","sort_rank":275,"source":"openstreetmap.org","min_zoom":6.0,"operator":"PKP Polskie Linie Kolejowe S.A.","ref":"701","id":-4640553,"osm_relation":true,"name":"\u0141\u0105cznica nr 701 Cz\u0119stochowa - Kucelinka"},"arcs":[187]},{"type":"MultiLineString","properties":{"kind":"train","name":"Linia kolejowa nr 351 Pozna\u0144 G\u0142\u00f3wny - Szczecin G\u0142\u00f3wny","sort_rank":275,"source":"openstreetmap.org","min_zoom":6.0,"operator":"PKP Polskie Linie Kolejowe S.A.","ref":"351","osm_relation":true,"network":"PKP"},"arcs":[[188],[189]]},{"type":"MultiLineString","properties":{"kind":"train","name":"Linia kolejowa nr 277 Opole Groszowice - Wroc\u0142aw Broch\u00f3w","sort_rank":275,"source":"openstreetmap.org","min_zoom":6.0,"operator":"PKP Polskie Linie Kolejowe S.A.","ref":"277","osm_relation":true,"network":"PKP"},"arcs":[[190],[191],[192]]},{"type":"MultiLineString","properties":{"kind":"train","name":"Linia kolejowa nr 271 Wroc\u0142aw G\u0142\u00f3wny - Pozna\u0144 G\u0142\u00f3wny","sort_rank":275,"source":"openstreetmap.org","min_zoom":6.0,"operator":"PKP Polskie Linie Kolejowe S.A.","ref":"271","osm_relation":true,"network":"PKP"},"arcs":[[193],[194],[195],[196],[197],[198]]},{"type":"MultiLineString","properties":{"kind":"train","network":"KD","sort_rank":275,"colour":"#FFDD00","source":"openstreetmap.org","min_zoom":6.0,"operator":"Koleje Dolno\u015bl\u0105skie","ref":"D3","osm_relation":true,"colour_name":"gold"},"arcs":[[199],[200],[201],[202],[203],[204],[205],[206]]}]},"pois":{"type":"GeometryCollection","geometries":[{"type":"Point","properties":{"kind":"nature_reserve","protect_class":"5","area":652667000,"name:de":"Landschaftsschutzpark Mesopotamia Warthe und Widawka","source":"openstreetmap.org","min_zoom":7.62,"tier":2,"id":-4524612,"osm_relation":true,"name":"Park Krajobrazowy Mi\u0119dzyrzecza Warty i Widawki"},"coordinates":[2946,1664]},{"type":"Point","properties":{"kind":"nature_reserve","protect_class":"5","area":967321000,"name:de":"Landschaftsschutzpark Wald an der oberen Lisswarthe","source":"openstreetmap.org","min_zoom":7.33,"tier":2,"id":-4524598,"osm_relation":true,"name":"Park Krajobrazowy Lasy nad G\u00f3rn\u0105 Liswart\u0105"},"coordinates":[2806,24]},{"type":"Point","properties":{"kind":"nature_reserve","name:en":"Stobrawski Landscape Park","protect_class":"5","area":1519450000,"name:de":"Landschaftsschutzpark Stoberau","source":"openstreetmap.org","min_zoom":7.01,"tier":2,"id":-4524560,"osm_relation":true,"name":"Stobrawski Park Krajobrazowy"},"coordinates":[1504,338]},{"type":"Point","properties":{"kind":"nature_reserve","protect_class":"5","area":421062000,"source":"openstreetmap.org","min_zoom":7.93,"tier":2,"id":-4524348,"osm_relation":true,"name":"\u017berkowsko-Czeszewski Park Krajobrazowy"},"coordinates":[987,3244]},{"type":"Point","properties":{"kind":"nature_reserve","protect_class":"5","area":695114000,"source":"openstreetmap.org","min_zoom":7.57,"tier":2,"id":-4522184,"osm_relation":true,"name":"Powidzki Park Krajobrazowy"},"coordinates":[1626,4040]},{"type":"Point","properties":{"kind":"nature_reserve","protect_class":"5","area":2223390000,"name:de":"Landschaftsschutzpark Bartschtal","source":"openstreetmap.org","min_zoom":6.73,"tier":2,"id":-4515666,"osm_relation":true,"name":"Park Krajobrazowy Dolina Baryczy"},"coordinates":[487,1787]}]},"boundaries":{"type":"GeometryCollection","geometries":[{"type":"MultiLineString","properties":{"source":"naturalearthdata.com","kind":"region","name":"\u0141\u00f3d\u017a - Kuyavian-Pomeranian","sort_rank":256,"kind_detail":"4","min_zoom":5.5,"id":6558},"arcs":[[0],[1]]},{"type":"MultiLineString","properties":{"source":"naturalearthdata.com","kind":"region","name":"Greater Poland - \u0141\u00f3d\u017a","sort_rank":256,"kind_detail":"4","min_zoom":5.5,"id":6559},"arcs":[[2],[3],[4],[5],[6],[7],[8]]},{"type":"MultiLineString","properties":{"source":"naturalearthdata.com","kind":"region","name":"Greater Poland - Kuyavian-Pomeranian","sort_rank":256,"kind_detail":"4","min_zoom":5.5,"id":6560},"arcs":[[9],[10],[11],[12],[13],[14],[15]]},{"type":"MultiLineString","properties":{"source":"naturalearthdata.com","kind":"region","name":"Lower Silesian - Greater Poland","sort_rank":256,"kind_detail":"4","min_zoom":5.5,"id":6563},"arcs":[[16],[17],[18],[19],[20]]},{"type":"MultiLineString","properties":{"source":"naturalearthdata.com","kind":"region","name":"\u0141\u00f3d\u017a - Masovian","sort_rank":256,"kind_detail":"4","min_zoom":5.5,"id":6555},"arcs":[[21],[22]]},{"type":"LineString","properties":{"source":"naturalearthdata.com","kind":"region","name":"Kuyavian-Pomeranian - Masovian","sort_rank":256,"kind_detail":"4","min_zoom":5.5,"id":6556},"arcs":[23]},{"type":"MultiLineString","properties":{"source":"naturalearthdata.com","kind":"region","name":"Silesian - \u0141\u00f3d\u017a","sort_rank":256,"kind_detail":"4","min_zoom":5.5,"id":6574},"arcs":[[24],[25],[26],[27],[28],[29]]},{"type":"MultiLineString","properties":{"source":"naturalearthdata.com","kind":"region","name":"\u0141\u00f3d\u017a - Opole","sort_rank":256,"kind_detail":"4","min_zoom":5.5,"id":6582},"arcs":[[30],[31],[32]]},{"type":"MultiLineString","properties":{"source":"naturalearthdata.com","kind":"region","name":"Opole - Greater Poland","sort_rank":256,"kind_detail":"4","min_zoom":5.5,"id":6583},"arcs":[[33],[34],[35]]},{"type":"MultiLineString","properties":{"source":"naturalearthdata.com","kind":"region","name":"Opole - Lower Silesian","sort_rank":256,"kind_detail":"4","min_zoom":5.5,"id":6584},"arcs":[[36],[37],[38]]},{"type":"LineString","properties":{"source":"naturalearthdata.com","kind":"region","name":"Silesian - Opole","sort_rank":256,"kind_detail":"4","min_zoom":5.5,"id":6585},"arcs":[39]}]},"roads":{"type":"GeometryCollection","geometries":[{"type":"LineString","properties":{"kind":"highway","network":"e-road","sort_rank":383,"kind_detail":"motorway","source":"naturalearthdata.com","min_zoom":3.0,"all_networks":["e-road"],"shield_text":"40","ref":"40","id":4505,"all_shield_texts":["40"]},"arcs":[207]},{"type":"LineString","properties":{"kind":"highway","network":"e-road","sort_rank":383,"kind_detail":"motorway","source":"naturalearthdata.com","min_zoom":3.0,"all_networks":["e-road"],"shield_text":"40","ref":"40","id":4510,"all_shield_texts":["40"]},"arcs":[208]},{"type":"LineString","properties":{"kind":"highway","network":"e-road","sort_rank":383,"kind_detail":"motorway","source":"naturalearthdata.com","min_zoom":3.0,"all_networks":["e-road"],"landuse_kind":"nature_reserve","shield_text":"30","ref":"30","id":4636,"all_shield_texts":["30"]},"arcs":[209]},{"type":"LineString","properties":{"kind":"highway","network":"e-road","sort_rank":383,"kind_detail":"motorway","source":"naturalearthdata.com","min_zoom":3.0,"all_networks":["e-road"],"landuse_kind":"urban_area","shield_text":"30","ref":"30","id":4636,"all_shield_texts":["30"]},"arcs":[210]},{"type":"LineString","properties":{"kind":"highway","network":"e-road","sort_rank":383,"kind_detail":"motorway","source":"naturalearthdata.com","min_zoom":3.0,"all_networks":["e-road"],"landuse_kind":"urban_area","shield_text":"30","ref":"30","id":4636,"all_shield_texts":["30"]},"arcs":[211]},{"type":"MultiLineString","properties":{"kind":"highway","network":"e-road","sort_rank":383,"kind_detail":"motorway","source":"naturalearthdata.com","min_zoom":3.0,"all_networks":["e-road"],"shield_text":"30","ref":"30","id":4636,"all_shield_texts":["30"]},"arcs":[[212],[213],[214]]},{"type":"LineString","properties":{"kind":"highway","network":"e-road","sort_rank":383,"kind_detail":"motorway","source":"naturalearthdata.com","min_zoom":3.0,"all_networks":["e-road"],"landuse_kind":"urban_area","shield_text":"30","ref":"30","id":4637,"all_shield_texts":["30"]},"arcs":[215]},{"type":"LineString","properties":{"kind":"major_road","network":"e-road","sort_rank":380,"kind_detail":"primary","source":"naturalearthdata.com","min_zoom":3.0,"landuse_kind":"urban_area","shield_text":"30","ref":"30","id":4735},"arcs":[216]},{"type":"MultiLineString","properties":{"kind":"major_road","network":"e-road","sort_rank":380,"kind_detail":"primary","source":"naturalearthdata.com","min_zoom":3.0,"shield_text":"30","ref":"30","id":4735},"arcs":[[217],[218]]},{"type":"LineString","properties":{"kind":"major_road","network":"e-road","sort_rank":380,"kind_detail":"primary","source":"naturalearthdata.com","min_zoom":3.0,"landuse_kind":"urban_area","shield_text":"75","ref":"75","id":4807},"arcs":[219]},{"type":"LineString","properties":{"kind":"major_road","network":"e-road","sort_rank":380,"kind_detail":"primary","source":"naturalearthdata.com","min_zoom":3.0,"landuse_kind":"urban_area","shield_text":"75","ref":"75","id":4807},"arcs":[220]},{"type":"MultiLineString","properties":{"kind":"major_road","network":"e-road","sort_rank":380,"kind_detail":"primary","source":"naturalearthdata.com","min_zoom":3.0,"shield_text":"75","ref":"75","id":4807},"arcs":[[221],[222]]},{"type":"LineString","properties":{"kind":"major_road","network":"e-road","sort_rank":379,"kind_detail":"secondary","source":"naturalearthdata.com","min_zoom":3.0,"landuse_kind":"urban_area","shield_text":"75","ref":"75","id":4808},"arcs":[223]},{"type":"LineString","properties":{"kind":"major_road","network":"e-road","sort_rank":379,"kind_detail":"secondary","source":"naturalearthdata.com","min_zoom":3.0,"shield_text":"75","ref":"75","id":4808},"arcs":[224]},{"type":"LineString","properties":{"kind":"major_road","network":"e-road","sort_rank":380,"kind_detail":"primary","source":"naturalearthdata.com","min_zoom":3.0,"landuse_kind":"urban_area","shield_text":"75","ref":"75","id":4809},"arcs":[225]},{"type":"LineString","properties":{"kind":"major_road","network":"e-road","sort_rank":380,"kind_detail":"primary","source":"naturalearthdata.com","min_zoom":3.0,"shield_text":"75","ref":"75","id":4809},"arcs":[226]},{"type":"LineString","properties":{"kind":"major_road","network":"e-road","sort_rank":380,"kind_detail":"primary","source":"naturalearthdata.com","min_zoom":4.0,"shield_text":"67","ref":"67","id":4957},"arcs":[227]},{"type":"LineString","properties":{"kind":"major_road","network":"e-road","sort_rank":380,"kind_detail":"primary","source":"naturalearthdata.com","min_zoom":4.0,"shield_text":"67","ref":"67","id":4958},"arcs":[228]},{"type":"LineString","properties":{"kind":"major_road","network":"e-road","sort_rank":380,"kind_detail":"primary","source":"naturalearthdata.com","min_zoom":4.0,"landuse_kind":"urban_area","shield_text":"261","ref":"261","id":4960},"arcs":[229]},{"type":"MultiLineString","properties":{"kind":"major_road","network":"e-road","sort_rank":380,"kind_detail":"primary","source":"naturalearthdata.com","min_zoom":4.0,"shield_text":"261","ref":"261","id":4960},"arcs":[[230],[231]]},{"type":"LineString","properties":{"kind":"major_road","network":"e-road","sort_rank":379,"kind_detail":"secondary","source":"naturalearthdata.com","min_zoom":3.0,"landuse_kind":"urban_area","shield_text":"261","ref":"261","id":4964},"arcs":[232]},{"type":"LineString","properties":{"kind":"major_road","network":"e-road","sort_rank":380,"kind_detail":"primary","source":"naturalearthdata.com","min_zoom":4.0,"landuse_kind":"nature_reserve","shield_text":"261","ref":"261","id":4965},"arcs":[233]},{"type":"MultiLineString","properties":{"kind":"major_road","network":"e-road","sort_rank":380,"kind_detail":"primary","source":"naturalearthdata.com","min_zoom":4.0,"shield_text":"261","ref":"261","id":4965},"arcs":[[234],[235]]},{"type":"LineString","properties":{"source":"naturalearthdata.com","kind":"highway","kind_detail":"motorway","sort_rank":383,"landuse_kind":"urban_area","min_zoom":6.0,"id":5436},"arcs":[236]},{"type":"LineString","properties":{"source":"naturalearthdata.com","kind":"highway","sort_rank":383,"kind_detail":"motorway","min_zoom":6.0,"id":5436},"arcs":[237]},{"type":"LineString","properties":{"kind":"major_road","network":"e-road","sort_rank":379,"kind_detail":"secondary","source":"naturalearthdata.com","min_zoom":6.0,"shield_text":"67","ref":"67","id":5495},"arcs":[238]},{"type":"LineString","properties":{"kind":"major_road","network":"e-road","sort_rank":380,"kind_detail":"primary","source":"naturalearthdata.com","min_zoom":6.0,"shield_text":"67","ref":"67","id":5496},"arcs":[239]},{"type":"LineString","properties":{"kind":"major_road","network":"e-road","sort_rank":380,"kind_detail":"primary","source":"naturalearthdata.com","min_zoom":6.0,"landuse_kind":"urban_area","shield_text":"67","ref":"67","id":5535},"arcs":[240]},{"type":"MultiLineString","properties":{"kind":"major_road","network":"e-road","sort_rank":380,"kind_detail":"primary","source":"naturalearthdata.com","min_zoom":6.0,"shield_text":"67","ref":"67","id":5535},"arcs":[[241],[242]]},{"type":"LineString","properties":{"kind":"major_road","network":"e-road","sort_rank":379,"kind_detail":"secondary","source":"naturalearthdata.com","min_zoom":6.0,"landuse_kind":"urban_area","shield_text":"67","ref":"67","id":5536},"arcs":[243]},{"type":"LineString","properties":{"kind":"major_road","network":"e-road","sort_rank":379,"kind_detail":"secondary","source":"naturalearthdata.com","min_zoom":6.0,"shield_text":"67","ref":"67","id":5536},"arcs":[244]},{"type":"LineString","properties":{"kind":"major_road","network":"e-road","sort_rank":380,"kind_detail":"primary","source":"naturalearthdata.com","min_zoom":6.0,"landuse_kind":"urban_area","shield_text":"75","ref":"75","id":5537},"arcs":[245]},{"type":"LineString","properties":{"kind":"major_road","network":"e-road","sort_rank":380,"kind_detail":"primary","source":"naturalearthdata.com","min_zoom":6.0,"shield_text":"75","ref":"75","id":5537},"arcs":[246]},{"type":"LineString","properties":{"kind":"major_road","network":"e-road","sort_rank":380,"kind_detail":"primary","source":"naturalearthdata.com","min_zoom":6.0,"shield_text":"75","ref":"75","id":5562},"arcs":[247]},{"type":"LineString","properties":{"kind":"major_road","network":"e-road","sort_rank":379,"kind_detail":"secondary","source":"naturalearthdata.com","min_zoom":6.0,"shield_text":"75","ref":"75","id":5563},"arcs":[248]},{"type":"LineString","properties":{"kind":"major_road","network":"e-road","sort_rank":380,"kind_detail":"primary","source":"naturalearthdata.com","min_zoom":6.0,"shield_text":"75","ref":"75","id":5564},"arcs":[249]},{"type":"LineString","properties":{"kind":"major_road","network":"e-road","sort_rank":379,"kind_detail":"secondary","source":"naturalearthdata.com","min_zoom":6.0,"landuse_kind":"urban_area","shield_text":"75","ref":"75","id":5565},"arcs":[250]},{"type":"LineString","properties":{"kind":"major_road","network":"e-road","sort_rank":379,"kind_detail":"secondary","source":"naturalearthdata.com","min_zoom":6.0,"shield_text":"75","ref":"75","id":5565},"arcs":[251]},{"type":"LineString","properties":{"source":"naturalearthdata.com","kind":"major_road","kind_detail":"primary","sort_rank":380,"landuse_kind":"urban_area","min_zoom":6.0,"id":5665},"arcs":[252]},{"type":"LineString","properties":{"kind":"major_road","network":"e-road","sort_rank":380,"kind_detail":"primary","source":"naturalearthdata.com","min_zoom":6.0,"landuse_kind":"urban_area","shield_text":"67","ref":"67","id":5666},"arcs":[253]},{"type":"LineString","properties":{"kind":"major_road","network":"e-road","sort_rank":380,"kind_detail":"primary","source":"naturalearthdata.com","min_zoom":6.0,"shield_text":"67","ref":"67","id":5666},"arcs":[254]},{"type":"LineString","properties":{"source":"naturalearthdata.com","kind":"major_road","kind_detail":"secondary","sort_rank":379,"landuse_kind":"urban_area","min_zoom":7.0,"id":6137},"arcs":[255]},{"type":"LineString","properties":{"source":"naturalearthdata.com","kind":"major_road","sort_rank":379,"kind_detail":"secondary","min_zoom":7.0,"id":6137},"arcs":[256]},{"type":"LineString","properties":{"source":"naturalearthdata.com","kind":"major_road","sort_rank":380,"kind_detail":"primary","min_zoom":7.0,"id":6138},"arcs":[257]},{"type":"LineString","properties":{"source":"naturalearthdata.com","kind":"major_road","sort_rank":380,"kind_detail":"primary","min_zoom":7.0,"id":6139},"arcs":[258]},{"type":"LineString","properties":{"source":"naturalearthdata.com","kind":"major_road","kind_detail":"primary","sort_rank":380,"landuse_kind":"urban_area","min_zoom":7.0,"id":6140},"arcs":[259]},{"type":"MultiLineString","properties":{"source":"naturalearthdata.com","kind":"major_road","sort_rank":380,"kind_detail":"primary","min_zoom":7.0,"id":6140},"arcs":[[260],[261]]},{"type":"LineString","properties":{"kind":"highway","network":"e-road","sort_rank":383,"kind_detail":"motorway","source":"naturalearthdata.com","min_zoom":4.0,"all_networks":["e-road"],"landuse_kind":"urban_area","shield_text":"261","ref":"261","id":8116,"all_shield_texts":["261"]},"arcs":[262]},{"type":"MultiLineString","properties":{"kind":"highway","network":"e-road","sort_rank":383,"kind_detail":"motorway","source":"naturalearthdata.com","min_zoom":4.0,"all_networks":["e-road"],"shield_text":"261","ref":"261","id":8116,"all_shield_texts":["261"]},"arcs":[[263],[264]]},{"type":"LineString","properties":{"kind":"highway","network":"e-road","sort_rank":383,"kind_detail":"motorway","source":"naturalearthdata.com","min_zoom":6.0,"all_networks":["e-road"],"landuse_kind":"urban_area","shield_text":"75","ref":"75","id":8123,"all_shield_texts":["75"]},"arcs":[265]},{"type":"LineString","properties":{"kind":"highway","network":"e-road","sort_rank":383,"kind_detail":"motorway","source":"naturalearthdata.com","min_zoom":6.0,"all_networks":["e-road"],"shield_text":"75","ref":"75","id":8123,"all_shield_texts":["75"]},"arcs":[266]},{"type":"LineString","properties":{"source":"naturalearthdata.com","kind":"major_road","kind_detail":"secondary","sort_rank":379,"landuse_kind":"urban_area","min_zoom":6.0,"id":55280},"arcs":[267]},{"type":"LineString","properties":{"source":"naturalearthdata.com","kind":"major_road","kind_detail":"secondary","sort_rank":379,"landuse_kind":"urban_area","min_zoom":6.0,"id":55280},"arcs":[268]},{"type":"LineString","properties":{"source":"naturalearthdata.com","kind":"major_road","sort_rank":379,"kind_detail":"secondary","min_zoom":6.0,"id":55280},"arcs":[269]},{"type":"LineString","properties":{"source":"naturalearthdata.com","kind":"major_road","kind_detail":"secondary","sort_rank":379,"landuse_kind":"nature_reserve","min_zoom":6.0,"id":55297},"arcs":[270]},{"type":"MultiLineString","properties":{"source":"naturalearthdata.com","kind":"major_road","sort_rank":379,"kind_detail":"secondary","min_zoom":6.0,"id":55297},"arcs":[[271],[272]]}]},"earth":{"type":"GeometryCollection","geometries":[{"type":"Polygon","properties":{"sort_rank":10,"source":"naturalearthdata.com","kind":"earth","min_zoom":0.0,"id":4754},"arcs":[[273]]}]},"landuse":{"type":"GeometryCollection","geometries":[{"type":"MultiPolygon","properties":{"source":"naturalearthdata.com","kind":"urban_area","name":"","area":18614803322,"sort_rank":11,"min_zoom":4.0},"arcs":[[[274]],[[275]],[[276]],[[277]],[[278]],[[279]],[[280]],[[281]],[[282]],[[283]],[[284]],[[285]],[[286]],[[287]],[[288]],[[289]],[[290]],[[291]],[[292]],[[293]],[[294]]]},{"type":"MultiPolygon","properties":{"kind":"nature_reserve","protect_class":"5","area":10170898170,"sort_rank":23,"source":"openstreetmap.org","min_zoom":4.0,"tier":2,"osm_relation":true},"arcs":[[[295]],[[296],[297]],[[298]],[[299]]]},{"type":"MultiPolygon","properties":{"kind":"nature_reserve","protect_class":"5","area":15958297986,"sort_rank":23,"source":"openstreetmap.org","min_zoom":6.0,"tier":2,"osm_relation":true},"arcs":[[[300]],[[301]],[[302]],[[303]],[[304]],[[305]],[[306]],[[307]],[[308]],[[309]],[[310]],[[311]],[[312]]]}]}},"type":"Topology","transform":{"translate":[16.875,50.736455137],"scale":[0.0006866455,0.0004263489]},"arcs":[[[3526,3747],[-29,2]],[[3497,3749],[-28,-5],[-18,-27],[-13,-27],[-55,-16],[-180,-4],[-25,-13],[-11,-22],[-14,-18]],[[2774,2985],[97,22],[74,87],[14,147],[15,65],[145,62],[90,85],[-4,23],[-21,6],[-28,59],[-3,76]],[[2724,2990],[50,-5]],[[2599,2461],[16,18],[70,123],[6,74],[-27,76],[-17,82],[11,80],[20,72],[46,4]],[[2388,2484],[211,-23]],[[2061,1518],[69,50],[41,112],[-2,125],[-15,128],[7,156],[38,143],[68,161],[37,52],[84,39]],[[1982,1558],[79,-40]],[[1857,937],[-9,110],[-15,64],[-83,76],[-28,65],[-4,76],[24,52],[106,23],[37,59],[24,74],[73,22]],[[2017,3985],[-148,38],[-47,44],[-23,29]],[[2292,3951],[-35,11],[-27,40],[-18,38],[-12,43],[-18,13]],[[2144,4096],[-77,-89],[-50,-22]],[[2758,3646],[-40,89],[-241,195],[-43,51],[-51,23]],[[2383,4004],[-28,-3],[-27,-11],[-14,-26],[-22,-13]],[[3153,3617],[-138,104]],[[3015,3721],[-52,-7],[-152,-63],[-53,-5]],[[99,1821],[-99,35]],[[1031,1467],[-86,20],[-34,86],[-8,101],[20,50],[35,24],[20,58],[15,67],[-145,94],[-161,44],[-171,1]],[[516,2012],[-61,-12],[-55,-126],[-301,-53]],[[1223,970],[-19,117],[-17,241],[41,99],[-52,42],[-56,16]],[[1120,1485],[-89,-18]],[[4029,3478],[-135,107],[-75,35],[-153,32],[-140,95]],[[4096,3492],[-67,-14]],[[3526,3747],[9,41],[6,39],[108,175],[-6,43],[-30,30],[2,21]],[[3346,524],[-94,20],[-190,105],[-45,46],[-51,10]],[[2966,705],[-46,-32],[-48,-23],[-206,-7],[-73,-36]],[[3884,233],[-50,15],[-136,221],[-87,82],[-98,18]],[[3513,569],[-50,-44],[-117,-1]],[[4096,207],[-67,34]],[[4029,241],[-145,-8]],[[1857,937],[33,-59],[43,-35],[325,-85]],[[2411,812],[39,-49],[34,-66],[109,-90]],[[2258,758],[103,3],[19,17],[14,24],[17,10]],[[1518,773],[-93,5],[-76,62],[-8,58],[-20,50],[-48,25]],[[1273,973],[-50,-3]],[[1857,937],[-166,-100],[-173,-64]],[[1223,970],[-49,-29],[-50,-13]],[[1124,928],[-50,3]],[[1074,931],[-48,-16],[-37,-41],[-85,-198],[-16,-57],[-9,-61],[-23,-71],[-47,-32],[-69,-91],[-52,-123],[-121,-183],[-30,-58]],[[2593,607],[-50,-180],[-18,-23],[-11,-36],[9,-53],[20,-44],[-11,-83],[-114,-75],[-39,-83],[-5,-30]],[[1928,555],[1,-66],[-87,-41],[-48,-72],[-20,-144],[-68,-95]],[[55,3909],[-2,-9],[-4,-8],[-3,-11],[-4,-26],[-3,-7],[-10,-3],[-3,1],[-10,7],[-4,2],[-11,0]],[[16,3853],[9,-6],[3,-1],[1,-1],[7,1],[2,2],[2,1],[2,5],[4,13],[9,42]],[[2892,0],[-1,3],[-1,3],[-5,13]],[[2885,19],[-1,3]],[[2885,19],[6,-19]],[[2437,1181],[108,-91],[17,-73],[-48,-260],[147,-222],[34,-119],[55,-67],[52,-155],[37,-31],[45,-141]],[[2886,0],[8,0],[59,47],[64,24],[81,40],[15,3],[8,2],[1,1],[2,1],[2,1],[8,9],[73,24],[59,-17],[3,-5],[-1,-7],[1,-15],[0,-3],[2,-2],[1,-3],[17,-19],[2,-2],[1,-1],[3,0],[2,-1],[10,0],[4,1],[19,5],[3,0],[7,-3],[2,0],[1,0],[95,10],[52,6],[2,0],[2,1],[9,3],[5,1],[6,-2],[11,-9],[2,-1],[1,-1],[2,-1],[3,0],[10,1],[6,-2],[4,-4],[11,-20],[2,-3],[1,-1],[2,-2],[2,-1],[11,-3],[8,-6],[2,-1],[1,-1],[3,0],[2,-1],[1,1],[11,2],[29,12],[37,-1],[12,-2],[2,-1],[2,0],[106,12],[27,6],[58,-8],[63,-2],[2,0],[2,1],[10,3],[48,2],[3,0],[2,1],[1,0],[56,27],[6,0],[18,-6],[2,-1]],[[2859,0],[95,48],[180,80],[73,24],[59,-17],[3,-5],[2,-27],[26,-26],[33,6],[108,7],[70,11],[6,-2],[2,-1],[9,-8],[3,-2],[15,0],[6,-2],[47,-42],[43,14],[186,14],[121,-10],[4,1],[7,3],[4,0],[50,2],[3,2],[53,25],[4,1],[25,1]],[[269,102],[-44,-102]],[[231,850],[43,-25],[4,-4],[6,-7],[4,-4],[1,-3],[1,-2],[1,-3],[0,-2],[0,-3],[0,-2],[-8,-43],[-5,-69],[-50,-250],[-11,-106],[1,-6],[15,-44],[39,-138],[1,-2],[0,-2],[0,-4],[-4,-29]],[[281,818],[-3,-135],[-50,-250],[-11,-106],[1,-6],[54,-182],[-3,-37]],[[3352,81],[-63,58]],[[301,4011],[-108,-41],[-4,-1],[-41,-21],[-5,-2],[-15,-8]],[[131,3939],[276,115],[160,28],[49,14]],[[615,4096],[-83,-20]],[[802,0],[52,57],[47,162],[-38,56]],[[4096,3413],[-85,46],[-254,45],[-135,-16],[-90,40],[-13,3],[-678,-38],[-269,-43],[-97,86],[-165,2],[-96,-37],[-139,35],[-61,-32],[-315,89],[-259,27],[-66,65],[-82,32],[-308,46],[-62,-15],[-243,62],[-141,72],[-279,26],[-104,41],[-90,-10],[-25,-90],[-40,6]],[[53,3904],[0,-3],[2,8],[-2,-5]],[[2003,3507],[1,0],[8,-2],[-9,2]],[[3599,3498],[8,-4],[-2,1],[-6,3]],[[3271,169],[68,-88],[14,-81]],[[3271,173],[0,-3],[0,-9],[0,1],[0,11]],[[3319,122],[2,-2],[2,-3],[-2,3],[-2,2]],[[3352,7],[0,-5],[0,5]],[[3774,2424],[140,-22],[38,-14],[12,-10],[40,-30],[23,-12],[69,-7]],[[4096,2330],[-9,4],[-2,1],[-4,0],[-54,1],[-23,12],[-40,30],[-9,8],[-1,1],[-2,1],[-2,1],[-3,1],[-33,12],[-47,11],[-2,0],[-74,8],[-8,2],[-9,1]],[[2921,26],[-14,-26]],[[3899,2405],[-67,39],[-14,41],[-109,99],[-5,65],[-132,1],[-30,68],[-47,23],[-17,181],[-112,173],[-1,53],[37,61],[216,261],[-20,28]],[[229,851],[49,-29],[34,-70],[8,-11],[19,-25],[15,-21],[10,-11],[75,-70],[54,-60],[4,-3],[1,-2],[380,-281],[60,-103],[13,-16],[193,-149]],[[245,846],[16,-9],[17,-15],[5,-6],[3,-3],[3,-4],[4,-10],[1,-3],[2,-7],[8,-15],[8,-22],[8,-11],[7,-8],[12,-17],[16,-22],[84,-80],[58,-63],[381,-284],[3,-2],[2,-3],[2,-3],[2,-2],[51,-92],[14,-16],[192,-149]],[[1355,2133],[4,73],[6,2],[38,6],[143,52],[6,0],[31,-9],[39,3],[11,11],[7,23],[5,7],[99,61]],[[1744,2362],[3,1]],[[1355,2130],[4,76],[6,2],[31,4],[3,1],[4,1],[143,52],[7,0],[27,-8],[1,-1],[2,0],[3,0],[24,1],[9,1],[2,1],[2,0],[2,2],[1,1],[6,6],[1,2],[1,3],[6,19],[5,8],[25,13],[75,48]],[[1745,2362],[1,0]],[[1745,2362],[-1,0]],[[1746,2362],[19,-8],[2,-8],[-4,-13],[0,-7],[15,-10],[8,4],[11,18],[21,2],[57,-5],[27,1],[7,3],[25,25],[16,0]],[[1950,2364],[1,0]],[[1747,2363],[-1,-1]],[[1747,2363],[2,1],[3,0],[2,0],[3,-1],[1,-1],[2,-1],[4,-5],[1,-2],[1,-2],[1,-2],[1,-2],[0,-2],[-1,-2],[0,-2],[-4,-9],[0,-7],[15,-10],[8,4],[2,4],[1,6],[1,1],[0,2],[2,1],[1,2],[2,1],[2,1],[18,2],[3,0],[36,-1],[21,-4],[27,1],[6,3],[23,23],[2,2],[3,1],[1,1],[2,0],[3,0],[7,-1]],[[1949,2365],[27,-4]],[[1976,2361],[6,-1]],[[1950,2364],[-1,1]],[[1976,2361],[1,0]],[[1982,2360],[225,-64],[113,-93]],[[2320,2203],[1,-1]],[[2321,2202],[14,-14]],[[2335,2188],[121,-89]],[[2456,2099],[16,-8]],[[2472,2091],[1,0]],[[2473,2091],[19,-10],[2,0],[53,-16],[42,-43],[2,-1],[5,-3],[2,-1],[2,0],[2,0],[41,0],[20,1]],[[2663,2018],[21,3]],[[2684,2021],[3,0]],[[2687,2021],[2,1]],[[2689,2022],[68,41],[19,-4],[3,-3],[6,-8],[2,-2],[2,-1],[2,-1],[2,-1],[2,0],[42,-1],[49,7],[45,-3],[78,5]],[[3009,2051],[64,4]],[[1982,2360],[62,-9],[4,-1],[3,-1],[2,-1],[19,-9],[61,-18],[3,-1],[22,-10],[46,-13],[3,-1],[3,-2],[6,-3],[12,-7],[37,-30],[2,-2],[5,-4],[47,-45]],[[2319,2203],[155,-113]],[[2474,2090],[73,-25],[51,-48],[89,4]],[[2687,2021],[3,2]],[[2690,2023],[67,40],[19,-4],[19,-16],[42,-1],[49,7],[122,3]],[[3008,2052],[66,3]],[[2320,2203],[-1,0]],[[2474,2090],[-1,1]],[[2687,2021]],[[2690,2023],[-1,-1]],[[3009,2051],[-1,1]],[[3719,2401],[1,-2],[3,-8],[0,-9],[-8,-13],[-87,-47]],[[3628,2322],[-12,-16]],[[3616,2306],[-1,-1]],[[3615,2305],[-4,-5]],[[3611,2300],[-17,-107],[-1,-3],[-1,-2],[-11,-9]],[[3581,2179],[-18,-15]],[[3563,2164],[-1,-1]],[[3562,2163],[-3,-2]],[[3559,2161],[-4,-3],[-37,-24],[-3,-2],[-72,-39],[-43,-24],[-3,-1],[-27,-12],[-3,-1],[-3,-1],[-13,-3],[-7,-2],[-3,-1],[-26,-2],[-32,-13],[-3,-1],[-3,0],[-5,1]],[[3272,2033],[-22,2]],[[3250,2035],[-2,0]],[[3248,2035],[-1,1]],[[3247,2036],[-174,19]],[[3074,2055],[-1,0]],[[3627,2320],[-13,-15]],[[3614,2305],[-2,-4]],[[3612,2301]],[[3612,2301],[-8,-9],[-1,-3],[0,-2],[-9,-96],[-33,-29]],[[3561,2162],[-1,0]],[[3560,2162],[-190,-106],[-121,-21]],[[3249,2035],[-3,1]],[[3246,2036],[-156,20],[-3,0],[-3,0],[-10,-1]],[[3246,2036],[1,0]],[[3248,2035],[1,0]],[[3272,2033],[-1,-1]],[[3271,2032],[-20,3]],[[3251,2035],[-1,0]],[[3559,2161],[1,1]],[[3561,2162],[1,1]],[[3612,2301],[-1,-1]],[[3628,2322],[-15,-19],[-1,-2]],[[3614,2305],[1,0]],[[3628,2322],[-8,-11],[-4,-5]],[[3721,2395],[-6,-26],[-77,-37],[-2,-2],[-3,-2],[-2,-2],[-3,-4]],[[3628,2322],[-1,-2]],[[151,3949],[-1,147]],[[4096,2860],[-116,-101],[-122,-21],[-139,-121]],[[3719,2617],[-18,-31],[0,-36],[-17,-44],[-1,-8],[35,-95]],[[3719,2401],[-1,2]],[[3718,2403],[-35,96],[1,7],[16,40],[1,2],[1,2],[0,4],[0,7],[-1,25],[18,31]],[[3723,2387],[-4,14]],[[3719,2401],[4,-15]],[[0,3855],[40,-6],[24,89],[91,11],[104,-41],[277,-25],[143,-73],[242,-62],[63,15],[308,-46],[82,-32],[66,-65],[259,-27],[53,-21],[137,-30],[55,-15],[25,-11],[38,-10],[4,-1],[2,-1],[62,32],[139,-35],[96,37],[165,-2],[97,-86],[268,43],[679,38],[13,-3],[90,-40],[135,16],[253,-44],[86,-47]],[[53,3902],[0,-1],[2,9],[-2,-8]],[[2003,3507],[1,0],[8,-2],[-9,2]],[[3599,3498],[8,-4],[-2,1],[-6,3]],[[237,849],[-237,88]],[[58,3938],[-38,19],[-5,44],[-15,24]],[[0,4025],[14,-24],[3,-35],[0,-2],[1,-2],[1,-3],[1,-2],[2,-2],[1,-2],[2,-1],[3,-2],[30,-12]],[[300,951],[112,-90]],[[0,782],[182,79],[35,-5],[26,-10]],[[106,828],[3,2],[1,0],[-4,-2]],[[241,847],[-7,1],[7,-1]],[[3242,4096],[5,-13],[10,-112],[0,-3],[1,-3],[1,-2],[1,-3],[61,-122],[26,-143],[1,-4],[1,-2],[1,-1],[1,-2],[1,-1],[44,-40],[61,-44],[45,-58],[2,-2],[1,-1],[3,-2],[78,-33],[9,-4]],[[3242,4096],[5,-13],[11,-118],[63,-127],[29,-150],[107,-87],[48,-61],[80,-34],[4,-2],[7,-4]],[[178,877],[6,26],[35,11],[15,-2],[4,0],[1,0],[5,2],[166,83],[64,44],[93,6],[48,8],[118,38],[226,-164],[278,-142],[183,-33],[7,-2],[167,-79],[3,-1],[31,-10],[135,-22],[181,-105],[170,-27],[50,-70],[108,-113],[56,-42],[142,-93],[95,-190]],[[181,899],[1,2],[0,1],[1,1],[2,1],[34,10],[1,1],[2,0],[16,-3],[7,2],[14,9],[15,14],[3,2],[4,2],[21,11],[60,22],[48,23],[44,33],[3,3],[3,1],[11,6],[4,2],[4,1],[5,0],[82,4],[48,8],[114,37],[2,1],[1,0],[5,-1],[2,0],[9,-4],[8,-3],[4,-1],[2,-1],[159,-115],[2,-2],[4,-3],[27,-29],[6,-4],[239,-115],[2,-1],[2,-1],[3,-3],[2,-1],[7,-9],[3,-2],[20,-11],[98,-13],[15,-3],[70,-17],[4,-1],[4,-2],[168,-78],[32,-10],[123,-20],[6,-2],[6,-1],[5,-2],[2,-1],[102,-48],[44,-20],[2,-2],[2,-1],[4,-4],[1,-1],[12,-22],[7,-4],[134,-13],[4,-1],[4,-1],[28,-12],[3,-1],[2,-2],[2,-1],[2,-2],[4,-4],[4,-4],[33,-56],[6,-6],[31,-26],[3,-3],[68,-78],[55,-41],[134,-85],[2,-2],[2,-2],[2,-2],[3,-3],[48,-63],[2,-3],[2,-4],[54,-120]],[[3272,169],[-1,-16],[4,-8],[64,-63],[14,-82]],[[3272,168],[0,7],[0,-7]],[[3319,122],[2,-2],[2,-3],[-2,3],[-2,2]],[[3352,7],[1,-5],[-1,5]],[[4096,3413],[-87,47],[-252,44],[-135,-16],[-103,43],[-678,-38],[-269,-43],[-97,86],[-165,2],[-96,-37],[-139,35],[-61,-32],[-315,89],[-259,27],[-66,65],[-82,32],[-308,46],[-62,-15],[-243,62],[-141,72],[-279,26],[-104,41],[-90,-10],[-25,-90],[-40,6]],[[3949,4096],[-141,-81],[-172,-284],[-46,-128],[-55,-69],[72,-40]],[[3272,176],[-13,-36]],[[56,3917],[-9,-36],[-4,-26],[3,-10],[187,-163],[363,-219],[7,-17],[-4,-55],[2,-12],[69,-218],[16,-24],[19,-36],[5,-7],[114,-76],[33,-80],[43,-36],[2,-39],[5,-11],[354,-150],[35,-180],[32,-96],[31,-371],[18,-67],[52,-154],[63,-126],[11,-6],[31,3],[11,-7],[2,-8],[-6,-37],[0,-4],[0,-3],[1,-3],[36,-79],[2,-3],[17,-14],[15,-19],[25,-133],[-1,-14],[-11,-24],[-1,-2],[-1,-3],[0,-4],[1,-3],[0,-2],[17,-43],[2,-14],[2,-6],[199,-268],[82,-80],[5,-61],[13,-62],[1,-42],[-22,-193],[0,-5],[1,-5],[9,-18]],[[57,3918],[-1,-6],[-2,-8],[-7,-23],[0,-8],[-1,-5],[0,-2],[-3,-11],[3,-10],[11,-9],[25,-11],[3,-1],[3,-3],[145,-139],[261,-147],[2,-2],[2,-1],[23,-19],[29,-15],[4,-2],[37,-27],[2,-2],[3,-4],[3,-3],[1,-2],[1,-3],[1,-2],[0,-3],[1,-4],[0,-4],[-4,-51],[2,-12],[3,-7],[17,-34],[2,-4],[47,-173],[17,-25],[9,-15],[9,-20],[5,-7],[9,-6],[35,-11],[3,-1],[2,-1],[4,-3],[4,-2],[48,-44],[6,-4],[2,-3],[1,-2],[3,-4],[15,-34],[15,-41],[38,-28],[1,-2],[2,-2],[1,-2],[2,-2],[1,-3],[0,-3],[0,-33],[5,-11],[158,-57],[158,-69],[3,-1],[30,-18],[2,-1],[1,-1],[1,-2],[1,-1],[2,-3],[0,-3],[33,-174],[30,-88],[1,-2],[0,-4],[18,-146],[4,-38],[11,-152],[0,-5],[-2,-24],[1,-9],[18,-66],[2,-6],[8,-16],[2,-5],[40,-127],[32,-58],[31,-68],[11,-6],[26,3],[2,1],[3,-1],[2,0],[1,-1],[2,0],[2,-1],[2,-2],[2,-3],[1,-3],[1,-1],[0,-3],[0,-2],[-5,-45],[14,-24],[4,-3],[8,-3],[3,-1],[1,-1],[2,-1],[1,-2],[1,-1],[6,-15],[1,-2],[0,-2],[0,-3],[-1,-2],[-5,-11],[1,-9],[3,-3],[12,-10],[4,-4],[12,-14],[1,-2],[2,-3],[1,-2],[0,-2],[23,-124],[1,-5],[0,-5],[0,-2],[-1,-4],[0,-3],[-2,-4],[-1,-3],[-9,-19],[-1,-8],[19,-47],[0,-2],[0,-2],[1,-10],[2,-6],[137,-161],[8,-15],[52,-89],[2,-2],[3,-4],[30,-21],[2,-3],[42,-46],[2,-1],[1,-2],[1,-2],[1,-2],[0,-3],[1,-2],[4,-56],[13,-58],[0,-4],[0,-2],[1,-41],[0,-4],[-22,-188],[11,-29]],[[0,3855],[40,-6],[24,89],[91,11],[104,-41],[277,-25],[143,-73],[242,-62],[63,15],[308,-46],[82,-32],[66,-65],[259,-27],[314,-89],[62,32],[139,-35],[96,37],[165,-2],[97,-86],[268,43],[679,38],[103,-43],[135,16],[252,-44],[87,-47]],[[192,858],[-10,4],[-3,0],[-5,-3],[-3,0],[-2,-1],[-1,0],[-2,1],[-2,0],[-2,2],[-2,1],[-12,14],[-17,19],[-18,23],[-15,19],[-4,5],[-94,133]],[[243,847],[-51,11]],[[192,858],[-10,4],[-18,-3],[-16,17],[-148,199]],[[178,877],[6,26],[3,1],[6,-1],[2,0],[2,1],[2,0],[15,9],[5,1],[15,-2],[4,0],[1,0],[4,1],[3,2],[12,6],[1,1],[21,19],[62,25]],[[186,863],[-7,12],[-1,2],[0,2],[1,8]],[[237,849],[-59,28]],[[178,877],[1,10]],[[181,899],[0,1],[1,1],[1,1],[0,1],[2,1],[1,0],[1,0]],[[359,973],[-57,-21],[-21,-11],[-4,-2],[-3,-2],[-15,-14],[-16,-9],[-24,0],[-5,-1],[-17,-9],[-7,0]],[[363,974],[48,24],[43,32],[5,4],[12,6],[5,2],[258,51]],[[363,974],[44,22],[3,1],[3,2],[5,3],[33,26],[6,5],[27,10]],[[559,1047],[7,0],[6,1],[42,7],[6,1],[114,37]],[[1699,0],[7,141],[-69,88],[-234,179],[-128,312],[-63,82]],[[3271,167],[84,-85]],[[53,3906],[3,34],[-56,17]],[[0,3957],[56,-17],[-4,-34]],[[334,723],[140,-24],[47,35]],[[1470,0],[-39,90],[-54,36],[-169,175],[-5,9],[-6,35],[-49,47],[-28,42],[-35,70],[-13,14],[-35,24],[-40,32],[-43,19],[-3,1],[-52,29],[-22,15],[-79,22],[-70,20],[-64,36],[-143,18]],[[521,734],[2,0],[2,1],[18,0],[9,0],[8,-1],[6,0],[4,-1],[55,-10],[36,-7],[3,0],[4,-2],[5,-2],[55,-32],[70,-20],[77,-22],[2,0],[2,-1],[2,-1],[18,-13],[54,-30],[41,-18],[3,-1],[2,-2],[38,-30],[18,-11],[14,-11],[3,-2],[11,-10],[1,-2],[1,-2],[29,-51],[1,-2],[1,-2],[2,-11],[2,-4],[28,-42],[46,-43],[2,-3],[2,-2],[1,-3],[1,-4],[4,-27],[4,-9],[2,-2],[34,-28],[2,-2],[131,-143],[51,-33],[2,-1],[1,-2],[49,-90]],[[0,3672],[11,31],[2,5],[28,132],[12,66]],[[243,847],[-63,26],[11,94],[-2,20],[-3,7],[-120,222],[-23,120],[-43,54]],[[0,1625],[33,67],[1,3],[1,3],[1,3],[1,4],[4,49],[0,4],[0,4],[-1,4],[-1,5],[0,2],[-39,111]],[[52,3906],[-52,-234]],[[0,1884],[41,-126],[-41,-133]],[[0,1390],[43,-54],[20,-110],[2,-5],[1,-5],[2,-4],[118,-218],[3,-7],[2,-20],[-13,-87],[0,-2],[0,-2],[1,-3],[2,-3],[6,-8],[1,-1],[2,-1],[2,-2],[5,-2],[3,-1],[2,0],[3,0],[9,1],[3,0],[15,-6],[13,-4]],[[178,877],[6,26],[3,1],[6,-1],[2,0],[2,1],[2,0],[15,9],[5,1],[15,-2],[4,0],[1,0],[4,1],[3,2],[12,6],[1,1],[21,19],[63,26]],[[186,863],[-7,12],[-1,2],[0,2],[1,8]],[[237,849],[-59,28]],[[178,877],[0,3],[1,7]],[[181,899],[2,4],[2,1],[2,0]],[[229,913],[-7,2],[-2,0],[-2,-1],[-4,-1],[-17,-9],[-7,0]],[[234,912],[24,10],[18,17],[4,2],[20,10],[43,16]],[[343,967],[20,14],[-39,82],[32,99],[-83,172]],[[127,717],[-24,14],[-26,10],[-51,9],[-26,0]],[[136,717],[23,-8],[22,-16],[41,-42],[300,-365],[62,-58],[66,-45],[259,-88],[10,-6],[106,-89]],[[1673,3443],[-4,1]],[[1036,3725],[-21,6],[-121,4]],[[117,3812],[-14,6],[-44,12],[-22,2]],[[894,3735],[-553,18],[-164,35],[-60,24]],[[1669,3444],[-58,22],[-219,133],[-17,7],[-33,8],[-118,16],[-33,14],[-137,76],[-18,5]],[[2531,3329],[-629,49],[-147,34],[-82,31]],[[0,3828],[46,8]],[[3547,3554],[16,-2],[121,-42]],[[2511,3323],[18,35],[25,23],[71,42],[54,53],[33,26],[47,25],[41,12],[648,31],[99,-16]],[[3684,3510],[126,-43],[19,-3],[19,2],[56,12],[39,0],[19,-4],[39,-10],[95,-46]],[[3745,937],[-48,-90]],[[4096,1640],[-7,-2],[-23,-13],[-21,-20],[-11,-19],[-2,-4]],[[3697,847],[-30,-56],[-38,-59],[-219,-246]],[[4032,1582],[-8,-18],[-49,-141],[-18,-38],[-42,-59],[-19,-31],[-9,-16],[-18,-41],[-52,-147],[-63,-137],[-9,-17]],[[3266,307],[-6,-10],[-18,-44],[-12,-49],[-4,-51]],[[3410,486],[-104,-117],[-24,-34],[-16,-28]],[[3226,153],[2,-25],[4,-26],[5,-15]],[[3237,87],[2,-9],[12,-14],[10,-6],[5,-3],[5,-6],[5,-11],[3,-14],[3,-24]],[[0,379],[5,16]],[[5,395],[65,179],[74,171]],[[296,4033],[-92,-30],[-18,-15],[-13,-23],[-7,-33],[0,-67],[-3,-32],[-3,-8]],[[160,3825],[-7,-21]],[[485,4096],[-189,-63]],[[46,3836],[-46,-59]],[[33,1825],[26,-98]],[[0,1950],[33,-125]],[[59,1727],[3,-10],[16,-117],[13,-56],[15,-35],[21,-26],[23,-21],[47,-35],[22,-22],[18,-28],[11,-37],[4,-49],[-4,-51],[-37,-158]],[[3638,2780],[8,-2]],[[2514,3328],[13,-11],[14,-8],[76,-17],[16,-6],[18,-11],[118,-91],[652,-340],[217,-64]],[[4096,1475],[0,-2],[-16,-42],[-33,-65]],[[4047,1366],[-52,-104],[-8,-11],[-8,-10],[-8,-9],[-25,-19],[-31,-18],[-71,-29],[-17,-12],[-3,-3]],[[3599,1465],[66,47]],[[2171,1334],[129,-112],[68,-41],[71,-25],[36,-3],[36,3],[37,11],[252,133],[148,57],[102,63],[35,15],[42,8],[43,0],[237,-31],[79,6],[37,9],[36,15],[35,19],[5,4]],[[3665,1512],[97,68],[21,9]],[[3993,1624],[31,4]],[[3783,1589],[17,8],[38,10],[155,17]],[[3816,2440],[-21,-151],[-2,-28],[0,-15]],[[3793,2246],[0,-13],[3,-28],[5,-24],[9,-23],[10,-21],[22,-38],[92,-118],[9,-15]],[[3387,4096],[3,-18],[0,-23],[-4,-21],[-18,-64],[-3,-23],[-5,-69],[-1,-10],[-15,-64],[-2,-11],[-2,-21],[1,-20],[3,-19],[21,-88],[12,-66]],[[3377,3579],[6,-80],[-2,-232]],[[3381,3267],[0,-35],[5,-75],[12,-71],[25,-64],[21,-33],[23,-28],[25,-22],[75,-55],[22,-22],[21,-26],[17,-30]],[[3638,2781],[151,-340],[9,-29]],[[3627,2806],[11,-25]],[[0,3940],[4,-2],[42,-31]],[[153,801],[49,65],[53,55],[56,44],[60,33],[30,10]],[[401,1008],[29,10],[199,41],[175,89],[36,12],[69,11],[57,21],[163,98],[30,12],[31,7],[31,2],[174,-23],[334,34],[328,-34],[54,5],[52,20],[25,21]],[[165,3858],[26,-14],[1,0]],[[192,3844],[26,-18],[23,-26],[16,-36],[2,-12],[8,-48],[7,-30],[6,-19],[8,-18],[9,-16],[10,-14],[13,-14],[27,-21],[25,-17],[25,-12],[205,-61]],[[602,3482],[28,-12],[7,-5],[13,-12],[6,-6],[6,-8],[5,-9],[4,-10],[7,-21],[3,-10],[14,-25],[5,-8],[25,-22],[27,-15],[6,-5],[6,-5],[5,-7],[3,-7],[2,-10],[1,-10],[0,-8],[-2,-77],[0,-9],[3,-9],[9,-17],[10,-13],[23,-24],[18,-28],[11,-35],[14,-79],[7,-29],[10,-25],[14,-20],[18,-13]],[[901,2889],[23,-23],[25,-16],[53,-22],[195,-45],[36,-15],[35,-20],[40,-32],[39,-37]],[[1369,2217],[1,-33],[7,-61],[3,-22]],[[1347,2679],[22,-20],[19,-24],[15,-32],[6,-38],[-1,-35],[-6,-35],[-24,-106],[-7,-40],[-3,-26],[-1,-52],[2,-54]],[[1380,2101],[17,-96],[53,-203],[6,-17],[8,-15],[17,-29],[10,-15],[46,-48],[10,-14],[8,-16],[6,-19],[3,-25],[-1,-25],[-11,-72],[-1,-12],[1,-11],[5,-28],[11,-48],[15,-44],[39,-76],[47,-60],[54,-46],[85,-49],[14,-12],[12,-14],[4,-7],[4,-8],[4,-9],[3,-8],[8,-35],[3,-10],[5,-10],[5,-9],[29,-39],[7,-14],[6,-16],[10,-40],[6,-42],[10,-85],[16,-83],[26,-72],[36,-62],[43,-52],[49,-43],[189,-123],[64,-55],[43,-43],[45,-55],[42,-64],[56,-99],[10,-24]],[[202,1044],[-64,-278]],[[138,766],[-11,-49]],[[211,1082],[-9,-38]],[[4050,1639],[1,-2]],[[3943,1966],[15,-23],[22,-43],[17,-48],[53,-213]],[[813,318],[8,-3],[54,-25]],[[226,868],[59,-25],[19,-23],[39,-57]],[[343,763],[7,-10],[43,-50],[64,-61],[168,-146],[10,-23],[19,-68],[19,-29],[23,-16],[117,-42]],[[1144,85],[28,-3],[1,0]],[[917,241],[51,-68],[24,-25],[37,-18],[41,-33],[24,-9],[50,-3]],[[1173,82],[40,-45],[57,-37]],[[0,0],[0,4096],[4096,0],[0,-4096],[-4096,0]],[[3220,339],[45,-32],[65,0],[16,-79],[32,26],[33,-26],[-55,-125],[-59,-32],[-62,16],[-51,89],[-16,-26],[-18,15],[38,142],[32,32]],[[868,250],[-62,56],[26,41],[33,2],[28,-32],[10,-63],[-35,-4]],[[223,1040],[62,-12],[19,-44],[75,45],[22,-19],[-24,-96],[24,-34],[-64,-131],[-178,0],[-65,53],[0,182],[62,-26],[55,102],[12,-20]],[[46,906],[-46,47],[29,83],[-16,104],[38,-15],[38,-75],[-43,-144]],[[3556,1297],[33,0],[0,-52],[32,0],[0,-79],[-162,53],[33,156],[64,-78]],[[2642,2097],[49,-50],[40,6],[-19,-72],[-34,8],[-16,59],[-28,4],[8,45]],[[3060,2048],[11,-48],[-81,-26],[-32,105],[16,26],[86,-57]],[[3568,1558],[84,-49],[45,9],[-44,-91],[-113,78],[28,53]],[[4096,1736],[0,-184],[-102,48],[-1,62],[65,-26],[32,26],[0,78],[6,-4]],[[3734,880],[43,-85],[6,-46],[-65,17],[-34,129],[34,63],[33,-26],[-17,-52]],[[898,2987],[41,-42],[12,20],[14,-15],[-30,-90],[-58,83],[-7,48],[28,-4]],[[240,3121],[-75,36],[-6,42],[26,21],[52,-39],[3,-60]],[[4096,2964],[0,-26],[-6,27],[6,-1]],[[1997,3454],[-62,75],[-13,61],[122,54],[40,-28],[-16,-115],[-32,-41],[-39,-6]],[[3665,3648],[21,-136],[-27,-22],[-119,-4],[-14,44],[30,34],[16,104],[17,-26],[48,30],[28,-24]],[[197,4096],[10,-37],[65,0],[0,-26],[32,0],[23,-138],[-39,60],[-64,26],[-28,-27],[-5,-129],[-65,0],[-26,-38],[-100,-39],[0,348],[197,0]],[[3767,4007],[22,-17],[-6,-61],[-65,52],[33,104],[16,-78]],[[984,3821],[65,-74],[-33,-53],[-131,44],[-14,61],[48,-26],[40,51],[25,-3]],[[1374,2100],[-45,31],[-5,78],[36,15],[93,-67],[-28,-47],[-51,-10]],[[1753,2335],[-41,4],[0,32],[65,125],[97,-26],[-12,-54],[-109,-81]],[[3787,2590],[-4,-42],[43,4],[29,70],[77,-61],[61,-169],[47,-34],[2,-45],[-131,16],[-31,-42],[-32,0],[0,-26],[-97,-26],[-17,-52],[-81,-26],[0,-26],[-97,0],[-47,42],[12,51],[51,-15],[81,26],[-16,26],[-97,0],[-48,365],[129,-78],[14,16],[-58,101],[76,143],[148,-165],[-14,-53]],[[3622,0],[-225,0],[-21,36],[51,153],[-32,29],[151,37],[23,-24],[-6,-103],[-41,43],[-8,-17],[-26,18],[5,-104],[27,16],[53,-68],[49,-16]],[[816,543],[42,24],[66,-21],[8,24],[-35,20],[69,3],[8,25],[46,-62],[24,42],[66,-32],[-14,-22],[-61,-1],[50,-47],[-15,-78],[75,-23],[-20,-48],[48,-39],[53,10],[-13,36],[29,97],[108,66],[35,94],[137,-32],[-123,-49],[31,-101],[67,64],[28,0],[-8,58],[96,21],[53,-58],[15,33],[92,-11],[66,-36],[18,-45],[-64,-81],[-20,-145],[-39,-34],[-43,0],[0,-65],[-16,31],[-75,-12],[-41,54],[-181,-20],[-56,25],[-26,71],[-13,-38],[-39,13],[-53,-27],[117,-145],[-6,-23],[-112,79],[-24,-78],[-24,20],[18,44],[-62,59],[38,4],[5,-28],[-2,37],[-65,9],[-24,66],[-54,16],[-20,-27],[-16,-3],[-74,46],[74,-37],[31,25],[79,7],[-29,31],[0,52],[-64,13],[-11,39],[-83,55],[10,22],[-70,-5],[-7,38]],[[1089,343],[2,-6],[13,-7],[3,1],[-18,12]],[[0,1833],[51,-12],[-48,146],[27,7],[47,-60],[78,-31],[96,35],[23,-31],[23,6],[30,35],[-26,30],[121,-80],[9,32],[46,-7],[20,142],[44,3],[43,-18],[-12,-28],[53,-17],[32,-46],[244,28],[80,-34],[154,38],[23,-26],[97,73],[86,-3],[33,-21],[51,-162],[-58,-31],[16,48],[-155,86],[-49,-81],[-57,-32],[-9,-96],[-34,-3],[-71,-101],[-68,81],[11,-34],[-48,-7],[-15,-51],[-51,-8],[0,-47],[-55,-31],[-61,16],[52,62],[-55,99],[-130,-128],[-73,-6],[-249,95],[-3,-58],[-55,56],[28,41],[-130,7],[-106,41],[0,83]],[[3772,4096],[-95,-31],[-29,-33],[-131,56],[255,8]],[[3071,0],[-494,0],[-55,146],[13,21],[36,-18],[17,71],[90,-5],[0,88],[63,-21],[-12,-28],[48,-12],[12,-37],[57,0],[20,-86],[19,-5],[8,29],[36,-55],[73,13],[54,-67],[15,-34]],[[4096,2651],[0,-124],[-23,18],[-32,-25],[-77,21],[-54,-26],[-28,87],[-99,-90],[-19,40],[46,81],[151,39],[18,31],[19,-61],[59,-21],[39,30]],[[4096,2704],[0,-11],[-7,9],[7,2]],[[2680,1411],[48,37],[40,173],[41,38],[2,68],[36,2],[-57,107],[26,44],[-15,18],[25,9],[-18,38],[17,-15],[37,25],[169,-238],[16,59],[77,-8],[-60,-129],[23,-27],[-78,-42],[1,-77],[-37,-4],[-6,-35],[-28,-5],[-13,27],[-87,-26],[-40,-80],[-119,41]],[[2210,4096],[9,-45],[-42,-62],[10,107],[23,0]],[[1882,4096],[-164,-153],[-130,-76],[-26,-54],[-84,8],[15,38],[-22,50],[29,25],[-50,-3],[-40,30],[15,97],[-27,38],[484,0]],[[2106,4096],[24,-48],[-12,-37],[-27,11],[15,74]],[[172,4084],[2,12],[67,0],[-23,-32],[-46,20]],[[0,3152],[20,31],[-20,35],[57,12],[60,-42],[-21,-23],[47,-34],[-124,-117],[60,-55],[-79,11],[0,182]],[[1122,3319],[31,-3],[66,96],[151,45],[188,-2],[63,-28],[49,17],[119,-52],[-92,-83],[-76,43],[-52,-10],[-195,39],[-20,-38],[-54,-6],[9,-16],[-44,-38],[-27,-7],[-31,51],[-49,-81],[-36,73]],[[802,3378],[7,42],[144,32],[-8,-29],[-45,-2],[115,-73],[133,-210],[3,-47],[-169,-53],[-42,103],[-60,38],[-37,-25],[-21,21],[3,31],[64,25],[8,47],[-62,26],[-33,74]],[[0,3542],[24,28],[-21,9],[-2,80],[60,13],[45,-170],[72,-51],[31,-64],[-21,-95],[45,-37],[-7,-43],[-40,-13],[-35,78],[-37,5],[6,-25],[-38,18],[-10,40],[-63,40],[31,49],[-25,34],[-15,-21],[0,125]],[[2529,766],[14,47],[51,17],[-13,68],[53,43],[29,-5],[11,92],[38,50],[53,20],[-13,-48],[71,-58],[-8,-66],[60,-77],[-44,-8],[-70,-71],[-64,1],[9,-38],[-55,2],[18,-46],[-32,-4],[-15,59],[-93,22]]]}