{"objects":{"water":{"type":"GeometryCollection","geometries":[{"type":"Polygon","properties":{"source":"naturalearthdata.com","kind":"lake","name":"Lake Balaton","area":1166189440,"sort_rank":200,"min_zoom":0.0,"id":563},"arcs":[[1139]]},{"type":"Point","properties":{"label_placement":true,"kind":"lake","name":"Lake Balaton","area":1166189440,"sort_rank":200,"source":"naturalearthdata.com","min_zoom":0.0,"id":563},"coordinates":[1380,3767]},{"type":"MultiLineString","properties":{"source":"naturalearthdata.com","kind":"lake","sort_rank":367,"boundary":true,"min_zoom":0.0,"id":563},"arcs":[[1140],[1141]]}]},"buildings":{"type":"GeometryCollection","geometries":[]},"places":{"type":"GeometryCollection","geometries":[{"type":"Point","properties":{"name:pt":"Cro\u00e1cia","name:cy":"Croatia","name:mt":"Kroazja","name:ko":"\ud06c\ub85c\uc544\ud2f0\uc544","name:kn":"\u0c95\u0ccd\u0cb0\u0ccb\u0caf\u0cc7\u0cb6\u0cbf\u0caf\u0cbe","name:km":"\u1780\u17d2\u179a\u17bc\u17a2\u17b6\u178f","name:cs":"Chorvatsko","alt_name:eo":"Kroatio","name:ki":"Korasia","name:tr":"H\u0131rvatistan","name:ku":"Kroatya","name:ti":"\u12ad\u122e\u12a4\u123d\u12eb","name:ks":"\u06a9\u0631\u065b\u0648\u0634\u0650\u06cc\u0627","name:to":"Kuloisia","name:tl":"Croatia","name:sv":"Kroatien","name:or":"\u0b15\u0b4d\u0b30\u0b4b\u0b06\u0b1f\u0b3f\u0b06","name:pl":"Chorwacja","name:ta":"\u0b95\u0bc1\u0bb0\u0bcb\u0b9a\u0bbf\u0baf\u0bbe","name:tg":"\u0425\u043e\u0440\u0432\u0430\u0442\u0438\u044f","name:ca":"Cro\u00e0cia","name:te":"\u0c15\u0c4d\u0c30\u0c4b\u0c2f\u0c47\u0c37\u0c3f\u0c2f\u0c3e","name:hu":"Horv\u00e1torsz\u00e1g","name:ro":"Croa\u0163ia","name:ka":"\u10f0\u10dd\u10e0\u10d5\u10d0\u10e2\u10d8\u10d0","name:da":"Kroatien","name:de":"Kroatien","name:dz":"\u0f40\u0fb2\u0f7c\u0f0b\u0f68\u0f7a\u0f0b\u0f64","source":"openstreetmap.org","name:lv":"Horv\u0101tija","name:lt":"Kroatija","name:hi":"\u0915\u094d\u0930\u094b\u0936\u093f\u092f\u093e","name:he":"\u05e7\u05e8\u05d5\u05d0\u05d8\u05d9\u05d4","kind":"country","name:ur":"\u06a9\u0631\u0648\u0634\u06cc\u0627","name:lb":"Kroatien","name:la":"Croatia","name:lg":"Kurowesya","name:uk":"\u0425\u043e\u0440\u0432\u0430\u0442\u0456\u044f","name:hy":"\u053d\u0578\u0580\u057e\u0561\u0569\u056b\u0561","min_zoom":2.0,"name:li":"Kroati\u00eb","name:ln":"Krowasi","name:lo":"\u0ec2\u0e84\u0ec0\u0ead\u0ec0\u0e8a\u0e8d","population":4284889,"name:el":"\u039a\u03c1\u03bf\u03b1\u03c4\u03af\u03b1","name:eo":"Kroatujo","name:en":"Croatia","name":"Hrvatska","official_name":"Republika Hrvatska","name:ee":"Kroatsia nutome","name:th":"\u0e1b\u0e23\u0e30\u0e40\u0e17\u0e28\u0e42\u0e04\u0e23\u0e40\u0e2d\u0e40\u0e0a\u0e35\u0e22","name:gu":"\u0a95\u0acd\u0ab0\u0acb\u0a8f\u0ab6\u0abf\u0aaf\u0abe","name:eu":"Kroazia","name:et":"Horvaatia","name:nl":"Kroati\u00eb","name:es":"Croacia","name:ia":"Croatia","name:rm":"Croazia","name:rn":"Korowasiya","name:az":"Xorvatiya","name:id":"Kroasia","name:ms":"Croatia","name:mr":"\u0915\u094d\u0930\u094b\u090f\u0936\u093f\u092f\u093e","name:ar":"\u0643\u0631\u0648\u0627\u062a\u064a\u0627","name:my":"\u1001\u101b\u102d\u102f\u1021\u1031\u1038\u101b\u103e\u102c\u1038","name:io":"Kroatia","int_name":"Croatia","name:is":"Kr\u00f3at\u00eda","name:am":"\u12ad\u122e\u12a4\u123d\u12eb","name:it":"Croazia","name:vi":"Croatia","name:ru":"\u0425\u043e\u0440\u0432\u0430\u0442\u0438\u044f","name:mn":"\u0425\u043e\u0440\u0432\u0430\u0442","id":424311353,"name:mk":"\u0425\u0440\u0432\u0430\u0442\u0441\u043a\u0430","name:af":"Kroasi\u00eb","name:zu":"i-Croatia","name:ha":"Kurowaishiya","name:nn":"Kroatia","name:ff":"Korwasii","name:fi":"Kroatia","name:no":"Kroatia","name:mg":"Kroasia","name:fo":"Kroatia","name:fr":"Croatie","name:fy":"Kroaasje","name:vo":"Kroas\u00e4n","name:zh":"\u514b\u7f57\u5730\u4e9a","name:gv":"Yn Chroit","name:so":"Korweeshiya","name:sn":"Korasia","name:sl":"Hrva\u0161ka","name:sk":"Chorv\u00e1tsko","name:ja":"\u30af\u30ed\u30a2\u30c1\u30a2","name:si":"\u0d9a\u0dca\u200d\u0dbb\u0ddc\u0da7\u0dd2\u0dba\u0dcf","name:fa":"\u06a9\u0631\u0648\u0627\u0633\u06cc","name:sg":"Kroas\u00efi","name:se":"Kro\u00e1tia","name:ne":"\u0915\u094d\u0930\u094b\u090f\u0936\u093f\u092f\u093e","name:br":"Kroatia","name:bm":"Kroasi","name:bn":"\u0995\u09cd\u09b0\u09cb\u09af\u09bc\u09c7\u09b6\u09bf\u09af\u09bc\u09be","name:bo":"\u0f40\u0f74\u0f62\u0f7c\u0f0b\u0f64\u0f72\u0f0b\u0f61\u0f0d","name:ml":"\u0d15\u0d4d\u0d30\u0d4a\u0d2f\u0d47\u0d37\u0d4d\u0d2f","name:sw":"Korasia","name:be":"\u0425\u0430\u0440\u0432\u0430\u0442\u044b\u044f","name:bg":"\u0425\u044a\u0440\u0432\u0430\u0442\u0438\u044f","name:sr":"\u0425\u0440\u0432\u0430\u0442\u0441\u043a\u0430","name:sq":"Kroaci","name:ga":"An Chr\u00f3it","name:gd":"Cro\u00e0isia","name:gl":"Croacia","name:yo":"Or\u00edl\u1eb9\u0301\u00e8de K\u00f2r\u00f3\u00e1t\u00ed\u00e0","name:ak":"Krowehyia"},"coordinates":[199,998]},{"type":"Point","properties":{"source":"naturalearthdata.com","kind":"locality","name":"Pecs","population":186262,"region_capital":true,"min_zoom":7.0,"id":2470},"coordinates":[1959,2081]},{"type":"Point","properties":{"source":"naturalearthdata.com","kind":"locality","name":"Kaposvar","population":108528,"region_capital":true,"min_zoom":7.0,"id":2472},"coordinates":[1347,2683]},{"type":"Point","properties":{"source":"naturalearthdata.com","kind":"locality","name":"Osijek","population":95077,"region_capital":true,"min_zoom":7.0,"id":3635},"coordinates":[2629,968]}]},"transit":{"type":"GeometryCollection","geometries":[{"type":"LineString","properties":{"kind":"train","name":"S25: K\u0151b\u00e1nya-Kispest => Kunszentmikl\u00f3s-Tass","service":"commuter","sort_rank":275,"source":"openstreetmap.org","min_zoom":6.0,"operator":"M\u00c1V-Start","ref":"S25","id":-5189491,"osm_relation":true},"arcs":[256]},{"type":"LineString","properties":{"kind":"train","name":"S431: Duna\u00fajv\u00e1ros => Simontornya","sort_rank":275,"source":"openstreetmap.org","min_zoom":6.0,"operator":"M\u00c1V-Start","ref":"S431","id":-5189512,"osm_relation":true},"arcs":[257]},{"type":"LineString","properties":{"kind":"train","name":"S250: Kiskunhalas => Kunszentmikl\u00f3s-Tass","service":"commuter","sort_rank":275,"source":"openstreetmap.org","min_zoom":6.0,"operator":"M\u00c1V-Start","ref":"S250","osm_relation":true},"arcs":[258]},{"type":"LineString","properties":{"kind":"train","name":"S432: Duna\u00fajv\u00e1ros => Cece","sort_rank":275,"source":"openstreetmap.org","min_zoom":6.0,"operator":"M\u00c1V-Start","ref":"S432","id":-5189515,"osm_relation":true},"arcs":[259]},{"type":"LineString","properties":{"kind":"train","name":"S210: Lajosmizse => Kecskem\u00e9t","sort_rank":275,"source":"openstreetmap.org","min_zoom":6.0,"operator":"M\u00c1V-Start","ref":"S210","id":-4522097,"osm_relation":true},"arcs":[260]},{"type":"LineString","properties":{"kind":"train","sort_rank":275,"source":"openstreetmap.org","min_zoom":6.0,"operator":"M\u00c1V","ref":"38","id":-188466,"osm_relation":true},"arcs":[261]},{"type":"MultiLineString","properties":{"source":"openstreetmap.org","kind":"train","sort_rank":275,"ref":"308","min_zoom":6.0,"osm_relation":true},"arcs":[[262],[263],[264],[265],[266],[267],[268],[269],[270],[271],[272],[273],[274],[275],[276],[277],[278],[279],[280],[281],[282],[283],[284],[285],[286],[287],[288],[289],[290],[291],[292],[293],[294],[295],[296],[297],[298],[299],[300],[301],[302],[303],[304],[305],[306],[307],[308],[309],[310],[311],[312],[313],[314],[315],[316],[317],[318],[319],[320],[321],[322],[323],[324],[325],[326],[327],[328],[329],[330],[331],[332],[333],[334],[335],[336],[337],[338],[339],[340]]},{"type":"LineString","properties":{"kind":"train","name":"S210: Kecskem\u00e9t => Lajosmizse","sort_rank":275,"source":"openstreetmap.org","min_zoom":6.0,"operator":"M\u00c1V-Start","ref":"S210","id":-4522096,"osm_relation":true},"arcs":[341]},{"type":"MultiLineString","properties":{"kind":"train","name":"Novska \u2013 Vinkovci \u2013 Tovarnik \u2013 Dr\u017eavna granica \u2013 (\u0160id)","sort_rank":275,"source":"openstreetmap.org","min_zoom":6.0,"operator":"H\u017d Infrastruktura","ref":"M104","osm_relation":true,"network":"international"},"arcs":[[342],[343],[344],[345],[346]]},{"type":"LineString","properties":{"kind":"train","name":"S25: Kelebia => Kiskunhalas => Kunszentmikl\u00f3s-Tass => Ferencv\u00e1ros => Budapest-Keleti","service":"commuter","sort_rank":275,"source":"openstreetmap.org","min_zoom":6.0,"operator":"M\u00c1V-Start","ref":"S25","osm_relation":true},"arcs":[347]},{"type":"LineString","properties":{"kind":"train","name":"S42: Budapest-D\u00e9li => Duna\u00fajv\u00e1ros","service":"commuter","sort_rank":275,"name:de":"S42: Budapest-S\u00fcd => Neustadt an der Donau","source":"openstreetmap.org","min_zoom":6.0,"operator":"M\u00c1V-Start","ref":"S42","osm_relation":true},"arcs":[348]},{"type":"MultiLineString","properties":{"kind":"train","network":"local","sort_rank":275,"source":"openstreetmap.org","min_zoom":6.0,"operator":"H\u017d Infrastruktura","ref":"R","osm_relation":true,"name":"Kri\u017eevci \u2013 Bjelovar \u2013 Klo\u0161tar"},"arcs":[[349],[350],[351]]},{"type":"MultiLineString","properties":{"source":"openstreetmap.org","kind":"train","sort_rank":275,"ref":"39b","min_zoom":6.0,"osm_relation":true},"arcs":[[352],[353],[354],[355],[356],[357],[358],[359],[360],[361],[362],[363],[364],[365],[366],[367],[368],[369],[370],[371],[372],[373],[374],[375],[376],[377],[378],[379],[380],[381],[382],[383],[384],[385],[386],[387],[388],[389],[390],[391],[392],[393],[394],[395],[396],[397],[398],[399],[400],[401],[402],[403],[404],[405],[406],[407],[408],[409],[410],[411],[412],[413],[414],[415],[416],[417],[418],[419],[420],[421],[422],[423],[424],[425],[426],[427],[428],[429],[430],[431],[432],[433],[434],[435],[436],[437],[438],[439],[440],[441],[442],[443],[444],[445],[446],[447],[448],[449],[450],[451],[452],[453],[454],[455],[456],[457],[458],[459],[460],[461],[462],[463],[464],[465],[466],[467],[468],[469],[470],[471],[472],[473],[474],[475],[476],[477],[478],[479],[480],[481],[482],[483],[484],[485],[486],[487]]},{"type":"MultiLineString","properties":{"source":"openstreetmap.org","kind":"train","osm_relation":true,"sort_rank":275,"ref":"35","min_zoom":6.0,"operator":"M\u00c1V"},"arcs":[[488],[489]]},{"type":"MultiLineString","properties":{"source":"openstreetmap.org","kind":"train","sort_rank":275,"ref":"307","min_zoom":6.0,"osm_relation":true},"arcs":[[490],[491],[492],[493],[494],[495],[496],[497],[498],[499],[500],[501],[502],[503],[504],[505],[506],[507],[508],[509],[510],[511],[512],[513],[514],[515],[516],[517],[518],[519],[520],[521],[522],[523],[524],[525],[526],[527],[528],[529],[530],[531],[532],[533],[534],[535],[536],[537],[538],[539],[540],[541],[542],[543],[544],[545],[546],[547],[548],[549],[550],[551],[552],[553],[554],[555],[556],[557],[558],[559],[560],[561],[562],[563],[564],[565],[566],[567],[568],[569],[570],[571],[572],[573],[574]]},{"type":"LineString","properties":{"kind":"train","name":"S34: Budapest-D\u00e9li => Keszthely","service":"commuter","sort_rank":275,"name:de":"S34: Budapest-S\u00fcd => Kesthell","source":"openstreetmap.org","min_zoom":6.0,"operator":"M\u00c1V-Start","ref":"S34","osm_relation":true},"arcs":[575]},{"type":"LineString","properties":{"kind":"train","name":"S450: S\u00e1rbog\u00e1rd => Sz\u00e9kesfeh\u00e9rv\u00e1r","sort_rank":275,"source":"openstreetmap.org","min_zoom":6.0,"operator":"M\u00c1V-Start","ref":"S450","id":-5189521,"osm_relation":true},"arcs":[576]},{"type":"LineString","properties":{"kind":"train","name":"S21: Lajosmizse => T\u00e1borfalva => \u00d3csa => K\u0151b\u00e1nya-Kispest => Budapest-Nyugati","service":"commuter","sort_rank":275,"source":"openstreetmap.org","min_zoom":6.0,"operator":"M\u00c1V-Start","ref":"S21","osm_relation":true},"arcs":[577]},{"type":"LineString","properties":{"kind":"train","name":"S42: Budapest-D\u00e9li => Adony => Kulcs => R\u00e1calm\u00e1s => Duna\u00fajv\u00e1ros k\u00fcls\u0151 => Duna\u00fajv\u00e1ros","service":"commuter","sort_rank":275,"source":"openstreetmap.org","min_zoom":6.0,"operator":"M\u00c1V-Start","ref":"S42","osm_relation":true},"arcs":[578]},{"type":"LineString","properties":{"source":"openstreetmap.org","kind":"train","sort_rank":275,"ref":"D414, D415","min_zoom":6.0,"osm_relation":true,"id":-6706953},"arcs":[579]},{"type":"LineString","properties":{"kind":"train","name":"S34: Keszthely => Budapest-D\u00e9li","service":"commuter","sort_rank":275,"name:de":"S34: Kesthell => Budapest-S\u00fcd","source":"openstreetmap.org","min_zoom":6.0,"operator":"M\u00c1V-Start","ref":"S34","osm_relation":true},"arcs":[580]},{"type":"LineString","properties":{"kind":"train","name":"S25: Kiskunhalas => Kunszentmikl\u00f3s-Tass => Dunaharaszti als\u00f3 => Dunaharaszti => Soroks\u00e1r => Ferencv\u00e1ros => K\u0151b\u00e1nya-Kispest","service":"commuter","sort_rank":275,"source":"openstreetmap.org","min_zoom":6.0,"operator":"M\u00c1V-Start","ref":"S25","osm_relation":true},"arcs":[581]},{"type":"LineString","properties":{"kind":"train","network":"international","sort_rank":275,"id":-1648021,"source":"openstreetmap.org","min_zoom":6.0,"operator":"H\u017d Infrastruktura","ref":"R","name:sr":"\u0412\u0438\u043d\u043a\u043e\u0432\u0446\u0438 \u2013 \u0412\u0443\u043a\u043e\u0432\u0430\u0440-\u0411\u043e\u0440\u043e\u0432\u043e \u043d\u0430\u0441\u0435\u0459\u0435 \u2013 \u0412\u0443\u043a\u043e\u0432\u0430\u0440","osm_relation":true,"name":"Vinkovci \u2013 Vukovar-Borovo naselje \u2013 Vukovar"},"arcs":[582]},{"type":"LineString","properties":{"kind":"train","name":"S21: \u00d3csa => Lajosmizse","service":"commuter","sort_rank":275,"source":"openstreetmap.org","min_zoom":6.0,"operator":"M\u00c1V-Start","ref":"S21","id":-5189473,"osm_relation":true},"arcs":[583]},{"type":"LineString","properties":{"kind":"train","name":"S25: K\u0151b\u00e1nya-Kispest => Kunszentmikl\u00f3s-Tass => Kiskunhalas","service":"commuter","sort_rank":275,"source":"openstreetmap.org","min_zoom":6.0,"operator":"M\u00c1V-Start","ref":"S25","osm_relation":true},"arcs":[584]},{"type":"LineString","properties":{"kind":"train","name":"S431: Simontornya => Duna\u00fajv\u00e1ros","sort_rank":275,"source":"openstreetmap.org","min_zoom":6.0,"operator":"M\u00c1V-Start","ref":"S431","id":-5189513,"osm_relation":true},"arcs":[585]},{"type":"LineString","properties":{"kind":"train","name":"S42: Duna\u00fajv\u00e1ros => Duna\u00fajv\u00e1ros k\u00fcls\u0151 => R\u00e1calm\u00e1s => Kulcs => Adony => Budapest-D\u00e9li","sort_rank":275,"source":"openstreetmap.org","min_zoom":6.0,"operator":"M\u00c1V-Start","ref":"S42","osm_relation":true},"arcs":[586]},{"type":"LineString","properties":{"kind":"train","name":"S40: Budapest-D\u00e9li => Sz\u00e1zhalombatta => Pusztaszabolcs => Domb\u00f3v\u00e1r","service":"commuter","sort_rank":275,"source":"openstreetmap.org","min_zoom":6.0,"operator":"M\u00c1V-Start","ref":"S40","osm_relation":true},"arcs":[587]},{"type":"MultiLineString","properties":{"source":"openstreetmap.org","kind":"train","sort_rank":275,"ref":"311","min_zoom":6.0,"osm_relation":true},"arcs":[[588],[589],[590],[591],[592],[593],[594],[595],[596],[597],[598],[599],[600],[601],[602],[603],[604],[605],[606],[607],[608],[609],[610],[611],[612],[613],[614],[615],[616],[617],[618],[619],[620],[621],[622],[623],[624],[625],[626],[627],[628],[629],[630],[631],[632],[633],[634],[635],[636],[637],[638],[639],[640],[641],[642],[643],[644],[645],[646],[647],[648],[649],[650],[651],[652],[653],[654],[655],[656],[657],[658],[659],[660],[661],[662],[663],[664],[665],[666],[667],[668],[669],[670],[671],[672],[673],[674],[675]]},{"type":"LineString","properties":{"source":"openstreetmap.org","kind":"train","name":"Murakeresztur - Nagykanizsa","sort_rank":275,"min_zoom":6.0,"osm_relation":true,"id":-6705936},"arcs":[676]},{"type":"LineString","properties":{"kind":"train","name":"S40: Domb\u00f3v\u00e1r => Pusztaszabolcs => Sz\u00e1zhalombatta => Budapest-D\u00e9li","sort_rank":275,"source":"openstreetmap.org","min_zoom":6.0,"operator":"M\u00c1V-Start","ref":"S40","osm_relation":true},"arcs":[677]},{"type":"MultiLineString","properties":{"source":"openstreetmap.org","kind":"train","name":"\u017dupanja - Vinkovci (- Osijek)","sort_rank":275,"ref":"R","min_zoom":6.0,"osm_relation":true},"arcs":[[678],[679],[680],[681],[682],[683],[684],[685],[686]]},{"type":"MultiLineString","properties":{"kind":"train","name":"Dugo Selo \u2013 Novska","sort_rank":275,"source":"openstreetmap.org","min_zoom":6.0,"ref":"S","osm_relation":true,"network":"international"},"arcs":[[687],[688]]},{"type":"LineString","properties":{"kind":"train","name":"S21: Budapest-Nyugati => \u00d3csa => Lajosmizse","service":"commuter","sort_rank":275,"source":"openstreetmap.org","min_zoom":6.0,"operator":"M\u00c1V-Start","ref":"S21","osm_relation":true},"arcs":[689]},{"type":"LineString","properties":{"kind":"train","name":"S35: Nagykanizsa => Budapest-D\u00e9li","service":"commuter","sort_rank":275,"name:de":"S35: Gro\u00dfkirchen => Budapest-S\u00fcd","source":"openstreetmap.org","min_zoom":6.0,"operator":"M\u00c1V-Start","ref":"S35","osm_relation":true},"arcs":[690]},{"type":"LineString","properties":{"kind":"train","name":"S35: Budapest-D\u00e9li => Nagykanizsa","service":"commuter","sort_rank":275,"name:de":"S35: Budapest-S\u00fcd => Gro\u00dfkirchen","source":"openstreetmap.org","min_zoom":6.0,"operator":"M\u00c1V-Start","ref":"S35","osm_relation":true},"arcs":[691]},{"type":"LineString","properties":{"kind":"train","name":"S25: Kunszentmikl\u00f3s-Tass => Dunaharaszti als\u00f3 => Dunaharaszti => Soroks\u00e1r => Ferencv\u00e1ros => K\u0151b\u00e1nya-Kispest","service":"commuter","sort_rank":275,"source":"openstreetmap.org","min_zoom":6.0,"operator":"M\u00c1V-Start","ref":"S25","id":-5189489,"osm_relation":true},"arcs":[692]},{"type":"LineString","properties":{"kind":"train","sort_rank":275,"source":"openstreetmap.org","min_zoom":6.0,"operator":"M\u00c1V","ref":"IC","id":-188468,"osm_relation":true},"arcs":[693]},{"type":"MultiLineString","properties":{"kind":"train","network":"regional","sort_rank":275,"source":"openstreetmap.org","min_zoom":6.0,"operator":"H\u017d Infrastruktura","ref":"R","osm_relation":true,"name":"Vara\u017edin \u2013 Koprivnica \u2013 Virovitica \u2013 Osijek \u2013 Dalj"},"arcs":[[694],[695]]},{"type":"LineString","properties":{"kind":"train","name":"S250: Kelebia => Kiskunhalas","service":"commuter","sort_rank":275,"source":"openstreetmap.org","min_zoom":6.0,"operator":"M\u00c1V-Start","ref":"S250","id":-5189483,"osm_relation":true},"arcs":[696]},{"type":"LineString","properties":{"kind":"train","name":"155:Kiskunhalas\u2013Kiskunf\u00e9legyh\u00e1za","sort_rank":275,"source":"openstreetmap.org","min_zoom":6.0,"operator":"M\u00c1V","ref":"155","id":-240969,"osm_relation":true},"arcs":[697]},{"type":"LineString","properties":{"kind":"train","name":"S30: Budapest-D\u00e9li => Martonv\u00e1s\u00e1r => Sz\u00e9kesfeh\u00e9rv\u00e1r => Fony\u00f3d","service":"commuter","sort_rank":275,"name:de":"S30: Budapest-S\u00fcd => Martinsmarkt => Stuhlwei\u00dfenburg => Fonjod","source":"openstreetmap.org","min_zoom":6.0,"operator":"M\u00c1V-Start","ref":"S30","osm_relation":true},"arcs":[698]},{"type":"MultiLineString","properties":{"source":"openstreetmap.org","kind":"train","sort_rank":275,"ref":"310","min_zoom":6.0,"osm_relation":true},"arcs":[[699],[700],[701],[702],[703],[704],[705],[706],[707],[708],[709],[710],[711],[712],[713],[714],[715],[716],[717],[718],[719],[720],[721],[722],[723],[724],[725],[726],[727],[728],[729],[730],[731],[732],[733],[734],[735],[736],[737],[738],[739],[740],[741],[742],[743],[744],[745],[746],[747],[748],[749],[750],[751],[752],[753],[754],[755],[756],[757],[758],[759],[760],[761],[762],[763],[764],[765],[766],[767],[768],[769],[770],[771],[772],[773],[774],[775],[776],[777],[778],[779],[780],[781],[782],[783],[784],[785],[786],[787],[788],[789],[790],[791],[792],[793],[794],[795],[796],[797],[798],[799],[800],[801],[802],[803],[804],[805],[806],[807],[808],[809],[810],[811],[812],[813],[814],[815],[816],[817],[818],[819],[820],[821],[822],[823],[824],[825],[826],[827],[828],[829],[830],[831],[832],[833],[834],[835],[836],[837],[838],[839],[840],[841],[842],[843],[844],[845],[846],[847],[848],[849],[850],[851],[852],[853],[854],[855],[856],[857],[858],[859],[860],[861],[862],[863],[864],[865],[866],[867],[868],[869],[870],[871],[872],[873],[874],[875],[876],[877],[878],[879],[880],[881],[882],[883],[884],[885],[886],[887],[888],[889],[890],[891],[892],[893],[894],[895],[896],[897],[898],[899],[900],[901],[902],[903],[904],[905],[906],[907],[908],[909],[910],[911],[912],[913],[914],[915],[916],[917],[918],[919],[920],[921],[922],[923],[924],[925],[926],[927],[928],[929],[930],[931],[932],[933],[934],[935],[936],[937],[938],[939],[940],[941],[942],[943],[944],[945],[946],[947]]},{"type":"LineString","properties":{"kind":"train","name":"S42: Duna\u00fajv\u00e1ros => Budapest-D\u00e9li","sort_rank":275,"name:de":"S42: Neustadt an der Donau => Budapest-S\u00fcd","source":"openstreetmap.org","min_zoom":6.0,"operator":"M\u00c1V-Start","ref":"S42","osm_relation":true},"arcs":[948]},{"type":"LineString","properties":{"kind":"train","name":"S432: Cece => Duna\u00fajv\u00e1ros","sort_rank":275,"source":"openstreetmap.org","min_zoom":6.0,"operator":"M\u00c1V-Start","ref":"S432","id":-5189514,"osm_relation":true},"arcs":[949]},{"type":"MultiLineString","properties":{"kind":"train","name:en":"Belgrade - Sid","name":"\u0411\u0435\u043e\u0433\u0440\u0430\u0434 - \u0428\u0438\u0434","sort_rank":275,"name:de":"Belgrad - Schid","source":"openstreetmap.org","min_zoom":6.0,"ref":"2200;2204;2208","osm_relation":true},"arcs":[[950],[951]]},{"type":"LineString","properties":{"kind":"train","network":"international","sort_rank":275,"source":"openstreetmap.org","min_zoom":6.0,"operator":"H\u017d Infrastruktura","ref":"IC","id":-1646296,"osm_relation":true,"name":"(Gyekenyes) \u2013 Dr\u017eavna granica \u2013 Botovo \u2013 Koprivnica \u2013 Dugo Selo"},"arcs":[952]},{"type":"MultiLineString","properties":{"kind":"train","name:en":"Belgrade - Subotica","name":"\u0411\u0435\u043e\u0433\u0440\u0430\u0434 - \u0421\u0443\u0431\u043e\u0442\u0438\u0446\u0430","sort_rank":275,"name:de":"Belgrad - Subotica","source":"openstreetmap.org","min_zoom":6.0,"ref":"2400;2402;2404","osm_relation":true},"arcs":[[953],[954]]},{"type":"LineString","properties":{"kind":"train","name":"S450: Sz\u00e9kesfeh\u00e9rv\u00e1r => S\u00e1rbog\u00e1rd","sort_rank":275,"source":"openstreetmap.org","min_zoom":6.0,"operator":"M\u00c1V-Start","ref":"S450","id":-5189520,"osm_relation":true},"arcs":[955]},{"type":"LineString","properties":{"kind":"train","name":"S250: Kunszentmikl\u00f3s-Tass => Kiskunhalas => Kelebia","service":"commuter","sort_rank":275,"source":"openstreetmap.org","min_zoom":6.0,"operator":"M\u00c1V-Start","ref":"S250","osm_relation":true},"arcs":[956]},{"type":"LineString","properties":{"kind":"train","name":"S250: Kiskunhalas => Kelebia","service":"commuter","sort_rank":275,"source":"openstreetmap.org","min_zoom":6.0,"operator":"M\u00c1V-Start","ref":"S250","id":-5189484,"osm_relation":true},"arcs":[957]},{"type":"LineString","properties":{"kind":"train","name":"S30: Budapest-D\u00e9li => Martonv\u00e1s\u00e1r => Sz\u00e9kesfeh\u00e9rv\u00e1r => Szabadbatty\u00e1n => Kiscs\u00e9ripuszta => Polg\u00e1rdi-Tekerespuszta => Fony\u00f3d","service":"commuter","sort_rank":275,"source":"openstreetmap.org","min_zoom":6.0,"operator":"M\u00c1V-Start","ref":"S30","osm_relation":true},"arcs":[958]},{"type":"MultiLineString","properties":{"source":"openstreetmap.org","kind":"train","sort_rank":275,"ref":"310b","min_zoom":6.0,"osm_relation":true},"arcs":[[959],[960],[961],[962],[963],[964],[965],[966],[967],[968],[969],[970],[971],[972],[973],[974],[975],[976],[977],[978],[979],[980],[981],[982],[983],[984],[985],[986],[987],[988],[989],[990],[991],[992],[993],[994],[995],[996],[997],[998],[999],[1000],[1001],[1002],[1003],[1004],[1005],[1006],[1007],[1008],[1009],[1010],[1011],[1012],[1013],[1014],[1015],[1016],[1017],[1018],[1019],[1020],[1021],[1022],[1023],[1024],[1025],[1026],[1027],[1028],[1029],[1030],[1031],[1032],[1033],[1034],[1035],[1036],[1037],[1038],[1039],[1040],[1041],[1042],[1043],[1044],[1045],[1046],[1047],[1048],[1049],[1050],[1051],[1052],[1053],[1054],[1055],[1056],[1057],[1058],[1059],[1060],[1061],[1062],[1063],[1064],[1065],[1066],[1067],[1068],[1069],[1070],[1071],[1072],[1073],[1074],[1075],[1076],[1077],[1078],[1079],[1080],[1081],[1082],[1083],[1084],[1085],[1086],[1087],[1088],[1089],[1090],[1091],[1092],[1093],[1094],[1095],[1096],[1097],[1098],[1099],[1100],[1101],[1102],[1103],[1104],[1105],[1106],[1107],[1108],[1109],[1110],[1111],[1112],[1113],[1114],[1115],[1116],[1117],[1118],[1119],[1120],[1121],[1122],[1123],[1124],[1125],[1126],[1127],[1128],[1129],[1130],[1131],[1132],[1133],[1134],[1135],[1136],[1137],[1138]]}]},"pois":{"type":"GeometryCollection","geometries":[{"type":"Point","properties":{"kind":"nature_reserve","protect_class":"4","area":457512000,"name:sr":"\u041a\u043e\u043f\u0430\u0447\u043a\u0438 \u0440\u0438\u0442","source":"openstreetmap.org","min_zoom":7.87,"tier":2,"id":-279892,"osm_relation":true,"name":"Kopa\u010dki rit"},"coordinates":[2937,1193]},{"type":"Point","properties":{"kind":"nature_reserve","protect_class":"4","area":457512000,"name:sr":"\u041f\u0430\u0440\u043a \u043f\u0440\u0438\u0440\u043e\u0434\u0435 \u041a\u043e\u043f\u0430\u0447\u043a\u0438 \u0440\u0438\u0442","source":"openstreetmap.org","min_zoom":7.87,"tier":2,"id":31958866,"name":"Park prirode Kopa\u010dki rit"},"coordinates":[2937,1193]},{"type":"Point","properties":{"kind":"nature_reserve","name:en":"Nature Park Papuk","protect_class":"4","area":713395000,"name:de":"Naturpark Papuk","source":"openstreetmap.org","min_zoom":7.55,"tier":2,"id":189669660,"name":"Park prirode Papuk"},"coordinates":[1196,893]}]},"boundaries":{"type":"GeometryCollection","geometries":[{"type":"MultiLineString","properties":{"source":"naturalearthdata.com","kind":"country","sort_rank":262,"kind_detail":"2","min_zoom":0.0,"id":130},"arcs":[[0],[1],[2],[3],[4],[5],[6],[7],[8]]},{"type":"MultiLineString","properties":{"source":"naturalearthdata.com","kind":"country","sort_rank":262,"kind_detail":"2","min_zoom":0.0,"id":136},"arcs":[[9],[10],[11],[12],[13],[14],[15],[16],[17],[18],[19],[20],[21],[22],[23],[24],[25],[26],[27],[28],[29]]},{"type":"MultiLineString","properties":{"source":"naturalearthdata.com","kind":"country","sort_rank":262,"kind_detail":"2","min_zoom":0.0,"id":216},"arcs":[[30],[31],[32],[33],[34],[35],[36],[37],[38],[39],[40],[41],[42],[43],[44],[45],[46],[47],[48],[49],[50],[51],[52],[53],[54],[55]]},{"type":"MultiLineString","properties":{"source":"naturalearthdata.com","kind":"country","sort_rank":262,"kind_detail":"2","min_zoom":0.0,"id":218},"arcs":[[56],[57],[58],[59],[60],[61],[62],[63],[64],[65],[66],[67],[68]]},{"type":"LineString","properties":{"source":"naturalearthdata.com","kind":"map_unit","sort_rank":258,"kind_detail":"2","min_zoom":5.0,"id":8},"arcs":[69]},{"type":"MultiLineString","properties":{"source":"naturalearthdata.com","kind":"region","name":"Severno-Backi - Ju\u017eno-Backi","sort_rank":256,"kind_detail":"4","min_zoom":6.7,"id":2618},"arcs":[[70],[71]]},{"type":"LineString","properties":{"source":"naturalearthdata.com","kind":"macroregion","name":"Pest - Kecskem\u00e9t","sort_rank":257,"kind_detail":"3","min_zoom":6.0,"id":7500},"arcs":[72]},{"type":"MultiLineString","properties":{"source":"naturalearthdata.com","kind":"region","name":"Zapadno-Backi - Severno-Backi","sort_rank":256,"kind_detail":"4","min_zoom":6.7,"id":2380},"arcs":[[73],[74],[75]]},{"type":"MultiLineString","properties":{"source":"naturalearthdata.com","kind":"region","name":"Sremski - Ju\u017eno-Backi","sort_rank":256,"kind_detail":"4","min_zoom":6.7,"id":2616},"arcs":[[76],[77],[78],[79],[80]]},{"type":"MultiLineString","properties":{"source":"naturalearthdata.com","kind":"region","name":"Ju\u017eno-Backi - Zapadno-Backi","sort_rank":256,"kind_detail":"4","min_zoom":6.7,"id":2619},"arcs":[[81],[82],[83],[84],[85],[86],[87],[88],[89],[90],[91],[92],[93],[94],[95],[96],[97],[98]]},{"type":"LineString","properties":{"source":"naturalearthdata.com","kind":"region","name":"Viroviticko-Podravska - Osjecko-Baranjska","sort_rank":256,"kind_detail":"4","min_zoom":7.0,"id":4267},"arcs":[99]},{"type":"MultiLineString","properties":{"source":"naturalearthdata.com","kind":"region","name":"Viroviticko-Podravska - Bjelovarska-Bilogorska","sort_rank":256,"kind_detail":"4","min_zoom":7.0,"id":4265},"arcs":[[100],[101],[102],[103],[104]]},{"type":"MultiLineString","properties":{"source":"naturalearthdata.com","kind":"region","name":"Koprivni\u010dko-Kri\u017eeva\u010dka - Viroviticko-Podravska","sort_rank":256,"kind_detail":"4","min_zoom":7.0,"id":4259},"arcs":[[105],[106],[107]]},{"type":"MultiLineString","properties":{"source":"naturalearthdata.com","kind":"region","name":"Bjelovarska-Bilogorska - Koprivni\u010dko-Kri\u017eeva\u010dka","sort_rank":256,"kind_detail":"4","min_zoom":7.0,"id":4264},"arcs":[[108],[109],[110]]},{"type":"MultiLineString","properties":{"source":"naturalearthdata.com","kind":"region","name":"Brodsko-Posavska - Viroviticko-Podravska","sort_rank":256,"kind_detail":"4","min_zoom":7.0,"id":4268},"arcs":[[111],[112],[113],[114],[115],[116]]},{"type":"MultiLineString","properties":{"source":"naturalearthdata.com","kind":"region","name":"Bjelovarska-Bilogorska - Brodsko-Posavska","sort_rank":256,"kind_detail":"4","min_zoom":7.0,"id":4269},"arcs":[[117],[118],[119],[120],[121],[122],[123],[124],[125]]},{"type":"MultiLineString","properties":{"source":"naturalearthdata.com","kind":"region","name":"Osjecko-Baranjska - Brodsko-Posavska","sort_rank":256,"kind_detail":"4","min_zoom":7.0,"id":4270},"arcs":[[126],[127],[128],[129],[130],[131],[132],[133],[134]]},{"type":"MultiLineString","properties":{"source":"naturalearthdata.com","kind":"region","name":"Sisacko-Moslavacka - Bjelovarska-Bilogorska","sort_rank":256,"kind_detail":"4","min_zoom":7.0,"id":4277},"arcs":[[135],[136],[137]]},{"type":"MultiLineString","properties":{"source":"naturalearthdata.com","kind":"region","name":"Brodsko-Posavska - Sisacko-Moslavacka","sort_rank":256,"kind_detail":"4","min_zoom":7.0,"id":4279},"arcs":[[138],[139],[140],[141]]},{"type":"MultiLineString","properties":{"source":"naturalearthdata.com","kind":"region","name":"Brodsko-Posavska - Osjecko-Baranjska","sort_rank":256,"kind_detail":"4","min_zoom":7.0,"id":4282},"arcs":[[142],[143],[144]]},{"type":"MultiLineString","properties":{"source":"naturalearthdata.com","kind":"region","name":"Brodsko-Posavska - Brodsko-Posavska","sort_rank":256,"kind_detail":"4","min_zoom":7.0,"id":4283},"arcs":[[145],[146],[147],[148],[149],[150],[151],[152],[153],[154]]},{"type":"LineString","properties":{"source":"naturalearthdata.com","kind":"region","name":"Brodsko-Posavska - Sisacko-Moslavacka","sort_rank":256,"kind_detail":"4","min_zoom":7.0,"id":4284},"arcs":[155]},{"type":"MultiLineString","properties":{"source":"naturalearthdata.com","kind":"region","name":"Vukovarsko-Srijemska - Osjecko-Baranjska","sort_rank":256,"kind_detail":"4","min_zoom":7.0,"id":4286},"arcs":[[156],[157],[158],[159],[160],[161],[162],[163]]},{"type":"LineString","properties":{"source":"naturalearthdata.com","kind":"region","name":"Vukovarsko-Srijemska - Brodsko-Posavska","sort_rank":256,"kind_detail":"4","min_zoom":7.0,"id":4287},"arcs":[164]},{"type":"LineString","properties":{"source":"naturalearthdata.com","kind":"macroregion","name":"Fej\u00e9r - Pest","sort_rank":257,"kind_detail":"3","min_zoom":6.0,"id":7479},"arcs":[165]},{"type":"MultiLineString","properties":{"source":"naturalearthdata.com","kind":"region","name":"Baranya - Tolna","sort_rank":256,"kind_detail":"4","min_zoom":6.7,"id":7487},"arcs":[[166],[167],[168],[169],[170],[171],[172]]},{"type":"LineString","properties":{"source":"naturalearthdata.com","kind":"region","name":"Veszpr\u00e9m - Fej\u00e9r","sort_rank":256,"kind_detail":"4","min_zoom":6.7,"id":7472},"arcs":[173]},{"type":"MultiLineString","properties":{"source":"naturalearthdata.com","kind":"macroregion","name":"Fej\u00e9r - Tolna","sort_rank":257,"kind_detail":"3","min_zoom":6.0,"id":7473},"arcs":[[174],[175],[176],[177],[178],[179],[180]]},{"type":"MultiLineString","properties":{"source":"naturalearthdata.com","kind":"macroregion","name":"B\u00e1cs-Kiskun - Tolna","sort_rank":257,"kind_detail":"3","min_zoom":6.0,"id":7496},"arcs":[[181],[182],[183],[184],[185]]},{"type":"LineString","properties":{"source":"naturalearthdata.com","kind":"macroregion","name":"Fej\u00e9r - B\u00e1cs-Kiskun","sort_rank":257,"kind_detail":"3","min_zoom":6.0,"id":7497},"arcs":[186]},{"type":"LineString","properties":{"source":"naturalearthdata.com","kind":"macroregion","name":"Duna\u00fajv\u00e1ros - B\u00e1cs-Kiskun","sort_rank":257,"kind_detail":"3","min_zoom":6.0,"id":7498},"arcs":[187]},{"type":"MultiLineString","properties":{"source":"naturalearthdata.com","kind":"macroregion","name":"Pest - B\u00e1cs-Kiskun","sort_rank":257,"kind_detail":"3","min_zoom":6.0,"id":7499},"arcs":[[188],[189],[190],[191]]},{"type":"MultiLineString","properties":{"source":"naturalearthdata.com","kind":"macroregion","name":"B\u00e1cs-Kiskun - Baranya","sort_rank":257,"kind_detail":"3","min_zoom":6.0,"id":7501},"arcs":[[192],[193]]},{"type":"LineString","properties":{"source":"naturalearthdata.com","kind":"region","name":"Csongr\u00e1d - B\u00e1cs-Kiskun","sort_rank":256,"kind_detail":"4","min_zoom":6.7,"id":7502},"arcs":[194]},{"type":"MultiLineString","properties":{"source":"naturalearthdata.com","kind":"macroregion","name":"Zala - Veszpr\u00e9m","sort_rank":257,"kind_detail":"3","min_zoom":6.0,"id":7505},"arcs":[[195],[196]]},{"type":"MultiLineString","properties":{"source":"naturalearthdata.com","kind":"region","name":"Zala - Vas","sort_rank":256,"kind_detail":"4","min_zoom":6.7,"id":7507},"arcs":[[197],[198],[199],[200],[201],[202],[203]]},{"type":"MultiLineString","properties":{"source":"naturalearthdata.com","kind":"macroregion","name":"Somogy - Veszpr\u00e9m","sort_rank":257,"kind_detail":"3","min_zoom":6.0,"id":7510},"arcs":[[204],[205],[206],[207]]},{"type":"LineString","properties":{"source":"naturalearthdata.com","kind":"region","name":"Tolna - Somogy","sort_rank":256,"kind_detail":"4","min_zoom":6.7,"id":7511},"arcs":[208]},{"type":"LineString","properties":{"source":"naturalearthdata.com","kind":"macroregion","name":"Somogy - Fej\u00e9r","sort_rank":257,"kind_detail":"3","min_zoom":6.0,"id":7512},"arcs":[209]},{"type":"MultiLineString","properties":{"source":"naturalearthdata.com","kind":"region","name":"Baranya - Somogy","sort_rank":256,"kind_detail":"4","min_zoom":6.7,"id":7513},"arcs":[[210],[211]]},{"type":"MultiLineString","properties":{"source":"naturalearthdata.com","kind":"macroregion","name":"Somogy - Zala","sort_rank":257,"kind_detail":"3","min_zoom":6.0,"id":7514},"arcs":[[212],[213],[214],[215]]},{"type":"LineString","properties":{"source":"naturalearthdata.com","kind":"region","name":"Banja Luka - Doboj","sort_rank":256,"kind_detail":"4","min_zoom":7.0,"id":8089},"arcs":[216]},{"type":"LineString","properties":{"source":"naturalearthdata.com","kind":"region","name":"Zala - Zalaegerszeg","sort_rank":256,"kind_detail":"4","min_zoom":7.0,"id":8203},"arcs":[217]},{"type":"MultiLineString","properties":{"source":"naturalearthdata.com","kind":"region","name":"Zala - Nagykanizsa","sort_rank":256,"kind_detail":"4","min_zoom":7.0,"id":8204},"arcs":[[218],[219],[220]]},{"type":"MultiLineString","properties":{"source":"naturalearthdata.com","kind":"region","name":"Veszpr\u00e9m - Veszpr\u00e9m","sort_rank":256,"kind_detail":"4","min_zoom":7.0,"id":8205},"arcs":[[221],[222]]},{"type":"MultiLineString","properties":{"source":"naturalearthdata.com","kind":"region","name":"Somogy - Kaposv\u00e1r","sort_rank":256,"kind_detail":"4","min_zoom":7.0,"id":8206},"arcs":[[223],[224],[225],[226],[227],[228]]},{"type":"MultiLineString","properties":{"source":"naturalearthdata.com","kind":"region","name":"Baranya - P\u00e9cs","sort_rank":256,"kind_detail":"4","min_zoom":7.0,"id":8207},"arcs":[[229],[230],[231],[232],[233],[234]]},{"type":"MultiLineString","properties":{"source":"naturalearthdata.com","kind":"region","name":"Tolna - Szeksz\u00e1rd","sort_rank":256,"kind_detail":"4","min_zoom":7.0,"id":8208},"arcs":[[235],[236],[237],[238],[239],[240],[241],[242],[243],[244],[245],[246],[247],[248]]},{"type":"MultiLineString","properties":{"source":"naturalearthdata.com","kind":"region","name":"Duna\u00fajv\u00e1ros - Fej\u00e9r","sort_rank":256,"kind_detail":"4","min_zoom":7.0,"id":8209},"arcs":[[249],[250]]},{"type":"MultiLineString","properties":{"source":"naturalearthdata.com","kind":"region","name":"Kecskem\u00e9t - B\u00e1cs-Kiskun","sort_rank":256,"kind_detail":"4","min_zoom":7.0,"id":8215},"arcs":[[251],[252],[253]]},{"type":"LineString","properties":{"source":"naturalearthdata.com","kind":"macroregion","name":"Somogy - Nagykanizsa","sort_rank":257,"kind_detail":"3","min_zoom":6.0,"id":10099},"arcs":[254]},{"type":"LineString","properties":{"source":"naturalearthdata.com","kind":"region","name":"Somogy - Nagykanizsa","sort_rank":256,"kind_detail":"4","min_zoom":7.0,"id":10100},"arcs":[255]}]},"roads":{"type":"GeometryCollection","geometries":[{"type":"LineString","properties":{"kind":"highway","network":"e-road","sort_rank":383,"kind_detail":"motorway","source":"naturalearthdata.com","min_zoom":3.0,"all_networks":["e-road"],"landuse_kind":"urban_area","shield_text":"75","ref":"75","id":4528,"all_shield_texts":["75"]},"arcs":[1142]},{"type":"LineString","properties":{"kind":"highway","network":"e-road","sort_rank":383,"kind_detail":"motorway","source":"naturalearthdata.com","min_zoom":3.0,"all_networks":["e-road"],"shield_text":"75","ref":"75","id":4528,"all_shield_texts":["75"]},"arcs":[1143]},{"type":"LineString","properties":{"kind":"highway","network":"e-road","sort_rank":383,"kind_detail":"motorway","source":"naturalearthdata.com","min_zoom":3.0,"all_networks":["e-road"],"landuse_kind":"urban_area","shield_text":"75","ref":"75","id":4529,"all_shield_texts":["75"]},"arcs":[1144]},{"type":"LineString","properties":{"kind":"highway","network":"e-road","sort_rank":383,"kind_detail":"motorway","source":"naturalearthdata.com","min_zoom":3.0,"all_networks":["e-road"],"shield_text":"75","ref":"75","id":4529,"all_shield_texts":["75"]},"arcs":[1145]},{"type":"LineString","properties":{"kind":"highway","network":"e-road","sort_rank":383,"kind_detail":"motorway","source":"naturalearthdata.com","min_zoom":4.0,"all_networks":["e-road"],"shield_text":"70","ref":"70","id":4532,"all_shield_texts":["70"]},"arcs":[1146]},{"type":"LineString","properties":{"kind":"highway","network":"e-road","sort_rank":383,"kind_detail":"motorway","source":"naturalearthdata.com","min_zoom":4.0,"all_networks":["e-road"],"landuse_kind":"urban_area","shield_text":"70","ref":"70","id":4533,"all_shield_texts":["70"]},"arcs":[1147]},{"type":"LineString","properties":{"kind":"highway","network":"e-road","sort_rank":383,"kind_detail":"motorway","source":"naturalearthdata.com","min_zoom":4.0,"all_networks":["e-road"],"landuse_kind":"urban_area","shield_text":"70","ref":"70","id":4533,"all_shield_texts":["70"]},"arcs":[1148]},{"type":"MultiLineString","properties":{"kind":"highway","network":"e-road","sort_rank":383,"kind_detail":"motorway","source":"naturalearthdata.com","min_zoom":4.0,"all_networks":["e-road"],"shield_text":"70","ref":"70","id":4533,"all_shield_texts":["70"]},"arcs":[[1149],[1150],[1151]]},{"type":"LineString","properties":{"kind":"highway","network":"e-road","sort_rank":383,"kind_detail":"motorway","source":"naturalearthdata.com","min_zoom":4.0,"all_networks":["e-road"],"landuse_kind":"urban_area","shield_text":"70","ref":"70","id":4534,"all_shield_texts":["70"]},"arcs":[1152]},{"type":"MultiLineString","properties":{"kind":"highway","network":"e-road","sort_rank":383,"kind_detail":"motorway","source":"naturalearthdata.com","min_zoom":4.0,"all_networks":["e-road"],"shield_text":"70","ref":"70","id":4534,"all_shield_texts":["70"]},"arcs":[[1153],[1154]]},{"type":"LineString","properties":{"kind":"highway","network":"e-road","sort_rank":383,"kind_detail":"motorway","source":"naturalearthdata.com","min_zoom":4.0,"all_networks":["e-road"],"landuse_kind":"urban_area","shield_text":"71","ref":"71","id":4540,"all_shield_texts":["71"]},"arcs":[1155]},{"type":"MultiLineString","properties":{"kind":"highway","network":"e-road","sort_rank":383,"kind_detail":"motorway","source":"naturalearthdata.com","min_zoom":4.0,"all_networks":["e-road"],"shield_text":"71","ref":"71","id":4540,"all_shield_texts":["71"]},"arcs":[[1156],[1157]]},{"type":"LineString","properties":{"kind":"highway","network":"e-road","sort_rank":383,"kind_detail":"motorway","source":"naturalearthdata.com","min_zoom":4.0,"all_networks":["e-road"],"landuse_kind":"park","shield_text":"71","ref":"71","id":4541,"all_shield_texts":["71"]},"arcs":[1158]},{"type":"LineString","properties":{"kind":"highway","network":"e-road","sort_rank":383,"kind_detail":"motorway","source":"naturalearthdata.com","min_zoom":4.0,"all_networks":["e-road"],"landuse_kind":"urban_area","shield_text":"71","ref":"71","id":4541,"all_shield_texts":["71"]},"arcs":[1159]},{"type":"MultiLineString","properties":{"kind":"highway","network":"e-road","sort_rank":383,"kind_detail":"motorway","source":"naturalearthdata.com","min_zoom":4.0,"all_networks":["e-road"],"shield_text":"71","ref":"71","id":4541,"all_shield_texts":["71"]},"arcs":[[1160],[1161],[1162]]},{"type":"LineString","properties":{"kind":"major_road","network":"e-road","sort_rank":380,"kind_detail":"primary","source":"naturalearthdata.com","min_zoom":4.0,"shield_text":"73","ref":"73","id":5144},"arcs":[1163]},{"type":"LineString","properties":{"kind":"highway","network":"e-road","sort_rank":383,"kind_detail":"motorway","source":"naturalearthdata.com","min_zoom":6.0,"all_networks":["e-road"],"shield_text":"73","ref":"73","id":5388,"all_shield_texts":["73"]},"arcs":[1164]},{"type":"LineString","properties":{"kind":"highway","network":"e-road","sort_rank":383,"kind_detail":"motorway","source":"naturalearthdata.com","min_zoom":6.0,"all_networks":["e-road"],"landuse_kind":"urban_area","shield_text":"73","ref":"73","id":5393,"all_shield_texts":["73"]},"arcs":[1165]},{"type":"LineString","properties":{"kind":"highway","network":"e-road","sort_rank":383,"kind_detail":"motorway","source":"naturalearthdata.com","min_zoom":6.0,"all_networks":["e-road"],"landuse_kind":"urban_area","shield_text":"73","ref":"73","id":5393,"all_shield_texts":["73"]},"arcs":[1166]},{"type":"MultiLineString","properties":{"kind":"highway","network":"e-road","sort_rank":383,"kind_detail":"motorway","source":"naturalearthdata.com","min_zoom":6.0,"all_networks":["e-road"],"shield_text":"73","ref":"73","id":5393,"all_shield_texts":["73"]},"arcs":[[1167],[1168],[1169]]},{"type":"LineString","properties":{"kind":"major_road","network":"e-road","sort_rank":379,"kind_detail":"secondary","source":"naturalearthdata.com","min_zoom":6.0,"landuse_kind":"urban_area","shield_text":"661","ref":"661","id":5556},"arcs":[1170]},{"type":"LineString","properties":{"kind":"major_road","network":"e-road","sort_rank":379,"kind_detail":"secondary","source":"naturalearthdata.com","min_zoom":6.0,"shield_text":"661","ref":"661","id":5556},"arcs":[1171]},{"type":"LineString","properties":{"kind":"highway","network":"e-road","sort_rank":383,"kind_detail":"motorway","source":"naturalearthdata.com","min_zoom":6.0,"all_networks":["e-road"],"shield_text":"661","ref":"661","id":5557,"all_shield_texts":["661"]},"arcs":[1172]},{"type":"LineString","properties":{"kind":"major_road","network":"e-road","sort_rank":380,"kind_detail":"primary","source":"naturalearthdata.com","min_zoom":6.0,"landuse_kind":"urban_area","shield_text":"661","ref":"661","id":5560},"arcs":[1173]},{"type":"MultiLineString","properties":{"kind":"major_road","network":"e-road","sort_rank":380,"kind_detail":"primary","source":"naturalearthdata.com","min_zoom":6.0,"shield_text":"661","ref":"661","id":5560},"arcs":[[1174],[1175]]},{"type":"LineString","properties":{"kind":"major_road","network":"e-road","sort_rank":380,"kind_detail":"primary","source":"naturalearthdata.com","min_zoom":6.0,"landuse_kind":"urban_area","shield_text":"73","ref":"73","id":5682},"arcs":[1176]},{"type":"MultiLineString","properties":{"kind":"major_road","network":"e-road","sort_rank":380,"kind_detail":"primary","source":"naturalearthdata.com","min_zoom":6.0,"shield_text":"73","ref":"73","id":5682},"arcs":[[1177],[1178]]},{"type":"LineString","properties":{"kind":"major_road","network":"e-road","sort_rank":380,"kind_detail":"primary","source":"naturalearthdata.com","min_zoom":6.0,"landuse_kind":"urban_area","shield_text":"73","ref":"73","id":5683},"arcs":[1179]},{"type":"LineString","properties":{"kind":"major_road","network":"e-road","sort_rank":380,"kind_detail":"primary","source":"naturalearthdata.com","min_zoom":6.0,"landuse_kind":"urban_area","shield_text":"73","ref":"73","id":5683},"arcs":[1180]},{"type":"LineString","properties":{"kind":"major_road","network":"e-road","sort_rank":380,"kind_detail":"primary","source":"naturalearthdata.com","min_zoom":6.0,"landuse_kind":"urban_area","shield_text":"73","ref":"73","id":5683},"arcs":[1181]},{"type":"MultiLineString","properties":{"kind":"major_road","network":"e-road","sort_rank":380,"kind_detail":"primary","source":"naturalearthdata.com","min_zoom":6.0,"shield_text":"73","ref":"73","id":5683},"arcs":[[1182],[1183]]},{"type":"LineString","properties":{"source":"naturalearthdata.com","kind":"major_road","sort_rank":380,"kind_detail":"primary","min_zoom":7.0,"id":6257},"arcs":[1184]},{"type":"LineString","properties":{"source":"naturalearthdata.com","kind":"major_road","kind_detail":"secondary","sort_rank":379,"landuse_kind":"park","min_zoom":7.0,"id":6258},"arcs":[1185]},{"type":"LineString","properties":{"source":"naturalearthdata.com","kind":"major_road","kind_detail":"secondary","sort_rank":379,"landuse_kind":"urban_area","min_zoom":7.0,"id":6258},"arcs":[1186]},{"type":"MultiLineString","properties":{"source":"naturalearthdata.com","kind":"major_road","sort_rank":379,"kind_detail":"secondary","min_zoom":7.0,"id":6258},"arcs":[[1187],[1188]]},{"type":"LineString","properties":{"source":"naturalearthdata.com","kind":"major_road","kind_detail":"primary","sort_rank":380,"landuse_kind":"urban_area","min_zoom":7.0,"id":6259},"arcs":[1189]},{"type":"LineString","properties":{"source":"naturalearthdata.com","kind":"major_road","sort_rank":380,"kind_detail":"primary","min_zoom":7.0,"id":6259},"arcs":[1190]},{"type":"LineString","properties":{"kind":"major_road","network":"e-road","sort_rank":380,"kind_detail":"primary","source":"naturalearthdata.com","min_zoom":7.0,"landuse_kind":"urban_area","shield_text":"65","ref":"65","id":6265},"arcs":[1191]},{"type":"LineString","properties":{"kind":"major_road","network":"e-road","sort_rank":380,"kind_detail":"primary","source":"naturalearthdata.com","min_zoom":7.0,"shield_text":"65","ref":"65","id":6265},"arcs":[1192]},{"type":"LineString","properties":{"kind":"major_road","network":"e-road","sort_rank":380,"kind_detail":"primary","source":"naturalearthdata.com","min_zoom":6.0,"shield_text":"661","ref":"661","id":8112},"arcs":[1193]},{"type":"LineString","properties":{"source":"naturalearthdata.com","kind":"major_road","sort_rank":379,"kind_detail":"secondary","min_zoom":6.0,"id":55835},"arcs":[1194]}]},"earth":{"type":"GeometryCollection","geometries":[{"type":"Polygon","properties":{"sort_rank":10,"source":"naturalearthdata.com","min_zoom":0.0,"kind":"earth","area":392091543542},"arcs":[[1195]]}]},"landuse":{"type":"GeometryCollection","geometries":[{"type":"MultiPolygon","properties":{"source":"openstreetmap.org","kind":"nature_reserve","area":1052270016,"tier":2,"id":422036762,"min_zoom":4.0,"sort_rank":23},"arcs":[[[1196]],[[1197]]]},{"type":"MultiPolygon","properties":{"source":"openstreetmap.org","kind":"park","tier":2,"area":960643340,"sort_rank":24,"min_zoom":6.0},"arcs":[[[1198]],[[1199]],[[1200]]]},{"type":"MultiPolygon","properties":{"source":"naturalearthdata.com","kind":"urban_area","name":"","area":17656489680,"sort_rank":11,"min_zoom":4.0},"arcs":[[[1201]],[[1202]],[[1203]],[[1204]],[[1205]],[[1206]],[[1207]],[[1208]],[[1209]],[[1210]],[[1211]],[[1212]],[[1213]],[[1214]],[[1215]],[[1216]],[[1217]],[[1218]],[[1219]],[[1220]],[[1221]],[[1222]],[[1223]],[[1224]],[[1225]],[[1226]],[[1227]],[[1228]],[[1229]],[[1230]],[[1231]],[[1232]],[[1233]],[[1234]]]},{"type":"Polygon","properties":{"source":"openstreetmap.org","kind":"park","area":144942000,"tier":2,"id":33804517,"min_zoom":7.0,"sort_rank":24},"arcs":[[1235]]},{"type":"Polygon","properties":{"kind":"nature_reserve","protect_class":"4","area":457512000,"sort_rank":23,"source":"openstreetmap.org","min_zoom":6.0,"tier":2,"id":-279892,"osm_relation":true},"arcs":[[1236]]},{"type":"MultiPolygon","properties":{"source":"openstreetmap.org","kind":"nature_reserve","tier":2,"protect_class":"4","area":1139939239,"sort_rank":23,"min_zoom":6.0},"arcs":[[[1237]],[[1238]]]}]}},"type":"Topology","transform":{"translate":[16.875,45.0890355648],"scale":[0.0006866455,0.0004763541]},"arcs":[[[4096,2267],[-26,9],[-32,1]],[[4038,2277],[-84,-16]],[[3954,2261],[-31,1]],[[3923,2262],[-27,-5],[-36,-16],[-34,-23],[-21,-24],[2,-17],[11,-19],[4,-18],[-38,-20],[-11,-15],[-7,-15],[-10,-15],[-25,-20],[-12,-5],[-17,-3],[-18,-8],[-12,-18],[-11,-21],[-14,-17],[-25,-8],[-54,-1],[-26,-6],[-13,-9],[-16,-13],[-11,-26],[-7,-25],[-17,-22],[-40,-7]],[[3438,1866],[-128,13],[-32,19],[-22,42],[-32,12]],[[3224,1952],[-34,-14],[-23,-40],[-1,-62],[-26,-8]],[[3140,1828],[-37,6]],[[3103,1834],[-35,-25],[-4,-8],[-2,-7],[2,-8],[11,-18],[3,-9],[-1,-7],[-9,-4]],[[3068,1748],[-28,13],[-89,7]],[[658,1854],[-15,3],[-14,13],[-3,3],[-21,7],[0,14],[10,3],[18,8],[10,2],[-13,19],[-23,3],[-23,9],[-10,35],[-4,21],[-18,67],[-8,20],[-58,76],[-17,10],[-118,4],[-22,10],[-70,54],[-17,18],[-7,23],[-12,15],[-78,63],[-13,19],[-36,67],[-55,64],[-10,9],[-10,13],[-15,41],[-6,19]],[[0,2631],[0,1]],[[685,1819],[-5,7],[3,18],[-9,36]],[[674,1880],[-16,-26]],[[774,1794],[-10,34],[-15,7]],[[749,1835],[-35,-13],[-29,-3]],[[1432,1433],[0,9],[-29,50],[-43,31],[-177,55],[-33,2],[-12,8],[-3,14],[-2,11],[-1,24],[-8,31],[-1,17],[-11,20],[-69,73],[-54,25],[-61,13],[-125,6]],[[803,1822],[-12,-8],[-4,-7],[-6,-7],[-7,-6]],[[2951,1768],[-22,-2],[-14,-16],[-16,-10],[-29,-8],[-25,-18],[-9,0],[-7,0]],[[2829,1714],[-18,17]],[[2811,1731],[-15,-22],[-6,-19],[-7,-15],[-15,-9]],[[2768,1666],[-18,3],[-57,30],[-73,25]],[[2620,1724],[-27,-6],[-33,-33],[-5,-10],[-5,-25],[-3,-13],[-3,-1],[-21,-24],[-32,-63],[-17,-21],[-63,-55],[-38,-14]],[[1756,1433],[-153,43]],[[1603,1476],[-101,0],[-24,0],[-14,-8],[-7,-16],[-8,-15],[-17,-4]],[[2373,1459],[-33,15]],[[2340,1474],[-24,-16],[-50,-63],[-28,-22],[-11,-3],[-10,-1]],[[2101,1382],[-25,9],[-25,28],[-33,0],[-45,34],[-27,9]],[[1946,1462],[-120,0],[-13,-4],[-25,-19],[-16,-6],[-16,0]],[[2217,1369],[-10,1],[-9,3],[-1,0],[-24,32],[-23,0]],[[2150,1405],[-24,-13],[-25,-10]],[[105,308],[-8,11],[1,19],[-2,16],[-12,44],[-12,12]],[[72,410],[-40,-34],[-4,-10],[-12,-17],[-15,-17],[-1,-1]],[[180,299],[-15,11],[-18,22],[-22,8]],[[125,340],[7,-14],[3,-15],[-30,-3]],[[194,267],[6,17],[2,13],[-2,12],[-6,17]],[[194,326],[-14,-27]],[[455,125],[-91,43],[-39,18],[-62,48],[-28,63]],[[235,297],[-9,-7],[-23,-16],[-9,-7]],[[739,106],[-20,12],[-14,11],[-47,32],[-28,12],[-56,38]],[[574,211],[-28,-62],[-6,-10],[-70,-5],[-15,-9]],[[1332,0],[-70,93],[-39,39],[-44,25],[-48,3]],[[1131,160],[-32,-17],[-53,-58],[-30,-19],[-16,-2]],[[852,89],[-18,6],[11,13],[4,12],[-1,12],[-9,14],[-11,7]],[[828,153],[-7,-8],[-4,-13],[-3,-7],[-48,-16],[-27,-3]],[[2289,0],[-25,28],[-26,21],[-27,13],[-103,9],[-22,10],[-66,48],[-35,15]],[[1985,144],[-36,-8],[-16,-20],[-3,-27],[-1,-26],[-10,-22],[-26,-16],[-31,-7]],[[1862,18],[-14,0],[-18,1],[-28,5],[-32,16],[-81,74],[-23,13]],[[1666,127],[-23,0],[-21,-12],[-89,-109],[-6,-6]],[[884,53],[7,14],[14,44]],[[905,111],[-35,-19],[-18,-3]],[[1000,64],[-32,3]],[[968,67],[-73,-10],[-11,-4]],[[2546,0],[-3,9],[-7,9],[-10,5]],[[2526,23],[-10,-2],[-20,-12],[-10,-4]],[[2486,5],[-12,0],[-23,6],[-12,1]],[[2439,12],[-22,-9],[0,-3]],[[2951,1768],[8,-33],[-25,-16],[-11,-11],[-13,-16],[30,-23],[15,-18],[4,-16],[-10,-14],[-19,-4],[-46,-4],[-4,-57],[-3,-13],[-5,-9],[-3,-9],[5,-12],[23,-24],[10,-18],[42,-52],[7,-32],[6,-64],[12,-27],[20,-16],[25,-14],[21,-19],[9,-30],[-8,-18],[-40,-56],[-16,-12],[-18,-18],[-6,-39],[-2,-40],[-5,-18],[13,-10],[29,-48],[14,-14]],[[3121,1004],[13,-10],[9,-17],[5,-10],[6,-10],[15,-13],[25,-11],[21,-5],[18,-11],[16,-30],[-42,-42]],[[3010,944],[27,1],[19,15],[14,18],[26,13],[12,9],[13,4]],[[3207,845],[-86,13],[-12,2]],[[3109,860],[-20,-52],[10,-39],[14,-14],[28,-31],[8,-24],[-13,-22],[-76,-36],[18,-33],[22,-27],[25,-19],[29,-7]],[[3214,556],[15,-8],[5,-20],[1,-24],[4,-19],[37,-46],[55,-28],[293,-77],[21,-39],[28,-13],[16,-42],[-4,-50],[-17,-17],[-4,-4],[-126,-6]],[[3154,556],[60,0]],[[3424,153],[-31,2],[-28,11],[-16,16],[-27,40],[-18,10]],[[3304,232],[-32,-8],[10,-31],[19,-40],[-6,-33],[-31,-7]],[[3538,163],[-7,5],[-12,18],[-7,4]],[[3512,190],[-10,-5],[-6,-9],[-4,-9],[-7,-6],[-61,-8]],[[3264,113],[-82,8]],[[3182,121],[-22,-20],[2,-18],[12,-17],[14,-14],[11,-14],[11,-26],[3,-12]],[[1848,18],[0,-1],[2,-11],[3,-6]],[[4091,1112],[5,1]],[[3949,1199],[20,-12],[12,-6],[8,-6],[13,-12],[4,-3],[6,-4],[7,-3],[13,-4],[11,-4],[4,-1],[6,-4],[5,-3],[22,-15],[11,-10]],[[4037,4037],[59,-59]],[[3806,1378],[-3,0],[-5,3],[-3,2],[-8,7],[-15,10],[-12,10],[-21,15],[-4,3],[-2,4],[0,5],[0,10],[-1,4],[-2,4],[-3,4],[-7,8],[-1,3],[-1,4],[0,4],[5,14],[0,5],[-2,5],[-3,5],[-10,12],[-2,5],[-1,2],[-15,14],[-5,5],[-9,13],[-6,6],[-8,6],[-16,10],[-6,4],[-12,15],[-10,13],[-7,9],[-3,4],[-2,5],[-1,4],[0,5],[1,11],[0,4],[-1,5],[-2,9],[-1,5],[1,15],[-1,21],[-1,12],[-2,9],[-5,14],[-5,13],[-8,14],[-2,4],[-2,5],[0,5],[0,4],[1,5],[2,6],[3,6],[4,4],[5,5],[4,4],[1,3],[2,3],[0,2],[0,4],[0,1],[-10,29],[-1,5],[0,5],[4,14],[0,2],[-1,3],[-1,2],[-3,2],[-2,1],[-12,1],[-3,1],[-2,3],[-11,17],[-2,5],[-3,11],[-3,5],[-3,3],[-10,9],[-4,4],[-3,5]],[[3949,1199],[19,13],[13,7],[3,4],[2,5],[0,5],[-1,4],[-1,3],[-8,13],[-5,11],[-4,6],[-5,5],[-6,3],[-18,5],[-7,4],[-17,12],[-3,4],[-3,4],[-2,5],[-2,7],[0,3],[0,4],[2,5],[3,5],[4,4],[17,19],[6,9],[-5,4],[-10,6],[-14,6],[-6,4],[-17,18],[-8,7],[-4,3],[-3,2],[-4,1],[-5,0]],[[3860,1419],[-4,0],[-4,-1],[-3,-2],[-4,-2],[-4,-4],[-6,-7],[-8,-12],[-3,-3],[-7,-7],[-4,-2],[-3,-1],[-4,0]],[[3973,103],[-4,1],[-15,4],[-21,8],[-15,5],[-6,1],[-18,1],[-5,1],[-4,1],[-6,4],[-10,9],[-3,2],[-4,2],[-4,1],[-10,2],[-4,1],[-3,2],[-4,4],[-7,8],[-1,1],[-34,3],[-6,1],[-4,2],[-3,2],[-7,7],[-3,2],[-4,1],[-2,0]],[[3766,179],[-5,-2],[-8,-3],[-3,-2],[-2,-2],[-2,-3],[-1,-4],[1,-5],[1,-1],[-16,-25],[-3,-4],[-3,-4],[-2,-2],[-1,0],[-1,-1],[-2,-1],[-1,0],[-1,0]],[[3717,120],[-1,0],[-2,0],[-2,2],[-8,4],[-1,0],[-1,1],[-1,1],[0,1],[-3,6],[-1,2],[-1,1],[-2,2],[-4,4],[-2,2],[-11,15],[-9,12]],[[4096,111],[-68,0]],[[4028,111],[-18,0],[-6,0],[-5,-1],[-22,-7],[-4,0]],[[3949,1199],[-13,-26],[-4,-15],[-2,-4],[-2,-3],[-11,-11],[-3,-4],[-7,-12],[-1,-4],[-1,-4],[0,-4],[1,-4],[4,-11],[5,-10],[1,-3],[0,-4],[-1,-12],[-1,-18],[-1,-6],[-1,-4],[-3,-3],[-2,-2],[-3,-1],[-10,-4],[-10,0]],[[3884,1030],[-15,1]],[[3869,1031],[-3,0],[-3,-2],[-4,-2],[-3,-4],[-2,-4],[-3,-6],[-1,-4],[-1,-15],[-1,-5],[-1,-4],[-2,-3],[-7,-12],[-5,-10],[-2,-3],[-3,-3],[-8,-6],[-15,-10],[-7,-3],[-3,-1],[-4,0]],[[3791,934],[-4,1],[-3,2],[-3,1],[-10,10],[-3,2],[-18,12],[-7,3],[-3,1],[-4,0]],[[3736,966],[-6,-1],[-6,-3],[-9,-8],[-4,-3],[-3,-1],[-13,-4],[-26,-8],[2,-23],[1,-2],[3,-6],[1,-3],[0,-25],[-7,-1],[-9,-2],[-25,-13],[-18,-12],[-2,-2],[-2,-4],[-1,-4],[0,-9],[0,-5],[3,-12],[0,-4],[0,-11],[1,-4],[1,-4],[9,-13],[2,-5],[2,-6],[1,-5],[0,-5],[-1,-5],[-4,-14],[-1,-6]],[[3147,824],[-3,0],[-2,1],[-4,3],[-7,8],[-8,8],[-2,4],[-1,3],[1,5],[0,2]],[[3218,812],[-4,0],[-4,2],[-14,10],[-13,12],[-3,1],[-3,2],[-4,0]],[[3173,839],[-5,0],[-3,-2],[-3,-1],[-11,-10],[-4,-2]],[[3275,772],[-11,1],[-5,2],[-3,1],[-5,4],[-3,3],[-2,3],[-1,3],[-4,14],[-1,3],[-2,3],[-3,1],[-3,2],[-3,0]],[[3229,812],[-11,0]],[[3378,724],[-3,1],[-2,1],[-2,2],[-3,5],[-1,3],[-1,4],[0,7],[-1,4],[-2,6],[-4,5],[-6,4],[-26,15],[-4,1],[-3,0]],[[3320,782],[-4,0],[-4,-2],[-10,-5],[-5,-1],[-5,-1],[-17,-1]],[[3531,735],[-3,0],[-6,3],[-4,3],[-3,5],[-6,10],[-15,17],[-5,3],[-4,1]],[[3485,777],[-4,-1],[-3,-2],[-3,-4],[-2,-4],[-2,-5],[-1,-10],[-1,-3],[-1,-3],[-3,-1],[-2,-2],[-4,0]],[[3625,733],[-26,8],[-10,2],[-6,1],[-12,0]],[[3571,744],[-11,0],[-6,-1],[-5,-1],[-10,-5],[-4,-2],[-4,0]],[[3459,742],[-5,0],[-6,1],[-4,0]],[[3444,743],[-5,0],[-3,-2],[-8,-4],[-10,-5],[-6,-1],[-17,-2],[-6,-1],[-7,-3],[-4,-1]],[[1760,1136],[-4,25],[-2,3],[-4,4],[-71,39],[-16,12],[-10,11],[-2,15],[-3,13],[-5,16],[-12,25],[-10,13],[-9,9],[-9,4],[-40,8],[-7,5],[-6,12],[-7,19],[-16,31],[-14,35],[-11,39],[0,2]],[[386,1640],[200,-141],[3,-11],[0,-9],[-2,-16],[1,-7],[6,-11],[11,-13],[22,-14],[14,-17],[8,-9],[2,-3]],[[697,1398],[6,-3],[7,-7],[5,-16],[2,-12],[-1,-10],[-8,-15],[-2,-8],[4,-7],[6,-9],[27,-23]],[[651,1389],[2,0],[44,9]],[[803,1322],[9,0],[13,-5],[11,-6],[59,-43],[5,-10],[-1,-28],[-99,-173],[9,-37]],[[743,1288],[18,1],[7,5],[12,12],[8,5],[10,10],[5,1]],[[527,1877],[76,-11]],[[386,1640],[-9,38],[-2,11],[1,7],[7,15],[-1,5],[-6,11],[3,9],[9,12],[24,25],[43,67],[7,9],[8,6],[28,17],[15,5],[14,0]],[[603,1866],[14,1],[10,2],[2,1]],[[183,1755],[-6,4],[-7,16],[1,17],[3,21],[0,18],[-16,19],[-26,18],[-59,31],[-21,15],[-9,17],[16,41],[0,9],[-4,8],[-7,6],[-25,14],[-9,7],[-7,9],[-4,9],[-3,6],[0,3]],[[386,1640],[-50,49],[-20,15],[-9,8],[-8,11],[-20,31],[-12,13],[-11,8],[-20,3]],[[236,1778],[-11,-1],[-10,-3],[-24,-18],[-8,-1]],[[1760,1136],[-37,-13],[-138,-170],[-22,-57],[-12,-24],[-11,-15],[-10,-10],[-51,-39],[-9,-5],[-8,-2]],[[1358,800],[-12,3],[-8,5],[-4,8],[-3,9],[-5,10],[-9,8],[-14,6],[-64,8],[-15,5],[-12,7],[-83,26],[-51,34],[-11,10],[-17,20],[-5,3],[-9,3],[-101,58]],[[935,1023],[-4,0],[-2,-5],[1,-15],[-2,-7],[-4,-7],[-7,-8],[-6,-2]],[[911,979],[-6,1],[-6,4],[-5,4],[-4,6],[-11,6],[-9,7],[-61,13]],[[1462,801],[-5,3],[-11,3],[-24,2]],[[1422,809],[-49,-8],[-15,-1]],[[764,882],[16,3],[11,6],[8,8],[7,13],[18,61],[2,12],[-1,9],[-4,7],[-12,19]],[[101,961],[22,-8],[2,-7],[2,-10],[-1,-9],[1,-11],[4,-6],[6,-4],[69,-34],[14,-3]],[[79,812],[-5,17],[2,20],[0,9],[1,5],[0,6],[4,32],[20,60]],[[445,922],[7,0],[7,-6],[12,-13],[21,-17],[15,-9],[15,-2]],[[285,872],[17,3],[38,12],[22,4],[34,1],[19,5],[13,8],[7,9],[10,8]],[[670,900],[21,-2],[50,-15],[23,-1]],[[522,875],[148,25]],[[266,878],[19,-6]],[[220,869],[9,1],[7,4],[11,3],[19,1]],[[1760,1136],[99,-21],[10,-4],[7,-6],[17,-17],[9,-5],[28,-9],[11,-6],[14,-21],[5,-10],[5,-11],[-2,-10],[-10,-14],[-10,-5],[-20,-8],[-2,-2],[-2,-5],[0,-8],[2,-38],[5,-4],[4,-1],[6,-2],[6,-3],[6,-7],[12,-21],[7,-7],[7,-4],[7,-1]],[[2207,912],[6,-1],[5,-4],[15,-16],[28,-19],[5,-6],[1,-7],[0,-13],[3,-9],[5,-8],[10,-14],[0,-4],[-4,-4],[-15,-2],[-33,-1],[-23,-7],[-63,-29],[-3,0]],[[2170,850],[9,2],[7,5],[3,6],[1,7],[1,23],[2,9],[2,5],[4,3],[3,2],[5,0]],[[2043,887],[4,-1],[3,-3],[4,-5],[17,-23],[5,-5],[6,-2]],[[1981,886],[62,1]],[[2109,854],[61,-4]],[[2082,848],[6,0],[13,4],[8,2]],[[2144,768],[-15,1],[-36,14]],[[2093,783],[-11,0],[-16,-9],[-82,-66],[-8,-3],[-30,-7],[-37,0],[-17,-6],[-16,-13],[-50,-50],[-6,-9],[-19,-36],[-8,-8],[-7,-5],[-11,-2],[-5,-2],[-5,-2],[-5,-4],[-4,-3],[-4,-5],[-3,-4],[0,-5],[1,-6],[13,-6],[12,-7],[4,-5],[4,-9],[3,-10],[5,-17],[3,-9],[4,-6],[-2,-21],[-39,-65]],[[47,795],[-5,4],[-8,14],[-5,8],[-11,5]],[[18,826],[-18,-1]],[[79,812],[-25,-15],[-7,-2]],[[79,812],[52,-43],[49,-25],[9,-8],[2,-4],[24,-40]],[[260,707],[6,-1],[5,-5],[2,-12],[-1,-12],[-3,-8],[-7,-11],[-7,-14],[-1,-8],[0,-8],[3,-7],[15,-14],[119,-76]],[[215,692],[18,4],[20,9],[7,2]],[[391,531],[55,12]],[[1964,281],[-33,5],[-97,37],[-13,8],[-4,5],[-2,2],[-1,1],[-57,44]],[[2420,219],[-73,38],[-180,65],[-53,8]],[[2114,330],[-39,-4],[-18,-5],[-10,-8],[-7,-11],[-12,-10],[-19,-7],[-45,-4]],[[1087,372],[-24,4],[-40,18],[-39,25],[-27,23],[-53,66],[-25,26],[-127,92]],[[752,626],[-54,-1],[-73,-34],[-20,-2]],[[605,589],[-19,6],[-15,10],[-24,7]],[[547,612],[-19,-4],[-18,-11],[-64,-54]],[[1757,383],[-237,36]],[[1520,419],[-14,-2],[-10,-3],[-9,-5],[-7,-7],[-5,-6],[-4,-7],[-2,-5],[0,-5],[2,-6],[2,-4],[6,-8],[1,-4],[0,-4],[-1,-3],[-3,-2],[-13,-2],[-3,-2],[-4,-4],[-2,-3],[-2,-5],[-4,-8],[-5,-11],[-16,-18],[-15,-11],[-32,-13],[-11,-1]],[[1268,203],[-25,4],[-25,8],[-4,4],[4,10],[15,28],[0,3],[-3,8],[-20,34],[-1,4],[-1,4],[2,12],[1,7],[-1,6],[0,4],[-1,4],[-3,9],[-2,4],[-7,5],[-13,7],[-31,8],[-21,1]],[[1132,377],[-45,-5]],[[1369,270],[-35,3]],[[1334,273],[-9,-2],[-4,-4],[0,-7],[-1,-19],[-2,-7],[-2,-7],[-2,-7],[-2,-4],[-3,-3],[-5,-3],[-7,-3],[-9,-3],[-20,-1]],[[446,543],[12,-35],[1,-8],[-3,-8],[-8,-6],[-5,-6],[-2,-7],[7,-11],[20,-19],[5,-5],[1,-6],[-2,-5],[-10,-8],[-18,-3],[-12,-1],[-9,-2],[-17,-7],[-4,-3],[-6,-7],[-17,-30],[-22,-22],[-8,-5],[-38,-39],[-4,-7],[-2,-6],[-4,-20],[2,-9],[6,-9],[15,-10],[19,-21],[20,-49],[1,-1]],[[3026,716],[-13,1],[-8,4],[-1,5],[-3,4],[-2,5],[-7,9],[-5,4],[-16,10],[-5,4],[-3,5],[-3,5],[-2,10],[-2,4],[-5,7],[-8,9],[-20,15],[-13,5],[-18,1]],[[2892,823],[-9,-1],[-8,-4],[-5,-4],[-9,-9],[-9,-6],[-13,-6],[-41,-7],[-8,-2],[-4,-5],[0,-5],[1,-5],[3,-6],[12,-13],[2,-5],[3,-5],[1,-15],[0,-12],[-2,-12],[-9,-10],[-13,-10]],[[3113,755],[-15,-10],[-22,-18],[-50,-11]],[[2784,681],[-106,6]],[[2678,687],[-27,-18],[-35,-16],[-14,-9],[-10,-9],[-2,-6],[-1,-8],[-3,-50],[-3,-10],[-3,-7],[-10,-7],[-4,-5],[-2,-5],[-2,-7],[0,-8],[0,-10],[0,-11],[-3,-13],[-4,-5],[-6,-3]],[[2549,480],[-52,2]],[[2497,482],[-8,-4],[-6,-7],[-4,-8],[-6,-9],[-63,-9],[-16,-8],[-10,-10],[-3,-10],[-1,-8],[-4,-60],[0,-9],[1,-3],[4,-4],[7,-4],[7,-2],[49,-7],[9,-4],[7,-6],[4,-9],[2,-12],[-2,-26],[-2,-13],[-3,-12],[-7,-15],[-7,-7],[-8,-3]],[[2437,213],[-6,0],[-11,6]],[[2420,219],[-35,-43],[-7,-11],[-4,-12],[-2,-14],[-2,-16],[0,-18],[2,-21],[11,-32],[33,-52]],[[3048,4081],[-12,15]],[[2232,2389],[-22,180],[-28,75],[-55,64],[4,34],[-6,27],[-45,7]],[[2080,2776],[-171,-15],[-25,-46],[-28,-37]],[[1856,2678],[-38,2],[-37,12]],[[2452,2395],[-29,0],[-73,70]],[[2350,2465],[-35,-6],[-26,-29],[-57,-41]],[[2783,2122],[-77,23],[-73,40],[-47,54],[-44,68],[-37,80],[-24,27]],[[2481,2414],[-29,-19]],[[1896,3913],[56,85],[20,98]],[[2600,3386],[26,15],[27,9],[62,40],[143,179],[63,43],[67,21]],[[2118,3598],[101,-82],[61,-28],[60,-11]],[[2106,3593],[12,5]],[[2032,3593],[74,0]],[[1956,3572],[76,21]],[[2454,3559],[102,-162],[44,-11]],[[2340,3477],[19,3],[18,21],[18,33],[30,22],[29,3]],[[2988,3693],[-1,-27],[2,-17],[8,-14],[26,-28],[5,-8],[6,-6],[25,-35],[4,-8],[9,-9],[4,-22],[1,-24],[2,-18],[14,-47],[4,-30],[-8,-29],[-21,-39],[-42,-42],[-98,-44],[-40,-43],[28,-50],[44,-124],[18,-70],[4,-63],[-34,-114],[-10,-75],[5,-33],[21,-42],[4,-26],[2,-178],[-23,-24],[-83,-18],[-25,-18],[-6,-10],[4,-12],[17,-8]],[[2872,2344],[10,-26],[-30,-66],[-23,-13]],[[2854,2338],[18,6]],[[2829,2239],[-22,12]],[[2807,2251],[-11,-21],[18,-42],[32,-18],[-30,-31],[-33,-17]],[[3029,4001],[-1,22],[4,13],[8,12],[6,13],[2,20]],[[2988,3693],[1,35],[5,26],[12,30],[14,26],[14,11],[12,17],[1,39],[-10,87],[-8,37]],[[3537,4096],[28,-43]],[[3048,4081],[7,15]],[[3987,4096],[16,-26],[34,-33]],[[3565,4053],[43,14],[15,29]],[[2810,2124],[26,-4],[9,-23],[0,-29],[24,-51],[1,-50],[10,-31],[-11,-45],[-20,-40],[-10,-64],[-33,-43],[30,-30]],[[2783,2122],[27,2]],[[4096,2668],[-26,-20],[4,-49],[-2,-47],[-22,-45],[-4,-59],[27,-73],[23,-42]],[[425,3275],[-45,67],[19,146],[-19,473],[5,27],[12,21],[8,23],[-9,20],[-38,17],[-18,18],[-6,9]],[[503,3308],[-78,-33]],[[315,4096],[-31,-42]],[[252,4056],[-10,11],[-5,17],[-35,1]],[[202,4085],[-19,-30],[6,-26],[-12,-23],[-61,-35],[-67,-15]],[[284,4054],[-16,5]],[[268,4059],[-16,-3]],[[49,3956],[-35,5]],[[14,3961],[-14,-3]],[[1896,3913],[-73,33],[-79,7]],[[1744,3953],[-140,-78],[-39,-10],[-34,-22],[-57,-60],[-66,-18],[-262,-155],[-297,-124],[-75,-10],[-59,-30]],[[715,3446],[-97,6]],[[618,3452],[-59,-49],[-56,-95]],[[1956,3572],[-67,-29],[-17,-3],[-13,-11],[-16,-35],[-21,-29],[-10,-29],[-3,-36],[-28,-63],[-12,-79],[-4,-82],[-44,-84],[-27,-97],[13,-86],[32,-18],[42,-199]],[[1956,3572],[-10,59],[1,120],[7,13],[4,14],[-30,54],[-32,81]],[[1781,2692],[-28,-25],[-10,-45],[-28,-32],[-167,-21],[-134,-176],[-45,-35],[-71,-2],[-68,-25],[-42,-48],[4,-130],[-25,-65],[-86,-45],[42,-128],[-23,-43],[17,-63],[31,-50],[42,-38],[24,-43],[-5,-61],[-34,-18]],[[1175,1599],[-40,3]],[[503,3308],[9,-277],[-23,-75],[-25,-47],[-18,-68],[-164,-40]],[[261,2730],[24,-54],[-7,-47],[-27,-34],[-26,-9],[-25,-2],[-102,-38]],[[98,2546],[-36,43]],[[62,2589],[-56,-22]],[[1276,0],[21,46]],[[0,3782],[31,-28],[24,-162],[-55,-22]],[[175,3091],[14,-90],[39,-39],[12,-77],[42,-84]],[[204,2703],[-75,10],[-59,42],[-5,99],[-2,80],[0,63],[41,7],[10,84],[61,3]],[[261,2730],[-57,-27]],[[1529,4033],[-66,15],[-23,48]],[[1571,4096],[-10,-33],[-32,-30]],[[1274,2866],[39,-32]],[[1264,2432],[-13,126],[-39,113],[35,44],[8,56],[1,57],[18,38]],[[1408,2847],[0,-13],[43,-119],[13,-113],[-48,-38],[-30,-69],[-17,-50]],[[1313,2834],[95,13]],[[1369,2445],[-48,31]],[[1321,2476],[-57,-44]],[[2104,2270],[52,-132],[22,-82],[-13,-25]],[[2043,2232],[61,38]],[[1925,2251],[61,-6],[57,-13]],[[1982,1880],[-52,26],[-57,56],[-48,32],[22,50],[-26,44],[15,84],[30,37],[59,42]],[[2165,2031],[-48,13]],[[2117,2044],[-26,0],[-26,-44],[-18,-50],[-26,-44],[-39,-26]],[[2715,2787],[27,-43],[7,-33],[10,-41]],[[2631,2735],[38,6],[13,40],[33,6]],[[2605,2745],[26,-10]],[[2556,2588],[-14,18],[-9,23],[4,28],[15,30],[31,27],[22,31]],[[2849,2670],[13,-4],[10,-6],[6,-10],[1,-22]],[[2829,2643],[0,5],[7,9],[13,13]],[[2809,2670],[0,-3],[5,-10],[8,-9],[7,-5]],[[2759,2670],[50,0]],[[2917,2642],[12,-15],[2,-20],[-14,-25],[-34,-1]],[[2879,2628],[18,10],[20,4]],[[2883,2581],[-33,10],[-38,10],[-33,4],[-36,12],[-32,14]],[[2711,2631],[-15,-22],[-13,-34],[-24,-36]],[[2659,2539],[-29,10],[-18,16],[-6,31],[-4,28]],[[2602,2624],[-7,0],[-7,-17],[-32,-19]],[[3029,4001],[-84,44]],[[2945,4045],[-80,-82],[-20,-116],[23,-70],[120,-84]],[[4008,4006],[-75,37]],[[3933,4043],[-20,-37],[-8,-50],[26,-66],[28,-78],[49,-87],[34,-119],[54,-43]],[[4037,4037],[-29,-31]],[[282,2801],[-34,-9],[13,-62]],[[282,2801],[-34,-9],[13,-62]],[[3233,4096],[7,-46]],[[2426,3501],[61,28],[33,115],[244,54],[86,163],[118,38],[2,30]],[[3240,4050],[224,-433],[69,-403],[150,-116],[131,-275]],[[2970,3929],[-2,-30],[-118,-38],[-86,-163],[-244,-54],[27,-111]],[[4096,3791],[-3,-1],[-127,67],[-81,214]],[[629,2519],[88,-149]],[[1477,2265]],[[1477,2265],[0,-1]],[[1477,2264]],[[1477,2265]],[[1477,2265]],[[1477,2265],[1,-1]],[[1478,2264]],[[1478,2264],[1,0]],[[1479,2264]],[[1479,2264],[0,-1]],[[1479,2263],[1,0]],[[1480,2263]],[[1480,2263],[0,-1]],[[1480,2262],[0,-1]],[[1480,2261],[0,-1]],[[1480,2260],[0,-1]],[[1480,2259]],[[1480,2259]],[[1480,2259],[0,-1]],[[1480,2258],[1,0]],[[1481,2258]],[[1481,2258],[1,0]],[[1482,2258]],[[1482,2258],[1,1]],[[1483,2259]],[[1483,2259]],[[1483,2259],[1,1]],[[1484,2260],[3,6]],[[1487,2266],[1,1]],[[1488,2267]],[[1488,2267],[1,1]],[[1489,2268],[4,6]],[[1493,2274]],[[1493,2274]],[[1493,2274],[1,0]],[[1494,2274]],[[1494,2274],[0,1]],[[1494,2275],[1,0]],[[1495,2275],[2,4]],[[1497,2279],[0,1]],[[1497,2280],[0,2]],[[1497,2282],[1,4]],[[1498,2286],[0,2]],[[1498,2288],[0,1]],[[1498,2289],[0,6]],[[1498,2295],[-1,1]],[[1497,2296],[0,1]],[[1497,2297],[0,2]],[[1497,2299],[-1,1]],[[1496,2300],[-2,7]],[[1494,2307],[0,2]],[[1494,2309],[-1,3]],[[1493,2312],[-1,2]],[[1492,2314],[0,4]],[[1492,2318],[1,9]],[[1493,2327]],[[1493,2327],[0,1]],[[1493,2328],[-1,1]],[[1492,2329],[-1,2]],[[1491,2331],[0,1]],[[1491,2332],[-4,3]],[[1487,2335],[-1,1]],[[1486,2336],[-1,1]],[[1485,2337],[-1,1]],[[1484,2338]],[[1484,2338],[-1,0]],[[1483,2338],[0,1]],[[1483,2339],[-1,0]],[[1482,2339],[-1,1]],[[1481,2340],[-1,0]],[[1480,2340],[-1,1]],[[1479,2341]],[[1479,2341]],[[1479,2341],[-1,1]],[[1478,2342]],[[1478,2342],[-2,3]],[[1476,2345],[0,1]],[[1476,2346],[-1,0]],[[1475,2346]],[[4096,3791],[-3,-1],[-127,67],[-81,214]],[[144,501],[213,-76],[140,-92],[13,-7],[29,-7],[187,28],[297,-91],[129,-60],[121,-42],[50,-8]],[[1323,146],[2,1]],[[1325,147],[34,8],[8,2],[120,39],[5,-1],[30,-8],[10,-2],[70,-18],[32,-8],[4,-1],[83,-8],[37,-4],[7,0],[7,1],[71,15],[20,5],[41,9],[58,13],[88,19],[4,1],[2,1],[243,101],[115,59],[42,10],[63,-3],[3,0],[3,1],[294,68],[30,-10],[159,-165],[3,-3],[2,-2],[321,-144]],[[144,501],[91,-32],[122,-44],[6,-3],[51,-34],[82,-55],[14,-7],[29,-7],[7,3],[36,19],[2,1],[2,1],[118,4],[17,1],[4,0],[1,-1],[3,0],[42,-13],[252,-78],[86,-32],[7,-3],[1,-1],[2,-1],[27,-20],[6,-3],[104,-35],[18,-7],[49,-8]],[[1325,147],[162,49],[285,-49],[283,63],[359,160],[42,10],[69,-2],[294,68],[30,-10],[165,-170],[320,-144]],[[3229,4096],[5,-32],[230,-447],[69,-403],[151,-117],[128,-266],[63,-199],[-1,-125],[109,-186]],[[2960,4096],[10,-18],[-22,-84],[22,-65]],[[0,1726],[49,6],[35,48],[41,-10],[49,28]],[[174,1798]],[[174,1798],[92,6],[64,80],[55,-11]],[[879,3252],[0,2]],[[879,3254],[0,1]],[[879,3255]],[[879,3255],[-1,1]],[[878,3256],[0,1]],[[878,3257],[-1,6]],[[877,3263],[-1,2]],[[876,3265]],[[876,3265],[0,1]],[[876,3266],[-2,5]],[[874,3271],[-1,3]],[[873,3274],[-1,0]],[[872,3274]],[[872,3274],[0,1]],[[872,3275]],[[872,3275],[-1,0]],[[871,3275],[-1,0]],[[870,3275]],[[870,3275],[-1,0]],[[869,3275],[0,1]],[[869,3276]],[[869,3276]],[[869,3276]],[[869,3276],[-2,7]],[[867,3283],[-1,2]],[[866,3285],[0,2]],[[866,3287],[-1,2]],[[865,3289],[-1,5]],[[864,3294],[-1,1]],[[863,3295]],[[863,3295]],[[863,3295],[-1,1]],[[862,3296],[-2,0]],[[860,3296],[-2,1]],[[858,3297],[-3,0]],[[855,3297],[-1,0]],[[854,3297],[-1,0]],[[853,3297]],[[853,3297],[-1,0]],[[852,3297],[-1,0]],[[851,3297]],[[851,3297],[-1,0]],[[850,3297]],[[850,3297]],[[850,3297],[-1,0]],[[849,3297],[0,1]],[[849,3298]],[[849,3298]],[[849,3298]],[[849,3298],[0,1]],[[849,3299]],[[849,3299]],[[849,3299]],[[849,3299],[0,1]],[[849,3300],[0,1]],[[849,3301],[-1,3]],[[848,3304]],[[848,3304],[0,4]],[[848,3308],[0,1]],[[848,3309],[0,7]],[[848,3316],[2,16]],[[850,3332],[0,1]],[[850,3333]],[[850,3333],[0,1]],[[850,3334]],[[850,3334]],[[850,3334],[1,0]],[[851,3334],[1,1]],[[852,3335]],[[852,3335],[7,0]],[[859,3335],[11,0]],[[870,3335],[6,0]],[[876,3335],[8,0]],[[884,3335],[7,0]],[[891,3335],[7,0]],[[898,3335],[1,0]],[[899,3335]],[[899,3335]],[[899,3335]],[[899,3335]],[[899,3335],[1,0]],[[900,3335],[2,-2]],[[902,3333]],[[902,3333],[1,0]],[[903,3333]],[[903,3333],[4,0]],[[907,3333],[1,0]],[[908,3333],[1,1]],[[909,3334],[1,0]],[[910,3334]],[[910,3334],[0,1]],[[910,3335]],[[910,3335],[0,6]],[[910,3341],[0,2]],[[910,3343],[0,1]],[[910,3344],[-1,0]],[[909,3344],[0,1]],[[909,3345],[-2,3]],[[907,3348],[-3,7]],[[904,3355],[-3,6]],[[901,3361],[-2,4]],[[899,3365],[-2,4]],[[897,3369],[-2,3]],[[895,3372],[-1,3]],[[894,3375],[-1,1]],[[893,3376],[-1,2]],[[892,3378],[-1,3]],[[891,3381],[-3,6]],[[888,3387],[-2,4]],[[886,3391]],[[886,3391]],[[886,3391]],[[886,3391],[-1,2]],[[885,3393],[-1,1]],[[884,3394],[0,1]],[[884,3395]],[[884,3395],[0,1]],[[884,3396]],[[884,3396],[0,1]],[[884,3397]],[[884,3397],[0,1]],[[884,3398]],[[884,3398],[0,1]],[[884,3399]],[[884,3399]],[[884,3399],[0,1]],[[884,3400],[-1,2]],[[883,3402],[-1,0]],[[882,3402],[-1,4]],[[881,3406],[-1,1]],[[880,3407]],[[880,3407]],[[880,3407]],[[880,3407],[0,1]],[[880,3408]],[[880,3408]],[[1716,3818],[31,12],[78,-76],[31,-227],[-45,-48],[-107,-23],[-77,-50],[-47,11],[-16,-19],[-51,39],[-29,-8],[-30,-81],[57,-164],[-82,26],[-56,-22],[46,-390],[-27,-126],[-40,-22],[-41,20]],[[1340,2653],[10,-3],[2,0],[2,0],[17,6],[3,2],[8,8],[6,3]],[[445,2487],[1,0]],[[446,2487],[1,0]],[[447,2487]],[[447,2487]],[[447,2487],[1,0]],[[448,2487]],[[448,2487]],[[448,2487],[1,1]],[[449,2488]],[[449,2488]],[[449,2488]],[[449,2488],[0,1]],[[449,2489]],[[449,2489]],[[449,2489],[0,1]],[[449,2490],[-3,8]],[[446,2498]],[[446,2498],[-1,4]],[[445,2502],[-3,7]],[[442,2509]],[[442,2509],[0,1]],[[442,2510]],[[442,2510]],[[442,2510],[1,1]],[[443,2511]],[[443,2511],[1,0]],[[444,2511],[5,2]],[[449,2513],[5,2]],[[454,2515],[9,3]],[[463,2518]],[[463,2518],[1,0]],[[464,2518],[0,1]],[[464,2519]],[[464,2519],[0,1]],[[464,2520]],[[464,2520],[0,1]],[[464,2521],[0,1]],[[464,2522]],[[464,2522],[0,1]],[[464,2523]],[[464,2523],[1,0]],[[465,2523]],[[465,2523],[2,1]],[[467,2524],[2,0]],[[469,2524],[0,1]],[[469,2525],[1,0]],[[470,2525],[0,1]],[[470,2526],[3,11]],[[473,2537],[0,3]],[[473,2540],[2,9]],[[475,2549],[0,1]],[[475,2550]],[[475,2550],[1,0]],[[476,2550],[0,1]],[[476,2551]],[[476,2551],[14,4]],[[490,2555]],[[490,2555],[4,2]],[[494,2557],[1,0]],[[495,2557]],[[495,2557]],[[495,2557],[1,1]],[[496,2558]],[[496,2558],[0,1]],[[496,2559]],[[496,2559]],[[496,2559],[0,1]],[[496,2560],[-3,10]],[[493,2570],[-1,3]],[[492,2573]],[[492,2573],[0,1]],[[492,2574]],[[492,2574]],[[492,2574]],[[492,2574],[0,1]],[[492,2575]],[[492,2575],[1,0]],[[493,2575]],[[493,2575],[7,2]],[[500,2577],[1,1]],[[501,2578],[1,0]],[[502,2578]],[[502,2578],[1,0]],[[503,2578]],[[503,2578],[1,1]],[[2134,4096],[-161,-139],[-79,26],[-110,-130],[-247,-101],[-245,-146],[-307,-122],[-88,-71],[-125,-26],[-128,24],[-51,-52],[-56,58],[5,86]],[[2529,3795],[-126,301]],[[3885,4071],[-16,25]],[[2960,4096],[10,-18],[-22,-84],[22,-65]],[[3418,60],[-84,62]],[[542,3503],[-5,-86],[56,-58],[51,52],[128,-24],[125,26],[88,71],[307,122],[245,146],[245,100],[72,61],[35,67],[84,-23],[162,139]],[[3230,4096],[4,-34],[231,-447],[68,-401],[150,-116],[131,-275]],[[2815,446],[18,49],[116,83],[95,21],[32,-25]],[[3885,4071],[-16,25]],[[3230,4096],[4,-34],[231,-447],[68,-401],[150,-116],[131,-275]],[[2426,3501],[61,28],[33,115],[244,54],[86,163],[118,38],[2,30]],[[2960,4096],[10,-18],[-22,-84],[22,-65]],[[1856,2689],[70,63],[65,6],[34,65],[77,8],[3,49],[64,29],[45,69],[-14,110],[71,52],[-36,145],[97,156],[156,90],[103,550],[11,15]],[[813,2978]],[[813,2978]],[[813,2978],[1,-3]],[[814,2975]],[[814,2975]],[[814,2975]],[[814,2975]],[[814,2975],[0,-1]],[[814,2974],[1,0]],[[815,2974],[7,1]],[[822,2975],[1,0]],[[823,2975]],[[823,2975]],[[823,2975]],[[823,2975],[1,0]],[[824,2975]],[[824,2975],[0,-1]],[[824,2974],[0,-6]],[[824,2968],[1,-4]],[[825,2964],[0,-4]],[[825,2960],[0,-3]],[[825,2957],[0,-2]],[[825,2955],[0,-4]],[[825,2951],[1,-1]],[[826,2950],[0,-2]],[[826,2948]],[[826,2948]],[[826,2948]],[[826,2948]],[[826,2948],[0,-1]],[[826,2947],[2,-1]],[[828,2946],[2,-2]],[[830,2944],[3,-2]],[[833,2942],[1,0]],[[834,2942],[1,0]],[[835,2942],[2,-1]],[[837,2941]],[[837,2941],[11,-2]],[[848,2939],[2,-1]],[[850,2938]],[[850,2938],[1,0]],[[851,2938],[4,-1]],[[855,2937],[1,0]],[[856,2937]],[[856,2937],[1,0]],[[857,2937],[0,-1]],[[857,2936],[1,0]],[[858,2936],[3,-2]],[[861,2934]],[[861,2934],[0,-1]],[[861,2933],[1,0]],[[862,2933],[0,-1]],[[862,2932]],[[862,2932]],[[862,2932],[1,-2]],[[863,2930],[0,-3]],[[863,2927],[1,-1]],[[864,2926],[2,-11]],[[866,2915],[1,-2]],[[867,2913],[0,-1]],[[867,2912]],[[867,2912],[1,0]],[[868,2912],[0,-1]],[[868,2911]],[[868,2911],[1,0]],[[869,2911]],[[869,2911]],[[869,2911],[1,1]],[[870,2912],[3,0]],[[873,2912],[6,1]],[[879,2913],[2,1]],[[881,2914]],[[881,2914],[2,0]],[[883,2914],[1,1]],[[884,2915],[7,1]],[[891,2916],[5,1]],[[896,2917],[6,1]],[[902,2918],[2,1]],[[904,2919],[3,1]],[[907,2920],[5,0]],[[912,2920],[3,1]],[[915,2921],[2,1]],[[917,2922],[2,0]],[[919,2922],[3,0]],[[922,2922],[2,1]],[[924,2923],[1,0]],[[925,2923],[1,0]],[[926,2923],[1,1]],[[163,2837],[-35,-79],[-123,-81]],[[1856,2689],[70,63],[65,6],[34,65],[77,8],[3,49],[64,29],[45,69],[-14,110],[71,49],[-37,142],[34,78],[66,86],[155,91],[103,548],[9,14]],[[2815,446],[-101,120],[-11,70],[-94,115],[25,222]],[[2815,446],[-84,-80],[-29,-69]],[[2702,297],[0,-4]],[[2702,293],[-40,-65]],[[2662,228]],[[2662,228],[-6,-8]],[[2656,220],[-1,-1]],[[2655,219],[-2,-219]],[[2655,219],[7,9]],[[0,751],[0,-43]],[[0,638],[144,-137]],[[3885,4071],[-16,25]],[[163,2837],[15,21],[46,-14],[32,59],[93,15],[93,84],[120,308],[73,97],[137,-20],[130,28],[83,69],[307,122],[245,146],[247,101],[110,130],[81,-24],[159,137]],[[163,2837],[15,21],[46,-14],[32,59],[93,15],[93,84],[120,308],[73,97],[137,-20],[130,28],[83,69],[307,122],[245,146],[247,101],[110,130],[81,-24],[159,137]],[[3233,4096],[7,-46]],[[117,2435],[-17,-5]],[[812,1518],[-190,65],[-69,62],[-25,142],[-160,100],[-194,202],[-53,-4],[-121,107]],[[3247,958],[-49,-77],[-214,-24],[-292,114],[-77,1],[-149,67],[-137,20],[-203,-100],[-135,-1],[-102,-30],[-77,-80],[-85,87],[-102,-1],[-125,105],[-128,57],[-94,152],[-174,95],[-100,96],[-100,23],[-92,56]],[[3814,2823],[61,-191],[-2,-123],[110,-188]],[[3814,2823],[30,-7],[252,115]],[[2134,4096],[-159,-137],[-81,24],[-112,-131],[-245,-100],[-245,-146],[-297,-119]],[[2841,2332],[0,1]],[[2841,2333]],[[2841,2333]],[[2841,2333],[-1,0]],[[2840,2333]],[[2840,2333]],[[2840,2333],[0,1]],[[2840,2334]],[[2840,2334],[-1,0]],[[2839,2334],[0,1]],[[2839,2335]],[[2839,2335],[0,1]],[[2839,2336],[1,1]],[[2840,2337],[1,1]],[[2841,2338]],[[2841,2338],[0,1]],[[2841,2339],[1,0]],[[2842,2339]],[[2842,2339],[1,1]],[[2843,2340],[1,1]],[[2844,2341],[1,0]],[[2845,2341]],[[2845,2341]],[[2845,2341],[1,1]],[[2846,2342],[3,1]],[[2849,2343],[1,0]],[[2850,2343],[1,1]],[[2851,2344],[5,6]],[[2856,2350],[3,3]],[[2859,2353],[0,1]],[[2859,2354],[2,2]],[[2861,2356],[1,1]],[[2862,2357],[0,1]],[[2862,2358],[1,0]],[[2863,2358]],[[2863,2358],[6,1]],[[2869,2359],[4,1]],[[2873,2360],[7,1]],[[2880,2361],[2,1]],[[2882,2362],[1,0]],[[2883,2362]],[[2883,2362],[1,0]],[[2884,2362],[1,1]],[[2885,2363],[1,2]],[[2886,2365],[1,2]],[[2887,2367],[2,2]],[[2889,2369],[1,1]],[[2890,2370],[2,2]],[[2892,2372],[1,1]],[[2893,2373]],[[2893,2373],[6,4]],[[2899,2377]],[[2899,2377],[0,1]],[[2899,2378]],[[2899,2378]],[[2899,2378],[1,1]],[[2900,2379]],[[2900,2379],[0,1]],[[2900,2380],[-1,0]],[[2899,2380]],[[2899,2380],[0,1]],[[2899,2381],[-1,0]],[[2898,2381],[-1,1]],[[2897,2382],[-1,1]],[[2896,2383],[0,1]],[[2896,2384],[-1,1]],[[2895,2385],[0,1]],[[2895,2386],[-1,1]],[[2894,2387],[-1,1]],[[2893,2388],[0,2]],[[2893,2390],[-1,2]],[[2892,2392],[-1,2]],[[2891,2394],[-2,3]],[[2889,2397],[0,1]],[[2889,2398],[-1,2]],[[2888,2400],[0,1]],[[2888,2401],[0,1]],[[2888,2402],[-1,1]],[[2887,2403],[0,2]],[[2887,2405]],[[2887,2405],[0,1]],[[2887,2406]],[[2887,2406],[0,1]],[[2887,2407]],[[2887,2407]],[[2887,2407],[0,1]],[[2887,2408],[0,3]],[[2887,2411],[0,1]],[[2887,2412],[0,1]],[[2887,2413]],[[2887,2413],[0,5]],[[2887,2418],[0,2]],[[2887,2420],[0,10]],[[2887,2430],[0,4]],[[2887,2434],[-1,0]],[[2886,2434],[0,1]],[[2886,2435]],[[2886,2435],[-6,7]],[[2880,2442],[0,1]],[[2880,2443]],[[2880,2443],[0,1]],[[2880,2444],[0,1]],[[2880,2445],[0,3]],[[2880,2448],[0,1]],[[2880,2449],[0,1]],[[2880,2450]],[[2880,2450]],[[2880,2450],[0,1]],[[2880,2451]],[[2880,2451],[0,1]],[[2880,2452],[2,1]],[[2882,2453],[1,1]],[[2883,2454],[1,0]],[[2884,2454]],[[2884,2454],[0,1]],[[2884,2455]],[[2884,2455]],[[2884,2455],[1,1]],[[2885,2456],[-1,0]],[[2884,2456]],[[2884,2456],[0,1]],[[2884,2457]],[[2884,2457],[0,1]],[[2884,2458]],[[2884,2458],[-1,4]],[[2883,2462],[-1,2]],[[2882,2464],[0,1]],[[2882,2465]],[[2882,2465],[0,1]],[[2882,2466]],[[2882,2466],[0,1]],[[2882,2467],[1,0]],[[2883,2467],[5,4]],[[2888,2471],[2,2]],[[2890,2473],[1,1]],[[2891,2474],[1,1]],[[2892,2475]],[[2892,2475],[1,0]],[[2893,2475]],[[2893,2475],[1,0]],[[2894,2475]],[[2894,2475],[1,0]],[[2895,2475]],[[2895,2475],[2,2]],[[2897,2477],[3,3]],[[2900,2480],[1,0]],[[2901,2480],[0,1]],[[2901,2481],[1,0]],[[2902,2481],[3,1]],[[2905,2482],[3,1]],[[2908,2483]],[[2908,2483],[1,0]],[[2909,2483]],[[2909,2483],[1,0]],[[2910,2483],[1,-1]],[[2911,2482],[1,0]],[[2912,2482]],[[2912,2482],[1,0]],[[2913,2482]],[[2913,2482],[1,0]],[[2914,2482]],[[2914,2482]],[[2914,2482],[2,2]],[[2916,2484],[4,3]],[[2920,2487],[3,3]],[[2923,2490],[2,1]],[[2925,2491],[0,1]],[[2925,2492]],[[2925,2492],[0,1]],[[2925,2493]],[[2925,2493],[0,1]],[[2925,2494],[-1,4]],[[2924,2498],[-2,5]],[[2922,2503],[0,2]],[[2922,2505],[0,3]],[[2922,2508],[0,2]],[[2922,2510],[-1,3]],[[2921,2513],[0,1]],[[2921,2514],[0,1]],[[2921,2515]],[[2921,2515]],[[2921,2515],[-2,3]],[[2919,2518],[-1,1]],[[2918,2519],[-1,1]],[[2917,2520]],[[2917,2520],[0,1]],[[2917,2521]],[[2917,2521],[1,1]],[[2918,2522],[7,5]],[[2925,2527],[3,3]],[[2928,2530],[0,1]],[[2928,2531],[1,0]],[[2929,2531]],[[2929,2531],[0,1]],[[2929,2532],[-1,1]],[[2928,2533],[0,2]],[[2928,2535],[-1,3]],[[2927,2538],[-1,1]],[[2926,2539],[0,2]],[[2926,2541],[0,2]],[[2926,2543]],[[2926,2543],[0,1]],[[2926,2544],[0,2]],[[2926,2546],[1,2]],[[2927,2548],[2,13]],[[2929,2561],[1,6]],[[2930,2567],[1,1]],[[2931,2568],[0,1]],[[2931,2569]],[[2931,2569],[1,0]],[[2932,2569],[2,1]],[[2934,2570],[1,0]],[[2935,2570],[2,1]],[[2937,2571],[2,2]],[[2939,2573],[2,1]],[[2941,2574],[1,1]],[[2942,2575],[1,1]],[[2943,2576],[3,5]],[[2946,2581],[1,2]],[[2947,2583]],[[2947,2583],[0,1]],[[2947,2584],[1,0]],[[2948,2584],[1,1]],[[2949,2585]],[[2949,2585],[0,1]],[[2949,2586]],[[2949,2586],[1,1]],[[2950,2587],[0,1]],[[2948,2587],[1,0]],[[2949,2587]],[[2949,2587],[0,1]],[[2949,2588],[1,0]],[[2950,2588]],[[2950,2588],[0,1]],[[2950,2589]],[[2950,2589],[0,1]],[[2950,2590],[1,0]],[[2951,2590]],[[2951,2590],[1,0]],[[2952,2590],[1,0]],[[2953,2590],[1,0]],[[2954,2590],[1,-1]],[[2955,2589],[2,0]],[[2957,2589],[1,-1]],[[2958,2588]],[[2958,2588],[1,0]],[[2959,2588],[1,-2]],[[2960,2586]],[[2960,2586],[1,-1]],[[2960,4096],[10,-18],[-22,-84],[22,-65]],[[2970,3929],[-2,-30],[-118,-38],[-86,-163],[-244,-54],[27,-111]],[[3417,60],[80,-60]],[[3498,0],[-80,60]],[[0,2337],[100,93]],[[4096,758],[-95,265],[42,220],[-5,260],[58,543]],[[4096,2085],[-28,57]],[[2529,3795],[-126,301]],[[3240,4050],[224,-433],[69,-403],[151,-117],[128,-266],[63,-199],[-1,-125],[109,-186]],[[3814,2823],[61,-191],[-2,-123],[110,-188]],[[2134,4096],[-159,-137],[-81,24],[-112,-131],[-245,-100],[-245,-146],[-297,-119]],[[2790,2636],[1,0]],[[2791,2636]],[[2791,2636],[1,0]],[[2792,2636]],[[2792,2636],[3,1]],[[2795,2637],[1,0]],[[2796,2637],[1,0]],[[2797,2637],[2,0]],[[2799,2637],[2,-1]],[[2801,2636],[1,0]],[[2802,2636]],[[2802,2636],[2,-2]],[[2804,2634],[2,-3]],[[2806,2631],[1,-1]],[[2807,2630],[0,-1]],[[2807,2629],[2,-2]],[[2809,2627],[3,-3]],[[2812,2624],[3,-1]],[[2815,2623],[3,-1]],[[2818,2622],[1,-1]],[[2819,2621],[2,0]],[[2821,2621],[1,0]],[[2822,2621],[1,0]],[[2823,2621],[1,0]],[[2824,2621]],[[2824,2621],[1,0]],[[2825,2621]],[[2825,2621],[1,0]],[[2826,2621],[0,1]],[[2826,2622],[1,0]],[[2827,2622],[2,1]],[[2829,2623],[1,1]],[[2830,2624],[1,1]],[[2831,2625],[1,1]],[[2832,2626],[1,2]],[[2833,2628],[1,1]],[[2834,2629],[1,2]],[[2835,2631],[2,2]],[[2837,2633],[0,1]],[[2837,2634],[1,0]],[[2838,2634],[0,1]],[[2838,2635],[1,0]],[[2839,2635],[0,-1]],[[2839,2634],[2,0]],[[2841,2634],[4,-1]],[[2845,2633],[3,0]],[[2848,2633],[0,-1]],[[2848,2632],[1,0]],[[2849,2632],[1,-1]],[[2850,2631],[2,-2]],[[2852,2629],[1,-2]],[[2853,2627],[1,-1]],[[2854,2626]],[[2854,2626],[1,-1]],[[2855,2625]],[[2855,2625],[1,-1]],[[2856,2624]],[[2856,2624]],[[2856,2624]],[[2856,2624],[0,-1]],[[2856,2623],[1,0]],[[2857,2623],[0,-1]],[[2857,2622],[2,-3]],[[2859,2619],[1,-1]],[[2860,2618],[1,-1]],[[2861,2617],[1,-2]],[[2862,2615],[0,-1]],[[2862,2614],[1,-1]],[[2863,2613],[1,0]],[[2864,2613],[1,-2]],[[2865,2611],[2,-1]],[[2867,2610],[0,-1]],[[2867,2609],[1,-1]],[[2868,2608]],[[2868,2608],[1,-1]],[[2869,2607],[2,0]],[[2871,2607],[2,-2]],[[2873,2605],[2,0]],[[2875,2605],[1,-1]],[[2876,2604],[1,0]],[[2877,2604],[1,0]],[[2878,2604]],[[2878,2604],[1,0]],[[2879,2604]],[[2879,2604]],[[2879,2604],[1,0]],[[2880,2604]],[[2880,2604],[1,0]],[[2881,2604]],[[2881,2604],[1,0]],[[2882,2604],[1,-1]],[[2883,2603],[1,-1]],[[2884,2602],[1,0]],[[2885,2602],[1,0]],[[2886,2602]],[[2886,2602],[4,1]],[[2890,2603],[3,0]],[[2893,2603]],[[2893,2603],[4,1]],[[2897,2604],[5,0]],[[2902,2604],[2,0]],[[2904,2604],[1,0]],[[2905,2604],[1,1]],[[2906,2605],[2,1]],[[2908,2606],[1,0]],[[2909,2606],[0,1]],[[2909,2607],[2,1]],[[2911,2608],[1,1]],[[2912,2609]],[[2912,2609],[0,1]],[[2912,2610],[1,2]],[[2913,2612]],[[2913,2612]],[[2913,2612],[1,1]],[[2914,2613]],[[2914,2613],[2,0]],[[2916,2613],[2,1]],[[2918,2614]],[[2918,2614],[2,0]],[[2920,2614],[1,0]],[[2921,2614],[1,0]],[[2922,2614],[2,0]],[[2924,2614],[1,0]],[[2925,2614],[2,-1]],[[2927,2613],[3,0]],[[2930,2613],[1,0]],[[2931,2613],[1,0]],[[2932,2613],[1,-1]],[[2933,2612]],[[2933,2612],[1,0]],[[2934,2612],[0,-1]],[[2934,2611],[0,-1]],[[2934,2610],[0,-1]],[[2934,2609],[1,-1]],[[2935,2608],[0,-1]],[[2935,2607],[1,-2]],[[2936,2605],[1,-3]],[[2937,2602],[1,-2]],[[2938,2600],[2,-5]],[[2940,2595],[1,-1]],[[2941,2594],[0,-1]],[[2941,2593],[1,-1]],[[2942,2592],[0,-1]],[[2942,2591],[0,-1]],[[2942,2590]],[[2942,2590],[0,-1]],[[2942,2589]],[[2942,2589],[1,0]],[[2943,2589]],[[2943,2589],[3,-1]],[[2946,2588],[2,-1]],[[2948,2587]],[[2948,2587],[1,0]],[[2949,2587]],[[2949,2587],[0,-1]],[[2949,2586]],[[2949,2586]],[[2949,2586],[0,-1]],[[2949,2585]],[[2948,2587],[1,0]],[[2949,2587]],[[2949,2587],[0,1]],[[2949,2588],[1,0]],[[2950,2588]],[[2950,2588],[0,1]],[[2950,2589]],[[2950,2589],[0,1]],[[2950,2590],[1,0]],[[2951,2590]],[[2951,2590],[1,0]],[[2952,2590],[1,0]],[[2953,2590],[1,0]],[[2954,2590],[1,-1]],[[2955,2589],[2,0]],[[2957,2589],[1,-1]],[[2958,2588]],[[2958,2588],[1,0]],[[2959,2588],[1,-2]],[[2960,2586]],[[2960,2586],[1,-1]],[[1449,3726],[-35,-33],[-412,-176],[-24,-19],[-22,-25],[-60,-44],[-23,-11],[-63,-7],[-114,22],[-63,1],[-50,-17],[-25,3],[-15,28],[22,76],[59,1],[61,-21],[28,8],[9,28],[22,26],[28,19],[26,8],[55,-5],[26,-8],[25,-17],[75,56],[41,21],[76,11],[18,10],[28,45],[18,23],[16,10],[19,3],[183,73],[24,29],[10,-6],[49,-43],[21,-3],[14,24],[-10,28],[-21,24],[-23,12],[0,14],[144,81],[46,35],[20,23],[20,30],[15,33],[138,0],[3,-1],[32,-26],[24,-29],[1,-24],[-21,-35],[-28,-62],[-25,-25],[-59,-35],[-202,-70],[-10,-1],[-19,4],[-7,-9],[-22,-33],[-43,-24]],[[1449,3726],[-35,-33],[-412,-176],[-24,-19],[-22,-25],[-60,-44],[-23,-11],[-63,-7],[-114,22],[-63,1],[-50,-17],[-25,3],[-15,28],[22,76],[59,1],[61,-21],[28,8],[9,28],[22,26],[28,19],[26,8],[55,-5],[26,-8],[25,-17],[75,56],[41,21],[76,11],[18,10],[28,45],[18,23],[16,10],[19,3],[183,73],[24,29],[10,-6],[49,-43],[21,-3],[14,24],[-10,28],[-21,24],[-23,12],[0,14],[144,81],[46,35],[20,23],[20,30],[15,33]],[[1825,4096],[3,-1],[32,-26],[24,-29],[1,-24],[-21,-35],[-28,-62],[-25,-25],[-59,-35],[-202,-70],[-10,-1],[-19,4],[-7,-9],[-22,-33],[-43,-24]],[[4033,3769],[-6,13]],[[4096,3685],[-37,39],[-17,27],[-9,18]],[[4027,3782],[-7,22],[-12,45],[-7,47]],[[4001,3896],[-8,48],[-5,24],[-13,41],[-16,38],[-19,36],[-9,13]],[[0,648],[38,-70],[18,-28],[21,-25],[32,-22],[34,-12],[88,-12],[17,-6],[16,-8],[16,-10],[62,-51],[31,-17],[100,-35],[68,-12],[69,-4]],[[1557,167],[92,18],[88,7]],[[720,335],[6,0],[23,-6]],[[610,336],[110,-1]],[[749,329],[296,-79],[208,-103],[72,-17],[40,-1],[192,38]],[[1737,192],[79,6],[168,-18],[487,-115]],[[2651,31],[52,-26]],[[2471,65],[78,1],[75,-22],[27,-13]],[[2703,5],[10,-5]],[[1739,3785],[-35,-6]],[[1704,3779],[-10,-2],[-77,-28],[-554,-299],[-209,-82],[-39,-7],[-39,-3],[-18,-4],[-19,-8]],[[2046,4096],[-63,-29],[-26,-18],[-24,-24],[-11,-16],[-57,-114],[-22,-38],[-12,-18],[-13,-16],[-14,-14],[-17,-12],[-17,-7],[-31,-5]],[[548,3164],[-26,-55],[-8,-12]],[[224,2914],[-125,-9]],[[99,2905],[-64,-5],[-35,-10]],[[514,3097],[-13,-20],[-24,-29],[-56,-53],[-31,-24],[-32,-20],[-34,-16],[-71,-18],[-29,-3]],[[745,3349],[-61,-27],[-29,-19],[-28,-22],[-26,-27],[-23,-30],[-10,-19],[-20,-41]],[[2380,81],[-1,-30],[-1,-31],[-4,-20]],[[2692,2549],[-9,-44],[-1,-15],[-2,-35],[1,-35],[9,-126]],[[2815,3243],[5,-12],[5,-15],[1,-8],[-1,-9],[-10,-36]],[[2955,3954],[-5,-33],[-2,-11]],[[2815,3163],[-5,-14],[-12,-58],[-24,-84],[-13,-33],[-15,-30],[-8,-13],[-9,-11],[-9,-11],[-10,-8],[-10,-6],[-5,-2],[-5,-2],[-13,-1],[-3,-1],[-3,-12],[3,-16],[24,-67],[24,-56],[2,-6],[1,-8],[3,-32],[0,-17],[-4,-34],[-9,-32],[-23,-60]],[[2948,3910],[-54,-254],[-3,-23],[-1,-23],[11,-179],[-1,-20],[-2,-19],[-4,-15],[-6,-13],[-8,-11],[-9,-8],[-10,-4],[-20,-5],[-9,-5],[-10,-8],[-8,-13],[-6,-15],[-3,-16],[2,-17],[6,-15],[2,-4]],[[2961,4096],[2,-8],[3,-42],[-3,-42],[-8,-50]],[[745,1600],[-10,-36]],[[735,1564],[-15,-32],[-18,-29],[-45,-53],[-51,-46],[-61,-44],[-25,-13],[-96,-33],[-27,-15],[-25,-21],[-10,-12],[-9,-14],[0,-4],[3,-4],[89,-98],[12,-17],[10,-20],[6,-23],[3,-25],[0,-25],[-15,-134],[-1,-116],[-2,-32],[-4,-32],[-17,-74],[-3,-21],[0,-23],[4,-29],[6,-28],[38,-106],[7,-28],[3,-29]],[[594,22],[8,-22]],[[729,1578],[16,24]],[[727,1575],[2,3]],[[745,1602],[76,115],[31,57],[4,10],[4,11],[3,11],[2,11],[1,19],[-1,19],[-5,38],[-35,159],[-3,38],[1,39],[14,114],[2,39],[-2,38],[-11,34],[-20,23],[-24,15],[-50,21],[-12,8],[-11,10],[-10,11],[-9,15],[-6,15],[-5,16],[-3,16],[-3,18],[-3,41],[0,42],[3,42],[5,41],[6,37],[9,36],[12,34],[15,31],[69,105],[14,34],[9,36],[3,38],[-3,39],[-19,70],[-49,134],[-8,74]],[[2566,1023],[-4,-13],[-1,-18],[1,-5]],[[2562,987],[1,-13]],[[2690,2294],[3,-16],[8,-29],[5,-15],[6,-20],[2,-21],[-1,-20],[-6,-21],[-15,-31],[-21,-25],[-45,-42],[-10,-12],[-9,-14],[-8,-15],[-7,-17],[-4,-23],[-1,-23],[3,-23],[9,-47],[2,-23],[-1,-24],[-3,-24],[-7,-41],[-3,-21],[-1,-22],[5,-103],[-1,-17],[-2,-16],[-5,-15],[-12,-18],[-29,-28],[-11,-19],[-4,-17],[0,-17],[2,-18],[3,-16],[6,-18],[8,-15],[10,-14],[32,-41],[9,-15],[8,-18],[6,-16],[4,-17],[9,-76],[2,-43],[-5,-41],[-13,-35],[-34,-50],[-7,-15],[-1,-4]],[[2666,8],[5,28]],[[2820,373],[0,3],[-4,9],[-7,7],[-7,5],[-12,4]],[[2641,936],[10,29]],[[2790,401],[-36,13],[-23,12],[-21,22],[-11,24],[-7,26],[-10,57],[-54,199],[-5,33],[-2,33],[2,38],[6,37],[10,36],[2,5]],[[2671,36],[11,72],[14,47],[19,43],[20,27],[47,45],[21,26],[7,15],[6,17],[5,18],[1,18],[-2,9]],[[2844,4096],[70,-69],[40,-32]],[[3320,3608],[25,2],[21,5],[21,7],[32,17],[13,9]],[[4021,3781],[3,1]],[[2894,3656],[408,-50],[18,2]],[[3432,3648],[79,56],[70,34],[75,14],[260,3],[55,9],[50,17]],[[4020,3785],[20,12],[23,19],[33,35]],[[4016,3782],[4,3]],[[110,2999],[15,-21],[7,-13],[6,-15],[4,-16],[2,-17]],[[0,3443],[17,-11],[9,-10],[8,-21],[2,-24],[1,-26],[1,-24],[30,-167],[9,-40],[8,-59],[5,-22],[8,-20],[6,-11],[6,-9]],[[492,384],[-1,-45],[3,-44],[8,-43],[11,-42],[13,-36],[62,-136],[6,-16]],[[4008,1495],[34,-7],[37,-17],[17,-11]],[[4096,0],[-4096,0],[0,3198],[0,898],[4096,0],[0,-4096]],[[0,588],[22,-5],[-22,-25],[0,30]],[[0,515],[3,-10],[39,-15],[16,50],[45,-53],[4,-52],[47,40],[144,-49],[-3,-26],[32,11],[2,-60],[70,-137],[79,-44],[1,-43],[-52,1],[-138,83],[-52,76],[-40,-24],[17,45],[-48,-26],[-21,58],[-19,-14],[20,-34],[-54,-1],[23,60],[-24,39],[-77,-26],[-14,151]],[[4096,207],[0,-150],[-91,24],[-23,-18],[-9,30],[-53,18],[-17,-30],[-39,-4],[-3,47],[-34,-31],[-17,22],[18,46],[-22,-17],[-39,96],[25,14],[85,-87],[94,-26],[30,9],[8,60],[30,22],[28,-28],[29,3]],[[343,3331],[25,0],[9,43],[10,-70],[19,7],[11,-45],[29,6],[-15,126],[121,-10],[-15,25],[-4,26],[23,-51],[64,12],[-54,-93],[-25,-200],[-36,-14],[-33,36],[-109,-4],[-20,206]],[[3320,4096],[66,0],[-34,-35],[28,-146],[-47,-9],[-41,45],[-10,79],[40,55],[-2,11]],[[2711,46],[-9,-46],[-91,0],[26,27],[74,19]],[[739,324],[-46,26],[3,39],[45,31],[-16,70],[21,1],[44,-113],[0,-28],[-51,-26]],[[1680,257],[64,-47],[-48,-117],[-49,-23],[-97,47],[16,117],[33,0],[24,107],[41,-14],[16,-70]],[[3152,164],[-97,0],[32,93],[45,-20],[20,-73]],[[4096,400],[0,-107],[-22,11],[16,93],[6,3]],[[3709,307],[-41,-1],[-37,33],[-10,58],[30,20],[83,-67],[-25,-43]],[[2811,368],[-47,75],[64,21],[33,-67],[-50,-29]],[[1174,612],[49,-87],[-13,-35],[-95,14],[-25,40],[-9,63],[81,23],[12,-18]],[[2296,1248],[-1,-35],[-45,-19],[-37,43],[0,46],[41,2],[42,-37]],[[726,1648],[44,-102],[-13,-30],[-32,70],[-81,-23],[33,70],[49,15]],[[3298,1400],[-35,-3],[-63,50],[65,116],[38,-77],[-5,-86]],[[2084,2146],[-33,-104],[-48,-12],[-53,-71],[-76,82],[-3,53],[84,29],[32,47],[97,23],[16,-23],[-16,-24]],[[725,1820],[-11,90],[11,27],[49,9],[21,-24],[-5,-56],[-65,-46]],[[2667,1866],[-31,7],[-23,72],[5,38],[49,47],[32,-47],[-32,-23],[0,-94]],[[2747,1027],[0,-94],[-111,3],[-34,44],[-68,12],[3,35],[170,-24],[8,94],[49,-24],[-17,-46]],[[143,2963],[16,-47],[65,47],[0,-117],[-162,23],[48,47],[0,117],[33,-70]],[[4096,3149],[0,-65],[-55,-48],[-32,20],[14,59],[38,34],[35,0]],[[3087,3010],[-32,-1],[3,43],[78,28],[-49,-70]],[[2715,2613],[-113,23],[65,140],[49,-115],[-1,-48]],[[1373,2820],[64,-67],[-42,-129],[-32,-17],[-72,29],[-48,94],[130,90]],[[4096,2887],[0,-87],[-54,-1],[-3,38],[51,56],[6,-6]],[[3880,2799],[-120,14],[-39,37],[-19,66],[49,47],[145,23],[5,-41],[-37,-52],[16,-94]],[[603,3593],[28,-70],[-66,1],[-16,-54],[-81,64],[-1,44],[31,-9],[41,39],[64,-15]],[[0,3745],[62,11],[-33,-94],[-29,-20],[0,103]],[[1454,3900],[-10,75],[40,11],[46,-43],[-76,-43]],[[854,3803],[30,36],[35,-13],[-65,-94],[-48,24],[-28,63],[12,53],[64,-69]],[[1729,3778],[-33,1],[6,38],[75,32],[-3,-42],[-45,-29]],[[4096,3896],[0,-157],[-13,-10],[-9,27],[-51,17],[-30,123],[103,0]],[[4096,3995],[0,-64],[-7,25],[-47,-13],[34,55],[20,-3]],[[2954,3272],[-29,-53],[17,-93],[-50,-33],[-47,17],[-31,54],[-2,79],[65,0],[30,76],[35,-6],[12,-41]],[[3022,2216],[-32,140],[99,44],[33,-46],[-35,-21],[-16,-93],[-49,-24]],[[4096,2273],[0,-213],[-70,16],[-65,94],[0,46],[-102,112],[21,75],[14,-19],[180,-4],[-8,-41],[-73,-53],[25,-22],[78,9]],[[3041,3845],[-67,27],[-33,47],[65,163],[74,-88],[-16,-129],[-23,-20]],[[3883,4096],[33,0],[-4,-37],[-29,37]],[[3320,3607],[34,89],[-24,59],[45,26],[67,-122],[-58,-64],[40,-78],[-35,-128],[-69,218]],[[2712,997],[56,-9],[35,94],[-27,20],[46,21],[1,99],[-49,5],[-18,47],[64,-12],[39,28],[-2,42],[59,-42],[12,106],[39,-21],[78,46],[13,-67],[-101,-38],[103,3],[-8,-43],[-74,26],[-15,-17],[94,-87],[-59,-31],[23,-44],[-40,5],[-14,-27],[44,15],[-1,-39],[-41,-1],[-23,-40],[49,-44],[0,-30],[-95,14],[-132,-20],[-56,41]],[[889,1032],[4,33],[75,44],[0,-26],[230,-104],[0,-21],[119,2],[149,-72],[-8,-70],[34,-49],[1,-96],[-14,49],[-182,20],[-357,116],[-51,174]],[[2712,997],[56,-9],[35,94],[-27,20],[46,21],[1,99],[-49,5],[-18,47],[64,-12],[39,28],[-2,42],[59,-42],[12,106],[39,-21],[78,46],[13,-67],[-101,-38],[103,3],[-8,-43],[-74,26],[-15,-17],[94,-87],[-59,-31],[23,-44],[-40,5],[-14,-27],[44,15],[-1,-39],[-41,-1],[-23,-40],[49,-44],[0,-30],[-95,14],[-132,-20],[-56,41]]]}