{"objects":{"water":{"type":"GeometryCollection","geometries":[{"type":"MultiPolygon","properties":{"source":"naturalearthdata.com","kind":"ocean","area":1576712559132672,"sort_rank":200,"min_zoom":0.0,"id":1},"arcs":[[[332]]]},{"type":"LineString","properties":{"source":"naturalearthdata.com","kind":"ocean","sort_rank":205,"boundary":true,"min_zoom":0.0,"id":19},"arcs":[333]},{"type":"LineString","properties":{"source":"naturalearthdata.com","kind":"ocean","sort_rank":205,"boundary":true,"min_zoom":0.0,"id":1098},"arcs":[334]},{"type":"LineString","properties":{"source":"naturalearthdata.com","kind":"ocean","sort_rank":205,"boundary":true,"min_zoom":0.0,"id":1099},"arcs":[335]}]},"buildings":{"type":"GeometryCollection","geometries":[]},"places":{"type":"GeometryCollection","geometries":[{"type":"Point","properties":{"name:kg":"Bosna","name:short":"BiH","name:ka":"\u10d1\u10dd\u10e1\u10dc\u10d8\u10d0 \u10d3\u10d0 \u10f0\u10d4\u10e0\u10ea\u10d4\u10d2\u10dd\u10d5\u10d8\u10dc\u10d0","name:ko":"\ubcf4\uc2a4\ub2c8\uc544 \ud5e4\ub974\uccb4\uace0\ube44\ub098","name:cv":"\u0411\u043e\u0441\u043d\u0438 \u0442\u0430\u0442\u0430 \u0413\u0435\u0440\u0446\u0435\u0433\u043e\u0432\u0438\u043d\u0430","name:cu":"\u0411\u043e\u0441\u043d\u0430\u0301","name:kl":"Bosnia aamma Herzegovina","name:cs":"Bosna a Hercegovina","name:ki":"Bosnia na Hezegovina","name:co":"Bosnia \u00e8 Erzegovina","name:kv":"\u0411\u043e\u0441\u043d\u0438\u044f \u0434\u0430 \u0413\u0435\u0440\u0446\u0435\u0433\u043e\u0432\u0438\u043d\u0430","name:ku":"Bosniya \u00fb Herzegov\u00eena","name:ti":"\u1266\u1235\u1292\u12eb \u12a5\u1293 \u1204\u122d\u12de\u130e\u126a\u1292\u12eb","name:ks":"\u092c\u093e\u0938\u094d\u0928\u093f\u092f\u093e","name:to":"Posinia mo Hesik\u014dvinia","name:tl":"Bosnia at Herzegovina","name:ce":"\u0411\u043e\u0441\u043d\u0438 \u0430 \u0413\u0435\u0440\u0446\u0435\u0433\u043e\u0432\u0438\u043d\u0430","name:ta":"\u0baa\u0bca\u0b9a\u0bc1\u0ba9\u0bbf\u0baf\u0bbe \u0b8e\u0bb0\u0bcd\u0b9a\u0bc6\u0b95\u0bcb\u0bb5\u0bbf\u0ba9\u0bbe","name:tg":"\u0411\u043e\u0441\u043d\u0438\u044f \u0432\u0430 \u04b2\u0435\u0440\u0441\u0435\u0433\u043e\u0432\u0438\u043d\u0430","name:ca":"B\u00f2snia i Hercegovina","name:te":"\u0c2c\u0c4b\u0c38\u0c4d\u0c28\u0c3f\u0c2f\u0c3e \u0c2e\u0c30\u0c3f\u0c2f\u0c41 \u0c39\u0c46\u0c30\u0c4d\u0c1c\u0c46\u0c17\u0c4a\u0c35\u0c40\u0c28\u0c3e","name:cy":"Bosnia a Hertsegovina","name:da":"Bosnien-Hercegovina","name:de":"Bosnien und Herzegowina","name:dz":"\u0f56\u0fb7\u0f7c\u0f66\u0f0b\u0f53\u0f72\u0f0b\u0f61\u0f0b \u0f68\u0f7a\u0f53\u0f4c\u0f0b \u0f67\u0f62\u0f0b\u0f5b\u0f72\u0f0b\u0f42\u0fb7\u0f7c\u0f0b\u0f56\u0f72\u0f0b\u0f53","source":"openstreetmap.org","name:kn":"\u0cac\u0cca\u0cb8\u0ccd\u0ca8\u0cbf\u0caf \u0cae\u0ca4\u0ccd\u0ca4\u0cc1 \u0cb9\u0cc6\u0cb0\u0ccd\u0c9c\u0cc6\u0c97\u0cca\u0cb5\u0cbf\u0ca8","name:dv":"\u0784\u07ae\u0790\u07b0\u0782\u07a8\u0794\u07a7 \u0780\u07a6\u0783\u07aa\u0792\u07ac\u078e\u07ae\u0788\u07a9\u0782\u07a7","name:km":"\u1794\u17bc\u179f\u17d2\u1793\u17c9\u17b8","name:lv":"Bosnija un Hercegovina","name:lt":"Bosnija ir Hercogovina","name:uz":"Bosniya va Gerzegovina","name:kk":"\u0411\u043e\u0441\u043d\u0438\u044f \u0436\u04d9\u043d\u0435 \u0413\u0435\u0440\u0446\u0435\u0433\u043e\u0432\u0438\u043d\u0430","name:ur":"\u0628\u0648\u0633\u0646\u06cc\u0627 \u0648 \u06c1\u0631\u0632\u06cc\u06af\u0648\u0648\u06cc\u0646\u0627","name:lb":"Bosnien-Herzegowina","name:la":"Bosnia et Herzegovina","name:lg":"Boziniya Hezegovina","name:uk":"\u0411\u043e\u0441\u043d\u0456\u044f \u0456 \u0413\u0435\u0440\u0446\u0435\u0433\u043e\u0432\u0438\u043d\u0430","name:ug":"\u0628\u0648\u0633\u0646\u0649\u064a\u06d5 \u06cb\u06d5 \u06be\u06d0\u0631\u0633\u06d0\u06af\u0648\u06cb\u0649\u0646\u0627","name:li":"Bosni\u00eb en Hercegovina","name:ln":"Bosnia na Erzegovina","name:lo":"\u0e9a\u0eb1\u0ead\u0e94\u0eaa\u0ec0\u0e99\u0e8d \u0ec1\u0ea5\u0eb0 \u0ec0\u0eae\u0eb5\u0e94\u0ec2\u0e81\u0ea7\u0eb4\u0ec0\u0e99\u0e8d","name:el":"\u0392\u03bf\u03c3\u03bd\u03af\u03b1 \u03ba\u03b1\u03b9 \u0395\u03c1\u03b6\u03b5\u03b3\u03bf\u03b2\u03af\u03bd\u03b7","name:eo":"Bosnujo kaj Hercegovino","name:en":"Bosnia and Herzegovina","name":"Bosna i Hercegovina","name:tk":"Bosni\u00fda we Gersegowina","name:ee":"Bosnia and Herzegovina","name:th":"\u0e1b\u0e23\u0e30\u0e40\u0e17\u0e28\u0e1a\u0e2d\u0e2a\u0e40\u0e19\u0e35\u0e22\u0e41\u0e25\u0e30\u0e40\u0e2e\u0e2d\u0e23\u0e4c\u0e40\u0e0b\u0e42\u0e01\u0e27\u0e35\u0e19\u0e32","name:eu":"Bosnia-Herzegovina","name:et":"Bosnia ja Hertsegoviina","name:es":"Bosnia y Herzegovina","name:ia":"Bosnia e Herzegovina","name:rm":"Bosnia-Erzegovina","name:rn":"Bosiniya na Herigozevine","name:az":"Bosniya v\u0259 Herseqovina","name:ie":"Bosnia e Herzegovina","name:id":"Bosnia dan Herzegovina","name:ar":"\u0627\u0644\u0628\u0648\u0633\u0646\u0629 \u0648\u0627\u0644\u0647\u0631\u0633\u0643","name:io":"Bosnia e Herzegovina","name:ak":"Bosnia ne H\u025bzegovina","name:am":"\u1266\u1235\u1292\u12eb \u12a5\u1293 \u1204\u122d\u12de\u130e\u126a\u1292\u12eb","name:it":"Bosnia-Erzegovina","name:an":"Bosnia e Erzegobina","name:ru":"\u0411\u043e\u0441\u043d\u0438\u044f \u0438 \u0413\u0435\u0440\u0446\u0435\u0433\u043e\u0432\u0438\u043d\u0430","name:rw":"Bosiniya na Herizegovina","name:af":"Bosni\u00eb-Herzegowina","name:zu":"i-Bosnia ne-Herzegovina","name:zh-yue":"\u6ce2\u65af\u5c3c\u4e9e","name:zh":"\u6ce2\u65af\u5c3c\u4e9a\u548c\u9ed1\u585e\u54e5\u7ef4\u7eb3","name:so":"Bosniya Hersigoviina","name:sn":"Boznia ne Herzegovina","name:sm":"Bosnia ma Herzegovina","name:sl":"Bosna in Hercegovina","name:sk":"Bosna a Hercegovina","name:ja":"\u30dc\u30b9\u30cb\u30a2\u30fb\u30d8\u30eb\u30c4\u30a7\u30b4\u30d3\u30ca","name:si":"\u0db6\u0ddc\u0dc3\u0dca\u0db1\u0dd2\u0dba\u0dcf\u0dc0 \u0dc3\u0dc4 \u0dc4\u0dbb\u0dca\u0dc3\u0d9c\u0ddc\u0dc0\u0dd3\u0db1\u0dcf\u0dc0","name:sg":"Bosn\u00efi na Herzegov\u00eenni","name:se":"Bosnia ja Hercegovina","name:sc":"B\u00f2snia Erzegovina","name:br":"Bosnia-ha-Herzegovina","name:bm":"Bozni-\u0190rizigovini","name:bn":"\u09ac\u09b8\u09a8\u09bf\u09af\u09bc\u09be \u0993 \u09b9\u09be\u09b0\u09cd\u099c\u09c7\u0997\u09cb\u09ad\u09bf\u09a8\u09be","name:bo":"\u0f56\u0f7c\u0f66\u0fa3\u0f72\u0f0b\u0f61\u0f0b\u0f51\u0f44\u0f0b\u0f67\u0f62\u0fab\u0f7c\u0f0b\u0f42\u0f7c\u0f0b\u0f5d\u0f72\u0f0b\u0f53\u0f0d","name:bi":"Bosnia &amp;Herzegovina","name:sw":"Bosnia na Herzegovina","name:be":"\u0411\u043e\u0441\u043d\u0456\u044f \u0456 \u0413\u0435\u0440\u0446\u0430\u0433\u0430\u0432\u0456\u043d\u0430","name:su":"Bosnia jeung H\u00e9rz\u00e9govina","name:bg":"\u0411\u043e\u0441\u043d\u0430 \u0438 \u0425\u0435\u0440\u0446\u0435\u0433\u043e\u0432\u0438\u043d\u0430","name:ss":"IBhosinya ne Hezegovi","name:sr":"\u0411\u043e\u0441\u043d\u0430 \u0438 \u0425\u0435\u0440\u0446\u0435\u0433\u043e\u0432\u0438\u043d\u0430","name:sq":"Bosnja dhe Hercegovina","alt_name:sr":"\u0411\u0438\u0425","name:jv":"Bosnia-Herzegovina","name:sa":"\u092c\u093e\u0938\u094d\u0928\u093f\u092f\u093e","name:pt":"B\u00f3snia e Herzegovina","name:ps":"\u0628\u0648\u0633\u0646\u064a\u0627 \u0627\u0648 \u0647\u06d0\u0631\u0632\u06ab\u0648\u064a\u0646\u0627","name:oc":"B\u00f2snia e Ercegovina","min_zoom":2.0,"name:ro":"Bosnia \u0219i Her\u021begovina","name:zh-min-nan":"Bosna kap Hercegovina","name:os":"\u0411\u043e\u0441\u043d\u0438 \u00e6\u043c\u00e6 \u0413\u0435\u0440\u0446\u0435\u0433\u043e\u0432\u0438\u043d\u00e6","name:or":"\u0b2c\u0b4b\u0b38\u0b28\u0b3f\u0b06 \u0b0f\u0b2c\u0b02 \u0b39\u0b30\u0b4d\u0b1c\u0b17\u0b4b\u0b2d\u0b3f\u0b28\u0b3e","name:pl":"Bo\u015bnia i Hercegowina","name:pa":"\u0a2c\u0a4b\u0a38\u0a28\u0a40\u0a06 \u0a05\u0a24\u0a47 \u0a39\u0a30\u0a1c\u0a3c\u0a47\u0a17\u0a4b\u0a35\u0a40\u0a28\u0a3e","name:tr":"Bosna Hersek","name:hi":"\u092c\u0949\u0938\u094d\u0928\u093f\u092f\u093e \u0914\u0930 \u0939\u0930\u094d\u091c\u093c\u0947\u0917\u094b\u0935\u093f\u0928\u093e","name:sv":"Bosnien och Hercegovina","name:he":"\u05d1\u05d5\u05e1\u05e0\u05d9\u05d4 \u05d4\u05e8\u05e6\u05d2\u05d5\u05d1\u05d9\u05e0\u05d4","name:ha":"Bosniya Harzagobina","name:hy":"\u0532\u0578\u057d\u0576\u056b\u0561 \u0587 \u0540\u0565\u0580\u0581\u0565\u0563\u0578\u057e\u056b\u0576\u0561","name:ht":"Bosni ak Erzegovin","name:hu":"Bosznia-Hercegovina","name:qu":"Busna-Hirsiquwina","population":4621598,"kind":"country","name:is":"Bosn\u00eda og Herseg\u00f3v\u00edna","name:yi":"\u05d1\u05d0\u05e1\u05e0\u05d9\u05e2 \u05d0\u05d5\u05df \u05d4\u05e2\u05e8\u05e6\u05e2\u05d2\u05d0\u05d5\u05d5\u05d9\u05e0\u05e2","name:yo":"Or\u00edl\u1eb9\u0301\u00e8de B\u1ecd\u0300s\u00edn\u00ed\u00e0 \u00e0ti \u1eb8tis\u1eb9g\u00f3f\u00edn\u00e0","name:mt":"Bo\u017cnija u \u0126er\u017cegovina","alt_name:eo":"Bosnio kaj Hercegovino","name:ms":"Bosnia dan Herzegovina","name:mr":"\u092c\u0949\u0938\u094d\u0928\u093f\u092f\u093e \u0906\u0923\u093f \u0939\u0930\u094d\u091d\u0917\u094b\u0935\u094d\u0939\u093f\u0928\u093e","name:my":"\u1018\u1031\u102c\u1037\u1005\u1014\u102e\u1038\u101a\u102c\u1038 \u1014\u103e\u1004\u1037\u103a \u101f\u102c\u1007\u102e\u1002\u102d\u102f\u1018\u102e\u1038\u1014\u102c\u1038","name:kw":"Bosni\u2013Hercegovina","name:mg":"Bosnia sy Herzegovina","name:ml":"\u0d2c\u0d4b\u0d38\u0d4d\u0d28\u0d3f\u0d2f \u0d39\u0d46\u0d30\u0d4d\u200d\u0d38\u0d46\u0d17\u0d4b\u0d35\u0d3f\u0d28","name:vi":"Bosna v\u00e0 Hercegovina","name:mn":"\u0411\u043e\u0441\u043d\u0438-\u0413\u0435\u0440\u0446\u0435\u0433\u043e\u0432\u0438\u043d","name:mi":"P\u014dngia-Herek\u014dmina","id":1983711862,"name:mk":"\u0411\u043e\u0441\u043d\u0430 \u0438 \u0425\u0435\u0440\u0446\u0435\u0433\u043e\u0432\u0438\u043d\u0430","name:vo":"Bosn\u00e4n e H\u00e4rzegov\u00e4n","name:fa":"\u0628\u0648\u0633\u0646\u06cc \u0648 \u0647\u0631\u0632\u06af\u0648\u0648\u06cc\u0646","name:ff":"Bosnii Hersegowiin","name:fi":"Bosnia ja Hertsegovina","name:fo":"Bosnia-Hersegovina","alt_name:vi":"Bosnia v\u00e0 Herzegovina","name:fr":"Bosnie-Herz\u00e9govine","name:fy":"Bosnje","int_name":"Bosnia and Herzegovina","name:nl":"Bosni\u00eb en Herzegovina","name:nn":"Bosnia-Hercegovina","name:no":"Bosnia-Hercegovina","name:na":"Bosnia me Herzegowina","name:ne":"\u092c\u094b\u0938\u094d\u0928\u093f\u092f\u093e \u0930 \u0939\u0930\u094d\u091c\u0917\u094b\u0935\u093f\u0928\u093e","name:wo":"Bosni","name:nv":"Bosna d\u00f3\u00f3 Hetsog Bik\u00e9yah","name:ga":"An Bhoisnia-Heirseagaiv\u00e9in","name:gd":"Bosna agus Heartsagobhana","name:gn":"Vonia ha Hesegovina","name:gl":"Bosnia e Hercegovina","name:gv":"Bosnia as Herzegovina","name:gu":"\u0aac\u0acb\u0ab8\u0acd\u0aa8\u0abf\u0aaf\u0abe \u0a85\u0aa8\u0ac7 \u0ab9\u0ab0\u0acd\u0a9d\u0ac7\u0a97\u0acb\u0ab5\u0abf\u0aa8\u0abe","name:tt":"\u0411\u043e\u0441\u043d\u0438\u044f \u04bb\u04d9\u043c \u0413\u0435\u0440\u0446\u0435\u0433\u043e\u0432\u0438\u043d\u0430"},"coordinates":[1050,2507]},{"type":"Point","properties":{"source":"naturalearthdata.com","kind":"locality","name":"Sarajevo","country_capital":true,"population":696731,"min_zoom":5.0,"id":7088},"coordinates":[2196,1584]},{"type":"Point","properties":{"source":"naturalearthdata.com","kind":"locality","name":"Banja Luka","country_capital":true,"population":221738,"min_zoom":7.0,"id":4764},"coordinates":[444,3470]},{"type":"Point","properties":{"source":"naturalearthdata.com","kind":"locality","name":"Mostar","population":163067,"min_zoom":7.0,"id":4584},"coordinates":[1376,571]},{"type":"Point","properties":{"source":"naturalearthdata.com","kind":"locality","name":"Tuzla","population":144334,"min_zoom":7.0,"id":4762},"coordinates":[2629,3004]}]},"transit":{"type":"GeometryCollection","geometries":[{"type":"LineString","properties":{"distance":"476","layer":1.0,"name:en":"Belgrade - Bar","name":"\u0411\u0435\u043e\u0433\u0440\u0430\u0434 \u2014 \u0411\u0430\u0440","sort_rank":275,"kind":"train","id":412155472,"source":"openstreetmap.org","min_zoom":6.0,"operator":"\u0416\u0435\u043b\u0435\u0437\u043d\u0438\u0446\u0435 \u0421\u0440\u0431\u0438\u0458\u0435","type":"route","name:sr":"\u0411\u0435\u043e\u0433\u0440\u0430\u0434 - \u0411\u0430\u0440"},"arcs":[159]},{"type":"MultiLineString","properties":{"distance":"476","kind":"train","name:en":"Belgrade - Bar","name":"\u0411\u0435\u043e\u0433\u0440\u0430\u0434 \u2014 \u0411\u0430\u0440","sort_rank":275,"source":"openstreetmap.org","min_zoom":6.0,"operator":"\u0416\u0435\u043b\u0435\u0437\u043d\u0438\u0446\u0435 \u0421\u0440\u0431\u0438\u0458\u0435","type":"route","name:sr":"\u0411\u0435\u043e\u0433\u0440\u0430\u0434 - \u0411\u0430\u0440"},"arcs":[[160],[161],[162],[163],[164],[165]]},{"type":"LineString","properties":{"distance":"476","layer":1.0,"name:en":"Belgrade - Bar","name":"\u0411\u0435\u043e\u0433\u0440\u0430\u0434 \u2014 \u0411\u0430\u0440","sort_rank":275,"kind":"train","source":"openstreetmap.org","min_zoom":6.0,"operator":"\u0416\u0435\u043b\u0435\u0437\u043d\u0438\u0446\u0435 \u0421\u0440\u0431\u0438\u0458\u0435","type":"route","id":149949343},"arcs":[166]},{"type":"LineString","properties":{"kind":"train","name":"Pruga Podlugovi - Dra\u0161kovac","sort_rank":275,"source":"openstreetmap.org","min_zoom":6.0,"operator":"\u017dFBiH","ref":"11","id":-2676297,"osm_relation":true},"arcs":[167]},{"type":"LineString","properties":{"source":"openstreetmap.org","kind":"train","name:en":"Mokra Gora - Visegrad","name":"\u041c\u043e\u043a\u0440\u0430 \u0413\u043e\u0440\u0430 - \u0412\u0438\u0448\u0435\u0433\u0440\u0430\u0434","sort_rank":275,"type":"route","min_zoom":6.0},"arcs":[168]},{"type":"MultiLineString","properties":{"distance":"476","kind":"train","name:en":"Belgrade - Bar","name":"\u0411\u0435\u043e\u0433\u0440\u0430\u0434 - \u0411\u0430\u0440","sort_rank":275,"layer":1.0,"source":"openstreetmap.org","min_zoom":6.0,"operator":"\u0416\u0435\u043b\u0435\u0437\u043d\u0438\u0446\u0435 \u0421\u0440\u0431\u0438\u0458\u0435","type":"route"},"arcs":[[169],[170],[171],[172],[173],[174],[175],[176],[177],[178],[179],[180],[181],[182],[183],[184],[185],[186],[187],[188],[189],[190],[191],[192],[193],[194],[195],[196],[197],[198],[199],[200],[201],[202],[203],[204]]},{"type":"MultiLineString","properties":{"kind":"train","name":"Pruga Sarajevo (rasputnica) - Zenica - Doboj - \u0160amac - HR","sort_rank":275,"source":"openstreetmap.org","min_zoom":6.0,"operator":"\u017dFBiH;\u017dRS","ref":"12","osm_relation":true},"arcs":[[205],[206]]},{"type":"MultiLineString","properties":{"kind":"train","int_name":"Mokra Gora - Vi\u0161egrad","name":"\u041c\u043e\u043a\u0440\u0430 \u0413\u043e\u0440\u0430 - \u0412\u0438\u0448\u0435\u0433\u0440\u0430\u0434","sort_rank":275,"layer":-1.0,"source":"openstreetmap.org","min_zoom":6.0,"type":"route"},"arcs":[[207],[208],[209]]},{"type":"MultiLineString","properties":{"distance":"476","kind":"train","name":"\u0411\u0435\u043e\u0433\u0440\u0430\u0434 - \u0411\u0430\u0440","sort_rank":275,"name:de":"Belgrad - Bar","source":"openstreetmap.org","min_zoom":6.0,"osm_relation":true},"arcs":[[210],[211],[212],[213]]},{"type":"MultiLineString","properties":{"distance":"476","kind":"train","name:en":"Belgrade - Bar","name":"\u0411\u0435\u043e\u0433\u0440\u0430\u0434 \u2014 \u0411\u0430\u0440","sort_rank":275,"layer":-1.0,"source":"openstreetmap.org","min_zoom":6.0,"operator":"\u0416\u0435\u043b\u0435\u0437\u043d\u0438\u0446\u0435 \u0421\u0440\u0431\u0438\u0458\u0435","type":"route","name:sr":"\u0411\u0435\u043e\u0433\u0440\u0430\u0434 - \u0411\u0430\u0440"},"arcs":[[214],[215],[216]]},{"type":"MultiLineString","properties":{"kind":"train","int_name":"Mokra Gora - Vi\u0161egrad","name":"\u041c\u043e\u043a\u0440\u0430 \u0413\u043e\u0440\u0430 - \u0412\u0438\u0448\u0435\u0433\u0440\u0430\u0434","sort_rank":275,"layer":1.0,"source":"openstreetmap.org","min_zoom":6.0,"type":"route"},"arcs":[[217],[218]]},{"type":"LineString","properties":{"distance":"476","layer":-1.0,"name:en":"Belgrade - Bar","name":"\u0411\u0435\u043e\u0433\u0440\u0430\u0434 \u2014 \u0411\u0430\u0440","sort_rank":275,"kind":"train","source":"openstreetmap.org","min_zoom":6.0,"operator":"\u0416\u0435\u043b\u0435\u0437\u043d\u0438\u0446\u0435 \u0421\u0440\u0431\u0438\u0458\u0435","type":"route","id":289552397},"arcs":[219]},{"type":"MultiLineString","properties":{"source":"openstreetmap.org","kind":"train","int_name":"Mokra Gora - Vi\u0161egrad","name":"\u041c\u043e\u043a\u0440\u0430 \u0413\u043e\u0440\u0430 - \u0412\u0438\u0448\u0435\u0433\u0440\u0430\u0434","sort_rank":275,"type":"route","min_zoom":6.0},"arcs":[[220],[221],[222],[223],[224],[225],[226]]},{"type":"LineString","properties":{"distance":"476","layer":-1.0,"name:en":"Zlatibor tunnel","name":"\u0422\u0443\u043d\u0435\u043b \u0431\u0440. 81 \u201e\u0417\u043b\u0430\u0442\u0438\u0431\u043e\u0440\u201c","sort_rank":275,"kind":"train","source":"openstreetmap.org","min_zoom":6.0,"operator":"\u0416\u0435\u043b\u0435\u0437\u043d\u0438\u0446\u0435 \u0421\u0440\u0431\u0438\u0458\u0435","type":"route","id":146623796},"arcs":[227]},{"type":"LineString","properties":{"kind":"train","name":"\u017dupanja - Vinkovci (- Osijek)","sort_rank":275,"source":"openstreetmap.org","min_zoom":6.0,"ref":"R","id":-6385146,"osm_relation":true},"arcs":[228]},{"type":"LineString","properties":{"distance":"476","kind":"train","name:en":"Belgrade - Bar","name":"\u0411\u0435\u043e\u0433\u0440\u0430\u0434-\u0411\u0430\u0440 (Beograd-Bar)","sort_rank":275,"source":"openstreetmap.org","min_zoom":6.0,"int_name":"Belgrade - Bar","operator":"\u0416\u0435\u043b\u0435\u0437\u043d\u0438\u0446\u0435 \u0421\u0440\u0431\u0438\u0458\u0435","type":"route","name:sr":"\u0411\u0435\u043e\u0433\u0440\u0430\u0434 - \u0411\u0430\u0440"},"arcs":[229]},{"type":"MultiLineString","properties":{"distance":"476","kind":"train","name:en":"Belgrade - Bar","name":"\u0411\u0435\u043e\u0433\u0440\u0430\u0434 - \u0411\u0430\u0440","sort_rank":275,"layer":-1.0,"source":"openstreetmap.org","min_zoom":6.0,"operator":"\u0416\u0435\u043b\u0435\u0437\u043d\u0438\u0446\u0435 \u0421\u0440\u0431\u0438\u0458\u0435","type":"route"},"arcs":[[230],[231],[232],[233],[234],[235],[236],[237],[238],[239],[240],[241]]},{"type":"LineString","properties":{"kind":"train","name":"Pruga Sarajevo (rasputnica) - Mostar - \u010capljina - HR","sort_rank":275,"source":"openstreetmap.org","min_zoom":6.0,"operator":"\u017dFBIH","ref":"11","osm_relation":true},"arcs":[242]},{"type":"LineString","properties":{"distance":"476","kind":"train","source":"openstreetmap.org","sort_rank":275,"min_zoom":6.0,"operator":"\u017deljeznice Republike Srpske"},"arcs":[243]},{"type":"MultiLineString","properties":{"kind":"train","name:en":"Belgrade - Sid","name":"\u0411\u0435\u043e\u0433\u0440\u0430\u0434 - \u0428\u0438\u0434","sort_rank":275,"name:de":"Belgrad - Schid","source":"openstreetmap.org","min_zoom":6.0,"ref":"2200;2204;2208","osm_relation":true},"arcs":[[244],[245]]},{"type":"MultiLineString","properties":{"kind":"train","name":"Pruga Bosanski Novi - Banja Luka - Doboj - Tuzla","sort_rank":275,"source":"openstreetmap.org","min_zoom":6.0,"operator":"\u017dFBIH;\u017dRS","ref":"13","osm_relation":true},"arcs":[[246],[247],[248],[249],[250],[251],[252],[253],[254],[255],[256],[257],[258],[259],[260],[261],[262],[263],[264],[265],[266],[267]]},{"type":"MultiLineString","properties":{"sort_rank":275,"source":"openstreetmap.org","min_zoom":6.0,"kind":"train"},"arcs":[[268],[269]]},{"type":"MultiLineString","properties":{"distance":"476","kind":"train","name:en":"Belgrade - Bar","name":"\u0411\u0435\u043e\u0433\u0440\u0430\u0434 - \u0411\u0430\u0440","sort_rank":275,"source":"openstreetmap.org","min_zoom":6.0,"operator":"\u0416\u0435\u043b\u0435\u0437\u043d\u0438\u0446\u0435 \u0421\u0440\u0431\u0438\u0458\u0435","type":"route"},"arcs":[[270],[271],[272],[273],[274],[275],[276],[277],[278],[279],[280],[281],[282],[283],[284],[285],[286],[287],[288],[289],[290],[291],[292],[293],[294],[295],[296],[297],[298],[299],[300],[301],[302],[303],[304],[305],[306],[307],[308],[309],[310],[311],[312],[313],[314],[315],[316],[317],[318],[319],[320],[321],[322],[323],[324],[325],[326]]},{"type":"MultiLineString","properties":{"source":"openstreetmap.org","kind":"train","name":"\u0411\u0435\u043e\u0433\u0440\u0430\u0434 \u2014 \u0411\u0430\u0440","sort_rank":275,"type":"route","min_zoom":6.0},"arcs":[[327],[328],[329]]},{"type":"MultiLineString","properties":{"sort_rank":275,"source":"openstreetmap.org","min_zoom":6.0,"kind":"train","distance":"476"},"arcs":[[330],[331]]}]},"pois":{"type":"GeometryCollection","geometries":[]},"boundaries":{"type":"GeometryCollection","geometries":[{"type":"MultiLineString","properties":{"source":"naturalearthdata.com","kind":"country","sort_rank":262,"kind_detail":"2","min_zoom":0.0,"id":190},"arcs":[[0],[1]]},{"type":"MultiLineString","properties":{"source":"naturalearthdata.com","kind":"country","sort_rank":262,"kind_detail":"2","min_zoom":0.0,"id":215},"arcs":[[2],[3],[4],[5],[6],[7],[8],[9]]},{"type":"MultiLineString","properties":{"source":"naturalearthdata.com","kind":"country","sort_rank":262,"kind_detail":"2","min_zoom":0.0,"id":217},"arcs":[[10],[11],[12],[13],[14],[15],[16],[17],[18],[19],[20],[21],[22],[23],[24],[25],[26],[27],[28],[29],[30],[31],[32],[33]]},{"type":"MultiLineString","properties":{"source":"naturalearthdata.com","kind":"country","sort_rank":262,"kind_detail":"2","min_zoom":0.0,"id":216},"arcs":[[34],[35],[36],[37],[38],[39],[40],[41],[42]]},{"type":"MultiLineString","properties":{"source":"naturalearthdata.com","kind":"country","sort_rank":262,"kind_detail":"2","min_zoom":0.0,"id":218},"arcs":[[43],[44],[45],[46],[47]]},{"type":"LineString","properties":{"source":"naturalearthdata.com","kind":"map_unit","sort_rank":258,"kind_detail":"2","min_zoom":5.0,"id":7},"arcs":[48]},{"type":"LineString","properties":{"source":"naturalearthdata.com","kind":"map_unit","sort_rank":258,"kind_detail":"2","min_zoom":5.0,"id":8},"arcs":[49]},{"type":"MultiLineString","properties":{"source":"naturalearthdata.com","kind":"map_unit","sort_rank":258,"kind_detail":"2","min_zoom":5.0,"id":9},"arcs":[[50],[51]]},{"type":"LineString","properties":{"source":"naturalearthdata.com","kind":"map_unit","sort_rank":258,"kind_detail":"2","min_zoom":5.0,"id":10},"arcs":[52]},{"type":"MultiLineString","properties":{"source":"naturalearthdata.com","kind":"region","name":"West Herzegovina - West Bosnia","sort_rank":256,"kind_detail":"4","min_zoom":6.7,"id":4667},"arcs":[[53],[54],[55]]},{"type":"MultiLineString","properties":{"source":"naturalearthdata.com","kind":"region","name":"Herzegovina-Neretva - West Bosnia","sort_rank":256,"kind_detail":"4","min_zoom":6.7,"id":4668},"arcs":[[56],[57],[58],[59],[60]]},{"type":"LineString","properties":{"source":"naturalearthdata.com","kind":"region","sort_rank":256,"kind_detail":"4","min_zoom":7.0,"id":289},"arcs":[61]},{"type":"LineString","properties":{"source":"naturalearthdata.com","kind":"region","sort_rank":256,"kind_detail":"4","min_zoom":7.0,"id":502},"arcs":[62]},{"type":"MultiLineString","properties":{"source":"naturalearthdata.com","kind":"region","name":"Kolubarski - Zlatiborski","sort_rank":256,"kind_detail":"4","min_zoom":6.7,"id":2381},"arcs":[[63],[64]]},{"type":"MultiLineString","properties":{"source":"naturalearthdata.com","kind":"region","name":"Kolubarski - Macvanski","sort_rank":256,"kind_detail":"4","min_zoom":6.7,"id":2621},"arcs":[[65],[66],[67],[68],[69],[70],[71],[72],[73],[74],[75],[76]]},{"type":"MultiLineString","properties":{"source":"naturalearthdata.com","kind":"region","name":"Zlatiborski - Macvanski","sort_rank":256,"kind_detail":"4","min_zoom":6.7,"id":2622},"arcs":[[77],[78],[79]]},{"type":"MultiLineString","properties":{"source":"naturalearthdata.com","kind":"region","name":"Pljevlja - \u017dabljak","sort_rank":256,"kind_detail":"4","min_zoom":7.0,"id":3010},"arcs":[[80],[81],[82]]},{"type":"LineString","properties":{"source":"naturalearthdata.com","kind":"region","name":"\u017dabljak - Plu\u017eine","sort_rank":256,"kind_detail":"4","min_zoom":7.0,"id":3011},"arcs":[83]},{"type":"LineString","properties":{"source":"naturalearthdata.com","kind":"region","name":"Pljevlja - Bijelo Polje","sort_rank":256,"kind_detail":"4","min_zoom":7.0,"id":3012},"arcs":[84]},{"type":"LineString","properties":{"source":"naturalearthdata.com","kind":"region","name":"Nik\u0161ic - Plu\u017eine","sort_rank":256,"kind_detail":"4","min_zoom":7.0,"id":3013},"arcs":[85]},{"type":"MultiLineString","properties":{"source":"naturalearthdata.com","kind":"region","name":"\u0160avnik - \u017dabljak","sort_rank":256,"kind_detail":"4","min_zoom":7.0,"id":3018},"arcs":[[86],[87],[88]]},{"type":"MultiLineString","properties":{"source":"naturalearthdata.com","kind":"region","name":"Plu\u017eine - \u0160avnik","sort_rank":256,"kind_detail":"4","min_zoom":7.0,"id":3019},"arcs":[[89],[90]]},{"type":"LineString","properties":{"source":"naturalearthdata.com","kind":"region","name":"Vukovarsko-Srijemska - Brodsko-Posavska","sort_rank":256,"kind_detail":"4","min_zoom":7.0,"id":4287},"arcs":[91]},{"type":"MultiLineString","properties":{"source":"naturalearthdata.com","kind":"region","name":"Dubrovacko-Neretvanska - Splitsko-Dalmatinska","sort_rank":256,"kind_detail":"4","min_zoom":7.0,"id":4293},"arcs":[[92],[93],[94]]},{"type":"MultiLineString","properties":{"source":"naturalearthdata.com","kind":"region","name":"West Herzegovina - Herzegovina-Neretva","sort_rank":256,"kind_detail":"4","min_zoom":6.7,"id":4666},"arcs":[[95],[96],[97],[98],[99],[100],[101],[102]]},{"type":"LineString","properties":{"source":"naturalearthdata.com","kind":"region","name":"Sarajevo - Central Bosnia","sort_rank":256,"kind_detail":"4","min_zoom":6.7,"id":4669},"arcs":[103]},{"type":"MultiLineString","properties":{"source":"naturalearthdata.com","kind":"region","name":"Central Bosnia - Zenica-Doboj","sort_rank":256,"kind_detail":"4","min_zoom":6.7,"id":4670},"arcs":[[104],[105],[106],[107],[108],[109],[110],[111],[112],[113]]},{"type":"MultiLineString","properties":{"source":"naturalearthdata.com","kind":"region","name":"Central Bosnia - Herzegovina-Neretva","sort_rank":256,"kind_detail":"4","min_zoom":6.7,"id":4671},"arcs":[[114],[115],[116],[117],[118],[119],[120]]},{"type":"MultiLineString","properties":{"source":"naturalearthdata.com","kind":"region","name":"Tuzla - Zenica-Doboj","sort_rank":256,"kind_detail":"4","min_zoom":6.7,"id":4662},"arcs":[[121],[122],[123],[124],[125],[126],[127]]},{"type":"MultiLineString","properties":{"source":"naturalearthdata.com","kind":"region","name":"West Bosnia - Central Bosnia","sort_rank":256,"kind_detail":"4","min_zoom":6.7,"id":4672},"arcs":[[128],[129]]},{"type":"MultiLineString","properties":{"source":"naturalearthdata.com","kind":"region","name":"Sarajevo - Zenica-Doboj","sort_rank":256,"kind_detail":"4","min_zoom":6.7,"id":4663},"arcs":[[130],[131],[132],[133]]},{"type":"LineString","properties":{"source":"naturalearthdata.com","kind":"region","name":"Bosnian Podrinje - Sarajevo","sort_rank":256,"kind_detail":"4","min_zoom":6.7,"id":4664},"arcs":[134]},{"type":"MultiLineString","properties":{"source":"naturalearthdata.com","kind":"region","name":"Herzegovina-Neretva - Sarajevo","sort_rank":256,"kind_detail":"4","min_zoom":6.7,"id":4665},"arcs":[[135],[136],[137],[138],[139],[140],[141]]},{"type":"MultiLineString","properties":{"source":"naturalearthdata.com","kind":"region","name":"Banja Luka - Doboj","sort_rank":256,"kind_detail":"4","min_zoom":7.0,"id":8089},"arcs":[[142],[143]]},{"type":"MultiLineString","properties":{"source":"naturalearthdata.com","kind":"region","name":"Bijeljina - Vlasenica","sort_rank":256,"kind_detail":"4","min_zoom":7.0,"id":8090},"arcs":[[144],[145]]},{"type":"MultiLineString","properties":{"source":"naturalearthdata.com","kind":"region","name":"Sarajevo-romanija - Fo\u010da","sort_rank":256,"kind_detail":"4","min_zoom":7.0,"id":8091},"arcs":[[146],[147]]},{"type":"LineString","properties":{"source":"naturalearthdata.com","kind":"region","name":"Vlasenica - Fo\u010da","sort_rank":256,"kind_detail":"4","min_zoom":7.0,"id":8092},"arcs":[148]},{"type":"MultiLineString","properties":{"source":"naturalearthdata.com","kind":"region","name":"Sarajevo-romanija - Fo\u010da","sort_rank":256,"kind_detail":"4","min_zoom":7.0,"id":8093},"arcs":[[149],[150],[151]]},{"type":"LineString","properties":{"source":"naturalearthdata.com","kind":"region","name":"Vlasenica - Sarajevo-romanija","sort_rank":256,"kind_detail":"4","min_zoom":7.0,"id":8094},"arcs":[152]},{"type":"LineString","properties":{"source":"naturalearthdata.com","kind":"region","name":"Fo\u010da - Fo\u010da","sort_rank":256,"kind_detail":"4","min_zoom":7.0,"id":8095},"arcs":[153]},{"type":"MultiLineString","properties":{"source":"naturalearthdata.com","kind":"region","name":"Fo\u010da - Trebinje","sort_rank":256,"kind_detail":"4","min_zoom":7.0,"id":8096},"arcs":[[154],[155],[156],[157],[158]]}]},"roads":{"type":"GeometryCollection","geometries":[{"type":"LineString","properties":{"kind":"highway","network":"e-road","sort_rank":383,"kind_detail":"motorway","source":"naturalearthdata.com","min_zoom":4.0,"all_networks":["e-road"],"shield_text":"70","ref":"70","id":4534,"all_shield_texts":["70"]},"arcs":[336]},{"type":"LineString","properties":{"kind":"highway","network":"e-road","sort_rank":383,"kind_detail":"motorway","source":"naturalearthdata.com","min_zoom":4.0,"all_networks":["e-road"],"landuse_kind":"urban_area","shield_text":"70","ref":"70","id":4535,"all_shield_texts":["70"]},"arcs":[337]},{"type":"MultiLineString","properties":{"kind":"highway","network":"e-road","sort_rank":383,"kind_detail":"motorway","source":"naturalearthdata.com","min_zoom":4.0,"all_networks":["e-road"],"shield_text":"70","ref":"70","id":4535,"all_shield_texts":["70"]},"arcs":[[338],[339]]},{"type":"LineString","properties":{"kind":"highway","network":"e-road","sort_rank":383,"kind_detail":"motorway","source":"naturalearthdata.com","min_zoom":3.0,"all_networks":["e-road"],"shield_text":"65","ref":"65","id":4597,"all_shield_texts":["65"]},"arcs":[340]},{"type":"LineString","properties":{"source":"naturalearthdata.com","kind":"major_road","sort_rank":379,"kind_detail":"secondary","min_zoom":3.0,"id":4788},"arcs":[341]},{"type":"LineString","properties":{"kind":"major_road","network":"e-road","sort_rank":379,"kind_detail":"secondary","source":"naturalearthdata.com","min_zoom":3.0,"shield_text":"65","ref":"65","id":4794},"arcs":[342]},{"type":"LineString","properties":{"kind":"highway","network":"e-road","sort_rank":383,"kind_detail":"motorway","source":"naturalearthdata.com","min_zoom":4.0,"all_networks":["e-road"],"shield_text":"73","ref":"73","id":5134,"all_shield_texts":["73"]},"arcs":[343]},{"type":"LineString","properties":{"kind":"major_road","network":"e-road","sort_rank":380,"kind_detail":"primary","source":"naturalearthdata.com","min_zoom":3.0,"shield_text":"73","ref":"73","id":5135},"arcs":[344]},{"type":"LineString","properties":{"source":"naturalearthdata.com","kind":"major_road","kind_detail":"primary","sort_rank":380,"landuse_kind":"urban_area","min_zoom":4.0,"id":5143},"arcs":[345]},{"type":"MultiLineString","properties":{"source":"naturalearthdata.com","kind":"major_road","sort_rank":380,"kind_detail":"primary","min_zoom":4.0,"id":5143},"arcs":[[346],[347]]},{"type":"LineString","properties":{"kind":"major_road","network":"e-road","sort_rank":380,"kind_detail":"primary","source":"naturalearthdata.com","min_zoom":4.0,"landuse_kind":"urban_area","shield_text":"73","ref":"73","id":5144},"arcs":[348]},{"type":"MultiLineString","properties":{"kind":"major_road","network":"e-road","sort_rank":380,"kind_detail":"primary","source":"naturalearthdata.com","min_zoom":4.0,"shield_text":"73","ref":"73","id":5144},"arcs":[[349],[350]]},{"type":"LineString","properties":{"kind":"major_road","network":"e-road","sort_rank":380,"kind_detail":"primary","source":"naturalearthdata.com","min_zoom":4.0,"landuse_kind":"park","shield_text":"73","ref":"73","id":5145},"arcs":[351]},{"type":"LineString","properties":{"kind":"major_road","network":"e-road","sort_rank":380,"kind_detail":"primary","source":"naturalearthdata.com","min_zoom":4.0,"landuse_kind":"urban_area","shield_text":"73","ref":"73","id":5145},"arcs":[352]},{"type":"MultiLineString","properties":{"kind":"major_road","network":"e-road","sort_rank":380,"kind_detail":"primary","source":"naturalearthdata.com","min_zoom":4.0,"shield_text":"73","ref":"73","id":5145},"arcs":[[353],[354],[355]]},{"type":"LineString","properties":{"kind":"major_road","network":"e-road","sort_rank":380,"kind_detail":"primary","source":"naturalearthdata.com","min_zoom":4.0,"landuse_kind":"park","shield_text":"73","ref":"73","id":5146},"arcs":[356]},{"type":"MultiLineString","properties":{"kind":"major_road","network":"e-road","sort_rank":380,"kind_detail":"primary","source":"naturalearthdata.com","min_zoom":4.0,"shield_text":"73","ref":"73","id":5146},"arcs":[[357],[358]]},{"type":"LineString","properties":{"kind":"major_road","network":"e-road","sort_rank":380,"kind_detail":"primary","source":"naturalearthdata.com","min_zoom":6.0,"landuse_kind":"urban_area","shield_text":"661","ref":"661","id":5416},"arcs":[359]},{"type":"MultiLineString","properties":{"kind":"major_road","network":"e-road","sort_rank":380,"kind_detail":"primary","source":"naturalearthdata.com","min_zoom":6.0,"shield_text":"661","ref":"661","id":5416},"arcs":[[360],[361]]},{"type":"LineString","properties":{"kind":"major_road","network":"e-road","sort_rank":380,"kind_detail":"primary","source":"naturalearthdata.com","min_zoom":6.0,"shield_text":"762","ref":"762","id":5492},"arcs":[362]},{"type":"LineString","properties":{"kind":"highway","network":"e-road","sort_rank":383,"kind_detail":"motorway","source":"naturalearthdata.com","min_zoom":6.0,"all_networks":["e-road"],"shield_text":"661","ref":"661","id":5557,"all_shield_texts":["661"]},"arcs":[363]},{"type":"LineString","properties":{"kind":"major_road","network":"e-road","sort_rank":380,"kind_detail":"primary","source":"naturalearthdata.com","min_zoom":6.0,"shield_text":"661","ref":"661","id":5558},"arcs":[364]},{"type":"LineString","properties":{"source":"naturalearthdata.com","kind":"major_road","sort_rank":380,"kind_detail":"primary","min_zoom":6.0,"id":5559},"arcs":[365]},{"type":"LineString","properties":{"kind":"highway","network":"e-road","sort_rank":383,"kind_detail":"motorway","source":"naturalearthdata.com","min_zoom":6.0,"all_networks":["e-road"],"shield_text":"761","ref":"761","id":5590,"all_shield_texts":["761"]},"arcs":[366]},{"type":"LineString","properties":{"kind":"major_road","network":"e-road","sort_rank":380,"kind_detail":"primary","source":"naturalearthdata.com","min_zoom":6.0,"shield_text":"762","ref":"762","id":5591},"arcs":[367]},{"type":"LineString","properties":{"kind":"major_road","network":"e-road","sort_rank":379,"kind_detail":"secondary","source":"naturalearthdata.com","min_zoom":6.0,"shield_text":"762","ref":"762","id":5592},"arcs":[368]},{"type":"LineString","properties":{"kind":"major_road","network":"e-road","sort_rank":380,"kind_detail":"primary","source":"naturalearthdata.com","min_zoom":6.0,"shield_text":"762","ref":"762","id":5593},"arcs":[369]},{"type":"LineString","properties":{"kind":"major_road","network":"e-road","sort_rank":380,"kind_detail":"primary","source":"naturalearthdata.com","min_zoom":6.0,"shield_text":"763","ref":"763","id":5600},"arcs":[370]},{"type":"LineString","properties":{"kind":"major_road","network":"e-road","sort_rank":380,"kind_detail":"primary","source":"naturalearthdata.com","min_zoom":6.0,"shield_text":"661","ref":"661","id":5605},"arcs":[371]},{"type":"LineString","properties":{"kind":"major_road","network":"e-road","sort_rank":380,"kind_detail":"primary","source":"naturalearthdata.com","min_zoom":6.0,"shield_text":"762","ref":"762","id":5647},"arcs":[372]},{"type":"LineString","properties":{"kind":"major_road","network":"e-road","sort_rank":380,"kind_detail":"primary","source":"naturalearthdata.com","min_zoom":6.0,"shield_text":"762","ref":"762","id":5759},"arcs":[373]},{"type":"LineString","properties":{"source":"naturalearthdata.com","kind":"major_road","kind_detail":"primary","sort_rank":380,"landuse_kind":"urban_area","min_zoom":6.0,"id":5762},"arcs":[374]},{"type":"MultiLineString","properties":{"source":"naturalearthdata.com","kind":"major_road","sort_rank":380,"kind_detail":"primary","min_zoom":6.0,"id":5762},"arcs":[[375],[376]]},{"type":"LineString","properties":{"source":"naturalearthdata.com","kind":"major_road","kind_detail":"primary","sort_rank":380,"landuse_kind":"nature_reserve","min_zoom":7.0,"id":6049},"arcs":[377]},{"type":"LineString","properties":{"source":"naturalearthdata.com","kind":"major_road","kind_detail":"primary","sort_rank":380,"landuse_kind":"urban_area","min_zoom":7.0,"id":6049},"arcs":[378]},{"type":"MultiLineString","properties":{"source":"naturalearthdata.com","kind":"major_road","sort_rank":380,"kind_detail":"primary","min_zoom":7.0,"id":6049},"arcs":[[379],[380]]},{"type":"LineString","properties":{"kind":"major_road","network":"e-road","sort_rank":380,"kind_detail":"primary","source":"naturalearthdata.com","min_zoom":6.0,"shield_text":"661","ref":"661","id":8113},"arcs":[381]},{"type":"LineString","properties":{"kind":"major_road","network":"e-road","sort_rank":380,"kind_detail":"primary","source":"naturalearthdata.com","min_zoom":4.0,"landuse_kind":"urban_area","shield_text":"73","ref":"73","id":8114},"arcs":[382]},{"type":"LineString","properties":{"kind":"major_road","network":"e-road","sort_rank":380,"kind_detail":"primary","source":"naturalearthdata.com","min_zoom":4.0,"shield_text":"73","ref":"73","id":8114},"arcs":[383]},{"type":"LineString","properties":{"source":"naturalearthdata.com","kind":"major_road","sort_rank":379,"kind_detail":"secondary","min_zoom":6.0,"id":55902},"arcs":[384]},{"type":"LineString","properties":{"source":"naturalearthdata.com","kind":"major_road","sort_rank":379,"kind_detail":"secondary","min_zoom":6.0,"id":55903},"arcs":[385]},{"type":"LineString","properties":{"source":"naturalearthdata.com","kind":"major_road","kind_detail":"secondary","sort_rank":379,"landuse_kind":"urban_area","min_zoom":6.0,"id":55916},"arcs":[386]},{"type":"LineString","properties":{"source":"naturalearthdata.com","kind":"major_road","sort_rank":379,"kind_detail":"secondary","min_zoom":6.0,"id":55960},"arcs":[387]},{"type":"LineString","properties":{"source":"naturalearthdata.com","kind":"major_road","sort_rank":379,"kind_detail":"secondary","min_zoom":6.0,"id":55980},"arcs":[388]},{"type":"LineString","properties":{"source":"naturalearthdata.com","kind":"major_road","sort_rank":379,"kind_detail":"secondary","min_zoom":6.0,"id":55988},"arcs":[389]}]},"earth":{"type":"GeometryCollection","geometries":[{"type":"MultiPolygon","properties":{"sort_rank":10,"source":"naturalearthdata.com","min_zoom":0.0,"kind":"earth","area":322967173109},"arcs":[[[390]],[[391]],[[392]]]}]},"landuse":{"type":"GeometryCollection","geometries":[{"type":"MultiPolygon","properties":{"source":"openstreetmap.org","kind":"park","tier":2,"area":2016418150,"sort_rank":24,"min_zoom":6.0},"arcs":[[[393]],[[394]],[[395]],[[396]]]},{"type":"MultiPolygon","properties":{"source":"naturalearthdata.com","kind":"urban_area","name":"","area":9064155135,"sort_rank":11,"min_zoom":4.0},"arcs":[[[397]],[[398]],[[399]],[[400]],[[401]],[[402]],[[403]],[[404]],[[405]],[[406]],[[407]],[[408]],[[409]],[[410]]]},{"type":"Polygon","properties":{"kind":"nature_reserve","protect_class":"4","area":365481984,"sort_rank":23,"source":"openstreetmap.org","min_zoom":6.0,"tier":2,"id":-6889390,"osm_relation":true},"arcs":[[411]]}]}},"type":"Topology","transform":{"translate":[16.875,43.0688877742],"scale":[0.0006866455,0.0004932001]},"arcs":[[[3379,941],[-29,-47],[1,-59],[24,-53],[38,-33],[200,-92],[24,-18],[61,-93],[86,-91],[17,-27],[25,-57],[15,-23],[52,-44],[3,-3],[45,-60],[25,-23],[30,-17],[64,-19],[32,-4]],[[4092,178],[4,2]],[[3095,971],[21,-20],[15,-30],[19,-25],[25,-8]],[[3016,760],[1,11],[6,17],[1,13],[-20,30],[-10,7],[-23,6],[-14,11],[0,17],[8,17],[14,10],[27,14],[34,39],[22,16],[33,3]],[[3310,951],[69,-10]],[[3175,888],[31,1],[29,11],[39,47],[36,4]],[[3084,402],[15,14],[12,17],[9,18],[8,11],[3,4],[17,9],[38,2],[10,10],[-44,84],[-43,123],[-50,67],[-10,8]],[[3049,769],[-33,-9]],[[2948,574],[35,-10],[39,-28],[11,-15],[1,-14],[-2,-14],[4,-17],[13,-23],[30,-39],[0,-2],[5,-10]],[[2552,0],[-9,56],[-1,53],[1,4],[12,61],[23,52],[63,89],[-35,18],[22,33],[186,139],[38,13],[-4,8],[-9,18],[-5,9],[27,13],[87,8]],[[3389,3730],[-7,9],[-6,17],[-9,13]],[[3367,3769],[-18,-5],[-131,-94],[-24,-8],[-30,-5],[-46,-14]],[[3508,3730],[-64,13]],[[3444,3743],[-15,-2],[-26,-11],[-14,0]],[[3590,3705],[-14,5],[-30,28]],[[3546,3738],[-12,0],[-13,-6],[-13,-2]],[[3479,2436],[-21,1],[-13,4],[-30,15],[-62,14],[-30,13],[-26,32],[-32,70],[-12,40],[-2,39],[12,42],[21,26],[17,29],[3,56],[-24,90],[4,32],[51,17],[12,9],[9,14],[9,16],[3,15],[-2,32],[3,14],[7,9],[16,9],[7,7],[68,116],[21,61],[11,19],[16,16],[29,25],[14,21],[15,37],[51,245],[6,9],[8,2],[5,6],[-1,20],[-4,17],[-6,12],[-9,8],[-8,9],[-6,7]],[[3609,3711],[0,-2],[-4,-2],[-15,-2]],[[3739,2178],[-10,6],[-15,16],[-64,47],[-28,29],[-9,26],[-3,41],[-18,43],[-25,37],[-25,21],[-16,3]],[[3526,2447],[-47,-11]],[[3940,1992],[-14,11],[-24,29],[-47,28],[-8,13],[-27,38],[-22,22],[-9,12],[-4,37],[-12,16]],[[3773,2198],[-9,0],[-16,-17],[-9,-3]],[[3829,1839],[36,3],[34,12],[60,45],[25,28],[12,33],[-11,38],[-18,17]],[[3967,2015],[-13,-5],[-9,-12],[-5,-6]],[[3513,1914],[19,-7],[37,-26],[38,-35],[19,-12]],[[3796,997],[12,8],[3,8],[-4,9],[-11,10],[-7,22],[-2,28],[3,29],[6,24],[38,38],[-3,53],[-35,113],[-29,67],[-149,162],[-78,127],[-44,58],[-50,38],[-17,11],[16,16],[3,15],[-6,25],[-1,15],[8,19],[13,11],[30,10],[21,1]],[[3746,1847],[83,-8]],[[3626,1834],[21,1],[22,6],[77,6]],[[3599,1095],[25,-15],[25,-32],[20,-39],[12,-34],[12,-18]],[[3516,1052],[17,1],[17,10],[34,27],[15,5]],[[3479,1059],[37,-7]],[[3379,941],[32,0],[18,34],[14,45],[20,34],[16,5]],[[3741,1020],[55,-23]],[[3693,957],[12,17],[19,44],[17,2]],[[1399,4046],[-29,12],[-27,24],[-11,14]],[[2426,4028],[-35,1],[-38,14],[-13,8],[-23,15],[-21,22],[-7,8]],[[1527,4096],[-18,-16],[-12,-7],[-40,-7],[-43,-18],[-15,-2]],[[2583,4043],[-12,5],[-10,13],[-8,17],[-7,18]],[[2417,4096],[0,-1],[0,-14],[7,-25],[2,-28]],[[2934,3634],[-45,15],[-24,16],[-36,22],[-50,54],[-15,58],[10,20],[32,23],[4,20],[-2,7],[-7,10],[-4,6],[-1,6],[0,11],[0,4],[-5,13],[-4,8],[-5,6],[-11,3],[-40,4],[-17,8],[-18,20],[-54,110],[-7,9],[-9,6]],[[2626,4093],[-10,-1],[-8,-8],[-4,-12],[-3,-12],[-4,-10],[-14,-7]],[[3118,3643],[-16,-5],[-168,-4]],[[0,1217],[156,-161],[70,-84],[47,-42],[32,-29],[85,-49],[141,-22],[45,-30],[23,-53],[-27,-170],[32,-101],[57,-88],[59,-56],[30,-19],[15,-15],[10,-21],[12,-42],[17,-39],[22,-27],[13,-8],[198,-134],[16,-19],[7,-8]],[[3213,4096],[2,-8],[5,-49],[12,-60],[2,-21],[-3,-19],[-7,-25],[-5,-24],[3,-21],[16,-14]],[[3267,3866],[14,-15],[6,-30],[-11,-15],[-17,-7],[-13,-9],[-23,-38],[-14,-17],[-17,-11]],[[3238,3855],[29,11]],[[3192,3724],[-21,3],[-30,32],[-19,6]],[[3122,3765],[-40,-22],[4,-41],[32,-59]],[[2340,4051],[-2,-24],[4,-65],[21,-22],[44,-53],[58,-44],[59,-21],[62,0],[63,-35],[38,-37],[4,-44],[29,-6],[39,-3],[15,-12],[0,-1],[7,-27],[-5,-41],[0,-22],[36,0],[43,38],[7,26],[3,7]],[[1853,4096],[20,-50],[17,-28],[27,-3],[27,-22],[32,-34],[35,-63],[32,-6],[47,0],[31,0],[7,19],[11,25],[11,28],[40,15],[50,19],[35,19],[9,46],[12,27]],[[0,3240],[5,-9],[6,-84],[0,-101],[-2,-116],[-9,-22]],[[0,2419],[3,-3],[58,-43],[75,-41],[69,-41],[43,-17],[23,-43],[34,-24],[33,-8],[8,-53],[2,-63],[21,-27],[40,-8],[135,-23],[1,1],[14,48],[12,46],[9,58],[-15,79],[-77,98],[-35,55],[-25,67],[-23,70],[-7,90],[-6,121],[11,59],[35,8],[75,-3],[19,-17],[39,-15],[84,-4],[69,0],[52,-3],[45,-32],[38,-64],[29,-26],[25,-32],[52,-2],[92,0],[127,23],[62,-3],[3,2],[47,35],[73,41],[61,35],[52,41],[35,40],[7,49],[0,50],[-9,55],[-35,35],[-50,49],[-31,58],[0,46],[25,58],[52,106],[50,15],[75,-6],[60,-9],[50,-46],[48,-81],[50,-108],[29,-49],[40,-6],[66,-3],[113,0],[67,-3],[75,18],[8,46],[-8,52],[-40,47],[-65,20],[-60,20],[-73,27],[-60,26],[-65,26],[-60,32],[-23,26],[0,58],[10,35],[59,8],[62,6],[115,0],[58,15],[35,55],[32,90],[20,52],[38,26],[35,15],[92,-5],[50,-14],[0,-47],[0,-23],[17,-20],[39,-3],[36,9],[52,23],[81,-6],[88,-23],[56,-41],[21,-84],[8,-81],[10,-35],[42,-3],[2,-35],[-10,-46],[-40,-26],[-42,-26],[-16,-24],[-2,-46],[14,-41],[57,-55],[79,-93],[23,-20],[29,0],[33,18],[42,72],[27,64],[19,32],[52,11],[52,-11],[10,-32],[2,-119],[-4,-139],[-12,-29],[-38,-32],[-25,-10],[-41,-35],[-38,-23],[-58,-3],[-65,-18],[-19,-49],[-27,-38],[-43,-26],[-34,-6],[-12,-34],[10,-84],[23,-53],[21,-55],[14,-64],[-8,-69],[-31,-61],[-3,-3],[-20,-20],[-19,-38],[-48,-44],[-64,-66],[-52,-32],[-54,-2],[-15,-1],[-11,-42],[-43,-38],[-44,-35],[-15,-29],[-2,-49],[9,-73],[4,-60],[0,-64],[-13,-26],[-23,-21],[-43,-5],[-40,8],[-61,6],[-18,-12],[4,-40],[4,-47],[40,-69],[18,-35],[40,-3],[63,-3],[45,-23],[61,-26],[72,-54],[5,-4],[35,-6],[54,-3],[28,26],[25,50],[14,66],[29,38],[65,9],[137,-3],[69,-12],[36,-43],[33,-35],[33,0],[48,-15],[25,-31],[17,-59],[-8,-29],[-46,-8],[-36,-38],[-48,-38],[-64,-29],[-48,-23],[-59,-9],[-77,-11],[-45,-12],[-98,15],[-65,32],[-94,75],[-3,1],[-49,22],[-48,23],[-35,35],[-42,29],[-29,0],[-44,0],[-16,-49],[-7,-84],[-10,-63],[-11,-11],[-10,-10],[-2,-2],[-6,-52],[8,-78],[13,-67],[14,-67],[-6,-28],[-50,0],[-144,14],[-127,-6],[-104,0],[-100,6],[-7,-29],[-4,-15],[36,-58],[6,-67],[5,-130],[4,-183],[-17,-23],[-23,-29],[-33,-17],[-23,-35],[-4,-32],[4,-23],[28,-3],[5,0],[8,-3],[29,-12],[23,-23],[-2,-43],[-2,-34],[-1,-4]],[[3615,3704],[3,11],[-26,17],[-24,26],[23,-2],[45,-15],[21,3],[17,16],[-3,17],[15,20],[3,1],[5,0],[4,-1],[7,-3],[4,-2],[17,-12],[8,-7],[6,-7],[2,-4],[4,-12],[6,-13],[5,-13],[2,-4],[4,-3],[3,-2],[6,-3],[3,0],[3,0],[3,1],[4,3],[6,5],[7,9],[5,7],[4,3],[6,4],[5,2],[4,1],[2,0],[4,-1],[4,-2],[3,-3],[14,-12],[4,-4],[9,-4],[7,-2],[14,-2],[11,-3],[5,0],[4,0],[5,1],[6,2],[14,6],[25,13],[11,4],[5,1],[6,1],[12,0],[30,-1],[12,-1],[5,-1],[42,44],[14,-6],[6,-1]],[[955,1179],[0,-21],[-6,-43],[-21,-26],[-20,-38],[-32,-11],[-51,-10],[-40,0],[-33,-6],[-48,-27],[-35,-21],[-52,-24],[-38,0]],[[579,952],[-18,18],[-9,25],[-35,10]],[[517,1005],[-23,-18],[-66,-19],[-75,0],[-14,-6],[-66,-32]],[[851,1605],[1,-6],[8,-30]],[[860,1569],[-42,16],[-27,16]],[[791,1601],[-37,-2],[-4,-11],[-9,-21],[-3,-40],[-1,-14],[0,-41],[0,-26],[15,-30],[0,-24],[0,-21]],[[789,1371],[40,-11],[23,-40],[45,-57],[19,-35],[17,-16],[22,-21],[0,-12]],[[752,1371],[16,0],[21,0]],[[714,21]],[[516,11],[-197,0],[-163,12],[-156,-11]],[[4013,2182],[4,0],[4,-1],[3,-1],[15,-7],[12,-4],[2,-1],[2,-1],[7,-12],[10,-10],[3,-2],[4,-1],[17,-5]],[[3995,2179],[13,2],[5,1]],[[3971,2744],[-9,0],[-4,1],[-3,1],[-4,2],[-5,4],[-5,5],[-1,3],[-5,12],[-2,3],[-2,3],[-19,14]],[[3912,2792],[-18,-2],[-14,-3],[-7,-2],[-9,-5],[-5,-2],[-5,-1]],[[3854,2777],[-4,0],[-9,3],[-5,0]],[[3836,2780],[-8,0],[-9,-1],[-4,-1],[-6,-3],[-6,-4],[-2,-3],[-1,-3],[0,-2],[1,-2],[1,-3],[2,-2],[3,-2],[3,-2],[12,-4],[3,-2],[2,-3],[1,-3],[0,-2],[-1,-3],[-4,-8],[-2,-4],[-1,-4],[1,-15],[-2,-7],[-5,-19],[-4,-10],[-10,-20],[-4,-5],[-4,-5],[-3,-2],[-6,-2],[-4,0]],[[4096,2772],[-11,4],[-4,1],[-5,1]],[[4076,2778],[-9,-1],[-5,-1],[-16,-6],[-5,-1],[-17,-3],[-9,-3],[-5,-2],[-15,-8],[-3,-4],[-3,-2],[-4,-1],[-5,-1],[-9,-1]],[[3779,2634],[-13,1]],[[3766,2635],[-3,0],[-3,-1],[-4,-3],[-3,-3],[-3,-6],[-1,-3],[-1,-4],[1,-5],[1,-3],[3,-7],[2,-2],[4,-5],[3,-2],[4,-2],[2,-1]],[[3787,2592],[2,0],[3,-1],[2,-3],[2,-3],[3,-8],[7,-12],[4,-10],[1,-5],[1,-4],[-1,-5],[-1,-4],[-3,-5],[-4,-3],[-4,-3],[-7,-3],[-14,-2],[-3,-2],[-4,-1],[-4,-3],[-3,-3],[-5,-10],[-6,-8],[-2,-3],[-2,-8],[-1,-9],[-1,-5],[-2,-3],[-1,-3],[-3,-2],[-14,-10],[-2,-2],[-2,-4],[-1,-3],[-1,-3],[1,-12],[-1,-6],[-1,-6],[-2,-6],[-3,-6],[5,-6],[18,-14],[8,-4],[15,-6],[10,-6],[4,0],[14,-2],[20,-5],[4,-1],[4,-3],[4,-3],[7,-7],[3,-2],[6,-4],[7,-2],[3,-1],[4,0]],[[3768,2588],[3,0],[16,4]],[[3864,2338],[2,-1],[3,-1],[3,-2],[11,-10],[4,-3],[15,-6],[3,-2],[4,-3],[3,-4],[11,-16],[12,-18],[-2,-1],[-1,-3],[0,-2],[0,-3],[4,-14],[3,-13],[1,-2],[2,-2],[1,-1],[3,-1],[7,-2],[3,-1],[3,-2],[3,-2],[5,-7],[5,-7],[6,-10],[4,-9],[3,-4],[4,-4],[6,-3]],[[3851,2337],[13,1]],[[3995,2179],[1,-6],[0,-6],[-2,-5],[-7,-12],[-5,-12],[-3,-4],[-3,-3],[-3,-2],[-6,-2],[-4,0]],[[3963,2127],[-8,2],[-6,2],[-12,3],[-2,1]],[[3935,2135],[-5,-1],[-3,-1],[-15,-7],[-3,-1],[-13,-3],[-3,-1],[-3,-2],[-5,-5],[-3,-6],[-12,-23],[-4,-5],[-4,-3],[-6,-2],[-9,-2]],[[3128,462],[5,-18],[18,-94],[14,-53],[35,-36]],[[3302,270],[66,-27],[53,-40],[70,-46],[72,-52],[52,-48],[44,-51],[4,-6]],[[3200,261],[50,1],[52,8]],[[3079,412],[0,-1],[2,-41],[3,-118],[2,-61],[14,-51],[31,-54],[0,-35]],[[3765,0],[0,2],[18,55],[40,25],[25,32],[16,35],[9,46],[4,53],[16,56]],[[2745,0],[-33,53],[-49,29],[-94,24],[-26,7]],[[3191,6],[-23,27],[-37,18]],[[3284,0],[-13,13]],[[3271,13],[-49,-7],[-31,0]],[[3116,59],[15,-8]],[[3021,0],[2,5],[39,46],[54,8]],[[2416,4096],[0,-1],[1,0]],[[793,144],[-11,1],[-8,3],[-6,5],[-6,8],[-3,2],[-7,3],[-31,5],[-25,7]],[[696,178],[-5,-1],[-3,-5],[-3,-18],[1,-6],[3,-4],[8,-2],[16,-2],[9,-4],[6,-8],[6,-9],[7,-18],[5,-8],[7,-7],[15,-11],[5,-4],[1,-7],[-9,-7],[-10,-6],[-41,-30]],[[839,161],[-2,-4],[-8,-5],[-10,-5],[-26,-3]],[[985,914],[-1,1],[-20,10],[0,13],[2,27],[3,2],[11,6],[17,0],[31,0],[21,0],[6,7],[4,4],[0,32],[0,40],[-10,17],[-13,18],[0,19],[0,38],[-12,18],[-10,17],[-2,0],[-32,2]],[[980,1185],[-17,-4],[-8,-2]],[[1120,751],[-15,35],[-8,26],[-33,22],[-26,48],[-22,35]],[[1016,917],[-22,-2],[-9,-1]],[[1275,436],[0,41],[-16,44],[-2,7],[-3,7],[-14,27],[-17,43],[-1,7],[-1,39],[-2,10],[-4,28],[-6,35],[-61,10],[-24,17]],[[1124,751],[-4,0]],[[1049,469],[35,-3],[33,-13],[30,-5],[41,-6],[82,-5],[5,-1]],[[1053,8],[46,66],[35,86],[15,80],[-16,52],[-3,8],[-44,50],[-33,8],[-4,1],[-15,46],[-4,13],[4,35],[15,16]],[[1852,1698],[13,-13],[12,-64],[2,-35],[-7,-19],[-20,-20],[-31,-12],[-46,-34],[-46,-18],[-56,-4],[-18,-23],[-7,-24],[0,-1]],[[1442,2146],[-37,36],[-49,47],[-18,49],[-4,106],[7,85],[-5,37],[-30,37],[-28,29],[-16,47],[-13,30]],[[1558,2023],[-28,17],[-9,32],[-12,47],[0,29],[-25,5]],[[1484,2153],[-42,-7]],[[1634,1898],[-11,61],[-7,44],[-17,20]],[[1599,2023],[-16,0],[-25,0]],[[1727,1797],[0,20],[-16,22],[4,20],[-4,29],[-12,12]],[[1699,1900],[-42,-2],[-23,0]],[[1817,1694],[-12,30],[-35,59],[-13,14]],[[1757,1797],[-12,0],[-18,0]],[[1852,1698],[-17,-4],[-18,0]],[[851,1605],[26,-6],[30,-18],[40,-24]],[[851,1605]],[[1051,1579],[67,-17],[58,-34],[49,-17]],[[947,1557],[37,5],[30,10],[37,7]],[[1435,1562],[44,-5],[9,-12],[5,-8],[16,-40],[7,-18],[40,-45],[5,-1],[46,-11]],[[1225,1511],[57,7],[11,9],[26,23],[45,12],[71,0]],[[1607,1422],[41,9]],[[2057,3054],[0,-25],[-2,-40],[0,-29],[12,-34],[2,-50],[0,-41],[0,-42],[14,-42],[23,-17]],[[2178,2737],[21,-15],[11,-39],[0,-37],[18,-42],[37,-41],[35,-8],[49,-24],[28,-25],[13,-71],[21,-71],[0,-59],[7,-10],[31,-7]],[[2106,2734],[72,3]],[[2490,2288],[14,-42],[30,-12]],[[2449,2288],[41,0]],[[2715,2239],[35,-49]],[[2534,2234],[100,5],[81,0]],[[851,1605],[-8,31],[-41,64],[-40,3],[-37,3],[-25,24],[-25,30],[-15,16],[-8,43],[-14,16],[-3,8],[-18,32],[-2,27],[-9,21],[-27,30],[-25,45],[-9,28]],[[851,1605]],[[2493,1988],[-8,15],[-36,8],[-24,17],[-14,27],[-23,34],[-23,20],[-30,5]],[[2335,2114],[-25,0],[-30,0],[-5,-8],[-16,-19],[-19,-37],[-25,-20],[-28,0],[-37,0],[-18,-14],[-1,-30],[1,-66],[-17,-22],[-41,-22],[-58,-3]],[[2016,1873],[-49,3]],[[1967,1876],[-44,-15],[-11,-39],[0,-54],[-12,-20],[-21,-10],[-16,0],[-18,-17],[4,-19],[3,-4]],[[2525,1247],[-4,-5],[-18,-20],[-12,-29],[-4,-25],[0,-17]],[[1778,1228],[-7,2],[-47,11],[-25,24],[-10,27],[-12,52],[-1,5],[-1,5],[-15,58],[-12,19]],[[2060,1025],[-4,0],[-17,2],[-14,4],[-5,1],[-6,4],[-31,23],[-41,15],[-16,12],[0,14],[-1,30],[-22,57],[-37,36],[-10,10],[-3,1],[-31,4]],[[1822,1238],[-34,-7],[-10,-3]],[[2141,1057],[-33,14],[-1,1],[-27,9]],[[2080,1081],[-13,-29],[-7,-27]],[[2196,1053],[-1,0],[-13,4]],[[2182,1057],[-41,0]],[[1372,3319],[-54,28],[-35,68],[-48,127],[-1,120],[16,69],[43,41],[1,101],[-31,91],[-3,98],[16,34]],[[1476,3347],[-104,-28]],[[3239,3093],[24,-7],[46,-32],[31,-41],[16,-34]],[[3140,3039],[24,13],[40,28],[35,13]],[[2264,1052],[56,53],[67,0],[56,7],[44,39]],[[2207,1064],[57,-12]],[[3422,1729],[24,62]],[[3416,1384],[30,49],[-30,82],[6,74],[-12,107],[12,33]],[[3198,1450],[106,-25],[47,-33],[65,-8]],[[3022,1365],[75,52],[101,33]],[[2711,2132],[126,-25],[124,-33],[142,-90],[177,-99],[71,-74],[71,-82]],[[3422,1729],[1,-1]],[[2157,749],[13,-97],[-24,-91],[42,-49]],[[2235,537],[59,-41]],[[2188,512],[47,25]],[[2377,512],[118,-107],[65,-41],[46,-31]],[[2294,496],[83,16]],[[3922,941],[-1,2]],[[3830,1057],[-3,43]],[[3869,1025],[-31,27]],[[3921,943],[-11,7]],[[3938,923],[-16,18]],[[3952,908],[-3,1]],[[3961,901],[-7,7]],[[4044,815],[1,3]],[[2106,2197],[-25,-88],[14,-35],[-27,-17],[-5,-76],[-62,-141]],[[3772,1422],[21,22]],[[3868,1023],[1,2]],[[3892,984]],[[3895,976],[-1,2]],[[3897,972]],[[3900,964],[-1,0]],[[3954,908],[-2,0]],[[3997,869],[-3,0]],[[4000,869],[-1,0]],[[4005,867],[-2,1]],[[4008,731],[0,1]],[[4009,691],[0,1]],[[4010,706],[2,2]],[[4011,685]],[[4012,616]],[[4013,614]],[[4014,681]],[[4016,860],[-1,1]],[[4017,761]],[[4017,760]],[[4018,757]],[[4018,675]],[[4018,768],[1,0]],[[4019,672]],[[4022,576],[0,1]],[[4023,564],[0,3]],[[4023,556]],[[4024,588]],[[4026,549],[-1,0]],[[4028,851],[-2,1]],[[4031,539],[0,1]],[[4031,788],[1,1]],[[4035,804],[1,0]],[[4037,533],[0,1]],[[4058,531],[-1,0]],[[4082,512],[-5,2]],[[4094,502]],[[1777,2961],[56,-41],[27,21],[35,-10],[-58,-63],[46,-53],[-58,-48],[-5,-32],[-103,25],[-80,-21],[11,-37],[-28,-22],[26,-61],[-33,-29],[-84,13],[-69,-189],[27,-13],[28,-105],[81,-49],[-52,-89],[207,3],[36,-20],[21,-77],[-15,-64],[118,-127],[49,4],[62,-62],[7,-44],[46,-14],[42,-66],[-25,-69]],[[1778,2960],[15,187],[-52,96],[54,148],[-67,63],[78,149],[-19,67],[14,63],[29,19],[92,-10],[53,72],[221,64],[113,140],[52,21]],[[3695,1387],[1,0]],[[3703,1391],[3,1]],[[3775,1402],[1,2]],[[4096,499],[-73,59],[-16,173],[38,90],[-141,132],[-22,52]],[[4096,1442],[-25,7],[-90,-107],[13,-30],[-179,-50],[-22,-72],[60,-48],[-32,-13],[-4,-48],[59,-72]],[[3878,1008],[-2,1]],[[3882,1005],[-3,3]],[[3941,917],[-3,6]],[[3949,909],[-3,2]],[[3964,895],[-3,6]],[[3703,1390]],[[3714,1395],[1,0]],[[4037,806],[7,9]],[[3519,1445],[-1,0]],[[3525,1444],[112,-1],[25,-47],[33,-9]],[[3696,1387],[7,3]],[[3703,1390],[0,1]],[[3706,1392],[8,3]],[[3715,1395],[60,7]],[[3776,1404],[-4,18]],[[4063,1441],[-70,-86]],[[2653,4096],[0,-15]],[[3820,1126],[1,3]],[[3910,950],[-1,0]],[[3984,874],[-11,15]],[[4008,733],[3,3]],[[4016,629],[7,9]],[[4019,769],[9,12]],[[4026,853],[-7,4]],[[4025,641],[2,12]],[[4033,846],[-5,4]],[[4030,786],[1,2]],[[4032,789],[1,2]],[[4039,832],[-1,2]],[[4076,516],[-10,14]],[[2099,1571],[-61,-22],[-73,26],[-66,-123],[-92,40],[-58,-23],[-91,-108],[-6,-143],[-28,4],[4,-15],[-22,-20],[13,34],[21,5],[-21,30],[-40,-65],[-86,54],[-114,9],[-83,-67],[-67,-128],[-2,-72],[41,-95],[150,-139],[29,-60],[-81,-109],[37,-108],[-22,-97],[13,-45],[-61,-46],[-24,-38],[11,-40],[-77,-55],[-44,-64],[-16,-87],[-6,-4]],[[3840,1145],[-11,9]],[[3497,4096],[387,-188],[54,-24],[36,-5],[122,5]],[[4096,3892],[-13,-1],[-110,-12],[-475,217]],[[0,3710],[121,-69],[72,67],[98,42],[155,-146],[56,-20],[-11,-111],[57,-69],[73,-40],[52,39],[45,-15],[27,38],[37,-9],[52,-23],[43,-86],[101,35],[37,74],[141,-20],[117,54],[83,-40],[132,0],[56,41],[85,-35],[131,15]],[[1785,3368],[56,-31],[50,7],[211,-101],[51,-64],[99,-46],[1,-40],[64,-76],[53,-2],[65,-77],[53,-19]],[[2487,2919],[1,0]],[[2488,2919],[103,51]],[[2591,2970],[1,0]],[[2592,2970],[1,1],[6,4]],[[2592,2971]],[[2592,2971],[-1,-1]],[[2592,2970],[0,1]],[[2592,2971],[8,4]],[[2592,2971],[5,2],[3,2]],[[2600,2975],[-1,0]],[[2599,2975]],[[2599,2975],[-7,-4]],[[2599,2975],[-1,-1]],[[2598,2974]],[[2598,2974],[-5,-3]],[[2593,2972],[0,-1]],[[2593,2971],[-1,0]],[[2592,2971],[6,3]],[[2598,2974]],[[2598,2974],[-5,-2]],[[4027,653],[-2,9]],[[4027,654],[0,3],[-2,4]],[[3827,1100],[-7,26]],[[3821,1129],[19,16]],[[3838,1052],[-8,5]],[[3845,1281],[148,30],[0,44]],[[3876,1009],[-8,14]],[[3878,1008],[-2,1]],[[3882,1005],[-3,3]],[[3892,984],[-10,21]],[[3894,978],[-2,6]],[[3897,972],[-2,4]],[[3899,964],[-2,8]],[[3909,950],[-9,14]],[[3946,911],[-5,6]],[[3973,889],[-9,6]],[[3994,869],[-10,5]],[[3999,869],[-2,0]],[[4003,868],[-3,1]],[[4015,861],[-10,6]],[[4012,708],[-4,23]],[[4008,732],[0,1]],[[4009,692],[1,14]],[[4011,685],[-2,6]],[[4011,736],[7,21]],[[4014,681],[-3,4]],[[4012,616],[4,13]],[[4013,614],[-1,2]],[[4024,588],[-11,26]],[[4018,675],[-4,6]],[[4019,857],[-3,3]],[[4017,760],[0,1]],[[4017,761],[1,7]],[[4018,757],[-1,3]],[[4019,672],[-1,3]],[[4019,768],[0,1]],[[4027,653],[-8,19]],[[4023,567],[-1,9]],[[4022,577],[2,11]],[[4023,556],[0,8]],[[4025,549],[-2,7]],[[4023,638],[2,3]],[[4026,852],[0,1]],[[4031,540],[-5,9]],[[4028,850],[0,1]],[[4028,781],[2,5]],[[4031,788]],[[4037,534],[-6,5]],[[4032,789]],[[4038,834],[-5,12]],[[4033,791],[2,13]],[[4036,804],[1,2]],[[4057,531],[-20,2]],[[4045,818],[-6,14]],[[4066,530],[-8,1]],[[4096,1437],[-33,4]],[[4077,514],[-1,2]],[[4094,502],[-12,10]],[[4096,501],[-2,1]],[[3876,1009]],[[3878,1008],[1,0]],[[3882,1005]],[[3829,1154],[4,-4]],[[3834,1149],[-1,2],[-4,3]],[[0,516],[0,169],[8,-2],[12,-9],[10,-14],[15,-14],[41,-28],[137,-181],[6,-4],[19,-5],[6,-4],[2,-8],[5,-26],[3,-9],[15,-24],[10,-12],[10,-5],[14,-3],[15,-7],[11,-11],[9,-26],[11,-9],[24,-13],[50,-42],[210,-111],[79,-108],[11,-10],[-733,0],[0,118],[99,0],[365,0],[-56,27],[-66,7],[-133,-6],[-87,23],[-90,5],[-27,8],[-5,5],[0,262],[7,7],[18,37],[-10,20],[-11,3],[-4,0]],[[733,0],[-11,10],[-79,108],[-210,111],[-50,42],[-24,13],[-11,9],[-9,26],[-11,11],[-15,7],[-14,3],[-10,5],[-10,12],[-15,24],[-3,9],[-5,26],[-2,8],[-6,4],[-19,5],[-6,4],[-137,181],[-41,28],[-15,14],[-10,14],[-12,9],[-8,2]],[[0,449],[7,7],[18,37],[-10,20],[-11,3],[-4,0]],[[0,118],[99,0],[365,0],[-56,27],[-66,7],[-133,-6],[-87,23],[-90,5],[-27,8],[-5,5]],[[2713,4096],[128,-61],[74,-18],[657,-14]],[[3916,3949],[111,-40]],[[3572,4003],[83,2],[164,-22],[97,-34]],[[4027,3909],[69,-25]],[[0,794],[189,-61],[67,-37],[61,-50],[57,-59],[52,-66],[73,-118],[47,-95],[20,-50]],[[874,153],[-56,77],[-73,29],[-164,-1]],[[874,164],[8,-38],[7,-81],[9,-38],[5,-7]],[[1686,2136],[30,-11],[26,-27],[20,-37],[12,-40],[8,-42],[5,-20],[8,-19],[11,-17],[13,-13],[15,-11],[61,-31],[15,-10],[60,-57],[24,-18]],[[1555,2156],[24,-10],[31,-6],[80,-3]],[[2157,1546],[-34,15],[-27,9]],[[2096,1570],[-21,7],[-25,6],[-25,2],[-25,-2],[-25,-7],[-16,-11],[-13,-15],[-10,-18],[-19,-42],[-11,-16],[-13,-11],[-17,-4]],[[2169,1541],[-12,5]],[[1471,2351],[5,-15],[11,-21],[31,-39]],[[2374,4096],[-2,-10],[-11,-25],[-16,-17],[-18,-14],[-38,-22],[-47,-41],[-43,-49],[-46,-41],[-54,-19],[-38,4],[-75,16],[-37,-3],[-31,-13],[-31,-16],[-57,-41],[-54,-48],[-24,-29],[-19,-35],[-5,-16],[-4,-16],[-8,-72],[-3,-20],[-5,-17],[-9,-15],[-9,-15],[-9,-15],[-3,-18],[2,-17],[4,-14],[7,-12],[18,-24],[7,-14],[5,-15],[2,-18],[1,-24],[-5,-96],[0,-25],[2,-24],[5,-24],[13,-49],[6,-25],[10,-141],[-2,-38],[-7,-37],[-14,-32],[-20,-25],[-25,-16],[-27,-11],[-14,-7],[-12,-9],[-11,-16],[-7,-19],[-3,-22],[-1,-21],[4,-87],[-7,-39],[-21,-32],[-12,-9],[-37,-21],[-14,-11],[-13,-12],[-12,-15],[-11,-16],[-11,-19],[-8,-21],[-4,-23],[-1,-24],[3,-26],[3,-8]],[[1518,2276],[10,-13],[11,-19],[7,-23],[1,-11],[1,-11],[-1,-11],[-2,-11],[0,-7],[2,-5],[4,-5],[4,-4]],[[1287,1137],[-18,-44],[-6,-20],[-3,-22],[-1,-23],[7,-36],[14,-28]],[[1442,666],[-22,-44],[-10,-28],[-4,-32],[5,-47]],[[1411,515],[8,-89],[0,-45],[-5,-30],[-7,-29],[-11,-26],[-14,-23],[-87,-96],[-14,-18],[-13,-19],[-7,-15],[-6,-17],[-1,-17],[4,-17]],[[1280,964],[0,-1],[20,-23],[78,-61],[26,-30],[13,-16],[11,-18],[15,-32],[10,-35],[2,-36],[-9,-37],[-4,-9]],[[1886,1459],[-70,18],[-35,2],[-34,-13],[-27,-26],[-23,-34],[-18,-39],[-28,-75],[-15,-33],[-20,-26],[-25,-15],[-24,-3],[-23,4],[-73,25],[-27,7],[-77,2],[-16,-3],[-16,-6],[-14,-11],[-7,-9],[-5,-11],[-4,-12],[-7,-33],[-6,-18],[-5,-13]],[[1256,66],[4,-33],[-3,-6]],[[1257,27],[-12,-27]],[[1255,78],[1,-12]],[[457,3518],[-16,-16],[-12,-17],[-9,-21],[-3,-20]],[[417,3444],[0,-1],[1,-20],[5,-20],[8,-18]],[[470,3531],[-13,-13]],[[2166,1540],[9,-31],[17,-23],[40,-37],[11,-14],[8,-16],[7,-18],[25,-81],[4,-22],[4,-43],[1,-45],[4,-44],[12,-40],[23,-31],[30,-18],[62,-27],[9,-6],[9,-8],[7,-11],[3,-14],[2,-11],[4,-11],[4,-10],[6,-10],[7,-9],[8,-8],[17,-12],[13,-8],[14,-6],[14,-4],[175,-27],[7,-4],[6,-5]],[[602,4096],[13,-33],[20,-74],[8,-39],[4,-39],[0,-40],[-3,-20],[-4,-19],[-7,-18],[-9,-16],[-13,-18],[-19,-21]],[[431,3385],[20,-34],[8,-19],[3,-21],[-1,-15],[-4,-13],[-6,-12],[-8,-10],[-19,-13],[-22,-12],[-20,-13],[-16,-21],[-12,-33],[-5,-37],[-1,-39],[2,-37],[4,-38],[9,-35],[13,-32],[19,-29],[24,-25],[26,-20],[28,-16],[28,-13]],[[506,2854],[24,-17],[22,-19],[42,-46],[20,-27],[15,-32],[7,-35],[-5,-39],[-8,-18],[-9,-17],[-12,-16],[-43,-47],[-9,-14],[-4,-17],[1,-17],[4,-18],[6,-15],[8,-16],[10,-14],[12,-11],[54,-38],[10,-10],[122,-145]],[[4096,1468],[-28,12],[-28,22],[-7,10],[-7,11],[-11,23],[-8,12],[-10,9],[-11,5],[-12,4],[-21,2],[-21,-3],[-20,-7],[-19,-12],[-16,-14],[-14,-16],[-50,-71],[-14,-17],[-14,-14],[-18,-12],[-18,-8],[-19,-3],[-19,1],[-29,9],[-56,26],[-28,10],[-20,2],[-19,-3],[-19,-8],[-83,-61],[-13,-8],[-14,-6],[-52,-15],[-12,-6],[-11,-8],[-10,-14],[-7,-17],[-4,-19],[-1,-20],[-51,9],[-61,3],[-29,5]],[[3192,1281],[-19,9],[-6,4],[-14,11],[-13,12],[-30,36],[-11,11]],[[3099,1364],[-26,21],[-14,7],[-68,23],[-56,9],[-28,1],[-53,-7]],[[2854,1418],[-8,-3],[-12,-7],[-24,-18],[-12,-6],[-10,-1],[-10,3],[-8,7],[-6,12],[-3,13],[-3,11],[-6,9],[-8,8],[-25,8],[-24,-4],[-48,-21],[-21,-3],[-20,3],[-20,8],[-40,28],[-23,12],[-103,28],[-3,50],[0,20],[2,20]],[[4096,801],[-1,0],[-26,3],[-24,-8],[-20,-20],[-13,-31],[-5,-34],[-1,-35],[12,-140],[1,-4],[2,-3],[42,-34],[21,-25],[12,-21]],[[774,2226],[6,25],[8,24],[12,20],[17,12],[75,16],[108,42],[37,6],[38,-2],[36,-12],[34,-18],[33,-23],[153,-145],[44,-32],[21,-12],[23,-8],[24,-3],[23,4],[35,16],[13,3],[28,2],[15,3],[13,6]],[[2751,651],[0,-28],[6,-23],[12,-19],[18,-12],[18,-5],[38,-6],[18,-5],[10,-5],[9,-8],[7,-11],[3,-14],[0,-18],[-4,-19],[-10,-34],[-5,-19],[-2,-20],[1,-19],[4,-19],[5,-15],[13,-29],[4,-15],[2,-37],[-8,-33],[-15,-30],[-26,-41],[-7,-14],[-6,-16],[-4,-16],[-1,-19],[1,-19],[3,-19],[3,-18],[17,-46]],[[2740,635],[-12,125],[-2,61],[2,65]],[[2290,1580],[-8,0],[-59,21],[-23,23]],[[2200,1624],[-29,29]],[[2419,1595],[-71,-14],[-58,-1]],[[36,682],[7,-4],[31,-28],[44,-51]],[[793,2],[1,-2]],[[0,702],[9,-3],[27,-17]],[[118,599],[13,-16],[142,-194],[26,-28],[27,-25],[29,-22],[77,-42],[15,-12],[83,-75],[30,-20],[100,-39],[32,-19],[18,-15],[66,-75],[17,-15]],[[592,3759],[-56,-62],[-28,-39],[-26,-44],[-21,-48]],[[2169,1626],[1,-12],[-1,-29],[-2,-10],[-4,-9],[-5,-6],[-7,-7]],[[1994,1783],[7,-6],[17,-9],[36,-15],[35,-19],[47,-38],[18,-17],[7,-10],[5,-12],[2,-14],[1,-17]],[[3671,3971],[14,19]],[[3644,3992],[27,-21]],[[475,3452],[4,33]],[[420,3299],[73,9],[45,-52],[15,-39],[14,-64],[-27,-62],[42,-77],[-1,-35],[32,-25],[18,-29],[47,-37],[23,13],[22,0],[57,-36],[55,-23],[26,-2],[48,-41],[21,-32],[44,-21],[31,-39],[-27,-39],[1,-45],[-25,-26],[-6,-59],[-12,-23],[14,-14],[6,-66],[59,-23],[13,-34]],[[1449,2166],[-11,-16],[5,-39],[33,-57],[18,-16],[61,-7],[18,-9],[29,-35],[13,-36],[54,-37],[20,-25],[14,-66]],[[1758,1756],[22,-18],[55,-11],[14,-8],[44,-59],[72,-69]],[[0,187],[5,-5],[27,-8],[90,-5],[87,-23],[133,6],[66,-7],[56,-27],[-365,0],[-99,0],[0,69]],[[0,516],[4,0],[11,-3],[10,-20],[-18,-37],[-7,-7],[0,67]],[[4096,4096],[0,-4096],[-3363,0],[-11,10],[-79,108],[-210,111],[-50,42],[-24,13],[-11,9],[-9,26],[-11,11],[-15,7],[-14,3],[-10,5],[-10,12],[-15,24],[-3,9],[-5,26],[-2,8],[-6,4],[-19,5],[-6,4],[-137,181],[-41,28],[-15,14],[-10,14],[-12,9],[-8,2],[0,3411],[4096,0]],[[1412,0],[-160,0],[15,14],[-33,45],[77,26],[101,-85]],[[3238,0],[-195,0],[-30,23],[-12,40],[41,87],[32,15],[-21,54],[34,151],[43,14],[68,-45],[-1,-27],[58,12],[-11,58],[24,23],[53,-87],[31,18],[281,-226],[32,-110],[-66,0],[-18,51],[-93,121],[-164,32],[-66,55],[-43,-54],[70,-49],[12,-105],[-59,-51]],[[827,1113],[156,173],[70,48],[32,-13],[133,-94],[3,-60],[97,-45],[-42,-143],[14,-59],[-47,-37],[-209,42],[-174,113],[-33,75]],[[2436,556],[94,51],[186,7],[33,-21],[9,-129],[-125,-106],[-197,198]],[[878,0],[-87,0],[48,39],[48,2],[-8,-38],[-1,-3]],[[1212,0],[-174,0],[11,86],[61,-19],[72,-63],[45,37],[-15,-41]],[[1097,672],[33,-45],[-72,43],[-26,-21],[0,-67],[-16,11],[0,101],[49,23],[32,-45]],[[1384,677],[55,2],[46,-232],[-34,8],[-13,38],[-1,111],[-58,-196],[-31,117],[-89,34],[-16,68],[28,41],[69,4],[23,26],[21,-21]],[[2303,1669],[24,-28],[-31,-59],[-212,-54],[32,113],[81,-23],[65,113],[28,4],[13,-66]],[[1534,2365],[49,19],[32,-23],[-66,-81],[-63,-7],[-33,21],[24,76],[41,14],[16,-19]],[[3475,2947],[-97,0],[-9,106],[94,-65],[12,-41]],[[2662,3054],[0,-52],[-33,-47],[-189,-30],[-65,45],[18,37],[158,48],[51,-17],[32,45],[28,-29]],[[2699,2925],[-32,-61],[-65,16],[15,32],[82,13]],[[547,3556],[0,-136],[-129,23],[-62,54],[-3,36],[109,-15],[69,60],[16,68],[32,-6],[-32,-84]],[[2702,4096],[-19,-67],[-81,22],[9,45],[91,0]],[[4026,3803],[-33,0],[-97,91],[32,90],[47,-10],[52,-55],[-1,-116]],[[3444,3405],[-66,15],[10,32],[88,14],[-32,-61]],[[4096,3500],[0,-104],[-38,24],[3,38],[35,42]],[[25,675],[75,45],[169,-74],[72,-112],[121,-90],[31,-47],[-12,-25],[-23,22],[-42,-50],[-89,-6],[-33,52],[18,22],[-74,41],[-21,58],[-48,37],[-1,41],[-63,13],[-80,73]]]}