{"objects":{"water":{"type":"GeometryCollection","geometries":[]},"buildings":{"type":"GeometryCollection","geometries":[]},"places":{"type":"GeometryCollection","geometries":[{"type":"Point","properties":{"name:pt":"Nam\u00edbia","name:ps":"\u0646\u06d0\u0645\u0628\u06cc\u0627","name:ka":"\u10dc\u10d0\u10db\u10d8\u10d1\u10d8\u10d0","name:tr":"Namibya","name:cv":"\u041d\u0430\u043c\u0438\u0431\u0438","name:km":"\u178e\u17b6\u1798\u17b8\u1794\u17ca\u17b8","name:cs":"Namibie","name:ki":"Namimbia","name:kw":"Namibi","name:tk":"Namibi\u00fda","name:ku":"Nam\u00eebya","name:ti":"\u1293\u121a\u1262\u12eb","name:ks":"\u0646\u0627\u0645\u0650\u0628\u0650\u06cc\u0627","name:to":"Namipia","name:tl":"Namibya","name:pa":"\u0a28\u0a2e\u0a40\u0a2c\u0a40\u0a06","name:os":"\u041d\u0430\u043c\u0438\u0431\u0438","name:or":"\u0b28\u0b3e\u0b2e\u0b4d\u0b2c\u0b3f\u0b06","name:ce":"\u041d\u0430\u043c\u0438\u0431\u0438","name:ta":"\u0ba8\u0bae\u0bc0\u0baa\u0bbf\u0baf\u0bbe","name:tg":"\u041d\u0430\u043c\u0438\u0431\u0438\u044f","name:ca":"Nam\u00edbia","name:te":"\u0c28\u0c2e\u0c40\u0c2c\u0c3f\u0c2f\u0c3e","name:hu":"Nam\u00edbia","name:ln":"Namibi","name:sr":"\u041d\u0430\u043c\u0438\u0431\u0438\u0458\u0430","name:dz":"\u0f53\u0f0b\u0f58\u0f72\u0f0b\u0f56\u0f72\u0f0b\u0f61","source":"openstreetmap.org","name:nv":"Nam\u00ed\u00edbya","name:kn":"\u0ca8\u0cae\u0cc0\u0cac\u0cbf\u0caf\u0cbe","name:lv":"Nam\u012bbija","name:lt":"Namibija","name:uz":"Namibiya","name:kk":"\u041d\u0430\u043c\u0438\u0431\u0438\u044f","name:he":"\u05e0\u05de\u05d9\u05d1\u05d9\u05d4","min_zoom":2.0,"kind":"country","name:ur":"\u0646\u0627\u0645\u06cc\u0628\u06cc\u0627","name:lb":"Namibien","name:lg":"Namibiya","name:uk":"\u041d\u0430\u043c\u0456\u0431\u0456\u044f","name:hy":"\u0546\u0561\u0574\u056b\u0562\u056b\u0561","name:ug":"\u0646\u0627\u0645\u0649\u0628\u0649\u064a\u06d5","name:li":"Namibi\u00eb","name:hr":"Namibija","name:lo":"\u0e99\u0eb2\u0ea1\u0eb5\u0ec0\u0e9a\u0e8d","population":2113077,"name:el":"\u039d\u03b1\u03bc\u03af\u03bc\u03c0\u03b9\u03b1","name:eo":"Namibio","name":"Namibia","name:ee":"Namibia nutome","name:th":"\u0e1b\u0e23\u0e30\u0e40\u0e17\u0e28\u0e19\u0e32\u0e21\u0e34\u0e40\u0e1a\u0e35\u0e22","name:yi":"\u05e0\u05d0\u05de\u05d9\u05d1\u05d9\u05e2","name:et":"Namiibia","name:nl":"Namibi\u00eb","name:yo":"Or\u00edl\u1eb9\u0301\u00e8de Namibia","name:mt":"Namibja","name:rn":"Namibiya","name:az":"Namibiya","name:mr":"\u0928\u092e\u0940\u092c\u093f\u092f\u093e","name:qu":"Namiwya","name:ar":"\u0646\u0627\u0645\u064a\u0628\u064a\u0627","name:my":"\u1014\u1019\u103a\u1019\u102e\u1038\u1018\u102e\u1038\u101a\u102c\u1038","official_name":"Republic of Namibia;Republiek van Namibia;Republik Namibia","name:is":"Namib\u00eda","name:am":"\u1293\u121a\u1262\u12eb","name:ml":"\u0d28\u0d2e\u0d40\u0d2c\u0d3f\u0d2f","name:ru":"\u041d\u0430\u043c\u0438\u0431\u0438\u044f","name:rw":"Namibiya","id":424311662,"name:mk":"\u041d\u0430\u043c\u0438\u0431\u0438\u0458\u0430","name:af":"Namibi\u00eb","name:zu":"i-Namibia","name:ha":"Namibiya","name:mn":"\u041d\u0430\u043c\u0438\u0431\u0438","name:ff":"Namibii","name:hi":"\u0928\u093e\u092e\u0940\u092c\u093f\u092f\u093e","name:fr":"Namibie","name:wo":"Namibi","name:zh-yue":"\u7d0d\u7c73\u6bd4\u4e9e","name:fy":"Namybje","name:vo":"Namibiy\u00e4n","name:zh":"\u7eb3\u7c73\u6bd4\u4e9a","name:so":"Namiibiya","name:sl":"Namibija","name:sk":"Nam\u00edbia","name:ja":"\u30ca\u30df\u30d3\u30a2","name:si":"\u0db1\u0dd0\u0db8\u0dd3\u0db6\u0dd2\u0dba\u0dcf\u0dc0","name:sh":"Namibija","name:sg":"Namib\u00f9ii","name:sc":"Nam\u00ecbia","name:ne":"\u0928\u093e\u092e\u093f\u092c\u093f\u092f\u093e","name:sa":"\u0928\u092e\u0940\u092c\u093f\u092f\u093e","name:bs":"Namibija","name:bm":"Namibi","name:bn":"\u09a8\u09be\u09ae\u09bf\u09ac\u09bf\u09af\u09bc\u09be","name:bo":"\u0f53\u0f0b\u0f58\u0f72\u0f0b\u0f56\u0f72\u0f0b\u0f61\u0f0d","name:be":"\u041d\u0430\u043c\u0456\u0431\u0456\u044f","name:bg":"\u041d\u0430\u043c\u0438\u0431\u0438\u044f","name:ss":"INamibiya","name:ba":"\u041d\u0430\u043c\u0438\u0431\u0438\u044f","name:sq":"Namibi","name:ko":"\ub098\ubbf8\ube44\uc544","name:ga":"An Namaib","name:gd":"Naimibia","name:ht":"Namibi","name:fa":"\u0646\u0627\u0645\u06cc\u0628\u06cc\u0627","name:gv":"Yn Nameeb","name:gu":"\u0aa8\u0abe\u0aae\u0abf\u0aac\u0abf\u0aaf\u0abe","name:tt":"\u041d\u0430\u043c\u0438\u0431\u0438\u044f"},"coordinates":[653,2050]},{"type":"Point","properties":{"kind":"region","name":"Hardap Region","kind_detail":"state","name:de":"Region Hardap","source":"openstreetmap.org","min_zoom":4.0,"name:ru":"\u0425\u0430\u0440\u0434\u0430\u043f","id":2696418813},"coordinates":[784,179]},{"type":"Point","properties":{"kind":"region","name":"Khomas Region","kind_detail":"state","name:de":"Region Khomas","source":"openstreetmap.org","min_zoom":4.0,"name:ru":"\u041a\u0445\u043e\u043c\u0430\u0441","id":2696418826},"coordinates":[329,2809]},{"type":"Point","properties":{"source":"naturalearthdata.com","kind":"locality","name":"Windhoek","country_capital":true,"population":268132,"min_zoom":5.0,"id":6914},"coordinates":[304,3102]},{"type":"Point","properties":{"source":"naturalearthdata.com","kind":"locality","name":"Rehoboth","population":25219,"region_capital":true,"min_zoom":7.0,"id":3313},"coordinates":[299,1914]},{"type":"Point","properties":{"source":"naturalearthdata.com","kind":"locality","name":"Okahandja","population":20879,"region_capital":true,"min_zoom":7.0,"id":3317},"coordinates":[51,4038]}]},"transit":{"type":"GeometryCollection","geometries":[{"type":"LineString","properties":{"source":"openstreetmap.org","kind":"train","name":"StarLine Passenger Services Karasburg","sort_rank":275,"min_zoom":6.0,"osm_relation":true},"arcs":[39]},{"type":"MultiLineString","properties":{"source":"openstreetmap.org","kind":"train","name":"Desert Express","sort_rank":275,"min_zoom":6.0,"osm_relation":true},"arcs":[[40],[41],[42]]}]},"pois":{"type":"GeometryCollection","geometries":[]},"boundaries":{"type":"GeometryCollection","geometries":[{"type":"MultiLineString","properties":{"source":"naturalearthdata.com","kind":"region","name":"Otjozondjupa - Khomas","sort_rank":256,"kind_detail":"4","min_zoom":5.0,"id":6837},"arcs":[[0],[1],[2],[3],[4],[5],[6],[7],[8],[9],[10]]},{"type":"MultiLineString","properties":{"source":"naturalearthdata.com","kind":"region","name":"Omaheke - Khomas","sort_rank":256,"kind_detail":"4","min_zoom":5.0,"id":6839},"arcs":[[11],[12],[13],[14],[15],[16],[17],[18],[19]]},{"type":"MultiLineString","properties":{"source":"naturalearthdata.com","kind":"region","name":"Khomas - Hardap","sort_rank":256,"kind_detail":"4","min_zoom":5.0,"id":6844},"arcs":[[20],[21],[22],[23],[24],[25],[26],[27],[28],[29],[30],[31]]},{"type":"MultiLineString","properties":{"source":"naturalearthdata.com","kind":"region","name":"Omaheke - Hardap","sort_rank":256,"kind_detail":"4","min_zoom":5.0,"id":6846},"arcs":[[32],[33],[34],[35],[36],[37],[38]]}]},"roads":{"type":"GeometryCollection","geometries":[{"type":"LineString","properties":{"source":"naturalearthdata.com","kind":"major_road","sort_rank":379,"kind_detail":"secondary","min_zoom":3.0,"id":45497},"arcs":[43]},{"type":"LineString","properties":{"source":"naturalearthdata.com","kind":"major_road","sort_rank":379,"kind_detail":"secondary","min_zoom":4.0,"id":45498},"arcs":[44]},{"type":"LineString","properties":{"source":"naturalearthdata.com","kind":"major_road","sort_rank":379,"kind_detail":"secondary","min_zoom":4.0,"id":45593},"arcs":[45]},{"type":"LineString","properties":{"source":"naturalearthdata.com","kind":"major_road","kind_detail":"secondary","sort_rank":379,"landuse_kind":"urban_area","min_zoom":4.0,"id":45598},"arcs":[46]},{"type":"LineString","properties":{"source":"naturalearthdata.com","kind":"major_road","sort_rank":379,"kind_detail":"secondary","min_zoom":4.0,"id":45598},"arcs":[47]},{"type":"LineString","properties":{"source":"naturalearthdata.com","kind":"major_road","sort_rank":379,"kind_detail":"secondary","min_zoom":4.0,"id":45599},"arcs":[48]},{"type":"LineString","properties":{"source":"naturalearthdata.com","kind":"major_road","sort_rank":379,"kind_detail":"secondary","min_zoom":4.0,"id":45608},"arcs":[49]},{"type":"LineString","properties":{"source":"naturalearthdata.com","kind":"major_road","sort_rank":379,"kind_detail":"secondary","min_zoom":4.0,"id":45614},"arcs":[50]},{"type":"LineString","properties":{"source":"naturalearthdata.com","kind":"major_road","kind_detail":"secondary","sort_rank":379,"landuse_kind":"urban_area","min_zoom":3.0,"id":45626},"arcs":[51]},{"type":"LineString","properties":{"source":"naturalearthdata.com","kind":"major_road","sort_rank":379,"kind_detail":"secondary","min_zoom":3.0,"id":45626},"arcs":[52]},{"type":"LineString","properties":{"source":"naturalearthdata.com","kind":"major_road","kind_detail":"secondary","sort_rank":379,"landuse_kind":"urban_area","min_zoom":4.0,"id":45627},"arcs":[53]},{"type":"LineString","properties":{"source":"naturalearthdata.com","kind":"major_road","sort_rank":379,"kind_detail":"secondary","min_zoom":4.0,"id":45627},"arcs":[54]},{"type":"LineString","properties":{"source":"naturalearthdata.com","kind":"major_road","kind_detail":"secondary","sort_rank":379,"landuse_kind":"urban_area","min_zoom":3.0,"id":45631},"arcs":[55]},{"type":"LineString","properties":{"source":"naturalearthdata.com","kind":"major_road","kind_detail":"secondary","sort_rank":379,"landuse_kind":"urban_area","min_zoom":3.0,"id":45803},"arcs":[56]},{"type":"LineString","properties":{"source":"naturalearthdata.com","kind":"major_road","sort_rank":379,"kind_detail":"secondary","min_zoom":3.0,"id":45803},"arcs":[57]},{"type":"LineString","properties":{"source":"naturalearthdata.com","kind":"major_road","sort_rank":379,"kind_detail":"secondary","min_zoom":3.0,"id":45914},"arcs":[58]},{"type":"LineString","properties":{"source":"naturalearthdata.com","kind":"major_road","sort_rank":379,"kind_detail":"secondary","min_zoom":3.0,"id":45966},"arcs":[59]},{"type":"LineString","properties":{"source":"naturalearthdata.com","kind":"major_road","sort_rank":379,"kind_detail":"secondary","min_zoom":3.0,"id":46043},"arcs":[60]}]},"earth":{"type":"GeometryCollection","geometries":[{"type":"Polygon","properties":{"sort_rank":10,"source":"naturalearthdata.com","min_zoom":0.0,"kind":"earth","area":392091543542},"arcs":[[61]]}]},"landuse":{"type":"GeometryCollection","geometries":[{"type":"MultiPolygon","properties":{"source":"naturalearthdata.com","kind":"urban_area","name":"","area":240608025,"sort_rank":11,"min_zoom":4.0},"arcs":[[[62]],[[63]]]}]}},"type":"Topology","transform":{"translate":[16.875,-24.5271348226],"scale":[0.0006866455,0.0006308812]},"arcs":[[[876,4058],[17,2],[15,10],[14,11],[11,13],[1,2]],[[846,4059],[30,-1]],[[842,3865],[8,10],[7,13],[14,43],[1,10],[-4,14],[-30,86],[-1,14],[9,4]],[[759,3894],[11,-1],[59,-26],[13,-2]],[[649,3791],[14,2],[69,30],[15,9],[11,10],[2,15],[-3,29],[2,8]],[[616,3865],[8,-7],[5,-14],[8,-33],[5,-14],[7,-6]],[[373,3625],[15,4],[140,67],[19,18],[9,19],[0,49],[2,15],[9,15],[24,30],[12,13],[13,10]],[[325,3692],[10,-10],[9,-14],[8,-18],[10,-15],[11,-10]],[[186,3584],[12,8],[97,83],[15,11],[15,6]],[[138,3636],[12,-8],[11,-14],[8,-16],[10,-13],[7,-1]],[[0,3552],[26,10],[19,1],[17,10],[14,11],[29,30],[15,13],[18,9]],[[1823,4096],[1,-15],[-8,-14],[-11,-9],[-10,-6],[-12,-11],[-12,-27],[-40,-62],[-5,-14],[4,-10],[8,-14],[4,-12],[1,-27],[-8,-13],[-14,-12],[-52,-21],[-14,-2]],[[1655,3827],[-23,0]],[[1632,3827],[-12,-1],[-13,-5],[-6,-13],[-16,-141],[4,-25],[8,-25],[40,-83],[48,-64],[17,-16],[19,-4]],[[1779,3450],[11,-8],[9,-11],[39,-63],[20,-22],[27,-23],[12,-12],[-5,-10],[-49,-26],[-12,-11],[5,-11],[11,-11],[38,-29],[2,-1]],[[1721,3450],[58,0]],[[1947,3259],[7,-5],[4,-11],[41,-206],[19,-166],[7,-31],[41,-125],[5,-46],[3,-169],[10,-8]],[[1887,3212],[3,2],[45,37],[12,8]],[[2213,2531],[3,-10],[0,-14],[-2,-32],[-2,-14],[-5,-8],[-13,-8],[-65,-26],[-7,-5],[-11,-9],[-1,-15],[2,-16],[6,-16],[8,-12],[22,-13],[31,-41],[14,-6],[16,-3],[31,-4],[14,-3],[8,-5],[6,-13],[14,-37],[12,-51],[-9,-11],[-13,-6],[-82,-5],[-14,-5],[-13,-11],[-9,-17],[-7,-20],[-1,-19],[10,-15],[204,-171],[14,-16],[2,-14],[-5,-19],[-87,-219]],[[2084,2492],[15,0],[103,39],[11,0]],[[294,2134],[61,0],[64,-22],[24,-13],[13,-22],[7,-41],[3,-68],[23,-35],[50,-11]],[[0,2009],[37,9],[73,32],[87,65],[97,19]],[[875,1970],[4,-2],[-53,-52],[-10,-14],[-3,-12],[0,-15],[7,-82],[-2,-13],[-8,-6],[-52,-17],[-6,-10],[-1,-14],[18,-96],[7,-7],[7,-4],[24,-8],[11,-5],[5,-6],[3,-13],[12,-141]],[[539,1922],[131,22],[99,5],[83,19],[23,2]],[[2242,1687],[42,-65]],[[1719,1409],[22,3],[28,7],[112,49],[62,16],[17,9],[4,17],[3,33],[4,14],[13,11],[125,59],[100,58],[33,2]],[[1434,1511],[74,-20],[14,-7],[12,-10],[52,-67],[12,-9],[13,-3]],[[1091,1456],[15,2],[12,4],[5,15],[13,14],[21,13],[277,7]],[[847,1460],[244,-4]],[[838,1453],[9,7]],[[1683,1424],[12,-8],[24,-7]],[[1611,1395],[57,26],[15,3]],[[2284,1622],[-2,-21],[134,-264],[9,-7]],[[3434,1384],[35,-7],[14,-13],[6,-15],[6,-282],[101,-12],[500,-3]],[[3315,1279],[8,3],[6,7],[66,85],[17,10],[22,0]],[[2487,1378],[17,-11],[15,-13],[72,-76],[23,-14],[29,-9],[119,-22]],[[2425,1330],[9,6],[25,26],[14,11],[14,5]],[[3066,1346],[79,-5],[10,-4],[-1,-9],[-6,-14],[-2,-13],[5,-12],[29,-4],[135,-6]],[[2762,1233],[19,1],[272,110],[13,2]],[[301,3121],[-20,-195],[26,-43],[69,-16],[-7,-120],[-34,-87],[23,-157],[41,-44],[-11,-199],[28,-35],[43,-322],[240,-319],[278,-758],[68,-108],[285,-235],[116,-113],[22,-57],[122,-76],[18,-42],[-50,-150],[7,-45]],[[0,4077],[54,-33],[42,-146],[88,-137],[120,-316],[-18,-101],[14,-87],[2,-129],[0,-3],[-1,-2]],[[302,3127],[-3,-12]],[[300,3198],[0,-43],[1,-5]],[[50,4017],[0,26],[-12,52],[0,1]],[[0,4055],[14,-6],[36,-32]],[[4096,3392],[-22,4],[-84,-26],[-96,0],[-78,19],[-36,13],[-24,20],[-36,6],[-48,-19],[-54,0],[-54,19],[-66,20]],[[3042,3325],[11,-8],[24,-6]],[[1558,3402],[114,20],[30,13],[90,6],[192,0],[60,-6],[36,-13],[42,-20],[144,-26],[66,-26],[18,0],[48,20],[36,-7],[18,7],[37,32],[30,7],[102,-7],[96,0],[126,-13],[126,-19],[30,-13],[43,-32]],[[3498,3448],[-6,0],[-60,-26],[-97,-26],[-120,-72],[-72,-39]],[[915,3213],[66,32],[66,13],[30,14],[36,26],[48,39],[24,13],[84,26],[72,0],[120,0],[30,0],[67,26]],[[590,3160],[67,40],[48,13],[60,-33],[18,-7],[54,7],[78,33]],[[320,3088],[-24,66],[-6,52],[0,39],[0,1]],[[290,3246],[-6,111],[-18,58],[0,92],[-18,65],[-24,66],[-24,72],[-12,32],[-18,26],[-42,46],[-42,66],[-30,84],[-6,53]],[[320,3088],[61,13]],[[381,3101],[5,1],[84,-14],[72,33],[30,20]],[[314,3030],[6,26],[0,32]],[[301,3005],[13,25]],[[314,1912],[-6,39],[12,59],[6,46],[18,71],[18,105],[-18,65],[12,79],[24,52],[30,39],[18,72],[6,46],[-6,72],[-18,65],[-42,79],[-24,46],[-42,65],[-12,26],[-6,33],[17,34]],[[777,1088],[-18,26],[-36,33],[-78,78],[-49,59],[-102,98],[-30,39],[-84,151],[-18,137],[-12,46],[-6,59],[-24,58],[-6,40]],[[1053,715],[-24,26],[-36,53],[-48,52],[-114,170],[-54,72]],[[1565,0],[-13,22],[-19,46],[-24,26],[0,59],[-12,65],[-48,59],[-84,92],[-60,72],[-114,131],[-84,71],[-42,46],[-12,26]],[[0,0],[0,4096],[4096,0],[0,-4096],[-4096,0]],[[321,3000],[-65,17],[-60,128],[-2,52],[45,49],[82,0],[48,-88],[19,-92],[-67,-66]],[[3088,3261],[-66,20],[33,71],[42,-15],[14,-44],[-23,-32]]]}