{"objects":{"water":{"type":"GeometryCollection","geometries":[{"type":"MultiPolygon","properties":{"kind":"lake","name":"Oulujarvi","reservoir":true,"area":6458804224,"sort_rank":200,"source":"naturalearthdata.com","min_zoom":0.0,"id":1065},"arcs":[[[13]],[[14]]]},{"type":"MultiPolygon","properties":{"source":"naturalearthdata.com","kind":"lake","name":"Pijnne","area":19294957568,"sort_rank":200,"min_zoom":0.0,"id":491},"arcs":[[[15]],[[16]],[[17]]]},{"type":"MultiPolygon","properties":{"sort_rank":200,"source":"naturalearthdata.com","min_zoom":0.0,"kind":"lake","area":10023246568},"arcs":[[[18]],[[19]]]},{"type":"MultiPolygon","properties":{"source":"naturalearthdata.com","kind":"lake","name":"Lake Saimaa","area":42419965952,"sort_rank":200,"min_zoom":0.0,"id":485},"arcs":[[[20]]]},{"type":"MultiLineString","properties":{"source":"naturalearthdata.com","kind":"lake","sort_rank":367,"boundary":true,"min_zoom":0.0,"id":485},"arcs":[[21],[22],[23],[24],[25],[26]]},{"type":"MultiLineString","properties":{"source":"naturalearthdata.com","kind":"lake","sort_rank":367,"boundary":true,"min_zoom":0.0,"id":491},"arcs":[[27],[28],[29],[30]]},{"type":"LineString","properties":{"source":"naturalearthdata.com","kind":"lake","sort_rank":367,"boundary":true,"min_zoom":0.0,"id":557},"arcs":[31]},{"type":"MultiLineString","properties":{"source":"naturalearthdata.com","kind":"lake","sort_rank":367,"boundary":true,"min_zoom":0.0,"id":965},"arcs":[[32],[33]]},{"type":"MultiLineString","properties":{"source":"naturalearthdata.com","kind":"lake","reservoir":true,"sort_rank":367,"boundary":true,"min_zoom":0.0,"id":1065},"arcs":[[34],[35],[36]]}]},"buildings":{"type":"GeometryCollection","geometries":[]},"places":{"type":"GeometryCollection","geometries":[{"type":"Point","properties":{"name:ka":"\u10e4\u10d8\u10dc\u10d4\u10d7\u10d8","name:ko":"\ud540\ub780\ub4dc","name:cv":"\u0424\u0438\u043d\u043b\u044f\u043d\u0434\u0438","name:cu":"\u0421\u043e\u0443\u043c\u044c","name:kl":"Finlandi","name:cs":"Finsko","name:ki":"Ufini","name:co":"Finlandia","name:kv":"\u0424\u0438\u043d\u043b\u044f\u043d\u0434\u0438\u044f","name:ku":"F\u00eenland","name:ti":"\u134a\u1295\u120b\u1295\u12f5","name:ks":"\u092b\u093f\u0928\u094d\u0932\u0948\u0902\u0921","name:to":"Finilani","name:tl":"Pinlandiya","name:ce":"\u0424\u0438\u043d\u043b\u044f\u043d\u0434\u0438","name:ta":"\u0baa\u0bbf\u0ba9\u0bcd\u0bb2\u0bbe\u0ba8\u0bcd\u0ba4\u0bc1","name:tg":"\u0424\u0438\u043d\u043b\u0430\u043d\u0434","name:ca":"Finl\u00e0ndia","name:te":"\u0c2b\u0c3f\u0c28\u0c4d\u0c32\u0c46\u0c02\u0c21\u0c4d","name:cy":"Y Ffindir","name:hr":"Finska","name:da":"Finland","name:de":"Finnland","name:dz":"\u0f55\u0f72\u0f53\u0f0b\u0f63\u0f7a\u0f53\u0f4c\u0f0b","source":"openstreetmap.org","name:kn":"\u0cab\u0cbf\u0ca8\u0ccd\u200c\u0cb2\u0ccd\u0caf\u0cbe\u0c82\u0ca1\u0ccd","name:dv":"\u078a\u07a8\u0782\u07b0\u078d\u07ad\u0782\u07b0\u0791\u07aa","name:km":"\u17a0\u17d2\u179c\u17b6\u17c6\u1784\u17a1\u1784\u17cb","name:lv":"Somija","name:lt":"Suomija","name:uz":"Finlandiya","name:kk":"\u0424\u0438\u043d\u043b\u0430\u043d\u0434\u0438\u044f","name:ur":"\u0641\u0646 \u0644\u06cc\u0646\u0688","name:lb":"Finnland","name:la":"Finnia","name:lg":"Finilandi","name:uk":"\u0424\u0456\u043d\u043b\u044f\u043d\u0434\u0456\u044f","name:ug":"\u0641\u0649\u0646\u0644\u0627\u0646\u062f\u0649\u064a\u06d5","name:li":"Finland","name:ln":"Finilanda","name:lo":"\u0e9f\u0eb4\u0e99\u0ec1\u0ea5\u0e99","name:el":"\u03a6\u03b9\u03bd\u03bb\u03b1\u03bd\u03b4\u03af\u03b1","name:eo":"Finnlando","name:en":"Finland","name":"Suomi","name:ee":"Finland","name:th":"\u0e1b\u0e23\u0e30\u0e40\u0e17\u0e28\u0e1f\u0e34\u0e19\u0e41\u0e25\u0e19\u0e14\u0e4c","name:eu":"Finlandia","name:et":"Soome","name:es":"Finlandia","name:ia":"Finlandia","name:rm":"Finlanda","name:rn":"Finilandi","name:az":"Finlandiya","name:ie":"Finland","name:id":"Finlandia","name:ar":"\u0641\u0646\u0644\u0646\u062f\u0627","name:io":"Finlando","name:ak":"Finland","name:am":"\u134a\u1295\u120b\u1295\u12f5","name:it":"Finlandia","name:an":"Finlandia","name:ru":"\u0424\u0438\u043d\u043b\u044f\u043d\u0434\u0438\u044f","name:af":"Finland","name:zu":"i-Finland","name:ky":"\u0424\u0438\u043d\u043b\u044f\u043d\u0434\u0438\u044f","name:zh":"\u82ac\u5170","name:so":"Finland","name:sn":"Finland","name:sm":"Finalagi","name:sl":"Finska","name:sk":"F\u00ednsko","name:ja":"\u30d5\u30a3\u30f3\u30e9\u30f3\u30c9","name:si":"\u0dc6\u0dd2\u0db1\u0dca\u0dbd\u0db1\u0dca\u0dad\u0dba","name:sh":"Finska","name:sg":"F\u00ebl\u00e2nde","name:se":"Suopma","name:sc":"Finlandia","name:br":"Finland","name:bs":"Finska","name:bm":"Finland","name:bn":"\u09ab\u09bf\u09a8\u09b2\u09cd\u09af\u09be\u09a8\u09cd\u09a1","name:bo":"\u0f67\u0fa5\u0f72\u0f53\u0f0b\u0f63\u0f53","name:sa":"\u092b\u093f\u0928\u094d\u0932\u0948\u0902\u0921","name:sw":"Ufini","name:be":"\u0424\u0456\u043d\u043b\u044f\u043d\u0434\u044b\u044f","name:bg":"\u0424\u0438\u043d\u043b\u0430\u043d\u0434\u0438\u044f","name:ba":"\u0424\u0438\u043d\u043b\u044f\u043d\u0434\u0438\u044f","name:sq":"Finlanda","name:pt":"Finl\u00e2ndia","name:ps":"\u0641\u0646\u0644\u06cc\u0646\u0689","name:mt":"Finlandja","name:oc":"Finl\u00e0ndia","min_zoom":2.0,"name:ro":"Finlanda","name:sv":"Finland","name:os":"\u0424\u0438\u043d\u043b\u044f\u043d\u0434\u0438","name:or":"\u0b2b\u0b3f\u0b28\u0b32\u0b4d\u0b5f\u0b3e\u0b23\u0b4d\u0b21","name:pl":"Finlandia","name:sr":"\u0424\u0438\u043d\u0441\u043a\u0430","name:tr":"Finlandiya","name:hi":"\u092b\u093c\u093f\u0928\u0932\u0948\u0902\u0921","name:he":"\u05e4\u05d9\u05e0\u05dc\u05e0\u05d3","name:ha":"Finlan","name:hy":"\u0556\u056b\u0576\u056c\u0561\u0576\u0564\u056b\u0561","name:ht":"Fenlann","name:hu":"Finnorsz\u00e1g","name:qu":"Phinsuyu","population":5429894,"kind":"country","name:is":"Finnland","name:yi":"\u05e4\u05d9\u05e0\u05dc\u05d0\u05e0\u05d3","name:yo":"Finlandi","alt_name:el":"\u03a6\u03b9\u03bb\u03b1\u03bd\u03b4\u03af\u03b1","alt_name:eo":"Finnujo;Suomujo;Finlando","name:ms":"Finland","name:mr":"\u092b\u093f\u0928\u0932\u0902\u0921","name:my":"\u1016\u1004\u103a\u101c\u1014\u103a","official_name":"Suomen tasavalta","name:kw":"Pow Finn","name:mg":"Finlandy","name:ml":"\u0d2b\u0d3f\u0d7b\u0d32\u0d3e\u0d7b\u0d21\u0d4d","name:vi":"Ph\u1ea7n Lan","name:mn":"\u0424\u0438\u043d\u043b\u044f\u043d\u0434","id":432424981,"name:mk":"\u0424\u0438\u043d\u0441\u043a\u0430","name:vo":"Suomiy\u00e4n","name:fa":"\u0641\u0646\u0644\u0627\u0646\u062f","name:ff":"Fenland","name:fo":"Finnland","name:fr":"Finlande","name:fy":"Finl\u00e2n","int_name":"Finland","name:nl":"Finland","name:nn":"Finland","name:no":"Finland","name:na":"Finland","name:ne":"\u092b\u093f\u0928\u0932\u094d\u092f\u093e\u0923\u094d\u0921","name:wa":"Finlande","name:wo":"Finlaand","name:ga":"An Fhionlainn","name:gd":"Su\u00f2maidh","name:gn":"H\u0129landia","name:gl":"Finlandia","name:gv":"Finnlynn","name:gu":"\u0aab\u0ac0\u0aa8\u0ab2\u0ac7\u0a82\u0aa1","name:tt":"Finl\u00e2ndi\u00e4"},"coordinates":[886,1084]}]},"transit":{"type":"GeometryCollection","geometries":[{"type":"LineString","properties":{"kind":"train","name":"Helsinki - Kajaani","sort_rank":275,"source":"openstreetmap.org","min_zoom":6.0,"operator":"VR","osm_relation":true,"network":"VR"},"arcs":[12]}]},"pois":{"type":"GeometryCollection","geometries":[]},"boundaries":{"type":"GeometryCollection","geometries":[{"type":"MultiLineString","properties":{"source":"naturalearthdata.com","kind":"region","name":"Kainuu - Northern Savonia","sort_rank":256,"kind_detail":"4","min_zoom":5.5,"id":7555},"arcs":[[0],[1],[2]]},{"type":"LineString","properties":{"source":"naturalearthdata.com","kind":"region","name":"Northern Ostrobothnia - Northern Savonia","sort_rank":256,"kind_detail":"4","min_zoom":5.5,"id":7556},"arcs":[3]},{"type":"LineString","properties":{"source":"naturalearthdata.com","kind":"region","name":"Kainuu - Northern Ostrobothnia","sort_rank":256,"kind_detail":"4","min_zoom":5.5,"id":7557},"arcs":[4]},{"type":"MultiLineString","properties":{"source":"naturalearthdata.com","kind":"region","name":"Northern Savonia - Central Finland","sort_rank":256,"kind_detail":"4","min_zoom":5.5,"id":7561},"arcs":[[5],[6],[7],[8],[9]]},{"type":"MultiLineString","properties":{"source":"naturalearthdata.com","kind":"region","name":"Northern Ostrobothnia - Central Finland","sort_rank":256,"kind_detail":"4","min_zoom":5.5,"id":7562},"arcs":[[10],[11]]}]},"roads":{"type":"GeometryCollection","geometries":[{"type":"LineString","properties":{"kind":"highway","network":"e-road","sort_rank":383,"kind_detail":"motorway","source":"naturalearthdata.com","min_zoom":4.0,"all_networks":["e-road"],"shield_text":"63","ref":"63","id":4643,"all_shield_texts":["63"]},"arcs":[37]},{"type":"LineString","properties":{"kind":"highway","network":"e-road","sort_rank":383,"kind_detail":"motorway","source":"naturalearthdata.com","min_zoom":4.0,"all_networks":["e-road"],"landuse_kind":"urban_area","shield_text":"63","ref":"63","id":4644,"all_shield_texts":["63"]},"arcs":[38]},{"type":"LineString","properties":{"kind":"highway","network":"e-road","sort_rank":383,"kind_detail":"motorway","source":"naturalearthdata.com","min_zoom":4.0,"all_networks":["e-road"],"shield_text":"63","ref":"63","id":4644,"all_shield_texts":["63"]},"arcs":[39]},{"type":"MultiLineString","properties":{"source":"naturalearthdata.com","kind":"major_road","sort_rank":380,"kind_detail":"primary","min_zoom":4.0,"id":4822},"arcs":[[40],[41]]},{"type":"LineString","properties":{"kind":"major_road","network":"e-road","sort_rank":380,"kind_detail":"primary","source":"naturalearthdata.com","min_zoom":4.0,"shield_text":"63","ref":"63","id":4829},"arcs":[42]},{"type":"LineString","properties":{"kind":"major_road","network":"e-road","sort_rank":380,"kind_detail":"primary","source":"naturalearthdata.com","min_zoom":3.0,"shield_text":"75","ref":"75","id":5138},"arcs":[43]},{"type":"LineString","properties":{"kind":"major_road","network":"e-road","sort_rank":380,"kind_detail":"primary","source":"naturalearthdata.com","min_zoom":3.0,"shield_text":"75","ref":"75","id":5139},"arcs":[44]},{"type":"LineString","properties":{"source":"naturalearthdata.com","kind":"major_road","kind_detail":"primary","sort_rank":380,"landuse_kind":"urban_area","min_zoom":7.0,"id":6129},"arcs":[45]},{"type":"MultiLineString","properties":{"source":"naturalearthdata.com","kind":"major_road","sort_rank":380,"kind_detail":"primary","min_zoom":7.0,"id":6129},"arcs":[[46],[47]]},{"type":"LineString","properties":{"source":"naturalearthdata.com","kind":"major_road","sort_rank":380,"kind_detail":"primary","min_zoom":7.0,"id":6130},"arcs":[48]},{"type":"MultiLineString","properties":{"kind":"major_road","network":"e-road","sort_rank":380,"kind_detail":"primary","source":"naturalearthdata.com","min_zoom":4.0,"landuse_kind":"urban_area","shield_text":"63","ref":"63","id":8067},"arcs":[[49],[50]]},{"type":"LineString","properties":{"kind":"major_road","network":"e-road","sort_rank":380,"kind_detail":"primary","source":"naturalearthdata.com","min_zoom":4.0,"landuse_kind":"urban_area","shield_text":"63","ref":"63","id":8067},"arcs":[51]},{"type":"MultiLineString","properties":{"kind":"major_road","network":"e-road","sort_rank":380,"kind_detail":"primary","source":"naturalearthdata.com","min_zoom":4.0,"shield_text":"63","ref":"63","id":8067},"arcs":[[52],[53],[54]]},{"type":"LineString","properties":{"source":"naturalearthdata.com","kind":"major_road","kind_detail":"secondary","sort_rank":379,"landuse_kind":"urban_area","min_zoom":6.0,"id":53926},"arcs":[55]},{"type":"MultiLineString","properties":{"source":"naturalearthdata.com","kind":"major_road","sort_rank":379,"kind_detail":"secondary","min_zoom":6.0,"id":53926},"arcs":[[56],[57]]},{"type":"LineString","properties":{"source":"naturalearthdata.com","kind":"major_road","sort_rank":379,"kind_detail":"secondary","min_zoom":6.0,"id":53931},"arcs":[58]},{"type":"LineString","properties":{"source":"naturalearthdata.com","kind":"major_road","sort_rank":379,"kind_detail":"secondary","min_zoom":6.0,"id":53932},"arcs":[59]}]},"earth":{"type":"GeometryCollection","geometries":[{"type":"MultiPolygon","properties":{"sort_rank":10,"source":"naturalearthdata.com","min_zoom":0.0,"kind":"earth","area":381454597335},"arcs":[[[60]]]}]},"landuse":{"type":"GeometryCollection","geometries":[{"type":"MultiPolygon","properties":{"source":"naturalearthdata.com","kind":"urban_area","name":"","area":3331723172,"sort_rank":11,"min_zoom":4.0},"arcs":[[[61]],[[62]],[[63]],[[64]],[[65]],[[66]],[[67]],[[68]],[[69]],[[70]],[[71]]]}]}},"type":"Topology","transform":{"translate":[25.3125,62.9152330395],"scale":[0.0006866455,0.0003058774]},"arcs":[[[2271,3656],[752,-199],[32,-28],[38,-59],[13,-4],[24,-2]],[[3218,3405],[41,-13],[134,-92],[149,-53],[384,-362],[55,-29],[54,-43],[61,-107]],[[3130,3364],[41,10],[13,16],[-3,9],[-2,3],[39,3]],[[1202,1769],[43,80],[12,33],[7,39],[16,117],[11,47],[31,58],[36,29],[59,30],[6,111],[-55,520],[-20,82],[88,153],[576,496],[259,92]],[[2133,4096],[3,-161],[14,-136],[21,-61],[100,-82]],[[1202,1769],[15,-10],[32,-33],[-10,-44],[-93,-163],[-18,-39],[10,-55],[23,-29],[35,-85],[47,-195],[27,-93],[-2,-40],[-32,-14],[-9,-29],[1,-68],[8,-100],[60,-87],[46,-100],[55,-98],[41,-44],[20,-40]],[[1458,403],[-64,9]],[[1394,412],[-37,-12],[-15,-18],[4,-55],[16,-28],[36,-49],[42,-30],[26,-4],[8,-41],[-20,-42],[-29,-34],[-16,-3]],[[1409,96],[-58,21],[-82,10]],[[1269,127],[-175,-54],[-17,-54],[10,-19]],[[0,2212],[67,-32],[126,-132],[68,-33],[356,-45],[74,-47],[117,-151],[65,-61],[86,-27]],[[959,1684],[85,14],[158,71]],[[3475,0],[-46,78],[57,103],[49,208],[-103,120],[-48,151],[-120,178],[-136,325],[-41,199],[-148,275],[-30,149],[-154,300],[-15,94],[30,145],[-33,72],[36,57],[21,199],[91,84],[95,146],[96,229],[68,347],[79,182],[121,188],[84,267]],[[4057,4096],[1,0],[21,-11],[17,-4],[0,-176],[-42,-20],[-50,4],[-39,28],[-71,89],[-43,35],[-237,44],[-8,8],[-3,3],[454,0]],[[2848,4096],[19,-37],[26,-65],[33,-65],[-19,0],[-50,-44],[-38,70],[-74,54],[-48,52],[19,35],[132,0]],[[958,0],[-38,51],[-105,94],[-25,44],[37,43],[-22,51],[-50,43],[-44,17],[-18,15],[-63,99],[-38,31],[-22,8],[-29,3],[10,-65],[-25,-10],[-39,22],[-36,31],[-87,117],[-32,18],[0,-21],[35,-102],[-3,-24],[-44,-79],[-4,-30],[1,-29],[-1,-30],[-10,-31],[-5,-29],[7,-29],[12,-26],[12,-17],[-25,-1],[-18,-24],[-15,-29],[-18,-13],[-10,10],[-15,54],[-9,27],[-44,37],[-112,20],[-44,53],[25,39],[4,44],[6,29],[36,0],[118,-76],[40,-12],[29,26],[-1,58],[-17,63],[-45,83],[-37,94],[-29,33],[14,16],[15,4],[16,-6],[15,-14],[-8,24],[-9,17],[-10,13],[-12,12],[19,18],[23,7],[19,-14],[18,-81],[21,-12],[26,4],[22,12],[-4,75],[12,119],[-17,29],[17,18],[18,-3],[18,-16],[18,-21],[51,147],[12,79],[11,-40],[15,-96],[-32,-35],[-13,-25],[-5,-30],[5,-12],[30,-53],[14,-11],[18,-49],[13,-10],[15,-5],[162,-173],[74,-56],[50,12],[-23,53],[-30,45],[-33,36],[-34,22],[11,25],[14,19],[24,22],[22,9],[9,-3],[6,-11],[73,-83],[14,-3],[17,4],[20,-3],[19,-20],[-16,-58],[-6,-38],[8,-32],[25,-40],[298,-279],[-47,-32],[-42,20],[-82,100],[-32,30],[-33,16],[-20,-18],[5,-73],[26,-64],[39,-39],[79,-47],[55,-82],[-210,0]],[[1774,0],[-6,8],[-63,54],[-30,35],[-16,45],[62,-15],[52,-40],[82,-87],[-81,0]],[[2029,0],[4,32],[36,44],[-50,73],[-41,83],[29,-13],[25,-31],[46,-70],[71,-80],[39,-26],[40,-4],[-15,23],[-25,67],[-27,40],[-33,39],[-70,52],[-32,34],[-18,60],[18,-6],[36,10],[16,-4],[17,-16],[43,-63],[30,-33],[30,-22],[21,-3],[31,19],[23,5],[34,22],[18,52],[15,58],[27,44],[41,14],[45,-9],[84,-48],[-14,-55],[-24,-3],[-52,49],[-13,8],[-19,5],[-17,-4],[-11,-20],[5,-28],[18,-19],[38,-20],[-12,-2],[-28,-22],[37,-44],[67,-123],[35,-34],[-51,-11],[-109,155],[-58,35],[0,-21],[7,-10],[4,-12],[3,-11],[5,-14],[-26,-21],[20,-52],[40,-55],[18,-14],[-71,0],[-14,40],[-7,14],[-29,-12],[-24,-42],[-226,0]],[[1933,779],[-10,-60],[-14,-39],[18,-44],[-9,0],[6,-21],[3,-10],[0,-14],[-18,4],[-15,-4],[-11,-14],[-10,-21],[-14,-15],[-14,7],[-14,14],[-13,5],[-27,-5],[-12,-17],[4,-33],[14,-24],[51,-43],[42,-55],[19,-37],[9,-42],[2,-50],[10,-41],[15,-32],[23,-23],[0,-23],[-21,-9],[-9,-47],[-20,-10],[-14,7],[-83,86],[-49,72],[-60,22],[-19,21],[-34,59],[7,27],[12,11],[14,-3],[16,-13],[0,21],[-28,18],[-16,32],[2,40],[23,48],[-14,41],[-38,76],[-8,51],[-18,45],[-121,100],[-61,74],[-140,265],[36,1],[44,-17],[41,-31],[29,-45],[-10,-69],[39,-94],[61,-70],[130,-81],[2,13],[5,20],[3,13],[11,-17],[11,-6],[27,-1],[-3,23],[2,37],[6,36],[10,15],[63,-26],[22,4],[8,22],[8,36],[11,21],[18,-22],[16,-32],[19,-21],[21,-3],[19,21],[-23,28],[-20,46],[-32,95],[-14,13],[-18,5],[-16,14],[-14,67],[-17,10],[-67,-8],[-11,6],[-17,17],[-112,177],[-17,46],[43,50],[16,13],[25,4],[13,-6],[7,-9],[8,1],[24,42],[15,6],[14,-3],[13,-11],[-2,-66],[25,-71],[35,-63],[32,-44],[24,45],[32,28],[34,13],[127,-6],[24,-14],[-24,-52],[-14,-24],[-13,-1],[-21,13],[-70,-2],[37,-81],[43,-6],[47,8],[44,-32],[-13,-7],[-13,-10],[-12,-13],[-12,-16],[24,-22],[17,-118],[29,-39],[-63,3],[-17,-3],[-12,-14],[-12,-23],[-14,-21],[-17,-9],[-34,-25],[-16,-55]],[[3800,1399],[-62,58],[-100,139],[-24,48],[27,20],[19,-20],[17,-30],[23,-17],[295,-359],[58,-91],[34,-34],[9,8],[0,-187],[-11,-1],[-26,27],[-22,-3],[-33,-28],[-30,-3],[-10,69],[-50,89],[9,15],[14,36],[8,16],[-9,18],[-19,24],[-8,14],[-6,8],[-13,-2],[-6,5],[0,9],[1,28],[-1,7],[-67,56],[-12,34],[19,0],[-24,47]],[[4096,98],[0,-98],[-123,0],[4,3],[46,8],[21,20],[-21,34],[-13,101],[-15,44],[-32,21],[-30,-17],[-25,-40],[-14,-56],[10,0],[0,-20],[-16,1],[-31,17],[-13,2],[-7,-7],[-16,-28],[-6,-7],[-41,-14],[-16,8],[-14,28],[25,26],[25,18],[-27,28],[-30,14],[-26,-13],[-16,-53],[20,-26],[36,-69],[23,-15],[-10,-8],[-52,0],[-27,32],[-30,22],[11,-38],[7,-15],[1,-1],[-199,0],[-1,8],[-52,41],[-18,5],[-18,-8],[-22,-30],[-18,-8],[1,-8],[-317,0],[-14,8],[20,40],[6,38],[-9,26],[-27,6],[11,49],[8,22],[11,21],[-59,22],[-21,0],[20,45],[-18,12],[-52,15],[-11,7],[-9,32],[-24,18],[-26,6],[-20,-2],[13,39],[21,10],[24,3],[21,16],[-108,66],[-9,-5],[-11,-28],[-11,-9],[-13,7],[-9,15],[-10,10],[-17,-12],[-9,29],[0,21],[9,14],[20,3],[-21,38],[-6,23],[-3,31],[75,-55],[37,-12],[37,22],[-50,67],[-11,26],[-10,29],[-13,23],[-21,10],[-17,19],[-48,91],[-29,25],[60,0],[-7,18],[-14,52],[28,-17],[36,6],[66,31],[-12,75],[-18,79],[-22,41],[-28,-37],[-9,22],[4,19],[2,14],[0,15],[3,19],[-13,-5],[-11,13],[-8,26],[-7,33],[25,30],[24,37],[11,-53],[28,-47],[34,-20],[27,30],[-40,59],[-17,43],[2,44],[9,52],[-15,24],[-23,-12],[-16,-53],[-9,28],[-1,23],[6,23],[9,25],[0,19],[-35,60],[-14,41],[-11,47],[1,42],[24,29],[-16,41],[-1,47],[7,47],[10,45],[-38,40],[-52,27],[-134,36],[-18,-8],[-6,-40],[8,-31],[39,-35],[12,-35],[-53,-7],[-47,7],[4,33],[-5,25],[-12,19],[-16,14],[19,59],[-28,26],[-81,5],[5,10],[3,12],[5,11],[8,11],[-39,61],[-11,33],[24,16],[27,-3],[23,-11],[19,-24],[21,-41],[25,-41],[23,0],[22,18],[24,10],[22,-5],[13,-15],[20,-55],[20,-20],[27,5],[47,28],[10,9],[14,29],[11,6],[4,-6],[5,-28],[6,-10],[41,-50],[18,-49],[0,-63],[-9,-87],[24,-8],[28,-22],[49,-60],[18,-38],[10,-41],[10,-100],[-39,48],[-33,93],[-37,50],[-50,-79],[100,-112],[41,-69],[0,-87],[29,-18],[19,6],[17,26],[18,43],[15,20],[18,14],[17,-4],[7,-30],[-4,-22],[-8,-30],[-7,-35],[-2,-39],[-3,-18],[-7,-21],[-2,-18],[12,-9],[12,2],[10,7],[9,13],[9,24],[18,-42],[-17,-27],[-33,-16],[-29,-5],[-9,-22],[-20,-104],[-20,-33],[80,-88],[-60,-45],[37,0],[17,-6],[17,-17],[-35,-20],[-18,-5],[-18,3],[19,-13],[20,-8],[20,-3],[21,2],[0,-22],[-30,-13],[-23,-27],[-26,-13],[-41,32],[-57,67],[-32,6],[-21,-52],[27,-11],[12,-28],[8,-37],[14,-36],[17,-16],[42,-27],[10,-24],[-12,2],[-25,-4],[-12,2],[0,-22],[80,-19],[39,-25],[30,-48],[-17,-7],[-17,4],[-36,26],[33,-142],[71,-106],[88,-65],[78,-22],[70,0],[20,-11],[19,-19],[20,-14],[21,1],[19,21],[1,41],[-63,79],[-17,56],[65,-37],[29,-31],[4,-41],[31,-20],[17,-41],[13,-50],[19,-48],[30,-36],[38,-25],[40,-4],[32,23],[7,32],[19,53],[7,49],[-32,22],[-20,-7],[-20,-13],[-16,-2],[-14,22],[-7,36],[7,28],[30,47],[-60,78],[-1,34],[-5,24],[-9,14],[-15,6],[23,58],[28,42],[24,3],[15,-58],[9,0],[12,42],[24,36],[27,26],[22,10],[25,-21],[5,-94],[26,-19],[0,-25],[-23,-6],[-22,-24],[-18,-40],[-7,-53],[13,-29],[29,-33],[33,-27],[24,-10],[31,15],[16,40],[8,48],[10,41],[22,6],[89,-7],[24,-9],[11,-51],[41,-50],[50,-39],[38,-15],[2,0],[0,-137],[-2,-1],[0,-20],[2,0]],[[3475,0],[-1,8],[-52,41],[-18,5],[-18,-8],[-22,-30],[-18,-8],[1,-8]],[[3030,0],[-14,8],[20,40],[6,38],[-9,26],[-27,6],[11,49],[8,22],[11,21],[-59,22],[-21,0],[20,45],[-18,12],[-52,15],[-11,7],[-9,32],[-24,18],[-26,6],[-20,-2],[13,39],[21,10],[24,3],[21,16],[-108,66],[-9,-5],[-11,-28],[-11,-9],[-13,7],[-9,15],[-10,10],[-17,-12],[-9,29],[0,21],[9,14],[20,3],[-21,38],[-6,23],[-3,31],[75,-55],[37,-12],[37,22],[-50,67],[-11,26],[-10,29],[-13,23],[-21,10],[-17,19],[-48,91],[-29,25],[60,0],[-7,18],[-14,52],[28,-17],[36,6],[66,31],[-12,75],[-18,79],[-22,41],[-28,-37],[-9,22],[4,19],[2,14],[0,15],[3,19],[-13,-5],[-11,13],[-8,26],[-7,33],[25,30],[24,37],[11,-53],[28,-47],[34,-20],[27,30],[-40,59],[-17,43],[2,44],[9,52],[-15,24],[-23,-12],[-16,-53],[-9,28],[-1,23],[6,23],[9,25],[0,19],[-35,60],[-14,41],[-11,47],[1,42],[24,29],[-16,41],[-1,47],[7,47],[10,45],[-38,40],[-52,27],[-134,36],[-18,-8],[-6,-40],[8,-31],[39,-35],[12,-35],[-53,-7],[-47,7],[4,33],[-5,25],[-12,19],[-16,14],[19,59],[-28,26],[-81,5],[5,10],[3,12],[5,11],[8,11],[-39,61],[-11,33],[24,16],[27,-3],[23,-11],[19,-24],[21,-41],[25,-41],[23,0],[22,18],[24,10],[22,-5],[13,-15],[20,-55],[20,-20],[27,5],[47,28],[10,9],[14,29],[11,6],[4,-6],[5,-28],[6,-10],[41,-50],[18,-49],[0,-63],[-9,-87],[24,-8],[28,-22],[49,-60],[18,-38],[10,-41],[10,-100],[-39,48],[-33,93],[-37,50],[-50,-79],[100,-112],[41,-69],[0,-87],[29,-18],[19,6],[17,26],[18,43],[15,20],[18,14],[17,-4],[7,-30],[-4,-22],[-8,-30],[-7,-35],[-2,-39],[-3,-18],[-7,-21],[-2,-18],[12,-9],[12,2],[10,7],[9,13],[9,24],[18,-42],[-17,-27],[-33,-16],[-29,-5],[-9,-22],[-20,-104],[-20,-33],[80,-88],[-60,-45],[37,0],[17,-6],[17,-17],[-35,-20],[-18,-5],[-18,3],[19,-13],[20,-8],[20,-3],[21,2],[0,-22],[-30,-13],[-23,-27],[-26,-13],[-41,32],[-57,67],[-32,6],[-21,-52],[27,-11],[12,-28],[8,-37],[14,-36],[17,-16],[42,-27],[10,-24],[-12,2],[-25,-4],[-12,2],[0,-22],[80,-19],[39,-25],[30,-48],[-17,-7],[-17,4],[-36,26],[33,-142],[71,-106],[88,-65],[78,-22],[70,0],[20,-11],[19,-19],[20,-14],[21,1],[19,21],[1,41],[-63,79],[-17,56],[65,-37],[29,-31],[4,-41],[31,-20],[17,-41],[13,-50],[19,-48],[30,-36],[38,-25],[40,-4],[32,23],[7,32],[19,53],[7,49],[-32,22],[-20,-7],[-20,-13],[-16,-2],[-14,22],[-7,36],[7,28],[30,47],[-60,78],[-1,34],[-5,24],[-9,14],[-15,6],[23,58],[28,42],[24,3],[15,-58],[9,0],[12,42],[24,36],[27,26],[22,10],[25,-21],[5,-94],[26,-19],[0,-25],[-23,-6],[-22,-24],[-18,-40],[-7,-53],[13,-29],[29,-33],[33,-27],[24,-10],[31,15],[16,40],[8,48],[10,41],[22,6],[89,-7],[24,-9],[11,-51],[41,-50],[50,-39],[38,-15],[2,0]],[[4096,119],[-2,-1],[0,-20],[2,0]],[[3685,32],[-30,22],[11,-38],[7,-15],[1,-1]],[[3973,0],[4,3],[46,8],[21,20],[-21,34],[-13,101],[-15,44],[-32,21],[-30,-17],[-25,-40],[-14,-56],[10,0],[0,-20],[-16,1],[-31,17],[-13,2],[-7,-7],[-16,-28],[-6,-7],[-41,-14],[-16,8],[-14,28],[25,26],[25,18],[-27,28],[-30,14],[-26,-13],[-16,-53],[20,-26],[36,-69],[23,-15],[-10,-8]],[[3712,0],[-27,32]],[[958,0],[-38,51],[-105,94],[-25,44],[37,43],[-22,51],[-50,43],[-44,17],[-18,15],[-63,99],[-38,31],[-22,8],[-29,3],[10,-65],[-25,-10],[-39,22],[-36,31],[-87,117],[-32,18],[0,-21],[35,-102],[-3,-24],[-44,-79],[-4,-30],[1,-29],[-1,-30],[-10,-31],[-5,-29],[7,-29],[12,-26],[12,-17],[-25,-1],[-18,-24],[-15,-29],[-18,-13],[-10,10],[-15,54],[-9,27],[-44,37],[-112,20],[-44,53],[25,39],[4,44],[6,29],[36,0],[118,-76],[40,-12],[29,26],[-1,58],[-17,63],[-45,83],[-37,94],[-29,33],[14,16],[15,4],[16,-6],[15,-14],[-8,24],[-9,17],[-10,13],[-12,12],[19,18],[23,7],[19,-14],[18,-81],[21,-12],[26,4],[22,12],[-4,75],[12,119],[-17,29],[17,18],[18,-3],[18,-16],[18,-21],[51,147],[12,79],[11,-40],[15,-96],[-32,-35],[-13,-25],[-5,-30],[5,-12],[30,-53],[14,-11],[18,-49],[13,-10],[15,-5],[162,-173],[74,-56],[50,12],[-23,53],[-30,45],[-33,36],[-34,22],[11,25],[14,19],[24,22],[22,9],[9,-3],[6,-11],[73,-83],[14,-3],[17,4],[20,-3],[19,-20],[-16,-58],[-6,-38],[8,-32],[25,-40],[298,-279],[-47,-32],[-42,20],[-82,100],[-32,30],[-33,16],[-20,-18],[5,-73],[26,-64],[39,-39],[79,-47],[55,-82]],[[1774,0],[-6,8],[-63,54],[-30,35],[-16,45],[62,-15],[52,-40],[82,-87]],[[2029,0],[4,32],[36,44],[-50,73],[-41,83],[29,-13],[25,-31],[46,-70],[71,-80],[39,-26],[40,-4],[-15,23],[-25,67],[-27,40],[-33,39],[-70,52],[-32,34],[-18,60],[18,-6],[36,10],[16,-4],[17,-16],[43,-63],[30,-33],[30,-22],[21,-3],[31,19],[23,5],[34,22],[18,52],[15,58],[27,44],[41,14],[45,-9],[84,-48],[-14,-55],[-24,-3],[-52,49],[-13,8],[-19,5],[-17,-4],[-11,-20],[5,-28],[18,-19],[38,-20],[-12,-2],[-28,-22],[37,-44],[67,-123],[35,-34],[-51,-11],[-109,155],[-58,35],[0,-21],[7,-10],[4,-12],[3,-11],[5,-14],[-26,-21],[20,-52],[40,-55],[18,-14]],[[2329,0],[-14,40],[-7,14],[-29,-12],[-24,-42]],[[1933,779],[-10,-60],[-14,-39],[18,-44],[-9,0],[6,-21],[3,-10],[0,-14],[-18,4],[-15,-4],[-11,-14],[-10,-21],[-14,-15],[-14,7],[-14,14],[-13,5],[-27,-5],[-12,-17],[4,-33],[14,-24],[51,-43],[42,-55],[19,-37],[9,-42],[2,-50],[10,-41],[15,-32],[23,-23],[0,-23],[-21,-9],[-9,-47],[-20,-10],[-14,7],[-83,86],[-49,72],[-60,22],[-19,21],[-34,59],[7,27],[12,11],[14,-3],[16,-13],[0,21],[-28,18],[-16,32],[2,40],[23,48],[-14,41],[-38,76],[-8,51],[-18,45],[-121,100],[-61,74],[-140,265],[36,1],[44,-17],[41,-31],[29,-45],[-10,-69],[39,-94],[61,-70],[130,-81],[2,13],[5,20],[3,13],[11,-17],[11,-6],[27,-1],[-3,23],[2,37],[6,36],[10,15],[63,-26],[22,4],[8,22],[8,36],[11,21],[18,-22],[16,-32],[19,-21],[21,-3],[19,21],[-23,28],[-20,46],[-32,95],[-14,13],[-18,5],[-16,14],[-14,67],[-17,10],[-67,-8],[-11,6],[-17,17],[-112,177],[-17,46],[43,50],[16,13],[25,4],[13,-6],[7,-9],[8,1],[24,42],[15,6],[14,-3],[13,-11],[-2,-66],[25,-71],[35,-63],[32,-44],[24,45],[32,28],[34,13],[127,-6],[24,-14],[-24,-52],[-14,-24],[-13,-1],[-21,13],[-70,-2],[37,-81],[43,-6],[47,8],[44,-32],[-13,-7],[-13,-10],[-12,-13],[-12,-16],[24,-22],[17,-118],[29,-39],[-63,3],[-17,-3],[-12,-14],[-12,-23],[-14,-21],[-17,-9],[-34,-25],[-16,-55]],[[3800,1399],[-62,58],[-100,139],[-24,48],[27,20],[19,-20],[17,-30],[23,-17],[295,-359],[58,-91],[34,-34],[9,8]],[[4096,934],[-11,-1],[-26,27],[-22,-3],[-33,-28],[-30,-3],[-10,69],[-50,89],[9,15],[14,36],[8,16],[-9,18],[-19,24],[-8,14],[-6,8],[-13,-2],[-6,5],[0,9],[1,28],[-1,7],[-67,56],[-12,34],[19,0],[-24,47]],[[4057,4096],[1,0],[21,-11],[17,-4]],[[4096,3905],[-42,-20],[-50,4],[-39,28],[-71,89],[-43,35],[-237,44],[-8,8],[-3,3]],[[2848,4096],[19,-37],[26,-65],[33,-65],[-19,0],[-50,-44],[-38,70],[-74,54],[-48,52],[19,35]],[[3498,0],[7,13],[14,40],[8,48],[5,51],[1,51]],[[3448,383],[-23,82],[-10,43]],[[3533,203],[-40,71],[-31,70],[-14,38],[0,1]],[[4096,35],[-24,16],[-37,18],[-36,7],[-36,-5],[-34,-14],[-82,-57]],[[3625,0],[-14,16],[-22,34],[-15,36],[-26,79],[-15,38]],[[2859,2195],[4,56],[8,60],[32,146],[32,118],[60,175],[57,119],[16,40],[14,46],[7,51],[-4,54],[-15,49],[-39,85],[-17,46],[-11,52],[-4,54],[4,54],[12,50],[44,105],[11,38],[8,13],[10,8],[10,7],[10,9],[11,19],[6,26],[3,29],[1,32],[-3,111],[2,37],[13,131],[22,81]],[[703,4096],[-39,-445],[-1,-45],[1,-46],[3,-45],[31,-211],[13,-72],[8,-33],[11,-31],[107,-202],[18,-45],[14,-51],[7,-57],[-3,-55],[-11,-50],[-17,-45]],[[871,2702],[-34,-122],[-20,-57],[-22,-52],[-24,-37],[-51,-62],[-24,-38],[-10,-25],[-9,-27],[-39,-181],[-16,-54],[-19,-50],[-141,-295],[-18,-52],[-15,-56],[-12,-61],[-6,-65],[1,-75],[10,-70],[15,-66],[78,-252],[32,-136],[13,-73],[10,-75],[4,-77],[-2,-186],[2,-61],[2,-22],[4,-18],[6,-13],[10,-7],[40,-10],[13,-7],[25,-19],[24,-29],[21,-37],[16,-46],[4,-27],[2,-29],[-2,-28],[-7,-24],[-8,-16],[-18,-27],[-8,-15],[-7,-23]],[[2701,2370],[-72,-8]],[[2629,2362],[-209,-23],[-692,148],[-343,-13],[-124,24],[-332,167],[-6,1],[-65,-7]],[[2876,2345],[-55,21],[-55,11],[-65,-7]],[[858,2659],[-141,90],[-146,17],[-365,-46],[-34,8],[-34,17],[-33,25],[-105,104]],[[3387,629],[-12,49],[-31,101],[-7,19]],[[3415,508],[-23,99]],[[3060,1571],[-26,81]],[[3034,1652],[-8,25],[-49,111],[-41,81],[-38,90],[-18,51],[-13,57],[-7,61],[-1,62],[0,5]],[[3337,798],[-161,411],[-116,362]],[[3392,607],[-5,22]],[[2614,3907],[-5,1]],[[2609,3908],[-67,6],[-56,-8],[-62,3],[-90,11],[-118,-11],[-88,-17],[-73,8],[-86,20],[-44,0],[-93,-6],[-156,18],[-53,-6],[-32,-17],[-58,-66]],[[2731,3917],[-22,-20],[-95,10]],[[1533,3843],[-52,-55],[-61,-28],[-90,-15],[-56,-25],[-85,-104],[-57,-40],[-115,-48],[-91,2],[-23,-2],[-41,-32],[-64,-17],[-58,14],[-37,-14],[-34,-23]],[[669,3456],[-66,37],[-103,40],[-58,6],[-69,-14],[-68,-26],[-42,-23],[-172,-32],[-71,0],[-20,0]],[[4096,4096],[0,-4096],[-4096,0],[0,4096],[3133,0],[963,0]],[[4036,935],[-20,5],[36,19],[-3,-8],[-13,-16]],[[3054,1621],[9,-70],[-33,-36],[-48,72],[-32,-109],[-33,73],[49,37],[16,145],[72,-112]],[[3208,2604],[40,-31],[9,-78],[-34,-31],[-94,0],[-34,31],[16,109],[33,37],[16,-73],[0,36],[32,0],[10,42],[6,-42]],[[2674,2312],[-45,45],[-3,66],[75,-50],[6,-59],[-33,-2]],[[2750,2055],[-44,35],[-15,79],[105,-8],[24,-29],[-24,-63],[-46,-14]],[[2565,4030],[74,19],[19,-28],[-45,-118],[-77,90],[-7,64],[36,-27]],[[137,3944],[-67,5],[0,72],[97,0],[-4,-64],[-26,-13]],[[2490,2732],[7,-55],[-98,36],[42,79],[49,-60]],[[0,2678],[0,140],[36,-61],[1,-44],[-32,-36],[-5,1]],[[3548,752],[49,-73],[-14,-59],[-20,-28],[-27,7],[-51,-99],[90,-156],[-34,-66],[-25,110],[-65,0],[-40,-59],[-41,23],[0,36],[-32,-26],[-24,14],[-50,103],[-13,116],[6,84],[32,0],[0,146],[65,-37],[33,-72],[0,-109],[48,0],[0,-73],[32,-36],[49,181],[-15,53],[-66,20],[59,139],[38,6],[32,-72],[-16,-73]],[[809,694],[-41,47],[-5,10],[43,-27],[3,-30]]]}