{"objects":{"water":{"type":"GeometryCollection","geometries":[]},"buildings":{"type":"GeometryCollection","geometries":[]},"places":{"type":"GeometryCollection","geometries":[{"type":"Point","properties":{"name:pt":"Z\u00e2mbia","name:ps":"\u0632\u06d0\u0645\u0628\u064a\u0627","name:ka":"\u10d6\u10d0\u10db\u10d1\u10d8\u10d0","name:mt":"\u017bambja","name:tr":"Zambiya","name:cv":"\u0417\u0430\u043c\u0431\u0438","name:km":"\u17a0\u17d2\u179f\u17b6\u17c6\u1794\u17ca\u17b8","name:cs":"Zambie","name:tt":"\u0417\u0430\u043c\u0431\u0438\u044f","name:kw":"Zambi","name:tk":"Zambi\u00fda","name:ku":"Zambiya","name:ti":"\u12db\u121d\u1262\u12eb","name:ks":"\u062c\u0627\u0645\u0628\u0650\u06cc\u0627","name:to":"Semipia","name:tl":"Sambya","name:pa":"\u0a1c\u0a3c\u0a3e\u0a02\u0a2c\u0a40\u0a06","name:os":"\u0417\u0430\u043c\u0431\u0438","name:or":"\u0b1c\u0b3e\u0b2e\u0b4d\u0b2c\u0b3f\u0b06","name:ce":"\u0417\u0430\u043c\u0431\u0438","name:ta":"\u0b9a\u0bbe\u0bae\u0bcd\u0baa\u0bbf\u0baf\u0bbe","name:tg":"\u0417\u0430\u043c\u0431\u0438\u044f","name:ca":"Z\u00e0mbia","name:te":"\u0c1c\u0c3e\u0c02\u0c2c\u0c3f\u0c2f\u0c3e","name:ln":"Zambi","name:de":"Sambia","name:dz":"\u0f5b\u0f58\u0f0b\u0f56\u0fb7\u0f72\u0f0b\u0f61","source":"openstreetmap.org","name:kn":"\u0c9d\u0cbe\u0c82\u0cac\u0cbf\u0caf\u0cbe","name:dv":"\u0792\u07ac\u0789\u07b0\u0784\u07a8\u0787\u07a7","name:lv":"Zambija","name:lt":"Zambija","name:uz":"Zambiya","name:kk":"\u0417\u0430\u043c\u0431\u0438\u044f","name:he":"\u05d6\u05de\u05d1\u05d9\u05d4","min_zoom":2.0,"kind":"country","name:ur":"\u0632\u0627\u0645\u0628\u06cc\u0627","name:lb":"Sambia","name:lg":"Zambya","name:uk":"\u0417\u0430\u043c\u0431\u0456\u044f","name:hy":"\u0536\u0561\u0574\u0562\u056b\u0561","name:ug":"\u0632\u0627\u0645\u0628\u0649\u064a\u06d5","name:hr":"Zambija","name:lo":"\u0ec1\u0e8a\u0ea1\u0ec0\u0e9a\u0e8d","population":11668000,"name:el":"\u0396\u03ac\u03bc\u03c0\u03b9\u03b1","name:eo":"Zambio","name":"Zambia","name:ee":"Zambia nutome","name:th":"\u0e1b\u0e23\u0e30\u0e40\u0e17\u0e28\u0e41\u0e0b\u0e21\u0e40\u0e1a\u0e35\u0e22","name:yi":"\u05d6\u05d0\u05de\u05d1\u05d9\u05e2","name:et":"Sambia","name:yo":"Or\u00edl\u1eb9\u0301\u00e8de \u1e63amibia","name:rm":"Sambia","name:rn":"Zambiya","name:az":"Zambiya","name:mr":"\u091d\u093e\u092e\u094d\u092c\u093f\u092f\u093e","name:qu":"Sambya","name:ar":"\u0632\u0627\u0645\u0628\u064a\u0627","name:my":"\u1007\u1019\u103a\u1018\u102e\u101a\u102c","official_name":"Republic of Zambia","name:is":"Samb\u00eda","name:am":"\u12db\u121d\u1262\u12eb","name:ml":"\u0d38\u0d3e\u0d02\u0d2c\u0d3f\u0d2f","name:ru":"\u0417\u0430\u043c\u0431\u0438\u044f","name:rw":"Zambiya","id":432425123,"name:mk":"\u0417\u0430\u043c\u0431\u0438\u0458\u0430","name:af":"Zambi\u00eb","name:zu":"i-Zambia","name:ha":"Zambiya","name:mn":"\u0417\u0430\u043c\u0431\u0438","name:ff":"Sammbi","name:fi":"Sambia","name:hi":"\u091c\u093e\u092e\u094d\u092c\u093f\u092f\u093e","name:fo":"Sambia","name:fr":"Zambie","name:wo":"Saambi","name:zh-yue":"\u8d0a\u6bd4\u4e9e","name:fy":"Sambia","name:vo":"Zambiy\u00e4n","name:zh":"\u8d5e\u6bd4\u4e9a","name:so":"Saambiya","name:sr":"\u0417\u0430\u043c\u0431\u0438\u0458\u0430","name:sl":"Zambija","name:ja":"\u30b6\u30f3\u30d3\u30a2","name:si":"\u0dc3\u0dd0\u0db8\u0dca\u0db6\u0dd2\u0dba\u0dcf\u0dc0","name:sh":"Zambija","name:sg":"Zamb\u00efi","name:se":"Z\u00e1mbia","name:sc":"Z\u00e0mbia","name:ne":"\u091c\u093e\u092e\u094d\u092c\u093f\u092f\u093e","name:sa":"\u091c\u093e\u092e\u094d\u092c\u093f\u092f\u093e","name:bs":"Zambija","name:bm":"Zanbi","name:bn":"\u099c\u09be\u09ae\u09cd\u09ac\u09bf\u09af\u09bc\u09be","name:bo":"\u0f5b\u0f58\u0f0b\u0f56\u0f72\u0f0b\u0f61\u0f0d","name:be":"\u0417\u0430\u043c\u0431\u0456\u044f","name:bg":"\u0417\u0430\u043c\u0431\u0438\u044f","name:ss":"IZambiya","name:ba":"\u0417\u0430\u043c\u0431\u0438\u044f","name:sq":"Zambi","name:ko":"\uc7a0\ube44\uc544","name:ga":"An tSaimbia","name:gd":"Saimbia","name:ht":"Zanbi","name:fa":"\u0632\u0627\u0645\u0628\u06cc\u0627","name:gv":"Yn Tambia","name:gu":"\u0a9d\u0abe\u0aae\u0acd\u0aac\u0abf\u0aaf\u0abe"},"coordinates":[3273,3197]},{"type":"Point","properties":{"source":"openstreetmap.org","kind":"region","name":"Southern Province","id":2696418890,"kind_detail":"state","min_zoom":4.0,"name:de":"S\u00fcdprovinz"},"coordinates":[2075,148]},{"type":"Point","properties":{"source":"naturalearthdata.com","kind":"locality","name":"Mazabuka","population":64006,"min_zoom":6.0,"id":5486},"coordinates":[3564,1172]},{"type":"Point","properties":{"source":"naturalearthdata.com","kind":"locality","name":"Mumbwa","population":19086,"min_zoom":7.0,"id":2318},"coordinates":[2560,2501]}]},"transit":{"type":"GeometryCollection","geometries":[{"type":"LineString","properties":{"source":"openstreetmap.org","kind":"train","name":"Livingstone\u2013Ndola","sort_rank":275,"min_zoom":6.0,"osm_relation":true},"arcs":[31]},{"type":"LineString","properties":{"osm_relation":true,"source":"openstreetmap.org","kind":"train","name":"Pride of Africa","sort_rank":275,"min_zoom":6.0,"operator":"Rovos Rail"},"arcs":[32]}]},"pois":{"type":"GeometryCollection","geometries":[{"type":"Point","properties":{"kind":"protected_area","protect_class":"2","area":23265000000,"name:de":"Kafue-Nationalpark","source":"openstreetmap.org","min_zoom":7.0,"tier":2,"id":-4626459,"osm_relation":true,"name":"Kafue National Park"},"coordinates":[482,1885]}]},"boundaries":{"type":"GeometryCollection","geometries":[{"type":"MultiLineString","properties":{"source":"naturalearthdata.com","kind":"region","name":"Southern - Central","sort_rank":256,"kind_detail":"4","min_zoom":5.0,"id":641},"arcs":[[0],[1],[2],[3],[4],[5],[6],[7]]},{"type":"MultiLineString","properties":{"source":"naturalearthdata.com","kind":"region","name":"Western - Central","sort_rank":256,"kind_detail":"4","min_zoom":5.0,"id":642},"arcs":[[8],[9],[10]]},{"type":"MultiLineString","properties":{"source":"naturalearthdata.com","kind":"region","name":"Central - North-Western","sort_rank":256,"kind_detail":"4","min_zoom":5.0,"id":634},"arcs":[[11],[12],[13],[14],[15],[16],[17]]},{"type":"MultiLineString","properties":{"source":"naturalearthdata.com","kind":"region","name":"Western - North-Western","sort_rank":256,"kind_detail":"4","min_zoom":5.0,"id":643},"arcs":[[18],[19],[20],[21]]},{"type":"MultiLineString","properties":{"source":"naturalearthdata.com","kind":"region","name":"Southern - Western","sort_rank":256,"kind_detail":"4","min_zoom":5.0,"id":644},"arcs":[[22],[23],[24]]},{"type":"MultiLineString","properties":{"source":"naturalearthdata.com","kind":"region","name":"Central - Lusaka","sort_rank":256,"kind_detail":"4","min_zoom":5.0,"id":645},"arcs":[[25],[26]]},{"type":"MultiLineString","properties":{"source":"naturalearthdata.com","kind":"region","name":"Lusaka - Southern","sort_rank":256,"kind_detail":"4","min_zoom":5.0,"id":647},"arcs":[[27],[28],[29],[30]]}]},"roads":{"type":"GeometryCollection","geometries":[{"type":"MultiLineString","properties":{"source":"naturalearthdata.com","kind":"minor_road","kind_detail":"tertiary","sort_rank":355,"landuse_kind":"protected_area","min_zoom":5.0,"id":44112},"arcs":[[33],[34]]},{"type":"MultiLineString","properties":{"source":"naturalearthdata.com","kind":"minor_road","kind_detail":"tertiary","sort_rank":355,"landuse_kind":"protected_area","min_zoom":5.0,"id":44112},"arcs":[[35],[36],[37]]},{"type":"LineString","properties":{"source":"naturalearthdata.com","kind":"minor_road","sort_rank":355,"kind_detail":"tertiary","min_zoom":5.0,"id":44112},"arcs":[38]},{"type":"LineString","properties":{"source":"naturalearthdata.com","kind":"major_road","sort_rank":379,"kind_detail":"secondary","min_zoom":3.0,"id":44142},"arcs":[39]},{"type":"LineString","properties":{"source":"naturalearthdata.com","kind":"minor_road","sort_rank":355,"kind_detail":"tertiary","min_zoom":5.0,"id":44145},"arcs":[40]},{"type":"LineString","properties":{"source":"naturalearthdata.com","kind":"major_road","kind_detail":"secondary","sort_rank":379,"landuse_kind":"urban_area","min_zoom":4.0,"id":44315},"arcs":[41]},{"type":"MultiLineString","properties":{"source":"naturalearthdata.com","kind":"major_road","sort_rank":379,"kind_detail":"secondary","min_zoom":4.0,"id":44315},"arcs":[[42],[43]]},{"type":"LineString","properties":{"source":"naturalearthdata.com","kind":"major_road","sort_rank":379,"kind_detail":"secondary","min_zoom":4.0,"id":44356},"arcs":[44]},{"type":"LineString","properties":{"source":"naturalearthdata.com","kind":"major_road","sort_rank":379,"kind_detail":"secondary","min_zoom":4.0,"id":44432},"arcs":[45]}]},"earth":{"type":"GeometryCollection","geometries":[{"type":"Polygon","properties":{"sort_rank":10,"source":"naturalearthdata.com","min_zoom":0.0,"kind":"earth","area":392091543542},"arcs":[[46]]}]},"landuse":{"type":"GeometryCollection","geometries":[{"type":"MultiPolygon","properties":{"source":"naturalearthdata.com","kind":"urban_area","name":"","area":280188807,"sort_rank":11,"min_zoom":4.0},"arcs":[[[47]]]},{"type":"Polygon","properties":{"kind":"protected_area","protect_class":"98","area":577102020608,"sort_rank":17,"source":"openstreetmap.org","min_zoom":4.0,"tier":2,"id":-4626458,"osm_relation":true},"arcs":[[48]]},{"type":"Polygon","properties":{"kind":"protected_area","protect_class":"2","area":23264999424,"sort_rank":17,"source":"openstreetmap.org","min_zoom":4.0,"tier":2,"id":-4626459,"osm_relation":true},"arcs":[[49]]}]}},"type":"Topology","transform":{"translate":[25.3125,-16.6361918784],"scale":[0.0006866455,0.0006623018]},"arcs":[[[2896,1346],[-15,23],[-16,4],[0,19],[-76,328],[-37,22],[-341,18],[-14,4],[6,10],[35,30],[1,9],[-16,13],[-193,114],[-58,13],[-84,10],[-2070,56]],[[3465,1460],[-9,12],[-6,13],[-9,11],[-7,6],[-7,6],[-18,18],[-3,6],[-1,7],[2,6],[5,5],[6,4],[5,5],[4,5],[-1,6],[-4,5],[-3,7],[-1,9],[2,29],[-2,8],[-4,6],[-24,10],[-5,5],[-2,8],[-1,9],[-1,8],[-3,7],[-8,6],[-75,24],[-8,4],[-1,1],[-1,6],[2,14],[-3,7],[-9,4]],[[3275,1747],[-21,-1],[-11,-5],[-8,-6],[-2,-9],[-1,-11],[-4,-7],[-18,-10],[-4,-6],[-2,-8],[-2,-9],[-2,-8],[-3,-7],[-5,-6],[-4,-4],[-9,-6],[-10,-8],[-5,-6],[-6,-5],[-7,-3],[-8,-2],[-6,-4],[-4,-6],[-3,-7],[-4,-7],[-6,-4]],[[3120,1592],[-8,1],[-22,11],[-28,10]],[[3062,1614],[-8,-1],[-5,-9],[-4,-10],[-121,-220],[-4,-13],[-24,-15]],[[3560,1491],[-6,-4],[-9,-14],[-5,-4]],[[3540,1469],[-10,2],[-16,9],[-9,0]],[[3505,1480],[-16,0],[-9,-6],[-15,-14]],[[122,2263],[10,1],[11,8],[5,9],[2,9],[-4,44],[2,15],[5,7],[22,23],[21,31],[8,17],[5,14],[2,65],[-1,9],[-3,7],[-42,79],[-3,11],[-2,15],[1,30],[3,15],[4,11],[12,15],[9,14],[3,13],[2,18],[3,11],[3,8],[5,6],[5,6],[7,3],[16,6],[8,5],[3,8],[1,9],[-1,17],[4,48],[-9,30],[-1,24],[1,13],[3,11],[8,14],[5,6],[4,7],[13,36],[10,19],[25,40],[9,12],[6,5],[6,4],[5,3],[11,3]],[[95,2267],[9,0],[9,-3],[9,-1]],[[18,2019],[2,104],[-7,55],[1,13],[3,10],[5,5],[44,40],[9,12],[6,5],[6,3],[8,1]],[[2327,4096],[-3,-20],[-1,-39],[3,-57],[-1,-7],[-2,-7],[-8,-8],[-14,-7],[-29,-9],[-14,-7],[-8,-12],[3,-6],[6,-6],[56,-31],[17,-15],[71,-93],[12,-19],[12,-28],[3,-16],[1,-18],[0,-9],[-2,-9],[-2,-9],[-4,-8],[-26,-37],[-8,-13],[-1,-8],[0,-8],[2,-7],[3,-167],[-9,-24],[-7,-9],[-25,-22],[-179,-7],[-21,-8],[-52,-36],[-27,-8]],[[2073,3302],[-120,10]],[[1953,3312],[-16,-3],[-6,-7],[-5,-7],[-8,-4]],[[1918,3291],[-18,2],[-27,14],[-15,5]],[[1858,3312],[-25,-2],[-23,-10],[-19,-14],[-12,-15],[-61,-93],[-93,-73],[-60,-71],[-16,-32],[-9,-77],[-51,-23],[-15,-4]],[[1474,2898],[-15,5],[-10,12],[-9,14],[-10,12],[-65,31],[-37,6],[-22,6],[-17,8],[-10,14],[-11,21],[-5,7],[-9,9],[-805,99]],[[449,3142],[-25,-1],[-26,-5],[-19,-16],[-35,-23]],[[202,3069],[-13,2],[-9,2],[-7,4],[-6,5],[-6,5],[-16,7],[-27,6],[-94,10]],[[24,3110],[-20,-1],[-4,-2]],[[344,3097],[-38,1]],[[306,3098],[-17,-5],[-8,-5],[-33,-16],[-26,-3],[-20,0]],[[18,2019],[8,-21],[16,-26],[3,-7],[3,-7],[0,-9],[-3,-11],[-8,-13],[-13,-14],[-11,-10],[-4,-7],[-3,-9],[-1,-12],[3,-21],[0,-16],[-6,-21],[-2,-5]],[[70,1378],[8,-1],[8,-2],[7,-4],[12,-10],[10,-11],[4,-6],[3,-7],[1,-8],[0,-20],[-22,-162],[-15,-40],[-10,-15],[-10,-10],[-6,-4],[-5,-8],[-2,-12],[0,-20],[4,-11],[5,-8],[4,-6],[1,-7],[-7,-10],[-7,-6],[-13,-10],[-5,-6],[-3,-10],[0,-17],[3,-21],[2,-7],[7,-14],[5,-6],[5,-5],[30,-23],[10,-11],[6,-6],[6,-4],[8,-3],[9,-2],[19,-2],[9,-2],[8,-2],[6,-5],[4,-6],[-1,-8],[-8,-11],[-13,-13],[-5,-7],[-5,-5],[-5,-5],[-6,-3],[-7,-3],[-6,-3],[-7,-4],[-6,-5],[-5,-5],[-4,-6],[-8,-15],[-9,-12],[-11,-10],[-6,-10],[-17,-41],[-13,-23],[-5,-6],[-22,-52]],[[0,1321],[3,0],[8,2],[7,3],[6,4],[10,11],[14,19],[10,11],[5,5],[7,2]],[[3714,2077],[249,-40],[133,-44]],[[3560,1491],[62,132],[154,45],[26,20],[14,17],[2,9],[1,8],[-1,15],[-3,25],[-21,69],[-38,74],[-18,18],[-22,8],[-78,12],[-34,9],[-20,13],[-9,21],[3,16],[12,16],[73,50],[14,6],[18,3],[19,0]],[[3623,1492],[33,-6],[28,-17],[-3,-13],[2,-10],[9,-10],[13,-7]],[[3560,1491],[63,1]],[[3811,1468],[60,-3],[53,-26],[20,-25],[13,-27],[16,-21],[27,-9],[31,-4],[65,-26]],[[3705,1429],[48,24],[58,15]],[[2935,0],[15,117],[57,99],[137,70],[34,176],[-26,107],[117,177],[1,121],[201,291],[117,22],[101,-24],[407,100]],[[2935,0],[15,117],[57,99],[137,70],[34,176],[-26,107],[117,177],[1,121],[201,291],[117,22],[101,-24],[407,100]],[[172,2642],[6,0],[90,-25],[12,-7],[60,-18],[24,-13],[36,-6],[78,-37],[66,-6],[72,-7],[48,-6],[30,0],[66,25],[112,18]],[[1543,2482],[52,16],[49,5]],[[0,2672],[27,-5],[78,-19],[67,-6]],[[872,2560],[2,1],[42,6],[72,-13],[54,-12],[151,-44],[108,-18],[54,-7],[90,-6],[36,0],[54,13],[8,2]],[[1644,2503],[23,2],[30,0],[30,-13],[144,19],[72,12],[67,7],[72,-7],[22,-2]],[[2104,2521],[38,-4],[30,-19],[36,-18],[78,-75],[30,-12],[36,0],[72,12],[54,19]],[[4096,2490],[-14,8],[-42,44],[-24,37],[-18,50],[-6,50],[6,50],[6,56],[18,87],[30,50],[30,25],[14,10]],[[2478,2424],[54,12],[48,0],[48,-19],[36,-18],[24,-31],[48,-38],[66,-31],[30,-12],[91,-13],[30,-6],[102,0],[36,-6],[54,-19],[18,-12],[66,-25],[36,-19],[78,-25],[96,-37],[18,0],[120,-50],[48,-19],[66,13],[48,-19],[37,-25],[108,-87],[54,-37],[48,-32],[36,-24],[54,12],[20,0]],[[3509,1172],[50,-6],[15,-10]],[[3187,555],[0,13],[6,37],[12,31],[18,19],[54,31],[24,38],[12,37],[6,56],[24,44],[12,49],[0,75],[18,44],[24,43],[42,56],[36,32],[30,12],[4,0]],[[3574,1156],[21,-15],[42,-44],[66,-62],[42,-19],[73,-68],[54,-38],[72,-6],[54,13],[48,49],[50,35]],[[3175,300],[-6,56],[6,56],[12,56],[-6,31],[6,56]],[[3175,300],[-24,-37],[-54,-31],[-78,-44],[-12,-12],[0,-32],[-12,-37],[-6,-75],[-12,-31],[-1,-1]],[[4096,3181],[0,-3181],[-963,0],[-3133,0],[0,4096],[4096,0],[0,-915]],[[3567,1203],[14,-43],[-26,-15],[-55,32],[39,38],[28,-12]],[[0,2781],[21,3],[114,178],[-65,133],[-70,-9],[0,962],[93,-14],[36,62],[1127,0],[9,-53],[70,-43],[121,18],[50,-16],[-14,88],[-46,-9],[17,15],[1586,0],[-15,-58],[-47,-37],[52,-127],[-32,-23],[50,-27],[26,-74],[-17,-20],[-43,11],[9,-38],[-36,-47],[23,-51],[-53,-14],[-2,-38],[-63,-31],[-97,-15],[-58,-90],[-53,-18],[-45,24],[-86,-8],[-32,-11],[-2,-33],[-104,-31],[-243,9],[-165,-74],[-46,32],[-47,-7],[-20,-36],[-40,26],[-39,-9],[51,-45],[99,-268],[70,-17],[57,-104],[29,-139],[-45,-174],[179,-128],[4,-198],[-146,-109],[-24,-94],[28,-44],[125,2],[22,-38],[-22,-35],[-141,-35],[-47,-95],[-191,-213],[-135,-33],[-100,10],[-136,-57],[-138,-100],[6,-90],[-46,-65],[-87,7],[-45,68],[-152,10],[11,-101],[-75,-108],[-45,-123],[17,-101],[107,-78],[65,-104],[16,123],[291,-120],[85,-8],[48,25],[17,63],[83,-20],[28,-35],[-25,-57],[112,-33],[10,-37],[-35,-80],[20,-95],[-22,-244],[13,-164],[-1760,0],[0,2781]],[[0,1902],[39,41],[-31,78],[22,73],[-20,96],[86,68],[69,10],[-5,85],[58,67],[4,113],[-47,77],[-5,58],[38,93],[46,34],[-9,150],[154,211],[-24,453],[-39,64],[103,182],[91,24],[194,-61],[405,14],[93,-35],[167,-8],[192,-171],[-33,-68],[31,-60],[-81,7],[35,-55],[-37,-21],[94,-30],[-36,-80],[57,-46],[-3,-60],[26,-35],[-36,-14],[13,-26],[22,-16],[108,59],[11,57],[67,55],[56,-49],[99,-268],[70,-17],[57,-104],[29,-139],[-16,-117],[-117,-47],[-270,50],[-105,-115],[-46,-19],[-106,70],[-60,-29],[-80,0],[-184,40],[-94,93],[-80,-33],[-13,-35],[-68,51],[-24,-30],[12,-69],[87,4],[78,-83],[-44,-15],[3,-49],[-87,-132],[42,-26],[5,-145],[-34,-94],[14,-64],[41,-46],[-67,-56],[38,-73],[40,-19],[-21,-62],[45,-70],[-61,-155],[36,-101],[45,-35],[11,-101],[-103,-165],[-12,-134],[119,-111],[65,-104],[-62,-682],[-255,16],[-36,24],[-81,1],[-105,81],[-42,-19],[7,67],[-44,63],[23,68],[-9,73],[36,34],[-38,45],[33,120],[-25,44],[8,51],[-93,12],[-77,-24],[-85,19],[-87,143],[-100,20],[-64,50],[-11,57],[43,73],[-12,51],[62,113],[-13,53],[32,58],[-2,53],[-49,46],[-61,-66],[-12,-1],[0,577]]]}