{"objects":{"water":{"type":"GeometryCollection","geometries":[]},"buildings":{"type":"GeometryCollection","geometries":[]},"places":{"type":"GeometryCollection","geometries":[]},"transit":{"type":"GeometryCollection","geometries":[]},"pois":{"type":"GeometryCollection","geometries":[]},"boundaries":{"type":"GeometryCollection","geometries":[{"type":"LineString","properties":{"name:kg":"Misiri","alt_name:ce":"\u0415\u0433\u0438\u0301\u043f\u0435\u0442","name:ty":"\u2019Aifiti","name:ka":"\u10d4\u10d2\u10d5\u10d8\u10de\u10e2\u10d4","name:tr":"M\u0131s\u0131r","name:ts":"Gibita","name:km":"\u17a2\u17c1\u17a0\u17ca\u17d2\u179f\u17b8\u1794","name:kl":"Egypt","name:kk":"\u041c\u044b\u0441\u044b\u0440","name:tw":"Egypt","name:tt":"\u041c\u0438\u0441\u044b\u0301\u0440","name:kw":"Ejyp","name:tk":"M\u00fcs\u00fcr","name:ku":"Misir","name:ti":"\u130d\u1265\u133d","name:ks":"\u0645\u0650\u0633\u0631","name:to":"\u02bbIsipite","name:tl":"Ehipto","name:ce":"\u041c\u0438\u0441\u0430\u0440","name:ta":"\u0b8e\u0b95\u0bbf\u0baa\u0bcd\u0ba4\u0bc1","name:tg":"\u041c\u0438\u0441\u0440","name:ky":"\u0415\u0433\u0438\u043f\u0435\u0442","name:te":"\u0c08\u0c1c\u0c3f\u0c2a\u0c4d\u0c1f\u0c41","alt_name:ts":"Egypt","alt_name:ln":"Ejipiti;Misiri","name:cy":"Yr Aifft","name:hr":"Egipat","alt_name:ty":"Egipt","name:de":"\u00c4gypten","source":"openstreetmap.org","name:kn":"\u0c88\u0c9c\u0cbf\u0caa\u0ccd\u0c9f\u0ccd","alt_name:th":"\u0e2d\u0e35\u0e22\u0e34\u0e1b\u0e15\u0e4c","name:dv":"\u0789\u07a8\u079e\u07b0\u0783\u07aa","name:cu":"\u0404\u0433\u0477\u043f\u0442\u044a","alt_name:da":"\u00c6gypten","name:lv":"\u0112\u0123ipte","name:lt":"Egiptas","name:uz":"Misr","name:cs":"Egypt","name:lb":"Egypten","name:la":"Aegyptus","name:ki":"Egypt","name:uk":"\u0404\u0433\u0438\u0301\u043f\u0435\u0442","name:ug":"\u0645\u0649\u0633\u0649\u0631","name:li":"Egypte","name:ln":"Ejipte","name:lo":"\u0ead\u0eb5\u0ea2\u0eb4\u0e9a","name:el":"\u0391\u03af\u03b3\u03c5\u03c0\u03c4\u03bf\u03c2","name:eo":"Egiptujo","name:en":"Egypt","name":"\u0645\u0635\u0631","name:kv":"\u0415\u0433\u0438\u043f\u0435\u0442","name:ee":"Edzipti","name:th":"\u0e1b\u0e23\u0e30\u0e40\u0e17\u0e28\u0e2d\u0e35\u0e22\u0e34\u0e1b\u0e15\u0e4c","name:eu":"Egipto","name:et":"Egiptus","name:es":"Egipto","name:ia":"Egypto","name:rm":"Egipta","name:rn":"Egipto","name:az":"Misir","name:ie":"Egiptia","name:id":"Mesir","name:ig":"Egypt","name:as":"\u0987\u099c\u09bf\u09aa\u09cd\u09a4","name:pa":"\u0a2e\u0a3f\u0a38\u0a30","name:io":"Egiptia","name:ak":"Igyipt","name:am":"\u130d\u1265\u1345","name:it":"Egitto","name:an":"Echipto","name:ru":"\u0415\u0433\u0438\u0301\u043f\u0435\u0442","name:ab":"\u041c\u044b\u0301\u0441\u0440\u044b","name:af":"Egipte","name:zu":"iGibhithe","kind_detail":"2","name:za":"Aehciz","name:zh-yue":"\u57c3\u53ca","alt_name:rn":"Misiri","name:zh":"\u57c3\u53ca","name:so":"Masar","name:sn":"Egypt","name:sm":"Aikupito","name:sl":"Egipt","name:sk":"Egypt","alt_name:ba":"\u0415\u0433\u0438\u043f\u0435\u0442","name:si":"\u0d8a\u0da2\u0dd3\u0db4\u0dca\u0dad\u0dd4\u0dc0","name:sh":"Egipat","name:sg":"K\u00e2mit\u00e2","name:se":"Egypta","name:sc":"Egittu","name:br":"Egipt","name:bs":"Egipat","name:bm":"Misra","name:bn":"\u09ae\u09bf\u09b6\u09b0","name:bo":"\u0f68\u0f60\u0f72\u0f0b\u0f45\u0f72\u0f0d","name:sa":"\u0908\u091c\u093f\u092a\u094d\u0924\u0926\u0947\u0936\u0903","alt_name:br":"Ejipt","name:sw":"Misri","name:be":"\u0415\u0433\u0456\u0301\u043f\u0435\u0442","name:su":"Mesir","name:bg":"\u0415\u0433\u0438\u043f\u0435\u0442","name:ss":"iGibhithe","name:sr":"\u0415\u0433\u0438\u043f\u0430\u0442","name:sq":"Egjipti","alt_name:sq":"Misiri","alt_name:kg":"Ngipiti","name:jv":"Mesir","alt_name:ky":"\u041c\u0438\u0441\u0438\u0440","alt_name:sl":"Misr","name:pt":"Egito","name:da":"Egypten","name:om":"Ijiipti","name:oc":"Egipte","alt_name:gd":"\u00c8iphit","min_zoom":8.0,"name:ro":"Egipt","name:ko":"\uc774\uc9d1\ud2b8","name:zh-min-nan":"Ai-ki\u030dp","name:os":"\u041c\u044b\u0441\u044b\u0440","name:or":"\u0b07\u0b1c\u0b3f\u0b2a\u0b4d\u0b1f","name:pl":"Egipt","alt_name:gv":"Eajipt","alt_name:gu":"\u0aae\u0abf\u0ab8\u0ab0","name:pi":"\u0908\u091c\u093f\u092a\u094d\u091f","name:st":"Egepeta","sort_rank":262,"name:ba":"\u041c\u044b\u0441\u044b\u0440","osm_relation":true,"alt_name:as":"\u09ae\u09bf\u099b\u09f0","name:hi":"\u092e\u093f\u0938\u094d\u0930","name:sv":"Egypten","name:he":"\u05de\u05e6\u05e8\u05d9\u05dd","name:ha":"Misra","name:ja":"\u30a8\u30b8\u30d7\u30c8","name:hy":"\u0535\u0563\u056b\u057a\u057f\u0578\u057d","name:ht":"Ejip","name:hu":"Egyiptom","name:qu":"Ihiptu","kind":"country","name:is":"Egyptaland","alt_name:is":"Egiptaland","name:yi":"\u05e2\u05d2\u05d9\u05e4\u05d8\u05df","name:yo":"\u1eb8\u0301g\u00edpt\u00ec","name:mt":"E\u0121ittu","alt_name:eo":"Egipto;Egiptio","name:ms":"Mesir","name:mr":"\u0907\u091c\u093f\u092a\u094d\u0924","alt_name:ee":"Egipte","name:my":"\u1021\u102e\u1002\u103b\u1005\u103a\u1014\u102d\u102f\u1004\u103a\u1004\u1036","official_name":"\u062c\u0645\u0647\u0648\u0631\u064a\u0629 \u0645\u0635\u0631 \u0627\u0644\u0639\u0631\u0628\u064a\u0629","int_name":"Egypt \u0645\u0635\u0631","name:mg":"Ejipta","name:vi":"Ai C\u1eadp","name:ml":"\u0d08\u0d1c\u0d3f\u0d2a\u0d4d\u0d24\u0d4d","name:mn":"\u0415\u0433\u0438\u043f\u0435\u0442","id":-1473947,"name:mk":"\u0415\u0433\u0438\u043f\u0435\u0442","name:vo":"L\u00e4g\u00fcpt\u00e4n","old_name:fi":"Yhdistynyt arabitasavalta","name:ff":"Ejipt","name:fi":"Egypti","name:fj":"Ijipta","name:fo":"Egyptaland","name:fr":"\u00c9gypte","name:ca":"Egipte","name:fy":"Egypte","alt_name:qu":"Misir","name:nl":"Egypte","name:nn":"Egypt","name:no":"Egypt","name:na":"Idjipt","name:ne":"\u092e\u093f\u0936\u094d\u0930","name:wa":"Edjipe","name:wo":"Isipt","name:nv":"\u00cd\u00edjip","name:ga":"An \u00c9igipt","name:gd":"An \u00c8ipheit","name:gn":"Ehipto","name:gl":"Exipto","alt_name:wo":"Ejipt","name:gv":"Yn Egypt","name:gu":"\u0a87\u0a9c\u0abf\u0aaa\u0acd\u0aa4","name:lg":"Egypt"},"arcs":[0]},{"type":"LineString","properties":{"name:kg":"Misiri","alt_name:ce":"\u0415\u0433\u0438\u0301\u043f\u0435\u0442","name:ty":"\u2019Aifiti","name:ka":"\u10d4\u10d2\u10d5\u10d8\u10de\u10e2\u10d4","name:tr":"M\u0131s\u0131r","name:ts":"Gibita","name:km":"\u17a2\u17c1\u17a0\u17ca\u17d2\u179f\u17b8\u1794","name:kl":"Egypt","name:kk":"\u041c\u044b\u0441\u044b\u0440","name:tw":"Egypt","name:tt":"\u041c\u0438\u0441\u044b\u0301\u0440","name:kw":"Ejyp","name:tk":"M\u00fcs\u00fcr","name:ku":"Misir","name:ti":"\u130d\u1265\u133d","name:ks":"\u0645\u0650\u0633\u0631","name:to":"\u02bbIsipite","name:tl":"Ehipto","name:ce":"\u041c\u0438\u0441\u0430\u0440","name:ta":"\u0b8e\u0b95\u0bbf\u0baa\u0bcd\u0ba4\u0bc1","name:tg":"\u041c\u0438\u0441\u0440","name:ky":"\u0415\u0433\u0438\u043f\u0435\u0442","name:te":"\u0c08\u0c1c\u0c3f\u0c2a\u0c4d\u0c1f\u0c41","alt_name:ts":"Egypt","alt_name:ln":"Ejipiti;Misiri","name:cy":"Yr Aifft","name:hr":"Egipat","alt_name:ty":"Egipt","name:de":"\u00c4gypten","source":"openstreetmap.org","name:kn":"\u0c88\u0c9c\u0cbf\u0caa\u0ccd\u0c9f\u0ccd","alt_name:th":"\u0e2d\u0e35\u0e22\u0e34\u0e1b\u0e15\u0e4c","name:dv":"\u0789\u07a8\u079e\u07b0\u0783\u07aa","name:cu":"\u0404\u0433\u0477\u043f\u0442\u044a","alt_name:da":"\u00c6gypten","name:lv":"\u0112\u0123ipte","name:lt":"Egiptas","name:uz":"Misr","name:cs":"Egypt","name:lb":"Egypten","name:la":"Aegyptus","name:ki":"Egypt","name:uk":"\u0404\u0433\u0438\u0301\u043f\u0435\u0442","name:ug":"\u0645\u0649\u0633\u0649\u0631","name:li":"Egypte","name:ln":"Ejipte","name:lo":"\u0ead\u0eb5\u0ea2\u0eb4\u0e9a","name:el":"\u0391\u03af\u03b3\u03c5\u03c0\u03c4\u03bf\u03c2","name:eo":"Egiptujo","name:en":"Egypt","name":"\u0645\u0635\u0631","name:kv":"\u0415\u0433\u0438\u043f\u0435\u0442","name:ee":"Edzipti","name:th":"\u0e1b\u0e23\u0e30\u0e40\u0e17\u0e28\u0e2d\u0e35\u0e22\u0e34\u0e1b\u0e15\u0e4c","name:eu":"Egipto","name:et":"Egiptus","name:es":"Egipto","name:ia":"Egypto","name:rm":"Egipta","name:rn":"Egipto","name:az":"Misir","name:ie":"Egiptia","name:id":"Mesir","name:ig":"Egypt","name:as":"\u0987\u099c\u09bf\u09aa\u09cd\u09a4","name:pa":"\u0a2e\u0a3f\u0a38\u0a30","name:io":"Egiptia","name:ak":"Igyipt","name:am":"\u130d\u1265\u1345","name:it":"Egitto","name:an":"Echipto","name:ru":"\u0415\u0433\u0438\u0301\u043f\u0435\u0442","name:ab":"\u041c\u044b\u0301\u0441\u0440\u044b","name:af":"Egipte","name:zu":"iGibhithe","kind_detail":"2","name:za":"Aehciz","name:zh-yue":"\u57c3\u53ca","alt_name:rn":"Misiri","name:zh":"\u57c3\u53ca","name:so":"Masar","name:sn":"Egypt","name:sm":"Aikupito","name:sl":"Egipt","name:sk":"Egypt","alt_name:ba":"\u0415\u0433\u0438\u043f\u0435\u0442","name:si":"\u0d8a\u0da2\u0dd3\u0db4\u0dca\u0dad\u0dd4\u0dc0","name:sh":"Egipat","name:sg":"K\u00e2mit\u00e2","name:se":"Egypta","name:sc":"Egittu","name:br":"Egipt","name:bs":"Egipat","name:bm":"Misra","name:bn":"\u09ae\u09bf\u09b6\u09b0","name:bo":"\u0f68\u0f60\u0f72\u0f0b\u0f45\u0f72\u0f0d","name:sa":"\u0908\u091c\u093f\u092a\u094d\u0924\u0926\u0947\u0936\u0903","alt_name:br":"Ejipt","name:sw":"Misri","name:be":"\u0415\u0433\u0456\u0301\u043f\u0435\u0442","name:su":"Mesir","name:bg":"\u0415\u0433\u0438\u043f\u0435\u0442","name:ss":"iGibhithe","name:sr":"\u0415\u0433\u0438\u043f\u0430\u0442","name:sq":"Egjipti","alt_name:sq":"Misiri","alt_name:kg":"Ngipiti","name:jv":"Mesir","alt_name:ky":"\u041c\u0438\u0441\u0438\u0440","alt_name:sl":"Misr","name:pt":"Egito","name:da":"Egypten","name:om":"Ijiipti","name:oc":"Egipte","alt_name:gd":"\u00c8iphit","min_zoom":8.0,"name:ro":"Egipt","name:ko":"\uc774\uc9d1\ud2b8","name:zh-min-nan":"Ai-ki\u030dp","name:os":"\u041c\u044b\u0441\u044b\u0440","name:or":"\u0b07\u0b1c\u0b3f\u0b2a\u0b4d\u0b1f","name:pl":"Egipt","alt_name:gv":"Eajipt","alt_name:gu":"\u0aae\u0abf\u0ab8\u0ab0","name:pi":"\u0908\u091c\u093f\u092a\u094d\u091f","name:st":"Egepeta","sort_rank":262,"name:ba":"\u041c\u044b\u0441\u044b\u0440","osm_relation":true,"alt_name:as":"\u09ae\u09bf\u099b\u09f0","name:hi":"\u092e\u093f\u0938\u094d\u0930","name:sv":"Egypten","name:he":"\u05de\u05e6\u05e8\u05d9\u05dd","name:ha":"Misra","name:ja":"\u30a8\u30b8\u30d7\u30c8","name:hy":"\u0535\u0563\u056b\u057a\u057f\u0578\u057d","name:ht":"Ejip","name:hu":"Egyiptom","name:qu":"Ihiptu","kind":"country","name:is":"Egyptaland","alt_name:is":"Egiptaland","name:yi":"\u05e2\u05d2\u05d9\u05e4\u05d8\u05df","name:yo":"\u1eb8\u0301g\u00edpt\u00ec","name:mt":"E\u0121ittu","alt_name:eo":"Egipto;Egiptio","name:ms":"Mesir","name:mr":"\u0907\u091c\u093f\u092a\u094d\u0924","alt_name:ee":"Egipte","name:my":"\u1021\u102e\u1002\u103b\u1005\u103a\u1014\u102d\u102f\u1004\u103a\u1004\u1036","official_name":"\u062c\u0645\u0647\u0648\u0631\u064a\u0629 \u0645\u0635\u0631 \u0627\u0644\u0639\u0631\u0628\u064a\u0629","int_name":"Egypt \u0645\u0635\u0631","name:mg":"Ejipta","name:vi":"Ai C\u1eadp","name:ml":"\u0d08\u0d1c\u0d3f\u0d2a\u0d4d\u0d24\u0d4d","name:mn":"\u0415\u0433\u0438\u043f\u0435\u0442","id":-1473947,"name:mk":"\u0415\u0433\u0438\u043f\u0435\u0442","name:vo":"L\u00e4g\u00fcpt\u00e4n","old_name:fi":"Yhdistynyt arabitasavalta","name:ff":"Ejipt","name:fi":"Egypti","name:fj":"Ijipta","name:fo":"Egyptaland","name:fr":"\u00c9gypte","name:ca":"Egipte","name:fy":"Egypte","alt_name:qu":"Misir","name:nl":"Egypte","name:nn":"Egypt","name:no":"Egypt","name:na":"Idjipt","name:ne":"\u092e\u093f\u0936\u094d\u0930","name:wa":"Edjipe","name:wo":"Isipt","name:nv":"\u00cd\u00edjip","name:ga":"An \u00c9igipt","name:gd":"An \u00c8ipheit","name:gn":"Ehipto","name:gl":"Exipto","alt_name:wo":"Ejipt","name:gv":"Yn Egypt","name:gu":"\u0a87\u0a9c\u0abf\u0aaa\u0acd\u0aa4","name:lg":"Egypt"},"arcs":[1]},{"type":"LineString","properties":{"name:kg":"Sudan","name:ka":"\u10e1\u10e3\u10d3\u10d0\u10dc\u10d8","name:ko":"\uc218\ub2e8","name:cv":"\u0421\u0443\u0434\u0430\u043d","name:cs":"S\u00fad\u00e1n","name:ki":"S\u0169dana","name:kw":"Soudan","name:tk":"Sudan","name:ku":"S\u00fbdan","name:ti":"\u1231\u12f3\u1295","name:tl":"Sudan","name:ce":"\u0421\u0443\u0434\u0430\u043d","name:ta":"\u0b9a\u0bc2\u0b9f\u0bbe\u0ba9\u0bcd","name:tg":"\u0421\u0443\u0434\u043e\u043d","name:ca":"Sudan","name:te":"\u0c38\u0c42\u0c21\u0c3e\u0c28\u0c4d","name:cy":"Sudan","name:hr":"Sudan","name:da":"Sudan","name:de":"Sudan","source":"openstreetmap.org","name:kn":"\u0cb8\u0cc1\u0ca1\u0cbe\u0ca8\u0ccd","name:dv":"\u0790\u07ab\u078b\u07a7\u0782\u07b0","name:lv":"Sud\u0101na","name:lt":"Sudanas","name:uz":"Sudan","name:kk":"\u0421\u0443\u0434\u0430\u043d","name:ur":"\u0633\u0648\u0688\u0627\u0646","name:lb":"Sudan","name:la":"Sudania","name:tt":"\u0421\u0443\u0434\u0430\u043d","name:uk":"\u0421\u0443\u0434\u0430\u043d","name:ug":"\u0633\u06c7\u062f\u0627\u0646","name:li":"Soedan","name:ln":"Sudani","name:el":"\u03a3\u03bf\u03c5\u03b4\u03ac\u03bd","name:eo":"Sudano","name:en":"Sudan","name":"\u0627\u0644\u0633\u0648\u062f\u0627\u0646","name:ee":"Sudan","name:th":"\u0e1b\u0e23\u0e30\u0e40\u0e17\u0e28\u0e0b\u0e39\u0e14\u0e32\u0e19","name:eu":"Sudan","name:et":"Sudaan","name:es":"Sud\u00e1n","name:ia":"Sudan","name:rm":"Sudan","name:az":"Sudan","name:ie":"Sudan","name:id":"Sudan","name:ig":"Sudan","name:pa":"\u0a38\u0a41\u0a21\u0a3e\u0a28","name:io":"Sudan","name:ak":"Sudan","name:am":"\u1231\u12f3\u1295","name:it":"Sudan","name:an":"Sud\u00e1n","name:ru":"\u0421\u0443\u0434\u0430\u043d","name:rw":"Sudani","name:af":"Soedan","kind_detail":"2","name:ky":"\u0421\u0443\u0434\u0430\u043d","name:zh-yue":"\u8607\u4e39","name:zh":"\u82cf\u4e39\u5171\u548c\u56fd","name:so":"Suudaan","name:sn":"Sudan","name:sm":"Sudan","name:sl":"Sudan","name:sk":"Sud\u00e1n","name:ja":"\u30b9\u30fc\u30c0\u30f3","name:sh":"Sudan","name:sg":"Sud\u00e4an","name:se":"Sudan","name:sc":"Sudan","name:br":"Soudan","name:bs":"Sudan","name:bm":"Sudan","name:bn":"\u09b8\u09c1\u09a6\u09be\u09a8","name:bo":"\u0f66\u0f74\u0f60\u0f74\u0f0b\u0f4f\u0f53\u0f0d","name:sa":"\u0938\u0942\u0921\u093e\u0928","name:sw":"Sudan","name:be":"\u0421\u0443\u0434\u0430\u043d","name:su":"Sudan","name:bg":"\u0421\u0443\u0434\u0430\u043d","name:ss":"ISudani","name:ba":"\u0421\u0443\u0434\u0430\u043d","name:sq":"Sudani","name:jv":"Sudan","name:pt":"Sud\u00e3o","name:ps":"\u0633\u0648\u0689\u0627\u0646","name:om":"Sudaan","name:oc":"Sodan","min_zoom":8.0,"name:ro":"Sudan","name:zh-min-nan":"Sudan","name:os":"\u0421\u0443\u0434\u0430\u043d","name:or":"\u0b38\u0b41\u0b26\u0b3e\u0b28","name:pl":"Sudan","sort_rank":262,"name:sr":"\u0421\u0443\u0434\u0430\u043d","osm_relation":true,"name:tr":"Sudan","name:hi":"\u0938\u0942\u0921\u093e\u0928","name:sv":"Sudan","name:he":"\u05e1\u05d5\u05d3\u05d0\u05df","name:ha":"Sudan","name:hy":"\u054d\u0578\u0582\u0564\u0561\u0576","name:ht":"Soudan","name:hu":"Szud\u00e1n","name:qu":"Sudan","kind":"country","name:ts":"Sudan","name:is":"S\u00fadan","name:yi":"\u05e1\u05d5\u05d3\u05d0\u05df","name:yo":"Sudan","name:mt":"Sudan","name:ms":"Sudan","name:mr":"\u0938\u0941\u0926\u093e\u0928","name:my":"\u1006\u1030\u1012\u1014\u103a\u1014\u102d\u102f\u1004\u103a\u1004\u1036","int_name":"Sudan","name:ml":"\u0d38\u0d41\u0d21\u0d3e\u0d7b","name:vi":"Sudan","name:mn":"\u0421\u0443\u0434\u0430\u043d","id":-192789,"name:mk":"\u0421\u0443\u0434\u0430\u043d","name:vo":"Sud\u00e4n","name:fa":"\u0633\u0648\u062f\u0627\u0646","name:fi":"Sudan","name:fo":"Sudan","alt_name:vi":"Xu-\u0111\u0103ng","name:fr":"Soudan","name:fy":"S\u00fbdan","name:nl":"Soedan","name:nn":"Sudan","name:no":"Sudan","name:na":"Tudan","name:ny":"Sudan","name:wo":"Sudaan","name:nv":"Sood\u0105\u0301\u0105","name:ga":"An tS\u00fad\u00e1in","name:gd":"Sudan","name:gn":"Sudano","name:gl":"Sud\u00e1n","name:gv":"Yn Toodaan","name:gu":"\u0ab8\u0ac1\u0aa6\u0abe\u0aa8"},"arcs":[2]},{"type":"LineString","properties":{"name:kg":"Sudan","name:ka":"\u10e1\u10e3\u10d3\u10d0\u10dc\u10d8","name:ko":"\uc218\ub2e8","name:cv":"\u0421\u0443\u0434\u0430\u043d","name:cs":"S\u00fad\u00e1n","name:ki":"S\u0169dana","name:kw":"Soudan","name:tk":"Sudan","name:ku":"S\u00fbdan","name:ti":"\u1231\u12f3\u1295","name:tl":"Sudan","name:ce":"\u0421\u0443\u0434\u0430\u043d","name:ta":"\u0b9a\u0bc2\u0b9f\u0bbe\u0ba9\u0bcd","name:tg":"\u0421\u0443\u0434\u043e\u043d","name:ca":"Sudan","name:te":"\u0c38\u0c42\u0c21\u0c3e\u0c28\u0c4d","name:cy":"Sudan","name:hr":"Sudan","name:da":"Sudan","name:de":"Sudan","source":"openstreetmap.org","name:kn":"\u0cb8\u0cc1\u0ca1\u0cbe\u0ca8\u0ccd","name:dv":"\u0790\u07ab\u078b\u07a7\u0782\u07b0","name:lv":"Sud\u0101na","name:lt":"Sudanas","name:uz":"Sudan","name:kk":"\u0421\u0443\u0434\u0430\u043d","name:ur":"\u0633\u0648\u0688\u0627\u0646","name:lb":"Sudan","name:la":"Sudania","name:tt":"\u0421\u0443\u0434\u0430\u043d","name:uk":"\u0421\u0443\u0434\u0430\u043d","name:ug":"\u0633\u06c7\u062f\u0627\u0646","name:li":"Soedan","name:ln":"Sudani","name:el":"\u03a3\u03bf\u03c5\u03b4\u03ac\u03bd","name:eo":"Sudano","name:en":"Sudan","name":"\u0627\u0644\u0633\u0648\u062f\u0627\u0646","name:ee":"Sudan","name:th":"\u0e1b\u0e23\u0e30\u0e40\u0e17\u0e28\u0e0b\u0e39\u0e14\u0e32\u0e19","name:eu":"Sudan","name:et":"Sudaan","name:es":"Sud\u00e1n","name:ia":"Sudan","name:rm":"Sudan","name:az":"Sudan","name:ie":"Sudan","name:id":"Sudan","name:ig":"Sudan","name:pa":"\u0a38\u0a41\u0a21\u0a3e\u0a28","name:io":"Sudan","name:ak":"Sudan","name:am":"\u1231\u12f3\u1295","name:it":"Sudan","name:an":"Sud\u00e1n","name:ru":"\u0421\u0443\u0434\u0430\u043d","name:rw":"Sudani","name:af":"Soedan","kind_detail":"2","name:ky":"\u0421\u0443\u0434\u0430\u043d","name:zh-yue":"\u8607\u4e39","name:zh":"\u82cf\u4e39\u5171\u548c\u56fd","name:so":"Suudaan","name:sn":"Sudan","name:sm":"Sudan","name:sl":"Sudan","name:sk":"Sud\u00e1n","name:ja":"\u30b9\u30fc\u30c0\u30f3","name:sh":"Sudan","name:sg":"Sud\u00e4an","name:se":"Sudan","name:sc":"Sudan","name:br":"Soudan","name:bs":"Sudan","name:bm":"Sudan","name:bn":"\u09b8\u09c1\u09a6\u09be\u09a8","name:bo":"\u0f66\u0f74\u0f60\u0f74\u0f0b\u0f4f\u0f53\u0f0d","name:sa":"\u0938\u0942\u0921\u093e\u0928","name:sw":"Sudan","name:be":"\u0421\u0443\u0434\u0430\u043d","name:su":"Sudan","name:bg":"\u0421\u0443\u0434\u0430\u043d","name:ss":"ISudani","name:ba":"\u0421\u0443\u0434\u0430\u043d","name:sq":"Sudani","name:jv":"Sudan","name:pt":"Sud\u00e3o","name:ps":"\u0633\u0648\u0689\u0627\u0646","name:om":"Sudaan","name:oc":"Sodan","min_zoom":8.0,"name:ro":"Sudan","name:zh-min-nan":"Sudan","name:os":"\u0421\u0443\u0434\u0430\u043d","name:or":"\u0b38\u0b41\u0b26\u0b3e\u0b28","name:pl":"Sudan","sort_rank":262,"name:sr":"\u0421\u0443\u0434\u0430\u043d","osm_relation":true,"name:tr":"Sudan","name:hi":"\u0938\u0942\u0921\u093e\u0928","name:sv":"Sudan","name:he":"\u05e1\u05d5\u05d3\u05d0\u05df","name:ha":"Sudan","name:hy":"\u054d\u0578\u0582\u0564\u0561\u0576","name:ht":"Soudan","name:hu":"Szud\u00e1n","name:qu":"Sudan","kind":"country","name:ts":"Sudan","name:is":"S\u00fadan","name:yi":"\u05e1\u05d5\u05d3\u05d0\u05df","name:yo":"Sudan","name:mt":"Sudan","name:ms":"Sudan","name:mr":"\u0938\u0941\u0926\u093e\u0928","name:my":"\u1006\u1030\u1012\u1014\u103a\u1014\u102d\u102f\u1004\u103a\u1004\u1036","int_name":"Sudan","name:ml":"\u0d38\u0d41\u0d21\u0d3e\u0d7b","name:vi":"Sudan","name:mn":"\u0421\u0443\u0434\u0430\u043d","id":-192789,"name:mk":"\u0421\u0443\u0434\u0430\u043d","name:vo":"Sud\u00e4n","name:fa":"\u0633\u0648\u062f\u0627\u0646","name:fi":"Sudan","name:fo":"Sudan","alt_name:vi":"Xu-\u0111\u0103ng","name:fr":"Soudan","name:fy":"S\u00fbdan","name:nl":"Soedan","name:nn":"Sudan","name:no":"Sudan","name:na":"Tudan","name:ny":"Sudan","name:wo":"Sudaan","name:nv":"Sood\u0105\u0301\u0105","name:ga":"An tS\u00fad\u00e1in","name:gd":"Sudan","name:gn":"Sudano","name:gl":"Sud\u00e1n","name:gv":"Yn Toodaan","name:gu":"\u0ab8\u0ac1\u0aa6\u0abe\u0aa8"},"arcs":[3]},{"type":"LineString","properties":{"kind":"region","name:en":"Northern State","name":"\u0627\u0644\u0648\u0644\u0627\u064a\u0629 \u0627\u0644\u0634\u0645\u0627\u0644\u064a\u0629","sort_rank":256,"kind_detail":"4","source":"openstreetmap.org","min_zoom":8.0,"name:ru":"\u0421\u0435\u0432\u0435\u0440\u043d\u0430\u044f \u043f\u0440\u043e\u0432\u0438\u043d\u0446\u0438\u044f","id":-3774678,"osm_relation":true},"arcs":[4]},{"type":"LineString","properties":{"kind":"region","name:en":"Northern State","name":"\u0627\u0644\u0648\u0644\u0627\u064a\u0629 \u0627\u0644\u0634\u0645\u0627\u0644\u064a\u0629","sort_rank":256,"kind_detail":"4","source":"openstreetmap.org","min_zoom":8.0,"name:ru":"\u0421\u0435\u0432\u0435\u0440\u043d\u0430\u044f \u043f\u0440\u043e\u0432\u0438\u043d\u0446\u0438\u044f","id":-3774678,"osm_relation":true},"arcs":[5]},{"type":"LineString","properties":{"kind":"region","name:en":"New Valley Governorate","name":"\u0627\u0644\u0648\u0627\u062f\u064a \u0627\u0644\u062c\u062f\u064a\u062f","sort_rank":256,"kind_detail":"4","name:de":"Gouvernement Neues Tal","source":"openstreetmap.org","min_zoom":8.0,"name:ru":"\u043c\u0443\u0445\u0430\u0444\u0430\u0437\u0430 \u041d\u043e\u0432\u0430\u044f \u0414\u043e\u043b\u0438\u043d\u0430","name:hu":"\u00daj v\u00f6lgy korm\u00e1nyz\u00f3s\u00e1g","id":-3061827,"osm_relation":true},"arcs":[6]},{"type":"LineString","properties":{"kind":"region","name:en":"New Valley Governorate","name":"\u0627\u0644\u0648\u0627\u062f\u064a \u0627\u0644\u062c\u062f\u064a\u062f","sort_rank":256,"kind_detail":"4","name:de":"Gouvernement Neues Tal","source":"openstreetmap.org","min_zoom":8.0,"name:ru":"\u043c\u0443\u0445\u0430\u0444\u0430\u0437\u0430 \u041d\u043e\u0432\u0430\u044f \u0414\u043e\u043b\u0438\u043d\u0430","name:hu":"\u00daj v\u00f6lgy korm\u00e1nyz\u00f3s\u00e1g","id":-3061827,"osm_relation":true},"arcs":[7]}]},"roads":{"type":"GeometryCollection","geometries":[]},"earth":{"type":"GeometryCollection","geometries":[{"type":"Polygon","properties":{"sort_rank":10,"source":"naturalearthdata.com","min_zoom":0.0,"kind":"earth","area":98022885885},"arcs":[[8]]}]},"landuse":{"type":"GeometryCollection","geometries":[]}},"type":"Topology","transform":{"translate":[26.71875,21.9430455334],"scale":[0.0003433228,0.0003169679]},"arcs":[[[0,180],[2075,0]],[[2075,180],[2021,0]],[[2075,180],[-2075,0]],[[4096,180],[-2021,0]],[[2075,180],[-2075,0]],[[4096,180],[-2021,0]],[[0,180],[2075,0]],[[2075,180],[2021,0]],[[2171,0],[-2171,0],[0,4096],[4096,0],[0,-4096],[-1925,0]]]}