{"objects":{"water":{"type":"GeometryCollection","geometries":[{"type":"Polygon","properties":{"source":"naturalearthdata.com","kind":"lake","name":"Lake Peipus","area":10219008000,"sort_rank":200,"min_zoom":0.0,"id":502},"arcs":[[13]]},{"type":"Polygon","properties":{"source":"naturalearthdata.com","kind":"ocean","area":1576712559132672,"sort_rank":200,"min_zoom":0.0,"id":1},"arcs":[[14]]},{"type":"Polygon","properties":{"source":"naturalearthdata.com","kind":"lake","area":870750528,"sort_rank":200,"min_zoom":0.0,"id":642},"arcs":[[15]]},{"type":"LineString","properties":{"source":"naturalearthdata.com","kind":"ocean","sort_rank":205,"boundary":true,"min_zoom":0.0,"id":49},"arcs":[16]},{"type":"LineString","properties":{"source":"naturalearthdata.com","kind":"lake","sort_rank":367,"boundary":true,"min_zoom":0.0,"id":502},"arcs":[17]},{"type":"LineString","properties":{"source":"naturalearthdata.com","kind":"lake","sort_rank":367,"boundary":true,"min_zoom":0.0,"id":642},"arcs":[18]}]},"buildings":{"type":"GeometryCollection","geometries":[]},"places":{"type":"GeometryCollection","geometries":[{"type":"Point","properties":{"kind":"locality","name":"Kohtla-J\u00e4rve","name:lt":"Kohtla Jerv\u0117","kind_detail":"town","name:de":"Kochtel-T\u00fcrpsal","source":"openstreetmap.org","min_zoom":8.0,"name:uk":"\u041a\u043e\u0445\u0442\u043b\u0430-\u042f\u0440\u0432\u0435","name:ru":"\u041a\u043e\u0445\u0442\u043b\u0430-\u042f\u0440\u0432\u0435","id":242166775,"population":44500},"coordinates":[1658,3347]},{"type":"Point","properties":{"kind":"locality","name:en":"Slantsy","name":"\u0421\u043b\u0430\u043d\u0446\u044b","kind_detail":"town","name:de":"Slanzy","source":"openstreetmap.org","min_zoom":8.0,"name:fi":"Slantsy","name:et":"Slants\u00f5","id":1833198964,"population":33300},"coordinates":[3985,1725]},{"type":"Point","properties":{"kind":"locality","name":"Sillam\u00e4e","name:lt":"Silamej\u0117","kind_detail":"town","name:de":"Sillam\u00e4ggi","source":"openstreetmap.org","min_zoom":8.0,"name:uk":"\u0421\u0456\u043b\u043b\u0430\u043c\u044f\u0435","name:ru":"\u0421\u0438\u043b\u043b\u0430\u043c\u044f\u044d","id":516447315,"population":16567},"coordinates":[3051,3298]},{"type":"Point","properties":{"kind":"locality","name:en":"Johvi","name":"J\u00f5hvi","name:lt":"Jehvis","kind_detail":"town","name:de":"Jewe","source":"openstreetmap.org","min_zoom":8.0,"int_name":"Johvi","name:uk":"\u0419\u0438\u0445\u0432\u0456","name:ru":"\u0419\u044b\u0445\u0432\u0438","id":35311924,"population":11600},"coordinates":[2024,3093]},{"type":"Point","properties":{"kind":"locality","name":"Kivi\u00f5li","name:lt":"Kivielis","kind_detail":"town","name:de":"Stein\u00f6l","source":"openstreetmap.org","min_zoom":8.0,"name:ru":"\u041a\u0438\u0432\u0438\u044b\u043b\u0438","id":579964361,"population":6606},"coordinates":[727,3079]},{"type":"Point","properties":{"alt_name:ru":"\u0423\u0441\u0442\u044c-\u041d\u0430\u0440\u0432\u0430","kind":"locality","name":"Narva-J\u00f5esuu","name:lt":"Narva Jees\u016b","kind_detail":"town","old_name:de":"Hungerburg","source":"openstreetmap.org","min_zoom":8.0,"name:uk":"\u041d\u0430\u0440\u0432\u0430-\u0419\u0438\u0435\u0441\u0443\u0443","name:ru":"\u041d\u0430\u0440\u0432\u0430-\u0419\u044b\u044d\u0441\u0443\u0443","id":29926226,"population":2602},"coordinates":[3855,3672]},{"type":"Point","properties":{"kind":"locality","name":"Mustvee","name:lt":"Mustv\u0117","kind_detail":"town","name:de":"Tschorna","source":"openstreetmap.org","min_zoom":8.0,"name:ru":"\u041c\u0443\u0441\u0442\u0432\u0435\u044d","id":30564962,"population":1596},"coordinates":[629,197]},{"type":"Point","properties":{"kind":"locality","name":"P\u00fcssi","name:lt":"Piusis","kind_detail":"town","source":"openstreetmap.org","min_zoom":8.0,"name:ru":"\u041f\u044e\u0441\u0441\u0438","id":659837156,"population":1083},"coordinates":[949,3111]},{"type":"Point","properties":{"kind":"locality","name":"Kohtla-N\u00f5mme","name:lt":"Kohtla Nem\u0117","kind_detail":"town","source":"openstreetmap.org","min_zoom":8.0,"name:uk":"\u041a\u043e\u0445\u0442\u043b\u0430-\u041d\u0438\u043c\u043c\u0435","name:ru":"\u041a\u043e\u0445\u0442\u043b\u0430-\u041d\u044b\u043c\u043c\u0435","id":309497357,"population":1047},"coordinates":[1383,3075]}]},"transit":{"type":"GeometryCollection","geometries":[{"type":"LineString","properties":{"source":"openstreetmap.org","kind":"train","name":"\u0413\u0434\u043e\u0432 - \u0421\u0430\u043d\u043a\u0442-\u041f\u0435\u0442\u0435\u0440\u0431\u0443\u0440\u0433","sort_rank":275,"ref":"\u0413\u0434\u043e\u0432 - \u0421\u0430\u043d\u043a\u0442-\u041f\u0435\u0442\u0435\u0440\u0431\u0443\u0440\u0433","min_zoom":6.0,"osm_relation":true},"arcs":[10]},{"type":"LineString","properties":{"kind":"train","name":"Tallinn <--> Narva","sort_rank":275,"name:de":"Reval <--> Narwa","source":"openstreetmap.org","min_zoom":6.0,"operator":"Edelaraudtee AS","ref":"Tallinn - Narva","osm_relation":true},"arcs":[11]},{"type":"LineString","properties":{"source":"openstreetmap.org","kind":"train","name":"\u041f\u043e\u0435\u0437\u0434: \u0422\u0430\u043b\u043b\u0438\u043d - \u041c\u043e\u0441\u043a\u0432\u0430","sort_rank":275,"ref":"\u0422\u0430\u043b\u043b\u0438\u043d - \u041c\u043e\u0441\u043a\u0432\u0430","min_zoom":6.0,"osm_relation":true},"arcs":[12]}]},"pois":{"type":"GeometryCollection","geometries":[{"type":"Point","properties":{"kind":"military","name:en":"Sirgala training area","name":"Sirgala harjutusv\u00e4li","area":111803000,"source":"openstreetmap.org","min_zoom":8.0,"tier":3,"name:ru":"\u041f\u043e\u043b\u0438\u0433\u043e\u043d \u0421\u0438\u0440\u0433\u0430\u043b\u0430","id":134241014},"coordinates":[3002,2658]}]},"boundaries":{"type":"GeometryCollection","geometries":[{"type":"LineString","properties":{"name:kg":"Estonia","name:ka":"\u10d4\u10e1\u10e2\u10dd\u10dc\u10d4\u10d7\u10d8","name:ko":"\uc5d0\uc2a4\ud1a0\ub2c8\uc544","name:cv":"\u042d\u0441\u0442\u043e\u043d\u0438","name:cu":"\u0404\u0441\u0442\u044c","name:kl":"Estlandi","name:cs":"Estonsko","name:tt":"\u042d\u0441\u0442\u043e\u043d\u0438\u044f","name:co":"Estonia","name:kv":"\u042d\u0441\u0442\u043e\u043d\u0438\u044f","name:ku":"Estonya","name:tl":"Estonia","name:ce":"\u042d\u0441\u0442\u043e\u043d\u0438","name:ta":"\u0b8e\u0b9a\u0bc1\u0ba4\u0bcd\u0ba4\u0bcb\u0ba9\u0bbf\u0baf\u0bbe","name:tg":"\u042d\u0441\u0442\u043e\u043d\u0438\u044f","name:ca":"Est\u00f2nia","name:te":"\u0c0e\u0c38\u0c4d\u0c1f\u0c4b\u0c28\u0c3f\u0c2f\u0c3e","name:cy":"Estonia","name:hr":"Estonija","name:da":"Estland","name:de":"Estland","name:dz":"\u0f68\u0f72\u0f66\u0f72\u0f0b\u0f4a\u0f7c\u0f0b\u0f53\u0f72\u0f0b\u0f61\u0f0d","source":"openstreetmap.org","name:kn":"\u0c8e\u0cb8\u0ccd\u0c9f\u0cca\u0ca8\u0cbf\u0caf","name:lv":"Igaunija","name:lt":"Estija","name:uz":"Estoniya","name:kk":"\u042d\u0441\u0442\u043e\u043d\u0438\u044f","name:ur":"\u0627\u0633\u062a\u0648\u0646\u06cc\u0627","name:lb":"Estland","name:la":"Estonia","name:uk":"\u0415\u0441\u0442\u043e\u043d\u0456\u044f","name:ug":"\u0626\u06d0\u0633\u062a\u0648\u0646\u0649\u064a\u06d5","name:li":"Esland","name:ln":"Estonia","name:el":"\u0395\u03c3\u03b8\u03bf\u03bd\u03af\u03b1","name:eo":"Estonujo","name:en":"Estonia","name":"Eesti","name:tk":"Estoni\u00fda","name:ee":"Estonia","name:th":"\u0e1b\u0e23\u0e30\u0e40\u0e17\u0e28\u0e40\u0e2d\u0e2a\u0e42\u0e15\u0e40\u0e19\u0e35\u0e22","name:eu":"Estonia","name:es":"Estonia","name:ia":"Estonia","name:az":"Estoniya","name:ie":"Estonia","name:id":"Estonia","name:ar":"\u0625\u0633\u062a\u0648\u0646\u064a\u0627","name:io":"Estonia","name:is":"Eistland","name:am":"\u12a4\u1235\u1276\u1292\u12eb","name:it":"Estonia","name:an":"Estonia","name:ru":"\u042d\u0441\u0442\u043e\u043d\u0438\u044f","name:rw":"Esitoniya","name:pl":"Estonia","name:af":"Estland","name:zu":"I-Estoniya","kind_detail":"2","name:ky":"\u042d\u0441\u0442\u043e\u043d\u0438\u044f","name:zh-yue":"\u611b\u6c99\u5c3c\u4e9e","name:zh":"\u7231\u6c99\u5c3c\u4e9a","name:so":"Estoniya","name:sl":"Estonija","name:sk":"Est\u00f3nsko","name:ja":"\u30a8\u30b9\u30c8\u30cb\u30a2","name:si":"\u0d91\u0dc3\u0dca\u0da7\u0ddd\u0db1\u0dd2\u0dba\u0dcf","name:sh":"Estonija","name:se":"Estteeana","name:sc":"Est\u00f2nia","name:sa":"\u090f\u0938\u094d\u091f\u094b\u0928\u093f\u092f\u093e","name:bs":"Estonija","name:bm":"Estonia","name:bn":"\u0987\u09b8\u09cd\u09a4\u09cb\u09a8\u09bf\u09af\u09bc\u09be","name:bo":"\u0f68\u0f72\u0f66\u0f74\u0f0b\u0f4a\u0f7c\u0f0b\u0f53\u0f72\u0f61\u0f0d","name:br":"Estonia","name:sw":"Estonia","name:be":"\u042d\u0441\u0442\u043e\u043d\u0456\u044f","name:su":"\u00c9stonia","name:bg":"\u0415\u0441\u0442\u043e\u043d\u0438\u044f","name:ss":"IWestoniya","name:ba":"\u042d\u0441\u0442\u043e\u043d\u0438\u044f","name:sq":"Estonia","name:jv":"Estonia","name:bi":"Estonia","name:pt":"Est\u00f3nia","name:ps":"\u0627\u06d0\u0633\u067c\u0648\u0646\u064a\u0627","name:oc":"Est\u00f2nia","min_zoom":8.0,"name:ro":"Estonia","name:pa":"\u0a07\u0a38\u0a24\u0a4b\u0a28\u0a40\u0a06","name:os":"\u042d\u0441\u0442\u043e\u043d\u0438","name:or":"\u0b0f\u0b37\u0b4d\u0b1f\u0b4b\u0b28\u0b3f\u0b06","alt_name:pt":"Est\u00f4nia","name:st":"Estonia","sort_rank":262,"name:sr":"\u0415\u0441\u0442\u043e\u043d\u0438\u0458\u0430","osm_relation":true,"name:tr":"Estonya","name:hi":"\u090f\u0938\u094d\u091f\u094b\u0928\u093f\u092f\u093e","name:sv":"Estland","name:he":"\u05d0\u05e1\u05d8\u05d5\u05e0\u05d9\u05d4","name:hy":"\u0537\u057d\u057f\u0578\u0576\u056b\u0561","name:ht":"Estoni","name:hu":"\u00c9sztorsz\u00e1g","name:qu":"Istunya","kind":"country","name:yi":"\u05e2\u05e1\u05d8\u05dc\u05d0\u05e0\u05d3","name:yo":"Est\u00f3n\u00ed\u00e0","name:mt":"Estonja","alt_name:eo":"Estonio","name:ms":"Estonia","name:mr":"\u090f\u0938\u094d\u091f\u094b\u0928\u093f\u092f\u093e","name:my":"\u1021\u1000\u103a\u1005\u103a\u1010\u102d\u102f\u1038\u1014\u102e\u1038\u101a\u102c\u1038\u1014\u102d\u102f\u1004\u103a\u1004\u1036","official_name":"Eesti Vabariik","name:kw":"Estoni","name:mg":"Estonia","name:ve":"Estonia","name:ml":"\u0d0e\u0d38\u0d4d\u0d31\u0d4d\u0d31\u0d4b\u0d23\u0d3f\u0d2f","name:vi":"Estonia","name:mn":"\u042d\u0441\u0442\u043e\u043d","name:mi":"Etonia","id":-79510,"name:mk":"\u0415\u0441\u0442\u043e\u043d\u0438\u0458\u0430","name:vo":"Lestiy\u00e4n","name:fa":"\u0627\u0633\u062a\u0648\u0646\u06cc","name:ff":"Estoniya","name:fi":"Viro","name:fo":"Estland","name:fr":"Estonie","name:fy":"Estl\u00e2n","int_name":"Estonia","name:nl":"Estland","name:nn":"Estland","name:no":"Estland","name:na":"Etoniya","name:ne":"\u0907\u0938\u094d\u091f\u094b\u0928\u093f\u092f\u093e","name:wo":"Estooni","name:nv":"\u00c9\u00e9stii Bik\u00e9yah","name:ga":"An East\u00f3in","name:gd":"East\u00f2inia","name:gn":"Eto\u00f1a","name:gl":"Estonia","name:gv":"Yn Estaan","name:gu":"\u0a88\u0ab8\u0acd\u0a9f\u0acb\u0aa8\u0abf\u0aaf\u0abe"},"arcs":[0]},{"type":"MultiLineString","properties":{"name:kg":"Estonia","name:ka":"\u10d4\u10e1\u10e2\u10dd\u10dc\u10d4\u10d7\u10d8","name:ko":"\uc5d0\uc2a4\ud1a0\ub2c8\uc544","name:cv":"\u042d\u0441\u0442\u043e\u043d\u0438","name:cu":"\u0404\u0441\u0442\u044c","name:kl":"Estlandi","name:cs":"Estonsko","name:tt":"\u042d\u0441\u0442\u043e\u043d\u0438\u044f","name:co":"Estonia","name:kv":"\u042d\u0441\u0442\u043e\u043d\u0438\u044f","name:ku":"Estonya","name:tl":"Estonia","name:ce":"\u042d\u0441\u0442\u043e\u043d\u0438","name:ta":"\u0b8e\u0b9a\u0bc1\u0ba4\u0bcd\u0ba4\u0bcb\u0ba9\u0bbf\u0baf\u0bbe","name:tg":"\u042d\u0441\u0442\u043e\u043d\u0438\u044f","name:ca":"Est\u00f2nia","name:te":"\u0c0e\u0c38\u0c4d\u0c1f\u0c4b\u0c28\u0c3f\u0c2f\u0c3e","name:cy":"Estonia","name:hr":"Estonija","name:da":"Estland","name:de":"Estland","name:dz":"\u0f68\u0f72\u0f66\u0f72\u0f0b\u0f4a\u0f7c\u0f0b\u0f53\u0f72\u0f0b\u0f61\u0f0d","source":"openstreetmap.org","name:kn":"\u0c8e\u0cb8\u0ccd\u0c9f\u0cca\u0ca8\u0cbf\u0caf","name:lv":"Igaunija","name:lt":"Estija","name:uz":"Estoniya","name:kk":"\u042d\u0441\u0442\u043e\u043d\u0438\u044f","name:ur":"\u0627\u0633\u062a\u0648\u0646\u06cc\u0627","name:lb":"Estland","name:la":"Estonia","name:uk":"\u0415\u0441\u0442\u043e\u043d\u0456\u044f","name:ug":"\u0626\u06d0\u0633\u062a\u0648\u0646\u0649\u064a\u06d5","name:li":"Esland","name:ln":"Estonia","name:el":"\u0395\u03c3\u03b8\u03bf\u03bd\u03af\u03b1","name:eo":"Estonujo","name:en":"Estonia","name":"Eesti","name:tk":"Estoni\u00fda","name:ee":"Estonia","name:th":"\u0e1b\u0e23\u0e30\u0e40\u0e17\u0e28\u0e40\u0e2d\u0e2a\u0e42\u0e15\u0e40\u0e19\u0e35\u0e22","name:eu":"Estonia","name:es":"Estonia","name:ia":"Estonia","name:az":"Estoniya","name:ie":"Estonia","name:id":"Estonia","name:ar":"\u0625\u0633\u062a\u0648\u0646\u064a\u0627","name:io":"Estonia","name:is":"Eistland","name:am":"\u12a4\u1235\u1276\u1292\u12eb","name:it":"Estonia","name:an":"Estonia","name:ru":"\u042d\u0441\u0442\u043e\u043d\u0438\u044f","name:rw":"Esitoniya","name:pl":"Estonia","name:af":"Estland","name:zu":"I-Estoniya","kind_detail":"2","name:ky":"\u042d\u0441\u0442\u043e\u043d\u0438\u044f","name:zh-yue":"\u611b\u6c99\u5c3c\u4e9e","name:zh":"\u7231\u6c99\u5c3c\u4e9a","name:so":"Estoniya","name:sl":"Estonija","name:sk":"Est\u00f3nsko","name:ja":"\u30a8\u30b9\u30c8\u30cb\u30a2","name:si":"\u0d91\u0dc3\u0dca\u0da7\u0ddd\u0db1\u0dd2\u0dba\u0dcf","name:sh":"Estonija","name:se":"Estteeana","name:sc":"Est\u00f2nia","name:sa":"\u090f\u0938\u094d\u091f\u094b\u0928\u093f\u092f\u093e","name:bs":"Estonija","name:bm":"Estonia","name:bn":"\u0987\u09b8\u09cd\u09a4\u09cb\u09a8\u09bf\u09af\u09bc\u09be","name:bo":"\u0f68\u0f72\u0f66\u0f74\u0f0b\u0f4a\u0f7c\u0f0b\u0f53\u0f72\u0f61\u0f0d","name:br":"Estonia","name:sw":"Estonia","name:be":"\u042d\u0441\u0442\u043e\u043d\u0456\u044f","name:su":"\u00c9stonia","name:bg":"\u0415\u0441\u0442\u043e\u043d\u0438\u044f","name:ss":"IWestoniya","name:ba":"\u042d\u0441\u0442\u043e\u043d\u0438\u044f","name:sq":"Estonia","name:jv":"Estonia","name:bi":"Estonia","name:pt":"Est\u00f3nia","name:ps":"\u0627\u06d0\u0633\u067c\u0648\u0646\u064a\u0627","name:oc":"Est\u00f2nia","min_zoom":8.0,"name:ro":"Estonia","name:pa":"\u0a07\u0a38\u0a24\u0a4b\u0a28\u0a40\u0a06","name:os":"\u042d\u0441\u0442\u043e\u043d\u0438","name:or":"\u0b0f\u0b37\u0b4d\u0b1f\u0b4b\u0b28\u0b3f\u0b06","alt_name:pt":"Est\u00f4nia","name:st":"Estonia","sort_rank":262,"name:sr":"\u0415\u0441\u0442\u043e\u043d\u0438\u0458\u0430","osm_relation":true,"name:tr":"Estonya","name:hi":"\u090f\u0938\u094d\u091f\u094b\u0928\u093f\u092f\u093e","name:sv":"Estland","name:he":"\u05d0\u05e1\u05d8\u05d5\u05e0\u05d9\u05d4","name:hy":"\u0537\u057d\u057f\u0578\u0576\u056b\u0561","name:ht":"Estoni","name:hu":"\u00c9sztorsz\u00e1g","name:qu":"Istunya","kind":"country","name:yi":"\u05e2\u05e1\u05d8\u05dc\u05d0\u05e0\u05d3","name:yo":"Est\u00f3n\u00ed\u00e0","name:mt":"Estonja","alt_name:eo":"Estonio","name:ms":"Estonia","name:mr":"\u090f\u0938\u094d\u091f\u094b\u0928\u093f\u092f\u093e","name:my":"\u1021\u1000\u103a\u1005\u103a\u1010\u102d\u102f\u1038\u1014\u102e\u1038\u101a\u102c\u1038\u1014\u102d\u102f\u1004\u103a\u1004\u1036","official_name":"Eesti Vabariik","name:kw":"Estoni","name:mg":"Estonia","name:ve":"Estonia","name:ml":"\u0d0e\u0d38\u0d4d\u0d31\u0d4d\u0d31\u0d4b\u0d23\u0d3f\u0d2f","name:vi":"Estonia","name:mn":"\u042d\u0441\u0442\u043e\u043d","name:mi":"Etonia","id":-79510,"name:mk":"\u0415\u0441\u0442\u043e\u043d\u0438\u0458\u0430","name:vo":"Lestiy\u00e4n","name:fa":"\u0627\u0633\u062a\u0648\u0646\u06cc","name:ff":"Estoniya","name:fi":"Viro","name:fo":"Estland","name:fr":"Estonie","name:fy":"Estl\u00e2n","int_name":"Estonia","name:nl":"Estland","name:nn":"Estland","name:no":"Estland","name:na":"Etoniya","name:ne":"\u0907\u0938\u094d\u091f\u094b\u0928\u093f\u092f\u093e","name:wo":"Estooni","name:nv":"\u00c9\u00e9stii Bik\u00e9yah","name:ga":"An East\u00f3in","name:gd":"East\u00f2inia","name:gn":"Eto\u00f1a","name:gl":"Estonia","name:gv":"Yn Estaan","name:gu":"\u0a88\u0ab8\u0acd\u0a9f\u0acb\u0aa8\u0abf\u0aaf\u0abe"},"arcs":[[1],[2]]},{"type":"LineString","properties":{"name:kg":"Estonia","name:ka":"\u10d4\u10e1\u10e2\u10dd\u10dc\u10d4\u10d7\u10d8","name:ko":"\uc5d0\uc2a4\ud1a0\ub2c8\uc544","name:cv":"\u042d\u0441\u0442\u043e\u043d\u0438","name:cu":"\u0404\u0441\u0442\u044c","name:kl":"Estlandi","name:cs":"Estonsko","name:tt":"\u042d\u0441\u0442\u043e\u043d\u0438\u044f","name:co":"Estonia","name:kv":"\u042d\u0441\u0442\u043e\u043d\u0438\u044f","name:ku":"Estonya","name:tl":"Estonia","name:ce":"\u042d\u0441\u0442\u043e\u043d\u0438","name:ta":"\u0b8e\u0b9a\u0bc1\u0ba4\u0bcd\u0ba4\u0bcb\u0ba9\u0bbf\u0baf\u0bbe","name:tg":"\u042d\u0441\u0442\u043e\u043d\u0438\u044f","name:ca":"Est\u00f2nia","name:te":"\u0c0e\u0c38\u0c4d\u0c1f\u0c4b\u0c28\u0c3f\u0c2f\u0c3e","name:cy":"Estonia","name:qu":"Istunya","name:da":"Estland","name:de":"Estland","name:dz":"\u0f68\u0f72\u0f66\u0f72\u0f0b\u0f4a\u0f7c\u0f0b\u0f53\u0f72\u0f0b\u0f61\u0f0d","source":"openstreetmap.org","name:kn":"\u0c8e\u0cb8\u0ccd\u0c9f\u0cca\u0ca8\u0cbf\u0caf","name:lv":"Igaunija","name:lt":"Estija","name:uz":"Estoniya","name:kk":"\u042d\u0441\u0442\u043e\u043d\u0438\u044f","name:ur":"\u0627\u0633\u062a\u0648\u0646\u06cc\u0627","name:lb":"Estland","name:la":"Estonia","name:uk":"\u0415\u0441\u0442\u043e\u043d\u0456\u044f","name:ug":"\u0626\u06d0\u0633\u062a\u0648\u0646\u0649\u064a\u06d5","name:li":"Esland","name:ln":"Estonia","name:el":"\u0395\u03c3\u03b8\u03bf\u03bd\u03af\u03b1","name:eo":"Estonujo","name:en":"Estonia","name":"Eesti","name:tk":"Estoni\u00fda","name:ee":"Estonia","name:th":"\u0e1b\u0e23\u0e30\u0e40\u0e17\u0e28\u0e40\u0e2d\u0e2a\u0e42\u0e15\u0e40\u0e19\u0e35\u0e22","name:eu":"Estonia","name:es":"Estonia","name:ia":"Estonia","name:az":"Estoniya","name:ie":"Estonia","name:id":"Estonia","name:ar":"\u0625\u0633\u062a\u0648\u0646\u064a\u0627","name:io":"Estonia","name:is":"Eistland","name:am":"\u12a4\u1235\u1276\u1292\u12eb","name:it":"Estonia","name:an":"Estonia","name:ru":"\u042d\u0441\u0442\u043e\u043d\u0438\u044f","name:rw":"Esitoniya","alt_name:pt":"Est\u00f4nia","name:af":"Estland","name:zu":"I-Estoniya","kind_detail":"2","name:ky":"\u042d\u0441\u0442\u043e\u043d\u0438\u044f","name:zh-yue":"\u611b\u6c99\u5c3c\u4e9e","name:zh":"\u7231\u6c99\u5c3c\u4e9a","name:so":"Estoniya","name:sl":"Estonija","name:sk":"Est\u00f3nsko","name:ja":"\u30a8\u30b9\u30c8\u30cb\u30a2","name:si":"\u0d91\u0dc3\u0dca\u0da7\u0ddd\u0db1\u0dd2\u0dba\u0dcf","name:sh":"Estonija","name:se":"Estteeana","name:sc":"Est\u00f2nia","name:sa":"\u090f\u0938\u094d\u091f\u094b\u0928\u093f\u092f\u093e","name:bs":"Estonija","name:bm":"Estonia","name:bn":"\u0987\u09b8\u09cd\u09a4\u09cb\u09a8\u09bf\u09af\u09bc\u09be","name:bo":"\u0f68\u0f72\u0f66\u0f74\u0f0b\u0f4a\u0f7c\u0f0b\u0f53\u0f72\u0f61\u0f0d","name:br":"Estonia","name:sw":"Estonia","name:be":"\u042d\u0441\u0442\u043e\u043d\u0456\u044f","name:su":"\u00c9stonia","name:bg":"\u0415\u0441\u0442\u043e\u043d\u0438\u044f","name:ss":"IWestoniya","name:ba":"\u042d\u0441\u0442\u043e\u043d\u0438\u044f","name:sq":"Estonia","name:jv":"Estonia","name:bi":"Estonia","name:pt":"Est\u00f3nia","name:ps":"\u0627\u06d0\u0633\u067c\u0648\u0646\u064a\u0627","name:oc":"Est\u00f2nia","min_zoom":8.0,"name:ro":"Estonia","name:pa":"\u0a07\u0a38\u0a24\u0a4b\u0a28\u0a40\u0a06","name:os":"\u042d\u0441\u0442\u043e\u043d\u0438","name:or":"\u0b0f\u0b37\u0b4d\u0b1f\u0b4b\u0b28\u0b3f\u0b06","name:pl":"Estonia","name:st":"Estonia","sort_rank":262,"name:sr":"\u0415\u0441\u0442\u043e\u043d\u0438\u0458\u0430","osm_relation":true,"name:tr":"Estonya","name:hi":"\u090f\u0938\u094d\u091f\u094b\u0928\u093f\u092f\u093e","name:sv":"Estland","name:he":"\u05d0\u05e1\u05d8\u05d5\u05e0\u05d9\u05d4","name:hy":"\u0537\u057d\u057f\u0578\u0576\u056b\u0561","name:ht":"Estoni","name:hu":"\u00c9sztorsz\u00e1g","name:hr":"Estonija","kind":"country","name:yi":"\u05e2\u05e1\u05d8\u05dc\u05d0\u05e0\u05d3","name:yo":"Est\u00f3n\u00ed\u00e0","name:mt":"Estonja","alt_name:eo":"Estonio","name:ms":"Estonia","name:mr":"\u090f\u0938\u094d\u091f\u094b\u0928\u093f\u092f\u093e","name:my":"\u1021\u1000\u103a\u1005\u103a\u1010\u102d\u102f\u1038\u1014\u102e\u1038\u101a\u102c\u1038\u1014\u102d\u102f\u1004\u103a\u1004\u1036","official_name":"Eesti Vabariik","name:kw":"Estoni","name:mg":"Estonia","name:ve":"Estonia","name:vi":"Estonia","name:ml":"\u0d0e\u0d38\u0d4d\u0d31\u0d4d\u0d31\u0d4b\u0d23\u0d3f\u0d2f","name:mn":"\u042d\u0441\u0442\u043e\u043d","name:mi":"Etonia","id":-79510,"name:mk":"\u0415\u0441\u0442\u043e\u043d\u0438\u0458\u0430","name:vo":"Lestiy\u00e4n","name:fa":"\u0627\u0633\u062a\u0648\u0646\u06cc","name:ff":"Estoniya","name:fi":"Viro","name:fo":"Estland","name:fr":"Estonie","name:fy":"Estl\u00e2n","int_name":"Estonia","name:nl":"Estland","name:nn":"Estland","name:no":"Estland","name:na":"Etoniya","name:ne":"\u0907\u0938\u094d\u091f\u094b\u0928\u093f\u092f\u093e","name:wo":"Estooni","name:nv":"\u00c9\u00e9stii Bik\u00e9yah","name:ga":"An East\u00f3in","name:gd":"East\u00f2inia","name:gn":"Eto\u00f1a","name:gl":"Estonia","maritime_boundary":true,"name:gv":"Yn Estaan","name:gu":"\u0a88\u0ab8\u0acd\u0a9f\u0acb\u0aa8\u0abf\u0aaf\u0abe"},"arcs":[3]},{"type":"LineString","properties":{"name:right:hy":"\u054a\u057d\u056f\u0578\u057e\u056b \u0574\u0561\u0580\u0566","name:right:la":"Regio Pscoviensis","name:right:uk":"\u041f\u0441\u043a\u043e\u0432\u0441\u044c\u043a\u0430 \u043e\u0431\u043b\u0430\u0441\u0442\u044c","name:right:hr":"Pskovska oblast","name:left:sv":"Leningrad oblast","name:right:hu":"Pszkovi ter\u00fclet","name:left:sr":"\u041b\u0435\u045a\u0438\u043d\u0433\u0440\u0430\u0434\u0441\u043a\u0430 \u043e\u0431\u043b\u0430\u0441\u0442","name:right:lt":"Pskovo sritis","name:right:ur":"\u067e\u0633\u06a9\u0648\u0641 \u0627\u0648\u0628\u0644\u0627\u0633\u062a","name:right:lv":"Pleskavas apgabals","name:left:lt":"Leningrado sritis","name:left:hy":"\u053c\u0565\u0576\u056b\u0576\u0563\u0580\u0561\u0564\u056b \u0574\u0561\u0580\u0566","name:left:sk":"Leningradsk\u00e1 oblas\u0165","name:right:uz":"Pskov viloyati","name:right:os":"\u041f\u0441\u043a\u043e\u0432\u044b \u043e\u0431\u043b\u00e6\u0441\u0442","name:right:af":"Pskof-oblast","name:left:ce":"\u041b\u0435\u043d\u0438\u043d\u0433\u0440\u0430\u0434\u0430\u043d \u043e\u0431\u043b\u0430\u0441\u0442\u044c","name:left:ca":"Prov\u00edncia de Leningrad","source":"openstreetmap.org","name:right:ar":"\u0628\u0633\u0643\u0648\u0641 \u0623\u0648\u0628\u0644\u0627\u0633\u062a","name:left:cu":"\u041b\u0454\u043d\u0438\u043d\u043e\u0433\u0440\u0430\u0434\u044c\u0441\u043a\u0430 \u043e\u0431\u043b\u0430\u0441\u0442\u044c","name:right:el":"\u03a0\u03b5\u03c1\u03b9\u03c6\u03ad\u03c1\u03b5\u03b9\u03b1 \u03a0\u03c3\u03ba\u03bf\u03c6","name:right:az":"Pskov vilay\u0259ti","name:left:cs":"Leningradsk\u00e1 oblast","name:left":"\u041b\u0435\u043d\u0438\u043d\u0433\u0440\u0430\u0434\u0441\u043a\u0430\u044f \u043e\u0431\u043b\u0430\u0441\u0442\u044c","name:right:mk":"\u041f\u0441\u043a\u043e\u0432\u0441\u043a\u0430 \u043e\u0431\u043b\u0430\u0441\u0442","name:right:sr":"\u041f\u0441\u043a\u043e\u0432\u0441\u043a\u0430 \u043e\u0431\u043b\u0430\u0441\u0442","name:left:ka":"\u10da\u10d4\u10dc\u10d8\u10dc\u10d2\u10e0\u10d0\u10d3\u10d8\u10e1 \u10dd\u10da\u10e5\u10d8","name:right:eu":"Pskov oblasta","name:right:et":"Pihkva oblast","name:right:it":"Oblast' di Pskov","name:left:kv":"\u041b\u0435\u043d\u0438\u043d\u0433\u0440\u0430\u0434 \u043e\u0431\u043b\u0430\u0441\u044c\u0442","name:right:ro":"Regiunea Pskov","name:right:id":"Oblast Pskov","name:right:en":"Pskov Oblast","name:left:vi":"Leningrad (t\u1ec9nh)","kind":"region","name":"\u041b\u0435\u043d\u0438\u043d\u0433\u0440\u0430\u0434\u0441\u043a\u0430\u044f \u043e\u0431\u043b\u0430\u0441\u0442\u044c - \u041f\u0441\u043a\u043e\u0432\u0441\u043a\u0430\u044f \u043e\u0431\u043b\u0430\u0441\u0442\u044c","name:right:ba":"\u041f\u0441\u043a\u043e\u0432 \u04e9\u043b\u043a\u04d9\u04bb\u0435","name:right:fa":"\u0627\u0633\u062a\u0627\u0646 \u067e\u0633\u06a9\u0648\u0641","min_zoom":8.0,"name:right:be":"\u041f\u0441\u043a\u043e\u045e\u0441\u043a\u0430\u044f \u0432\u043e\u0431\u043b\u0430\u0441\u0446\u044c","name:left:zh":"\u5217\u5b81\u683c\u52d2\u5dde","name:left:fr":"Oblast de L\u00e9ningrad","name:right:bs":"Pskovska oblast","name:right:zh":"\u666e\u65af\u79d1\u592b\u5dde","name:left:et":"Leningradi oblast","name:right:es":"\u00d3blast de Pskov","name:right:nl":"Oblast Pskov","name:right:ja":"\u30d7\u30b9\u30b3\u30d5\u5dde","name:right:fr":"Oblast de Pskov","name:left:ja":"\u30ec\u30cb\u30f3\u30b0\u30e9\u30fc\u30c9\u5dde","name:right:bg":"\u041f\u0441\u043a\u043e\u0432\u0441\u043a\u0430 \u043e\u0431\u043b\u0430\u0441\u0442","name:left:uk":"\u041b\u0435\u043d\u0456\u043d\u0433\u0440\u0430\u0434\u0441\u044c\u043a\u0430 \u043e\u0431\u043b\u0430\u0441\u0442\u044c","name:right:sh":"Pskovska oblast","name:left:nl":"Oblast Leningrad","name:left:ba":"\u041b\u0435\u043d\u0438\u043d\u0433\u0440\u0430\u0434 \u04e9\u043b\u043a\u04d9\u04bb\u0435","name:right:sl":"Pskovska oblast","name:left:be":"\u041b\u0435\u043d\u0456\u043d\u0433\u0440\u0430\u0434\u0441\u043a\u0430\u044f \u0432\u043e\u0431\u043b\u0430\u0441\u0446\u044c","name:left:fi":"Leningradin alue","id":-176095,"name:right:fi":"Pihkovan alue","name:left:en":"Leningrad oblast","name:left:el":"\u03a0\u03b5\u03c1\u03b9\u03c6\u03ad\u03c1\u03b5\u03b9\u03b1 \u039b\u03ad\u03bd\u03b9\u03bd\u03b3\u03ba\u03c1\u03b1\u03bd\u03c4","name:right:ca":"Prov\u00edncia de Pskov","kind_detail":"4","name:right:ce":"\u041f\u0441\u043a\u043e\u0432\u0430\u043d \u043e\u0431\u043b\u0430\u0441\u0442\u044c","name:right:tt":"\u041f\u0441\u043a\u043e\u0432 \u04e9\u043b\u043a\u04d9\u0441\u0435","id:left":-176095,"name:left:es":"\u00d3blast de Leningrado","name:right:cs":"Pskovsk\u00e1 oblast","name:right":"\u041f\u0441\u043a\u043e\u0432\u0441\u043a\u0430\u044f \u043e\u0431\u043b\u0430\u0441\u0442\u044c","id:right":-155262,"name:right:cv":"\u041f\u0441\u043a\u043e\u0432 \u043e\u0431\u043b\u0430\u00e7\u0115","name:right:ka":"\u10e4\u10e1\u10d9\u10dd\u10d5\u10d8\u10e1 \u10dd\u10da\u10e5\u10d8","name:left:pl":"Obw\u00f3d leningradzki","name:left:tt":"\u041b\u0435\u043d\u0438\u043d\u0433\u0440\u0430\u0434 \u04e9\u043b\u043a\u04d9\u0441\u0435","name:left:az":"Leninqrad vilay\u0259ti","name:right:tr":"Pskov Oblast\u0131","name:left:af":"Leningrad-oblast","name:left:de":"Oblast Leningrad","name:right:ko":"\ud504\uc2a4\ucf54\ud504 \uc8fc","name:right:kv":"\u041f\u0441\u043a\u043e\u0432 \u043e\u0431\u043b\u0430\u0441\u044c\u0442","name:left:it":"Oblast' di Leningrado","name:right:pl":"Obw\u00f3d pskowski","name:right:ta":"\u0baa\u0bbf\u0b9a\u0bc1\u0b95\u0bcd\u0b95\u0bcb\u0bb5\u0bcd \u0bae\u0bbe\u0b95\u0bbe\u0ba3\u0bae\u0bcd","osm_relation":true,"name:right:de":"Oblast Pskow","name:right:da":"Pskov oblast","sort_rank":256},"arcs":[4]},{"type":"MultiLineString","properties":{"name:az":"Leninqrad vilay\u0259ti","name:ka":"\u10da\u10d4\u10dc\u10d8\u10dc\u10d2\u10e0\u10d0\u10d3\u10d8\u10e1 \u10dd\u10da\u10e5\u10d8","name:cu":"\u041b\u0454\u043d\u0438\u043d\u043e\u0433\u0440\u0430\u0434\u044c\u0441\u043a\u0430 \u043e\u0431\u043b\u0430\u0441\u0442\u044c","name:cs":"Leningradsk\u00e1 oblast","name:tt":"\u041b\u0435\u043d\u0438\u043d\u0433\u0440\u0430\u0434 \u04e9\u043b\u043a\u04d9\u0441\u0435","name:kv":"\u041b\u0435\u043d\u0438\u043d\u0433\u0440\u0430\u0434 \u043e\u0431\u043b\u0430\u0441\u044c\u0442","min_zoom":8.0,"name:it":"Oblast' di Leningrado","name:be":"\u041b\u0435\u043d\u0456\u043d\u0433\u0440\u0430\u0434\u0441\u043a\u0430\u044f \u0432\u043e\u0431\u043b\u0430\u0441\u0446\u044c","name:vi":"Leningrad (t\u1ec9nh)","name:ce":"\u041b\u0435\u043d\u0438\u043d\u0433\u0440\u0430\u0434\u0430\u043d \u043e\u0431\u043b\u0430\u0441\u0442\u044c","id":-176095,"name:ca":"Prov\u00edncia de Leningrad","name:af":"Leningrad-oblast","sort_rank":256,"kind_detail":"4","name:de":"Oblast Leningrad","source":"openstreetmap.org","name:fr":"Oblast de L\u00e9ningrad","name:zh":"\u5217\u5b81\u683c\u52d2\u5dde","name:ba":"\u041b\u0435\u043d\u0438\u043d\u0433\u0440\u0430\u0434 \u04e9\u043b\u043a\u04d9\u04bb\u0435","name:sk":"Leningradsk\u00e1 oblas\u0165","name:ja":"\u30ec\u30cb\u30f3\u30b0\u30e9\u30fc\u30c9\u5dde","name:lt":"Leningrado sritis","name:uk":"\u041b\u0435\u043d\u0456\u043d\u0433\u0440\u0430\u0434\u0441\u044c\u043a\u0430 \u043e\u0431\u043b\u0430\u0441\u0442\u044c","name:hy":"\u053c\u0565\u0576\u056b\u0576\u0563\u0580\u0561\u0564\u056b \u0574\u0561\u0580\u0566","name:sv":"Leningrad oblast","name:sr":"\u041b\u0435\u045a\u0438\u043d\u0433\u0440\u0430\u0434\u0441\u043a\u0430 \u043e\u0431\u043b\u0430\u0441\u0442","osm_relation":true,"name:el":"\u03a0\u03b5\u03c1\u03b9\u03c6\u03ad\u03c1\u03b5\u03b9\u03b1 \u039b\u03ad\u03bd\u03b9\u03bd\u03b3\u03ba\u03c1\u03b1\u03bd\u03c4","kind":"region","name:en":"Leningrad oblast","name":"\u041b\u0435\u043d\u0438\u043d\u0433\u0440\u0430\u0434\u0441\u043a\u0430\u044f \u043e\u0431\u043b\u0430\u0441\u0442\u044c","name:pl":"Obw\u00f3d leningradzki","name:fi":"Leningradin alue","name:et":"Leningradi oblast","name:nl":"Oblast Leningrad","name:es":"\u00d3blast de Leningrado"},"arcs":[[5],[6]]},{"type":"LineString","properties":{"name:az":"Leninqrad vilay\u0259ti","name:ka":"\u10da\u10d4\u10dc\u10d8\u10dc\u10d2\u10e0\u10d0\u10d3\u10d8\u10e1 \u10dd\u10da\u10e5\u10d8","name:cu":"\u041b\u0454\u043d\u0438\u043d\u043e\u0433\u0440\u0430\u0434\u044c\u0441\u043a\u0430 \u043e\u0431\u043b\u0430\u0441\u0442\u044c","name:cs":"Leningradsk\u00e1 oblast","name:tt":"\u041b\u0435\u043d\u0438\u043d\u0433\u0440\u0430\u0434 \u04e9\u043b\u043a\u04d9\u0441\u0435","name:kv":"\u041b\u0435\u043d\u0438\u043d\u0433\u0440\u0430\u0434 \u043e\u0431\u043b\u0430\u0441\u044c\u0442","min_zoom":8.0,"name:it":"Oblast' di Leningrado","name:sv":"Leningrad oblast","name:vi":"Leningrad (t\u1ec9nh)","name:ce":"\u041b\u0435\u043d\u0438\u043d\u0433\u0440\u0430\u0434\u0430\u043d \u043e\u0431\u043b\u0430\u0441\u0442\u044c","id":-176095,"name:ca":"Prov\u00edncia de Leningrad","name:af":"Leningrad-oblast","sort_rank":256,"kind_detail":"4","name:de":"Oblast Leningrad","source":"openstreetmap.org","name:fr":"Oblast de L\u00e9ningrad","name:zh":"\u5217\u5b81\u683c\u52d2\u5dde","name:sr":"\u041b\u0435\u045a\u0438\u043d\u0433\u0440\u0430\u0434\u0441\u043a\u0430 \u043e\u0431\u043b\u0430\u0441\u0442","name:sk":"Leningradsk\u00e1 oblas\u0165","name:ja":"\u30ec\u30cb\u30f3\u30b0\u30e9\u30fc\u30c9\u5dde","name:lt":"Leningrado sritis","name:uk":"\u041b\u0435\u043d\u0456\u043d\u0433\u0440\u0430\u0434\u0441\u044c\u043a\u0430 \u043e\u0431\u043b\u0430\u0441\u0442\u044c","name:hy":"\u053c\u0565\u0576\u056b\u0576\u0563\u0580\u0561\u0564\u056b \u0574\u0561\u0580\u0566","name:be":"\u041b\u0435\u043d\u0456\u043d\u0433\u0440\u0430\u0434\u0441\u043a\u0430\u044f \u0432\u043e\u0431\u043b\u0430\u0441\u0446\u044c","name:ba":"\u041b\u0435\u043d\u0438\u043d\u0433\u0440\u0430\u0434 \u04e9\u043b\u043a\u04d9\u04bb\u0435","osm_relation":true,"name:el":"\u03a0\u03b5\u03c1\u03b9\u03c6\u03ad\u03c1\u03b5\u03b9\u03b1 \u039b\u03ad\u03bd\u03b9\u03bd\u03b3\u03ba\u03c1\u03b1\u03bd\u03c4","kind":"region","name:en":"Leningrad oblast","name":"\u041b\u0435\u043d\u0438\u043d\u0433\u0440\u0430\u0434\u0441\u043a\u0430\u044f \u043e\u0431\u043b\u0430\u0441\u0442\u044c","maritime_boundary":true,"name:pl":"Obw\u00f3d leningradzki","name:fi":"Leningradin alue","name:et":"Leningradi oblast","name:nl":"Oblast Leningrad","name:es":"\u00d3blast de Leningrado"},"arcs":[7]},{"type":"LineString","properties":{"name:az":"Pskov vilay\u0259ti","name:id":"Oblast Pskov","name:ka":"\u10e4\u10e1\u10d9\u10dd\u10d5\u10d8\u10e1 \u10dd\u10da\u10e5\u10d8","name:ko":"\ud504\uc2a4\ucf54\ud504 \uc8fc","name:cv":"\u041f\u0441\u043a\u043e\u0432 \u043e\u0431\u043b\u0430\u00e7\u0115","name:ar":"\u0628\u0633\u0643\u0648\u0641 \u0623\u0648\u0628\u0644\u0627\u0633\u062a","name:cs":"Pskovsk\u00e1 oblast","name:bs":"Pskovska oblast","name:tt":"\u041f\u0441\u043a\u043e\u0432 \u04e9\u043b\u043a\u04d9\u0441\u0435","name:kv":"\u041f\u0441\u043a\u043e\u0432 \u043e\u0431\u043b\u0430\u0441\u044c\u0442","min_zoom":8.0,"name:ro":"Regiunea Pskov","name:it":"Oblast' di Pskov","name:os":"\u041f\u0441\u043a\u043e\u0432\u044b \u043e\u0431\u043b\u00e6\u0441\u0442","name:lv":"Pleskavas apgabals","name:ce":"\u041f\u0441\u043a\u043e\u0432\u0430\u043d \u043e\u0431\u043b\u0430\u0441\u0442\u044c","name:ta":"\u0baa\u0bbf\u0b9a\u0bc1\u0b95\u0bcd\u0b95\u0bcb\u0bb5\u0bcd \u0bae\u0bbe\u0b95\u0bbe\u0ba3\u0bae\u0bcd","name:pl":"Obw\u00f3d pskowski","name:ca":"Prov\u00edncia de Pskov","name:af":"Pskof-oblast","name:fa":"\u0627\u0633\u062a\u0627\u0646 \u067e\u0633\u06a9\u0648\u0641","name:bg":"\u041f\u0441\u043a\u043e\u0432\u0441\u043a\u0430 \u043e\u0431\u043b\u0430\u0441\u0442","sort_rank":256,"kind_detail":"4","name:da":"Pskov oblast","id":-155262,"source":"openstreetmap.org","name:fr":"Oblast de Pskov","name:mk":"\u041f\u0441\u043a\u043e\u0432\u0441\u043a\u0430 \u043e\u0431\u043b\u0430\u0441\u0442","name:de":"Oblast Pskow","name:zh":"\u666e\u65af\u79d1\u592b\u5dde","name:ba":"\u041f\u0441\u043a\u043e\u0432 \u04e9\u043b\u043a\u04d9\u04bb\u0435","name:sl":"Pskovska oblast","name:nl":"Oblast Pskov","name:ja":"\u30d7\u30b9\u30b3\u30d5\u5dde","name:lt":"Pskovo sritis","name:sh":"Pskovska oblast","name:ur":"\u067e\u0633\u06a9\u0648\u0641 \u0627\u0648\u0628\u0644\u0627\u0633\u062a","name:la":"Regio Pscoviensis","name:uk":"\u041f\u0441\u043a\u043e\u0432\u0441\u044c\u043a\u0430 \u043e\u0431\u043b\u0430\u0441\u0442\u044c","name:hy":"\u054a\u057d\u056f\u0578\u057e\u056b \u0574\u0561\u0580\u0566","name:be":"\u041f\u0441\u043a\u043e\u045e\u0441\u043a\u0430\u044f \u0432\u043e\u0431\u043b\u0430\u0441\u0446\u044c","name:hu":"Pszkovi ter\u00fclet","name:hr":"Pskovska oblast","name:sr":"\u041f\u0441\u043a\u043e\u0432\u0441\u043a\u0430 \u043e\u0431\u043b\u0430\u0441\u0442","osm_relation":true,"name":"\u041f\u0441\u043a\u043e\u0432\u0441\u043a\u0430\u044f \u043e\u0431\u043b\u0430\u0441\u0442\u044c","name:el":"\u03a0\u03b5\u03c1\u03b9\u03c6\u03ad\u03c1\u03b5\u03b9\u03b1 \u03a0\u03c3\u03ba\u03bf\u03c6","kind":"region","name:en":"Pskov Oblast","name:uz":"Pskov viloyati","name:tr":"Pskov Oblast\u0131","name:fi":"Pihkovan alue","name:eu":"Pskov oblasta","name:et":"Pihkva oblast","name:es":"\u00d3blast de Pskov"},"arcs":[8]},{"type":"LineString","properties":{"name:az":"Pskov vilay\u0259ti","name:id":"Oblast Pskov","name:ka":"\u10e4\u10e1\u10d9\u10dd\u10d5\u10d8\u10e1 \u10dd\u10da\u10e5\u10d8","name:ko":"\ud504\uc2a4\ucf54\ud504 \uc8fc","name:cv":"\u041f\u0441\u043a\u043e\u0432 \u043e\u0431\u043b\u0430\u00e7\u0115","name:ar":"\u0628\u0633\u0643\u0648\u0641 \u0623\u0648\u0628\u0644\u0627\u0633\u062a","name:cs":"Pskovsk\u00e1 oblast","name:bs":"Pskovska oblast","name:tt":"\u041f\u0441\u043a\u043e\u0432 \u04e9\u043b\u043a\u04d9\u0441\u0435","name:kv":"\u041f\u0441\u043a\u043e\u0432 \u043e\u0431\u043b\u0430\u0441\u044c\u0442","min_zoom":8.0,"name:ro":"Regiunea Pskov","name:it":"Oblast' di Pskov","name:os":"\u041f\u0441\u043a\u043e\u0432\u044b \u043e\u0431\u043b\u00e6\u0441\u0442","name:lv":"Pleskavas apgabals","name:ce":"\u041f\u0441\u043a\u043e\u0432\u0430\u043d \u043e\u0431\u043b\u0430\u0441\u0442\u044c","name:ta":"\u0baa\u0bbf\u0b9a\u0bc1\u0b95\u0bcd\u0b95\u0bcb\u0bb5\u0bcd \u0bae\u0bbe\u0b95\u0bbe\u0ba3\u0bae\u0bcd","name:pl":"Obw\u00f3d pskowski","name:ca":"Prov\u00edncia de Pskov","name:af":"Pskof-oblast","name:fa":"\u0627\u0633\u062a\u0627\u0646 \u067e\u0633\u06a9\u0648\u0641","name:bg":"\u041f\u0441\u043a\u043e\u0432\u0441\u043a\u0430 \u043e\u0431\u043b\u0430\u0441\u0442","sort_rank":256,"kind_detail":"4","name:da":"Pskov oblast","id":-155262,"source":"openstreetmap.org","name:fr":"Oblast de Pskov","name:mk":"\u041f\u0441\u043a\u043e\u0432\u0441\u043a\u0430 \u043e\u0431\u043b\u0430\u0441\u0442","name:de":"Oblast Pskow","name:zh":"\u666e\u65af\u79d1\u592b\u5dde","name:ba":"\u041f\u0441\u043a\u043e\u0432 \u04e9\u043b\u043a\u04d9\u04bb\u0435","name:sl":"Pskovska oblast","name:nl":"Oblast Pskov","name:ja":"\u30d7\u30b9\u30b3\u30d5\u5dde","name:lt":"Pskovo sritis","name:sh":"Pskovska oblast","name:ur":"\u067e\u0633\u06a9\u0648\u0641 \u0627\u0648\u0628\u0644\u0627\u0633\u062a","name:la":"Regio Pscoviensis","name:uk":"\u041f\u0441\u043a\u043e\u0432\u0441\u044c\u043a\u0430 \u043e\u0431\u043b\u0430\u0441\u0442\u044c","name:hy":"\u054a\u057d\u056f\u0578\u057e\u056b \u0574\u0561\u0580\u0566","name:be":"\u041f\u0441\u043a\u043e\u045e\u0441\u043a\u0430\u044f \u0432\u043e\u0431\u043b\u0430\u0441\u0446\u044c","name:hu":"Pszkovi ter\u00fclet","name:hr":"Pskovska oblast","name:sr":"\u041f\u0441\u043a\u043e\u0432\u0441\u043a\u0430 \u043e\u0431\u043b\u0430\u0441\u0442","osm_relation":true,"name":"\u041f\u0441\u043a\u043e\u0432\u0441\u043a\u0430\u044f \u043e\u0431\u043b\u0430\u0441\u0442\u044c","name:el":"\u03a0\u03b5\u03c1\u03b9\u03c6\u03ad\u03c1\u03b5\u03b9\u03b1 \u03a0\u03c3\u03ba\u03bf\u03c6","kind":"region","name:en":"Pskov Oblast","name:uz":"Pskov viloyati","name:tr":"Pskov Oblast\u0131","name:fi":"Pihkovan alue","name:eu":"Pskov oblasta","name:et":"Pihkva oblast","name:es":"\u00d3blast de Pskov"},"arcs":[9]}]},"roads":{"type":"GeometryCollection","geometries":[{"type":"LineString","properties":{"kind":"major_road","network":"ee:regional","sort_rank":377,"kind_detail":"tertiary","is_bicycle_related":true,"bicycle_shield_text":"R1","bicycle_network":"icn","source":"openstreetmap.org","min_zoom":8.0,"shield_text":"13111","ref":"13111"},"arcs":[19]},{"type":"LineString","properties":{"kind":"major_road","network":"ee:regional","sort_rank":377,"kind_detail":"tertiary","is_bicycle_related":true,"bicycle_shield_text":null,"bicycle_network":"icn","source":"openstreetmap.org","min_zoom":8.0,"shield_text":"13190","ref":"13190","id":43913863},"arcs":[20]},{"type":"LineString","properties":{"kind":"major_road","network":"ru:regional","sort_rank":380,"kind_detail":"primary","source":"openstreetmap.org","min_zoom":8.0,"shield_text":"41\u041a","ref":"41\u041a-005"},"arcs":[21]},{"type":"LineString","properties":{"kind":"major_road","network":"ee:national","sort_rank":379,"kind_detail":"secondary","is_bicycle_related":true,"bicycle_shield_text":"R1","bicycle_network":"icn","source":"openstreetmap.org","min_zoom":8.0,"shield_text":"35","ref":"35"},"arcs":[22]},{"type":"LineString","properties":{"kind":"major_road","network":"ee:national","sort_rank":381,"landuse_kind":"residential","is_bicycle_related":true,"bicycle_shield_text":"R1","bicycle_network":"icn","source":"openstreetmap.org","min_zoom":8.0,"kind_detail":"trunk","shield_text":"3","ref":"3"},"arcs":[23]},{"type":"LineString","properties":{"kind":"major_road","sort_rank":355,"kind_detail":"tertiary_link","is_bicycle_related":true,"bicycle_shield_text":"R1","bicycle_network":"icn","source":"openstreetmap.org","min_zoom":8.0,"is_link":true,"id":216645826},"arcs":[24]},{"type":"LineString","properties":{"kind":"major_road","network":"ru:regional","sort_rank":380,"kind_detail":"primary","source":"openstreetmap.org","min_zoom":8.0,"shield_text":"58\u041a","ref":"58\u041a-096"},"arcs":[25]},{"type":"LineString","properties":{"kind":"major_road","network":"ee:regional","sort_rank":377,"kind_detail":"tertiary","is_bicycle_related":true,"bicycle_shield_text":"R1","bicycle_network":"icn","source":"openstreetmap.org","min_zoom":8.0,"shield_text":"13105","ref":"13105","id":26624950},"arcs":[26]},{"type":"MultiLineString","properties":{"kind":"major_road","network":"ee:national","sort_rank":381,"kind_detail":"trunk","is_bicycle_related":true,"bicycle_shield_text":"R1","bicycle_network":"icn","source":"openstreetmap.org","min_zoom":8.0,"shield_text":"3","ref":"3"},"arcs":[[27],[28],[29]]},{"type":"LineString","properties":{"kind":"major_road","network":"ee:regional","sort_rank":377,"kind_detail":"tertiary","is_bicycle_related":true,"bicycle_shield_text":"R1","bicycle_network":"icn","source":"openstreetmap.org","min_zoom":8.0,"shield_text":"13112","ref":"13112"},"arcs":[30]},{"type":"LineString","properties":{"kind":"major_road","network":"ee:national","sort_rank":379,"kind_detail":"secondary","is_bicycle_related":true,"bicycle_shield_text":"R1","bicycle_network":"icn","source":"openstreetmap.org","min_zoom":8.0,"shield_text":"36","ref":"36"},"arcs":[31]},{"type":"LineString","properties":{"kind":"major_road","network":"ee:regional","sort_rank":377,"kind_detail":"tertiary","is_bicycle_related":true,"bicycle_shield_text":"R1","bicycle_network":"icn","source":"openstreetmap.org","min_zoom":8.0,"shield_text":"13150","ref":"13150"},"arcs":[32]},{"type":"LineString","properties":{"kind":"major_road","network":"ee:national","sort_rank":381,"kind_detail":"trunk","is_bicycle_related":true,"bicycle_shield_text":null,"bicycle_network":"icn","source":"openstreetmap.org","min_zoom":8.0,"shield_text":"1","ref":"1","id":43913868},"arcs":[33]},{"type":"MultiLineString","properties":{"kind":"major_road","network":"ee:regional","sort_rank":377,"kind_detail":"tertiary","is_bicycle_related":true,"bicycle_shield_text":"R1","bicycle_network":"icn","source":"openstreetmap.org","min_zoom":8.0,"shield_text":"13187","ref":"13187"},"arcs":[[34],[35]]},{"type":"LineString","properties":{"kind":"major_road","network":"ee:national","sort_rank":379,"kind_detail":"secondary","is_bicycle_related":true,"bicycle_shield_text":"R1","bicycle_network":"icn","source":"openstreetmap.org","min_zoom":8.0,"shield_text":"88","ref":"35;88","id":459218140},"arcs":[36]},{"type":"MultiLineString","properties":{"kind":"major_road","network":"ee:national","sort_rank":381,"kind_detail":"trunk","is_bicycle_related":true,"source":"openstreetmap.org","min_zoom":8.0,"shield_text":"1","ref":"1"},"arcs":[[37],[38]]},{"type":"MultiLineString","properties":{"kind":"minor_road","sort_rank":360,"kind_detail":"residential","is_bicycle_related":true,"bicycle_shield_text":null,"bicycle_network":"icn","source":"openstreetmap.org","min_zoom":8.0},"arcs":[[39],[40]]},{"type":"LineString","properties":{"kind":"major_road","sort_rank":377,"kind_detail":"tertiary","is_bicycle_related":true,"bicycle_shield_text":"R1","bicycle_network":"icn","source":"openstreetmap.org","min_zoom":8.0},"arcs":[41]},{"type":"MultiLineString","properties":{"kind":"major_road","network":"ee:national","sort_rank":381,"kind_detail":"trunk","source":"openstreetmap.org","min_zoom":8.0,"shield_text":"1","ref":"1"},"arcs":[[42],[43],[44],[45],[46],[47],[48]]},{"type":"LineString","properties":{"kind":"major_road","network":"ee:regional","sort_rank":377,"kind_detail":"tertiary","is_bicycle_related":true,"bicycle_shield_text":null,"bicycle_network":"icn","source":"openstreetmap.org","min_zoom":8.0,"shield_text":"17160","ref":"17160"},"arcs":[49]},{"type":"LineString","properties":{"kind":"major_road","network":"ee:national","sort_rank":379,"kind_detail":"secondary","is_bicycle_related":true,"bicycle_shield_text":"R1","bicycle_network":"icn","source":"openstreetmap.org","min_zoom":8.0,"shield_text":"21","ref":"21"},"arcs":[50]},{"type":"MultiLineString","properties":{"kind":"minor_road","sort_rank":360,"kind_detail":"unclassified","is_bicycle_related":true,"bicycle_shield_text":"R1","bicycle_network":"icn","source":"openstreetmap.org","min_zoom":8.0},"arcs":[[51],[52]]},{"type":"MultiLineString","properties":{"kind":"major_road","network":"ee:national","sort_rank":381,"landuse_kind":"urban_area","source":"openstreetmap.org","min_zoom":8.0,"kind_detail":"trunk","shield_text":"3","ref":"3"},"arcs":[[53],[54],[55],[56],[57],[58],[59],[60],[61],[62],[63],[64]]},{"type":"LineString","properties":{"kind":"major_road","sort_rank":381,"landuse_kind":"urban_area","source":"openstreetmap.org","min_zoom":8.0,"kind_detail":"trunk","ref":"3","id":361380813},"arcs":[65]},{"type":"MultiLineString","properties":{"kind":"minor_road","sort_rank":360,"kind_detail":"unclassified","is_bicycle_related":true,"bicycle_shield_text":null,"bicycle_network":"icn","source":"openstreetmap.org","min_zoom":8.0},"arcs":[[66],[67],[68]]},{"type":"LineString","properties":{"kind":"major_road","network":"ee:regional","sort_rank":377,"kind_detail":"tertiary","is_bicycle_related":true,"bicycle_shield_text":null,"bicycle_network":"icn","source":"openstreetmap.org","min_zoom":8.0,"shield_text":"13105","ref":"13105","id":64326252},"arcs":[69]},{"type":"MultiLineString","properties":{"kind":"major_road","sort_rank":379,"kind_detail":"secondary","is_bicycle_related":true,"bicycle_shield_text":"R1","bicycle_network":"icn","source":"openstreetmap.org","min_zoom":8.0},"arcs":[[70],[71]]},{"type":"LineString","properties":{"kind":"major_road","sort_rank":379,"kind_detail":"secondary","is_bicycle_related":true,"bicycle_shield_text":"R1","bicycle_network":"icn","source":"openstreetmap.org","min_zoom":8.0,"landuse_kind":"residential","id":129093625},"arcs":[72]},{"type":"MultiLineString","properties":{"kind":"path","sort_rank":354,"kind_detail":"track","is_bicycle_related":true,"bicycle_shield_text":null,"bicycle_network":"icn","source":"openstreetmap.org","min_zoom":8.0},"arcs":[[73],[74],[75]]},{"type":"LineString","properties":{"kind":"major_road","network":"ee:regional","sort_rank":377,"kind_detail":"tertiary","is_bicycle_related":true,"bicycle_shield_text":null,"bicycle_network":"icn","source":"openstreetmap.org","min_zoom":8.0,"shield_text":"13121","ref":"13121"},"arcs":[76]},{"type":"LineString","properties":{"kind":"major_road","network":"ee:national","sort_rank":381,"kind_detail":"trunk","is_bicycle_related":true,"source":"openstreetmap.org","min_zoom":8.0,"landuse_kind":"urban_area","shield_text":"1","ref":"1","id":360654973},"arcs":[77]},{"type":"MultiLineString","properties":{"kind":"major_road","network":"ee:national","sort_rank":381,"kind_detail":"trunk","source":"openstreetmap.org","min_zoom":8.0,"landuse_kind":"residential","shield_text":"3","ref":"3"},"arcs":[[78],[79],[80],[81],[82]]},{"type":"LineString","properties":{"kind":"major_road","network":"ee:regional","sort_rank":377,"kind_detail":"tertiary","is_bicycle_related":true,"bicycle_shield_text":"R1","bicycle_network":"icn","source":"openstreetmap.org","min_zoom":8.0,"shield_text":"14245","ref":"14245","id":25997386},"arcs":[83]},{"type":"LineString","properties":{"source":"openstreetmap.org","kind":"major_road","landuse_kind":"urban_area","sort_rank":381,"kind_detail":"trunk","min_zoom":8.0,"id":44062272},"arcs":[84]},{"type":"LineString","properties":{"kind":"major_road","network":"ee:regional","sort_rank":377,"kind_detail":"tertiary","is_bicycle_related":true,"bicycle_shield_text":null,"bicycle_network":"icn","source":"openstreetmap.org","min_zoom":8.0,"shield_text":"13191","ref":"13191","id":51510697},"arcs":[85]},{"type":"MultiLineString","properties":{"kind":"major_road","network":"ee:national","sort_rank":381,"kind_detail":"trunk","source":"openstreetmap.org","min_zoom":8.0,"shield_text":"3","ref":"3"},"arcs":[[86],[87],[88],[89],[90],[91]]},{"type":"LineString","properties":{"kind":"path","sort_rank":354,"kind_detail":"track","is_bicycle_related":true,"bicycle_shield_text":"R1","bicycle_network":"icn","source":"openstreetmap.org","min_zoom":8.0,"id":43921891},"arcs":[92]},{"type":"LineString","properties":{"kind":"major_road","sort_rank":377,"kind_detail":"tertiary","is_bicycle_related":true,"bicycle_shield_text":"R1","bicycle_network":"icn","source":"openstreetmap.org","min_zoom":8.0,"ref":"144","id":129093631},"arcs":[93]},{"type":"MultiLineString","properties":{"kind":"major_road","network":"ee:national","sort_rank":381,"kind_detail":"trunk","is_bicycle_related":true,"bicycle_shield_text":"R1","bicycle_network":"icn","source":"openstreetmap.org","min_zoom":8.0,"shield_text":"1","ref":"1"},"arcs":[[94],[95],[96],[97]]},{"type":"MultiLineString","properties":{"kind":"major_road","network":"ee:regional","sort_rank":377,"kind_detail":"tertiary","is_bicycle_related":true,"bicycle_shield_text":null,"bicycle_network":"icn","source":"openstreetmap.org","min_zoom":8.0,"shield_text":"13133","ref":"13133"},"arcs":[[98],[99]]},{"type":"LineString","properties":{"kind":"minor_road","sort_rank":360,"landuse_kind":"residential","is_bicycle_related":true,"bicycle_shield_text":"R1","bicycle_network":"icn","source":"openstreetmap.org","min_zoom":8.0,"kind_detail":"residential"},"arcs":[100]},{"type":"LineString","properties":{"kind":"major_road","network":"ee:national","sort_rank":379,"kind_detail":"secondary","is_bicycle_related":true,"bicycle_shield_text":"3","bicycle_network":"ncn","source":"openstreetmap.org","min_zoom":8.0,"landuse_kind":"urban_area","shield_text":"33","ref":"33","id":197100670},"arcs":[101]},{"type":"LineString","properties":{"kind":"major_road","network":"ee:national","sort_rank":379,"kind_detail":"secondary","is_bicycle_related":true,"bicycle_shield_text":"R1","bicycle_network":"icn","source":"openstreetmap.org","min_zoom":8.0,"shield_text":"91","name:ru":"\u042f\u043d\u0430 \u041f\u043e\u0441\u043a\u0430","ref":"91","id":4703366},"arcs":[102]},{"type":"MultiLineString","properties":{"kind":"major_road","network":"ee:national","sort_rank":379,"kind_detail":"secondary","is_bicycle_related":true,"bicycle_shield_text":"R1","bicycle_network":"icn","source":"openstreetmap.org","min_zoom":8.0,"shield_text":"32","ref":"32"},"arcs":[[103],[104],[105]]},{"type":"LineString","properties":{"kind":"path","sort_rank":354,"kind_detail":"footway","is_bicycle_related":true,"bicycle_shield_text":null,"bicycle_network":"icn","source":"openstreetmap.org","min_zoom":8.0,"id":63108181},"arcs":[106]},{"type":"LineString","properties":{"kind":"major_road","network":"e-road","sort_rank":381,"kind_detail":"trunk","source":"openstreetmap.org","min_zoom":8.0,"landuse_kind":"urban_area","shield_text":"264","ref":"3","id":361380817},"arcs":[107]},{"type":"LineString","properties":{"kind":"major_road","network":"ee:regional","sort_rank":377,"kind_detail":"tertiary","is_bicycle_related":true,"bicycle_shield_text":"R1","bicycle_network":"icn","source":"openstreetmap.org","min_zoom":8.0,"shield_text":"13140","ref":"13140","id":64326255},"arcs":[108]},{"type":"LineString","properties":{"kind":"major_road","network":"ee:national","sort_rank":379,"kind_detail":"secondary","is_bicycle_related":true,"bicycle_shield_text":"R1","bicycle_network":"icn","source":"openstreetmap.org","min_zoom":8.0,"shield_text":"88","ref":"88"},"arcs":[109]},{"type":"LineString","properties":{"kind":"major_road","network":"ee:regional","sort_rank":377,"kind_detail":"tertiary","is_bicycle_related":true,"bicycle_shield_text":"R1","bicycle_network":"icn","source":"openstreetmap.org","min_zoom":8.0,"shield_text":"13198","ref":"13198"},"arcs":[110]},{"type":"LineString","properties":{"kind":"major_road","network":"ee:regional","sort_rank":377,"kind_detail":"tertiary","is_bicycle_related":true,"bicycle_shield_text":null,"bicycle_network":"icn","source":"openstreetmap.org","min_zoom":8.0,"shield_text":"13104","ref":"13104"},"arcs":[111]},{"type":"LineString","properties":{"kind":"major_road","sort_rank":355,"kind_detail":"trunk_link","is_bicycle_related":true,"bicycle_shield_text":"R1","bicycle_network":"icn","source":"openstreetmap.org","min_zoom":8.0,"is_link":true},"arcs":[112]},{"type":"MultiLineString","properties":{"kind":"major_road","sort_rank":379,"kind_detail":"secondary","is_bicycle_related":true,"bicycle_shield_text":"R1","bicycle_network":"icn","source":"openstreetmap.org","min_zoom":8.0,"landuse_kind":"urban_area"},"arcs":[[113],[114]]},{"type":"LineString","properties":{"kind":"major_road","network":"ee:national","sort_rank":381,"kind_detail":"trunk","is_bicycle_related":true,"bicycle_shield_text":"R1","bicycle_network":"icn","source":"openstreetmap.org","min_zoom":8.0,"landuse_kind":"urban_area","shield_text":"1","ref":"1"},"arcs":[115]},{"type":"LineString","properties":{"kind":"major_road","network":"ee:national","sort_rank":379,"kind_detail":"secondary","is_bicycle_related":true,"bicycle_shield_text":"R1","bicycle_network":"icn","source":"openstreetmap.org","min_zoom":8.0,"shield_text":"33","ref":"33"},"arcs":[116]},{"type":"LineString","properties":{"kind":"major_road","network":"ee:national","sort_rank":381,"kind_detail":"trunk","is_bicycle_related":true,"bicycle_shield_text":"3","bicycle_network":"ncn","source":"openstreetmap.org","min_zoom":8.0,"landuse_kind":"urban_area","shield_text":"3","ref":"3","id":422423619},"arcs":[117]},{"type":"LineString","properties":{"kind":"major_road","network":"ee:regional","sort_rank":377,"kind_detail":"tertiary","is_bicycle_related":true,"bicycle_shield_text":null,"bicycle_network":"icn","source":"openstreetmap.org","min_zoom":8.0,"shield_text":"13119","ref":"13119"},"arcs":[118]},{"type":"LineString","properties":{"kind":"major_road","network":"ee:regional","sort_rank":377,"kind_detail":"tertiary","is_bicycle_related":true,"bicycle_shield_text":"R1","bicycle_network":"icn","source":"openstreetmap.org","min_zoom":8.0,"shield_text":"13144","ref":"13144"},"arcs":[119]},{"type":"MultiLineString","properties":{"kind":"major_road","network":"ee:national","sort_rank":379,"kind_detail":"secondary","is_bicycle_related":true,"bicycle_shield_text":"R1","bicycle_network":"icn","source":"openstreetmap.org","min_zoom":8.0,"shield_text":"91","ref":"91"},"arcs":[[120],[121]]},{"type":"LineString","properties":{"kind":"major_road","network":"ee:national","sort_rank":381,"kind_detail":"trunk","is_bicycle_related":true,"bicycle_shield_text":"R1","bicycle_network":"icn","source":"openstreetmap.org","min_zoom":8.0,"landuse_kind":"urban_area","shield_text":"3","ref":"3"},"arcs":[122]},{"type":"MultiLineString","properties":{"kind":"major_road","network":"ee:national","sort_rank":381,"landuse_kind":"urban_area","source":"openstreetmap.org","min_zoom":8.0,"kind_detail":"trunk","shield_text":"1","ref":"1"},"arcs":[[123],[124],[125]]},{"type":"LineString","properties":{"kind":"major_road","network":"ee:regional","sort_rank":377,"kind_detail":"tertiary","is_bicycle_related":true,"bicycle_shield_text":"R1","bicycle_network":"icn","source":"openstreetmap.org","min_zoom":8.0,"shield_text":"13197","ref":"13197"},"arcs":[126]},{"type":"LineString","properties":{"kind":"major_road","network":"ru:regional","sort_rank":380,"kind_detail":"primary","source":"openstreetmap.org","min_zoom":8.0,"shield_text":"41\u041a","ref":"41\u041a-188"},"arcs":[127]}]},"earth":{"type":"GeometryCollection","geometries":[{"type":"MultiPolygon","properties":{"sort_rank":10,"source":"naturalearthdata.com","min_zoom":0.0,"kind":"earth","area":48485429778},"arcs":[[[128]]]}]},"landuse":{"type":"GeometryCollection","geometries":[{"type":"Polygon","properties":{"kind":"aerodrome","area":13558200,"sort_rank":60,"operator":"Russian Air Force","source":"openstreetmap.org","min_zoom":8.0,"tier":3,"id":252257597},"arcs":[[129]]},{"type":"MultiPolygon","properties":{"source":"openstreetmap.org","kind":"military","tier":3,"area":412461592,"sort_rank":45,"min_zoom":8.0},"arcs":[[[130]]]},{"type":"MultiPolygon","properties":{"source":"naturalearthdata.com","kind":"urban_area","name":"","area":257580861,"sort_rank":11,"min_zoom":4.0},"arcs":[[[131]],[[132]],[[133]]]},{"type":"MultiPolygon","properties":{"source":"openstreetmap.org","kind":"residential","tier":2,"area":29033276,"sort_rank":20,"min_zoom":8.0},"arcs":[[[134]]]},{"type":"MultiPolygon","properties":{"source":"openstreetmap.org","kind":"park","tier":2,"area":2241589689,"sort_rank":24,"min_zoom":4.0,"osm_relation":true},"arcs":[[[135]]]}]}},"type":"Topology","transform":{"translate":[26.71875,58.8137417157],"scale":[0.0003433228,0.0001759219]},"arcs":[[[2016,0],[59,58]],[[2075,58],[912,905],[2,248],[67,36],[15,144],[56,66],[-12,120],[63,91],[-18,37],[15,91],[163,177],[67,131],[37,135],[-1,160],[48,78],[120,128],[137,33],[63,55],[287,19]],[[4096,3545],[-112,121],[-118,39],[-67,101]],[[3799,3806],[-249,290]],[[2968,933],[525,246],[39,-38],[173,6],[26,-17],[-9,-47],[109,-23],[-1,-75],[37,-1],[1,26],[29,7],[70,-4],[46,51],[14,-42],[57,-5],[12,-98]],[[4096,2712],[-287,-19],[-63,-55],[-137,-33],[-156,-175],[-24,-132],[13,-59],[-37,-135],[-67,-131],[-163,-177],[-15,-91],[18,-37],[-63,-91],[12,-120],[-56,-66],[-15,-144],[-67,-36],[-14,-106],[20,-94],[-27,-78]],[[3799,3806],[67,-101],[118,-39],[112,-121]],[[3550,4096],[249,-290]],[[2075,58],[-59,-58]],[[2968,933],[-893,-875]],[[4096,1679],[-161,-52],[-20,-161],[-66,-111],[-88,-460],[-80,-228],[-20,-172],[-112,-209],[-103,-286]],[[0,3033],[783,37],[321,57],[67,-24],[190,13],[652,-37],[640,143],[169,9],[513,-118],[761,54]],[[0,3033],[783,37],[321,57],[67,-24],[190,13],[652,-37],[640,143],[169,9],[513,-118],[761,54]],[[670,0],[-7,34],[16,164],[38,157],[42,109],[92,157],[98,120],[107,89],[599,238],[728,83],[574,-128],[10,-67],[-21,-89],[-33,-90],[24,-201],[195,-298],[21,-243],[-7,-35],[-2476,0]],[[3900,4096],[-7,-36],[-106,-263],[-104,-198],[-87,-106],[-112,-78],[-121,-39],[-455,111],[-448,28],[-449,112],[-391,-28],[-462,-28],[-520,46],[-59,23],[-122,77],[-142,53],[-134,145],[-122,133],[-58,48],[3899,0]],[[4096,1993],[-41,-45],[-73,-42],[-48,-3],[31,30],[32,53],[26,64],[10,69],[0,172],[9,37],[24,67],[6,35],[-41,187],[-96,-33],[-106,-116],[-76,-57],[-26,32],[-65,132],[-28,47],[-58,20],[-30,-65],[-24,-85],[-39,-42],[-48,-77],[-34,-167],[-45,-164],[-84,-66],[90,429],[50,122],[-25,100],[63,84],[163,92],[340,-7],[59,81],[-69,-4],[-211,84],[93,47],[236,20],[35,28],[0,-1059]],[[1,4096],[58,-48],[122,-133],[134,-145],[142,-53],[122,-77],[59,-23],[520,-46],[462,28],[391,28],[449,-112],[448,-28],[455,-111],[121,39],[112,78],[87,106],[104,198],[106,263],[7,36]],[[670,0],[-7,34],[16,164],[38,157],[42,109],[92,157],[98,120],[107,89],[599,238],[728,83],[574,-128],[10,-67],[-21,-89],[-33,-90],[24,-201],[195,-298],[21,-243],[-7,-35]],[[4096,1993],[-41,-45],[-73,-42],[-48,-3],[31,30],[32,53],[26,64],[10,69],[0,172],[9,37],[24,67],[6,35],[-41,187],[-96,-33],[-106,-116],[-76,-57],[-26,32],[-65,132],[-28,47],[-58,20],[-30,-65],[-24,-85],[-39,-42],[-48,-77],[-34,-167],[-45,-164],[-84,-66],[90,429],[50,122],[-25,100],[63,84],[163,92],[340,-7],[59,81],[-69,-4],[-211,84],[93,47],[236,20],[35,28]],[[1476,1049],[258,11],[327,60],[-34,26]],[[686,3495],[23,30],[40,-6]],[[3793,1064],[47,238]],[[323,943],[52,51],[44,-18],[38,15],[324,217],[181,-24],[99,20]],[[2016,3093],[1,-3]],[[644,71],[2,-4]],[[3396,0],[84,274],[3,247],[123,246],[162,178],[25,119]],[[2303,3185],[-19,112],[41,118]],[[641,72],[-72,118]],[[1320,980],[156,69]],[[1740,1525],[19,231],[102,136]],[[2027,1146],[-67,75],[9,131],[-64,116],[-165,57]],[[416,194],[153,-4]],[[2316,2312],[-137,-175],[-57,-113],[-261,-132]],[[686,3495],[-126,56],[-176,4]],[[2358,3414],[-33,1]],[[2508,3356],[-5,0]],[[1063,1205],[-2,-1],[1,-1],[2,1],[-1,1]],[[1223,3411],[133,47],[168,-6]],[[1562,3451],[62,-2],[118,-69]],[[749,3519],[53,6]],[[2326,3474],[-30,3]],[[3009,3278],[-11,52],[77,-51]],[[384,3555],[-269,34],[-115,-55]],[[1223,3411],[-169,-60],[-112,49],[-182,20],[-74,75]],[[1800,3301],[-10,19],[-48,60],[57,-86]],[[2303,3185],[150,37],[50,49],[262,19]],[[3006,3281],[69,-2]],[[3174,3262],[196,-53]],[[3505,3209],[83,-14],[231,177],[194,-93],[83,-10]],[[0,3669],[21,20],[205,68],[181,-141]],[[416,194],[-31,78],[-83,64],[-38,178],[18,264],[41,72],[0,92]],[[2262,2732],[141,11],[65,-69],[5,-92],[-39,-44],[-2,-99],[-37,-26],[-65,18]],[[2754,3352],[11,-62]],[[1946,3160],[11,-13]],[[1957,3147],[-1,7]],[[1957,3147],[9,-4]],[[1975,3136],[-7,7]],[[1997,3007],[33,62]],[[2032,3073],[1,0],[-15,17]],[[2030,3069],[2,3]],[[2032,3073],[-1,-3]],[[2031,3070],[-1,-1]],[[2030,3075],[1,-5]],[[2031,3070]],[[1966,3144],[0,-2],[2,0],[0,2],[-2,0]],[[1966,3144],[-2,-1]],[[892,3412],[14,15]],[[937,3430],[2,-1]],[[1003,3449],[18,22]],[[2325,3415],[7,35]],[[2093,3028],[-8,7]],[[324,943],[-1,0],[-1,0],[1,-1],[1,1]],[[2034,3142],[0,3]],[[906,3427],[31,3]],[[939,3429],[64,20]],[[1021,3471],[31,1]],[[1470,3495],[-93,57],[-39,-6],[-105,-96]],[[1524,3452],[38,-1]],[[1982,3128],[-7,8]],[[1982,3128],[33,-35]],[[2016,3092],[-34,36]],[[2015,3091],[1,1]],[[2018,3090],[-2,2]],[[652,0],[-6,67]],[[1968,3144],[9,9]],[[1052,3472],[164,-3],[17,-19]],[[569,190],[158,251],[95,94],[61,124],[172,162],[265,159]],[[640,61],[-7,-61]],[[640,61],[-1,25]],[[640,61],[1,9],[0,2]],[[1476,1049],[-2,118],[26,56],[50,70],[166,126],[24,106]],[[1861,1892],[-58,444],[132,182],[46,182],[-18,160],[34,147]],[[2704,3413],[-2,-58],[52,-3]],[[3369,3208],[1,1]],[[2058,3146],[120,-20],[125,59]],[[2765,3290],[241,-9]],[[3075,3279],[99,-17]],[[3370,3209],[135,0]],[[1654,3550],[-41,12],[-143,-67]],[[2296,3477],[-261,94],[-146,-31],[-23,32],[-70,8]],[[2034,3142],[-18,-49]],[[2039,3076],[-6,-3]],[[3855,3691],[23,-16]],[[2180,2983],[90,-144],[-8,-107]],[[2330,2431],[-37,-87],[23,-32]],[[2180,2985],[-1,-1],[1,-1],[1,1],[-1,1]],[[2332,3450],[-6,24]],[[1968,3142],[2,0]],[[2385,3439],[-27,-25]],[[1063,1203],[185,-106],[38,-95],[34,-22]],[[2508,3356],[196,57]],[[384,3555],[23,61]],[[641,72],[3,-1]],[[2034,3072],[51,-37]],[[2034,3145],[0,6]],[[2034,3151],[24,-5]],[[2179,2984],[-86,44]],[[2034,3072],[-1,1]],[[802,3525],[90,-113]],[[3174,3262],[113,-90],[82,36]],[[3505,3209],[0,72],[61,96],[138,115],[151,199]],[[3878,3675],[174,-105],[44,-65]],[[2017,3090],[17,-18]],[[1799,3294],[16,-26],[4,-4],[127,-104],[56,-7]],[[2002,3153],[-61,13],[-125,101],[-16,34]],[[2002,3153],[32,-2]],[[2503,3356],[6,40],[-124,43]],[[3840,1302],[168,-28],[88,-93]],[[4096,4096],[0,-4096],[-1925,0],[-2171,0],[0,4096],[1,0],[58,-48],[122,-133],[134,-145],[142,-53],[122,-77],[59,-23],[520,-46],[462,28],[391,28],[160,-40],[289,-72],[448,-28],[455,-111],[121,39],[112,78],[87,106],[104,198],[106,263],[7,36],[196,0]],[[3725,31],[17,42],[59,-3],[1,-70],[-65,0],[-12,31]],[[2837,2707],[140,96],[76,3],[109,-95],[8,-156],[-27,-15],[-86,22],[-8,-41],[-207,-10],[-5,196]],[[4096,3052],[-93,-32],[9,67],[84,71],[0,-106]],[[1450,3168],[-68,42],[33,94],[101,119],[28,103],[37,-156],[-48,-134],[-83,-68]],[[1834,3301],[66,-91],[127,-35],[52,-48],[10,-159],[-124,52],[-30,-30],[-2,-97],[-79,38],[-18,89],[-65,0],[32,317],[31,-36]],[[1942,3115],[58,36],[122,-22],[33,-29],[-182,-14],[-31,29]],[[4096,4096],[0,-251],[-23,30],[-16,-30],[-35,-2],[-40,158],[-21,-71],[18,-79],[-88,-74],[0,-73],[-92,102],[76,195],[-39,61],[35,-6],[-18,14],[29,10],[-12,16],[226,0]]]}