{"objects":{"water":{"type":"GeometryCollection","geometries":[{"type":"Polygon","properties":{"source":"naturalearthdata.com","kind":"lake","name":"Lake Peipus","area":10219008000,"sort_rank":200,"min_zoom":0.0,"id":502},"arcs":[[6],[7]]},{"type":"Polygon","properties":{"source":"naturalearthdata.com","kind":"lake","name":"Pskoyskoye Ozero","area":2952729344,"sort_rank":200,"min_zoom":0.0,"id":495},"arcs":[[8]]},{"type":"Point","properties":{"label_placement":true,"kind":"lake","name":"Lake Peipus","area":10219008000,"sort_rank":200,"source":"naturalearthdata.com","min_zoom":0.0,"id":502},"coordinates":[2246,3063]},{"type":"MultiLineString","properties":{"source":"naturalearthdata.com","kind":"lake","sort_rank":367,"boundary":true,"min_zoom":0.0,"id":495},"arcs":[[9],[10]]},{"type":"MultiLineString","properties":{"source":"naturalearthdata.com","kind":"lake","sort_rank":367,"boundary":true,"min_zoom":0.0,"id":502},"arcs":[[11],[12],[13]]}]},"buildings":{"type":"GeometryCollection","geometries":[]},"places":{"type":"GeometryCollection","geometries":[{"type":"Point","properties":{"kind":"locality","old_name:de":"D\u00f6rpt","name":"Tartu","kind_detail":"city","name:he":"\u05d8\u05e8\u05d8\u05d5","name:de":"Dorpat","source":"openstreetmap.org","min_zoom":8.0,"name:uk":"\u0422\u0430\u0440\u0442\u0443","name:fi":"Tartto","name:ru":"\u0422\u0430\u0440\u0442\u0443","name:be":"\u0422\u0430\u0440\u0442\u0443","old_name:sv":"Dorpat","id":293620554,"population":102414},"coordinates":[15,1641]},{"type":"Point","properties":{"kind":"locality","name:en":"Gdov","name":"\u0413\u0434\u043e\u0432","name:lt":"Gdovas","kind_detail":"town","name:de":"Gdow","source":"openstreetmap.org","min_zoom":8.0,"name:et":"Oudova","name:pl":"Gd\u00f3w","id":304552666,"population":3971},"coordinates":[3195,3703]},{"type":"Point","properties":{"kind":"locality","name":"R\u00e4pina","name:lt":"Repina","kind_detail":"town","name:de":"Rappin","source":"openstreetmap.org","min_zoom":8.0,"name:ru":"\u0420\u044f\u043f\u0438\u043d\u0430","id":319954317,"population":2867},"coordinates":[2171,110]},{"type":"Point","properties":{"kind":"locality","name":"Kallaste","name:lt":"Kalast\u0117","kind_detail":"town","source":"openstreetmap.org","min_zoom":8.0,"name:uk":"\u041a\u0430\u043b\u043b\u0430\u0441\u0442\u0435","name:ru":"\u041a\u0430\u043b\u043b\u0430\u0441\u0442\u0435","id":31500814,"population":1115},"coordinates":[1294,3258]}]},"transit":{"type":"GeometryCollection","geometries":[{"type":"LineString","properties":{"kind":"train","name":"\u0413\u0434\u043e\u0432 - \u0421\u0430\u043d\u043a\u0442-\u041f\u0435\u0442\u0435\u0440\u0431\u0443\u0440\u0433","sort_rank":275,"source":"openstreetmap.org","min_zoom":6.0,"ref":"\u0413\u0434\u043e\u0432 - \u0421\u0430\u043d\u043a\u0442-\u041f\u0435\u0442\u0435\u0440\u0431\u0443\u0440\u0433","id":-1638724,"osm_relation":true},"arcs":[4]},{"type":"LineString","properties":{"kind":"train","name":"Edelaraudtee Tallinn <--> Koidula","sort_rank":275,"source":"openstreetmap.org","min_zoom":6.0,"operator":"Edelaraudtee AS","ref":"Tallinn - Koidula","osm_relation":true},"arcs":[5]}]},"pois":{"type":"GeometryCollection","geometries":[{"type":"Point","properties":{"kind":"nature_reserve","name:en":"Remdovsky Reserve","protect_class":"4","area":2757620000,"source":"openstreetmap.org","min_zoom":6.58,"tier":2,"id":476973338,"name":"\u0420\u0435\u043c\u0434\u043e\u0432\u0441\u043a\u0438\u0439 \u0437\u0430\u043a\u0430\u0437\u043d\u0438\u043a"},"coordinates":[3234,874]}]},"boundaries":{"type":"GeometryCollection","geometries":[{"type":"LineString","properties":{"name:kg":"Estonia","name:ka":"\u10d4\u10e1\u10e2\u10dd\u10dc\u10d4\u10d7\u10d8","name:ko":"\uc5d0\uc2a4\ud1a0\ub2c8\uc544","name:cv":"\u042d\u0441\u0442\u043e\u043d\u0438","name:cu":"\u0404\u0441\u0442\u044c","name:kl":"Estlandi","name:cs":"Estonsko","name:tt":"\u042d\u0441\u0442\u043e\u043d\u0438\u044f","name:co":"Estonia","name:kv":"\u042d\u0441\u0442\u043e\u043d\u0438\u044f","name:ku":"Estonya","name:tl":"Estonia","name:ce":"\u042d\u0441\u0442\u043e\u043d\u0438","name:ta":"\u0b8e\u0b9a\u0bc1\u0ba4\u0bcd\u0ba4\u0bcb\u0ba9\u0bbf\u0baf\u0bbe","name:tg":"\u042d\u0441\u0442\u043e\u043d\u0438\u044f","name:ca":"Est\u00f2nia","name:te":"\u0c0e\u0c38\u0c4d\u0c1f\u0c4b\u0c28\u0c3f\u0c2f\u0c3e","name:cy":"Estonia","name:hr":"Estonija","name:da":"Estland","name:de":"Estland","name:dz":"\u0f68\u0f72\u0f66\u0f72\u0f0b\u0f4a\u0f7c\u0f0b\u0f53\u0f72\u0f0b\u0f61\u0f0d","source":"openstreetmap.org","name:kn":"\u0c8e\u0cb8\u0ccd\u0c9f\u0cca\u0ca8\u0cbf\u0caf","name:lv":"Igaunija","name:lt":"Estija","name:uz":"Estoniya","name:kk":"\u042d\u0441\u0442\u043e\u043d\u0438\u044f","name:ur":"\u0627\u0633\u062a\u0648\u0646\u06cc\u0627","name:lb":"Estland","name:la":"Estonia","name:uk":"\u0415\u0441\u0442\u043e\u043d\u0456\u044f","name:ug":"\u0626\u06d0\u0633\u062a\u0648\u0646\u0649\u064a\u06d5","name:li":"Esland","name:ln":"Estonia","name:el":"\u0395\u03c3\u03b8\u03bf\u03bd\u03af\u03b1","name:eo":"Estonujo","name:en":"Estonia","name":"Eesti","name:tk":"Estoni\u00fda","name:ee":"Estonia","name:th":"\u0e1b\u0e23\u0e30\u0e40\u0e17\u0e28\u0e40\u0e2d\u0e2a\u0e42\u0e15\u0e40\u0e19\u0e35\u0e22","name:eu":"Estonia","name:es":"Estonia","name:ia":"Estonia","name:az":"Estoniya","name:ie":"Estonia","name:id":"Estonia","name:ar":"\u0625\u0633\u062a\u0648\u0646\u064a\u0627","name:io":"Estonia","name:is":"Eistland","name:am":"\u12a4\u1235\u1276\u1292\u12eb","name:it":"Estonia","name:an":"Estonia","name:ru":"\u042d\u0441\u0442\u043e\u043d\u0438\u044f","name:rw":"Esitoniya","name:pl":"Estonia","name:af":"Estland","name:zu":"I-Estoniya","kind_detail":"2","name:ky":"\u042d\u0441\u0442\u043e\u043d\u0438\u044f","name:zh-yue":"\u611b\u6c99\u5c3c\u4e9e","name:zh":"\u7231\u6c99\u5c3c\u4e9a","name:so":"Estoniya","name:sl":"Estonija","name:sk":"Est\u00f3nsko","name:ja":"\u30a8\u30b9\u30c8\u30cb\u30a2","name:si":"\u0d91\u0dc3\u0dca\u0da7\u0ddd\u0db1\u0dd2\u0dba\u0dcf","name:sh":"Estonija","name:se":"Estteeana","name:sc":"Est\u00f2nia","name:sa":"\u090f\u0938\u094d\u091f\u094b\u0928\u093f\u092f\u093e","name:bs":"Estonija","name:bm":"Estonia","name:bn":"\u0987\u09b8\u09cd\u09a4\u09cb\u09a8\u09bf\u09af\u09bc\u09be","name:bo":"\u0f68\u0f72\u0f66\u0f74\u0f0b\u0f4a\u0f7c\u0f0b\u0f53\u0f72\u0f61\u0f0d","name:br":"Estonia","name:sw":"Estonia","name:be":"\u042d\u0441\u0442\u043e\u043d\u0456\u044f","name:su":"\u00c9stonia","name:bg":"\u0415\u0441\u0442\u043e\u043d\u0438\u044f","name:ss":"IWestoniya","name:ba":"\u042d\u0441\u0442\u043e\u043d\u0438\u044f","name:sq":"Estonia","name:jv":"Estonia","name:bi":"Estonia","name:pt":"Est\u00f3nia","name:ps":"\u0627\u06d0\u0633\u067c\u0648\u0646\u064a\u0627","name:oc":"Est\u00f2nia","min_zoom":8.0,"name:ro":"Estonia","name:pa":"\u0a07\u0a38\u0a24\u0a4b\u0a28\u0a40\u0a06","name:os":"\u042d\u0441\u0442\u043e\u043d\u0438","name:or":"\u0b0f\u0b37\u0b4d\u0b1f\u0b4b\u0b28\u0b3f\u0b06","alt_name:pt":"Est\u00f4nia","name:st":"Estonia","sort_rank":262,"name:sr":"\u0415\u0441\u0442\u043e\u043d\u0438\u0458\u0430","osm_relation":true,"name:tr":"Estonya","name:hi":"\u090f\u0938\u094d\u091f\u094b\u0928\u093f\u092f\u093e","name:sv":"Estland","name:he":"\u05d0\u05e1\u05d8\u05d5\u05e0\u05d9\u05d4","name:hy":"\u0537\u057d\u057f\u0578\u0576\u056b\u0561","name:ht":"Estoni","name:hu":"\u00c9sztorsz\u00e1g","name:qu":"Istunya","kind":"country","name:yi":"\u05e2\u05e1\u05d8\u05dc\u05d0\u05e0\u05d3","name:yo":"Est\u00f3n\u00ed\u00e0","name:mt":"Estonja","alt_name:eo":"Estonio","name:ms":"Estonia","name:mr":"\u090f\u0938\u094d\u091f\u094b\u0928\u093f\u092f\u093e","name:my":"\u1021\u1000\u103a\u1005\u103a\u1010\u102d\u102f\u1038\u1014\u102e\u1038\u101a\u102c\u1038\u1014\u102d\u102f\u1004\u103a\u1004\u1036","official_name":"Eesti Vabariik","name:kw":"Estoni","name:mg":"Estonia","name:ve":"Estonia","name:ml":"\u0d0e\u0d38\u0d4d\u0d31\u0d4d\u0d31\u0d4b\u0d23\u0d3f\u0d2f","name:vi":"Estonia","name:mn":"\u042d\u0441\u0442\u043e\u043d","name:mi":"Etonia","id":-79510,"name:mk":"\u0415\u0441\u0442\u043e\u043d\u0438\u0458\u0430","name:vo":"Lestiy\u00e4n","name:fa":"\u0627\u0633\u062a\u0648\u0646\u06cc","name:ff":"Estoniya","name:fi":"Viro","name:fo":"Estland","name:fr":"Estonie","name:fy":"Estl\u00e2n","int_name":"Estonia","name:nl":"Estland","name:nn":"Estland","name:no":"Estland","name:na":"Etoniya","name:ne":"\u0907\u0938\u094d\u091f\u094b\u0928\u093f\u092f\u093e","name:wo":"Estooni","name:nv":"\u00c9\u00e9stii Bik\u00e9yah","name:ga":"An East\u00f3in","name:gd":"East\u00f2inia","name:gn":"Eto\u00f1a","name:gl":"Estonia","name:gv":"Yn Estaan","name:gu":"\u0a88\u0ab8\u0acd\u0a9f\u0acb\u0aa8\u0abf\u0aaf\u0abe"},"arcs":[0]},{"type":"LineString","properties":{"name:kg":"Estonia","name:ka":"\u10d4\u10e1\u10e2\u10dd\u10dc\u10d4\u10d7\u10d8","name:ko":"\uc5d0\uc2a4\ud1a0\ub2c8\uc544","name:cv":"\u042d\u0441\u0442\u043e\u043d\u0438","name:cu":"\u0404\u0441\u0442\u044c","name:kl":"Estlandi","name:cs":"Estonsko","name:tt":"\u042d\u0441\u0442\u043e\u043d\u0438\u044f","name:co":"Estonia","name:kv":"\u042d\u0441\u0442\u043e\u043d\u0438\u044f","name:ku":"Estonya","name:tl":"Estonia","name:ce":"\u042d\u0441\u0442\u043e\u043d\u0438","name:ta":"\u0b8e\u0b9a\u0bc1\u0ba4\u0bcd\u0ba4\u0bcb\u0ba9\u0bbf\u0baf\u0bbe","name:tg":"\u042d\u0441\u0442\u043e\u043d\u0438\u044f","name:ca":"Est\u00f2nia","name:te":"\u0c0e\u0c38\u0c4d\u0c1f\u0c4b\u0c28\u0c3f\u0c2f\u0c3e","name:cy":"Estonia","name:hr":"Estonija","name:da":"Estland","name:de":"Estland","name:dz":"\u0f68\u0f72\u0f66\u0f72\u0f0b\u0f4a\u0f7c\u0f0b\u0f53\u0f72\u0f0b\u0f61\u0f0d","source":"openstreetmap.org","name:kn":"\u0c8e\u0cb8\u0ccd\u0c9f\u0cca\u0ca8\u0cbf\u0caf","name:lv":"Igaunija","name:lt":"Estija","name:uz":"Estoniya","name:kk":"\u042d\u0441\u0442\u043e\u043d\u0438\u044f","name:ur":"\u0627\u0633\u062a\u0648\u0646\u06cc\u0627","name:lb":"Estland","name:la":"Estonia","name:uk":"\u0415\u0441\u0442\u043e\u043d\u0456\u044f","name:ug":"\u0626\u06d0\u0633\u062a\u0648\u0646\u0649\u064a\u06d5","name:li":"Esland","name:ln":"Estonia","name:el":"\u0395\u03c3\u03b8\u03bf\u03bd\u03af\u03b1","name:eo":"Estonujo","name:en":"Estonia","name":"Eesti","name:tk":"Estoni\u00fda","name:ee":"Estonia","name:th":"\u0e1b\u0e23\u0e30\u0e40\u0e17\u0e28\u0e40\u0e2d\u0e2a\u0e42\u0e15\u0e40\u0e19\u0e35\u0e22","name:eu":"Estonia","name:es":"Estonia","name:ia":"Estonia","name:az":"Estoniya","name:ie":"Estonia","name:id":"Estonia","name:ar":"\u0625\u0633\u062a\u0648\u0646\u064a\u0627","name:io":"Estonia","name:is":"Eistland","name:am":"\u12a4\u1235\u1276\u1292\u12eb","name:it":"Estonia","name:an":"Estonia","name:ru":"\u042d\u0441\u0442\u043e\u043d\u0438\u044f","name:rw":"Esitoniya","name:pl":"Estonia","name:af":"Estland","name:zu":"I-Estoniya","kind_detail":"2","name:ky":"\u042d\u0441\u0442\u043e\u043d\u0438\u044f","name:zh-yue":"\u611b\u6c99\u5c3c\u4e9e","name:zh":"\u7231\u6c99\u5c3c\u4e9a","name:so":"Estoniya","name:sl":"Estonija","name:sk":"Est\u00f3nsko","name:ja":"\u30a8\u30b9\u30c8\u30cb\u30a2","name:si":"\u0d91\u0dc3\u0dca\u0da7\u0ddd\u0db1\u0dd2\u0dba\u0dcf","name:sh":"Estonija","name:se":"Estteeana","name:sc":"Est\u00f2nia","name:sa":"\u090f\u0938\u094d\u091f\u094b\u0928\u093f\u092f\u093e","name:bs":"Estonija","name:bm":"Estonia","name:bn":"\u0987\u09b8\u09cd\u09a4\u09cb\u09a8\u09bf\u09af\u09bc\u09be","name:bo":"\u0f68\u0f72\u0f66\u0f74\u0f0b\u0f4a\u0f7c\u0f0b\u0f53\u0f72\u0f61\u0f0d","name:br":"Estonia","name:sw":"Estonia","name:be":"\u042d\u0441\u0442\u043e\u043d\u0456\u044f","name:su":"\u00c9stonia","name:bg":"\u0415\u0441\u0442\u043e\u043d\u0438\u044f","name:ss":"IWestoniya","name:ba":"\u042d\u0441\u0442\u043e\u043d\u0438\u044f","name:sq":"Estonia","name:jv":"Estonia","name:bi":"Estonia","name:pt":"Est\u00f3nia","name:ps":"\u0627\u06d0\u0633\u067c\u0648\u0646\u064a\u0627","name:oc":"Est\u00f2nia","min_zoom":8.0,"name:ro":"Estonia","name:pa":"\u0a07\u0a38\u0a24\u0a4b\u0a28\u0a40\u0a06","name:os":"\u042d\u0441\u0442\u043e\u043d\u0438","name:or":"\u0b0f\u0b37\u0b4d\u0b1f\u0b4b\u0b28\u0b3f\u0b06","alt_name:pt":"Est\u00f4nia","name:st":"Estonia","sort_rank":262,"name:sr":"\u0415\u0441\u0442\u043e\u043d\u0438\u0458\u0430","osm_relation":true,"name:tr":"Estonya","name:hi":"\u090f\u0938\u094d\u091f\u094b\u0928\u093f\u092f\u093e","name:sv":"Estland","name:he":"\u05d0\u05e1\u05d8\u05d5\u05e0\u05d9\u05d4","name:hy":"\u0537\u057d\u057f\u0578\u0576\u056b\u0561","name:ht":"Estoni","name:hu":"\u00c9sztorsz\u00e1g","name:qu":"Istunya","kind":"country","name:yi":"\u05e2\u05e1\u05d8\u05dc\u05d0\u05e0\u05d3","name:yo":"Est\u00f3n\u00ed\u00e0","name:mt":"Estonja","alt_name:eo":"Estonio","name:ms":"Estonia","name:mr":"\u090f\u0938\u094d\u091f\u094b\u0928\u093f\u092f\u093e","name:my":"\u1021\u1000\u103a\u1005\u103a\u1010\u102d\u102f\u1038\u1014\u102e\u1038\u101a\u102c\u1038\u1014\u102d\u102f\u1004\u103a\u1004\u1036","official_name":"Eesti Vabariik","name:kw":"Estoni","name:mg":"Estonia","name:ve":"Estonia","name:ml":"\u0d0e\u0d38\u0d4d\u0d31\u0d4d\u0d31\u0d4b\u0d23\u0d3f\u0d2f","name:vi":"Estonia","name:mn":"\u042d\u0441\u0442\u043e\u043d","name:mi":"Etonia","id":-79510,"name:mk":"\u0415\u0441\u0442\u043e\u043d\u0438\u0458\u0430","name:vo":"Lestiy\u00e4n","name:fa":"\u0627\u0633\u062a\u0648\u0646\u06cc","name:ff":"Estoniya","name:fi":"Viro","name:fo":"Estland","name:fr":"Estonie","name:fy":"Estl\u00e2n","int_name":"Estonia","name:nl":"Estland","name:nn":"Estland","name:no":"Estland","name:na":"Etoniya","name:ne":"\u0907\u0938\u094d\u091f\u094b\u0928\u093f\u092f\u093e","name:wo":"Estooni","name:nv":"\u00c9\u00e9stii Bik\u00e9yah","name:ga":"An East\u00f3in","name:gd":"East\u00f2inia","name:gn":"Eto\u00f1a","name:gl":"Estonia","name:gv":"Yn Estaan","name:gu":"\u0a88\u0ab8\u0acd\u0a9f\u0acb\u0aa8\u0abf\u0aaf\u0abe"},"arcs":[1]},{"type":"LineString","properties":{"name:az":"Pskov vilay\u0259ti","name:id":"Oblast Pskov","name:ka":"\u10e4\u10e1\u10d9\u10dd\u10d5\u10d8\u10e1 \u10dd\u10da\u10e5\u10d8","name:ko":"\ud504\uc2a4\ucf54\ud504 \uc8fc","name:cv":"\u041f\u0441\u043a\u043e\u0432 \u043e\u0431\u043b\u0430\u00e7\u0115","name:ar":"\u0628\u0633\u0643\u0648\u0641 \u0623\u0648\u0628\u0644\u0627\u0633\u062a","name:cs":"Pskovsk\u00e1 oblast","name:bs":"Pskovska oblast","name:tt":"\u041f\u0441\u043a\u043e\u0432 \u04e9\u043b\u043a\u04d9\u0441\u0435","name:kv":"\u041f\u0441\u043a\u043e\u0432 \u043e\u0431\u043b\u0430\u0441\u044c\u0442","min_zoom":8.0,"name:ro":"Regiunea Pskov","name:it":"Oblast' di Pskov","name:os":"\u041f\u0441\u043a\u043e\u0432\u044b \u043e\u0431\u043b\u00e6\u0441\u0442","name:lv":"Pleskavas apgabals","name:ce":"\u041f\u0441\u043a\u043e\u0432\u0430\u043d \u043e\u0431\u043b\u0430\u0441\u0442\u044c","name:ta":"\u0baa\u0bbf\u0b9a\u0bc1\u0b95\u0bcd\u0b95\u0bcb\u0bb5\u0bcd \u0bae\u0bbe\u0b95\u0bbe\u0ba3\u0bae\u0bcd","name:pl":"Obw\u00f3d pskowski","name:ca":"Prov\u00edncia de Pskov","name:af":"Pskof-oblast","name:fa":"\u0627\u0633\u062a\u0627\u0646 \u067e\u0633\u06a9\u0648\u0641","name:bg":"\u041f\u0441\u043a\u043e\u0432\u0441\u043a\u0430 \u043e\u0431\u043b\u0430\u0441\u0442","sort_rank":256,"kind_detail":"4","name:da":"Pskov oblast","id":-155262,"source":"openstreetmap.org","name:fr":"Oblast de Pskov","name:mk":"\u041f\u0441\u043a\u043e\u0432\u0441\u043a\u0430 \u043e\u0431\u043b\u0430\u0441\u0442","name:de":"Oblast Pskow","name:zh":"\u666e\u65af\u79d1\u592b\u5dde","name:ba":"\u041f\u0441\u043a\u043e\u0432 \u04e9\u043b\u043a\u04d9\u04bb\u0435","name:sl":"Pskovska oblast","name:nl":"Oblast Pskov","name:ja":"\u30d7\u30b9\u30b3\u30d5\u5dde","name:lt":"Pskovo sritis","name:sh":"Pskovska oblast","name:ur":"\u067e\u0633\u06a9\u0648\u0641 \u0627\u0648\u0628\u0644\u0627\u0633\u062a","name:la":"Regio Pscoviensis","name:uk":"\u041f\u0441\u043a\u043e\u0432\u0441\u044c\u043a\u0430 \u043e\u0431\u043b\u0430\u0441\u0442\u044c","name:hy":"\u054a\u057d\u056f\u0578\u057e\u056b \u0574\u0561\u0580\u0566","name:be":"\u041f\u0441\u043a\u043e\u045e\u0441\u043a\u0430\u044f \u0432\u043e\u0431\u043b\u0430\u0441\u0446\u044c","name:hu":"Pszkovi ter\u00fclet","name:hr":"Pskovska oblast","name:sr":"\u041f\u0441\u043a\u043e\u0432\u0441\u043a\u0430 \u043e\u0431\u043b\u0430\u0441\u0442","osm_relation":true,"name":"\u041f\u0441\u043a\u043e\u0432\u0441\u043a\u0430\u044f \u043e\u0431\u043b\u0430\u0441\u0442\u044c","name:el":"\u03a0\u03b5\u03c1\u03b9\u03c6\u03ad\u03c1\u03b5\u03b9\u03b1 \u03a0\u03c3\u03ba\u03bf\u03c6","kind":"region","name:en":"Pskov Oblast","name:uz":"Pskov viloyati","name:tr":"Pskov Oblast\u0131","name:fi":"Pihkovan alue","name:eu":"Pskov oblasta","name:et":"Pihkva oblast","name:es":"\u00d3blast de Pskov"},"arcs":[2]},{"type":"LineString","properties":{"name:az":"Pskov vilay\u0259ti","name:id":"Oblast Pskov","name:ka":"\u10e4\u10e1\u10d9\u10dd\u10d5\u10d8\u10e1 \u10dd\u10da\u10e5\u10d8","name:ko":"\ud504\uc2a4\ucf54\ud504 \uc8fc","name:cv":"\u041f\u0441\u043a\u043e\u0432 \u043e\u0431\u043b\u0430\u00e7\u0115","name:ar":"\u0628\u0633\u0643\u0648\u0641 \u0623\u0648\u0628\u0644\u0627\u0633\u062a","name:cs":"Pskovsk\u00e1 oblast","name:bs":"Pskovska oblast","name:tt":"\u041f\u0441\u043a\u043e\u0432 \u04e9\u043b\u043a\u04d9\u0441\u0435","name:kv":"\u041f\u0441\u043a\u043e\u0432 \u043e\u0431\u043b\u0430\u0441\u044c\u0442","min_zoom":8.0,"name:ro":"Regiunea Pskov","name:it":"Oblast' di Pskov","name:os":"\u041f\u0441\u043a\u043e\u0432\u044b \u043e\u0431\u043b\u00e6\u0441\u0442","name:lv":"Pleskavas apgabals","name:ce":"\u041f\u0441\u043a\u043e\u0432\u0430\u043d \u043e\u0431\u043b\u0430\u0441\u0442\u044c","name:ta":"\u0baa\u0bbf\u0b9a\u0bc1\u0b95\u0bcd\u0b95\u0bcb\u0bb5\u0bcd \u0bae\u0bbe\u0b95\u0bbe\u0ba3\u0bae\u0bcd","name:pl":"Obw\u00f3d pskowski","name:ca":"Prov\u00edncia de Pskov","name:af":"Pskof-oblast","name:fa":"\u0627\u0633\u062a\u0627\u0646 \u067e\u0633\u06a9\u0648\u0641","name:bg":"\u041f\u0441\u043a\u043e\u0432\u0441\u043a\u0430 \u043e\u0431\u043b\u0430\u0441\u0442","sort_rank":256,"kind_detail":"4","name:da":"Pskov oblast","id":-155262,"source":"openstreetmap.org","name:fr":"Oblast de Pskov","name:mk":"\u041f\u0441\u043a\u043e\u0432\u0441\u043a\u0430 \u043e\u0431\u043b\u0430\u0441\u0442","name:de":"Oblast Pskow","name:zh":"\u666e\u65af\u79d1\u592b\u5dde","name:ba":"\u041f\u0441\u043a\u043e\u0432 \u04e9\u043b\u043a\u04d9\u04bb\u0435","name:sl":"Pskovska oblast","name:nl":"Oblast Pskov","name:ja":"\u30d7\u30b9\u30b3\u30d5\u5dde","name:lt":"Pskovo sritis","name:sh":"Pskovska oblast","name:ur":"\u067e\u0633\u06a9\u0648\u0641 \u0627\u0648\u0628\u0644\u0627\u0633\u062a","name:la":"Regio Pscoviensis","name:uk":"\u041f\u0441\u043a\u043e\u0432\u0441\u044c\u043a\u0430 \u043e\u0431\u043b\u0430\u0441\u0442\u044c","name:hy":"\u054a\u057d\u056f\u0578\u057e\u056b \u0574\u0561\u0580\u0566","name:be":"\u041f\u0441\u043a\u043e\u045e\u0441\u043a\u0430\u044f \u0432\u043e\u0431\u043b\u0430\u0441\u0446\u044c","name:hu":"Pszkovi ter\u00fclet","name:hr":"Pskovska oblast","name:sr":"\u041f\u0441\u043a\u043e\u0432\u0441\u043a\u0430 \u043e\u0431\u043b\u0430\u0441\u0442","osm_relation":true,"name":"\u041f\u0441\u043a\u043e\u0432\u0441\u043a\u0430\u044f \u043e\u0431\u043b\u0430\u0441\u0442\u044c","name:el":"\u03a0\u03b5\u03c1\u03b9\u03c6\u03ad\u03c1\u03b5\u03b9\u03b1 \u03a0\u03c3\u03ba\u03bf\u03c6","kind":"region","name:en":"Pskov Oblast","name:uz":"Pskov viloyati","name:tr":"Pskov Oblast\u0131","name:fi":"Pihkovan alue","name:eu":"Pskov oblasta","name:et":"Pihkva oblast","name:es":"\u00d3blast de Pskov"},"arcs":[3]}]},"roads":{"type":"GeometryCollection","geometries":[{"type":"LineString","properties":{"kind":"major_road","network":"ee:regional","sort_rank":377,"kind_detail":"tertiary","is_bicycle_related":true,"bicycle_shield_text":"6","bicycle_network":"ncn","source":"openstreetmap.org","min_zoom":8.0,"shield_text":"14213","ref":"14213","id":90685807},"arcs":[14]},{"type":"LineString","properties":{"kind":"minor_road","sort_rank":360,"kind_detail":"residential","is_bicycle_related":true,"bicycle_shield_text":"R1","cycleway":"lane","source":"openstreetmap.org","min_zoom":8.0,"landuse_kind":"urban_area","bicycle_network":"icn","id":29981122},"arcs":[15]},{"type":"LineString","properties":{"kind":"major_road","network":"ee:regional","sort_rank":377,"kind_detail":"tertiary","is_bicycle_related":true,"bicycle_shield_text":"R1","bicycle_network":"icn","source":"openstreetmap.org","min_zoom":8.0,"shield_text":"22240","ref":"22240"},"arcs":[16]},{"type":"LineString","properties":{"kind":"minor_road","sort_rank":358,"kind_detail":"service","is_bicycle_related":true,"bicycle_shield_text":"6","cycleway":"yes","source":"openstreetmap.org","min_zoom":8.0,"landuse_kind":"urban_area","bicycle_network":"ncn","id":29981207},"arcs":[17]},{"type":"LineString","properties":{"kind":"major_road","network":"ee:regional","sort_rank":377,"kind_detail":"tertiary","is_bicycle_related":true,"bicycle_shield_text":"R1","bicycle_network":"icn","source":"openstreetmap.org","min_zoom":8.0,"shield_text":"22244","ref":"22244"},"arcs":[18]},{"type":"LineString","properties":{"kind":"path","sort_rank":354,"landuse_kind":"urban_area","is_bicycle_related":true,"bicycle_shield_text":"6","bicycle_network":"ncn","source":"openstreetmap.org","min_zoom":8.0,"kind_detail":"footway"},"arcs":[19]},{"type":"LineString","properties":{"kind":"path","footway":"crossing","sort_rank":354,"kind_detail":"footway","is_bicycle_related":true,"bicycle_shield_text":"R1","bicycle_network":"icn","source":"openstreetmap.org","min_zoom":8.0,"landuse_kind":"urban_area","id":488952131},"arcs":[20]},{"type":"LineString","properties":{"bus_network":"Tartu linn","network":"ee:national","sort_rank":381,"kind_detail":"trunk","is_bicycle_related":true,"kind":"major_road","bicycle_shield_text":"R1","bicycle_network":"icn","source":"openstreetmap.org","min_zoom":8.0,"bus_shield_text":"16A","shield_text":"3","landuse_kind":"urban_area","ref":"3"},"arcs":[21]},{"type":"LineString","properties":{"kind":"major_road","sort_rank":379,"kind_detail":"secondary","is_bicycle_related":true,"bus_network":"Tartu linn","bicycle_shield_text":"R1","bicycle_network":"icn","source":"openstreetmap.org","min_zoom":8.0,"bus_shield_text":"4","landuse_kind":"urban_area","id":82678893},"arcs":[22]},{"type":"LineString","properties":{"kind":"major_road","network":"ee:regional","sort_rank":377,"kind_detail":"tertiary","is_bicycle_related":true,"bicycle_shield_text":"EV11","bicycle_network":"icn","source":"openstreetmap.org","min_zoom":8.0,"shield_text":"22210","ref":"22210"},"arcs":[23]},{"type":"MultiLineString","properties":{"kind":"major_road","network":"ee:national","sort_rank":379,"kind_detail":"secondary","is_bicycle_related":true,"bicycle_shield_text":"R1","bicycle_network":"icn","source":"openstreetmap.org","min_zoom":8.0,"shield_text":"43","ref":"43"},"arcs":[[24],[25]]},{"type":"LineString","properties":{"kind":"major_road","network":"ee:national","sort_rank":381,"landuse_kind":"urban_area","source":"openstreetmap.org","min_zoom":8.0,"kind_detail":"trunk","shield_text":"3","ref":"3"},"arcs":[26]},{"type":"LineString","properties":{"kind":"major_road","network":"ee:national","sort_rank":381,"kind_detail":"trunk","bus_network":"Tartu linn","source":"openstreetmap.org","min_zoom":8.0,"bus_shield_text":"4","shield_text":"3","ref":"3","id":29981029},"arcs":[27]},{"type":"LineString","properties":{"kind":"major_road","network":"ee:regional","sort_rank":377,"kind_detail":"tertiary","is_bicycle_related":true,"bicycle_shield_text":"6","bicycle_network":"ncn","source":"openstreetmap.org","min_zoom":8.0,"shield_text":"22270","ref":"22270","id":35419554},"arcs":[28]},{"type":"LineString","properties":{"kind":"major_road","network":"ru:regional","sort_rank":380,"kind_detail":"primary","source":"openstreetmap.org","min_zoom":8.0,"landuse_kind":"nature_reserve","shield_text":"58\u041a","ref":"58\u041a-096","id":41238650},"arcs":[29]},{"type":"LineString","properties":{"cycleway_right":"shared_lane","sort_rank":360,"kind_detail":"residential","is_bicycle_related":true,"kind":"minor_road","bicycle_shield_text":"6","bicycle_network":"ncn","source":"openstreetmap.org","min_zoom":8.0,"landuse_kind":"urban_area","id":29981148},"arcs":[30]},{"type":"LineString","properties":{"kind":"major_road","network":"ee:regional","sort_rank":377,"kind_detail":"tertiary","is_bicycle_related":true,"bicycle_shield_text":"6","bicycle_network":"ncn","source":"openstreetmap.org","min_zoom":8.0,"shield_text":"22241","ref":"22241"},"arcs":[31]},{"type":"LineString","properties":{"kind":"major_road","network":"ee:regional","sort_rank":377,"kind_detail":"tertiary","is_bicycle_related":true,"bicycle_shield_text":"6","bicycle_network":"ncn","source":"openstreetmap.org","min_zoom":8.0,"shield_text":"22220","ref":"22220"},"arcs":[32]},{"type":"LineString","properties":{"kind":"major_road","network":"ee:regional","sort_rank":377,"kind_detail":"tertiary","is_bicycle_related":true,"bicycle_shield_text":"6","bicycle_network":"ncn","source":"openstreetmap.org","min_zoom":8.0,"shield_text":"14209","ref":"14209"},"arcs":[33]},{"type":"LineString","properties":{"kind":"major_road","sort_rank":377,"kind_detail":"tertiary","is_bicycle_related":true,"bicycle_shield_text":"6","bicycle_network":"ncn","source":"openstreetmap.org","min_zoom":8.0,"ref":"22249","id":511914548},"arcs":[34]},{"type":"LineString","properties":{"bus_network":"Tartu linn","network":"ee:national","sort_rank":381,"landuse_kind":"urban_area","is_bicycle_related":true,"kind":"major_road","bicycle_shield_text":"EV11","bicycle_network":"icn","source":"openstreetmap.org","min_zoom":8.0,"bus_shield_text":"1","shield_text":"3","kind_detail":"trunk","ref":"3"},"arcs":[35]},{"type":"MultiLineString","properties":{"kind":"path","sort_rank":354,"landuse_kind":"urban_area","is_bicycle_related":true,"bicycle_shield_text":"EV11","bicycle_network":"icn","source":"openstreetmap.org","min_zoom":8.0,"kind_detail":"path"},"arcs":[[36],[37],[38]]},{"type":"LineString","properties":{"kind":"major_road","network":"ee:regional","sort_rank":377,"kind_detail":"tertiary","is_bicycle_related":true,"bicycle_shield_text":"R1","bicycle_network":"icn","source":"openstreetmap.org","min_zoom":8.0,"shield_text":"22242","ref":"22242"},"arcs":[39]},{"type":"MultiLineString","properties":{"kind":"major_road","network":"ee:national","sort_rank":379,"landuse_kind":"residential","is_bicycle_related":true,"bicycle_shield_text":"R1","bicycle_network":"icn","source":"openstreetmap.org","min_zoom":8.0,"kind_detail":"secondary","shield_text":"45","ref":"45"},"arcs":[[40],[41]]},{"type":"LineString","properties":{"kind":"path","footway":"sidewalk","sort_rank":354,"kind_detail":"footway","is_bicycle_related":true,"bicycle_shield_text":"4","bicycle_network":"ncn","source":"openstreetmap.org","min_zoom":8.0,"landuse_kind":"urban_area","id":488942834},"arcs":[42]},{"type":"MultiLineString","properties":{"kind":"minor_road","sort_rank":360,"landuse_kind":"urban_area","is_bicycle_related":true,"bicycle_shield_text":"6","bicycle_network":"ncn","source":"openstreetmap.org","min_zoom":8.0,"kind_detail":"residential"},"arcs":[[43],[44],[45]]},{"type":"MultiLineString","properties":{"kind":"path","sort_rank":354,"landuse_kind":"urban_area","is_bicycle_related":true,"bicycle_shield_text":"4","bicycle_network":"ncn","source":"openstreetmap.org","min_zoom":8.0,"kind_detail":"footway"},"arcs":[[46],[47]]},{"type":"MultiLineString","properties":{"kind":"major_road","sort_rank":379,"kind_detail":"secondary","is_bicycle_related":true,"bicycle_shield_text":"R1","bicycle_network":"icn","source":"openstreetmap.org","min_zoom":8.0,"ref":"95"},"arcs":[[48],[49]]},{"type":"LineString","properties":{"kind":"minor_road","sort_rank":360,"kind_detail":"unclassified","is_bicycle_related":true,"bicycle_shield_text":"4","bicycle_network":"ncn","source":"openstreetmap.org","min_zoom":8.0,"id":29981261},"arcs":[50]},{"type":"MultiLineString","properties":{"kind":"minor_road","sort_rank":360,"kind_detail":"unclassified","is_bicycle_related":true,"bicycle_shield_text":"6","bicycle_network":"ncn","source":"openstreetmap.org","min_zoom":8.0},"arcs":[[51],[52],[53],[54],[55],[56]]},{"type":"LineString","properties":{"kind":"major_road","network":"ee:national","sort_rank":379,"kind_detail":"secondary","is_bicycle_related":true,"bicycle_shield_text":"6","bicycle_network":"ncn","source":"openstreetmap.org","min_zoom":8.0,"shield_text":"61","ref":"61"},"arcs":[57]},{"type":"MultiLineString","properties":{"kind":"minor_road","sort_rank":360,"landuse_kind":"urban_area","is_bicycle_related":true,"bicycle_shield_text":"EV11","bicycle_network":"icn","source":"openstreetmap.org","min_zoom":8.0,"kind_detail":"residential"},"arcs":[[58],[59]]},{"type":"MultiLineString","properties":{"kind":"major_road","network":"ee:national","sort_rank":379,"kind_detail":"secondary","is_bicycle_related":true,"bicycle_shield_text":"R1","bicycle_network":"icn","source":"openstreetmap.org","min_zoom":8.0,"shield_text":"95","ref":"95"},"arcs":[[60],[61],[62],[63]]},{"type":"LineString","properties":{"kind":"path","sort_rank":354,"kind_detail":"track","is_bicycle_related":true,"bicycle_shield_text":"4","bicycle_network":"ncn","source":"openstreetmap.org","min_zoom":8.0,"id":514218576},"arcs":[64]},{"type":"LineString","properties":{"bus_network":"Tartu linn","network":"ee:national","sort_rank":379,"kind_detail":"secondary","is_bicycle_related":true,"kind":"major_road","bicycle_shield_text":"R1","bicycle_network":"icn","source":"openstreetmap.org","min_zoom":8.0,"bus_shield_text":"27","shield_text":"95","ref":"95","id":30010922},"arcs":[65]},{"type":"MultiLineString","properties":{"kind":"major_road","network":"ee:regional","sort_rank":377,"kind_detail":"tertiary","is_bicycle_related":true,"bicycle_shield_text":"6","bicycle_network":"ncn","source":"openstreetmap.org","min_zoom":8.0,"shield_text":"14230","ref":"14230"},"arcs":[[66],[67]]},{"type":"LineString","properties":{"kind":"minor_road","sort_rank":360,"landuse_kind":"urban_area","is_bicycle_related":true,"bicycle_shield_text":"6","bicycle_network":"ncn","source":"openstreetmap.org","min_zoom":8.0,"kind_detail":"residential","cycleway":"track"},"arcs":[68]},{"type":"MultiLineString","properties":{"bus_network":"Tartu linn","network":"ee:national","sort_rank":381,"kind_detail":"trunk","kind":"major_road","source":"openstreetmap.org","min_zoom":8.0,"bus_shield_text":"16A","shield_text":"3","landuse_kind":"urban_area","ref":"3"},"arcs":[[69],[70],[71],[72],[73]]},{"type":"LineString","properties":{"kind":"major_road","network":"ee:regional","sort_rank":377,"kind_detail":"tertiary","is_bicycle_related":true,"bicycle_shield_text":"6","bicycle_network":"ncn","source":"openstreetmap.org","min_zoom":8.0,"shield_text":"18143","ref":"18143"},"arcs":[74]},{"type":"LineString","properties":{"kind":"path","sort_rank":354,"landuse_kind":"urban_area","is_bicycle_related":true,"bicycle_shield_text":"4","bicycle_network":"ncn","source":"openstreetmap.org","min_zoom":8.0,"kind_detail":"cycleway"},"arcs":[75]},{"type":"MultiLineString","properties":{"kind":"major_road","network":"ru:regional","sort_rank":380,"kind_detail":"primary","source":"openstreetmap.org","min_zoom":8.0,"shield_text":"58\u041a","ref":"58\u041a-096"},"arcs":[[76],[77],[78]]},{"type":"LineString","properties":{"source":"openstreetmap.org","kind":"major_road","sort_rank":380,"kind_detail":"primary","ref":"58\u041a-096","min_zoom":8.0},"arcs":[79]},{"type":"LineString","properties":{"kind":"major_road","network":"ee:regional","sort_rank":377,"kind_detail":"tertiary","is_bicycle_related":true,"bicycle_shield_text":"6","bicycle_network":"ncn","source":"openstreetmap.org","min_zoom":8.0,"shield_text":"22250","ref":"22250"},"arcs":[80]},{"type":"LineString","properties":{"bus_network":"Tartu linn","sort_rank":379,"landuse_kind":"urban_area","is_bicycle_related":true,"kind":"major_road","bicycle_shield_text":"6","bicycle_network":"ncn","source":"openstreetmap.org","min_zoom":8.0,"bus_shield_text":"6","kind_detail":"secondary"},"arcs":[81]},{"type":"LineString","properties":{"kind":"path","sort_rank":354,"kind_detail":"cycleway","is_bicycle_related":true,"bicycle_shield_text":"4","bicycle_network":"ncn","source":"openstreetmap.org","min_zoom":8.0,"id":299715521},"arcs":[82]},{"type":"MultiLineString","properties":{"bus_network":"Tartu linn","network":"ee:national","sort_rank":381,"kind_detail":"trunk","kind":"major_road","source":"openstreetmap.org","min_zoom":8.0,"bus_shield_text":"1","shield_text":"3","landuse_kind":"urban_area","ref":"3"},"arcs":[[83],[84],[85],[86]]},{"type":"LineString","properties":{"kind":"major_road","sort_rank":379,"kind_detail":"secondary","is_bicycle_related":true,"bus_network":"Tartu linn","bicycle_shield_text":"R1","bicycle_network":"icn","source":"openstreetmap.org","min_zoom":8.0,"bus_shield_text":"7","landuse_kind":"urban_area","id":223456896},"arcs":[87]},{"type":"LineString","properties":{"kind":"major_road","network":"ee:regional","sort_rank":377,"kind_detail":"tertiary","is_bicycle_related":true,"bicycle_shield_text":"6","bicycle_network":"ncn","source":"openstreetmap.org","min_zoom":8.0,"shield_text":"22140","ref":"22140"},"arcs":[88]},{"type":"MultiLineString","properties":{"bus_network":"Eesti kaugliinid","network":"ee:national","sort_rank":381,"kind_detail":"trunk","kind":"major_road","source":"openstreetmap.org","min_zoom":8.0,"bus_shield_text":"879","shield_text":"2","ref":"2"},"arcs":[[89],[90],[91],[92]]},{"type":"LineString","properties":{"kind":"major_road","network":"ee:national","sort_rank":381,"kind_detail":"trunk","is_bicycle_related":true,"bus_network":"Tartu linn","source":"openstreetmap.org","min_zoom":8.0,"bus_shield_text":"16A","shield_text":"3","landuse_kind":"urban_area","ref":"3","id":106384423},"arcs":[93]},{"type":"LineString","properties":{"kind":"major_road","network":"ee:regional","sort_rank":377,"kind_detail":"tertiary","is_bicycle_related":true,"bicycle_shield_text":"6","bicycle_network":"ncn","source":"openstreetmap.org","min_zoom":8.0,"shield_text":"22141","ref":"22141"},"arcs":[94]},{"type":"LineString","properties":{"kind":"minor_road","sort_rank":360,"kind_detail":"residential","is_bicycle_related":true,"bicycle_shield_text":"4","bicycle_network":"ncn","source":"openstreetmap.org","min_zoom":8.0},"arcs":[95]},{"type":"LineString","properties":{"kind":"path","sort_rank":354,"kind_detail":"path","is_bicycle_related":true,"bicycle_shield_text":"6","bicycle_network":"ncn","source":"openstreetmap.org","min_zoom":8.0},"arcs":[96]},{"type":"MultiLineString","properties":{"kind":"minor_road","sort_rank":360,"kind_detail":"residential","is_bicycle_related":true,"bicycle_shield_text":"6","bicycle_network":"ncn","source":"openstreetmap.org","min_zoom":8.0},"arcs":[[97],[98],[99],[100]]},{"type":"LineString","properties":{"kind":"major_road","network":"ee:regional","sort_rank":377,"kind_detail":"tertiary","is_bicycle_related":true,"bicycle_shield_text":"R1","bicycle_network":"icn","source":"openstreetmap.org","min_zoom":8.0,"shield_text":"22252","ref":"22252"},"arcs":[101]},{"type":"LineString","properties":{"kind":"minor_road","sort_rank":360,"landuse_kind":"urban_area","is_bicycle_related":true,"bicycle_shield_text":"R1","bicycle_network":"icn","source":"openstreetmap.org","min_zoom":8.0,"kind_detail":"residential"},"arcs":[102]},{"type":"LineString","properties":{"source":"openstreetmap.org","kind":"ferry","name":"Laaksaare \u2014 Piirissaar","sort_rank":355,"name:ru":"\u041b\u0430\u0430\u043a\u0441\u0430\u0430\u0440\u0435 \u2014 \u041f\u0438\u0439\u0440\u0438\u0441\u0430\u0430","min_zoom":8.0,"id":79236662},"arcs":[103]},{"type":"LineString","properties":{"kind":"major_road","sort_rank":379,"kind_detail":"secondary","is_bicycle_related":true,"bus_network":"Tartu linn","bicycle_shield_text":"R1","bicycle_network":"icn","source":"openstreetmap.org","min_zoom":8.0,"bus_shield_text":"27","landuse_kind":"urban_area","id":215453906},"arcs":[104]},{"type":"MultiLineString","properties":{"kind":"path","sort_rank":354,"landuse_kind":"urban_area","is_bicycle_related":true,"bicycle_shield_text":"6","bicycle_network":"ncn","source":"openstreetmap.org","min_zoom":8.0,"kind_detail":"cycleway"},"arcs":[[105],[106]]},{"type":"MultiLineString","properties":{"kind":"path","sort_rank":354,"landuse_kind":"urban_area","is_bicycle_related":true,"bicycle_shield_text":"6","bicycle_network":"ncn","source":"openstreetmap.org","min_zoom":8.0,"kind_detail":"path"},"arcs":[[107],[108],[109],[110]]},{"type":"LineString","properties":{"kind":"major_road","network":"ee:regional","sort_rank":377,"kind_detail":"tertiary","is_bicycle_related":true,"bicycle_shield_text":"6","bicycle_network":"ncn","source":"openstreetmap.org","min_zoom":8.0,"shield_text":"18115","ref":"18115","id":5132186},"arcs":[111]},{"type":"LineString","properties":{"kind":"major_road","network":"ee:regional","sort_rank":377,"kind_detail":"tertiary","is_bicycle_related":true,"bicycle_shield_text":"6","bicycle_network":"ncn","source":"openstreetmap.org","min_zoom":8.0,"shield_text":"22234","ref":"22234"},"arcs":[112]},{"type":"LineString","properties":{"kind":"minor_road","sort_rank":360,"kind_detail":"residential","is_bicycle_related":true,"bicycle_shield_text":"6","cycleway":"lane","source":"openstreetmap.org","min_zoom":8.0,"landuse_kind":"urban_area","bicycle_network":"ncn"},"arcs":[113]},{"type":"LineString","properties":{"kind":"major_road","network":"ee:national","sort_rank":381,"kind_detail":"trunk","is_bicycle_related":true,"bicycle_shield_text":"R1","bicycle_network":"icn","source":"openstreetmap.org","min_zoom":8.0,"shield_text":"3","ref":"3"},"arcs":[114]},{"type":"LineString","properties":{"kind":"major_road","network":"ee:national","sort_rank":381,"kind_detail":"trunk","is_bicycle_related":true,"bicycle_shield_text":"6","bicycle_network":"ncn","source":"openstreetmap.org","min_zoom":8.0,"shield_text":"3","ref":"3"},"arcs":[115]},{"type":"LineString","properties":{"kind":"path","sort_rank":354,"kind_detail":"pedestrian","is_bicycle_related":true,"bicycle_shield_text":"R1","bicycle_network":"icn","source":"openstreetmap.org","min_zoom":8.0,"landuse_kind":"urban_area","id":106384414},"arcs":[116]},{"type":"MultiLineString","properties":{"kind":"major_road","network":"ee:national","sort_rank":379,"kind_detail":"secondary","is_bicycle_related":true,"bicycle_shield_text":"R1","bicycle_network":"icn","source":"openstreetmap.org","min_zoom":8.0,"shield_text":"45","ref":"45"},"arcs":[[117],[118],[119],[120],[121],[122],[123]]},{"type":"LineString","properties":{"kind":"path","sort_rank":354,"kind_detail":"footway","is_bicycle_related":true,"bicycle_shield_text":"R1","bicycle_network":"icn","source":"openstreetmap.org","min_zoom":8.0,"landuse_kind":"urban_area","id":106384415},"arcs":[124]},{"type":"LineString","properties":{"kind":"major_road","network":"ee:regional","sort_rank":377,"kind_detail":"tertiary","is_bicycle_related":true,"bicycle_shield_text":"R1","bicycle_network":"icn","source":"openstreetmap.org","min_zoom":8.0,"shield_text":"22251","ref":"22251"},"arcs":[125]},{"type":"LineString","properties":{"cycleway_right":"shared_lane","sort_rank":360,"kind_detail":"residential","is_bicycle_related":true,"kind":"minor_road","bicycle_shield_text":"6","bicycle_network":"ncn","source":"openstreetmap.org","min_zoom":8.0,"id":29981148},"arcs":[126]},{"type":"MultiLineString","properties":{"kind":"path","sort_rank":354,"landuse_kind":"urban_area","is_bicycle_related":true,"bicycle_shield_text":"4","bicycle_network":"ncn","source":"openstreetmap.org","min_zoom":8.0,"kind_detail":"path"},"arcs":[[127],[128],[129]]},{"type":"LineString","properties":{"bus_network":"Tartu linn","sort_rank":379,"landuse_kind":"urban_area","is_bicycle_related":true,"kind":"major_road","bicycle_shield_text":"6","bicycle_network":"ncn","source":"openstreetmap.org","min_zoom":8.0,"bus_shield_text":"16A","kind_detail":"secondary"},"arcs":[130]},{"type":"MultiLineString","properties":{"kind":"path","sort_rank":354,"landuse_kind":"urban_area","is_bicycle_related":true,"bicycle_shield_text":"6","bicycle_network":"ncn","source":"openstreetmap.org","min_zoom":8.0,"kind_detail":"pedestrian"},"arcs":[[131],[132]]},{"type":"MultiLineString","properties":{"kind":"major_road","network":"ee:national","sort_rank":379,"kind_detail":"secondary","is_bicycle_related":true,"official_name":"Tartu - R\u00e4pina - V\u00e4rska","bicycle_network":"icn","source":"openstreetmap.org","min_zoom":8.0,"bicycle_shield_text":"R1","shield_text":"45","ref":"45"},"arcs":[[133],[134]]},{"type":"LineString","properties":{"kind":"major_road","network":"ee:regional","sort_rank":377,"kind_detail":"tertiary","is_bicycle_related":true,"bicycle_shield_text":"R1","bicycle_network":"icn","source":"openstreetmap.org","min_zoom":8.0,"shield_text":"14245","ref":"14245","id":25997386},"arcs":[135]},{"type":"MultiLineString","properties":{"kind":"major_road","network":"ee:national","sort_rank":381,"kind_detail":"trunk","source":"openstreetmap.org","min_zoom":8.0,"shield_text":"3","ref":"3"},"arcs":[[136],[137],[138],[139],[140],[141],[142]]},{"type":"MultiLineString","properties":{"bus_network":"Tartu linn","network":"ee:national","sort_rank":381,"landuse_kind":"urban_area","kind":"major_road","source":"openstreetmap.org","min_zoom":8.0,"bus_shield_text":"4","shield_text":"3","kind_detail":"trunk","ref":"3"},"arcs":[[143],[144],[145],[146],[147]]},{"type":"LineString","properties":{"kind":"path","sort_rank":354,"landuse_kind":"urban_area","is_bicycle_related":true,"bicycle_shield_text":"R1","bicycle_network":"icn","source":"openstreetmap.org","min_zoom":8.0,"kind_detail":"path"},"arcs":[148]},{"type":"MultiLineString","properties":{"kind":"path","sort_rank":354,"landuse_kind":"urban_area","is_bicycle_related":true,"bicycle_shield_text":"EV11","bicycle_network":"icn","source":"openstreetmap.org","min_zoom":8.0,"kind_detail":"pedestrian"},"arcs":[[149],[150]]},{"type":"LineString","properties":{"kind":"major_road","network":"ee:regional","sort_rank":377,"kind_detail":"tertiary","is_bicycle_related":true,"bicycle_shield_text":"6","bicycle_network":"ncn","source":"openstreetmap.org","min_zoom":8.0,"shield_text":"22135","ref":"22135"},"arcs":[151]},{"type":"LineString","properties":{"bus_network":"Tartu linn","network":"ee:national","sort_rank":379,"kind_detail":"secondary","is_bicycle_related":true,"kind":"major_road","bicycle_shield_text":"R1","bicycle_network":"icn","source":"openstreetmap.org","min_zoom":8.0,"bus_shield_text":"27","shield_text":"95","landuse_kind":"urban_area","ref":"95","id":30010922},"arcs":[152]},{"type":"LineString","properties":{"bus_network":"Tartu linn","network":"ee:national","sort_rank":379,"kind_detail":"secondary","is_bicycle_related":true,"kind":"major_road","bicycle_shield_text":"6","bicycle_network":"ncn","source":"openstreetmap.org","min_zoom":8.0,"bus_shield_text":"6","shield_text":"40","landuse_kind":"urban_area","ref":"40","id":29980970},"arcs":[153]}]},"earth":{"type":"GeometryCollection","geometries":[{"type":"Polygon","properties":{"sort_rank":10,"source":"naturalearthdata.com","min_zoom":0.0,"kind":"earth","area":98022885885},"arcs":[[154]]}]},"landuse":{"type":"GeometryCollection","geometries":[{"type":"Polygon","properties":{"kind":"aerodrome","area":13558200,"sort_rank":60,"operator":"Russian Air Force","source":"openstreetmap.org","min_zoom":8.0,"tier":3,"id":252257597},"arcs":[[155]]},{"type":"Polygon","properties":{"kind":"residential","name":"R\u00e4pina","name:lt":"Repina","area":10434800,"sort_rank":20,"source":"openstreetmap.org","min_zoom":8.0,"tier":2,"name:ru":"\u0420\u044f\u043f\u0438\u043d\u0430","id":45452653},"arcs":[[156]]},{"type":"Polygon","properties":{"kind":"nature_reserve","protect_class":"4","area":2757619968,"sort_rank":23,"source":"openstreetmap.org","min_zoom":4.0,"tier":2,"id":476973338},"arcs":[[157]]},{"type":"MultiPolygon","properties":{"source":"naturalearthdata.com","kind":"urban_area","name":"","area":362626821,"sort_rank":11,"min_zoom":4.0},"arcs":[[[158]]]}]}},"type":"Topology","transform":{"translate":[26.71875,58.0778762679],"scale":[0.0003433228,0.0001796547]},"arcs":[[[2075,3067],[-215,881],[156,148]],[[2633,0],[34,107],[-129,119],[-289,591],[-7,442],[188,346],[-355,1462]],[[2016,4096],[-156,-148],[215,-881]],[[2075,3067],[355,-1462],[-188,-346],[7,-442],[289,-591],[129,-119],[-34,-107]],[[3446,4096],[-25,-104],[-114,-211],[-21,-104]],[[0,1366],[37,-206],[96,-25],[86,-195],[390,-389],[318,-463],[95,-88]],[[2179,796],[-5,171],[-8,34],[-33,25],[-118,165],[21,64],[-8,51],[-19,49],[-12,64],[0,118],[11,38],[20,27],[10,28],[-22,38],[-42,34],[-203,113],[-128,4],[-66,21],[-67,87],[-22,119],[8,272],[-8,148],[-94,493],[-105,298],[-184,359],[-69,93],[-273,189],[-74,98],[-19,100],[2476,0],[-4,-15],[-37,-93],[-13,-51],[-2,-54],[4,-116],[-2,-58],[-42,-276],[-12,-151],[25,-66],[38,-49],[136,-411],[14,-118],[2,-347],[-7,-97],[-21,-92],[-42,-88],[-75,-95],[-9,50],[17,115],[-2,98],[-228,-278],[-47,-146],[-95,-165],[-22,-17],[-57,-5],[-12,-18],[7,-55],[17,-25],[19,-16],[17,-38],[19,-67],[6,-41],[-22,-26],[-63,-19],[-60,12],[-96,87],[-51,19],[-45,-22],[-21,-59],[-5,-82],[0,-87],[-10,-63],[-22,-65],[-48,-120],[-116,-90]],[[2187,1725],[-11,-36],[89,-52],[44,-7],[48,17],[-23,44],[-26,29],[-58,36],[-10,4],[-19,1],[-19,-13],[-15,-23]],[[2295,886],[64,-50],[133,37],[53,-44],[23,-88],[5,-105],[-16,-90],[-41,-41],[61,-15],[8,-59],[-8,-69],[18,-44],[39,15],[103,109],[104,48],[54,41],[57,23],[61,-30],[37,0],[96,85],[48,12],[-1,-15],[9,-38],[15,-40],[15,-23],[30,-17],[33,-6],[32,1],[139,72],[58,12],[49,-21],[23,-38],[48,-112],[29,-44],[151,-136],[38,-19],[5,-35],[37,-159],[1,-3],[-1359,0],[0,8],[-9,56],[-92,44],[-28,56],[-42,154],[-151,311],[-39,107],[-6,60],[116,90]],[[2295,886],[64,-50],[133,37],[53,-44],[23,-88],[5,-105],[-16,-90],[-41,-41],[61,-15],[8,-59],[-8,-69],[18,-44],[39,15],[103,109],[104,48],[54,41],[57,23],[61,-30],[37,0],[96,85],[48,12],[-1,-15],[9,-38],[15,-40],[15,-23],[30,-17],[33,-6],[32,1],[139,72],[58,12],[49,-21],[23,-38],[48,-112],[29,-44],[151,-136],[38,-19],[5,-35],[37,-159],[1,-3]],[[2546,0],[0,8],[-9,56],[-92,44],[-28,56],[-42,154],[-151,311],[-39,107],[-6,60],[116,90]],[[2179,796],[-5,171],[-8,34],[-33,25],[-118,165],[21,64],[-8,51],[-19,49],[-12,64],[0,118],[11,38],[20,27],[10,28],[-22,38],[-42,34],[-203,113],[-128,4],[-66,21],[-67,87],[-22,119],[8,272],[-8,148],[-94,493],[-105,298],[-184,359],[-69,93],[-273,189],[-74,98],[-19,100]],[[3146,4096],[-4,-15],[-37,-93],[-13,-51],[-2,-54],[4,-116],[-2,-58],[-42,-276],[-12,-151],[25,-66],[38,-49],[136,-411],[14,-118],[2,-347],[-7,-97],[-21,-92],[-42,-88],[-75,-95],[-9,50],[17,115],[-2,98],[-228,-278],[-47,-146],[-95,-165],[-22,-17],[-57,-5],[-12,-18],[7,-55],[17,-25],[19,-16],[17,-38],[19,-67],[6,-41],[-22,-26],[-63,-19],[-60,12],[-96,87],[-51,19],[-45,-22],[-21,-59],[-5,-82],[0,-87],[-10,-63],[-22,-65],[-48,-120],[-116,-90]],[[2187,1725],[-11,-36],[89,-52],[44,-7],[48,17],[-23,44],[-26,29],[-58,36],[-10,4],[-19,1],[-19,-13],[-15,-23]],[[118,2813],[-51,152]],[[25,1699],[27,28]],[[1054,2510],[126,-114],[130,-12],[209,-81]],[[43,1673],[5,0]],[[1519,2303],[0,128],[-77,202]],[[57,1671],[1,4]],[[29,1690]],[[25,1699],[4,-9]],[[46,1769],[-15,-28]],[[0,2233],[27,-28],[103,-246],[0,-68]],[[259,2057],[118,157],[16,86],[107,101],[284,35],[80,70],[190,4]],[[1209,2908],[75,229],[-47,325],[-118,157],[-214,161],[-56,88],[-189,114]],[[21,1717],[2,0]],[[0,1758],[2,-2]],[[563,1539],[96,75],[128,55],[163,-12]],[[4055,1682],[11,-43]],[[138,1536],[15,-18]],[[1219,2921],[94,37],[92,-4]],[[0,2569],[7,-11],[-7,-4]],[[67,2965],[-67,-67]],[[1048,2497],[20,-3]],[[12,1649],[-7,-6]],[[4,1644],[-4,-3]],[[25,1665],[-11,-16]],[[20,1671],[-2,14]],[[1209,2908],[40,-80],[177,-67],[16,-128]],[[2159,126],[38,-39]],[[2246,55],[13,-5]],[[90,1658],[0,1]],[[8,1579],[9,0]],[[22,1638],[-6,-5]],[[42,1672],[1,1]],[[68,1671],[18,-16]],[[90,1659],[20,-19]],[[71,1810],[-1,-1]],[[109,1879],[4,7]],[[171,1569],[1,0]],[[127,513],[-12,57],[-45,43],[-48,179]],[[666,2418],[-10,174],[-33,51],[38,132]],[[949,1701],[2,-34]],[[951,1664],[-1,-7]],[[1179,2921],[-16,-3]],[[1426,2761],[-5,116]],[[193,954],[6,-138],[118,-248]],[[4,1644],[1,-1]],[[12,1649],[2,0]],[[84,1833],[-13,-23]],[[109,1879],[-24,-44]],[[85,1833],[1,1],[-1,1],[-1,-2]],[[84,1833],[1,0]],[[172,1569],[-1,-1]],[[70,1809],[-5,-6]],[[111,2771],[144,1]],[[661,2775],[99,-16],[40,27],[80,0],[26,33],[66,0],[54,58],[137,41]],[[18,1627],[-1,-48]],[[23,1714],[-2,5]],[[21,1717],[2,-3]],[[23,1705],[0,9]],[[30,1691],[-4,7]],[[29,1690],[4,-6]],[[317,565],[-103,-11],[-51,-63],[-36,22]],[[143,1620],[10,-20]],[[3246,3591],[44,-74],[24,-200],[73,-279],[-6,-172],[-36,-115],[15,-59],[-51,-80],[8,-115],[54,-163],[191,-264],[39,-23],[103,3],[220,-153],[113,-151],[18,-64]],[[3271,3616],[31,28],[9,78],[-42,76],[87,162],[40,136]],[[4066,1639],[30,-108]],[[3246,3591],[25,25]],[[949,1701],[-3,64],[33,45],[51,226],[-13,195],[31,266]],[[12,1706],[1,0]],[[153,1600],[18,-32]],[[5,1643],[-5,-3]],[[22,1663],[-10,-14]],[[22,1663],[8,7]],[[30,1670],[3,14]],[[49,1775],[-3,-6]],[[8,1411],[192,-33]],[[2,1307],[-2,-45]],[[0,306],[35,-50],[28,-116],[-9,-140]],[[0,1319],[2,-12]],[[2,1307],[-2,14]],[[25,1699],[-2,6]],[[200,1378],[-46,-82],[-21,-138],[77,-164],[-17,-40]],[[171,1569],[56,-6]],[[8,1411],[-8,19]],[[180,1487],[47,76]],[[1209,2908],[-30,13]],[[1405,2954],[16,-77]],[[180,1486],[0,1],[-1,-1],[1,0]],[[227,1563],[50,-71],[78,-5],[49,76]],[[31,1741],[21,-14]],[[2033,1449],[283,122],[-7,90]],[[64,1802],[-15,-27]],[[48,1673],[12,0]],[[136,1538],[-31,92],[-48,41]],[[0,1522],[8,57]],[[14,1649],[8,-11]],[[19,1685],[23,-13]],[[58,1675],[2,-2]],[[317,568],[0,-3]],[[500,2401],[-50,154],[-95,176],[-100,41]],[[16,1633],[2,-6]],[[113,1886],[146,171]],[[111,2771],[7,42]],[[23,1687],[6,3]],[[507,1575],[243,-147],[71,-163],[5,-317],[66,-112],[127,-59]],[[1048,667],[121,-136],[140,-82],[175,-57],[42,-51],[74,-30],[179,-227],[48,-5],[68,58],[163,-42],[53,27]],[[2155,129],[4,-3]],[[2197,87],[49,-32]],[[2259,50],[143,-42],[2,-8]],[[2154,130],[0,-1],[1,0]],[[2155,129],[-1,1]],[[55,1682],[-32,5]],[[404,1563],[103,12]],[[153,1518],[26,-32]],[[66,1673],[2,-2]],[[86,1655],[4,3]],[[110,1640],[33,-20]],[[13,1706],[-13,-5]],[[12,1682],[8,-11]],[[18,1685]],[[1019,777],[29,-110]],[[2111,122],[29,23],[14,-15]],[[660,3982],[-8,114]],[[3,1857],[-3,0]],[[1,1856],[2,1]],[[3,1857],[110,29]],[[259,2057],[-63,98],[-46,363],[-49,126],[10,127]],[[118,2813],[50,89],[50,352],[74,265],[134,224],[228,222],[-21,131]],[[0,1856],[0,1]],[[0,1855],[0,1]],[[2,1756],[22,-33]],[[21,1719],[0,-2]],[[24,1723],[-2,-3]],[[23,1719],[1,4]],[[34,1681],[-4,10]],[[55,1682],[11,-9]],[[18,1685],[5,2]],[[20,1671],[5,-6]],[[0,806],[22,-14]],[[65,1803],[-1,-1]],[[13,1705],[5,-20]],[[0,4096],[2171,0],[1925,0],[0,-4096],[-4096,0],[0,4096]],[[3802,4096],[21,-32],[-27,-6],[-11,-60],[-39,16],[-9,82],[65,0]],[[2103,51],[52,61],[18,70],[15,-12],[-20,-27],[69,-39],[-41,-17],[44,-41],[13,18],[15,-36],[-95,55],[3,-25],[-73,-7]],[[2240,1233],[24,94],[82,132],[73,1],[117,-82],[273,-77],[97,37],[18,51],[138,31],[2,51],[70,42],[9,45],[111,2],[92,46],[114,-13],[596,89],[40,-160],[0,-779],[-100,-51],[-37,44],[-52,7],[-73,56],[-82,-17],[-48,24],[-182,-55],[-85,24],[-243,-171],[-23,-47],[7,-263],[-171,-13],[-124,-106],[-60,-90],[-107,-21],[-135,139],[-339,625],[-2,405]],[[0,1446],[0,306],[23,45],[43,6],[87,-68],[0,-248],[-70,-59],[-78,15],[-5,3]]]}