{"objects":{"water":{"type":"GeometryCollection","geometries":[{"type":"MultiPolygon","properties":{"sort_rank":200,"source":"naturalearthdata.com","min_zoom":0.0,"kind":"lake","area":439225373},"arcs":[[[13]]]},{"type":"LineString","properties":{"source":"naturalearthdata.com","kind":"lake","sort_rank":367,"boundary":true,"min_zoom":0.0,"id":1031},"arcs":[14]}]},"buildings":{"type":"GeometryCollection","geometries":[]},"places":{"type":"GeometryCollection","geometries":[{"type":"Point","properties":{"kind":"locality","name":"Gulbene","name:lt":"Gulben\u0117","kind_detail":"town","name:de":"Schwanenburg","source":"openstreetmap.org","min_zoom":8.0,"name:uk":"\u0413\u0443\u043b\u0431\u0435\u043d\u0435","name:ru":"\u0413\u0443\u043b\u0431\u0435\u043d\u0435","id":29525428,"population":8588},"coordinates":[95,3292]},{"type":"Point","properties":{"kind":"locality","name":"Balvi","name:lt":"Balvai","kind_detail":"town","name:he":"\u05d1\u05dc\u05d1\u05d9","name:de":"Bolwen","source":"openstreetmap.org","min_zoom":8.0,"name:uk":"\u0411\u0430\u043b\u0432\u0456","name:ru":"\u0411\u0430\u043b\u0432\u0438","name:bg":"\u0411\u0430\u043b\u0432\u0438","id":29512141,"population":7738},"coordinates":[1591,3063]},{"type":"Point","properties":{"kind":"locality","name:en":"Pytalovo","name:lv":"Pitalova","name":"\u041f\u044b\u0442\u0430\u043b\u043e\u0432\u043e","name:lt":"Pytalovas","alt_name:de":"Neu-Lettgallen","kind_detail":"town","name:de":"Pytalowo","source":"openstreetmap.org","min_zoom":8.0,"name:sr":"\u041f\u0438\u0442\u0430\u043b\u043e\u0432\u043e","old_name:lv":"Abrene","name:pl":"Pyta\u0142owo","id":4370385260,"population":5819},"coordinates":[3502,2688]},{"type":"Point","properties":{"kind":"locality","name":"K\u0101rsava","name:lt":"Karsava","alt_name:de":"Karsau","kind_detail":"town","name:de":"Korsowka","source":"openstreetmap.org","min_zoom":8.0,"name:ru":"\u041a\u0430\u0440\u0441\u0430\u0432\u0430","id":157344234,"population":2386},"coordinates":[2819,1210]},{"type":"Point","properties":{"kind":"locality","name":"Varak\u013c\u0101ni","name:lt":"Varaklianai","alt_name:de":"Warkland","kind_detail":"town","name:de":"Warkelen","source":"openstreetmap.org","min_zoom":8.0,"name:uk":"\u0412\u0430\u0440\u0430\u043a\u043b\u044f\u043d\u0438","name:ru":"\u0412\u0430\u0440\u0430\u043a\u043b\u044f\u043d\u044b","id":157088773,"population":2083},"coordinates":[125,291]},{"type":"Point","properties":{"kind":"locality","name":"Vi\u013caka","name:lt":"Viliaka","kind_detail":"town","name:de":"Marienhausen","source":"openstreetmap.org","min_zoom":8.0,"name:uk":"\u0412\u0456\u043b\u044f\u043a\u0430","name:ru":"\u0412\u0438\u043b\u044f\u043a\u0430","name:pl":"Marjenhuza","id":29512146,"population":1519},"coordinates":[2783,3340]}]},"transit":{"type":"GeometryCollection","geometries":[{"type":"MultiLineString","properties":{"distance":"33","kind":"train","name":"Gulbene - Al\u016bksne","sort_rank":275,"source":"openstreetmap.org","min_zoom":6.0,"operator":"SIA \u201eGulbenes - Al\u016bksnes b\u0101n\u012btis\u201c","osm_relation":true},"arcs":[[4],[5]]},{"type":"MultiLineString","properties":{"kind":"train","name":"R\u012bga - Sanktp\u0113terburga","sort_rank":275,"name:de":"Riga - Sankt Petersburg","source":"openstreetmap.org","min_zoom":6.0,"ref":"R\u012bga - Sanktp\u0113terburga","osm_relation":true},"arcs":[[6],[7],[8]]},{"type":"MultiLineString","properties":{"distance":"33","kind":"train","name":"Al\u016bksne - Gulbene","sort_rank":275,"source":"openstreetmap.org","min_zoom":6.0,"operator":"SIA \u201eGulbenes - Al\u016bksnes b\u0101n\u012btis\u201c","osm_relation":true},"arcs":[[9],[10]]},{"type":"MultiLineString","properties":{"kind":"train","name:en":"Riga - Moscow","name":"R\u012bga - Maskava","sort_rank":275,"name:de":"Riga - Moskau","source":"openstreetmap.org","min_zoom":6.0,"name:ru":"\u0420\u0438\u0433\u0430 - \u041c\u043e\u0441\u043a\u0432\u0430","ref":"R\u012bga - Maskava","osm_relation":true},"arcs":[[11],[12]]}]},"pois":{"type":"GeometryCollection","geometries":[{"type":"Point","properties":{"kind":"protected_area","protect_class":"4","area":24990700,"source":"openstreetmap.org","min_zoom":8.0,"tier":2,"id":132054102,"name":"ADAMOVAS EZERS"},"coordinates":[1970,46]},{"type":"Point","properties":{"kind":"protected_area","protect_class":"4","area":56136500,"source":"openstreetmap.org","min_zoom":8.0,"tier":2,"id":132054239,"name":"GULBJU UN PLATPIROVAS PURVS"},"coordinates":[3921,50]},{"type":"Point","properties":{"kind":"protected_area","protect_class":"4","area":64966100,"source":"openstreetmap.org","min_zoom":8.0,"tier":2,"id":132054292,"name":"KLESNIKU PURVS"},"coordinates":[3725,422]},{"type":"Point","properties":{"kind":"protected_area","protect_class":"4","area":75270800,"source":"openstreetmap.org","min_zoom":8.0,"tier":2,"id":132054296,"name":"KREICU PURVS"},"coordinates":[3392,730]},{"type":"Point","properties":{"kind":"protected_area","protect_class":"4","area":32694800,"source":"openstreetmap.org","min_zoom":8.0,"tier":2,"id":132054544,"name":"NUMERNES VALNIS"},"coordinates":[2194,1507]},{"type":"Point","properties":{"kind":"protected_area","protect_class":"4","area":89966800,"source":"openstreetmap.org","min_zoom":8.0,"tier":2,"id":132054624,"name":"Orlovas (\u0112rg\u013cu) purvs"},"coordinates":[1980,2414]},{"type":"Point","properties":{"kind":"protected_area","protect_class":"4","area":100637000,"source":"openstreetmap.org","min_zoom":7.0,"tier":2,"id":132055014,"name":"Stompaku purvi"},"coordinates":[2142,2920]}]},"boundaries":{"type":"GeometryCollection","geometries":[{"type":"LineString","properties":{"name:kg":"Latvia","name:ka":"\u10da\u10d0\u10e2\u10d5\u10d8\u10d0","name:ko":"\ub77c\ud2b8\ube44\uc544","name:cv":"\u041b\u0430\u0442\u0432\u0438","name:cu":"\u041b\u0430\u0442\u0432\u0457\ua657","name:kl":"Letlandi","name:cs":"Loty\u0161sko","name:tt":"\u041b\u0430\u0442\u0432\u0438\u044f","name:co":"Lettonia","name:kv":"\u041b\u0430\u0442\u0432\u0438\u044f","name:ku":"Letonya","name:tl":"Latbiya","name:ce":"\u041b\u0430\u0442\u0432\u0438","name:ta":"\u0bb2\u0bbe\u0ba4\u0bcd\u0bb5\u0bbf\u0baf\u0bbe","name:tg":"\u041b\u0430\u0442\u0432\u0438\u044f","name:ca":"Let\u00f2nia","name:te":"\u0c32\u0c3e\u0c1f\u0c4d\u0c35\u0c3f\u0c2f\u0c3e","name:cy":"Latfia","name:da":"Letland","name:de":"Lettland","name:dz":"\u0f63\u0f7a\u0f4a\u0f72\u0f0b\u0f56\u0f72\u0f0b\u0f61\u0f0d","source":"openstreetmap.org","name:dv":"\u078d\u07ac\u0793\u07aa\u0788\u07a8\u0787\u07a7","name:uz":"Latviya","name:kk":"\u041b\u0430\u0442\u0432\u0438\u044f","name:ur":"\u0644\u0679\u0648\u06cc\u0627","name:lb":"Lettland","name:la":"Lettonia","name:uk":"\u041b\u0430\u0442\u0432\u0456\u044f","name:ug":"\u0644\u0627\u062a\u06cb\u0649\u064a\u06d5","name:li":"Letland","name:ln":"Letoni","name:el":"\u039b\u03b5\u03c4\u03bf\u03bd\u03af\u03b1","name:eo":"Latvujo","name:en":"Latvia","name":"Latvija","name:tk":"Latwi\u00fda","name:ee":"Latvia","name:th":"\u0e1b\u0e23\u0e30\u0e40\u0e17\u0e28\u0e25\u0e31\u0e15\u0e40\u0e27\u0e35\u0e22","name:eu":"Letonia","name:et":"L\u00e4ti","name:es":"Letonia","name:ia":"Latvia","name:rm":"Lettonia","name:az":"Latviya","name:ie":"Latvia","name:id":"Latvia","name:ar":"\u0644\u0627\u062a\u0641\u064a\u0627","name:io":"Latvia","name:is":"Lettland","name:am":"\u120b\u1275\u126a\u12eb","name:it":"Lettonia","name:an":"Letonia","name:ru":"\u041b\u0430\u0442\u0432\u0438\u044f","name:rw":"Lativiya","name:af":"Letland","name:zu":"ILatviya","kind_detail":"2","name:ky":"\u041b\u0430\u0442\u0432\u0438\u044f","name:zh-yue":"\u62c9\u812b\u7dad\u4e9e","name:zh":"\u62c9\u812b\u7dad\u4e9e","name:so":"Latfiya","name:sk":"Loty\u0161sko","name:ja":"\u30e9\u30c8\u30d3\u30a2","name:sh":"Letonija","name:se":"L\u00e1tvia","name:sc":"Lettonia","name:sa":"\u0932\u093e\u091f\u094d\u0935\u093f\u092f\u093e","name:bn":"\u09b2\u09be\u09a4\u09ad\u09bf\u09af\u09bc\u09be","name:bo":"\u0f63\u0f0b\u0f4a\u0f0b\u0f5d\u0f72\u0f61\u0f0d","name:br":"Latvia","name:sw":"Latvia","name:be":"\u041b\u0430\u0442\u0432\u0456\u044f","name:su":"Latvia","name:bg":"\u041b\u0430\u0442\u0432\u0438\u044f","name:ss":"ILathiviya","name:ba":"\u041b\u0430\u0442\u0432\u0438\u044f","name:sq":"Letonia","name:jv":"Latvia","name:bi":"Latvia","name:pt":"Let\u00f3nia","name:oc":"Let\u00f2nia","min_zoom":8.0,"name:ro":"Letonia","name:zh-min-nan":"Latvia","name:os":"\u041b\u0430\u0442\u0432\u0438","name:or":"\u0b32\u0b3e\u0b1f\u0b2d\u0b3f\u0b06","name:pl":"\u0141otwa","name:st":"Latvia","sort_rank":262,"name:sr":"\u041b\u0435\u0442\u043e\u043d\u0438\u0458\u0430","osm_relation":true,"name:tr":"Letonya","name:hi":"\u0932\u093e\u0924\u0935\u093f\u092f\u093e","name:sv":"Lettland","name:he":"\u05dc\u05d8\u05d1\u05d9\u05d4","name:hy":"\u053c\u0561\u057f\u057e\u056b\u0561","name:ht":"Letoni","name:hu":"Lettorsz\u00e1g","name:qu":"Litunya","kind":"country","name:yi":"\u05dc\u05e2\u05d8\u05dc\u05d0\u05e0\u05d3","name:yo":"L\u00e1tf\u00ed\u00e0","name:mt":"Latvja","alt_name:eo":"Latvio","name:ms":"Latvia","name:mr":"\u0932\u093e\u0924\u094d\u0935\u094d\u0939\u093f\u092f\u093e","name:my":"\u101c\u1010\u103a\u1017\u102e\u101a\u102c\u1014\u102d\u102f\u1004\u103a\u1004\u1036","official_name":"Latvijas Republika","name:kw":"Latvi","name:mg":"Latvia","name:ml":"\u0d32\u0d3e\u0d24\u0d4d\u200c\u0d35\u0d3f\u0d2f","name:vi":"Latvia","name:mn":"\u041b\u0430\u0442\u0432\u0438","name:mi":"R\u0101whia","id":-72594,"name:mk":"\u041b\u0430\u0442\u0432\u0438\u0458\u0430","name:vo":"Latviy\u00e4n","name:fa":"\u0644\u062a\u0648\u0646\u06cc","name:fi":"Latvia","name:fo":"Lettland","name:fr":"Lettonie","alt_name:es":"Latvia","name:fy":"Letl\u00e2n","int_name":"Latvia","name:nl":"Letland","name:nn":"Latvia","name:no":"Latvia","name:na":"Ratebiya","name:ne":"\u0932\u093e\u0924\u094d\u092d\u093f\u092f\u093e","name:wo":"Let\u00f3oni","name:nv":"L\u00e9tbiiya","name:ga":"An Laitvia","name:gd":"An Laitbhe","name:gn":"Leto\u00f1a","name:gl":"Letonia","name:gv":"Yn Latvey","name:gu":"\u0ab2\u0abe\u0a9f\u0ab5\u0abf\u0aaf\u0abe"},"arcs":[0]},{"type":"LineString","properties":{"name:right:it":"Latgallia","id:right":-1775821,"name:right:lt":"Latgala","min_zoom":8.0,"name:left:lt":"Vid\u017eem\u0117","id:left":-1775823,"name:left:be":"\u0412\u0456\u0434\u0437\u044d\u043c\u044d","name:right:ru":"\u041b\u0430\u0442\u0433\u0430\u043b\u0438\u044f","name:right:pl":"\u0141atgalia","id":-1775823,"osm_relation":true,"name:right":"Latgale","kind":"region","name":"Vidzeme - Latgale","sort_rank":256,"kind_detail":"4","name:left:de":"Livland","name:right:be":"\u041b\u0430\u0442\u0433\u0430\u043b\u0456\u044f","source":"openstreetmap.org","name:right:de":"Lettgallen","name:left:ru":"\u0412\u0438\u0434\u0437\u0435\u043c\u0435","name:left":"Vidzeme"},"arcs":[1]},{"type":"LineString","properties":{"name:right:it":"Latgallia","id:right":-1775821,"name:right:lt":"Latgala","min_zoom":8.0,"name:left:lt":"Vid\u017eem\u0117","id:left":-1775823,"name:left:be":"\u0412\u0456\u0434\u0437\u044d\u043c\u044d","name:right:ru":"\u041b\u0430\u0442\u0433\u0430\u043b\u0438\u044f","name:right:pl":"\u0141atgalia","id":-1775823,"osm_relation":true,"name:right":"Latgale","kind":"region","name":"Vidzeme - Latgale","sort_rank":256,"kind_detail":"4","name:left:de":"Livland","name:right:be":"\u041b\u0430\u0442\u0433\u0430\u043b\u0456\u044f","source":"openstreetmap.org","name:right:de":"Lettgallen","name:left:ru":"\u0412\u0438\u0434\u0437\u0435\u043c\u0435","name:left":"Vidzeme"},"arcs":[2]},{"type":"LineString","properties":{"name:right:hy":"\u054a\u057d\u056f\u0578\u057e\u056b \u0574\u0561\u0580\u0566","name:right:la":"Regio Pscoviensis","name:right:uk":"\u041f\u0441\u043a\u043e\u0432\u0441\u044c\u043a\u0430 \u043e\u0431\u043b\u0430\u0441\u0442\u044c","name:right:hr":"Pskovska oblast","name:right:hu":"Pszkovi ter\u00fclet","name:right:lt":"Pskovo sritis","name:right:ur":"\u067e\u0633\u06a9\u0648\u0641 \u0627\u0648\u0628\u0644\u0627\u0633\u062a","name:right:lv":"Pleskavas apgabals","name:left:lt":"Latgala","name:right:uz":"Pskov viloyati","name:right:os":"\u041f\u0441\u043a\u043e\u0432\u044b \u043e\u0431\u043b\u00e6\u0441\u0442","name:right:af":"Pskof-oblast","sort_rank":256,"source":"openstreetmap.org","name:right:ar":"\u0628\u0633\u0643\u0648\u0641 \u0623\u0648\u0628\u0644\u0627\u0633\u062a","name:right:az":"Pskov vilay\u0259ti","name:left":"Latgale","name:right:mk":"\u041f\u0441\u043a\u043e\u0432\u0441\u043a\u0430 \u043e\u0431\u043b\u0430\u0441\u0442","name:right:eu":"Pskov oblasta","name:right:et":"Pihkva oblast","name:right:it":"Oblast' di Pskov","name:right:ro":"Regiunea Pskov","name:left:ru":"\u041b\u0430\u0442\u0433\u0430\u043b\u0438\u044f","name:right:id":"Oblast Pskov","name:right:en":"Pskov Oblast","name:right:el":"\u03a0\u03b5\u03c1\u03b9\u03c6\u03ad\u03c1\u03b5\u03b9\u03b1 \u03a0\u03c3\u03ba\u03bf\u03c6","kind":"region","name":"Latgale - \u041f\u0441\u043a\u043e\u0432\u0441\u043a\u0430\u044f \u043e\u0431\u043b\u0430\u0441\u0442\u044c","name:right:ba":"\u041f\u0441\u043a\u043e\u0432 \u04e9\u043b\u043a\u04d9\u04bb\u0435","min_zoom":8.0,"name:right:be":"\u041f\u0441\u043a\u043e\u045e\u0441\u043a\u0430\u044f \u0432\u043e\u0431\u043b\u0430\u0441\u0446\u044c","name:right:bs":"Pskovska oblast","name:right:zh":"\u666e\u65af\u79d1\u592b\u5dde","name:right:es":"\u00d3blast de Pskov","name:right:nl":"Oblast Pskov","name:right:ja":"\u30d7\u30b9\u30b3\u30d5\u5dde","name:right:fr":"Oblast de Pskov","name:right:sr":"\u041f\u0441\u043a\u043e\u0432\u0441\u043a\u0430 \u043e\u0431\u043b\u0430\u0441\u0442","name:right:bg":"\u041f\u0441\u043a\u043e\u0432\u0441\u043a\u0430 \u043e\u0431\u043b\u0430\u0441\u0442","name:right:sh":"Pskovska oblast","name:left:be":"\u041b\u0430\u0442\u0433\u0430\u043b\u0456\u044f","name:right:sl":"Pskovska oblast","name:right:fa":"\u0627\u0633\u062a\u0627\u0646 \u067e\u0633\u06a9\u0648\u0641","id":-1775821,"name:right":"\u041f\u0441\u043a\u043e\u0432\u0441\u043a\u0430\u044f \u043e\u0431\u043b\u0430\u0441\u0442\u044c","name:right:ca":"Prov\u00edncia de Pskov","kind_detail":"4","name:right:ce":"\u041f\u0441\u043a\u043e\u0432\u0430\u043d \u043e\u0431\u043b\u0430\u0441\u0442\u044c","name:right:tt":"\u041f\u0441\u043a\u043e\u0432 \u04e9\u043b\u043a\u04d9\u0441\u0435","id:left":-1775821,"name:right:cs":"Pskovsk\u00e1 oblast","name:right:fi":"Pihkovan alue","id:right":-155262,"name:right:cv":"\u041f\u0441\u043a\u043e\u0432 \u043e\u0431\u043b\u0430\u00e7\u0115","name:right:ka":"\u10e4\u10e1\u10d9\u10dd\u10d5\u10d8\u10e1 \u10dd\u10da\u10e5\u10d8","name:left:pl":"\u0141atgalia","name:right:ko":"\ud504\uc2a4\ucf54\ud504 \uc8fc","name:left:de":"Lettgallen","name:right:tr":"Pskov Oblast\u0131","name:right:kv":"\u041f\u0441\u043a\u043e\u0432 \u043e\u0431\u043b\u0430\u0441\u044c\u0442","name:left:it":"Latgallia","name:right:pl":"Obw\u00f3d pskowski","name:right:ta":"\u0baa\u0bbf\u0b9a\u0bc1\u0b95\u0bcd\u0b95\u0bcb\u0bb5\u0bcd \u0bae\u0bbe\u0b95\u0bbe\u0ba3\u0bae\u0bcd","osm_relation":true,"name:right:de":"Oblast Pskow","name:right:da":"Pskov oblast"},"arcs":[3]}]},"roads":{"type":"GeometryCollection","geometries":[{"type":"MultiLineString","properties":{"kind":"major_road","network":"lv:national","sort_rank":380,"kind_detail":"primary","source":"openstreetmap.org","min_zoom":8.0,"shield_text":"48","ref":"P48"},"arcs":[[15],[16]]},{"type":"LineString","properties":{"kind":"major_road","network":"lv:national","sort_rank":380,"kind_detail":"primary","source":"openstreetmap.org","min_zoom":8.0,"shield_text":"37","ref":"P37"},"arcs":[17]},{"type":"LineString","properties":{"kind":"major_road","network":"lv:national","sort_rank":380,"kind_detail":"primary","source":"openstreetmap.org","min_zoom":8.0,"shield_text":"58","ref":"P58"},"arcs":[18]},{"type":"MultiLineString","properties":{"kind":"major_road","network":"lv:national","sort_rank":380,"kind_detail":"primary","source":"openstreetmap.org","min_zoom":8.0,"shield_text":"36","ref":"P36"},"arcs":[[19],[20]]},{"type":"LineString","properties":{"kind":"major_road","network":"lv:national","sort_rank":380,"kind_detail":"primary","source":"openstreetmap.org","min_zoom":8.0,"landuse_kind":"residential","shield_text":"45","ref":"P45"},"arcs":[21]},{"type":"MultiLineString","properties":{"kind":"major_road","network":"ru:regional","sort_rank":380,"kind_detail":"primary","source":"openstreetmap.org","min_zoom":8.0,"shield_text":"58\u041a","ref":"58\u041a-530"},"arcs":[[22],[23]]},{"type":"LineString","properties":{"kind":"major_road","network":"lv:national","sort_rank":380,"kind_detail":"primary","source":"openstreetmap.org","min_zoom":8.0,"shield_text":"27","ref":"P27"},"arcs":[24]},{"type":"LineString","properties":{"kind":"major_road","network":"e-road","sort_rank":381,"kind_detail":"trunk","source":"openstreetmap.org","min_zoom":8.0,"shield_text":"262","ref":"58\u041a-306"},"arcs":[25]},{"type":"LineString","properties":{"kind":"major_road","network":"ru:regional","sort_rank":380,"kind_detail":"primary","source":"openstreetmap.org","min_zoom":8.0,"shield_text":"58\u041a","ref":"58\u041a-326"},"arcs":[26]},{"type":"MultiLineString","properties":{"source":"openstreetmap.org","kind":"major_road","sort_rank":381,"kind_detail":"trunk","ref":"A13","min_zoom":8.0},"arcs":[[27],[28],[29]]},{"type":"LineString","properties":{"kind":"major_road","network":"lv:national","sort_rank":380,"kind_detail":"primary","source":"openstreetmap.org","min_zoom":8.0,"shield_text":"41","ref":"P41","id":126114755},"arcs":[30]},{"type":"MultiLineString","properties":{"kind":"major_road","network":"e-road","sort_rank":381,"kind_detail":"trunk","source":"openstreetmap.org","min_zoom":8.0,"shield_text":"262","ref":"A13"},"arcs":[[31],[32]]},{"type":"MultiLineString","properties":{"kind":"major_road","sort_rank":377,"kind_detail":"tertiary","is_bicycle_related":true,"bicycle_shield_text":"EV11","bicycle_network":"icn","source":"openstreetmap.org","min_zoom":8.0},"arcs":[[33],[34]]},{"type":"LineString","properties":{"kind":"major_road","network":"lv:national","sort_rank":380,"kind_detail":"primary","source":"openstreetmap.org","min_zoom":8.0,"shield_text":"47","ref":"P47"},"arcs":[35]},{"type":"LineString","properties":{"kind":"major_road","network":"lv:national","sort_rank":380,"kind_detail":"primary","source":"openstreetmap.org","min_zoom":8.0,"landuse_kind":"protected_area","shield_text":"48","ref":"P48","id":26518270},"arcs":[36]},{"type":"LineString","properties":{"kind":"major_road","network":"lv:regional","sort_rank":379,"landuse_kind":"protected_area","is_bicycle_related":true,"bicycle_shield_text":"EV11","bicycle_network":"icn","source":"openstreetmap.org","min_zoom":8.0,"kind_detail":"secondary","shield_text":"560","ref":"V560"},"arcs":[37]},{"type":"LineString","properties":{"kind":"major_road","network":"lv:regional","sort_rank":379,"kind_detail":"secondary","is_bicycle_related":true,"bicycle_shield_text":"EV11","bicycle_network":"icn","source":"openstreetmap.org","min_zoom":8.0,"shield_text":"596","ref":"V596","id":41625048},"arcs":[38]},{"type":"MultiLineString","properties":{"kind":"major_road","network":"lv:national","sort_rank":380,"kind_detail":"primary","source":"openstreetmap.org","min_zoom":8.0,"shield_text":"49","ref":"P49"},"arcs":[[39],[40],[41]]},{"type":"LineString","properties":{"kind":"major_road","network":"lv:national","sort_rank":381,"kind_detail":"trunk","is_bicycle_related":true,"bicycle_shield_text":"EV11","bicycle_network":"icn","source":"openstreetmap.org","min_zoom":8.0,"shield_text":"12","ref":"A12"},"arcs":[42]},{"type":"MultiLineString","properties":{"sort_rank":380,"kind_detail":"primary","min_zoom":8.0,"kind":"major_road","source":"openstreetmap.org"},"arcs":[[43],[44]]},{"type":"MultiLineString","properties":{"source":"openstreetmap.org","kind":"major_road","sort_rank":380,"kind_detail":"primary","ref":"58\u041a-530","min_zoom":8.0},"arcs":[[45],[46],[47],[48],[49],[50],[51],[52]]},{"type":"MultiLineString","properties":{"kind":"major_road","network":"ru:regional","sort_rank":381,"kind_detail":"trunk","source":"openstreetmap.org","min_zoom":8.0,"shield_text":"58\u041a","ref":"58\u041a-306"},"arcs":[[53],[54],[55]]},{"type":"LineString","properties":{"kind":"major_road","network":"lv:regional","sort_rank":379,"kind_detail":"secondary","is_bicycle_related":true,"bicycle_shield_text":"EV11","bicycle_network":"icn","source":"openstreetmap.org","min_zoom":8.0,"landuse_kind":"protected_area","shield_text":"592","ref":"V592","id":207316299},"arcs":[56]},{"type":"LineString","properties":{"kind":"major_road","network":"lv:national","sort_rank":381,"kind_detail":"trunk","is_bicycle_related":true,"bicycle_shield_text":"LV3","bicycle_network":"ncn","source":"openstreetmap.org","min_zoom":8.0,"shield_text":"12","ref":"A12"},"arcs":[57]},{"type":"LineString","properties":{"kind":"major_road","network":"lv:national","sort_rank":381,"kind_detail":"trunk","source":"openstreetmap.org","min_zoom":8.0,"shield_text":"12","ref":"A12"},"arcs":[58]},{"type":"LineString","properties":{"kind":"major_road","network":"lv:national","sort_rank":380,"kind_detail":"primary","source":"openstreetmap.org","min_zoom":8.0,"landuse_kind":"residential","shield_text":"35","ref":"P35"},"arcs":[59]},{"type":"MultiLineString","properties":{"source":"openstreetmap.org","kind":"major_road","sort_rank":380,"kind_detail":"primary","ref":"P35","min_zoom":8.0},"arcs":[[60],[61],[62],[63],[64],[65]]},{"type":"MultiLineString","properties":{"kind":"major_road","network":"lv:national","sort_rank":381,"kind_detail":"trunk","source":"openstreetmap.org","min_zoom":8.0,"shield_text":"13","ref":"A13"},"arcs":[[66],[67],[68]]},{"type":"LineString","properties":{"kind":"major_road","network":"lv:national","sort_rank":380,"kind_detail":"primary","source":"openstreetmap.org","min_zoom":8.0,"shield_text":"46","ref":"P46"},"arcs":[69]},{"type":"MultiLineString","properties":{"source":"openstreetmap.org","kind":"major_road","sort_rank":381,"kind_detail":"trunk","ref":"58\u041a-306","min_zoom":8.0},"arcs":[[70],[71],[72],[73],[74],[75],[76],[77],[78],[79],[80],[81]]},{"type":"MultiLineString","properties":{"kind":"major_road","network":"lv:national","sort_rank":380,"kind_detail":"primary","source":"openstreetmap.org","min_zoom":8.0,"shield_text":"35","ref":"P35"},"arcs":[[82],[83],[84],[85],[86],[87],[88],[89]]},{"type":"LineString","properties":{"kind":"major_road","network":"lv:national","sort_rank":380,"kind_detail":"primary","source":"openstreetmap.org","min_zoom":8.0,"shield_text":"45","ref":"P45"},"arcs":[90]},{"type":"LineString","properties":{"kind":"major_road","network":"lv:regional","sort_rank":379,"kind_detail":"secondary","is_bicycle_related":true,"bicycle_shield_text":"EV11","bicycle_network":"icn","source":"openstreetmap.org","min_zoom":8.0,"shield_text":"561","ref":"V561","id":207316297},"arcs":[91]},{"type":"LineString","properties":{"kind":"major_road","network":"lv:regional","sort_rank":379,"kind_detail":"secondary","is_bicycle_related":true,"bicycle_shield_text":"EV11","bicycle_network":"icn","source":"openstreetmap.org","min_zoom":8.0,"shield_text":"868","ref":"V868"},"arcs":[92]},{"type":"LineString","properties":{"kind":"major_road","sort_rank":377,"landuse_kind":"protected_area","is_bicycle_related":true,"bicycle_shield_text":"EV11","bicycle_network":"icn","source":"openstreetmap.org","min_zoom":8.0,"kind_detail":"tertiary"},"arcs":[93]},{"type":"LineString","properties":{"kind":"major_road","network":"lv:regional","sort_rank":379,"kind_detail":"secondary","is_bicycle_related":true,"bicycle_shield_text":"EV11","bicycle_network":"icn","source":"openstreetmap.org","min_zoom":8.0,"shield_text":"560","ref":"V560","id":23362290},"arcs":[94]},{"type":"LineString","properties":{"kind":"major_road","network":"lv:national","sort_rank":380,"kind_detail":"primary","source":"openstreetmap.org","min_zoom":8.0,"shield_text":"43","ref":"P43","id":70461228},"arcs":[95]},{"type":"LineString","properties":{"kind":"major_road","network":"lv:national","sort_rank":380,"kind_detail":"primary","source":"openstreetmap.org","min_zoom":8.0,"landuse_kind":"protected_area","shield_text":"36","ref":"P36"},"arcs":[96]},{"type":"LineString","properties":{"kind":"major_road","network":"lv:national","sort_rank":380,"kind_detail":"primary","source":"openstreetmap.org","min_zoom":8.0,"shield_text":"50","ref":"P50"},"arcs":[97]},{"type":"MultiLineString","properties":{"kind":"major_road","network":"lv:regional","sort_rank":379,"kind_detail":"secondary","is_bicycle_related":true,"bicycle_shield_text":"EV11","bicycle_network":"icn","source":"openstreetmap.org","min_zoom":8.0,"shield_text":"592","ref":"V592","id":207316299},"arcs":[[98],[99]]},{"type":"LineString","properties":{"kind":"major_road","network":"lv:national","sort_rank":380,"kind_detail":"primary","source":"openstreetmap.org","min_zoom":8.0,"shield_text":"42","ref":"P42"},"arcs":[100]}]},"earth":{"type":"GeometryCollection","geometries":[{"type":"Polygon","properties":{"sort_rank":10,"source":"naturalearthdata.com","min_zoom":0.0,"kind":"earth","area":98022885885},"arcs":[[101]]}]},"landuse":{"type":"GeometryCollection","geometries":[{"type":"MultiPolygon","properties":{"source":"openstreetmap.org","kind":"protected_area","tier":2,"protect_class":"4","area":1287860574,"sort_rank":17,"min_zoom":8.0},"arcs":[[[102]],[[103]],[[104]],[[105]],[[106]],[[107]],[[108]]]},{"type":"MultiPolygon","properties":{"source":"openstreetmap.org","kind":"protected_area","tier":2,"protect_class":"4","area":3353853540,"sort_rank":17,"min_zoom":4.0},"arcs":[[[109]]]},{"type":"MultiPolygon","properties":{"source":"openstreetmap.org","kind":"protected_area","tier":2,"protect_class":"4","area":206242405,"sort_rank":17,"min_zoom":7.0},"arcs":[[[110]]]},{"type":"MultiPolygon","properties":{"source":"openstreetmap.org","kind":"residential","tier":2,"area":33026502,"sort_rank":20,"min_zoom":8.0},"arcs":[[[111]]]}]}},"type":"Topology","transform":{"translate":[26.71875,56.5594824838],"scale":[0.0003433228,0.0001872653]},"arcs":[[[4096,124],[-205,8],[-33,33],[-6,71],[-87,176],[4,191],[-52,87],[-47,1],[7,96],[-54,0],[-76,114],[-55,30],[-10,87],[-45,11],[48,112],[87,19],[-2,138],[94,48],[-25,135],[-194,-87],[-9,94],[-82,157],[11,53],[-78,14],[-67,-68],[-170,-24],[-67,-45],[-30,15],[-39,-52],[-45,1],[-33,-56],[-96,-15],[-12,100],[44,89],[5,139],[41,107],[82,-15],[67,38],[14,195],[80,259],[-111,-21],[-47,27],[39,170],[58,81],[-17,78],[75,95],[-49,-9],[-105,72],[10,33],[97,-29],[2,48],[-49,19],[1,42],[56,27],[3,39],[71,25],[19,-16],[88,55],[44,126],[-13,224],[37,12],[7,104],[78,96],[-29,79],[19,182],[-26,38],[-33,-3],[-68,103],[-120,-14],[-20,33]],[[70,0],[0,1],[26,12],[-84,84],[37,43],[-14,20],[21,32],[71,11],[86,60],[-53,67],[-6,72],[52,72],[-44,46],[11,45],[-34,60],[31,8],[17,96],[33,24],[-9,42],[-39,25],[421,623],[126,124],[35,8],[41,69],[-71,110],[-8,173],[-191,91],[64,195],[-69,41],[-93,-36],[4,120],[28,16],[-10,45],[-44,-11],[-1,51],[39,-8],[-27,12],[-6,33],[34,-10],[8,43],[34,-10],[-16,17],[32,14],[-23,11],[12,18],[31,-15],[116,49],[80,101],[31,140],[184,219],[83,182],[97,44],[-4,38],[120,122],[65,127],[92,18],[23,51],[66,-43],[18,4],[35,107],[34,-29],[27,26],[32,-25],[55,21],[15,73],[88,84],[76,30],[138,-175],[51,1],[31,52]],[[2075,3761],[87,2],[-1,101],[25,1],[77,-6],[15,-115],[46,-20],[23,43],[66,1],[24,-24],[17,102],[87,-2],[4,150],[117,2],[83,85],[49,-7],[13,22]],[[4096,124],[-205,8],[-33,33],[-6,71],[-87,176],[4,191],[-52,87],[-47,1],[7,96],[-54,0],[-76,114],[-55,30],[-10,87],[-45,11],[48,112],[87,19],[-2,138],[94,48],[-25,135],[-194,-87],[-9,94],[-82,157],[11,53],[-78,14],[-67,-68],[-170,-24],[-67,-45],[-30,15],[-39,-52],[-45,1],[-33,-56],[-96,-15],[-12,100],[44,89],[5,139],[41,107],[82,-15],[67,38],[14,195],[80,259],[-111,-21],[-47,27],[39,170],[58,81],[-17,78],[75,95],[-49,-9],[-105,72],[10,33],[97,-29],[2,48],[-49,19],[1,42],[56,27],[3,39],[71,25],[19,-16],[88,55],[44,126],[-13,224],[37,12],[7,104],[78,96],[-29,79],[19,182],[-26,38],[-33,-3],[-68,103],[-120,-14],[-20,33]],[[155,3345],[-19,-17]],[[851,4096],[-43,-111],[-101,-117],[-103,-185],[-229,-126],[-221,-211]],[[4096,3488],[-66,-205],[-56,-47],[-183,-349],[-189,-75],[-311,-274],[-213,-112],[-95,-307],[-51,-632],[-630,-830],[-177,-133],[-98,-108],[-42,-127],[-183,-171],[-20,-118]],[[765,0],[-202,13],[-102,-13]],[[199,0],[-196,8],[-3,1]],[[155,3345],[-19,-17]],[[851,4096],[-43,-111],[-101,-117],[-103,-185],[-229,-126],[-221,-211]],[[765,0],[-202,13],[-102,-13]],[[199,0],[-196,8],[-3,1]],[[699,1292],[13,-12],[88,-43],[-476,-380],[-105,-50],[-59,28],[25,167],[71,166],[90,129],[83,52],[54,16],[86,56],[51,2],[28,-14],[26,-25],[18,-38],[7,-54]],[[699,1292],[13,-12],[88,-43],[-476,-380],[-105,-50],[-59,28],[25,167],[71,166],[90,129],[83,52],[54,16],[86,56],[51,2],[28,-14],[26,-25],[18,-38],[7,-54]],[[2086,1524],[-32,10],[-104,131],[-39,79],[5,92],[-127,232],[45,169],[-106,159],[-286,244]],[[2734,1265],[-74,3],[-49,35],[-75,-6],[-81,49],[-65,6],[-64,-52],[-72,-8],[-74,202]],[[78,3288],[-78,-157]],[[611,39],[-7,-39]],[[1098,1343],[-86,492],[-4,374],[-110,235],[-333,195],[-151,186],[-114,227],[-71,25],[-86,128],[-23,2]],[[1626,0],[-228,336],[-42,181],[-161,215],[-74,428]],[[2807,3309],[-10,-34]],[[3227,2949],[-49,17],[-15,69],[-93,35]],[[3079,3058],[-7,3]],[[120,3207],[-69,130],[-51,28]],[[3243,1662],[13,29],[-13,-29]],[[3755,2556],[-156,101],[-14,81],[-32,33],[-88,-10],[-52,109],[-168,43],[-18,36]],[[3236,1650],[-7,-8]],[[3240,1655],[-4,-5]],[[3238,1649],[3,4]],[[1725,4096],[-68,-31]],[[3243,1662],[-1,-2]],[[3242,1660],[1,2]],[[591,676],[23,40],[-15,73],[18,57],[92,89],[5,26],[-39,37],[28,49]],[[988,4],[0,-4]],[[1600,3059],[-114,-362],[-55,-84],[-189,-125],[-53,-144],[-175,-198]],[[2180,1494],[-94,30]],[[732,1097],[-85,60],[8,77],[-128,167],[-80,19]],[[693,639],[18,-195],[-44,-172],[48,-81],[-93,-132]],[[2858,1165],[1,-3]],[[2859,1162],[1,3]],[[2859,1162],[54,-161],[22,-188],[66,-149],[-3,-80],[-64,-134],[57,-230],[-61,-196],[0,-24]],[[988,4],[-374,33]],[[1787,2069],[2,2]],[[3070,3070]],[[3071,3068],[5,-9]],[[3076,3059],[1,-2]],[[3077,3057],[0,-1]],[[3072,3059],[5,-2]],[[3077,3057],[1,-1]],[[3085,3055],[-9,4]],[[3076,3059],[-4,3]],[[3072,3067],[19,-14]],[[3721,2492],[-465,-801]],[[3761,2567],[-25,-48]],[[4096,3181],[-106,-190],[-4,-48],[-50,-48],[-161,-301]],[[680,644],[4,-2]],[[614,37],[-235,212],[-92,45],[-239,-78],[-48,-31]],[[997,0],[-9,4]],[[2837,3298],[-86,41]],[[3069,3080],[-2,-1]],[[3067,3079],[2,-5]],[[3069,3074],[0,-2]],[[3069,3072],[2,3]],[[3069,3072],[1,-2]],[[3071,3075],[-2,5]],[[3224,1638],[-1110,-1357],[-212,-218],[-23,-63]],[[3242,1660],[-18,-22]],[[3224,1638],[18,22]],[[2606,2399],[-103,20],[-50,72],[-117,64],[-290,97],[-275,348]],[[3244,1672],[-2,1]],[[3243,1665],[1,7]],[[3251,1682],[-8,-19]],[[3244,1663],[7,18]],[[3248,1678],[-2,-4]],[[3248,1678],[-2,-4]],[[3248,1678],[-2,-5]],[[3249,1678],[-2,-5]],[[3248,1672],[2,5]],[[3248,1672],[2,5]],[[3249,1672],[1,4]],[[3249,1673],[2,3]],[[109,3237],[-2,0]],[[108,3235],[1,2]],[[1549,3097],[-156,122],[-142,4],[-39,40],[-183,62],[-120,78],[-393,-32],[-407,-134]],[[1574,3080],[-25,17]],[[1584,3066],[-10,14]],[[1584,3066],[12,-6]],[[2751,3339],[-128,-17],[-220,-117],[-322,-76],[-70,-83],[-63,-29],[-177,-17],[-175,60]],[[3059,3084],[-183,203],[-39,11]],[[2797,3275],[-2,-52],[-114,-177],[-58,-46],[46,-337],[-75,-126],[12,-138],[78,-49],[72,-121],[5,-77],[-66,-85],[-67,-280],[23,-72],[58,-43],[9,-95],[3,-47],[-58,-125],[71,-140],[109,-93]],[[622,59],[-8,-22]],[[282,1361],[-84,-80],[-198,-3]],[[703,1047],[29,50]],[[447,1420],[-33,8],[-132,-67]],[[916,3402],[86,206],[-31,255],[53,115],[0,118]],[[1121,1160],[-23,183]],[[2843,1172],[84,-30],[141,31],[154,-24],[249,-159]],[[591,676],[89,-32]],[[684,642],[9,-3]],[[2619,3320],[-113,57],[-25,99],[-111,52],[-8,68],[-106,48],[-64,119],[35,144],[-30,91],[5,98]],[[0,4096],[2171,0],[1925,0],[0,-4096],[-4096,0],[0,4096]],[[3658,378],[33,38],[-28,66],[79,75],[-19,116],[45,-70],[-3,-191],[86,-177],[-8,-67],[-172,75],[26,118],[-39,17]],[[3267,829],[39,24],[-7,33],[61,71],[52,-23],[0,-42],[37,-8],[13,-366],[-103,9],[25,46],[-63,187],[-24,30],[-27,-15],[-3,54]],[[2029,0],[-149,0],[23,63],[91,5],[25,21],[-23,27],[16,16],[55,-33],[-32,-94],[-6,-5]],[[4029,0],[-67,0],[-3,18],[-119,-4],[-87,39],[1,74],[36,18],[51,-6],[12,-29],[8,24],[51,6],[176,-21],[-12,-98],[-46,-4],[-1,-17]],[[2040,1465],[26,6],[24,62],[48,13],[135,25],[41,-33],[70,11],[-45,-18],[-9,-47],[-25,30],[-34,-56],[-61,3],[-2,39],[-29,-4],[17,-35],[-98,2],[-56,-24],[-2,26]],[[1831,2329],[40,100],[59,30],[14,80],[59,10],[19,37],[151,-23],[-10,-56],[-22,-3],[6,-44],[-50,-36],[-17,-67],[-60,-9],[-123,-97],[1,-25],[-67,103]],[[0,2660],[0,60],[27,-6],[-27,-54]],[[0,687],[0,222],[39,32],[21,62],[54,23],[6,83],[58,66],[93,16],[176,230],[-21,118],[-56,59],[-76,-18],[-86,78],[0,60],[115,20],[-8,94],[29,2],[-3,34],[81,11],[-18,74],[-100,30],[-51,-12],[-26,29],[42,31],[114,-54],[57,47],[-30,143],[-21,-5],[25,35],[-23,59],[-78,-20],[7,84],[-44,120],[33,0],[40,66],[-64,121],[16,26],[28,-100],[47,-60],[27,-17],[38,42],[-39,73],[39,22],[-7,148],[-29,73],[93,-117],[-4,-52],[82,-36],[13,-42],[-77,-53],[-65,-94],[14,-51],[17,7],[7,-120],[54,-25],[24,34],[24,-29],[41,1],[-2,44],[22,4],[54,-28],[-19,-59],[74,95],[66,-4],[19,-68],[91,-24],[-10,-41],[26,-39],[-64,-139],[-38,7],[26,-124],[116,-198],[-34,-241],[22,-7],[-26,-29],[135,-66],[47,15],[-5,29],[34,5],[34,-28],[74,23],[51,-95],[-95,23],[-29,42],[-90,-48],[18,-146],[-37,1],[-2,-64],[-48,-29],[-14,-48],[-36,1],[-48,-46],[-50,2],[-55,55],[0,96],[-46,21],[-35,-76],[52,-132],[-13,-104],[44,-223],[-158,29],[40,95],[-9,44],[-81,69],[63,57],[63,8],[-5,37],[-34,4],[22,29],[-28,68],[-79,-77],[-53,-127],[-44,-47],[61,-45],[-10,-87],[46,-38],[-17,-35],[-54,72],[-84,-47],[-26,56],[-48,-9],[-62,32],[9,-139],[-25,-3],[6,-51],[-51,-16],[-88,43],[-17,-31],[-24,115],[-150,67]],[[2020,2752],[34,40],[-27,23],[13,13],[39,21],[54,-27],[34,38],[-55,49],[17,19],[-17,29],[20,-7],[0,74],[56,-1],[2,39],[29,0],[2,79],[86,26],[0,-28],[56,1],[-1,-78],[-56,1],[0,-38],[-58,0],[0,-38],[-58,0],[0,-37],[-28,0],[-1,-39],[144,0],[0,-39],[29,0],[-29,-76],[-69,-22],[-33,-57],[10,-31],[-150,-2],[-43,68]],[[2748,3351],[20,63],[34,-14],[8,-61],[52,-4],[-46,-67],[-54,19],[-14,64]]]}