{"objects":{"water":{"type":"GeometryCollection","geometries":[{"type":"MultiPolygon","properties":{"source":"naturalearthdata.com","kind":"ocean","area":1576712559132672,"sort_rank":200,"min_zoom":0.0,"id":1},"arcs":[[[6]],[[7],[8]]]},{"type":"MultiLineString","properties":{"source":"naturalearthdata.com","kind":"ocean","sort_rank":205,"boundary":true,"min_zoom":0.0,"id":68},"arcs":[[9],[10]]},{"type":"MultiLineString","properties":{"source":"naturalearthdata.com","kind":"ocean","sort_rank":205,"boundary":true,"min_zoom":0.0,"id":259},"arcs":[[11],[12]]},{"type":"LineString","properties":{"source":"naturalearthdata.com","kind":"ocean","sort_rank":205,"boundary":true,"min_zoom":0.0,"id":261},"arcs":[13]}]},"buildings":{"type":"GeometryCollection","geometries":[]},"places":{"type":"GeometryCollection","geometries":[{"type":"Point","properties":{"admin_level":"4","kind":"locality","name":"La Paz","kind_detail":"city","region_capital":true,"source":"openstreetmap.org","min_zoom":8.0,"name:uk":"\u041b\u0430-\u041f\u0430\u0441","name:ru":"\u041b\u0430-\u041f\u0430\u0441","id":266478791,"population":215178},"coordinates":[2243,2891]},{"type":"Point","properties":{"source":"openstreetmap.org","kind":"locality","name":"El Pescadero","kind_detail":"town","population":2500,"min_zoom":8.0,"id":676897618},"coordinates":[2683,407]}]},"transit":{"type":"GeometryCollection","geometries":[]},"pois":{"type":"GeometryCollection","geometries":[]},"boundaries":{"type":"GeometryCollection","geometries":[{"type":"MultiLineString","properties":{"name:ka":"\u10db\u10d4\u10e5\u10e1\u10d8\u10d9\u10d0","name:ko":"\uba55\uc2dc\ucf54","name:cv":"\u041c\u0435\u043a\u0441\u0438\u043a\u0430","name:km":"\u1798\u17c9\u17b7\u1780\u179f\u17ca\u17b7\u1780","name:kl":"Mexico","name:cs":"Mexiko","name:tw":"Mexico","name:tt":"\u041c\u0435\u043a\u0441\u0438\u043a\u0430","name:co":"Messicu","name:kv":"\u041c\u0435\u043a\u0441\u0438\u043a\u0430","name:th":"\u0e1b\u0e23\u0e30\u0e40\u0e17\u0e28\u0e40\u0e21\u0e47\u0e01\u0e0b\u0e34\u0e42\u0e01","name:tl":"Mehiko","name:ce":"\u041c\u0435\u043a\u0441\u0438\u043a\u0430","name:ta":"\u0bae\u0bc6\u0b95\u0bcd\u0b9a\u0bbf\u0b95\u0bcd\u0b95\u0bcb","name:tg":"\u041c\u0435\u043a\u0441\u0438\u043a\u0430","name:ca":"M\u00e8xic","name:te":"\u0c2e\u0c46\u0c15\u0c4d\u0c38\u0c3f\u0c15\u0c4b","name:cy":"Mexico","name:qu":"Mishiku","name:da":"Mexico","name:de":"Mexiko","name:dz":"\u0f58\u0f7a\u0f40\u0f0b\u0f66\u0f72\u0f0b\u0f40\u0f7c","source":"openstreetmap.org","name:kn":"\u0cae\u0cc6\u0c95\u0ccd\u0cb8\u0cbf\u0c95\u0ccb","name:dv":"\u0789\u07ac\u0786\u07b0\u0790\u07a8\u0786\u07af","name:lv":"Meksika","name:lt":"Meksika","name:uz":"Meksika","name:kk":"\u041c\u0435\u043a\u0441\u0438\u043a\u0430","name:ur":"\u0645\u06cc\u06a9\u0633\u06cc\u06a9\u0648","name:lb":"Mexiko","name:la":"Mexicum","name:uk":"\u041c\u0435\u043a\u0441\u0438\u043a\u0430","name:ug":"\u0645\u06d0\u0643\u0633\u0649\u0643\u0627","name:li":"Mexico","name:ln":"Mexiko","name:el":"\u039c\u03b5\u03be\u03b9\u03ba\u03cc","name:eo":"Meksiko","name:en":"Mexico","name":"M\u00e9xico","name:tk":"Meksika","name:ee":"Mexico","name:ku":"Meks\u00eek","name:eu":"Mexiko","name:et":"Mehhiko","name:ay":"M\u00efxiku","name:rm":"Mexico","name:az":"Meksika","name:id":"Meksiko","name:ik":"Mexiqo","name:ar":"\u0627\u0644\u0645\u0643\u0633\u064a\u0643","name:io":"Mexikia","name:is":"Mex\u00edk\u00f3","name:am":"\u121c\u12ad\u1232\u12ae","name:it":"Messico","name:an":"Mexico","name:ru":"\u041c\u0435\u043a\u0441\u0438\u043a\u0430","name:rw":"Megizike","name:af":"Meksiko","name:zu":"IMekisiko","kind_detail":"2","name:ky":"\u041c\u0435\u043a\u0441\u0438\u043a\u0430","name:zh-yue":"\u58a8\u897f\u54e5","name:zh":"\u58a8\u897f\u54e5","name:so":"Meksiko","name:sn":"Mexico","name:sm":"Mexico","name:sl":"Mehika","name:sk":"Mexiko","name:ja":"\u30e1\u30ad\u30b7\u30b3","name:sh":"Meksiko","name:se":"Meksiko","name:sc":"M\u00e8ssico","name:br":"Mec'hiko","name:bs":"Meksiko","name:bm":"M\u025bkisiki","name:bn":"\u09ae\u09c7\u0995\u09cd\u09b8\u09bf\u0995\u09cb","name:bo":"\u0f58\u0f7a\u0f42\u0f0b\u0f66\u0f72\u0f0b\u0f40\u0f7c\u0f0d","name:bi":"Mexico","name:sw":"Mexiko","name:be":"\u041c\u0435\u043a\u0441\u0456\u043a\u0430","name:su":"M\u00e9ksiko","name:bg":"\u041c\u0435\u043a\u0441\u0438\u043a\u043e","name:ss":"IMekisikho","name:ba":"\u041c\u0435\u043a\u0441\u0438\u043a\u0430","name:sq":"Meksika","name:jv":"M\u00e8ksiko","name:ia":"Mexico","name:oc":"Mexic","min_zoom":8.0,"name:ro":"Mexic","name:zh-min-nan":"Be\u030dk-se-ko","name:os":"\u041c\u0435\u043a\u0441\u0438\u043a\u00e6","name:or":"\u0b2e\u0b47\u0b15\u0b4d\u0b38\u0b3f\u0b15\u0b4b","name:pl":"Meksyk","sort_rank":262,"name:sr":"\u041c\u0435\u043a\u0441\u0438\u043a\u043e","osm_relation":true,"name:pa":"\u0a2e\u0a48\u0a15\u0a38\u0a40\u0a15\u0a4b","name:tr":"Meksika","name:hi":"\u092e\u0947\u0915\u094d\u0938\u093f\u0915\u094b","name:sv":"Mexico","name:he":"\u05de\u05e7\u05e1\u05d9\u05e7\u05d5","name:hy":"\u0544\u0565\u0584\u057d\u056b\u056f\u0561","name:ht":"Meksik","name:hu":"Mexik\u00f3","name:hr":"Meksiko","kind":"country","name:yi":"\u05de\u05e2\u05e7\u05e1\u05d9\u05e7\u05d0","name:iu":"\u14a6\u1483\u14f0\u1582","name:yo":"M\u1eb9\u0301ks\u00edk\u00f2","name:mt":"Messiku","name:ms":"Mexico","name:mr":"\u092e\u0947\u0915\u094d\u0938\u093f\u0915\u094b","name:my":"\u1019\u1000\u1039\u1000\u1006\u102e\u1000\u102d\u102f\u1014\u102d\u102f\u1004\u103a\u1004\u1036","name:kw":"Meksiko","name:mg":"Meksika","name:ml":"\u0d2e\u0d46\u0d15\u0d4d\u0d38\u0d3f\u0d15\u0d4d\u0d15\u0d4b","name:mn":"\u041c\u0435\u043a\u0441\u0438\u043a","name:mi":"Mehiko","id":-114686,"name:mk":"\u041c\u0435\u043a\u0441\u0438\u043a\u043e","name:vo":"M\u00e4xik\u00e4n","name:fa":"\u0645\u06a9\u0632\u06cc\u06a9","name:fi":"Meksiko","name:fo":"Meksiko","alt_name:vi":"M\u00ea-hi-c\u00f4;M\u1ec5 T\u00e2y C\u01a1;M\u1ec5","name:fr":"Mexique","name:fy":"Meksiko","name:nl":"Mexico","name:nn":"Mexico","name:no":"Mexico","name:na":"Meketiko","name:ne":"\u092e\u0947\u0915\u094d\u0938\u093f\u0915\u094b","name:wo":"Meksik","name:nv":"M\u00e9higo","name:ga":"Meicsiceo","name:gd":"Meagsago","name:gn":"M\u00e9jiko","maritime_boundary":true,"name:gv":"Meksico","name:gu":"\u0aae\u0ac7\u0a95\u0acd\u0ab8\u0abf\u0a95\u0acb"},"arcs":[[0],[1],[2]]},{"type":"MultiLineString","properties":{"name:cs":"Ji\u017en\u00ed Doln\u00ed Kalifornie","official_name":"Estado de Baja California Sur","min_zoom":8.0,"name:uk":"\u0411\u0430\u0445\u0430-\u041a\u0430\u043b\u0456\u0444\u043e\u0440\u043d\u0456\u044f-\u0421\u044e\u0440","name:ru":"\u042e\u0436\u043d\u0430\u044f \u041d\u0438\u0436\u043d\u044f\u044f \u041a\u0430\u043b\u0438\u0444\u043e\u0440\u043d\u0438\u044f","name:pl":"Kalifornia Dolna Po\u0142udniowa","id":-2589611,"osm_relation":true,"kind":"region","name:en":"South Lower California","name":"Baja California Sur","sort_rank":256,"kind_detail":"4","name:de":"S\u00fcd-Niederkalifornien","source":"openstreetmap.org","maritime_boundary":true},"arcs":[[3],[4]]},{"type":"LineString","properties":{"name:cs":"Ji\u017en\u00ed Doln\u00ed Kalifornie","official_name":"Estado de Baja California Sur","min_zoom":8.0,"name:uk":"\u0411\u0430\u0445\u0430-\u041a\u0430\u043b\u0456\u0444\u043e\u0440\u043d\u0456\u044f-\u0421\u044e\u0440","name:ru":"\u042e\u0436\u043d\u0430\u044f \u041d\u0438\u0436\u043d\u044f\u044f \u041a\u0430\u043b\u0438\u0444\u043e\u0440\u043d\u0438\u044f","name:pl":"Kalifornia Dolna Po\u0142udniowa","id":-2589611,"osm_relation":true,"kind":"region","name:en":"South Lower California","name":"Baja California Sur","sort_rank":256,"kind_detail":"4","name:de":"S\u00fcd-Niederkalifornien","source":"openstreetmap.org","maritime_boundary":true},"arcs":[5]}]},"roads":{"type":"GeometryCollection","geometries":[{"type":"MultiLineString","properties":{"sort_rank":380,"kind_detail":"primary","min_zoom":8.0,"kind":"major_road","source":"openstreetmap.org"},"arcs":[[14],[15]]},{"type":"LineString","properties":{"kind":"highway","network":"MX:MX","sort_rank":383,"kind_detail":"motorway","source":"openstreetmap.org","min_zoom":8.0,"all_networks":["MX:MX"],"landuse_kind":"urban_area","shield_text":"1","ref":"MEX 1","id":28784855,"all_shield_texts":["1"]},"arcs":[16]},{"type":"MultiLineString","properties":{"kind":"highway","name:en":"Transpeninsular Highway","network":"MX:MX","sort_rank":383,"landuse_kind":"urban_area","source":"openstreetmap.org","min_zoom":8.0,"all_networks":["MX:MX"],"kind_detail":"motorway","shield_text":"1","ref":"MEX 1","all_shield_texts":["1"]},"arcs":[[17],[18]]},{"type":"LineString","properties":{"source":"openstreetmap.org","kind":"ferry","name":"La Paz - Espiritu Santo","sort_rank":355,"landuse_kind":"urban_area","min_zoom":8.0,"id":154141799},"arcs":[19]},{"type":"MultiLineString","properties":{"source":"openstreetmap.org","kind":"ferry","name":"La Paz - Espiritu Santo","sort_rank":355,"landuse_kind":"park","min_zoom":8.0,"id":154144540},"arcs":[[20],[21]]},{"type":"LineString","properties":{"kind":"major_road","network":"MX:MX","sort_rank":380,"kind_detail":"primary","source":"openstreetmap.org","min_zoom":8.0,"landuse_kind":"urban_area","shield_text":"1","ref":"MEX 1","id":28785401},"arcs":[22]},{"type":"MultiLineString","properties":{"kind":"major_road","network":"MX:MX","sort_rank":381,"landuse_kind":"urban_area","source":"openstreetmap.org","min_zoom":8.0,"kind_detail":"trunk","shield_text":"1","ref":"MEX 1"},"arcs":[[23],[24]]},{"type":"MultiLineString","properties":{"source":"openstreetmap.org","kind":"major_road","sort_rank":381,"kind_detail":"trunk","ref":"MEX 1","min_zoom":8.0},"arcs":[[25],[26]]},{"type":"MultiLineString","properties":{"source":"openstreetmap.org","kind":"major_road","sort_rank":380,"kind_detail":"primary","ref":"MEX 19","min_zoom":8.0},"arcs":[[27],[28],[29],[30],[31],[32],[33],[34],[35],[36],[37],[38],[39],[40]]},{"type":"MultiLineString","properties":{"kind":"major_road","network":"MX","sort_rank":380,"kind_detail":"primary","source":"openstreetmap.org","min_zoom":8.0,"landuse_kind":"urban_area","shield_text":"11","ref":"MEX 11"},"arcs":[[41],[42]]},{"type":"MultiLineString","properties":{"source":"openstreetmap.org","kind":"major_road","landuse_kind":"urban_area","sort_rank":380,"kind_detail":"primary","min_zoom":8.0},"arcs":[[43],[44],[45],[46],[47],[48],[49]]},{"type":"LineString","properties":{"source":"openstreetmap.org","kind":"major_road","landuse_kind":"urban_area","sort_rank":381,"kind_detail":"trunk","min_zoom":8.0,"id":361370867},"arcs":[50]},{"type":"LineString","properties":{"source":"openstreetmap.org","kind":"major_road","landuse_kind":"urban_area","sort_rank":380,"kind_detail":"primary","ref":"MEX 11","min_zoom":8.0},"arcs":[51]},{"type":"MultiLineString","properties":{"sort_rank":355,"source":"openstreetmap.org","min_zoom":8.0,"name":"La Paz - Espiritu Santo","kind":"ferry"},"arcs":[[52],[53],[54],[55],[56],[57],[58]]},{"type":"LineString","properties":{"sort_rank":355,"source":"openstreetmap.org","min_zoom":8.0,"name":"La Paz - Topolobampo Ferry","kind":"ferry"},"arcs":[59]},{"type":"MultiLineString","properties":{"source":"openstreetmap.org","kind":"major_road","landuse_kind":"urban_area","sort_rank":380,"kind_detail":"primary","ref":"MEX 1","min_zoom":8.0},"arcs":[[60],[61],[62],[63],[64]]},{"type":"MultiLineString","properties":{"kind":"major_road","network":"MX","sort_rank":380,"kind_detail":"primary","source":"openstreetmap.org","min_zoom":8.0,"shield_text":"11","ref":"MEX 11"},"arcs":[[65],[66],[67]]},{"type":"LineString","properties":{"source":"openstreetmap.org","kind":"major_road","sort_rank":380,"kind_detail":"primary","ref":"MEX 19 Bypass","min_zoom":8.0},"arcs":[68]},{"type":"MultiLineString","properties":{"source":"openstreetmap.org","kind":"major_road","sort_rank":380,"kind_detail":"primary","ref":"MEX _","min_zoom":8.0},"arcs":[[69],[70],[71],[72]]},{"type":"LineString","properties":{"kind":"major_road","name:en":"Transpeninsular Highway","network":"MX:MX","sort_rank":380,"kind_detail":"primary","source":"openstreetmap.org","min_zoom":8.0,"shield_text":"1","ref":"MEX 1"},"arcs":[73]},{"type":"MultiLineString","properties":{"source":"openstreetmap.org","kind":"major_road","landuse_kind":"urban_area","sort_rank":380,"kind_detail":"primary","ref":"MEX 1 Business","min_zoom":8.0},"arcs":[[74],[75]]},{"type":"MultiLineString","properties":{"kind":"major_road","name:en":"Transpeninsular Highway","sort_rank":380,"kind_detail":"primary","source":"openstreetmap.org","min_zoom":8.0,"landuse_kind":"urban_area","ref":"MEX 1"},"arcs":[[76],[77]]},{"type":"MultiLineString","properties":{"kind":"major_road","name:en":"Transpeninsular Highway","sort_rank":381,"landuse_kind":"urban_area","source":"openstreetmap.org","min_zoom":8.0,"kind_detail":"trunk","ref":"MEX 1"},"arcs":[[78],[79]]},{"type":"LineString","properties":{"source":"openstreetmap.org","kind":"ferry","name":"La Paz - Mazatlan Ferry","sort_rank":355,"is_bicycle_related":true,"min_zoom":8.0,"id":24502373},"arcs":[80]},{"type":"MultiLineString","properties":{"source":"openstreetmap.org","kind":"major_road","sort_rank":380,"kind_detail":"primary","ref":"MEX 1","min_zoom":8.0},"arcs":[[81],[82],[83],[84]]},{"type":"LineString","properties":{"kind":"major_road","name:en":"Transpeninsular Highway","network":"MX:MX","sort_rank":380,"kind_detail":"primary","source":"openstreetmap.org","min_zoom":8.0,"landuse_kind":"urban_area","shield_text":"1","ref":"MEX 1"},"arcs":[85]},{"type":"MultiLineString","properties":{"source":"openstreetmap.org","kind":"major_road","kind_detail":"trunk","sort_rank":381,"landuse_kind":"urban_area","ref":"MEX 1","min_zoom":8.0},"arcs":[[86],[87]]},{"type":"LineString","properties":{"cycleway_right":"lane","sort_rank":380,"kind_detail":"primary","is_bicycle_related":true,"kind":"major_road","source":"openstreetmap.org","min_zoom":8.0,"landuse_kind":"urban_area","ref":"MEX 11","id":28531128},"arcs":[88]},{"type":"MultiLineString","properties":{"kind":"highway","name:en":"Transpeninsular Highway","sort_rank":383,"kind_detail":"motorway","source":"openstreetmap.org","min_zoom":8.0,"landuse_kind":"urban_area","ref":"MEX 1"},"arcs":[[89],[90]]}]},"earth":{"type":"GeometryCollection","geometries":[{"type":"MultiPolygon","properties":{"sort_rank":10,"source":"naturalearthdata.com","min_zoom":0.0,"kind":"earth","area":16924863534},"arcs":[[[91]],[[92]],[[93]]]}]},"landuse":{"type":"GeometryCollection","geometries":[{"type":"MultiPolygon","properties":{"source":"naturalearthdata.com","kind":"urban_area","name":"","area":113068773,"sort_rank":11,"min_zoom":4.0},"arcs":[[[94]]]},{"type":"Polygon","properties":{"source":"openstreetmap.org","kind":"park","area":102650000,"tier":2,"id":22656437,"min_zoom":7.0,"sort_rank":24},"arcs":[[95]]}]}},"type":"Topology","transform":{"translate":[-111.09375,23.2413461024],"scale":[0.0003433228,0.0003139133]},"arcs":[[[0,2030],[86,-74],[669,-762],[221,-196],[290,-197],[500,-234],[123,-187],[72,-184],[129,-184],[1,-12]],[[2960,4096],[-25,-24],[-6,24]],[[4096,3716],[-140,242],[-116,138]],[[0,2863],[191,-133],[62,-87],[213,-170],[172,-197],[163,-138],[395,-458],[207,-193],[176,-120],[482,-224],[152,-113],[208,-284],[82,-154],[12,-76],[44,-28],[0,-37],[137,-210],[37,-241]],[[4096,1309],[-30,38],[7,91],[-52,131],[40,207],[-212,242],[-157,119],[-33,66],[5,166],[53,33],[39,82],[-61,60],[-7,68],[-157,-72],[-141,-32],[-159,48],[-70,370],[-236,178],[-100,33],[-81,74],[-67,11],[-54,128],[-124,78],[12,73],[-43,31],[-149,7],[-25,-42],[-63,-13],[-35,-60],[10,-185],[27,-44],[40,20],[20,-53],[-17,-43],[37,-28],[-10,-97],[-4,16],[-59,-35],[-229,-2],[-457,117],[-64,91],[-86,51],[-85,190],[-118,132],[-1,123],[-33,34],[18,181],[-136,204]],[[2096,4096],[-74,-27],[35,-8],[-28,-20],[49,-9],[-38,-31],[31,-27],[-11,-45],[67,22],[-38,-45],[59,5],[-43,-37],[48,-3],[-70,-25],[21,-8],[-14,-16],[28,7],[-10,-47],[21,27],[46,-18],[-23,-49],[29,-4],[-9,-43],[65,7],[52,69],[-5,94],[46,13],[14,41],[-51,50],[3,52],[-46,-4],[-64,79]],[[2738,0],[-2738,0],[0,2857],[32,-23],[125,-85],[68,-61],[19,-44],[66,-45],[98,-84],[64,-51],[108,-122],[33,-32],[7,-41],[33,-6],[52,-36],[105,-101],[182,-222],[308,-335],[204,-167],[156,-73],[348,-159],[147,-89],[136,-126],[86,-169],[32,-31],[93,-167],[15,-60],[40,-42],[18,-49],[70,-123],[22,-31],[32,-29],[19,-92],[20,-162]],[[4096,1322],[-26,29],[6,75],[-30,112],[-19,79],[3,84],[34,74],[-39,29],[-29,59],[-55,52],[-93,112],[-38,15],[-23,20],[-11,9],[-22,19],[-11,16],[-19,11],[-25,14],[-18,28],[-21,61],[-5,43],[7,32],[12,51],[-2,25],[7,12],[17,-1],[40,39],[4,28],[14,11],[4,27],[-22,33],[-31,17],[-11,29],[-5,32],[-3,19],[-21,-10],[-51,-28],[-109,-43],[-119,-26],[-63,27],[-62,3],[-39,24],[-3,62],[-15,143],[-13,15],[5,42],[-18,27],[-13,70],[-32,33],[-39,25],[-43,27],[-37,16],[-11,24],[-31,9],[-11,24],[-20,13],[-9,10],[-39,5],[-49,28],[-25,6],[-29,31],[-29,26],[-78,23],[-11,23],[-21,30],[-1,31],[-24,35],[-23,21],[-33,11],[-24,31],[-33,9],[-16,23],[3,38],[19,11],[-11,24],[-39,23],[-11,-15],[-77,16],[-60,4],[-13,-27],[-22,-19],[-43,-7],[-26,-21],[10,-17],[23,-9],[-10,-15],[-42,0],[9,-17],[-6,-28],[11,-17],[-12,-30],[11,-19],[-13,-20],[8,-60],[19,4],[6,34],[16,-8],[5,-28],[-3,-25],[-9,-12],[19,-12],[24,-12],[-2,-29],[-5,-31],[34,-5],[-16,-128],[-52,-62],[-55,-45],[-12,-12],[-5,-23],[-2,-32],[-3,-25],[-30,-10],[-29,7],[-64,-23],[-70,8],[-18,37],[16,25],[-11,27],[-24,27],[12,48],[-25,25],[4,18],[84,-20],[72,-40],[28,-16],[49,16],[43,19],[31,28],[6,20],[-15,4],[-56,-1],[-153,-4],[-148,23],[-96,23],[-75,18],[-82,27],[-66,27],[-8,23],[-35,18],[-12,47],[-49,22],[-35,21],[-15,49],[-39,50],[-38,78],[9,18],[-44,26],[-5,19],[-77,101],[9,40],[-14,27],[6,28],[-15,24],[-20,31],[14,24],[-11,27],[1,37],[22,28],[-3,32],[-5,37],[-100,124],[-21,35],[0,21],[-4,15],[1020,0],[-9,-10],[-37,-16],[-3,-25],[27,-18],[-13,-25],[9,-49],[12,-27],[22,-18],[25,-13],[5,-17],[20,-4],[4,-17],[-49,-17],[9,-25],[6,-29],[21,21],[24,-4],[18,-18],[-12,-37],[12,-21],[2,-28],[63,-6],[11,53],[16,29],[27,20],[-14,45],[18,31],[41,5],[13,37],[-23,23],[-19,38],[-8,46],[-29,4],[-29,36],[-47,36],[1904,0],[0,-2774]],[[3399,3605],[-19,4],[-3,-47],[-9,-109],[61,-129],[-14,-29],[-7,-29],[31,-98],[37,-117],[45,-71],[38,-55],[-6,-25],[33,-15],[92,-11],[47,-10],[35,-11],[13,58],[-25,52],[-5,34],[-41,87],[-38,48],[-20,18],[-45,92],[-36,42],[-34,70],[-29,70],[-22,30],[-18,29],[-34,44],[-5,43],[-22,35]],[[0,2857],[32,-23],[125,-85],[68,-61],[19,-44],[66,-45],[98,-84],[64,-51],[108,-122],[33,-32],[7,-41],[33,-6],[52,-36],[105,-101],[182,-222],[308,-335],[204,-167],[156,-73],[348,-159],[147,-89],[136,-126],[86,-169],[32,-31],[93,-167],[15,-60],[40,-42],[18,-49],[70,-123],[22,-31],[32,-29],[19,-92],[20,-162]],[[4096,1322],[-26,29],[6,75],[-30,112],[-19,79],[3,84],[34,74],[-39,29],[-29,59],[-55,52],[-93,112],[-38,15],[-23,20],[-11,9],[-22,19],[-11,16],[-19,11],[-25,14],[-18,28],[-21,61],[-5,43],[7,32],[12,51],[-2,25],[7,12],[17,-1],[40,39],[4,28],[14,11],[4,27],[-22,33],[-31,17],[-11,29],[-5,32],[-3,19],[-21,-10],[-51,-28],[-109,-43],[-119,-26],[-63,27],[-62,3],[-39,24],[-3,62],[-15,143],[-13,15],[5,42],[-18,27],[-13,70],[-32,33],[-39,25],[-43,27],[-37,16],[-11,24],[-31,9],[-11,24],[-20,13],[-9,10],[-39,5],[-49,28],[-25,6],[-29,31],[-29,26],[-78,23],[-11,23],[-21,30],[-1,31],[-24,35],[-23,21],[-33,11],[-24,31],[-33,9],[-16,23],[3,38],[19,11],[-11,24],[-39,23],[-11,-15],[-77,16],[-60,4],[-13,-27],[-22,-19],[-43,-7],[-26,-21],[10,-17],[23,-9],[-10,-15],[-42,0],[9,-17],[-6,-28],[11,-17],[-12,-30],[11,-19],[-13,-20],[8,-60],[19,4],[6,34],[16,-8],[5,-28],[-3,-25],[-9,-12],[19,-12],[24,-12],[-2,-29],[-5,-31],[34,-5],[-16,-128],[-52,-62],[-55,-45],[-12,-12],[-5,-23],[-2,-32],[-3,-25],[-30,-10],[-29,7],[-64,-23],[-70,8],[-18,37],[16,25],[-11,27],[-24,27],[12,48],[-25,25],[4,18],[84,-20],[72,-40],[28,-16],[49,16],[43,19],[31,28],[6,20],[-15,4],[-56,-1],[-153,-4],[-148,23],[-96,23],[-75,18],[-82,27],[-66,27],[-8,23],[-35,18],[-12,47],[-49,22],[-35,21],[-15,49],[-39,50],[-38,78],[9,18],[-44,26],[-5,19],[-77,101],[9,40],[-14,27],[6,28],[-15,24],[-20,31],[14,24],[-11,27],[1,37],[22,28],[-3,32],[-5,37],[-100,124],[-21,35],[0,21],[-4,15]],[[2239,4060],[-47,36]],[[2079,4096],[-9,-10],[-37,-16],[-3,-25],[27,-18],[-13,-25],[9,-49],[12,-27],[22,-18],[25,-13],[5,-17],[20,-4],[4,-17],[-49,-17],[9,-25],[6,-29],[21,21],[24,-4],[18,-18],[-12,-37],[12,-21],[2,-28],[63,-6],[11,53],[16,29],[27,20],[-14,45],[18,31],[41,5],[13,37],[-23,23],[-19,38],[-8,46],[-29,4],[-29,36]],[[3664,3132],[-20,18],[-45,92],[-36,42],[-34,70],[-29,70],[-22,30],[-18,29],[-34,44],[-5,43],[-22,35],[-19,4],[-3,-47],[-9,-109],[61,-129],[-14,-29],[-7,-29],[31,-98],[37,-117],[45,-71],[38,-55],[-6,-25],[33,-15],[92,-11],[47,-10],[35,-11],[13,58],[-25,52],[-5,34],[-41,87],[-38,48]],[[2602,784],[-8,-13]],[[2604,803],[3,-1]],[[2169,2779],[17,6]],[[2115,2752],[18,8],[36,19]],[[2169,2779],[-54,-27]],[[2257,2928],[-4,11]],[[2164,3748],[-2,-13]],[[2302,4017]],[[2280,2760],[-83,37]],[[2186,2785],[12,12]],[[2197,2797],[-7,-7]],[[2284,2731],[25,-168]],[[2310,2563],[-26,168]],[[2448,2040],[90,-687],[-23,-168]],[[2515,1185],[-2,-19]],[[2513,1166],[0,-1],[68,-144],[48,-30],[-62,-236]],[[2567,755],[62,237],[-48,29],[-68,145]],[[2513,1166],[2,19]],[[2515,1185],[23,167],[-88,695]],[[2564,752],[-34,-89]],[[2530,663],[11,-22]],[[2541,641],[33,-67]],[[2585,554],[8,98],[-26,103]],[[2574,574],[3,-7]],[[2579,564],[-5,10]],[[2585,551],[127,-199],[5,-116],[31,-122],[9,-114]],[[2757,0],[-8,113],[-32,123],[-1,33],[-4,83],[-72,120],[-54,78]],[[2315,3100],[-6,4]],[[2294,2968],[29,117]],[[2279,2772],[-23,-7],[-48,42]],[[2276,2868],[46,-35]],[[2322,2834],[-46,34]],[[2309,3003],[-2,0]],[[2308,3005],[1,0]],[[2317,3066],[-2,0]],[[2316,3063],[1,0]],[[2276,2868],[0,5]],[[2235,2899],[29,39]],[[2016,4096],[12,-57],[30,-12],[-20,-31],[65,-220],[67,5],[-6,-33]],[[2162,3735],[105,-241],[28,272],[-14,79],[61,24],[6,50],[-46,98]],[[2191,3421],[44,-423]],[[2302,4017],[-102,79]],[[2253,2939],[-18,59]],[[2235,2998],[-102,-22],[58,445]],[[2191,3421],[35,24],[-2,34],[44,11]],[[2742,4096],[-558,-642],[-20,-113],[44,-118],[26,6],[-1,64]],[[2184,2797],[13,0]],[[2206,2859],[29,40]],[[2235,2899],[39,-29]],[[2235,2899]],[[2235,2899],[38,-29]],[[2309,3104],[-32,15],[10,128],[-56,55],[-18,-35]],[[2326,3095],[-11,5]],[[2326,3095],[-3,-10]],[[2586,550],[-1,1]],[[3833,408],[-1,7]],[[3833,408],[13,-3]],[[3906,411],[-60,-6]],[[3907,411],[-1,0]],[[0,3630],[4,-4],[206,-51],[24,-45],[42,-9],[122,-250],[34,-275],[60,-34],[13,-43],[225,-7],[76,-50],[121,6],[178,-168],[205,24],[187,-143],[308,223],[118,-8],[84,-72],[22,5]],[[2273,2870],[3,-2]],[[2276,2868],[-2,2]],[[2115,2752],[-8,-3]],[[2187,2834],[19,25],[-19,-25]],[[2187,2834],[-4,-43]],[[2184,2791],[3,43]],[[2227,3300],[7,-63],[-19,-12],[-38,101],[9,98],[68,90],[207,93],[349,76],[383,13],[276,-18],[627,-243]],[[2309,2563],[63,-313],[50,-83],[15,-100],[24,-23]],[[2461,2044],[-24,23],[-14,98],[-51,85],[-62,313]],[[4096,1283],[-28,20],[-9,89],[-87,25],[-200,157],[-70,24],[-157,-9],[-97,54],[-95,19],[-202,0],[-89,167],[-40,-20],[-61,27],[-46,-14],[-121,-104],[-291,312],[-42,14]],[[3935,0],[-51,85],[-21,206],[56,212],[151,178],[26,192]],[[2029,2729],[86,23]],[[2276,2868],[3,-108],[5,-29]],[[2284,2731],[-8,137]],[[2264,2938],[30,30]],[[2183,2791],[-14,-12]],[[2169,2779],[15,12]],[[3773,2911],[-13,-58],[-35,11],[-47,10],[-92,11],[-33,15],[6,25],[-38,55],[-45,71],[-37,117],[-31,98],[7,29],[14,29],[-61,129],[9,109],[3,47],[19,-4],[22,-35],[5,-43],[34,-44],[18,-29],[22,-30],[29,-70],[34,-70],[36,-42],[45,-92],[20,-18],[38,-48],[41,-87],[5,-34],[25,-52]],[[4096,1322],[0,-1322],[-1358,0],[-20,162],[-19,92],[-32,29],[-22,31],[-70,123],[-18,49],[-40,42],[-15,60],[-93,167],[-32,31],[-86,169],[-136,126],[-147,89],[-348,159],[-156,73],[-204,167],[-308,335],[-182,222],[-105,101],[-52,36],[-33,6],[-7,41],[-33,32],[-108,122],[-64,51],[-98,84],[-66,45],[-19,44],[-68,61],[-125,85],[-32,23],[0,1239],[1059,0],[4,-15],[0,-21],[21,-35],[100,-124],[5,-37],[3,-32],[-22,-28],[-1,-37],[11,-27],[-14,-24],[20,-31],[15,-24],[-6,-28],[14,-27],[-9,-40],[77,-101],[5,-19],[44,-26],[-9,-18],[38,-78],[39,-50],[15,-49],[35,-21],[49,-22],[12,-47],[35,-18],[8,-23],[66,-27],[82,-27],[75,-18],[96,-23],[148,-23],[153,4],[56,1],[15,-4],[-6,-20],[-31,-28],[-43,-19],[-49,-16],[-28,16],[-72,40],[-84,20],[-4,-18],[25,-25],[-12,-48],[24,-27],[11,-27],[-16,-25],[18,-37],[70,-8],[64,23],[29,-7],[30,10],[3,25],[2,32],[5,23],[12,12],[55,45],[52,62],[16,128],[-34,5],[5,31],[2,29],[-24,12],[-19,12],[9,12],[3,25],[-5,28],[-16,8],[-6,-34],[-19,-4],[-8,60],[13,20],[-11,19],[12,30],[-11,17],[6,28],[-9,17],[42,0],[10,15],[-23,9],[-10,17],[26,21],[43,7],[22,19],[13,27],[60,-4],[77,-16],[11,15],[39,-23],[11,-24],[-19,-11],[-3,-38],[16,-23],[33,-9],[24,-31],[33,-11],[23,-21],[24,-35],[1,-31],[21,-30],[11,-23],[78,-23],[29,-26],[29,-31],[25,-6],[49,-28],[39,-5],[9,-10],[20,-13],[11,-24],[31,-9],[11,-24],[37,-16],[43,-27],[39,-25],[32,-33],[13,-70],[18,-27],[-5,-42],[13,-15],[15,-143],[3,-62],[39,-24],[62,-3],[63,-27],[119,26],[109,43],[51,28],[21,10],[3,-19],[5,-32],[11,-29],[31,-17],[22,-33],[-4,-27],[-14,-11],[-4,-28],[-40,-39],[-17,1],[-7,-12],[2,-25],[-12,-51],[-7,-32],[5,-43],[21,-61],[18,-28],[25,-14],[19,-11],[11,-16],[22,-19],[11,-9],[23,-20],[38,-15],[93,-112],[55,-52],[29,-59],[39,-29],[-34,-74],[-3,-84],[19,-79],[30,-112],[-6,-75],[26,-29]],[[2192,4096],[47,-36],[29,-36],[29,-4],[8,-46],[19,-38],[23,-23],[-13,-37],[-41,-5],[-18,-31],[14,-45],[-27,-20],[-16,-29],[-11,-53],[-63,6],[-2,28],[-12,21],[12,37],[-18,18],[-24,4],[-21,-21],[-6,29],[-9,25],[49,17],[-4,17],[-20,4],[-5,17],[-25,13],[-22,18],[-12,27],[-9,49],[13,25],[-27,18],[3,25],[37,16],[9,10],[113,0]],[[2352,2782],[-50,-47],[-196,-44],[-59,17],[-41,50],[159,23],[10,80],[119,119],[16,131],[28,-53],[-12,-135],[50,-45],[-24,-96]],[[2022,4070],[166,26],[65,-81],[49,2],[-7,-48],[50,-55],[-12,-37],[-54,-30],[11,-78],[-56,-71],[-63,-3],[-1,36],[29,4],[-45,1],[30,36],[-14,23],[-36,14],[-27,-32],[-3,58],[-20,12],[71,22],[-50,8],[44,33],[-60,-4],[39,45],[-67,-23],[8,50],[-28,21],[31,30],[-42,11],[28,20],[-36,10]]]}