{"objects":{"water":{"type":"GeometryCollection","geometries":[{"type":"Polygon","properties":{"source":"naturalearthdata.com","kind":"ocean","area":1444195503964160,"sort_rank":200,"min_zoom":0.0,"id":1},"arcs":[[0],[1],[2]]},{"type":"LineString","properties":{"source":"naturalearthdata.com","kind":"ocean","sort_rank":205,"boundary":true,"min_zoom":0.0,"id":382},"arcs":[3]},{"type":"LineString","properties":{"source":"naturalearthdata.com","kind":"ocean","sort_rank":205,"boundary":true,"min_zoom":0.0,"id":391},"arcs":[4]},{"type":"MultiLineString","properties":{"source":"naturalearthdata.com","kind":"ocean","sort_rank":205,"boundary":true,"min_zoom":0.0,"id":806},"arcs":[[5],[6]]},{"type":"LineString","properties":{"source":"naturalearthdata.com","kind":"ocean","sort_rank":205,"boundary":true,"min_zoom":0.0,"id":807},"arcs":[7]},{"type":"LineString","properties":{"source":"naturalearthdata.com","kind":"ocean","sort_rank":205,"boundary":true,"min_zoom":0.0,"id":808},"arcs":[8]}]},"buildings":{"type":"GeometryCollection","geometries":[]},"places":{"type":"GeometryCollection","geometries":[{"type":"Point","properties":{"name:pt":"Quiribati","name:ka":"\u10d9\u10d8\u10e0\u10d8\u10d1\u10d0\u10e2\u10d8","name:mr":"\u0915\u093f\u0930\u0940\u092c\u093e\u091f\u0940","name:ko":"\ud0a4\ub9ac\ubc14\uc2dc","name:kn":"\u0c95\u0cbf\u0cb0\u0cbf\u0cac\u0cbe\u0ca4\u0cbf","name:km":"\u1782\u17b7\u179a\u17b7\u1794\u17b6\u1791\u17b8","name:ar":"\u0643\u064a\u0631\u064a\u0628\u0627\u0633","name:tt":"\u041a\u0438\u0440\u0438\u0431\u0430\u0442\u0438","name:th":"\u0e1b\u0e23\u0e30\u0e40\u0e17\u0e28\u0e04\u0e34\u0e23\u0e34\u0e1a\u0e32\u0e2a","name:ti":"\u12aa\u122a\u1263\u1272","name:ks":"\u06a9\u0650\u0631\u0655\u0628\u0627\u062a\u06cc","name:to":"Kilipasi","name:ru":"\u041a\u0438\u0440\u0438\u0431\u0430\u0442\u0438","name:ml":"\u0d15\u0d3f\u0d30\u0d3f\u0d2c\u0d3e\u0d24\u0d4d\u0d24\u0d3f","name:mn":"\u041a\u0438\u0440\u0438\u0431\u0430\u0442\u0438","id":432425015,"name:mk":"\u041a\u0438\u0440\u0438\u0431\u0430\u0442\u0438","name:te":"\u0c15\u0c3f\u0c30\u0c3f\u0c2c\u0c3e\u0c1f\u0c3f","name:zu":"i-Kiribati","name:ta":"\u0b95\u0bbf\u0bb0\u0bbf\u0baa\u0b9f\u0bbf","name:si":"\u0d9a\u0dd2\u0dbb\u0dd2\u0db6\u0dad\u0dd2","name:ff":"Kiribari","kind":"country","name:sr":"\u041a\u0438\u0440\u0438\u0431\u0430\u0442\u0438","name:dz":"\u0f40\u0f72\u0f0b\u0f62\u0f72\u0f0b\u0f56\u0f0b\u0f4f\u0f72\u0f0b\u0f58\u0f5a\u0f7c\u0f0b\u0f42\u0fb3\u0f72\u0f44","source":"openstreetmap.org","name:ne":"\u0915\u093f\u0930\u093f\u092c\u093e\u091f\u0940","name:fy":"Kiribaty","name:vo":"Kiribatu\u00e4ns","name:zh":"\u57fa\u91cc\u5df4\u65af","name:gu":"\u0a95\u0abf\u0ab0\u0abf\u0aac\u0abe\u0a9f\u0ac0","name:ja":"\u30ad\u30ea\u30d0\u30b9","name:lt":"Kiribatis","name:hi":"\u0915\u093f\u0930\u093f\u092c\u093e\u0924\u0940","name:he":"\u05e7\u05d9\u05e8\u05d9\u05d1\u05d8\u05d9","name:ga":"Cireabait\u00ed","name:ur":"\u06a9\u0631\u06cc\u0628\u0627\u062a\u06cc","name:bn":"\u0995\u09bf\u09b0\u09bf\u09ac\u09be\u09a4\u09bf","name:bo":"\u0f40\u0f72\u0f0b\u0f62\u0f72\u0f0b\u0f56\u0f71\u0f0b\u0f4f\u0f72\u0f0d","official_name":"Republic of Kiribati","name:uk":"\u041a\u0456\u0440\u0438\u0431\u0430\u0442\u0456","name:hy":"\u053f\u056b\u0580\u056b\u0562\u0561\u057f\u056b","name:be":"\u041a\u0456\u0440\u044b\u0431\u0430\u0446\u0456","min_zoom":2.0,"name:li":"Kiribati-eilen","name:or":"\u0b15\u0b3f\u0b30\u0b3f\u0b2c\u0b3e\u0b1f\u0b40","name:lo":"\u0e84\u0eb4\u0ea5\u0eb4\u0e9a\u0eb2\u0e95\u0eb4","name:sq":"Qiribati","population":103000,"name:el":"\u039a\u03b9\u03c1\u03b9\u03bc\u03c0\u03ac\u03c4\u03b9","name:eo":"Kiribato","name":"Kiribati","name:is":"K\u00edribat\u00ed","name:gd":"Ciribeas","name:ee":"Kiribati nutome","name:ku":"Kir\u00eebat\u00ee","name:fa":"\u06a9\u06cc\u0631\u06cc\u0628\u0627\u062a\u06cc","name:gv":"Yn Chiribati","name:bg":"\u041a\u0438\u0440\u0438\u0431\u0430\u0442\u0438","name:am":"\u12aa\u122a\u1263\u1272","name:yo":"Or\u00edl\u1eb9\u0301\u00e8de Kiribati"},"coordinates":[1517,84]},{"type":"Point","properties":{"name:pt":"Hava\u00ed","name:short":"HI","name:sk":"Havaj","name:lt":"Havajai","name:hi":"\u0939\u0935\u093e\u0908","name:ko":"\ud558\uc640\uc774 \uc8fc","name:he":"\u05d4\u05d5\u05d5\u05d0\u05d9","name:cs":"Havaj","kind":"region","name:io":"Havayi","min_zoom":4.0,"name:sl":"Havaji","name:uk":"\u0413\u0430\u0432\u0430\u0457","name:be":"\u0413\u0430\u0432\u0430\u0456","name:ru":"\u0413\u0430\u0432\u0430\u0439\u0438","name:pl":"Hawaje","name:ta":"\u0bb9\u0bb5\u0bbe\u0baf\u0bcd","id":316949921,"population":1419561,"name:eo":"Havajo","name":"Hawaii","alt_name:vi":"H\u1ea1 Uy Di","kind_detail":"state","name:nl":"Hawa\u00ef","source":"openstreetmap.org","name:fr":"Hawa\u00ef","name:fy":"Hawa\u00ef","name:zh":"\u590f\u5a01\u5937\u5dde","name:es":"Haw\u00e1i"},"coordinates":[4009,3960]},{"type":"Point","properties":{"source":"naturalearthdata.com","kind":"locality","name":"Honolulu","population":786000,"region_capital":true,"min_zoom":4.0,"id":7108},"coordinates":[4030,3978]}]},"transit":{"type":"GeometryCollection","geometries":[]},"pois":{"type":"GeometryCollection","geometries":[]},"boundaries":{"type":"GeometryCollection","geometries":[]},"roads":{"type":"GeometryCollection","geometries":[]},"earth":{"type":"GeometryCollection","geometries":[{"type":"MultiPolygon","properties":{"sort_rank":10,"source":"naturalearthdata.com","min_zoom":0.0,"kind":"earth","area":19061656469},"arcs":[[[9]],[[10]],[[11]],[[12]],[[13]]]}]},"landuse":{"type":"GeometryCollection","geometries":[{"type":"Polygon","properties":{"source":"naturalearthdata.com","kind":"urban_area","name":"","area":179809808,"sort_rank":11,"min_zoom":4.0,"id":297},"arcs":[[14]]}]}},"type":"Topology","transform":{"translate":[-180.0,-0.0],"scale":[0.0054931641,0.0053571889]},"arcs":[[[0,0],[0,187],[0,186],[0,187],[0,187],[0,186],[0,187],[0,187],[0,186],[0,187],[0,187],[0,186],[0,187],[0,187],[0,186],[0,187],[0,187],[0,186],[0,187],[0,187],[0,186],[0,187],[0,176],[3611,0],[-10,-9],[-4,-10],[1,-7],[6,-1],[4,8],[5,7],[13,5],[1,7],[80,0],[5,-6],[18,-2],[9,-4],[16,10],[1,2],[340,0],[0,-3745],[-1,1],[-5,8],[-8,-5],[14,-11],[0,-344],[-4096,0]],[[3776,717],[-15,15],[-5,-1],[-4,-3],[-4,-5],[6,-5],[1,6],[3,0],[5,-3],[4,-5],[-1,-2],[-8,-2],[4,-3],[11,0],[3,8]],[[4059,3991],[-3,14],[-8,-1],[-6,1],[-6,3],[-5,8],[1,7],[-20,28],[-11,-2],[-18,-17],[-28,-3],[7,-10],[-1,-8],[19,-21],[5,-11],[6,-1],[17,1],[-6,10],[7,2],[2,-3],[2,-7],[10,3],[9,-10],[10,-4],[19,2],[10,5],[-3,5],[-9,9]],[[4096,351],[-1,1],[-5,8],[-8,-5],[14,-11]],[[3748,723],[6,-5],[1,6],[3,0],[5,-3],[4,-5],[-1,-2],[-8,-2],[4,-3],[11,0],[3,8],[-15,15],[-5,-1],[-4,-3],[-4,-5]],[[3601,4087],[-4,-10],[1,-7],[6,-1],[4,8],[5,7],[13,5],[1,7]],[[3611,4096],[-10,-9]],[[4036,4008],[-5,8],[1,7],[-20,28],[-11,-2],[-18,-17],[-28,-3],[7,-10],[-1,-8],[19,-21],[5,-11],[6,-1],[17,1],[-6,10],[7,2],[2,-3],[2,-7],[10,3],[9,-10],[10,-4],[19,2],[10,5],[-3,5],[-9,9],[-3,14],[-8,-1],[-6,1],[-6,3]],[[3707,4096],[5,-6],[18,-2],[9,-4],[16,10],[1,2]],[[4096,351],[0,-7],[-14,11],[8,5],[5,-8],[1,-1]],[[3761,732],[15,-15],[-3,-8],[-11,0],[-4,3],[8,2],[1,2],[-4,5],[-5,3],[-3,0],[-1,-6],[-6,5],[4,5],[4,3],[5,1]],[[4042,4005],[6,-1],[8,1],[3,-14],[9,-9],[3,-5],[-10,-5],[-19,-2],[-10,4],[-9,10],[-10,-3],[-2,7],[-2,3],[-7,-2],[6,-10],[-17,-1],[-6,1],[-5,11],[-19,21],[1,8],[-7,10],[28,3],[18,17],[11,2],[20,-28],[-1,-7],[5,-8],[6,-3]],[[3611,4096],[16,0],[-1,-7],[-13,-5],[-5,-7],[-4,-8],[-6,1],[-1,7],[4,10],[10,9]],[[3707,4096],[49,0],[-1,-2],[-16,-10],[-9,4],[-18,2],[-5,6]],[[4057,3974],[-44,7],[-5,13],[10,3],[39,-23]]]}