{"objects":{"water":{"type":"GeometryCollection","geometries":[{"type":"Polygon","properties":{"source":"naturalearthdata.com","kind":"ocean","area":1444195503964160,"sort_rank":200,"min_zoom":0.0,"id":1},"arcs":[[0],[1],[2],[3],[4],[5],[6],[7],[8],[9],[10],[11],[12],[13],[14],[15],[16],[17]]},{"type":"LineString","properties":{"source":"naturalearthdata.com","kind":"ocean","sort_rank":205,"boundary":true,"min_zoom":0.0,"id":149},"arcs":[18]},{"type":"LineString","properties":{"source":"naturalearthdata.com","kind":"ocean","sort_rank":205,"boundary":true,"min_zoom":0.0,"id":150},"arcs":[19]},{"type":"LineString","properties":{"source":"naturalearthdata.com","kind":"ocean","sort_rank":205,"boundary":true,"min_zoom":0.0,"id":151},"arcs":[20]},{"type":"LineString","properties":{"source":"naturalearthdata.com","kind":"ocean","sort_rank":205,"boundary":true,"min_zoom":0.0,"id":185},"arcs":[21]},{"type":"LineString","properties":{"source":"naturalearthdata.com","kind":"ocean","sort_rank":205,"boundary":true,"min_zoom":0.0,"id":297},"arcs":[22]},{"type":"LineString","properties":{"source":"naturalearthdata.com","kind":"ocean","sort_rank":205,"boundary":true,"min_zoom":0.0,"id":298},"arcs":[23]},{"type":"LineString","properties":{"source":"naturalearthdata.com","kind":"ocean","sort_rank":205,"boundary":true,"min_zoom":0.0,"id":380},"arcs":[24]},{"type":"LineString","properties":{"source":"naturalearthdata.com","kind":"ocean","sort_rank":205,"boundary":true,"min_zoom":0.0,"id":389},"arcs":[25]},{"type":"LineString","properties":{"source":"naturalearthdata.com","kind":"ocean","sort_rank":205,"boundary":true,"min_zoom":0.0,"id":390},"arcs":[26]},{"type":"LineString","properties":{"source":"naturalearthdata.com","kind":"ocean","sort_rank":205,"boundary":true,"min_zoom":0.0,"id":392},"arcs":[27]},{"type":"LineString","properties":{"source":"naturalearthdata.com","kind":"ocean","sort_rank":205,"boundary":true,"min_zoom":0.0,"id":393},"arcs":[28]},{"type":"LineString","properties":{"source":"naturalearthdata.com","kind":"ocean","sort_rank":205,"boundary":true,"min_zoom":0.0,"id":394},"arcs":[29]},{"type":"LineString","properties":{"source":"naturalearthdata.com","kind":"ocean","sort_rank":205,"boundary":true,"min_zoom":0.0,"id":395},"arcs":[30]},{"type":"LineString","properties":{"source":"naturalearthdata.com","kind":"ocean","sort_rank":205,"boundary":true,"min_zoom":0.0,"id":396},"arcs":[31]},{"type":"LineString","properties":{"source":"naturalearthdata.com","kind":"ocean","sort_rank":205,"boundary":true,"min_zoom":0.0,"id":1353},"arcs":[32]},{"type":"LineString","properties":{"source":"naturalearthdata.com","kind":"ocean","sort_rank":205,"boundary":true,"min_zoom":0.0,"id":1368},"arcs":[33]},{"type":"LineString","properties":{"source":"naturalearthdata.com","kind":"ocean","sort_rank":205,"boundary":true,"min_zoom":0.0,"id":1392},"arcs":[34]},{"type":"LineString","properties":{"source":"naturalearthdata.com","kind":"ocean","sort_rank":205,"boundary":true,"min_zoom":0.0,"id":1393},"arcs":[35]},{"type":"LineString","properties":{"source":"naturalearthdata.com","kind":"ocean","sort_rank":205,"boundary":true,"min_zoom":0.0,"id":1394},"arcs":[36]},{"type":"LineString","properties":{"source":"naturalearthdata.com","kind":"ocean","sort_rank":205,"boundary":true,"min_zoom":0.0,"id":1395},"arcs":[37]},{"type":"LineString","properties":{"source":"naturalearthdata.com","kind":"ocean","sort_rank":205,"boundary":true,"min_zoom":0.0,"id":1396},"arcs":[38]},{"type":"LineString","properties":{"source":"naturalearthdata.com","kind":"ocean","sort_rank":205,"boundary":true,"min_zoom":0.0,"id":1397},"arcs":[39]},{"type":"LineString","properties":{"source":"naturalearthdata.com","kind":"ocean","sort_rank":205,"boundary":true,"min_zoom":0.0,"id":1398},"arcs":[40]},{"type":"LineString","properties":{"source":"naturalearthdata.com","kind":"ocean","sort_rank":205,"boundary":true,"min_zoom":0.0,"id":1399},"arcs":[41]},{"type":"LineString","properties":{"source":"naturalearthdata.com","kind":"ocean","sort_rank":205,"boundary":true,"min_zoom":0.0,"id":1403},"arcs":[42]},{"type":"LineString","properties":{"source":"naturalearthdata.com","kind":"ocean","sort_rank":205,"boundary":true,"min_zoom":0.0,"id":1404},"arcs":[43]},{"type":"LineString","properties":{"source":"naturalearthdata.com","kind":"ocean","sort_rank":205,"boundary":true,"min_zoom":0.0,"id":1405},"arcs":[44]}]},"buildings":{"type":"GeometryCollection","geometries":[]},"places":{"type":"GeometryCollection","geometries":[{"type":"Point","properties":{"name:ka":"\u10e1\u10d0\u10db\u10dd\u10d0","name:ko":"\uc0ac\ubaa8\uc544","name:kn":"\u0cb8\u0cae\u0ccb\u0cb5\u0cbe","name:km":"\u179f\u17b6\u1798\u17bc\u17a2\u17b6","min_zoom":2.0,"name:ti":"\u1233\u121e\u12a0","name:ks":"\u0633\u06cc\u0645\u0648\u0648\u0627","name:to":"Ha\u02bbamoa","name:be":"\u0421\u0430\u043c\u043e\u0430","name:or":"\u0b38\u0b3e\u0b2e\u0b4b\u0b06","name:pl":"Samoa","name:ta":"\u0b9a\u0bae\u0bcb\u0bb5\u0bbe","name:ca":"Samoa","name:te":"\u0c38\u0c2e\u0c4b\u0c35\u0c3e","name:bg":"\u0421\u0430\u043c\u043e\u0430","name:da":"Samoa","name:de":"Samoa","name:dz":"\u0f66\u0f0b\u0f58\u0f7c\u0f0b\u0f68","source":"openstreetmap.org","name:yo":"Or\u00edl\u1eb9\u0301\u00e8de Sam\u1ecd","name:lv":"Samoa","name:hi":"\u0938\u092e\u094b\u0906","name:he":"\u05e1\u05de\u05d5\u05d0\u05d4","kind":"country","name:ur":"\u0633\u0627\u0645\u0648\u0622","old_name:eo":"Okcidenta Samoo","name:io":"Samoa","name:uk":"\u0421\u0430\u043c\u043e\u0430","name:hy":"\u054d\u0561\u0574\u0578\u0561","name:hu":"Szamoa","name:lo":"\u0e8a\u0eb2\u0ea1\u0ebb\u0ea7","population":193000,"name:el":"\u03a3\u03b1\u03bc\u03cc\u03b1","name:eo":"Samoo","name":"S\u0101moa","name:ee":"Samoa nutome","name:ku":"Samoa","name:th":"\u0e1b\u0e23\u0e30\u0e40\u0e17\u0e28\u0e0b\u0e32\u0e21\u0e31\u0e27","name:es":"Samoa","name:ia":"Samoa","name:rn":"Samowa","name:mr":"\u0938\u093e\u092e\u094b\u0906","name:ar":"\u0633\u0627\u0645\u0648\u0627","official_name":"Malo Sa'oloto Tuto'atasi o S\u0101moa","name:is":"Sam\u00f3a","name:am":"\u1233\u121e\u12a0","name:it":"Samoa","name:ru":"\u0421\u0430\u043c\u043e\u0430","name:ml":"\u0d38\u0d3e\u0d2e\u0d4b\u0d35","name:mn":"\u0421\u0430\u043c\u043e\u0430","name:mi":"H\u0101moa","id":1529444079,"name:mk":"\u0421\u0430\u043c\u043e\u0430","name:vo":"Samovu\u00e4ns","name:zu":"i-Samoa","name:ff":"Samowaa","name:fi":"Samoa","name:fo":"S\u00e1moa","name:fr":"Samoa","name:zh":"\u8428\u6469\u4e9a","name:sk":"Samoa","name:ja":"\u30b5\u30e2\u30a2","name:si":"\u0dc3\u0dd0\u0db8\u0ddd\u0dc0\u0dcf","name:no":"Samoa","name:sg":"Samo\u00e4a","name:ne":"\u0938\u093e\u092e\u094b\u0906","name:br":"Samoa","name:bm":"Samowa","name:bn":"\u09b8\u09be\u09ae\u09cb\u09af\u09bc\u09be","name:bo":"\u0f53\u0f74\u0f0b\u0f56\u0f0b\u0f66\u0f0b\u0f58\u0f7c\u0f0b\u0f60\u0f0d","name:sv":"Samoa","name:ha":"Samowa","name:sr":"\u0421\u0430\u043c\u043e\u0430","name:ga":"Sam\u00f3","name:gd":"Samotha","name:fa":"\u0633\u0627\u0645\u0648\u0622","name:gv":"Samoa","name:gu":"\u0ab8\u0aae\u0acb\u0a86","name:lg":"Samowa"},"coordinates":[1435,1526]},{"type":"Point","properties":{"name:ty":"To\u2019a","name:ka":"\u10e2\u10dd\u10dc\u10d2\u10d0","name:ko":"\ud1b5\uac00","name:kn":"\u0c9f\u0cca\u0c82\u0c97","name:cu":"\u0422\u043e\u043d\u0433\u0430","name:kk":"\u0422\u043e\u043d\u0433\u0430","name:th":"\u0e1b\u0e23\u0e30\u0e40\u0e17\u0e28\u0e15\u0e2d\u0e07\u0e01\u0e32","name:ti":"\u1276\u1295\u130b","name:ks":"\u0679\u0648\u0646\u065b\u06af\u0627","name:pa":"\u0a1f\u0a4b\u0a02\u0a17\u0a3e","name:os":"\u0422\u043e\u043d\u0433\u00e6","name:or":"\u0b1f\u0b4b\u0b19\u0b4d\u0b17\u0b3e","name:ce":"\u0422\u043e\u043d\u0433\u0430","name:ta":"\u0b9f\u0bcb\u0b99\u0bcd\u0b95\u0bbe","name:tg":"\u0422\u043e\u043d\u0433\u0430","name:te":"\u0c1f\u0c4b\u0c02\u0c17\u0c3e","name:bg":"\u0422\u043e\u043d\u0433\u0430","name:ba":"\u0422\u043e\u043d\u0433\u0430","name:dz":"\u0f4a\u0f7c\u0f44\u0f0b\u0f42\u0fb7","source":"openstreetmap.org","name:dv":"\u0793\u07ae\u0782\u07b0\u078e\u07a7","name:km":"\u178f\u17bb\u1784\u17a0\u17d2\u1782\u17b6","name:hi":"\u091f\u094b\u0902\u0917\u093e","name:he":"\u05d8\u05d5\u05e0\u05d2\u05d4","kind":"country","name:ha":"Tanga","name:uk":"\u0422\u043e\u043d\u0491\u0430","name:hy":"\u054f\u0578\u0576\u0563\u0561","name:ug":"Ton\u2019ga","name:qu":"Tunqa","name:lo":"\u0e95\u0ead\u0e87\u0e81\u0eb2","name:oc":"T\u00f2nga","population":104000,"name:el":"\u03a4\u03cc\u03bd\u03b3\u03ba\u03b1","name:eo":"Tongo","name":"Tonga","name:ee":"Tonga nutome","min_zoom":2.0,"name:yo":"Or\u00edl\u1eb9\u0301\u00e8de Tonga","name:az":"Tonqa","name:mr":"\u091f\u094b\u0902\u0917\u093e","name:ar":"\u062a\u0648\u0646\u063a\u0627","name:my":"\u1010\u103d\u1014\u103a\u1002\u102b","official_name":"Pule'anga Fakatu'i 'o Tonga","name:mg":"Tong\u00e0","name:am":"\u1276\u1295\u130b","name:ru":"\u0422\u043e\u043d\u0433\u0430","name:ml":"\u0d1f\u0d4b\u0d02\u0d17","name:mn":"\u0422\u043e\u043d\u0433\u0430","id":424311848,"name:mk":"\u0422\u043e\u043d\u0433\u0430","name:vo":"Tongu\u00e4ns","name:zu":"i-Tonga","name:rw":"Igitonga","name:ff":"Tonngaa","name:zh-yue":"\u6e6f\u52a0","name:zh":"\u6c64\u52a0\u7fa4\u5c9b","name:sm":"Toga","name:ja":"\u30c8\u30f3\u30ac","name:si":"\u0da7\u0ddc\u0d82\u0d9c\u0dcf","name:fa":"\u062a\u0648\u0646\u06af\u0627","name:ne":"\u091f\u094b\u0902\u0917\u093e","name:sa":"\u091f\u094b\u0902\u0917\u093e","name:bn":"\u099f\u09cb\u0999\u09cd\u0997\u09be","name:bo":"\u0f4a\u0f7c\u0f44\u0f0b\u0f42","name:be":"\u0422\u043e\u043d\u0433\u0430","name:ur":"\u0679\u0648\u0646\u06af\u0627","name:sr":"\u0422\u043e\u043d\u0433\u0430","name:nv":"T\u02bc\u00f3nga","name:gv":"Yn Tongey","name:gu":"\u0a9f\u0acb\u0a82\u0a97\u0abe"},"coordinates":[873,378]},{"type":"Point","properties":{"name:ia":"Samoa American","name:io":"Samoa Usana","name:is":"Bandar\u00edska Sam\u00f3a","name:it":"Samoa Americane","name:vi":"Samoa thu\u1ed9c M\u1ef9","name:ru":"\u0410\u043c\u0435\u0440\u0438\u043a\u0430\u043d\u0441\u043a\u043e\u0435 \u0421\u0430\u043c\u043e\u0430","name:pl":"Samoa Ameryka\u0144skie","id":506535828,"name:ca":"Samoa Nord-americana","name:fa":"\u0633\u0627\u0645\u0648\u0622\u06cc \u0622\u0645\u0631\u06cc\u06a9\u0627","name:fi":"Amerikan Samoa","name:da":"Amerikansk Samoa","name:de":"Amerikanisch-Samoa","source":"openstreetmap.org","name:fr":"Samoa Am\u00e9ricaines","name:be":"\u0410\u043c\u0435\u0440\u044b\u043a\u0430\u043d\u0441\u043a\u0430\u0435 \u0421\u0430\u043c\u043e\u0430","name:zh":"\u7f8e\u5c5e\u8428\u6469\u4e9a","name:sm":"Amerika S\u0101moa","name:sk":"Americk\u00e1 Samoa","name:ja":"\u30a2\u30e1\u30ea\u30ab\u9818\u30b5\u30e2\u30a2","name":"American Samoa","name:no":"Amerikansk Samoa","name:he":"\u05e1\u05de\u05d5\u05d0\u05d4 \u05d4\u05d0\u05de\u05e8\u05d9\u05e7\u05e0\u05d9\u05ea","kind":"country","name:br":"Samoa Amerikan","name:uk":"\u0410\u043c\u0435\u0440\u0438\u043a\u0430\u043d\u0441\u044c\u043a\u0435 \u0421\u0430\u043c\u043e\u0430","name:sv":"Amerikanska Samoa","min_zoom":2.0,"name:hr":"Ameri\u010dka Samoa","name:sr":"\u0410\u043c\u0435\u0440\u0438\u0447\u043a\u0430 \u0421\u0430\u043c\u043e\u0430","population":65600,"name:el":"\u0391\u03bc\u03b5\u03c1\u03b9\u03ba\u03b1\u03bd\u03b9\u03ba\u03ad\u03c2 \u03a3\u03b1\u03bc\u03cc\u03b1","name:eo":"Usona Samoo","name:uz":"Amerika Samoasi","name:ku":"Samoaya Amer\u00eekan\u00ee","name:gv":"Samoa Americaanagh","name:nl":"Amerikaans-Samoa","name:es":"Samoa Americana"},"coordinates":[1694,1429]},{"type":"Point","properties":{"name:pt":"Ilhas Cook","name:cy":"Ynysoedd Cook","alt_name:el":"\u039d\u03b7\u03c3\u03b9\u03ac \u039a\u03bf\u03c5\u03ba","name:ko":"\ucfe1\uc81c\ub3c4","name:kn":"\u0c95\u0cc1\u0c95\u0ccd \u0ca6\u0ccd\u0cb5\u0cc0\u0caa\u0c97\u0cb3\u0cc1","name:km":"\u1780\u17c4\u17c7\u200b\u1781\u17bc\u1780","name:kl":"Cook qeqertaq","name:cs":"Cookovy ostrovy","alt_name:eo":"Kuk-Insularo","name:ki":"Visiwa vya Cook","name:tr":"Cook Adalar\u0131","name:ku":"Girav\u00ean Cook","name:ti":"\u12a9\u12ad \u12f0\u1234\u1276\u127d","name:ks":"\u06a9\u064f\u06a9 \u062c\u0654\u0632\u06cc\u0656\u0631\u0655","name:to":"\u02bbOtumotu Kuki","name:sv":"Cook\u00f6arna","name:or":"\u0b15\u0b41\u0b15\u0b4d \u0b06\u0b07\u0b38\u0b32\u0b4d\u0b5f\u0b3e\u0b23\u0b4d\u0b21","name:pl":"Wyspy Cooka","name:ta":"\u0b95\u0bc1\u0b95\u0bcd \u0ba4\u0bc0\u0bb5\u0bc1\u0b95\u0bb3\u0bcd","name:ca":"Illes Cook","name:te":"\u0c15\u0c41\u0c15\u0c4d \u0c26\u0c40\u0c35\u0c41\u0c32\u0c41","name:ro":"Insulele Cook","name:ka":"\u10d9\u10e3\u10d9\u10d8\u10e1 \u10d9\u10e3\u10dc\u10eb\u10e3\u10da\u10d4\u10d1\u10d8","name:hr":"Cookovi otoci","name:da":"Cook-\u00f8erne","name:de":"Cookinseln","name:dz":"\u0f40\u0f74\u0f42\u0f0b\u0f42\u0fb3\u0f72\u0f44\u0f0b\u0f5a\u0f7c\u0f58","source":"openstreetmap.org","name:lv":"Kuka salas","name:lt":"Kuko salos","name:hi":"\u0915\u0941\u0915 \u0926\u094d\u0935\u0940\u092a\u0938\u092e\u0942\u0939","name:he":"\u05d0\u05d9\u05d9 \u05e7\u05d5\u05e7","kind":"country","name:ur":"\u06a9\u06a9 \u0622\u0626\u0644\u06cc\u0646\u0688\u0632","name:lb":"Cookinseln","name:la":"Insulae Cook","name:lg":"Bizinga bya Kkuki","name:uk":"\u041e\u0441\u0442\u0440\u043e\u0432\u0438 \u041a\u0443\u043a\u0430","min_zoom":2.0,"name:hu":"Cook-szigetek","name:ln":"Bisanga bya Kook\u025b","name:lo":"\u0eab\u0ea1\u0eb9\u0ec8\u0ec0\u0e81\u0eb2\u0eb0\u0e84\u0eb8\u0e81","population":18600,"name:el":"\u039d\u03ae\u03c3\u03bf\u03b9 \u039a\u03bf\u03c5\u03ba","name:eo":"Kukinsuloj","name":"Cook Islands","name:ee":"Kook \u0192udomekpo nutome","name:th":"\u0e2b\u0e21\u0e39\u0e48\u0e40\u0e01\u0e32\u0e30\u0e04\u0e38\u0e01","name:gu":"\u0a95\u0ac1\u0a95 \u0a86\u0a87\u0ab2\u0ac7\u0aa8\u0acd\u0aa1\u0acd\u0ab8","name:eu":"Cook Uharteak","name:et":"Cooki saared","name:nl":"Cookeilanden","name:es":"Islas Cook","name:ia":"Insulas Cook","name:rm":"Inslas Cook","name:rn":"Izinga rya Kuku","name:az":"Kuk Adalar\u0131","name:id":"Kepulauan Cook","name:mr":"\u0915\u0941\u0915 \u092c\u0947\u091f\u0947","name:ar":"\u062c\u0632\u0631 \u0643\u0648\u0643","name:my":"\u1000\u103d\u1010\u103a \u1000\u103b\u103d\u1014\u103a\u1038\u1005\u102f","name:io":"Insuli Cook","name:is":"Cooks-eyjar","name:am":"\u12a9\u12ad \u12f0\u1234\u1276\u127d","name:it":"Isole Cook","name:vi":"\u0110\u1ea3o Cook","name:ru":"\u041e\u0441\u0442\u0440\u043e\u0432\u0430 \u041a\u0443\u043a\u0430","name:mn":"\u041a\u04af\u04af\u043a\u0438\u0439\u043d \u0410\u0440\u043b\u0443\u0443\u0434","id":249399308,"name:mk":"\u041a\u0443\u043a\u043e\u0432\u0438 \u041e\u0441\u0442\u0440\u043e\u0432\u0438","name:af":"Cookeilande","name:zu":"i-Cook Islands","name:ha":"Tsibiran Kuku","name:nn":"Cook\u00f8yane","name:ff":"Duu\u0257e Kuuk","name:fi":"Cookinsaaret","name:no":"Cook\u00f8yene","name:mg":"Nosy Kook","name:fo":"Cooksoyggjarnar","name:fr":"\u00celes Cook","name:fy":"de Cookeilannen","name:zh":"\u5e93\u514b\u7fa4\u5c9b","name:so":"Jaziiradda Cook","name:sn":"Zvitsuwa zveCook","name:sl":"Cookovo oto\u010dje","name:sk":"Cookove ostrovy","name:ja":"\u30af\u30c3\u30af\u8af8\u5cf6","name:si":"\u0d9a\u0dd4\u0d9a\u0dca \u0daf\u0dd6\u0db4\u0dad\u0dca","name:fa":"\u062c\u0632\u0627\u06cc\u0631 \u06a9\u0648\u06a9","name:sg":"\u00e2z\u00fb\u00e2 K\u00fbku","name:se":"Cook-sullot","name:ne":"\u0915\u0941\u0915 \u091f\u093e\u092a\u0941","name:br":"Inizi Cook","name:bs":"Kukova Ostrva","name:bm":"Kuki Gun","name:bn":"\u0995\u09c1\u0995 \u09a6\u09cd\u09ac\u09c0\u09aa\u09aa\u09c1\u099e\u09cd\u099c","name:bo":"\u0f40\u0f71\u0f74\u0f42 \u0f42\u0fb3\u0f72\u0f44\u0f0b\u0f55\u0fb2\u0f7a\u0f53\u0f0b\u0f62\u0f92\u0fb1\u0f63\u0f0b\u0f41\u0f56\u0f0d","name:ml":"\u0d15\u0d42\u0d15\u0d4d\u0d15\u0d4d \u0d26\u0d4d\u0d35\u0d40\u0d2a\u0d41\u0d15\u0d7e","name:sw":"Visiwa vya Cook","name:be":"\u0410\u0441\u0442\u0440\u0430\u0432\u044b \u041a\u0443\u043a\u0430","name:bg":"\u041e\u0441\u0442\u0440\u043e\u0432\u0438 \u041a\u0443\u043a","name:sr":"\u041a\u0443\u043a\u043e\u0432\u0430 \u041e\u0441\u0442\u0440\u0432\u0430","name:ga":"Oile\u00e1in Cook","name:gd":"Eileanan Cook","name:gl":"Illas Cook","name:yo":"Or\u00edl\u1eb9\u0301\u00e8de Et\u00edokun K\u00f9\u00fak\u00f9","name:ak":"Kook Nsup\u0254w"},"coordinates":[3576,1100]},{"type":"Point","properties":{"name:mt":"Tokelaw","name:rn":"Tokelawu","name:mr":"\u0924\u094b\u0915\u0947\u0932\u093e\u0909","name:ko":"\ud1a0\ucf08\ub77c\uc6b0","name:kn":"\u0c9f\u0cca\u0c95\u0cc6\u0cb2\u0cbe\u0cb5\u0ccd","name:km":"\u178f\u17bc\u1781\u17c1\u17a1\u17c5","name:ar":"\u062a\u0648\u0643\u0644\u0648","name:is":"T\u00f3kel\u00e1","name:ti":"\u1276\u12ad\u120b\u12cd","name:am":"\u1276\u12ad\u120b\u12cd","name:ur":"\u0679\u0648\u06a9\u06cc\u0644\u0627\u0624","name:ml":"\u0d1f\u0d4a\u0d15\u0d46\u0d32\u0d3e\u0d35\u0d41","name:or":"\u0b1f\u0b4b\u0b15\u0b47\u0b32\u0b3e\u0b09","name:mn":"\u0422\u043e\u043a\u0435\u043b\u0430\u0443","id":433483572,"name:mk":"\u0422\u043e\u043a\u0435\u043b\u0430\u0443","name:te":"\u0c1f\u0c4b\u0c15\u0c47\u0c32\u0c3e\u0c35\u0c4d","name:fa":"\u062a\u0648\u06a9\u0644\u0627\u0626\u0648","name:ta":"\u0b9f\u0bcb\u0b95\u0bc7\u0bb2\u0bcb","name:eo":"Tokelao","name:ff":"Tokelaaw","kind":"country","name:lo":"\u0ec2\u0e95\u0ec0\u0e81\u0ec0\u0ea5\u0ebb\u0eb2","name:dz":"\u0f4f\u0f7c\u0f0b\u0f40\u0f7a\u0f0b\u0f63\u0f60\u0f74\u0f0b \u0f58\u0f5a\u0f7c\u0f0b\u0f42\u0fb3\u0f72\u0f44","source":"openstreetmap.org","name:fy":"Tokela\u00fb","name:be":"\u0422\u0430\u043a\u0435\u043b\u0430\u045e","name:zh":"\u6258\u514b\u52b3","name:ja":"\u30c8\u30b1\u30e9\u30a6","name:si":"\u0da7\u0ddc\u0d9a\u0dbd\u0dcf\u0dc0\u0dd4","name:hi":"\u0924\u094b\u0915\u0947\u0932\u093e\u0909","name:he":"\u05d8\u05d5\u05e7\u05dc\u05d0\u05d5","name:ne":"\u0924\u094b\u0917\u094b","name:ha":"Takelau","name:bm":"Tokelo","name:bn":"\u099f\u09cb\u0995\u09c7\u09b2\u09be\u0989","name:lg":"Tokelawu","name:uk":"\u0422\u043e\u043a\u0435\u043b\u0430\u0443","name:ru":"\u0422\u043e\u043a\u0435\u043b\u0430\u0443","name:sv":"Tokelau\u00f6arna","min_zoom":2.0,"name:hu":"Tokelau-szigetek","name:sr":"\u0422\u043e\u043a\u0435\u043b\u0430\u0443","population":1411,"name:el":"\u03a4\u03bf\u03ba\u03b5\u03bb\u03ac\u03bf\u03c5","name:ga":"Oile\u00e1in T\u00f3cal\u00e1","name":"Tokelau","name:zu":"i-Tokelau","name:mg":"Tokelao","name:ee":"Tokelau nutome","name:th":"\u0e42\u0e15\u0e40\u0e01\u0e40\u0e25\u0e32","name:gu":"\u0a9f\u0acb\u0a95\u0ac7\u0ab2\u0abe\u0a89","name:bg":"\u0422\u043e\u043a\u0435\u043b\u0430\u0443","name:ks":"\u062a\u0648\u06a9\u06cc\u0644\u0627\u0648","name:yo":"Or\u00edl\u1eb9\u0301\u00e8de Tokelau"},"coordinates":[1489,2385]},{"type":"Point","properties":{"name:rn":"Niyuwe","name:az":"Niye","name:ka":"\u10dc\u10d8\u10e3\u10d4","name:mr":"\u0928\u0940\u092f\u0942","name:ko":"\ub2c8\uc6b0\uc5d0","name:kn":"\u0ca8\u0cbf\u0caf\u0cc1","name:km":"\u178e\u17c0","name:ar":"\u0646\u064a\u0648\u064a","name:kk":"\u041d\u0438\u0443\u0435","name:th":"\u0e19\u0e35\u0e2d\u0e39\u0e40\u0e2d","name:ti":"\u1292\u12a1\u12ed","name:ks":"\u0646\u06cc\u0648\u0657","name:to":"Niu\u0113","name:or":"\u0b28\u0b3f\u0b09","name:os":"\u041d\u0438\u0443\u044d","name:ml":"\u0d28\u0d4d\u0d2f\u0d42\u0d35\u0d47","name:mn":"\u041d\u0438\u0443\u044d","id":433483552,"name:mk":"\u041d\u0438\u0435","name:te":"\u0c28\u0c3f\u0c2f\u0c41","name:zu":"i-Niue","name:ta":"\u0ba8\u0bbf\u0baf\u0bc2","name:si":"\u0db1\u0dd2\u0dba\u0dd6","name:ff":"Niuwe","name:wo":"Niwe","kind":"country","name:sr":"\u041d\u0438\u0458\u0443\u0435","name:dz":"\u0f53\u0f72\u0f0b\u0f68\u0f74\u0f0b\u0f68\u0f7b","source":"openstreetmap.org","name:rw":"Niyuwe","name:fy":"Ni\u00fb\u00e9","name:dv":"\u0782\u07a9\u0787\u07aa","name:ja":"\u30cb\u30a6\u30a8\u5cf6","name:lt":"Niuj\u0117","name:hi":"\u0928\u0940\u092f\u0942","name:bg":"\u041d\u0438\u0443\u0435","name:he":"\u05e0\u05d9\u05d5\u05d5\u05d4","min_zoom":2.0,"name:ne":"\u0928\u093f\u092f\u0941\u0907","name:ha":"Niyu","name:bm":"Nyuwe","name:bn":"\u09a8\u09bf\u0989\u09af\u09bc\u09c7","name:bo":"\u0f53\u0f72\u0f60\u0f74\u0f0b\u0f5d\u0f0d","name:lg":"Niyuwe","name:uk":"\u041d\u0456\u0443\u0435","name:ru":"\u041d\u0438\u0443\u044d","name:be":"\u041d\u0456\u045e\u044d","name:ug":"Niu\u00e9 Arili","name:ur":"\u0646\u06cc\u0626\u0648","name:ln":"Nyu\u00e9","name:lo":"\u0e99\u0eb5\u0ead\u0eb9\u0ec0\u0ead","population":1269,"name:el":"\u039d\u03b9\u03bf\u03cd\u03b5","name:eo":"Niuo","name":"Niue","name:ee":"Niue nutome","name:zh":"\u7d10\u57c3","name:mg":"Nio\u00e9","name:fa":"\u0646\u06cc\u0648\u0648\u06cc","name:gu":"\u0aa8\u0ac0\u0aaf\u0ac1","name:ak":"Niyu","name:am":"\u1292\u12a1\u12ed","name:yo":"Or\u00edl\u1eb9\u0301\u00e8de Niue"},"coordinates":[1846,539]},{"type":"Point","properties":{"name:pt":"Wallis e Futuna","name:cy":"Wallis a Futuna","name:mt":"Wallis and Futuna","name:ko":"\uc648\ub9ac\uc2a4 \ud4cc\ud280\ub098","name:kn":"\u0cb5\u0cbe\u0cb2\u0cbf\u0cb8\u0ccd \u0cae\u0ca4\u0ccd\u0ca4\u0cc1 \u0cab\u0cc1\u0c9f\u0cc1\u0ca8\u0cbe","name:km":"\u179c\u17c9\u17b6\u179b\u17b8\u179f \u1793\u17b7\u1784\u200b\u17a0\u17d2\u179c\u17bc\u1791\u17bc\u178e\u17b6","name:kl":"Wallis aamma Futuna","name:cs":"Wallis a Futuna","name:ki":"Walis na Futuna","name:kw":"Wallis ha Futuna","name:tr":"Wallis ve Futuna Adalar\u0131","name:th":"\u0e2b\u0e21\u0e39\u0e48\u0e40\u0e01\u0e32\u0e30\u0e27\u0e32\u0e25\u0e25\u0e34\u0e2a\u0e41\u0e25\u0e30\u0e2b\u0e21\u0e39\u0e48\u0e40\u0e01\u0e32\u0e30\u0e1f\u0e38\u0e15\u0e39\u0e19\u0e32","name:ti":"\u12cb\u120a\u1235 \u12a5\u1293 \u1349\u1271\u1293 \u12f0\u1234\u1276\u127d","name:ks":"\u0648\u0627\u0644\u0650\u0633 \u062a\u06c1\u0655 \u0641\u06cc\u0648\u0657\u0686\u0648\u0657\u0646\u0627","name:to":"\u02bbUvea mo Futuna","name:sv":"Wallis- och Futuna\u00f6arna","name:or":"\u0b71\u0b3e\u0b32\u0b3f\u0b38\u0b4d \u0b0f\u0b2c\u0b02 \u0b2b\u0b41\u0b24\u0b41\u0b28\u0b3e","name:pl":"Wallis i Futuna","name:ta":"\u0bb5\u0bb2\u0bbf\u0b9a\u0bc1\u0bae\u0bcd \u0baa\u0bc1\u0b9f\u0bcd\u0b9f\u0bc2\u0ba9\u0bbe\u0bb5\u0bc1\u0bae\u0bcd","name:ca":"Wallis i Futuna","name:te":"\u0c35\u0c3e\u0c32\u0c3f\u0c38\u0c4d \u0c2e\u0c30\u0c3f\u0c2f\u0c41 \u0c2b\u0c4d\u0c2f\u0c41\u0c24\u0c4d\u0c2f\u0c41\u0c28\u0c3e","name:vi":"Wallis v\u00e0 Futuna","name:ro":"Wallis \u015fi Futuna","name:ka":"\u10d5\u10d0\u10da\u10d8\u10e1\u10d8 \u10d3\u10d0 \u10e4\u10e3\u10e2\u10e3\u10dc\u10d0","name:hr":"Wallis i Futuna","name:da":"Wallis og Futuna","name:de":"Wallis und Futuna","name:dz":"\u0f5d\u0f63\u0f0b\u0f63\u0f72\u0f66\u0f84\u0f0b \u0f68\u0f7a\u0f53\u0f4c\u0f0b \u0f55\u0f74\u0f0b\u0f4f\u0f74\u0f0b\u0f53\u0f0b","source":"openstreetmap.org","name:dv":"\u0788\u07a7\u078d\u07a9 \u0787\u07a6\u078b\u07a8 \u078a\u07aa\u078c\u07ab\u0782\u07a7","name:lv":"Volisa un Futuna","name:lt":"Volisas ir Fut\u016bna","name:hi":"\u0935\u093e\u0932\u093f\u0938 \u0914\u0930 \u092b\u093c\u094d\u092f\u0942\u091a\u0942\u0928\u093e","name:he":"\u05d0\u05d9\u05d9 \u05d5\u05d5\u05dc\u05d9\u05e1 \u05d5\u05e4\u05d5\u05d8\u05d5\u05e0\u05d4","kind":"region","name:ur":"\u0648\u06cc\u0644\u06cc\u0632 \u0627\u0648\u0631 \u0641\u06cc\u0648\u0679\u06cc\u0648\u0646\u0627","name:lb":"Wallis a Futuna","name:la":"Vallis et Futuna","name:lg":"Walisi ne Futuna","name:uk":"\u0412\u043e\u043b\u043b\u0456\u0441 \u0456 \u0424\u0443\u0442\u0443\u043d\u0430","name:ug":"Wallis we Futuna Taqim Aralliri","name:hu":"Wallis \u00e9s Futuna","name:ln":"Walis\u025b mp\u00e9 Futuna","name:lo":"\u0ea7\u0eb2\u0ea5\u0eb4\u0eaa\u0ec1\u0ea5\u0eb0\u0e9f\u0eb8\u0e95\u0eb9\u0e99\u0eb2","name:oc":"Wallis e Futuna","name:el":"\u039f\u03c5\u03ce\u03bb\u03bb\u03b9\u03c2 \u03ba\u03b1\u03b9 \u03a6\u03bf\u03c5\u03c4\u03bf\u03cd\u03bd\u03b1","name:eo":"Valiso kaj Futuno","name:en":"Wallis and Futuna","name":"Wallis-et-Futuna","official_name":"Territoire des \u00celes Wallis-et-Futuna","name:ee":"Wallis kple Futuna nutome","min_zoom":4.0,"name:gu":"\u0ab5\u0ac9\u0ab2\u0abf\u0ab8 \u0a8f\u0a82\u0aa1 \u0aab\u0acd\u0aaf\u0ac1\u0a9a\u0ac1\u0aa8\u0abe \u0a86\u0a87\u0ab2\u0ac7\u0aa8\u0acd\u0aa1\u0acd\u0ab8","name:eu":"Wallis eta Futuna","name:et":"Wallis ja Futuna","name:nl":"Wallis en Futuna","name:es":"Wallis y Futuna","name:ml":"\u0d35\u0d3e\u0d32\u0d3f\u0d38\u0d4d \u0d06\u0d7b\u0d21\u0d4d \u0d2b\u0d4d\u0d2f\u0d41\u0d1a\u0d42\u0d28","name:rm":"Wallis e Futuna","name:rn":"Walisi na Futuna","name:az":"Valis v\u0259 Futuna","name:id":"Wallis dan Futuna","name:ms":"Wallis dan Futuna","name:mr":"\u0935\u093e\u0932\u093f\u0938 \u0935 \u092b\u0941\u0924\u0941\u0928\u093e","name:ar":"\u062c\u0632\u0631 \u0648\u0627\u0644\u064a\u0633 \u0648\u0641\u0648\u062a\u0648\u0646\u0627","name:io":"Wallis e Futuna Insuli","int_name":"Wallis and Futuna Islands","name:is":"Wallis- og F\u00fat\u00fanaeyjar","name:am":"\u12cb\u120a\u1235 \u12a5\u1293 \u1349\u1271\u1293 \u12f0\u1234\u1276\u127d","name:it":"Wallis e Futuna","name:an":"Wallis e Futuna","name:ru":"\u0423\u043e\u043b\u043b\u0438\u0441 \u0438 \u0424\u0443\u0442\u0443\u043d\u0430","name:mn":"\u0423\u043e\u043b\u043b\u0438\u0441 \u0431\u0430 \u0424\u0443\u0442\u0443\u043d\u0430","id":424298155,"name:mk":"\u0412\u043e\u043b\u0438\u0441 \u0438 \u0424\u0443\u0442\u0443\u043d\u0430 \u043e\u0441\u0442\u0440\u043e\u0432\u0438","name:af":"Wallis-en-Futuna","name:zu":"i-Wallis ne-Futuna","name:ha":"Walis Da Futuna","name:nn":"Wallis- og Futuna\u00f8yane","name:ff":"Walis e Futuna","kind_detail":"state","name:no":"Wallis- og Futuna\u00f8yene","name:mg":"Wallis sy Futuna","name:fo":"Wallis og Futuna","name:fy":"Wallis en F\u00fbt\u00fbna","name:zh":"\u74e6\u5229\u65af\u548c\u5bcc\u56fe\u7eb3\u7fa4\u5c9b","name:sl":"Wallis in Futuna","name:sk":"Wallis a Futuna","name:ja":"\u30a6\u30a9\u30ea\u30b9\u30fb\u30d5\u30c4\u30ca","name:si":"\u0dc0\u0dd0\u0dbd\u0dd2\u0dc3\u0dca \u0dc3\u0dc4 \u0dc6\u0dd4\u0da7\u0dd4\u0db1\u0dcf","name:sh":"Wallis i Futuna","name:sg":"Wal\u00eesi na Futuna","name:se":"Wallis ja Futuna","name:ne":"\u0935\u093e\u0932\u093f\u0938 \u0930 \u092b\u0941\u091f\u0941\u0928\u093e","name:br":"Wallis ha Futuna","name:bs":"Valis i Futuna Ostrva","name:bm":"Walisi-ni-Futuna","name:bn":"\u0993\u09af\u09bc\u09be\u09b2\u09bf\u09b8 \u0993 \u09ab\u09c1\u099f\u09c1\u09a8\u09be","name:sw":"Wallis na Futuna","name:be":"\u0423\u043e\u043b\u0456\u0441 \u0456 \u0424\u0443\u0442\u0443\u043d\u0430","name:bg":"\u0423\u043e\u043b\u0438\u0441 \u0438 \u0424\u0443\u0442\u0443\u043d\u0430","name:wo":"Wallis ak Futuna","name:sr":"\u0412\u0430\u043b\u0438\u0441 \u0438 \u0424\u0443\u0442\u0443\u043d\u0430","name:ga":"Vail\u00eds agus Fut\u00fana","name:gd":"Uallas agus Futuna","name:jv":"Wallis lan Futuna","name:gl":"Wallis e Futuna","name:fa":"\u0648\u0627\u0644\u06cc\u0633 \u0648 \u0641\u0648\u062a\u0648\u0646\u0627","name:yo":"Or\u00edl\u1eb9\u0301\u00e8de Wali ati futuna","name:ak":"Wallis ne Futuna","name:fi":"Wallis- ja Futunasaaret"},"coordinates":[519,1517]}]},"transit":{"type":"GeometryCollection","geometries":[]},"pois":{"type":"GeometryCollection","geometries":[]},"boundaries":{"type":"GeometryCollection","geometries":[]},"roads":{"type":"GeometryCollection","geometries":[]},"earth":{"type":"GeometryCollection","geometries":[{"type":"MultiPolygon","properties":{"sort_rank":10,"source":"naturalearthdata.com","min_zoom":0.0,"kind":"earth","area":7587681389},"arcs":[[[45]],[[46]],[[47]],[[48]],[[49]],[[50]],[[51]]]}]},"landuse":{"type":"GeometryCollection","geometries":[{"type":"Polygon","properties":{"kind":"nature_reserve","name":"Jarvis Island National Wildlife Refuge","area":1771970048,"sort_rank":23,"source":"openstreetmap.org","min_zoom":4.0,"tier":2,"id":-6376033,"osm_relation":true,"protect_class":"4"},"arcs":[[52]]}]}},"type":"Topology","transform":{"translate":[-180.0,-21.9430455334],"scale":[0.0054931641,0.0053571889]},"arcs":[[[0,0],[0,176],[0,187],[0,186],[0,187],[0,187],[0,7],[5,7],[19,14],[8,15],[-7,15],[-6,-2],[-19,-16],[0,46],[13,6],[0,5],[5,9],[-8,-2],[-10,-9],[0,60],[8,4],[2,4],[-4,0],[-6,-5],[0,26],[0,2],[0,187],[0,187],[0,186],[0,187],[0,187],[0,186],[0,187],[0,187],[0,186],[0,187],[0,187],[0,186],[0,187],[0,187],[0,186],[0,187],[4096,0],[0,-4096],[-4096,0]],[[925,92],[1,28],[-2,-1],[-9,-8],[1,-6],[9,-13]],[[882,127],[13,19],[1,6],[-10,-2],[-3,-6],[-2,0],[-7,3],[7,2],[-12,5],[-13,1],[-5,2],[1,6],[-8,-7],[5,-9],[24,-13],[9,-7]],[[3675,131],[7,-2],[6,1],[1,1],[-1,6],[-5,4],[-8,0],[-4,-2],[-1,-6],[0,-1],[5,-1]],[[260,523],[-1,3],[3,1],[1,1],[-2,1],[-4,-2],[-2,-3],[1,-3],[4,-2],[5,-2],[2,1],[-1,2],[-3,1],[-3,2]],[[1830,536],[8,-12],[18,10],[2,7],[-7,15],[-5,-1],[-9,-4],[-7,-15]],[[28,555],[1,2],[2,1],[3,-3],[3,0],[-1,6],[-5,3],[-5,-4],[-1,-4],[-1,-3],[1,-3],[2,-1],[1,2],[0,4]],[[1106,626],[-8,5],[-6,-2],[-12,-12],[3,-5],[8,-6],[3,0],[7,11],[5,5],[0,4]],[[225,692],[0,8],[-5,1],[-10,-3],[3,-3],[10,-6],[2,3]],[[184,740],[-2,6],[-9,5],[-5,-5],[2,-5],[5,-3],[4,0],[5,2]],[[299,751],[9,-8],[10,2],[0,4],[-5,8],[-8,2],[-6,-8]],[[191,889],[-10,6],[-2,-2],[0,-4],[8,-6],[-1,-5],[-5,-10],[4,-3],[5,7],[6,4],[2,5],[-2,3],[-5,5]],[[1717,1433],[-22,2],[-6,-4],[-18,-7],[9,-8],[8,1],[16,13],[13,3]],[[345,1430],[-7,7],[-6,2],[-3,-4],[6,-11],[10,-2],[11,1],[0,3],[-11,4]],[[1528,1505],[-46,14],[-23,-4],[-11,-6],[3,-9],[21,-18],[9,0],[25,-8],[50,0],[1,4],[-3,9],[-8,5],[-11,1],[-7,12]],[[1416,1565],[-20,18],[-33,-4],[-29,-7],[-19,1],[6,-12],[15,-12],[23,-27],[9,-2],[28,5],[19,-6],[9,23],[-8,23]],[[705,1619],[-4,9],[-4,-4],[-4,-11],[3,-7],[3,1],[6,12]],[[1511,3580],[-3,1],[-2,-2],[0,-1],[0,-1],[2,0],[2,1],[3,-1],[3,-1],[2,-2],[4,-6],[0,-3],[-3,1],[-4,3],[-4,0],[1,0],[1,-1],[3,-3],[5,-2],[3,0],[0,2],[-2,6],[-5,5],[-6,4]],[[175,738],[4,0],[5,2],[-2,6],[-9,5],[-5,-5],[2,-5],[5,-3]],[[210,698],[3,-3],[10,-6],[2,3],[0,8],[-5,1],[-10,-3]],[[305,759],[-6,-8],[9,-8],[10,2],[0,4],[-5,8],[-8,2]],[[896,152],[-1,-6],[-13,-19],[-9,7],[-24,13],[-5,9],[8,7],[-1,-6],[5,-2],[13,-1],[12,-5],[-7,-2],[7,-3],[2,0],[3,6],[10,2]],[[0,930],[5,7],[19,14],[8,15],[-7,15],[-6,-2],[-19,-16]],[[0,1009],[13,6],[0,5],[5,9],[-8,-2],[-10,-9]],[[1080,617],[3,-5],[8,-6],[3,0],[7,11],[5,5],[0,4],[-8,5],[-6,-2],[-12,-12]],[[1396,1583],[-33,-4],[-29,-7],[-19,1],[6,-12],[15,-12],[23,-27],[9,-2],[28,5],[19,-6],[9,23],[-8,23],[-20,18]],[[179,889],[8,-6],[-1,-5],[-5,-10],[4,-3],[5,7],[6,4],[2,5],[-2,3],[-5,5],[-10,6],[-2,-2],[0,-4]],[[1482,1519],[-23,-4],[-11,-6],[3,-9],[21,-18],[9,0],[25,-8],[50,0],[1,4],[-3,9],[-8,5],[-11,1],[-7,12],[-46,14]],[[1695,1435],[-6,-4],[-18,-7],[9,-8],[8,1],[16,13],[13,3],[-22,2]],[[1837,551],[-7,-15],[8,-12],[18,10],[2,7],[-7,15],[-5,-1],[-9,-4]],[[693,1613],[3,-7],[3,1],[6,12],[-4,9],[-4,-4],[-4,-11]],[[915,111],[1,-6],[9,-13],[1,28],[-2,-1],[-9,-8]],[[0,1081],[6,5],[4,0],[-2,-4],[-8,-4]],[[338,1437],[-6,2],[-3,-4],[6,-11],[10,-2],[11,1],[0,3],[-11,4],[-7,7]],[[3675,141],[-4,-2],[-1,-6],[0,-1],[5,-1],[7,-2],[6,1],[1,1],[-1,6],[-5,4],[-8,0]],[[1366,2498],[0,2],[0,1],[2,-2],[1,-2],[0,-3],[-1,0],[-1,2],[-1,2]],[[1602,2352],[-1,2],[1,0],[1,-1],[1,-2],[0,-1],[0,-1],[-1,1],[-1,2]],[[1417,3256],[2,0],[1,0],[1,1],[-1,1],[-2,-1],[-3,-2],[2,-4],[5,1],[1,1],[-2,0],[-3,0],[-1,1],[0,2]],[[1521,3563],[3,0],[0,2],[-2,6],[-5,5],[-6,4],[-3,1],[-2,-2],[0,-1],[0,-1],[2,0],[2,1],[3,-1],[3,-1],[2,-2],[4,-6],[0,-3],[-3,1],[-4,3],[-4,0],[1,0],[1,-1],[3,-3],[5,-2]],[[1622,3513],[0,2],[2,-1],[-1,-3],[-1,-2],[-1,1],[1,3]],[[1592,3267],[3,-1],[1,-1],[0,-2],[-2,-1],[-2,0],[-1,2],[0,1],[1,2]],[[1001,3221],[-2,2],[-3,3],[-2,1],[0,-1],[1,-1],[2,-1],[2,-3],[-1,0],[-2,1],[1,-1],[3,-1],[1,0],[0,1]],[[259,526],[3,1],[1,1],[-2,1],[-4,-2],[-2,-3],[1,-3],[4,-2],[5,-2],[2,1],[-1,2],[-3,1],[-3,2],[-1,3]],[[24,553],[1,-3],[2,-1],[1,2],[0,4],[1,2],[2,1],[3,-3],[3,0],[-1,6],[-5,3],[-5,-4],[-1,-4],[-1,-3]],[[232,238],[-1,1],[0,2],[1,1],[1,-1],[1,-1],[1,-2],[-1,0],[-2,0]],[[881,144],[2,0],[3,6],[10,2],[-1,-6],[-13,-19],[-9,7],[-24,13],[-5,9],[8,7],[-1,-6],[5,-2],[13,-1],[12,-5],[-7,-2],[7,-3]],[[1856,534],[-18,-10],[-8,12],[7,15],[9,4],[5,1],[7,-15],[-2,-7]],[[1101,617],[-7,-11],[-3,0],[-8,6],[-3,5],[12,12],[6,2],[8,-5],[0,-4],[-5,-5]],[[5,937],[-5,-7],[0,10],[0,9],[0,14],[19,16],[6,2],[7,-15],[-8,-15],[-19,-14]],[[1688,1417],[-8,-1],[-9,8],[18,7],[6,4],[22,-2],[-13,-3],[-16,-13]],[[1556,1474],[-50,0],[-25,8],[-9,0],[-21,18],[-3,9],[11,6],[23,4],[46,-14],[7,-12],[11,-1],[8,-5],[3,-9],[-1,-4]],[[1396,1583],[20,-18],[8,-23],[-9,-23],[-19,6],[-28,-5],[-9,2],[-23,27],[-15,12],[-6,12],[19,-1],[29,7],[33,4]],[[3602,4025],[39,41],[39,-41],[-40,-38],[-38,38]]]}