{"objects":{"water":{"type":"GeometryCollection","geometries":[{"type":"MultiPolygon","properties":{"source":"naturalearthdata.com","kind":"ocean","area":1576712559132672,"sort_rank":200,"min_zoom":0.0,"id":1},"arcs":[[[57]],[[58]],[[59]]]},{"type":"LineString","properties":{"source":"naturalearthdata.com","kind":"ocean","sort_rank":205,"boundary":true,"min_zoom":0.0,"id":2035},"arcs":[60]},{"type":"MultiLineString","properties":{"source":"naturalearthdata.com","kind":"ocean","sort_rank":205,"boundary":true,"min_zoom":0.0,"id":2036},"arcs":[[61],[62]]},{"type":"MultiLineString","properties":{"source":"naturalearthdata.com","kind":"ocean","sort_rank":205,"boundary":true,"min_zoom":0.0,"id":2040},"arcs":[[63],[64],[65],[66]]},{"type":"Point","properties":{"label_placement":true,"kind":"sea","name":"Timor Sea","source":"openstreetmap.org","sort_rank":200,"min_zoom":3.0,"id":305640100},"coordinates":[3277,1003]}]},"buildings":{"type":"GeometryCollection","geometries":[]},"places":{"type":"GeometryCollection","geometries":[{"type":"Point","properties":{"name:ka":"\u10d0\u10e6\u10db\u10dd\u10e1\u10d0\u10d5\u10da\u10d4\u10d7\u10d8 \u10e2\u10d8\u10db\u10dd\u10e0\u10d8","name:mt":"Timor tal-Lvant","name:ko":"\ub3d9\ud2f0\ubaa8\ub974","name:kn":"\u0c88\u0cb8\u0ccd\u0c9f\u0ccd \u0c9f\u0cbf\u0cae\u0ccb\u0cb0\u0ccd","name:km":"\u1791\u17b8\u1798\u17d0\u179a\u200b\u1781\u17b6\u1784\u200b\u1780\u17be\u178f","name:kl":"Timor Kangilliit","name:cs":"V\u00fdchodn\u00ed Timor","name:ki":"Timori ya Mashariki","name:tr":"Do\u011fu Timor","name:ku":"T\u00eemora Rojhilat","name:ti":"\u121d\u1235\u122b\u1245 \u1272\u121e\u122d","name:ks":"\u0645\u064e\u0634\u0631\u0650\u0642\u06cc \u062a\u0627\u06cc\u0645\u0648\u0631","name:to":"Timoa Hahake","name:tl":"Silangang Timor","name:sv":"\u00d6sttimor","name:or":"\u0b2a\u0b41\u0b30\u0b4d\u0b2c \u0b24\u0b3f\u0b2e\u0b4b\u0b30\u0b4d","name:pl":"Timor Wschodni","name:ta":"\u0b95\u0bbf\u0bb4\u0b95\u0bcd\u0b95\u0bc1 \u0ba4\u0bc8\u0bae\u0bcb\u0bb0\u0bcd","name:tg":"\u0422\u0438\u043c\u043e\u0440\u0438 \u0428\u0430\u0440\u049b\u04e3","name:ca":"Timor Oriental","name:te":"\u0c24\u0c42\u0c30\u0c4d\u0c2a\u0c41 \u0c1f\u0c3f\u0c2e\u0c4b\u0c30\u0c4d","name:hu":"Kelet-Timor","name:ro":"Timorul de Est","name:cy":"Dwyrain Timor","name:hr":"Isto\u010dni Timor","name:da":"\u00d8sttimor","name:de":"Osttimor","name:dz":"\u0f64\u0f62\u0f0b\u0f55\u0fb1\u0f7c\u0f42\u0f66\u0f0b\u0f4f\u0f72\u0f0b\u0f0b\u0f58\u0f7c\u0f62","source":"openstreetmap.org","name:lv":"Austrumtimora","name:lt":"Ryt\u0173 Timoras","name:hi":"\u092a\u0942\u0930\u094d\u0935\u0940 \u0924\u093f\u092e\u094b\u0930","name:he":"\u05de\u05d6\u05e8\u05d7 \u05d8\u05d9\u05de\u05d5\u05e8","kind":"country","name:ur":"\u0645\u0634\u0631\u0642\u06cc \u062a\u06cc\u0645\u0648\u0631","name:la":"Timoria Orientalis","name:lg":"Timowa","name:uk":"\u0421\u0445\u0456\u0434\u043d\u0438\u0439 \u0422\u0438\u043c\u043e\u0440","min_zoom":2.0,"name:li":"Oos-Timor","name:ln":"Timor ya mony\u025bl\u025b","name:lo":"\u0e95\u0eb5\u0ea1\u0ecd \u0e95\u0eb2\u0ec0\u0ea7\u0eb1\u0e99\u0ead\u0ead\u0e81","population":1115000,"name:el":"\u0391\u03bd\u03b1\u03c4\u03bf\u03bb\u03b9\u03ba\u03cc \u03a4\u03b9\u03bc\u03cc\u03c1","name:eo":"Orienta Timoro","name:en":"East Timor","name":"Timor-Leste","official_name":"Rep\u00fablika Demokr\u00e1tika Timor Lorosa'e;Rep\u00fablica Democr\u00e1tica de Timor-Leste","name:ee":"\u0194edze\u0192e Tim\u0254 nutome","name:th":"\u0e1b\u0e23\u0e30\u0e40\u0e17\u0e28\u0e15\u0e34\u0e21\u0e2d\u0e23\u0e4c\u0e15\u0e30\u0e27\u0e31\u0e19\u0e2d\u0e2d\u0e01","name:gu":"\u0aaa\u0ac2\u0ab0\u0acd\u0ab5 \u0aa4\u0abf\u0aae\u0acb\u0ab0","name:eu":"Timor ekialdea","name:et":"Ida-Timor","name:nl":"Oost-Timor","name:es":"Timor Oriental","name:ia":"Timor del Est","name:rm":"Timor da l'Ost","name:rn":"Timoru y'iburasirazuba","name:az":"\u015e\u0259rq Timor","name:id":"Timor Leste","name:ms":"Timor Timur","name:mr":"\u092a\u0942\u0930\u094d\u0935 \u0924\u093f\u092e\u094b\u0930","name:ar":"\u062c\u0645\u0647\u0648\u0631\u064a\u0629 \u062a\u064a\u0645\u0648\u0631","name:my":"\u1021\u101b\u103e\u1031\u1037\u1010\u102e\u1019\u1031\u102c","name:io":"Esta Timor","name:is":"Austur-T\u00edmor","name:am":"\u121d\u1235\u122b\u1245 \u1272\u121e\u122d","name:it":"Timor Est","name:vi":"\u0110\u00f4ng Timor","name:ru":"\u0412\u043e\u0441\u0442\u043e\u0447\u043d\u044b\u0439 \u0422\u0438\u043c\u043e\u0440","name:mn":"\u0417\u04af\u04af\u043d \u0422\u0438\u043c\u043e\u0440","id":432424972,"name:mk":"\u0418\u0441\u0442\u043e\u0447\u0435\u043d \u0422\u0438\u043c\u043e\u0440","name:af":"Oos-Timor","name:zu":"i-East Timor","name:ha":"Timor Ta Gabas","name:nn":"Aust-Timor","name:ff":"Timoor Fu\u0257naange","name:fi":"It\u00e4-Timor","name:no":"\u00d8st-Timor","name:mg":"Timor Atsinanana","name:fo":"Eystur-Timor","name:fr":"Timor Oriental","name:fy":"East-Timor","name:vo":"Lof\u00fcda-Timore\u00e4n","name:zh":"\u4e1c\u5e1d\u6c76","name:gv":"Yn Teemor Hiar","name:so":"Timorka bari","name:sn":"East Timor","name:sl":"Vzhodni Timor","name:sk":"V\u00fdchodn\u00fd Timor","name:ja":"\u6771\u30c6\u30a3\u30e2\u30fc\u30eb","name:si":"\u0db1\u0dd0\u0d9f\u0dd9\u0db1\u0dc4\u0dd2\u0dbb \u0da7\u0dd2\u0db8\u0ddd\u0dbb\u0dba","alt_name:ru":"\u0422\u0438\u043c\u043e\u0440-\u041b\u0435\u0448\u0442\u0438","name:sg":"Tim\u00f4ro t\u00ee T\u00f6","name:se":"Nuorta-Timor","name:ne":"\u092a\u0943\u0930\u094d\u0935\u0940 \u091f\u0940\u092e\u094b\u0930","name:br":"Timor ar Reter","name:bs":"Isto\u010dni Timor","name:bm":"K\u0254r\u0254n Tim\u0254r","name:bn":"\u09aa\u09c2\u09b0\u09cd\u09ac \u099f\u09bf\u09ae\u09cb\u09b0","name:ml":"\u0d15\u0d3f\u0d34\u0d15\u0d4d\u0d15\u0d7b \u0d24\u0d3f\u0d2e\u0d4b\u0d7c","name:sw":"Timori Mashariki","name:be":"\u0423\u0441\u0445\u043e\u0434\u043d\u0456 \u0422\u044b\u043c\u043e\u0440","name:bg":"\u0418\u0437\u0442\u043e\u0447\u0435\u043d \u0422\u0438\u043c\u043e\u0440","name:sr":"\u0418\u0441\u0442\u043e\u0447\u043d\u0438 \u0422\u0438\u043c\u043e\u0440","name:ga":"An T\u00edom\u00f3r Thoir","name:gd":"Tiomor an Ear","name:fa":"\u062a\u06cc\u0645\u0648\u0631 \u0634\u0631\u0642\u06cc","name:yo":"Or\u00edl\u1eb9\u0301\u00e8de \u00ccl\u00e0O\u00f2r\u00f9n T\u00edm\u1ecd\u0300","name:ak":"Tim\u0254 Boka"},"coordinates":[3040,3936]},{"type":"Point","properties":{"source":"naturalearthdata.com","kind":"locality","name":"Dili","country_capital":true,"population":234331,"min_zoom":5.0,"id":6822},"coordinates":[2664,3871]}]},"transit":{"type":"GeometryCollection","geometries":[]},"pois":{"type":"GeometryCollection","geometries":[]},"boundaries":{"type":"GeometryCollection","geometries":[{"type":"MultiLineString","properties":{"source":"naturalearthdata.com","kind":"country","sort_rank":262,"kind_detail":"2","min_zoom":0.0,"id":154},"arcs":[[0],[1],[2],[3]]},{"type":"MultiLineString","properties":{"source":"naturalearthdata.com","kind":"country","sort_rank":262,"kind_detail":"2","min_zoom":0.0,"id":155},"arcs":[[4],[5],[6],[7],[8],[9],[10]]},{"type":"LineString","properties":{"source":"naturalearthdata.com","kind":"region","name":"Aileu - Liquica","sort_rank":256,"kind_detail":"4","min_zoom":7.0,"id":1391},"arcs":[11]},{"type":"MultiLineString","properties":{"source":"naturalearthdata.com","kind":"region","name":"Cova Lima - Bobonaro","sort_rank":256,"kind_detail":"4","min_zoom":7.0,"id":1400},"arcs":[[12],[13],[14],[15]]},{"type":"LineString","properties":{"source":"naturalearthdata.com","kind":"region","name":"Ainaro - Bobonaro","sort_rank":256,"kind_detail":"4","min_zoom":7.0,"id":1401},"arcs":[16]},{"type":"LineString","properties":{"source":"naturalearthdata.com","kind":"region","name":"Ainaro - Ermera","sort_rank":256,"kind_detail":"4","min_zoom":7.0,"id":1402},"arcs":[17]},{"type":"LineString","properties":{"source":"naturalearthdata.com","kind":"region","sort_rank":256,"kind_detail":"4","min_zoom":7.0,"id":68},"arcs":[18]},{"type":"LineString","properties":{"source":"naturalearthdata.com","kind":"region","sort_rank":256,"kind_detail":"4","min_zoom":7.0,"id":69},"arcs":[19]},{"type":"LineString","properties":{"source":"naturalearthdata.com","kind":"region","sort_rank":256,"kind_detail":"4","min_zoom":7.0,"id":70},"arcs":[20]},{"type":"LineString","properties":{"source":"naturalearthdata.com","kind":"region","sort_rank":256,"kind_detail":"4","min_zoom":7.0,"id":72},"arcs":[21]},{"type":"LineString","properties":{"source":"naturalearthdata.com","kind":"region","sort_rank":256,"kind_detail":"4","min_zoom":7.0,"id":73},"arcs":[22]},{"type":"MultiLineString","properties":{"source":"naturalearthdata.com","kind":"region","name":"Viqueque - Manatuto","sort_rank":256,"kind_detail":"4","min_zoom":7.0,"id":1397},"arcs":[[23],[24]]},{"type":"MultiLineString","properties":{"source":"naturalearthdata.com","kind":"region","name":"Aileu - Ainaro","sort_rank":256,"kind_detail":"4","min_zoom":7.0,"id":1403},"arcs":[[25],[26]]},{"type":"MultiLineString","properties":{"source":"naturalearthdata.com","kind":"region","name":"Ainaro - Cova Lima","sort_rank":256,"kind_detail":"4","min_zoom":7.0,"id":1404},"arcs":[[27],[28]]},{"type":"MultiLineString","properties":{"source":"naturalearthdata.com","kind":"region","name":"Manufahi - Aileu","sort_rank":256,"kind_detail":"4","min_zoom":7.0,"id":1405},"arcs":[[29],[30]]},{"type":"LineString","properties":{"source":"naturalearthdata.com","kind":"region","name":"Manatuto - Manufahi","sort_rank":256,"kind_detail":"4","min_zoom":7.0,"id":1406},"arcs":[31]},{"type":"MultiLineString","properties":{"source":"naturalearthdata.com","kind":"region","name":"Manufahi - Ainaro","sort_rank":256,"kind_detail":"4","min_zoom":7.0,"id":1407},"arcs":[[32],[33],[34]]},{"type":"LineString","properties":{"source":"naturalearthdata.com","kind":"region","name":"Liquica - Dili","sort_rank":256,"kind_detail":"4","min_zoom":7.0,"id":1386},"arcs":[35]},{"type":"MultiLineString","properties":{"source":"naturalearthdata.com","kind":"region","name":"Bobonaro - Liquica","sort_rank":256,"kind_detail":"4","min_zoom":7.0,"id":1387},"arcs":[[36],[37]]},{"type":"MultiLineString","properties":{"source":"naturalearthdata.com","kind":"region","name":"Liquica - Ermera","sort_rank":256,"kind_detail":"4","min_zoom":7.0,"id":1388},"arcs":[[38],[39]]},{"type":"MultiLineString","properties":{"source":"naturalearthdata.com","kind":"region","name":"Ermera - Bobonaro","sort_rank":256,"kind_detail":"4","min_zoom":7.0,"id":1389},"arcs":[[40],[41]]},{"type":"MultiLineString","properties":{"source":"naturalearthdata.com","kind":"region","name":"Dili - Aileu","sort_rank":256,"kind_detail":"4","min_zoom":7.0,"id":1390},"arcs":[[42],[43],[44],[45]]},{"type":"LineString","properties":{"source":"naturalearthdata.com","kind":"region","name":"Ermera - Aileu","sort_rank":256,"kind_detail":"4","min_zoom":7.0,"id":1392},"arcs":[46]},{"type":"MultiLineString","properties":{"source":"naturalearthdata.com","kind":"region","name":"Baucau - Viqueque","sort_rank":256,"kind_detail":"4","min_zoom":7.0,"id":1393},"arcs":[[47],[48],[49],[50],[51],[52],[53]]},{"type":"LineString","properties":{"source":"naturalearthdata.com","kind":"region","name":"Dili - Manatuto","sort_rank":256,"kind_detail":"4","min_zoom":7.0,"id":1394},"arcs":[54]},{"type":"LineString","properties":{"source":"naturalearthdata.com","kind":"region","name":"Aileu - Manatuto","sort_rank":256,"kind_detail":"4","min_zoom":7.0,"id":1395},"arcs":[55]},{"type":"LineString","properties":{"source":"naturalearthdata.com","kind":"region","name":"Manatuto - Baucau","sort_rank":256,"kind_detail":"4","min_zoom":7.0,"id":1396},"arcs":[56]}]},"roads":{"type":"GeometryCollection","geometries":[{"type":"LineString","properties":{"source":"naturalearthdata.com","kind":"highway","sort_rank":355,"kind_detail":"trunk","min_zoom":6.0,"id":11065},"arcs":[67]},{"type":"LineString","properties":{"source":"naturalearthdata.com","kind":"highway","sort_rank":355,"kind_detail":"trunk","min_zoom":6.0,"id":11066},"arcs":[68]},{"type":"LineString","properties":{"source":"naturalearthdata.com","kind":"minor_road","sort_rank":355,"kind_detail":"tertiary","min_zoom":6.0,"id":43310},"arcs":[69]},{"type":"LineString","properties":{"source":"naturalearthdata.com","kind":"minor_road","sort_rank":355,"kind_detail":"tertiary","min_zoom":6.0,"id":43320},"arcs":[70]},{"type":"LineString","properties":{"source":"naturalearthdata.com","kind":"major_road","sort_rank":379,"kind_detail":"secondary","min_zoom":3.0,"id":43333},"arcs":[71]},{"type":"LineString","properties":{"source":"naturalearthdata.com","kind":"major_road","sort_rank":379,"kind_detail":"secondary","min_zoom":3.0,"id":43341},"arcs":[72]},{"type":"LineString","properties":{"source":"naturalearthdata.com","kind":"minor_road","sort_rank":355,"kind_detail":"tertiary","min_zoom":6.0,"id":43404},"arcs":[73]},{"type":"LineString","properties":{"source":"naturalearthdata.com","kind":"minor_road","sort_rank":355,"kind_detail":"tertiary","min_zoom":6.0,"id":43405},"arcs":[74]},{"type":"LineString","properties":{"source":"naturalearthdata.com","kind":"major_road","sort_rank":379,"kind_detail":"secondary","min_zoom":3.0,"id":43416},"arcs":[75]},{"type":"LineString","properties":{"source":"naturalearthdata.com","kind":"minor_road","sort_rank":355,"kind_detail":"tertiary","min_zoom":6.0,"id":43430},"arcs":[76]},{"type":"LineString","properties":{"source":"naturalearthdata.com","kind":"minor_road","sort_rank":355,"kind_detail":"tertiary","min_zoom":7.0,"id":43431},"arcs":[77]},{"type":"LineString","properties":{"source":"naturalearthdata.com","kind":"major_road","sort_rank":379,"kind_detail":"secondary","min_zoom":3.0,"id":43437},"arcs":[78]},{"type":"LineString","properties":{"source":"naturalearthdata.com","kind":"minor_road","sort_rank":355,"kind_detail":"tertiary","min_zoom":6.0,"id":43451},"arcs":[79]},{"type":"LineString","properties":{"source":"naturalearthdata.com","kind":"major_road","sort_rank":379,"kind_detail":"secondary","min_zoom":3.0,"id":43472},"arcs":[80]},{"type":"LineString","properties":{"source":"naturalearthdata.com","kind":"major_road","sort_rank":379,"kind_detail":"secondary","min_zoom":3.0,"id":43538},"arcs":[81]},{"type":"LineString","properties":{"source":"naturalearthdata.com","kind":"major_road","sort_rank":379,"kind_detail":"secondary","min_zoom":3.0,"id":43556},"arcs":[82]},{"type":"LineString","properties":{"source":"naturalearthdata.com","kind":"major_road","sort_rank":379,"kind_detail":"secondary","min_zoom":3.0,"id":43561},"arcs":[83]}]},"earth":{"type":"GeometryCollection","geometries":[{"type":"MultiPolygon","properties":{"sort_rank":10,"source":"naturalearthdata.com","min_zoom":0.0,"kind":"earth","area":35754664358},"arcs":[[[84]],[[85]],[[86]],[[87]]]},{"type":"Point","properties":{"label_placement":true,"kind":"island","name":"Timor","area":29475700736,"source":"openstreetmap.org","min_zoom":7.0,"id":-3987443,"osm_relation":true},"coordinates":[1290,2706]}]},"landuse":{"type":"GeometryCollection","geometries":[]}},"type":"Topology","transform":{"translate":[123.75,-11.1784018737],"scale":[0.0006866455,0.0006765707]},"arcs":[[[739,2479],[6,5],[18,4],[28,3],[25,6],[19,13],[13,20],[2,14],[-7,26],[0,10],[5,11],[14,20],[5,11],[4,44],[9,15],[6,3],[6,1],[14,7],[43,37],[28,37],[6,5],[4,6],[6,13],[7,52],[22,81],[-2,30]],[[408,2714],[47,-82],[41,-35],[44,-8]],[[652,2668],[19,-8],[22,-19],[16,-20],[15,-24],[10,-26],[5,-24],[-1,-11],[-5,-27],[0,-8],[5,-19],[1,-3]],[[540,2589],[19,11],[29,41],[20,16],[23,10],[21,1]],[[1703,3276],[5,-36],[-20,-50],[-2,-26],[8,-22],[12,-19],[17,-13],[22,-6]],[[1947,3240],[7,-3],[5,-10],[11,-9],[27,-16],[26,-19],[22,-24],[12,-29],[-1,-32],[-24,-93],[2,-14],[7,-15],[2,-9],[2,-7],[-5,-14],[-12,-6]],[[1745,3104],[26,2],[19,7],[37,25],[69,30],[20,17],[4,11],[7,29],[5,8],[15,7]],[[1928,2907],[-21,2],[-9,5],[-17,20],[-10,8],[-10,2],[-30,1]],[[1831,2945],[-48,-9],[-24,-29],[-5,-44],[8,-51],[9,-26],[10,-17],[35,-31],[30,-19],[9,-10],[2,-9],[-3,-24],[1,-10],[33,-52],[7,-22],[15,-90]],[[2028,2940],[-36,3]],[[1992,2943],[-16,-2],[-22,-12],[-13,-13],[-13,-9]],[[2566,3781],[-16,-27],[-9,-17]],[[2418,3169],[-38,-9],[-34,-29],[-7,-39],[-5,-54],[-15,-29]],[[2319,3009],[-48,2]],[[2271,3011],[-25,-6],[39,-50],[-11,-45],[-82,-12]],[[2192,2898],[-54,5],[-7,20],[-10,15],[-21,12],[-49,15],[-8,2]],[[2422,3246],[-1,-40],[-3,-37]],[[2531,3433],[7,-13],[-4,-38],[-27,-23],[-10,-25],[-17,-20],[-14,-20],[-1,-35],[-43,-13]],[[2534,3858]],[[3027,3972]],[[3483,3955]],[[2531,2864]],[[2796,2934]],[[3481,3691],[-13,5],[-29,4]],[[3439,3700],[-28,-19],[-18,-47],[-16,-38],[-27,-18],[-19,-25],[-5,-29],[34,-53],[31,-57],[1,-32],[6,-31],[16,-44],[25,-37],[38,-48],[1,-2]],[[2803,3563],[24,-5],[-4,-35]],[[2531,3433],[6,1],[69,10],[47,17],[30,36],[9,27],[32,8],[18,12],[18,12],[43,7]],[[2420,3170],[19,-22],[10,-22],[21,-10],[15,-37],[5,-57],[19,-23],[33,-9],[23,-13],[-23,-73],[-11,-40]],[[2418,3169],[2,1]],[[2993,3585],[-38,3]],[[2955,3588],[-24,-8],[-27,-26],[-53,-28],[-28,-3]],[[2993,3585],[1,-5],[-10,-82],[17,-67],[44,-37],[45,-24],[50,-25],[34,-41],[23,-36],[64,-37],[62,-45],[20,-33],[3,-18]],[[2823,3523],[0,-2],[-13,-58],[-6,-36],[-1,-27],[-4,-42],[-22,-15]],[[2777,3343],[-48,1]],[[2729,3344],[-34,-18],[-5,-28],[-12,-28],[-12,-21],[-2,-28],[3,-49],[21,-34],[43,-19],[36,-18],[22,-20],[12,-33],[-9,-23],[-10,-26],[10,-55],[4,-10]],[[2566,3781],[-21,16],[-9,47],[-2,14]],[[2028,3580],[-29,13],[-28,11],[-1,0]],[[2081,3583],[-10,-3],[-43,0]],[[2502,3739],[39,-2]],[[2081,3583],[70,15],[67,26],[38,21],[70,14],[59,11],[26,20],[39,31],[52,18]],[[2081,3583],[11,-26],[54,-11],[23,-11],[18,-30],[41,-80],[41,-84],[7,-29],[5,-44],[15,-36]],[[2296,3232],[91,4],[35,10]],[[2834,3863],[56,-4],[40,-23]],[[2579,3771],[57,9],[47,15],[35,8],[49,27],[67,33]],[[2930,3836],[3,0]],[[2566,3781],[13,-10]],[[2531,3433],[-12,23],[-7,27],[-39,19],[-21,22],[24,30],[11,32],[-23,24],[3,18],[47,16],[32,18],[16,46],[-14,29],[-7,0]],[[3940,3800],[28,-28],[25,-64],[39,-20]],[[3906,3654],[25,19],[-5,44],[4,45],[10,38]],[[3759,3700],[63,-14],[47,-17],[37,-15]],[[3618,3669],[69,26],[72,5]],[[4092,3698],[4,-1]],[[4032,3688],[60,10]],[[3481,3691],[59,-20],[78,-2]],[[2933,3836],[36,11],[32,40],[29,21],[23,31],[-26,33]],[[2993,3585],[-6,70],[-22,53],[-21,30],[-20,48],[9,50]],[[3481,3691],[30,29],[17,23],[10,33],[-3,48],[-4,45],[-5,34],[-15,29],[-28,23]],[[4096,3472],[0,-3472],[-4096,0],[0,1206],[10,3],[31,3],[13,-15],[18,-9],[39,16],[155,102],[127,20],[20,8],[14,19],[8,20],[13,16],[30,6],[13,13],[30,61],[21,18],[17,0],[29,-10],[16,-2],[47,10],[109,11],[159,-6],[55,10],[48,25],[69,51],[16,23],[21,19],[24,70],[28,31],[70,42],[48,45],[54,39],[82,45],[19,20],[16,52],[129,152],[40,35],[140,92],[13,19],[10,106],[22,61],[42,43],[45,31],[0,1],[51,36],[25,25],[25,16],[28,8],[68,5],[21,8],[16,12],[16,18],[27,41],[17,21],[41,17],[75,63],[52,32],[159,60],[93,35],[30,17],[30,23],[24,6],[74,-11],[27,0],[93,53],[31,8],[60,0],[17,6],[32,27],[16,8],[29,2],[86,-13],[27,9],[146,101],[108,75],[24,10],[40,17],[385,50],[62,17],[51,46],[53,91],[27,31]],[[1490,4096],[2606,0],[0,-111],[-20,-7],[-54,52],[-21,7],[-34,2],[-33,7],[-31,13],[-27,19],[-15,-7],[-29,0],[-16,-3],[-49,-27],[-46,-14],[-64,-45],[-30,-16],[-59,-8],[-65,-1],[-20,-2],[-12,-2],[-62,-20],[-32,-6],[-39,4],[-58,29],[-152,27],[-69,-4],[-171,-56],[-79,-13],[-43,1],[-27,12],[-40,-41],[-17,0],[-37,11],[-36,-5],[-79,-36],[-29,-6],[-96,6],[-30,-3],[-96,-28],[-43,-26],[-17,-4],[-53,8],[-12,-3],[-28,-15],[-66,-11],[-29,-9],[-24,-21],[-19,-30],[-13,-34],[-8,-132],[-6,-26],[-22,-19],[-65,-24],[-13,-13],[-7,-23],[-70,-108],[-31,-30],[-50,-29],[-32,-19],[-40,-29],[-43,-10],[-22,-10],[-53,-16],[-31,-36],[-14,-7],[-97,-29],[-5,-3],[-6,-8],[-16,-36],[-2,-12],[-5,-8],[-93,-64],[-60,-22],[-66,-10],[-75,-2],[-23,-2],[-37,-2],[-29,-5],[-12,-17],[-16,-8],[-143,-28],[-97,-30],[-44,-20],[-14,-15],[-32,-46],[-18,-10],[-26,-3],[-117,-47],[-27,-8],[-29,-3],[-27,-6],[-18,-15],[-30,-40],[-67,-60],[-8,-11],[-17,-10],[-47,-70],[-7,-2],[-17,3],[-7,-1],[-8,-7],[-14,-18],[-8,-7],[-18,-6],[-12,-2],[-10,-3],[-15,-13],[-40,-61],[-9,-7],[0,1721],[279,0],[-15,-28],[-9,-6],[-18,-18],[-8,-18],[20,-9],[15,1],[11,3],[55,30],[33,11],[28,0],[12,-19],[7,-20],[28,-38],[6,-28],[-5,-56],[12,-18],[37,-7],[33,3],[32,8],[29,14],[22,16],[20,25],[19,33],[14,35],[11,63],[11,23],[177,0],[-6,-9],[7,-24],[11,-14],[7,-15],[9,-11],[19,-6],[5,3],[25,14],[9,3],[15,-6],[16,-20],[14,-4],[14,5],[10,10],[8,10],[8,5],[8,3],[37,18],[14,4],[9,1],[27,-5],[9,-4],[17,-14],[9,-3],[7,2],[14,7],[25,5],[30,14],[29,7],[33,19],[10,5],[84,0],[31,-4],[60,2],[10,2]],[[0,1659],[21,-28],[-21,-31],[0,59]],[[279,4096],[-15,-28],[-9,-6],[-18,-18],[-8,-18],[20,-9],[15,1],[11,3],[55,30],[33,11],[28,0],[12,-19],[7,-20],[28,-38],[6,-28],[-5,-56],[12,-18],[37,-7],[33,3],[32,8],[29,14],[22,16],[20,25],[19,33],[14,35],[11,63],[11,23]],[[856,4096],[-6,-9],[7,-24],[11,-14],[7,-15],[9,-11],[19,-6],[5,3],[25,14],[9,3],[15,-6],[16,-20],[14,-4],[14,5],[10,10],[8,10],[8,5],[8,3],[37,18],[14,4],[9,1],[27,-5],[9,-4],[17,-14],[9,-3],[7,2],[14,7],[25,5],[30,14],[29,7],[33,19],[10,5]],[[1389,4096],[31,-4],[60,2],[10,2]],[[1043,2955],[-23,-2],[-37,-2],[-29,-5],[-12,-17],[-16,-8],[-143,-28],[-97,-30],[-44,-20],[-14,-15],[-32,-46],[-18,-10],[-26,-3],[-117,-47],[-27,-8],[-29,-3],[-27,-6],[-18,-15],[-30,-40],[-67,-60],[-8,-11],[-17,-10],[-47,-70],[-7,-2],[-17,3],[-7,-1],[-8,-7],[-14,-18],[-8,-7],[-18,-6],[-12,-2],[-10,-3],[-15,-13],[-40,-61],[-9,-7]],[[0,1659],[21,-28],[-21,-31]],[[0,1206],[10,3],[31,3],[13,-15],[18,-9],[39,16],[155,102],[127,20],[20,8],[14,19],[8,20],[13,16],[30,6],[13,13],[30,61],[21,18],[17,0],[29,-10],[16,-2],[47,10],[109,11],[159,-6],[55,10],[48,25],[69,51],[16,23],[21,19],[24,70],[28,31],[70,42],[48,45],[54,39],[82,45],[19,20],[16,52],[129,152],[40,35],[140,92],[13,19],[10,106],[22,61],[42,43],[45,31],[0,1],[51,36],[25,25],[25,16],[28,8],[68,5],[21,8],[16,12],[16,18],[27,41],[17,21],[41,17],[75,63],[52,32],[159,60],[93,35],[30,17],[30,23],[24,6],[74,-11],[27,0],[93,53],[31,8],[60,0],[17,6],[32,27],[16,8],[29,2],[86,-13],[27,9],[146,101],[108,75],[24,10],[40,17],[385,50],[62,17],[51,46],[53,91],[27,31]],[[4096,3985],[-20,-7],[-54,52],[-21,7],[-34,2],[-33,7],[-31,13],[-27,19],[-15,-7],[-29,0],[-16,-3],[-49,-27],[-46,-14],[-64,-45],[-30,-16],[-59,-8],[-65,-1],[-20,-2],[-12,-2],[-62,-20],[-32,-6],[-39,4],[-58,29],[-152,27],[-69,-4],[-171,-56],[-79,-13],[-43,1],[-27,12],[-40,-41],[-17,0],[-37,11],[-36,-5],[-79,-36],[-29,-6],[-96,6],[-30,-3],[-96,-28],[-43,-26],[-17,-4],[-53,8],[-12,-3],[-28,-15],[-66,-11],[-29,-9],[-24,-21],[-19,-30],[-13,-34],[-8,-132],[-6,-26],[-22,-19],[-65,-24],[-13,-13],[-7,-23],[-70,-108],[-31,-30],[-50,-29],[-32,-19],[-40,-29],[-43,-10],[-22,-10],[-53,-16],[-31,-36],[-14,-7],[-97,-29],[-5,-3],[-6,-8],[-16,-36],[-2,-12],[-5,-8],[-93,-64],[-60,-22],[-66,-10],[-75,-2]],[[3773,3404],[57,-62],[46,-24],[54,14],[28,40],[45,122],[93,21]],[[3389,3307],[43,28],[94,-19],[81,14],[87,55],[79,19]],[[4096,3962],[-14,0],[-42,12],[-42,24],[-60,19],[-18,0]],[[3920,4017],[-24,0],[-48,-25],[-18,-12],[-156,-12],[-49,-24],[-54,0],[-96,-37],[-36,-6],[-60,0],[-72,12],[-48,18]],[[2520,3834],[36,24],[30,-18],[36,12],[48,-12],[54,6],[61,18],[72,19],[60,18],[84,43],[48,30],[72,-12],[36,-12],[102,-19]],[[2520,3834],[-18,6],[-102,-6],[-60,-12],[-60,-31],[-36,-6],[-84,-6],[-54,-6]],[[3776,3401],[18,-6],[36,-55],[48,-24],[24,0],[30,18],[24,37],[30,91],[18,30],[42,19],[50,4]],[[3391,3310],[42,24],[36,0],[54,-18],[24,0],[60,12],[55,30],[30,25],[24,12],[60,6]],[[2274,3194],[66,-6],[12,6],[12,30],[-6,43],[6,24],[30,55],[6,61],[18,37],[18,103],[-6,49],[0,31],[-12,54],[0,13],[60,73],[42,67]],[[3391,3310],[-36,-49],[-66,0],[-18,-12],[-12,-31],[0,-36],[-12,-13],[-36,0],[-48,0],[-60,25],[-42,24],[-36,12],[-42,-24],[-42,-49],[-12,-55],[18,-42],[6,-31],[-12,-18],[-36,-24],[-48,-7],[-24,25],[-24,61],[-36,12],[-24,-12],[-37,-25],[-48,-12],[-66,-30],[-48,-55],[-18,-6],[-54,6],[-30,-12]],[[2274,3194],[36,-61],[48,-55],[66,-49],[18,-30],[-6,-31],[12,-36]],[[1595,2840],[30,147],[18,79],[-18,18],[-24,12],[-42,43],[-6,36],[6,13],[30,18],[96,30],[66,37],[18,6],[36,-18],[30,-6],[61,18],[36,6],[30,-6],[60,-30],[30,-13],[60,-6],[24,-12],[12,-12],[54,-6],[42,-19],[30,19]],[[2448,2932],[-42,-37],[-90,-55],[-48,-55],[-30,-24],[-36,-24],[-48,-7],[-72,-36],[-84,0],[-30,6],[-18,24],[-12,55]],[[1037,2566],[30,-31],[18,-12],[24,6],[48,31],[42,12],[30,0],[90,-24],[60,12],[30,18],[36,49],[66,43],[18,30],[24,24],[24,43],[18,73]],[[1037,2566],[-6,-18],[6,-49],[18,-61],[0,-37],[-18,-73],[18,-55],[18,-116],[30,-67],[12,-30],[-6,-31],[-18,-24],[-78,-30],[-36,-7],[-73,-24],[-72,-30],[-36,0],[-48,12],[-30,-6],[-36,-19],[-24,-24],[-48,-24],[-42,-86],[-18,-12],[-24,-6],[-120,0]],[[100,1566],[18,0],[48,43],[36,42],[30,13],[54,6],[24,6],[36,24]],[[0,1561],[21,11],[79,-6]],[[4096,3985],[0,-513],[-27,-31],[-53,-91],[-51,-46],[-62,-17],[-385,-50],[-40,-17],[-24,-10],[-108,-75],[-146,-101],[-27,-9],[-86,13],[-29,-2],[-16,-8],[-32,-27],[-17,-6],[-60,0],[-31,-8],[-93,-53],[-27,0],[-74,11],[-24,-6],[-30,-23],[-30,-17],[-93,-35],[-159,-60],[-52,-32],[-75,-63],[-41,-17],[-17,-21],[-27,-41],[-16,-18],[-16,-12],[-21,-8],[-68,-5],[-28,-8],[-25,-16],[-25,-25],[-51,-36],[0,-1],[-45,-31],[-42,-43],[-22,-61],[-10,-106],[-13,-19],[-140,-92],[-40,-35],[-129,-152],[-16,-52],[-19,-20],[-82,-45],[-54,-39],[-48,-45],[-70,-42],[-28,-31],[-24,-70],[-21,-19],[-16,-23],[-69,-51],[-48,-25],[-55,-10],[-159,6],[-109,-11],[-47,-10],[-16,2],[-29,10],[-17,0],[-21,-18],[-30,-61],[-13,-13],[-30,-6],[-13,-16],[-8,-20],[-14,-19],[-20,-8],[-127,-20],[-155,-102],[-39,-16],[-18,9],[-13,15],[-31,-3],[-10,-3],[0,394],[21,31],[-21,28],[0,716],[9,7],[40,61],[15,13],[10,3],[12,2],[18,6],[8,7],[14,18],[8,7],[7,1],[17,-3],[7,2],[47,70],[17,10],[8,11],[67,60],[30,40],[18,15],[27,6],[29,3],[27,8],[117,47],[26,3],[18,10],[32,46],[14,15],[44,20],[97,30],[143,28],[16,8],[12,17],[29,5],[37,2],[23,2],[75,2],[66,10],[60,22],[93,64],[5,8],[2,12],[16,36],[6,8],[5,3],[97,29],[14,7],[31,36],[53,16],[22,10],[43,10],[40,29],[32,19],[50,29],[31,30],[70,108],[7,23],[13,13],[65,24],[22,19],[6,26],[8,132],[13,34],[19,30],[24,21],[29,9],[66,11],[28,15],[12,3],[53,-8],[17,4],[43,26],[96,28],[30,3],[96,-6],[29,6],[79,36],[36,5],[37,-11],[17,0],[40,41],[27,-12],[43,-1],[79,13],[171,56],[69,4],[152,-27],[58,-29],[39,-4],[32,6],[62,20],[12,2],[20,2],[65,1],[59,8],[30,16],[64,45],[46,14],[49,27],[16,3],[29,0],[15,7],[27,-19],[31,-13],[33,-7],[34,-2],[21,-7],[54,-52],[20,7]],[[279,4096],[400,0],[-11,-23],[-11,-63],[-14,-35],[-19,-33],[-20,-25],[-22,-16],[-29,-14],[-32,-8],[-33,-3],[-37,7],[-12,18],[5,56],[-6,28],[-28,38],[-7,20],[-12,19],[-28,0],[-33,-11],[-55,-30],[-11,-3],[-15,-1],[-20,9],[8,18],[18,18],[9,6],[15,28]],[[1389,4096],[101,0],[-10,-2],[-60,-2],[-31,4]],[[856,4096],[449,0],[-10,-5],[-33,-19],[-29,-7],[-30,-14],[-25,-5],[-14,-7],[-7,-2],[-9,3],[-17,14],[-9,4],[-27,5],[-9,-1],[-14,-4],[-37,-18],[-8,-3],[-8,-5],[-8,-10],[-10,-10],[-14,-5],[-14,4],[-16,20],[-15,6],[-9,-3],[-25,-14],[-5,-3],[-19,6],[-9,11],[-7,15],[-11,14],[-7,24],[6,9]]]}