{"objects":{"water":{"type":"GeometryCollection","geometries":[{"type":"Polygon","properties":{"source":"naturalearthdata.com","kind":"ocean","area":1576712559132672,"sort_rank":200,"min_zoom":0.0,"id":1},"arcs":[[0],[1],[2]]},{"type":"LineString","properties":{"source":"naturalearthdata.com","kind":"ocean","sort_rank":205,"boundary":true,"min_zoom":0.0,"id":3115},"arcs":[3]}]},"buildings":{"type":"GeometryCollection","geometries":[]},"places":{"type":"GeometryCollection","geometries":[{"type":"Point","properties":{"name:mt":"Tokelaw","name:rn":"Tokelawu","name:mr":"\u0924\u094b\u0915\u0947\u0932\u093e\u0909","name:ko":"\ud1a0\ucf08\ub77c\uc6b0","name:kn":"\u0c9f\u0cca\u0c95\u0cc6\u0cb2\u0cbe\u0cb5\u0ccd","name:km":"\u178f\u17bc\u1781\u17c1\u17a1\u17c5","name:ar":"\u062a\u0648\u0643\u0644\u0648","name:is":"T\u00f3kel\u00e1","name:ti":"\u1276\u12ad\u120b\u12cd","name:am":"\u1276\u12ad\u120b\u12cd","name:ur":"\u0679\u0648\u06a9\u06cc\u0644\u0627\u0624","name:ml":"\u0d1f\u0d4a\u0d15\u0d46\u0d32\u0d3e\u0d35\u0d41","name:or":"\u0b1f\u0b4b\u0b15\u0b47\u0b32\u0b3e\u0b09","name:mn":"\u0422\u043e\u043a\u0435\u043b\u0430\u0443","id":433483572,"name:mk":"\u0422\u043e\u043a\u0435\u043b\u0430\u0443","name:te":"\u0c1f\u0c4b\u0c15\u0c47\u0c32\u0c3e\u0c35\u0c4d","name:fa":"\u062a\u0648\u06a9\u0644\u0627\u0626\u0648","name:ta":"\u0b9f\u0bcb\u0b95\u0bc7\u0bb2\u0bcb","name:eo":"Tokelao","name:ff":"Tokelaaw","kind":"country","name:lo":"\u0ec2\u0e95\u0ec0\u0e81\u0ec0\u0ea5\u0ebb\u0eb2","name:dz":"\u0f4f\u0f7c\u0f0b\u0f40\u0f7a\u0f0b\u0f63\u0f60\u0f74\u0f0b \u0f58\u0f5a\u0f7c\u0f0b\u0f42\u0fb3\u0f72\u0f44","source":"openstreetmap.org","name:fy":"Tokela\u00fb","name:be":"\u0422\u0430\u043a\u0435\u043b\u0430\u045e","name:zh":"\u6258\u514b\u52b3","name:ja":"\u30c8\u30b1\u30e9\u30a6","name:si":"\u0da7\u0ddc\u0d9a\u0dbd\u0dcf\u0dc0\u0dd4","name:hi":"\u0924\u094b\u0915\u0947\u0932\u093e\u0909","name:he":"\u05d8\u05d5\u05e7\u05dc\u05d0\u05d5","name:ne":"\u0924\u094b\u0917\u094b","name:ha":"Takelau","name:bm":"Tokelo","name:bn":"\u099f\u09cb\u0995\u09c7\u09b2\u09be\u0989","name:lg":"Tokelawu","name:uk":"\u0422\u043e\u043a\u0435\u043b\u0430\u0443","name:ru":"\u0422\u043e\u043a\u0435\u043b\u0430\u0443","name:sv":"Tokelau\u00f6arna","min_zoom":2.0,"name:hu":"Tokelau-szigetek","name:sr":"\u0422\u043e\u043a\u0435\u043b\u0430\u0443","population":1411,"name:el":"\u03a4\u03bf\u03ba\u03b5\u03bb\u03ac\u03bf\u03c5","name:ga":"Oile\u00e1in T\u00f3cal\u00e1","name":"Tokelau","name:zu":"i-Tokelau","name:mg":"Tokelao","name:ee":"Tokelau nutome","name:th":"\u0e42\u0e15\u0e40\u0e01\u0e40\u0e25\u0e32","name:gu":"\u0a9f\u0acb\u0a95\u0ac7\u0ab2\u0abe\u0a89","name:bg":"\u0422\u043e\u043a\u0435\u043b\u0430\u0443","name:ks":"\u062a\u0648\u06a9\u06cc\u0644\u0627\u0648","name:yo":"Or\u00edl\u1eb9\u0301\u00e8de Tokelau"},"coordinates":[3721,2972]}]},"transit":{"type":"GeometryCollection","geometries":[]},"pois":{"type":"GeometryCollection","geometries":[]},"boundaries":{"type":"GeometryCollection","geometries":[]},"roads":{"type":"GeometryCollection","geometries":[]},"earth":{"type":"GeometryCollection","geometries":[{"type":"MultiPolygon","properties":{"sort_rank":10,"source":"naturalearthdata.com","min_zoom":0.0,"kind":"earth","area":6318437},"arcs":[[[4]]]}]},"landuse":{"type":"GeometryCollection","geometries":[]}},"type":"Topology","transform":{"translate":[-174.375,-11.1784018737],"scale":[0.0006866455,0.0006765707]},"arcs":[[[4096,0],[-4096,0],[0,4096],[4096,0],[0,-4096]],[[3687,2985],[-6,10],[0,-7],[8,-18],[3,-3],[-5,18]],[[2743,3882],[-16,13],[11,-17],[13,-16],[3,-23],[1,-8],[6,18],[-6,17],[-12,16]],[[2751,3862],[-13,16],[-11,17],[16,-13],[12,-16],[6,-17],[-6,-18],[-1,8],[-3,23]],[[2761,3849],[-6,-18],[-1,8],[-3,23],[-13,16],[-11,17],[16,-13],[12,-16],[6,-17]]]}