{"objects":{"water":{"type":"GeometryCollection","geometries":[{"type":"Polygon","properties":{"kind":"lake","name":"Syvash","area":4844373504,"sort_rank":200,"alkaline":true,"source":"naturalearthdata.com","min_zoom":0.0,"id":38},"arcs":[[35]]},{"type":"Polygon","properties":{"kind":"lake","name":"Kakhovka Reservoir","reservoir":true,"area":5128753664,"sort_rank":200,"source":"naturalearthdata.com","min_zoom":0.0,"id":103},"arcs":[[36]]},{"type":"MultiPolygon","properties":{"source":"naturalearthdata.com","kind":"ocean","area":1444195503964160,"sort_rank":200,"min_zoom":0.0,"id":1},"arcs":[[[37]],[[38],[39]]]},{"type":"Polygon","properties":{"kind":"lake","name":"Kremenchuk Reservoir","reservoir":true,"area":4643000832,"sort_rank":200,"source":"naturalearthdata.com","min_zoom":0.0,"id":104},"arcs":[[40]]},{"type":"Point","properties":{"label_placement":true,"kind":"lake","name":"Kakhovka Reservoir","reservoir":true,"area":5128753664,"sort_rank":200,"source":"naturalearthdata.com","min_zoom":0.0,"id":103},"coordinates":[2107,1760]},{"type":"Point","properties":{"label_placement":true,"kind":"lake","name":"Syvash","area":4844373504,"sort_rank":200,"alkaline":true,"source":"naturalearthdata.com","min_zoom":0.0,"id":38},"coordinates":[2247,1324]},{"type":"Point","properties":{"label_placement":true,"kind":"lake","name":"Kremenchuk Reservoir","reservoir":true,"area":4643000832,"sort_rank":200,"source":"naturalearthdata.com","min_zoom":0.0,"id":104},"coordinates":[1860,2301]},{"type":"LineString","properties":{"source":"naturalearthdata.com","kind":"lake","sort_rank":367,"alkaline":true,"boundary":true,"min_zoom":0.0,"id":38},"arcs":[41]},{"type":"LineString","properties":{"source":"naturalearthdata.com","kind":"lake","reservoir":true,"sort_rank":367,"boundary":true,"min_zoom":0.0,"id":103},"arcs":[42]},{"type":"LineString","properties":{"source":"naturalearthdata.com","kind":"lake","reservoir":true,"sort_rank":367,"boundary":true,"min_zoom":0.0,"id":104},"arcs":[43]},{"type":"LineString","properties":{"source":"naturalearthdata.com","kind":"ocean","sort_rank":205,"boundary":true,"min_zoom":0.0,"id":639},"arcs":[44]},{"type":"MultiLineString","properties":{"source":"naturalearthdata.com","kind":"ocean","sort_rank":205,"boundary":true,"min_zoom":0.0,"id":1388},"arcs":[[45],[46],[47],[48],[49]]},{"type":"Point","properties":{"label_placement":true,"kind":"sea","name":"Sea of Azov","source":"openstreetmap.org","sort_rank":200,"min_zoom":3.0,"id":305639335},"coordinates":[2506,1402]},{"type":"Point","properties":{"label_placement":true,"kind":"sea","name":"Karkinita Golfo","source":"openstreetmap.org","sort_rank":200,"min_zoom":3.0,"id":4338416556},"coordinates":[1948,1371]},{"type":"Point","properties":{"label_placement":true,"kind":"sea","name":"Black Sea","source":"openstreetmap.org","sort_rank":200,"min_zoom":3.0,"id":4347858678},"coordinates":[2228,671]},{"type":"Point","properties":{"label_placement":true,"kind":"sea","name":"\u041e\u0431\u0438\u0442\u0456\u0447\u043d\u0430 \u0437\u0430\u0442\u043e\u043a\u0430","source":"openstreetmap.org","sort_rank":200,"min_zoom":3.0,"id":4791686387},"coordinates":[2486,1555]},{"type":"Point","properties":{"label_placement":true,"kind":"sea","name":"Perekopa Golfo","source":"openstreetmap.org","sort_rank":200,"min_zoom":3.0,"id":4795417474},"coordinates":[1718,1591]},{"type":"Point","properties":{"label_placement":true,"kind":"sea","name":"\u10d1\u10d0\u10d7\u10e3\u10db\u10d8\u10e1 \u10e7\u10e3\u10e0\u10d4","source":"openstreetmap.org","sort_rank":200,"min_zoom":3.0,"id":4798638637},"coordinates":[3486,186]},{"type":"Point","properties":{"label_placement":true,"kind":"sea","name":"\u041e\u0434\u0435\u0441\u044c\u043a\u0430 \u0437\u0430\u0442\u043e\u043a\u0430","source":"openstreetmap.org","sort_rank":200,"min_zoom":3.0,"id":4820510080},"coordinates":[1515,1526]}]},"buildings":{"type":"GeometryCollection","geometries":[]},"places":{"type":"GeometryCollection","geometries":[{"type":"Point","properties":{"name:pt":"Ucr\u00e2nia","name:ka":"\u10e3\u10d9\u10e0\u10d0\u10d8\u10dc\u10d0","name:mt":"Ukraina","name:ko":"\uc6b0\ud06c\ub77c\uc774\ub098","name:kn":"\u0c89\u0c95\u0ccd\u0cb0\u0cc8\u0ca8\u0ccd","name:km":"\u17a2\u17ca\u17bb\u1799\u1780\u17d2\u179a\u17c2\u1793","name:kl":"Ukraina","name:cs":"Ukrajina","alt_name:eo":"Ukrajno;Ukrainio","name:ki":"Ukraini","name:tr":"Ukrayna","name:ku":"\u00dbkrayna","name:ti":"\u12e9\u12ad\u122c\u1295","name:ks":"\u06cc\u0648\u0657\u0631\u0650\u06a9\u06cc\u0646","name:to":"\u02bbIukuleini","name:tl":"Ukraine","name:sv":"Ukraina","name:or":"\u0b5f\u0b41\u0b15\u0b4d\u0b30\u0b3e\u0b07\u0b28\u0b4d","name:pl":"Ukraina","name:ta":"\u0b89\u0b95\u0bcd\u0bb0\u0bc8\u0ba9\u0bcd","name:tg":"\u0423\u043a\u0440\u0430\u0438\u043d\u0430","name:ca":"Ucra\u00efna","name:te":"\u0c2f\u0c41\u0c15\u0c4d\u0c30\u0c46\u0c28\u0c4d","name:hu":"Ukrajna","name:ro":"Ucraina","name:cy":"Yr Wcr\u00e1in","name:hr":"Ukrajina","name:da":"Ukraine","name:de":"Ukraine","name:dz":"\u0f61\u0f74\u0f0b\u0f40\u0f62\u0f7a\u0f53","source":"openstreetmap.org","name:lv":"Ukraina","name:lt":"Ukraina","name:uz":"Ukraina","name:kk":"\u0423\u043a\u0440\u0430\u0438\u043d\u0430","name:he":"\u05d0\u05d5\u05e7\u05e8\u05d0\u05d9\u05e0\u05d4","kind":"country","name:ur":"\u06cc\u0648\u06a9\u0631\u06cc\u0646","name:lb":"Ukraine","name:la":"Ucraina","name:lg":"Yukurayine","name:hy":"\u0548\u0582\u056f\u0580\u0561\u056b\u0576\u0561","min_zoom":2.0,"name:li":"De Oekra\u00efne","name:ln":"Ikr\u025bni","name:lo":"\u0ea2\u0eb9\u0ec0\u0e84\u0ebc\u0e99","population":45665281,"name:el":"\u039f\u03c5\u03ba\u03c1\u03b1\u03bd\u03af\u03b1","name:eo":"Ukrainujo","name:en":"Ukraine","name":"\u0423\u043a\u0440\u0430\u0457\u043d\u0430","name:ee":"Ukraine nutome","name:th":"\u0e1b\u0e23\u0e30\u0e40\u0e17\u0e28\u0e22\u0e39\u0e40\u0e04\u0e23\u0e19","name:gu":"\u0aaf\u0ac2\u0a95\u0acd\u0ab0\u0ac7\u0aa8","name:eu":"Ukraina","name:et":"Ukraina","name:nl":"Oekra\u00efne","name:es":"Ucrania","name:ia":"Ukraina","name:rm":"Ucraina","name:rn":"Ikerene","name:az":"Ukrayna","name:id":"Ukraina","name:ms":"Ukraine","name:mr":"\u092f\u0942\u0915\u094d\u0930\u0947\u0928","name:ar":"\u0623\u0648\u0643\u0631\u0627\u0646\u064a\u0627","name:my":"\u101a\u1030\u1000\u101b\u102d\u1014\u103a\u1038","name:io":"Ukrainia","int_name":"Ukraine","name:is":"\u00dakra\u00edna","name:am":"\u12e9\u12ad\u122c\u1295","name:it":"Ucraina","name:vi":"Ukraina","name:ru":"\u0423\u043a\u0440\u0430\u0438\u043d\u0430","name:mn":"\u0423\u043a\u0440\u0430\u0439\u043d","id":1648342273,"name:mk":"\u0423\u043a\u0440\u0430\u0438\u043d\u0430","name:af":"Oekra\u00efne","name:zu":"i-Ukraine","name:ha":"Yukaran","name:nn":"Ukraina","name:ff":"Ukereen","name:fi":"Ukraina","name:hi":"\u092f\u0942\u0915\u094d\u0930\u0947\u0928","name:mg":"Okraina","name:fo":"Ukreina","name:fr":"Ukraine","name:fy":"de Oekra\u00efne","name:vo":"Lukray\u00e4n","name:zh":"\u4e4c\u514b\u5170","name:gv":"Yn Ookraan","name:so":"Ukrayn","name:sn":"Ukraine","name:sl":"Ukrajina","name:sk":"Ukrajina","name:ja":"\u30a6\u30af\u30e9\u30a4\u30ca","name:si":"\u0dba\u0dd4\u0d9a\u0dca\u0dbb\u0dda\u0db1\u0dba","name:fa":"\u0627\u0648\u06a9\u0631\u0627\u06cc\u0646","name:sg":"Ukr\u00eani","name:se":"Ukraina","name:ne":"\u092f\u0941\u0915\u094d\u0930\u0947\u0928","name:br":"Ukraina","name:bs":"Ukrajina","name:bm":"Uk\u025br\u025bni","name:bn":"\u0987\u0989\u0995\u09cd\u09b0\u09c7\u0987\u09a8","name:bo":"\u0f61\u0f74\u0f0b\u0f40\u0fb2\u0f53\u0f0d","name:ml":"\u0d09\u0d15\u0d4d\u0d30\u0d48\u0d7b","name:no":"Ukraina","name:sw":"Ukraini","name:be":"\u0423\u043a\u0440\u0430\u0456\u043d\u0430","name:bg":"\u0423\u043a\u0440\u0430\u0439\u043d\u0430","name:sr":"\u0423\u043a\u0440\u0430\u0458\u0438\u043d\u0430","name:sq":"Ukrain\u00eb","name:ga":"An \u00dacr\u00e1in","name:gd":"An \u00d9crain","name:gl":"Ucra\u00edna","name:yo":"Or\u00edl\u1eb9\u0301\u00e8de Ukarini","name:ak":"Ukren"},"coordinates":[1597,2355]},{"type":"Point","properties":{"name:pt":"Rom\u00eania","name:cy":"Rwmania","name:mt":"Rumanija","name:tr":"Romanya","name:kn":"\u0cb0\u0cca\u0cae\u0ccd\u0caf\u0cbe\u0ca8\u0cbf\u0caf\u0cbe","name:km":"\u179a\u17bc\u1798\u17c9\u17b6\u1793\u17b8","name:kl":"Rum\u00e6nia","name:cs":"Rumunsko","alt_name:eo":"Rumanio","name:ki":"Romania","name:ku":"Romanya","name:ti":"\u122e\u121c\u1292\u12eb","name:ks":"\u0631\u0648\u0645\u0627\u0646\u0650\u06cc\u0627","name:to":"Lom\u0113nia","name:sv":"Rum\u00e4nien","name:or":"\u0b30\u0b4b\u0b2e\u0b3e\u0b28\u0b3f\u0b06","name:pl":"Rumunia","name:ta":"\u0bb0\u0bc1\u0bae\u0bc7\u0ba9\u0bbf\u0baf\u0bbe","name:tg":"\u0420\u0443\u043c\u0438\u043d\u0438\u044f","name:ca":"Romania","name:te":"\u0c30\u0c4b\u0c2e\u0c3e\u0c28\u0c3f\u0c2f\u0c3e","name:hu":"Rom\u00e1nia","name:ka":"\u10e0\u10e3\u10db\u10d8\u10dc\u10d4\u10d7\u10d8","source":"openstreetmap.org","name:hr":"Rumunjska","name:da":"Rum\u00e6nien","name:de":"Rum\u00e4nien","name:dz":"\u0f62\u0f7c\u0f0b\u0f58\u0f7a\u0f0b\u0f53\u0f72\u0f0b\u0f61","name:ko":"\ub8e8\ub9c8\ub2c8\uc544","name:lv":"Rum\u0101nija","name:lt":"Rumunija","name:uz":"Ruminiya","name:kk":"\u0420\u0443\u043c\u044b\u043d\u0438\u044f","name:he":"\u05e8\u05d5\u05de\u05e0\u05d9\u05d4","kind":"country","name:ur":"\u0631\u0648\u0645\u0627\u0646\u06cc\u0627","name:lb":"Rum\u00e4nien","name:la":"Romania","name:lg":"Lomaniya","name:uk":"\u0420\u0443\u043c\u0443\u043d\u0456\u044f","name:hy":"\u054c\u0578\u0582\u0574\u056b\u0576\u056b\u0561","min_zoom":2.0,"name:li":"Roemeni\u00eb","name:ln":"Romani","name:lo":"\u0ea5\u0eb9\u0ec0\u0ea1\u0ec0\u0e99\u0e8d","population":21498616,"name:el":"\u03a1\u03bf\u03c5\u03bc\u03b1\u03bd\u03af\u03b1","name:eo":"Rumanujo","name:en":"Romania","name":"Rom\u00e2nia","name:ee":"Romania nutome","name:th":"\u0e1b\u0e23\u0e30\u0e40\u0e17\u0e28\u0e42\u0e23\u0e21\u0e32\u0e40\u0e19\u0e35\u0e22","name:gu":"\u0ab0\u0acb\u0aae\u0abe\u0aa8\u0abf\u0aaf\u0abe","name:eu":"Errumania","name:et":"Rumeenia","name:nl":"Roemeni\u00eb","name:es":"Rumania","name:ia":"Romania","name:rm":"Rumenia","name:rn":"Rumaniya","name:az":"Rum\u0131niya","name:id":"Rumania","name:ms":"Romania","name:mr":"\u0930\u094b\u092e\u093e\u0928\u093f\u092f\u093e","name:ar":"\u0631\u0648\u0645\u0627\u0646\u064a\u0627","name:my":"\u101b\u102d\u102f\u1019\u1031\u1038\u1014\u102e\u1038\u101a\u102c\u1038","name:io":"Rumania","int_name":"Romania","name:is":"R\u00famen\u00eda","name:am":"\u122e\u121c\u1292\u12eb","name:it":"Romania","name:vi":"Romania","name:ru":"\u0420\u0443\u043c\u044b\u043d\u0438\u044f","name:mn":"\u0420\u0443\u043c\u044b\u043d","id":432425064,"name:mk":"\u0420\u043e\u043c\u0430\u043d\u0438\u0458\u0430","name:af":"Roemeni\u00eb","name:zu":"i-Romania","name:ha":"Romaniya","name:nn":"Romania","name:ff":"Rumanii","name:fi":"Romania","name:hi":"\u0930\u094b\u092e\u093e\u0928\u093f\u092f\u093e","name:mg":"Romania","name:fo":"Rumenia","alt_name:vi":"Rumani","name:fr":"Roumanie","name:fy":"Roemeenje","name:vo":"Rum\u00e4n","name:zh":"\u7f57\u9a6c\u5c3c\u4e9a","name:gv":"Yn Romaan","name:so":"Rumaaniya","name:sn":"Romania","name:sl":"Romunija","name:sk":"Rumunsko","name:ja":"\u30eb\u30fc\u30de\u30cb\u30a2","name:si":"\u0dbb\u0dd4\u0db8\u0dda\u0db1\u0dd2\u0dba\u0dcf\u0dc0","name:fa":"\u0631\u0648\u0645\u0627\u0646\u06cc","name:sg":"Ruman\u00efi","name:se":"Rom\u00e1nia","name:ne":"\u0930\u094b\u092e\u093e\u0928\u093f\u092f\u093e","name:br":"Roumania","name:bs":"Rumunija","name:bm":"Rumani","name:bn":"\u09b0\u09c1\u09ae\u09be\u09a8\u09bf\u09af\u09bc\u09be","name:bo":"\u0f62\u0f7c\u0f0b\u0f58\u0f71\u0f0b\u0f53\u0f72\u0f61\u0f0d","name:ml":"\u0d31\u0d41\u0d2e\u0d47\u0d28\u0d3f\u0d2f","name:no":"Romania","name:sw":"Romania","name:be":"\u0420\u0443\u043c\u044b\u043d\u0456\u044f","name:bg":"\u0420\u0443\u043c\u044a\u043d\u0438\u044f","name:sr":"\u0420\u0443\u043c\u0443\u043d\u0438\u0458\u0430","name:sq":"Rumani","name:ga":"An R\u00f3m\u00e1in","name:gd":"R\u00f2mainia","name:gl":"Roman\u00eda","name:yo":"Or\u00edl\u1eb9\u0301\u00e8de Romaniya","name:ak":"Romenia"},"coordinates":[398,1386]},{"type":"Point","properties":{"source":"naturalearthdata.com","kind":"locality","name":"Moscow","country_capital":true,"population":10452000,"min_zoom":2.0,"id":7270},"coordinates":[2751,4090]},{"type":"Point","properties":{"source":"naturalearthdata.com","kind":"locality","name":"Istanbul","population":10061000,"region_capital":true,"min_zoom":2.0,"id":7267},"coordinates":[1185,35]},{"type":"Point","properties":{"name:kg":"Belarusia","name:ka":"\u10d1\u10d4\u10da\u10d0\u10e0\u10e3\u10e1\u10d8","name:ko":"\ubca8\ub77c\ub8e8\uc2a4","name:cv":"\u0411\u0435\u043b\u043e\u0440\u0443\u0441\u0438","name:cu":"\u0411\u0463\u043b\u0430\u0301 \u0420\u043e\u0443\u0301\u0441\u044c","name:kl":"Hvideruslandi","name:cs":"B\u011blorusko","name:ki":"Belarusi","name:kw":"Belarussi","name:tk":"Belarus","name:ku":"Belar\u00fbs","name:ti":"\u1264\u120b\u1229\u1235","name:ks":"\u0628\u06cc\u0644\u0627\u0631\u0648\u0657\u0633","name:to":"Pelelusi","name:tl":"Belarus","name:ce":"\u0411\u0435\u043b\u043e\u0440\u043e\u0441\u0441\u0435","name:ta":"\u0baa\u0bc6\u0bb2\u0bb0\u0bc1\u0bb8\u0bcd","name:tg":"\u0411\u0435\u043b\u043e\u0440\u0443\u0441","name:ca":"Bielor\u00fassia","name:te":"\u0c2c\u0c46\u0c32\u0c3e\u0c30\u0c38\u0c4d","name:cy":"Belarws","name:hr":"Bjelorusija","name:da":"Hviderusland","name:de":"Wei\u00dfrussland","name:dz":"\u0f56\u0f7a\u0f0b\u0f63\u0f0b\u0f62\u0f74\u0f0b\u0f66\u0f74\u0f0d","source":"openstreetmap.org","name:kn":"\u0cac\u0cc6\u0cb2\u0cbe\u0cb0\u0cc1\u0cb8\u0ccd","name:dv":"\u0784\u07ac\u078d\u07a7\u0783\u07aa\u0790\u07b0","name:km":"\u1794\u17c1\u17a1\u17b6\u179a\u17bb\u179f\u17d2\u179f","name:lv":"Baltkrievija","name:lt":"Baltarusija","name:uz":"Belarus","name:ur":"\u0628\u06cc\u0644\u0627\u0631\u0633","name:lb":"W\u00e4issrussland","name:la":"Ruthenia Alba","name:lg":"Belarusi","name:uk":"\u0411\u0456\u043b\u043e\u0440\u0443\u0441\u044c","name:ug":"\u0628\u06d0\u0644\u0648\u0631\u06c7\u0633\u0633\u0649\u064a\u06d5","name:li":"Wit-Rusland","name:ln":"Bielorusia","name:lo":"\u0ec0\u0e9a\u0e99\u0ea5\u0eb2\u0eae\u0eb1\u0eaa","name:el":"\u039b\u03b5\u03c5\u03ba\u03bf\u03c1\u03c9\u03c3\u03af\u03b1","name:eo":"Belorusujo","name:en":"Belarus","name":"\u0411\u0435\u043b\u0430\u0440\u0443\u0441\u044c","name:ee":"Belarus","name:th":"\u0e1b\u0e23\u0e30\u0e40\u0e17\u0e28\u0e40\u0e1a\u0e25\u0e32\u0e23\u0e38\u0e2a","name:eu":"Bielorrusia","name:et":"Valgevene","name:es":"Bielorrusia","name:ia":"Bielorussia","name:rm":"Bielorussia","name:rn":"Belausi","name:az":"Belorusiya","name:ie":"Bielorussia","name:id":"Belarus","name:ar":"\u0628\u064a\u0644\u0627\u0631\u0648\u0633","name:io":"Bielorusia","name:ak":"B\u025blarus","name:am":"\u1264\u120b\u1229\u1235","name:it":"Bielorussia","name:an":"Belarrusia","name:af":"Wit-Rusland","name:de_CH":"Weissrussland","name:zu":"i-Belarus","name:zh-yue":"\u767d\u4fc4\u7f85\u65af","name:zh":"\u767d\u4fc4\u7f57\u65af","name:so":"Belarus","name:sn":"Belarusi","name:sl":"Belorusija","name:sk":"Bielorusko","name:ja":"\u30d9\u30e9\u30eb\u30fc\u30b7","name:si":"\u0db6\u0dd9\u0dbd\u0dbb\u0dd4\u0dc3\u0dca","name:sh":"Belorusija","name:sg":"Belar\u00fcsi","name:se":"Vilges-Ruo\u0161\u0161a","name:sa":"\u092c\u0947\u0932\u093e\u0930\u0942\u0938","name:bs":"Bjelorusija","name:bm":"Belarusi","name:bn":"\u09ac\u09c7\u09b2\u09be\u09b0\u09c1\u09b6","name:bo":"\u0f56\u0f7a\u0f0b\u0f63\u0f74\u0f0b\u0f62\u0f74\u0f0b\u0f66\u0f74\u0f0d","name:br":"Belarus","name:sw":"Belarus","name:sv":"Vitryssland","name:bg":"\u0411\u0435\u043b\u0430\u0440\u0443\u0441","name:sr":"\u0411\u0435\u043b\u043e\u0440\u0443\u0441\u0438\u0458\u0430","name:sq":"Bjellorusia","name:jv":"Belarus","name:pt":"Bielorr\u00fassia","name:ps":"\u0628\u06d0\u0644\u0627\u0631\u0648\u0633\u064a\u0647","name:oc":"Bielorussia","min_zoom":2.0,"name:ro":"Belarus","name:zh-min-nan":"Belarus","name:os":"\u0411\u0435\u043b\u043e\u0440\u0443\u0441\u0441\u0438","name:or":"\u0b2c\u0b47\u0b32\u0b3e\u0b30\u0b41\u0b37\u0b4d","name:pl":"Bia\u0142oru\u015b","name:tr":"Beyaz Rusya","name:hi":"\u092c\u0947\u0932\u093e\u0930\u0942\u0938","name:he":"\u05d1\u05dc\u05d0\u05e8\u05d5\u05e1","name:ha":"Belarus","name:hy":"\u0532\u0565\u056c\u0561\u057c\u0578\u0582\u057d","name:ht":"Byelorisi","name:hu":"Feh\u00e9roroszorsz\u00e1g","name:qu":"Bilarus","population":9689800,"kind":"country","name:is":"Hv\u00edta-R\u00fassland","name:yi":"\u05d1\u05e2\u05dc\u05d0\u05e8\u05d5\u05e1","name:yo":"Or\u00edl\u1eb9\u0301\u00e8de B\u00e9l\u00e1r\u00fas\u00ec","name:mt":"Belarus","alt_name:eo":"Bjelorusujo;Belarusujo;Belorusio","alt_name:en":"Belorussia;Byelorussia","name:ms":"Belarus","name:mr":"\u092c\u0947\u0932\u093e\u0930\u0942\u0938","name:my":"\u1018\u102e\u101c\u102c\u101b\u102f\u1005\u103a","official_name":"\u0420\u044d\u0441\u043f\u0443\u0431\u043b\u0456\u043a\u0430 \u0411\u0435\u043b\u0430\u0440\u0443\u0441\u044c","int_name":"Belaru\u015b","name:mg":"Belarosy","name:ml":"\u0d2c\u0d46\u0d32\u0d3e\u0d31\u0d38\u0d4d","name:vi":"Belarus","id":249399300,"name:mk":"\u0411\u0435\u043b\u043e\u0440\u0443\u0441\u0438\u0458\u0430","name:vo":"Belarus\u00e4n","name:fa":"\u0628\u0644\u0627\u0631\u0648\u0633","name:ff":"Belaruus","name:fi":"Valko-Ven\u00e4j\u00e4","name:fo":"Hv\u00edtarussland","name:fr":"Bi\u00e9lorussie","name:fy":"Wyt-Rusl\u00e2n","name:nl":"Wit-Rusland","name:nn":"Kviterussland","name:no":"Hviterussland","name:na":"Belarus","name:ne":"\u092c\u0947\u0932\u093e\u0930\u0941\u0938","name:wo":"Belaarus","name:ga":"An Bhealar\u00fais","name:gd":"A' Bhealaruis","name:gn":"Vielorrusia","name:gl":"Bielorrusia","name:gv":"Yn Velaroosh","name:gu":"\u0aac\u0ac7\u0ab2\u0abe\u0ab0\u0ac1\u0ab8","name:tt":"\u0411\u0435\u043b\u0430\u0440\u0443\u0441\u0438\u044f"},"coordinates":[946,3445]},{"type":"Point","properties":{"name:pt":"Bulg\u00e1ria","name:ps":"\u0628\u0644\u063a\u0627\u0631\u06cc\u0647","name:ka":"\u10d1\u10e3\u10da\u10d2\u10d0\u10e0\u10d4\u10d7\u10d8","name:mt":"Bulgarija","name:ko":"\ubd88\uac00\ub9ac\uc544","name:kn":"\u0cac\u0cb2\u0ccd\u0c97\u0cc7\u0cb0\u0cbf\u0caf\u0cbe","name:km":"\u1794\u17ca\u17bb\u179b\u17a0\u17d2\u1782\u17b6\u179a\u17b8","name:kl":"Bulgaria","name:cs":"Bulharsko","alt_name:eo":"Bulgario","name:ki":"Bulgaria","name:tr":"Bulgaristan","name:ku":"Bulgaristan","name:ti":"\u1261\u120d\u130c\u122a\u12eb","name:ks":"\u0628\u064e\u0644\u062c\u06cc\u0631\u0650\u06cc\u0627","name:to":"Pokalia","name:tl":"Bulgarya","name:sv":"Bulgarien","name:or":"\u0b2c\u0b41\u0b32\u0b17\u0b47\u0b30\u0b3f\u0b06","name:pl":"Bu\u0142garia","name:ta":"\u0baa\u0bb2\u0bcd\u0b95\u0bc7\u0bb0\u0bbf\u0baf\u0bbe","name:tg":"\u0411\u043e\u043b\u0433\u0430\u0440\u0438\u044f","name:ca":"Bulg\u00e0ria","name:te":"\u0c2c\u0c32\u0c4d\u0c17\u0c47\u0c30\u0c3f\u0c2f\u0c3e","name:hu":"Bulg\u00e1ria","name:ro":"Bulgaria","name:cy":"Bwlgaria","name:hr":"Bugarska","name:da":"Bulgarien","name:de":"Bulgarien","name:dz":"\u0f56\u0f74\u0f63\u0f0b\u0f42\u0f0b\u0f62\u0f72\u0f0b\u0f61","source":"openstreetmap.org","name:lv":"Bulg\u0101rija","name:lt":"Bulgarija","name:uz":"Bolgariya","name:kk":"\u0411\u043e\u043b\u0433\u0430\u0440\u0438\u044f","name:he":"\u05d1\u05d5\u05dc\u05d2\u05e8\u05d9\u05d4","kind":"country","name:ur":"\u0628\u0644\u063a\u0627\u0631\u06cc\u06c1","name:lb":"Bulgarien","name:la":"Bulgaria","name:lg":"Bulugariya","name:uk":"\u0411\u043e\u043b\u0433\u0430\u0440\u0456\u044f","name:hy":"\u0532\u0578\u0582\u056c\u0572\u0561\u0580\u056b\u0561","min_zoom":2.0,"name:li":"B\u00f6lgarie\u00eb","name:ln":"Biligari","name:lo":"\u0e9a\u0eb1\u0e87\u0e81\u0eb2\u0ec0\u0ea5\u0e8d","name:oc":"Bulgaria","population":7364570,"name:el":"\u0392\u03bf\u03c5\u03bb\u03b3\u03b1\u03c1\u03af\u03b1","name:eo":"Bulgarujo","name:en":"Bulgaria","name":"\u0411\u044a\u043b\u0433\u0430\u0440\u0438\u044f","official_name":"\u0420\u0435\u043f\u0443\u0431\u043b\u0438\u043a\u0430 \u0411\u044a\u043b\u0433\u0430\u0440\u0438\u044f","name:ee":"Bulgaria nutome","name:th":"\u0e1b\u0e23\u0e30\u0e40\u0e17\u0e28\u0e1a\u0e31\u0e25\u0e41\u0e01\u0e40\u0e23\u0e35\u0e22","name:gu":"\u0aac\u0ab2\u0acd\u0a97\u0ac7\u0ab0\u0abf\u0aaf\u0abe","name:eu":"Bulgaria","name:et":"Bulgaaria","name:nl":"Bulgarije","name:es":"Bulgaria","name:ia":"Bulgaria","name:rm":"Bulgaria","name:rn":"Buligariya","name:az":"Bolqar\u0131stan","name:id":"Bulgaria","name:ms":"Bulgaria","name:mr":"\u092c\u0932\u094d\u0917\u0947\u0930\u093f\u092f\u093e","name:ar":"\u0628\u0644\u063a\u0627\u0631\u064a\u0627","name:my":"\u1018\u1030\u1002\u1031\u1038\u101b\u102e\u1038\u101a\u102c\u1038","name:io":"Bulgaria","int_name":"Bulgaria","name:is":"B\u00falgar\u00eda","name:am":"\u1261\u120d\u130c\u122a\u12eb","name:it":"Bulgaria","name:vi":"Bulgaria","name:ru":"\u0411\u043e\u043b\u0433\u0430\u0440\u0438\u044f","name:mn":"\u0411\u043e\u043b\u0433\u0430\u0440","id":424315709,"name:mk":"\u0411\u0443\u0433\u0430\u0440\u0438\u0458\u0430","name:af":"Bulgarye","name:zu":"i-Bulgaria","name:nn":"Bulgaria","name:ff":"Bulgarii","name:fi":"Bulgaria","name:hi":"\u092c\u0941\u0932\u094d\u0917\u093e\u0930\u093f\u092f\u093e","name:mg":"Biolgaria","name:fo":"Bulgaria","name:fr":"Bulgarie","name:fy":"Bulgarije","name:vo":"Bulgar\u00e4n","name:zh":"\u4fdd\u52a0\u5229\u4e9a","name:gv":"Yn Vulgeyr","name:so":"Bulgaariya","name:sn":"Bulgaria","name:sl":"Bolgarija","name:sk":"Bulharsko","name:ja":"\u30d6\u30eb\u30ac\u30ea\u30a2","name:si":"\u0db6\u0dbd\u0dca\u0d9c\u0dda\u0dbb\u0dd2\u0dba\u0dcf\u0dc0","name:fa":"\u0628\u0644\u063a\u0627\u0631\u0633\u062a\u0627\u0646","name:sg":"Bulugar\u00efi","name:se":"Bulg\u00e1ria","name:ne":"\u092c\u0932\u094d\u0917\u0947\u0930\u093f\u092f\u093e","name:br":"Bulgaria","name:bs":"Bugarska","name:bm":"Buligari","name:bn":"\u09ac\u09c1\u09b2\u0997\u09c7\u09b0\u09bf\u09af\u09bc\u09be","name:bo":"\u0f56\u0f74\u0f63\u0f0b\u0f42\u0f0b\u0f62\u0f72\u0f0b\u0f61\u0f0d","name:ml":"\u0d2c\u0d7e\u0d17\u0d47\u0d31\u0d3f\u0d2f","name:no":"Bulgaria","name:sw":"Bulgaria","name:be":"\u0411\u0430\u043b\u0433\u0430\u0440\u044b\u044f","name:ha":"Bulgariya","name:sr":"\u0411\u0443\u0433\u0430\u0440\u0441\u043a\u0430","name:sq":"Bullgaria","name:ga":"An Bhulg\u00e1ir","name:gd":"Bulg\u00e0iria","name:gl":"Bulgaria","name:yo":"Or\u00edl\u1eb9\u0301\u00e8de B\u00f9\u00f9g\u00e1r\u00ed\u00e0","name:ak":"B\u0254lgeria"},"coordinates":[544,451]},{"type":"Point","properties":{"name:cy":"Georgia","name:ko":"\uadf8\ub8e8\uc9c0\uc57c","name:cv":"\u0413\u0440\u0443\u0437\u0438","name:cu":"\u0413\u0454\u0461\u0440\u0433\u0456\u0301\ua657","name:kl":"Georgia","name:cs":"Gruzie","name:ki":"Jojia","name:kw":"Pow Grouzi","name:kv":"\u0413\u0440\u0443\u0437\u0438\u044f","name:ku":"Gurcistan","name:ti":"\u1306\u122d\u1302\u12eb","name:ks":"\u062c\u0627\u0631\u062c\u0650\u06cc\u0627","name:to":"S\u014dsia","name:tl":"Heyorhiya","name:ta":"\u0b9a\u0bbf\u0baf\u0bbe\u0bb0\u0bcd\u0b9a\u0bbf\u0baf\u0bbe","name:tg":"\u0413\u0443\u0440\u04b7\u0438\u0441\u0442\u043e\u043d","name:ca":"Ge\u00f2rgia","name:te":"\u0c1c\u0c3e\u0c30\u0c4d\u0c1c\u0c3f\u0c2f\u0c3e","name:hr":"Gruzija","name:da":"Georgien","name:de":"Georgien","name:dz":"\u0f47\u0f7d\u0f62\u0f0b\u0f47\u0f71","source":"openstreetmap.org","name:kn":"\u0c9c\u0cbe\u0cb0\u0ccd\u0c9c\u0cbf\u0caf\u0cbe","name:km":"\u17a0\u17d2\u179f\u1780\u17a0\u17d2\u179f\u17c9\u17b8","name:lv":"Gruzija","name:lt":"Gruzija","name:uz":"Gruziya","name:kk":"\u0413\u04af\u0440\u0436\u0456\u0441\u0442\u0430\u043d","name:ur":"\u062c\u0627\u0631\u062c\u06cc\u0627","name:lb":"Georgien","name:la":"Georgia","name:lg":"Gyogya","name:uk":"\u0413\u0440\u0443\u0437\u0456\u044f","name:ug":"\u06af\u0631\u06c7\u0632\u0649\u064a\u06d5","name:li":"Georgi\u00eb","name:ln":"Zorzi","name:lo":"\u0e88\u0ecd\u0ec0\u0e88\u0e8d","name:el":"\u0393\u03b5\u03c9\u03c1\u03b3\u03af\u03b1","name:eo":"Kartvelujo","name:en":"Georgia","name":"\u10e1\u10d0\u10e5\u10d0\u10e0\u10d7\u10d5\u10d4\u10da\u10dd","name:tk":"Gruzi\u00fda","name:ee":"Georgia","name:th":"\u0e1b\u0e23\u0e30\u0e40\u0e17\u0e28\u0e08\u0e2d\u0e23\u0e4c\u0e40\u0e08\u0e35\u0e22","name:eu":"Georgia","name:et":"Gruusia","name:es":"Georgia","name:ia":"Georgia","name:rm":"Georgia","name:rn":"Jeworujiya","name:az":"G\u00fcrc\u00fcstan","name:ie":"Georgia","name:id":"Georgia","name:ar":"\u062c\u0648\u0631\u062c\u064a\u0627","name:io":"Gruzia","name:av":"\u0413\u0443\u0440\u0436\u0438","name:ak":"Gy\u0254gyea","name:am":"\u1306\u122d\u1302\u12eb","name:it":"Georgia","name:an":"Cheorchia","name:ru":"\u0413\u0440\u0443\u0437\u0438\u044f","name:ab":"\u049a\u044b\u0440\u04ad\u0442\u04d9\u044b\u043b\u0430 \u0410\u04b3\u04d9\u044b\u043d\u04ad\u049b\u0430\u0440\u0440\u0430","name:af":"Georgi\u00eb","name:zu":"i-Georgia","name:ky":"\u0413\u0440\u0443\u0437\u0438\u044f","name:zh-yue":"\u683c\u9b6f\u5409\u4e9e","name:zh":"\u4e54\u6cbb\u4e9a","name:so":"Joorjiya","name:sn":"Georgia","name:sl":"Gruzija","name:sk":"Gruz\u00ednsko","name:ja":"\u30b0\u30eb\u30b8\u30a2","name:si":"\u0da2\u0ddd\u0dbb\u0dca\u0da2\u0dd2\u0dba\u0dcf\u0dc0","name:sh":"Gruzija","name:sg":"Zorz\u00efi","name:se":"Georgia","name:br":"Jorjia","name:bs":"Gruzija","name:bm":"Zey\u0254rzi","name:bn":"\u099c\u09b0\u09cd\u099c\u09bf\u09af\u09bc\u09be","name:bo":"\u0f47\u0f7c\u0f62\u0f0b\u0f47\u0f72\u0f0b\u0f61\u0f0d","name:sw":"Georgia","name:be":"\u0413\u0440\u0443\u0437\u0456\u044f","name:bg":"\u0413\u0440\u0443\u0437\u0438\u044f","name:sr":"\u0413\u0440\u0443\u0437\u0438\u0458\u0430","name:sq":"Gjeorgjia","name:jv":"Georgia","name:pt":"Ge\u00f3rgia","name:ps":"\u062c\u064a\u0648\u0631\u062c\u064a\u0627","name:oc":"Georgia","min_zoom":2.0,"name:ro":"Georgia","name:zh-min-nan":"Sakartvelo","name:os":"\u0413\u0443\u044b\u0440\u0434\u0437\u044b\u0441\u0442\u043e\u043d","name:or":"\u0b1c\u0b30\u0b4d\u0b1c\u0b3f\u0b06","name:pl":"Gruzja","name:tr":"G\u00fcrcistan","name:hi":"\u091c\u094b\u0930\u094d\u091c\u093f\u092f\u093e","name:sv":"Georgien","name:he":"\u05d2\u05d9\u05d0\u05d5\u05e8\u05d2\u05d9\u05d4","name:ha":"Jiwarjiya","name:hy":"\u054e\u0580\u0561\u057d\u057f\u0561\u0576","name:ht":"Jeoji","name:hu":"Gr\u00fazia","name:qu":"Kartulsuyu","population":4630841,"kind":"country","name:is":"Georg\u00eda","name:yo":"Georgia","name:mt":"\u0120eor\u0121ja","alt_name:eo":"Kartvelio","name:ms":"Georgia","name:mr":"\u091c\u0949\u0930\u094d\u091c\u093f\u092f\u093e","name:my":"\u1002\u103b\u1031\u102c\u103a\u1002\u103b\u102e\u101a\u102c","int_name":"Georgia","name:mg":"Zeorzia","name:ml":"\u0d1c\u0d4b\u0d30\u0d4d\u200d\u0d1c\u0d4d\u0d1c\u0d3f\u0d2f","name:vi":"Gruzia","name:mn":"\u0413\u04af\u0440\u0436","id":432424985,"name:mk":"\u0413\u0440\u0443\u0437\u0438\u0458\u0430","name:vo":"Grusiy\u00e4n","name:fa":"\u06af\u0631\u062c\u0633\u062a\u0627\u0646","name:ff":"Jeorgii","name:fi":"Georgia","name:fo":"Georgia","name:fr":"G\u00e9orgie","name:fy":"Georgje","name:nl":"Georgi\u00eb","name:nn":"Georgia","name:no":"Georgia","name:na":"Georgia","name:ne":"\u091c\u094b\u0930\u094d\u091c\u093f\u092f\u093e","name:wo":"Jeoorji","name:ga":"An tSeoirsia","name:gd":"Gruisia","name:gl":"Xeorxia","name:gv":"Yn \u00c7horshey","name:gu":"\u0a9c\u0acd\u0aaf\u0acb\u0ab0\u0acd\u0a9c\u0ac0\u0aaf\u0abe","name:tt":"\u0413\u0440\u0443\u0437\u0438\u044f"},"coordinates":[3919,194]},{"type":"Point","properties":{"name:pt":"Mold\u00e1via","name:ml":"\u0d2e\u0d7e\u0d21\u0d4b\u0d35","name:ka":"\u10db\u10dd\u10da\u10d3\u10dd\u10d5\u10d0","name:mt":"Maldova","name:ko":"\ubab0\ub3c4\ubc14","name:cv":"\u041c\u043e\u043b\u0434\u0430\u0432\u0438","name:cu":"\u041c\u043e\u043b\u0434\u043e\u0432\u0430","name:cs":"Moldavsko","alt_name:eo":"Moldavio","name:tt":"\u041c\u043e\u043b\u0434\u0430\u0432\u0438\u044f","name:co":"Moldavia","name:kv":"\u041c\u043e\u043b\u0434\u043e\u0432\u0430","name:th":"\u0e1b\u0e23\u0e30\u0e40\u0e17\u0e28\u0e21\u0e2d\u0e25\u0e42\u0e14\u0e27\u0e32","name:ti":"\u121e\u120d\u12f6\u126b","name:ks":"\u0645\u0648\u0644\u0691\u0627\u0648\u0650\u06cc\u0627","name:to":"Molotova","name:tl":"Moldavia","name:pa":"\u0a2e\u0a4b\u0a32\u0a26\u0a4b\u0a35\u0a3e","name:os":"\u041c\u043e\u043b\u0434\u0430\u0432\u0438","name:or":"\u0b2e\u0b3e\u0b32\u0b21\u0b4b\u0b2d\u0b3e","name:ce":"\u041c\u043e\u043b\u0434\u0430\u0432\u0438","name:ta":"\u0bae\u0bbe\u0bb2\u0bcd\u0b9f\u0bcb\u0bb5\u0bbe","name:tg":"\u041c\u043e\u043b\u0434\u043e\u0432\u0430","name:ca":"Mold\u00e0via","name:te":"\u0c2e\u0c4b\u0c32\u0c4d \u0c21\u0c4b\u0c35","name:vi":"Mondova","name:cy":"Moldofa","name:hr":"Moldavija","name:ln":"Molidavi","name:de":"Moldawien","name:dz":"\u0f58\u0f7c\u0f63\u0f0b\u0f51\u0f7c\u0f0b\u0f56\u0f71","source":"openstreetmap.org","name:rw":"Molidova","name:kn":"\u0cae\u0cca\u0cb2\u0ccd\u0ca1\u0ccb\u0cb5\u0cbe","name:yi":"\u05de\u05d0\u05dc\u05d3\u05d0\u05d5\u05d5\u05e2","name:dv":"\u0789\u07ae\u078d\u07b0\u0791\u07af\u0788\u07a7","name:km":"\u179f\u17b6\u1792\u17b6\u179a\u178e\u179a\u178a\u17d2\u178b\u1798\u17c9\u17bb\u179b\u178a\u17b6\u179c\u17b8","name:lt":"Moldavija","name:hi":"\u092e\u094b\u0932\u094d\u0921\u093e\u0935\u093f\u092f\u093e","name:kk":"\u041c\u043e\u043b\u0434\u043e\u0432\u0430","name:sv":"Moldavien","name:he":"\u05de\u05d5\u05dc\u05d3\u05d5\u05d1\u05d4","kind":"country","name:ur":"\u0645\u0627\u0644\u062f\u0648\u0648\u0627","name:lb":"Moldawien","name:la":"Respublica Moldavica","name:lg":"Molodova","name:uk":"\u041c\u043e\u043b\u0434\u043e\u0432\u0430","name:hy":"\u0544\u0578\u056c\u0564\u0578\u057e\u0561","name:ug":"\u0645\u0648\u0644\u062f\u0648\u06cb\u0627","name:li":"Moldavi\u00eb","name:qu":"Mulduwa","name:lo":"\u0ec2\u0ea1\u0e99\u0ec2\u0e94\u0ea7\u0eb2","name:oc":"Mold\u00e0via","population":4128047,"name:el":"\u039c\u03bf\u03bb\u03b4\u03b1\u03b2\u03af\u03b1","name:eo":"Moldavujo","name":"Moldova","name:is":"Mold\u00f3va","name:tk":"Moldawi\u00fda","name:ee":"Moldova nutome","min_zoom":2.0,"name:eu":"Moldavia","alt_name:cs":"Mold\u00e1vie","name:nl":"Moldavi\u00eb","name:es":"Moldavia","name:ia":"Moldavia","name:rm":"Moldavia","name:rn":"Moludavi","name:ro":"Republica Moldova","name:ie":"Moldavia","name:mr":"\u092e\u094b\u0932\u094d\u0921\u094b\u0935\u094d\u0939\u093e","name:ar":"\u062c\u0645\u0647\u0648\u0631\u064a\u0629 \u0645\u0648\u0644\u062f\u0648\u0641\u0627","name:my":"\u1019\u1031\u102c\u103a\u101c\u103a\u1012\u102d\u102f\u1017\u102c\u1014\u102d\u102f\u1004\u103a\u1004\u1036","official_name":"Republica Moldova","name:ak":"M\u0254ldova","name:am":"\u121e\u120d\u12f6\u126b","name:it":"Moldavia","name:an":"Republica de Moldavia","name:ru":"\u041c\u043e\u043b\u0434\u043e\u0432\u0430","name:ab":"\u041c\u043e\u043b\u0434\u043e\u0432\u0430","name:mi":"Morotawa","name:pl":"Mo\u0142dawia","name:mk":"\u041c\u043e\u043b\u0434\u0430\u0432\u0438\u0458\u0430","name:af":"Moldowa","name:zu":"i-Moldova","name:ha":"Maldoba","name:mn":"\u041c\u043e\u043b\u0434\u0430\u0432","name:ff":"Moldawii","name:mg":"M\u00f4ldavia","id":424316417,"name:fr":"Moldavie","name:wo":"Moldaawi","name:ky":"\u041c\u043e\u043b\u0434\u043e\u0432\u0430","name:zh-yue":"\u6469\u723e\u591a\u74e6","name:fy":"Moldaavje","name:vo":"Moldov\u00e4n","name:zh":"\u6469\u5c14\u591a\u74e6","name:so":"Moldofa","name:sr":"\u041c\u043e\u043b\u0434\u0430\u0432\u0438\u0458\u0430","name:sl":"Moldavija","name:sk":"Moldavsko","name:ja":"\u30e2\u30eb\u30c9\u30d0","name:si":"\u0db8\u0ddc\u0dbd\u0dca\u0da9\u0ddd\u0dc0\u0dcf\u0dc0","name:sh":"Moldavija","name:sg":"Moldav\u00f9ii","name:na":"Ripubrikin Mordowa","name:se":"Mold\u00e1via","name:ne":"\u092e\u093e\u0932\u094d\u0921\u094b\u092d\u093e","name:br":"Moldavia","name:bs":"Moldavija","name:bm":"Molidavi","name:bn":"\u09ae\u09cb\u09b2\u09cd\u09a6\u09be\u09ad\u09bf\u09af\u09bc\u09be","name:bo":"\u0f58\u0f7c\u0f63\u0f0b\u0f51\u0f7c\u0f0b\u0f5d\u0f0d","name:sa":"\u092e\u094b\u0932\u094d\u0926\u094b\u0935\u093e","name:be":"\u041c\u0430\u043b\u0434\u043e\u0432\u0430","name:bg":"\u041c\u043e\u043b\u0434\u043e\u0432\u0430","name:ss":"IMolidiva","name:ba":"\u041c\u043e\u043b\u0434\u043e\u0432\u0430","name:sq":"Moldavi","name:ga":"An Mhold\u00f3iv","name:gd":"Mold\u00e0ibhia","name:ht":"Moldavi","name:gl":"Moldavia - Moldova","name:fa":"\u0645\u0648\u0644\u062f\u0627\u0648\u06cc","name:yo":"Or\u00edl\u1eb9\u0301\u00e8de Modofia","name:gu":"\u0aae\u0acb\u0ab2\u0aa1\u0acb\u0ab5\u0abe"},"coordinates":[1094,1746]},{"type":"Point","properties":{"name:ka":"\u10da\u10d8\u10e2\u10d5\u10d0","name:ko":"\ub9ac\ud22c\uc544\ub2c8\uc544","name:cv":"\u041b\u0438\u0442\u0432\u0430","name:cu":"\u041b\u0438\u0442\u044a\u0432\u0430","name:kl":"Litaueni","name:cs":"Litva","name:ki":"Litwania","name:co":"Lituania","name:kv":"\u041b\u0438\u0442\u0432\u0430","name:ku":"L\u00eetvanya","name:ti":"\u120a\u1271\u12cc\u1292\u12eb","name:ks":"\u0644\u0650\u062a\u06be\u064f\u0648\u0627\u0646\u0650\u06cc\u0627","name:to":"Lifiuenia","name:tl":"Litwaniya","name:ch":"Lituania","name:ce":"\u041b\u0438\u0442\u0432\u0430","name:ta":"\u0bb2\u0bbf\u0ba4\u0bc1\u0bb5\u0bc7\u0ba9\u0bbf\u0baf\u0bbe","name:tg":"\u041b\u0438\u0442\u0432\u0430","name:ca":"Litu\u00e0nia","name:te":"\u0c32\u0c3f\u0c25\u0c41\u0c2f\u0c47\u0c28\u0c3f\u0c2f\u0c3e","name:cy":"Lithwania","name:hr":"Litva","name:da":"Litauen","name:de":"Litauen","name:dz":"\u0f63\u0f72\u0f0b\u0f50\u0f74\u0f0b\u0f5d\u0f7a\u0f0b\u0f53\u0f72\u0f0b\u0f61","source":"openstreetmap.org","name:kn":"\u0cb2\u0cbf\u0ca5\u0cc1\u0cb5\u0cc7\u0ca8\u0cbf\u0caf\u0cbe","name:dv":"\u078d\u07a8\u078c\u07aa\u0787\u07ad\u0782\u07a8\u0787\u07a7","name:km":"\u179b\u17b8\u1791\u17bb\u1799\u17a2\u17b6\u1793\u17b8","name:uz":"Litva","name:kk":"\u041b\u0438\u0442\u0432\u0430","name:ur":"\u0644\u062a\u06be\u0648\u0627\u0646\u06cc\u0627","name:lb":"Litauen","name:la":"Lituania","name:lg":"Lisuwenya","name:uk":"\u041b\u0438\u0442\u0432\u0430","name:ug":"\u0644\u0649\u062a\u06cb\u0627","name:li":"Litauwe","name:ln":"Litwani","name:lo":"\u0ea5\u0eb4\u0ec0\u0e97\u0eb5\u0ec0\u0e99\u0e8d","name:el":"\u039b\u03b9\u03b8\u03bf\u03c5\u03b1\u03bd\u03af\u03b1","name:eo":"Litovujo","name:en":"Lithuania","name":"Lietuva","name:tk":"Litwa","name:ee":"Lituania nutome","name:th":"\u0e1b\u0e23\u0e30\u0e40\u0e17\u0e28\u0e25\u0e34\u0e17\u0e31\u0e27\u0e40\u0e19\u0e35\u0e22","name:eu":"Lituania","name:et":"Leedu","name:es":"Lituania","name:ay":"Litua\u00f1a","name:rm":"Lituania","name:rn":"Lituwaniya","name:az":"Litva","name:ie":"Lituania","name:id":"Lituania","name:ar":"\u0644\u064a\u062a\u0648\u0627\u0646\u064a\u0627","name:io":"Lituania","name:ak":"Lituwenia","name:am":"\u120a\u1271\u12cc\u1292\u12eb","name:it":"Lituania","name:an":"Lituania","name:ru":"\u041b\u0438\u0442\u0432\u0430","name:ab":"\u041b\u0438\u0442\u0432\u0430","name:af":"Litaue","name:zu":"i-Lithuania","name:ky":"\u041b\u0438\u0442\u0432\u0430","name:zh-yue":"\u7acb\u9676\u5b9b","name:zh":"\u7acb\u9676\u5b9b","name:so":"Lituweeniya","name:sn":"Lithuania","name:sl":"Litva","name:sk":"Litva","name:ja":"\u30ea\u30c8\u30a2\u30cb\u30a2","name:si":"\u0dbd\u0dd2\u0dad\u0dd4\u0dc0\u0dda\u0db1\u0dd2\u0dba\u0dcf\u0dc0","name:sh":"Litvanija","name:sg":"Lituan\u00efi","name:sc":"Litu\u00e0nia","name:sa":"\u0932\u0947\u0924\u0941\u0935\u093e","name:bs":"Litvanija","name:bm":"Lituyani","name:bn":"\u09b2\u09bf\u09a4\u09cd\u09ad\u09be","name:bo":"\u0f63\u0f72\u0f0b\u0f50\u0f74\u0f0b\u0f68\u0f7a\u0f0b\u0f53\u0f72\u0f0b\u0f61\u0f0d","name:br":"Lituania","name:sw":"Litwania","name:be":"\u041b\u0456\u0442\u0432\u0430","name:su":"Lituania","name:bg":"\u041b\u0438\u0442\u0432\u0430","name:ss":"Lithuwani","name:ba":"\u041b\u0438\u0442\u0432\u0430","name:sq":"Lituani","name:jv":"Lituania","name:bi":"Litwania","name:ia":"Lituania","name:pt":"Litu\u00e2nia","name:ps":"\u0644\u06d0\u062a\u0648\u0627\u0646\u064a\u0627","name:oc":"Litu\u00e0nia","min_zoom":2.0,"name:ro":"Lituania","name:sv":"Litauen","name:os":"\u041b\u0438\u0442\u0432\u0430","name:or":"\u0b32\u0b3f\u0b25\u0b3e\u0b06\u0b28\u0b3f\u0b06","name:pl":"Litwa","name:st":"Lituania","name:sr":"\u041b\u0438\u0442\u0432\u0430\u043d\u0438\u0458\u0430","name:tr":"Litvanya","name:hi":"\u0932\u093f\u0925\u0941\u0906\u0928\u093f\u092f\u093e","name:he":"\u05dc\u05d8\u05d1\u05d9\u05d4","name:ha":"Lituweniya","name:hy":"\u053c\u056b\u057f\u057e\u0561","name:ht":"Lityani","name:hu":"Litv\u00e1nia","name:qu":"Lituwa","population":3565205,"kind":"country","name:ts":"Lithuania","name:is":"Lith\u00e1en","name:yi":"\u05dc\u05d9\u05d8\u05e2","name:iu":"\u14d5\u140b\u1450\u1559","name:yo":"Or\u00edl\u1eb9\u0301\u00e8de Lituania","name:mt":"Litwanja","alt_name:eo":"Litovio","name:ms":"Lithuania","name:mr":"\u0932\u093f\u0925\u0941\u0906\u0928\u093f\u092f\u093e","name:my":"\u101c\u1005\u103a\u101e\u1030\u101a\u1031\u1038\u1014\u102e\u1038\u101a\u102c\u1038","official_name":"Lietuvos Respublika","name:kw":"Lithouani","name:mg":"Litoania","name:ve":"Lituania","name:ml":"\u0d32\u0d3f\u0d24\u0d4d\u0d35\u0d3e\u0d28\u0d3f\u0d2f","name:vi":"Litva","name:mn":"\u041b\u0438\u0442\u0432\u0430","name:mi":"Ritu\u0101nia","id":424297773,"name:mk":"\u041b\u0438\u0442\u0432\u0430\u043d\u0438\u0458\u0430","name:vo":"Lietuv\u00e4n","name:fa":"\u0644\u06cc\u062a\u0648\u0627\u0646\u06cc","name:rw":"Lituwaniya","name:ff":"Lituaanii","name:fi":"Liettua","name:fj":"Lituani","name:fo":"Litava","name:fr":"Lituanie","name:fy":"Litouwen","int_name":"Lithuania","name:nl":"Litouwen","name:nn":"Litauen","name:no":"Litauen","name:na":"Rituainiya","name:ne":"\u0932\u093f\u0925\u0941\u0905\u0928\u093f\u092f\u093e","name:ny":"Lithuania","name:wa":"Litwaneye","name:wo":"Lituwaani","name:nv":"\u0141it\u02bcoow\u0119\u0301\u0119ya","name:ga":"An Liotu\u00e1in","name:gd":"Liotu\u00e0inia","name:gn":"Litua\u00f1a","name:gl":"Lituania","name:gv":"Yn Litaan","name:gu":"\u0ab2\u0abf\u0aa5\u0ac1\u0a86\u0aa8\u0abf\u0aaf\u0abe","name:tt":"\u041b\u0438\u0442\u0432\u0430"},"coordinates":[228,3978]},{"type":"Point","properties":{"alt_name:eo":"Transdnestrio;Transnistrio","name:ro":"Nistrenia","official_name":"\u0420\u0435\u043f\u0443\u0431\u043b\u0438\u043a\u0430 \u041c\u043e\u043b\u0434\u043e\u0432\u0435\u043d\u044f\u0441\u043a\u044d \u041d\u0438\u0441\u0442\u0440\u044f\u043d\u044d - \u041f\u0440\u0438\u0434\u043d\u0435\u0441\u0442\u0440\u043e\u0432\u0441\u043a\u0430\u044f \u041c\u043e\u043b\u0434\u0430\u0432\u0441\u043a\u0430\u044f \u0420\u0435\u0441\u043f\u0443\u0431\u043b\u0438\u043a\u0430 - \u041f\u0440\u0438\u0434\u043d\u0456\u0441\u0442\u0440\u043e\u0432\u0441\u044c\u043a\u0430 \u041c\u043e\u043b\u0434\u0430\u0432\u0441\u044c\u043a\u0430 \u0420\u0435\u0441\u043f\u0443\u0431\u043b\u0456\u043a\u0430","name:is":"Transnistr\u00eda","alt_name:en":"Pridnestrovie","name:it":"Transnistria","name:sk":"Podnestersko","name:pl":"Naddniestrze","id":2043451343,"name:ca":"Transn\u00edstria","name:vo":"Transnistriy\u00e4n","name:fa":"\u062a\u0631\u0627\u0646\u0633\u200c\u0646\u06cc\u0633\u062a\u0631\u06cc\u0627","name:fi":"Transnistria","name:de":"Transnistrien","source":"openstreetmap.org","name:fr":"Transnistrie","name:zh":"\u5fb7\u6d85\u65af\u7279\u6cb3\u6cbf\u5cb8","name:nl":"Transnistri\u00eb","short_name":"\u041d\u0438\u0441\u0442\u0440\u0435\u043d\u0438\u044f - \u041f\u0440\u0438\u0434\u043d\u0435\u0441\u0442\u0440\u043e\u0432\u044c\u0435 - \u041f\u0440\u0438\u0434\u043d\u0456\u0441\u0442\u0440\u043e\u0432'\u044f","name:no":"Transnistria","name:he":"\u05d8\u05e8\u05e0\u05e1\u05e0\u05d9\u05e1\u05d8\u05e8\u05d9\u05d4","kind":"country","name:br":"Treuznistria","name:uk":"\u041f\u0440\u0438\u0434\u043d\u0456\u0441\u0442\u0440\u043e\u0432\u2019\u044f","name:sv":"Transnistrien","min_zoom":2.0,"name:sr":"\u041f\u0440\u0438\u0434\u045a\u0435\u0441\u0442\u0440\u043e\u0432\u0459\u0435","population":513400,"name:eo":"\u0108ednestrio","name:en":"Transnistria","name":"\u041f\u0440\u0438\u0434\u043d\u0435\u0441\u0442\u0440\u043e\u0432\u044c\u0435","name:ku":"Transn\u00eestriya","name:es":"Transnistria"},"coordinates":[1256,1720]},{"type":"Point","properties":{"name:pt":"Abec\u00e1sia","name:cy":"Abchasia","name:ko":"\uc555\ud558\uc2a4 \uacf5\ud654\uad6d","name:cv":"\u0410\u0431\u0445\u0430\u0437\u0438","name:cu":"\u0410\u0431\u0445\u0430\ua641\u0457\ua657","name:cs":"Abch\u00e1zie","name:tt":"Abxaz\u00eda","name:kv":"\u0410\u0431\u0445\u0430\u0437\u0438\u044f","name:ku":"Abxazya","name:ro":"Abhazia","name:rw":"Abukaziya","name:tl":"Abkasya","name:sv":"Abchazien","name:os":"\u0410\u0431\u0445\u0430\u0437\u0438","name:or":"\u0b06\u0b2c\u0b3e\u0b16\u0b3e\u0b1c\u0b3f\u0b06","name:ce":"\u0410\u0431\u0445\u0430\u0437\u0438","name:ta":"\u0b85\u0baa\u0bcd\u0b95\u0bbe\u0b9a\u0bbf\u0baf\u0bbe","name:ca":"Abkh\u00e0zia","name:te":"\u0c05\u0c2c\u0c4d\u200c\u0c16\u0c1c\u0c3f\u0c2f\u0c3e","name:vi":"Abkhazia","name:ka":"\u10d0\u10e4\u10ee\u10d0\u10d6\u10d4\u10d7\u10d8","name:da":"Abkhasien","name:fr":"Abkhazie","name:de":"Abchasien","source":"openstreetmap.org","name:yo":"Abkhez","name:pa":"\u0a05\u0a2c\u0a16\u0a3c\u0a3e\u0a1c\u0a3c\u0a40\u0a06","name:lv":"Abh\u0101zija","name:lt":"Abchazija","name:uz":"Abxaziya","name:kk":"\u0410\u0431\u0445\u0430\u0437\u0438\u044f","name:he":"\u05d0\u05d1\u05d7\u05d6\u05d9\u05d4","kind":"country","name:ur":"\u0627\u0628\u062e\u0627\u0632\u064a\u0627","name:la":"Abasci","official_name":"\u0420\u0435\u0441\u043f\u0443\u0431\u043b\u0438\u043a\u0430 \u0410\u0431\u0445\u0430\u0437\u0438\u044f - \u0410\u04a7\u0441\u043d\u044b \u0410\u04b3\u04d9\u044b\u043d\u04ad\u049b\u0430\u0440\u0440\u0430","name:uk":"\u0410\u0431\u0445\u0430\u0437\u0456\u044f","name:hy":"\u0531\u0562\u056d\u0561\u0566\u056b\u0561","min_zoom":2.0,"name:hu":"Abh\u00e1zia","name:hr":"Abhazija","name:oc":"Abcazia","population":240705,"name:el":"\u0391\u03bc\u03c0\u03c7\u03b1\u03b6\u03af\u03b1","name:eo":"Ab\u0125azujo","name:en":"Abkhazia","name":"\u0410\u04a7\u0441\u043d\u044b - \u0410\u0431\u0445\u0430\u0437\u0438\u044f","name:tk":"Abhazi\u00fda","name:th":"\u0e2d\u0e31\u0e1a\u0e2e\u0e32\u0e40\u0e0b\u0e35\u0e22","name:eu":"Abkhazia","name:et":"Abhaasia","name:nl":"Abchazi\u00eb","name:es":"Abjasia","name:ia":"Abchasia","alt_name:eo":"Ab\u0125azio","name:az":"Abxaziya","name:ie":"Abkhazia","name:id":"Abkhazia","name:ms":"Abkhazia","name:mr":"\u0905\u092c\u0916\u093e\u091d\u093f\u092f\u093e","name:ar":"\u0623\u0628\u062e\u0627\u0632\u064a\u0627","name:io":"Abkhazia","int_name":"Abkhazia","name:is":"Abkas\u00eda","name:it":"Abcasia","name:an":"Abjasia","name:ru":"\u0410\u0431\u0445\u0430\u0437\u0438\u044f","name:ab":"\u0410\u04a7\u0441\u043d\u044b","name:pl":"Abchazja","name:mk":"\u0410\u0431\u0445\u0430\u0437\u0438\u0458\u0430","name:af":"Abkasi\u00eb","name:fa":"\u0622\u0628\u062e\u0627\u0632","name:mn":"\u0410\u0431\u0445\u0430\u0437\u0438","name:fi":"Abhasia","name:hi":"\u0905\u092c\u0916\u093e\u091c\u093f\u092f\u093e","id":466507355,"name:ba":"\u0410\u0431\u0445\u0430\u0437\u0438\u044f","name:zh-yue":"\u963f\u5e03\u54c8\u8332","name:fy":"Abgaazje","name:vo":"Labkas\u00e4n","name:zh":"\u963f\u5e03\u54c8\u8332","name:gv":"Abkhazia","name:so":"Abkhazia","name:sl":"Abhazija","name:sk":"Abch\u00e1zsko","name:ja":"\u30a2\u30d6\u30cf\u30b8\u30a2","name:nn":"Abkhasia","name:sh":"Abhazija","name:br":"Abkhazia","name:bs":"Abhazija","name:bn":"\u0986\u09ac\u0996\u09be\u099c\u09bf\u09af\u09bc\u09be","name:ml":"\u0d05\u0d2c\u0d4d\u0d16\u0d3e\u0d38\u0d3f\u0d2f","name:no":"Abkhasia","name:sw":"Abkhazia","name:be":"\u0410\u0431\u0445\u0430\u0437\u0456\u044f","name:su":"Abkhazia","name:bg":"\u0410\u0431\u0445\u0430\u0437\u0438\u044f","name:sr":"\u0410\u0431\u0445\u0430\u0437\u0438\u0458\u0430","name:sq":"Abkhazia","name:ga":"An Abc\u00e1is","name:jv":"Abkhazia","name:gl":"Abkhazia","name:tr":"Abhazya"},"coordinates":[3410,601]},{"type":"Point","properties":{"name:ia":"Ossetia del Sud","alt_name:eo":"Sud-Osetio","name:ka":"\u10ea\u10ee\u10d8\u10dc\u10d5\u10d0\u10da\u10d8\u10e1 \u10e0\u10d4\u10d2\u10d8\u10dd\u10dc\u10d8","name:io":"Sud-Osetia","min_zoom":2.0,"name:it":"Ossezia del Sud","name:ru":"\u042e\u0436\u043d\u0430\u044f \u041e\u0441\u0435\u0442\u0438\u044f","name:os":"\u0425\u0443\u0441\u0441\u0430\u0440 \u0418\u0440\u044b\u0441\u0442\u043e\u043d","name:vi":"Nam Ossetia","name:pl":"Osetia Po\u0142udniowa","id":1696850886,"name:ca":"Oss\u00e8tia del Sud","name:vo":"Sul\u00fcda-Loset\u00e4n","name:fa":"\u0627\u0648\u0633\u062a\u06cc\u0627\u06cc \u062c\u0646\u0648\u0628\u06cc","name:fi":"Etel\u00e4-Ossetia","name:de":"S\u00fcdossetien","source":"openstreetmap.org","name:fr":"Oss\u00e9tie du Sud","name:fy":"S\u00fad-Osseesje","name:be":"\u041f\u0430\u045e\u0434\u043d\u0451\u0432\u0430\u044f \u0410\u0441\u0435\u0446\u0456\u044f","name:zh":"\u5357\u5965\u585e\u68af","name:nl":"Zuid-Osseti\u00eb","name:lt":"Piet\u0173 Osetija","name:no":"S\u00f8r-Ossetia","name:he":"\u05d3\u05e8\u05d5\u05dd \u05d0\u05d5\u05e1\u05d8\u05d9\u05d4","kind":"country","name:br":"Osetia ar Su","name:sk":"Ju\u017en\u00e9 Osetsko","name:uk":"\u041f\u0456\u0432\u0434\u0435\u043d\u043d\u0430 \u041e\u0441\u0435\u0442\u0456\u044f","name:sv":"Sydossetien","name:hu":"D\u00e9l-Osz\u00e9tia","name:sr":"\u0408\u0443\u0436\u043d\u0430 \u041e\u0441\u0435\u0442\u0438\u0458\u0430","population":72000,"name:eo":"Sud-Osetujo","name:en":"South Ossetia","name":"\u0425\u0443\u0441\u0441\u0430\u0440 \u0418\u0440\u044b\u0441\u0442\u043e\u043d - \u042e\u0436\u043d\u0430\u044f \u041e\u0441\u0435\u0442\u0438\u044f","name:ku":"Osetyaya Ba\u015f\u00fbr","name:es":"Osetia del Sur"},"coordinates":[3932,379]},{"type":"Point","properties":{"source":"naturalearthdata.com","kind":"locality","name":"Kiev","country_capital":true,"population":2709000,"min_zoom":3.0,"id":7230},"coordinates":[1459,2617]},{"type":"Point","properties":{"name:pt":"Oblast de Voronej","name:nl":"Oblast Voronezj","name:ja":"\u30f4\u30a9\u30ed\u30cd\u30b8\u5dde","name:lt":"Vorone\u017eo sritis","kind":"region","name:tt":"\u0412\u043e\u0440\u043e\u043d\u0435\u0436 \u04e9\u043b\u043a\u04d9\u0441\u0435","min_zoom":4.0,"name:it":"Oblast' di Vorone\u017e","name:uk":"\u0412\u043e\u0440\u043e\u043d\u0435\u0437\u044c\u043a\u0430 \u043e\u0431\u043b\u0430\u0441\u0442\u044c","name:be":"\u0412\u0430\u0440\u043e\u043d\u0435\u0436\u0441\u043a\u0430\u044f \u0432\u043e\u0431\u043b\u0430\u0441\u0446\u044c","name:sv":"Voronezj oblast","name:pl":"Obw\u00f3d woroneski","name:hu":"Voronyezsi ter\u00fclet","id":648753998,"population":2328959,"name:eo":"Vorone\u0135a Provinco","name:en":"Voronezh Oblast","name":"\u0412\u043e\u0440\u043e\u043d\u0435\u0436\u0441\u043a\u0430\u044f \u043e\u0431\u043b\u0430\u0441\u0442\u044c","kind_detail":"state","name:de":"Oblast Woronesch","source":"openstreetmap.org","name:fr":"Oblast de Voronej","name:zh":"\u6c83\u7f57\u6d85\u65e5\u5dde","name:es":"\u00d3blast de Vor\u00f3nezh"},"coordinates":[3213,2768]},{"type":"Point","properties":{"name:sl":"Lublinsko","name:sk":"Lubelsk\u00e9","name:ja":"\u30eb\u30d6\u30ea\u30f3\u770c","name:lt":"Liublino vaivadija","name:ar":"\u0645\u062d\u0627\u0641\u0638\u0629 \u0644\u0648\u0628\u064a\u0644\u0633\u0643\u064a","name:cs":"Lublinsk\u00e9","name:eo":"Lublina Provinco","min_zoom":4.0,"name:uk":"\u041b\u044e\u0431\u043b\u0456\u043d\u0441\u044c\u043a\u0435 \u0432\u043e\u0454\u0432\u043e\u0434\u0441\u0442\u0432\u043e","name:be":"\u041b\u044e\u0431\u043b\u0456\u043d\u0441\u043a\u0430\u0435 \u0432\u0430\u044f\u0432\u043e\u0434\u0441\u0442\u0432\u0430","name:ru":"\u041b\u044e\u0431\u043b\u0438\u043d\u0441\u043a\u043e\u0435 \u0432\u043e\u0435\u0432\u043e\u0434\u0441\u0442\u0432\u043e","name:ka":"\u10da\u10e3\u10d1\u10da\u10d8\u10dc\u10d8\u10e1 \u10e1\u10d0\u10d5\u10dd\u10d4\u10d5\u10dd\u10d3\u10dd","id":505006035,"population":2166213,"kind":"region","name":"wojew\u00f3dztwo lubelskie","kind_detail":"state","source":"openstreetmap.org","name:zh":"\u5362\u5e03\u6797\u7701"},"coordinates":[54,2767]},{"type":"Point","properties":{"source":"naturalearthdata.com","kind":"locality","name":"Bucharest","country_capital":true,"population":1942000,"min_zoom":4.0,"id":7127},"coordinates":[655,957]},{"type":"Point","properties":{"name:pt":"Voivodia da Podl\u00e1quia","name:sk":"Podlesk\u00e9","name:ja":"\u30dd\u30c9\u30e9\u30b7\u30a7\u770c","name:lt":"Palenk\u0117s vaivadija","name:ar":"\u0645\u062d\u0627\u0641\u0638\u0629 \u0628\u0648\u062f\u0644\u0633\u0643\u064a","kind":"region","min_zoom":4.0,"name:uk":"\u041f\u0456\u0434\u043b\u044f\u0441\u044c\u043a\u0435 \u0432\u043e\u0454\u0432\u043e\u0434\u0441\u0442\u0432\u043e","name:be":"\u041f\u0430\u0434\u043b\u044f\u0441\u043a\u0430\u0435 \u0432\u0430\u044f\u0432\u043e\u0434\u0441\u0442\u0432\u0430","name:ru":"\u041f\u043e\u0434\u043b\u044f\u0441\u043a\u043e\u0435 \u0432\u043e\u0435\u0432\u043e\u0434\u0441\u0442\u0432\u043e","id":505006928,"population":1192660,"name:eo":"Podla\u0125ia Provinco","name:en":"Podlachia","name":"wojew\u00f3dztwo podlaskie","kind_detail":"state","name:de":"Podlachien","source":"openstreetmap.org","name:fr":"Podlachie","name:et":"Podlaasia","name:zh":"\u6ce2\u5fb7\u62c9\u8b1d\u7701"},"coordinates":[64,3401]},{"type":"Point","properties":{"name:pt":"Sebastopol","name:ro":"Sevastopol","name:nl":"Sebastopol","name:lt":"Sevastopolis","name:tr":"Sivastopol","name:kn":"\u0cb8\u0cc6\u0cb5\u0cb8\u0ccd\u0ca4\u0ccb\u0caa\u0cca\u0cb2\u0ccd","name:cs":"Sevastopol","min_zoom":4.0,"int_name":"Sevastopol","name:sk":"Sevastopo\u013e","name:it":"Sebastopoli","name:lv":"Sevastopole","name:pl":"Sewastopol","name:hu":"Szevasztopol","name:hr":"Sevastopolj","id":3674772325,"name:ca":"Sebast\u00f2pol","population":402135,"name:el":"\u03a3\u03b5\u03b2\u03b1\u03c3\u03c4\u03bf\u03cd\u03c0\u03bf\u03bb\u03b7","kind":"region","name:en":"Sevastopol","name":"\u0421\u0435\u0432\u0430\u0441\u0442\u043e\u043f\u043e\u043b\u044c","kind_detail":"state","name:de":"Sewastopol","source":"openstreetmap.org","name:fr":"S\u00e9bastopol","name:la":"Sebastopolis","name:es":"Sebastopol"},"coordinates":[1997,990]},{"type":"Point","properties":{"kind":"region","name":"Ardahan","kind_detail":"province","min_zoom":4.0,"source":"openstreetmap.org","name:ku":"Erd\u00eaxan","name:uk":"\u0410\u0440\u0434\u0430\u0445\u0430\u043d","name:ru":"\u0410\u0440\u0434\u0430\u0445\u0430\u043d","id":1827532442},"coordinates":[3686,16]},{"type":"Point","properties":{"name:pt":"Oblast de Moscou","name:cy":"Oblast Moscfa","name:ko":"\ubaa8\uc2a4\ud06c\ubc14 \uc8fc","name:cv":"\u041c\u0443\u0441\u043a\u0430\u0432 \u043e\u0431\u043b\u0430\u00e7\u0115","name:cu":"\u041c\u043e\u0441\u043a\u044a\u0432\u044c\u0441\u043a\u0430 \u043e\u0431\u043b\u0430\u0441\u0442\u044c","name:cs":"Moskevsk\u00e1 oblast","name:tt":"\u041c\u04d9\u0441\u043a\u04d9\u04af \u04e9\u043b\u043a\u04d9\u0441\u0435","name:kv":"\u041c\u04e7\u0441\u043a\u0443\u0430 \u043e\u0431\u043b\u0430\u0441\u044c\u0442","min_zoom":4.0,"name:ro":"Regiunea Moscova","name:tl":"Moscow Oblast","name:sv":"Moskva oblast","name:os":"\u041c\u00e6\u0441\u043a\u0443\u044b\u0439\u044b \u043e\u0431\u043b\u00e6\u0441\u0442","name:ce":"\u041c\u043e\u0441\u043a\u0432\u0430\u043d \u043e\u0431\u043b\u0430\u0441\u0442\u044c","name:ta":"\u0bae\u0bbe\u0bb8\u0bcd\u0b95\u0bcb \u0b93\u0baa\u0bcd\u0bb2\u0bb8\u0bcd\u0ba4\u0bc1","name:tg":"\u0412\u0438\u043b\u043e\u044f\u0442\u0438 \u041c\u0430\u0441\u043a\u0430\u0432","name:ky":"\u041c\u043e\u0441\u043a\u0432\u0430 \u043e\u0431\u043b\u0430\u0441\u0442\u044b","name:ka":"\u10db\u10dd\u10e1\u10d9\u10dd\u10d5\u10d8\u10e1 \u10dd\u10da\u10e5\u10d8","name:da":"Moskva oblast","name:de":"Oblast Moskau","source":"openstreetmap.org","name:ba":"\u041c\u04d9\u0441\u043a\u04d9\u04af \u04e9\u043b\u043a\u04d9\u04bb\u0435","name:lv":"Maskavas apgabals","name:tr":"Moskova Oblast\u0131","name:uz":"Moskva viloyati","name:he":"\u05de\u05d5\u05e1\u05e7\u05d1\u05d4 (\u05de\u05d7\u05d5\u05d6)","kind":"region","name:ur":"\u0645\u0627\u0633\u06a9\u0648 \u0627\u0648\u0628\u0644\u0627\u0633\u062a","name:la":"Regio Moscuensis","name:uk":"\u041c\u043e\u0441\u043a\u043e\u0432\u0441\u044c\u043a\u0430 \u043e\u0431\u043b\u0430\u0441\u0442\u044c","name:hy":"\u0544\u0578\u057d\u056f\u057e\u0561\u0575\u056b \u0574\u0561\u0580\u0566","name:hu":"Moszkvai ter\u00fclet","name:hr":"Moskovska oblast","name:el":"\u03a0\u03b5\u03c1\u03b9\u03c6\u03ad\u03c1\u03b5\u03b9\u03b1 \u039c\u03cc\u03c3\u03c7\u03b1\u03c2","name:eo":"Moskva Provinco","name:en":"Moscow Oblast","name":"\u041c\u043e\u0441\u043a\u043e\u0432\u0441\u043a\u0430\u044f \u043e\u0431\u043b\u0430\u0441\u0442\u044c","name:eu":"Moskuko oblasta","name:et":"Moskva oblast","name:nl":"Oblast Moskou","name:es":"\u00d3blast de Mosc\u00fa","name:az":"Moskva vilay\u0259ti","name:id":"Oblast Moskwa","name:ms":"Wilayah Moscow","name:mr":"\u092e\u0949\u0938\u094d\u0915\u094b \u0913\u092c\u094d\u0932\u093e\u0938\u094d\u0924","name:ar":"\u0645\u062d\u0627\u0641\u0638\u0629 \u0645\u0648\u0633\u0643\u0648","name:it":"Oblast' di Mosca","name:vi":"Moskva (t\u1ec9nh)","name:mn":"\u041c\u043e\u0441\u043a\u0432\u0430 \u043c\u0443\u0436","name:pl":"Obw\u00f3d moskiewski","name:mk":"\u041c\u043e\u0441\u043a\u043e\u0432\u0441\u043a\u0430 \u043e\u0431\u043b\u0430\u0441\u0442","name:af":"Moskou-oblast","name:fa":"\u0627\u0633\u062a\u0627\u0646 \u0645\u0633\u06a9\u0648","name:lt":"Maskvos sritis","kind_detail":"state","id":658312593,"name:fr":"Oblast de Moscou","name:ca":"Prov\u00edncia de Moscou","name:zh":"\u83ab\u65af\u79d1\u5dde","name:sl":"Moskovska oblast","name:sk":"Moskovsk\u00e1 oblas\u0165","name:ja":"\u30e2\u30b9\u30af\u30ef\u5dde","name:nn":"Moskva oblast","name:no":"Moskva oblast","name:se":"Moskva oblast","name:br":"Oblast Moskov","name:bs":"Moskovska oblast","name:sw":"Moscow Oblast","name:be":"\u041c\u0430\u0441\u043a\u043e\u045e\u0441\u043a\u0430\u044f \u0432\u043e\u0431\u043b\u0430\u0441\u0446\u044c","name:bg":"\u041c\u043e\u0441\u043a\u043e\u0432\u0441\u043a\u0430 \u043e\u0431\u043b\u0430\u0441\u0442","name:sr":"\u041c\u043e\u0441\u043a\u043e\u0432\u0441\u043a\u0430 \u043e\u0431\u043b\u0430\u0441\u0442","name:ga":"C\u00faige Mhosc\u00f3","name:fi":"Moskovan alue"},"coordinates":[2828,4021]},{"type":"Point","properties":{"name:pt":"Oblast de Poltava","name:az":"Poltava vilay\u0259ti","name:id":"Oblast Poltava","name:ka":"\u10de\u10dd\u10da\u10e2\u10d0\u10d5\u10d8\u10e1 \u10dd\u10da\u10e5\u10d8","name:mr":"\u092a\u094b\u0932\u094d\u0924\u093e\u0935\u094d\u0939\u093e \u0913\u092c\u094d\u0932\u093e\u0938\u094d\u0924","name:ko":"\ud3f4\ud0c0\ubc14 \uc8fc","name:cv":"\u041f\u043e\u043b\u0442\u0430\u0432\u0430 \u043e\u0431\u043b\u0430\u04ab\u04d7","name:ar":"\u0628\u0648\u0644\u062a\u0627\u0641\u0627 \u0623\u0648\u0628\u0644\u0627\u0633\u062a","name:cs":"Poltavsk\u00e1 oblast","min_zoom":4.0,"name:ro":"Regiunea Poltava","name:it":"Oblast' di Poltava","name:zh-min-nan":"Poltava s\u00e9ng","name:vi":"Poltava (t\u1ec9nh)","name:pl":"Obw\u00f3d po\u0142tawski","id":683681620,"name:ca":"Prov\u00edncia de Poltava","name:fa":"\u0627\u0633\u062a\u0627\u0646 \u067e\u0648\u0644\u062a\u0627\u0648\u0627","name:bg":"\u041f\u043e\u043b\u0442\u0430\u0432\u0441\u043a\u0430 \u043e\u0431\u043b\u0430\u0441\u0442","name:lt":"Poltavos sritis","source":"openstreetmap.org","kind_detail":"state","name:sh":"Poltavska oblast","name:de":"Oblast Poltawa","name:tr":"Poltava Oblast\u0131","name:fr":"Oblast de Poltava","name:mk":"\u041f\u043e\u043b\u0442\u0430\u0432\u0441\u043a\u0430 \u043e\u0431\u043b\u0430\u0441\u0442","name:be":"\u041f\u0430\u043b\u0442\u0430\u045e\u0441\u043a\u0430\u044f \u0432\u043e\u0431\u043b\u0430\u0441\u0446\u044c","name:zh":"\u6ce2\u5c14\u5854\u74e6\u5dde","name:lv":"Poltavas apgabals","name:ja":"\u30dd\u30eb\u30bf\u30f4\u30a1\u5dde","name:nn":"Poltava oblast","name:no":"Poltava oblast","kind":"region","name:sk":"Poltavsk\u00e1 oblas\u0165","name:hy":"\u054a\u0578\u056c\u057f\u0561\u057e\u0561\u0575\u056b \u0574\u0561\u0580\u0566","name:ru":"\u041f\u043e\u043b\u0442\u0430\u0432\u0441\u043a\u0430\u044f \u043e\u0431\u043b\u0430\u0441\u0442\u044c","name:sv":"Poltava oblast","name:hu":"Poltavai ter\u00fclet","name:hr":"Poltavska oblast","name:sr":"\u041f\u043e\u043b\u0442\u0430\u0432\u0441\u043a\u0430 \u043e\u0431\u043b\u0430\u0441\u0442","name:eo":"Poltava Provinco","name:en":"Poltava Oblast","name":"\u041f\u043e\u043b\u0442\u0430\u0432\u0441\u044c\u043a\u0430 \u043e\u0431\u043b\u0430\u0441\u0442\u044c","name:gl":"Oblast de Poltava","name:fi":"Pultavan alue","name:eu":"Poltavako oblasta","name:et":"Poltava oblast","name:nl":"Oblast Poltava","name:es":"\u00d3blast de Poltava"},"coordinates":[2048,2458]},{"type":"Point","properties":{"name:pt":"Oblast de Kharkiv","name:az":"Kharkiv vilay\u0259ti","name:id":"Oblast Kharkiv","name:ka":"\u10ee\u10d0\u10e0\u10d9\u10dd\u10d5\u10d8\u10e1 \u10dd\u10da\u10e5\u10d8","name:mr":"\u0916\u093e\u0930\u094d\u0915\u0940\u0935\u094d\u0939 \u0913\u092c\u094d\u0932\u093e\u0938\u094d\u0924","name:ko":"\ud558\ub974\ud0a4\uc6b0 \uc8fc","name:cv":"\u0425\u0430\u0440\u043a\u043e\u0432 \u043e\u0431\u043b\u0430\u04ab\u04d7","name:ar":"\u062e\u0627\u0631\u0643\u064a\u0641 \u0623\u0648\u0628\u0644\u0627\u0633\u062a","name:cs":"Charkov oblast","min_zoom":4.0,"name:ro":"Regiunea Kharkiv","name:it":"Oblast' di Kharkiv","name:zh-min-nan":"Kharkiv s\u00e9ng","name:vi":"Kharkiv (t\u1ec9nh)","name:pl":"Obw\u00f3d Charkowa","id":3679338874,"name:ca":"Prov\u00edncia de Kharkiv","name:fa":"\u0627\u0633\u062a\u0627\u0646 \u062e\u0627\u0631\u06a9\u0641","name:bg":"\u0425\u0430\u0440\u043a\u043e\u0432 \u043e\u0431\u043b\u0430\u0441\u0442","name:lt":"Kharkiv sritis","source":"openstreetmap.org","kind_detail":"state","name:sh":"Kharkivska oblast","name:de":"Oblast Kharkiv","name:tr":"Kharkiv Oblast\u0131","name:fr":"Oblast de Kharkiv","name:mk":"\u0425\u0430\u0440\u043a\u043e\u0432 \u043e\u0431\u043b\u0430\u0441\u0442","name:be":"\u0425\u0430\u0440\u043a\u0430\u045e\u0441\u043a\u0430\u044f \u0432\u043e\u0431\u043b\u0430\u0441\u0446\u044c","name:zh":"\u54c8\u723e\u79d1\u592b\u5730\u5dde","name:lv":"Charkovas apgabals","name:ja":"\u30cf\u30ea\u30b3\u30d5\u5dde","name:nn":"Kharkiv oblast","name:no":"Kharkiv oblast","kind":"region","name:sk":"Kharkivsk\u00e1 oblas\u0165","name:hy":"\u053d\u0561\u0580\u056f\u0578\u057e \u0574\u0561\u0580\u0566","name:ru":"\u0425\u0430\u0440\u044c\u043a\u043e\u0432\u0441\u043a\u0430\u044f \u043e\u0431\u043b\u0430\u0441\u0442\u044c","name:sv":"Kharkiv oblast","name:hu":"Kharkiv ter\u00fclet","name:hr":"Kharkivska oblast","name:sr":"\u041a\u0445\u0430\u0440\u043a\u0438\u0432 \u043e\u0431\u043b\u0430\u0441\u0442","name:eo":"\u0124arkiva Provinco","name:en":"Kharkiv Oblast","name":"\u0425\u0430\u0440\u043a\u0456\u0432\u0441\u044c\u043a\u0430 \u043e\u0431\u043b\u0430\u0441\u0442\u044c","name:gl":"Oblast de Kharkiv","name:fi":"Harkova alue","name:eu":"Kharkiv oblasta","name:et":"Kharkiv oblast","name:nl":"Oblast Kharkiv","name:es":"\u00d3blast de Kharkiv"},"coordinates":[2527,2450]},{"type":"Point","properties":{"name:pt":"Oblast de Lviv","name:lt":"Lvovo sritis","name:eo":"Lviva Provinco","min_zoom":4.0,"name:be":"\u041b\u044c\u0432\u043e\u045e\u0441\u043a\u0430\u044f \u0432\u043e\u0431\u043b\u0430\u0441\u0446\u044c","name:ru":"\u041b\u044c\u0432\u043e\u0432\u0441\u043a\u0430\u044f \u043e\u0431\u043b\u0430\u0441\u0442\u044c","name:pl":"obw\u00f3d lwowski","id":683681607,"kind":"region","name:en":"Lviv Oblast","name":"\u041b\u044c\u0432\u0456\u0432\u0441\u044c\u043a\u0430 \u043e\u0431\u043b\u0430\u0441\u0442\u044c","kind_detail":"state","name:de":"Oblast Lemberg","source":"openstreetmap.org","name:fr":"Oblast de Lviv","name:es":"\u00d3blast de Lviv"},"coordinates":[316,2541]},{"type":"Point","properties":{"kind":"region","name:en":"Ivano-Frankivsk Oblast","name":"\u0406\u0432\u0430\u043d\u043e-\u0424\u0440\u0430\u043d\u043a\u0456\u0432\u0441\u044c\u043a\u0430 \u043e\u0431\u043b\u0430\u0441\u0442\u044c","name:lt":"Ivano Frankivsko sritis","kind_detail":"state","name:eo":"Ivano-Frankivska Provinco","name:de":"Oblast Iwano-Frankiwsk","source":"openstreetmap.org","min_zoom":4.0,"name:fr":"Oblast d'Ivano-Frankivsk","name:be":"\u0406\u0432\u0430\u043d\u0430-\u0424\u0440\u0430\u043d\u043a\u043e\u045e\u0441\u043a\u0430\u044f \u0432\u043e\u0431\u043b\u0430\u0441\u0446\u044c","name:ru":"\u0418\u0432\u0430\u043d\u043e-\u0424\u0440\u0430\u043d\u043a\u043e\u0432\u0441\u043a\u0430\u044f \u043e\u0431\u043b\u0430\u0441\u0442\u044c","name:pl":"obw\u00f3d iwanofrankowski","id":1757670352,"name:es":"\u00d3blast de Ivano-Frankivsk"},"coordinates":[368,2150]},{"type":"Point","properties":{"name:ja":"\u30b9\u30e2\u30ec\u30f3\u30b9\u30af\u5dde","name:lt":"Smolensko sritis","name:eo":"Smolenska Provinco","name:tt":"\u0421\u043c\u043e\u043b\u0435\u043d\u0441\u043a \u04e9\u043b\u043a\u04d9\u0441\u0435","min_zoom":4.0,"name:uk":"\u0421\u043c\u043e\u043b\u0435\u043d\u0441\u044c\u043a\u0430 \u043e\u0431\u043b\u0430\u0441\u0442\u044c","name:be":"\u0421\u043c\u0430\u043b\u0435\u043d\u0441\u043a\u0430\u044f \u0432\u043e\u0431\u043b\u0430\u0441\u0446\u044c","name:pl":"Obw\u00f3d smole\u0144ski","id":778545155,"kind":"region","name:en":"Smolensk Oblast","name":"\u0421\u043c\u043e\u043b\u0435\u043d\u0441\u043a\u0430\u044f \u043e\u0431\u043b\u0430\u0441\u0442\u044c","kind_detail":"state","name:de":"Oblast Smolensk","source":"openstreetmap.org","name:fr":"Oblast de Smolensk","name:es":"\u00d3blast de Smolensk"},"coordinates":[1915,3891]},{"type":"Point","properties":{"int_name":"Hrodzienskaja voblas\u0107","name:sk":"Hrodnianska oblas\u0165","name:lt":"Gardino sritis","name:eo":"Grodna Regiono","min_zoom":4.0,"name:uk":"\u0413\u0440\u043e\u0434\u043d\u0435\u043d\u0441\u044c\u043a\u0430 \u043e\u0431\u043b\u0430\u0441\u0442\u044c","name:be":"\u0413\u0440\u043e\u0434\u0437\u0435\u043d\u0441\u043a\u0430\u044f \u0432\u043e\u0431\u043b\u0430\u0441\u0446\u044c","name:pl":"obw\u00f3d grodzie\u0144ski","name:hr":"Grodnenska oblast","id":513125713,"kind":"region","name:en":"Hrodna region","name":"\u0413\u0440\u043e\u0434\u043d\u0435\u043d\u0441\u043a\u0430\u044f \u043e\u0431\u043b\u0430\u0441\u0442\u044c","kind_detail":"state","name:de":"Woblast Hrodna","source":"openstreetmap.org","name:fr":"Voblast de Hrodna"},"coordinates":[468,3522]},{"type":"Point","properties":{"int_name":"Viciebskaja voblas\u0107","name:sk":"Vicebsk\u00e1 oblas\u0165","name:lt":"Vitebsko sritis","name:eo":"Vicebska Regiono","min_zoom":4.0,"name:uk":"\u0412\u0456\u0442\u0435\u0431\u0441\u044c\u043a\u0430 \u043e\u0431\u043b\u0430\u0441\u0442\u044c","name:be":"\u0412\u0456\u0446\u0435\u0431\u0441\u043a\u0430\u044f \u0432\u043e\u0431\u043b\u0430\u0441\u0446\u044c","name:pl":"obw\u00f3d witebski","id":566293550,"name:ca":"Prov\u00edncia de V\u00edtsiebsk","kind":"region","name:en":"Vitsebsk region","name":"\u0412\u0438\u0442\u0435\u0431\u0441\u043a\u0430\u044f \u043e\u0431\u043b\u0430\u0441\u0442\u044c","kind_detail":"state","name:de":"Woblast Wizebsk","source":"openstreetmap.org","name:fr":"Voblast de Vitebsk"},"coordinates":[1142,3947]},{"type":"Point","properties":{"int_name":"Bresckaja voblas\u0107","name:sk":"Brestsk\u00e1 oblas\u0165","name:lt":"Bresto sritis","name:eo":"Bresta Regiono","min_zoom":4.0,"name:uk":"\u0411\u0435\u0440\u0435\u0441\u0442\u0435\u0439\u0441\u044c\u043a\u0430 \u043e\u0431\u043b\u0430\u0441\u0442\u044c","name:be":"\u0411\u0440\u044d\u0441\u0446\u043a\u0430\u044f \u0432\u043e\u0431\u043b\u0430\u0441\u0446\u044c","name:pl":"obw\u00f3d brzeski","id":566296860,"kind":"region","name:en":"Brest region","name":"\u0411\u0440\u0435\u0441\u0442\u0441\u043a\u0430\u044f \u043e\u0431\u043b\u0430\u0441\u0442\u044c","kind_detail":"state","name:de":"Woblast Brest","source":"openstreetmap.org","name:fr":"Voblast de Brest"},"coordinates":[501,3165]},{"type":"Point","properties":{"int_name":"Minskaja voblas\u0107","name:sk":"Minsk\u00e1 oblas\u0165","name:lt":"Minsko sritis","name:eo":"Minska Regiono","min_zoom":4.0,"name:uk":"\u041c\u0456\u043d\u0441\u044c\u043a\u0430 \u043e\u0431\u043b\u0430\u0441\u0442\u044c","name:be":"\u041c\u0456\u043d\u0441\u043a\u0430\u044f \u0432\u043e\u0431\u043b\u0430\u0441\u0446\u044c","name:pl":"obw\u00f3d mi\u0144ski","id":566296863,"kind":"region","name:en":"Minsk Region","name":"\u041c\u0438\u043d\u0441\u043a\u0430\u044f \u043e\u0431\u043b\u0430\u0441\u0442\u044c","kind_detail":"state","name:de":"Woblast Minsk","source":"openstreetmap.org","name:fr":"Voblast de Minsk"},"coordinates":[957,3649]},{"type":"Point","properties":{"name:ja":"\u30d6\u30ea\u30e3\u30f3\u30b9\u30af\u5dde","name:lt":"Brjanskas apgabals","name:eo":"Brjanska Provinco","name:tt":"\u0411\u0440\u044f\u043d\u0441\u043a \u04e9\u043b\u043a\u04d9\u0441\u0435","min_zoom":4.0,"name:uk":"\u0411\u0440\u044f\u043d\u0441\u044c\u043a\u0430 \u043e\u0431\u043b\u0430\u0441\u0442\u044c","name:be":"\u0411\u0440\u0430\u043d\u0441\u043a\u0430\u044f \u0432\u043e\u0431\u043b\u0430\u0441\u0446\u044c","name:pl":"Obw\u00f3d bria\u0144ski","id":778569127,"kind":"region","name:en":"Bryansk Oblast","name":"\u0411\u0440\u044f\u043d\u0441\u043a\u0430\u044f \u043e\u0431\u043b\u0430\u0441\u0442\u044c","kind_detail":"state","name:de":"Oblast Brjansk","source":"openstreetmap.org","name:fr":"Oblast de Briansk","name:es":"\u00d3blast de Briansk"},"coordinates":[1987,3296]},{"type":"Point","properties":{"name:pt":"Oblast da Transcarp\u00e1tia","name:ro":"Regiunea Transcarpatia","name:cs":"Zakarpatsk\u00e1 oblast","name:eo":"Transkarpata Provinco","min_zoom":4.0,"name:be":"\u0417\u0430\u043a\u0430\u0440\u043f\u0430\u0446\u043a\u0430\u044f \u0432\u043e\u0431\u043b\u0430\u0441\u0446\u044c","name:ru":"\u0417\u0430\u043a\u0430\u0440\u043f\u0430\u0442\u0441\u043a\u0430\u044f \u043e\u0431\u043b\u0430\u0441\u0442\u044c","name:pl":"obw\u00f3d zakarpacki","id":683681593,"kind":"region","name:en":"Zakarpatska Oblast","name":"\u0417\u0430\u043a\u0430\u0440\u043f\u0430\u0442\u0441\u044c\u043a\u0430 \u043e\u0431\u043b\u0430\u0441\u0442\u044c","kind_detail":"state","name:de":"Oblast Transkarpatien","source":"openstreetmap.org","name:fr":"Oblast de Transcarpathie","name:es":"\u00d3blast de Transcarpatia"},"coordinates":[172,2025]},{"type":"Point","properties":{"name:pt":"Oblast de Chernivtsi","name:ro":"Regiunea Cern\u0103u\u021bi","name:eo":"\u0108ernivca Provinco","min_zoom":4.0,"name:be":"\u0427\u0430\u0440\u043d\u0430\u0432\u0456\u0446\u043a\u0430\u044f \u0432\u043e\u0431\u043b\u0430\u0441\u0446\u044c","name:ru":"\u0427\u0435\u0440\u043d\u043e\u0432\u0438\u0446\u043a\u0430\u044f \u043e\u0431\u043b\u0430\u0441\u0442\u044c","name:pl":"obw\u00f3d czerniowiecki","id":683681609,"kind":"region","name:en":"Chernivtsi Oblast","name":"\u0427\u0435\u0440\u043d\u0456\u0432\u0435\u0446\u044c\u043a\u0430 \u043e\u0431\u043b\u0430\u0441\u0442\u044c","kind_detail":"state","name:de":"Oblast Tschernowitz","source":"openstreetmap.org","name:fr":"Oblast de Tchernivtsi","name:es":"\u00d3blast de Chernivtsi"},"coordinates":[657,2049]},{"type":"Point","properties":{"kind":"region","name:en":"Khmelnytskyi Oblast","name":"\u0425\u043c\u0435\u043b\u044c\u043d\u0438\u0446\u044c\u043a\u0430 \u043e\u0431\u043b\u0430\u0441\u0442\u044c","kind_detail":"state","name:eo":"\u0124melnickija Provinco","name:de":"Oblast Chmelnyzkyj","source":"openstreetmap.org","min_zoom":4.0,"name:fr":"Oblast de Khmelnytsky\u00ef","name:be":"\u0425\u043c\u044f\u043b\u044c\u043d\u0456\u0446\u043a\u0430\u044f \u0432\u043e\u0431\u043b\u0430\u0441\u0446\u044c","name:ru":"\u0425\u043c\u0435\u043b\u044c\u043d\u0438\u0446\u043a\u0430\u044f \u043e\u0431\u043b\u0430\u0441\u0442\u044c","name:pl":"obw\u00f3d chmielnicki","id":683681601},"coordinates":[831,2294]},{"type":"Point","properties":{"name:pt":"Rep\u00fablica Aut\u00f4noma da Crimeia","name:az":"Kr\u0131m Muxtar Respublikas\u0131","name:tr":"K\u0131r\u0131m \u00d6zerk Cumhuriyeti","name:cu":"\u041a\ua651\u0440\ua651\u043c\u044c\u0441\u043a\u0430 \u0410\u0475\u0442\u043e\u043d\u043e\u043c\u044c\u043d\u0430 \u0414\u0438\u043c\u043e\u043a\u0440\u0430\u0442\u0457\ua657","name:cs":"Autonomn\u00ed republika Krym","name:tt":"\u041a\u044b\u0440\u044b\u043c \u0410\u0432\u0442\u043e\u043d\u043e\u043c\u0438\u044f\u043b\u0435 \u0496\u04e9\u043c\u04bb\u04af\u0440\u0438\u044f\u0442\u0435","min_zoom":4.0,"name:ko":"\ud06c\ub9bc \ubc18\ub3c4","name:be":"\u0410\u045e\u0442\u0430\u043d\u043e\u043c\u043d\u0430\u044f \u0420\u044d\u0441\u043f\u0443\u0431\u043b\u0456\u043a\u0430 \u041a\u0440\u044b\u043c","name:os":"\u0425\u044a\u044b\u0440\u044b\u043c\u044b \u0410\u0432\u0442\u043e\u043d\u043e\u043c\u043e\u043d \u0420\u0435\u0441\u043f\u0443\u0431\u043b\u0438\u043a\u00e6","name:ru":"\u0410\u0432\u0442\u043e\u043d\u043e\u043c\u043d\u0430\u044f \u0420\u0435\u0441\u043f\u0443\u0431\u043b\u0438\u043a\u0430 \u041a\u0440\u044b\u043c","name:pl":"Republika Autonomiczna Krymu","id":681769605,"name:mk":"\u0410\u0432\u0442\u043e\u043d\u043e\u043c\u043d\u0430 \u0420\u0435\u043f\u0443\u0431\u043b\u0438\u043a\u0430 \u041a\u0440\u0438\u043c","name:fi":"Krimin autonominen tasavalta","name:de":"Autonome Republik Krim","source":"openstreetmap.org","name:fr":"R\u00e9publique Autonome de Crim\u00e9e","name:zh":"\u514b\u91cc\u7c73\u4e9a\u81ea\u6cbb\u5171\u548c\u56fd","name:nl":"Autonome Republiek van de Krim","name:ja":"\u30af\u30ea\u30df\u30a2\u81ea\u6cbb\u5171\u548c\u56fd","name:lt":"Krymo autonomin\u0117 respublika","kind":"region","name:hy":"\u0542\u0580\u056b\u0574\u056b \u053b\u0576\u0584\u0576\u0561\u057e\u0561\u0580 \u0540\u0561\u0576\u0580\u0561\u057a\u0565\u057f\u0578\u0582\u0569\u0575\u0578\u0582\u0576","name:sv":"Autonoma republiken Krim","name:hu":"Kr\u00edmi Auton\u00f3m K\u00f6zt\u00e1rsas\u00e1g","name:ba":"\u04a0\u044b\u0440\u044b\u043c \u0410\u0432\u0442\u043e\u043d\u043e\u043c\u0438\u044f\u043b\u044b \u0420\u0435\u0441\u043f\u0443\u0431\u043b\u0438\u043a\u0430\u04bb\u044b","name:el":"\u0391\u03c5\u03c4\u03cc\u03bd\u03bf\u03bc\u03b7 \u0394\u03b7\u03bc\u03bf\u03ba\u03c1\u03b1\u03c4\u03af\u03b1 \u03c4\u03b7\u03c2 \u039a\u03c1\u03b9\u03bc\u03b1\u03af\u03b1\u03c2","name:eo":"A\u016dtonoma Respubliko Krimeo","name:en":"Autonomous Republic of Crimea","name":"\u0410\u0432\u0442\u043e\u043d\u043e\u043c\u043d\u0430 \u0420\u0435\u0441\u043f\u0443\u0431\u043b\u0456\u043a\u0430 \u041a\u0440\u0438\u043c","kind_detail":"state","name:es":"Rep\u00fablica Aut\u00f3noma de Crimea"},"coordinates":[2021,1277]},{"type":"Point","properties":{"kind":"region","name:en":"Mykolaiv Oblast","name":"\u041c\u0438\u043a\u043e\u043b\u0430\u0457\u0432\u0441\u044c\u043a\u0430 \u043e\u0431\u043b\u0430\u0441\u0442\u044c","kind_detail":"state","name:pt":"Oblast de Mikolaiv","name:de":"Oblast Mykolajiw","source":"openstreetmap.org","min_zoom":4.0,"name:eo":"Mikolajiva Provinco","name:fr":"Oblast de Mykola\u00efv","name:be":"\u041c\u0456\u043a\u0430\u043b\u0430\u0435\u045e\u0441\u043a\u0430\u044f \u0432\u043e\u0431\u043b\u0430\u0441\u0446\u044c","name:ru":"\u041d\u0438\u043a\u043e\u043b\u0430\u0435\u0432\u0441\u043a\u0430\u044f \u043e\u0431\u043b\u0430\u0441\u0442\u044c","name:pl":"obw\u00f3d miko\u0142ajowski","id":683681629,"name:es":"\u00d3blast de Mykolaiv"},"coordinates":[1719,1774]},{"type":"Point","properties":{"kind":"region","name:en":"Kherson Oblast","name":"\u0425\u0435\u0440\u0441\u043e\u043d\u0441\u044c\u043a\u0430 \u043e\u0431\u043b\u0430\u0441\u0442\u044c","kind_detail":"state","name:pt":"Oblast de Kherson","name:de":"Oblast Cherson","source":"openstreetmap.org","min_zoom":4.0,"name:eo":"\u0124ersona Provinco","name:fr":"Oblast de Kherson","name:be":"\u0425\u0435\u0440\u0441\u043e\u043d\u0441\u043a\u0430\u044f \u0432\u043e\u0431\u043b\u0430\u0441\u0446\u044c","name:ru":"\u0425\u0435\u0440\u0441\u043e\u043d\u0441\u043a\u0430\u044f \u043e\u0431\u043b\u0430\u0441\u0442\u044c","name:pl":"obw\u00f3d cherso\u0144ski","id":681769596,"name:es":"\u00d3blast de Kherson"},"coordinates":[1986,1540]},{"type":"Point","properties":{"kind":"region","name":"Artvin","kind_detail":"province","source":"openstreetmap.org","min_zoom":4.0,"name:uk":"\u0410\u0440\u0442\u0432\u0456\u043d","name:ru":"\u0410\u0440\u0442\u0432\u0438\u043d","id":2908518369},"coordinates":[3521,50]},{"type":"Point","properties":{"kind":"region","name:en":"Vinnytsya Oblast","name":"\u0412\u0456\u043d\u043d\u0438\u0446\u044c\u043a\u0430 \u043e\u0431\u043b\u0430\u0441\u0442\u044c","kind_detail":"state","name:pt":"Oblast de Vinnitsa","name:de":"Oblast Winnyzja","source":"openstreetmap.org","min_zoom":4.0,"name:eo":"Vinica Provinco","name:fr":"Oblast de Vinnitsa","name:be":"\u0412\u0456\u043d\u043d\u0456\u0446\u043a\u0430\u044f \u0432\u043e\u0431\u043b\u0430\u0441\u0446\u044c","name:ru":"\u0412\u0438\u043d\u043d\u0438\u0446\u043a\u0430\u044f \u043e\u0431\u043b\u0430\u0441\u0442\u044c","name:pl":"obw\u00f3d winnicki","id":681769610,"name:es":"\u00d3blast de Vinnytsia"},"coordinates":[1095,2192]},{"type":"Point","properties":{"name:pt":"Oblast de Kiev","name:cs":"Kyjevsk\u00e1 oblast","name:eo":"Kijiva Provinco","min_zoom":4.0,"name:be":"\u041a\u0456\u0435\u045e\u0441\u043a\u0430\u044f \u0432\u043e\u0431\u043b\u0430\u0441\u0446\u044c","name:ru":"\u041a\u0438\u0435\u0432\u0441\u043a\u0430\u044f \u043e\u0431\u043b\u0430\u0441\u0442\u044c","name:pl":"obw\u00f3d kijowski","id":681769608,"kind":"region","name:en":"Kyiv Oblast","name":"\u041a\u0438\u0457\u0432\u0441\u044c\u043a\u0430 \u043e\u0431\u043b\u0430\u0441\u0442\u044c","kind_detail":"state","name:de":"Oblast Kiew","source":"openstreetmap.org","name:fr":"Oblast de Kiev","name:es":"\u00d3blast de Kiev"},"coordinates":[1455,2546]},{"type":"Point","properties":{"kind":"region","name:en":"Kirovograd Oblast","name":"\u041a\u0456\u0440\u043e\u0432\u043e\u0433\u0440\u0430\u0434\u0441\u044c\u043a\u0430 \u043e\u0431\u043b\u0430\u0441\u0442\u044c","kind_detail":"state","name:pt":"Oblast de Kirovogrado","name:de":"Oblast Kirowohrad","source":"openstreetmap.org","min_zoom":4.0,"name:eo":"Kirovohrada Provinco","name:fr":"Oblast de Kirovohrad","name:be":"\u041a\u0456\u0440\u0430\u0432\u0430\u0433\u0440\u0430\u0434\u0441\u043a\u0430\u044f \u0432\u043e\u0431\u043b\u0430\u0441\u0446\u044c","name:ru":"\u041a\u0438\u0440\u043e\u0432\u043e\u0433\u0440\u0430\u0434\u0441\u043a\u0430\u044f \u043e\u0431\u043b\u0430\u0441\u0442\u044c","name:pl":"obw\u00f3d kirowohradzki","id":683681623,"name:es":"\u00d3blast de Kirovogrado"},"coordinates":[1690,2046]},{"type":"Point","properties":{"kind":"region","name:en":"Cherkasy Oblast","name":"\u0427\u0435\u0440\u043a\u0430\u0441\u044c\u043a\u0430 \u043e\u0431\u043b\u0430\u0441\u0442\u044c","kind_detail":"state","name:pt":"Oblast de Tcherk\u00e1ssi","name:de":"Oblast Tscherkassy","source":"openstreetmap.org","min_zoom":4.0,"name:eo":"\u0108erkasa Provinco","name:fr":"Oblast de Tcherkassy","name:be":"\u0427\u0430\u0440\u043a\u0430\u0441\u043a\u0430\u044f \u0432\u043e\u0431\u043b\u0430\u0441\u0446\u044c","name:ru":"\u0427\u0435\u0440\u043a\u0430\u0441\u0441\u043a\u0430\u044f \u043e\u0431\u043b\u0430\u0441\u0442\u044c","name:pl":"obw\u00f3d czerkaski","id":681769624,"name:es":"\u00d3blast de Cherkasy"},"coordinates":[1589,2261]},{"type":"Point","properties":{"kind":"region","name:en":"Volyn Oblast","name":"\u0412\u043e\u043b\u0438\u043d\u0441\u044c\u043a\u0430 \u043e\u0431\u043b\u0430\u0441\u0442\u044c","kind_detail":"state","name:pt":"Oblast de Vol\u00ednia","name:de":"Oblast Wolhynien","source":"openstreetmap.org","min_zoom":4.0,"name:eo":"Volina Provinco","name:fr":"Oblast de Volhynie","name:be":"\u0412\u0430\u043b\u044b\u043d\u0441\u043a\u0430\u044f \u0432\u043e\u0431\u043b\u0430\u0441\u0446\u044c","name:ru":"\u0412\u043e\u043b\u044b\u043d\u0441\u043a\u0430\u044f \u043e\u0431\u043b\u0430\u0441\u0442\u044c","name:pl":"obw\u00f3d wo\u0142y\u0144ski","id":681769616,"name:es":"\u00d3blast de Volyn"},"coordinates":[394,2925]},{"type":"Point","properties":{"kind":"region","name:en":"Rivne Oblast","name":"\u0420\u0456\u0432\u043d\u0435\u043d\u0441\u044c\u043a\u0430 \u043e\u0431\u043b\u0430\u0441\u0442\u044c","kind_detail":"state","name:pt":"Oblast de Rivne","name:de":"Oblast Riwne","source":"openstreetmap.org","min_zoom":4.0,"name:eo":"Rivna Provinco","name:fr":"Oblast de Rivne","name:be":"\u0420\u043e\u0432\u0435\u043d\u0441\u043a\u0430\u044f \u0432\u043e\u0431\u043b\u0430\u0441\u0446\u044c","name:ru":"\u0420\u043e\u0432\u0435\u043d\u0441\u043a\u0430\u044f \u043e\u0431\u043b\u0430\u0441\u0442\u044c","name:pl":"obw\u00f3d r\u00f3wie\u0144ski","id":681769620,"name:es":"\u00d3blast de Rivne"},"coordinates":[732,2831]},{"type":"Point","properties":{"kind":"region","name:en":"Zhitomir Oblast","name":"\u0416\u0438\u0442\u043e\u043c\u0438\u0440\u0441\u044c\u043a\u0430 \u043e\u0431\u043b\u0430\u0441\u0442\u044c","kind_detail":"state","name:pt":"Oblast de Jitomir","name:de":"Oblast Schytomyr","source":"openstreetmap.org","min_zoom":4.0,"name:eo":"\u0134itomira Provinco","name:fr":"Oblast de Jitomir","name:be":"\u0416\u044b\u0442\u043e\u043c\u0456\u0440\u0441\u043a\u0430\u044f \u0432\u043e\u0431\u043b\u0430\u0441\u0446\u044c","name:ru":"\u0416\u0438\u0442\u043e\u043c\u0438\u0440\u0441\u043a\u0430\u044f \u043e\u0431\u043b\u0430\u0441\u0442\u044c","name:pl":"obw\u00f3d \u017cytomierski","id":681769611,"name:es":"\u00d3blast de Zhytomyr"},"coordinates":[1072,2748]},{"type":"Point","properties":{"kind":"region","name:en":"Chernihiv Oblast","name":"\u0427\u0435\u0440\u043d\u0456\u0433\u0456\u0432\u0441\u044c\u043a\u0430 \u043e\u0431\u043b\u0430\u0441\u0442\u044c","kind_detail":"state","name:pt":"Oblast de Chernigov","name:de":"Oblast Tschernihiw","source":"openstreetmap.org","min_zoom":4.0,"name:eo":"\u0108ernihiva Provinco","name:fr":"Oblast de Tchernihiv","name:be":"\u0427\u0430\u0440\u043d\u0456\u0433\u0430\u045e\u0441\u043a\u0430\u044f \u0432\u043e\u0431\u043b\u0430\u0441\u0446\u044c","name:ru":"\u0427\u0435\u0440\u043d\u0438\u0433\u043e\u0432\u0441\u043a\u0430\u044f \u043e\u0431\u043b\u0430\u0441\u0442\u044c","name:pl":"obw\u00f3d czernihowski","id":681769601,"name:es":"\u00d3blast de Chernihiv"},"coordinates":[1682,2849]},{"type":"Point","properties":{"kind":"region","name:en":"Zaporizhzhya Oblast","name":"\u0417\u0430\u043f\u043e\u0440\u0456\u0437\u044c\u043a\u0430 \u043e\u0431\u043b\u0430\u0441\u0442\u044c","kind_detail":"state","name:cs":"Z\u00e1poro\u017esk\u00e1 oblast","name:eo":"Zapori\u0135a Provinco","name:de":"Oblast Saporischschja","source":"openstreetmap.org","min_zoom":4.0,"name:fr":"Oblast de Zaporijia","name:be":"\u0417\u0430\u043f\u0430\u0440\u043e\u0436\u0441\u043a\u0430\u044f \u0432\u043e\u0431\u043b\u0430\u0441\u0446\u044c","name:ru":"\u0417\u0430\u043f\u043e\u0440\u043e\u0436\u0441\u043a\u0430\u044f \u043e\u0431\u043b\u0430\u0441\u0442\u044c","name:pl":"obw\u00f3d zaporoski","id":683681618,"name:es":"\u00d3blast de Zaporizhia"},"coordinates":[2444,1782]},{"type":"Point","properties":{"kind":"region","name:en":"Dnipropetrovsk Oblast","name":"\u0414\u043d\u0456\u043f\u0440\u043e\u043f\u0435\u0442\u0440\u043e\u0432\u0441\u044c\u043a\u0430 \u043e\u0431\u043b\u0430\u0441\u0442\u044c","kind_detail":"state","name:pt":"Oblast de Dnipropetrovsk","name:de":"Oblast Dnipropetrowsk","source":"openstreetmap.org","min_zoom":4.0,"name:eo":"Dnipropetrovska Provinco","name:fr":"Oblast de Dnipropetrovsk","name:be":"\u0414\u043d\u0435\u043f\u0440\u0430\u043f\u044f\u0442\u0440\u043e\u045e\u0441\u043a\u0430\u044f \u0432\u043e\u0431\u043b\u0430\u0441\u0446\u044c","name:ru":"\u0414\u043d\u0435\u043f\u0440\u043e\u043f\u0435\u0442\u0440\u043e\u0432\u0441\u043a\u0430\u044f \u043e\u0431\u043b\u0430\u0441\u0442\u044c","name:pl":"obw\u00f3d dniepropetrowski","id":683681626,"name:es":"\u00d3blast de Dnipropetrovsk"},"coordinates":[2266,2127]},{"type":"Point","properties":{"kind":"region","name:en":"Sumy Oblast","name":"\u0421\u0443\u043c\u0441\u044c\u043a\u0430 \u043e\u0431\u043b\u0430\u0441\u0442\u044c","kind_detail":"state","name:eo":"Suma Provinco","name:de":"Oblast Sumy","source":"openstreetmap.org","min_zoom":4.0,"name:fr":"Oblast de Soumy","name:be":"\u0421\u0443\u043c\u0441\u043a\u0430\u044f \u0432\u043e\u0431\u043b\u0430\u0441\u0446\u044c","name:ru":"\u0421\u0443\u043c\u0441\u043a\u0430\u044f \u043e\u0431\u043b\u0430\u0441\u0442\u044c","name:pl":"obw\u00f3d sumski","id":681769593,"name:es":"\u00d3blast de Sumy"},"coordinates":[2153,2710]},{"type":"Point","properties":{"old_name:fr":"Voblast de Moguilev","name:pt":"Voblast de Mahilou","name:az":"Mogilyov vilay\u0259ti","name:nl":"Oblast Mahiljow","name:lt":"Mogiliovo sritis","name:uz":"Mogilyov viloyati","kind":"region","min_zoom":4.0,"int_name":"Mahilio\u01d4skaja voblas\u0107","old_name:en":"Mogilev Region","name:uk":"\u041c\u043e\u0433\u0438\u043b\u044c\u043e\u0432\u0441\u044c\u043a\u0430 \u043e\u0431\u043b\u0430\u0441\u0442\u044c","name:be":"\u041c\u0430\u0433\u0456\u043b\u0451\u045e\u0441\u043a\u0430\u044f \u0432\u043e\u0431\u043b\u0430\u0441\u0446\u044c","name:sk":"Mahi\u013eovsk\u00e1 oblas\u0165","name:pl":"obw\u00f3d mohylewski","id":566293548,"name:ky":"\u041c\u043e\u0433\u0438\u043b\u0451\u0432 \u043e\u0431\u043b\u0430\u0441\u0442\u044b","name:eo":"Mahilova Regiono","name:en":"Mahilyow Voblasts","name":"\u041c\u043e\u0433\u0438\u043b\u0451\u0432\u0441\u043a\u0430\u044f \u043e\u0431\u043b\u0430\u0441\u0442\u044c","kind_detail":"state","name:de":"Woblast Mahiljou","source":"openstreetmap.org","name:fr":"Voblast de Mahiliow"},"coordinates":[1436,3528]},{"type":"Point","properties":{"kind":"region","name":"Tekirda\u011f","kind_detail":"province","name:ar":"\u062a\u0643\u064a\u0631\u062f\u0627\u063a","source":"openstreetmap.org","min_zoom":4.0,"name:uk":"\u0422\u0435\u043a\u0456\u0440\u0434\u0430\u0433","name:ru":"\u0422\u0435\u043a\u0438\u0440\u0434\u0430\u0433","id":602447917},"coordinates":[895,38]},{"type":"Point","properties":{"kind":"region","name":"Kastamonu","kind_detail":"province","source":"openstreetmap.org","min_zoom":4.0,"name:uk":"\u041a\u0430\u0441\u0442\u0430\u043c\u043e\u043d\u0443","name:ru":"\u041a\u0430\u0441\u0442\u0430\u043c\u043e\u043d\u0443","id":2874047955},"coordinates":[2050,107]},{"type":"Point","properties":{"kind":"region","name":"Sinop","kind_detail":"province","source":"openstreetmap.org","min_zoom":4.0,"name:uk":"\u0421\u0438\u043d\u043e\u043f","name:ru":"\u0421\u0438\u043d\u043e\u043f","id":2894839377},"coordinates":[2252,183]},{"type":"Point","properties":{"kind":"region","name:en":"Istanbul","name":"\u0130stanbul","kind_detail":"province","source":"openstreetmap.org","min_zoom":4.0,"name:uk":"\u0421\u0442\u0430\u043c\u0431\u0443\u043b","name:ru":"\u0421\u0442\u0430\u043c\u0431\u0443\u043b","id":2895014424},"coordinates":[1193,27]},{"type":"Point","properties":{"kind":"region","name":"Samsun","kind_detail":"province","source":"openstreetmap.org","min_zoom":4.0,"name:uk":"\u0421\u0430\u043c\u0441\u0443\u043d","name:ru":"\u0421\u0430\u043c\u0441\u0443\u043d","id":2908518370},"coordinates":[2452,69]},{"type":"Point","properties":{"kind":"region","name":"Zonguldak","kind_detail":"province","source":"openstreetmap.org","min_zoom":4.0,"name:uk":"\u0417\u043e\u043d\u0433\u0443\u043b\u0434\u0430\u043a","name:ru":"\u0417\u043e\u043d\u0433\u0443\u043b\u0434\u0430\u043a","id":2908518389},"coordinates":[1700,75]},{"type":"Point","properties":{"kind":"region","name":"Bart\u0131n","kind_detail":"province","source":"openstreetmap.org","min_zoom":4.0,"name:uk":"\u0411\u0430\u0440\u0442\u0438\u043d","name:ru":"\u0411\u0430\u0440\u0442\u044b\u043d","id":3001762007},"coordinates":[1809,143]},{"type":"Point","properties":{"kind":"region","name":"Karab\u00fck","kind_detail":"province","source":"openstreetmap.org","min_zoom":4.0,"name:uk":"\u041a\u0430\u0440\u0430\u0431\u044e\u043a","name:ru":"\u041a\u0430\u0440\u0430\u0431\u044e\u043a","id":3042002357},"coordinates":[1842,36]},{"type":"Point","properties":{"kind":"region","name":"K\u0131rklareli","kind_detail":"province","source":"openstreetmap.org","min_zoom":4.0,"name:uk":"\u041a\u0438\u0440\u043a\u043b\u0430\u0440\u0435\u043b\u0456","name:ru":"\u041a\u044b\u0440\u043a\u043b\u0430\u0440\u0435\u043b\u0438","id":3042002358},"coordinates":[929,201]},{"type":"Point","properties":{"kind":"region","name":"Edirne","kind_detail":"province","source":"openstreetmap.org","min_zoom":4.0,"name:uk":"\u0415\u0434\u0456\u0440\u043d\u0435","name:ru":"\u042d\u0434\u0438\u0440\u043d\u0435","id":3042002361},"coordinates":[750,56]},{"type":"Point","properties":{"int_name":"Homie\u013askaja voblas\u0107","name:sk":"Home\u013esk\u00e1 oblas\u0165","name:lt":"Gomelio sritis","name:eo":"Homela Regiono","min_zoom":4.0,"name:uk":"\u0413\u043e\u043c\u0454\u043b\u044c\u0441\u044c\u043a\u0430 \u043e\u0431\u043b\u0430\u0441\u0442\u044c","name:be":"\u0413\u043e\u043c\u0435\u043b\u044c\u0441\u043a\u0430\u044f \u0432\u043e\u0431\u043b\u0430\u0441\u0446\u044c","name:pl":"obw\u00f3d homelski","id":566296861,"old_name:uk":"\u0413\u043e\u043c\u0435\u043b\u044c\u0441\u044c\u043a\u0430 \u043e\u0431\u043b\u0430\u0441\u0442\u044c","kind":"region","name:en":"Homel region","name":"\u0413\u043e\u043c\u0435\u043b\u044c\u0441\u043a\u0430\u044f \u043e\u0431\u043b\u0430\u0441\u0442\u044c","kind_detail":"state","name:de":"Woblast Homel","source":"openstreetmap.org","name:fr":"Voblast de Homiel"},"coordinates":[1282,3137]},{"type":"Point","properties":{"name:ms":"Jajahan Krasnodar","name:ko":"\ud06c\ub77c\uc2a4\ub178\ub2e4\ub974 \uc9c0\ubc29","name:ar":"\u0643\u0631\u0627\u0633\u0646\u0648\u062f\u0627\u0631 \u0643\u0631\u0627\u064a","name:cs":"Krasnodarsk\u00fd kraj","name:tr":"Krasnodar Kray\u0131","name:is":"Krasnodarfylki","name:it":"Territorio di Krasnodar","name:pl":"Kraj Krasnodarski","name:ta":"\u0b95\u0bbf\u0bb0\u0bbe\u0bb8\u0bcd\u0ba9\u0ba4\u0bbe\u0bb0\u0bcd \u0baa\u0bbf\u0bb0\u0ba4\u0bc7\u0b9a\u0bae\u0bcd","id":3140016266,"name:ca":"Territori de Krasnodar","name:af":"Krasnodar-krai","kind_detail":"state","name:no":"Krasnodar kraj","name:de":"Region Krasnodar","source":"openstreetmap.org","name:fr":"Kra\u00ef de Krasnodar","name:zh":"\u514b\u62c9\u65af\u8bfa\u8fbe\u5c14\u8fb9\u7586\u533a","admin_level":"4","name:sk":"Krasnodarsk\u00fd kraj","name:ja":"\u30af\u30e9\u30b9\u30ce\u30c0\u30fc\u30eb\u5730\u65b9","name:nn":"Krasnodar kraj","name:hi":"\u0915\u094d\u0930\u093e\u0938\u094d\u0928\u094b\u0926\u093e\u0930 \u0915\u094d\u0930\u093e\u092f","name:he":"\u05e7\u05e8\u05e1\u05e0\u05d5\u05d3\u05d0\u05e8 (\u05de\u05d7\u05d5\u05d6)","kind":"region","name:ur":"\u06a9\u0631\u06cc\u0633\u0646\u0648\u0688\u0627\u0631 \u06a9\u0631\u0627\u0626\u06cc","name:uk":"\u041a\u0440\u0430\u0441\u043d\u043e\u0434\u0430\u0440\u0441\u044c\u043a\u0438\u0439 \u043a\u0440\u0430\u0439","name:sv":"Krasnodar kraj","name:hu":"Krasznodari hat\u00e1rter\u00fclet","name:hr":"Krasnodarski kraj","name:sr":"\u041a\u0440\u0430\u0441\u043d\u043e\u0434\u0430\u0440\u0441\u043a\u0430 \u041f\u043e\u043a\u0440\u0430\u0458\u0438\u043d\u0430","name:el":"\u039a\u03c1\u03ac\u03b9 \u039a\u03c1\u03b1\u03c3\u03bd\u03bf\u03bd\u03c4\u03ac\u03c1","name:eo":"Krasnodara regiono","name:en":"Krasnodar Krai","name":"\u041a\u0440\u0430\u0441\u043d\u043e\u0434\u0430\u0440\u0441\u043a\u0438\u0439 \u043a\u0440\u0430\u0439","min_zoom":4.0,"name:fi":"Krasnodarin aluepiiri","name:es":"Krai de Krasnodar"},"coordinates":[3008,1326]},{"type":"Point","properties":{"kind":"region","name:en":"Republic of Crimea","name:nl":"Republiek de Krim","name":"\u0420\u0435\u0441\u043f\u0443\u0431\u043b\u0438\u043a\u0430 \u041a\u0440\u044b\u043c","name:tr":"K\u0131r\u0131m Cumhuriyeti","kind_detail":"state","name:cs":"Republika Krym","min_zoom":4.0,"name:de":"Republik Krim","source":"openstreetmap.org","name:fr":"R\u00e9publique de Crim\u00e9e","name:uk":"\u0420\u0435\u0441\u043f\u0443\u0431\u043b\u0456\u043a\u0430 \u041a\u0440\u0438\u043c","name:pl":"Republika Krymu","name:zh":"\u514b\u91cc\u7c73\u4e9a\u5171\u548c\u56fd","id":2898654909},"coordinates":[2228,1165]},{"type":"Point","properties":{"kind":"region","name:en":"Republic of Adygea","name":"\u0410\u0434\u044b\u0433\u0435\u044f","kind_detail":"state","name:eo":"Adigeio","official_name":"\u0420\u0435\u0441\u043f\u0443\u0431\u043b\u0438\u043a\u0430 \u0410\u0434\u044b\u0433\u0435\u044f","name:de":"Republik Adygeja","source":"openstreetmap.org","name:fr":"Adygu\u00e9e","name:ku":"Ad\u00eegeya","name:et":"Ad\u00f5gee","min_zoom":4.0,"name:hu":"Adigef\u00f6ld","name:zh":"\u963f\u8fea\u683c\u5171\u548c\u56fd","id":869555482},"coordinates":[3213,1028]},{"type":"Point","properties":{"name:pt":"Moscovo","int_name":"Moscow","name:sk":"Moskva","name:ja":"\u30e2\u30b9\u30af\u30ef\u9023\u90a6\u5e02","name:eo":"Moskvo","min_zoom":4.0,"name:it":"Mosca","name:sv":"Moskva","name:pl":"Moskwa","id":2452912060,"kind":"region","name:en":"Moscow","name":"\u041c\u043e\u0441\u043a\u0432\u0430","kind_detail":"state","name:de":"Moskau","source":"openstreetmap.org","name:fr":"Moscou","name:nl":"Moskou","name:es":"Mosc\u00fa"},"coordinates":[2699,4014]},{"type":"Point","properties":{"admin_level":"4","int_name":"Republic of Mordovia","name:ja":"\u30e2\u30eb\u30c9\u30f4\u30a3\u30a2\u5171\u548c\u56fd","name:lt":"Mordvijos Respublika","name:cs":"Mordvinsko","min_zoom":4.0,"name:pl":"Republika Mordowii","id":4418300334,"name:ca":"Mord\u00f2via","kind":"region","name:en":"Republic of Mordovia","name":"\u041c\u043e\u0440\u0434\u043e\u0432\u0438\u044f","kind_detail":"state","name:de":"Republik Mordwinien","source":"openstreetmap.org","name:fr":"R\u00e9publique de Mordovie"},"coordinates":[3999,3727]},{"type":"Point","properties":{"kind":"region","name:en":"Stavropol Krai","name":"\u0421\u0442\u0430\u0432\u0440\u043e\u043f\u043e\u043b\u044c\u0441\u043a\u0438\u0439 \u043a\u0440\u0430\u0439","kind_detail":"state","name:eo":"Stavropola Regiono","name:de":"Region Stawropol","source":"openstreetmap.org","min_zoom":4.0,"name:fr":"Kra\u00ef de Stavropol","name:be":"\u0421\u0442\u0430\u045e\u0440\u0430\u043f\u043e\u043b\u044c\u0441\u043a\u0456 \u043a\u0440\u0430\u0439","name:et":"Stavropoli krai","name:hu":"Sztavropoli hat\u00e1rter\u00fclet","name:zh":"\u65af\u5854\u592b\u7f57\u6ce2\u5c14\u8fb9\u7586\u533a","id":869547585,"name:es":"Krai de St\u00e1vropol"},"coordinates":[3812,1075]},{"type":"Point","properties":{"kind":"region","name:en":"Ingushetia","name":"\u0418\u043d\u0433\u0443\u0448\u0435\u0442\u0438\u044f","kind_detail":"state","name:eo":"Ingu\u015dio","name:de":"Inguschetien","source":"openstreetmap.org","name:fr":"Ingouchie","name:be":"\u0406\u043d\u0433\u0443\u0448\u044d\u0446\u0456\u044f","name:ku":"\u00ceng\u00fb\u015fetya","name:et":"Ingu\u0161\u0161ia","min_zoom":4.0,"name:hu":"Ingusf\u00f6ld","name:zh":"\u5370\u53e4\u4ec0\u5171\u548c\u56fd","id":869606611},"coordinates":[4092,605]},{"type":"Point","properties":{"name:eo":"Kabardio-Balkario","name:tt":"\u041a\u0430\u0431\u0430\u0440\u0434\u0430-\u0411\u0430\u043b\u043a\u0430\u0440\u0438\u044f","min_zoom":4.0,"official_name":"\u041a\u0430\u0431\u0430\u0440\u0434\u0438\u043d\u043e-\u0411\u0430\u043b\u043a\u0430\u0440\u0441\u043a\u0430\u044f \u0420\u0435\u0441\u043f\u0443\u0431\u043b\u0438\u043a\u0430","name:be":"\u041a\u0430\u0431\u0430\u0440\u0434\u0437\u0456\u043d\u0430-\u0411\u0430\u043b\u043a\u0430\u0440\u044b\u044f","name:hu":"Kabardino-Balkaria","id":869609474,"kind":"region","name:en":"Kabardino-Balkaria","name":"\u041a\u0430\u0431\u0430\u0440\u0434\u0438\u043d\u043e-\u0411\u0430\u043b\u043a\u0430\u0440\u0438\u044f","kind_detail":"state","name:ku":"Kabard\u00eeno-Balkarya","name:de":"Kabardino-Balkarien","source":"openstreetmap.org","name:fr":"Kabardino-Balkarie","name:zh":"\u5361\u5df4\u5c14\u8fbe\u2014\u5df4\u5c14\u5361\u5c14\u5171\u548c\u56fd"},"coordinates":[3808,682]},{"type":"Point","properties":{"kind":"region","name:en":"Lori","name":"\u053c\u0578\u057c\u056b","name:lt":"Lorio sritis","kind_detail":"state","min_zoom":4.0,"name:de":"Lori","source":"openstreetmap.org","name:fr":"Lorri","name:uk":"\u041b\u043e\u0440\u0456","name:ru":"\u041b\u043e\u0440\u0438","name:pl":"Prowincja Lori","name:hu":"Lorj","id":1883945002,"name:es":"Lorri"},"coordinates":[4003,8]},{"type":"Point","properties":{"int_name":"Ryazan Oblast","name:sk":"Riazansk\u00e1 oblas\u0165","name:ja":"\u30ea\u30e3\u30b6\u30f3\u5dde","name:lt":"Riazan\u0117s sritis","kind":"region","name:tt":"\u0420\u044f\u0437\u0430\u043d\u044c \u04e9\u043b\u043a\u04d9\u0441\u0435","min_zoom":4.0,"name:uk":"\u0420\u044f\u0437\u0430\u043d\u0441\u044c\u043a\u0430 \u043e\u0431\u043b\u0430\u0441\u0442\u044c","name:be":"\u0420\u0430\u0437\u0430\u043d\u0441\u043a\u0430\u044f \u0432\u043e\u0431\u043b\u0430\u0441\u0446\u044c","name:pl":"Obw\u00f3d riaza\u0144ski","name:hu":"Rjazanyi ter\u00fclet","name:hr":"Rjazanjska oblast","id":505006802,"name:eo":"Rjazanja Provinco","name:en":"Ryazan region","name":"\u0420\u044f\u0437\u0430\u043d\u0441\u043a\u0430\u044f \u043e\u0431\u043b\u0430\u0441\u0442\u044c","kind_detail":"state","name:de":"Oblast Rjasan","source":"openstreetmap.org","name:fr":"Oblast de Riazan","name:es":"\u00d3blast de Riaz\u00e1n"},"coordinates":[3290,3721]},{"type":"Point","properties":{"name:ja":"\u30ea\u30da\u30c4\u30af\u5dde","name:lt":"Lipecko sritis","name:eo":"Lipecka Provinco","name:tt":"\u041b\u0438\u043f\u0435\u0446\u043a \u04e9\u043b\u043a\u04d9\u0441\u0435","min_zoom":4.0,"name:uk":"\u041b\u0438\u043f\u0435\u0446\u044c\u043a\u0430 \u043e\u0431\u043b\u0430\u0441\u0442\u044c","name:be":"\u041b\u0456\u043f\u0435\u0446\u043a\u0430\u044f \u0432\u043e\u0431\u043b\u0430\u0441\u0446\u044c","name:pl":"Obw\u00f3d lipiecki","id":648753997,"kind":"region","name:en":"Lipetsk Oblast","name":"\u041b\u0438\u043f\u0435\u0446\u043a\u0430\u044f \u043e\u0431\u043b\u0430\u0441\u0442\u044c","kind_detail":"state","name:de":"Oblast Lipezk","source":"openstreetmap.org","name:fr":"Oblast de Lipetsk","name:es":"\u00d3blast de L\u00edpetsk"},"coordinates":[3024,3243]},{"type":"Point","properties":{"name:ja":"\u30bf\u30f3\u30dc\u30d5\u5dde","name:lt":"Tambovo sritis","name:eo":"Tambova Provinco","name:tt":"\u0422\u0430\u043c\u0431\u043e\u0432 \u04e9\u043b\u043a\u04d9\u0441\u0435","min_zoom":4.0,"name:uk":"\u0422\u0430\u043c\u0431\u043e\u0432\u0441\u044c\u043a\u0430 \u043e\u0431\u043b\u0430\u0441\u0442\u044c","name:be":"\u0422\u0430\u043c\u0431\u043e\u045e\u0441\u043a\u0430\u044f \u0432\u043e\u0431\u043b\u0430\u0441\u0446\u044c","name:pl":"Obw\u00f3d tambowski","name:hu":"Tambovi ter\u00fclet","id":648753999,"kind":"region","name:en":"Tambov Oblast","name":"\u0422\u0430\u043c\u0431\u043e\u0432\u0441\u043a\u0430\u044f \u043e\u0431\u043b\u0430\u0441\u0442\u044c","kind_detail":"state","name:de":"Oblast Tambow","source":"openstreetmap.org","name:fr":"Oblast de Tambov","name:es":"\u00d3blast de Tambov"},"coordinates":[3433,3300]},{"type":"Point","properties":{"name:pt":"Oblast de Donetsk","name:eo":"Donecka Provinco","min_zoom":4.0,"name:be":"\u0414\u0430\u043d\u0435\u0446\u043a\u0430\u044f \u0432\u043e\u0431\u043b\u0430\u0441\u0446\u044c","name:ru":"\u0414\u043e\u043d\u0435\u0446\u043a\u0430\u044f \u043e\u0431\u043b\u0430\u0441\u0442\u044c","name:pl":"obw\u00f3d doniecki","id":683681597,"kind":"region","name:en":"Donetsk Oblast","name":"\u0414\u043e\u043d\u0435\u0446\u044c\u043a\u0430 \u043e\u0431\u043b\u0430\u0441\u0442\u044c","kind_detail":"state","name:de":"Oblast Donezk","source":"openstreetmap.org","name:fr":"Oblast de Donetsk","name:zh":"\u987f\u6d85\u8328\u514b\u5dde","name:es":"\u00d3blast de Donetsk"},"coordinates":[2782,1922]},{"type":"Point","properties":{"name:pt":"Oblast de Rostov","name:short":"\u0420\u041e","name:eo":"Rostova Provinco","min_zoom":4.0,"name:be":"\u0420\u0430\u0441\u0442\u043e\u045e\u0441\u043a\u0430\u044f \u0432\u043e\u0431\u043b\u0430\u0441\u0446\u044c","name:pl":"Obw\u00f3d rostowski","name:hu":"Rosztovi ter\u00fclet","id":696768134,"kind":"region","name:en":"Rostov oblast","name":"\u0420\u043e\u0441\u0442\u043e\u0432\u0441\u043a\u0430\u044f \u043e\u0431\u043b\u0430\u0441\u0442\u044c","kind_detail":"state","name:de":"Oblast Rostow","source":"openstreetmap.org","name:fr":"Oblast de Rostov","name:zh":"\u7f57\u65af\u6258\u592b\u5dde","name:es":"\u00d3blast de Rostov"},"coordinates":[3331,1839]},{"type":"Point","properties":{"name:ja":"\u30da\u30f3\u30b6\u5dde","name:lt":"Penzos sritis","name:eo":"Penza Provinco","name:tt":"\u041f\u0435\u043d\u0437\u0430 \u04e9\u043b\u043a\u04d9\u0441\u0435","min_zoom":4.0,"name:uk":"\u041f\u0435\u043d\u0437\u0435\u043d\u0441\u044c\u043a\u0430 \u043e\u0431\u043b\u0430\u0441\u0442\u044c","name:be":"\u041f\u0435\u043d\u0437\u0435\u043d\u0441\u043a\u0430\u044f \u0432\u043e\u0431\u043b\u0430\u0441\u0446\u044c","name:pl":"Obw\u00f3d penze\u0144ski","name:hu":"Penzai ter\u00fclet","id":771205162,"kind":"region","name:en":"Penza Oblast","name":"\u041f\u0435\u043d\u0437\u0435\u043d\u0441\u043a\u0430\u044f \u043e\u0431\u043b\u0430\u0441\u0442\u044c","kind_detail":"state","name:de":"Oblast Pensa","source":"openstreetmap.org","name:fr":"Oblast de Penza","name:es":"\u00d3blast de Penza"},"coordinates":[4057,3373]},{"type":"Point","properties":{"name:lt":"Volgogrado sritis","name:eo":"Volgograda Provinco","name:tt":"\u0412\u043e\u043b\u0433\u043e\u0433\u0440\u0430\u0434 \u04e9\u043b\u043a\u04d9\u0441\u0435","min_zoom":4.0,"name:uk":"\u0412\u043e\u043b\u0433\u043e\u0433\u0440\u0430\u0434\u0441\u044c\u043a\u0430 \u043e\u0431\u043b\u0430\u0441\u0442\u044c","name:be":"\u0412\u0430\u043b\u0433\u0430\u0433\u0440\u0430\u0434\u0441\u043a\u0430\u044f \u0432\u043e\u0431\u043b\u0430\u0441\u0446\u044c","name:pl":"Obw\u00f3d wo\u0142gogradzki","name:hu":"Volgogr\u00e1di ter\u00fclet","id":786882071,"kind":"region","name:en":"Volgograd Oblast","name":"\u0412\u043e\u043b\u0433\u043e\u0433\u0440\u0430\u0434\u0441\u043a\u0430\u044f \u043e\u0431\u043b\u0430\u0441\u0442\u044c","kind_detail":"state","name:de":"Oblast Wolgograd","source":"openstreetmap.org","name:fr":"Oblast de Volgograd","name:zh":"\u4f0f\u5c14\u52a0\u683c\u52d2\u5dde","name:es":"\u00d3blast de Volgogrado"},"coordinates":[3967,2388]},{"type":"Point","properties":{"name:ba":"\u041c\u043e\u0440\u0434\u043e\u0432\u0438\u044f \u0420\u0435\u0441\u043f\u0443\u0431\u043b\u0438\u043a\u0430\u04bb\u044b","int_name":"Mordovia","name:ja":"\u30e2\u30eb\u30c9\u30f4\u30a3\u30a2\u5171\u548c\u56fd","name:lt":"Mordvija","name:eo":"Mordvio","official_name":"\u0420\u0435\u0441\u043f\u0443\u0431\u043b\u0438\u043a\u0430 \u041c\u043e\u0440\u0434\u043e\u0432\u0438\u044f","min_zoom":4.0,"name:uk":"\u041c\u043e\u0440\u0434\u043e\u0432\u0456\u044f","name:be":"\u041c\u0430\u0440\u0434\u043e\u0432\u0456\u044f","name:pl":"Mordowia","name:hu":"Mordvinf\u00f6ld","id":869508901,"kind":"region","name:en":"Mordovia","name":"\u041c\u043e\u0440\u0434\u043e\u0432\u0438\u044f","kind_detail":"state","name:de":"Republik Mordwinien","source":"openstreetmap.org","name:fr":"Mordovie","name:es":"Mordovia"},"coordinates":[4055,3698]},{"type":"Point","properties":{"name:pt":"Oblast de Lugansk","name:cs":"Luhansk\u00e1 oblast","name:eo":"Luhanska Provinco","min_zoom":4.0,"name:be":"\u041b\u0443\u0433\u0430\u043d\u0441\u043a\u0430\u044f \u0432\u043e\u0431\u043b\u0430\u0441\u0446\u044c","name:ru":"\u041b\u0443\u0433\u0430\u043d\u0441\u043a\u0430\u044f \u043e\u0431\u043b\u0430\u0441\u0442\u044c","name:pl":"obw\u00f3d \u0142uga\u0144ski","id":683681613,"kind":"region","name:en":"Lugansk Oblast","name":"\u041b\u0443\u0433\u0430\u043d\u0441\u044c\u043a\u0430 \u043e\u0431\u043b\u0430\u0441\u0442\u044c","kind_detail":"state","name:de":"Oblast Luhansk","source":"openstreetmap.org","name:fr":"Oblast de Louhansk","name:zh":"\u5362\u7518\u65af\u514b\u5dde","name:es":"\u00d3blast de Lugansk"},"coordinates":[2988,2296]},{"type":"Point","properties":{"name:lt":"Belgorodo sritis","name:eo":"Belgoroda Provinco","name:tt":"\u0411\u0435\u043b\u0433\u043e\u0440\u043e\u0434 \u04e9\u043b\u043a\u04d9\u0441\u0435","min_zoom":4.0,"name:uk":"\u0411\u0454\u043b\u0433\u043e\u0440\u043e\u0434\u0441\u044c\u043a\u0430 \u043e\u0431\u043b\u0430\u0441\u0442\u044c","name:be":"\u0411\u0435\u043b\u0433\u0430\u0440\u043e\u0434\u0441\u043a\u0430\u044f \u0432\u043e\u0431\u043b\u0430\u0441\u0446\u044c","name:pl":"Obw\u00f3d bie\u0142gorodzki","id":792588864,"kind":"region","name:en":"Belgorod Oblast","name":"\u0411\u0435\u043b\u0433\u043e\u0440\u043e\u0434\u0441\u043a\u0430\u044f \u043e\u0431\u043b\u0430\u0441\u0442\u044c","kind_detail":"state","name:de":"Oblast Belgorod","source":"openstreetmap.org","name:fr":"Oblast de Belgorod","name:es":"\u00d3blast de B\u00e9lgorod"},"coordinates":[2746,2693]},{"type":"Point","properties":{"name:ja":"\u30aa\u30ea\u30e7\u30fc\u30eb\u5dde","name:lt":"Oriolo sritis","name:eo":"Orjola Provinco","name:tt":"\u041e\u0440\u0435\u043b \u04e9\u043b\u043a\u04d9\u0441\u0435","min_zoom":4.0,"name:uk":"\u041e\u0440\u043b\u043e\u0432\u0441\u044c\u043a\u0430 \u043e\u0431\u043b\u0430\u0441\u0442\u044c","name:be":"\u0410\u0440\u043b\u043e\u045e\u0441\u043a\u0430\u044f \u0432\u043e\u0431\u043b\u0430\u0441\u0446\u044c","name:pl":"Obw\u00f3d or\u0142owski","id":778568487,"kind":"region","name:en":"Oryol Oblast","name":"\u041e\u0440\u043b\u043e\u0432\u0441\u043a\u0430\u044f \u043e\u0431\u043b\u0430\u0441\u0442\u044c","kind_detail":"state","name:de":"Oblast Orjol","source":"openstreetmap.org","name:fr":"Oblast d'Orel","name:es":"\u00d3blast de Oriol"},"coordinates":[2535,3283]},{"type":"Point","properties":{"name:ja":"\u30af\u30eb\u30b9\u30af\u5dde","name:lt":"Kursko sritis","name:eo":"Kurska Provinco","name:tt":"\u041a\u0443\u0440\u0441\u043a \u04e9\u043b\u043a\u04d9\u0441\u0435","min_zoom":4.0,"name:uk":"\u041a\u0443\u0440\u0441\u044c\u043a\u0430 \u043e\u0431\u043b\u0430\u0441\u0442\u044c","name:be":"\u041a\u0443\u0440\u0441\u043a\u0430\u044f \u0432\u043e\u0431\u043b\u0430\u0441\u0446\u044c","name:pl":"Obw\u00f3d kurski","id":792588865,"kind":"region","name:en":"Kursk Oblast","name":"\u041a\u0443\u0440\u0441\u043a\u0430\u044f \u043e\u0431\u043b\u0430\u0441\u0442\u044c","kind_detail":"state","name:de":"Oblast Kursk","source":"openstreetmap.org","name:fr":"Oblast de Koursk","name:es":"\u00d3blast de Kursk"},"coordinates":[2546,2956]},{"type":"Point","properties":{"name:ja":"\u30ab\u30eb\u30fc\u30ac\u5dde","name:lt":"Kalugos sritis","name:eo":"Kaluga Provinco","min_zoom":4.0,"name:uk":"\u041a\u0430\u043b\u0443\u0437\u044c\u043a\u0430 \u043e\u0431\u043b\u0430\u0441\u0442\u044c","name:be":"\u041a\u0430\u043b\u0443\u0436\u0441\u043a\u0430\u044f \u0432\u043e\u0431\u043b\u0430\u0441\u0446\u044c","name:pl":"Obw\u00f3d ka\u0142uski","id":867080411,"kind":"region","name:en":"Kaluga Oblast","name":"\u041a\u0430\u043b\u0443\u0436\u0441\u043a\u0430\u044f \u043e\u0431\u043b\u0430\u0441\u0442\u044c","kind_detail":"state","name:de":"Oblast Kaluga","source":"openstreetmap.org","name:fr":"Oblast de Kalouga","name:es":"\u00d3blast de Kaluga"},"coordinates":[2372,3726]},{"type":"Point","properties":{"name:ja":"\u30c8\u30a5\u30fc\u30e9\u5dde","name:lt":"Tulos sritis","name:eo":"Tula Provinco","min_zoom":4.0,"name:uk":"\u0422\u0443\u043b\u044c\u0441\u044c\u043a\u0430 \u043e\u0431\u043b\u0430\u0441\u0442\u044c","name:be":"\u0422\u0443\u043b\u044c\u0441\u043a\u0430\u044f \u0432\u043e\u0431\u043b\u0430\u0441\u0446\u044c","name:pl":"Obw\u00f3d tulski","id":867084499,"kind":"region","name:en":"Tula Oblast","name":"\u0422\u0443\u043b\u044c\u0441\u043a\u0430\u044f \u043e\u0431\u043b\u0430\u0441\u0442\u044c","kind_detail":"state","name:de":"Oblast Tula","source":"openstreetmap.org","name:fr":"Oblast de Toula","name:es":"\u00d3blast de Tula"},"coordinates":[2707,3592]},{"type":"Point","properties":{"name:pt":"Oblast de Odessa","name:ro":"Regiunea Odesa","name:eo":"Odesa Provinco","min_zoom":4.0,"name:be":"\u0410\u0434\u044d\u0441\u043a\u0430\u044f \u0432\u043e\u0431\u043b\u0430\u0441\u0446\u044c","name:ru":"\u041e\u0434\u0435\u0441\u0441\u043a\u0430\u044f \u043e\u0431\u043b\u0430\u0441\u0442\u044c","name:pl":"obw\u00f3d odeski","id":681769612,"kind":"region","name:en":"Odessa Oblast","name":"\u041e\u0434\u0435\u0441\u044c\u043a\u0430 \u043e\u0431\u043b\u0430\u0441\u0442\u044c","kind_detail":"state","name:de":"Oblast Odessa","source":"openstreetmap.org","name:fr":"Oblast d'Odessa","name:es":"\u00d3blast de Odesa"},"coordinates":[1357,1421]},{"type":"Point","properties":{"name:eo":"Kara\u0109ajio-\u0108erkesio","name:tt":"\u041a\u0430\u0440\u0430\u0447\u0430\u0439-\u0427\u0438\u0440\u043a\u04d9\u0441\u0438\u044f","min_zoom":4.0,"official_name":"\u041a\u0430\u0440\u0430\u0447\u0430\u0435\u0432\u043e-\u0427\u0435\u0440\u043a\u0435\u0441\u043a\u0430\u044f \u0440\u0435\u0441\u043f\u0443\u0431\u043b\u0438\u043a\u0430","name:uk":"\u041a\u0430\u0440\u0430\u0447\u0430\u0454\u0432\u043e-\u0427\u0435\u0440\u043a\u0435\u0441\u0456\u044f","name:be":"\u041a\u0430\u0440\u0430\u0447\u0430\u0435\u0432\u0430-\u0427\u0430\u0440\u043a\u0435\u0441\u0456\u044f","name:hu":"Karacs\u00e1j- \u00e9s Cserkeszf\u00f6ld","id":869565029,"kind":"region","name:en":"Karachay-Cherkesia","name":"\u041a\u0430\u0440\u0430\u0447\u0430\u0435\u0432\u043e-\u0427\u0435\u0440\u043a\u0435\u0441\u0438\u044f","kind_detail":"state","name:ku":"Qere\u00e7ay-\u00c7erkezya","name:de":"Karatschai-Tscherkesien","source":"openstreetmap.org","name:fr":"Karatcha\u00ef\u00e9vo-Tcherkesie","name:et":"Karat\u0161ai-T\u0161erkessia","name:zh":"\u5361\u62c9\u6070\u4f0a-\u5207\u5c14\u514b\u65af\u5171\u548c\u56fd","name:es":"Karach\u00e1yevo-Cherkesia"},"coordinates":[3500,763]},{"type":"Point","properties":{"kind":"region","name:en":"Marijampol\u0117 County","name":"Marijampol\u0117s apskritis","kind_detail":"state","min_zoom":4.0,"name:de":"Bezirk Marijampol\u0117","source":"openstreetmap.org","name:fr":"Apskritis de Marijampol\u0117","int_name":"Marijampol\u0117s county","name:uk":"\u041c\u0430\u0440\u0456\u044f\u043c\u043f\u043e\u043b\u044c\u0441\u044c\u043a\u0438\u0439 \u043f\u043e\u0432\u0456\u0442","name:be":"\u041c\u0430\u0440\u044b\u044f\u043c\u043f\u0430\u043b\u044c\u0441\u043a\u0456 \u043f\u0430\u0432\u0435\u0442","name:ru":"\u041c\u0430\u0440\u0438\u044f\u043c\u043f\u043e\u043b\u044c\u0441\u043a\u0438\u0439 \u0443\u0435\u0437\u0434","name:pl":"okr\u0119g mariampolski","id":783737730},"coordinates":[130,3798]},{"type":"Point","properties":{"kind":"region","name:en":"Vilnius County","name":"Vilniaus apskritis","kind_detail":"state","min_zoom":4.0,"name:de":"Bezirk Wilna","source":"openstreetmap.org","name:fr":"Apskritis de Vilnius","name:uk":"\u0412\u0456\u043b\u044c\u043d\u044e\u0441\u044c\u043a\u0438\u0439 \u043f\u043e\u0432\u0456\u0442","name:be":"\u0412\u0456\u043b\u044c\u043d\u044e\u0441\u043a\u0456 \u043f\u0430\u0432\u0435\u0442","name:ru":"\u0412\u0438\u043b\u044c\u043d\u044e\u0441\u0441\u043a\u0438\u0439 \u0443\u0435\u0437\u0434","name:pl":"okr\u0119g wile\u0144ski","id":564957290},"coordinates":[498,3756]},{"type":"Point","properties":{"kind":"region","name:en":"Utena County","name":"Utenos apskritis","kind_detail":"state","min_zoom":4.0,"name:de":"Bezirk Utenen","source":"openstreetmap.org","name:fr":"Apskritis d'Utena","name:uk":"\u0423\u0442\u0435\u043d\u0441\u044c\u043a\u0438\u0439 \u043f\u043e\u0432\u0456\u0442","name:be":"\u0423\u0446\u0456\u043d\u0441\u043a\u0456 \u043f\u0430\u0432\u0435\u0442","name:ru":"\u0423\u0442\u0435\u043d\u0441\u043a\u0438\u0439 \u0443\u0435\u0437\u0434","name:pl":"okr\u0119g ucia\u0144ski","id":810217856},"coordinates":[569,4041]},{"type":"Point","properties":{"kind":"region","name:en":"Kaunas County","name":"Kauno apskritis","kind_detail":"state","min_zoom":4.0,"name:de":"Bezirk Kauen","source":"openstreetmap.org","name:fr":"Apskritis de Kaunas","int_name":"Kaunas County","name:uk":"\u041a\u0430\u0443\u043d\u0430\u0441\u044c\u043a\u0438\u0439 \u043f\u043e\u0432\u0456\u0442","name:be":"\u041a\u0430\u045e\u043d\u0430\u0441\u043a\u0456 \u043f\u0430\u0432\u0435\u0442","name:ru":"\u041a\u0430\u0443\u043d\u0430\u0441\u0441\u043a\u0438\u0439 \u0443\u0435\u0437\u0434","name:pl":"okr\u0119g kowie\u0144ski","id":816425956},"coordinates":[249,3909]},{"type":"Point","properties":{"kind":"region","name:en":"Alytus County","name":"Alytaus apskritis","kind_detail":"state","min_zoom":4.0,"name:de":"Bezirk Alitten","source":"openstreetmap.org","name:fr":"Apskritis d'Alytus","name:uk":"\u0410\u043b\u0456\u0442\u0443\u0441\u044c\u043a\u0438\u0439 \u043f\u043e\u0432\u0456\u0442","name:be":"\u0410\u043b\u0456\u0442\u0443\u0441\u043a\u0456 \u043f\u0430\u0432\u0435\u0442","name:ru":"\u0410\u043b\u0438\u0442\u0443\u0441\u0441\u043a\u0438\u0439 \u0443\u0435\u0437\u0434","name:pl":"okr\u0119g olicki","id":825447812},"coordinates":[298,3665]},{"type":"Point","properties":{"name:pt":"Oss\u00e9tia do Norte-Al\u00e2nia","name:az":"\u015eimali Osetiya","name:ka":"\u10e9\u10e0\u10d3\u10d8\u10da\u10dd\u10d4\u10d7\u10d8 \u10dd\u10e1\u10d4\u10d7\u10d8","name:cv":"\u00c7\u0443\u0440\u00e7\u0115\u0440 \u041e\u0441\u0435\u0442\u0438","name:cs":"Severn\u00ed Osetie-Alanie","name:tt":"\u0422\u04e9\u043d\u044c\u044f\u043a \u041e\u0441\u0435\u0442\u0438\u044f","name:av":"\u0428\u0438\u043c\u0430\u043b\u0438\u044f\u0431 \u0413\u044c\u0438\u0440\u0438\u0441\u0442\u0430\u043d","min_zoom":4.0,"name:it":"Ossezia Settentrionale-Alania","name:be":"\u041f\u0430\u045e\u043d\u043e\u0447\u043d\u0430\u044f \u0410\u0441\u0435\u0446\u0456\u044f","name:os":"\u0426\u00e6\u0433\u0430\u0442 \u0418\u0440\u044b\u0441\u0442\u043e\u043d","name:nl":"Noord-Osseti\u00eb","name:ce":"\u041a\u044a\u0438\u043b\u0431\u0430\u0441\u0435\u0434\u0430 \u0425\u04c0\u0438\u0440\u0438\u0439\u0447\u043e\u044c","name:de":"Nordossetien-Alanien","name:pl":"Osetia P\u00f3\u0142nocna","name:ca":"Oss\u00e8tia del Nord - Al\u00e0nia","name:af":"Noord-Osseti\u00eb-Alani\u00eb","name:bg":"\u0421\u0435\u0432\u0435\u0440\u043d\u0430 \u041e\u0441\u0435\u0442\u0438\u044f","kind_detail":"state","name:da":"Nordossetien\u2013Alania","id":869609085,"source":"openstreetmap.org","name:fr":"Oss\u00e9tie du Nord-Alanie","name:zh":"\u5317\u5965\u585e\u68af-\u963f\u5170\u5171\u548c\u56fd","name:lv":"Zieme\u013cosetija-Al\u0101nija","name:ja":"\u5317\u30aa\u30bb\u30c1\u30a2\u5171\u548c\u56fd","name:hi":"\u0909\u0924\u094d\u0924\u0930 \u0913\u0938\u0947\u0924\u093f\u092f\u093e-\u0906\u0932\u093e\u0928\u093f\u092f\u093e","kind":"region","name:la":"Ossetia Septentrionalis","official_name":"\u0420\u0435\u0441\u043f\u0443\u0431\u043b\u0438\u043a\u0430 \u0421\u0435\u0432\u0435\u0440\u043d\u0430\u044f \u041e\u0441\u0435\u0442\u0438\u044f\u2014\u0410\u043b\u0430\u043d\u0438\u044f","name:uk":"\u041f\u0456\u0432\u043d\u0456\u0447\u043d\u0430 \u041e\u0441\u0435\u0442\u0456\u044f","name:hy":"\u0540\u0575\u0578\u0582\u057d\u056b\u057d\u0561\u0575\u056b\u0576 \u0555\u057d\u056b\u0561","name:sv":"Nordossetien","name:hu":"\u00c9szak-Osz\u00e9tia","name:ba":"\u0422\u04e9\u043d\u044c\u044f\u04a1 \u041e\u0441\u0435\u0442\u0438\u044f \u2014 \u0410\u043b\u0430\u043d\u0438\u044f","name:el":"\u0394\u03b7\u03bc\u03bf\u03ba\u03c1\u03b1\u03c4\u03af\u03b1 \u03c4\u03b7\u03c2 \u0392\u03cc\u03c1\u03b5\u03b9\u03b1\u03c2 \u039f\u03c3\u03b5\u03c4\u03af\u03b1\u03c2 - \u0391\u03bb\u03b1\u03bd\u03af\u03b1\u03c2","name:eo":"Nord-Osetio","name:en":"North Ossetia-Alania","name":"\u0421\u0435\u0432\u0435\u0440\u043d\u0430\u044f \u041e\u0441\u0435\u0442\u0438\u044f","name:ku":"Osetyaya Bakur-Alanya","name:gl":"Osetia do Norte-Alania","name:fi":"Pohjois-Ossetia-Alania","name:et":"P\u00f5hja-Osseetia","name:es":"Osetia del Norte-Alania"},"coordinates":[3962,557]},{"type":"Point","properties":{"name:pt":"Oblast de Ternopil","name:ro":"Regiunea Ternopil","name:id":"Oblast Ternopil","name:ka":"\u10e2\u10d4\u10e0\u10dc\u10dd\u10de\u10dd\u10da\u10d8\u10e1 \u10dd\u10da\u10e5\u10d8","name:mr":"\u0924\u0947\u0930\u094d\u0928\u094b\u092a\u093f\u0932 \u0913\u092c\u094d\u0932\u093e\u0938\u094d\u0924","name:ko":"\ud14c\ub974\ub178\ud544 \uc8fc","name:ar":"\u062a\u064a\u0631\u0646\u0648\u0628\u0644 \u0623\u0648\u0628\u0644\u0627\u0633\u062a","name:cs":"Ternopilsk\u00e1 oblast","min_zoom":4.0,"name:it":"Oblast' di Ternopil'","name:zh-min-nan":"Ternopil s\u00e9ng","name:vi":"Ternopil (t\u1ec9nh)","name:pl":"Obw\u00f3d tarnopolski","id":683681604,"name:ca":"Prov\u00edncia de Tern\u00f3pill","name:fa":"\u0627\u0633\u062a\u0627\u0646 \u062a\u0631\u0646\u0648\u067e\u06cc\u0644","name:hu":"Ternopili ter\u00fclet","name:lt":"Ternopilio sritis","source":"openstreetmap.org","kind_detail":"state","name:sh":"Ternopiljska oblast","name:de":"Oblast Ternopil","name:tr":"Ternopil Oblast\u0131","name:fr":"Oblast de Ternopil","name:mk":"\u0422\u0435\u0440\u043d\u043e\u043f\u043e\u043b\u0441\u043a\u0430 \u043e\u0431\u043b\u0430\u0441\u0442","name:be":"\u0426\u044f\u0440\u043d\u043e\u043f\u0430\u043b\u044c\u0441\u043a\u0430\u044f \u0432\u043e\u0431\u043b\u0430\u0441\u0446\u044c","name:zh":"\u6377\u723e\u8afe\u6ce2\u723e\u5dde","name:lv":"Ternopi\u013cas apgabals","name:ja":"\u30c6\u30eb\u30ce\u30fc\u30d4\u30ea\u5dde","name:nn":"Ternopil oblast","name:no":"Ternopil oblast","name:he":"\u05de\u05d7\u05d5\u05d6 \u05d8\u05e8\u05e0\u05d5\u05e4\u05d5\u05dc","kind":"region","name:sk":"Ternopi\u013esk\u00e1 oblas\u0165","name:hy":"\u054f\u0565\u0580\u0576\u0578\u057a\u0578\u056c\u056b \u0574\u0561\u0580\u0566","name:ru":"\u0422\u0435\u0440\u043d\u043e\u043f\u043e\u043b\u044c\u0441\u043a\u0430\u044f \u043e\u0431\u043b\u0430\u0441\u0442\u044c","name:sv":"Ternopil oblast","name:bg":"\u0422\u0435\u0440\u043d\u043e\u043f\u043e\u043b\u0441\u043a\u0430 \u043e\u0431\u043b\u0430\u0441\u0442","name:hr":"Ternopiljska oblast","name:sr":"\u0422\u0435\u0440\u043d\u043e\u043f\u043e\u0459\u0441\u043a\u0430 \u043e\u0431\u043b\u0430\u0441\u0442","name:eo":"Ternopila Provinco","name:en":"Ternopil Oblast","name":"\u0422\u0435\u0440\u043d\u043e\u043f\u0456\u043b\u044c\u0441\u044c\u043a\u0430 \u043e\u0431\u043b\u0430\u0441\u0442\u044c","name:fi":"Ternopilin alue","name:eu":"Ternopilgo oblasta","name:et":"Ternopili oblast","name:nl":"Oblast Ternopil","name:es":"\u00d3blast de Tern\u00f3pil"},"coordinates":[567,2404]}]},"transit":{"type":"GeometryCollection","geometries":[]},"pois":{"type":"GeometryCollection","geometries":[{"type":"Point","properties":{"kind":"national_park","name:en":"Smolensk Lakeland National Park","protect_class":"2","area":4619850000,"name:sr":"\u041d\u0430\u0446\u0438\u043e\u043d\u0430\u043b\u043d\u0438 \u043f\u0430\u0440\u043a \u0421\u043c\u043e\u043b\u0435\u043d\u0441\u043a\u043e \u041f\u043e\u0458\u0435\u0437\u0435\u0440\u0458\u0435","official_name":"\u0424\u0435\u0434\u0435\u0440\u0430\u043b\u044c\u043d\u043e\u0435 \u0433\u043e\u0441\u0443\u0434\u0430\u0440\u0441\u0442\u0432\u0435\u043d\u043d\u043e\u0435 \u0431\u044e\u0434\u0436\u0435\u0442\u043d\u043e\u0435 \u0443\u0447\u0440\u0435\u0436\u0434\u0435\u043d\u0438\u0435 \u00ab\u041d\u0430\u0446\u0438\u043e\u043d\u0430\u043b\u044c\u043d\u044b\u0439 \u043f\u0430\u0440\u043a \u00ab\u0421\u043c\u043e\u043b\u0435\u043d\u0441\u043a\u043e\u0435 \u041f\u043e\u043e\u0437\u0435\u0440\u044c\u0435\u00bb","name:de":"Nationalpark \u201eSmolensker Seenland\u201c","source":"openstreetmap.org","min_zoom":4.7,"name:uk":"\u041d\u0430\u0446\u0456\u043e\u043d\u0430\u043b\u044c\u043d\u0438\u0439 \u043f\u0430\u0440\u043a \u00ab\u0421\u043c\u043e\u043b\u0435\u043d\u0441\u044c\u043a\u0435 \u041f\u043e\u043e\u0437\u0435\u0440'\u044f\u00bb","tier":1,"name:pl":"Park Narodowy Pojezierza Smole\u0144skiego","id":-3393588,"osm_relation":true,"name":"\u041d\u0430\u0446\u0438\u043e\u043d\u0430\u043b\u044c\u043d\u044b\u0439 \u043f\u0430\u0440\u043a \u00ab\u0421\u043c\u043e\u043b\u0435\u043d\u0441\u043a\u043e\u0435 \u041f\u043e\u043e\u0437\u0435\u0440\u044c\u0435\u00bb"},"coordinates":[1723,4035]}]},"boundaries":{"type":"GeometryCollection","geometries":[{"type":"LineString","properties":{"source":"naturalearthdata.com","kind":"country","sort_rank":262,"kind_detail":"2","min_zoom":0.0,"id":58},"arcs":[0]},{"type":"LineString","properties":{"source":"naturalearthdata.com","kind":"country","sort_rank":262,"kind_detail":"2","min_zoom":0.0,"id":163},"arcs":[1]},{"type":"LineString","properties":{"source":"naturalearthdata.com","kind":"country","sort_rank":262,"kind_detail":"2","min_zoom":0.0,"id":243},"arcs":[2]},{"type":"LineString","properties":{"source":"naturalearthdata.com","kind":"country","sort_rank":262,"kind_detail":"2","min_zoom":0.0,"id":28},"arcs":[3]},{"type":"LineString","properties":{"source":"naturalearthdata.com","kind":"country","sort_rank":262,"kind_detail":"2","min_zoom":0.0,"id":17},"arcs":[4]},{"type":"LineString","properties":{"source":"naturalearthdata.com","kind":"country","sort_rank":262,"kind_detail":"2","min_zoom":0.0,"id":22},"arcs":[5]},{"type":"LineString","properties":{"source":"naturalearthdata.com","kind":"country","sort_rank":262,"kind_detail":"2","min_zoom":0.0,"id":37},"arcs":[6]},{"type":"LineString","properties":{"source":"naturalearthdata.com","kind":"country","sort_rank":262,"kind_detail":"2","min_zoom":0.0,"id":40},"arcs":[7]},{"type":"LineString","properties":{"source":"naturalearthdata.com","kind":"country","sort_rank":262,"kind_detail":"2","min_zoom":0.0,"id":43},"arcs":[8]},{"type":"LineString","properties":{"source":"naturalearthdata.com","kind":"country","sort_rank":262,"kind_detail":"2","min_zoom":0.0,"id":52},"arcs":[9]},{"type":"LineString","properties":{"source":"naturalearthdata.com","kind":"country","sort_rank":262,"kind_detail":"2","min_zoom":0.0,"id":50},"arcs":[10]},{"type":"LineString","properties":{"source":"naturalearthdata.com","kind":"country","sort_rank":262,"kind_detail":"2","min_zoom":0.0,"id":71},"arcs":[11]},{"type":"LineString","properties":{"source":"naturalearthdata.com","kind":"country","sort_rank":262,"kind_detail":"2","min_zoom":0.0,"id":94},"arcs":[12]},{"type":"LineString","properties":{"source":"naturalearthdata.com","kind":"country","sort_rank":262,"kind_detail":"2","min_zoom":0.0,"id":119},"arcs":[13]},{"type":"MultiLineString","properties":{"source":"naturalearthdata.com","kind":"country","sort_rank":262,"kind_detail":"2","min_zoom":0.0,"id":122},"arcs":[[14],[15],[16]]},{"type":"LineString","properties":{"source":"naturalearthdata.com","kind":"country","sort_rank":262,"kind_detail":"2","min_zoom":0.0,"id":123},"arcs":[17]},{"type":"LineString","properties":{"source":"naturalearthdata.com","kind":"country","sort_rank":262,"kind_detail":"2","min_zoom":0.0,"id":156},"arcs":[18]},{"type":"LineString","properties":{"source":"naturalearthdata.com","kind":"country","sort_rank":262,"kind_detail":"2","min_zoom":0.0,"id":157},"arcs":[19]},{"type":"LineString","properties":{"source":"naturalearthdata.com","kind":"country","sort_rank":262,"kind_detail":"2","min_zoom":0.0,"id":159},"arcs":[20]},{"type":"LineString","properties":{"source":"naturalearthdata.com","kind":"country","sort_rank":262,"kind_detail":"2","min_zoom":0.0,"id":161},"arcs":[21]},{"type":"LineString","properties":{"source":"naturalearthdata.com","kind":"country","sort_rank":262,"kind_detail":"2","min_zoom":0.0,"id":162},"arcs":[22]},{"type":"LineString","properties":{"source":"naturalearthdata.com","kind":"country","sort_rank":262,"kind_detail":"2","min_zoom":0.0,"id":164},"arcs":[23]},{"type":"MultiLineString","properties":{"source":"naturalearthdata.com","kind":"country","sort_rank":262,"kind_detail":"2","min_zoom":0.0,"id":165},"arcs":[[24],[25]]},{"type":"LineString","properties":{"source":"naturalearthdata.com","kind":"country","sort_rank":262,"kind_detail":"2","min_zoom":0.0,"id":166},"arcs":[26]},{"type":"LineString","properties":{"source":"naturalearthdata.com","kind":"country","sort_rank":262,"kind_detail":"2","min_zoom":0.0,"id":167},"arcs":[27]},{"type":"MultiLineString","properties":{"source":"naturalearthdata.com","kind":"country","sort_rank":262,"kind_detail":"2","min_zoom":0.0,"id":318},"arcs":[[28],[29]]},{"type":"LineString","properties":{"source":"naturalearthdata.com","kind":"country","sort_rank":262,"kind_detail":"2","min_zoom":0.0,"id":326},"arcs":[30]},{"type":"LineString","properties":{"source":"naturalearthdata.com","kind":"country","sort_rank":262,"kind_detail":"2","min_zoom":0.0,"id":338},"arcs":[31]},{"type":"LineString","properties":{"source":"naturalearthdata.com","kind":"country","sort_rank":262,"kind_detail":"2","min_zoom":0.0,"id":339},"arcs":[32]},{"type":"MultiLineString","properties":{"source":"naturalearthdata.com","kind":"country","sort_rank":262,"kind_detail":"2","min_zoom":0.0,"id":340},"arcs":[[33],[34]]}]},"roads":{"type":"GeometryCollection","geometries":[]},"earth":{"type":"GeometryCollection","geometries":[{"type":"MultiPolygon","properties":{"sort_rank":10,"source":"naturalearthdata.com","min_zoom":0.0,"kind":"earth","area":18699011754401},"arcs":[[[50]],[[51]],[[52]],[[53]]]}]},"landuse":{"type":"GeometryCollection","geometries":[{"type":"MultiPolygon","properties":{"kind":"park","name":"\u0395\u03b8\u03bd\u03b9\u03ba\u03cc \u03c0\u03ac\u03c1\u03ba\u03bf \u0391\u03bd\u03b1\u03c4\u03bf\u03bb\u03b9\u03ba\u03ae\u03c2 \u039c\u03b1\u03ba\u03b5\u03b4\u03bf\u03bd\u03af\u03b1\u03c2 \u03ba\u03b1\u03b9 \u0398\u03c1\u03ac\u03ba\u03b7\u03c2","area":1672640000,"sort_rank":24,"source":"openstreetmap.org","min_zoom":4.0,"tier":2,"id":-1850516,"osm_relation":true},"arcs":[[[54]],[[55]]]},{"type":"Polygon","properties":{"kind":"park","name":"\u0422\u0435\u0431\u0435\u0440\u0434\u0438\u043d\u0441\u043a\u0438\u0439 \u0417\u0430\u043f\u043e\u0432\u0435\u0434\u043d\u0438\u043a","area":1243740032,"sort_rank":24,"source":"openstreetmap.org","min_zoom":4.0,"tier":2,"id":-7240921,"osm_relation":true},"arcs":[[56]]},{"type":"Polygon","properties":{"kind":"national_park","name":"\u041d\u0430\u0446\u0456\u043e\u043d\u0430\u043b\u044c\u043d\u0438\u0439 \u043f\u0440\u0438\u0440\u043e\u0434\u043d\u0438\u0439 \u043f\u0430\u0440\u043a \u00ab\u0417\u0430\u043b\u0456\u0441\u0441\u044f\u00bb","area":335849984,"sort_rank":18,"source":"openstreetmap.org","min_zoom":3.0,"tier":1,"id":-6178989,"osm_relation":true,"protect_class":"2"},"arcs":[[57]]},{"type":"Polygon","properties":{"kind":"nature_reserve","name":"\u041f\u043e\u043b\u0435\u0441\u0441\u043a\u0438\u0439 \u0433\u043e\u0441\u0443\u0434\u0430\u0440\u0441\u0442\u0432\u0435\u043d\u043d\u044b\u0439 \u0440\u0430\u0434\u0438\u0430\u0446\u0438\u043e\u043d\u043d\u043e-\u044d\u043a\u043e\u043b\u043e\u0433\u0438\u0447\u0435\u0441\u043a\u0438\u0439 \u0437\u0430\u043f\u043e\u0432\u0435\u0434\u043d\u0438\u043a","area":5717409792,"sort_rank":23,"source":"openstreetmap.org","min_zoom":4.0,"tier":2,"id":-3397849,"osm_relation":true},"arcs":[[58]]},{"type":"Polygon","properties":{"kind":"nature_reserve","name":"\u041a\u0430\u0431\u0430\u0440\u0434\u0438\u043d\u043e-\u0411\u0430\u043b\u043a\u0430\u0440\u0441\u043a\u0438\u0439 \u0432\u044b\u0441\u043e\u043a\u043e\u0433\u043e\u0440\u043d\u044b\u0439 \u0437\u0430\u043f\u043e\u0432\u0435\u0434\u043d\u0438\u043a","area":1504999936,"sort_rank":23,"source":"openstreetmap.org","min_zoom":4.0,"tier":2,"id":-7412104,"osm_relation":true,"protect_class":"1"},"arcs":[[59]]},{"type":"Polygon","properties":{"kind":"protected_area","name":"\u0417\u0430\u0433\u0430\u043b\u044c\u043d\u043e\u0437\u043e\u043e\u043b\u043e\u0433\u0456\u0447\u043d\u0438\u0439 \u0437\u0430\u043a\u0430\u0437\u043d\u0438\u043a \u0437\u0430\u0433\u0430\u043b\u044c\u043d\u043e\u0434\u0435\u0440\u0436\u0430\u0432\u043d\u043e\u0433\u043e \u0437\u043d\u0430\u0447\u0435\u043d\u043d\u044f \"\u0427\u043e\u0440\u043d\u043e\u0431\u0438\u043b\u044c\u0441\u043a\u0438\u0439 \u0441\u043f\u0435\u0446\u0456\u0430\u043b\u044c\u043d\u0438\u0439\"","area":1369570048,"sort_rank":17,"source":"openstreetmap.org","min_zoom":4.0,"tier":2,"id":-6491211,"osm_relation":true,"protect_class":"4"},"arcs":[[60]]},{"type":"Polygon","properties":{"kind":"nature_reserve","name":"Park Krajobrazowy Pog\u00f3rza Przemyskiego","area":1447449984,"sort_rank":23,"source":"openstreetmap.org","min_zoom":4.0,"tier":2,"id":-4517600,"osm_relation":true,"protect_class":"5"},"arcs":[[61]]},{"type":"Polygon","properties":{"kind":"national_park","name":"Bieszczadzki Park Narodowy","area":649468032,"sort_rank":18,"source":"openstreetmap.org","min_zoom":3.0,"tier":1,"id":-5497863,"osm_relation":true,"protect_class":"2"},"arcs":[[62]]},{"type":"Polygon","properties":{"kind":"protected_area","name":"\u041f\u0440\u0438\u0440\u043e\u0434\u0435\u043d \u043f\u0430\u0440\u043a \u0421\u0442\u0440\u0430\u043d\u0434\u0436\u0430","area":2116720000,"sort_rank":17,"source":"openstreetmap.org","min_zoom":4.0,"tier":2,"id":-1421265,"osm_relation":true,"protect_class":"5"},"arcs":[[63]]},{"type":"Polygon","properties":{"kind":"national_park","name":"Biebrza\u0144ski Park Narodowy","area":1687549952,"sort_rank":18,"source":"openstreetmap.org","min_zoom":3.0,"tier":1,"id":-270329,"osm_relation":true,"protect_class":"2"},"arcs":[[64],[65],[66]]},{"type":"Polygon","properties":{"kind":"park","name":"\u0414\u0430\u0443\u0442\u0441\u043a\u0438\u0439 \u0444\u0435\u0434\u0435\u0440\u0430\u043b\u044c\u043d\u044b\u0439 \u0437\u0430\u043a\u0430\u0437\u043d\u0438\u043a","area":1386989952,"sort_rank":24,"source":"openstreetmap.org","min_zoom":4.0,"tier":2,"id":-7240922,"osm_relation":true},"arcs":[[67]]},{"type":"Polygon","properties":{"kind":"protected_area","name":"Mun\u021bii Apuseni - Vl\u0103deasa","area":1972530048,"sort_rank":17,"source":"openstreetmap.org","min_zoom":4.0,"tier":2,"id":-2201620,"osm_relation":true,"protect_class":"97"},"arcs":[[68]]},{"type":"Polygon","properties":{"kind":"nature_reserve","name":"\u0411\u0456\u043e\u0441\u0444\u0435\u0440\u043d\u0438\u0439 \u0437\u0430\u043f\u043e\u0432\u0456\u0434\u043d\u0438\u043a \u00ab\u0427\u043e\u0440\u043d\u043e\u043c\u043e\u0440\u0441\u044c\u043a\u0438\u0439\u00bb","area":1804230016,"sort_rank":23,"source":"openstreetmap.org","min_zoom":4.0,"tier":2,"id":342275948,"protect_class":"98"},"arcs":[[69]]},{"type":"Polygon","properties":{"kind":"protected_area","name":"Domogled - Valea Cernei","area":1336310016,"sort_rank":17,"source":"openstreetmap.org","min_zoom":4.0,"tier":2,"id":-2201763,"osm_relation":true,"protect_class":"97"},"arcs":[[70]]},{"type":"MultiPolygon","properties":{"kind":"nature_reserve","name":"\u0421\u043e\u0447\u0438\u043d\u0441\u043a\u0438\u0439 \u043d\u0430\u0446\u0438\u043e\u043d\u0430\u043b\u044c\u043d\u044b\u0439 \u043f\u0430\u0440\u043a","area":3995119139,"sort_rank":23,"source":"openstreetmap.org","min_zoom":4.0,"tier":2,"osm_relation":true,"protect_class":"2"},"arcs":[[[71]],[[72]]]},{"type":"Polygon","properties":{"kind":"park","name":"\u041d\u0430\u0446\u0438\u043e\u043d\u0430\u043b\u044c\u043d\u044b\u0439 \u043f\u0430\u0440\u043a \u00ab\u041d\u0430\u0440\u043e\u0447\u0430\u043d\u0441\u043a\u0438\u0439\u00bb","area":2862560000,"sort_rank":24,"source":"openstreetmap.org","min_zoom":4.0,"tier":2,"id":-3367925,"osm_relation":true},"arcs":[[73]]},{"type":"Polygon","properties":{"kind":"nature_reserve","name":"\u0433\u043e\u0441\u0443\u0434\u0430\u0440\u0441\u0442\u0432\u0435\u043d\u043d\u044b\u0439 \u043f\u0440\u0438\u0440\u043e\u0434\u043d\u044b\u0439 \u0437\u0430\u043a\u0430\u0437\u043d\u0438\u043a \u0420\u0430\u0437\u0434\u043e\u0440\u0441\u043a\u0438\u0439","area":1088440064,"sort_rank":23,"source":"openstreetmap.org","min_zoom":4.0,"tier":2,"id":-2861531,"osm_relation":true},"arcs":[[74]]},{"type":"Polygon","properties":{"kind":"nature_reserve","name":"Zona Ramsar \"Nistrul de Jos\"","area":1291800064,"sort_rank":23,"source":"openstreetmap.org","min_zoom":4.0,"tier":2,"id":534343953},"arcs":[[75]]},{"type":"MultiPolygon","properties":{"kind":"protected_area","name":"Danube Delta Biosphere Reserve","area":2661169830,"sort_rank":17,"source":"openstreetmap.org","min_zoom":4.0,"tier":2,"osm_relation":true},"arcs":[[[76]],[[77]]]},{"type":"Polygon","properties":{"kind":"nature_reserve","name":"\u041d\u0430\u0446\u044b\u044f\u043d\u0430\u043b\u044c\u043d\u044b \u043f\u0430\u0440\u043a \u00ab\u0411\u0435\u043b\u0430\u0432\u0435\u0436\u0441\u043a\u0430\u044f \u043f\u0443\u0448\u0447\u0430\u00bb","area":6439699968,"sort_rank":23,"operator":"\u0423\u043f\u0440\u0430\u0432\u043b\u0435\u043d\u0438\u0435 \u0434\u0435\u043b\u0430\u043c\u0438 \u041f\u0440\u0435\u0437\u0438\u0434\u0435\u043d\u0442\u0430 \u0420\u0411","source":"openstreetmap.org","min_zoom":4.0,"tier":2,"id":-4096466,"osm_relation":true,"protect_class":"2"},"arcs":[[78]]},{"type":"MultiPolygon","properties":{"kind":"national_park","name":"N\u00e1rodn\u00fd park Poloniny","area":715985024,"sort_rank":18,"source":"openstreetmap.org","min_zoom":3.0,"tier":1,"id":-6449148,"osm_relation":true,"protect_class":"2"},"arcs":[[[79]],[[80]]]},{"type":"Polygon","properties":{"kind":"national_park","name":"Wigierski Park Narodowy","area":436924000,"sort_rank":18,"source":"openstreetmap.org","min_zoom":3.0,"tier":1,"id":-271443,"osm_relation":true,"protect_class":"2"},"arcs":[[81]]},{"type":"Polygon","properties":{"kind":"nature_reserve","name":"Park Krajobrazowy G\u00f3r S\u0142onnych","area":1332620032,"sort_rank":23,"source":"openstreetmap.org","min_zoom":4.0,"tier":2,"id":-4517599,"osm_relation":true,"protect_class":"5"},"arcs":[[82]]},{"type":"Polygon","properties":{"kind":"nature_reserve","name":"\u041f\u0440\u0438\u0440\u043e\u0434\u043d\u044b\u0439 \u0437\u0430\u043a\u0430\u0437\u043d\u0438\u043a \"\u041a\u043b\u0435\u0442\u043d\u044f\u043d\u0441\u043a\u0438\u0439\"","area":1135289984,"sort_rank":23,"source":"openstreetmap.org","min_zoom":4.0,"tier":2,"id":-6981801,"osm_relation":true},"arcs":[[83]]},{"type":"Polygon","properties":{"kind":"nature_reserve","name":"\u0411\u0435\u0440\u0435\u0437\u0438\u043d\u0441\u043a\u0438\u0439 \u0431\u0438\u043e\u0441\u0444\u0435\u0440\u043d\u044b\u0439 \u0437\u0430\u043f\u043e\u0432\u0435\u0434\u043d\u0438\u043a","area":2506360064,"sort_rank":23,"operator":"\u0413\u043e\u0441\u0443\u0434\u0430\u0440\u0441\u0442\u0432\u0435\u043d\u043d\u043e\u0435 \u043f\u0440\u0438\u0440\u043e\u0434\u043e\u043e\u0445\u0440\u0430\u043d\u043d\u043e\u0435 \u0443\u0447\u0440\u0435\u0436\u0434\u0435\u043d\u0438\u0435 \u00ab\u0411\u0435\u0440\u0435\u0437\u0438\u043d\u0441\u043a\u0438\u0439 \u0431\u0438\u043e\u0441\u0444\u0435\u0440\u043d\u044b\u0439 \u0437\u0430\u043f\u043e\u0432\u0435\u0434\u043d\u0438\u043a\u00bb","source":"openstreetmap.org","min_zoom":4.0,"tier":2,"id":-3400208,"osm_relation":true,"protect_class":"1"},"arcs":[[84]]},{"type":"MultiPolygon","properties":{"kind":"national_park","name":"\u041a\u0430\u0440\u043f\u0430\u0442\u0441\u044c\u043a\u0438\u0439 \u0431\u0456\u043e\u0441\u0444\u0435\u0440\u043d\u0438\u0439 \u0437\u0430\u043f\u043e\u0432\u0456\u0434\u043d\u0438\u043a","area":1023577491,"sort_rank":18,"source":"openstreetmap.org","min_zoom":3.0,"tier":1,"osm_relation":true,"protect_class":"2"},"arcs":[[[85]],[[86]]]},{"type":"Polygon","properties":{"kind":"protected_area","name":"Trasc\u0103u","area":1050720000,"sort_rank":17,"source":"openstreetmap.org","min_zoom":4.0,"tier":2,"id":-2196506,"osm_relation":true,"protect_class":"97"},"arcs":[[87]]},{"type":"Polygon","properties":{"kind":"park","name":"Labanoro regioninis parkas","area":1693200000,"sort_rank":24,"source":"openstreetmap.org","min_zoom":4.0,"tier":2,"id":-5968596,"osm_relation":true,"protect_class":"4"},"arcs":[[88]]},{"type":"Polygon","properties":{"kind":"nature_reserve","name":"\u0426\u0438\u043c\u043b\u044f\u043d\u0441\u043a\u0438\u0435 \u043f\u0435\u0441\u043a\u0438","area":1545549952,"sort_rank":23,"source":"openstreetmap.org","min_zoom":4.0,"tier":2,"id":-3540346,"osm_relation":true,"protect_class":"1"},"arcs":[[89]]},{"type":"Polygon","properties":{"kind":"protected_area","name":"Mun\u021bii \u021aarcu","area":1185709952,"sort_rank":17,"source":"openstreetmap.org","min_zoom":4.0,"tier":2,"id":-2195523,"osm_relation":true,"protect_class":"97"},"arcs":[[90]]},{"type":"Polygon","properties":{"kind":"nature_reserve","name":"\u041f\u043e\u043b\u043e\u043d\u0438\u043d\u0430 \u0411\u043e\u0440\u0436\u0430\u0432\u0430","area":1830530048,"sort_rank":23,"source":"openstreetmap.org","min_zoom":4.0,"tier":2,"id":362584617},"arcs":[[91]]},{"type":"Polygon","properties":{"kind":"nature_reserve","name":"\u041d\u0430\u0446\u0438\u043e\u043d\u0430\u043b\u044c\u043d\u044b\u0439 \u043f\u0430\u0440\u043a \"\u041c\u0435\u0449\u0435\u0440\u0441\u043a\u0438\u0439\"","area":3453530112,"sort_rank":23,"source":"openstreetmap.org","min_zoom":4.0,"tier":2,"id":474136261},"arcs":[[92]]},{"type":"Polygon","properties":{"kind":"park","name":"\u0428\u0430\u0446\u044c\u043a\u0438\u0439 \u043d\u0430\u0446\u0456\u043e\u043d\u0430\u043b\u044c\u043d\u0438\u0439 \u043f\u0440\u0438\u0440\u043e\u0434\u043d\u0438\u0439 \u043f\u0430\u0440\u043a","area":1171350016,"sort_rank":24,"source":"openstreetmap.org","min_zoom":4.0,"tier":2,"id":-1993709,"osm_relation":true},"arcs":[[93]]},{"type":"Polygon","properties":{"kind":"national_park","name":"\u041d\u0430\u0446\u0456\u043e\u043d\u0430\u043b\u044c\u043d\u0438\u0439 \u043f\u0440\u0438\u0440\u043e\u0434\u043d\u0438\u0439 \u043f\u0430\u0440\u043a \u00ab\u0421\u0438\u043d\u0435\u0432\u0438\u0440\u00bb","area":1049209984,"sort_rank":18,"source":"openstreetmap.org","min_zoom":3.0,"tier":1,"id":225916132,"protect_class":"2"},"arcs":[[94]]},{"type":"Polygon","properties":{"kind":"park","name":"\u0413\u043e\u0441\u0443\u0434\u0430\u0440\u0441\u0442\u0432\u0435\u043d\u043d\u044b\u0439 \u043f\u0440\u0438\u0440\u043e\u0434\u043d\u044b\u0439 \u0437\u0430\u043a\u0430\u0437\u043d\u0438\u043a \u0444\u0435\u0434\u0435\u0440\u0430\u043b\u044c\u043d\u043e\u0433\u043e \u0437\u043d\u0430\u0447\u0435\u043d\u0438\u044f \u0413\u043e\u0441\u0443\u0434\u0430\u0440\u0441\u0442\u0432\u0435\u043d\u043d\u044b\u0439 \u043a\u043e\u043c\u043f\u043b\u0435\u043a\u0441 \u00ab\u0422\u0430\u0440\u0443\u0441\u0430\u00bb","area":1428359936,"sort_rank":24,"source":"openstreetmap.org","min_zoom":4.0,"tier":2,"id":-2169138,"osm_relation":true},"arcs":[[95]]},{"type":"Polygon","properties":{"kind":"nature_reserve","name":"\u0420\u0435\u0433\u0456\u043e\u043d\u0430\u043b\u044c\u043d\u0438\u0439 \u043b\u0430\u043d\u0434\u0448\u0430\u0444\u0442\u043d\u0438\u0439 \u043f\u0430\u0440\u043a \u00ab\u0421\u0435\u0439\u043c\u0441\u044c\u043a\u0438\u0439\u00bb","area":2883899904,"sort_rank":23,"source":"openstreetmap.org","min_zoom":4.0,"tier":2,"id":370717639,"protect_class":"5"},"arcs":[[96]]},{"type":"Polygon","properties":{"kind":"nature_reserve","name":"\u041d\u0430\u0446\u0438\u043e\u043d\u0430\u043b\u044c\u043d\u044b\u0439 \u043f\u0430\u0440\u043a \u00ab\u041f\u0440\u0438\u044d\u043b\u044c\u0431\u0440\u0443\u0441\u044c\u0435\u00bb","area":1918249984,"sort_rank":23,"source":"openstreetmap.org","min_zoom":4.0,"tier":2,"id":505350188,"protect_class":"2"},"arcs":[[97]]},{"type":"Polygon","properties":{"kind":"protected_area","name":"\u0417\u043e\u043d\u0430 \u0432\u0456\u0434\u0447\u0443\u0436\u0435\u043d\u043d\u044f \u0427\u043e\u0440\u043d\u043e\u0431\u0438\u043b\u044c\u0441\u044c\u043a\u043e\u0457 \u0410\u0415\u0421","area":5235330048,"sort_rank":17,"operator":"\u0414\u0435\u0440\u0436\u0430\u0432\u043d\u0430 \u0441\u043b\u0443\u0436\u0431\u0430 \u0423\u043a\u0440\u0430\u0457\u043d\u0438 \u0437 \u043d\u0430\u0434\u0437\u0432\u0438\u0447\u0430\u0439\u043d\u0438\u0445 \u0441\u0438\u0442\u0443\u0430\u0446\u0456\u0439","source":"openstreetmap.org","min_zoom":4.0,"tier":2,"id":-3311547,"osm_relation":true,"protect_class":"16"},"arcs":[[98]]},{"type":"Polygon","properties":{"kind":"park","name":"\u041d\u0430\u0446\u0438\u043e\u043d\u0430\u043b\u044c\u043d\u044b\u0439 \u043f\u0430\u0440\u043a \u00ab\u0411\u0440\u0430\u0441\u043b\u0430\u0432\u0441\u043a\u0438\u0435 \u043e\u0437\u0451\u0440\u0430\u00bb","area":2072579968,"sort_rank":24,"source":"openstreetmap.org","min_zoom":4.0,"tier":2,"id":-4520555,"osm_relation":true},"arcs":[[99]]},{"type":"Polygon","properties":{"kind":"protected_area","name":"Mun\u021bii Maramure\u0219ului","area":2367239936,"sort_rank":17,"source":"openstreetmap.org","min_zoom":4.0,"tier":2,"id":-2405972,"osm_relation":true,"protect_class":"97"},"arcs":[[100],[101],[102],[103]]},{"type":"Polygon","properties":{"kind":"nature_reserve","name":"\u041d\u0430\u0446\u0438\u043e\u043d\u0430\u043b\u044c\u043d\u044b\u0439 \u043f\u0430\u0440\u043a \u00ab\u041f\u0440\u0438\u043f\u044f\u0442\u0441\u043a\u0438\u0439\u00bb","area":1747449984,"sort_rank":23,"operator":"\u0423\u043f\u0440\u0430\u0432\u043b\u0435\u043d\u0438\u0435 \u0434\u0435\u043b\u0430\u043c\u0438 \u041f\u0440\u0435\u0437\u0438\u0434\u0435\u043d\u0442\u0430 \u0420\u0411","source":"openstreetmap.org","min_zoom":4.0,"tier":2,"id":-3875969,"osm_relation":true,"protect_class":"2"},"arcs":[[104]]},{"type":"Polygon","properties":{"kind":"nature_reserve","name":"\u0413\u043e\u0441\u0443\u0434\u0430\u0440\u0441\u0442\u0432\u0435\u043d\u043d\u044b\u0439 \u0437\u0430\u043a\u0430\u0437\u043d\u0438\u043a \u0444\u0435\u0434\u0435\u0440\u0430\u043b\u044c\u043d\u043e\u0433\u043e \u0437\u043d\u0430\u0447\u0435\u043d\u0438\u044f \"\u041c\u0443\u0440\u043e\u043c\u0441\u043a\u0438\u0439\"","area":1937600000,"sort_rank":23,"source":"openstreetmap.org","min_zoom":4.0,"tier":2,"id":-6743898,"osm_relation":true,"protect_class":"4"},"arcs":[[105]]},{"type":"Polygon","properties":{"kind":"nature_reserve","name":"\u041d\u0430\u0446\u0438\u043e\u043d\u0430\u043b\u044c\u043d\u044b\u0439 \u043f\u0430\u0440\u043a \"\u0423\u0433\u0440\u0430\"","area":1951149952,"sort_rank":23,"source":"openstreetmap.org","min_zoom":4.0,"tier":2,"id":-6187486,"osm_relation":true},"arcs":[[106]]},{"type":"Polygon","properties":{"kind":"park","name":"\u10d1\u10dd\u10e0\u10ef\u10dd\u10db-\u10ee\u10d0\u10e0\u10d0\u10d2\u10d0\u10e3\u10da\u10d8\u10e1 \u10d4\u10e0\u10dd\u10d5\u10dc\u10e3\u10da\u10d8 \u10de\u10d0\u10e0\u10d9\u10d8","area":1392300032,"sort_rank":24,"source":"openstreetmap.org","min_zoom":4.0,"tier":2,"id":43159840},"arcs":[[107]]},{"type":"Polygon","properties":{"kind":"nature_reserve","name":"Ci\u015bnia\u0144sko-Wetli\u0144ski Park Krajobrazowy","area":1199250048,"sort_rank":23,"source":"openstreetmap.org","min_zoom":4.0,"tier":2,"id":-4520011,"osm_relation":true,"protect_class":"5"},"arcs":[[108]]},{"type":"Polygon","properties":{"kind":"park","name":"\u03a5\u03b3\u03c1\u03cc\u03c4\u03bf\u03c0\u03bf\u03c2 \u039b\u03af\u03bc\u03bd\u03b7\u03c2 \u039a\u03b5\u03c1\u03ba\u03af\u03bd\u03b7\u03c2","area":1386259968,"sort_rank":24,"source":"openstreetmap.org","min_zoom":4.0,"tier":2,"id":-2453770,"osm_relation":true},"arcs":[[109]]},{"type":"Polygon","properties":{"kind":"nature_reserve","name":"\u041d\u0430\u0446\u0438\u043e\u043d\u0430\u043b\u044c\u043d\u044b\u0439 \u043f\u0430\u0440\u043a \u00ab\u0410\u043b\u0430\u043d\u0438\u044f\u00bb","area":1040449984,"sort_rank":23,"source":"openstreetmap.org","min_zoom":4.0,"tier":2,"id":-7412103,"osm_relation":true,"protect_class":"2"},"arcs":[[110]]},{"type":"Polygon","properties":{"kind":"national_park","name":"Auk\u0161taitijos nacionalinis parkas","area":1268930048,"sort_rank":18,"source":"openstreetmap.org","min_zoom":3.0,"tier":1,"id":-919299,"osm_relation":true,"protect_class":"2"},"arcs":[[111]]},{"type":"Polygon","properties":{"kind":"protected_area","name":"Mun\u021bii F\u0103g\u0103ra\u0219","area":4053199872,"sort_rank":17,"source":"openstreetmap.org","min_zoom":4.0,"tier":2,"id":-2201635,"osm_relation":true,"protect_class":"97"},"arcs":[[112]]},{"type":"Polygon","properties":{"kind":"nature_reserve","name":"\u0413\u043e\u0441\u0443\u0434\u0430\u0440\u0441\u0442\u0432\u0435\u043d\u043d\u044b\u0439 \u043f\u0440\u0438\u0440\u043e\u0434\u043d\u044b\u0439 \u0437\u0430\u043a\u0430\u0437\u043d\u0438\u043a \u0444\u0435\u0434\u0435\u0440\u0430\u043b\u044c\u043d\u043e\u0433\u043e \u0437\u043d\u0430\u0447\u0435\u043d\u0438\u044f \u00ab\u0420\u044f\u0437\u0430\u043d\u0441\u043a\u0438\u0439\u00bb","area":1076140032,"sort_rank":23,"source":"openstreetmap.org","min_zoom":4.0,"tier":2,"id":474138931},"arcs":[[113]]},{"type":"Polygon","properties":{"kind":"nature_reserve","name":"\u0420\u0435\u0441\u043f\u0443\u0431\u043b\u0438\u043a\u0430\u043d\u0441\u043a\u0438\u0439 \u043b\u0430\u043d\u0434\u0448\u0430\u0444\u0442\u043d\u044b\u0439 \u0437\u0430\u043a\u0430\u0437\u043d\u0438\u043a \"\u041d\u0430\u043b\u0438\u0431\u043e\u043a\u0441\u043a\u0438\u0439\"","area":2308400128,"sort_rank":23,"source":"openstreetmap.org","min_zoom":4.0,"tier":2,"id":-6451322,"osm_relation":true,"protect_class":"4"},"arcs":[[114]]},{"type":"Polygon","properties":{"kind":"nature_reserve","name":"\u041d\u0430\u0446\u0438\u043e\u043d\u0430\u043b\u044c\u043d\u044b\u0439 \u043f\u0430\u0440\u043a \"\u041e\u0440\u043b\u043e\u0432\u0441\u043a\u043e\u0435 \u041f\u043e\u043b\u0435\u0441\u044c\u0435\"","area":2376489984,"sort_rank":23,"source":"openstreetmap.org","min_zoom":4.0,"tier":2,"id":474139652},"arcs":[[115]]},{"type":"Polygon","properties":{"kind":"nature_reserve","name":"\u0411\u0456\u043e\u0441\u0444\u0435\u0440\u043d\u0438\u0439 \u0437\u0430\u043f\u043e\u0432\u0456\u0434\u043d\u0438\u043a \u00ab\u0414\u0435\u043b\u044c\u0442\u0430 \u0414\u0443\u043d\u0430\u044e\u00bb","area":1123480064,"sort_rank":23,"source":"openstreetmap.org","min_zoom":4.0,"tier":2,"id":-4266845,"osm_relation":true},"arcs":[[116]]},{"type":"Polygon","properties":{"kind":"national_park","name":"\u041d\u0430\u0446\u0456\u043e\u043d\u0430\u043b\u044c\u043d\u0438\u0439 \u043f\u0440\u0438\u0440\u043e\u0434\u043d\u0438\u0439 \u043f\u0430\u0440\u043a \u00ab\u0421\u043a\u043e\u043b\u0456\u0432\u0441\u044c\u043a\u0456 \u0411\u0435\u0441\u043a\u0438\u0434\u0438\u00bb","area":643921984,"sort_rank":18,"source":"openstreetmap.org","min_zoom":3.0,"tier":1,"id":-2434313,"osm_relation":true,"protect_class":"2"},"arcs":[[117]]},{"type":"Polygon","properties":{"kind":"national_park","name":"\u0423\u0436\u0430\u043d\u0441\u044c\u043a\u0438\u0439 \u043d\u0430\u0446\u0456\u043e\u043d\u0430\u043b\u044c\u043d\u0438\u0439 \u043f\u0440\u0438\u0440\u043e\u0434\u043d\u0438\u0439 \u043f\u0430\u0440\u043a","area":887675008,"sort_rank":18,"source":"openstreetmap.org","min_zoom":3.0,"tier":1,"id":-6446164,"osm_relation":true,"protect_class":"2"},"arcs":[[118]]},{"type":"Polygon","properties":{"kind":"national_park","name":"\u041d\u0430\u0446\u0438\u043e\u043d\u0430\u043b\u044c\u043d\u044b\u0439 \u043f\u0430\u0440\u043a \u00ab\u0421\u043c\u043e\u043b\u0435\u043d\u0441\u043a\u043e\u0435 \u041f\u043e\u043e\u0437\u0435\u0440\u044c\u0435\u00bb","area":4619850240,"sort_rank":18,"source":"openstreetmap.org","min_zoom":3.0,"tier":1,"id":-3393588,"osm_relation":true,"protect_class":"2"},"arcs":[[119]]},{"type":"Polygon","properties":{"kind":"park","name":"\u041e\u043a\u0441\u043a\u0438\u0439 \u0431\u0438\u043e\u0441\u0444\u0435\u0440\u043d\u044b\u0439 \u0433\u043e\u0441\u0443\u0434\u0430\u0440\u0441\u0442\u0432\u0435\u043d\u043d\u044b\u0439 \u0437\u0430\u043f\u043e\u0432\u0435\u0434\u043d\u0438\u043a","area":1738749952,"sort_rank":24,"source":"openstreetmap.org","min_zoom":4.0,"tier":2,"id":111667217},"arcs":[[120]]},{"type":"Polygon","properties":{"kind":"nature_reserve","name":"\u0411\u0438\u043e\u043b\u043e\u0433\u0438\u0447\u0435\u0441\u043a\u0438\u0439 \u0437\u0430\u043a\u0430\u0437\u043d\u0438\u043a \u00ab\u041c\u043e\u0440\u0448\u0430\u043d\u0441\u043a\u0438\u0439\u00bb","area":1232960000,"sort_rank":23,"source":"openstreetmap.org","min_zoom":4.0,"tier":2,"id":332177514,"protect_class":"7"},"arcs":[[121]]},{"type":"Polygon","properties":{"kind":"protected_area","name":"C\u0103limani - Gurghiu","area":2891579904,"sort_rank":17,"source":"openstreetmap.org","min_zoom":4.0,"tier":2,"id":-2561748,"osm_relation":true,"protect_class":"97"},"arcs":[[122]]},{"type":"Polygon","properties":{"kind":"park","name":"\u041d\u0430\u0446\u0438\u043e\u043d\u0430\u043b\u0435\u043d \u043f\u0430\u0440\u043a \u0426\u0435\u043d\u0442\u0440\u0430\u043b\u0435\u043d \u0411\u0430\u043b\u043a\u0430\u043d","area":1332610048,"sort_rank":24,"source":"openstreetmap.org","min_zoom":4.0,"tier":2,"id":-1404501,"osm_relation":true},"arcs":[[123]]},{"type":"Polygon","properties":{"kind":"nature_reserve","name":"\u041f\u0440\u0438\u0440\u043e\u0434\u043d\u044b\u0439 \u0440\u0435\u0437\u0435\u0440\u0432\u0430\u0442 \"\u041b\u0430\u043d\u0434\u0448\u0430\u0444\u0442 \u0440\u0435\u043a\u0438 \u0423\u0433\u0440\u0430\"","area":2350769920,"sort_rank":23,"source":"openstreetmap.org","min_zoom":4.0,"tier":2,"id":-5224115,"osm_relation":true,"protect_class":"1"},"arcs":[[124]]},{"type":"Polygon","properties":{"kind":"national_park","name":"\u041d\u0430\u0446\u0456\u043e\u043d\u0430\u043b\u044c\u043d\u0438\u0439 \u043f\u0440\u0438\u0440\u043e\u0434\u043d\u0438\u0439 \u043f\u0430\u0440\u043a \u00ab\u0413\u043e\u043c\u0456\u043b\u044c\u0448\u0430\u043d\u0441\u044c\u043a\u0456 \u043b\u0456\u0441\u0438\u00bb","area":358151008,"sort_rank":18,"source":"openstreetmap.org","min_zoom":3.0,"tier":1,"id":-4270269,"osm_relation":true,"protect_class":"2"},"arcs":[[125]]},{"type":"MultiPolygon","properties":{"source":"naturalearthdata.com","kind":"urban_area","name":"","area":387094850484,"sort_rank":11,"min_zoom":4.0},"arcs":[[[126]],[[127]],[[128]],[[129]],[[130]],[[131]],[[132]],[[133]],[[134]],[[135]],[[136]],[[137]],[[138]],[[139]],[[140]],[[141]],[[142]],[[143]],[[144]],[[145]],[[146]],[[147]],[[148]],[[149]],[[150]],[[151]],[[152]],[[153]],[[154]],[[155]],[[156]],[[157]],[[158]],[[159]],[[160]],[[161]],[[162]],[[163]],[[164]],[[165]],[[166]],[[167]],[[168]],[[169]],[[170]],[[171]],[[172]],[[173]],[[174]],[[175]],[[176]],[[177]],[[178]],[[179]],[[180]],[[181]],[[182]],[[183]],[[184]],[[185]],[[186]],[[187]],[[188]],[[189]],[[190]],[[191]],[[192]],[[193]],[[194]],[[195]],[[196]],[[197]],[[198]],[[199]],[[200]],[[201]],[[202]],[[203]],[[204]],[[205]],[[206]],[[207]],[[208]],[[209]],[[210]],[[211]],[[212]],[[213]],[[214]],[[215]],[[216]],[[217]],[[218]],[[219]],[[220]],[[221]],[[222]],[[223]],[[224]],[[225]],[[226]],[[227]],[[228]],[[229]],[[230]],[[231]],[[232]],[[233]],[[234]],[[235]],[[236]],[[237]],[[238]],[[239]],[[240]],[[241]],[[242]],[[243]],[[244]],[[245]],[[246]],[[247]],[[248]],[[249]],[[250]],[[251]],[[252]],[[253]],[[254]],[[255]],[[256]],[[257]],[[258]],[[259]],[[260]],[[261]]]},{"type":"Polygon","properties":{"kind":"park","name":"\u041a\u0430\u0432\u043a\u0430\u0437\u0441\u043a\u0438\u0439 \u0411\u0438\u043e\u0441\u0444\u0435\u0440\u043d\u044b\u0439 \u0417\u0430\u043f\u043e\u0432\u0435\u0434\u043d\u0438\u043a (\u041a\u0413\u041f\u0411\u0417). \u0422\u0435\u0440\u0440\u0438\u0442\u043e\u0440\u0438\u044f \u0412\u041f\u041d \"\u0417\u0430\u043f\u0430\u0434\u043d\u044b\u0439 \u041a\u0430\u0432\u043a\u0430\u0437\"","area":5372769792,"sort_rank":24,"source":"openstreetmap.org","min_zoom":4.0,"tier":2,"id":-4666522,"osm_relation":true},"arcs":[[262]]},{"type":"Polygon","properties":{"kind":"national_park","name":"\u041c\u0435\u0437\u0438\u043d\u0441\u044c\u043a\u0438\u0439 \u043d\u0430\u0446\u0456\u043e\u043d\u0430\u043b\u044c\u043d\u0438\u0439 \u043f\u0440\u0438\u0440\u043e\u0434\u043d\u0438\u0439 \u043f\u0430\u0440\u043a","area":883366016,"sort_rank":18,"source":"openstreetmap.org","min_zoom":3.0,"tier":1,"id":-4271408,"osm_relation":true,"protect_class":"2"},"arcs":[[263]]},{"type":"Polygon","properties":{"kind":"park","name":"\u041d\u0430\u0446\u0438\u043e\u043d\u0430\u043b\u0435\u043d \u043f\u0430\u0440\u043a \u0420\u0438\u043b\u0430","area":1318119936,"sort_rank":24,"source":"openstreetmap.org","min_zoom":4.0,"tier":2,"id":-1417776,"osm_relation":true},"arcs":[[264]]},{"type":"Polygon","properties":{"kind":"nature_reserve","name":"\u041f\u0440\u0438\u0440\u043e\u0434\u043d\u044b\u0439 \u043f\u0430\u0440\u043a \"\u0413\u0430\u0433\u0430\u0440\u0438\u043d\u0441\u043a\u0438\u0439\"","area":1918739968,"sort_rank":23,"source":"openstreetmap.org","min_zoom":4.0,"tier":2,"id":-5224088,"osm_relation":true,"protect_class":"5"},"arcs":[[265]]}]}},"type":"Topology","transform":{"translate":[22.5,40.9798980696],"scale":[0.0054931641,0.0036124695]},"arcs":[[[0,2221],[4,8],[3,11]],[[7,2240],[8,1],[22,-10],[19,-5],[6,5],[2,6],[-1,6],[-16,15],[-10,10],[0,5],[3,14],[2,15],[-2,16],[-11,36],[-2,15],[11,19],[33,44],[11,17],[16,20],[41,48],[26,28],[18,16],[26,26],[12,14],[47,9],[6,13],[9,15],[6,6],[1,24],[-9,29],[-7,10],[-5,7],[4,7],[5,2],[6,1],[8,7],[-1,8],[-21,18],[-8,15],[-14,37],[-27,38],[-9,13],[-1,11],[4,12],[-4,15],[-10,19],[-12,28],[1,25],[7,15],[8,13],[-3,19],[8,26],[0,19],[-4,8],[-6,9],[-18,10],[-8,9],[-23,10],[-24,14],[-4,8],[1,6],[4,8],[18,25],[20,24],[12,10],[67,31],[10,11],[3,19],[0,13],[-1,24],[-4,34],[-6,23],[-12,44],[-35,91],[-21,95]],[[48,3703],[-6,-2],[-42,1]],[[683,4096],[5,-7],[22,-13],[26,-9],[9,-1]],[[201,2917],[2,2],[-1,24],[7,5],[11,3],[15,-1],[13,-4],[16,-10],[5,1],[27,21],[28,30],[8,18],[7,8],[24,4],[21,2],[14,0],[33,3],[19,3],[17,5],[37,2],[57,-3],[37,-1],[26,-2],[62,-17],[23,-2],[11,-9],[20,-3],[38,-9],[33,-5],[22,2],[12,-2],[23,-38],[5,-5],[9,-1],[20,4],[27,-2],[16,-8],[-3,-23],[5,-3],[7,1],[9,13],[7,14],[5,4],[28,-9],[13,1],[12,10],[7,2],[19,-7],[25,-5],[19,-1],[12,-5],[9,-24],[8,-5],[7,-1],[12,21],[10,8],[14,6],[9,3],[7,8],[8,7],[8,0],[6,-2],[7,-11],[10,-23],[13,-23],[8,-8],[23,7],[15,7],[28,1],[37,6],[28,6],[18,-1],[10,-7],[17,-15],[4,-20],[21,-14],[17,-3],[6,15],[10,10],[-3,14],[-2,18],[-8,17],[-5,18],[10,25],[10,23],[5,12],[16,23],[16,16],[25,25],[18,9],[16,-4],[9,-4],[23,16],[42,0],[34,-1]],[[179,3588],[14,-6],[32,-2],[25,6],[13,1],[12,-2],[17,4],[16,1],[8,-8],[15,-7],[29,10],[26,14],[27,-2],[4,7],[6,33],[8,7],[32,-3],[12,6],[13,17],[19,10],[16,0],[16,11],[8,-7],[4,-14],[-5,-11],[2,-5],[11,-5],[20,0],[13,5],[2,6],[0,11],[-3,11],[-8,9],[-16,5],[-10,0],[-2,6],[3,13],[10,23],[12,21],[7,7],[1,8],[-1,12],[0,23],[10,32],[15,24],[19,7],[23,5],[15,11],[7,13],[3,11],[4,9],[7,5],[57,-3],[8,21],[5,5],[11,6],[7,8],[-2,5],[-15,4],[-34,3],[-7,7],[3,8],[9,21],[8,27],[5,21],[0,13]],[[4096,480],[-10,5],[-13,7],[-4,-3],[-15,-36],[-14,26],[-9,7],[-12,4],[-13,0],[-32,-13],[-24,-14],[-17,-10],[-18,-6],[-9,-8],[-24,2],[-12,6],[-4,6],[2,11],[9,13],[0,7],[-3,5],[-29,17],[-12,10],[-38,15],[-47,25],[-16,17],[-2,12],[-18,11],[-24,10],[-18,-3],[-17,-1],[-27,19],[-25,1],[-29,-5],[-6,-3],[-7,-2],[-85,8],[-22,16],[-19,15],[-50,12],[-26,12],[-25,17],[-28,15],[-24,-6],[-32,8],[-35,8],[-12,-5],[-11,-19],[-8,-18]],[[3461,149],[12,-6],[23,-7],[14,-8],[8,-3],[18,18],[28,-1],[24,-2],[13,-3],[15,-6],[19,-4],[7,9],[11,24],[4,4],[3,2],[14,2],[13,-2],[6,-4],[6,-20],[16,-7],[27,-32],[17,-12],[4,-6],[-5,-6],[2,-8],[9,-10],[14,-4],[14,1],[8,-4],[6,-5],[1,-9],[0,-5]],[[3812,35],[9,3],[28,0],[27,4],[21,8],[31,6],[13,6],[14,3],[45,-7],[17,5],[50,1],[1,3],[-6,7],[0,3],[30,5],[4,4]],[[0,2242],[7,-2]],[[0,1880],[11,-3],[9,2],[12,9],[32,34],[5,7]],[[179,3588],[-1,5],[1,13],[0,20],[-5,18],[-16,16],[-16,11],[-20,11],[-15,5],[-8,1],[-2,7],[-3,6],[-7,5],[-15,6],[-13,2],[-11,-11]],[[1004,274],[-25,5],[-8,-2],[-6,-7],[-11,2],[-14,0],[-15,-8],[-8,-4],[-11,8],[-21,21],[-12,15],[-9,4],[-10,-4],[-33,-5],[-7,-9],[-16,-10],[-15,-4],[-22,-4],[-12,1],[-6,-5],[-6,-14],[-3,-14],[-4,-6],[-27,-7],[-6,-8],[-2,-7],[1,-8]],[[0,39],[19,5],[22,11],[5,37],[6,5],[13,2],[11,0]],[[0,398],[4,6],[2,12],[-2,6],[-4,5]],[[0,520],[4,3],[7,3],[27,1],[17,28],[10,9],[11,16],[5,6],[4,13],[2,12],[-22,18],[-7,13],[-9,15],[-13,10],[-26,18],[-10,18]],[[0,845],[18,12],[1,20],[4,13],[7,7],[7,5]],[[76,99],[2,5],[4,69],[10,31],[0,6],[-2,5],[-9,5],[-7,17],[-13,44],[-7,8],[-21,10],[-18,12],[-15,17]],[[69,1929],[-4,3],[-2,10],[2,9],[-4,9],[-10,10],[-2,4],[-12,-1],[-4,-1],[-1,0],[-17,8],[-11,20],[-4,2]],[[1108,765],[-30,-1],[-8,1],[-28,8],[-32,14],[-18,26],[-12,20],[-26,-9],[-5,2],[-8,9],[-20,7],[-24,0],[-56,34],[-6,6],[-44,-6],[-65,-17],[-50,-21],[-51,-38],[-21,-29],[-24,-15],[-34,-11],[-62,4],[-64,15],[-69,15],[-37,-8],[-50,6],[-76,18],[-56,6],[-56,-11],[-9,9],[-2,9],[2,14],[8,10],[13,9],[7,8],[1,9],[-15,13],[-31,19],[-13,12]],[[76,99],[20,-3],[23,-1],[16,17],[24,1],[11,3],[19,-4],[18,1],[23,7],[21,12],[17,-1],[7,2],[4,2],[4,17],[32,0],[11,-1],[17,-1],[19,9],[5,0],[10,-24],[5,-7],[10,-6],[22,-18],[4,5],[9,6],[27,-8],[25,-14],[22,-20],[24,6],[26,10],[17,2],[19,2],[11,4],[25,-5],[26,11],[13,9],[3,14],[-2,24],[-6,24],[-6,9],[-2,9],[4,8],[4,6],[17,5],[22,-7],[16,-6],[9,-9],[6,-8],[9,-7],[7,-2],[5,-25],[3,-30],[-4,-13],[-12,-3],[-38,-29],[-1,-27],[1,-13],[1,-9],[4,-7],[0,-11],[-2,-5]],[[750,2015],[17,1],[13,-2],[21,-12],[15,-16],[5,-12],[13,-18],[13,-24],[14,-33],[3,-16],[6,-18],[11,-21],[20,-24],[3,-5],[9,-17],[18,-37],[15,-15],[13,-17],[6,-16],[10,-15],[22,-20],[17,-17],[15,-52],[10,-24],[6,-18],[-3,-37],[4,-15],[-8,-29],[-15,-58],[-4,-46],[3,-25],[0,-16],[4,-10],[4,-21],[0,-18],[-5,-5],[-7,-5],[-3,-3],[7,-9],[9,-15],[9,-17]],[[69,1929],[6,4],[26,12],[7,12],[8,10],[12,0],[37,-26],[40,1],[8,-1],[2,0],[5,-3],[53,-12],[9,1],[2,1],[21,-11],[19,2],[18,7],[19,3],[17,-5],[14,-15],[34,-32],[10,-12],[15,2],[18,6],[17,21],[54,25],[41,6],[40,9],[46,7],[13,20],[8,14],[5,25],[25,7],[23,5],[9,3]],[[0,3898],[12,-1],[11,-24],[20,-12],[16,-16],[1,-9],[-22,-57],[-4,-19],[-1,-19],[8,-25],[7,-13]],[[1686,3079],[-1,6],[-12,27],[-7,11],[-9,6],[-5,8],[0,32],[2,29],[6,4],[-17,24],[-1,18],[8,9],[0,8],[-5,11],[-17,17],[-16,20],[-11,16],[-7,7],[9,12],[11,22],[4,13],[5,3],[27,1],[19,0],[14,-5],[6,-10],[13,-11],[38,-5],[15,1],[20,10],[32,23],[8,16],[20,12],[12,4],[11,2],[1,10],[-1,13],[-4,8],[-39,28],[-5,9],[-3,10],[5,10],[-1,11],[-45,25],[-38,4],[-31,-1],[-12,5],[5,12],[8,22],[2,18],[-2,9],[-6,7],[-30,15],[-41,23],[-19,27],[-10,28],[-11,17],[-20,10],[1,7],[14,26],[-1,4],[-6,7],[-25,13],[-33,24],[-2,6],[3,16],[4,14],[7,8],[20,30],[0,10],[-3,14],[-15,24],[-11,15],[-1,8],[2,6],[7,9],[7,10],[2,35],[-1,13],[-4,7],[-5,3],[-10,-2],[-14,6],[-11,9],[-7,3],[-7,10],[-20,19],[-2,2]],[[1322,4096],[-3,-2],[-11,0],[-10,-5],[-27,-18],[-13,11],[-9,14]],[[1686,3079],[4,-1],[17,-8],[18,-7],[12,0],[15,2],[17,9],[12,8],[15,44],[5,6],[8,4],[13,0],[25,-8],[29,-7],[17,1],[45,23],[26,3],[30,-5],[29,0],[22,3],[16,-8],[18,-18],[17,-26],[18,-49],[52,-55],[1,-11],[-4,-7],[-26,-7],[-21,-3],[-1,-10],[5,-10],[10,-15],[2,-19],[-1,-18],[4,-16],[9,-6],[1,-8],[-10,-10],[-3,-6],[4,-3],[47,-2],[23,-9],[17,-9],[9,0],[20,5],[22,4],[13,0],[5,-6],[5,-17],[7,-16],[8,-5],[13,1],[7,-1],[4,-6],[-4,-10],[1,-10],[6,-13],[6,-29],[7,-9],[4,-11],[0,-12],[-6,-11],[-3,-9],[3,-20],[14,-22],[11,-5],[8,-20],[15,-6],[22,16],[18,9],[21,-5],[20,-3],[13,-11],[10,-16],[11,-8],[12,4],[24,-4],[10,-13],[11,-7],[14,10],[12,13],[42,13],[26,3],[7,3],[15,9],[16,7],[15,-2],[14,-20],[15,-13],[4,-22],[18,-29],[45,-40],[17,-12],[12,2],[6,3],[3,4],[3,20],[6,7],[9,0],[35,-24],[18,-3],[18,0],[23,-19],[26,-17],[20,-1],[16,6],[11,4],[6,-6],[7,-14],[10,-11],[12,-4],[17,0],[30,-22],[28,-22],[17,-1],[15,7],[13,1],[9,-5],[3,-10],[-7,-12],[0,-18],[13,-18],[0,-17],[-3,-15],[-7,-14],[-18,-20],[-15,-18],[-24,-8],[-13,-8],[3,-13],[9,-13],[20,-10],[23,-7],[2,-8],[-3,-4],[-15,-4],[-20,4],[-7,-7],[-9,-12],[-6,-21],[-5,-20],[22,-5],[13,-8],[4,-17],[4,-18],[2,-16],[-8,-8],[0,-8],[3,-4],[10,-2],[7,-3],[1,-9],[-14,-19],[-13,-37],[-7,-20],[0,-21],[-7,-12],[-14,-1],[-49,-2],[-42,1],[-19,3],[-28,2],[-15,-5],[-18,-34],[-15,-13],[-23,-12],[-26,-4],[-15,-14],[-5,-22],[-1,-19],[-2,-10],[-6,-9],[-2,-6],[2,-6],[6,-3],[7,-3],[0,-5],[-3,-6],[-8,-7],[-4,-10],[1,-11],[2,-12]],[[3812,35],[3,-12],[11,-16],[9,-7]],[[4095,29],[-6,-1],[0,-8],[1,-7],[6,-3]],[[4096,29],[-1,0]],[[750,2015],[4,10],[37,25],[10,-4],[20,-1],[40,1],[20,17],[12,-5],[10,8],[16,10],[3,-2],[2,-2],[25,-4],[19,-9],[13,-15],[14,-8],[13,-4],[8,-7],[1,-11],[13,-5],[24,0],[10,-7],[-3,-14],[2,-5],[9,5],[6,-4],[4,-11],[4,-5],[12,17],[13,-2],[31,-7],[17,-34],[10,-12],[9,-5],[12,5],[10,6],[6,-3],[13,-22],[3,-30],[0,-12],[-5,-20],[-6,-22],[-5,-14],[2,-11],[4,-9],[8,-3],[24,-20],[9,-13],[13,-10],[10,0],[5,-6],[2,-6],[-1,-17],[-6,-16],[1,-10],[9,-12],[1,-14],[0,-9],[5,-7],[22,-16],[29,-15],[7,-13],[5,-16],[-2,-27],[-1,-24],[37,-32],[-4,-6],[-6,-7],[-36,-5],[-7,-2],[-16,24],[-8,3],[-8,-9],[-9,-5],[-11,3],[-11,7],[-6,5],[-5,1],[-7,-5],[-10,2],[-6,6],[-9,-21],[-6,-4],[-3,1],[-1,34],[-3,6],[-7,1],[-18,-9],[-16,-10],[-6,-10],[1,-17],[2,-21],[11,-30],[-6,-14],[-4,-22],[-18,-19],[-20,-12],[-2,-23],[-11,-16],[-19,-16],[-13,-20],[3,-13],[1,-13],[-2,-8],[-1,-7],[-5,-3],[-29,-2],[-9,-4],[-9,-9]],[[802,4096],[-15,-19],[-9,-4],[-28,-4],[-5,-3]],[[1040,1238],[19,-29],[24,-15],[57,-16],[5,2],[0,3],[-4,4],[0,5],[3,7],[7,0],[13,-6],[24,9],[36,22],[33,5],[30,-14],[15,-15],[10,-15]],[[0,1031],[26,-15],[14,-12],[3,-10],[-6,-4],[-15,2],[-12,-6],[-10,-14],[0,-5]],[[0,954],[6,-13],[9,-11],[12,-6],[6,-9],[1,-10],[3,-3]],[[2348,1184],[-22,12],[-34,16],[-5,6],[-4,6],[0,7],[7,20],[-5,18],[-5,11],[-4,7],[-22,16],[-9,10],[-13,6],[-3,12],[-11,4],[-1,5],[-6,5],[-27,-15],[0,5],[22,31],[0,6],[-2,2],[-7,2],[-8,-12],[-5,-2],[-7,5],[-9,-8],[-3,0],[-2,3],[1,14],[-1,8],[-3,6],[-17,7],[-8,-1],[-7,2],[-1,-4],[1,-11],[-1,-5],[-4,-4],[-4,5],[-1,13],[-2,5],[-9,9],[-14,4],[-4,-6],[-3,-3],[-6,-1],[-7,6],[-10,23],[-3,0],[-8,-2],[-12,13],[-2,5],[2,4],[4,4],[9,1],[13,0],[13,-5],[20,-16],[9,-4],[5,1],[-1,10],[2,3],[3,-1],[3,1],[3,3],[-1,12],[0,5],[3,0],[12,-14],[6,-6],[5,-3],[2,0],[3,2],[40,-8],[2,-6],[-2,-7],[-10,0],[-4,-3],[-7,-22],[2,-7],[7,-4],[8,1],[12,9],[9,37],[5,6],[9,-3],[7,-9],[0,-5],[-7,-6],[-1,-11],[5,-5],[9,-3],[5,-18],[5,-32],[12,-14],[22,-42],[28,-46],[21,-30],[23,-20],[2,-5],[-7,-5]],[[2330,1803],[-5,-12],[-11,0],[-30,-6],[-16,-6],[-27,16],[-40,15],[-31,-9],[-42,-18],[-2,-9],[1,-12],[-2,-6],[-14,-2],[-35,-44],[-34,-60],[-3,-12],[-2,-10],[-24,-11],[-3,3],[6,14],[10,42],[5,4],[2,-2],[7,5],[10,16],[3,12],[10,14],[18,20],[6,13],[0,8],[-3,25],[-2,25],[9,4],[15,1],[14,-4],[12,-2],[5,11],[5,4],[9,-7],[12,-2],[10,3],[9,7],[45,-5],[48,3],[17,24],[-1,42],[4,4],[4,0],[21,-53],[10,-43]],[[918,0],[37,9],[33,-6],[29,20],[16,5],[22,-3],[83,-25],[-220,0]],[[1149,0],[26,8],[8,14],[6,22],[5,25],[-20,5],[-110,61],[-27,24],[-27,48],[-11,35],[5,32],[-6,22],[-29,44],[-21,39],[-12,14],[-29,19],[49,66],[12,3],[13,9],[1,75],[6,46],[9,12],[11,10],[18,36],[33,8],[27,-10],[18,31],[4,67],[1,15],[12,52],[-2,86],[10,22],[27,36],[7,19],[-15,-3],[1,11],[6,9],[1,22],[4,10],[10,16],[-6,30],[7,13],[9,8],[21,-5],[-9,-14],[4,-15],[2,-20],[-6,-11],[93,23],[9,20],[5,18],[8,48],[2,11],[3,19],[4,23],[-11,55],[-12,16],[0,23],[5,11],[10,9],[25,-7],[14,6],[20,13],[32,14],[6,5],[50,62],[3,4],[27,44],[3,11],[9,17],[9,30],[4,21],[62,21],[34,-4],[15,5],[17,30],[12,11],[-6,-31],[23,-7],[22,-2],[17,5],[6,19],[2,57],[-9,21],[-5,24],[-14,34],[14,-15],[5,-17],[13,-32],[5,-35],[-4,-19],[6,-21],[12,-18],[16,-13],[41,-9],[41,14],[-5,-6],[-24,-21],[-11,-12],[-42,10],[-46,3],[-29,9],[-30,0],[13,-12],[16,-11],[26,-2],[28,-9],[1,-12],[-4,-6],[-14,-5],[-13,-1],[-12,-5],[10,-12],[17,1],[20,-7],[53,-36],[27,-13],[58,13],[27,-2],[47,14],[11,-14],[31,-18],[12,5],[18,5],[7,-17],[5,-24],[-36,-30],[-34,-20],[-25,-5],[-57,-43],[-58,-52],[8,-15],[11,-6],[29,8],[27,-3],[48,-42],[14,-7],[24,5],[30,-25],[8,-32],[2,-21],[-15,-63],[-7,-17],[-5,-6],[-2,-12],[37,-33],[18,-10],[28,-3],[30,10],[38,32],[34,51],[45,23],[31,5],[37,-6],[12,26],[37,23],[21,33],[17,6],[20,-5],[15,-9],[8,-8],[12,-10],[34,7],[31,-1],[30,11],[7,24],[4,22],[11,20],[11,25],[-27,11],[-25,6],[-21,-1],[-17,-8],[-12,-14],[-33,8],[-15,-3],[-35,-22],[-18,1],[-15,11],[-21,26],[-43,70],[-21,49],[-9,30],[-3,24],[1,32],[22,15],[17,7],[30,48],[12,-20],[0,-15],[-2,-10],[-12,-13],[-37,-35],[8,-1],[14,7],[13,11],[9,10],[26,49],[78,67],[36,12],[31,-6],[15,4],[28,20],[23,9],[24,0],[19,-14],[25,31],[21,14],[31,12],[23,-1],[37,44],[52,6],[63,-4],[7,3],[49,23],[17,18],[33,6],[-4,-7],[-17,-7],[-17,-17],[21,-2],[48,9],[17,27],[31,-1],[9,-19],[9,-26],[-1,-10],[-3,-7],[-26,-6],[-59,-33],[-31,-9],[-35,-16],[9,-23],[2,-19],[-29,4],[-20,7],[-13,-3],[-35,-20],[-18,4],[-19,1],[8,-29],[19,-35],[12,-6],[18,3],[43,-42],[32,-42],[-16,-3],[-17,4],[-23,0],[-9,-26],[-10,-18],[-2,9],[1,13],[-11,9],[-14,-13],[-17,-56],[-32,-40],[-10,-25],[0,-18],[4,-4],[7,1],[0,-16],[-5,-15],[-69,-18],[-9,-11],[-21,9],[-22,22],[-21,12],[-13,-5],[-13,-10],[7,-7],[9,-2],[24,-14],[-12,-10],[-47,-19],[2,-9],[4,-7],[54,-16],[47,-27],[14,-18],[13,-33],[11,-14],[15,-12],[14,-6],[24,-3],[27,10],[60,-77],[23,-12],[59,-16],[15,-8],[112,-108],[34,-47],[65,-71],[19,-15],[38,-29],[50,-46],[11,-7],[57,-16],[41,-37],[12,-28],[53,-25],[13,-22],[16,-72],[16,-70],[18,-49],[-1,-23],[0,-19],[-10,-31],[-35,-52],[-18,-26],[-60,-45],[-23,-14],[-25,-6],[-24,-23],[-67,-35],[-90,0],[-3,1],[-70,34],[-104,-25],[-25,-10],[-122,0],[-25,6],[-26,21],[-61,10],[-66,20],[-14,25],[-39,24],[-24,-3],[-11,-7],[-14,-18],[-19,4],[-23,17],[-18,25],[-23,71],[-13,6],[-11,2],[-66,-22],[-47,26],[-16,18],[-16,27],[-2,18],[5,9],[3,11],[-27,10],[-47,-30],[-101,2],[-148,15],[-18,-3],[-61,-32],[-74,-23],[-43,-21],[-40,-39],[-114,-75],[-21,-45],[-16,-14],[-81,-6],[-85,31],[-77,-13],[-109,22],[-32,-2],[-10,-12],[-4,-21],[-4,-26],[4,-8],[-47,0]],[[1664,1465],[-10,9],[-14,19],[4,-18],[6,-14],[25,-12],[56,-13],[26,-4],[-25,14],[-68,19]],[[1942,2225],[-1,-7],[-16,3],[-1,5],[-5,12],[-11,5],[-21,1],[-17,8],[-10,7],[-18,16],[-38,29],[-21,12],[-23,16],[-49,30],[-2,12],[12,4],[29,-8],[13,-6],[30,-14],[20,-12],[31,-12],[10,5],[-5,18],[1,20],[9,6],[8,-21],[19,-21],[28,-35],[16,-22],[17,-23],[0,-7],[-5,-21]],[[2348,1184],[-22,12],[-34,16],[-5,6],[-4,6],[0,7],[7,20],[-5,18],[-5,11],[-4,7],[-22,16],[-9,10],[-13,6],[-3,12],[-11,4],[-1,5],[-6,5],[-27,-15],[0,5],[22,31],[0,6],[-2,2],[-7,2],[-8,-12],[-5,-2],[-7,5],[-9,-8],[-3,0],[-2,3],[1,14],[-1,8],[-3,6],[-17,7],[-8,-1],[-7,2],[-1,-4],[1,-11],[-1,-5],[-4,-4],[-4,5],[-1,13],[-2,5],[-9,9],[-14,4],[-4,-6],[-3,-3],[-6,-1],[-7,6],[-10,23],[-3,0],[-8,-2],[-12,13],[-2,5],[2,4],[4,4],[9,1],[13,0],[13,-5],[20,-16],[9,-4],[5,1],[-1,10],[2,3],[3,-1],[3,1],[3,3],[-1,12],[0,5],[3,0],[12,-14],[6,-6],[5,-3],[2,0],[3,2],[40,-8],[2,-6],[-2,-7],[-10,0],[-4,-3],[-7,-22],[2,-7],[7,-4],[8,1],[12,9],[9,37],[5,6],[9,-3],[7,-9],[0,-5],[-7,-6],[-1,-11],[5,-5],[9,-3],[5,-18],[5,-32],[12,-14],[22,-42],[28,-46],[21,-30],[23,-20],[2,-5],[-7,-5]],[[2330,1803],[-5,-12],[-11,0],[-30,-6],[-16,-6],[-27,16],[-40,15],[-31,-9],[-42,-18],[-2,-9],[1,-12],[-2,-6],[-14,-2],[-35,-44],[-34,-60],[-3,-12],[-2,-10],[-24,-11],[-3,3],[6,14],[10,42],[5,4],[2,-2],[7,5],[10,16],[3,12],[10,14],[18,20],[6,13],[0,8],[-3,25],[-2,25],[9,4],[15,1],[14,-4],[12,-2],[5,11],[5,4],[9,-7],[12,-2],[10,3],[9,7],[45,-5],[48,3],[17,24],[-1,42],[4,4],[4,0],[21,-53],[10,-43]],[[1942,2225],[-1,-7],[-16,3],[-1,5],[-5,12],[-11,5],[-21,1],[-17,8],[-10,7],[-18,16],[-38,29],[-21,12],[-23,16],[-49,30],[-2,12],[12,4],[29,-8],[13,-6],[30,-14],[20,-12],[31,-12],[10,5],[-5,18],[1,20],[9,6],[8,-21],[19,-21],[28,-35],[16,-22],[17,-23],[0,-7],[-5,-21]],[[1654,1474],[-14,19],[4,-18],[6,-14],[25,-12],[56,-13],[26,-4],[-25,14],[-68,19],[-10,9]],[[464,0],[10,4],[6,-4]],[[918,0],[37,9],[33,-6],[29,20],[16,5],[22,-3],[83,-25]],[[1149,0],[26,8],[8,14],[6,22],[5,25],[-20,5],[-110,61],[-27,24],[-27,48],[-11,35],[5,32],[-6,22],[-29,44],[-21,39],[-12,14],[-29,19],[49,66],[12,3],[13,9],[1,75],[6,46],[9,12],[11,10],[18,36],[33,8],[27,-10],[18,31],[4,67],[1,15],[12,52],[-2,86],[10,22],[27,36],[7,19],[-15,-3],[1,11],[6,9],[1,22],[4,10],[10,16],[-6,30],[7,13],[9,8],[21,-5],[-9,-14],[4,-15],[2,-20],[-6,-11],[93,23],[9,20],[5,18],[8,48],[2,11],[3,19],[4,23],[-11,55],[-12,16],[0,23],[5,11],[10,9],[25,-7],[14,6],[20,13],[32,14],[6,5],[50,62],[3,4],[27,44],[3,11],[9,17],[9,30],[4,21],[62,21],[34,-4],[15,5],[17,30],[12,11],[-6,-31],[23,-7],[22,-2],[17,5],[6,19],[2,57],[-9,21],[-5,24],[-14,34],[14,-15],[5,-17],[13,-32],[5,-35],[-4,-19],[6,-21],[12,-18],[16,-13],[41,-9],[41,14],[-5,-6],[-24,-21],[-11,-12],[-42,10],[-46,3],[-29,9],[-30,0],[13,-12],[16,-11],[26,-2],[28,-9],[1,-12],[-4,-6],[-14,-5],[-13,-1],[-12,-5],[10,-12],[17,1],[20,-7],[53,-36],[27,-13],[58,13],[27,-2],[47,14],[11,-14],[31,-18],[12,5],[18,5],[7,-17],[5,-24],[-36,-30],[-34,-20],[-25,-5],[-57,-43],[-58,-52],[8,-15],[11,-6],[29,8],[27,-3],[48,-42],[14,-7],[24,5],[30,-25],[8,-32],[2,-21],[-15,-63],[-7,-17],[-5,-6],[-2,-12],[37,-33],[18,-10],[28,-3],[30,10],[38,32],[34,51],[45,23],[31,5],[37,-6],[12,26],[37,23],[21,33],[17,6],[20,-5],[15,-9],[8,-8],[12,-10],[34,7],[31,-1],[30,11],[7,24],[4,22],[11,20],[11,25],[-27,11],[-25,6],[-21,-1],[-17,-8],[-12,-14],[-33,8],[-15,-3],[-35,-22],[-18,1],[-15,11],[-21,26],[-43,70],[-21,49],[-9,30],[-3,24],[1,32],[22,15],[17,7],[30,48],[12,-20],[0,-15],[-2,-10],[-12,-13],[-37,-35],[8,-1],[14,7],[13,11],[9,10],[26,49],[78,67],[36,12],[31,-6],[15,4],[28,20],[23,9],[24,0],[19,-14],[25,31],[21,14],[31,12],[23,-1],[37,44],[52,6],[63,-4],[7,3],[49,23],[17,18],[33,6],[-4,-7],[-17,-7],[-17,-17],[21,-2],[48,9],[17,27],[31,-1],[9,-19],[9,-26],[-1,-10],[-3,-7],[-26,-6],[-59,-33],[-31,-9],[-35,-16],[9,-23],[2,-19],[-29,4],[-20,7],[-13,-3],[-35,-20],[-18,4],[-19,1],[8,-29],[19,-35],[12,-6],[18,3],[43,-42],[32,-42],[-16,-3],[-17,4],[-23,0],[-9,-26],[-10,-18],[-2,9],[1,13],[-11,9],[-14,-13],[-17,-56],[-32,-40],[-10,-25],[0,-18],[4,-4],[7,1],[0,-16],[-5,-15],[-69,-18],[-9,-11],[-21,9],[-22,22],[-21,12],[-13,-5],[-13,-10],[7,-7],[9,-2],[24,-14],[-12,-10],[-47,-19],[2,-9],[4,-7],[54,-16],[47,-27],[14,-18],[13,-33],[11,-14],[15,-12],[14,-6],[24,-3],[27,10],[60,-77],[23,-12],[59,-16],[15,-8],[112,-108],[34,-47],[65,-71],[19,-15],[38,-29],[50,-46],[11,-7],[57,-16],[41,-37],[12,-28],[53,-25],[13,-22],[16,-72],[16,-70],[18,-49],[-1,-23],[0,-19],[-10,-31],[-35,-52],[-18,-26],[-60,-45],[-23,-14],[-25,-6],[-24,-23],[-67,-35]],[[3154,0],[-3,1],[-70,34],[-104,-25],[-25,-10]],[[2830,0],[-25,6],[-26,21],[-61,10],[-66,20],[-14,25],[-39,24],[-24,-3],[-11,-7],[-14,-18],[-19,4],[-23,17],[-18,25],[-23,71],[-13,6],[-11,2],[-66,-22],[-47,26],[-16,18],[-16,27],[-2,18],[5,9],[3,11],[-27,10],[-47,-30],[-101,2],[-148,15],[-18,-3],[-61,-32],[-74,-23],[-43,-21],[-40,-39],[-114,-75],[-21,-45],[-16,-14],[-81,-6],[-85,31],[-77,-13],[-109,22],[-32,-2],[-10,-12],[-4,-21],[-4,-26],[4,-8]],[[1732,1446],[25,-14],[-26,4],[-56,13],[-25,12],[-6,14],[-4,18],[14,-19],[10,-9],[68,-19]],[[2952,0],[25,10],[104,25],[70,-34],[3,-1],[-202,0]],[[1196,0],[-4,8],[4,26],[4,21],[10,12],[32,2],[109,-22],[77,13],[85,-31],[81,6],[16,14],[21,45],[114,75],[40,39],[43,21],[74,23],[61,32],[18,3],[148,-15],[101,-2],[47,30],[27,-10],[-3,-11],[-5,-9],[2,-18],[16,-27],[16,-18],[47,-26],[66,22],[11,-2],[13,-6],[23,-71],[18,-25],[23,-17],[19,-4],[14,18],[11,7],[24,3],[39,-24],[14,-25],[66,-20],[61,-10],[26,-21],[25,-6],[-1634,0]],[[4096,4096],[0,-4096],[-852,0],[67,35],[24,23],[25,6],[23,14],[60,45],[18,26],[35,52],[10,31],[0,19],[1,23],[-18,49],[-16,70],[-16,72],[-13,22],[-53,25],[-12,28],[-41,37],[-57,16],[-11,7],[-50,46],[-38,29],[-19,15],[-65,71],[-34,47],[-112,108],[-15,8],[-59,16],[-23,12],[-60,77],[-27,-10],[-24,3],[-14,6],[-15,12],[-11,14],[-13,33],[-14,18],[-47,27],[-54,16],[-4,7],[-2,9],[47,19],[12,10],[-24,14],[-9,2],[-7,7],[13,10],[13,5],[21,-12],[22,-22],[21,-9],[9,11],[69,18],[5,15],[0,16],[-7,-1],[-4,4],[0,18],[10,25],[32,40],[17,56],[14,13],[11,-9],[-1,-13],[2,-9],[10,18],[9,26],[23,0],[17,-4],[16,3],[-32,42],[-43,42],[-18,-3],[-12,6],[-19,35],[-8,29],[19,-1],[18,-4],[35,20],[13,3],[20,-7],[29,-4],[-2,19],[-9,23],[35,16],[31,9],[59,33],[26,6],[3,7],[1,10],[-9,26],[-9,19],[-31,1],[-17,-27],[-48,-9],[-21,2],[17,17],[17,7],[4,7],[-33,-6],[-17,-18],[-49,-23],[-7,-3],[-63,4],[-52,-6],[-37,-44],[-23,1],[-31,-12],[-21,-14],[-25,-31],[-19,14],[-24,0],[-23,-9],[-28,-20],[-15,-4],[-31,6],[-36,-12],[-78,-67],[-26,-49],[-9,-10],[-13,-11],[-14,-7],[-8,1],[37,35],[12,13],[2,10],[0,15],[-12,20],[-30,-48],[-17,-7],[-22,-15],[-1,-32],[3,-24],[9,-30],[21,-49],[43,-70],[21,-26],[15,-11],[18,-1],[35,22],[15,3],[33,-8],[12,14],[17,8],[21,1],[25,-6],[27,-11],[-11,-25],[-11,-20],[-4,-22],[-7,-24],[-30,-11],[-31,1],[-34,-7],[-12,10],[-8,8],[-15,9],[-20,5],[-17,-6],[-21,-33],[-37,-23],[-12,-26],[-37,6],[-31,-5],[-45,-23],[-34,-51],[-38,-32],[-30,-10],[-28,3],[-18,10],[-37,33],[2,12],[5,6],[7,17],[15,63],[-2,21],[-8,32],[-30,25],[-24,-5],[-14,7],[-48,42],[-27,3],[-29,-8],[-11,6],[-8,15],[58,52],[57,43],[25,5],[34,20],[36,30],[-5,24],[-7,17],[-18,-5],[-12,-5],[-31,18],[-11,14],[-47,-14],[-27,2],[-58,-13],[-27,13],[-53,36],[-20,7],[-17,-1],[-10,12],[12,5],[13,1],[14,5],[4,6],[-1,12],[-28,9],[-26,2],[-16,11],[-13,12],[30,0],[29,-9],[46,-3],[42,-10],[11,12],[24,21],[5,6],[-41,-14],[-41,9],[-16,13],[-12,18],[-6,21],[4,19],[-5,35],[-13,32],[-5,17],[-14,15],[14,-34],[5,-24],[9,-21],[-2,-57],[-6,-19],[-17,-5],[-22,2],[-23,7],[6,31],[-12,-11],[-17,-30],[-15,-5],[-34,4],[-62,-21],[-4,-21],[-9,-30],[-9,-17],[-3,-11],[-27,-44],[-3,-4],[-50,-62],[-6,-5],[-32,-14],[-20,-13],[-14,-6],[-25,7],[-10,-9],[-5,-11],[0,-23],[12,-16],[11,-55],[-4,-23],[-3,-19],[-2,-11],[-8,-48],[-5,-18],[-9,-20],[-93,-23],[6,11],[-2,20],[-4,15],[9,14],[-21,5],[-9,-8],[-7,-13],[6,-30],[-10,-16],[-4,-10],[-1,-22],[-6,-9],[-1,-11],[15,3],[-7,-19],[-27,-36],[-10,-22],[2,-86],[-12,-52],[-1,-15],[-4,-67],[-18,-31],[-27,10],[-33,-8],[-18,-36],[-11,-10],[-9,-12],[-6,-46],[-1,-75],[-13,-9],[-12,-3],[-49,-66],[29,-19],[12,-14],[21,-39],[29,-44],[6,-22],[-5,-32],[11,-35],[27,-48],[27,-24],[110,-61],[20,-5],[-5,-25],[-6,-22],[-8,-14],[-26,-8],[-11,0],[-83,25],[-22,3],[-16,-5],[-29,-20],[-33,6],[-37,-9],[-438,0],[-6,4],[-10,-4],[-464,0],[0,4096],[4096,0]],[[385,0],[28,30],[21,-28],[-1,-2],[-48,0]],[[451,0],[9,38],[34,6],[4,-35],[35,-4],[-82,-5]],[[3460,636],[26,55],[48,-12],[-12,-61],[-62,18]],[[1503,2667],[8,44],[16,4],[1,-41],[-25,-7]],[[1260,2920],[31,102],[45,-29],[75,-4],[37,-69],[-8,-61],[-42,57],[-70,-20],[-10,25],[-42,-20],[-16,19]],[[3706,608],[59,6],[44,-57],[7,22],[27,-22],[-14,-13],[-41,25],[22,-28],[-17,-12],[-87,79]],[[1387,2823],[49,40],[32,-23],[-15,-41],[-65,7],[-1,17]],[[0,2444],[33,5],[12,-54],[-45,-6],[0,55]],[[0,2283],[71,-61],[-55,25],[-16,2],[0,34]],[[866,334],[116,-12],[26,-44],[-87,-22],[-55,78]],[[0,3443],[4,18],[40,11],[-20,2],[4,29],[36,15],[32,-15],[33,29],[31,1],[24,-14],[-55,4],[-27,-32],[-76,-31],[6,-58],[-32,-10],[0,51]],[[54,3476],[3,-2],[8,2],[1,4],[-12,-4]],[[72,3497],[3,0],[2,6],[-5,-2],[0,-4]],[[3505,693],[26,47],[43,-16],[-42,-102],[2,57],[-29,14]],[[7,1532],[42,88],[23,-6],[-9,-37],[43,6],[-36,-53],[16,-13],[-79,15]],[[1650,1458],[41,24],[-14,40],[47,-3],[16,-21],[-32,-23],[69,-55],[-127,38]],[[0,1131],[18,40],[47,13],[-10,-52],[-55,-55],[0,54]],[[3111,754],[7,24],[40,1],[144,-59],[-96,-3],[-15,-37],[-39,31],[1,19],[6,6],[-1,3],[-5,-4],[-7,-23],[0,41],[-8,-20],[-27,21]],[[3032,845],[51,25],[51,-63],[-46,-26],[-21,28],[18,19],[-22,-15],[-31,32]],[[688,3863],[108,23],[10,-28],[45,-19],[-48,-21],[-61,12],[4,-38],[-58,71]],[[3820,2501],[20,64],[51,-13],[-36,-46],[-35,-5]],[[1270,1574],[35,25],[90,-95],[-33,-7],[-92,77]],[[1169,1158],[9,6],[67,-3],[12,-42],[-4,42],[53,-9],[-6,-31],[-46,-23],[-35,49],[-50,11]],[[1146,1176],[31,16],[57,-2],[9,45],[39,-9],[-33,-63],[-103,13]],[[175,3201],[87,47],[-4,62],[19,14],[107,-32],[-3,-31],[-67,-32],[3,-42],[-28,-22],[-114,36]],[[0,2250],[12,-6],[-12,-7],[0,13]],[[0,2226],[8,-4],[-8,-5],[0,9]],[[89,3616],[17,35],[30,-36],[-25,-18],[-22,19]],[[0,2402],[15,4],[28,-80],[-43,15],[0,61]],[[1840,3373],[48,42],[46,-7],[-1,-28],[-35,-18],[-58,11]],[[1022,3790],[16,62],[1,-19],[7,4],[-1,14],[-19,16],[19,9],[54,-71],[-10,-72],[-67,57]],[[301,1982],[5,31],[19,2],[54,-46],[-34,-11],[-21,35],[-23,-11]],[[197,2020],[20,29],[15,-1],[-12,-47],[-23,19]],[[129,1453],[42,9],[-16,77],[49,-27],[-21,-31],[27,0],[7,-20],[-25,15],[0,-28],[-51,-25],[-12,30]],[[535,3942],[33,1],[-20,19],[41,20],[41,-32],[-2,-40],[-93,32]],[[3622,1951],[32,33],[51,6],[-14,-85],[-69,46]],[[0,1240],[30,-17],[-24,-76],[-6,-1],[0,94]],[[106,2108],[11,31],[38,-14],[42,-75],[-29,-25],[-62,83]],[[3132,3914],[83,40],[6,28],[32,-4],[-16,-24],[24,-17],[-25,-10],[25,-104],[-31,8],[0,55],[-17,-14],[-59,47],[-22,-5]],[[203,2913],[19,25],[16,-15],[49,22],[12,-22],[-44,-45],[-52,35]],[[193,2078],[17,48],[25,-5],[-1,-69],[-41,26]],[[2598,3866],[30,48],[33,-6],[8,-66],[-71,24]],[[1918,2873],[145,43],[21,-77],[-79,28],[-80,-23],[-7,29]],[[3622,640],[10,53],[41,34],[-7,-43],[32,-63],[-27,-25],[-49,44]],[[1274,2884],[42,27],[12,-15],[70,20],[68,-73],[-7,-41],[-114,9],[-71,73]],[[782,3994],[38,34],[-5,68],[79,0],[-46,-18],[-20,-97],[-46,13]],[[299,1917],[88,13],[61,-98],[-18,0],[-3,6],[-13,0],[-25,11],[-6,-2],[-3,2],[-2,-1],[-1,1],[-3,-2],[-8,-1],[-4,2],[-34,22],[-29,47]],[[318,1886],[1,-1],[2,0],[3,-2],[1,-3],[0,-1],[-1,-1],[4,-6],[0,-2],[5,-1],[4,-2],[1,1],[1,1],[8,-3],[2,-1],[1,-2],[3,2],[2,0],[0,1],[2,1],[2,-1],[1,0],[-13,20],[12,-2],[8,20],[-49,-18]],[[350,1863],[2,-2],[1,-1],[2,-3],[-1,-2],[1,0],[2,-2],[1,-2],[2,-1],[3,-3],[5,1],[1,0],[1,0],[1,0],[3,-1],[1,1],[2,1],[1,-1],[0,1],[1,0],[1,0],[1,-1],[2,-1],[2,2],[4,0],[13,-3],[6,-4],[0,-1],[1,-1],[3,-1],[2,-1],[7,1],[-13,28],[-46,-18],[2,19],[-4,-2],[-3,1],[-2,-2],[-5,-2]],[[307,1906],[1,-1],[2,1],[0,-4],[3,-6],[1,0],[2,-1],[2,-3],[1,-2],[2,1],[3,12],[-9,-5],[-2,11],[-6,-3]],[[918,3042],[13,10],[21,-10],[39,23],[36,-2],[12,14],[50,-12],[-44,-18],[-2,-28],[-125,23]],[[3615,4096],[-21,-11],[-14,11],[35,0]],[[2251,3851],[39,22],[27,-59],[20,7],[15,1],[63,-17],[19,13],[24,-62],[-67,49],[2,-23],[-14,-19],[-15,-2],[3,33],[-38,23],[-29,-15],[-20,6],[-29,43]],[[3687,230],[56,7],[16,42],[64,-11],[-59,-57],[-61,-4],[-16,23]],[[0,2264],[1,-3],[-1,-1],[0,4]],[[67,72],[2,28],[102,9],[-47,-70],[-57,33]],[[3804,531],[69,24],[26,-30],[-25,-33],[-70,39]],[[604,4003],[57,11],[7,-62],[-39,-15],[-20,31],[22,14],[-27,21]],[[319,1270],[49,40],[74,-14],[55,21],[-11,-57],[-74,-59],[-54,12],[-39,57]],[[3355,3729],[17,31],[2,49],[49,-63],[-47,15],[-21,-32]],[[666,3606],[47,14],[-10,-19],[61,-4],[-61,-83],[-31,24],[16,9],[-22,59]],[[2295,3394],[92,78],[34,-28],[-49,-17],[-6,-66],[-58,-1],[-13,34]],[[1254,1250],[18,19],[23,-25],[31,12],[2,-92],[-31,62],[-35,9],[18,11],[-26,4]],[[116,2230],[30,39],[44,-33],[-40,-28],[-34,22]],[[0,2222],[15,25],[61,-32],[-61,-24],[-15,7],[0,24]],[[1627,4012],[76,84],[9,0],[39,-16],[-5,-27],[45,-5],[-8,-41],[-54,-36],[-102,41]],[[3273,3848],[5,31],[17,1],[6,-19],[29,11],[-20,-47],[62,1],[-30,-32],[-51,-8],[2,54],[-20,8]],[[3435,3440],[37,27],[37,-32],[-26,-38],[-29,0],[-19,43]],[[432,1686],[46,16],[3,30],[18,1],[-7,-33],[22,12],[-17,-25],[12,-107],[-26,-28],[-39,28],[42,40],[-36,6],[-18,60]],[[306,494],[16,21],[155,-12],[12,-26],[-55,-18],[-53,34],[-75,1]],[[2106,3790],[66,42],[43,78],[31,-1],[10,-45],[-41,-6],[-54,-69],[-55,1]],[[2496,2378],[23,23],[16,-23],[-34,-19],[-5,19]],[[3097,23],[0,4],[50,-27],[-42,0],[-8,23]],[[1196,34],[6,23],[46,-57],[-52,0],[0,34]],[[1843,87],[19,5],[-7,-35],[-21,0],[9,30]],[[1175,8],[-37,-8],[-79,24],[135,45],[-19,-61]],[[1719,106],[11,-31],[-16,-14],[0,23],[5,22]],[[4072,184],[-30,14],[7,46],[42,-43],[5,-50],[-24,33]],[[2508,99],[39,-20],[1,-11],[-48,17],[-12,44],[20,-30]],[[1735,128],[23,10],[-7,-49],[-9,0],[-7,39]],[[200,503],[-27,-11],[2,-31],[-56,14],[37,45],[44,-17]],[[3668,348],[-7,22],[23,0],[0,-21],[-16,-1]],[[889,426],[-21,7],[17,19],[27,-12],[-14,-31],[-9,17]],[[3948,1065],[7,-27],[-33,39],[14,7],[12,-19]],[[3526,1010],[-13,17],[39,-7],[-9,-21],[-17,11]],[[3189,1013],[23,13],[10,-41],[-33,14],[0,14]],[[2001,1007],[9,24],[21,-18],[-13,-46],[-17,40]],[[3827,894],[-8,-31],[-22,-1],[10,29],[20,3]],[[3736,900],[29,4],[-2,-59],[-67,-7],[40,62]],[[1117,904],[3,-30],[-7,0],[-11,26],[15,4]],[[857,866],[6,42],[19,7],[7,-28],[-32,-21]],[[3568,894],[-23,0],[14,26],[9,-26]],[[242,914],[-21,25],[15,9],[17,-6],[-11,-28]],[[673,939],[-43,-4],[-14,67],[33,14],[37,-35],[-13,-42]],[[4053,566],[-41,1],[-18,56],[90,32],[-9,-39],[-37,-14],[15,-36]],[[3839,683],[-16,18],[14,28],[32,-25],[-30,-21]],[[997,623],[-9,-15],[-27,5],[9,28],[39,-5],[-12,-13]],[[563,577],[8,27],[20,4],[-9,-23],[-19,-8]],[[4042,771],[-16,-20],[-25,2],[25,25],[16,-7]],[[3915,718],[4,29],[17,-1],[-5,-31],[-16,3]],[[626,826],[27,-14],[-26,-28],[-11,7],[10,35]],[[3690,812],[-19,-2],[-1,21],[21,-4],[-1,-15]],[[3285,1226],[5,23],[31,-28],[-13,-10],[-23,15]],[[3220,1347],[-5,-10],[-23,14],[11,15],[17,-19]],[[575,1302],[7,-19],[-28,7],[5,18],[16,-6]],[[1016,1247],[-14,-27],[-16,11],[21,25],[9,-9]],[[981,1207],[19,5],[-1,-35],[-15,-5],[-3,35]],[[1497,1491],[-10,-22],[-20,12],[14,28],[-19,14],[44,53],[27,-26],[-36,-59]],[[3106,1541],[10,21],[18,-11],[-12,-13],[-16,3]],[[2355,1622],[-30,0],[3,18],[23,3],[4,-21]],[[1162,1657],[-30,24],[16,18],[23,-7],[5,-46],[-14,11]],[[1833,1558],[-1,37],[26,2],[11,-32],[-36,-7]],[[2602,1587],[-22,14],[15,20],[20,-18],[-13,-16]],[[1306,1639],[6,-49],[-56,39],[10,14],[40,-4]],[[1718,1661],[-14,34],[54,-21],[-37,-73],[-3,60]],[[3601,1826],[-12,-28],[-23,10],[-4,46],[20,-35],[19,7]],[[2770,1691],[-41,-15],[0,62],[40,-18],[1,-29]],[[3154,1715],[-27,-16],[-39,60],[78,-4],[14,-38],[-26,-2]],[[940,1706],[-20,-6],[-13,27],[23,7],[10,-28]],[[3008,1742],[-17,-27],[-30,-5],[11,45],[36,-13]],[[3196,1903],[-7,26],[16,6],[3,-32],[-12,0]],[[2923,1949],[-30,21],[65,5],[9,-30],[-44,4]],[[1534,1973],[2,-7],[-12,-17],[-13,14],[23,10]],[[3213,1798],[13,-18],[-39,-4],[8,47],[18,-25]],[[2163,1821],[-14,3],[6,18],[22,-10],[-14,-11]],[[1615,1833],[-13,-13],[-13,20],[13,8],[13,-15]],[[3252,1882],[-28,-35],[-15,18],[-1,31],[44,-14]],[[2098,1854],[18,19],[19,-12],[-24,-21],[-13,14]],[[1964,1857],[-15,-14],[-15,11],[15,19],[15,-16]],[[3184,1887],[5,-16],[-26,3],[-8,29],[29,-16]],[[1581,1889],[-12,24],[32,-7],[-20,-17]],[[2295,1899],[-24,4],[37,32],[24,-25],[-17,-39],[-20,28]],[[3009,1407],[-19,-3],[-2,38],[16,-5],[5,-30]],[[2795,1029],[-22,-8],[-9,42],[23,-14],[8,-20]],[[3553,1116],[-28,10],[18,29],[21,-15],[-11,-24]],[[630,1111],[35,0],[-23,-42],[-9,3],[-3,39]],[[3404,1105],[-16,-4],[-14,7],[16,23],[14,-26]],[[448,1097],[11,-35],[-21,-18],[-18,42],[28,11]],[[2096,1133],[32,-21],[-10,-22],[-20,1],[-2,42]],[[2979,1122],[16,43],[39,-29],[-7,-28],[-48,14]],[[3062,2082],[-21,6],[-9,26],[56,0],[-26,-32]],[[2026,2251],[21,-18],[-12,-16],[-20,6],[11,28]],[[1999,2272],[11,-28],[-16,-21],[-28,21],[33,28]],[[1102,2293],[-14,-20],[-16,13],[13,21],[17,-14]],[[1726,2335],[0,18],[30,-18],[-14,-14],[-16,14]],[[2833,2114],[-10,-15],[-15,8],[10,20],[15,-13]],[[2780,2089],[-18,-7],[-12,25],[16,-3],[14,-15]],[[2454,2093],[-21,-11],[-9,32],[14,-14],[16,-7]],[[1760,2086],[14,16],[17,-13],[-14,-16],[-17,13]],[[2979,2065],[-53,14],[-16,52],[34,0],[35,-66]],[[2910,2177],[-28,18],[-26,52],[63,-28],[-9,-42]],[[2757,2145],[-23,-38],[-9,77],[23,14],[9,-53]],[[0,2843],[0,2],[18,11],[20,-12],[-20,-14],[-18,13]],[[2568,2688],[16,-8],[6,-35],[-37,3],[-7,34],[22,6]],[[3096,2788],[17,-13],[-16,-15],[-14,18],[13,10]],[[2253,2740],[-21,-4],[-14,25],[37,3],[-2,-24]],[[1233,3056],[-20,21],[32,21],[3,-17],[-15,-25]],[[223,3066],[-25,17],[25,14],[24,-17],[-24,-14]],[[3455,3225],[-28,24],[17,27],[20,-69],[-9,18]],[[3141,3194],[-41,2],[-8,50],[44,-11],[5,-41]],[[4096,3364],[-28,33],[28,16],[0,-49]],[[250,3525],[-9,-22],[-15,9],[5,20],[19,-7]],[[1232,3361],[-24,8],[13,17],[15,-14],[-4,-11]],[[136,3364],[-5,-10],[-35,10],[30,29],[10,-29]],[[2128,3429],[56,-28],[-7,-22],[-26,4],[-23,46]],[[3282,3292],[-21,17],[14,32],[10,-20],[-3,-29]],[[2491,3341],[-10,-30],[-25,-9],[17,42],[18,-3]],[[2367,3140],[-26,-3],[2,30],[30,-9],[-6,-18]],[[1561,3163],[-9,-12],[-30,17],[18,20],[21,-25]],[[2896,3218],[2,21],[32,-14],[-15,-15],[-19,8]],[[3777,2922],[-16,-7],[-12,11],[22,17],[6,-21]],[[1589,2901],[-4,21],[14,7],[14,-10],[-24,-18]],[[2801,2818],[-5,24],[-44,-7],[-25,31],[82,11],[13,-50],[-10,-21],[-11,12]],[[3016,2940],[-19,28],[22,21],[50,0],[9,-42],[-62,-7]],[[2486,2947],[-23,14],[37,35],[12,-17],[-26,-32]],[[2886,3597],[-16,4],[-14,32],[21,-15],[9,-21]],[[2758,3641],[-17,-8],[-9,49],[41,-7],[-15,-34]],[[3143,3791],[14,-35],[-44,38],[30,-3]],[[2840,3843],[-9,15],[44,-11],[-11,-17],[-24,13]],[[268,3845],[-15,-9],[-18,31],[54,14],[-21,-36]],[[1745,3812],[-17,10],[13,14],[17,-7],[-13,-17]],[[2502,3772],[19,-6],[-9,-26],[-19,9],[9,23]],[[489,3804],[21,9],[7,-20],[-35,-24],[-14,28],[21,7]],[[2973,3892],[-17,8],[0,17],[30,-14],[-13,-11]],[[1386,3942],[16,4],[14,-8],[-28,-14],[-2,18]],[[2971,4096],[28,0],[-6,-9],[-26,-1],[4,10]],[[2908,4096],[4,0],[-2,-13],[-2,13]],[[2968,3962],[-8,-13],[-23,21],[26,15],[5,-23]],[[3897,3995],[-16,-15],[-17,22],[16,7],[17,-14]],[[2842,4096],[7,0],[-4,-6],[-3,6]],[[2684,4096],[136,0],[48,-63],[-44,25],[-2,-28],[-30,17],[-60,-70],[9,42],[-40,30],[-41,5],[24,42]],[[1423,3552],[-7,21],[12,22],[13,-19],[-18,-24]],[[956,3573],[-33,-17],[-39,20],[60,32],[12,-35]],[[2769,2402],[-18,-3],[-8,28],[23,0],[3,-25]],[[2174,2377],[19,24],[25,-9],[-18,-22],[-26,7]],[[265,2443],[-5,21],[35,-3],[-2,-21],[-28,3]],[[2544,2476],[-27,-4],[9,-31],[-37,21],[-23,-25],[-21,78],[30,-4],[7,30],[30,-11],[32,-54]],[[1109,2585],[20,-2],[10,-19],[-21,-4],[-9,25]],[[1467,2592],[-46,28],[32,42],[39,-34],[-25,-36]],[[3000,1977],[-20,-3],[-13,24],[26,10],[7,-31]],[[2889,1987],[-100,49],[-4,25],[44,0],[60,-74]],[[2815,1913],[-90,18],[0,21],[32,0],[5,52],[115,-48],[-44,-7],[-18,-36]],[[2006,1892],[-54,18],[49,95],[23,-7],[-18,-106]],[[2686,2044],[9,-25],[-22,-4],[-9,7],[22,22]],[[612,2025],[7,17],[16,4],[2,-28],[-25,7]],[[3961,2138],[10,39],[85,25],[23,-14],[-7,-50],[-41,25],[-2,-32],[-31,-14],[15,-24],[40,2],[6,-23],[-30,-18],[-68,84]],[[3219,2036],[13,28],[6,4],[7,-42],[-26,10]],[[2209,2131],[21,-38],[65,14],[18,-32],[-15,-22],[-98,19],[-23,24],[32,35]],[[3128,819],[38,0],[-3,61],[29,-31],[-7,-32],[49,38],[77,-37],[21,-120],[-65,14],[35,9],[-49,38],[-87,2],[-38,58]],[[1884,2963],[37,44],[16,-3],[5,-42],[-30,-24],[-28,25]],[[120,339],[103,14],[30,-31],[-14,12],[-86,-68],[-1,35],[35,17],[-67,21]],[[2249,4096],[-5,-16],[-18,16],[23,0]]]}