{"objects":{"water":{"type":"GeometryCollection","geometries":[{"type":"Polygon","properties":{"kind":"lake","name":"Dead Sea","area":870499072,"sort_rank":200,"alkaline":true,"source":"naturalearthdata.com","min_zoom":0.0,"id":76},"arcs":[[27]]},{"type":"Polygon","properties":{"kind":"lake","name":"Lake Van","area":5608420864,"sort_rank":200,"alkaline":true,"source":"naturalearthdata.com","min_zoom":0.0,"id":148},"arcs":[[28]]},{"type":"Polygon","properties":{"kind":"lake","name":"Lake Tuz","area":2447207424,"sort_rank":200,"alkaline":true,"source":"naturalearthdata.com","min_zoom":0.0,"id":114},"arcs":[[29]]},{"type":"MultiPolygon","properties":{"source":"naturalearthdata.com","kind":"ocean","area":1444195503964160,"sort_rank":200,"min_zoom":0.0,"id":1},"arcs":[[[30],[31],[32],[33],[34],[35],[36],[37],[38],[39],[40],[41],[42],[43],[44],[45],[46],[47],[48],[49],[50],[51],[52],[53],[54],[55],[56],[57],[58],[59],[60],[61],[62],[63],[64],[65],[66]],[[67]],[[68]],[[69]],[[70],[71],[72]]]},{"type":"Polygon","properties":{"source":"naturalearthdata.com","kind":"lake","area":214083504,"sort_rank":200,"alkaline":true,"min_zoom":0.0,"id":295},"arcs":[[73]]},{"type":"Polygon","properties":{"source":"naturalearthdata.com","kind":"lake","name":"Sea of Galilee","area":196015792,"sort_rank":200,"min_zoom":0.0,"id":296},"arcs":[[74]]},{"type":"Polygon","properties":{"kind":"lake","name":"Razzaza Lake (Lake Milh)","area":1990451712,"sort_rank":200,"alkaline":true,"source":"naturalearthdata.com","min_zoom":0.0,"id":75},"arcs":[[75]]},{"type":"Polygon","properties":{"source":"naturalearthdata.com","kind":"lake","name":"Lake Tharthar","area":2147911168,"sort_rank":200,"min_zoom":0.0,"id":74},"arcs":[[76]]},{"type":"Polygon","properties":{"kind":"lake","name":"Lake Nasser","reservoir":true,"area":4668259328,"sort_rank":200,"source":"naturalearthdata.com","min_zoom":0.0,"id":289},"arcs":[[77]]},{"type":"Polygon","properties":{"source":"naturalearthdata.com","kind":"lake","name":"Lake Habbaniyah","area":559971072,"sort_rank":200,"min_zoom":0.0,"id":312},"arcs":[[78]]},{"type":"Point","properties":{"label_placement":true,"kind":"lake","name":"Lake Van","area":5608420864,"sort_rank":200,"alkaline":true,"source":"naturalearthdata.com","min_zoom":0.0,"id":148},"coordinates":[3701,3598]},{"type":"Point","properties":{"label_placement":true,"kind":"lake","name":"Lake Nasser","reservoir":true,"area":4668259328,"sort_rank":200,"source":"naturalearthdata.com","min_zoom":0.0,"id":289},"coordinates":[1833,186]},{"type":"Point","properties":{"label_placement":true,"kind":"lake","name":"Lake Tuz","area":2447207424,"sort_rank":200,"alkaline":true,"source":"naturalearthdata.com","min_zoom":0.0,"id":114},"coordinates":[1974,3634]},{"type":"Point","properties":{"label_placement":true,"kind":"lake","name":"Lake Tharthar","area":2147911168,"sort_rank":200,"source":"naturalearthdata.com","min_zoom":0.0,"id":74},"coordinates":[3778,2593]},{"type":"Point","properties":{"label_placement":true,"kind":"lake","name":"Razzaza Lake (Lake Milh)","area":1990451712,"sort_rank":200,"alkaline":true,"source":"naturalearthdata.com","min_zoom":0.0,"id":75},"coordinates":[3841,2330]},{"type":"Point","properties":{"label_placement":true,"kind":"lake","name":"Dead Sea","area":870499072,"sort_rank":200,"alkaline":true,"source":"naturalearthdata.com","min_zoom":0.0,"id":76},"coordinates":[2364,2063]},{"type":"Point","properties":{"label_placement":true,"kind":"lake","name":"Lake Habbaniyah","area":559971072,"sort_rank":200,"source":"naturalearthdata.com","min_zoom":0.0,"id":312},"coordinates":[3812,2449]},{"type":"Point","properties":{"label_placement":true,"kind":"lake","name":"Sea of Galilee","area":196015792,"sort_rank":200,"source":"naturalearthdata.com","min_zoom":0.0,"id":296},"coordinates":[2382,2340]},{"type":"LineString","properties":{"source":"naturalearthdata.com","kind":"ocean","sort_rank":205,"boundary":true,"min_zoom":0.0,"id":44},"arcs":[79]},{"type":"LineString","properties":{"source":"naturalearthdata.com","kind":"ocean","sort_rank":205,"boundary":true,"min_zoom":0.0,"id":45},"arcs":[80]},{"type":"LineString","properties":{"source":"naturalearthdata.com","kind":"ocean","sort_rank":205,"boundary":true,"min_zoom":0.0,"id":46},"arcs":[81]},{"type":"LineString","properties":{"source":"naturalearthdata.com","kind":"lake","sort_rank":367,"boundary":true,"min_zoom":0.0,"id":74},"arcs":[82]},{"type":"LineString","properties":{"source":"naturalearthdata.com","kind":"lake","sort_rank":367,"alkaline":true,"boundary":true,"min_zoom":0.0,"id":75},"arcs":[83]},{"type":"LineString","properties":{"source":"naturalearthdata.com","kind":"lake","sort_rank":367,"alkaline":true,"boundary":true,"min_zoom":0.0,"id":76},"arcs":[84]},{"type":"LineString","properties":{"source":"naturalearthdata.com","kind":"lake","sort_rank":367,"alkaline":true,"boundary":true,"min_zoom":0.0,"id":114},"arcs":[85]},{"type":"LineString","properties":{"source":"naturalearthdata.com","kind":"lake","sort_rank":367,"alkaline":true,"boundary":true,"min_zoom":0.0,"id":148},"arcs":[86]},{"type":"LineString","properties":{"source":"naturalearthdata.com","kind":"ocean","sort_rank":205,"boundary":true,"min_zoom":0.0,"id":191},"arcs":[87]},{"type":"LineString","properties":{"source":"naturalearthdata.com","kind":"ocean","sort_rank":205,"boundary":true,"min_zoom":0.0,"id":192},"arcs":[88]},{"type":"MultiLineString","properties":{"source":"naturalearthdata.com","kind":"lake","sort_rank":367,"boundary":true,"min_zoom":0.0,"id":226},"arcs":[[89],[90]]},{"type":"MultiLineString","properties":{"source":"naturalearthdata.com","kind":"lake","reservoir":true,"sort_rank":367,"boundary":true,"min_zoom":0.0,"id":289},"arcs":[[91],[92]]},{"type":"LineString","properties":{"source":"naturalearthdata.com","kind":"lake","sort_rank":367,"alkaline":true,"boundary":true,"min_zoom":0.0,"id":295},"arcs":[93]},{"type":"LineString","properties":{"source":"naturalearthdata.com","kind":"lake","sort_rank":367,"boundary":true,"min_zoom":0.0,"id":296},"arcs":[94]},{"type":"LineString","properties":{"source":"naturalearthdata.com","kind":"lake","sort_rank":367,"boundary":true,"min_zoom":0.0,"id":312},"arcs":[95]},{"type":"LineString","properties":{"source":"naturalearthdata.com","kind":"ocean","sort_rank":205,"boundary":true,"min_zoom":0.0,"id":844},"arcs":[96]},{"type":"LineString","properties":{"source":"naturalearthdata.com","kind":"ocean","sort_rank":205,"boundary":true,"min_zoom":0.0,"id":845},"arcs":[97]},{"type":"LineString","properties":{"source":"naturalearthdata.com","kind":"ocean","sort_rank":205,"boundary":true,"min_zoom":0.0,"id":846},"arcs":[98]},{"type":"LineString","properties":{"source":"naturalearthdata.com","kind":"ocean","sort_rank":205,"boundary":true,"min_zoom":0.0,"id":847},"arcs":[99]},{"type":"LineString","properties":{"source":"naturalearthdata.com","kind":"ocean","sort_rank":205,"boundary":true,"min_zoom":0.0,"id":848},"arcs":[100]},{"type":"LineString","properties":{"source":"naturalearthdata.com","kind":"ocean","sort_rank":205,"boundary":true,"min_zoom":0.0,"id":849},"arcs":[101]},{"type":"LineString","properties":{"source":"naturalearthdata.com","kind":"ocean","sort_rank":205,"boundary":true,"min_zoom":0.0,"id":850},"arcs":[102]},{"type":"LineString","properties":{"source":"naturalearthdata.com","kind":"ocean","sort_rank":205,"boundary":true,"min_zoom":0.0,"id":851},"arcs":[103]},{"type":"LineString","properties":{"source":"naturalearthdata.com","kind":"ocean","sort_rank":205,"boundary":true,"min_zoom":0.0,"id":852},"arcs":[104]},{"type":"LineString","properties":{"source":"naturalearthdata.com","kind":"ocean","sort_rank":205,"boundary":true,"min_zoom":0.0,"id":853},"arcs":[105]},{"type":"LineString","properties":{"source":"naturalearthdata.com","kind":"ocean","sort_rank":205,"boundary":true,"min_zoom":0.0,"id":854},"arcs":[106]},{"type":"LineString","properties":{"source":"naturalearthdata.com","kind":"ocean","sort_rank":205,"boundary":true,"min_zoom":0.0,"id":855},"arcs":[107]},{"type":"LineString","properties":{"source":"naturalearthdata.com","kind":"ocean","sort_rank":205,"boundary":true,"min_zoom":0.0,"id":856},"arcs":[108]},{"type":"LineString","properties":{"source":"naturalearthdata.com","kind":"ocean","sort_rank":205,"boundary":true,"min_zoom":0.0,"id":857},"arcs":[109]},{"type":"LineString","properties":{"source":"naturalearthdata.com","kind":"ocean","sort_rank":205,"boundary":true,"min_zoom":0.0,"id":858},"arcs":[110]},{"type":"LineString","properties":{"source":"naturalearthdata.com","kind":"ocean","sort_rank":205,"boundary":true,"min_zoom":0.0,"id":859},"arcs":[111]},{"type":"LineString","properties":{"source":"naturalearthdata.com","kind":"ocean","sort_rank":205,"boundary":true,"min_zoom":0.0,"id":860},"arcs":[112]},{"type":"LineString","properties":{"source":"naturalearthdata.com","kind":"ocean","sort_rank":205,"boundary":true,"min_zoom":0.0,"id":861},"arcs":[113]},{"type":"LineString","properties":{"source":"naturalearthdata.com","kind":"ocean","sort_rank":205,"boundary":true,"min_zoom":0.0,"id":862},"arcs":[114]},{"type":"LineString","properties":{"source":"naturalearthdata.com","kind":"ocean","sort_rank":205,"boundary":true,"min_zoom":0.0,"id":863},"arcs":[115]},{"type":"LineString","properties":{"source":"naturalearthdata.com","kind":"ocean","sort_rank":205,"boundary":true,"min_zoom":0.0,"id":864},"arcs":[116]},{"type":"LineString","properties":{"source":"naturalearthdata.com","kind":"ocean","sort_rank":205,"boundary":true,"min_zoom":0.0,"id":865},"arcs":[117]},{"type":"LineString","properties":{"source":"naturalearthdata.com","kind":"ocean","sort_rank":205,"boundary":true,"min_zoom":0.0,"id":866},"arcs":[118]},{"type":"LineString","properties":{"source":"naturalearthdata.com","kind":"ocean","sort_rank":205,"boundary":true,"min_zoom":0.0,"id":867},"arcs":[119]},{"type":"LineString","properties":{"source":"naturalearthdata.com","kind":"ocean","sort_rank":205,"boundary":true,"min_zoom":0.0,"id":868},"arcs":[120]},{"type":"LineString","properties":{"source":"naturalearthdata.com","kind":"ocean","sort_rank":205,"boundary":true,"min_zoom":0.0,"id":869},"arcs":[121]},{"type":"LineString","properties":{"source":"naturalearthdata.com","kind":"ocean","sort_rank":205,"boundary":true,"min_zoom":0.0,"id":870},"arcs":[122]},{"type":"LineString","properties":{"source":"naturalearthdata.com","kind":"ocean","sort_rank":205,"boundary":true,"min_zoom":0.0,"id":871},"arcs":[123]},{"type":"LineString","properties":{"source":"naturalearthdata.com","kind":"ocean","sort_rank":205,"boundary":true,"min_zoom":0.0,"id":872},"arcs":[124]},{"type":"LineString","properties":{"source":"naturalearthdata.com","kind":"ocean","sort_rank":205,"boundary":true,"min_zoom":0.0,"id":995},"arcs":[125]},{"type":"LineString","properties":{"source":"naturalearthdata.com","kind":"ocean","sort_rank":205,"boundary":true,"min_zoom":0.0,"id":996},"arcs":[126]},{"type":"LineString","properties":{"source":"naturalearthdata.com","kind":"ocean","sort_rank":205,"boundary":true,"min_zoom":0.0,"id":1355},"arcs":[127]},{"type":"LineString","properties":{"source":"naturalearthdata.com","kind":"ocean","sort_rank":205,"boundary":true,"min_zoom":0.0,"id":1383},"arcs":[128]},{"type":"MultiLineString","properties":{"source":"naturalearthdata.com","kind":"ocean","sort_rank":205,"boundary":true,"min_zoom":0.0,"id":1388},"arcs":[[129],[130],[131],[132],[133],[134],[135],[136]]},{"type":"Point","properties":{"label_placement":true,"kind":"sea","name":"\u039a\u03c1\u03b7\u03c4\u03b9\u03ba\u03cc \u03c0\u03ad\u03bb\u03b1\u03b3\u03bf\u03c2","source":"openstreetmap.org","sort_rank":200,"min_zoom":3.0,"id":305639198},"coordinates":[455,3025]},{"type":"Point","properties":{"label_placement":true,"kind":"sea","name":"\u0399\u03ba\u03ac\u03c1\u03b9\u03bf \u03c0\u03ad\u03bb\u03b1\u03b3\u03bf\u03c2","source":"openstreetmap.org","sort_rank":200,"min_zoom":3.0,"id":2515637409},"coordinates":[741,3283]},{"type":"Point","properties":{"label_placement":true,"kind":"sea","name":"Aegean Sea","source":"openstreetmap.org","sort_rank":200,"min_zoom":3.0,"id":4348290729},"coordinates":[454,3641]},{"type":"Point","properties":{"label_placement":true,"kind":"sea","name":"Dead Sea","source":"openstreetmap.org","sort_rank":200,"min_zoom":3.0,"id":4502483175},"coordinates":[2362,2056]},{"type":"Point","properties":{"label_placement":true,"kind":"sea","name":"\u039c\u03c5\u03c1\u03c4\u03ce\u03bf \u03a0\u03ad\u03bb\u03b1\u03b3\u03bf\u03c2","source":"openstreetmap.org","sort_rank":200,"min_zoom":3.0,"id":4788218377},"coordinates":[194,3240]},{"type":"Point","properties":{"label_placement":true,"kind":"sea","name":"\u0398\u03c1\u03b1\u03ba\u03b9\u03ba\u03cc \u03a0\u03ad\u03bb\u03b1\u03b3\u03bf\u03c2","source":"openstreetmap.org","sort_rank":200,"min_zoom":3.0,"id":4788255110},"coordinates":[349,3939]},{"type":"Point","properties":{"label_placement":true,"kind":"sea","name":"Levantine Sea","source":"openstreetmap.org","sort_rank":200,"min_zoom":3.0,"id":4807012221},"coordinates":[2103,2605]}]},"buildings":{"type":"GeometryCollection","geometries":[]},"places":{"type":"GeometryCollection","geometries":[{"type":"Point","properties":{"name:kg":"Misiri","name:ka":"\u10d4\u10d2\u10d5\u10d8\u10de\u10e2\u10d4","name:ko":"\uc774\uc9d1\ud2b8","name:kn":"\u0c88\u0c9c\u0cbf\u0caa\u0ccd\u0c9f\u0ccd","name:cu":"\u0404\u0433\u0477\u043f\u0442\u044a","name:kl":"Egypten","name:cs":"Egypt","name:ki":"Misri","name:kw":"Ejyp","name:kv":"\u0415\u0433\u0438\u043f\u0435\u0442","name:ku":"Misir","name:ti":"\u130d\u1265\u133d","name:ks":"\u0645\u0650\u0633\u0631","name:to":"\u02bbIsipite","name:tl":"Ehipto","name:ce":"\u041c\u0438\u0441\u0440","name:ta":"\u0b8e\u0b95\u0bbf\u0baa\u0bcd\u0ba4\u0bc1","name:tg":"\u041c\u0438\u0441\u0440","name:ca":"Egipte","name:te":"\u0c08\u0c1c\u0c3f\u0c2a\u0c4d\u0c1f\u0c41","name:cy":"Yr Aifft","name:hr":"Egipat","name:da":"Egypten","name:de":"\u00c4gypten","name:dz":"\u0f68\u0f72\u0f0b\u0f47\u0f72\u0f56\u0f4a","source":"openstreetmap.org","name:ts":"Egypt","name:dv":"\u0789\u07a8\u079e\u07b0\u0783\u07aa","name:km":"\u17a2\u17c1\u17a0\u17d2\u179f\u17c9\u17b8\u1794","name:lv":"\u0112\u0123ipte","name:lt":"Egiptas","name:uz":"Misr","name:kk":"\u041c\u044b\u0441\u044b\u0440","name:lb":"Egypten","name:la":"Aegyptus","name:lg":"Misiri","name:uk":"\u0404\u0433\u0438\u043f\u0435\u0442","name:ug":"\u0645\u0649\u0633\u0649\u0631","name:li":"Egypte","name:ln":"Ejipte","name:lo":"\u0ead\u0eb5\u0ea2\u0eb4\u0e9a","name:el":"\u0391\u03af\u03b3\u03c5\u03c0\u03c4\u03bf\u03c2","name:eo":"Egiptujo","name:en":"Egypt","name":"\u0645\u0635\u0631","name:ee":"Egypte nutome","name:th":"\u0e1b\u0e23\u0e30\u0e40\u0e17\u0e28\u0e2d\u0e35\u0e22\u0e34\u0e1b\u0e15\u0e4c","name:eu":"Egipto","name:et":"Egiptus","name:es":"Egipto","name:ia":"Egypto","name:rm":"Egipta","name:rn":"Misiri","name:az":"Misir","name:ie":"Egypt","name:id":"Mesir","name:pa":"Egypt","name:io":"Egiptia","name:ak":"Nisrim","name:am":"\u130d\u1265\u1345","name:it":"Egitto","name:an":"Echipto","name:ru":"\u0415\u0433\u0438\u043f\u0435\u0442","name:af":"Egipte","name:zu":"i-Egypt","name:zh-yue":"\u57c3\u53ca","name:zh":"\u57c3\u53ca","name:so":"Masar","name:sn":"Egypt","name:sm":"Aikupito","name:sl":"Egipt","name:sk":"Egypt","name:ja":"\u30a8\u30b8\u30d7\u30c8","name:si":"\u0d8a\u0da2\u0dd2\u0db4\u0dca\u0dad\u0dd4\u0dc0","name:sh":"Egipat","name:sg":"K\u00e2mit\u00e2","name:se":"Egypta","name:br":"Egipt","name:bs":"Egipat","name:bm":"Misra","name:bn":"\u09ae\u09bf\u09b6\u09b0","name:bo":"\u0f68\u0f60\u0f72\u0f0b\u0f45\u0f72","name:sa":"\u0908\u091c\u093f\u092a\u094d\u091f","name:sw":"Misri","name:be":"\u0415\u0433\u0456\u043f\u0435\u0442","name:bg":"\u0415\u0433\u0438\u043f\u0435\u0442","name:ss":"IGibhithe","name:ba":"\u041c\u044b\u0441\u044b\u0440","name:sq":"Egjipti","name:jv":"Mesir","name:pt":"Egito","name:oc":"Egipte","min_zoom":2.0,"name:ro":"Egipt","name:zh-min-nan":"Ai-ki\u030dp","name:os":"\u041c\u044b\u0441\u044b\u0440","name:or":"\u0b07\u0b1c\u0b3f\u0b2a\u0b4d\u0b1f","name:pl":"Egipt","name:sr":"\u0415\u0433\u0438\u043f\u0430\u0442","name:tr":"M\u0131s\u0131r","name:hi":"\u092e\u093f\u0938\u094d\u0930","name:sv":"Egypten","name:he":"\u05de\u05e6\u05e8\u05d9\u05d9\u05dd","name:ha":"Masar, Misira","name:hy":"\u0535\u0563\u056b\u057a\u057f\u0578\u057d","name:ht":"Ejip","name:hu":"Egyiptom","name:qu":"Ihiptu","population":83082869,"kind":"country","name:is":"Egyptaland","name:yi":"\u05e2\u05d2\u05d9\u05e4\u05d8\u05df","name:yo":"Egypt","name:mt":"E\u0121ittu","alt_name:eo":"Egipto;Egiptio","name:ms":"Mesir","name:mr":"\u0907\u091c\u093f\u092a\u094d\u0924","name:my":"\u1021\u102e\u1002\u103b\u1005\u103a","official_name":"\u062c\u0645\u0647\u0648\u0631\u064a\u0629 \u0645\u0635\u0631 \u0627\u0644\u0639\u0631\u0628\u064a\u0629","int_name":"Egypt - \u0645\u0635\u0631","name:mg":"Ejipta","name:ml":"\u0d08\u0d1c\u0d3f\u0d2a\u0d4d\u0d31\u0d4d\u0d31\u0d4d\u200c","name:vi":"Ai C\u1eadp","name:mn":"\u0415\u0433\u0438\u043f\u0435\u0442","id":424316018,"name:mk":"\u0415\u0433\u0438\u043f\u0435\u0442","name:vo":"L\u00e4g\u00fcpt\u00e4n","name:ff":"Ejipt","name:fi":"Egypti","name:fj":"Ijipta","name:fo":"Egyptaland","name:fr":"\u00c9gypte","name:fy":"Egypte","name:nl":"Egypte","name:nn":"Egypt","name:no":"Egypt","name:na":"Egypt","name:ne":"\u0907\u091c\u093f\u092a\u094d\u091f","name:wa":"Edjipe","name:wo":"Isipt","name:ga":"An \u00c9igipt","name:gd":"An \u00c8ipheit","name:gl":"Exipto - \u0645\u0635\u0631","name:gv":"Yn Egypt","name:gu":"\u0a87\u0a9c\u0abf\u0aaa\u0acd\u0aa4","name:tt":"\u041c\u0438\u0441\u044b\u0440"},"coordinates":[1232,928]},{"type":"Point","properties":{"name:pt":"Turquia","name:cy":"Twrci","name:mt":"Turkija","name:ko":"\ud130\ud0a4","name:kn":"\u0c9f\u0cb0\u0ccd\u0c95\u0cbf","name:km":"\u1791\u17bd\u179a\u1782\u17b8","name:kl":"Tyrkia","name:cs":"Turecko","alt_name:eo":"Turkio","name:ki":"Uturuki","name:ku":"Tirkiye","name:ti":"\u1271\u122d\u12ad","name:ks":"\u062a\u064f\u0631\u06a9\u06cc","name:to":"Toake","name:sv":"Turkiet","name:or":"\u0b24\u0b41\u0b30\u0b4d\u0b15\u0b40","name:pl":"Turcja","name:ta":"\u0ba4\u0bc1\u0bb0\u0bc1\u0b95\u0bcd\u0b95\u0bbf","name:tg":"\u0422\u0443\u0440\u043a\u0438\u044f","name:ca":"Turquia","name:te":"\u0c1f\u0c30\u0c4d\u0c15\u0c40","name:hu":"T\u00f6r\u00f6korsz\u00e1g","name:ro":"Turcia","name:ka":"\u10d7\u10e3\u10e0\u10e5\u10d4\u10d7\u10d8","name:hr":"Turska","name:da":"Tyrkiet","name:de":"T\u00fcrkei","name:dz":"\u0f4a\u0f71\u0f62\u0f0b\u0f40\u0f72","source":"openstreetmap.org","name:lv":"Turcija","name:lt":"Turkija","name:uz":"Turkiya","name:kk":"\u0422\u04af\u0440\u043a\u0438\u044f","name:he":"\u05d8\u05d5\u05e8\u05e7\u05d9\u05d4","kind":"country","name:ur":"\u062a\u0631\u06a9\u06cc","name:lb":"Tierkei","name:la":"Turcia","name:lg":"Ttake","name:uk":"\u0422\u0443\u0440\u0435\u0447\u0447\u0438\u043d\u0430","name:hy":"\u0539\u0578\u0582\u0580\u0584\u056b\u0561","min_zoom":2.0,"name:li":"T\u00f6rkie\u00eb","name:ln":"Tiliki","name:lo":"\u0e95\u0eb8\u0e99\u0e81\u0eb5","population":79814871,"name:el":"\u03a4\u03bf\u03c5\u03c1\u03ba\u03af\u03b1","name:eo":"Turkujo","name:en":"Turkey","name":"T\u00fcrkiye","official_name":"T\u00fcrkiye Cumhuriyeti","name:ee":"T\u025bki nutome","name:th":"\u0e1b\u0e23\u0e30\u0e40\u0e17\u0e28\u0e15\u0e38\u0e23\u0e01\u0e35","name:gu":"\u0aa4\u0ac1\u0ab0\u0acd\u0a95\u0ab8\u0acd\u0aa4\u0abe\u0aa8","name:eu":"Turkia","name:et":"T\u00fcrgi","name:nl":"Turkije","name:es":"Turqu\u00eda","name:ia":"Turchia","name:rm":"Tirchia","name:rn":"Turukiya","name:az":"T\u00fcrkiy\u0259","name:id":"Turki","name:ms":"Turki","name:mr":"\u0924\u0941\u0930\u094d\u0915\u0940","name:ar":"\u062a\u0631\u0643\u064a\u0627","name:my":"\u1010\u1030\u101b\u1000\u102e","name:io":"Turkia","int_name":"Turkey","name:is":"Tyrkland","name:am":"\u1271\u122d\u12ad","name:it":"Turchia","name:vi":"Th\u1ed5 Nh\u0129 K\u1ef3","name:ru":"\u0422\u0443\u0440\u0446\u0438\u044f","id":424298326,"name:mk":"\u0422\u0443\u0440\u0446\u0438\u0458\u0430","name:af":"Turkye","name:zu":"i-Turkey","name:ha":"Turkiyya","name:nn":"Tyrkia","name:ff":"Turkii","name:fi":"Turkki","name:hi":"\u0924\u0941\u0930\u094d\u0915\u0940","name:mg":"Torkia","name:fo":"Turkaland","name:fr":"Turquie","name:fy":"Turkije","name:vo":"T\u00fcrk\u00e4n","name:zh":"\u571f\u8033\u5176","name:gv":"Yn Turkee","name:so":"Turki","name:sn":"Turkey","name:sl":"Tur\u010dija","name:sk":"Turecko","name:ja":"\u30c8\u30eb\u30b3","name:si":"\u0dad\u0dd4\u0dbb\u0dca\u0d9a\u0dd2\u0dba","name:fa":"\u062a\u0631\u06a9\u06cc\u0647","name:sg":"Turuk\u00efi","name:se":"Durka","name:ne":"\u091f\u0930\u094d\u0915\u0940","name:br":"Turkia","name:bs":"Turska","name:bm":"Turiki","name:bn":"\u09a4\u09c1\u09b0\u09b8\u09cd\u0995","name:bo":"\u0f4f\u0f74\u0f62\u0f40\u0f72\u0f0d","name:ml":"\u0d24\u0d41\u0d7c\u0d15\u0d4d\u0d15\u0d3f","name:no":"Tyrkia","name:sw":"Uturuki","name:be":"\u0422\u0443\u0440\u0446\u044b\u044f","name:bg":"\u0422\u0443\u0440\u0446\u0438\u044f","name:sr":"\u0422\u0443\u0440\u0441\u043a\u0430","name:sq":"Turqi","name:ga":"An Tuirc","name:gd":"An Tuirc","name:gl":"Turqu\u00eda","name:yo":"Or\u00edl\u1eb9\u0301\u00e8de T\u1ecd\u1ecdki","name:ak":"T\u025b\u025bki"},"coordinates":[2262,3661]},{"type":"Point","properties":{"name:ka":"\u10d4\u10e0\u10d0\u10e7\u10d8","name:ko":"\uc774\ub77c\ud06c","name:cv":"\u0418\u0440\u0430\u043a","name:km":"\u17a2\u17ca\u17b8\u179a\u17c9\u17b6\u1780\u17cb","name:kl":"Irak","name:cs":"Ir\u00e1k","name:tw":"Irak","name:ki":"Iraki","name:kw":"Irak","name:kv":"\u0418\u0440\u0430\u043a","name:ku":"\u00ceraq","name:ti":"\u12a2\u122b\u1245","name:ks":"\u0627\u06cc\u0656\u0631\u0627\u0642","name:to":"\u02bbIulaaki","name:tl":"Irak","name:ce":"\u0418\u0440\u0430\u043a","name:ta":"\u0b87\u0bb0\u0bbe\u0b95\u0bcd","name:tg":"\u0418\u0440\u043e\u049b","name:ca":"Iraq","name:te":"\u0c07\u0c30\u0c3e\u0c15\u0c4d","name:cy":"Irac","name:hr":"Irak","name:da":"Irak","name:de":"Irak","name:dz":"\u0f68\u0f72\u0f0b\u0f62\u0f71\u0f40","source":"openstreetmap.org","name:kn":"\u0c87\u0cb0\u0cbe\u0c95\u0ccd","name:dv":"\u07a2\u07a8\u0783\u07a7\u07a4\u07aa","name:lv":"Ir\u0101ka","name:lt":"Irakas","name:uz":"Iroq","name:kk":"\u0418\u0440\u0430\u043a","name:ur":"\u0639\u0631\u0627\u0642","name:lb":"Irak","name:la":"Iraquia","name:lg":"Yiraaka","name:uk":"\u0406\u0440\u0430\u043a","name:ug":"\u0626\u0649\u0631\u0627\u0642","name:li":"Irak","name:ln":"Iraki","name:lo":"\u0ead\u0eb5\u0ea5\u0eb1\u0e81","name:el":"\u0399\u03c1\u03ac\u03ba","name:eo":"Irako","name:en":"Iraq","name":"\u0627\u0644\u0639\u0631\u0627\u0642","name:tk":"Yrak","name:ee":"iraqduk\u0254","name:th":"\u0e1b\u0e23\u0e30\u0e40\u0e17\u0e28\u0e2d\u0e34\u0e23\u0e31\u0e01","name:eu":"Irak","name:et":"Iraak","name:es":"Iraq","name:ia":"Irak","name:rm":"Irac","name:rn":"Iraki","name:az":"\u0130rak","name:ie":"Irak","name:id":"Irak","name:pa":"\u0a07\u0a30\u0a3e\u0a15","name:io":"Irak","name:av":"\u0413\u04c0\u0438\u0440\u0430\u043a\u044a","name:ak":"Irak","name:am":"\u12a2\u122b\u1245","name:it":"Iraq","name:an":"Iraq","name:ru":"\u0418\u0440\u0430\u043a","name:rw":"Irake","name:af":"Irak","name:zu":"i-Iraq","name:ky":"\u0418\u0440\u0430\u043a","name:zh-yue":"\u4f0a\u62c9\u514b","name:zh":"\u4f0a\u62c9\u514b","name:so":"Ciraaq","name:sn":"Iraq","name:sl":"Irak","name:sk":"Irak","name:ja":"\u30a4\u30e9\u30af","name:si":"\u0d89\u0dbb\u0dcf\u0d9a\u0dba","name:sh":"Irak","name:sg":"Ir\u00e2ki","name:se":"Irak","name:sa":"\u0908\u0930\u093e\u0915","name:bs":"Irak","name:bm":"Iraki","name:bn":"\u0987\u09b0\u09be\u0995","name:bo":"\u0f68\u0f72\u0f0b\u0f62\u0f42\u0f0d","name:br":"Irak","name:sw":"Iraki","name:be":"\u0406\u0440\u0430\u043a","name:su":"Irak","name:bg":"\u0418\u0440\u0430\u043a","name:ss":"I-Irakhi","name:sr":"\u0418\u0440\u0430\u043a","name:sq":"Irak","name:jv":"Irak","name:pt":"Iraque","name:ps":"\u0639\u0631\u0627\u0642","name:oc":"Iraq","min_zoom":2.0,"name:ro":"Irak","name:zh-min-nan":"Iraq","name:os":"\u0418\u0440\u0430\u043a","name:or":"\u0b07\u0b30\u0b3e\u0b15\u0b4d","name:pl":"Irak","name:tr":"Irak","name:hi":"\u0907\u0930\u093e\u0915\u093c","name:sv":"Irak","name:he":"\u05e2\u05d9\u05e8\u05e7","name:ha":"Ira\u0199i","name:hy":"\u053b\u0580\u0561\u0584","name:ht":"Irak","name:hu":"Irak","name:qu":"Iraq","population":28946000,"kind":"country","name:is":"\u00cdrak","name:yi":"\u05d0\u05d9\u05e8\u05d0\u05e7","name:iu":"\u1403\u1549\u1483","name:yo":"Or\u00edl\u1eb9\u0301\u00e8de Iraki","name:mt":"Iraq","name:ms":"Iraq","name:mr":"\u0907\u0930\u093e\u0915","name:my":"\u1021\u102e\u101b\u1010\u103a","official_name":"\u062c\u0645\u0647\u0648\u0631\u064a\u0629 \u0627\u0644\u0639\u0631\u0627\u0642","int_name":"Iraq","name:mg":"Irak","name:ml":"\u0d07\u0d31\u0d3e\u0d15\u0d4d\u0d15\u0d4d","name:vi":"Iraq","name:mn":"\u0418\u0440\u0430\u043a","name:mi":"\u012ar\u0101ki","id":424316205,"name:mk":"\u0418\u0440\u0430\u043a","name:vo":"Lirak\u00e4n","name:fa":"\u0639\u0631\u0627\u0642","name:ff":"Iraak","name:fi":"Irak","name:fo":"Irak","alt_name:vi":"I-r\u1eafc","name:fr":"Irak","name:fy":"Irak","name:nl":"Irak","name:nn":"Irak","name:no":"Irak","name:na":"Irak","name:nb":"Irak","name:ne":"\u0907\u0930\u093e\u0915","name:wa":"Irak","name:wo":"Iraak","name:nv":"Iiw\u00e1\u00e1\u02bc","name:ga":"An Iar\u00e1ic","name:gd":"Ior\u00e0c","name:gl":"Iraq","name:gv":"Yn Earack","name:gu":"\u0a87\u0ab0\u0abe\u0a95","name:tt":"\u0413\u044b\u0439\u0440\u0430\u043a"},"coordinates":[3946,2400]},{"type":"Point","properties":{"name:ka":"\u10e1\u10d0\u10e3\u10d3\u10d8\u10e1 \u10d0\u10e0\u10d0\u10d1\u10d4\u10d7\u10d8","name:ko":"\uc0ac\uc6b0\ub514\uc544\ub77c\ube44\uc544","name:cv":"\u0421\u0430\u0443\u0434 \u0410\u0440\u0430\u0432\u0438\u0439\u04d7","name:km":"\u17a2\u17b6\u179a\u17c9\u17b6\u1794\u17ca\u17b8\u179f\u17b6\u17a2\u17ca\u17bc\u178c\u17b8\u178f","name:kl":"Saudi Arabia","name:cs":"Sa\u00fadsk\u00e1 Ar\u00e1bie","name:ki":"Saudi","name:kw":"Arabi Saoudek","name:kv":"\u0421\u0430\u0443\u0434\u0441\u0430 \u0410\u0440\u0430\u0432\u0438\u044f","name:ku":"Erebistana Siy\u00fbd\u00ee","name:ti":"\u1233\u12cd\u12f5\u12a0\u1228\u1262\u12eb","name:ks":"\u0633\u0648\u0657\u062f\u06cc \u0639\u0631\u0628\u0650\u06cc\u06c1","name:to":"Saute \u02bbAlepea","name:tl":"Arabyang Saudi","name:ce":"\u0421\u0430\u0443\u0434\u0438\u0439\u043d \u0410\u0440\u0430\u0432\u0438","name:ta":"\u0b9a\u0bb5\u0bc2\u0ba4\u0bbf \u0b85\u0bb0\u0bc7\u0baa\u0bbf\u0baf\u0bbe","name:tg":"\u0410\u0440\u0430\u0431\u0438\u0441\u0442\u043e\u043d\u0438 \u0421\u0430\u0443\u0434\u04e3","name:ca":"Ar\u00e0bia Saudita","name:te":"\u0c38\u0c4c\u0c26\u0c40 \u0c05\u0c30\u0c47\u0c2c\u0c3f\u0c2f\u0c3e","name:cy":"Sawdi-Arabia","name:hr":"Saudijska Arabija","name:da":"Saudi-Arabien","name:de":"Saudi-Arabien","name:dz":"\u0f66\u0f71\u0f5d\u0f0b\u0f51\u0f72\u0f0b \u0f68\u0f0b\u0f62\u0f7a\u0f0b\u0f56\u0fb7\u0f72\u0f0b\u0f61","source":"openstreetmap.org","name:kn":"\u0cb8\u0ccc\u0ca6\u0cbf \u0c85\u0cb0\u0cc7\u0cac\u0cbf\u0caf\u0cbe","name:dv":"\u0790\u07a6\u0787\u07ab\u078b\u07a9 \u0787\u07a6\u0783\u07a6\u0784\u07a8\u0787\u07b0\u0794\u07a7","name:lv":"Sa\u016bda Ar\u0101bija","name:lt":"Saudo Arabija","name:uz":"Saudiya Arabstoni","name:kk":"\u0421\u0430\u0443\u0434 \u0410\u0440\u0430\u0431\u0438\u044f","name:ur":"\u0633\u0639\u0648\u062f\u06cc \u0639\u0631\u0628","name:lb":"Saudi-Arabien","name:la":"Arabia Saudiana","name:lg":"Sawudarebya - Buwarabu","name:uk":"\u0421\u0430\u0443\u0434\u0456\u0432\u0441\u044c\u043a\u0430 \u0410\u0440\u0430\u0432\u0456\u044f","name:ug":"\u0633\u06d5\u0626\u06c7\u062f\u0649 \u0626\u06d5\u0631\u06d5\u0628\u0649\u0633\u062a\u0627\u0646","name:li":"Saoedi-Arabi\u00eb","name:ln":"Alabi Sawudit\u025b","name:lo":"\u0e8a\u0eb2\u0ead\u0eb8\u0e94\u0eb4\u0ead\u0eb2\u0ea5\u0eb0\u0ec0\u0e9a\u0e8d","name:el":"\u03a3\u03b1\u03bf\u03c5\u03b4\u03b9\u03ba\u03ae \u0391\u03c1\u03b1\u03b2\u03af\u03b1","name:eo":"Sauda Arabujo","name:en":"Saudi Arabia","name":"\u0627\u0644\u0633\u0639\u0648\u062f\u064a\u0629","name:tk":"Saud Arabystany","name:ee":"Saudi Arabia nutome","name:th":"\u0e1b\u0e23\u0e30\u0e40\u0e17\u0e28\u0e0b\u0e32\u0e2d\u0e38\u0e14\u0e35\u0e2d\u0e32\u0e23\u0e30\u0e40\u0e1a\u0e35\u0e22","name:eu":"Saudi Arabia","name:et":"Saudi Araabia","name:es":"Arabia Saudita","name:ia":"Arabia Saudita","name:rm":"Arabia Saudita","name:rn":"Arabiya Sawudite","name:az":"S\u0259udiyy\u0259 \u018fr\u0259bistan\u0131","name:ie":"Saudi Arabia","name:id":"Arab Saudi","name:pa":"\u0a38\u0a09\u0a26\u0a40 \u0a05\u0a30\u0a2c","name:io":"Saudia Arabia","name:av":"\u0421\u0430\u0433I\u0443\u0434\u0438\u044f\u0437\u0443\u043b \u0413I\u0430\u0440\u0430\u0431\u0438\u044f","name:ak":"Saudi Arabia","name:am":"\u1233\u12cd\u12f5\u12a0\u1228\u1262\u12eb","name:it":"Arabia Saudita","name:an":"Arabia Saud\u00ed","name:ru":"\u0421\u0430\u0443\u0434\u043e\u0432\u0441\u043a\u0430\u044f \u0410\u0440\u0430\u0432\u0438\u044f","name:rw":"Arabiya Sawudite","name:af":"Saoedi-Arabi\u00eb","name:zu":"i-Saudi Arabia","name:ky":"\u0421\u0430\u0443\u0434 \u0410\u0440\u0430\u0431\u0438\u044f \u041f\u0430\u0434\u044b\u0448\u0430\u043b\u044b\u0433\u044b","name:zh-yue":"\u6c99\u5730\u963f\u62c9\u4f2f","name:zh":"\u6c99\u7279\u963f\u62c9\u4f2f","name:so":"Sacuudi Carabiya","name:sn":"Saudi Arabia","name:sl":"Saudova Arabija","name:sk":"Saudsk\u00e1 Ar\u00e1bia","name:ja":"\u30b5\u30a6\u30b8\u30a2\u30e9\u30d3\u30a2","name:si":"\u0dc3\u0dde\u0daf\u0dd2 \u0d85\u0dbb\u0dcf\u0db6\u0dd2\u0dba","name:sh":"Saudijska Arabija","name:sg":"Sa\u00fbdi Arab\u00efi","name:se":"Saudi-Ar\u00e1bia","name:sa":"\u0938\u090a\u0926\u0940 \u0905\u0930\u092c","name:bs":"Saudijska Arabija","name:bm":"Arabiya Sawudiya","name:bn":"\u09b8\u09be\u0989\u09a6\u09bf \u0986\u09b0\u09ac","name:bo":"\u0f66\u0f7d\u0f0b\u0f51\u0fb7\u0f72\u0f0b\u0f68\u0f0b\u0f62\u0f71\u0f0b\u0f56\u0f72\u0f0b\u0f61\u0f0d","name:br":"Arabia Saoudat","name:sw":"Saudi","name:be":"\u0421\u0430\u0443\u0434\u0430\u045e\u0441\u043a\u0430\u044f \u0410\u0440\u0430\u0432\u0456\u044f","name:su":"Saudi Arabia","name:bg":"\u0421\u0430\u0443\u0434\u0438\u0442\u0441\u043a\u0430 \u0410\u0440\u0430\u0431\u0438\u044f","name:ss":"I-Arabhiya","name:ba":"\u0421\u04d9\u0493\u04af\u0434 \u0492\u04d9\u0440\u04d9\u0431\u0441\u0442\u0430\u043d\u044b","name:sq":"Arabia Saudite","name:jv":"Arab Saudi","name:pt":"Ar\u00e1bia Saudita","name:ps":"\u0633\u0639\u0648\u062f\u06cc \u0639\u0631\u0628\u0633\u062a\u0627\u0646","name:oc":"Arabia Saudita","min_zoom":2.0,"name:ro":"Arabia Saudit\u0103","name:zh-min-nan":"Saud \u00ea A-la-pek","name:os":"\u0421\u0430\u0443\u0434\u044b \u0410\u0440\u0430\u0432\u0438","name:or":"\u0b38\u0b3e\u0b09\u0b26\u0b3f \u0b06\u0b30\u0b2c\u0b3f\u0b06","name:pl":"Arabia Saudyjska","name:sr":"\u0421\u0430\u0443\u0434\u0438\u0458\u0441\u043a\u0430 \u0410\u0440\u0430\u0431\u0438\u0458\u0430","name:tr":"Suudi Arabistan","name:hi":"\u0938\u090a\u0926\u0940 \u0905\u0930\u092c","name:sv":"Saudiarabien","name:he":"\u05e2\u05e8\u05d1 \u05d4\u05e1\u05e2\u05d5\u05d3\u05d9\u05ea","name:ha":"\u0198asar Makka","name:hy":"\u054d\u0561\u0578\u0582\u0564\u056b\u0561\u0576 \u0531\u0580\u0561\u0562\u056b\u0561","name:ht":"Arabi Sawoudit","name:hu":"Sza\u00fad-Ar\u00e1bia","name:qu":"Sawud Arabya","population":27000000,"kind":"country","name:is":"S\u00e1d\u00ed-Arab\u00eda","name:yi":"\u05e1\u05d0\u05d5\u05d3\u05d9 \u05d0\u05e8\u05d0\u05d1\u05d9\u05e2","name:yo":"Or\u00edl\u1eb9\u0301\u00e8de Saudi Arabia","name:mt":"G\u0127arabja Sawdita","alt_name:eo":"Sauda Arabio;Sa\u016dda Arabujo;Sa\u016dda Arabio","name:ms":"Arab Saudi","name:mr":"\u0938\u094c\u0926\u0940 \u0905\u0930\u092c","name:my":"\u1006\u1031\u102c\u103a\u1012\u102e\u1021\u102c\u101b\u1031\u1038\u1017\u102e\u1038\u101a\u102c\u1038","int_name":"Saudi Arabia","name:mg":"Arabia saodita","name:ml":"\u0d38\u0d57\u0d26\u0d3f \u0d05\u0d31\u0d47\u0d2c\u0d4d\u0d2f","name:vi":"\u1ea2 R\u1eadp Saudi","name:mn":"\u0421\u0430\u0443\u0434\u044b\u043d \u0410\u0440\u0430\u0431","id":249399419,"name:mk":"\u0421\u0430\u0443\u0434\u0438\u0441\u043a\u0430 \u0410\u0440\u0430\u0431\u0438\u0458\u0430","name:vo":"Sauda-Larab\u00e4n","name:fa":"\u0639\u0631\u0628\u0633\u062a\u0627\u0646 \u0633\u0639\u0648\u062f\u06cc","name:ff":"Arabii Sawdit","name:fi":"Saudi-Arabia","name:fo":"Saudi-Ar\u00e1bia","alt_name:vi":"\u1ea2 R\u1eadp X\u00ea \u00dat; A-r\u1eadp X\u00ea-\u00fat","name:fr":"Arabie saoudite","name:fy":"Sa\u00fbdi-Araabje","name:nl":"Saoedi-Arabi\u00eb","name:nn":"Saudi Arabia","name:no":"Saudi-Arabia","name:na":"Taudiarabiya","name:ne":"\u0938\u093e\u0909\u0926\u0940 \u0905\u0930\u092c","name:wo":"Araabi Sawdit","name:nv":"\u00c1s\u00e1\u00ed Bik\u00e9yah Sa\u02bcood\u00ed","name:ga":"An Araib Sh\u00e1dach","name:gd":"Saud-Ar\u00e0ibia","name:gn":"Aravia Saud\u00edta","name:gl":"Arabia Saudita","name:gv":"Yn Araab Saudi","name:gu":"\u0ab8\u0abe\u0a89\u0aa6\u0ac0 \u0a85\u0ab0\u0ac7\u0aac\u0abf\u0aaf\u0abe","name:tt":"\u0421\u043e\u0433\u0443\u0434 \u0413\u0430\u0440\u04d9\u0431\u0441\u0442\u0430\u043d\u044b"},"coordinates":[3614,792]},{"type":"Point","properties":{"name:ka":"\u10e1\u10d8\u10e0\u10d8\u10d0","name:ko":"\uc2dc\ub9ac\uc544","name:cv":"\u0421\u0438\u0440\u0438","name:cu":"\u0421\u0477\u0440\u0457\ua657","name:kl":"Syria","name:cs":"S\u00fdrie","name:ki":"Siria","name:kw":"Syri","name:kv":"\u0421\u0438\u0440\u0438\u044f","name:ku":"S\u00fbr\u00ee","name:ti":"\u1232\u122a\u12eb","name:ks":"\u0634\u0627\u0645","name:to":"S\u012blia","name:tl":"Sirya","name:ce":"\u0421\u0438\u0440\u0438","name:ta":"\u0b9a\u0bbf\u0bb0\u0bbf\u0baf\u0bbe","name:tg":"\u0421\u0443\u0440\u0438\u044f","name:ca":"S\u00edria","name:te":"\u0c38\u0c3f\u0c30\u0c3f\u0c2f\u0c3e","name:cy":"Syria","name:hr":"Sirija","name:da":"Syrien","name:de":"Syrien","name:dz":"\u0f66\u0f72\u0f0b\u0f62\u0f72\u0f0b\u0f61","source":"openstreetmap.org","name:kn":"\u0cb8\u0cbf\u0cb0\u0cbf\u0caf\u0cbe","name:dv":"\u0790\u07ab\u0783\u07a8\u0794\u07a7","name:km":"\u179f\u17ca\u17b8\u179a\u17b8","name:lv":"S\u012brija","name:lt":"Sirija","name:uz":"Suriya","name:kk":"\u0421\u0438\u0440\u0438\u044f","name:ur":"\u0634\u0627\u0645","name:lb":"Syrien","name:la":"Syria","name:lg":"Siriya","name:uk":"\u0421\u0438\u0440\u0456\u044f","name:ug":"\u0633\u06c7\u0631\u0649\u064a\u06d5","name:li":"Syri\u00eb","name:ln":"Sir\u00ed","name:lo":"\u0e8a\u0eb4\u0ec0\u0ea5\u0e8d","name:el":"\u03a3\u03c5\u03c1\u03af\u03b1","name:eo":"Sirio","name:en":"Syria","name":"\u0633\u0648\u0631\u064a\u0629","name:tk":"Siri\u00fda","name:ee":"Siria nutome","name:th":"\u0e1b\u0e23\u0e30\u0e40\u0e17\u0e28\u0e0b\u0e35\u0e40\u0e23\u0e35\u0e22","name:eu":"Siria","name:et":"S\u00fc\u00fcria","name:es":"Siria","name:ia":"Syria","name:rm":"Siria","name:rn":"Siriya","name:az":"siriya","name:ie":"Siria","name:id":"Suriah","name:pa":"\u0a38\u0a40\u0a30\u0a40\u0a06","name:io":"Siria","name:av":"\u0421\u0438\u0440\u0438\u044f","name:ak":"Siria","name:am":"\u1232\u122a\u12eb","name:it":"Siria","name:an":"Siria","name:ru":"\u0421\u0438\u0440\u0438\u044f","name:rw":"Siriya","name:af":"Siri\u00eb","name:zu":"i-Syria","name:ky":"\u0421\u0438\u0440\u0438\u044f","name:zh-yue":"\u6558\u5229\u4e9e","name:zh":"\u53d9\u5229\u4e9a","name:so":"Suuriya","name:sn":"Syria","name:sl":"Sirija","name:sk":"S\u00fdria","name:ja":"\u30b7\u30ea\u30a2","name:si":"\u0dc3\u0dd2\u0dbb\u0dd2\u0dba\u0dcf\u0dc0","name:sh":"Sirija","name:sg":"Sir\u00efi","name:se":"Syria","name:sc":"Siria","name:sa":"\u0938\u093f\u0930\u093f\u092f\u093e","name:bs":"Sirija","name:bm":"Siri","name:bn":"\u09b8\u09bf\u09b0\u09bf\u09af\u09bc\u09be","name:bo":"\u0f66\u0f72\u0f0b\u0f62\u0f72\u0f0b\u0f61\u0f0d","name:br":"Siria","name:sw":"Siria","name:be":"\u0421\u0456\u0440\u044b\u044f","name:su":"Suriah","name:bg":"\u0421\u0438\u0440\u0438\u044f","name:ss":"ISiriya","name:ba":"\u0421\u0438\u0440\u0438\u044f","name:sq":"Siri","name:jv":"Suriah","name:pt":"S\u00edria","name:ps":"\u0633\u0648\u0631\u06cc\u0647","name:oc":"Siria","min_zoom":2.0,"name:ro":"Siria","name:zh-min-nan":"Su-l\u012b-a","name:os":"\u0421\u0438\u0440\u0438","name:or":"\u0b38\u0b3f\u0b30\u0b3f\u0b06","name:pl":"Syria","name:sr":"\u0421\u0438\u0440\u0438\u0458\u0430","name:tr":"Suriye","name:hi":"\u0938\u0940\u0930\u093f\u092f\u093e","name:sv":"Syrien","name:he":"\u05e1\u05d5\u05e8\u05d9\u05d4","name:ha":"Sham, Siriya","name:hy":"\u054d\u056b\u0580\u056b\u0561","name:ht":"Siri","name:hu":"Sz\u00edria","name:qu":"Sirya","population":18860588,"kind":"country","name:is":"S\u00fdrland","name:yi":"\u05e1\u05d9\u05e8\u05d9\u05e2","name:yo":"Or\u00edl\u1eb9\u0301\u00e8de Siria","name:mt":"Sirja","name:ms":"Syria","name:mr":"\u0938\u0940\u0930\u093f\u092f\u093e","name:my":"\u1006\u102e\u1038\u101b\u102e\u1038\u101a\u102c\u1038","official_name":"\u0627\u0644\u062c\u0645\u0647\u0648\u0631\u064a\u0629 \u0627\u0644\u0639\u0631\u0628\u064a\u0629 \u0627\u0644\u0633\u0648\u0631\u064a\u0629","int_name":"Syria","name:mg":"Syria","name:ml":"\u0d38\u0d3f\u0d31\u0d3f\u0d2f","name:vi":"Syria","name:mn":"\u0421\u0438\u0440\u0438","name:mi":"Hiria","id":424311806,"name:mk":"\u0421\u0438\u0440\u0438\u0458\u0430","name:vo":"S\u00fcriy\u00e4n","name:fa":"\u0633\u0648\u0631\u06cc\u0647","name:ff":"Sirii","name:fi":"Syyria","name:fo":"Syria","name:fr":"Syrie","name:fy":"Syrje","name:nl":"Syri\u00eb","name:nn":"Syria","name:no":"Syria","name:na":"Syria","name:ne":"\u0938\u093f\u0930\u093f\u092f\u093e","name:wa":"Sireye","name:wo":"Siri","name:nv":"S\u00ed\u00edwiya","name:ga":"An tSiria","name:gd":"Siria","name:gl":"Siria","name:gv":"Yn Teer","name:gu":"\u0ab8\u0ac0\u0ab0\u0abf\u0aaf\u0abe","name:tt":"\u0421\u04af\u0440\u0438\u044f"},"coordinates":[3013,2732]},{"type":"Point","properties":{"source":"naturalearthdata.com","kind":"locality","name":"Cairo","country_capital":true,"population":11893000,"min_zoom":2.0,"id":7278},"coordinates":[1593,1745]},{"type":"Point","properties":{"name:kg":"Israel","name:ka":"\u10d8\u10e1\u10e0\u10d0\u10d4\u10da\u10d8","name:ko":"\uc774\uc2a4\ub77c\uc5d8","name:cv":"\u0418\u0437\u0440\u0430\u0438\u043b\u044c","name:cu":"\u0407\ua641\u0434\u0440\u0430\u0438\u043b\u0484\u044c","name:kl":"Israel","name:cs":"Izrael","name:ki":"Israeli","name:co":"Israele","name:kv":"\u0418\u0437\u0440\u0430\u0438\u043b\u044c","name:ku":"\u00cesrael","name:ti":"\u12a5\u1235\u122b\u12a4\u120d","name:ks":"\u0627\u0650\u0633\u0631\u0627\u06cc\u0656\u0644","name:to":"\u02bbIsileli","name:tl":"Israel","name:ce":"\u0418\u0437\u0440\u0430\u0438\u043b\u044c","name:ta":"\u0b87\u0bb8\u0bcd\u0bb0\u0bc7\u0bb2\u0bcd","name:tg":"\u0418\u0441\u0440\u043e\u0438\u043b","name:ca":"Israel","name:te":"\u0c07\u0c38\u0c4d\u0c30\u0c3e\u0c2f\u0c47\u0c32\u0c4d","name:cy":"Israel","name:hr":"Izrael","name:da":"Israel","name:de":"Israel","name:dz":"\u0f68\u0f72\u0f66\u0f0b\u0f62\u0f0b\u0f61\u0f7a\u0f63","source":"openstreetmap.org","name:kn":"\u0c87\u0cb8\u0ccd\u0cb0\u0cc7\u0cb2\u0ccd","name:dv":"\u0787\u07a8\u0790\u07b0\u0783\u07a7\u0787\u07a9\u078d\u07aa","name:km":"\u17a2\u17ca\u17b8\u179f\u17d2\u179a\u17b6\u17a2\u17c2\u179b","name:lv":"Izra\u0113la","name:lt":"Izraelis","name:uz":"Isroil","name:kk":"\u0418\u0437\u0440\u0430\u0438\u043b\u044c","name:ur":"\u0627\u0633\u0631\u0627\u0626\u06cc\u0644","name:lb":"Israel","name:la":"Israel","name:lg":"Yisirayeri","name:uk":"\u0406\u0437\u0440\u0430\u0301\u0457\u043b\u044c","name:ug":"\u0626\u0649\u0633\u0631\u0627\u0626\u0649\u0644\u0649\u064a\u06d5","name:li":"Isra\u00ebl","name:ln":"Isirayel\u025b","name:lo":"\u0ead\u0eb4\u0eaa\u0ea5\u0eb0\u0ec0\u0ead\u0ea7","name:el":"\u0399\u03c3\u03c1\u03b1\u03ae\u03bb","name:eo":"Israelo","name:en":"Israel","name":"\u05d9\u05e9\u05e8\u05d0\u05dc","name:tk":"Ysra\u00fdyl","name:ee":"Israel nutome","name:th":"\u0e1b\u0e23\u0e30\u0e40\u0e17\u0e28\u0e2d\u0e34\u0e2a\u0e23\u0e32\u0e40\u0e2d\u0e25","name:eu":"Israel","name:et":"Iisrael","name:es":"Israel","name:ia":"Israel","name:rm":"Israel","name:rn":"Isiraheli","name:az":"\u0130srail","name:ie":"Israel","name:id":"Israel","name:ig":"Israel","name:ar":"\u0641\u0644\u0633\u0637\u064a\u0646","name:io":"Israel","name:av":"\u0413l\u0438\u0437\u0440\u0430\u0438\u043b","name:ak":"Israel","name:am":"\u12a5\u1235\u122b\u12a4\u120d","name:it":"Israele","name:an":"Israel","name:ru":"\u0418\u0437\u0440\u0430\u0438\u043b\u044c","name:rw":"Isirayeli","name:af":"Israel","name:zu":"i-Israel","name:ky":"\u0418\u0437\u0440\u0430\u0438\u043b\u044c","name:zh-yue":"\u4ee5\u8272\u5217","name:zh":"\u4ee5\u8272\u5217","name:so":"Israa\u02bciil","name:sn":"Izuraeri","name:sm":"Israel","name:sl":"Izrael","name:sk":"Izrael","name:ja":"\u30a4\u30b9\u30e9\u30a8\u30eb","name:si":"\u0d8a\u0dc1\u0dca\u200d\u0dbb\u0dcf\u0dba\u0dbd\u0dba","name:sh":"Izrael","name:sg":"Isra\u00ebli","name:se":"Israel","name:sc":"Israele","name:br":"Israel","name:bs":"Palestina (pod okupacijom)","name:bm":"Isirayeli","name:bn":"\u0987\u09b8\u09cd\u09b0\u09be\u09af\u09bc\u09c7\u09b2","name:bo":"\u0f68\u0f72\u0f0b\u0f5b\u0f84\u0f0b\u0f62\u0f7a\u0f63\u0f0d","name:sa":"\u0907\u0938\u094d\u0930\u0947\u0932","name:sw":"Israeli","name:be":"\u0406\u0437\u0440\u0430\u0456\u043b\u044c","name:bg":"\u0418\u0437\u0440\u0430\u0435\u043b","name:ss":"Ka-Israyeli","name:ba":"\u0418\u0437\u0440\u0430\u0438\u043b\u044c","name:sq":"Izrael","name:jv":"Isra\u00e8l","name:pt":"Israel","name:ps":"\u0627\u0633\u0631\u0627\u0626\u064a\u0644","name:oc":"Isra\u00e8l","min_zoom":2.0,"name:ro":"Israel","name:zh-min-nan":"\u00cd-sek-lia\u030dt-kok","name:os":"\u0418\u0437\u0440\u0430\u0438\u043b\u044c","name:or":"\u0b07\u0b38\u0b4d\u0b30\u0b3e\u0b0f\u0b32\u0b4d","name:pl":"Izrael","name:sr":"\u0418\u0437\u0440\u0430\u0435\u043b","name:pa":"\u0a07\u0a1c\u0a3c\u0a30\u0a3e\u0a07\u0a32","name:tr":"\u0130srail","name:hi":"\u0907\u091c\u093c\u0930\u093e\u0907\u0932","name:sv":"Israel","name:ha":"Izira'ila","name:hy":"\u053b\u057d\u0580\u0561\u0575\u0565\u056c","name:ht":"Izray\u00e8l","name:hu":"Izrael","name:qu":"Israyil","population":7836300,"kind":"country","name:is":"\u00cdsrael","name:yo":"Or\u00edl\u1eb9\u0301\u00e8de Iser\u1eb9li","name:mt":"I\u017crael","name:ms":"Israel","name:mr":"\u0907\u0938\u094d\u0924\u094d\u0930\u093e\u0907\u0932","name:my":"\u1021\u1005\u1039\u1005\u101b\u1031\u1038","official_name":"\u05de\u05d3\u05d9\u05e0\u05ea \u05d9\u05e9\u05e8\u05d0\u05dc","name:kw":"Ysrael","name:mg":"Israely","name:ml":"\u0d07\u0d38\u0d4d\u0d30\u0d3e\u0d2f\u0d47\u0d7d","name:vi":"Israel","name:mn":"\u0418\u0437\u0440\u0430\u0439\u043b\u044c","id":424297647,"name:mk":"\u0418\u0437\u0440\u0430\u0435\u043b","name:vo":"Yisrael\u00e4n","name:fa":"\u0627\u0633\u0631\u0627\u0626\u06cc\u0644","name:ff":"Israa'iila","name:fi":"Israel","name:fj":"Isireli","name:fo":"\u00cdsrael","alt_name:vi":"Do Th\u00e1i","name:fr":"Isra\u00ebl","name:fy":"Israel","int_name":"Israel","name:nl":"Isra\u00ebl","name:nn":"Israel","name:no":"Israel","name:na":"Iteraer","name:ne":"\u0907\u091c\u094d\u0930\u093e\u092f\u0932","name:wa":"Israyel","name:wo":"Israayil","name:nv":"\u00cdzrel Bik\u00e9yah","name:ga":"Iosrael","name:gd":"Iosrael","name:gn":"Israel","name:gl":"Israel","name:gv":"Israel","name:gu":"\u0a87\u0a9d\u0ab0\u0abe\u0a87\u0ab2","name:tt":"\u0418\u0441\u0440\u0430\u0438\u043b"},"coordinates":[2276,1922]},{"type":"Point","properties":{"name:ka":"\u10d8\u10dd\u10e0\u10d3\u10d0\u10dc\u10d8\u10d0","name:ko":"\uc694\ub974\ub2e8","name:cv":"\u0418\u043e\u0440\u0434\u0430\u043d\u0438","name:km":"\u17a0\u17ca\u17d2\u179f\u1780\u178a\u17b6\u1793\u17b8","name:kl":"Jordani","name:cs":"Jord\u00e1nsko","name:ki":"Njorondani","name:kw":"Jordan","name:kv":"\u0418\u043e\u0440\u0434\u0430\u043d\u0438\u044f","name:ku":"Urdun","name:ti":"\u1306\u122d\u12f3\u1295","name:ks":"\u091c\u093e\u0930\u094d\u0921\u0928","name:to":"Soatane","name:tl":"Jordan","name:ta":"\u0b9c\u0bcb\u0bb0\u0bcd\u0ba4\u0bbe\u0ba9\u0bcd","name:ca":"Jord\u00e0nia","name:te":"\u0c1c\u0c4b\u0c30\u0c4d\u0c21\u0c3e\u0c28\u0c4d","name:cy":"Gwlad Iorddonen","name:hr":"Jordan","name:da":"Jordan","name:de":"Jordanien","name:dz":"\u0f47\u0f7c\u0f62\u0f0b\u0f4c\u0f53","source":"openstreetmap.org","name:kn":"\u0c9c\u0ccb\u0cb0\u0ccd\u0ca1\u0cbe\u0ca8\u0ccd","name:dv":"\u0787\u07aa\u0783\u07aa\u078b\u07aa\u0782\u07b0","name:lv":"Jord\u0101nija","name:lt":"Jordanija","name:uz":"Iordanii","name:kk":"\u0418\u043e\u0440\u0434\u0430\u043d","name:ur":"\u0627\u0631\u062f\u0646","name:lb":"Jordanien","name:la":"Iordania","name:lg":"Yorodani","name:uk":"\u0419\u043e\u0440\u0434\u0430\u043d\u0456\u044f","name:ug":"\u0626\u0649\u0626\u0648\u0631\u062f\u0627\u0646\u0649\u064a\u06d5","name:li":"Jordani\u00eb","name:ln":"Z\u0254dani","name:lo":"\u0e88\u0ecd\u0ec1\u0e94\u0e99","name:el":"\u0399\u03bf\u03c1\u03b4\u03b1\u03bd\u03af\u03b1","name:eo":"Jordanio","name:en":"Jordan","name":"\u0627\u0644\u0632\u0631\u0642\u0627\u0621","name:tk":"Iordani\u00fda","name:ee":"Yordan nutome","name:th":"\u0e1b\u0e23\u0e30\u0e40\u0e17\u0e28\u0e08\u0e2d\u0e23\u0e4c\u0e41\u0e14\u0e19","name:eu":"Jordania","name:et":"Jordaania","name:es":"Jordania","name:ia":"Jordania","name:rm":"Jordania","name:rn":"Yorudaniya","name:az":"\u0130ordaniya","name:ie":"Jordania","name:id":"Yordania","name:ar":"\u0627\u0644\u0623\u0631\u062f\u0646","name:io":"Jordania","name:ak":"Gy\u0254dan","name:am":"\u1306\u122d\u12f3\u1295","name:it":"Giordania","name:an":"Chordania","name:ru":"\u0418\u043e\u0440\u0434\u0430\u043d\u0438\u044f","name:rw":"Yorudani","name:af":"Jordani\u00eb","name:zu":"i-Jordan","name:zh-yue":"\u7d04\u65e6","name:zh":"\u7ea6\u65e6","name:so":"Urdun","name:sn":"Jordan","name:sl":"Jordanija","name:sk":"Jord\u00e1nsko","name:ja":"\u30e8\u30eb\u30c0\u30f3","name:si":"\u0da2\u0ddd\u0dbb\u0dca\u0daf\u0dcf\u0db1\u0dba","name:sh":"Jordan","name:sg":"Zordan\u00efi","name:se":"Jord\u00e1nia","name:sa":"\u091c\u093e\u0930\u094d\u0921\u0928","name:bs":"Jordan","name:bm":"Z\u0254rdani","name:bn":"\u099c\u09b0\u09cd\u09a6\u09be\u09a8","name:bo":"\u0f47\u0f7c\u0f62\u0f0b\u0f4f\u0f60\u0f53","name:br":"Jordania","name:sw":"Yordani","name:be":"\u0406\u0430\u0440\u0434\u0430\u043d\u0456\u044f","name:su":"Yordania","name:bg":"\u0419\u043e\u0440\u0434\u0430\u043d\u0438\u044f","name:ss":"IJoridane","name:ba":"\u0418\u043e\u0440\u0434\u0430\u043d\u0438\u044f","name:sq":"Jordania","name:jv":"Yordania","name:pt":"Jord\u00e2nia","name:ps":"\u0627\u0631\u062f\u0646","name:oc":"Jordania","min_zoom":2.0,"name:ro":"Iordania","name:zh-min-nan":"Iok-t\u00e0n","name:os":"\u0418\u043e\u0440\u0434\u0430\u043d\u0438","name:or":"\u0b1c\u0b4b\u0b30\u0b4d\u0b21\u0b3e\u0b28\u0b4d","name:pl":"Jordania","name:sr":"\u0408\u043e\u0440\u0434\u0430\u043d","name:pa":"\u0a1c\u0a3e\u0a30\u0a21\u0a28","name:tr":"\u00dcrd\u00fcn","name:hi":"\u091c\u093e\u0930\u094d\u0921\u0928","name:sv":"Jordanien","name:he":"\u05d9\u05e8\u05d3\u05df","name:ha":"Jordan","name:hy":"\u0540\u0578\u0580\u0564\u0561\u0576\u0561\u0576","name:ht":"J\u00f2dani","name:hu":"Jord\u00e1nia","name:qu":"Hurdanya","population":6343000,"kind":"country","name:is":"J\u00f3rdan\u00eda","name:yi":"\u05d9\u05d0\u05e8\u05d3\u05d0\u05e0\u05d9\u05e2","name:yo":"Or\u00edl\u1eb9\u0301\u00e8de J\u1ecddani","name:mt":"\u0120ordan","name:ms":"Jordan","name:mr":"\u091c\u0949\u0930\u094d\u0921\u0928","name:my":"\u1002\u103b\u1031\u102c\u103a\u1012\u1014\u103a","official_name":"\u0627\u0644\u0645\u0645\u0644\u0643\u0629 \u0627\u0644\u0623\u0631\u062f\u0646\u064a\u0629 \u0627\u0644\u0647\u0627\u0634\u0645\u064a\u0629","int_name":"Jordan - \u0627\u0644\u0623\u0631\u062f\u0646","name:mg":"Jordania","name:ml":"\u0d1c\u0d4b\u0d30\u0d4d\u200d\u0d26\u0d3e\u0d28\u0d4d\u200d","name:vi":"Jordan","name:mn":"\u0419\u043e\u0440\u0434\u0430\u043d","id":424316216,"name:mk":"\u0408\u043e\u0440\u0434\u0430\u043d","name:vo":"Yord\u00e4n","name:fa":"\u0627\u0631\u062f\u0646","name:ff":"Jordani","name:fi":"Jordania","name:fo":"Jordania","alt_name:vi":"Gio\u00f3c\u0111ani; Gioocdan; Gioocdani","name:fr":"Jordanie","name:fy":"Jordaanje","name:nl":"Jordani\u00eb","name:nn":"Jordan","name:no":"Jordan","name:na":"Jordan","name:ne":"\u091c\u094b\u0930\u094d\u0921\u0928","name:wo":"Jordaani","name:nv":"J\u00f3o\u02bcdan","name:ga":"An Iord\u00e1in","name:gd":"I\u00f2rdan","name:gl":"Xordania","name:gv":"Yn Jordaan","name:gu":"\u0a9c\u0acb\u0ab0\u0acd\u0aa1\u0aa8","name:tt":"\u04ae\u0440\u0434\u04af\u043d"},"coordinates":[2629,1985]},{"type":"Point","properties":{"name:ia":"Palestina","admin_level":"2","name:sk":"Palest\u00edna","name:ja":"\u30d1\u30ec\u30b9\u30c1\u30ca\u81ea\u6cbb\u533a","name:tr":"Filistin","name:he":"\u05d4\u05e8\u05e9\u05d5\u05ea \u05d4\u05e4\u05dc\u05e1\u05d8\u05d9\u05e0\u05d9\u05ea","min_zoom":2.0,"kind":"country","name:io":"Palestina","name:is":"Heimastj\u00f3rnarsv\u00e6\u00f0i Palest\u00ednumanna","name:it":"Territori Palestinesi","name:uk":"\u041f\u0430\u043b\u0435\u0441\u0442\u0438\u043d\u0430","name:sv":"Palestinska Omr\u00e5den","name:ru":"\u041f\u0430\u043b\u0435\u0441\u0442\u0438\u043d\u0430","name:pl":"Palestyna","id":2110225115,"name:ca":"Territoris Palestins","name:vo":"Pal\u00e4stin\u00e4n","name:fa":"\u0641\u0644\u0633\u0637\u06cc\u0646","name:eo":"Palestina A\u016dtonomio","name:en":"Palestinian Territories","name":"\u0627\u0644\u0636\u0641\u0629 \u0627\u0644\u063a\u0631\u0628\u064a\u0629 \u0648\u0642\u0637\u0627\u0639 \u063a\u0632\u0629","name:ku":"Filist\u00een\u00ea","name:de":"Pal\u00e4stina","name:nl":"Palestina","source":"openstreetmap.org","name:fr":"Territoires Palestiniens","name:fy":"Palestina","population":4260636,"name:zh":"\u5df4\u52d2\u65af\u5766\u9886\u571f","name:es":"Territorios Palestinos"},"coordinates":[2305,2089]},{"type":"Point","properties":{"name:ka":"\u10da\u10d8\u10d1\u10d0\u10dc\u10d8","name:ko":"\ub808\ubc14\ub17c","name:cv":"\u041b\u0438\u0432\u0430\u043d","name:km":"\u179b\u17b8\u1794\u1784\u17cb","name:kl":"Libanon","name:cs":"Libanon","name:ki":"Lebanoni","name:kw":"Lebnon","name:kv":"\u041b\u0438\u0432\u0430\u043d","name:ku":"Libnan","name:ti":"\u120a\u1263\u1296\u1235","name:ks":"\u0644\u066e\u06ea\u0628\u0646\u0627\u0646","name:to":"Lepanoni","name:tl":"Libano","name:ce":"\u041b\u0438\u0432\u0430\u043d","name:ta":"\u0bb2\u0bc6\u0baa\u0ba9\u0bbe\u0ba9\u0bcd","name:tg":"\u041b\u0438\u0432\u0430\u043d","name:ca":"L\u00edban","name:te":"\u0c32\u0c46\u0c2c\u0c28\u0c3e\u0c28\u0c4d","name:cy":"Libanus","name:hr":"Libanon","name:da":"Libanon","name:de":"Libanon","name:dz":"\u0f63\u0f7a\u0f0b\u0f56\u0f0b\u0f53\u0f7c\u0f53","source":"openstreetmap.org","name:kn":"\u0cb2\u0cc6\u0cac\u0ca8\u0cbe\u0ca8\u0ccd","name:dv":"\u078d\u07aa\u0784\u07aa\u0782\u07a7\u0782\u07b0","name:lv":"Lib\u0101na","name:lt":"Libanas","name:uz":"Livan","name:kk":"\u041b\u0438\u0432\u0430\u043d","name:lb":"Libanon","name:la":"Libanus","name:lg":"Lebanoni","name:uk":"\u041b\u0456\u0432\u0430\u043d","name:ug":"\u0644\u0649\u06cb\u0627\u0646","name:li":"Libanon","name:ln":"Lib\u00e1","name:lo":"\u0ec0\u0ea5\u0e9a\u0eb2\u0e99\u0ead\u0e99","name:el":"\u039b\u03af\u03b2\u03b1\u03bd\u03bf\u03c2","name:eo":"Libano","name:en":"Lebanon","name":"\u0644\u0628\u0646\u0627\u0646","name:tk":"Liwan","name:ee":"Leban\u0254n nutome","name:th":"\u0e1b\u0e23\u0e30\u0e40\u0e17\u0e28\u0e40\u0e25\u0e1a\u0e32\u0e19\u0e2d\u0e19","name:eu":"Libano","name:et":"Liibanon","name:es":"L\u00edbano","name:ia":"Libano","name:rm":"Libanon","name:rn":"Libani","name:az":"Lebanon","name:ie":"Libano","name:id":"Lebanon","name:ar":"\u0627\u0644\u062c\u0645\u0647\u0648\u0631\u064a\u0629 \u0627\u0644\u0644\u0628\u0646\u0627\u0646\u064a\u0629","name:io":"Libano","name:ak":"L\u025bban\u0254n","name:am":"\u120a\u1263\u1296\u1235","name:it":"Libano","name:an":"Liban","name:ru":"\u041b\u0438\u0432\u0430\u043d","name:rw":"Libani","name:af":"Libanon","name:zu":"i-Lebanon","name:ky":"\u041b\u0438\u0432\u0430\u043d","name:zh-yue":"\u9ece\u5df4\u5ae9","name:zh":"\u9ece\u5df4\u5ae9","name:so":"Lubnaan","name:sn":"Lebanon","name:sl":"Libanon","name:sk":"Libanon","name:ja":"\u30ec\u30d0\u30ce\u30f3","name:si":"\u0dbd\u0dd9\u0db6\u0db1\u0db1\u0dba","name:sh":"Libanon","name:sg":"Lib\u00f9aan","name:se":"Libanon","name:sa":"\u0932\u0947\u092c\u0928\u093e\u0928","name:bs":"Liban","name:bm":"Liba\u014b","name:bn":"\u09b2\u09c7\u09ac\u09be\u09a8\u09a8","name:bo":"\u0f63\u0f7a\u0f56\u0f0b\u0f53\u0f7c\u0f53\u0f0d","name:br":"Liban","name:sw":"Lebanoni","name:be":"\u041b\u0456\u0432\u0430\u043d","name:su":"Libanon","name:bg":"\u041b\u0438\u0432\u0430\u043d","name:ss":"ILibhanoni","name:ba":"\u041b\u0438\u0432\u0430\u043d","name:sq":"Liban","name:jv":"Libanon","name:pt":"L\u00edbano","name:ps":"\u0644\u06d0\u0628\u0646\u0627\u0646","name:oc":"Liban","min_zoom":2.0,"name:ro":"Liban","name:zh-min-nan":"L\u012b-pa-l\u00f9n","name:os":"\u041b\u0438\u0432\u0430\u043d","name:or":"\u0b32\u0b47\u0b2c\u0b3e\u0b28\u0b28\u0b4d","name:pl":"Liban","name:sr":"\u041b\u0438\u0431\u0430\u043d","name:pa":"\u0a32\u0a3f\u0a2c\u0a28\u0a3e\u0a28","name:tr":"L\u00fcbnan","name:hi":"\u0932\u0947\u092c\u0928\u093e\u0928","name:sv":"Libanon","name:he":"\u05dc\u05d1\u05e0\u05d5\u05df","name:ha":"Labanan","name:hy":"\u053c\u056b\u0562\u0561\u0576\u0561\u0576","name:ht":"Liban","name:hu":"Libanon","name:qu":"Libanu","population":3971000,"kind":"country","name:is":"L\u00edbanon","name:yi":"\u05dc\u05d1\u05e0\u05d5\u05df","name:yo":"Or\u00edl\u1eb9\u0301\u00e8de Lebanoni","name:mt":"Libanu","name:ms":"Lubnan","name:mr":"\u0932\u0947\u092c\u093e\u0928\u0928","name:my":"\u101c\u1000\u103a\u1018\u1014\u103d\u1014\u103a","official_name":"\u0627\u0644\u062c\u0645\u0647\u0648\u0631\u064a\u0629 \u0627\u0644\u0644\u0628\u0646\u0627\u0646\u064a\u0629","int_name":"Lebanon - \u0644\u0628\u0646\u0627\u0646","name:mg":"Libana","name:ml":"\u0d32\u0d2c\u0d28\u0d4b\u0d7a","name:vi":"Liban","name:mn":"\u041b\u0438\u0432\u0430\u043d","id":424297742,"name:mk":"\u041b\u0438\u0431\u0430\u043d","name:vo":"Liban\u00e4n","name:ff":"Libaa","name:fi":"Libanon","name:fo":"Libanon","name:fr":"Liban","name:fy":"Libanon","name:nl":"Libanon","name:nn":"Libanon","name:no":"Libanon","name:na":"Ribanon","name:nb":"Libanon","name:ne":"\u0932\u0947\u092c\u0928\u094b\u0928","name:wo":"Libaa","name:nv":"\u0141\u00edbanoo","name:ga":"An Liob\u00e1in","name:gd":"Leabanon","name:gn":"L\u00edvano","name:gl":"L\u00edbano","name:gv":"Yn Livaan","name:gu":"\u0ab2\u0ac7\u0aac\u0aa8\u0acb\u0aa8","name:tt":"\u041b\u0438\u0432\u0430\u043d"},"coordinates":[2429,2567]},{"type":"Point","properties":{"name:kg":"Armenia","name:ka":"\u10e1\u10dd\u10db\u10ee\u10d4\u10d7\u10d8","name:ko":"\uc544\ub974\uba54\ub2c8\uc544","name:cv":"\u042d\u0440\u043c\u0435\u043d\u0438","name:cu":"\u0410\u0440\u043c\u0454\u043d\u0457\ua657","name:kl":"Armenia","name:cs":"Arm\u00e9nie","name:ki":"Armenia","name:co":"Armenia","name:kv":"\u0410\u0440\u043c\u0435\u043d\u0438\u044f","name:ku":"Ermenistan","name:ti":"\u12a0\u122d\u121c\u1292\u12eb","name:ks":"\u0627\u064e\u0631\u0645\u0627\u0646\u0650\u06cc\u0627","name:to":"\u02bb\u0100minia","name:tl":"Armenya","name:ce":"\u0410\u0440\u0435\u043c\u0430\u043b\u043e\u0439\u043d","name:ta":"\u0b86\u0bb0\u0bcd\u0bae\u0bc7\u0ba9\u0bbf\u0baf\u0bbe","name:tg":"\u0410\u0440\u043c\u0430\u043d\u0438\u0441\u0442\u043e\u043d","name:ca":"Arm\u00e8nia","name:te":"\u0c06\u0c30\u0c4d\u0c2e\u0c47\u0c28\u0c3f\u0c2f\u0c3e","name:cy":"Armenia","name:hr":"Armenija","name:da":"Armenien","name:de":"Armenien","name:dz":"\u0f68\u0f62\u0f0b\u0f58\u0f72\u0f0b\u0f53\u0f72\u0f0b\u0f61","source":"openstreetmap.org","name:kn":"\u0c85\u0cb0\u0ccd\u0cae\u0cc7\u0ca8\u0cbf\u0caf\u0cbe","name:dv":"\u0787\u07a6\u0783\u07aa\u0789\u07a9\u0782\u07a8\u0787\u07a7","name:km":"\u17a2\u17b6\u179a\u1798\u17c1\u1793\u17b8","name:lv":"Arm\u0113nija","name:lt":"Arm\u0117nija","name:uz":"Armaniston","name:kk":"\u0410\u0440\u043c\u0435\u043d\u0438\u044f","name:ur":"\u0622\u0631\u0645\u06cc\u0646\u06cc\u0627","name:lb":"Armenien","name:la":"Armenia","name:lg":"Arameniya","name:uk":"\u0412\u0456\u0440\u043c\u0435\u043d\u0456\u044f","name:ug":"\u0626\u06d5\u0631\u0645\u06d0\u0646\u0649\u064a\u06d5","name:li":"Armeni\u00eb","name:ln":"Am\u025bni","name:lo":"\u0ead\u0eb2\u0ea1\u0eb4\u0ec0\u0e99\u0e8d","name:el":"\u0391\u03c1\u03bc\u03b5\u03bd\u03af\u03b1","name:eo":"Armenujo","name:en":"Armenia","name":"\u0540\u0561\u0575\u0561\u057d\u057f\u0561\u0576","name:tk":"Ermenistan","name:ee":"Armenia nutome","name:th":"\u0e1b\u0e23\u0e30\u0e40\u0e17\u0e28\u0e2d\u0e32\u0e23\u0e4c\u0e40\u0e21\u0e40\u0e19\u0e35\u0e22","name:eu":"Armenia","name:et":"Armeenia","name:es":"Armenia","name:ia":"Armenia","name:rm":"Armenia","name:rn":"Arumeniya","name:az":"Erm\u0259nistan","name:ie":"Armenia","name:id":"Armenia","name:ar":"\u0623\u0631\u0645\u064a\u0646\u064a\u0627","name:io":"Armenia","name:av":"\u0426I\u0430\u043c\u0443\u0445\u044a","name:ak":"Aamenia","name:am":"\u12a0\u122d\u121c\u1292\u12eb","name:it":"Armenia","name:an":"Armenia","name:ru":"\u0410\u0440\u043c\u0435\u043d\u0438\u044f","name:ab":"\u0415\u0440\u043c\u0430\u043d\u0442\u04d9\u044b\u043b\u0430","name:af":"Armeni\u00eb","name:zu":"i-Armenia","name:ky":"\u0410\u0440\u043c\u0435\u043d\u0438\u044f","name:zh-yue":"\u4e9e\u7f8e\u5c3c\u4e9e","name:zh":"\u4e9a\u7f8e\u5c3c\u4e9a","name:so":"Armeeniya","name:sn":"Armenia","name:sm":"Amenia","name:sl":"Armenija","name:sk":"Arm\u00e9nsko","name:ja":"\u30a2\u30eb\u30e1\u30cb\u30a2","name:si":"\u0d86\u0dbb\u0dca\u0db8\u0dda\u0db1\u0dd2\u0dba\u0dcf\u0dc0","name:sh":"Jermenija","name:sg":"Armen\u00efi","name:se":"Armenia","name:sc":"Arm\u00e8nia","name:br":"Armenia","name:bs":"Armenija","name:bm":"Arimeni","name:bn":"\u0986\u09b0\u09cd\u09ae\u09c7\u09a8\u09bf\u09af\u09bc\u09be","name:bo":"\u0f68\u0f62\u0f0b\u0f58\u0f7a\u0f0b\u0f53\u0f72\u0f0b\u0f61\u0f0d","name:bi":"Armenia","name:sw":"Armenia","name:be":"\u0410\u0440\u043c\u0435\u043d\u0456\u044f","name:su":"Arm\u00e9nia","name:bg":"\u0410\u0440\u043c\u0435\u043d\u0438\u044f","name:ss":"I-Arimeniya","name:ba":"\u04d8\u0440\u043c\u04d9\u043d\u0441\u0442\u0430\u043d","name:sq":"Armeni","name:jv":"Arm\u00e9nia","name:sa":"\u0906\u0930\u094d\u092e\u0940\u0928\u093f\u092f\u093e","name:pt":"Arm\u00eania","name:ps":"\u0627\u0631\u0645\u0646\u0633\u062a\u0627\u0646","name:oc":"Armenia","min_zoom":2.0,"name:ro":"Armenia","name:zh-min-nan":"Hayastan","name:os":"\u0421\u043e\u043c\u0438\u0445\u044b\u0441\u0442\u043e\u043d","name:or":"\u0b06\u0b30\u0b4d\u0b2e\u0b47\u0b28\u0b3f\u0b06","name:pl":"Armenia","name:sr":"\u0408\u0435\u0440\u043c\u0435\u043d\u0438\u0458\u0430","name:pa":"\u0a05\u0a30\u0a2e\u0a40\u0a28\u0a40\u0a06","name:tr":"Ermenistan","name:hi":"\u0906\u0930\u094d\u092e\u0940\u0928\u093f\u092f\u093e","name:sv":"Armenien","name:he":"\u05d0\u05e8\u05de\u05e0\u05d9\u05d4","name:ha":"Armeniya","name:ht":"Ameni","name:hu":"\u00d6rm\u00e9nyorsz\u00e1g","name:qu":"Arminya","population":2968586,"kind":"country","name:is":"Armen\u00eda","name:yi":"\u05d0\u05e8\u05de\u05e2\u05e0\u05d9\u05e2","name:yo":"Or\u00edl\u1eb9\u0301\u00e8de Am\u00e9n\u00ed\u00e0","name:mt":"Armenja","alt_name:eo":"Armenio","name:ms":"Armenia","name:mr":"\u0906\u0930\u094d\u092e\u0947\u0928\u093f\u092f\u093e","name:my":"\u1021\u102c\u1019\u1031\u1014\u102e\u1038\u101a\u102c\u1038","official_name":"\u0540\u0561\u0575\u0561\u057d\u057f\u0561\u0576\u056b \u0540\u0561\u0576\u0580\u0561\u057a\u0565\u057f\u0578\u0582\u0569\u0575\u0578\u0582\u0576","name:kw":"Armeni","name:mg":"Armenia","name:ml":"\u0d05\u0d7c\u0d2e\u0d47\u0d28\u0d3f\u0d2f","name:vi":"Armenia","name:mn":"\u0410\u0440\u043c\u0435\u043d","name:mi":"\u0100menia","id":249399277,"name:mk":"\u0415\u0440\u043c\u0435\u043d\u0438\u0458\u0430","name:vo":"Larmeniy\u00e4n","name:fa":"\u0627\u0631\u0645\u0646\u0633\u062a\u0627\u0646","name:rw":"Arumeniya","name:ff":"Armenii","name:fi":"Armenia","name:fo":"Armenia","alt_name:vi":"Acmeni","name:fr":"Arm\u00e9nie","name:fy":"Armeenje","int_name":"Armenia","name:nl":"Armeni\u00eb","name:nn":"Armenia","name:no":"Armenia","name:na":"Arminiya","name:ne":"\u0906\u0930\u094d\u092e\u0947\u0928\u093f\u092f\u093e","name:wo":"Armeeni","name:nv":"Aoom\u00e9\u00e9nii Bik\u00e9yah","name:ga":"An Airm\u00e9in","name:gd":"Airmeinia","name:gn":"Armenia","name:gl":"Armenia","name:gv":"Yn Armeain","name:gu":"\u0a86\u0ab0\u0acd\u0aae\u0ac7\u0aa8\u0abf\u0aaf\u0abe","name:tt":"\u04d8\u0440\u043c\u04d9\u043d\u0441\u0442\u0430\u043d"},"coordinates":[4037,4051]},{"type":"Point","properties":{"name:kg":"Kipros","name:ka":"\u10d9\u10d5\u10d8\u10de\u10e0\u10dd\u10e1\u10d8","name:ko":"\ud0a4\ud504\ub85c\uc2a4","name:cv":"\u041a\u0438\u043f\u0440 \u0420\u0435\u0441\u043f\u0443\u0431\u043b\u0438\u043a\u0438","name:cu":"\u041a\u0477\u043f\u0440\u044a","name:kl":"Cyperni","name:cs":"Kypr","name:ki":"Kuprosi","name:co":"Cipru","name:kv":"\u041a\u0438\u043f\u0440","name:ku":"K\u00eepros","name:ti":"\u1233\u12ed\u1355\u1228\u1235","name:ks":"\u0633\u0627\u06cc\u0641\u0631\u065b\u0633","name:to":"Saipalesi","name:tl":"Tsipre","name:ce":"\u041a\u0438\u043f\u0440","name:ta":"\u0b9a\u0bc8\u0baa\u0bcd\u0baa\u0bbf\u0bb0\u0bb8\u0bcd","name:tg":"\u041a\u0438\u043f\u0440","name:ca":"Xipre","name:te":"\u0c38\u0c48\u0c2a\u0c4d\u0c30\u0c38\u0c4d","name:cy":"Cyprus","name:hr":"Cipar","name:da":"Cypern","name:de":"Republik Zypern","name:dz":"\u0f66\u0f71\u0f60\u0f72\u0f0b\u0f54\u0fb2\u0f66","source":"openstreetmap.org","name:kn":"\u0cb8\u0cc8\u0caa\u0ccd\u0cb0\u0cb8\u0ccd","name:km":"\u179f\u17c9\u17b8\u1796\u179a\u17cd","name:lv":"Kipra","name:lt":"Kipras","name:uz":"Qibris Respublikasi","name:kk":"\u041a\u0438\u043f\u0440","name:ur":"\u0642\u0628\u0631\u0635","name:lb":"Zypern","name:la":"Cyprus","name:lg":"Sipuriya","name:uk":"\u041a\u0456\u043f\u0440","name:ug":"\u0633\u0649\u067e\u0631\u06c7\u0633","name:li":"Cyprus","name:ln":"S\u00edp\u025bl\u025b","name:lo":"\u0ec4\u0e8a\u0e9b\u0eb1\u0ebc\u0e94","name:kw":"Kobros","name:eo":"Kipro","name:en":"Cyprus","name":"\u039a\u03cd\u03c0\u03c1\u03bf\u03c2","name:tk":"Kipr Respublikasy","name:ee":"Cyprus","name:th":"\u0e1b\u0e23\u0e30\u0e40\u0e17\u0e28\u0e44\u0e0b\u0e1b\u0e23\u0e31\u0e2a","name:eu":"Zipre","name:et":"K\u00fcpros","name:es":"Chipre","name:ia":"Cypro","name:rm":"Cipra","name:rn":"Izinga rya Shipure","name:az":"Kipr Respublikas\u0131","name:ie":"Cypria","name:id":"Siprus","name:ar":"\u0642\u0628\u0631\u0635","name:io":"Chipro","name:ak":"Saepr\u0254s","name:am":"\u1246\u1335\u122e\u1235","name:it":"Cipro","name:an":"Chipre","name:ru":"\u0420\u0435\u0441\u043f\u0443\u0431\u043b\u0438\u043a\u0430 \u041a\u0438\u043f\u0440","name:rw":"Shipure","name:af":"Siprus","name:zu":"i-Cyprus","name:no":"Republikken Kypros","name:zh-yue":"\u585e\u6d66\u8def\u65af","name:zh":"\u8cfd\u666e\u52d2\u65af","name:so":"Jasiirada Qabrus","name:sn":"Cyprus","name:sm":"Cyprus","name:sl":"Ciper","name:sk":"Cyprus","name:ja":"\u30ad\u30d7\u30ed\u30b9","name:si":"\u0dc3\u0dba\u0dd2\u0db4\u0dca\u200d\u0dbb\u0dc3\u0dca","name:sh":"Cipar","name:sg":"S\u00eepri","name:se":"Kypros","name:sc":"Tzipru","name:br":"Republik Kiprenez","name:bs":"Kipar","name:bm":"Cipri","name:bn":"\u09b8\u09be\u0987\u09aa\u09cd\u09b0\u09be\u09b8","name:bo":"\u0f66\u0f7a\u0f0b\u0f54\u0f72\u0f0b\u0f62\u0f72\u0f0b\u0f66\u0f72\u0f0d","name:bi":"Cyprus","name:sw":"Kupro","name:be":"\u041a\u0456\u043f\u0440","name:su":"Siprus","name:bg":"\u041a\u0438\u043f\u044a\u0440","name:ss":"ISayiphro","name:sr":"\u041a\u0438\u043f\u0430\u0440","name:sq":"Qiproja","name:jv":"Siprus","name:pt":"Chipre","name:oc":"Chipre","min_zoom":2.0,"name:ro":"Cipru","name:zh-min-nan":"Ku-p\u00ed-l\u014d\u0358","name:os":"\u041a\u0438\u043f\u0440","name:or":"\u0b38\u0b3e\u0b07\u0b2a\u0b4d\u0b30\u0b38","name:pl":"Cypr","name:pa":"\u0a38\u0a3e\u0a07\u0a2a\u0a4d\u0a30\u0a38","name:tr":"K\u0131br\u0131s Cumhuriyeti","name:hi":"\u0938\u093e\u0907\u092a\u094d\u0930\u0938","name:sv":"Cypern","name:he":"\u05e7\u05e4\u05e8\u05d9\u05e1\u05d9\u05df","name:ha":"Sifurus","name:hy":"\u053f\u056b\u057a\u0580\u0578\u057d","name:ht":"Chip","name:hu":"Ciprusi K\u00f6zt\u00e1rsas\u00e1g","name:qu":"Kipru","population":885041,"kind":"country","name:is":"K\u00fdpur","name:yi":"\u05e7\u05d9\u05e4\u05e8\u05d0\u05e1","name:yo":"K\u00edpr\u00f9","name:mt":"\u010aipru","name:ms":"Cyprus","name:mr":"\u0938\u093e\u092f\u092a\u094d\u0930\u0938","name:my":"\u1006\u102d\u102f\u1000\u103a\u1015\u101b\u1015\u103a\u1005\u103a\u1014\u102d\u102f\u1004\u103a\u1004\u1036","official_name":"\u039a\u03c5\u03c0\u03c1\u03b9\u03b1\u03ba\u03ae \u0394\u03b7\u03bc\u03bf\u03ba\u03c1\u03b1\u03c4\u03af\u03b1","name:mg":"Repoblikan'i Kipra","name:ml":"\u0d38\u0d48\u0d2a\u0d4d\u0d30\u0d38\u0d4d","name:vi":"C\u1ed9ng h\u00f2a S\u00edp","name:mn":"\u041a\u0438\u043f\u0440","name:mi":"Haipara","id":424313406,"name:mk":"\u041a\u0438\u043f\u0430\u0440","name:vo":"Sipre\u00e4n","name:fa":"\u0642\u0628\u0631\u0633","name:ff":"Siipar","name:fi":"Kyproksen tasavalta","name:fo":"K\u00fdpros","name:fr":"Chypre","name:fy":"Syprus","name:nl":"Cyprus","name:nn":"Republikken Kypros","alt_name:ru":"\u041a\u0438\u043f\u0440","name:na":"Taiprus","name:ne":"\u0938\u093e\u0907\u092a\u094d\u0930\u0938","name:wo":"Ciip\u00ebr","name:nv":"B\u00e9\u00e9sh \u0141ich\u00edi\u02bcii Bik\u00e9yah","name:ga":"An Chipir","name:gd":"C\u00ecopras","name:gn":"Chipre","name:gl":"Chipre","name:gv":"Yn Cheeprey","name:gu":"\u0ab8\u0abe\u0aaf\u0aaa\u0acd\u0ab0\u0ab8","name:tt":"\u041a\u0438\u043f\u0440 \u0420\u0435\u0441\u043f\u0443\u0431\u043b\u0438\u043a\u0430\u0441\u044b"},"coordinates":[1938,2806]},{"type":"Point","properties":{"name:ia":"Republica Turc de Cypro Septentrional","name:tr":"Kuzey K\u0131br\u0131s","name:ar":"\u0642\u0628\u0631\u0635 \u0627\u0644\u0634\u0645\u0627\u0644\u064a\u0629","name:io":"Turka republiko di Norda Chipro","name:ku":"Komara Tirk a Bakur\u00ea K\u00eepros\u00ea","name:it":"Cipro del Nord","name:ru":"\u0422\u0443\u0440\u0435\u0446\u043a\u0430\u044f \u0420\u0435\u0441\u043f\u0443\u0431\u043b\u0438\u043a\u0430 \u0421\u0435\u0432\u0435\u0440\u043d\u043e\u0433\u043e \u041a\u0438\u043f\u0440\u0430","name:vi":"B\u1eafc S\u00edp","name:pl":"Cypr P\u00f3\u0142nocny","id":1696874354,"name:ca":"Rep\u00fablica Turca de Xipre del Nord","name:vo":"Nol\u00fcda-Sipre\u00e4n","name:fa":"\u0642\u0628\u0631\u0633 \u0634\u0645\u0627\u0644\u06cc","name:fi":"Pohjois-Kypros","name:da":"Nordcypern","name:de":"Nordzypern","source":"openstreetmap.org","name:fr":"Chypre du Nord","name:be":"\u041f\u0430\u045e\u043d\u043e\u0447\u043d\u044b \u041a\u0456\u043f\u0440","name:zh":"\u5317\u8cfd\u666e\u52d2\u65af\u571f\u8033\u5176\u5171\u548c\u570b","name:ba":"\u0422\u04e9\u043d\u044c\u044f\u04a1 \u041a\u0438\u043f\u0440 \u0422\u04e9\u0440\u04e9\u043a \u0420\u0435\u0441\u043f\u0443\u0431\u043b\u0438\u043a\u0430\u04bb\u044b","name:nl":"Noord-Cyprus","name:lt":"Turk\u0173 Kipras","name:no":"Nord-Kypros","name:he":"\u05d4\u05e8\u05e4\u05d5\u05d1\u05dc\u05d9\u05e7\u05d4 \u05d4\u05d8\u05d5\u05e8\u05e7\u05d9\u05ea \u05e9\u05dc \u05e6\u05e4\u05d5\u05df \u05e7\u05e4\u05e8\u05d9\u05e1\u05d9\u05df","kind":"country","name:br":"Kiprenez an Norzh","name:sk":"Severn\u00fd Cyprus","name:tt":"\u0422\u04e9\u043d\u044c\u044f\u043a \u041a\u0438\u043f\u0440\u043d\u044b\u04a3 \u0422\u04e9\u0440\u0435\u043a \u0496\u04e9\u043c\u04bb\u04af\u0440\u0438\u044f\u0442\u0435","name:uk":"\u0422\u0443\u0440\u0435\u0446\u044c\u043a\u0430 \u0420\u0435\u0441\u043f\u0443\u0431\u043b\u0456\u043a\u0430 \u041f\u0456\u0432\u043d\u0456\u0447\u043d\u043e\u0433\u043e \u041a\u0456\u043f\u0440\u0443","name:sv":"Nordcypern","name:sr":"\u0421\u0435\u0432\u0435\u0440\u043d\u0438 \u041a\u0438\u043f\u0430\u0440","population":265100,"name:eo":"Norda Kipro","name:en":"Turkish Republic Of Northern Cyprus","name":"Kuzey K\u0131br\u0131s T\u00fcrk Cumhuriyeti","alt_name:ru":"\u0421\u0435\u0432\u0435\u0440\u043d\u044b\u0439 \u041a\u0438\u043f\u0440","min_zoom":2.0,"name:es":"Rep\u00fablica Turca del Norte de Chipre"},"coordinates":[2025,2858]},{"type":"Point","properties":{"source":"naturalearthdata.com","kind":"locality","name":"Baghdad","country_capital":true,"population":5054000,"min_zoom":3.0,"id":7253},"coordinates":[3985,2452]},{"type":"Point","properties":{"source":"naturalearthdata.com","kind":"locality","name":"Athens","country_capital":true,"population":3242000,"min_zoom":3.0,"id":7252},"coordinates":[224,3452]},{"type":"Point","properties":{"source":"naturalearthdata.com","kind":"locality","name":"Alexandria","population":4165000,"min_zoom":4.0,"id":7165},"coordinates":[1356,1992]},{"type":"Point","properties":{"source":"naturalearthdata.com","kind":"locality","name":"Ankara","country_capital":true,"population":3716000,"min_zoom":4.0,"id":7123},"coordinates":[1886,3870]},{"type":"Point","properties":{"source":"naturalearthdata.com","kind":"locality","name":"Tel Aviv-Yafo","country_capital":true,"population":3112000,"min_zoom":4.0,"id":7195},"coordinates":[2233,2182]},{"type":"Point","properties":{"source":"naturalearthdata.com","kind":"locality","name":"Aleppo","population":2738000,"min_zoom":4.0,"id":7128},"coordinates":[2670,3074]},{"type":"Point","properties":{"source":"naturalearthdata.com","kind":"locality","name":"Damascus","country_capital":true,"population":2466000,"min_zoom":4.0,"id":7129},"coordinates":[2512,2487]},{"type":"Point","properties":{"kind":"region","name":"A\u011fr\u0131","kind_detail":"province","min_zoom":4.0,"source":"openstreetmap.org","name:ku":"Agir\u00ee","name:uk":"\u0410\u0433\u0440\u0438","name:ru":"\u0410\u0433\u0440\u044b","id":1752934109},"coordinates":[3802,3784]},{"type":"Point","properties":{"kind":"region","name":"I\u011fd\u0131r","kind_detail":"province","min_zoom":4.0,"source":"openstreetmap.org","name:ku":"\u00cedir","name:uk":"\u0418\u0433\u0434\u0438\u0440","name:ru":"\u042b\u0433\u0434\u044b\u0440","id":1827512185},"coordinates":[3904,3862]},{"type":"Point","properties":{"kind":"region","name":"Kars","kind_detail":"province","min_zoom":4.0,"source":"openstreetmap.org","name:ku":"Qers","name:uk":"\u041a\u0430\u0440\u0441","name:ru":"\u041a\u0430\u0440\u0441","id":1827515596},"coordinates":[3732,3983]},{"type":"Point","properties":{"kind":"region","name:en":"South Sinai Governorate","name":"\u062c\u0646\u0648\u0628 \u0633\u064a\u0646\u0627\u0621","kind_detail":"state","name:de":"Gouvernement S\u00fcdsinai","source":"openstreetmap.org","min_zoom":4.0,"name:ru":"\u042e\u0436\u043d\u044b\u0439 \u0421\u0438\u043d\u0430\u0439","id":2371779373},"coordinates":[2059,1563]},{"type":"Point","properties":{"kind":"region","name:en":"Al Badai","name":"\u0627\u0644\u0628\u062f\u0627\u0626\u0639","kind_detail":"province","min_zoom":4.0,"name:de":"Al Badai","source":"openstreetmap.org","name:fr":"Al Badai","int_name":"Al Bad\u0101i , Al Badai","id":1236367283},"coordinates":[3865,871]},{"type":"Point","properties":{"kind":"region","name:en":"Iraqi Kurdistan","name":"\u0625\u0642\u0644\u064a\u0645 \u0643\u0631\u062f\u0633\u062a\u0627\u0646","name:tr":"K\u00fcrdistan B\u00f6lgesel Y\u00f6netimi","kind_detail":"state","min_zoom":4.0,"source":"openstreetmap.org","name:ku":"Ba\u015f\u00fbr\u00ea Kurdistan\u00ea","name:ru":"\u0418\u0440\u0430\u043a\u0441\u043a\u0438\u0439 \u041a\u0443\u0440\u0434\u0438\u0441\u0442\u0430\u043d","id":5030238381},"coordinates":[3974,3116]},{"type":"Point","properties":{"kind":"region","name:en":"Ararat","name":"\u0531\u0580\u0561\u0580\u0561\u057f","name:lt":"Araratas","kind_detail":"state","min_zoom":4.0,"name:de":"Ararat","source":"openstreetmap.org","name:fr":"Ararat","name:uk":"\u0410\u0440\u0430\u0440\u0430\u0442","name:ru":"\u0410\u0440\u0430\u0440\u0430\u0442","name:pl":"Prowincja Ararat","name:hu":"Ararat","id":1884053540,"name:es":"Ararat"},"coordinates":[4047,3886]},{"type":"Point","properties":{"name:ja":"\u30a2\u30eb\u30de\u30f4\u30a3\u30eb","name:lt":"Armaviro sritis","min_zoom":4.0,"name:uk":"\u0410\u0440\u043c\u0430\u0432\u0456\u0440","name:ru":"\u0410\u0440\u043c\u0430\u0432\u0438\u0440","name:pl":"Prowincja Armawir","name:hu":"Armavir","id":1884053541,"kind":"region","name:en":"Armavir","name":"\u0531\u0580\u0574\u0561\u057e\u056b\u0580","kind_detail":"state","name:de":"Armawir","source":"openstreetmap.org","name:fr":"Armavir","name:es":"Armavir"},"coordinates":[3902,3910]},{"type":"Point","properties":{"kind":"region","name:en":"New Valley Governorate","name":"\u0627\u0644\u0648\u0627\u062f\u064a \u0627\u0644\u062c\u062f\u064a\u062f","kind_detail":"state","name:de":"Gouvernement Neues Tal","source":"openstreetmap.org","min_zoom":4.0,"name:ru":"\u041d\u043e\u0432\u0430\u044f \u0414\u043e\u043b\u0438\u043d\u0430","name:hu":"\u00daj v\u00f6lgyi korm\u00e1nyz\u00f3s\u00e1g","id":2372927930},"coordinates":[952,438]},{"type":"Point","properties":{"kind":"region","name:en":"Aswan Governorate","name":"\u0645\u062d\u0627\u0641\u0638\u0629 \u0623\u0633\u0648\u0627\u0646","kind_detail":"state","name:de":"Gouvernement Assuan","source":"openstreetmap.org","min_zoom":4.0,"name:ru":"\u0410\u0441\u0443\u0430\u043d","id":2372908507},"coordinates":[1807,250]},{"type":"Point","properties":{"admin_level":"4","kind":"region","name:en":"Al Butnan","name":"Al Butnan \u0627\u0644\u0628\u0637\u0646\u0640\u0640\u0627\u0646","kind_detail":"state","name:ar":"\u0627\u0644\u0628\u0637\u0646\u0640\u0640\u0627\u0646","source":"openstreetmap.org","min_zoom":4.0,"name:it":"Distretto di Al-Butnan","name:uk":"\u0415\u043b\u044c-\u0411\u0443\u0442\u043d\u0430\u043d","name:ru":"\u042d\u043b\u044c-\u0411\u0443\u0442\u043d\u0430\u043d","name:pl":"Al-Butnan","id":1312442223},"coordinates":[283,1772]},{"type":"Point","properties":{"kind":"region","name:en":"Matrouh Governorate","name":"\u0645\u0637\u0631\u0648\u062d","kind_detail":"state","name:de":"Gouvernement Matruh","source":"openstreetmap.org","min_zoom":4.0,"name:ru":"\u041c\u0430\u0442\u0440\u0443\u0445","name:hu":"Matrouh kor\u00e1nyz\u00f3s\u00e1g","id":2372927929},"coordinates":[726,1720]},{"type":"Point","properties":{"kind":"region","name":"Antalya","kind_detail":"province","source":"openstreetmap.org","min_zoom":4.0,"name:uk":"\u0410\u043d\u0442\u0430\u043b\u0456\u044f","name:ru":"\u0410\u043d\u0442\u0430\u043b\u044c\u044f","name:et":"Antalya provints","id":602446906},"coordinates":[1498,3224]},{"type":"Point","properties":{"kind":"region","name:en":"Ismailia Governorate","name":"\u0627\u0644\u0625\u0633\u0645\u0627\u0639\u064a\u0644\u064a\u0629","kind_detail":"state","name:de":"Gouvernement Ismailiya","source":"openstreetmap.org","min_zoom":4.0,"name:ru":"\u0418\u0441\u043c\u0430\u0438\u043b\u0438\u044f","name:hu":"Iszm\u00e1ilita korm\u00e1nyz\u00f3s\u00e1g","id":2373178213},"coordinates":[1758,1813]},{"type":"Point","properties":{"kind":"region","name:en":"North Sinai Governorate","name":"\u0634\u0645\u0627\u0644 \u0633\u064a\u0646\u0627\u0621","kind_detail":"state","name:de":"Gouvernement Nordsinai","source":"openstreetmap.org","min_zoom":4.0,"name:ru":"\u0421\u0435\u0432\u0435\u0440\u043d\u044b\u0439 \u0421\u0438\u043d\u0430\u0439","name:hu":"\u00c9szak-s\u00ednai korm\u00e1nyz\u00f3s\u00e1g","id":2371779362},"coordinates":[2040,1861]},{"type":"Point","properties":{"kind":"region","name:en":"Red Sea Governorate","name":"\u0627\u0644\u0628\u062d\u0631 \u0627\u0644\u0623\u062d\u0645\u0631","kind_detail":"state","name:de":"Gouvernement Rotes Meer","source":"openstreetmap.org","min_zoom":4.0,"name:ru":"\u041a\u0440\u0430\u0441\u043d\u043e\u0435 \u041c\u043e\u0440\u0435","name:hu":"V\u00f6r\u00f6s-tenger korm\u00e1nyz\u00f3s\u00e1g","id":2372908511},"coordinates":[2119,585]},{"type":"Point","properties":{"kind":"region","name":"Adana","kind_detail":"province","name:he":"\u05d0\u05d3\u05e0\u05d4","min_zoom":4.0,"source":"openstreetmap.org","name:ku":"Edene","name:uk":"\u0410\u0434\u0430\u043d\u0430","name:ru":"\u0410\u0434\u0430\u043d\u0430","name:zh":"\u963f\u8fbe\u7eb3\u7701","id":1752934105},"coordinates":[2366,3271]},{"type":"Point","properties":{"kind":"region","name":"Ad\u0131yaman","kind_detail":"province","min_zoom":4.0,"source":"openstreetmap.org","name:ku":"Sems\u00fbr","name:uk":"\u0410\u0434\u0438\u044f\u043c\u0430\u043d","name:ru":"\u0410\u0434\u044b\u044f\u043c\u0430\u043d","id":1752934106},"coordinates":[2879,3410]},{"type":"Point","properties":{"kind":"region","name":"Afyonkarahisar","kind_detail":"province","source":"openstreetmap.org","min_zoom":4.0,"name:uk":"\u0410\u0444\u044c\u043e\u043d\u043a\u0430\u0440\u0430\u0445\u0456\u0441\u0430\u0440","name:ru":"\u0410\u0444\u044c\u043e\u043d\u043a\u0430\u0440\u0430\u0445\u0438\u0441\u0430\u0440","id":1752934107},"coordinates":[1482,3602]},{"type":"Point","properties":{"kind":"region","name":"Karaman","kind_detail":"province","source":"openstreetmap.org","min_zoom":4.0,"name:uk":"\u041a\u0430\u0440\u0430\u043c\u0430\u043d","name:ru":"\u041a\u0430\u0440\u0430\u043c\u0430\u043d","id":1752934110},"coordinates":[1973,3278]},{"type":"Point","properties":{"admin_level":"4","kind":"region","name:en":"Kotayk","name":"\u053f\u0578\u057f\u0561\u0575\u0584","kind_detail":"state","source":"openstreetmap.org","min_zoom":4.0,"name:ru":"\u041a\u043e\u0442\u0430\u0439\u043a","name:hu":"Kotajk","id":2291231926,"name:ja":"\u30b3\u30bf\u30a4\u30af"},"coordinates":[4033,3945]},{"type":"Point","properties":{"kind":"region","name":"Diyarbak\u0131r","kind_detail":"province","min_zoom":4.0,"source":"openstreetmap.org","name:ku":"Amed","name:uk":"\u0414\u0456\u044f\u0440\u0431\u0430\u043a\u0438\u0440","name:ru":"\u0414\u0438\u044f\u0440\u0431\u0430\u043a\u044b\u0440","id":1827439183},"coordinates":[3264,3472]},{"type":"Point","properties":{"kind":"region","name":"Bitlis","kind_detail":"province","min_zoom":4.0,"source":"openstreetmap.org","name:ku":"Bidl\u00ees","name:uk":"\u0411\u0456\u0442\u043b\u0456\u0441","name:ru":"\u0411\u0438\u0442\u043b\u0438\u0441","id":1827488971},"coordinates":[3580,3561]},{"type":"Point","properties":{"kind":"region","name":"Malatya","kind_detail":"province","min_zoom":4.0,"source":"openstreetmap.org","name:ku":"Melet\u00ee","name:uk":"\u041c\u0430\u043b\u0430\u0442\u044c\u044f","name:ru":"\u041c\u0430\u043b\u0430\u0442\u044c\u044f","id":1827493431},"coordinates":[2841,3559]},{"type":"Point","properties":{"kind":"region","name":"\u015eanl\u0131urfa","kind_detail":"province","min_zoom":4.0,"source":"openstreetmap.org","name:ku":"Riha","name:uk":"\u0428\u0430\u043d\u043b\u0438\u0443\u0440\u0444\u0430","name:ru":"\u0428\u0430\u043d\u043b\u044b\u0443\u0440\u0444\u0430","id":1827496459},"coordinates":[3011,3296]},{"type":"Point","properties":{"kind":"region","name":"Mardin","kind_detail":"province","min_zoom":4.0,"source":"openstreetmap.org","name:ku":"M\u00eard\u00een","name:uk":"\u041c\u0430\u0440\u0434\u0456\u043d","name:ru":"\u041c\u0430\u0440\u0434\u0438\u043d","id":1827499200},"coordinates":[3322,3313]},{"type":"Point","properties":{"kind":"region","name":"Siirt","kind_detail":"province","min_zoom":4.0,"source":"openstreetmap.org","name:ku":"S\u00eart","name:uk":"\u0421\u0456\u0457\u0440\u0442","name:ru":"\u0421\u0438\u0438\u0440\u0442","id":1827500792},"coordinates":[3559,3426]},{"type":"Point","properties":{"kind":"region","name":"\u015e\u0131rnak","kind_detail":"province","min_zoom":4.0,"source":"openstreetmap.org","name:ku":"\u015eirnex","name:uk":"\u0428\u0438\u0440\u043d\u0430\u043a","name:ru":"\u0428\u0438\u0440\u043d\u0430\u043a","id":1827505420},"coordinates":[3645,3338]},{"type":"Point","properties":{"kind":"region","name":"Batman","kind_detail":"province","min_zoom":4.0,"source":"openstreetmap.org","name:ku":"\u00calih","name:uk":"\u0411\u0430\u0442\u043c\u0430\u043d","name:ru":"\u0411\u0430\u0442\u043c\u0430\u043d","id":1827510394},"coordinates":[3415,3409]},{"type":"Point","properties":{"kind":"region","name":"Gaziantep","kind_detail":"province","min_zoom":4.0,"source":"openstreetmap.org","name:ku":"D\u00eelok","name:uk":"\u0490\u0430\u0437\u0456\u0430\u043d\u0442\u0435\u043f","name:ru":"\u0413\u0430\u0437\u0438\u0430\u043d\u0442\u0435\u043f","id":1827524661},"coordinates":[2714,3232]},{"type":"Point","properties":{"kind":"region","name":"Kilis","kind_detail":"province","min_zoom":4.0,"source":"openstreetmap.org","name:ku":"Kil\u00ees","name:uk":"\u041a\u0456\u043b\u0456\u0441","name:ru":"\u041a\u0438\u043b\u0438\u0441","id":1827525820},"coordinates":[2665,3192]},{"type":"Point","properties":{"kind":"region","name":"Kahramanmara\u015f","kind_detail":"province","min_zoom":4.0,"source":"openstreetmap.org","name:ku":"Mere\u015f","name:uk":"\u041a\u0430\u0445\u0440\u0430\u043c\u0430\u043d\u043c\u0430\u0440\u0430\u0448","name:ru":"\u041a\u0430\u0445\u0440\u0430\u043c\u0430\u043d\u043c\u0430\u0440\u0430\u0448","id":1827529039},"coordinates":[2609,3408]},{"type":"Point","properties":{"kind":"region","name":"Hatay","kind_detail":"province","name:ar":"\u0644\u0648\u0627\u0621 \u0627\u0633\u0643\u0646\u062f\u0631\u0648\u0646\u0647","min_zoom":4.0,"source":"openstreetmap.org","name:ku":"Xetay","name:uk":"\u0425\u0430\u0442\u0430\u0439","name:ru":"\u0425\u0430\u0442\u0430\u0439","id":1830558518},"coordinates":[2471,3099]},{"type":"Point","properties":{"kind":"region","name:en":"Suez Governorate","name":"\u0627\u0644\u063a\u0631\u0628\u064a\u0629","name:lt":"Sueco muchafaza","kind_detail":"state","name:de":"Gouvernement Sues","source":"openstreetmap.org","min_zoom":4.0,"name:ru":"\u0421\u0443\u044d\u0446","name:hu":"Szuezi korm\u00e1nyz\u00f3s\u00e1g","id":2373178216},"coordinates":[1757,1608]},{"type":"Point","properties":{"kind":"region","name":"Konya","kind_detail":"province","source":"openstreetmap.org","min_zoom":4.0,"name:uk":"\u041a\u043e\u043d\u044c\u044f","name:ru":"\u041a\u043e\u043d\u044c\u044f","id":2794084305},"coordinates":[1825,3459]},{"type":"Point","properties":{"kind":"region","name":"Mersin","kind_detail":"province","source":"openstreetmap.org","min_zoom":4.0,"name:uk":"\u041c\u0435\u0440\u0441\u0456\u043d","name:ru":"\u041c\u0435\u0440\u0441\u0438\u043d","id":2794085610},"coordinates":[2088,3204]},{"type":"Point","properties":{"kind":"region","name":"Isparta","kind_detail":"province","source":"openstreetmap.org","min_zoom":4.0,"name:uk":"\u0418\u0441\u043f\u0430\u0440\u0442\u0430","name:ru":"\u042b\u0441\u043f\u0430\u0440\u0442\u0430","id":2874047957},"coordinates":[1540,3443]},{"type":"Point","properties":{"name:ja":"\u30a2\u30f3\u30d0\u30fc\u30eb","name:eo":"Anbara gubernio","min_zoom":4.0,"name:uk":"\u0410\u043d\u0431\u0430\u0440","name:ru":"\u0410\u043d\u0431\u0430\u0440","name:pl":"Al-Anbar","name:hu":"el-Anb\u00e1r","id":2914855213,"kind":"region","name:en":"Al Anbar","name":"\u0627\u0644\u0623\u0646\u0628\u0627\u0631\u200e","kind_detail":"state","name:ku":"Enbar","name:de":"al-Anbar","source":"openstreetmap.org","name:fr":"Al-Anb\u00e2r"},"coordinates":[3479,2334]},{"type":"Point","properties":{"kind":"region","name":"Ni\u011fde","kind_detail":"province","source":"openstreetmap.org","min_zoom":4.0,"name:uk":"\u041d\u0456\u0433\u0434\u0435","name:ru":"\u041d\u0438\u0433\u0434\u0435","id":2978689324},"coordinates":[2222,3469]},{"type":"Point","properties":{"kind":"region","name":"Nev\u015fehir","kind_detail":"province","source":"openstreetmap.org","min_zoom":4.0,"name:uk":"\u041d\u0435\u0432\u0448\u0435\u0445\u0456\u0440","name:ru":"\u041d\u0435\u0432\u0448\u0435\u0445\u0438\u0440","id":2978689325},"coordinates":[2224,3611]},{"type":"Point","properties":{"kind":"region","name":"Aksaray","kind_detail":"province","source":"openstreetmap.org","min_zoom":4.0,"name:uk":"\u0410\u043a\u0441\u0430\u0440\u0430\u0439","name:ru":"\u0410\u043a\u0441\u0430\u0440\u0430\u0439","id":2978689326},"coordinates":[2075,3548]},{"type":"Point","properties":{"kind":"region","name":"Kayseri","kind_detail":"province","source":"openstreetmap.org","min_zoom":4.0,"name:uk":"\u041a\u0430\u0439\u0441\u0435\u0440\u0456","name:ru":"\u041a\u0430\u0439\u0441\u0435\u0440\u0438","id":2978689327},"coordinates":[2377,3596]},{"type":"Point","properties":{"kind":"region","name":"Burdur","kind_detail":"province","source":"openstreetmap.org","min_zoom":4.0,"name:uk":"\u0411\u0443\u0440\u0434\u0443\u0440","name:ru":"\u0411\u0443\u0440\u0434\u0443\u0440","id":3042002355},"coordinates":[1396,3351]},{"type":"Point","properties":{"kind":"region","name":"Osmaniye","kind_detail":"province","source":"openstreetmap.org","min_zoom":4.0,"name:uk":"\u041e\u0441\u043c\u0430\u043d\u0456\u0454","name:ru":"\u041e\u0441\u043c\u0430\u043d\u0438\u0435","id":3042002360},"coordinates":[2512,3294]},{"type":"Point","properties":{"name:ja":"\u30a8\u30e9\u30ba\u30fc\u770c","name:ka":"\u10d4\u10da\u10d0\u10d6\u10d8\u10e6\u10d8\u10e1 \u10de\u10e0\u10dd\u10d5\u10d8\u10dc\u10ea\u10d8\u10d0","name:fa":"\u0627\u0644\u0627\u0632\u06cc\u063a","name:ar":"\u0625\u0644\u0627\u0632\u063a","name:ku":"Xarp\u00eat","name:uk":"\u0415\u043b\u044f\u0437\u0438\u0433","name:hy":"\u053d\u0561\u0580\u0562\u0565\u0580\u0564\u056b \u0576\u0561\u0570\u0561\u0576\u0563","name:ru":"\u042d\u043b\u044f\u0437\u044b\u0433","id":4954410572,"name:el":"\u0388\u03bb\u03b1\u03b6\u03b9\u03b3","kind":"region","name":"Elaz\u0131\u011f","kind_detail":"province","min_zoom":4.0,"source":"openstreetmap.org","name:zh":"\u57c3\u62c9\u6cfd\u7701"},"coordinates":[3076,3580]},{"type":"Point","properties":{"admin_level":"4","kind":"region","name:en":"Darnah","name":"Darnah \u062f\u0631\u0646\u0647","kind_detail":"state","name:ar":"\u062f\u0631\u0646\u0647","source":"openstreetmap.org","min_zoom":4.0,"name:it":"Distretto di Derna","name:uk":"\u0414\u0435\u0440\u043d\u0430","name:ru":"\u0414\u0435\u0440\u043d\u0430","name:pl":"Darna","id":1312442230},"coordinates":[15,2136]},{"type":"Point","properties":{"kind":"region","name":"Ayd\u0131n","kind_detail":"province","source":"openstreetmap.org","min_zoom":4.0,"name:uk":"\u0410\u0439\u0434\u0438\u043d","name:ru":"\u0410\u0439\u0434\u044b\u043d","id":602444342},"coordinates":[1014,3399]},{"type":"Point","properties":{"kind":"region","name":"Manisa","kind_detail":"province","source":"openstreetmap.org","min_zoom":4.0,"name:uk":"\u041c\u0430\u043d\u0456\u0441\u0430","name:ru":"\u041c\u0430\u043d\u0438\u0441\u0430","id":602444958},"coordinates":[1012,3639]},{"type":"Point","properties":{"kind":"region","name":"Tunceli","kind_detail":"province","min_zoom":4.0,"source":"openstreetmap.org","name:ku":"D\u00earsim","name:uk":"\u0422\u0443\u043d\u0434\u0436\u0435\u043b\u0456","name:ru":"\u0422\u0443\u043d\u0434\u0436\u0435\u043b\u0438","id":1827332282},"coordinates":[3079,3717]},{"type":"Point","properties":{"kind":"region","name":"Bing\u00f6l","kind_detail":"province","min_zoom":4.0,"source":"openstreetmap.org","name:ku":"B\u00eengol","name:uk":"\u0411\u0456\u043d\u0491\u0435\u043b\u044c","name:ru":"\u0411\u0438\u043d\u0433\u0451\u043b\u044c","id":1827436314},"coordinates":[3319,3686]},{"type":"Point","properties":{"kind":"region","name":"Van","kind_detail":"province","min_zoom":4.0,"source":"openstreetmap.org","name:ku":"Wan","name:uk":"\u0412\u0430\u043d","name:ru":"\u0412\u0430\u043d","id":1827474640},"coordinates":[3852,3525]},{"type":"Point","properties":{"kind":"region","name":"Mu\u015f","kind_detail":"province","min_zoom":4.0,"source":"openstreetmap.org","name:ku":"M\u00fb\u015f","name:uk":"\u041c\u0443\u0448","name:ru":"\u041c\u0443\u0448","id":1827486918},"coordinates":[3542,3664]},{"type":"Point","properties":{"kind":"region","name:en":"Hakk\u00e2ri","name":"Hakkari","name:tr":"Hakk\u00e2ri","kind_detail":"province","min_zoom":4.0,"source":"openstreetmap.org","name:ku":"Hekar\u00ee","name:uk":"\u0425\u0430\u043a\u043a\u044f\u0440\u0456","name:ru":"\u0425\u0430\u043a\u043a\u044f\u0440\u0438","id":1827507976},"coordinates":[3933,3346]},{"type":"Point","properties":{"int_name":"Kirk\u016bk","name:ja":"\u30ad\u30eb\u30af\u30fc\u30af","name:eo":"Kirkuka gubernio","min_zoom":4.0,"name:uk":"\u041a\u0456\u0440\u043a\u0443\u043a","name:ru":"\u041a\u0438\u0440\u043a\u0443\u043a","name:pl":"Kirkuk","id":2489280167,"kind":"region","name:en":"Kirkuk","name":"\u0643\u0631\u0643\u0648\u0643\u200e","kind_detail":"state","name:ku":"Kerk\u00fbk","name:de":"Kirkuk","source":"openstreetmap.org","name:fr":"Kirkouk"},"coordinates":[3943,2865]},{"type":"Point","properties":{"kind":"region","name":"U\u015fak","kind_detail":"province","source":"openstreetmap.org","min_zoom":4.0,"name:uk":"\u0423\u0448\u0430\u043a","name:ru":"\u0423\u0448\u0430\u043a","id":2874047958},"coordinates":[1243,3586]},{"type":"Point","properties":{"kind":"region","name":"Denizli","kind_detail":"province","source":"openstreetmap.org","min_zoom":4.0,"name:uk":"\u0414\u0435\u043d\u0456\u0437\u043b\u0456","name:ru":"\u0414\u0435\u043d\u0438\u0437\u043b\u0438","id":2908518388},"coordinates":[1227,3418]},{"type":"Point","properties":{"kind":"region","name":"K\u00fctahya","kind_detail":"province","source":"openstreetmap.org","min_zoom":4.0,"name:uk":"\u041a\u044e\u0442\u0430\u0445'\u044f","name:ru":"\u041a\u044e\u0442\u0430\u0445\u044c\u044f","id":2908518391},"coordinates":[1273,3724]},{"type":"Point","properties":{"kind":"region","name":"Mu\u011fla","kind_detail":"province","source":"openstreetmap.org","min_zoom":4.0,"name:uk":"\u041c\u0443\u0433\u043b\u0430","name:ru":"\u041c\u0443\u0433\u043b\u0430","id":2908518392},"coordinates":[1049,3275]},{"type":"Point","properties":{"kind":"region","name:en":"Babil","name":"\u0628\u0627\u0628\u0644","kind_detail":"state","name:eo":"Babila gubernio","id":2914855214,"source":"openstreetmap.org","name:fr":"Babel","name:uk":"\u0411\u0430\u0431\u0456\u043b\u044c","name:ru":"\u0411\u0430\u0431\u0438\u043b\u044c","min_zoom":4.0,"name:hu":"B\u00e1bil","name:ku":"Babil","name:pl":"Babil","name:ja":"\u30d0\u30fc\u30d3\u30eb"},"coordinates":[4016,2300]},{"type":"Point","properties":{"kind":"region","name:en":"Baghdad","name":"\u0628\u063a\u062f\u0627\u062f","kind_detail":"state","name:eo":"Bagdada gubernio","id":2914855215,"source":"openstreetmap.org","name:fr":"Bagdad","name:uk":"\u0411\u0430\u0433\u0434\u0430\u0434","name:ru":"\u0411\u0430\u0433\u0434\u0430\u0434","min_zoom":4.0,"name:hu":"Bagdad","name:ku":"Bexda","name:pl":"Bagdad"},"coordinates":[3984,2381]},{"type":"Point","properties":{"kind":"region","name:en":"Karbala","name":"\u0643\u0631\u0628\u0644\u0627\u0621","kind_detail":"state","name:eo":"Karbala gubernio","id":2914855222,"source":"openstreetmap.org","name:fr":"Kerbala","name:uk":"\u041a\u0435\u0440\u0431\u0435\u043b\u0430","name:ru":"\u041a\u0435\u0440\u0431\u0435\u043b\u0430","min_zoom":4.0,"name:ku":"Kerbela","name:pl":"Karbala","name:ja":"\u30ab\u30eb\u30d0\u30e9\u30fc"},"coordinates":[3881,2261]},{"type":"Point","properties":{"kind":"region","name:en":"Najaf","name":"\u0627\u0644\u0646\u062c\u0641\u200e","kind_detail":"state","name:eo":"Na\u011dafa gubernio","id":2914855226,"source":"openstreetmap.org","name:fr":"Nadjaf","name:uk":"\u041d\u0430\u0434\u0436\u0430\u0444","name:ru":"\u041d\u0430\u0434\u0436\u0430\u0444","min_zoom":4.0,"name:ku":"Necef","name:pl":"An-Nad\u017caf","name:ja":"\u30ca\u30b8\u30e3\u30d5"},"coordinates":[3885,2022]},{"type":"Point","properties":{"kind":"region","name:en":"Saladin","name":"\u0635\u0644\u0627\u062d \u0627\u0644\u062f\u064a\u0646","kind_detail":"state","min_zoom":4.0,"source":"openstreetmap.org","name:fr":"Salaheddine","name:uk":"\u0421\u0430\u043b\u0430\u0445-\u0435\u0434-\u0414\u0456\u043d","name:ru":"\u0421\u0430\u043b\u0430\u0445-\u044d\u0434-\u0414\u0438\u043d","name:pl":"Salah ad-Din","name:hu":"Szal\u00e1h ad-D\u00edn","name:ku":"Selahed\u00een","id":2914855229,"name:ja":"\u30b5\u30e9\u30fc\u30d5\u30c3\u30c7\u30a3\u30fc\u30f3"},"coordinates":[3849,2675]},{"type":"Point","properties":{"kind":"region","name":"K\u0131r\u015fehir","kind_detail":"province","source":"openstreetmap.org","min_zoom":4.0,"name:uk":"\u041a\u0438\u0440\u0448\u0435\u0445\u0456\u0440","name:ru":"\u041a\u044b\u0440\u0448\u0435\u0445\u0438\u0440","id":2978689328},"coordinates":[2117,3741]},{"type":"Point","properties":{"kind":"region","name:en":"Izmir","name":"\u0130zmir","kind_detail":"province","name:ar":"\u0625\u0632\u0645\u064a\u0631","source":"openstreetmap.org","min_zoom":4.0,"name:uk":"\u0406\u0437\u043c\u0456\u0440","name:ru":"\u0418\u0437\u043c\u0438\u0440","id":3042002356},"coordinates":[825,3505]},{"type":"Point","properties":{"kind":"region","name":"Erzincan","kind_detail":"province","min_zoom":4.0,"source":"openstreetmap.org","name:ku":"Ezirgan","name:uk":"\u0415\u0440\u0437\u0456\u043d\u0434\u0436\u0430\u043d","name:ru":"\u042d\u0440\u0437\u0438\u043d\u0434\u0436\u0430\u043d","id":1827513806},"coordinates":[3040,3801]},{"type":"Point","properties":{"kind":"region","name":"Erzurum","kind_detail":"province","name:ar":"\u0623\u0631\u0636\u0631\u0648\u0645","min_zoom":4.0,"source":"openstreetmap.org","name:ku":"Erz\u00eerom","name:uk":"\u0415\u0440\u0437\u0443\u0440\u0443\u043c","name:ru":"\u042d\u0440\u0437\u0443\u0440\u0443\u043c","id":1827520540},"coordinates":[3441,3833]},{"type":"Point","properties":{"kind":"region","name":"Sivas","kind_detail":"province","min_zoom":4.0,"source":"openstreetmap.org","name:ku":"S\u00eawas","name:uk":"\u0421\u0456\u0432\u0430\u0441","name:ru":"\u0421\u0438\u0432\u0430\u0441","id":1827540533},"coordinates":[2658,3760]},{"type":"Point","properties":{"kind":"region","name":"Giresun","kind_detail":"province","source":"openstreetmap.org","min_zoom":4.0,"name:uk":"\u0490\u0456\u0440\u0435\u0441\u0443\u043d","name:ru":"\u0413\u0438\u0440\u0435\u0441\u0443\u043d","id":2794065688},"coordinates":[2916,4026]},{"type":"Point","properties":{"kind":"region","name":"G\u00fcm\u00fc\u015fhane","kind_detail":"province","source":"openstreetmap.org","min_zoom":4.0,"name:uk":"\u0490\u044e\u043c\u044e\u0448\u0445\u0430\u043d\u0435","name:ru":"\u0413\u044e\u043c\u044e\u0448\u0445\u0430\u043d\u0435","id":2794087160},"coordinates":[3060,3930]},{"type":"Point","properties":{"kind":"region","name":"Ordu","kind_detail":"province","source":"openstreetmap.org","min_zoom":4.0,"name:uk":"\u041e\u0440\u0434\u0443","name:ru":"\u041e\u0440\u0434\u0443","id":2874047956},"coordinates":[2714,4064]},{"type":"Point","properties":{"kind":"region","name":"Trabzon","kind_detail":"province","source":"openstreetmap.org","min_zoom":4.0,"name:uk":"\u0422\u0440\u0430\u0431\u0437\u043e\u043d","name:ru":"\u0422\u0440\u0430\u0431\u0437\u043e\u043d","id":2894839374},"coordinates":[3153,4076]},{"type":"Point","properties":{"kind":"region","name":"Rize","kind_detail":"province","source":"openstreetmap.org","min_zoom":4.0,"name:uk":"\u0420\u0456\u0437\u0435","name:ru":"\u0420\u0438\u0437\u0435","id":2894839375},"coordinates":[3336,4086]},{"type":"Point","properties":{"kind":"region","name:en":"Tokat","name":"Tokat \u0130li","name:tr":"Tokat","kind_detail":"province","source":"openstreetmap.org","min_zoom":4.0,"name:uk":"\u0422\u043e\u043a\u0430\u0442","name:ru":"\u0422\u043e\u043a\u0430\u0442","id":2894839376},"coordinates":[2558,3956]},{"type":"Point","properties":{"kind":"region","name":"Bayburt","kind_detail":"province","source":"openstreetmap.org","min_zoom":4.0,"name:uk":"\u0411\u0430\u0439\u0431\u0443\u0440\u0442","name:ru":"\u0411\u0430\u0439\u0431\u0443\u0440\u0442","id":3042002354},"coordinates":[3224,3929]},{"type":"Point","properties":{"name:ja":"\u30c9\u30db\u30fc\u30af","name:tr":"Duhok","name:ar":"\u062f\u0647\u0648\u0643","name:eo":"Dahuka gubernio","min_zoom":4.0,"name:uk":"\u0414\u0430\u0445\u0443\u043a","name:ru":"\u0414\u0430\u0445\u0443\u043a","name:pl":"Dahuk","name:hu":"Dah\u00fak","id":2914855219,"kind":"region","name:en":"Dohuk","name":"\u062f\u0647\u06c6\u06a9\u200e \/ \u062f\u0647\u0648\u0643","kind_detail":"province","name:ku":"\u062f\u0647\u06c6\u06a9","name:de":"Dahuk","source":"openstreetmap.org","name:fr":"Dohouk"},"coordinates":[3749,3249]},{"type":"Point","properties":{"kind":"region","name":"Amasya","kind_detail":"province","source":"openstreetmap.org","min_zoom":4.0,"name:uk":"\u0410\u043c\u0430\u0441\u044c\u044f","name:ru":"\u0410\u043c\u0430\u0441\u044c\u044f","id":1752934108},"coordinates":[2416,4027]},{"type":"Point","properties":{"kind":"region","name":"Ankara","kind_detail":"province","source":"openstreetmap.org","min_zoom":4.0,"name:uk":"\u0410\u043d\u043a\u0430\u0440\u0430","name:ru":"\u0410\u043d\u043a\u0430\u0440\u0430","id":2794078378},"coordinates":[1858,3824]},{"type":"Point","properties":{"kind":"region","name":"\u00c7anakkale","kind_detail":"province","source":"openstreetmap.org","min_zoom":4.0,"name:uk":"\u0427\u0430\u043d\u0430\u043a\u043a\u0430\u043b\u0435","name:ru":"\u0427\u0430\u043d\u0430\u043a\u043a\u0430\u043b\u0435","id":2857468732},"coordinates":[806,3897]},{"type":"Point","properties":{"kind":"region","name":"Bursa","kind_detail":"province","source":"openstreetmap.org","min_zoom":4.0,"name:uk":"\u0411\u0443\u0440\u0441\u0430","name:ru":"\u0411\u0443\u0440\u0441\u0430","id":2857470699},"coordinates":[1164,3883]},{"type":"Point","properties":{"kind":"region","name":"\u00c7ank\u0131r\u0131","kind_detail":"province","source":"openstreetmap.org","min_zoom":4.0,"name:uk":"\u0427\u0430\u043d\u043a\u0438\u0440\u0438","name:ru":"\u0427\u0430\u043d\u043a\u044b\u0440\u044b","id":2908518371},"coordinates":[1994,4029]},{"type":"Point","properties":{"kind":"region","name":"Eski\u015fehir","kind_detail":"province","source":"openstreetmap.org","min_zoom":4.0,"name:uk":"\u0415\u0441\u043a\u0456\u0448\u0435\u0445\u0456\u0440","name:ru":"\u042d\u0441\u043a\u0438\u0448\u0435\u0445\u0438\u0440","id":2908518390},"coordinates":[1561,3817]},{"type":"Point","properties":{"kind":"region","name":"Yozgat","kind_detail":"province","source":"openstreetmap.org","min_zoom":4.0,"name:uk":"\u0419\u043e\u0437\u0433\u0430\u0442","name:ru":"\u0419\u043e\u0437\u0433\u0430\u0442","id":2952091624},"coordinates":[2307,3824]},{"type":"Point","properties":{"kind":"region","name":"Bolu","kind_detail":"province","source":"openstreetmap.org","min_zoom":4.0,"name:uk":"\u0411\u043e\u043b\u0443","name:ru":"\u0411\u043e\u043b\u0443","id":2952091625},"coordinates":[1665,4019]},{"type":"Point","properties":{"kind":"region","name":"Bal\u0131kesir","kind_detail":"province","source":"openstreetmap.org","min_zoom":4.0,"name:uk":"\u0411\u0430\u043b\u0438\u043a\u0435\u0441\u0456\u0440","name:ru":"\u0411\u0430\u043b\u044b\u043a\u0435\u0441\u0438\u0440","id":2978689323},"coordinates":[1005,3786]},{"type":"Point","properties":{"kind":"region","name":"Bilecik","kind_detail":"province","source":"openstreetmap.org","min_zoom":4.0,"name:uk":"\u0411\u0456\u043b\u0435\u0434\u0436\u0438\u043a","name:ru":"\u0411\u0438\u043b\u0435\u0434\u0436\u0438\u043a","id":2999329290},"coordinates":[1374,3915]},{"type":"Point","properties":{"kind":"region","name":"Yalova","kind_detail":"province","source":"openstreetmap.org","min_zoom":4.0,"name:uk":"\u042f\u043b\u043e\u0432\u0430","name:ru":"\u042f\u043b\u043e\u0432\u0430","id":2999329291},"coordinates":[1229,4021]},{"type":"Point","properties":{"kind":"region","name":"Sakarya","kind_detail":"province","source":"openstreetmap.org","min_zoom":4.0,"name:uk":"\u0421\u0430\u043a\u0430\u0440'\u044f","name:ru":"\u0421\u0430\u043a\u0430\u0440\u044c\u044f","id":2999329301},"coordinates":[1453,4052]},{"type":"Point","properties":{"kind":"region","name":"Kocaeli","kind_detail":"province","source":"openstreetmap.org","min_zoom":4.0,"name:uk":"\u041a\u043e\u0434\u0436\u0430\u0435\u043b\u0456","name:ru":"\u041a\u043e\u0434\u0436\u0430\u044d\u043b\u0438","id":2999329302},"coordinates":[1356,4062]},{"type":"Point","properties":{"kind":"region","name":"D\u00fczce","kind_detail":"province","source":"openstreetmap.org","min_zoom":4.0,"name:uk":"\u0414\u044e\u0437\u0434\u0436\u0435","name:ru":"\u0414\u044e\u0437\u0434\u0436\u0435","id":2999329303},"coordinates":[1584,4074]},{"type":"Point","properties":{"kind":"region","name":"K\u0131r\u0131kkale","kind_detail":"province","source":"openstreetmap.org","min_zoom":4.0,"name:uk":"\u041a\u0438\u0440\u0438\u043a\u043a\u0430\u043b\u0435","name:ru":"\u041a\u044b\u0440\u044b\u043a\u043a\u0430\u043b\u0435","id":3042002359},"coordinates":[2062,3861]},{"type":"Point","properties":{"name:el":"\u03a4\u03c3\u03bf\u03c1\u03bf\u03cd\u03bc","kind":"region","name":"\u00c7orum","name:ka":"\u10e9\u10dd\u10e0\u10e3\u10db\u10d8\u10e1 \u10de\u10e0\u10dd\u10d5\u10d8\u10dc\u10ea\u10d8\u10d0","name:fa":"\u0627\u0633\u062a\u0627\u0646 \u0686\u0648\u0631\u0648\u0645","kind_detail":"province","source":"openstreetmap.org","min_zoom":4.0,"name:uk":"\u0427\u043e\u0440\u0443\u043c","name:hy":"\u0549\u0578\u0580\u0578\u0582\u0574","name:ru":"\u0427\u043e\u0440\u0443\u043c","name:zh":"\u4e54\u9c81\u59c6\u7701","id":4954410573},"coordinates":[2226,4008]},{"type":"Point","properties":{"name:ja":"\u30cb\u30fc\u30ca\u30ef\u30fc","name:eo":"Niniva gubernio","min_zoom":4.0,"name:uk":"\u041d\u0430\u0439\u043d\u0430\u0432\u0430","name:ru":"\u041d\u0430\u0439\u043d\u0430\u0432\u0430","name:pl":"Niniwa","name:hu":"Ninive","id":2914855227,"kind":"region","name:en":"Nineveh","name":"\u0646\u06cc\u0646\u0648\u0649\u200e","kind_detail":"state","name:ku":"Neynewa","name:de":"Ninawa","source":"openstreetmap.org","name:fr":"Ninive"},"coordinates":[3608,3032]},{"type":"Point","properties":{"kind":"region","name:en":"Erbil","name":"\u0647\u06d5\u0648\u0644\u06ce\u0631","kind_detail":"state","name:ar":"\u0623\u0631\u0628\u064a\u0644\u200e","min_zoom":4.0,"name:de":"Arbil","source":"openstreetmap.org","name:fr":"Erbil","name:uk":"\u0415\u0440\u0431\u0456\u043b\u044c","name:ru":"\u042d\u0440\u0431\u0438\u043b\u044c","name:pl":"Irbil","id":2914855220,"name:ja":"\u30a2\u30eb\u30d3\u30fc\u30eb"},"coordinates":[3916,3066]},{"type":"Point","properties":{"name:ja":"\u30a2\u30e9\u30ac\u30c4\u30a9\u30c8\u30a5\u30f3","name:lt":"Aragacotno sritis","min_zoom":4.0,"name:uk":"\u0410\u0440\u0430\u0491\u0430\u0446\u043e\u0442\u043d","name:ru":"\u0410\u0440\u0430\u0433\u0430\u0446\u043e\u0442\u043d","name:pl":"Prowincja Aragacotn","name:hu":"Aragacotn","id":1884053539,"kind":"region","name:en":"Aragatsotn","name":"\u0531\u0580\u0561\u0563\u0561\u056e\u0578\u057f\u0576","kind_detail":"state","name:de":"Aragazotn","source":"openstreetmap.org","name:fr":"Aragatsotn","name:es":"Aragatsotn"},"coordinates":[3935,3968]},{"type":"Point","properties":{"kind":"region","name:en":"Shirak","name":"\u0547\u056b\u0580\u0561\u056f","name:lt":"\u0160irako sritis","kind_detail":"state","min_zoom":4.0,"name:de":"Schirak","source":"openstreetmap.org","name:fr":"Chirak","name:uk":"\u0428\u0438\u0440\u0430\u043a","name:ru":"\u0428\u0438\u0440\u0430\u043a","name:pl":"Prowincja Szirak","name:hu":"Sirak","id":1884053544,"name:es":"Shirak"},"coordinates":[3885,4083]}]},"transit":{"type":"GeometryCollection","geometries":[]},"pois":{"type":"GeometryCollection","geometries":[]},"boundaries":{"type":"GeometryCollection","geometries":[{"type":"LineString","properties":{"source":"naturalearthdata.com","kind":"disputed","sort_rank":261,"kind_detail":"2","min_zoom":0.0,"id":18},"arcs":[0]},{"type":"LineString","properties":{"source":"naturalearthdata.com","kind":"country","sort_rank":262,"kind_detail":"2","min_zoom":0.0,"id":174},"arcs":[1]},{"type":"LineString","properties":{"source":"naturalearthdata.com","kind":"country","sort_rank":262,"kind_detail":"2","min_zoom":0.0,"id":175},"arcs":[2]},{"type":"LineString","properties":{"source":"naturalearthdata.com","kind":"country","sort_rank":262,"kind_detail":"2","min_zoom":0.0,"id":176},"arcs":[3]},{"type":"LineString","properties":{"source":"naturalearthdata.com","kind":"country","sort_rank":262,"kind_detail":"2","min_zoom":0.0,"id":296},"arcs":[4]},{"type":"LineString","properties":{"source":"naturalearthdata.com","kind":"country","sort_rank":262,"kind_detail":"2","min_zoom":0.0,"id":298},"arcs":[5]},{"type":"LineString","properties":{"source":"naturalearthdata.com","kind":"country","sort_rank":262,"kind_detail":"2","min_zoom":0.0,"id":299},"arcs":[6]},{"type":"LineString","properties":{"source":"naturalearthdata.com","kind":"disputed","sort_rank":261,"kind_detail":"2","min_zoom":0.0,"id":3},"arcs":[7]},{"type":"LineString","properties":{"source":"naturalearthdata.com","kind":"disputed","sort_rank":261,"kind_detail":"2","min_zoom":0.0,"id":4},"arcs":[8]},{"type":"LineString","properties":{"source":"naturalearthdata.com","kind":"disputed","sort_rank":261,"kind_detail":"2","min_zoom":0.0,"id":5},"arcs":[9]},{"type":"LineString","properties":{"source":"naturalearthdata.com","kind":"disputed","sort_rank":261,"kind_detail":"2","min_zoom":0.0,"id":6},"arcs":[10]},{"type":"LineString","properties":{"source":"naturalearthdata.com","kind":"disputed","sort_rank":261,"kind_detail":"2","min_zoom":0.0,"id":7},"arcs":[11]},{"type":"LineString","properties":{"source":"naturalearthdata.com","kind":"country","sort_rank":262,"kind_detail":"2","min_zoom":0.0,"id":19},"arcs":[12]},{"type":"LineString","properties":{"source":"naturalearthdata.com","kind":"country","sort_rank":262,"kind_detail":"2","min_zoom":0.0,"id":49},"arcs":[13]},{"type":"LineString","properties":{"source":"naturalearthdata.com","kind":"country","sort_rank":262,"kind_detail":"2","min_zoom":0.0,"id":70},"arcs":[14]},{"type":"LineString","properties":{"source":"naturalearthdata.com","kind":"country","sort_rank":262,"kind_detail":"2","min_zoom":0.0,"id":66},"arcs":[15]},{"type":"LineString","properties":{"source":"naturalearthdata.com","kind":"country","sort_rank":262,"kind_detail":"2","min_zoom":0.0,"id":159},"arcs":[16]},{"type":"LineString","properties":{"source":"naturalearthdata.com","kind":"country","sort_rank":262,"kind_detail":"2","min_zoom":0.0,"id":167},"arcs":[17]},{"type":"LineString","properties":{"source":"naturalearthdata.com","kind":"country","sort_rank":262,"kind_detail":"2","min_zoom":0.0,"id":173},"arcs":[18]},{"type":"LineString","properties":{"source":"naturalearthdata.com","kind":"country","sort_rank":262,"kind_detail":"2","min_zoom":0.0,"id":214},"arcs":[19]},{"type":"LineString","properties":{"source":"naturalearthdata.com","kind":"country","sort_rank":262,"kind_detail":"2","min_zoom":0.0,"id":245},"arcs":[20]},{"type":"LineString","properties":{"source":"naturalearthdata.com","kind":"country","sort_rank":262,"kind_detail":"2","min_zoom":0.0,"id":274},"arcs":[21]},{"type":"LineString","properties":{"source":"naturalearthdata.com","kind":"country","sort_rank":262,"kind_detail":"2","min_zoom":0.0,"id":275},"arcs":[22]},{"type":"LineString","properties":{"source":"naturalearthdata.com","kind":"country","sort_rank":262,"kind_detail":"2","min_zoom":0.0,"id":277},"arcs":[23]},{"type":"LineString","properties":{"source":"naturalearthdata.com","kind":"country","sort_rank":262,"kind_detail":"2","min_zoom":0.0,"id":294},"arcs":[24]},{"type":"LineString","properties":{"source":"naturalearthdata.com","kind":"country","sort_rank":262,"kind_detail":"2","min_zoom":0.0,"id":295},"arcs":[25]},{"type":"LineString","properties":{"source":"naturalearthdata.com","kind":"country","sort_rank":262,"kind_detail":"2","min_zoom":0.0,"id":297},"arcs":[26]}]},"roads":{"type":"GeometryCollection","geometries":[]},"earth":{"type":"GeometryCollection","geometries":[{"type":"MultiPolygon","properties":{"sort_rank":10,"source":"naturalearthdata.com","min_zoom":0.0,"kind":"earth","area":20608498557297},"arcs":[[[137]],[[138]],[[139]],[[140]],[[141]],[[142]],[[143]],[[144]],[[145]],[[146]],[[147]],[[148]],[[149]],[[150]],[[151]],[[152]],[[153]],[[154]],[[155]],[[156]],[[157]],[[158]],[[159]],[[160]],[[161]],[[162]],[[163]],[[164]],[[165]],[[166]],[[167]],[[168]],[[169]],[[170]],[[171]],[[172]],[[173]]]}]},"landuse":{"type":"GeometryCollection","geometries":[{"type":"MultiPolygon","properties":{"kind":"park","name":"\u0395\u03b8\u03bd\u03b9\u03ba\u03cc \u03c0\u03ac\u03c1\u03ba\u03bf \u0391\u03bd\u03b1\u03c4\u03bf\u03bb\u03b9\u03ba\u03ae\u03c2 \u039c\u03b1\u03ba\u03b5\u03b4\u03bf\u03bd\u03af\u03b1\u03c2 \u03ba\u03b1\u03b9 \u0398\u03c1\u03ac\u03ba\u03b7\u03c2","area":1672640000,"sort_rank":24,"source":"openstreetmap.org","min_zoom":4.0,"tier":2,"id":-1850516,"osm_relation":true},"arcs":[[[174]],[[175]]]},{"type":"Polygon","properties":{"kind":"park","name":"\u0395\u03b8\u03bd\u03b9\u03ba\u03cc \u03a0\u03ac\u03c1\u03ba\u03bf \u039a\u03bf\u03c1\u03ce\u03bd\u03b5\u03b9\u03b1\u03c2-\u0392\u03cc\u03bb\u03b2\u03b7\u03c2","area":3321370112,"sort_rank":24,"source":"openstreetmap.org","min_zoom":4.0,"tier":2,"id":-1850515,"osm_relation":true},"arcs":[[176]]},{"type":"Polygon","properties":{"kind":"protected_area","name":"\u05e9\u05de\u05d5\u05e8\u05ea \u05d8\u05d1\u05e2 \u05d4\u05e8 \u05d4\u05e0\u05d2\u05d1","area":1357120000,"sort_rank":17,"source":"openstreetmap.org","min_zoom":4.0,"tier":2,"id":-4726674,"osm_relation":true,"protect_class":"1"},"arcs":[[177]]},{"type":"MultiPolygon","properties":{"source":"naturalearthdata.com","kind":"urban_area","name":"","area":69457956710,"sort_rank":11,"min_zoom":4.0},"arcs":[[[178]],[[179]],[[180]],[[181]],[[182]],[[183]],[[184]],[[185]],[[186]],[[187]],[[188]],[[189]],[[190]],[[191]],[[192]],[[193]],[[194]],[[195]],[[196]],[[197]],[[198]],[[199]],[[200]],[[201]],[[202]],[[203]],[[204]],[[205]],[[206]],[[207]],[[208]],[[209]],[[210]],[[211]],[[212]],[[213]],[[214]],[[215]],[[216]],[[217]],[[218]],[[219]],[[220]],[[221]],[[222]],[[223]],[[224]],[[225]],[[226]],[[227]],[[228]],[[229]],[[230]],[[231]],[[232]],[[233]],[[234]],[[235]],[[236]],[[237]],[[238]],[[239]],[[240]],[[241]],[[242]],[[243]],[[244]],[[245]],[[246]],[[247]],[[248]],[[249]],[[250]],[[251]],[[252]],[[253]]]},{"type":"Polygon","properties":{"kind":"nature_reserve","name":"\u0395\u03b8\u03bd\u03b9\u03ba\u03cc \u0398\u03b1\u03bb\u03ac\u03c3\u03c3\u03b9\u03bf \u03a0\u03ac\u03c1\u03ba\u03bf \u0392. \u03a3\u03c0\u03bf\u03c1\u03ac\u03b4\u03c9\u03bd","area":3848290048,"sort_rank":23,"source":"openstreetmap.org","min_zoom":4.0,"tier":2,"id":137321314,"protect_class":"6"},"arcs":[[254]]},{"type":"Polygon","properties":{"kind":"park","name":"Bey\u015fehir G\u00f6l\u00fc Mill\u00ee Park\u0131","area":1355160064,"sort_rank":24,"source":"openstreetmap.org","min_zoom":4.0,"tier":2,"id":-1715974,"osm_relation":true},"arcs":[[255]]},{"type":"Polygon","properties":{"source":"naturalearthdata.com","kind":"urban_area","area":92367288,"sort_rank":11,"min_zoom":4.0,"id":737},"arcs":[[256]]},{"type":"Polygon","properties":{"kind":"park","name":"A\u011fr\u0131 Da\u011f\u0131 Mill\u00ee Park\u0131","area":1396809984,"sort_rank":24,"source":"openstreetmap.org","min_zoom":4.0,"tier":2,"id":126594984},"arcs":[[257]]},{"type":"Polygon","properties":{"kind":"nature_reserve","name":"Wadi Al Rayyan National Park","area":2378429952,"sort_rank":23,"source":"openstreetmap.org","min_zoom":4.0,"tier":2,"id":220289516},"arcs":[[258]]}]}},"type":"Topology","transform":{"translate":[22.5,21.9430455334],"scale":[0.0054931641,0.0046476691]},"arcs":[[[2434,2472],[-5,-4],[-10,-9],[-10,-8],[-19,-13],[-5,-7]],[[2358,2052],[-5,-33],[-5,-21],[2,-3],[6,-18],[-11,-32],[-11,-26],[-4,-13],[-11,-28],[-12,-32],[-6,-22],[2,-8],[-3,-40],[1,-12],[-13,-35],[-3,-18],[-5,-23],[-9,-50]],[[2376,2249],[4,-34],[-7,-29],[-1,-25],[5,-48],[-11,-20],[-6,-23],[-2,-18]],[[2387,2311],[-3,-3],[-4,-6],[-1,-5],[-3,-48]],[[2387,2311],[22,10],[10,1]],[[2267,1594],[38,-7],[32,-5],[47,-9],[48,-9],[28,-5],[10,3],[39,33],[35,30],[21,37],[21,35],[9,8],[31,6],[50,11],[49,10],[4,4],[11,29],[15,36],[3,4],[4,3],[35,21],[21,12],[-30,37],[-29,34],[-32,38],[-27,30],[-41,45],[-27,29],[47,14],[50,15],[52,16],[61,18],[48,14],[72,21],[35,11],[6,2],[27,26]],[[4096,1555],[-52,5],[-4,2],[-60,50],[-48,40],[-59,49],[-61,51],[-61,51],[-45,37],[-54,48],[-50,44],[-39,34],[-50,30],[-39,24],[-57,34],[-45,27],[-39,24],[-60,36],[-20,10],[-62,12],[-59,10],[-61,11],[-41,7]],[[2138,1994],[19,18],[0,15],[32,35],[0,3],[-9,10]],[[2376,2249],[-12,1],[-15,11],[-3,9],[-5,3],[-10,1],[-20,5],[-24,-16],[-10,-26],[-2,-13],[-7,-26],[2,-15],[2,-21],[2,-17],[-2,-10],[-5,-5],[1,-4],[4,-2],[13,5],[14,-5],[13,-8],[1,-6],[-10,-3],[-21,-13],[-15,-16],[-4,-14],[-11,-30],[2,-6],[5,-4],[35,4],[32,12],[24,13],[8,-1]],[[2295,2397],[21,2],[16,-3],[18,-1],[15,10],[8,28],[8,4],[4,-6]],[[2419,2322],[2,10],[11,17],[10,19],[-6,11],[-2,8],[0,11],[7,10],[-4,12],[-5,13],[-4,6],[0,11],[3,9],[3,13]],[[2094,2823],[-7,-1],[-11,6],[-7,1],[-6,-5],[-7,-4],[-7,-2],[-5,-1],[-10,-4],[-11,1],[-16,4],[-9,-9],[-2,1],[-2,21],[-5,9],[-8,4],[-10,-2],[-14,1],[-11,4],[-20,-6],[-17,-7],[-12,-6],[-9,1],[-16,5],[-11,7],[-2,5]],[[2434,2472],[8,7],[2,8],[8,7],[10,6],[2,5],[-2,3],[-10,5],[-5,10],[5,14],[3,4],[6,7],[13,10],[11,2],[9,0],[15,-1],[12,-2],[3,3],[0,3],[-15,8],[-1,7],[4,7],[10,12],[13,8],[6,1],[14,17],[9,19],[-15,45],[-8,7],[-15,7],[-8,1],[-1,3],[11,11],[8,10],[-9,10],[-15,4],[-6,-10],[-21,-1],[-32,1]],[[4054,3821],[18,4],[24,8]],[[4053,3270],[1,3],[-2,13],[7,12],[0,4],[-15,15],[-20,14],[-6,2],[0,16],[1,11],[-2,11],[-4,6],[0,4],[8,12],[-5,7],[-30,18],[-11,9],[-20,2],[-3,6],[4,13],[7,15],[11,15],[3,8],[5,14],[1,10],[13,13],[0,4],[-4,5],[-10,2],[-10,1],[-4,3],[-1,7],[1,30],[-3,18],[-4,13],[2,29],[-7,6],[-11,15],[-5,13],[3,5],[2,8],[2,11],[-1,8],[-10,8],[-8,8],[-1,9],[-3,11],[-4,9],[-2,5],[4,4],[15,2],[21,-2],[17,0],[10,6],[12,52],[11,14],[13,8],[25,-18],[10,-7],[7,0]],[[3615,3263],[18,4],[33,26],[19,25],[6,2],[17,-8],[12,-2],[29,9],[17,-5],[14,-6],[8,-1],[38,-15],[9,-2],[20,-1],[29,-1],[19,10],[13,9],[10,0],[9,-2],[7,-4],[7,-8],[3,-10],[-1,-32],[3,-9],[5,-6],[6,-1],[8,7],[14,10],[17,11],[13,11],[7,4],[12,-1],[11,-2],[6,-5]],[[700,4096],[-3,-5],[-16,-16],[-11,-12],[-13,-17],[-7,-2],[-6,-2]],[[3835,4096],[5,-3],[7,-8],[12,-29],[4,-16],[-1,-15],[-9,-16],[-17,-20],[4,-8],[4,-11],[-1,-8],[12,-25],[6,-16],[-5,-4],[-3,-5],[23,-12],[27,-10],[12,-2],[31,5],[21,1],[20,-10],[29,-23],[32,-30],[6,-10],[3,-4],[6,-7],[4,-5],[29,-44]],[[2438,3007],[14,-2],[29,-17],[5,1],[8,22],[9,8],[18,6],[5,36],[8,7],[10,4],[16,1],[14,2],[0,6],[-19,42],[2,10],[9,42],[6,17],[5,5],[22,-2],[30,-7],[8,-12],[15,-11],[22,1],[25,-2],[20,-1],[16,7],[36,15],[18,4],[16,6],[52,23],[20,-1],[15,-3],[10,-4],[25,-16],[20,-16],[14,-4],[26,0],[36,-3],[46,0],[26,5],[34,7],[60,19],[79,40],[46,19],[20,2],[26,0],[26,-5],[30,-3],[14,0],[32,4],[41,8],[26,6],[32,11],[19,18],[7,2],[8,-4],[4,-1],[8,-10],[8,-26]],[[2130,2018],[2,-6],[6,-18],[15,-46],[14,-36],[16,-50],[5,-19],[2,-13],[23,-55],[14,-45],[11,-37],[14,-53],[6,-19]],[[4053,3270],[0,-1],[6,-16],[15,-56],[9,-8],[10,-6],[3,-4]],[[452,11],[0,-11]],[[483,2090],[-8,-6],[-9,-13],[-7,-12],[-17,-18],[-14,-20],[2,-29],[3,-30],[9,-29],[8,-32],[-2,-21],[-7,-26],[-8,-22],[-28,-45],[-4,-10],[2,-15],[16,-53],[2,-17],[10,-51],[9,-42],[10,-32],[2,-9],[0,-49],[0,-48],[0,-48],[0,-49],[0,-48],[0,-48],[0,-49],[0,-48],[0,-48],[0,-49],[0,-48],[0,-48],[0,-49],[0,-48],[0,-48],[0,-49],[0,-48],[0,-48],[0,-49],[0,-48],[0,-48],[0,-48],[0,-49],[0,-48],[0,-48],[0,-49],[0,-48],[0,-48],[0,-49],[0,-48],[0,-48],[0,-49]],[[452,11],[69,0],[70,0],[69,0],[70,0],[69,0],[70,0],[69,0],[70,0],[69,0],[70,0],[70,0],[69,0],[70,0],[69,0],[70,0],[69,0],[21,0],[10,2],[18,40],[7,3],[12,-3],[4,-9],[-4,-14],[-6,-19],[35,0],[59,0],[60,0],[60,0],[59,0],[60,0],[60,0],[60,0],[59,0],[60,0],[60,0],[60,0],[59,0],[60,1],[60,0],[60,0],[59,0]],[[3615,3263],[0,-3],[-1,-7],[-21,-22],[-28,-29],[-20,-18],[-34,-31],[-25,-7],[-42,-11],[-12,-11],[-10,-17],[-7,-24],[-1,-15],[-1,-28],[9,-29],[10,-27],[1,-19],[-1,-18],[-9,-19],[-10,-27],[-6,-30],[-3,-56],[0,-48],[-1,-7],[-17,-34],[-21,-39],[-9,-10],[-45,-11],[-48,-29],[-55,-33],[-50,-29],[-52,-31],[-53,-32],[-39,-22],[-51,-31]],[[2419,2322],[19,-5],[12,-10],[18,-28],[30,-9],[11,-8],[16,-15],[20,-5],[62,-10],[49,32],[41,27],[48,31],[32,20],[55,36],[36,22],[48,30],[47,29]],[[3030,2191],[27,25],[-8,23],[-20,-4],[-18,-5],[-11,36],[14,4],[-13,47],[-13,48],[-12,46],[-13,48]],[[2382,2105],[-3,-33],[-4,-46],[-5,-7],[-17,0],[-4,5],[0,31],[3,27],[8,20],[11,9],[6,2],[5,-8]],[[3730,3529],[-12,10],[-2,8],[-6,10],[-4,2],[-14,-5],[-18,-1],[-17,5],[-9,2],[-34,2],[2,11],[13,13],[4,7],[0,11],[13,11],[35,8],[23,3],[16,0],[26,3],[16,8],[-1,5],[-6,3],[-7,-1],[-2,8],[14,7],[24,3],[27,5],[23,-2],[9,-6],[-14,-11],[-27,-13],[-17,-5],[-15,-21],[-4,-24],[18,-12],[6,-13],[-15,-18],[-16,-15],[-11,-2],[-18,4]],[[1995,3639],[12,-9],[13,-3],[14,-19],[-10,-29],[-15,-12],[-21,8],[-17,11],[-17,12],[-14,23],[11,22],[14,20],[3,19],[-1,15],[8,-1],[14,-14],[5,-14],[-2,-11],[3,-18]],[[1149,4096],[47,0],[2,-4],[6,-5],[27,-20],[19,-8],[79,-10],[9,0],[-1,-5],[-61,-6],[-83,-13],[-17,-4],[-31,-21],[9,-7],[10,-4],[15,-3],[14,-10],[-8,-7],[-49,0],[-20,-3],[-62,6],[-60,-7],[-6,2],[7,12],[5,7],[-1,4],[-21,6],[-19,-1],[-7,-6],[22,-22],[-11,-6],[-11,-5],[-46,-2],[-26,12],[-4,8],[-5,9],[-30,-1],[-20,-12],[-49,1],[-48,-43],[-30,-37],[-24,-8],[-6,-25],[1,-47],[-9,-19],[-1,-10],[3,-11],[43,3],[24,8],[63,9],[13,-3],[2,-7],[-18,-21],[-18,-17],[-6,-10],[7,-7],[25,-31],[-1,-13],[-8,-9],[2,-11],[9,-9],[10,3],[9,-3],[8,-7],[-19,-24],[-22,-9],[-5,-5],[5,-11],[1,-7],[8,-15],[12,-17],[12,-7],[31,1],[-8,-8],[-43,-9],[-17,3],[-7,7],[-6,-3],[-4,-15],[-6,4],[-9,14],[3,15],[-4,15],[-13,15],[-14,3],[-11,-4],[-1,-13],[10,-26],[-2,-16],[-13,0],[-10,-20],[8,-7],[17,-6],[18,-11],[10,-3],[7,6],[11,5],[23,-13],[13,-18],[12,1],[39,-16],[14,-2],[4,-20],[-6,-34],[-27,-8],[-1,-7],[14,-11],[10,-25],[3,-22],[13,-8],[16,-2],[4,-7],[22,-13],[3,-18],[-31,-9],[-12,1],[-9,-10],[2,-22],[9,1],[7,8],[58,-3],[85,5],[19,0],[-3,-7],[-26,-16],[-14,-19],[-13,-5],[-55,-5],[-14,-6],[-16,-3],[-2,-7],[16,-6],[21,-2],[27,13],[51,3],[-13,-17],[1,-8],[17,3],[15,8],[20,27],[32,-2],[43,-22],[18,-5],[14,-1],[14,9],[12,-4],[4,-12],[1,-11],[9,-15],[5,-26],[15,-16],[23,-14],[62,-22],[18,3],[53,17],[28,13],[11,-5],[17,-9],[11,6],[6,8],[4,31],[10,16],[4,58],[12,15],[55,-4],[53,-6],[21,-4],[77,-41],[44,-16],[20,-19],[28,-39],[17,-18],[29,-18],[47,-14],[25,13],[31,2],[62,10],[15,-2],[31,9],[47,24],[13,10],[50,57],[55,38],[19,7],[19,-4],[24,-15],[43,-20],[39,-13],[26,5],[16,12],[7,15],[13,9],[12,3],[19,15],[27,13],[15,-12],[8,-10],[2,-14],[0,-18],[-29,-29],[-27,-25],[-13,-21],[14,-32],[13,-35],[-12,-17],[-10,-15],[-13,-60],[25,-32],[2,-15],[1,-11],[4,-16],[-9,-36],[-1,-24],[2,-20],[14,-48],[1,-18],[-11,-12],[-21,-12],[-29,-40],[-6,-47],[-18,-33],[-32,-81],[-16,-23],[-8,-29],[-9,-22],[-9,-16],[-5,-25],[-13,-30],[-16,-46],[-21,-90],[-23,-65],[-35,-65],[-2,-1],[-16,-22],[-34,-35],[-4,-4],[-50,-26],[-43,-11],[-53,0],[-33,-10],[-7,9],[-5,9],[-41,-12],[-9,1],[-31,-9],[-15,-1],[-13,6],[-38,34],[-13,8],[-6,0],[5,-10],[7,-10],[-14,-18],[-19,-5],[-7,13],[-10,14],[-19,4],[-24,12],[19,26],[3,15],[33,-30],[11,-1],[-31,35],[-14,8],[-9,-3],[-42,-15],[-15,0],[-60,28],[-21,4],[-5,-3],[-4,-18],[-5,-10],[-29,-5],[-26,-7],[-25,2],[58,23],[7,10],[-64,-21],[-32,-3],[-9,-12],[-6,-9],[-9,-9],[-7,-13],[-17,0],[-15,2],[-21,-8],[-62,-47],[-30,-18],[-27,-13],[-22,-7],[-16,-1],[-18,6],[-30,18],[-53,24],[-100,10],[-25,21],[-38,-1],[-14,4],[-54,36],[-87,20],[-57,9],[-102,23],[-93,-23],[-29,5],[-13,26],[-7,12],[-16,37],[-14,15],[-13,6],[-35,7],[-38,-4],[-63,3],[-17,6],[-25,19],[-19,7],[-93,12],[-33,25],[1,14],[4,11],[-7,37],[-32,15],[-30,11],[-42,12],[-4,2],[0,814],[20,41],[20,3],[11,-1],[9,-22],[28,-34],[14,-9],[8,-7],[10,-1],[-9,21],[-13,21],[6,28],[-2,17],[-12,35],[-26,59],[-16,22],[-7,32],[9,10],[14,-12],[16,-3],[14,-8],[15,-9],[0,-16],[11,-6],[8,3],[9,6],[43,13],[0,5],[-6,8],[-9,9],[-2,8],[-9,4],[-15,0],[-12,5],[-9,21],[0,17],[-11,12],[-9,6],[2,5],[7,2],[19,10],[42,7],[14,9],[7,0],[8,-5],[27,-27],[27,-23],[17,-22],[9,1],[6,6],[1,14],[0,10],[-5,29],[-1,40],[-4,19],[-7,10],[-24,11],[-27,6],[-21,29],[-37,8],[-21,29],[-21,2],[-21,15],[-45,13],[-16,11],[-10,0],[-11,3],[5,5],[14,2],[23,1],[23,10],[25,19],[-18,-1],[-5,17],[-10,13],[-8,19],[15,10],[13,5],[30,-16],[2,-10],[-9,-16],[6,-7],[12,0],[20,16],[-7,24],[-10,15],[-24,29],[-23,15],[-11,14],[-15,37],[-44,51],[-4,18],[6,34],[7,19],[-3,13],[1,15],[20,9],[13,9],[20,2],[-5,-14],[-8,-7],[8,-20],[37,-20],[39,-19],[3,-27],[12,-22],[42,-14],[6,2],[3,5],[-38,25],[-6,9],[-9,23],[8,9],[43,-9],[31,-43],[20,-12],[7,6],[3,6],[-6,20],[-9,9],[-17,10],[-19,18],[2,9],[17,8],[16,-2],[26,-12],[19,-5],[13,-14],[21,-14],[-10,20],[-14,19],[-33,17],[-18,-1],[-12,3],[-7,14],[9,13],[-18,18],[-7,11],[4,15],[33,0],[25,-5],[28,13],[27,28],[17,7],[14,-3],[23,-14],[20,-2],[39,23],[8,3],[16,0],[21,-10],[13,2],[32,-12],[65,-9],[28,-16],[5,-9],[5,-10],[7,-15],[22,1],[25,-2],[39,4],[39,0],[-13,-18],[-49,-21],[-17,-12],[-19,-16],[0,-14],[2,-10],[-7,-13],[-4,-15],[13,5],[10,6],[25,29],[56,51],[37,15],[51,26],[32,33],[12,29],[8,1],[220,0],[5,-1],[6,1]],[[530,3112],[-3,-6],[-4,-4],[11,-4],[9,11],[-3,9],[-10,8],[-3,-1],[4,-5],[-1,-8]],[[986,3099],[-18,-15],[-8,-13],[-10,-10],[0,-6],[7,-16],[-8,-24],[6,-10],[4,0],[14,4],[22,26],[22,4],[-3,13],[13,18],[16,34],[0,14],[-11,-2],[-46,-17]],[[860,2986],[-12,-7],[0,-13],[-16,-28],[8,-19],[-3,-11],[7,-11],[7,12],[11,3],[-5,18],[-9,15],[9,18],[3,23]],[[2105,2911],[-83,-25],[-27,-4],[-27,1],[-34,3],[-33,7],[-3,-24],[-8,-21],[-20,-4],[-11,2],[-11,3],[-17,-6],[-15,-14],[-15,-9],[-17,7],[3,-28],[18,-37],[6,-11],[10,-5],[35,-12],[10,0],[21,2],[9,-5],[5,-13],[12,-1],[3,6],[0,8],[7,8],[9,5],[12,0],[21,5],[22,7],[18,12],[34,35],[11,1],[11,-2],[21,1],[21,4],[-5,12],[-4,4],[-13,17],[-4,13],[6,19],[95,65],[17,15],[-27,-7],[-25,-13],[-14,-5],[-24,-16]],[[566,2811],[40,4],[40,-3],[21,1],[15,6],[2,11],[4,14],[4,23],[3,10],[-6,-1],[-21,-20],[-26,0],[-24,-8],[-10,-10],[-9,-2],[-8,4],[-2,9],[4,31],[-5,4],[-29,-4],[-17,-5],[-33,7],[-35,2],[-18,14],[-52,3],[-17,-3],[-17,-7],[-16,-3],[-16,-1],[-8,1],[-7,4],[-3,8],[0,10],[-14,-2],[-11,5],[-2,3],[3,3],[13,6],[-6,12],[-13,0],[-11,-12],[-4,-2],[-16,0],[-13,2],[-11,4],[-4,17],[-6,4],[-4,-11],[0,-11],[-8,-8],[-8,3],[-3,8],[-7,-7],[-4,-25],[2,-26],[6,-8],[8,-5],[12,0],[33,2],[20,-5],[85,-13],[22,-10],[23,-5],[5,-7],[1,-10],[1,-13],[10,-4],[74,6],[73,10]],[[91,3095],[-9,12],[-3,-3],[-5,-11],[1,-21],[5,-10],[19,-6],[2,9],[8,13],[-18,17]],[[697,3135],[10,10],[14,5],[-7,9],[-9,3],[2,-7],[-8,-6],[-13,4],[0,-11],[11,-7]],[[963,3150],[9,-10],[4,4],[1,6],[1,8],[-2,4],[-4,-1],[-10,-6],[1,-5]],[[332,3166],[38,6],[1,4],[0,13],[-14,-4],[-2,-4],[-5,-3],[-12,7],[-2,-5],[-4,-14]],[[508,3180],[13,-14],[4,4],[4,9],[-20,15],[-7,-6],[6,-8]],[[590,3194],[5,-1],[17,2],[22,19],[15,5],[-12,7],[-10,-11],[-17,-8],[-3,-5],[-7,-4],[-10,-4]],[[404,3223],[8,6],[-9,16],[-6,-1],[-2,-5],[1,-8],[5,-9],[3,1]],[[479,3240],[12,-2],[15,16],[-1,4],[0,11],[-7,3],[-16,-9],[-8,-16],[5,-7]],[[368,3267],[3,9],[-2,5],[-8,4],[-8,-5],[-3,-12],[12,-5],[6,4]],[[551,3282],[-30,-27],[6,-19],[11,-11],[16,8],[7,15],[1,24],[-4,8],[-7,2]],[[808,3245],[-3,-17],[18,3],[2,4],[2,5],[-5,2],[-9,9],[-14,7],[9,-13]],[[830,3205],[-19,-14],[-7,-10],[6,0],[15,9],[22,2],[7,7],[29,12],[-15,8],[-10,-1],[-28,-13]],[[352,3314],[9,13],[-6,9],[-3,6],[-7,-5],[-5,-7],[5,-8],[-3,-15],[10,7]],[[439,3324],[5,0],[1,22],[-7,3],[-2,-13],[0,-9],[3,-3]],[[512,3345],[-1,-16],[17,1],[10,6],[1,5],[-21,8],[-6,-4]],[[691,3373],[10,12],[-5,-1],[-20,-7],[-23,-1],[-16,-15],[-3,-8],[8,1],[32,8],[17,11]],[[326,3353],[12,11],[8,15],[-4,8],[-11,-1],[-7,-17],[2,-16]],[[768,3391],[13,-10],[10,-3],[24,12],[14,2],[-3,13],[-10,3],[-6,-1],[-23,7],[-15,0],[-19,-6],[-10,-13],[6,-2],[19,-2]],[[472,3379],[-10,7],[-8,-1],[4,-6],[7,-7],[19,-15],[11,-2],[7,14],[-6,6],[-24,4]],[[452,3411],[-6,13],[1,10],[-18,2],[-12,17],[-5,-1],[-11,-5],[2,-14],[10,-6],[5,-10],[16,-12],[14,-16],[6,14],[-2,8]],[[371,3450],[7,9],[2,23],[-4,5],[-18,-1],[-19,4],[-16,12],[-10,26],[-6,27],[4,8],[-2,8],[-8,10],[-5,13],[-5,5],[-40,4],[-35,16],[-9,2],[-20,9],[-10,8],[-10,23],[-19,17],[-10,-1],[-20,-6],[-29,-19],[-22,-10],[2,-5],[10,-1],[17,7],[21,-6],[20,-10],[20,-14],[19,-17],[7,-9],[9,-7],[11,-6],[6,-24],[20,-9],[23,0],[28,-2],[1,-4],[4,-8],[7,-4],[7,-16],[8,-8],[1,-12],[4,-7],[19,-12],[8,-9],[10,-1],[5,-2],[5,-5],[6,-3],[6,2]],[[666,3676],[42,-12],[14,0],[15,5],[-8,8],[-3,9],[8,-2],[9,-7],[3,4],[-4,13],[-8,13],[-25,21],[3,13],[-12,11],[-33,-2],[0,-9],[-14,-6],[-11,-4],[-21,1],[-12,-19],[2,-5],[9,-8],[30,-9],[19,21],[18,1],[-5,-8],[-25,-18],[9,-11]],[[225,3687],[8,8],[-34,20],[13,-24],[13,-4]],[[253,3719],[-9,-17],[9,2],[9,9],[6,15],[-15,-9]],[[376,3658],[-15,8],[-2,-4],[-2,-16],[19,-12],[0,-3],[-4,-6],[5,-1],[19,5],[-17,15],[-3,14]],[[617,3507],[20,-17],[17,12],[2,3],[1,10],[9,5],[-2,36],[-1,3],[3,12],[-9,1],[-18,12],[-30,-6],[1,-14],[20,-20],[6,-13],[-7,-11],[-15,-7],[3,-6]],[[535,3882],[2,11],[-14,-4],[-5,-7],[-11,-6],[-9,10],[-32,-1],[-1,-5],[2,-14],[-1,-13],[12,-5],[11,1],[3,4],[4,9],[5,0],[0,-8],[2,-7],[6,-4],[11,1],[3,18],[5,12],[7,8]],[[633,3923],[-11,13],[-8,-1],[-24,-8],[-13,-13],[13,-6],[42,6],[1,9]],[[569,3991],[-10,5],[-22,-7],[22,-18],[21,6],[-4,8],[-7,6]],[[391,4010],[23,8],[-1,9],[3,10],[-2,5],[-10,12],[-17,2],[-7,-5],[-13,-18],[0,-9],[24,-14]],[[185,3452],[-6,1],[-4,-2],[-4,-9],[-4,-2],[3,-4],[6,-2],[8,0],[7,5],[-3,9],[-3,4]],[[0,3482],[0,57],[15,-10],[31,-12],[6,-6],[9,-6],[18,-7],[11,3],[7,-3],[11,-1],[10,-4],[6,-9],[-5,-8],[-6,-5],[-30,0],[-11,-5],[4,-10],[1,-10],[-14,2],[-8,3],[-16,14],[-29,14],[-10,3]],[[3244,4096],[-10,-4],[-25,-4],[-23,7],[-16,-2],[-16,3],[90,0]],[[2952,4096],[-29,-9],[-32,-3],[-61,12],[122,0]],[[3004,0],[-387,0],[-1,12],[0,4],[-7,17],[-76,64],[-34,51],[-57,23],[-12,10],[-9,14],[-18,21],[-25,70],[-7,37],[-4,72],[2,14],[5,17],[10,4],[7,2],[27,-3],[-29,28],[-26,19],[-15,25],[-37,44],[-62,143],[-32,65],[-21,53],[-43,72],[-50,113],[-17,22],[-12,86],[-8,29],[-9,18],[-19,15],[-7,20],[-19,38],[1,20],[-2,42],[-9,17],[-23,16],[-31,34],[-32,50],[-23,27],[-8,14],[-5,15],[-8,18],[-23,31],[-5,14],[2,41],[-8,30],[-6,14],[-30,31],[-7,21],[9,26],[15,22],[-3,16],[16,10],[15,-38],[14,-59],[8,-16],[8,-11],[11,-24],[37,-46],[10,-20],[14,-43],[-1,-18],[9,-28],[30,-38],[33,-29],[30,-45],[52,-47],[32,-13],[18,26],[14,28],[5,19],[4,54],[31,86],[22,111],[20,34],[10,10],[13,17],[1,-15],[-5,-29],[-28,-136],[-4,-46],[-17,-52],[-12,-25],[1,-18],[18,14],[19,-4],[46,-5],[18,-11],[45,-65],[28,-65],[33,-37],[17,-41],[32,-41],[12,-24],[28,-37],[49,-106],[29,-14],[4,-29],[11,-33],[18,-12],[11,-11],[42,-76],[12,-30],[5,-16],[4,-25],[-8,-19],[-7,-11],[28,-44],[17,-34],[21,-36],[17,-3],[14,0],[19,-19],[18,-1],[11,-13],[22,-14],[34,-32],[32,-42],[14,-34],[30,-54],[10,-24],[7,-31],[7,-13],[19,-23],[-11,0],[11,-17],[12,-7],[-1,-15],[11,-23],[6,-43],[-5,-22],[-6,-19],[-2,-37],[-4,-19]],[[2558,797],[-3,9],[-6,-9],[5,-10],[35,-14],[8,-8],[7,-10],[13,-15],[5,0],[9,7],[-5,2],[-32,29],[-29,13],[-7,6]],[[2563,829],[1,13],[-7,-10],[0,-16],[7,-8],[2,3],[0,5],[-3,13]],[[2371,1987],[-1,-5],[-2,-6],[-2,-5],[-7,-2],[-8,2],[-4,7],[-3,9],[1,8],[3,3],[9,1],[8,-6],[6,-6]],[[2391,2332],[-3,-7],[-7,-6],[-5,6],[-3,12],[1,11],[4,8],[7,1],[4,-4],[2,-10],[0,-11]],[[3892,2312],[-3,-17],[-13,-16],[-9,-1],[-13,5],[-8,6],[-9,3],[-17,10],[-8,16],[-3,20],[2,13],[3,2],[4,9],[-1,19],[7,11],[8,4],[6,-8],[25,-50],[18,-17],[11,-9]],[[3779,2536],[-11,13],[-17,27],[-6,43],[-1,31],[3,12],[6,3],[22,-40],[23,-22],[19,-19],[5,-14],[-3,-17],[0,-17],[-11,-5],[-16,2],[-13,3]],[[1772,157],[-12,2],[-7,1],[-6,-1],[-7,-4],[-7,-6],[-6,-8],[-5,-5],[-1,-9],[-3,-11],[-7,-9],[-8,-6],[-4,-7],[-1,-6],[-7,1],[-8,1],[-6,-2],[-3,-4],[-3,-1],[-3,-1],[-3,-3],[-1,-3],[1,-5],[-4,-7],[-13,-7],[-12,-10],[-8,-13],[-6,-9],[-4,-16],[-2,-9],[-13,0],[5,14],[7,20],[14,23],[26,28],[17,20],[4,5],[6,3],[8,3],[-6,11],[-13,15],[-1,5],[10,-5],[12,-7],[5,-1],[3,4],[5,6],[3,6],[5,4],[10,8],[11,8],[7,4],[5,3],[7,3],[7,2],[4,-2],[6,-2],[13,-10],[8,-7],[14,1],[16,13],[4,8],[3,8],[4,15],[3,6],[6,8],[4,8],[6,16],[6,16],[7,17],[9,9],[6,1],[2,3],[2,6],[2,5],[-1,9],[1,12],[-2,9],[-10,5],[-8,2],[-7,-4],[-8,-5],[-7,1],[-5,4],[10,8],[10,8],[-2,4],[-4,1],[-2,-3],[-3,-3],[-4,5],[6,10],[15,-2],[11,-9],[6,8],[4,12],[-2,7],[1,5],[4,6],[0,7],[-1,8],[-7,9],[-1,8],[11,17],[9,-10],[2,-32],[8,-21],[-1,-9],[-5,-2],[-6,-2],[-2,-5],[0,-6],[3,-3],[3,-1],[2,-2],[6,-6],[3,-4],[-10,0],[-5,-5],[4,-12],[7,-7],[2,-6],[1,-7],[2,-8],[0,-9],[0,-5],[-2,-1],[-7,2],[-7,2],[2,-10],[-4,-9],[-8,-1],[-2,-3],[0,-5],[3,-7],[6,-8],[7,-10],[9,-10],[-4,-5],[-20,10],[-14,13],[-7,-2],[-1,-5],[-3,-8],[-3,-5],[-3,-2],[-5,-3],[-6,-4],[-2,-2],[-1,-6],[-1,-10],[-4,-8],[-13,-13],[-15,-16],[-12,-10],[-6,-5],[-1,-6],[-6,-4],[-7,1],[-1,2],[4,4],[5,6],[-1,4],[-3,2],[-4,4],[-3,4],[-1,3]],[[3840,2445],[-5,-19],[-15,-6],[-9,2],[-6,12],[-18,12],[1,8],[13,19],[9,-10],[9,-11],[14,2],[7,-9]],[[668,2856],[-26,0],[-24,-8],[-10,-10],[-9,-2],[-8,4],[-2,9],[4,31],[-5,4],[-29,-4],[-17,-5],[-33,7],[-35,2],[-18,14],[-52,3],[-17,-3],[-17,-7],[-16,-3],[-16,-1],[-8,1],[-7,4],[-3,8],[0,10],[-14,-2],[-11,5],[-2,3],[3,3],[13,6],[-6,12],[-13,0],[-11,-12],[-4,-2],[-16,0],[-13,2],[-11,4],[-4,17],[-6,4],[-4,-11],[0,-11],[-8,-8],[-8,3],[-3,8],[-7,-7],[-4,-25],[2,-26],[6,-8],[8,-5],[12,0],[33,2],[20,-5],[85,-13],[22,-10],[23,-5],[5,-7],[1,-10],[1,-13],[10,-4],[74,6],[73,10],[40,4],[40,-3],[21,1],[15,6],[2,11],[4,14],[4,23],[3,10],[-6,-1],[-21,-20]],[[358,3486],[-19,4],[-16,12],[-10,26],[-6,27],[4,8],[-2,8],[-8,10],[-5,13],[-5,5],[-40,4],[-35,16],[-9,2],[-20,9],[-10,8],[-10,23],[-19,17],[-10,-1],[-20,-6],[-29,-19],[-22,-10],[2,-5],[10,-1],[17,7],[21,-6],[20,-10],[20,-14],[19,-17],[7,-9],[9,-7],[11,-6],[6,-24],[20,-9],[23,0],[28,-2],[1,-4],[4,-8],[7,-4],[7,-16],[8,-8],[1,-12],[4,-7],[19,-12],[8,-9],[10,-1],[5,-2],[5,-5],[6,-3],[6,2],[7,9],[2,23],[-4,5],[-18,-1]],[[2143,2932],[-14,-5],[-24,-16],[-83,-25],[-27,-4],[-27,1],[-34,3],[-33,7],[-3,-24],[-8,-21],[-20,-4],[-11,2],[-11,3],[-17,-6],[-15,-14],[-15,-9],[-17,7],[3,-28],[18,-37],[6,-11],[10,-5],[35,-12],[10,0],[21,2],[9,-5],[5,-13],[12,-1],[3,6],[0,8],[7,8],[9,5],[12,0],[21,5],[22,7],[18,12],[34,35],[11,1],[11,-2],[21,1],[21,4],[-5,12],[-4,4],[-13,17],[-4,13],[6,19],[95,65],[17,15],[-27,-7],[-25,-13]],[[3779,2536],[-11,13],[-17,27],[-6,43],[-1,31],[3,12],[6,3],[22,-40],[23,-22],[19,-19],[5,-14],[-3,-17],[0,-17],[-11,-5],[-16,2],[-13,3]],[[3892,2312],[-3,-17],[-13,-16],[-9,-1],[-13,5],[-8,6],[-9,3],[-17,10],[-8,16],[-3,20],[2,13],[3,2],[4,9],[-1,19],[7,11],[8,4],[6,-8],[25,-50],[18,-17],[11,-9]],[[2382,2105],[-3,-33],[-4,-46],[-5,-7],[-17,0],[-4,5],[0,31],[3,27],[8,20],[11,9],[6,2],[5,-8]],[[1995,3639],[12,-9],[13,-3],[14,-19],[-10,-29],[-15,-12],[-21,8],[-17,11],[-17,12],[-14,23],[11,22],[14,20],[3,19],[-1,15],[8,-1],[14,-14],[5,-14],[-2,-11],[3,-18]],[[3730,3529],[-12,10],[-2,8],[-6,10],[-4,2],[-14,-5],[-18,-1],[-17,5],[-9,2],[-34,2],[2,11],[13,13],[4,7],[0,11],[13,11],[35,8],[23,3],[16,0],[26,3],[16,8],[-1,5],[-6,3],[-7,-1],[-2,8],[14,7],[24,3],[27,5],[23,-2],[9,-6],[-14,-11],[-27,-13],[-17,-5],[-15,-21],[-4,-24],[18,-12],[6,-13],[-15,-18],[-16,-15],[-11,-2],[-18,4]],[[2626,749],[-32,29],[-29,13],[-7,6],[-3,9],[-6,-9],[5,-10],[35,-14],[8,-8],[7,-10],[13,-15],[5,0],[9,7],[-5,2]],[[2564,808],[2,3],[0,5],[-3,13],[1,13],[-7,-10],[0,-16],[7,-8]],[[4094,3996],[-3,6],[3,8],[-1,7],[3,0]],[[4096,3995],[-2,1]],[[1772,157],[-12,2],[-7,1],[-6,-1],[-7,-4],[-7,-6],[-6,-8],[-5,-5],[-1,-9],[-3,-11],[-7,-9],[-8,-6],[-4,-7],[-1,-6],[-7,1],[-8,1],[-6,-2],[-3,-4],[-3,-1],[-3,-1],[-3,-3],[-1,-3],[1,-5],[-4,-7],[-13,-7],[-12,-10],[-8,-13],[-6,-9],[-4,-16],[-2,-9]],[[1603,0],[5,14],[7,20],[14,23],[26,28],[17,20],[4,5],[6,3],[8,3],[-6,11],[-13,15],[-1,5],[10,-5],[12,-7],[5,-1],[3,4],[5,6],[3,6],[5,4],[10,8],[11,8],[7,4],[5,3],[7,3],[7,2],[4,-2],[6,-2],[13,-10],[8,-7],[14,1],[16,13],[4,8],[3,8],[4,15],[3,6],[6,8],[4,8],[6,16],[6,16],[7,17],[9,9],[6,1],[2,3],[2,6],[2,5],[-1,9],[1,12],[-2,9],[-10,5],[-8,2],[-7,-4],[-8,-5],[-7,1],[-5,4],[10,8],[10,8],[-2,4],[-4,1],[-2,-3],[-3,-3],[-4,5],[6,10],[15,-2],[11,-9],[6,8],[4,12],[-2,7],[1,5],[4,6],[0,7],[-1,8],[-7,9],[-1,8],[11,17],[9,-10],[2,-32],[8,-21],[-1,-9],[-5,-2],[-6,-2],[-2,-5],[0,-6],[3,-3],[3,-1],[2,-2],[6,-6],[3,-4],[-10,0],[-5,-5],[4,-12],[7,-7],[2,-6],[1,-7],[2,-8],[0,-9],[0,-5],[-2,-1],[-7,2],[-7,2],[2,-10],[-4,-9],[-8,-1],[-2,-3],[0,-5],[3,-7],[6,-8],[7,-10],[9,-10],[-4,-5],[-20,10],[-14,13],[-7,-2],[-1,-5],[-3,-8],[-3,-5],[-3,-2],[-5,-3],[-6,-4],[-2,-2],[-1,-6],[-1,-10],[-4,-8],[-13,-13],[-15,-16],[-12,-10],[-6,-5],[-1,-6],[-6,-4],[-7,1],[-1,2],[4,4],[5,6],[-1,4],[-3,2],[-4,4],[-3,4],[-1,3]],[[2371,1987],[-1,-5],[-2,-6],[-2,-5],[-7,-2],[-8,2],[-4,7],[-3,9],[1,8],[3,3],[9,1],[8,-6],[6,-6]],[[2391,2332],[-3,-7],[-7,-6],[-5,6],[-3,12],[1,11],[4,8],[7,1],[4,-4],[2,-10],[0,-11]],[[3840,2445],[-5,-19],[-15,-6],[-9,2],[-6,12],[-18,12],[1,8],[13,19],[9,-10],[9,-11],[14,2],[7,-9]],[[986,3099],[-18,-15],[-8,-13],[-10,-10],[0,-6],[7,-16],[-8,-24],[6,-10],[4,0],[14,4],[22,26],[22,4],[-3,13],[13,18],[16,34],[0,14],[-11,-2],[-46,-17]],[[848,2945],[9,18],[3,23],[-12,-7],[0,-13],[-16,-28],[8,-19],[-3,-11],[7,-11],[7,12],[11,3],[-5,18],[-9,15]],[[976,3162],[-4,-1],[-10,-6],[1,-5],[9,-10],[4,4],[1,6],[1,8],[-2,4]],[[827,3240],[-5,2],[-9,9],[-14,7],[9,-13],[-3,-17],[18,3],[2,4],[2,5]],[[830,3205],[-19,-14],[-7,-10],[6,0],[15,9],[22,2],[7,7],[29,12],[-15,8],[-10,-1],[-28,-13]],[[521,3255],[6,-19],[11,-11],[16,8],[7,15],[1,24],[-4,8],[-7,2],[-30,-27]],[[505,3269],[-7,3],[-16,-9],[-8,-16],[5,-7],[12,-2],[15,16],[-1,4],[0,11]],[[531,3120],[-1,-8],[-3,-6],[-4,-4],[11,-4],[9,11],[-3,9],[-10,8],[-3,-1],[4,-5]],[[521,3166],[4,4],[4,9],[-20,15],[-7,-6],[6,-8],[13,-14]],[[816,3408],[-6,-1],[-23,7],[-15,0],[-19,-6],[-10,-13],[6,-2],[19,-2],[13,-10],[10,-3],[24,12],[14,2],[-3,13],[-10,3]],[[676,3377],[-23,-1],[-16,-15],[-3,-8],[8,1],[32,8],[17,11],[10,12],[-5,-1],[-20,-7]],[[627,3215],[-17,-8],[-3,-5],[-7,-4],[-10,-4],[5,-1],[17,2],[22,19],[15,5],[-12,7],[-10,-11]],[[699,3149],[-13,4],[0,-11],[11,-7],[10,10],[14,5],[-7,9],[-9,3],[2,-7],[-8,-6]],[[324,3369],[2,-16],[12,11],[8,15],[-4,8],[-11,-1],[-7,-17]],[[345,3322],[-3,-15],[10,7],[9,13],[-6,9],[-3,6],[-7,-5],[-5,-7],[5,-8]],[[350,3178],[-12,7],[-2,-5],[-4,-14],[38,6],[1,4],[0,13],[-14,-4],[-2,-4],[-5,-3]],[[445,3346],[-7,3],[-2,-13],[0,-9],[3,-3],[5,0],[1,22]],[[446,3424],[1,10],[-18,2],[-12,17],[-5,-1],[-11,-5],[2,-14],[10,-6],[5,-10],[16,-12],[14,-16],[6,14],[-2,8],[-6,13]],[[484,3357],[11,-2],[7,14],[-6,6],[-24,4],[-10,7],[-8,-1],[4,-6],[7,-7],[19,-15]],[[396,3231],[5,-9],[3,1],[8,6],[-9,16],[-6,-1],[-2,-5],[1,-8]],[[639,3584],[-30,-6],[1,-14],[20,-20],[6,-13],[-7,-11],[-15,-7],[3,-6],[20,-17],[17,12],[2,3],[1,10],[9,5],[-2,36],[-1,3],[3,12],[-9,1],[-18,12]],[[734,3707],[-25,21],[3,13],[-12,11],[-33,-2],[0,-9],[-14,-6],[-11,-4],[-21,1],[-12,-19],[2,-5],[9,-8],[30,-9],[19,21],[18,1],[-5,-8],[-25,-18],[9,-11],[42,-12],[14,0],[15,5],[-8,8],[-3,9],[8,-2],[9,-7],[3,4],[-4,13],[-8,13]],[[225,3687],[8,8],[-34,20],[13,-24],[13,-4]],[[268,3728],[-15,-9],[-9,-17],[9,2],[9,9],[6,15]],[[379,3644],[-3,14],[-15,8],[-2,-4],[-2,-16],[19,-12],[0,-3],[-4,-6],[5,-1],[19,5],[-17,15]],[[559,3996],[-22,-7],[22,-18],[21,6],[-4,8],[-7,6],[-10,5]],[[523,3889],[-5,-7],[-11,-6],[-9,10],[-32,-1],[-1,-5],[2,-14],[-1,-13],[12,-5],[11,1],[3,4],[4,9],[5,0],[0,-8],[2,-7],[6,-4],[11,1],[3,18],[5,12],[7,8],[2,11],[-14,-4]],[[387,4056],[-7,-5],[-13,-18],[0,-9],[24,-14],[23,8],[-1,9],[3,10],[-2,5],[-10,12],[-17,2]],[[590,3927],[-13,-13],[13,-6],[42,6],[1,9],[-11,13],[-8,-1],[-24,-8]],[[184,3434],[7,5],[-3,9],[-3,4],[-6,1],[-4,-2],[-4,-9],[-4,-2],[3,-4],[6,-2],[8,0]],[[82,3107],[-3,-3],[-5,-11],[1,-21],[5,-10],[19,-6],[2,9],[8,13],[-18,17],[-9,12]],[[528,3330],[10,6],[1,5],[-21,8],[-6,-4],[-1,-16],[17,1]],[[361,3285],[-8,-5],[-3,-12],[12,-5],[6,4],[3,9],[-2,5],[-8,4]],[[0,3539],[15,-10],[31,-12],[6,-6],[9,-6],[18,-7],[11,3],[7,-3],[11,-1],[10,-4],[6,-9],[-5,-8],[-6,-5],[-30,0],[-11,-5],[4,-10],[1,-10],[-14,2],[-8,3],[-16,14],[-29,14],[-10,3]],[[0,3151],[20,41],[20,3],[11,-1],[9,-22],[28,-34],[14,-9],[8,-7],[10,-1],[-9,21],[-13,21],[6,28],[-2,17],[-12,35],[-26,59],[-16,22],[-7,32],[9,10],[14,-12],[16,-3],[14,-8],[15,-9],[0,-16],[11,-6],[8,3],[9,6],[43,13],[0,5],[-6,8],[-9,9],[-2,8],[-9,4],[-15,0],[-12,5],[-9,21],[0,17],[-11,12],[-9,6],[2,5],[7,2],[19,10],[42,7],[14,9],[7,0],[8,-5],[27,-27],[27,-23],[17,-22],[9,1],[6,6],[1,14],[0,10],[-5,29],[-1,40],[-4,19],[-7,10],[-24,11],[-27,6],[-21,29],[-37,8],[-21,29],[-21,2],[-21,15],[-45,13],[-16,11],[-10,0],[-11,3],[5,5],[14,2],[23,1],[23,10],[25,19],[-18,-1],[-5,17],[-10,13],[-8,19],[15,10],[13,5],[30,-16],[2,-10],[-9,-16],[6,-7],[12,0],[20,16],[-7,24],[-10,15],[-24,29],[-23,15],[-11,14],[-15,37],[-44,51],[-4,18],[6,34],[7,19],[-3,13],[1,15],[20,9],[13,9],[20,2],[-5,-14],[-8,-7],[8,-20],[37,-20],[39,-19],[3,-27],[12,-22],[42,-14],[6,2],[3,5],[-38,25],[-6,9],[-9,23],[8,9],[43,-9],[31,-43],[20,-12],[7,6],[3,6],[-6,20],[-9,9],[-17,10],[-19,18],[2,9],[17,8],[16,-2],[26,-12],[19,-5],[13,-14],[21,-14],[-10,20],[-14,19],[-33,17],[-18,-1],[-12,3],[-7,14],[9,13],[-18,18],[-7,11],[4,15],[33,0],[25,-5],[28,13],[27,28],[17,7],[14,-3],[23,-14],[20,-2],[39,23],[8,3]],[[480,4096],[21,-10],[13,2],[32,-12],[65,-9],[28,-16],[5,-9],[5,-10],[7,-15],[22,1],[25,-2],[39,4],[39,0],[-13,-18],[-49,-21],[-17,-12],[-19,-16],[0,-14],[2,-10],[-7,-13],[-4,-15],[13,5],[10,6],[25,29],[56,51],[37,15],[51,26],[32,33],[12,29],[8,1]],[[1138,4096],[5,-1],[6,1]],[[3244,4096],[-10,-4],[-25,-4],[-23,7],[-16,-2],[-16,3]],[[2952,4096],[-29,-9],[-32,-3],[-61,12]],[[1196,4096],[2,-4],[6,-5],[27,-20],[19,-8],[79,-10],[9,0],[-1,-5],[-61,-6],[-83,-13],[-17,-4],[-31,-21],[9,-7],[10,-4],[15,-3],[14,-10],[-8,-7],[-49,0],[-20,-3],[-62,6],[-60,-7],[-6,2],[7,12],[5,7],[-1,4],[-21,6],[-19,-1],[-7,-6],[22,-22],[-11,-6],[-11,-5],[-46,-2],[-26,12],[-4,8],[-5,9],[-30,-1],[-20,-12],[-49,1],[-48,-43],[-30,-37],[-24,-8],[-6,-25],[1,-47],[-9,-19],[-1,-10],[3,-11],[43,3],[24,8],[63,9],[13,-3],[2,-7],[-18,-21],[-18,-17],[-6,-10],[7,-7],[25,-31],[-1,-13],[-8,-9],[2,-11],[9,-9],[10,3],[9,-3],[8,-7],[-19,-24],[-22,-9],[-5,-5],[5,-11],[1,-7],[8,-15],[12,-17],[12,-7],[31,1],[-8,-8],[-43,-9],[-17,3],[-7,7],[-6,-3],[-4,-15],[-6,4],[-9,14],[3,15],[-4,15],[-13,15],[-14,3],[-11,-4],[-1,-13],[10,-26],[-2,-16],[-13,0],[-10,-20],[8,-7],[17,-6],[18,-11],[10,-3],[7,6],[11,5],[23,-13],[13,-18],[12,1],[39,-16],[14,-2],[4,-20],[-6,-34],[-27,-8],[-1,-7],[14,-11],[10,-25],[3,-22],[13,-8],[16,-2],[4,-7],[22,-13],[3,-18],[-31,-9],[-12,1],[-9,-10],[2,-22],[9,1],[7,8],[58,-3],[85,5],[19,0],[-3,-7],[-26,-16],[-14,-19],[-13,-5],[-55,-5],[-14,-6],[-16,-3],[-2,-7],[16,-6],[21,-2],[27,13],[51,3],[-13,-17],[1,-8],[17,3],[15,8],[20,27],[32,-2],[43,-22],[18,-5],[14,-1],[14,9],[12,-4],[4,-12],[1,-11],[9,-15],[5,-26],[15,-16],[23,-14],[62,-22],[18,3],[53,17],[28,13],[11,-5],[17,-9],[11,6],[6,8],[4,31],[10,16],[4,58],[12,15],[55,-4],[53,-6],[21,-4],[77,-41],[44,-16],[20,-19],[28,-39],[17,-18],[29,-18],[47,-14],[25,13],[31,2],[62,10],[15,-2],[31,9],[47,24],[13,10],[50,57],[55,38],[19,7],[19,-4],[24,-15],[43,-20],[39,-13],[26,5],[16,12],[7,15],[13,9],[12,3],[19,15],[27,13],[15,-12],[8,-10],[2,-14],[0,-18],[-29,-29],[-27,-25],[-13,-21],[14,-32],[13,-35],[-12,-17],[-10,-15],[-13,-60],[25,-32],[2,-15],[1,-11],[4,-16],[-9,-36],[-1,-24],[2,-20],[14,-48],[1,-18],[-11,-12],[-21,-12],[-29,-40],[-6,-47],[-18,-33],[-32,-81],[-16,-23],[-8,-29],[-9,-22],[-9,-16],[-5,-25],[-13,-30],[-16,-46],[-21,-90],[-23,-65],[-35,-65],[-2,-1],[-16,-22],[-34,-35],[-4,-4],[-50,-26],[-43,-11],[-53,0],[-33,-10],[-7,9],[-5,9],[-41,-12],[-9,1],[-31,-9],[-15,-1],[-13,6],[-38,34],[-13,8],[-6,0],[5,-10],[7,-10],[-14,-18],[-19,-5],[-7,13],[-10,14],[-19,4],[-24,12],[19,26],[3,15],[33,-30],[11,-1],[-31,35],[-14,8],[-9,-3],[-42,-15],[-15,0],[-60,28],[-21,4],[-5,-3],[-4,-18],[-5,-10],[-29,-5],[-26,-7],[-25,2],[58,23],[7,10],[-64,-21],[-32,-3],[-9,-12],[-6,-9],[-9,-9],[-7,-13],[-17,0],[-15,2],[-21,-8],[-62,-47],[-30,-18],[-27,-13],[-22,-7],[-16,-1],[-18,6],[-30,18],[-53,24],[-100,10],[-25,21],[-38,-1],[-14,4],[-54,36],[-87,20],[-57,9],[-102,23],[-93,-23],[-29,5],[-13,26],[-7,12],[-16,37],[-14,15],[-13,6],[-35,7],[-38,-4],[-63,3],[-17,6],[-25,19],[-19,7],[-93,12],[-33,25],[1,14],[4,11],[-7,37],[-32,15],[-30,11],[-42,12],[-4,2]],[[2617,0],[-1,12],[0,4],[-7,17],[-76,64],[-34,51],[-57,23],[-12,10],[-9,14],[-18,21],[-25,70],[-7,37],[-4,72],[2,14],[5,17],[10,4],[7,2],[27,-3],[-29,28],[-26,19],[-15,25],[-37,44],[-62,143],[-32,65],[-21,53],[-43,72],[-50,113],[-17,22],[-12,86],[-8,29],[-9,18],[-19,15],[-7,20],[-19,38],[1,20],[-2,42],[-9,17],[-23,16],[-31,34],[-32,50],[-23,27],[-8,14],[-5,15],[-8,18],[-23,31],[-5,14],[2,41],[-8,30],[-6,14],[-30,31],[-7,21],[9,26],[15,22],[-3,16],[16,10],[15,-38],[14,-59],[8,-16],[8,-11],[11,-24],[37,-46],[10,-20],[14,-43],[-1,-18],[9,-28],[30,-38],[33,-29],[30,-45],[52,-47],[32,-13],[18,26],[14,28],[5,19],[4,54],[31,86],[22,111],[20,34],[10,10],[13,17],[1,-15],[-5,-29],[-28,-136],[-4,-46],[-17,-52],[-12,-25],[1,-18],[18,14],[19,-4],[46,-5],[18,-11],[45,-65],[28,-65],[33,-37],[17,-41],[32,-41],[12,-24],[28,-37],[49,-106],[29,-14],[4,-29],[11,-33],[18,-12],[11,-11],[42,-76],[12,-30],[5,-16],[4,-25],[-8,-19],[-7,-11],[28,-44],[17,-34],[21,-36],[17,-3],[14,0],[19,-19],[18,-1],[11,-13],[22,-14],[34,-32],[32,-42],[14,-34],[30,-54],[10,-24],[7,-31],[7,-13],[19,-23],[-11,0],[11,-17],[12,-7],[-1,-15],[11,-23],[6,-43],[-5,-22],[-6,-19],[-2,-37],[-4,-19]],[[2622,740],[-5,0],[-13,15],[-7,10],[-8,8],[-35,14],[-5,10],[6,9],[3,-9],[7,-6],[29,-13],[32,-29],[5,-2],[-9,-7]],[[2178,2937],[-95,-65],[-6,-19],[4,-13],[13,-17],[4,-4],[5,-12],[-21,-4],[-21,-1],[-11,2],[-11,-1],[-34,-35],[-18,-12],[-22,-7],[-21,-5],[-12,0],[-9,-5],[-7,-8],[0,-8],[-3,-6],[-12,1],[-5,13],[-9,5],[-21,-2],[-10,0],[-35,12],[-10,5],[-6,11],[-18,37],[-3,28],[17,-7],[15,9],[15,14],[17,6],[11,-3],[11,-2],[20,4],[8,21],[3,24],[33,-7],[34,-3],[27,-1],[27,4],[83,25],[24,16],[14,5],[25,13],[27,7],[-17,-15]],[[246,2925],[13,-2],[16,0],[4,2],[11,12],[13,0],[6,-12],[-13,-6],[-3,-3],[2,-3],[11,-5],[14,2],[0,-10],[3,-8],[7,-4],[8,-1],[16,1],[16,3],[17,7],[17,3],[52,-3],[18,-14],[35,-2],[33,-7],[17,5],[29,4],[5,-4],[-4,-31],[2,-9],[8,-4],[9,2],[10,10],[24,8],[26,0],[21,20],[6,1],[-3,-10],[-4,-23],[-4,-14],[-2,-11],[-15,-6],[-21,-1],[-40,3],[-40,-4],[-73,-10],[-74,-6],[-10,4],[-1,13],[-1,10],[-5,7],[-23,5],[-22,10],[-85,13],[-20,5],[-33,-2],[-12,0],[-8,5],[-6,8],[-2,26],[4,25],[7,7],[3,-8],[8,-3],[8,8],[0,11],[4,11],[6,-4],[4,-17],[11,-4]],[[851,2909],[-7,-12],[-7,11],[3,11],[-8,19],[16,28],[0,13],[12,7],[-3,-23],[-9,-18],[9,-15],[5,-18],[-11,-3]],[[101,3065],[-2,-9],[-19,6],[-5,10],[-1,21],[5,11],[3,3],[9,-12],[18,-17],[-8,-13]],[[973,3009],[-14,-4],[-4,0],[-6,10],[8,24],[-7,16],[0,6],[10,10],[8,13],[18,15],[46,17],[11,2],[0,-14],[-16,-34],[-13,-18],[3,-13],[-22,-4],[-22,-26]],[[4096,4096],[0,-4096],[-1092,0],[4,19],[2,37],[6,19],[5,22],[-6,43],[-11,23],[1,15],[-12,7],[-11,17],[11,0],[-19,23],[-7,13],[-7,31],[-10,24],[-30,54],[-14,34],[-32,42],[-34,32],[-22,14],[-11,13],[-18,1],[-19,19],[-14,0],[-17,3],[-21,36],[-17,34],[-28,44],[7,11],[8,19],[-4,25],[-5,16],[-12,30],[-42,76],[-11,11],[-18,12],[-11,33],[-4,29],[-29,14],[-49,106],[-28,37],[-12,24],[-32,41],[-17,41],[-33,37],[-28,65],[-45,65],[-18,11],[-46,5],[-19,4],[-18,-14],[-1,18],[12,25],[17,52],[4,46],[28,136],[5,29],[-1,15],[-13,-17],[-10,-10],[-20,-34],[-22,-111],[-31,-86],[-4,-54],[-5,-19],[-14,-28],[-18,-26],[-32,13],[-52,47],[-30,45],[-33,29],[-30,38],[-9,28],[1,18],[-14,43],[-10,20],[-37,46],[-11,24],[-8,11],[-8,16],[-14,59],[-15,38],[-16,-10],[3,-16],[-15,-22],[-9,-26],[7,-21],[30,-31],[6,-14],[8,-30],[-2,-41],[5,-14],[23,-31],[8,-18],[5,-15],[8,-14],[23,-27],[32,-50],[31,-34],[23,-16],[9,-17],[2,-42],[-1,-20],[19,-38],[7,-20],[19,-15],[9,-18],[8,-29],[12,-86],[17,-22],[50,-113],[43,-72],[21,-53],[32,-65],[62,-143],[37,-44],[15,-25],[26,-19],[29,-28],[-27,3],[-7,-2],[-10,-4],[-5,-17],[-2,-14],[4,-72],[7,-37],[25,-70],[18,-21],[9,-14],[12,-10],[57,-23],[34,-51],[76,-64],[7,-17],[0,-4],[1,-12],[-2617,0],[0,2337],[4,-2],[42,-12],[30,-11],[32,-15],[7,-37],[-4,-11],[-1,-14],[33,-25],[93,-12],[19,-7],[25,-19],[17,-6],[63,-3],[38,4],[35,-7],[13,-6],[14,-15],[16,-37],[7,-12],[13,-26],[29,-5],[93,23],[102,-23],[57,-9],[87,-20],[54,-36],[14,-4],[38,1],[25,-21],[100,-10],[53,-24],[30,-18],[18,-6],[16,1],[22,7],[27,13],[30,18],[62,47],[21,8],[15,-2],[17,0],[7,13],[9,9],[6,9],[9,12],[32,3],[64,21],[-7,-10],[-58,-23],[25,-2],[26,7],[29,5],[5,10],[4,18],[5,3],[21,-4],[60,-28],[15,0],[42,15],[9,3],[14,-8],[31,-35],[-11,1],[-33,30],[-3,-15],[-19,-26],[24,-12],[19,-4],[10,-14],[7,-13],[19,5],[14,18],[-7,10],[-5,10],[6,0],[13,-8],[38,-34],[13,-6],[15,1],[31,9],[9,-1],[41,12],[5,-9],[7,-9],[33,10],[53,0],[43,11],[50,26],[4,4],[34,35],[16,22],[2,1],[35,65],[23,65],[21,90],[16,46],[13,30],[5,25],[9,16],[9,22],[8,29],[16,23],[32,81],[18,33],[6,47],[29,40],[21,12],[11,12],[-1,18],[-14,48],[-2,20],[1,24],[9,36],[-4,16],[-1,11],[-2,15],[-25,32],[13,60],[10,15],[12,17],[-13,35],[-14,32],[13,21],[27,25],[29,29],[0,18],[-2,14],[-8,10],[-15,12],[-27,-13],[-19,-15],[-12,-3],[-13,-9],[-7,-15],[-16,-12],[-26,-5],[-39,13],[-43,20],[-24,15],[-19,4],[-19,-7],[-55,-38],[-50,-57],[-13,-10],[-47,-24],[-31,-9],[-15,2],[-62,-10],[-31,-2],[-25,-13],[-47,14],[-29,18],[-17,18],[-28,39],[-20,19],[-44,16],[-77,41],[-21,4],[-53,6],[-55,4],[-12,-15],[-4,-58],[-10,-16],[-4,-31],[-6,-8],[-11,-6],[-17,9],[-11,5],[-28,-13],[-53,-17],[-18,-3],[-62,22],[-23,14],[-15,16],[-5,26],[-9,15],[-1,11],[-4,12],[-12,4],[-14,-9],[-14,1],[-18,5],[-43,22],[-32,2],[-20,-27],[-15,-8],[-17,-3],[-1,8],[13,17],[-51,-3],[-27,-13],[-21,2],[-16,6],[2,7],[16,3],[14,6],[55,5],[13,5],[14,19],[26,16],[3,7],[-19,0],[-85,-5],[-58,3],[-7,-8],[-9,-1],[-2,22],[9,10],[12,-1],[31,9],[-3,18],[-22,13],[-4,7],[-16,2],[-13,8],[-3,22],[-10,25],[-14,11],[1,7],[27,8],[6,34],[-4,20],[-14,2],[-39,16],[-12,-1],[-13,18],[-23,13],[-11,-5],[-7,-6],[-10,3],[-18,11],[-17,6],[-8,7],[10,20],[13,0],[2,16],[-10,26],[1,13],[11,4],[14,-3],[13,-15],[4,-15],[-3,-15],[9,-14],[6,-4],[4,15],[6,3],[7,-7],[17,-3],[43,9],[8,8],[-31,-1],[-12,7],[-12,17],[-8,15],[-1,7],[-5,11],[5,5],[22,9],[19,24],[-8,7],[-9,3],[-10,-3],[-9,9],[-2,11],[8,9],[1,13],[-25,31],[-7,7],[6,10],[18,17],[18,21],[-2,7],[-13,3],[-63,-9],[-24,-8],[-43,-3],[-3,11],[1,10],[9,19],[-1,47],[6,25],[24,8],[30,37],[48,43],[49,-1],[20,12],[30,1],[5,-9],[4,-8],[26,-12],[46,2],[11,5],[11,6],[-22,22],[7,6],[19,1],[21,-6],[1,-4],[-5,-7],[-7,-12],[6,-2],[60,7],[62,-6],[20,3],[49,0],[8,7],[-14,10],[-15,3],[-10,4],[-9,7],[31,21],[17,4],[83,13],[61,6],[1,5],[-9,0],[-79,10],[-19,8],[-27,20],[-6,5],[-2,4],[1634,0],[61,-12],[32,3],[29,9],[202,0],[16,-3],[16,2],[23,-7],[25,4],[10,4],[852,0]],[[543,3109],[-9,-11],[-11,4],[4,4],[3,6],[1,8],[-4,5],[3,1],[10,-8],[3,-9]],[[721,3150],[-14,-5],[-10,-10],[-11,7],[0,11],[13,-4],[8,6],[-2,7],[9,-3],[7,-9]],[[823,3231],[-18,-3],[3,17],[-9,13],[14,-7],[9,-9],[5,-2],[-2,-5],[-2,-4]],[[642,3354],[-8,-1],[3,8],[16,15],[23,1],[20,7],[5,1],[-10,-12],[-17,-11],[-32,-8]],[[338,3364],[-12,-11],[-2,16],[7,17],[11,1],[4,-8],[-8,-15]],[[502,3369],[-7,-14],[-11,2],[-19,15],[-7,7],[-4,6],[8,1],[10,-7],[24,-4],[6,-6]],[[352,3314],[-10,-7],[3,15],[-5,8],[5,7],[7,5],[3,-6],[6,-9],[-9,-13]],[[528,3330],[-17,-1],[1,16],[6,4],[21,-8],[-1,-5],[-10,-6]],[[506,3254],[-15,-16],[-12,2],[-5,7],[8,16],[16,9],[7,-3],[0,-11],[1,-4]],[[404,3223],[-3,-1],[-5,9],[-1,8],[2,5],[6,1],[9,-16],[-8,-6]],[[554,3233],[-16,-8],[-11,11],[-6,19],[30,27],[7,-2],[4,-8],[-1,-24],[-7,-15]],[[368,3267],[-6,-4],[-12,5],[3,12],[8,5],[8,-4],[2,-5],[-3,-9]],[[371,3189],[0,-13],[-1,-4],[-38,-6],[4,14],[2,5],[12,-7],[5,3],[2,4],[14,4]],[[525,3170],[-4,-4],[-13,14],[-6,8],[7,6],[20,-15],[-4,-9]],[[810,3181],[-6,0],[7,10],[19,14],[28,13],[10,1],[15,-8],[-29,-12],[-7,-7],[-22,-2],[-15,-9]],[[612,3195],[-17,-2],[-5,1],[10,4],[7,4],[3,5],[17,8],[10,11],[12,-7],[-15,-5],[-22,-19]],[[233,3695],[-8,-8],[-13,4],[-13,24],[34,-20]],[[632,3914],[-42,-6],[-13,6],[13,13],[24,8],[8,1],[11,-13],[-1,-9]],[[535,3882],[-7,-8],[-5,-12],[-3,-18],[-11,-1],[-6,4],[-2,7],[0,8],[-5,0],[-4,-9],[-3,-4],[-11,-1],[-12,5],[1,13],[-2,14],[1,5],[32,1],[9,-10],[11,6],[5,7],[14,4],[-2,-11]],[[580,3977],[-21,-6],[-22,18],[22,7],[10,-5],[7,-6],[4,-8]],[[918,4096],[-8,-1],[-12,-29],[-32,-33],[-51,-26],[-37,-15],[-56,-51],[-25,-29],[-10,-6],[-13,-5],[4,15],[7,13],[-2,10],[0,14],[19,16],[17,12],[49,21],[13,18],[-39,0],[-39,-4],[-25,2],[-22,-1],[-7,15],[-5,10],[-5,9],[-28,16],[-65,9],[-32,12],[-13,-2],[-21,10],[438,0]],[[414,4018],[-23,-8],[-24,14],[0,9],[13,18],[7,5],[17,-2],[10,-12],[2,-5],[-3,-10],[1,-9]],[[787,3414],[23,-7],[6,1],[10,-3],[3,-13],[-14,-2],[-24,-12],[-10,3],[-13,10],[-19,2],[-6,2],[10,13],[19,6],[15,0]],[[654,3502],[-17,-12],[-20,17],[-3,6],[15,7],[7,11],[-6,13],[-20,20],[-1,14],[30,6],[18,-12],[9,-1],[-3,-12],[1,-3],[2,-36],[-9,-5],[-1,-10],[-2,-3]],[[454,3403],[-6,-14],[-14,16],[-16,12],[-5,10],[-10,6],[-2,14],[11,5],[5,1],[12,-17],[18,-2],[-1,-10],[6,-13],[2,-8]],[[191,3439],[-7,-5],[-8,0],[-6,2],[-3,4],[4,2],[4,9],[4,2],[6,-1],[3,-4],[3,-9]],[[167,3661],[10,-23],[10,-8],[20,-9],[9,-2],[35,-16],[40,-4],[5,-5],[5,-13],[8,-10],[2,-8],[-4,-8],[6,-27],[10,-26],[16,-12],[19,-4],[18,1],[4,-5],[-2,-23],[-7,-9],[-6,-2],[-6,3],[-5,5],[-5,2],[-10,1],[-8,9],[-19,12],[-4,7],[-1,12],[-8,8],[-7,16],[-7,4],[-4,8],[-1,4],[-28,2],[-23,0],[-20,9],[-6,24],[-11,6],[-9,7],[-7,9],[-19,17],[-20,14],[-20,10],[-21,6],[-17,-7],[-10,1],[-2,5],[22,10],[29,19],[20,6],[10,1],[19,-17]],[[712,3741],[-3,-13],[25,-21],[8,-13],[4,-13],[-3,-4],[-9,7],[-8,2],[3,-9],[8,-8],[-15,-5],[-14,0],[-42,12],[-9,11],[25,18],[5,8],[-18,-1],[-19,-21],[-30,9],[-9,8],[-2,5],[12,19],[21,-1],[11,4],[14,6],[0,9],[33,2],[12,-11]],[[396,3629],[-19,-5],[-5,1],[4,6],[0,3],[-19,12],[2,16],[2,4],[15,-8],[3,-14],[17,-15]],[[0,4096],[464,0],[-8,-3],[-39,-23],[-20,2],[-23,14],[-14,3],[-17,-7],[-27,-28],[-28,-13],[-25,5],[-33,0],[-4,-15],[7,-11],[18,-18],[-9,-13],[7,-14],[12,-3],[18,1],[33,-17],[14,-19],[10,-20],[-21,14],[-13,14],[-19,5],[-26,12],[-16,2],[-17,-8],[-2,-9],[19,-18],[17,-10],[9,-9],[6,-20],[-3,-6],[-7,-6],[-20,12],[-31,43],[-43,9],[-8,-9],[9,-23],[6,-9],[38,-25],[-3,-5],[-6,-2],[-42,14],[-12,22],[-3,27],[-39,19],[-37,20],[-8,20],[8,7],[5,14],[-20,-2],[-13,-9],[-20,-9],[-1,-15],[3,-13],[-7,-19],[-6,-34],[4,-18],[44,-51],[15,-37],[11,-14],[23,-15],[24,-29],[10,-15],[7,-24],[-20,-16],[-12,0],[-6,7],[9,16],[-2,10],[-30,16],[-13,-5],[-15,-10],[8,-19],[10,-13],[5,-17],[18,1],[-25,-19],[-23,-10],[-23,-1],[-14,-2],[-5,-5],[11,-3],[10,0],[16,-11],[45,-13],[21,-15],[21,-2],[21,-29],[37,-8],[21,-29],[27,-6],[24,-11],[7,-10],[4,-19],[1,-40],[5,-29],[0,-10],[-1,-14],[-6,-6],[-9,-1],[-17,22],[-27,23],[-27,27],[-8,5],[-7,0],[-14,-9],[-42,-7],[-19,-10],[-7,-2],[-2,-5],[9,-6],[11,-12],[0,-17],[9,-21],[12,-5],[15,0],[9,-4],[2,-8],[9,-9],[6,-8],[0,-5],[-43,-13],[-9,-6],[-8,-3],[-11,6],[0,16],[-15,9],[-14,8],[-16,3],[-14,12],[-9,-10],[7,-32],[16,-22],[26,-59],[12,-35],[2,-17],[-6,-28],[13,-21],[9,-21],[-10,1],[-8,7],[-14,9],[-28,34],[-9,22],[-11,1],[-20,-3],[-20,-41],[0,331],[10,-3],[29,-14],[16,-14],[8,-3],[14,-2],[-1,10],[-4,10],[11,5],[30,0],[6,5],[5,8],[-6,9],[-10,4],[-11,1],[-7,3],[-11,-3],[-18,7],[-9,6],[-6,6],[-31,12],[-15,10],[0,557]],[[373,4090],[12,6],[79,0],[-45,-30],[-46,24]],[[532,4096],[-11,-12],[-47,9],[4,3],[54,0]],[[73,4048],[45,48],[55,-55],[32,2],[16,-39],[-77,-18],[-71,62]],[[2188,1853],[18,26],[47,-19],[-16,-37],[27,-16],[-38,-22],[-38,68]],[[3005,178],[-13,8],[28,17],[0,-36],[-15,11]],[[1906,552],[18,-19],[-30,-13],[-9,32],[21,0]],[[3112,527],[-20,-5],[-5,30],[51,25],[-5,-46],[-21,-4]],[[2547,916],[-16,24],[9,5],[20,-18],[-13,-11]],[[2799,997],[6,24],[19,-7],[-12,-22],[-13,5]],[[2057,1146],[9,-18],[6,-22],[-20,17],[5,23]],[[2413,1157],[-6,-5],[-21,23],[30,4],[-3,-22]],[[2549,1375],[-17,36],[51,-3],[0,-38],[-34,5]],[[1832,1728],[-21,-17],[19,49],[7,-43],[-5,11]],[[1610,1799],[16,8],[7,-36],[-39,-104],[-30,69],[46,63]],[[1790,1867],[-11,-16],[-19,5],[12,18],[18,-7]],[[1353,1998],[27,7],[-45,-62],[-85,-25],[103,80]],[[1903,1975],[32,10],[4,-8],[-26,-12],[-10,10]],[[4095,2157],[-20,-2],[-7,21],[20,1],[7,-20]],[[4004,2265],[-20,-6],[5,31],[16,-11],[-1,-14]],[[2424,2132],[-26,52],[30,8],[30,-27],[-13,-44],[-21,11]],[[3994,2183],[4,-21],[-35,5],[17,25],[14,-9]],[[2306,2124],[16,0],[-28,-19],[-4,27],[16,-8]],[[2186,2084],[31,57],[5,14],[-2,-34],[-34,-37]],[[2519,2468],[-42,-5],[16,41],[46,2],[-20,-38]],[[4010,2402],[-7,20],[-40,-25],[12,19],[-60,35],[39,14],[37,71],[5,-43],[30,-9],[5,-83],[-21,1]],[[3805,2469],[-27,-4],[-4,17],[54,-10],[-23,-3]],[[4046,2548],[-13,-15],[-14,3],[0,17],[27,-5]],[[2440,2531],[-21,-6],[16,39],[37,13],[-32,-46]],[[2338,2320],[-11,-30],[-17,0],[-2,22],[30,8]],[[2466,2288],[-26,-22],[-21,27],[24,5],[23,-10]],[[3936,2293],[-17,-5],[-11,13],[28,9],[0,-17]],[[2240,2206],[21,90],[4,10],[-15,-87],[21,-32],[-11,-58],[-28,-24],[8,101]],[[2491,2296],[-23,0],[-5,35],[25,9],[3,-44]],[[2277,2342],[16,46],[3,0],[14,-35],[-44,-43],[11,32]],[[1513,2056],[-87,-41],[-13,2],[24,30],[76,9]],[[1709,2048],[-7,-17],[-37,18],[35,13],[9,-14]],[[1603,2066],[44,-19],[0,-6],[-28,-4],[-16,29]],[[3820,2831],[23,-5],[-18,-36],[-21,25],[16,16]],[[2606,2749],[-20,-5],[-19,-8],[28,38],[11,-25]],[[4035,2842],[-18,-10],[-12,19],[17,3],[13,-12]],[[3924,2941],[-32,22],[23,0],[-9,27],[39,-19],[-21,-30]],[[2657,3062],[7,19],[16,-1],[-5,-17],[-18,-1]],[[3987,2889],[20,-28],[-17,-6],[-17,12],[14,22]],[[3224,2900],[3,-17],[8,-16],[-30,16],[19,17]],[[3963,2927],[35,0],[2,-22],[-18,-8],[-19,30]],[[1194,3162],[0,19],[32,-22],[-31,-5],[-1,8]],[[2821,3247],[-27,3],[2,16],[17,-5],[8,-14]],[[1245,3187],[11,-27],[-9,-20],[-3,20],[1,27]],[[2490,3198],[-17,18],[14,27],[20,-32],[-13,-79],[-23,13],[19,53]],[[2322,3233],[13,20],[22,-12],[-26,-13],[-9,5]],[[2222,3200],[-41,-17],[28,31],[67,16],[-54,-30]],[[1509,3209],[-42,2],[9,28],[51,-9],[-18,-21]],[[1025,3099],[-9,11],[27,8],[-10,-36],[-8,17]],[[3769,3088],[-19,6],[-8,19],[32,-3],[-5,-22]],[[4063,3499],[-7,-9],[-16,19],[30,0],[-7,-10]],[[837,3544],[-9,21],[47,-9],[-28,-33],[-10,21]],[[4096,3576],[-12,-9],[-19,13],[30,11],[1,-15]],[[2861,3520],[19,23],[25,-15],[-23,-4],[-21,-4]],[[1812,3438],[11,8],[7,-27],[-21,0],[3,19]],[[1184,3413],[22,7],[18,-7],[-16,-16],[-24,16]],[[974,3411],[-23,13],[46,0],[-10,-8],[-13,-5]],[[197,3457],[-5,18],[58,18],[-14,-73],[-39,37]],[[3036,3616],[17,0],[7,-22],[-33,13],[9,9]],[[949,3638],[9,35],[28,0],[-7,-22],[-30,-13]],[[2380,3602],[-18,4],[-15,7],[30,11],[3,-22]],[[3092,3849],[19,-4],[-13,-18],[-20,7],[14,15]],[[4017,3908],[-44,11],[44,36],[14,-9],[-14,-38]],[[1878,3864],[-23,25],[58,35],[-13,-48],[-22,-12]],[[896,3599],[13,-11],[-9,-6],[-23,20],[19,-3]],[[2616,4023],[12,5],[13,-2],[-9,-19],[-16,16]],[[1647,4040],[12,19],[16,-9],[-19,-16],[-9,6]],[[1426,4037],[6,32],[21,-5],[-14,-30],[-13,3]],[[1577,4084],[15,-6],[16,-28],[-63,17],[32,17]],[[1248,4096],[62,-32],[55,3],[26,-22],[-61,-11],[-23,7],[31,8],[-88,10],[-54,37],[52,0]],[[2570,3955],[-30,2],[7,17],[23,-3],[0,-16]],[[1243,3994],[0,-12],[-40,-8],[0,16],[40,4]],[[1222,3944],[-37,-20],[-21,42],[35,-6],[23,-16]],[[64,3991],[20,14],[-39,39],[23,8],[47,-35],[-51,-26]],[[2387,2601],[23,70],[-2,-132],[-70,-49],[49,111]],[[2440,2900],[-24,38],[61,-57],[-30,-50],[11,-57],[24,19],[11,-79],[-44,-68],[-26,43],[31,23],[-14,188]],[[240,3681],[0,61],[64,50],[51,-43],[-55,-82],[-60,14]],[[1612,3416],[32,22],[28,-65],[-44,-16],[-10,29],[20,5],[-26,25]],[[190,3561],[5,-1],[16,-23],[-13,-4],[-8,28]],[[3938,3817],[8,44],[33,-3],[21,-34],[-11,-50],[-47,19],[-4,24]],[[1360,1567],[0,39],[100,-12],[9,-73],[-70,0],[-1,46],[-38,0]]]}