{"objects":{"water":{"type":"GeometryCollection","geometries":[{"type":"Polygon","properties":{"source":"naturalearthdata.com","kind":"lake","name":"Lake Kyoga","area":1980512768,"sort_rank":200,"min_zoom":0.0,"id":288},"arcs":[[28]]},{"type":"Polygon","properties":{"source":"naturalearthdata.com","kind":"lake","name":"L. Albert","area":5422764032,"sort_rank":200,"min_zoom":0.0,"id":5},"arcs":[[29]]},{"type":"Polygon","properties":{"kind":"lake","name":"Lake Turkana, (Lake Rudolf)","area":7567687168,"sort_rank":200,"alkaline":true,"source":"naturalearthdata.com","min_zoom":0.0,"id":53},"arcs":[[30]]},{"type":"MultiPolygon","properties":{"source":"naturalearthdata.com","kind":"lake","name":"Lake Victoria","area":67861127168,"sort_rank":200,"min_zoom":0.0,"id":11},"arcs":[[[31],[32]]]},{"type":"MultiPolygon","properties":{"source":"naturalearthdata.com","kind":"ocean","area":1444195503964160,"sort_rank":200,"min_zoom":0.0,"id":1},"arcs":[[[33]],[[34],[35],[36],[37],[38],[39],[40]]]},{"type":"Polygon","properties":{"kind":"lake","name":"Lake \u00c4baya","area":1113431168,"sort_rank":200,"alkaline":true,"source":"naturalearthdata.com","min_zoom":0.0,"id":178},"arcs":[[41]]},{"type":"Polygon","properties":{"source":"naturalearthdata.com","kind":"lake","name":"Lake Tana","area":3245152512,"sort_rank":200,"min_zoom":0.0,"id":22},"arcs":[[42]]},{"type":"Polygon","properties":{"kind":"lake","name":"Lake Nasser","reservoir":true,"area":4668259328,"sort_rank":200,"source":"naturalearthdata.com","min_zoom":0.0,"id":289},"arcs":[[43]]},{"type":"Point","properties":{"label_placement":true,"kind":"lake","name":"Lake Turkana, (Lake Rudolf)","area":7567687168,"sort_rank":200,"alkaline":true,"source":"naturalearthdata.com","min_zoom":0.0,"id":53},"coordinates":[2468,664]},{"type":"Point","properties":{"label_placement":true,"kind":"lake","name":"L. Albert","area":5422764032,"sort_rank":200,"source":"naturalearthdata.com","min_zoom":0.0,"id":5},"coordinates":[1550,321]},{"type":"Point","properties":{"label_placement":true,"kind":"lake","name":"Lake Tana","area":3245152512,"sort_rank":200,"source":"naturalearthdata.com","min_zoom":0.0,"id":22},"coordinates":[2690,2232]},{"type":"Point","properties":{"label_placement":true,"kind":"lake","name":"Lake Kyoga","area":1980512768,"sort_rank":200,"source":"naturalearthdata.com","min_zoom":0.0,"id":288},"coordinates":[1891,275]},{"type":"Point","properties":{"label_placement":true,"kind":"lake","name":"Lake \u00c4baya","area":1113431168,"sort_rank":200,"alkaline":true,"source":"naturalearthdata.com","min_zoom":0.0,"id":178},"coordinates":[2811,1173]},{"type":"Point","properties":{"label_placement":true,"kind":"lake","name":"Lake Assal","area":38401620,"sort_rank":200,"alkaline":true,"source":"naturalearthdata.com","min_zoom":0.0,"id":264},"coordinates":[3626,2176]},{"type":"LineString","properties":{"source":"naturalearthdata.com","kind":"lake","sort_rank":367,"boundary":true,"min_zoom":0.0,"id":5},"arcs":[44]},{"type":"MultiLineString","properties":{"source":"naturalearthdata.com","kind":"lake","sort_rank":367,"boundary":true,"min_zoom":0.0,"id":11},"arcs":[[45],[46],[47]]},{"type":"LineString","properties":{"source":"naturalearthdata.com","kind":"lake","sort_rank":367,"boundary":true,"min_zoom":0.0,"id":22},"arcs":[48]},{"type":"LineString","properties":{"source":"naturalearthdata.com","kind":"lake","sort_rank":367,"alkaline":true,"boundary":true,"min_zoom":0.0,"id":53},"arcs":[49]},{"type":"LineString","properties":{"source":"naturalearthdata.com","kind":"lake","sort_rank":367,"alkaline":true,"boundary":true,"min_zoom":0.0,"id":178},"arcs":[50]},{"type":"LineString","properties":{"source":"naturalearthdata.com","kind":"ocean","sort_rank":205,"boundary":true,"min_zoom":0.0,"id":189},"arcs":[51]},{"type":"LineString","properties":{"source":"naturalearthdata.com","kind":"ocean","sort_rank":205,"boundary":true,"min_zoom":0.0,"id":190},"arcs":[52]},{"type":"LineString","properties":{"source":"naturalearthdata.com","kind":"lake","sort_rank":367,"alkaline":true,"boundary":true,"min_zoom":0.0,"id":264},"arcs":[53]},{"type":"LineString","properties":{"source":"naturalearthdata.com","kind":"lake","sort_rank":367,"boundary":true,"min_zoom":0.0,"id":288},"arcs":[54]},{"type":"LineString","properties":{"source":"naturalearthdata.com","kind":"lake","reservoir":true,"sort_rank":367,"boundary":true,"min_zoom":0.0,"id":289},"arcs":[55]},{"type":"LineString","properties":{"source":"naturalearthdata.com","kind":"ocean","sort_rank":205,"boundary":true,"min_zoom":0.0,"id":323},"arcs":[56]},{"type":"LineString","properties":{"source":"naturalearthdata.com","kind":"ocean","sort_rank":205,"boundary":true,"min_zoom":0.0,"id":324},"arcs":[57]},{"type":"LineString","properties":{"source":"naturalearthdata.com","kind":"ocean","sort_rank":205,"boundary":true,"min_zoom":0.0,"id":325},"arcs":[58]},{"type":"LineString","properties":{"source":"naturalearthdata.com","kind":"ocean","sort_rank":205,"boundary":true,"min_zoom":0.0,"id":327},"arcs":[59]},{"type":"MultiLineString","properties":{"source":"naturalearthdata.com","kind":"ocean","sort_rank":205,"boundary":true,"min_zoom":0.0,"id":1388},"arcs":[[60],[61],[62]]},{"type":"Point","properties":{"label_placement":true,"kind":"sea","name":"Red Sea","source":"openstreetmap.org","sort_rank":200,"min_zoom":3.0,"id":305639344},"coordinates":[3095,3547]}]},"buildings":{"type":"GeometryCollection","geometries":[]},"places":{"type":"GeometryCollection","geometries":[{"type":"Point","properties":{"name:kg":"Itiopia","name:ka":"\u10d4\u10d7\u10d8\u10dd\u10de\u10d8\u10d0","name:ko":"\uc774\ub514\uc624\ud53c\uc544","name:cv":"\u042d\u0444\u0438\u043e\u043f\u0438","name:cu":"\u0404\u0473\u0457\u043e\u043f\u0457\ua657","name:hy":"\u0535\u0569\u0578\u057e\u057a\u056b\u0561","name:cs":"Etiopie","name:ki":"Uhabeshi","name:kw":"Ethiopi","name:kv":"\u042d\u0444\u0438\u043e\u043f\u0438\u044f","name:ku":"Etiyopya","name:ti":"\u12a2\u1275\u12ee\u1335\u12eb","name:ks":"\u0627\u0650\u062a\u06be\u0648\u067e\u0650\u06cc\u0627","name:to":"\u02bbIti\u014dpea","name:tl":"Etiyopiya","name:ta":"\u0b8e\u0ba4\u0bbf\u0baf\u0bcb\u0baa\u0bcd\u0baa\u0bbf\u0baf\u0bbe","name:tg":"\u042d\u0444\u0438\u043e\u043f\u0438\u044f","name:ca":"Eti\u00f2pia","name:te":"\u0c07\u0c25\u0c3f\u0c2f\u0c4b\u0c2a\u0c3f\u0c2f\u0c3e","name:cy":"Ethiopia","name:hr":"Etiopija","name:da":"Etiopien","name:de":"\u00c4thiopien","name:dz":"\u0f68\u0f72\u0f0b\u0f50\u0f72\u0f0b\u0f61\u0f7c\u0f0b\u0f54\u0f72\u0f0b\u0f61","source":"openstreetmap.org","name:kn":"\u0c87\u0ca5\u0cbf\u0caf\u0ccb\u0caa\u0cbf\u0caf\u0cbe","name:dv":"\u0799\u07a6\u0784\u07aa\u079d\u07b0\u0786\u07a6\u0783\u07a6","name:km":"\u17a2\u17c1\u178f\u17d2\u1799\u17bc\u1796\u17b8","name:lv":"Etiopija","name:lt":"Etiopija","name:uz":"Efiopiya","name:kk":"\u0415\u0444\u0438\u043e\u043f\u0438\u044f","name:ur":"\u0627\u06cc\u062a\u06be\u0648\u067e\u06cc\u0627","name:lb":"Ethiopien","name:la":"Aethiopia","name:lg":"Esyopya","name:uk":"\u0415\u0444\u0456\u043e\u043f\u0456\u044f","name:ug":"\u0626\u06d0\u0641\u0649\u0626\u0648\u067e\u0649\u064a\u06d5","name:li":"Ethiopi\u00eb","name:ln":"Ets\u00edopi","name:lo":"\u0ec0\u0ead\u0e97\u0eb5\u0ec2\u0ead\u0ec0\u0e9b\u0e8d","name:el":"\u0391\u03b9\u03b8\u03b9\u03bf\u03c0\u03af\u03b1","name:eo":"Etiopujo","name:en":"Ethiopia","name":"\u12a2\u1275\u12ee\u1335\u12eb \/ Ethiopia","name:tk":"Efiopi\u00fda","name:ee":"Etiopia nutome","name:th":"\u0e1b\u0e23\u0e30\u0e40\u0e17\u0e28\u0e40\u0e2d\u0e18\u0e34\u0e42\u0e2d\u0e40\u0e1b\u0e35\u0e22","name:eu":"Etiopia","name:et":"Etioopia","name:es":"Etiop\u00eda","name:ia":"Ethiopia","name:rm":"Etiopia","name:rn":"Etiyopiya","name:az":"Efiopiya","name:ie":"Etiopia","name:id":"Etiopia","name:ig":"Ethiopia","name:ar":"\u0625\u062b\u064a\u0648\u0628\u064a\u0627","name:io":"Etiopia","name:av":"\u0425\u0430\u0431\u0430\u0448\u0438\u0441\u0442\u0430\u043d","name:ak":"Ithiopia","name:am":"\u12a2\u1275\u12ee\u1335\u12eb","name:it":"Etiopia","name:an":"Etiopia","name:aa":"Otobbia","name:ru":"\u042d\u0444\u0438\u043e\u043f\u0438\u044f","name:rw":"Etiyopiya","name:af":"Ethiopi\u00eb","name:zu":"i-Ethiopia","name:ky":"\u042d\u0444\u0438\u043e\u043f\u0438\u044f","name:zh-yue":"\u57c3\u585e\u4fc4\u6bd4\u4e9e","name:zh":"\u57c3\u585e\u4fc4\u6bd4\u4e9a","name:so":"Itoobiya","name:sn":"Etiopia","name:sm":"Ethiopia","name:sl":"Etiopija","name:sk":"Eti\u00f3pia","name:ja":"\u30a8\u30c1\u30aa\u30d4\u30a2","name:si":"\u0d89\u0dad\u0dd2\u0dba\u0ddd\u0db4\u0dd2\u0dba\u0dcf\u0dc0","name:sh":"Etiopija","name:sg":"Etiop\u00efi","name:se":"Etiopia","name:sc":"Eti\u00f2pia","name:br":"Etiopia","name:bs":"Etiopija","name:bm":"Etiopi","name:bn":"\u0987\u09ab\u09bf\u0993\u09aa\u09bf\u09af\u09bc\u09be","name:bo":"\u0f68\u0f72\u0f0b\u0f50\u0f72\u0f60\u0f7c\u0f0b\u0f54\u0f72\u0f0b\u0f61\u0f0d","name:sa":"\u0908\u0925\u094d\u092f\u094b\u092a\u093f\u092f\u093e","name:sw":"Uhabeshi","name:be":"\u042d\u0444\u0456\u043e\u043f\u0456\u044f","name:su":"\u00c9tiopia","name:bg":"\u0415\u0442\u0438\u043e\u043f\u0438\u044f","name:ss":"ITopiya","name:ba":"\u042d\u0444\u0438\u043e\u043f\u0438\u044f","name:sq":"Etiopi","name:jv":"\u00c9tiopia","name:pt":"Eti\u00f3pia","name:ps":"\u062d\u0628\u0634\u0647","name:om":"Itoophiyaa","name:oc":"Etiopia","min_zoom":2.0,"name:ro":"Etiopia","name:zh-min-nan":"Ityop'iya","name:os":"\u042d\u0444\u0438\u043e\u043f\u0438","name:or":"\u0b07\u0b25\u0b3f\u0b13\u0b2a\u0b3f\u0b06","name:pl":"Etiopia","name:sr":"\u0415\u0442\u0438\u043e\u043f\u0438\u0458\u0430","name:pa":"\u0a07\u0a25\u0a4b\u0a2a\u0a40\u0a06","name:tr":"Etiyopya","name:hi":"\u0907\u0925\u093f\u092f\u094b\u092a\u093f\u092f\u093e","name:sv":"Etiopien","name:he":"\u05d0\u05ea\u05d9\u05d5\u05e4\u05d9\u05d4","name:ha":"Habasha","old_name":"Abyssinia","name:ht":"Etyopi","name:hu":"Eti\u00f3pia","name:qu":"Ithiyupya","population":78254090,"kind":"country","name:ts":"Topiya","name:is":"E\u00fe\u00ed\u00f3p\u00eda","name:yi":"\u05e2\u05d8\u05d9\u05d0\u05e4\u05d9\u05e2","name:yo":"Or\u00edl\u1eb9\u0301\u00e8de Etopia","name:mt":"Etijopja","alt_name:eo":"Etiopio","name:ms":"Habsyah","name:mr":"\u0907\u0925\u093f\u0913\u092a\u093f\u092f\u093e","name:my":"\u1021\u102e\u101e\u102e\u101a\u102d\u102f\u1038\u1015\u102e\u1038\u101a\u102c\u1038","official_name":"Federal Democratic Republic of Ethiopia","int_name":"Ethiopia","name:mg":"Etiopia","name:ml":"\u0d0e\u0d24\u0d4d\u0d2f\u0d4b\u0d2a\u0d4d\u0d2f","name:vi":"Ethiopia","name:mn":"\u042d\u0442\u0438\u043e\u043f","id":2163914205,"name:mk":"\u0415\u0442\u0438\u043e\u043f\u0438\u0458\u0430","name:vo":"L\u00e4tiop\u00e4n","name:fa":"\u0627\u062a\u06cc\u0648\u067e\u06cc","name:ff":"Ecoppi","name:fi":"Etiopia","name:fo":"Etiopia","name:fr":"\u00c9thiopie","name:fy":"Etioopje","name:nl":"Ethiopi\u00eb","name:nn":"Etiopia","name:no":"Etiopia","name:na":"Itiyopiya","name:ne":"\u0907\u0925\u094b\u092a\u093f\u092f\u093e","name:wa":"Etiopeye","name:wo":"Ecoopi","name:nv":"Iithiy\u00f3pya","name:ga":"An Aet\u00f3ip","name:gd":"An Aeti\u00f2p","name:gn":"Etiopia","name:gl":"Etiop\u00eda","name:gv":"Yn Eetoip","name:gu":"\u0a87\u0aa5\u0abf\u0a93\u0aaa\u0abf\u0aaf\u0abe","name:tt":"\u0425\u04d9\u0431\u04d9\u0448\u0441\u0442\u0430\u043d"},"coordinates":[2940,1906]},{"type":"Point","properties":{"name:pt":"Sud\u00e3o","name:ka":"\u10e1\u10e3\u10d3\u10d0\u10dc\u10d8","name:mt":"Sudan","name:ko":"\uc218\ub2e8","name:kn":"\u0cb8\u0cc2\u0ca1\u0cbe\u0ca8\u0ccd","name:km":"\u179f\u17ca\u17bc\u178a\u1784\u17cb","name:kl":"Sudan","name:cs":"S\u00fad\u00e1n","name:ki":"Sudani","name:tr":"Sudan","name:ku":"S\u00fbdan","name:ti":"\u1231\u12f3\u1295","name:ks":"\u0633\u0648\u0657\u0688\u0627\u0646","name:to":"S\u016bteni","name:tl":"Sudan","name:sv":"Sudan","name:or":"\u0b38\u0b41\u0b26\u0b3e\u0b28\u0b4d","name:pl":"Sudan","name:ta":"\u0b9a\u0bc2\u0b9f\u0bbe\u0ba9\u0bcd","name:tg":"\u0421\u0443\u0434\u0430\u043d","name:ca":"Sudan","name:te":"\u0c38\u0c41\u0c21\u0c3e\u0c28\u0c4d","name:hu":"Szud\u00e1n","name:ro":"Sudan","name:cy":"Sudan","name:hr":"Sudan","name:da":"Sudan","name:fr":"Soudan","name:de":"Sudan","name:dz":"\u0f66\u0f74\u0f0b\u0f4c\u0f71\u0f53","source":"openstreetmap.org","name:lv":"Sud\u0101na","name:lt":"Sudanas","name:uz":"Sudan","name:he":"\u05e1\u05d5\u05d3\u05df","kind":"country","name:ur":"\u0633\u0648\u0688\u0627\u0646","name:lb":"Sudan","name:la":"Sudania","name:lg":"Sudaani","name:uk":"\u0421\u0443\u0434\u0430\u043d","name:hy":"\u054d\u0578\u0582\u0564\u0561\u0576","min_zoom":2.0,"name:li":"Soedaan","name:ln":"Sud\u00e1","name:lo":"\u0e8a\u0eb9\u0e94\u0eb2\u0e99","population":39379358,"name:el":"\u03a3\u03bf\u03c5\u03b4\u03ac\u03bd","name:eo":"Sudano","name:en":"Sudan","name":"\u0627\u0644\u0633\u0648\u062f\u0627\u0646","official_name":"\u062c\u0645\u0647\u0648\u0631\u064a\u0629 \u0627\u0644\u0633\u0648\u062f\u0627\u0646","name:ee":"Sudan nutome","name:th":"\u0e1b\u0e23\u0e30\u0e40\u0e17\u0e28\u0e0b\u0e39\u0e14\u0e32\u0e19","name:gu":"\u0ab8\u0ac1\u0aa6\u0abe\u0aa8","name:eu":"Sudan","name:et":"Sudaan","name:nl":"Soedan","name:es":"Sud\u00e1n","name:ia":"Sudan","name:rm":"Sudan","name:rn":"Sudani","name:az":"sudan","name:id":"Sudan","name:ms":"Sudan","name:mr":"\u0938\u0941\u0926\u093e\u0928","name:my":"\u1006\u1030\u1012\u1014\u103a","name:io":"Sudan","int_name":"Sudan","name:is":"S\u00fadan","name:am":"\u1231\u12f3\u1295","name:it":"Sudan","name:vi":"Sudan","name:ru":"\u0421\u0443\u0434\u0430\u043d","name:mn":"\u0421\u0443\u0434\u0430\u043d","id":424297973,"name:mk":"\u0421\u0443\u0434\u0430\u043d","name:af":"Soedan","name:zu":"i-Sudan","name:ha":"Sudan","name:nn":"Sudan","name:ff":"Sudaan","name:fi":"Sudan","name:hi":"\u0938\u0942\u0921\u093e\u0928","name:mg":"Sodan","name:fo":"Nor\u00f0ursudan","name:ba":"\u0421\u0443\u0434\u0430\u043d","name:fy":"S\u00fbdan","name:vo":"Sud\u00e4n","name:zh":"\u82cf\u4e39","name:gv":"Yn Toodaan","name:so":"Suudaan","name:sn":"Sudan","name:sl":"Sudan","name:sk":"Sud\u00e1n","name:ja":"\u30b9\u30fc\u30c0\u30f3","name:si":"\u0dc3\u0dd6\u0da9\u0dcf\u0db1\u0dba","name:fa":"\u0633\u0648\u062f\u0627\u0646","name:sg":"Sud\u00e4an","name:se":"Davvisudan","name:ne":"\u0938\u0941\u0921\u093e\u0928","name:br":"Soudan","name:bs":"Sudan","name:bm":"Suda\u014b","name:bn":"\u09b8\u09c1\u09a6\u09be\u09a8","name:bo":"\u0f66\u0f74\u0f0b\u0f51\u0f71\u0f53\u0f0d","name:ml":"\u0d38\u0d41\u0d21\u0d3e\u0d7b","name:no":"Sudan","name:sw":"Sudani","name:be":"\u0421\u0443\u0434\u0430\u043d","name:bg":"\u0421\u0443\u0434\u0430\u043d","name:sr":"\u0421\u0443\u0434\u0430\u043d","name:ga":"An tS\u00fad\u00e1in","name:gd":"Sudan","name:gl":"Sud\u00e1n","name:yo":"Or\u00edl\u1eb9\u0301\u00e8de Sudani","name:ak":"Sudan","name:tt":"\u0421\u0443\u0434\u0430\u043d"},"coordinates":[1273,2722]},{"type":"Point","properties":{"name:pt":"Qu\u00eania","name:ps":"\u06a9\u06d0\u0646\u064a\u0627","name:cy":"Cenia","name:mt":"Kenja","name:ko":"\ucf00\ub0d0","name:cv":"\u041a\u0435\u043d\u0438","name:km":"\u1780\u17c1\u1793\u1799\u17c9\u17b6","name:cs":"Ke\u0148a","name:tt":"\u041a\u0435\u043d\u0438\u044f","name:tk":"Keni\u00fda","name:th":"\u0e1b\u0e23\u0e30\u0e40\u0e17\u0e28\u0e40\u0e04\u0e19\u0e22\u0e32","name:ti":"\u12ac\u1295\u12eb","name:ks":"\u06a9\u0650\u0646\u065b\u06cc\u0627","name:to":"Kenia","name:pa":"\u0a15\u0a40\u0a28\u0a40\u0a06","name:os":"\u041a\u0435\u043d\u0438","name:or":"\u0b15\u0b47\u0b28\u0b3f\u0b5f\u0b3e","name:ce":"\u041a\u0435\u043d\u0438","name:ta":"\u0b95\u0bc6\u0ba9\u0bcd\u0baf\u0bbe","name:tg":"\u041a\u0435\u043d\u0438\u044f","name:te":"\u0c15\u0c46\u0c28\u0c4d\u0c2f\u0c3e","name:om":"Keeniyaa","name:ka":"\u10d9\u10d4\u10dc\u10d8\u10d0","name:ln":"K\u00e9nya","name:de":"Kenia","name:dz":"\u0f40\u0f7a\u0f53\u0f0b\u0f61","source":"openstreetmap.org","name:nv":"K\u00e9nya","name:kn":"\u0c95\u0cc0\u0ca8\u0ccd\u0caf\u0cbe","name:yi":"\u05e7\u05e2\u05e0\u05d9\u05e2","name:dv":"\u0786\u07ac\u0782\u07b0\u0794\u07a7","name:lv":"Kenija","name:lt":"Kenija","name:uz":"Keniya","name:kk":"\u041a\u0435\u043d\u0438\u044f","name:he":"\u05e7\u05e0\u05d9\u05d4","kind":"country","name:ur":"\u06a9\u06cc\u0646\u06cc\u0627","name:lb":"Kenia","name:la":"Kenia","official_name":"Republic of Kenya;Jamhuri ya Kenya","name:uk":"\u041a\u0435\u043d\u0456\u044f","name:hy":"\u0554\u0565\u0576\u056b\u0561","name:ug":"\u0643\u06d0\u0646\u0649\u064a\u06d5","name:li":"Kenia","name:hr":"Kenija","name:lo":"\u0ec0\u0e84\u0eb1\u0e99\u0ea2\u0ec9\u0eb2","population":38610097,"name:el":"\u039a\u03ad\u03bd\u03c5\u03b1","name:eo":"Kenjo","name":"Kenya","name:ee":"Kenya nutome","min_zoom":2.0,"name:gu":"\u0a95\u0ac7\u0aa8\u0acd\u0aaf\u0abe","name:eu":"Kenia","name:et":"Keenia","name:nl":"Kenia","name:es":"Kenia","name:ml":"\u0d15\u0d46\u0d28\u0d3f\u0d2f","name:rm":"Kenia","name:az":"Keniya","name:ie":"Kenia","name:mr":"\u0915\u0947\u0928\u093f\u092f\u093e","name:qu":"Kinya","name:ar":"\u0643\u064a\u0646\u064a\u0627","name:my":"\u1000\u1004\u103a\u100a\u102c","name:io":"Kenia","name:is":"Ken\u00fda","name:am":"\u12ac\u1295\u12eb","name:fo":"Kenja","name:an":"Kenia","name:ru":"\u041a\u0435\u043d\u0438\u044f","name:mn":"\u041a\u0435\u043d\u0438","name:mi":"K\u0113nia","name:pl":"Kenia","name:mk":"\u041a\u0435\u043d\u0438\u0458\u0430","name:af":"Kenia","name:zu":"i-Kenya","name:ff":"Ke\u00f1aa","name:fi":"Kenia","name:hi":"\u0915\u0947\u0928\u094d\u092f\u093e","name:mg":"Kenia","id":424313903,"name:zh-yue":"\u80af\u96c5","name:vo":"Keny\u00e4n","name:zh":"\u80af\u5c3c\u4e9a","name:gv":"Yn Cheinney","name:so":"Kiiniya","name:sr":"\u041a\u0435\u043d\u0438\u0458\u0430","name:sl":"Kenija","name:sk":"Ke\u0148a","name:ja":"\u30b1\u30cb\u30a2","name:si":"\u0d9a\u0dd9\u0db1\u0dca\u0dba\u0dcf\u0dc0","name:sh":"Kenija","name:sg":"Keny\u00e4a","name:na":"Keniya","name:se":"Kenia","name:sc":"K\u00e8nya","name:ne":"\u0915\u0947\u0928\u094d\u092f\u093e","name:sa":"\u0915\u0947\u0928\u094d\u092f\u093e","name:bs":"Kenija","name:bm":"Keniya","name:bn":"\u0995\u09c7\u09a8\u09bf\u09af\u09bc\u09be","name:bo":"\u0f41\u0f7a\u0f53\u0f0b\u0f49\u0f72\u0f0b\u0f61\u0f0d","name:be":"\u041a\u0435\u043d\u0456\u044f","name:su":"K\u00e9nya","name:bg":"\u041a\u0435\u043d\u0438\u044f","name:ss":"IKheniya","name:ba":"\u041a\u0435\u043d\u0438\u044f","name:sq":"Kenia","name:ga":"An Ch\u00e9inia","name:gd":"A' Cheinia","name:wo":"Kee\u00f1aa","name:jv":"K\u00e9nya","name:gl":"Quenia","name:fa":"\u06a9\u0646\u06cc\u0627","name:yo":"Or\u00edl\u1eb9\u0301\u00e8de Kenya","name:ak":"K\u025bnya"},"coordinates":[2900,269]},{"type":"Point","properties":{"name:ka":"\u10e3\u10d2\u10d0\u10dc\u10d3\u10d0","name:ko":"\uc6b0\uac04\ub2e4","name:cv":"\u0423\u0433\u0430\u043d\u0434\u0430","name:km":"\u17a2\u17ca\u17bc\u17a0\u17d2\u1780\u1784\u17cb\u178a\u17b6","name:kk":"\u0423\u0433\u0430\u043d\u0434\u0430","name:tt":"\u0423\u0433\u0430\u043d\u0434\u0430","name:kw":"Ouganda","name:ku":"\u00dbganda","name:ti":"\u12e9\u130b\u1295\u12f3","name:ks":"\u06cc\u0648\u0657\u06af\u0627\u0646\u065b\u0691\u0627","name:to":"\u02bbIukanit\u0101","name:pa":"\u0a2f\u0a41\u0a17\u0a3e\u0a02\u0a21\u0a3e","name:os":"\u0423\u0433\u0430\u043d\u0434\u00e6","name:or":"\u0b09\u0b17\u0b3e\u0b23\u0b4d\u0b21\u0b3e","name:ce":"\u0423\u0433\u0430\u043d\u0434\u0430","name:ta":"\u0b89\u0b95\u0bbe\u0ba3\u0bcd\u0b9f\u0bbe","name:tg":"\u0423\u0433\u0430\u043d\u0434\u0430","name:te":"\u0c2f\u0c41\u0c17\u0c3e\u0c02\u0c21\u0c3e","name:wo":"Ugandaa","name:ba":"\u0423\u0433\u0430\u043d\u0434\u0430","name:dz":"\u0f61\u0f74\u0f0b\u0f42\u0fb7\u0f53\u0f0b\u0f4c","source":"openstreetmap.org","name:kn":"\u0c89\u0c97\u0cbe\u0c82\u0ca1\u0cbe","name:dv":"\u0794\u07aa\u078e\u07ac\u0782\u07b0\u0791\u07a7","name:hi":"\u092f\u0941\u0917\u093e\u0902\u0921\u093e","name:he":"\u05d0\u05d5\u05d2\u05e0\u05d3\u05d4","min_zoom":2.0,"kind":"country","name:ur":"\u06cc\u0648\u06af\u0627\u0646\u0688\u0627","name:lg":"Yuganda","name:uk":"\u0423\u0433\u0430\u043d\u0434\u0430","name:hy":"\u0548\u0582\u0563\u0561\u0576\u0564\u0561","name:ug":"\u0626\u06c7\u06af\u0627\u0646\u062f\u0627","name:li":"Oeganda","name:lo":"\u0ead\u0eb9\u0e81\u0eb2\u0e99\u0e94\u0eb2","name:oc":"Oganda","population":34509205,"name:el":"\u039f\u03c5\u03b3\u03ba\u03ac\u03bd\u03c4\u03b1","name:eo":"Ugando","name":"Uganda","name:ee":"Uganda nutome","name:th":"\u0e1b\u0e23\u0e30\u0e40\u0e17\u0e28\u0e22\u0e39\u0e01\u0e31\u0e19\u0e14\u0e32","name:yi":"\u05d0\u05d5\u05d2\u05d0\u05e0\u05d3\u05e2","name:yo":"Or\u00edl\u1eb9\u0301\u00e8de Uganda","name:rn":"Ubugande","name:az":"Uqanda","name:mr":"\u092f\u0941\u0917\u093e\u0902\u0921\u093e","name:ar":"\u0623\u0648\u063a\u0646\u062f\u0627","name:my":"\u101a\u1030\u1002\u1014\u1039\u1012\u102c","official_name":"Republic of Uganda;Jamhuri ya Uganda","name:is":"\u00daganda","name:am":"\u12e9\u130b\u1295\u12f3","name:ml":"\u0d09\u0d17\u0d3e\u0d23\u0d4d\u0d1f","name:ru":"\u0423\u0433\u0430\u043d\u0434\u0430","name:rw":"Ubugande","name:mi":"Uk\u0101nga","id":424317406,"name:mk":"\u0423\u0433\u0430\u043d\u0434\u0430","name:vo":"Luganday\u00e4n","name:zu":"i-Uganda","name:ha":"Yuganda","name:mn":"\u0423\u0433\u0430\u043d\u0434\u0430","name:ff":"Unganndaa","name:mg":"Oganda","name:fr":"Ouganda","name:zh-yue":"\u70cf\u5e72\u9054","name:zh":"\u4e4c\u5e72\u8fbe","name:so":"Ugaanda","name:nl":"Oeganda","name:ja":"\u30a6\u30ac\u30f3\u30c0","name:si":"\u0d8b\u0d9c\u0db1\u0dca\u0da9\u0dcf\u0dc0","name:fa":"\u0627\u0648\u06af\u0627\u0646\u062f\u0627","name:sg":"Ugand\u00e4a","name:ne":"\u092f\u0941\u0917\u093e\u0923\u094d\u0921\u093e","name:br":"Ouganda","name:bn":"\u0989\u0997\u09be\u09a8\u09cd\u09a1\u09be","name:bo":"\u0f61\u0f74\u0f0b\u0f42\u0f53\u0f0b\u0f4c\u0f0d","name:be":"\u0423\u0433\u0430\u043d\u0434\u0430","name:bg":"\u0423\u0433\u0430\u043d\u0434\u0430","name:ss":"IBuganda","name:sr":"\u0423\u0433\u0430\u043d\u0434\u0430","name:nv":"Yog\u00e9nda","name:ht":"Ouganda","name:gv":"Ooganda","name:gu":"\u0aaf\u0ac1\u0a97\u0abe\u0a82\u0aa1\u0abe"},"coordinates":[1769,286]},{"type":"Point","properties":{"name:pt":"Sud\u00e3o do Sul","name:ps":"\u0633\u0648\u06d0\u0644\u064a \u0633\u0648\u0689\u0627\u0646","name:cy":"De Swdan","name:ko":"\ub0a8\uc218\ub2e8","name:cv":"\u041a\u04d1\u043d\u0442\u04d1\u0440 \u0421\u0443\u0434\u0430\u043d","name:km":"\u179f\u17ca\u17bc\u178a\u1784\u17cb\u200b\u1781\u17b6\u1784\u200b\u178f\u17d2\u1794\u17bc\u1784","name:cs":"Ji\u017en\u00ed S\u00fad\u00e1n","name:tt":"\u041a\u04e9\u043d\u044c\u044f\u043a \u0421\u0443\u0434\u0430\u043d","name:kw":"Soudan Soth","name:kv":"\u041b\u0443\u043d\u0432\u044b\u0432 \u0421\u0443\u0434\u0430\u043d","name:ku":"S\u00fbdana Ba\u015f\u00fbr","name:ro":"Sudanul de Sud","name:to":"S\u016btani tonga","name:tl":"Timog Sudan","name:zh-min-nan":"L\u00e2m Sudan","name:or":"\u0b26\u0b15\u0b4d\u0b37\u0b3f\u0b28 \u0b38\u0b41\u0b26\u0b3e\u0b28","name:pl":"Sudan Po\u0142udniowy","name:ta":"\u0ba4\u0bc6\u0bb1\u0bcd\u0b95\u0bc1 \u0b9a\u0bc2\u0b9f\u0bbe\u0ba9\u0bcd","name:ca":"Sudan del Sud","name:te":"\u0c26\u0c15\u0c4d\u0c37\u0c3f\u0c23 \u0c38\u0c42\u0c21\u0c3e\u0c28\u0c4d","name:vi":"Nam Sudan","name:hu":"D\u00e9l-Szud\u00e1n","name:ka":"\u10e1\u10d0\u10db\u10ee\u10e0\u10d4\u10d7\u10d8 \u10e1\u10e3\u10d3\u10d0\u10dc\u10d8","name:ln":"Sudani ya Sidi","name:da":"Sydsudan","name:nv":"Sh\u00e1di\u02bc\u00e1\u00e1hj\u00ed Sood\u0105\u0301\u0105","name:de":"S\u00fcdsudan","name:dz":"\u0f66\u0f71\u0f60\u0f74\u0f50\u0f0b \u0f66\u0f74\u0f0b\u0f4c\u0f71\u0f53","source":"openstreetmap.org","name:yo":"G\u00fa\u00fas\u00f9 Sudan","name:kn":"\u0ca6\u0c95\u0ccd\u0cb7\u0cbf\u0ca3 \u0cb8\u0cc2\u0ca1\u0cbe\u0ca8\u0ccd","name:pa":"\u0a26\u0a71\u0a16\u0a23\u0a40 \u0a38\u0a41\u0a21\u0a3e\u0a28","name:lv":"Dienvidsud\u0101na","name:lt":"Piet\u0173 Sudanas","name:uz":"Janubiy Sudan","name:kk":"\u041e\u04a3\u0442\u04af\u0441\u0442\u0456\u043a \u0421\u0443\u0434\u0430\u043d","name:sv":"Sydsudan","name:he":"\u05d3\u05e8\u05d5\u05dd \u05e1\u05d5\u05d3\u05df","kind":"country","name:ur":"\u062c\u0646\u0648\u0628\u06cc \u0633\u0648\u0688\u0627\u0646","name:lb":"S\u00fcdsudan","name:la":"Sudania Australis","official_name":"Republic of South Sudan","name:uk":"\u041f\u0456\u0432\u0434\u0435\u043d\u043d\u0438\u0439 \u0421\u0443\u0434\u0430\u043d","name:hy":"\u0540\u0561\u0580\u0561\u057e\u0561\u0575\u056b\u0576 \u054d\u0578\u0582\u0564\u0561\u0576","min_zoom":2.0,"name:li":"Zuid-Soedan","name:hr":"Ju\u017eni Sudan","name:lo":"\u0e8a\u0eb9\u0e94\u0eb2\u0e99\u0ec3\u0e95\u0ec9","name:oc":"Sodan del Sud","population":8260490,"name:el":"\u039d\u03cc\u03c4\u03b9\u03bf \u03a3\u03bf\u03c5\u03b4\u03ac\u03bd","name:eo":"Sud-Sudano","name":"South Sudan","name:tk":"G\u00fcnorta Sudan","name:ee":"Anyiehe Sudan nutome","name:th":"\u0e0b\u0e39\u0e14\u0e32\u0e19\u0e43\u0e15\u0e49","name:eu":"Hego Sudan","name:et":"L\u00f5una-Sudaan","name:nl":"Zuid-Soedan","name:es":"Sud\u00e1n del Sur","name:ia":"Sudan del Sud","name:rm":"Sudan dal Sid","name:az":"C\u0259nubi Sudan","name:ie":"Sud-Sudan","name:id":"Sudan Selatan","name:ms":"Sudan Selatan","name:mr":"\u0926\u0915\u094d\u0937\u093f\u0923 \u0938\u0941\u0926\u093e\u0928","name:qu":"Urin Sudan","name:ar":"\u062c\u0646\u0648\u0628 \u0627\u0644\u0633\u0648\u062f\u0627\u0646","name:my":"\u1010\u1031\u102c\u1004\u103a\u1006\u1030\u1012\u1014\u103a\u1014\u102d\u102f\u1004\u103a\u1004\u1036","name:io":"Sud-Sudan","name:av":"\u042e\u0433\u0430\u043b\u044a\u0443\u043b\u0430\u0431 \u0421\u0443\u0434\u0430\u043d","name:is":"Su\u00f0ur-S\u00fadan","name:am":"\u12f0\u1261\u1265 \u1231\u12f3\u1295","name:it":"Sudan del Sud","name:an":"Sud\u00e1n d'o Sud","name:ru":"\u042e\u0436\u043d\u044b\u0439 \u0421\u0443\u0434\u0430\u043d","id":1356260631,"name:mk":"\u0408\u0443\u0436\u0435\u043d \u0421\u0443\u0434\u0430\u043d","name:af":"Suid-Soedan","name:zu":"Iningizimu Sudan","name:nn":"S\u00f8r-Sudan","name:fi":"Etel\u00e4-Sudan","name:hi":"\u0926\u0915\u094d\u0937\u093f\u0923 \u0938\u0942\u0921\u093e\u0928","name:fo":"Su\u00f0ursudan","name:fr":"Sud-Soudan","name:ky":"\u0422\u04af\u0448\u0442\u04af\u043a \u0421\u0443\u0434\u0430\u043d","name:zh-yue":"\u5357\u8607\u4e39","name:fy":"S\u00fad-S\u00fbdan","name:vo":"Sul\u00fcda-Sud\u00e4n","name:zh":"\u5357\u8607\u4e39","name:gv":"Yn Toodaan Yiass","name:so":"Koonfur Suudaan","name:sl":"Ju\u017eni Sudan","name:sk":"Ju\u017en\u00fd Sud\u00e1n","name:ja":"\u5357\u30b9\u30fc\u30c0\u30f3","name:si":"\u0daf\u0d9a\u0dd4\u0dab\u0dd4 \u0dc3\u0dd4\u0da9\u0dcf\u0db1\u0dba","name:sh":"Ju\u017eni Sudan","name:sg":"Sud\u00e4an-Mbongo","name:se":"M\u00e1ttasudan","name:sc":"Sudan Meridionali","name:ne":"\u0926\u0915\u094d\u0937\u093f\u0923\u0940 \u0938\u0941\u0921\u093e\u0928","name:br":"Soudan ar Su","name:bs":"Ju\u017eni Sudan","name:yi":"\u05d3\u05e8\u05d5\u05dd \u05e1\u05d5\u05d3\u05d0\u05df","name:bn":"\u09a6\u0995\u09cd\u09b7\u09bf\u09a8 \u09b8\u09c1\u09a6\u09be\u09a8","name:ml":"\u0d26\u0d15\u0d4d\u0d37\u0d3f\u0d23 \u0d38\u0d41\u0d21\u0d3e\u0d7b","name:no":"S\u00f8r-Sudan","name:sw":"Sudani Kusini","name:be":"\u041f\u0430\u045e\u0434\u043d\u0451\u0432\u044b \u0421\u0443\u0434\u0430\u043d","name:su":"Sudan Kidul","name:bg":"\u042e\u0436\u0435\u043d \u0421\u0443\u0434\u0430\u043d","name:sr":"\u0408\u0443\u0436\u043d\u0438 \u0421\u0443\u0434\u0430\u043d","name:sq":"Sudani i Jugut","name:ga":"An tS\u00fad\u00e1in Theas","name:gd":"Sud\u00e0n a Deas","name:jv":"Sudan Kidul","name:gl":"Sud\u00e1n do sur","name:fa":"\u0633\u0648\u062f\u0627\u0646 \u062c\u0646\u0648\u0628\u06cc","name:tr":"G\u00fcney Sudan","name:gu":"\u0aa6\u0a95\u0acd\u0ab7\u0abf\u0aa3 \u0ab8\u0ac1\u0aa6\u0abe\u0aa8"},"coordinates":[1305,1469]},{"type":"Point","properties":{"name:kg":"Eritrea","name:ka":"\u10d4\u10e0\u10d8\u10e2\u10e0\u10d4\u10d0","name:ko":"\uc5d0\ub9ac\ud2b8\ub9ac\uc544","name:kn":"\u0c8f\u0cb0\u0cbf\u0c9f\u0ccd\u0cb0\u0cbf\u0caf\u0cbe","name:cu":"\u0404\u0440\u0477\u0473\u0440\u0457\ua657","name:kl":"Eritrea","name:cs":"Eritrea","name:ki":"Eritrea","name:kw":"Eritrea","name:tk":"Eritre\u00fda","name:ku":"Er\u00eetrea","name:ks":"\u0627\u0650\u0631\u0655\u0679\u0650\u06cc\u0627","name:to":"\u02bbElitulia","name:tl":"Eritrea","name:ce":"\u042d\u0440\u0438\u0442\u0440\u0435","name:ta":"\u0b8e\u0bb0\u0bbf\u0b9f\u0bcd\u0bb0\u0bbf\u0baf\u0bbe","name:tg":"\u042d\u0440\u0438\u0442\u0440\u0435\u044f","name:ca":"Eritrea","name:te":"\u0c0e\u0c30\u0c3f\u0c1f\u0c4d\u0c30\u0c3f\u0c2f\u0c3e","name:cy":"Eritrea","name:hr":"Eritreja","name:da":"Eritrea","name:de":"Eritrea","name:dz":"\u0f68\u0f7a\u0f0b\u0f62\u0f72\u0f0b\u0f4a\u0fb2\u0f7a\u0f0b\u0f61","source":"openstreetmap.org","name:ts":"Eritreya","name:dv":"\u0787\u07ac\u0783\u07a8\u078c\u07aa\u0783\u07a8\u0787\u07a7","name:km":"\u17a2\u17c1\u179a\u17b8\u1791\u17d2\u179a\u17b6","name:lv":"Eritreja","name:lt":"Eritr\u0117ja","name:uz":"Eritriya","name:kk":"\u042d\u0440\u0438\u0442\u0440\u0435\u044f","name:ur":"\u0627\u0631\u06cc\u0679\u06cc\u0631\u06cc\u0627","name:lb":"Eritrea","name:la":"Erythraea","name:lg":"Eritureya","name:uk":"\u0415\u0440\u0438\u0442\u0440\u0435\u044f","name:ug":"\u0626\u06d0\u0631\u0649\u062a\u0631\u06d0\u064a\u06d5","name:li":"Eritrea","name:ln":"Elitel\u025b","name:lo":"\u0ec0\u0ead\u0ea3\u0eb4\u0ec0\u0e97\u0ea3\u0e8d","name:el":"\u0395\u03c1\u03c5\u03b8\u03c1\u03b1\u03af\u03b1","name:eo":"Eritreo","name:en":"Eritrea","name":"\u12a4\u122d\u1275\u122b","name:ee":"Eritrea nutome","name:th":"\u0e1b\u0e23\u0e30\u0e40\u0e17\u0e28\u0e40\u0e2d\u0e23\u0e34\u0e40\u0e17\u0e23\u0e35\u0e22","name:eu":"Eritrea","name:et":"Eritrea","name:es":"Eritrea","name:ia":"Eritrea","name:rm":"Eritrea","name:rn":"Elitereya","name:az":"Eritreya","name:ie":"Eritr\u00e9a","name:id":"Eritrea","name:ar":"\u0625\u0631\u064a\u062a\u0631\u064a\u0627","name:io":"Eritrea","name:ak":"\u0190ritrea","name:it":"Eritrea","name:an":"Eritrea","name:aa":"Eretria","name:ru":"\u042d\u0440\u0438\u0442\u0440\u0435\u044f","name:rw":"Eritereya","name:af":"Eritrea","name:zu":"i-Eritrea","name:ky":"\u042d\u0440\u0438\u0442\u0440\u0435\u044f","name:zh-yue":"\u5384\u7acb\u7279\u91cc\u4e9e","name:zh":"\u5384\u7acb\u7279\u91cc\u4e9a","name:so":"Eretereeya","name:sn":"Eritrea","name:sl":"Eritreja","name:sk":"Eritrea","name:ja":"\u30a8\u30ea\u30c8\u30ea\u30a2","name:si":"\u0d91\u0dbb\u0dd2\u0dad\u0dca\u200d\u0dbb\u0dd2\u0dba\u0dcf\u0dc0","name:sh":"Eritreja","name:sg":"Eritr\u00ebe","name:se":"Eritrea","name:sc":"Eritrea","name:sa":"\u0907\u0930\u0940\u091f\u094d\u0930\u093f\u092f\u093e","name:bs":"Eritreja","name:bm":"Eritere","name:bn":"\u0987\u09b0\u09bf\u09a4\u09cd\u09b0\u09bf\u09af\u09bc\u09be","name:bo":"\u0f68\u0f7a\u0f0b\u0f62\u0f72\u0f0b\u0f4f\u0fb2\u0f7a\u0f0b\u0f68\u0f0d","name:br":"Eritrea","name:sw":"Eritrea","name:be":"\u042d\u0440\u044b\u0442\u0440\u044d\u044f","name:su":"\u00c9ritr\u00e9a","name:bg":"\u0415\u0440\u0438\u0442\u0440\u0435\u044f","name:ss":"IRitheya","name:ba":"\u042d\u0440\u0438\u0442\u0440\u0435\u044f","name:sq":"Eritre","name:jv":"Eritrea","name:pt":"Eritreia;Eritr\u00e9ia","name:ps":"\u0627\u0631\u06cc\u062a\u0631\u0647","name:om":"Eritrea","name:oc":"Eritr\u00e8a","min_zoom":2.0,"name:ro":"Eritreea","name:zh-min-nan":"Eritrea","name:os":"\u042d\u0440\u0438\u0442\u0440\u0435\u0439","name:or":"\u0b07\u0b30\u0b3f\u0b1f\u0b4d\u0b30\u0b3f\u0b5f\u0b3e","name:pl":"Erytrea","name:st":"Eritrea","name:sr":"\u0415\u0440\u0438\u0442\u0440\u0435\u0458\u0430","name:pa":"\u0a07\u0a30\u0a40\u0a24\u0a30\u0a40\u0a06","name:tr":"Eritre","name:hi":"\u0907\u0930\u093f\u091f\u094d\u0930\u093f\u092f\u093e","name:sv":"Eritrea","name:he":"\u05d0\u05e8\u05d9\u05ea\u05e8\u05d9\u05d0\u05d4","name:ha":"Eritireya","name:hy":"\u0537\u0580\u056b\u057f\u0580\u0565\u0561","name:ht":"Eritre","name:hu":"Eritrea","name:qu":"Iritriya","population":5293800,"kind":"country","name:is":"Er\u00edtrea","name:yi":"\u05e2\u05e8\u05d9\u05d8\u05e8\u05e2\u05d0","name:yo":"Or\u00edl\u1eb9\u0301\u00e8de Eritira","name:mt":"Eritreja","name:ms":"Eritrea","name:mr":"\u0907\u0930\u093f\u091f\u094d\u0930\u093f\u092f\u093e","name:my":"\u1021\u102e\u101b\u102e\u1011\u101b\u102e\u1038\u101a\u102c\u1038\u1014\u102d\u102f\u1004\u103a\u1004\u1036","official_name":"\u1203\u1308\u1228 \u12a4\u122d\u1275\u122b;\u062f\u0648\u0644\u0629 \u0625\u0631\u062a\u0631\u064a\u0627","int_name":"Eritrea","name:mg":"Eritrea","name:ml":"\u0d0e\u0d31\u0d3f\u0d24\u0d4d\u0d30\u0d3f\u0d2f","name:vi":"Eritrea","name:mn":"\u042d\u043d\u044d\u0442\u0445\u044d\u0433","id":424316022,"name:mk":"\u0415\u0440\u0438\u0442\u0440\u0435\u0458\u0430","name:vo":"Ler\u00fctr\u00e4n","name:fa":"\u0627\u0631\u06cc\u062a\u0631\u0647","name:ff":"Eriteree","name:fi":"Eritrea","name:fo":"Eritrea","name:fr":"\u00c9rythr\u00e9e","name:fy":"Eritre\u00e4","name:nl":"Eritrea","name:nn":"Eritrea","name:no":"Eritrea","name:na":"Eritrea","name:ne":"\u090f\u0930\u093f\u0924\u094d\u0930\u093f\u092f\u093e","name:wo":"Eritere","name:ga":"An Eiritr\u00e9","name:gd":"Ertra","name:gn":"Erityrea","name:gl":"Eritrea","name:gv":"Eritrea","name:gu":"\u0a8f\u0ab0\u0abf\u0a9f\u0acd\u0ab0\u0abf\u0aaf\u0abe","name:tt":"\u042d\u0440\u0438\u0442\u0440\u0435\u044f"},"coordinates":[2822,2977]},{"type":"Point","properties":{"source":"naturalearthdata.com","kind":"locality","name":"Addis Ababa","country_capital":true,"population":3100000,"min_zoom":3.0,"id":7254},"coordinates":[2949,1687]},{"type":"Point","properties":{"kind":"region","name:en":"Oromia Region","name":"Orom\u012bya Kilil","kind_detail":"state","name:ar":"\u0623\u0648\u0631\u0648\u0645\u064a\u0627","min_zoom":4.0,"name:de":"Oromia","source":"openstreetmap.org","name:fr":"Oromia","name:am":"\u12a6\u122e\u121a\u12eb \u12ad\u120d\u120d","name:uk":"\u041e\u0440\u043e\u043c\u0456\u044f","name:ru":"\u041e\u0440\u043e\u043c\u0438\u044f","name:hu":"Oromia","id":321732067,"population":26553000},"coordinates":[3191,1432]},{"type":"Point","properties":{"kind":"region","name:en":"Amhara Region","name":"The State Of Amhara;\u0100mara Kilil","kind_detail":"state","name:de":"Amhara","source":"openstreetmap.org","min_zoom":4.0,"name:am":"\u12a0\u121b\u122b","name:ru":"\u0410\u043c\u0445\u0430\u0440\u0430","name:hu":"Amhara R\u00e9gi\u00f3","id":1150961619,"population":19120005},"coordinates":[2913,2147]},{"type":"Point","properties":{"kind":"region","name:en":"Southern Nations Nationalities and Peoples Region","name":"\u12f0\u1261\u1265 \u1265\u1214\u122e\u127d \u1265\u1214\u1228\u1230\u1266\u127d\u1293 \u1215\u12dd\u1266\u127d \u12ad\u120d\u120d \/ SNNPR","kind_detail":"state","name:ar":"\u0627\u0644\u0623\u0645\u0645 \u0627\u0644\u062c\u0646\u0648\u0628\u064a\u0629","min_zoom":4.0,"name:de":"S\u00fcdlichen Nationen","source":"openstreetmap.org","name:fr":"Nations du Sud","name:am":"\u12f0\u1261\u1265 \u1265\u1214\u122e\u127d \u1265\u1214\u1228\u1230\u1266\u127d\u1293 \u1215\u12dd\u1266\u127d \u12ad\u120d\u120d","name:uk":"\u041d\u0430\u0440\u043e\u0434\u0456\u0432 \u043f\u0456\u0432\u0434\u043d\u044f","name:ru":"\u0420\u0435\u0433\u0438\u043e\u043d \u041d\u0430\u0440\u043e\u0434\u043e\u0432 \u044e\u0433\u0430","id":321732073,"population":14901990},"coordinates":[2578,1205]},{"type":"Point","properties":{"kind":"region","name":"Eastern","kind_detail":"state","name:de":"Ost","source":"openstreetmap.org","min_zoom":4.0,"id":1938467961,"population":5500000},"coordinates":[2931,220]},{"type":"Point","properties":{"source":"naturalearthdata.com","kind":"locality","name":"Khartoum","country_capital":true,"population":4754000,"min_zoom":4.0,"id":7132},"coordinates":[1826,2910]},{"type":"Point","properties":{"kind":"region","name:en":"Khartoum State","name":"\u0627\u0644\u062e\u0631\u0637\u0648\u0645","kind_detail":"state","min_zoom":4.0,"name:de":"Khartum","source":"openstreetmap.org","name:fr":"Khartoum","name:ru":"\u0425\u0430\u0440\u0442\u0443\u043c","id":321446208,"population":4700000},"coordinates":[1866,2956]},{"type":"Point","properties":{"name:so":"Gobolka Soomaalida","alt_name:en":"Somalia;Western Somali","name:ar":"\u0627\u0644\u0635\u0648\u0645\u0627\u0644","min_zoom":4.0,"name:am":"\u1236\u121b\u120c \u12ad\u120d\u120d","name:uk":"\u0421\u043e\u043c\u0430\u043b\u0456","name:ru":"\u0421\u043e\u043c\u0430\u043b\u0438","alt_name:fr":"Somalie occidentale","name:hu":"Szom\u00e1lia (sz\u00f6vets\u00e9gi \u00e1llam)","id":321732072,"population":4329001,"kind":"region","name:en":"Somali Region","name":"Sumal\u0113 Kilil","kind_detail":"state","name:de":"Somali","source":"openstreetmap.org","name:fr":"Somali"},"coordinates":[3829,1356]},{"type":"Point","properties":{"kind":"region","name":"Western","kind_detail":"state","name:de":"West","source":"openstreetmap.org","min_zoom":4.0,"id":1938467964,"population":4000000},"coordinates":[2198,95]},{"type":"Point","properties":{"kind":"region","name:en":"Addis Abeba","name":"\u12a3\u12f2\u1235 \u12a3\u1260\u1263","name:lt":"Adis Abeba","kind_detail":"state","min_zoom":4.0,"source":"openstreetmap.org","name:fr":"Addis-Abeba","name:uk":"\u0410\u0434\u0434\u0438\u0441-\u0410\u0431\u0435\u0431\u0430","name:ru":"\u0410\u0434\u0434\u0438\u0441-\u0410\u0431\u0435\u0431\u0430","id":321732075,"population":3147000},"coordinates":[2958,1680]},{"type":"Point","properties":{"source":"naturalearthdata.com","kind":"locality","name":"Jeddah","population":3012000,"min_zoom":4.0,"id":7133},"coordinates":[3043,4017]},{"type":"Point","properties":{"kind":"region","name:en":"Ta'izz Governorate","name":"\u0645\u062d\u0627\u0641\u0638\u0629 \u062a\u0639\u0632","kind_detail":"state","min_zoom":4.0,"source":"openstreetmap.org","name:fr":"Ta'izz","name:ru":"\u0422\u0430\u0438\u0437","name:hu":"Taizz","id":663081615,"population":2393425},"coordinates":[3866,2511]},{"type":"Point","properties":{"kind":"region","name:en":"Al Hudaydah Governorate","name":"\u0645\u062d\u0627\u0641\u0638\u0629 \u0627\u0644\u062d\u062f\u064a\u062f\u0629","kind_detail":"state","name:ar":"\u0627\u0644\u062d\u062f\u064a\u062f\u0629","min_zoom":4.0,"source":"openstreetmap.org","name:fr":"Al Hudaydah","name:ru":"\u0425\u043e\u0434\u0435\u0439\u0434\u0430","name:hu":"El-Hudajda","id":663081617,"population":2157552},"coordinates":[3747,2808]},{"type":"Point","properties":{"kind":"region","name:en":"Ibb Governorate","name":"\u0645\u062d\u0627\u0641\u0638\u0629 \u0625\u0628","kind_detail":"state","min_zoom":4.0,"source":"openstreetmap.org","name:fr":"Ibb","name:ru":"\u0418\u0431\u0431","name:hu":"Ibb","id":663081619,"population":2131861},"coordinates":[3951,2633]},{"type":"Point","properties":{"source":"naturalearthdata.com","kind":"locality","name":"Sanaa","country_capital":true,"population":2008000,"min_zoom":4.0,"id":7125},"coordinates":[3951,2867]},{"type":"Point","properties":{"kind":"region","name:en":"North Darfur State","name":"North Darfur State \u0634\u0645\u0627\u0644 \u062f\u0627\u0631\u0641\u0648\u0631","kind_detail":"state","name:ar":"\u0634\u0645\u0627\u0644 \u062f\u0627\u0631\u0641\u0648\u0631","min_zoom":4.0,"name:de":"Nord-Darfur","source":"openstreetmap.org","name:fr":"Darfour du Nord","name:ru":"\u0421\u0435\u0432\u0435\u0440\u043d\u044b\u0439 \u0414\u0430\u0440\u0444\u0443\u0440","id":321446204,"population":1583000},"coordinates":[637,2987]},{"type":"Point","properties":{"kind":"region","name:en":"Hajjah Governorate","name":"\u0645\u062d\u0627\u0641\u0638\u0629 \u062d\u062c\u0629","kind_detail":"state","min_zoom":4.0,"source":"openstreetmap.org","name:fr":"Hajjah","name:ru":"\u0425\u0430\u0434\u0434\u0436\u0430","name:hu":"Haddzsa","id":663081622,"population":1479568},"coordinates":[3739,3009]},{"type":"Point","properties":{"kind":"region","name":"North-Eastern","kind_detail":"state","name:de":"Nordost","source":"openstreetmap.org","min_zoom":4.0,"id":1938467958,"population":1410000},"coordinates":[3225,197]},{"type":"Point","properties":{"kind":"region","name:en":"North Kurdufan State","name":"North Kurdufan State \u0634\u0645\u0627\u0644 \u0643\u0631\u062f\u0641\u0627\u0646","kind_detail":"state","name:ar":"\u0634\u0645\u0627\u0644 \u0643\u0631\u062f\u0641\u0627\u0646","min_zoom":4.0,"name:de":"Nord-Kurdufan","source":"openstreetmap.org","name:fr":"Kordofan du Nord","name:ru":"\u0421\u0435\u0432\u0435\u0440\u043d\u044b\u0439 \u041a\u043e\u0440\u0434\u043e\u0444\u0430\u043d","id":321446174,"population":1400000},"coordinates":[1365,2800]},{"type":"Point","properties":{"kind":"region","name:en":"Al Qadarif State","name":"Al Qadarif State \u0627\u0644\u0642\u0636\u0627\u0631\u0641","kind_detail":"state","name:ar":"\u0627\u0644\u0642\u0636\u0627\u0631\u0641","min_zoom":4.0,"name:de":"al-Qadarif","source":"openstreetmap.org","name:fr":"Al Qadarif","name:ru":"\u0413\u0435\u0434\u0430\u0440\u0435\u0444","id":321446176,"population":1400000},"coordinates":[2291,2609]},{"type":"Point","properties":{"kind":"region","name:en":"White Nile State","name":"\u0627\u0644\u0646\u064a\u0644 \u0627\u0644\u0623\u0628\u064a\u0636","kind_detail":"state","min_zoom":4.0,"name:de":"Wei\u00dfer Nil","source":"openstreetmap.org","name:fr":"Nil Blanc","name:ru":"\u0411\u0435\u043b\u044b\u0439 \u041d\u0438\u043b","id":321446178,"population":1400000},"coordinates":[1820,2333]},{"type":"Point","properties":{"kind":"region","name:en":"Kassala State","name":"Kassala State \u0643\u0633\u0644","kind_detail":"state","name:ar":"\u0643\u0633\u0644","min_zoom":4.0,"name:de":"Kassala","source":"openstreetmap.org","name:fr":"Kassala","old_name":"Al Wil\u0101yah ash Sharq\u012byah","name:ru":"\u041a\u0430\u0441\u0441\u0430\u043b\u0430","id":321446209,"population":1400000},"coordinates":[2461,2995]},{"type":"Point","properties":{"kind":"region","name:en":"Afar Region","name":"\u0100far Kilil","kind_detail":"state","name:ar":"\u0639\u0641\u0627\u0631","min_zoom":4.0,"name:de":"Afar","source":"openstreetmap.org","name:fr":"Afar","name:am":"\u12a0\u134b\u122d","name:uk":"\u0410\u0444\u0430\u0440","name:ru":"\u0410\u0444\u0430\u0440","name:hu":"Afar R\u00e9gi\u00f3","id":1150919368,"population":1389004},"coordinates":[3374,2186]},{"type":"Point","properties":{"source":"naturalearthdata.com","kind":"locality","name":"Makkah","population":1385000,"min_zoom":4.0,"id":7134},"coordinates":[3153,4001]},{"type":"Point","properties":{"kind":"region","name:en":"Dhamar Governorate","name":"\u0630\u0645\u0627\u0631\u200e","kind_detail":"state","name:ar":"\u062a\u0639\u0632","min_zoom":4.0,"source":"openstreetmap.org","name:fr":"Dhamar","name:ru":"\u0414\u0430\u043c\u0430\u0440","name:hu":"Dzam\u00e1r","id":663081621,"population":1329229},"coordinates":[3979,2741]},{"type":"Point","properties":{"kind":"region","name":"Upper Nile State","kind_detail":"state","name:ar":"\u0623\u0639\u0627\u0644\u064a \u0627\u0644\u0646\u064a\u0644","min_zoom":4.0,"name:de":"Obernil","source":"openstreetmap.org","name:fr":"Nil sup\u00e9rieur","name:uk":"\u0412\u0435\u0440\u0445\u043d\u0456\u0439 \u041d\u0456\u043b","name:ru":"\u0412\u0435\u0440\u0445\u043d\u0438\u0439 \u041d\u0438\u043b","name:pl":"Nil G\u00f3rny","id":321446207,"population":1300000},"coordinates":[1911,1680]},{"type":"Point","properties":{"kind":"region","name:en":"South Kurdufan State","name":"South Kurdufan State \u062c\u0646\u0648\u0628 \u0643\u0631\u062f\u0641\u0627\u0646","kind_detail":"state","name:ar":"\u062c\u0646\u0648\u0628 \u0643\u0631\u062f\u0641\u0627\u0646","min_zoom":4.0,"name:de":"S\u00fcd-Kurdufan","source":"openstreetmap.org","name:fr":"Kordofan du Sud","name:ru":"\u042e\u0436\u043d\u044b\u0439 \u041a\u043e\u0440\u0434\u043e\u0444\u0430\u043d","id":321446201,"population":1100000},"coordinates":[1547,2053]},{"type":"Point","properties":{"kind":"region","name:en":"Sennar State","name":"Sennar State \u0633\u0646\u0627\u0631","kind_detail":"state","name:ar":"\u0633\u0646\u0627\u0631","min_zoom":4.0,"name:de":"Sannar","source":"openstreetmap.org","name:fr":"Sannar","name:ru":"\u0421\u0435\u043d\u043d\u0430\u0440","id":321446206,"population":1100000},"coordinates":[2002,2427]},{"type":"Point","properties":{"kind":"region","name:en":"West Darfur State","name":"West Darfur State \u063a\u0631\u0628 \u062f\u0627\u0631\u0641\u0648\u0631","kind_detail":"state","name:ar":"\u063a\u0631\u0628 \u062f\u0627\u0631\u0641\u0648\u0631","min_zoom":4.0,"name:de":"West-Darfur","source":"openstreetmap.org","name:fr":"Darfour-Occidental","name:ru":"\u0417\u0430\u043f\u0430\u0434\u043d\u044b\u0439 \u0414\u0430\u0440\u0444\u0443\u0440","name:hu":"West Darfur","id":321446198,"population":1007000},"coordinates":[29,2506]},{"type":"Point","properties":{"kind":"region","name:en":"Sana\u02bfa Governorate","name":"\u0645\u062d\u0627\u0641\u0638\u0629 \u0635\u0646\u0639\u0627\u0621","kind_detail":"state","min_zoom":4.0,"source":"openstreetmap.org","name:fr":"Sana'a","name:ru":"\u0421\u0430\u043d\u0430","name:hu":"Szanaa","id":663081623,"population":919215},"coordinates":[3978,2916]},{"type":"Point","properties":{"kind":"region","name:en":"River Nile State","name":"River Nile State \u0648\u0644\u0627\u064a\u0629 \u0646\u0647\u0631 \u0627\u0644\u0646\u064a\u0644","kind_detail":"state","name:ar":"\u0648\u0644\u0627\u064a\u0629 \u0646\u0647\u0631 \u0627\u0644\u0646\u064a\u0644","min_zoom":4.0,"name:de":"Nilfluss","source":"openstreetmap.org","name:fr":"Nil","name:sv":"Nilen","name:ru":"\u041d\u0438\u043b","id":321446199,"population":900000},"coordinates":[2104,3360]},{"type":"Point","properties":{"kind":"region","name:en":"'Amran Governorate","name":"\u0645\u062d\u0627\u0641\u0638\u0629 \u0639\u0645\u0631\u0627\u0646","kind_detail":"state","min_zoom":4.0,"source":"openstreetmap.org","name:fr":"'Amran","name:ru":"\u0410\u043c\u0440\u0430\u043d","name:hu":"Amr\u00e1n","id":663081624,"population":877786},"coordinates":[3890,3043]},{"type":"Point","properties":{"kind":"region","name":"Jonglei State","kind_detail":"state","name:ar":"\u062c\u0648\u0646\u0642\u0644\u064a","min_zoom":4.0,"name:de":"Jonglei","source":"openstreetmap.org","name:fr":"Jonglei","name:uk":"\u0414\u0436\u043e\u043d\u0433\u043b\u0435\u0439","name:ru":"\u0414\u0436\u043e\u043d\u0433\u043b\u0438\u0439","name:pl":"Jonglei","id":321446210,"population":800000},"coordinates":[1729,1493]},{"type":"Point","properties":{"kind":"region","name:en":"Southern Zone","name":"\u12de\u1263 \u12f0\u1261\u1265 \u0627\u0644\u0645\u0646\u0637\u0642\u0629 \u0627\u0644\u062c\u0646\u0648\u0628\u064a\u0629","kind_detail":"state","name:ar":"\u0627\u0644\u0645\u0646\u0637\u0642\u0629 \u0627\u0644\u062c\u0646\u0648\u0628\u064a\u0629","name:de":"S\u00fcd-Region","source":"openstreetmap.org","min_zoom":4.0,"name:ti":"\u12de\u1263 \u12f0\u1261\u1265","name:ru":"\u042e\u0436\u043d\u0430\u044f \u043f\u0440\u043e\u0432\u0438\u043d\u0446\u0438\u044f","id":321516870,"population":755379},"coordinates":[2970,2783]},{"type":"Point","properties":{"kind":"region","name:en":"Lahij Governorate","name":"\u0645\u062d\u0627\u0641\u0638\u0629 \u0644\u062d\u062c","kind_detail":"state","min_zoom":4.0,"source":"openstreetmap.org","name:fr":"Lahij","name:ru":"\u041b\u0430\u0445\u0434\u0436","name:hu":"Lahidzs","id":663081614,"population":722694},"coordinates":[4020,2460]},{"type":"Point","properties":{"name:pt":"Mar Vermelho","name:ar":"\u0627\u0644\u0628\u062d\u0631 \u0627\u0644\u0623\u062d\u0645\u0631","min_zoom":4.0,"name:it":"Mar Rosso","name:sv":"R\u00f6da havet","name:ru":"\u041a\u0440\u0430\u0441\u043d\u043e\u0435 \u043c\u043e\u0440\u0435","id":321446175,"population":695874,"kind":"region","name:en":"Red Sea State","name":"Red Sea State \u0627\u0644\u0628\u062d\u0631 \u0627\u0644\u0623\u062d\u0645\u0631","kind_detail":"state","name:de":"Rotes Meer","source":"openstreetmap.org","name:fr":"Mer Rouge","name:es":"Mar Rojo"},"coordinates":[2458,3733]},{"type":"Point","properties":{"kind":"region","name:en":"Sa'dah Governorate","name":"\u0645\u062d\u0627\u0641\u0638\u0629 \u0635\u0639\u062f\u0629","kind_detail":"state","min_zoom":4.0,"source":"openstreetmap.org","name:fr":"Sa'dah","name:ru":"\u0421\u0430\u0430\u0434\u0430","name:hu":"Szaada","id":663081625,"population":693217},"coordinates":[3886,3187]},{"type":"Point","properties":{"kind":"region","name:en":"Benishangul-Gumuz Region","name":"B\u012bnshangul Gumuz Kilil","kind_detail":"state","min_zoom":4.0,"name:de":"Benishangul-Gumuz","source":"openstreetmap.org","name:fr":"Benshangul-Gumaz","name:am":"\u1264\u1295\u123b\u1295\u1309\u120d-\u1309\u121d\u12dd","name:uk":"\u0411\u0435\u043d\u0456\u0448\u0430\u043d\u0433\u0443\u043b-\u0413\u0443\u043c\u0443\u0437","old_name":"Region 6","name:ru":"\u0411\u0435\u043d\u0438\u0448\u0430\u043d\u0433\u0443\u043b-\u0413\u0443\u043c\u0443\u0437","id":1150886262,"population":625000},"coordinates":[2378,1946]},{"type":"Point","properties":{"kind":"region","name:en":"Northern State","name":"\u0627\u0644\u0634\u0645\u0627\u0644\u064a\u0629 Northern State","kind_detail":"state","name:ar":"\u0627\u0644\u0634\u0645\u0627\u0644\u064a\u0629","min_zoom":4.0,"name:de":"Norden","source":"openstreetmap.org","name:fr":"Nord","name:ru":"\u0421\u0435\u0432\u0435\u0440\u043d\u044b\u0439","id":321446203,"population":600000},"coordinates":[1365,3547]},{"type":"Point","properties":{"kind":"region","name:en":"\u2018Adan Governorate","name":"\u0645\u062d\u0627\u0641\u0638\u0629 \u0639\u062f\u0646","kind_detail":"state","min_zoom":4.0,"source":"openstreetmap.org","name:fr":"Aden","name:ru":"\u0410\u0434\u0435\u043d","id":663081613,"population":589419},"coordinates":[4067,2381]},{"type":"Point","properties":{"kind":"region","name:en":"Gash-Barka Zone","name":"\u0645\u0646\u0637\u0642\u0629 \u0627\u0644\u0642\u0627\u0634 \u0648\u0628\u0631\u0643\u0627 Zoba Gash-Barka","kind_detail":"state","name:ar":"\u0645\u0646\u0637\u0642\u0629 \u0627\u0644\u0642\u0627\u0634 \u0648\u0628\u0631\u0643\u0627","name:de":"Region Gash-Barka","source":"openstreetmap.org","min_zoom":4.0,"name:ti":"\u12de\u1263 \u130b\u123d \u1263\u122d\u12ab","name:it":"Regione di Gash-Barka","name:ru":"\u0413\u0430\u0448-\u0411\u0430\u0440\u043a\u0430","id":321516872,"population":564574},"coordinates":[2731,2847]},{"type":"Point","properties":{"kind":"region","name:en":"Central Zone","name":"\u0627\u0644\u0645\u0646\u0637\u0642\u0629 \u0627\u0644\u0645\u0631\u0643\u0632\u064a\u0629 Zoba Ma\u2019\u0101kel","kind_detail":"state","name:ar":"\u0627\u0644\u0645\u0646\u0637\u0642\u0629 \u0627\u0644\u0645\u0631\u0643\u0632\u064a\u0629","name:de":"Zentral-Region","source":"openstreetmap.org","min_zoom":4.0,"name:ti":"\u12de\u1263 \u121b\u12a5\u12a8\u120d","name:ru":"\u0426\u0435\u043d\u0442\u0440\u0430\u043b\u044c\u043d\u0430\u044f \u043f\u0440\u043e\u0432\u0438\u043d\u0446\u0438\u044f","id":321516867,"population":538749},"coordinates":[2989,2862]},{"type":"Point","properties":{"kind":"region","name:en":"Al Mahwit Governorate","name":"\u0645\u062d\u0627\u0641\u0638\u0629 \u0627\u0644\u0645\u062d\u0648\u064a\u062a","kind_detail":"state","min_zoom":4.0,"source":"openstreetmap.org","name:fr":"Al Mahwit","name:ru":"\u041c\u0430\u0445\u0432\u0438\u0442","name:hu":"El-Mahv\u00edt","id":663081618,"population":494557},"coordinates":[3824,2875]},{"type":"Point","properties":{"kind":"region","name:en":"Dire Dawa","name":"Dir\u0113 Dawa \u0100stedader","kind_detail":"state","min_zoom":4.0,"source":"openstreetmap.org","name:fr":"Dir\u00e9 Daoua","name:am":"\u12f5\u122c \u12f3\u12cb","name:uk":"\u0414\u0438\u0440\u0435-\u0414\u0430\u0443\u0430","name:ru":"\u0414\u044b\u0440\u0435-\u0414\u0430\u0443\u0430","alt_name:fr":"Dire Dawa","name:hu":"Dire Dawa","id":321732060,"population":398000},"coordinates":[3546,1790]},{"type":"Point","properties":{"kind":"region","name:en":"Raymah Governorate","name":"\u0645\u062d\u0627\u0641\u0638\u0629 \u0631\u064a\u0645\u0647\u200e","kind_detail":"state","min_zoom":4.0,"source":"openstreetmap.org","name:fr":"Raymah","name:ru":"\u0420\u0430\u0439\u043c\u0430","name:hu":"Rajma","id":663081620,"population":394448},"coordinates":[3853,2742]},{"type":"Point","properties":{"kind":"region","name":"Western Equatoria State","kind_detail":"state","name:ar":"\u063a\u0631\u0628 \u0627\u0644\u0627\u0633\u062a\u0648\u0627\u0626\u064a\u0629","min_zoom":4.0,"name:de":"West-\u00c4quatoria","source":"openstreetmap.org","name:fr":"\u00c9quatoria occidental","name:uk":"\u0417\u0430\u0445\u0456\u0434\u043d\u0430 \u0415\u043a\u0432\u0430\u0442\u043e\u0440\u0456\u044f","name:ru":"\u0417\u0430\u043f\u0430\u0434\u043d\u0430\u044f \u042d\u043a\u0432\u0430\u0442\u043e\u0440\u0438\u044f","name:pl":"Ekwatoria Zachodnia","name:hu":"Nyugat-Equatoria","id":435374897,"population":360000},"coordinates":[1146,983]},{"type":"Point","properties":{"kind":"region","name":"Lakes State","kind_detail":"state","name:ar":"\u0627\u0644\u0628\u062d\u064a\u0631\u0627\u062a","min_zoom":4.0,"name:de":"Seen","source":"openstreetmap.org","name:fr":"Lacs","name:uk":"\u041e\u0437\u0435\u0440\u043d\u0438\u0439","name:ru":"\u041e\u0437\u0451\u0440\u043d\u044b\u0439 \u0448\u0442\u0430\u0442","name:pl":"Lakes","id":321446197,"population":350000},"coordinates":[1334,1277]},{"type":"Point","properties":{"kind":"region","name:en":"Gambela Region","name":"Gamb\u0113la Hizboch Kilil","kind_detail":"state","min_zoom":4.0,"name:de":"Gambela","source":"openstreetmap.org","name:fr":"Gambela","name:am":"\u130b\u121d\u1264\u120b","name:uk":"\u0413\u0430\u043c\u0431\u0435\u043b\u0430","old_name":"Region 12","name:ru":"\u0413\u0430\u043c\u0431\u0435\u043b\u0430","name:hu":"Gambela","id":321732062,"population":247000},"coordinates":[2127,1458]},{"type":"Point","properties":{"kind":"region","name:en":"Southern Red Sea Zone","name":"\u0645\u0646\u0637\u0642\u0629 \u0627\u0644\u0628\u062d\u0631 \u0627\u0644\u0623\u062d\u0645\u0631 \u0627\u0644\u062c\u0646\u0648\u0628 Zoba Debubaw\u012b K\u2019eyih Bahr\u012b","kind_detail":"state","name:ar":"\u0645\u0646\u0637\u0642\u0629 \u0627\u0644\u0628\u062d\u0631 \u0627\u0644\u0623\u062d\u0645\u0631 \u0627\u0644\u062c\u0646\u0648\u0628","name:de":"Region des s\u00fcdlichen Roten Meeres","source":"openstreetmap.org","min_zoom":4.0,"name:ti":"\u12de\u1263 \u12f0\u1261\u1263\u12ca \u1240\u12ed\u1215 \u1263\u1215\u122a","name:ru":"\u042e\u0436\u043d\u0430\u044f \u041a\u0440\u0430\u0441\u043d\u043e\u043c\u043e\u0440\u0441\u043a\u0430\u044f \u043f\u0440\u043e\u0432\u0438\u043d\u0446\u0438\u044f","id":321516871,"population":203618},"coordinates":[3459,2567]},{"type":"Point","properties":{"kind":"region","name:en":"Harari Region","name":"H\u0101rer\u012b Hizb Kilil","kind_detail":"state","min_zoom":4.0,"official_name":"Harari People's National Regional State","name:de":"Harar","source":"openstreetmap.org","name:fr":"Harar","name:am":"\u1210\u1228\u122a","name:uk":"\u0413\u0430\u0440\u0430\u0440\u0456","name:ru":"\u0425\u0430\u0440\u0430\u0440\u0438","name:hu":"Harar (sz\u00f6vets\u00e9gi \u00e1llam)","id":321732059,"population":196000},"coordinates":[3584,1734]},{"type":"Point","properties":{"alt_name:ru":"\u0417\u0430\u043f\u0430\u0434\u043d\u044b\u0439 \u0412\u0435\u0440\u0445\u043d\u0438\u0439 \u041d\u0438\u043b","kind":"region","name":"Unity State","kind_detail":"state","name:ar":"\u0627\u0644\u0648\u062d\u062f\u0629\u200e","min_zoom":4.0,"source":"openstreetmap.org","name:fr":"Unit\u00e9","name:uk":"\u0415\u043b\u044c-\u0412\u0430\u0445\u0434\u0430","name:ru":"\u0415\u0434\u0438\u043d\u0441\u0442\u0432\u043e","name:pl":"Unity","id":321446196,"population":175000},"coordinates":[1365,1773]},{"type":"Point","properties":{"source":"openstreetmap.org","kind":"region","name:en":"Qunfudhah","name":"\u0627\u0644\u0642\u0646\u0641\u0630\u0629","kind_detail":"province","min_zoom":4.0,"id":1010180725},"coordinates":[3382,3570]},{"type":"Point","properties":{"kind":"region","name:en":"Baljurashi","name":"\u0628\u0644\u062c\u0631\u0634\u064a\u200e","kind_detail":"province","min_zoom":4.0,"name:de":"Baljurashi","source":"openstreetmap.org","name:fr":"Baljurashi","int_name":"Baljurashi,Baljarshi,Baljarsh\u012b,Baljurshi,Baljursh\u012b,Beljurashi,Biljurshi,Biljursh\u012b, Baljurashi","id":1236690533},"coordinates":[3469,3707]},{"type":"Point","properties":{"source":"openstreetmap.org","kind":"region","name":"\u064a\u0648\u0628\u0648\u0643\u064a \u200e\u200e Yoboki","kind_detail":"state","name:ar":"\u064a\u0648\u0628\u0648\u0643\u064a\u200e\u200e","min_zoom":4.0,"id":2208272083},"coordinates":[3566,2163]},{"type":"Point","properties":{"admin_level":"4","kind":"region","name":"Tshopo","source":"openstreetmap.org","kind_detail":"state","min_zoom":4.0,"id":4346342540},"coordinates":[485,93]},{"type":"Point","properties":{"admin_level":"4","kind":"region","name:en":"Lower Uele","name":"Bas-Uele","kind_detail":"state","min_zoom":4.0,"name:de":"Nieder-Uelle","source":"openstreetmap.org","name:fr":"Bas Uele","name:ln":"W\u025bl\u025b ya Ns\u00e9","id":4346343635},"coordinates":[403,523]},{"type":"Point","properties":{"admin_level":"4","kind":"region","name:en":"Upper Uele","name":"Haut-Uele","kind_detail":"state","name:de":"Ober-Uelle","source":"openstreetmap.org","min_zoom":4.0,"id":4346341650},"coordinates":[936,521]},{"type":"Point","properties":{"admin_level":"4","kind":"region","name":"Ituri","source":"openstreetmap.org","kind_detail":"state","min_zoom":4.0,"id":4346337654},"coordinates":[1274,342]},{"type":"Point","properties":{"admin_level":"4","kind":"region","name":"Central Region","source":"openstreetmap.org","kind_detail":"state","min_zoom":4.0,"id":4345055197},"coordinates":[1844,53]},{"type":"Point","properties":{"admin_level":"4","kind":"region","name":"Eastern Region","source":"openstreetmap.org","kind_detail":"state","min_zoom":4.0,"id":4345060071},"coordinates":[1943,79]},{"type":"Point","properties":{"admin_level":"4","kind":"region","name":"Northern Region","source":"openstreetmap.org","kind_detail":"state","min_zoom":4.0,"id":4345061984},"coordinates":[1778,522]},{"type":"Point","properties":{"kind":"region","name:en":"South Darfur State","name":"South Darfur State \u062c\u0646\u0648\u0628 \u062f\u0627\u0631\u0641\u0648\u0631","kind_detail":"state","name:ar":"\u062c\u0646\u0648\u0628 \u062f\u0627\u0631\u0641\u0648\u0631","min_zoom":4.0,"name:de":"S\u00fcd-Darfur","source":"openstreetmap.org","name:fr":"Darfour du Sud","name:ru":"\u042e\u0436\u043d\u044b\u0439 \u0414\u0430\u0440\u0444\u0443\u0440","id":321446200},"coordinates":[455,2053]},{"type":"Point","properties":{"kind":"region","name:en":"East Darfur State","name":"East Darfur State \u0648\u0644\u0627\u064a\u0629 \u0634\u0631\u0642 \u062f\u0627\u0631\u0641\u0648\u0631","kind_detail":"state","name:ar":"\u0648\u0644\u0627\u064a\u0629 \u0634\u0631\u0642 \u062f\u0627\u0631\u0641\u0648\u0631","name:de":"Ost-Darfur","source":"openstreetmap.org","min_zoom":4.0,"id":2691764712},"coordinates":[744,2095]},{"type":"Point","properties":{"kind":"region","name":"Western Bahr el Ghazal State","kind_detail":"state","name:ar":"\u063a\u0631\u0628 \u0628\u062d\u0631 \u0627\u0644\u063a\u0632\u0627\u0644","min_zoom":4.0,"source":"openstreetmap.org","name:fr":"Bahr el Ghazal occidental","name:uk":"\u0417\u0430\u0445\u0456\u0434\u043d\u0438\u0439 \u0411\u0430\u0445\u0440-\u0435\u043b\u044c-\u0413\u0430\u0437\u0430\u043b\u044c","name:ru":"\u0417\u0430\u043f\u0430\u0434\u043d\u044b\u0439 \u0411\u0430\u0445\u0440-\u044d\u043b\u044c-\u0413\u0430\u0437\u0430\u043b\u044c","name:pl":"Bahr el Ghazal Zachodni","id":321446173},"coordinates":[791,1354]},{"type":"Point","properties":{"kind":"region","name":"Central Equatoria State","kind_detail":"state","name:ar":"\u0627\u0644\u0627\u0633\u062a\u0648\u0627\u0626\u064a\u0629 \u0627\u0644\u0648\u0633\u0637\u0649","min_zoom":4.0,"name:de":"Zentral-\u00c4quatoria","source":"openstreetmap.org","name:fr":"\u00c9quatoria central","name:uk":"\u0426\u0435\u043d\u0442\u0440\u0430\u043b\u044c\u043d\u0430 \u0415\u043a\u0432\u0430\u0442\u043e\u0440\u0456\u044f","old_name":"Wil\u0101yat Ba\u1e29r al Jabal","name:ru":"\u0426\u0435\u043d\u0442\u0440\u0430\u043b\u044c\u043d\u0430\u044f \u042d\u043a\u0432\u0430\u0442\u043e\u0440\u0438\u044f","name:pl":"Ekwatoria \u015arodkowa","name:hu":"K\u00f6z\u00e9p-Equatoria","id":321446179,"old_name:ar":"\u062d\u0631 \u0627\u0644\u062c\u0628\u0644"},"coordinates":[1638,933]},{"type":"Point","properties":{"kind":"region","name":"Northern Bahr el Ghazal State","kind_detail":"state","name:ar":"\u0634\u0645\u0627\u0644 \u0628\u062d\u0631 \u0627\u0644\u063a\u0632\u0627\u0644","min_zoom":4.0,"source":"openstreetmap.org","name:fr":"Bahr el Ghazal du Nord","name:uk":"\u041f\u0456\u0432\u043d\u0456\u0447\u043d\u0438\u0439 \u0411\u0430\u0445\u0440-\u0435\u043b\u044c-\u0413\u0430\u0437\u0430\u043b\u044c","name:ru":"\u0421\u0435\u0432\u0435\u0440\u043d\u044b\u0439 \u0411\u0430\u0445\u0440-\u044d\u043b\u044c-\u0413\u0430\u0437\u0430\u043b\u044c","name:pl":"Bahr el Ghazal P\u00f3\u0142nocny","id":321446192},"coordinates":[819,1680]},{"type":"Point","properties":{"kind":"region","name":"Warrap State","kind_detail":"state","name:ar":"\u0648\u0627\u0631\u0627\u0628","min_zoom":4.0,"name:de":"Warrap","source":"openstreetmap.org","name:fr":"Warab","name:uk":"\u0412\u0430\u0440\u0430\u0431","name:ru":"\u0412\u0430\u0440\u0430\u0431","name:pl":"Warrap","id":321446194},"coordinates":[1092,1587]},{"type":"Point","properties":{"kind":"region","name:en":"Blue Nile State","old_name:de":"Zentral","name":"\u0627\u0644\u0646\u064a\u0644 \u0627\u0644\u0623\u0632\u0631\u0642 Blue Nile State","kind_detail":"state","name:ar":"\u0627\u0644\u0646\u064a\u0644 \u0627\u0644\u0623\u0632\u0631\u0642","min_zoom":4.0,"name:de":"Blauer Nil","source":"openstreetmap.org","name:fr":"Nil Bleu","old_name:en":"Central State","old_name":"Al Wil\u0101yah al Wus\u0163\u00e1","name:ru":"\u0413\u043e\u043b\u0443\u0431\u043e\u0439 \u041d\u0438\u043b","name:hu":"K\u00e9k N\u00edlus","id":321446195},"coordinates":[2116,2232]},{"type":"Point","properties":{"source":"openstreetmap.org","kind":"region","name":"\u0623\u0648\u0628\u0648\u0643 Obock","kind_detail":"state","name:ar":"\u0623\u0648\u0628\u0648\u0643","min_zoom":4.0,"id":2208260978},"coordinates":[3763,2279]},{"type":"Point","properties":{"kind":"region","name":"Haut-Mbomou","name:sg":"T\u00f6-Mb\u00f6m\u00fc","kind_detail":"state","name:de":"Obermbomou","source":"openstreetmap.org","min_zoom":4.0,"name:uk":"\u0412\u0435\u0440\u0445\u043d\u0454 \u041c\u0431\u043e\u043c\u0443","name:ru":"\u0412\u0435\u0440\u0445\u043d\u0435\u0435 \u041c\u0431\u043e\u043c\u0443","id":2222317700},"coordinates":[574,1185]},{"type":"Point","properties":{"kind":"region","name":"Haute-Kotto","name:sg":"T\u00f6-K\u00f6t\u00f6","kind_detail":"state","name:de":"Oberkotto","source":"openstreetmap.org","min_zoom":4.0,"name:uk":"\u0412\u0435\u0440\u0445\u043d\u0454 \u041a\u043e\u0442\u0442\u043e","name:ru":"\u0412\u0435\u0440\u0445\u043d\u0435\u0435 \u041a\u043e\u0442\u0442\u043e","id":2222317711},"coordinates":[78,1374]},{"type":"Point","properties":{"kind":"region","name":"Mbomou","name:sg":"Mb\u00f6m\u00fc","kind_detail":"state","source":"openstreetmap.org","min_zoom":4.0,"name:uk":"\u041c\u0431\u043e\u043c\u0443","name:ru":"\u041c\u0431\u043e\u043c\u0443","id":2222317715},"coordinates":[172,1031]},{"type":"Point","properties":{"kind":"region","name":"Eastern Equatoria State","kind_detail":"state","name:ar":"\u0648\u0644\u0627\u064a\u0629 \u0634\u0631\u0642 \u0627\u0644\u0627\u0633\u062a\u0648\u0627\u0626\u064a\u0629","min_zoom":4.0,"name:de":"Ost-\u00c4quatoria","source":"openstreetmap.org","name:fr":"\u00c9quatoria oriental","name:uk":"\u0421\u0445\u0456\u0434\u043d\u0430 \u0415\u043a\u0432\u0430\u0442\u043e\u0440\u0456\u044f","name:ru":"\u0412\u043e\u0441\u0442\u043e\u0447\u043d\u0430\u044f \u042d\u043a\u0432\u0430\u0442\u043e\u0440\u0438\u044f","name:pl":"Ekwatoria Wschodnia","name:hu":"Kelet-Equatoria","id":2222510065},"coordinates":[2019,986]},{"type":"Point","properties":{"kind":"region","name:en":"Al Jazirah","name":"Al Jazirah \u0627\u0644\u062c\u0632\u064a\u0631\u0629","kind_detail":"state","name:ar":"\u0627\u0644\u062c\u0632\u064a\u0631\u0629","min_zoom":4.0,"name:de":"al-Dschazira","source":"openstreetmap.org","name:fr":"Al Jazirah","name:hu":"Al Jazirah","id":2222526729},"coordinates":[1952,2738]},{"type":"Point","properties":{"kind":"region","name:en":"Ad Dali' Governorate","name":"\u0627\u0644\u0636\u0627\u0644\u0639","kind_detail":"state","min_zoom":4.0,"source":"openstreetmap.org","name:fr":"Ad Dali'","name:ru":"\u042d\u0434-\u0414\u0430\u043b\u0438","name:hu":"D\u00e1li","id":2281453890},"coordinates":[4057,2599]},{"type":"Point","properties":{"kind":"region","name:en":"Gedo","name":"Gedo \u062c\u062f\u0648","kind_detail":"state","name:ar":"\u062c\u062f\u0648","source":"openstreetmap.org","min_zoom":4.0,"name:it":"Ghedo","name:ru":"\u0413\u0435\u0434\u043e","id":43528040},"coordinates":[3550,560]},{"type":"Point","properties":{"kind":"region","name:en":"Awdal","name":"Awdal \u0639\u062f\u0644\u200e\u200e","kind_detail":"state","name:ar":"\u0639\u062f\u0644\u200e\u200e","source":"openstreetmap.org","min_zoom":4.0,"name:ru":"\u0410\u0443\u0434\u0430\u043b\u044c","name:hu":"Awdal","id":2208319017},"coordinates":[3794,1983]},{"type":"Point","properties":{"kind":"region","name:en":"East Ennedi Region","name":"Ennedi Est \u0625\u0646\u064a\u062f\u064a \u0627\u0644\u0634\u0631\u0642\u064a\u0629","kind_detail":"state","name:ar":"\u0625\u0646\u064a\u062f\u064a \u0627\u0644\u0634\u0631\u0642\u064a\u0629","min_zoom":4.0,"source":"openstreetmap.org","name:fr":"Ennedi Est","name:uk":"\u0415\u043d\u043d\u0435\u0434\u0456","name:ru":"\u042d\u043d\u043d\u0435\u0434\u0438","name:pl":"Ennedi","name:hu":"Ennedi R\u00e9gi\u00f3","id":4708675056,"name:es":"Ennedi Est"},"coordinates":[148,3289]},{"type":"Point","properties":{"kind":"region","name:en":"Bakool","name":"Bakool \u0628\u0627\u0643\u0648\u0644","kind_detail":"state","name:ar":"\u0628\u0627\u0643\u0648\u0644","source":"openstreetmap.org","min_zoom":4.0,"name:ru":"\u0411\u0430\u043a\u043e\u043b\u044c","name:hu":"Bakool","id":43527998},"coordinates":[3914,747]},{"type":"Point","properties":{"kind":"region","name:en":"Tigray Region","name":"Tigray Kilil","kind_detail":"state","name:ar":"\u062a\u064a\u063a\u0631\u0627\u064a","min_zoom":4.0,"name:de":"Tigray","source":"openstreetmap.org","name:fr":"Tigr\u00e9","name:am":"\u1275\u130d\u122b\u12ed \u12ad\u120d\u120d","name:uk":"\u0422\u0438\u0433\u0440\u0430\u0439","old_name":"Region 1","name:ru":"\u0422\u044b\u0433\u0440\u0430\u0439","id":321732070},"coordinates":[3027,2591]},{"type":"Point","properties":{"kind":"region","name:en":"Bay","name":"Bay \u0628\u0627\u064a","kind_detail":"state","name:ar":"\u0628\u0627\u064a","source":"openstreetmap.org","min_zoom":4.0,"name:it":"Bai","name:ru":"\u0411\u0435\u0439","id":43527958},"coordinates":[3823,560]},{"type":"Point","properties":{"kind":"region","name:en":"Middle Juba","name":"Jubbada Dhexe \u062c\u0648\u0628\u0627 \u0627\u0644\u0648\u0633\u0637\u0649","kind_detail":"state","name:ar":"\u062c\u0648\u0628\u0627 \u0627\u0644\u0648\u0633\u0637\u0649","name:de":"Mittel-Jubba","source":"openstreetmap.org","min_zoom":4.0,"name:it":"Medio Giuba","name:ru":"\u0421\u0440\u0435\u0434\u043d\u044f\u044f \u0414\u0436\u0443\u0431\u0431\u0430","name:hu":"Jubbada Dhexe","id":43528069},"coordinates":[3669,267]},{"type":"Point","properties":{"kind":"region","name:en":"Lower Juba","name":"Jubbada Hoose \u062c\u0648\u0628\u0627 \u0627\u0644\u0633\u0641\u0644\u0649","kind_detail":"state","name:ar":"\u062c\u0648\u0628\u0627 \u0627\u0644\u0633\u0641\u0644\u0649","name:de":"Unter-Jubba","source":"openstreetmap.org","min_zoom":4.0,"name:it":"Basso Giuba","name:ru":"\u041d\u0438\u0436\u043d\u044f\u044f \u0414\u0436\u0443\u0431\u0431\u0430","name:hu":"Jubbada Hoose","id":43528090},"coordinates":[3550,0]},{"type":"Point","properties":{"kind":"region","name:en":"Lower Shebelle","name":"Shabeellaha Hoose \u0634\u0628\u064a\u0644\u064a \u0627\u0644\u0633\u0641\u0644\u0649","kind_detail":"state","name:ar":"\u0634\u0628\u064a\u0644\u064a \u0627\u0644\u0633\u0641\u0644\u0649","name:de":"Unter-Shabelle","source":"openstreetmap.org","min_zoom":4.0,"name:it":"Basso Scebeli","name:ru":"\u041d\u0438\u0436\u043d\u044f\u044f \u0428\u0430\u0431\u0435\u043b\u043b\u0435","id":43528137},"coordinates":[4022,344]},{"type":"Point","properties":{"kind":"region","name":"Tadjourah \u062a\u0627\u062c\u0648\u0631\u0629","kind_detail":"state","name:ar":"\u062a\u0627\u062c\u0648\u0631\u0629","min_zoom":4.0,"source":"openstreetmap.org","name:fr":"Tadjourah","id":2208265737},"coordinates":[3674,2190]},{"type":"Point","properties":{"kind":"region","name:en":"Balha","name":"Balha \u0628\u0627\u0644\u0647\u0627","kind_detail":"state","name:ar":"\u0628\u0627\u0644\u0647\u0627","source":"openstreetmap.org","min_zoom":4.0,"id":2208269186},"coordinates":[3615,2212]},{"type":"Point","properties":{"kind":"region","name":"Dikhil \u062f\u062e\u064a\u0644","kind_detail":"state","name:ar":"\u062f\u062e\u064a\u0644","min_zoom":4.0,"source":"openstreetmap.org","name:fr":"Dikhil","id":2208274522},"coordinates":[3588,2132]},{"type":"Point","properties":{"kind":"region","name:en":"Woqooyi Galbeed","name":"Woqooyi Galbeed \u0648\u0642\u0648\u064a\u064a \u062c\u0627\u0644\u0628\u064a\u062f","kind_detail":"state","name:ar":"\u0648\u0642\u0648\u064a\u064a \u062c\u0627\u0644\u0628\u064a\u062f","source":"openstreetmap.org","min_zoom":4.0,"name:ru":"\u0412\u043e\u043a\u0443\u0439-\u0413\u0430\u043b\u044c\u0431\u0438\u0434","id":2208321948},"coordinates":[3991,1853]},{"type":"Point","properties":{"source":"openstreetmap.org","kind":"region","name":"Alaili Dadda \u0639\u0644\u0627\u064a\u0644\u064a \u062f\u0627\u062f\u0627","kind_detail":"state","name:ar":"\u0639\u0644\u0627\u064a\u0644\u064a \u062f\u0627\u062f\u0627","min_zoom":4.0,"id":2208259986},"coordinates":[3730,2331]},{"type":"Point","properties":{"source":"openstreetmap.org","kind":"region","name":"Djibouti \u062c\u064a\u0628\u0648\u062a\u064a","kind_detail":"state","min_zoom":4.0,"id":2208275960},"coordinates":[3739,2159]},{"type":"Point","properties":{"kind":"region","name:en":"Zoba \u0100nseba","name":"\u0625\u0642\u0644\u064a\u0645 \u0639\u0646\u0633\u0628\u0627 Zoba \u0100nseba","kind_detail":"state","name:ar":"\u0645\u0646\u0637\u0642\u0629 \u0639\u0646\u0633\u0628\u0627","name:de":"Region Anseba","source":"openstreetmap.org","min_zoom":4.0,"name:ti":"\u12de\u1263 \u12d3\u1295\u1235\u1263","name:it":"Regione dell'Anseba","name:ru":"\u0410\u043d\u0441\u044d\u0431\u0430","id":321516869},"coordinates":[2731,3080]},{"type":"Point","properties":{"kind":"region","name:en":"Northern Red Sea Zone","name":"\u0645\u0646\u0637\u0642\u0629 \u0627\u0644\u0628\u062d\u0631 \u0627\u0644\u0623\u062d\u0645\u0631 \u0627\u0644\u0634\u0645\u0627\u0644 Zoba Sem\u0113naw\u012b K\u2019eyih Bahr\u012b","kind_detail":"state","name:ar":"\u0645\u0646\u0637\u0642\u0629 \u0627\u0644\u0628\u062d\u0631 \u0627\u0644\u0623\u062d\u0645\u0631 \u0627\u0644\u0634\u0645\u0627\u0644","name:de":"Region des n\u00f6rdlichen Roten Meeres","source":"openstreetmap.org","min_zoom":4.0,"name:ti":"\u12de\u1263 \u1230\u121c\u1293\u12ca \u1240\u12ed\u1215 \u1263\u1215\u122a","name:ru":"\u0421\u0435\u0432\u0435\u0440\u043d\u0430\u044f \u041a\u0440\u0430\u0441\u043d\u043e\u043c\u043e\u0440\u0441\u043a\u0430\u044f \u043f\u0440\u043e\u0432\u0438\u043d\u0446\u0438\u044f","id":321516868},"coordinates":[3004,2987]},{"type":"Point","properties":{"source":"openstreetmap.org","kind":"region","name":"\u0639\u0644\u064a \u0635\u0628\u064a\u062d Ali Sabieh","kind_detail":"state","name:ar":"\u0639\u0644\u064a \u0635\u0628\u064a\u062d","min_zoom":4.0,"id":2208276777},"coordinates":[3708,2093]},{"type":"Point","properties":{"source":"openstreetmap.org","kind":"region","name":"\u0623\u0631\u062a\u0627 Arta","kind_detail":"state","name:ar":"\u0623\u0631\u062a\u0627","min_zoom":4.0,"id":3070019306},"coordinates":[3654,2125]}]},"transit":{"type":"GeometryCollection","geometries":[]},"pois":{"type":"GeometryCollection","geometries":[{"type":"Point","properties":{"kind":"national_park","protect_class":"2","area":3180160000,"source":"openstreetmap.org","min_zoom":4.97,"tier":1,"id":-3308135,"osm_relation":true,"name":"Yangudi Rassa National Park"},"coordinates":[3322,2045]},{"type":"Point","properties":{"kind":"national_park","protect_class":"2","area":3953210000,"min_zoom":4.82,"name:de":"Omo-Nationalpark","source":"openstreetmap.org","name:fr":"Parc national de Omo","name:es":"Parque nacional de Omo","tier":1,"id":-3308133,"osm_relation":true,"name":"Omo National Park"},"coordinates":[2428,1118]},{"type":"Point","properties":{"kind":"national_park","protect_class":"2","area":4489660000,"min_zoom":4.72,"name:de":"Gambela-Nationalpark","source":"openstreetmap.org","name:fr":"Parc national de Gambela","tier":1,"id":-3307578,"osm_relation":true,"name":"Gambela National Park"},"coordinates":[2075,1490]}]},"boundaries":{"type":"GeometryCollection","geometries":[{"type":"LineString","properties":{"source":"naturalearthdata.com","kind":"indefinite","sort_rank":259,"kind_detail":"2","min_zoom":0.0,"id":2},"arcs":[0]},{"type":"LineString","properties":{"source":"naturalearthdata.com","kind":"disputed","sort_rank":261,"kind_detail":"2","min_zoom":0.0,"id":14},"arcs":[1]},{"type":"LineString","properties":{"source":"naturalearthdata.com","kind":"country","sort_rank":262,"kind_detail":"2","min_zoom":0.0,"id":234},"arcs":[2]},{"type":"LineString","properties":{"source":"naturalearthdata.com","kind":"disputed","sort_rank":261,"kind_detail":"2","min_zoom":0.0,"id":11},"arcs":[3]},{"type":"LineString","properties":{"source":"naturalearthdata.com","kind":"country","sort_rank":262,"kind_detail":"2","min_zoom":0.0,"id":60},"arcs":[4]},{"type":"LineString","properties":{"source":"naturalearthdata.com","kind":"country","sort_rank":262,"kind_detail":"2","min_zoom":0.0,"id":61},"arcs":[5]},{"type":"LineString","properties":{"source":"naturalearthdata.com","kind":"country","sort_rank":262,"kind_detail":"2","min_zoom":0.0,"id":62},"arcs":[6]},{"type":"LineString","properties":{"source":"naturalearthdata.com","kind":"country","sort_rank":262,"kind_detail":"2","min_zoom":0.0,"id":64},"arcs":[7]},{"type":"LineString","properties":{"source":"naturalearthdata.com","kind":"country","sort_rank":262,"kind_detail":"2","min_zoom":0.0,"id":184},"arcs":[8]},{"type":"LineString","properties":{"source":"naturalearthdata.com","kind":"country","sort_rank":262,"kind_detail":"2","min_zoom":0.0,"id":188},"arcs":[9]},{"type":"LineString","properties":{"source":"naturalearthdata.com","kind":"country","sort_rank":262,"kind_detail":"2","min_zoom":0.0,"id":189},"arcs":[10]},{"type":"LineString","properties":{"source":"naturalearthdata.com","kind":"country","sort_rank":262,"kind_detail":"2","min_zoom":0.0,"id":215},"arcs":[11]},{"type":"LineString","properties":{"source":"naturalearthdata.com","kind":"country","sort_rank":262,"kind_detail":"2","min_zoom":0.0,"id":216},"arcs":[12]},{"type":"LineString","properties":{"source":"naturalearthdata.com","kind":"country","sort_rank":262,"kind_detail":"2","min_zoom":0.0,"id":227},"arcs":[13]},{"type":"LineString","properties":{"source":"naturalearthdata.com","kind":"country","sort_rank":262,"kind_detail":"2","min_zoom":0.0,"id":233},"arcs":[14]},{"type":"LineString","properties":{"source":"naturalearthdata.com","kind":"country","sort_rank":262,"kind_detail":"2","min_zoom":0.0,"id":235},"arcs":[15]},{"type":"LineString","properties":{"source":"naturalearthdata.com","kind":"country","sort_rank":262,"kind_detail":"2","min_zoom":0.0,"id":273},"arcs":[16]},{"type":"LineString","properties":{"source":"naturalearthdata.com","kind":"country","sort_rank":262,"kind_detail":"2","min_zoom":0.0,"id":274},"arcs":[17]},{"type":"MultiLineString","properties":{"source":"naturalearthdata.com","kind":"country","sort_rank":262,"kind_detail":"2","min_zoom":0.0,"id":276},"arcs":[[18],[19],[20]]},{"type":"LineString","properties":{"source":"naturalearthdata.com","kind":"country","sort_rank":262,"kind_detail":"2","min_zoom":0.0,"id":278},"arcs":[21]},{"type":"LineString","properties":{"source":"naturalearthdata.com","kind":"country","sort_rank":262,"kind_detail":"2","min_zoom":0.0,"id":279},"arcs":[22]},{"type":"LineString","properties":{"source":"naturalearthdata.com","kind":"country","sort_rank":262,"kind_detail":"2","min_zoom":0.0,"id":282},"arcs":[23]},{"type":"LineString","properties":{"source":"naturalearthdata.com","kind":"country","sort_rank":262,"kind_detail":"2","min_zoom":0.0,"id":290},"arcs":[24]},{"type":"LineString","properties":{"source":"naturalearthdata.com","kind":"country","sort_rank":262,"kind_detail":"2","min_zoom":0.0,"id":355},"arcs":[25]},{"type":"LineString","properties":{"source":"naturalearthdata.com","kind":"country","sort_rank":262,"kind_detail":"2","min_zoom":0.0,"id":356},"arcs":[26]},{"type":"LineString","properties":{"source":"naturalearthdata.com","kind":"disputed","sort_rank":261,"kind_detail":"2","min_zoom":0.0,"id":357},"arcs":[27]}]},"roads":{"type":"GeometryCollection","geometries":[]},"earth":{"type":"GeometryCollection","geometries":[{"type":"MultiPolygon","properties":{"sort_rank":10,"source":"naturalearthdata.com","min_zoom":0.0,"kind":"earth","area":20608498557297},"arcs":[[[63]],[[64]],[[65]],[[66]]]}]},"landuse":{"type":"GeometryCollection","geometries":[{"type":"Polygon","properties":{"kind":"protected_area","name":"Ez Zeraf Game Reserve","area":10399599616,"sort_rank":17,"source":"openstreetmap.org","min_zoom":4.0,"tier":2,"id":234502678,"protect_class":"6"},"arcs":[[67]]},{"type":"Polygon","properties":{"kind":"national_park","name":"Omo National Park","area":3953210112,"sort_rank":18,"source":"openstreetmap.org","min_zoom":3.0,"tier":1,"id":-3308133,"osm_relation":true,"protect_class":"2"},"arcs":[[68]]},{"type":"Polygon","properties":{"kind":"national_park","name":"Awash National Park","area":753931008,"sort_rank":18,"source":"openstreetmap.org","min_zoom":3.0,"tier":1,"id":-4102252,"osm_relation":true,"protect_class":"2"},"arcs":[[69]]},{"type":"Polygon","properties":{"kind":"national_park","name":"Maze National Park","area":370270016,"sort_rank":18,"source":"openstreetmap.org","min_zoom":3.0,"tier":1,"id":-3308131,"osm_relation":true,"protect_class":"2"},"arcs":[[70]]},{"type":"Polygon","properties":{"kind":"park","name":"R\u00e9serve de chasse d'Azande","area":4559300096,"sort_rank":24,"source":"openstreetmap.org","min_zoom":4.0,"tier":2,"id":-7737577,"osm_relation":true},"arcs":[[71]]},{"type":"Polygon","properties":{"kind":"national_park","name":"Gambela National Park","area":4489659904,"sort_rank":18,"source":"openstreetmap.org","min_zoom":3.0,"tier":1,"id":-3307578,"osm_relation":true,"protect_class":"2"},"arcs":[[72]]},{"type":"Polygon","properties":{"kind":"protected_area","name":"Numatina Game Reserve","area":3095079936,"sort_rank":17,"source":"openstreetmap.org","min_zoom":4.0,"tier":2,"id":237889701,"protect_class":"6"},"arcs":[[73]]},{"type":"Polygon","properties":{"kind":"protected_area","name":"Gerelle National Park","area":4895059968,"sort_rank":17,"source":"openstreetmap.org","min_zoom":4.0,"tier":2,"id":-3308128,"osm_relation":true,"protect_class":"2"},"arcs":[[74]]},{"type":"Polygon","properties":{"kind":"protected_area","name":"Pian Upe Wildlife Reserve","area":2154109952,"sort_rank":17,"source":"openstreetmap.org","min_zoom":4.0,"tier":2,"id":-2314942,"osm_relation":true,"protect_class":"4"},"arcs":[[75]]},{"type":"Polygon","properties":{"kind":"protected_area","name":"Gewane Wildlife Reserve","area":3128499968,"sort_rank":17,"source":"openstreetmap.org","min_zoom":4.0,"tier":2,"id":-3308591,"osm_relation":true,"protect_class":"6"},"arcs":[[76]]},{"type":"Polygon","properties":{"kind":"protected_area","name":"Babile Elephant Sanctuary","area":8123230208,"sort_rank":17,"source":"openstreetmap.org","min_zoom":4.0,"tier":2,"id":-3308589,"osm_relation":true,"protect_class":"2"},"arcs":[[77]]},{"type":"Polygon","properties":{"kind":"protected_area","name":"Dahti National Park","area":1069769984,"sort_rank":17,"source":"openstreetmap.org","min_zoom":4.0,"tier":2,"id":-3308127,"osm_relation":true,"protect_class":"2"},"arcs":[[78]]},{"type":"Polygon","properties":{"kind":"protected_area","name":"Yabello Wildlife Sanctuary","area":2229900032,"sort_rank":17,"source":"openstreetmap.org","min_zoom":4.0,"tier":2,"id":-3308833,"osm_relation":true,"protect_class":"2"},"arcs":[[79]]},{"type":"Polygon","properties":{"kind":"national_park","name":"Mago National Park","area":1897500032,"sort_rank":18,"source":"openstreetmap.org","min_zoom":3.0,"tier":1,"id":-3308130,"osm_relation":true,"protect_class":"2"},"arcs":[[80]]},{"type":"Polygon","properties":{"kind":"park","name":"Parc National des Virunga","area":7863309824,"sort_rank":24,"operator":"ICCN","source":"openstreetmap.org","min_zoom":4.0,"tier":2,"id":-404784,"osm_relation":true},"arcs":[[81]]},{"type":"Polygon","properties":{"kind":"protected_area","name":"Alledeghi Wildlife Reserve","area":1506610048,"sort_rank":17,"source":"openstreetmap.org","min_zoom":4.0,"tier":2,"id":-3308587,"osm_relation":true,"protect_class":"6"},"arcs":[[82]]},{"type":"Polygon","properties":{"kind":"national_park","name":"Simien Mountains National Park","area":516216000,"sort_rank":18,"source":"openstreetmap.org","min_zoom":3.0,"tier":1,"id":-3308134,"osm_relation":true,"protect_class":"2"},"arcs":[[83]]},{"type":"MultiPolygon","properties":{"source":"openstreetmap.org","kind":"protected_area","tier":2,"protect_class":"2","area":7335696680,"sort_rank":17,"min_zoom":4.0},"arcs":[[[84]],[[85]],[[86]]]},{"type":"Polygon","properties":{"kind":"park","name":"Mount Kenya National Park","area":2261769984,"sort_rank":24,"source":"openstreetmap.org","min_zoom":4.0,"tier":2,"id":33196771},"arcs":[[87]]},{"type":"Polygon","properties":{"kind":"park","name":"Parc National de la Maiko","area":11042599936,"sort_rank":24,"source":"openstreetmap.org","min_zoom":4.0,"tier":2,"id":-401960,"osm_relation":true},"arcs":[[88]]},{"type":"Polygon","properties":{"kind":"national_park","name":"Rwenzori Mountains National Park","area":1002870016,"sort_rank":18,"operator":"Uganda Wildlife Authorities","source":"openstreetmap.org","min_zoom":3.0,"tier":1,"id":-4576934,"osm_relation":true,"protect_class":"2"},"arcs":[[89]]},{"type":"Polygon","properties":{"kind":"protected_area","name":"Kafta-Shiraro National Park","area":2017159936,"sort_rank":17,"source":"openstreetmap.org","min_zoom":4.0,"tier":2,"id":-3308129,"osm_relation":true,"protect_class":"2"},"arcs":[[90]]},{"type":"Polygon","properties":{"kind":"protected_area","name":"Bokoro Corridor Wildlife Reserve","area":1845360000,"sort_rank":17,"source":"openstreetmap.org","min_zoom":4.0,"tier":2,"id":-2315642,"osm_relation":true,"protect_class":"4"},"arcs":[[91]]},{"type":"MultiPolygon","properties":{"source":"naturalearthdata.com","kind":"urban_area","name":"","area":69457956710,"sort_rank":11,"min_zoom":4.0},"arcs":[[[92]],[[93]],[[94]],[[95]],[[96]],[[97]],[[98]],[[99]],[[100]],[[101]],[[102]],[[103]],[[104]],[[105]]]},{"type":"Polygon","properties":{"kind":"nature_reserve","name":"Murchison Falls National Park","area":3903439872,"sort_rank":23,"operator":"Uganda Wildlife Authority","source":"openstreetmap.org","min_zoom":4.0,"tier":2,"id":-2316689,"osm_relation":true,"protect_class":"2"},"arcs":[[106]]},{"type":"Polygon","properties":{"kind":"park","name":"R\u00e9serve de chasse de Gangala na Bodio","area":3894550016,"sort_rank":24,"source":"openstreetmap.org","min_zoom":4.0,"tier":2,"id":-7746867,"osm_relation":true},"arcs":[[107]]},{"type":"MultiPolygon","properties":{"kind":"park","name":"Queen Elizabeth National Park","area":3388300032,"sort_rank":24,"operator":"Uganda Wildlife Authorities","source":"openstreetmap.org","min_zoom":4.0,"tier":2,"id":-6712007,"osm_relation":true},"arcs":[[[108]]]},{"type":"Polygon","properties":{"kind":"protected_area","name":"Southern National Park","area":19614500864,"sort_rank":17,"source":"openstreetmap.org","min_zoom":4.0,"tier":2,"id":-2316733,"osm_relation":true,"protect_class":"2"},"arcs":[[109]]},{"type":"Polygon","properties":{"kind":"nature_reserve","name":"Kidepo Valley National Park","area":1651410048,"sort_rank":23,"operator":"Uganda Wildlife Authorities","source":"openstreetmap.org","min_zoom":4.0,"tier":2,"id":-2270428,"osm_relation":true,"protect_class":"2"},"arcs":[[110]]},{"type":"Polygon","properties":{"kind":"protected_area","name":"R\u00e9serve de faune \u00e0 okapis","area":14033899520,"sort_rank":17,"source":"openstreetmap.org","min_zoom":4.0,"tier":2,"id":-401017,"osm_relation":true},"arcs":[[111]]},{"type":"Polygon","properties":{"kind":"protected_area","name":"Badingilo National Park","area":9092299776,"sort_rank":17,"source":"openstreetmap.org","min_zoom":4.0,"tier":2,"id":-2314986,"osm_relation":true},"arcs":[[112]]},{"type":"Polygon","properties":{"kind":"park","name":"R\u00e9serve de chasse de Mondo Missa","area":1881949952,"sort_rank":24,"source":"openstreetmap.org","min_zoom":4.0,"tier":2,"id":-7731419,"osm_relation":true},"arcs":[[113]]},{"type":"Polygon","properties":{"kind":"protected_area","name":"Shambe National Park","area":1811180032,"sort_rank":17,"source":"openstreetmap.org","min_zoom":4.0,"tier":2,"id":-3117891,"osm_relation":true,"protect_class":"2"},"arcs":[[114]]},{"type":"Polygon","properties":{"kind":"park","name":"Alatish National Park","area":2766060032,"sort_rank":24,"source":"openstreetmap.org","min_zoom":4.0,"tier":2,"id":-3308122,"osm_relation":true},"arcs":[[115]]},{"type":"Polygon","properties":{"kind":"protected_area","name":"Chelkou Game Reserve","area":6691299840,"sort_rank":17,"source":"openstreetmap.org","min_zoom":4.0,"tier":2,"id":-3205792,"osm_relation":true,"protect_class":"4"},"arcs":[[116]]},{"type":"Polygon","properties":{"kind":"protected_area","name":"Amudat Community Wildlife Area","area":2038099968,"sort_rank":17,"source":"openstreetmap.org","min_zoom":4.0,"tier":2,"id":-2316592,"osm_relation":true,"protect_class":"6"},"arcs":[[117]]},{"type":"Polygon","properties":{"kind":"national_park","name":"Yangudi Rassa National Park","area":3180160000,"sort_rank":18,"source":"openstreetmap.org","min_zoom":3.0,"tier":1,"id":-3308135,"osm_relation":true,"protect_class":"2"},"arcs":[[118]]},{"type":"Polygon","properties":{"source":"openstreetmap.org","kind":"nature_reserve","area":2229900032,"tier":2,"id":244714204,"min_zoom":4.0,"sort_rank":23},"arcs":[[119]]},{"type":"Polygon","properties":{"kind":"protected_area","name":"Sudd","area":24266700800,"sort_rank":17,"source":"openstreetmap.org","min_zoom":4.0,"tier":2,"id":-3418592,"osm_relation":true,"protect_class":"98"},"arcs":[[120]]},{"type":"Polygon","properties":{"kind":"park","name":"Marsabit National Park","area":1761340032,"sort_rank":24,"source":"openstreetmap.org","min_zoom":4.0,"tier":2,"id":139241574},"arcs":[[121]]},{"type":"Polygon","properties":{"kind":"protected_area","name":"Iriri Community Wildlife Management Area","area":1037360000,"sort_rank":17,"source":"openstreetmap.org","min_zoom":4.0,"tier":2,"id":-2315625,"osm_relation":true,"protect_class":"6"},"arcs":[[122]]},{"type":"Polygon","properties":{"kind":"protected_area","name":"Mille-Sardo Wildlife Reserve","area":7668669952,"sort_rank":17,"source":"openstreetmap.org","min_zoom":4.0,"tier":2,"id":-3308596,"osm_relation":true,"protect_class":"6"},"arcs":[[123]]},{"type":"Polygon","properties":{"kind":"protected_area","name":"Chebera Churchura National Park","area":1304800000,"sort_rank":17,"source":"openstreetmap.org","min_zoom":4.0,"tier":2,"id":-3308126,"osm_relation":true,"protect_class":"2"},"arcs":[[124]]},{"type":"Polygon","properties":{"kind":"protected_area","name":"Tama Community Conservation Area","area":1759840000,"sort_rank":17,"source":"openstreetmap.org","min_zoom":4.0,"tier":2,"id":-3308831,"osm_relation":true,"protect_class":"6"},"arcs":[[125]]},{"type":"Polygon","properties":{"kind":"park","name":"Parc National de la Garamba","area":5052100096,"sort_rank":24,"source":"openstreetmap.org","min_zoom":4.0,"tier":2,"id":-401345,"osm_relation":true},"arcs":[[126]]},{"type":"Polygon","properties":{"kind":"national_park","name":"Bale Mountains National Park","area":2489750016,"sort_rank":18,"source":"openstreetmap.org","min_zoom":3.0,"tier":1,"id":-3308124,"osm_relation":true,"protect_class":"2"},"arcs":[[127]]},{"type":"Polygon","properties":{"kind":"protected_area","name":"Boma National Park","area":19556499456,"sort_rank":17,"source":"openstreetmap.org","min_zoom":4.0,"tier":2,"id":-2315387,"osm_relation":true},"arcs":[[128]]},{"type":"Polygon","properties":{"kind":"protected_area","name":"Chelbi Wildlife Reserve","area":4013609984,"sort_rank":17,"source":"openstreetmap.org","min_zoom":4.0,"tier":2,"id":-3308821,"osm_relation":true,"protect_class":"6"},"arcs":[[129],[130]]},{"type":"Polygon","properties":{"kind":"park","name":"Lantoto National Park","area":1455289984,"sort_rank":24,"source":"openstreetmap.org","min_zoom":4.0,"tier":2,"id":-3189400,"osm_relation":true},"arcs":[[131]]},{"type":"Polygon","properties":{"kind":"protected_area","name":"Mushra Game Reserve","area":4927589888,"sort_rank":17,"source":"openstreetmap.org","min_zoom":4.0,"tier":2,"id":237889740,"protect_class":"6"},"arcs":[[132]]},{"type":"Polygon","properties":{"kind":"protected_area","name":"Matheniko Wildlife Reserve","area":1763340032,"sort_rank":17,"source":"openstreetmap.org","min_zoom":4.0,"tier":2,"id":-2270433,"osm_relation":true,"protect_class":"4"},"arcs":[[133]]}]}},"type":"Topology","transform":{"translate":[22.5,-0.0],"scale":[0.0054931641,0.0053571889]},"arcs":[[[4096,929],[-11,-12],[-5,-2],[-50,3],[-49,2],[-62,4],[-7,0],[-18,-4],[-11,-3],[-45,-11],[-8,-2],[-37,-17],[-38,-20],[-20,-15],[-16,-22],[-6,-16],[-7,-7],[-12,-6],[-79,-15],[-24,-2],[-37,-12],[-20,-20],[-5,-9]],[[2443,862],[-14,16],[-15,19],[-1,27],[4,29],[4,10],[-2,9],[1,13],[-9,13],[-50,14],[-8,-2],[-9,-5],[-9,-4],[-7,4],[-4,5],[0,9],[0,6]],[[2553,2661],[-6,54],[-4,36],[-4,38],[-4,36],[18,22],[8,21],[20,68],[8,13],[17,37],[2,10],[16,46],[-2,30],[-3,31],[9,18],[8,15],[-1,12],[4,29],[2,7],[10,1],[19,-4],[15,3],[17,0],[12,1],[8,9],[11,33],[6,7],[5,2],[15,6],[13,10],[10,7],[4,1],[11,1],[11,4],[5,5],[13,4],[14,-2],[9,4],[6,2],[7,1],[6,3],[2,6],[4,4],[11,9],[5,6],[2,7],[2,5],[5,8],[18,21],[16,13]],[[2163,863],[47,47],[43,44],[38,38],[33,33]],[[66,2038],[12,-23],[7,-8],[53,-55],[10,-13],[26,-40],[16,-27],[19,-38],[1,-21],[-2,-18],[-4,-51],[-4,-15],[-24,-28],[-1,-12],[5,-10],[7,-5],[4,-5],[-2,-23],[8,-10],[18,-6],[44,-4],[23,-4],[27,-7],[4,-8],[-7,-28],[5,-17],[15,-14],[15,-6],[15,-4],[51,-9],[21,-10],[28,-32],[36,-30],[8,-15],[-1,-14],[-11,-17],[2,-7],[16,-18],[18,-17],[34,-20],[59,-30],[27,-21],[9,-15],[15,-17],[21,-16],[14,-11],[-10,-34],[3,-11],[5,-10],[13,-13],[5,-17],[12,-21],[14,-10],[24,-3],[13,-10],[27,-17],[25,-15],[11,-10],[7,-9],[6,-10],[3,-11],[1,-22],[4,-29],[14,-19],[13,-14],[6,-13],[10,-14],[31,-22],[10,-13],[8,-14],[5,-11],[9,-9],[14,-5],[12,-7],[7,-10],[11,-10],[20,-14],[10,0],[12,-2],[10,-4],[11,1],[18,9],[21,16],[16,9],[38,-3],[22,-8],[17,-11],[13,1],[29,20],[16,21],[15,4],[23,-9],[18,-20],[17,-28],[11,-11],[16,-17],[32,-37],[41,-18],[16,-9],[5,-9],[3,-12],[1,-13],[5,-5],[11,1],[10,2],[10,-3],[7,-10],[4,-7],[4,-8]],[[3718,2053],[23,37],[20,32],[16,25]],[[3718,2053],[-14,0],[-12,2],[-7,6],[-16,7],[-18,0],[-16,-6],[-29,-8],[-26,-2],[-21,-5],[-17,-5],[-15,3],[-14,5],[-3,38],[-3,42],[0,33],[5,18],[4,7],[25,25],[8,11],[28,41],[24,36],[18,26]],[[3619,2327],[5,5],[8,5],[5,-1],[35,-26],[6,1],[12,8],[10,27],[7,10],[4,0],[22,8],[20,8]],[[893,954],[-53,16],[-8,1],[-9,-3],[-27,-21],[-9,-2],[-10,2],[-25,2],[-83,16],[-65,16],[-19,5],[-34,6],[-23,-11],[-21,-36],[-6,-7],[-34,-11],[-16,3],[-39,-10],[-59,15],[-22,-3],[-16,-7],[-43,-17],[-27,-9],[-30,-8],[-29,-13],[-19,-8],[-19,1],[-17,7],[-19,6],[-22,2],[-24,-4],[-19,-15],[-8,-10],[-18,-27],[-20,-45],[-1,-1]],[[2324,1025],[-2,4],[-16,13],[-16,17],[-9,19],[-8,16],[-5,34],[-11,22],[-11,26],[-16,50],[-7,17],[-13,12],[-14,11],[-14,22],[-38,19],[-14,15],[-25,27],[-6,13],[-2,13],[-8,13],[-13,14],[-43,30],[-12,4],[-16,3],[-22,3],[-30,7],[-27,11],[-12,9],[-3,6],[3,9],[9,17],[19,39],[12,27],[9,8],[23,2],[25,-1],[18,-2],[25,0],[31,2],[12,9],[10,10],[4,7],[1,18],[0,14],[-2,54],[-1,33],[-1,38],[0,17],[7,40],[7,23],[5,12],[20,39],[3,12],[1,12],[-7,51],[12,25],[16,24],[14,10],[12,7],[5,-3],[13,-11],[18,-11],[8,2],[12,10],[9,10],[-1,18],[8,38],[-2,21],[9,27],[9,37],[5,24],[5,13],[26,26],[21,37],[14,27],[27,44],[14,16],[11,7],[16,5],[30,4],[22,4],[3,5],[2,9],[1,20],[4,34],[9,33],[11,25],[6,12],[8,11],[8,19],[10,40],[-1,27],[15,50]],[[66,2038],[-8,2],[-16,5],[-19,4],[-23,3]],[[2089,788],[37,37],[37,38]],[[3529,743],[-27,0],[-46,-3],[-20,-3],[-10,-1],[-18,0],[-15,4],[-9,5],[-12,12],[-27,25],[-20,16],[-43,-18],[-39,-18],[-55,-25],[-31,-18],[-9,-18],[-25,-33],[-21,-20],[-8,-3],[-49,4],[-18,4],[-29,4],[-39,7],[-27,8],[-28,1],[-41,3],[-26,5],[-25,18],[-33,22],[-35,23],[-35,23],[-41,27],[-46,29],[-10,3],[-4,1],[-50,1],[-51,2],[-34,1],[-11,3],[-8,7],[-11,21]],[[2089,788],[-43,-44],[-31,-32],[-5,-5],[-9,-6],[-30,0],[-31,4],[-29,19],[-29,-15],[-18,-5],[-11,-2],[-26,-2],[-36,-8],[-17,-10],[-9,-9],[-7,-14],[-4,-2],[-6,2],[-10,6],[-19,8],[-10,19],[-9,12],[-7,6],[-31,-19],[-15,-5],[-12,1],[-23,11],[-24,9],[-13,0],[-19,-12],[-21,-17],[-12,-16],[-5,-10]],[[1312,0],[2,18],[6,9],[5,4],[7,18],[12,29],[9,15],[-2,33],[2,22],[2,5],[19,8],[25,21],[10,24],[15,15],[28,10],[85,83],[39,45],[17,23],[1,8],[3,11],[-7,8],[-8,8],[-3,7],[-7,3],[-10,0],[-6,5],[-8,10],[-8,7],[-24,-1],[-18,10],[0,14],[7,28],[14,31],[1,9],[-2,8],[-3,6],[-6,6],[-6,8],[4,22],[9,23],[7,11],[7,12],[-2,11],[-10,5]],[[3619,2327],[-16,19],[-12,18],[-17,20],[-16,9],[-17,12],[-17,26],[-17,30],[-25,24],[-48,35],[-44,44],[-33,46],[-22,24],[-9,6],[-45,15],[-31,21],[-24,18],[-15,4],[-14,1],[-30,-3],[-26,10],[-10,0],[-17,4],[-13,3],[-16,-4],[-32,-8],[-13,2],[-7,11],[-5,8],[-11,9],[-9,0],[-5,-8],[-33,-20],[-56,-10],[-14,0],[-10,8],[-28,34],[-8,5],[-6,1],[-14,3],[-12,7],[-11,14],[-10,7],[-12,-26],[-20,-47],[-11,-25],[-14,-33],[-5,-1],[-7,3],[-28,40],[-18,15],[-13,-1],[-9,-8],[-6,-13],[-7,-9],[-7,-3],[-15,2],[-24,6],[-24,-1],[-25,-9],[-3,-1]],[[269,3639],[-87,45],[-87,44],[-87,44],[-8,4]],[[452,4096],[-1,-83],[0,-93],[0,-93],[0,-93],[0,-1],[-1,0],[-1,-1],[-45,0],[-45,0],[-45,1],[-45,0],[0,-24],[0,-23],[0,-23],[0,-24]],[[66,2038],[6,21],[8,30],[1,14],[-4,15],[-13,11],[-12,1],[-6,5],[-10,8],[-10,7],[-9,12],[-7,16],[5,60],[-3,8],[-12,2]],[[0,2636],[2,1],[5,7],[-2,7],[-5,6]],[[0,2734],[6,3],[18,5],[7,6],[2,13],[0,11],[6,9],[9,19],[7,8],[12,10],[12,12],[5,14],[1,14],[-6,41],[14,18],[17,14],[25,-1],[39,3],[27,6],[19,0],[43,-8],[4,2],[1,2],[2,11],[0,27],[0,83],[0,84],[0,83],[0,83],[0,84],[0,83],[0,83],[-1,83]],[[3529,743],[-23,-33],[-27,-40],[-49,-72],[-38,-39],[-28,-28],[-3,-6],[0,-32],[1,-78],[0,-79],[0,-79],[1,-78],[0,-79],[0,-79],[0,-21]],[[3718,2053],[-3,-7],[-8,-11],[-10,-10],[-8,-11],[-19,-31],[-1,-4],[3,-6],[10,-15],[11,-22],[5,-21],[5,-10],[13,-12],[19,-24],[9,-16],[21,-9],[7,-20],[15,-30],[17,-24],[16,-19],[18,-7],[7,-1],[37,-35],[29,-26],[7,-5],[52,-17],[59,-20],[48,-16],[19,-6]],[[2080,0],[3,32],[17,23],[8,16],[6,23],[9,19],[20,15],[4,9],[21,25],[13,33],[10,11],[12,10],[9,5],[14,6],[11,3],[2,2],[1,6],[-4,20],[5,6],[7,14],[9,13],[8,8],[4,8],[2,14],[1,10],[-1,17],[-2,37],[-9,31],[-6,35],[4,12],[-7,20],[-3,2],[-6,4],[-8,19],[-5,18],[-4,4],[-24,16],[-12,36],[-14,9],[-7,36],[-2,10],[8,36],[-1,8],[-8,8],[-23,8],[-18,15],[2,5],[1,5],[-9,4],[-29,62]],[[3695,3056],[34,26],[9,7],[5,7],[8,15],[11,4],[4,16],[-1,7],[-7,7],[-5,17],[2,23],[2,9],[3,18],[12,6],[3,5],[-9,11],[1,6],[20,19],[8,5],[13,6],[10,0],[12,-4],[11,-5],[10,-9],[11,-10],[16,-4],[12,1],[9,-5],[8,2],[8,6],[15,0],[12,6],[37,3],[34,-2],[37,5],[36,-1],[10,0]],[[1183,1794],[23,12],[21,8],[42,9],[16,15],[8,14],[1,27],[15,10],[49,24],[8,5],[86,-55],[48,-44],[3,-3],[2,0],[5,3],[6,2],[21,1],[38,2],[13,5],[79,79],[25,30],[11,18],[14,34],[86,74],[3,6],[1,5],[-13,24],[-3,13],[0,19],[2,31],[-1,19],[-2,6],[-47,54],[121,1],[0,4],[-3,11],[-1,9],[1,9],[-1,6],[88,0],[-1,-16],[-11,-36],[0,-22],[-2,-24],[-1,-2],[-4,-9],[-4,-8],[18,-139],[-2,-5],[-4,-9],[-2,-3],[2,-4],[40,-15],[4,-2],[14,-18],[79,-65],[3,-3],[8,-21],[1,-8],[0,-4],[-2,-12],[0,-6],[2,-4],[1,-6],[-13,-26],[-3,-17],[-2,-14],[1,-9],[4,-8],[33,0]],[[300,1618],[2,5],[10,14],[16,8],[42,14],[2,5],[1,17],[4,9],[14,23],[2,10],[1,20],[2,10],[4,6],[11,12],[5,7],[1,16],[-1,31],[2,6],[4,6],[27,28],[7,12],[2,11],[0,11],[1,12],[8,10],[7,4],[20,3],[13,-2],[85,17],[8,2],[11,-2],[5,-12],[0,-18],[1,-9],[5,-6],[15,-8],[11,-15],[5,-5],[15,-10],[70,-82],[19,-8],[19,3],[38,17],[19,5],[132,-5],[15,2]],[[980,1792],[21,-41],[9,-10],[145,0],[-3,12],[2,13],[17,17],[12,11]],[[2000,307],[-8,-1],[-20,-3],[-19,-7],[-12,-8],[-7,-7],[3,-4],[12,-1],[9,-2],[-1,-3],[-8,-4],[-2,-6],[9,-2],[7,3],[4,3],[2,0],[1,-4],[1,-8],[-4,-9],[-6,-10],[-2,-6],[-6,6],[-11,7],[-8,4],[-19,13],[-22,9],[-5,0],[-1,-2],[0,-3],[5,-4],[0,-13],[-6,4],[-7,10],[-6,3],[-5,-2],[-2,-7],[-1,-3],[-15,7],[-15,6],[-5,5],[-3,11],[2,5],[12,-1],[22,5],[12,7],[1,-2],[-1,-2],[2,-2],[9,1],[14,2],[8,-2],[3,-1],[5,2],[8,8],[6,6],[2,-2],[3,-1],[6,4],[8,4],[6,2],[5,-1],[8,-2],[9,4],[10,10],[6,0],[2,-9],[2,-2],[2,-3],[1,-2]],[[1633,445],[-14,-19],[-2,-4],[1,-11],[2,-57],[-2,-7],[-4,-4],[-4,-1],[-4,-6],[-3,-11],[-7,-10],[-18,-15],[-7,-4],[-16,-4],[-5,-3],[-8,-4],[-14,-15],[-20,-26],[-10,-16],[-2,-6],[-23,-28],[-4,-2],[-5,-1],[-6,3],[-2,2],[1,13],[-2,10],[0,6],[2,1],[-2,4],[-3,1],[-1,4],[-4,0],[-6,-1],[-3,0],[-2,8],[10,16],[7,16],[9,12],[11,9],[15,18],[7,5],[28,29],[13,11],[8,3],[36,26],[15,15],[8,14],[7,12],[16,18],[8,2],[-1,-3]],[[2582,474],[-9,-21],[-11,-4],[-7,8],[-20,53],[-17,26],[-16,18],[-8,1],[-8,12],[-8,24],[-13,18],[-14,20],[-5,21],[-4,7],[-8,15],[-4,33],[2,18],[5,31],[6,43],[1,22],[5,31],[8,2],[9,-5],[5,3],[4,13],[7,6],[4,0],[3,-4],[4,-38],[4,-53],[-1,-17],[3,-33],[-1,-76],[16,-49],[21,-37],[21,-16],[20,-12],[8,-25],[-2,-35]],[[1777,0],[5,4],[11,-1],[6,9],[6,5],[4,0],[2,-7],[7,0],[8,3],[6,5],[4,18],[5,8],[6,3],[6,-12],[6,-2],[-6,-7],[-1,-4],[3,-2],[8,0],[8,2],[14,10],[4,0],[3,-11],[4,-3],[8,2],[11,7],[9,9],[1,9],[11,2],[12,25],[-2,8],[10,4],[5,2],[7,-2],[10,4],[0,-3],[-6,-16],[4,-4],[19,-3],[5,-3],[0,-4],[-8,-4],[1,-5],[6,-5],[9,-2],[9,2],[11,15],[7,3],[6,-1],[3,-15],[3,-4],[21,-4],[15,6],[6,-1],[0,-23],[1,-12],[2,-5],[-315,0]],[[1979,40],[3,11],[-13,5],[-17,-4],[0,-8],[-1,-9],[-7,-2],[1,-5],[15,-1],[1,-5],[12,-7],[-2,11],[-2,8],[10,6]],[[3710,0],[107,116],[46,44],[57,46],[55,54],[106,78],[15,8],[0,-346],[-386,0]],[[4096,2391],[0,-437],[-10,-6],[-102,-1],[-19,8],[-22,14],[-56,44],[-40,47],[-35,58],[-35,29],[-16,12],[-21,4],[-24,0],[-22,-5],[-25,-10],[-13,-2],[-8,1],[-3,13],[21,-2],[29,33],[46,17],[40,26],[12,11],[8,12],[6,18],[-11,33],[-10,19],[-30,36],[-3,9],[-6,22],[-15,14],[-6,-17],[-31,10],[-11,29],[-39,38],[-22,-2],[-10,35],[-19,35],[-106,74],[-33,49],[-55,70],[-69,23],[-30,26],[-16,10],[-20,5],[-24,2],[-18,8],[-22,25],[-5,12],[-3,22],[-11,11],[-21,15],[-9,-11],[-4,-18],[4,-13],[1,-8],[-6,-15],[-12,17],[-16,44],[-10,14],[-13,1],[-15,48],[-23,25],[-14,51],[-14,100],[-20,66],[-22,64],[-55,108],[-7,13],[-44,27],[-9,12],[-5,-4],[-10,-2],[-13,15],[-10,14],[-28,28],[-35,26],[-23,4],[-13,7],[-11,12],[-20,51],[-20,91],[2,39],[-12,62],[-1,51],[7,30],[-10,33],[-3,30],[-3,17],[2,22],[12,-5],[7,-7],[2,7],[-1,6],[-9,15],[-24,26],[-28,48],[-8,34],[-1,33],[387,0],[-2,-11],[7,-20],[11,-21],[11,-27],[0,-16],[-10,-23],[33,-63],[39,-44],[22,-41],[21,-24],[29,-18],[35,-5],[74,-51],[24,-32],[26,-12],[3,-8],[3,-13],[10,-17],[12,-12],[37,-76],[5,-17],[9,-22],[5,-20],[2,-16],[36,-43],[14,-36],[28,-47],[16,-22],[55,-41],[44,-44],[7,-33],[10,-25],[16,-13],[13,-17],[2,-17],[17,-13],[9,-12],[5,-15],[1,-16],[11,-22],[1,-15],[8,-63],[-23,-71],[15,-53],[0,-8],[-2,-11],[-9,5],[-7,6],[-7,-18],[36,-18],[7,-24],[7,-12],[0,-8],[-4,-7],[2,-8],[4,-8],[14,-41],[-1,-6],[-2,-8],[7,-26],[9,-26],[-1,-36],[27,-28],[8,-31],[0,-10],[-9,-69],[44,-80],[3,-27],[26,9],[37,-13],[17,-11],[14,-2],[19,6],[27,1],[18,5],[47,28],[25,-10],[25,3],[20,5]],[[3694,2570],[-2,0],[-8,-3],[-9,-15],[12,6],[7,12]],[[3695,2616],[-6,10],[-13,-11],[12,-10],[3,-1],[2,4],[2,8]],[[3657,2857],[4,5],[3,7],[-4,12],[-6,-5],[-4,-16],[2,-8],[5,5]],[[3260,2917],[-29,14],[-3,-7],[-4,-3],[-5,-1],[-8,10],[-1,18],[-7,8],[-9,7],[-16,3],[8,-11],[-4,-4],[-6,-4],[-1,-8],[14,-2],[10,-11],[-2,-2],[-7,-2],[-14,8],[5,-16],[22,-4],[18,2],[20,-4],[17,0],[2,9]],[[3200,3002],[-5,4],[-2,-4],[-8,-7],[3,-4],[18,-7],[-6,18]],[[3581,3119],[-20,18],[-6,-9],[1,-3],[6,-6],[-14,1],[-8,6],[3,6],[-2,5],[-1,24],[-5,11],[-11,2],[5,-11],[-5,-10],[-8,-6],[-7,-2],[5,-13],[17,-18],[12,-5],[20,3],[5,-5],[2,-5],[3,-4],[6,-5],[1,5],[1,21]],[[2832,1228],[8,-1],[7,1],[1,-3],[-3,-8],[-2,-9],[-2,-4],[-3,-5],[-6,-8],[-8,-14],[-13,-19],[-12,-18],[-6,-6],[-7,-5],[-12,-6],[-7,0],[-1,5],[3,9],[6,8],[9,7],[6,3],[7,6],[4,8],[-2,18],[-2,18],[1,7],[12,10],[15,8],[7,-2]],[[2692,2202],[-6,4],[-8,1],[-8,-1],[-4,3],[-6,4],[-3,-3],[-3,-2],[-4,1],[-3,3],[-3,6],[-4,5],[1,12],[0,10],[2,11],[2,15],[3,8],[5,6],[4,5],[6,0],[7,-2],[5,-5],[5,0],[9,-1],[11,9],[8,3],[7,0],[8,3],[7,-4],[6,-5],[5,-6],[2,-11],[4,-9],[-1,-6],[0,-7],[-1,-6],[-3,-6],[-2,-8],[-7,-6],[-2,-6],[-1,-8],[-10,-15],[-10,-23],[-5,1],[-3,-1],[-3,1],[-1,2],[-4,4],[4,8],[-2,6],[-4,5],[0,5]],[[1616,4096],[-4,-12],[-6,-12],[-5,-6],[-7,-4],[-10,-10],[-8,-11],[-6,-7],[-6,0],[4,11],[10,15],[12,18],[13,16],[0,2],[13,0]],[[1633,445],[-14,-19],[-2,-4],[1,-11],[2,-57],[-2,-7],[-4,-4],[-4,-1],[-4,-6],[-3,-11],[-7,-10],[-18,-15],[-7,-4],[-16,-4],[-5,-3],[-8,-4],[-14,-15],[-20,-26],[-10,-16],[-2,-6],[-23,-28],[-4,-2],[-5,-1],[-6,3],[-2,2],[1,13],[-2,10],[0,6],[2,1],[-2,4],[-3,1],[-1,4],[-4,0],[-6,-1],[-3,0],[-2,8],[10,16],[7,16],[9,12],[11,9],[15,18],[7,5],[28,29],[13,11],[8,3],[36,26],[15,15],[8,14],[7,12],[16,18],[8,2],[-1,-3]],[[1766,0],[2,2],[5,-2]],[[1777,0],[5,4],[11,-1],[6,9],[6,5],[4,0],[2,-7],[7,0],[8,3],[6,5],[4,18],[5,8],[6,3],[6,-12],[6,-2],[-6,-7],[-1,-4],[3,-2],[8,0],[8,2],[14,10],[4,0],[3,-11],[4,-3],[8,2],[11,7],[9,9],[1,9],[11,2],[12,25],[-2,8],[10,4],[5,2],[7,-2],[10,4],[0,-3],[-6,-16],[4,-4],[19,-3],[5,-3],[0,-4],[-8,-4],[1,-5],[6,-5],[9,-2],[9,2],[11,15],[7,3],[6,-1],[3,-15],[3,-4],[21,-4],[15,6],[6,-1],[0,-23],[1,-12],[2,-5]],[[1979,40],[3,11],[-13,5],[-17,-4],[0,-8],[-1,-9],[-7,-2],[1,-5],[15,-1],[1,-5],[12,-7],[-2,11],[-2,8],[10,6]],[[2692,2202],[-6,4],[-8,1],[-8,-1],[-4,3],[-6,4],[-3,-3],[-3,-2],[-4,1],[-3,3],[-3,6],[-4,5],[1,12],[0,10],[2,11],[2,15],[3,8],[5,6],[4,5],[6,0],[7,-2],[5,-5],[5,0],[9,-1],[11,9],[8,3],[7,0],[8,3],[7,-4],[6,-5],[5,-6],[2,-11],[4,-9],[-1,-6],[0,-7],[-1,-6],[-3,-6],[-2,-8],[-7,-6],[-2,-6],[-1,-8],[-10,-15],[-10,-23],[-5,1],[-3,-1],[-3,1],[-1,2],[-4,4],[4,8],[-2,6],[-4,5],[0,5]],[[2582,474],[-9,-21],[-11,-4],[-7,8],[-20,53],[-17,26],[-16,18],[-8,1],[-8,12],[-8,24],[-13,18],[-14,20],[-5,21],[-4,7],[-8,15],[-4,33],[2,18],[5,31],[6,43],[1,22],[5,31],[8,2],[9,-5],[5,3],[4,13],[7,6],[4,0],[3,-4],[4,-38],[4,-53],[-1,-17],[3,-33],[-1,-76],[16,-49],[21,-37],[21,-16],[20,-12],[8,-25],[-2,-35]],[[2832,1228],[8,-1],[7,1],[1,-3],[-3,-8],[-2,-9],[-2,-4],[-3,-5],[-6,-8],[-8,-14],[-13,-19],[-12,-18],[-6,-6],[-7,-5],[-12,-6],[-7,0],[-1,5],[3,9],[6,8],[9,7],[6,3],[7,6],[4,8],[-2,18],[-2,18],[1,7],[12,10],[15,8],[7,-2]],[[3654,2876],[-4,-16],[2,-8],[5,5],[4,5],[3,7],[-4,12],[-6,-5]],[[3195,3006],[-2,-4],[-8,-7],[3,-4],[18,-7],[-6,18],[-5,4]],[[3631,2180],[-1,-7],[-4,-2],[-4,3],[0,5],[0,4],[3,3],[4,-3],[2,-3]],[[2000,307],[-8,-1],[-20,-3],[-19,-7],[-12,-8],[-7,-7],[3,-4],[12,-1],[9,-2],[-1,-3],[-8,-4],[-2,-6],[9,-2],[7,3],[4,3],[2,0],[1,-4],[1,-8],[-4,-9],[-6,-10],[-2,-6],[-6,6],[-11,7],[-8,4],[-19,13],[-22,9],[-5,0],[-1,-2],[0,-3],[5,-4],[0,-13],[-6,4],[-7,10],[-6,3],[-5,-2],[-2,-7],[-1,-3],[-15,7],[-15,6],[-5,5],[-3,11],[2,5],[12,-1],[22,5],[12,7],[1,-2],[-1,-2],[2,-2],[9,1],[14,2],[8,-2],[3,-1],[5,2],[8,8],[6,6],[2,-2],[3,-1],[6,4],[8,4],[6,2],[5,-1],[8,-2],[9,4],[10,10],[6,0],[2,-9],[2,-2],[2,-3],[1,-2]],[[1616,4096],[-4,-12],[-6,-12],[-5,-6],[-7,-4],[-10,-10],[-8,-11],[-6,-7],[-6,0],[4,11],[10,15],[12,18],[13,16],[0,2]],[[3561,3137],[-6,-9],[1,-3],[6,-6],[-14,1],[-8,6],[3,6],[-2,5],[-1,24],[-5,11],[-11,2],[5,-11],[-5,-10],[-8,-6],[-7,-2],[5,-13],[17,-18],[12,-5],[20,3],[5,-5],[2,-5],[3,-4],[6,-5],[1,5],[1,21],[-20,18]],[[3231,2931],[-3,-7],[-4,-3],[-5,-1],[-8,10],[-1,18],[-7,8],[-9,7],[-16,3],[8,-11],[-4,-4],[-6,-4],[-1,-8],[14,-2],[10,-11],[-2,-2],[-7,-2],[-14,8],[5,-16],[22,-4],[18,2],[20,-4],[17,0],[2,9],[-29,14]],[[3675,2552],[12,6],[7,12],[-2,0],[-8,-3],[-9,-15]],[[3676,2615],[12,-10],[3,-1],[2,4],[2,8],[-6,10],[-13,-11]],[[3710,0],[107,116],[46,44],[57,46],[55,54],[106,78],[15,8]],[[4096,1954],[-10,-6],[-102,-1],[-19,8],[-22,14],[-56,44],[-40,47],[-35,58],[-35,29],[-16,12],[-21,4],[-24,0],[-22,-5],[-25,-10],[-13,-2],[-8,1],[-3,13],[21,-2],[29,33],[46,17],[40,26],[12,11],[8,12],[6,18],[-11,33],[-10,19],[-30,36],[-3,9],[-6,22],[-15,14],[-6,-17],[-31,10],[-11,29],[-39,38],[-22,-2],[-10,35],[-19,35],[-106,74],[-33,49],[-55,70],[-69,23],[-30,26],[-16,10],[-20,5],[-24,2],[-18,8],[-22,25],[-5,12],[-3,22],[-11,11],[-21,15],[-9,-11],[-4,-18],[4,-13],[1,-8],[-6,-15],[-12,17],[-16,44],[-10,14],[-13,1],[-15,48],[-23,25],[-14,51],[-14,100],[-20,66],[-22,64],[-55,108],[-7,13],[-44,27],[-9,12],[-5,-4],[-10,-2],[-13,15],[-10,14],[-28,28],[-35,26],[-23,4],[-13,7],[-11,12],[-20,51],[-20,91],[2,39],[-12,62],[-1,51],[7,30],[-10,33],[-3,30],[-3,17],[2,22],[12,-5],[7,-7],[2,7],[-1,6],[-9,15],[-24,26],[-28,48],[-8,34],[-1,33]],[[3004,4096],[-2,-11],[7,-20],[11,-21],[11,-27],[0,-16],[-10,-23],[33,-63],[39,-44],[22,-41],[21,-24],[29,-18],[35,-5],[74,-51],[24,-32],[26,-12],[3,-8],[3,-13],[10,-17],[12,-12],[37,-76],[5,-17],[9,-22],[5,-20],[2,-16],[36,-43],[14,-36],[28,-47],[16,-22],[55,-41],[44,-44],[7,-33],[10,-25],[16,-13],[13,-17],[2,-17],[17,-13],[9,-12],[5,-15],[1,-16],[11,-22],[1,-15],[8,-63],[-23,-71],[15,-53],[0,-8],[-2,-11],[-9,5],[-7,6],[-7,-18],[36,-18],[7,-24],[7,-12],[0,-8],[-4,-7],[2,-8],[4,-8],[14,-41],[-1,-6],[-2,-8],[7,-26],[9,-26],[-1,-36],[27,-28],[8,-31],[0,-10],[-9,-69],[44,-80],[3,-27],[26,9],[37,-13],[17,-11],[14,-2],[19,6],[27,1],[18,5],[47,28],[25,-10],[25,3],[20,5]],[[3548,3120],[14,-1],[-6,6],[-1,3],[6,9],[20,-18],[-1,-21],[-1,-5],[-6,5],[-3,4],[-2,5],[-5,5],[-20,-3],[-12,5],[-17,18],[-5,13],[7,2],[8,6],[5,10],[-5,11],[11,-2],[5,-11],[1,-24],[2,-5],[-3,-6],[8,-6]],[[3211,2930],[8,-10],[5,1],[4,3],[3,7],[29,-14],[-2,-9],[-17,0],[-20,4],[-18,-2],[-22,4],[-5,16],[14,-8],[7,2],[2,2],[-10,11],[-14,2],[1,8],[6,4],[4,4],[-8,11],[16,-3],[9,-7],[7,-8],[1,-18]],[[4096,1954],[0,-1608],[-15,-8],[-106,-78],[-55,-54],[-57,-46],[-46,-44],[-107,-116],[-3710,0],[0,4096],[2617,0],[1,-33],[8,-34],[28,-48],[24,-26],[9,-15],[1,-6],[-2,-7],[-7,7],[-12,5],[-2,-22],[3,-17],[3,-30],[10,-33],[-7,-30],[1,-51],[12,-62],[-2,-39],[20,-91],[20,-51],[11,-12],[13,-7],[23,-4],[35,-26],[28,-28],[10,-14],[13,-15],[10,2],[5,4],[9,-12],[44,-27],[7,-13],[55,-108],[22,-64],[20,-66],[14,-100],[14,-51],[23,-25],[15,-48],[13,-1],[10,-14],[16,-44],[12,-17],[6,15],[-1,8],[-4,13],[4,18],[9,11],[21,-15],[11,-11],[3,-22],[5,-12],[22,-25],[18,-8],[24,-2],[20,-5],[16,-10],[30,-26],[69,-23],[55,-70],[33,-49],[106,-74],[19,-35],[10,-35],[22,2],[39,-38],[11,-29],[31,-10],[6,17],[15,-14],[6,-22],[3,-9],[30,-36],[10,-19],[11,-33],[-6,-18],[-8,-12],[-12,-11],[-40,-26],[-46,-17],[-29,-33],[-21,2],[3,-13],[8,-1],[13,2],[25,10],[22,5],[24,0],[21,-4],[16,-12],[35,-29],[35,-58],[40,-47],[56,-44],[22,-14],[19,-8],[102,1],[10,6]],[[4096,4096],[0,-1705],[-20,-5],[-25,-3],[-25,10],[-47,-28],[-18,-5],[-27,-1],[-19,-6],[-14,2],[-17,11],[-37,13],[-26,-9],[-3,27],[-44,80],[9,69],[0,10],[-8,31],[-27,28],[1,36],[-9,26],[-7,26],[2,8],[1,6],[-14,41],[-4,8],[-2,8],[4,7],[0,8],[-7,12],[-7,24],[-36,18],[7,18],[7,-6],[9,-5],[2,11],[0,8],[-15,53],[23,71],[-8,63],[-1,15],[-11,22],[-1,16],[-5,15],[-9,12],[-17,13],[-2,17],[-13,17],[-16,13],[-10,25],[-7,33],[-44,44],[-55,41],[-16,22],[-28,47],[-14,36],[-36,43],[-2,16],[-5,20],[-9,22],[-5,17],[-37,76],[-12,12],[-10,17],[-3,13],[-3,8],[-26,12],[-24,32],[-74,51],[-35,5],[-29,18],[-21,24],[-22,41],[-39,44],[-33,63],[10,23],[0,16],[-11,27],[-11,21],[-7,20],[2,11],[1092,0]],[[1411,1663],[53,114],[107,-31],[-66,-123],[-20,-146],[-62,3],[-12,183]],[[2353,1087],[67,48],[59,91],[-32,-77],[-3,-135],[-55,-4],[-36,77]],[[3152,1677],[16,32],[48,-34],[-26,-26],[-38,28]],[[2692,1216],[3,32],[20,8],[1,-35],[-24,-5]],[[1104,677],[33,53],[12,109],[75,-29],[52,65],[-56,-152],[-59,-1],[-6,-28],[-51,-17]],[[1942,1530],[9,27],[115,-35],[8,22],[-2,-32],[63,-15],[-38,-34],[-94,32],[-9,-26],[66,-9],[-14,-36],[-97,27],[-7,79]],[[868,1377],[74,76],[42,-22],[-77,-100],[-39,46]],[[3105,797],[40,92],[76,18],[61,-27],[39,-52],[-216,-31]],[[2133,384],[45,36],[-10,-71],[17,-31],[49,-1],[5,-27],[-104,2],[-2,92]],[[3266,2000],[87,-6],[-3,-113],[-63,10],[-21,109]],[[3558,1638],[0,75],[105,0],[92,-147],[-176,0],[-21,72]],[[2202,1699],[42,72],[32,2],[-10,-52],[-64,-22]],[[2859,913],[29,62],[51,-24],[-3,-79],[-57,0],[-20,41]],[[2442,1009],[51,82],[32,8],[11,-75],[-94,-15]],[[1282,0],[-7,109],[83,65],[1,-28],[-41,-26],[44,-24],[-27,-58],[-11,43],[-32,5],[24,-86],[-34,0]],[[3232,1669],[11,60],[24,40],[32,-59],[-67,-41]],[[2792,2462],[86,38],[37,-23],[-34,-31],[-10,41],[-2,-39],[-15,25],[-62,-11]],[[3105,797],[40,92],[76,18],[61,-27],[39,-52],[-216,-31]],[[2546,1280],[23,30],[45,21],[5,-83],[-26,24],[-14,-22],[-14,39],[-19,-9]],[[2202,1699],[42,72],[32,2],[-10,-52],[-64,-22]],[[2675,0],[41,12],[29,-4],[-6,-8],[-64,0]],[[979,0],[31,27],[92,-9],[-12,-18],[-111,0]],[[1324,31],[36,76],[36,29],[-25,-87],[-47,-18]],[[2584,2670],[59,-10],[53,37],[39,-61],[27,0],[-33,-11],[-37,28],[-48,-25],[-60,42]],[[2069,507],[76,35],[12,-15],[-63,-91],[-25,71]],[[1847,47],[-25,13],[15,24],[35,-17],[-25,-20]],[[2944,1696],[42,0],[-12,-48],[-18,8],[-12,40]],[[4096,2391],[-20,-5],[-10,-1],[25,33],[5,-27]],[[3920,2529],[-21,17],[41,5],[-2,-8],[-18,-14]],[[1996,2695],[13,6],[17,2],[-16,-31],[-14,23]],[[1970,2741],[-14,20],[3,15],[30,-14],[-19,-21]],[[3946,2884],[13,6],[0,-38],[-15,4],[2,28]],[[1839,2956],[27,-66],[3,-24],[-56,7],[-11,48],[37,35]],[[2979,2845],[2,21],[23,5],[-9,-19],[-16,-7]],[[2086,3281],[-4,24],[11,28],[7,-33],[-14,-19]],[[3702,3392],[-30,24],[4,8],[10,2],[16,-34]],[[3286,4011],[0,-45],[-37,-14],[-14,43],[51,16]],[[3182,4030],[-7,-50],[-51,17],[13,28],[45,5]],[[3031,4017],[-22,47],[44,-5],[32,-62],[-55,-13],[1,33]],[[1612,422],[76,60],[-6,-17],[95,-44],[-53,-57],[-42,20],[-32,-15],[-5,54],[-33,-1]],[[1103,675],[52,19],[6,28],[43,-35],[58,3],[31,30],[25,-63],[-28,-45],[-46,1],[-44,63],[-97,-1]],[[1365,0],[19,32],[39,6],[-4,-38],[-54,0]],[[964,1151],[43,109],[32,-19],[24,28],[171,-18],[34,-76],[57,-38],[-35,-54],[-7,-87],[-137,97],[-56,77],[-7,-46],[-86,-69],[-33,96]],[[2005,701],[75,78],[23,-67],[-43,3],[-14,-37],[-41,23]],[[999,299],[1,62],[58,19],[-28,64],[98,19],[68,-144],[-4,-48],[-37,-10],[9,-39],[-44,-36],[-64,-6],[-57,61],[0,58]],[[1666,916],[13,31],[34,0],[-14,30],[20,25],[-41,92],[189,1],[-2,-116],[-38,0],[-35,-42],[-126,-21]],[[1284,745],[39,39],[45,2],[37,-52],[-104,-19],[-17,30]],[[1452,1296],[46,44],[75,-53],[-34,-25],[-85,7],[-2,27]],[[2324,2228],[22,44],[42,63],[37,-77],[-49,-57],[-46,2],[-6,25]],[[579,1805],[15,140],[24,-2],[91,-158],[-1,-38],[-41,-30],[-58,-1],[-30,89]],[[2215,356],[5,45],[44,25],[10,-115],[-37,-56],[-16,29],[30,57],[-36,15]],[[3269,2055],[67,41],[42,-5],[-30,-98],[-73,7],[-6,55]],[[2859,913],[29,62],[51,-24],[-3,-79],[-57,0],[-20,41]],[[1282,1722],[43,6],[20,42],[64,4],[1,18],[106,-13],[-58,-53],[33,-18],[-12,-14],[87,43],[-25,-18],[9,-122],[-25,-126],[50,-170],[56,-51],[16,-79],[-31,6],[-13,53],[-113,89],[-7,33],[-38,-16],[14,59],[-72,57],[0,33],[41,-8],[-49,138],[14,23],[-23,15],[8,49],[26,15],[-11,31],[-95,-42],[-16,16]],[[2772,395],[2,89],[58,-7],[-26,-45],[43,-29],[-77,-8]],[[2066,438],[52,14],[60,-32],[-46,-24],[-66,42]],[[3276,2121],[91,172],[123,-106],[-25,-22],[-92,22],[17,-55],[-19,-41],[-94,-7],[-1,37]],[[2546,1280],[23,30],[45,21],[5,-83],[-26,24],[-14,-22],[-14,39],[-19,-9]],[[2444,1017],[12,122],[18,24],[27,-15],[3,-41],[-60,-90]],[[1173,715],[48,9],[59,145],[54,-18],[-5,-35],[37,-30],[-43,-2],[-39,-38],[-1,-45],[-79,-14],[-31,28]],[[3087,1288],[56,47],[38,-40],[-12,-69],[-56,-18],[-2,67],[-24,13]],[[1947,1350],[8,8],[-2,27],[4,6],[103,-65],[41,8],[77,-94],[54,-24],[-68,-54],[26,-119],[-74,-28],[-27,20],[-125,180],[11,58],[-28,77]],[[2569,884],[41,137],[25,1],[12,-205],[-66,12],[-12,55]],[[2601,892],[25,-37],[8,4],[6,39],[-39,-6]],[[1278,879],[20,11],[99,-56],[-36,-48],[-32,31],[5,34],[-56,28]],[[1159,1434],[38,87],[58,31],[41,-14],[-45,-115],[-39,-26],[-53,37]],[[2141,509],[17,16],[-13,21],[21,53],[67,-73],[-92,-17]]]}