{"objects":{"water":{"type":"GeometryCollection","geometries":[{"type":"Polygon","properties":{"source":"naturalearthdata.com","kind":"ocean","area":1576712559132672,"sort_rank":200,"min_zoom":0.0,"id":1},"arcs":[[41]]},{"type":"LineString","properties":{"source":"naturalearthdata.com","kind":"ocean","sort_rank":205,"boundary":true,"min_zoom":0.0,"id":74},"arcs":[42]}]},"buildings":{"type":"GeometryCollection","geometries":[]},"places":{"type":"GeometryCollection","geometries":[{"type":"Point","properties":{"kind":"region","name:en":"Valparaiso Region","name":"Regi\u00f3n de Valpara\u00edso","kind_detail":"state","name:pt":"Regi\u00e3o de Valparaiso","source":"openstreetmap.org","name:fr":"Valparaiso","name:eo":"Valparaiso","name:it":"Regione di Valparaiso","min_zoom":4.0,"id":924836600},"coordinates":[2522,1866]},{"type":"Point","properties":{"kind":"locality","name":"Vi\u00f1a del Mar","kind_detail":"city","source":"openstreetmap.org","min_zoom":8.0,"name:ru":"\u0412\u0438\u043d\u044c\u044f-\u0434\u0435\u043b\u044c-\u041c\u0430\u0440","id":50026147,"population":331399},"coordinates":[486,391]},{"type":"Point","properties":{"kind":"locality","name":"Valpara\u00edso","kind_detail":"city","source":"openstreetmap.org","min_zoom":8.0,"name:ru":"\u0412\u0430\u043b\u044c\u043f\u0430\u0440\u0430\u0438\u0441\u043e","id":3298545361,"population":294848},"coordinates":[289,317]},{"type":"Point","properties":{"source":"openstreetmap.org","kind":"locality","name":"Villa Alemana","kind_detail":"city","population":119327,"min_zoom":8.0,"id":214215141},"coordinates":[1008,323]}]},"transit":{"type":"GeometryCollection","geometries":[{"type":"LineString","properties":{"source":"openstreetmap.org","kind":"train","name":"Tren Calero","sort_rank":275,"min_zoom":6.0,"osm_relation":true,"id":-7067432},"arcs":[38]},{"type":"LineString","properties":{"kind":"train","name":"Metro Valpara\u00edso: Direcci\u00f3n Limache","sort_rank":275,"colour":"blue","source":"openstreetmap.org","min_zoom":6.0,"operator":"Metro Regional de Valpara\u00edso S.A.","id":-7114437,"osm_relation":true,"colour_name":"blue"},"arcs":[39]},{"type":"LineString","properties":{"kind":"train","name":"Metro Valpara\u00edso: Direcci\u00f3n Puerto","sort_rank":275,"colour":"blue","source":"openstreetmap.org","min_zoom":6.0,"operator":"Metro Regional de Valpara\u00edso S.A.","id":-1408080,"osm_relation":true,"colour_name":"blue"},"arcs":[40]}]},"pois":{"type":"GeometryCollection","geometries":[]},"boundaries":{"type":"GeometryCollection","geometries":[{"type":"MultiLineString","properties":{"name:right:yo":"Ts\u00edl\u00e8","name:right:hy":"\u0549\u056b\u056c\u056b","name:left:lb":"Argentinien","name:right:dv":"\u0797\u07a8\u078d\u07a9","name:right:yi":"\u05d8\u05e9\u05d9\u05dc\u05e2","name:left:lg":"Arigentina","name:left:su":"Arg\u00e9ntina","name:left:li":"Argentini\u00eb","name:right:hr":"\u010cile","name:left:sq":"Argjentina","name:right:qu":"Chili","name:left:lo":"\u0ead\u0eb2\u0e81\u0e8a\u0eb1\u0e87\u0e95\u0eb5\u0e99","name:left:sm":"Atenitina","name:right:hi":"\u091a\u093f\u0932\u0940","name:left:so":"Arjantiina","name:left:si":"\u0d86\u0da2\u0db1\u0dca\u0da7\u0dd2\u0db1\u0dcf\u0dc0","name:left:lv":"Argent\u012bna","name:left:vo":"Larg\u00e4nt\u00e4n","name:left:se":"Argentiinn\u00e1","alt_name:left:ta":"\u0b85\u0bb0\u0bcd\u0b9c\u0bc6\u0ba8\u0bcd\u0ba4\u0bc0\u0ba9\u0bbe","name:left:sg":"Arzant\u00eena","name:left:sa":"\u0905\u0930\u094d\u091c\u0923\u094d\u091f\u093f\u0928\u093e","name:right:he":"\u05e6'\u05d9\u05dc\u05d4","name:left:hi":"\u0905\u0930\u094d\u091c\u0947\u0923\u094d\u091f\u0940\u0928\u093e","name:right:af":"Chili","name:right:ab":"\u0427\u0438\u043b\u0438","name:left:ce":"\u0410\u0440\u0433\u0435\u043d\u0442\u0438\u0301\u043d\u0430","name:right:am":"\u127a\u120c","name:right:ko":"\uce60\ub808","source":"openstreetmap.org","name:right:fr":"Chili","name:left:cy":"Ariannin","name:right:ar":"\u062a\u0634\u064a\u0644\u064a","name:left:ja":"\u30a2\u30eb\u30bc\u30f3\u30c1\u30f3","name:right:mt":"\u010aili","name:right:az":"\u00c7ili","name:right:ay":"Chili","name:left:kg":"Arhentina","name:left:ka":"\u10d0\u10e0\u10d2\u10d4\u10dc\u10e2\u10d8\u10dc\u10d0","name:left:yi":"\u05d0\u05b7\u05e8\u05d2\u05e2\u05e0\u05d8\u05d9\u05e0\u05e2","name:left:km":"\u17a2\u17b6\u17a0\u17d2\u179f\u1784\u17cb\u1791\u17b8\u1793","name:right:ht":"Chili","name:left:ko":"\uc544\ub974\ud5e8\ud2f0\ub098","name:right:it":"Cile","name:left:rn":"Argentine","name:right:rw":"Shili","name:left:kk":"\u0410\u0440\u0433\u0435\u043d\u0442\u0438\u043d\u0430","name:left:rm":"Argentinia","name:left:ku":"Arjent\u00een","name:right:kv":"\u0427\u0438\u043b\u0438","name:left:kw":"Arghantina","name:left:kv":"\u0410\u0440\u0433\u0435\u043d\u0442\u0438\u043d\u0430","name:left:rw":"Arijantine","name:left:ks":"\u0623\u0631\u062c\u064e\u0646\u0679\u06cc\u0646\u0627","name:left:ru":"\u0410\u0440\u0433\u0435\u043d\u0442\u0438\u0301\u043d\u0430","name:right:id":"Chili","name:left:ky":"\u0410\u0440\u0433\u0435\u043d\u0442\u0438\u043d\u0430","name":"Argentina - Chile","name:left:wa":"\u00c5rdjintene","name:right:bn":"\u099a\u09bf\u09b2\u09bf","name:right:bo":"\u0f45\u0f72\u0f0b\u0f63\u0f72\u0f0d","name:right:ba":"\u0427\u0438\u043b\u0438","name:right:bg":"\u0427\u0438\u043b\u0438","name:left:zu":"i-Argentina","name:left:zh":"\u963f\u6839\u5ef7","name:right:bs":"\u010cile","name:right:zh":"\u667a\u5229","official_name:left":"Rep\u00fablica Argentina","name:right:ka":"\u10e9\u10d8\u10da\u10d4","name:right:nl":"Chili","name:right:wa":"Tchili","name:left:sk":"Argent\u00edna","name:left:nv":"B\u00e9\u00e9sh \u0141igaii Bik\u00e9yah","name:left:ur":"\u0627\u0631\u062c\u0646\u0679\u0627\u0626\u0646","name:right:wo":"Sili","name:right:ne":"\u091a\u093f\u0932\u0940","id:right":-167454,"name:left:uk":"\u0410\u0440\u0433\u0435\u043d\u0442\u0438\u0301\u043d\u0430","name:left:nl":"Argentini\u00eb","name:right:gv":"Yn \u00c7hillee","name:right:fa":"\u0634\u06cc\u0644\u06cc","name:right:nv":"Ch\u00edilii","name:right:fo":"Kili","alt_name:left:oc":"Riu de la Plata","name:right:be":"\u0427\u044b\u043b\u0456","name:left:ug":"\u0626\u0627\u0631\u06af\u06d0\u0646\u062a\u0649\u0646\u0627","name:left:na":"Ardjentina","name:left:eo":"Argentino","name:left:el":"\u0391\u03c1\u03b3\u03b5\u03bd\u03c4\u03b9\u03bd\u03ae","kind_detail":"2","alt_name:left:co":"Arghjintina","name:left:pl":"Argentyna","name:left:ps":"\u0627\u0631\u062c\u0646\u067c\u0627\u06cc\u0646","name:left:mi":"\u0100ketina","name:right:gu":"\u0a9a\u0ac0\u0ab2\u0ac0","name:left:ty":"\u2019Atetina","name:right:ps":"\u0686\u06d0\u0644\u064a","name:left:mg":"Arjentina","name:left:mk":"\u0410\u0440\u0433\u0435\u043d\u0442\u0438\u043d\u0430","name:left:tr":"Arjantin","name:left:ts":"Arjentina","name:left:tt":"\u0410\u0440\u0433\u0435\u043d\u0442\u0438\u0301\u043d\u0430","name:left:mn":"\u0410\u0440\u0433\u0435\u043d\u0442\u0438\u043d","name:left:ml":"\u0d05\u0d7c\u0d1c\u0d28\u0d4d\u0d31\u0d40\u0d28","name:left:th":"\u0e2d\u0e32\u0e23\u0e4c\u0e40\u0e08\u0e19\u0e15\u0e34\u0e19\u0e32","name:left:ti":"\u12a0\u122d\u1300\u1295\u1272\u1293","name:left:tl":"Arhentina","name:right:tr":"\u015eili","name:left:mt":"Ar\u0121entina","name:left:sr":"\u0410\u0440\u0433\u0435\u043d\u0442\u0438\u043d\u0430","name:left:ta":"\u0b85\u0bb0\u0bcd\u0b95\u0bc6\u0ba8\u0bcd\u0ba4\u0bc0\u0ba9\u0bbe","name:left:my":"\u1021\u102c\u1002\u103b\u1004\u103a\u1010\u102e\u1038\u1014\u102c\u1038\u1014\u102d\u102f\u1004\u103a\u1004\u1036","name:left:te":"\u0c05\u0c30\u0c4d\u0c1c\u0c46\u0c02\u0c1f\u0c40\u0c28\u0c3e","name:right:os":"\u0427\u0438\u043b\u0438","name:left:tg":"\u0410\u0440\u0433\u0435\u043d\u0442\u0438\u0301\u043d\u0430","name:right:pa":"\u0a1a\u0a3f\u0a32\u0a47","name:left:mr":"\u0906\u0930\u094d\u091c\u0947\u0928\u094d\u091f\u093f\u0928\u093e","name:left:de":"Argentinien","name:left:dz":"\u0f68\u0f62\u0f0b\u0f47\u0f7a\u0f53\u0f0b\u0f4a\u0f72\u0f0b\u0f53","name:right:ga":"An tSile","name:left:dv":"\u0787\u07a7\u0796\u07ac\u0782\u07b0\u0793\u07a9\u0782\u07a7","name:right:ug":"\u0686\u0649\u0644\u0649","name:right:la":"Chilia","name:right:uk":"\u0427\u0438\u043b\u0456","name:left:he":"\u05d0\u05e8\u05d2\u05e0\u05d8\u05d9\u05e0\u05d4","name:right:ln":"Shili","name:left:to":"\u02bbAsenitina","name:right:li":"Chili","name:right:lt":"\u010cil\u0117","name:right:ur":"\u0686\u0644\u06cc","name:right:lv":"\u010c\u012ble","name:left:hy":"\u0531\u0580\u0563\u0565\u0576\u057f\u056b\u0576\u0561","name:left:hu":"Argent\u00edna","name:left:an":"Archentina","name:left:ht":"Ajantin","name:right:uz":"Chili","name:left:wo":"Arsantin","name:left:ga":"an Airgint\u00edn","sort_rank":262,"name:left:ak":"Agy\u025bntina","name:right:gd":"An t-Sile","name:left:gl":"Arxentina","name:left:gu":"\u0a86\u0ab0\u0acd\u0a9c\u0ac7\u0aa8\u0acd\u0a9f\u0ac0\u0aa8\u0abe","osm_relation":true,"name:left:gv":"yn Argenteen","name:right:or":"\u0b1a\u0b3f\u0b32\u0b3f","name:right:ku":"\u015e\u00eele","name:left":"Argentina","name:right:mk":"\u0427\u0438\u043b\u0435","name:right:mi":"Hiri","alt_name:left:kn":"\u0c85\u0cb0\u0ccd\u0c9c\u0cc6\u0c82\u0c9f\u0cc0\u0ca8 \u0c97\u0ca3\u0cb0\u0cbe\u0c9c\u0ccd\u0caf","name:right:mn":"\u0427\u0438\u043b\u0438","name:right:eu":"Txile","name:right:et":"T\u0161iili","name:right:vo":"Cil\u00e4n","name:left:os":"\u0410\u0440\u0433\u0435\u043d\u0442\u0438\u043d\u00e6","name:left:or":"\u0b06\u0b30\u0b4d\u0b1c\u0b47\u0b23\u0b4d\u0b1f\u0b3f\u0b28\u0b3e","alt_name:left:wo":"Argentiin","name:right:my":"\u1001\u103b\u102e\u101c\u102e\u1015\u103c\u100a\u103a\u101e\u1030\u1037\u101e\u1019\u1039\u1019\u1010\u1014\u102d\u102f\u1004\u103a\u1004\u1036","name:left:om":"Arjentiinaa","name:right:mr":"\u091a\u093f\u0932\u0940","min_zoom":8.0,"name:right:na":"Tsire","name:right:eo":"\u0108ilio","name:right:el":"\u03a7\u03b9\u03bb\u03ae","name:left:ff":"Arjantiin","kind":"country","name:left:cv":"\u0410\u0440\u0433\u0435\u043d\u0442\u0438\u043d\u0430","name:left:fa":"\u0622\u0631\u0698\u0627\u0646\u062a\u06cc\u0646","name:right:ru":"\u0427\u0438\u043b\u0438","name:left:qu":"Arhintina","name:left:fi":"Argentiina","name:left:fr":"Argentine","name:right:fy":"Sily","name:left:fy":"Argentynje","name:left:br":"Arc'hantina","name:right:ja":"\u30c1\u30ea","name:right:sq":"Kilia","name:right:ss":"IShile","name:right:sr":"\u0427\u0438\u043b\u0435","name:right:su":"Chili","name:right:si":"\u0da0\u0dd2\u0dbd\u0dd2 \u0da2\u0db1\u0dbb\u0da2\u0dba","name:right:sh":"\u010cile","name:right:sk":"\u010cile","name:left:ba":"\u0410\u0440\u0433\u0435\u043d\u0442\u0438\u0301\u043d\u0430","name:right:jv":"Chili","name:left:bg":"\u0410\u0440\u0436\u0435\u043d\u0442\u045d\u043d\u0430","name:right:so":"Jili","name:left:be":"\u0410\u0440\u0433\u0435\u043d\u0446\u0456\u0301\u043d\u0430","name:right:sa":"\u091a\u093f\u0932\u0947","name:right:sl":"\u010cile","name:right:sc":"Cile","name:left:jv":"Arg\u00e8ntina","name:left:bo":"\u0f68\u0f62\u0f0b\u0f47\u0f7a\u0f53\u0f0b\u0f4a\u0f72\u0f0b\u0f53\u0f0d","name:right":"Chile","old_name:left:vi":"\u00c1 C\u0103n \u0110\u00ecnh","name:left:ne":"\u0905\u0930\u094d\u091c\u0947\u0928\u094d\u091f\u093f\u0928\u093e","name:right:co":"Cile","name:right:ca":"Xile","name:left:bn":"\u0986\u09b0\u09cd\u099c\u09c7\u09a8\u09cd\u099f\u09bf\u09a8\u09be","name:right:ml":"\u0d1a\u0d3f\u0d32\u0d3f","name:right:ce":"\u0427\u0438\u043b\u0438","id":-286393,"name:left:yo":"Arg\u1eb9nt\u00edn\u00e0","name:right:zh-yue":"\u667a\u5229","id:left":-286393,"name:right:cv":"\u0427\u0438\u043b\u0438","name:left:io":"Arjentinia","name:left:av":"\u0410\u0440\u0433\u0435\u043d\u0442\u0438\u043d\u0430","name:left:kn":"\u0c85\u0cb0\u0ccd\u0c9c\u0cc6\u0c82\u0c9f\u0cc0\u0ca8","name:left:as":"\u0986\u09f0\u09cd\u099c\u09c7\u09a3\u09cd\u099f\u09bf\u09a8\u09be","name:left:ar":"\u0627\u0644\u0623\u0631\u062c\u0646\u062a\u064a\u0646","name:right:tt":"\u0427\u0438\u043b\u0438","name:right:is":"S\u00edle","name:right:kk":"\u0427\u0438\u043b\u0438","name:left:pi":"\u0905\u0930\u094d\u091c\u0928\u094d\u091f\u0940\u0928\u093e","name:left:ay":"Arxintina","name:right:kn":"\u0c9a\u0cbf\u0cb2\u0cbf","name:left:af":"Argentini\u00eb","alt_name:left:qu":"Qullqillaqta","name:right:th":"\u0e1b\u0e23\u0e30\u0e40\u0e17\u0e28\u0e0a\u0e34\u0e25\u0e35","name:right:tk":"\u00c7ili","name:right:ky":"\u0427\u0438\u043b\u0438","name:right:te":"\u0c1a\u0c3f\u0c32\u0c40","name:left:am":"\u12a0\u122d\u1300\u1295\u1272\u1293","name:right:tg":"\u0427\u0438\u043b\u0435","name:left:is":"Argent\u00edna","name:right:ta":"\u0b9a\u0bbf\u0bb2\u0bbf","name:right:io":"Chili","name:left:zh-yue":"\u963f\u6839\u5ef7","alt_name:left:rw":"Arijantina","name:left:pa":"\u0a05\u0a30\u0a1c\u0a28\u0a1f\u0a40\u0a28\u0a3e"},"arcs":[[0],[1],[2],[3]]},{"type":"LineString","properties":{"name:ps":"\u0686\u06d0\u0644\u064a","name:ka":"\u10e9\u10d8\u10da\u10d4","name:ko":"\uce60\ub808","name:kn":"\u0c9a\u0cbf\u0cb2\u0cbf","name:kk":"\u0427\u0438\u043b\u0438","name:tt":"\u0427\u0438\u043b\u0438","name:co":"Cile","name:kv":"\u0427\u0438\u043b\u0438","name:ku":"\u015e\u00eele","name:pa":"\u0a1a\u0a3f\u0a32\u0a47","name:os":"\u0427\u0438\u043b\u0438","name:or":"\u0b1a\u0b3f\u0b32\u0b3f","name:ce":"\u0427\u0438\u043b\u0438","name:ta":"\u0b9a\u0bbf\u0bb2\u0bbf","name:tg":"\u0427\u0438\u043b\u0435","name:ca":"Xile","name:te":"\u0c1a\u0c3f\u0c32\u0c40","source":"openstreetmap.org","sort_rank":262,"name:qu":"Chili","name:ba":"\u0427\u0438\u043b\u0438","name:tr":"\u015eili","name:nv":"Ch\u00edilii","name:cv":"\u0427\u0438\u043b\u0438","name:dv":"\u0797\u07a8\u078d\u07a9","name:lv":"\u010c\u012ble","name:lt":"\u010cil\u0117","name:uz":"Chili","name:he":"\u05e6'\u05d9\u05dc\u05d4","name:eo":"\u0108ilio","name:ur":"\u0686\u0644\u06cc","name:la":"Chilia","name:uk":"\u0427\u0438\u043b\u0456","name:hy":"\u0549\u056b\u056c\u056b","name:ug":"\u0686\u0649\u0644\u0649","name:li":"Chili","name:ln":"Shili","name:el":"\u03a7\u03b9\u03bb\u03ae","kind":"country","name":"Chile","name:tk":"\u00c7ili","name:zh":"\u667a\u5229","min_zoom":8.0,"name:th":"\u0e1b\u0e23\u0e30\u0e40\u0e17\u0e28\u0e0a\u0e34\u0e25\u0e35","name:eu":"Txile","name:et":"T\u0161iili","name:yo":"Ts\u00edl\u00e8","name:ay":"Chili","name:mt":"\u010aili","name:az":"\u00c7ili","name:id":"Chili","name:mr":"\u091a\u093f\u0932\u0940","name:ar":"\u062a\u0634\u064a\u0644\u064a","name:my":"\u1001\u103b\u102e\u101c\u102e\u1015\u103c\u100a\u103a\u101e\u1030\u1037\u101e\u1019\u1039\u1019\u1010\u1014\u102d\u102f\u1004\u103a\u1004\u1036","name:io":"Chili","name:is":"S\u00edle","name:am":"\u127a\u120c","name:it":"Cile","name:ru":"\u0427\u0438\u043b\u0438","name:ml":"\u0d1a\u0d3f\u0d32\u0d3f","name:rw":"Shili","name:mi":"Hiri","id":-167454,"name:mk":"\u0427\u0438\u043b\u0435","name:af":"Chili","name:fa":"\u0634\u06cc\u0644\u06cc","name:ab":"\u0427\u0438\u043b\u0438","name:ss":"IShile","kind_detail":"2","name:hi":"\u091a\u093f\u0932\u0940","name:fo":"Kili","name:fr":"Chili","name:ky":"\u0427\u0438\u043b\u0438","name:zh-yue":"\u667a\u5229","name:fy":"Sily","name:vo":"Cil\u00e4n","name:mn":"\u0427\u0438\u043b\u0438","name:hr":"\u010cile","name:so":"Jili","name:sl":"\u010cile","name:nl":"Chili","name:ja":"\u30c1\u30ea","name:si":"\u0da0\u0dd2\u0dbd\u0dd2 \u0da2\u0db1\u0dbb\u0da2\u0dba","name:sh":"\u010cile","name:na":"Tsire","name:sc":"Cile","name:ne":"\u091a\u093f\u0932\u0940","name:sa":"\u091a\u093f\u0932\u0947","name:bs":"\u010cile","name:yi":"\u05d8\u05e9\u05d9\u05dc\u05e2","name:wa":"Tchili","name:bo":"\u0f45\u0f72\u0f0b\u0f63\u0f72\u0f0d","name:sk":"\u010cile","name:jv":"Chili","name:be":"\u0427\u044b\u043b\u0456","name:su":"Chili","name:bg":"\u0427\u0438\u043b\u0438","name:wo":"Sili","name:sr":"\u0427\u0438\u043b\u0435","osm_relation":true,"name:sq":"Kilia","name:ga":"An tSile","name:gd":"An t-Sile","name:ht":"Chili","name:bn":"\u099a\u09bf\u09b2\u09bf","maritime_boundary":true,"name:gv":"Yn \u00c7hillee","name:gu":"\u0a9a\u0ac0\u0ab2\u0ac0"},"arcs":[4]},{"type":"LineString","properties":{"kind":"region","name":"IV Regi\u00f3n de Coquimbo - V Regi\u00f3n de Valpara\u00edso","sort_rank":256,"kind_detail":"4","id:right":-198847,"name:right:lt":"Valparaiso regionas","source":"openstreetmap.org","min_zoom":8.0,"id:left":-231672,"name:left":"IV Regi\u00f3n de Coquimbo","id":-231672,"osm_relation":true,"name:right":"V Regi\u00f3n de Valpara\u00edso"},"arcs":[5]},{"type":"LineString","properties":{"kind":"region","name":"IV Regi\u00f3n de Coquimbo - V Regi\u00f3n de Valpara\u00edso","sort_rank":256,"kind_detail":"4","min_zoom":8.0,"id:right":-198847,"name:right:lt":"Valparaiso regionas","source":"openstreetmap.org","maritime_boundary":true,"id:left":-231672,"name:right":"V Regi\u00f3n de Valpara\u00edso","id":-231672,"osm_relation":true,"name:left":"IV Regi\u00f3n de Coquimbo"},"arcs":[6]},{"type":"MultiLineString","properties":{"name:left":"IV Regi\u00f3n de Coquimbo","kind":"region","name":"IV Regi\u00f3n de Coquimbo - San Juan","sort_rank":256,"kind_detail":"4","id":-231672,"name:right:ru":"\u0421\u0430\u043d-\u0425\u0443\u0430\u043d","source":"openstreetmap.org","min_zoom":8.0,"id:left":-231672,"short_name:right":"SJ","id:right":-153539,"name:right:he":"\u05e1\u05df \u05d7\u05d5\u05d0\u05df","osm_relation":true,"name:right":"San Juan"},"arcs":[[7],[8],[9],[10]]},{"type":"LineString","properties":{"kind":"region","name":"IV Regi\u00f3n de Coquimbo","sort_rank":256,"kind_detail":"4","min_zoom":8.0,"source":"openstreetmap.org","maritime_boundary":true,"id":-231672,"osm_relation":true},"arcs":[11]},{"type":"LineString","properties":{"kind":"region","name":"Regi\u00f3n Metropolitana de Santiago - V Regi\u00f3n de Valpara\u00edso","sort_rank":256,"kind_detail":"4","id:right":-198847,"name:right:lt":"Valparaiso regionas","source":"openstreetmap.org","min_zoom":8.0,"id:left":-198848,"name:left":"Regi\u00f3n Metropolitana de Santiago","id":-198848,"osm_relation":true,"name:right":"V Regi\u00f3n de Valpara\u00edso"},"arcs":[12]},{"type":"LineString","properties":{"name:right:ru":"\u0421\u0430\u043d-\u0425\u0443\u0430\u043d","min_zoom":8.0,"name:left:lt":"Valparaiso regionas","short_name:right":"SJ","id:right":-153539,"id":-198847,"osm_relation":true,"name:right":"San Juan","kind":"region","name":"V Regi\u00f3n de Valpara\u00edso - San Juan","sort_rank":256,"kind_detail":"4","name:right:he":"\u05e1\u05df \u05d7\u05d5\u05d0\u05df","source":"openstreetmap.org","id:left":-198847,"name:left":"V Regi\u00f3n de Valpara\u00edso"},"arcs":[13]},{"type":"MultiLineString","properties":{"kind":"region","name":"V Regi\u00f3n de Valpara\u00edso","name:lt":"Valparaiso regionas","sort_rank":256,"kind_detail":"4","source":"openstreetmap.org","min_zoom":8.0,"id":-198847,"osm_relation":true},"arcs":[[14],[15],[16],[17],[18],[19],[20],[21],[22],[23],[24]]},{"type":"MultiLineString","properties":{"kind":"region","name":"V Regi\u00f3n de Valpara\u00edso","name:lt":"Valparaiso regionas","sort_rank":256,"kind_detail":"4","min_zoom":8.0,"source":"openstreetmap.org","maritime_boundary":true,"id":-198847,"osm_relation":true},"arcs":[[25],[26],[27],[28],[29],[30],[31],[32],[33],[34],[35],[36],[37]]}]},"roads":{"type":"GeometryCollection","geometries":[{"type":"LineString","properties":{"kind":"major_road","network":"CL:regional","sort_rank":380,"kind_detail":"primary","source":"openstreetmap.org","min_zoom":8.0,"landuse_kind":"urban_area","shield_text":"57","ref":"E-57"},"arcs":[43]},{"type":"MultiLineString","properties":{"kind":"major_road","network":"CL:national","sort_rank":381,"landuse_kind":"urban_area","source":"openstreetmap.org","min_zoom":8.0,"kind_detail":"trunk","shield_text":"64"},"arcs":[[44],[45]]},{"type":"LineString","properties":{"kind":"major_road","network":"CL:regional","sort_rank":380,"kind_detail":"primary","source":"openstreetmap.org","min_zoom":8.0,"shield_text":"16","ref":"G-16"},"arcs":[46]},{"type":"LineString","properties":{"source":"openstreetmap.org","kind":"major_road","sort_rank":380,"kind_detail":"primary","ref":"E-41","min_zoom":8.0},"arcs":[47]},{"type":"MultiLineString","properties":{"kind":"major_road","network":"CL:national","sort_rank":381,"kind_detail":"trunk","source":"openstreetmap.org","min_zoom":8.0,"landuse_kind":"residential","shield_text":"64","ref":"64"},"arcs":[[48],[49],[50],[51],[52],[53],[54],[55],[56]]},{"type":"MultiLineString","properties":{"kind":"major_road","network":"CL:regional","sort_rank":380,"kind_detail":"primary","source":"openstreetmap.org","min_zoom":8.0,"shield_text":"30-F","ref":"E-30-F"},"arcs":[[57],[58],[59],[60],[61]]},{"type":"LineString","properties":{"kind":"major_road","network":"CL:regional","sort_rank":380,"kind_detail":"primary","source":"openstreetmap.org","min_zoom":8.0,"shield_text":"30-F","ref":"F-30-E","id":202672304},"arcs":[62]},{"type":"MultiLineString","properties":{"source":"openstreetmap.org","kind":"major_road","sort_rank":380,"kind_detail":"primary","ref":"F-100-G","min_zoom":8.0},"arcs":[[63],[64]]},{"type":"MultiLineString","properties":{"bus_network":"Transporte Metropolitano Valpara\u00edso","sort_rank":380,"kind_detail":"primary","kind":"major_road","source":"openstreetmap.org","min_zoom":8.0,"bus_shield_text":"102","landuse_kind":"urban_area"},"arcs":[[65],[66],[67],[68]]},{"type":"LineString","properties":{"kind":"major_road","sort_rank":380,"kind_detail":"primary","bus_network":"Transporte Metropolitano Valpara\u00edso","source":"openstreetmap.org","min_zoom":8.0,"bus_shield_text":"111","landuse_kind":"urban_area","id":173161582},"arcs":[69]},{"type":"MultiLineString","properties":{"kind":"highway","network":"CL:national","sort_rank":383,"landuse_kind":"urban_area","source":"openstreetmap.org","min_zoom":8.0,"all_networks":["CL:national"],"kind_detail":"motorway","shield_text":"5","ref":"5","all_shield_texts":["5"]},"arcs":[[70],[71],[72],[73]]},{"type":"MultiLineString","properties":{"kind":"major_road","network":"CL:regional","sort_rank":380,"kind_detail":"primary","source":"openstreetmap.org","min_zoom":8.0,"landuse_kind":"urban_area","shield_text":"62","ref":"F-62"},"arcs":[[74],[75],[76],[77],[78]]},{"type":"MultiLineString","properties":{"sort_rank":380,"kind_detail":"primary","min_zoom":8.0,"kind":"major_road","source":"openstreetmap.org"},"arcs":[[79],[80],[81],[82],[83],[84],[85],[86],[87],[88],[89],[90],[91],[92],[93],[94],[95],[96],[97],[98],[99],[100],[101],[102],[103],[104],[105],[106],[107],[108],[109],[110],[111],[112],[113],[114],[115],[116],[117],[118],[119]]},{"type":"MultiLineString","properties":{"kind":"major_road","network":"CL:regional","sort_rank":380,"kind_detail":"primary","source":"openstreetmap.org","min_zoom":8.0,"landuse_kind":"urban_area","shield_text":"61","ref":"60 CH"},"arcs":[[120],[121],[122],[123],[124],[125],[126],[127]]},{"type":"LineString","properties":{"source":"openstreetmap.org","kind":"major_road","sort_rank":380,"kind_detail":"primary","ref":"71","min_zoom":8.0},"arcs":[128]},{"type":"LineString","properties":{"kind":"major_road","network":"CL:regional","sort_rank":381,"landuse_kind":"urban_area","source":"openstreetmap.org","min_zoom":8.0,"kind_detail":"trunk","shield_text":"30-F","ref":"E-30-F"},"arcs":[129]},{"type":"LineString","properties":{"kind":"major_road","sort_rank":381,"landuse_kind":"urban_area","source":"openstreetmap.org","min_zoom":8.0,"kind_detail":"trunk","ref":"57","id":452343809},"arcs":[130]},{"type":"LineString","properties":{"bus_network":"Transporte Metropolitano Valpara\u00edso","sort_rank":380,"kind_detail":"primary","kind":"major_road","source":"openstreetmap.org","min_zoom":8.0,"bus_shield_text":"107","landuse_kind":"residential"},"arcs":[131]},{"type":"LineString","properties":{"kind":"major_road","sort_rank":380,"landuse_kind":"residential","source":"openstreetmap.org","min_zoom":8.0,"kind_detail":"primary","ref":"F-72","id":442339169},"arcs":[132]},{"type":"LineString","properties":{"kind":"major_road","network":"CL:regional","sort_rank":380,"kind_detail":"primary","source":"openstreetmap.org","min_zoom":8.0,"shield_text":"61","ref":"60 CH","id":248001751},"arcs":[133]},{"type":"LineString","properties":{"kind":"major_road","sort_rank":380,"landuse_kind":"urban_area","source":"openstreetmap.org","min_zoom":8.0,"kind_detail":"primary","ref":"E-693","id":153877220},"arcs":[134]},{"type":"LineString","properties":{"kind":"major_road","network":"CL:regional","sort_rank":380,"kind_detail":"primary","source":"openstreetmap.org","min_zoom":8.0,"shield_text":"20","ref":"F-20"},"arcs":[135]},{"type":"MultiLineString","properties":{"kind":"major_road","network":"CL:regional","sort_rank":380,"kind_detail":"primary","source":"openstreetmap.org","min_zoom":8.0,"shield_text":"62","ref":"F-62"},"arcs":[[136],[137],[138],[139],[140],[141],[142],[143],[144],[145],[146],[147],[148],[149],[150],[151]]},{"type":"MultiLineString","properties":{"source":"openstreetmap.org","kind":"major_road","landuse_kind":"urban_area","sort_rank":380,"kind_detail":"primary","ref":"60-CH","min_zoom":8.0},"arcs":[[152],[153],[154],[155],[156],[157],[158],[159]]},{"type":"MultiLineString","properties":{"kind":"major_road","network":"CL:regional","sort_rank":380,"kind_detail":"primary","source":"openstreetmap.org","min_zoom":8.0,"shield_text":"50","ref":"F-50"},"arcs":[[160],[161],[162],[163],[164]]},{"type":"LineString","properties":{"source":"openstreetmap.org","kind":"major_road","sort_rank":380,"kind_detail":"primary","ref":"F-66","min_zoom":8.0,"id":23782572},"arcs":[165]},{"type":"LineString","properties":{"bus_network":"Transporte Metropolitano Valpara\u00edso","sort_rank":380,"kind_detail":"primary","kind":"major_road","source":"openstreetmap.org","min_zoom":8.0,"bus_shield_text":"105","landuse_kind":"urban_area"},"arcs":[166]},{"type":"MultiLineString","properties":{"source":"openstreetmap.org","kind":"major_road","sort_rank":381,"kind_detail":"trunk","ref":"60-CH","min_zoom":8.0},"arcs":[[167],[168],[169],[170],[171],[172],[173],[174],[175],[176],[177],[178],[179],[180],[181],[182],[183]]},{"type":"LineString","properties":{"kind":"major_road","network":"CL:regional","sort_rank":380,"kind_detail":"primary","source":"openstreetmap.org","min_zoom":8.0,"shield_text":"85","ref":"E-85"},"arcs":[184]},{"type":"LineString","properties":{"source":"openstreetmap.org","kind":"major_road","sort_rank":380,"kind_detail":"primary","ref":"E-253","min_zoom":8.0},"arcs":[185]},{"type":"LineString","properties":{"kind":"major_road","network":"CL:national","sort_rank":380,"kind_detail":"primary","source":"openstreetmap.org","min_zoom":8.0,"shield_text":"64","id":23809873},"arcs":[186]},{"type":"MultiLineString","properties":{"kind":"major_road","network":"CL:regional","sort_rank":380,"kind_detail":"primary","source":"openstreetmap.org","min_zoom":8.0,"landuse_kind":"residential","shield_text":"62","ref":"F-62"},"arcs":[[187],[188],[189],[190],[191],[192]]},{"type":"MultiLineString","properties":{"source":"openstreetmap.org","kind":"major_road","sort_rank":380,"kind_detail":"primary","ref":"E-35","min_zoom":8.0},"arcs":[[193],[194],[195],[196],[197],[198]]},{"type":"MultiLineString","properties":{"bus_network":"Transporte Metropolitano Valpara\u00edso","sort_rank":380,"kind_detail":"primary","kind":"major_road","source":"openstreetmap.org","min_zoom":8.0,"bus_shield_text":"102","landuse_kind":"residential"},"arcs":[[199],[200],[201],[202],[203],[204]]},{"type":"MultiLineString","properties":{"source":"openstreetmap.org","kind":"major_road","kind_detail":"trunk","sort_rank":381,"landuse_kind":"urban_area","ref":"60-CH","min_zoom":8.0},"arcs":[[205],[206],[207],[208],[209],[210],[211],[212],[213],[214],[215],[216],[217],[218],[219],[220],[221]]},{"type":"MultiLineString","properties":{"bus_network":"Transporte Metropolitano Valpara\u00edso","sort_rank":380,"kind_detail":"primary","kind":"major_road","source":"openstreetmap.org","min_zoom":8.0,"bus_shield_text":"104","landuse_kind":"residential"},"arcs":[[222],[223],[224]]},{"type":"MultiLineString","properties":{"source":"openstreetmap.org","kind":"major_road","landuse_kind":"urban_area","sort_rank":380,"kind_detail":"primary","ref":"E-89","min_zoom":8.0},"arcs":[[225],[226],[227],[228],[229],[230],[231]]},{"type":"MultiLineString","properties":{"kind":"major_road","network":"CL:national","sort_rank":380,"kind_detail":"primary","source":"openstreetmap.org","min_zoom":8.0,"shield_text":"64","ref":"64"},"arcs":[[232],[233],[234],[235],[236],[237],[238]]},{"type":"MultiLineString","properties":{"kind":"major_road","network":"CL:regional","sort_rank":380,"kind_detail":"primary","source":"openstreetmap.org","min_zoom":8.0,"landuse_kind":"urban_area","shield_text":"30-F","ref":"E-30-F"},"arcs":[[239],[240],[241],[242],[243],[244],[245],[246],[247],[248],[249]]},{"type":"LineString","properties":{"source":"openstreetmap.org","kind":"major_road","sort_rank":380,"kind_detail":"primary","ref":"F-72","min_zoom":8.0,"id":442339169},"arcs":[250]},{"type":"MultiLineString","properties":{"kind":"highway","network":"CL:national","sort_rank":383,"landuse_kind":"urban_area","source":"openstreetmap.org","min_zoom":8.0,"all_networks":["CL:national"],"kind_detail":"motorway","shield_text":"68","ref":"68","all_shield_texts":["68"]},"arcs":[[251],[252],[253],[254]]},{"type":"MultiLineString","properties":{"source":"openstreetmap.org","kind":"major_road","landuse_kind":"urban_area","sort_rank":380,"kind_detail":"primary","ref":"F-210","min_zoom":8.0},"arcs":[[255],[256],[257],[258]]},{"type":"LineString","properties":{"kind":"major_road","network":"CL:regional","sort_rank":380,"kind_detail":"primary","source":"openstreetmap.org","min_zoom":8.0,"shield_text":"411","ref":"E-411"},"arcs":[259]},{"type":"MultiLineString","properties":{"kind":"major_road","network":"CL:regional","sort_rank":380,"kind_detail":"primary","source":"openstreetmap.org","min_zoom":8.0,"landuse_kind":"urban_area","shield_text":"50","ref":"F-50"},"arcs":[[260],[261]]},{"type":"LineString","properties":{"source":"openstreetmap.org","kind":"major_road","sort_rank":380,"kind_detail":"primary","ref":"F-590","min_zoom":8.0},"arcs":[262]},{"type":"MultiLineString","properties":{"kind":"major_road","network":"CL:regional","sort_rank":380,"kind_detail":"primary","source":"openstreetmap.org","min_zoom":8.0,"landuse_kind":"urban_area","shield_text":"85","ref":"E-85"},"arcs":[[263],[264],[265],[266],[267],[268],[269],[270],[271],[272],[273]]},{"type":"MultiLineString","properties":{"source":"openstreetmap.org","kind":"major_road","landuse_kind":"urban_area","sort_rank":380,"kind_detail":"primary","ref":"F-32","min_zoom":8.0},"arcs":[[274],[275],[276],[277],[278]]},{"type":"MultiLineString","properties":{"bus_network":"Transporte Metropolitano Valpara\u00edso","sort_rank":380,"kind_detail":"primary","kind":"major_road","source":"openstreetmap.org","min_zoom":8.0,"bus_shield_text":"103","landuse_kind":"residential"},"arcs":[[279],[280],[281]]},{"type":"MultiLineString","properties":{"kind":"major_road","network":"CL:national","sort_rank":380,"kind_detail":"primary","source":"openstreetmap.org","min_zoom":8.0,"landuse_kind":"urban_area","shield_text":"64","ref":"64"},"arcs":[[282],[283]]},{"type":"LineString","properties":{"kind":"major_road","network":"CL:regional","sort_rank":380,"kind_detail":"primary","source":"openstreetmap.org","min_zoom":8.0,"shield_text":"20","id":26410890},"arcs":[284]},{"type":"LineString","properties":{"bus_network":"Transporte Metropolitano Valpara\u00edso","sort_rank":380,"kind_detail":"primary","kind":"major_road","source":"openstreetmap.org","min_zoom":8.0,"bus_shield_text":"113","landuse_kind":"residential"},"arcs":[285]},{"type":"LineString","properties":{"source":"openstreetmap.org","kind":"major_road","sort_rank":380,"kind_detail":"primary","ref":"G-132","min_zoom":8.0},"arcs":[286]},{"type":"LineString","properties":{"kind":"major_road","network":"CL:regional","sort_rank":380,"kind_detail":"primary","source":"openstreetmap.org","min_zoom":8.0,"landuse_kind":"residential","shield_text":"62","id":442341462},"arcs":[287]},{"type":"LineString","properties":{"source":"openstreetmap.org","kind":"major_road","sort_rank":380,"kind_detail":"primary","ref":"F-210","min_zoom":8.0,"id":198457316},"arcs":[288]},{"type":"LineString","properties":{"source":"openstreetmap.org","kind":"major_road","sort_rank":380,"kind_detail":"primary","ref":"F-560","min_zoom":8.0},"arcs":[289]},{"type":"MultiLineString","properties":{"kind":"highway","network":"CL:national","sort_rank":383,"kind_detail":"motorway","source":"openstreetmap.org","min_zoom":8.0,"all_networks":["CL:national"],"shield_text":"5","ref":"5","all_shield_texts":["5"]},"arcs":[[290],[291],[292],[293],[294],[295],[296],[297],[298],[299],[300],[301],[302],[303],[304],[305],[306],[307],[308],[309],[310],[311]]},{"type":"MultiLineString","properties":{"kind":"major_road","network":null,"sort_rank":381,"kind_detail":"trunk","source":"openstreetmap.org","min_zoom":8.0,"shield_text":"57","ref":"57"},"arcs":[[312],[313],[314],[315],[316],[317],[318],[319]]},{"type":"MultiLineString","properties":{"source":"openstreetmap.org","kind":"major_road","old_name":"15 Norte","sort_rank":380,"kind_detail":"primary","landuse_kind":"urban_area","min_zoom":8.0},"arcs":[[320],[321],[322],[323]]},{"type":"LineString","properties":{"sort_rank":381,"source":"openstreetmap.org","min_zoom":8.0,"kind":"major_road","kind_detail":"trunk"},"arcs":[324]},{"type":"LineString","properties":{"kind":"major_road","sort_rank":380,"kind_detail":"primary","bus_network":"Transporte Metropolitano Valpara\u00edso","source":"openstreetmap.org","min_zoom":8.0,"bus_shield_text":"103","id":317595490},"arcs":[325]},{"type":"MultiLineString","properties":{"source":"openstreetmap.org","kind":"highway","landuse_kind":"urban_area","sort_rank":383,"kind_detail":"motorway","min_zoom":8.0},"arcs":[[326],[327]]},{"type":"LineString","properties":{"kind":"major_road","network":null,"sort_rank":381,"landuse_kind":"urban_area","source":"openstreetmap.org","min_zoom":8.0,"kind_detail":"trunk","shield_text":"57","ref":"57"},"arcs":[328]},{"type":"MultiLineString","properties":{"source":"openstreetmap.org","kind":"major_road","landuse_kind":"urban_area","sort_rank":380,"kind_detail":"primary","ref":"F-72","min_zoom":8.0},"arcs":[[329],[330],[331],[332]]},{"type":"LineString","properties":{"source":"openstreetmap.org","kind":"major_road","landuse_kind":"urban_area","sort_rank":380,"kind_detail":"primary","ref":"F-590","min_zoom":8.0},"arcs":[333]},{"type":"LineString","properties":{"kind":"major_road","network":"CL:regional","sort_rank":380,"kind_detail":"primary","source":"openstreetmap.org","min_zoom":8.0,"landuse_kind":"urban_area","shield_text":"57"},"arcs":[334]},{"type":"LineString","properties":{"kind":"major_road","sort_rank":380,"kind_detail":"primary","bus_network":"Transporte Metropolitano Valpara\u00edso","source":"openstreetmap.org","min_zoom":8.0,"bus_shield_text":"113","landuse_kind":"urban_area","id":120254774},"arcs":[335]},{"type":"LineString","properties":{"source":"openstreetmap.org","kind":"major_road","sort_rank":380,"kind_detail":"primary","ref":"G-100-F","min_zoom":8.0},"arcs":[336]},{"type":"MultiLineString","properties":{"kind":"major_road","network":"CL:national","sort_rank":381,"landuse_kind":"urban_area","source":"openstreetmap.org","min_zoom":8.0,"kind_detail":"trunk","shield_text":"64","ref":"64"},"arcs":[[337],[338],[339],[340],[341],[342],[343]]},{"type":"LineString","properties":{"source":"openstreetmap.org","kind":"major_road","landuse_kind":"urban_area","sort_rank":380,"kind_detail":"primary","ref":"F-156","min_zoom":8.0},"arcs":[344]},{"type":"MultiLineString","properties":{"source":"openstreetmap.org","kind":"major_road","kind_detail":"trunk","sort_rank":381,"landuse_kind":"urban_area","min_zoom":8.0},"arcs":[[345],[346],[347],[348]]},{"type":"LineString","properties":{"kind":"major_road","sort_rank":380,"landuse_kind":"residential","source":"openstreetmap.org","min_zoom":8.0,"kind_detail":"primary","ref":"F-986","id":27148411},"arcs":[349]},{"type":"LineString","properties":{"source":"openstreetmap.org","kind":"major_road","landuse_kind":"urban_area","sort_rank":380,"kind_detail":"primary","ref":"E-661","min_zoom":8.0},"arcs":[350]},{"type":"LineString","properties":{"source":"openstreetmap.org","kind":"major_road","sort_rank":380,"kind_detail":"primary","ref":"G-13","min_zoom":8.0},"arcs":[351]},{"type":"MultiLineString","properties":{"source":"openstreetmap.org","kind":"major_road","landuse_kind":"residential","sort_rank":380,"kind_detail":"primary","min_zoom":8.0},"arcs":[[352],[353],[354],[355],[356],[357],[358],[359],[360],[361],[362],[363],[364],[365],[366],[367],[368],[369],[370],[371],[372],[373],[374],[375],[376],[377],[378],[379],[380],[381],[382],[383],[384],[385],[386],[387],[388],[389],[390],[391],[392],[393],[394],[395],[396],[397],[398],[399],[400],[401],[402],[403],[404],[405],[406],[407],[408]]},{"type":"LineString","properties":{"sort_rank":383,"kind_detail":"motorway","min_zoom":8.0,"kind":"highway","source":"openstreetmap.org"},"arcs":[409]},{"type":"MultiLineString","properties":{"kind":"highway","network":"CL:national","sort_rank":383,"kind_detail":"motorway","source":"openstreetmap.org","min_zoom":8.0,"all_networks":["CL:national"],"shield_text":"68","ref":"68","all_shield_texts":["68"]},"arcs":[[410],[411],[412],[413]]},{"type":"MultiLineString","properties":{"bus_network":"Transporte Metropolitano Valpara\u00edso","sort_rank":380,"kind_detail":"primary","kind":"major_road","source":"openstreetmap.org","min_zoom":8.0,"bus_shield_text":"106","landuse_kind":"residential"},"arcs":[[414],[415],[416],[417]]},{"type":"MultiLineString","properties":{"source":"openstreetmap.org","kind":"highway","sort_rank":383,"kind_detail":"motorway","ref":"60-CH","min_zoom":8.0},"arcs":[[418],[419],[420],[421],[422],[423],[424],[425],[426],[427],[428],[429],[430],[431],[432],[433],[434]]},{"type":"LineString","properties":{"kind":"major_road","network":"CL:regional","sort_rank":380,"kind_detail":"primary","source":"openstreetmap.org","min_zoom":8.0,"landuse_kind":"urban_area","shield_text":"20","id":203247946},"arcs":[435]},{"type":"LineString","properties":{"source":"openstreetmap.org","kind":"ferry","sort_rank":355,"landuse_kind":"urban_area","min_zoom":8.0,"id":44811280},"arcs":[436]},{"type":"MultiLineString","properties":{"source":"openstreetmap.org","kind":"major_road","sort_rank":380,"kind_detail":"primary","ref":"E-39","min_zoom":8.0},"arcs":[[437],[438],[439],[440]]},{"type":"MultiLineString","properties":{"kind":"major_road","network":"CL:national","sort_rank":381,"kind_detail":"trunk","source":"openstreetmap.org","min_zoom":8.0,"shield_text":"64","ref":"64"},"arcs":[[441],[442]]},{"type":"LineString","properties":{"kind":"major_road","network":"CL:regional","sort_rank":380,"kind_detail":"primary","source":"openstreetmap.org","min_zoom":8.0,"landuse_kind":"urban_area","shield_text":"20","ref":"F-20"},"arcs":[443]},{"type":"LineString","properties":{"source":"openstreetmap.org","kind":"major_road","sort_rank":380,"kind_detail":"primary","ref":"E-47","min_zoom":8.0,"id":26414867},"arcs":[444]},{"type":"MultiLineString","properties":{"bus_network":"Transporte Metropolitano Valpara\u00edso","sort_rank":380,"kind_detail":"primary","kind":"major_road","source":"openstreetmap.org","min_zoom":8.0,"bus_shield_text":"101","landuse_kind":"residential"},"arcs":[[445],[446],[447],[448],[449],[450]]},{"type":"LineString","properties":{"source":"openstreetmap.org","kind":"major_road","sort_rank":380,"kind_detail":"primary","ref":"F-986","min_zoom":8.0},"arcs":[451]},{"type":"LineString","properties":{"kind":"major_road","sort_rank":380,"landuse_kind":"urban_area","source":"openstreetmap.org","min_zoom":8.0,"kind_detail":"primary","ref":"F-66","id":23782572},"arcs":[452]},{"type":"MultiLineString","properties":{"bus_network":"Transporte Metropolitano Valpara\u00edso","network":"CL:regional","sort_rank":380,"kind_detail":"primary","kind":"major_road","source":"openstreetmap.org","min_zoom":8.0,"bus_shield_text":"111","shield_text":"50","landuse_kind":"urban_area","ref":"F-50"},"arcs":[[453],[454]]},{"type":"LineString","properties":{"kind":"major_road","network":"CL:regional","sort_rank":380,"landuse_kind":"urban_area","is_bicycle_related":true,"source":"openstreetmap.org","min_zoom":8.0,"kind_detail":"primary","shield_text":"62","ref":"F-62"},"arcs":[455]},{"type":"LineString","properties":{"source":"openstreetmap.org","kind":"major_road","landuse_kind":"urban_area","sort_rank":380,"kind_detail":"primary","ref":"F-100-G","min_zoom":8.0},"arcs":[456]},{"type":"LineString","properties":{"kind":"major_road","sort_rank":380,"landuse_kind":"urban_area","source":"openstreetmap.org","min_zoom":8.0,"kind_detail":"primary","ref":"F-317","id":499184448},"arcs":[457]},{"type":"LineString","properties":{"kind":"highway","network":null,"sort_rank":383,"kind_detail":"motorway","source":"openstreetmap.org","min_zoom":8.0,"all_networks":[null],"shield_text":"57","ref":"57","all_shield_texts":["57"]},"arcs":[458]},{"type":"LineString","properties":{"kind":"major_road","network":"CL:regional","sort_rank":380,"kind_detail":"primary","source":"openstreetmap.org","min_zoom":8.0,"landuse_kind":"residential","shield_text":"85","ref":"E-85"},"arcs":[459]},{"type":"LineString","properties":{"source":"openstreetmap.org","kind":"major_road","sort_rank":380,"kind_detail":"primary","ref":"F-190","min_zoom":8.0},"arcs":[460]},{"type":"MultiLineString","properties":{"bus_network":"Transporte Metropolitano Valpara\u00edso","sort_rank":380,"kind_detail":"primary","kind":"major_road","source":"openstreetmap.org","min_zoom":8.0,"bus_shield_text":"105","landuse_kind":"residential"},"arcs":[[461],[462],[463],[464]]},{"type":"MultiLineString","properties":{"source":"openstreetmap.org","kind":"major_road","sort_rank":380,"kind_detail":"primary","ref":"E-462","min_zoom":8.0},"arcs":[[465],[466],[467]]},{"type":"LineString","properties":{"source":"openstreetmap.org","kind":"major_road","landuse_kind":"urban_area","sort_rank":380,"kind_detail":"primary","ref":"E-713","min_zoom":8.0},"arcs":[468]},{"type":"MultiLineString","properties":{"source":"openstreetmap.org","kind":"major_road","landuse_kind":"urban_area","sort_rank":380,"kind_detail":"primary","min_zoom":8.0},"arcs":[[469],[470],[471],[472],[473],[474],[475],[476],[477],[478],[479],[480],[481],[482],[483],[484],[485],[486],[487],[488],[489],[490],[491],[492],[493],[494],[495],[496],[497],[498],[499],[500],[501],[502],[503],[504],[505],[506],[507],[508],[509],[510],[511],[512],[513],[514],[515],[516],[517],[518],[519],[520],[521],[522],[523],[524],[525],[526],[527],[528],[529],[530],[531],[532],[533],[534],[535],[536],[537],[538],[539],[540],[541],[542],[543],[544],[545],[546],[547],[548],[549],[550],[551],[552],[553],[554],[555],[556],[557],[558],[559],[560],[561],[562],[563],[564],[565]]},{"type":"LineString","properties":{"source":"openstreetmap.org","kind":"major_road","sort_rank":380,"kind_detail":"primary","ref":"E-71","min_zoom":8.0,"id":520398883},"arcs":[566]},{"type":"LineString","properties":{"bus_network":"Transporte Metropolitano Valpara\u00edso","sort_rank":380,"kind_detail":"primary","kind":"major_road","source":"openstreetmap.org","min_zoom":8.0,"bus_shield_text":"106","landuse_kind":"urban_area","ref":"F-72"},"arcs":[567]},{"type":"MultiLineString","properties":{"source":"openstreetmap.org","kind":"major_road","landuse_kind":"residential","sort_rank":381,"kind_detail":"trunk","ref":"60-CH","min_zoom":8.0},"arcs":[[568],[569],[570],[571]]},{"type":"MultiLineString","properties":{"source":"openstreetmap.org","kind":"major_road","sort_rank":380,"kind_detail":"primary","ref":"60-CH","min_zoom":8.0},"arcs":[[572],[573]]},{"type":"LineString","properties":{"kind":"major_road","network":"CL:national","sort_rank":381,"kind_detail":"trunk","source":"openstreetmap.org","min_zoom":8.0,"shield_text":"5","ref":"5"},"arcs":[574]},{"type":"LineString","properties":{"kind":"major_road","network":"CL:regional","sort_rank":380,"kind_detail":"primary","source":"openstreetmap.org","min_zoom":8.0,"shield_text":"57","ref":"E-57"},"arcs":[575]},{"type":"MultiLineString","properties":{"kind":"major_road","network":"CL:regional","sort_rank":381,"kind_detail":"trunk","source":"openstreetmap.org","min_zoom":8.0,"shield_text":"30-F","ref":"E-30-F"},"arcs":[[576],[577]]},{"type":"LineString","properties":{"kind":"major_road","sort_rank":380,"landuse_kind":"urban_area","source":"openstreetmap.org","min_zoom":8.0,"kind_detail":"primary","ref":"E-71","id":520398883},"arcs":[578]},{"type":"LineString","properties":{"bus_network":"Transporte Metropolitano Valpara\u00edso","sort_rank":380,"kind_detail":"primary","kind":"major_road","source":"openstreetmap.org","min_zoom":8.0,"bus_shield_text":"111","landuse_kind":"residential"},"arcs":[579]},{"type":"MultiLineString","properties":{"source":"openstreetmap.org","kind":"highway","landuse_kind":"residential","sort_rank":383,"kind_detail":"motorway","ref":"60-CH","min_zoom":8.0},"arcs":[[580],[581],[582]]},{"type":"MultiLineString","properties":{"source":"openstreetmap.org","kind":"major_road","landuse_kind":"residential","sort_rank":380,"kind_detail":"primary","ref":"E-71","min_zoom":8.0},"arcs":[[583],[584],[585]]},{"type":"MultiLineString","properties":{"bus_network":"Transporte Metropolitano Valpara\u00edso","sort_rank":380,"kind_detail":"primary","kind":"major_road","source":"openstreetmap.org","min_zoom":8.0,"bus_shield_text":"106","landuse_kind":"urban_area"},"arcs":[[586],[587],[588],[589]]},{"type":"MultiLineString","properties":{"bus_network":"Transporte Metropolitano Valpara\u00edso","sort_rank":380,"kind_detail":"primary","kind":"major_road","source":"openstreetmap.org","min_zoom":8.0,"bus_shield_text":"101","landuse_kind":"urban_area"},"arcs":[[590],[591],[592],[593],[594],[595],[596],[597],[598],[599],[600],[601],[602]]},{"type":"MultiLineString","properties":{"source":"openstreetmap.org","kind":"highway","landuse_kind":"urban_area","sort_rank":383,"kind_detail":"motorway","ref":"60-CH","min_zoom":8.0},"arcs":[[603],[604],[605],[606],[607],[608],[609],[610],[611]]},{"type":"MultiLineString","properties":{"source":"openstreetmap.org","kind":"highway","sort_rank":383,"kind_detail":"motorway","ref":"57","min_zoom":8.0},"arcs":[[612],[613]]},{"type":"LineString","properties":{"kind":"major_road","sort_rank":380,"landuse_kind":"urban_area","source":"openstreetmap.org","min_zoom":8.0,"kind_detail":"primary","ref":"F-152","id":92355007},"arcs":[614]},{"type":"MultiLineString","properties":{"source":"openstreetmap.org","kind":"major_road","sort_rank":380,"kind_detail":"primary","ref":"E-89","min_zoom":8.0},"arcs":[[615],[616],[617],[618]]}]},"earth":{"type":"GeometryCollection","geometries":[{"type":"Polygon","properties":{"sort_rank":10,"source":"naturalearthdata.com","kind":"earth","min_zoom":0.0,"id":4458},"arcs":[[619]]}]},"landuse":{"type":"GeometryCollection","geometries":[{"type":"MultiPolygon","properties":{"source":"openstreetmap.org","kind":"park","tier":2,"area":37655559,"sort_rank":24,"min_zoom":8.0},"arcs":[[[620]]]},{"type":"MultiPolygon","properties":{"source":"openstreetmap.org","kind":"residential","tier":2,"area":53145487,"sort_rank":20,"min_zoom":8.0,"osm_relation":true},"arcs":[[[621],[622],[623]]]},{"type":"MultiPolygon","properties":{"source":"openstreetmap.org","kind":"nature_reserve","tier":2,"area":126032694,"sort_rank":23,"min_zoom":8.0},"arcs":[[[624]],[[625]]]},{"type":"MultiPolygon","properties":{"source":"naturalearthdata.com","kind":"urban_area","name":"","area":3380160373,"sort_rank":11,"min_zoom":4.0},"arcs":[[[626]],[[627]],[[628]],[[629]],[[630]],[[631]],[[632]],[[633]],[[634]]]},{"type":"MultiPolygon","properties":{"source":"openstreetmap.org","kind":"residential","tier":2,"area":560653030,"sort_rank":20,"min_zoom":8.0},"arcs":[[[635]],[[636]],[[637]],[[638]],[[639]]]},{"type":"MultiPolygon","properties":{"source":"openstreetmap.org","kind":"park","tier":2,"area":244047328,"sort_rank":24,"min_zoom":7.0},"arcs":[[[640]],[[641]]]}]}},"type":"Topology","transform":{"translate":[-71.71875,-33.1375511923],"scale":[0.0003433228,0.0002894016]},"arcs":[[[4096,3081],[-31,-72],[31,-23]],[[4096,3357],[0,-58]],[[4096,3420],[0,-59]],[[4096,3765],[-91,19],[-30,58],[-71,1],[-29,-64],[154,-91],[-40,-69],[65,-129],[42,-13]],[[0,2726],[29,-53],[61,-207],[-73,-291],[28,-304],[-45,-101]],[[532,3321],[96,-16],[31,76],[42,14],[160,-106],[247,-59],[72,39],[65,-3],[71,69],[33,0],[40,96],[59,60],[54,-25],[60,-129],[140,68],[10,45],[141,134],[108,84],[45,4],[-36,79],[5,69],[248,-54],[73,-116],[51,63],[102,-3],[226,103],[82,-21],[93,69],[117,-51],[27,-94],[100,23],[31,-64],[-32,-84],[12,-121],[24,-19],[83,-23],[66,-62],[144,-39],[36,24],[0,69],[84,-35],[4,-45],[131,-2],[33,-52],[-29,-107],[65,-31],[-11,-155],[63,-36],[125,51],[31,45],[27,-3],[27,-58],[69,-6]],[[531,3321],[1,0]],[[4077,2986],[-7,51],[26,44]],[[4096,3299],[0,58]],[[4096,3361],[0,59]],[[4096,3477],[-42,13],[-65,129],[40,69],[-154,91],[29,64],[71,-1],[30,-58],[91,-19]],[[635,4096],[-3,-39],[33,-20],[-92,-114],[35,-75],[-50,-55],[24,-44],[-35,-189],[44,-18],[9,-31],[-29,-51],[-44,2],[29,-64],[-25,-77]],[[4096,101],[-82,39],[-30,-30],[-63,2],[-97,136],[31,58],[-11,56],[-80,42],[-76,-62],[-84,-144],[-79,-27],[-55,131],[-73,60],[7,88],[-124,131],[-5,78],[-28,16],[-29,-33],[-63,16],[-116,-42],[-103,9],[-29,26],[-5,79],[-41,14],[-106,-45],[-80,37],[-51,-20],[-69,26],[-128,-54],[-57,9],[-97,-126],[-44,22],[-97,-47],[-88,5],[-29,-37],[0,-51],[38,-115],[38,-37],[-82,-124],[41,-40],[-1,-147]],[[4096,2986],[-19,0]],[[516,3315],[0,-1]],[[516,3314]],[[516,3313],[0,-2]],[[517,3318]],[[518,3307],[0,-1]],[[519,3305],[1,-1]],[[521,3317],[-2,1]],[[520,3304],[1,0]],[[523,3322],[0,-1]],[[525,3321],[-1,1]],[[528,3321],[-1,0]],[[521,3304],[-4,-53],[47,-38],[-2,-115],[80,5],[81,-119],[-1,-245],[58,0],[122,-160],[-2,-59],[-51,-21],[-22,-281],[-41,-35],[-52,32],[-29,-91],[47,-92],[-33,-7],[40,-57],[2,-52],[57,-52],[22,-130],[-39,-49],[-6,-108],[-68,-99],[-32,-20],[-27,24],[-57,-7],[30,-114],[38,-12],[-14,-79],[-73,-50],[-33,11],[-22,56],[-14,-16],[17,-43],[-29,-8],[-13,-84],[23,-55],[61,-46],[35,-245],[-79,-75],[-51,7],[17,-153],[-22,-129],[-174,-113],[-36,12],[-2,42],[15,-16],[14,-13],[14,-10],[-68,66],[-42,-7],[-59,-203],[18,-45],[-31,-31],[-79,0],[-52,32]],[[0,29],[37,-28],[0,-1]],[[517,3318],[-1,-3]],[[516,3314]],[[516,3314],[0,-1]],[[516,3311],[2,-4]],[[519,3318],[-2,0]],[[518,3306],[1,-1]],[[520,3304]],[[523,3321],[-2,-4]],[[524,3322],[-1,0]],[[527,3321],[-2,0]],[[531,3321],[-3,0]],[[1514,1191],[17,16],[-12,133],[-57,121],[21,39],[-15,50],[55,21],[-8,47]],[[269,340],[53,-17],[68,62],[52,8],[89,-23],[149,-98],[36,71],[76,-25],[44,22],[222,-7],[22,24],[-16,81],[24,80],[117,23],[79,-12]],[[1284,529],[-79,12],[-117,-23],[-24,-81],[16,-80],[-23,-24],[-221,7],[-44,-21],[-75,24],[-39,-69],[-147,97],[-89,22],[-52,-8],[-68,-61],[-53,17]],[[581,4096],[23,-31],[11,-56],[-56,-367],[-3,-147],[-35,-79],[-7,-38],[-5,-115],[5,-41],[34,-74],[49,-47],[51,-40],[44,-51],[14,-38],[27,-130],[-2,-4],[1,-50],[1,-4],[8,-11],[40,-16],[14,-7],[97,-96],[13,-58],[-9,-27],[-20,-20],[-24,-37],[-16,-56],[-28,-157],[5,-44],[-48,-49],[-45,-58],[-15,-67],[64,-130],[16,-84],[10,-157],[-7,-80],[-17,-68],[-33,-48],[-120,-40],[9,-52],[25,-70],[-18,-71],[-24,-10],[-66,2],[-30,-15],[-19,-39],[3,-37],[10,-31],[22,-93],[31,-70],[23,-74],[-8,-81],[-23,-39],[-57,-49],[-21,-34],[-4,-40],[10,-36],[3,-36],[-35,-69],[-11,-61],[-13,-29],[-28,-23],[-32,-9],[-108,-2],[-22,7],[-22,-3],[-38,-30],[-22,-29],[-19,-41],[-14,-45],[-5,-37],[-32,-49],[-83,-1],[0,3918],[581,0]],[[0,178],[83,1],[32,49],[5,37],[14,45],[19,41],[22,29],[38,30],[22,3],[22,-7],[108,2],[32,9],[28,23],[13,29],[11,61],[35,69],[-3,36],[-10,36],[4,40],[21,34],[57,49],[23,39],[8,81],[-23,74],[-31,70],[-22,93],[-10,31],[-3,37],[19,39],[30,15],[66,-2],[24,10],[18,71],[-25,70],[-9,52],[120,40],[33,48],[17,68],[7,80],[-10,157],[-16,84],[-64,130],[15,67],[45,58],[48,49],[-5,44],[28,157],[16,56],[24,37],[20,20],[9,27],[-13,58],[-97,96],[-14,7],[-40,16],[-8,11],[-1,4],[-1,50],[2,4],[-27,130],[-14,38],[-44,51],[-51,40],[-49,47],[-34,74],[-5,41],[5,115],[7,38],[35,79],[3,147],[56,367],[-11,56],[-23,31]],[[3246,1042],[-47,-49]],[[601,306],[1,1]],[[602,307],[-1,0]],[[2337,0],[-39,113],[-14,215],[48,78],[72,44],[16,-12]],[[2898,1781],[6,-2]],[[609,468],[1,-1]],[[610,467],[26,-44]],[[636,423],[2,-2],[-1,-10]],[[610,461],[0,6]],[[610,467],[0,2]],[[637,411],[1,10],[-2,2]],[[636,423],[-20,27]],[[619,486],[14,4],[2,24]],[[635,513],[-15,-27]],[[643,876],[66,182],[-4,120]],[[899,1441],[-1,127],[-44,14]],[[864,1741],[-34,152],[-31,50],[-36,0],[20,81],[-37,23],[-30,81],[34,71],[120,-34],[99,62],[92,111],[93,54]],[[873,1428],[18,7]],[[891,1435],[8,6]],[[854,1582],[10,159]],[[1298,414],[52,-7]],[[1388,451],[286,-75],[91,-77],[138,-49],[72,28],[42,-10],[-14,-12],[37,14],[-4,-27],[30,19]],[[946,316],[-1,0]],[[945,316],[-7,0]],[[939,316],[6,0]],[[945,316],[1,0]],[[863,253],[-3,3]],[[1525,1314],[10,-40],[101,-106]],[[1636,1168],[-15,21],[-86,86],[-10,39]],[[2264,990],[-35,6]],[[2229,996],[35,-7]],[[1316,487],[12,29],[-43,24]],[[1303,437],[6,27]],[[1382,836],[2,5]],[[1410,984],[11,46]],[[1489,1185],[51,30],[4,49]],[[226,263],[11,-17]],[[638,576],[-2,-1]],[[814,709],[7,3]],[[821,712],[4,2],[-5,-1]],[[815,712],[1,-2]],[[820,713],[-4,-2]],[[821,712]],[[821,712],[-1,1]],[[871,1755],[-30,0]],[[995,168],[-11,9]],[[996,2580],[7,-1]],[[1014,236],[-2,11]],[[1154,2392],[4,-3]],[[1158,2389],[2,-2]],[[1160,2389],[-2,0]],[[1161,2390],[3,-3]],[[1333,1978],[4,-1]],[[1342,2258],[-8,-9]],[[1345,2369],[3,-2]],[[1348,2365],[5,3]],[[1369,818],[-2,-3]],[[1370,819],[-1,-1]],[[1369,818],[1,-5]],[[1406,2375],[3,1]],[[1409,2376],[-2,-1]],[[1409,2376],[2,0]],[[1411,2376],[38,1]],[[1444,2378],[-33,-2]],[[1501,1435],[3,-1]],[[1560,2284],[2,-3]],[[1566,490],[28,-81]],[[1594,409],[-3,-2]],[[1597,405],[-3,4]],[[1873,2440],[32,21]],[[2422,435],[-2,3]],[[2606,61],[-2,-1]],[[2904,1779],[12,-40]],[[2988,148],[1,0]],[[3023,932],[0,1]],[[3101,893],[-23,-21]],[[3118,1335],[-2,1]],[[2942,1253],[2,-1]],[[3143,1132],[88,-57]],[[3231,1075],[24,-7]],[[3256,1068],[-25,7]],[[3256,1067],[27,-9]],[[3283,1058],[-27,10]],[[3283,1058],[111,-5]],[[3256,1068],[-1,0],[1,-1],[0,1]],[[2721,0],[125,194],[126,145],[10,42]],[[606,641],[-5,75],[5,-75]],[[3402,1041],[-1,1]],[[847,293],[5,-19]],[[231,410],[4,-2]],[[2944,1252],[199,-120]],[[3017,1350],[7,15]],[[863,1383],[246,-50],[123,-57],[83,11],[185,147]],[[1151,314],[16,6]],[[1176,321],[-9,-1]],[[1176,321],[27,20]],[[1203,341],[22,11]],[[1225,352],[35,3],[43,82]],[[1251,723],[0,-1]],[[1251,721],[1,-2]],[[1251,723],[65,100]],[[1252,722],[-1,1]],[[1252,719],[0,2]],[[1258,688],[-6,31]],[[1285,540],[-27,147]],[[1421,1030],[68,155]],[[1251,722],[0,-1],[1,0]],[[1252,721],[0,1],[-1,0]],[[1258,687],[0,1],[0,-1]],[[2792,1363],[137,-104]],[[2929,1259],[12,-3]],[[2940,1255]],[[2940,1255],[-11,4]],[[2941,1256],[-1,-1]],[[2940,1255],[-1,0]],[[2941,1256],[5,20]],[[3394,1053],[21,-11]],[[1086,0],[-80,125]],[[981,179],[-93,57]],[[981,179],[21,-17]],[[1005,140],[-3,22]],[[1006,125],[-1,15]],[[475,237],[21,-26]],[[339,296],[-8,28]],[[187,320],[-1,-8]],[[188,304],[10,-32]],[[472,105],[-44,3]],[[428,108],[-5,4]],[[423,112],[-30,31],[-91,24],[-104,105]],[[198,272],[103,-105],[92,-24],[30,-31]],[[423,112],[5,-4]],[[428,108],[0,-1],[44,-2]],[[472,105],[4,-6]],[[500,140],[5,3],[-5,61],[50,52],[-1,25]],[[549,281],[-51,-73],[2,-68]],[[2141,1022],[-3,-9]],[[2141,1022],[18,34],[11,45],[17,12]],[[2187,1113],[-18,-12],[-28,-79]],[[2278,1139],[10,0]],[[2288,1139],[-10,0]],[[3165,1161],[-150,89]],[[3045,1266],[139,-80]],[[1003,2579],[113,111],[-12,31],[209,140],[94,10],[104,-40],[75,-75],[27,-67],[93,-49],[58,-100],[61,43]],[[638,576],[1,1]],[[1316,823],[3,5]],[[1319,828],[9,5]],[[1328,833],[11,2]],[[1397,934],[-7,-18],[-3,-15],[-2,-43],[-10,-26],[-19,6],[-17,-3]],[[1339,835],[36,-3],[7,4]],[[1384,841],[26,143]],[[1341,2246],[8,123],[57,6]],[[1444,2378],[116,-94]],[[1562,2281],[30,-30],[116,15],[165,174]],[[1825,2583],[4,-3]],[[1829,2580],[-2,6]],[[1905,2461],[-21,35],[31,21],[-43,-5],[-43,68]],[[938,316],[-66,7]],[[873,322],[33,-8],[33,2]],[[946,316],[8,1]],[[954,317],[1,0],[8,2]],[[963,320],[-8,-3],[-1,0]],[[954,317],[-1,-1],[-7,0]],[[188,359],[-1,-39]],[[194,372],[-4,-4]],[[262,353],[-7,13]],[[601,307],[-5,-3],[-9,-20],[-38,23]],[[549,307],[0,-8]],[[549,299],[0,-18]],[[549,281],[0,18]],[[549,299],[0,8]],[[549,307],[15,-16],[23,-7],[14,22]],[[2278,1139],[-91,-26]],[[2187,1113],[91,26]],[[2963,1269],[13,-2]],[[2976,1267],[-13,3]],[[3015,1250],[-39,17]],[[3258,1107],[-93,54]],[[3258,1107],[37,-41]],[[3392,1055],[-15,16],[-71,-23],[-11,18]],[[1003,322],[45,7]],[[1048,329],[-18,-5]],[[1048,329],[16,-15]],[[2920,1261],[2,-3]],[[2922,1261],[-1,-1]],[[2922,1259],[0,1]],[[2922,1260],[1,0]],[[2922,1258],[0,2]],[[2922,1260],[0,1]],[[2924,1254],[-2,4]],[[639,577],[28,31]],[[667,608],[5,19]],[[672,627],[30,71]],[[843,720],[-111,-13]],[[732,707],[-12,2]],[[858,724],[-15,-4]],[[1259,726],[-131,-39],[-144,48],[-126,-11]],[[618,735],[-17,-19]],[[616,746],[1,1],[-1,0]],[[616,747],[-1,0],[1,-1]],[[616,746],[2,-11]],[[617,748],[-1,-1]],[[618,735],[-1,11]],[[617,747],[0,1]],[[617,748],[37,52],[-33,52],[22,24]],[[706,1347],[-6,-8]],[[705,1178],[-20,48],[15,113]],[[706,1347],[167,81]],[[227,410],[4,0]],[[341,293],[36,7],[9,-16]],[[386,284],[21,-45],[33,-23]],[[435,213],[-29,27],[-20,44]],[[386,284],[-8,17],[-37,-8]],[[557,1178],[8,-6]],[[565,1172],[23,-1]],[[588,1171],[52,-3]],[[642,1168],[49,-3]],[[1905,2461],[85,18],[31,-15],[9,-45],[133,11],[74,-31],[9,-89],[43,-48],[26,-125],[202,-102],[101,41],[163,155],[72,-12],[54,34],[41,-21],[-5,-109],[28,-59],[-33,-92],[23,-23],[-38,-55],[-25,-113]],[[884,238],[-14,8]],[[888,236],[-3,2]],[[1376,499],[127,-26],[63,17]],[[2947,1277],[2,8]],[[2949,1285],[1,2]],[[2949,1287],[0,-2]],[[2950,1289],[-1,-1]],[[2949,1288],[0,-1],[1,0]],[[2950,1287]],[[2950,1287],[-1,1]],[[2950,1287],[0,2]],[[2957,1310],[-7,-21]],[[2979,1305],[66,-39]],[[3184,1186],[118,-49],[-32,-74]],[[617,746],[2,0]],[[619,746],[-2,1]],[[666,731],[-47,15]],[[666,731],[31,-6]],[[706,716],[-9,9]],[[1030,324],[-54,-2],[-13,-2]],[[1013,253],[-10,69],[-40,-3]],[[1012,248],[1,2]],[[718,710],[-16,-12]],[[718,710],[2,-1]],[[1500,1434],[1,1]],[[844,307],[1,-5]],[[2519,0],[85,60]],[[1398,935],[-1,-1]],[[691,1165],[7,0]],[[1014,236],[9,-23],[-33,-41]],[[679,4096],[-73,-151],[-30,-247],[60,-247],[-61,-144],[32,-152],[120,-167],[50,-215],[32,-43],[2,-1],[83,-33],[60,-84],[43,-20],[15,-47],[0,-1]],[[1012,2544],[8,-3]],[[1020,2541],[62,-29],[71,-106],[185,-156],[-26,-222],[68,-137],[3,-4],[-71,141],[23,121],[3,101],[-185,155],[-71,107],[-62,29]],[[1020,2541],[-8,3]],[[1012,2544],[-13,44],[-1,4],[-44,20],[-59,84],[-86,35],[-32,43],[-49,214],[-120,167],[-33,152],[62,144],[-61,247],[30,246],[74,152]],[[1525,1314],[-38,220],[-17,86],[-1,2],[-18,37]],[[1451,1659],[-35,69],[0,1]],[[1416,1729],[7,38],[-7,-37],[0,-1]],[[1416,1729],[35,-70]],[[1451,1659],[18,-37],[0,-2],[56,-306]],[[1636,1168],[161,-161],[159,31],[273,-42]],[[2229,996],[-110,20],[-161,22],[-161,-30],[-161,160]],[[2650,0],[-192,262],[-37,164],[-1,12],[163,153],[14,14]],[[2597,605],[3,3]],[[2600,608],[3,3],[39,108],[1,67],[-139,191],[-1,0]],[[2503,977],[-2,1]],[[2501,978],[-49,12],[-188,0]],[[2264,989],[179,0],[58,-11]],[[2501,978],[2,-1]],[[2503,977],[26,-46],[113,-145],[-1,-67],[-41,-111]],[[2600,608],[-3,-3]],[[2597,605],[-14,-14],[-163,-153],[0,-12],[37,-164],[59,-81],[84,-114],[50,-67]],[[2985,411],[23,71]],[[3008,482],[4,26]],[[3012,508],[-14,81],[19,77]],[[3018,670],[14,35]],[[3039,723],[-7,-18]],[[3039,723],[1,101]],[[3040,824],[81,68]],[[3413,1034],[77,-65],[-4,-63],[-36,-51],[-329,37]],[[489,450],[7,-2]],[[496,448],[4,-2],[-4,1]],[[501,447],[-5,1]],[[496,448],[-6,1]],[[2139,1010],[-1,3]],[[1013,250],[0,3]],[[442,218],[-63,81],[-37,-7]],[[558,352],[-1,1],[-1,0],[1,-1],[1,0]],[[3413,1034],[-11,7]],[[195,379],[-4,-6]],[[192,373],[3,6]],[[195,379],[32,31]],[[235,408],[13,-7]],[[1327,512],[49,-13]],[[3255,1067],[-9,-25],[10,25]],[[506,395],[-1,0]],[[2304,213],[-147,19],[-28,27],[-27,-23],[-18,43],[-18,-17]],[[602,307],[3,1],[11,6],[7,3],[11,33],[3,61]],[[637,411],[-14,-93],[-21,-11]],[[620,486],[-11,-18]],[[616,450],[-6,11]],[[610,469],[9,17]],[[637,548],[-2,-35]],[[635,514],[2,34]],[[742,1378],[3,-6]],[[337,316],[6,0]],[[341,303],[10,6]],[[344,305],[0,-1]],[[3401,1042],[-9,13]],[[154,115],[-5,-2]],[[2223,1138],[-15,101]],[[2606,61],[247,97],[135,-10]],[[206,322],[-9,-12]],[[222,269],[-25,41]],[[240,372],[-18,-20],[-6,-12]],[[222,269],[4,-6]],[[257,357],[-26,25]],[[258,358],[-1,-1]],[[257,357],[32,-43]],[[257,357]],[[289,314],[-31,44]],[[289,314],[44,-1]],[[319,321],[10,4]],[[326,322],[4,2]],[[330,322],[1,-3]],[[339,296],[1,-3]],[[845,302],[2,-9]],[[852,274],[4,-11]],[[860,327],[1,0]],[[1012,247],[0,1]],[[1064,314],[27,-14]],[[1109,296],[4,0]],[[1375,830],[-5,-11]],[[1375,832],[0,-2]],[[1375,830],[0,2]],[[1387,901],[17,0]],[[2876,1326],[-9,-7]],[[2868,1318],[8,8]],[[2876,1326],[0,1]],[[2876,1327],[9,27]],[[2885,1354],[0,1]],[[2885,1355]],[[2913,1347],[-1,1],[-27,7]],[[2885,1355],[-9,-28]],[[2876,1327],[0,-1]],[[2876,1326]],[[2876,1326],[27,-8]],[[2903,1318],[2,0],[0,1]],[[2905,1319],[8,27]],[[2913,1346],[0,1]],[[2905,1319]],[[2905,1319],[-1,0]],[[2904,1319],[-28,8]],[[2876,1327]],[[2876,1327]],[[2884,1354],[1,0]],[[2885,1354],[27,-8]],[[2912,1346],[-8,-27]],[[2904,1319],[-1,-1]],[[2903,1318]],[[2912,1346],[1,0]],[[2913,1346],[47,-13]],[[2961,1334],[-48,13]],[[2959,1317],[1,13]],[[2960,1330],[18,6]],[[2960,1333],[0,-3]],[[2978,1336],[-16,-3]],[[2962,1333],[-1,0]],[[2978,1336],[19,6]],[[500,143],[-58,75]],[[465,0],[34,133],[-2,2]],[[497,135],[-62,78]],[[440,216],[57,-81]],[[497,135],[1,-2],[-33,-133]],[[229,389],[2,-7]],[[229,390],[12,6]],[[259,358]],[[260,357],[0,-1]],[[647,287],[51,-36],[94,6]],[[746,265],[-48,-13],[-51,36]],[[789,257],[-42,8]],[[933,246],[94,-8]],[[1027,239],[-93,7]],[[1029,239],[17,1]],[[1046,240],[13,1]],[[1059,241],[1,0],[64,53],[31,28]],[[1155,322],[1,18]],[[1156,340],[6,74],[-30,74],[37,44],[10,6],[30,23],[43,45],[5,79],[-3,15],[4,18],[14,16],[42,56],[61,25],[12,9]],[[1387,824],[-72,-33],[-58,-73],[-4,-12],[-1,-100],[-83,-73],[-37,-45],[30,-74],[-6,-74]],[[1156,340],[-1,-18]],[[1155,322],[-31,-27],[-1,-1],[-13,-11],[-51,-42]],[[1059,241],[-1,-1],[-12,0]],[[1046,240],[-16,-1]],[[1513,1178],[-52,-26],[-19,-47],[-3,-72]],[[1440,1033],[21,119],[52,26]],[[811,1401],[1,-1]],[[266,347],[27,6],[-24,22],[-4,-26]],[[1164,2387],[-3,3]],[[1166,2389],[-2,1]],[[1164,2388],[2,1]],[[1166,2389],[183,-20]],[[638,576],[-1,-28]],[[637,548],[2,23],[-1,5]],[[812,1400],[51,-17]],[[1416,1739],[3,67],[-31,46],[26,30],[-29,8]],[[257,357],[3,-1]],[[259,358],[-1,0]],[[297,332],[18,-11],[15,2]],[[328,325],[-29,7]],[[689,352],[12,-11],[7,-4],[20,-8],[6,-2],[15,-4],[8,-5],[19,-6],[27,-3],[44,-1],[26,14]],[[872,323],[-96,-10],[-87,40]],[[237,246],[-37,-61],[-33,15],[20,-71],[-33,-14]],[[472,241],[3,-4]],[[871,246],[-1,0]],[[885,238],[-1,0]],[[1309,464],[7,23]],[[1350,407],[19,47],[19,-3]],[[1547,1265],[-1,0]],[[3069,0],[-69,99],[-15,312],[15,-312],[68,-99]],[[2957,1310],[22,-5]],[[816,712],[-55,204],[38,103],[5,127]],[[339,296],[-50,17]],[[331,319],[8,-23]],[[339,296]],[[1091,300],[18,-4]],[[871,1757],[1,1]],[[872,1758],[-1,-1]],[[1333,1978],[-321,-121],[-33,-35],[-27,19],[-80,-83]],[[3093,1349],[-69,16]],[[213,332],[-7,-10]],[[213,332],[2,4]],[[216,340],[-1,-4]],[[329,325]],[[329,325],[1,0],[1,2]],[[329,326],[0,-1]],[[329,325],[1,-1]],[[330,324],[0,-2]],[[330,324]],[[330,324],[1,0]],[[333,313],[1,0]],[[341,293],[-1,3]],[[340,293],[1,0]],[[345,343],[27,18]],[[432,390],[-4,-2]],[[556,353],[-28,19],[-29,9],[-61,12]],[[439,392],[16,-3]],[[455,389]],[[455,389],[56,-12],[45,-25]],[[454,387],[1,2]],[[455,389]],[[455,389]],[[455,389],[-1,-2]],[[454,387],[-16,-29],[34,-117]],[[460,402],[0,-1]],[[463,407],[-3,-5]],[[460,402],[0,-1]],[[464,410],[-3,-5]],[[464,404],[-2,0]],[[466,413],[-3,-5]],[[465,402],[0,1]],[[465,411],[3,5],[7,8]],[[473,400],[-5,15]],[[475,424],[15,25],[1,9]],[[490,450],[-15,-26]],[[496,448],[-9,-51]],[[487,397],[5,25]],[[487,398],[5,24]],[[500,505],[-11,-55]],[[491,458]],[[491,458],[9,47]],[[492,422],[4,25]],[[500,505],[4,57]],[[501,447],[1,8]],[[502,455],[10,18],[62,-20],[14,16],[2,4],[1,1]],[[591,474],[3,4],[3,1]],[[602,478],[-1,0]],[[601,478],[-10,-4]],[[591,474],[-1,0],[-16,-21],[-62,20],[-10,-18]],[[504,562],[5,7],[-3,12],[-1,-15],[0,-1]],[[505,565],[-1,-3]],[[505,565]],[[505,565],[0,-1]],[[508,621],[2,81]],[[522,579],[-14,42]],[[510,573],[12,6]],[[522,579],[-12,-1]],[[510,702],[83,22]],[[556,1224],[1,-46]],[[600,732],[-7,-8]],[[598,479],[-1,0]],[[597,479],[4,-1]],[[601,478],[1,-1]],[[602,477],[7,-2],[-7,3]],[[616,746],[-16,-14]],[[602,477]],[[602,477],[0,1]],[[609,476],[-7,2]],[[615,746],[1,0]],[[640,1168],[2,0]],[[671,1368],[0,-1],[2,-2]],[[673,1365],[3,93],[66,-80]],[[701,1345],[-28,20]],[[809,1403],[2,-2]],[[1325,508],[-39,21]],[[1327,512],[0,2]],[[1404,901],[13,-1]],[[1419,900],[-2,0]],[[1417,900],[1,-1]],[[1514,1206],[25,16]],[[1534,1261],[-1,-1]],[[1544,1264],[2,1]],[[2202,1241],[6,-2]],[[2223,1138],[1,-1]],[[2867,1319],[-7,-6]],[[2860,1313],[7,3],[1,2]],[[2863,1314],[0,1]],[[2946,1276],[1,1]],[[2997,1342],[20,8]],[[3085,1353],[27,-14]],[[3112,1339],[-19,10]],[[3116,1336],[-4,3]],[[3246,1042],[30,-17]],[[3276,1025],[3,-8]],[[3292,983],[-13,34]],[[609,475],[1,1],[-1,0],[0,-1]],[[1419,901],[-1,-1],[2,-1],[0,1],[-1,1]],[[2916,1739],[-70,-249]],[[248,401],[14,-33]],[[186,312],[2,-8]],[[190,368],[-2,-9]],[[255,366],[-61,6]],[[262,351],[0,2]],[[2307,1132],[170,67],[275,183],[40,-19]],[[3415,1042],[119,-66],[110,7],[148,-33],[151,-129],[39,-86],[114,47]],[[1383,1887],[40,-120]],[[3199,993],[-98,-100]],[[606,641],[32,-65]],[[638,576],[-32,65]],[[2846,1490],[23,-107]],[[856,263],[4,-7]],[[747,265],[-1,0]],[[1030,239],[-3,0]],[[1027,238],[2,1]],[[2869,1383],[12,-25]],[[2881,1358],[3,-4]],[[2885,1355],[-4,3]],[[241,396],[7,5]],[[262,368],[-3,-8]],[[259,358],[0,2]],[[259,360],[1,-3]],[[299,332],[-40,26]],[[260,356],[37,-24]],[[487,398],[-25,7],[-2,-3],[-22,-9],[-45,-7],[-59,-48],[-6,-13]],[[330,323],[130,78]],[[460,401],[5,1]],[[465,402],[1,1]],[[465,402],[8,-2],[33,-5],[15,-8]],[[521,387],[3,-2]],[[487,398]],[[505,395],[-18,3]],[[689,353],[-43,1],[-75,-9],[-6,7],[-17,13],[-14,12],[-13,10]],[[521,387],[-8,6],[-7,2]],[[546,365],[25,-20],[7,-2],[111,9]],[[557,352],[43,-33],[47,-32]],[[647,288],[-89,65]],[[934,246],[-145,11]],[[792,257],[141,-11]],[[1439,1033],[-25,-189],[-27,-20]],[[1387,824],[27,20],[26,189]],[[1599,1204],[-58,-4],[-28,-22]],[[1513,1178],[86,26]],[[1604,1208],[-5,-4]],[[3029,697],[-5,-12],[-8,-22]],[[3024,685],[5,12]],[[677,1457],[-1,0]],[[3023,933],[-99,321]],[[3038,861],[-15,71]],[[3038,861],[4,-25]],[[3047,829],[-5,7]],[[0,178],[83,1],[32,49],[5,37],[14,45],[19,41],[22,29],[38,30],[22,3],[22,-7],[108,2],[32,9],[28,23],[13,29],[11,61],[35,69],[-3,36],[-10,36],[4,40],[21,34],[57,49],[23,39],[8,81],[-23,74],[-31,70],[-22,93],[-10,31],[-3,37],[19,39],[30,15],[66,-2],[24,10],[18,71],[-25,70],[-9,52],[120,40],[33,48],[17,68],[7,80],[-10,157],[-16,84],[-64,130],[15,67],[45,58],[48,49],[-5,44],[28,157],[16,56],[24,37],[20,20],[9,27],[-13,58],[-97,96],[-14,7],[-40,16],[-8,11],[-1,4],[-1,50],[2,4],[-27,130],[-14,38],[-44,51],[-51,40],[-49,47],[-34,74],[-5,41],[5,115],[7,38],[35,79],[3,147],[56,367],[-11,56],[-23,31],[3515,0],[0,-4096],[-4096,0],[0,178]],[[3966,705],[130,68],[0,-232],[-84,6],[2,109],[-48,49]],[[1305,836],[26,17],[-21,6],[13,38],[61,27],[21,61],[24,-9],[-54,-160],[-36,19],[-12,-27],[-22,28]],[[1342,901],[4,-4],[5,7],[-4,1],[-5,-4]],[[1392,906],[11,-5],[1,11],[-6,1],[-6,-7]],[[2015,484],[39,73],[78,-11],[-36,-20],[3,-38],[-40,-14],[-1,-47],[-43,57]],[[2561,1560],[53,141],[37,-18],[13,-38],[82,-22],[27,-70],[-28,-57],[-39,-20],[-145,84]],[[845,1294],[-190,-158],[-141,-10],[-19,93],[19,38],[120,24],[18,71],[-34,122],[40,14],[216,-54],[-29,-140]],[[3405,1002],[-94,-59],[-55,33],[-52,-4],[-32,137],[-33,17],[46,61],[71,30],[174,25],[19,-57],[-44,-183]],[[2298,1242],[-36,-188],[3,-82],[-32,13],[-65,179],[-53,13],[-12,103],[159,-13],[36,-25]],[[1587,1158],[-163,45],[-6,52],[195,108],[37,-6],[34,-110],[31,-5],[-41,-65],[-87,-19]],[[2976,1478],[66,-6],[0,-38],[70,23],[27,-23],[-32,-138],[-103,-51],[-124,14],[-97,59],[32,154],[70,39],[92,-1],[-1,-32]],[[1520,880],[-64,-22],[0,-39],[-60,1],[-167,76],[20,48],[171,86],[86,13],[47,-32],[4,-59],[-37,-72]],[[991,480],[77,-6],[30,-79],[2,-113],[-215,-46],[-103,23],[-38,100],[162,0],[65,38],[0,77],[20,6]],[[1366,536],[25,-101],[-41,-28],[-104,68],[-17,-40],[-11,57],[68,48],[80,-4]],[[744,474],[-64,-154],[-33,0],[0,-38],[-97,0],[-129,-77],[-93,17],[-177,124],[62,64],[152,-2],[60,32],[59,159],[-9,112],[78,83],[28,94],[154,-31],[42,-38],[-17,-86],[-177,-106],[65,-95],[96,-58]],[[8,113],[27,17],[97,-31],[16,24],[19,-26],[-20,-58],[-100,28],[-39,46]],[[2835,1383],[109,-1],[5,-31],[-16,13],[-11,-18],[39,-12],[29,21],[16,-28],[19,10],[-5,-20],[-42,19],[-18,-8],[10,-1],[-1,-16],[11,-2],[-1,-7],[-37,13],[5,-33],[-67,12],[-45,89]],[[664,357],[38,37],[13,-52],[83,-20],[-17,53],[44,-19],[27,29],[-11,-17],[30,-24],[20,6],[-9,25],[31,0],[13,-36],[42,61],[-12,-58],[106,21],[34,-60],[30,-4],[-25,-22],[-58,16],[17,-23],[-32,-32],[-100,96],[4,-13],[93,-82],[-40,25],[-84,-14],[-11,42],[-32,-37],[-42,10],[-5,24],[0,-21],[-4,21],[-20,-12],[23,-17],[-81,7],[-23,61],[-22,1],[7,31],[-27,-3]],[[182,310],[45,22],[-43,30],[49,50],[36,-73],[60,-14],[18,-49],[-33,-47],[-13,43],[-40,-31],[21,38],[-25,-15],[-15,25],[-17,-28],[-43,49]],[[608,465],[32,58],[46,-38],[30,15],[-15,-51],[-52,18],[0,-38],[35,-10],[3,-4],[-24,-53],[-55,103]],[[697,0],[-203,0],[26,44],[147,62],[37,-38],[-7,-68]],[[1639,557],[105,78],[-9,65],[50,70],[28,-30],[91,-11],[71,-42],[87,-90],[-48,-82],[-92,16],[-98,-63],[-23,-55],[-30,25],[-40,-6],[13,34],[-42,26],[8,47],[-42,-9],[-29,27]]]}