{"objects":{"water":{"type":"GeometryCollection","geometries":[]},"buildings":{"type":"GeometryCollection","geometries":[]},"places":{"type":"GeometryCollection","geometries":[]},"transit":{"type":"GeometryCollection","geometries":[]},"pois":{"type":"GeometryCollection","geometries":[]},"boundaries":{"type":"GeometryCollection","geometries":[]},"roads":{"type":"GeometryCollection","geometries":[]},"earth":{"type":"GeometryCollection","geometries":[{"type":"Polygon","properties":{"sort_rank":10,"source":"naturalearthdata.com","kind":"earth","min_zoom":0.0,"id":4579},"arcs":[[0]]},{"type":"Point","properties":{"label_placement":true,"name:pt":"Ilha de Baffin","name:ro":"Insula Baffin","name:sk":"Baffinov ostrov","name:ja":"\u30d0\u30d5\u30a3\u30f3\u5cf6","name:cs":"Baffin\u016fv ostrov","name:eo":"Bafina Insulo","name:is":"Baffineyja","name:la":"Insula Baffin","name:iu":"\u157f\u146d\u1585\u1456\u14d7\u1483","name:it":"Isola Baffin","name:ru":"\u0411\u0430\u0444\u0444\u0438\u043d\u043e\u0432\u0430 \u0417\u0435\u043c\u043b\u044f","alt_name:fr":"Terre de Baffin","name:hu":"Baffin-sziget","id":-3957497,"osm_relation":true,"kind":"island","name":"Baffin Island","area":3919519940608,"name:fi":"Baffininsaari","alt_name:la":"Terra Baffin","min_zoom":7.0,"name:de":"Baffininsel","source":"openstreetmap.org","name:fr":"\u00cele de Baffin","alt_name:it":"Terra di Baffin","name:es":"Isla de Baffin"},"coordinates":[1355,4027]}]},"landuse":{"type":"GeometryCollection","geometries":[]}},"type":"Topology","transform":{"translate":[-71.71875,68.1388516493],"scale":[0.0003433228,0.0001263924]},"arcs":[[[0,4096],[4096,0],[0,-4096],[-4096,0],[0,4096]]]}