{"objects":{"water":{"type":"GeometryCollection","geometries":[{"type":"MultiPolygon","properties":{"source":"naturalearthdata.com","kind":"ocean","area":1576712559132672,"sort_rank":200,"min_zoom":0.0,"id":1},"arcs":[[[65]]]},{"type":"LineString","properties":{"source":"naturalearthdata.com","kind":"ocean","sort_rank":205,"boundary":true,"min_zoom":0.0,"id":71},"arcs":[66]}]},"buildings":{"type":"GeometryCollection","geometries":[]},"places":{"type":"GeometryCollection","geometries":[{"type":"Point","properties":{"name:ps":"\u06a9\u0648\u0633\u067c\u0627\u0631\u06cc\u06a9\u0627","name:ka":"\u10d9\u10dd\u10e1\u10e2\u10d0-\u10e0\u10d8\u10d9\u10d0","name:tr":"Kosta Rika","name:kn":"\u0c95\u0cca\u0cb8\u0ccd\u0c9f\u0cbe \u0cb0\u0cbf\u0c95\u0cbe","name:km":"\u1780\u17bc\u179f\u17d2\u178f\u17b6\u179a\u17b8\u1780\u17b6","name:cs":"Kostarika","name:ki":"Kostarika","name:kw":"Kosta Rika","name:ku":"Kosta R\u00eeka","name:ti":"\u12ae\u1235\u1273 \u122a\u12ab","name:ks":"\u06a9\u0648\u0633\u0679\u0627 \u0631\u0650\u06a9\u0627","name:to":"Kosita Lika","name:pa":"\u0a15\u0a4b\u0a38\u0a24\u0a3e \u0a30\u0a40\u0a15\u0a3e","name:os":"\u041a\u043e\u0441\u0442\u0430-\u0420\u0438\u043a\u00e6","name:or":"\u0b15\u0b4b\u0b37\u0b4d\u0b1f\u0b3e \u0b30\u0b3f\u0b15\u0b3e","name:ce":"\u041a\u043e\u0441\u0442\u0430-\u0420\u0438\u043a\u0430","name:ta":"\u0b95\u0bcb\u0bb8\u0bcd\u0b9f\u0bbe\u0bb0\u0bbf\u0b95\u0bbe","name:tg":"\u041a\u043e\u0441\u0442\u0430 \u0420\u0438\u043a\u0430","name:te":"\u0c15\u0c4b\u0c38\u0c4d\u0c1f\u0c3e\u0c30\u0c3f\u0c15\u0c3e","source":"openstreetmap.org","name:ln":"Kositarika","name:sr":"\u041a\u043e\u0441\u0442\u0430\u0440\u0438\u043a\u0430","name:dz":"\u0f40\u0f7c\u0f66\u0f0b\u0f4a\u0f0b\u0f62\u0f72\u0f0b\u0f40","name:ko":"\ucf54\uc2a4\ud0c0\ub9ac\uce74","name:dv":"\u0786\u07ae\u0790\u07b0\u0793\u07a6\u0783\u07a9\u0786\u07a7","name:lv":"Kostarika","name:lt":"Kosta Rika","name:uz":"Kosta Rika","name:kk":"\u041a\u043e\u0441\u0442\u0430-\u0420\u0438\u043a\u0430","name:he":"\u05e7\u05d5\u05e1\u05d8\u05d4 \u05e8\u05d9\u05e7\u05d4","min_zoom":2.0,"kind":"country","name:ur":"\u06a9\u0648\u0633\u0679\u0627 \u0631\u06cc\u06a9\u0627","name:la":"Ora Opulenta","name:lg":"Kosita Rika","name:uk":"\u041a\u043e\u0441\u0442\u0430-\u0420\u0456\u043a\u0430","name:hy":"\u053f\u0578\u057d\u057f\u0561-\u054c\u056b\u056f\u0561","name:ug":"\u0643\u0648\u0633\u062a\u0627\u0631\u0649\u0643\u0627","name:hr":"Kostarika","name:lo":"\u0e84\u0ead\u0e94\u0e95\u0eb2\u0ea5\u0eb5\u0e81\u0ec9\u0eb2","name:oc":"C\u00f2sta Rica","population":4301712,"name:el":"\u039a\u03cc\u03c3\u03c4\u03b1 \u03a1\u03af\u03ba\u03b1","name:eo":"Kostariko","name":"Costa Rica","official_name":"Rep\u00fablica de Costa Rica","name:ee":"Kosta Rika nutome","name:th":"\u0e1b\u0e23\u0e30\u0e40\u0e17\u0e28\u0e04\u0e2d\u0e2a\u0e15\u0e32\u0e23\u0e34\u0e01\u0e32","name:gu":"\u0a95\u0acb\u0ab8\u0acd\u0a9f\u0abe \u0ab0\u0abf\u0a95\u0abe","name:yi":"\u05e7\u05d0\u05e1\u05d8\u05d0 \u05e8\u05d9\u05e7\u05d0","name:yo":"Or\u00edl\u1eb9\u0301\u00e8de Kuusita R\u00edk\u00e0","name:ay":"Kustarika","name:mt":"Kosta Rika","name:rn":"Kositarika","name:az":"Kosta Rika","name:id":"Kosta Rika","name:ms":"Kosta Rika","name:mr":"\u0915\u094b\u0938\u094d\u091f\u093e\u0930\u093f\u0915\u093e","name:qu":"Kustarika","name:ar":"\u0643\u0648\u0633\u062a\u0627\u0631\u064a\u0643\u0627","name:my":"\u1000\u1031\u102c\u1037\u1005\u103a\u1010\u102c\u101b\u102e\u1000\u102c","name:io":"Kosta Rika","name:gn":"Kosta Rrika","name:is":"Kosta R\u00edka","name:am":"\u12ae\u1235\u1273 \u122a\u12ab","name:fo":"Kosta Rika","name:ml":"\u0d15\u0d4b\u0d38\u0d4d\u0d31\u0d4d\u0d31\u0d31\u0d3f\u0d15\u0d4d\u0d15","name:ru":"\u041a\u043e\u0441\u0442\u0430-\u0420\u0438\u043a\u0430","name:rw":"Kosita Rika","name:pl":"Kostaryka","name:mk":"\u041a\u043e\u0441\u0442\u0430\u0440\u0438\u043a\u0430","name:vo":"Kostarik\u00e4n","name:zu":"i-Costa Rica","name:ha":"Kwasta Rika","name:mn":"\u041a\u043e\u0441\u0442\u0430-\u0420\u0438\u043a\u0430","name:ff":"Kosta Rikaa","name:hi":"\u0915\u094b\u0938\u094d\u091f\u093e\u0930\u0940\u0915\u093e","name:mg":"Kosta Rik\u00e0","id":424297465,"alt_name:vi":"C\u1ed1t-xta Ri-ca","name:wo":"Kosta Riika","name:zh-yue":"\u54e5\u65af\u9054\u9ece\u52a0","name:fy":"Kosta Rika","name:zh":"\u54e5\u65af\u5927\u9ece\u52a0","name:so":"Kosta Riika","name:sn":"Kostarika","name:sl":"Kostarika","name:sk":"Kostarika","name:ja":"\u30b3\u30b9\u30bf\u30ea\u30ab","name:si":"\u0d9a\u0ddc\u0dc3\u0dca\u0da7\u0dbb\u0dd2\u0d9a\u0dcf\u0dc0","name:sh":"Kostarika","name:sg":"K\u00f4sta R\u00eeka","name:na":"Kosta Rika","name:ne":"\u0915\u094b\u0937\u094d\u091f\u093e\u0930\u093f\u0915\u093e","name:sa":"\u0915\u094b\u0938\u094d\u091f\u093e \u0930\u0940\u0915\u093e","name:bs":"Kostarika","name:bm":"K\u0254sitarika","name:bn":"\u0995\u09cb\u09b8\u09cd\u099f\u09be\u09b0\u09bf\u0995\u09be","name:bo":"\u0f40\u0f7c\u0f0b\u0f66\u0f84\u0f4a\u0f0b\u0f62\u0f72\u0f0b\u0f40\u0f0d","name:sw":"Kostarika","name:be":"\u041a\u043e\u0441\u0442\u0430 \u0420\u044b\u043a\u0430","name:su":"Kosta Rika","name:bg":"\u041a\u043e\u0441\u0442\u0430 \u0420\u0438\u043a\u0430","name:ss":"IKhosta-Likha","name:ba":"\u041a\u043e\u0441\u0442\u0430-\u0420\u0438\u043a\u0430","name:sq":"Kosta Rika","name:ga":"C\u00f3sta R\u00edce","name:gd":"Costa R\u00eccea","name:ht":"Kostarika","name:jv":"Kosta Rika","name:fa":"\u06a9\u0627\u0633\u062a\u0627\u0631\u06cc\u06a9\u0627","name:gv":"Yn Coose Ber\u00e7hagh","name:ak":"K\u0254sta Rika","name:tt":"\u041a\u043e\u0441\u0442\u0430-\u0420\u0438\u043a\u0430"},"coordinates":[877,1416]},{"type":"Point","properties":{"source":"openstreetmap.org","kind":"region","name":"Heredia","kind_detail":"state","min_zoom":4.0,"id":859637914},"coordinates":[893,1722]},{"type":"Point","properties":{"source":"openstreetmap.org","kind":"region","name":"Lim\u00f3n","name:lt":"Limono provincija","kind_detail":"state","min_zoom":4.0,"id":859637911},"coordinates":[2302,1727]},{"type":"Point","properties":{"source":"naturalearthdata.com","kind":"locality","name":"San Juan de Nicaragua","population":1000,"min_zoom":7.0,"id":2546},"coordinates":[1966,3332]},{"type":"Point","properties":{"name:az":"San-Xose","name:ka":"\u10e1\u10d0\u10dc-\u10ee\u10dd\u10e1\u10d4","name:mr":"\u0938\u093e\u0928 \u0939\u094b\u091c\u0947, \u0915\u094b\u0938\u094d\u091f\u093e \u0930\u093f\u0915\u093e","name:ko":"\uc0b0\ud638\uc138","name:ur":"\u0633\u0627\u0646 \u06c1\u0648\u0632\u06d2","name:ar":"\u0633\u0627\u0646 \u062e\u0648\u0633\u064a\u0647\u060c \u0643\u0648\u0633\u062a\u0627\u0631\u064a\u0643\u0627","name:io":"San Jose","country_capital":true,"name:th":"\u0e0b\u0e31\u0e19\u0e42\u0e2e\u0e40\u0e0b","name:am":"\u1233\u1295 \u1206\u12dc","name:be":"\u0421\u0430\u043d-\u0425\u0430\u0441\u044d","name:os":"\u0421\u0430\u043d-\u0425\u043e\u0441\u0435","name:ru":"\u0421\u0430\u043d-\u0425\u043e\u0441\u0435","name:ta":"\u0b9a\u0bbe\u0ba9\u0bcd \u0bb9\u0bca\u0b9a\u0bc7, \u0b95\u0bcb\u0bb8\u0bcd\u0b9f\u0bcd\u0b9f\u0bbe \u0bb0\u0bbf\u0b95\u0bcd\u0b95\u0bbe","id":197698100,"name:mk":"\u0421\u0430\u043d \u0425\u043e\u0437\u0435","name:fa":"\u0633\u0627\u0646 \u062e\u0648\u0632\u0647","name:lt":"San Chos\u0117","kind_detail":"city","source":"openstreetmap.org","name:zh":"\u8056\u8377\u897f","admin_level":"2","name:lv":"Sanhos\u0113","name:ja":"\u30b5\u30f3\u30db\u30bb","name:nn":"San Jos\u00e9 i Costa Rica","name:hi":"\u0938\u093e\u0928 \u0939\u094b\u091c\u093c\u0947","name:he":"\u05e1\u05df \u05d7\u05d5\u05e1\u05d4","kind":"locality","name:bs":"San Jose, Kostarika","name:bn":"\u09b8\u09cd\u09af\u09be\u09a8 \u09b9\u09cb\u09b8\u09c7, \u0995\u09cb\u09b8\u09cd\u099f\u09be \u09b0\u09bf\u0995\u09be","name:bo":"\u0f66\u0f53\u0f0b\u0f47\u0f7c\u0f0b\u0f66\u0f7a\u0f0d","name:uk":"\u0421\u0430\u043d-\u0425\u043e\u0441\u0435","name:hy":"\u054d\u0561\u0576 \u053d\u0578\u057d\u0565","name:sw":"San Jose","name:sv":"San Jos\u00e9, Costa Rica","name:ug":"\u0633\u0627\u0646 \u062e\u0648\u0633\u06d0","name:bg":"\u0421\u0430\u043d \u0425\u043e\u0441\u0435","name:sr":"\u0421\u0430\u043d \u0425\u043e\u0441\u0435","population":288054,"name:el":"\u03a3\u03b1\u03bd \u03a7\u03bf\u03c3\u03ad","name:eo":"San-Joseo","name":"San Jos\u00e9","name:ht":"San Joz\u00e9","min_zoom":8.0,"name:gl":"San Xos\u00e9, Costa Rica"},"coordinates":[860,405]},{"type":"Point","properties":{"source":"openstreetmap.org","kind":"locality","name":"Alajuela","kind_detail":"city","population":125000,"min_zoom":8.0,"id":275730904},"coordinates":[465,653]},{"type":"Point","properties":{"kind":"locality","name":"Heredia","kind_detail":"city","source":"openstreetmap.org","min_zoom":8.0,"name:ru":"\u042d\u0440\u0435\u0434\u0438\u044f","id":275991117,"population":117000},"coordinates":[752,600]},{"type":"Point","properties":{"kind":"locality","name":"Cartago","kind_detail":"city","official_name":"La Muy Noble y Leal Ciudad de Cartago","source":"openstreetmap.org","min_zoom":8.0,"id":277971781,"population":110000},"coordinates":[1324,203]},{"type":"Point","properties":{"source":"openstreetmap.org","kind":"locality","name":"Lim\u00f3n","kind_detail":"city","population":70000,"min_zoom":8.0,"id":185489267},"coordinates":[3916,590]},{"type":"Point","properties":{"source":"openstreetmap.org","kind":"locality","name":"Curridabat","kind_detail":"town","population":52000,"min_zoom":8.0,"id":272876550},"coordinates":[983,352]},{"type":"Point","properties":{"source":"openstreetmap.org","kind":"locality","name":"Siquirres","kind_detail":"town","population":45000,"min_zoom":8.0,"id":279239581},"coordinates":[2527,900]},{"type":"Point","properties":{"source":"openstreetmap.org","kind":"locality","name":"Desamparados","kind_detail":"town","population":42000,"min_zoom":8.0,"id":278280797},"coordinates":[900,301]},{"type":"Point","properties":{"source":"openstreetmap.org","kind":"locality","name":"San Rafael","kind_detail":"town","population":42000,"min_zoom":8.0,"id":267631658},"coordinates":[802,646]},{"type":"Point","properties":{"source":"openstreetmap.org","kind":"locality","name":"Santo Domingo","kind_detail":"town","population":39000,"min_zoom":8.0,"id":626935980},"coordinates":[827,548]},{"type":"Point","properties":{"source":"openstreetmap.org","kind":"locality","name":"San Vicente","kind_detail":"town","population":35000,"min_zoom":8.0,"id":276169074},"coordinates":[955,498]},{"type":"Point","properties":{"source":"openstreetmap.org","kind":"locality","name":"Aserr\u00ed","kind_detail":"town","population":30000,"min_zoom":8.0,"id":331104211},"coordinates":[822,194]},{"type":"Point","properties":{"source":"openstreetmap.org","kind":"locality","name":"San Rafael","kind_detail":"town","population":28000,"min_zoom":8.0,"id":281368318},"coordinates":[1373,220]},{"type":"Point","properties":{"source":"openstreetmap.org","kind":"locality","name":"Turrialba","kind_detail":"town","population":26000,"min_zoom":8.0,"id":277926174},"coordinates":[2016,329]},{"type":"Point","properties":{"source":"openstreetmap.org","kind":"locality","name":"El Tejar","kind_detail":"town","population":25000,"min_zoom":8.0,"id":686706581},"coordinates":[1271,145]},{"type":"Point","properties":{"source":"openstreetmap.org","kind":"locality","name":"San Pedro","kind_detail":"town","population":25000,"min_zoom":8.0,"id":2634836835},"coordinates":[946,402]},{"type":"Point","properties":{"source":"openstreetmap.org","kind":"locality","name":"San Juan","kind_detail":"town","population":22000,"min_zoom":8.0,"id":2795101026},"coordinates":[855,492]},{"type":"Point","properties":{"source":"openstreetmap.org","kind":"locality","name":"Guadalupe","kind_detail":"town","population":21000,"min_zoom":8.0,"id":2795101034},"coordinates":[939,451]},{"type":"Point","properties":{"source":"openstreetmap.org","kind":"locality","name":"San Pablo","kind_detail":"town","population":20000,"min_zoom":8.0,"id":267631593},"coordinates":[810,592]},{"type":"Point","properties":{"source":"openstreetmap.org","kind":"locality","name":"Puerto Viejo","kind_detail":"town","population":20000,"min_zoom":8.0,"id":440275723},"coordinates":[1064,1951]},{"type":"Point","properties":{"source":"openstreetmap.org","kind":"locality","name":"Para\u00edso","kind_detail":"town","population":17000,"min_zoom":8.0,"id":288590588},"coordinates":[1481,133]},{"type":"Point","properties":{"source":"openstreetmap.org","kind":"locality","name":"San Isidro","kind_detail":"town","population":17000,"min_zoom":8.0,"id":2795101027},"coordinates":[1069,531]},{"type":"Point","properties":{"source":"openstreetmap.org","kind":"locality","name":"Alajuelita","kind_detail":"town","population":15000,"min_zoom":8.0,"id":273114688},"coordinates":[798,317]},{"type":"Point","properties":{"source":"openstreetmap.org","kind":"locality","name":"Grecia","kind_detail":"town","population":15000,"min_zoom":8.0,"id":292598198},"coordinates":[185,818]},{"type":"Point","properties":{"source":"openstreetmap.org","kind":"locality","name":"Ciudad Col\u00f3n","kind_detail":"town","population":15000,"min_zoom":8.0,"id":3584604950},"coordinates":[381,356]},{"type":"Point","properties":{"source":"openstreetmap.org","kind":"locality","name":"Santiago","kind_detail":"town","population":13000,"min_zoom":8.0,"id":282754183},"coordinates":[180,156]},{"type":"Point","properties":{"source":"openstreetmap.org","kind":"locality","name":"Santa Ana","kind_detail":"town","population":12000,"min_zoom":8.0,"id":2791744226},"coordinates":[565,405]},{"type":"Point","properties":{"source":"openstreetmap.org","kind":"locality","name":"Escaz\u00fa","kind_detail":"town","population":11984,"min_zoom":8.0,"id":272902096},"coordinates":[684,368]},{"type":"Point","properties":{"source":"openstreetmap.org","kind":"locality","name":"San Ignacio","kind_detail":"town","population":10000,"min_zoom":8.0,"id":282610760},"coordinates":[619,5]},{"type":"Point","properties":{"source":"openstreetmap.org","kind":"locality","name":"Tres R\u00edos","kind_detail":"town","population":10000,"min_zoom":8.0,"id":2634908174},"coordinates":[1130,333]},{"type":"Point","properties":{"source":"openstreetmap.org","kind":"locality","name":"San Pedro","kind_detail":"town","population":8000,"min_zoom":8.0,"id":836489032},"coordinates":[381,831]},{"type":"Point","properties":{"source":"openstreetmap.org","kind":"locality","name":"Sarch\u00ed Norte","kind_detail":"town","population":8000,"min_zoom":8.0,"id":292603390},"coordinates":[81,872]},{"type":"Point","properties":{"source":"openstreetmap.org","kind":"locality","name":"San Joaqu\u00edn","kind_detail":"town","population":8000,"min_zoom":8.0,"id":1274593545},"coordinates":[649,618]},{"type":"Point","properties":{"source":"openstreetmap.org","kind":"locality","name":"Santa B\u00e1rbara","kind_detail":"town","population":7000,"min_zoom":8.0,"id":276618407},"coordinates":[629,712]},{"type":"Point","properties":{"source":"openstreetmap.org","kind":"locality","name":"Juan Vi\u00f1as","kind_detail":"town","population":6500,"min_zoom":8.0,"id":332778637},"coordinates":[1833,293]},{"type":"Point","properties":{"source":"openstreetmap.org","kind":"locality","name":"San Isidro","kind_detail":"town","population":6100,"min_zoom":8.0,"id":267632809},"coordinates":[929,658]},{"type":"Point","properties":{"source":"openstreetmap.org","kind":"locality","name":"Barva","kind_detail":"town","population":6000,"min_zoom":8.0,"id":276618404},"coordinates":[726,663]},{"type":"Point","properties":{"source":"openstreetmap.org","kind":"locality","name":"Pacayas","kind_detail":"town","population":6000,"min_zoom":8.0,"id":3852413229},"coordinates":[1648,356]},{"type":"Point","properties":{"admin_level":"6","kind":"locality","name:en":"Greytown","name":"San Juan de Nicaragua","kind_detail":"town","source":"openstreetmap.org","min_zoom":8.0,"old_name":"San Juan del Norte","id":979906391,"population":985},"coordinates":[1868,3411]}]},"transit":{"type":"GeometryCollection","geometries":[{"type":"LineString","properties":{"kind":"train","network":"Tren Urbano","sort_rank":275,"source":"openstreetmap.org","min_zoom":6.0,"operator":"Incofer","ref":"1","id":-6562389,"osm_relation":true,"name":"Estaci\u00f3n Bel\u00e9n - Estaci\u00f3n Pac\u00edfico"},"arcs":[13]},{"type":"LineString","properties":{"kind":"train","network":"Tren Urbano","sort_rank":275,"source":"openstreetmap.org","min_zoom":6.0,"operator":"Incofer","ref":"4","id":-7358193,"osm_relation":true,"name":"Los \u00c1ngeles - Estaci\u00f3n Atl\u00e1ntico"},"arcs":[14]},{"type":"MultiLineString","properties":{"kind":"train","name":"Metr\u00f3poli - CFIA","sort_rank":275,"source":"openstreetmap.org","min_zoom":6.0,"operator":"Incofer","ref":"1","osm_relation":true,"network":"Tren Urbano"},"arcs":[[15],[16],[17],[18],[19],[20],[21],[22],[23],[24],[25],[26],[27],[28],[29],[30],[31],[32]]},{"type":"LineString","properties":{"kind":"train","network":"Tren Urbano","sort_rank":275,"source":"openstreetmap.org","min_zoom":6.0,"operator":"Incofer","ref":"4","id":-6559776,"osm_relation":true,"name":"Estaci\u00f3n Atl\u00e1ntico - Cartago"},"arcs":[33]},{"type":"LineString","properties":{"kind":"train","network":"Tren Urbano","sort_rank":275,"source":"openstreetmap.org","min_zoom":6.0,"operator":"Incofer","ref":"2","id":-6553390,"osm_relation":true,"name":"Atl\u00e1ntico - Alajuela"},"arcs":[34]},{"type":"LineString","properties":{"kind":"train","network":"Tren Urbano","sort_rank":275,"source":"openstreetmap.org","min_zoom":6.0,"operator":"Incofer","ref":"2","id":-6908011,"osm_relation":true,"name":"Alajuela - Atl\u00e1ntico"},"arcs":[35]},{"type":"LineString","properties":{"kind":"train","network":"Tren Urbano","sort_rank":275,"source":"openstreetmap.org","min_zoom":6.0,"operator":"Incofer","ref":"1","id":-7357210,"osm_relation":true,"name":"Estaci\u00f3n Atl\u00e1ntico - Estaci\u00f3n Bel\u00e9n"},"arcs":[36]},{"type":"MultiLineString","properties":{"kind":"train","network":"Tren Urbano","sort_rank":275,"source":"openstreetmap.org","min_zoom":6.0,"operator":"Incofer","ref":"1","osm_relation":true,"name":"CFIA - Estaci\u00f3n Bel\u00e9n"},"arcs":[[37],[38],[39],[40],[41],[42],[43],[44],[45],[46],[47],[48],[49],[50],[51],[52],[53],[54]]},{"type":"LineString","properties":{"kind":"train","network":"Tren Urbano","sort_rank":275,"source":"openstreetmap.org","min_zoom":6.0,"operator":"Incofer","ref":"2","id":-6562632,"osm_relation":true,"name":"Heredia - U. Latina"},"arcs":[55]},{"type":"LineString","properties":{"kind":"train","network":"Tren Urbano","sort_rank":275,"source":"openstreetmap.org","min_zoom":6.0,"operator":"Incofer","ref":"1","id":-6562498,"osm_relation":true,"name":"Estaci\u00f3n Pac\u00edfico - Estaci\u00f3n Bel\u00e9n"},"arcs":[56]},{"type":"LineString","properties":{"kind":"train","network":"Tren Urbano","sort_rank":275,"source":"openstreetmap.org","min_zoom":6.0,"operator":"Incofer","ref":"2","id":-6908041,"osm_relation":true,"name":"Atl\u00e1ntico - Heredia"},"arcs":[57]},{"type":"LineString","properties":{"kind":"train","network":"Tren Urbano","sort_rank":275,"source":"openstreetmap.org","min_zoom":6.0,"operator":"Incofer","ref":"1","id":-7357207,"osm_relation":true,"name":"Estaci\u00f3n Pac\u00edfico - Metr\u00f3poli"},"arcs":[58]},{"type":"LineString","properties":{"kind":"train","network":"Tren Urbano","sort_rank":275,"source":"openstreetmap.org","min_zoom":6.0,"operator":"Incofer","ref":"4","id":-6559533,"osm_relation":true,"name":"Estaci\u00f3n Cartago - Estaci\u00f3n Atl\u00e1ntico"},"arcs":[59]},{"type":"LineString","properties":{"kind":"train","network":"Tren Urbano","sort_rank":275,"source":"openstreetmap.org","min_zoom":6.0,"operator":"Incofer","ref":"2","id":-6562672,"osm_relation":true,"name":"U. Latina - Heredia"},"arcs":[60]},{"type":"LineString","properties":{"kind":"train","network":"Tren Urbano","sort_rank":275,"source":"openstreetmap.org","min_zoom":6.0,"operator":"Incofer","ref":"1","id":-7357188,"osm_relation":true,"name":"Metr\u00f3poli - Pac\u00edfico"},"arcs":[61]},{"type":"LineString","properties":{"kind":"train","network":"Tren Urbano","sort_rank":275,"source":"openstreetmap.org","min_zoom":6.0,"operator":"Incofer","ref":"4","id":-7799200,"osm_relation":true,"name":"Estaci\u00f3n Atl\u00e1ntico - Los \u00c1ngeles"},"arcs":[62]},{"type":"LineString","properties":{"kind":"train","network":"Tren Urbano","sort_rank":275,"source":"openstreetmap.org","min_zoom":6.0,"operator":"Incofer","ref":"2","id":-6908042,"osm_relation":true,"name":"Heredia - Atl\u00e1ntico"},"arcs":[63]},{"type":"LineString","properties":{"kind":"train","network":"Tren Urbano","sort_rank":275,"source":"openstreetmap.org","min_zoom":6.0,"operator":"Incofer","ref":"1","id":-7799195,"osm_relation":true,"name":"CFIA - Estaci\u00f3n Atl\u00e1ntico"},"arcs":[64]}]},"pois":{"type":"GeometryCollection","geometries":[{"type":"Point","properties":{"kind":"university","tier":3,"name":"Escuela Agr\u00edcola de la Regi\u00f3n Tropical H\u00fameda","short_name":"EARTH","area":35990400,"source":"openstreetmap.org","min_zoom":8.0,"operator":"EARTH","id":321376631},"coordinates":[2274,1229]}]},"boundaries":{"type":"GeometryCollection","geometries":[{"type":"LineString","properties":{"name:right:yo":"Nikar\u00e1g\u00fa\u00e0","name:left:la":"Ora Opulenta","name:right:qu":"Nikarawa","name:right:dv":"\u0782\u07a8\u0786\u07a6\u0783\u07a7\u078e\u07aa\u0787\u07a7","name:right:yi":"\u05e0\u05d9\u05e7\u05d0\u05e8\u05d0\u05d2\u05d5\u05d0","name:right:hy":"\u0546\u056b\u056f\u0561\u0580\u0561\u0563\u0578\u0582\u0561","name:left:su":"Kosta Rika","name:right:hr":"Nikaragva","name:left:sq":"Kosta Rika","name:left:ln":"Kosta Rika","name:left:sr":"\u041a\u043e\u0441\u0442\u0430\u0440\u0438\u043a\u0430","name:left:sl":"Kostarika","name:left:so":"Kosta Rika","name:left:lt":"Kosta Rika","name:left:sh":"Kostarika","name:left:lv":"Kostarika","name:left:vo":"Kostarik\u00e4n","name:left:sa":"\u0915\u094b\u0938\u094d\u091f\u093e \u0930\u0940\u0915\u093e","name:right:he":"\u05e0\u05d9\u05e7\u05e8\u05d2\u05d5\u05d0\u05d4","name:left:ce":"\u041a\u043e\u0441\u0442\u0430-\u0420\u0438\u043a\u0430","name:right:am":"\u1292\u12ab\u122b\u1313","source":"openstreetmap.org","name:right:ar":"\u0646\u064a\u0643\u0627\u0631\u0627\u062c\u0648\u0627","name:right:mt":"Nikaragwa","name:right:az":"Nikaraqua","name:right:ay":"Nikarwa","name:left:sw":"Kosta Rika","name:left:ka":"\u10d9\u10dd\u10e1\u10e2\u10d0-\u10e0\u10d8\u10d9\u10d0","name:left:yi":"\u05e7\u05d0\u05e1\u05d8\u05d0 \u05e8\u05d9\u05e7\u05d0","name:right:ht":"Nikaragwa","name:left:ko":"\ucf54\uc2a4\ud0c0\ub9ac\uce74","name:left:kn":"\u0c95\u0ccb\u0cb8\u0ccd\u0c9f\u0cbe \u0cb0\u0cbf\u0c95","name:right:is":"N\u00edkaragva","name:right:rw":"Nikaragwa","name:left:kk":"\u041a\u043e\u0441\u0442\u0430-\u0420\u0438\u043a\u0430","name:right:ru":"\u041d\u0438\u043a\u0430\u0440\u0430\u0433\u0443\u0430","name:left:ku":"Kosta R\u00eeka","name:left:kw":"Kosta Rika","name:left:rw":"Kosita Rika","name:left:ru":"\u041a\u043e\u0441\u0442\u0430-\u0420\u0438\u043a\u0430","name:right:id":"Nikaragua","name":"Costa Rica - Nicaragua","name:right:bn":"\u09a8\u09bf\u0995\u09be\u09b0\u09be\u0997\u09c1\u09af\u09bc\u09be","name:right:bo":"\u0f53\u0f72\u0f0b\u0f40\u0f0b\u0f62\u0f0b\u0f42\u0f74\u0f0b\u0f5d\u0f0d","name:right:bm":"Nikaragwa","name:right:ba":"\u041d\u0438\u043a\u0430\u0440\u0430\u0433\u0443\u0430","name:right:bg":"\u041d\u0438\u043a\u0430\u0440\u0430\u0433\u0443\u0430","name:right:be":"\u041d\u0456\u043a\u0430\u0440\u0430\u0433\u0443\u0430","name:left:zh":"\u54e5\u65af\u8fbe\u9ece\u52a0","name:left:si":"\u0d9a\u0ddd\u0dc3\u0dca\u0da7 \u0dbb\u0dd2\u0d9a\u0dcf","name:right:zh":"\u5c3c\u52a0\u62c9\u74dc","name:left:uz":"Kosta Rika","name:left:sk":"Kostarika","name:left:ur":"\u06a9\u0648\u0633\u0679\u0627\u0631\u06cc\u06a9\u0627","name:right:wo":"Nikaraaguwa","name:right:ne":"\u0928\u093f\u0915\u093e\u0930\u093e\u0917\u094d\u0935\u093e","id:right":-287666,"name:left:uk":"\u041a\u043e\u0441\u0442\u0430-\u0420\u0438\u043a\u0430","name:right:gv":"Yn Nickeraag","name:right:hi":"\u0928\u093f\u0915\u093e\u0930\u093e\u0917\u0941\u0906","name:right:fa":"\u0646\u06cc\u06a9\u0627\u0631\u0627\u06af\u0648\u0626\u0647","name:right:fo":"Nikaragua","name:left:ne":"\u0915\u094b\u0938\u094d\u091f\u093e\u0930\u093f\u0915\u093e","name:left:ug":"\u0643\u0648\u0633\u062a\u0627\u0631\u0649\u0643\u0627","name:left:na":"Kosta Rika","name:left:eo":"Kostariko","name:left:el":"\u039a\u03cc\u03c3\u03c4\u03b1 \u03a1\u03af\u03ba\u03b1","kind_detail":"2","name:left:pl":"Kostaryka","name:left:wo":"Kosta Riika","name:left:ss":"IKhosta-Likha","name:right:ps":"\u0646\u06cc\u06a9\u0627\u0631\u0627\u06ab\u0648\u0627","name:right:pt":"Nicar\u00e1gua","name:left:mk":"\u041a\u043e\u0441\u0442\u0430\u0440\u0438\u043a\u0430","name:left:tr":"Kosta Rika","name:left:tt":"\u041a\u043e\u0441\u0442\u0430-\u0420\u0438\u043a\u0430","name:left:mn":"\u041a\u043e\u0441\u0442\u0430-\u0420\u0438\u043a\u0430","name:left:ml":"\u0d15\u0d4b\u0d38\u0d4d\u0d31\u0d4d\u0d31 \u0d31\u0d40\u0d15\u0d4d\u0d15","name:left:th":"\u0e1b\u0e23\u0e30\u0e40\u0e17\u0e28\u0e04\u0e2d\u0e2a\u0e15\u0e32\u0e23\u0e34\u0e01\u0e32","name:right:pa":"\u0a28\u0a3f\u0a15\u0a3e\u0a30\u0a3e\u0a17\u0a41\u0a06","name:right:ga":"Nicearagua","name:right:tr":"Nikaragua","name:left:mt":"Kosta Rika","name:left:ta":"\u0b95\u0bcb\u0bb8\u0bcd\u0b9f\u0bcd\u0b9f\u0bbe \u0bb0\u0bbf\u0b95\u0bcd\u0b95\u0bbe","name:left:my":"\u1000\u1031\u102c\u1037\u1005\u1010\u102c\u101b\u102e\u1000\u102c\u1014\u102d\u102f\u1004\u103a\u1004\u1036","name:right:gn":"Nikaragua","name:right:pl":"Nikaragua","name:left:te":"\u0c15\u0c4b\u0c38\u0c4d\u0c1f\u0c3e\u0c30\u0c40\u0c15\u0c3e","name:right:os":"\u041d\u0438\u043a\u0430\u0440\u0430\u0433\u0443\u00e6","name:left:tg":"\u041a\u043e\u0441\u0442\u0430 \u0420\u0438\u043a\u0430","name:left:mr":"\u0915\u094b\u0938\u094d\u091f\u093e \u0930\u093f\u0915\u093e","name:right:th":"\u0e1b\u0e23\u0e30\u0e40\u0e17\u0e28\u0e19\u0e34\u0e01\u0e32\u0e23\u0e32\u0e01\u0e31\u0e27","name:left:dv":"\u0786\u07ae\u0790\u07b0\u0793\u07a6\u0783\u07a9\u0786\u07a7","name:right:ug":"\u0646\u0649\u0643\u0627\u0631\u0627\u06af\u06c7\u0626\u0627","name:left:hi":"\u0915\u094b\u0938\u094d\u091f\u093e \u0930\u0940\u0915\u093e","name:right:uk":"\u041d\u0456\u043a\u0430\u0440\u0430\u0433\u0443\u0430","name:left:he":"\u05e7\u05d5\u05e1\u05d8\u05d4 \u05e8\u05d9\u05e7\u05d4","name:right:ln":"Nikalagwa","name:left:ps":"\u06a9\u0648\u0633\u067c\u0627\u0631\u06cc\u06a9\u0627","name:right:lt":"Nikaragva","name:right:ur":"\u0646\u06a9\u0627\u0631\u0627\u06af\u0648\u0627","name:right:lv":"Nikaragva","name:left:hy":"\u053f\u0578\u057d\u057f\u0561 \u054c\u056b\u056f\u0561","name:left:ht":"Kostarika","name:right:uz":"Nikaragua","name:left:hr":"Kostarika","name:left:ga":"C\u00f3sta R\u00edce","sort_rank":262,"name:right:gd":"Niocaragua","name:left:gn":"Kosta Rrika","osm_relation":true,"name:right:bs":"Nikaragva","name:right:or":"\u0b28\u0b3f\u0b15\u0b3e\u0b30\u0b3e\u0b17\u0b41\u0b06","name:left":"Costa Rica","name:right:mk":"\u041d\u0438\u043a\u0430\u0440\u0430\u0433\u0432\u0430","name:right:sr":"\u041d\u0438\u043a\u0430\u0440\u0430\u0433\u0432\u0430","name:right:mn":"\u041d\u0438\u043a\u0430\u0440\u0430\u0433\u0443\u0430","name:right:eu":"Nikaragua","name:right:ml":"\u0d28\u0d3f\u0d15\u0d4d\u0d15\u0d30\u0d3e\u0d17\u0d4d\u0d35","name:right:vo":"Nikaraguv\u00e4n","name:left:os":"\u041a\u043e\u0441\u0442\u0430-\u0420\u0438\u043a\u00e6","name:left:gv":"Yn Coose Ber\u00e7hagh","name:right:my":"\u1014\u102e\u1000\u102c\u101b\u102c\u1002\u103d\u102b\u1014\u102d\u102f\u1004\u103a\u1004\u1036","name:right:mr":"\u0928\u093f\u0915\u093e\u0930\u093e\u0917\u094d\u0935\u093e","name:left:oc":"C\u00f2sta Rica","name:right:fy":"Nikarag\u00fba","name:right:eo":"Nikaragvo","name:right:el":"\u039d\u03b9\u03ba\u03b1\u03c1\u03ac\u03b3\u03bf\u03c5\u03b1","kind":"country","name:left:fa":"\u06a9\u0627\u0633\u062a\u0627\u0631\u06cc\u06a9\u0627","name:left:fo":"Kosta Rika","name:left:qu":"Kustarika","name:left:cs":"Kostarika","name:left:fy":"Kosta Rika","name:left:bs":"Kostarika","name:right:ja":"\u30cb\u30ab\u30e9\u30b0\u30a2","name:right:sq":"Nikaraguaja","name:right:ss":"INikhalaga","name:left:ja":"\u30b3\u30b9\u30bf\u30ea\u30ab","name:right:su":"Nikaragua","name:right:sw":"Nikaragua","name:right:sh":"Nikaragva","name:right:sk":"Nikaragua","name:left:ba":"\u041a\u043e\u0441\u0442\u0430-\u0420\u0438\u043a\u0430","name:right:jv":"Nikaragua","name:left:bg":"\u041a\u043e\u0441\u0442\u0430 \u0420\u0438\u043a\u0430","name:right:so":"Nikaragua","name:left:be":"\u041a\u043e\u0441\u0442\u0430-\u0420\u044b\u043a\u0430","name:right:sa":"\u0928\u093f\u0915\u093e\u0930\u0917\u0941\u0935\u093e","name:right:sl":"Nikaragva","name:left:bn":"\u0995\u09cb\u09b8\u09cd\u099f\u09be \u09b0\u09bf\u0995\u09be","name:left:bo":"\u0f41\u0f7c\u0f0b\u0f66\u0f0b\u0f4f\u0f0b\u0f62\u0f72\u0f0b\u0f41","name:right":"Nicaragua","name:left:jv":"Kosta Rika","name:right:ce":"\u041d\u0438\u043a\u0430\u0440\u0430\u0433\u0443\u0430","id":-287667,"name:left:yo":"K\u00f3st\u00e1 Rik\u00e0","name:right:zh-yue":"\u5c3c\u52a0\u62c9\u74dc","id:left":-287667,"min_zoom":8.0,"name:right:cs":"Nikaragua","name:left:bm":"Kosta Rika","name:right:ka":"\u10dc\u10d8\u10d9\u10d0\u10e0\u10d0\u10d2\u10e3\u10d0","name:left:or":"\u0b15\u0b4b\u0b37\u0b4d\u0b1f\u0b3e\u0b30\u0b3f\u0b15\u0b3e","name:left:io":"Kosta Rika","name:left:ar":"\u0643\u0648\u0633\u062a\u0627\u0631\u064a\u0643\u0627","name:right:tt":"\u041d\u0438\u043a\u0430\u0440\u0430\u0433\u0443\u0430","name:right:kk":"\u041d\u0438\u043a\u0430\u0440\u0430\u0433\u0443\u0430","name:left:id":"Kosta Rika","name:left:az":"Kosta-Rika","name:right:ko":"\ub2c8\uce74\ub77c\uacfc","name:right:ku":"N\u00eekaragua","name:right:kw":"Nikaragwa","name:right:kv":"\u041d\u0438\u043a\u0430\u0440\u0430\u0433\u0443\u0430","name:left:am":"\u12ae\u1235\u1273 \u122a\u12ab","name:right:tg":"\u041d\u0438\u043a\u0430\u0440\u0430\u0433\u0443\u0430","name:left:is":"Kosta R\u00edka","name:right:ta":"\u0ba8\u0bbf\u0b95\u0bcd\u0b95\u0bb0\u0bbe\u0b95\u0bc1\u0bb5\u0bbe","name:right:io":"Nikaragua","name:left:zh-yue":"\u54e5\u65af\u9054\u9ece\u52a0","name:left:ay":"Kustarika","name:left:pa":"\u0a15\u0a4b\u0a38\u0a24\u0a3e \u0a30\u0a40\u0a15\u0a3e"},"arcs":[0]},{"type":"LineString","properties":{"name:right:yo":"Nikar\u00e1g\u00fa\u00e0","name:left:la":"Ora Opulenta","name:right:qu":"Nikarawa","name:right:yi":"\u05e0\u05d9\u05e7\u05d0\u05e8\u05d0\u05d2\u05d5\u05d0","name:right:hy":"\u0546\u056b\u056f\u0561\u0580\u0561\u0563\u0578\u0582\u0561","name:left:su":"Kosta Rika","name:right:hr":"Nikaragva","name:left:sq":"Kosta Rika","name:left:ln":"Kosta Rika","name:left:sr":"\u041a\u043e\u0441\u0442\u0430\u0440\u0438\u043a\u0430","name:left:sl":"Kostarika","name:left:so":"Kosta Rika","name:left:lt":"Kosta Rika","name:left:sh":"Kostarika","name:left:lv":"Kostarika","name:right:mr":"\u0928\u093f\u0915\u093e\u0930\u093e\u0917\u094d\u0935\u093e","name:left:sa":"\u0915\u094b\u0938\u094d\u091f\u093e \u0930\u0940\u0915\u093e","name:right:he":"\u05e0\u05d9\u05e7\u05e8\u05d2\u05d5\u05d0\u05d4","name:left:ce":"\u041a\u043e\u0441\u0442\u0430-\u0420\u0438\u043a\u0430","name:right:am":"\u1292\u12ab\u122b\u1313","source":"openstreetmap.org","name:right:ar":"\u0646\u064a\u0643\u0627\u0631\u0627\u062c\u0648\u0627","name:right:el":"\u039d\u03b9\u03ba\u03b1\u03c1\u03ac\u03b3\u03bf\u03c5\u03b1","name:right:az":"Nikaraqua","name:right:ay":"Nikarwa","name:left:sw":"Kosta Rika","name:left:ka":"\u10d9\u10dd\u10e1\u10e2\u10d0-\u10e0\u10d8\u10d9\u10d0","name:right:zh-yue":"\u5c3c\u52a0\u62c9\u74dc","name:right:ht":"Nikaragwa","name:left:ko":"\ucf54\uc2a4\ud0c0\ub9ac\uce74","name:left:kn":"\u0c95\u0ccb\u0cb8\u0ccd\u0c9f\u0cbe \u0cb0\u0cbf\u0c95","name:right:is":"N\u00edkaragva","name:right:rw":"Nikaragwa","name:left:kk":"\u041a\u043e\u0441\u0442\u0430-\u0420\u0438\u043a\u0430","name:right:ru":"\u041d\u0438\u043a\u0430\u0440\u0430\u0433\u0443\u0430","name:left:ku":"Kosta R\u00eeka","name:left:kw":"Kosta Rika","name:left:rw":"Kosita Rika","name:left:ru":"\u041a\u043e\u0441\u0442\u0430-\u0420\u0438\u043a\u0430","name:right:id":"Nikaragua","name:right:bo":"\u0f53\u0f72\u0f0b\u0f40\u0f0b\u0f62\u0f0b\u0f42\u0f74\u0f0b\u0f5d\u0f0d","name:right:bn":"\u09a8\u09bf\u0995\u09be\u09b0\u09be\u0997\u09c1\u09af\u09bc\u09be","name":"Costa Rica - Nicaragua","name:right:bm":"Nikaragwa","name:right:ba":"\u041d\u0438\u043a\u0430\u0440\u0430\u0433\u0443\u0430","name:right:bg":"\u041d\u0438\u043a\u0430\u0440\u0430\u0433\u0443\u0430","name:right:be":"\u041d\u0456\u043a\u0430\u0440\u0430\u0433\u0443\u0430","name:left:zh":"\u54e5\u65af\u8fbe\u9ece\u52a0","name:left:si":"\u0d9a\u0ddd\u0dc3\u0dca\u0da7 \u0dbb\u0dd2\u0d9a\u0dcf","name:right:zh":"\u5c3c\u52a0\u62c9\u74dc","name:left:uz":"Kosta Rika","name:left:sk":"Kostarika","name:right:ko":"\ub2c8\uce74\ub77c\uacfc","name:left:ur":"\u06a9\u0648\u0633\u0679\u0627\u0631\u06cc\u06a9\u0627","name:right:wo":"Nikaraaguwa","name:right:ne":"\u0928\u093f\u0915\u093e\u0930\u093e\u0917\u094d\u0935\u093e","id:right":-287666,"name:left:uk":"\u041a\u043e\u0441\u0442\u0430-\u0420\u0438\u043a\u0430","name:right:ps":"\u0646\u06cc\u06a9\u0627\u0631\u0627\u06ab\u0648\u0627","name:right:hi":"\u0928\u093f\u0915\u093e\u0930\u093e\u0917\u0941\u0906","name:right:fa":"\u0646\u06cc\u06a9\u0627\u0631\u0627\u06af\u0648\u0626\u0647","name:right:fo":"Nikaragua","name:left:ne":"\u0915\u094b\u0938\u094d\u091f\u093e\u0930\u093f\u0915\u093e","name:left:ug":"\u0643\u0648\u0633\u062a\u0627\u0631\u0649\u0643\u0627","name:left:na":"Kosta Rika","name:left:eo":"Kostariko","name:left:el":"\u039a\u03cc\u03c3\u03c4\u03b1 \u03a1\u03af\u03ba\u03b1","kind_detail":"2","name:right:tt":"\u041d\u0438\u043a\u0430\u0440\u0430\u0433\u0443\u0430","name:left:hr":"Kostarika","name:left:ss":"IKhosta-Likha","name:right:gv":"Yn Nickeraag","name:right:pt":"Nicar\u00e1gua","name:left:mk":"\u041a\u043e\u0441\u0442\u0430\u0440\u0438\u043a\u0430","name:left:tr":"Kosta Rika","name:left:tt":"\u041a\u043e\u0441\u0442\u0430-\u0420\u0438\u043a\u0430","name:left:mn":"\u041a\u043e\u0441\u0442\u0430-\u0420\u0438\u043a\u0430","name:left:ml":"\u0d15\u0d4b\u0d38\u0d4d\u0d31\u0d4d\u0d31 \u0d31\u0d40\u0d15\u0d4d\u0d15","name:left:th":"\u0e1b\u0e23\u0e30\u0e40\u0e17\u0e28\u0e04\u0e2d\u0e2a\u0e15\u0e32\u0e23\u0e34\u0e01\u0e32","name:right:pa":"\u0a28\u0a3f\u0a15\u0a3e\u0a30\u0a3e\u0a17\u0a41\u0a06","name:right:ga":"Nicearagua","name:right:tr":"Nikaragua","name:left:mt":"Kosta Rika","name:left:ta":"\u0b95\u0bcb\u0bb8\u0bcd\u0b9f\u0bcd\u0b9f\u0bbe \u0bb0\u0bbf\u0b95\u0bcd\u0b95\u0bbe","name:left:my":"\u1000\u1031\u102c\u1037\u1005\u1010\u102c\u101b\u102e\u1000\u102c\u1014\u102d\u102f\u1004\u103a\u1004\u1036","name:right:gn":"Nikaragua","name:right:pl":"Nikaragua","name:left:te":"\u0c15\u0c4b\u0c38\u0c4d\u0c1f\u0c3e\u0c30\u0c40\u0c15\u0c3e","name:right:os":"\u041d\u0438\u043a\u0430\u0440\u0430\u0433\u0443\u00e6","name:left:tg":"\u041a\u043e\u0441\u0442\u0430 \u0420\u0438\u043a\u0430","name:left:mr":"\u0915\u094b\u0938\u094d\u091f\u093e \u0930\u093f\u0915\u093e","name:left:ar":"\u0643\u0648\u0633\u062a\u0627\u0631\u064a\u0643\u0627","name:right:ku":"N\u00eekaragua","name:left:dv":"\u0786\u07ae\u0790\u07b0\u0793\u07a6\u0783\u07a9\u0786\u07a7","name:right:ug":"\u0646\u0649\u0643\u0627\u0631\u0627\u06af\u06c7\u0626\u0627","name:left:hi":"\u0915\u094b\u0938\u094d\u091f\u093e \u0930\u0940\u0915\u093e","name:right:uk":"\u041d\u0456\u043a\u0430\u0440\u0430\u0433\u0443\u0430","name:left:he":"\u05e7\u05d5\u05e1\u05d8\u05d4 \u05e8\u05d9\u05e7\u05d4","name:right:ln":"Nikalagwa","name:right:kv":"\u041d\u0438\u043a\u0430\u0440\u0430\u0433\u0443\u0430","name:right:lt":"Nikaragva","name:right:ur":"\u0646\u06a9\u0627\u0631\u0627\u06af\u0648\u0627","name:right:lv":"Nikaragva","name:left:hy":"\u053f\u0578\u057d\u057f\u0561 \u054c\u056b\u056f\u0561","name:left:ht":"Kostarika","name:right:uz":"Nikaragua","name:left:wo":"Kosta Riika","name:left:ga":"C\u00f3sta R\u00edce","sort_rank":262,"name:right:gd":"Niocaragua","name:left:gn":"Kosta Rrika","osm_relation":true,"name:right:bs":"Nikaragva","name:right:or":"\u0b28\u0b3f\u0b15\u0b3e\u0b30\u0b3e\u0b17\u0b41\u0b06","name:left":"Costa Rica","name:right:mk":"\u041d\u0438\u043a\u0430\u0440\u0430\u0433\u0432\u0430","name:left:ja":"\u30b3\u30b9\u30bf\u30ea\u30ab","name:right:mn":"\u041d\u0438\u043a\u0430\u0440\u0430\u0433\u0443\u0430","name:right:eu":"Nikaragua","name:right:ml":"\u0d28\u0d3f\u0d15\u0d4d\u0d15\u0d30\u0d3e\u0d17\u0d4d\u0d35","name:right:vo":"Nikaraguv\u00e4n","name:left:os":"\u041a\u043e\u0441\u0442\u0430-\u0420\u0438\u043a\u00e6","name:left:gv":"Yn Coose Ber\u00e7hagh","name:right:my":"\u1014\u102e\u1000\u102c\u101b\u102c\u1002\u103d\u102b\u1014\u102d\u102f\u1004\u103a\u1004\u1036","name:left:vo":"Kostarik\u00e4n","name:left:oc":"C\u00f2sta Rica","name:right:fy":"Nikarag\u00fba","name:right:eo":"Nikaragvo","name:right:mt":"Nikaragwa","kind":"country","name:left:fa":"\u06a9\u0627\u0633\u062a\u0627\u0631\u06cc\u06a9\u0627","name:left:fo":"Kosta Rika","name:right:sk":"Nikaragua","name:left:cs":"Kostarika","name:left:fy":"Kosta Rika","name:left:bs":"Kostarika","name:right:ja":"\u30cb\u30ab\u30e9\u30b0\u30a2","name:right:sq":"Nikaraguaja","name:right:ss":"INikhalaga","name:right:sr":"\u041d\u0438\u043a\u0430\u0440\u0430\u0433\u0432\u0430","name:right:su":"Nikaragua","name:right:sw":"Nikaragua","name:right:sh":"Nikaragva","name:left:qu":"Kustarika","name:left:ba":"\u041a\u043e\u0441\u0442\u0430-\u0420\u0438\u043a\u0430","name:right:jv":"Nikaragua","name:left:bg":"\u041a\u043e\u0441\u0442\u0430 \u0420\u0438\u043a\u0430","name:right:so":"Nikaragua","name:left:be":"\u041a\u043e\u0441\u0442\u0430-\u0420\u044b\u043a\u0430","name:right:sa":"\u0928\u093f\u0915\u093e\u0930\u0917\u0941\u0935\u093e","name:right:sl":"Nikaragva","name:left:bn":"\u0995\u09cb\u09b8\u09cd\u099f\u09be \u09b0\u09bf\u0995\u09be","name:left:bo":"\u0f41\u0f7c\u0f0b\u0f66\u0f0b\u0f4f\u0f0b\u0f62\u0f72\u0f0b\u0f41","name:right":"Nicaragua","name:left:jv":"Kosta Rika","name:right:ce":"\u041d\u0438\u043a\u0430\u0440\u0430\u0433\u0443\u0430","id":-287667,"name:left:yo":"K\u00f3st\u00e1 Rik\u00e0","name:left:yi":"\u05e7\u05d0\u05e1\u05d8\u05d0 \u05e8\u05d9\u05e7\u05d0","id:left":-287667,"min_zoom":8.0,"name:right:cs":"Nikaragua","name:left:bm":"Kosta Rika","name:right:ka":"\u10dc\u10d8\u10d9\u10d0\u10e0\u10d0\u10d2\u10e3\u10d0","name:left:or":"\u0b15\u0b4b\u0b37\u0b4d\u0b1f\u0b3e\u0b30\u0b3f\u0b15\u0b3e","name:left:io":"Kosta Rika","name:left:pa":"\u0a15\u0a4b\u0a38\u0a24\u0a3e \u0a30\u0a40\u0a15\u0a3e","name:left:pl":"Kostaryka","name:right:kk":"\u041d\u0438\u043a\u0430\u0440\u0430\u0433\u0443\u0430","name:left:id":"Kosta Rika","name:left:az":"Kosta-Rika","name:left:ay":"Kustarika","name:right:th":"\u0e1b\u0e23\u0e30\u0e40\u0e17\u0e28\u0e19\u0e34\u0e01\u0e32\u0e23\u0e32\u0e01\u0e31\u0e27","name:right:kw":"Nikaragwa","name:left:ps":"\u06a9\u0648\u0633\u067c\u0627\u0631\u06cc\u06a9\u0627","name:left:am":"\u12ae\u1235\u1273 \u122a\u12ab","name:right:tg":"\u041d\u0438\u043a\u0430\u0440\u0430\u0433\u0443\u0430","name:left:is":"Kosta R\u00edka","name:right:ta":"\u0ba8\u0bbf\u0b95\u0bcd\u0b95\u0bb0\u0bbe\u0b95\u0bc1\u0bb5\u0bbe","name:right:io":"Nikaragua","maritime_boundary":true,"name:left:zh-yue":"\u54e5\u65af\u9054\u9ece\u52a0","name:right:dv":"\u0782\u07a8\u0786\u07a6\u0783\u07a7\u078e\u07aa\u0787\u07a7"},"arcs":[1]},{"type":"LineString","properties":{"name:ps":"\u06a9\u0648\u0633\u067c\u0627\u0631\u06cc\u06a9\u0627","name:ka":"\u10d9\u10dd\u10e1\u10e2\u10d0-\u10e0\u10d8\u10d9\u10d0","name:ko":"\ucf54\uc2a4\ud0c0\ub9ac\uce74","name:kn":"\u0c95\u0ccb\u0cb8\u0ccd\u0c9f\u0cbe \u0cb0\u0cbf\u0c95","name:cs":"Kostarika","name:tt":"\u041a\u043e\u0441\u0442\u0430-\u0420\u0438\u043a\u0430","name:kw":"Kosta Rika","name:ku":"Kosta R\u00eeka","name:pa":"\u0a15\u0a4b\u0a38\u0a24\u0a3e \u0a30\u0a40\u0a15\u0a3e","name:os":"\u041a\u043e\u0441\u0442\u0430-\u0420\u0438\u043a\u00e6","name:or":"\u0b15\u0b4b\u0b37\u0b4d\u0b1f\u0b3e\u0b30\u0b3f\u0b15\u0b3e","name:ce":"\u041a\u043e\u0441\u0442\u0430-\u0420\u0438\u043a\u0430","name:ta":"\u0b95\u0bcb\u0bb8\u0bcd\u0b9f\u0bcd\u0b9f\u0bbe \u0bb0\u0bbf\u0b95\u0bcd\u0b95\u0bbe","name:tg":"\u041a\u043e\u0441\u0442\u0430 \u0420\u0438\u043a\u0430","name:te":"\u0c15\u0c4b\u0c38\u0c4d\u0c1f\u0c3e\u0c30\u0c40\u0c15\u0c3e","source":"openstreetmap.org","sort_rank":262,"name:qu":"Kustarika","name:ba":"\u041a\u043e\u0441\u0442\u0430-\u0420\u0438\u043a\u0430","name:tr":"Kosta Rika","name:sq":"Kosta Rika","name:dv":"\u0786\u07ae\u0790\u07b0\u0793\u07a6\u0783\u07a9\u0786\u07a7","name:lv":"Kostarika","name:lt":"Kosta Rika","name:uz":"Kosta Rika","name:kk":"\u041a\u043e\u0441\u0442\u0430-\u0420\u0438\u043a\u0430","name:he":"\u05e7\u05d5\u05e1\u05d8\u05d4 \u05e8\u05d9\u05e7\u05d4","name:eo":"Kostariko","name:ur":"\u06a9\u0648\u0633\u0679\u0627\u0631\u06cc\u06a9\u0627","name:la":"Ora Opulenta","name:uk":"\u041a\u043e\u0441\u0442\u0430-\u0420\u0438\u043a\u0430","name:hy":"\u053f\u0578\u057d\u057f\u0561 \u054c\u056b\u056f\u0561","name:ug":"\u0643\u0648\u0633\u062a\u0627\u0631\u0649\u0643\u0627","name:ln":"Kosta Rika","name:oc":"C\u00f2sta Rica","name:el":"\u039a\u03cc\u03c3\u03c4\u03b1 \u03a1\u03af\u03ba\u03b1","kind":"country","name":"Costa Rica","min_zoom":8.0,"name:th":"\u0e1b\u0e23\u0e30\u0e40\u0e17\u0e28\u0e04\u0e2d\u0e2a\u0e15\u0e32\u0e23\u0e34\u0e01\u0e32","name:yi":"\u05e7\u05d0\u05e1\u05d8\u05d0 \u05e8\u05d9\u05e7\u05d0","name:jv":"Kosta Rika","name:yo":"K\u00f3st\u00e1 Rik\u00e0","name:ay":"Kustarika","name:mt":"Kosta Rika","name:az":"Kosta-Rika","name:id":"Kosta Rika","name:mr":"\u0915\u094b\u0938\u094d\u091f\u093e \u0930\u093f\u0915\u093e","name:ar":"\u0643\u0648\u0633\u062a\u0627\u0631\u064a\u0643\u0627","name:my":"\u1000\u1031\u102c\u1037\u1005\u1010\u102c\u101b\u102e\u1000\u102c\u1014\u102d\u102f\u1004\u103a\u1004\u1036","name:io":"Kosta Rika","name:is":"Kosta R\u00edka","name:am":"\u12ae\u1235\u1273 \u122a\u12ab","name:ru":"\u041a\u043e\u0441\u0442\u0430-\u0420\u0438\u043a\u0430","id":-287667,"name:ml":"\u0d15\u0d4b\u0d38\u0d4d\u0d31\u0d4d\u0d31 \u0d31\u0d40\u0d15\u0d4d\u0d15","name:rw":"Kosita Rika","name:pl":"Kostaryka","name:mk":"\u041a\u043e\u0441\u0442\u0430\u0440\u0438\u043a\u0430","name:vo":"Kostarik\u00e4n","name:fa":"\u06a9\u0627\u0633\u062a\u0627\u0631\u06cc\u06a9\u0627","name:mn":"\u041a\u043e\u0441\u0442\u0430-\u0420\u0438\u043a\u0430","name:ss":"IKhosta-Likha","kind_detail":"2","name:hi":"\u0915\u094b\u0938\u094d\u091f\u093e \u0930\u0940\u0915\u093e","name:fo":"Kosta Rika","name:zh-yue":"\u54e5\u65af\u9054\u9ece\u52a0","name:fy":"Kosta Rika","name:zh":"\u54e5\u65af\u8fbe\u9ece\u52a0","name:hr":"Kostarika","name:so":"Kosta Rika","name:sl":"Kostarika","name:sk":"Kostarika","name:ja":"\u30b3\u30b9\u30bf\u30ea\u30ab","name:si":"\u0d9a\u0ddd\u0dc3\u0dca\u0da7 \u0dbb\u0dd2\u0d9a\u0dcf","name:sh":"Kostarika","name:na":"Kosta Rika","name:ne":"\u0915\u094b\u0938\u094d\u091f\u093e\u0930\u093f\u0915\u093e","name:sa":"\u0915\u094b\u0938\u094d\u091f\u093e \u0930\u0940\u0915\u093e","name:bs":"Kostarika","name:bm":"Kosta Rika","name:bn":"\u0995\u09cb\u09b8\u09cd\u099f\u09be \u09b0\u09bf\u0995\u09be","name:bo":"\u0f41\u0f7c\u0f0b\u0f66\u0f0b\u0f4f\u0f0b\u0f62\u0f72\u0f0b\u0f41","name:sw":"Kosta Rika","name:be":"\u041a\u043e\u0441\u0442\u0430-\u0420\u044b\u043a\u0430","name:su":"Kosta Rika","name:bg":"\u041a\u043e\u0441\u0442\u0430 \u0420\u0438\u043a\u0430","name:wo":"Kosta Riika","name:sr":"\u041a\u043e\u0441\u0442\u0430\u0440\u0438\u043a\u0430","osm_relation":true,"name:ga":"C\u00f3sta R\u00edce","name:ht":"Kostarika","name:gn":"Kosta Rrika","maritime_boundary":true,"name:gv":"Yn Coose Ber\u00e7hagh"},"arcs":[2]},{"type":"LineString","properties":{"name:pt":"Nicar\u00e1gua","name:ps":"\u0646\u06cc\u06a9\u0627\u0631\u0627\u06ab\u0648\u0627","name:ka":"\u10dc\u10d8\u10d9\u10d0\u10e0\u10d0\u10d2\u10e3\u10d0","name:ko":"\ub2c8\uce74\ub77c\uacfc","name:cs":"Nikaragua","name:tt":"\u041d\u0438\u043a\u0430\u0440\u0430\u0433\u0443\u0430","name:kw":"Nikaragwa","name:kv":"\u041d\u0438\u043a\u0430\u0440\u0430\u0433\u0443\u0430","name:ku":"N\u00eekaragua","name:pa":"\u0a28\u0a3f\u0a15\u0a3e\u0a30\u0a3e\u0a17\u0a41\u0a06","name:os":"\u041d\u0438\u043a\u0430\u0440\u0430\u0433\u0443\u00e6","name:or":"\u0b28\u0b3f\u0b15\u0b3e\u0b30\u0b3e\u0b17\u0b41\u0b06","name:ce":"\u041d\u0438\u043a\u0430\u0440\u0430\u0433\u0443\u0430","name:ta":"\u0ba8\u0bbf\u0b95\u0bcd\u0b95\u0bb0\u0bbe\u0b95\u0bc1\u0bb5\u0bbe","name:tg":"\u041d\u0438\u043a\u0430\u0440\u0430\u0433\u0443\u0430","source":"openstreetmap.org","sort_rank":262,"name:qu":"Nikarawa","name:ba":"\u041d\u0438\u043a\u0430\u0440\u0430\u0433\u0443\u0430","name:tr":"Nikaragua","name:sq":"Nikaraguaja","name:dv":"\u0782\u07a8\u0786\u07a6\u0783\u07a7\u078e\u07aa\u0787\u07a7","name:lv":"Nikaragva","name:lt":"Nikaragva","name:uz":"Nikaragua","name:kk":"\u041d\u0438\u043a\u0430\u0440\u0430\u0433\u0443\u0430","name:he":"\u05e0\u05d9\u05e7\u05e8\u05d2\u05d5\u05d0\u05d4","name:eo":"Nikaragvo","name:ur":"\u0646\u06a9\u0627\u0631\u0627\u06af\u0648\u0627","name:uk":"\u041d\u0456\u043a\u0430\u0440\u0430\u0433\u0443\u0430","name:hy":"\u0546\u056b\u056f\u0561\u0580\u0561\u0563\u0578\u0582\u0561","name:ug":"\u0646\u0649\u0643\u0627\u0631\u0627\u06af\u06c7\u0626\u0627","name:ln":"Nikalagwa","name:el":"\u039d\u03b9\u03ba\u03b1\u03c1\u03ac\u03b3\u03bf\u03c5\u03b1","kind":"country","name":"Nicaragua","name:gd":"Niocaragua","min_zoom":8.0,"name:th":"\u0e1b\u0e23\u0e30\u0e40\u0e17\u0e28\u0e19\u0e34\u0e01\u0e32\u0e23\u0e32\u0e01\u0e31\u0e27","name:eu":"Nikaragua","name:jv":"Nikaragua","name:yo":"Nikar\u00e1g\u00fa\u00e0","name:ay":"Nikarwa","name:mt":"Nikaragwa","name:az":"Nikaraqua","name:id":"Nikaragua","name:mr":"\u0928\u093f\u0915\u093e\u0930\u093e\u0917\u094d\u0935\u093e","name:ar":"\u0646\u064a\u0643\u0627\u0631\u0627\u062c\u0648\u0627","name:my":"\u1014\u102e\u1000\u102c\u101b\u102c\u1002\u103d\u102b\u1014\u102d\u102f\u1004\u103a\u1004\u1036","name:io":"Nikaragua","name:is":"N\u00edkaragva","name:am":"\u1292\u12ab\u122b\u1313","name:ru":"\u041d\u0438\u043a\u0430\u0440\u0430\u0433\u0443\u0430","id":-287666,"name:ml":"\u0d28\u0d3f\u0d15\u0d4d\u0d15\u0d30\u0d3e\u0d17\u0d4d\u0d35","name:rw":"Nikaragwa","name:pl":"Nikaragua","name:mk":"\u041d\u0438\u043a\u0430\u0440\u0430\u0433\u0432\u0430","name:vo":"Nikaraguv\u00e4n","name:fa":"\u0646\u06cc\u06a9\u0627\u0631\u0627\u06af\u0648\u0626\u0647","name:mn":"\u041d\u0438\u043a\u0430\u0440\u0430\u0433\u0443\u0430","name:ss":"INikhalaga","kind_detail":"2","name:hi":"\u0928\u093f\u0915\u093e\u0930\u093e\u0917\u0941\u0906","name:fo":"Nikaragua","name:zh-yue":"\u5c3c\u52a0\u62c9\u74dc","name:fy":"Nikarag\u00fba","name:zh":"\u5c3c\u52a0\u62c9\u74dc","name:hr":"Nikaragva","name:so":"Nikaragua","name:sl":"Nikaragva","name:sk":"Nikaragua","name:ja":"\u30cb\u30ab\u30e9\u30b0\u30a2","name:sh":"Nikaragva","name:ne":"\u0928\u093f\u0915\u093e\u0930\u093e\u0917\u094d\u0935\u093e","name:sa":"\u0928\u093f\u0915\u093e\u0930\u0917\u0941\u0935\u093e","name:bs":"Nikaragva","name:yi":"\u05e0\u05d9\u05e7\u05d0\u05e8\u05d0\u05d2\u05d5\u05d0","name:bn":"\u09a8\u09bf\u0995\u09be\u09b0\u09be\u0997\u09c1\u09af\u09bc\u09be","name:bo":"\u0f53\u0f72\u0f0b\u0f40\u0f0b\u0f62\u0f0b\u0f42\u0f74\u0f0b\u0f5d\u0f0d","name:sw":"Nikaragua","name:be":"\u041d\u0456\u043a\u0430\u0440\u0430\u0433\u0443\u0430","name:su":"Nikaragua","name:bg":"\u041d\u0438\u043a\u0430\u0440\u0430\u0433\u0443\u0430","name:wo":"Nikaraaguwa","name:sr":"\u041d\u0438\u043a\u0430\u0440\u0430\u0433\u0432\u0430","osm_relation":true,"name:ga":"Nicearagua","name:bm":"Nikaragwa","name:ht":"Nikaragwa","name:gn":"Nikaragua","maritime_boundary":true,"name:gv":"Yn Nickeraag"},"arcs":[3]},{"type":"LineString","properties":{"kind":"region","name":"Provincia San Jos\u00e9 - Provincia Alajuela","sort_rank":256,"kind_detail":"4","id:right":-3222933,"source":"openstreetmap.org","min_zoom":8.0,"id:left":-3223004,"name:left":"Provincia San Jos\u00e9","id":-3223004,"osm_relation":true,"name:right":"Provincia Alajuela"},"arcs":[4]},{"type":"LineString","properties":{"kind":"region","name":"Provincia San Jos\u00e9","sort_rank":256,"kind_detail":"4","source":"openstreetmap.org","min_zoom":8.0,"id":-3223004,"osm_relation":true},"arcs":[5]},{"type":"LineString","properties":{"kind":"region","name":"Provincia Alajuela - R\u00edo San Juan","sort_rank":256,"kind_detail":"4","id":-3222933,"id:right":-2194832,"source":"openstreetmap.org","min_zoom":8.0,"id:left":-3222933,"official_name:right":"Departamento de R\u00edo San Juan","name:left":"Provincia Alajuela","name:right:en":"Rio San Juan","osm_relation":true,"name:right":"R\u00edo San Juan"},"arcs":[6]},{"type":"LineString","properties":{"kind":"region","name":"Provincia Alajuela","sort_rank":256,"kind_detail":"4","source":"openstreetmap.org","min_zoom":8.0,"id":-3222933,"osm_relation":true},"arcs":[7]},{"type":"LineString","properties":{"name:left:ka":"\u10e1\u10d0\u10db\u10ee\u10e0\u10d4\u10d7 \u10d0\u10e2\u10da\u10d0\u10dc\u10e2\u10d8\u10d9\u10d8\u10e1 \u10d0\u10d5\u10e2\u10dd\u10dc\u10dd\u10db\u10d8\u10e3\u10e0\u10d8 \u10e0\u10d4\u10d2\u10d8\u10dd\u10dc\u10d8","name:left:gl":"Rexi\u00f3n Aut\u00f3noma do Atl\u00e1ntico Sur","name:left:pl":"Region Autonomiczny Atl\u00e1ntico Sur","name:left:ja":"\u5357\u30a2\u30c8\u30e9\u30f3\u30c6\u30a3\u30b3\u81ea\u6cbb\u5730\u57df","name:left:ro":"Regiunea Autonom\u0103 a Atlanticului de Sud","id:right":-2194832,"min_zoom":8.0,"name:left:lt":"Piet\u0173 Atlantiko autonominis regionas","name:left:ru":"\u0410\u0442\u043b\u0430\u043d\u0442\u0438\u0447\u0435\u0441\u043a\u0438\u0439 \u042e\u0436\u043d\u044b\u0439 (\u0440\u0435\u0433\u0438\u043e\u043d)","name:left:it":"Regione Autonoma Atlantico Sud","id":-2195081,"osm_relation":true,"name:right":"R\u00edo San Juan","short_name:left":"RACCN","name":"Regi\u00f3n Aut\u00f3noma de la Costa Caribe Sur - R\u00edo San Juan","name:left:el":"\u039d\u03cc\u03c4\u03b9\u03b1 \u0391\u03c4\u03bb\u03b1\u03bd\u03c4\u03b9\u03ba\u03ae \u0391\u03c5\u03c4\u03cc\u03bd\u03bf\u03bc\u03b7 \u03a0\u03b5\u03c1\u03b9\u03bf\u03c7\u03ae","sort_rank":256,"kind_detail":"4","name:left:ca":"Regi\u00f3 Aut\u00f2noma de l'Atl\u00e0ntic Sud","name:left:de":"Autonome Region S\u00fcdkaribikk\u00fcste","kind":"region","name:right:en":"Rio San Juan","name:left:en":"South Atlantic Autonomous Region","name:left:zh":"\u5357\u5927\u897f\u6d0b\u81ea\u6cbb\u5340","name:left:fr":"Atl\u00e1ntico Sur","source":"openstreetmap.org","id:left":-2195081,"official_name:right":"Departamento de R\u00edo San Juan","old_name:left":"Regi\u00f3n Aut\u00f3noma del Atl\u00e1ntico Sur (RAAS)","name:left":"Regi\u00f3n Aut\u00f3noma de la Costa Caribe Sur"},"arcs":[8]},{"type":"LineString","properties":{"name:left:ka":"\u10e1\u10d0\u10db\u10ee\u10e0\u10d4\u10d7 \u10d0\u10e2\u10da\u10d0\u10dc\u10e2\u10d8\u10d9\u10d8\u10e1 \u10d0\u10d5\u10e2\u10dd\u10dc\u10dd\u10db\u10d8\u10e3\u10e0\u10d8 \u10e0\u10d4\u10d2\u10d8\u10dd\u10dc\u10d8","name":"Regi\u00f3n Aut\u00f3noma de la Costa Caribe Sur - R\u00edo San Juan","name:left:pl":"Region Autonomiczny Atl\u00e1ntico Sur","name:left:ja":"\u5357\u30a2\u30c8\u30e9\u30f3\u30c6\u30a3\u30b3\u81ea\u6cbb\u5730\u57df","name:left:ro":"Regiunea Autonom\u0103 a Atlanticului de Sud","id:right":-2194832,"min_zoom":8.0,"name:left:de":"Autonome Region S\u00fcdkaribikk\u00fcste","name:left:lt":"Piet\u0173 Atlantiko autonominis regionas","name:left:zh":"\u5357\u5927\u897f\u6d0b\u81ea\u6cbb\u5340","name:left:ru":"\u0410\u0442\u043b\u0430\u043d\u0442\u0438\u0447\u0435\u0441\u043a\u0438\u0439 \u042e\u0436\u043d\u044b\u0439 (\u0440\u0435\u0433\u0438\u043e\u043d)","name:left:it":"Regione Autonoma Atlantico Sud","id":-2195081,"osm_relation":true,"name:right":"R\u00edo San Juan","short_name:left":"RACCN","name:left:en":"South Atlantic Autonomous Region","name:left:el":"\u039d\u03cc\u03c4\u03b9\u03b1 \u0391\u03c4\u03bb\u03b1\u03bd\u03c4\u03b9\u03ba\u03ae \u0391\u03c5\u03c4\u03cc\u03bd\u03bf\u03bc\u03b7 \u03a0\u03b5\u03c1\u03b9\u03bf\u03c7\u03ae","sort_rank":256,"kind_detail":"4","name:left:ca":"Regi\u00f3 Aut\u00f2noma de l'Atl\u00e0ntic Sud","name:left:gl":"Rexi\u00f3n Aut\u00f3noma do Atl\u00e1ntico Sur","kind":"region","name:right:en":"Rio San Juan","source":"openstreetmap.org","maritime_boundary":true,"name:left:fr":"Atl\u00e1ntico Sur","id:left":-2195081,"official_name:right":"Departamento de R\u00edo San Juan","old_name:left":"Regi\u00f3n Aut\u00f3noma del Atl\u00e1ntico Sur (RAAS)","name:left":"Regi\u00f3n Aut\u00f3noma de la Costa Caribe Sur"},"arcs":[9]},{"type":"LineString","properties":{"name:ro":"Regiunea Autonom\u0103 a Atlanticului de Sud","name:ja":"\u5357\u30a2\u30c8\u30e9\u30f3\u30c6\u30a3\u30b3\u81ea\u6cbb\u5730\u57df","name:ka":"\u10e1\u10d0\u10db\u10ee\u10e0\u10d4\u10d7 \u10d0\u10e2\u10da\u10d0\u10dc\u10e2\u10d8\u10d9\u10d8\u10e1 \u10d0\u10d5\u10e2\u10dd\u10dc\u10dd\u10db\u10d8\u10e3\u10e0\u10d8 \u10e0\u10d4\u10d2\u10d8\u10dd\u10dc\u10d8","min_zoom":8.0,"name:it":"Regione Autonoma Atlantico Sud","old_name":"Regi\u00f3n Aut\u00f3noma del Atl\u00e1ntico Sur (RAAS)","name:ru":"\u0410\u0442\u043b\u0430\u043d\u0442\u0438\u0447\u0435\u0441\u043a\u0438\u0439 \u042e\u0436\u043d\u044b\u0439 (\u0440\u0435\u0433\u0438\u043e\u043d)","name:pl":"Region Autonomiczny Atl\u00e1ntico Sur","name:de":"Autonome Region S\u00fcdkaribikk\u00fcste","name:lt":"Piet\u0173 Atlantiko autonominis regionas","id":-2195081,"name:ca":"Regi\u00f3 Aut\u00f2noma de l'Atl\u00e0ntic Sud","name:el":"\u039d\u03cc\u03c4\u03b9\u03b1 \u0391\u03c4\u03bb\u03b1\u03bd\u03c4\u03b9\u03ba\u03ae \u0391\u03c5\u03c4\u03cc\u03bd\u03bf\u03bc\u03b7 \u03a0\u03b5\u03c1\u03b9\u03bf\u03c7\u03ae","kind":"region","name:en":"South Atlantic Autonomous Region","name":"Regi\u00f3n Aut\u00f3noma de la Costa Caribe Sur","sort_rank":256,"kind_detail":"4","short_name":"RACCN","name:fr":"Atl\u00e1ntico Sur","name:gl":"Rexi\u00f3n Aut\u00f3noma do Atl\u00e1ntico Sur","source":"openstreetmap.org","maritime_boundary":true,"osm_relation":true,"name:zh":"\u5357\u5927\u897f\u6d0b\u81ea\u6cbb\u5340"},"arcs":[10]},{"type":"LineString","properties":{"kind":"region","name:en":"Rio San Juan","name":"R\u00edo San Juan","sort_rank":256,"kind_detail":"4","official_name":"Departamento de R\u00edo San Juan","source":"openstreetmap.org","min_zoom":8.0,"id":-2194832,"osm_relation":true},"arcs":[11]},{"type":"LineString","properties":{"kind":"region","name:en":"Rio San Juan","name":"R\u00edo San Juan","sort_rank":256,"kind_detail":"4","min_zoom":8.0,"official_name":"Departamento de R\u00edo San Juan","source":"openstreetmap.org","maritime_boundary":true,"id":-2194832,"osm_relation":true},"arcs":[12]}]},"roads":{"type":"GeometryCollection","geometries":[{"type":"MultiLineString","properties":{"source":"openstreetmap.org","kind":"major_road","sort_rank":380,"kind_detail":"primary","ref":"32","min_zoom":8.0},"arcs":[[67],[68],[69],[70]]},{"type":"LineString","properties":{"kind":"major_road","sort_rank":380,"kind_detail":"primary","source":"openstreetmap.org","min_zoom":8.0,"old_name":"Avenida 3","landuse_kind":"urban_area","ref":"5"},"arcs":[71]},{"type":"LineString","properties":{"bus_network":null,"sort_rank":380,"kind_detail":"primary","kind":"major_road","source":"openstreetmap.org","min_zoom":8.0,"bus_shield_text":"Targuases","landuse_kind":"urban_area"},"arcs":[72]},{"type":"MultiLineString","properties":{"source":"openstreetmap.org","kind":"major_road","landuse_kind":"urban_area","sort_rank":380,"kind_detail":"primary","ref":"5","min_zoom":8.0},"arcs":[[73],[74],[75],[76],[77],[78],[79]]},{"type":"MultiLineString","properties":{"bus_network":null,"network":null,"sort_rank":380,"kind_detail":"primary","kind":"major_road","source":"openstreetmap.org","min_zoom":8.0,"bus_shield_text":"Targuases","shield_text":"3","landuse_kind":"urban_area","ref":"3"},"arcs":[[80],[81],[82]]},{"type":"MultiLineString","properties":{"source":"openstreetmap.org","kind":"major_road","kind_detail":"trunk","sort_rank":381,"landuse_kind":"urban_area","ref":"27","min_zoom":8.0},"arcs":[[83],[84]]},{"type":"MultiLineString","properties":{"kind":"major_road","network":null,"sort_rank":380,"kind_detail":"primary","source":"openstreetmap.org","min_zoom":8.0,"shield_text":"3","ref":"3"},"arcs":[[85],[86]]},{"type":"MultiLineString","properties":{"source":"openstreetmap.org","kind":"major_road","sort_rank":380,"kind_detail":"primary","ref":"10","min_zoom":8.0},"arcs":[[87],[88]]},{"type":"LineString","properties":{"source":"openstreetmap.org","kind":"major_road","sort_rank":380,"kind_detail":"primary","ref":"22","min_zoom":8.0},"arcs":[89]},{"type":"MultiLineString","properties":{"bus_network":"San Pedro-Curridabat","network":null,"sort_rank":381,"kind_detail":"trunk","kind":"major_road","source":"openstreetmap.org","min_zoom":8.0,"bus_shield_text":"303","shield_text":"2","ref":"2"},"arcs":[[90],[91]]},{"type":"LineString","properties":{"kind":"major_road","network":null,"sort_rank":380,"kind_detail":"primary","bus_network":"San Pedro-Curridabat","source":"openstreetmap.org","min_zoom":8.0,"bus_shield_text":"303","shield_text":"2","landuse_kind":"urban_area","ref":"2","id":59036474},"arcs":[92]},{"type":"MultiLineString","properties":{"bus_network":"San Pedro-Curridabat","network":null,"sort_rank":380,"kind_detail":"primary","kind":"major_road","source":"openstreetmap.org","min_zoom":8.0,"bus_shield_text":"51A","shield_text":"2","landuse_kind":"urban_area","ref":"2"},"arcs":[[93],[94],[95],[96],[97]]},{"type":"LineString","properties":{"sort_rank":381,"source":"openstreetmap.org","min_zoom":8.0,"kind":"major_road","kind_detail":"trunk"},"arcs":[98]},{"type":"LineString","properties":{"bus_network":"Cartago Radiales","sort_rank":380,"kind_detail":"primary","kind":"major_road","source":"openstreetmap.org","min_zoom":8.0,"bus_shield_text":"334","ref":"10"},"arcs":[99]},{"type":"MultiLineString","properties":{"kind":"major_road","network":null,"sort_rank":381,"kind_detail":"trunk","source":"openstreetmap.org","min_zoom":8.0,"shield_text":"2","ref":"2"},"arcs":[[100],[101],[102],[103],[104],[105],[106]]},{"type":"LineString","properties":{"bus_network":null,"network":null,"sort_rank":380,"kind_detail":"primary","kind":"major_road","source":"openstreetmap.org","min_zoom":8.0,"bus_shield_text":"227-I","shield_text":"3","landuse_kind":"urban_area","ref":"3"},"arcs":[107]},{"type":"MultiLineString","properties":{"source":"openstreetmap.org","kind":"major_road","landuse_kind":"urban_area","sort_rank":380,"kind_detail":"primary","min_zoom":8.0},"arcs":[[108],[109],[110]]},{"type":"MultiLineString","properties":{"source":"openstreetmap.org","kind":"major_road","sort_rank":380,"kind_detail":"primary","ref":"4","min_zoom":8.0},"arcs":[[111],[112]]},{"type":"LineString","properties":{"source":"openstreetmap.org","kind":"major_road","sort_rank":380,"kind_detail":"primary","ref":"230","min_zoom":8.0},"arcs":[113]},{"type":"LineString","properties":{"bus_network":"San Pedro-Curridabat","network":null,"sort_rank":380,"kind_detail":"primary","kind":"major_road","official_name":"Libertador Juan Rafael Mora Porras","source":"openstreetmap.org","min_zoom":8.0,"bus_shield_text":"51A","shield_text":"2","landuse_kind":"urban_area","ref":"2"},"arcs":[114]},{"type":"MultiLineString","properties":{"source":"openstreetmap.org","kind":"major_road","kind_detail":"trunk","sort_rank":381,"landuse_kind":"urban_area","ref":"39","min_zoom":8.0},"arcs":[[115],[116],[117],[118],[119],[120],[121],[122],[123],[124],[125],[126],[127],[128],[129]]},{"type":"MultiLineString","properties":{"kind":"major_road","sort_rank":380,"kind_detail":"primary","source":"openstreetmap.org","min_zoom":8.0,"landuse_kind":"urban_area","ref":"3","osm_relation":true},"arcs":[[130],[131],[132],[133],[134],[135],[136],[137],[138],[139],[140],[141],[142],[143],[144],[145],[146],[147],[148],[149],[150],[151],[152],[153],[154],[155],[156],[157],[158],[159],[160],[161],[162]]},{"type":"LineString","properties":{"kind":"major_road","name:en":"Zurqu\u00ed Tunnel","sort_rank":380,"kind_detail":"primary","source":"openstreetmap.org","min_zoom":8.0,"ref":"32","id":37570143},"arcs":[163]},{"type":"LineString","properties":{"kind":"major_road","name:en":"Braulio Carrillo Highway","sort_rank":380,"kind_detail":"primary","source":"openstreetmap.org","min_zoom":8.0,"ref":"32","id":373798425},"arcs":[164]},{"type":"MultiLineString","properties":{"bus_network":"Cartago Radiales","sort_rank":380,"kind_detail":"primary","kind":"major_road","source":"openstreetmap.org","min_zoom":8.0,"bus_shield_text":"334","landuse_kind":"urban_area","ref":"10"},"arcs":[[165],[166],[167]]},{"type":"LineString","properties":{"kind":"major_road","network":null,"sort_rank":380,"kind_detail":"primary","bus_network":null,"source":"openstreetmap.org","min_zoom":8.0,"bus_shield_text":"Ruta 414","shield_text":"3","landuse_kind":"urban_area","ref":"3","id":408710498},"arcs":[168]},{"type":"LineString","properties":{"kind":"major_road","sort_rank":380,"kind_detail":"primary","source":"openstreetmap.org","min_zoom":8.0,"old_name":"Avenida 6","landuse_kind":"urban_area","ref":"5","id":26697280},"arcs":[169]},{"type":"MultiLineString","properties":{"sort_rank":380,"kind_detail":"primary","min_zoom":8.0,"kind":"major_road","source":"openstreetmap.org"},"arcs":[[170],[171],[172],[173],[174],[175],[176],[177],[178],[179],[180],[181],[182],[183],[184],[185],[186],[187],[188]]},{"type":"MultiLineString","properties":{"bus_network":"San Pedro-Curridabat","sort_rank":381,"landuse_kind":"urban_area","kind":"major_road","source":"openstreetmap.org","min_zoom":8.0,"bus_shield_text":"62","kind_detail":"trunk","ref":"39"},"arcs":[[189],[190]]},{"type":"LineString","properties":{"bus_network":"San Pedro-Curridabat","network":null,"sort_rank":380,"kind_detail":"primary","kind":"major_road","official_name":"Libertador Juan Rafael Mora Porras","source":"openstreetmap.org","min_zoom":8.0,"bus_shield_text":"63","shield_text":"2","landuse_kind":"urban_area","ref":"2"},"arcs":[191]},{"type":"MultiLineString","properties":{"kind":"major_road","network":null,"sort_rank":381,"kind_detail":"trunk","source":"openstreetmap.org","min_zoom":8.0,"shield_text":"1","ref":"1"},"arcs":[[192],[193],[194]]},{"type":"MultiLineString","properties":{"kind":"major_road","network":null,"sort_rank":380,"kind_detail":"primary","source":"openstreetmap.org","min_zoom":8.0,"landuse_kind":"urban_area","shield_text":"2","ref":"2"},"arcs":[[195],[196]]},{"type":"MultiLineString","properties":{"source":"openstreetmap.org","kind":"major_road","sort_rank":381,"kind_detail":"trunk","ref":"32","min_zoom":8.0},"arcs":[[197],[198],[199]]},{"type":"MultiLineString","properties":{"source":"openstreetmap.org","kind":"major_road","kind_detail":"trunk","sort_rank":381,"landuse_kind":"urban_area","ref":"32","min_zoom":8.0},"arcs":[[200],[201]]},{"type":"MultiLineString","properties":{"source":"openstreetmap.org","kind":"major_road","kind_detail":"trunk","sort_rank":381,"landuse_kind":"urban_area","min_zoom":8.0},"arcs":[[202],[203],[204],[205],[206],[207]]},{"type":"MultiLineString","properties":{"source":"openstreetmap.org","kind":"major_road","sort_rank":380,"kind_detail":"primary","ref":"3","min_zoom":8.0,"osm_relation":true},"arcs":[[208],[209],[210],[211],[212],[213],[214],[215],[216],[217],[218],[219],[220],[221]]},{"type":"MultiLineString","properties":{"source":"openstreetmap.org","kind":"major_road","landuse_kind":"urban_area","sort_rank":380,"kind_detail":"primary","ref":"10","min_zoom":8.0},"arcs":[[222],[223]]},{"type":"LineString","properties":{"bus_network":"San Pedro-Curridabat","sort_rank":380,"kind_detail":"primary","kind":"major_road","source":"openstreetmap.org","min_zoom":8.0,"bus_shield_text":"51A","landuse_kind":"urban_area"},"arcs":[224]},{"type":"MultiLineString","properties":{"kind":"major_road","network":null,"sort_rank":380,"kind_detail":"primary","official_name":"Libertador Juan Rafael Mora Porras","source":"openstreetmap.org","min_zoom":8.0,"landuse_kind":"urban_area","shield_text":"2","ref":"2"},"arcs":[[225],[226]]},{"type":"MultiLineString","properties":{"kind":"major_road","network":null,"sort_rank":380,"kind_detail":"primary","source":"openstreetmap.org","min_zoom":8.0,"shield_text":"1","ref":"1"},"arcs":[[227],[228],[229]]},{"type":"MultiLineString","properties":{"kind":"major_road","network":null,"sort_rank":380,"kind_detail":"primary","source":"openstreetmap.org","min_zoom":8.0,"landuse_kind":"urban_area","shield_text":"3","ref":"3"},"arcs":[[230],[231],[232],[233],[234],[235],[236],[237],[238],[239],[240],[241],[242],[243],[244],[245]]},{"type":"MultiLineString","properties":{"source":"openstreetmap.org","kind":"major_road","landuse_kind":"urban_area","sort_rank":380,"kind_detail":"primary","ref":"153","min_zoom":8.0},"arcs":[[246],[247]]},{"type":"LineString","properties":{"source":"openstreetmap.org","kind":"major_road","sort_rank":380,"kind_detail":"primary","ref":"415","min_zoom":8.0},"arcs":[248]},{"type":"LineString","properties":{"kind":"major_road","network":null,"sort_rank":380,"kind_detail":"primary","bus_network":"San Pedro-Curridabat","source":"openstreetmap.org","min_zoom":8.0,"bus_shield_text":"50","shield_text":"2","landuse_kind":"urban_area","id":449784000},"arcs":[249]},{"type":"MultiLineString","properties":{"bus_network":null,"sort_rank":380,"kind_detail":"primary","kind":"major_road","source":"openstreetmap.org","min_zoom":8.0,"bus_shield_text":"Targuases","landuse_kind":"urban_area","ref":"153"},"arcs":[[250],[251]]},{"type":"MultiLineString","properties":{"source":"openstreetmap.org","kind":"major_road","kind_detail":"trunk","sort_rank":381,"landuse_kind":"urban_area","ref":"10","min_zoom":8.0},"arcs":[[252],[253],[254],[255]]},{"type":"MultiLineString","properties":{"bus_network":"San Pedro-Curridabat","network":null,"sort_rank":381,"landuse_kind":"urban_area","kind":"major_road","source":"openstreetmap.org","min_zoom":8.0,"bus_shield_text":"303","shield_text":"2","kind_detail":"trunk","ref":"2"},"arcs":[[256],[257],[258],[259]]},{"type":"LineString","properties":{"kind":"major_road","network":null,"sort_rank":381,"landuse_kind":"urban_area","source":"openstreetmap.org","min_zoom":8.0,"kind_detail":"trunk","shield_text":"2","ref":"2"},"arcs":[260]},{"type":"MultiLineString","properties":{"bus_network":"San Pedro-Curridabat","network":null,"sort_rank":380,"kind_detail":"primary","kind":"major_road","source":"openstreetmap.org","min_zoom":8.0,"bus_shield_text":"50","shield_text":"2","landuse_kind":"urban_area","ref":"2"},"arcs":[[261],[262]]},{"type":"LineString","properties":{"kind":"major_road","name:en":"Central Street","sort_rank":380,"kind_detail":"primary","source":"openstreetmap.org","min_zoom":8.0,"landuse_kind":"urban_area","ref":"5","id":417981176},"arcs":[263]},{"type":"LineString","properties":{"kind":"major_road","sort_rank":380,"kind_detail":"primary","source":"openstreetmap.org","min_zoom":8.0,"old_name":"Avenida 1","landuse_kind":"urban_area","ref":"5","id":319177011},"arcs":[264]},{"type":"MultiLineString","properties":{"bus_network":"San Pedro-Curridabat","sort_rank":381,"landuse_kind":"urban_area","kind":"major_road","source":"openstreetmap.org","min_zoom":8.0,"bus_shield_text":"63","kind_detail":"trunk","ref":"39"},"arcs":[[265],[266],[267]]},{"type":"MultiLineString","properties":{"source":"openstreetmap.org","kind":"major_road","sort_rank":380,"kind_detail":"primary","ref":"36","min_zoom":8.0},"arcs":[[268],[269],[270]]},{"type":"MultiLineString","properties":{"bus_network":null,"sort_rank":380,"kind_detail":"primary","kind":"major_road","source":"openstreetmap.org","min_zoom":8.0,"bus_shield_text":"Targuases","landuse_kind":"urban_area","ref":"3"},"arcs":[[271],[272]]},{"type":"LineString","properties":{"kind":"major_road","network":null,"sort_rank":380,"kind_detail":"primary","source":"openstreetmap.org","min_zoom":8.0,"landuse_kind":"urban_area","shield_text":"3","id":24629956},"arcs":[273]},{"type":"LineString","properties":{"kind":"major_road","network":null,"sort_rank":380,"kind_detail":"primary","source":"openstreetmap.org","min_zoom":8.0,"shield_text":"2","ref":"2"},"arcs":[274]},{"type":"LineString","properties":{"kind":"major_road","network":null,"sort_rank":381,"kind_detail":"trunk","source":"openstreetmap.org","min_zoom":8.0,"landuse_kind":"urban_area","shield_text":"2","ref":"10","id":482738929},"arcs":[275]},{"type":"MultiLineString","properties":{"source":"openstreetmap.org","kind":"major_road","sort_rank":381,"kind_detail":"trunk","ref":"27","min_zoom":8.0},"arcs":[[276],[277],[278],[279],[280],[281],[282],[283],[284],[285],[286],[287],[288],[289],[290],[291],[292],[293]]},{"type":"MultiLineString","properties":{"kind":"major_road","network":null,"sort_rank":381,"landuse_kind":"urban_area","source":"openstreetmap.org","min_zoom":8.0,"kind_detail":"trunk","shield_text":"1","ref":"1"},"arcs":[[294],[295],[296],[297],[298],[299],[300]]},{"type":"MultiLineString","properties":{"source":"openstreetmap.org","kind":"major_road","landuse_kind":"park","sort_rank":380,"kind_detail":"primary","ref":"36","min_zoom":8.0},"arcs":[[301],[302]]},{"type":"MultiLineString","properties":{"source":"openstreetmap.org","kind":"major_road","sort_rank":380,"kind_detail":"primary","is_bicycle_related":true,"min_zoom":8.0},"arcs":[[303],[304]]},{"type":"LineString","properties":{"bus_network":null,"sort_rank":380,"kind_detail":"primary","kind":"major_road","source":"openstreetmap.org","min_zoom":8.0,"bus_shield_text":"227-I","landuse_kind":"urban_area","ref":"3"},"arcs":[305]}]},"earth":{"type":"GeometryCollection","geometries":[{"type":"MultiPolygon","properties":{"sort_rank":10,"source":"naturalearthdata.com","min_zoom":0.0,"kind":"earth","area":47427324551},"arcs":[[[306]]]}]},"landuse":{"type":"GeometryCollection","geometries":[{"type":"MultiPolygon","properties":{"source":"openstreetmap.org","kind":"park","tier":2,"area":3773146536,"sort_rank":24,"min_zoom":4.0},"arcs":[[[307]]]},{"type":"MultiPolygon","properties":{"source":"naturalearthdata.com","kind":"urban_area","name":"","area":282398719,"sort_rank":11,"min_zoom":4.0},"arcs":[[[308]],[[309]]]},{"type":"Polygon","properties":{"kind":"park","natural":"wood","area":11899500,"sort_rank":24,"source":"openstreetmap.org","min_zoom":8.0,"tier":2,"id":370814074},"arcs":[[310]]},{"type":"Polygon","properties":{"kind":"university","area":35990400,"sort_rank":39,"operator":"EARTH","source":"openstreetmap.org","min_zoom":8.0,"tier":3,"id":321376631},"arcs":[[311]]}]}},"type":"Topology","transform":{"translate":[-84.375,9.7956775828],"scale":[0.0003433228,0.0003375792]},"arcs":[[[2101,3430],[-65,-84],[4,29],[-68,14],[65,-84],[-21,-41],[43,-26],[-20,-106],[42,-101],[-26,-62],[-77,-32],[-57,15],[-144,-69],[-72,5],[-35,-52],[-111,-27],[-67,-78],[-75,12],[-126,-41],[-15,39],[-82,20],[-17,51],[-91,51],[-55,87],[-29,-10],[-15,-51],[-56,22],[-43,-55],[-93,43],[-67,-30],[-35,68],[-158,8],[-33,-24],[-10,46],[-92,54],[49,27],[18,48],[-31,97],[-93,52],[-76,7],[-25,52],[-53,32],[-37,-11],[-37,80],[-44,18],[26,70],[-49,62],[-48,-48]],[[2175,3561],[-74,-131]],[[4096,783],[-84,36],[-730,975],[-171,169],[-423,909],[-107,396],[-150,206],[-256,87]],[[2175,3561],[-195,208],[-111,327]],[[558,522],[-85,-25],[-22,-46],[-31,2],[-60,-62],[-124,8],[-100,-48],[-136,39]],[[865,0],[6,15],[132,71],[43,59],[-7,25],[56,47],[-1,23],[-110,29],[-13,30],[76,8],[34,89],[-13,31],[273,51],[82,45],[72,3],[15,31],[-53,188],[-138,93],[-55,149],[-16,73],[38,102],[-118,-66],[-24,-198],[-133,-53],[-2,-61],[53,-76],[-43,-128],[-95,-67],[-73,4],[-90,-32],[-203,37]],[[623,2932],[-82,13],[-44,-20],[-5,42],[-92,54],[49,27],[18,48],[-31,97],[-93,52],[-76,7],[-25,52],[-53,32],[-37,-11],[-37,80],[-44,18],[26,70],[-49,62],[-48,-48]],[[558,522],[-48,-11],[4,68],[72,41],[39,273],[-2,2039]],[[535,4096],[60,-108],[60,-26],[119,5],[69,-39],[42,31],[68,-7],[-28,-17],[22,-62],[67,-62],[142,76],[41,-17],[2,-24],[55,28],[-3,32],[74,-13],[47,35],[-2,-109],[38,-35],[-14,-43],[33,-43],[44,30],[162,-10],[221,-289],[56,-35],[97,58]],[[2007,3452],[168,109]],[[2175,3561],[-195,208],[-111,327]],[[623,2932],[76,3],[29,-66],[67,30],[93,-43],[43,55],[56,-22],[15,51],[29,10],[55,-87],[91,-51],[17,-51],[82,-20],[15,-39],[126,41],[75,-12],[67,78],[111,27],[35,52],[72,-5],[144,69],[57,-15],[78,34],[25,60],[-42,101],[20,106],[-43,26],[21,41],[-65,84],[68,-14],[-4,-29],[65,84]],[[2101,3430],[74,131]],[[554,541],[143,-113],[159,-44]],[[1351,203],[-41,15],[-14,58],[-101,66],[-126,-2],[-104,65],[-72,7]],[[656,474],[41,-46],[132,-43],[47,-2],[31,27]],[[979,389],[-14,16],[-58,5]],[[907,410],[0,-1]],[[907,409],[-1,0]],[[906,409],[-3,0]],[[903,409],[0,-1]],[[903,408],[-1,0]],[[902,408],[-1,0]],[[901,408]],[[901,408],[-1,1]],[[900,409],[-2,0]],[[898,409],[-1,1]],[[897,410],[-1,0]],[[896,410]],[[896,410],[-1,1]],[[895,411],[-1,0]],[[894,411],[-1,1]],[[893,412]],[[1319,210],[-23,66],[-101,66],[-126,-2],[-104,65],[-72,7]],[[483,630],[281,-42],[127,-175]],[[483,630],[281,-42],[127,-175]],[[554,541],[144,-113],[140,-45],[72,23],[-17,6]],[[554,541],[144,-113],[140,-45],[69,27]],[[979,389],[-14,16],[-58,5]],[[907,410],[0,-1]],[[907,409],[-1,0]],[[906,409],[-3,0]],[[903,409],[0,-1]],[[903,408],[-1,0]],[[902,408],[-1,0]],[[901,408]],[[901,408],[-1,1]],[[900,409],[-2,0]],[[898,409],[-1,1]],[[897,410],[-1,0]],[[896,410]],[[896,410],[-1,1]],[[895,411],[-1,0]],[[894,411],[-1,1]],[[893,412]],[[965,405],[-79,10],[3,23],[-138,152]],[[554,541],[143,-113],[159,-44]],[[751,590],[140,-177]],[[656,474],[41,-46],[159,-44]],[[1319,210],[-23,66],[-101,66],[-126,-2],[-104,65],[-72,7]],[[965,405],[-79,10],[3,23],[-138,152]],[[656,474],[41,-46],[159,-44]],[[1351,203],[-41,15],[-14,58],[-101,66],[-126,-2],[-104,65],[-72,7]],[[751,590],[140,-177]],[[979,389],[-86,23]],[[4096,4096],[0,-3800],[-80,119],[-38,40],[-22,41],[-9,46],[-2,56],[-16,22],[-77,14],[-26,17],[-70,-39],[-114,114],[-186,228],[-44,34],[-556,731],[-209,351],[-177,419],[-141,392],[-16,-37],[-13,-68],[-11,-35],[-11,25],[-5,21],[3,18],[13,15],[-38,-24],[-28,-26],[-30,-20],[-45,-9],[84,73],[5,95],[-49,237],[76,-190],[43,-53],[7,94],[-53,146],[-74,137],[-59,68],[-48,25],[-61,13],[-43,-6],[11,-32],[-51,-10],[-23,64],[-21,57],[-53,32],[-25,24],[-69,111],[-28,74],[-88,135],[-63,155],[-24,106],[2554,0]],[[4096,296],[-80,119],[-38,40],[-22,41],[-9,46],[-2,56],[-16,22],[-77,14],[-26,17],[-70,-39],[-114,114],[-186,228],[-44,34],[-556,731],[-209,351],[-177,419],[-141,392],[-16,-37],[-13,-68],[-11,-35],[-11,25],[-5,21],[3,18],[13,15],[-38,-24],[-28,-26],[-30,-20],[-45,-9],[84,73],[5,95],[-49,237],[76,-190],[43,-53],[7,94],[-53,146],[-74,137],[-59,68],[-48,25],[-61,13],[-43,-6],[11,-32],[-51,-10],[-23,64],[-21,57],[-53,32],[-25,24],[-69,111],[-28,74],[-88,135],[-63,155],[-24,106]],[[901,532],[-24,-14]],[[1068,786],[-16,-13],[31,-11],[-9,-66],[-45,-7]],[[1072,801],[71,19],[-1,61],[50,106],[-18,79],[46,14],[-2,-40],[30,2],[141,188],[170,5],[99,-29],[340,15],[129,-38],[404,-304],[100,27],[129,-13],[46,-59],[111,-7],[66,-88],[183,0],[374,-149],[200,-29],[194,22]],[[3919,578],[-8,-3]],[[867,496],[-26,1]],[[470,639],[10,3]],[[766,585],[53,-29]],[[819,556],[12,-15]],[[841,496],[-10,45]],[[863,423],[1,59]],[[864,482],[1,1]],[[864,494],[0,-12]],[[866,483],[1,13]],[[480,642],[5,7]],[[483,657],[1,-3]],[[493,623],[-6,8]],[[806,415],[0,-9],[-53,10],[-44,1],[-61,31],[-24,1]],[[624,449],[84,-33],[98,-11],[1,2],[-1,7]],[[0,556],[49,-5],[-6,-28],[187,99],[199,25]],[[582,620],[22,-3]],[[1376,173],[108,-42]],[[1484,132],[-3,18],[63,5],[35,75],[101,55],[30,-11],[22,57],[49,-44],[226,35],[80,-30],[32,-42],[78,68],[1,35],[103,33],[-11,16],[53,54],[-16,155],[89,112],[-22,88],[44,72],[80,7]],[[390,363],[1,36],[64,22]],[[1122,315],[-6,-1]],[[1117,314],[11,2]],[[1005,351],[-4,3]],[[889,404],[40,2]],[[931,407],[-1,0]],[[930,406],[1,1]],[[930,406],[0,1],[-2,0],[1,-1],[1,0]],[[963,399],[-32,8]],[[878,504]],[[1374,175],[2,-2]],[[1276,261],[5,4],[-24,22]],[[1257,287],[-29,26]],[[1228,313],[-15,14],[0,1],[-40,-1],[-29,-6],[-22,-6]],[[1128,316],[45,10],[55,-13]],[[1228,313],[1,0],[10,0],[18,-26]],[[1257,287],[19,-26]],[[1276,261],[-6,-9]],[[455,654],[3,9]],[[494,604],[-3,4]],[[806,415]],[[488,612],[1,1],[-1,0],[0,-1]],[[0,1939],[141,-39],[228,-10]],[[373,1890],[119,-7],[257,47],[304,14],[132,-161],[-17,-52],[223,-500]],[[2014,320],[-5,4]],[[874,406],[15,-2]],[[900,359],[-109,-12],[-12,30],[-25,21],[-1,17],[0,2],[0,1]],[[753,418],[0,2],[5,16]],[[758,436],[3,8],[15,1],[13,7],[3,6],[-31,-14],[-3,-8]],[[758,436],[-5,-18]],[[753,418],[0,-1],[0,-19],[38,-52],[109,13]],[[905,361],[5,3]],[[911,445],[6,-10],[15,-9]],[[933,427],[-22,18]],[[914,368],[-2,-1]],[[918,372]],[[930,412],[-11,-39]],[[920,373],[11,39]],[[933,425],[1,0]],[[934,425],[0,1]],[[934,422],[0,3]],[[440,660],[18,3]],[[483,657],[1,-3]],[[523,606],[-38,43]],[[523,605],[0,1]],[[574,624],[-51,-18]],[[523,606]],[[523,606]],[[524,606],[-1,0]],[[523,606],[1,1]],[[719,594],[-105,24]],[[719,594],[11,2]],[[729,596],[-10,-2]],[[729,596],[1,0]],[[766,587],[-37,9]],[[730,596],[37,-16]],[[762,510],[12,51]],[[762,510],[4,-13]],[[765,498]],[[767,582],[-1,5]],[[768,586],[-2,1]],[[766,497],[2,-30]],[[767,581],[0,1]],[[768,467],[0,-2]],[[768,465],[-1,-7]],[[767,580],[0,2]],[[771,565],[-4,15]],[[768,466],[0,-1]],[[768,465]],[[769,456],[-1,3]],[[770,453],[-2,14]],[[769,466],[-1,1]],[[771,565],[3,-4]],[[767,458],[-1,0],[0,-1],[1,0],[0,1]],[[1072,801],[-4,-15]],[[1029,689],[-46,-104],[-82,-53]],[[1347,196],[-18,5]],[[1344,197],[3,-1]],[[1347,196],[27,-21]],[[757,596],[-2,1]],[[864,483],[2,0]],[[277,500]],[[277,503]],[[277,502],[0,-1]],[[277,501],[0,1]],[[277,500],[0,1]],[[277,500]],[[308,593],[1,0]],[[309,597],[0,-3]],[[309,594],[0,3]],[[309,594],[-1,0],[0,-1]],[[308,593],[1,0],[0,1]],[[369,1890],[4,0]],[[1067,695],[7,1]],[[1484,132],[0,-1]],[[2521,887],[0,1]],[[3910,567],[-1,3]],[[3929,581],[-10,-3]],[[277,502],[1,0],[-1,1],[0,-1]],[[310,597],[-1,1],[0,-1],[1,0]],[[934,426],[-4,-14]],[[931,412],[3,10]],[[847,409],[25,-3]],[[230,623],[10,-3]],[[240,620],[-3,1],[-7,2]],[[429,594],[-189,26]],[[806,415],[39,-5]],[[1252,214],[-7,-35]],[[877,518],[1,-10]],[[878,504],[1,-7],[1,-4],[1,-5]],[[881,486],[0,7],[-3,11]],[[881,488],[-13,-53]],[[869,434],[14,30],[-2,22]],[[505,604],[-2,1]],[[806,414],[0,3]],[[864,346],[0,-1]],[[911,445]],[[987,342],[41,1]],[[1018,346],[-31,-3]],[[0,556],[48,-3],[4,-28],[180,97]],[[232,622]],[[232,622],[3,1]],[[232,621],[0,1]],[[234,622],[-2,-1]],[[232,621],[0,1]],[[232,622]],[[235,623],[1,0]],[[236,623],[204,37]],[[236,622],[-1,1]],[[236,622],[0,1]],[[236,623]],[[237,621],[-1,1]],[[614,618],[-40,6]],[[1289,209],[55,-12]],[[1329,201],[-7,1],[0,5],[-32,4]],[[928,407],[-26,-3]],[[845,410],[2,-1]],[[872,406],[2,0]],[[227,622],[-42,-11],[-44,41],[-85,6],[-16,139],[-40,29]],[[227,622],[3,1]],[[230,623],[-3,-1]],[[429,647],[26,7]],[[487,631],[-7,11]],[[493,623],[89,-3]],[[719,594],[-115,23]],[[719,594],[48,-14]],[[755,597],[-23,2],[-13,-5]],[[766,587],[-1,9],[-8,0]],[[762,510],[12,51]],[[762,510],[4,-13]],[[767,580],[-1,7]],[[768,586],[-2,1]],[[766,497],[2,-30]],[[768,467],[-1,-9]],[[771,565],[-4,15]],[[768,457],[0,10]],[[771,565],[3,-4]],[[471,635],[0,-3],[7,-9],[15,-19]],[[491,608],[-19,31]],[[2009,324],[-2,-2]],[[999,357],[-6,6]],[[470,639],[1,-4]],[[472,639],[0,1]],[[1253,220],[3,-5]],[[1256,215],[1,0],[32,-6]],[[1290,211],[-32,4],[-1,0],[-1,0]],[[1256,215],[-2,2]],[[1116,314],[-23,-4],[-1,0],[-6,1]],[[1086,311],[-3,0],[-65,35]],[[1028,343],[2,-1],[15,-7],[15,-11],[26,-13]],[[1086,311],[2,-2],[12,1],[17,4]],[[1270,252],[-17,-32]],[[993,363],[-30,36]],[[1003,351],[-4,6]],[[862,407],[1,16]],[[841,496],[23,-2]],[[912,367],[-12,-8]],[[900,359],[5,2]],[[910,364],[4,4]],[[3908,575],[18,-79]],[[3934,481],[56,-99]],[[3989,381],[-38,-28],[101,-22],[44,-57]],[[481,667],[2,-10]],[[484,654],[1,-5]],[[767,458],[-1,0],[0,-1],[1,0],[0,1]],[[1245,179],[-25,-139],[31,-36],[-24,-4]],[[1254,217],[0,4]],[[0,438],[10,1],[31,21],[24,37],[18,-1],[12,6],[71,-4],[21,6],[75,-3],[35,0],[52,3]],[[349,504],[1,0],[1,-1]],[[351,503],[14,-19],[5,-6],[2,-2],[41,-24],[5,-5],[18,-12]],[[436,435],[26,-17]],[[462,418],[1,0],[29,5]],[[492,423],[-2,0],[-28,-5]],[[462,418],[-26,17]],[[436,435],[-18,12],[-5,5],[-41,24],[-15,26],[-6,1]],[[351,503],[-2,1]],[[349,504],[-1,0],[-158,0],[-16,-3],[-8,-3],[-71,5],[-37,-4],[-58,-61]],[[496,425],[-4,-2]],[[624,449],[-2,0],[-1,0],[-22,-8]],[[599,441],[-6,-2],[-19,11]],[[574,450],[-1,1],[-20,-3],[-61,-25]],[[492,423],[2,1]],[[492,423],[15,5],[42,18],[25,4]],[[574,450],[25,-9]],[[599,441],[5,-2],[20,10]],[[487,603],[-58,-9]],[[487,603],[20,-1],[27,3],[24,5],[18,2],[1,0],[3,-1]],[[580,611],[5,-3],[14,-12]],[[599,596],[4,-2],[12,-33],[10,-15],[181,-131]],[[806,417],[-180,128],[-23,49],[-4,2]],[[599,596],[-19,15]],[[580,611],[-2,1],[-2,1],[-52,-7],[-28,0],[-9,-3]],[[3926,496],[8,-15]],[[3990,382],[-1,-1]],[[309,592],[-32,-89]],[[277,500],[0,-1],[0,-1],[1,1],[-1,1]],[[458,663],[23,4]],[[4096,296],[0,-296],[-4096,0],[0,4096],[1542,0],[24,-106],[63,-155],[88,-135],[28,-74],[69,-111],[25,-24],[53,-32],[21,-57],[23,-64],[51,10],[-11,32],[43,6],[61,-13],[48,-25],[59,-68],[74,-137],[53,-146],[-7,-94],[-43,53],[-76,190],[49,-237],[-5,-95],[-84,-73],[45,9],[30,20],[28,26],[38,24],[-13,-15],[-3,-18],[5,-21],[11,-25],[11,35],[13,68],[16,37],[141,-392],[177,-419],[209,-351],[556,-731],[44,-34],[186,-228],[114,-114],[70,39],[26,-17],[77,-14],[16,-22],[2,-56],[9,-46],[22,-41],[38,-40],[80,-119]],[[3526,0],[-237,0],[-14,82],[37,45],[214,-127]],[[1300,130],[-53,28],[-9,95],[95,-2],[67,-31],[-37,-65],[-63,-25]],[[753,681],[93,-70],[36,-127],[171,89],[56,-24],[-33,-197],[64,-60],[1,-39],[-295,-25],[-191,124],[-32,99],[-65,0],[-43,86],[-86,12],[0,99],[32,33],[130,-66],[90,9],[72,57]],[[3848,516],[57,18],[87,-155],[-83,70],[-60,13],[-1,54]],[[2161,1205],[59,67],[52,-7],[52,44],[-12,14],[42,13],[26,-24],[13,15],[25,-54],[-56,-69],[-25,13],[-27,-43],[-26,10],[-46,-66],[-77,87]]]}