{"objects":{"water":{"type":"GeometryCollection","geometries":[{"type":"Polygon","properties":{"source":"naturalearthdata.com","kind":"ocean","area":1576712559132672,"sort_rank":200,"min_zoom":0.0,"id":1},"arcs":[[4]]},{"type":"LineString","properties":{"source":"naturalearthdata.com","kind":"ocean","sort_rank":205,"boundary":true,"min_zoom":0.0,"id":76},"arcs":[5]}]},"buildings":{"type":"GeometryCollection","geometries":[]},"places":{"type":"GeometryCollection","geometries":[{"type":"Point","properties":{"source":"naturalearthdata.com","kind":"locality","name":"Anna Regina","population":3113,"min_zoom":7.0,"id":2357},"coordinates":[1638,755]}]},"transit":{"type":"GeometryCollection","geometries":[]},"pois":{"type":"GeometryCollection","geometries":[]},"boundaries":{"type":"GeometryCollection","geometries":[{"type":"LineString","properties":{"name:pt":"Guiana","name:ps":"\u06ab\u0648\u064a\u0627\u0646\u0627","name:ka":"\u10d2\u10d0\u10d8\u10d0\u10dc\u10d0","name:ko":"\uac00\uc774\uc544\ub098","name:cv":"\u0413\u0430\u0439\u0430\u043d\u0430","name:kk":"\u0413\u0430\u0439\u0430\u043d\u0430","name:tt":"\u0413\u0430\u0439\u0430\u043d\u0430","name:kw":"Gwayana","min_zoom":8.0,"name:pa":"\u0a17\u0a41\u0a07\u0a06\u0a28\u0a3e","name:os":"\u0413\u0430\u0439\u0430\u043d\u00e6","name:or":"\u0b17\u0b3e\u0b07\u0b13\u0b28\u0b3e","name:ce":"\u0413\u0430\u0439\u0430\u043d\u0430","name:ta":"\u0b95\u0baf\u0bbe\u0ba9\u0bbe","name:ug":"\u06af\u0627\u064a\u0627\u0646\u0627","name:te":"\u0c17\u0c2f\u0c3e\u0c28\u0c3e","sort_rank":262,"name:qu":"Wayana","name:ba":"\u0413\u0430\u0439\u0430\u043d\u0430","source":"openstreetmap.org","osm_relation":true,"name:kn":"\u0c97\u0caf\u0cbe\u0ca8","name:dv":"\u078e\u07aa\u0794\u07a7\u0782\u07a7","name:lv":"Gaj\u0101na","name:lt":"Gajana","name:hi":"\u0917\u092f\u093e\u0928\u093e","name:he":"\u05d2\u05d9\u05d0\u05e0\u05d4","name:eo":"Gujano","name:ur":"\u06af\u06cc\u0627\u0646\u0627","name:la":"Guiana","name:uk":"\u0413\u0430\u044f\u043d\u0430","name:hy":"\u0533\u0561\u0575\u0561\u0576\u0561","name:ht":"Giy\u00e0n","name:hr":"Gvajana","name:el":"\u0393\u03bf\u03c5\u03b9\u03ac\u03bd\u03b1","kind":"country","name":"Guyana","name:th":"\u0e1b\u0e23\u0e30\u0e40\u0e17\u0e28\u0e01\u0e32\u0e22\u0e2d\u0e32\u0e19\u0e32","name:ln":"Gwiana","name:yi":"\u05d2\u05d5\u05d9\u05d0\u05e0\u05e2","name:yo":"G\u00f9y\u00e1n\u00e0","name:ay":"Wayana","name:mt":"Gujana","name:az":"Qayana","name:mr":"\u0917\u092f\u093e\u0928\u093e","name:ar":"\u063a\u0648\u064a\u0627\u0646\u0627","name:my":"\u1002\u102d\u102f\u1004\u103a\u101a\u102c\u1014\u102c\u1014\u102d\u102f\u1004\u103a\u1004\u1036","name:is":"Gv\u00e6jana","name:am":"\u130b\u12eb\u1293","name:ru":"\u0413\u0430\u0439\u0430\u043d\u0430","id":-287083,"name:ml":"\u0d17\u0d2f\u0d3e\u0d28","name:rw":"Giyana","name:pl":"Gujana","name:mk":"\u0413\u0432\u0430\u0458\u0430\u043d\u0430","name:vo":"Gvay\u00e4n","name:fa":"\u06af\u0648\u06cc\u0627\u0646","name:mn":"\u0413\u0430\u0439\u0430\u043d\u0430","kind_detail":"2","name:uz":"Gayana","name:fo":"Gujana","name:zh-yue":"\u572d\u4e9e\u90a3","name:zh":"\u572d\u4e9a\u90a3","name:sl":"Gvajana","name:ja":"\u30ac\u30a4\u30a2\u30ca","name:sh":"Gvajana","name:ne":"\u0917\u0941\u092f\u0928\u093e","name:sa":"\u0917\u092f\u093e\u0928\u093e","name:bs":"Gvajana","name:bn":"\u0997\u09be\u09af\u09bc\u09be\u09a8\u09be","name:bo":"\u0f42\u0f74\u0f0b\u0f61\u0f0b\u0f53\u0f0d","name:be":"\u0413\u0430\u044f\u043d\u0430","name:bg":"\u0413\u0432\u0438\u0430\u043d\u0430","name:wo":"Guyaana","name:sr":"\u0413\u0432\u0430\u0458\u0430\u043d\u0430","name:sq":"Guajana","name:ga":"An Ghu\u00e1in","name:gd":"Guiana","name:gn":"Guj\u00e1na","name:gl":"G\u00fciana","maritime_boundary":true,"name:gv":"Geeaaney","name:gu":"\u0a97\u0ac1\u0aaf\u0abe\u0aa8\u0abe"},"arcs":[0]},{"type":"LineString","properties":{"kind":"region","name":"Pomeroon-Supenaam - Barina-Waini","sort_rank":256,"kind_detail":"4","id:right":-7105826,"source":"openstreetmap.org","min_zoom":8.0,"id:left":-7105874,"name:left":"Pomeroon-Supenaam","id":-7105874,"osm_relation":true,"name:right":"Barina-Waini"},"arcs":[1]},{"type":"LineString","properties":{"kind":"region","name":"Pomeroon-Supenaam","sort_rank":256,"kind_detail":"4","source":"openstreetmap.org","min_zoom":8.0,"id":-7105874,"osm_relation":true},"arcs":[2]},{"type":"LineString","properties":{"kind":"region","name":"Barina-Waini","sort_rank":256,"kind_detail":"4","source":"openstreetmap.org","min_zoom":8.0,"id":-7105826,"osm_relation":true},"arcs":[3]}]},"roads":{"type":"GeometryCollection","geometries":[{"type":"LineString","properties":{"sort_rank":380,"kind_detail":"primary","min_zoom":8.0,"kind":"major_road","source":"openstreetmap.org"},"arcs":[6]}]},"earth":{"type":"GeometryCollection","geometries":[{"type":"MultiPolygon","properties":{"sort_rank":10,"source":"naturalearthdata.com","min_zoom":0.0,"kind":"earth","area":34108848810},"arcs":[[[7]]]}]},"landuse":{"type":"GeometryCollection","geometries":[]}},"type":"Topology","transform":{"translate":[-59.0625,7.0136679276],"scale":[0.0003433228,0.00034021]},"arcs":[[[2959,0],[-265,36],[-94,50],[-92,127],[-195,170],[-33,235],[6,359],[-51,200],[-93,173],[-593,776],[-118,97],[-193,100],[-127,182],[-322,282],[-435,503],[-354,294]],[[767,1956],[-254,-225],[-53,-14],[-4,-51],[-111,-67],[-257,-81],[-88,-78]],[[1677,0],[3,6],[36,371],[-43,135],[37,281],[-45,213],[-250,346],[-123,109],[-174,266],[-187,88],[-27,-27],[-46,16],[-91,152]],[[767,1956],[-91,154],[-113,64],[-195,188],[-368,438]],[[1683,0],[50,301],[-15,377],[15,127],[-19,-22],[29,94],[-22,98],[-53,90],[-228,227],[-46,66],[-74,91],[-61,99],[-48,73],[-48,59],[-56,54],[-61,51],[-72,25],[-40,2],[-6,-32],[29,-72],[-11,-19],[-48,70],[-71,148],[-75,99],[-85,124],[-149,119],[-398,447],[-120,112],[0,1288],[4096,0],[0,-4096],[-2225,0],[-2,3],[-38,27],[-41,-3],[-9,-27],[-98,0]],[[0,2808],[120,-112],[398,-447],[149,-119],[85,-124],[75,-99],[71,-148],[48,-70],[11,19],[-29,72],[6,32],[40,-2],[72,-25],[61,-51],[56,-54],[48,-59],[48,-73],[61,-99],[74,-91],[46,-66],[228,-227],[53,-90],[22,-98],[-29,-94],[19,22],[-15,-127],[15,-377],[-50,-301]],[[1661,0],[25,142],[25,244],[-45,125],[36,233],[-4,151],[-44,116],[-103,97],[-168,13]],[[0,0],[0,2808],[120,-112],[398,-447],[149,-119],[85,-124],[75,-99],[71,-148],[48,-70],[11,19],[-29,72],[6,32],[40,-2],[72,-25],[61,-51],[56,-54],[48,-59],[48,-73],[61,-99],[74,-91],[46,-66],[228,-227],[53,-90],[22,-98],[-29,-94],[19,22],[-15,-127],[15,-377],[-50,-301],[-1683,0]]]}