{"objects":{"water":{"type":"GeometryCollection","geometries":[{"type":"Polygon","properties":{"source":"naturalearthdata.com","kind":"ocean","area":1576712559132672,"sort_rank":200,"min_zoom":0.0,"id":1},"arcs":[[10],[11],[12]]},{"type":"LineString","properties":{"source":"naturalearthdata.com","kind":"ocean","sort_rank":205,"boundary":true,"min_zoom":0.0,"id":76},"arcs":[13]},{"type":"LineString","properties":{"source":"naturalearthdata.com","kind":"ocean","sort_rank":205,"boundary":true,"min_zoom":0.0,"id":322},"arcs":[14]}]},"buildings":{"type":"GeometryCollection","geometries":[]},"places":{"type":"GeometryCollection","geometries":[{"type":"Point","properties":{"source":"naturalearthdata.com","kind":"locality","name":"Linden","population":44690,"min_zoom":6.0,"id":4943},"coordinates":[2308,1096]},{"type":"Point","properties":{"source":"naturalearthdata.com","kind":"locality","name":"Bartica","population":11524,"min_zoom":7.0,"id":2356},"coordinates":[1260,2328]},{"type":"Point","properties":{"name:ka":"\u10ef\u10dd\u10e0\u10ef\u10e2\u10d0\u10e3\u10dc\u10d8","name:mr":"\u091c\u0949\u0930\u094d\u091c\u091f\u093e\u0909\u0928, \u0917\u092f\u093e\u0928\u093e","name:ko":"\uc870\uc9c0\ud0c0\uc6b4","name:kn":"\u0c9c\u0cbe\u0cb0\u0ccd\u0c9c\u0ccd\u0c9f\u0ccc\u0ca3\u0ccd","name:ar":"\u062c\u0648\u0631\u062c \u062a\u0627\u0648\u0646","name:th":"\u0e08\u0e2d\u0e23\u0e4c\u0e08\u0e17\u0e32\u0e27\u0e19\u0e4c","name:am":"\u1306\u122d\u1305\u1273\u12cd\u1295","name:be":"\u0414\u0436\u043e\u0440\u0434\u0436\u0442\u0430\u045e\u043d","name:os":"\u0414\u0436\u043e\u0440\u0434\u0436\u0442\u0430\u0443\u043d","name:ru":"\u0414\u0436\u043e\u0440\u0434\u0436\u0442\u0430\u0443\u043d","name:ta":"\u0b9c\u0bcb\u0bb0\u0bcd\u0b9c\u0bcd\u0b9f\u0bb5\u0bc1\u0ba3\u0bcd, \u0b95\u0baf\u0bbe\u0ba9\u0bbe","id":293789508,"name:mk":"\u040f\u043e\u0440\u045f\u0442\u0430\u0443\u043d","name:fa":"\u062c\u0648\u0631\u062c\u200c\u062a\u0627\u0648\u0646","kind_detail":"city","source":"openstreetmap.org","name:zh":"\u55ac\u6cbb\u6566","admin_level":"2","name:lv":"D\u017eord\u017etauna","name:ja":"\u30b8\u30e7\u30fc\u30b8\u30bf\u30a6\u30f3","name:lt":"D\u017eord\u017etaunas","name:he":"\u05d2'\u05d5\u05e8\u05d2'\u05d8\u05d0\u05d5\u05df","kind":"locality","name:ur":"\u062c\u0627\u0631\u062c \u0679\u0627\u0624\u0646","name:la":"Georgiopolis","name:uk":"\u0414\u0436\u043e\u0440\u0434\u0436\u0442\u0430\u0443\u043d","country_capital":true,"name:sv":"Georgetown, Guyana","name:ht":"J\u00f2jt\u00f2n","name:bg":"\u0414\u0436\u043e\u0440\u0434\u0436\u0442\u0430\u0443\u043d","name:sr":"\u040f\u043e\u0440\u045f\u0442\u0430\u0443\u043d","population":310320,"name:el":"\u03a4\u03b6\u03ce\u03c1\u03c4\u03b6\u03c4\u03b1\u03bf\u03c5\u03bd","name:eo":"\u011cor\u011dta\u016dno","name":"Georgetown","min_zoom":8.0,"name:bo":"\u0f45\u0f7c\u0f62\u0f0b\u0f45\u0f72\u0f0b\u0f50\u0f7c\u0f53\u0f0d"},"coordinates":[2620,3477]},{"type":"Point","properties":{"source":"openstreetmap.org","kind":"locality","name":"Linden","kind_detail":"city","population":60000,"min_zoom":8.0,"id":2667842900},"coordinates":[2200,1163]}]},"transit":{"type":"GeometryCollection","geometries":[]},"pois":{"type":"GeometryCollection","geometries":[]},"boundaries":{"type":"GeometryCollection","geometries":[{"type":"LineString","properties":{"name:pt":"Guiana","name:ps":"\u06ab\u0648\u064a\u0627\u0646\u0627","name:ka":"\u10d2\u10d0\u10d8\u10d0\u10dc\u10d0","name:ko":"\uac00\uc774\uc544\ub098","name:cv":"\u0413\u0430\u0439\u0430\u043d\u0430","name:kk":"\u0413\u0430\u0439\u0430\u043d\u0430","name:tt":"\u0413\u0430\u0439\u0430\u043d\u0430","name:kw":"Gwayana","min_zoom":8.0,"name:pa":"\u0a17\u0a41\u0a07\u0a06\u0a28\u0a3e","name:os":"\u0413\u0430\u0439\u0430\u043d\u00e6","name:or":"\u0b17\u0b3e\u0b07\u0b13\u0b28\u0b3e","name:ce":"\u0413\u0430\u0439\u0430\u043d\u0430","name:ta":"\u0b95\u0baf\u0bbe\u0ba9\u0bbe","name:ug":"\u06af\u0627\u064a\u0627\u0646\u0627","name:te":"\u0c17\u0c2f\u0c3e\u0c28\u0c3e","sort_rank":262,"name:qu":"Wayana","name:ba":"\u0413\u0430\u0439\u0430\u043d\u0430","source":"openstreetmap.org","osm_relation":true,"name:kn":"\u0c97\u0caf\u0cbe\u0ca8","name:dv":"\u078e\u07aa\u0794\u07a7\u0782\u07a7","name:lv":"Gaj\u0101na","name:lt":"Gajana","name:hi":"\u0917\u092f\u093e\u0928\u093e","name:he":"\u05d2\u05d9\u05d0\u05e0\u05d4","name:eo":"Gujano","name:ur":"\u06af\u06cc\u0627\u0646\u0627","name:la":"Guiana","name:uk":"\u0413\u0430\u044f\u043d\u0430","name:hy":"\u0533\u0561\u0575\u0561\u0576\u0561","name:ht":"Giy\u00e0n","name:hr":"Gvajana","name:el":"\u0393\u03bf\u03c5\u03b9\u03ac\u03bd\u03b1","kind":"country","name":"Guyana","name:th":"\u0e1b\u0e23\u0e30\u0e40\u0e17\u0e28\u0e01\u0e32\u0e22\u0e2d\u0e32\u0e19\u0e32","name:ln":"Gwiana","name:yi":"\u05d2\u05d5\u05d9\u05d0\u05e0\u05e2","name:yo":"G\u00f9y\u00e1n\u00e0","name:ay":"Wayana","name:mt":"Gujana","name:az":"Qayana","name:mr":"\u0917\u092f\u093e\u0928\u093e","name:ar":"\u063a\u0648\u064a\u0627\u0646\u0627","name:my":"\u1002\u102d\u102f\u1004\u103a\u101a\u102c\u1014\u102c\u1014\u102d\u102f\u1004\u103a\u1004\u1036","name:is":"Gv\u00e6jana","name:am":"\u130b\u12eb\u1293","name:ru":"\u0413\u0430\u0439\u0430\u043d\u0430","id":-287083,"name:ml":"\u0d17\u0d2f\u0d3e\u0d28","name:rw":"Giyana","name:pl":"Gujana","name:mk":"\u0413\u0432\u0430\u0458\u0430\u043d\u0430","name:vo":"Gvay\u00e4n","name:fa":"\u06af\u0648\u06cc\u0627\u0646","name:mn":"\u0413\u0430\u0439\u0430\u043d\u0430","kind_detail":"2","name:uz":"Gayana","name:fo":"Gujana","name:zh-yue":"\u572d\u4e9e\u90a3","name:zh":"\u572d\u4e9a\u90a3","name:sl":"Gvajana","name:ja":"\u30ac\u30a4\u30a2\u30ca","name:sh":"Gvajana","name:ne":"\u0917\u0941\u092f\u0928\u093e","name:sa":"\u0917\u092f\u093e\u0928\u093e","name:bs":"Gvajana","name:bn":"\u0997\u09be\u09af\u09bc\u09be\u09a8\u09be","name:bo":"\u0f42\u0f74\u0f0b\u0f61\u0f0b\u0f53\u0f0d","name:be":"\u0413\u0430\u044f\u043d\u0430","name:bg":"\u0413\u0432\u0438\u0430\u043d\u0430","name:wo":"Guyaana","name:sr":"\u0413\u0432\u0430\u0458\u0430\u043d\u0430","name:sq":"Guajana","name:ga":"An Ghu\u00e1in","name:gd":"Guiana","name:gn":"Guj\u00e1na","name:gl":"G\u00fciana","maritime_boundary":true,"name:gv":"Geeaaney","name:gu":"\u0a97\u0ac1\u0aaf\u0abe\u0aa8\u0abe"},"arcs":[0]},{"type":"MultiLineString","properties":{"kind":"region","name":"Upper Demerara-Berbice - East Berbice-Corentyne","sort_rank":256,"kind_detail":"4","id:right":-7109048,"source":"openstreetmap.org","min_zoom":8.0,"id:left":-7109155,"name:left":"Upper Demerara-Berbice","id":-7109155,"osm_relation":true,"name:right":"East Berbice-Corentyne"},"arcs":[[1],[2]]},{"type":"LineString","properties":{"kind":"region","name":"Upper Demerara-Berbice - Cuyuni-Mazaruni","sort_rank":256,"kind_detail":"4","id:right":-7108866,"source":"openstreetmap.org","min_zoom":8.0,"id:left":-7109155,"name:left":"Upper Demerara-Berbice","id":-7109155,"osm_relation":true,"name:right":"Cuyuni-Mazaruni"},"arcs":[3]},{"type":"LineString","properties":{"kind":"region","name":"Upper Demerara-Berbice","sort_rank":256,"kind_detail":"4","source":"openstreetmap.org","min_zoom":8.0,"id":-7109155,"osm_relation":true},"arcs":[4]},{"type":"MultiLineString","properties":{"kind":"region","name":"East Berbice-Corentyne","sort_rank":256,"kind_detail":"4","source":"openstreetmap.org","min_zoom":8.0,"id":-7109048,"osm_relation":true},"arcs":[[5],[6]]},{"type":"LineString","properties":{"kind":"region","name":"Cuyuni-Mazaruni - Pomeroon-Supenaam","sort_rank":256,"kind_detail":"4","id:right":-7105874,"source":"openstreetmap.org","min_zoom":8.0,"id:left":-7108866,"name:left":"Cuyuni-Mazaruni","id":-7108866,"osm_relation":true,"name:right":"Pomeroon-Supenaam"},"arcs":[7]},{"type":"LineString","properties":{"kind":"region","name":"Cuyuni-Mazaruni","sort_rank":256,"kind_detail":"4","source":"openstreetmap.org","min_zoom":8.0,"id":-7108866,"osm_relation":true},"arcs":[8]},{"type":"LineString","properties":{"kind":"region","name":"Pomeroon-Supenaam","sort_rank":256,"kind_detail":"4","source":"openstreetmap.org","min_zoom":8.0,"id":-7105874,"osm_relation":true},"arcs":[9]}]},"roads":{"type":"GeometryCollection","geometries":[{"type":"MultiLineString","properties":{"sort_rank":380,"kind_detail":"primary","min_zoom":8.0,"kind":"major_road","source":"openstreetmap.org"},"arcs":[[15],[16],[17],[18],[19],[20],[21],[22],[23],[24],[25],[26],[27],[28]]},{"type":"LineString","properties":{"source":"openstreetmap.org","kind":"major_road","sort_rank":380,"kind_detail":"primary","ref":"401","min_zoom":8.0},"arcs":[29]},{"type":"MultiLineString","properties":{"source":"openstreetmap.org","bus_network":null,"bus_shield_text":"32 to Georgetown","sort_rank":380,"kind_detail":"primary","min_zoom":8.0,"kind":"major_road"},"arcs":[[30],[31],[32]]},{"type":"LineString","properties":{"source":"openstreetmap.org","kind":"ferry","name":"Speedboats to Supenaam","sort_rank":355,"min_zoom":8.0,"id":84596747},"arcs":[33]},{"type":"LineString","properties":{"source":"openstreetmap.org","kind":"highway","landuse_kind":"urban_area","sort_rank":383,"kind_detail":"motorway","min_zoom":8.0,"id":47330769},"arcs":[34]},{"type":"LineString","properties":{"kind":"major_road","sort_rank":380,"kind_detail":"primary","bus_network":null,"source":"openstreetmap.org","min_zoom":8.0,"bus_shield_text":"42 North","landuse_kind":"urban_area","id":4680241},"arcs":[35]},{"type":"LineString","properties":{"kind":"major_road","sort_rank":380,"kind_detail":"primary","bus_network":null,"source":"openstreetmap.org","min_zoom":8.0,"bus_shield_text":"42 South","landuse_kind":"urban_area","id":4680076},"arcs":[36]},{"type":"MultiLineString","properties":{"source":"openstreetmap.org","kind":"major_road","landuse_kind":"urban_area","sort_rank":380,"kind_detail":"primary","min_zoom":8.0},"arcs":[[37],[38],[39],[40],[41],[42],[43],[44],[45],[46],[47],[48],[49],[50],[51],[52],[53],[54],[55],[56],[57],[58]]},{"type":"MultiLineString","properties":{"source":"openstreetmap.org","bus_network":null,"bus_shield_text":"42 North","sort_rank":380,"kind_detail":"primary","min_zoom":8.0,"kind":"major_road"},"arcs":[[59],[60],[61],[62]]},{"type":"LineString","properties":{"source":"openstreetmap.org","kind":"highway","sort_rank":383,"kind_detail":"motorway","is_bicycle_related":true,"min_zoom":8.0,"id":436775370},"arcs":[63]},{"type":"LineString","properties":{"bus_network":null,"sort_rank":380,"kind_detail":"primary","kind":"major_road","source":"openstreetmap.org","min_zoom":8.0,"bus_shield_text":"40","landuse_kind":"urban_area"},"arcs":[64]},{"type":"MultiLineString","properties":{"source":"openstreetmap.org","bus_network":null,"bus_shield_text":"42 South","sort_rank":380,"kind_detail":"primary","min_zoom":8.0,"kind":"major_road"},"arcs":[[65],[66]]},{"type":"LineString","properties":{"kind":"major_road","sort_rank":380,"kind_detail":"primary","bus_network":null,"source":"openstreetmap.org","min_zoom":8.0,"bus_shield_text":"32 to Parika","id":34263212},"arcs":[67]},{"type":"LineString","properties":{"bus_network":null,"sort_rank":380,"kind_detail":"primary","kind":"major_road","source":"openstreetmap.org","min_zoom":8.0,"bus_shield_text":"32 to Georgetown","landuse_kind":"urban_area"},"arcs":[68]},{"type":"LineString","properties":{"kind":"major_road","sort_rank":380,"kind_detail":"primary","bus_network":null,"source":"openstreetmap.org","min_zoom":8.0,"bus_shield_text":"47 Back Road","loc_name":"Back Road","landuse_kind":"urban_area","id":30755813},"arcs":[69]}]},"earth":{"type":"GeometryCollection","geometries":[{"type":"MultiPolygon","properties":{"sort_rank":10,"source":"naturalearthdata.com","min_zoom":0.0,"kind":"earth","area":34108848810},"arcs":[[[70]],[[71]]]}]},"landuse":{"type":"GeometryCollection","geometries":[{"type":"Polygon","properties":{"source":"naturalearthdata.com","kind":"urban_area","name":"","area":31727264,"sort_rank":11,"min_zoom":4.0,"id":3766},"arcs":[[72]]}]}},"type":"Topology","transform":{"translate":[-59.0625,5.6159858192],"scale":[0.0003433228,0.000341231]},"arcs":[[[4096,3309],[-707,624],[-309,146],[-121,17]],[[4042,0],[54,201]],[[4096,595],[-67,73],[26,55]],[[1299,2596],[-19,-160],[54,-8],[8,-274],[67,-120],[-6,-65],[31,-91],[-6,-322],[-60,-164],[16,-57],[-19,-35],[44,-138],[-18,-191],[31,-114],[-51,-102],[-2,-94],[-54,-93],[26,-111],[-22,-125],[14,-85],[-26,-71],[43,-82],[-18,-94]],[[4055,723],[-183,45],[-108,-29],[-149,12],[-102,-82],[-53,3],[-24,67],[-138,25],[-15,57],[-61,45],[-7,45],[-71,15],[-55,66],[-147,25],[-57,42],[-128,-2],[-61,28],[-18,66],[21,57],[-3,172],[-66,18],[-47,-25],[-68,106],[-51,15],[-177,-103],[-332,137],[-83,406],[-36,76],[-112,111],[-174,98],[-84,267],[-167,110]],[[4096,1127],[-22,31],[-81,26],[-55,-75],[7,-32],[76,-53],[10,-139],[65,-89]],[[4096,732],[-41,-9]],[[645,3267],[-89,45],[-17,94],[-58,14],[-91,-24],[-75,34],[-32,36],[-20,151],[-44,58],[-138,6],[-81,-74]],[[1299,2596],[-56,35],[-128,-60],[-79,77],[-45,-1],[-172,107],[-151,-4],[-61,44],[74,381],[-36,92]],[[645,3267],[35,42],[183,81],[55,67],[27,140],[54,49],[125,-22],[57,72],[296,144],[54,83],[106,73],[40,100]],[[4096,2549],[-34,30],[-92,75],[-167,135],[-64,66],[-53,23],[-27,44],[-93,94],[-156,150],[-78,59],[-109,107],[-87,65],[-58,49],[-181,87],[-250,31],[-25,-8],[-10,-34],[-11,-13],[-12,6],[-13,6],[-25,21],[-8,10],[-15,9],[-57,53],[-174,92],[-111,34],[-124,6],[-128,-32],[-106,-75],[-78,-105],[-307,-543],[-30,-123],[-11,-384],[-48,-118],[22,-18],[-35,-2],[-14,-1],[-25,4],[-39,17],[-12,-10],[-8,-16],[-8,-12],[-30,-18],[-90,-82],[-7,10],[-13,8],[194,277],[9,33],[16,63],[0,522],[6,33],[28,36],[6,30],[-6,192],[6,62],[69,176],[17,113],[19,60],[32,58],[44,53],[46,36],[65,51],[36,47],[1,8],[98,0],[-18,-48],[-38,-72],[-38,-78],[-44,-82],[-11,-47],[34,-4],[42,61],[10,45],[45,78],[48,54],[58,31],[31,34],[-29,28],[2225,0],[0,-1547]],[[1762,3830],[-17,-66],[8,-50],[57,63],[146,44],[164,121],[3,12],[-131,20],[-90,5],[-27,-5],[-11,-11],[-27,-40],[-44,-34],[-31,-59]],[[1426,3240],[20,-17],[24,65],[14,78],[58,86],[69,126],[41,51],[28,44],[-7,27],[-41,-10],[-58,-37],[-38,-27],[-62,-113],[-20,-61],[-14,-85],[-18,-82],[4,-45]],[[1683,4096],[-1,-8],[-36,-47],[-65,-51],[-46,-36],[-44,-53],[-32,-58],[-19,-60],[-17,-113],[-69,-176],[-6,-62],[6,-192],[-6,-30],[-28,-36],[-6,-33],[0,-522],[-16,-63],[-9,-33],[-194,-277],[13,-8],[7,-10],[90,82],[30,18],[8,12],[8,16],[12,10],[39,-17],[25,-4],[14,1],[35,2],[-22,18],[48,118],[11,384],[30,123],[307,543],[78,105],[106,75],[128,32],[124,-6],[111,-34],[174,-92],[57,-53],[15,-9],[8,-10],[25,-21],[13,-6],[12,-6],[11,13],[10,34],[25,8],[250,-31],[181,-87],[58,-49],[87,-65],[109,-107],[78,-59],[156,-150],[93,-94],[27,-44],[53,-23],[64,-66],[167,-135],[92,-75],[34,-30]],[[1992,3974],[-90,5],[-27,-5],[-11,-11],[-27,-40],[-44,-34],[-31,-59],[-17,-66],[8,-50],[57,63],[146,44],[164,121],[3,12],[-131,20]],[[1586,3970],[63,58],[12,68]],[[2212,3279],[282,-23]],[[2499,3306],[0,-1]],[[2538,3228],[-3,10],[8,39],[24,65]],[[2543,3277],[-3,-70]],[[2543,3437],[1,0]],[[2582,3383],[1,0]],[[2836,3524],[-114,15]],[[2723,3541],[113,-17]],[[2883,3516],[-47,8]],[[3230,3289],[-280,196]],[[3579,2914],[-250,191],[-45,134],[-53,49]],[[3579,2914],[4,-4]],[[4096,2470],[-41,46],[-79,82],[-290,196],[-103,116]],[[2950,3485],[-67,31]],[[2538,3496],[-38,4],[-77,98],[-246,107],[-319,-50]],[[2579,3373],[-57,31],[21,33]],[[2544,3437],[9,25]],[[1858,3655],[-143,21],[-31,76],[-102,-13],[49,149],[-45,82]],[[2687,3468],[-36,10]],[[2604,3432],[0,1]],[[2615,3449],[-11,-18]],[[2604,3433],[11,16]],[[2646,3442],[8,30]],[[2654,3472],[-7,-31]],[[2650,3461],[-1,-3]],[[2655,3480],[-1,-8]],[[2654,3472],[0,10]],[[2654,3482],[1,3]],[[2655,3480],[-1,2]],[[2655,3485],[9,9],[4,15],[2,7],[7,28]],[[2677,3544]],[[2655,3485],[0,-5]],[[2678,3544]],[[2678,3544],[0,-1],[-5,-15]],[[2678,3544]],[[2678,3544],[-1,0]],[[2677,3544],[-40,-8],[40,8]],[[2677,3544],[1,0]],[[2678,3544]],[[2678,3544],[1,0]],[[2679,3544],[44,-3]],[[2722,3539],[-30,1],[-7,2],[-6,2]],[[2679,3544],[-1,0]],[[2538,3228],[18,-105]],[[2567,3342],[-24,-65]],[[2567,3342],[15,41]],[[2583,3383],[21,49]],[[2508,3356]],[[2673,3528],[-9,-34]],[[2556,3123],[-66,-180],[3,-58],[-84,-161],[-97,-100]],[[2604,3431],[-37,-89]],[[2579,3373]],[[2553,3462],[11,31],[-26,3]],[[2615,3449],[32,-8]],[[1810,3777],[-57,-63],[-8,50],[17,66],[31,59],[44,34],[27,40],[11,11],[27,5],[90,-5],[131,-20],[-3,-12],[-164,-121],[-146,-44]],[[4096,2549],[0,-2549],[-4096,0],[0,4096],[1683,0],[-1,-8],[-36,-47],[-65,-51],[-46,-36],[-44,-53],[-32,-58],[-19,-60],[-17,-113],[-69,-176],[-6,-62],[6,-192],[-6,-30],[-28,-36],[-6,-33],[0,-522],[-16,-63],[-9,-33],[-194,-277],[13,-8],[7,-10],[90,82],[30,18],[8,12],[8,16],[12,10],[39,-17],[25,-4],[14,1],[35,2],[-22,18],[48,118],[11,384],[30,123],[307,543],[78,105],[106,75],[128,32],[124,-6],[111,-34],[174,-92],[57,-53],[15,-9],[8,-10],[25,-21],[13,-6],[12,-6],[11,13],[10,34],[25,8],[250,-31],[181,-87],[58,-49],[87,-65],[109,-107],[78,-59],[156,-150],[93,-94],[27,-44],[53,-23],[64,-66],[167,-135],[92,-75],[34,-30]],[[2589,3515],[58,49],[87,-11],[-20,-23],[28,-16],[-40,-68],[-71,-23],[-71,22],[-62,144],[91,-74]]]}