{"objects":{"water":{"type":"GeometryCollection","geometries":[]},"buildings":{"type":"GeometryCollection","geometries":[]},"places":{"type":"GeometryCollection","geometries":[{"type":"Point","properties":{"name:pt":"Paraguai","name:ka":"\u10de\u10d0\u10e0\u10d0\u10d2\u10d5\u10d0\u10d8","name:ko":"\ud30c\ub77c\uacfc\uc774","name:cv":"\u041f\u0430\u0440\u0430\u0433\u0432\u0430\u0439","name:kk":"\u041f\u0430\u0440\u0430\u0433\u0432\u0430\u0439","name:tt":"\u041f\u0430\u0440\u0430\u0433\u0432\u0430\u0439","name:kw":"Paragway","min_zoom":2.0,"name:pa":"\u0a2a\u0a48\u0a30\u0a3e\u0a17\u0a41\u0a0f","name:os":"\u041f\u0430\u0440\u0430\u0433\u0432\u0430\u0439","name:or":"\u0b2a\u0b3e\u0b30\u0b3e\u0b17\u0b41\u0b0f","name:ce":"\u041f\u0430\u0440\u0430\u0433\u0432\u0430\u0439","name:ta":"\u0baa\u0bb0\u0b95\u0bc1\u0bb5\u0bc8","name:tg":"\u041f\u0430\u0440\u0430\u0433\u0432\u0430\u0439","name:ca":"Paraguai","name:hr":"Paragvaj","name:sr":"\u041f\u0430\u0440\u0430\u0433\u0432\u0430\u0458","source":"openstreetmap.org","name:kn":"\u0caa\u0cc6\u0cb0\u0c97\u0ccd\u0cb5\u0cc6","name:dv":"\u0795\u07ac\u0783\u07a6\u078e\u07aa\u0787\u07ad","name:lv":"Paragvaja","name:lt":"Paragvajus","name:hi":"\u092a\u0948\u0930\u093e\u0917\u094d\u0935\u0947","name:he":"\u05e4\u05e8\u05d2\u05d5\u05d5\u05d0\u05d9","kind":"country","name:ur":"\u067e\u06cc\u0631\u0627\u06af\u0648\u0626\u06d2","name:la":"Paraquaria","name:uk":"\u041f\u0430\u0440\u0430\u0433\u0432\u0430\u0439","name:hy":"\u054a\u0561\u0580\u0561\u0563\u057e\u0561\u0575","name:ug":"\u067e\u0627\u0631\u0627\u06af\u06cb\u0627\u064a","name:qu":"Parawayi","name:oc":"Paraguai","population":7012433,"name:el":"\u03a0\u03b1\u03c1\u03b1\u03b3\u03bf\u03c5\u03ac\u03b7","name:eo":"Paragvajo","name":"Paraguay","name:th":"\u0e1b\u0e23\u0e30\u0e40\u0e17\u0e28\u0e1b\u0e32\u0e23\u0e32\u0e01\u0e27\u0e31\u0e22","name:ln":"Palagway","name:eu":"Paraguai","name:yo":"Parag\u00fa\u00e1\u00ec","name:ay":"Parawayi","name:mt":"Paragwaj","name:az":"Paraqvay","name:mr":"\u092a\u0947\u0930\u093e\u0917\u094d\u0935\u0947","name:ar":"\u0628\u0627\u0631\u0627\u063a\u0648\u0627\u064a","name:my":"\u1015\u102b\u101b\u102c\u1002\u103d\u1031\u1038\u1014\u102d\u102f\u1004\u103a\u1004\u1036","name:is":"Paragv\u00e6","name:am":"\u1353\u122b\u1313\u12ed","name:an":"Paraguai","name:ru":"\u041f\u0430\u0440\u0430\u0433\u0432\u0430\u0439","name:rw":"Paragwe","id":1644764586,"name:mk":"\u041f\u0430\u0440\u0430\u0433\u0432\u0430\u0458","name:vo":"Paragv\u00e4n","name:fa":"\u067e\u0627\u0631\u0627\u06af\u0648\u0626\u0647","name:mn":"\u041f\u0430\u0440\u0430\u0433\u0432\u0430\u0439","name:uz":"Paragvay","name:fo":"Paraguei","name:zh-yue":"\u5df4\u62c9\u572d","name:zh":"\u5df4\u62c9\u572d","name:sl":"Paragvaj","name:sk":"Paraguaj","name:ja":"\u30d1\u30e9\u30b0\u30a2\u30a4","name:sh":"Paragvaj","name:ne":"\u092a\u093e\u0930\u093e\u0917\u094d\u0935\u0947","name:sa":"\u092a\u0947\u0930\u0947\u0917\u094d\u0935\u093e\u092f","name:bs":"Paragvaj","name:yi":"\u05e4\u05d0\u05e8\u05d0\u05d2\u05d5\u05d5\u05d9\u05d9","name:bn":"\u09aa\u09cd\u09af\u09be\u09b0\u09be\u0997\u09c1\u09af\u09bc\u09c7","name:bo":"\u0f54\u0f0b\u0f62\u0f0b\u0f42\u0f74\u0f0b\u0f61\u0f7a\u0f0d","name:ml":"\u0d2a\u0d30\u0d17\u0d4d\u0d35\u0d46","name:be":"\u041f\u0430\u0440\u0430\u0433\u0432\u0430\u0439","name:bg":"\u041f\u0430\u0440\u0430\u0433\u0432\u0430\u0439","name:wo":"Paraguwaay","name:ba":"\u041f\u0430\u0440\u0430\u0433\u0432\u0430\u0439","name:sq":"Paraguaji","name:ga":"Paragua","name:gd":"Paraguaidh","name:ht":"Paragwe","name:gn":"Paragu\u00e1i","name:gl":"Paraguai - Paraguay","name:pl":"Paragwaj","name:gv":"Yn Pharaguay"},"coordinates":[2602,3856]},{"type":"Point","properties":{"kind":"region","name":"Departamento de Presidente Hayes","kind_detail":"state","min_zoom":4.0,"source":"openstreetmap.org","name:fr":"Presidente Hayes","name:ru":"\u041f\u0440\u0435\u0441\u0438\u0434\u0435\u043d\u0442\u0435-\u0410\u0435\u0441","id":313928971,"population":81876},"coordinates":[667,3272]},{"type":"Point","properties":{"kind":"locality","name":"Pozo Colorado","kind_detail":"town","source":"openstreetmap.org","min_zoom":8.0,"name:ru":"\u041f\u043e\u0441\u043e-\u041a\u043e\u043b\u043e\u0440\u0430\u0434\u043e","id":313927553,"population":1706},"coordinates":[773,3296]}]},"transit":{"type":"GeometryCollection","geometries":[]},"pois":{"type":"GeometryCollection","geometries":[]},"boundaries":{"type":"GeometryCollection","geometries":[]},"roads":{"type":"GeometryCollection","geometries":[{"type":"MultiLineString","properties":{"source":"openstreetmap.org","kind":"major_road","sort_rank":380,"kind_detail":"primary","ref":"RN 9","min_zoom":8.0,"osm_relation":true},"arcs":[[0],[1],[2],[3],[4],[5],[6],[7],[8],[9]]},{"type":"LineString","properties":{"kind":"major_road","network":null,"sort_rank":380,"kind_detail":"primary","source":"openstreetmap.org","min_zoom":8.0,"shield_text":"12","id":165239653},"arcs":[10]},{"type":"MultiLineString","properties":{"source":"openstreetmap.org","kind":"major_road","sort_rank":380,"kind_detail":"primary","ref":"RN 5","min_zoom":8.0,"osm_relation":true},"arcs":[[11],[12],[13],[14]]},{"type":"MultiLineString","properties":{"source":"openstreetmap.org","kind":"major_road","network":null,"sort_rank":380,"kind_detail":"primary","min_zoom":8.0,"shield_text":"5"},"arcs":[[15],[16],[17],[18]]},{"type":"MultiLineString","properties":{"source":"openstreetmap.org","kind":"major_road","network":null,"sort_rank":380,"kind_detail":"primary","min_zoom":8.0,"shield_text":"9"},"arcs":[[19],[20],[21],[22],[23],[24],[25],[26]]}]},"earth":{"type":"GeometryCollection","geometries":[{"type":"Polygon","properties":{"sort_rank":10,"source":"naturalearthdata.com","kind":"earth","min_zoom":0.0,"id":4462},"arcs":[[27]]}]},"landuse":{"type":"GeometryCollection","geometries":[]}},"type":"Topology","transform":{"translate":[-59.0625,-24.5271348226],"scale":[0.0003433228,0.0003139133]},"arcs":[[[782,3293],[-68,72],[-714,319]],[[782,3293],[0,-1]],[[783,3292],[-1,1]],[[783,3290],[1,0]],[[784,3290],[0,1]],[[799,3266],[-15,24]],[[799,3266],[2,-3]],[[3010,0],[-56,168],[5,134],[-503,377],[-112,54],[-133,313],[26,55],[-7,61],[-350,542],[-96,252],[12,157],[-143,158],[-179,92],[-99,126],[-304,240],[-19,99],[-175,255],[-76,180]],[[782,3291],[1,-1],[1,1],[-1,1]],[[783,3292],[-1,-1]],[[618,0],[-107,36],[-66,98],[-219,-10],[-226,24]],[[785,3291],[-1,1]],[[784,3291],[1,0]],[[785,3291],[1332,-1],[128,-47],[1539,-35],[94,27],[101,79],[117,30]],[[782,3291],[1,-1],[1,1],[-1,1],[-1,-1]],[[785,3291],[-1,1]],[[784,3291],[1,0]],[[785,3291],[1332,-1],[128,-47],[1534,-37],[99,29],[101,79],[117,30]],[[782,3291],[1,-1],[1,1],[-1,1],[-1,-1]],[[782,3293],[-29,46],[-264,136],[-489,209]],[[782,3293],[0,-1]],[[783,3292],[-1,1]],[[783,3290],[1,0]],[[784,3290],[0,1]],[[799,3266],[-15,24]],[[799,3266],[2,-3]],[[3010,0],[-56,168],[3,137],[-310,244],[-299,180],[-137,317],[19,116],[-348,539],[-92,280],[1,138],[-137,151],[-180,93],[-122,155],[-280,209],[-19,99],[-176,257],[-76,180]],[[0,0],[0,4096],[4096,0],[0,-4096],[-4096,0]]]}