{"objects":{"water":{"type":"GeometryCollection","geometries":[{"type":"Polygon","properties":{"source":"naturalearthdata.com","kind":"ocean","area":1576712559132672,"sort_rank":200,"min_zoom":0.0,"id":1},"arcs":[[12]]},{"type":"LineString","properties":{"source":"naturalearthdata.com","kind":"ocean","sort_rank":205,"boundary":true,"min_zoom":0.0,"id":75},"arcs":[13]}]},"buildings":{"type":"GeometryCollection","geometries":[]},"places":{"type":"GeometryCollection","geometries":[{"type":"Point","properties":{"kind":"locality","name:en":"Gualeguaychu","name":"Gualeguaych\u00fa","kind_detail":"city","source":"openstreetmap.org","min_zoom":8.0,"id":198451982,"population":209461},"coordinates":[1608,448]},{"type":"Point","properties":{"kind":"locality","name":"Paysand\u00fa","kind_detail":"city","source":"openstreetmap.org","min_zoom":8.0,"name:uk":"\u041f\u0430\u0439\u0441\u0430\u043d\u0434\u0443","name:ru":"\u041f\u0430\u0439\u0441\u0430\u043d\u0434\u0443","id":302608039,"population":76429},"coordinates":[2835,2819]},{"type":"Point","properties":{"kind":"locality","name":"Fray Bentos","kind_detail":"city","source":"openstreetmap.org","min_zoom":8.0,"old_name":"Independencia","id":313943603,"population":24406},"coordinates":[2183,73]},{"type":"Point","properties":{"source":"openstreetmap.org","kind":"locality","name":"Villa Elisa","kind_detail":"town","population":11117,"min_zoom":8.0,"id":198434176},"coordinates":[1928,3367]},{"type":"Point","properties":{"source":"openstreetmap.org","kind":"locality","name":"Nuevo Paysand\u00fa","kind_detail":"town","population":8578,"min_zoom":8.0,"id":1376334001},"coordinates":[2851,2997]},{"type":"Point","properties":{"source":"openstreetmap.org","kind":"locality","name":"Chacras de Paysand\u00fa","kind_detail":"town","population":3965,"min_zoom":8.0,"id":1376316097},"coordinates":[3070,2743]},{"type":"Point","properties":{"source":"openstreetmap.org","kind":"locality","name":"Nuevo Berl\u00edn","kind_detail":"town","population":2450,"min_zoom":8.0,"id":332595126},"coordinates":[2929,543]},{"type":"Point","properties":{"source":"openstreetmap.org","kind":"locality","name":"San Javier","kind_detail":"town","population":1781,"min_zoom":8.0,"id":1338520866},"coordinates":[2706,1628]},{"type":"Point","properties":{"source":"openstreetmap.org","kind":"locality","name":"San F\u00e9lix","kind_detail":"town","population":1718,"min_zoom":8.0,"id":1376293967},"coordinates":[2799,2717]},{"type":"Point","properties":{"source":"openstreetmap.org","kind":"locality","name":"Porvenir","kind_detail":"town","population":1159,"min_zoom":8.0,"id":1376316066},"coordinates":[3188,2572]}]},"transit":{"type":"GeometryCollection","geometries":[{"type":"LineString","properties":{"source":"openstreetmap.org","kind":"train","name":"Central Entrerriano","sort_rank":275,"min_zoom":6.0,"osm_relation":true,"id":-1351416},"arcs":[11]}]},"pois":{"type":"GeometryCollection","geometries":[]},"boundaries":{"type":"GeometryCollection","geometries":[{"type":"LineString","properties":{"name:right:yo":"Arg\u1eb9nt\u00edn\u00e0","name:left:la":"Uraquaria","name:right:qu":"Arhintina","name:right:yi":"\u05d0\u05b7\u05e8\u05d2\u05e2\u05e0\u05d8\u05d9\u05e0\u05e2","name:left:lg":"Wurugwayi","name:left:li":"Urugay","name:left:sw":"Urugwai","name:left:ru":"\u0423\u0440\u0443\u0433\u0432\u0430\u0439","name:left:sq":"Uruguaji","name:right:hu":"Argent\u00edna","name:left:ln":"Ulugwai","name:left:lo":"\u0ead\u0eb8\u0ea5\u0eb8\u0e81\u0ea7\u0e8d","name:left:sl":"Urugvaj","name:left:so":"Uruguwaay","name:left:lt":"Urugvajus","name:left:sh":"Urugvaj","name:left:lv":"Urugvaja","name:right:mr":"\u0906\u0930\u094d\u091c\u0947\u0928\u094d\u091f\u093f\u0928\u093e","name:left:sg":"Urugu\u00ebe","name:left:sa":"\u0909\u0930\u0941\u0917\u094d\u0935\u093e\u092f","name:right:he":"\u05d0\u05e8\u05d2\u05e0\u05d8\u05d9\u05e0\u05d4","name:right:af":"Argentini\u00eb","name:left:ce":"\u0423\u0440\u0443\u0433\u0432\u0430\u0439","name:right:an":"Archentina","name:right:am":"\u12a0\u122d\u1300\u1295\u1272\u1293","name:left:ca":"Uruguai","source":"openstreetmap.org","name:right:as":"\u0986\u09f0\u09cd\u099c\u09c7\u09a3\u09cd\u099f\u09bf\u09a8\u09be","name:right:ar":"\u0627\u0644\u0623\u0631\u062c\u0646\u062a\u064a\u0646","old_name:right:vi":"\u00c1 C\u0103n \u0110\u00ecnh","name:left:cu":"\u041e\u0443\u0440\u043e\u0443\u0433\u0432\u0430\u0438","name:left:cv":"\u0423\u0440\u0443\u0433\u0432\u0430\u0439","name:right:ay":"Arxintina","name:right:ak":"Agy\u025bntina","name:left:ka":"\u10e3\u10e0\u10e3\u10d2\u10d5\u10d0\u10d8","name:left:yi":"\u05d0\u05d5\u05e8\u05d5\u05d2\u05d5\u05d5\u05d9\u05d9","name:left:km":"\u17a2\u17ca\u17bb\u1799\u179a\u17bb\u1799\u17a0\u17d2\u1782\u17b6\u1799","name:right:ht":"Ajantin","name:left:ko":"\uc6b0\ub8e8\uacfc\uc774","name:left:kn":"\u0c89\u0cb0\u0cc1\u0c97\u0ccd\u0cb5\u0cc6","name:left:ki":"Urugwai","name:right:rw":"Arijantine","name:left:kk":"\u0423\u0440\u0443\u0433\u0432\u0430\u0439","name:right:ru":"\u0410\u0440\u0433\u0435\u043d\u0442\u0438\u0301\u043d\u0430","name:left:ku":"\u00dbr\u00fbguay","name:left:kw":"Urugway","name:right:rn":"Argentine","name:left:rw":"Irigwe","name:left:ks":"\u06cc\u0648\u0657\u0631\u0648\u06af\u06d2","name:right:rm":"Argentinia","name:left:sr":"\u0423\u0440\u0443\u0433\u0432\u0430\u0458","name":"Uruguay - Argentina","name:right:bn":"\u0986\u09b0\u09cd\u099c\u09c7\u09a8\u09cd\u099f\u09bf\u09a8\u09be","name:right:bo":"\u0f68\u0f62\u0f0b\u0f47\u0f7a\u0f53\u0f0b\u0f4a\u0f72\u0f0b\u0f53\u0f0d","name:right:zu":"i-Argentina","alt_name:right:qu":"Qullqillaqta","name:right:ba":"\u0410\u0440\u0433\u0435\u043d\u0442\u0438\u0301\u043d\u0430","name:right:th":"\u0e2d\u0e32\u0e23\u0e4c\u0e40\u0e08\u0e19\u0e15\u0e34\u0e19\u0e32","name:right:bg":"\u0410\u0440\u0436\u0435\u043d\u0442\u045d\u043d\u0430","name:left:zu":"i-Uruguay","name:left:zh":"\u4e4c\u62c9\u572d","name:right:br":"Arc'hantina","name:left:si":"\u0d8b\u0dbb\u0dd4\u0d9c\u0dd4\u0dc0\u0dcf\u0dba\u0dd2","name:right:zh":"\u963f\u6839\u5ef7","official_name:left":"Rep\u00fablica Oriental del Uruguay","name:left:uz":"Urugvay","name:right:nl":"Argentini\u00eb","name:right:wa":"\u00c5rdjintene","name:left:sk":"Uruguaj","name:left:nv":"T\u00e1\u0142t\u0142\u02bc\u00e1\u00e1h Ch\u02bcosh Bitooh (K\u00e9yah Dah Si\u02bc\u00e1n\u00edg\u00ed\u00ed)","name:left:ur":"\u06cc\u0648\u0631\u0627\u06af\u0648\u0626\u06d2","name:right:wo":"Arsantin","name:right:ne":"\u0905\u0930\u094d\u091c\u0947\u0928\u094d\u091f\u093f\u0928\u093e","id:right":-286393,"name:left:uk":"\u0423\u0440\u0443\u0433\u0432\u0430\u0439","name:right:gv":"yn Argenteen","name:right:hi":"\u0905\u0930\u094d\u091c\u0947\u0923\u094d\u091f\u0940\u0928\u093e","name:right:fa":"\u0622\u0631\u0698\u0627\u0646\u062a\u06cc\u0646","name:right:nv":"B\u00e9\u00e9sh \u0141igaii Bik\u00e9yah","name:right:be":"\u0410\u0440\u0433\u0435\u043d\u0446\u0456\u0301\u043d\u0430","name:left:ug":"\u0626\u06c7\u0631\u06c7\u06af\u06cb\u0627\u064a","name:right:fi":"Argentiina","name:left:eo":"Urugvajo","name:left:el":"\u039f\u03c5\u03c1\u03bf\u03c5\u03b3\u03bf\u03c5\u03ac\u03b7","kind_detail":"2","name:left:ee":"uruguayduk\u0254","name:right:tt":"\u0410\u0440\u0433\u0435\u043d\u0442\u0438\u0301\u043d\u0430","name:right:hy":"\u0531\u0580\u0563\u0565\u0576\u057f\u056b\u0576\u0561","name:left:wo":"Uruguwaay","name:left:ps":"\u06cc\u0648\u0631\u0648\u06ab\u0648\u0627\u06cc","name:left:eu":"Uruguai","name:right:om":"Arjentiinaa","name:right:ps":"\u0627\u0631\u062c\u0646\u067c\u0627\u06cc\u0646","name:left:mg":"Orogoay","name:left:mk":"\u0423\u0440\u0443\u0433\u0432\u0430\u0458","name:left:tt":"\u0423\u0440\u0443\u0433\u0432\u0430\u0439","name:left:mn":"\u0423\u0440\u0443\u0433\u0432\u0430\u0439","name:left:ml":"\u0d09\u0d31\u0d41\u0d17\u0d4d\u0d35\u0d47","name:left:th":"\u0e1b\u0e23\u0e30\u0e40\u0e17\u0e28\u0e2d\u0e38\u0e23\u0e38\u0e01\u0e27\u0e31\u0e22","name:right:pa":"\u0a05\u0a30\u0a1c\u0a28\u0a1f\u0a40\u0a28\u0a3e","name:left:tl":"Urugway","name:right:tr":"Arjantin","name:left:to":"\u02bbUlukuei","name:right:gl":"Arxentina","name:left:my":"\u1025\u101b\u102f\u1002\u103d\u1031\u1038\u1014\u102d\u102f\u1004\u103a\u1004\u1036","name:right:ts":"Arjentina","name:right:pl":"Argentyna","name:left:te":"\u0c09\u0c30\u0c41\u0c17\u0c41\u0c35\u0c47","name:right:os":"\u0410\u0440\u0433\u0435\u043d\u0442\u0438\u043d\u00e6","name:left:tg":"\u0423\u0440\u0443\u0433\u0443\u0430\u0439","name:left:pt":"Uruguai","name:left:mr":"\u0909\u0930\u0941\u0917\u094d\u0935\u0947","name:left:zh-yue":"\u70cf\u62c9\u572d","alt_name:right:wo":"Argentiin","name:left:ak":"Yurugwae","name:left:dz":"\u0f61\u0f74\u0f0b\u0f62\u0f74\u0f0b\u0f42\u0f74\u0f0b\u0f5d\u0f60\u0f72","name:right:ga":"an Airgint\u00edn","name:left:dv":"\u0787\u07aa\u0783\u07aa\u078e\u07aa\u0787\u07ad","name:right:lg":"Arigentina","name:right:ug":"\u0626\u0627\u0631\u06af\u06d0\u0646\u062a\u0649\u0646\u0627","name:left:hi":"\u0909\u0930\u0941\u0917\u094d\u0935\u0947","name:right:lb":"Argentinien","name:right:uk":"\u0410\u0440\u0433\u0435\u043d\u0442\u0438\u0301\u043d\u0430","name:left:he":"\u05d0\u05d5\u05e8\u05d5\u05d2\u05d5\u05d5\u05d0\u05d9","name:right:lo":"\u0ead\u0eb2\u0e81\u0e8a\u0eb1\u0e87\u0e95\u0eb5\u0e99","name:left:ha":"Yurugai","name:left:gl":"Uruguai","name:left:wa":"Ourougway","name:right:ur":"\u0627\u0631\u062c\u0646\u0679\u0627\u0626\u0646","name:right:lv":"Argent\u012bna","name:left:hy":"\u0548\u0582\u0580\u0578\u0582\u0563\u057e\u0561\u0575","name:left:ta":"\u0b89\u0bb0\u0bc1\u0b95\u0bc1\u0bb5\u0bc8","name:left:ht":"Irigwe","name:right:fr":"Argentine","name:left:hr":"Urugvaj","name:left:ga":"Uragua","name:left:gd":"Uruguaidh","alt_name:right:co":"Arghjintina","name:right:av":"\u0410\u0440\u0433\u0435\u043d\u0442\u0438\u043d\u0430","sort_rank":262,"name:left:an":"Uruguai","name:right:gu":"\u0a86\u0ab0\u0acd\u0a9c\u0ac7\u0aa8\u0acd\u0a9f\u0ac0\u0aa8\u0abe","alt_name:right:ta":"\u0b85\u0bb0\u0bcd\u0b9c\u0bc6\u0ba8\u0bcd\u0ba4\u0bc0\u0ba9\u0bbe","name:left:gn":"Urugu\u00e1i","name:left:gu":"\u0a89\u0ab0\u0ac1\u0a97\u0acd\u0ab5\u0ac7","osm_relation":true,"name:left:gv":"Yn Ooraguay","official_name:right":"Rep\u00fablica Argentina","name:right:or":"\u0b06\u0b30\u0b4d\u0b1c\u0b47\u0b23\u0b4d\u0b1f\u0b3f\u0b28\u0b3e","name:left":"Uruguay","name:right:mk":"\u0410\u0440\u0433\u0435\u043d\u0442\u0438\u043d\u0430","name:right:mi":"\u0100ketina","name:right:sr":"\u0410\u0440\u0433\u0435\u043d\u0442\u0438\u043d\u0430","name:right:mn":"\u0410\u0440\u0433\u0435\u043d\u0442\u0438\u043d","name:right:ml":"\u0d05\u0d7c\u0d1c\u0d28\u0d4d\u0d31\u0d40\u0d28","name:right:vo":"Larg\u00e4nt\u00e4n","name:left:os":"\u0423\u0440\u0443\u0433\u0432\u0430\u0439","name:left:or":"\u0b09\u0b30\u0b41\u0b17\u0b41\u0b0f","name:right:mg":"Arjentina","name:right:my":"\u1021\u102c\u1002\u103b\u1004\u103a\u1010\u102e\u1038\u1014\u102c\u1038\u1014\u102d\u102f\u1004\u103a\u1004\u1036","name:left:mt":"Urugwaj","name:left:vo":"Luruguy\u00e4n","name:left:oc":"Uruguai","name:right:na":"Ardjentina","name:right:eo":"Argentino","name:right:mt":"Ar\u0121entina","name:left:ff":"Uruguwaay","name:right:ff":"Arjantiin","kind":"country","name:left:fa":"\u0627\u0631\u0648\u06af\u0648\u0626\u0647","name:right:li":"Argentini\u00eb","name:left:fo":"Uruguei","name:left:qu":"Uruwayi","name:left:ar":"\u0623\u0648\u0631\u0648\u063a\u0648\u0627\u064a","alt_name:right:oc":"Riu de la Plata","name:right:jv":"Arg\u00e8ntina","alt_name:right:kn":"\u0c85\u0cb0\u0ccd\u0c9c\u0cc6\u0c82\u0c9f\u0cc0\u0ca8 \u0c97\u0ca3\u0cb0\u0cbe\u0c9c\u0ccd\u0caf","name:right:fy":"Argentynje","name:left:fy":"Ur\u00fbguay","name:left:bs":"Urugvaj","name:right:ja":"\u30a2\u30eb\u30bc\u30f3\u30c1\u30f3","name:left:yo":"Urug\u00fa\u00e1\u00ec","name:right:sq":"Argjentina","name:left:ja":"\u30a6\u30eb\u30b0\u30a2\u30a4","name:right:su":"Arg\u00e9ntina","name:right:si":"\u0d86\u0da2\u0db1\u0dca\u0da7\u0dd2\u0db1\u0dcf\u0dc0","name:right:sk":"Argent\u00edna","name:left:ba":"\u0423\u0440\u0443\u0433\u0432\u0430\u0439","name:right:sm":"Atenitina","name:left:bg":"\u0423\u0440\u0443\u0433\u0432\u0430\u0439","name:right:so":"Arjantiina","name:left:be":"\u0423\u0440\u0443\u0433\u0432\u0430\u0439","name:right:sa":"\u0905\u0930\u094d\u091c\u0923\u094d\u091f\u093f\u0928\u093e","name:right:se":"Argentiinn\u00e1","name:left:bo":"\u0f68\u0f74\u0f0b\u0f62\u0f74\u0f0b\u0f42\u0f74\u0f0b\u0f61\u0f7a\u0f0d","name:right:sg":"Arzant\u00eena","name:right":"Argentina","name:left:ne":"\u0909\u0930\u0941\u0917\u094d\u0935\u093e\u0907","name:left:bn":"\u0989\u09b0\u09c1\u0997\u09c1\u09af\u09bc\u09c7","name:left:ti":"\u12a1\u122b\u1313\u12ed","name:right:ce":"\u0410\u0440\u0433\u0435\u043d\u0442\u0438\u0301\u043d\u0430","alt_name:right:rw":"Arijantina","id":-287072,"name:right:cy":"Ariannin","name:right:zh-yue":"\u963f\u6839\u5ef7","id:left":-287072,"min_zoom":8.0,"name:right:pi":"\u0905\u0930\u094d\u091c\u0928\u094d\u091f\u0940\u0928\u093e","name:left:bm":"Urugwayi","name:right:cv":"\u0410\u0440\u0433\u0435\u043d\u0442\u0438\u043d\u0430","name:right:ka":"\u10d0\u10e0\u10d2\u10d4\u10dc\u10e2\u10d8\u10dc\u10d0","name:right:ty":"\u2019Atetina","name:right:kg":"Arhentina","name:left:pl":"Urugwaj","name:right:is":"Argent\u00edna","name:right:kk":"\u0410\u0440\u0433\u0435\u043d\u0442\u0438\u043d\u0430","name:right:km":"\u17a2\u17b6\u17a0\u17d2\u179f\u1784\u17cb\u1791\u17b8\u1793","name:left:az":"Uruqvay","name:right:ko":"\uc544\ub974\ud5e8\ud2f0\ub098","name:right:kn":"\u0c85\u0cb0\u0ccd\u0c9c\u0cc6\u0c82\u0c9f\u0cc0\u0ca8","name:right:tl":"Arhentina","name:right:ks":"\u0623\u0631\u062c\u064e\u0646\u0679\u06cc\u0646\u0627","name:right:to":"\u02bbAsenitina","name:right:ku":"Arjent\u00een","name:right:ti":"\u12a0\u122d\u1300\u1295\u1272\u1293","name:right:kw":"Arghantina","name:right:kv":"\u0410\u0440\u0433\u0435\u043d\u0442\u0438\u043d\u0430","name:right:ky":"\u0410\u0440\u0433\u0435\u043d\u0442\u0438\u043d\u0430","name:right:te":"\u0c05\u0c30\u0c4d\u0c1c\u0c46\u0c02\u0c1f\u0c40\u0c28\u0c3e","name:left:am":"\u12a1\u122b\u1313\u12ed","name:right:tg":"\u0410\u0440\u0433\u0435\u043d\u0442\u0438\u0301\u043d\u0430","name:left:is":"\u00dar\u00fagv\u00e6","name:right:ta":"\u0b85\u0bb0\u0bcd\u0b95\u0bc6\u0ba8\u0bcd\u0ba4\u0bc0\u0ba9\u0bbe","name:right:io":"Arjentinia","name:right:de":"Argentinien","name:left:rn":"Irigwe","name:right:el":"\u0391\u03c1\u03b3\u03b5\u03bd\u03c4\u03b9\u03bd\u03ae","name:right:dz":"\u0f68\u0f62\u0f0b\u0f47\u0f7a\u0f53\u0f0b\u0f4a\u0f72\u0f0b\u0f53","name:left:ay":"Uruwayi","name:left:pa":"\u0a09\u0a30\u0a42\u0a17\u0a41\u0a0f","name:right:dv":"\u0787\u07a7\u0796\u07ac\u0782\u07b0\u0793\u07a9\u0782\u07a7"},"arcs":[0]},{"type":"MultiLineString","properties":{"name:kg":"Arhentina","name:ty":"\u2019Atetina","name:ka":"\u10d0\u10e0\u10d2\u10d4\u10dc\u10e2\u10d8\u10dc\u10d0","name:tr":"Arjantin","name:ts":"Arjentina","name:km":"\u17a2\u17b6\u17a0\u17d2\u179f\u1784\u17cb\u1791\u17b8\u1793","name:kk":"\u0410\u0440\u0433\u0435\u043d\u0442\u0438\u043d\u0430","name:tt":"\u0410\u0440\u0433\u0435\u043d\u0442\u0438\u0301\u043d\u0430","name:kw":"Arghantina","name:kv":"\u0410\u0440\u0433\u0435\u043d\u0442\u0438\u043d\u0430","name:ku":"Arjent\u00een","name:ti":"\u12a0\u122d\u1300\u1295\u1272\u1293","name:ks":"\u0623\u0631\u062c\u064e\u0646\u0679\u06cc\u0646\u0627","name:to":"\u02bbAsenitina","name:tl":"Arhentina","name:ce":"\u0410\u0440\u0433\u0435\u043d\u0442\u0438\u0301\u043d\u0430","name:ta":"\u0b85\u0bb0\u0bcd\u0b95\u0bc6\u0ba8\u0bcd\u0ba4\u0bc0\u0ba9\u0bbe","name:tg":"\u0410\u0440\u0433\u0435\u043d\u0442\u0438\u0301\u043d\u0430","name:ky":"\u0410\u0440\u0433\u0435\u043d\u0442\u0438\u043d\u0430","name:te":"\u0c05\u0c30\u0c4d\u0c1c\u0c46\u0c02\u0c1f\u0c40\u0c28\u0c3e","name:cy":"Ariannin","name:qu":"Arhintina","name:de":"Argentinien","name:dz":"\u0f68\u0f62\u0f0b\u0f47\u0f7a\u0f53\u0f0b\u0f4a\u0f72\u0f0b\u0f53","source":"openstreetmap.org","alt_name:ta":"\u0b85\u0bb0\u0bcd\u0b9c\u0bc6\u0ba8\u0bcd\u0ba4\u0bc0\u0ba9\u0bbe","name:kn":"\u0c85\u0cb0\u0ccd\u0c9c\u0cc6\u0c82\u0c9f\u0cc0\u0ca8","name:dv":"\u0787\u07a7\u0796\u07ac\u0782\u07b0\u0793\u07a9\u0782\u07a7","name:lv":"Argent\u012bna","name:ur":"\u0627\u0631\u062c\u0646\u0679\u0627\u0626\u0646","name:lb":"Argentinien","name:lg":"Arigentina","name:uk":"\u0410\u0440\u0433\u0435\u043d\u0442\u0438\u0301\u043d\u0430","name:ug":"\u0626\u0627\u0631\u06af\u06d0\u0646\u062a\u0649\u0646\u0627","name:li":"Argentini\u00eb","name:lo":"\u0ead\u0eb2\u0e81\u0e8a\u0eb1\u0e87\u0e95\u0eb5\u0e99","name:el":"\u0391\u03c1\u03b3\u03b5\u03bd\u03c4\u03b9\u03bd\u03ae","name:eo":"Argentino","name":"Argentina","name:th":"\u0e2d\u0e32\u0e23\u0e4c\u0e40\u0e08\u0e19\u0e15\u0e34\u0e19\u0e32","name:ay":"Arxintina","name:rm":"Argentinia","name:rn":"Argentine","name:as":"\u0986\u09f0\u09cd\u099c\u09c7\u09a3\u09cd\u099f\u09bf\u09a8\u09be","name:ar":"\u0627\u0644\u0623\u0631\u062c\u0646\u062a\u064a\u0646","name:io":"Arjentinia","name:av":"\u0410\u0440\u0433\u0435\u043d\u0442\u0438\u043d\u0430","name:is":"Argent\u00edna","name:am":"\u12a0\u122d\u1300\u1295\u1272\u1293","name:an":"Archentina","name:ru":"\u0410\u0440\u0433\u0435\u043d\u0442\u0438\u0301\u043d\u0430","name:rw":"Arijantine","name:af":"Argentini\u00eb","name:zu":"i-Argentina","alt_name:rw":"Arijantina","kind_detail":"2","name:zh-yue":"\u963f\u6839\u5ef7","name:zh":"\u963f\u6839\u5ef7","name:so":"Arjantiina","name:sm":"Atenitina","name:sk":"Argent\u00edna","name:ja":"\u30a2\u30eb\u30bc\u30f3\u30c1\u30f3","name:si":"\u0d86\u0da2\u0db1\u0dca\u0da7\u0dd2\u0db1\u0dcf\u0dc0","name:sg":"Arzant\u00eena","name:se":"Argentiinn\u00e1","name:br":"Arc'hantina","name:bn":"\u0986\u09b0\u09cd\u099c\u09c7\u09a8\u09cd\u099f\u09bf\u09a8\u09be","name:bo":"\u0f68\u0f62\u0f0b\u0f47\u0f7a\u0f53\u0f0b\u0f4a\u0f72\u0f0b\u0f53\u0f0d","name:sa":"\u0905\u0930\u094d\u091c\u0923\u094d\u091f\u093f\u0928\u093e","name:be":"\u0410\u0440\u0433\u0435\u043d\u0446\u0456\u0301\u043d\u0430","name:su":"Arg\u00e9ntina","name:bg":"\u0410\u0440\u0436\u0435\u043d\u0442\u045d\u043d\u0430","name:sr":"\u0410\u0440\u0433\u0435\u043d\u0442\u0438\u043d\u0430","name:sq":"Argjentina","alt_name:kn":"\u0c85\u0cb0\u0ccd\u0c9c\u0cc6\u0c82\u0c9f\u0cc0\u0ca8 \u0c97\u0ca3\u0cb0\u0cbe\u0c9c\u0ccd\u0caf","name:jv":"Arg\u00e8ntina","name:ps":"\u0627\u0631\u062c\u0646\u067c\u0627\u06cc\u0646","name:om":"Arjentiinaa","alt_name:oc":"Riu de la Plata","min_zoom":8.0,"name:ko":"\uc544\ub974\ud5e8\ud2f0\ub098","name:pa":"\u0a05\u0a30\u0a1c\u0a28\u0a1f\u0a40\u0a28\u0a3e","name:os":"\u0410\u0440\u0433\u0435\u043d\u0442\u0438\u043d\u00e6","name:or":"\u0b06\u0b30\u0b4d\u0b1c\u0b47\u0b23\u0b4d\u0b1f\u0b3f\u0b28\u0b3e","name:pl":"Argentyna","name:pi":"\u0905\u0930\u094d\u091c\u0928\u094d\u091f\u0940\u0928\u093e","sort_rank":262,"name:ba":"\u0410\u0440\u0433\u0435\u043d\u0442\u0438\u0301\u043d\u0430","osm_relation":true,"alt_name:co":"Arghjintina","name:hi":"\u0905\u0930\u094d\u091c\u0947\u0923\u094d\u091f\u0940\u0928\u093e","name:he":"\u05d0\u05e8\u05d2\u05e0\u05d8\u05d9\u05e0\u05d4","name:hy":"\u0531\u0580\u0563\u0565\u0576\u057f\u056b\u0576\u0561","name:ht":"Ajantin","name:hu":"Argent\u00edna","alt_name:qu":"Qullqillaqta","kind":"country","name:ak":"Agy\u025bntina","name:yi":"\u05d0\u05b7\u05e8\u05d2\u05e2\u05e0\u05d8\u05d9\u05e0\u05e2","name:yo":"Arg\u1eb9nt\u00edn\u00e0","name:mt":"Ar\u0121entina","name:mr":"\u0906\u0930\u094d\u091c\u0947\u0928\u094d\u091f\u093f\u0928\u093e","name:my":"\u1021\u102c\u1002\u103b\u1004\u103a\u1010\u102e\u1038\u1014\u102c\u1038\u1014\u102d\u102f\u1004\u103a\u1004\u1036","official_name":"Rep\u00fablica Argentina","name:mg":"Arjentina","name:ml":"\u0d05\u0d7c\u0d1c\u0d28\u0d4d\u0d31\u0d40\u0d28","name:mn":"\u0410\u0440\u0433\u0435\u043d\u0442\u0438\u043d","name:mi":"\u0100ketina","id":-286393,"name:mk":"\u0410\u0440\u0433\u0435\u043d\u0442\u0438\u043d\u0430","name:vo":"Larg\u00e4nt\u00e4n","name:fa":"\u0622\u0631\u0698\u0627\u0646\u062a\u06cc\u0646","name:ff":"Arjantiin","name:fi":"Argentiina","old_name:vi":"\u00c1 C\u0103n \u0110\u00ecnh","name:fr":"Argentine","name:fy":"Argentynje","name:nl":"Argentini\u00eb","name:na":"Ardjentina","name:ne":"\u0905\u0930\u094d\u091c\u0947\u0928\u094d\u091f\u093f\u0928\u093e","name:wa":"\u00c5rdjintene","name:wo":"Arsantin","name:nv":"B\u00e9\u00e9sh \u0141igaii Bik\u00e9yah","name:ga":"an Airgint\u00edn","name:gl":"Arxentina","name:cv":"\u0410\u0440\u0433\u0435\u043d\u0442\u0438\u043d\u0430","alt_name:wo":"Argentiin","name:gv":"yn Argenteen","name:gu":"\u0a86\u0ab0\u0acd\u0a9c\u0ac7\u0aa8\u0acd\u0a9f\u0ac0\u0aa8\u0abe"},"arcs":[[1],[2],[3],[4],[5],[6],[7]]},{"type":"LineString","properties":{"name:right:ru":"\u041c\u0435\u0436\u0434\u0443\u0440\u0435\u0447\u044c\u0435","min_zoom":8.0,"short_name:right":"ER.","id:right":-153551,"id":-1662387,"osm_relation":true,"name:right":"Entre R\u00edos","kind":"region","name":"Paysand\u00fa - Entre R\u00edos","sort_rank":256,"kind_detail":"4","name:right:he":"\u05d0\u05e0\u05d8\u05e8\u05d4 \u05e8\u05d9\u05d5\u05e1","source":"openstreetmap.org","id:left":-1662387,"official_name:right":"Provincia de Entre R\u00edos","name:left":"Paysand\u00fa"},"arcs":[8]},{"type":"LineString","properties":{"kind":"region","name":"Paysand\u00fa","sort_rank":256,"kind_detail":"4","source":"openstreetmap.org","min_zoom":8.0,"id":-1662387,"osm_relation":true},"arcs":[9]},{"type":"LineString","properties":{"kind":"region","name":"Entre R\u00edos","short_name":"ER.","sort_rank":256,"kind_detail":"4","name:he":"\u05d0\u05e0\u05d8\u05e8\u05d4 \u05e8\u05d9\u05d5\u05e1","official_name":"Provincia de Entre R\u00edos","source":"openstreetmap.org","min_zoom":8.0,"name:ru":"\u041c\u0435\u0436\u0434\u0443\u0440\u0435\u0447\u044c\u0435","id":-153551,"osm_relation":true},"arcs":[10]}]},"roads":{"type":"GeometryCollection","geometries":[{"type":"LineString","properties":{"sort_rank":380,"kind_detail":"primary","min_zoom":8.0,"kind":"major_road","source":"openstreetmap.org"},"arcs":[14]},{"type":"MultiLineString","properties":{"sort_rank":381,"source":"openstreetmap.org","min_zoom":8.0,"kind":"major_road","kind_detail":"trunk"},"arcs":[[15],[16],[17],[18]]},{"type":"LineString","properties":{"source":"openstreetmap.org","kind":"major_road","sort_rank":380,"kind_detail":"primary","ref":"26","min_zoom":8.0},"arcs":[19]},{"type":"LineString","properties":{"kind":"major_road","network":"UY","sort_rank":380,"kind_detail":"primary","source":"openstreetmap.org","min_zoom":8.0,"landuse_kind":"residential","shield_text":"25","ref":"25"},"arcs":[20]},{"type":"LineString","properties":{"source":"openstreetmap.org","kind":"major_road","network":"AR:national","sort_rank":381,"kind_detail":"trunk","min_zoom":8.0,"shield_text":"14"},"arcs":[21]},{"type":"MultiLineString","properties":{"kind":"major_road","network":"AR:national","sort_rank":381,"landuse_kind":"urban_area","source":"openstreetmap.org","min_zoom":8.0,"kind_detail":"trunk","shield_text":"136","ref":"RN136"},"arcs":[[22],[23],[24],[25]]},{"type":"MultiLineString","properties":{"kind":"major_road","network":"UY","sort_rank":381,"kind_detail":"trunk","source":"openstreetmap.org","min_zoom":8.0,"shield_text":"3","ref":"3"},"arcs":[[26],[27],[28]]},{"type":"LineString","properties":{"kind":"major_road","network":"UY","sort_rank":380,"kind_detail":"primary","source":"openstreetmap.org","min_zoom":8.0,"shield_text":"25","ref":"25"},"arcs":[29]},{"type":"LineString","properties":{"source":"openstreetmap.org","kind":"major_road","sort_rank":380,"kind_detail":"primary","ref":"25","min_zoom":8.0,"id":429376367},"arcs":[30]},{"type":"LineString","properties":{"kind":"major_road","network":"UY","sort_rank":381,"kind_detail":"trunk","source":"openstreetmap.org","min_zoom":8.0,"landuse_kind":"residential","shield_text":"2","ref":"2"},"arcs":[31]},{"type":"MultiLineString","properties":{"source":"openstreetmap.org","kind":"major_road","kind_detail":"trunk","sort_rank":381,"landuse_kind":"urban_area","min_zoom":8.0},"arcs":[[32],[33]]},{"type":"MultiLineString","properties":{"kind":"major_road","network":"AR:national","sort_rank":381,"kind_detail":"trunk","source":"openstreetmap.org","min_zoom":8.0,"shield_text":"135","ref":"RN135"},"arcs":[[34],[35],[36],[37],[38],[39],[40],[41]]},{"type":"LineString","properties":{"kind":"major_road","network":null,"sort_rank":380,"kind_detail":"primary","source":"openstreetmap.org","min_zoom":8.0,"shield_text":"26","ref":"26"},"arcs":[42]},{"type":"MultiLineString","properties":{"kind":"major_road","network":"AR:national","sort_rank":381,"kind_detail":"trunk","source":"openstreetmap.org","min_zoom":8.0,"shield_text":"14","ref":"RN14"},"arcs":[[43],[44],[45],[46],[47],[48],[49],[50],[51]]},{"type":"MultiLineString","properties":{"source":"openstreetmap.org","kind":"major_road","landuse_kind":"residential","sort_rank":381,"kind_detail":"trunk","min_zoom":8.0},"arcs":[[52],[53],[54],[55],[56],[57]]},{"type":"LineString","properties":{"kind":"major_road","network":"AR:national","sort_rank":381,"kind_detail":"trunk","source":"openstreetmap.org","min_zoom":8.0,"shield_text":"135","ref":"RP135","id":250760228},"arcs":[58]},{"type":"MultiLineString","properties":{"source":"openstreetmap.org","kind":"major_road","sort_rank":381,"kind_detail":"trunk","ref":"RN135","min_zoom":8.0},"arcs":[[59],[60]]},{"type":"MultiLineString","properties":{"kind":"major_road","network":"AR:national","sort_rank":381,"kind_detail":"trunk","source":"openstreetmap.org","min_zoom":8.0,"landuse_kind":"nature_reserve","shield_text":"136","ref":"RN136"},"arcs":[[61],[62],[63]]},{"type":"LineString","properties":{"kind":"major_road","network":"AR:national","sort_rank":381,"kind_detail":"trunk","source":"openstreetmap.org","min_zoom":8.0,"landuse_kind":"urban_area","shield_text":"135","ref":"RN135","id":144337762},"arcs":[64]},{"type":"MultiLineString","properties":{"kind":"major_road","network":"AR:national","sort_rank":381,"kind_detail":"trunk","source":"openstreetmap.org","min_zoom":8.0,"shield_text":"130","ref":"RN130"},"arcs":[[65],[66],[67],[68],[69],[70],[71],[72],[73],[74],[75],[76]]},{"type":"LineString","properties":{"kind":"major_road","network":"AR:national","sort_rank":381,"kind_detail":"trunk","source":"openstreetmap.org","min_zoom":8.0,"shield_text":"135","ref":"RN 135","id":523353924},"arcs":[77]},{"type":"MultiLineString","properties":{"kind":"major_road","network":"UY","sort_rank":381,"landuse_kind":"urban_area","source":"openstreetmap.org","min_zoom":8.0,"kind_detail":"trunk","shield_text":"3","ref":"3"},"arcs":[[78],[79],[80],[81]]},{"type":"LineString","properties":{"kind":"major_road","network":null,"sort_rank":380,"kind_detail":"primary","source":"openstreetmap.org","min_zoom":8.0,"shield_text":"24","ref":"24"},"arcs":[82]},{"type":"MultiLineString","properties":{"kind":"major_road","network":"AR:national","sort_rank":381,"landuse_kind":"urban_area","source":"openstreetmap.org","min_zoom":8.0,"kind_detail":"trunk","shield_text":"14","ref":"RN14"},"arcs":[[83],[84]]},{"type":"MultiLineString","properties":{"kind":"major_road","network":"AR:national","sort_rank":381,"kind_detail":"trunk","source":"openstreetmap.org","min_zoom":8.0,"shield_text":"136","ref":"RN136"},"arcs":[[85],[86],[87]]},{"type":"LineString","properties":{"source":"openstreetmap.org","kind":"major_road","sort_rank":381,"kind_detail":"trunk","ref":"RN14","min_zoom":8.0,"id":262715387},"arcs":[88]}]},"earth":{"type":"GeometryCollection","geometries":[{"type":"Polygon","properties":{"sort_rank":10,"source":"naturalearthdata.com","kind":"earth","min_zoom":0.0,"id":4459},"arcs":[[89]]}]},"landuse":{"type":"GeometryCollection","geometries":[{"type":"Polygon","properties":{"kind":"residential","name":"Nuevo Paysand\u00fa","area":34595600,"sort_rank":20,"source":"openstreetmap.org","min_zoom":8.0,"tier":2,"id":-3333687,"osm_relation":true},"arcs":[[90]]},{"type":"Polygon","properties":{"kind":"residential","name":"Paysand\u00fa","area":30316500,"sort_rank":20,"source":"openstreetmap.org","min_zoom":8.0,"tier":2,"id":-3333909,"osm_relation":true},"arcs":[[91]]},{"type":"MultiPolygon","properties":{"source":"openstreetmap.org","kind":"nature_reserve","tier":2,"area":106296849,"sort_rank":23,"min_zoom":8.0},"arcs":[[[92]]]},{"type":"MultiPolygon","properties":{"source":"naturalearthdata.com","kind":"urban_area","name":"","area":601637186,"sort_rank":11,"min_zoom":4.0},"arcs":[[[93]],[[94]],[[95]],[[96]]]},{"type":"Polygon","properties":{"kind":"residential","name":"Fray Bentos","area":12998000,"sort_rank":20,"source":"openstreetmap.org","min_zoom":8.0,"tier":2,"id":-2734922,"osm_relation":true},"arcs":[[97]]},{"type":"Polygon","properties":{"kind":"residential","name":"Young","area":11472300,"sort_rank":20,"source":"openstreetmap.org","min_zoom":8.0,"tier":2,"id":-2705120,"osm_relation":true},"arcs":[[98]]}]}},"type":"Topology","transform":{"translate":[-59.0625,-33.1375511923],"scale":[0.0003433228,0.0002894016]},"arcs":[[[2636,4096],[55,-169],[1,-103],[-26,-127],[-59,-72],[-47,-230],[231,-304],[17,-148],[-73,-181],[-130,-67],[-46,-59],[-60,-297],[49,-239],[79,-134],[45,-345],[-12,-226],[87,-281],[-15,-60],[24,-283],[85,-148],[9,-140],[-39,-65],[-130,-81],[-105,-121],[-230,-86],[-164,-11],[-147,-57],[-38,-62]],[[2706,360],[14,18],[10,-3],[-23,-20],[-1,5]],[[2719,387],[11,24],[5,61],[25,37],[16,-66],[-22,-57],[-35,1]],[[2724,380],[1,0],[2,-1],[-2,0],[-1,1]],[[2727,444],[2,13],[2,4],[-3,-25],[-1,8]],[[2752,534],[13,56],[1,123],[32,-80],[-30,-58],[-6,-67],[-10,26]],[[2760,390],[8,20],[13,54],[-9,106],[31,73],[31,-22],[5,-135],[-79,-96]],[[2774,396],[5,9],[6,-1],[-4,-4],[-7,-4]],[[2636,4096],[55,-169],[1,-103],[-26,-127],[-59,-72],[-47,-230],[231,-304],[17,-148],[-73,-181],[-130,-67],[-46,-59],[-60,-284],[24,-101]],[[2523,2251],[37,-2],[75,71],[28,-25],[36,54],[17,-8],[-17,-30],[47,-34],[21,68],[22,3],[28,-56],[57,36],[47,-29],[-12,-19],[42,-99],[52,-23],[-12,-20],[34,-48],[78,-20],[15,-55],[-21,-30],[47,-27],[52,2],[20,-36],[59,13],[50,-23],[41,24],[51,-25],[29,35],[30,-14],[30,49],[20,-20],[47,23],[28,-46],[54,18],[-13,-36],[71,-17],[20,-32],[11,43],[37,-7],[20,25],[-17,34],[23,11],[24,81],[103,-9],[26,21],[45,-22],[91,46]],[[1997,0],[38,62],[147,57],[164,11],[230,86],[105,121],[130,81],[39,65],[-9,140],[-85,148],[-24,283],[15,60],[-87,281],[12,226],[-45,345],[-79,134],[-25,151]],[[1888,3380],[6,-258],[-45,-181],[-36,-47],[33,-99],[-98,-290],[-45,-61],[-16,-117]],[[1881,0],[1,4],[11,35],[-1,26],[-56,25],[6,31],[19,32],[14,17],[104,45],[412,-68],[38,0],[70,11],[34,12],[108,94],[26,39],[-6,86],[-31,156],[10,76],[44,134],[9,65],[-15,53],[-77,127],[-29,69],[-39,354],[-55,236],[-32,426],[8,154],[57,155],[1,-9],[8,-78],[59,-260],[23,-54],[35,-50],[32,-241],[24,-89],[-21,-26],[22,-60],[5,-79],[-6,-155],[5,-73],[16,-63],[30,-57],[126,-133],[58,-83],[26,-104],[-22,-138],[-43,-130],[-14,-63],[-4,-80],[-20,-58],[-48,-62],[-110,-102],[-106,-53],[-125,-11],[-271,16],[-120,-44],[-22,-55],[-168,0]],[[2049,0],[22,55],[120,44],[271,-16],[125,11],[106,53],[110,102],[48,62],[20,58],[4,80],[14,63],[43,130],[22,138],[-26,104],[-58,83],[-126,133],[-30,57],[-16,63],[-5,73],[6,155],[-5,79],[-22,60],[21,26],[-24,89],[-32,241],[-35,50],[-23,54],[-59,260],[-8,78],[-1,9],[-57,-155],[-8,-154],[32,-426],[55,-236],[39,-354],[29,-69],[77,-127],[15,-53],[-9,-65],[-44,-134],[-10,-76],[31,-156],[6,-86],[-26,-39],[-108,-94],[-34,-12],[-70,-11],[-38,0],[-412,68],[-104,-45],[-14,-17],[-19,-32],[-6,-31],[56,-25],[1,-26],[-11,-35],[-1,-4]],[[3516,3636],[-2,-1]],[[2356,208],[21,-110]],[[2377,98],[4,-24]],[[2395,0],[-14,74]],[[2749,3018],[71,-3]],[[3514,3635],[2,1]],[[4096,1465],[-28,-15]],[[1224,138],[-2,1]],[[1574,511],[8,1]],[[1582,512],[-8,0]],[[1582,512],[28,15]],[[1682,546],[119,-9]],[[4096,1565],[-146,97],[-198,254],[-349,336],[-282,138],[-148,244],[-29,118]],[[2964,2861],[16,69]],[[2994,2997],[73,201],[190,201],[14,70],[242,182],[26,175],[-20,270]],[[4068,1450],[-367,-33],[-188,-114],[-186,-23]],[[3331,1283],[-4,-1]],[[2249,0],[-12,19]],[[2988,2967],[-7,5]],[[2982,2972],[7,-3]],[[2406,3031],[-11,2]],[[2406,3031],[4,1]],[[2409,3033],[-3,-2]],[[2413,3034],[-2,-1]],[[2411,3032],[2,2]],[[2413,3034],[228,67]],[[2652,3092],[56,-63],[41,-11]],[[2409,3032],[1,0],[1,1],[-1,0],[-1,-1]],[[3517,3636],[171,49],[80,-21],[209,87],[119,-18]],[[1269,270],[-95,-270]],[[1176,0],[306,812],[69,251],[89,210],[97,136],[167,457],[196,211],[107,208]],[[2206,2288],[-109,-213],[-193,-208],[-71,-163],[-96,-295],[-97,-136],[-45,-65],[-45,-146],[-68,-249],[-82,-181],[-22,-50],[-104,-298]],[[2207,4096],[5,-114],[122,-266],[47,-144],[1,-8]],[[2382,3564],[3,-29]],[[2385,3535],[14,-180],[7,-56],[-26,-66],[31,-93],[-172,-765]],[[2241,2375],[10,23],[27,101],[7,33],[-2,40],[82,311],[40,168],[6,89],[-30,92],[26,66],[4,22],[-11,34],[-15,181]],[[2385,3535],[-3,29]],[[2382,3564],[0,5],[-1,3],[-46,144],[-122,266],[-5,114]],[[2820,3015],[2,0]],[[2863,3010],[-41,2],[0,3]],[[2822,3015],[41,-5]],[[2863,3010],[117,-37]],[[2981,2972],[-1,1]],[[2980,2973],[2,-1]],[[2395,3031],[2,1]],[[2620,3111],[13,-3]],[[2394,3033],[0,-1],[1,-1],[0,1],[-1,1]],[[2275,381],[65,-88]],[[2340,293],[3,-17]],[[2343,276],[7,-37]],[[2652,3092],[-11,9]],[[1893,3402],[-111,110],[-438,190],[-162,130],[-195,46],[-208,218]],[[1893,3402],[33,-34]],[[1927,3369],[-34,33]],[[1927,3369],[-1,-1]],[[1926,3368],[4,0]],[[1929,3369],[-2,0]],[[1940,3379],[-11,-10]],[[1930,3368],[-1,1]],[[1930,3368],[10,11]],[[1940,3379],[25,17],[432,-9]],[[2400,3387],[-2,0],[1,-1]],[[2399,3386],[0,-1],[2,0],[0,1],[-2,0]],[[2708,3029],[7,-5]],[[2944,2752],[20,109]],[[2980,2930],[6,28]],[[2986,2958],[5,20]],[[2991,2978],[3,19]],[[2725,0],[65,47],[30,80],[134,94],[177,266],[33,366],[124,278],[39,151]],[[2239,2375],[-33,-87]],[[2207,2285],[34,90]],[[1610,527],[72,19]],[[1801,537],[287,-4],[187,-152]],[[2350,239],[6,-31]],[[1274,284],[-5,-14]],[[2049,0],[22,55],[120,44],[271,-16],[125,11],[106,53],[110,102],[48,62],[20,58],[4,80],[14,63],[43,130],[22,138],[-26,104],[-58,83],[-126,133],[-30,57],[-16,63],[-5,73],[6,155],[-5,79],[-22,60],[21,26],[-24,89],[-32,241],[-35,50],[-23,54],[-59,260],[-8,78],[-1,9],[-57,-155],[-8,-154],[32,-426],[55,-236],[39,-354],[29,-69],[77,-127],[15,-53],[-9,-65],[-44,-134],[-10,-76],[31,-156],[6,-86],[-26,-39],[-108,-94],[-34,-12],[-70,-11],[-38,0],[-412,68],[-104,-45],[-14,-17],[-19,-32],[-6,-31],[56,-25],[1,-26],[-11,-35],[-1,-4],[-1881,0],[0,4096],[4096,0],[0,-4096],[-2047,0]],[[2807,3121],[23,5],[11,-39],[24,16],[60,-20],[48,-43],[16,-69],[-43,10],[-10,-69],[-105,17],[-24,192]],[[2780,2781],[51,148],[105,-17],[-8,-54],[20,-5],[-37,-118],[-29,35],[-71,18],[-15,-26],[-16,19]],[[2177,267],[2,114],[148,0],[1,51],[75,0],[-15,41],[39,25],[26,-17],[50,42],[33,-30],[13,-78],[-76,-142],[-134,-38],[-114,42],[-48,-10]],[[1538,559],[72,-9],[0,-38],[162,77],[68,-121],[-4,-71],[-64,-77],[-96,57],[-152,-15],[-54,-31],[-87,27],[-5,83],[70,148],[65,0],[25,-30]],[[2391,2399],[81,-109],[-19,-65],[-160,-45],[-68,21],[-33,154],[170,73],[29,-29]],[[2923,2913],[78,-98],[30,44],[2,71],[-64,0],[0,77],[67,-26],[85,-110],[10,-94],[-104,-46],[-106,27],[-101,-39],[-13,58],[-33,0],[4,63],[-26,43],[87,9],[0,154],[98,-39],[-51,-56],[37,-38]],[[2670,3209],[137,-10],[2,-41],[-159,-67],[-54,60],[-16,125],[90,-67]],[[2157,60],[19,30],[77,3],[-7,-34],[45,-59],[-65,0],[-69,60]],[[4068,1450],[28,32],[0,-40],[-28,8]]]}