{"objects":{"water":{"type":"GeometryCollection","geometries":[{"type":"MultiPolygon","properties":{"source":"naturalearthdata.com","kind":"ocean","area":1576712559132672,"sort_rank":200,"min_zoom":0.0,"id":1},"arcs":[[[2]],[[3]],[[4],[5]]]},{"type":"MultiLineString","properties":{"source":"naturalearthdata.com","kind":"ocean","sort_rank":205,"boundary":true,"min_zoom":0.0,"id":67},"arcs":[[6],[7],[8],[9],[10]]},{"type":"LineString","properties":{"source":"naturalearthdata.com","kind":"ocean","sort_rank":205,"boundary":true,"min_zoom":0.0,"id":378},"arcs":[11]}]},"buildings":{"type":"GeometryCollection","geometries":[]},"places":{"type":"GeometryCollection","geometries":[{"type":"Point","properties":{"source":"naturalearthdata.com","kind":"locality","name":"Rigolet","population":124,"min_zoom":6.0,"id":6094},"coordinates":[1792,71]},{"type":"Point","properties":{"kind":"locality","name:en":"Rigolet","name":"\u146d\u146d\u140a\u1585 Rigolet (Kikiaq)","kind_detail":"city","min_zoom":8.0,"source":"openstreetmap.org","name:fr":"Rigolet","name:iu":"\u146d\u146d\u140a\u1585","id":107363858,"population":310},"coordinates":[1839,78]}]},"transit":{"type":"GeometryCollection","geometries":[]},"pois":{"type":"GeometryCollection","geometries":[]},"boundaries":{"type":"GeometryCollection","geometries":[{"type":"MultiLineString","properties":{"name:pt":"Terra Nova e Labrador","name:ka":"\u10dc\u10d8\u10e3\u10e4\u10d0\u10e3\u10dc\u10d3\u10da\u10d4\u10dc\u10d3\u10d8 \u10d3\u10d0 \u10da\u10d0\u10d1\u10e0\u10d0\u10d3\u10dd\u10e0\u10d8","name:ko":"\ub274\ud380\ub4e4\ub79c\ub4dc \ub798\ube0c\ub77c\ub3c4 \uc8fc","name:kl":"Newfoundland aamma Labrador","name:cs":"Newfoundland a Labrador","name:kw":"Tir Nowydh ha Labrador","name:th":"\u0e23\u0e31\u0e10\u0e19\u0e34\u0e27\u0e1f\u0e31\u0e19\u0e14\u0e4c\u0e41\u0e25\u0e19\u0e14\u0e4c\u0e41\u0e25\u0e30\u0e41\u0e25\u0e1a\u0e23\u0e32\u0e14\u0e2d\u0e23\u0e4c","name:az":"Nyufaundlend v\u0259 Labrador","name:tl":"Newfoundland at Labrador","name:pa":"\u0a28\u0a3f\u0a0a\u0a2b\u0a3c\u0a70\u0a21\u0a32\u0a48\u0a02\u0a21 \u0a05\u0a24\u0a47 \u0a32\u0a3e\u0a2c\u0a30\u0a3e\u0a21\u0a4b\u0a30","name:os":"\u041d\u044c\u044e\u0444\u0430\u0443\u043d\u0434\u043b\u0435\u043d\u0434 \u00e6\u043c\u00e6 \u041b\u0430\u0431\u0440\u0430\u0434\u043e\u0440","name:pl":"Nowa Fundlandia i Labrador","name:ta":"\u0ba8\u0bbf\u0baf\u0bc2\u0b83\u0baa\u0bb5\u0bc1\u0ba9\u0bcd\u0bb2\u0bbe\u0ba8\u0bcd\u0ba4\u0bc1 \u0bae\u0bb1\u0bcd\u0bb1\u0bc1\u0bae\u0bcd \u0bb2\u0bbe\u0baa\u0bcd\u0bb0\u0b9f\u0bcb\u0bb0\u0bcd","name:ca":"Terranova i Labrador","name:cy":"Newfoundland a Labrador","source":"openstreetmap.org","sort_rank":256,"name:qu":"Newfoundland wan Labrador pruwinsya","name:da":"Newfoundland og Labrador","name:de":"Neufundland und Labrador","name:tr":"Newfoundland ve Labrador","name:sq":"Toka e Re dhe Labradori","name:be":"\u041f\u0440\u0430\u0432\u0456\u043d\u0446\u044b\u044f \u041d\u044c\u044e\u0444\u0430\u045e\u043d\u0434\u043b\u0435\u043d\u0434 \u0456 \u041b\u0430\u0431\u0440\u0430\u0434\u043e\u0440","name:lv":"\u0145\u016bfaundlenda un Labradora","name:lt":"Niufaundlandas ir Labradoras","name:uz":"Nyufaundlend va Labrador","name:he":"\u05e0\u05d9\u05d5\u05e4\u05d0\u05d5\u05e0\u05d3\u05dc\u05e0\u05d3 \u05d5\u05dc\u05d1\u05e8\u05d3\u05d5\u05e8","name:eo":"Novlando kaj Labradoro","name:ur":"\u0646\u06cc\u0648 \u0641\u0627\u0624\u0646\u0688 \u0644\u06cc\u0646\u0688 \u0627\u0648\u0631 \u0644\u06cc\u0628\u0631\u0627\u0688\u0648\u0631","name:lb":"Neifundland a Labrador","name:la":"Terra Nova et Terra Laboratoria","name:uk":"\u041d\u044c\u044e\u0444\u0430\u0443\u043d\u0434\u043b\u0435\u043d\u0434 \u0456 \u041b\u0430\u0431\u0440\u0430\u0434\u043e\u0440","name:hy":"\u0546\u0575\u0578\u0582\u0586\u0561\u0578\u0582\u0576\u0564\u056c\u0565\u0576\u0564 \u0587 \u053c\u0561\u0562\u0580\u0561\u0564\u0578\u0580","name:ug":"N\u00e9wfundland \u00d6lkisi","name:hu":"\u00daj-Fundland \u00e9s Labrador","name:hr":"Newfoundland i Labrador","name:oc":"T\u00e8rran\u00f2va e Labrador","name:el":"\u039d\u03ad\u03b1 \u0393\u03b7 \u03ba\u03b1\u03b9 \u039b\u03b1\u03bc\u03c0\u03c1\u03b1\u03bd\u03c4\u03cc\u03c1","kind":"region","name":"Newfoundland and Labrador","min_zoom":8.0,"name:eu":"Ternua eta Labrador","name:et":"Newfoundland ja Labrador","name:es":"Terranova y Labrador","name:ro":"Newfoundland \u0219i Labrador","name:ie":"Nov-Fundland e Labrador","name:id":"Newfoundland dan Labrador","name:ms":"Newfoundland dan Labrador","name:mr":"\u0928\u094d\u092f\u0942\u092b\u093e\u0909\u0902\u0921\u0932\u0902\u0921 \u0906\u0923\u093f \u0932\u093e\u092c\u094d\u0930\u093e\u0921\u094b\u0930","name:ar":"\u0646\u064a\u0648\u0641\u0627\u0648\u0646\u062f\u0644\u0627\u0646\u062f \u0648\u0627\u0644\u0644\u0627\u0628\u0631\u0627\u062f\u0648\u0631","name:io":"Newfoundland e Labrador","name:is":"N\u00fdfundnaland og Labrador","name:it":"Terranova e Labrador","name:ru":"\u041d\u044c\u044e\u0444\u0430\u0443\u043d\u0434\u043b\u0435\u043d\u0434 \u0438 \u041b\u0430\u0431\u0440\u0430\u0434\u043e\u0440","name:vi":"Newfoundland v\u00e0 Labrador","name:mn":"\u041d\u044c\u044e\u0444\u0430\u0443\u043d\u0434\u043b\u0435\u043d\u0434 \u0431\u0430 \u041b\u0430\u0431\u0440\u0430\u0434\u043e\u0440","id":-391196,"name:mk":"\u040a\u0443\u0444\u0430\u0443\u043d\u0434\u043b\u0435\u043d\u0434 \u0438 \u041b\u0430\u0431\u0440\u0430\u0434\u043e\u0440","name:af":"Newfoundland en Labrador","name:fa":"\u0646\u06cc\u0648\u0641\u0627\u0646\u062f\u0644\u0646\u062f \u0648 \u0644\u0627\u0628\u0631\u0627\u062f\u0648\u0631","kind_detail":"4","name:fo":"N\u00fdfundland og Labrador","name:fr":"Terre-Neuve et Labrador","name:fy":"Nijf\u00fbnl\u00e2n en Labrador","name:vo":"Newfoundland e Labrador","name:zh":"\u7d10\u82ac\u862d\u8207\u62c9\u5e03\u62c9\u591a\u7701","name:sl":"Nova Fundlandija in Labrador","name:nl":"Newfoundland en Labrador","name:ja":"\u30cb\u30e5\u30fc\u30d5\u30a1\u30f3\u30c9\u30e9\u30f3\u30c9\u30fb\u30e9\u30d6\u30e9\u30c9\u30fc\u30eb\u5dde","name:nn":"Newfoundland og Labrador","name:no":"Newfoundland og Labrador","name:sc":"Terranova e Labrador","name:br":"Douar-Nevez ha Labrador","name:bs":"Newfoundland i Labrador","name:yi":"\u05e0\u05d9\u05d9\u05e4\u05d5\u05e0\u05d3\u05dc\u05d0\u05e0\u05d3 \u05d0\u05d5\u05df \u05dc\u05d0\u05d1\u05e8\u05d0\u05d3\u05d0\u05e8","name:sk":"Newfoundland a Labrador","name:sv":"Newfoundland och Labrador","name:bg":"\u041d\u044e\u0444\u0430\u0443\u043d\u0434\u043b\u0435\u043d\u0434 \u0438 \u041b\u0430\u0431\u0440\u0430\u0434\u043e\u0440","name:sr":"\u040a\u0443\u0444\u0430\u0443\u043d\u0434\u043b\u0435\u043d\u0434 \u0438 \u041b\u0430\u0431\u0440\u0430\u0434\u043e\u0440","osm_relation":true,"name:ga":"Talamh an \u00c9isc agus Labradar","name:gd":"An Talamh \u00d9r is Labrador","name:yo":"Newfoundland \u00e0ti Labrador","name:gl":"Terra Nova e Labrador","maritime_boundary":true,"name:gv":"Thalloo yn Eeast as Labrador","name:fi":"Newfoundland ja Labrador"},"arcs":[[0],[1]]}]},"roads":{"type":"GeometryCollection","geometries":[]},"earth":{"type":"GeometryCollection","geometries":[{"type":"MultiPolygon","properties":{"sort_rank":10,"source":"naturalearthdata.com","min_zoom":0.0,"kind":"earth","area":19025791749},"arcs":[[[12]],[[13]],[[14]],[[15]]]}]},"landuse":{"type":"GeometryCollection","geometries":[]}},"type":"Topology","transform":{"translate":[-59.0625,54.1624339681],"scale":[0.0003433228,0.0001990185]},"arcs":[[[4096,500],[-128,60],[128,208]],[[4096,2493],[-155,95],[-227,272],[-177,102],[67,303],[-6,52],[-53,51],[-86,325],[-146,59],[-69,65],[-317,8],[-239,-223],[-112,494]],[[4096,161],[-127,29],[-141,-22],[-64,7],[-35,53],[42,34],[-183,-52],[-90,-6],[-47,58],[-68,-26],[-99,13],[-99,41],[-64,58],[-60,40],[-91,7],[-93,-22],[-66,-42],[-33,25],[-263,35],[-86,-23],[-38,-87],[-31,-46],[-227,27],[-75,-25],[-55,-50],[-47,-77],[-53,-107],[0,-3],[-129,0],[2,3],[77,166],[46,65],[54,54],[61,43],[-69,41],[-52,-29],[-78,-115],[-49,-36],[-56,-24],[-60,-11],[-38,1],[-25,-11],[-24,-4],[-24,4],[-26,12],[-91,-93],[-113,-66],[-162,0],[308,228],[276,130],[418,97],[215,7],[42,9],[27,34],[-6,24],[-39,78],[-15,35],[103,56],[52,10],[44,-31],[60,44],[126,67],[53,63],[-116,-2],[-243,-94],[-118,-13],[55,75],[159,98],[5,71],[821,147],[37,19],[36,8],[33,-22],[20,-26],[18,-15],[22,-7],[30,-1],[37,9],[52,42],[31,14],[32,-1],[56,-24],[254,-49],[64,7],[0,-926]],[[4096,1525],[-89,-2],[-59,49],[138,67],[10,0],[0,-114]],[[4096,2373],[-33,-6],[-53,22],[-75,54],[-48,74],[21,84],[-26,50],[-21,8],[-22,-12],[-30,-8],[-17,-10],[-16,-19],[-20,-14],[-27,5],[-15,17],[-1,17],[2,17],[-7,18],[-168,226],[-51,31],[-228,-14],[-58,-30],[-44,-58],[-41,-40],[-48,25],[9,77],[-53,29],[-335,-17],[-61,14],[-40,39],[-49,71],[-26,68],[28,31],[12,11],[-7,23],[-20,24],[-26,11],[-533,-11],[-35,-27],[1,-72],[24,-78],[9,-64],[-45,-26],[-58,10],[-44,29],[-20,54],[14,82],[-192,34],[-49,-11],[-75,-49],[-44,-12],[23,69],[33,42],[82,61],[-239,0],[-159,31],[-85,44],[-54,65],[6,62],[-44,30],[-55,-37],[-36,-191],[-21,-8],[-20,31],[-9,61],[-2,72],[-8,36],[-18,21],[-80,55],[-26,-10],[-19,-28],[-28,-29],[-31,-9],[-192,12],[-40,16],[-17,36],[13,50],[26,28],[17,36],[-15,75],[63,24],[-8,68],[-55,56],[-81,-11],[-3,-15],[-1,-31],[-4,-34],[-12,-23],[-60,-34],[-37,-9],[-122,9],[0,34],[122,96],[37,44],[-18,0],[55,42],[115,42],[47,50],[-45,55],[-73,62],[3719,0],[0,-1723]],[[3094,3033],[129,131],[67,27],[148,-8],[73,37],[39,108],[-40,36],[-38,11],[-19,-22],[16,-60],[-40,-54],[-48,10],[-47,46],[-34,50],[-28,-3],[-88,-107],[-53,-13],[15,46],[3,40],[-12,32],[-26,22],[0,34],[19,57],[18,106],[23,43],[42,26],[38,12],[22,36],[-7,159],[-12,5],[-18,-20],[-24,-12],[-66,-14],[-122,-72],[-64,-17],[-28,-13],[-50,-66],[-31,-24],[-35,-4],[-70,10],[-34,-6],[-33,-24],[-61,-65],[-36,-14],[-25,16],[-44,71],[-31,16],[-49,-40],[6,-92],[35,-103],[37,-74],[37,-43],[18,-15],[6,-24],[0,-74],[9,-57],[24,-38],[32,-20],[303,-54],[90,17],[64,48]],[[377,4096],[73,-62],[45,-55],[-47,-50],[-115,-42],[-55,-42],[18,0],[-37,-44],[-122,-96],[0,-34],[122,-9],[37,9],[60,34],[12,23],[4,34],[1,31],[3,15],[81,11],[55,-56],[8,-68],[-63,-24],[15,-75],[-17,-36],[-26,-28],[-13,-50],[17,-36],[40,-16],[192,-12],[31,9],[28,29],[19,28],[26,10],[80,-55],[18,-21],[8,-36],[2,-72],[9,-61],[20,-31],[21,8],[36,191],[55,37],[44,-30],[-6,-62],[54,-65],[85,-44],[159,-31],[239,0],[-82,-61],[-33,-42],[-23,-69],[44,12],[75,49],[49,11],[192,-34],[-14,-82],[20,-54],[44,-29],[58,-10],[45,26],[-9,64],[-24,78],[-1,72],[35,27],[533,11],[26,-11],[20,-24],[7,-23],[-12,-11],[-28,-31],[26,-68],[49,-71],[40,-39],[61,-14],[335,17],[53,-29],[-9,-77],[48,-25],[41,40],[44,58],[58,30],[228,14],[51,-31],[168,-226],[7,-18],[-2,-17],[1,-17],[15,-17],[27,-5],[20,14],[16,19],[17,10],[30,8],[22,12],[21,-8],[26,-50],[-21,-84],[48,-74],[75,-54],[53,-22],[33,6]],[[4096,1639],[-10,0],[-138,-67],[59,-49],[89,2]],[[4096,1087],[-64,-7],[-254,49],[-56,24],[-32,1],[-31,-14],[-52,-42],[-37,-9],[-30,1],[-22,7],[-18,15],[-20,26],[-33,22],[-36,-8],[-37,-19],[-821,-147],[-5,-71],[-159,-98],[-55,-75],[118,13],[243,94],[116,2],[-53,-63],[-126,-67],[-60,-44],[-44,31],[-52,-10],[-103,-56],[15,-35],[39,-78],[6,-24],[-27,-34],[-42,-9],[-215,-7],[-418,-97],[-276,-130],[-308,-228]],[[1309,0],[113,66],[91,93],[26,-12],[24,-4],[24,4],[25,11],[38,-1],[60,11],[56,24],[49,36],[78,115],[52,29],[69,-41],[-61,-43],[-54,-54],[-46,-65],[-77,-166],[-2,-3]],[[1903,0],[0,3],[53,107],[47,77],[55,50],[75,25],[227,-27],[31,46],[38,87],[86,23],[263,-35],[33,-25],[66,42],[93,22],[91,-7],[60,-40],[64,-58],[99,-41],[99,-13],[68,26],[47,-58],[90,6],[183,52],[-42,-34],[35,-53],[64,-7],[141,22],[127,-29]],[[3469,3293],[-40,-54],[-48,10],[-47,46],[-34,50],[-28,-3],[-88,-107],[-53,-13],[15,46],[3,40],[-12,32],[-26,22],[0,34],[19,57],[18,106],[23,43],[42,26],[38,12],[22,36],[-7,159],[-12,5],[-18,-20],[-24,-12],[-66,-14],[-122,-72],[-64,-17],[-28,-13],[-50,-66],[-31,-24],[-35,-4],[-70,10],[-34,-6],[-33,-24],[-61,-65],[-36,-14],[-25,16],[-44,71],[-31,16],[-49,-40],[6,-92],[35,-103],[37,-74],[37,-43],[18,-15],[6,-24],[0,-74],[9,-57],[24,-38],[32,-20],[303,-54],[90,17],[64,48],[129,131],[67,27],[148,-8],[73,37],[39,108],[-40,36],[-38,11],[-19,-22],[16,-60]],[[3171,3602],[-23,-43],[-18,-106],[-19,-57],[0,-34],[26,-22],[12,-32],[-3,-40],[-15,-46],[53,13],[88,107],[28,3],[34,-50],[47,-46],[48,-10],[40,54],[-16,60],[19,22],[38,-11],[40,-36],[-39,-108],[-73,-37],[-148,8],[-67,-27],[-129,-131],[-64,-48],[-90,-17],[-303,54],[-32,20],[-24,38],[-9,57],[0,74],[-6,24],[-18,15],[-37,43],[-37,74],[-35,103],[-6,92],[49,40],[31,-16],[44,-71],[25,-16],[36,14],[61,65],[33,24],[34,6],[70,-10],[35,4],[31,24],[50,66],[28,13],[64,17],[122,72],[66,14],[24,12],[18,20],[12,-5],[7,-159],[-22,-36],[-38,-12],[-42,-26]],[[1309,0],[113,66],[91,93],[26,-12],[24,-4],[24,4],[25,11],[38,-1],[60,11],[56,24],[49,36],[78,115],[52,29],[69,-41],[-61,-43],[-54,-54],[-46,-65],[-77,-166],[-2,-3],[-465,0]],[[4096,161],[0,-161],[-2193,0],[0,3],[53,107],[47,77],[55,50],[75,25],[227,-27],[31,46],[38,87],[86,23],[263,-35],[33,-25],[66,42],[93,22],[91,-7],[60,-40],[64,-58],[99,-41],[99,-13],[68,26],[47,-58],[90,6],[183,52],[-42,-34],[35,-53],[64,-7],[141,22],[127,-29]],[[4096,1525],[0,-438],[-64,-7],[-254,49],[-56,24],[-32,1],[-31,-14],[-52,-42],[-37,-9],[-30,1],[-22,7],[-18,15],[-20,26],[-33,22],[-36,-8],[-37,-19],[-821,-147],[-5,-71],[-159,-98],[-55,-75],[118,13],[243,94],[116,2],[-53,-63],[-126,-67],[-60,-44],[-44,31],[-52,-10],[-103,-56],[15,-35],[39,-78],[6,-24],[-27,-34],[-42,-9],[-215,-7],[-418,-97],[-276,-130],[-308,-228],[-1147,0],[0,4096],[377,0],[73,-62],[45,-55],[-47,-50],[-115,-42],[-55,-42],[18,0],[-37,-44],[-122,-96],[0,-34],[122,-9],[37,9],[60,34],[12,23],[4,34],[1,31],[3,15],[81,11],[55,-56],[8,-68],[-63,-24],[15,-75],[-17,-36],[-26,-28],[-13,-50],[17,-36],[40,-16],[192,-12],[31,9],[28,29],[19,28],[26,10],[80,-55],[18,-21],[8,-36],[2,-72],[9,-61],[20,-31],[21,8],[36,191],[55,37],[44,-30],[-6,-62],[54,-65],[85,-44],[159,-31],[239,0],[-82,-61],[-33,-42],[-23,-69],[44,12],[75,49],[49,11],[192,-34],[-14,-82],[20,-54],[44,-29],[58,-10],[45,26],[-9,64],[-24,78],[-1,72],[35,27],[533,11],[26,-11],[20,-24],[7,-23],[-12,-11],[-28,-31],[26,-68],[49,-71],[40,-39],[61,-14],[335,17],[53,-29],[-9,-77],[48,-25],[41,40],[44,58],[58,30],[228,14],[51,-31],[168,-226],[7,-18],[-2,-17],[1,-17],[15,-17],[27,-5],[20,14],[16,19],[17,10],[30,8],[22,12],[21,-8],[26,-50],[-21,-84],[48,-74],[75,-54],[53,-22],[33,6],[0,-734],[-10,0],[-138,-67],[59,-49],[89,2]]]}