{"objects":{"water":{"type":"GeometryCollection","geometries":[]},"buildings":{"type":"GeometryCollection","geometries":[]},"places":{"type":"GeometryCollection","geometries":[{"type":"Point","properties":{"name:pt":"Oblast de Tomsk","name:az":"Tomsk vilay\u0259ti","name:ka":"\u10e2\u10dd\u10db\u10e1\u10d9\u10d8\u10e1 \u10dd\u10da\u10e5\u10d8","name:mr":"\u0924\u094b\u092e\u094d\u0938\u094d\u0915 \u0913\u092c\u094d\u0932\u093e\u0938\u094d\u0924","name:ko":"\ud1b0\uc2a4\ud06c \uc8fc","name:cv":"\u0422\u043e\u043c\u0441\u043a \u043e\u0431\u043b\u0430\u04ab\u04d7","name:ar":"\u062a\u0648\u0645\u0633\u0643 \u0623\u0648\u0628\u0644\u0627\u0633\u062a","name:cs":"Tomsk\u00e1 oblast","name:tt":"\u0422\u043e\u043c\u0441\u043a \u04e9\u043b\u043a\u04d9\u0441\u0435","name:kv":"\u0422\u043e\u043c\u0441\u043a \u043e\u0431\u043b\u0430\u0441\u044c\u0442","min_zoom":4.0,"name:ro":"Regiunea Tomsk","name:it":"Oblast' di Tomsk","name:tl":"Tomsk_Oblast","name:be":"\u0422\u043e\u043c\u0441\u043a\u0430\u044f \u0432\u043e\u0431\u043b\u0430\u0441\u0446\u044c","name:os":"\u0422\u043e\u043c\u0441\u0447\u044b \u043e\u0431\u043b\u00e6\u0441\u0442","name:vi":"Tomsk","name:pl":"Obw\u00f3d tomski","id":502842918,"name:ca":"Prov\u00edncia de Tomsk","name:fa":"\u0627\u0633\u062a\u0627\u0646 \u062a\u0648\u0645\u0633\u06a9","name:bg":"\u0422\u043e\u043c\u0441\u043a\u0430 \u043e\u0431\u043b\u0430\u0441\u0442","name:lt":"Tomsko sritis","kind_detail":"state","name:sh":"Tomska oblast","kind":"region","name:de":"Oblast Tomsk","source":"openstreetmap.org","name:fr":"Oblast de Tomsk","name:mk":"\u0422\u043e\u043c\u0441\u043a\u0430 \u043e\u0431\u043b\u0430\u0441\u0442","name:zh":"\u6258\u6728\u65af\u514b\u5dde","name:sl":"Tomska oblast","name:lv":"Tomskas apgabals","name:ja":"\u30c8\u30e0\u30b9\u30af\u5dde","name:nn":"Tomsk oblast","name:no":"Tomsk oblast","name:he":"\u05de\u05d7\u05d5\u05d6 \u05d8\u05d5\u05de\u05e1\u05e7","name:eo":"Tomska Provinco","name:sk":"Tomsk\u00e1 oblas\u0165","name:uk":"\u0422\u043e\u043c\u0441\u044c\u043a\u0430 \u043e\u0431\u043b\u0430\u0441\u0442\u044c","name:sw":"Tomsk Oblast","name:sv":"Tomsk oblast","name:hu":"Tomszki ter\u00fclet","name:hr":"Tomska oblast","name:sr":"\u0422\u043e\u043c\u0441\u043a\u0430 \u043e\u0431\u043b\u0430\u0441\u0442","name:el":"\u03a0\u03b5\u03c1\u03b9\u03c6\u03ad\u03c1\u03b5\u03b9\u03b1 \u03a4\u03bf\u03bc\u03c3\u03ba","name:ga":"C\u00faige Thomsk","name:en":"Tomsk Oblast","name":"\u0422\u043e\u043c\u0441\u043a\u0430\u044f \u043e\u0431\u043b\u0430\u0441\u0442\u044c","name:tr":"Tomsk Oblast\u0131","name:fi":"Tomskin alue","name:et":"Tomski oblast","name:nl":"Oblast Tomsk","name:es":"\u00d3blast de Tomsk"},"coordinates":[706,3542]},{"type":"Point","properties":{"source":"naturalearthdata.com","kind":"locality","name":"Kolpashevo","population":27876,"min_zoom":6.0,"id":5006},"coordinates":[2087,2682]}]},"transit":{"type":"GeometryCollection","geometries":[]},"pois":{"type":"GeometryCollection","geometries":[]},"boundaries":{"type":"GeometryCollection","geometries":[]},"roads":{"type":"GeometryCollection","geometries":[{"type":"LineString","properties":{"source":"naturalearthdata.com","kind":"minor_road","sort_rank":355,"kind_detail":"tertiary","min_zoom":5.0,"id":11850},"arcs":[0]},{"type":"LineString","properties":{"source":"naturalearthdata.com","kind":"minor_road","sort_rank":355,"kind_detail":"tertiary","min_zoom":6.0,"id":11900},"arcs":[1]},{"type":"LineString","properties":{"source":"naturalearthdata.com","kind":"minor_road","sort_rank":355,"kind_detail":"tertiary","min_zoom":5.0,"id":11902},"arcs":[2]},{"type":"LineString","properties":{"source":"naturalearthdata.com","kind":"minor_road","sort_rank":355,"kind_detail":"tertiary","min_zoom":6.0,"id":11941},"arcs":[3]},{"type":"LineString","properties":{"source":"naturalearthdata.com","kind":"minor_road","sort_rank":355,"kind_detail":"tertiary","min_zoom":5.0,"id":11942},"arcs":[4]},{"type":"LineString","properties":{"source":"naturalearthdata.com","kind":"minor_road","sort_rank":355,"kind_detail":"tertiary","min_zoom":5.0,"id":11988},"arcs":[5]},{"type":"LineString","properties":{"source":"naturalearthdata.com","kind":"minor_road","sort_rank":355,"kind_detail":"tertiary","min_zoom":5.0,"id":12154},"arcs":[6]}]},"earth":{"type":"GeometryCollection","geometries":[{"type":"Polygon","properties":{"sort_rank":10,"source":"naturalearthdata.com","min_zoom":0.0,"kind":"earth","area":392091543542},"arcs":[[7]]}]},"landuse":{"type":"GeometryCollection","geometries":[{"type":"MultiPolygon","properties":{"source":"naturalearthdata.com","kind":"urban_area","name":"","area":326655957,"sort_rank":11,"min_zoom":4.0},"arcs":[[[8]],[[9]]]}]}},"type":"Topology","transform":{"translate":[81.5625,57.3265212252],"scale":[0.0006866455,0.0003630909]},"arcs":[[[0,3680],[8,-7],[18,-80],[24,0],[30,34],[84,-11],[30,-34],[6,-57],[12,-34],[36,-23],[54,-22],[18,-12]],[[2020,2798],[90,57],[60,34],[156,57],[36,11],[66,23],[36,-23],[24,11],[42,46],[43,0],[36,-46],[48,12],[42,34],[42,11],[54,12],[36,-12],[60,0],[54,-22],[54,22],[156,-11],[144,34],[72,0],[36,-23],[36,-11],[55,-46],[24,0],[60,12],[18,0],[120,-80],[114,-79],[36,-12],[60,23],[42,0],[96,-23],[28,7]],[[320,3434],[30,-34],[24,-45],[54,-34],[78,-12],[24,0],[78,-79],[24,-12],[60,12],[24,-12],[79,-45],[36,-23],[72,-91],[30,-34],[84,-91],[54,-102],[30,-57]],[[1714,2105],[24,34],[54,57],[42,23],[18,11],[18,46],[42,79],[0,46],[-12,34],[6,79],[18,34],[54,57],[6,34],[-18,0]],[[1101,2775],[66,-91],[66,-79],[18,-45],[-12,-46],[30,-23],[54,-11],[30,-34],[90,-125],[48,-68],[90,-34],[48,-34],[49,-46],[36,-34]],[[2422,1424],[-60,102],[-48,45],[-78,80],[-66,11],[-42,34],[-48,68],[-60,137],[-108,91],[-24,34],[-42,22],[-48,12],[-60,0],[-24,45]],[[2422,1424],[84,-91],[61,-68],[36,-80],[48,-91],[84,-68],[84,-136],[24,-23],[96,-45],[42,-12],[90,-11],[48,-23],[54,-34],[42,-57],[48,-113],[24,-91],[30,-114],[36,-102],[24,-125],[6,-79],[12,-35],[26,-26]],[[0,4096],[3133,0],[963,0],[0,-4096],[-4096,0],[0,4096]],[[1943,2831],[35,-66],[14,35],[11,-16],[-27,-106],[-81,30],[-31,57],[-1,35],[52,40],[28,-9]],[[1879,2984],[36,-19],[12,-73],[-48,0],[-16,-61],[-98,-31],[-16,62],[65,122],[32,0],[24,35],[9,-35]]]}