{"objects":{"water":{"type":"GeometryCollection","geometries":[{"type":"MultiPolygon","properties":{"source":"naturalearthdata.com","kind":"ocean","area":1576712559132672,"sort_rank":200,"min_zoom":0.0,"id":1},"arcs":[[[159],[160]],[[161]],[[162],[163],[164],[165]]]},{"type":"LineString","properties":{"source":"naturalearthdata.com","kind":"ocean","sort_rank":205,"boundary":true,"min_zoom":0.0,"id":71},"arcs":[166]},{"type":"MultiLineString","properties":{"source":"naturalearthdata.com","kind":"ocean","sort_rank":205,"boundary":true,"min_zoom":0.0,"id":72},"arcs":[[167],[168]]},{"type":"LineString","properties":{"source":"naturalearthdata.com","kind":"ocean","sort_rank":205,"boundary":true,"min_zoom":0.0,"id":570},"arcs":[169]},{"type":"LineString","properties":{"source":"naturalearthdata.com","kind":"ocean","sort_rank":205,"boundary":true,"min_zoom":0.0,"id":571},"arcs":[170]},{"type":"LineString","properties":{"source":"naturalearthdata.com","kind":"ocean","sort_rank":205,"boundary":true,"min_zoom":0.0,"id":3859},"arcs":[171]},{"type":"MultiLineString","properties":{"source":"naturalearthdata.com","kind":"ocean","sort_rank":205,"boundary":true,"min_zoom":0.0,"id":3940},"arcs":[[172],[173]]},{"type":"LineString","properties":{"source":"naturalearthdata.com","kind":"ocean","sort_rank":205,"boundary":true,"min_zoom":0.0,"id":3941},"arcs":[174]}]},"buildings":{"type":"GeometryCollection","geometries":[]},"places":{"type":"GeometryCollection","geometries":[{"type":"Point","properties":{"name:ps":"\u06a9\u0648\u0633\u067c\u0627\u0631\u06cc\u06a9\u0627","name:ka":"\u10d9\u10dd\u10e1\u10e2\u10d0-\u10e0\u10d8\u10d9\u10d0","name:tr":"Kosta Rika","name:kn":"\u0c95\u0cca\u0cb8\u0ccd\u0c9f\u0cbe \u0cb0\u0cbf\u0c95\u0cbe","name:km":"\u1780\u17bc\u179f\u17d2\u178f\u17b6\u179a\u17b8\u1780\u17b6","name:cs":"Kostarika","name:ki":"Kostarika","name:kw":"Kosta Rika","name:ku":"Kosta R\u00eeka","name:ti":"\u12ae\u1235\u1273 \u122a\u12ab","name:ks":"\u06a9\u0648\u0633\u0679\u0627 \u0631\u0650\u06a9\u0627","name:to":"Kosita Lika","name:pa":"\u0a15\u0a4b\u0a38\u0a24\u0a3e \u0a30\u0a40\u0a15\u0a3e","name:os":"\u041a\u043e\u0441\u0442\u0430-\u0420\u0438\u043a\u00e6","name:or":"\u0b15\u0b4b\u0b37\u0b4d\u0b1f\u0b3e \u0b30\u0b3f\u0b15\u0b3e","name:ce":"\u041a\u043e\u0441\u0442\u0430-\u0420\u0438\u043a\u0430","name:ta":"\u0b95\u0bcb\u0bb8\u0bcd\u0b9f\u0bbe\u0bb0\u0bbf\u0b95\u0bbe","name:tg":"\u041a\u043e\u0441\u0442\u0430 \u0420\u0438\u043a\u0430","name:te":"\u0c15\u0c4b\u0c38\u0c4d\u0c1f\u0c3e\u0c30\u0c3f\u0c15\u0c3e","source":"openstreetmap.org","name:ln":"Kositarika","name:sr":"\u041a\u043e\u0441\u0442\u0430\u0440\u0438\u043a\u0430","name:dz":"\u0f40\u0f7c\u0f66\u0f0b\u0f4a\u0f0b\u0f62\u0f72\u0f0b\u0f40","name:ko":"\ucf54\uc2a4\ud0c0\ub9ac\uce74","name:dv":"\u0786\u07ae\u0790\u07b0\u0793\u07a6\u0783\u07a9\u0786\u07a7","name:lv":"Kostarika","name:lt":"Kosta Rika","name:uz":"Kosta Rika","name:kk":"\u041a\u043e\u0441\u0442\u0430-\u0420\u0438\u043a\u0430","name:he":"\u05e7\u05d5\u05e1\u05d8\u05d4 \u05e8\u05d9\u05e7\u05d4","min_zoom":2.0,"kind":"country","name:ur":"\u06a9\u0648\u0633\u0679\u0627 \u0631\u06cc\u06a9\u0627","name:la":"Ora Opulenta","name:lg":"Kosita Rika","name:uk":"\u041a\u043e\u0441\u0442\u0430-\u0420\u0456\u043a\u0430","name:hy":"\u053f\u0578\u057d\u057f\u0561-\u054c\u056b\u056f\u0561","name:ug":"\u0643\u0648\u0633\u062a\u0627\u0631\u0649\u0643\u0627","name:hr":"Kostarika","name:lo":"\u0e84\u0ead\u0e94\u0e95\u0eb2\u0ea5\u0eb5\u0e81\u0ec9\u0eb2","name:oc":"C\u00f2sta Rica","population":4301712,"name:el":"\u039a\u03cc\u03c3\u03c4\u03b1 \u03a1\u03af\u03ba\u03b1","name:eo":"Kostariko","name":"Costa Rica","official_name":"Rep\u00fablica de Costa Rica","name:ee":"Kosta Rika nutome","name:th":"\u0e1b\u0e23\u0e30\u0e40\u0e17\u0e28\u0e04\u0e2d\u0e2a\u0e15\u0e32\u0e23\u0e34\u0e01\u0e32","name:gu":"\u0a95\u0acb\u0ab8\u0acd\u0a9f\u0abe \u0ab0\u0abf\u0a95\u0abe","name:yi":"\u05e7\u05d0\u05e1\u05d8\u05d0 \u05e8\u05d9\u05e7\u05d0","name:yo":"Or\u00edl\u1eb9\u0301\u00e8de Kuusita R\u00edk\u00e0","name:ay":"Kustarika","name:mt":"Kosta Rika","name:rn":"Kositarika","name:az":"Kosta Rika","name:id":"Kosta Rika","name:ms":"Kosta Rika","name:mr":"\u0915\u094b\u0938\u094d\u091f\u093e\u0930\u093f\u0915\u093e","name:qu":"Kustarika","name:ar":"\u0643\u0648\u0633\u062a\u0627\u0631\u064a\u0643\u0627","name:my":"\u1000\u1031\u102c\u1037\u1005\u103a\u1010\u102c\u101b\u102e\u1000\u102c","name:io":"Kosta Rika","name:gn":"Kosta Rrika","name:is":"Kosta R\u00edka","name:am":"\u12ae\u1235\u1273 \u122a\u12ab","name:fo":"Kosta Rika","name:ml":"\u0d15\u0d4b\u0d38\u0d4d\u0d31\u0d4d\u0d31\u0d31\u0d3f\u0d15\u0d4d\u0d15","name:ru":"\u041a\u043e\u0441\u0442\u0430-\u0420\u0438\u043a\u0430","name:rw":"Kosita Rika","name:pl":"Kostaryka","name:mk":"\u041a\u043e\u0441\u0442\u0430\u0440\u0438\u043a\u0430","name:vo":"Kostarik\u00e4n","name:zu":"i-Costa Rica","name:ha":"Kwasta Rika","name:mn":"\u041a\u043e\u0441\u0442\u0430-\u0420\u0438\u043a\u0430","name:ff":"Kosta Rikaa","name:hi":"\u0915\u094b\u0938\u094d\u091f\u093e\u0930\u0940\u0915\u093e","name:mg":"Kosta Rik\u00e0","id":424297465,"alt_name:vi":"C\u1ed1t-xta Ri-ca","name:wo":"Kosta Riika","name:zh-yue":"\u54e5\u65af\u9054\u9ece\u52a0","name:fy":"Kosta Rika","name:zh":"\u54e5\u65af\u5927\u9ece\u52a0","name:so":"Kosta Riika","name:sn":"Kostarika","name:sl":"Kostarika","name:sk":"Kostarika","name:ja":"\u30b3\u30b9\u30bf\u30ea\u30ab","name:si":"\u0d9a\u0ddc\u0dc3\u0dca\u0da7\u0dbb\u0dd2\u0d9a\u0dcf\u0dc0","name:sh":"Kostarika","name:sg":"K\u00f4sta R\u00eeka","name:na":"Kosta Rika","name:ne":"\u0915\u094b\u0937\u094d\u091f\u093e\u0930\u093f\u0915\u093e","name:sa":"\u0915\u094b\u0938\u094d\u091f\u093e \u0930\u0940\u0915\u093e","name:bs":"Kostarika","name:bm":"K\u0254sitarika","name:bn":"\u0995\u09cb\u09b8\u09cd\u099f\u09be\u09b0\u09bf\u0995\u09be","name:bo":"\u0f40\u0f7c\u0f0b\u0f66\u0f84\u0f4a\u0f0b\u0f62\u0f72\u0f0b\u0f40\u0f0d","name:sw":"Kostarika","name:be":"\u041a\u043e\u0441\u0442\u0430 \u0420\u044b\u043a\u0430","name:su":"Kosta Rika","name:bg":"\u041a\u043e\u0441\u0442\u0430 \u0420\u0438\u043a\u0430","name:ss":"IKhosta-Likha","name:ba":"\u041a\u043e\u0441\u0442\u0430-\u0420\u0438\u043a\u0430","name:sq":"Kosta Rika","name:ga":"C\u00f3sta R\u00edce","name:gd":"Costa R\u00eccea","name:ht":"Kostarika","name:jv":"Kosta Rika","name:fa":"\u06a9\u0627\u0633\u062a\u0627\u0631\u06cc\u06a9\u0627","name:gv":"Yn Coose Ber\u00e7hagh","name:ak":"K\u0254sta Rika","name:tt":"\u041a\u043e\u0441\u0442\u0430-\u0420\u0438\u043a\u0430"},"coordinates":[438,2759]},{"type":"Point","properties":{"source":"openstreetmap.org","kind":"region","name":"San Jos\u00e9","kind_detail":"state","population":1500000,"min_zoom":4.0,"id":1328796425},"coordinates":[107,2042]},{"type":"Point","properties":{"source":"openstreetmap.org","kind":"region","name":"Cartago","kind_detail":"state","min_zoom":4.0,"id":859637916},"coordinates":[965,1972]},{"type":"Point","properties":{"source":"openstreetmap.org","kind":"region","name":"Heredia","kind_detail":"state","min_zoom":4.0,"id":859637914},"coordinates":[447,2911]},{"type":"Point","properties":{"source":"openstreetmap.org","kind":"region","name":"Chiriqu\u00ed","kind_detail":"state","min_zoom":4.0,"name:eo":"\u0108irikio","id":2537069583},"coordinates":[2589,208]},{"type":"Point","properties":{"source":"openstreetmap.org","kind":"region","name":"Bocas del Toro","kind_detail":"state","min_zoom":4.0,"name:eo":"Bokas-del-Toro","id":2537777115},"coordinates":[2795,1399]},{"type":"Point","properties":{"source":"openstreetmap.org","kind":"region","name":"Ng\u00e4be Bugl\u00e9","kind_detail":"state","min_zoom":4.0,"name:eo":"Ngabe-Bugleo","id":2537777133},"coordinates":[3288,725]},{"type":"Point","properties":{"source":"openstreetmap.org","kind":"region","name":"Lim\u00f3n","name:lt":"Limono provincija","kind_detail":"state","min_zoom":4.0,"id":859637911},"coordinates":[1151,2914]},{"type":"Point","properties":{"source":"naturalearthdata.com","kind":"locality","name":"San Jose","country_capital":true,"population":1284000,"min_zoom":5.0,"id":6943},"coordinates":[421,2261]},{"type":"Point","properties":{"source":"naturalearthdata.com","kind":"locality","name":"David","population":110037,"region_capital":true,"min_zoom":5.0,"id":6345},"coordinates":[2828,39]},{"type":"Point","properties":{"source":"naturalearthdata.com","kind":"locality","name":"Puerto Limon","population":85001,"region_capital":true,"min_zoom":5.0,"id":6491},"coordinates":[1954,2354]},{"type":"Point","properties":{"source":"naturalearthdata.com","kind":"locality","name":"Ciudad Cortes","population":3850,"min_zoom":7.0,"id":3491},"coordinates":[1231,818]},{"type":"Point","properties":{"source":"naturalearthdata.com","kind":"locality","name":"Sixaola","population":1823,"min_zoom":7.0,"id":3489},"coordinates":[2556,1645]},{"type":"Point","properties":{"source":"naturalearthdata.com","kind":"locality","name":"San Juan de Nicaragua","population":1000,"min_zoom":7.0,"id":2546},"coordinates":[983,3715]}]},"transit":{"type":"GeometryCollection","geometries":[{"type":"LineString","properties":{"kind":"train","network":"Tren Urbano","sort_rank":275,"source":"openstreetmap.org","min_zoom":6.0,"operator":"Incofer","ref":"1","id":-6562389,"osm_relation":true,"name":"Estaci\u00f3n Bel\u00e9n - Estaci\u00f3n Pac\u00edfico"},"arcs":[107]},{"type":"LineString","properties":{"kind":"train","network":"Tren Urbano","sort_rank":275,"source":"openstreetmap.org","min_zoom":6.0,"operator":"Incofer","ref":"4","id":-7358193,"osm_relation":true,"name":"Los \u00c1ngeles - Estaci\u00f3n Atl\u00e1ntico"},"arcs":[108]},{"type":"MultiLineString","properties":{"kind":"train","name":"Metr\u00f3poli - CFIA","sort_rank":275,"source":"openstreetmap.org","min_zoom":6.0,"operator":"Incofer","ref":"1","osm_relation":true,"network":"Tren Urbano"},"arcs":[[109],[110],[111],[112],[113],[114],[115],[116],[117],[118],[119],[120],[121],[122],[123],[124],[125],[126]]},{"type":"LineString","properties":{"kind":"train","network":"Tren Urbano","sort_rank":275,"source":"openstreetmap.org","min_zoom":6.0,"operator":"Incofer","ref":"4","id":-6559776,"osm_relation":true,"name":"Estaci\u00f3n Atl\u00e1ntico - Cartago"},"arcs":[127]},{"type":"LineString","properties":{"kind":"train","network":"Tren Urbano","sort_rank":275,"source":"openstreetmap.org","min_zoom":6.0,"operator":"Incofer","ref":"2","id":-6553390,"osm_relation":true,"name":"Atl\u00e1ntico - Alajuela"},"arcs":[128]},{"type":"LineString","properties":{"kind":"train","network":"Tren Urbano","sort_rank":275,"source":"openstreetmap.org","min_zoom":6.0,"operator":"Incofer","ref":"2","id":-6908011,"osm_relation":true,"name":"Alajuela - Atl\u00e1ntico"},"arcs":[129]},{"type":"LineString","properties":{"kind":"train","network":"Tren Urbano","sort_rank":275,"source":"openstreetmap.org","min_zoom":6.0,"operator":"Incofer","ref":"1","id":-7357210,"osm_relation":true,"name":"Estaci\u00f3n Atl\u00e1ntico - Estaci\u00f3n Bel\u00e9n"},"arcs":[130]},{"type":"MultiLineString","properties":{"kind":"train","network":"Tren Urbano","sort_rank":275,"source":"openstreetmap.org","min_zoom":6.0,"operator":"Incofer","ref":"1","osm_relation":true,"name":"CFIA - Estaci\u00f3n Bel\u00e9n"},"arcs":[[131],[132],[133],[134],[135],[136],[137],[138],[139],[140],[141],[142],[143],[144],[145],[146],[147],[148]]},{"type":"LineString","properties":{"kind":"train","network":"Tren Urbano","sort_rank":275,"source":"openstreetmap.org","min_zoom":6.0,"operator":"Incofer","ref":"2","id":-6562632,"osm_relation":true,"name":"Heredia - U. Latina"},"arcs":[149]},{"type":"LineString","properties":{"kind":"train","network":"Tren Urbano","sort_rank":275,"source":"openstreetmap.org","min_zoom":6.0,"operator":"Incofer","ref":"1","id":-6562498,"osm_relation":true,"name":"Estaci\u00f3n Pac\u00edfico - Estaci\u00f3n Bel\u00e9n"},"arcs":[150]},{"type":"LineString","properties":{"kind":"train","network":"Tren Urbano","sort_rank":275,"source":"openstreetmap.org","min_zoom":6.0,"operator":"Incofer","ref":"2","id":-6908041,"osm_relation":true,"name":"Atl\u00e1ntico - Heredia"},"arcs":[151]},{"type":"LineString","properties":{"kind":"train","network":"Tren Urbano","sort_rank":275,"source":"openstreetmap.org","min_zoom":6.0,"operator":"Incofer","ref":"1","id":-7357207,"osm_relation":true,"name":"Estaci\u00f3n Pac\u00edfico - Metr\u00f3poli"},"arcs":[152]},{"type":"LineString","properties":{"kind":"train","network":"Tren Urbano","sort_rank":275,"source":"openstreetmap.org","min_zoom":6.0,"operator":"Incofer","ref":"4","id":-6559533,"osm_relation":true,"name":"Estaci\u00f3n Cartago - Estaci\u00f3n Atl\u00e1ntico"},"arcs":[153]},{"type":"LineString","properties":{"kind":"train","network":"Tren Urbano","sort_rank":275,"source":"openstreetmap.org","min_zoom":6.0,"operator":"Incofer","ref":"2","id":-6562672,"osm_relation":true,"name":"U. Latina - Heredia"},"arcs":[154]},{"type":"LineString","properties":{"kind":"train","network":"Tren Urbano","sort_rank":275,"source":"openstreetmap.org","min_zoom":6.0,"operator":"Incofer","ref":"1","id":-7357188,"osm_relation":true,"name":"Metr\u00f3poli - Pac\u00edfico"},"arcs":[155]},{"type":"LineString","properties":{"kind":"train","network":"Tren Urbano","sort_rank":275,"source":"openstreetmap.org","min_zoom":6.0,"operator":"Incofer","ref":"4","id":-7799200,"osm_relation":true,"name":"Estaci\u00f3n Atl\u00e1ntico - Los \u00c1ngeles"},"arcs":[156]},{"type":"LineString","properties":{"kind":"train","network":"Tren Urbano","sort_rank":275,"source":"openstreetmap.org","min_zoom":6.0,"operator":"Incofer","ref":"2","id":-6908042,"osm_relation":true,"name":"Heredia - Atl\u00e1ntico"},"arcs":[157]},{"type":"LineString","properties":{"kind":"train","network":"Tren Urbano","sort_rank":275,"source":"openstreetmap.org","min_zoom":6.0,"operator":"Incofer","ref":"1","id":-7799195,"osm_relation":true,"name":"CFIA - Estaci\u00f3n Atl\u00e1ntico"},"arcs":[158]}]},"pois":{"type":"GeometryCollection","geometries":[{"type":"Point","properties":{"kind":"nature_reserve","protect_class":"12","area":569622000,"source":"openstreetmap.org","min_zoom":7.71,"tier":2,"id":233832937,"name":"Bosque Protector Palo Seco - Sector Este"},"coordinates":[3068,619]},{"type":"Point","properties":{"kind":"nature_reserve","protect_class":"12","area":466115000,"source":"openstreetmap.org","min_zoom":7.86,"tier":2,"id":233838911,"name":"Bosque Protector Palo Seco - Sector Oeste"},"coordinates":[2610,1327]},{"type":"Point","properties":{"kind":"nature_reserve","protect_class":"12","area":426927000,"source":"openstreetmap.org","min_zoom":7.92,"tier":2,"id":233907893,"name":"Bosque Protector Palo Seco - Sector Central Culubre"},"coordinates":[2876,841]},{"type":"Point","properties":{"source":"openstreetmap.org","kind":"nature_reserve","name":"Humedales Ramsar Damani-Guariviara-Escudo de Veraguas","area":468871000,"tier":2,"min_zoom":7.85,"id":240089575},"coordinates":[3953,824]}]},"boundaries":{"type":"GeometryCollection","geometries":[{"type":"LineString","properties":{"source":"naturalearthdata.com","kind":"country","sort_rank":262,"kind_detail":"2","min_zoom":0.0,"id":303},"arcs":[0]},{"type":"MultiLineString","properties":{"source":"naturalearthdata.com","kind":"indefinite","sort_rank":259,"kind_detail":"2","min_zoom":0.0,"id":41},"arcs":[[1],[2],[3],[4],[5],[6],[7],[8],[9],[10],[11],[12],[13],[14],[15],[16],[17]]},{"type":"MultiLineString","properties":{"source":"naturalearthdata.com","kind":"country","sort_rank":262,"kind_detail":"2","min_zoom":0.0,"id":305},"arcs":[[18],[19],[20],[21],[22],[23],[24],[25],[26]]},{"type":"LineString","properties":{"source":"naturalearthdata.com","kind":"region","name":"Chiriqu\u00ed - Bocas del Toro","sort_rank":256,"kind_detail":"4","min_zoom":6.7,"id":6709},"arcs":[27]},{"type":"LineString","properties":{"source":"naturalearthdata.com","kind":"region","sort_rank":256,"kind_detail":"4","min_zoom":6.7,"id":430},"arcs":[28]},{"type":"MultiLineString","properties":{"source":"naturalearthdata.com","kind":"region","name":"Rio San Juan - Atl\u00e1ntico Sur","sort_rank":256,"kind_detail":"4","min_zoom":6.8,"id":2916},"arcs":[[29],[30],[31],[32],[33],[34],[35],[36],[37],[38],[39],[40],[41]]},{"type":"MultiLineString","properties":{"source":"naturalearthdata.com","kind":"region","name":"Alajuela - San Jos\u00e9","sort_rank":256,"kind_detail":"4","min_zoom":6.8,"id":4302},"arcs":[[42],[43]]},{"type":"MultiLineString","properties":{"source":"naturalearthdata.com","kind":"region","name":"San Jos\u00e9 - Heredia","sort_rank":256,"kind_detail":"4","min_zoom":6.8,"id":4299},"arcs":[[44],[45],[46],[47],[48]]},{"type":"MultiLineString","properties":{"source":"naturalearthdata.com","kind":"region","name":"San Jos\u00e9 - Cartago","sort_rank":256,"kind_detail":"4","min_zoom":6.8,"id":4300},"arcs":[[49],[50],[51],[52],[53],[54],[55],[56],[57],[58],[59],[60],[61],[62],[63]]},{"type":"LineString","properties":{"source":"naturalearthdata.com","kind":"region","name":"Alajuela - Heredia","sort_rank":256,"kind_detail":"4","min_zoom":6.8,"id":4301},"arcs":[64]},{"type":"MultiLineString","properties":{"source":"naturalearthdata.com","kind":"region","name":"San Jos\u00e9 - Puntarenas","sort_rank":256,"kind_detail":"4","min_zoom":6.8,"id":4303},"arcs":[[65],[66],[67],[68],[69],[70],[71],[72],[73],[74],[75],[76],[77],[78],[79],[80],[81]]},{"type":"MultiLineString","properties":{"source":"naturalearthdata.com","kind":"region","name":"Heredia - Lim\u00f3n","sort_rank":256,"kind_detail":"4","min_zoom":6.8,"id":4305},"arcs":[[82],[83],[84]]},{"type":"LineString","properties":{"source":"naturalearthdata.com","kind":"region","name":"Lim\u00f3n - San Jos\u00e9","sort_rank":256,"kind_detail":"4","min_zoom":6.8,"id":4306},"arcs":[85]},{"type":"LineString","properties":{"source":"naturalearthdata.com","kind":"region","name":"San Jos\u00e9 - Lim\u00f3n","sort_rank":256,"kind_detail":"4","min_zoom":6.8,"id":4307},"arcs":[86]},{"type":"LineString","properties":{"source":"naturalearthdata.com","kind":"region","name":"Cartago - Lim\u00f3n","sort_rank":256,"kind_detail":"4","min_zoom":6.8,"id":4308},"arcs":[87]},{"type":"MultiLineString","properties":{"source":"naturalearthdata.com","kind":"region","name":"Puntarenas - Lim\u00f3n","sort_rank":256,"kind_detail":"4","min_zoom":6.8,"id":4309},"arcs":[[88],[89],[90],[91],[92]]},{"type":"LineString","properties":{"source":"naturalearthdata.com","kind":"region","name":"Ng\u00f6be Bugl\u00e9 - Chiriqu\u00ed","sort_rank":256,"kind_detail":"4","min_zoom":6.7,"id":10113},"arcs":[93]},{"type":"LineString","properties":{"source":"naturalearthdata.com","kind":"region","name":"Ng\u00f6be Bugl\u00e9 - Chiriqu\u00ed","sort_rank":256,"kind_detail":"4","min_zoom":6.7,"id":10114},"arcs":[94]},{"type":"MultiLineString","properties":{"source":"naturalearthdata.com","kind":"region","name":"Bocas del Toro - Ng\u00f6be Bugl\u00e9","sort_rank":256,"kind_detail":"4","min_zoom":6.7,"id":6708},"arcs":[[95],[96],[97]]},{"type":"MultiLineString","properties":{"source":"naturalearthdata.com","kind":"region","name":"Chiriqu\u00ed - Ng\u00f6be Bugl\u00e9","sort_rank":256,"kind_detail":"4","min_zoom":6.7,"id":6711},"arcs":[[98],[99],[100]]},{"type":"MultiLineString","properties":{"source":"naturalearthdata.com","kind":"region","name":"Chiriqu\u00ed - Bocas del Toro","sort_rank":256,"kind_detail":"4","min_zoom":6.7,"id":6712},"arcs":[[101],[102],[103]]},{"type":"MultiLineString","properties":{"source":"naturalearthdata.com","kind":"region","name":"Ng\u00f6be Bugl\u00e9 - Chiriqu\u00ed","sort_rank":256,"kind_detail":"4","min_zoom":6.7,"id":6714},"arcs":[[104],[105],[106]]}]},"roads":{"type":"GeometryCollection","geometries":[{"type":"LineString","properties":{"source":"naturalearthdata.com","kind":"major_road","sort_rank":380,"kind_detail":"primary","ref":"4","min_zoom":6.0,"id":3221},"arcs":[175]},{"type":"LineString","properties":{"source":"naturalearthdata.com","kind":"major_road","sort_rank":380,"kind_detail":"primary","ref":"32","min_zoom":4.0,"id":3222},"arcs":[176]},{"type":"LineString","properties":{"source":"naturalearthdata.com","kind":"major_road","sort_rank":380,"kind_detail":"primary","ref":"32","min_zoom":4.0,"id":3223},"arcs":[177]},{"type":"LineString","properties":{"source":"naturalearthdata.com","kind":"highway","sort_rank":355,"kind_detail":"trunk","ref":"2","min_zoom":3.0,"id":3228},"arcs":[178]},{"type":"LineString","properties":{"source":"naturalearthdata.com","kind":"highway","sort_rank":355,"kind_detail":"trunk","ref":"1","min_zoom":3.0,"id":3968},"arcs":[179]},{"type":"LineString","properties":{"kind":"highway","sort_rank":383,"landuse_kind":"urban_area","source":"naturalearthdata.com","min_zoom":3.0,"kind_detail":"motorway","ref":"2","id":4071},"arcs":[180]},{"type":"MultiLineString","properties":{"kind":"highway","sort_rank":383,"landuse_kind":"urban_area","source":"naturalearthdata.com","min_zoom":3.0,"kind_detail":"motorway","ref":"2","id":4071},"arcs":[[181],[182]]},{"type":"MultiLineString","properties":{"source":"naturalearthdata.com","kind":"highway","sort_rank":383,"kind_detail":"motorway","ref":"2","min_zoom":3.0,"id":4071},"arcs":[[183],[184],[185],[186]]},{"type":"LineString","properties":{"kind":"highway","sort_rank":383,"landuse_kind":"urban_area","source":"naturalearthdata.com","min_zoom":4.0,"kind_detail":"motorway","ref":"27","id":4073},"arcs":[187]},{"type":"LineString","properties":{"source":"naturalearthdata.com","kind":"highway","sort_rank":383,"kind_detail":"motorway","ref":"27","min_zoom":4.0,"id":4073},"arcs":[188]},{"type":"LineString","properties":{"source":"naturalearthdata.com","kind":"highway","sort_rank":355,"kind_detail":"trunk","ref":"1","min_zoom":3.0,"id":4149},"arcs":[189]}]},"earth":{"type":"GeometryCollection","geometries":[{"type":"MultiPolygon","properties":{"sort_rank":10,"source":"naturalearthdata.com","min_zoom":0.0,"kind":"earth","area":88765343379},"arcs":[[[190]],[[191]],[[192]],[[193]],[[194]],[[195]]]}]},"landuse":{"type":"GeometryCollection","geometries":[{"type":"MultiPolygon","properties":{"source":"openstreetmap.org","kind":"park","tier":2,"area":253916901,"sort_rank":24,"min_zoom":7.0},"arcs":[[[196]]]},{"type":"MultiPolygon","properties":{"source":"openstreetmap.org","kind":"park","tier":2,"area":6555211732,"sort_rank":24,"min_zoom":4.0},"arcs":[[[197]],[[198]]]},{"type":"MultiPolygon","properties":{"source":"openstreetmap.org","kind":"park","tier":2,"area":1315091019,"sort_rank":24,"min_zoom":6.0,"osm_relation":true},"arcs":[[[199]],[[200]]]},{"type":"MultiPolygon","properties":{"source":"openstreetmap.org","kind":"nature_reserve","tier":2,"protect_class":"12","area":1690335477,"sort_rank":23,"min_zoom":6.0},"arcs":[[[201]],[[202]],[[203]]]},{"type":"MultiPolygon","properties":{"source":"naturalearthdata.com","kind":"urban_area","name":"","area":440553369,"sort_rank":11,"min_zoom":4.0},"arcs":[[[204]],[[205]]]},{"type":"Polygon","properties":{"source":"openstreetmap.org","kind":"nature_reserve","area":136016992,"tier":2,"id":221909326,"min_zoom":7.0,"sort_rank":23},"arcs":[[206]]},{"type":"MultiPolygon","properties":{"source":"openstreetmap.org","kind":"nature_reserve","tier":2,"area":661918770,"sort_rank":23,"min_zoom":6.0},"arcs":[[[207]],[[208]]]},{"type":"MultiPolygon","properties":{"source":"openstreetmap.org","kind":"park","tier":2,"area":1662730946,"sort_rank":24,"min_zoom":6.0},"arcs":[[[209]]]}]}},"type":"Topology","transform":{"translate":[-84.375,8.4071681636],"scale":[0.0006866455,0.0006765707]},"arcs":[[[0,3806],[16,11],[12,7]],[[28,3824],[14,-7],[4,-11],[-1,-15],[3,-18],[7,-11],[19,-24],[4,-10],[16,-15],[67,-26],[16,-10],[13,-15],[27,-14],[26,-21],[5,-36],[-20,-10],[-6,-4],[-7,-12],[3,-8],[6,-6],[3,-5],[32,-26],[8,-10]],[[1036,3725],[8,-1]],[[751,3421],[5,3],[30,35],[97,37],[7,2],[96,23],[51,26],[4,40],[-13,53],[-2,63],[1,7],[-2,8],[11,7]],[[1054,3724],[10,-1]],[[1044,3724],[10,0]],[[283,3522],[23,-1],[10,-1],[13,-2]],[[267,3510],[16,12]],[[533,3521],[16,-11],[6,-25],[88,-69],[10,-5],[14,-2]],[[496,3501],[17,17],[20,3]],[[347,3521],[27,-27],[16,-6]],[[329,3518],[18,3]],[[471,3506],[25,-5]],[[435,3483],[36,23]],[[417,3501],[18,-18]],[[390,3488],[17,13],[10,0]],[[711,3429],[40,-8]],[[667,3409],[14,3],[20,14],[10,3]],[[2251,1767],[85,-34],[61,-51],[14,-6]],[[2091,964],[0,17],[-4,242],[-2,177],[-1,122],[3,29],[13,20],[27,10],[77,11],[22,12],[3,12],[-7,4],[-10,3],[-6,9],[-10,40],[-18,32],[3,14],[17,23],[27,23],[26,3]],[[2628,1672],[11,0],[-16,56]],[[2583,1687],[23,-3],[22,-12]],[[2538,1593],[20,3],[9,19],[6,56],[10,16]],[[2422,1682],[15,-17],[19,-36],[15,-17],[15,-7],[25,-8],[27,-4]],[[2411,1676],[11,6]],[[2085,0],[27,14],[41,13],[38,19],[32,40],[14,43],[4,52],[-8,103],[-12,45],[-18,38],[-24,35],[-46,51],[-13,20],[-7,21],[2,22],[11,13],[44,27],[13,16],[1,20],[-12,7],[-7,7],[14,19],[17,12],[151,62],[43,26],[20,33],[1,2],[-6,14],[-37,64],[-20,13],[-66,23],[-67,50],[-33,14],[-8,5],[-7,9],[-4,12],[-5,11],[-10,8]],[[2148,983],[-14,0],[-43,-19]],[[2930,594],[-121,55]],[[3449,797]],[[292,4046],[-6,4],[-7,8],[-23,38]],[[347,4028],[-3,0],[-4,1],[-11,4],[-8,2],[-5,2],[-9,5],[-5,3],[-6,1]],[[296,4046],[-4,0]],[[427,4012],[-18,6],[-24,9],[-10,3],[-4,0]],[[371,4030],[-9,0],[-15,-2]],[[532,3962],[-6,0],[-7,4],[-15,12],[-16,17],[-2,3],[0,4],[0,4],[1,8],[-5,3],[-9,1]],[[473,4018],[-46,-6]],[[733,3897],[-5,0],[-5,3],[-6,7],[-2,6],[-1,6],[-1,10],[0,4],[-2,4],[-2,3],[-5,5],[-4,6],[-2,3],[-2,8],[0,5],[2,27],[0,5],[-2,3],[-5,0]],[[691,4002],[-20,-9],[-7,-2],[-14,-2],[-11,-4],[-4,-2],[-3,-2],[-4,-1],[-3,-2],[-5,0]],[[620,3978],[-7,1],[-14,5],[-9,1]],[[590,3985],[-11,-2],[-5,-2],[-7,-4],[-3,-2],[-7,-3],[-3,-2],[-9,-2],[-13,-6]],[[956,3749],[-25,20],[-37,41],[-22,35],[-26,34],[-5,5],[-3,2],[-11,4],[-58,11],[-16,1]],[[753,3902],[-10,0],[-4,-2],[-3,-2],[-3,-1]],[[70,2224],[26,3],[97,28],[40,13],[22,23]],[[0,2237],[3,-1],[29,-4],[6,-2],[7,-2],[17,-2],[8,-2]],[[672,2648],[-54,-5],[-28,-37],[-9,-9],[-7,-2],[-32,-3],[-28,-6],[-65,-5],[-7,-3],[1,-7],[5,-12],[34,-50],[19,-20],[4,-12],[2,-36],[12,-13],[7,-6],[5,-5],[1,-11],[-8,-29],[-19,-49],[-28,-17],[-39,-13],[-15,-3]],[[423,2295],[-37,4]],[[386,2299],[-7,-1],[-53,-24]],[[326,2274],[-17,7],[-29,14]],[[280,2295],[-25,-4]],[[674,2271],[5,1],[5,2],[18,20],[18,2],[8,3],[6,5],[4,6],[3,12],[-6,32],[-3,39],[-4,13],[-5,8],[-30,33],[-2,2],[-7,4],[-12,9],[-13,11],[-6,6],[-3,6],[-20,71]],[[653,2276],[13,-2],[4,-2],[4,-1]],[[443,1993],[-5,0],[-3,2],[-2,2],[-2,4],[0,4],[0,5],[1,6],[4,10],[10,16],[25,23],[18,12],[11,12],[42,68],[-29,13],[-5,3],[-3,2],[3,12],[38,64],[67,24],[2,1],[38,0]],[[731,1847],[-7,1],[-30,15],[-18,7],[-4,1],[-8,7],[-32,42],[-13,22],[0,3],[-1,3],[-8,7],[-28,9],[-10,18],[-2,8],[-3,7],[-4,14],[-12,2]],[[551,2013],[-53,-13]],[[498,2000],[-9,2],[-8,2]],[[481,2004],[-5,-1],[-11,-3],[-18,-7],[-4,0]],[[856,1753],[-32,7],[-4,1],[-4,4],[-5,5],[-7,12],[-7,12],[-2,7],[-2,3],[-9,21],[-11,19],[-3,2],[-4,3],[-6,2],[-12,2]],[[748,1853],[-6,-1],[-4,-2],[-3,-2],[-4,-1]],[[966,1669],[-4,1],[-2,2],[-3,20],[-5,15],[-1,4],[-4,4],[-7,4],[-22,7],[-7,5],[-4,3],[-16,23]],[[891,1757],[-28,-3],[-7,-1]],[[1293,1567],[-153,94],[-4,1],[-14,7],[-13,11],[-37,39]],[[1072,1719],[-17,-6],[-6,-6],[-7,-13],[-2,-3],[-3,-3],[-3,-2],[-3,-1],[-4,-2],[-4,-1],[-4,0],[-5,0]],[[1014,1682],[-17,1]],[[997,1683],[-4,-1],[-7,-3],[-20,-10]],[[255,2291],[-3,13],[0,8],[1,4],[0,5],[8,11],[26,29],[1,3],[17,224],[2,203],[2,169],[3,238],[4,315],[0,7]],[[97,1820],[22,-2],[8,-7],[5,-4],[10,-12],[2,-2],[16,-3]],[[0,1810],[35,7],[62,3]],[[212,1791],[19,-8],[21,-2]],[[160,1790],[52,1]],[[318,1787],[13,-1],[3,-2],[5,-4],[4,-6],[3,-12],[1,-7],[-1,-5],[-3,-13],[0,-9],[0,-5],[2,-5],[6,-6],[11,-10],[11,-5],[6,-1]],[[252,1781],[66,6]],[[412,1699],[13,-2],[7,-3],[4,-2],[3,-6],[3,-8],[3,-18],[0,-9],[-1,-6],[-4,-7],[-3,-7],[6,-9],[31,-15],[24,-46],[33,-32],[96,-64],[22,-7]],[[379,1696],[14,2],[19,1]],[[675,1471],[4,-1],[4,-3],[5,-5],[11,-19],[2,-6],[6,-28],[2,-4],[47,-48],[9,-13],[6,-9],[-2,-15],[0,-9],[2,-16],[9,-30],[8,-14],[4,-6],[5,-6],[10,-9],[72,-33],[11,-3]],[[649,1458],[2,3],[2,3],[3,2],[3,2],[3,1],[4,2],[4,0],[5,0]],[[1293,1150],[-4,1],[-2,2],[-3,3],[-2,2],[-4,2],[-12,3],[-4,1],[-1,3],[-1,4],[15,75],[1,4],[5,7],[39,45],[4,6],[3,8],[10,36],[4,8],[4,5],[32,34]],[[939,1226],[4,-1],[4,-1],[14,-7],[20,-19],[33,-42],[5,-8],[1,-4],[0,-4],[11,-38],[2,-3],[4,-6],[10,-12],[132,-86],[3,-1]],[[890,1194],[4,1],[4,1],[3,2],[2,3],[13,17],[2,3],[4,1],[4,2],[4,1],[5,1],[4,0]],[[1253,974],[3,0],[4,1],[3,2],[3,3],[15,22],[6,5],[4,3],[3,2],[3,2],[3,2],[2,5],[1,8],[-4,34],[1,6],[2,8],[11,21],[3,9],[-1,17],[-2,9],[-2,5],[-2,4],[-1,3],[-1,4],[-3,2],[-4,0]],[[1300,1151],[-3,-1],[-4,0]],[[1214,996],[6,0],[3,-1],[6,-5],[7,-8],[2,-2],[7,-4],[4,-1],[4,-1]],[[1182,994],[16,1],[13,1],[3,0]],[[976,3370],[2,1],[0,3],[-3,5],[-4,4],[-5,4],[-13,8],[-6,5],[-5,5],[-4,5],[-1,6],[-1,7],[4,29],[0,6],[-1,5],[-4,7],[-5,6],[-7,7],[-4,3],[-3,2],[-5,2],[-17,5],[-4,3]],[[964,3373],[6,-1],[6,-2]],[[672,2648],[69,74],[4,7],[18,38],[4,11],[2,8],[-1,4],[1,18],[5,21],[1,11],[0,7],[-2,3],[-4,6],[-4,6],[-3,7],[-4,16],[-20,36],[-2,6],[-3,22],[1,8],[1,7],[5,10],[4,6],[12,23],[3,3],[3,2],[4,0],[4,1],[3,2],[3,3],[6,6],[13,20],[8,31],[0,7],[0,4],[-6,15],[-1,4],[0,5],[1,12],[0,5],[0,4],[-2,4],[-2,3],[-5,5],[-2,3],[-1,4],[-1,9],[9,63],[-1,14],[2,45],[2,13],[2,9],[2,3],[6,5],[12,8],[14,7],[6,4],[15,16],[24,16],[16,5],[8,2],[42,4],[16,3],[5,1]],[[1293,1567],[49,-133],[12,-17],[5,-5],[18,-13]],[[630,2556],[19,66],[10,13],[13,13]],[[1293,1567],[-5,16],[-9,20],[-3,4],[-5,5],[-3,4],[-8,20],[-3,18],[-4,14],[5,45],[21,42],[84,102],[33,83],[11,18],[44,54],[62,78],[10,25],[-4,27],[-17,53],[-2,32],[5,26],[12,24],[18,27],[3,5],[-29,6],[-154,4],[-210,2],[-38,13],[-143,67],[-88,42],[-64,30],[-182,83]],[[1689,1341],[-8,2],[-10,3],[-23,12],[-14,9],[-7,4],[-27,9],[-7,3],[-3,2],[-4,2],[-27,23],[-6,5],[-7,3],[-5,0]],[[1541,1418],[-6,-1],[-11,-6],[-5,-3],[-4,-4],[-17,-24],[-2,-2],[-7,-2],[-27,-3],[-8,-2],[-5,-2],[-6,-6],[-2,-2],[-4,-2],[-3,0]],[[1434,1359],[-3,1],[-4,12],[-1,4],[-1,4],[-5,5],[-5,3],[-38,11]],[[2091,981],[-1,1],[-14,11],[-5,3],[-23,7],[-25,25],[-7,11],[-9,26],[-8,12],[-6,4],[-9,4],[-50,14],[-5,3],[-4,3],[-4,8],[-2,5],[-16,80],[-5,14],[-4,7],[-2,3],[-2,2],[-3,2],[-53,30],[-5,4],[-11,11],[-57,74],[-6,1],[-10,1]],[[1745,1347],[-31,-2],[-20,-4],[-5,0]],[[3233,525],[3,0]],[[3233,525],[3,0]],[[2988,1065],[14,-3],[5,-17],[-8,-22],[11,-11],[30,-11],[11,-6],[-14,-19],[-19,-25],[-22,-17],[-8,-22],[3,-22],[30,-11],[30,-6],[11,-16],[16,-14],[52,-11],[35,-22],[9,-20],[-6,-25],[-16,-11],[2,-27],[20,-12],[5,-13],[8,-39],[11,-17]],[[2930,594],[11,27],[11,45],[14,47],[11,22],[-6,30],[-19,36],[-32,28],[-55,19],[-30,12],[-16,16],[19,20],[49,19],[19,19],[38,34],[3,36],[19,39],[22,22]],[[3198,646],[14,6],[8,33],[19,30],[27,14],[44,3],[60,0],[38,8],[28,17],[11,33],[2,7]],[[3133,535],[-40,5],[-44,7],[-27,7],[-26,13],[-63,25],[-3,2]],[[3233,525],[-60,14],[-11,1]],[[3162,540],[-21,-3],[-8,-2]],[[2450,720],[-32,32],[-8,6]],[[2809,649],[-67,22],[-55,3],[-16,32],[-16,13],[-23,9],[-83,5]],[[2549,733],[-99,-13]],[[3236,525],[19,-87],[-13,-124],[-11,-44],[5,-31],[15,-17],[-47,-111],[-8,-36],[24,-14]],[[3351,89],[14,-9],[16,-21],[24,-43],[15,-16]],[[3220,61],[45,1],[48,13],[24,10],[14,4]],[[277,2322],[71,-56],[80,-22]],[[676,2154],[-79,69],[-151,35]],[[328,2289],[86,-45],[24,0],[16,13]],[[490,2246],[-8,9],[-28,2]],[[454,2257],[-1,0]],[[453,2257],[0,-1]],[[453,2256],[-1,0]],[[452,2256],[-1,0]],[[451,2256]],[[451,2256]],[[451,2256],[-1,0]],[[450,2256]],[[450,2256],[-1,0]],[[449,2256],[-1,1]],[[448,2257]],[[448,2257]],[[448,2257],[-1,0]],[[447,2257]],[[447,2257],[0,1]],[[447,2258],[-1,0]],[[660,2157],[-63,66],[-151,35]],[[241,2367],[141,-22],[63,-87]],[[241,2367],[141,-22],[63,-87]],[[277,2322],[72,-56],[70,-23],[27,15]],[[277,2322],[72,-56],[70,-23],[35,14]],[[490,2246],[-8,9],[-28,2]],[[454,2257],[-1,0]],[[453,2257],[0,-1]],[[453,2256],[-1,0]],[[452,2256],[-1,0]],[[451,2256]],[[451,2256]],[[451,2256],[-1,0]],[[450,2256]],[[450,2256],[-1,0]],[[449,2256],[-1,1]],[[448,2257]],[[448,2257]],[[448,2257],[-1,0]],[[447,2257]],[[447,2257],[0,1]],[[447,2258],[-1,0]],[[483,2254],[-40,5],[-67,87]],[[277,2322],[71,-56],[80,-22]],[[376,2346],[69,-88]],[[328,2289],[100,-45]],[[660,2157],[-63,66],[-151,35]],[[483,2254],[-40,5],[-67,87]],[[328,2289],[100,-45]],[[676,2154],[-79,69],[-151,35]],[[376,2346],[69,-88]],[[490,2246],[-44,12]],[[0,0],[0,1620],[74,-21],[37,-3],[38,-8],[60,-35],[38,-7],[-19,14],[-9,4],[-13,2],[0,10],[37,-12],[38,-34],[21,-39],[-16,-27],[25,-4],[13,-14],[12,-10],[20,9],[6,-12],[7,-6],[8,0],[9,7],[9,0],[140,-56],[18,-14],[112,-52],[115,-110],[32,-9],[44,-22],[33,-33],[-4,-38],[58,-10],[39,-40],[30,-49],[32,-43],[10,10],[24,-27],[7,-13],[39,-101],[-15,-13],[-10,-10],[-7,-13],[-7,-16],[5,-5],[10,-6],[3,-7],[-18,-11],[17,-1],[8,-5],[5,-7],[9,-7],[21,-12],[11,-8],[8,-11],[-17,1],[-14,4],[-28,15],[3,-26],[18,-14],[19,-10],[9,-15],[-7,-17],[-17,-12],[-36,-17],[-20,-25],[-7,-25],[5,-14],[17,8],[17,18],[11,9],[16,1],[31,-4],[0,-9],[-35,-9],[-40,-22],[-22,-26],[18,-23],[-10,-11],[-35,-54],[-10,-10],[-5,8],[-7,5],[-16,-6],[-22,-14],[-11,-12],[-44,-69],[4,-46],[10,-6],[29,-12],[7,-1],[8,-14],[126,-119],[36,-46],[19,-20],[21,-10],[25,0],[89,11],[30,-4],[84,-37],[0,21],[12,-11],[11,-8],[29,-12],[-20,2],[-6,2],[-6,6],[-9,0],[18,-16],[-1442,0]],[[735,435],[2,18],[-21,-1],[-19,-10],[8,-7],[19,-4],[11,4]],[[1832,0],[-231,0],[3,45],[-9,52],[-22,31],[0,10],[9,10],[3,15],[-1,36],[-18,-11],[-18,16],[-20,23],[-20,12],[-21,3],[-55,17],[-19,10],[-12,14],[-29,47],[-7,24],[-51,77],[-9,0],[0,-1],[-11,-8],[7,29],[20,8],[48,-8],[19,4],[6,9],[2,11],[7,8],[15,0],[10,-7],[7,-2],[9,18],[24,-9],[31,-6],[20,-12],[-6,-24],[10,1],[10,-1],[-9,-31],[14,-22],[46,-28],[21,11],[20,-10],[17,-21],[11,-20],[22,5],[30,-4],[27,1],[11,18],[10,0],[11,-17],[18,-19],[21,-16],[20,-8],[0,-11],[-44,-18],[-6,4],[-2,19],[-4,12],[-14,24],[-10,0],[-3,-8],[-2,-5],[-5,-8],[29,-58],[11,-12],[21,-8],[42,3],[17,-6],[-23,-14],[-18,-6],[-10,-7],[1,-22],[8,-17],[47,-60],[10,-24],[-11,-22],[-15,-20],[-9,-15],[-1,-1]],[[4096,1010],[0,-376],[-7,11],[-29,19],[-59,63],[-87,126],[-21,15],[-7,7],[-21,49],[-23,7],[-37,39],[-21,2],[-34,4],[-19,0],[-11,5],[-8,21],[-11,13],[-12,14],[0,10],[11,-5],[15,-2],[12,4],[2,13],[-6,6],[-34,26],[-34,42],[-25,19],[-30,-1],[-11,-16],[23,-17],[47,-22],[-15,-18],[-35,3],[-37,9],[-22,1],[6,-14],[23,-21],[27,-19],[19,-9],[13,-13],[51,-77],[99,-56],[5,-59],[-7,-25],[-26,-13],[-86,40],[-15,-4],[-7,-10],[-16,8],[-14,12],[-2,6],[-21,7],[-13,0],[-16,-7],[4,-17],[-12,-17],[-22,-13],[-21,-5],[-23,5],[-16,11],[-18,8],[-32,-4],[-70,-21],[-27,1],[-17,-1],[-6,1],[-5,5],[-2,10],[-3,5],[-8,8],[-21,34],[0,12],[-19,11],[-52,17],[-25,-14],[-35,3],[-35,17],[-25,24],[6,-4],[4,-3],[4,-1],[7,-2],[10,96],[-8,16],[-35,19],[-8,21],[22,-6],[8,-4],[0,10],[-11,16],[-4,28],[4,26],[16,11],[37,-3],[24,-9],[44,-27],[9,18],[-3,40],[4,23],[-10,0],[0,-11],[-10,0],[-7,8],[-6,9],[-4,10],[-3,14],[-6,0],[-2,-2],[0,-4],[-2,-4],[-11,9],[-6,-3],[-3,-13],[0,-19],[-6,-5],[-12,2],[-10,9],[-1,20],[-10,0],[2,-24],[-5,-15],[-11,-7],[-16,4],[-10,14],[-4,17],[-7,15],[-20,6],[17,-27],[-8,-5],[-18,-2],[-11,-18],[-10,0],[-52,33],[-7,14],[-4,18],[-9,20],[-13,17],[-14,10],[-8,-1],[-7,3],[-2,7],[7,11],[3,17],[37,-3],[20,16],[1,16],[-12,11],[-17,11],[-12,14],[-5,20],[4,17],[40,69],[6,20],[4,26],[-39,-26],[-54,30],[-86,86],[-140,111],[-18,11],[-1,1],[-24,15],[-37,55],[-28,15],[-32,3],[-34,-1],[-35,3],[-98,34],[-22,18],[-14,27],[-8,59],[-8,24],[-37,-12],[-64,60],[-84,114],[-21,16],[-68,101],[-19,19],[-11,21],[-4,23],[-1,27],[-8,12],[-39,6],[-13,9],[-35,-20],[-57,57],[-93,114],[-22,17],[-278,365],[-104,175],[-89,209],[-71,196],[-8,-19],[-6,-34],[-5,-17],[-6,12],[-3,11],[2,9],[7,7],[-19,-12],[-15,-12],[-15,-11],[-22,-4],[42,36],[3,48],[-25,118],[38,-95],[22,-26],[3,47],[-26,72],[-38,69],[-29,34],[-24,12],[-31,7],[-21,-3],[6,-16],[-26,-5],[-12,32],[-10,28],[-27,16],[-12,12],[-35,56],[-14,37],[-43,67],[-32,77],[-12,53],[3325,0],[0,-3065],[-4,1],[-4,4],[-11,-1],[-2,-4],[3,-6],[3,-7],[2,-9],[6,1],[7,0]],[[3043,1525],[-23,-10],[-40,-30],[70,-55],[31,-32],[20,-34],[6,12],[2,6],[-2,3],[-6,8],[0,11],[20,24],[-10,38],[-40,60],[-28,-1]],[[3205,1365],[22,-11],[13,-31],[-20,9],[0,-9],[15,-9],[5,-13],[0,-34],[-2,-7],[-3,-1],[-1,-1],[16,-16],[7,-3],[12,34],[24,22],[29,12],[28,-4],[-15,21],[-18,12],[-37,17],[-35,33],[-14,7],[-14,-7],[-12,-1],[-12,2],[-13,6],[-7,8],[-7,2],[-7,-3],[-9,-7],[0,-10],[28,-13],[27,-5]],[[3386,1092],[12,-8],[13,-9],[8,-2],[11,6],[14,6],[2,10],[-11,5],[-10,4],[-3,10],[-5,12],[-10,1],[-9,5],[-5,9],[-10,5],[0,-7],[7,-8],[-11,-16],[-1,-11],[8,-12]],[[4096,634],[-7,11],[-29,19],[-59,63],[-87,126],[-21,15],[-7,7],[-21,49],[-23,7],[-37,39],[-21,2],[-34,4],[-19,0],[-11,5],[-8,21],[-11,13],[-12,14],[0,10],[11,-5],[15,-2],[12,4],[2,13],[-6,6],[-34,26],[-34,42],[-25,19],[-30,-1],[-11,-16],[23,-17],[47,-22],[-15,-18],[-35,3],[-37,9],[-22,1],[6,-14],[23,-21],[27,-19],[19,-9],[13,-13],[51,-77],[99,-56],[5,-59],[-7,-25],[-26,-13],[-86,40],[-15,-4],[-7,-10],[-16,8],[-14,12],[-2,6],[-21,7],[-13,0],[-16,-7],[4,-17],[-12,-17],[-22,-13],[-21,-5],[-23,5],[-16,11],[-18,8],[-32,-4],[-70,-21],[-27,1],[-17,-1],[-6,1],[-5,5],[-2,10],[-3,5],[-8,8],[-21,34],[0,12],[-19,11],[-52,17],[-25,-14],[-35,3],[-35,17],[-25,24],[6,-4],[4,-3],[4,-1],[7,-2],[10,96],[-8,16],[-35,19],[-8,21],[22,-6],[8,-4],[0,10],[-11,16],[-4,28],[4,26],[16,11],[37,-3],[24,-9],[44,-27],[9,18],[-3,40],[4,23],[-10,0],[0,-11],[-10,0],[-7,8],[-6,9],[-4,10],[-3,14],[-6,0],[-2,-2],[0,-4],[-2,-4],[-11,9],[-6,-3],[-3,-13],[0,-19],[-6,-5],[-12,2],[-10,9],[-1,20],[-10,0],[2,-24],[-5,-15],[-11,-7],[-16,4],[-10,14],[-4,17],[-7,15],[-20,6],[17,-27],[-8,-5],[-18,-2],[-11,-18],[-10,0],[-52,33],[-7,14],[-4,18],[-9,20],[-13,17],[-14,10],[-8,-1],[-7,3],[-2,7],[7,11],[3,17],[37,-3],[20,16],[1,16],[-12,11],[-17,11],[-12,14],[-5,20],[4,17],[40,69],[6,20],[4,26],[-39,-26],[-54,30],[-86,86],[-140,111],[-18,11],[-1,1],[-24,15],[-37,55],[-28,15],[-32,3],[-34,-1],[-35,3],[-98,34],[-22,18],[-14,27],[-8,59],[-8,24],[-37,-12],[-64,60],[-84,114],[-21,16],[-68,101],[-19,19],[-11,21],[-4,23],[-1,27],[-8,12],[-39,6],[-13,9],[-35,-20],[-57,57],[-93,114],[-22,17],[-278,365],[-104,175],[-89,209],[-71,196],[-8,-19],[-6,-34],[-5,-17],[-6,12],[-3,11],[2,9],[7,7],[-19,-12],[-15,-12],[-15,-11],[-22,-4],[42,36],[3,48],[-25,118],[38,-95],[22,-26],[3,47],[-26,72],[-38,69],[-29,34],[-24,12],[-31,7],[-21,-3],[6,-16],[-26,-5],[-12,32],[-10,28],[-27,16],[-12,12],[-35,56],[-14,37],[-43,67],[-32,77],[-12,53]],[[0,1620],[74,-21],[37,-3],[38,-8],[60,-35],[38,-7],[-19,14],[-9,4],[-13,2],[0,10],[37,-12],[38,-34],[21,-39],[-16,-27],[25,-4],[13,-14],[12,-10],[20,9],[6,-12],[7,-6],[8,0],[9,7],[9,0],[140,-56],[18,-14],[112,-52],[115,-110],[32,-9],[44,-22],[33,-33],[-4,-38],[58,-10],[39,-40],[30,-49],[32,-43],[10,10],[24,-27],[7,-13],[39,-101],[-15,-13],[-10,-10],[-7,-13],[-7,-16],[5,-5],[10,-6],[3,-7],[-18,-11],[17,-1],[8,-5],[5,-7],[9,-7],[21,-12],[11,-8],[8,-11],[-17,1],[-14,4],[-28,15],[3,-26],[18,-14],[19,-10],[9,-15],[-7,-17],[-17,-12],[-36,-17],[-20,-25],[-7,-25],[5,-14],[17,8],[17,18],[11,9],[16,1],[31,-4],[0,-9],[-35,-9],[-40,-22],[-22,-26],[18,-23],[-10,-11],[-35,-54],[-10,-10],[-5,8],[-7,5],[-16,-6],[-22,-14],[-11,-12],[-44,-69],[4,-46],[10,-6],[29,-12],[7,-1],[8,-14],[126,-119],[36,-46],[19,-20],[21,-10],[25,0],[89,11],[30,-4],[84,-37],[0,21],[12,-11],[11,-8],[29,-12],[-20,2],[-6,2],[-6,6],[-9,0],[18,-16]],[[1601,0],[3,45],[-9,52],[-22,31],[0,10],[9,10],[3,15],[-1,36],[-18,-11],[-18,16],[-20,23],[-20,12],[-21,3],[-55,17],[-19,10],[-12,14],[-29,47],[-7,24],[-51,77],[-9,0],[0,-1],[-11,-8],[7,29],[20,8],[48,-8],[19,4],[6,9],[2,11],[7,8],[15,0],[10,-7],[7,-2],[9,18],[24,-9],[31,-6],[20,-12],[-6,-24],[10,1],[10,-1],[-9,-31],[14,-22],[46,-28],[21,11],[20,-10],[17,-21],[11,-20],[22,5],[30,-4],[27,1],[11,18],[10,0],[11,-17],[18,-19],[21,-16],[20,-8],[0,-11],[-44,-18],[-6,4],[-2,19],[-4,12],[-14,24],[-10,0],[-3,-8],[-2,-5],[-5,-8],[29,-58],[11,-12],[21,-8],[42,3],[17,-6],[-23,-14],[-18,-6],[-10,-7],[1,-22],[8,-17],[47,-60],[10,-24],[-11,-22],[-15,-20],[-9,-15],[-1,-1]],[[2980,1485],[70,-55],[31,-32],[20,-34],[6,12],[2,6],[-2,3],[-6,8],[0,11],[20,24],[-10,38],[-40,60],[-28,-1],[-23,-10],[-40,-30]],[[3280,1353],[-35,33],[-14,7],[-14,-7],[-12,-1],[-12,2],[-13,6],[-7,8],[-7,2],[-7,-3],[-9,-7],[0,-10],[28,-13],[27,-5],[22,-11],[13,-31],[-20,9],[0,-9],[15,-9],[5,-13],[0,-34],[-2,-7],[-3,-1],[-1,-1],[16,-16],[7,-3],[12,34],[24,22],[29,12],[28,-4],[-15,21],[-18,12],[-37,17]],[[697,442],[8,-7],[19,-4],[11,4],[2,18],[-21,-1],[-19,-10]],[[4088,1036],[4,-4],[4,-1]],[[4096,1010],[-7,0],[-6,-1],[-2,9],[-3,7],[-3,6],[2,4],[11,1]],[[3390,1131],[-7,8],[0,7],[10,-5],[5,-9],[9,-5],[10,-1],[5,-12],[3,-10],[10,-4],[11,-5],[-2,-10],[-14,-6],[-11,-6],[-8,2],[-13,9],[-12,8],[-8,12],[1,11],[11,16]],[[0,2938],[90,-17],[30,-20],[61,-64],[35,-24],[91,-33],[114,-26],[28,-48],[23,-108],[38,-54],[27,-21]],[[537,2523],[53,21],[71,10],[81,0],[175,-23],[149,-38],[53,-21],[91,-62],[127,-97],[53,-51],[371,5],[140,23],[48,2]],[[249,2421],[180,72],[108,30]],[[721,2079],[11,-13],[8,-82],[17,-46],[31,-51],[58,-52],[121,-87],[56,-56],[15,-26],[33,-133],[20,-44],[31,-49],[45,-56],[35,-31],[104,-57],[36,-25],[131,-141],[81,-62],[46,-51],[88,-170],[-13,-7],[-20,7],[-68,-10],[-76,-21],[-45,-30],[20,-36],[91,-67],[45,-44],[33,-10],[48,-2],[36,-21],[194,-162],[38,-25],[38,-16],[114,-33],[78,-46]],[[249,2421],[-23,10],[-33,3],[-193,-12]],[[622,2142],[37,-17]],[[418,2360],[5,-4]],[[452,2300],[32,-69],[77,-53]],[[249,2421],[86,-11],[51,-20],[32,-30]],[[423,2356],[6,-5],[23,-51]],[[561,2178],[27,-19],[34,-17]],[[659,2125],[40,-20],[22,-26]],[[467,2265],[-40,-8],[-48,0],[-24,16],[-48,17],[-38,7]],[[269,2297],[-3,1],[-176,0],[-32,-16],[-24,-17],[-24,-8],[-10,-4]],[[2201,324],[97,-77],[58,-31],[38,-16],[48,8],[225,-28],[114,-80],[108,-51],[132,-41],[66,-8]],[[3193,1387],[12,-2],[12,1],[14,7],[14,-7],[35,-33],[37,-17],[18,-12],[15,-21],[-28,4],[-29,-12],[-24,-22],[-12,-34],[-7,3],[-16,16],[1,1],[3,1],[2,7],[0,34],[-5,13],[-15,9],[0,9],[20,-9],[-13,31],[-22,11],[-27,5],[-28,13],[0,10],[9,7],[7,3],[7,-2],[7,-8],[13,-6]],[[4096,1031],[0,-21],[-7,0],[-6,-1],[-2,9],[-3,7],[-3,6],[2,4],[11,1],[4,-4],[4,-1]],[[3430,1079],[-11,-6],[-8,2],[-13,9],[-12,8],[-8,12],[1,11],[11,16],[-7,8],[0,7],[10,-5],[5,-9],[9,-5],[10,-1],[5,-12],[3,-10],[10,-4],[11,-5],[-2,-10],[-14,-6]],[[3107,1376],[-6,-12],[-20,34],[-31,32],[-70,55],[40,30],[23,10],[28,1],[40,-60],[10,-38],[-20,-24],[0,-11],[6,-8],[2,-3],[-2,-6]],[[735,435],[-11,-4],[-19,4],[-8,7],[19,10],[21,1],[-2,-18]],[[4096,634],[0,-634],[-2264,0],[1,1],[9,15],[15,20],[11,22],[-10,24],[-47,60],[-8,17],[-1,22],[10,7],[18,6],[23,14],[-17,6],[-42,-3],[-21,8],[-11,12],[-29,58],[5,8],[2,5],[3,8],[10,0],[14,-24],[4,-12],[2,-19],[6,-4],[44,18],[0,11],[-20,8],[-21,16],[-18,19],[-11,17],[-10,0],[-11,-18],[-27,-1],[-30,4],[-22,-5],[-11,20],[-17,21],[-20,10],[-21,-11],[-46,28],[-14,22],[9,31],[-10,1],[-10,-1],[6,24],[-20,12],[-31,6],[-24,9],[-9,-18],[-7,2],[-10,7],[-15,0],[-7,-8],[-2,-11],[-6,-9],[-19,-4],[-48,8],[-20,-8],[-7,-29],[11,8],[0,1],[9,0],[51,-77],[7,-24],[29,-47],[12,-14],[19,-10],[55,-17],[21,-3],[20,-12],[20,-23],[18,-16],[18,11],[1,-36],[-3,-15],[-9,-10],[0,-10],[22,-31],[9,-52],[-3,-45],[-159,0],[-18,16],[9,0],[6,-6],[6,-2],[20,-2],[-29,12],[-11,8],[-12,11],[0,-21],[-84,37],[-30,4],[-89,-11],[-25,0],[-21,10],[-19,20],[-36,46],[-126,119],[-8,14],[-7,1],[-29,12],[-10,6],[-4,46],[44,69],[11,12],[22,14],[16,6],[7,-5],[5,-8],[10,10],[35,54],[10,11],[-18,23],[22,26],[40,22],[35,9],[0,9],[-31,4],[-16,-1],[-11,-9],[-17,-18],[-17,-8],[-5,14],[7,25],[20,25],[36,17],[17,12],[7,17],[-9,15],[-19,10],[-18,14],[-3,26],[28,-15],[14,-4],[17,-1],[-8,11],[-11,8],[-21,12],[-9,7],[-5,7],[-8,5],[-17,1],[18,11],[-3,7],[-10,6],[-5,5],[7,16],[7,13],[10,10],[15,13],[-39,101],[-7,13],[-24,27],[-10,-10],[-32,43],[-30,49],[-39,40],[-58,10],[4,38],[-33,33],[-44,22],[-32,9],[-115,110],[-112,52],[-18,14],[-140,56],[-9,0],[-9,-7],[-8,0],[-7,6],[-6,12],[-20,-9],[-12,10],[-13,14],[-25,4],[16,27],[-21,39],[-38,34],[-37,12],[0,-10],[13,-2],[9,-4],[19,-14],[-38,7],[-60,35],[-38,8],[-37,3],[-74,21],[0,2476],[771,0],[12,-53],[32,-77],[43,-67],[14,-37],[35,-56],[12,-12],[27,-16],[10,-28],[12,-32],[26,5],[-6,16],[21,3],[31,-7],[24,-12],[29,-34],[38,-69],[26,-72],[-3,-47],[-22,26],[-38,95],[25,-118],[-3,-48],[-42,-36],[22,4],[15,11],[15,12],[19,12],[-7,-7],[-2,-9],[3,-11],[6,-12],[5,17],[6,34],[8,19],[71,-196],[89,-209],[104,-175],[278,-365],[22,-17],[93,-114],[57,-57],[35,20],[13,-9],[39,-6],[8,-12],[1,-27],[4,-23],[11,-21],[19,-19],[68,-101],[21,-16],[84,-114],[64,-60],[37,12],[8,-24],[8,-59],[14,-27],[22,-18],[98,-34],[35,-3],[34,1],[32,-3],[28,-15],[37,-55],[24,-15],[1,-1],[18,-11],[140,-111],[86,-86],[54,-30],[39,26],[-4,-26],[-6,-20],[-40,-69],[-4,-17],[5,-20],[12,-14],[17,-11],[12,-11],[-1,-16],[-20,-16],[-37,3],[-3,-17],[-7,-11],[2,-7],[7,-3],[8,1],[14,-10],[13,-17],[9,-20],[4,-18],[7,-14],[52,-33],[10,0],[11,18],[18,2],[8,5],[-17,27],[20,-6],[7,-15],[4,-17],[10,-14],[16,-4],[11,7],[5,15],[-2,24],[10,0],[1,-20],[10,-9],[12,-2],[6,5],[0,19],[3,13],[6,3],[11,-9],[2,4],[0,4],[2,2],[6,0],[3,-14],[4,-10],[6,-9],[7,-8],[10,0],[0,11],[10,0],[-4,-23],[3,-40],[-9,-18],[-44,27],[-24,9],[-37,3],[-16,-11],[-4,-26],[4,-28],[11,-16],[0,-10],[-8,4],[-22,6],[8,-21],[35,-19],[8,-16],[-10,-96],[-7,2],[-4,1],[-4,3],[-6,4],[25,-24],[35,-17],[35,-3],[25,14],[52,-17],[19,-11],[0,-12],[21,-34],[8,-8],[3,-5],[2,-10],[5,-5],[6,-1],[17,1],[27,-1],[70,21],[32,4],[18,-8],[16,-11],[23,-5],[21,5],[22,13],[12,17],[-4,17],[16,7],[13,0],[21,-7],[2,-6],[14,-12],[16,-8],[7,10],[15,4],[86,-40],[26,13],[7,25],[-5,59],[-99,56],[-51,77],[-13,13],[-19,9],[-27,19],[-23,21],[-6,14],[22,-1],[37,-9],[35,-3],[15,18],[-47,22],[-23,17],[11,16],[30,1],[25,-19],[34,-42],[34,-26],[6,-6],[-2,-13],[-12,-4],[-15,2],[-11,5],[0,-10],[12,-14],[11,-13],[8,-21],[11,-5],[19,0],[34,-4],[21,-2],[37,-39],[23,-7],[21,-49],[7,-7],[21,-15],[87,-126],[59,-63],[29,-19],[7,-11]],[[2543,568],[16,37],[38,1],[0,40],[67,-2],[-1,66],[25,-30],[59,-2],[0,-163],[-148,0],[-14,66],[-42,-13]],[[2096,1570],[105,37],[9,-68],[59,-3],[41,-53],[51,-8],[16,-38],[-20,-70],[18,-11],[20,27],[21,-25],[88,-9],[-13,-135],[43,-41],[81,43],[16,64],[59,-26],[23,-90],[-59,-60],[44,-46],[-21,-40],[30,-79],[-109,20],[-22,-29],[-66,20],[-31,-17],[20,-48],[110,14],[37,-15],[21,-51],[43,22],[47,-15],[-14,-55],[52,-24],[-1,-41],[36,-12],[34,29],[104,2],[-25,-115],[-35,-43],[-62,50],[-31,4],[-2,-23],[-18,25],[-21,-9],[-27,50],[-59,2],[-25,30],[0,-50],[-20,8],[18,25],[-38,27],[-19,-25],[-10,30],[-33,-7],[18,-24],[-47,-55],[-15,28],[-32,-23],[-7,39],[31,0],[-24,24],[-47,-5],[-7,20],[-46,-21],[30,46],[-46,-16],[53,30],[-42,93],[-88,28],[-24,39],[-87,45],[-14,40],[-71,-14],[0,578]],[[1357,1785],[36,37],[152,40],[104,165],[-11,66],[18,23],[163,-97],[-63,-37],[-13,-45],[-53,-19],[61,-99],[-58,-17],[-70,33],[-4,-50],[-35,-41],[-60,-15],[-11,-39],[-53,0],[-3,-62],[153,45],[4,52],[63,24],[20,-32],[27,21],[44,-76],[-51,-29],[-1,-71],[127,3],[9,-94],[102,-8],[43,-55],[99,37],[0,-453],[-46,2],[-31,114],[-96,28],[-18,115],[-110,49],[-53,64],[-78,-3],[-135,92],[-42,-53],[8,-27],[-103,1],[-3,408],[-32,3]],[[915,323],[170,9],[77,29],[45,-62],[87,-7],[-18,-51],[109,-44],[23,-72],[-76,-25],[-42,-56],[-115,-2],[-68,81],[-176,132],[-16,68]],[[4096,1028],[0,-111],[-50,-235],[-35,-64],[-117,48],[-18,17],[36,52],[-89,46],[8,161],[247,88],[18,-2]],[[2290,1505],[114,5],[121,-45],[-1,-25],[205,-116],[164,-153],[-18,-27],[-165,14],[-20,96],[-59,26],[-15,-67],[-82,-40],[-31,18],[-19,102],[23,53],[-90,9],[-19,25],[-22,-26],[-18,12],[19,72],[-17,36],[-70,31]],[[2936,616],[14,81],[19,31],[-1,10],[-84,1],[-54,-32],[-36,13],[1,41],[-53,25],[17,50],[-48,16],[-41,-23],[-24,54],[-36,14],[-111,-12],[-20,47],[31,18],[66,-20],[22,29],[67,-25],[42,5],[-12,13],[238,-15],[20,39],[50,-61],[-67,-4],[9,-22],[-24,-15],[17,-5],[-28,-13],[53,19],[-18,-30],[50,29],[23,-35],[-3,51],[43,-14],[-8,-16],[10,16],[51,-19],[-10,-21],[30,12],[35,-46],[3,-34],[-14,16],[-8,-17],[19,-26],[-50,10],[16,-42],[-17,-37],[39,35],[20,-34],[-22,-31],[24,8],[22,-32],[3,29],[66,-18],[15,21],[18,-39],[21,49],[58,24],[-8,-19],[30,-21],[-54,-13],[19,-23],[-20,-29],[116,1],[14,-66],[-29,-41],[-54,-5],[-64,-93],[-49,-12],[15,166],[-95,1],[-63,31],[-24,-17],[-102,13],[-75,59]],[[2654,1104],[50,54],[171,-14],[41,-99],[-46,37],[-3,-33],[20,10],[20,-60],[22,-1],[2,-44],[-236,-2],[-18,64],[21,37],[-44,51]],[[650,2117],[-27,14],[-4,48],[81,-17],[-50,-45]],[[376,2392],[47,-35],[18,-63],[85,44],[28,-12],[-16,-98],[33,-50],[-148,-12],[-95,62],[-16,49],[-33,0],[-21,43],[-44,6],[17,66],[64,-33],[81,33]],[[3168,1309],[61,-9],[28,31],[-16,41],[20,29],[127,-33],[68,-109],[-8,-60],[-81,38],[-35,47],[27,60],[-58,1],[-81,-113],[-46,0],[-6,77]],[[4096,1028],[0,-111],[-50,-235],[-35,-64],[-117,48],[-18,17],[36,52],[-89,46],[8,161],[247,88],[18,-2]],[[2632,1580],[35,99],[-27,41],[250,-220],[52,4],[11,-195],[-89,18],[7,39],[-100,92],[33,48],[-42,88],[-64,13],[-38,-40],[-28,13]],[[3070,490],[27,65],[192,-21],[-11,-194],[-135,16],[-73,134]]]}