{"objects":{"water":{"type":"GeometryCollection","geometries":[{"type":"Polygon","properties":{"kind":"lake","name":"Karnaphuli Reservoir","reservoir":true,"area":609938368,"sort_rank":200,"source":"naturalearthdata.com","min_zoom":0.0,"id":1235},"arcs":[[34]]},{"type":"MultiPolygon","properties":{"source":"naturalearthdata.com","kind":"ocean","area":1576712559132672,"sort_rank":200,"min_zoom":0.0,"id":1},"arcs":[[[35]],[[36]],[[37],[38],[39],[40],[41],[42],[43],[44],[45],[46],[47],[48],[49],[50],[51],[52]]]},{"type":"Polygon","properties":{"source":"naturalearthdata.com","kind":"lake","area":226430368,"sort_rank":200,"min_zoom":0.0,"id":681},"arcs":[[53]]},{"type":"Point","properties":{"label_placement":true,"kind":"lake","name":"Karnaphuli Reservoir","reservoir":true,"area":609938368,"sort_rank":200,"source":"naturalearthdata.com","min_zoom":0.0,"id":1235},"coordinates":[3348,1289]},{"type":"MultiLineString","properties":{"source":"naturalearthdata.com","kind":"ocean","sort_rank":205,"boundary":true,"min_zoom":0.0,"id":79},"arcs":[[54],[55],[56],[57]]},{"type":"LineString","properties":{"source":"naturalearthdata.com","kind":"lake","sort_rank":367,"boundary":true,"min_zoom":0.0,"id":681},"arcs":[58]},{"type":"LineString","properties":{"source":"naturalearthdata.com","kind":"lake","reservoir":true,"sort_rank":367,"boundary":true,"min_zoom":0.0,"id":1235},"arcs":[59]},{"type":"LineString","properties":{"source":"naturalearthdata.com","kind":"ocean","sort_rank":205,"boundary":true,"min_zoom":0.0,"id":1570},"arcs":[60]},{"type":"LineString","properties":{"source":"naturalearthdata.com","kind":"ocean","sort_rank":205,"boundary":true,"min_zoom":0.0,"id":1571},"arcs":[61]},{"type":"MultiLineString","properties":{"source":"naturalearthdata.com","kind":"ocean","sort_rank":205,"boundary":true,"min_zoom":0.0,"id":1572},"arcs":[[62],[63]]},{"type":"LineString","properties":{"source":"naturalearthdata.com","kind":"ocean","sort_rank":205,"boundary":true,"min_zoom":0.0,"id":1573},"arcs":[64]},{"type":"MultiLineString","properties":{"source":"naturalearthdata.com","kind":"ocean","sort_rank":205,"boundary":true,"min_zoom":0.0,"id":1574},"arcs":[[65],[66]]},{"type":"LineString","properties":{"source":"naturalearthdata.com","kind":"ocean","sort_rank":205,"boundary":true,"min_zoom":0.0,"id":1575},"arcs":[67]},{"type":"LineString","properties":{"source":"naturalearthdata.com","kind":"ocean","sort_rank":205,"boundary":true,"min_zoom":0.0,"id":1576},"arcs":[68]},{"type":"LineString","properties":{"source":"naturalearthdata.com","kind":"ocean","sort_rank":205,"boundary":true,"min_zoom":0.0,"id":1577},"arcs":[69]},{"type":"LineString","properties":{"source":"naturalearthdata.com","kind":"ocean","sort_rank":205,"boundary":true,"min_zoom":0.0,"id":1578},"arcs":[70]},{"type":"LineString","properties":{"source":"naturalearthdata.com","kind":"ocean","sort_rank":205,"boundary":true,"min_zoom":0.0,"id":1579},"arcs":[71]},{"type":"LineString","properties":{"source":"naturalearthdata.com","kind":"ocean","sort_rank":205,"boundary":true,"min_zoom":0.0,"id":1580},"arcs":[72]},{"type":"LineString","properties":{"source":"naturalearthdata.com","kind":"ocean","sort_rank":205,"boundary":true,"min_zoom":0.0,"id":1581},"arcs":[73]},{"type":"LineString","properties":{"source":"naturalearthdata.com","kind":"ocean","sort_rank":205,"boundary":true,"min_zoom":0.0,"id":1582},"arcs":[74]},{"type":"LineString","properties":{"source":"naturalearthdata.com","kind":"ocean","sort_rank":205,"boundary":true,"min_zoom":0.0,"id":1583},"arcs":[75]},{"type":"LineString","properties":{"source":"naturalearthdata.com","kind":"ocean","sort_rank":205,"boundary":true,"min_zoom":0.0,"id":1584},"arcs":[76]},{"type":"LineString","properties":{"source":"naturalearthdata.com","kind":"ocean","sort_rank":205,"boundary":true,"min_zoom":0.0,"id":1585},"arcs":[77]},{"type":"LineString","properties":{"source":"naturalearthdata.com","kind":"ocean","sort_rank":205,"boundary":true,"min_zoom":0.0,"id":1586},"arcs":[78]},{"type":"LineString","properties":{"source":"naturalearthdata.com","kind":"ocean","sort_rank":205,"boundary":true,"min_zoom":0.0,"id":1587},"arcs":[79]}]},"buildings":{"type":"GeometryCollection","geometries":[]},"places":{"type":"GeometryCollection","geometries":[{"type":"Point","properties":{"name:ps":"\u0628\u0646\u06ab\u0644\u0647\u200c\u062f\u06cc\u0634","name:ka":"\u10d1\u10d0\u10dc\u10d2\u10da\u10d0\u10d3\u10d4\u10e8\u10d8","alt_name:el":"\u039c\u03c0\u03b1\u03bd\u03b3\u03ba\u03bb\u03b1\u03bd\u03c4\u03ad\u03c2","name:tr":"Banglade\u015f","name:cv":"\u0411\u0430\u043d\u0433\u043b\u0430\u0434\u0435\u0448","name:km":"\u1794\u1784\u17cb\u1780\u17d2\u179b\u17b6\u178a\u17c1\u179f\u17d2\u17a0","name:cs":"Banglad\u00e9\u0161","name:ki":"Bangladeshi","name:kv":"\u0411\u0430\u043d\u0433\u043b\u0430\u0434\u0435\u0448","name:ku":"Banglade\u015f","name:ti":"\u1263\u1295\u130d\u120b\u12f2\u123d","name:ks":"\u0628\u064e\u0646\u065b\u06af\u0644\u0627\u062f\u06cc\u0634","name:to":"Pengil\u0101tesi","name:pa":"\u0a2c\u0a70\u0a17\u0a32\u0a3e\u0a26\u0a47\u0a38\u0a3c","name:os":"\u0411\u0430\u043d\u0433\u043b\u0430\u0434\u0435\u0448","name:or":"\u0b2c\u0b3e\u0b19\u0b4d\u0b17\u0b32\u0b3e\u0b26\u0b47\u0b36\u0b4d","name:ce":"\u0411\u0430\u043d\u0433\u043b\u0430\u0434\u0435\u0448","name:ta":"\u0baa\u0b99\u0bcd\u0b95\u0bb3\u0bbe\u0ba4\u0bc7\u0bb7\u0bcd","name:tg":"\u0411\u0430\u043d\u0433\u043b\u0430\u0434\u0435\u0448","name:ca":"Bangla Desh","name:te":"\u0c2c\u0c3e\u0c02\u0c17\u0c4d\u0c32\u0c3e\u0c26\u0c47\u0c37\u0c4d","name:hu":"Banglades","source":"openstreetmap.org","name:hr":"Banglade\u0161","name:ln":"Bengalid\u025bsi","name:de":"Bangladesch","name:dz":"\u0f56\u0f44\u0f92\u0f0b\u0f63\u0f0b\u0f51\u0f7a\u0f64","name:ko":"\ubc29\uae00\ub77c\ub370\uc2dc","name:nv":"Bangla Bik\u00e9yah","name:kn":"\u0cac\u0cbe\u0c82\u0c97\u0ccd\u0cb2\u0cbe\u0ca6\u0cc7\u0cb6\u0ccd","name:dv":"\u0784\u07a6\u0782\u07b0\u078e\u07a7\u0785\u07aa","name:lv":"Banglade\u0161a","name:lt":"Banglade\u0161as","name:hi":"\u092c\u093e\u0902\u0917\u094d\u0932\u093e\u0926\u0947\u0936","name:kk":"\u0411\u0430\u043d\u0433\u043b\u0430\u0434\u0435\u0448","name:he":"\u05d1\u05e0\u05d2\u05dc\u05d3\u05e9","min_zoom":2.0,"kind":"country","name:ur":"\u0628\u0646\u06af\u0644\u06c1 \u062f\u06cc\u0634","name:lb":"Bangladesch","name:la":"Bangladesha","name:lg":"Bangaladesi","name:uk":"\u0411\u0430\u043d\u0433\u043b\u0430\u0434\u0435\u0448","name:hy":"\u0532\u0561\u0576\u0563\u056c\u0561\u0564\u0565\u0577","name:ug":"\u0628\u0627\u0646\u06af\u0644\u0627\u062f\u06d0\u0634","name:li":"Bangladesj","name:qu":"Banladish","name:lo":"\u0e9a\u0eb1\u0e87\u0e81\u0eb0\u0ea5\u0eb2\u0ec0\u0e97\u0e94","name:oc":"Banglad\u00e8sh","population":162221000,"name:el":"\u039c\u03c0\u03b1\u03b3\u03ba\u03bb\u03b1\u03bd\u03c4\u03ad\u03c2","name:eo":"Banglade\u015do","name":"Bangladesh","name:is":"Bangladess","name:tk":"Banglade\u015f","name:ee":"Bangladesh nutome","name:th":"\u0e1b\u0e23\u0e30\u0e40\u0e17\u0e28\u0e1a\u0e31\u0e07\u0e01\u0e25\u0e32\u0e40\u0e17\u0e28","name:yi":"\u05d1\u05d0\u05e0\u05d2\u05dc\u05d0\u05d3\u05e2\u05e9","name:es":"Banglad\u00e9s","name:rm":"Bangladesch","name:rn":"Bangaladeshi","name:az":"Banqlade\u015f","name:mr":"\u092c\u093e\u0902\u0917\u094d\u0932\u093e\u0926\u0947\u0936","name:as":"\u09ac\u09be\u0982\u09b2\u09be\u09a6\u09c7\u09b6","name:ar":"\u0628\u0646\u063a\u0644\u0627\u062f\u064a\u0634","name:my":"\u1018\u1004\u103a\u1039\u1002\u101c\u102c\u1038\u1012\u1031\u1037\u101b\u103e\u103a","name:ak":"Banglad\u025bhye","name:am":"\u1263\u1295\u130d\u120b\u12f2\u123d","name:fo":"Bangladesj","name:ml":"\u0d2c\u0d02\u0d17\u0d4d\u0d32\u0d3e\u0d26\u0d47\u0d36\u0d4d","name:ru":"\u0411\u0430\u043d\u0433\u043b\u0430\u0434\u0435\u0448","name:rw":"Bangaladeshi","name:pl":"Bangladesz","name:mk":"\u0411\u0430\u043d\u0433\u043b\u0430\u0434\u0435\u0448","name:af":"Bangladesj","name:zu":"i-Bangladesh","name:ha":"Bangiladas","name:mn":"\u0411\u0430\u043d\u0433\u043b\u0430\u0434\u0435\u0448","name:ff":"Banglaadees","name:mg":"Bangladesy","id":432424937,"name:mt":"Bangladexx","name:wo":"Banglaades","name:ky":"\u0411\u0430\u04a3\u0433\u043b\u0430\u0434\u0435\u0448","name:zh-yue":"\u5b5f\u52a0\u62c9\u570b","name:fy":"Banglades","name:pi":"\u092c\u0902\u0917\u0932\u093e\u0926\u0947\u0936","name:zh":"\u5b5f\u52a0\u62c9\u56fd","name:gv":"Yn Vangladesh","name:so":"Bangaaladheesh","name:sn":"Bangladeshi","name:sr":"\u0411\u0430\u043d\u0433\u043b\u0430\u0434\u0435\u0448","name:sl":"Banglade\u0161","name:sk":"Banglad\u00e9\u0161","name:ja":"\u30d0\u30f3\u30b0\u30e9\u30c7\u30b7\u30e5","name:si":"\u0db6\u0d82\u0d9c\u0dbd\u0dd2\u0daf\u0dda\u0dc1\u0dba","name:sh":"Banglade\u0161","name:sg":"Benglad\u00eashi","name:na":"Bangradet","name:sd":"\u0628\u0646\u06af\u0644\u0627\u062f\u064a\u0634","name:ne":"\u092c\u0919\u094d\u0917\u0932\u093e\u0926\u0947\u0936","name:sa":"\u092c\u0902\u0917\u0932\u093e\u0926\u0947\u0936\u0903","name:bs":"Banglade\u0161","name:bm":"B\u025bngilad\u025bsi","name:bn":"\u09ac\u09be\u0982\u09b2\u09be\u09a6\u09c7\u09b6","name:bo":"\u0f56\u0f44\u0f92\u0f0b\u0f63\u0f0b\u0f51\u0f7a\u0f64\u0f0d","name:vo":"Bangladej\u00e4n","name:sw":"Bangladeshi","name:be":"\u0411\u0430\u043d\u0433\u043b\u0430\u0434\u044d\u0448","name:su":"Banglad\u00e9s","name:bg":"\u0411\u0430\u043d\u0433\u043b\u0430\u0434\u0435\u0448","name:ss":"IBhangladeshi","name:ba":"\u0411\u0430\u043d\u0433\u043b\u0430\u0434\u0435\u0448","name:sq":"Bangladeshi","name:ga":"An Bhanglad\u00e9is","name:gd":"Bangladais","name:ht":"Banglad\u00e8ch","name:gn":"Vangylad\u1ebd","name:fa":"\u0628\u0646\u06af\u0644\u0627\u062f\u0634","name:yo":"Or\u00edl\u1eb9\u0301\u00e8de B\u00e1ng\u00e1l\u00e1d\u00e9s\u00ec","name:gu":"\u0aac\u0abe\u0a82\u0a97\u0acd\u0ab2\u0abe\u0aa6\u0ac7\u0ab6","name:tt":"\u0411\u0430\u043d\u0433\u043b\u0430\u0434\u0435\u0448"},"coordinates":[427,4016]},{"type":"Point","properties":{"source":"naturalearthdata.com","kind":"locality","name":"Dhaka","country_capital":true,"population":12797394,"min_zoom":4.0,"id":7217},"coordinates":[592,2825]},{"type":"Point","properties":{"source":"naturalearthdata.com","kind":"locality","name":"Chittagong","population":4529000,"region_capital":true,"min_zoom":4.0,"id":7220},"coordinates":[2619,616]},{"type":"Point","properties":{"admin_level":"4","kind":"region","name:en":"Chittagong Division","name":"\u099a\u099f\u09cd\u099f\u0997\u09cd\u09b0\u09be\u09ae \u09ac\u09bf\u09ad\u09be\u0997","kind_detail":"state","name:de":"Division Chittagong","source":"openstreetmap.org","min_zoom":4.0,"id":4344801339,"name:ja":"\u30c1\u30c3\u30bf\u30b4\u30f3"},"coordinates":[2180,1568]},{"type":"Point","properties":{"admin_level":"4","kind":"region","name:en":"Barisal Division","name":"\u09ac\u09b0\u09bf\u09b6\u09be\u09b2 \u09ac\u09bf\u09ad\u09be\u0997","kind_detail":"state","name:de":"Division Barishal","source":"openstreetmap.org","min_zoom":4.0,"id":4344792547,"name:ja":"\u30d0\u30ea\u30b5\u30eb"},"coordinates":[435,924]},{"type":"Point","properties":{"kind":"region","name":"Tripura","name:hi":"\u0924\u094d\u0930\u093f\u092a\u0941\u0930\u093e","kind_detail":"state","name:eo":"Tripuro","source":"openstreetmap.org","name:bn":"\u09a4\u09cd\u09b0\u09bf\u09aa\u09c1\u09b0\u09be","name:uk":"\u0422\u0440\u0456\u043f\u0443\u0440\u0430","name:kn":"\u0ca4\u0ccd\u0cb0\u0cbf\u0caa\u0cc1\u0cb0\u0cbe","name:ru":"\u0422\u0440\u0438\u043f\u0443\u0440\u0430","min_zoom":4.0,"id":2240851596,"name:ja":"\u30c8\u30ea\u30d7\u30e9"},"coordinates":[2479,2904]},{"type":"Point","properties":{"admin_level":"4","kind":"region","name:en":"Dhaka Division","name":"\u09a2\u09be\u0995\u09be \u09ac\u09bf\u09ad\u09be\u0997","kind_detail":"state","name:de":"Division Dhaka","source":"openstreetmap.org","min_zoom":4.0,"id":4353277097,"name:ja":"\u30c0\u30c3\u30ab"},"coordinates":[315,3690]},{"type":"Point","properties":{"admin_level":"4","kind":"region","name:en":"Sylhet Division","name":"\u09b8\u09bf\u09b2\u09c7\u099f \u09ac\u09bf\u09ad\u09be\u0997","kind_detail":"state","name:de":"Division Sylhet","source":"openstreetmap.org","min_zoom":4.0,"id":4344824693,"name:ja":"\u30b7\u30ec\u30c3\u30c8"},"coordinates":[2488,4042]},{"type":"Point","properties":{"source":"naturalearthdata.com","kind":"locality","name":"Comilla","population":389411,"min_zoom":7.0,"id":4610},"coordinates":[1704,2421]},{"type":"Point","properties":{"source":"naturalearthdata.com","kind":"locality","name":"Aizawl","population":283021,"region_capital":true,"min_zoom":7.0,"id":4127},"coordinates":[3961,2801]},{"type":"Point","properties":{"source":"naturalearthdata.com","kind":"locality","name":"Narayanganj","population":223622,"min_zoom":7.0,"id":4498},"coordinates":[728,2659]},{"type":"Point","properties":{"source":"naturalearthdata.com","kind":"locality","name":"Agartala","population":203264,"region_capital":true,"min_zoom":7.0,"id":4128},"coordinates":[1864,3000]},{"type":"Point","properties":{"source":"naturalearthdata.com","kind":"locality","name":"Barisal","population":202242,"region_capital":true,"min_zoom":7.0,"id":4609},"coordinates":[546,1200]}]},"transit":{"type":"GeometryCollection","geometries":[]},"pois":{"type":"GeometryCollection","geometries":[]},"boundaries":{"type":"GeometryCollection","geometries":[{"type":"LineString","properties":{"source":"naturalearthdata.com","kind":"country","sort_rank":262,"kind_detail":"2","min_zoom":0.0,"id":295},"arcs":[0]},{"type":"LineString","properties":{"source":"naturalearthdata.com","kind":"country","sort_rank":262,"kind_detail":"2","min_zoom":0.0,"id":164},"arcs":[1]},{"type":"MultiLineString","properties":{"source":"naturalearthdata.com","kind":"country","sort_rank":262,"kind_detail":"2","min_zoom":0.0,"id":256},"arcs":[[2],[3],[4],[5]]},{"type":"LineString","properties":{"source":"naturalearthdata.com","kind":"region","name":"Tripura - Assam","sort_rank":256,"kind_detail":"4","min_zoom":2.0,"id":7445},"arcs":[6]},{"type":"MultiLineString","properties":{"source":"naturalearthdata.com","kind":"region","name":"Chittagong - Sylhet","sort_rank":256,"kind_detail":"4","min_zoom":2.0,"id":2552},"arcs":[[7],[8],[9]]},{"type":"MultiLineString","properties":{"source":"naturalearthdata.com","kind":"region","name":"Dhaka - Barisal","sort_rank":256,"kind_detail":"4","min_zoom":2.0,"id":2553},"arcs":[[10],[11],[12],[13],[14],[15],[16],[17],[18]]},{"type":"LineString","properties":{"source":"naturalearthdata.com","kind":"region","name":"Dhaka - Sylhet","sort_rank":256,"kind_detail":"4","min_zoom":2.0,"id":2556},"arcs":[19]},{"type":"MultiLineString","properties":{"source":"naturalearthdata.com","kind":"region","name":"Chittagong - Dhaka","sort_rank":256,"kind_detail":"4","min_zoom":2.0,"id":2558},"arcs":[[20],[21],[22],[23],[24],[25],[26]]},{"type":"MultiLineString","properties":{"source":"naturalearthdata.com","kind":"region","name":"Assam - Mizoram","sort_rank":256,"kind_detail":"4","min_zoom":2.0,"id":7448},"arcs":[[27],[28],[29],[30]]},{"type":"MultiLineString","properties":{"source":"naturalearthdata.com","kind":"region","name":"Mizoram - Tripura","sort_rank":256,"kind_detail":"4","min_zoom":2.0,"id":7447},"arcs":[[31],[32],[33]]}]},"roads":{"type":"GeometryCollection","geometries":[{"type":"LineString","properties":{"source":"naturalearthdata.com","kind":"minor_road","sort_rank":355,"kind_detail":"tertiary","min_zoom":5.0,"id":32362},"arcs":[80]},{"type":"LineString","properties":{"source":"naturalearthdata.com","kind":"minor_road","sort_rank":355,"kind_detail":"tertiary","min_zoom":5.0,"id":32560},"arcs":[81]},{"type":"LineString","properties":{"source":"naturalearthdata.com","kind":"minor_road","kind_detail":"tertiary","sort_rank":355,"landuse_kind":"urban_area","min_zoom":5.0,"id":32659},"arcs":[82]},{"type":"LineString","properties":{"source":"naturalearthdata.com","kind":"minor_road","sort_rank":355,"kind_detail":"tertiary","min_zoom":5.0,"id":32659},"arcs":[83]},{"type":"LineString","properties":{"source":"naturalearthdata.com","kind":"major_road","kind_detail":"secondary","sort_rank":379,"landuse_kind":"urban_area","min_zoom":4.0,"id":32669},"arcs":[84]},{"type":"LineString","properties":{"source":"naturalearthdata.com","kind":"major_road","sort_rank":379,"kind_detail":"secondary","min_zoom":4.0,"id":32669},"arcs":[85]},{"type":"LineString","properties":{"source":"naturalearthdata.com","kind":"major_road","kind_detail":"secondary","sort_rank":379,"landuse_kind":"urban_area","min_zoom":4.0,"id":32673},"arcs":[86]},{"type":"LineString","properties":{"source":"naturalearthdata.com","kind":"major_road","sort_rank":379,"kind_detail":"secondary","min_zoom":4.0,"id":32673},"arcs":[87]},{"type":"LineString","properties":{"source":"naturalearthdata.com","kind":"minor_road","kind_detail":"tertiary","sort_rank":355,"landuse_kind":"urban_area","min_zoom":5.0,"id":32683},"arcs":[88]},{"type":"LineString","properties":{"source":"naturalearthdata.com","kind":"minor_road","sort_rank":355,"kind_detail":"tertiary","min_zoom":5.0,"id":32683},"arcs":[89]},{"type":"LineString","properties":{"source":"naturalearthdata.com","kind":"minor_road","kind_detail":"tertiary","sort_rank":355,"landuse_kind":"urban_area","min_zoom":5.0,"id":32684},"arcs":[90]},{"type":"LineString","properties":{"source":"naturalearthdata.com","kind":"major_road","kind_detail":"secondary","sort_rank":379,"landuse_kind":"urban_area","min_zoom":4.0,"id":32697},"arcs":[91]},{"type":"LineString","properties":{"source":"naturalearthdata.com","kind":"major_road","sort_rank":379,"kind_detail":"secondary","min_zoom":4.0,"id":32697},"arcs":[92]},{"type":"LineString","properties":{"source":"naturalearthdata.com","kind":"major_road","kind_detail":"secondary","sort_rank":379,"landuse_kind":"urban_area","min_zoom":4.0,"id":32763},"arcs":[93]},{"type":"LineString","properties":{"source":"naturalearthdata.com","kind":"major_road","sort_rank":379,"kind_detail":"secondary","min_zoom":4.0,"id":32763},"arcs":[94]},{"type":"LineString","properties":{"source":"naturalearthdata.com","kind":"major_road","sort_rank":379,"kind_detail":"secondary","min_zoom":4.0,"id":32805},"arcs":[95]},{"type":"LineString","properties":{"source":"naturalearthdata.com","kind":"major_road","kind_detail":"secondary","sort_rank":379,"landuse_kind":"urban_area","min_zoom":4.0,"id":32842},"arcs":[96]},{"type":"LineString","properties":{"source":"naturalearthdata.com","kind":"major_road","kind_detail":"secondary","sort_rank":379,"landuse_kind":"urban_area","min_zoom":4.0,"id":32842},"arcs":[97]},{"type":"MultiLineString","properties":{"source":"naturalearthdata.com","kind":"major_road","sort_rank":379,"kind_detail":"secondary","min_zoom":4.0,"id":32842},"arcs":[[98],[99]]},{"type":"LineString","properties":{"source":"naturalearthdata.com","kind":"major_road","kind_detail":"secondary","sort_rank":379,"landuse_kind":"urban_area","min_zoom":4.0,"id":32843},"arcs":[100]},{"type":"LineString","properties":{"source":"naturalearthdata.com","kind":"major_road","sort_rank":379,"kind_detail":"secondary","min_zoom":4.0,"id":32843},"arcs":[101]},{"type":"LineString","properties":{"source":"naturalearthdata.com","kind":"major_road","kind_detail":"secondary","sort_rank":379,"landuse_kind":"urban_area","min_zoom":4.0,"id":33098},"arcs":[102]},{"type":"LineString","properties":{"source":"naturalearthdata.com","kind":"major_road","sort_rank":379,"kind_detail":"secondary","min_zoom":4.0,"id":33098},"arcs":[103]},{"type":"LineString","properties":{"source":"naturalearthdata.com","kind":"major_road","kind_detail":"secondary","sort_rank":379,"landuse_kind":"urban_area","min_zoom":4.0,"id":33465},"arcs":[104]},{"type":"LineString","properties":{"source":"naturalearthdata.com","kind":"major_road","kind_detail":"secondary","sort_rank":379,"landuse_kind":"urban_area","min_zoom":4.0,"id":33465},"arcs":[105]},{"type":"MultiLineString","properties":{"source":"naturalearthdata.com","kind":"major_road","sort_rank":379,"kind_detail":"secondary","min_zoom":4.0,"id":33465},"arcs":[[106],[107],[108]]},{"type":"LineString","properties":{"source":"naturalearthdata.com","kind":"minor_road","kind_detail":"tertiary","sort_rank":355,"landuse_kind":"urban_area","min_zoom":5.0,"id":33475},"arcs":[109]},{"type":"MultiLineString","properties":{"source":"naturalearthdata.com","kind":"minor_road","sort_rank":355,"kind_detail":"tertiary","min_zoom":5.0,"id":33475},"arcs":[[110],[111]]},{"type":"LineString","properties":{"source":"naturalearthdata.com","kind":"minor_road","sort_rank":355,"kind_detail":"tertiary","min_zoom":5.0,"id":33800},"arcs":[112]}]},"earth":{"type":"GeometryCollection","geometries":[{"type":"MultiPolygon","properties":{"sort_rank":10,"source":"naturalearthdata.com","min_zoom":0.0,"kind":"earth","area":380775984925},"arcs":[[[113]],[[114]],[[115]],[[116]],[[117]],[[118]],[[119]],[[120]],[[121]],[[122]],[[123]],[[124]],[[125]],[[126]],[[127]],[[128]],[[129]],[[130]],[[131]]]}]},"landuse":{"type":"GeometryCollection","geometries":[{"type":"MultiPolygon","properties":{"source":"naturalearthdata.com","kind":"urban_area","name":"","area":1641636519,"sort_rank":11,"min_zoom":4.0},"arcs":[[[132]],[[133]],[[134]],[[135]],[[136]],[[137]]]}]}},"type":"Topology","transform":{"translate":[90.0,21.9430455334],"scale":[0.0006866455,0.0006308812]},"arcs":[[[3751,55],[-1,14],[-3,14],[-19,105],[-33,106],[18,16],[21,0],[17,7],[2,41],[-85,517],[-2,28],[-18,49],[-6,27],[3,92],[-10,122],[-6,24],[-16,24],[-40,35],[-17,24],[-10,48],[-12,123],[-21,27],[-49,20],[-27,41],[-11,53],[1,111],[-37,224],[1,63],[6,24],[26,55],[10,29],[-1,16],[-6,15],[-8,26],[0,16],[4,31],[-2,15],[-5,8],[-19,15],[-8,10],[-1,11],[2,22],[-2,12],[-9,14],[-19,18],[-7,13],[-7,23],[-8,77],[-56,181],[-4,53],[17,67],[-3,28],[-1,6],[-30,17],[-24,-15],[-18,-73],[-22,-21],[-20,27],[-15,61],[-29,44],[-61,-21],[-24,-27],[-47,-66],[-26,-22],[-34,-9],[-22,12],[-61,69],[-18,29],[-19,22],[-20,-1],[-9,-20],[-3,-35],[2,-60],[39,-184],[-3,-62],[-33,-56],[-18,-21],[-24,-17],[-80,-35],[-24,-20],[-38,-52],[-42,-74],[-28,-78],[8,-63],[22,-51],[22,-109],[19,-48],[5,-19],[-6,-14],[-22,-24],[-4,-1],[-14,1],[-4,0],[-8,-6],[0,-8],[1,-7],[-2,-6],[-24,-38],[-11,-11],[-24,-23],[-11,-12],[-18,-11],[-39,-9],[-20,-7],[-10,-3],[-11,2],[-10,4],[-10,2],[-14,-5],[-6,-13],[-6,-16],[-8,-11],[-24,-14],[-5,6],[1,15],[-10,18],[-20,10],[-19,3],[-19,8],[-19,21],[-6,16],[-2,47],[-4,6],[-14,4],[-4,5],[-7,40],[-34,116],[-7,16],[-9,49],[-4,1],[-21,21],[-2,8],[2,9],[0,11],[-10,13],[0,-2],[-5,-11],[0,-1],[-12,23],[-21,30],[-28,23],[-33,-2],[-16,-22],[-8,-37],[1,-71],[27,-133],[-6,-52],[-48,13],[-35,48],[-19,65],[-34,255],[-6,16],[-8,13],[-3,12],[11,15],[14,14],[7,13],[-5,9],[-19,5],[-19,15],[-15,32],[-19,67],[-7,39],[-4,12],[-9,15],[-25,16],[-13,11],[-13,26],[-12,52],[-11,28],[-43,80],[-6,27],[5,38],[18,3],[21,-2],[13,26],[-10,24],[-24,9],[-23,12],[-6,35],[14,30],[23,8],[28,3],[26,13],[15,26],[29,87],[5,30],[-6,20],[-17,36],[-1,22],[6,22],[50,88],[15,21],[20,18],[25,10],[19,-1],[6,-2],[11,-5],[16,-3],[17,12],[15,65],[2,60],[18,41],[61,5],[110,-24],[54,-5],[60,8],[34,10],[21,14],[14,22],[11,34],[16,100],[6,19],[16,-6],[25,-64],[14,-24],[26,-17],[28,-4],[26,10],[16,24],[-1,27],[-9,33],[-4,30],[15,21],[92,-20],[16,-1],[4,-10],[2,-36],[3,-14],[45,-44],[29,-8],[19,12],[10,28],[32,135],[1,31],[-15,63],[5,28],[32,11],[13,-12],[32,-23],[28,-11],[-1,22],[-33,54],[2,18],[121,-10],[43,4],[37,16],[28,39],[6,45],[-8,96],[7,31],[18,17],[5,3]],[[3763,0],[-12,55]],[[3909,335],[35,-10],[92,-70],[60,-58]],[[3888,237],[6,4],[1,17],[-5,45],[4,20],[15,12]],[[3877,241],[4,-2],[7,-2]],[[3751,55],[12,4],[11,6],[10,8],[8,10],[17,21],[18,6],[18,1],[16,10],[11,21],[0,22],[-4,22],[0,24],[9,31]],[[3347,3637],[-98,17],[-8,11],[-8,14],[50,116],[6,23],[3,24],[0,29],[-4,17],[-27,52],[-4,14],[-2,17],[-1,49],[-3,15],[-6,11],[-9,8],[-65,42]],[[1836,3598],[-37,7],[-119,62]],[[1906,3249],[1,9],[5,27],[0,13],[0,2],[-8,11],[-13,15],[-7,25],[-2,12],[-5,17],[-2,11],[-3,28],[1,21],[-2,13],[-5,14],[-11,23],[-1,15],[2,12],[5,6],[6,6],[5,3],[5,1],[32,7],[5,2],[4,3],[-2,4],[-7,5],[-35,10],[-9,4],[0,8],[4,5],[6,5],[39,24],[20,16],[6,6],[2,6],[-2,5],[-8,6],[-10,2]],[[1922,3651],[-17,-3],[-11,-4],[-9,-5],[-49,-41]],[[280,1789],[16,-3],[12,-6],[9,-11],[5,-13],[4,-41],[8,-26],[28,-34],[20,-15],[18,-7]],[[0,1502],[28,28],[36,51],[20,45],[8,9],[29,28],[12,19],[24,24],[27,15],[12,30],[13,24],[71,14]],[[477,1789],[18,-4],[29,-7],[33,-26],[20,-19],[38,-18]],[[440,1741],[-14,2],[13,26],[16,11],[18,5],[4,4]],[[615,1715],[25,15],[5,6],[7,15],[4,3]],[[475,1708],[-1,28],[-11,8]],[[463,1744],[-23,-3]],[[474,1709],[1,-1]],[[400,1633],[12,2],[9,1],[15,10],[15,26],[12,11],[3,9],[6,9],[2,8]],[[1680,3667],[11,19],[12,11],[21,54],[49,22],[32,22],[-20,31],[16,18],[10,3],[8,14],[-3,12],[-7,12],[-10,11],[-31,28],[24,17],[1,20],[-2,8],[-6,29],[-17,8],[-16,1],[-11,7],[-11,13],[-1,6],[2,6],[4,3],[10,11],[13,18],[13,25]],[[1680,3667],[-19,-14],[-25,-8],[-29,-3],[-13,-7],[0,-16],[3,-18],[-4,-13],[-10,-1]],[[1583,3587],[-11,4],[-20,15]],[[1552,3606],[-47,-66],[-17,-7],[-17,-4],[-9,-6],[7,-31],[-2,-7],[26,-37],[-11,-23],[28,-17],[-10,-33],[-29,-33],[-24,-14],[-16,-16],[-13,-38],[6,-30],[-7,-39],[-30,-66],[-56,-77],[-19,-17],[-14,-7]],[[1298,3038],[-9,2],[-8,3],[-10,6],[-33,22]],[[1238,3071],[-9,-6],[-11,-5],[-9,-2],[-11,-2]],[[1198,3056],[-44,2]],[[1154,3058],[-10,-2],[-10,-4],[-10,-6],[-9,-8],[-8,-10],[-6,-11],[-1,-13],[8,-34],[1,-12],[-2,-11],[-30,-78],[-23,-35],[-3,-14],[5,-11],[21,-14],[8,-8],[6,-10],[4,-11],[-1,-12],[-11,-21],[-13,-12],[39,-40],[12,-18],[-3,-8],[-23,-3],[-17,-9],[-6,-14],[11,-18],[-15,-16],[-32,-21],[-13,-19]],[[4016,4026],[11,-3],[18,-17],[9,-14],[42,-85]],[[3600,3463],[12,2],[14,5],[18,14],[13,13],[20,26],[47,41],[46,47],[16,12],[16,7],[11,3],[9,6],[3,12],[-2,14],[-4,16],[0,24],[12,23],[71,75],[32,31],[9,12],[4,12],[6,26],[47,123],[7,13],[9,6]],[[3450,3643],[69,-3],[10,-2],[5,-4],[3,-5],[0,-5],[-2,-7],[-4,-8],[-11,-20],[-3,-8],[0,-10],[12,-42],[12,-26],[8,-12],[11,-11],[13,-10],[15,-6],[12,-1]],[[3347,3637],[103,6]],[[3347,3637],[9,-25],[8,-10],[4,-4],[7,-7],[6,-9],[3,-11],[3,-12],[5,-135],[-2,-13],[-13,-60],[-1,-34],[1,-14],[3,-10],[3,-4],[9,-19],[3,-10],[1,-8],[-4,-23],[-19,-47],[-2,-10],[-1,-12],[-1,-39],[1,-10],[1,-5],[8,-15],[1,-6],[0,-9],[0,-12],[0,-15],[-1,-15],[-2,-10],[-3,-5],[-6,-4]],[[3368,3015],[-5,1],[-4,3],[-3,4],[-3,4],[-5,2],[-5,1]],[[3343,3030],[-5,-2],[-4,-3],[-3,-4],[-12,-11],[-6,-7],[-6,-13],[-3,-12],[-1,-9],[4,-9],[0,-9],[-5,-13],[-9,-33],[10,-89],[-12,-27]],[[3391,1218],[8,-9],[78,-65],[-27,-18],[-18,-6],[-14,3],[-1,9],[-14,46],[-4,4],[-9,5],[-43,1],[-14,4],[-19,13],[-16,0],[-15,-7],[-15,-10],[0,-12],[20,-13],[24,-28],[36,-56],[-12,0],[-9,3],[-9,3],[-9,5],[9,21],[-25,15],[-14,4],[-20,3],[4,-20],[7,-17],[19,-28],[-7,3],[-16,5],[-7,3],[0,-21],[-17,7],[-11,-5],[2,-9],[21,-5],[8,-11],[-8,-26],[-14,-26],[-11,-13],[20,-10],[17,3],[10,16],[4,23],[9,0],[4,-34],[14,-22],[5,-16],[-23,-14],[25,-4],[16,11],[16,19],[22,18],[-3,-9],[-2,-4],[-1,-3],[-5,-6],[0,-10],[29,-1],[26,-30],[26,-4],[-12,-11],[-9,-21],[-10,-17],[-14,2],[-17,11],[-13,6],[-9,9],[-6,21],[-21,-10],[4,-2],[3,0],[2,-1],[2,-7],[-12,5],[-25,15],[-12,0],[-11,-7],[-7,-11],[0,-13],[9,-11],[0,-10],[-20,-5],[-20,3],[-10,9],[10,14],[-8,12],[-8,7],[-10,3],[-15,-1],[0,10],[12,2],[19,9],[18,5],[9,8],[3,7],[-6,4],[-16,4],[-19,8],[-19,10],[-11,10],[-7,21],[0,21],[-6,15],[-22,6],[-10,11],[-14,55],[-10,22],[14,-13],[10,-15],[15,-37],[9,0],[4,26],[-8,43],[4,18],[6,-7],[15,-15],[-3,19],[-10,12],[-16,4],[-21,-2],[0,32],[12,-3],[8,-2],[5,-5],[4,-11],[12,21],[-3,13],[-13,7],[-20,2],[-12,4],[-20,23],[-13,7],[9,1],[31,9],[-10,12],[-4,7],[1,6],[3,7],[-19,5],[-18,-2],[-14,3],[-9,17],[10,0],[0,10],[-30,0],[0,11],[30,11],[0,10],[-5,11],[-8,10],[-12,8],[-15,4],[3,7],[4,19],[3,8],[-11,1],[-19,7],[-11,2],[0,11],[16,8],[3,13],[-6,13],[-13,9],[0,11],[11,0],[0,10],[-5,8],[-12,22],[-3,9],[-3,5],[-15,3],[-7,3],[-5,9],[2,7],[5,7],[3,9],[-3,23],[-16,66],[-10,25],[7,5],[2,7],[-1,9],[1,12],[7,-57],[20,-76],[30,-67],[42,-29],[-17,-25],[9,-17],[19,-16],[10,-22],[6,-20],[16,-21],[19,-18],[19,-13],[-22,-9],[-9,-1],[11,-16],[29,-20],[11,-19],[-3,-6],[-7,-15],[29,-11],[24,-27],[18,-36],[9,-35],[15,1],[15,-1],[0,22],[-8,13],[-11,9],[-11,10],[-6,12],[-14,43],[9,0],[14,-30],[11,-14],[16,-11],[13,15],[13,6],[10,8],[4,20],[-5,11],[-21,21],[-5,18],[12,0],[5,-6],[3,-1],[3,-1],[8,-4],[-14,21],[-3,9],[-2,14],[-21,-11],[-5,16],[0,27],[-6,22],[-8,0],[-5,-8],[-5,-4],[-5,-4],[-7,-5],[14,34],[8,10],[-16,6],[-15,-2],[-15,-6],[-16,-10],[9,13],[10,8],[10,7],[11,5],[-40,0],[0,9],[26,6],[-1,15],[-16,19],[-19,15],[9,11],[8,19],[1,17],[-12,8],[-9,7],[-11,36],[-5,12],[16,1],[7,-11],[5,-15],[12,-8],[18,0],[1,11],[-7,14],[-12,8],[0,9],[21,19],[-10,17],[-25,13],[-26,7],[0,10],[19,0],[-8,10],[-6,10],[-1,11],[6,13],[8,-2],[32,-15],[0,-5],[2,0],[12,0],[5,0],[1,6],[10,37],[7,1],[2,-3],[0,-4],[2,-4],[3,-17],[9,-6],[13,4],[15,8],[-12,-40],[-4,-9],[-12,-6],[-12,1],[-8,-2],[-3,-15],[5,-27],[12,-5],[16,1],[18,-8],[-21,-9],[0,-12],[6,-5],[15,-16],[-26,12],[-8,-7],[4,-18],[9,-19],[9,0],[5,4],[9,2],[7,4],[-8,-32],[7,-26],[12,-27],[9,-34],[0,-49],[-2,-12],[-4,-13],[-1,-16],[7,-19],[9,0],[1,10],[8,22],[21,-53],[5,14],[0,16],[-5,35],[9,0],[3,-25],[10,-16],[29,-24],[0,-12],[-21,-8],[-19,-14],[-11,-22],[0,-32],[12,8],[15,3],[16,-2]],[[0,191],[22,23],[14,17],[22,78],[19,28],[37,13],[-8,-19],[-14,-10],[-16,-7],[-14,-16],[-5,-23],[-6,-18],[4,-47],[-3,-25],[-10,-11],[-13,-6],[-13,-12],[-11,-19],[-2,-24],[-3,-8],[0,86]],[[0,88],[41,-17],[14,-2],[21,4],[8,7],[5,12],[18,29],[12,34],[10,16],[87,95],[24,14],[39,5],[21,16],[18,36],[26,69],[4,-43],[-11,-42],[-22,-35],[-31,-22],[-8,2],[-11,6],[-13,4],[-13,-6],[-8,-10],[-10,-19],[-7,-10],[-60,-55],[-14,-22],[-5,-19],[-3,-20],[-7,-24],[-13,-20],[-16,-13],[-17,-10],[-14,-11],[-16,-36],[0,-1],[-49,0],[0,88]],[[439,0],[4,36],[6,29],[29,58],[6,28],[3,6],[19,21],[27,41],[6,14],[5,20],[5,49],[4,16],[6,3],[7,-3],[6,-1],[4,22],[2,6],[3,3],[2,2],[12,12],[6,10],[2,13],[-5,15],[-7,7],[-10,4],[-12,10],[-3,23],[15,70],[-7,33],[24,-6],[5,-20],[-9,-50],[3,-20],[17,-45],[-6,-38],[-35,-76],[-9,-39],[10,-13],[21,-14],[25,-11],[19,-4],[16,7],[14,18],[42,74],[9,25],[3,21],[7,14],[15,14],[39,22],[29,7],[34,55],[46,121],[9,65],[-1,33],[-8,32],[-29,57],[-10,28],[0,36],[7,-4],[22,-7],[-24,55],[-18,52],[-26,46],[-52,33],[-27,5],[-26,-4],[-22,-13],[-14,-22],[-3,-17],[4,-31],[-1,-17],[-7,-10],[-10,-7],[-9,-10],[-4,-16],[0,24],[16,88],[9,24],[13,8],[34,5],[12,7],[15,19],[4,12],[-6,55],[-18,51],[-5,50],[-5,16],[-15,23],[-26,22],[-25,5],[-13,-29],[-28,14],[-42,14],[-21,16],[31,21],[18,-18],[20,8],[5,21],[-23,21],[41,9],[18,44],[13,53],[28,36],[20,1],[22,-5],[21,-3],[22,11],[8,15],[-6,11],[-18,14],[-4,6],[-6,2],[-6,0],[-4,2],[-4,11],[3,18],[-4,9],[-29,38],[-27,47],[-20,50],[-6,35],[-2,10],[7,26],[18,7],[54,-1],[28,6],[21,11],[16,16],[16,22],[10,0],[0,-11],[-14,-11],[-7,-16],[3,-13],[18,-4],[9,9],[40,57],[5,37],[-7,94],[-7,31],[14,-14],[11,-16],[6,-9],[-5,56],[-7,26],[-42,65],[-12,11],[-96,11],[-22,8],[-41,20],[-46,10],[-13,15],[-9,20],[-13,20],[-23,19],[-189,114],[-14,17],[2,19],[49,-33],[56,-21],[285,-55],[49,-21],[2,25],[9,28],[12,23],[12,9],[4,17],[-3,143],[-12,12],[-54,2],[-24,4],[-24,10],[-21,16],[-11,24],[37,-23],[19,-7],[24,-2],[23,2],[18,7],[7,13],[-8,22],[53,22],[24,3],[11,-15],[7,2],[2,1],[0,1],[2,7],[9,-11],[-36,-17],[-24,-37],[-5,-45],[22,-63],[6,-5],[21,14],[37,12],[28,17],[16,-2],[26,-15],[10,33],[-26,21],[-13,15],[4,6],[25,1],[15,-2],[8,-9],[7,-21],[-2,-59],[-34,-19],[-85,1],[-35,-22],[-13,-36],[-1,-94],[3,-29],[14,-48],[25,-33],[37,13],[-1,-8],[3,-2],[4,0],[5,-2],[-16,-14],[1,-21],[24,-51],[-9,0],[6,-30],[-12,-29],[-16,-31],[-9,-35],[-2,-65],[-17,-97],[0,-17],[4,-19],[15,-41],[113,-155],[7,-19],[5,-36],[10,-26],[14,-24],[11,-28],[11,-54],[18,-43],[2,-17],[4,-10],[21,-30],[10,-29],[11,-7],[13,-7],[11,-9],[18,-57],[6,-9],[43,3],[16,-6],[12,-45],[21,-29],[5,-15],[9,-14],[40,-29],[9,-22],[19,-16],[44,-2],[47,8],[30,14],[3,31],[-12,46],[-19,43],[-22,23],[21,7],[12,-14],[17,-48],[15,-28],[15,-19],[16,-68],[28,-43],[56,-27],[71,15],[39,10],[27,22],[29,29],[17,61],[12,23],[5,20],[-17,32],[-38,16],[-85,22],[0,12],[34,-1],[11,11],[-7,17],[-19,17],[0,10],[50,-1],[22,-3],[18,-6],[1,-5],[-1,-24],[2,-6],[5,0],[6,2],[45,-10],[2,-1],[23,1],[25,6],[18,14],[4,23],[-11,9],[-24,11],[-26,9],[75,1],[26,7],[14,14],[-4,15],[-30,9],[0,11],[32,-1],[24,-5],[21,-10],[22,-17],[-4,38],[7,35],[20,26],[32,10],[15,17],[25,83],[5,30],[11,0],[-1,-38],[-23,-67],[-9,-46],[-14,-19],[-3,-20],[2,-20],[7,-16],[9,-8],[12,7],[11,-25],[21,-29],[25,-24],[47,-19],[186,-262],[98,-196],[16,-58],[25,-181],[23,-36],[31,-2],[25,19],[1,31],[-13,10],[-19,7],[-15,12],[-4,25],[10,16],[36,19],[5,8],[26,9],[22,19],[16,18],[10,8],[-2,12],[14,62],[3,24],[21,-2],[9,2],[-34,-113],[-16,-28],[-31,-17],[-38,-11],[-26,-19],[5,-40],[10,-9],[16,-7],[12,-13],[2,-26],[-7,-14],[-13,-12],[-13,-16],[-7,-24],[1,-39],[10,-39],[14,-34],[15,-27],[9,0],[0,30],[11,20],[13,3],[7,-21],[-4,4],[-16,6],[3,-55],[37,-162],[0,-60],[5,-14],[20,-24],[1,-3],[-1884,0],[-6,18],[-5,11],[-6,8],[0,32],[-97,-68],[-1,-1],[-77,0],[5,3],[14,50],[-19,43],[-55,60],[-10,10],[-19,-15],[-5,-15],[3,-50],[-3,-34],[-8,-20],[-10,-16],[-5,-16],[-41,0],[33,56],[5,35],[-33,-9],[-25,-29],[-29,-53],[-48,0]],[[514,79],[41,48],[9,39],[-20,-4],[-22,-36],[-18,-46],[-9,-34],[9,0],[10,33]],[[707,183],[-3,-37],[9,0],[8,16],[63,37],[9,-11],[-52,-45],[-8,-14],[2,-22],[6,-18],[16,-7],[27,9],[31,37],[13,54],[9,61],[17,54],[8,-18],[2,-10],[0,-16],[29,97],[-13,3],[-17,-10],[-17,-17],[-12,-18],[-18,1],[-39,-44],[-18,-12],[-26,-10],[-17,-26],[-9,-34]],[[922,285],[-21,-34],[-16,-46],[-6,-45],[9,-31],[24,4],[81,120],[-17,-44],[-28,-48],[-17,-45],[12,-35],[15,-2],[18,8],[19,10],[12,4],[38,66],[14,8],[33,36],[9,-16],[2,-7],[25,23],[78,121],[12,41],[-2,256],[29,150],[-29,38],[-65,58],[-34,36],[-18,49],[-11,76],[-23,38],[-23,28],[-21,37],[-25,52],[-18,44],[-16,56],[-15,47],[-28,-2],[-26,-7],[-25,-10],[-15,-11],[-10,-18],[-33,-130],[-3,-56],[7,-58],[23,-6],[82,-60],[24,-21],[17,-38],[17,-95],[16,-30],[0,-10],[-6,-19],[3,-31],[12,-47],[-9,-27],[0,-93],[-5,-30],[-7,-26],[-61,-134],[-14,-59],[16,-35]],[[942,607],[-9,63],[10,29],[4,-12],[16,-33],[-4,38],[-16,44],[-21,38],[-20,22],[-7,6],[-10,2],[-9,-3],[-3,-10],[3,-20],[8,-3],[10,2],[8,-6],[10,-29],[11,-62],[9,-28],[-10,0],[2,-17],[-1,-17],[2,-17],[7,-14],[10,27]],[[952,857],[-9,-93],[9,10],[5,4],[15,8],[-1,31],[-2,17],[-6,17],[-8,1],[-3,5]],[[796,1332],[22,9],[43,39],[54,-3],[50,-10],[23,5],[-22,32],[-26,32],[-27,13],[-30,32],[-20,7],[-58,0],[-12,-2],[-10,-22],[-24,-3],[-50,9],[-20,-8],[-10,-22],[-4,-28],[-1,-29],[4,-44],[-2,-14],[-12,-18],[39,-12],[15,-11],[5,-16],[3,-15],[18,-17],[15,-18],[20,27],[-8,25],[3,40],[22,22]],[[2074,923],[8,-51],[25,-63],[43,-64],[45,-26],[70,9],[12,53],[-10,67],[-130,172],[-30,-16],[-33,-81]],[[1763,876],[-15,30],[-61,-18],[-51,-22],[-14,-44],[30,-19],[37,2],[30,13],[30,21],[14,37]],[[1565,706],[-8,-123],[-1,-111],[-14,-77],[-10,-27],[-26,-42],[-42,-51],[9,-23],[16,-11],[24,-6],[36,-2],[27,18],[17,28],[18,4],[21,14],[30,25],[19,37],[10,20],[14,24],[23,48],[-7,52],[0,37],[-15,57],[-22,20],[-11,39],[-32,28],[-50,27],[-26,-5]],[[1393,320],[0,86],[-3,14],[-5,7],[-6,-1],[-7,-11],[-9,12],[-12,-35],[-11,-48],[-1,-44],[14,-24],[29,7],[11,37]],[[1423,469],[-1,-84],[17,15],[10,29],[4,34],[-1,29],[-21,9],[-8,-32]],[[1388,450],[54,86],[6,33],[-1,32],[-6,29],[-8,24],[-11,12],[-15,-25],[-9,-39],[-5,-72],[-9,-22],[-15,-27],[-4,-22],[23,-9]],[[939,1590],[-17,11],[12,-1],[38,1],[0,10],[-32,24],[-56,69],[-30,27],[-37,-4],[-48,-40],[-29,-50],[23,-36],[15,-3],[40,1],[16,2],[12,5],[6,7],[5,2],[16,-4],[12,-11],[17,-32],[11,-11],[14,-6],[45,-5],[-7,15],[-12,15],[-14,14]],[[696,1695],[32,41],[23,22],[2,11],[-10,16],[-11,-7],[-12,-3],[-56,0],[7,-23],[13,-65],[12,8]],[[854,2154],[-13,34],[-55,42],[-70,37],[-52,19],[-38,0],[-5,-15],[16,-22],[46,-48],[26,-20],[28,-8],[26,13],[8,18],[29,-12],[54,-38]],[[1762,3835],[9,13],[33,-53],[-31,-22],[-50,-23],[-21,-53],[-11,-11],[-11,-19],[-19,-14],[-26,-8],[-28,-3],[-13,-7],[0,-16],[3,-19],[-4,-12],[-10,-2],[-11,5],[-20,15],[-48,-67],[-17,-6],[-16,-4],[-9,-6],[6,-31],[60,-35],[14,-26],[-1,-41],[-3,-16],[-6,-14],[-43,-30],[-7,-8],[-4,-8],[-26,-42],[-30,-74],[-9,33],[4,43],[13,38],[17,16],[24,14],[28,33],[11,33],[-28,17],[10,22],[-26,38],[-35,15],[-19,-42],[-10,0],[1,28],[-9,13],[-9,-4],[-3,-27],[-17,13],[7,18],[20,17],[51,13],[9,15],[0,55],[12,-6],[8,-11],[3,-16],[-1,-20],[8,0],[15,22],[20,18],[17,22],[8,34],[-1,26],[-6,25],[-2,21],[9,15],[25,3],[21,-14],[34,-32],[20,-8],[17,-1],[14,7],[9,16],[0,19],[-9,15],[-12,14],[-8,13],[-6,27],[6,10],[13,6],[17,12],[13,7],[6,-7],[5,-1],[5,-2],[5,-2],[4,-5],[41,29]],[[0,857],[15,10],[-15,-12]],[[0,191],[22,23],[14,17],[22,78],[19,28],[37,13],[-8,-19],[-14,-10],[-16,-7],[-14,-16],[-5,-23],[-6,-18],[4,-47],[-3,-25],[-10,-11],[-13,-6],[-13,-12],[-11,-19],[-2,-24],[-3,-8]],[[0,88],[41,-17],[14,-2],[21,4],[8,7],[5,12],[18,29],[12,34],[10,16],[87,95],[24,14],[39,5],[21,16],[18,36],[26,69],[4,-43],[-11,-42],[-22,-35],[-31,-22],[-8,2],[-11,6],[-13,4],[-13,-6],[-8,-10],[-10,-19],[-7,-10],[-60,-55],[-14,-22],[-5,-19],[-3,-20],[-7,-24],[-13,-20],[-16,-13],[-17,-10],[-14,-11],[-16,-36],[0,-1]],[[439,0],[4,36],[6,29],[29,58],[6,28],[3,6],[19,21],[27,41],[6,14],[5,20],[5,49],[4,16],[6,3],[7,-3],[6,-1],[4,22],[2,6],[3,3],[2,2],[12,12],[6,10],[2,13],[-5,15],[-7,7],[-10,4],[-12,10],[-3,23],[15,70],[-7,33],[24,-6],[5,-20],[-9,-50],[3,-20],[17,-45],[-6,-38],[-35,-76],[-9,-39],[10,-13],[21,-14],[25,-11],[19,-4],[16,7],[14,18],[42,74],[9,25],[3,21],[7,14],[15,14],[39,22],[29,7],[34,55],[46,121],[9,65],[-1,33],[-8,32],[-29,57],[-10,28],[0,36],[7,-4],[22,-7],[-24,55],[-18,52],[-26,46],[-52,33],[-27,5],[-26,-4],[-22,-13],[-14,-22],[-3,-17],[4,-31],[-1,-17],[-7,-10],[-10,-7],[-9,-10],[-4,-16],[0,24],[16,88],[9,24],[13,8],[34,5],[12,7],[15,19],[4,12],[-6,55],[-18,51],[-5,50],[-5,16],[-15,23],[-26,22],[-25,5],[-13,-29],[-28,14],[-42,14],[-21,16],[31,21],[18,-18],[20,8],[5,21],[-23,21],[41,9],[18,44],[13,53],[28,36],[20,1],[22,-5],[21,-3],[22,11],[8,15],[-6,11],[-18,14],[-4,6],[-6,2],[-6,0],[-4,2],[-4,11],[3,18],[-4,9],[-29,38],[-27,47],[-20,50],[-6,35],[-2,10],[7,26],[18,7],[54,-1],[28,6],[21,11],[16,16],[16,22],[10,0],[0,-11],[-14,-11],[-7,-16],[3,-13],[18,-4],[9,9],[40,57],[5,37],[-7,94],[-7,31],[14,-14],[11,-16],[6,-9],[-5,56],[-7,26],[-42,65],[-12,11],[-96,11],[-22,8],[-41,20],[-46,10],[-13,15],[-9,20],[-13,20],[-23,19],[-189,114],[-14,17],[2,19],[49,-33],[56,-21],[285,-55],[49,-21],[2,25],[9,28],[12,23],[12,9],[4,17],[-3,143],[-12,12],[-54,2],[-24,4],[-24,10],[-21,16],[-11,24],[37,-23],[19,-7],[24,-2],[23,2],[18,7],[7,13],[-8,22],[53,22],[24,3],[11,-15],[7,2],[2,1],[0,1],[2,7],[9,-11],[-36,-17],[-24,-37],[-5,-45],[22,-63],[6,-5],[21,14],[37,12],[28,17],[16,-2],[26,-15],[10,33],[-26,21],[-13,15],[4,6],[25,1],[15,-2],[8,-9],[7,-21],[-2,-59],[-34,-19],[-85,1],[-35,-22],[-13,-36],[-1,-94],[3,-29],[14,-48],[25,-33],[37,13],[-1,-8],[3,-2],[4,0],[5,-2],[-16,-14],[1,-21],[24,-51],[-9,0],[6,-30],[-12,-29],[-16,-31],[-9,-35],[-2,-65],[-17,-97],[0,-17],[4,-19],[15,-41],[113,-155],[7,-19],[5,-36],[10,-26],[14,-24],[11,-28],[11,-54],[18,-43],[2,-17],[4,-10],[21,-30],[10,-29],[11,-7],[13,-7],[11,-9],[18,-57],[6,-9],[43,3],[16,-6],[12,-45],[21,-29],[5,-15],[9,-14],[40,-29],[9,-22],[19,-16],[44,-2],[47,8],[30,14],[3,31],[-12,46],[-19,43],[-22,23],[21,7],[12,-14],[17,-48],[15,-28],[15,-19],[16,-68],[28,-43],[56,-27],[71,15],[39,10],[27,22],[29,29],[17,61],[12,23],[5,20],[-17,32],[-38,16],[-85,22],[0,12],[34,-1],[11,11],[-7,17],[-19,17],[0,10],[50,-1],[22,-3],[18,-6],[1,-5],[-1,-24],[2,-6],[5,0],[6,2],[45,-10],[2,-1],[23,1],[25,6],[18,14],[4,23],[-11,9],[-24,11],[-26,9],[75,1],[26,7],[14,14],[-4,15],[-30,9],[0,11],[32,-1],[24,-5],[21,-10],[22,-17],[-4,38],[7,35],[20,26],[32,10],[15,17],[25,83],[5,30],[11,0],[-1,-38],[-23,-67],[-9,-46],[-14,-19],[-3,-20],[2,-20],[7,-16],[9,-8],[12,7],[11,-25],[21,-29],[25,-24],[47,-19],[186,-262],[98,-196],[16,-58],[25,-181],[23,-36],[31,-2],[25,19],[1,31],[-13,10],[-19,7],[-15,12],[-4,25],[10,16],[36,19],[5,8],[26,9],[22,19],[16,18],[10,8],[-2,12],[14,62],[3,24],[21,-2],[9,2],[-34,-113],[-16,-28],[-31,-17],[-38,-11],[-26,-19],[5,-40],[10,-9],[16,-7],[12,-13],[2,-26],[-7,-14],[-13,-12],[-13,-16],[-7,-24],[1,-39],[10,-39],[14,-34],[15,-27],[9,0],[0,30],[11,20],[13,3],[7,-21],[-4,4],[-16,6],[3,-55],[37,-162],[0,-60],[5,-14],[20,-24],[1,-3]],[[1762,3835],[9,13],[33,-53],[-31,-22],[-50,-23],[-21,-53],[-11,-11],[-11,-19],[-19,-14],[-26,-8],[-28,-3],[-13,-7],[0,-16],[3,-19],[-4,-12],[-10,-2],[-11,5],[-20,15],[-48,-67],[-17,-6],[-16,-4],[-9,-6],[6,-31],[60,-35],[14,-26],[-1,-41],[-3,-16],[-6,-14],[-43,-30],[-7,-8],[-4,-8],[-26,-42],[-30,-74],[-9,33],[4,43],[13,38],[17,16],[24,14],[28,33],[11,33],[-28,17],[10,22],[-26,38],[-35,15],[-19,-42],[-10,0],[1,28],[-9,13],[-9,-4],[-3,-27],[-17,13],[7,18],[20,17],[51,13],[9,15],[0,55],[12,-6],[8,-11],[3,-16],[-1,-20],[8,0],[15,22],[20,18],[17,22],[8,34],[-1,26],[-6,25],[-2,21],[9,15],[25,3],[21,-14],[34,-32],[20,-8],[17,-1],[14,7],[9,16],[0,19],[-9,15],[-12,14],[-8,13],[-6,27],[6,10],[13,6],[17,12],[13,7],[6,-7],[5,-1],[5,-2],[5,-2],[4,-5],[41,29]],[[3391,1218],[8,-9],[78,-65],[-27,-18],[-18,-6],[-14,3],[-1,9],[-14,46],[-4,4],[-9,5],[-43,1],[-14,4],[-19,13],[-16,0],[-15,-7],[-15,-10],[0,-12],[20,-13],[24,-28],[36,-56],[-12,0],[-9,3],[-9,3],[-9,5],[9,21],[-25,15],[-14,4],[-20,3],[4,-20],[7,-17],[19,-28],[-7,3],[-16,5],[-7,3],[0,-21],[-17,7],[-11,-5],[2,-9],[21,-5],[8,-11],[-8,-26],[-14,-26],[-11,-13],[20,-10],[17,3],[10,16],[4,23],[9,0],[4,-34],[14,-22],[5,-16],[-23,-14],[25,-4],[16,11],[16,19],[22,18],[-3,-9],[-2,-4],[-1,-3],[-5,-6],[0,-10],[29,-1],[26,-30],[26,-4],[-12,-11],[-9,-21],[-10,-17],[-14,2],[-17,11],[-13,6],[-9,9],[-6,21],[-21,-10],[4,-2],[3,0],[2,-1],[2,-7],[-12,5],[-25,15],[-12,0],[-11,-7],[-7,-11],[0,-13],[9,-11],[0,-10],[-20,-5],[-20,3],[-10,9],[10,14],[-8,12],[-8,7],[-10,3],[-15,-1],[0,10],[12,2],[19,9],[18,5],[9,8],[3,7],[-6,4],[-16,4],[-19,8],[-19,10],[-11,10],[-7,21],[0,21],[-6,15],[-22,6],[-10,11],[-14,55],[-10,22],[14,-13],[10,-15],[15,-37],[9,0],[4,26],[-8,43],[4,18],[6,-7],[15,-15],[-3,19],[-10,12],[-16,4],[-21,-2],[0,32],[12,-3],[8,-2],[5,-5],[4,-11],[12,21],[-3,13],[-13,7],[-20,2],[-12,4],[-20,23],[-13,7],[9,1],[31,9],[-10,12],[-4,7],[1,6],[3,7],[-19,5],[-18,-2],[-14,3],[-9,17],[10,0],[0,10],[-30,0],[0,11],[30,11],[0,10],[-5,11],[-8,10],[-12,8],[-15,4],[3,7],[4,19],[3,8],[-11,1],[-19,7],[-11,2],[0,11],[16,8],[3,13],[-6,13],[-13,9],[0,11],[11,0],[0,10],[-5,8],[-12,22],[-3,9],[-3,5],[-15,3],[-7,3],[-5,9],[2,7],[5,7],[3,9],[-3,23],[-16,66],[-10,25],[7,5],[2,7],[-1,9],[1,12],[7,-57],[20,-76],[30,-67],[42,-29],[-17,-25],[9,-17],[19,-16],[10,-22],[6,-20],[16,-21],[19,-18],[19,-13],[-22,-9],[-9,-1],[11,-16],[29,-20],[11,-19],[-3,-6],[-7,-15],[29,-11],[24,-27],[18,-36],[9,-35],[15,1],[15,-1],[0,22],[-8,13],[-11,9],[-11,10],[-6,12],[-14,43],[9,0],[14,-30],[11,-14],[16,-11],[13,15],[13,6],[10,8],[4,20],[-5,11],[-21,21],[-5,18],[12,0],[5,-6],[3,-1],[3,-1],[8,-4],[-14,21],[-3,9],[-2,14],[-21,-11],[-5,16],[0,27],[-6,22],[-8,0],[-5,-8],[-5,-4],[-5,-4],[-7,-5],[14,34],[8,10],[-16,6],[-15,-2],[-15,-6],[-16,-10],[9,13],[10,8],[10,7],[11,5],[-40,0],[0,9],[26,6],[-1,15],[-16,19],[-19,15],[9,11],[8,19],[1,17],[-12,8],[-9,7],[-11,36],[-5,12],[16,1],[7,-11],[5,-15],[12,-8],[18,0],[1,11],[-7,14],[-12,8],[0,9],[21,19],[-10,17],[-25,13],[-26,7],[0,10],[19,0],[-8,10],[-6,10],[-1,11],[6,13],[8,-2],[32,-15],[0,-5],[2,0],[12,0],[5,0],[1,6],[10,37],[7,1],[2,-3],[0,-4],[2,-4],[3,-17],[9,-6],[13,4],[15,8],[-12,-40],[-4,-9],[-12,-6],[-12,1],[-8,-2],[-3,-15],[5,-27],[12,-5],[16,1],[18,-8],[-21,-9],[0,-12],[6,-5],[15,-16],[-26,12],[-8,-7],[4,-18],[9,-19],[9,0],[5,4],[9,2],[7,4],[-8,-32],[7,-26],[12,-27],[9,-34],[0,-49],[-2,-12],[-4,-13],[-1,-16],[7,-19],[9,0],[1,10],[8,22],[21,-53],[5,14],[0,16],[-5,35],[9,0],[3,-25],[10,-16],[29,-24],[0,-12],[-21,-8],[-19,-14],[-11,-22],[0,-32],[12,8],[15,3],[16,-2]],[[564,166],[-20,-4],[-22,-36],[-18,-46],[-9,-34],[9,0],[10,33],[41,48],[9,39]],[[536,0],[33,56],[5,35],[-33,-9],[-25,-29],[-29,-53]],[[634,156],[-10,10],[-19,-15],[-5,-15],[3,-50],[-3,-34],[-8,-20],[-10,-16],[-5,-16]],[[689,0],[5,3],[14,50],[-19,43],[-55,60]],[[793,188],[-52,-45],[-8,-14],[2,-22],[6,-18],[16,-7],[27,9],[31,37],[13,54],[9,61],[17,54],[8,-18],[2,-10],[0,-16],[29,97],[-13,3],[-17,-10],[-17,-17],[-12,-18],[-18,1],[-39,-44],[-18,-12],[-26,-10],[-17,-26],[-9,-34],[-3,-37],[9,0],[8,16],[63,37],[9,-11]],[[864,69],[-97,-68],[-1,-1]],[[881,0],[-6,18],[-5,11],[-6,8],[0,32]],[[943,764],[9,10],[5,4],[15,8],[-1,31],[-2,17],[-6,17],[-8,1],[-3,5],[-9,-93]],[[902,764],[10,-29],[11,-62],[9,-28],[-10,0],[2,-17],[-1,-17],[2,-17],[7,-14],[10,27],[-9,63],[10,29],[4,-12],[16,-33],[-4,38],[-16,44],[-21,38],[-20,22],[-7,6],[-10,2],[-9,-3],[-3,-10],[3,-20],[8,-3],[10,2],[8,-6]],[[1151,875],[-34,36],[-18,49],[-11,76],[-23,38],[-23,28],[-21,37],[-25,52],[-18,44],[-16,56],[-15,47],[-28,-2],[-26,-7],[-25,-10],[-15,-11],[-10,-18],[-33,-130],[-3,-56],[7,-58],[23,-6],[82,-60],[24,-21],[17,-38],[17,-95],[16,-30],[0,-10],[-6,-19],[3,-31],[12,-47],[-9,-27],[0,-93],[-5,-30],[-7,-26],[-61,-134],[-14,-59],[16,-35],[-21,-34],[-16,-46],[-6,-45],[9,-31],[24,4],[81,120],[-17,-44],[-28,-48],[-17,-45],[12,-35],[15,-2],[18,8],[19,10],[12,4],[38,66],[14,8],[33,36],[9,-16],[2,-7],[25,23],[78,121],[12,41],[-2,256],[29,150],[-29,38],[-65,58]],[[940,1436],[-27,13],[-30,32],[-20,7],[-58,0],[-12,-2],[-10,-22],[-24,-3],[-50,9],[-20,-8],[-10,-22],[-4,-28],[-1,-29],[4,-44],[-2,-14],[-12,-18],[39,-12],[15,-11],[5,-16],[3,-15],[18,-17],[15,-18],[20,27],[-8,25],[3,40],[22,22],[22,9],[43,39],[54,-3],[50,-10],[23,5],[-22,32],[-26,32]],[[763,2186],[8,18],[29,-12],[54,-38],[-13,34],[-55,42],[-70,37],[-52,19],[-38,0],[-5,-15],[16,-22],[46,-48],[26,-20],[28,-8],[26,13]],[[743,1785],[-11,-7],[-12,-3],[-56,0],[7,-23],[13,-65],[12,8],[32,41],[23,22],[2,11],[-10,16]],[[972,1601],[0,10],[-32,24],[-56,69],[-30,27],[-37,-4],[-48,-40],[-29,-50],[23,-36],[15,-3],[40,1],[16,2],[12,5],[6,7],[5,2],[16,-4],[12,-11],[17,-32],[11,-11],[14,-6],[45,-5],[-7,15],[-12,15],[-14,14],[-17,11],[12,-1],[38,1]],[[1422,385],[17,15],[10,29],[4,34],[-1,29],[-21,9],[-8,-32],[-1,-84]],[[1372,415],[-9,12],[-12,-35],[-11,-48],[-1,-44],[14,-24],[29,7],[11,37],[0,86],[-3,14],[-5,7],[-6,-1],[-7,-11]],[[1388,450],[54,86],[6,33],[-1,32],[-6,29],[-8,24],[-11,12],[-15,-25],[-9,-39],[-5,-72],[-9,-22],[-15,-27],[-4,-22],[23,-9]],[[2137,1020],[-30,-16],[-33,-81],[8,-51],[25,-63],[43,-64],[45,-26],[70,9],[12,53],[-10,67],[-130,172]],[[1687,888],[-51,-22],[-14,-44],[30,-19],[37,2],[30,13],[30,21],[14,37],[-15,30],[-61,-18]],[[1673,656],[-32,28],[-50,27],[-26,-5],[-8,-123],[-1,-111],[-14,-77],[-10,-27],[-26,-42],[-42,-51],[9,-23],[16,-11],[24,-6],[36,-2],[27,18],[17,28],[18,4],[21,14],[30,25],[19,37],[10,20],[14,24],[23,48],[-7,52],[0,37],[-15,57],[-22,20],[-11,39]],[[2514,4096],[0,-14],[6,-26],[24,-27],[24,-6]],[[0,3508],[3,-2],[66,-39],[60,-46],[30,-6],[48,-13],[85,0],[24,-20]],[[1853,3003],[-35,19]],[[1818,3022],[-37,20],[-12,13],[6,46],[-12,85],[30,46],[18,46],[-12,19],[6,39],[18,27],[36,13],[30,39],[42,65],[30,13],[18,-19],[36,6],[49,-13],[36,0],[36,7],[36,19],[30,40],[6,58],[-54,105],[6,13],[30,20],[30,0],[78,-7],[24,7],[48,6],[60,13],[42,-6],[24,6],[18,13],[24,79],[18,46],[18,124],[-6,13]],[[1853,3003],[5,-2]],[[1858,3001],[13,-5],[48,0],[48,14],[24,-7],[30,-26],[31,0],[42,6],[30,0],[36,-13],[36,-6],[48,6],[36,-13],[24,13],[24,0],[42,13],[6,27],[48,0],[42,6],[36,26],[144,7],[30,6],[30,46],[84,20],[48,26],[12,13],[0,33],[48,65],[24,20],[18,71],[0,40],[-18,32],[0,33],[31,33],[102,39],[42,52],[48,26],[54,79],[12,65],[36,13],[18,13],[12,59],[0,98],[12,53],[12,65],[0,47]],[[496,2918],[-42,13],[-30,-3]],[[424,2928],[-42,-3],[-72,19],[-42,7],[-115,6],[-60,0],[-72,46],[-21,2]],[[574,2872],[-6,170],[-6,98],[0,46],[-4,19]],[[558,3205],[-2,14],[-18,6],[-24,46],[-30,13],[-66,20],[-36,19],[-66,59]],[[574,2872],[-36,26],[-42,20]],[[1826,2998],[27,5]],[[1643,2840],[60,58],[30,46],[36,39],[48,13],[9,2]],[[783,2751],[-17,36],[-36,-13],[-18,39],[-18,7],[-42,-20],[-42,-6],[-18,13],[-18,65]],[[886,2643],[-48,53],[-42,26],[-13,29]],[[988,2532],[-42,13],[-24,33],[-12,33]],[[1721,2408],[9,29]],[[1677,2684],[-3,31]],[[1674,2715],[-1,13],[-36,66],[-6,26],[12,20]],[[1730,2437],[3,10],[0,40],[-6,39],[-36,85],[-12,45],[-2,28]],[[1683,2420],[38,-12]],[[1048,2526],[30,-33],[36,13],[25,0],[72,7],[60,-33],[48,-20],[54,0],[72,-13],[60,-13],[114,-6],[60,-7],[4,-1]],[[1721,2408],[8,-1]],[[1729,2407],[34,-5],[12,-20],[12,-79],[12,-32],[24,-39],[36,-40],[12,-32],[12,-79],[12,-72],[12,-104],[12,-53],[12,-26],[60,-59],[18,-32],[12,-46]],[[2572,685],[14,-16],[72,-46],[9,-9]],[[2471,929],[48,-107]],[[2021,1689],[19,-26],[42,-39],[48,-33],[18,-20],[72,-104],[96,-177],[36,-91],[42,-92],[30,-72],[47,-106]],[[2519,822],[7,-16],[18,-72],[18,-39],[10,-10]],[[2667,614],[3,-4]],[[2684,596],[-3,3]],[[2681,599],[-11,11]],[[2796,610],[-24,7],[-24,-13],[-18,-26],[-42,13],[-4,5]],[[2796,610],[24,-6],[30,-20],[36,-46],[36,-52],[25,-52],[36,-59],[18,-39],[12,-72],[18,-39],[30,-20],[12,-20],[0,-39],[-18,-59],[-42,-39],[-6,-26],[1,-22]],[[786,2230],[55,-42],[13,-34],[-54,38],[-29,12],[-8,-18],[-26,-13],[-28,8],[-26,20],[-46,48],[-16,22],[5,15],[38,0],[52,-19],[70,-37]],[[940,1635],[32,-24],[0,-10],[-38,-1],[-12,1],[17,-11],[14,-14],[12,-15],[7,-15],[-45,5],[-14,6],[-11,11],[-17,32],[-12,11],[-16,4],[-5,-2],[-6,-7],[-12,-5],[-16,-2],[-40,-1],[-15,3],[-23,36],[29,50],[48,40],[37,4],[30,-27],[56,-69]],[[696,1695],[-12,-8],[-13,65],[-7,23],[56,0],[12,3],[11,7],[10,-16],[-2,-11],[-23,-22],[-32,-41]],[[2265,728],[-70,-9],[-45,26],[-43,64],[-25,63],[-8,51],[33,81],[30,16],[130,-172],[10,-67],[-12,-53]],[[766,0],[1,1],[97,68],[0,-32],[6,-8],[5,-11],[6,-18],[-115,0]],[[487,0],[29,53],[25,29],[33,9],[-5,-35],[-33,-56],[-49,0]],[[504,46],[-9,0],[9,34],[18,46],[22,36],[20,4],[-9,-39],[-41,-48],[-10,-33]],[[1576,251],[-27,-18],[-36,2],[-24,6],[-16,11],[-9,23],[42,51],[26,42],[10,27],[14,77],[1,111],[8,123],[26,5],[50,-27],[32,-28],[11,-39],[22,-20],[15,-57],[0,-37],[7,-52],[-23,-48],[-14,-24],[-10,-20],[-19,-37],[-30,-25],[-21,-14],[-18,-4],[-17,-28]],[[922,774],[21,-38],[16,-44],[4,-38],[-16,33],[-4,12],[-10,-29],[9,-63],[-10,-27],[-7,14],[-2,17],[1,17],[-2,17],[10,0],[-9,28],[-11,62],[-10,29],[-8,6],[-10,-2],[-8,3],[-3,20],[3,10],[9,3],[10,-2],[7,-6],[20,-22]],[[1390,420],[3,-14],[0,-86],[-11,-37],[-29,-7],[-14,24],[1,44],[11,48],[12,35],[9,-12],[7,11],[6,1],[5,-7]],[[1439,400],[-17,-15],[1,84],[8,32],[21,-9],[1,-29],[-4,-34],[-10,-29]],[[1442,536],[-54,-86],[-23,9],[4,22],[15,27],[9,22],[5,72],[9,39],[15,25],[11,-12],[8,-24],[6,-29],[1,-32],[-6,-33]],[[577,0],[5,16],[10,16],[8,20],[3,34],[-3,50],[5,15],[19,15],[10,-10],[55,-60],[19,-43],[-14,-50],[-5,-3],[-112,0]],[[893,350],[-29,-97],[0,16],[-2,10],[-8,18],[-17,-54],[-9,-61],[-13,-54],[-31,-37],[-27,-9],[-16,7],[-6,18],[-2,22],[8,14],[52,45],[-9,11],[-63,-37],[-8,-16],[-9,0],[3,37],[9,34],[17,26],[26,10],[18,12],[39,44],[18,-1],[12,18],[17,17],[17,10],[13,-3]],[[1206,332],[-78,-121],[-25,-23],[-2,7],[-9,16],[-33,-36],[-14,-8],[-38,-66],[-12,-4],[-19,-10],[-18,-8],[-15,2],[-12,35],[17,45],[28,48],[17,44],[-81,-120],[-24,-4],[-9,31],[6,45],[16,46],[21,34],[-16,35],[14,59],[61,134],[7,26],[5,30],[0,93],[9,27],[-12,47],[-3,31],[6,19],[0,10],[-16,30],[-17,95],[-17,38],[-24,21],[-82,60],[-23,6],[-7,58],[3,56],[33,130],[10,18],[15,11],[25,10],[26,7],[28,2],[15,-47],[16,-56],[18,-44],[25,-52],[21,-37],[23,-28],[23,-38],[11,-76],[18,-49],[34,-36],[65,-58],[29,-38],[-29,-150],[2,-256],[-12,-41]],[[883,1481],[30,-32],[27,-13],[26,-32],[22,-32],[-23,-5],[-50,10],[-54,3],[-43,-39],[-22,-9],[-22,-22],[-3,-40],[8,-25],[-20,-27],[-15,18],[-18,17],[-3,15],[-5,16],[-15,11],[-39,12],[12,18],[2,14],[-4,44],[1,29],[4,28],[10,22],[20,8],[50,-9],[24,3],[10,22],[12,2],[58,0],[20,-7]],[[952,774],[-9,-10],[9,93],[3,-5],[8,-1],[6,-17],[2,-17],[1,-31],[-15,-8],[-5,-4]],[[1689,805],[-37,-2],[-30,19],[14,44],[51,22],[61,18],[15,-30],[-14,-37],[-30,-21],[-30,-13]],[[0,4096],[4096,0],[0,-4096],[-1331,0],[-1,3],[-20,24],[-5,14],[0,60],[-37,162],[-3,55],[16,-6],[4,-4],[-7,21],[-13,-3],[-11,-20],[0,-30],[-9,0],[-15,27],[-14,34],[-10,39],[-1,39],[7,24],[13,16],[13,12],[7,14],[-2,26],[-12,13],[-16,7],[-10,9],[-5,40],[26,19],[38,11],[31,17],[16,28],[34,113],[-9,-2],[-21,2],[-3,-24],[-14,-62],[2,-12],[-10,-8],[-16,-18],[-22,-19],[-26,-9],[-5,-8],[-36,-19],[-10,-16],[4,-25],[15,-12],[19,-7],[13,-10],[-1,-31],[-25,-19],[-31,2],[-23,36],[-25,181],[-16,58],[-98,196],[-186,262],[-47,19],[-25,24],[-21,29],[-11,25],[-12,-7],[-9,8],[-7,16],[-2,20],[3,20],[14,19],[9,46],[23,67],[1,38],[-11,0],[-5,-30],[-25,-83],[-15,-17],[-32,-10],[-20,-26],[-7,-35],[4,-38],[-22,17],[-21,10],[-24,5],[-32,1],[0,-11],[30,-9],[4,-15],[-14,-14],[-26,-7],[-75,-1],[26,-9],[24,-11],[11,-9],[-4,-23],[-18,-14],[-25,-6],[-23,-1],[-2,1],[-45,10],[-6,-2],[-5,0],[-2,6],[1,24],[-1,5],[-18,6],[-22,3],[-50,1],[0,-10],[19,-17],[7,-17],[-11,-11],[-34,1],[0,-12],[85,-22],[38,-16],[17,-32],[-5,-20],[-12,-23],[-17,-61],[-29,-29],[-27,-22],[-39,-10],[-71,-15],[-56,27],[-28,43],[-16,68],[-15,19],[-15,28],[-17,48],[-12,14],[-21,-7],[22,-23],[19,-43],[12,-46],[-3,-31],[-30,-14],[-47,-8],[-44,2],[-19,16],[-9,22],[-40,29],[-9,14],[-5,15],[-21,29],[-12,45],[-16,6],[-43,-3],[-6,9],[-18,57],[-11,9],[-13,7],[-11,7],[-10,29],[-21,30],[-4,10],[-2,17],[-18,43],[-11,54],[-11,28],[-14,24],[-10,26],[-5,36],[-7,19],[-113,155],[-15,41],[-4,19],[0,17],[17,97],[2,65],[9,35],[16,31],[12,29],[-6,30],[9,0],[-24,51],[-1,21],[16,14],[-5,2],[-4,0],[-3,2],[1,8],[-37,-13],[-25,33],[-14,48],[-3,29],[1,94],[13,36],[35,22],[85,-1],[34,19],[2,59],[-7,21],[-8,9],[-15,2],[-25,-1],[-4,-6],[13,-15],[26,-21],[-10,-33],[-26,15],[-16,2],[-28,-17],[-37,-12],[-21,-14],[-6,5],[-22,63],[5,45],[24,37],[36,17],[-9,11],[-2,-7],[0,-1],[-2,-1],[-7,-2],[-11,15],[-24,-3],[-53,-22],[8,-22],[-7,-13],[-18,-7],[-23,-2],[-24,2],[-19,7],[-37,23],[11,-24],[21,-16],[24,-10],[24,-4],[54,-2],[12,-12],[3,-143],[-4,-17],[-12,-9],[-12,-23],[-9,-28],[-2,-25],[-49,21],[-285,55],[-56,21],[-49,33],[-2,-19],[14,-17],[189,-114],[23,-19],[13,-20],[9,-20],[13,-15],[46,-10],[41,-20],[22,-8],[96,-11],[12,-11],[42,-65],[7,-26],[5,-56],[-6,9],[-11,16],[-14,14],[7,-31],[7,-94],[-5,-37],[-40,-57],[-9,-9],[-18,4],[-3,13],[7,16],[14,11],[0,11],[-10,0],[-16,-22],[-16,-16],[-21,-11],[-28,-6],[-54,1],[-18,-7],[-7,-26],[2,-10],[6,-35],[20,-50],[27,-47],[29,-38],[4,-9],[-3,-18],[4,-11],[4,-2],[6,0],[6,-2],[4,-6],[18,-14],[6,-11],[-8,-15],[-22,-11],[-21,3],[-22,5],[-20,-1],[-28,-36],[-13,-53],[-18,-44],[-41,-9],[23,-21],[-5,-21],[-20,-8],[-18,18],[-31,-21],[21,-16],[42,-14],[28,-14],[13,29],[25,-5],[26,-22],[15,-23],[5,-16],[5,-50],[18,-51],[6,-55],[-4,-12],[-15,-19],[-12,-7],[-34,-5],[-13,-8],[-9,-24],[-16,-88],[0,-24],[4,16],[9,10],[10,7],[7,10],[1,17],[-4,31],[3,17],[14,22],[22,13],[26,4],[27,-5],[52,-33],[26,-46],[18,-52],[24,-55],[-22,7],[-7,4],[0,-36],[10,-28],[29,-57],[8,-32],[1,-33],[-9,-65],[-46,-121],[-34,-55],[-29,-7],[-39,-22],[-15,-14],[-7,-14],[-3,-21],[-9,-25],[-42,-74],[-14,-18],[-16,-7],[-19,4],[-25,11],[-21,14],[-10,13],[9,39],[35,76],[6,38],[-17,45],[-3,20],[9,50],[-5,20],[-24,6],[7,-33],[-15,-70],[3,-23],[12,-10],[10,-4],[7,-7],[5,-15],[-2,-13],[-6,-10],[-12,-12],[-2,-2],[-3,-3],[-2,-6],[-4,-22],[-6,1],[-7,3],[-6,-3],[-4,-16],[-5,-49],[-5,-20],[-6,-14],[-27,-41],[-19,-21],[-3,-6],[-6,-28],[-29,-58],[-6,-29],[-4,-36],[-390,0],[0,1],[16,36],[14,11],[17,10],[16,13],[13,20],[7,24],[3,20],[5,19],[14,22],[60,55],[7,10],[10,19],[8,10],[13,6],[13,-4],[11,-6],[8,-2],[31,22],[22,35],[11,42],[-4,43],[-26,-69],[-18,-36],[-21,-16],[-39,-5],[-24,-14],[-87,-95],[-10,-16],[-12,-34],[-18,-29],[-5,-12],[-8,-7],[-21,-4],[-14,2],[-41,17],[0,17],[3,8],[2,24],[11,19],[13,12],[13,6],[10,11],[3,25],[-4,47],[6,18],[5,23],[14,16],[16,7],[14,10],[8,19],[-37,-13],[-19,-28],[-22,-78],[-14,-17],[-22,-23],[0,664],[15,12],[-15,-10],[0,3239]],[[2511,798],[-60,119],[34,20],[35,-111],[-9,-28]],[[2663,584],[9,-71],[-32,22],[20,-20],[-1,-31],[-56,-17],[-47,211],[51,22],[24,60],[49,-35],[66,13],[-12,-72],[-125,-97],[30,-32],[-5,39],[95,47],[-66,-39]],[[1689,2464],[45,-29],[-9,-55],[-45,22],[9,62]],[[531,3210],[110,-20],[16,-53],[-16,-35],[49,-88],[-33,-35],[81,-70],[49,-106],[-13,-161],[-20,-15],[13,-59],[-78,23],[-80,88],[-33,88],[-64,18],[-98,88],[17,35],[-33,106],[78,-28],[-13,99],[29,84],[-29,21],[68,20]],[[1822,3076],[49,-9],[-17,-88],[-21,0],[-43,123],[32,-26]],[[1660,2679],[33,81],[61,-17],[-6,-40],[-88,-24]]]}