{"objects":{"water":{"type":"GeometryCollection","geometries":[{"type":"Polygon","properties":{"source":"naturalearthdata.com","kind":"ocean","area":1576712559132672,"sort_rank":200,"min_zoom":0.0,"id":1},"arcs":[[7],[8],[9],[10],[11],[12],[13],[14],[15],[16],[17],[18],[19]]},{"type":"LineString","properties":{"source":"naturalearthdata.com","kind":"ocean","sort_rank":205,"boundary":true,"min_zoom":0.0,"id":518},"arcs":[20]},{"type":"LineString","properties":{"source":"naturalearthdata.com","kind":"ocean","sort_rank":205,"boundary":true,"min_zoom":0.0,"id":521},"arcs":[21]},{"type":"LineString","properties":{"source":"naturalearthdata.com","kind":"ocean","sort_rank":205,"boundary":true,"min_zoom":0.0,"id":522},"arcs":[22]},{"type":"LineString","properties":{"source":"naturalearthdata.com","kind":"ocean","sort_rank":205,"boundary":true,"min_zoom":0.0,"id":523},"arcs":[23]},{"type":"LineString","properties":{"source":"naturalearthdata.com","kind":"ocean","sort_rank":205,"boundary":true,"min_zoom":0.0,"id":529},"arcs":[24]},{"type":"LineString","properties":{"source":"naturalearthdata.com","kind":"ocean","sort_rank":205,"boundary":true,"min_zoom":0.0,"id":552},"arcs":[25]},{"type":"MultiLineString","properties":{"source":"naturalearthdata.com","kind":"ocean","sort_rank":205,"boundary":true,"min_zoom":0.0,"id":554},"arcs":[[26],[27]]},{"type":"LineString","properties":{"source":"naturalearthdata.com","kind":"ocean","sort_rank":205,"boundary":true,"min_zoom":0.0,"id":3736},"arcs":[28]},{"type":"LineString","properties":{"source":"naturalearthdata.com","kind":"ocean","sort_rank":205,"boundary":true,"min_zoom":0.0,"id":3737},"arcs":[29]}]},"buildings":{"type":"GeometryCollection","geometries":[]},"places":{"type":"GeometryCollection","geometries":[{"type":"Point","properties":{"name:ka":"\u10d3\u10dd\u10db\u10d8\u10dc\u10d8\u10d9\u10d0","alt_name:el":"\u039d\u03c4\u03bf\u03bc\u03af\u03bd\u03b9\u03ba\u03b1","name:ko":"\ub3c4\ubbf8\ub2c8\uce74","name:kn":"\u0ca1\u0cca\u0cae\u0cbf\u0ca8\u0cbf\u0c95\u0cbe","name:km":"\u178a\u17bc\u1798\u17b8\u1793\u17b8\u1780\u17b6","name:cs":"Dominika","name:ki":"Dominika","name:ku":"Dom\u00een\u00eek","name:ti":"\u12f6\u121a\u1292\u12ab","name:ks":"\u0688\u0648\u0645\u0650\u0646\u0650\u06a9\u0627","name:to":"Tominika","name:or":"\u0b21\u0b4b\u0b2e\u0b3f\u0b28\u0b3e\u0b15\u0b3e","name:pl":"Dominika","name:ta":"\u0b9f\u0bca\u0bae\u0bbf\u0ba9\u0bbf\u0b95\u0bbe","name:te":"\u0c21\u0c4b\u0c2e\u0c46\u0c28\u0c3f\u0c15","source":"openstreetmap.org","name:hr":"Dominika","name:dz":"\u0f4c\u0f7c\u0f0b\u0f58\u0f72\u0f0b\u0f53\u0f72\u0f0b\u0f40","name:tr":"Dominika","name:lv":"Dominika","name:lt":"Dominika","name:hi":"\u0921\u094b\u092e\u093f\u0928\u093f\u0915\u093e","name:he":"\u05d3\u05d5\u05de\u05d9\u05e0\u05d9\u05e7\u05d4","kind":"country","name:ur":"\u0688\u0648\u0645\u0646\u06cc\u06a9\u0627","name:lg":"Dominika","name:uk":"\u0414\u043e\u043c\u0456\u043d\u0456\u043a\u0430","name:hy":"\u0534\u0578\u0574\u056b\u0576\u056b\u056f\u0561","min_zoom":2.0,"name:hu":"Dominikai K\u00f6z\u00f6ss\u00e9g","name:ln":"Dom\u00ednike","name:lo":"\u0ec2\u0e94\u0ea1\u0eb5\u0e99\u0eb4\u0e84\u0eb2","population":72514,"name:el":"\u0394\u03bf\u03bc\u03af\u03bd\u03b9\u03ba\u03b1","name:eo":"Dominiko","name":"Dominica","name:is":"D\u00f3min\u00edka","name:ee":"Dominika nutome","name:th":"\u0e1b\u0e23\u0e30\u0e40\u0e17\u0e28\u0e42\u0e14\u0e21\u0e34\u0e19\u0e34\u0e01\u0e32","name:eu":"Dominika","name:yo":"Or\u00edl\u1eb9\u0301\u00e8de D\u00f2m\u00edn\u00edk\u00e0","name:mt":"Dominika","name:rn":"Dominika","name:az":"Dominika","name:id":"Dominika","name:mr":"\u0921\u094b\u092e\u093f\u0928\u093f\u0915\u093e","name:ar":"\u062f\u0648\u0645\u064a\u0646\u064a\u0643\u0627","name:my":"\u1012\u102d\u102f\u1019\u102e\u1014\u102e\u1000\u102c","name:io":"Dominika","name:ak":"D\u0254meneka","name:am":"\u12f6\u121a\u1292\u12ab","name:it":"Domin\u00ecca","name:ml":"\u0d21\u0d4a\u0d2e\u0d3f\u0d28\u0d3f\u0d15\u0d4d\u0d15","name:ru":"\u0414\u043e\u043c\u0438\u043d\u0438\u043a\u0430","name:mn":"\u0414\u043e\u043c\u0438\u043d\u0438\u043a\u0430","id":424297496,"name:mk":"\u0414\u043e\u043c\u0438\u043d\u0438\u043a\u0430","name:af":"Dominika","name:zu":"i-Dominica","name:ha":"Dominika","name:ff":"Dominika","name:mg":"Dominika","name:fo":"Dominika","official_name":"Commonwealth of Dominica","name:fr":"Dominique","name:fy":"Dominika","name:vo":"Dominike\u00e4n","name:zh":"\u591a\u660e\u5c3c\u52a0","name:so":"Domeenika","name:sl":"Dominika","name:sk":"Dominika","name:ja":"\u30c9\u30df\u30cb\u30ab\u56fd","name:si":"\u0da9\u0ddc\u0db8\u0dd2\u0db1\u0dd2\u0d9a\u0dcf\u0dc0","name:fa":"\u062f\u0648\u0645\u06cc\u0646\u06cc\u06a9\u0627","name:sg":"D\u00f6m\u00efn\u00eeka","name:ne":"\u0921\u094b\u092e\u093f\u0928\u093f\u0915\u093e","name:br":"Dominika","name:bs":"Dominika","name:bm":"D\u0254miniki","name:bn":"\u09a1\u09cb\u09ae\u09bf\u09a8\u09bf\u0995\u09be","name:bo":"\u0f4c\u0f7c\u0f0b\u0f58\u0f72\u0f53\u0f0b\u0f53\u0f72\u0f0b\u0f40\u0f0d","name:sw":"Dominika","name:be":"\u0414\u0430\u043c\u0456\u043d\u0456\u043a\u0430","name:bg":"\u0414\u043e\u043c\u0438\u043d\u0438\u043a\u0430","name:sr":"\u0414\u043e\u043c\u0438\u043d\u0438\u043a\u0430","name:sq":"Dominik\u00eb","name:ga":"Doiminice","name:gd":"Doiminicia","name:gu":"\u0aa1\u0acb\u0aae\u0abf\u0aa8\u0abf\u0a95\u0abe","name:tt":"\u0414\u043e\u043c\u0438\u043d\u0438\u043a\u0430"},"coordinates":[742,2247]},{"type":"Point","properties":{"name:pt":"Guadalupe","name:ka":"\u10d2\u10d5\u10d0\u10d3\u10d4\u10da\u10e3\u10de\u10d4","name:ko":"\uacfc\ub4e4\ub8e8\ud504","name:kn":"\u0c97\u0cc1\u0ca1\u0cc6\u0cb2\u0ccb\u0caa\u0ccd","name:km":"\u17a0\u17d2\u1782\u17c4\u178a\u17ba\u17a1\u17bb\u1794","name:ki":"Gwadelupe","name:th":"\u0e01\u0e27\u0e32\u0e40\u0e14\u0e2d\u0e25\u0e39\u0e1b","name:ti":"\u1309\u12cb\u12f0\u1209\u1355","name:ks":"\u06af\u064e\u0648\u0627\u0691\u06cc\u0644\u0648\u067e","name:to":"Kuatalupe","name:or":"\u0b17\u0b4c\u0b21\u0b47\u0b32\u0b4c\u0b2a\u0b47","name:pl":"Gwadelupa","name:ta":"\u0b95\u0bcd\u0bb5\u0bbe\u0ba4\u0bc7\u0bb2\u0bcb\u0baa\u0bcd","name:ca":"Guadalupe","name:te":"\u0c17\u0c4d\u0c35\u0c3e\u0c21\u0c47\u0c32\u0c4b\u0c2a\u0c4d","name:bg":"\u0413\u0432\u0430\u0434\u0435\u043b\u0443\u043f\u0430","name:ro":"Guadelupa","source":"openstreetmap.org","name:ln":"Gwad\u025blup\u025b","name:dz":"\u0f42\u0f7c\u0f0b\u0f4c\u0f7a\u0f0b\u0f63\u0f74\u0f0b\u0f54\u0f7a","name:tr":"Guadalupe","name:ak":"Guwadelup","name:lv":"Gvadelupa","name:lt":"Gvadelupa","name:hi":"\u0917\u094d\u0935\u093e\u0921\u0947\u0932\u094b\u092a","name:he":"\u05d2\u05d5\u05d5\u05d0\u05d3\u05dc\u05d5\u05e4","kind":"region","name:ur":"\u06af\u0648\u0627\u0688\u06cc\u0644\u0648\u067e","name:la":"Guadalupa","name:lg":"Gwadalupe","name:uk":"\u0413\u0432\u0430\u0434\u0435\u043b\u0443\u043f\u0430","min_zoom":4.0,"name:hr":"Gvadalupa","name:lo":"\u0e81\u0ea7\u0e94\u0ec0\u0e94\u0ea5\u0eb9\u0e9a","population":404635,"name:el":"\u0393\u03bf\u03c5\u03b1\u03b4\u03b5\u03bb\u03bf\u03cd\u03c0\u03b7","name:eo":"Gvadelupo","name":"Guadeloupe","name:ee":"Guadelupe nutome","name:is":"Gvadel\u00fapeyjar","name:eu":"Guadalupe","name:es":"Guadalupe","name:mt":"Gwadelupe","name:rn":"Gwadelupe","name:az":"Qvadelupa","name:mr":"\u0917\u094d\u0935\u093e\u0921\u0947\u0932\u094b\u0909\u092a\u0947","name:ar":"\u063a\u0648\u0627\u062f\u0644\u0648\u0628","official_name":"R\u00e9gion de la Guadeloupe","name:mg":"Goadelopy","name:am":"\u1309\u12cb\u12f0\u1209\u1355","name:it":"Guadalupa","name:ru":"\u0413\u0432\u0430\u0434\u0435\u043b\u0443\u043f\u0430","name:ml":"\u0d17\u0d41\u0d35\u0d3e\u0d21\u0d46\u0d32\u0d4b\u0d2a\u0d4d","name:mn":"\u0413\u0443\u0430\u0434\u0435\u043b\u0443\u043f\u0435","id":433483535,"name:mk":"\u0413\u0432\u0430\u0434\u0430\u043b\u0443\u043f\u0435","name:zu":"i-Guadeloupe","name:ff":"Gwaadalup","kind_detail":"state","name:fy":"Guadel\u00fbp","name:zh":"\u74dc\u5fb7\u7f57\u666e","name:sl":"Gvadalupa","name:ja":"\u30b0\u30a2\u30c9\u30eb\u30fc\u30d7","name:si":"\u0d9c\u0dca\u0dc0\u0ddd\u0da9\u0dbd\u0ddd\u0db4\u0dca","name:fa":"\u06af\u0648\u0627\u062f\u0644\u0648\u067e","name:sg":"Guadel\u00fbpu","name:ne":"\u0917\u094d\u0935\u093e\u0921\u0947\u0932\u0941\u092a","name:br":"Gwadeloup","name:bs":"Gvadelupe","name:bm":"Gwadelup","name:bn":"\u0997\u09c1\u09af\u09bc\u09be\u09a6\u09c7\u09b2\u09cc\u09aa","name:sw":"Gwadelupe","name:be":"\u0413\u0432\u0430\u0434\u044d\u043b\u0443\u043f\u0430","name:ha":"Gwadaluf","name:sr":"\u0413\u0432\u0430\u0434\u0430\u043b\u0443\u043f\u0430","name:ga":"Guadal\u00faip","name:gd":"Guadalup","name:gl":"Guadalupe","name:yo":"Or\u00edl\u1eb9\u0301\u00e8de Gadelope","name:gu":"\u0a97\u0acd\u0ab5\u0abe\u0aa1\u0ac7\u0ab2\u0acb\u0aaa"},"coordinates":[451,3511]},{"type":"Point","properties":{"name:pt":"Martinica","name:ka":"\u10db\u10d0\u10e0\u10e2\u10d8\u10dc\u10d8\u10d9\u10d8","name:ko":"\ub9d0\ud2f0\ub2c8\ud06c","name:kn":"\u0cae\u0cbe\u0cb0\u0ccd\u0c9f\u0cbf\u0ca8\u0cbf\u0c95\u0ccd","name:km":"\u1798\u17c9\u17b6\u1791\u17b8\u1793\u17b8\u1780","name:cs":"Martinik","name:ki":"Martiniki","min_zoom":4.0,"name:ti":"\u121b\u122d\u1272\u1292\u12ad","name:ks":"\u0645\u0627\u0631\u0679\u0650\u0646\u0650\u06a9","name:to":"Mateniki","name:or":"\u0b2e\u0b3e\u0b30\u0b4d\u0b1f\u0b3f\u0b28\u0b3f\u0b15\u0b4d\u0b5f\u0b41","name:pl":"Martynika","name:ta":"\u0bae\u0bbe\u0bb0\u0bcd\u0b9f\u0bbf\u0ba9\u0bbf\u0b95\u0bcd","name:ca":"Martinica","name:te":"\u0c2e\u0c3e\u0c30\u0c4d\u0c1f\u0c3f\u0c28\u0c3f\u0c15\u0c4d","name:bg":"\u041c\u0430\u0440\u0442\u0438\u043d\u0438\u043a\u0430","name:ro":"Martinica","source":"openstreetmap.org","name:ln":"Martiniki","name:dz":"\u0f58\u0f71\u0f62\u0f0b\u0f4a\u0f72\u0f0b\u0f53\u0f72\u0f40","name:tr":"Martinik","name:ak":"Matinik","name:lv":"Martinika","name:lt":"Martinika","name:hi":"\u092e\u093e\u0930\u094d\u091f\u0940\u0928\u093f\u0915","name:he":"\u05de\u05e8\u05d8\u05d9\u05e0\u05d9\u05e7","kind":"region","name:ur":"\u0645\u0627\u0631\u0679\u06cc\u0646\u06a9","name:la":"Martinica","name:lg":"Maritiniiki","name:uk":"\u041c\u0430\u0440\u0442\u0438\u043d\u0456\u043a\u0430","name:hr":"Martinik","name:lo":"\u0ea1\u0eb2\u0e95\u0eb4\u0e99\u0eb4\u0e81","name:oc":"Martinica","population":392291,"name:el":"\u039c\u03b1\u03c1\u03c4\u03b9\u03bd\u03af\u03ba\u03b1","name:eo":"Martiniko","name":"Martinique","name:ee":"Martiniki nutome","name:th":"\u0e21\u0e32\u0e23\u0e4c\u0e15\u0e34\u0e19\u0e35\u0e01","name:eu":"Martinika","name:es":"Martinica","name:mt":"Martinik","name:rn":"Maritiniki","name:az":"Martiniqu","name:id":"Martinik","name:mr":"\u092e\u093e\u0930\u094d\u091f\u093f\u0928\u093f\u0915","name:ar":"\u0645\u0627\u0631\u062a\u064a\u0646\u064a\u0643","official_name":"R\u00e9gion de la Martinique","name:mg":"Martinika","name:am":"\u121b\u122d\u1272\u1292\u12ad","name:it":"Martinica","name:ru":"\u041c\u0430\u0440\u0442\u0438\u043d\u0438\u043a\u0430","name:ml":"\u0d2e\u0d3e\u0d7c\u0d1f\u0d4d\u0d1f\u0d40\u0d28\u0d3f\u0d15\u0d4d","name:mn":"\u041c\u0430\u0440\u0442\u0438\u043d\u0438\u043a","id":1251670424,"name:mk":"\u041c\u0430\u0440\u0442\u0438\u043d\u0438\u043a","name:zu":"i-Martinique","name:ff":"Martinik","kind_detail":"state","name:fy":"Martinyk","name:zh":"\u99ac\u63d0\u5c3c\u514b","name:sl":"Martinik","name:sk":"Martinik","name:ja":"\u30de\u30eb\u30c6\u30a3\u30cb\u30fc\u30af","name:si":"\u0db8\u0dbb\u0dca\u0da7\u0dd2\u0db1\u0dd2\u0d9a\u0dca","name:fa":"\u0645\u0627\u0631\u062a\u06cc\u0646\u06cc\u06a9","name:sg":"M\u00e4rt\u00efn\u00eeki","name:ne":"\u092e\u093e\u0930\u094d\u091f\u093f\u0928\u093f\u0915","name:br":"Martinik","name:bs":"Martinik","name:bm":"Maritiniki","name:bn":"\u09ae\u09be\u09b0\u09cd\u099f\u09bf\u09a8\u09bf\u0995","name:sw":"Martiniki","name:be":"\u041c\u0430\u0440\u0446\u0456\u043d\u0456\u043a\u0430","name:ha":"Martinik","name:sr":"\u041c\u0430\u0440\u0442\u0438\u043d\u0438\u043a","name:ga":"Martain\u00edc","name:gd":"Mairtinic","name:gl":"Martinica","name:yo":"Or\u00edl\u1eb9\u0301\u00e8de Matinikuwi","name:gu":"\u0aae\u0abe\u0ab0\u0acd\u0a9f\u0ac0\u0aa8\u0ac0\u0a95"},"coordinates":[1330,1039]},{"type":"Point","properties":{"source":"naturalearthdata.com","kind":"locality","name":"Castries","country_capital":true,"population":37963,"min_zoom":5.0,"id":6758},"coordinates":[1274,119]},{"type":"Point","properties":{"source":"naturalearthdata.com","kind":"locality","name":"Roseau","country_capital":true,"population":23336,"min_zoom":5.0,"id":6497},"coordinates":[711,2080]},{"type":"Point","properties":{"source":"naturalearthdata.com","kind":"locality","name":"Fort-de-France","population":253995,"region_capital":true,"min_zoom":7.0,"id":3538},"coordinates":[1158,1037]},{"type":"Point","properties":{"source":"naturalearthdata.com","kind":"locality","name":"Pointe-a-Pitre","population":145511,"min_zoom":7.0,"id":4168},"coordinates":[498,3500]},{"type":"Point","properties":{"source":"naturalearthdata.com","kind":"locality","name":"Basse-terre","population":307,"region_capital":true,"min_zoom":7.0,"id":4169},"coordinates":[634,3483]}]},"transit":{"type":"GeometryCollection","geometries":[]},"pois":{"type":"GeometryCollection","geometries":[{"type":"Point","properties":{"kind":"protected_area","name":"Aire de coop\u00e9ration de la r\u00e9serve de biosph\u00e8re de l'archipel de Guadeloupe","area":336823000,"name:de":"Kooperationsraum des Biosph\u00e4renreservats des Archipels von Guadeloupe","source":"openstreetmap.org","min_zoom":7.0,"tier":2,"id":-1109627,"osm_relation":true},"coordinates":[245,3391]},{"type":"Point","properties":{"kind":"protected_area","name":"Aire d'adh\u00e9sion du Parc national de Guadeloupe","area":2446550000,"source":"openstreetmap.org","min_zoom":7.0,"tier":2,"id":-1106908,"osm_relation":true},"coordinates":[111,3485]},{"type":"Point","properties":{"kind":"protected_area","protect_class":"5","area":395697000,"source":"openstreetmap.org","min_zoom":7.0,"tier":2,"id":-1106761,"osm_relation":true,"name":"Parc naturel r\u00e9gional de Martinique"},"coordinates":[1098,1265]},{"type":"Point","properties":{"kind":"protected_area","name":"Grand Cul de Sac marin","area":317033000,"source":"openstreetmap.org","min_zoom":7.0,"tier":2,"id":-1105234,"osm_relation":true},"coordinates":[393,3677]}]},"boundaries":{"type":"GeometryCollection","geometries":[{"type":"LineString","properties":{"source":"naturalearthdata.com","kind":"region","name":"Dauphin - Castries","sort_rank":256,"kind_detail":"4","min_zoom":7.0,"id":8332},"arcs":[0]},{"type":"LineString","properties":{"source":"naturalearthdata.com","kind":"region","name":"Dauphin - Gros Islet","sort_rank":256,"kind_detail":"4","min_zoom":7.0,"id":8333},"arcs":[1]},{"type":"LineString","properties":{"source":"naturalearthdata.com","kind":"region","name":"Dennery - Castries","sort_rank":256,"kind_detail":"4","min_zoom":7.0,"id":8334},"arcs":[2]},{"type":"LineString","properties":{"source":"naturalearthdata.com","kind":"region","name":"Gros Islet - Castries","sort_rank":256,"kind_detail":"4","min_zoom":7.0,"id":8339},"arcs":[3]},{"type":"LineString","properties":{"source":"naturalearthdata.com","kind":"region","name":"Castries - Anse-la-Raye","sort_rank":256,"kind_detail":"4","min_zoom":7.0,"id":8340},"arcs":[4]},{"type":"MultiLineString","properties":{"source":"naturalearthdata.com","kind":"region","name":"Dauphin - Dennery","sort_rank":256,"kind_detail":"4","min_zoom":7.0,"id":8343},"arcs":[[5],[6]]}]},"roads":{"type":"GeometryCollection","geometries":[]},"earth":{"type":"GeometryCollection","geometries":[{"type":"MultiPolygon","properties":{"sort_rank":10,"source":"naturalearthdata.com","min_zoom":0.0,"kind":"earth","area":5928811357},"arcs":[[[30]],[[31]],[[32]],[[33]],[[34]],[[35]],[[36]],[[37]],[[38]]]}]},"landuse":{"type":"GeometryCollection","geometries":[{"type":"Polygon","properties":{"kind":"nature_reserve","area":187471008,"sort_rank":23,"source":"openstreetmap.org","min_zoom":6.0,"tier":2,"id":-1109626,"osm_relation":true},"arcs":[[39]]},{"type":"Polygon","properties":{"kind":"park","area":187460992,"sort_rank":24,"source":"openstreetmap.org","min_zoom":6.0,"tier":2,"id":-1106907,"osm_relation":true},"arcs":[[40]]},{"type":"MultiPolygon","properties":{"kind":"protected_area","protect_class":"5","area":555104149,"sort_rank":17,"source":"openstreetmap.org","min_zoom":6.0,"tier":2,"osm_relation":true},"arcs":[[[41]],[[42]]]},{"type":"MultiPolygon","properties":{"source":"naturalearthdata.com","kind":"urban_area","name":"","area":186416417,"sort_rank":11,"min_zoom":4.0},"arcs":[[[43]],[[44]],[[45]]]},{"type":"Polygon","properties":{"kind":"protected_area","area":2446550016,"sort_rank":17,"source":"openstreetmap.org","min_zoom":4.0,"tier":2,"id":-1106908,"osm_relation":true},"arcs":[[46],[47],[48],[49],[50],[51],[52],[53],[54],[55]]},{"type":"Polygon","properties":{"source":"openstreetmap.org","kind":"protected_area","tier":2,"area":658493503,"sort_rank":17,"min_zoom":6.0,"osm_relation":true},"arcs":[[56],[57],[58]]}]}},"type":"Topology","transform":{"translate":[-61.875,13.9234038977],"scale":[0.0006866455,0.0006623018]},"arcs":[[[1368,143],[-2,-13],[-5,-46]],[[1418,226],[-21,-13],[-18,-17],[-7,-25],[-4,-28]],[[1361,84],[-9,-37],[-15,-40],[-1,-7]],[[1303,181],[21,-13],[11,-19],[33,-6]],[[1236,97],[25,-9],[25,-6],[11,-18],[4,-31],[2,-32],[0,-1]],[[1418,90],[27,-4]],[[1361,84],[29,4],[28,2]],[[0,0],[0,4096],[4096,0],[0,-4096],[-2658,0],[7,47],[0,39],[-6,45],[-5,64],[-4,18],[-12,13],[-15,10],[-10,13],[6,26],[-28,10],[-20,-15],[-36,-52],[-6,-10],[-6,-27],[-3,-9],[-7,-7],[-14,-8],[-8,-6],[-35,-54],[-13,-34],[-35,-51],[-5,-12],[-1183,0]],[[605,3908],[-4,2],[-4,-5],[-45,-24],[-14,-10],[-6,-10],[-23,-28],[-13,-19],[1,-15],[7,-14],[8,-54],[11,-2],[12,-5],[11,-6],[6,-7],[1,-10],[0,-14],[-3,-13],[-3,-5],[-27,-7],[-14,-16],[-24,-79],[0,-1],[-6,-21],[0,-20],[6,-19],[15,-18],[19,-16],[25,-15],[29,-11],[31,-5],[26,4],[49,22],[257,58],[23,-6],[11,-5],[41,-10],[12,0],[16,13],[-8,9],[-28,8],[-79,55],[-15,8],[-9,5],[-31,27],[-14,9],[-17,3],[-15,-1],[-14,1],[-15,8],[-10,-11],[-21,11],[-18,13],[-16,16],[-15,22],[-11,23],[-2,15],[4,40],[-7,40],[-17,31],[-25,25],[-48,34]],[[1217,3656],[-57,-49],[-19,-10],[33,-5],[42,17],[74,49],[-37,12],[-36,-14]],[[919,3141],[-35,8],[-32,-17],[-27,-30],[-10,-16],[-4,-22],[-14,-20],[-6,-11],[5,-5],[5,-5],[5,-10],[3,-12],[2,-10],[19,-39],[44,-7],[50,12],[36,18],[17,14],[9,11],[5,14],[1,19],[-5,19],[-11,13],[-11,8],[-17,44],[-29,24]],[[447,2956],[-8,3],[-9,-4],[-8,-15],[-8,-5],[-7,-7],[4,-6],[15,5],[17,12],[8,7],[-1,3],[-1,3],[-2,4]],[[370,2936],[-5,5],[-15,-8],[-5,-19],[15,-10],[13,8],[4,12],[-7,12]],[[414,2955],[-8,1],[3,-5],[8,-1],[-3,5]],[[404,3130],[46,56],[12,80],[-10,82],[-18,53],[-4,70],[10,16],[27,6],[9,2],[-11,30],[10,34],[-4,8],[-9,9],[-19,-3],[-14,-12],[-7,-16],[-15,16],[-5,6],[-6,-5],[0,-2],[-2,2],[-12,5],[20,9],[-25,30],[-50,27],[-53,18],[-37,7],[-14,7],[-10,13],[-13,9],[-27,-7],[-21,-18],[-25,-43],[-14,-12],[5,-20],[-6,-47],[1,-26],[8,-16],[12,-16],[6,-19],[-7,-22],[22,-54],[1,-119],[18,-54],[12,-8],[6,-14],[6,-18],[10,-17],[17,-16],[15,-10],[13,-11],[10,-20],[-11,-10],[9,-22],[2,-9],[75,32],[67,39]],[[410,3663],[4,-6],[6,7],[15,4],[-7,4],[-4,3],[-7,-2],[-7,-10]],[[1112,3403],[-15,-1],[-8,1],[11,-10],[4,0],[11,1],[5,7],[-8,2]],[[414,2900],[0,-6],[7,-5],[-1,6],[-6,5]],[[665,2238],[4,-27],[3,-11],[20,-44],[7,-28],[3,-37],[3,-18],[18,-22],[8,-17],[0,-6],[0,-44],[-4,-37],[2,-12],[17,-5],[18,5],[6,10],[1,1],[4,11],[21,9],[7,20],[8,7],[9,2],[12,-3],[15,2],[6,-1],[7,2],[11,8],[30,53],[4,60],[-1,12],[-2,48],[9,55],[-7,3],[-6,5],[-7,2],[10,43],[-2,55],[-14,53],[-2,3],[-22,33],[-8,14],[-15,25],[-9,23],[-3,10],[-72,29],[-18,-4],[-22,-11],[-19,12],[-23,35],[-18,13],[-16,7],[-18,0],[-29,2],[-17,-65],[-12,-18],[12,-1],[17,-6],[10,-2],[-7,-15],[-25,-18],[-7,-9],[0,-15],[6,-8],[8,-7],[6,-12],[2,-36],[3,-19],[9,-8],[8,-4],[9,-13],[6,-15],[3,-14],[5,-13],[34,-33],[4,-14]],[[1247,1356],[-57,26],[-64,42],[-50,16],[-51,-1],[-57,-33],[-13,-12],[-10,-17],[-4,-20],[4,-22],[10,-18],[42,-44],[11,-15],[8,-18],[4,-18],[-3,-10],[-5,-10],[-2,-10],[5,-11],[7,-7],[4,-7],[4,-8],[1,-9],[11,-27],[26,-26],[52,-35],[5,-7],[10,-18],[6,-6],[8,-2],[31,2],[15,-2],[16,1],[18,3],[21,8],[3,-26],[11,-21],[11,-16],[5,-9],[-11,-22],[-21,-8],[-22,7],[-15,23],[-13,-12],[-38,-19],[-40,-42],[13,-8],[7,-5],[2,-6],[-1,-11],[32,-46],[12,-7],[22,4],[36,14],[23,4],[85,-12],[40,7],[9,-2],[-1,-15],[24,-1],[23,14],[20,8],[14,-21],[-2,-23],[-14,-8],[-16,-5],[-9,-15],[6,-22],[18,-8],[20,2],[17,7],[15,20],[18,44],[17,8],[0,10],[-9,19],[-4,24],[-8,20],[-19,10],[5,7],[2,4],[4,4],[8,5],[-11,17],[-5,18],[0,19],[6,19],[-19,-11],[1,13],[-1,13],[-5,12],[-10,4],[-14,4],[-6,9],[-2,10],[-4,8],[-29,17],[-12,12],[-9,23],[8,3],[5,3],[6,3],[11,1],[-49,22],[-12,-18],[-13,5],[-2,13],[17,9],[-10,11],[39,22],[-8,9],[-9,5],[-10,1],[-12,-6],[-3,34],[4,29],[11,7],[17,-29],[31,32],[-3,10],[4,6],[9,6],[10,8],[-35,0],[-34,-9],[-29,-15],[-21,-17],[-26,53],[-17,4],[-7,12],[-4,13],[-6,11],[-24,15]],[[471,3567],[-9,9],[-19,-3],[-14,-12],[-7,-16],[-15,16],[-5,6],[-6,-5],[0,-2],[-2,2],[-12,5],[20,9],[-25,30],[-50,27],[-53,18],[-37,7],[-14,7],[-10,13],[-13,9],[-27,-7],[-21,-18],[-25,-43],[-14,-12],[5,-20],[-6,-47],[1,-26],[8,-16],[12,-16],[6,-19],[-7,-22],[22,-54],[1,-119],[18,-54],[12,-8],[6,-14],[6,-18],[10,-17],[17,-16],[15,-10],[13,-11],[10,-20],[-11,-10],[9,-22],[2,-9],[75,32],[67,39],[46,56],[12,80],[-10,82],[-18,53],[-4,70],[10,16],[27,6],[9,2],[-11,30],[10,34],[-4,8]],[[482,3566],[-6,-21],[0,-20],[6,-19],[15,-18],[19,-16],[25,-15],[29,-11],[31,-5],[26,4],[49,22],[257,58],[23,-6],[11,-5],[41,-10],[12,0],[16,13],[-8,9],[-28,8],[-79,55],[-15,8],[-9,5],[-31,27],[-14,9],[-17,3],[-15,-1],[-14,1],[-15,8],[-10,-11],[-21,11],[-18,13],[-16,16],[-15,22],[-11,23],[-2,15],[4,40],[-7,40],[-17,31],[-25,25],[-48,34],[-4,2],[-4,-5],[-45,-24],[-14,-10],[-6,-10],[-23,-28],[-13,-19],[1,-15],[7,-14],[8,-54],[11,-2],[12,-5],[11,-6],[6,-7],[1,-10],[0,-14],[-3,-13],[-3,-5],[-27,-7],[-14,-16],[-24,-79],[0,-1]],[[1290,3658],[-37,12],[-36,-14],[-57,-49],[-19,-10],[33,-5],[42,17],[74,49]],[[746,1930],[18,5],[6,10],[1,1],[4,11],[21,9],[7,20],[8,7],[9,2],[12,-3],[15,2],[6,-1],[7,2],[11,8],[30,53],[4,60],[-1,12],[-2,48],[9,55],[-7,3],[-6,5],[-7,2],[10,43],[-2,55],[-14,53],[-2,3],[-22,33],[-8,14],[-15,25],[-9,23],[-3,10],[-72,29],[-18,-4],[-22,-11],[-19,12],[-23,35],[-18,13],[-16,7],[-18,0],[-29,2],[-17,-65],[-12,-18],[12,-1],[17,-6],[10,-2],[-7,-15],[-25,-18],[-7,-9],[0,-15],[6,-8],[8,-7],[6,-12],[2,-36],[3,-19],[9,-8],[8,-4],[9,-13],[6,-15],[3,-14],[5,-13],[34,-33],[4,-14],[4,-27],[3,-11],[20,-44],[7,-28],[3,-37],[3,-18],[18,-22],[8,-17],[0,-6],[0,-44],[-4,-37],[2,-12],[17,-5]],[[992,3033],[-5,19],[-11,13],[-11,8],[-17,44],[-29,24],[-35,8],[-32,-17],[-27,-30],[-10,-16],[-4,-22],[-14,-20],[-6,-11],[5,-5],[5,-5],[5,-10],[3,-12],[2,-10],[19,-39],[44,-7],[50,12],[36,18],[17,14],[9,11],[5,14],[1,19]],[[1550,813],[0,10],[-9,19],[-4,24],[-8,20],[-19,10],[5,7],[2,4],[4,4],[8,5],[-11,17],[-5,18],[0,19],[6,19],[-19,-11],[1,13],[-1,13],[-5,12],[-10,4],[-14,4],[-6,9],[-2,10],[-4,8],[-29,17],[-12,12],[-9,23],[8,3],[5,3],[6,3],[11,1],[-49,22],[-12,-18],[-13,5],[-2,13],[17,9],[-10,11],[39,22],[-8,9],[-9,5],[-10,1],[-12,-6],[-3,34],[4,29],[11,7],[17,-29],[31,32],[-3,10],[4,6],[9,6],[10,8],[-35,0],[-34,-9],[-29,-15],[-21,-17],[-26,53],[-17,4],[-7,12],[-4,13],[-6,11],[-24,15],[-57,26],[-64,42],[-50,16],[-51,-1],[-57,-33],[-13,-12],[-10,-17],[-4,-20],[4,-22],[10,-18],[42,-44],[11,-15],[8,-18],[4,-18],[-3,-10],[-5,-10],[-2,-10],[5,-11],[7,-7],[4,-7],[4,-8],[1,-9],[11,-27],[26,-26],[52,-35],[5,-7],[10,-18],[6,-6],[8,-2],[31,2],[15,-2],[16,1],[18,3],[21,8],[3,-26],[11,-21],[11,-16],[5,-9],[-11,-22],[-21,-8],[-22,7],[-15,23],[-13,-12],[-38,-19],[-40,-42],[13,-8],[7,-5],[2,-6],[-1,-11],[32,-46],[12,-7],[22,4],[36,14],[23,4],[85,-12],[40,7],[9,-2],[-1,-15],[24,-1],[23,14],[20,8],[14,-21],[-2,-23],[-14,-8],[-16,-5],[-9,-15],[6,-22],[18,-8],[20,2],[17,7],[15,20],[18,44],[17,8]],[[1439,131],[-5,64],[-4,18],[-12,13],[-15,10],[-10,13],[6,26],[-28,10],[-20,-15],[-36,-52],[-6,-10],[-6,-27],[-3,-9],[-7,-7],[-14,-8],[-8,-6],[-35,-54],[-13,-34],[-35,-51],[-5,-12]],[[1438,0],[7,47],[0,39],[-6,45]],[[449,2952],[-2,4],[-8,3],[-9,-4],[-8,-15],[-8,-5],[-7,-7],[4,-6],[15,5],[17,12],[8,7],[-1,3],[-1,3]],[[365,2941],[-15,-8],[-5,-19],[15,-10],[13,8],[4,12],[-7,12],[-5,5]],[[1438,0],[-255,0],[5,12],[35,51],[13,34],[35,54],[8,6],[14,8],[7,7],[3,9],[6,27],[6,10],[36,52],[20,15],[28,-10],[-6,-26],[10,-13],[15,-10],[12,-13],[4,-18],[5,-64],[6,-45],[0,-39],[-7,-47]],[[1305,1301],[26,-53],[21,17],[29,15],[34,9],[35,0],[-10,-8],[-9,-6],[-4,-6],[3,-10],[-31,-32],[-17,29],[-11,-7],[-4,-29],[3,-34],[12,6],[10,-1],[9,-5],[8,-9],[-39,-22],[10,-11],[-17,-9],[2,-13],[13,-5],[12,18],[49,-22],[-11,-1],[-6,-3],[-5,-3],[-8,-3],[9,-23],[12,-12],[29,-17],[4,-8],[2,-10],[6,-9],[14,-4],[10,-4],[5,-12],[1,-13],[-1,-13],[19,11],[-6,-19],[0,-19],[5,-18],[11,-17],[-8,-5],[-4,-4],[-2,-4],[-5,-7],[19,-10],[8,-20],[4,-24],[9,-19],[0,-10],[-17,-8],[-18,-44],[-15,-20],[-17,-7],[-20,-2],[-18,8],[-6,22],[9,15],[16,5],[14,8],[2,23],[-14,21],[-20,-8],[-23,-14],[-24,1],[1,15],[-9,2],[-40,-7],[-85,12],[-23,-4],[-36,-14],[-22,-4],[-12,7],[-32,46],[1,11],[-2,6],[-7,5],[-13,8],[40,42],[38,19],[13,12],[15,-23],[22,-7],[21,8],[11,22],[-5,9],[-11,16],[-11,21],[-3,26],[-21,-8],[-18,-3],[-16,-1],[-15,2],[-31,-2],[-8,2],[-6,6],[-10,18],[-5,7],[-52,35],[-26,26],[-11,27],[-1,9],[-4,8],[-4,7],[-7,7],[-5,11],[2,10],[5,10],[3,10],[-4,18],[-8,18],[-11,15],[-42,44],[-10,18],[-4,22],[4,20],[10,17],[13,12],[57,33],[51,1],[50,-16],[64,-42],[57,-26],[24,-15],[6,-11],[4,-13],[7,-12],[17,-4]],[[695,2526],[19,-12],[22,11],[18,4],[72,-29],[3,-10],[9,-23],[15,-25],[8,-14],[22,-33],[2,-3],[14,-53],[2,-55],[-10,-43],[7,-2],[6,-5],[7,-3],[-9,-55],[2,-48],[1,-12],[-4,-60],[-30,-53],[-11,-8],[-7,-2],[-6,1],[-15,-2],[-12,3],[-9,-2],[-8,-7],[-7,-20],[-21,-9],[-4,-11],[-1,-1],[-6,-10],[-18,-5],[-17,5],[-2,12],[4,37],[0,44],[0,6],[-8,17],[-18,22],[-3,18],[-3,37],[-7,28],[-20,44],[-3,11],[-4,27],[-4,14],[-34,33],[-5,13],[-3,14],[-6,15],[-9,13],[-8,4],[-9,8],[-3,19],[-2,36],[-6,12],[-8,7],[-6,8],[0,15],[7,9],[25,18],[7,15],[-10,2],[-17,6],[-12,1],[12,18],[17,65],[29,-2],[18,0],[16,-7],[18,-13],[23,-35]],[[373,2912],[-13,-8],[-15,10],[5,19],[15,8],[5,-5],[7,-12],[-4,-12]],[[924,2957],[-50,-12],[-44,7],[-19,39],[-2,10],[-3,12],[-5,10],[-5,5],[-5,5],[6,11],[14,20],[4,22],[10,16],[27,30],[32,17],[35,-8],[29,-24],[17,-44],[11,-8],[11,-13],[5,-19],[-1,-19],[-5,-14],[-9,-11],[-17,-14],[-36,-18]],[[426,2927],[-15,-5],[-4,6],[7,7],[8,5],[8,15],[9,4],[8,-3],[2,-4],[1,-3],[1,-3],[-8,-7],[-17,-12]],[[1216,3609],[-42,-17],[-33,5],[19,10],[57,49],[36,14],[37,-12],[-74,-49]],[[394,3562],[2,-2],[0,2],[6,5],[5,-6],[15,-16],[7,16],[14,12],[19,3],[9,-9],[4,-8],[-10,-34],[11,-30],[-9,-2],[-27,-6],[-10,-16],[4,-70],[18,-53],[10,-82],[-12,-80],[-46,-56],[-67,-39],[-75,-32],[-2,9],[-9,22],[11,10],[-10,20],[-13,11],[-15,10],[-17,16],[-10,17],[-6,18],[-6,14],[-12,8],[-18,54],[-1,119],[-22,54],[7,22],[-6,19],[-12,16],[-8,16],[-1,26],[6,47],[-5,20],[14,12],[25,43],[21,18],[27,7],[13,-9],[10,-13],[14,-7],[37,-7],[53,-18],[50,-27],[25,-30],[-20,-9],[12,-5]],[[760,3649],[21,-11],[10,11],[15,-8],[14,-1],[15,1],[17,-3],[14,-9],[31,-27],[9,-5],[15,-8],[79,-55],[28,-8],[8,-9],[-16,-13],[-12,0],[-41,10],[-11,5],[-23,6],[-257,-58],[-49,-22],[-26,-4],[-31,5],[-29,11],[-25,15],[-19,16],[-15,18],[-6,19],[0,20],[6,21],[0,1],[24,79],[14,16],[27,7],[3,5],[3,13],[0,14],[-1,10],[-6,7],[-11,6],[-12,5],[-11,2],[-8,54],[-7,14],[-1,15],[13,19],[23,28],[6,10],[14,10],[45,24],[4,5],[4,-2],[48,-34],[25,-25],[17,-31],[7,-40],[-4,-40],[2,-15],[11,-23],[15,-22],[16,-16],[18,-13]],[[158,3421],[48,35],[95,-34],[-20,-62],[35,31],[-11,-43],[77,-68],[-34,-141],[-17,32],[-41,-8],[-35,75],[-46,5],[30,69],[-56,42],[13,45],[-38,22]],[[158,3421],[48,35],[95,-34],[-20,-62],[35,31],[-11,-43],[77,-68],[-34,-141],[-17,32],[-41,-8],[-35,75],[-46,6],[30,68],[-56,42],[13,45],[-38,22]],[[1316,830],[73,75],[-28,49],[37,27],[8,47],[44,-61],[-7,-41],[53,-55],[35,9],[21,-70],[-38,-55],[-19,7],[14,-26],[-43,-24],[-37,38],[40,76],[-48,-34],[-16,33],[-89,5]],[[941,1357],[33,60],[84,25],[173,-72],[-36,-121],[50,-25],[-10,-51],[-58,-28],[4,-29],[-19,11],[-52,-39],[1,37],[-32,-16],[-15,14],[23,16],[-31,-1],[2,22],[-28,-25],[-25,51],[12,56],[-76,115]],[[1274,1085],[26,-20],[-42,-58],[-8,34],[-101,-12],[-46,44],[171,12]],[[475,3559],[1,-64],[-47,-26],[-47,52],[5,43],[35,-19],[21,28],[32,-14]],[[511,3476],[-35,49],[21,92],[59,-53],[-45,-88]],[[0,3757],[546,159],[52,-4],[79,-71],[17,-73],[-45,-116],[37,-18],[5,-32],[-41,2],[-24,-74],[-116,-58],[-3,38],[35,10],[2,40],[-68,-14],[1,-28],[-56,6],[3,20],[-24,-21],[24,-34],[-24,-36],[25,-9],[-2,-61],[35,-50],[-14,-25],[22,-93],[-94,-122],[-128,-36],[-91,167],[5,48],[-158,-2],[0,487]],[[158,3421],[38,-22],[-13,-45],[56,-42],[-30,-68],[46,-6],[35,-75],[41,8],[17,-32],[34,141],[-77,68],[14,31],[-3,12],[-3,-20],[-32,-11],[20,62],[-95,34],[-48,-35]],[[329,3579],[47,-17],[35,32],[-76,13],[-5,-22],[21,-2],[-22,-4]],[[462,3576],[12,-30],[46,36],[-33,25],[-25,-31]],[[96,3390],[42,-44],[1,0],[-12,84],[-31,-40]],[[136,3693],[2,-6],[4,-2],[-1,6],[-5,2]],[[378,3659],[37,-29],[32,36],[-11,23],[-56,7],[-2,-37]],[[270,3662],[23,-12],[5,5],[-20,10],[-8,-3]],[[321,3642],[7,-2],[3,2],[-2,5],[-8,-5]],[[440,3580],[4,-7],[2,11],[-6,-4]],[[99,3606],[26,32],[-5,81],[36,28],[346,-57],[-24,98],[25,43],[22,-39],[-25,-35],[103,-88],[-25,-35],[-59,19],[-10,-108],[-78,12],[-32,-35],[-32,6],[-9,45],[-17,-16],[2,41],[-30,-3],[-102,79],[-67,-10],[-14,-20],[27,-31],[21,15],[-5,-74],[78,38],[-20,-68],[75,-68],[-13,-84],[37,42],[23,-50],[25,20],[32,-8],[-24,-4],[0,-20],[31,6],[-46,-39],[6,-34],[55,12],[-37,-20],[15,-10],[-47,-3],[18,-62],[-21,2],[-13,-66],[-16,33],[-25,-17],[-45,29],[13,40],[-24,-12],[8,17],[-1,6],[-11,-15],[-37,24],[17,59],[-22,18],[-31,-12],[16,57],[-29,14],[36,20],[-38,22],[36,13],[5,51],[-51,36],[-1,71],[-48,14]],[[282,3456],[9,0],[-3,9],[-2,-1],[-4,-8]],[[344,3343],[6,1],[2,8],[-4,0],[-4,-9]]]}