{"objects":{"water":{"type":"GeometryCollection","geometries":[{"type":"Polygon","properties":{"source":"naturalearthdata.com","kind":"ocean","area":1576712559132672,"sort_rank":200,"min_zoom":0.0,"id":1},"arcs":[[46],[47],[48],[49],[50],[51],[52],[53],[54],[55],[56]]},{"type":"MultiLineString","properties":{"source":"naturalearthdata.com","kind":"ocean","sort_rank":205,"boundary":true,"min_zoom":0.0,"id":76},"arcs":[[57],[58],[59],[60],[61]]},{"type":"LineString","properties":{"source":"naturalearthdata.com","kind":"ocean","sort_rank":205,"boundary":true,"min_zoom":0.0,"id":293},"arcs":[62]},{"type":"LineString","properties":{"source":"naturalearthdata.com","kind":"ocean","sort_rank":205,"boundary":true,"min_zoom":0.0,"id":296},"arcs":[63]},{"type":"LineString","properties":{"source":"naturalearthdata.com","kind":"ocean","sort_rank":205,"boundary":true,"min_zoom":0.0,"id":312},"arcs":[64]},{"type":"LineString","properties":{"source":"naturalearthdata.com","kind":"ocean","sort_rank":205,"boundary":true,"min_zoom":0.0,"id":321},"arcs":[65]},{"type":"LineString","properties":{"source":"naturalearthdata.com","kind":"ocean","sort_rank":205,"boundary":true,"min_zoom":0.0,"id":324},"arcs":[66]},{"type":"LineString","properties":{"source":"naturalearthdata.com","kind":"ocean","sort_rank":205,"boundary":true,"min_zoom":0.0,"id":547},"arcs":[67]},{"type":"MultiLineString","properties":{"source":"naturalearthdata.com","kind":"ocean","sort_rank":205,"boundary":true,"min_zoom":0.0,"id":550},"arcs":[[68],[69]]},{"type":"LineString","properties":{"source":"naturalearthdata.com","kind":"ocean","sort_rank":205,"boundary":true,"min_zoom":0.0,"id":3842},"arcs":[70]},{"type":"LineString","properties":{"source":"naturalearthdata.com","kind":"ocean","sort_rank":205,"boundary":true,"min_zoom":0.0,"id":3937},"arcs":[71]},{"type":"LineString","properties":{"source":"naturalearthdata.com","kind":"ocean","sort_rank":205,"boundary":true,"min_zoom":0.0,"id":3938},"arcs":[72]}]},"buildings":{"type":"GeometryCollection","geometries":[]},"places":{"type":"GeometryCollection","geometries":[{"type":"Point","properties":{"name:pt":"Trinidad e Tobago","name:cy":"Trinidad a Tobago","alt_name:el":"\u03a4\u03c1\u03b9\u03bd\u03b9\u03bd\u03c4\u03ac\u03bd\u03c4 \u03ba\u03b1\u03b9 \u03a4\u03bf\u03bc\u03c0\u03ac\u03b3\u03ba\u03bf","name:ko":"\ud2b8\ub9ac\ub2c8\ub2e4\ub4dc \ud1a0\ubc14\uace0","name:kn":"\u0c9f\u0ccd\u0cb0\u0cbf\u0ca8\u0cbf\u0ca1\u0cbe\u0ca1\u0ccd \u0cae\u0ca4\u0ccd\u0ca4\u0cc1 \u0c9f\u0cca\u0cac\u0ccd\u0caf\u0cbe\u0c97\u0cca","name:km":"\u1791\u17d2\u179a\u17b8\u1793\u17b8\u178a\u17b6\u178f \u1793\u17b7\u1784\u200b\u178f\u17bc\u1794\u17b6\u17a0\u17d2\u1782\u17c4","name:kl":"Trinidad aamma Tobago","name:cs":"Trinidad a Tobago","name:ki":"Trinidad na Tobago","name:tr":"Trinidad ve Tobago","name:ku":"Tr\u00een\u00eedad \u00fb Tobago","name:ti":"\u1275\u122a\u1292\u12f3\u12f5 \u12a5\u1293 \u1276\u1263\u130e","name:ks":"\u0679\u0631\u065b\u0646\u0650\u0646\u062f\u0627\u062f \u062a\u06c1\u0655 \u0679\u0648\u0628\u06cc\u06af\u0648","name:to":"Tilinitati mo Topako","name:sv":"Trinidad och Tobago","name:or":"\u0b24\u0b4d\u0b30\u0b3f\u0b28\u0b3f\u0b26\u0b3e\u0b26\u0b4d \u0b0f\u0b2c\u0b02 \u0b1f\u0b4b\u0b2c\u0b3e\u0b17\u0b4b","alt_name:pt":"Trindade e Tobago","name:ta":"\u0b9f\u0bcd\u0bb0\u0bbf\u0ba9\u0bbf\u0b9f\u0bbe\u0b9f\u0bcd \u0bae\u0bb1\u0bcd\u0bb1\u0bc1\u0bae\u0bcd \u0b9f\u0bc1\u0baa\u0bbe\u0b95\u0bcb","name:ca":"Trinitat i Tobago","name:te":"\u0c1f\u0c4d\u0c30\u0c3f\u0c28\u0c3f\u0c21\u0c47\u0c21\u0c4d \u0c2e\u0c30\u0c3f\u0c2f\u0c41 \u0c1f\u0c4a\u0c2c\u0c3e\u0c17\u0c4b","name:ro":"Trinidad \u015fi Tobago","name:ka":"\u10e2\u10e0\u10d8\u10dc\u10d8\u10d3\u10d0\u10d3\u10d8 \u10d3\u10d0 \u10e2\u10dd\u10d1\u10d0\u10d2\u10dd","name:hr":"Trinidad i Tobago","name:da":"Trinidad og Tobago","name:de":"Trinidad und Tobago","name:dz":"\u0f4a\u0f72\u0f0b\u0f53\u0f72\u0f0b\u0f4c\u0f71\u0f4c\u0f0b \u0f68\u0f7a\u0f53\u0f4c\u0f0b \u0f4a\u0f7c\u0f0b\u0f56\u0fb7\u0f7a\u0f0b\u0f42\u0fb7\u0f7c","source":"openstreetmap.org","name:lv":"Trinid\u0101da un Tob\u0101go","name:lt":"Trinidadas ir Tobagas","name:hi":"\u0924\u094d\u0930\u093f\u0928\u093f\u0926\u093e\u0926 \u0914\u0930 \u091f\u094b\u092c\u0948\u0917\u094b","name:he":"\u05d8\u05e8\u05d9\u05e0\u05d9\u05d3\u05d3 \u05d5\u05d8\u05d5\u05d1\u05d2\u05d5","kind":"country","name:ur":"\u062a\u0631\u06cc\u0646\u06cc\u062f\u0627\u062f \u0627\u0648\u0631 \u0679\u0648\u0628\u0627\u06af\u0648","name:la":"Trinitas et Tabacum","name:lg":"Turindaadi ne Tobago","name:uk":"\u0422\u0440\u0456\u043d\u0456\u0434\u0430\u0434 \u0442\u0430 \u0422\u043e\u0431\u0430\u0433\u043e","name:hy":"\u054f\u0580\u056b\u0576\u056b\u0564\u0561\u0564-\u054f\u0578\u0562\u0561\u0563\u0578","min_zoom":2.0,"name:hu":"Trinidad \u00e9s Tobago","name:ln":"Tinidad\u025b mp\u00e9 Tobago","name:lo":"\u0e97\u0eb2\u0e8d\u0e99\u0eb4\u0e94\u0eb2\u0e94 \u0ec1\u0ea5\u0eb0 \u0ec2\u0e97\u0e9a\u0eb2\u0ec2\u0e81\u0ec9","population":1328019,"name:el":"\u03a4\u03c1\u03b9\u03bd\u03b9\u03b4\u03ac\u03b4 \u03ba\u03b1\u03b9 \u03a4\u03bf\u03bc\u03c0\u03ac\u03b3\u03ba\u03bf","name:eo":"Trinidado kaj Tobago","name":"Trinidad and Tobago","official_name":"Republic of Trinidad and Tobago","name:ee":"Trinidad kple Tobago nutome","name:th":"\u0e1b\u0e23\u0e30\u0e40\u0e17\u0e28\u0e15\u0e23\u0e34\u0e19\u0e34\u0e41\u0e14\u0e14\u0e41\u0e25\u0e30\u0e42\u0e15\u0e40\u0e1a\u0e42\u0e01","name:gu":"\u0aa4\u0acd\u0ab0\u0abf\u0aa8\u0abf\u0aa1\u0abe\u0aa1 \u0a85\u0aa8\u0ac7 \u0a9f\u0acb\u0aac\u0ac7\u0a97\u0acb","name:eu":"Trinidad eta Tobago","name:et":"Trinidad ja Tobago","name:nl":"Trinidad en Tobago","name:es":"Trinidad y Tobago","name:ia":"Trinidad e Tobago","name:rm":"Trinidad e Tobago","name:rn":"Tirinidadi na Tobago","name:az":"Trinidan v\u0259 Tobaqo","name:id":"Trinidad dan Tobago","name:ms":"Trinidad dan Tobago","name:mr":"\u0924\u094d\u0930\u093f\u0928\u093f\u0926\u093e\u0926 \u0906\u0923\u093f \u091f\u094b\u092c\u0945\u0917\u094b","name:ar":"\u062a\u0631\u064a\u0646\u064a\u062f\u0627\u062f \u0648\u062a\u0648\u0628\u0627\u063a\u0648","name:io":"Trinidad e Tobago","name:is":"Tr\u00ednidad og T\u00f3bag\u00f3","name:am":"\u1275\u122a\u1293\u12f3\u12f5 \u12a5\u1293 \u1276\u1264\u130e","name:it":"Trinidad e Tobago","name:vi":"Trinidad v\u00e0 Tobago","name:ru":"\u0422\u0440\u0438\u043d\u0438\u0434\u0430\u0434 \u0438 \u0422\u043e\u0431\u0430\u0433\u043e","name:mn":"\u0422\u0440\u0438\u043d\u0438\u0434\u0430\u0434 \u0431\u0430 \u0422\u043e\u0431\u0430\u0433\u043e","name:pl":"Trynidad i Tobago","name:mk":"\u0422\u0440\u0438\u043d\u0438\u0434\u0430\u0434 \u0438 \u0422\u043e\u0431\u0430\u0433\u043e","name:af":"Trinidad en Tobago","name:zu":"i-Trinidad ne-Tobago","name:ha":"Tirinidad Da Tobago","name:nn":"Trinidad og Tobago","name:ff":"Tirnidaad e Tobaago","name:fi":"Trinidad ja Tobago","name:no":"Trinidad og Tobago","name:mg":"Trinidad sy Tobag\u00f4","id":249399444,"name:mt":"Trinidad u Tobago","name:fr":"Trinit\u00e9-et-Tobago","name:fy":"Trinidad en Tobago","name:vo":"Trinidade\u00e4n e Tobage\u00e4ns","name:zh":"\u7279\u7acb\u5c3c\u8fbe\u548c\u591a\u5df4\u54e5","name:gv":"Trinaid as Tobago","name:sl":"Trinidad in Tobago","name:sk":"Trinidad a Tobago","name:ja":"\u30c8\u30ea\u30cb\u30c0\u30fc\u30c9\u30fb\u30c8\u30d0\u30b4","name:si":"\u0da7\u0dca\u200d\u0dbb\u0dd2\u0db1\u0dd2\u0da9\u0dd1\u0da9\u0dca \u0dc3\u0dc4 \u0da7\u0ddc\u0db6\u0dd0\u0d9c\u0ddd","name:fa":"\u062a\u0631\u06cc\u0646\u06cc\u062f\u0627\u062f \u0648 \u062a\u0648\u0628\u0627\u06af\u0648","name:sg":"Trinit\u00f9ee na Tobag\u00f6","name:se":"Trinidad ja Tobago","name:ne":"\u0924\u094d\u0930\u093f\u0928\u093f\u0921\u093e\u0921 \u0930 \u0924\u094b\u092c\u093e\u0917\u094b","name:br":"Trinidad ha Tobago","name:bs":"Trinidad i Tobago","name:bm":"Trinite-ni-Tobago","name:bn":"\u09a4\u09cd\u09b0\u09bf\u09a8\u09bf\u09a8\u09be\u09a6 \u0993 \u099f\u09cb\u09ac\u09cd\u09af\u09be\u0997\u09cb","name:ml":"\u0d1f\u0d4d\u0d30\u0d3f\u0d28\u0d3f\u0d21\u0d3e\u0d21\u0d41\u0d02 \u0d31\u0d4d\u0d31\u0d4a\u0d2c\u0d3e\u0d17\u0d4b\u0d2f\u0d41\u0d02","name:sw":"Trinidad na Tobago","name:be":"\u0422\u0440\u044b\u043d\u0456\u0434\u0430\u0434 \u0456 \u0422\u0430\u0431\u0430\u0433\u0430","name:bg":"\u0422\u0440\u0438\u043d\u0438\u0434\u0430\u0434 \u0438 \u0422\u043e\u0431\u0430\u0433\u043e","name:sr":"\u0422\u0440\u0438\u043d\u0438\u0434\u0430\u0434 \u0438 \u0422\u043e\u0431\u0430\u0433\u043e","name:sq":"Trinidad e Tobago","name:ga":"Oile\u00e1n na Tr\u00edon\u00f3ide agus Tob\u00e1ga","name:gd":"Trianaid agus Tobago","name:gl":"Trindade e Tobago","name:fo":"Trinidad og Tobago","name:yo":"Or\u00edl\u1eb9\u0301\u00e8de Tirinida ati Tobaga","name:ak":"Trinidad ne Tobago","name:tt":"\u0422\u0440\u0438\u043d\u0438\u0434\u0430\u0434 \u04bb\u04d9\u043c \u0422\u043e\u0431\u0430\u0433\u043e"},"coordinates":[1300,3637]},{"type":"Point","properties":{"kind":"region","name:en":"Delta Amacuro State","name":"Delta Amacuro","kind_detail":"state","source":"openstreetmap.org","min_zoom":4.0,"name:ru":"\u0414\u0435\u043b\u044c\u0442\u0430-\u0410\u043c\u0430\u043a\u0443\u0440\u043e","id":313466922,"population":152700},"coordinates":[452,327]},{"type":"Point","properties":{"source":"naturalearthdata.com","kind":"locality","name":"Port-of-Spain","country_capital":true,"population":294934,"min_zoom":5.0,"id":6257},"coordinates":[521,3318]}]},"transit":{"type":"GeometryCollection","geometries":[]},"pois":{"type":"GeometryCollection","geometries":[]},"boundaries":{"type":"GeometryCollection","geometries":[{"type":"LineString","properties":{"source":"naturalearthdata.com","kind":"disputed","sort_rank":261,"kind_detail":"2","min_zoom":0.0,"id":307},"arcs":[0]},{"type":"LineString","properties":{"source":"naturalearthdata.com","kind":"region","name":"Couva-Tabaquite-Talparo - Rio Claro-Mayaro","sort_rank":256,"kind_detail":"4","min_zoom":7.0,"id":1222},"arcs":[1]},{"type":"LineString","properties":{"source":"naturalearthdata.com","kind":"region","sort_rank":256,"kind_detail":"4","min_zoom":7.0,"id":52},"arcs":[2]},{"type":"LineString","properties":{"source":"naturalearthdata.com","kind":"region","sort_rank":256,"kind_detail":"4","min_zoom":7.0,"id":53},"arcs":[3]},{"type":"LineString","properties":{"source":"naturalearthdata.com","kind":"region","sort_rank":256,"kind_detail":"4","min_zoom":7.0,"id":54},"arcs":[4]},{"type":"LineString","properties":{"source":"naturalearthdata.com","kind":"region","sort_rank":256,"kind_detail":"4","min_zoom":7.0,"id":55},"arcs":[5]},{"type":"LineString","properties":{"source":"naturalearthdata.com","kind":"region","sort_rank":256,"kind_detail":"4","min_zoom":7.0,"id":56},"arcs":[6]},{"type":"LineString","properties":{"source":"naturalearthdata.com","kind":"region","sort_rank":256,"kind_detail":"4","min_zoom":7.0,"id":57},"arcs":[7]},{"type":"LineString","properties":{"source":"naturalearthdata.com","kind":"region","sort_rank":256,"kind_detail":"4","min_zoom":7.0,"id":58},"arcs":[8]},{"type":"MultiLineString","properties":{"source":"naturalearthdata.com","kind":"region","sort_rank":256,"kind_detail":"4","min_zoom":7.0,"id":84},"arcs":[[9],[10]]},{"type":"LineString","properties":{"source":"naturalearthdata.com","kind":"region","name":"Sangre Grande - Couva-Tabaquite-Talparo","sort_rank":256,"kind_detail":"4","min_zoom":7.0,"id":1228},"arcs":[11]},{"type":"MultiLineString","properties":{"source":"naturalearthdata.com","kind":"region","name":"Rio Claro-Mayaro - Sangre Grande","sort_rank":256,"kind_detail":"4","min_zoom":7.0,"id":1229},"arcs":[[12],[13]]},{"type":"LineString","properties":{"source":"naturalearthdata.com","kind":"region","name":"Port of Spain - San Juan-Laventille","sort_rank":256,"kind_detail":"4","min_zoom":7.0,"id":1213},"arcs":[14]},{"type":"LineString","properties":{"source":"naturalearthdata.com","kind":"region","name":"San Juan-Laventille - Chaguanas","sort_rank":256,"kind_detail":"4","min_zoom":7.0,"id":1214},"arcs":[15]},{"type":"LineString","properties":{"source":"naturalearthdata.com","kind":"region","name":"Diego Martin - San Juan-Laventille","sort_rank":256,"kind_detail":"4","min_zoom":7.0,"id":1215},"arcs":[16]},{"type":"MultiLineString","properties":{"source":"naturalearthdata.com","kind":"region","name":"Diego Martin - Port of Spain","sort_rank":256,"kind_detail":"4","min_zoom":7.0,"id":1216},"arcs":[[17],[18]]},{"type":"MultiLineString","properties":{"source":"naturalearthdata.com","kind":"region","name":"San Juan-Laventille - Tunapuna\/Piarco","sort_rank":256,"kind_detail":"4","min_zoom":7.0,"id":1217},"arcs":[[19],[20],[21],[22],[23]]},{"type":"LineString","properties":{"source":"naturalearthdata.com","kind":"region","name":"Tunapuna\/Piarco - Chaguanas","sort_rank":256,"kind_detail":"4","min_zoom":7.0,"id":1218},"arcs":[24]},{"type":"MultiLineString","properties":{"source":"naturalearthdata.com","kind":"region","name":"Chaguanas - Couva-Tabaquite-Talparo","sort_rank":256,"kind_detail":"4","min_zoom":7.0,"id":1219},"arcs":[[25],[26],[27]]},{"type":"MultiLineString","properties":{"source":"naturalearthdata.com","kind":"region","name":"Tunapuna\/Piarco - Couva-Tabaquite-Talparo","sort_rank":256,"kind_detail":"4","min_zoom":7.0,"id":1220},"arcs":[[28],[29],[30]]},{"type":"MultiLineString","properties":{"source":"naturalearthdata.com","kind":"region","name":"Arima - Tunapuna\/Piarco","sort_rank":256,"kind_detail":"4","min_zoom":7.0,"id":1221},"arcs":[[31],[32]]},{"type":"MultiLineString","properties":{"source":"naturalearthdata.com","kind":"region","name":"Couva-Tabaquite-Talparo - San Fernando","sort_rank":256,"kind_detail":"4","min_zoom":7.0,"id":1223},"arcs":[[33],[34]]},{"type":"MultiLineString","properties":{"source":"naturalearthdata.com","kind":"region","name":"Couva-Tabaquite-Talparo - Princes Town","sort_rank":256,"kind_detail":"4","min_zoom":7.0,"id":1224},"arcs":[[35],[36]]},{"type":"LineString","properties":{"source":"naturalearthdata.com","kind":"region","name":"Rio Claro-Mayaro - Princes Town","sort_rank":256,"kind_detail":"4","min_zoom":7.0,"id":1225},"arcs":[37]},{"type":"LineString","properties":{"source":"naturalearthdata.com","kind":"region","name":"San Fernando - Princes Town","sort_rank":256,"kind_detail":"4","min_zoom":7.0,"id":1226},"arcs":[38]},{"type":"LineString","properties":{"source":"naturalearthdata.com","kind":"region","name":"Tunapuna\/Piarco - Sangre Grande","sort_rank":256,"kind_detail":"4","min_zoom":7.0,"id":1227},"arcs":[39]},{"type":"MultiLineString","properties":{"source":"naturalearthdata.com","kind":"region","name":"Point Fortin - Siparia","sort_rank":256,"kind_detail":"4","min_zoom":7.0,"id":1492},"arcs":[[40],[41]]},{"type":"MultiLineString","properties":{"source":"naturalearthdata.com","kind":"region","name":"Penal-Debe - San Fernando","sort_rank":256,"kind_detail":"4","min_zoom":7.0,"id":1493},"arcs":[[42],[43]]},{"type":"LineString","properties":{"source":"naturalearthdata.com","kind":"region","name":"Princes Town - Penal-Debe","sort_rank":256,"kind_detail":"4","min_zoom":7.0,"id":1494},"arcs":[44]},{"type":"LineString","properties":{"source":"naturalearthdata.com","kind":"region","name":"Penal-Debe - Siparia","sort_rank":256,"kind_detail":"4","min_zoom":7.0,"id":1495},"arcs":[45]}]},"roads":{"type":"GeometryCollection","geometries":[{"type":"LineString","properties":{"source":"naturalearthdata.com","kind":"minor_road","sort_rank":355,"kind_detail":"tertiary","min_zoom":7.0,"id":48532},"arcs":[73]},{"type":"LineString","properties":{"source":"naturalearthdata.com","kind":"minor_road","sort_rank":355,"kind_detail":"tertiary","min_zoom":7.0,"id":48533},"arcs":[74]},{"type":"LineString","properties":{"source":"naturalearthdata.com","kind":"major_road","kind_detail":"secondary","sort_rank":379,"landuse_kind":"urban_area","min_zoom":4.0,"id":48534},"arcs":[75]},{"type":"LineString","properties":{"source":"naturalearthdata.com","kind":"highway","kind_detail":"motorway","sort_rank":383,"landuse_kind":"urban_area","min_zoom":4.0,"id":48535},"arcs":[76]},{"type":"MultiLineString","properties":{"source":"naturalearthdata.com","kind":"highway","sort_rank":383,"kind_detail":"motorway","min_zoom":4.0,"id":48535},"arcs":[[77],[78]]},{"type":"LineString","properties":{"source":"naturalearthdata.com","kind":"highway","kind_detail":"motorway","sort_rank":383,"landuse_kind":"urban_area","min_zoom":5.0,"id":48536},"arcs":[79]},{"type":"LineString","properties":{"source":"naturalearthdata.com","kind":"highway","sort_rank":383,"kind_detail":"motorway","min_zoom":5.0,"id":48536},"arcs":[80]}]},"earth":{"type":"GeometryCollection","geometries":[{"type":"MultiPolygon","properties":{"sort_rank":10,"source":"naturalearthdata.com","min_zoom":0.0,"kind":"earth","area":153114134579},"arcs":[[[81]],[[82]],[[83]],[[84]],[[85]],[[86]],[[87]],[[88]],[[89]],[[90]],[[91]],[[92]],[[93]],[[94]],[[95]]]},{"type":"Point","properties":{"label_placement":true,"kind":"island","name":"Trinidad","area":5024320000,"source":"openstreetmap.org","min_zoom":7.0,"id":-5176042,"osm_relation":true},"coordinates":[894,3009]}]},"landuse":{"type":"GeometryCollection","geometries":[{"type":"MultiPolygon","properties":{"source":"naturalearthdata.com","kind":"urban_area","name":"","area":166738926,"sort_rank":11,"min_zoom":4.0},"arcs":[[[96]],[[97]],[[98]]]},{"type":"Polygon","properties":{"kind":"park","area":530720000,"sort_rank":24,"source":"openstreetmap.org","min_zoom":6.0,"tier":2,"id":-5793397,"osm_relation":true},"arcs":[[99]]},{"type":"Polygon","properties":{"source":"openstreetmap.org","kind":"park","area":3035360000,"tier":2,"id":208079563,"min_zoom":4.0,"sort_rank":24},"arcs":[[100]]}]}},"type":"Topology","transform":{"translate":[-61.875,8.4071681636],"scale":[0.0006866455,0.0006765707]},"arcs":[[[2869,0],[-80,90],[-89,133]],[[920,2808],[20,31],[12,40],[9,85],[7,29],[19,36]],[[601,3150]],[[561,3470]],[[475,3340]],[[761,3543]],[[601,3127]],[[605,2812]],[[1016,2465]],[[516,2709]],[[540,2457]],[[926,3228],[16,-13],[6,-16],[4,-62],[5,-12],[11,-12],[0,-24],[-12,-33],[1,-13],[2,-6],[28,-8]],[[1218,3040],[-82,8]],[[1136,3048],[-149,-19]],[[552,3294],[6,31],[-2,6],[-6,11],[-20,11]],[[601,3150],[2,0],[29,39],[46,2]],[[530,3353],[25,45],[9,35],[-3,31],[0,6]],[[508,3356],[22,-3]],[[475,3340],[6,3],[15,12],[12,1]],[[769,3442],[8,2],[10,11],[1,17],[-12,24],[-11,37],[-4,10]],[[674,3450],[39,-6]],[[678,3191],[-18,113],[1,37],[-11,65],[3,25],[8,15],[13,4]],[[733,3448],[10,0],[26,-6]],[[713,3444],[9,1],[11,3]],[[678,3191],[59,-1]],[[684,3098],[38,3],[10,9],[2,15],[9,34],[-6,31]],[[601,3127],[20,-2],[10,-3],[11,-7],[14,-2],[11,-10],[17,-5]],[[601,3127]],[[765,3199],[18,1],[18,8],[20,5],[63,2],[42,13]],[[750,3202],[15,-3]],[[737,3190],[6,12],[7,0]],[[875,3252],[6,2],[5,1],[2,6],[0,9],[-7,21],[-2,10],[-20,20]],[[859,3321],[-2,-13],[0,-4],[1,-2],[1,-2],[-1,-2],[-1,-1],[-1,-3],[-1,-2],[0,-3],[0,-2],[1,-3],[-2,-8],[-2,-4],[-6,-5],[-2,-3],[0,-2],[1,-3],[3,-2],[14,-5],[13,0]],[[613,2810],[38,2]],[[605,2812],[8,-2]],[[821,2847],[25,-5],[19,-5],[12,-5],[12,-4],[18,-8],[13,-12]],[[651,2812],[29,4],[50,20],[49,10],[42,1]],[[920,2808],[10,-33],[9,-7],[6,-12],[12,-3],[14,-16],[24,-43],[21,-229]],[[631,2737],[20,75]],[[926,3228],[38,18],[6,10],[9,11],[2,11],[0,10],[-3,10],[-11,14],[-5,10],[-5,25],[6,22],[1,26],[-2,13],[-7,6],[-7,3],[-9,1],[-7,2],[-7,3],[3,6],[41,4],[14,4],[8,6],[24,27],[9,7],[13,6],[8,8],[1,13],[-2,13],[-14,21],[-6,5]],[[266,2565],[14,1],[17,6],[31,26],[9,12],[6,10],[13,18],[1,8],[-3,7],[-8,8],[-3,4]],[[244,2599],[5,-6],[17,-28]],[[631,2737],[-69,-16]],[[562,2721],[-1,2]],[[631,2737],[73,-31],[16,-15],[11,-15],[-9,-214]],[[516,2709],[6,-10],[40,-35],[18,-11],[8,-14],[4,-10],[-1,-26],[-6,-27],[-7,-14],[-18,-21],[-7,-13],[-6,-16],[-7,-55]],[[3099,0],[-13,5],[-34,-5],[-142,0],[-81,125],[-52,53],[-48,31],[-29,14],[-63,10],[-28,13],[-52,34],[-56,25],[-58,15],[-254,17],[-46,-19],[-34,-58],[-30,-32],[-16,-33],[-5,-7],[-25,-3],[-95,23],[-90,5],[-29,6],[-18,9],[-23,14],[-20,17],[-9,15],[-27,18],[-183,-21],[-144,-17],[-29,-10],[-29,-5],[-27,11],[-14,-9],[-3,-8],[0,-10],[-3,-15],[-2,-35],[-3,-18],[-16,-13],[-9,-12],[-7,-15],[-3,-13],[-5,-11],[-14,-2],[-16,1],[-14,-3],[-17,-9],[-7,-5],[-6,-27],[2,-38],[-2,-8],[-14,0],[-2,1],[-6,11],[-1,17],[2,32],[11,27],[55,9],[23,20],[-3,22],[-32,1],[-68,-13],[-93,8],[-32,-8],[-21,-10],[-26,-18],[-22,-20],[-10,-18],[-7,-24],[-19,-20],[-24,-17],[-32,0],[-6,8],[-37,23],[-16,15],[-8,18],[-8,23],[-9,20],[-15,10],[-24,0],[-57,-14],[-28,3],[-5,6],[-13,21],[-7,5],[-19,1],[-9,4],[-23,21],[-17,20],[-2,4],[-14,-2],[-26,-9],[-15,1],[-6,5],[-6,11],[-9,10],[-14,4],[-55,11],[-77,45],[-13,16],[3,29],[20,15],[29,6],[28,0],[57,-35],[64,-15],[254,20],[19,-4],[85,-27],[64,0],[34,29],[16,53],[7,71],[20,64],[78,116],[21,63],[-1,15],[-10,30],[3,24],[17,61],[9,23],[26,41],[5,13],[10,1],[50,55],[13,7],[17,5],[15,8],[6,15],[1,28],[4,11],[9,12],[6,11],[5,32],[4,13],[10,13],[23,22],[7,15],[-6,26],[-36,-22],[-120,-107],[-7,-13],[-6,-19],[-14,-21],[-19,-18],[-21,-8],[39,90],[27,44],[29,19],[33,12],[81,78],[34,9],[2,2],[9,4],[6,9],[9,16],[13,8],[17,6],[18,5],[17,1],[13,5],[34,21],[22,4],[20,8],[6,19],[3,24],[7,21],[13,-12],[3,-7],[3,-12],[18,28],[2,37],[-7,38],[-13,30],[-7,6],[-19,5],[-3,4],[-1,9],[-3,8],[-4,6],[-22,22],[-22,31],[-13,14],[-24,19],[-31,18],[-30,14],[-25,5],[-13,-3],[-11,-5],[-10,-1],[-11,9],[-3,12],[3,49],[5,-14],[5,-5],[10,-1],[-8,25],[-24,17],[-58,19],[-53,27],[-22,3],[-54,-4],[-10,4],[-26,-16],[-79,47],[-35,0],[24,-31],[-21,-8],[-29,34],[-15,47],[-32,24],[-69,56],[-28,23],[-19,15],[-24,28],[-22,24],[-23,21],[-24,24],[-39,43],[-15,17],[-19,10],[-27,2],[-21,5],[-21,18],[-5,-4],[22,-24],[43,-16],[10,-27],[35,-45],[7,-41],[-56,71],[-21,26],[-50,36],[-48,31],[-59,37],[-42,23],[-22,10],[-14,7],[-42,2],[-8,-6],[9,-17],[20,-17],[21,-4],[3,-12],[2,-11],[24,-16],[11,-7],[11,-4],[15,-21],[19,-20],[7,-21],[-28,-19],[-102,23],[-17,2],[-113,36],[-55,11],[-43,-2],[-13,-3],[7,-10],[3,-11],[9,-16],[24,-31],[2,-10],[11,-7],[29,-7],[10,-6],[8,-16],[6,-33],[10,-16],[9,-10],[8,-11],[6,-13],[2,-17],[-1,-65],[-6,-32],[-13,-30],[-8,123],[8,29],[-15,21],[-18,37],[-21,30],[-25,3],[-21,-81],[-39,-82],[-10,0],[5,31],[29,54],[15,44],[2,15],[-6,14],[-20,20],[-4,11],[-1,20],[-24,17],[-39,28],[0,333],[8,3],[29,17],[21,17],[26,13],[35,4],[126,-1],[30,-3],[27,-8],[17,-10],[13,-10],[15,-7],[20,-3],[15,1],[29,7],[16,2],[41,16],[14,4],[58,-10],[2,0],[124,10],[115,-10],[93,18],[32,3],[89,-15],[21,2],[15,2],[65,16],[33,12],[26,17],[26,22],[33,21],[35,10],[31,-6],[-11,75],[1,86],[19,77],[42,45],[-54,38],[-26,39],[-10,19],[-8,20],[-15,82],[-5,27],[-1,41],[43,36],[-6,44],[-29,90],[-1,42],[8,45],[17,28],[27,-5],[76,95],[62,109],[-60,12],[-189,-22],[-26,-11],[-85,-10],[-25,-18],[-12,-10],[-169,1],[-77,9],[-5,0],[-21,-2],[-9,-8],[-27,-32],[-12,-11],[-3,1],[-28,-1],[-4,-4],[-5,-7],[-9,-7],[-12,-2],[11,11],[-4,5],[-4,3],[-2,4],[-1,8],[-9,0],[0,-15],[0,-5],[-11,0],[-7,18],[-8,-6],[-11,-15],[-18,-8],[-6,0],[-37,0],[-67,-16],[-60,5],[-19,-8],[-76,-52],[9,-17],[7,-8],[10,-3],[74,-5],[31,-7],[42,-19],[29,-13],[58,-40],[-10,-9],[35,-44],[14,-55],[0,-58],[-10,-56],[-19,-46],[-8,-29],[3,-21],[5,-10],[9,-29],[1,-12],[-2,-4],[-5,-1],[-4,-2],[0,-8],[5,-7],[13,-11],[2,-8],[4,-27],[8,-24],[2,-14],[2,-11],[-6,-30],[-11,-19],[-18,-20],[-19,-16],[-16,-6],[-17,-1],[-4,0],[-57,-2],[-76,13],[-22,0],[-18,-10],[1,-45],[-1,0],[-43,-39],[-56,-27],[-7,-3],[-112,-33],[-24,-12],[-23,-18],[-15,-22],[-10,-9],[-47,-9],[-6,-2],[0,933],[19,14],[24,11],[-28,6],[-15,-2],[0,643],[1500,0],[-4,-21],[12,-15],[21,-3],[21,11],[11,-24],[24,10],[40,34],[25,6],[4,2],[2442,0],[0,-4096],[-997,0]],[[160,3344],[8,1],[12,0],[3,5],[-9,5],[-2,5],[4,5],[4,1],[4,0],[10,-6],[3,5],[-12,13],[-13,2],[-7,-6],[-2,-5],[-4,-19],[1,-6]],[[248,3360],[4,-3],[14,-2],[3,2],[2,5],[11,5],[0,10],[2,7],[-3,6],[-11,0],[-11,-5],[-11,-25]],[[1540,1181],[-17,-27],[-11,-68],[-12,-37],[31,8],[17,24],[10,28],[11,21],[41,26],[24,-3],[20,1],[16,7],[-8,9],[-8,15],[-4,7],[-23,25],[-33,-3],[-33,-16],[-21,-17]],[[1488,1163],[-27,1],[-52,-14],[-43,-30],[-8,-42],[-2,-48],[-25,-51],[31,19],[73,24],[24,27],[0,-10],[16,23],[13,27],[8,28],[4,29],[-12,17]],[[1375,988],[-23,-14],[-55,-70],[-26,-27],[-29,-11],[-37,-9],[-32,-12],[-13,-24],[-8,-29],[-13,-34],[-5,-29],[16,-14],[12,3],[49,28],[7,12],[9,29],[8,13],[122,114],[24,17],[23,7],[32,-1],[19,4],[14,12],[11,26],[0,-11],[5,11],[3,12],[2,13],[0,14],[-79,-27],[-36,-3]],[[1299,773],[-49,-74],[-27,-25],[-82,-60],[35,8],[195,83],[61,45],[39,39],[21,44],[-22,35],[9,0],[31,9],[-25,23],[-29,18],[-33,8],[-33,-8],[-18,-14],[-3,-13],[2,-13],[-6,-16],[-16,-14],[-18,-11],[-15,-15],[-17,-49]],[[1629,703],[-32,-19],[-77,0],[-44,0],[-15,-18],[-17,-26],[-31,-10],[-68,-8],[-32,-5],[-34,-5],[-51,-19],[-41,-15],[-52,-28],[-45,-34],[-41,-50],[-18,-34],[-4,-53],[-3,-38],[-3,-20],[-4,-30],[10,-13],[25,1],[15,9],[18,12],[26,20],[27,15],[57,7],[74,2],[51,-16],[31,8],[39,7],[53,-6],[55,4],[27,20],[31,31],[11,32],[23,31],[20,39],[31,28],[35,3],[37,23],[19,16],[-18,33],[-19,19],[-3,16],[-7,27],[-20,7],[-9,13],[14,18],[-6,20],[-35,-14]],[[1551,347],[3,-13],[26,-3],[27,0],[21,10],[31,-1],[32,1],[29,7],[29,-1],[34,-11],[27,-2],[21,5],[14,26],[5,25],[-10,19],[-35,5],[-44,-1],[-19,10],[-12,25],[0,29],[15,28],[7,16],[-6,5],[-11,-8],[-20,-19],[-25,-15],[-18,-19],[-26,-4],[-23,-2],[-18,-31],[-20,-32],[-16,-28],[-18,-21]],[[1131,289],[-41,-45],[-3,-4],[-7,-6],[-6,-8],[-4,-12],[3,-2],[17,-24],[-31,14],[-47,38],[-31,10],[-38,-7],[-27,-21],[-20,-30],[-15,-33],[54,2],[155,-13],[124,17],[-3,15],[-12,19],[2,20],[33,-18],[32,15],[19,35],[-5,38],[-11,2],[-6,3],[-5,3],[-8,3],[-7,1],[-95,-6],[-17,-6]],[[851,141],[-18,18],[-2,31],[-1,25],[-14,28],[-43,2],[-37,-2],[-30,13],[-37,3],[-34,-20],[-54,-3],[-57,9],[-30,4],[-6,-15],[46,-19],[27,-2],[31,-15],[21,-15],[30,-25],[48,-9],[51,3],[39,0],[19,-22],[12,-29],[35,-27],[25,-10],[18,8],[6,24],[-1,21],[-23,15],[-21,9]],[[0,3453],[15,2],[28,-6],[-24,-11],[-19,-14]],[[0,2092],[39,-28],[24,-17],[1,-20],[4,-11],[20,-20],[6,-14],[-2,-15],[-15,-44],[-29,-54],[-5,-31],[10,0],[39,82],[21,81],[25,-3],[21,-30],[18,-37],[15,-21],[-8,-29],[8,-123],[13,30],[6,32],[1,65],[-2,17],[-6,13],[-8,11],[-9,10],[-10,16],[-6,33],[-8,16],[-10,6],[-29,7],[-11,7],[-2,10],[-24,31],[-9,16],[-3,11],[-7,10],[13,3],[43,2],[55,-11],[113,-36],[17,-2],[102,-23],[28,19],[-7,21],[-19,20],[-15,21],[-11,4],[-11,7],[-24,16],[-2,11],[-3,12],[-21,4],[-20,17],[-9,17],[8,6],[42,-2],[14,-7],[22,-10],[42,-23],[59,-37],[48,-31],[50,-36],[21,-26],[56,-71],[-7,41],[-35,45],[-10,27],[-43,16],[-22,24],[5,4],[21,-18],[21,-5],[27,-2],[19,-10],[15,-17],[39,-43],[24,-24],[23,-21],[22,-24],[24,-28],[19,-15],[28,-23],[69,-56],[32,-24],[15,-47],[29,-34],[21,8],[-24,31],[35,0],[79,-47],[26,16],[10,-4],[54,4],[22,-3],[53,-27],[58,-19],[24,-17],[8,-25],[-10,1],[-5,5],[-5,14],[-3,-49],[3,-12],[11,-9],[10,1],[11,5],[13,3],[25,-5],[30,-14],[31,-18],[24,-19],[13,-14],[22,-31],[22,-22],[4,-6],[3,-8],[1,-9],[3,-4],[19,-5],[7,-6],[13,-30],[7,-38],[-2,-37],[-18,-28],[-3,12],[-3,7],[-13,12],[-7,-21],[-3,-24],[-6,-19],[-20,-8],[-22,-4],[-34,-21],[-13,-5],[-17,-1],[-18,-5],[-17,-6],[-13,-8],[-9,-16],[-6,-9],[-9,-4],[-2,-2],[-34,-9],[-81,-78],[-33,-12],[-29,-19],[-27,-44],[-39,-90],[21,8],[19,18],[14,21],[6,19],[7,13],[120,107],[36,22],[6,-26],[-7,-15],[-23,-22],[-10,-13],[-4,-13],[-5,-32],[-6,-11],[-9,-12],[-4,-11],[-1,-28],[-6,-15],[-15,-8],[-17,-5],[-13,-7],[-50,-55],[-10,-1],[-5,-13],[-26,-41],[-9,-23],[-17,-61],[-3,-24],[10,-30],[1,-15],[-21,-63],[-78,-116],[-20,-64],[-7,-71],[-16,-53],[-34,-29],[-64,0],[-85,27],[-19,4],[-254,-20],[-64,15],[-57,35],[-28,0],[-29,-6],[-20,-15],[-3,-29],[13,-16],[77,-45],[55,-11],[14,-4],[9,-10],[6,-11],[6,-5],[15,-1],[26,9],[14,2],[2,-4],[17,-20],[23,-21],[9,-4],[19,-1],[7,-5],[13,-21],[5,-6],[28,-3],[57,14],[24,0],[15,-10],[9,-20],[8,-23],[8,-18],[16,-15],[37,-23],[6,-8]],[[882,0],[24,17],[19,20],[7,24],[10,18],[22,20],[26,18],[21,10],[32,8],[93,-8],[68,13],[32,-1],[3,-22],[-23,-20],[-55,-9],[-11,-27],[-2,-32],[1,-17],[6,-11],[2,-1]],[[1171,0],[2,8],[-2,38],[6,27],[7,5],[17,9],[14,3],[16,-1],[14,2],[5,11],[3,13],[7,15],[9,12],[16,13],[3,18],[2,35],[3,15],[0,10],[3,8],[14,9],[27,-11],[29,5],[29,10],[144,17],[183,21],[27,-18],[9,-15],[20,-17],[23,-14],[18,-9],[29,-6],[90,-5],[95,-23],[25,3],[5,7],[16,33],[30,32],[34,58],[46,19],[254,-17],[58,-15],[56,-25],[52,-34],[28,-13],[63,-10],[29,-14],[48,-31],[52,-53],[81,-125]],[[3052,0],[34,5],[13,-5]],[[1459,1049],[0,-10],[16,23],[13,27],[8,28],[4,29],[-12,17],[-27,1],[-52,-14],[-43,-30],[-8,-42],[-2,-48],[-25,-51],[31,19],[73,24],[24,27]],[[1150,715],[12,3],[49,28],[7,12],[9,29],[8,13],[122,114],[24,17],[23,7],[32,-1],[19,4],[14,12],[11,26],[0,-11],[5,11],[3,12],[2,13],[0,14],[-79,-27],[-36,-3],[-23,-14],[-55,-70],[-26,-27],[-29,-11],[-37,-9],[-32,-12],[-13,-24],[-8,-29],[-13,-34],[-5,-29],[16,-14]],[[1540,1181],[-17,-27],[-11,-68],[-12,-37],[31,8],[17,24],[10,28],[11,21],[41,26],[24,-3],[20,1],[16,7],[-8,9],[-8,15],[-4,7],[-23,25],[-33,-3],[-33,-16],[-21,-17]],[[1250,300],[-7,1],[-95,-6],[-17,-6],[-41,-45],[-3,-4],[-7,-6],[-6,-8],[-4,-12],[3,-2],[17,-24],[-31,14],[-47,38],[-31,10],[-38,-7],[-27,-21],[-20,-30],[-15,-33],[54,2],[155,-13],[124,17],[-3,15],[-12,19],[2,20],[33,-18],[32,15],[19,35],[-5,38],[-11,2],[-6,3],[-5,3],[-8,3]],[[1390,918],[-18,-14],[-3,-13],[2,-13],[-6,-16],[-16,-14],[-18,-11],[-15,-15],[-17,-49],[-49,-74],[-27,-25],[-82,-60],[35,8],[195,83],[61,45],[39,39],[21,44],[-22,35],[9,0],[31,9],[-25,23],[-29,18],[-33,8],[-33,-8]],[[1500,4096],[-4,-21],[12,-15],[21,-3],[21,11],[11,-24],[24,10],[40,34],[25,6],[4,2]],[[1271,3388],[76,95],[62,109],[-60,12],[-189,-22],[-26,-11],[-85,-10],[-25,-18],[-12,-10],[-169,1],[-77,9],[-5,0],[-21,-2],[-9,-8],[-27,-32],[-12,-11],[-3,1],[-28,-1],[-4,-4],[-5,-7],[-9,-7],[-12,-2],[11,11],[-4,5],[-4,3],[-2,4],[-1,8],[-9,0],[0,-15],[0,-5],[-11,0],[-7,18],[-8,-6],[-11,-15],[-18,-8],[-6,0],[-37,0],[-67,-16],[-60,5],[-19,-8],[-76,-52],[9,-17],[7,-8],[10,-3],[74,-5],[31,-7],[42,-19],[29,-13],[58,-40],[-10,-9],[35,-44],[14,-55],[0,-58],[-10,-56],[-19,-46],[-8,-29],[3,-21],[5,-10],[9,-29],[1,-12],[-2,-4],[-5,-1],[-4,-2],[0,-8],[5,-7],[13,-11],[2,-8],[4,-27],[8,-24],[2,-14],[2,-11],[-6,-30],[-11,-19],[-18,-20],[-19,-16],[-16,-6],[-17,-1],[-4,0],[-57,-2],[-76,13],[-22,0],[-18,-10],[1,-45],[-1,0],[-43,-39],[-56,-27],[-7,-3],[-112,-33],[-24,-12],[-23,-18],[-15,-22],[-10,-9],[-47,-9],[-6,-2]],[[0,2425],[8,3],[29,17],[21,17],[26,13],[35,4],[126,-1],[30,-3],[27,-8],[17,-10],[13,-10],[15,-7],[20,-3],[15,1],[29,7],[16,2],[41,16],[14,4],[58,-10],[2,0],[124,10],[115,-10],[93,18],[32,3],[89,-15],[21,2],[15,2],[65,16],[33,12],[26,17],[26,22],[33,21],[35,10],[31,-6],[-11,75],[1,86],[19,77],[42,45],[-54,38],[-26,39],[-10,19],[-8,20],[-15,82],[-5,27],[-1,41],[43,36],[-6,44],[-29,90],[-1,42],[8,45],[17,28],[27,-5]],[[1345,622],[68,8],[31,10],[17,26],[15,18],[44,0],[77,0],[32,19],[35,14],[6,-20],[-14,-18],[9,-13],[20,-7],[7,-27],[3,-16],[19,-19],[18,-33],[-19,-16],[-37,-23],[-35,-3],[-31,-28],[-20,-39],[-23,-31],[-11,-32],[-31,-31],[-27,-20],[-55,-4],[-53,6],[-39,-7],[-31,-8],[-51,16],[-74,-2],[-57,-7],[-27,-15],[-26,-20],[-18,-12],[-15,-9],[-25,-1],[-10,13],[4,30],[3,20],[3,38],[4,53],[18,34],[41,50],[45,34],[52,28],[41,15],[51,19],[34,5],[32,5]],[[706,256],[30,-13],[37,2],[43,-2],[14,-28],[1,-25],[2,-31],[18,-18],[21,-9],[23,-15],[1,-21],[-6,-24],[-18,-8],[-25,10],[-35,27],[-12,29],[-19,22],[-39,0],[-51,-3],[-48,9],[-30,25],[-21,15],[-31,15],[-27,2],[-46,19],[6,15],[30,-4],[57,-9],[54,3],[34,20],[37,-3]],[[1646,461],[26,4],[18,19],[25,15],[20,19],[11,8],[6,-5],[-7,-16],[-15,-28],[0,-29],[12,-25],[19,-10],[44,1],[35,-5],[10,-19],[-5,-25],[-14,-26],[-21,-5],[-27,2],[-34,11],[-29,1],[-29,-7],[-32,-1],[-31,1],[-21,-10],[-27,0],[-26,3],[-3,13],[18,21],[16,28],[20,32],[18,31],[23,2]],[[648,2739],[-48,-49],[-48,0],[-66,-31],[-78,19],[-48,-68],[-36,0]],[[678,2708],[96,18],[114,0],[126,31],[78,18]],[[438,3373],[66,-31],[30,-30],[114,-19],[12,0]],[[650,2799],[-38,-24],[13,-18]],[[625,2757],[23,-31],[48,-36]],[[660,3275],[18,-61],[0,-67],[-18,-31],[-12,-48],[0,-116],[30,-67],[0,-61],[-18,-18],[-10,-7]],[[660,3293],[84,0],[10,2]],[[754,3295],[86,17],[96,-19],[78,19]],[[706,256],[30,-13],[37,2],[43,-2],[14,-28],[1,-25],[2,-31],[18,-18],[21,-9],[23,-15],[1,-21],[-6,-24],[-18,-8],[-25,10],[-35,27],[-12,29],[-19,22],[-39,0],[-51,-3],[-48,9],[-30,25],[-21,15],[-31,15],[-27,2],[-46,19],[6,15],[30,-4],[57,-9],[54,3],[34,20],[37,-3]],[[1742,423],[19,-10],[44,1],[35,-5],[10,-19],[-5,-25],[-14,-26],[-21,-5],[-27,2],[-34,11],[-29,1],[-29,-7],[-32,-1],[-31,1],[-21,-10],[-27,0],[-26,3],[-3,13],[18,21],[16,28],[20,32],[18,31],[23,2],[26,4],[18,19],[25,15],[20,19],[11,8],[6,-5],[-7,-16],[-15,-28],[0,-29],[12,-25]],[[1285,251],[-19,-35],[-32,-15],[-33,18],[-2,-20],[12,-19],[3,-15],[-124,-17],[-155,13],[-54,-2],[15,33],[20,30],[27,21],[38,7],[31,-10],[47,-38],[31,-14],[-17,24],[-3,2],[4,12],[6,8],[7,6],[3,4],[41,45],[17,6],[95,6],[7,-1],[8,-3],[5,-3],[6,-3],[11,-2],[5,-38]],[[1654,4096],[-4,-2],[-25,-6],[-40,-34],[-24,-10],[-11,24],[-21,-11],[-21,3],[-12,15],[4,21],[154,0]],[[1409,3592],[-62,-109],[-76,-95],[-27,5],[-17,-28],[-8,-45],[1,-42],[29,-90],[6,-44],[-43,-36],[1,-41],[5,-27],[15,-82],[8,-20],[10,-19],[26,-39],[54,-38],[-42,-45],[-19,-77],[-1,-86],[11,-75],[-31,6],[-35,-10],[-33,-21],[-26,-22],[-26,-17],[-33,-12],[-65,-16],[-15,-2],[-21,-2],[-89,15],[-32,-3],[-93,-18],[-115,10],[-124,-10],[-2,0],[-58,10],[-14,-4],[-41,-16],[-16,-2],[-29,-7],[-15,-1],[-20,3],[-15,7],[-13,10],[-17,10],[-27,8],[-30,3],[-126,1],[-35,-4],[-26,-13],[-21,-17],[-29,-17],[-8,-3],[0,66],[6,2],[47,9],[10,9],[15,22],[23,18],[24,12],[112,33],[7,3],[56,27],[43,39],[1,0],[-1,45],[18,10],[22,0],[76,-13],[57,2],[4,0],[17,1],[16,6],[19,16],[18,20],[11,19],[6,30],[-2,11],[-2,14],[-8,24],[-4,27],[-2,8],[-13,11],[-5,7],[0,8],[4,2],[5,1],[2,4],[-1,12],[-9,29],[-5,10],[-3,21],[8,29],[19,46],[10,56],[0,58],[-14,55],[-35,44],[10,9],[-58,40],[-29,13],[-42,19],[-31,7],[-74,5],[-10,3],[-7,8],[-9,17],[76,52],[19,8],[60,-5],[67,16],[37,0],[6,0],[18,8],[11,15],[8,6],[7,-18],[11,0],[0,5],[0,15],[9,0],[1,-8],[2,-4],[4,-3],[4,-5],[-11,-11],[12,2],[9,7],[5,7],[4,4],[28,1],[3,-1],[12,11],[27,32],[9,8],[21,2],[5,0],[77,-9],[169,-1],[12,10],[25,18],[85,10],[26,11],[189,22],[60,-12]],[[0,3453],[15,2],[28,-6],[-24,-11],[-19,-14],[0,29]],[[0,0],[0,2092],[39,-28],[24,-17],[1,-20],[4,-11],[20,-20],[6,-14],[-2,-15],[-15,-44],[-29,-54],[-5,-31],[10,0],[39,82],[21,81],[25,-3],[21,-30],[18,-37],[15,-21],[-8,-29],[8,-123],[13,30],[6,32],[1,65],[-2,17],[-6,13],[-8,11],[-9,10],[-10,16],[-6,33],[-8,16],[-10,6],[-29,7],[-11,7],[-2,10],[-24,31],[-9,16],[-3,11],[-7,10],[13,3],[43,2],[55,-11],[113,-36],[17,-2],[102,-23],[28,19],[-7,21],[-19,20],[-15,21],[-11,4],[-11,7],[-24,16],[-2,11],[-3,12],[-21,4],[-20,17],[-9,17],[8,6],[42,-2],[14,-7],[22,-10],[42,-23],[59,-37],[48,-31],[50,-36],[21,-26],[56,-71],[-7,41],[-35,45],[-10,27],[-43,16],[-22,24],[5,4],[21,-18],[21,-5],[27,-2],[19,-10],[15,-17],[39,-43],[24,-24],[23,-21],[22,-24],[24,-28],[19,-15],[28,-23],[69,-56],[32,-24],[15,-47],[29,-34],[21,8],[-24,31],[35,0],[79,-47],[26,16],[10,-4],[54,4],[22,-3],[53,-27],[58,-19],[24,-17],[8,-25],[-10,1],[-5,5],[-5,14],[-3,-49],[3,-12],[11,-9],[10,1],[11,5],[13,3],[25,-5],[30,-14],[31,-18],[24,-19],[13,-14],[22,-31],[22,-22],[4,-6],[3,-8],[1,-9],[3,-4],[19,-5],[7,-6],[13,-30],[7,-38],[-2,-37],[-18,-28],[-3,12],[-3,7],[-13,12],[-7,-21],[-3,-24],[-6,-19],[-20,-8],[-22,-4],[-34,-21],[-13,-5],[-17,-1],[-18,-5],[-17,-6],[-13,-8],[-9,-16],[-6,-9],[-9,-4],[-2,-2],[-34,-9],[-81,-78],[-33,-12],[-29,-19],[-27,-44],[-39,-90],[21,8],[19,18],[14,21],[6,19],[7,13],[120,107],[36,22],[6,-26],[-7,-15],[-23,-22],[-10,-13],[-4,-13],[-5,-32],[-6,-11],[-9,-12],[-4,-11],[-1,-28],[-6,-15],[-15,-8],[-17,-5],[-13,-7],[-50,-55],[-10,-1],[-5,-13],[-26,-41],[-9,-23],[-17,-61],[-3,-24],[10,-30],[1,-15],[-21,-63],[-78,-116],[-20,-64],[-7,-71],[-16,-53],[-34,-29],[-64,0],[-85,27],[-19,4],[-254,-20],[-64,15],[-57,35],[-28,0],[-29,-6],[-20,-15],[-3,-29],[13,-16],[77,-45],[55,-11],[14,-4],[9,-10],[6,-11],[6,-5],[15,-1],[26,9],[14,2],[2,-4],[17,-20],[23,-21],[9,-4],[19,-1],[7,-5],[13,-21],[5,-6],[28,-3],[57,14],[24,0],[15,-10],[9,-20],[8,-23],[8,-18],[16,-15],[37,-23],[6,-8],[-850,0]],[[1157,0],[-275,0],[24,17],[19,20],[7,24],[10,18],[22,20],[26,18],[21,10],[32,8],[93,-8],[68,13],[32,-1],[3,-22],[-23,-20],[-55,-9],[-11,-27],[-2,-32],[1,-17],[6,-11],[2,-1]],[[2910,0],[-1739,0],[2,8],[-2,38],[6,27],[7,5],[17,9],[14,3],[16,-1],[14,2],[5,11],[3,13],[7,15],[9,12],[16,13],[3,18],[2,35],[3,15],[0,10],[3,8],[14,9],[27,-11],[29,5],[29,10],[144,17],[183,21],[27,-18],[9,-15],[20,-17],[23,-14],[18,-9],[29,-6],[90,-5],[95,-23],[25,3],[5,7],[16,33],[30,32],[34,58],[46,19],[254,-17],[58,-15],[56,-25],[52,-34],[28,-13],[63,-10],[29,-14],[48,-31],[52,-53],[81,-125]],[[3099,0],[-47,0],[34,5],[13,-5]],[[1670,697],[-14,-18],[9,-13],[20,-7],[7,-27],[3,-16],[19,-19],[18,-33],[-19,-16],[-37,-23],[-35,-3],[-31,-28],[-20,-39],[-23,-31],[-11,-32],[-31,-31],[-27,-20],[-55,-4],[-53,6],[-39,-7],[-31,-8],[-51,16],[-74,-2],[-57,-7],[-27,-15],[-26,-20],[-18,-12],[-15,-9],[-25,-1],[-10,13],[4,30],[3,20],[3,38],[4,53],[18,34],[41,50],[45,34],[52,28],[41,15],[51,19],[34,5],[32,5],[68,8],[31,10],[17,26],[15,18],[44,0],[77,0],[32,19],[35,14],[6,-20]],[[1176,622],[-35,-8],[82,60],[27,25],[49,74],[17,49],[15,15],[18,11],[16,14],[6,16],[-2,13],[3,13],[18,14],[33,8],[33,-8],[29,-18],[25,-23],[-31,-9],[-9,0],[22,-35],[-21,-44],[-39,-39],[-61,-45],[-195,-83]],[[1670,1161],[-16,-7],[-20,-1],[-24,3],[-41,-26],[-11,-21],[-10,-28],[-17,-24],[-31,-8],[12,37],[11,68],[17,27],[21,17],[33,16],[33,3],[23,-25],[4,-7],[8,-15],[8,-9]],[[1485,979],[-5,-11],[0,11],[-11,-26],[-14,-12],[-19,-4],[-32,1],[-23,-7],[-24,-17],[-122,-114],[-8,-13],[-9,-29],[-7,-12],[-49,-28],[-12,-3],[-16,14],[5,29],[13,34],[8,29],[13,24],[32,12],[37,9],[29,11],[26,27],[55,70],[23,14],[36,3],[79,27],[0,-14],[-2,-13],[-3,-12]],[[1475,1062],[-16,-23],[0,10],[-24,-27],[-73,-24],[-31,-19],[25,51],[2,48],[8,42],[43,30],[52,14],[27,-1],[12,-17],[-4,-29],[-8,-28],[-13,-27]],[[600,2838],[62,-19],[-49,-82],[-25,13],[12,88]],[[586,2898],[-15,5],[-5,95],[50,-37],[-30,-63]],[[516,3361],[65,-33],[129,0],[65,-49],[-221,-4],[-50,52],[-97,38],[55,47],[54,-51]],[[0,3433],[18,28],[22,-22],[-31,-16],[-9,10]],[[142,1247],[31,0],[7,64],[41,26],[-1,29],[57,13],[22,68],[62,51],[34,146],[146,154],[-19,142],[-110,142],[130,11],[20,-75],[65,-91],[195,-66],[214,-146],[7,-177],[-36,-19],[-96,-162],[-59,-175],[-103,-113],[-59,-124],[-191,66],[-357,236]]]}