{"objects":{"water":{"type":"GeometryCollection","geometries":[{"type":"Polygon","properties":{"source":"naturalearthdata.com","kind":"ocean","area":1576712559132672,"sort_rank":200,"min_zoom":0.0,"id":1},"arcs":[[4],[5],[6]]},{"type":"LineString","properties":{"source":"naturalearthdata.com","kind":"ocean","sort_rank":205,"boundary":true,"min_zoom":0.0,"id":3398},"arcs":[7]},{"type":"MultiLineString","properties":{"source":"naturalearthdata.com","kind":"ocean","sort_rank":205,"boundary":true,"min_zoom":0.0,"id":3824},"arcs":[[8],[9],[10],[11],[12],[13],[14]]}]},"buildings":{"type":"GeometryCollection","geometries":[]},"places":{"type":"GeometryCollection","geometries":[{"type":"Point","properties":{"kind":"locality","name:en":"Beihai","name":"\u5317\u6d77\u5e02","name:lt":"Beihajus","kind_detail":"city","min_zoom":8.0,"name:de":"Beihai","source":"openstreetmap.org","name:fr":"Beihai","int_name":"Beihai","name:vi":"B\u1eafc H\u1ea3i","name:ru":"\u0411\u044d\u0439\u0445\u0430\u0439","name:zh":"B\u011bih\u01cei Sh\u00ec","id":244076812,"population":1617500},"coordinates":[2405,2648]},{"type":"Point","properties":{"kind":"locality","name:en":"Fangchenggang","name":"\u9632\u57ce\u6e2f\u5e02","kind_detail":"city","source":"openstreetmap.org","min_zoom":8.0,"name:vi":"Ph\u00f2ng Th\u00e0nh C\u1ea3ng","id":5110342727,"population":918400},"coordinates":[187,3079]}]},"transit":{"type":"GeometryCollection","geometries":[]},"pois":{"type":"GeometryCollection","geometries":[]},"boundaries":{"type":"GeometryCollection","geometries":[{"type":"LineString","properties":{"name:kg":"Sina","name:ty":"Tinit\u014d","name:ka":"\u10e9\u10d8\u10dc\u10d4\u10d7\u10d8","name:ko":"\uc911\ud654\uc778\ubbfc\uacf5\ud654\uad6d","name:cv":"\u041a\u0438\u0442\u0430\u0439 \u0425\u0430\u043b\u0103\u0445 \u0420\u0435\u0441\u043f\u0443\u0431\u043b\u0438\u043a\u0438","name:cu":"\u0421\u0440\u0463\u0434\u0438\u043d\ua657\u043d\u0454","name:kl":"Kina","name:cs":"\u010c\u00ednsk\u00e1 lidov\u00e1 republika","name:ki":"China","name:kw":"Repoblek Werin China","name:kv":"\u041a\u0438\u0442\u0430\u0439","name:ku":"\u00c7\u00een","name:ks":"\u0686\u06cc\u0656\u0646","name:tl":"Republikang Popular ng Tsina","name:ce":"\u041a\u0438\u0442\u0430\u0439\u043d \u0425\u0430\u043b\u043a\u044a\u0430\u043d \u0420\u0435\u0441\u043f\u0443\u0431\u043b\u0438\u043a\u0430","name:ta":"\u0b9a\u0bc0\u0ba9 \u0bae\u0b95\u0bcd\u0b95\u0bb3\u0bcd \u0b95\u0bc1\u0b9f\u0bbf\u0baf\u0bb0\u0b9a\u0bc1","name:tg":"\u04b6\u0443\u043c\u04b3\u0443\u0440\u0438\u0438 \u0425\u0430\u043b\u049b\u0438\u0438 \u0427\u0438\u043d","name:ky":"\u041a\u044b\u0442\u0430\u0439","name:te":"\u0c1a\u0c48\u0c28\u0c3e","name:cy":"Gweriniaeth Pobl Tsieina","name:hr":"Kina","name:de":"China","source":"openstreetmap.org","name:kn":"\u0c9a\u0cc0\u0ca8\u0cbf \u0c9c\u0ca8\u0cb0 \u0c97\u0ca3\u0cb0\u0cbe\u0c9c\u0ccd\u0caf","name:dv":"\u0790\u07a9\u0782\u07aa\u0786\u07a6\u0783\u07a6","name:lv":"\u0136\u012bna","name:lt":"Kinijos Liaudies Respublika","name:uz":"Xitoy Xalq Respublikasi","name:kk":"\u049a\u044b\u0442\u0430\u0439 \u0425\u0430\u043b\u044b\u049b \u0420\u0435\u0441\u043f\u0443\u0431\u043b\u0438\u043a\u0430\u0441\u044b","name:ur":"\u0686\u06cc\u0646","name:lb":"Volleksrepublik China","name:tt":"\u041a\u044b\u0442\u0430\u0439","name:uk":"\u041a\u0438\u0442\u0430\u0439\u0441\u044c\u043a\u0430 \u041d\u0430\u0440\u043e\u0434\u043d\u0430 \u0420\u0435\u0441\u043f\u0443\u0431\u043b\u0456\u043a\u0430","name:ug":"\u062c\u06c7\u06ad\u062e\u06c7\u0627 \u062e\u06d5\u0644\u0642 \u062c\u06c7\u0645\u06be\u06c7\u0631\u0649\u064a\u0649\u062a\u0649","name:ln":"S\u00edna","name:lo":"\u0e9b\u0eb0\u0ec0\u0e97\u0e94\u0e88\u0eb5\u0e99","name:el":"\u039b\u03b1\u03ca\u03ba\u03ae \u0394\u03b7\u03bc\u03bf\u03ba\u03c1\u03b1\u03c4\u03af\u03b1 \u03c4\u03b7\u03c2 \u039a\u03af\u03bd\u03b1\u03c2","name:eo":"\u0108inujo","name:en":"China","name":"\u4e2d\u56fd","name:tk":"Hyta\u00fd Halk Respublikasy","name:ee":"China","name:th":"\u0e1b\u0e23\u0e30\u0e40\u0e17\u0e28\u0e08\u0e35\u0e19","name:eu":"Txinako Herri Errepublika","name:et":"Hiina","name:es":"Rep\u00fablica Popular China","name:ia":"China","name:ro":"Republica Popular\u0103 Chinez\u0103","name:ie":"China","name:id":"Republik Rakyat Cina","name:zh-min-nan":"Tiong-ho\u00e2 J\u00een-b\u00een Ki\u014dng-h\u00f4-kok","name:io":"Chinia","name:is":"Al\u00fe\u00fd\u00f0ul\u00fd\u00f0veldi\u00f0 K\u00edna","name:am":"\u12e8\u127b\u12ed\u1293 \u1215\u12dd\u1263\u12ca \u122a\u1350\u1265\u120a\u12ad","name:it":"Cina","name:ru":"\u041a\u0438\u0442\u0430\u0439\u0441\u043a\u0430\u044f \u041d\u0430\u0440\u043e\u0434\u043d\u0430\u044f \u0420\u0435\u0441\u043f\u0443\u0431\u043b\u0438\u043a\u0430","name:ab":"\u0410\u0447\u044b\u043d\u04ad\u0430\u0442\u04d9\u0438 \u0410\u0436\u04d9\u043b\u0430\u0440\u0442\u04d9 \u0420\u0435\u0441\u043f\u0443\u0431\u043b\u0438\u043a\u0430","alt_name:ru":"\u041a\u0438\u0442\u0430\u0439","kind_detail":"2","name:zh":"Zh\u014dnggu\u00f3","name:so":"Shiinaha","name:sn":"China","name:sm":"Saina","name:sk":"\u010c\u00ednska \u013eudov\u00e1 republika","name:si":"\u0da0\u0dd3\u0db1\u0dba","name:sg":"S\u00een\u00e4","name:se":"Kiinn\u00e1","name:sc":"Cina","name:bm":"China","name:bn":"\u0997\u09a3\u099a\u09c0\u09a8","name:bo":"\u0f40\u0fb2\u0f74\u0f44\u0f0b\u0f67\u0fad\u0f0b\u0f58\u0f72\u0f0b\u0f51\u0f58\u0f44\u0f66\u0f0b\u0f66\u0fa4\u0fb1\u0f72\u0f0b\u0f58\u0f50\u0f74\u0f53\u0f0b\u0f62\u0f92\u0fb1\u0f63\u0f0b\u0f41\u0f56\u0f0d","name:bi":"China","name:sw":"Jamhuri ya Watu wa China","name:be":"\u041a\u0456\u0442\u0430\u0439","name:st":"Tjhaena","name:ss":"IShayina","name:sr":"\u041a\u0438\u043d\u0430","name:sq":"Kina","name:pt":"Rep\u00fablica Popular da China","name:ps":"\u0686\u064a\u0646 \u062f \u062e\u0644\u06a9\u0648 \u062c\u0645\u0647\u0648\u0631\u064a\u062a","min_zoom":8.0,"int_name":"People's Republic of China","name:pa":"\u0a1a\u0a40\u0a28 \u0a26\u0a3e \u0a32\u0a4b\u0a15 \u0a30\u0a3e\u0a1c\u0a40 \u0a17\u0a23\u0a24\u0a70\u0a24\u0a30","name:os":"\u041a\u0438\u0442\u0430\u0439","name:or":"\u0b1a\u0b40\u0b28","name:pl":"Chiny","sort_rank":262,"name:ba":"\u04a0\u044b\u0442\u0430\u0439","osm_relation":true,"name:ar":"\u0627\u0644\u0635\u064a\u0646","name:tr":"\u00c7in Halk Cumhuriyeti","name:hi":"\u091a\u0940\u0928\u0940 \u091c\u0928\u0935\u093e\u0926\u0940 \u0917\u0923\u0930\u093e\u091c\u094d\u092f","name:he":"\u05d4\u05e8\u05e4\u05d5\u05d1\u05dc\u05d9\u05e7\u05d4 \u05d4\u05e2\u05de\u05de\u05d9\u05ea \u05e9\u05dc \u05e1\u05d9\u05df","name:ha":"Sin","old_name:eo":"\u0124inujo","name:hy":"\u0549\u056b\u0576\u0561\u057d\u057f\u0561\u0576\u056b \u053a\u0578\u0572\u0578\u057e\u0580\u0564\u0561\u056f\u0561\u0576 \u0540\u0561\u0576\u0580\u0561\u057a\u0565\u057f\u0578\u0582\u0569\u0575\u0578\u0582\u0576","name:hu":"K\u00ednai N\u00e9pk\u00f6zt\u00e1rsas\u00e1g","name:qu":"Chunwa Runallaqta Republika","kind":"country","name:ts":"China","name:yi":"\u05db\u05d9\u05e0\u05e2","name:iu":"China","name:mt":"\u010aina","alt_name:eo":"\u0108inio","name:mr":"\u091a\u0940\u0928","name:my":"\u1010\u101b\u102f\u1010\u103a\u1015\u103c\u100a\u103a\u101e\u1030\u1037\u101e\u1019\u1039\u1019\u1010\u1014\u102d\u102f\u1004\u103a\u1004\u1036","official_name":"\u4e2d\u534e\u4eba\u6c11\u5171\u548c\u56fd","name:vi":"C\u1ed9ng h\u00f2a Nh\u00e2n d\u00e2n Trung Hoa","name:ml":"\u0d1a\u0d48\u0d28","name:mn":"\u0411\u04af\u0433\u0434 \u041d\u0430\u0439\u0440\u0430\u043c\u0434\u0430\u0445 \u0425\u044f\u0442\u0430\u0434 \u0410\u0440\u0434 \u0423\u043b\u0441","name:mi":"Haina","id":-270056,"name:mk":"\u041d\u0430\u0440\u043e\u0434\u043d\u0430 \u0420\u0435\u043f\u0443\u0431\u043b\u0438\u043a\u0430 \u041a\u0438\u043d\u0430","name:vo":"Tsyin\u00e4n","name:fa":"\u062c\u0645\u0647\u0648\u0631\u06cc \u062e\u0644\u0642 \u0686\u06cc\u0646","name:rw":"Ubushinwa","name:fi":"Kiina","name:fo":"F\u00f3lkal\u00fd\u00f0veldi\u00f0 Kina","name:fr":"R\u00e9publique populaire de Chine","name:fy":"Sina","name:zu":"IShayina","name:na":"Tsiene","name:ne":"\u091c\u0928\u092c\u093e\u0926\u0940 \u0917\u0923\u0924\u0928\u094d\u0924\u094d\u0930 \u091a\u0940\u0928","name:wo":"R\u00e9ewum Popileer bu Siin","name:ga":"Daon-Phoblacht na S\u00edne","name:gd":"Sluagh-Phoblachd na S\u00ecne","name:gn":"China Tekoha Tet\u00e3","maritime_boundary":true,"name:gv":"Deynphobblaght ny Sheen","name:gu":"\u0a9a\u0ac0\u0aa8"},"arcs":[0]},{"type":"LineString","properties":{"name:right:hy":"\u0533\u0578\u0582\u0561\u0576\u057d\u056b-\u0549\u056a\u0578\u0578\u0582\u0576\u056b \u056b\u0576\u0584\u0576\u0561\u057e\u0561\u0580 \u0577\u0580\u057b\u0561\u0576","name:right:qu":"Guangxi","name:right:ug":"\u06af\u06c7\u0627\u06ad\u0634\u0649 \u062c\u06c7\u0627\u06ad\u0632\u06c7 \u0626\u0627\u067e\u062a\u0648\u0646\u06c7\u0645 \u0631\u0627\u064a\u0648\u0646\u0649","name:right:la":"Quansia","name:right:uk":"\u0490\u0443\u0430\u043d\u0441\u0456-\u0427\u0436\u0443\u0430\u043d\u0441\u044c\u043a\u0438\u0439 \u0430\u0432\u0442\u043e\u043d\u043e\u043c\u043d\u0438\u0439 \u0440\u0430\u0439\u043e\u043d","int_name:left":"Guangdong","name:right:hr":"Guangxi","name:right:hu":"Kuanghszi-Csuang Auton\u00f3m Ter\u00fclet","name:right:lt":"Guangsi","name:right:hi":"\u0917\u0941\u0906\u0902\u0917\u0936\u0940","name:right:lv":"Guansji D\u017euanu autonomais re\u0123ions","name:right:sv":"Guangxi","name:right:uz":"Guansi-Chjuan muxtor rayoni","name:right:he":"\u05d2\u05d5\u05d0\u05e0\u05d2\u05e9\u05d9","name:right:af":"Guangxi","sort_rank":256,"int_name:right":"Guangxi","source":"openstreetmap.org","name:right:ar":"\u0642\u0648\u0627\u0646\u063a\u0634\u064a","name:left:vi":"Qu\u1ea3ng \u0110\u00f4ng","name:right:az":"Quansi-\u00c7juan Muxtar Rayonu","name:left:cs":"Kuang-tung","name:left":"\u5e7f\u4e1c\u7701","name:right:es":"Guangxi","name:left:ja":"\u5e83\u6771\u7701","name:right:eu":"Guangxi","name:right:ml":"\u0d17\u0d41\u0d35\u0d3e\u0d19\u0d4d\u0d15\u0d4d\u0d38\u0d3f","name:right:it":"Guangxi","name:right:mg":"Guangxi","name:right:ru":"\u0413\u0443\u0430\u043d\u0441\u0438-\u0427\u0436\u0443\u0430\u043d\u0441\u043a\u0438\u0439 \u0430\u0432\u0442\u043e\u043d\u043e\u043c\u043d\u044b\u0439 \u0440\u0430\u0439\u043e\u043d","name:right:io":"Guangxi","name:right:ro":"Guangxi","name:left:ru":"\u0413\u0443\u0430\u043d\u0434\u0443\u043d","name:right:ms":"Guangxi","name:right:mr":"\u0915\u094d\u0935\u093e\u0902\u0917\u094d\u0936\u0940","min_zoom":8.0,"name:right:id":"Guangxi","name:right:eo":"G\u016dang\u015djio","name:right:en":"Guangxi","name:right:ia":"Guangxi","name:right:el":"\u039a\u03bf\u03c5\u03b1\u03bd\u03b3\u03ba\u03c3\u03af","kind":"region","name:right:bn":"\u0995\u09c1\u09af\u09bc\u09be\u0982\u09b6\u09bf","name":"\u5e7f\u4e1c\u7701 - \u5e7f\u897f\u58ee\u65cf\u81ea\u6cbb\u533a","name:right:ur":"\u06af\u0648\u0627\u0646\u06af\u0634\u06cc","name:right:bg":"\u0413\u0443\u0430\u043d\u0441\u0438-\u0434\u0436\u0443\u0430\u043d\u0441\u043a\u0438 \u0430\u0432\u0442\u043e\u043d\u043e\u043c\u0435\u043d \u0440\u0435\u0433\u0438\u043e\u043d","name:right:da":"Guangxi","name:right:be":"\u0413\u0443\u0430\u043d\u0441\u0456-\u0427\u0436\u0443\u0430\u043d\u0441\u043a\u0456 \u0430\u045e\u0442\u0430\u043d\u043e\u043c\u043d\u044b \u0440\u0430\u0451\u043d","name:right:za":"Gvangjsih Bouxcuegh Swcigih","name:left:fr":"Guangdong","name:right:br":"Guangxi","name:right:bs":"Guangxi","name:right:zh":"Gu\u01cengx\u012b Zhu\u00e0ngz\u00fa Z\u00eczh\u00ecq\u016b","name:right:fy":"Guangsy","name:right:nn":"Guangxi","name:right:no":"Guangxi","name:right:nl":"Guangxi","name:right:ja":"\u5e83\u897f\u30c1\u30ef\u30f3\u65cf\u81ea\u6cbb\u533a","name:right:fr":"Guangxi","name:right:ko":"\uad11\uc2dc \uc8a1\uc871 \uc790\uce58\uad6c","name:right:sr":"\u0413\u0443\u0430\u043d\u0433\u0441\u0438","name:right:su":"Guangxi","name:right:sw":"Guangxi","id:right":-286342,"name:right:fa":"\u06af\u0648\u0627\u0646\u06af\u0634\u06cc","id":-911844,"name:right:fi":"Guangxi","name:left:en":"Guangdong","name:right:ca":"Guangxi","kind_detail":"4","name:right:et":"Guangxi","alt_name:right:vi":"Khu t\u1ef1 tr\u1ecb d\u00e2n t\u1ed9c Choang Qu\u1ea3ng T\u00e2y","name:right:cy":"Guangxi","id:left":-911844,"name:right:cs":"Kuang-si","name:right":"\u5e7f\u897f\u58ee\u65cf\u81ea\u6cbb\u533a","name:right:ka":"\u10d2\u10e3\u10d0\u10dc\u10e1\u10d8-\u10ef\u10e3\u10d0\u10dc\u10d8","name:right:gv":"Guangxi","name:right:pt":"Quancim","name:right:kg":"Guangxi Zhuang","name:right:oc":"Guangxi","name:right:tl":"Guangxi","name:right:ga":"Guangxi","name:right:tr":"Guangksi Zhuang \u00d6zerk B\u00f6lgesi","name:right:gl":"Guangxi","name:right:vi":"Qu\u1ea3ng T\u00e2y","name:right:pl":"Kuangsi","name:right:ta":"\u0b95\u0bc1\u0bb5\u0bbe\u0b99\u0bcd\u0bb7\u0bbf","osm_relation":true,"name:right:bo":"\u0f40\u0f7c\u0f60\u0f7c\u0f44\u0f0b\u0f64\u0f72\u0f0b\u0f40\u0fb2\u0f7c\u0f44\u0f0b\u0f62\u0f72\u0f42\u0f66\u0f0b\u0f62\u0f44\u0f0b\u0f66\u0f90\u0fb1\u0f7c\u0f44\u0f0b\u0f63\u0f97\u0f7c\u0f44\u0f66\u0f0d","name:right:de":"Guangxi","name:left:de":"Guangdong","maritime_boundary":true,"name:right:th":"\u0e40\u0e02\u0e15\u0e1b\u0e01\u0e04\u0e23\u0e2d\u0e07\u0e15\u0e19\u0e40\u0e2d\u0e07\u0e01\u0e27\u0e48\u0e32\u0e07\u0e0b\u0e35\u0e08\u0e49\u0e27\u0e07"},"arcs":[1]},{"type":"LineString","properties":{"int_name":"Guangdong","name:ja":"\u5e83\u6771\u7701","name:cs":"Kuang-tung","min_zoom":8.0,"name:ru":"\u0413\u0443\u0430\u043d\u0434\u0443\u043d","name:vi":"Qu\u1ea3ng \u0110\u00f4ng","id":-911844,"osm_relation":true,"kind":"region","name:en":"Guangdong","name":"\u5e7f\u4e1c\u7701","sort_rank":256,"kind_detail":"4","name:fr":"Guangdong","name:de":"Guangdong","source":"openstreetmap.org","maritime_boundary":true},"arcs":[2]},{"type":"LineString","properties":{"name:kg":"Guangxi Zhuang","name:pt":"Quancim","name:cy":"Guangxi","name:ko":"\uad11\uc2dc \uc8a1\uc871 \uc790\uce58\uad6c","name:cs":"Kuang-si","min_zoom":8.0,"name:ro":"Guangxi","name:tl":"Guangxi","name:sv":"Guangxi","name:pl":"Kuangsi","name:ta":"\u0b95\u0bc1\u0bb5\u0bbe\u0b99\u0bcd\u0bb7\u0bbf","name:ca":"Guangxi","name:ka":"\u10d2\u10e3\u10d0\u10dc\u10e1\u10d8-\u10ef\u10e3\u10d0\u10dc\u10d8","sort_rank":256,"name:qu":"Guangxi","name:da":"Guangxi","name:de":"Guangxi","source":"openstreetmap.org","name:az":"Quansi-\u00c7juan Muxtar Rayonu","name:lv":"Guansji D\u017euanu autonomais re\u0123ions","name:tr":"Guangksi Zhuang \u00d6zerk B\u00f6lgesi","name:hi":"\u0917\u0941\u0906\u0902\u0917\u0936\u0940","name:he":"\u05d2\u05d5\u05d0\u05e0\u05d2\u05e9\u05d9","name:eo":"G\u016dang\u015djio","name:ur":"\u06af\u0648\u0627\u0646\u06af\u0634\u06cc","name:la":"Quansia","name:uk":"\u0490\u0443\u0430\u043d\u0441\u0456-\u0427\u0436\u0443\u0430\u043d\u0441\u044c\u043a\u0438\u0439 \u0430\u0432\u0442\u043e\u043d\u043e\u043c\u043d\u0438\u0439 \u0440\u0430\u0439\u043e\u043d","name:hy":"\u0533\u0578\u0582\u0561\u0576\u057d\u056b-\u0549\u056a\u0578\u0578\u0582\u0576\u056b \u056b\u0576\u0584\u0576\u0561\u057e\u0561\u0580 \u0577\u0580\u057b\u0561\u0576","name:ug":"\u06af\u06c7\u0627\u06ad\u0634\u0649 \u062c\u06c7\u0627\u06ad\u0632\u06c7 \u0626\u0627\u067e\u062a\u0648\u0646\u06c7\u0645 \u0631\u0627\u064a\u0648\u0646\u0649","name:hu":"Kuanghszi-Csuang Auton\u00f3m Ter\u00fclet","name:hr":"Guangxi","name:oc":"Guangxi","name:el":"\u039a\u03bf\u03c5\u03b1\u03bd\u03b3\u03ba\u03c3\u03af","kind":"region","name:en":"Guangxi","name":"\u5e7f\u897f\u58ee\u65cf\u81ea\u6cbb\u533a","name:th":"\u0e40\u0e02\u0e15\u0e1b\u0e01\u0e04\u0e23\u0e2d\u0e07\u0e15\u0e19\u0e40\u0e2d\u0e07\u0e01\u0e27\u0e48\u0e32\u0e07\u0e0b\u0e35\u0e08\u0e49\u0e27\u0e07","name:eu":"Guangxi","name:et":"Guangxi","name:es":"Guangxi","name:ia":"Guangxi","int_name":"Guangxi","name:id":"Guangxi","name:ms":"Guangxi","name:mr":"\u0915\u094d\u0935\u093e\u0902\u0917\u094d\u0936\u0940","name:ar":"\u0642\u0648\u0627\u0646\u063a\u0634\u064a","name:io":"Guangxi","name:mg":"Guangxi","name:it":"Guangxi","name:ru":"\u0413\u0443\u0430\u043d\u0441\u0438-\u0427\u0436\u0443\u0430\u043d\u0441\u043a\u0438\u0439 \u0430\u0432\u0442\u043e\u043d\u043e\u043c\u043d\u044b\u0439 \u0440\u0430\u0439\u043e\u043d","name:vi":"Qu\u1ea3ng T\u00e2y","id":-286342,"name:af":"Guangxi","name:fa":"\u06af\u0648\u0627\u0646\u06af\u0634\u06cc","name:lt":"Guangsi","kind_detail":"4","name:uz":"Guansi-Chjuan muxtor rayoni","alt_name:vi":"Khu t\u1ef1 tr\u1ecb d\u00e2n t\u1ed9c Choang Qu\u1ea3ng T\u00e2y","name:fr":"Guangxi","name:za":"Gvangjsih Bouxcuegh Swcigih","name:fy":"Guangsy","name:zh":"Gu\u01cengx\u012b Zhu\u00e0ngz\u00fa Z\u00eczh\u00ecq\u016b","name:nl":"Guangxi","name:ja":"\u5e83\u897f\u30c1\u30ef\u30f3\u65cf\u81ea\u6cbb\u533a","name:nn":"Guangxi","name:no":"Guangxi","name:br":"Guangxi","name:bs":"Guangxi","name:bn":"\u0995\u09c1\u09af\u09bc\u09be\u0982\u09b6\u09bf","name:bo":"\u0f40\u0f7c\u0f60\u0f7c\u0f44\u0f0b\u0f64\u0f72\u0f0b\u0f40\u0fb2\u0f7c\u0f44\u0f0b\u0f62\u0f72\u0f42\u0f66\u0f0b\u0f62\u0f44\u0f0b\u0f66\u0f90\u0fb1\u0f7c\u0f44\u0f0b\u0f63\u0f97\u0f7c\u0f44\u0f66\u0f0d","name:ml":"\u0d17\u0d41\u0d35\u0d3e\u0d19\u0d4d\u0d15\u0d4d\u0d38\u0d3f","name:sw":"Guangxi","name:be":"\u0413\u0443\u0430\u043d\u0441\u0456-\u0427\u0436\u0443\u0430\u043d\u0441\u043a\u0456 \u0430\u045e\u0442\u0430\u043d\u043e\u043c\u043d\u044b \u0440\u0430\u0451\u043d","name:su":"Guangxi","name:bg":"\u0413\u0443\u0430\u043d\u0441\u0438-\u0434\u0436\u0443\u0430\u043d\u0441\u043a\u0438 \u0430\u0432\u0442\u043e\u043d\u043e\u043c\u0435\u043d \u0440\u0435\u0433\u0438\u043e\u043d","name:sr":"\u0413\u0443\u0430\u043d\u0433\u0441\u0438","osm_relation":true,"name:ga":"Guangxi","name:gl":"Guangxi","maritime_boundary":true,"name:gv":"Guangxi","name:fi":"Guangxi"},"arcs":[3]}]},"roads":{"type":"GeometryCollection","geometries":[{"type":"MultiLineString","properties":{"source":"openstreetmap.org","kind":"major_road","landuse_kind":"residential","sort_rank":381,"kind_detail":"trunk","ref":"G325","min_zoom":8.0},"arcs":[[15],[16]]},{"type":"MultiLineString","properties":{"source":"openstreetmap.org","kind":"major_road","sort_rank":380,"kind_detail":"primary","ref":"S347","min_zoom":8.0},"arcs":[[17],[18],[19],[20],[21],[22],[23]]},{"type":"MultiLineString","properties":{"source":"openstreetmap.org","kind":"major_road","kind_detail":"trunk","sort_rank":381,"landuse_kind":"urban_area","ref":"G209","min_zoom":8.0},"arcs":[[24],[25],[26],[27],[28],[29],[30],[31],[32]]},{"type":"MultiLineString","properties":{"source":"openstreetmap.org","kind":"major_road","landuse_kind":"residential","sort_rank":380,"kind_detail":"primary","ref":"Xinshiji Road","min_zoom":8.0},"arcs":[[33],[34]]},{"type":"MultiLineString","properties":{"source":"openstreetmap.org","kind":"major_road","sort_rank":381,"kind_detail":"trunk","ref":"G209","min_zoom":8.0},"arcs":[[35],[36],[37],[38],[39],[40],[41],[42],[43]]},{"type":"MultiLineString","properties":{"source":"openstreetmap.org","kind":"highway","sort_rank":383,"kind_detail":"motorway","ref":"S21","min_zoom":8.0},"arcs":[[44],[45],[46],[47],[48],[49]]},{"type":"MultiLineString","properties":{"source":"openstreetmap.org","kind":"highway","sort_rank":383,"kind_detail":"motorway","ref":"G7511","min_zoom":8.0},"arcs":[[50],[51],[52]]},{"type":"MultiLineString","properties":{"sort_rank":381,"source":"openstreetmap.org","min_zoom":8.0,"kind":"major_road","kind_detail":"trunk"},"arcs":[[53],[54],[55],[56],[57],[58],[59],[60],[61],[62],[63],[64],[65]]},{"type":"MultiLineString","properties":{"source":"openstreetmap.org","kind":"major_road","sort_rank":380,"kind_detail":"primary","ref":"S311","min_zoom":8.0},"arcs":[[66],[67]]},{"type":"MultiLineString","properties":{"kind":"highway","name:en":"Heshan Expressway","network":"CN-expressways","sort_rank":383,"kind_detail":"motorway","source":"openstreetmap.org","min_zoom":8.0,"all_networks":["CN-expressways"],"shield_text":"75","ref":"G75","all_shield_texts":["75"]},"arcs":[[68],[69]]},{"type":"MultiLineString","properties":{"source":"openstreetmap.org","kind":"major_road","sort_rank":380,"kind_detail":"primary","ref":"S312","min_zoom":8.0},"arcs":[[70],[71]]},{"type":"MultiLineString","properties":{"source":"openstreetmap.org","kind":"major_road","landuse_kind":"urban_area","sort_rank":380,"kind_detail":"primary","min_zoom":8.0},"arcs":[[72],[73],[74],[75],[76],[77],[78],[79],[80],[81],[82],[83],[84]]},{"type":"MultiLineString","properties":{"sort_rank":355,"source":"openstreetmap.org","min_zoom":8.0,"kind":"ferry"},"arcs":[[85],[86]]},{"type":"LineString","properties":{"source":"openstreetmap.org","kind":"ferry","sort_rank":355,"landuse_kind":"urban_area","min_zoom":8.0,"id":59603065},"arcs":[87]},{"type":"MultiLineString","properties":{"kind":"major_road","name:en":"China National Highway 209","sort_rank":381,"kind_detail":"trunk","name:de":"Nationalstra\u00dfe 209","source":"openstreetmap.org","min_zoom":8.0,"landuse_kind":"urban_area","ref":"G209","osm_relation":true},"arcs":[[88],[89],[90],[91],[92],[93]]},{"type":"MultiLineString","properties":{"kind":"major_road","network":null,"sort_rank":381,"kind_detail":"trunk","source":"openstreetmap.org","min_zoom":8.0,"shield_text":"209","ref":"G209"},"arcs":[[94],[95],[96],[97]]},{"type":"MultiLineString","properties":{"source":"openstreetmap.org","kind":"major_road","network":"CN-roads","sort_rank":380,"kind_detail":"primary","min_zoom":8.0,"shield_text":"325"},"arcs":[[98],[99],[100],[101]]},{"type":"MultiLineString","properties":{"source":"openstreetmap.org","kind":"major_road","landuse_kind":"urban_area","sort_rank":380,"kind_detail":"primary","ref":"Xinshiji Road","min_zoom":8.0},"arcs":[[102],[103],[104],[105]]},{"type":"MultiLineString","properties":{"source":"openstreetmap.org","kind":"major_road","name:en":"Beibuwan Avenue","sort_rank":381,"kind_detail":"trunk","min_zoom":8.0},"arcs":[[106],[107]]},{"type":"MultiLineString","properties":{"source":"openstreetmap.org","kind":"major_road","sort_rank":380,"kind_detail":"primary","ref":"S218","min_zoom":8.0},"arcs":[[108],[109],[110],[111],[112],[113],[114],[115],[116]]},{"type":"MultiLineString","properties":{"source":"openstreetmap.org","kind":"highway","name:en":"Guigang - Hepu Expressway","sort_rank":383,"kind_detail":"motorway","ref":"G7212","min_zoom":8.0},"arcs":[[117],[118]]},{"type":"MultiLineString","properties":{"sort_rank":380,"kind_detail":"primary","min_zoom":8.0,"kind":"major_road","source":"openstreetmap.org"},"arcs":[[119],[120],[121],[122],[123],[124],[125],[126],[127],[128],[129],[130],[131],[132],[133],[134],[135],[136],[137],[138],[139],[140],[141],[142],[143],[144],[145],[146],[147],[148],[149],[150],[151],[152],[153],[154],[155],[156],[157],[158],[159],[160],[161],[162],[163],[164],[165],[166],[167],[168],[169],[170],[171],[172],[173],[174],[175],[176],[177],[178],[179],[180],[181],[182],[183],[184],[185],[186],[187],[188],[189],[190],[191],[192],[193],[194],[195],[196],[197],[198],[199],[200],[201],[202]]},{"type":"LineString","properties":{"source":"openstreetmap.org","kind":"major_road","name:en":"Xiwan Bridge","sort_rank":380,"kind_detail":"primary","ref":"S325","min_zoom":8.0},"arcs":[203]},{"type":"MultiLineString","properties":{"source":"openstreetmap.org","kind":"major_road","landuse_kind":"urban_area","sort_rank":380,"kind_detail":"primary","ref":"S214","min_zoom":8.0},"arcs":[[204],[205]]},{"type":"MultiLineString","properties":{"kind":"major_road","name:en":"China National Highway 209","sort_rank":381,"kind_detail":"trunk","name:de":"Nationalstra\u00dfe 209","source":"openstreetmap.org","min_zoom":8.0,"ref":"G209","osm_relation":true},"arcs":[[206],[207],[208],[209],[210],[211],[212]]},{"type":"MultiLineString","properties":{"kind":"major_road","network":"CN-roads","sort_rank":381,"kind_detail":"trunk","source":"openstreetmap.org","min_zoom":8.0,"shield_text":"325","ref":"G325"},"arcs":[[213],[214],[215],[216],[217],[218],[219],[220],[221],[222],[223],[224],[225]]},{"type":"LineString","properties":{"source":"openstreetmap.org","kind":"major_road","landuse_kind":"urban_area","sort_rank":380,"kind_detail":"primary","ref":"S325","min_zoom":8.0},"arcs":[226]},{"type":"MultiLineString","properties":{"source":"openstreetmap.org","kind":"major_road","landuse_kind":"urban_area","sort_rank":380,"kind_detail":"primary","ref":"S13","min_zoom":8.0},"arcs":[[227],[228]]},{"type":"MultiLineString","properties":{"source":"openstreetmap.org","kind":"major_road","sort_rank":380,"kind_detail":"primary","ref":"S13","min_zoom":8.0},"arcs":[[229],[230]]},{"type":"MultiLineString","properties":{"source":"openstreetmap.org","kind":"highway","sort_rank":383,"kind_detail":"motorway","ref":"S13","min_zoom":8.0},"arcs":[[231],[232]]},{"type":"MultiLineString","properties":{"kind":"major_road","name:en":"China National Highway 209","sort_rank":381,"kind_detail":"trunk","name:de":"Nationalstra\u00dfe 209","source":"openstreetmap.org","min_zoom":8.0,"landuse_kind":"residential","ref":"G209","osm_relation":true},"arcs":[[233],[234],[235]]},{"type":"MultiLineString","properties":{"kind":"highway","name:en":"Nanbei Expressway","network":"CN-expressways","sort_rank":383,"kind_detail":"motorway","source":"openstreetmap.org","min_zoom":8.0,"all_networks":["CN-expressways"],"shield_text":"75","ref":"G75","all_shield_texts":["75"]},"arcs":[[236],[237],[238],[239],[240],[241]]},{"type":"MultiLineString","properties":{"kind":"major_road","network":null,"sort_rank":381,"landuse_kind":"urban_area","source":"openstreetmap.org","min_zoom":8.0,"kind_detail":"trunk","shield_text":"209","ref":"G209"},"arcs":[[242],[243],[244],[245],[246],[247]]},{"type":"LineString","properties":{"kind":"major_road","name:en":"Xiwan Bridge","sort_rank":380,"kind_detail":"primary","source":"openstreetmap.org","min_zoom":8.0,"landuse_kind":"urban_area","ref":"S325"},"arcs":[248]},{"type":"MultiLineString","properties":{"source":"openstreetmap.org","kind":"major_road","landuse_kind":"residential","sort_rank":380,"kind_detail":"primary","min_zoom":8.0},"arcs":[[249],[250],[251],[252],[253],[254],[255],[256],[257],[258],[259],[260],[261],[262],[263],[264],[265],[266],[267],[268]]},{"type":"MultiLineString","properties":{"sort_rank":383,"kind_detail":"motorway","min_zoom":8.0,"kind":"highway","source":"openstreetmap.org"},"arcs":[[269],[270],[271],[272],[273],[274],[275],[276],[277],[278],[279]]},{"type":"MultiLineString","properties":{"source":"openstreetmap.org","kind":"major_road","sort_rank":381,"kind_detail":"trunk","ref":"G325","min_zoom":8.0},"arcs":[[280],[281],[282],[283]]},{"type":"LineString","properties":{"source":"openstreetmap.org","kind":"major_road","sort_rank":380,"kind_detail":"primary","ref":"S209","min_zoom":8.0,"id":203448009},"arcs":[284]},{"type":"MultiLineString","properties":{"source":"openstreetmap.org","kind":"major_road","landuse_kind":"urban_area","sort_rank":380,"kind_detail":"primary","ref":"S311","min_zoom":8.0},"arcs":[[285],[286]]},{"type":"MultiLineString","properties":{"kind":"major_road","network":"CN-roads","sort_rank":381,"kind_detail":"trunk","source":"openstreetmap.org","min_zoom":8.0,"landuse_kind":"residential","shield_text":"325","ref":"G325"},"arcs":[[287],[288],[289]]},{"type":"MultiLineString","properties":{"source":"openstreetmap.org","kind":"major_road","landuse_kind":"residential","sort_rank":381,"kind_detail":"trunk","ref":"G209","min_zoom":8.0},"arcs":[[290],[291]]},{"type":"MultiLineString","properties":{"kind":"highway","network":null,"sort_rank":383,"kind_detail":"motorway","source":"openstreetmap.org","min_zoom":8.0,"all_networks":[null],"shield_text":"7511","ref":"G7511","all_shield_texts":["7511"]},"arcs":[[292],[293],[294],[295],[296],[297]]},{"type":"MultiLineString","properties":{"source":"openstreetmap.org","kind":"major_road","name:en":"Zhenyuling Bridge","sort_rank":380,"kind_detail":"primary","min_zoom":8.0},"arcs":[[298],[299]]},{"type":"MultiLineString","properties":{"source":"openstreetmap.org","kind":"major_road","landuse_kind":"residential","sort_rank":381,"kind_detail":"trunk","min_zoom":8.0},"arcs":[[300],[301]]},{"type":"MultiLineString","properties":{"source":"openstreetmap.org","kind":"major_road","sort_rank":380,"kind_detail":"primary","ref":"S325","min_zoom":8.0},"arcs":[[302],[303]]},{"type":"LineString","properties":{"kind":"major_road","network":null,"sort_rank":381,"kind_detail":"trunk","source":"openstreetmap.org","min_zoom":8.0,"landuse_kind":"residential","shield_text":"209","ref":"G209","id":168980858},"arcs":[304]}]},"earth":{"type":"GeometryCollection","geometries":[{"type":"MultiPolygon","properties":{"sort_rank":10,"source":"naturalearthdata.com","min_zoom":0.0,"kind":"earth","area":24706445612},"arcs":[[[305]],[[306]],[[307]],[[308]],[[309]],[[310]],[[311]],[[312]]]}]},"landuse":{"type":"GeometryCollection","geometries":[{"type":"MultiPolygon","properties":{"source":"openstreetmap.org","kind":"residential","tier":2,"area":91478080,"sort_rank":20,"min_zoom":8.0},"arcs":[[[313]],[[314]]]},{"type":"MultiPolygon","properties":{"source":"naturalearthdata.com","kind":"urban_area","name":"","area":235943731,"sort_rank":11,"min_zoom":4.0},"arcs":[[[315]],[[316]],[[317]]]}]}},"type":"Topology","transform":{"translate":[108.28125,20.6327842504],"scale":[0.0003433228,0.000319888]},"arcs":[[[0,2116],[24,4],[256,135],[214,-25],[178,28],[203,93],[140,104],[232,-78],[373,-4],[77,-172],[103,-128],[141,-106],[164,-63],[-123,-65],[-114,-100],[-86,-125],[-52,-135],[-19,-150],[14,-225],[43,-150],[71,-125],[115,-122],[169,-103],[162,-225],[208,-122],[206,-37],[831,13],[75,-233]],[[4096,2383],[-504,-426],[-131,-260],[-26,-170],[26,-265],[-57,-371],[41,-316],[85,-342]],[[3530,233],[75,-233]],[[0,2116],[24,4],[256,135],[214,-25],[178,28],[203,93],[140,104],[232,-78],[373,-4],[77,-172],[103,-128],[141,-106],[164,-63],[-136,-75],[-117,-109],[-81,-128],[-49,-150],[12,-382],[53,-147],[94,-137],[239,-169],[83,-141],[96,-100],[203,-112],[197,-34],[831,13]],[[0,2845],[7,6],[7,42],[10,18],[51,44],[20,12],[0,23],[-14,-1],[-45,1],[9,32],[12,24],[16,17],[22,11],[-8,12],[-13,32],[61,0],[-43,68],[-4,93],[29,87],[58,51],[-16,-59],[5,-30],[141,-76],[35,-1],[16,38],[10,-5],[3,0],[5,-16],[11,21],[22,26],[8,17],[10,-34],[-10,-26],[-41,-47],[40,-4],[139,25],[0,-21],[-34,-7],[-33,-13],[-19,-19],[6,-25],[-26,-6],[-21,-9],[-18,-12],[-14,-16],[0,-21],[17,-15],[15,-6],[14,4],[15,17],[18,0],[-14,-92],[-20,-34],[-45,-4],[13,39],[-41,18],[-47,-15],[-3,-63],[36,-48],[52,-9],[149,16],[0,19],[-29,-1],[-9,1],[0,22],[26,7],[12,12],[-3,18],[-19,27],[24,15],[20,18],[37,54],[40,-45],[0,-19],[-47,14],[-21,-25],[-5,-36],[3,-19],[27,6],[83,37],[-6,11],[-14,31],[26,5],[17,11],[11,20],[7,30],[-22,3],[-13,6],[-10,6],[-16,5],[0,23],[33,-15],[37,-4],[32,16],[17,46],[-12,-5],[-27,-19],[17,50],[35,17],[24,22],[-17,63],[-20,0],[-31,-46],[-8,-18],[-2,18],[-5,4],[-12,-1],[-6,-16],[-9,-7],[-11,-6],[-15,-14],[6,29],[-9,28],[3,29],[8,11],[13,10],[13,15],[7,28],[-37,-20],[-21,-39],[-23,-91],[-8,25],[-4,4],[1,0],[11,14],[0,21],[-25,4],[-29,14],[-26,4],[0,21],[47,0],[8,-2],[3,2],[-7,1],[-4,1],[-6,8],[-1,13],[40,0],[0,20],[-24,21],[-29,19],[-33,15],[-35,11],[20,9],[16,4],[18,-2],[27,-11],[0,55],[14,33],[17,26],[9,35],[-6,30],[-17,36],[-26,18],[-31,-22],[-5,12],[-6,9],[-5,10],[-3,14],[30,-2],[9,2],[-43,34],[-41,49],[-20,53],[25,71],[2,92],[8,29],[11,23],[16,18],[13,9],[8,0],[-48,-175],[7,-75],[82,-21],[-38,31],[19,34],[49,27],[50,14],[-10,15],[-6,11],[-8,9],[-16,10],[0,19],[48,-13],[12,-6],[35,31],[23,29],[14,36],[4,24],[18,0],[1,-1],[4,-12],[22,0],[0,10],[0,3],[19,0],[0,-24],[-20,-24],[-26,-13],[-15,-18],[3,-44],[19,-26],[29,-6],[31,14],[-12,4],[-8,2],[-9,4],[-11,11],[36,-9],[11,-4],[12,-8],[6,15],[8,13],[5,13],[1,21],[82,-67],[38,-19],[0,-19],[-39,-41],[-63,-126],[-47,-27],[-38,-29],[-6,-58],[33,-41],[78,21],[-29,-67],[-11,-36],[2,-46],[100,19],[1,31],[-12,36],[-29,63],[20,0],[4,-14],[16,-28],[20,0],[12,33],[7,37],[3,39],[-2,40],[20,0],[1,-25],[19,-60],[12,20],[20,26],[7,18],[22,0],[-12,-54],[-24,-34],[-27,-28],[-18,-36],[-9,-48],[19,-5],[37,6],[52,-17],[0,-19],[-47,-17],[-24,-5],[-28,0],[15,-30],[59,-26],[25,-31],[32,21],[18,32],[31,75],[20,-10],[20,10],[0,-52],[-27,-64],[-8,-65],[55,-54],[20,0],[5,28],[6,13],[27,23],[0,-130],[-18,0],[-15,32],[-21,7],[-64,-15],[0,-24],[48,-16],[11,-48],[6,-53],[35,-30],[-20,41],[22,13],[49,1],[28,9],[16,16],[12,22],[15,18],[27,8],[55,-19],[54,-31],[46,-6],[34,56],[-28,6],[-28,2],[-62,-8],[51,75],[-12,56],[-52,43],[-68,41],[0,20],[20,0],[0,21],[-60,0],[10,5],[10,1],[10,4],[10,13],[-18,22],[17,-6],[7,-1],[4,-3],[10,-12],[2,36],[-6,11],[-16,17],[37,15],[18,-19],[6,-35],[0,-36],[7,-42],[16,-4],[20,16],[17,18],[26,60],[-3,72],[-29,49],[-54,-8],[5,24],[1,14],[4,10],[10,14],[-93,31],[-28,14],[64,9],[115,-21],[60,12],[-18,-23],[-13,-24],[-3,-27],[16,-33],[9,19],[32,43],[19,0],[-26,-84],[-16,-23],[0,-21],[23,-20],[19,0],[14,23],[16,19],[22,14],[27,9],[-16,-45],[20,8],[36,5],[21,8],[-5,-12],[-16,-29],[-90,-10],[-29,-13],[-17,-12],[-8,-3],[-5,-6],[-12,-20],[8,-4],[15,-83],[-8,-16],[-18,-7],[-15,-12],[0,-29],[6,-5],[35,-38],[18,-3],[47,8],[17,-5],[12,-19],[14,-45],[42,-90],[21,-21],[48,-19],[42,-8],[33,-1],[64,9],[63,20],[101,67],[53,22],[0,-23],[-35,-45],[-14,-25],[-10,-35],[30,27],[9,14],[20,0],[8,-43],[24,-17],[28,8],[22,30],[18,0],[18,-35],[26,-23],[24,1],[13,38],[20,0],[18,-155],[2,-135],[-29,-45],[-66,-20],[-80,-11],[-66,-18],[-47,-43],[-12,-50],[31,-41],[79,-18],[55,-20],[123,-74],[52,7],[-22,20],[-12,25],[-1,30],[15,34],[22,-47],[43,-19],[125,0],[15,99],[21,72],[34,42],[-5,-84],[5,-85],[18,0],[8,15],[7,6],[11,6],[14,14],[55,-24],[62,20],[49,49],[15,66],[42,-69],[25,-14],[235,-4],[40,9],[17,22],[9,25],[22,36],[27,35],[24,20],[-13,-27],[-6,-24],[3,-26],[16,-28],[40,27],[130,54],[29,36],[8,16],[40,41],[11,16],[4,32],[-4,98],[12,14],[18,11],[5,18],[-86,118],[-8,23],[-31,27],[-190,69],[0,21],[58,-20],[63,-1],[43,25],[-3,60],[-19,-7],[-41,-8],[-19,-6],[0,21],[9,0],[21,-1],[9,1],[-9,11],[-6,11],[-9,11],[-15,10],[218,192],[5,-29],[16,-16],[25,-4],[32,6],[0,-19],[-38,-25],[-39,-38],[-21,-40],[20,-27],[-10,-23],[-10,-63],[25,-15],[19,-22],[12,-28],[4,-32],[11,-29],[27,10],[61,50],[-36,-92],[6,-14],[17,-14],[8,-33],[-3,-35],[-14,-25],[0,-21],[23,-14],[19,-9],[19,-3],[21,4],[-31,54],[35,51],[62,41],[53,27],[3,-26],[-3,-16],[-9,-11],[-10,-11],[4,-20],[5,-45],[10,-22],[-25,-49],[-24,-98],[-30,-24],[110,-75],[0,-1063],[-32,-56],[-18,-48],[44,-52],[6,-10],[0,-282],[-20,-58],[-5,-65],[25,-33],[0,-26],[-77,-86],[13,-145],[64,-131],[0,-645],[-4096,0],[0,2845]],[[2357,1279],[16,-62],[14,-3],[13,10],[21,9],[44,16],[25,58],[-39,45],[-67,-14],[-27,-59]],[[853,3572],[-9,7],[-16,-12],[12,-14],[0,-11],[9,-20],[11,-1],[3,13],[0,25],[-10,13]],[[2387,1214],[13,10],[21,9],[44,16],[25,58],[-39,45],[-67,-14],[-27,-59],[16,-62],[14,-3]],[[0,2845],[7,6],[7,42],[10,18],[51,44],[20,12],[0,23],[-14,-1],[-45,1],[9,32],[12,24],[16,17],[22,11],[-8,12],[-13,32],[61,0],[-43,68],[-4,93],[29,87],[58,51],[-16,-59],[5,-30],[141,-76],[35,-1],[16,38],[10,-5],[3,0],[5,-16],[11,21],[22,26],[8,17],[10,-34],[-10,-26],[-41,-47],[40,-4],[139,25],[0,-21],[-34,-7],[-33,-13],[-19,-19],[6,-25],[-26,-6],[-21,-9],[-18,-12],[-14,-16],[0,-21],[17,-15],[15,-6],[14,4],[15,17],[18,0],[-14,-92],[-20,-34],[-45,-4],[13,39],[-41,18],[-47,-15],[-3,-63],[36,-48],[52,-9],[149,16],[0,19],[-29,-1],[-9,1],[0,22],[26,7],[12,12],[-3,18],[-19,27],[24,15],[20,18],[37,54],[40,-45],[0,-19],[-47,14],[-21,-25],[-5,-36],[3,-19],[27,6],[83,37],[-6,11],[-14,31],[26,5],[17,11],[11,20],[7,30],[-22,3],[-13,6],[-10,6],[-16,5],[0,23],[33,-15],[37,-4],[32,16],[17,46],[-12,-5],[-27,-19],[17,50],[35,17],[24,22],[-17,63],[-20,0],[-31,-46],[-8,-18],[-2,18],[-5,4],[-12,-1],[-6,-16],[-9,-7],[-11,-6],[-15,-14],[6,29],[-9,28],[3,29],[8,11],[13,10],[13,15],[7,28],[-37,-20],[-21,-39],[-23,-91],[-8,25],[-4,4],[1,0],[11,14],[0,21],[-25,4],[-29,14],[-26,4],[0,21],[47,0],[8,-2],[3,2],[-7,1],[-4,1],[-6,8],[-1,13],[40,0],[0,20],[-24,21],[-29,19],[-33,15],[-35,11],[20,9],[16,4],[18,-2],[27,-11],[0,55],[14,33],[17,26],[9,35],[-6,30],[-17,36],[-26,18],[-31,-22],[-5,12],[-6,9],[-5,10],[-3,14],[30,-2],[9,2],[-43,34],[-41,49],[-20,53],[25,71],[2,92],[8,29],[11,23],[16,18],[13,9]],[[571,4096],[-48,-175],[7,-75],[82,-21],[-38,31],[19,34],[49,27],[50,14],[-10,15],[-6,11],[-8,9],[-16,10],[0,19],[48,-13],[12,-6],[35,31],[23,29],[14,36],[4,24]],[[806,4096],[1,-1],[4,-12],[22,0],[0,10],[0,3]],[[852,4096],[0,-24],[-20,-24],[-26,-13],[-15,-18],[3,-44],[19,-26],[29,-6],[31,14],[-12,4],[-8,2],[-9,4],[-11,11],[36,-9],[11,-4],[12,-8],[6,15],[8,13],[5,13],[1,21],[82,-67],[38,-19],[0,-19],[-39,-41],[-63,-126],[-47,-27],[-38,-29],[-6,-58],[33,-41],[78,21],[-29,-67],[-11,-36],[2,-46],[100,19],[1,31],[-12,36],[-29,63],[20,0],[4,-14],[16,-28],[20,0],[12,33],[7,37],[3,39],[-2,40],[20,0],[1,-25],[19,-60],[12,20],[20,26],[7,18],[22,0],[-12,-54],[-24,-34],[-27,-28],[-18,-36],[-9,-48],[19,-5],[37,6],[52,-17],[0,-19],[-47,-17],[-24,-5],[-28,0],[15,-30],[59,-26],[25,-31],[32,21],[18,32],[31,75],[20,-10],[20,10],[0,-52],[-27,-64],[-8,-65],[55,-54],[20,0],[5,28],[6,13],[27,23],[0,-130],[-18,0],[-15,32],[-21,7],[-64,-15],[0,-24],[48,-16],[11,-48],[6,-53],[35,-30],[-20,41],[22,13],[49,1],[28,9],[16,16],[12,22],[15,18],[27,8],[55,-19],[54,-31],[46,-6],[34,56],[-28,6],[-28,2],[-62,-8],[51,75],[-12,56],[-52,43],[-68,41],[0,20],[20,0],[0,21],[-60,0],[10,5],[10,1],[10,4],[10,13],[-18,22],[17,-6],[7,-1],[4,-3],[10,-12],[2,36],[-6,11],[-16,17],[37,15],[18,-19],[6,-35],[0,-36],[7,-42],[16,-4],[20,16],[17,18],[26,60],[-3,72],[-29,49],[-54,-8],[5,24],[1,14],[4,10],[10,14],[-93,31],[-28,14],[64,9],[115,-21],[60,12],[-18,-23],[-13,-24],[-3,-27],[16,-33],[9,19],[32,43],[19,0],[-26,-84],[-16,-23],[0,-21],[23,-20],[19,0],[14,23],[16,19],[22,14],[27,9],[-16,-45],[20,8],[36,5],[21,8],[-5,-12],[-16,-29],[-90,-10],[-29,-13],[-17,-12],[-8,-3],[-5,-6],[-12,-20],[8,-4],[15,-83],[-8,-16],[-18,-7],[-15,-12],[0,-29],[6,-5],[35,-38],[18,-3],[47,8],[17,-5],[12,-19],[14,-45],[42,-90],[21,-21],[48,-19],[42,-8],[33,-1],[64,9],[63,20],[101,67],[53,22],[0,-23],[-35,-45],[-14,-25],[-10,-35],[30,27],[9,14],[20,0],[8,-43],[24,-17],[28,8],[22,30],[18,0],[18,-35],[26,-23],[24,1],[13,38],[20,0],[18,-155],[2,-135],[-29,-45],[-66,-20],[-80,-11],[-66,-18],[-47,-43],[-12,-50],[31,-41],[79,-18],[55,-20],[123,-74],[52,7],[-22,20],[-12,25],[-1,30],[15,34],[22,-47],[43,-19],[125,0],[15,99],[21,72],[34,42],[-5,-84],[5,-85],[18,0],[8,15],[7,6],[11,6],[14,14],[55,-24],[62,20],[49,49],[15,66],[42,-69],[25,-14],[235,-4],[40,9],[17,22],[9,25],[22,36],[27,35],[24,20],[-13,-27],[-6,-24],[3,-26],[16,-28],[40,27],[130,54],[29,36],[8,16],[40,41],[11,16],[4,32],[-4,98],[12,14],[18,11],[5,18],[-86,118],[-8,23],[-31,27],[-190,69],[0,21],[58,-20],[63,-1],[43,25],[-3,60],[-19,-7],[-41,-8],[-19,-6],[0,21],[9,0],[21,-1],[9,1],[-9,11],[-6,11],[-9,11],[-15,10],[218,192],[5,-29],[16,-16],[25,-4],[32,6],[0,-19],[-38,-25],[-39,-38],[-21,-40],[20,-27],[-10,-23],[-10,-63],[25,-15],[19,-22],[12,-28],[4,-32],[11,-29],[27,10],[61,50],[-36,-92],[6,-14],[17,-14],[8,-33],[-3,-35],[-14,-25],[0,-21],[23,-14],[19,-9],[19,-3],[21,4],[-31,54],[35,51],[62,41],[53,27],[3,-26],[-3,-16],[-9,-11],[-10,-11],[4,-20],[5,-45],[10,-22],[-25,-49],[-24,-98],[-30,-24],[110,-75]],[[4096,1637],[-32,-56],[-18,-48],[44,-52],[6,-10]],[[4096,1189],[-20,-58],[-5,-65],[25,-33]],[[4096,1007],[-77,-86],[13,-145],[64,-131]],[[2637,3211],[-24,-12]],[[2676,3209],[-19,1]],[[1164,4039],[-198,-356],[-45,-247]],[[936,3480],[30,203],[148,260]],[[1164,4039],[15,51]],[[1177,4092],[-13,-53]],[[1180,4096],[-2,-2]],[[1180,4094],[0,2]],[[1181,4096],[-1,0]],[[2576,2694],[0,-98]],[[2576,2596],[0,-1]],[[2577,2579],[32,-91]],[[2582,2595],[-5,34]],[[2605,2500],[-21,81]],[[2581,2580],[-10,2],[5,13]],[[2576,2595],[10,-5],[-5,-10]],[[2581,2579],[-11,3],[5,14],[1,0]],[[2576,2596],[11,-6],[-6,-11]],[[2523,2570],[-133,-43]],[[2390,2526],[132,43]],[[2577,2749],[-1,-55]],[[2638,2959],[-49,-46],[-11,-127]],[[2609,2488],[14,-41]],[[2614,3195],[-3,2]],[[2661,3848],[24,72],[-13,89],[82,87]],[[2671,3146]],[[2674,3147],[-2,0]],[[2673,3148]],[[2722,3685],[47,-58],[-6,-75]],[[3882,3563],[50,9],[7,7]],[[3939,3579],[94,83]],[[4033,3662],[14,12],[49,11]],[[4096,3686],[-49,-12],[-14,-12]],[[4033,3662],[-87,-81],[-7,-2]],[[3939,3579],[-57,-16]],[[378,3702],[-54,-58],[-45,-206]],[[407,3716],[-26,6]],[[381,3721],[26,-5]],[[281,3427],[-33,-150]],[[248,3277],[27,65]],[[276,3345],[6,17],[0,65]],[[2671,3146],[-20,-21]],[[2651,3125],[-1,0],[-12,-78],[0,-89]],[[2638,2959],[0,88],[13,77]],[[2651,3124],[0,1]],[[2651,3125]],[[2650,3124],[1,0]],[[2651,3124],[20,22]],[[2673,3148]],[[2754,3207],[-37,-123]],[[2717,3083],[38,123]],[[974,4096],[28,-5]],[[999,4092],[-23,4]],[[2768,3481],[45,-18],[402,-84],[167,-70],[142,-37],[11,-2],[115,-8],[142,-20],[304,-88]],[[4096,3154],[-304,88],[-142,20],[-126,11],[-309,106],[-445,102]],[[0,3527],[30,-2],[71,-49],[165,107]],[[533,3841],[57,45],[67,122],[102,88]],[[1005,4091],[55,-1]],[[1060,4091],[-55,0]],[[2347,2593],[-59,-64],[31,33]],[[2319,2562],[1,0]],[[2320,2562],[1,2],[1,1],[25,27]],[[2348,2593],[14,4]],[[2389,2527],[-69,35]],[[2320,2562],[-1,0]],[[2319,2562],[77,-50]],[[2573,2500],[-20,-6]],[[2554,2494],[19,6]],[[2555,2659],[64,55]],[[2605,2500],[4,-11]],[[2446,2434],[-28,-91],[-88,-973],[17,-43]],[[2686,887],[-82,20],[-85,59],[-113,234],[9,32]],[[2455,2463],[-9,-29]],[[2361,2598],[-13,-5]],[[2618,2714],[-41,-46]],[[2577,2668],[0,-1],[-22,-7]],[[2577,2629],[0,39]],[[2577,2668],[1,27]],[[2348,2593],[-1,0],[0,-1],[1,1]],[[2577,2695],[1,90]],[[2578,2786],[12,127],[138,140],[-55,95]],[[2638,2737],[-20,-23]],[[3422,4096],[21,-64],[-42,-154],[-147,-182],[-173,-126],[-19,-77],[-179,-135]],[[2493,3371],[-4,3]],[[2552,3276],[-6,7]],[[3187,3348],[-1,0]],[[3495,3365],[-2,0]],[[2390,2527],[-14,-5]],[[2377,2521],[13,5]],[[2522,2569],[48,15]],[[2570,2585],[-47,-15]],[[248,3277],[-74,-197]],[[174,3080],[74,197]],[[276,3344],[-49,0]],[[227,3344],[-1,0]],[[226,3344]],[[227,3344]],[[227,3344],[9,178]],[[236,3525],[-7,-3]],[[229,3522],[-26,50],[18,124],[-65,178],[70,43],[61,107],[-26,72]],[[229,3522],[7,0],[-10,-178]],[[226,3344],[0,-1],[49,0]],[[3187,4096],[-136,-196],[-77,-30],[-161,-163],[-40,-203]],[[2773,3504],[40,203],[161,163],[78,30],[135,196]],[[219,3509],[-151,-214]],[[68,3295],[-4,-5]],[[64,3290]],[[64,3290],[0,-1]],[[64,3289],[-1,-1]],[[63,3288],[-63,-89]],[[0,3198],[63,89]],[[63,3287],[1,2]],[[64,3289],[1,1]],[[65,3290],[1,1]],[[66,3291],[2,4]],[[68,3295],[151,214]],[[70,3294],[-2,1]],[[68,3295]],[[68,3295],[-3,1]],[[143,3304],[-69,-9],[-8,-4]],[[66,3291],[-2,-1]],[[64,3290],[-2,-1],[1,-1]],[[63,3288],[0,-1]],[[63,3287],[3,-5]],[[66,3290],[-2,-1]],[[64,3289]],[[64,3289],[-2,0],[2,1]],[[64,3290],[1,0]],[[65,3290],[9,5],[1,0]],[[75,3295],[68,9]],[[67,3287],[8,8]],[[75,3295]],[[178,3328],[-14,-17]],[[165,3311],[13,17]],[[182,3132],[3,0]],[[191,3540],[22,17]],[[229,3522],[-10,-13]],[[229,3521],[0,1]],[[233,3524],[3,2]],[[236,3522],[6,23]],[[244,3554],[-8,9]],[[244,3554],[-2,-9]],[[275,3342],[1,3]],[[317,3628],[-51,-45],[52,45]],[[319,3628]],[[319,3628],[-1,0]],[[318,3628],[0,1]],[[320,3629],[123,185],[90,27]],[[878,3995],[17,-14]],[[936,3480],[109,-21],[209,-131],[3,-124],[69,-46],[54,-2],[210,-1],[14,109]],[[1380,3156],[-54,2],[-68,46],[0,39],[-4,86],[-209,131],[-109,20]],[[940,4096],[-44,-112],[4,-20],[18,-37],[9,-73],[39,-67],[35,-25]],[[1001,3763],[-74,91],[-9,73],[-22,57],[45,112]],[[1060,4090],[119,0]],[[1177,4093],[-117,-2]],[[2543,2464],[7,-2]],[[2550,2463],[-7,1]],[[2547,2749],[27,-12],[3,0],[61,0]],[[2638,2738],[-91,11]],[[2609,2489],[15,-42]],[[2619,2714],[20,23]],[[2638,2958],[0,-220]],[[2638,2737],[1,0],[0,1],[-1,0],[0,-1]],[[2639,2738],[-1,221]],[[2639,2737],[193,20]],[[2832,2757],[-193,-19]],[[2722,3685],[-82,122],[21,41]],[[2832,2756],[97,-19],[111,49],[202,13],[228,40],[15,4],[91,70]],[[3576,2913]],[[3576,2913],[143,110],[38,-47]],[[3757,2976],[-38,48],[-143,-111]],[[3576,2913]],[[3576,2913],[-91,-70],[-15,-4],[-430,-52],[-111,-49],[-97,19]],[[3495,3042],[-81,-22]],[[3634,3121],[-51,42],[-88,10]],[[3537,2950],[39,-37]],[[3576,2913]],[[3576,2913],[2,-2],[-2,2]],[[3576,2913]],[[3576,2913],[-38,37]],[[3731,3549],[10,-13]],[[3741,3536],[1,-1]],[[3742,3535],[-1,1]],[[174,3079],[0,1],[-1,-1],[1,0]],[[318,3627],[1,1]],[[319,3628],[-1,0]],[[318,3628],[0,1],[-1,-1]],[[317,3628],[1,-1]],[[133,3122],[49,10]],[[1004,4096],[0,-5]],[[1005,4091],[0,5]],[[2578,2695],[0,90]],[[2578,2786],[12,127],[135,125],[-52,110]],[[2638,2737],[-20,-23]],[[2747,3309],[-28,-40]],[[2719,3269],[28,40]],[[2895,3360],[-148,-51]],[[3422,4096],[21,-64],[-42,-152],[-85,-133],[-76,-79],[-157,-96],[-24,-93],[-96,-41],[-80,-80]],[[1177,4096],[7,-7]],[[1184,4089],[-5,7]],[[1193,4078],[-9,11]],[[1193,4078],[2,-5]],[[2489,3374],[-83,133],[-98,36],[-113,1],[-211,119],[-166,17],[-280,188],[-100,26],[-92,97],[-124,38],[-27,44]],[[2546,3283],[-53,88]],[[2611,3197],[-59,79]],[[2611,3197],[3,0]],[[2747,3309],[-31,-39]],[[2717,3270],[30,39]],[[3186,3348],[-240,26],[-199,-65]],[[3493,3365],[-175,-78],[-69,55],[-62,6]],[[4096,3335],[-132,212],[-112,68],[-65,-2],[-203,-207],[-89,-41]],[[101,3119]],[[2609,2513],[-36,-13]],[[2573,2500],[36,12]],[[2609,2512],[45,16],[94,133],[2,91]],[[2750,2752],[-3,-91],[-93,-133],[-45,-15]],[[2785,3275],[-63,-270],[28,-253]],[[2750,2752],[-28,253],[64,270]],[[2555,2660],[-194,-62]],[[2719,3269],[-41,-60]],[[2678,3208],[41,61]],[[777,4096],[123,-102],[35,-11],[112,-1],[351,-134],[148,-15],[437,-169],[378,-99],[112,-19],[69,-7],[54,-2]],[[2596,3537],[55,-2],[1,-1]],[[2652,3534],[66,-33],[50,-20]],[[2770,3481],[-115,53],[-3,0]],[[2652,3534],[-56,3]],[[2596,3537],[-54,2],[-4,1],[-65,6],[-112,19],[-378,100],[-343,134],[-94,34],[-141,16],[-7,0],[-351,133],[-112,1],[-34,11],[-69,66],[-54,36]],[[2361,2598],[-13,-5]],[[2618,2714],[-41,-46]],[[2577,2668],[0,-1],[-22,-7]],[[2577,2629],[0,39]],[[2577,2668],[0,27]],[[2348,2593],[-1,0],[0,-1],[1,1]],[[113,3119],[20,3]],[[2362,2597],[51,16]],[[2413,2613],[0,1]],[[2413,2614],[142,45]],[[2543,2464],[-4,1]],[[2539,2465],[-35,6],[-13,6]],[[2491,2477],[-40,20]],[[2451,2497],[-1,0]],[[2450,2497],[-61,30]],[[2396,2512],[26,-18],[69,-17]],[[2491,2477],[48,-12]],[[2539,2465],[4,-1]],[[2407,2632],[6,-19]],[[2413,2613],[37,-116]],[[2450,2497],[3,-9]],[[2454,2488],[-3,9]],[[2451,2497],[-38,117]],[[2413,2614],[-6,18]],[[2553,2494],[-47,-15]],[[2506,2478],[48,16]],[[2676,3208],[2,0],[-1,1],[-1,0],[0,-1]],[[279,3438],[2,-11]],[[282,3427],[-2,11]],[[1299,4096],[14,-83],[-1,-11],[-2,-4],[-31,-122],[1,-11],[-1,-5]],[[1279,3860],[-5,-36],[-11,-81],[-90,-150],[-53,-198]],[[1120,3395],[53,198],[90,150],[51,270],[-14,83]],[[1264,3874],[15,-14]],[[1279,3860]],[[2773,3504],[-9,-23],[-18,-57],[39,-149]],[[2786,3275],[-39,149],[26,80]],[[3882,3563],[-94,-9],[-252,-195],[-42,-155],[-4,-108],[47,-146]],[[3538,2950],[-48,146],[5,108],[7,21],[34,127],[0,7],[253,194],[93,10]],[[1180,4090],[-3,3]],[[1183,4090]],[[2613,3199],[-2,-2]],[[2747,3309],[148,50]],[[3387,3014],[14,-35]],[[1005,4091],[-6,1]],[[1002,4091],[3,0]],[[2614,3197],[43,13]],[[2716,3270],[-38,-61]],[[2678,3208],[39,62]],[[2673,3148],[-59,47]],[[2672,3147],[-1,-1]],[[381,3722],[-101,36],[-76,-41],[-11,-7],[-96,-52],[-97,-54]],[[0,3603],[280,155],[101,-37]],[[280,3438],[45,207],[52,55],[46,96]],[[423,3796],[124,256],[10,8],[20,36]],[[577,4096],[-30,-44],[-124,-256]],[[423,3796],[-45,-94]],[[164,3311],[-21,-7]],[[143,3304],[22,7]],[[2673,3148],[-2,-2]],[[2671,3146],[2,2]],[[0,3123],[101,-4]],[[101,3119],[-101,5]],[[2555,2660],[-194,-62]],[[788,4096],[-4,-24],[-14,-36],[-23,-29],[-35,-31],[-12,6],[-48,13],[0,-19],[16,-10],[8,-9],[6,-11],[10,-15],[-50,-14],[-49,-27],[-19,-34],[38,-31],[-82,21],[-7,75],[48,175],[217,0]],[[833,4096],[0,-3],[0,-10],[-22,0],[-4,12],[-1,1],[27,0]],[[4096,2700],[-110,75],[30,24],[24,98],[25,49],[-10,22],[-5,45],[-4,20],[10,11],[9,11],[3,16],[-3,26],[-53,-27],[-62,-41],[-35,-51],[31,-54],[-21,-4],[-19,3],[-19,9],[-23,14],[0,21],[14,25],[3,35],[-8,33],[-17,14],[-6,14],[36,92],[-61,-50],[-27,-10],[-11,29],[-4,32],[-12,28],[-19,22],[-25,15],[10,63],[10,23],[-20,27],[21,40],[39,38],[38,25],[0,19],[-32,-6],[-25,4],[-16,16],[-5,29],[-218,-192],[15,-10],[9,-11],[6,-11],[9,-11],[-9,-1],[-21,1],[-9,0],[0,-21],[19,6],[41,8],[19,7],[3,-60],[-43,-25],[-63,1],[-58,20],[0,-21],[190,-69],[31,-27],[8,-23],[86,-118],[-5,-18],[-18,-11],[-12,-14],[4,-98],[-4,-32],[-11,-16],[-40,-41],[-8,-16],[-29,-36],[-130,-54],[-40,-27],[-16,28],[-3,26],[6,24],[13,27],[-24,-20],[-27,-35],[-22,-36],[-9,-25],[-17,-22],[-40,-9],[-235,4],[-25,14],[-42,69],[-15,-66],[-49,-49],[-62,-20],[-55,24],[-14,-14],[-11,-6],[-7,-6],[-8,-15],[-18,0],[-5,85],[5,84],[-34,-42],[-21,-72],[-15,-99],[-125,0],[-43,19],[-22,47],[-15,-34],[1,-30],[12,-25],[22,-20],[-52,-7],[-123,74],[-55,20],[-79,18],[-31,41],[12,50],[47,43],[66,18],[80,11],[66,20],[29,45],[-2,135],[-18,155],[-20,0],[-13,-38],[-24,-1],[-26,23],[-18,35],[-18,0],[-22,-30],[-28,-8],[-24,17],[-8,43],[-20,0],[-9,-14],[-30,-27],[10,35],[14,25],[35,45],[0,23],[-53,-22],[-101,-67],[-63,-20],[-64,-9],[-33,1],[-42,8],[-48,19],[-21,21],[-42,90],[-14,45],[-12,19],[-17,5],[-47,-8],[-18,3],[-35,38],[-6,5],[0,29],[15,12],[18,7],[8,16],[-15,83],[-8,4],[12,20],[5,6],[8,3],[17,12],[29,13],[90,10],[16,29],[5,12],[-21,-8],[-36,-5],[-20,-8],[16,45],[-27,-9],[-22,-14],[-16,-19],[-14,-23],[-19,0],[-23,20],[0,21],[16,23],[26,84],[-19,0],[-32,-43],[-9,-19],[-16,33],[3,27],[13,24],[18,23],[-60,-12],[-115,21],[-64,-9],[28,-14],[93,-31],[-10,-14],[-4,-10],[-1,-14],[-5,-24],[54,8],[29,-49],[3,-72],[-26,-60],[-17,-18],[-20,-16],[-16,4],[-7,42],[0,36],[-6,35],[-18,19],[-37,-15],[16,-17],[6,-11],[-2,-36],[-10,12],[-4,3],[-7,1],[-17,6],[18,-22],[-10,-13],[-10,-4],[-10,-1],[-10,-5],[60,0],[0,-21],[-20,0],[0,-20],[68,-41],[52,-43],[12,-56],[-51,-75],[62,8],[28,-2],[28,-6],[-34,-56],[-46,6],[-54,31],[-55,19],[-27,-8],[-15,-18],[-12,-22],[-16,-16],[-28,-9],[-49,-1],[-22,-13],[20,-41],[-35,30],[-6,53],[-11,48],[-48,16],[0,24],[64,15],[21,-7],[15,-32],[18,0],[0,130],[-27,-23],[-6,-13],[-5,-28],[-20,0],[-55,54],[8,65],[27,64],[0,52],[-20,-10],[-20,10],[-31,-75],[-18,-32],[-32,-21],[-25,31],[-59,26],[-15,30],[28,0],[24,5],[47,17],[0,19],[-52,17],[-37,-6],[-19,5],[9,48],[18,36],[27,28],[24,34],[12,54],[-22,0],[-7,-18],[-20,-26],[-12,-20],[-19,60],[-1,25],[-20,0],[2,-40],[-3,-39],[-7,-37],[-12,-33],[-20,0],[-16,28],[-4,14],[-20,0],[29,-63],[12,-36],[-1,-31],[-100,-19],[-2,46],[11,36],[29,67],[-78,-21],[-33,41],[6,58],[38,29],[47,27],[63,126],[39,41],[0,19],[-38,19],[-82,67],[-1,-21],[-5,-13],[-8,-13],[-6,-15],[-12,8],[-11,4],[-36,9],[11,-11],[9,-4],[8,-2],[12,-4],[-31,-14],[-29,6],[-19,26],[-3,44],[15,18],[26,13],[20,24],[0,24],[3244,0],[0,-1396]],[[4096,1471],[-6,10],[-44,52],[18,48],[32,56],[0,-166]],[[4096,645],[-64,131],[-13,145],[77,86],[0,-362]],[[4096,1033],[-25,33],[5,65],[20,58],[0,-156]],[[2400,1224],[-13,-10],[-14,3],[-16,62],[27,59],[67,14],[39,-45],[-25,-58],[-44,-16],[-21,-9]],[[0,4096],[563,0],[-13,-9],[-16,-18],[-11,-23],[-8,-29],[-2,-92],[-25,-71],[20,-53],[41,-49],[43,-34],[-9,-2],[-30,2],[3,-14],[5,-10],[6,-9],[5,-12],[31,22],[26,-18],[17,-36],[6,-30],[-9,-35],[-17,-26],[-14,-33],[0,-55],[-27,11],[-18,2],[-16,-4],[-20,-9],[35,-11],[33,-15],[29,-19],[24,-21],[0,-20],[-40,0],[1,-13],[6,-8],[4,-1],[7,-1],[-3,-2],[-8,2],[-47,0],[0,-21],[26,-4],[29,-14],[25,-4],[0,-21],[-11,-14],[-1,0],[4,-4],[8,-25],[23,91],[21,39],[37,20],[-7,-28],[-13,-15],[-13,-10],[-8,-11],[-3,-29],[9,-28],[-6,-29],[15,14],[11,6],[9,7],[6,16],[12,1],[5,-4],[2,-18],[8,18],[31,46],[20,0],[17,-63],[-24,-22],[-35,-17],[-17,-50],[27,19],[12,5],[-17,-46],[-32,-16],[-37,4],[-33,15],[0,-23],[16,-5],[10,-6],[13,-6],[22,-3],[-7,-30],[-11,-20],[-17,-11],[-26,-5],[14,-31],[6,-11],[-83,-37],[-27,-6],[-3,19],[5,36],[21,25],[47,-14],[0,19],[-40,45],[-37,-54],[-20,-18],[-24,-15],[19,-27],[3,-18],[-12,-12],[-26,-7],[0,-22],[9,-1],[29,1],[0,-19],[-149,-16],[-52,9],[-36,48],[3,63],[47,15],[41,-18],[-13,-39],[45,4],[20,34],[14,92],[-18,0],[-15,-17],[-14,-4],[-15,6],[-17,15],[0,21],[14,16],[18,12],[21,9],[26,6],[-6,25],[19,19],[33,13],[34,7],[0,21],[-139,-25],[-40,4],[41,47],[10,26],[-10,34],[-8,-17],[-22,-26],[-11,-21],[-5,16],[-3,0],[-10,5],[-16,-38],[-35,1],[-141,76],[-5,30],[16,59],[-58,-51],[-29,-87],[4,-93],[43,-68],[-61,0],[13,-32],[8,-12],[-22,-11],[-16,-17],[-12,-24],[-9,-32],[45,-1],[14,1],[0,-23],[-20,-12],[-51,-44],[-10,-18],[-7,-42],[-7,-6],[0,1251]],[[2294,2630],[15,36],[25,-10],[-17,-17],[257,96],[0,-33],[-51,-30],[23,8],[15,-36],[-58,-115],[53,-37],[-33,-68],[-71,51],[-16,-22],[-21,11],[-61,152],[-60,14]],[[2610,3213],[25,85],[85,-29],[-48,-123],[-55,34],[-7,33]],[[2636,2722],[-27,-93],[0,-176],[-58,19],[-22,47],[-15,-35],[35,-74],[-52,-7],[-123,74],[-134,38],[-31,41],[12,50],[47,43],[217,56],[85,-14],[66,31]],[[135,3118],[-34,0],[7,43],[27,-43]],[[1064,4096],[-13,-18],[-68,18],[81,0]]]}