{"objects":{"water":{"type":"GeometryCollection","geometries":[{"type":"MultiPolygon","properties":{"source":"naturalearthdata.com","kind":"ocean","area":1576712559132672,"sort_rank":200,"min_zoom":0.0,"id":1},"arcs":[[[7],[8]],[[9]]]},{"type":"MultiLineString","properties":{"source":"naturalearthdata.com","kind":"ocean","sort_rank":205,"boundary":true,"min_zoom":0.0,"id":79},"arcs":[[10],[11]]},{"type":"LineString","properties":{"source":"naturalearthdata.com","kind":"ocean","sort_rank":205,"boundary":true,"min_zoom":0.0,"id":113},"arcs":[12]}]},"buildings":{"type":"GeometryCollection","geometries":[]},"places":{"type":"GeometryCollection","geometries":[{"type":"Point","properties":{"kind":"region","name:en":"Ninh Thuan province","name":"Ninh Thu\u1eadn","kind_detail":"state","min_zoom":4.0,"source":"openstreetmap.org","name:fr":"Province de Ninh Thu\u1eadn","name:uk":"\u041d\u0456\u043d\u044c\u0442\u0445\u0443\u0430\u043d","name:vi":"T\u1ec9nh Ninh Thu\u1eadn","id":1532645331,"name:ja":"\u30cb\u30f3\u30c8\u30a5\u30a2\u30f3"},"coordinates":[1797,1686]},{"type":"Point","properties":{"kind":"region","name:en":"Khanh Hoa province","name":"Kh\u00e1nh H\u00f2a","kind_detail":"state","min_zoom":4.0,"source":"openstreetmap.org","name:fr":"Province de Kh\u00e1nh H\u00f2a","name:uk":"\u041a\u0445\u0430\u043d\u044c\u0445\u043e\u0430","name:ru":"\u043f\u0440\u043e\u0432\u0438\u043d\u0446\u0438\u044f \u041a\u0445\u0430\u043d\u044c\u0445\u043e\u0430","name:vi":"T\u1ec9nh Kh\u00e1nh H\u00f2a","id":1532838631,"name:ja":"\u30ab\u30a4\u30f3\u30db\u30a2"},"coordinates":[2079,3029]},{"type":"Point","properties":{"kind":"locality","name":"Cam Ranh","name:lt":"Kamranis","kind_detail":"city","official_name":"Th\u00e0nh ph\u1ed1 Cam Ranh","name:ur":"\u06a9\u0627\u0645 \u0631\u0646\u06be","source":"openstreetmap.org","min_zoom":8.0,"name:sr":"\u041a\u0430\u043c \u0420\u0430\u043d","name:uk":"\u041a\u0430\u043c\u0440\u0430\u043d\u044c","name:ru":"\u041a\u0430\u043c\u0440\u0430\u043d\u044c","population":220630,"name:zh":"\u91d1\u862d\u5e02","id":1754728286,"name:ja":"\u30ab\u30e0\u30e9\u30f3"},"coordinates":[2526,2197]}]},"transit":{"type":"GeometryCollection","geometries":[]},"pois":{"type":"GeometryCollection","geometries":[]},"boundaries":{"type":"GeometryCollection","geometries":[{"type":"LineString","properties":{"name:kg":"Vietnam","name:ka":"\u10d5\u10d8\u10d4\u10e2\u10dc\u10d0\u10db\u10d8","name:ko":"\ubca0\ud2b8\ub0a8","name:cv":"\u0412\u044c\u0435\u0442\u043d\u0430\u043c","name:km":"\u179c\u17c0\u178f\u178e\u17b6\u1798","name:kl":"Vietnam","name:cs":"Vietnam","name:tw":"Vietnam","name:ki":"Vietnam","name:kw":"Vietnam","name:kv":"\u0412\u044c\u0435\u0442\u043d\u0430\u043c","name:th":"\u0e1b\u0e23\u0e30\u0e40\u0e17\u0e28\u0e40\u0e27\u0e35\u0e22\u0e14\u0e19\u0e32\u0e21","name:tl":"Vietnam","name:ch":"Vietnam","name:ce":"\u0412\u044c\u0435\u0442\u043d\u0430\u043c","name:ta":"\u0bb5\u0bbf\u0baf\u0b9f\u0bcd\u0ba8\u0bbe\u0bae\u0bcd","name:tg":"\u0412\u0435\u0442\u043d\u0430\u043c","name:ca":"Vietnam","name:te":"\u0c35\u0c3f\u0c2f\u0c24\u0c4d\u0c28\u0c3e\u0c02","name:cy":"Fietnam","name:qu":"Witnam","name:da":"Vietnam","name:de":"Vietnam","source":"openstreetmap.org","name:kn":"\u0cb5\u0cbf\u0caf\u0cc6\u0c9f\u0ccd\u0ca8\u0cbe\u0cae\u0ccd","name:dv":"\u0788\u07a8\u0787\u07ac\u0793\u07aa\u0782\u07a7\u0789\u07aa","name:lv":"Vjetnama","name:lt":"Vietnamas","name:uz":"Vyetnam","name:kk":"\u0412\u044c\u0435\u0442\u043d\u0430\u043c","name:ur":"\u0648\u06cc\u062a\u0646\u0627\u0645","name:lb":"Vietnam","name:la":"Vietnamia","name:tt":"\u0412\u044c\u0435\u0442\u043d\u0430\u043c","name:uk":"\u0412'\u0454\u0442\u043d\u0430\u043c","name:ug":"\u06cb\u064a\u06d0\u062a\u0646\u0627\u0645","name:li":"Vietnam","name:ln":"Vietnami","name:lo":"\u0e9b\u0eb0\u0ec0\u0e97\u0e94\u0eab\u0ea7\u0ebd\u0e94\u0e99\u0eb2\u0ea1","name:el":"\u0392\u03b9\u03b5\u03c4\u03bd\u03ac\u03bc","name:eo":"Vjetnamujo","name:en":"Vietnam","name":"Vi\u1ec7t Nam","name:tk":"W\u00fdetnam","name:ee":"Vietnam","name:ku":"Viyetnam","name:eu":"Vietnam","name:et":"Vietnam","name:es":"Vietnam","name:ay":"Vietnam","name:rm":"Vietnam","name:rn":"Vietnam","name:az":"Vyetnam","name:ie":"Viet-Nam","name:id":"Vietnam","name:ik":"Vietnam","name:ar":"\u0641\u064a\u062a\u0646\u0627\u0645","name:io":"Vietnam","name:av":"\u0412\u044c\u0435\u0442\u043d\u0430\u043c","name:ak":"Vietnam","name:am":"\u126c\u1275 \u1293\u121d","name:it":"Vietnam","name:an":"Vietnam","name:ru":"\u0412\u044c\u0435\u0442\u043d\u0430\u043c","name:rw":"Viyetinamu","name:af":"Vi\u00ebtnam","name:zu":"IViyetnami","kind_detail":"2","name:za":"Yiednamz","name:zh-yue":"\u8d8a\u5357","name:zh":"\u8d8a\u5357","name:so":"Fiyetnam","name:sn":"Vietnam","name:sm":"Vietnam","name:sl":"Vietnam","name:sk":"Vietnam","name:ja":"\u30d9\u30c8\u30ca\u30e0","name:si":"\u0dc0\u0dd2\u0dba\u0da7\u0dca\u0db1\u0dcf\u0db8\u0dba","name:sh":"Vijetnam","name:se":"Vietnam","name:sc":"Vietnam","name:br":"Vi\u00eat Nam","name:bs":"Vijetnam","name:bm":"Vietnam","name:bn":"\u09ad\u09bf\u09af\u09bc\u09c7\u09a4\u09a8\u09be\u09ae","name:bo":"\u0f5d\u0f72\u0f0b\u0f4f\u0f72\u0f0b\u0f53\u0f58\u0f0d","name:bi":"Vietnam","name:sw":"Vietnam","name:be":"\u0412'\u0435\u0442\u043d\u0430\u043c","name:su":"Vi\u00e9tnam","name:bg":"\u0412\u0438\u0435\u0442\u043d\u0430\u043c","name:ss":"IViyethina","name:ba":"\u0412\u044c\u0435\u0442\u043d\u0430\u043c","name:sq":"Vietnami","name:jv":"Vi\u00e8tnam","name:sa":"\u091a\u092e\u094d\u092a\u093e\u0926\u0947\u0936","name:ia":"Vietnam","name:pt":"Vietname","name:om":"Veetinaam","name:oc":"Vietnam","min_zoom":8.0,"name:ro":"Vietnam","name:zh-min-nan":"Oa\u030dt-l\u00e2m","name:os":"\u0412\u044c\u0435\u0442\u043d\u0430\u043c","name:or":"\u0b2d\u0b3f\u0b0f\u0b24\u0b28\u0b3e\u0b2e","name:pl":"Wietnam","name:st":"Vietnam","sort_rank":262,"name:sr":"\u0412\u0438\u0458\u0435\u0442\u043d\u0430\u043c","osm_relation":true,"name:pa":"\u0a35\u0a40\u0a05\u0a24\u0a28\u0a3e\u0a2e","name:tr":"Vietnam","name:hi":"\u0935\u093f\u092f\u0924\u0928\u093e\u092e","name:sv":"Vietnam","name:he":"\u05d5\u05d9\u05d9\u05d8\u05e0\u05d0\u05dd","name:hy":"\u054e\u056b\u0565\u057f\u0576\u0561\u0574","name:ht":"Vyetnam","name:hu":"Vietn\u00e1m","name:hr":"Vijetnam","kind":"country","name:is":"V\u00edetnam","name:yi":"\u05d5\u05d5\u05d9\u05e2\u05d8\u05e0\u05d0\u05dd","name:yo":"Fi\u1eb9tn\u00e1m","name:mt":"Vjetnam","alt_name:eo":"Vjetnamo;Vjetnamio","name:ms":"Vietnam","name:mr":"\u0935\u094d\u0939\u093f\u092f\u0947\u0924\u0928\u093e\u092e","name:my":"\u1017\u102e\u101a\u1000\u103a\u1014\u1019\u103a\u1014\u102d\u102f\u1004\u103a\u1004\u1036","name:mg":"Vietnam","name:ve":"Vi\u00ebtnam","name:ml":"\u0d35\u0d3f\u0d2f\u0d31\u0d4d\u0d31\u0d4d\u0d28\u0d3e\u0d02","name:mn":"\u0412\u044c\u0435\u0442\u043d\u0430\u043c","name:mi":"Whitin\u0101mu","id":-49915,"name:mk":"\u0412\u0438\u0435\u0442\u043d\u0430\u043c","name:vo":"Vietnam\u00e4n","name:fa":"\u0648\u06cc\u062a\u0646\u0627\u0645","name:ff":"Vietnam","name:fi":"Vietnam","name:ky":"\u0412\u044c\u0435\u0442\u043d\u0430\u043c","name:fo":"Vjetnam","name:fr":"Vi\u00eat Nam","name:fy":"Fjetnam","name:nl":"Vietnam","name:nn":"Vietnam","name:no":"Vietnam","name:na":"Bitinam","name:wa":"Vietnam","name:wo":"Wiyetnaam","name:nv":"Bi\u02bcednam","name:ga":"V\u00edtneam","name:gd":"Bhiet-Nam","name:gn":"Vietnam","name:gl":"Vietnam","maritime_boundary":true,"name:gv":"Yn Vietnam","name:gu":"\u0ab5\u0abf\u0aaf\u0ac7\u0aa4\u0aa8\u0abe\u0aae"},"arcs":[0]},{"type":"LineString","properties":{"name:right:nl":"Ninh Thu\u1eadn","name:right:ja":"\u30cb\u30f3\u30c8\u30a5\u30a2\u30f3","name:right:fr":"Province de Ninh Thu\u1eadn","name:right:uk":"\u041d\u0456\u043d\u044c\u0442\u0445\u0443\u0430\u043d","name:left:ja":"\u30d3\u30f3\u30c8\u30a5\u30a2\u30f3","name:right:sw":"Mkoa wa Ninh Thu\u1eadn","id:right":-1886159,"name:right:ur":"\u0646\u0646\u06c1 \u062a\u06be\u0648\u0627\u0646 \u0635\u0648\u0628\u06c1","min_zoom":8.0,"name:right:fa":"\u0627\u0633\u062a\u0627\u0646 \u0646\u06cc\u0646 \u062a\u0648\u0627\u0646","id":-1904231,"name:right":"T\u1ec9nh Ninh Thu\u1eadn","name:right:id":"Provinsi Ninh Thuan","name:left:en":"Binh Thuan province","sort_rank":256,"kind_detail":"4","source":"openstreetmap.org","name:right:ar":"\u0645\u062d\u0627\u0641\u0638\u0629 \u0646\u0646\u0647 \u062a\u0648\u0627\u0646","id:left":-1904231,"name:right:fi":"Ninh Thu\u1eadn","name:left":"T\u1ec9nh B\u00ecnh Thu\u1eadn","name:right:es":"Ninh Thu\u1eadn","name:right:sr":"\u041d\u0438\u045a \u0422\u0443\u0430\u043d","name:right:pt":"Ninh Thuan","name:right:it":"Provincia di Ninh Thuan","name:right:ko":"\ub2cc\ud22c\uc5b8 \uc131","name:right:ru":"\u041d\u0438\u043d\u044c\u0442\u0445\u0443\u0430\u043d","name:right:sv":"Ninh Thuan","name:right:ro":"Ninh Thu\u1eadn","name:right:tg":"\u0412\u0438\u043b\u043e\u044f\u0442\u0438 \u041d\u0438\u043d \u0424\u0443\u0430\u043d","name:right:pl":"Prowincja Ninh Thu\u1eadn","name:right:en":"Ninh Thuan province","osm_relation":true,"kind":"region","name":"T\u1ec9nh B\u00ecnh Thu\u1eadn - T\u1ec9nh Ninh Thu\u1eadn","name:right:de":"Ninh Thu\u1eadn","name:right:bg":"\u041d\u0438\u043d \u0422\u0445\u0443\u0430\u043d","name:right:th":"\u0e08\u0e31\u0e07\u0e2b\u0e27\u0e31\u0e14\u0e19\u0e34\u0e0d\u0e16\u0e48\u0e27\u0e19","name:right:zh":"\u5be7\u9806\u7701"},"arcs":[1]},{"type":"LineString","properties":{"name:right:nl":"Ninh Thu\u1eadn","name:right:ja":"\u30cb\u30f3\u30c8\u30a5\u30a2\u30f3","name:right:fr":"Province de Ninh Thu\u1eadn","name:right:uk":"\u041d\u0456\u043d\u044c\u0442\u0445\u0443\u0430\u043d","name:left:ja":"\u30d3\u30f3\u30c8\u30a5\u30a2\u30f3","name:right:sw":"Mkoa wa Ninh Thu\u1eadn","id:right":-1886159,"name:right:ur":"\u0646\u0646\u06c1 \u062a\u06be\u0648\u0627\u0646 \u0635\u0648\u0628\u06c1","min_zoom":8.0,"name:right:fa":"\u0627\u0633\u062a\u0627\u0646 \u0646\u06cc\u0646 \u062a\u0648\u0627\u0646","id":-1904231,"name:right":"T\u1ec9nh Ninh Thu\u1eadn","name:right:tg":"\u0412\u0438\u043b\u043e\u044f\u0442\u0438 \u041d\u0438\u043d \u0424\u0443\u0430\u043d","name:left:en":"Binh Thuan province","sort_rank":256,"kind_detail":"4","source":"openstreetmap.org","name:right:ar":"\u0645\u062d\u0627\u0641\u0638\u0629 \u0646\u0646\u0647 \u062a\u0648\u0627\u0646","id:left":-1904231,"name:right:fi":"Ninh Thu\u1eadn","name:left":"T\u1ec9nh B\u00ecnh Thu\u1eadn","name:right:es":"Ninh Thu\u1eadn","name:right:sr":"\u041d\u0438\u045a \u0422\u0443\u0430\u043d","name:right:pt":"Ninh Thuan","name:right:it":"Provincia di Ninh Thuan","name:right:ko":"\ub2cc\ud22c\uc5b8 \uc131","name:right:ru":"\u041d\u0438\u043d\u044c\u0442\u0445\u0443\u0430\u043d","name:right:sv":"Ninh Thuan","name:right:ro":"Ninh Thu\u1eadn","name:right:id":"Provinsi Ninh Thuan","name:right:pl":"Prowincja Ninh Thu\u1eadn","name:right:en":"Ninh Thuan province","osm_relation":true,"kind":"region","name":"T\u1ec9nh B\u00ecnh Thu\u1eadn - T\u1ec9nh Ninh Thu\u1eadn","name:right:de":"Ninh Thu\u1eadn","name:right:bg":"\u041d\u0438\u043d \u0422\u0445\u0443\u0430\u043d","maritime_boundary":true,"name:right:th":"\u0e08\u0e31\u0e07\u0e2b\u0e27\u0e31\u0e14\u0e19\u0e34\u0e0d\u0e16\u0e48\u0e27\u0e19","name:right:zh":"\u5be7\u9806\u7701"},"arcs":[2]},{"type":"MultiLineString","properties":{"kind":"region","name:en":"Binh Thuan province","name":"T\u1ec9nh B\u00ecnh Thu\u1eadn","sort_rank":256,"kind_detail":"4","source":"openstreetmap.org","min_zoom":8.0,"id":-1904231,"osm_relation":true,"name:ja":"\u30d3\u30f3\u30c8\u30a5\u30a2\u30f3"},"arcs":[[3],[4]]},{"type":"LineString","properties":{"name:pt":"Ninh Thuan","name:ro":"Ninh Thu\u1eadn","name:id":"Provinsi Ninh Thuan","name:ko":"\ub2cc\ud22c\uc5b8 \uc131","name:ar":"\u0645\u062d\u0627\u0641\u0638\u0629 \u0646\u0646\u0647 \u062a\u0648\u0627\u0646","name:th":"\u0e08\u0e31\u0e07\u0e2b\u0e27\u0e31\u0e14\u0e19\u0e34\u0e0d\u0e16\u0e48\u0e27\u0e19","name:it":"Provincia di Ninh Thuan","name:ru":"\u041d\u0438\u043d\u044c\u0442\u0445\u0443\u0430\u043d","name:pl":"Prowincja Ninh Thu\u1eadn","id":-1886159,"name:fa":"\u0627\u0633\u062a\u0627\u0646 \u0646\u06cc\u0646 \u062a\u0648\u0627\u0646","sort_rank":256,"kind_detail":"4","name:de":"Ninh Thu\u1eadn","source":"openstreetmap.org","name:fr":"Province de Ninh Thu\u1eadn","name:tg":"\u0412\u0438\u043b\u043e\u044f\u0442\u0438 \u041d\u0438\u043d \u0424\u0443\u0430\u043d","name:nl":"Ninh Thu\u1eadn","name:ja":"\u30cb\u30f3\u30c8\u30a5\u30a2\u30f3","name:ur":"\u0646\u0646\u06c1 \u062a\u06be\u0648\u0627\u0646 \u0635\u0648\u0628\u06c1","name:uk":"\u041d\u0456\u043d\u044c\u0442\u0445\u0443\u0430\u043d","name:sw":"Mkoa wa Ninh Thu\u1eadn","name:sv":"Ninh Thuan","name:bg":"\u041d\u0438\u043d \u0422\u0445\u0443\u0430\u043d","name:sr":"\u041d\u0438\u045a \u0422\u0443\u0430\u043d","osm_relation":true,"kind":"region","name:en":"Ninh Thuan province","name":"T\u1ec9nh Ninh Thu\u1eadn","name:zh":"\u5be7\u9806\u7701","min_zoom":8.0,"name:fi":"Ninh Thu\u1eadn","name:es":"Ninh Thu\u1eadn"},"arcs":[5]},{"type":"LineString","properties":{"name:pt":"Ninh Thuan","name:ro":"Ninh Thu\u1eadn","name:id":"Provinsi Ninh Thuan","name:ko":"\ub2cc\ud22c\uc5b8 \uc131","name:ar":"\u0645\u062d\u0627\u0641\u0638\u0629 \u0646\u0646\u0647 \u062a\u0648\u0627\u0646","name:th":"\u0e08\u0e31\u0e07\u0e2b\u0e27\u0e31\u0e14\u0e19\u0e34\u0e0d\u0e16\u0e48\u0e27\u0e19","name:it":"Provincia di Ninh Thuan","name:ru":"\u041d\u0438\u043d\u044c\u0442\u0445\u0443\u0430\u043d","name:pl":"Prowincja Ninh Thu\u1eadn","id":-1886159,"name:fa":"\u0627\u0633\u062a\u0627\u0646 \u0646\u06cc\u0646 \u062a\u0648\u0627\u0646","sort_rank":256,"kind_detail":"4","name:de":"Ninh Thu\u1eadn","source":"openstreetmap.org","name:fr":"Province de Ninh Thu\u1eadn","name:tg":"\u0412\u0438\u043b\u043e\u044f\u0442\u0438 \u041d\u0438\u043d \u0424\u0443\u0430\u043d","name:nl":"Ninh Thu\u1eadn","name:ja":"\u30cb\u30f3\u30c8\u30a5\u30a2\u30f3","name:ur":"\u0646\u0646\u06c1 \u062a\u06be\u0648\u0627\u0646 \u0635\u0648\u0628\u06c1","name:uk":"\u041d\u0456\u043d\u044c\u0442\u0445\u0443\u0430\u043d","name:sw":"Mkoa wa Ninh Thu\u1eadn","name:sv":"Ninh Thuan","name:bg":"\u041d\u0438\u043d \u0422\u0445\u0443\u0430\u043d","name:sr":"\u041d\u0438\u045a \u0422\u0443\u0430\u043d","osm_relation":true,"kind":"region","name:en":"Ninh Thuan province","name":"T\u1ec9nh Ninh Thu\u1eadn","name:zh":"\u5be7\u9806\u7701","min_zoom":8.0,"maritime_boundary":true,"name:fi":"Ninh Thu\u1eadn","name:es":"Ninh Thu\u1eadn"},"arcs":[6]}]},"roads":{"type":"GeometryCollection","geometries":[{"type":"MultiLineString","properties":{"source":"openstreetmap.org","kind":"major_road","sort_rank":380,"kind_detail":"primary","ref":"26","min_zoom":8.0},"arcs":[[13],[14],[15],[16],[17],[18]]},{"type":"MultiLineString","properties":{"source":"openstreetmap.org","kind":"major_road","name:en":"National Route 1A","sort_rank":381,"kind_detail":"trunk","ref":"1A","min_zoom":8.0},"arcs":[[19],[20]]},{"type":"MultiLineString","properties":{"source":"openstreetmap.org","kind":"major_road","sort_rank":380,"kind_detail":"primary","ref":"657I","min_zoom":8.0},"arcs":[[21],[22],[23],[24],[25],[26],[27],[28],[29],[30],[31],[32],[33],[34]]},{"type":"MultiLineString","properties":{"source":"openstreetmap.org","kind":"major_road","sort_rank":380,"kind_detail":"primary","ref":"27","min_zoom":8.0},"arcs":[[35],[36],[37],[38],[39],[40],[41],[42],[43],[44]]},{"type":"LineString","properties":{"source":"openstreetmap.org","kind":"major_road","name:en":"Ha Ra Bridge","sort_rank":380,"kind_detail":"primary","min_zoom":8.0,"id":52577771},"arcs":[45]},{"type":"LineString","properties":{"source":"openstreetmap.org","kind":"major_road","name:en":"2\/4 Street","sort_rank":380,"kind_detail":"primary","min_zoom":8.0,"id":406136496},"arcs":[46]},{"type":"LineString","properties":{"kind":"major_road","name:en":"Prenn Mountain Pass","sort_rank":380,"kind_detail":"primary","source":"openstreetmap.org","min_zoom":8.0,"landuse_kind":"urban_area","ref":"QL20","id":51562420},"arcs":[47]},{"type":"MultiLineString","properties":{"kind":"major_road","network":"VN-roads","sort_rank":381,"kind_detail":"trunk","source":"openstreetmap.org","min_zoom":8.0,"shield_text":"20","ref":"20"},"arcs":[[48],[49]]},{"type":"LineString","properties":{"kind":"major_road","name:en":"Phu Dong Thien Vuong","sort_rank":380,"landuse_kind":"urban_area","source":"openstreetmap.org","min_zoom":8.0,"kind_detail":"primary","id":99660940},"arcs":[50]},{"type":"LineString","properties":{"kind":"major_road","sort_rank":381,"kind_detail":"trunk","is_bicycle_related":true,"source":"openstreetmap.org","min_zoom":8.0,"ref":"1A","id":147532624},"arcs":[51]},{"type":"MultiLineString","properties":{"source":"openstreetmap.org","kind":"major_road","name:en":"Ba Thang Hai","landuse_kind":"urban_area","sort_rank":380,"kind_detail":"primary","min_zoom":8.0},"arcs":[[52],[53]]},{"type":"MultiLineString","properties":{"kind":"major_road","name:en":"National Route 1A","sort_rank":381,"kind_detail":"trunk","source":"openstreetmap.org","min_zoom":8.0,"name:vi":"Qu\u1ed1c l\u1ed9 1A","ref":"1A"},"arcs":[[54],[55],[56],[57]]},{"type":"MultiLineString","properties":{"source":"openstreetmap.org","kind":"major_road","name:en":"Tran Phu","landuse_kind":"urban_area","sort_rank":380,"kind_detail":"primary","min_zoom":8.0},"arcs":[[58],[59],[60],[61],[62],[63],[64]]},{"type":"LineString","properties":{"source":"openstreetmap.org","kind":"ferry","name":"Tuy\u1ebfn t\u00e0u Cao t\u1ed1c Ninh V\u00e2n Bay","sort_rank":355,"min_zoom":8.0,"id":230782013},"arcs":[65]},{"type":"MultiLineString","properties":{"sort_rank":381,"source":"openstreetmap.org","min_zoom":8.0,"kind":"major_road","kind_detail":"trunk"},"arcs":[[66],[67],[68],[69],[70]]},{"type":"LineString","properties":{"kind":"major_road","name:en":"2\/4 Street","sort_rank":380,"landuse_kind":"urban_area","source":"openstreetmap.org","min_zoom":8.0,"kind_detail":"primary","id":406136496},"arcs":[71]},{"type":"MultiLineString","properties":{"source":"openstreetmap.org","kind":"major_road","name:en":"Prenn Mountain Pass","sort_rank":380,"kind_detail":"primary","ref":"QL20","min_zoom":8.0},"arcs":[[72],[73]]},{"type":"MultiLineString","properties":{"source":"openstreetmap.org","kind":"ferry","name":"Ph\u00e0 VinPearl","sort_rank":355,"min_zoom":8.0,"id":71375368},"arcs":[[74],[75]]},{"type":"LineString","properties":{"source":"openstreetmap.org","kind":"major_road","name:en":"Tran Phu","sort_rank":380,"kind_detail":"primary","min_zoom":8.0},"arcs":[76]},{"type":"MultiLineString","properties":{"source":"openstreetmap.org","kind":"major_road","landuse_kind":"urban_area","sort_rank":380,"kind_detail":"primary","min_zoom":8.0},"arcs":[[77],[78],[79],[80],[81],[82],[83],[84],[85],[86],[87],[88],[89],[90],[91],[92],[93],[94],[95],[96],[97],[98],[99]]},{"type":"LineString","properties":{"sort_rank":355,"source":"openstreetmap.org","min_zoom":8.0,"kind":"ferry"},"arcs":[100]},{"type":"LineString","properties":{"source":"openstreetmap.org","kind":"ferry","sort_rank":355,"landuse_kind":"urban_area","min_zoom":8.0,"id":39594731},"arcs":[101]},{"type":"LineString","properties":{"kind":"major_road","name:en":"Le Hong Phong","sort_rank":380,"landuse_kind":"urban_area","source":"openstreetmap.org","min_zoom":8.0,"kind_detail":"primary","id":52739934},"arcs":[102]},{"type":"LineString","properties":{"source":"openstreetmap.org","kind":"major_road","name:en":"Highway 20","sort_rank":380,"kind_detail":"primary","ref":"QL20","min_zoom":8.0},"arcs":[103]},{"type":"LineString","properties":{"source":"openstreetmap.org","kind":"major_road","name:en":"Pham Van Dong","sort_rank":380,"kind_detail":"primary","min_zoom":8.0,"id":139958186},"arcs":[104]},{"type":"MultiLineString","properties":{"source":"openstreetmap.org","kind":"major_road","name:en":"Nguyen Tat Thanh","landuse_kind":"urban_area","sort_rank":380,"kind_detail":"primary","min_zoom":8.0},"arcs":[[105],[106]]},{"type":"MultiLineString","properties":{"source":"openstreetmap.org","kind":"major_road","sort_rank":380,"kind_detail":"primary","ref":"QL20","min_zoom":8.0},"arcs":[[107],[108]]},{"type":"MultiLineString","properties":{"sort_rank":380,"kind_detail":"primary","min_zoom":8.0,"kind":"major_road","source":"openstreetmap.org"},"arcs":[[109],[110],[111],[112],[113],[114],[115],[116],[117],[118],[119],[120],[121],[122],[123],[124],[125],[126],[127],[128],[129],[130],[131],[132],[133],[134],[135],[136],[137],[138],[139],[140],[141],[142],[143],[144],[145],[146],[147],[148],[149],[150]]},{"type":"LineString","properties":{"kind":"major_road","name:en":"Pham Van Dong","sort_rank":380,"landuse_kind":"urban_area","source":"openstreetmap.org","min_zoom":8.0,"kind_detail":"primary","id":139958186},"arcs":[151]},{"type":"LineString","properties":{"source":"openstreetmap.org","kind":"major_road","landuse_kind":"urban_area","sort_rank":380,"kind_detail":"primary","ref":"3\/4","min_zoom":8.0},"arcs":[152]},{"type":"MultiLineString","properties":{"source":"openstreetmap.org","kind":"major_road","name:en":"Binh Tan Bridge","landuse_kind":"urban_area","sort_rank":380,"kind_detail":"primary","min_zoom":8.0},"arcs":[[153],[154]]},{"type":"LineString","properties":{"source":"openstreetmap.org","kind":"ferry","name":"Ph\u00e0 VinPearl","sort_rank":355,"landuse_kind":"urban_area","min_zoom":8.0,"id":71375368},"arcs":[155]},{"type":"MultiLineString","properties":{"source":"openstreetmap.org","kind":"major_road","sort_rank":380,"kind_detail":"primary","ref":"20","min_zoom":8.0},"arcs":[[156],[157],[158],[159],[160]]},{"type":"LineString","properties":{"source":"openstreetmap.org","kind":"major_road","name:en":"Le Hong Phong","sort_rank":381,"kind_detail":"trunk","ref":"1A","min_zoom":8.0},"arcs":[161]},{"type":"LineString","properties":{"source":"openstreetmap.org","kind":"major_road","sort_rank":380,"kind_detail":"primary","ref":"27B","min_zoom":8.0},"arcs":[162]},{"type":"LineString","properties":{"source":"openstreetmap.org","kind":"major_road","sort_rank":381,"kind_detail":"trunk","ref":"CT14","min_zoom":8.0},"arcs":[163]},{"type":"MultiLineString","properties":{"kind":"major_road","name:en":"National Route 20","network":"VN-roads","sort_rank":381,"kind_detail":"trunk","source":"openstreetmap.org","min_zoom":8.0,"shield_text":"20","ref":"20"},"arcs":[[164],[165]]},{"type":"MultiLineString","properties":{"sort_rank":383,"kind_detail":"motorway","min_zoom":8.0,"kind":"highway","source":"openstreetmap.org"},"arcs":[[166],[167]]},{"type":"LineString","properties":{"kind":"major_road","name:en":"Dinh Tien Hoang","sort_rank":380,"landuse_kind":"urban_area","source":"openstreetmap.org","min_zoom":8.0,"kind_detail":"primary","id":99661013},"arcs":[168]},{"type":"LineString","properties":{"kind":"major_road","network":"VN-roads","sort_rank":380,"kind_detail":"primary","source":"openstreetmap.org","min_zoom":8.0,"shield_text":"20","ref":"20"},"arcs":[169]},{"type":"MultiLineString","properties":{"source":"openstreetmap.org","kind":"major_road","sort_rank":381,"kind_detail":"trunk","ref":"1A","min_zoom":8.0},"arcs":[[170],[171],[172],[173],[174],[175],[176],[177],[178],[179],[180],[181],[182],[183],[184],[185],[186],[187],[188],[189],[190],[191],[192],[193],[194]]},{"type":"LineString","properties":{"kind":"major_road","name:en":"University Roundabout","sort_rank":380,"landuse_kind":"urban_area","source":"openstreetmap.org","min_zoom":8.0,"kind_detail":"primary","id":99661125},"arcs":[195]},{"type":"LineString","properties":{"kind":"major_road","name:en":"Ha Ra Bridge","sort_rank":380,"landuse_kind":"urban_area","source":"openstreetmap.org","min_zoom":8.0,"kind_detail":"primary","id":52577771},"arcs":[196]},{"type":"LineString","properties":{"kind":"major_road","name:en":"Nguyen Tu Luc","sort_rank":380,"landuse_kind":"urban_area","source":"openstreetmap.org","min_zoom":8.0,"kind_detail":"primary","id":99661205},"arcs":[197]}]},"earth":{"type":"GeometryCollection","geometries":[{"type":"MultiPolygon","properties":{"sort_rank":10,"source":"naturalearthdata.com","min_zoom":0.0,"kind":"earth","area":81765497779},"arcs":[[[198]],[[199]]]}]},"landuse":{"type":"GeometryCollection","geometries":[{"type":"MultiPolygon","properties":{"source":"naturalearthdata.com","kind":"urban_area","name":"","area":129123966,"sort_rank":11,"min_zoom":4.0},"arcs":[[[200]],[[201]],[[202]]]},{"type":"MultiPolygon","properties":{"source":"openstreetmap.org","kind":"park","tier":2,"area":2598081741,"sort_rank":24,"min_zoom":6.0,"osm_relation":true},"arcs":[[[203]],[[204],[205],[206],[207],[208],[209],[210],[211]]]}]}},"type":"Topology","transform":{"translate":[108.28125,11.1784018737],"scale":[0.0003433228,0.000335977]},"arcs":[[[3438,0],[566,4096]],[[1761,334],[-56,127],[27,61],[-55,8],[-38,62],[-169,33],[-83,69],[10,174],[-138,-23],[-101,33],[-102,227],[-179,18]],[[1983,0],[-222,334]],[[877,1123],[-28,-14],[-45,-104],[-48,-30],[-136,71],[-73,-37],[-109,-9],[-39,38],[-65,-26],[-38,21],[-27,-48],[-58,-13],[-28,70],[-40,-17],[-17,28],[-84,-49],[-42,0]],[[0,792],[10,9],[26,-19],[38,-84],[-74,-66]],[[2712,1869],[-300,2],[-95,83],[-114,220],[-48,4],[-44,39],[-69,-26],[-191,112],[-69,-16],[-75,61],[-42,-9],[-15,46],[36,45],[-9,67],[-166,80],[24,42],[-72,200],[23,100],[-37,16],[-26,-35],[-110,27],[-76,-23],[-37,-26],[-1,-49],[-58,-25],[91,-83],[21,-110],[-77,-93],[-12,-117],[-57,-70],[9,-138],[-30,-61],[-2,-154],[-68,-40],[-31,-68],[157,-68],[-18,-106],[69,-43],[32,-103],[-93,-106],[-29,13],[-106,-55],[-176,-21],[-28,-31],[-5,-91],[89,-136]],[[3438,0],[221,1574],[-947,295]],[[859,0],[4,2],[110,0],[31,8],[59,26],[29,7],[38,-5],[62,-29],[29,-7],[50,0],[34,7],[26,25],[22,51],[35,151],[24,54],[27,38],[37,36],[97,69],[49,20],[52,10],[52,0],[46,-10],[127,-58],[54,-3],[42,14],[42,27],[73,59],[36,36],[13,35],[-9,115],[26,203],[-1,128],[-45,76],[20,-2],[61,2],[-18,49],[2,44],[10,40],[6,41],[-21,19],[-33,37],[-4,37],[67,17],[14,-21],[22,-103],[33,-38],[54,-12],[49,3],[43,-2],[35,-30],[20,0],[35,47],[17,33],[7,34],[12,24],[53,45],[16,20],[12,45],[1,29],[8,26],[51,65],[26,60],[20,23],[22,-22],[31,64],[-114,145],[0,12],[3,65],[-35,51],[4,41],[20,37],[11,43],[-20,4],[-44,-49],[-43,-59],[-14,-27],[-92,17],[-17,100],[33,97],[56,9],[74,67],[49,79],[28,85],[9,86],[-16,48],[-68,63],[-16,30],[15,84],[-4,11],[-14,11],[-37,70],[39,52],[28,-35],[28,-128],[66,-176],[-21,0],[33,-101],[-18,-217],[24,-90],[10,7],[22,7],[10,6],[25,-37],[40,-21],[48,-3],[47,19],[0,22],[-39,16],[-29,33],[-14,44],[1,50],[50,40],[0,10],[10,53],[0,18],[-83,58],[-27,32],[-83,158],[-20,52],[-11,124],[4,25],[33,33],[12,26],[-15,35],[-22,26],[-4,13],[1,9],[-5,21],[-5,39],[-15,23],[-40,21],[1,-2],[-20,-18],[12,35],[30,6],[76,-21],[-21,32],[-25,30],[-12,35],[19,45],[-57,35],[-27,23],[-16,25],[16,-11],[65,-29],[29,80],[11,20],[18,0],[34,-16],[17,16],[-1,26],[-37,25],[-23,26],[-21,31],[-8,25],[-2,65],[-12,72],[-30,46],[-56,-10],[-19,33],[-46,49],[-15,40],[20,0],[10,-7],[30,-13],[-10,13],[-15,32],[-15,18],[84,12],[88,-55],[127,-142],[38,-74],[30,-35],[44,-15],[34,27],[19,50],[20,27],[35,-41],[22,20],[-22,20],[33,32],[-27,41],[-52,36],[-43,15],[-16,11],[-12,24],[-3,30],[30,61],[-15,25],[-143,94],[-36,38],[-14,54],[15,42],[1311,0],[0,-4096],[-3237,0]],[[2989,3002],[-5,13],[-3,2],[-4,0],[-8,6],[25,11],[22,-1],[18,-11],[16,-20],[15,8],[32,22],[13,11],[-8,20],[-12,17],[-17,14],[-23,10],[-107,21],[-54,21],[-1,-32],[1,-10],[-20,7],[-42,7],[-19,6],[0,-20],[27,-30],[43,-37],[53,-29],[58,-6]],[[2740,4096],[0,-3],[-10,-30],[-21,0],[1,14],[-4,3],[-7,0],[-9,3],[0,13],[50,0]],[[859,0],[4,2],[110,0],[31,8],[59,26],[29,7],[38,-5],[62,-29],[29,-7],[50,0],[34,7],[26,25],[22,51],[35,151],[24,54],[27,38],[37,36],[97,69],[49,20],[52,10],[52,0],[46,-10],[127,-58],[54,-3],[42,14],[42,27],[73,59],[36,36],[13,35],[-9,115],[26,203],[-1,128],[-45,76],[20,-2],[61,2],[-18,49],[2,44],[10,40],[6,41],[-21,19],[-33,37],[-4,37],[67,17],[14,-21],[22,-103],[33,-38],[54,-12],[49,3],[43,-2],[35,-30],[20,0],[35,47],[17,33],[7,34],[12,24],[53,45],[16,20],[12,45],[1,29],[8,26],[51,65],[26,60],[20,23],[22,-22],[31,64],[-114,145],[0,12],[3,65],[-35,51],[4,41],[20,37],[11,43],[-20,4],[-44,-49],[-43,-59],[-14,-27],[-92,17],[-17,100],[33,97],[56,9],[74,67],[49,79],[28,85],[9,86],[-16,48],[-68,63],[-16,30],[15,84],[-4,11],[-14,11],[-37,70],[39,52],[28,-35],[28,-128],[66,-176],[-21,0],[33,-101],[-18,-217],[24,-90],[10,7],[22,7],[10,6],[25,-37],[40,-21],[48,-3],[47,19],[0,22],[-39,16],[-29,33],[-14,44],[1,50],[50,40],[0,10],[10,53],[0,18],[-83,58],[-27,32],[-83,158],[-20,52],[-11,124],[4,25],[33,33],[12,26],[-15,35],[-22,26],[-4,13],[1,9],[-5,21],[-5,39],[-15,23],[-40,21],[1,-2],[-20,-18],[12,35],[30,6],[76,-21],[-21,32],[-25,30],[-12,35],[19,45],[-57,35],[-27,23],[-16,25],[16,-11],[65,-29],[29,80],[11,20],[18,0],[34,-16],[17,16],[-1,26],[-37,25],[-23,26],[-21,31],[-8,25],[-2,65],[-12,72],[-30,46],[-56,-10],[-19,33],[-46,49],[-15,40],[20,0],[10,-7],[30,-13],[-10,13],[-15,32],[-15,18],[84,12],[88,-55],[127,-142],[38,-74],[30,-35],[44,-15],[34,27],[19,50],[20,27],[35,-41],[22,20],[-22,20],[33,32],[-27,41],[-52,36],[-43,15],[-16,11],[-12,24],[-3,30],[30,61],[-15,25],[-143,94],[-36,38],[-14,54],[15,42]],[[2740,4096],[0,-3],[-10,-30],[-21,0],[1,14],[-4,3],[-7,0],[-9,3],[0,13]],[[3050,3104],[-107,21],[-54,21],[-1,-32],[1,-10],[-20,7],[-42,7],[-19,6],[0,-20],[27,-30],[43,-37],[53,-29],[58,-6],[-5,13],[-3,2],[-4,0],[-8,6],[25,11],[22,-1],[18,-11],[16,-20],[15,8],[32,22],[13,11],[-8,20],[-12,17],[-17,14],[-23,10]],[[1794,4096],[20,-15],[96,-8],[51,-30],[199,2],[82,-78],[217,-56]],[[2459,3911],[0,-4]],[[2460,3909],[-1,2]],[[2459,3907],[1,1]],[[2459,3907],[7,-47]],[[2460,3909],[-1,0],[1,-1],[0,1]],[[2470,2179],[-4,-3]],[[2467,2176],[3,3]],[[2589,3008],[3,-7]],[[2592,3001],[16,-35]],[[2608,2966],[1,-3],[110,-53],[21,-42],[-26,-11],[-6,-44],[-51,-13]],[[2719,2910],[-74,43],[-37,13]],[[2608,2966],[-3,1],[-13,34]],[[2592,3001],[-3,7]],[[2653,2792],[-12,-95]],[[2641,2695],[75,-197]],[[2642,2697],[12,94]],[[2717,2498],[-75,198]],[[2656,2799],[-3,-7]],[[2704,2459],[1,4]],[[2705,2464],[6,17]],[[2711,2482],[6,15]],[[299,1713],[-58,36],[-159,-33],[-37,61],[-45,1]],[[379,1802],[90,-22],[46,-40],[134,-2],[273,241],[113,-4],[24,-23],[42,21],[-22,-37],[50,14],[28,45],[-13,-45],[82,-21],[248,-153],[15,-129],[111,-124],[79,-27],[63,-122],[223,-139]],[[1965,1235],[15,-6]],[[1980,1229],[5,-3]],[[1985,1226],[9,-6]],[[1994,1220],[5,-5]],[[2028,1190],[-29,25]],[[2036,1184],[-8,6]],[[2036,1184],[7,-5]],[[2043,1179],[-7,5]],[[2647,3220],[-1,0]],[[2660,3282],[-19,60]],[[481,2221],[-5,-10]],[[92,1411],[2,-4]],[[299,1710],[0,-2]],[[470,2310],[-2,47]],[[2637,3368],[-171,-93]],[[432,2263],[4,4]],[[437,2268],[2,2]],[[2414,1957],[-13,-81],[-74,-94],[-76,-246],[-91,-127],[-76,-56]],[[2414,1957],[-13,86],[66,133]],[[2466,2176],[-65,-133],[12,-83],[1,-3]],[[2519,2200],[-49,-21]],[[478,2255],[-46,8]],[[2669,3210],[-4,-22],[1,-25]],[[2666,3163],[20,-61]],[[2666,3163],[3,47]],[[2686,3102],[-20,61]],[[2669,3210]],[[2686,3102],[30,-32],[-30,32]],[[2682,3473],[219,39]],[[300,1708],[-1,2]],[[2409,3227],[0,8]],[[2520,2200],[18,2]],[[2405,3211],[0,-1],[0,1]],[[2519,2200],[1,0],[-1,0]],[[2661,3279],[-1,3]],[[476,2211],[-1,-2]],[[479,2204],[12,-44]],[[2720,3043],[7,3]],[[2742,3054],[53,30]],[[2669,3210],[7,20]],[[436,2267],[1,1]],[[438,2311],[0,1],[0,-1]],[[439,2271],[-1,40]],[[464,2274],[2,-1]],[[468,2357],[32,23]],[[2639,3053],[-1,0],[-21,-18]],[[2617,3035],[22,18]],[[2645,3217],[2,-19]],[[2661,3279],[3,-40]],[[2669,3210]],[[2680,3237],[-3,-3]],[[2680,3237],[13,8],[-8,40]],[[2684,3285],[-3,-47]],[[2708,3311],[-23,-25]],[[2685,3285],[23,26]],[[431,2263],[0,-1],[1,1],[-1,0]],[[439,2271],[-1,0],[1,-1],[0,1]],[[479,2254],[0,1],[-1,0],[0,-1],[1,0]],[[2639,3053],[0,1],[0,-1]],[[2666,3163],[-1,0],[1,0]],[[2681,3238],[-1,0],[0,-1]],[[2680,3237],[1,1]],[[2686,3102]],[[2734,3045],[20,-17]],[[2722,3055],[12,-10]],[[441,2255],[-16,-9]],[[612,2286],[114,-8],[-14,-87],[78,-93],[-6,-21],[76,-91],[62,-7]],[[2676,3230],[2,3]],[[2639,3056],[0,-2]],[[2639,3054],[0,2]],[[491,2160],[61,-73]],[[612,2286],[1,1],[-1,0],[-1,-1],[1,0]],[[475,2205],[-1,-1]],[[476,2207],[-1,-2]],[[475,2205],[2,0]],[[476,2206]],[[476,2206],[1,0]],[[477,2206],[-1,0]],[[476,2206]],[[550,2081],[2,6]],[[963,1983],[3,-4]],[[1073,266],[-43,-68]],[[1073,266],[30,161],[-17,70]],[[1117,247],[-44,19]],[[1097,294],[-11,4]],[[1117,246],[19,1]],[[2067,1154],[-10,-37],[-62,-13]],[[2064,1238],[4,-52]],[[2068,1186],[-4,53]],[[2068,1186],[-1,-31]],[[2405,3210],[-21,-34],[-20,-31],[-6,-7]],[[2358,3138],[-2,-2]],[[2358,3138]],[[2358,3138],[-1,1]],[[2591,3013],[-2,-4]],[[2589,3009],[3,3]],[[2617,3035],[-25,-22]],[[2592,3013],[25,22]],[[2639,3372],[2,-30]],[[2664,3239],[-17,-19]],[[2654,2791],[3,8]],[[2658,2799],[50,13],[6,45],[27,10],[-22,43]],[[2677,3234],[-8,-24]],[[2671,2800]],[[2710,2482],[-6,-23]],[[2708,3311],[18,20],[-18,-20]],[[2709,2913]],[[2716,2498],[-6,-16]],[[300,1707],[0,1],[-1,0],[0,-1],[1,0]],[[2064,1238],[0,1],[0,-1]],[[2067,1155],[-1,0],[0,-1],[1,0],[0,1]],[[2592,3013],[-1,0]],[[2591,3013],[1,0]],[[2657,2800],[-1,0],[1,-1],[1,0],[-1,1]],[[2678,3233],[2,4]],[[478,2254],[3,-33],[-3,33]],[[2640,3065],[-1,-9]],[[2639,3056],[1,9]],[[2727,3046],[15,8]],[[302,1708],[-2,0]],[[300,1707],[2,1]],[[513,2016],[-8,-73],[-45,-81],[-158,-154]],[[513,2016],[2,11]],[[514,2028],[-1,-12]],[[2378,3197],[27,13]],[[1479,1769],[38,37],[-7,109],[52,60],[43,-47],[122,-9],[141,87],[136,-15],[36,34],[-22,35],[32,61],[58,27],[133,-50],[31,9],[46,-47],[38,27],[60,-2]],[[514,2028],[36,53],[-36,-53]],[[94,1407],[-28,-59],[-66,-11]],[[295,1700],[-112,-176],[-80,-63],[-11,-50]],[[514,2028],[-24,-83],[-191,-235]],[[299,1710],[192,235],[20,71],[3,12]],[[465,2272],[4,38]],[[299,1707],[1,0]],[[1275,153],[-70,-43],[-142,15],[-249,-109],[-52,54],[-128,58],[-276,-16],[-73,-74],[-74,-2],[-91,41],[-85,-10],[-35,-38]],[[1275,153],[2,1]],[[1277,155],[-2,-2]],[[1279,156],[-2,-1]],[[1278,155],[1,1]],[[1864,1013],[-78,-195],[-3,-161],[-52,-183],[-361,-79],[-91,-239]],[[1864,1013],[6,8]],[[1989,1099],[-119,-78]],[[1989,1099],[32,33],[2,1],[14,26],[7,19]],[[2043,1179],[-54,-80]],[[2063,1238],[-20,-59]],[[2044,1179],[18,51],[2,8]],[[2076,1305],[-12,-66]],[[2064,1239],[12,66]],[[2084,1353],[-8,-48]],[[2405,3211],[-27,-14],[-79,-182],[30,-112],[77,-96],[132,-70],[28,-147],[94,-96],[-18,-174],[-72,-108]],[[2408,3227],[-3,-16]],[[2405,3211],[3,16]],[[2466,3275],[-58,-48]],[[2470,2179],[49,21]],[[2570,2212],[-50,-12]],[[2538,2202],[32,10]],[[2575,4096],[-34,-135],[-45,-21],[-55,-163],[115,-125],[110,-69],[7,-82],[-36,-133]],[[1277,154],[1,1],[-1,0],[0,-1]],[[2044,1179],[-1,0],[0,-1],[1,1]],[[469,2311],[0,-1],[1,0],[-1,1]],[[2646,3220],[-1,-3]],[[497,2300],[3,80]],[[3050,3104],[23,-10],[17,-14],[12,-17],[8,-20],[-13,-11],[-32,-22],[-15,-8],[-16,20],[-18,11],[-22,1],[-25,-11],[8,-6],[4,0],[3,-2],[5,-13],[-58,6],[-53,29],[-43,37],[-27,30],[0,20],[19,-6],[42,-7],[20,-7],[-1,10],[1,32],[54,-21],[107,-21]],[[2740,4096],[45,0],[-15,-42],[14,-54],[36,-38],[143,-94],[15,-25],[-30,-61],[3,-30],[12,-24],[16,-11],[43,-15],[52,-36],[27,-41],[-33,-32],[22,-20],[-22,-20],[-35,41],[-20,-27],[-19,-50],[-34,-27],[-44,15],[-30,35],[-38,74],[-127,142],[-88,55],[-84,-12],[15,-18],[15,-32],[10,-13],[-30,13],[-10,7],[-20,0],[15,-40],[46,-49],[19,-33],[56,10],[30,-46],[12,-72],[2,-65],[8,-25],[21,-31],[23,-26],[37,-25],[1,-26],[-17,-16],[-34,16],[-18,0],[-11,-20],[-29,-80],[-65,29],[-16,11],[16,-25],[27,-23],[57,-35],[-19,-45],[12,-35],[25,-30],[21,-32],[-76,21],[-30,-6],[-12,-35],[20,18],[-1,2],[40,-21],[15,-23],[5,-39],[5,-21],[-1,-9],[4,-13],[22,-26],[15,-35],[-12,-26],[-33,-33],[-4,-25],[11,-124],[20,-52],[83,-158],[27,-32],[83,-58],[0,-18],[-10,-53],[0,-10],[-50,-40],[-1,-50],[14,-44],[29,-33],[39,-16],[0,-22],[-47,-19],[-48,3],[-40,21],[-25,37],[-10,-6],[-22,-7],[-10,-7],[-24,90],[18,217],[-33,101],[21,0],[-66,176],[-28,128],[-28,35],[-39,-52],[37,-70],[14,-11],[4,-11],[-15,-84],[16,-30],[68,-63],[16,-48],[-9,-86],[-28,-85],[-49,-79],[-74,-67],[-56,-9],[-33,-97],[17,-100],[92,-17],[14,27],[43,59],[44,49],[20,-4],[-11,-43],[-20,-37],[-4,-41],[35,-51],[-3,-65],[0,-12],[114,-145],[-31,-64],[-22,22],[-20,-23],[-26,-60],[-51,-65],[-8,-26],[-1,-29],[-12,-45],[-16,-20],[-53,-45],[-12,-24],[-7,-34],[-17,-33],[-35,-47],[-20,0],[-35,30],[-43,2],[-49,-3],[-54,12],[-33,38],[-22,103],[-14,21],[-67,-17],[4,-37],[33,-37],[21,-19],[-6,-41],[-10,-40],[-2,-44],[18,-49],[-61,-2],[-20,2],[45,-76],[1,-128],[-26,-203],[9,-115],[-13,-35],[-36,-36],[-73,-59],[-42,-27],[-42,-14],[-54,3],[-127,58],[-46,10],[-52,0],[-52,-10],[-49,-20],[-97,-69],[-37,-36],[-27,-38],[-24,-54],[-35,-151],[-22,-51],[-26,-25],[-34,-7],[-50,0],[-29,7],[-62,29],[-38,5],[-29,-7],[-59,-26],[-31,-8],[-110,0],[-4,-2],[-859,0],[0,4096],[2690,0],[0,-13],[9,-3],[7,0],[4,-3],[-1,-14],[21,0],[10,30],[0,3]],[[555,2197],[-54,1],[-129,66],[64,166],[33,-33],[161,-33],[-75,-167]],[[2652,3220],[57,-35],[-19,-45],[58,-97],[-106,15],[-12,-35],[19,20],[43,-25],[-73,1],[-15,138],[-32,33],[9,21],[71,9]],[[2719,3308],[-29,-80],[-38,17],[17,77],[50,-14]],[[2284,1575],[64,145],[3,21],[-25,0],[106,126],[173,16],[8,-43],[99,-75],[-2,-38],[47,-9],[-20,-25],[30,1],[2,-68],[-75,-31],[-15,62],[-30,6],[18,29],[-27,-6],[-14,-66],[51,-10],[9,-37],[-46,-47],[5,-23],[-39,-4],[-5,-37],[-50,-27],[-18,-51],[67,16],[-26,-39],[-103,31],[-53,-50],[-33,8],[-28,47],[53,-30],[30,34],[-36,79],[-40,-51],[-65,-15],[1,162],[-16,-1]],[[1313,2927],[110,-27],[26,35],[37,-16],[-23,-100],[72,-200],[-57,-91],[-55,8],[33,-59],[-75,-96],[-54,44],[-162,-21],[10,112],[29,41],[-108,-55],[-27,40],[-55,4],[-25,78],[-46,12],[110,204],[-31,80],[-31,18],[-92,-45],[-121,45],[-59,-28],[23,-60],[-60,-67],[-41,1],[-23,76],[-36,-43],[-22,29],[-53,-81],[-24,5],[24,-49],[-42,-55],[26,-26],[43,17],[34,-90],[-172,78],[-61,-30],[-75,61],[-49,-30],[-53,43],[56,70],[73,0],[83,80],[15,61],[32,16],[-10,43],[48,145],[-17,69],[23,17],[-30,27],[-47,-47],[-75,-8],[-85,41],[22,25],[-14,37],[33,31],[-55,83],[-45,46],[-112,44],[-38,90],[30,18],[-23,138],[24,66],[52,48],[58,11],[3,35],[100,41],[-9,36],[76,11],[7,-32],[42,-11],[9,-41],[49,-27],[79,18],[93,87],[29,-29],[-20,-84],[38,-11],[34,-105],[51,-6],[-11,-67],[81,8],[9,-86],[-29,-12],[2,-42],[31,-79],[-15,-28],[45,-64],[-53,-29],[102,-21],[-11,-18],[29,-17],[66,16],[19,26],[120,27],[51,54],[71,-55],[-20,-161],[65,-81],[-34,-80],[58,-86]],[[1201,2879],[3,2],[-3,-1],[0,-1]],[[1232,2720],[0,1],[-91,83],[91,-84]],[[461,3191],[2,1],[2,37],[-4,-38]],[[469,3267],[24,-9],[-23,13],[-1,-4]],[[516,3287],[5,-21],[-5,21]],[[587,3364],[82,-95],[-80,97],[-2,-2]],[[732,3283],[16,4],[11,41],[-3,2],[-24,-47]]]}