{"objects":{"water":{"type":"GeometryCollection","geometries":[{"type":"Polygon","properties":{"source":"naturalearthdata.com","kind":"ocean","area":1576712559132672,"sort_rank":200,"min_zoom":0.0,"id":1},"arcs":[[13],[14],[15],[16],[17],[18]]},{"type":"LineString","properties":{"source":"naturalearthdata.com","kind":"ocean","sort_rank":205,"boundary":true,"min_zoom":0.0,"id":31},"arcs":[19]},{"type":"LineString","properties":{"source":"naturalearthdata.com","kind":"ocean","sort_rank":205,"boundary":true,"min_zoom":0.0,"id":1649},"arcs":[20]}]},"buildings":{"type":"GeometryCollection","geometries":[]},"places":{"type":"GeometryCollection","geometries":[]},"transit":{"type":"GeometryCollection","geometries":[]},"pois":{"type":"GeometryCollection","geometries":[{"type":"Point","properties":{"kind":"nature_reserve","name:en":"Gunung Melintang Nature Park","name":"Taman Wisata Alam Gunung Melintang","area":223401000,"source":"openstreetmap.org","min_zoom":8.39,"tier":2,"id":542807140},"coordinates":[3506,951]}]},"boundaries":{"type":"GeometryCollection","geometries":[{"type":"LineString","properties":{"name:right:yo":"Indon\u00e9s\u00ed\u00e0","name:left:la":"Malaesia","name:right:qu":"Indunisya","name:right:yi":"\u05d0\u05d9\u05e0\u05d3\u05d0\u05e0\u05e2\u05d6\u05d9\u05e2","name:right:hy":"\u053b\u0576\u0564\u0578\u0576\u0565\u0566\u056b\u0561","name:left:li":"Maleisi\u00eb","name:right:hr":"Indonezija","name:left:sq":"Malajzia","name:right:hu":"Indon\u00e9zia","name:left:ss":"IMaleshiya","name:left:lo":"\u0e9b\u0eb0\u0ec0\u0e97\u0e94\u0ea1\u0eb2\u0ec0\u0ea5\u0ec0\u0e8a\u0e8d","name:left:sl":"Malezija","name:left:so":"Malaysiya","name:left:lt":"Malaizija","name:left:sh":"Malezija","name:left:lv":"Malaizija","name:left:vo":"Malaysiy\u00e4n","name:left:se":"Malesia","name:left:sg":"Malez\u00efi","name:left:sa":"\u092e\u0932\u092f\u0947\u0936\u093f\u092f\u093e","name:right:he":"\u05d0\u05d9\u05e0\u05d3\u05d5\u05e0\u05d6\u05d9\u05d4","name:right:af":"Indonesi\u00eb","name:left:ce":"\u041c\u0430\u043b\u0430\u0439\u0437\u0438","name:right:am":"\u12a2\u1295\u12f6\u1294\u12e5\u12eb","name:left:ca":"Mal\u00e0isia","source":"openstreetmap.org","name:right:fr":"Indon\u00e9sie","name:right:ar":"\u0625\u0646\u062f\u0648\u0646\u064a\u0633\u064a\u0627","name:left:cv":"\u041c\u0430\u043b\u0430\u0439\u0437\u0438","name:right:az":"\u0130ndoneziya","name:left:cs":"Malajsie","name:left:ka":"\u10db\u10d0\u10da\u10d0\u10d8\u10d6\u10d8\u10d0","name:left:yi":"\u05de\u05d0\u05dc\u05d9\u05d9\u05d6\u05d9\u05e2","name:left:km":"\u1798\u17c9\u17b6\u17a1\u17c1\u179f\u17ca\u17b8","name:right:ht":"Endonezi","name:left:ko":"\ub9d0\ub808\uc774\uc2dc\uc544","name:left:kn":"\u0cae\u0cb2\u0cc7\u0cb6\u0cbf\u0caf","name:right:is":"Ind\u00f3nes\u00eda","name:left:ro":"Malaezia","name:left:kk":"\u041c\u0430\u043b\u0430\u0439\u0437\u0438\u044f","name:right:ru":"\u0418\u043d\u0434\u043e\u043d\u0435\u0437\u0438\u044f","name:left:ku":"Malezya","name:left:kw":"Malaysi","name:left:kv":"\u041c\u0430\u043b\u0430\u0439\u0437\u0438\u044f","name:right:ro":"Indonezia","name:left:ru":"\u041c\u0430\u043b\u0430\u0439\u0437\u0438\u044f","name:left:sr":"\u041c\u0430\u043b\u0435\u0437\u0438\u0458\u0430","name:left:ky":"\u041c\u0430\u043b\u0430\u0439\u0437\u0438\u044f","name":"Malaysia - Indonesia","name:right:bn":"\u0987\u09a8\u09cd\u09a6\u09cb\u09a8\u09c7\u09b6\u09bf\u09af\u09bc\u09be","name:right:bo":"\u0f68\u0f72\u0f53\u0f0b\u0f62\u0fa1\u0f74\u0f0b\u0f53\u0f72\u0f0b\u0f64\u0f72\u0f66\u0f0b\u0f61\u0f0d","name:right:hi":"\u0907\u0902\u0921\u094b\u0928\u0947\u0936\u093f\u092f\u093e","name:right:ba":"\u0418\u043d\u0434\u043e\u043d\u0435\u0437\u0438\u044f","name:right:th":"\u0e1b\u0e23\u0e30\u0e40\u0e17\u0e28\u0e2d\u0e34\u0e19\u0e42\u0e14\u0e19\u0e35\u0e40\u0e0b\u0e35\u0e22","name:right:bg":"\u0418\u043d\u0434\u043e\u043d\u0435\u0437\u0438\u044f","name:right:be":"\u0406\u043d\u0434\u0430\u043d\u0435\u0437\u0456\u044f","name:left:zh":"\u9a6c\u6765\u897f\u4e9a","name:right:za":"Yindunizsihya","name:right:br":"Indonezia","name:right:bs":"Indonezija","name:right:zh":"\u5370\u5ea6\u5c3c\u897f\u4e9a","name:left:za":"Majlaizsihya","name:left:uz":"Malayziya","name:right:nl":"Indonesi\u00eb","name:right:wa":"Indonezeye","name:left:sk":"Malajzia","name:left:nv":"Mal\u00e9\u00edzha","name:left:ur":"\u0645\u0644\u0627\u0626\u06cc\u0634\u06cc\u0627","name:right:wo":"Endoneesi","name:right:ne":"\u0907\u0923\u094d\u0921\u094b\u0928\u0947\u0936\u093f\u092f\u093e","id:right":-304751,"name:left:uk":"\u041c\u0430\u043b\u0430\u0439\u0437\u0456\u044f","name:left:nl":"Maleisi\u00eb","name:right:gv":"Yn Indoneesh","name:right:fa":"\u0627\u0646\u062f\u0648\u0646\u0632\u06cc","name:right:nv":"Indon\u00ed\u00edzha","name:left:ne":"\u092e\u0932\u0947\u0936\u093f\u092f\u093e","name:left:ug":"\u0645\u0627\u0644\u0627\u064a\u0633\u0649\u064a\u0627","name:left:na":"Maraidja","name:left:eo":"Malajzio","name:left:el":"\u039c\u03b1\u03bb\u03b1\u03b9\u03c3\u03af\u03b1","kind_detail":"2","name:left:pl":"Malezja","name:left:wo":"Maleesi","name:left:es":"Malasia","name:left:mi":"Mar\u0113hia","name:left:et":"Malaisia","name:right:om":"Indoneeshiyaa","name:right:zh-min-nan":"\u00ccn-n\u00ee","name:right:ps":"\u0627\u0646\u062f\u0648\u0646\u064a\u0632\u064a\u0627","name:right:pt":"Indon\u00e9sia","name:left:mk":"\u041c\u0430\u043b\u0435\u0437\u0438\u0458\u0430","name:left:tr":"Malezya","name:left:tt":"\u041c\u0430\u043b\u0430\u0439\u0437\u0438\u044f","name:left:mn":"\u041c\u0430\u043b\u0430\u0439\u0437","name:left:ml":"\u0d2e\u0d32\u0d47\u0d37\u0d4d\u0d2f","name:left:th":"\u0e1b\u0e23\u0e30\u0e40\u0e17\u0e28\u0e21\u0e32\u0e40\u0e25\u0e40\u0e0b\u0e35\u0e22","name:right:pa":"\u0a07\u0a70\u0a21\u0a4b\u0a28\u0a47\u0a38\u0a3c\u0a40\u0a06","name:left:zh-min-nan":"M\u00e1-l\u00e2i-se-a","name:left:tk":"Mala\u00fdzi\u00fda","name:left:tl":"Malasya","name:right:tr":"Endonezya","name:left:mt":"Mala\u017cja","name:left:ta":"\u0bae\u0bb2\u0bc7\u0b9a\u0bbf\u0baf\u0bbe","name:left:my":"\u1019\u101c\u1031\u1038\u101b\u103e\u102c\u1038\u1014\u102d\u102f\u1004\u103a\u1004\u1036","name:right:pl":"Indonezja","name:left:te":"\u0c2e\u0c32\u0c47\u0c37\u0c3f\u0c2f\u0c3e","osm_relation":true,"name:left:tg":"\u041c\u0430\u043b\u0430\u0439\u0437\u0438\u044f","name:left:pt":"Mal\u00e1sia","name:left:mr":"\u092e\u0932\u0947\u0936\u093f\u092f\u093e","name:left:dz":"\u0f58\u0f0b\u0f63\u0f7a\u0f0b\u0f64\u0f72\u0f0b\u0f61\u0f0b","name:right:ga":"An Indin\u00e9is","name:left:dv":"\u0789\u07ac\u078d\u07ad\u079d\u07a8\u0794\u07a7","name:right:ug":"\u06be\u0649\u0646\u062f\u0648\u0646\u06d0\u0632\u0649\u064a\u06d5","name:left:hi":"\u092e\u0932\u0947\u0936\u093f\u092f\u093e","name:right:lb":"Indonesien","name:right:uk":"\u0406\u043d\u0434\u043e\u043d\u0435\u0437\u0456\u044f","name:left:he":"\u05de\u05dc\u05d6\u05d9\u05d4","name:right:ln":"Indonez\u00ed","name:right:kv":"\u0418\u043d\u0434\u043e\u043d\u0435\u0437\u0438\u044f","name:right:li":"Indonesi\u00eb","name:right:lt":"Indonezija","name:right:ur":"\u0627\u0646\u0688\u0648\u0646\u06cc\u0634\u06cc\u0627","name:right:lv":"Indon\u0113zija","name:left:hy":"\u0544\u0561\u056c\u0561\u0566\u056b\u0561","name:left:hu":"Malajzia","name:right:te":"\u0c07\u0c02\u0c21\u0c4b\u0c28\u0c47\u0c37\u0c3f\u0c2f\u0c3e","name:left:ht":"Malezi","name:right:uz":"Indoneziya","name:left:hr":"Malezija","name:left:ga":"An Mhalaeisia","name:left:it":"Malesia","name:left:gd":"Malaidhsia","sort_rank":262,"name:right:gd":"An Innd-Innse","name:right:gu":"\u0a88\u0a82\u0aa1\u0acb\u0aa8\u0ac7\u0ab6\u0abf\u0aaf\u0abe","name:left:gl":"Malaisia","name:right:rw":"Indonesiya","name:left:gu":"\u0aae\u0ab2\u0ac7\u0ab6\u0abf\u0aaf\u0abe","name:right:os":"\u0418\u043d\u0434\u043e\u043d\u0435\u0437\u0438","name:left:gv":"Yn Valaysia","name:right:or":"\u0b07\u0b23\u0b4d\u0b21\u0b4b\u0b28\u0b47\u0b38\u0b3f\u0b06","name:left":"Malaysia","name:right:mk":"\u0418\u043d\u0434\u043e\u043d\u0435\u0437\u0438\u0458\u0430","name:right:mi":"Initon\u012bhia","name:right:sr":"\u0418\u043d\u0434\u043e\u043d\u0435\u0437\u0438\u0458\u0430","name:right:mn":"\u0418\u043d\u0434\u043e\u043d\u0435\u0437","name:right:et":"Indoneesia","name:right:vo":"Lind\u00e4na-Se\u00e4nu\u00e4ns","name:left:os":"\u041c\u0430\u043b\u0430\u0439\u0437\u0438","name:left:or":"\u0b2e\u0b3e\u0b32\u0b47\u0b38\u0b3f\u0b06","name:right:mg":"Indonezia","name:right:my":"\u1021\u1004\u103a\u1012\u102d\u102f\u1014\u102e\u1038\u101b\u103e\u102c\u1038\u1014\u102d\u102f\u1004\u103a\u1004\u1036","name:right:mr":"\u0907\u0902\u0921\u094b\u0928\u0947\u0936\u093f\u092f\u093e","name:left:oc":"Mal\u00e0isia","name:right:na":"Indonitsiya","name:right:eo":"Indonezio","name:right:mt":"Indone\u017cja","kind":"country","name:left:fa":"\u0645\u0627\u0644\u0632\u06cc","name:left:fo":"Maleisia","name:right:sk":"Indon\u00e9zia","name:left:fi":"Malesia","name:left:fr":"Malaisie","name:right:ay":"Indunisya","name:right:jv":"Indon\u00e9sia","name:right:fy":"Yndoneezje","name:left:fy":"Maleizje","name:left:bs":"Malezija","name:right:ja":"\u30a4\u30f3\u30c9\u30cd\u30b7\u30a2","name:right:sq":"Indonezia","name:right:ss":"INdonesiya","name:left:ja":"\u30de\u30ec\u30fc\u30b7\u30a2","name:right:su":"Indon\u00e9sia","name:right:sv":"Indonesien","name:right:si":"\u0d89\u0db1\u0dca\u0daf\u0dd4\u0db1\u0dd3\u0dc3\u0dd2\u0dba\u0dcf\u0dc0","name:right:sh":"Indonezija","name:left:qu":"Malasya","name:left:ba":"\u041c\u0430\u043b\u0430\u0439\u0437\u0438\u044f","name:right:sm":"Indyunisia","name:left:bg":"\u041c\u0430\u043b\u0430\u0439\u0437\u0438\u044f","name:right:so":"Indunisiya","name:left:be":"\u041c\u0430\u043b\u0430\u0439\u0437\u0456\u044f","name:right:sa":"\u0907\u0923\u094d\u0921\u094b\u0928\u0947\u0936\u093f\u092f\u093e","name:right:sl":"Indonezija","name:left:bn":"\u09ae\u09be\u09b2\u09af\u09bc\u09c7\u09b6\u09bf\u09af\u09bc\u09be","name:left:bo":"\u0f58\u0f0b\u0f63\u0f0b\u0f64\u0f72\u0f0b\u0f61\u0f0d","name:right:sg":"\u00canndonez\u00efi","name:right":"Indonesia","name:right:co":"Indunesia","name:right:ca":"Indon\u00e8sia","name:right:ml":"\u0d07\u0d28\u0d4d\u0d24\u0d4b\u0d28\u0d47\u0d37\u0d4d\u0d2f","name:right:ce":"\u0418\u043d\u0434\u043e\u043d\u0435\u0437\u0438","id":-2108121,"name:right:zh-yue":"\u5370\u5c3c","id:left":-2108121,"min_zoom":8.0,"name:right:cs":"Indon\u00e9sie","name:right:cu":"\u0407\u043d\u0434\u043e\u043d\u0438\u0441\u0457\ua657","name:right:iu":"\u1404\u14c5\u14ef\u140a","name:right:cv":"\u0418\u043d\u0434\u043e\u043d\u0435\u0437\u0438","name:right:ka":"\u10d8\u10dc\u10d3\u10dd\u10dc\u10d4\u10d6\u10d8\u10d0","name:left:io":"Malaizia","name:left:ar":"\u0645\u0627\u0644\u064a\u0632\u064a\u0627","name:right:tt":"\u0418\u043d\u0434\u043e\u043d\u0435\u0437\u0438\u044f","name:right:kk":"\u0418\u043d\u0434\u043e\u043d\u0435\u0437\u0438\u044f","name:right:km":"\u17a5\u178e\u17d2\u178c\u17bc\u1793\u17c1\u179f\u17ca\u17b8","name:left:az":"Malayziya","name:right:ko":"\uc778\ub3c4\ub124\uc2dc\uc544","name:right:kn":"\u0c87\u0c82\u0ca1\u0ccb\u0ca8\u0cc7\u0cb7\u0ccd\u0caf\u0cbe","name:right:tl":"Indonesya","name:left:af":"Maleisi\u00eb","name:right:ku":"\u00cendonezya","name:right:kw":"Indonesi","name:right:tk":"Indonezi\u00fda","name:right:ky":"\u0418\u043d\u0434\u043e\u043d\u0435\u0437\u0438\u044f","name:left:an":"Malaisia","name:left:am":"\u121b\u120c\u12e2\u12eb","name:right:tg":"\u0418\u043d\u0434\u043e\u043d\u0435\u0437\u0438\u044f","name:left:is":"Malas\u00eda","name:right:ta":"\u0b87\u0ba8\u0bcd\u0ba4\u0bcb\u0ba9\u0bc7\u0b9a\u0bbf\u0baf\u0bbe","name:right:io":"Indonezia","name:right:de":"Indonesien","name:right:da":"Indonesien","name:right:el":"\u0399\u03bd\u03b4\u03bf\u03bd\u03b7\u03c3\u03af\u03b1","name:left:zh-yue":"\u99ac\u4f86\u897f\u4e9e","name:left:pa":"\u0a2e\u0a32\u0a47\u0a38\u0a3c\u0a40\u0a06","name:right:dv":"\u0787\u07a8\u0782\u07b0\u0791\u07ae\u0782\u07ad\u079d\u07a8\u0794\u07a7","name:left:rw":"Malesiya"},"arcs":[0]},{"type":"LineString","properties":{"name:pt":"Mal\u00e1sia","name:ka":"\u10db\u10d0\u10da\u10d0\u10d8\u10d6\u10d8\u10d0","name:ko":"\ub9d0\ub808\uc774\uc2dc\uc544","name:cv":"\u041c\u0430\u043b\u0430\u0439\u0437\u0438","name:km":"\u1798\u17c9\u17b6\u17a1\u17c1\u179f\u17ca\u17b8","name:cs":"Malajsie","name:tt":"\u041c\u0430\u043b\u0430\u0439\u0437\u0438\u044f","name:kw":"Malaysi","name:kv":"\u041c\u0430\u043b\u0430\u0439\u0437\u0438\u044f","name:ku":"Malezya","name:ro":"Malaezia","name:tl":"Malasya","name:zh-min-nan":"M\u00e1-l\u00e2i-se-a","name:os":"\u041c\u0430\u043b\u0430\u0439\u0437\u0438","name:or":"\u0b2e\u0b3e\u0b32\u0b47\u0b38\u0b3f\u0b06","name:ce":"\u041c\u0430\u043b\u0430\u0439\u0437\u0438","name:ta":"\u0bae\u0bb2\u0bc7\u0b9a\u0bbf\u0baf\u0bbe","name:tg":"\u041c\u0430\u043b\u0430\u0439\u0437\u0438\u044f","name:ca":"Mal\u00e0isia","name:te":"\u0c2e\u0c32\u0c47\u0c37\u0c3f\u0c2f\u0c3e","name:hu":"Malajzia","sort_rank":262,"name:qu":"Malasya","name:sr":"\u041c\u0430\u043b\u0435\u0437\u0438\u0458\u0430","name:dz":"\u0f58\u0f0b\u0f63\u0f7a\u0f0b\u0f64\u0f72\u0f0b\u0f61\u0f0b","source":"openstreetmap.org","osm_relation":true,"name:kn":"\u0cae\u0cb2\u0cc7\u0cb6\u0cbf\u0caf","name:dv":"\u0789\u07ac\u078d\u07ad\u079d\u07a8\u0794\u07a7","name:lv":"Malaizija","name:lt":"Malaizija","name:uz":"Malayziya","name:kk":"\u041c\u0430\u043b\u0430\u0439\u0437\u0438\u044f","name:he":"\u05de\u05dc\u05d6\u05d9\u05d4","kind":"country","name:ur":"\u0645\u0644\u0627\u0626\u06cc\u0634\u06cc\u0627","name:la":"Malaesia","name:uk":"\u041c\u0430\u043b\u0430\u0439\u0437\u0456\u044f","name:hy":"\u0544\u0561\u056c\u0561\u0566\u056b\u0561","name:ug":"\u0645\u0627\u0644\u0627\u064a\u0633\u0649\u064a\u0627","name:li":"Maleisi\u00eb","name:hr":"Malezija","name:lo":"\u0e9b\u0eb0\u0ec0\u0e97\u0e94\u0ea1\u0eb2\u0ec0\u0ea5\u0ec0\u0e8a\u0e8d","name:oc":"Mal\u00e0isia","name:el":"\u039c\u03b1\u03bb\u03b1\u03b9\u03c3\u03af\u03b1","name:eo":"Malajzio","name":"Malaysia","name:tk":"Mala\u00fdzi\u00fda","min_zoom":8.0,"name:th":"\u0e1b\u0e23\u0e30\u0e40\u0e17\u0e28\u0e21\u0e32\u0e40\u0e25\u0e40\u0e0b\u0e35\u0e22","name:yi":"\u05de\u05d0\u05dc\u05d9\u05d9\u05d6\u05d9\u05e2","name:et":"Malaisia","name:es":"Malasia","name:ht":"Malezi","name:mt":"Mala\u017cja","name:az":"Malayziya","name:mr":"\u092e\u0932\u0947\u0936\u093f\u092f\u093e","name:ar":"\u0645\u0627\u0644\u064a\u0632\u064a\u0627","name:my":"\u1019\u101c\u1031\u1038\u101b\u103e\u102c\u1038\u1014\u102d\u102f\u1004\u103a\u1004\u1036","name:io":"Malaizia","name:is":"Malas\u00eda","name:am":"\u121b\u120c\u12e2\u12eb","name:it":"Malesia","name:an":"Malaisia","name:ml":"\u0d2e\u0d32\u0d47\u0d37\u0d4d\u0d2f","name:rw":"Malesiya","name:mi":"Mar\u0113hia","name:pl":"Malezja","name:mk":"\u041c\u0430\u043b\u0435\u0437\u0438\u0458\u0430","name:af":"Maleisi\u00eb","name:fa":"\u0645\u0627\u0644\u0632\u06cc","name:mn":"\u041c\u0430\u043b\u0430\u0439\u0437","kind_detail":"2","name:ky":"\u041c\u0430\u043b\u0430\u0439\u0437\u0438\u044f","name:hi":"\u092e\u0932\u0947\u0936\u093f\u092f\u093e","id":-2108121,"name:fr":"Malaisie","name:za":"Majlaizsihya","name:zh-yue":"\u99ac\u4f86\u897f\u4e9e","name:fy":"Maleizje","name:vo":"Malaysiy\u00e4n","name:zh":"\u9a6c\u6765\u897f\u4e9a","name:gv":"Yn Valaysia","name:pa":"\u0a2e\u0a32\u0a47\u0a38\u0a3c\u0a40\u0a06","name:sl":"Malezija","name:nl":"Maleisi\u00eb","name:ja":"\u30de\u30ec\u30fc\u30b7\u30a2","name:sh":"Malezija","name:sg":"Malez\u00efi","name:na":"Maraidja","name:se":"Malesia","name:so":"Malaysiya","name:ne":"\u092e\u0932\u0947\u0936\u093f\u092f\u093e","name:sa":"\u092e\u0932\u092f\u0947\u0936\u093f\u092f\u093e","name:bs":"Malezija","name:bn":"\u09ae\u09be\u09b2\u09af\u09bc\u09c7\u09b6\u09bf\u09af\u09bc\u09be","name:bo":"\u0f58\u0f0b\u0f63\u0f0b\u0f64\u0f72\u0f0b\u0f61\u0f0d","name:sk":"Malajzia","name:ru":"\u041c\u0430\u043b\u0430\u0439\u0437\u0438\u044f","name:be":"\u041c\u0430\u043b\u0430\u0439\u0437\u0456\u044f","name:bg":"\u041c\u0430\u043b\u0430\u0439\u0437\u0438\u044f","name:ss":"IMaleshiya","name:ba":"\u041c\u0430\u043b\u0430\u0439\u0437\u0438\u044f","name:nv":"Mal\u00e9\u00edzha","name:sq":"Malajzia","name:ga":"An Mhalaeisia","name:gd":"Malaidhsia","name:wo":"Maleesi","name:gl":"Malaisia","name:fo":"Maleisia","name:tr":"Malezya","name:gu":"\u0aae\u0ab2\u0ac7\u0ab6\u0abf\u0aaf\u0abe","name:fi":"Malesia"},"arcs":[1]},{"type":"LineString","properties":{"name:pt":"Mal\u00e1sia","name:ka":"\u10db\u10d0\u10da\u10d0\u10d8\u10d6\u10d8\u10d0","name:ko":"\ub9d0\ub808\uc774\uc2dc\uc544","name:cv":"\u041c\u0430\u043b\u0430\u0439\u0437\u0438","name:km":"\u1798\u17c9\u17b6\u17a1\u17c1\u179f\u17ca\u17b8","name:cs":"Malajsie","name:tt":"\u041c\u0430\u043b\u0430\u0439\u0437\u0438\u044f","name:kw":"Malaysi","name:kv":"\u041c\u0430\u043b\u0430\u0439\u0437\u0438\u044f","name:ku":"Malezya","name:az":"Malayziya","name:tl":"Malasya","name:zh-min-nan":"M\u00e1-l\u00e2i-se-a","name:os":"\u041c\u0430\u043b\u0430\u0439\u0437\u0438","name:or":"\u0b2e\u0b3e\u0b32\u0b47\u0b38\u0b3f\u0b06","name:ce":"\u041c\u0430\u043b\u0430\u0439\u0437\u0438","name:ta":"\u0bae\u0bb2\u0bc7\u0b9a\u0bbf\u0baf\u0bbe","name:tg":"\u041c\u0430\u043b\u0430\u0439\u0437\u0438\u044f","name:ca":"Mal\u00e0isia","name:te":"\u0c2e\u0c32\u0c47\u0c37\u0c3f\u0c2f\u0c3e","name:li":"Maleisi\u00eb","name:fo":"Maleisia","sort_rank":262,"name:hr":"Malezija","name:ba":"\u041c\u0430\u043b\u0430\u0439\u0437\u0438\u044f","name:dz":"\u0f58\u0f0b\u0f63\u0f7a\u0f0b\u0f64\u0f72\u0f0b\u0f61\u0f0b","source":"openstreetmap.org","name:nv":"Mal\u00e9\u00edzha","name:kn":"\u0cae\u0cb2\u0cc7\u0cb6\u0cbf\u0caf","name:dv":"\u0789\u07ac\u078d\u07ad\u079d\u07a8\u0794\u07a7","name:za":"Majlaizsihya","name:ar":"\u0645\u0627\u0644\u064a\u0632\u064a\u0627","name:lv":"Malaizija","name:lt":"Malaizija","name:uz":"Malayziya","name:kk":"\u041c\u0430\u043b\u0430\u0439\u0437\u0438\u044f","name:he":"\u05de\u05dc\u05d6\u05d9\u05d4","name:eo":"Malajzio","name:ur":"\u0645\u0644\u0627\u0626\u06cc\u0634\u06cc\u0627","name:la":"Malaesia","name:uk":"\u041c\u0430\u043b\u0430\u0439\u0437\u0456\u044f","name:hy":"\u0544\u0561\u056c\u0561\u0566\u056b\u0561","name:ug":"\u0645\u0627\u0644\u0627\u064a\u0633\u0649\u064a\u0627","name:hu":"Malajzia","name:qu":"Malasya","name:lo":"\u0e9b\u0eb0\u0ec0\u0e97\u0e94\u0ea1\u0eb2\u0ec0\u0ea5\u0ec0\u0e8a\u0e8d","name:oc":"Mal\u00e0isia","name:el":"\u039c\u03b1\u03bb\u03b1\u03b9\u03c3\u03af\u03b1","kind":"country","name":"Malaysia","name:tk":"Mala\u00fdzi\u00fda","min_zoom":8.0,"name:th":"\u0e1b\u0e23\u0e30\u0e40\u0e17\u0e28\u0e21\u0e32\u0e40\u0e25\u0e40\u0e0b\u0e35\u0e22","name:yi":"\u05de\u05d0\u05dc\u05d9\u05d9\u05d6\u05d9\u05e2","name:et":"Malaisia","name:es":"Malasia","name:mt":"Mala\u017cja","name:ro":"Malaezia","name:mr":"\u092e\u0932\u0947\u0936\u093f\u092f\u093e","name:pa":"\u0a2e\u0a32\u0a47\u0a38\u0a3c\u0a40\u0a06","name:my":"\u1019\u101c\u1031\u1038\u101b\u103e\u102c\u1038\u1014\u102d\u102f\u1004\u103a\u1004\u1036","name:io":"Malaizia","name:is":"Malas\u00eda","name:am":"\u121b\u120c\u12e2\u12eb","name:it":"Malesia","name:an":"Malaisia","name:ml":"\u0d2e\u0d32\u0d47\u0d37\u0d4d\u0d2f","name:rw":"Malesiya","name:mi":"Mar\u0113hia","name:pl":"Malezja","name:mk":"\u041c\u0430\u043b\u0435\u0437\u0438\u0458\u0430","name:af":"Maleisi\u00eb","name:fa":"\u0645\u0627\u0644\u0632\u06cc","name:mn":"\u041c\u0430\u043b\u0430\u0439\u0437","name:ss":"IMaleshiya","kind_detail":"2","name:hi":"\u092e\u0932\u0947\u0936\u093f\u092f\u093e","id":-2108121,"name:fr":"Malaisie","name:tr":"Malezya","name:ky":"\u041c\u0430\u043b\u0430\u0439\u0437\u0438\u044f","name:zh-yue":"\u99ac\u4f86\u897f\u4e9e","name:fy":"Maleizje","name:vo":"Malaysiy\u00e4n","name:zh":"\u9a6c\u6765\u897f\u4e9a","name:so":"Malaysiya","name:sl":"Malezija","name:nl":"Maleisi\u00eb","name:ja":"\u30de\u30ec\u30fc\u30b7\u30a2","name:sh":"Malezija","name:sg":"Malez\u00efi","name:na":"Maraidja","name:se":"Malesia","name:ne":"\u092e\u0932\u0947\u0936\u093f\u092f\u093e","name:sa":"\u092e\u0932\u092f\u0947\u0936\u093f\u092f\u093e","name:bs":"Malezija","name:bn":"\u09ae\u09be\u09b2\u09af\u09bc\u09c7\u09b6\u09bf\u09af\u09bc\u09be","name:bo":"\u0f58\u0f0b\u0f63\u0f0b\u0f64\u0f72\u0f0b\u0f61\u0f0d","name:sk":"Malajzia","name:ru":"\u041c\u0430\u043b\u0430\u0439\u0437\u0438\u044f","name:be":"\u041c\u0430\u043b\u0430\u0439\u0437\u0456\u044f","name:bg":"\u041c\u0430\u043b\u0430\u0439\u0437\u0438\u044f","name:wo":"Maleesi","name:sr":"\u041c\u0430\u043b\u0435\u0437\u0438\u0458\u0430","osm_relation":true,"name:sq":"Malajzia","name:ga":"An Mhalaeisia","name:gd":"Malaidhsia","name:ht":"Malezi","name:gl":"Malaisia","maritime_boundary":true,"name:gv":"Yn Valaysia","name:gu":"\u0aae\u0ab2\u0ac7\u0ab6\u0abf\u0aaf\u0abe","name:fi":"Malesia"},"arcs":[2]},{"type":"LineString","properties":{"name:pt":"Indon\u00e9sia","name:ps":"\u0627\u0646\u062f\u0648\u0646\u064a\u0632\u064a\u0627","name:ka":"\u10d8\u10dc\u10d3\u10dd\u10dc\u10d4\u10d6\u10d8\u10d0","name:ko":"\uc778\ub3c4\ub124\uc2dc\uc544","name:cv":"\u0418\u043d\u0434\u043e\u043d\u0435\u0437\u0438","name:km":"\u17a5\u178e\u17d2\u178c\u17bc\u1793\u17c1\u179f\u17ca\u17b8","name:kk":"\u0418\u043d\u0434\u043e\u043d\u0435\u0437\u0438\u044f","name:tt":"\u0418\u043d\u0434\u043e\u043d\u0435\u0437\u0438\u044f","name:co":"Indunesia","name:kv":"\u0418\u043d\u0434\u043e\u043d\u0435\u0437\u0438\u044f","name:ku":"\u00cendonezya","name:ro":"Indonezia","name:tl":"Indonesya","name:zh-min-nan":"\u00ccn-n\u00ee","name:os":"\u0418\u043d\u0434\u043e\u043d\u0435\u0437\u0438","name:or":"\u0b07\u0b23\u0b4d\u0b21\u0b4b\u0b28\u0b47\u0b38\u0b3f\u0b06","name:ce":"\u0418\u043d\u0434\u043e\u043d\u0435\u0437\u0438","name:ta":"\u0b87\u0ba8\u0bcd\u0ba4\u0bcb\u0ba9\u0bc7\u0b9a\u0bbf\u0baf\u0bbe","name:tg":"\u0418\u043d\u0434\u043e\u043d\u0435\u0437\u0438\u044f","name:ca":"Indon\u00e8sia","name:te":"\u0c07\u0c02\u0c21\u0c4b\u0c28\u0c47\u0c37\u0c3f\u0c2f\u0c3e","name:hu":"Indon\u00e9zia","name:om":"Indoneeshiyaa","sort_rank":262,"name:ln":"Indonez\u00ed","name:da":"Indonesien","name:de":"Indonesien","source":"openstreetmap.org","name:nv":"Indon\u00ed\u00edzha","name:kn":"\u0c87\u0c82\u0ca1\u0ccb\u0ca8\u0cc7\u0cb7\u0ccd\u0caf\u0cbe","name:dv":"\u0787\u07a8\u0782\u07b0\u0791\u07ae\u0782\u07ad\u079d\u07a8\u0794\u07a7","name:cu":"\u0407\u043d\u0434\u043e\u043d\u0438\u0441\u0457\ua657","name:ba":"\u0418\u043d\u0434\u043e\u043d\u0435\u0437\u0438\u044f","name:lv":"Indon\u0113zija","name:lt":"Indonezija","name:hi":"\u0907\u0902\u0921\u094b\u0928\u0947\u0936\u093f\u092f\u093e","name:cs":"Indon\u00e9sie","name:sv":"Indonesien","name:he":"\u05d0\u05d9\u05e0\u05d3\u05d5\u05e0\u05d6\u05d9\u05d4","kind":"country","name:ur":"\u0627\u0646\u0688\u0648\u0646\u06cc\u0634\u06cc\u0627","name:lb":"Indonesien","name:uk":"\u0406\u043d\u0434\u043e\u043d\u0435\u0437\u0456\u044f","name:hy":"\u053b\u0576\u0564\u0578\u0576\u0565\u0566\u056b\u0561","name:ug":"\u06be\u0649\u0646\u062f\u0648\u0646\u06d0\u0632\u0649\u064a\u06d5","name:li":"Indonesi\u00eb","name:hr":"Indonezija","name:el":"\u0399\u03bd\u03b4\u03bf\u03bd\u03b7\u03c3\u03af\u03b1","name:eo":"Indonezio","name":"Indonesia","name:tk":"Indonezi\u00fda","name:bn":"\u0987\u09a8\u09cd\u09a6\u09cb\u09a8\u09c7\u09b6\u09bf\u09af\u09bc\u09be","min_zoom":8.0,"name:th":"\u0e1b\u0e23\u0e30\u0e40\u0e17\u0e28\u0e2d\u0e34\u0e19\u0e42\u0e14\u0e19\u0e35\u0e40\u0e0b\u0e35\u0e22","name:yi":"\u05d0\u05d9\u05e0\u05d3\u05d0\u05e0\u05e2\u05d6\u05d9\u05e2","name:et":"Indoneesia","name:yo":"Indon\u00e9s\u00ed\u00e0","name:ht":"Endonezi","name:ay":"Indunisya","name:mt":"Indone\u017cja","name:az":"\u0130ndoneziya","name:mr":"\u0907\u0902\u0921\u094b\u0928\u0947\u0936\u093f\u092f\u093e","name:qu":"Indunisya","name:ar":"\u0625\u0646\u062f\u0648\u0646\u064a\u0633\u064a\u0627","name:my":"\u1021\u1004\u103a\u1012\u102d\u102f\u1014\u102e\u1038\u101b\u103e\u102c\u1038\u1014\u102d\u102f\u1004\u103a\u1004\u1036","name:io":"Indonezia","name:kw":"Indonesi","name:is":"Ind\u00f3nes\u00eda","name:am":"\u12a2\u1295\u12f6\u1294\u12e5\u12eb","name:ml":"\u0d07\u0d28\u0d4d\u0d24\u0d4b\u0d28\u0d47\u0d37\u0d4d\u0d2f","name:ru":"\u0418\u043d\u0434\u043e\u043d\u0435\u0437\u0438\u044f","name:rw":"Indonesiya","name:mi":"Initon\u012bhia","name:pl":"Indonezja","name:mk":"\u0418\u043d\u0434\u043e\u043d\u0435\u0437\u0438\u0458\u0430","name:af":"Indonesi\u00eb","name:fa":"\u0627\u0646\u062f\u0648\u0646\u0632\u06cc","name:iu":"\u1404\u14c5\u14ef\u140a","name:mn":"\u0418\u043d\u0434\u043e\u043d\u0435\u0437","kind_detail":"2","name:ky":"\u0418\u043d\u0434\u043e\u043d\u0435\u0437\u0438\u044f","name:uz":"Indoneziya","name:mg":"Indonezia","id":-304751,"name:fr":"Indon\u00e9sie","name:za":"Yindunizsihya","name:zh-yue":"\u5370\u5c3c","name:fy":"Yndoneezje","name:vo":"Lind\u00e4na-Se\u00e4nu\u00e4ns","name:zh":"\u5370\u5ea6\u5c3c\u897f\u4e9a","name:gv":"Yn Indoneesh","name:pa":"\u0a07\u0a70\u0a21\u0a4b\u0a28\u0a47\u0a38\u0a3c\u0a40\u0a06","name:sm":"Indyunisia","name:sl":"Indonezija","name:nl":"Indonesi\u00eb","name:ja":"\u30a4\u30f3\u30c9\u30cd\u30b7\u30a2","name:si":"\u0d89\u0db1\u0dca\u0daf\u0dd4\u0db1\u0dd3\u0dc3\u0dd2\u0dba\u0dcf\u0dc0","name:sh":"Indonezija","name:sg":"\u00canndonez\u00efi","name:na":"Indonitsiya","name:so":"Indunisiya","name:ne":"\u0907\u0923\u094d\u0921\u094b\u0928\u0947\u0936\u093f\u092f\u093e","name:sa":"\u0907\u0923\u094d\u0921\u094b\u0928\u0947\u0936\u093f\u092f\u093e","name:bs":"Indonezija","name:wa":"Indonezeye","name:bo":"\u0f68\u0f72\u0f53\u0f0b\u0f62\u0fa1\u0f74\u0f0b\u0f53\u0f72\u0f0b\u0f64\u0f72\u0f66\u0f0b\u0f61\u0f0d","name:sk":"Indon\u00e9zia","name:br":"Indonezia","name:be":"\u0406\u043d\u0434\u0430\u043d\u0435\u0437\u0456\u044f","name:su":"Indon\u00e9sia","name:bg":"\u0418\u043d\u0434\u043e\u043d\u0435\u0437\u0438\u044f","name:ss":"INdonesiya","name:sr":"\u0418\u043d\u0434\u043e\u043d\u0435\u0437\u0438\u0458\u0430","osm_relation":true,"name:sq":"Indonezia","name:ga":"An Indin\u00e9is","name:gd":"An Innd-Innse","name:wo":"Endoneesi","name:jv":"Indon\u00e9sia","name:tr":"Endonezya","name:gu":"\u0a88\u0a82\u0aa1\u0acb\u0aa8\u0ac7\u0ab6\u0abf\u0aaf\u0abe"},"arcs":[3]},{"type":"MultiLineString","properties":{"name:pt":"Indon\u00e9sia","name:ps":"\u0627\u0646\u062f\u0648\u0646\u064a\u0632\u064a\u0627","name:ka":"\u10d8\u10dc\u10d3\u10dd\u10dc\u10d4\u10d6\u10d8\u10d0","name:ko":"\uc778\ub3c4\ub124\uc2dc\uc544","name:cv":"\u0418\u043d\u0434\u043e\u043d\u0435\u0437\u0438","name:km":"\u17a5\u178e\u17d2\u178c\u17bc\u1793\u17c1\u179f\u17ca\u17b8","name:kk":"\u0418\u043d\u0434\u043e\u043d\u0435\u0437\u0438\u044f","name:tt":"\u0418\u043d\u0434\u043e\u043d\u0435\u0437\u0438\u044f","name:co":"Indunesia","name:kv":"\u0418\u043d\u0434\u043e\u043d\u0435\u0437\u0438\u044f","name:ku":"\u00cendonezya","name:az":"\u0130ndoneziya","name:tl":"Indonesya","name:zh-min-nan":"\u00ccn-n\u00ee","name:os":"\u0418\u043d\u0434\u043e\u043d\u0435\u0437\u0438","name:or":"\u0b07\u0b23\u0b4d\u0b21\u0b4b\u0b28\u0b47\u0b38\u0b3f\u0b06","name:ce":"\u0418\u043d\u0434\u043e\u043d\u0435\u0437\u0438","name:ta":"\u0b87\u0ba8\u0bcd\u0ba4\u0bcb\u0ba9\u0bc7\u0b9a\u0bbf\u0baf\u0bbe","name:tg":"\u0418\u043d\u0434\u043e\u043d\u0435\u0437\u0438\u044f","name:ca":"Indon\u00e8sia","name:te":"\u0c07\u0c02\u0c21\u0c4b\u0c28\u0c47\u0c37\u0c3f\u0c2f\u0c3e","name:li":"Indonesi\u00eb","name:om":"Indoneeshiyaa","sort_rank":262,"name:hr":"Indonezija","name:da":"Indonesien","name:sr":"\u0418\u043d\u0434\u043e\u043d\u0435\u0437\u0438\u0458\u0430","name:de":"Indonesien","source":"openstreetmap.org","osm_relation":true,"name:kn":"\u0c87\u0c82\u0ca1\u0ccb\u0ca8\u0cc7\u0cb7\u0ccd\u0caf\u0cbe","name:be":"\u0406\u043d\u0434\u0430\u043d\u0435\u0437\u0456\u044f","name:dv":"\u0787\u07a8\u0782\u07b0\u0791\u07ae\u0782\u07ad\u079d\u07a8\u0794\u07a7","name:cu":"\u0407\u043d\u0434\u043e\u043d\u0438\u0441\u0457\ua657","name:za":"Yindunizsihya","name:ar":"\u0625\u0646\u062f\u0648\u0646\u064a\u0633\u064a\u0627","name:lv":"Indon\u0113zija","name:lt":"Indonezija","name:hi":"\u0907\u0902\u0921\u094b\u0928\u0947\u0936\u093f\u092f\u093e","name:cs":"Indon\u00e9sie","name:he":"\u05d0\u05d9\u05e0\u05d3\u05d5\u05e0\u05d6\u05d9\u05d4","name:eo":"Indonezio","name:ur":"\u0627\u0646\u0688\u0648\u0646\u06cc\u0634\u06cc\u0627","name:lb":"Indonesien","name:uk":"\u0406\u043d\u0434\u043e\u043d\u0435\u0437\u0456\u044f","name:hy":"\u053b\u0576\u0564\u0578\u0576\u0565\u0566\u056b\u0561","name:ug":"\u06be\u0649\u0646\u062f\u0648\u0646\u06d0\u0632\u0649\u064a\u06d5","name:hu":"Indon\u00e9zia","name:ln":"Indonez\u00ed","name:el":"\u0399\u03bd\u03b4\u03bf\u03bd\u03b7\u03c3\u03af\u03b1","kind":"country","name":"Indonesia","name:tk":"Indonezi\u00fda","min_zoom":8.0,"name:th":"\u0e1b\u0e23\u0e30\u0e40\u0e17\u0e28\u0e2d\u0e34\u0e19\u0e42\u0e14\u0e19\u0e35\u0e40\u0e0b\u0e35\u0e22","name:yi":"\u05d0\u05d9\u05e0\u05d3\u05d0\u05e0\u05e2\u05d6\u05d9\u05e2","name:et":"Indoneesia","name:yo":"Indon\u00e9s\u00ed\u00e0","name:ay":"Indunisya","name:mt":"Indone\u017cja","name:ro":"Indonezia","name:mr":"\u0907\u0902\u0921\u094b\u0928\u0947\u0936\u093f\u092f\u093e","name:pa":"\u0a07\u0a70\u0a21\u0a4b\u0a28\u0a47\u0a38\u0a3c\u0a40\u0a06","name:my":"\u1021\u1004\u103a\u1012\u102d\u102f\u1014\u102e\u1038\u101b\u103e\u102c\u1038\u1014\u102d\u102f\u1004\u103a\u1004\u1036","name:io":"Indonezia","name:kw":"Indonesi","name:is":"Ind\u00f3nes\u00eda","name:am":"\u12a2\u1295\u12f6\u1294\u12e5\u12eb","name:ru":"\u0418\u043d\u0434\u043e\u043d\u0435\u0437\u0438\u044f","name:ml":"\u0d07\u0d28\u0d4d\u0d24\u0d4b\u0d28\u0d47\u0d37\u0d4d\u0d2f","name:rw":"Indonesiya","name:mi":"Initon\u012bhia","name:pl":"Indonezja","name:mk":"\u0418\u043d\u0434\u043e\u043d\u0435\u0437\u0438\u0458\u0430","name:af":"Indonesi\u00eb","name:fa":"\u0627\u0646\u062f\u0648\u0646\u0632\u06cc","name:iu":"\u1404\u14c5\u14ef\u140a","name:mn":"\u0418\u043d\u0434\u043e\u043d\u0435\u0437","name:ss":"INdonesiya","kind_detail":"2","name:uz":"Indoneziya","name:mg":"Indonezia","id":-304751,"name:sg":"\u00canndonez\u00efi","name:fr":"Indon\u00e9sie","name:tr":"Endonezya","name:ky":"\u0418\u043d\u0434\u043e\u043d\u0435\u0437\u0438\u044f","name:zh-yue":"\u5370\u5c3c","name:fy":"Yndoneezje","name:vo":"Lind\u00e4na-Se\u00e4nu\u00e4ns","name:zh":"\u5370\u5ea6\u5c3c\u897f\u4e9a","name:so":"Indunisiya","name:sm":"Indyunisia","name:sl":"Indonezija","name:nl":"Indonesi\u00eb","name:ja":"\u30a4\u30f3\u30c9\u30cd\u30b7\u30a2","name:si":"\u0d89\u0db1\u0dca\u0daf\u0dd4\u0db1\u0dd3\u0dc3\u0dd2\u0dba\u0dcf\u0dc0","name:sh":"Indonezija","name:qu":"Indunisya","name:na":"Indonitsiya","name:ne":"\u0907\u0923\u094d\u0921\u094b\u0928\u0947\u0936\u093f\u092f\u093e","name:sa":"\u0907\u0923\u094d\u0921\u094b\u0928\u0947\u0936\u093f\u092f\u093e","name:bs":"Indonezija","name:wa":"Indonezeye","name:bo":"\u0f68\u0f72\u0f53\u0f0b\u0f62\u0fa1\u0f74\u0f0b\u0f53\u0f72\u0f0b\u0f64\u0f72\u0f66\u0f0b\u0f61\u0f0d","name:sk":"Indon\u00e9zia","name:br":"Indonezia","name:jv":"Indon\u00e9sia","name:sv":"Indonesien","name:su":"Indon\u00e9sia","name:bg":"\u0418\u043d\u0434\u043e\u043d\u0435\u0437\u0438\u044f","name:wo":"Endoneesi","name:ba":"\u0418\u043d\u0434\u043e\u043d\u0435\u0437\u0438\u044f","name:nv":"Indon\u00ed\u00edzha","name:sq":"Indonezia","name:ga":"An Indin\u00e9is","name:gd":"An Innd-Innse","name:ht":"Endonezi","name:bn":"\u0987\u09a8\u09cd\u09a6\u09cb\u09a8\u09c7\u09b6\u09bf\u09af\u09bc\u09be","maritime_boundary":true,"name:gv":"Yn Indoneesh","name:gu":"\u0a88\u0a82\u0aa1\u0acb\u0aa8\u0ac7\u0ab6\u0abf\u0aaf\u0abe"},"arcs":[[4],[5]]},{"type":"LineString","properties":{"name:right:ja":"\u897f\u30ab\u30ea\u30de\u30f3\u30bf\u30f3","name:left:ja":"\u30b5\u30e9\u30ef\u30af","name:right:ru":"\u0417\u0430\u043f\u0430\u0434\u043d\u044b\u0439 \u041a\u0430\u043b\u0438\u043c\u0430\u043d\u0442\u0430\u043d","min_zoom":8.0,"name:left:ru":"\u0421\u0430\u0440\u0430\u0432\u0430\u043a","id:right":-2388616,"id":-3879784,"osm_relation":true,"name:right":"Kalimantan Barat","kind":"region","name":"Sarawak - Kalimantan Barat","sort_rank":256,"kind_detail":"4","name:right:en":"West Kalimantan","source":"openstreetmap.org","name:left:zh":"\u7802\u62c9\u8d8a\u5dde","name:right:de":"West-Kalimantan","id:left":-3879784,"name:left":"Sarawak"},"arcs":[6]},{"type":"LineString","properties":{"kind":"region","name":"Sarawak","sort_rank":256,"kind_detail":"4","source":"openstreetmap.org","min_zoom":8.0,"name:ru":"\u0421\u0430\u0440\u0430\u0432\u0430\u043a","name:zh":"\u7802\u62c9\u8d8a\u5dde","id":-3879784,"osm_relation":true,"name:ja":"\u30b5\u30e9\u30ef\u30af"},"arcs":[7]},{"type":"LineString","properties":{"kind":"region","name":"Sarawak","sort_rank":256,"kind_detail":"4","min_zoom":8.0,"source":"openstreetmap.org","maritime_boundary":true,"name:ru":"\u0421\u0430\u0440\u0430\u0432\u0430\u043a","name:zh":"\u7802\u62c9\u8d8a\u5dde","id":-3879784,"osm_relation":true,"name:ja":"\u30b5\u30e9\u30ef\u30af"},"arcs":[8]},{"type":"LineString","properties":{"name:right:ja":"\u897f\u30ab\u30ea\u30de\u30f3\u30bf\u30f3","name":"Kepulauan Riau - Kalimantan Barat","name:left:ja":"\u30ea\u30a2\u30a6\u8af8\u5cf6","id:right":-2388616,"min_zoom":8.0,"name:left:zh":"\u5ed6\u5185\u7fa4\u5c9b\u7701","name:left:ru":"\u041e\u0441\u0442\u0440\u043e\u0432\u0430 \u0420\u0438\u0430\u0443","name:right:ru":"\u0417\u0430\u043f\u0430\u0434\u043d\u044b\u0439 \u041a\u0430\u043b\u0438\u043c\u0430\u043d\u0442\u0430\u043d","id":-3797244,"osm_relation":true,"name:right":"Kalimantan Barat","kind":"region","name:left:en":"Riau Islands","sort_rank":256,"kind_detail":"4","name:left:de":"Riauinseln","name:right:en":"West Kalimantan","source":"openstreetmap.org","maritime_boundary":true,"name:right:de":"West-Kalimantan","id:left":-3797244,"name:left:vi":"Qu\u1ea7n \u0111\u1ea3o Riau","name:left":"Kepulauan Riau"},"arcs":[9]},{"type":"LineString","properties":{"kind":"region","name:en":"Riau Islands","name":"Kepulauan Riau","sort_rank":256,"kind_detail":"4","min_zoom":8.0,"name:de":"Riauinseln","source":"openstreetmap.org","maritime_boundary":true,"name:vi":"Qu\u1ea7n \u0111\u1ea3o Riau","name:ru":"\u041e\u0441\u0442\u0440\u043e\u0432\u0430 \u0420\u0438\u0430\u0443","name:zh":"\u5ed6\u5185\u7fa4\u5c9b\u7701","id":-3797244,"osm_relation":true,"name:ja":"\u30ea\u30a2\u30a6\u8af8\u5cf6"},"arcs":[10]},{"type":"LineString","properties":{"kind":"region","name:en":"West Kalimantan","name":"Kalimantan Barat","sort_rank":256,"kind_detail":"4","name:de":"West-Kalimantan","source":"openstreetmap.org","min_zoom":8.0,"name:ru":"\u0417\u0430\u043f\u0430\u0434\u043d\u044b\u0439 \u041a\u0430\u043b\u0438\u043c\u0430\u043d\u0442\u0430\u043d","id":-2388616,"osm_relation":true,"name:ja":"\u897f\u30ab\u30ea\u30de\u30f3\u30bf\u30f3"},"arcs":[11]},{"type":"LineString","properties":{"kind":"region","name:en":"West Kalimantan","name":"Kalimantan Barat","sort_rank":256,"kind_detail":"4","min_zoom":8.0,"name:de":"West-Kalimantan","source":"openstreetmap.org","maritime_boundary":true,"name:ru":"\u0417\u0430\u043f\u0430\u0434\u043d\u044b\u0439 \u041a\u0430\u043b\u0438\u043c\u0430\u043d\u0442\u0430\u043d","id":-2388616,"osm_relation":true,"name:ja":"\u897f\u30ab\u30ea\u30de\u30f3\u30bf\u30f3"},"arcs":[12]}]},"roads":{"type":"GeometryCollection","geometries":[{"type":"LineString","properties":{"sort_rank":355,"source":"openstreetmap.org","kind":"ferry","min_zoom":8.0,"id":169303078},"arcs":[21]},{"type":"LineString","properties":{"source":"openstreetmap.org","kind":"major_road","sort_rank":380,"kind_detail":"primary","ref":"own GPS data","min_zoom":8.0,"id":169241875},"arcs":[22]}]},"earth":{"type":"GeometryCollection","geometries":[{"type":"MultiPolygon","properties":{"sort_rank":10,"source":"naturalearthdata.com","min_zoom":0.0,"kind":"earth","area":15470768602},"arcs":[[[23]],[[24]]]}]},"landuse":{"type":"GeometryCollection","geometries":[{"type":"MultiPolygon","properties":{"source":"openstreetmap.org","kind":"nature_reserve","tier":2,"area":126098482,"sort_rank":23,"min_zoom":8.0},"arcs":[[[25]],[[26]]]},{"type":"Polygon","properties":{"source":"openstreetmap.org","kind":"nature_reserve","area":223400992,"tier":2,"id":542807140,"min_zoom":6.0,"sort_rank":23},"arcs":[[27]]},{"type":"Polygon","properties":{"kind":"nature_reserve","area":10393200,"sort_rank":23,"source":"openstreetmap.org","min_zoom":8.0,"tier":2,"id":-7759010,"osm_relation":true},"arcs":[[28]]}]}},"type":"Topology","transform":{"translate":[108.28125,1.4061088354],"scale":[0.0003433228,0.0003430816]},"arcs":[[[3972,1968],[-42,-99],[22,-58],[-32,-107],[-78,-50],[-70,12],[-66,-34],[31,-86],[-76,-28],[2,-43],[55,-119],[-13,-52],[85,-55],[9,-123],[148,38],[143,-67],[-52,-144],[6,-99],[-26,-18],[-1,-52],[21,-66],[-27,-44],[24,-66],[61,-12]],[[3984,1964],[-12,4]],[[4096,1923],[-112,41]],[[3972,1968],[7,12]],[[4096,2734],[-1048,1227],[-88,135]],[[3979,1980],[117,411]],[[3972,1968],[-42,-99],[22,-58],[-32,-107],[-78,-50],[-70,12],[-66,-34],[31,-86],[-76,-28],[2,-43],[55,-119],[-13,-52],[85,-55],[9,-123],[148,38],[143,-67],[-52,-144],[6,-99],[-26,-18],[-1,-52],[21,-66],[-27,-44],[24,-66],[61,-12]],[[3984,1964],[-12,4]],[[4096,1923],[-112,41]],[[340,0],[524,873],[925,1034],[1133,526],[1174,203]],[[4096,2734],[-1048,1227],[-88,135]],[[3972,1968],[7,12]],[[3979,1980],[117,411]],[[0,4096],[4096,0],[0,-2712],[-70,99],[-26,64],[2,47],[14,41],[10,47],[-4,57],[-29,119],[-6,64],[-14,50],[0,2],[-30,-27],[-88,-155],[-35,-39],[-40,-29],[-52,-21],[-399,-101],[-190,-22],[-52,-37],[-19,-100],[5,-97],[-3,-52],[-20,-50],[-41,-46],[-42,-30],[-31,-32],[-7,-51],[139,108],[7,10],[14,3],[14,-3],[7,-10],[-3,-17],[-7,-9],[-7,-6],[-3,-8],[-9,-11],[-52,-57],[-52,-75],[-91,-171],[-56,-75],[-457,-314],[-67,-77],[-35,-102],[0,-271],[-2271,0],[0,4096]],[[2382,1956],[-8,12],[-11,-18],[22,-38],[25,27],[-8,8],[-20,9]],[[1966,3143],[-1,9],[3,13],[3,24],[3,18],[-54,-5],[-8,-17],[14,-8],[-2,-16],[15,-11],[27,-7]],[[2130,3181],[41,-34],[75,5],[76,25],[48,24],[46,34],[9,21],[-15,25],[-34,16],[-127,2],[-33,12],[-65,38],[-33,15],[-35,4],[-40,-3],[-31,-16],[-11,-33],[5,-16],[13,-16],[16,-11],[17,-4],[15,6],[29,23],[14,1],[51,-29],[-2,-23],[-22,-26],[-7,-40]],[[856,3709],[23,66],[-31,-11],[-4,-7],[-10,-8],[-2,-12],[-2,-40],[-2,-32],[6,-5],[20,20],[2,29]],[[1784,3895],[-18,-29],[8,-4],[24,3],[28,15],[25,29],[34,30],[7,18],[-5,17],[-8,15],[-16,-6],[-18,-36],[-20,-12],[-11,-22],[-30,-18]],[[4096,1384],[-70,99],[-26,64],[2,47],[14,41],[10,47],[-4,57],[-29,119],[-6,64],[-14,50],[0,2],[-30,-27],[-88,-155],[-35,-39],[-40,-29],[-52,-21],[-399,-101],[-190,-22],[-52,-37],[-19,-100],[5,-97],[-3,-52],[-20,-50],[-41,-46],[-42,-30],[-31,-32],[-7,-51],[139,108],[7,10],[14,3],[14,-3],[7,-10],[-3,-17],[-7,-9],[-7,-6],[-3,-8],[-9,-11],[-52,-57],[-52,-75],[-91,-171],[-56,-75],[-457,-314],[-67,-77],[-35,-102],[0,-271]],[[2410,3281],[-34,16],[-127,2],[-33,12],[-65,38],[-33,15],[-35,4],[-40,-3],[-31,-16],[-11,-33],[5,-16],[13,-16],[16,-11],[17,-4],[15,6],[29,23],[14,1],[51,-29],[-2,-23],[-22,-26],[-7,-40],[41,-34],[75,5],[76,25],[48,24],[46,34],[9,21],[-15,25]],[[3981,1957],[-27,11],[-40,-30],[-50,-118]],[[2769,198],[31,-189],[11,-9]],[[4096,1384],[0,-1384],[-1825,0],[0,271],[35,102],[67,77],[457,314],[56,75],[91,171],[52,75],[52,57],[9,11],[3,8],[7,6],[7,9],[3,17],[-7,10],[-14,3],[-14,-3],[-7,-10],[-139,-108],[7,51],[31,32],[42,30],[41,46],[20,50],[3,52],[-5,97],[19,100],[52,37],[190,22],[399,101],[52,21],[40,29],[35,39],[88,155],[30,27],[0,-2],[14,-50],[6,-64],[29,-119],[4,-57],[-10,-47],[-14,-41],[-2,-47],[26,-64],[70,-99]],[[2249,3299],[127,-2],[34,-16],[15,-25],[-9,-21],[-46,-34],[-48,-24],[-76,-25],[-75,-5],[-41,34],[7,40],[22,26],[2,23],[-51,29],[-14,-1],[-29,-23],[-15,-6],[-17,4],[-16,11],[-13,16],[-5,16],[11,33],[31,16],[40,3],[35,-4],[33,-15],[65,-38],[33,-12]],[[3666,1091],[22,129],[102,-178],[-74,3],[-50,46]],[[3366,1183],[5,29],[40,0],[125,136],[72,-212],[-117,-61],[-16,51],[-67,11],[-42,46]],[[3101,878],[5,105],[44,69],[277,-36],[154,53],[43,48],[55,-99],[64,-13],[192,25],[-59,-168],[-53,0],[-18,44],[-187,-145],[-61,74],[-183,-8],[-113,84],[-115,-68],[-45,35]],[[2951,1103],[120,129],[15,100],[25,-38],[-34,-136],[-126,-55]]]}