{"objects":{"water":{"type":"GeometryCollection","geometries":[]},"buildings":{"type":"GeometryCollection","geometries":[]},"places":{"type":"GeometryCollection","geometries":[{"type":"Point","properties":{"kind":"region","name:en":"Govis\u00fcmber","name":"\u0413\u043e\u0432\u044c\u0441\u04af\u043c\u0431\u044d\u0440","kind_detail":"state","name:de":"Gobi-S\u00fcmber","source":"openstreetmap.org","min_zoom":4.0,"name:ru":"\u0413\u043e\u0432\u044c-\u0421\u0443\u043c\u0431\u044d\u0440","name:pl":"Gobijsko-sumberski","name:hu":"G\u00f3bi-Sz\u00fcmber","id":2704047272,"name:ja":"\u30b4\u30d3\u30b9\u30f3\u30d9\u30eb"},"coordinates":[688,1643]},{"type":"Point","properties":{"kind":"locality","name:en":"Choir","name":"\u0427\u043e\u0439\u0440","name:lt":"\u010coiras","kind_detail":"city","min_zoom":8.0,"name:de":"Tschoir","source":"openstreetmap.org","name:fr":"Choyr","int_name":"Choir","name:it":"\u010cojr","population":8526,"id":297282778,"name:es":"Choyr","name:ja":"\u30c1\u30e7\u30a4\u30eb"},"coordinates":[234,1207]},{"type":"Point","properties":{"kind":"locality","name:en":"Bor-Undur","name":"\u0411\u043e\u0440-\u04e8\u043d\u0434\u04e9\u0440","kind_detail":"town","source":"openstreetmap.org","min_zoom":8.0,"name:ru":"\u0411\u043e\u0440-\u0423\u043d\u0434\u0435\u0440","population":8080,"id":647623219,"name:ja":"\u30dc\u30eb\uff1d\u30a6\u30f3\u30c9\u30a5\u30eb"},"coordinates":[3325,770]}]},"transit":{"type":"GeometryCollection","geometries":[{"type":"LineString","properties":{"source":"openstreetmap.org","kind":"train","name":"Moscow \u2014 Beijing","sort_rank":275,"min_zoom":6.0,"osm_relation":true,"name:de":"Moskau \u2014 Peking"},"arcs":[6]},{"type":"LineString","properties":{"source":"openstreetmap.org","kind":"train","sort_rank":275,"ref":"K3\/4","min_zoom":6.0,"osm_relation":true},"arcs":[7]}]},"pois":{"type":"GeometryCollection","geometries":[]},"boundaries":{"type":"GeometryCollection","geometries":[{"type":"LineString","properties":{"name:right:es":"Hentiy","name:right:ja":"\u30d8\u30f3\u30c6\u30a3\u30fc","name:right:fr":"Hentiy","alt_name:left:en":"Central","name:left:ja":"\u30c8\u30a5\u30d6","alt_name:left:de":"Zentral","id:right":-269885,"name:right:it":"H\u0117ntij","id:left":-3382267,"name:left:ru":"\u0422\u0443\u0432\u0435","id":-3382267,"osm_relation":true,"name:right":"\u0425\u044d\u043d\u0442\u0438\u0439","kind":"region","name":"\u0422\u04e9\u0432 - \u0425\u044d\u043d\u0442\u0438\u0439","source":"openstreetmap.org","sort_rank":256,"kind_detail":"4","min_zoom":8.0,"name:right:en":"Khentii","name:left:en":"T\u00f6v","name:right:zh_PY":"X\u012bnb\u0101'\u011brh\u01d4 Y\u00f2u Q\u00ed","name:right:de":"Chentii","name:left":"\u0422\u04e9\u0432"},"arcs":[0]},{"type":"LineString","properties":{"kind":"region","name:en":"T\u00f6v","name":"\u0422\u04e9\u0432","alt_name:de":"Zentral","sort_rank":256,"kind_detail":"4","source":"openstreetmap.org","min_zoom":8.0,"alt_name:en":"Central","name:ru":"\u0422\u0443\u0432\u0435","id":-3382267,"osm_relation":true,"name:ja":"\u30c8\u30a5\u30d6"},"arcs":[1]},{"type":"LineString","properties":{"name:right:es":"Hentiy","name:right:ja":"\u30d8\u30f3\u30c6\u30a3\u30fc","name:right:fr":"Hentiy","alt_name:left:en":"East Gobi","name:left:ja":"\u30c9\u30eb\u30ce\u30b4\u30d3","alt_name:left:de":"Ostgobi","id:right":-269885,"name:right:it":"H\u0117ntij","name:left:de":"Dorno-Gobi","id:left":-270050,"id":-270050,"osm_relation":true,"name:right":"\u0425\u044d\u043d\u0442\u0438\u0439","kind":"region","name":"\u0414\u043e\u0440\u043d\u043e\u0433\u043e\u0432\u044c - \u0425\u044d\u043d\u0442\u0438\u0439","source":"openstreetmap.org","sort_rank":256,"kind_detail":"4","min_zoom":8.0,"name:zh_PY":"X\u012bnb\u0101'\u011brh\u01d4 Y\u00f2u Q\u00ed","name:left:en":"Dornogovi","name:right:en":"Khentii","name:right:de":"Chentii","name:left":"\u0414\u043e\u0440\u043d\u043e\u0433\u043e\u0432\u044c"},"arcs":[2]},{"type":"LineString","properties":{"kind":"region","name:en":"Dornogovi","name":"\u0414\u043e\u0440\u043d\u043e\u0433\u043e\u0432\u044c","alt_name:de":"Ostgobi","sort_rank":256,"kind_detail":"4","name:zh_PY":"X\u012bnb\u0101'\u011brh\u01d4 Y\u00f2u Q\u00ed","name:de":"Dorno-Gobi","source":"openstreetmap.org","min_zoom":8.0,"alt_name:en":"East Gobi","id":-270050,"osm_relation":true,"name:ja":"\u30c9\u30eb\u30ce\u30b4\u30d3"},"arcs":[3]},{"type":"LineString","properties":{"kind":"region","name:en":"Khentii","name":"\u0425\u044d\u043d\u0442\u0438\u0439","sort_rank":256,"kind_detail":"4","min_zoom":8.0,"name:zh_PY":"X\u012bnb\u0101'\u011brh\u01d4 Y\u00f2u Q\u00ed","name:de":"Chentii","source":"openstreetmap.org","name:fr":"Hentiy","name:it":"H\u0117ntij","name:es":"Hentiy","id":-269885,"osm_relation":true,"name:ja":"\u30d8\u30f3\u30c6\u30a3\u30fc"},"arcs":[4]},{"type":"LineString","properties":{"kind":"region","name:en":"Khentii","name":"\u0425\u044d\u043d\u0442\u0438\u0439","sort_rank":256,"kind_detail":"4","min_zoom":8.0,"name:zh_PY":"X\u012bnb\u0101'\u011brh\u01d4 Y\u00f2u Q\u00ed","name:de":"Chentii","source":"openstreetmap.org","name:fr":"Hentiy","name:it":"H\u0117ntij","name:es":"Hentiy","id":-269885,"osm_relation":true,"name:ja":"\u30d8\u30f3\u30c6\u30a3\u30fc"},"arcs":[5]}]},"roads":{"type":"GeometryCollection","geometries":[{"type":"LineString","properties":{"kind":"major_road","network":"AsianHighway","sort_rank":381,"kind_detail":"trunk","source":"openstreetmap.org","min_zoom":8.0,"landuse_kind":"residential","shield_text":"3","ref":"A0101","id":442001356},"arcs":[8]},{"type":"LineString","properties":{"kind":"major_road","network":"AsianHighway","sort_rank":381,"kind_detail":"trunk","source":"openstreetmap.org","min_zoom":8.0,"shield_text":"3","ref":"A0101"},"arcs":[9]},{"type":"LineString","properties":{"kind":"major_road","network":"AsianHighway","sort_rank":381,"kind_detail":"trunk","source":"openstreetmap.org","min_zoom":8.0,"shield_text":"3","ref":"A0102"},"arcs":[10]},{"type":"LineString","properties":{"kind":"major_road","network":"AsianHighway","sort_rank":381,"kind_detail":"trunk","source":"openstreetmap.org","min_zoom":8.0,"landuse_kind":"residential","shield_text":"3","ref":"A0102","id":206656618},"arcs":[11]}]},"earth":{"type":"GeometryCollection","geometries":[{"type":"Polygon","properties":{"sort_rank":10,"source":"naturalearthdata.com","min_zoom":0.0,"kind":"earth","area":98022885885},"arcs":[[12]]}]},"landuse":{"type":"GeometryCollection","geometries":[{"type":"Polygon","properties":{"int_name":"Choir","name:ja":"\u30c1\u30e7\u30a4\u30eb","name:lt":"\u010coiras","min_zoom":8.0,"name:it":"\u010cojr","tier":2,"id":372835823,"kind":"residential","name:en":"Choir","name":"\u0427\u043e\u0439\u0440","area":24669200,"sort_rank":20,"name:de":"Tschoir","source":"openstreetmap.org","name:fr":"Choyr","name:es":"Choyr"},"arcs":[[13]]}]}},"type":"Topology","transform":{"translate":[108.28125,46.0732306254],"scale":[0.0003433228,0.0002360721]},"arcs":[[[1571,3843],[-326,253]],[[0,3090],[579,-95],[672,340],[140,147],[180,361]],[[4096,431],[-189,-140],[-237,86],[-572,25],[-191,68],[-321,364],[-124,380],[-64,115],[-424,326]],[[1974,1655],[-145,-343],[-227,-348],[-211,-265],[-252,-235],[-148,-418],[-7,-46]],[[2001,2315],[29,-347],[-56,-313]],[[1571,3843],[175,-246],[108,-255],[200,-131],[51,-91],[-109,-584],[5,-221]],[[0,2066],[166,-358],[-20,-130],[43,-314],[68,-122],[116,-120],[72,-21],[47,-51],[165,-327],[183,-184],[237,-136],[122,-142],[97,-38],[37,-123]],[[0,2066],[166,-358],[-20,-130],[43,-314],[68,-122],[116,-120],[72,-21],[47,-51],[165,-327],[183,-184],[237,-136],[122,-142],[97,-38],[37,-123]],[[273,1263],[19,-75]],[[0,2084],[167,-365],[16,-152],[90,-304]],[[312,1147],[236,-181],[65,-85],[349,-177],[255,-480],[153,-164],[11,-60]],[[292,1188],[20,-41]],[[4096,2284],[0,-2284],[-4096,0],[0,4096],[4096,0],[0,-1812]],[[172,1252],[57,24],[56,-16],[66,-72],[-27,-39],[-110,-13],[-42,116]]]}