{"objects":{"water":{"type":"GeometryCollection","geometries":[{"type":"Polygon","properties":{"source":"naturalearthdata.com","kind":"lake","name":"Hj\u00e4lmaren","area":1938984064,"sort_rank":200,"min_zoom":0.0,"id":552},"arcs":[[1025]]},{"type":"Polygon","properties":{"source":"naturalearthdata.com","kind":"lake","name":"M\u00e4laren","area":7010512896,"sort_rank":200,"min_zoom":0.0,"id":1039},"arcs":[[1026]]},{"type":"MultiPolygon","properties":{"sort_rank":200,"source":"naturalearthdata.com","min_zoom":0.0,"kind":"lake","area":1823581386},"arcs":[[[1027]],[[1028]],[[1029]]]},{"type":"MultiPolygon","properties":{"source":"naturalearthdata.com","kind":"lake","name":"V\u00e4nern","area":21510518784,"sort_rank":200,"min_zoom":0.0,"id":481},"arcs":[[[1030]],[[1031]]]},{"type":"Polygon","properties":{"source":"naturalearthdata.com","kind":"lake","name":"V\u00e4ttern","area":7082202112,"sort_rank":200,"min_zoom":0.0,"id":539},"arcs":[[1032]]},{"type":"Point","properties":{"label_placement":true,"kind":"lake","name":"M\u00e4laren","area":7010512896,"sort_rank":200,"source":"naturalearthdata.com","min_zoom":0.0,"id":1039},"coordinates":[4059,2035]},{"type":"Point","properties":{"label_placement":true,"kind":"lake","name":"Hj\u00e4lmaren","area":1938984064,"sort_rank":200,"source":"naturalearthdata.com","min_zoom":0.0,"id":552},"coordinates":[2573,1218]},{"type":"MultiLineString","properties":{"source":"naturalearthdata.com","kind":"lake","sort_rank":367,"boundary":true,"min_zoom":0.0,"id":481},"arcs":[[1033],[1034],[1035]]},{"type":"MultiLineString","properties":{"source":"naturalearthdata.com","kind":"lake","sort_rank":367,"boundary":true,"min_zoom":0.0,"id":539},"arcs":[[1036],[1037]]},{"type":"LineString","properties":{"source":"naturalearthdata.com","kind":"lake","sort_rank":367,"boundary":true,"min_zoom":0.0,"id":552},"arcs":[1038]},{"type":"LineString","properties":{"source":"naturalearthdata.com","kind":"lake","sort_rank":367,"boundary":true,"min_zoom":0.0,"id":639},"arcs":[1039]},{"type":"LineString","properties":{"source":"naturalearthdata.com","kind":"lake","sort_rank":367,"boundary":true,"min_zoom":0.0,"id":640},"arcs":[1040]},{"type":"LineString","properties":{"source":"naturalearthdata.com","kind":"lake","sort_rank":367,"boundary":true,"min_zoom":0.0,"id":1004},"arcs":[1041]},{"type":"LineString","properties":{"source":"naturalearthdata.com","kind":"lake","sort_rank":367,"boundary":true,"min_zoom":0.0,"id":1009},"arcs":[1042]},{"type":"MultiLineString","properties":{"source":"naturalearthdata.com","kind":"lake","sort_rank":367,"boundary":true,"min_zoom":0.0,"id":1039},"arcs":[[1043],[1044]]}]},"buildings":{"type":"GeometryCollection","geometries":[]},"places":{"type":"GeometryCollection","geometries":[{"type":"Point","properties":{"name:pt":"Su\u00e9cia","name:ps":"\u0633\u0648\u06cc\u0689\u0646","name:cy":"Sweden","name:mt":"\u017bvezja","name:ko":"\uc2a4\uc6e8\ub374","name:kn":"\u0cb8\u0ccd\u0cb5\u0cc0\u0ca1\u0ca8\u0ccd","name:km":"\u179f\u17ca\u17bb\u1799\u17a2\u17c2\u178a","name:cs":"\u0160v\u00e9dsko","alt_name:eo":"Svedio","name:ki":"Uswidi","name:tr":"\u0130sve\u00e7","name:ku":"Sw\u00ead","name:ti":"\u1235\u12ca\u12f5\u1295","name:ks":"\u0633\u064f\u0648\u0650\u0688\u064e\u0646","name:to":"Su\u0113teni","name:or":"\u0b38\u0b4d\u0b71\u0b47\u0b21\u0b47\u0b28\u0b4d","name:pl":"Szwecja","name:ta":"\u0bb8\u0bcd\u0bb5\u0bc0\u0b9f\u0ba9\u0bcd","name:tg":"\u0428\u0432\u0435\u0442\u0441\u0438\u044f","name:ca":"Su\u00e8cia","name:te":"\u0c38\u0c4d\u0c35\u0c40\u0c21\u0c28\u0c4d","name:hu":"Sv\u00e9dorsz\u00e1g","name:ro":"Suedia","name:ka":"\u10e8\u10d5\u10d4\u10ea\u10d8\u10d0","name:hr":"\u0160vedska","name:de":"Schweden","name:dz":"\u0f66\u0f74\u0f60\u0f72\u0f0b\u0f4c\u0f7a\u0f53","source":"openstreetmap.org","name:lv":"Zviedrija","name:lt":"\u0160vedija","name:hi":"\u0938\u094d\u0935\u0940\u0921\u0928","name:kk":"\u0428\u0432\u0435\u0446\u0438\u044f","name:he":"\u05e9\u05d5\u05d5\u05d3\u05d9\u05d4","kind":"country","name:ur":"\u0633\u0648\u06cc\u0688\u0646","name:lb":"Schweden","name:la":"Suecia","name:lg":"Swideni","name:uk":"\u0428\u0432\u0435\u0446\u0456\u044f","name:hy":"\u0547\u057e\u0565\u0564\u056b\u0561","min_zoom":2.0,"name:li":"Zwaede","name:ln":"Sw\u00e9d\u025b","name:lo":"\u0eaa\u0eb0\u0ea7\u0eb4\u0ec0\u0e94\u0eb1\u0e99","population":9276509,"name:el":"\u03a3\u03bf\u03c5\u03b7\u03b4\u03af\u03b1","name:eo":"Svedujo","name:en":"Sweden","name":"Sverige","official_name":"Konungariket Sverige","name:ee":"Sweden nutome","name:th":"\u0e1b\u0e23\u0e30\u0e40\u0e17\u0e28\u0e2a\u0e27\u0e35\u0e40\u0e14\u0e19","name:gu":"\u0ab8\u0acd\u0ab5\u0ac0\u0aa1\u0aa8","name:eu":"Suedia","name:et":"Rootsi","name:nl":"Zweden","name:es":"Suecia","name:ia":"Svedia","name:rm":"Svezia","name:rn":"Suwedi","name:az":"isve\u00e7","name:id":"Swedia","name:ms":"Sweden","name:mr":"\u0938\u094d\u0935\u0940\u0921\u0928","name:ar":"\u0627\u0644\u0633\u0648\u064a\u062f","name:my":"\u1006\u103d\u102e\u1012\u1004\u103a","name:io":"Suedia","name:is":"Sv\u00ed\u00fej\u00f3\u00f0","name:am":"\u1235\u12ca\u12f5\u1295","name:it":"Svezia","name:vi":"Th\u1ee5y \u0110i\u1ec3n","name:ru":"\u0428\u0432\u0435\u0446\u0438\u044f","name:mn":"\u0428\u0432\u0435\u0434","name:mi":"Hu\u012btene","id":424313277,"name:mk":"\u0428\u0432\u0435\u0434\u0441\u043a\u0430","name:af":"Swede","name:zu":"i-Sweden","name:ha":"Suwedan","name:ff":"Suweed","name:fi":"Ruotsi","name:mg":"Soedy","name:fo":"Sv\u00f8r\u00edki","name:fr":"Su\u00e8de","name:fy":"Sweden","name:vo":"Sved\u00e4n","name:zh":"\u745e\u5178","name:gv":"Yn Toolynn","name:so":"Iswidhan","name:sn":"Sweden","name:sl":"\u0160vedska","name:sk":"\u0160v\u00e9dsko","name:ja":"\u30b9\u30a6\u30a7\u30fc\u30c7\u30f3","name:si":"\u0dc3\u0dca\u0dc0\u0dd3\u0da9\u0db1\u0dba","name:fa":"\u0633\u0648\u0626\u062f","name:sg":"Su\u00eade","name:se":"Ruo\u0167\u0167a","name:ne":"\u0938\u094d\u0935\u093f\u0921\u0947\u0928","name:br":"Sveden","name:bs":"\u0160vedska","name:bm":"Suw\u025bdi","name:bn":"\u09b8\u09c1\u0987\u09a1\u09c7\u09a8","name:bo":"\u0f67\u0fb2\u0f74\u0f60\u0f72\u0f0b\u0f4f\u0f53\u0f0d","name:ml":"\u0d38\u0d4d\u0d35\u0d40\u0d21\u0d7b","name:sw":"Uswidi","name:be":"\u0428\u0432\u0435\u0446\u044b\u044f","name:bg":"\u0428\u0432\u0435\u0446\u0438\u044f","name:sr":"\u0428\u0432\u0435\u0434\u0441\u043a\u0430","name:sq":"Suedi","name:ga":"An tSualainn","name:gd":"An t-Suain","name:gl":"Suecia","name:yo":"Or\u00edl\u1eb9\u0301\u00e8de Swidini","name:ak":"Sweden"},"coordinates":[668,2474]},{"type":"Point","properties":{"source":"naturalearthdata.com","kind":"locality","name":"\u00d6rebro","population":98573,"region_capital":true,"min_zoom":7.0,"id":2187},"coordinates":[1686,1340]}]},"transit":{"type":"GeometryCollection","geometries":[{"type":"MultiLineString","properties":{"kind":"train","network":"V\u00e4sttrafik","sort_rank":275,"source":"openstreetmap.org","min_zoom":6.0,"operator":"Arriva","ref":"63","osm_relation":true,"name":"T\u00e5g 63: Herrljunga => Lidk\u00f6ping => Mariestad => Hallsberg"},"arcs":[[43],[44],[45],[46]]},{"type":"MultiLineString","properties":{"kind":"train","name":"T\u00e5g 278: K\u00e4rrgruvan => \u00c4ngelsberg","sort_rank":275,"source":"openstreetmap.org","min_zoom":6.0,"operator":"Engelsberg-Norbergs J\u00e4rnv\u00e4gshistoriska F\u00f6rening","ref":"278","osm_relation":true,"network":"Engelsberg-Norbergs J\u00e4rnv\u00e4gshistoriska F\u00f6rening"},"arcs":[[47],[48],[49],[50],[51]]},{"type":"MultiLineString","properties":{"kind":"train","service":"long_distance","sort_rank":275,"source":"openstreetmap.org","min_zoom":5.0,"operator":"SJ","ref":"70","osm_relation":true},"arcs":[[52],[53]]},{"type":"MultiLineString","properties":{"kind":"train","network":"Engelsberg-Norbergs J\u00e4rnv\u00e4gshistoriska F\u00f6rening","sort_rank":275,"source":"openstreetmap.org","min_zoom":6.0,"operator":"Engelsberg-Norbergs J\u00e4rnv\u00e4gshistoriska F\u00f6rening","ref":"278","osm_relation":true,"name":"T\u00e5g 278: \u00c4ngelsberg => K\u00e4rrgruvan"},"arcs":[[54],[55],[56],[57],[58]]},{"type":"MultiLineString","properties":{"source":"openstreetmap.org","kind":"train","osm_relation":true,"sort_rank":275,"ref":"70","min_zoom":6.0,"operator":"SJ"},"arcs":[[59],[60]]},{"type":"MultiLineString","properties":{"source":"openstreetmap.org","kind":"train","osm_relation":true,"sort_rank":275,"ref":"70","min_zoom":6.0,"operator":"T\u00e5g\u00e5keriet i Bergslagen"},"arcs":[[61],[62],[63],[64],[65],[66],[67],[68],[69],[70],[71],[72],[73],[74],[75],[76],[77],[78],[79],[80],[81],[82],[83],[84],[85],[86],[87],[88],[89],[90],[91],[92],[93],[94],[95],[96],[97],[98],[99],[100],[101],[102],[103],[104],[105],[106],[107],[108],[109],[110],[111],[112],[113],[114],[115],[116],[117],[118],[119],[120],[121],[122],[123],[124],[125],[126],[127],[128],[129],[130],[131],[132],[133],[134],[135],[136],[137],[138],[139],[140],[141],[142],[143],[144],[145],[146],[147],[148],[149],[150],[151],[152],[153],[154],[155],[156],[157],[158],[159],[160],[161],[162],[163],[164],[165],[166],[167],[168],[169],[170],[171],[172],[173],[174],[175],[176],[177],[178],[179],[180],[181],[182],[183],[184],[185],[186],[187],[188],[189],[190],[191],[192],[193],[194],[195],[196],[197],[198],[199],[200],[201],[202],[203],[204],[205],[206],[207],[208],[209],[210],[211],[212],[213],[214],[215],[216],[217],[218],[219],[220],[221],[222],[223],[224],[225],[226],[227],[228],[229],[230],[231],[232],[233],[234],[235],[236],[237],[238],[239],[240],[241],[242],[243],[244],[245],[246],[247],[248],[249],[250],[251],[252],[253],[254],[255],[256],[257],[258],[259],[260],[261],[262],[263],[264],[265],[266],[267],[268],[269],[270],[271],[272],[273],[274],[275],[276],[277],[278],[279],[280],[281],[282],[283],[284],[285],[286],[287],[288],[289],[290],[291],[292],[293],[294],[295],[296],[297],[298],[299],[300],[301],[302],[303],[304],[305],[306],[307],[308],[309],[310],[311],[312],[313],[314],[315],[316],[317],[318],[319],[320],[321],[322],[323],[324],[325],[326],[327],[328],[329],[330],[331],[332],[333],[334],[335],[336],[337],[338],[339],[340],[341],[342],[343],[344],[345],[346],[347],[348],[349],[350],[351],[352],[353],[354],[355],[356],[357],[358],[359],[360],[361],[362],[363],[364],[365],[366],[367],[368],[369],[370],[371],[372],[373],[374],[375],[376],[377],[378],[379],[380],[381],[382],[383],[384],[385],[386],[387],[388],[389],[390],[391],[392],[393],[394],[395],[396],[397],[398],[399],[400],[401],[402],[403],[404],[405],[406],[407],[408],[409],[410],[411],[412],[413],[414],[415],[416],[417],[418],[419],[420],[421],[422],[423],[424],[425],[426],[427],[428],[429],[430],[431],[432],[433],[434],[435],[436],[437],[438],[439],[440],[441],[442],[443],[444],[445],[446],[447],[448],[449],[450],[451],[452],[453],[454],[455],[456],[457],[458],[459],[460],[461],[462],[463],[464],[465],[466],[467],[468],[469],[470],[471],[472],[473],[474],[475],[476],[477],[478],[479],[480],[481],[482],[483],[484],[485],[486],[487],[488],[489],[490],[491],[492],[493],[494],[495],[496],[497],[498],[499],[500],[501],[502],[503],[504],[505],[506],[507],[508],[509],[510],[511],[512],[513],[514],[515],[516],[517],[518],[519],[520],[521],[522],[523],[524],[525],[526],[527],[528],[529],[530],[531],[532],[533],[534],[535],[536],[537],[538],[539],[540],[541],[542],[543],[544],[545],[546],[547],[548],[549],[550],[551],[552],[553],[554],[555],[556],[557],[558],[559],[560],[561],[562],[563],[564],[565],[566],[567],[568],[569],[570],[571],[572],[573],[574],[575],[576],[577],[578],[579],[580],[581],[582],[583],[584],[585],[586],[587],[588],[589],[590],[591],[592],[593],[594],[595],[596],[597],[598],[599],[600],[601],[602],[603],[604],[605],[606],[607],[608],[609],[610],[611],[612],[613],[614],[615],[616],[617],[618],[619],[620],[621],[622],[623],[624],[625],[626],[627],[628],[629],[630],[631],[632],[633],[634],[635],[636],[637],[638],[639],[640],[641],[642],[643],[644],[645],[646],[647],[648],[649],[650],[651],[652],[653],[654],[655],[656],[657],[658],[659],[660],[661],[662],[663],[664],[665],[666],[667],[668],[669],[670],[671],[672],[673],[674],[675],[676],[677],[678],[679],[680],[681],[682],[683],[684],[685],[686],[687],[688],[689],[690],[691],[692],[693],[694],[695],[696],[697],[698],[699],[700],[701],[702],[703],[704],[705],[706],[707],[708],[709],[710],[711],[712],[713],[714],[715],[716],[717],[718],[719],[720],[721],[722],[723],[724],[725],[726],[727],[728],[729],[730],[731],[732],[733],[734],[735],[736],[737],[738],[739],[740],[741],[742],[743],[744],[745],[746],[747],[748],[749],[750],[751],[752],[753],[754],[755],[756],[757],[758],[759],[760],[761],[762],[763],[764],[765],[766],[767],[768],[769],[770],[771],[772],[773],[774],[775],[776],[777],[778],[779],[780],[781],[782],[783],[784],[785],[786],[787],[788],[789],[790],[791],[792],[793],[794],[795],[796],[797],[798],[799],[800],[801],[802],[803],[804],[805],[806],[807],[808],[809],[810],[811],[812],[813],[814],[815],[816],[817],[818],[819],[820],[821],[822],[823],[824],[825],[826],[827],[828],[829],[830],[831],[832],[833],[834],[835],[836],[837],[838],[839],[840],[841],[842],[843],[844],[845],[846],[847],[848],[849],[850],[851],[852],[853],[854],[855],[856],[857],[858],[859],[860],[861],[862],[863],[864],[865],[866],[867],[868],[869],[870],[871],[872],[873],[874],[875],[876],[877],[878],[879],[880],[881],[882],[883],[884],[885],[886],[887],[888],[889],[890],[891],[892],[893],[894],[895],[896],[897],[898],[899],[900],[901],[902],[903],[904],[905],[906],[907],[908],[909],[910],[911],[912],[913],[914],[915],[916],[917],[918],[919],[920],[921],[922],[923],[924],[925],[926],[927],[928],[929],[930],[931],[932],[933],[934],[935],[936],[937],[938],[939],[940],[941],[942],[943],[944],[945],[946],[947],[948],[949],[950],[951],[952],[953],[954],[955],[956],[957],[958],[959],[960],[961],[962],[963],[964],[965],[966],[967],[968],[969],[970],[971],[972],[973],[974],[975],[976],[977],[978],[979],[980],[981],[982],[983],[984],[985],[986],[987],[988],[989],[990],[991],[992]]},{"type":"MultiLineString","properties":{"source":"openstreetmap.org","kind":"train","name":"T\u00e5g 52: Uppsala => Sala","sort_rank":275,"ref":"Uppt\u00e5get","min_zoom":6.0,"osm_relation":true},"arcs":[[993],[994],[995],[996]]},{"type":"MultiLineString","properties":{"kind":"train","network":"SJ","sort_rank":275,"source":"openstreetmap.org","min_zoom":6.0,"operator":"SJ","ref":"56","osm_relation":true,"name":"T\u00e5g 56: Link\u00f6ping => Sala"},"arcs":[[997],[998],[999],[1000],[1001],[1002],[1003],[1004],[1005],[1006]]},{"type":"MultiLineString","properties":{"source":"openstreetmap.org","kind":"train","name":"T\u00e5g 52: Sala => Uppsala","sort_rank":275,"ref":"Uppt\u00e5get","min_zoom":6.0,"osm_relation":true},"arcs":[[1007],[1008],[1009],[1010]]},{"type":"MultiLineString","properties":{"kind":"train","network":"SJ","sort_rank":275,"source":"openstreetmap.org","min_zoom":6.0,"operator":"SJ","ref":"56","osm_relation":true,"name":"T\u00e5g 56: Sala => Link\u00f6ping"},"arcs":[[1011],[1012],[1013],[1014],[1015],[1016],[1017],[1018],[1019],[1020]]},{"type":"MultiLineString","properties":{"kind":"train","network":"V\u00e4sttrafik","sort_rank":275,"source":"openstreetmap.org","min_zoom":6.0,"operator":"Arriva","ref":"63","osm_relation":true,"name":"T\u00e5g 63: Hallsberg => Mariestad => Lidk\u00f6ping => Herrljunga"},"arcs":[[1021],[1022],[1023],[1024]]}]},"pois":{"type":"GeometryCollection","geometries":[{"type":"Point","properties":{"kind":"nature_reserve","name":"Malingsbo-Kloten","area":561421000,"source":"openstreetmap.org","min_zoom":7.72,"tier":2,"id":-305353,"osm_relation":true},"coordinates":[1726,3163]},{"type":"Point","properties":{"kind":"national_park","protect_class":"2","area":422838000,"source":"openstreetmap.org","min_zoom":6.43,"tier":1,"id":-304725,"osm_relation":true,"name":"F\u00e4rnebofj\u00e4rden"},"coordinates":[3924,3969]}]},"boundaries":{"type":"GeometryCollection","geometries":[{"type":"MultiLineString","properties":{"source":"naturalearthdata.com","kind":"region","name":"S\u00f6dermanland - V\u00e4stmanland","sort_rank":256,"kind_detail":"4","min_zoom":6.7,"id":1732},"arcs":[[0],[1],[2]]},{"type":"LineString","properties":{"source":"naturalearthdata.com","kind":"region","name":"Dalarna - V\u00e4rmland","sort_rank":256,"kind_detail":"4","min_zoom":6.7,"id":1737},"arcs":[3]},{"type":"LineString","properties":{"source":"naturalearthdata.com","kind":"region","name":"V\u00e4rmland - V\u00e4stra G\u00f6taland","sort_rank":256,"kind_detail":"4","min_zoom":6.7,"id":1739},"arcs":[4]},{"type":"MultiLineString","properties":{"source":"naturalearthdata.com","kind":"region","name":"V\u00e4stmanland - Dalarna","sort_rank":256,"kind_detail":"4","min_zoom":6.7,"id":1742},"arcs":[[5],[6],[7],[8],[9],[10],[11],[12],[13]]},{"type":"MultiLineString","properties":{"source":"naturalearthdata.com","kind":"region","name":"V\u00e4rmland - Orebro","sort_rank":256,"kind_detail":"4","min_zoom":6.7,"id":1747},"arcs":[[14],[15],[16]]},{"type":"MultiLineString","properties":{"source":"naturalearthdata.com","kind":"region","name":"Orebro - Dalarna","sort_rank":256,"kind_detail":"4","min_zoom":6.7,"id":1748},"arcs":[[17],[18],[19]]},{"type":"LineString","properties":{"source":"naturalearthdata.com","kind":"region","name":"V\u00e4stra G\u00f6taland - Orebro","sort_rank":256,"kind_detail":"4","min_zoom":6.7,"id":1749},"arcs":[20]},{"type":"MultiLineString","properties":{"source":"naturalearthdata.com","kind":"region","name":"Orebro - V\u00e4stmanland","sort_rank":256,"kind_detail":"4","min_zoom":6.7,"id":1750},"arcs":[[21],[22],[23],[24],[25],[26],[27]]},{"type":"LineString","properties":{"source":"naturalearthdata.com","kind":"region","name":"Dalarna - G\u00e4vleborg","sort_rank":256,"kind_detail":"4","min_zoom":6.7,"id":1756},"arcs":[28]},{"type":"MultiLineString","properties":{"source":"naturalearthdata.com","kind":"region","name":"V\u00e4stmanland - G\u00e4vleborg","sort_rank":256,"kind_detail":"4","min_zoom":6.7,"id":1757},"arcs":[[29],[30]]},{"type":"MultiLineString","properties":{"source":"naturalearthdata.com","kind":"region","name":"Uppsala - V\u00e4stmanland","sort_rank":256,"kind_detail":"4","min_zoom":6.7,"id":1760},"arcs":[[31],[32]]},{"type":"MultiLineString","properties":{"source":"naturalearthdata.com","kind":"region","name":"Orebro - \u00d6sterg\u00f6tland","sort_rank":256,"kind_detail":"4","min_zoom":6.7,"id":1770},"arcs":[[33],[34],[35]]},{"type":"MultiLineString","properties":{"source":"naturalearthdata.com","kind":"region","name":"S\u00f6dermanland - V\u00e4stmanland","sort_rank":256,"kind_detail":"4","min_zoom":6.7,"id":1775},"arcs":[[36],[37],[38]]},{"type":"LineString","properties":{"source":"naturalearthdata.com","kind":"region","name":"S\u00f6dermanland - Orebro","sort_rank":256,"kind_detail":"4","min_zoom":6.7,"id":1776},"arcs":[39]},{"type":"MultiLineString","properties":{"source":"naturalearthdata.com","kind":"region","name":"\u00d6sterg\u00f6tland - S\u00f6dermanland","sort_rank":256,"kind_detail":"4","min_zoom":6.7,"id":1777},"arcs":[[40],[41],[42]]}]},"roads":{"type":"GeometryCollection","geometries":[{"type":"MultiLineString","properties":{"kind":"highway","network":"e-road","sort_rank":383,"kind_detail":"motorway","source":"naturalearthdata.com","min_zoom":4.0,"all_networks":["e-road"],"landuse_kind":"urban_area","shield_text":"20","ref":"20","id":4654,"all_shield_texts":["20"]},"arcs":[[1045],[1046],[1047]]},{"type":"MultiLineString","properties":{"kind":"highway","network":"e-road","sort_rank":383,"kind_detail":"motorway","source":"naturalearthdata.com","min_zoom":4.0,"all_networks":["e-road"],"shield_text":"20","ref":"20","id":4654,"all_shield_texts":["20"]},"arcs":[[1048],[1049],[1050]]},{"type":"LineString","properties":{"kind":"highway","network":"e-road","sort_rank":383,"kind_detail":"motorway","source":"naturalearthdata.com","min_zoom":3.0,"all_networks":["e-road"],"landuse_kind":"urban_area","shield_text":"18","ref":"18","id":4655,"all_shield_texts":["18"]},"arcs":[1051]},{"type":"LineString","properties":{"kind":"highway","network":"e-road","sort_rank":383,"kind_detail":"motorway","source":"naturalearthdata.com","min_zoom":3.0,"all_networks":["e-road"],"landuse_kind":"urban_area","shield_text":"18","ref":"18","id":4655,"all_shield_texts":["18"]},"arcs":[1052]},{"type":"MultiLineString","properties":{"kind":"highway","network":"e-road","sort_rank":383,"kind_detail":"motorway","source":"naturalearthdata.com","min_zoom":3.0,"all_networks":["e-road"],"shield_text":"18","ref":"18","id":4655,"all_shield_texts":["18"]},"arcs":[[1053],[1054],[1055]]},{"type":"LineString","properties":{"kind":"highway","network":"e-road","sort_rank":383,"kind_detail":"motorway","source":"naturalearthdata.com","min_zoom":3.0,"all_networks":["e-road"],"shield_text":"18","ref":"18","id":4659,"all_shield_texts":["18"]},"arcs":[1056]},{"type":"MultiLineString","properties":{"kind":"highway","network":"e-road","sort_rank":383,"kind_detail":"motorway","source":"naturalearthdata.com","min_zoom":3.0,"all_networks":["e-road"],"landuse_kind":"urban_area","shield_text":"18","ref":"18","id":4660,"all_shield_texts":["18"]},"arcs":[[1057],[1058]]},{"type":"LineString","properties":{"kind":"highway","network":"e-road","sort_rank":383,"kind_detail":"motorway","source":"naturalearthdata.com","min_zoom":3.0,"all_networks":["e-road"],"landuse_kind":"urban_area","shield_text":"18","ref":"18","id":4660,"all_shield_texts":["18"]},"arcs":[1059]},{"type":"LineString","properties":{"kind":"highway","network":"e-road","sort_rank":383,"kind_detail":"motorway","source":"naturalearthdata.com","min_zoom":3.0,"all_networks":["e-road"],"landuse_kind":"urban_area","shield_text":"18","ref":"18","id":4660,"all_shield_texts":["18"]},"arcs":[1060]},{"type":"MultiLineString","properties":{"kind":"highway","network":"e-road","sort_rank":383,"kind_detail":"motorway","source":"naturalearthdata.com","min_zoom":3.0,"all_networks":["e-road"],"shield_text":"18","ref":"18","id":4660,"all_shield_texts":["18"]},"arcs":[[1061],[1062],[1063],[1064],[1065]]},{"type":"MultiLineString","properties":{"kind":"highway","network":"e-road","sort_rank":383,"kind_detail":"motorway","source":"naturalearthdata.com","min_zoom":3.0,"all_networks":["e-road"],"landuse_kind":"urban_area","shield_text":"18","ref":"18","id":4661,"all_shield_texts":["18"]},"arcs":[[1066],[1067]]},{"type":"MultiLineString","properties":{"kind":"highway","network":"e-road","sort_rank":383,"kind_detail":"motorway","source":"naturalearthdata.com","min_zoom":3.0,"all_networks":["e-road"],"shield_text":"18","ref":"18","id":4661,"all_shield_texts":["18"]},"arcs":[[1068],[1069],[1070]]},{"type":"LineString","properties":{"kind":"major_road","network":"e-road","sort_rank":380,"kind_detail":"primary","source":"naturalearthdata.com","min_zoom":4.0,"shield_text":"20","ref":"20","id":4846},"arcs":[1071]},{"type":"LineString","properties":{"kind":"major_road","network":"e-road","sort_rank":380,"kind_detail":"primary","source":"naturalearthdata.com","min_zoom":3.0,"shield_text":"18","ref":"18","id":4865},"arcs":[1072]},{"type":"LineString","properties":{"kind":"major_road","network":"e-road","sort_rank":380,"kind_detail":"primary","source":"naturalearthdata.com","min_zoom":3.0,"landuse_kind":"urban_area","shield_text":"18","ref":"18","id":4866},"arcs":[1073]},{"type":"MultiLineString","properties":{"kind":"major_road","network":"e-road","sort_rank":380,"kind_detail":"primary","source":"naturalearthdata.com","min_zoom":3.0,"shield_text":"18","ref":"18","id":4866},"arcs":[[1074],[1075]]},{"type":"LineString","properties":{"source":"naturalearthdata.com","kind":"major_road","kind_detail":"primary","sort_rank":380,"landuse_kind":"urban_area","min_zoom":4.0,"id":4953},"arcs":[1076]},{"type":"MultiLineString","properties":{"source":"naturalearthdata.com","kind":"major_road","sort_rank":380,"kind_detail":"primary","min_zoom":4.0,"id":4953},"arcs":[[1077],[1078]]},{"type":"LineString","properties":{"source":"naturalearthdata.com","kind":"major_road","sort_rank":380,"kind_detail":"primary","min_zoom":4.0,"id":4954},"arcs":[1079]},{"type":"LineString","properties":{"kind":"major_road","network":"e-road","sort_rank":380,"kind_detail":"primary","source":"naturalearthdata.com","min_zoom":3.0,"landuse_kind":"urban_area","shield_text":"18","ref":"18","id":5131},"arcs":[1080]},{"type":"MultiLineString","properties":{"kind":"major_road","network":"e-road","sort_rank":380,"kind_detail":"primary","source":"naturalearthdata.com","min_zoom":3.0,"shield_text":"18","ref":"18","id":5131},"arcs":[[1081],[1082]]},{"type":"MultiLineString","properties":{"kind":"highway","network":"e-road","sort_rank":383,"kind_detail":"motorway","source":"naturalearthdata.com","min_zoom":6.0,"all_networks":["e-road"],"landuse_kind":"urban_area","shield_text":"20","ref":"20","id":5443,"all_shield_texts":["20"]},"arcs":[[1083],[1084]]},{"type":"MultiLineString","properties":{"kind":"highway","network":"e-road","sort_rank":383,"kind_detail":"motorway","source":"naturalearthdata.com","min_zoom":6.0,"all_networks":["e-road"],"shield_text":"20","ref":"20","id":5443,"all_shield_texts":["20"]},"arcs":[[1085],[1086]]},{"type":"LineString","properties":{"kind":"highway","network":"e-road","sort_rank":355,"kind_detail":"trunk","source":"naturalearthdata.com","min_zoom":6.0,"all_networks":["e-road"],"landuse_kind":"urban_area","shield_text":"20","ref":"20","id":8121,"all_shield_texts":["20"]},"arcs":[1087]},{"type":"LineString","properties":{"kind":"highway","network":"e-road","sort_rank":355,"kind_detail":"trunk","source":"naturalearthdata.com","min_zoom":6.0,"all_networks":["e-road"],"shield_text":"20","ref":"20","id":8121,"all_shield_texts":["20"]},"arcs":[1088]},{"type":"LineString","properties":{"source":"naturalearthdata.com","kind":"major_road","kind_detail":"secondary","sort_rank":379,"landuse_kind":"urban_area","min_zoom":6.0,"id":54176},"arcs":[1089]},{"type":"LineString","properties":{"source":"naturalearthdata.com","kind":"major_road","sort_rank":379,"kind_detail":"secondary","min_zoom":6.0,"id":54176},"arcs":[1090]}]},"earth":{"type":"GeometryCollection","geometries":[{"type":"Polygon","properties":{"sort_rank":10,"source":"naturalearthdata.com","min_zoom":0.0,"kind":"earth","area":391982641203},"arcs":[[1091]]}]},"landuse":{"type":"GeometryCollection","geometries":[{"type":"MultiPolygon","properties":{"kind":"national_park","protect_class":"2","area":1715119124,"sort_rank":18,"source":"openstreetmap.org","min_zoom":3.0,"tier":1,"osm_relation":true},"arcs":[[[1092]]]},{"type":"MultiPolygon","properties":{"source":"openstreetmap.org","kind":"nature_reserve","tier":2,"area":2613372541,"sort_rank":23,"min_zoom":6.0,"osm_relation":true},"arcs":[[[1093]],[[1094]],[[1095],[1096]],[[1097],[1098]],[[1099],[1100],[1101],[1102]]]},{"type":"MultiPolygon","properties":{"source":"naturalearthdata.com","kind":"urban_area","name":"","area":3347356878,"sort_rank":11,"min_zoom":4.0},"arcs":[[[1103]],[[1104]],[[1105]],[[1106]],[[1107]],[[1108]],[[1109]],[[1110]],[[1111]],[[1112]],[[1113]],[[1114]],[[1115]],[[1116]],[[1117]]]},{"type":"MultiPolygon","properties":{"source":"openstreetmap.org","kind":"nature_reserve","tier":2,"area":1129104357,"sort_rank":23,"min_zoom":4.0,"osm_relation":true},"arcs":[[[1118],[1119],[1120],[1121]]]},{"type":"MultiPolygon","properties":{"source":"openstreetmap.org","kind":"nature_reserve","tier":2,"area":373189567,"sort_rank":23,"min_zoom":7.0},"arcs":[[[1122]]]}]}},"type":"Topology","transform":{"translate":[14.0625,58.8137417157],"scale":[0.0006866455,0.0003481615]},"arcs":[[[4096,1995],[-14,-1]],[[4082,1994],[-24,5]],[[4058,1999],[-818,-161],[-17,-12],[-1,-3]],[[110,4096],[7,-5],[21,-27],[31,-64],[40,-104],[8,-33],[37,-61],[30,-87],[282,-203]],[[0,671],[239,-8],[17,-5],[20,-11],[88,-65]],[[3866,4027],[3,-41],[-29,-16],[-212,-58],[-51,-59],[-66,-128],[-35,-32],[-38,-24],[-86,-30],[-64,-9]],[[2869,3918],[-29,19],[-55,14],[-37,0]],[[2748,3951],[-35,-8],[-84,-34],[-12,-1]],[[3288,3630],[-140,16],[-27,11],[-41,29],[-15,21],[-5,23],[0,21],[-5,22],[-10,63],[-32,39],[-23,12],[-51,13],[-25,14],[-14,15]],[[2900,3929],[-31,-11]],[[2617,3908],[-36,11]],[[2581,3919],[-28,0],[-29,-21],[-67,-69],[-3,-23],[7,-15],[3,-17],[-23,-70],[-17,-39],[-27,-34],[-6,-23],[6,-21],[16,-21],[5,-22],[-1,-14],[-2,-11],[4,-111],[-7,-17],[-14,-30],[-39,-42],[-29,-13]],[[2330,3306],[-26,4],[-34,22],[-41,18],[-53,1]],[[2176,3351],[-32,-22],[-17,-36],[-9,-51],[-10,-32],[-36,-40],[-17,-25],[-13,-29],[-14,-44]],[[602,2151],[7,17],[2,43],[-11,123],[-12,58],[-19,65],[-11,51],[-15,114],[-3,72],[5,189],[-13,256],[-14,55],[-24,29],[-47,33],[-17,17],[-8,18],[5,21],[22,22],[124,78],[-7,100]],[[572,2167],[13,-5],[17,-11]],[[364,582],[22,116],[7,114],[-8,60],[-19,89],[-4,38],[-2,132],[7,96],[22,171],[28,116],[35,105],[51,121],[9,29],[5,20],[9,18],[49,57],[15,27],[8,30],[-6,45],[-5,8],[-26,27],[-17,23],[-9,29],[-1,35],[11,47],[12,24],[15,8]],[[2028,3072],[-272,343],[-15,15],[-28,22],[-322,140],[-131,32],[-67,38],[-28,26],[-9,14],[-3,16],[-1,13],[-1,11],[-6,10],[-22,1]],[[1123,3753],[-29,-12],[-65,-51],[-18,-57],[-7,-54],[29,-107],[-41,-11],[-38,-2]],[[954,3459],[-388,53]],[[559,0],[-53,90],[-15,42],[-2,33],[3,39],[-3,28],[-9,30],[-31,65],[-26,73],[-24,77],[-11,28],[-24,77]],[[2209,2344],[-18,5],[-13,18],[-8,38],[3,70],[27,129],[9,59],[-7,57],[-27,85],[-24,47],[-45,31],[-28,10],[-21,11],[-5,14],[13,26],[4,23],[-3,28],[-25,41],[-13,36]],[[2373,2102],[-19,6],[-12,24],[-8,38],[-3,81],[-10,50],[-22,36],[-29,7]],[[2270,2344],[-61,0]],[[2456,1212],[-22,11],[-19,27],[-31,60],[-37,36],[-59,32],[-9,12],[4,28],[39,113],[-2,10],[-6,13],[-16,22],[-11,22],[-5,27],[3,35],[10,34],[10,16],[111,38],[29,20],[16,33],[-2,43],[-8,40],[-34,49],[-7,14],[0,16],[0,6],[1,6],[29,58],[5,25],[-2,27],[-17,19],[-15,3]],[[2411,2107],[-38,-5]],[[2499,1127],[33,57],[6,15],[-2,14],[-19,5]],[[2517,1218],[-61,-6]],[[3866,4027],[-13,33],[-16,19],[-17,17]],[[4096,4074],[-95,-62],[-40,-11],[-35,-2]],[[3926,3999],[-60,28]],[[4096,3075],[-12,1]],[[4084,3076],[-11,-1],[-5,-16],[0,-27],[4,-67],[-9,-35],[-20,-30],[-69,-47],[-5,-25],[13,-39],[114,-251]],[[1949,80],[41,11],[161,82],[40,32],[38,64],[8,42],[-4,34],[-5,20],[3,22],[13,25],[31,26],[40,18],[39,7],[65,27]],[[1817,103],[39,-3],[53,-20],[40,0]],[[1639,0],[133,91],[45,12]],[[3222,1823],[-7,-18],[1,-27],[6,-24],[11,-22],[12,-13],[32,-21],[5,-8],[2,-11],[-2,-13],[-7,-13],[-18,-19],[-31,-21],[-104,-41],[-44,-8]],[[3078,1564],[-33,1],[-93,27],[-29,2]],[[2923,1594],[-35,-4],[-60,-25],[-29,-26],[-15,-19],[-87,-159],[-11,-26],[-3,-23],[2,-26],[-1,-27],[-8,-28],[-27,-30],[-34,-29],[-116,-45]],[[2499,1127],[-10,-27],[4,-25],[12,-45],[35,-98],[4,-26],[-7,-20],[-22,-21],[-29,-15],[-41,-13],[-24,-14],[-18,-16],[-17,-33],[-49,-54],[-19,-27],[-15,-26],[-6,-27],[13,-33],[17,-28],[92,-89]],[[3276,0],[-20,29],[-235,190],[-86,101],[-235,183],[-52,54],[-20,7]],[[2628,564],[-27,-1],[-30,-17],[-12,-11],[-8,-16],[-19,-55],[-19,-13],[-16,-4]],[[2497,447],[-78,43]],[[1523,726],[-400,-151],[-169,-13],[-371,-151],[-41,-104],[-69,-26],[-103,-142],[-83,-41],[-40,37],[-83,-58],[-45,11],[-77,-88]],[[395,168],[-1,-1]],[[801,502],[6,3],[-6,-3]],[[1518,725],[-1,0],[6,2],[-5,-2]],[[2720,3583],[1,-1]],[[2731,3604]],[[2736,3661],[-1,2]],[[2738,3655],[-7,-108],[103,-72],[23,-71],[-22,-118]],[[2833,3476]],[[0,1541],[14,-4],[166,-249],[80,-50],[38,7],[25,47],[93,9],[106,-54],[130,-323],[52,-34],[110,-12],[29,-38],[22,-96],[-34,-227],[127,46],[166,13],[426,158]],[[1523,727],[0,-1],[9,3],[-9,-2]],[[2720,3583],[1,-1]],[[2731,3604]],[[2736,3661],[-1,2]],[[2738,3655],[-7,-108],[103,-72],[23,-71],[-22,-118]],[[2833,3476]],[[0,1541],[14,-4],[166,-249],[80,-50],[38,7],[25,47],[93,9],[106,-54],[130,-323],[52,-34],[110,-12],[29,-38],[22,-96],[-34,-227],[128,46],[165,12],[426,159]],[[1528,728],[-9,-3],[9,3]],[[63,1448],[7,-7]],[[70,1441],[1,0]],[[71,1441],[0,-1]],[[71,1440],[1,-1]],[[72,1439]],[[72,1439]],[[72,1439],[2,-2]],[[74,1437],[0,-1]],[[74,1436],[1,-1]],[[75,1435],[2,-2]],[[77,1433]],[[77,1433],[1,-1]],[[78,1432],[2,-2]],[[80,1430],[5,-7]],[[85,1423],[1,-2]],[[86,1421],[1,-1]],[[87,1420]],[[87,1420],[1,-1]],[[88,1419],[15,-20]],[[103,1399],[1,-1]],[[104,1398],[1,-2]],[[105,1396],[17,-22]],[[122,1374],[9,-13]],[[131,1361]],[[131,1361],[34,-45]],[[165,1316],[1,-2]],[[166,1314],[0,-1]],[[166,1313],[1,-1]],[[167,1312],[1,-1]],[[168,1311],[1,-1]],[[169,1310],[0,-2]],[[169,1308],[1,-1]],[[170,1307],[1,-1]],[[171,1306],[1,-1]],[[172,1305],[0,-1]],[[172,1304],[1,-1]],[[173,1303],[3,-9]],[[176,1294],[1,-1]],[[177,1293],[0,-1]],[[177,1292],[1,-1]],[[178,1291],[0,-1]],[[178,1290],[1,0]],[[179,1290],[0,-1]],[[179,1289],[1,-1]],[[180,1288],[1,-1]],[[181,1287],[1,-1]],[[182,1286]],[[182,1286],[1,-1]],[[183,1285],[1,-1]],[[184,1284],[1,0]],[[185,1284]],[[185,1284],[1,-1]],[[186,1283],[1,0]],[[187,1283],[1,-1]],[[188,1282],[1,0]],[[189,1282],[23,-11]],[[212,1271],[1,0]],[[213,1271],[1,0]],[[214,1271],[0,-1]],[[214,1270],[1,0]],[[215,1270],[1,0]],[[216,1270],[1,0]],[[217,1270],[1,0]],[[218,1270],[1,0]],[[219,1270]],[[219,1270],[1,0]],[[220,1270],[1,-1]],[[221,1269],[1,1]],[[222,1270],[2,0]],[[224,1270],[1,0]],[[225,1270],[1,0]],[[226,1270],[1,0]],[[227,1270],[1,-1]],[[228,1269],[1,0]],[[229,1269],[1,0]],[[230,1269],[1,0]],[[231,1269],[1,-1]],[[232,1268],[2,0]],[[234,1268],[1,0]],[[235,1268],[0,-1]],[[235,1267],[1,0]],[[236,1267],[1,-1]],[[237,1266],[2,-1]],[[239,1265],[1,-1]],[[240,1264]],[[240,1264],[1,-1]],[[241,1263],[1,-1]],[[242,1262],[1,-1]],[[243,1261],[1,-1]],[[244,1260],[1,-2]],[[245,1258],[1,-2]],[[246,1256],[4,-7]],[[250,1249],[0,-1]],[[250,1248],[1,-2]],[[251,1246],[1,-1]],[[252,1245],[0,-1]],[[252,1244],[1,0]],[[253,1244],[1,-1]],[[254,1243],[1,-1]],[[255,1242],[0,-1]],[[255,1241],[1,0]],[[256,1241],[1,-1]],[[257,1240],[1,-1]],[[258,1239],[1,-1]],[[259,1238],[1,0]],[[260,1238],[1,0]],[[261,1238],[1,-1]],[[262,1237],[1,0]],[[263,1237],[1,0]],[[264,1237],[1,0]],[[265,1237],[1,0]],[[266,1237],[1,-1]],[[267,1236],[1,0]],[[268,1236]],[[268,1236],[1,0]],[[269,1236],[1,0]],[[270,1236]],[[270,1236],[1,0]],[[271,1236],[1,1]],[[272,1237],[2,0]],[[274,1237],[1,0]],[[275,1237],[2,0]],[[277,1237],[2,0]],[[279,1237],[1,0]],[[280,1237],[1,1]],[[281,1238],[1,0]],[[282,1238],[1,0]],[[283,1238]],[[283,1238],[1,0]],[[284,1238],[1,0]],[[285,1238],[1,1]],[[286,1239],[1,0]],[[287,1239]],[[287,1239],[1,0]],[[288,1239],[2,1]],[[290,1240],[1,0]],[[291,1240],[2,1]],[[293,1241],[1,1]],[[294,1242],[1,1]],[[295,1243],[2,1]],[[297,1244],[1,1]],[[298,1245],[1,1]],[[299,1246],[1,1]],[[300,1247],[2,2]],[[302,1249],[1,1]],[[303,1250],[1,2]],[[304,1252],[1,1]],[[305,1253],[1,2]],[[306,1255],[1,2]],[[307,1257],[0,1]],[[307,1258],[1,2]],[[308,1260],[0,1]],[[308,1261],[1,5]],[[309,1266],[1,5]],[[310,1271],[2,6]],[[312,1277],[1,2]],[[313,1279],[0,2]],[[313,1281],[1,2]],[[314,1283],[1,2]],[[315,1285],[1,2]],[[316,1287],[1,1]],[[317,1288],[1,1]],[[318,1289],[1,1]],[[319,1290],[1,1]],[[320,1291],[2,1]],[[322,1292],[1,0]],[[323,1292],[1,0]],[[324,1292],[1,1]],[[325,1293],[2,0]],[[327,1293],[1,1]],[[328,1294],[2,0]],[[330,1294],[1,0]],[[331,1294],[2,0]],[[333,1294]],[[333,1294],[1,-1]],[[334,1293],[1,0]],[[335,1293],[1,0]],[[336,1293],[1,-1]],[[337,1292],[2,0]],[[339,1292],[1,-1]],[[340,1291],[1,0]],[[341,1291],[1,-1]],[[342,1290],[1,-1]],[[343,1289],[1,-1]],[[344,1288],[1,-1]],[[345,1287],[1,-1]],[[346,1286],[1,-1]],[[347,1285],[1,-1]],[[348,1284],[1,0]],[[349,1284],[0,-1]],[[349,1283],[1,0]],[[350,1283],[1,-1]],[[351,1282],[1,0]],[[352,1282],[1,-1]],[[353,1281],[1,0]],[[354,1281],[1,0]],[[355,1281],[1,-1]],[[356,1280],[1,0]],[[357,1280],[1,0]],[[358,1280],[1,0]],[[359,1280],[1,0]],[[360,1280],[1,0]],[[361,1280],[1,0]],[[362,1280],[1,0]],[[363,1280]],[[363,1280],[1,0]],[[364,1280],[1,0]],[[365,1280],[1,1]],[[366,1281],[1,0]],[[367,1281],[1,1]],[[368,1282],[2,0]],[[370,1282],[1,1]],[[371,1283],[4,2]],[[375,1285],[26,13]],[[401,1298],[2,1]],[[403,1299],[1,0]],[[404,1299],[2,1]],[[406,1300],[1,0]],[[407,1300],[1,0]],[[408,1300],[1,0]],[[409,1300],[1,1]],[[410,1301],[2,0]],[[412,1301],[1,0]],[[413,1301],[2,0]],[[415,1301],[1,0]],[[416,1301],[2,0]],[[418,1301],[1,0]],[[419,1301],[1,0]],[[420,1301],[1,0]],[[421,1301],[2,0]],[[423,1301],[1,0]],[[424,1301],[1,-1]],[[425,1300],[2,0]],[[427,1300],[1,-1]],[[428,1299],[1,0]],[[429,1299],[2,0]],[[431,1299],[1,-1]],[[432,1298],[1,0]],[[433,1298],[1,-1]],[[434,1297]],[[434,1297],[1,0]],[[435,1297],[1,-1]],[[436,1296],[2,-1]],[[438,1295]],[[438,1295],[23,-13]],[[461,1282],[12,-7]],[[473,1275],[22,-13]],[[495,1262],[2,-1]],[[497,1261],[3,-1]],[[500,1260],[1,-1]],[[501,1259]],[[501,1259],[3,-1]],[[504,1258],[7,-5]],[[511,1253],[2,-1]],[[513,1252],[1,0]],[[514,1252],[1,-1]],[[515,1251],[1,0]],[[516,1251],[1,-1]],[[517,1250],[1,-1]],[[518,1249],[1,-1]],[[519,1248],[1,0]],[[520,1248],[1,0]],[[521,1248],[0,-1]],[[521,1247],[1,0]],[[522,1247],[1,-1]],[[523,1246]],[[523,1246],[1,-1]],[[524,1245],[1,0]],[[525,1245],[0,-1]],[[525,1244],[1,0]],[[526,1244],[1,-1]],[[527,1243],[0,-1]],[[527,1242],[1,-1]],[[528,1241],[1,-1]],[[529,1240],[0,-1]],[[529,1239],[1,0]],[[530,1239],[0,-1]],[[530,1238],[1,-2]],[[531,1236],[0,-1]],[[531,1235],[1,-1]],[[532,1234],[0,-2]],[[532,1232],[1,-5]],[[533,1227],[1,-3]],[[534,1224],[0,-2]],[[534,1222],[0,-2]],[[534,1220],[1,-1]],[[535,1219],[0,-1]],[[535,1218],[1,-2]],[[536,1216],[1,-2]],[[537,1214],[0,-1]],[[537,1213],[1,-1]],[[538,1212],[1,-2]],[[539,1210],[1,-2]],[[540,1208],[1,-2]],[[541,1206],[1,-2]],[[542,1204],[3,-3]],[[545,1201],[1,-2]],[[546,1199]],[[546,1199],[1,-1]],[[547,1198]],[[547,1198],[0,-1]],[[547,1197],[1,0]],[[548,1197]],[[548,1197],[0,-1]],[[548,1196],[1,-1]],[[549,1195],[0,-1]],[[549,1194],[1,0]],[[550,1194],[0,-2]],[[550,1192],[1,0]],[[551,1192],[0,-1]],[[551,1191],[0,-1]],[[551,1190]],[[551,1190],[1,-1]],[[552,1189]],[[552,1189],[0,-1]],[[552,1188]],[[552,1188],[0,-1]],[[552,1187],[1,-1]],[[553,1186],[0,-1]],[[553,1185]],[[553,1185],[0,-1]],[[553,1184],[0,-1]],[[553,1183],[1,-1]],[[554,1182],[0,-1]],[[554,1181],[0,-1]],[[554,1180],[0,-1]],[[554,1179],[0,-1]],[[554,1178],[0,-1]],[[554,1177],[0,-8]],[[554,1169],[0,-1]],[[554,1168],[1,-1]],[[555,1167],[0,-1]],[[555,1166],[0,-1]],[[555,1165],[0,-1]],[[555,1164],[0,-1]],[[555,1163],[1,-1]],[[556,1162],[0,-1]],[[556,1161],[0,-1]],[[556,1160],[1,-1]],[[557,1159],[0,-1]],[[557,1158],[1,0]],[[558,1158],[0,-1]],[[558,1157],[1,-1]],[[559,1156],[0,-1]],[[559,1155],[1,0]],[[560,1155],[0,-1]],[[560,1154],[1,-1]],[[561,1153]],[[561,1153],[1,-1]],[[562,1152],[1,-1]],[[563,1151],[3,-2]],[[566,1149],[1,-1]],[[567,1148]],[[567,1148],[1,-1]],[[568,1147]],[[568,1147],[1,-1]],[[569,1146],[1,-1]],[[570,1145],[0,-1]],[[570,1144],[1,-1]],[[571,1143],[0,-1]],[[571,1142],[1,-1]],[[572,1141],[0,-1]],[[572,1140],[1,-1]],[[573,1139],[0,-1]],[[573,1138],[1,-2]],[[574,1136],[0,-2]],[[574,1134],[1,-3]],[[575,1131],[0,-2]],[[575,1129],[1,-2]],[[576,1127],[0,-4]],[[576,1123],[1,-1]],[[577,1122],[5,-25]],[[582,1097],[2,-12]],[[584,1085],[1,-1]],[[585,1084],[0,-1]],[[585,1083],[0,-1]],[[585,1082],[0,-1]],[[585,1081],[1,-1]],[[586,1080],[0,-1]],[[586,1079]],[[586,1079],[1,-1]],[[587,1078],[0,-1]],[[587,1077],[1,-1]],[[588,1076],[0,-1]],[[588,1075],[1,0]],[[589,1075],[0,-1]],[[589,1074],[1,-1]],[[590,1073],[1,-1]],[[591,1072],[1,-1]],[[592,1071],[3,-3]],[[595,1068]],[[595,1068]],[[595,1068],[2,-1]],[[597,1067],[4,-4]],[[601,1063],[2,-2]],[[603,1061],[1,-1]],[[604,1060],[1,-1]],[[605,1059],[1,0]],[[606,1059],[0,-1]],[[606,1058],[1,-1]],[[607,1057]],[[607,1057],[1,-1]],[[608,1056],[1,-1]],[[609,1055]],[[609,1055],[1,-1]],[[610,1054],[0,-1]],[[610,1053]],[[610,1053],[1,-1]],[[611,1052],[1,-1]],[[612,1051],[0,-2]],[[612,1049],[1,-1]],[[613,1048],[1,-1]],[[614,1047],[0,-2]],[[614,1045],[1,-1]],[[615,1044],[1,-2]],[[616,1042],[0,-1]],[[616,1041],[0,-1]],[[616,1040],[1,-1]],[[617,1039],[0,-1]],[[617,1038],[0,-2]],[[617,1036],[1,-1]],[[618,1035],[0,-1]],[[618,1034],[0,-1]],[[618,1033],[1,-1]],[[619,1032],[0,-1]],[[619,1031],[0,-1]],[[619,1030],[1,-1]],[[620,1029]],[[620,1029],[0,-1]],[[620,1028]],[[620,1028],[1,-1]],[[621,1027],[0,-1]],[[621,1026]],[[621,1026],[1,-1]],[[622,1025],[0,-1]],[[622,1024],[2,-1]],[[624,1023],[3,-5]],[[627,1018],[2,-3]],[[629,1015],[1,-1]],[[630,1014],[1,-1]],[[631,1013],[0,-1]],[[631,1012],[1,-1]],[[632,1011],[1,-1]],[[633,1010],[0,-1]],[[633,1009],[1,-1]],[[634,1008],[0,-1]],[[634,1007],[0,-1]],[[634,1006],[1,-1]],[[635,1005],[0,-2]],[[635,1003],[1,-1]],[[636,1002],[0,-1]],[[636,1001],[0,-1]],[[636,1000],[0,-2]],[[636,998],[1,-1]],[[637,997],[0,-1]],[[637,996],[0,-1]],[[637,995],[0,-1]],[[637,994],[0,-1]],[[637,993],[0,-1]],[[637,992],[0,-1]],[[637,991],[0,-1]],[[637,990],[0,-1]],[[637,989],[-1,-11]],[[636,978],[0,-4]],[[636,974],[0,-14]],[[636,960],[-1,-2]],[[635,958],[0,-1]],[[635,957],[0,-1]],[[635,956],[0,-1]],[[635,955],[1,-1]],[[636,954],[0,-1]],[[636,953],[0,-1]],[[636,952],[0,-1]],[[636,951],[0,-1]],[[636,950],[0,-1]],[[636,949]],[[636,949],[1,-1]],[[637,948],[0,-1]],[[637,947],[0,-1]],[[637,946],[1,-1]],[[638,945],[0,-1]],[[638,944],[0,-1]],[[638,943],[1,-1]],[[639,942]],[[639,942],[0,-1]],[[639,941],[1,-1]],[[640,940]],[[640,940],[1,-1]],[[641,939],[0,-1]],[[641,938],[1,-1]],[[642,937],[2,-2]],[[644,935],[4,-5]],[[648,930],[3,-5]],[[651,925],[1,-1]],[[652,924],[2,-2]],[[654,922],[0,-1]],[[654,921],[1,-1]],[[655,920],[1,-1]],[[656,919],[1,-1]],[[657,918],[1,-1]],[[658,917],[1,0]],[[659,917],[0,-1]],[[659,916]],[[659,916],[3,-3]],[[662,913],[1,-1]],[[663,912],[1,-2]],[[664,910],[1,0]],[[665,910],[0,-1]],[[665,909],[1,0]],[[666,909],[1,-1]],[[667,908],[1,-1]],[[668,907],[1,0]],[[669,907],[0,-1]],[[669,906],[1,-1]],[[670,905],[1,0]],[[671,905],[1,-1]],[[672,904],[1,0]],[[673,904],[2,-1]],[[675,903],[1,0]],[[676,903],[1,-1]],[[677,902],[1,0]],[[678,902],[1,-1]],[[679,901],[8,-4]],[[687,897],[7,-3]],[[694,894],[2,-1]],[[696,893],[2,0]],[[698,893],[1,-1]],[[699,892],[1,0]],[[700,892],[1,-1]],[[701,891],[1,0]],[[702,891],[1,-1]],[[703,890],[1,0]],[[704,890],[1,0]],[[705,890],[1,0]],[[706,890],[2,-1]],[[708,889],[1,0]],[[709,889],[2,0]],[[711,889],[2,-1]],[[713,888]],[[713,888],[12,-1]],[[725,887],[14,-2]],[[739,885],[3,-1]],[[742,884],[2,0]],[[744,884],[1,0]],[[745,884],[2,0]],[[747,884],[1,0]],[[748,884],[2,0]],[[750,884],[2,-1]],[[752,883],[2,0]],[[754,883],[3,0]],[[757,883],[6,1]],[[763,884],[9,0]],[[772,884],[6,0]],[[778,884],[13,0]],[[791,884],[2,0]],[[793,884],[1,0]],[[794,884],[1,0]],[[795,884],[1,0]],[[796,884],[1,0]],[[797,884]],[[797,884],[1,-1]],[[798,883],[1,0]],[[799,883],[1,0]],[[800,883],[1,0]],[[801,883],[1,-1]],[[802,882],[1,0]],[[803,882],[1,0]],[[804,882],[1,-1]],[[805,881],[5,-2]],[[810,879],[3,-1]],[[813,878],[1,0]],[[814,878],[2,-1]],[[816,877],[1,-1]],[[817,876],[2,-1]],[[819,875],[1,0]],[[820,875],[1,-1]],[[821,874]],[[821,874],[2,-1]],[[823,873],[0,-1]],[[823,872],[1,-1]],[[824,871],[1,-1]],[[825,870],[1,0]],[[826,870],[0,-1]],[[826,869],[1,-1]],[[827,868]],[[827,868],[1,-1]],[[828,867],[1,-1]],[[829,866],[1,-1]],[[830,865],[0,-1]],[[830,864],[1,-1]],[[831,863],[1,-1]],[[832,862],[0,-2]],[[832,860],[10,-17]],[[842,843],[0,-1]],[[842,842],[1,-1]],[[843,841],[0,-1]],[[843,840],[1,-2]],[[844,838],[0,-1]],[[844,837],[1,0]],[[845,837],[0,-1]],[[845,836],[0,-2]],[[845,834],[0,-1]],[[845,833],[1,0]],[[846,833],[0,-2]],[[846,831]],[[846,831],[0,-2]],[[846,829],[0,-1]],[[846,828],[0,-1]],[[846,827],[0,-1]],[[846,826],[0,-1]],[[846,825],[0,-2]],[[846,823],[-1,-1]],[[845,822],[0,-1]],[[845,821],[0,-1]],[[845,820],[0,-1]],[[845,819],[-1,-1]],[[844,818],[-1,-5]],[[843,813]],[[843,813],[0,-1]],[[843,812],[-1,-1]],[[842,811],[0,-1]],[[842,810],[-1,-3]],[[841,807],[0,-1]],[[841,806],[0,-1]],[[841,805],[0,-1]],[[841,804],[-1,-1]],[[840,803]],[[840,803],[0,-1]],[[840,802],[0,-1]],[[840,801],[0,-1]],[[840,800],[0,-1]],[[840,799]],[[840,799],[0,-1]],[[840,798],[0,-1]],[[840,797],[1,0]],[[841,797],[0,-1]],[[841,796],[0,-1]],[[841,795],[0,-1]],[[841,794]],[[841,794],[0,-1]],[[841,793],[1,0]],[[842,793],[0,-1]],[[842,792]],[[842,792],[0,-1]],[[842,791],[1,-1]],[[843,790]],[[843,790],[0,-1]],[[843,789]],[[843,789],[1,-1]],[[844,788],[0,-1]],[[844,787],[1,0]],[[845,787],[0,-1]],[[845,786]],[[845,786],[1,-1]],[[846,785]],[[846,785],[1,-1]],[[847,784]],[[847,784],[4,-3]],[[851,781],[1,-2]],[[852,779],[2,-1]],[[854,778],[0,-1]],[[854,777],[1,0]],[[855,777],[0,-1]],[[855,776],[1,0]],[[856,776],[1,-1]],[[857,775],[1,-1]],[[858,774],[0,-1]],[[858,773],[1,-1]],[[859,772]],[[859,772],[1,-1]],[[860,771]],[[860,771],[0,-1]],[[860,770],[1,-1]],[[861,769]],[[861,769],[0,-1]],[[861,768]],[[861,768],[1,-1]],[[862,767],[0,-1]],[[862,766],[0,-1]],[[862,765],[0,-1]],[[862,764],[1,-1]],[[863,763],[0,-2]],[[863,761],[0,-1]],[[863,760],[1,-1]],[[864,759],[0,-1]],[[864,758],[0,-1]],[[864,757],[0,-2]],[[864,755],[0,-1]],[[864,754],[0,-1]],[[864,753],[1,-1]],[[865,752],[0,-1]],[[865,751],[0,-1]],[[865,750],[0,-2]],[[865,748],[0,-1]],[[865,747],[0,-2]],[[865,745],[0,-1]],[[865,744],[0,-1]],[[865,743],[0,-2]],[[865,741],[-1,-1]],[[864,740],[0,-2]],[[864,738],[0,-2]],[[864,736],[-1,-4]],[[64,1449],[4,-5],[2,-3]],[[265,1237],[1,0]],[[266,1237],[1,0]],[[267,1237],[1,-1]],[[268,1236]],[[268,1236],[1,0]],[[269,1236],[1,0]],[[270,1236],[0,1]],[[270,1237],[1,0]],[[271,1237],[1,0]],[[272,1237],[3,0]],[[275,1237],[2,0]],[[277,1237],[1,0]],[[278,1237],[2,1]],[[280,1238],[1,0]],[[281,1238],[1,0]],[[282,1238],[1,0]],[[283,1238]],[[283,1238],[1,0]],[[284,1238]],[[284,1238],[1,0]],[[285,1238],[1,1]],[[547,1198]],[[547,1198],[0,-1]],[[547,1197],[1,0]],[[548,1197]],[[548,1197],[1,-1]],[[549,1196],[0,-1]],[[549,1195]],[[549,1195],[1,-1]],[[550,1194],[0,-1]],[[550,1193]],[[550,1193],[1,-1]],[[551,1192]],[[551,1192],[0,-1]],[[551,1191]],[[551,1191],[0,-1]],[[551,1190]],[[551,1190]],[[658,917],[1,-1]],[[659,916],[3,-3]],[[662,913],[1,-1]],[[663,912],[1,-1]],[[664,911],[1,-1]],[[665,910],[1,-1]],[[666,909]],[[666,909],[1,-1]],[[667,908],[1,-1]],[[668,907],[1,0]],[[669,907],[0,-1]],[[669,906],[1,0]],[[670,906],[1,-1]],[[671,905],[1,0]],[[672,905],[1,-1]],[[673,904],[2,-1]],[[675,903],[1,0]],[[676,903],[3,-2]],[[842,792]],[[842,792],[0,-1]],[[842,791],[1,-1]],[[843,790]],[[843,790],[0,-1]],[[843,789],[1,0]],[[844,789],[0,-1]],[[844,788],[0,-1]],[[844,787],[1,0]],[[845,787]],[[845,787],[0,-1]],[[845,786],[1,0]],[[846,786],[0,-1]],[[846,785],[1,0]],[[847,785],[0,-1]],[[847,784],[5,-5]],[[852,779]],[[852,779],[1,0]],[[853,779]],[[853,779],[0,-1]],[[853,778],[1,0]],[[67,1445],[0,-1]],[[67,1444],[-4,5]],[[63,1449]],[[63,1449],[4,-4]],[[67,1445]],[[67,1445],[-4,4]],[[72,1439],[-1,1]],[[71,1440],[-1,1]],[[70,1441],[-1,1]],[[69,1442],[0,1]],[[69,1443],[-1,0]],[[68,1443]],[[68,1443],[-1,1]],[[67,1444],[-2,2]],[[65,1446],[-2,2]],[[63,1448],[-3,4]],[[60,1452],[-1,1]],[[59,1453],[-2,2]],[[57,1455],[-1,2]],[[56,1457],[-1,1]],[[55,1458],[0,2]],[[55,1460],[-1,1]],[[54,1461],[0,1]],[[54,1462],[-1,3]],[[53,1465],[-1,2]],[[52,1467],[-1,2]],[[51,1469],[-1,2]],[[50,1471],[0,1]],[[50,1472]],[[50,1472],[-1,1]],[[49,1473],[0,1]],[[49,1474],[-1,1]],[[48,1475],[-1,1]],[[47,1476],[0,1]],[[47,1477],[-1,1]],[[46,1478],[-2,1]],[[44,1479],[-1,2]],[[43,1481],[-8,8]],[[35,1489],[-2,1]],[[33,1490],[0,1]],[[33,1491],[-1,1]],[[32,1492],[-1,1]],[[31,1493],[-1,1]],[[30,1494],[0,2]],[[30,1496],[-1,1]],[[29,1497],[0,1]],[[29,1498],[-1,1]],[[28,1499],[0,1]],[[28,1500],[0,2]],[[28,1502],[-3,19]],[[25,1521],[0,1]],[[25,1522],[-1,2]],[[24,1524],[0,1]],[[24,1525],[-1,1]],[[23,1526],[0,1]],[[23,1527],[-1,2]],[[22,1529],[0,1]],[[22,1530],[-1,1]],[[21,1531],[-1,1]],[[20,1532],[0,1]],[[20,1533],[-1,0]],[[19,1533],[-1,1]],[[18,1534],[-1,1]],[[17,1535],[-1,1]],[[16,1536],[-1,0]],[[15,1536],[-1,1]],[[14,1537],[-1,1]],[[13,1538],[-2,1]],[[11,1539],[-2,1]],[[9,1540],[-2,0]],[[7,1540],[-1,1]],[[6,1541],[-2,0]],[[4,1541],[-4,0]],[[863,732],[-18,-99]],[[845,633],[-19,-98]],[[826,535],[0,-2]],[[826,533],[-1,-2]],[[825,531],[0,-4]],[[825,527],[-2,-6]],[[823,521],[0,-1]],[[823,520],[0,-1]],[[823,519],[0,-1]],[[823,518]],[[823,518],[-1,-1]],[[822,517],[0,-1]],[[822,516]],[[822,516],[-1,-1]],[[821,515],[0,-1]],[[821,514],[-1,-1]],[[820,513],[-1,-1]],[[819,512],[-1,-1]],[[818,511],[0,-1]],[[818,510],[-1,0]],[[817,510],[0,-1]],[[817,509],[-1,0]],[[816,509]],[[816,509],[-1,-1]],[[815,508]],[[815,508]],[[815,508],[-1,0]],[[814,508],[0,-1]],[[814,507],[-1,0]],[[813,507]],[[813,507],[-1,0]],[[812,507]],[[812,507],[-1,-1]],[[811,506]],[[811,506],[-1,0]],[[810,506],[-1,0]],[[809,506],[-1,-1]],[[808,505],[-1,0]],[[807,505],[-3,-1]],[[804,504],[-2,-1]],[[802,503],[-1,-1]],[[551,1191]],[[551,1191]],[[551,1191],[0,1]],[[551,1192]],[[551,1192],[-1,1]],[[550,1193]],[[550,1193],[0,1]],[[550,1194],[-1,1]],[[549,1195]],[[549,1195],[0,1]],[[549,1196],[-1,1]],[[548,1197]],[[548,1197],[0,-1]],[[548,1196],[1,-1]],[[549,1195],[0,-1]],[[549,1194],[1,0]],[[550,1194],[0,-1]],[[550,1193]],[[550,1193],[1,-1]],[[551,1192],[0,-1]],[[548,1197]],[[548,1197],[0,-1]],[[548,1196],[1,-1]],[[549,1195],[0,-1]],[[549,1194],[1,0]],[[550,1194],[0,-1]],[[550,1193]],[[550,1193],[0,-1]],[[550,1192],[1,-1]],[[551,1191]],[[807,505]],[[807,505],[-4,-2]],[[803,503],[-1,0]],[[802,503],[-1,-1]],[[801,502]],[[801,502],[1,1]],[[802,503],[1,0]],[[803,503],[4,2]],[[4096,3231],[-144,26],[-188,-77],[-31,-3],[-6,2],[-25,15]],[[4061,3236],[4,0]],[[3705,3193],[3,-2],[-7,4],[4,-2]],[[3706,3192],[-8,4],[8,-4]],[[3046,0],[60,58],[-1,464],[493,131],[41,32],[49,22],[4,80],[-78,73],[-22,121],[-118,91],[30,406],[62,110],[-98,63],[-95,95],[-61,22],[-166,370],[40,27],[171,-3],[248,99],[32,30],[78,215],[51,17],[-12,462],[-33,184],[-5,15],[-4,4],[-6,4],[-4,2]],[[3289,1829],[-1,1]],[[3753,2863],[1,-2]],[[3122,525],[7,-1],[2,0],[-9,2],[0,-1]],[[3162,2156],[-2,-1],[2,1]],[[3552,1000],[3,0],[-3,0]],[[3554,1598],[7,-5],[-6,4],[-1,1]],[[3626,2280],[4,4],[-4,-4]],[[3679,700],[-6,-2],[-2,-1],[2,1],[6,2]],[[3706,3192],[-8,4],[8,-4]],[[4096,3231],[-144,26],[-188,-77],[-31,-3],[-6,2],[-25,15]],[[4061,3236],[4,0]],[[3705,3193],[3,-2],[-7,4],[4,-2]],[[3706,3192],[-8,4],[8,-4]],[[3702,3194],[4,-2],[6,-4],[4,-4],[5,-15],[33,-184],[12,-462],[-51,-17],[-78,-215],[-32,-30],[-248,-99],[-173,3],[-38,-27],[166,-370],[61,-22],[95,-95],[98,-63],[-62,-110],[-30,-406],[118,-91],[22,-121],[78,-73],[-4,-80],[-50,-23],[-40,-31],[-493,-131],[1,-464],[-60,-58]],[[3289,1829],[-1,1]],[[3753,2863],[1,-2]],[[3123,525],[4,-1],[3,0],[-9,1],[2,0]],[[3163,2156],[-3,-2],[3,2]],[[3555,1000],[-3,0],[0,1],[3,-1]],[[3558,1595],[-3,2],[2,-1],[1,-1]],[[3624,2277],[7,6],[-6,-5],[-1,-1]],[[3679,700],[-6,-2],[-2,-1],[2,1],[6,2]],[[3706,3192],[-8,4],[8,-4]],[[1535,730],[-412,-155],[-169,-14],[-374,-152],[-38,-102],[-69,-26],[-103,-142],[-83,-41],[-40,37],[-83,-58],[-45,11],[-77,-88]],[[395,168],[-1,-1]],[[801,502],[6,2],[-6,-2]],[[1528,728],[-9,-3],[9,3]],[[3358,1380],[51,29],[33,44],[-20,-67],[-51,-43],[-362,-105],[-107,-66],[-50,-14],[-95,-2],[-19,-9],[-21,-25],[-28,-16],[-30,-8],[-25,2],[14,-30],[43,-19],[2,-31],[-14,-19],[-51,-16],[-60,-41],[-183,0],[-47,13],[-83,67],[-46,16],[-6,11],[16,25],[46,47],[42,7],[17,8],[-30,57],[-115,4],[-35,60],[15,1],[36,17],[-36,28],[-135,-41],[-60,-5],[-101,49],[-110,4],[-39,11],[-18,32],[43,40],[255,-59],[21,12],[66,54],[40,46],[28,14],[55,11],[45,-42],[57,-16],[113,1],[41,-22],[47,-88],[47,-10],[-1,47],[15,21],[12,21],[-16,31],[22,48],[18,-19],[8,-44],[-3,-24],[245,-10],[50,-51],[38,-16],[38,1],[55,43],[117,11],[57,46],[34,17],[25,-13],[36,-29],[54,4]],[[4096,1899],[-50,46],[-28,7],[4,-45],[-111,0],[-12,5],[-22,16],[-14,0],[-13,-8],[-13,-14],[-4,-13],[46,-20],[166,-153],[17,-11],[34,4],[0,-61],[-84,0],[-13,9],[-38,69],[-105,99],[-30,47],[-35,33],[-36,-21],[-37,-39],[-37,-21],[-23,7],[-41,28],[-25,3],[-8,-7],[-15,-25],[-7,-6],[-13,3],[-23,13],[-9,3],[-454,-37],[-59,8],[-64,24],[-57,49],[-30,74],[149,-58],[160,0],[0,21],[-30,0],[0,18],[52,35],[27,-2],[12,-42],[10,-51],[23,-28],[30,-5],[26,13],[-16,38],[7,13],[18,6],[16,14],[28,47],[15,15],[17,6],[69,-34],[38,-4],[38,38],[-71,40],[35,12],[49,3],[45,14],[21,48],[-19,39],[-37,53],[-18,47],[39,20],[20,5],[16,10],[16,-1],[38,-47],[44,-26],[22,-19],[19,-37],[20,-46],[23,-40],[32,-17],[44,-8],[22,2],[9,17],[8,20],[16,23],[18,19],[13,7],[6,16],[5,34],[6,35],[13,15],[95,-21],[5,1],[0,-324]],[[241,452],[-39,16],[-73,1],[-60,-18],[-15,5],[25,33],[30,19],[135,6],[26,17],[10,33],[-17,54],[-26,25],[-62,4],[-27,20],[43,28],[45,-8],[82,-59],[-11,39],[27,20],[74,80],[1,-47],[-1,-14],[8,-77],[2,-70],[10,-60],[30,-47],[-20,-27],[-30,-69],[-21,-26],[-92,-53],[-32,-6],[-7,9],[3,19],[9,31],[0,14],[4,10],[4,10],[2,7],[-4,14],[-13,21],[-3,14],[-17,32]],[[4001,4096],[67,0],[-27,-22],[17,-30],[1,-37],[-13,-29],[-24,-6],[9,-18],[-4,-23],[8,-18],[17,-12],[19,-5],[0,-22],[-61,14],[-14,-16],[15,-56],[-15,7],[-13,10],[-9,18],[-3,34],[-12,15],[-173,37],[-46,-11],[-39,-52],[-30,25],[-27,-10],[-26,-21],[-26,-13],[-30,5],[-18,22],[-12,33],[-10,39],[36,-30],[15,-8],[23,-2],[18,5],[13,13],[11,14],[13,8],[15,-3],[14,-11],[13,-7],[34,30],[35,16],[59,15],[88,-35],[32,13],[-6,30],[-4,12],[15,32],[40,14],[15,31],[0,5]],[[3408,3855],[35,6],[11,-5],[-2,-19],[-22,-15],[-53,0],[-19,-16],[-15,-22],[-18,-14],[-20,-9],[-22,-4],[7,49],[11,30],[19,14],[88,5]],[[0,1434],[0,46],[11,-17],[8,-29],[-15,2],[-4,-2]],[[0,591],[0,292],[9,1],[19,-26],[14,-39],[8,-34],[-7,-16],[-8,-27],[-6,-16],[10,-11],[11,-3],[13,4],[16,10],[-27,-69],[-40,-56],[-12,-10]],[[1252,1],[0,-1],[-95,0],[4,8],[11,7],[29,-6],[15,9],[15,45],[0,103],[16,29],[15,-51],[70,-38],[24,-50],[-22,9],[-8,10],[-10,21],[-24,-33],[-26,-27],[-14,-35]],[[79,726],[-27,-69],[-40,-56],[-12,-10]],[[0,1480],[11,-17],[8,-29],[-15,2],[-4,-2]],[[0,883],[9,1],[19,-26],[14,-39],[8,-34],[-7,-16],[-8,-27],[-6,-16],[10,-11],[11,-3],[13,4],[16,10]],[[1252,1],[0,-1]],[[1157,0],[4,8],[11,7],[29,-6],[15,9],[15,45],[0,103],[16,29],[15,-51],[70,-38],[24,-50],[-22,9],[-8,10],[-10,21],[-24,-33],[-26,-27],[-14,-35]],[[3358,1380],[51,29],[33,44],[-20,-67],[-51,-43],[-362,-105],[-107,-66],[-50,-14],[-95,-2],[-19,-9],[-21,-25],[-28,-16],[-30,-8],[-25,2],[14,-30],[43,-19],[2,-31],[-14,-19],[-51,-16],[-60,-41],[-183,0],[-47,13],[-83,67],[-46,16],[-6,11],[16,25],[46,47],[42,7],[17,8],[-30,57],[-115,4],[-35,60],[15,1],[36,17],[-36,28],[-135,-41],[-60,-5],[-101,49],[-110,4],[-39,11],[-18,32],[43,40],[255,-59],[21,12],[66,54],[40,46],[28,14],[55,11],[45,-42],[57,-16],[113,1],[41,-22],[47,-88],[47,-10],[-1,47],[15,21],[12,21],[-16,31],[22,48],[18,-19],[8,-44],[-3,-24],[245,-10],[50,-51],[38,-16],[38,1],[55,43],[117,11],[57,46],[34,17],[25,-13],[36,-29],[54,4]],[[3408,3855],[35,6],[11,-5],[-2,-19],[-22,-15],[-53,0],[-19,-16],[-15,-22],[-18,-14],[-20,-9],[-22,-4],[7,49],[11,30],[19,14],[88,5]],[[4068,4096],[-27,-22],[17,-30],[1,-37],[-13,-29],[-24,-6],[9,-18],[-4,-23],[8,-18],[17,-12],[19,-5],[0,-22],[-61,14],[-14,-16],[15,-56],[-15,7],[-13,10],[-9,18],[-3,34],[-12,15],[-173,37],[-46,-11],[-39,-52],[-30,25],[-27,-10],[-26,-21],[-26,-13],[-30,5],[-18,22],[-12,33],[-10,39],[36,-30],[15,-8],[23,-2],[18,5],[13,13],[11,14],[13,8],[15,-3],[14,-11],[13,-7],[34,30],[35,16],[59,15],[88,-35],[32,13],[-6,30],[-4,12],[15,32],[40,14],[15,31],[0,5]],[[241,452],[-39,16],[-73,1],[-60,-18],[-15,5],[25,33],[30,19],[135,6],[26,17],[10,33],[-17,54],[-26,25],[-62,4],[-27,20],[43,28],[45,-8],[82,-59],[-11,39],[27,20],[74,80],[1,-47],[-1,-14],[8,-77],[2,-70],[10,-60],[30,-47],[-20,-27],[-30,-69],[-21,-26],[-92,-53],[-32,-6],[-7,9],[3,19],[9,31],[0,14],[4,10],[4,10],[2,7],[-4,14],[-13,21],[-3,14],[-17,32]],[[3408,3855],[35,6],[11,-5],[-2,-19],[-22,-15],[-53,0],[-19,-16],[-15,-22],[-18,-14],[-20,-9],[-22,-4],[7,49],[11,30],[19,14],[88,5]],[[4096,1899],[-50,46],[-28,7],[4,-45],[-111,0],[-12,5],[-22,16],[-14,0],[-13,-8],[-13,-14],[-4,-13],[46,-20],[166,-153],[17,-11],[34,4]],[[4096,1652],[-84,0],[-13,9],[-38,69],[-105,99],[-30,47],[-35,33],[-36,-21],[-37,-39],[-37,-21],[-23,7],[-41,28],[-25,3],[-8,-7],[-15,-25],[-7,-6],[-13,3],[-23,13],[-9,3],[-454,-37],[-59,8],[-64,24],[-57,49],[-30,74],[149,-58],[160,0],[0,21],[-30,0],[0,18],[52,35],[27,-2],[12,-42],[10,-51],[23,-28],[30,-5],[26,13],[-16,38],[7,13],[18,6],[16,14],[28,47],[15,15],[17,6],[69,-34],[38,-4],[38,38],[-71,40],[35,12],[49,3],[45,14],[21,48],[-19,39],[-37,53],[-18,47],[39,20],[20,5],[16,10],[16,-1],[38,-47],[44,-26],[22,-19],[19,-37],[20,-46],[23,-40],[32,-17],[44,-8],[22,2],[9,17],[8,20],[16,23],[18,19],[13,7],[6,16],[5,34],[6,35],[13,15],[95,-21],[5,1]],[[1375,771],[7,5],[46,51],[2,3]],[[1552,1114],[5,17],[10,44]],[[1578,1220],[19,82],[16,53]],[[1042,632],[82,39],[177,53],[31,15],[43,32]],[[1430,830],[39,60],[37,77],[28,79],[18,68]],[[1567,1175],[11,45]],[[1586,1349],[142,58]],[[1376,1265],[104,42]],[[1156,1224],[57,-1],[112,22],[51,20]],[[1480,1307],[106,42]],[[1728,1407],[9,3]],[[1737,1410],[224,46],[502,216],[72,9]],[[2533,1686],[24,15],[29,24]],[[2599,1740],[15,16],[27,37],[24,46]],[[2752,2003],[9,17],[33,49]],[[2715,1933],[23,43]],[[2527,1681],[6,5]],[[2586,1725],[0,1],[13,14]],[[2665,1839],[50,94]],[[2738,1976],[14,27]],[[2794,2069],[7,11]],[[3384,2264],[46,28]],[[3503,2335],[52,31],[12,5],[11,2],[65,-7],[134,-45]],[[3324,2239],[32,9],[28,16]],[[3430,2292],[73,43]],[[3777,2321],[116,-39],[12,-1],[191,41]],[[70,0],[212,186],[35,23],[148,56],[72,41],[129,113],[376,213]],[[0,1567],[31,-16]],[[622,1478],[23,-2],[77,-17],[4,-2]],[[31,1551],[73,-50],[74,-35],[76,-18],[76,-2],[238,37],[54,-5]],[[726,1457],[71,-27],[272,-173],[87,-33]],[[1712,1572],[-2,10]],[[1710,1582],[-1,3],[-4,12],[-11,28],[-14,25],[-97,123],[-12,22],[-10,26],[-7,28],[-2,32],[3,41],[9,39],[12,34],[15,29],[16,22],[33,40],[16,23],[13,33],[5,36],[0,39],[-7,45],[-1,7],[-2,4],[-2,3],[-8,2],[-20,10],[-23,17],[-45,45],[-21,27],[-20,32],[-16,37],[-10,66],[12,58],[25,50],[36,63],[10,21],[7,24],[4,27],[0,36],[-6,34],[-10,31],[-11,28],[-39,56],[-86,80],[-33,68]],[[1735,1381],[1,29],[0,28],[-2,28],[-4,28],[-18,78]],[[1408,3088],[-12,65],[-6,138],[-7,66],[-12,44],[-30,78],[-11,43],[-2,43],[8,37],[14,32],[18,23],[24,20],[25,14],[100,39],[24,14],[23,20],[28,40],[25,49],[104,243]],[[3086,2200],[108,1],[15,5]],[[2801,2080],[25,38],[12,14],[12,11],[54,37],[27,12],[29,7],[126,1]],[[3209,2206],[115,33]],[[3517,1645],[139,-18]],[[3688,1623],[1,0]],[[3656,1627],[32,-4]],[[3689,1623],[407,-54]],[[3413,1659],[104,-14]],[[2527,1681],[27,-27],[30,-20],[30,-12],[31,-8],[31,-3],[31,2],[31,6],[142,61],[153,29],[380,-50]],[[1414,729],[61,66]],[[1402,717],[12,12]],[[4096,4096],[0,-896],[0,-3200],[-963,0],[-3133,0],[0,4096],[4096,0]],[[3987,4096],[55,0],[2,-15],[37,-50],[-40,-47],[0,-43],[-25,14],[-61,-41],[68,-105],[-47,-4],[-69,-117],[-29,-6],[-4,76],[-25,-19],[-19,49],[40,31],[34,-15],[-59,122],[9,25],[-91,-8],[74,45],[-12,49],[66,15],[3,44],[9,0],[78,-70],[6,70]],[[0,1191],[0,49],[10,-57],[-10,8]],[[3536,1904],[39,64],[62,-2],[24,117],[49,-30],[80,4],[134,-80],[-66,-40],[-67,12],[-246,-67],[-9,22]],[[3924,1977],[65,87],[18,78],[89,15],[0,-232],[-60,41],[-112,11]],[[4063,2064],[8,-4],[3,8],[-6,0],[-5,-4]],[[2919,3144],[59,28],[19,-16],[94,87],[29,-32],[14,12],[19,-40],[-30,3],[58,-45],[-76,-62],[67,17],[-52,-59],[23,-23],[-25,-31],[27,29],[-24,-31],[39,16],[-35,-18],[17,-53],[-23,-14],[-27,34],[-52,7],[-121,191]],[[3101,3051],[7,5],[0,5],[-3,0],[-4,-10]],[[1983,2994],[53,111],[40,10],[-21,33],[84,136],[103,-26],[32,-40],[84,11],[33,77],[18,18],[23,-15],[-53,-120],[-115,1],[-21,-73],[-38,0],[-68,-51],[-16,-95],[-61,-44],[-36,2],[-3,4],[-206,-25],[-60,25],[17,67],[-38,-17],[-17,21],[3,-29],[-29,7],[-61,120],[12,41],[-39,50],[27,35],[-22,41],[-14,-43],[19,106],[-27,55],[23,34],[55,-9],[232,-358],[87,-60]],[[2150,3130],[17,-10],[16,-6],[-12,19],[-21,-3]],[[2235,3129],[1,-8],[3,0],[1,9],[-5,-1]],[[1720,3100],[5,-3],[4,6],[-7,3],[-2,-6]],[[3171,569],[-6,-84],[-29,-34],[-32,17],[-14,69],[81,32]],[[2613,626],[-45,25],[-12,77],[29,17],[84,-17],[-12,-77],[-44,-25]],[[2200,1079],[-9,-54],[-88,-42],[32,128],[41,3],[24,-35]],[[1402,1305],[59,0],[11,30],[13,-48],[-52,-82],[-42,2],[-32,128],[97,96],[-65,-96],[11,-30]],[[87,1363],[-55,36],[50,87],[27,-27],[4,-92],[-26,-4]],[[1713,1482],[18,-94],[-35,-33],[17,-31],[49,-12],[1,-73],[-88,16],[-74,-48],[49,-96],[-19,-174],[19,-113],[-65,-32],[-4,-126],[-28,-2],[-16,32],[-65,-32],[-122,135],[-7,57],[65,7],[48,-71],[16,96],[65,64],[32,127],[-15,35],[-63,2],[-3,59],[97,0],[-16,96],[21,97],[-53,158],[28,-7],[53,-88],[64,159],[30,-8],[1,-100]],[[658,1437],[-31,9],[-12,80],[113,9],[16,-73],[-86,-25]],[[3174,2109],[-45,0],[-55,55],[64,192],[32,-1],[45,-68],[-10,-135],[-31,-43]],[[3484,2624],[27,-13],[0,-95],[27,-51],[77,-49],[57,4],[-64,191],[48,32],[16,-64],[64,-9],[14,-72],[-29,-110],[60,-72],[5,-56],[-49,0],[-21,-42],[-80,65],[-49,-14],[-30,-15],[23,-65],[-21,7],[0,-32],[-65,0],[-16,-32],[-48,32],[-48,104],[15,56],[26,-4],[18,-77],[30,-16],[33,104],[-22,129],[-53,56],[0,159],[49,64],[6,-115]],[[3715,3111],[-59,43],[0,60],[65,35],[16,96],[33,-96],[-24,-107],[-31,-31]],[[3171,3728],[-130,64],[21,44],[47,3],[45,-37],[17,-74]],[[3567,1768],[57,-82],[-6,89],[38,-25],[58,26],[25,-44],[-18,-78],[-32,0],[0,-32],[-33,32],[0,-96],[-206,-83],[-2,71],[62,44],[-36,37],[-12,-37],[-49,32],[0,96],[33,32],[16,-32],[69,63],[36,-13]],[[2718,1813],[-10,-176],[-152,17],[-16,32],[-33,0],[17,128],[27,-2],[37,-94],[65,127],[65,-32]],[[2782,2069],[30,0],[84,96],[48,-64],[-20,-57],[-44,-7],[19,-90],[-31,0],[65,-88],[28,-141],[-79,5],[-51,58],[32,32],[-16,96],[-97,96],[32,191],[31,-12],[-31,-115]],[[2734,1877],[-33,96],[-55,69],[7,123],[81,-160],[16,-112],[-16,-16]],[[1625,3468],[15,27],[50,20],[14,-19],[82,46],[-36,70],[24,21],[82,13],[57,-27],[17,23],[7,-49],[35,-8],[40,-109],[100,-107],[-6,-35],[34,-45],[-85,-141],[21,-33],[-40,-10],[-56,-117],[-84,66],[-232,358],[-38,6],[-1,50]],[[2008,3215],[11,-32],[26,-29],[-1,18],[-36,43]],[[2023,3323],[11,-9],[6,12],[-10,6],[-7,-9]],[[1980,3533],[2,-15],[4,-6],[2,7],[-8,14]],[[3612,1896],[179,53],[67,-12],[76,39],[-34,-82],[-61,0],[-101,-58],[-120,19],[-6,41]]]}