{"objects":{"water":{"type":"GeometryCollection","geometries":[]},"buildings":{"type":"GeometryCollection","geometries":[]},"places":{"type":"GeometryCollection","geometries":[{"type":"Point","properties":{"name:kg":"R\u00e9publique tch\u00e8que","name:ty":"Czech Republic","name:ka":"\u10e9\u10d4\u10ee\u10d4\u10d7\u10d8\u10e1 \u10e0\u10d4\u10e1\u10de\u10e3\u10d1\u10da\u10d8\u10d9\u10d0","name:ko":"\uccb4\ucf54","name:cv":"\u0427\u0435\u0445 \u0420\u0435\u0441\u043f\u0443\u0431\u043b\u0438\u043a\u0438","name:cu":"\u0427\u0454\u0448\u044c\u0441\u043a\u043e","name:kl":"Tjekkia","name:kk":"\u0427\u0435\u0445\u0438\u044f","name:ki":"Jamhuri ya Cheki","name:co":"Cechia","name:kv":"\u0427\u0435\u0445\u0438\u044f","name:ku":"Komara \u00c7ek\u00ee","name:ti":"\u127c\u12ad \u122a\u1351\u1265\u120a\u12ad","name:ks":"\u0686\u06cc\u06a9 \u062c\u064e\u0645\u0648\u0657\u0631\u0650\u06cc\u064e\u062a","name:to":"Lipapilika Seki","name:tl":"Republikang Tseko","name:ce":"\u0427\u0435\u0445\u0438","name:ta":"\u0b9a\u0bc6\u0b95\u0bcd \u0b95\u0bc1\u0b9f\u0bbf\u0baf\u0bb0\u0b9a\u0bc1","name:tg":"\u0427\u0435\u0445\u0438\u044f","name:ca":"Tx\u00e8quia","name:te":"\u0c1a\u0c46\u0c15\u0c4d \u0c17\u0c23\u0c30\u0c3e\u0c1c\u0c4d\u0c2f\u0c02","name:cy":"Gweriniaeth Tsiec","name:hr":"\u010ce\u0161ka","name:da":"Tjekkiet","name:de":"Tschechien","name:dz":"\u0f45\u0f7a\u0f40\u0f0b \u0f62\u0f72\u0f0b\u0f54\u0f56\u0f0b\u0f63\u0f72\u0f40","source":"openstreetmap.org","name:kn":"\u0c9a\u0cc6\u0c95\u0ccd \u0cb0\u0cbf\u0caa\u0cac\u0ccd\u0cb2\u0cbf\u0c95\u0ccd","name:dv":"\u0797\u07ac\u0786\u07b0 \u0796\u07aa\u0789\u07b0\u0780\u07ab\u0783\u07a8\u0787\u07b0\u0794\u07a7","name:km":"\u179f\u17b6\u1792\u17b6\u179a\u178e\u179a\u178a\u17d2\u178b\u1786\u17c1\u1780","name:lv":"\u010cehija","name:lt":"\u010cekija","name:uz":"Chexiya","name:ur":"\u0686\u06cc\u06a9 \u062c\u0645\u06c1\u0648\u0631\u06cc\u06c1","name:lb":"Tschechien","name:la":"Cechia","name:lg":"Lipubulika ya Ceeka","name:uk":"\u0427\u0435\u0445\u0456\u044f","name:ug":"\u0686\u06d0\u062e \u062c\u06c7\u0645\u06be\u06c7\u0631\u0649\u064a\u06d5\u062a\u0649","name:li":"Tsjechi\u00eb","name:ln":"Repibiki Tsek\u025b","name:lo":"\u0eaa\u0eb2\u0e97\u0eb2\u0ea5\u0eb0\u0e99\u0eb0\u0ea5\u0eb1\u0e94\u0ec0\u0e8a\u0eb1\u0e81","name:el":"\u03a4\u03c3\u03b5\u03c7\u03af\u03b1","name:eo":"\u0108e\u0125ujo","name:en":"Czechia","name":"\u010cesko","name:tk":"\u00c7ehi\u00fda","name:ee":"Ts\u025bk rep\u0254blik nutome","name:th":"\u0e2a\u0e32\u0e18\u0e32\u0e23\u0e13\u0e23\u0e31\u0e10\u0e40\u0e0a\u0e47\u0e01","name:eu":"Txekia","name:et":"T\u0161ehhi","name:es":"Chequia","name:ia":"Republica Tchec","name:rm":"Republica Tscheca","name:rn":"Repubulika ya Ceke","name:az":"\u00c7ex respublikas\u0131","name:ie":"Tchechia","name:id":"Republik Ceko","name:ik":"Czech Republic","name:ar":"\u062c\u0645\u0647\u0648\u0631\u064a\u0629 \u0627\u0644\u062a\u0634\u064a\u0643","name:io":"Chekia","name:ak":"Ky\u025bk Kurok\u025bse","name:am":"\u127c\u12ad \u122a\u1351\u1265\u120a\u12ad","name:it":"Repubblica Ceca","name:an":"Republica Checa","name:ru":"\u0427\u0435\u0445\u0438\u044f","name:ab":"\u0427\u0435\u0445\u0438\u0430","name:af":"Tsjeggi\u00eb","name:zu":"i-Czech Republic","name:ky":"\u0427\u0435\u0445\u0438\u044f","name:zh-yue":"\u6377\u514b","name:zh":"\u6377\u514b","name:so":"Jamhuuriyadda Jek","name:sn":"Czech Republic","name:sm":"Czechs Republic","name:sl":"\u010ce\u0161ka","name:ja":"\u30c1\u30a7\u30b3\u5171\u548c\u56fd","name:si":"\u0da0\u0dd9\u0d9a\u0dca \u0da2\u0db1\u0dbb\u0da2\u0dba","name:sh":"\u010ce\u0161ka Republika","name:sg":"K\u00f6d\u00f6r\u00f6s\u00ease t\u00ee Ty\u00eaki","name:se":"\u010ceahkka","name:br":"Tchekia","name:bs":"\u010ce\u0161ka","name:bm":"Ceki republiki","name:bn":"\u099a\u09c7\u0995 \u09aa\u09cd\u09b0\u099c\u09be\u09a4\u09a8\u09cd\u09a4\u09cd\u09b0","name:bo":"\u0f45\u0f7b\u0f42\u0f0b\u0f66\u0fa4\u0fb1\u0f72\u0f0b\u0f58\u0f50\u0f74\u0f53\u0f0b\u0f62\u0f92\u0fb1\u0f63\u0f0b\u0f41\u0f56\u0f0d","name:bi":"Czech Republic","name:sw":"Jamhuri ya Cheki","name:be":"\u0427\u044d\u0445\u0456\u044f","name:su":"C\u00e9ko","name:bg":"\u0427\u0435\u0448\u043a\u0430\u0442\u0430 \u0440\u0435\u043f\u0443\u0431\u043b\u0438\u043a\u0430","name:ss":"Shekhi","name:ba":"\u0427\u0435\u0445\u0438\u044f","name:sq":"Republika \u00c7eke","name:jv":"C\u00e9ko","name:sa":"\u091c\u093c\u0947\u0915\u094d \u0930\u093f\u092a\u092c\u094d\u0932\u093f\u0915","name:pt":"Tcheca","name:ps":"\u0686\u06d0\u06a9 \u062c\u0645\u0647\u0648\u0631\u064a\u062a","name:oc":"Republica Ch\u00e8ca","min_zoom":2.0,"int_name":"Czechia","name:pa":"\u0a1a\u0a48\u0a71\u0a15 \u0a17\u0a23\u0a30\u0a3e\u0a1c","name:os":"\u0427\u0435\u0445\u0438","name:or":"\u0b1a\u0b47\u0b15\u0b4d \u0b38\u0b3e\u0b27\u0b3e\u0b30\u0b23\u0b24\u0b28\u0b4d\u0b24\u0b4d\u0b30","name:pl":"Czechy","name:sr":"\u0427\u0435\u0448\u043a\u0430","name:ro":"Cehia","name:tr":"\u00c7ek Cumhuriyeti","name:hi":"\u091a\u0947\u0915 \u0917\u0923\u0930\u093e\u091c\u094d\u092f","name:sv":"Tjeckien","name:he":"\u05e6'\u05db\u05d9\u05d4","name:ha":"Jamhuriyar Cak","name:hy":"\u0549\u0565\u056d\u056b\u0561\u0575\u056b \u0540\u0561\u0576\u0580\u0561\u057a\u0565\u057f\u0578\u0582\u0569\u0575\u0578\u0582\u0576","name:ht":"Repiblik tch\u00e8k","name:hu":"Csehorsz\u00e1g","name:qu":"Chiksuyu","population":10510258,"kind":"country","name:is":"T\u00e9kkland","name:yi":"\u05d8\u05e9\u05e2\u05db\u05d9\u05d9","name:yo":"Or\u00edl\u1eb9\u0301\u00e8de \u1e63\u1eb9\u0301\u1eb9\u0301k\u00ec","name:mt":"Repubblika \u010aeka","alt_name:eo":"\u0108e\u0125io","name:ms":"Republik Czech","name:mr":"\u091d\u0947\u0915 \u092a\u094d\u0930\u091c\u093e\u0938\u0924\u094d\u0924\u093e\u0915","name:my":"\u1001\u103b\u1000\u103a \u1015\u103c\u100a\u103a\u1011\u1031\u102c\u1004\u103a\u1005\u102f","official_name":"\u010cesk\u00e1 republika","name:kw":"Pow Chek","name:mg":"Repoblikan'i Tseky","name:ml":"\u0d1a\u0d46\u0d15\u0d4d\u0d15\u0d4d \u0d31\u0d3f\u0d2a\u0d4d\u0d2a\u0d2c\u0d4d\u0d32\u0d3f\u0d15\u0d4d","name:vi":"C\u1ed9ng h\u00f2a S\u00e9c","name:mn":"\u0411\u04af\u0433\u0434 \u041d\u0430\u0439\u0440\u0430\u043c\u0434\u0430\u0445 \u0427\u0435\u0445 \u0423\u043b\u0441","name:mi":"T\u012bekia","id":424313803,"name:mk":"\u0427\u0435\u0448\u043a\u0430 \u0420\u0435\u043f\u0443\u0431\u043b\u0438\u043a\u0430","name:vo":"Tsyeg\u00e4n","name:fa":"\u062c\u0645\u0647\u0648\u0631\u06cc \u0686\u06a9","name:rw":"Cekiya","name:ff":"Ndenndaandi Cek","name:fi":"T\u0161ekki","name:fo":"Kekkia","name:fr":"R\u00e9publique tch\u00e8que","name:fy":"Tsjechje","name:nl":"Tsjechi\u00eb","name:nn":"Tsjekkia","name:no":"Tsjekkia","name:na":"Ripubrikin Tsiek","name:ne":"\u091a\u0947\u0916 \u0917\u0923\u0924\u0928\u094d\u0924\u094d\u0930","name:wo":"R\u00e9ewum Cek","name:nv":"Chek Bik\u00e9yah","name:ga":"An tSeic","name:gd":"An t-Seic","name:gn":"Cheko","name:gl":"Rep\u00fablica Checa","name:gv":"Yn Phobblaght \u00c7heck","name:gu":"\u0a9a\u0ac7\u0a95 \u0ab0\u0ac0\u0aaa\u0aac\u0acd\u0ab2\u0abf\u0a95","name:tt":"\u0427\u0435\u0445\u0438\u044f"},"coordinates":[2057,2019]},{"type":"Point","properties":{"source":"naturalearthdata.com","kind":"locality","name":"Prague","country_capital":true,"population":1162000,"min_zoom":4.0,"id":7169},"coordinates":[585,2626]},{"type":"Point","properties":{"source":"naturalearthdata.com","kind":"locality","name":"Brno","population":388277,"region_capital":true,"min_zoom":7.0,"id":3629},"coordinates":[3710,627]},{"type":"Point","properties":{"source":"naturalearthdata.com","kind":"locality","name":"Pardubice","population":107064,"min_zoom":7.0,"id":3630},"coordinates":[2472,2524]},{"type":"Point","properties":{"source":"naturalearthdata.com","kind":"locality","name":"Jihlava","population":53921,"min_zoom":7.0,"id":3627},"coordinates":[2215,1079]}]},"transit":{"type":"GeometryCollection","geometries":[{"type":"MultiLineString","properties":{"kind":"train","name":"IC\/EC 27: (Stralsund-) Berlin - Dresden (- Praha)","service":"long_distance","sort_rank":275,"name:de":"IC\/EC 27: (Stralsund-) Berlin - Dresden (- Prag)","source":"openstreetmap.org","min_zoom":5.0,"operator":"Deutsche Bahn","ref":"IC 27;EC 27","osm_relation":true},"arcs":[[148],[149],[150],[151],[152],[153],[154],[155],[156],[157],[158],[159],[160],[161],[162],[163],[164],[165],[166],[167],[168],[169],[170],[171],[172],[173],[174],[175],[176]]},{"type":"MultiLineString","properties":{"kind":"train","network":"PID","sort_rank":275,"source":"openstreetmap.org","min_zoom":6.0,"ref":"S9","osm_relation":true,"name":"S9"},"arcs":[[177],[178],[179],[180],[181],[182],[183],[184],[185],[186],[187],[188],[189],[190],[191],[192],[193],[194],[195],[196],[197],[198],[199],[200],[201],[202],[203],[204],[205],[206]]},{"type":"MultiLineString","properties":{"kind":"train","name":"Linia kolejowa nr 276 Wroc\u0142aw G\u0142\u00f3wny - Mi\u0119dzylesie","sort_rank":275,"source":"openstreetmap.org","min_zoom":6.0,"operator":"PKP Polskie Linie Kolejowe S.A.","ref":"276","osm_relation":true,"network":"PKP"},"arcs":[[207],[208],[209],[210],[211],[212],[213]]},{"type":"LineString","properties":{"kind":"train","name":"022 - \u010castolovice - Solnice","sort_rank":275,"source":"openstreetmap.org","min_zoom":6.0,"operator":"\u010cesk\u00e9 dr\u00e1hy (Czech railways)","id":-2421733,"osm_relation":true},"arcs":[214]},{"type":"MultiLineString","properties":{"kind":"train","name":"U4 Hnevice-Usti nad Labem","sort_rank":275,"name:de":"U4","source":"openstreetmap.org","min_zoom":6.0,"ref":"U4","osm_relation":true},"arcs":[[215],[216],[217]]},{"type":"MultiLineString","properties":{"kind":"train","name":"L1 Liberec - Tanvald - Harrachov - Szklarska Poreba Gorna","sort_rank":275,"source":"openstreetmap.org","min_zoom":6.0,"ref":"L1","id":-5409609,"osm_relation":true},"arcs":[[218],[219]]},{"type":"LineString","properties":{"kind":"train","network":"PID","sort_rank":275,"source":"openstreetmap.org","min_zoom":6.0,"ref":"S4","id":-5378440,"osm_relation":true,"name":"S4 Hnevice-Praha"},"arcs":[220]},{"type":"LineString","properties":{"kind":"train","network":"PID","sort_rank":275,"source":"openstreetmap.org","min_zoom":6.0,"ref":"S45","id":-5378418,"osm_relation":true,"name":"S45"},"arcs":[221]},{"type":"LineString","properties":{"kind":"train","name":"U22 Vranany-Stra\u0161kov","sort_rank":275,"name:de":"U22","source":"openstreetmap.org","min_zoom":6.0,"ref":"U22","id":-5405754,"osm_relation":true},"arcs":[222]},{"type":"MultiLineString","properties":{"source":"openstreetmap.org","kind":"train","network":"PID","sort_rank":275,"ref":"S8","min_zoom":6.0,"osm_relation":true},"arcs":[[223],[224],[225],[226],[227],[228],[229],[230],[231],[232],[233],[234]]},{"type":"MultiLineString","properties":{"kind":"train","network":"PID","sort_rank":275,"source":"openstreetmap.org","min_zoom":6.0,"ref":"S41","osm_relation":true,"name":"S41"},"arcs":[[235],[236],[237],[238],[239],[240],[241],[242],[243],[244],[245],[246],[247],[248],[249],[250]]},{"type":"LineString","properties":{"kind":"train","name":"U21 Roudnice nad Labem-Stra\u0161kov-Ra\u010din\u011bves","sort_rank":275,"name:de":"U21","source":"openstreetmap.org","min_zoom":6.0,"ref":"U21","id":-5405753,"osm_relation":true},"arcs":[251]},{"type":"MultiLineString","properties":{"kind":"train","network":"\u00d6BB railjet","service":"long_distance","sort_rank":275,"name:de":"railjet Prag \u2013 Graz","source":"openstreetmap.org","min_zoom":5.0,"operator":"\u010cD;\u00d6BB","ref":"RJ","osm_relation":true,"name":"railjet Praha \u2013 Graz"},"arcs":[[252],[253],[254],[255],[256]]},{"type":"MultiLineString","properties":{"kind":"train","name":"U4 Usti nad Labem-Hnevice","sort_rank":275,"name:de":"U4","source":"openstreetmap.org","min_zoom":6.0,"ref":"U4","osm_relation":true},"arcs":[[257],[258]]},{"type":"MultiLineString","properties":{"source":"openstreetmap.org","kind":"train","sort_rank":275,"ref":"S90","min_zoom":6.0,"osm_relation":true},"arcs":[[259],[260],[261],[262],[263]]},{"type":"LineString","properties":{"kind":"train","network":"PID","sort_rank":275,"source":"openstreetmap.org","min_zoom":6.0,"ref":"S4","id":-401629,"osm_relation":true,"name":"S4 Praha-Hnevice"},"arcs":[264]},{"type":"MultiLineString","properties":{"kind":"train","network":"PID","sort_rank":275,"source":"openstreetmap.org","min_zoom":6.0,"ref":"S88","osm_relation":true,"name":"S88"},"arcs":[[265],[266],[267],[268],[269]]},{"type":"LineString","properties":{"source":"openstreetmap.org","kind":"train","name":"Os Zlonice-Stra\u0161kov","sort_rank":275,"min_zoom":6.0,"osm_relation":true,"id":-5414997},"arcs":[270]},{"type":"MultiLineString","properties":{"osm_relation":true,"source":"openstreetmap.org","kind":"train","name":"Mlad\u011bjovsk\u00e1 pr\u016fmyslov\u00e1 dr\u00e1ha","sort_rank":275,"min_zoom":6.0,"operator":"MPD"},"arcs":[[271],[272],[273],[274],[275],[276]]},{"type":"MultiLineString","properties":{"sort_rank":275,"source":"openstreetmap.org","min_zoom":6.0,"kind":"train","osm_relation":true},"arcs":[[277],[278],[279],[280],[281],[282],[283],[284],[285],[286],[287],[288],[289],[290],[291],[292],[293],[294],[295],[296],[297],[298],[299],[300],[301],[302],[303],[304],[305],[306],[307],[308],[309]]},{"type":"MultiLineString","properties":{"kind":"train","name":"U7 Decin hl.n.-Usti nad Labem-Strekov","sort_rank":275,"name:de":"U7","source":"openstreetmap.org","min_zoom":6.0,"ref":"U7","osm_relation":true},"arcs":[[310],[311],[312],[313],[314],[315],[316],[317],[318]]},{"type":"LineString","properties":{"kind":"train","network":"PID","sort_rank":275,"source":"openstreetmap.org","min_zoom":6.0,"ref":"S5","id":-401709,"osm_relation":true,"name":"S5"},"arcs":[319]},{"type":"LineString","properties":{"kind":"train","network":"PID","sort_rank":275,"source":"openstreetmap.org","min_zoom":6.0,"ref":"S44","id":-5378417,"osm_relation":true,"name":"S44"},"arcs":[320]},{"type":"MultiLineString","properties":{"kind":"train","network":"PID","sort_rank":275,"source":"openstreetmap.org","min_zoom":6.0,"ref":"S3","osm_relation":true,"name":"S3"},"arcs":[[321],[322],[323],[324],[325],[326],[327],[328],[329],[330],[331]]},{"type":"MultiLineString","properties":{"kind":"train","network":"IDS IREDO","sort_rank":275,"colour":"Blue","name":"Kun\u010dice nad Labem - Vrchlab\u00ed (a zp\u011bt)","source":"openstreetmap.org","min_zoom":6.0,"operator":"cz:\u010cD","ref":"044","osm_relation":true,"colour_name":"blue"},"arcs":[[332],[333]]},{"type":"LineString","properties":{"kind":"train","network":"PID","sort_rank":275,"source":"openstreetmap.org","min_zoom":6.0,"ref":"S43","id":-2190956,"osm_relation":true,"name":"S43"},"arcs":[334]},{"type":"LineString","properties":{"kind":"train","name":"U1 Decin-Usti nad Labem-Kadan-Prunerov","sort_rank":275,"name:de":"U1","source":"openstreetmap.org","min_zoom":6.0,"ref":"U1","osm_relation":true},"arcs":[335]},{"type":"MultiLineString","properties":{"kind":"train","name":"SuperCity Ostrava \u2013 Praha Pendolino","service":"long_distance","sort_rank":275,"source":"openstreetmap.org","min_zoom":5.0,"operator":"\u010cD","ref":"SC","osm_relation":true},"arcs":[[336],[337],[338],[339],[340],[341],[342]]},{"type":"MultiLineString","properties":{"source":"openstreetmap.org","kind":"train","name":"Zlivsk\u00e1 \u00fazkokolejka","sort_rank":275,"min_zoom":6.0,"osm_relation":true},"arcs":[[343],[344],[345]]},{"type":"LineString","properties":{"kind":"train","name":"020 - (Praha -) Velk\u00fd Osek - Hradec Kr\u00e1lov\u00e9 - Choce\u0148","sort_rank":275,"source":"openstreetmap.org","min_zoom":6.0,"operator":"\u010cesk\u00e9 dr\u00e1hy (Czech railways)","id":-2421862,"osm_relation":true},"arcs":[346]},{"type":"MultiLineString","properties":{"kind":"train","name":"EuroCity Berlin \u2013 Budapest","service":"long_distance","sort_rank":275,"colour":"#9D9D9D","source":"openstreetmap.org","min_zoom":5.0,"network":"DB InterCity","operator":"\u010cD;DB;START;ZSSK","ref":"EC27","osm_relation":true,"colour_name":"darkseagreen"},"arcs":[[347],[348],[349],[350],[351],[352],[353],[354],[355],[356],[357],[358],[359],[360],[361],[362],[363],[364],[365],[366],[367],[368],[369],[370],[371],[372],[373],[374],[375],[376],[377],[378],[379],[380],[381],[382],[383],[384],[385],[386],[387],[388],[389],[390],[391],[392],[393],[394],[395],[396],[397],[398],[399],[400],[401]]},{"type":"MultiLineString","properties":{"kind":"train","name":"U32 Lysa nad Labem-Usti nad Labem zapad","sort_rank":275,"name:de":"U32","source":"openstreetmap.org","min_zoom":6.0,"ref":"U32","osm_relation":true},"arcs":[[402],[403],[404],[405],[406],[407],[408],[409]]},{"type":"LineString","properties":{"kind":"train","name":"S50","sort_rank":275,"source":"openstreetmap.org","min_zoom":6.0,"ref":"S50","osm_relation":true,"network":"PID"},"arcs":[410]},{"type":"MultiLineString","properties":{"source":"openstreetmap.org","kind":"train","name":"R Kolin - Usti nad Labem zapad","sort_rank":275,"min_zoom":6.0,"osm_relation":true},"arcs":[[411],[412],[413],[414],[415],[416],[417],[418],[419],[420]]},{"type":"MultiLineString","properties":{"kind":"train","name":"R Usti nad Labem - Decin - Ceska Lipa - Liberec","sort_rank":275,"name:de":"R Aussig - Tetschen - B\u00f6hmisch Leipa - Reichenberg","source":"openstreetmap.org","min_zoom":6.0,"ref":"R","osm_relation":true},"arcs":[[421],[422],[423],[424],[425],[426],[427]]},{"type":"MultiLineString","properties":{"kind":"train","network":"PID","sort_rank":275,"source":"openstreetmap.org","min_zoom":6.0,"ref":"S65","osm_relation":true,"name":"S65"},"arcs":[[428],[429],[430],[431],[432],[433],[434],[435],[436],[437],[438]]},{"type":"MultiLineString","properties":{"kind":"train","network":"DB InterCity","service":"long_distance","sort_rank":275,"colour":"#9D9D9D","name":"EuroCity Budapest \u2013 Berlin","source":"openstreetmap.org","min_zoom":5.0,"operator":"\u010cD;DB;START;ZSSK","ref":"EC27","osm_relation":true,"colour_name":"darkseagreen"},"arcs":[[439],[440],[441],[442],[443],[444],[445],[446],[447],[448],[449],[450],[451],[452],[453],[454],[455],[456],[457],[458],[459],[460],[461],[462],[463],[464],[465],[466],[467],[468],[469],[470],[471],[472],[473],[474],[475],[476],[477],[478],[479],[480],[481],[482]]},{"type":"MultiLineString","properties":{"source":"openstreetmap.org","kind":"train","name":"R Praha - Tanvald","sort_rank":275,"min_zoom":6.0,"osm_relation":true,"name:de":"R Prag - Tannwald"},"arcs":[[483],[484],[485],[486],[487],[488]]},{"type":"LineString","properties":{"kind":"train","name":"Strecke Gm\u00fcnd \u2013 Litschau","sort_rank":275,"source":"openstreetmap.org","min_zoom":6.0,"operator":"N\u00d6VOG","ref":"178 01","id":-4237028,"osm_relation":true},"arcs":[489]},{"type":"LineString","properties":{"kind":"train","name":"U1 Kadan-Prunerov-Usti nad Labem-Decin","sort_rank":275,"name:de":"U1","source":"openstreetmap.org","min_zoom":6.0,"ref":"U1","osm_relation":true},"arcs":[490]},{"type":"LineString","properties":{"source":"openstreetmap.org","kind":"train","name":"Hru\u0161ovany u Brna \u2013 \u017didlochovice","sort_rank":275,"min_zoom":6.0,"osm_relation":true,"id":-3646950},"arcs":[491]},{"type":"MultiLineString","properties":{"kind":"train","name":"railjet Graz \u2013 Praha","service":"long_distance","sort_rank":275,"name:de":"railjet Graz \u2013 Prag","source":"openstreetmap.org","min_zoom":5.0,"operator":"\u010cD;\u00d6BB","ref":"RJ","osm_relation":true,"network":"\u00d6BB railjet"},"arcs":[[492],[493],[494],[495],[496]]},{"type":"MultiLineString","properties":{"source":"openstreetmap.org","kind":"train","name":"026","sort_rank":275,"min_zoom":6.0,"osm_relation":true},"arcs":[[497],[498],[499],[500],[501]]},{"type":"LineString","properties":{"kind":"train","network":"PID","sort_rank":275,"source":"openstreetmap.org","min_zoom":6.0,"ref":"R5","osm_relation":true,"name":"R5"},"arcs":[502]},{"type":"LineString","properties":{"source":"openstreetmap.org","kind":"train","sort_rank":275,"ref":"S99","min_zoom":6.0,"osm_relation":true,"id":-7080839},"arcs":[503]},{"type":"MultiLineString","properties":{"kind":"train","network":"Alex","sort_rank":275,"name:de":"AlexNord: Prag <=> Regensburg <=> M\u00fcnchen","source":"openstreetmap.org","min_zoom":6.0,"ref":"ALXn","osm_relation":true,"name":"AlexNord: Praha <=> Regensburg <=> M\u00fcnchen"},"arcs":[[504],[505]]},{"type":"MultiLineString","properties":{"kind":"train","name":"L2 Decin hl.n.-Ceska Lipa-Liberec","sort_rank":275,"name:de":"L2","source":"openstreetmap.org","min_zoom":6.0,"ref":"L2","osm_relation":true},"arcs":[[506],[507],[508],[509],[510],[511]]},{"type":"MultiLineString","properties":{"kind":"train","name":"U10 Litom\u011b\u0159ice - Lovosice","sort_rank":275,"name:de":"U10","source":"openstreetmap.org","min_zoom":6.0,"ref":"U10","osm_relation":true},"arcs":[[512],[513],[514]]},{"type":"MultiLineString","properties":{"kind":"train","name":"U7 Usti nad Labem-Strekov-Decin hl.n.","sort_rank":275,"name:de":"U7","source":"openstreetmap.org","min_zoom":6.0,"ref":"U7","osm_relation":true},"arcs":[[515],[516],[517],[518],[519],[520],[521],[522],[523],[524],[525],[526],[527],[528],[529]]},{"type":"LineString","properties":{"kind":"train","name":"D26","sort_rank":275,"source":"openstreetmap.org","min_zoom":6.0,"operator":"KD","ref":"298","id":-7713151,"osm_relation":true},"arcs":[530]},{"type":"MultiLineString","properties":{"kind":"train","name":"Linia kolejowa nr 286 K\u0142odzko G\u0142\u00f3wne - Wa\u0142brzych G\u0142\u00f3wny","sort_rank":275,"source":"openstreetmap.org","min_zoom":6.0,"operator":"PKP Polskie Linie Kolejowe S.A.","ref":"286","osm_relation":true,"network":"PKP"},"arcs":[[531],[532],[533],[534],[535],[536],[537],[538],[539],[540],[541]]},{"type":"MultiLineString","properties":{"kind":"train","name":"SuperCity Praha \u2013 Ostrava Pendolino","service":"long_distance","sort_rank":275,"name:de":"SuperCity Prag \u2013 Ostrau Pendolino","source":"openstreetmap.org","min_zoom":5.0,"operator":"\u010cD","ref":"SuperCity","osm_relation":true},"arcs":[[542],[543],[544],[545],[546],[547],[548],[549],[550]]},{"type":"MultiLineString","properties":{"kind":"train","name":"U40 Louny-Slany","sort_rank":275,"name:de":"U40","source":"openstreetmap.org","min_zoom":6.0,"ref":"U40","id":-5378420,"osm_relation":true},"arcs":[[551],[552]]},{"type":"MultiLineString","properties":{"source":"openstreetmap.org","kind":"train","name":"R Praha - Usti nad Labem - Most - Cheb","sort_rank":275,"min_zoom":6.0,"osm_relation":true,"name:de":"R Prag - Aussig - Br\u00fcx - Eger"},"arcs":[[553],[554],[555]]},{"type":"MultiLineString","properties":{"kind":"train","network":"PID","sort_rank":275,"source":"openstreetmap.org","min_zoom":6.0,"ref":"S29","osm_relation":true,"name":"S29"},"arcs":[[556],[557],[558],[559],[560],[561],[562],[563],[564],[565],[566],[567],[568],[569],[570],[571],[572],[573],[574],[575],[576]]},{"type":"MultiLineString","properties":{"kind":"train","name":"\u010cernohorsk\u00fd expres","sort_rank":275,"source":"openstreetmap.org","min_zoom":6.0,"operator":"Megaplus, s.r.o.","ref":"A","osm_relation":true},"arcs":[[577],[578],[579],[580],[581]]},{"type":"LineString","properties":{"kind":"train","name":"S11: Pe\u010dky \u2013 Kou\u0159im","service":"commuter","sort_rank":275,"source":"openstreetmap.org","min_zoom":6.0,"operator":"S\u017dDC","ref":"S11","id":-48613,"osm_relation":true},"arcs":[582]},{"type":"LineString","properties":{"kind":"train","name":"R Liberec-Pardubice","sort_rank":275,"name:de":"R Reichenberg-Pardubitz","source":"openstreetmap.org","min_zoom":6.0,"ref":"R","osm_relation":true},"arcs":[583]},{"type":"MultiLineString","properties":{"source":"openstreetmap.org","kind":"train","name":"R Brno-Plzen","sort_rank":275,"min_zoom":6.0,"osm_relation":true,"name:de":"R Br\u00fcnn-Pilsen"},"arcs":[[584],[585],[586],[587]]},{"type":"LineString","properties":{"kind":"train","network":"PID","sort_rank":275,"source":"openstreetmap.org","min_zoom":6.0,"ref":"S40","id":-5378416,"osm_relation":true,"name":"S40"},"arcs":[588]},{"type":"LineString","properties":{"kind":"train","name":"Linia kolejowa nr 137 Katowice - Legnica","sort_rank":275,"source":"openstreetmap.org","min_zoom":6.0,"operator":"PKP Polskie Linie Kolejowe S.A.","ref":"137","osm_relation":true,"network":"PKP"},"arcs":[589]},{"type":"MultiLineString","properties":{"source":"openstreetmap.org","kind":"train","name":"S76","sort_rank":275,"ref":"S76","min_zoom":6.0,"osm_relation":true},"arcs":[[590],[591],[592]]},{"type":"MultiLineString","properties":{"source":"openstreetmap.org","kind":"train","name":"R Cheb - Most - Usti nad Labem - Praha","sort_rank":275,"min_zoom":6.0,"osm_relation":true,"name:de":"R Eger - Br\u00fcx - Aussig - Prag"},"arcs":[[593],[594]]},{"type":"MultiLineString","properties":{"kind":"train","name":"U11 Cesk\u00e1 L\u00edpa - Litom\u011b\u0159ice - Lovosice - Louny - Postoloprty","sort_rank":275,"name:de":"U11","source":"openstreetmap.org","min_zoom":6.0,"ref":"U11","osm_relation":true},"arcs":[[595],[596],[597]]},{"type":"MultiLineString","properties":{"source":"openstreetmap.org","kind":"train","name":"??","sort_rank":275,"min_zoom":6.0,"osm_relation":true},"arcs":[[598],[599]]},{"type":"MultiLineString","properties":{"source":"openstreetmap.org","kind":"train","name":"R Praha - Usti nad Labem - Decin","sort_rank":275,"min_zoom":6.0,"osm_relation":true,"name:de":"R Prag - Aussig - Tetschen"},"arcs":[[600],[601],[602],[603]]},{"type":"MultiLineString","properties":{"source":"openstreetmap.org","kind":"train","name":"R Sluknov - Rumburk - Cesk\u00e1 L\u00edpa - Kolin","sort_rank":275,"min_zoom":6.0,"osm_relation":true,"name:de":"R Schluckenau - Rumburg - B\u00f6hmisch Leipa - Kolin"},"arcs":[[604],[605],[606],[607],[608],[609],[610],[611],[612],[613],[614],[615],[616],[617],[618],[619],[620],[621],[622],[623],[624],[625],[626],[627],[628],[629],[630],[631],[632]]},{"type":"MultiLineString","properties":{"osm_relation":true,"source":"openstreetmap.org","kind":"train","name":"021 - T\u00fdni\u0161t\u011b nad Orlic\u00ed - Letohrad","sort_rank":275,"min_zoom":6.0,"operator":"\u010cesk\u00e9 dr\u00e1hy (Czech railways)"},"arcs":[[633],[634],[635]]},{"type":"LineString","properties":{"source":"openstreetmap.org","kind":"train","sort_rank":275,"ref":"S98","min_zoom":6.0,"osm_relation":true,"id":-7080838},"arcs":[636]},{"type":"LineString","properties":{"kind":"train","network":"PID","sort_rank":275,"source":"openstreetmap.org","min_zoom":6.0,"ref":"S75","id":-5333019,"osm_relation":true,"name":"S75"},"arcs":[637]},{"type":"MultiLineString","properties":{"source":"openstreetmap.org","kind":"train","name":"R Decin - Praha","sort_rank":275,"min_zoom":6.0,"osm_relation":true,"name:de":"R Tetschen - Prag"},"arcs":[[638],[639],[640]]},{"type":"MultiLineString","properties":{"kind":"train","network":"PID","sort_rank":275,"source":"openstreetmap.org","min_zoom":6.0,"ref":"S6","osm_relation":true,"name":"S6"},"arcs":[[641],[642],[643],[644],[645],[646],[647],[648],[649],[650],[651],[652],[653]]},{"type":"MultiLineString","properties":{"kind":"train","network":"PID","sort_rank":275,"source":"openstreetmap.org","min_zoom":6.0,"ref":"S7","osm_relation":true,"name":"S7"},"arcs":[[654],[655],[656],[657],[658],[659],[660],[661],[662],[663],[664]]},{"type":"LineString","properties":{"source":"openstreetmap.org","kind":"train","name":"R Plzen-Brno","sort_rank":275,"min_zoom":6.0,"osm_relation":true,"name:de":"R Pilsen-Br\u00fcnn"},"arcs":[665]}]},"pois":{"type":"GeometryCollection","geometries":[{"type":"Point","properties":{"kind":"national_park","name:en":"Krkono\u0161e national park","protect_class":"2","area":1367910000,"name:de":"Nationalpark Riesengebirge","source":"openstreetmap.org","min_zoom":5.58,"tier":1,"name:pl":"Krakonoski park narodowy","id":-2327566,"osm_relation":true,"name":"Krkono\u0161sk\u00fd n\u00e1rodn\u00ed park"},"coordinates":[2310,3999]},{"type":"Point","properties":{"kind":"protected_area","protect_class":"97","area":532174000,"source":"openstreetmap.org","min_zoom":7.0,"tier":2,"ref":"PLH020071","id":-2060458,"osm_relation":true,"name":"Ostoja Nietoperzy G\u00f3r Sowich"},"coordinates":[3494,3943]},{"type":"Point","properties":{"kind":"national_park","protect_class":"5","area":307282000,"name:de":"Landschaftsschutzpark B\u00f6hmisches Paradies","source":"openstreetmap.org","min_zoom":6.66,"tier":1,"id":-2022071,"osm_relation":true,"name":"CHKO \u010cesk\u00fd r\u00e1j"},"coordinates":[1565,3601]},{"type":"Point","properties":{"kind":"national_park","protect_class":"5","area":214675000,"name:de":"Landschaftsschutzgebiet M\u00e4hrischer Karst","source":"openstreetmap.org","min_zoom":6.92,"tier":1,"id":-2022068,"osm_relation":true,"name":"CHKO Moravsk\u00fd kras"},"coordinates":[3847,899]},{"type":"Point","properties":{"kind":"national_park","protect_class":"5","area":1689950000,"name:de":"Landschaftsschutzpark Saarer Berge","source":"openstreetmap.org","min_zoom":5.43,"tier":1,"id":-2021033,"osm_relation":true,"name":"CHKO \u017d\u010f\u00e1rsk\u00e9 vrchy"},"coordinates":[2816,1644]},{"type":"Point","properties":{"kind":"national_park","protect_class":"5","area":685019000,"name:de":"Landschaftsschutzpark Eisengebirge","source":"openstreetmap.org","min_zoom":6.08,"tier":1,"id":-2021032,"osm_relation":true,"name":"CHKO \u017delezn\u00e9 hory"},"coordinates":[2456,2021]},{"type":"Point","properties":{"kind":"national_park","protect_class":"5","area":1596560000,"name:de":"Landschaftsschutzpark Wittingauer Becken","source":"openstreetmap.org","min_zoom":5.47,"tier":1,"id":-2021031,"osm_relation":true,"name":"CHKO T\u0159ebo\u0148sko"},"coordinates":[1151,160]},{"type":"Point","properties":{"kind":"national_park","protect_class":"5","area":319000000,"name:de":"Landschaftsschutzpark B\u00f6hmischer Karst","source":"openstreetmap.org","min_zoom":6.63,"tier":1,"id":-2019868,"osm_relation":true,"name":"CHKO \u010cesk\u00fd kras"},"coordinates":[168,2299]},{"type":"Point","properties":{"kind":"nature_reserve","protect_class":"5","area":671790000,"source":"openstreetmap.org","min_zoom":7.59,"tier":2,"id":-2019867,"osm_relation":true,"name":"CHKO Koko\u0159\u00ednsko - M\u00e1ch\u016fv kraj"},"coordinates":[722,3575]},{"type":"Point","properties":{"kind":"nature_reserve","protect_class":"5","area":569718000,"name:de":"Landschaftsschutzpark Adlergebirge","source":"openstreetmap.org","min_zoom":7.71,"tier":2,"name:pl":"Chr\u00e1n\u011bn\u00e1 krajinn\u00e1 oblast Orlick\u00e9 hory","id":-2018991,"osm_relation":true,"name":"CHKO Orlick\u00e9 hory"},"coordinates":[3421,3007]},{"type":"Point","properties":{"kind":"national_park","protect_class":"5","area":2616170000,"name:de":"Landschaftsschutzpark B\u00f6hmisches Mittelgebirge","source":"openstreetmap.org","min_zoom":5.11,"tier":1,"id":-1903864,"osm_relation":true,"name":"CHKO \u010cesk\u00e9 st\u0159edoho\u0159\u00ed"},"coordinates":[86,3759]},{"type":"Point","properties":{"kind":"national_park","name:en":"Table Mountains National Park","protect_class":"2","area":155996000,"name:de":"Nationalpark Heuscheuergebirge","source":"openstreetmap.org","min_zoom":7.15,"tier":1,"id":-1567260,"osm_relation":true,"name":"Park Narodowy G\u00f3r Sto\u0142owych"},"coordinates":[3334,3489]}]},"boundaries":{"type":"GeometryCollection","geometries":[{"type":"MultiLineString","properties":{"source":"naturalearthdata.com","kind":"country","sort_rank":262,"kind_detail":"2","min_zoom":0.0,"id":110},"arcs":[[0],[1],[2],[3]]},{"type":"MultiLineString","properties":{"source":"naturalearthdata.com","kind":"country","sort_rank":262,"kind_detail":"2","min_zoom":0.0,"id":94},"arcs":[[4],[5],[6],[7],[8],[9],[10],[11],[12],[13],[14],[15],[16],[17],[18],[19],[20],[21],[22],[23],[24]]},{"type":"MultiLineString","properties":{"source":"naturalearthdata.com","kind":"region","name":"Pardubick\u00fd - Vyso\u010dina","sort_rank":256,"kind_detail":"4","min_zoom":6.0,"id":8063},"arcs":[[25],[26],[27]]},{"type":"LineString","properties":{"source":"naturalearthdata.com","kind":"region","name":"Libereck\u00fd - St\u0159edo\u010desk\u00fd","sort_rank":256,"kind_detail":"4","min_zoom":6.0,"id":8068},"arcs":[28]},{"type":"LineString","properties":{"source":"naturalearthdata.com","kind":"region","name":"Olomouck\u00fd - Pardubick\u00fd","sort_rank":256,"kind_detail":"4","min_zoom":6.0,"id":8076},"arcs":[29]},{"type":"MultiLineString","properties":{"source":"naturalearthdata.com","kind":"region","name":"Vyso\u010dina - St\u0159edo\u010desk\u00fd","sort_rank":256,"kind_detail":"4","min_zoom":6.0,"id":8067},"arcs":[[30],[31],[32],[33],[34]]},{"type":"MultiLineString","properties":{"source":"naturalearthdata.com","kind":"region","name":"Vyso\u010dina - Pardubick\u00fd","sort_rank":256,"kind_detail":"4","min_zoom":6.0,"id":8074},"arcs":[[35],[36],[37],[38],[39],[40]]},{"type":"MultiLineString","properties":{"source":"naturalearthdata.com","kind":"region","name":"Jihomoravsk\u00fd - Olomouck\u00fd","sort_rank":256,"kind_detail":"4","min_zoom":6.0,"id":8056},"arcs":[[41],[42],[43],[44],[45]]},{"type":"MultiLineString","properties":{"source":"naturalearthdata.com","kind":"region","name":"Jihomoravsk\u00fd - Pardubick\u00fd","sort_rank":256,"kind_detail":"4","min_zoom":6.0,"id":8075},"arcs":[[46],[47],[48],[49],[50],[51]]},{"type":"MultiLineString","properties":{"source":"naturalearthdata.com","kind":"region","name":"Jihomoravsk\u00fd - Vyso\u010dina","sort_rank":256,"kind_detail":"4","min_zoom":6.0,"id":8060},"arcs":[[52],[53],[54],[55],[56],[57],[58],[59],[60],[61],[62],[63],[64]]},{"type":"MultiLineString","properties":{"source":"naturalearthdata.com","kind":"region","name":"Kr\u00e1lov\u00e9hradeck\u00fd - Pardubick\u00fd","sort_rank":256,"kind_detail":"4","min_zoom":6.0,"id":8061},"arcs":[[65],[66],[67],[68],[69],[70],[71],[72],[73],[74],[75]]},{"type":"MultiLineString","properties":{"source":"naturalearthdata.com","kind":"region","name":"Libereck\u00fd - Kr\u00e1lov\u00e9hradeck\u00fd","sort_rank":256,"kind_detail":"4","min_zoom":6.0,"id":8062},"arcs":[[76],[77],[78],[79],[80],[81],[82]]},{"type":"MultiLineString","properties":{"source":"naturalearthdata.com","kind":"region","name":"Vyso\u010dina - Jiho\u010desk\u00fd","sort_rank":256,"kind_detail":"4","min_zoom":6.0,"id":8064},"arcs":[[83],[84],[85],[86],[87]]},{"type":"LineString","properties":{"source":"naturalearthdata.com","kind":"region","name":"Libereck\u00fd - \u00dasteck\u00fd","sort_rank":256,"kind_detail":"4","min_zoom":6.0,"id":8065},"arcs":[88]},{"type":"MultiLineString","properties":{"source":"naturalearthdata.com","kind":"region","name":"Kr\u00e1lov\u00e9hradeck\u00fd - St\u0159edo\u010desk\u00fd","sort_rank":256,"kind_detail":"4","min_zoom":6.0,"id":8069},"arcs":[[89],[90],[91],[92],[93]]},{"type":"MultiLineString","properties":{"source":"naturalearthdata.com","kind":"region","name":"Pardubick\u00fd - St\u0159edo\u010desk\u00fd","sort_rank":256,"kind_detail":"4","min_zoom":6.0,"id":8070},"arcs":[[94],[95],[96]]},{"type":"MultiLineString","properties":{"source":"naturalearthdata.com","kind":"region","name":"St\u0159edo\u010desk\u00fd - Libereck\u00fd","sort_rank":256,"kind_detail":"4","min_zoom":6.0,"id":8071},"arcs":[[97],[98],[99],[100],[101],[102],[103],[104],[105],[106],[107]]},{"type":"MultiLineString","properties":{"source":"naturalearthdata.com","kind":"region","name":"St\u0159edo\u010desk\u00fd - \u00dasteck\u00fd","sort_rank":256,"kind_detail":"4","min_zoom":6.0,"id":8072},"arcs":[[108],[109],[110],[111],[112],[113],[114],[115]]},{"type":"MultiLineString","properties":{"source":"naturalearthdata.com","kind":"region","name":"Prague - St\u0159edo\u010desk\u00fd","sort_rank":256,"kind_detail":"4","min_zoom":6.0,"id":8073},"arcs":[[116],[117],[118],[119],[120],[121]]},{"type":"LineString","properties":{"source":"naturalearthdata.com","kind":"region","name":"Pardubick\u00fd - Olomouck\u00fd","sort_rank":256,"kind_detail":"4","min_zoom":6.0,"id":8077},"arcs":[122]},{"type":"MultiLineString","properties":{"source":"naturalearthdata.com","kind":"region","name":"Jiho\u010desk\u00fd - St\u0159edo\u010desk\u00fd","sort_rank":256,"kind_detail":"4","min_zoom":6.0,"id":8080},"arcs":[[123],[124],[125],[126],[127],[128],[129],[130],[131],[132],[133],[134]]},{"type":"MultiLineString","properties":{"source":"naturalearthdata.com","kind":"region","name":"Vyso\u010dina - St\u0159edo\u010desk\u00fd","sort_rank":256,"kind_detail":"4","min_zoom":6.0,"id":8081},"arcs":[[135],[136],[137],[138],[139]]},{"type":"MultiLineString","properties":{"source":"naturalearthdata.com","kind":"region","name":"Vyso\u010dina - Jiho\u010desk\u00fd","sort_rank":256,"kind_detail":"4","min_zoom":6.0,"id":8082},"arcs":[[140],[141],[142],[143],[144],[145],[146]]},{"type":"LineString","properties":{"source":"naturalearthdata.com","kind":"region","name":"Jihomoravsk\u00fd - Jiho\u010desk\u00fd","sort_rank":256,"kind_detail":"4","min_zoom":6.0,"id":8083},"arcs":[147]}]},"roads":{"type":"GeometryCollection","geometries":[{"type":"LineString","properties":{"kind":"highway","network":"e-road","sort_rank":383,"kind_detail":"motorway","source":"naturalearthdata.com","min_zoom":3.0,"all_networks":["e-road"],"landuse_kind":"urban_area","shield_text":"50","ref":"50","id":4469,"all_shield_texts":["50"]},"arcs":[666]},{"type":"LineString","properties":{"kind":"highway","network":"e-road","sort_rank":383,"kind_detail":"motorway","source":"naturalearthdata.com","min_zoom":3.0,"all_networks":["e-road"],"shield_text":"50","ref":"50","id":4469,"all_shield_texts":["50"]},"arcs":[667]},{"type":"LineString","properties":{"kind":"highway","network":"e-road","sort_rank":383,"kind_detail":"motorway","source":"naturalearthdata.com","min_zoom":3.0,"all_networks":["e-road"],"landuse_kind":"national_park","shield_text":"50","ref":"50","id":4472,"all_shield_texts":["50"]},"arcs":[668]},{"type":"LineString","properties":{"kind":"highway","network":"e-road","sort_rank":383,"kind_detail":"motorway","source":"naturalearthdata.com","min_zoom":3.0,"all_networks":["e-road"],"landuse_kind":"urban_area","shield_text":"50","ref":"50","id":4472,"all_shield_texts":["50"]},"arcs":[669]},{"type":"LineString","properties":{"kind":"highway","network":"e-road","sort_rank":383,"kind_detail":"motorway","source":"naturalearthdata.com","min_zoom":3.0,"all_networks":["e-road"],"shield_text":"50","ref":"50","id":4472,"all_shield_texts":["50"]},"arcs":[670]},{"type":"LineString","properties":{"kind":"highway","network":"e-road","sort_rank":383,"kind_detail":"motorway","source":"naturalearthdata.com","min_zoom":4.0,"all_networks":["e-road"],"landuse_kind":"urban_area","shield_text":"67","ref":"67","id":4501,"all_shield_texts":["67"]},"arcs":[671]},{"type":"LineString","properties":{"kind":"highway","network":"e-road","sort_rank":383,"kind_detail":"motorway","source":"naturalearthdata.com","min_zoom":4.0,"all_networks":["e-road"],"landuse_kind":"urban_area","shield_text":"67","ref":"67","id":4501,"all_shield_texts":["67"]},"arcs":[672]},{"type":"MultiLineString","properties":{"kind":"highway","network":"e-road","sort_rank":383,"kind_detail":"motorway","source":"naturalearthdata.com","min_zoom":4.0,"all_networks":["e-road"],"shield_text":"67","ref":"67","id":4501,"all_shield_texts":["67"]},"arcs":[[673],[674]]},{"type":"LineString","properties":{"source":"naturalearthdata.com","kind":"highway","sort_rank":383,"kind_detail":"motorway","min_zoom":3.0,"id":4514},"arcs":[675]},{"type":"LineString","properties":{"source":"naturalearthdata.com","kind":"highway","kind_detail":"motorway","sort_rank":383,"landuse_kind":"battlefield","min_zoom":3.0,"id":4515},"arcs":[676]},{"type":"LineString","properties":{"source":"naturalearthdata.com","kind":"highway","kind_detail":"motorway","sort_rank":383,"landuse_kind":"urban_area","min_zoom":3.0,"id":4515},"arcs":[677]},{"type":"LineString","properties":{"source":"naturalearthdata.com","kind":"highway","sort_rank":383,"kind_detail":"motorway","min_zoom":3.0,"id":4515},"arcs":[678]},{"type":"LineString","properties":{"kind":"highway","network":"e-road","sort_rank":383,"kind_detail":"motorway","source":"naturalearthdata.com","min_zoom":3.0,"all_networks":["e-road"],"shield_text":"50","ref":"50","id":4520,"all_shield_texts":["50"]},"arcs":[679]},{"type":"MultiLineString","properties":{"kind":"highway","network":"e-road","sort_rank":383,"kind_detail":"motorway","source":"naturalearthdata.com","min_zoom":3.0,"all_networks":["e-road"],"landuse_kind":"urban_area","shield_text":"50","ref":"50","id":4521,"all_shield_texts":["50"]},"arcs":[[680],[681]]},{"type":"LineString","properties":{"kind":"highway","network":"e-road","sort_rank":383,"kind_detail":"motorway","source":"naturalearthdata.com","min_zoom":3.0,"all_networks":["e-road"],"landuse_kind":"urban_area","shield_text":"50","ref":"50","id":4521,"all_shield_texts":["50"]},"arcs":[682]},{"type":"MultiLineString","properties":{"kind":"highway","network":"e-road","sort_rank":383,"kind_detail":"motorway","source":"naturalearthdata.com","min_zoom":3.0,"all_networks":["e-road"],"shield_text":"50","ref":"50","id":4521,"all_shield_texts":["50"]},"arcs":[[683],[684],[685]]},{"type":"LineString","properties":{"kind":"highway","network":"e-road","sort_rank":383,"kind_detail":"motorway","source":"naturalearthdata.com","min_zoom":3.0,"all_networks":["e-road"],"landuse_kind":"urban_area","shield_text":"65","ref":"65","id":4522,"all_shield_texts":["65"]},"arcs":[686]},{"type":"LineString","properties":{"kind":"highway","network":"e-road","sort_rank":383,"kind_detail":"motorway","source":"naturalearthdata.com","min_zoom":3.0,"all_networks":["e-road"],"shield_text":"65","ref":"65","id":4522,"all_shield_texts":["65"]},"arcs":[687]},{"type":"LineString","properties":{"kind":"major_road","network":"e-road","sort_rank":380,"kind_detail":"primary","source":"naturalearthdata.com","min_zoom":4.0,"shield_text":"67","ref":"67","id":4957},"arcs":[688]},{"type":"LineString","properties":{"kind":"major_road","network":"e-road","sort_rank":380,"kind_detail":"primary","source":"naturalearthdata.com","min_zoom":4.0,"shield_text":"67","ref":"67","id":4961},"arcs":[689]},{"type":"LineString","properties":{"kind":"major_road","network":"e-road","sort_rank":380,"kind_detail":"primary","source":"naturalearthdata.com","min_zoom":3.0,"landuse_kind":"urban_area","shield_text":"65","ref":"65","id":5036},"arcs":[690]},{"type":"MultiLineString","properties":{"kind":"highway","network":"e-road","sort_rank":383,"kind_detail":"motorway","source":"naturalearthdata.com","min_zoom":3.0,"all_networks":["e-road"],"landuse_kind":"urban_area","shield_text":"55","ref":"55","id":5121,"all_shield_texts":["55"]},"arcs":[[691],[692]]},{"type":"MultiLineString","properties":{"kind":"highway","network":"e-road","sort_rank":383,"kind_detail":"motorway","source":"naturalearthdata.com","min_zoom":3.0,"all_networks":["e-road"],"shield_text":"55","ref":"55","id":5121,"all_shield_texts":["55"]},"arcs":[[693],[694]]},{"type":"LineString","properties":{"kind":"major_road","network":"e-road","sort_rank":380,"kind_detail":"primary","source":"naturalearthdata.com","min_zoom":6.0,"shield_text":"442","ref":"442","id":5531},"arcs":[695]},{"type":"LineString","properties":{"kind":"major_road","network":"e-road","sort_rank":380,"kind_detail":"primary","source":"naturalearthdata.com","min_zoom":6.0,"landuse_kind":"urban_area","shield_text":"442","ref":"442","id":5532},"arcs":[696]},{"type":"LineString","properties":{"kind":"major_road","network":"e-road","sort_rank":380,"kind_detail":"primary","source":"naturalearthdata.com","min_zoom":6.0,"landuse_kind":"urban_area","shield_text":"442","ref":"442","id":5532},"arcs":[697]},{"type":"MultiLineString","properties":{"kind":"major_road","network":"e-road","sort_rank":380,"kind_detail":"primary","source":"naturalearthdata.com","min_zoom":6.0,"shield_text":"442","ref":"442","id":5532},"arcs":[[698],[699]]},{"type":"LineString","properties":{"kind":"major_road","network":"e-road","sort_rank":380,"kind_detail":"primary","source":"naturalearthdata.com","min_zoom":6.0,"shield_text":"55","ref":"55","id":5705},"arcs":[700]},{"type":"LineString","properties":{"kind":"major_road","network":"e-road","sort_rank":379,"kind_detail":"secondary","source":"naturalearthdata.com","min_zoom":6.0,"shield_text":"55","ref":"55","id":5706},"arcs":[701]},{"type":"LineString","properties":{"kind":"highway","network":"e-road","sort_rank":383,"kind_detail":"motorway","source":"naturalearthdata.com","min_zoom":6.0,"all_networks":["e-road"],"landuse_kind":"urban_area","shield_text":"55","ref":"55","id":5707,"all_shield_texts":["55"]},"arcs":[702]},{"type":"MultiLineString","properties":{"kind":"highway","network":"e-road","sort_rank":383,"kind_detail":"motorway","source":"naturalearthdata.com","min_zoom":6.0,"all_networks":["e-road"],"shield_text":"55","ref":"55","id":5707,"all_shield_texts":["55"]},"arcs":[[703],[704]]},{"type":"LineString","properties":{"kind":"major_road","network":"e-road","sort_rank":380,"kind_detail":"primary","source":"naturalearthdata.com","min_zoom":6.0,"shield_text":"55","ref":"55","id":5708},"arcs":[705]},{"type":"LineString","properties":{"kind":"major_road","network":"e-road","sort_rank":380,"kind_detail":"primary","source":"naturalearthdata.com","min_zoom":6.0,"landuse_kind":"urban_area","shield_text":"55","ref":"55","id":5709},"arcs":[706]},{"type":"MultiLineString","properties":{"kind":"major_road","network":"e-road","sort_rank":380,"kind_detail":"primary","source":"naturalearthdata.com","min_zoom":6.0,"shield_text":"55","ref":"55","id":5709},"arcs":[[707],[708]]},{"type":"MultiLineString","properties":{"kind":"major_road","network":"e-road","sort_rank":380,"kind_detail":"primary","source":"naturalearthdata.com","min_zoom":6.0,"landuse_kind":"urban_area","shield_text":"65","ref":"65","id":5717},"arcs":[[709],[710]]},{"type":"LineString","properties":{"kind":"major_road","network":"e-road","sort_rank":380,"kind_detail":"primary","source":"naturalearthdata.com","min_zoom":6.0,"landuse_kind":"urban_area","shield_text":"65","ref":"65","id":5717},"arcs":[711]},{"type":"MultiLineString","properties":{"kind":"major_road","network":"e-road","sort_rank":380,"kind_detail":"primary","source":"naturalearthdata.com","min_zoom":6.0,"shield_text":"65","ref":"65","id":5717},"arcs":[[712],[713],[714]]},{"type":"LineString","properties":{"kind":"major_road","network":"e-road","sort_rank":380,"kind_detail":"primary","source":"naturalearthdata.com","min_zoom":6.0,"landuse_kind":"urban_area","shield_text":"65","ref":"65","id":5718},"arcs":[715]},{"type":"MultiLineString","properties":{"kind":"major_road","network":"e-road","sort_rank":380,"kind_detail":"primary","source":"naturalearthdata.com","min_zoom":6.0,"shield_text":"65","ref":"65","id":5718},"arcs":[[716],[717]]},{"type":"LineString","properties":{"kind":"major_road","network":"e-road","sort_rank":380,"kind_detail":"primary","source":"naturalearthdata.com","min_zoom":7.0,"shield_text":"442","ref":"442","id":5957},"arcs":[718]},{"type":"LineString","properties":{"kind":"major_road","network":"e-road","sort_rank":380,"kind_detail":"primary","source":"naturalearthdata.com","min_zoom":7.0,"landuse_kind":"national_park","shield_text":"442","ref":"442","id":5958},"arcs":[719]},{"type":"LineString","properties":{"kind":"major_road","network":"e-road","sort_rank":380,"kind_detail":"primary","source":"naturalearthdata.com","min_zoom":7.0,"landuse_kind":"urban_area","shield_text":"442","ref":"442","id":5958},"arcs":[720]},{"type":"LineString","properties":{"kind":"major_road","network":"e-road","sort_rank":380,"kind_detail":"primary","source":"naturalearthdata.com","min_zoom":7.0,"landuse_kind":"urban_area","shield_text":"442","ref":"442","id":5958},"arcs":[721]},{"type":"MultiLineString","properties":{"kind":"major_road","network":"e-road","sort_rank":380,"kind_detail":"primary","source":"naturalearthdata.com","min_zoom":7.0,"shield_text":"442","ref":"442","id":5958},"arcs":[[722],[723],[724]]},{"type":"LineString","properties":{"kind":"major_road","network":"e-road","sort_rank":379,"kind_detail":"secondary","source":"naturalearthdata.com","min_zoom":7.0,"landuse_kind":"urban_area","shield_text":"50","ref":"50","id":5997},"arcs":[725]},{"type":"LineString","properties":{"kind":"major_road","network":"e-road","sort_rank":379,"kind_detail":"secondary","source":"naturalearthdata.com","min_zoom":7.0,"shield_text":"50","ref":"50","id":5997},"arcs":[726]},{"type":"LineString","properties":{"kind":"major_road","network":"e-road","sort_rank":380,"kind_detail":"primary","source":"naturalearthdata.com","min_zoom":7.0,"landuse_kind":"national_park","shield_text":"442","ref":"442","id":6008},"arcs":[727]},{"type":"LineString","properties":{"kind":"major_road","network":"e-road","sort_rank":380,"kind_detail":"primary","source":"naturalearthdata.com","min_zoom":7.0,"landuse_kind":"urban_area","shield_text":"48","ref":"48","id":6099},"arcs":[728]},{"type":"LineString","properties":{"kind":"major_road","network":"e-road","sort_rank":380,"kind_detail":"primary","source":"naturalearthdata.com","min_zoom":7.0,"shield_text":"48","ref":"48","id":6099},"arcs":[729]},{"type":"MultiLineString","properties":{"source":"naturalearthdata.com","kind":"major_road","kind_detail":"primary","sort_rank":380,"landuse_kind":"urban_area","min_zoom":7.0,"id":6163},"arcs":[[730],[731]]},{"type":"MultiLineString","properties":{"source":"naturalearthdata.com","kind":"major_road","sort_rank":380,"kind_detail":"primary","min_zoom":7.0,"id":6163},"arcs":[[732],[733]]},{"type":"LineString","properties":{"source":"naturalearthdata.com","kind":"major_road","kind_detail":"primary","sort_rank":380,"landuse_kind":"urban_area","min_zoom":7.0,"id":6267},"arcs":[734]},{"type":"LineString","properties":{"source":"naturalearthdata.com","kind":"major_road","sort_rank":380,"kind_detail":"primary","min_zoom":7.0,"id":6267},"arcs":[735]},{"type":"LineString","properties":{"kind":"major_road","network":"e-road","sort_rank":380,"kind_detail":"primary","source":"naturalearthdata.com","min_zoom":7.0,"shield_text":"461","ref":"461","id":6268},"arcs":[736]},{"type":"MultiLineString","properties":{"source":"naturalearthdata.com","kind":"major_road","kind_detail":"secondary","sort_rank":379,"landuse_kind":"nature_reserve","min_zoom":6.0,"id":55324},"arcs":[[737],[738]]},{"type":"MultiLineString","properties":{"source":"naturalearthdata.com","kind":"major_road","sort_rank":379,"kind_detail":"secondary","min_zoom":6.0,"id":55324},"arcs":[[739],[740],[741]]}]},"earth":{"type":"GeometryCollection","geometries":[{"type":"Polygon","properties":{"sort_rank":10,"source":"naturalearthdata.com","min_zoom":0.0,"kind":"earth","area":392091543542},"arcs":[[742]]}]},"landuse":{"type":"GeometryCollection","geometries":[{"type":"MultiPolygon","properties":{"kind":"national_park","protect_class":"2","area":2856732731,"sort_rank":18,"source":"openstreetmap.org","min_zoom":3.0,"tier":1,"osm_relation":true},"arcs":[[[743]]]},{"type":"MultiPolygon","properties":{"kind":"nature_reserve","protect_class":"5","area":6079105823,"sort_rank":23,"source":"openstreetmap.org","min_zoom":6.0,"tier":2,"osm_relation":true},"arcs":[[[744]],[[745]],[[746]],[[747]],[[748]]]},{"type":"Polygon","properties":{"kind":"nature_reserve","protect_class":"5","area":170248000,"sort_rank":23,"operator":"Dolno\u015bl\u0105ski Zesp\u00f3\u0142 Park\u00f3w Krajobrazowych","source":"openstreetmap.org","min_zoom":6.0,"tier":2,"id":-3316074,"osm_relation":true},"arcs":[[749]]},{"type":"Polygon","properties":{"kind":"battlefield","area":157160992,"sort_rank":25,"source":"openstreetmap.org","min_zoom":5.0,"tier":1,"id":-7654691,"osm_relation":true},"arcs":[[750]]},{"type":"Polygon","properties":{"kind":"national_park","protect_class":"5","area":214675008,"sort_rank":18,"source":"openstreetmap.org","min_zoom":5.0,"tier":1,"id":-2022068,"osm_relation":true},"arcs":[[751]]},{"type":"MultiPolygon","properties":{"source":"naturalearthdata.com","kind":"urban_area","name":"","area":21797430498,"sort_rank":11,"min_zoom":4.0},"arcs":[[[752]],[[753]],[[754]],[[755]],[[756]],[[757]],[[758]],[[759]],[[760]],[[761]],[[762]],[[763]],[[764]],[[765]],[[766]],[[767]],[[768]],[[769]],[[770]],[[771]],[[772]],[[773]],[[774]],[[775]],[[776]],[[777]],[[778]],[[779]],[[780]],[[781]],[[782]],[[783]],[[784]],[[785]],[[786]],[[787]],[[788]],[[789]],[[790]]]},{"type":"Polygon","properties":{"kind":"nature_reserve","protect_class":"5","area":161740992,"sort_rank":23,"operator":"Dolno\u015bl\u0105ski Zesp\u00f3\u0142 Park\u00f3w Krajobrazowych","source":"openstreetmap.org","min_zoom":6.0,"tier":2,"id":245251338},"arcs":[[791]]},{"type":"Polygon","properties":{"kind":"protected_area","protect_class":"97","area":532174016,"sort_rank":17,"source":"openstreetmap.org","min_zoom":6.0,"tier":2,"id":-2060458,"osm_relation":true},"arcs":[[792]]},{"type":"MultiPolygon","properties":{"kind":"national_park","protect_class":"2","area":704075634,"sort_rank":18,"source":"openstreetmap.org","min_zoom":5.0,"tier":1,"osm_relation":true},"arcs":[[[793],[794],[795]]]},{"type":"MultiPolygon","properties":{"kind":"national_park","protect_class":"5","area":14002297369,"sort_rank":18,"source":"openstreetmap.org","min_zoom":3.0,"tier":1,"osm_relation":true},"arcs":[[[796]],[[797]],[[798]],[[799]],[[800]],[[801]],[[802]],[[803]]]}]}},"type":"Topology","transform":{"translate":[14.0625,48.9224992638],"scale":[0.0006866455,0.0004428603]},"arcs":[[[1371,197],[81,-28],[113,-10],[11,-32],[6,-30],[0,-31],[-10,-32],[29,-1]],[[1317,0],[-4,47],[1,64],[20,48],[-2,12],[0,11],[3,7],[4,4],[32,4]],[[1765,145],[8,-9],[6,-12],[7,-5],[68,0],[32,-10],[70,-36],[65,-23],[32,-18],[36,-32]],[[1601,33],[111,31],[8,5],[20,24],[5,12],[3,31],[6,9],[11,0]],[[2362,4085],[-15,4],[-7,7]],[[2610,3954],[-9,4],[-74,123],[-5,14],[0,1]],[[2410,4096],[-48,-11]],[[2795,3796],[-3,7],[-1,7],[2,7],[2,8],[21,16],[4,27],[-8,31],[-13,31],[-19,35],[-19,19],[-25,3]],[[2736,3987],[-86,-32],[-40,-1]],[[3387,3610],[0,13],[2,18],[2,11],[7,13],[4,7],[0,7],[-6,17],[46,19],[-13,43],[-124,129],[-45,25],[-48,12],[-52,1]],[[3160,3925],[-19,-4],[-11,-22],[-10,-29],[-18,-22],[-25,-6]],[[3077,3842],[-22,11],[-46,34],[-61,7]],[[2948,3894],[-91,-87],[-62,-11]],[[3310,3540],[25,6],[14,19],[30,29],[12,17]],[[3391,3611],[-4,-1]],[[3264,3553],[46,-13]],[[3139,3420],[-3,7],[-7,25],[9,1],[14,8],[8,3],[22,19],[26,15],[21,19],[12,29],[23,7]],[[3110,3427],[29,-7]],[[3204,3256],[-19,15],[-7,13],[-18,58],[-48,8],[-13,41],[11,36]],[[4096,3395],[-13,-8],[0,-32],[13,-19]],[[3784,2643],[-61,32],[-50,46],[-26,33],[-14,28],[-16,77],[-16,43],[-44,46],[-19,33],[-21,29],[-37,67],[-21,29],[-32,22],[-65,24],[-26,34],[-4,20],[2,20],[-1,21],[-11,21],[-14,5]],[[3308,3273],[-66,0],[-17,-6],[-10,-9],[-11,-2]],[[4096,2863],[-8,-2],[-17,-4]],[[4071,2857],[-30,2]],[[4041,2859],[-28,-4],[-33,-28],[-26,-40],[-16,-30],[-18,-25],[-32,-24],[-45,-61],[-59,-4]],[[2072,2152],[63,-42],[28,-33],[37,-61],[16,-18],[8,-4]],[[2335,2003],[26,-7],[66,-52],[39,-10],[20,-12],[8,-9],[5,-10],[4,-23],[3,-8],[6,-6],[37,-18],[24,-19],[20,-27],[23,-47],[37,-10]],[[2224,1994],[111,9]],[[1476,3735],[13,-66],[15,-28],[52,-46]],[[4047,1705],[-45,-47],[-4,-16],[-4,-45],[-8,-34],[-15,-15]],[[2072,2152],[-1,-19],[0,-23],[-2,-12],[-5,-6],[-16,-5],[-4,-4],[-11,-11],[-5,-8],[-5,-8],[-2,-5],[-3,-9],[-3,-10],[-5,-36],[-4,-9],[-5,-9],[-8,-7],[-13,-6],[-19,-4]],[[1961,1961],[-24,3],[-8,3]],[[1929,1967],[-6,0],[-9,-5],[-52,-47],[-50,-20],[-60,-35],[-5,-2]],[[1747,1858],[-7,0],[-8,2],[-12,7],[-6,5],[-3,1],[-5,0]],[[1706,1873],[-10,-3],[-1,-1],[-7,-6],[-6,-7],[-4,-8],[-4,-10],[-1,-9],[-3,-9],[-3,-9],[-13,-18],[-33,-38],[-7,-13],[-4,-16],[3,-10],[6,-9],[66,-50],[8,-9],[8,-12],[7,-20],[4,-25],[-4,-27]],[[2990,1731],[-16,4],[-11,8],[-4,10],[-5,11],[-10,11],[-16,9],[-34,7],[-21,8],[-20,10],[-20,14],[-10,4],[-9,0]],[[2814,1827],[-6,-6],[-4,-5],[-7,-19],[-5,-9],[-7,-5],[-16,-6],[-7,-4],[-22,-25],[-15,-9],[-13,0]],[[2712,1739],[-16,4],[-20,9]],[[2676,1752],[-13,-1],[-10,-6]],[[3393,1524],[-29,9],[-60,38],[-51,19],[-15,11],[-11,15],[-9,17],[-13,16],[-19,17],[-55,36],[-43,22],[-29,9],[-38,2]],[[3021,1735],[-31,-4]],[[3942,1492],[8,3],[8,8],[7,17],[6,28]],[[3895,1503],[47,-11]],[[4050,1047],[-79,62],[-7,11],[-1,11],[6,10],[9,10],[7,11],[5,11],[2,11],[0,12],[-2,13],[-36,94],[-4,15],[0,12],[3,10],[16,8],[4,5],[0,6],[-3,7],[-63,62],[-19,34],[-6,16],[-1,13],[4,9],[10,3]],[[4096,1298],[-4,-11],[-3,-27],[1,-9],[2,-8],[4,-6]],[[4096,1071],[-8,-8],[-13,-10],[-12,-6],[-13,0]],[[3763,1593],[-14,2],[-18,9],[-11,3]],[[3720,1607],[-78,-1],[-12,-5],[-8,-10],[-1,-19],[-3,-15],[-5,-9],[-13,-11],[-172,-16]],[[3955,1544],[-73,37],[-34,12],[-36,4]],[[3812,1597],[-49,-4]],[[3971,1548],[-16,-4]],[[3428,1521],[-35,3]],[[3393,1524],[-4,-25],[-7,-26],[-18,-45],[0,-12],[4,-10],[40,-40],[5,-11],[3,-13],[1,-14],[0,-14],[-3,-13],[-4,-10],[-6,-7],[-43,-8],[-7,-5],[-4,-8],[0,-10],[8,-31],[3,-103],[3,-16],[28,-87],[1,-15],[-1,-14],[-6,-11],[-127,-78],[-18,-19],[-16,-25],[-5,-15],[-3,-15],[-1,-14],[1,-11],[3,-9],[10,-19],[2,-6],[1,-9],[-2,-8],[-4,-5],[-31,-12],[-7,-7],[-5,-10],[-7,-28],[-2,-28],[2,-13],[3,-11],[6,-8],[18,-10],[8,-6],[5,-8],[3,-10],[0,-11],[-3,-12],[-6,-12],[-21,-25],[-6,-12],[-3,-11],[0,-10],[2,-10],[12,-29],[3,-10],[-1,-11],[-2,-11],[-10,-22],[-32,-39],[-102,-34],[-6,-5],[-30,-46],[-12,-10],[-16,-6]],[[2802,256],[-17,5],[-8,6],[-7,10],[-7,13],[-7,11],[-10,1]],[[2746,302],[-10,-6],[-38,-48]],[[2987,266],[-100,17]],[[2887,283],[-6,-2],[-26,-19],[-9,-4],[-44,-2]],[[2698,248],[-6,2],[-14,0]],[[2678,250],[-8,-3],[-7,-6],[-5,-11],[-8,-32],[-7,-9],[-9,-5]],[[2634,184],[-51,5]],[[2583,189],[-41,-19],[-105,-98],[-9,-1]],[[2289,51],[-9,5],[-27,45],[-11,9],[-10,6],[-10,2]],[[2222,118],[-9,-3],[-7,-6],[-4,-10]],[[2428,71],[-9,3],[-43,39],[-10,3]],[[2366,116],[-10,0],[-10,-4],[-15,-12],[-10,-13],[-4,-10],[-12,-17],[-8,-7],[-8,-2]],[[2518,2795],[7,-3],[6,-8],[13,-58],[10,-24],[6,-8],[6,-5],[6,-2]],[[2394,2675],[9,3],[7,9],[19,61],[7,15],[9,11],[73,21]],[[2748,2789],[40,-12],[8,-6],[5,-8],[1,-12],[0,-46],[3,-15],[7,-12],[12,-8],[83,-17],[9,-7],[11,-22],[14,-22],[18,-16],[16,-8],[13,-3],[5,-5],[24,-29],[6,-5],[17,-4],[57,-49]],[[2572,2687],[9,4],[92,91],[14,6],[61,1]],[[3518,2770],[155,-49]],[[3097,2483],[21,16],[22,9],[131,13],[19,10],[9,8],[7,11],[6,12],[7,28],[6,10],[8,7],[151,72],[8,11],[3,14],[2,30],[3,14],[5,11],[6,7],[7,4]],[[2193,2736],[57,-28],[21,-1]],[[2043,2636],[11,1],[88,83],[29,14],[22,2]],[[2316,2721],[7,-3],[59,-40],[12,-3]],[[2271,2707],[45,14]],[[1962,2666],[81,-30]],[[2248,3546],[10,2],[8,7],[6,12],[2,15],[0,14],[-3,14],[-50,113],[-2,9],[-1,9],[11,48],[1,13],[-1,14],[-3,13],[-4,13],[-7,11],[-18,23],[-6,17],[-4,21],[-2,44],[1,20],[4,17],[6,13],[2,12],[-3,18],[-29,58]],[[2072,3615],[9,-2],[8,-4],[30,-32],[17,-11],[112,-20]],[[1981,3473],[9,2],[9,8],[6,12],[4,16],[4,72],[5,12],[8,6],[38,13],[8,1]],[[1578,3603],[23,-9],[81,-67],[10,-5],[9,-1]],[[1556,3595],[3,3],[5,3],[6,1],[8,1]],[[1802,3601],[64,-25],[28,-22],[44,-57],[22,-19],[11,-4],[10,-1]],[[1701,3521],[8,4],[63,70],[15,6],[15,0]],[[1253,1404],[21,-22],[6,-10],[3,-11],[0,-11],[-5,-10],[-10,-7],[-51,-15],[-9,-6],[-4,-9],[22,-79],[4,-37],[-1,-41],[-31,-123],[0,-16],[4,-14],[6,-11],[24,-23],[4,-6],[3,-8],[1,-11],[-4,-47],[2,-11],[4,-11],[8,-12],[54,-52],[28,-17],[13,-2]],[[1396,815],[13,-2],[23,-13],[33,-33],[41,-28],[39,-52],[58,-39]],[[1345,782],[13,5],[25,23],[13,5]],[[1657,700],[9,0],[76,-41]],[[1603,648],[7,1],[6,4],[25,40],[8,5],[8,2]],[[501,4096],[-31,-29],[-6,-8],[-27,-68],[-21,-13],[-6,-7],[-5,-9],[-3,-10],[2,-12],[82,-254],[104,-85],[11,-52]],[[1556,3595],[3,-9],[-1,-8],[-4,-8],[-5,-7],[-1,-1],[-5,-12],[-1,-18],[4,-13],[10,-18],[5,-11],[3,-9],[13,-92],[1,-22],[-2,-18],[-5,-13],[-13,-23],[-12,-17],[-4,-11],[-5,-18],[-2,-33],[2,-15],[3,-8],[4,-3],[72,-31],[9,-6],[9,-9],[13,-20],[5,-17],[4,-26],[5,-12],[8,-9],[9,-3],[10,-1]],[[1725,3081],[14,-1],[39,-10]],[[1688,3074],[10,1],[27,6]],[[1838,3078],[11,-1],[9,-4],[12,-11],[7,-13],[4,-13],[6,-38],[0,-31],[3,-19],[7,-24],[22,-64],[3,-12],[-1,-6],[-2,-5],[-2,-5],[-6,-9],[-24,-24],[-2,-7],[0,-11],[3,-8],[4,-5],[24,-16],[11,-11],[14,-17],[19,-28],[6,-14],[1,-10],[-5,-6]],[[1778,3070],[60,8]],[[1962,2666],[-24,-23],[-3,-7],[-2,-7],[0,-12],[2,-12],[5,-25],[1,-8],[-1,-8],[-3,-23]],[[1937,2541],[-12,0]],[[1925,2541],[-30,-7],[-27,-13],[-7,-11],[17,-27],[10,-11],[34,-22],[50,-16],[10,-6],[53,-51],[12,-9],[19,-5],[10,-6],[11,-8],[13,-17],[2,-11],[-3,-11],[-4,-8],[-1,-7],[-1,-9],[-1,-46],[-2,-12],[-3,-13],[-7,-22],[-6,-23],[-2,-18]],[[1331,3777],[-12,6],[-14,11],[-10,2]],[[1295,3796],[-11,-3],[-16,-8]],[[1268,3785],[-12,1],[-14,6],[-9,0]],[[1233,3792],[-7,-3],[-5,-7],[-17,-27],[-9,-10],[-30,-25],[-9,-11],[-6,-8],[-15,-31],[-10,-12],[-13,-11],[-24,-13],[-11,-8],[-17,-16],[-13,-10],[-53,-25],[-59,-39],[-131,-34],[-25,-2]],[[1438,3725],[-10,2],[-10,4],[-9,9],[-28,32],[-8,5],[-7,2]],[[1366,3779],[-35,-2]],[[1476,3735],[-38,-10]],[[709,3551],[-27,4]],[[682,3555],[-65,-1],[-16,-5]],[[779,3500],[-13,2],[-4,3],[-3,5],[-2,6],[-1,8],[-1,6],[-1,6],[-3,6],[-2,6],[-7,3],[-10,2]],[[732,3553],[-23,-2]],[[601,3549],[-10,-6],[-5,-9],[-4,-8],[-3,-8],[-1,-10],[0,-14],[-2,-19],[-5,-17],[-2,-6],[-2,-4],[-10,-7],[-11,-6],[-43,-35],[-13,-8],[-8,-3]],[[482,3389],[-8,0],[-7,2],[-20,9],[-11,2]],[[436,3402],[-6,-4],[-1,-9],[2,-9],[7,-20],[2,-9],[0,-9],[-1,-14],[0,-8],[1,-7],[6,-16],[2,-8],[0,-8],[-1,-6],[-7,-10],[-3,-5],[-3,-10],[-5,-11],[-12,-17],[-11,-7],[-11,-2]],[[395,3213],[-26,2]],[[369,3215],[-41,-4],[-11,-3],[-13,-8],[-31,-26],[-11,-5],[-7,-2]],[[93,3166],[-30,3],[-34,12],[-29,6]],[[255,3167],[-48,18]],[[207,3185],[-114,-19]],[[765,2422],[53,2],[33,9],[8,16],[2,5],[1,6],[-1,5],[-2,7],[-4,7],[-3,8],[-1,6],[2,20],[-1,7],[-1,6],[-7,14],[-1,4],[0,4],[2,5],[4,6],[41,40],[12,16],[3,8],[1,7],[-2,12],[-7,11],[-8,7],[-30,10],[-10,5],[-5,5],[-6,6],[-5,10],[-9,14],[-6,5],[-5,3],[-34,9],[-11,5],[-6,10],[-5,14],[-7,9],[-18,13],[-23,24],[-8,5],[-9,4],[-16,3]],[[676,2814],[-71,-8],[-192,-56],[-6,-4],[-4,-6],[-1,-7],[2,-9],[2,-8],[1,-7],[-2,-6],[-6,-6],[-8,-5],[-9,-2]],[[382,2690],[-7,1],[-36,15],[-9,1]],[[330,2707],[-9,-1],[-69,-25],[-27,-16],[-3,-4],[-2,-4],[0,-3],[-1,-3],[3,-4],[4,-6],[27,-16],[8,-7],[4,-4],[2,-5],[0,-5],[-2,-6],[-4,-9],[-2,-5],[-2,-6],[0,-6],[2,-5],[5,-7],[35,-45],[4,-6],[7,-15],[8,-27],[3,-7],[3,-6],[4,-5],[39,-46],[4,-9],[1,-8],[-1,-15],[-1,-7],[-1,-15],[2,-14],[2,-3],[2,-3],[4,-2],[5,-3],[16,-2]],[[709,2434],[3,0],[3,-2],[5,-2],[20,-6],[25,-2]],[[400,2322],[61,25],[105,18],[65,21],[9,5],[21,20],[24,18],[14,4],[10,1]],[[4047,1705],[-11,77],[-15,22],[-23,9],[-7,8],[-6,13],[-4,38],[-60,122],[-23,36],[-9,16],[-3,19],[3,18],[23,51],[-2,54],[1,61],[-1,14],[-11,43],[-6,50],[-2,11],[-4,11],[-11,17],[-1,11],[5,12],[25,14],[6,2],[8,6],[30,32],[45,32],[6,7],[5,8],[2,8],[-1,16],[-2,8],[-9,24],[2,24],[36,122],[55,140]],[[1142,1472],[-15,2],[-7,4],[-1,15],[-1,6],[-5,9],[-8,6],[-43,14],[-7,4],[-5,5],[-11,14],[-8,9],[-5,1]],[[1026,1561],[-7,-2],[-18,-16],[-5,-5],[-6,-9],[-9,-19],[-1,-6],[-1,-7],[-4,-59],[-9,-14],[-20,-17],[-47,-10],[-10,-4],[-22,-23],[-34,-22],[-16,-4],[-16,-2]],[[1243,1403],[-6,2],[-7,5],[-7,6],[-7,8],[-6,9],[-5,10],[-4,15],[-4,7],[-9,6],[-18,6]],[[1170,1477],[-28,-5]],[[401,1345],[-11,1],[-6,2],[-4,2],[-4,3],[-3,3],[-7,11],[-3,5],[-6,7],[-6,4],[-7,3],[-5,1],[-4,1],[-3,4],[-3,6],[-6,14],[-5,5],[-7,4],[-18,5],[-23,0]],[[270,1426],[-17,-3],[-7,-2],[-6,-5],[-27,-26],[-29,-12],[-85,-11]],[[1253,1404],[-10,-1]],[[99,1367],[-38,1],[-19,7],[-27,2],[-9,3],[-6,5]],[[586,1367],[-28,3],[-24,14],[-19,5]],[[515,1389],[-18,-1],[-12,-3],[-69,-38],[-15,-2]],[[801,1342],[-34,5],[-3,3],[-1,5],[1,7],[1,7],[-18,4]],[[747,1373],[-161,-6]],[[1708,1564],[-114,-55],[-41,-7]],[[1432,1500],[-16,1],[-58,26],[-12,1]],[[1346,1528],[-6,-2],[-4,-4],[-3,-5],[-1,-6],[1,-5],[4,-13],[-2,-7],[-4,-4],[-28,-15],[-4,-5],[-5,-8],[-2,-8],[-4,-10],[-6,-11],[-17,-16],[-12,-5]],[[1553,1502],[-25,10],[-42,1]],[[1486,1513],[-34,-10],[-20,-3]],[[1742,659],[6,-4],[17,-5],[71,-8],[12,-5],[9,-12],[5,-19],[3,-37],[4,-20],[5,-15],[7,-10],[69,-66],[6,-4],[6,-1]],[[2145,471],[5,-1],[6,-3],[69,-70],[9,-12],[3,-8],[0,-6],[-4,-6],[-6,-4],[-8,-4],[-10,-3],[-32,-2],[-8,-2],[-3,-3],[-4,-9],[-1,-10],[-2,-17],[-3,-11],[-7,-15],[-48,-57],[-6,-9],[-3,-8],[-3,-18],[1,-10],[2,-5],[3,-1]],[[2062,445],[21,1],[56,23],[6,2]],[[1993,458],[69,-13]],[[1962,453],[25,4],[6,1]],[[2100,177],[5,-3],[4,-5],[7,-15],[5,-10],[9,-7],[10,-2],[23,-2],[17,-4],[7,-4],[7,-7],[7,-11],[1,-8]],[[2095,177],[5,0]],[[2202,99],[0,-10],[-7,-23],[-22,-57],[-3,-9]],[[14,3834],[-6,-50],[-8,-1]],[[0,3583],[1,-1]],[[252,3436],[-16,50],[-79,46],[-157,51]],[[0,3844],[6,-3]],[[60,3945],[-60,-15]],[[119,3944],[-30,22],[-28,-20]],[[148,3959],[-2,-6]],[[157,3532],[78,-46],[17,-50]],[[197,4012],[-27,-30]],[[180,4096],[-2,-19]],[[179,4074],[1,-5]],[[182,4063],[13,-47]],[[269,3403],[2,-1],[3,-2],[2,-1],[6,-1]],[[282,3398],[-13,5]],[[287,3397],[32,4]],[[388,3470],[-63,-65]],[[325,3405],[63,65]],[[348,3014],[2,-18],[0,-3],[2,-5]],[[369,2971],[-21,43]],[[349,3026],[0,-1]],[[349,3025],[26,102],[16,13],[20,10],[2,2],[2,1],[129,133]],[[355,2982],[2,-5],[2,-1],[1,-2],[2,-1],[2,-1],[5,-1]],[[544,3286],[-168,-157],[-1,-2],[-1,-2],[-2,-3],[-15,-54]],[[432,3466],[10,-28]],[[442,3438],[-10,28]],[[461,3396],[18,-14]],[[479,3382],[-18,14]],[[547,3307],[0,-17]],[[547,3290],[1,2],[1,2],[1,2],[0,2],[0,2],[-1,3],[-1,2],[-1,2]],[[540,2612],[5,8]],[[613,2585],[-68,5]],[[625,2585],[37,-13]],[[662,2572],[8,-8]],[[761,2517],[-43,38],[-37,3]],[[690,2557],[12,0]],[[760,2518],[16,-13]],[[790,2485],[-10,16],[-2,2],[-2,2]],[[778,2503],[9,-16],[3,-2],[2,-2]],[[870,2432],[-25,22],[-53,29]],[[796,2481],[87,-66]],[[861,2354],[0,-10]],[[861,2341],[27,-20],[5,-2],[17,-1]],[[899,2319],[-38,25]],[[861,2354],[3,8]],[[883,2404],[-19,-42]],[[870,2369],[12,20],[1,4],[0,22]],[[903,1935],[-2,6]],[[928,2089],[-1,-5],[-1,-2],[0,-2],[1,-3],[2,-10],[-3,-6],[-1,-6],[0,-3],[1,-1],[1,-2],[6,-7],[0,-4],[0,-2],[-2,-2],[-1,-2],[-1,-1],[0,-1],[0,-2],[6,-16],[1,-2],[5,-6],[1,-2],[0,-5],[-39,-49]],[[912,1956],[17,15],[3,11],[7,8],[3,5],[0,2],[-11,101]],[[918,2311],[-2,2]],[[918,2311],[22,-33]],[[926,2119],[-2,-1],[-1,-2],[-1,-4]],[[929,2104],[-7,8]],[[925,2119],[25,18],[17,25]],[[926,2106],[5,-8]],[[944,2274],[-4,4]],[[944,2274],[4,-6]],[[971,2191],[-2,26],[-20,51]],[[949,2266],[5,-20],[0,-1],[2,-3],[1,-2],[0,-6],[0,-1],[0,-2],[1,-1],[1,-1],[7,-7],[3,-5],[-1,-13],[3,-16]],[[3757,3245],[-2,-16]],[[3766,3089],[-3,-16]],[[3828,2656],[-53,93],[17,114],[-45,116],[16,94]],[[4096,3646],[-7,-2],[-11,-7],[-2,-1],[-2,-1],[-3,0],[-45,-3],[-8,-2],[-3,-1],[-37,-21],[-3,-1],[-2,-1],[-3,-1],[-17,-4],[-6,-2],[-5,-3],[-21,-16],[-3,-2],[-3,-1],[-6,-1],[-10,-3],[-22,-4],[-12,-9],[-3,-3],[-4,-5],[-1,-2],[-3,-2],[-2,-1],[-2,-2],[-2,0],[-2,0],[-2,0],[-4,1],[-3,0],[-5,-1],[-4,-5],[-2,-11],[-3,-6],[-1,-1],[-1,-1],[-1,-1],[-4,-2],[-15,-4],[-9,-13],[-1,-4],[-1,-9],[0,-2],[-1,-2],[-11,-26],[0,-3],[5,-19],[0,-1],[0,-1],[-3,-21],[0,-3],[-5,-8],[0,-2],[-1,-8],[0,-2],[-5,-15]],[[3769,3375],[-24,-66],[12,-64]],[[3755,3229],[11,-140]],[[4096,3647],[-7,-3],[-15,-9],[-48,-3],[-7,-1],[-143,-62],[-11,-9],[-15,-14],[-13,1],[-5,-2],[-2,-2],[-2,-4],[-6,-17],[-21,-8],[-9,-13],[-14,-43],[-9,-83]],[[3090,2722],[22,17]],[[0,3583],[1,-1]],[[440,3444],[-38,36],[-79,-77],[-48,-3],[-44,89],[-231,94]],[[0,3781],[6,2],[12,40],[-18,17]],[[1803,4096],[-2,-4],[-35,4]],[[1665,4096],[-27,-12],[9,-23],[-60,16],[-7,-20],[-82,39]],[[432,3465],[24,-64],[93,-105],[-174,-169],[-25,-131],[65,-54],[37,-69],[-30,-56],[70,-3],[-12,-120],[63,-18],[-2,-44]],[[78,2717],[-49,39],[16,21],[93,33],[26,41],[91,16],[116,103]],[[255,3248],[65,-2],[44,50],[35,-4],[34,-26],[17,-76]],[[467,2242],[-9,50]],[[487,2303],[-3,18]],[[485,2332],[13,160]],[[496,2186],[-2,18]],[[568,2576],[25,-34],[-16,-26],[-66,-12]],[[576,2140],[-62,12]],[[561,2579],[9,-4]],[[588,2127],[37,18]],[[637,2160],[0,4]],[[659,2141],[3,-9]],[[715,2096],[1,-9]],[[744,2073],[103,-16],[75,21],[9,24]],[[481,2820],[-32,-2]],[[479,2698]],[[479,2698],[0,-1]],[[479,2697]],[[479,2697],[0,-1]],[[479,2696],[0,-1]],[[479,2695],[1,-1]],[[489,2794],[-3,-39],[-7,-11],[-1,-2],[0,-2],[0,-2],[1,-1],[0,-2],[1,-1],[2,-1],[4,-4],[2,-3],[1,-6],[-7,-12],[-1,-1],[0,-3],[-2,-4],[0,-2]],[[480,2694],[0,-2],[1,-1],[1,-1],[1,-2],[19,-14]],[[483,2688],[-4,11],[9,17],[1,3],[0,3],[-1,3],[-1,2],[0,1],[-2,1],[-4,4],[-1,2],[-2,5],[8,15],[7,53]],[[540,2679],[-38,-5]],[[610,2667],[-7,16],[-29,9],[-52,-11]],[[653,2659],[-60,-14]],[[593,2645],[60,14]],[[653,2659],[18,-6],[-15,-63],[36,-33]],[[616,2664],[-4,1],[-2,1],[-1,1]],[[227,3254],[69,-3],[-32,53],[7,67],[58,27],[-42,-1]],[[3803,0],[-101,95],[-20,167],[25,330],[97,135],[-7,107],[-43,34],[16,95],[-40,162],[10,78],[-65,120],[-105,326],[-44,15],[-12,39],[22,297],[-19,140],[-56,67],[-49,146],[-99,23],[-8,52],[-451,-26],[-301,100],[-285,0],[-87,28],[-148,-29],[-113,33],[-104,-73],[-98,-8],[-161,129],[-297,103],[-89,-79],[-197,-13],[-84,37],[-117,-12],[-157,46],[-72,-43]],[[542,2617],[4,8],[-2,-4],[-2,-4]],[[2462,2505],[8,-1],[-6,0],[-2,1]],[[3470,2201],[-1,1],[7,-4],[-2,1],[-4,2]],[[3715,607],[-4,-3],[-1,-1],[1,1],[5,4],[-1,-1]],[[0,3840],[18,-17],[-12,-40],[-6,-2]],[[1,3582],[231,-93],[44,-89],[47,3],[78,76],[38,-32]],[[793,1594],[5,5],[7,6],[2,2],[1,2],[2,3],[1,2],[4,10],[4,10],[1,3],[0,2],[1,3],[0,2],[0,2],[-1,3],[-1,3],[-3,9],[-1,9],[6,22],[2,7],[1,11],[1,3],[7,21],[9,10],[20,9],[2,1],[2,2],[2,1],[1,1],[3,3],[1,3],[1,2],[1,2],[1,3],[0,3],[0,3],[0,3],[0,3],[-1,4],[-4,9],[-1,6],[5,40],[3,6],[16,11],[2,1],[1,1],[1,2],[0,1],[0,2],[0,2],[-3,16],[17,12],[1,1],[1,2],[1,1],[1,2],[0,1],[0,1],[-1,2],[0,1],[-11,28]],[[903,1935],[12,-33],[-21,-18],[2,-23],[-19,-13],[-4,-6],[-4,-40],[5,-34],[-9,-12],[-24,-12],[-9,-10],[-7,-21],[-10,-43],[1,-9],[4,-14],[0,-10],[-27,-43]],[[793,1594],[-37,-47],[6,-60],[31,-8],[26,-97],[51,-1],[9,-48]],[[879,1333],[-12,-66],[3,-9],[36,-53],[9,-24],[-37,-34],[0,-2],[0,-2],[7,-19],[10,-13]],[[895,1111],[-17,36],[6,6],[3,0],[8,-3],[3,0],[2,0],[1,1],[2,0],[1,1],[3,3],[3,4],[2,3],[1,3],[1,2],[1,3],[0,8],[0,3],[-1,3],[-1,4],[-6,14],[-1,4],[-20,33],[-7,9],[-9,10],[-3,8],[12,67]],[[540,2631],[3,45],[-63,18],[12,120],[-70,3],[30,55],[-37,70],[-65,54],[25,131],[175,169],[-94,105],[-24,64]],[[458,2292],[13,-65],[-58,-53],[4,-36],[-137,-55],[30,-80],[-52,-10],[-45,-51],[-44,18]],[[487,2303],[-3,18]],[[485,2332],[13,160]],[[568,2576],[25,-34],[-16,-26],[-66,-12]],[[561,2579],[9,-4]],[[17,3078],[82,1],[22,38],[94,23],[22,98],[38,11]],[[3659,1962],[2,4]],[[3671,1893],[0,1]],[[3671,1893],[0,1]],[[3671,1894],[-12,68]],[[3659,1962],[1,2],[1,2]],[[3661,1966],[16,69]],[[2808,653],[1,0]],[[2809,653]],[[2809,653]],[[2809,653],[1,0]],[[2810,653]],[[2810,653],[1,0]],[[2811,653],[1,0]],[[2812,653]],[[2812,653]],[[2812,653],[1,0]],[[2813,653]],[[2813,653]],[[2813,653],[1,0]],[[2814,653]],[[2814,653],[0,1]],[[2814,654],[1,0]],[[2815,654]],[[2815,654],[1,0]],[[2816,654],[0,1]],[[2816,655]],[[2816,655]],[[2816,655],[1,1]],[[2817,656],[0,1]],[[2817,657],[1,0]],[[2818,657]],[[2818,657]],[[2818,657],[1,1]],[[2819,658]],[[2819,658],[1,0]],[[2820,658]],[[2820,658],[1,0]],[[3705,533],[36,69]],[[3741,603],[-36,-67]],[[27,3921],[-27,-12]],[[69,3937],[-32,-12]],[[102,3940],[-29,1]],[[115,3931],[-8,2]],[[185,3980],[-49,-43]],[[185,4096],[1,-24]],[[187,4067],[10,-27]],[[204,3998],[-14,-15]],[[197,4039],[7,-39]],[[541,2632],[2,38],[-231,-54],[-151,24],[-76,33],[-49,93]],[[367,2970],[-47,-14],[-36,20],[-17,97]],[[541,2614],[-1,-3],[0,-2],[0,-1],[0,-2],[5,-16]],[[544,2617],[4,10],[2,2],[1,1],[3,2],[2,0],[13,2],[16,7],[5,1],[13,11],[5,8],[0,14],[1,2],[1,2]],[[561,2579],[-17,38]],[[550,2629],[20,5],[20,8],[3,2],[11,9],[3,5],[1,2],[1,5],[-1,11],[2,4],[14,6]],[[641,2687],[-17,-1]],[[626,2686],[96,-11],[25,33]],[[657,2883],[-27,65]],[[635,2965],[12,26]],[[663,3026],[84,33]],[[709,2750],[-54,30],[24,73]],[[717,2731],[-4,17]],[[2275,3749],[-6,84]],[[2272,3830]],[[670,3025],[-71,23],[-201,-44],[4,-40],[-35,8]],[[171,4096],[26,-95],[-54,-51],[-62,15],[-37,-31],[-44,-10]],[[730,2636],[-116,28],[-23,-20],[-38,-12],[-6,-5],[-3,-6]],[[958,2607],[-72,24],[-108,-12]],[[3314,2376],[-9,52],[-451,-25],[-301,99],[-285,1],[-87,27],[-148,-29],[-113,33],[-104,-73],[-98,-8],[-161,129],[-297,103],[-85,-78],[-210,-9]],[[3458,2229],[-42,121],[-98,25]],[[3574,2115],[-51,8],[-63,103]],[[542,2617],[4,8],[-2,-4],[-2,-4]],[[2462,2505],[8,0],[-7,0],[-1,0]],[[429,332],[2,3]],[[431,335],[1,1]],[[432,336],[33,19]],[[2921,2793],[1,-1]],[[0,3844],[6,-3]],[[60,3945],[-60,-15]],[[14,3834],[-6,-50],[-8,-3]],[[0,3586],[158,-55],[77,-45],[17,-50]],[[119,3944],[-30,22],[-28,-20]],[[148,3959],[-2,-6]],[[197,4012],[-27,-30]],[[176,4096],[2,-19]],[[179,4074],[1,-5]],[[182,4063],[13,-47]],[[269,3403],[13,-5]],[[287,3397],[32,4]],[[325,3405],[63,65]],[[348,3014],[4,-26]],[[349,3026],[0,-1]],[[355,2982],[14,-11]],[[544,3286],[-168,-157],[-19,-61]],[[396,2957],[23,-23]],[[421,2927],[2,-23]],[[431,2900],[8,-14]],[[432,3466],[10,-28]],[[452,2870],[-33,-48],[39,-3]],[[461,3396],[18,-14]],[[479,2698]],[[479,2698],[0,-1]],[[479,2697]],[[479,2697],[0,-1]],[[479,2696],[0,-1]],[[479,2695],[1,-1]],[[493,2808],[-14,-110]],[[550,2630],[58,31]],[[608,2661],[-33,30],[-71,-17],[-24,20]],[[548,2628],[0,-1]],[[548,2627],[-1,0]],[[547,2627],[0,-1]],[[547,2626],[-1,-1]],[[546,2625],[-1,-3]],[[545,2622],[-1,-2]],[[547,3307],[0,-17]],[[549,2629],[-1,-1]],[[549,2629]],[[549,2629]],[[550,2630]],[[550,2630],[-1,-1]],[[730,2636],[-122,25]],[[965,2598],[-78,32],[-109,-12]],[[3314,2375],[-9,53],[-451,-26],[-301,100],[-285,0],[-87,28],[-148,-29],[-113,33],[-104,-73],[-98,-8],[-161,129],[-297,103],[-85,-78],[-207,-12]],[[3458,2228],[-42,122],[-98,25]],[[3460,2226],[55,-80],[21,-144],[-22,-299],[12,-39],[44,-15],[105,-326],[65,-120],[-10,-78],[40,-162],[-16,-95],[50,-63],[-6,-106],[-52,-70]],[[3746,628],[-40,-37],[-23,-338],[20,-161],[100,-92]],[[543,2617],[-1,0],[4,8],[-3,-8]],[[547,2683],[-1,-1],[1,1],[7,0],[-7,0]],[[2462,2505],[8,-1],[-6,0],[-2,1]],[[3470,2201],[-1,1],[7,-4],[-2,1],[-4,2]],[[3715,607],[-4,-3],[-1,-1],[1,1],[5,4],[-1,-1]],[[6,3641],[-6,8]],[[22,3831],[-22,15]],[[0,3783],[23,45]],[[42,3612],[-31,21]],[[101,3633],[-43,-12]],[[585,3298],[-119,194],[-58,44],[-54,7],[-31,41],[-88,36],[-118,17]],[[655,3203],[-21,19]],[[1143,2873],[-219,28],[-180,148],[20,39],[-63,74]],[[75,2722],[-75,9]],[[6,3641],[-6,8]],[[22,3831],[-22,15]],[[0,3783],[23,45]],[[42,3612],[-31,21]],[[101,3633],[-43,-12]],[[585,3298],[-119,194],[-58,44],[-54,7],[-31,41],[-88,36],[-118,17]],[[655,3203],[-21,19]],[[1524,2793],[-104,80],[-94,-23],[-399,49],[-183,150],[20,39],[-63,74]],[[1636,2714],[-97,64]],[[1678,2491],[-32,181]],[[0,3931],[87,35],[44,-21],[64,52],[-20,99]],[[368,4096],[68,-49]],[[479,4039],[-19,22],[-23,-13]],[[564,4010],[-84,25]],[[664,3974],[-38,-2],[-44,35]],[[692,3941],[-21,33]],[[962,4096],[-1,-1],[17,-66],[-25,-108],[-70,4],[-42,50],[-103,-55],[-39,14]],[[267,2523],[-51,52],[41,55]],[[281,2624],[13,-3]],[[296,2613],[58,-44],[94,-3]],[[448,2561],[17,-4]],[[473,2559],[26,-11],[-15,-16]],[[478,2528],[15,-5],[10,33]],[[493,2535]],[[502,2561],[5,22]],[[507,2583],[31,-4],[6,11]],[[544,2590],[-2,28]],[[343,2578],[0,1],[0,-1]],[[0,3781],[7,3],[7,50]],[[252,3436],[-16,50],[-79,46],[-157,51]],[[6,3841],[-6,3]],[[0,3930],[60,15]],[[61,3946],[28,20],[30,-22]],[[146,3953],[2,6]],[[170,3982],[27,30]],[[178,4077],[-2,19]],[[195,4016],[-13,47]],[[282,3398],[-13,5]],[[388,3470],[-63,-65]],[[423,2904],[-75,110]],[[349,3025],[26,102],[169,159]],[[481,2820],[-60,-2],[32,47],[-22,35]],[[442,3438],[-10,28]],[[479,3382],[-18,14]],[[550,2630],[58,32]],[[608,2662],[-33,29],[-70,-17],[-23,16],[11,118]],[[549,2629],[-1,-1]],[[548,2628]],[[548,2628],[-1,-1]],[[547,2627]],[[547,2627]],[[547,2627],[0,-1]],[[547,2626],[-1,-1]],[[546,2625],[-1,-2]],[[545,2623],[-1,-2]],[[547,3290],[0,17]],[[549,2629]],[[549,2629]],[[550,2630]],[[550,2630],[-1,-1]],[[730,2636],[-122,26]],[[958,2607],[-72,24],[-108,-12]],[[3314,2376],[-9,52],[-451,-25],[-301,99],[-285,1],[-87,27],[-148,-29],[-113,33],[-104,-73],[-98,-8],[-161,129],[-297,103],[-85,-78],[-210,-9]],[[3458,2229],[-42,121],[-98,25]],[[3521,1679],[15,323],[-21,144],[-55,80]],[[3746,629],[52,70],[6,106],[-50,63],[16,94],[-39,163],[9,78],[-65,120],[-105,326],[-49,29]],[[3803,0],[-101,95],[-19,161],[23,335],[40,37]],[[543,2617],[-1,0],[4,8],[-3,-8]],[[546,2683],[8,1],[0,-1],[-8,0]],[[2462,2505],[8,0],[-7,0],[-1,0]],[[3470,2202],[-1,0],[7,-3],[-2,0],[-4,3]],[[3716,607],[-1,-1],[-1,-1],[-2,-1],[-1,-1],[1,1],[4,3]],[[561,2579],[-20,33],[71,70],[109,-7],[32,22],[-98,83],[24,75],[-49,88],[20,81],[67,11],[61,87],[63,-8],[78,50],[130,-24],[69,101],[39,-9],[26,114],[30,11],[-10,94]],[[1204,3453],[122,101],[3,46],[97,71],[32,59],[120,27],[56,44],[9,50]],[[1707,3887],[-28,11],[-33,-28]],[[1838,4004],[-15,-37],[20,-63],[-27,-32],[-106,11]],[[1820,4096],[5,-72]],[[1825,4022],[3,-5]],[[1425,0],[8,44]],[[0,3924],[44,10],[37,30],[62,-14],[54,51],[-25,95]],[[3721,251],[-37,-8]],[[3803,0],[-101,95],[-20,166],[25,331],[97,135],[-7,107],[-43,34],[16,94],[-39,163],[9,78],[-65,120],[-105,326],[-44,16],[-12,38],[22,297],[-19,140],[-56,67],[-49,146],[-99,23],[-8,52],[-451,-25],[-301,99],[-285,1],[-87,27],[-148,-29],[-113,33],[-104,-73],[-98,-8],[-161,129],[-297,103],[-88,-79],[-198,-12],[-84,36],[-117,-12],[-157,46],[-65,-34],[-4,-3],[-1,-1],[-2,-5]],[[542,2617],[4,8],[-2,-4],[-2,-4]],[[2462,2505],[8,0],[-7,0],[-1,0]],[[3470,2202],[-1,0],[7,-3],[-2,0],[-4,3]],[[3716,607],[-1,-1],[-1,-1],[-3,-2],[5,4]],[[3068,3374],[31,18]],[[3102,3435],[-25,73]],[[3078,3516],[7,13]],[[3101,3396],[1,3]],[[3102,3405],[0,27]],[[540,2631],[3,39],[-231,-54],[-151,24],[-76,33],[-12,50],[-73,9]],[[902,1939],[12,-22],[104,-25],[35,-60],[41,-10],[1,-28],[53,-7],[2,-30],[94,1],[51,-37],[85,51]],[[0,2327],[4,4],[30,9],[4,-2],[13,-13],[6,-3],[8,-1],[17,3],[14,-13],[5,-28],[4,-5],[14,-5],[54,7],[5,-7],[-5,-12],[1,-5],[17,-9],[89,-2],[14,6],[20,14],[27,8],[33,16],[3,2],[2,3],[11,19],[-8,42],[7,6],[8,11],[9,4],[6,0],[2,1],[3,1],[3,2],[10,10],[27,32],[8,15],[7,8],[1,2],[1,1],[31,90],[-1,43],[34,-2],[2,1],[4,3],[0,1],[0,6]],[[545,2623],[-2,-40],[-24,3],[-3,0],[-10,-3],[-2,-1],[0,-1],[-1,-1],[0,-1],[0,-1],[2,-41],[-1,-2],[-3,-4],[-2,-3],[-4,-16],[-8,-14],[-7,-13],[-2,-3],[0,-3],[-2,-9],[-1,-3],[0,-14],[-2,-6],[-1,-2],[-5,-6],[-2,-3],[-8,-14],[-35,-40],[-7,-5],[-3,-1],[-4,0],[-2,0],[-2,0],[-6,-3],[-2,-1],[-1,-2],[-2,-2],[-4,-7],[-6,-4],[0,-1],[-1,-1],[-1,-2],[-1,-10],[0,-2],[0,-2],[1,-3],[1,-2],[6,-11],[2,-10],[-16,-24],[-20,-7],[-1,-1],[-10,-7],[-2,-1],[-22,-6],[-3,-1],[-2,-1],[-4,-2],[-6,-4],[-9,-7],[-15,-7],[-57,7],[-11,-1],[-13,-2],[-8,-2],[-17,9],[-1,5],[5,8],[0,2],[0,2],[0,1],[0,1],[-1,2],[-2,2],[-1,0],[-1,1],[-2,0],[-1,0],[-25,-3],[-13,-1],[-13,-3],[-14,5],[-4,5],[-1,12],[-3,13],[-1,3],[-1,1],[-1,2],[-7,5],[-3,3],[-2,2],[-1,0],[-1,0],[-2,0],[-13,-2],[-8,0],[-6,3],[-1,2],[-2,3],[-1,1],[-9,7],[-2,2],[-2,0],[-1,0],[-2,0],[-6,-2],[-21,-7],[-3,-1],[-1,-1]],[[368,4096],[68,-49]],[[479,4039],[-19,22],[-23,-13]],[[564,4010],[-84,25]],[[664,3974],[-38,-2],[-44,35]],[[692,3941],[-21,33]],[[962,4096],[-1,-1],[17,-66],[-25,-108],[-70,4],[-42,50],[-103,-55],[-39,14]],[[0,3584],[23,-5],[6,30],[70,46]],[[99,3655],[2,0]],[[104,3654],[-5,1]],[[0,3912],[69,25]],[[73,3940],[30,-2]],[[107,3933],[8,-2]],[[117,3931],[74,53]],[[185,4096],[1,-24]],[[197,4040],[-10,28]],[[191,3984],[1,1]],[[192,3985]],[[192,3985],[1,1]],[[193,3986],[1,0]],[[194,3986],[1,1]],[[195,3987]],[[195,3987],[1,1]],[[196,3988],[8,10]],[[204,4000],[-6,39]],[[2762,3741],[-39,129],[36,8],[64,138],[-8,80]],[[3334,3998],[-47,88],[-23,10]],[[3334,3998],[4,-16]],[[3531,3827],[-1,2],[-2,2],[-19,8],[-31,13],[-4,1],[-8,1],[-4,1],[-40,22],[-11,11],[-1,4],[1,9],[0,1],[0,1],[-1,3],[-5,6],[-1,2],[0,4],[0,2],[0,1],[-1,1],[-1,2],[-4,6],[-1,1],[-1,2],[-9,7],[-5,8],[-1,1],[-1,1],[-2,1],[-2,0],[-17,2],[-14,10],[-7,18]],[[3338,3981],[-4,17]],[[3531,3827],[-69,28],[-40,22],[-11,11],[-14,43],[-10,9],[-7,10],[-21,3],[-14,10],[-4,7],[-3,12]],[[3338,3982],[0,-1]],[[3776,3458],[-4,6],[-1,1],[-7,4],[-2,1],[-14,16],[-5,3],[-18,4],[-4,2],[-3,1],[-2,2],[-51,36],[-27,13],[-2,1],[-2,1],[-1,1],[-2,2],[-9,14],[-4,3],[-16,8],[-2,1],[-2,1],[-2,2],[-1,2],[-7,16],[-41,30],[-3,3],[-2,3],[-14,18],[-9,7],[-1,1],[-1,1],[-1,2],[0,1],[-1,2],[0,1],[1,16],[-4,19],[0,2],[0,1],[0,2],[1,1],[2,5],[3,12],[0,2],[0,1],[1,1],[1,1],[1,1],[9,3],[4,2],[2,0],[1,0],[15,-1],[5,2],[27,47],[-53,42]],[[3781,3440],[-2,8]],[[3779,3448],[-3,9]],[[3776,3457],[0,1]],[[3776,3458],[-4,6],[-24,23],[-5,2],[-25,7],[-52,37],[-32,16],[-11,17],[-5,4],[-20,9],[-3,4],[-4,10],[-4,6],[-40,30],[-19,24],[-10,8],[-3,6],[1,16],[-4,25],[26,29]],[[544,2621],[-2,-5]],[[549,2629]],[[730,2636],[-115,28],[-61,-32]],[[965,2598],[-78,32],[-109,-12]],[[3314,2375],[-9,53],[-451,-26],[-301,100],[-285,0],[-87,28],[-148,-29],[-113,33],[-104,-73],[-98,-8],[-161,129],[-297,103],[-85,-78],[-207,-12]],[[3458,2228],[-42,122],[-98,25]],[[3460,2226],[62,-101],[35,-16],[10,2],[5,2],[2,2],[1,1],[58,80],[19,-4],[33,-21],[52,-26],[68,-48],[4,-2],[4,-1],[3,-2],[4,0],[2,0],[2,0],[3,0],[3,1],[5,1],[2,1],[2,1],[2,1],[2,2],[1,1],[7,12],[18,11],[15,5],[14,-3],[2,0],[2,0],[1,0],[2,1],[2,1],[2,1],[26,16],[5,2],[9,0],[9,1],[4,0],[4,-2],[12,-11],[2,-1],[2,-1],[2,-1],[2,0],[8,-1],[3,-1],[4,-2],[3,-1],[2,-1],[3,0],[3,0],[17,4],[3,1],[64,23]],[[4096,2153],[-87,-28],[-47,22],[-4,0],[-19,-1],[-70,-23],[-18,-11],[-12,-16],[-19,-4],[-14,5],[-69,48],[-84,47],[-4,2],[-8,2],[-5,0],[-4,0],[-58,-81]],[[2462,2505],[8,-1],[-6,0],[-2,1]],[[0,3080],[33,-6],[-33,-41]],[[0,3025],[34,-21],[-17,-60]],[[544,2617],[63,61],[-125,12],[10,123],[-70,4],[30,55],[-104,143],[27,112],[173,179],[-92,94],[-33,77],[-29,-1],[-72,-74],[-45,-3],[-46,90],[-79,45],[-152,50]],[[0,3781],[6,2],[12,40],[-18,17]],[[0,3583],[1,-1]],[[541,2614],[-1,-2]],[[544,2617],[49,27],[16,25]],[[613,2585],[-68,5]],[[558,2633],[26,7]],[[609,2668],[15,18]],[[625,2585],[37,-13]],[[626,2686],[7,1]],[[662,2572],[8,-8]],[[761,2517],[-43,38],[-37,3]],[[690,2557],[12,0]],[[760,2518],[16,-13]],[[790,2485],[-10,16],[-2,2],[-2,2]],[[778,2503],[9,-16],[2,-1],[1,-1],[2,-2]],[[870,2432],[-25,22],[-53,29]],[[796,2481],[87,-66]],[[861,2354],[0,-10]],[[861,2341],[38,-22]],[[899,2319],[-38,25]],[[861,2354],[3,8]],[[883,2404],[-19,-42]],[[870,2369],[4,5],[2,3],[2,3],[3,6],[1,3],[0,2],[1,2],[0,22]],[[2487,3859]],[[2487,3859],[-27,37]],[[2460,3896]],[[2460,3896]],[[2487,3859]],[[1406,2635],[-21,5],[7,-24],[-37,-27],[49,-58],[-27,-20],[10,-49],[-39,-16]],[[2472,2505],[-28,45],[14,81],[79,246],[29,184],[62,67],[18,57],[57,26],[-7,84],[-225,110],[-119,151],[-185,72],[-80,1],[-9,-29],[-43,-5],[-76,117],[-105,47],[-48,99],[-34,16],[-94,24],[-50,-59],[6,-38],[-56,-44],[-71,25],[10,35],[-38,38],[32,19],[-5,79],[18,34],[55,-1],[-98,51],[-28,-15],[-36,52],[18,14],[0,8]],[[0,741],[28,-2],[194,-87],[19,-160],[87,-48],[211,-224],[38,-1],[28,-34]],[[605,185],[-1,-2]],[[604,183],[0,-4],[0,-3],[0,-3],[2,-6],[9,-33],[6,-19],[1,-3],[-18,71]],[[952,601],[-107,-69],[-92,-131],[-100,-51],[-30,-69],[-50,7],[38,-69],[-6,-34]],[[367,2970],[-97,-13],[-49,19],[-83,-50],[-117,10],[1,19]],[[3732,4096],[35,-41],[122,-17],[55,-57],[1,-104],[151,-230]],[[0,2052],[7,-2],[133,164]],[[140,2214],[-8,1]],[[140,2214],[61,35]],[[0,3839],[18,-17],[-12,-39],[-6,-2]],[[1,3582],[231,-93],[48,-91],[42,4],[72,74],[29,1],[33,-77],[91,-93],[-172,-180],[-27,-112],[104,-143],[-31,-54],[71,-5],[-10,-123],[125,-12],[-63,-61]],[[0,3396],[12,39],[-12,11]],[[0,3580],[3,2]],[[4,3581],[80,74],[113,0],[2,18],[100,20],[8,26],[105,46],[13,47],[58,-2],[14,43],[159,22],[40,60],[-11,27]],[[661,2623],[175,2]],[[837,2625],[-146,13],[-3,0],[-4,-1],[-18,-8],[-2,-1],[0,-1],[-2,-2]],[[0,3583],[1,-1]],[[544,2617],[63,61],[-125,12],[10,123],[-70,4],[30,55],[-104,143],[27,112],[173,164],[-22,53],[-69,56],[-38,79],[-96,-77],[-46,-3],[-45,90],[-232,99]],[[0,3781],[6,2],[12,40],[-18,17]],[[0,3930],[86,35],[45,-20],[64,52],[-23,99]],[[692,3941],[-31,155]],[[699,3934],[59,-27]],[[1204,3453],[55,55],[-30,44],[-70,11],[-52,-39],[-170,91],[-42,-5],[-23,102],[-118,143],[11,28]],[[1217,3295],[-32,15],[30,59],[-12,82]],[[1269,3244],[-26,26]],[[1291,3140],[-8,90]],[[1364,2963],[-1,0]],[[1363,2963],[-70,75],[1,96]],[[1539,2778],[-124,100],[-51,85]],[[1553,2763],[83,-49]],[[1637,2713],[5,-14]],[[1642,2699],[0,-1]],[[1642,2698],[0,-1]],[[1642,2697],[0,-2]],[[1642,2695],[1,-3]],[[1643,2692],[0,-2]],[[1643,2690],[0,-3]],[[1643,2687],[1,-2]],[[1644,2685],[0,-3]],[[1644,2682],[1,-2]],[[1645,2680],[0,-3]],[[1645,2677],[1,-4]],[[1646,2673],[0,-1]],[[1646,2672],[0,-1]],[[1646,2671],[0,-1]],[[1646,2670]],[[1646,2670],[0,-2]],[[1646,2668],[1,-1]],[[1649,2651],[29,-160]],[[3090,2722],[46,-22]],[[3195,2681],[8,-3]],[[3203,2678],[4,-3]],[[817,1680],[-69,-22],[-72,28],[-139,-30]],[[20,2336],[18,14],[-35,59],[-3,1]],[[172,4096],[23,-99],[-64,-52],[-45,20],[-86,-35]],[[0,3840],[18,-17],[-12,-40],[-6,-2]],[[1,3582],[231,-93],[48,-91],[42,4],[72,74],[29,1],[33,-77],[91,-93],[-172,-180],[-27,-112],[104,-143],[-31,-54],[71,-5],[-10,-123],[125,-12],[-63,-61]],[[20,2336],[9,30]],[[75,2388],[-31,-12]],[[87,2392],[-6,-4]],[[108,2403],[-16,-4]],[[145,2415],[-31,-10]],[[228,2484],[-79,-62]],[[252,2515],[22,5]],[[289,2500],[60,6]],[[367,2502],[23,0]],[[395,2501],[20,5]],[[418,2509],[67,12]],[[491,2518],[-6,3]],[[504,2549],[-11,-30]],[[346,2277],[-5,-4],[-22,-6],[-3,-1],[-2,-1],[-4,-2],[-6,-4],[-9,-7],[-15,-7],[-57,7],[-11,-1],[-13,-2],[-8,-2],[-17,9],[-1,5],[5,8],[0,2],[0,1],[0,2],[-1,2],[-1,2],[-2,1],[-1,1],[-1,0],[-1,0],[-2,0],[-37,-4],[-13,-3],[-6,1],[-11,7],[-2,14],[-3,13],[-1,3],[-1,1],[-1,2],[-11,9],[-2,1],[-1,0],[-1,0],[-22,-2],[-11,10],[-9,7],[-1,1],[-2,0],[-1,0],[-1,0],[-6,-2],[-3,-1],[-5,-2]],[[18,2335],[16,5],[23,-18],[26,1],[19,-43],[11,-6],[6,-1],[55,6],[4,-6],[-5,-12],[1,-5],[17,-9],[89,-2],[14,6],[19,13],[28,9],[14,9]],[[382,2298],[-27,-16]],[[363,2285],[14,6],[2,3],[9,13],[2,5],[-9,39]],[[381,2353],[0,-2]],[[381,2353],[27,23]],[[503,2580],[0,-2],[2,-37],[0,-3],[-6,-10],[-4,-16],[-17,-30],[-3,-15],[-1,-18],[-54,-69]],[[433,2394],[24,28],[2,3],[6,11],[7,9],[2,3],[0,1],[1,3],[0,2],[0,13],[3,14],[17,31],[3,8],[0,1],[1,5],[1,2],[4,7],[1,1],[0,2],[0,3],[-1,18],[-1,14],[0,5],[1,3],[34,-2],[6,11]],[[540,2612],[4,-22]],[[540,2612],[1,3]],[[544,2621],[-2,-5]],[[0,741],[29,-2],[194,-87],[17,-159],[88,-49],[211,-224],[62,-22],[4,-7],[-1,-13],[0,-2],[1,-4],[1,-7],[9,-29],[6,-21],[1,-3],[-10,107],[-39,68],[50,-6],[30,69],[100,51],[92,131],[107,69]],[[552,2655],[95,-129],[43,-50],[8,-8]],[[698,2468],[84,-81],[225,-167]],[[0,2263],[99,77],[45,43],[8,8]],[[312,2529],[85,49]],[[152,2391],[34,39],[90,78],[36,21]],[[841,2728],[23,0]],[[2507,2933],[4,6],[18,41]],[[864,2728],[784,-23],[631,51],[55,16],[54,27],[50,39],[27,29],[24,34],[18,32]],[[2529,2980],[0,1]],[[4096,638],[-55,-33]],[[4019,594],[-30,-14],[-27,-6],[-27,4],[-30,11],[-15,4],[-8,1]],[[3882,594],[-7,1],[-14,-2],[-27,-7],[-29,-12],[-14,-8],[-4,-3],[-4,-5],[-35,-54]],[[4041,605],[-22,-11]],[[949,2264],[141,-125],[191,-233],[18,-15],[25,-15],[80,-25],[29,-14],[25,-21],[23,-28],[19,-35],[48,-129],[20,-38],[47,-41],[108,-24],[50,-28],[11,-12],[10,-15],[10,-17],[6,-15],[2,-3],[25,-29],[10,-8],[11,-8],[11,-5],[102,-31],[251,-148]],[[3554,566],[4,-3]],[[3621,536],[104,-29]],[[2250,1187],[14,-10]],[[2213,1212],[37,-25]],[[2264,1177],[18,-12],[72,-30],[297,-49],[37,-11],[73,-33],[213,-139],[296,-127],[96,-59],[139,-118],[49,-33]],[[3558,563],[7,-5],[42,-19],[14,-3]],[[3710,538],[12,-12],[12,-13],[10,-15],[10,-16],[6,-16],[3,-9]],[[3763,457],[3,-8],[52,-216],[24,-82],[15,-39],[18,-36],[23,-38],[26,-34],[4,-4]],[[2931,3328],[30,4],[28,13],[104,77],[27,12],[28,3],[15,-4],[13,-9],[12,-11],[24,-28],[12,-12],[13,-10],[15,-7],[64,-18],[33,-3],[33,1],[68,14],[360,136],[53,30],[47,45],[40,59],[33,72],[14,40],[22,84],[20,118],[2,25],[0,137]],[[2522,2984],[61,157],[109,107],[128,62],[116,20]],[[397,2578],[389,121],[28,13],[27,16]],[[352,3174],[44,-57],[35,-56]],[[550,2865],[28,-46],[16,-33],[11,-37],[1,-38],[-9,-33],[-16,-28],[-20,-22]],[[0,3553],[185,-134],[14,-14],[25,-32],[117,-184],[11,-15]],[[431,3061],[119,-196]],[[4096,1922],[-19,5],[-23,3],[-39,-4],[-65,-15],[-37,-4],[-128,7],[-140,-11],[-29,5],[-28,10],[-26,15],[-26,21]],[[3496,2005],[-2,1]],[[2610,2841],[-10,18],[-21,53]],[[3494,2006],[-52,38],[-189,89],[-121,80],[-56,50],[-26,30],[-25,32],[-44,67],[-297,333],[-30,41],[-29,44],[-15,31]],[[3553,1940],[-52,61],[-5,4]],[[911,2275],[-3,-31],[6,-293],[-1,-33],[-4,-31],[-9,-29],[-18,-30],[-21,-26],[-19,-29],[-12,-35],[-2,-44],[10,-41],[14,-40]],[[852,1613],[14,-37],[7,-45],[-3,-43],[-18,-86]],[[904,1163],[45,-98]],[[852,1402],[-3,-86],[19,-78],[36,-75]],[[949,1065],[2,-2]],[[951,1063],[14,-37],[10,-40],[7,-43],[1,-49],[-4,-49],[-8,-47],[-12,-45],[-16,-44],[-20,-40],[-22,-37],[-24,-33],[-53,-53],[-25,-31],[-25,-33],[-131,-226],[-48,-69]],[[590,180],[-8,-13],[-14,-32],[-5,-24]],[[563,111],[-3,-13],[-4,-39],[-1,-40],[1,-19]],[[621,214],[-21,-21],[-10,-13]],[[830,2736],[52,41]],[[936,2828],[21,20],[31,35]],[[1218,3359],[5,9],[58,75],[11,18],[19,42],[2,7]],[[882,2777],[13,11],[41,40]],[[988,2883],[28,32],[80,113],[47,83],[30,65],[18,44],[7,23],[3,22],[2,45],[4,22],[7,19],[4,8]],[[1313,3510],[28,86],[18,43],[12,18],[14,16],[15,12],[45,25],[14,10],[13,13],[11,17],[10,18],[8,21],[6,23],[3,22],[2,22],[4,133],[6,42],[13,41]],[[1586,4075],[29,2],[49,9]],[[1544,4072],[42,3]],[[1664,4086],[21,5],[17,5]],[[1540,4096],[5,-19]],[[1642,3703],[51,-55],[5,-3]],[[2531,2983],[16,-18],[32,-53]],[[1554,3796],[25,-26]],[[1517,3842],[28,-36],[9,-10]],[[1579,3770],[63,-67]],[[1698,3645],[12,-9],[66,-29],[14,-9],[26,-23],[5,-5],[4,-6],[3,-6],[9,-34],[24,-71],[4,-16],[1,-8],[1,-5],[1,-3],[3,0],[10,4],[13,1],[52,-5],[27,-6],[13,-5],[15,-8],[214,-162],[122,-118],[172,-116],[22,-23]],[[4067,599],[29,-6]],[[4041,605],[26,-6]],[[0,4096]],[[244,2619],[135,-59]],[[0,2687],[69,2],[19,-2],[11,-3],[145,-65]],[[414,2593],[-2,-123]],[[448,2447],[84,-54],[3,-1]],[[412,2470],[36,-23]],[[535,2392],[156,-28],[113,21]],[[3712,525],[-11,-26]],[[3701,499],[-77,-193],[-29,-62],[-3,-8],[-7,-30],[-1,-11],[0,-12],[3,-24],[5,-24]],[[3592,135],[46,-111],[8,-24]],[[3955,3403],[42,-6]],[[4044,3412],[28,15],[23,-4]],[[3808,3405],[16,2],[50,-20],[36,-4],[41,20],[4,0]],[[3997,3397],[15,-2],[32,17]],[[4095,3423],[1,0]],[[3133,0],[-3133,0],[0,4096],[4096,0],[0,-4096],[-963,0]],[[1913,4096],[656,0],[50,-140],[68,-37],[-3,-86],[-41,-47],[-68,23],[-3,-26],[-133,-44],[-30,71],[-147,32],[-1,50],[-31,43],[18,-52],[-14,-48],[-194,23],[-24,49],[7,79],[-32,34],[-63,0],[-15,76]],[[3871,2768],[9,64],[51,63],[-23,6],[1,49],[-38,47],[30,-2],[32,41],[-17,79],[20,6],[74,-102],[65,45],[21,-185],[-40,23],[-52,-38],[-42,-103],[-61,-36],[4,33],[-34,10]],[[3249,3274],[22,24],[76,-8],[2,-67],[31,-47],[23,-22],[54,4],[78,-128],[98,-99],[1,-113],[51,-89],[-41,-15],[-53,43],[27,46],[-54,54],[-53,-3],[-10,-48],[-61,-26],[-20,24],[-27,-15],[-3,65],[23,18],[-36,106],[-42,24],[-44,-39],[-15,11],[0,161],[26,35],[-53,104]],[[4096,3218],[-42,28],[-48,-24],[-36,27],[-15,52],[32,26],[-44,43],[18,48],[38,-5],[-5,-48],[28,-11],[28,42],[-11,32],[57,-1],[-22,-73],[22,-14],[0,-122]],[[484,3831],[25,26],[42,-34],[80,4],[18,-31],[-29,-55],[75,-88],[134,-3],[-20,-44],[28,-25],[60,20],[21,-83],[-30,-9],[-18,-63],[-45,-23],[-39,-104],[-35,-25],[-53,-1],[-25,32],[20,40],[-58,54],[-71,-35],[-32,35],[-8,40],[33,52],[-26,13],[26,26],[-10,45],[48,42],[-90,90],[-21,104]],[[689,3840],[32,12],[2,26],[71,5],[-47,39],[70,43],[20,-63],[68,-31],[47,7],[-11,-47],[84,-4],[42,-58],[3,-125],[-52,-17],[-104,48],[-22,-20],[-15,23],[21,47],[-65,22],[-4,31],[24,9],[-60,-6],[-104,59]],[[3461,3973],[36,49],[45,-29],[29,33],[26,-25],[40,21],[-48,-48],[17,-4],[-10,-25],[45,55],[49,-61],[-21,-36],[18,17],[26,-33],[-42,-55],[0,-59],[-28,45],[-42,12],[0,40],[-77,28],[0,37],[-63,38]],[[3860,415],[36,102],[-16,88],[147,-12],[1,-30],[68,-36],[-111,-60],[-94,-93],[-25,-3],[-6,44]],[[3759,869],[51,27],[27,50],[-30,42],[54,49],[7,49],[-28,40],[42,7],[72,-36],[17,-53],[-28,-16],[21,-10],[-31,-3],[-33,-49],[12,-29],[-37,-77],[48,-53],[13,-86],[-35,-25],[-21,13],[-12,-35],[-26,-2],[1,23],[-29,-31],[-18,10],[93,78],[-54,44],[2,30],[-78,43]],[[647,201],[36,-38],[-1,-51],[-34,-39],[-66,2],[0,26],[-48,25],[0,32],[113,43]],[[4096,505],[-10,63],[-42,-16],[32,66],[20,-8],[0,-105]],[[3433,574],[-36,-147],[-32,25],[-49,-25],[-32,25],[37,86],[76,-11],[-36,57],[4,44],[65,-26],[3,-28]],[[3656,903],[-81,51],[58,41],[7,34],[16,-126]],[[3638,850],[99,3],[16,-125],[81,0],[16,-25],[132,9],[14,-59],[-41,-25],[-40,25],[-17,-31],[1,-95],[-16,25],[-40,-1],[-61,-90],[-45,-9],[-47,62],[-66,13],[-16,50],[-53,-15],[-14,36],[37,116],[-11,40],[41,124],[30,-28]],[[2668,623],[-64,30],[11,46],[36,9],[67,-30],[-50,-55]],[[144,829],[-47,24],[36,127],[45,-102],[-34,-49]],[[3834,1337],[-40,-76],[-41,-6],[3,27],[-35,23],[16,100],[28,-29],[-12,-46],[30,3],[24,65],[27,7],[0,-68]],[[2249,1506],[-65,25],[32,100],[30,-34],[3,-91]],[[3663,1379],[-31,75],[8,52],[41,-51],[-18,-76]],[[4096,2132],[-19,1],[-16,125],[35,-42],[0,-84]],[[3511,1882],[-32,52],[15,74],[32,-52],[-15,-74]],[[3810,1107],[5,-116],[-13,-37],[-38,4],[-37,57],[25,98],[50,16],[8,-22]],[[3464,1004],[-29,22],[-5,53],[81,-25],[-16,-41],[-31,-9]],[[932,1005],[-91,99],[28,60],[40,-2],[34,-49],[11,-84],[-22,-24]],[[2263,1085],[-14,-31],[-81,0],[-2,28],[99,123],[-2,-120]],[[2539,2284],[-48,25],[34,49],[47,-24],[-33,-50]],[[2538,2622],[2,-62],[48,25],[19,-28],[-35,-98],[-42,-14],[-87,14],[0,25],[-81,0],[0,126],[65,-25],[32,75],[61,-8],[18,-30]],[[1988,2639],[50,-4],[2,-41],[-50,-35],[64,-25],[-18,-64],[-40,3],[-39,46],[-16,66],[18,-5],[29,59]],[[1766,2486],[13,-52],[-64,25],[0,-25],[-130,125],[65,126],[116,-199]],[[0,2363],[0,88],[31,-49],[17,-68],[-40,7],[-8,22]],[[890,2409],[-80,8],[-1,42],[56,19],[25,-69]],[[1456,2810],[-46,8],[-18,33],[31,110],[38,-51],[-5,-100]],[[0,2760],[0,96],[32,5],[-29,91],[13,34],[20,-19],[28,-81],[65,25],[32,-76],[-16,-66],[-69,-67],[-44,8],[-32,50]],[[434,3096],[-14,-160],[65,-25],[39,-89],[26,13],[0,51],[71,-7],[42,32],[65,-50],[16,-51],[101,-18],[28,18],[-64,151],[57,6],[7,44],[30,-75],[51,-50],[33,0],[32,-51],[-16,-50],[-56,50],[-58,-37],[-32,-88],[65,-25],[-56,-99],[-17,26],[-27,-23],[-30,-105],[-145,-25],[-16,-50],[-49,25],[-113,-100],[-81,25],[3,52],[78,48],[-19,28],[-62,-28],[-65,50],[-45,77],[-36,-1],[3,40],[62,35],[-12,40],[-45,-11],[-8,46],[33,25],[32,-25],[33,19],[64,107],[-4,43],[-77,82],[-32,100],[35,-5],[30,106],[81,-50],[-3,-41]],[[2606,3028],[-1,-42],[62,-34],[18,-66],[-28,4],[-53,-55],[-97,26],[0,75],[43,86],[24,23],[32,-17]],[[673,2990],[-42,21],[-35,78],[2,48],[49,25],[27,-7],[53,-110],[-54,-55]],[[3478,2309],[25,-94],[-41,-32],[0,100],[-65,76],[19,33],[62,-83]],[[3753,4096],[50,0],[1,-42],[-34,-14],[-51,-100],[-31,24],[65,76],[0,56]],[[1580,4096],[76,0],[10,-6],[-39,-53],[-49,44],[2,15]],[[0,3940],[0,27],[16,-2],[-16,-25]],[[692,4021],[68,-6],[-32,-63],[-65,-13],[-16,126],[45,-44]],[[1412,4096],[124,0],[1,-6],[-88,-13],[-37,19]],[[0,3644],[0,44],[2,-8],[-2,-36]],[[0,3559],[0,79],[50,-4],[31,55],[39,2],[41,-28],[-2,-32],[-78,-18],[-76,-62],[-5,8]],[[1258,3335],[-45,27],[10,60],[87,91],[26,-25],[-24,-106],[-54,-47]],[[494,3548],[-9,-60],[32,-25],[-12,-44],[45,-82],[97,-50],[-31,-60],[-50,10],[-17,84],[-32,16],[-32,75],[-32,0],[0,26],[-33,0],[-50,61],[2,39],[84,0],[13,50],[25,-40]],[[279,3364],[-53,74],[32,75],[29,5],[69,-80],[-77,-74]],[[1553,3713],[-18,40],[50,111],[18,-39],[-50,-112]],[[3106,4096],[31,-30],[2,-35],[22,-20],[31,12],[17,-42],[63,27],[-49,59],[0,23],[14,6],[32,0],[82,-89],[-65,-8],[13,-66],[-144,2],[-82,67],[-7,80],[-22,2],[5,12],[57,0]],[[3356,4026],[49,36],[-30,12],[30,22],[193,0],[34,-52],[-39,-20],[-27,34],[-3,-5],[7,-4],[0,-8],[2,-1],[-1,-2],[-45,-16],[8,-23],[37,27],[26,-25],[40,21],[-48,-48],[17,-5],[-11,-41],[46,72],[107,-194],[19,6],[-21,-15],[35,-48],[-44,-8],[9,-48],[-84,23],[-23,92],[-105,16],[-34,40],[-6,-19],[-43,48],[3,-23],[-29,20],[-69,136]],[[3213,3479],[62,97],[48,-23],[31,21],[104,-94],[-25,-52],[27,-27],[-77,3],[-62,51],[-17,-26],[-25,19],[-38,-48],[-28,31],[22,41],[-22,7]],[[3308,3505],[13,-13],[19,3],[-23,23],[-9,-13]],[[3365,3527],[2,-6],[7,3],[-3,6],[-6,-3]],[[127,29],[26,26],[22,121],[53,4],[85,-74],[65,3],[39,-103],[-277,-6],[-13,29]],[[833,396],[38,71],[-35,54],[109,72],[44,-24],[113,-3],[46,26],[31,-21],[63,-72],[-17,-169],[27,-86],[81,-42],[28,9],[1,-54],[-31,-48],[11,-109],[-310,0],[-38,19],[-5,90],[-46,12],[6,56],[-28,0],[-7,167],[-81,52]],[[2487,1636],[5,73],[60,45],[8,192],[-8,3],[-3,-194],[-155,19],[-50,35],[-5,66],[36,34],[-82,57],[-92,187],[-65,41],[22,50],[-17,41],[45,-6],[44,-47],[-6,-77],[51,23],[68,-21],[43,-74],[31,1],[64,36],[-14,100],[32,54],[42,-19],[-14,-69],[23,-1],[17,-55],[-26,-64],[46,-27],[57,21],[5,-38],[-39,-96],[-7,3],[56,-31],[31,-3],[43,41],[255,-40],[165,-131],[-8,-54],[-30,-23],[35,-76],[-55,-73],[-16,-94],[21,-40],[-119,10],[16,-47],[-56,28],[-13,38],[-181,9],[38,-104],[-142,12],[-40,47],[17,53],[-92,73],[24,46],[-65,66]],[[1398,3603],[41,79],[91,-26],[13,15],[-26,28],[60,32],[88,-39],[67,-97],[-64,-85],[-105,-40],[-6,29],[-29,3],[1,37],[-37,-19],[-76,27],[-18,56]],[[0,3977],[0,119],[637,0],[-12,-52],[-61,-38],[-43,-114],[11,-32],[-50,8],[-47,-97],[-133,-71],[-302,-94],[0,320],[93,34],[-93,17]],[[1829,4096],[82,0],[8,-15],[59,12],[-5,-33],[-88,-45],[1,81],[-50,-18],[-7,18]],[[0,2175],[0,94],[52,41],[-14,40],[93,62],[22,-8],[-3,-39],[32,5],[43,-42],[7,28],[55,-5],[6,73],[43,-13],[2,27],[44,13],[-3,-21],[47,-25],[-81,-67],[1,-33],[-211,-76],[-14,-43],[-54,-39],[-65,22],[-2,6]],[[0,2487],[0,94],[23,-2],[-23,-92]]]}