{"objects":{"water":{"type":"GeometryCollection","geometries":[{"type":"MultiPolygon","properties":{"source":"naturalearthdata.com","kind":"ocean","area":1576712559132672,"sort_rank":200,"min_zoom":0.0,"id":1},"arcs":[[[662]]]},{"type":"LineString","properties":{"source":"naturalearthdata.com","kind":"ocean","sort_rank":205,"boundary":true,"min_zoom":0.0,"id":19},"arcs":[663]},{"type":"LineString","properties":{"source":"naturalearthdata.com","kind":"ocean","sort_rank":205,"boundary":true,"min_zoom":0.0,"id":1103},"arcs":[664]},{"type":"LineString","properties":{"source":"naturalearthdata.com","kind":"ocean","sort_rank":205,"boundary":true,"min_zoom":0.0,"id":1112},"arcs":[665]}]},"buildings":{"type":"GeometryCollection","geometries":[]},"places":{"type":"GeometryCollection","geometries":[{"type":"Point","properties":{"name:pt":"Eslov\u00eania","name:ps":"\u0633\u0644\u0648\u0648\u06d0\u0646\u064a\u0627","name:ka":"\u10e1\u10da\u10dd\u10d5\u10d4\u10dc\u10d8\u10d0","name:mt":"Slovenja","name:ko":"\uc2ac\ub85c\ubca0\ub2c8\uc544","name:kn":"\u0cb8\u0ccd\u0cb2\u0ccb\u0cb5\u0cc7\u0ca8\u0cbf\u0caf\u0cbe","name:km":"\u179f\u17d2\u179b\u17bc\u179c\u17c1\u1793\u17b8","name:kl":"Slovenia","name:cs":"Slovinsko","alt_name:eo":"Slovenio","name:ki":"Slovenia","name:tr":"Slovenya","name:ku":"Slovenya","name:ti":"\u1235\u120e\u126c\u1292\u12eb","name:ks":"\u0633\u064e\u0644\u0648\u0648\u06cc\u0646\u0650\u06cc\u0627","name:to":"Sil\u014dvenia","name:tl":"Slovenia","name:sv":"Slovenien","name:or":"\u0b38\u0b4d\u0b32\u0b4b\u0b2d\u0b47\u0b28\u0b3f\u0b06","name:pl":"S\u0142owenia","name:ta":"\u0bb8\u0bcd\u0bb2\u0bcb\u0bb5\u0bc7\u0ba9\u0bbf\u0baf\u0bbe","name:tg":"\u0421\u043b\u043e\u0432\u0435\u043d\u0438\u044f","name:ca":"Eslov\u00e8nia","name:te":"\u0c38\u0c4d\u0c32\u0c4b\u0c35\u0c47\u0c28\u0c3f\u0c2f\u0c3e","name:hu":"Szlov\u00e9nia","name:ro":"Slovenia","name:cy":"Slofenia","name:da":"Slovenien","name:de":"Slowenien","name:dz":"\u0f66\u0f74\u0f0b\u0f63\u0f7c\u0f0b\u0f56\u0f72\u0f0b\u0f53\u0f72\u0f0b\u0f61","source":"openstreetmap.org","name:lv":"Slov\u0113nija","name:lt":"Slov\u0117nija","name:hi":"\u0938\u094d\u0932\u094b\u0935\u0947\u0928\u093f\u092f\u093e","name:he":"\u05e1\u05dc\u05d5\u05d1\u05e0\u05d9\u05d4","kind":"country","name:ur":"\u0633\u0644\u0648\u0648\u06cc\u0646\u06cc\u0627","name:lb":"Slowenien","name:la":"Slovenia","name:lg":"Sirovenya","name:uk":"\u0421\u043b\u043e\u0432\u0435\u043d\u0456\u044f","name:hy":"\u054d\u056c\u0578\u057e\u0565\u0576\u056b\u0561","min_zoom":2.0,"name:li":"Sloveni\u00eb","name:ln":"Siloveni","name:lo":"\u0eaa\u0eb0\u0ec2\u0ea5\u0ec0\u0ea7\u0ec0\u0e99\u0e8d","population":2058000,"name:el":"\u03a3\u03bb\u03bf\u03b2\u03b5\u03bd\u03af\u03b1","name:eo":"Slovenujo","name:en":"Slovenia","name":"Slovenija","official_name":"Republika Slovenija","name:ee":"Sloveenia","name:th":"\u0e1b\u0e23\u0e30\u0e40\u0e17\u0e28\u0e2a\u0e42\u0e25\u0e27\u0e35\u0e40\u0e19\u0e35\u0e22","name:gu":"\u0ab8\u0acd\u0ab2\u0acb\u0ab5\u0ac7\u0aa8\u0abf\u0aaf\u0abe","name:eu":"Eslovenia","name:et":"Sloveenia","name:nl":"Sloveni\u00eb","name:es":"Eslovenia","name:ia":"Slovenia","name:rm":"Slovenia","name:rn":"Siloveniya","name:az":"Sloveniya","name:id":"Slovenia","name:ms":"Slovenia","name:mr":"\u0938\u094d\u0932\u094b\u0935\u094d\u0939\u0947\u0928\u093f\u092f\u093e","name:ar":"\u0633\u0644\u0648\u0641\u064a\u0646\u064a\u0627","name:my":"\u1005\u101c\u102d\u102f\u1017\u1031\u1038\u1014\u102e\u1038\u101a\u102c\u1038","name:io":"Slovenia","name:is":"Sl\u00f3ven\u00eda","name:am":"\u1235\u120e\u126c\u1292\u12eb","name:it":"Slovenia","name:vi":"Slovenia","name:ru":"\u0421\u043b\u043e\u0432\u0435\u043d\u0438\u044f","name:mn":"\u0421\u043b\u043e\u0432\u0435\u043d\u0438","id":208592566,"name:mk":"\u0421\u043b\u043e\u0432\u0435\u043d\u0438\u0458\u0430","name:af":"Sloweni\u00eb","name:zu":"i-Slovenia","name:ha":"Sulobeniya","name:nn":"Slovenia","name:ff":"Slowenii","name:fi":"Slovenia","name:no":"Slovenia","name:mg":"Slovenia","name:fo":"Slovenia","name:fr":"Slov\u00e9nie","name:fy":"Sloveenje","name:vo":"Sloveniy\u00e4n","name:zh":"\u65af\u6d1b\u6587\u5c3c\u4e9a","name:gv":"Yn Clovean","name:so":"Slovenia","name:sn":"Slovenia","name:sk":"Slovinsko","name:ja":"\u30b9\u30ed\u30d9\u30cb\u30a2","name:si":"\u0dc3\u0dca\u0dbd\u0ddd\u0dc0\u0dda\u0db1\u0dd2\u0dba\u0dcf\u0dc0","name:fa":"\u0627\u0633\u0644\u0648\u0648\u0646\u06cc","name:sg":"Soloven\u00efi","name:se":"Slovenia","name:ne":"\u0938\u094d\u0932\u094b\u092d\u0947\u0928\u093f\u092f\u093e","name:br":"Slovenia","name:bm":"Sloveni","name:bn":"\u09b8\u09cd\u09b2\u09cb\u09ad\u09be\u09a8\u09bf\u09af\u09bc\u09be","name:bo":"\u0f66\u0f0b\u0f63\u0f7d\u0f0b\u0f5d\u0f7a\u0f0b\u0f53\u0f72\u0f0b\u0f61\u0f0d","name:ml":"\u0d38\u0d4d\u0d32\u0d4b\u0d35\u0d47\u0d28\u0d3f\u0d2f","name:sw":"Slovenia","name:be":"\u0421\u043b\u0430\u0432\u0435\u043d\u0456\u044f","name:bg":"\u0421\u043b\u043e\u0432\u0435\u043d\u0438\u044f","name:sr":"\u0421\u043b\u043e\u0432\u0435\u043d\u0438\u0458\u0430","name:sq":"Slloveni","name:ga":"An tSl\u00f3iv\u00e9in","name:gd":"Sloibh\u00ecnia","name:gl":"Eslovenia","name:yo":"Or\u00edl\u1eb9\u0301\u00e8de Silofania","name:ak":"Slovinia"},"coordinates":[609,1520]},{"type":"Point","properties":{"source":"naturalearthdata.com","kind":"locality","name":"Zagreb","country_capital":true,"population":722526,"min_zoom":5.0,"id":6954},"coordinates":[2822,1493]},{"type":"Point","properties":{"source":"naturalearthdata.com","kind":"locality","name":"Ljubljana","country_capital":true,"population":314807,"min_zoom":5.0,"id":6326},"coordinates":[659,2028]},{"type":"Point","properties":{"source":"naturalearthdata.com","kind":"locality","name":"Maribor","population":114228,"min_zoom":7.0,"id":2555},"coordinates":[2312,3047]},{"type":"Point","properties":{"source":"naturalearthdata.com","kind":"locality","name":"Klagenfurt","population":90610,"region_capital":true,"min_zoom":7.0,"id":4594},"coordinates":[360,3215]}]},"transit":{"type":"GeometryCollection","geometries":[{"type":"MultiLineString","properties":{"kind":"train","name":"Se\u017eana - Jesenice","sort_rank":275,"name:de":"Zizan - A\u00dfling","source":"openstreetmap.org","min_zoom":6.0,"ref":"R","osm_relation":true},"arcs":[[380],[381]]},{"type":"LineString","properties":{"kind":"train","name:en":"Ljubljana - Jesenice railway","name":"\u017delezni\u0161ka proga Ljubljana - Jesenice","sort_rank":275,"name:de":"Bahnstrecke Laibach - A\u00dfling","source":"openstreetmap.org","min_zoom":6.0,"operator":"Slovenske \u017eeleznice","id":-1973077,"osm_relation":true},"arcs":[382]},{"type":"LineString","properties":{"kind":"train","name":"Zagreb - Kotoriba","sort_rank":275,"source":"openstreetmap.org","min_zoom":6.0,"operator":"H\u017dPP","ref":"ZG - KO","id":-7362150,"osm_relation":true},"arcs":[383]},{"type":"MultiLineString","properties":{"kind":"train","name":"Train 651: Jesenice -> St. Veit a. d. Glan","sort_rank":275,"name:de":"Zug 651: A\u00dfling -> St. Veit an der Glan","source":"openstreetmap.org","min_zoom":6.0,"operator":"\u00d6BB","ref":"651","osm_relation":true},"arcs":[[384],[385],[386],[387],[388],[389],[390],[391],[392],[393]]},{"type":"MultiLineString","properties":{"kind":"train","network":"DB InterCity","service":"long_distance","sort_rank":275,"colour":"#9D9D9D","name":"EuroCity Klagenfurt \u2013 Salzburg","source":"openstreetmap.org","min_zoom":5.0,"operator":"DB;\u00d6BB","ref":"EC62","osm_relation":true,"colour_name":"darkseagreen"},"arcs":[[394],[395],[396],[397]]},{"type":"MultiLineString","properties":{"source":"openstreetmap.org","kind":"train","name":"Train R600: Villach -> Bruck","sort_rank":275,"ref":"600","min_zoom":6.0,"osm_relation":true},"arcs":[[398],[399],[400],[401],[402],[403],[404],[405]]},{"type":"MultiLineString","properties":{"source":"openstreetmap.org","kind":"train","name":"EC 213: Villach -> Zagreb","sort_rank":275,"ref":"EC 213","min_zoom":6.0,"osm_relation":true},"arcs":[[406],[407],[408],[409],[410],[411],[412]]},{"type":"MultiLineString","properties":{"kind":"train","network":"DB InterCity","service":"long_distance","sort_rank":275,"colour":"#9D9D9D","name":"EuroCity Salzburg \u2013 Klagenfurt","source":"openstreetmap.org","min_zoom":5.0,"operator":"DB;\u00d6BB","ref":"EC62","osm_relation":true,"colour_name":"darkseagreen"},"arcs":[[413],[414],[415],[416]]},{"type":"MultiLineString","properties":{"source":"openstreetmap.org","kind":"train","name":"IC 311: Villach -> Zagreb","sort_rank":275,"ref":"IC 311","min_zoom":6.0,"osm_relation":true},"arcs":[[417],[418],[419],[420],[421],[422],[423]]},{"type":"MultiLineString","properties":{"kind":"train","name":"Jesenice - Se\u017eana","sort_rank":275,"name:de":"A\u00dfling - Zizan","source":"openstreetmap.org","min_zoom":6.0,"operator":"S\u017d Infrastruktura","ref":"R","osm_relation":true},"arcs":[[424],[425]]},{"type":"LineString","properties":{"kind":"train","network":"local","sort_rank":275,"source":"openstreetmap.org","min_zoom":6.0,"operator":"H\u017d Infrastruktura","ref":"R","id":-1649817,"osm_relation":true,"name":"Kri\u017eevci \u2013 Bjelovar \u2013 Klo\u0161tar"},"arcs":[426]},{"type":"LineString","properties":{"kind":"train","name":"IC Koper - Maribor","sort_rank":275,"name:de":"IC Gafers - Marburg an der Drau","source":"openstreetmap.org","min_zoom":6.0,"ref":"IC 504, IC505","osm_relation":true},"arcs":[427]},{"type":"MultiLineString","properties":{"source":"openstreetmap.org","kind":"train","name":"\u010cakovec-Lendava","sort_rank":275,"min_zoom":6.0,"osm_relation":true},"arcs":[[428],[429],[430],[431],[432]]},{"type":"MultiLineString","properties":{"kind":"train","name":"\u010cakovec \u2013 Mursko Sredi\u0161\u0107e \u2013 dr\u017eavna granica","sort_rank":275,"source":"openstreetmap.org","min_zoom":6.0,"operator":"H\u017d Infrastruktura","ref":"L101","osm_relation":true,"network":"local"},"arcs":[[433],[434]]},{"type":"MultiLineString","properties":{"kind":"train","name":"S1: Friesach \u2013 Lienz","service":"commuter","sort_rank":275,"source":"openstreetmap.org","min_zoom":6.0,"operator":"\u00d6BB","ref":"S1","osm_relation":true,"network":"VVK"},"arcs":[[435],[436],[437],[438],[439],[440],[441],[442],[443],[444],[445],[446],[447],[448],[449],[450],[451],[452],[453],[454],[455]]},{"type":"MultiLineString","properties":{"kind":"train","name":"Harmica - Dugo Selo","sort_rank":275,"source":"openstreetmap.org","min_zoom":6.0,"operator":"H\u017dPP","ref":"HA - DS","osm_relation":true},"arcs":[[456],[457],[458],[459],[460],[461],[462],[463]]},{"type":"MultiLineString","properties":{"kind":"train","name":"R620 Bad St. Leonhard \u2013 Klagenfurt Hbf","service":"regional","sort_rank":275,"source":"openstreetmap.org","min_zoom":6.0,"operator":"\u00d6BB","ref":"R620","osm_relation":true,"network":"VVK"},"arcs":[[464],[465],[466],[467],[468],[469],[470],[471],[472],[473],[474],[475],[476],[477],[478],[479],[480],[481],[482],[483],[484],[485],[486],[487]]},{"type":"MultiLineString","properties":{"kind":"train","name":"Zabok - Gornja Stubica","sort_rank":275,"source":"openstreetmap.org","min_zoom":6.0,"operator":"H\u017dPP","ref":"ZA - GS","osm_relation":true},"arcs":[[488],[489]]},{"type":"LineString","properties":{"kind":"train","sort_rank":275,"source":"openstreetmap.org","min_zoom":6.0,"operator":"M\u00c1V","ref":"23K","id":-1343564,"osm_relation":true},"arcs":[490]},{"type":"LineString","properties":{"kind":"train","name":"Dr\u017eavna meja - Imeno - Stranje","sort_rank":275,"source":"openstreetmap.org","min_zoom":6.0,"operator":"S\u017d Infrastruktura","ref":"R","id":-3436973,"osm_relation":true},"arcs":[491]},{"type":"LineString","properties":{"kind":"train","name":"Pruga HR - Bosanski Novi - Biha\u0107 - HR - Kulen Vakuf - HR - Bosanski Osredci - HR - Bosanski Drenovac - HR","sort_rank":275,"source":"openstreetmap.org","min_zoom":6.0,"operator":"\u017dFBIH;\u017dRS","ref":"17","id":-2676373,"osm_relation":true},"arcs":[492]},{"type":"LineString","properties":{"kind":"train","name":"Landesbahn Bad Gleichenberg - Feldbach","sort_rank":275,"source":"openstreetmap.org","min_zoom":6.0,"operator":"Steierm\u00e4rkische Landesbahnen","ref":"R532","id":-1659880,"osm_relation":true},"arcs":[493]},{"type":"MultiLineString","properties":{"kind":"train","name":"S3 Klagenfurt \u2013 Weizelsdorf","service":"commuter","sort_rank":275,"source":"openstreetmap.org","min_zoom":6.0,"operator":"\u00d6BB","ref":"S3","osm_relation":true,"network":"VVK"},"arcs":[[494],[495],[496],[497],[498]]},{"type":"MultiLineString","properties":{"kind":"train","name":"(Sredi\u0161\u010de) \u2013 Dr\u017eavna granica \u2013 \u010cakovec \u2013 Kotoriba \u2013 Dr\u017eavna granica \u2013 (Murakeresztur)","sort_rank":275,"source":"openstreetmap.org","min_zoom":6.0,"operator":"H\u017d Infrastruktura","ref":"S","osm_relation":true,"network":"international"},"arcs":[[499],[500],[501],[502],[503],[504],[505]]},{"type":"LineString","properties":{"kind":"train","network":"H\u017d ICN","service":"long_distance","sort_rank":275,"colour":"#9D9D9D","name":"ICN Zagreb-Split","source":"openstreetmap.org","min_zoom":5.0,"operator":"H\u017d","ref":"ICN","osm_relation":true,"colour_name":"darkseagreen"},"arcs":[506]},{"type":"LineString","properties":{"kind":"train","network":"international","sort_rank":275,"source":"openstreetmap.org","min_zoom":6.0,"operator":"H\u017d Infrastruktura","ref":"M203","id":-1646412,"osm_relation":true,"name":"Rijeka \u2013 \u0160apjane \u2013 Dr\u017eavna granica \u2013 (Ilirska Bistrica)"},"arcs":[507]},{"type":"MultiLineString","properties":{"source":"openstreetmap.org","kind":"train","osm_relation":true,"sort_rank":275,"ref":"530","min_zoom":6.0,"operator":"\u00d6BB"},"arcs":[[508],[509],[510]]},{"type":"LineString","properties":{"kind":"train","network":"regional","sort_rank":275,"source":"openstreetmap.org","min_zoom":6.0,"operator":"Hrvatske \u017deljeznice","ref":"ZG-MO","osm_relation":true,"name":"Zagreb Glavni Kolodvor - Moravice"},"arcs":[511]},{"type":"MultiLineString","properties":{"source":"openstreetmap.org","kind":"train","name":"Train R600: Bruck -> Villach","sort_rank":275,"ref":"600","min_zoom":6.0,"osm_relation":true},"arcs":[[512],[513],[514],[515],[516],[517],[518]]},{"type":"LineString","properties":{"kind":"train","name":"Maribor - Prevalje - dr\u017eavna meja","sort_rank":275,"source":"openstreetmap.org","min_zoom":6.0,"operator":"S\u017d Infrastruktura","ref":"34","osm_relation":true},"arcs":[519]},{"type":"LineString","properties":{"kind":"train","network":"S-Bahn Steiermark","service":"commuter","sort_rank":275,"source":"openstreetmap.org","min_zoom":6.0,"operator":"GKB","ref":"S7","osm_relation":true},"arcs":[520]},{"type":"MultiLineString","properties":{"kind":"train","network":"S-Bahn Steiermark","service":"commuter","sort_rank":275,"source":"openstreetmap.org","min_zoom":6.0,"operator":"GKB","ref":"S6","osm_relation":true},"arcs":[[521],[522],[523],[524],[525],[526]]},{"type":"MultiLineString","properties":{"kind":"train","name":"Dr\u017eavna meja - Rogatec - Grobelno","sort_rank":275,"source":"openstreetmap.org","min_zoom":6.0,"operator":"S\u017d Infrastruktura","ref":"R","osm_relation":true},"arcs":[[527],[528],[529],[530],[531]]},{"type":"LineString","properties":{"kind":"train","network":"Slovenian Railways","sort_rank":275,"source":"openstreetmap.org","min_zoom":6.0,"operator":"Slovenske \u017deleznice","ref":"www.slo-zeleznice.si","id":-2564571,"osm_relation":true,"name":"\u017delezni\u0161ka proga Velenje-Celje"},"arcs":[532]},{"type":"LineString","properties":{"source":"openstreetmap.org","kind":"train","name":"Train R520: Wiener Neustadt -> Fehring","sort_rank":275,"ref":"R520","min_zoom":6.0,"osm_relation":true},"arcs":[533]},{"type":"MultiLineString","properties":{"kind":"train","name":"S3 Weizelsdorf \u2013 Klagenfurt","service":"commuter","sort_rank":275,"source":"openstreetmap.org","min_zoom":6.0,"operator":"\u00d6BB","ref":"S3","osm_relation":true,"network":"VVK"},"arcs":[[534],[535],[536],[537],[538]]},{"type":"LineString","properties":{"kind":"train","name":"Villa Opicina - Ljubjana","sort_rank":275,"name:de":"Optschinach - Laibach","source":"openstreetmap.org","min_zoom":6.0,"ref":"R","osm_relation":true},"arcs":[539]},{"type":"LineString","properties":{"kind":"train","name":"Pragersko - Ormo\u017e","sort_rank":275,"source":"openstreetmap.org","min_zoom":6.0,"operator":"S\u017d Infrastruktura","ref":"R","id":-3436977,"osm_relation":true},"arcs":[540]},{"type":"LineString","properties":{"kind":"train","name":"Landesbahn Feldbach - Bad Gleichenberg","sort_rank":275,"source":"openstreetmap.org","min_zoom":6.0,"operator":"Steierm\u00e4rkische Landesbahnen","ref":"R532","id":-1659881,"osm_relation":true},"arcs":[541]},{"type":"LineString","properties":{"kind":"train","name:en":"Bohinj Railway","name":"Bohinjska \u017eelezni\u0161ka proga","sort_rank":275,"name:de":"Wocheiner Bahn","source":"openstreetmap.org","min_zoom":6.0,"name:it":"Ferrovia Jesenice-Trieste \/ Ferrovia Transalpina","osm_relation":true},"arcs":[542]},{"type":"LineString","properties":{"kind":"train","name":"Stainzer Flascherlzug","sort_rank":275,"source":"openstreetmap.org","min_zoom":6.0,"operator":"PWS","id":-3579885,"osm_relation":true},"arcs":[543]},{"type":"LineString","properties":{"kind":"train","network":"S-Bahn Steiermark","service":"commuter","sort_rank":275,"source":"openstreetmap.org","min_zoom":6.0,"operator":"\u00d6BB","ref":"S51","id":-67184,"osm_relation":true,"name":"S51 Radkersburger Bahn"},"arcs":[544]},{"type":"MultiLineString","properties":{"kind":"train","network":"VVK","service":"regional","sort_rank":275,"source":"openstreetmap.org","min_zoom":6.0,"operator":"\u00d6BB","ref":"R620","osm_relation":true,"name":"R620 Klagenfurt \u2013 Bad St. Leonhard"},"arcs":[[545],[546],[547],[548],[549],[550],[551],[552],[553],[554],[555],[556],[557],[558],[559],[560],[561],[562],[563],[564],[565],[566],[567]]},{"type":"MultiLineString","properties":{"kind":"train","name":"S2 St. Veit a. d. Glan \u2013 Rosenbach","service":"commuter","sort_rank":275,"source":"openstreetmap.org","min_zoom":6.0,"operator":"\u00d6BB","ref":"S2","osm_relation":true,"network":"VVK"},"arcs":[[568],[569],[570],[571],[572],[573],[574],[575],[576]]},{"type":"LineString","properties":{"kind":"train","network":"regional","sort_rank":275,"source":"openstreetmap.org","min_zoom":6.0,"operator":"H\u017d Infrastruktura","ref":"S","id":-1650415,"osm_relation":true,"name":"Zabok \u2013 Krapina \u2013 \u0110urmanec \u2013 Dr\u017eavna granica \u2013 (Rogatec)"},"arcs":[577]},{"type":"MultiLineString","properties":{"kind":"train","name":"Train 651: St. Veit an der Glan -> Jesenice","sort_rank":275,"name:de":"Zug 651: St. Veit an der Glan -> A\u00dfling","source":"openstreetmap.org","min_zoom":6.0,"operator":"\u00d6BB","ref":"651","osm_relation":true},"arcs":[[578],[579],[580],[581],[582],[583],[584],[585],[586]]},{"type":"MultiLineString","properties":{"kind":"train","name":"Dr\u017eavna meja - Metlika - Ljubljana","sort_rank":275,"source":"openstreetmap.org","min_zoom":6.0,"operator":"S\u017d Infrastruktura","ref":"R","osm_relation":true},"arcs":[[587],[588]]},{"type":"LineString","properties":{"kind":"train","name":"Sevnica - Trebnje","sort_rank":275,"name:de":"Lichtenwald - Treffen","source":"openstreetmap.org","min_zoom":6.0,"operator":"S\u017d Infrastruktura","ref":"R","id":-3437105,"osm_relation":true},"arcs":[589]},{"type":"LineString","properties":{"kind":"train","name":"Pivka - Ilirska Bistrica - dr\u017eavna meja","sort_rank":275,"source":"openstreetmap.org","min_zoom":6.0,"operator":"S\u017d Infrastruktura","ref":"64","id":-3437045,"osm_relation":true},"arcs":[590]},{"type":"LineString","properties":{"kind":"train","name":"Drautalbahn","sort_rank":275,"source":"openstreetmap.org","min_zoom":6.0,"operator":"\u00d6BB","ref":"423 01","id":-5218883,"osm_relation":true},"arcs":[591]},{"type":"MultiLineString","properties":{"source":"openstreetmap.org","kind":"train","name":"Buzet - Pula \/ Buzet - Ra\u0161a","sort_rank":275,"ref":"S","min_zoom":6.0,"osm_relation":true},"arcs":[[592],[593],[594],[595],[596],[597],[598],[599],[600],[601],[602],[603],[604]]},{"type":"LineString","properties":{"kind":"train","network":"international","sort_rank":275,"source":"openstreetmap.org","min_zoom":6.0,"operator":"H\u017d Infrastruktura","ref":"M202","osm_relation":true,"name":"Zagreb Glavni kolodvor \u2013 Karlovac \u2013 Rijeka"},"arcs":[605]},{"type":"LineString","properties":{"kind":"train","name":"(Gyekenyes) \u2013 Dr\u017eavna granica \u2013 Botovo \u2013 Koprivnica \u2013 Dugo Selo","sort_rank":275,"source":"openstreetmap.org","min_zoom":6.0,"operator":"H\u017d Infrastruktura","ref":"IC","osm_relation":true,"network":"international"},"arcs":[606]},{"type":"MultiLineString","properties":{"kind":"train","name":"Dugo Selo \u2013 Novska","sort_rank":275,"source":"openstreetmap.org","min_zoom":6.0,"ref":"S","osm_relation":true,"network":"international"},"arcs":[[607],[608]]},{"type":"LineString","properties":{"kind":"train","network":"S-Bahn Steiermark","service":"commuter","sort_rank":275,"source":"openstreetmap.org","min_zoom":6.0,"operator":"\u00d6BB","ref":"S5","id":-67185,"osm_relation":true,"name":"S5"},"arcs":[609]},{"type":"LineString","properties":{"kind":"train","name":"Ormo\u017e - Hodo\u0161 - dr\u017eavna meja","sort_rank":275,"source":"openstreetmap.org","min_zoom":6.0,"operator":"S\u017d Infrastruktura","ref":"R","osm_relation":true},"arcs":[610]},{"type":"LineString","properties":{"kind":"train","name":"Koper - Ljubjana","sort_rank":275,"name:de":"Gafers - Laibach","source":"openstreetmap.org","min_zoom":6.0,"ref":"R","osm_relation":true},"arcs":[611]},{"type":"LineString","properties":{"kind":"train","network":"regional","sort_rank":275,"source":"openstreetmap.org","min_zoom":6.0,"operator":"H\u017d Infrastruktura","ref":"R","id":-1649150,"osm_relation":true,"name":"Vara\u017edin \u2013 Koprivnica \u2013 Virovitica \u2013 Osijek \u2013 Dalj"},"arcs":[612]},{"type":"MultiLineString","properties":{"kind":"train","network":"international","sort_rank":275,"source":"openstreetmap.org","min_zoom":6.0,"ref":"396, 397","osm_relation":true,"name":"Zagreb Glavni kolodvor \u2013 Sisak \u2013 Novska"},"arcs":[[613],[614]]},{"type":"MultiLineString","properties":{"kind":"train","network":"S-Bahn Steiermark","service":"commuter","sort_rank":275,"source":"openstreetmap.org","min_zoom":6.0,"operator":"\u00d6BB","ref":"S3","osm_relation":true},"arcs":[[615],[616]]},{"type":"LineString","properties":{"kind":"train","network":"regional","sort_rank":275,"source":"openstreetmap.org","min_zoom":6.0,"ref":"396, 397","id":-1655010,"osm_relation":true,"name":"Sunja \u2013 Volinja \u2013 Dr\u017eavna granica \u2013 (Dobrljin)"},"arcs":[617]},{"type":"MultiLineString","properties":{"kind":"train","network":"regional","sort_rank":275,"source":"openstreetmap.org","min_zoom":6.0,"operator":"H\u017dPP","ref":"ZG - \u010cA","osm_relation":true,"name":"Zagreb \u2013 \u010cakovec"},"arcs":[[618],[619]]},{"type":"MultiLineString","properties":{"source":"openstreetmap.org","kind":"train","name":"EC 150: Emona","sort_rank":275,"ref":"EC 150","min_zoom":6.0,"osm_relation":true},"arcs":[[620],[621],[622],[623],[624],[625],[626],[627],[628]]},{"type":"LineString","properties":{"source":"openstreetmap.org","kind":"train","name":"Train R520: Fehring -> Wiener Neustadt","sort_rank":275,"ref":"R520","min_zoom":6.0,"osm_relation":true},"arcs":[629]},{"type":"MultiLineString","properties":{"kind":"train","network":"VVK","service":"commuter","sort_rank":275,"source":"openstreetmap.org","min_zoom":6.0,"operator":"\u00d6BB","ref":"S1","osm_relation":true,"name":"S1: Lienz \u2013 Friesach"},"arcs":[[630],[631],[632],[633],[634],[635],[636],[637],[638],[639],[640],[641],[642],[643],[644],[645],[646],[647],[648],[649],[650]]},{"type":"MultiLineString","properties":{"kind":"train","network":"VVK","service":"commuter","sort_rank":275,"source":"openstreetmap.org","min_zoom":6.0,"operator":"\u00d6BB","ref":"S2","osm_relation":true,"name":"S2 Rosenbach \u2013 St. Veit a. d. Glan"},"arcs":[[651],[652],[653],[654],[655],[656],[657],[658],[659],[660]]},{"type":"LineString","properties":{"kind":"train","network":"S-Bahn Steiermark","service":"commuter","sort_rank":275,"source":"openstreetmap.org","min_zoom":6.0,"operator":"GKB","ref":"S61","osm_relation":true},"arcs":[661]}]},"pois":{"type":"GeometryCollection","geometries":[{"type":"Point","properties":{"kind":"nature_reserve","protect_class":"4","area":694580000,"name:de":"Naturpark Sichelgebirge und die Samobor-Berge","source":"openstreetmap.org","min_zoom":7.57,"tier":2,"id":-6482172,"osm_relation":true,"name":"Park prirode \u017dumberak - Samoborsko gorje"},"coordinates":[1996,1385]},{"type":"Point","properties":{"source":"openstreetmap.org","kind":"nature_reserve","name":"Park prirode Lonjsko polje","area":1052270000,"tier":2,"min_zoom":7.27,"id":422036762},"coordinates":[4018,571]}]},"boundaries":{"type":"GeometryCollection","geometries":[{"type":"MultiLineString","properties":{"source":"naturalearthdata.com","kind":"country","sort_rank":262,"kind_detail":"2","min_zoom":0.0,"id":138},"arcs":[[0],[1],[2],[3],[4]]},{"type":"MultiLineString","properties":{"source":"naturalearthdata.com","kind":"country","sort_rank":262,"kind_detail":"2","min_zoom":0.0,"id":214},"arcs":[[5],[6],[7],[8],[9],[10],[11],[12],[13],[14],[15],[16],[17],[18],[19],[20],[21],[22],[23],[24],[25],[26],[27],[28]]},{"type":"MultiLineString","properties":{"source":"naturalearthdata.com","kind":"country","sort_rank":262,"kind_detail":"2","min_zoom":0.0,"id":112},"arcs":[[29],[30],[31],[32],[33]]},{"type":"MultiLineString","properties":{"source":"naturalearthdata.com","kind":"country","sort_rank":262,"kind_detail":"2","min_zoom":0.0,"id":136},"arcs":[[34],[35],[36],[37],[38],[39],[40],[41]]},{"type":"MultiLineString","properties":{"source":"naturalearthdata.com","kind":"country","sort_rank":262,"kind_detail":"2","min_zoom":0.0,"id":137},"arcs":[[42],[43],[44],[45],[46],[47],[48],[49],[50],[51],[52],[53],[54],[55],[56],[57],[58],[59],[60],[61],[62],[63],[64],[65],[66],[67],[68],[69],[70],[71],[72],[73],[74],[75],[76]]},{"type":"MultiLineString","properties":{"source":"naturalearthdata.com","kind":"country","sort_rank":262,"kind_detail":"2","min_zoom":0.0,"id":216},"arcs":[[77],[78],[79],[80],[81],[82],[83]]},{"type":"LineString","properties":{"source":"naturalearthdata.com","kind":"region","sort_rank":256,"kind_detail":"4","min_zoom":7.0,"id":495},"arcs":[84]},{"type":"LineString","properties":{"source":"naturalearthdata.com","kind":"macroregion","name":"\u0160en\u010dur - Vodice","sort_rank":257,"kind_detail":"3","min_zoom":6.8,"id":1576},"arcs":[85]},{"type":"LineString","properties":{"source":"naturalearthdata.com","kind":"macroregion","name":"Dobrova-Polhov Gradec - Gorenja vas-Poljane","sort_rank":257,"kind_detail":"3","min_zoom":6.8,"id":1590},"arcs":[86]},{"type":"LineString","properties":{"source":"naturalearthdata.com","kind":"macroregion","name":"Medvode - \u0160en\u010dur","sort_rank":257,"kind_detail":"3","min_zoom":6.8,"id":1904},"arcs":[87]},{"type":"LineString","properties":{"source":"naturalearthdata.com","kind":"macroregion","name":"Zrece - Lovrenc na Pohorju","sort_rank":257,"kind_detail":"3","min_zoom":6.8,"id":1944},"arcs":[88]},{"type":"LineString","properties":{"source":"naturalearthdata.com","kind":"macroregion","name":"Lenart - Gornja Radgona","sort_rank":257,"kind_detail":"3","min_zoom":6.8,"id":2000},"arcs":[89]},{"type":"LineString","properties":{"source":"naturalearthdata.com","kind":"macroregion","name":"Slovenj Gradec - Ribnica na Pohorju","sort_rank":257,"kind_detail":"3","min_zoom":6.8,"id":2170},"arcs":[90]},{"type":"LineString","properties":{"source":"naturalearthdata.com","kind":"macroregion","name":"Ormo\u017e - Jur\u0161inci","sort_rank":257,"kind_detail":"3","min_zoom":6.8,"id":2292},"arcs":[91]},{"type":"LineString","properties":{"source":"naturalearthdata.com","kind":"macroregion","name":"Podcetrtek - Bre\u017eice","sort_rank":257,"kind_detail":"3","min_zoom":6.8,"id":2229},"arcs":[92]},{"type":"LineString","properties":{"source":"naturalearthdata.com","kind":"macroregion","name":"Kr\u0161ko - Kozje","sort_rank":257,"kind_detail":"3","min_zoom":6.8,"id":2232},"arcs":[93]},{"type":"LineString","properties":{"source":"naturalearthdata.com","kind":"macroregion","name":"Bre\u017eice - Kozje","sort_rank":257,"kind_detail":"3","min_zoom":6.8,"id":2234},"arcs":[94]},{"type":"LineString","properties":{"source":"naturalearthdata.com","kind":"macroregion","name":"\u017detale - Rogatec","sort_rank":257,"kind_detail":"3","min_zoom":6.8,"id":2239},"arcs":[95]},{"type":"LineString","properties":{"source":"naturalearthdata.com","kind":"macroregion","name":"Maj\u0161perk - Rogatec","sort_rank":257,"kind_detail":"3","min_zoom":6.8,"id":2253},"arcs":[96]},{"type":"LineString","properties":{"source":"naturalearthdata.com","kind":"macroregion","name":"\u0160entilj - Apace","sort_rank":257,"kind_detail":"3","min_zoom":6.8,"id":1071},"arcs":[97]},{"type":"MultiLineString","properties":{"source":"naturalearthdata.com","kind":"macroregion","name":"Vuzenica - Muta","sort_rank":257,"kind_detail":"3","min_zoom":6.8,"id":1083},"arcs":[[98],[99]]},{"type":"LineString","properties":{"source":"naturalearthdata.com","kind":"macroregion","name":"Muta - Radlje ob Dravi","sort_rank":257,"kind_detail":"3","min_zoom":6.8,"id":1084},"arcs":[100]},{"type":"LineString","properties":{"source":"naturalearthdata.com","kind":"macroregion","name":"Dravograd - Vuzenica","sort_rank":257,"kind_detail":"3","min_zoom":6.8,"id":1085},"arcs":[101]},{"type":"LineString","properties":{"source":"naturalearthdata.com","kind":"macroregion","name":"Gorenja vas-Poljane - Cerkno","sort_rank":257,"kind_detail":"3","min_zoom":6.8,"id":1921},"arcs":[102]},{"type":"LineString","properties":{"source":"naturalearthdata.com","kind":"macroregion","name":"Cerkno - \u017delezniki","sort_rank":257,"kind_detail":"3","min_zoom":6.8,"id":1922},"arcs":[103]},{"type":"LineString","properties":{"source":"naturalearthdata.com","kind":"macroregion","name":"Logatec - Ajdov\u0161\u010dina","sort_rank":257,"kind_detail":"3","min_zoom":6.8,"id":1924},"arcs":[104]},{"type":"LineString","properties":{"source":"naturalearthdata.com","kind":"macroregion","name":"Ajdov\u0161\u010dina - Postojna","sort_rank":257,"kind_detail":"3","min_zoom":6.8,"id":1925},"arcs":[105]},{"type":"LineString","properties":{"source":"naturalearthdata.com","kind":"macroregion","name":"Divaca - Postojna","sort_rank":257,"kind_detail":"3","min_zoom":6.8,"id":1927},"arcs":[106]},{"type":"MultiLineString","properties":{"source":"naturalearthdata.com","kind":"macroregion","name":"Maj\u0161perk - Roga\u0161ka Slatina","sort_rank":257,"kind_detail":"3","min_zoom":6.8,"id":2255},"arcs":[[107],[108]]},{"type":"LineString","properties":{"source":"naturalearthdata.com","kind":"macroregion","name":"Slovenska Bistrica - Slovenske Konjice","sort_rank":257,"kind_detail":"3","min_zoom":6.8,"id":2257},"arcs":[109]},{"type":"LineString","properties":{"source":"naturalearthdata.com","kind":"macroregion","name":"Pivka - Divaca","sort_rank":257,"kind_detail":"3","min_zoom":6.8,"id":1928},"arcs":[110]},{"type":"LineString","properties":{"source":"naturalearthdata.com","kind":"macroregion","name":"Preddvor - Kamnik","sort_rank":257,"kind_detail":"3","min_zoom":6.8,"id":1552},"arcs":[111]},{"type":"LineString","properties":{"source":"naturalearthdata.com","kind":"macroregion","name":"Kranj - Medvode","sort_rank":257,"kind_detail":"3","min_zoom":6.8,"id":1553},"arcs":[112]},{"type":"LineString","properties":{"source":"naturalearthdata.com","kind":"macroregion","name":"Slovenj Gradec - \u0160o\u0161tanj","sort_rank":257,"kind_detail":"3","min_zoom":6.8,"id":1561},"arcs":[113]},{"type":"MultiLineString","properties":{"source":"naturalearthdata.com","kind":"macroregion","name":"Luce - Kamnik","sort_rank":257,"kind_detail":"3","min_zoom":6.8,"id":1564},"arcs":[[114],[115]]},{"type":"LineString","properties":{"source":"naturalearthdata.com","kind":"macroregion","name":"Cerklje na Gorenjskem - Vodice","sort_rank":257,"kind_detail":"3","min_zoom":6.8,"id":1578},"arcs":[116]},{"type":"MultiLineString","properties":{"source":"naturalearthdata.com","kind":"macroregion","name":"Dobrova-Polhov Gradec - \u0160kofja Loka","sort_rank":257,"kind_detail":"3","min_zoom":6.8,"id":1589},"arcs":[[117],[118]]},{"type":"LineString","properties":{"source":"naturalearthdata.com","kind":"macroregion","name":"Vransko - Kamnik","sort_rank":257,"kind_detail":"3","min_zoom":6.8,"id":1605},"arcs":[119]},{"type":"MultiLineString","properties":{"source":"naturalearthdata.com","kind":"macroregion","name":"Slovenj Gradec - Velenje","sort_rank":257,"kind_detail":"3","min_zoom":6.8,"id":1606},"arcs":[[120],[121]]},{"type":"LineString","properties":{"source":"naturalearthdata.com","kind":"macroregion","name":"Lovrenc na Pohorju - Mislinja","sort_rank":257,"kind_detail":"3","min_zoom":6.8,"id":1616},"arcs":[122]},{"type":"MultiLineString","properties":{"source":"naturalearthdata.com","kind":"macroregion","name":"Slovenj Gradec - Mislinja","sort_rank":257,"kind_detail":"3","min_zoom":6.8,"id":1618},"arcs":[[123],[124],[125]]},{"type":"MultiLineString","properties":{"source":"naturalearthdata.com","kind":"macroregion","name":"Litija - Zasavska","sort_rank":257,"kind_detail":"3","min_zoom":6.8,"id":1621},"arcs":[[126],[127],[128],[129]]},{"type":"LineString","properties":{"source":"naturalearthdata.com","kind":"macroregion","name":"Zasavska - Kamnik","sort_rank":257,"kind_detail":"3","min_zoom":6.8,"id":1622},"arcs":[130]},{"type":"LineString","properties":{"source":"naturalearthdata.com","kind":"macroregion","name":"Lukovica - Zasavska","sort_rank":257,"kind_detail":"3","min_zoom":6.8,"id":1623},"arcs":[131]},{"type":"MultiLineString","properties":{"source":"naturalearthdata.com","kind":"macroregion","name":"Zasavska - Vransko","sort_rank":257,"kind_detail":"3","min_zoom":6.8,"id":1624},"arcs":[[132],[133]]},{"type":"MultiLineString","properties":{"source":"naturalearthdata.com","kind":"macroregion","name":"Gornji Grad - Kamnik","sort_rank":257,"kind_detail":"3","min_zoom":6.8,"id":1626},"arcs":[[134],[135],[136]]},{"type":"MultiLineString","properties":{"source":"naturalearthdata.com","kind":"macroregion","name":"Cerknica - Brezovica","sort_rank":257,"kind_detail":"3","min_zoom":6.8,"id":1629},"arcs":[[137],[138]]},{"type":"LineString","properties":{"source":"naturalearthdata.com","kind":"macroregion","name":"Cerknica - Velike La\u0161\u010de","sort_rank":257,"kind_detail":"3","min_zoom":6.8,"id":1630},"arcs":[139]},{"type":"LineString","properties":{"source":"naturalearthdata.com","kind":"macroregion","name":"Cerknica - Logatec","sort_rank":257,"kind_detail":"3","min_zoom":6.8,"id":1631},"arcs":[140]},{"type":"MultiLineString","properties":{"source":"naturalearthdata.com","kind":"macroregion","name":"Borovnica - Cerknica","sort_rank":257,"kind_detail":"3","min_zoom":6.8,"id":1632},"arcs":[[141],[142]]},{"type":"MultiLineString","properties":{"source":"naturalearthdata.com","kind":"macroregion","name":"Vrhnika - Cerknica","sort_rank":257,"kind_detail":"3","min_zoom":6.8,"id":1633},"arcs":[[143],[144],[145]]},{"type":"LineString","properties":{"source":"naturalearthdata.com","kind":"macroregion","name":"Kamnik - Nazarje","sort_rank":257,"kind_detail":"3","min_zoom":6.8,"id":1641},"arcs":[146]},{"type":"LineString","properties":{"source":"naturalearthdata.com","kind":"macroregion","name":"Moravce - Zasavska","sort_rank":257,"kind_detail":"3","min_zoom":6.8,"id":1666},"arcs":[147]},{"type":"LineString","properties":{"source":"naturalearthdata.com","kind":"macroregion","name":"Logatec - Idrija","sort_rank":257,"kind_detail":"3","min_zoom":6.8,"id":1929},"arcs":[148]},{"type":"LineString","properties":{"source":"naturalearthdata.com","kind":"macroregion","name":"Idrija - \u017diri","sort_rank":257,"kind_detail":"3","min_zoom":6.8,"id":1930},"arcs":[149]},{"type":"LineString","properties":{"source":"naturalearthdata.com","kind":"macroregion","name":"Slovenj Gradec - Vuzenica","sort_rank":257,"kind_detail":"3","min_zoom":6.8,"id":1945},"arcs":[150]},{"type":"LineString","properties":{"source":"naturalearthdata.com","kind":"macroregion","name":"Cerklje na Gorenjskem - Kamnik","sort_rank":257,"kind_detail":"3","min_zoom":6.8,"id":1947},"arcs":[151]},{"type":"MultiLineString","properties":{"source":"naturalearthdata.com","kind":"macroregion","name":"Ivancna Gorica - \u0160martno in Litiji","sort_rank":257,"kind_detail":"3","min_zoom":6.8,"id":1892},"arcs":[[152],[153],[154],[155]]},{"type":"LineString","properties":{"source":"naturalearthdata.com","kind":"macroregion","name":"Dobrepolje - Ivancna Gorica","sort_rank":257,"kind_detail":"3","min_zoom":6.8,"id":1893},"arcs":[156]},{"type":"LineString","properties":{"source":"naturalearthdata.com","kind":"macroregion","name":"Radece - Litija","sort_rank":257,"kind_detail":"3","min_zoom":6.8,"id":1895},"arcs":[157]},{"type":"LineString","properties":{"source":"naturalearthdata.com","kind":"macroregion","name":"\u0160kofja Loka - Medvode","sort_rank":257,"kind_detail":"3","min_zoom":6.8,"id":1905},"arcs":[158]},{"type":"LineString","properties":{"source":"naturalearthdata.com","kind":"macroregion","name":"Komenda - Cerklje na Gorenjskem","sort_rank":257,"kind_detail":"3","min_zoom":6.8,"id":1908},"arcs":[159]},{"type":"LineString","properties":{"source":"naturalearthdata.com","kind":"macroregion","name":"\u017diri - Logatec","sort_rank":257,"kind_detail":"3","min_zoom":6.8,"id":1914},"arcs":[160]},{"type":"MultiLineString","properties":{"source":"naturalearthdata.com","kind":"macroregion","name":"Postojna - Logatec","sort_rank":257,"kind_detail":"3","min_zoom":6.8,"id":1915},"arcs":[[161],[162]]},{"type":"LineString","properties":{"source":"naturalearthdata.com","kind":"macroregion","name":"Velike La\u0161\u010de - Bloke","sort_rank":257,"kind_detail":"3","min_zoom":6.8,"id":1961},"arcs":[163]},{"type":"MultiLineString","properties":{"source":"naturalearthdata.com","kind":"macroregion","name":"Bloke - Lo\u0161ki Potok","sort_rank":257,"kind_detail":"3","min_zoom":6.8,"id":1963},"arcs":[[164],[165],[166]]},{"type":"LineString","properties":{"source":"naturalearthdata.com","kind":"macroregion","name":"\u010crna na Koro\u0161kem - Ljubno","sort_rank":257,"kind_detail":"3","min_zoom":6.8,"id":1969},"arcs":[167]},{"type":"LineString","properties":{"source":"naturalearthdata.com","kind":"macroregion","name":"\u0160o\u0161tanj - \u010crna na Koro\u0161kem","sort_rank":257,"kind_detail":"3","min_zoom":6.8,"id":1970},"arcs":[168]},{"type":"MultiLineString","properties":{"source":"naturalearthdata.com","kind":"macroregion","name":"Luce - \u010crna na Koro\u0161kem","sort_rank":257,"kind_detail":"3","min_zoom":6.8,"id":1971},"arcs":[[169],[170]]},{"type":"LineString","properties":{"source":"naturalearthdata.com","kind":"macroregion","name":"Solcava - \u010crna na Koro\u0161kem","sort_rank":257,"kind_detail":"3","min_zoom":6.8,"id":1972},"arcs":[171]},{"type":"LineString","properties":{"source":"naturalearthdata.com","kind":"macroregion","name":"Ormo\u017e - Zavrc","sort_rank":257,"kind_detail":"3","min_zoom":6.8,"id":1976},"arcs":[172]},{"type":"LineString","properties":{"source":"naturalearthdata.com","kind":"macroregion","name":"Gori\u0161nica - Ormo\u017e","sort_rank":257,"kind_detail":"3","min_zoom":6.8,"id":1977},"arcs":[173]},{"type":"LineString","properties":{"source":"naturalearthdata.com","kind":"macroregion","name":"\u0160entjur pri Celju - Kr\u0161ko","sort_rank":257,"kind_detail":"3","min_zoom":6.8,"id":1989},"arcs":[174]},{"type":"LineString","properties":{"source":"naturalearthdata.com","kind":"macroregion","name":"Sevnica - \u0160entjur pri Celju","sort_rank":257,"kind_detail":"3","min_zoom":6.8,"id":1992},"arcs":[175]},{"type":"MultiLineString","properties":{"source":"naturalearthdata.com","kind":"macroregion","name":"Gornja Radgona - Benedikt","sort_rank":257,"kind_detail":"3","min_zoom":6.8,"id":2001},"arcs":[[176],[177],[178]]},{"type":"LineString","properties":{"source":"naturalearthdata.com","kind":"macroregion","name":"Sveta Ana - Apace","sort_rank":257,"kind_detail":"3","min_zoom":6.8,"id":2002},"arcs":[179]},{"type":"LineString","properties":{"source":"naturalearthdata.com","kind":"macroregion","name":"Sveta Ana - Gornja Radgona","sort_rank":257,"kind_detail":"3","min_zoom":6.8,"id":2003},"arcs":[180]},{"type":"LineString","properties":{"source":"naturalearthdata.com","kind":"macroregion","name":"Cerkvenjak - Gornja Radgona","sort_rank":257,"kind_detail":"3","min_zoom":6.8,"id":2004},"arcs":[181]},{"type":"MultiLineString","properties":{"source":"naturalearthdata.com","kind":"macroregion","name":"Ilirska Bistrica - Hrpelje-Kozina","sort_rank":257,"kind_detail":"3","min_zoom":6.8,"id":2195},"arcs":[[182],[183],[184]]},{"type":"LineString","properties":{"source":"naturalearthdata.com","kind":"macroregion","name":"Kamnik - Jezersko","sort_rank":257,"kind_detail":"3","min_zoom":6.8,"id":2203},"arcs":[185]},{"type":"MultiLineString","properties":{"source":"naturalearthdata.com","kind":"macroregion","name":"Kamnik - Solcava","sort_rank":257,"kind_detail":"3","min_zoom":6.8,"id":2205},"arcs":[[186],[187]]},{"type":"LineString","properties":{"source":"naturalearthdata.com","kind":"macroregion","name":"Jezersko - Solcava","sort_rank":257,"kind_detail":"3","min_zoom":6.8,"id":2207},"arcs":[188]},{"type":"LineString","properties":{"source":"naturalearthdata.com","kind":"macroregion","name":"Krsko - Kr\u0161ko","sort_rank":257,"kind_detail":"3","min_zoom":6.8,"id":2222},"arcs":[189]},{"type":"LineString","properties":{"source":"naturalearthdata.com","kind":"macroregion","name":"Ivancna Gorica - Grosuplje","sort_rank":257,"kind_detail":"3","min_zoom":6.8,"id":2134},"arcs":[190]},{"type":"MultiLineString","properties":{"source":"naturalearthdata.com","kind":"macroregion","name":"Hrastnik - Radece","sort_rank":257,"kind_detail":"3","min_zoom":6.8,"id":2142},"arcs":[[191],[192]]},{"type":"MultiLineString","properties":{"source":"naturalearthdata.com","kind":"macroregion","name":"La\u0161ko - Hrastnik","sort_rank":257,"kind_detail":"3","min_zoom":6.8,"id":2143},"arcs":[[193],[194],[195]]},{"type":"LineString","properties":{"source":"naturalearthdata.com","kind":"macroregion","name":"Radece - Trbovlje","sort_rank":257,"kind_detail":"3","min_zoom":6.8,"id":2150},"arcs":[196]},{"type":"MultiLineString","properties":{"source":"naturalearthdata.com","kind":"macroregion","name":"Prebold - Trbovlje","sort_rank":257,"kind_detail":"3","min_zoom":6.8,"id":2152},"arcs":[[197],[198]]},{"type":"LineString","properties":{"source":"naturalearthdata.com","kind":"macroregion","name":"Tabor - Zasavska","sort_rank":257,"kind_detail":"3","min_zoom":6.8,"id":2162},"arcs":[199]},{"type":"MultiLineString","properties":{"source":"naturalearthdata.com","kind":"macroregion","name":"Trbovlje - Tabor","sort_rank":257,"kind_detail":"3","min_zoom":6.8,"id":2164},"arcs":[[200],[201]]},{"type":"MultiLineString","properties":{"source":"naturalearthdata.com","kind":"macroregion","name":"Litija - Trbovlje","sort_rank":257,"kind_detail":"3","min_zoom":6.8,"id":2166},"arcs":[[202],[203]]},{"type":"LineString","properties":{"source":"naturalearthdata.com","kind":"macroregion","name":"Trbovlje - Radece","sort_rank":257,"kind_detail":"3","min_zoom":6.8,"id":2167},"arcs":[204]},{"type":"MultiLineString","properties":{"source":"naturalearthdata.com","kind":"macroregion","name":"Ribnica na Pohorju - Mislinja","sort_rank":257,"kind_detail":"3","min_zoom":6.8,"id":2171},"arcs":[[205],[206],[207]]},{"type":"LineString","properties":{"source":"naturalearthdata.com","kind":"macroregion","name":"Lo\u0161ki Potok - Lo\u0161ka dolina","sort_rank":257,"kind_detail":"3","min_zoom":6.8,"id":2188},"arcs":[208]},{"type":"LineString","properties":{"source":"naturalearthdata.com","kind":"macroregion","name":"Divaca - Ilirska Bistrica","sort_rank":257,"kind_detail":"3","min_zoom":6.8,"id":2193},"arcs":[209]},{"type":"LineString","properties":{"source":"naturalearthdata.com","kind":"macroregion","name":"\u0160entjernej - Kr\u0161ko","sort_rank":257,"kind_detail":"3","min_zoom":6.8,"id":2223},"arcs":[210]},{"type":"MultiLineString","properties":{"source":"naturalearthdata.com","kind":"macroregion","name":"Oplotnica - Slovenska Bistrica","sort_rank":257,"kind_detail":"3","min_zoom":6.8,"id":2258},"arcs":[[211],[212],[213]]},{"type":"LineString","properties":{"source":"naturalearthdata.com","kind":"macroregion","name":"Zrece - Slovenska Bistrica","sort_rank":257,"kind_detail":"3","min_zoom":6.8,"id":2261},"arcs":[214]},{"type":"MultiLineString","properties":{"source":"naturalearthdata.com","kind":"macroregion","name":"Slovenska Bistrica - Roga\u0161ka Slatina","sort_rank":257,"kind_detail":"3","min_zoom":6.8,"id":2264},"arcs":[[215],[216],[217]]},{"type":"LineString","properties":{"source":"naturalearthdata.com","kind":"macroregion","name":"\u0160marje pri Jel\u0161ah - Slovenska Bistrica","sort_rank":257,"kind_detail":"3","min_zoom":6.8,"id":2265},"arcs":[218]},{"type":"LineString","properties":{"source":"naturalearthdata.com","kind":"macroregion","name":"Ormo\u017e - Dornava","sort_rank":257,"kind_detail":"3","min_zoom":6.8,"id":2277},"arcs":[219]},{"type":"LineString","properties":{"source":"naturalearthdata.com","kind":"macroregion","name":"Cerkvenjak - Sveti Jurij","sort_rank":257,"kind_detail":"3","min_zoom":6.8,"id":2285},"arcs":[220]},{"type":"LineString","properties":{"source":"naturalearthdata.com","kind":"macroregion","name":"Sveti Andra\u017e v Slovenskih Goricah - Sveti Jurij","sort_rank":257,"kind_detail":"3","min_zoom":6.8,"id":2286},"arcs":[221]},{"type":"LineString","properties":{"source":"naturalearthdata.com","kind":"macroregion","name":"Sveti Jurij - Jur\u0161inci","sort_rank":257,"kind_detail":"3","min_zoom":6.8,"id":2295},"arcs":[222]},{"type":"LineString","properties":{"source":"naturalearthdata.com","kind":"macroregion","name":"Trebnje - \u0160martno in Litiji","sort_rank":257,"kind_detail":"3","min_zoom":6.8,"id":2297},"arcs":[223]},{"type":"MultiLineString","properties":{"source":"naturalearthdata.com","kind":"macroregion","name":"Trebnje - Litija","sort_rank":257,"kind_detail":"3","min_zoom":6.8,"id":2298},"arcs":[[224],[225],[226],[227],[228]]},{"type":"LineString","properties":{"source":"naturalearthdata.com","kind":"macroregion","name":"Dobrepolje - Kocevje","sort_rank":257,"kind_detail":"3","min_zoom":6.8,"id":2300},"arcs":[229]},{"type":"LineString","properties":{"source":"naturalearthdata.com","kind":"macroregion","name":"Velike La\u0161\u010de - Sodra\u017eica","sort_rank":257,"kind_detail":"3","min_zoom":6.8,"id":2308},"arcs":[230]},{"type":"LineString","properties":{"source":"naturalearthdata.com","kind":"macroregion","name":"Sodra\u017eica - Bloke","sort_rank":257,"kind_detail":"3","min_zoom":6.8,"id":2310},"arcs":[231]},{"type":"LineString","properties":{"source":"naturalearthdata.com","kind":"macroregion","name":"Ribnica - Velike La\u0161\u010de","sort_rank":257,"kind_detail":"3","min_zoom":6.8,"id":2311},"arcs":[232]},{"type":"LineString","properties":{"source":"naturalearthdata.com","kind":"macroregion","name":"Ribnica - Dobrepolje","sort_rank":257,"kind_detail":"3","min_zoom":6.8,"id":2312},"arcs":[233]},{"type":"LineString","properties":{"source":"naturalearthdata.com","kind":"macroregion","name":"Kr\u0161ko - \u0160kocjan","sort_rank":257,"kind_detail":"3","min_zoom":6.8,"id":2320},"arcs":[234]},{"type":"LineString","properties":{"source":"naturalearthdata.com","kind":"macroregion","name":"Sevnica - Litija","sort_rank":257,"kind_detail":"3","min_zoom":6.8,"id":2321},"arcs":[235]},{"type":"MultiLineString","properties":{"source":"naturalearthdata.com","kind":"macroregion","name":"Radece - Sevnica","sort_rank":257,"kind_detail":"3","min_zoom":6.8,"id":2322},"arcs":[[236],[237],[238]]},{"type":"MultiLineString","properties":{"source":"naturalearthdata.com","kind":"macroregion","name":"La\u0161ko - Sevnica","sort_rank":257,"kind_detail":"3","min_zoom":6.8,"id":2323},"arcs":[[239],[240],[241]]},{"type":"MultiLineString","properties":{"source":"naturalearthdata.com","kind":"macroregion","name":"Sevnica - Trebnje","sort_rank":257,"kind_detail":"3","min_zoom":6.8,"id":2325},"arcs":[[242],[243],[244]]},{"type":"MultiLineString","properties":{"source":"naturalearthdata.com","kind":"macroregion","name":"Sevnica - \u0160kocjan","sort_rank":257,"kind_detail":"3","min_zoom":6.8,"id":2326},"arcs":[[245],[246],[247],[248]]},{"type":"LineString","properties":{"source":"naturalearthdata.com","kind":"macroregion","name":"\u017du\u017eemberk - Dobrepolje","sort_rank":257,"kind_detail":"3","min_zoom":6.8,"id":2328},"arcs":[249]},{"type":"MultiLineString","properties":{"source":"naturalearthdata.com","kind":"region","name":"Zagrebacka - Krapinsko-Zagorska","sort_rank":256,"kind_detail":"4","min_zoom":7.0,"id":4275},"arcs":[[250],[251],[252]]},{"type":"MultiLineString","properties":{"source":"naturalearthdata.com","kind":"region","name":"Krapinsko-Zagorska - Grad Zagreb","sort_rank":256,"kind_detail":"4","min_zoom":7.0,"id":4266},"arcs":[[253],[254]]},{"type":"MultiLineString","properties":{"source":"naturalearthdata.com","kind":"region","name":"Krapinsko-Zagorska - Vara\u017edinska","sort_rank":256,"kind_detail":"4","min_zoom":7.0,"id":4260},"arcs":[[255],[256],[257],[258],[259],[260],[261],[262],[263],[264],[265]]},{"type":"MultiLineString","properties":{"source":"naturalearthdata.com","kind":"region","name":"Vara\u017edinska - Koprivni\u010dko-Kri\u017eeva\u010dka","sort_rank":256,"kind_detail":"4","min_zoom":7.0,"id":4261},"arcs":[[266],[267],[268],[269],[270],[271],[272]]},{"type":"MultiLineString","properties":{"source":"naturalearthdata.com","kind":"region","name":"Medimurska - Koprivni\u010dko-Kri\u017eeva\u010dka","sort_rank":256,"kind_detail":"4","min_zoom":7.0,"id":4262},"arcs":[[273],[274]]},{"type":"MultiLineString","properties":{"source":"naturalearthdata.com","kind":"region","name":"Medimurska - Vara\u017edinska","sort_rank":256,"kind_detail":"4","min_zoom":7.0,"id":4263},"arcs":[[275],[276],[277]]},{"type":"MultiLineString","properties":{"source":"naturalearthdata.com","kind":"region","name":"Bjelovarska-Bilogorska - Koprivni\u010dko-Kri\u017eeva\u010dka","sort_rank":256,"kind_detail":"4","min_zoom":7.0,"id":4264},"arcs":[[278],[279],[280],[281]]},{"type":"MultiLineString","properties":{"source":"naturalearthdata.com","kind":"region","name":"Krapinsko-Zagorska - Zagrebacka","sort_rank":256,"kind_detail":"4","min_zoom":7.0,"id":4271},"arcs":[[282],[283],[284],[285],[286],[287]]},{"type":"MultiLineString","properties":{"source":"naturalearthdata.com","kind":"region","name":"Koprivni\u010dko-Kri\u017eeva\u010dka - Zagrebacka","sort_rank":256,"kind_detail":"4","min_zoom":7.0,"id":4272},"arcs":[[288],[289],[290],[291],[292],[293],[294]]},{"type":"MultiLineString","properties":{"source":"naturalearthdata.com","kind":"region","name":"Zagrebacka - Vara\u017edinska","sort_rank":256,"kind_detail":"4","min_zoom":7.0,"id":4273},"arcs":[[295],[296]]},{"type":"MultiLineString","properties":{"source":"naturalearthdata.com","kind":"region","name":"Zagrebacka - Bjelovarska-Bilogorska","sort_rank":256,"kind_detail":"4","min_zoom":7.0,"id":4274},"arcs":[[297],[298],[299],[300],[301]]},{"type":"MultiLineString","properties":{"source":"naturalearthdata.com","kind":"region","name":"Grad Zagreb - Zagrebacka","sort_rank":256,"kind_detail":"4","min_zoom":7.0,"id":4276},"arcs":[[302],[303],[304],[305],[306],[307],[308],[309],[310],[311]]},{"type":"MultiLineString","properties":{"source":"naturalearthdata.com","kind":"region","name":"Sisacko-Moslavacka - Bjelovarska-Bilogorska","sort_rank":256,"kind_detail":"4","min_zoom":7.0,"id":4277},"arcs":[[312],[313],[314],[315],[316],[317]]},{"type":"MultiLineString","properties":{"source":"naturalearthdata.com","kind":"region","name":"Sisacko-Moslavacka - Zagrebacka","sort_rank":256,"kind_detail":"4","min_zoom":7.0,"id":4278},"arcs":[[318],[319],[320],[321],[322],[323],[324],[325],[326],[327]]},{"type":"MultiLineString","properties":{"source":"naturalearthdata.com","kind":"region","name":"Zagrebacka - Sisacko-Moslavacka","sort_rank":256,"kind_detail":"4","min_zoom":7.0,"id":4280},"arcs":[[328],[329],[330],[331],[332],[333]]},{"type":"MultiLineString","properties":{"source":"naturalearthdata.com","kind":"region","name":"Zagrebacka - Sisacko-Moslavacka","sort_rank":256,"kind_detail":"4","min_zoom":7.0,"id":4281},"arcs":[[334],[335]]},{"type":"MultiLineString","properties":{"source":"naturalearthdata.com","kind":"region","name":"Primorsko-Goranska - Karlovacka","sort_rank":256,"kind_detail":"4","min_zoom":6.8,"id":4288},"arcs":[[336],[337],[338]]},{"type":"MultiLineString","properties":{"source":"naturalearthdata.com","kind":"region","name":"Karlovacka - Zagrebacka","sort_rank":256,"kind_detail":"4","min_zoom":7.0,"id":4289},"arcs":[[339],[340],[341],[342],[343],[344],[345]]},{"type":"MultiLineString","properties":{"source":"naturalearthdata.com","kind":"region","name":"Sisacko-Moslavacka - Karlovacka","sort_rank":256,"kind_detail":"4","min_zoom":7.0,"id":4290},"arcs":[[346],[347],[348],[349],[350],[351],[352],[353],[354],[355],[356],[357],[358]]},{"type":"LineString","properties":{"source":"naturalearthdata.com","kind":"region","name":"Primorsko-Goranska - Istarska","sort_rank":256,"kind_detail":"4","min_zoom":7.0,"id":4292},"arcs":[359]},{"type":"LineString","properties":{"source":"naturalearthdata.com","kind":"region","name":"Licko-Senjska - Primorsko-Goranska","sort_rank":256,"kind_detail":"4","min_zoom":7.0,"id":4294},"arcs":[360]},{"type":"MultiLineString","properties":{"source":"naturalearthdata.com","kind":"region","name":"Karlovacka - Licko-Senjska","sort_rank":256,"kind_detail":"4","min_zoom":6.8,"id":4296},"arcs":[[361],[362],[363]]},{"type":"LineString","properties":{"source":"naturalearthdata.com","kind":"region","name":"Burgenland - Steiermark","sort_rank":256,"kind_detail":"4","min_zoom":6.0,"id":5013},"arcs":[364]},{"type":"MultiLineString","properties":{"source":"naturalearthdata.com","kind":"region","name":"Steiermark - K\u00e4rnten","sort_rank":256,"kind_detail":"4","min_zoom":6.0,"id":5015},"arcs":[[365],[366],[367],[368],[369],[370],[371],[372]]},{"type":"MultiLineString","properties":{"source":"naturalearthdata.com","kind":"region","name":"Zala - Vas","sort_rank":256,"kind_detail":"4","min_zoom":6.7,"id":7507},"arcs":[[373],[374],[375]]},{"type":"LineString","properties":{"source":"naturalearthdata.com","kind":"region","name":"Primorsko-Goranska - Istarska","sort_rank":256,"kind_detail":"4","min_zoom":7.0,"id":7919},"arcs":[376]},{"type":"MultiLineString","properties":{"source":"naturalearthdata.com","kind":"region","name":"Zala - Zalaegerszeg","sort_rank":256,"kind_detail":"4","min_zoom":7.0,"id":8203},"arcs":[[377],[378],[379]]}]},"roads":{"type":"GeometryCollection","geometries":[{"type":"LineString","properties":{"kind":"highway","network":"e-road","sort_rank":383,"kind_detail":"motorway","source":"naturalearthdata.com","min_zoom":3.0,"all_networks":["e-road"],"landuse_kind":"urban_area","shield_text":"70","ref":"70","id":4219,"all_shield_texts":["70"]},"arcs":[666]},{"type":"LineString","properties":{"kind":"highway","network":"e-road","sort_rank":383,"kind_detail":"motorway","source":"naturalearthdata.com","min_zoom":3.0,"all_networks":["e-road"],"shield_text":"70","ref":"70","id":4219,"all_shield_texts":["70"]},"arcs":[667]},{"type":"LineString","properties":{"kind":"highway","network":"e-road","sort_rank":383,"kind_detail":"motorway","source":"naturalearthdata.com","min_zoom":4.0,"all_networks":["e-road"],"landuse_kind":"urban_area","shield_text":"59","ref":"59","id":4513,"all_shield_texts":["59"]},"arcs":[668]},{"type":"LineString","properties":{"kind":"highway","network":"e-road","sort_rank":383,"kind_detail":"motorway","source":"naturalearthdata.com","min_zoom":4.0,"all_networks":["e-road"],"shield_text":"59","ref":"59","id":4513,"all_shield_texts":["59"]},"arcs":[669]},{"type":"LineString","properties":{"kind":"highway","network":"e-road","sort_rank":383,"kind_detail":"motorway","source":"naturalearthdata.com","min_zoom":4.0,"all_networks":["e-road"],"shield_text":"70","ref":"70","id":4532,"all_shield_texts":["70"]},"arcs":[670]},{"type":"LineString","properties":{"source":"naturalearthdata.com","kind":"highway","sort_rank":383,"kind_detail":"motorway","min_zoom":4.0,"id":4536},"arcs":[671]},{"type":"LineString","properties":{"kind":"highway","network":"e-road","sort_rank":383,"kind_detail":"motorway","source":"naturalearthdata.com","min_zoom":3.0,"all_networks":["e-road"],"landuse_kind":"urban_area","shield_text":"65","ref":"65","id":4537,"all_shield_texts":["65"]},"arcs":[672]},{"type":"LineString","properties":{"kind":"highway","network":"e-road","sort_rank":383,"kind_detail":"motorway","source":"naturalearthdata.com","min_zoom":3.0,"all_networks":["e-road"],"shield_text":"65","ref":"65","id":4537,"all_shield_texts":["65"]},"arcs":[673]},{"type":"LineString","properties":{"kind":"highway","network":"e-road","sort_rank":383,"kind_detail":"motorway","source":"naturalearthdata.com","min_zoom":3.0,"all_networks":["e-road"],"landuse_kind":"urban_area","shield_text":"65","ref":"65","id":4538,"all_shield_texts":["65"]},"arcs":[674]},{"type":"LineString","properties":{"kind":"highway","network":"e-road","sort_rank":383,"kind_detail":"motorway","source":"naturalearthdata.com","min_zoom":3.0,"all_networks":["e-road"],"landuse_kind":"urban_area","shield_text":"65","ref":"65","id":4538,"all_shield_texts":["65"]},"arcs":[675]},{"type":"LineString","properties":{"kind":"highway","network":"e-road","sort_rank":383,"kind_detail":"motorway","source":"naturalearthdata.com","min_zoom":3.0,"all_networks":["e-road"],"shield_text":"65","ref":"65","id":4538,"all_shield_texts":["65"]},"arcs":[676]},{"type":"LineString","properties":{"kind":"highway","network":"e-road","sort_rank":383,"kind_detail":"motorway","source":"naturalearthdata.com","min_zoom":4.0,"all_networks":["e-road"],"shield_text":"71","ref":"71","id":4541,"all_shield_texts":["71"]},"arcs":[677]},{"type":"LineString","properties":{"kind":"highway","network":"e-road","sort_rank":383,"kind_detail":"motorway","source":"naturalearthdata.com","min_zoom":4.0,"all_networks":["e-road"],"landuse_kind":"urban_area","shield_text":"65","ref":"65","id":4542,"all_shield_texts":["65"]},"arcs":[678]},{"type":"MultiLineString","properties":{"kind":"highway","network":"e-road","sort_rank":383,"kind_detail":"motorway","source":"naturalearthdata.com","min_zoom":4.0,"all_networks":["e-road"],"shield_text":"65","ref":"65","id":4542,"all_shield_texts":["65"]},"arcs":[[679],[680]]},{"type":"MultiLineString","properties":{"kind":"highway","network":"e-road","sort_rank":383,"kind_detail":"motorway","source":"naturalearthdata.com","min_zoom":4.0,"all_networks":["e-road"],"landuse_kind":"urban_area","shield_text":"65","ref":"65","id":4543,"all_shield_texts":["65"]},"arcs":[[681],[682]]},{"type":"MultiLineString","properties":{"kind":"highway","network":"e-road","sort_rank":383,"kind_detail":"motorway","source":"naturalearthdata.com","min_zoom":4.0,"all_networks":["e-road"],"shield_text":"65","ref":"65","id":4543,"all_shield_texts":["65"]},"arcs":[[683],[684]]},{"type":"LineString","properties":{"kind":"highway","network":"e-road","sort_rank":383,"kind_detail":"motorway","source":"naturalearthdata.com","min_zoom":3.0,"all_networks":["e-road"],"landuse_kind":"urban_area","shield_text":"70","ref":"70","id":4568,"all_shield_texts":["70"]},"arcs":[685]},{"type":"LineString","properties":{"kind":"highway","network":"e-road","sort_rank":383,"kind_detail":"motorway","source":"naturalearthdata.com","min_zoom":3.0,"all_networks":["e-road"],"landuse_kind":"urban_area","shield_text":"70","ref":"70","id":4568,"all_shield_texts":["70"]},"arcs":[686]},{"type":"LineString","properties":{"kind":"highway","network":"e-road","sort_rank":383,"kind_detail":"motorway","source":"naturalearthdata.com","min_zoom":3.0,"all_networks":["e-road"],"landuse_kind":"urban_area","shield_text":"70","ref":"70","id":4568,"all_shield_texts":["70"]},"arcs":[687]},{"type":"MultiLineString","properties":{"kind":"highway","network":"e-road","sort_rank":383,"kind_detail":"motorway","source":"naturalearthdata.com","min_zoom":3.0,"all_networks":["e-road"],"shield_text":"70","ref":"70","id":4568,"all_shield_texts":["70"]},"arcs":[[688],[689],[690]]},{"type":"LineString","properties":{"kind":"highway","network":"e-road","sort_rank":383,"kind_detail":"motorway","source":"naturalearthdata.com","min_zoom":4.0,"all_networks":["e-road"],"landuse_kind":"urban_area","shield_text":"66","ref":"66","id":4569,"all_shield_texts":["66"]},"arcs":[691]},{"type":"LineString","properties":{"kind":"highway","network":"e-road","sort_rank":383,"kind_detail":"motorway","source":"naturalearthdata.com","min_zoom":4.0,"all_networks":["e-road"],"landuse_kind":"urban_area","shield_text":"66","ref":"66","id":4569,"all_shield_texts":["66"]},"arcs":[692]},{"type":"MultiLineString","properties":{"kind":"highway","network":"e-road","sort_rank":383,"kind_detail":"motorway","source":"naturalearthdata.com","min_zoom":4.0,"all_networks":["e-road"],"shield_text":"66","ref":"66","id":4569,"all_shield_texts":["66"]},"arcs":[[693],[694]]},{"type":"LineString","properties":{"kind":"highway","network":"e-road","sort_rank":383,"kind_detail":"motorway","source":"naturalearthdata.com","min_zoom":4.0,"all_networks":["e-road"],"landuse_kind":"urban_area","shield_text":"61","ref":"61","id":4571,"all_shield_texts":["61"]},"arcs":[695]},{"type":"LineString","properties":{"kind":"highway","network":"e-road","sort_rank":383,"kind_detail":"motorway","source":"naturalearthdata.com","min_zoom":4.0,"all_networks":["e-road"],"shield_text":"61","ref":"61","id":4571,"all_shield_texts":["61"]},"arcs":[696]},{"type":"LineString","properties":{"source":"naturalearthdata.com","kind":"highway","sort_rank":383,"kind_detail":"motorway","min_zoom":3.0,"id":4598},"arcs":[697]},{"type":"LineString","properties":{"kind":"highway","network":"e-road","sort_rank":383,"kind_detail":"motorway","source":"naturalearthdata.com","min_zoom":3.0,"all_networks":["e-road"],"landuse_kind":"urban_area","shield_text":"61","ref":"61","id":4686,"all_shield_texts":["61"]},"arcs":[698]},{"type":"LineString","properties":{"kind":"highway","network":"e-road","sort_rank":383,"kind_detail":"motorway","source":"naturalearthdata.com","min_zoom":3.0,"all_networks":["e-road"],"landuse_kind":"urban_area","shield_text":"61","ref":"61","id":4686,"all_shield_texts":["61"]},"arcs":[699]},{"type":"LineString","properties":{"kind":"highway","network":"e-road","sort_rank":383,"kind_detail":"motorway","source":"naturalearthdata.com","min_zoom":3.0,"all_networks":["e-road"],"landuse_kind":"urban_area","shield_text":"61","ref":"61","id":4686,"all_shield_texts":["61"]},"arcs":[700]},{"type":"MultiLineString","properties":{"kind":"highway","network":"e-road","sort_rank":383,"kind_detail":"motorway","source":"naturalearthdata.com","min_zoom":3.0,"all_networks":["e-road"],"shield_text":"61","ref":"61","id":4686,"all_shield_texts":["61"]},"arcs":[[701],[702],[703]]},{"type":"LineString","properties":{"source":"naturalearthdata.com","kind":"major_road","sort_rank":380,"kind_detail":"primary","min_zoom":4.0,"id":5106},"arcs":[704]},{"type":"LineString","properties":{"kind":"major_road","network":"e-road","sort_rank":380,"kind_detail":"primary","source":"naturalearthdata.com","min_zoom":3.0,"shield_text":"65","ref":"65","id":5107},"arcs":[705]},{"type":"LineString","properties":{"source":"naturalearthdata.com","kind":"major_road","kind_detail":"primary","sort_rank":380,"landuse_kind":"urban_area","min_zoom":4.0,"id":5108},"arcs":[706]},{"type":"LineString","properties":{"source":"naturalearthdata.com","kind":"major_road","sort_rank":380,"kind_detail":"primary","min_zoom":4.0,"id":5108},"arcs":[707]},{"type":"LineString","properties":{"source":"naturalearthdata.com","kind":"highway","kind_detail":"motorway","sort_rank":383,"landuse_kind":"urban_area","min_zoom":4.0,"id":5109},"arcs":[708]},{"type":"LineString","properties":{"source":"naturalearthdata.com","kind":"highway","sort_rank":383,"kind_detail":"motorway","min_zoom":4.0,"id":5109},"arcs":[709]},{"type":"LineString","properties":{"kind":"highway","network":"e-road","sort_rank":383,"kind_detail":"motorway","source":"naturalearthdata.com","min_zoom":4.0,"all_networks":["e-road"],"shield_text":"66","ref":"66","id":5128,"all_shield_texts":["66"]},"arcs":[710]},{"type":"MultiLineString","properties":{"kind":"highway","network":"e-road","sort_rank":383,"kind_detail":"motorway","source":"naturalearthdata.com","min_zoom":3.0,"all_networks":["e-road"],"landuse_kind":"urban_area","shield_text":"61","ref":"61","id":5147,"all_shield_texts":["61"]},"arcs":[[711],[712]]},{"type":"LineString","properties":{"kind":"highway","network":"e-road","sort_rank":383,"kind_detail":"motorway","source":"naturalearthdata.com","min_zoom":3.0,"all_networks":["e-road"],"shield_text":"61","ref":"61","id":5147,"all_shield_texts":["61"]},"arcs":[713]},{"type":"LineString","properties":{"source":"naturalearthdata.com","kind":"highway","kind_detail":"motorway","sort_rank":383,"landuse_kind":"urban_area","min_zoom":6.0,"id":5159},"arcs":[714]},{"type":"MultiLineString","properties":{"source":"naturalearthdata.com","kind":"highway","sort_rank":383,"kind_detail":"motorway","min_zoom":6.0,"id":5159},"arcs":[[715],[716]]},{"type":"LineString","properties":{"source":"naturalearthdata.com","kind":"major_road","kind_detail":"primary","sort_rank":380,"landuse_kind":"urban_area","min_zoom":6.0,"id":5166},"arcs":[717]},{"type":"LineString","properties":{"kind":"highway","network":"e-road","sort_rank":383,"kind_detail":"motorway","source":"naturalearthdata.com","min_zoom":6.0,"all_networks":["e-road"],"landuse_kind":"urban_area","shield_text":"57","ref":"57","id":5382,"all_shield_texts":["57"]},"arcs":[718]},{"type":"LineString","properties":{"kind":"highway","network":"e-road","sort_rank":383,"kind_detail":"motorway","source":"naturalearthdata.com","min_zoom":6.0,"all_networks":["e-road"],"landuse_kind":"urban_area","shield_text":"57","ref":"57","id":5382,"all_shield_texts":["57"]},"arcs":[719]},{"type":"LineString","properties":{"kind":"highway","network":"e-road","sort_rank":383,"kind_detail":"motorway","source":"naturalearthdata.com","min_zoom":6.0,"all_networks":["e-road"],"landuse_kind":"urban_area","shield_text":"57","ref":"57","id":5382,"all_shield_texts":["57"]},"arcs":[720]},{"type":"LineString","properties":{"kind":"highway","network":"e-road","sort_rank":383,"kind_detail":"motorway","source":"naturalearthdata.com","min_zoom":6.0,"all_networks":["e-road"],"landuse_kind":"urban_area","shield_text":"57","ref":"57","id":5382,"all_shield_texts":["57"]},"arcs":[721]},{"type":"MultiLineString","properties":{"kind":"highway","network":"e-road","sort_rank":383,"kind_detail":"motorway","source":"naturalearthdata.com","min_zoom":6.0,"all_networks":["e-road"],"shield_text":"57","ref":"57","id":5382,"all_shield_texts":["57"]},"arcs":[[722],[723],[724],[725]]},{"type":"LineString","properties":{"kind":"highway","network":"e-road","sort_rank":383,"kind_detail":"motorway","source":"naturalearthdata.com","min_zoom":6.0,"all_networks":["e-road"],"landuse_kind":"urban_area","shield_text":"57","ref":"57","id":5387,"all_shield_texts":["57"]},"arcs":[726]},{"type":"LineString","properties":{"kind":"highway","network":"e-road","sort_rank":383,"kind_detail":"motorway","source":"naturalearthdata.com","min_zoom":6.0,"all_networks":["e-road"],"landuse_kind":"urban_area","shield_text":"61","ref":"61","id":5389,"all_shield_texts":["61"]},"arcs":[727]},{"type":"LineString","properties":{"kind":"highway","network":"e-road","sort_rank":383,"kind_detail":"motorway","source":"naturalearthdata.com","min_zoom":6.0,"all_networks":["e-road"],"shield_text":"61","ref":"61","id":5389,"all_shield_texts":["61"]},"arcs":[728]},{"type":"LineString","properties":{"source":"naturalearthdata.com","kind":"highway","kind_detail":"motorway","sort_rank":383,"landuse_kind":"urban_area","min_zoom":6.0,"id":5390},"arcs":[729]},{"type":"LineString","properties":{"source":"naturalearthdata.com","kind":"highway","kind_detail":"motorway","sort_rank":383,"landuse_kind":"urban_area","min_zoom":6.0,"id":5391},"arcs":[730]},{"type":"LineString","properties":{"source":"naturalearthdata.com","kind":"highway","sort_rank":383,"kind_detail":"motorway","min_zoom":6.0,"id":5391},"arcs":[731]},{"type":"LineString","properties":{"kind":"highway","network":"e-road","sort_rank":383,"kind_detail":"motorway","source":"naturalearthdata.com","min_zoom":6.0,"all_networks":["e-road"],"shield_text":"65","ref":"65","id":5392,"all_shield_texts":["65"]},"arcs":[732]},{"type":"LineString","properties":{"source":"naturalearthdata.com","kind":"highway","kind_detail":"motorway","sort_rank":383,"landuse_kind":"nature_reserve","min_zoom":6.0,"id":5394},"arcs":[733]},{"type":"LineString","properties":{"source":"naturalearthdata.com","kind":"highway","kind_detail":"motorway","sort_rank":383,"landuse_kind":"urban_area","min_zoom":6.0,"id":5394},"arcs":[734]},{"type":"MultiLineString","properties":{"source":"naturalearthdata.com","kind":"highway","sort_rank":383,"kind_detail":"motorway","min_zoom":6.0,"id":5394},"arcs":[[735],[736]]},{"type":"LineString","properties":{"source":"naturalearthdata.com","kind":"highway","sort_rank":383,"kind_detail":"motorway","min_zoom":6.0,"id":5395},"arcs":[737]},{"type":"LineString","properties":{"kind":"highway","network":"e-road","sort_rank":383,"kind_detail":"motorway","source":"naturalearthdata.com","min_zoom":6.0,"all_networks":["e-road"],"landuse_kind":"urban_area","shield_text":"57","ref":"57","id":5411,"all_shield_texts":["57"]},"arcs":[738]},{"type":"LineString","properties":{"kind":"highway","network":"e-road","sort_rank":383,"kind_detail":"motorway","source":"naturalearthdata.com","min_zoom":6.0,"all_networks":["e-road"],"shield_text":"57","ref":"57","id":5411,"all_shield_texts":["57"]},"arcs":[739]},{"type":"MultiLineString","properties":{"kind":"major_road","network":"e-road","sort_rank":379,"kind_detail":"secondary","source":"naturalearthdata.com","min_zoom":6.0,"landuse_kind":"urban_area","shield_text":"65","ref":"65","id":5471},"arcs":[[740],[741]]},{"type":"MultiLineString","properties":{"kind":"major_road","network":"e-road","sort_rank":379,"kind_detail":"secondary","source":"naturalearthdata.com","min_zoom":6.0,"shield_text":"65","ref":"65","id":5471},"arcs":[[742],[743]]},{"type":"LineString","properties":{"kind":"major_road","network":"e-road","sort_rank":380,"kind_detail":"primary","source":"naturalearthdata.com","min_zoom":6.0,"shield_text":"61","ref":"61","id":5473},"arcs":[744]},{"type":"LineString","properties":{"kind":"highway","network":"e-road","sort_rank":383,"kind_detail":"motorway","source":"naturalearthdata.com","min_zoom":7.0,"all_networks":["e-road"],"landuse_kind":"urban_area","shield_text":"653","ref":"653","id":5904,"all_shield_texts":["653"]},"arcs":[745]},{"type":"LineString","properties":{"kind":"highway","network":"e-road","sort_rank":383,"kind_detail":"motorway","source":"naturalearthdata.com","min_zoom":7.0,"all_networks":["e-road"],"shield_text":"653","ref":"653","id":5904,"all_shield_texts":["653"]},"arcs":[746]},{"type":"LineString","properties":{"kind":"major_road","network":"e-road","sort_rank":380,"kind_detail":"primary","source":"naturalearthdata.com","min_zoom":7.0,"shield_text":"653","ref":"653","id":6262},"arcs":[747]},{"type":"LineString","properties":{"source":"naturalearthdata.com","kind":"major_road","sort_rank":380,"kind_detail":"primary","min_zoom":7.0,"id":6263},"arcs":[748]},{"type":"LineString","properties":{"kind":"major_road","network":"e-road","sort_rank":380,"kind_detail":"primary","source":"naturalearthdata.com","min_zoom":7.0,"shield_text":"65","ref":"65","id":6264},"arcs":[749]},{"type":"MultiLineString","properties":{"kind":"major_road","network":"e-road","sort_rank":380,"kind_detail":"primary","source":"naturalearthdata.com","min_zoom":7.0,"landuse_kind":"urban_area","shield_text":"65","ref":"65","id":6265},"arcs":[[750],[751]]},{"type":"MultiLineString","properties":{"kind":"major_road","network":"e-road","sort_rank":380,"kind_detail":"primary","source":"naturalearthdata.com","min_zoom":7.0,"shield_text":"65","ref":"65","id":6265},"arcs":[[752],[753],[754]]},{"type":"LineString","properties":{"kind":"major_road","network":"e-road","sort_rank":380,"kind_detail":"primary","source":"naturalearthdata.com","min_zoom":7.0,"landuse_kind":"urban_area","shield_text":"66","ref":"66","id":6266},"arcs":[755]},{"type":"MultiLineString","properties":{"kind":"major_road","network":"e-road","sort_rank":380,"kind_detail":"primary","source":"naturalearthdata.com","min_zoom":7.0,"shield_text":"66","ref":"66","id":6266},"arcs":[[756],[757]]},{"type":"LineString","properties":{"source":"naturalearthdata.com","kind":"highway","kind_detail":"motorway","sort_rank":383,"landuse_kind":"urban_area","min_zoom":6.0,"id":8111},"arcs":[758]},{"type":"LineString","properties":{"source":"naturalearthdata.com","kind":"highway","sort_rank":383,"kind_detail":"motorway","min_zoom":6.0,"id":8111},"arcs":[759]},{"type":"LineString","properties":{"source":"naturalearthdata.com","kind":"major_road","sort_rank":379,"kind_detail":"secondary","min_zoom":6.0,"id":55755},"arcs":[760]},{"type":"LineString","properties":{"source":"naturalearthdata.com","kind":"major_road","kind_detail":"secondary","sort_rank":379,"landuse_kind":"urban_area","min_zoom":6.0,"id":55814},"arcs":[761]}]},"earth":{"type":"GeometryCollection","geometries":[{"type":"MultiPolygon","properties":{"sort_rank":10,"source":"naturalearthdata.com","min_zoom":0.0,"kind":"earth","area":377852582613},"arcs":[[[762]],[[763]],[[764]]]}]},"landuse":{"type":"GeometryCollection","geometries":[{"type":"MultiPolygon","properties":{"kind":"national_park","protect_class":"2","area":7910954406,"sort_rank":18,"source":"openstreetmap.org","min_zoom":3.0,"tier":1,"osm_relation":true},"arcs":[[[765]]]},{"type":"Polygon","properties":{"source":"openstreetmap.org","kind":"nature_reserve","area":1052270016,"tier":2,"id":422036762,"min_zoom":4.0,"sort_rank":23},"arcs":[[766]]},{"type":"MultiPolygon","properties":{"source":"openstreetmap.org","kind":"park","tier":2,"area":1146664055,"sort_rank":24,"min_zoom":6.0,"osm_relation":true},"arcs":[[[767],[768]]]},{"type":"MultiPolygon","properties":{"source":"naturalearthdata.com","kind":"urban_area","name":"","area":18796458740,"sort_rank":11,"min_zoom":4.0},"arcs":[[[769]],[[770]],[[771]],[[772]],[[773]],[[774]],[[775]],[[776]],[[777]],[[778]],[[779]],[[780]],[[781]],[[782]],[[783]],[[784]],[[785]],[[786]],[[787]],[[788]],[[789]],[[790]],[[791]],[[792]],[[793]],[[794]],[[795]],[[796]],[[797]],[[798]],[[799]]]},{"type":"MultiPolygon","properties":{"source":"openstreetmap.org","kind":"nature_reserve","tier":2,"protect_class":"4","area":906144039,"sort_rank":23,"min_zoom":6.0},"arcs":[[[800]],[[801]]]},{"type":"Polygon","properties":{"kind":"nature_reserve","protect_class":"2","area":131718000,"sort_rank":23,"source":"openstreetmap.org","min_zoom":7.0,"tier":2,"id":321048598},"arcs":[[802]]},{"type":"MultiPolygon","properties":{"kind":"nature_reserve","protect_class":"4","area":1300404028,"sort_rank":23,"source":"openstreetmap.org","min_zoom":6.0,"tier":2,"osm_relation":true},"arcs":[[[803]]]}]}},"type":"Topology","transform":{"translate":[14.0625,45.0890355648],"scale":[0.0006866455,0.0004763541]},"arcs":[[[3322,3412],[-14,16],[-12,24],[-17,21],[-20,60],[-3,8],[2,8],[4,16],[13,22],[5,9],[10,24],[9,25],[3,19],[-7,11],[-21,1],[-13,7],[-6,8],[-22,27],[-15,8]],[[3218,3726],[-135,-11],[-64,-6]],[[3019,3709],[-8,2],[-52,13]],[[3572,2966],[-21,90],[-49,42],[-54,83],[-52,31],[-26,21],[-6,15],[-6,14],[14,21],[27,13],[9,8],[12,11],[-8,40],[-22,15],[-27,1],[-8,3],[-1,1],[-12,5],[0,35]],[[3342,3415],[-20,-3]],[[2959,3724],[-60,-36],[-31,-17],[-5,-2],[-59,-14],[-9,-5],[-14,-15],[1,-5],[7,-4],[1,-15],[-10,-65],[-1,-7],[-1,-30],[1,-37],[16,-51],[31,-20],[17,-32],[3,-49]],[[2846,3320],[-27,34],[-16,11],[-59,11],[-99,49],[-41,8]],[[2604,3433],[-40,-3],[-56,-23],[-43,-17],[-38,-2]],[[2427,3388],[-112,17],[-23,14]],[[2292,3419],[-5,-32],[0,-27],[-9,-18],[-7,-6],[-8,-5],[-18,-6]],[[2245,3325],[-22,6]],[[2223,3331],[-31,0],[-32,-8],[-22,-17],[-14,-30],[-1,-4],[-4,-20],[-5,-12],[-4,-9],[-27,-21],[-44,-7]],[[1664,3254],[-47,5],[-98,10],[-29,3],[-34,4]],[[1456,3276],[-84,-27],[-54,-77]],[[2039,3203],[-33,20],[-7,6],[-26,23],[-42,16]],[[1931,3268],[-81,-5],[-186,-9]],[[1318,3172],[-28,40],[-21,4]],[[1269,3216],[-21,-13],[-32,-19],[-5,-1],[-25,-3]],[[1186,3180],[-20,2]],[[1166,3182],[-19,-8],[-24,-35],[-16,-35],[-12,-34],[-10,-32],[-16,-35],[-12,-27],[-8,-7],[-32,-15],[-37,-6]],[[980,2948],[-13,9]],[[967,2957],[-24,-11],[-9,-10],[-7,-14],[-17,-20],[-11,-26]],[[436,2827],[-174,5],[-135,4],[-3,1],[-15,4],[-82,71],[-21,10],[-6,2]],[[899,2876],[-11,2],[-8,1]],[[880,2879],[-7,-2],[-29,-30],[-15,-10],[-15,-4],[-31,-3],[-15,-6],[-21,-31],[-12,-40],[-7,-18],[-7,-17],[-25,-11]],[[590,2779],[-24,3],[-20,10],[-25,11],[-8,10],[-5,12],[-7,10],[-16,3]],[[485,2838],[-49,-11]],[[696,2707],[-19,20],[-17,36],[-20,28]],[[640,2791],[-50,-12]],[[3427,3989],[7,2],[6,6],[25,5],[37,0],[28,7],[-6,22],[-21,19],[-21,7],[-42,5],[18,16],[44,18]],[[3242,4023],[54,-10]],[[2959,3724],[23,10],[19,18],[52,71],[17,18],[37,26],[31,13],[10,8],[10,15],[0,13],[-1,12],[4,12],[15,13],[14,3],[12,10],[6,31],[14,24],[20,2]],[[3356,4020],[30,-4],[26,-19],[7,-5],[8,-3]],[[3296,4013],[60,7]],[[3663,2900],[-20,20],[-62,39],[-9,7]],[[3921,2714],[-17,37],[-45,28],[-27,35],[-24,40],[-26,33],[-32,21],[-38,8],[-13,8],[-12,2]],[[3687,2926],[-9,-7],[-6,-19],[-9,0]],[[4027,2698],[-10,8],[-6,8],[-6,7],[-7,5],[-6,2],[-39,9],[-11,7]],[[3942,2744],[-11,-30],[-10,0]],[[4096,2586],[-5,13],[5,32]],[[4096,2632],[-14,34],[-9,12],[-13,18],[-18,18],[-8,0]],[[4034,2714],[-3,-9],[-4,-7]],[[3378,3045],[-18,2],[-17,14]],[[3343,3061],[-9,-16]],[[3334,3045],[-1,1],[-10,15]],[[3323,3061],[-6,-7],[-15,-18],[-28,-9],[-22,-14],[-46,-18],[-4,-4],[-38,-43],[-1,-18],[-1,-13],[6,-28],[17,-58],[1,-17],[-3,-34],[4,-17],[9,-11],[25,-16],[7,-10],[1,-19],[1,-5],[-7,-6]],[[3476,3001],[-13,1],[-12,9],[-25,26],[-13,8],[-16,1]],[[3397,3046],[-19,-1]],[[3572,2966],[-35,28],[-14,8],[-16,3]],[[3507,3005],[-31,-4]],[[3126,2683],[-25,6],[-21,12],[-35,33],[-14,7]],[[3031,2741],[-18,-3],[-12,-13],[-11,-16],[-14,-12],[-17,-3]],[[2959,2694],[-8,2],[-45,9]],[[2906,2705],[-1,-38],[4,-30],[0,-27],[-11,-29],[-4,-4],[-16,-17],[-28,-20],[-31,-16],[-7,-2],[-17,-4],[-48,-9],[-43,-24],[-52,-28],[-4,0],[-2,0],[-66,-2],[-23,-6],[-22,-11],[-5,-4],[-15,-11],[-30,-50],[-28,-18]],[[3223,2696],[-33,0]],[[3190,2696],[-52,-12],[-12,-1]],[[2457,2355],[-104,8],[-25,1]],[[2328,2364],[-31,-16],[-19,-26],[-6,-7],[-27,-52],[-20,-59],[-1,-53],[21,-48],[29,-30],[11,-12],[18,-11],[41,-17],[17,-13],[13,-20],[8,-12],[-6,-22],[-17,-25],[-12,-43],[2,-43],[2,-65],[-2,-35],[-7,-26],[-11,-25],[-5,-25],[6,-27],[17,-42],[1,-30],[-15,-21],[-29,-16],[-29,-8],[-56,-2]],[[2221,1533],[-55,9],[-38,7]],[[2128,1549],[-14,-7],[-27,-23],[-15,-5]],[[2072,1514],[-16,3],[-17,5],[-16,2]],[[2023,1524],[-16,-7],[-7,-20],[5,-22],[3,-20],[-17,-14],[-1,0],[-143,-48],[-39,-14],[-59,-33],[-12,-14],[-8,-21],[-1,-4],[3,-8],[10,-6],[14,-14],[15,-28],[8,-10],[12,-10],[19,-7]],[[1847,1250],[5,-4],[23,-27],[3,-3],[24,-40],[8,-19]],[[1809,1224],[6,4],[2,9],[7,5],[18,5],[5,3]],[[1047,849],[-136,60],[-28,25],[-1,11],[5,37],[-3,16],[-8,12],[-10,6],[-10,4],[-50,40],[-19,20],[-13,27],[-1,28],[1,38],[-3,33],[-16,9]],[[755,1215],[-17,-7],[-8,-4],[-11,-12],[-18,-43],[-16,-22],[-36,-42],[-14,-20],[-9,-27],[-1,-9],[-6,-47],[-8,-30],[-19,-36],[-57,-42],[-27,-26],[-56,-32],[-67,-6]],[[1910,1157],[-30,0]],[[1880,1157],[-21,-7],[-18,-10],[-43,-13],[-8,-16],[-5,-17],[-10,-8],[-19,-10],[2,-17],[10,-23],[8,-23],[1,-2],[9,-55],[11,-45],[21,-36],[74,-50],[-14,-12],[-26,-37],[-13,-12],[-16,-5]],[[1634,707],[-66,9],[-106,92],[-15,13],[-71,2],[-14,13],[-17,8],[-13,1],[-21,3],[-25,24],[-33,22]],[[1253,894],[-27,-1],[-5,-45],[-28,-49],[-62,-22]],[[83,806],[-3,0],[-1,0],[-35,2],[-38,13],[-6,5]],[[385,810],[-68,13],[-58,26],[-32,8]],[[227,857],[-37,-11],[-69,-33],[-38,-7]],[[1131,777],[-61,13],[-23,58],[0,1]],[[1047,849]],[[1823,759],[-48,1]],[[1775,760],[-81,-31],[-60,-22]],[[4096,331],[-11,-7],[-8,-23],[-15,-10],[-16,-8],[-14,-14],[-9,-25],[1,-19],[-2,-15],[-18,-16],[-37,-5]],[[3967,189],[-290,88],[-85,3]],[[3592,280],[-68,-48],[-48,-108],[-20,-32],[-16,-12],[-38,-12],[-13,-10],[-11,-19],[0,-12],[3,-14],[-2,-13]],[[3013,0],[-14,15],[-26,34],[-31,82],[-22,38],[-18,14],[-32,7],[-13,10],[1,10],[6,15],[0,19],[-13,18],[-17,9],[-16,1]],[[2818,272],[-33,-7]],[[2785,265],[-140,4]],[[2645,269],[-78,-13],[-33,-30],[-15,-14],[-16,-46],[-2,-16],[6,-125],[-5,-25]],[[251,137],[4,-137]],[[577,2318],[12,10],[1,2],[-7,15]],[[216,2097],[-1,-30],[-4,-14],[-1,-15],[-29,-46]],[[577,2318],[-76,-3]],[[1853,2915],[-28,10]],[[2757,3147],[-32,17]],[[1650,2985],[-10,13]],[[2851,2986],[-9,-8],[10,-36]],[[2338,1968],[24,28],[12,4]],[[2180,1948],[-16,57],[-16,18],[-18,14],[-11,1],[-36,16]],[[2338,1968],[-64,-48],[-38,-19],[-21,-1]],[[2469,2462],[60,-27],[1,-1]],[[2445,2471],[24,-9]],[[2537,3381],[-26,22],[-3,4]],[[1633,3213],[-43,-33],[-20,-9]],[[1570,3171],[-21,4]],[[1633,3213],[0,13],[-3,8],[-12,17],[-1,8]],[[1516,3109],[4,19],[-3,16],[7,17],[4,8],[21,6]],[[16,2244],[-16,-29]],[[16,2244],[-9,20],[-7,2]],[[85,1658],[7,-21]],[[0,1579],[45,16],[5,6],[42,36]],[[45,1313],[-17,41],[-14,20],[-14,10]],[[2363,2488],[27,-21]],[[2390,2467],[55,4]],[[2098,2667],[31,-19],[12,-1],[12,-11],[10,-23],[11,-53],[4,-32],[-8,-33]],[[45,1313],[-15,-17],[-17,-8],[-10,-19],[-3,-15],[3,-14],[6,-13],[1,-29],[5,-14],[7,-16],[8,-21],[-5,-12],[0,-4],[16,-7]],[[701,2567],[14,20],[-4,8],[-3,9],[-6,15],[3,20],[-2,14],[-14,16]],[[483,2249],[29,21],[-4,10],[-7,35]],[[1302,2878],[63,-28],[130,-42]],[[841,2681],[10,-68],[35,-49],[9,-23],[4,-19],[8,-8]],[[907,2514],[30,1]],[[583,2345],[55,-7]],[[382,2119],[-84,17]],[[298,2136],[-51,-14],[-31,-25]],[[1198,2417],[65,-45],[-29,-18]],[[1500,2824],[9,-1],[19,-6],[17,-19]],[[1495,2808],[5,16]],[[1820,2946],[5,-21]],[[1573,2845],[3,2],[7,9],[3,23],[16,15],[34,51],[14,40]],[[1569,2846],[4,-1]],[[1545,2798],[17,46],[7,2]],[[1236,2107],[-5,2],[-6,4],[-16,28],[-1,10],[2,7],[1,9],[0,7],[-5,7],[-13,3],[-62,0],[-6,16]],[[1365,2162],[-34,-14],[-12,-8],[-13,-15],[-5,-5],[-6,-3],[-7,-3],[-24,-4]],[[1264,2110],[-17,0]],[[1247,2110],[-6,-1],[-5,-2]],[[1234,2354],[-16,-4]],[[1115,2249],[-5,12],[-9,6],[-2,3],[4,3],[96,12],[10,4],[13,24],[-4,37]],[[1274,2315],[-11,4],[-21,16],[-8,19]],[[1323,2328],[-49,-13]],[[937,2515],[-3,-36],[15,-14],[57,-19],[52,-2]],[[1090,2446],[64,-3]],[[1058,2444],[32,2]],[[623,1662],[-70,-36],[-9,-1]],[[544,1625],[-27,16]],[[645,1578],[-12,23],[-1,22],[3,17],[-12,22]],[[345,1672],[-33,-83]],[[457,1643],[12,-14],[6,-4],[6,-6]],[[481,1619],[10,2],[9,13],[17,7]],[[360,1684],[23,-8],[57,-42]],[[345,1672],[15,12]],[[440,1634],[17,9]],[[1198,2417],[-44,26]],[[1125,2200],[7,9],[-1,8],[2,8],[-18,24]],[[111,1924],[-2,-28],[-12,-16],[-12,-12],[-15,-12],[-3,-8],[2,-4],[6,-3],[3,-9],[-2,-21],[-9,-25],[-10,-20],[-2,-18],[1,-16],[5,-17],[7,-9],[17,-48]],[[111,1924],[-40,15],[-4,5],[-4,8],[-7,18],[-7,10],[-9,0],[-12,5],[-28,41]],[[1640,2998],[-66,34],[-8,17],[-15,22],[-21,17],[-14,21]],[[714,2423],[16,8],[4,6],[3,8],[1,8],[1,8],[-16,28],[-8,8],[-5,23],[-9,20],[0,27]],[[1156,1912],[-19,2],[-47,15],[-43,1]],[[1047,1930],[-9,-4],[-4,-4],[-33,-3]],[[1259,1835],[-31,20],[-41,62],[-9,6],[-8,3]],[[1170,1926],[-3,-5],[-1,-7],[-10,-2]],[[1081,1487],[-29,23],[-5,14],[-15,17],[-10,18],[-8,12],[2,28],[10,27],[2,7],[-24,34]],[[1469,2048],[6,-23],[4,-11],[23,-17]],[[382,2119],[8,31],[-4,11],[5,18],[10,16],[28,22],[18,4],[12,7],[7,11],[2,5],[15,5]],[[714,2423],[-76,-85]],[[111,1924],[47,31],[23,37]],[[312,1589],[-80,35],[-32,21],[-30,6]],[[170,1651],[-78,-14]],[[645,1578],[35,-58],[51,-48]],[[710,1363],[8,-8]],[[692,1355],[18,8]],[[718,1355],[30,2]],[[1080,2805],[128,-3]],[[1302,2878],[-1,-27],[-20,-15],[-73,-34]],[[1080,2805],[-41,14]],[[1039,2819],[-9,-1],[-22,-21]],[[1008,2797],[-31,44],[-16,12],[-68,13],[-5,12]],[[2932,2719],[19,-23]],[[2932,2719],[-14,42],[-23,43],[-35,16]],[[1975,2045],[108,9]],[[1975,2045],[-73,19]],[[2659,3268],[18,-8],[5,-1],[8,-3],[5,-1]],[[2709,3257],[8,-2],[4,-3],[-3,-10],[-23,-20],[1,-11],[4,-16],[25,-31]],[[2695,3255],[8,1],[6,1]],[[2659,3304],[-17,11],[-26,7],[-46,31],[-13,21],[-20,7]],[[2659,3268],[0,36]],[[2790,3142],[-33,5]],[[40,1102],[21,-19],[-3,-7],[-5,-16],[-8,-16],[-6,-24],[2,-10],[4,-6]],[[54,1007],[9,-6],[-1,-12],[-3,-20],[-12,-41],[-11,-27],[3,-6],[27,-22],[6,-7],[9,-20],[0,-26],[-2,-13],[0,-1]],[[45,1004],[9,3]],[[737,2687],[-48,-18]],[[776,2671],[-39,16]],[[841,2681],[-44,-9],[-21,-1]],[[737,2687],[-8,44],[-1,4]],[[2180,1948],[7,-26],[1,-10],[5,-4],[22,-8]],[[987,1908],[-10,-33],[-23,-35],[-4,-27],[5,-1],[16,-6],[6,-5],[1,-5],[-3,-7],[4,-12],[3,-18],[20,-40],[-1,-10],[-3,-13],[-1,-9],[7,-20]],[[1520,2109],[32,-16]],[[1552,2093],[51,14]],[[1530,2297],[26,-33],[6,-13],[35,-26],[18,-23],[13,-19],[12,-27],[0,-11],[-5,-7],[-12,-9],[-5,-2]],[[1618,2127],[-18,6],[-12,7],[-6,3]],[[1582,2143],[-5,0],[-5,-7],[0,-5],[2,-5],[4,-5],[6,-5],[19,-9]],[[1520,2109],[-6,-26],[-7,-4],[-14,-4]],[[1431,2318],[47,-19]],[[1478,2299],[49,7]],[[1323,2328],[42,2]],[[1392,2314],[-27,16]],[[1431,2318],[-39,-4]],[[1390,2025],[-21,6],[-1,11],[-7,13],[-3,16],[-2,12],[-1,8],[7,7],[6,10],[4,12],[-7,42]],[[1469,2048],[-65,-21],[-14,-2]],[[1469,2048],[26,7],[-2,20]],[[1650,2985],[40,-29],[22,-5]],[[1742,2953],[78,-7]],[[1712,2951],[30,2]],[[692,1355],[28,-89],[3,-23],[14,-30],[1,-5]],[[40,1102],[1,22]],[[1991,1441],[0,1],[-8,8],[-34,63],[-2,29],[-4,25],[-2,46],[-10,40],[-40,15]],[[2040,2746],[-4,1],[-4,5],[-5,12],[-4,8],[-16,20],[-26,12]],[[2098,2667],[-9,26],[-4,19],[2,19],[-1,5],[-7,5],[-20,6]],[[2059,2747],[-11,0],[-8,-1]],[[1981,2804],[-36,28],[-23,6],[-21,14],[-22,10],[-10,15],[-11,12],[-5,26]],[[2221,2509],[31,-1],[64,-21]],[[2189,2487],[8,11],[9,6],[15,5]],[[2316,2487],[47,1]],[[2189,2487],[-19,8]],[[2852,2942],[28,-46],[-1,-41],[-19,-35]],[[2802,3060],[-26,41],[14,41]],[[2833,3013],[-31,47]],[[2833,3013],[18,-27]],[[1299,1860],[-22,-19],[-18,-6]],[[1534,1921],[-20,2],[-3,3],[-4,1]],[[1507,1927],[-12,-1],[-14,-11]],[[1481,1915],[-36,2]],[[1445,1917],[-21,-3],[-3,-14],[-2,-18],[-7,-17],[-12,-15],[-35,-12]],[[1365,1838],[-26,17],[-20,4],[-20,1]],[[1068,1373],[26,31]],[[731,1472],[33,7]],[[731,1472],[-16,-19],[18,-30],[6,-16],[0,-15],[9,-35]],[[911,1530],[-26,-8],[-23,-19],[-39,-14],[-59,-10]],[[1068,1373],[-157,157]],[[1894,1775],[-13,-38],[-1,-36],[-4,-16],[15,-17]],[[1502,1997],[-1,-20],[33,-56]],[[1687,1974],[20,3],[8,6],[-1,7],[-4,4],[-5,3],[-12,10],[-4,3],[-6,2],[-12,3],[-4,4],[-4,5],[-4,16]],[[1576,2002],[111,-28]],[[1502,1997],[74,5]],[[1662,2088],[73,-1],[22,-7],[11,-8],[7,-10],[2,-7],[2,-12],[4,-7],[8,0]],[[1659,2040],[5,12],[-2,5],[-4,8],[-11,12],[-1,5],[2,3],[14,3]],[[1791,2036],[15,12],[21,9],[75,7]],[[1534,1921],[25,-16],[6,-11],[9,-4]],[[1607,1904],[4,-4],[-2,-12],[-6,-8],[-5,-9],[-1,-13],[10,-21],[22,-27],[33,-29],[51,-27]],[[1574,1890],[12,4],[8,6],[7,3],[6,1]],[[1827,1822],[15,-2],[11,-4],[11,-6],[6,-14],[24,-21]],[[1779,1777],[4,10],[-2,11],[0,7],[2,6],[4,4],[9,5],[31,2]],[[1744,1797],[9,-1],[19,-18],[7,-1]],[[1713,1754],[-1,16],[25,13],[3,7],[0,5],[4,2]],[[1081,1487],[-3,-36],[2,-10],[14,-37]],[[2734,1773],[-7,15],[-13,26],[-9,8],[-12,7],[-90,26],[-19,9],[-12,7],[-9,4],[-12,0]],[[2551,1875],[-24,-9],[-19,-15],[-30,-5]],[[2478,1846],[-104,8],[-25,1]],[[2772,1726],[182,99],[28,8],[17,15],[21,2]],[[2734,1773],[15,-14],[3,-6],[0,-11],[5,-10],[15,-6]],[[2777,2318],[-14,1],[-6,4],[-4,7],[-2,11],[-4,14],[-7,9],[-9,6],[-62,21],[-11,10],[-6,12],[0,16],[-2,19],[-4,9]],[[3156,2315],[-11,2],[-9,6],[-7,16],[-6,10],[-9,9],[-8,0]],[[3106,2358],[-11,-5],[-7,-9],[-12,-20],[-7,-9],[-9,-5],[-8,-4]],[[2866,2299],[-16,3],[-41,15],[-12,1]],[[2797,2318],[-20,0]],[[3052,2306],[-27,1],[-21,9],[-13,1]],[[2991,2317],[-11,0],[-20,-5],[-23,-2]],[[3194,2041],[-10,108],[2,17],[1,18],[6,29],[0,10],[-1,8],[-1,3],[-10,19],[-6,15],[0,12],[7,26],[-3,7],[-5,4]],[[3174,2317],[-18,-2]],[[2937,2310],[-21,1]],[[2916,2311],[-11,-1],[-9,-3],[-17,-7],[-13,-1]],[[3789,2334],[18,6],[28,14],[53,35],[24,23],[13,19],[9,25],[10,21],[4,12],[1,11],[-1,9],[-2,7],[-2,4],[-4,3],[-13,9],[-20,22]],[[3767,2360],[7,-3],[5,-6],[4,-14],[6,-3]],[[3472,2197],[38,8],[18,7],[8,8],[5,10],[5,15],[4,7],[140,87],[53,18],[24,3]],[[3450,2219],[3,-2],[2,-3],[4,-9],[2,-5],[4,-3],[7,0]],[[3379,2174],[7,2],[7,3],[51,38],[6,2]],[[3358,2177],[21,-3]],[[3345,1964],[-10,37],[4,77],[-3,24],[-11,41],[1,16],[5,11],[22,6],[5,1]],[[3999,2502],[5,2],[5,5],[43,99],[2,6],[2,10],[12,40],[5,14]],[[3907,2554],[49,-7],[18,-10],[6,-7],[8,-12],[11,-16]],[[3229,2707],[3,-1],[24,-16],[29,-4],[10,-6],[8,-8],[15,-21],[3,-6],[1,-4],[0,-7],[2,-10],[3,-10],[7,-17],[6,-7],[4,-5],[4,-1],[178,-38],[47,-1]],[[3688,2580],[16,-5],[167,-9],[36,-12]],[[3573,2545],[102,32],[13,3]],[[4096,2043],[-1,6],[-3,14],[-4,7],[-5,5],[-10,4],[-11,3],[-10,2]],[[4052,2084],[-8,-2],[-7,-5],[-6,-12],[-5,-22],[-3,-6],[-6,-7],[-14,-11],[-4,-5],[-5,-4],[-6,-1]],[[3988,2009],[-11,10],[-5,10],[-8,7]],[[3964,2036],[-12,-1],[-26,-11],[-25,-16],[-15,-26],[-17,-30],[-12,-37],[-20,-42],[-5,-32],[-2,-88]],[[3171,2046],[3,0],[20,-5]],[[3138,2031],[5,1],[20,12],[6,2],[2,0]],[[3104,2038],[7,0],[21,-6],[6,-1]],[[3095,1913],[6,1],[14,3],[5,4],[0,5],[-5,6],[-4,4],[-13,10],[-2,4],[-3,9],[5,4],[22,13],[5,6],[0,7],[-4,5],[-4,4],[-6,4],[-8,3],[-4,5],[-3,6],[-1,12],[4,7],[5,3]],[[3070,1921],[5,-1],[6,-2],[9,-4],[5,-1]],[[3020,1850],[43,17],[5,4],[4,5],[-1,3],[-2,2],[-8,8],[-2,4],[-1,7],[1,12],[2,5],[1,3],[3,1],[5,0]],[[3345,1964],[107,-35],[16,-8],[23,-35],[12,-14],[3,-4],[2,-5],[1,-5],[-1,-5],[-4,-10],[-2,-13],[3,-4],[9,-2]],[[3570,1865],[9,-4],[37,-39],[8,-7],[56,-33],[9,-9],[6,-7],[2,-7],[4,-3],[6,0]],[[3514,1824],[20,6],[10,7],[5,5],[5,9],[3,6],[4,5],[4,3],[5,0]],[[3809,1763],[21,-10]],[[3755,1744],[11,1],[43,18]],[[3719,1759],[9,0],[12,-7],[6,-5],[9,-3]],[[3707,1756],[12,3]],[[3259,1939],[-9,0],[-5,3],[-8,9],[-5,8],[-4,9],[-7,26],[-4,9],[-23,38]],[[3345,1964],[-45,-9],[-24,-14],[-17,-2]],[[3761,1535],[19,0],[12,4],[11,8],[21,28],[8,30],[3,27],[0,13],[-6,66],[0,20],[1,22]],[[3737,1586],[8,0],[5,-8],[-1,-10],[-3,-10],[-1,-10],[5,-8],[11,-5]],[[3686,1450],[8,4],[4,11],[-4,31],[-1,18],[3,15],[32,51],[9,6]],[[3638,1469],[48,-19]],[[3545,1419],[23,16],[16,27],[12,6],[42,1]],[[3094,1472],[4,2],[3,6],[5,17],[9,22],[1,3],[4,14],[2,20],[2,5],[2,5],[23,25],[3,6],[-3,12],[-9,18],[-53,73],[-8,16],[-20,56],[-39,78]],[[2734,1773],[-38,-21],[-76,-17],[-21,-1]],[[2599,1734],[-27,1]],[[2572,1735],[-12,-4],[-5,-7],[1,-11],[3,-13],[1,-14],[-1,-14],[-8,-16],[-11,-6],[-37,-7],[-10,-5],[-4,-4],[-1,-6],[0,-7],[-7,-31],[3,-5],[9,-7]],[[2545,1579],[18,-17],[36,-50],[-16,-24],[-33,-46],[29,-43],[-29,-65]],[[2493,1578],[52,1]],[[3023,1510],[5,-1],[41,-26],[25,-11]],[[2707,1120],[25,42],[11,108],[30,48],[179,118],[71,74]],[[2550,1334],[-45,29]],[[2505,1363],[-12,-26],[-5,-21],[-1,-12],[0,-10],[3,-7],[1,-4],[6,-8],[11,-11],[41,-30],[90,-41],[10,-7],[8,-7],[7,-8],[4,-9],[3,-9],[5,-10],[6,-7],[25,-16]],[[3720,1205],[-7,4],[-14,13],[-22,29],[-33,26],[-18,8],[-17,4],[-12,7],[-17,13],[-12,4],[-11,2],[-5,4],[-1,10],[5,26],[5,15],[6,13],[0,13],[-22,23]],[[4054,883],[7,1],[26,27],[-2,7],[-7,13],[-22,28],[-14,24],[-3,4],[-6,3],[-12,5],[-9,8],[-12,20],[-6,13],[-21,56],[-6,8],[-9,7],[-35,5],[-13,4],[-11,7],[-15,21],[-8,7],[-99,47],[-30,7]],[[3747,1205],[-27,0]],[[4040,886],[5,-1],[4,-2],[5,0]],[[4085,824],[-12,2],[-12,4],[-11,10],[-11,11],[-9,20],[-1,8],[3,6],[4,1],[4,0]],[[4096,825],[-11,-1]],[[3247,1223],[8,-62],[-28,-61],[-20,-18],[-39,-16]],[[3168,1066],[-16,3],[-12,10],[-10,10],[-11,8],[-10,4],[-15,2],[-6,3],[-5,7],[-11,20],[-15,9],[-12,3]],[[3045,1145],[-8,-1],[-9,-4],[-5,-5],[-24,-27],[-42,-34],[-11,-5],[-14,-2]],[[2932,1067],[-31,4]],[[2901,1071],[-8,-4],[-4,-7],[-1,-10],[2,-11],[4,-6],[5,-4],[13,-4],[7,-6],[3,-7],[1,-15],[1,-9],[4,-7],[5,-6],[25,-20],[9,-11],[3,-11],[0,-31],[2,-9],[5,-6],[3,-5],[3,-6],[-2,-4],[-5,-1]],[[2789,805],[-61,5],[-12,20],[1,25],[1,8],[0,6],[-9,17],[-30,35]],[[2976,871],[-18,1]],[[2958,872],[-18,-4],[-10,-6],[-41,-50]],[[2889,812],[-13,13],[-6,4],[-11,4],[-15,1]],[[2844,834],[-11,-2],[-11,-9],[-12,-12],[-21,-6]],[[3453,1541],[5,-1],[5,-5],[3,-13],[17,-28],[62,-75]],[[3436,1517],[3,3],[6,15],[2,3],[2,2],[4,1]],[[3377,1518],[59,-1]],[[3327,1365],[28,9],[6,3],[3,5],[1,4],[6,41],[10,43],[2,13],[-1,9],[-1,10],[-4,16]],[[3288,1384],[25,-15],[10,-3],[4,-1]],[[3247,1223],[6,27],[-10,56],[3,20],[4,15],[23,35],[7,7],[8,1]],[[2610,967],[8,-2],[6,-3],[5,-5],[2,-7],[0,-8],[-1,-6],[5,-5],[4,-3],[40,-7]],[[2549,912],[39,47],[22,8]],[[1540,429],[4,0],[18,34],[5,7],[5,5],[47,20],[10,9],[4,10],[-1,18],[1,7],[3,7],[7,9],[29,25],[9,9],[6,11],[13,41],[4,20],[2,11],[1,9],[0,10],[-3,15],[-6,16],[-4,7]],[[1414,503],[9,-2],[11,-9],[18,-11],[41,-14],[16,-9],[10,-9],[4,-8],[12,-10],[5,-2]],[[1377,74],[-54,54],[-3,7],[-1,10],[7,4],[5,4],[4,6],[3,10],[2,108],[5,42],[-3,11],[-5,12],[-6,13],[-8,21],[0,11],[3,9],[5,3],[4,4],[2,4],[2,7],[2,12],[8,26],[8,16],[51,35],[6,0]],[[2193,1077],[-16,7],[-38,29],[-26,28],[-2,7],[-1,6],[1,6],[2,7],[0,5],[-8,5],[-50,25],[-15,14],[-22,23],[-11,19],[-7,7],[-8,5],[-14,3]],[[1978,1273],[-55,-10],[-27,-32],[-21,-12]],[[2431,1049],[-7,0],[-9,3],[-17,12],[-14,6],[-14,5],[-39,8],[-53,35],[-9,3],[-12,2]],[[2257,1123],[-17,-2],[-10,-5],[-8,-8],[-5,-6],[-13,-24],[-11,-1]],[[2515,904],[-8,2],[-6,4],[-28,38],[-8,9],[-21,20],[-2,9],[5,9],[8,8],[5,9],[1,11],[-7,40],[-2,3],[-3,1]],[[2449,1067],[-14,-15],[-4,-3]],[[2549,912],[-19,-5],[-15,-3]],[[2549,912],[21,-82],[8,-12],[7,-15],[7,-12],[-1,-10],[-5,-12],[-3,-9],[-2,-14],[4,-17],[-4,-11],[-15,-30],[0,-20],[-5,-11],[-10,-7],[-29,-10],[-11,-1]],[[2389,696],[-38,10]],[[2351,706],[-20,-6],[-8,-8],[-1,-7],[5,-7],[14,-14],[4,-7],[-1,-8],[-9,-34],[-1,-11],[1,-7],[3,-8],[9,-13],[5,-10],[4,-11],[1,-6],[-2,-4],[-23,-19],[-3,-9],[1,-10],[3,-10],[1,-12],[0,-13],[-2,-13],[-2,-12],[-7,-25],[-2,-10],[1,-11],[2,-8],[3,-8],[2,-9],[-3,-5],[-19,-17],[-6,-15],[-10,-16],[-6,-7],[-1,-8],[1,-10],[2,-12],[1,-16],[4,-10],[5,-5],[95,-20]],[[2431,675],[-7,2],[-9,14],[-7,5]],[[2408,696],[-19,0]],[[2511,639],[-10,3],[-7,6],[-12,12],[-14,10],[-12,6],[-10,1]],[[2446,677],[-15,-2]],[[2475,254],[3,-1],[4,-3],[3,-2],[5,-1]],[[2453,246],[5,0],[13,8],[4,0]],[[2438,251],[9,-2],[6,-3]],[[2392,235],[3,0],[5,2],[8,8],[4,3],[5,2],[21,1]],[[2497,247],[6,-1],[6,-2],[24,-18],[1,0]],[[2490,247],[7,0]],[[80,806],[-2,-18],[2,-11],[5,-17],[13,-21],[13,-14],[78,-46],[13,-10],[3,-8],[-3,-12],[-4,-10],[-1,-16],[3,-21],[13,-63],[3,-22],[0,-16],[-6,-22],[-13,-28],[-4,-12],[-1,-13],[0,-36],[11,-116],[2,-49],[-2,-20],[-1,-18],[2,-14],[6,-13],[6,-8],[34,-14],[1,0]],[[1377,74],[28,-56],[0,-12],[0,-6]],[[1643,79],[5,-2],[7,-9],[6,-10],[7,-10],[7,-10],[13,-12],[6,-6],[9,-14],[5,-6]],[[1548,34],[49,3],[37,37],[9,5]],[[1377,74],[171,-40]],[[3018,4096],[4,-18],[-2,-14],[-10,-22],[-38,-55],[-71,-92],[-52,-45],[-11,-20],[-5,-20],[-1,-22],[-6,-35],[1,-13],[7,-10],[18,-14],[6,-9],[3,-5],[2,-23],[0,-9],[0,-1]],[[264,4096],[33,-23],[104,-32],[25,-12],[15,-12],[4,-6],[12,-2],[27,-1]],[[0,4073],[48,23]],[[1161,4096],[8,-1],[15,-10],[21,-17],[58,-70],[114,-173],[-2,-63],[-9,-25],[-10,-19],[-8,-26],[-2,-12],[3,-18],[7,-28],[22,-51],[17,-74],[3,-70],[18,-50],[91,-104],[11,-15],[1,-1]],[[806,4047],[179,14],[152,35]],[[767,4063],[39,-16]],[[672,4057],[95,6]],[[632,4060],[40,-3]],[[484,4008],[148,52]],[[4096,3958],[-54,-11],[-16,-39],[-28,-2]],[[3998,3906],[-31,11]],[[3967,3917],[-52,-35],[-146,-10],[-54,-26],[-25,-38],[-17,-50],[-26,-39],[-66,-60],[-30,-55],[-61,-41],[-69,0],[13,-73],[-71,-107],[-8,-8],[0,-1]],[[251,138],[0,-1]],[[4054,3820],[42,-38]],[[4096,3570],[-94,-17]],[[4002,3553],[0,83],[-52,35],[-6,131],[110,18]],[[0,2640],[47,88],[9,41],[-56,49]],[[29,2685],[0,1],[0,-1]],[[0,2823],[102,-48],[51,-143],[121,-83],[30,-64],[109,-59],[31,-57],[-55,-86],[154,-104],[117,-143]],[[3434,2719],[565,-64]],[[443,3521],[-236,-113],[-70,43],[-32,-26],[-76,-1],[-29,-34]],[[53,3427],[3,0]],[[130,3448],[2,2]],[[184,3428],[1,-2]],[[253,3441],[2,1]],[[334,3457],[2,2]],[[437,3513],[-3,0]],[[442,3527],[1,1],[0,1],[1,3],[0,1]],[[443,3530],[0,-9]],[[216,3418],[2,3],[-2,-3]],[[0,3215],[105,36],[76,-36],[67,15],[96,-26],[3,0],[19,1]],[[370,3205],[-10,0]],[[117,3249],[8,-2],[-3,1],[-5,1]],[[234,3228],[-1,0],[-6,-2],[7,2]],[[352,3204],[-104,26],[-67,-15],[-76,36],[-105,-36]],[[370,3205],[-9,0]],[[429,3382],[-3,-11],[-1,-3],[-2,-3],[-1,-2],[-2,-2],[-2,-3],[-1,-1],[-30,-25],[-17,-23],[-4,-104]],[[448,3512],[16,-70],[-71,-105]],[[590,3536],[-40,-23],[-50,-11],[-49,38],[-8,-22],[3,-4],[11,-7],[2,-2],[2,-2],[1,-2],[0,-1],[1,-2],[1,-8],[0,-2],[0,-3]],[[529,4096],[-7,-30],[-49,-59]],[[473,4007],[-10,-47],[48,-50]],[[482,3939],[42,-43],[91,-250],[-30,-67],[15,-33],[-49,-32]],[[0,2822],[102,-47],[51,-143],[121,-83],[30,-64],[107,-57],[33,-59],[-52,-86],[152,-105],[100,-142]],[[644,2036]],[[644,2036],[87,0]],[[744,2036],[3,0]],[[813,2040],[-67,-2]],[[790,2036],[17,1],[2,0],[3,2]],[[813,2041],[87,54],[79,-7],[77,42],[53,-43],[-2,-54],[84,59],[105,20],[55,53],[26,-17],[43,30],[81,-8],[110,-76],[57,-75],[85,-9],[1,-48],[57,-38],[238,-38],[47,-77],[441,-208],[42,-75],[207,-25]],[[0,3215],[105,36],[76,-36],[19,1],[48,14],[118,-25]],[[370,3205],[-9,0]],[[117,3249],[8,-2],[-3,1],[-5,1]],[[228,3226],[1,0],[5,2],[-6,-2]],[[0,2822],[102,-47],[51,-143],[121,-83],[30,-64],[107,-57],[33,-59],[-52,-86],[152,-105],[100,-142]],[[644,2036]],[[644,2036],[87,0]],[[744,2036],[3,0]],[[813,2040],[-67,-2]],[[790,2036],[22,3]],[[813,2041],[87,54],[79,-7],[77,42],[53,-43],[-2,-54],[84,59],[105,20],[55,53],[26,-17],[43,30],[81,-8],[110,-76],[57,-75],[85,-9],[1,-48],[57,-38],[238,-38],[47,-77],[441,-208],[42,-75],[207,-25]],[[0,2640],[47,88],[9,41],[-56,49]],[[29,2685],[0,1],[0,-1]],[[3613,1925],[2,-76],[35,-14],[9,-51],[73,14],[140,-29],[162,-85],[62,42]],[[653,2035],[-139,-93],[-27,-100],[-49,-65],[22,-61],[-88,102],[-58,-30],[-16,25],[-28,-15],[-19,-78],[112,-164],[6,-47],[-49,6],[-85,-49],[-4,-56],[-52,-69],[5,-117],[-73,26],[-65,-52],[-46,5]],[[3433,2720],[44,6]],[[3471,3075],[0,7]],[[3471,3074],[0,1]],[[3471,3082],[1,1]],[[3477,2726],[20,157],[-29,48],[4,162]],[[3433,2720],[44,6]],[[3477,2726],[20,157],[-27,42],[-1,68]],[[507,3914],[108,-268],[-30,-67],[16,-32],[-92,-45],[-61,36],[17,-94],[-95,-134],[7,-103],[-129,23],[-67,-15],[-76,36],[-83,-29],[-22,-4]],[[74,3242],[-4,0]],[[156,3231],[3,-1]],[[299,3220],[-3,0]],[[324,3217],[-2,1]],[[370,3205],[-10,0]],[[368,3275],[0,3]],[[445,3534],[-2,-7]],[[464,3490],[0,-3]],[[526,3512],[-2,0]],[[537,3834],[1,-3]],[[117,3249],[8,-2],[-3,1],[-5,1]],[[234,3228],[-1,0],[-6,-2],[7,2]],[[378,3215],[0,3],[0,-3]],[[403,3345],[3,3],[-3,-3]],[[505,3916],[2,-2],[2,-2],[-4,4]],[[570,3525],[5,3],[-1,-1],[-4,-2]],[[587,3738],[0,-2],[0,-5],[0,7]],[[592,3607],[2,-2],[-2,1],[0,1]],[[601,3672],[1,-1],[-1,1]],[[602,3671],[1,-2],[-1,2]],[[2363,1686],[75,-40]],[[2438,1646],[2,-1]],[[2440,1645],[98,-44],[23,-31],[13,-39],[3,-4],[2,-1],[1,0],[2,-1],[197,-24],[27,2],[157,45],[13,-1]],[[2439,1646],[-12,5]],[[2438,1646],[1,0]],[[3172,1496],[-44,-2],[-153,53],[-3,1],[-3,1],[-4,-1],[-2,0],[-86,-21],[-23,-5],[-44,-17],[-3,-2],[-28,-2],[-6,1],[-8,7],[-1,1],[-2,1],[-1,0],[-1,0],[-89,7],[-88,7],[-2,0],[-20,45],[-1,1],[-20,28],[-1,1],[-1,1],[-2,1],[-1,0],[-11,5],[-84,38]],[[2440,1645],[-1,1]],[[2555,1612],[-1,160]],[[361,3205],[9,0]],[[1055,3940],[-2,-8],[5,-7],[78,-85],[2,-40],[38,-9],[8,-51],[-57,-77],[18,-27],[-10,-130],[54,-122],[-68,-41],[-56,-161],[7,-63],[-298,115],[-92,-49],[-127,32],[-189,-12]],[[396,3207],[-3,0]],[[580,3212],[-4,1]],[[705,3207],[-2,-1]],[[828,3218],[-3,0]],[[944,3181],[-3,1]],[[1003,3134],[-2,2]],[[1056,3117],[-3,1]],[[1055,3941],[0,-1]],[[1066,3154],[0,-3]],[[1091,3236],[-1,-3]],[[1094,3897],[1,-2]],[[1111,3303],[-2,-5]],[[1111,3869],[1,-1]],[[1132,3352],[-2,-1]],[[1131,3682],[-1,-3]],[[1135,3517],[0,-4]],[[1135,3835],[0,-1]],[[1140,3647],[1,-3]],[[1141,3609],[0,-3]],[[1172,3397],[0,-1],[1,0],[0,-1],[0,-1],[1,-1]],[[1175,3375],[-2,-2]],[[1175,3729],[-2,-1]],[[2679,1963],[35,-7]],[[2715,1956],[21,-96],[92,17]],[[4057,3662],[2,-21]],[[2187,2365],[56,-58],[-2,-128]],[[3409,0],[5,38],[101,89],[9,84]],[[2659,3924],[11,-21],[-77,-58],[-18,-80],[29,-4],[26,29],[52,-49]],[[366,3205],[-13,-1],[-4,-2],[-28,-70],[4,-55],[-48,-33],[-14,1]],[[323,3096],[0,-1]],[[349,3195],[0,-1]],[[370,3205],[-9,-1]],[[262,3045],[2,0],[-2,0]],[[3050,2758],[171,-29]],[[3221,2729],[2,0]],[[3223,2729],[8,0]],[[3231,2729],[10,-1]],[[3241,2728],[758,-73]],[[3221,2729],[1,0],[9,0]],[[3223,2729],[18,-1]],[[2781,1501],[-26,-71],[-231,-156],[-228,-88],[-33,-164],[-105,-133],[18,-96],[-87,-6],[8,-46],[-39,-69],[-60,-18],[-82,-109],[-28,-88],[-85,-69],[44,-109],[-58,30],[-21,-43],[26,-77],[99,-117],[15,-72]],[[536,506],[-151,74],[-38,-6],[24,34],[-19,89],[-81,74],[-7,103]],[[2840,3906],[-229,24],[-111,66],[-27,100]],[[2110,4096],[-21,-21],[-29,21]],[[3216,3928],[-183,-53],[-187,30]],[[2781,1501],[-26,-71],[-231,-156],[-228,-88],[-33,-164],[-105,-133],[18,-96],[-87,-6],[8,-46],[-39,-69],[-60,-18],[-82,-109],[-28,-88],[-85,-69],[42,-112],[-211,120],[-15,102],[-140,79],[-13,63],[-77,61]],[[350,3204],[-102,26],[-68,-14],[-75,35],[-105,-36]],[[370,3205],[-10,0]],[[448,3512],[16,-70],[-94,-132],[8,-99],[-3,-5],[-2,0],[-7,-1]],[[590,3536],[-40,-23],[-50,-11],[-49,38],[-8,-22],[3,-4],[11,-7],[2,-2],[2,-2],[1,-2],[0,-1],[1,-2],[1,-8],[0,-2],[0,-3]],[[529,4096],[-7,-30],[-49,-59]],[[473,4007],[-10,-47],[48,-50]],[[482,3939],[7,-8],[32,-31],[3,-4],[91,-250],[-30,-67],[15,-33],[-49,-32]],[[2325,3095],[-11,-26],[-132,16],[-149,-54],[-19,100],[-26,-38],[-45,41],[-55,-5],[-69,36],[-58,-21],[-127,55],[-59,-47],[-49,31],[-63,-3],[-136,-118],[-97,-11],[-98,51]],[[1946,4096],[-15,-141],[-43,-24],[-117,78],[-83,12],[-93,75]],[[1683,3631],[2,1]],[[1996,4096],[57,-169],[-6,-178],[-47,-50],[-182,-70],[-92,13],[-57,-20],[25,-14],[26,-95],[110,-43],[-93,-49]],[[1872,3654],[2,0]],[[1923,3672],[-3,-2]],[[2033,3727],[-2,-3]],[[1923,3671],[-3,-1],[3,1]],[[1996,2354],[1,0]],[[1997,2354],[8,5]],[[1997,2354],[86,46],[86,-6],[17,-28]],[[2186,2366],[1,-1]],[[2186,2366],[10,57],[78,0],[29,-56],[54,23],[105,-15],[10,-24]],[[1473,2688],[-71,22],[-17,-71],[71,-127],[63,-50]],[[2846,3905],[-26,166],[114,-2],[14,27]],[[366,3205],[-13,-1],[-4,-2],[-28,-70],[4,-55],[-48,-33],[-14,1]],[[323,3096],[0,-1]],[[349,3195],[0,-1]],[[370,3205],[-9,-1]],[[262,3045],[2,0],[-2,0]],[[653,2035],[-139,-93],[-27,-100],[-49,-65],[22,-61],[-88,102],[-58,-30],[-16,25],[-28,-15],[-19,-78],[112,-164],[6,-47],[-49,6],[-85,-49],[-4,-56],[-52,-69],[4,-118],[-71,27],[-65,-52],[-47,5]],[[2330,2744],[270,10],[65,58],[303,-25],[82,-29]],[[2659,3924],[11,-21],[-77,-58],[-18,-80],[29,-4],[26,29],[52,-49]],[[0,2640],[47,88],[9,41],[-56,49]],[[1920,3714],[0,-17],[-56,9],[-107,76]],[[2281,3403],[15,19],[198,-16],[36,30],[164,17],[118,-72]],[[361,3205],[9,0]],[[1055,3940],[-2,-8],[5,-7],[78,-85],[2,-40],[38,-9],[8,-51],[-57,-77],[18,-27],[-10,-130],[54,-122],[-68,-41],[-56,-161],[7,-63],[-298,115],[-92,-49],[-127,32],[-189,-12]],[[396,3207],[-3,0]],[[579,3212],[-3,0]],[[708,3208],[-5,-2]],[[828,3218],[-4,0]],[[944,3181],[-3,1]],[[1003,3134],[-2,2]],[[1056,3117],[-3,1]],[[1055,3941],[0,-1]],[[1066,3154],[0,-3]],[[1091,3236],[-1,-3]],[[1094,3897],[1,-2]],[[1111,3303],[-2,-5]],[[1111,3869],[1,-1]],[[1132,3352],[-2,-1]],[[1131,3682],[-1,-3]],[[1135,3517],[0,-4]],[[1135,3835],[0,-1]],[[1140,3647],[1,-3]],[[1173,3396],[1,-3]],[[1175,3375],[-2,-2]],[[1175,3729],[-2,-1]],[[443,3521],[-236,-113],[-70,43],[-32,-26],[-76,-1],[-29,-34]],[[53,3427],[3,0]],[[130,3448],[2,2]],[[184,3428],[1,-2]],[[253,3441],[2,1]],[[334,3457],[2,2]],[[442,3527],[1,2],[1,3],[0,1]],[[443,3530],[0,-9]],[[216,3418],[2,3],[-2,-3]],[[2472,2351],[95,-12],[57,-58],[70,-237],[-15,-81]],[[443,3521],[-235,-113],[-73,43],[-30,-26],[-77,-1],[-28,-34]],[[53,3427],[3,0]],[[130,3448],[2,2]],[[184,3428],[1,-2]],[[253,3441],[2,1]],[[334,3457],[2,2]],[[442,3527],[1,2],[1,3],[0,1]],[[443,3530],[0,-9]],[[216,3418],[2,3],[-2,-3]],[[651,2035],[29,-5],[-20,-36],[75,-107],[48,6],[-5,-27],[88,-58],[90,-25],[28,44],[65,-48],[55,1]],[[1104,1780],[117,23],[30,-24],[48,8],[45,-67],[72,-12],[172,-167],[19,-120],[-44,-39],[-13,-63],[65,-139],[-24,-37],[14,-88],[63,-16],[47,49],[-1,40],[121,33]],[[1799,1939],[-121,-52],[5,-27],[-29,-18],[-181,-20],[-71,-106],[-24,1]],[[264,874],[-2,125],[-98,139],[38,30],[-15,62]],[[1132,3102],[-87,18]],[[60,564],[0,-1]],[[60,563],[5,-8],[3,-2]],[[68,553],[1,-1]],[[69,552],[-53,-16],[-16,-56]],[[60,564],[-60,60]],[[60,564],[1,-1]],[[61,563],[6,-10]],[[67,553],[2,-2]],[[60,563],[5,-8],[3,-2]],[[132,487],[-5,3]],[[127,490],[-45,39],[-10,20],[-1,1],[-2,1]],[[69,551],[0,1]],[[127,490],[5,-3]],[[2781,1501],[-26,-71],[-231,-156],[-228,-88],[-33,-164],[-105,-133],[18,-96],[-87,-6],[8,-46],[-39,-69],[-60,-18],[-82,-109],[-28,-88],[-85,-69],[47,-81],[-6,-31],[-210,120],[-27,116],[-129,66],[-12,62],[-125,89],[-36,64],[-25,-35],[-61,-12],[12,-64],[-19,-26],[-151,-23],[22,-38],[-23,-28],[-27,16],[-3,-37],[-98,-109],[8,-69],[-116,76],[-10,-63],[-3,36],[-97,108],[-40,-54],[-63,36],[-13,-28],[-62,27]],[[3155,1495],[66,7],[184,142],[88,13],[127,277],[135,98],[25,81],[136,47],[180,177]],[[3164,1495],[133,-49],[70,-73],[29,-73],[117,-49],[77,-70],[88,-148],[176,-172],[151,-90],[91,-20]],[[4096,708],[0,-70]],[[1996,4096],[57,-168],[10,-120],[75,-60],[37,-253],[27,-51],[79,-42]],[[3050,2758],[23,-5],[9,54],[-40,144],[13,33],[69,4],[-58,61],[64,179],[-60,53],[-28,114],[22,185],[19,23],[111,3],[43,31],[81,-4]],[[653,2035],[-139,-93],[-27,-100],[-49,-65],[22,-61],[-88,102],[-58,-30],[-16,25],[-28,-15],[-19,-78],[112,-164],[6,-47],[-49,6],[-85,-49],[-4,-56],[-52,-69],[5,-117],[-73,26],[-65,-52],[-46,5]],[[4096,2192],[-79,28],[-2,46]],[[2782,1501],[-27,-30],[17,-49],[536,-557],[66,-22],[49,-142],[62,-13],[72,-89],[61,-35]],[[2794,1502],[-6,-1]],[[2840,3906],[-229,24],[-111,66],[-27,100]],[[2110,4096],[-21,-21],[-29,21]],[[3618,564],[17,-18],[-29,-168],[-28,-43],[12,-35],[-50,-41],[-16,-48]],[[2554,1772],[47,135],[84,59],[47,-20],[150,75],[65,-17],[144,18],[50,172],[50,44],[41,-21],[32,47],[46,5],[13,47],[-31,90],[55,47],[-25,92],[112,174]],[[2791,1502],[-212,24],[-24,86]],[[653,2035],[78,1]],[[813,2040],[-6,-3],[-111,-1]],[[744,2036],[3,0]],[[790,2036],[17,1],[5,2]],[[813,2041],[87,54],[79,-7],[77,42],[53,-43],[-2,-54],[84,59],[105,20],[54,53],[28,-17],[53,31],[71,-9],[116,-81],[70,51],[-36,58],[64,20],[-16,101],[58,80],[177,-38]],[[1935,2360],[67,-4],[0,107],[65,3],[35,54],[103,41],[-7,104],[61,13],[71,64],[2,135]],[[1982,4096],[71,-168],[10,-120],[75,-60],[24,-195]],[[2332,2877],[-20,175],[47,122],[-27,144],[-48,82],[-84,46],[-38,107]],[[2325,3095],[-5,-13]],[[2846,3905],[-26,166],[114,-2],[14,27]],[[507,3914],[15,-15],[3,-5],[29,-114],[31,-34],[30,-100],[-30,-67],[16,-32],[-92,-45],[-61,36],[17,-94],[-95,-134],[4,-104],[-126,24],[-48,-14],[-19,-1],[-76,36],[-83,-29],[-22,-4]],[[70,3241],[3,1]],[[160,3229],[-4,2]],[[299,3220],[-3,0]],[[324,3216],[-2,1]],[[370,3205],[-9,0]],[[368,3275],[0,3]],[[445,3533],[-2,-7]],[[464,3490],[0,-3]],[[527,3512],[-3,-1]],[[537,3834],[1,-3]],[[117,3249],[8,-2],[-3,1],[-5,1]],[[228,3226],[1,0],[5,2],[-6,-2]],[[378,3215],[0,3],[0,-3]],[[403,3345],[3,3],[-3,-3]],[[505,3916],[2,-2],[2,-2],[-4,4]],[[570,3525],[5,3],[-1,-1],[-4,-2]],[[587,3738],[0,-2],[0,-5],[0,7]],[[592,3607],[2,-2],[-2,2]],[[601,3672],[1,-1],[-1,1]],[[602,3671],[1,-2],[-1,2]],[[443,3521],[-236,-113],[-70,43],[-32,-26],[-76,-1],[-29,-34]],[[53,3427],[3,0]],[[130,3448],[2,2]],[[184,3428],[1,-2]],[[253,3441],[2,1]],[[334,3457],[2,2]],[[437,3513],[-3,0]],[[442,3527],[1,2],[1,3],[0,1]],[[443,3530],[0,-9]],[[216,3418],[2,3],[-2,-3]],[[1946,4096],[-15,-142],[-43,-23],[-34,19],[-8,-40],[86,-232],[-115,-49],[-91,13],[-59,-23],[27,-10],[26,-96],[110,-43],[-93,-49]],[[167,0],[5,5],[18,30],[3,31],[-23,29],[44,-17],[34,49],[2,7],[1,4],[19,67],[15,145],[20,72],[27,64],[31,49],[26,21],[24,-5],[26,-14],[56,-13],[157,-82],[21,-23],[12,-10],[15,0],[13,9],[5,16],[-5,4],[-26,32],[53,-40],[17,-18],[-20,-20],[11,-28],[24,-26],[21,-12],[74,-100],[157,-125],[90,-49],[22,-17],[15,-25],[1,-10],[-275,0],[-8,41],[17,73],[-8,39],[-32,-11],[-45,5],[-22,16],[38,18],[-19,48],[-21,39],[-7,7],[-6,9],[-5,12],[-2,16],[5,0],[15,0],[-48,25],[-21,-2],[-21,-23],[14,-4],[7,-12],[2,-18],[-3,-23],[-16,-18],[-2,-16],[6,-16],[3,-16],[-3,-18],[-8,-17],[-19,-28],[13,-30],[-23,-12],[-55,-1],[-14,-9],[-2,-20],[1,-20],[-5,-9],[-17,0],[-14,-2],[-12,-9],[-10,-14],[-90,0],[-2,10],[-4,50],[5,84],[-11,24],[-36,14],[-26,-7],[-21,-21],[-16,-28],[-16,-44],[2,-31],[13,-26],[20,-25],[-181,0]],[[1152,0],[-1,10],[-15,25],[-22,17],[-90,49],[-157,125],[-74,100],[-21,12],[-24,26],[-11,28],[20,20],[-17,18],[-53,40],[26,-32],[5,-4],[-5,-16],[-13,-9],[-15,0],[-12,10],[-21,23],[-157,82],[-56,13],[-26,14],[-24,5],[-26,-21],[-31,-49],[-27,-64],[-20,-72],[-15,-145],[-19,-67],[-1,-4],[-2,-7],[-34,-49],[-44,17],[23,-29],[-3,-31],[-18,-30],[-5,-5]],[[440,0],[-2,10],[-4,50],[5,84],[-11,24],[-36,14],[-26,-7],[-21,-21],[-16,-28],[-16,-44],[2,-31],[13,-26],[20,-25]],[[877,0],[-8,41],[17,73],[-8,39],[-32,-11],[-45,5],[-22,16],[38,18],[-19,48],[-21,39],[-7,7],[-6,9],[-5,12],[-2,16],[5,0],[15,0],[-48,25],[-21,-2],[-21,-23],[14,-4],[7,-12],[2,-18],[-3,-23],[-16,-18],[-2,-16],[6,-16],[3,-16],[-3,-18],[-8,-17],[-19,-28],[13,-30],[-23,-12],[-55,-1],[-14,-9],[-2,-20],[1,-20],[-5,-9],[-17,0],[-14,-2],[-12,-9],[-10,-14]],[[583,1986],[29,-24]],[[612,1962],[16,-10],[33,-15],[9,-2],[9,0],[9,2],[25,10]],[[2031,3987],[92,92]],[[2123,4079],[3,3],[17,14]],[[3575,1174],[5,-17],[8,-11],[21,-18],[13,-16],[89,-159],[13,-17],[14,-16],[15,-14],[63,-44],[132,-67],[64,-42],[26,-23],[23,-26],[21,-30],[14,-26]],[[3121,1466],[32,-17],[102,-28],[16,-6],[15,-8],[16,-10],[14,-13],[11,-12],[45,-66],[9,-12],[10,-10],[13,-9],[13,-6],[14,-3],[40,-1],[26,-4],[25,-9],[23,-19],[9,-12],[8,-15],[7,-15],[6,-17]],[[2127,894],[23,7]],[[1882,737],[34,14],[30,23],[91,84],[17,12],[18,9],[55,15]],[[2141,901],[29,2],[27,11],[4,3]],[[2706,1372],[7,21]],[[2201,917],[21,17],[23,27],[19,32],[64,138],[21,29],[23,25],[26,19],[26,13],[157,44],[37,16],[36,21],[9,8],[9,8],[8,10],[18,29],[3,7],[5,12]],[[4096,2890],[-22,-6],[-28,-12],[-112,-68]],[[3034,1588],[-4,-6],[-11,-34],[-6,-36]],[[3013,1512],[0,-1]],[[3975,2823],[-49,-18],[-17,-4],[-155,-1],[-29,-5],[-28,-11],[-25,-19],[-21,-29],[-17,-34],[-45,-109],[-9,-15],[-11,-15],[-13,-12],[-14,-9],[-15,-7],[-45,-13],[-29,-12],[-25,-22],[-18,-36],[-7,-37],[4,-117],[-5,-33],[-11,-26],[-17,-20],[-22,-12],[-42,-10],[-19,-8],[-18,-17],[-9,-15],[-7,-18],[-4,-19],[-3,-20],[-5,-55],[-5,-155],[-6,-49],[-12,-47],[-10,-28],[-14,-23],[-16,-19],[-19,-17],[-73,-52],[-24,-20],[-20,-25],[-12,-22]],[[2991,1453],[0,-3],[-45,-69],[-60,-38],[-62,7]],[[3013,1539],[-6,-26]],[[2824,1350],[-3,0]],[[3007,1513],[-16,-60]],[[2724,1416],[-75,1],[-19,4],[-21,9]],[[1620,1563],[-4,0],[-5,3]],[[2413,1542],[-3,2]],[[1611,1566],[-24,14],[-25,24],[-48,54],[-23,19],[-12,8],[-12,6],[-16,5],[-63,10],[-29,8],[-27,13],[-53,32],[-16,8],[-15,4],[-17,1],[-15,-2],[-44,-15],[-32,-7],[-32,3],[-30,13],[-29,22],[-53,56],[-14,10],[-14,8],[-14,4],[-16,0],[-45,-2],[-15,2],[-32,12],[-20,5],[-6,3],[-57,52],[-12,10],[-15,8],[-15,3],[-13,-6]],[[2410,1544],[-30,17],[-16,12],[-87,80],[-15,11],[-29,17],[-29,12],[-80,24],[-67,11],[-68,2],[-66,-7],[-30,-7],[-29,-9],[-28,-13],[-28,-17],[-97,-86],[-22,-16],[-24,-11],[-24,-5],[-21,4]],[[2609,1430],[-16,7],[-180,105]],[[1809,3981],[1,1],[12,10],[12,4],[14,-2],[14,-6],[10,-8]],[[1995,3958],[36,29]],[[549,3234],[10,13],[11,5],[13,-1],[41,-12],[14,0],[14,4],[25,18],[47,44],[25,15],[18,5],[180,12],[41,8],[38,18],[34,31],[13,21],[10,23],[7,27],[3,27],[0,23],[-8,67],[1,23],[5,19],[18,36],[7,19],[2,21],[0,21],[-8,62],[0,20],[3,20],[10,28],[14,22],[18,18],[20,13],[45,15],[47,5],[163,-3],[33,4],[33,12],[12,8],[11,10],[29,37],[10,9],[11,5],[12,2],[29,-6],[28,-13],[54,-34],[14,-6],[14,-4],[14,-3],[28,1],[7,2],[7,3],[12,10],[21,23]],[[1872,3980],[2,-1],[47,-45],[9,-4],[8,-1],[9,1],[9,3],[8,3],[18,10],[13,12]],[[547,1998],[13,0],[22,-9]],[[0,1435],[12,9],[40,7],[140,-18],[23,0],[23,3],[23,5],[23,9],[22,15],[18,21],[14,28],[8,37],[1,38],[-6,37],[-19,70],[-7,35],[-2,35],[7,36],[14,30],[19,27],[41,46],[47,43],[25,18],[25,16],[22,10],[24,6],[10,0]],[[1670,0],[28,57],[10,16],[57,67],[8,15],[6,18],[3,22],[1,22],[-17,148],[-1,117],[5,118],[6,45],[4,19],[6,16],[10,5]],[[598,2162],[-6,-22],[-16,-26],[-9,-4]],[[383,2510],[22,-18],[88,-58]],[[0,2819],[46,-4],[14,-4]],[[60,2811],[14,-3],[25,-20],[20,-32],[34,-69],[27,-34],[33,-26],[103,-61],[67,-56]],[[493,2434],[31,-22],[28,-21],[25,-26],[17,-19],[7,-12],[5,-13],[5,-29],[1,-29],[-1,-30],[-4,-29],[-5,-31],[-4,-11]],[[567,2110],[-12,-4]],[[304,3283],[-9,-11],[-8,-15],[-5,-15],[-1,-17],[2,-8],[4,-6],[4,-4],[25,-19],[29,-18],[24,-10],[24,-5],[25,-1],[22,4],[20,6],[21,10],[36,23],[18,15],[16,18],[10,22]],[[1776,675],[31,12],[29,15],[28,20],[25,24]],[[2801,1372],[-7,10],[-7,7],[-7,7],[-15,8],[-15,3],[-32,1]],[[2821,1350],[-15,15],[-5,7]],[[3015,1519],[17,-10]],[[3032,1509],[101,-52]],[[0,3261],[90,29],[32,3],[118,-11],[26,-9],[22,-18]],[[561,2013],[22,-27]],[[568,2113],[-1,-2]],[[567,2111],[-11,-8],[-6,-7],[-4,-7],[-4,-11],[-1,-10],[1,-10],[3,-11],[7,-18],[9,-16]],[[380,3333],[-4,1],[-9,-1],[-10,-1],[-9,-4],[-9,-5],[-18,-18],[-14,-17]],[[307,3288],[-3,-5]],[[561,3252],[-4,33],[-28,16],[-60,9],[-69,21],[-20,2]],[[752,2124],[-13,8],[-17,7],[-17,5],[-17,2],[-13,0],[-27,-4],[-57,-17],[-23,-12]],[[2329,3227],[26,-144],[11,-110],[1,-26],[-1,-10]],[[2277,3467],[8,-19],[7,-24],[8,-40]],[[2118,3655],[1,0],[54,-40],[13,-11],[14,-15],[34,-52]],[[2015,3970],[12,-45],[3,-17]],[[2030,3908],[20,-126],[6,-23],[7,-22],[9,-21],[10,-19],[11,-16],[12,-14],[13,-12]],[[2234,3537],[33,-49],[9,-17],[1,-4]],[[2300,3384],[29,-157]],[[2366,2937],[0,-16]],[[1947,4096],[49,-138]],[[365,598],[13,-39]],[[285,828],[6,-8],[4,-9],[70,-213]],[[360,591],[40,-7],[79,-46],[39,-18]],[[518,520],[17,-3],[17,0],[17,4],[16,9],[11,11],[32,35],[16,13],[12,7]],[[656,596],[4,2],[18,4],[17,-1],[19,-9],[50,-46]],[[758,555],[31,-11],[91,-48],[14,-5],[14,-4],[14,-1],[14,1],[16,5],[15,8],[14,11],[14,14],[54,71],[21,16],[16,5],[16,2],[400,-5],[274,61]],[[90,531],[74,-36],[20,-7],[21,-4],[21,-1],[26,6],[24,14],[13,11]],[[295,519],[80,68]],[[12,534],[34,9],[33,-6],[11,-6]],[[289,514],[6,5]],[[21,522],[-21,-33]],[[829,2232],[-13,-7],[-22,-19],[-18,-25],[-11,-31],[-1,-38]],[[2366,2921],[-40,-70],[-48,-56],[-54,-45],[-108,-65],[-23,-18],[-22,-24],[-61,-100],[-24,-29],[-48,-34],[-52,-12],[-207,26],[-33,1],[-14,-2],[-13,-5],[-12,-6],[-13,-9],[-6,-3],[-6,-2],[-7,-1],[-87,3],[-70,-4],[-35,-7],[-32,-10],[-31,-13],[-29,-20],[-27,-25],[-54,-72],[-21,-18],[-18,-9],[-19,-5],[-200,-15],[-69,-16],[-35,-13],[-19,-11]],[[568,519],[96,-40],[28,-15]],[[698,460],[12,-6],[28,-19],[13,-12],[2,-3]],[[692,464],[6,-4]],[[753,420],[44,-57],[86,-131],[52,-49],[30,-15],[63,-18],[29,-16],[28,-25],[93,-109]],[[0,1006],[272,-165],[7,-6],[6,-7]],[[2379,3101],[-18,-9]],[[3506,3064],[-12,11],[-1,2],[-2,12],[-3,8],[-3,8],[-6,11],[-8,10],[-8,7],[-10,6],[-22,8],[-95,5],[-12,2],[-12,3],[-13,6],[-13,8],[-79,63],[-29,18],[-31,13],[-26,6],[-27,1],[-25,-8],[-23,-21],[-36,-58],[-10,-12],[-10,-12],[-11,-9],[-31,-18],[-34,-6],[-34,1],[-86,13],[-28,1],[-73,-7],[-27,3],[-84,28],[-16,3],[-14,1],[-14,-1],[-27,-6],[-6,-2],[-126,-61]],[[3860,2795],[-18,50],[-25,44],[-29,39],[-31,33],[-23,20],[-24,18],[-25,15],[-26,11]],[[3655,3018],[-14,16],[-16,9],[-17,5],[-81,9],[-21,7]],[[3713,4096],[-5,-17],[-6,-36],[-2,-36],[1,-37]],[[3963,3749],[3,-2],[6,-4]],[[3985,3735],[13,-8],[21,-16],[21,-22],[16,-27],[7,-34],[-1,-12],[-1,-15]],[[3684,4033],[11,-39],[19,-35],[22,-31],[48,-57],[55,-54],[29,-21],[95,-47]],[[3972,3743],[13,-8]],[[4061,3601],[-5,-37],[0,-15],[0,-15],[1,-16],[3,-18],[4,-18],[7,-16],[9,-13],[16,-10]],[[3144,4056],[66,-25]],[[3069,4096],[48,-30],[27,-10]],[[3210,4031],[38,-15],[68,-16],[68,-8],[68,1],[33,5],[31,9],[29,12],[117,77]],[[763,1997],[10,19],[7,30],[-1,29],[-8,27],[-17,20],[-2,2]],[[713,1947],[34,28],[14,18],[2,4]],[[2324,2945],[-6,-79],[-8,-39],[-11,-18]],[[2651,1410],[-33,28],[-44,53]],[[729,337],[48,-25],[-15,0],[-5,0],[2,-16],[5,-12],[6,-9],[7,-7],[21,-39],[19,-48],[-38,-18],[22,-16],[45,-5],[32,11],[8,-39],[-17,-73],[8,-41],[-347,0],[10,14],[12,9],[14,2],[17,0],[5,9],[-1,20],[2,20],[14,9],[55,1],[23,12],[-13,30],[19,28],[8,17],[3,18],[-3,16],[-6,16],[2,16],[16,18],[3,23],[-2,18],[-7,12],[-14,4],[21,23],[21,2]],[[348,0],[-20,25],[-13,26],[-2,31],[16,44],[16,28],[21,21],[26,7],[36,-14],[11,-24],[-5,-84],[4,-50],[2,-10],[-92,0]],[[4096,3198],[0,-3198],[-963,0],[-1981,0],[-1,10],[-15,25],[-22,17],[-90,49],[-157,125],[-74,100],[-21,12],[-24,26],[-11,28],[20,20],[-17,18],[-53,40],[26,-32],[5,-4],[-5,-16],[-13,-9],[-15,0],[-12,10],[-21,23],[-157,82],[-56,13],[-26,14],[-24,5],[-26,-21],[-31,-49],[-27,-64],[-20,-72],[-15,-145],[-19,-67],[-1,-4],[-2,-7],[-34,-49],[-44,17],[23,-29],[-3,-31],[-18,-30],[-5,-5],[-167,0],[0,4096],[4096,0],[0,-898]],[[0,2714],[0,72],[65,-47],[-65,-25]],[[3476,929],[34,92],[58,-110],[143,5],[6,-23],[56,-9],[125,-83],[21,-17],[-47,-62],[98,-14],[45,33],[17,-20],[-37,-57],[35,15],[-4,21],[20,-21],[-49,-41],[99,-50],[-20,-61],[-28,1],[-19,-44],[12,-23],[41,1],[14,53],[-14,-151],[-97,17],[41,57],[-26,21],[-17,-31],[-23,30],[13,53],[-38,10],[16,20],[-31,5],[5,27],[-101,-20],[-35,79],[-55,3],[-7,37],[-32,-15],[15,45],[-51,108],[-183,119]],[[2988,3737],[95,79],[30,73],[32,-13],[46,37],[20,1],[-50,-28],[1,-10],[56,22],[7,-32],[25,40],[34,-18],[11,23],[81,-18],[-22,17],[32,14],[132,-31],[45,27],[9,38],[34,30],[-35,-47],[-4,-32],[59,40],[74,-12],[0,-142],[-52,-61],[-8,-49],[-12,15],[-24,-16],[32,-13],[5,10],[2,-7],[6,9],[11,3],[5,-4],[-47,-43],[-1,35],[-65,-11],[7,-56],[-59,-43],[-31,8],[1,25],[-44,-10],[-59,62],[-45,-11],[6,40],[-82,67],[-85,8],[-112,-48],[-61,32]],[[3221,3857],[15,5],[3,5],[-11,-1],[-7,-9]],[[728,210],[-34,30],[26,81],[39,-21],[-31,-90]],[[3434,903],[-4,-63],[42,-66],[-42,-51],[-65,0],[0,-23],[-65,187],[134,16]],[[2181,815],[-46,25],[-15,43],[38,67],[54,-41],[21,-69],[-52,-25]],[[642,645],[37,-131],[89,-7],[11,-58],[-28,-31],[-64,52],[31,-36],[-33,-25],[-190,115],[-106,32],[-74,-110],[-27,24],[9,61],[50,60],[170,63],[17,-70],[19,-1],[29,47],[60,15]],[[4044,2216],[-64,47],[48,93],[30,-63],[-14,-77]],[[1764,2376],[-40,20],[-9,54],[29,22],[84,-46],[-21,-39],[-43,-11]],[[3310,2517],[-26,2],[-13,35],[13,129],[76,-83],[5,-57],[-55,-26]],[[517,2170],[-62,81],[-2,35],[41,49],[40,-38],[-17,-127]],[[421,2389],[-45,38],[-21,69],[35,17],[111,-63],[-31,-58],[-49,-3]],[[840,2283],[-23,-103],[-24,-10],[0,-187],[-49,23],[-89,-55],[-121,32],[64,70],[-45,83],[13,34],[97,-24],[97,47],[-32,117],[32,-47],[24,10],[8,83],[48,-73]],[[2961,1657],[37,-27],[11,27],[26,-11],[-3,-137],[-55,7],[0,-22],[24,-70],[42,-9],[-2,-39],[-32,16],[-32,-109],[-27,-8],[-103,8],[-32,93],[-65,-23],[0,-23],[-49,46],[-64,0],[-49,94],[-32,0],[-28,98],[-69,-5],[44,76],[94,17],[7,24],[4,-60],[45,-57],[65,24],[32,70],[62,-56],[35,9],[33,93],[48,0],[33,-46]],[[1645,1542],[5,-72],[-26,-5],[-55,51],[13,39],[33,12],[30,-25]],[[2427,1470],[-48,25],[-17,68],[51,-20],[14,-73]],[[3464,3196],[-29,20],[-5,50],[81,-23],[-47,-47]],[[2313,3379],[-81,27],[20,47],[30,16],[80,-16],[-10,-55],[-39,-19]],[[3074,3266],[-44,19],[-17,53],[13,52],[48,16],[0,-140]],[[2836,3362],[27,-26],[-16,-47],[-32,47],[-33,0],[-32,70],[31,23],[55,-67]],[[2363,3192],[1,-79],[70,-53],[-24,-27],[0,-70],[-81,-47],[-16,93],[-81,24],[97,116],[-11,24],[-53,5],[0,41],[48,24],[50,-51]],[[392,3327],[12,-38],[65,0],[-20,-68],[-38,-34],[-104,9],[0,117],[52,30],[33,-16]],[[4028,3756],[68,-11],[-19,-153],[-121,67],[7,97],[17,-23],[48,23]],[[598,3709],[-44,30],[12,64],[38,-40],[-6,-54]],[[1812,4012],[32,24],[26,-23],[6,-117],[-57,45],[-23,95],[16,-24]],[[3203,3896],[-32,23],[-33,163],[130,-93],[-18,-68],[-47,-25]],[[3723,4096],[12,0],[2,-14],[-14,14]],[[1933,4096],[193,0],[-7,-37],[-48,-47],[-17,-140],[-129,187],[8,37]],[[1566,4096],[35,0],[-17,-10],[-18,10]],[[2249,3546],[-60,-35],[-21,35],[-33,0],[-32,47],[16,66],[65,27],[65,-140]],[[1148,3616],[-30,65],[30,75],[25,-20],[-25,-120]],[[3478,2706],[-97,23],[32,71],[59,-56],[6,-38]],[[1553,2659],[-80,8],[-14,32],[45,31],[49,-71]],[[0,2811],[0,38],[64,-26],[-11,-35],[-53,23]],[[85,537],[24,72],[127,6],[61,-36],[-20,-176],[-71,-253],[-45,22],[23,48],[-12,84],[-54,73],[14,109],[-47,51]],[[2575,1580],[81,143],[32,8],[-11,53],[29,7],[5,70],[52,-6],[14,-29],[35,49],[58,-45],[74,6],[39,-53],[7,-22],[-54,4],[-122,-128],[-99,-32],[-9,-24],[-117,-36],[-14,35]],[[709,804],[12,20],[56,-62],[36,52],[37,-64],[78,6],[2,42],[-49,58],[34,19],[18,53],[21,-26],[-19,-8],[28,-111],[-65,-115],[-85,-12],[-104,148]],[[1739,1322],[63,75],[145,79],[103,7],[13,67],[60,-13],[27,55],[30,-28],[18,41],[58,-32],[-37,-12],[-20,-80],[72,6],[21,-31],[48,-3],[-24,-58],[98,-22],[-32,-11],[4,-19],[-108,-15],[-36,9],[-41,64],[7,-63],[-119,-66],[-15,18],[-58,-24],[14,-68],[25,-3],[-37,-30],[-74,16],[-41,88],[-29,-51],[11,94],[-55,-39],[5,-45],[-17,50],[-16,-25],[-24,51],[-39,18]]]}