{"objects":{"water":{"type":"GeometryCollection","geometries":[]},"buildings":{"type":"GeometryCollection","geometries":[]},"places":{"type":"GeometryCollection","geometries":[{"type":"Point","properties":{"source":"naturalearthdata.com","kind":"locality","name":"Kuybyshevskiy","population":8925,"min_zoom":7.0,"id":2238},"coordinates":[3463,968]},{"type":"Point","properties":{"name:pt":"Duchambe","name:ps":"\u062f\u0648\u0634\u0646\u0628\u0647","name:ka":"\u10d3\u10e3\u10e8\u10d0\u10dc\u10d1\u10d4","name:ko":"\ub450\uc0e8\ubca0","name:kn":"\u0ca6\u0cc1\u0cb6\u0cbe\u0c82\u0cac\u0cc6","name:hy":"\u0534\u0578\u0582\u0577\u0561\u0576\u0562\u0565","name:cs":"Du\u0161anbe","name:tt":"\u0414\u04af\u0448\u04d9\u043d\u0431\u0435","name:tr":"Du\u015fanbe","name:ku":"Du\u015fenbe","int_name":"Dushanbe","name:tl":"Dushanbe","name:sv":"Dusjanbe","name:pl":"Duszanbe","name:ta":"\u0ba4\u0bc1\u0b9a\u0bbe\u0ba9\u0bcd\u0baa\u0bc7","name:ht":"Douchanbe","name:ca":"Duixanbe","name:ro":"Du\u0219anbe","name:cy":"Dushanbe","name:da":"Dusjanbe","name:fr":"Douchanb\u00e9","name:de":"Duschanbe","source":"openstreetmap.org","admin_level":"2","name:lv":"Du\u0161anbe","name:lt":"Du\u0161anb\u0117","name:uz":"Dushanbe","name:he":"\u05d3\u05d5\u05e9\u05e0\u05d1\u05d4","min_zoom":8.0,"kind":"locality","name:ur":"\u062f\u0648\u0634\u0646\u0628\u06c1","old_name":"Stalinabad","country_capital":true,"name:ug":"D\u00fcshenbe","name:hu":"Dusanbe","name:hr":"Du\u0161anbe","name:oc":"Doshambe","population":543107,"name:el":"\u039d\u03c4\u03bf\u03c5\u03c3\u03b1\u03bc\u03c0\u03ad","name:eo":"Du\u015danbeo","name:en":"Dushanbe","name":"\u0414\u0443\u0448\u0430\u043d\u0431\u0435","name:th":"\u0e14\u0e39\u0e0a\u0e32\u0e19\u0e40\u0e1a","name:eu":"Dushanbe","name:et":"Du\u0161anbe","name:nl":"Doesjanbe","name:es":"Dusamb\u00e9","name:az":"D\u00fc\u015f\u0259nb\u0259","name:ie":"Dushanbe","name:id":"Dushanbe","name:mr":"\u0926\u0941\u0936\u093e\u0902\u092c\u0947","name:ar":"\u062f\u0648\u0634\u0646\u0628\u0647","name:io":"Dushanbe","name:is":"D\u00fashanbe","name:am":"\u12f1\u123b\u1295\u1264","name:it":"Du\u0161anbe","name:ml":"\u0d26\u0d41\u0d37\u0d3e\u0d7b\u0d2c\u0d46","name:vi":"Dushanbe","id":27547977,"name:af":"Doesjanbe","name:fa":"\u062f\u0648\u0634\u0646\u0628\u0647\u200e","kind_detail":"city","old_name:ru":"\u0421\u0442\u0430\u043b\u0438\u043d\u0430\u0431\u0430\u0434","name:zh-min-nan":"Dushanbe","name:hi":"\u0926\u0941\u0936\u093e\u0928\u094d\u092c\u0947","name:fy":"Doesjanbe","name:zh":"\u675c\u5c1a\u522b","name:sl":"Du\u0161anbej","name:sk":"Du\u0161anbe","name:ja":"\u30c9\u30a5\u30b7\u30e3\u30f3\u30d9","name:nn":"Dusjanbe","name:sh":"Du\u0161anbe","name:br":"Douchanbe","name:bs":"Du\u0161anbe","name:yi":"\u05d3\u05d5\u05e9\u05d0\u05e0\u05d1\u05e2","name:bn":"\u09a6\u09c1\u09b6\u09be\u09a8\u09cd\u200c\u09ac\u09c7","name:bo":"\u0f51\u0f74\u0f0b\u0f64\u0f44\u0f0b\u0f54\u0f7a\u0f0d","name:no":"Dusjanbe","name:sw":"Dushanbe","name:be":"\u0414\u0443\u0448\u0430\u043d\u0431\u044d","name:sq":"Dushanbe","name:ga":"Dushanbe","name:gd":"Dushanbe","name:gl":"Dushanbe","name:yo":"Dushanbe","name:fi":"Du\u0161anbe"},"coordinates":[3747,3182]},{"type":"Point","properties":{"int_name":"Qurghonteppa","name:ja":"\u30af\u30eb\u30ac\u30f3\u30c6\u30c3\u30d1","min_zoom":8.0,"old_name:en":"Kurgan Tyube","old_name":"\u041a\u0443\u0440\u0433\u0430\u043d-\u0422\u044e\u0431\u0435","name:ru":"\u041a\u0443\u0440\u0433\u0430\u043d-\u0422\u044e\u0431\u0435","id":1813877089,"population":105400,"name:fa":"\u0642\u0631\u063a\u0627\u0646\u200c\u062a\u067e\u0647","kind":"locality","name:en":"Qurghonteppa","name":"\u049a\u0443\u0440\u0493\u043e\u043d\u0442\u0435\u043f\u043f\u0430","kind_detail":"city","name:de":"Qurghonteppa","source":"openstreetmap.org","name:fr":"Qurghonteppa"},"coordinates":[3734,435]},{"type":"Point","properties":{"kind":"locality","name":"Denov","kind_detail":"town","min_zoom":8.0,"source":"openstreetmap.org","name:fr":"Denaou","name:ru":"\u0414\u0435\u043d\u0430\u0443","population":104393,"id":245660119,"name:ja":"\u30c7\u30ca\u30a6"},"coordinates":[1145,2050]},{"type":"Point","properties":{"kind":"locality","name:en":"Tursunzoda","name":"\u0422\u0443\u0440\u0441\u0443\u043d\u0437\u043e\u0434\u0430","kind_detail":"town","source":"openstreetmap.org","min_zoom":8.0,"int_name":"Tursunzoda","old_name:en":"Regar","old_name":"\u0420\u0435\u0433\u0430\u0440","name:ru":"\u0422\u0443\u0440\u0441\u0443\u043d\u0437\u0430\u0434\u0435","population":37000,"id":364463217,"name:ja":"\u30c4\u30eb\u30b9\u30f3\u30be\u30c0"},"coordinates":[2140,2947]},{"type":"Point","properties":{"name:fa":"\u062d\u0635\u0627\u0631","kind":"locality","name:en":"Hisor","name":"\u04b2\u0438\u0441\u043e\u0440","kind_detail":"town","name:de":"Chisor","source":"openstreetmap.org","min_zoom":8.0,"int_name":"Hisor","name:ru":"\u0413\u0438\u0441\u0441\u0430\u0440","population":26900,"id":252854134,"name:ja":"\u30ae\u30c3\u30b5\u30fc\u30eb"},"coordinates":[3066,2993]},{"type":"Point","properties":{"kind":"locality","name:en":"Somoniyon","name":"\u0421\u043e\u043c\u043e\u043d\u0438\u0451\u043d","kind_detail":"town","source":"openstreetmap.org","min_zoom":8.0,"int_name":"Somoniyon","old_name":"Kuktosh;Koktash;imeni Karakhon Sardorova;\u0438\u043c\u0435\u043d\u0438 \u041a\u0430\u0440\u0430\u0445\u043e\u043d \u0421\u0430\u0440\u0434\u043e\u0440\u043e\u0432\u0430;Lenin;Leninskiy","id":1577904854,"population":18600},"coordinates":[3710,2684]},{"type":"Point","properties":{"kind":"locality","int_name":"Kumkurgan","name":"Qumqo\u2018rg\u2018on","kind_detail":"town","source":"openstreetmap.org","min_zoom":8.0,"name:ru":"\u041a\u0443\u043c\u043a\u0443\u0440\u0433\u0430\u043d","population":12173,"id":247170889,"name:ja":"\u30af\u30e0\u30af\u30eb\u30ac\u30f3"},"coordinates":[277,411]},{"type":"Point","properties":{"kind":"locality","name:en":"Abdurakhmana Jami","name":"\u0410\u0431\u0434\u0443\u0440\u0430\u04b3\u043c\u043e\u043d\u0438 \u04b6\u043e\u043c\u04e3","kind_detail":"town","old_name:ru":"\u041a\u0443\u0439\u0431\u044b\u0448\u0435\u0432\u0441\u043a","old_name:tg":"\u041a\u0443\u0439\u0431\u044b\u0448\u0435\u0432","source":"openstreetmap.org","min_zoom":8.0,"int_name":"Kuybyshevsk","old_name:en":"Kuybyshevsk","old_name":"\u041a\u0443\u0439\u0431\u044b\u0448\u0435\u0432","name:ru":"\u0410\u0431\u0434\u0443\u0440\u0430\u0445\u043c\u0430\u043d\u0430 \u0414\u0436\u0430\u043c\u0438","id":2503241202,"population":10500},"coordinates":[3795,855]},{"type":"Point","properties":{"kind":"locality","name:en":"Karlyuk","name":"Qorliq","kind_detail":"town","source":"openstreetmap.org","min_zoom":8.0,"alt_name:en":"Karluk","name:ru":"\u041a\u0430\u0440\u043b\u0443\u043a","id":247170708,"population":10100},"coordinates":[685,1700]},{"type":"Point","properties":{"kind":"locality","alt_name:en":"Sary Assiya;Uzun-Kishlak","name":"Uzun","kind_detail":"town","source":"openstreetmap.org","min_zoom":8.0,"name:ru":"\u0423\u0437\u0443\u043d","id":1483302495,"population":1000},"coordinates":[1470,2411]}]},"transit":{"type":"GeometryCollection","geometries":[{"type":"MultiLineString","properties":{"kind":"train","name":"Termez-Toshkent","sort_rank":275,"source":"openstreetmap.org","min_zoom":6.0,"name:ru":"\u0422\u0435\u0440\u043c\u0435\u0437-\u0422\u0430\u0448\u043a\u0435\u043d\u0442","ref":"Termez-Toshkent","osm_relation":true},"arcs":[[12],[13]]},{"type":"MultiLineString","properties":{"kind":"train","name":"Denau - Toshkent","sort_rank":275,"source":"openstreetmap.org","min_zoom":6.0,"name:ru":"\u0414\u0435\u043d\u0430\u0443-\u0422\u0430\u0448\u043a\u0435\u043d\u0442","ref":"Denau-Toshkent","osm_relation":true},"arcs":[[14],[15],[16]]},{"type":"LineString","properties":{"source":"openstreetmap.org","kind":"train","name":"\u0414\u0443\u0448\u0430\u043d\u0431\u0435 \u2014 \u041c\u043e\u0441\u043a\u0432\u0430","sort_rank":275,"ref":"329\u0417","min_zoom":6.0,"osm_relation":true},"arcs":[17]}]},"pois":{"type":"GeometryCollection","geometries":[]},"boundaries":{"type":"GeometryCollection","geometries":[{"type":"LineString","properties":{"name:right:yo":"\u00d9sb\u1eb9\u0300k\u00ecst\u00e1n","name:right:yi":"\u05d0\u05d5\u05d6\u05d1\u05e2\u05e7\u05d9\u05e1\u05d8\u05d0\u05df","name:left:la":"Tadzikistania","name:right:qu":"Usbiksuyu","name:left:vi":"Tajikistan","name:left:sw":"Tajikistan","name:left:ka":"\u10e2\u10d0\u10ef\u10d8\u10d9\u10d4\u10d7\u10d8","name:left:km":"\u178f\u17b6\u1787\u17b8\u1782\u17b8\u179f\u17d2\u1790\u17b6\u1793","name:left:sq":"Taxhikistani","name:left:ko":"\ud0c0\uc9c0\ud0a4\uc2a4\ud0c4","name:left:kn":"\u0ca4\u0c9c\u0cbf\u0c95\u0cbf\u0cb8\u0ccd\u0ca4\u0cbe\u0ca8\u0ccd","name:right:is":"\u00dasbekistan","name:right:rw":"Uzubekisitani","name:left:kk":"\u0422\u04d9\u0436\u0456\u043a\u0441\u0442\u0430\u043d","name:right:ru":"\u0423\u0437\u0431\u0435\u043a\u0438\u0441\u0442\u0430\u043d","name:left:ku":"Tac\u00eekistan","name:left:kw":"Pow Tajik","name:left:kv":"\u0422\u0430\u0434\u0436\u0438\u043a\u0438\u0441\u0442\u0430\u043d","name:right:ro":"Uzbekistan","name:left:ru":"\u0422\u0430\u0434\u0436\u0438\u043a\u0438\u0441\u0442\u0430\u043d","name:right:ie":"Uzbekistan","name:right:id":"Uzbekistan","name:left:ky":"\u0422\u0430\u0436\u0438\u043a\u0441\u0442\u0430\u043d","name:right:ia":"Uzbekistan","name:right:bn":"\u0989\u099c\u09ac\u09c7\u0995\u09bf\u09b8\u09cd\u09a4\u09be\u09a8","name:right:bo":"\u0f68\u0f74\u0f0b\u0f5f\u0f0b\u0f56\u0fb7\u0f7a\u0f0b\u0f41\u0f72\u0f0b\u0f66\u0f72\u0f0b\u0f50\u0f53\u0f0d","name:left:sl":"Tad\u017eikistan","name:right:ba":"\u04ae\u0437\u0431\u04d9\u043a\u0441\u0442\u0430\u043d","name:right:bg":"\u0423\u0437\u0431\u0435\u043a\u0438\u0441\u0442\u0430\u043d","name:right:be":"\u0423\u0437\u0431\u0435\u043a\u0456\u0441\u0442\u0430\u043d","name:right:br":"Ouzbekistan","name:left:lt":"Tad\u017eikija","name:right:nn":"Usbekistan","name:right:no":"Usbekistan","name:right:nl":"Oezbekistan","name:left:lv":"Tad\u017eikist\u0101na","name:right:wo":"Usbekistaan","name:right:na":"Uzbekistan","name:right:gv":"Yn Oosbeckistaan","name:right:nv":"\u00d3zbe\u02bc Bik\u00e9yah","kind_detail":"2","alt_name:right:vi":"U-d\u01a1-b\u00ea-k\u00edt-xtan;Uzbekstan;Ozbekistan","name:right:gu":"\u0a89\u0a9d\u0aac\u0ac7\u0a95\u0abf\u0ab8\u0acd\u0aa4\u0abe\u0aa8","name:right:ps":"\u0627\u0648\u0632\u0628\u06a9\u0633\u062a\u0627\u0646","name:right:pt":"Uzbequist\u00e3o","name:left:mk":"\u0422\u0430\u045f\u0438\u043a\u0438\u0441\u0442\u0430\u043d","name:left:tr":"Tacikistan","name:left:tt":"\u0422\u0430\u0497\u0438\u043a\u0441\u0442\u0430\u043d","name:left:mn":"\u0422\u0430\u0436\u0438\u043a\u0438\u0441\u0442\u0430\u043d","name:left:ml":"\u0d24\u0d3e\u0d1c\u0d3f\u0d15\u0d4d\u0d15\u0d3f\u0d38\u0d4d\u0d25\u0d3e\u0d7b","name:left:th":"\u0e1b\u0e23\u0e30\u0e40\u0e17\u0e28\u0e17\u0e32\u0e08\u0e34\u0e01\u0e34\u0e2a\u0e16\u0e32\u0e19","name:right:pa":"\u0a09\u0a1c\u0a3c\u0a2c\u0a47\u0a15\u0a3f\u0a38\u0a24\u0a3e\u0a28","name:left:tk":"T\u00e4jigistan","name:left:tl":"Tayikistan","name:right:gl":"Uzbequist\u00e1n","name:left:my":"\u1010\u102c\u1002\u103b\u1005\u103a\u1000\u1005\u1039\u1005\u1010\u1014\u103a\u1014\u102d\u102f\u1004\u103a\u1004\u1036","name:right:pl":"Uzbekistan","name:left:te":"\u0c24\u0c1c\u0c3f\u0c15\u0c3f\u0c38\u0c4d\u0c24\u0c3e\u0c28\u0c4d","name:left:ms":"Tajikistan","name:left:mr":"\u0924\u093e\u091c\u093f\u0915\u093f\u0938\u094d\u0924\u093e\u0928","name:right:tr":"\u00d6zbekistan","name:left:da":"Tadsjikistan","name:left:de":"Tadschikistan","name:left:dz":"\u0f4f\u0f0b\u0f47\u0f42\u0f0b\u0f40\u0f72\u0f66\u0f72\u0f0b\u0f4f\u0f71\u0f53\u0f0b","name:right:ga":"An \u00daisb\u00e9iceast\u00e1in","name:left:dv":"\u078c\u07a6\u0796\u07a8\u0786\u07a8\u0790\u07b0\u078c\u07a7\u0782\u07b0","name:right:ug":"\u0626\u06c6\u0632\u0628\u06d0\u0643\u0649\u0633\u062a\u0627\u0646","name:left:hi":"\u0924\u093e\u091c\u093f\u0915\u093f\u0938\u094d\u0924\u093e\u0928","name:right:lb":"Usbekistan","name:right:uk":"\u0423\u0437\u0431\u0435\u043a\u0438\u0441\u0442\u0430\u043d","name:left:he":"\u05d8\u05d2'\u05d9\u05e7\u05d9\u05e1\u05d8\u05df","name:right:ln":"Uzbekist\u00e1ni","name:right:li":"Oesbekistan","name:right:lt":"Uzbekija","name:right:ur":"\u0627\u0632\u0628\u06a9\u0633\u062a\u0627\u0646","name:right:lv":"Uzbekist\u0101na","name:left:hy":"\u054f\u0561\u057b\u056b\u056f\u057d\u057f\u0561\u0576","name:left:ta":"\u0ba4\u0b9c\u0bbf\u0b95\u0bbf\u0bb8\u0bcd\u0ba4\u0bbe\u0ba9\u0bcd","name:left:ht":"Tadjikistan","name:left:hu":"T\u00e1dzsikiszt\u00e1n","name:left:hr":"Tad\u017eikistan","sort_rank":262,"name:right:gd":"Usbagast\u00e0n","name:right:os":"\u0423\u0437\u0431\u0435\u043a\u0438\u0441\u0442\u0430\u043d","name:right:es":"Uzbekist\u00e1n","name:right:sr":"\u0423\u0437\u0431\u0435\u043a\u0438\u0441\u0442\u0430\u043d","name:right:eu":"Uzbekistan","name:right:et":"Usbekistan","name:left:os":"\u0422\u0430\u0434\u0436\u0438\u043a\u0438\u0441\u0442\u0430\u043d","name:left:or":"\u0b24\u0b3e\u0b1c\u0b3f\u0b15\u0b3f\u0b38\u0b4d\u0b24\u0b3e\u0b28","name:right:ee":"Uzbekistan","name:left:vo":"Tacikist\u00e4n","name:left:oc":"Tatgiquistan","name:right:eo":"Uzbekujo","name:right:en":"Uzbekistan","name:right:el":"\u039f\u03c5\u03b6\u03bc\u03c0\u03b5\u03ba\u03b9\u03c3\u03c4\u03ac\u03bd","name:left:fa":"\u062a\u0627\u062c\u06cc\u06a9\u0633\u062a\u0627\u0646","name:left:fo":"Tadsjikistan","name:right:sk":"Uzbekistan","name:left:fi":"Tad\u017eikistan","name:left:fr":"Tadjikistan","name:left:fy":"Tadzjikistan","name:right:ja":"\u30a6\u30ba\u30d9\u30ad\u30b9\u30bf\u30f3","name:right:sq":"Uzbekistani","name:right:ss":"IZubekhi","name:left:ja":"\u30bf\u30b8\u30ad\u30b9\u30bf\u30f3","name:right:su":"Uzb\u00e9kistan","name:right:sw":"Uzbekistan","name:right:sv":"Uzbekistan","name:right:sh":"Uzbekistan","name:left:qu":"Tayiksuyu","name:right:jv":"Uzbekistan","name:right:sl":"Uzbekistan","name:right:so":"Usbekistan","name:right:sa":"\u0909\u091c\u092c\u0947\u0915\u093f\u0938\u094d\u0925\u093e\u0928","name:left:jv":"Tajikistan","id":-214626,"name:right:ca":"Uzbekistan","name:right:se":"Usbekistan","name:right:ce":"\u0423\u0437\u0431\u0435\u043a\u0438\u0441\u0442\u0430\u043d","name:right:cy":"Uzbekistan","name:right:zh-yue":"\u6708\u5373\u5225","name:right:cs":"Uzbekist\u00e1n","name:right:cv":"\u04f2\u0441\u043f\u0435\u043a\u0441\u0442\u0430\u043d","name:right:it":"Uzbekistan","name:left:ar":"\u0637\u0627\u062c\u064a\u0643\u0633\u062a\u0627\u0646","name:left:az":"Tacikistan","name:left:ay":"Tayiksuyu","name:left:ro":"Tadjikistan","name:left:af":"Tadjikistan","name:left:an":"Tachiquist\u00e1n","name:left:am":"\u1273\u1302\u12aa\u1235\u1273\u1295","name:right:io":"Uzbekistan","name:left:zh-yue":"\u5854\u5409\u514b","name:left:rw":"Tajikisitani","name:right:hy":"\u0548\u0582\u0566\u0562\u0565\u056f\u057d\u057f\u0561\u0576","name:left:lb":"Tadjikistan","alt_name:left:eo":"Ta\u011dikistano;Ta\u011dikio","name:left:su":"Tajikistan","name:left:li":"Tadzjikistan","name:right:hr":"Uzbekistan","name:left:sv":"Tadzjikistan","name:right:ht":"Ouzbekistan","name:right:hu":"\u00dczbegiszt\u00e1n","name:left:ss":"IThajiki","name:left:sr":"\u0422\u0430\u045f\u0438\u043a\u0438\u0441\u0442\u0430\u043d","name:right:hi":"\u0909\u091c\u093c\u094d\u092c\u0947\u0915\u093f\u0938\u094d\u0924\u093e\u0928","name:left:so":"Tadsjikistan","name:left:si":"\u0da7\u0da2\u0dd2\u0d9a\u0dd2\u0dc3\u0dca\u0dae\u0dcf\u0db1\u0dca","name:left:sh":"Tad\u017eikistan","name:left:sk":"Tad\u017eikistan","name:left:se":"Ta\u017eikistan","name:left:sa":"\u0924\u093e\u091c\u093f\u0915\u093f\u0938\u094d\u0925\u093e\u0928","name:right:he":"\u05d0\u05d5\u05d6\u05d1\u05e7\u05d9\u05e1\u05d8\u05df","name:right:la":"Uzbecia","name:right:af":"Oesbekistan","name:left:ce":"\u0422\u0430\u0434\u0436\u0438\u043a\u0438\u0441\u0442\u0430\u043d","name:right:an":"Uzbekist\u00e1n","name:right:am":"\u12a1\u12dd\u1264\u12aa\u1235\u1273\u1295","name:left:ca":"Tadjikistan","source":"openstreetmap.org","name:left:cy":"Tajikistan","name:right:ar":"\u0623\u0648\u0632\u0628\u0643\u0633\u062a\u0627\u0646","name:left:cu":"\u0422\u0430\u0434\u0436\u0438\u043a\u0438\u0441\u0442\u0430\u043d\u044a","name:left:cv":"\u0422\u0430\u0434\u0436\u0438\u043a\u0438\u0441\u0442\u0430\u043d","name:right:az":"\u00d6zb\u0259kistan","name:left:cs":"T\u00e1d\u017eikist\u00e1n","name":"\u0422\u043e\u04b7\u0438\u043a\u0438\u0441\u0442\u043e\u043d - O\u02bbzbekiston","name:left:zh":"\u5854\u5409\u514b\u65af\u5766","name:right:zh":"\u4e4c\u5179\u522b\u514b\u65af\u5766","name:left:uz":"Tojikiston","name:right:fr":"Ouzb\u00e9kistan","name:left:ps":"\u062a\u0627\u062c\u064a\u06a9\u0633\u062a\u0627\u0646","name:left:nv":"T\u02bcaji\u02bc Bik\u00e9yah","name:left:ur":"\u062a\u0627\u062c\u06a9\u0633\u062a\u0627\u0646","id:right":-196240,"name:left:uk":"\u0422\u0430\u0434\u0436\u0438\u043a\u0438\u0441\u0442\u0430\u043d","name:left:no":"Tadsjikistan","name:left:nl":"Tadzjikistan","alt_name:right:eo":"Uzbekistano;Uzbekio","name:right:fa":"\u0627\u0632\u0628\u06a9\u0633\u062a\u0627\u0646","name:right:fo":"Usbekistan","name:left:ug":"\u062a\u0627\u062c\u0649\u0643\u0649\u0633\u062a\u0627\u0646","name:right:fi":"Uzbekistan","name:left:eo":"Ta\u011dikujo","name:left:en":"Tajikistan","name:left:el":"\u03a4\u03b1\u03c4\u03b6\u03b9\u03ba\u03b9\u03c3\u03c4\u03ac\u03bd","name:left:ee":"Tajikistan","name:left:pl":"Tad\u017cykistan","name:left:es":"Tayikist\u00e1n","name:left:ie":"Tadjikistan","name:left:eu":"Tajikistan","name:left:et":"Tad\u017eikistan","name:right:zh-min-nan":"Uzbekistan","name:right:oc":"Ozbequistan","name:left:ia":"Tajikistan","name:right:bs":"Uzbekistan","osm_relation":true,"name:right:or":"\u0b09\u0b1c\u0b2c\u0b47\u0b15\u0b3f\u0b38\u0b4d\u0b25\u0b3e\u0b28","name:left:pt":"Tajiquist\u00e3o","name:right:th":"\u0e1b\u0e23\u0e30\u0e40\u0e17\u0e28\u0e2d\u0e38\u0e0b\u0e40\u0e1a\u0e01\u0e34\u0e2a\u0e16\u0e32\u0e19","name:right:tk":"\u00d6zbegistan","min_zoom":8.0,"name:left:zh-min-nan":"Tajikistan","name:left:wo":"Tajikistaan","name:left:ga":"An T\u00e1ids\u00edceast\u00e1in","name:left:it":"Tagikistan","name:left:gd":"Taidigeast\u00e0n","name:left:gl":"Taxiquist\u00e1n","name:left:gu":"\u0aa4\u0abe\u0a9c\u0abf\u0a95\u0abf\u0ab8\u0acd\u0aa4\u0abe\u0aa8","name:left:gv":"Yn Tajikistaan","official_name:right":"O\u2018zbekiston Respublikasi","name:left":"\u0422\u043e\u04b7\u0438\u043a\u0438\u0441\u0442\u043e\u043d","name:right:mk":"\u0423\u0437\u0431\u0435\u043a\u0438\u0441\u0442\u0430\u043d","name:right:mn":"\u0423\u0437\u0431\u0435\u043a\u0438\u0441\u0442\u0430\u043d","name:right:ml":"\u0d09\u0d38\u0d4d\u0d2c\u0d46\u0d15\u0d4d\u0d15\u0d3f\u0d38\u0d4d\u0d25\u0d3e\u0d7b","name:right:vo":"Lusbek\u00e4n","name:right:vi":"Uzbekistan","name:right:my":"\u1025\u1007\u1018\u1000\u103a\u1000\u1005\u1039\u1005\u1010\u1014\u103a\u1014\u102d\u102f\u1004\u103a\u1004\u1036","name:right:ms":"Uzbekistan","name:right:mr":"\u0909\u091d\u092c\u0947\u0915\u093f\u0938\u094d\u0924\u093e\u0928","name:right:fy":"Oezbekistan","name:left:nn":"Tadsjikistan","kind":"country","name:left:br":"Tadjikistan","name:left:bs":"Tad\u017eikistan","name:left:ba":"\u0422\u0430\u0436\u0438\u043a\u0441\u0442\u0430\u043d","name:left:bg":"\u0422\u0430\u0434\u0436\u0438\u043a\u0438\u0441\u0442\u0430\u043d","name:left:be":"\u0422\u0430\u0434\u0436\u044b\u043a\u0456\u0441\u0442\u0430\u043d","name:left:bn":"\u09a4\u09be\u099c\u09bf\u0995\u09bf\u09b8\u09cd\u09a4\u09be\u09a8","name:left:bo":"\u0f50\u0f0b\u0f47\u0f72\u0f0b\u0f41\u0f7a\u0f0b\u0f66\u0f72\u0f0b\u0f4f\u0f53\u0f0d","name:right":"O\u02bbzbekiston","name:left:yo":"Tajikistan","name:left:yi":"\u05d8\u05d0\u05d3\u05d6\u05e9\u05d9\u05e7\u05d9\u05e1\u05d8\u05d0\u05df","id:left":-214626,"name:left:na":"Tadjikitan","name:right:ka":"\u10e3\u10d6\u10d1\u10d4\u10d9\u10d4\u10d7\u10d8","name:left:io":"Tajikistan","name:right:tt":"\u04ae\u0437\u0431\u04d9\u043a\u0441\u0442\u0430\u043d","name:right:kk":"\u04e8\u0437\u0431\u0435\u043a\u0441\u0442\u0430\u043d","name:left:id":"Tajikistan","name:right:ko":"\uc6b0\uc988\ubca0\ud0a4\uc2a4\ud0c4","name:right:kn":"\u0c89\u0c9c\u0ccd\u0cac\u0cc7\u0c95\u0cbf\u0cb8\u0ccd\u0ca5\u0cbe\u0ca8\u0ccd","name:right:tl":"Uzbekistan","name:right:ku":"\u00dbzb\u00eakistan","name:right:kw":"Pow Ousbek","name:right:kv":"\u0423\u0437\u0431\u0435\u043a\u0438\u0441\u0442\u0430\u043d","name:right:ky":"\u04e8\u0437\u0431\u0435\u043a\u0441\u0442\u0430\u043d","name:right:te":"\u0c09\u0c1c\u0c4d\u0c2c\u0c46\u0c15\u0c3f\u0c38\u0c4d\u0c24\u0c3e\u0c28\u0c4d","name:right:tg":"\u04ee\u0437\u0431\u0430\u043a\u0438\u0441\u0442\u043e\u043d","name:left:is":"Tadsjikistan","name:right:ta":"\u0b89\u0b9a\u0bc1\u0baa\u0bc6\u0b95\u0bcd\u0b95\u0bbf\u0b9a\u0bc1\u0ba4\u0bcd\u0ba4\u0bbe\u0ba9\u0bcd","name:right:de":"Usbekistan","name:right:da":"Usbekistan","name:right:dz":"\u0f68\u0f74\u0f5b\u0f0b\u0f56\u0f7a\u0f0b\u0f40\u0f72\u0f66\u0f72\u0f0b\u0f4f\u0f71\u0f53\u0f0b","name:right:dv":"\u0787\u07aa\u0792\u07b0\u0784\u07ac\u0786\u07a8\u0790\u07b0\u078c\u07a7\u0782\u07b0"},"arcs":[0]},{"type":"LineString","properties":{"name:right:yo":"\u00d9sb\u1eb9\u0300k\u00ecst\u00e1n","name:right:yi":"\u05d0\u05d5\u05d6\u05d1\u05e2\u05e7\u05d9\u05e1\u05d8\u05d0\u05df","name:left:la":"Tadzikistania","name:right:qu":"Usbiksuyu","name:left:vi":"Tajikistan","name:left:sw":"Tajikistan","name:left:ka":"\u10e2\u10d0\u10ef\u10d8\u10d9\u10d4\u10d7\u10d8","name:left:km":"\u178f\u17b6\u1787\u17b8\u1782\u17b8\u179f\u17d2\u1790\u17b6\u1793","name:left:sq":"Taxhikistani","name:left:ko":"\ud0c0\uc9c0\ud0a4\uc2a4\ud0c4","name:left:kn":"\u0ca4\u0c9c\u0cbf\u0c95\u0cbf\u0cb8\u0ccd\u0ca4\u0cbe\u0ca8\u0ccd","name:right:is":"\u00dasbekistan","name:right:rw":"Uzubekisitani","name:left:kk":"\u0422\u04d9\u0436\u0456\u043a\u0441\u0442\u0430\u043d","name:right:ru":"\u0423\u0437\u0431\u0435\u043a\u0438\u0441\u0442\u0430\u043d","name:left:ku":"Tac\u00eekistan","name:left:kw":"Pow Tajik","name:left:kv":"\u0422\u0430\u0434\u0436\u0438\u043a\u0438\u0441\u0442\u0430\u043d","name:right:ro":"Uzbekistan","name:left:ru":"\u0422\u0430\u0434\u0436\u0438\u043a\u0438\u0441\u0442\u0430\u043d","name:right:ie":"Uzbekistan","name:right:id":"Uzbekistan","name:left:ky":"\u0422\u0430\u0436\u0438\u043a\u0441\u0442\u0430\u043d","name:right:ia":"Uzbekistan","name:right:bn":"\u0989\u099c\u09ac\u09c7\u0995\u09bf\u09b8\u09cd\u09a4\u09be\u09a8","name:right:bo":"\u0f68\u0f74\u0f0b\u0f5f\u0f0b\u0f56\u0fb7\u0f7a\u0f0b\u0f41\u0f72\u0f0b\u0f66\u0f72\u0f0b\u0f50\u0f53\u0f0d","name:left:sl":"Tad\u017eikistan","name:right:ba":"\u04ae\u0437\u0431\u04d9\u043a\u0441\u0442\u0430\u043d","name:right:bg":"\u0423\u0437\u0431\u0435\u043a\u0438\u0441\u0442\u0430\u043d","name:right:be":"\u0423\u0437\u0431\u0435\u043a\u0456\u0441\u0442\u0430\u043d","name:right:br":"Ouzbekistan","name:left:lt":"Tad\u017eikija","name:right:nn":"Usbekistan","name:right:no":"Usbekistan","name:right:nl":"Oezbekistan","name:left:lv":"Tad\u017eikist\u0101na","name:right:wo":"Usbekistaan","name:right:na":"Uzbekistan","name:right:gv":"Yn Oosbeckistaan","name:right:nv":"\u00d3zbe\u02bc Bik\u00e9yah","kind_detail":"2","alt_name:right:vi":"U-d\u01a1-b\u00ea-k\u00edt-xtan;Uzbekstan;Ozbekistan","name:right:gu":"\u0a89\u0a9d\u0aac\u0ac7\u0a95\u0abf\u0ab8\u0acd\u0aa4\u0abe\u0aa8","name:right:ps":"\u0627\u0648\u0632\u0628\u06a9\u0633\u062a\u0627\u0646","name:right:pt":"Uzbequist\u00e3o","name:left:mk":"\u0422\u0430\u045f\u0438\u043a\u0438\u0441\u0442\u0430\u043d","name:left:tr":"Tacikistan","name:left:tt":"\u0422\u0430\u0497\u0438\u043a\u0441\u0442\u0430\u043d","name:left:mn":"\u0422\u0430\u0436\u0438\u043a\u0438\u0441\u0442\u0430\u043d","name:left:ml":"\u0d24\u0d3e\u0d1c\u0d3f\u0d15\u0d4d\u0d15\u0d3f\u0d38\u0d4d\u0d25\u0d3e\u0d7b","name:left:th":"\u0e1b\u0e23\u0e30\u0e40\u0e17\u0e28\u0e17\u0e32\u0e08\u0e34\u0e01\u0e34\u0e2a\u0e16\u0e32\u0e19","name:right:pa":"\u0a09\u0a1c\u0a3c\u0a2c\u0a47\u0a15\u0a3f\u0a38\u0a24\u0a3e\u0a28","name:left:tk":"T\u00e4jigistan","name:left:tl":"Tayikistan","name:right:gl":"Uzbequist\u00e1n","name:left:my":"\u1010\u102c\u1002\u103b\u1005\u103a\u1000\u1005\u1039\u1005\u1010\u1014\u103a\u1014\u102d\u102f\u1004\u103a\u1004\u1036","name:right:pl":"Uzbekistan","name:left:te":"\u0c24\u0c1c\u0c3f\u0c15\u0c3f\u0c38\u0c4d\u0c24\u0c3e\u0c28\u0c4d","name:left:ms":"Tajikistan","name:left:mr":"\u0924\u093e\u091c\u093f\u0915\u093f\u0938\u094d\u0924\u093e\u0928","name:right:tr":"\u00d6zbekistan","name:left:da":"Tadsjikistan","name:left:de":"Tadschikistan","name:left:dz":"\u0f4f\u0f0b\u0f47\u0f42\u0f0b\u0f40\u0f72\u0f66\u0f72\u0f0b\u0f4f\u0f71\u0f53\u0f0b","name:right:ga":"An \u00daisb\u00e9iceast\u00e1in","name:left:dv":"\u078c\u07a6\u0796\u07a8\u0786\u07a8\u0790\u07b0\u078c\u07a7\u0782\u07b0","name:right:ug":"\u0626\u06c6\u0632\u0628\u06d0\u0643\u0649\u0633\u062a\u0627\u0646","name:left:hi":"\u0924\u093e\u091c\u093f\u0915\u093f\u0938\u094d\u0924\u093e\u0928","name:right:lb":"Usbekistan","name:right:uk":"\u0423\u0437\u0431\u0435\u043a\u0438\u0441\u0442\u0430\u043d","name:left:he":"\u05d8\u05d2'\u05d9\u05e7\u05d9\u05e1\u05d8\u05df","name:right:ln":"Uzbekist\u00e1ni","name:right:li":"Oesbekistan","name:right:lt":"Uzbekija","name:right:ur":"\u0627\u0632\u0628\u06a9\u0633\u062a\u0627\u0646","name:right:lv":"Uzbekist\u0101na","name:left:hy":"\u054f\u0561\u057b\u056b\u056f\u057d\u057f\u0561\u0576","name:left:ta":"\u0ba4\u0b9c\u0bbf\u0b95\u0bbf\u0bb8\u0bcd\u0ba4\u0bbe\u0ba9\u0bcd","name:left:ht":"Tadjikistan","name:left:hu":"T\u00e1dzsikiszt\u00e1n","name:left:hr":"Tad\u017eikistan","sort_rank":262,"name:right:gd":"Usbagast\u00e0n","name:right:os":"\u0423\u0437\u0431\u0435\u043a\u0438\u0441\u0442\u0430\u043d","name:right:es":"Uzbekist\u00e1n","name:right:sr":"\u0423\u0437\u0431\u0435\u043a\u0438\u0441\u0442\u0430\u043d","name:right:eu":"Uzbekistan","name:right:et":"Usbekistan","name:left:os":"\u0422\u0430\u0434\u0436\u0438\u043a\u0438\u0441\u0442\u0430\u043d","name:left:or":"\u0b24\u0b3e\u0b1c\u0b3f\u0b15\u0b3f\u0b38\u0b4d\u0b24\u0b3e\u0b28","name:right:ee":"Uzbekistan","name:left:vo":"Tacikist\u00e4n","name:left:oc":"Tatgiquistan","name:right:eo":"Uzbekujo","name:right:en":"Uzbekistan","name:right:el":"\u039f\u03c5\u03b6\u03bc\u03c0\u03b5\u03ba\u03b9\u03c3\u03c4\u03ac\u03bd","name:left:fa":"\u062a\u0627\u062c\u06cc\u06a9\u0633\u062a\u0627\u0646","name:left:fo":"Tadsjikistan","name:right:sk":"Uzbekistan","name:left:fi":"Tad\u017eikistan","name:left:fr":"Tadjikistan","name:left:fy":"Tadzjikistan","name:right:ja":"\u30a6\u30ba\u30d9\u30ad\u30b9\u30bf\u30f3","name:right:sq":"Uzbekistani","name:right:ss":"IZubekhi","name:left:ja":"\u30bf\u30b8\u30ad\u30b9\u30bf\u30f3","name:right:su":"Uzb\u00e9kistan","name:right:sw":"Uzbekistan","name:right:sv":"Uzbekistan","name:right:sh":"Uzbekistan","name:left:qu":"Tayiksuyu","name:right:jv":"Uzbekistan","name:right:sl":"Uzbekistan","name:right:so":"Usbekistan","name:right:sa":"\u0909\u091c\u092c\u0947\u0915\u093f\u0938\u094d\u0925\u093e\u0928","name:left:jv":"Tajikistan","id":-214626,"name:right:ca":"Uzbekistan","name:right:se":"Usbekistan","name:right:ce":"\u0423\u0437\u0431\u0435\u043a\u0438\u0441\u0442\u0430\u043d","name:right:cy":"Uzbekistan","name:right:zh-yue":"\u6708\u5373\u5225","name:right:cs":"Uzbekist\u00e1n","name:right:cv":"\u04f2\u0441\u043f\u0435\u043a\u0441\u0442\u0430\u043d","name:right:it":"Uzbekistan","name:left:ar":"\u0637\u0627\u062c\u064a\u0643\u0633\u062a\u0627\u0646","name:left:az":"Tacikistan","name:left:ay":"Tayiksuyu","name:left:ro":"Tadjikistan","name:left:af":"Tadjikistan","name:left:an":"Tachiquist\u00e1n","name:left:am":"\u1273\u1302\u12aa\u1235\u1273\u1295","name:right:io":"Uzbekistan","name:left:zh-yue":"\u5854\u5409\u514b","name:left:rw":"Tajikisitani","name:right:hy":"\u0548\u0582\u0566\u0562\u0565\u056f\u057d\u057f\u0561\u0576","name:left:lb":"Tadjikistan","alt_name:left:eo":"Ta\u011dikistano;Ta\u011dikio","name:left:su":"Tajikistan","name:left:li":"Tadzjikistan","name:right:hr":"Uzbekistan","name:left:sv":"Tadzjikistan","name:right:ht":"Ouzbekistan","name:right:hu":"\u00dczbegiszt\u00e1n","name:left:ss":"IThajiki","name:left:sr":"\u0422\u0430\u045f\u0438\u043a\u0438\u0441\u0442\u0430\u043d","name:right:hi":"\u0909\u091c\u093c\u094d\u092c\u0947\u0915\u093f\u0938\u094d\u0924\u093e\u0928","name:left:so":"Tadsjikistan","name:left:si":"\u0da7\u0da2\u0dd2\u0d9a\u0dd2\u0dc3\u0dca\u0dae\u0dcf\u0db1\u0dca","name:left:sh":"Tad\u017eikistan","name:left:sk":"Tad\u017eikistan","name:left:se":"Ta\u017eikistan","name:left:sa":"\u0924\u093e\u091c\u093f\u0915\u093f\u0938\u094d\u0925\u093e\u0928","name:right:he":"\u05d0\u05d5\u05d6\u05d1\u05e7\u05d9\u05e1\u05d8\u05df","name:right:la":"Uzbecia","name:right:af":"Oesbekistan","name:left:ce":"\u0422\u0430\u0434\u0436\u0438\u043a\u0438\u0441\u0442\u0430\u043d","name:right:an":"Uzbekist\u00e1n","name:right:am":"\u12a1\u12dd\u1264\u12aa\u1235\u1273\u1295","name:left:ca":"Tadjikistan","source":"openstreetmap.org","name:left:cy":"Tajikistan","name:right:ar":"\u0623\u0648\u0632\u0628\u0643\u0633\u062a\u0627\u0646","name:left:cu":"\u0422\u0430\u0434\u0436\u0438\u043a\u0438\u0441\u0442\u0430\u043d\u044a","name:left:cv":"\u0422\u0430\u0434\u0436\u0438\u043a\u0438\u0441\u0442\u0430\u043d","name:right:az":"\u00d6zb\u0259kistan","name:left:cs":"T\u00e1d\u017eikist\u00e1n","name":"\u0422\u043e\u04b7\u0438\u043a\u0438\u0441\u0442\u043e\u043d - O\u02bbzbekiston","name:left:zh":"\u5854\u5409\u514b\u65af\u5766","name:right:zh":"\u4e4c\u5179\u522b\u514b\u65af\u5766","name:left:uz":"Tojikiston","name:right:fr":"Ouzb\u00e9kistan","name:left:ps":"\u062a\u0627\u062c\u064a\u06a9\u0633\u062a\u0627\u0646","name:left:nv":"T\u02bcaji\u02bc Bik\u00e9yah","name:left:ur":"\u062a\u0627\u062c\u06a9\u0633\u062a\u0627\u0646","id:right":-196240,"name:left:uk":"\u0422\u0430\u0434\u0436\u0438\u043a\u0438\u0441\u0442\u0430\u043d","name:left:no":"Tadsjikistan","name:left:nl":"Tadzjikistan","alt_name:right:eo":"Uzbekistano;Uzbekio","name:right:fa":"\u0627\u0632\u0628\u06a9\u0633\u062a\u0627\u0646","name:right:fo":"Usbekistan","name:left:ug":"\u062a\u0627\u062c\u0649\u0643\u0649\u0633\u062a\u0627\u0646","name:right:fi":"Uzbekistan","name:left:eo":"Ta\u011dikujo","name:left:en":"Tajikistan","name:left:el":"\u03a4\u03b1\u03c4\u03b6\u03b9\u03ba\u03b9\u03c3\u03c4\u03ac\u03bd","name:left:ee":"Tajikistan","name:left:pl":"Tad\u017cykistan","name:left:es":"Tayikist\u00e1n","name:left:ie":"Tadjikistan","name:left:eu":"Tajikistan","name:left:et":"Tad\u017eikistan","name:right:zh-min-nan":"Uzbekistan","name:right:oc":"Ozbequistan","name:left:ia":"Tajikistan","name:right:bs":"Uzbekistan","osm_relation":true,"name:right:or":"\u0b09\u0b1c\u0b2c\u0b47\u0b15\u0b3f\u0b38\u0b4d\u0b25\u0b3e\u0b28","name:left:pt":"Tajiquist\u00e3o","name:right:th":"\u0e1b\u0e23\u0e30\u0e40\u0e17\u0e28\u0e2d\u0e38\u0e0b\u0e40\u0e1a\u0e01\u0e34\u0e2a\u0e16\u0e32\u0e19","name:right:tk":"\u00d6zbegistan","min_zoom":8.0,"name:left:zh-min-nan":"Tajikistan","name:left:wo":"Tajikistaan","name:left:ga":"An T\u00e1ids\u00edceast\u00e1in","name:left:it":"Tagikistan","name:left:gd":"Taidigeast\u00e0n","name:left:gl":"Taxiquist\u00e1n","name:left:gu":"\u0aa4\u0abe\u0a9c\u0abf\u0a95\u0abf\u0ab8\u0acd\u0aa4\u0abe\u0aa8","name:left:gv":"Yn Tajikistaan","official_name:right":"O\u2018zbekiston Respublikasi","name:left":"\u0422\u043e\u04b7\u0438\u043a\u0438\u0441\u0442\u043e\u043d","name:right:mk":"\u0423\u0437\u0431\u0435\u043a\u0438\u0441\u0442\u0430\u043d","name:right:mn":"\u0423\u0437\u0431\u0435\u043a\u0438\u0441\u0442\u0430\u043d","name:right:ml":"\u0d09\u0d38\u0d4d\u0d2c\u0d46\u0d15\u0d4d\u0d15\u0d3f\u0d38\u0d4d\u0d25\u0d3e\u0d7b","name:right:vo":"Lusbek\u00e4n","name:right:vi":"Uzbekistan","name:right:my":"\u1025\u1007\u1018\u1000\u103a\u1000\u1005\u1039\u1005\u1010\u1014\u103a\u1014\u102d\u102f\u1004\u103a\u1004\u1036","name:right:ms":"Uzbekistan","name:right:mr":"\u0909\u091d\u092c\u0947\u0915\u093f\u0938\u094d\u0924\u093e\u0928","name:right:fy":"Oezbekistan","name:left:nn":"Tadsjikistan","kind":"country","name:left:br":"Tadjikistan","name:left:bs":"Tad\u017eikistan","name:left:ba":"\u0422\u0430\u0436\u0438\u043a\u0441\u0442\u0430\u043d","name:left:bg":"\u0422\u0430\u0434\u0436\u0438\u043a\u0438\u0441\u0442\u0430\u043d","name:left:be":"\u0422\u0430\u0434\u0436\u044b\u043a\u0456\u0441\u0442\u0430\u043d","name:left:bn":"\u09a4\u09be\u099c\u09bf\u0995\u09bf\u09b8\u09cd\u09a4\u09be\u09a8","name:left:bo":"\u0f50\u0f0b\u0f47\u0f72\u0f0b\u0f41\u0f7a\u0f0b\u0f66\u0f72\u0f0b\u0f4f\u0f53\u0f0d","name:right":"O\u02bbzbekiston","name:left:yo":"Tajikistan","name:left:yi":"\u05d8\u05d0\u05d3\u05d6\u05e9\u05d9\u05e7\u05d9\u05e1\u05d8\u05d0\u05df","id:left":-214626,"name:left:na":"Tadjikitan","name:right:ka":"\u10e3\u10d6\u10d1\u10d4\u10d9\u10d4\u10d7\u10d8","name:left:io":"Tajikistan","name:right:tt":"\u04ae\u0437\u0431\u04d9\u043a\u0441\u0442\u0430\u043d","name:right:kk":"\u04e8\u0437\u0431\u0435\u043a\u0441\u0442\u0430\u043d","name:left:id":"Tajikistan","name:right:ko":"\uc6b0\uc988\ubca0\ud0a4\uc2a4\ud0c4","name:right:kn":"\u0c89\u0c9c\u0ccd\u0cac\u0cc7\u0c95\u0cbf\u0cb8\u0ccd\u0ca5\u0cbe\u0ca8\u0ccd","name:right:tl":"Uzbekistan","name:right:ku":"\u00dbzb\u00eakistan","name:right:kw":"Pow Ousbek","name:right:kv":"\u0423\u0437\u0431\u0435\u043a\u0438\u0441\u0442\u0430\u043d","name:right:ky":"\u04e8\u0437\u0431\u0435\u043a\u0441\u0442\u0430\u043d","name:right:te":"\u0c09\u0c1c\u0c4d\u0c2c\u0c46\u0c15\u0c3f\u0c38\u0c4d\u0c24\u0c3e\u0c28\u0c4d","name:right:tg":"\u04ee\u0437\u0431\u0430\u043a\u0438\u0441\u0442\u043e\u043d","name:left:is":"Tadsjikistan","name:right:ta":"\u0b89\u0b9a\u0bc1\u0baa\u0bc6\u0b95\u0bcd\u0b95\u0bbf\u0b9a\u0bc1\u0ba4\u0bcd\u0ba4\u0bbe\u0ba9\u0bcd","name:right:de":"Usbekistan","name:right:da":"Usbekistan","name:right:dz":"\u0f68\u0f74\u0f5b\u0f0b\u0f56\u0f7a\u0f0b\u0f40\u0f72\u0f66\u0f72\u0f0b\u0f4f\u0f71\u0f53\u0f0b","name:right:dv":"\u0787\u07aa\u0792\u07b0\u0784\u07ac\u0786\u07a8\u0790\u07b0\u078c\u07a7\u0782\u07b0"},"arcs":[1]},{"type":"MultiLineString","properties":{"int_name:right":"Districts of Republican Subordination","name:right:ja":"\u5171\u548c\u56fd\u76f4\u8f44\u5730","int_name:left":"Khatlon","name:left:ja":"\u30cf\u30c8\u30ed\u30f3","name:left:de":"Provinz Chatlon","name:right:lt":"Tiesioginio pavaldumo regionas","min_zoom":8.0,"name:left:lt":"Chatlono provincija","id:left":-3279616,"name:right:fa":"\u0646\u0627\u062d\u06cc\u0647 \u0647\u0627\u06cc \u062a\u0627\u0628\u0639 \u062c\u0645\u0647\u0648\u0631\u06cc","name:right:ru":"\u0420\u0430\u0439\u043e\u043d\u044b \u0440\u0435\u0441\u043f\u0443\u0431\u043b\u0438\u043a\u0430\u043d\u0441\u043a\u043e\u0433\u043e \u043f\u043e\u0434\u0447\u0438\u043d\u0435\u043d\u0438\u044f","id":-3279616,"osm_relation":true,"name:right":"\u041d\u043e\u04b3\u0438\u044f\u04b3\u043e\u0438 \u0442\u043e\u0431\u0435\u0438 \u04b7\u0443\u043c\u04b3\u0443\u0440\u04e3","name:left:short":"Khatlon","kind":"region","name":"\u0412\u0438\u043b\u043e\u044f\u0442\u0438 \u0425\u0430\u0442\u043b\u043e\u043d - \u041d\u043e\u04b3\u0438\u044f\u04b3\u043e\u0438 \u0442\u043e\u0431\u0435\u0438 \u04b7\u0443\u043c\u04b3\u0443\u0440\u04e3","name:left:fa":"\u0648\u0644\u0627\u06cc\u062a \u062e\u062a\u0644\u0627\u0646","sort_rank":256,"kind_detail":"4","name:right:short":"RRP","name:right:en":"Districts of Republican Subordination","name:left:en":"Khatlon Region","source":"openstreetmap.org","name:right:de":"Der Republik unterstellte Gebiete","name:left:ru":"\u0425\u0430\u0442\u043b\u043e\u043d\u0441\u043a\u0430\u044f \u043e\u0431\u043b\u0430\u0441\u0442\u044c","id:right":-3279615,"name:left":"\u0412\u0438\u043b\u043e\u044f\u0442\u0438 \u0425\u0430\u0442\u043b\u043e\u043d"},"arcs":[[2],[3]]},{"type":"MultiLineString","properties":{"int_name:right":"Districts of Republican Subordination","name:right:ja":"\u5171\u548c\u56fd\u76f4\u8f44\u5730","int_name:left":"Khatlon","name:left:ja":"\u30cf\u30c8\u30ed\u30f3","name:left:de":"Provinz Chatlon","name:right:lt":"Tiesioginio pavaldumo regionas","min_zoom":8.0,"name:left:lt":"Chatlono provincija","id:left":-3279616,"name:right:fa":"\u0646\u0627\u062d\u06cc\u0647 \u0647\u0627\u06cc \u062a\u0627\u0628\u0639 \u062c\u0645\u0647\u0648\u0631\u06cc","name:right:ru":"\u0420\u0430\u0439\u043e\u043d\u044b \u0440\u0435\u0441\u043f\u0443\u0431\u043b\u0438\u043a\u0430\u043d\u0441\u043a\u043e\u0433\u043e \u043f\u043e\u0434\u0447\u0438\u043d\u0435\u043d\u0438\u044f","id":-3279616,"osm_relation":true,"name:right":"\u041d\u043e\u04b3\u0438\u044f\u04b3\u043e\u0438 \u0442\u043e\u0431\u0435\u0438 \u04b7\u0443\u043c\u04b3\u0443\u0440\u04e3","name:left:short":"Khatlon","kind":"region","name":"\u0412\u0438\u043b\u043e\u044f\u0442\u0438 \u0425\u0430\u0442\u043b\u043e\u043d - \u041d\u043e\u04b3\u0438\u044f\u04b3\u043e\u0438 \u0442\u043e\u0431\u0435\u0438 \u04b7\u0443\u043c\u04b3\u0443\u0440\u04e3","name:left:fa":"\u0648\u0644\u0627\u06cc\u062a \u062e\u062a\u0644\u0627\u0646","sort_rank":256,"kind_detail":"4","name:right:short":"RRP","name:right:en":"Districts of Republican Subordination","name:left:en":"Khatlon Region","source":"openstreetmap.org","name:right:de":"Der Republik unterstellte Gebiete","name:left:ru":"\u0425\u0430\u0442\u043b\u043e\u043d\u0441\u043a\u0430\u044f \u043e\u0431\u043b\u0430\u0441\u0442\u044c","id:right":-3279615,"name:left":"\u0412\u0438\u043b\u043e\u044f\u0442\u0438 \u0425\u0430\u0442\u043b\u043e\u043d"},"arcs":[[4],[5]]},{"type":"LineString","properties":{"name:right:ja":"\u30b9\u30eb\u30cf\u30f3\u30c0\u30ea\u30e4\u5dde","name:right:fr":"Province de Sourkhan-Daria","int_name:left":"Khatlon","name:left:ja":"\u30cf\u30c8\u30ed\u30f3","id:right":-196248,"name:right:lt":"Surchandarjos vilajetas","min_zoom":8.0,"name:left:lt":"Chatlono provincija","id:left":-3279616,"name:right:fa":"\u0633\u0631\u062e\u0627\u0646\u200c\u062f\u0631","name:right:ru":"\u0421\u0443\u0440\u0445\u0430\u043d\u0434\u0430\u0440\u044c\u0438\u043d\u0441\u043a\u0430\u044f \u043e\u0431\u043b\u0430\u0441\u0442\u044c","id":-3279616,"osm_relation":true,"name:right":"Surxondaryo Viloyati","name:left:short":"Khatlon","kind":"region","name":"\u0412\u0438\u043b\u043e\u044f\u0442\u0438 \u0425\u0430\u0442\u043b\u043e\u043d - Surxondaryo Viloyati","name:left:fa":"\u0648\u0644\u0627\u06cc\u062a \u062e\u062a\u0644\u0627\u0646","sort_rank":256,"kind_detail":"4","name:left:de":"Provinz Chatlon","name:right:en":"Surxondaryo Region","name:left:en":"Khatlon Region","source":"openstreetmap.org","name:right:de":"Provinz Surxondaryo","name:left:ru":"\u0425\u0430\u0442\u043b\u043e\u043d\u0441\u043a\u0430\u044f \u043e\u0431\u043b\u0430\u0441\u0442\u044c","name:left":"\u0412\u0438\u043b\u043e\u044f\u0442\u0438 \u0425\u0430\u0442\u043b\u043e\u043d"},"arcs":[6]},{"type":"LineString","properties":{"name:right:ja":"\u30b9\u30eb\u30cf\u30f3\u30c0\u30ea\u30e4\u5dde","name:right:fr":"Province de Sourkhan-Daria","int_name:left":"Districts of Republican Subordination","name:left:ja":"\u5171\u548c\u56fd\u76f4\u8f44\u5730","id:right":-196248,"name:right:lt":"Surchandarjos vilajetas","min_zoom":8.0,"name:left:lt":"Tiesioginio pavaldumo regionas","id:left":-3279615,"name:right:fa":"\u0633\u0631\u062e\u0627\u0646\u200c\u062f\u0631","name:right:ru":"\u0421\u0443\u0440\u0445\u0430\u043d\u0434\u0430\u0440\u044c\u0438\u043d\u0441\u043a\u0430\u044f \u043e\u0431\u043b\u0430\u0441\u0442\u044c","id":-3279615,"osm_relation":true,"name:right":"Surxondaryo Viloyati","name:left:short":"RRP","kind":"region","name":"\u041d\u043e\u04b3\u0438\u044f\u04b3\u043e\u0438 \u0442\u043e\u0431\u0435\u0438 \u04b7\u0443\u043c\u04b3\u0443\u0440\u04e3 - Surxondaryo Viloyati","name:left:fa":"\u0646\u0627\u062d\u06cc\u0647 \u0647\u0627\u06cc \u062a\u0627\u0628\u0639 \u062c\u0645\u0647\u0648\u0631\u06cc","sort_rank":256,"kind_detail":"4","name:left:de":"Der Republik unterstellte Gebiete","name:right:en":"Surxondaryo Region","name:left:en":"Districts of Republican Subordination","source":"openstreetmap.org","name:right:de":"Provinz Surxondaryo","name:left:ru":"\u0420\u0430\u0439\u043e\u043d\u044b \u0440\u0435\u0441\u043f\u0443\u0431\u043b\u0438\u043a\u0430\u043d\u0441\u043a\u043e\u0433\u043e \u043f\u043e\u0434\u0447\u0438\u043d\u0435\u043d\u0438\u044f","name:left":"\u041d\u043e\u04b3\u0438\u044f\u04b3\u043e\u0438 \u0442\u043e\u0431\u0435\u0438 \u04b7\u0443\u043c\u04b3\u0443\u0440\u04e3"},"arcs":[7]},{"type":"LineString","properties":{"name:right:ja":"\u30b9\u30eb\u30cf\u30f3\u30c0\u30ea\u30e4\u5dde","name:right:fr":"Province de Sourkhan-Daria","int_name:left":"Districts of Republican Subordination","name:left:ja":"\u5171\u548c\u56fd\u76f4\u8f44\u5730","id:right":-196248,"name:right:lt":"Surchandarjos vilajetas","min_zoom":8.0,"name:left:lt":"Tiesioginio pavaldumo regionas","id:left":-3279615,"name:right:fa":"\u0633\u0631\u062e\u0627\u0646\u200c\u062f\u0631","name:right:ru":"\u0421\u0443\u0440\u0445\u0430\u043d\u0434\u0430\u0440\u044c\u0438\u043d\u0441\u043a\u0430\u044f \u043e\u0431\u043b\u0430\u0441\u0442\u044c","id":-3279615,"osm_relation":true,"name:right":"Surxondaryo Viloyati","name:left:short":"RRP","kind":"region","name":"\u041d\u043e\u04b3\u0438\u044f\u04b3\u043e\u0438 \u0442\u043e\u0431\u0435\u0438 \u04b7\u0443\u043c\u04b3\u0443\u0440\u04e3 - Surxondaryo Viloyati","name:left:fa":"\u0646\u0627\u062d\u06cc\u0647 \u0647\u0627\u06cc \u062a\u0627\u0628\u0639 \u062c\u0645\u0647\u0648\u0631\u06cc","sort_rank":256,"kind_detail":"4","name:left:de":"Der Republik unterstellte Gebiete","name:right:en":"Surxondaryo Region","name:left:en":"Districts of Republican Subordination","source":"openstreetmap.org","name:right:de":"Provinz Surxondaryo","name:left:ru":"\u0420\u0430\u0439\u043e\u043d\u044b \u0440\u0435\u0441\u043f\u0443\u0431\u043b\u0438\u043a\u0430\u043d\u0441\u043a\u043e\u0433\u043e \u043f\u043e\u0434\u0447\u0438\u043d\u0435\u043d\u0438\u044f","name:left":"\u041d\u043e\u04b3\u0438\u044f\u04b3\u043e\u0438 \u0442\u043e\u0431\u0435\u0438 \u04b7\u0443\u043c\u04b3\u0443\u0440\u04e3"},"arcs":[8]},{"type":"MultiLineString","properties":{"name:short":"RRP","name:ja":"\u5171\u548c\u56fd\u76f4\u8f44\u5730","name:lt":"Tiesioginio pavaldumo regionas","min_zoom":8.0,"int_name":"Districts of Republican Subordination","name:ru":"\u0420\u0430\u0439\u043e\u043d\u044b \u0440\u0435\u0441\u043f\u0443\u0431\u043b\u0438\u043a\u0430\u043d\u0441\u043a\u043e\u0433\u043e \u043f\u043e\u0434\u0447\u0438\u043d\u0435\u043d\u0438\u044f","id":-3279615,"osm_relation":true,"name:fa":"\u0646\u0627\u062d\u06cc\u0647 \u0647\u0627\u06cc \u062a\u0627\u0628\u0639 \u062c\u0645\u0647\u0648\u0631\u06cc","kind":"region","name:en":"Districts of Republican Subordination","name":"\u041d\u043e\u04b3\u0438\u044f\u04b3\u043e\u0438 \u0442\u043e\u0431\u0435\u0438 \u04b7\u0443\u043c\u04b3\u0443\u0440\u04e3","sort_rank":256,"kind_detail":"4","name:de":"Der Republik unterstellte Gebiete","source":"openstreetmap.org"},"arcs":[[9],[10]]},{"type":"LineString","properties":{"name:right:ja":"\u30b9\u30eb\u30cf\u30f3\u30c0\u30ea\u30e4\u5dde","name:right:fr":"Province de Sourkhan-Daria","name:left:ja":"\u30ab\u30b7\u30e5\u30ab\u30c0\u30ea\u30e4\u5dde","id:right":-196248,"name:right:lt":"Surchandarjos vilajetas","min_zoom":8.0,"name:left:lt":"Ka\u0161kadarjos vilajetas","id:left":-1670974,"name:right:fa":"\u0633\u0631\u062e\u0627\u0646\u200c\u062f\u0631","name:right:ru":"\u0421\u0443\u0440\u0445\u0430\u043d\u0434\u0430\u0440\u044c\u0438\u043d\u0441\u043a\u0430\u044f \u043e\u0431\u043b\u0430\u0441\u0442\u044c","id":-1670974,"osm_relation":true,"name:right":"Surxondaryo Viloyati","kind":"region","name":"Qashqadaryo Viloyati - Surxondaryo Viloyati","source":"openstreetmap.org","sort_rank":256,"kind_detail":"4","name:left:de":"Provinz Qashqadaryo","name:right:en":"Surxondaryo Region","name:left:en":"Qashqadaryo Region","name:left:fr":"Province de Kachkadaria","name:right:de":"Provinz Surxondaryo","name:left:ru":"\u041a\u0430\u0448\u043a\u0430\u0434\u0430\u0440\u044c\u0438\u043d\u0441\u043a\u0430\u044f \u043e\u0431\u043b\u0430\u0441\u0442\u044c","name:left":"Qashqadaryo Viloyati"},"arcs":[11]}]},"roads":{"type":"GeometryCollection","geometries":[{"type":"MultiLineString","properties":{"kind":"major_road","network":"e-road","sort_rank":381,"landuse_kind":"urban_area","source":"openstreetmap.org","min_zoom":8.0,"kind_detail":"trunk","shield_text":"60","ref":"M41"},"arcs":[[18],[19],[20]]},{"type":"LineString","properties":{"kind":"major_road","network":"e-road","sort_rank":381,"kind_detail":"trunk","name:de":"Ismoili-Somoni-Allee","source":"openstreetmap.org","min_zoom":8.0,"shield_text":"60","name:ru":"\u043f\u0440\u043e\u0441\u043f\u0435\u043a\u0442 \u0418\u0441\u043c\u043e\u0438\u043b\u0430 \u0421\u043e\u043c\u043e\u043d\u0438","ref":"M41","id":242702982},"arcs":[21]},{"type":"LineString","properties":{"kind":"major_road","name:en":"Ismoili Somoni Avenue","network":"e-road","sort_rank":381,"kind_detail":"trunk","name:de":"Ismoili-Somoni-Allee","source":"openstreetmap.org","min_zoom":8.0,"int_name":"Ismoili Somoni Avenue","landuse_kind":"urban_area","shield_text":"60","name:ru":"\u043f\u0440\u043e\u0441\u043f\u0435\u043a\u0442 \u0418\u0441\u043c\u043e\u0438\u043b\u0430 \u0421\u043e\u043c\u043e\u043d\u0438\u0439","ref":"M41","id":201616254},"arcs":[22]},{"type":"MultiLineString","properties":{"kind":"major_road","network":"e-road","sort_rank":380,"kind_detail":"primary","source":"openstreetmap.org","min_zoom":8.0,"shield_text":"60","ref":"M 41"},"arcs":[[23],[24],[25],[26]]},{"type":"MultiLineString","properties":{"kind":"major_road","network":"e-road","sort_rank":380,"kind_detail":"primary","source":"openstreetmap.org","min_zoom":8.0,"landuse_kind":"urban_area","shield_text":"60","ref":"M 41"},"arcs":[[27],[28],[29],[30]]},{"type":"MultiLineString","properties":{"kind":"major_road","network":"AsianHighway","sort_rank":381,"landuse_kind":"urban_area","source":"openstreetmap.org","min_zoom":8.0,"kind_detail":"trunk","shield_text":"7","ref":"A384"},"arcs":[[31],[32]]},{"type":"LineString","properties":{"kind":"major_road","sort_rank":381,"kind_detail":"trunk","source":"openstreetmap.org","min_zoom":8.0,"landuse_kind":"urban_area","name:ru":"\u0443\u043b\u0438\u0446\u0430 \u0410\u0439\u043d\u0438","id":23344793},"arcs":[33]},{"type":"MultiLineString","properties":{"kind":"major_road","int_name":"Ismoili Somoni Avenue","network":"e-road","sort_rank":381,"kind_detail":"trunk","source":"openstreetmap.org","min_zoom":8.0,"landuse_kind":"urban_area","shield_text":"60","name:ru":"\u043f\u0440\u043e\u0441\u043f\u0435\u043a\u0442 \u0418\u0441\u043c\u043e\u0438\u043b\u0430 \u0421\u043e\u043c\u043e\u043d\u0438\u0439","ref":"M41"},"arcs":[[34],[35]]},{"type":"LineString","properties":{"kind":"major_road","int_name":"Ne'mat Qaroboyev Street","network":"AsianHighway","sort_rank":381,"kind_detail":"trunk","name:tg":"\u0425\u0438\u0451\u0431\u043e\u043d\u0438 \u041d\u0435\u044a\u043c\u0430\u0442 \u049a\u0430\u0440\u043e\u0431\u043e\u0435\u0432","source":"openstreetmap.org","min_zoom":8.0,"old_name":"\u0443\u043b\u0438\u0446\u0430 \u041d\u0435\u0433\u043c\u0430\u0442\u0430 \u041a\u0430\u0440\u0430\u0431\u0430\u0435\u0432\u0430","shield_text":"7","name:ru":"\u043f\u0440\u043e\u0441\u043f\u0435\u043a\u0442 \u041d\u0435\u0433\u043c\u0430\u0442\u0430 \u041a\u0430\u0440\u0430\u0431\u0430\u0435\u0432\u0430","landuse_kind":"urban_area","id":201594633},"arcs":[36]},{"type":"LineString","properties":{"kind":"major_road","name:en":"Ismoili Somoni Avenue","network":"e-road","sort_rank":381,"kind_detail":"trunk","name:de":"Ismoili-Somoni-Allee","source":"openstreetmap.org","min_zoom":8.0,"landuse_kind":"urban_area","shield_text":"60","name:ru":"\u043f\u0440\u043e\u0441\u043f\u0435\u043a\u0442 \u0418\u0441\u043c\u043e\u0438\u043b\u0430 \u0421\u043e\u043c\u043e\u043d\u0438","ref":"M41","id":23350880},"arcs":[37]},{"type":"MultiLineString","properties":{"kind":"major_road","network":"AsianHighway","sort_rank":381,"kind_detail":"trunk","source":"openstreetmap.org","min_zoom":8.0,"shield_text":"7","ref":"M34"},"arcs":[[38],[39],[40]]},{"type":"LineString","properties":{"source":"openstreetmap.org","kind":"major_road","sort_rank":380,"kind_detail":"primary","ref":"\u0420\u04b6054","min_zoom":8.0},"arcs":[41]},{"type":"LineString","properties":{"kind":"major_road","network":"AsianHighway","sort_rank":381,"kind_detail":"trunk","source":"openstreetmap.org","min_zoom":8.0,"landuse_kind":"urban_area","shield_text":"7","ref":"\u0420\u04b6058","id":220737826},"arcs":[42]},{"type":"MultiLineString","properties":{"kind":"major_road","network":"e-road","sort_rank":380,"kind_detail":"primary","source":"openstreetmap.org","min_zoom":8.0,"landuse_kind":"urban_area","shield_text":"60","name:ru":"\u0423\u0437\u0431\u0435\u043a\u0438\u0441\u0442\u0430\u043d \u0443\u043b\u0438\u0446\u0430","ref":"M 41"},"arcs":[[43],[44]]},{"type":"LineString","properties":{"kind":"major_road","int_name":"Ayni Street","network":"e-road","sort_rank":381,"kind_detail":"trunk","name:de":"Ajnistra\u00dfe","source":"openstreetmap.org","min_zoom":8.0,"shield_text":"60","name:ru":"\u0443\u043b\u0438\u0446\u0430 \u0410\u0439\u043d\u0438","ref":"M41","id":23358407},"arcs":[45]},{"type":"LineString","properties":{"source":"openstreetmap.org","kind":"major_road","sort_rank":380,"kind_detail":"primary","ref":"A384","min_zoom":8.0},"arcs":[46]},{"type":"LineString","properties":{"kind":"major_road","network":"AsianHighway","sort_rank":381,"kind_detail":"trunk","source":"openstreetmap.org","min_zoom":8.0,"landuse_kind":"residential","shield_text":"7","ref":"\u0420\u04b6053","id":220737814},"arcs":[47]},{"type":"LineString","properties":{"kind":"major_road","network":"e-road","sort_rank":381,"kind_detail":"trunk","source":"openstreetmap.org","min_zoom":8.0,"shield_text":"60","name:ru":"\u0423\u0437\u0431\u0435\u043a\u0438\u0441\u0442\u0430\u043d \u0443\u043b\u0438\u0446\u0430","ref":"M 41","id":411846025},"arcs":[48]},{"type":"MultiLineString","properties":{"kind":"major_road","name:en":"Saadi Sherozi Avenue","network":"AsianHighway","sort_rank":381,"landuse_kind":"urban_area","name:de":"Saadi-Scherosi-Allee","source":"openstreetmap.org","min_zoom":8.0,"kind_detail":"trunk","shield_text":"7","name:ru":"\u043f\u0440\u043e\u0441\u043f\u0435\u043a\u0442 \u0421\u0430\u0430\u0434\u0438 \u0428\u0435\u0440\u043e\u0437\u0438"},"arcs":[[49],[50]]},{"type":"MultiLineString","properties":{"sort_rank":381,"source":"openstreetmap.org","min_zoom":8.0,"kind":"major_road","kind_detail":"trunk"},"arcs":[[51],[52],[53],[54],[55],[56],[57],[58],[59],[60],[61],[62],[63],[64],[65],[66],[67]]},{"type":"MultiLineString","properties":{"kind":"major_road","network":"e-road","sort_rank":381,"kind_detail":"trunk","source":"openstreetmap.org","min_zoom":8.0,"shield_text":"60","ref":"M41"},"arcs":[[68],[69],[70],[71],[72],[73],[74]]},{"type":"LineString","properties":{"kind":"major_road","int_name":"Ayni Street","network":"e-road","sort_rank":381,"kind_detail":"trunk","name:de":"Ajnistra\u00dfe","source":"openstreetmap.org","min_zoom":8.0,"name:en":"Ayni Street","landuse_kind":"urban_area","shield_text":"60","name:ru":"\u0443\u043b\u0438\u0446\u0430 \u0410\u0439\u043d\u0438","ref":"M41"},"arcs":[75]},{"type":"LineString","properties":{"kind":"major_road","name:en":"Saadi Sherozi Avenue","network":"AsianHighway","sort_rank":381,"landuse_kind":"urban_area","source":"openstreetmap.org","min_zoom":8.0,"kind_detail":"trunk","shield_text":"7","name:ru":"\u043f\u0440\u043e\u0441\u043f\u0435\u043a\u0442 \u0421\u0430\u0430\u0434\u0438 \u0428\u0435\u0440\u043e\u0437\u0438"},"arcs":[76]},{"type":"MultiLineString","properties":{"kind":"major_road","network":"AsianHighway","sort_rank":381,"landuse_kind":"urban_area","source":"openstreetmap.org","min_zoom":8.0,"kind_detail":"trunk","shield_text":"7","ref":"\u0420\u04b6053"},"arcs":[[77],[78]]},{"type":"MultiLineString","properties":{"kind":"major_road","network":"e-road","sort_rank":381,"kind_detail":"trunk","source":"openstreetmap.org","min_zoom":8.0,"shield_text":"60","name:ru":"\u0410\u0432\u0442\u043e\u0442\u0440\u0430\u0441\u0441\u0430 \u0422\u0435\u0440\u043c\u0435\u0437 - \u041e\u0448","ref":"M 41"},"arcs":[[79],[80]]},{"type":"LineString","properties":{"kind":"major_road","name:en":"Ayni Street","network":"AsianHighway","sort_rank":381,"kind_detail":"trunk","source":"openstreetmap.org","min_zoom":8.0,"landuse_kind":"urban_area","shield_text":"7","name:ru":"\u0443\u043b\u0438\u0446\u0430 \u0410\u0439\u043d\u0438","ref":"M41","id":242703028},"arcs":[81]},{"type":"MultiLineString","properties":{"kind":"major_road","name:en":"Ismoili Somoni Avenue","network":"e-road","sort_rank":381,"kind_detail":"trunk","name:de":"Ismoili-Somoni-Allee","source":"openstreetmap.org","min_zoom":8.0,"int_name":"Ismoili Somoni Avenue","landuse_kind":"urban_area","shield_text":"60","name:ru":"\u043f\u0440\u043e\u0441\u043f\u0435\u043a\u0442 \u0418\u0441\u043c\u043e\u0438\u043b\u0430 \u0421\u043e\u043c\u043e\u043d\u0438","ref":"M41"},"arcs":[[82],[83]]},{"type":"LineString","properties":{"kind":"major_road","sort_rank":381,"kind_detail":"trunk","source":"openstreetmap.org","min_zoom":8.0,"landuse_kind":"urban_area","name:ru":"\u0443\u043b\u0438\u0446\u0430 \u0428\u0430\u0440\u0430\u0444 \u0420\u0430\u0448\u0438\u0434\u043e\u0432\u0430","id":274738282},"arcs":[84]},{"type":"LineString","properties":{"kind":"major_road","name:en":"Ayni Street","network":"AsianHighway","sort_rank":381,"kind_detail":"trunk","name:de":"Ajnistra\u00dfe","source":"openstreetmap.org","min_zoom":8.0,"landuse_kind":"urban_area","shield_text":"7","name:ru":"\u0443\u043b\u0438\u0446\u0430 \u0421\u0430\u0434\u0440\u0438\u0434\u0434\u0438\u043d\u0430 \u0410\u0439\u043d\u0438","ref":"M41","id":26394700},"arcs":[85]},{"type":"MultiLineString","properties":{"kind":"major_road","network":"AsianHighway","sort_rank":381,"kind_detail":"trunk","source":"openstreetmap.org","min_zoom":8.0,"shield_text":"7","ref":"A384"},"arcs":[[86],[87],[88],[89]]},{"type":"MultiLineString","properties":{"kind":"major_road","network":"e-road","sort_rank":380,"kind_detail":"primary","source":"openstreetmap.org","min_zoom":8.0,"shield_text":"60","name:ru":"\u0423\u0437\u0431\u0435\u043a\u0438\u0441\u0442\u0430\u043d \u0443\u043b\u0438\u0446\u0430","ref":"M 41","id":180657247},"arcs":[[90],[91]]},{"type":"LineString","properties":{"kind":"major_road","sort_rank":380,"landuse_kind":"urban_area","source":"openstreetmap.org","min_zoom":8.0,"kind_detail":"primary","ref":"\u0420\u04b6053","id":244837770},"arcs":[92]},{"type":"LineString","properties":{"kind":"major_road","sort_rank":380,"kind_detail":"primary","name:de":"Abuali-Sino-Allee","source":"openstreetmap.org","min_zoom":8.0,"landuse_kind":"urban_area","name:ru":"\u043f\u0440\u043e\u0441\u043f\u0435\u043a\u0442 \u0410\u0431\u0443\u0430\u043b\u0438 \u0421\u0438\u043d\u043e","id":23360291},"arcs":[93]},{"type":"LineString","properties":{"kind":"major_road","network":"e-road","sort_rank":381,"landuse_kind":"residential","source":"openstreetmap.org","min_zoom":8.0,"kind_detail":"trunk","shield_text":"60","name:ru":"\u0410\u0432\u0442\u043e\u0442\u0440\u0430\u0441\u0441\u0430 \u0422\u0435\u0440\u043c\u0435\u0437 - \u041e\u0448","ref":"M 41"},"arcs":[94]},{"type":"LineString","properties":{"kind":"major_road","sort_rank":381,"kind_detail":"trunk","source":"openstreetmap.org","min_zoom":8.0,"landuse_kind":"urban_area","name:ru":"\u0443\u043b\u0438\u0446\u0430 \u0414\u0440\u0443\u0436\u0431\u044b \u041d\u0430\u0440\u043e\u0434\u043e\u0432","id":415639953},"arcs":[95]},{"type":"LineString","properties":{"kind":"major_road","int_name":"Ne'mat Qaroboyev Street","network":"AsianHighway","sort_rank":381,"kind_detail":"trunk","is_bicycle_related":true,"name:de":"Saadi-Scherosi-Allee","source":"openstreetmap.org","min_zoom":8.0,"name:en":"Saadi Sherozi Avenue","old_name":"\u0443\u043b\u0438\u0446\u0430 \u041d\u0435\u0433\u043c\u0430\u0442\u0430 \u041a\u0430\u0440\u0430\u0431\u0430\u0435\u0432\u0430","shield_text":"7","name:ru":"\u043f\u0440\u043e\u0441\u043f\u0435\u043a\u0442 \u0421\u0430\u0430\u0434\u0438 \u0428\u0435\u0440\u043e\u0437\u0438","landuse_kind":"urban_area","id":23360386},"arcs":[96]},{"type":"MultiLineString","properties":{"source":"openstreetmap.org","kind":"major_road","sort_rank":381,"kind_detail":"trunk","ref":"M41","min_zoom":8.0},"arcs":[[97],[98]]},{"type":"MultiLineString","properties":{"kind":"major_road","sort_rank":381,"landuse_kind":"residential","source":"openstreetmap.org","min_zoom":8.0,"kind_detail":"trunk","name:ru":"\u0410\u0432\u0442\u043e\u0442\u0440\u0430\u0441\u0441\u0430 \u0422\u0435\u0440\u043c\u0435\u0437 - \u041e\u0448","ref":"M 41"},"arcs":[[99],[100]]},{"type":"LineString","properties":{"kind":"major_road","network":"AsianHighway","sort_rank":381,"kind_detail":"trunk","source":"openstreetmap.org","min_zoom":8.0,"shield_text":"7","ref":"\u0420\u04b6058"},"arcs":[101]},{"type":"LineString","properties":{"kind":"major_road","network":"e-road","sort_rank":381,"kind_detail":"trunk","source":"openstreetmap.org","min_zoom":8.0,"landuse_kind":"residential","shield_text":"60","ref":"M41","id":23351336},"arcs":[102]},{"type":"LineString","properties":{"kind":"major_road","int_name":"Ismoili Somoni Avenue","network":"e-road","sort_rank":381,"kind_detail":"trunk","name:de":"Ismoili-Somoni-Allee","source":"openstreetmap.org","min_zoom":8.0,"landuse_kind":"urban_area","shield_text":"60","name:ru":"\u043f\u0440\u043e\u0441\u043f\u0435\u043a\u0442 \u0418\u0441\u043c\u043e\u0438\u043b\u0430 \u0421\u043e\u043c\u043e\u043d\u0438\u0439","ref":"M41","id":23344841},"arcs":[103]},{"type":"LineString","properties":{"kind":"major_road","network":"AsianHighway","sort_rank":381,"kind_detail":"trunk","source":"openstreetmap.org","min_zoom":8.0,"shield_text":"7","name:ru":"\u043f\u0440\u043e\u0441\u043f\u0435\u043a\u0442 \u0425\u0430\u0444\u0438\u0437\u0430 \u0428\u0435\u0440\u043e\u0437\u0438","ref":"M34","id":32592114},"arcs":[104]},{"type":"MultiLineString","properties":{"kind":"major_road","network":"AsianHighway","sort_rank":381,"landuse_kind":"urban_area","source":"openstreetmap.org","min_zoom":8.0,"kind_detail":"trunk","shield_text":"7"},"arcs":[[105],[106],[107],[108]]},{"type":"LineString","properties":{"kind":"major_road","int_name":"Ayni Street","network":"e-road","sort_rank":381,"kind_detail":"trunk","name:de":"Ajnistra\u00dfe","source":"openstreetmap.org","min_zoom":8.0,"landuse_kind":"urban_area","shield_text":"60","name:ru":"\u0443\u043b\u0438\u0446\u0430 \u0410\u0439\u043d\u0438","ref":"M41"},"arcs":[109]},{"type":"MultiLineString","properties":{"source":"openstreetmap.org","kind":"major_road","kind_detail":"trunk","sort_rank":381,"landuse_kind":"urban_area","min_zoom":8.0},"arcs":[[110],[111],[112]]},{"type":"MultiLineString","properties":{"kind":"major_road","name:en":"Saadi Sherozi Avenue","sort_rank":380,"kind_detail":"primary","name:de":"Saadi-Scherosi-Allee","source":"openstreetmap.org","min_zoom":8.0,"landuse_kind":"urban_area","name:ru":"\u043f\u0440\u043e\u0441\u043f\u0435\u043a\u0442 \u0421\u0430\u0430\u0434\u0438 \u0428\u0435\u0440\u043e\u0437\u0438"},"arcs":[[113],[114]]},{"type":"LineString","properties":{"kind":"major_road","network":"AsianHighway","sort_rank":381,"kind_detail":"trunk","source":"openstreetmap.org","min_zoom":8.0,"shield_text":"7","ref":"\u0420\u04b6059","id":391636912},"arcs":[115]},{"type":"MultiLineString","properties":{"source":"openstreetmap.org","kind":"major_road","network":"AsianHighway","sort_rank":381,"kind_detail":"trunk","min_zoom":8.0,"shield_text":"7"},"arcs":[[116],[117],[118],[119],[120],[121]]},{"type":"MultiLineString","properties":{"kind":"major_road","int_name":"Abuali Ibn Sina Avenue","sort_rank":380,"kind_detail":"primary","name:de":"Abuali-Sino-Allee","source":"openstreetmap.org","min_zoom":8.0,"name:en":"Abuali Ibn Sino Avenue","landuse_kind":"urban_area","name:ru":"\u043f\u0440\u043e\u0441\u043f\u0435\u043a\u0442 \u0410\u0431\u0443\u0430\u043b\u0438 \u0421\u0438\u043d\u043e"},"arcs":[[122],[123]]},{"type":"LineString","properties":{"source":"openstreetmap.org","kind":"major_road","landuse_kind":"residential","sort_rank":380,"kind_detail":"primary","ref":"\u0420\u04b6053","min_zoom":8.0},"arcs":[124]},{"type":"LineString","properties":{"kind":"major_road","name:en":"Abuabdullo Rudaki avenue","network":"e-road","sort_rank":381,"kind_detail":"trunk","source":"openstreetmap.org","min_zoom":8.0,"landuse_kind":"urban_area","shield_text":"123","name:ru":"\u043f\u0440\u043e\u0441\u043f\u0435\u043a\u0442 \u0410\u0431\u0443\u0430\u0431\u0434\u0443\u043b\u043b\u043e \u0420\u0443\u0434\u0430\u043a\u0438","id":486261348},"arcs":[125]},{"type":"LineString","properties":{"kind":"major_road","sort_rank":380,"landuse_kind":"residential","source":"openstreetmap.org","min_zoom":8.0,"kind_detail":"primary","ref":"\u0420\u04b6054","id":220737813},"arcs":[126]},{"type":"MultiLineString","properties":{"kind":"major_road","name:en":"Karaboev Avenue","network":"AsianHighway","sort_rank":381,"kind_detail":"trunk","is_bicycle_related":true,"source":"openstreetmap.org","min_zoom":8.0,"int_name":"Karaboev Avenue","old_name":"\u0443\u043b\u0438\u0446\u0430 \u041d\u0435\u0433\u043c\u0430\u0442\u0430 \u041a\u0430\u0440\u0430\u0431\u0430\u0435\u0432\u0430","shield_text":"7","name:ru":"\u043f\u0440\u043e\u0441\u043f\u0435\u043a\u0442 \u041d\u0435\u0433\u043c\u0430\u0442\u0430 \u041a\u0430\u0440\u0430\u0431\u0430\u0435\u0432\u0430","landuse_kind":"urban_area","name:tg":"\u0425\u0438\u0451\u0431\u043e\u043d\u0438 \u041d\u0435\u044a\u043c\u0430\u0442 \u049a\u0430\u0440\u043e\u0431\u043e\u0435\u0432"},"arcs":[[127],[128],[129]]},{"type":"LineString","properties":{"kind":"major_road","int_name":"Karaboev Str.","network":"AsianHighway","sort_rank":381,"kind_detail":"trunk","name:tg":"\u0425\u0438\u0451\u0431\u043e\u043d\u0438 \u041d\u0435\u044a\u043c\u0430\u0442 \u049a\u0430\u0440\u043e\u0431\u043e\u0435\u0432","source":"openstreetmap.org","min_zoom":8.0,"old_name":"\u043f\u0440\u043e\u0441\u043f\u0435\u043a\u0442 \u041d\u0435\u0433\u043c\u0430\u0442\u0430 \u041a\u0430\u0440\u0430\u0431\u0430\u0435\u0432\u0430","shield_text":"7","name:ru":"\u043f\u0440\u043e\u0441\u043f\u0435\u043a\u0442 \u041d\u0435\u0433\u043c\u0430\u0442\u0430 \u041a\u0430\u0440\u0430\u0431\u0430\u0435\u0432\u0430","landuse_kind":"urban_area","id":23343609},"arcs":[130]},{"type":"LineString","properties":{"kind":"major_road","network":"e-road","sort_rank":381,"kind_detail":"trunk","source":"openstreetmap.org","min_zoom":8.0,"landuse_kind":"urban_area","shield_text":"60","ref":"M 41","id":274511077},"arcs":[131]},{"type":"LineString","properties":{"kind":"major_road","name:en":"Rudaki","network":"AsianHighway","sort_rank":381,"kind_detail":"trunk","name:de":"Rudaki-Allee","source":"openstreetmap.org","min_zoom":8.0,"int_name":"Rudaki Avenue","landuse_kind":"urban_area","shield_text":"7","name:ru":"\u043f\u0440\u043e\u0441\u043f\u0435\u043a\u0442 \u0420\u0443\u0434\u0430\u043a\u0438","ref":"M41","id":183827481},"arcs":[132]},{"type":"LineString","properties":{"kind":"major_road","name:en":"Karaboev Avenue","network":"AsianHighway","sort_rank":381,"kind_detail":"trunk","name:tg":"\u0425\u0438\u0451\u0431\u043e\u043d\u0438 \u041d\u0435\u044a\u043c\u0430\u0442 \u049a\u0430\u0440\u043e\u0431\u043e\u0435\u0432","source":"openstreetmap.org","min_zoom":8.0,"int_name":"Ne'mat Qaroboyev Street","old_name":"\u0443\u043b\u0438\u0446\u0430 \u041d\u0435\u0433\u043c\u0430\u0442\u0430 \u041a\u0430\u0440\u0430\u0431\u0430\u0435\u0432\u0430","shield_text":"7","name:ru":"\u043f\u0440\u043e\u0441\u043f\u0435\u043a\u0442 \u041d\u0435\u0433\u043c\u0430\u0442\u0430 \u041a\u0430\u0440\u0430\u0431\u0430\u0435\u0432\u0430","landuse_kind":"urban_area","id":201594634},"arcs":[133]},{"type":"MultiLineString","properties":{"kind":"major_road","name:en":"Karaboev Avenue","network":"AsianHighway","sort_rank":381,"kind_detail":"trunk","source":"openstreetmap.org","min_zoom":8.0,"int_name":"Karaboev Avenue","old_name":"\u0443\u043b\u0438\u0446\u0430 \u041d\u0435\u0433\u043c\u0430\u0442\u0430 \u041a\u0430\u0440\u0430\u0431\u0430\u0435\u0432\u0430","shield_text":"7","name:ru":"\u043f\u0440\u043e\u0441\u043f\u0435\u043a\u0442 \u041d\u0435\u0433\u043c\u0430\u0442\u0430 \u041a\u0430\u0440\u0430\u0431\u0430\u0435\u0432\u0430","landuse_kind":"urban_area","name:tg":"\u0425\u0438\u0451\u0431\u043e\u043d\u0438 \u041d\u0435\u044a\u043c\u0430\u0442 \u049a\u0430\u0440\u043e\u0431\u043e\u0435\u0432"},"arcs":[[134],[135]]},{"type":"LineString","properties":{"kind":"major_road","sort_rank":380,"landuse_kind":"urban_area","source":"openstreetmap.org","min_zoom":8.0,"kind_detail":"primary","ref":"\u0420\u04b6054","id":220737813},"arcs":[136]},{"type":"MultiLineString","properties":{"kind":"major_road","name:en":"Rudaki Avenue","network":"AsianHighway","sort_rank":381,"kind_detail":"trunk","name:de":"Rudaki-Allee","source":"openstreetmap.org","min_zoom":8.0,"int_name":"Rudaki Avenue","landuse_kind":"urban_area","shield_text":"7","name:ru":"\u043f\u0440\u043e\u0441\u043f\u0435\u043a\u0442 \u0420\u0443\u0434\u0430\u043a\u0438","ref":"M41"},"arcs":[[137],[138],[139]]},{"type":"LineString","properties":{"kind":"major_road","sort_rank":381,"kind_detail":"trunk","source":"openstreetmap.org","min_zoom":8.0,"landuse_kind":"urban_area","name:ru":"\u043f\u0440\u043e\u0441\u043f\u0435\u043a\u0442 \u0421\u0430\u0430\u0434\u0438 \u0428\u0435\u0440\u043e\u0437\u0438","id":33188932},"arcs":[140]},{"type":"MultiLineString","properties":{"kind":"major_road","network":"e-road","sort_rank":381,"kind_detail":"trunk","source":"openstreetmap.org","min_zoom":8.0,"shield_text":"60","ref":"M 41"},"arcs":[[141],[142],[143]]},{"type":"LineString","properties":{"kind":"major_road","name:en":"Ismoili Somoni Avenue","network":"e-road","sort_rank":381,"kind_detail":"trunk","name:de":"Ismoili-Somoni-Allee","source":"openstreetmap.org","min_zoom":8.0,"shield_text":"60","ref":"M41","id":23351250},"arcs":[144]},{"type":"LineString","properties":{"kind":"major_road","name:en":"Ismoili Somoni Avenue","network":"e-road","sort_rank":381,"kind_detail":"trunk","name:de":"Ismoili-Somoni-Allee","source":"openstreetmap.org","min_zoom":8.0,"landuse_kind":"urban_area","shield_text":"60","ref":"M41","id":23351250},"arcs":[145]},{"type":"LineString","properties":{"kind":"major_road","name:en":"Rudaki Avenue","network":"AsianHighway","sort_rank":381,"landuse_kind":"urban_area","name:de":"Rudaki-Allee","source":"openstreetmap.org","min_zoom":8.0,"kind_detail":"trunk","shield_text":"7","name:ru":"\u043f\u0440\u043e\u0441\u043f\u0435\u043a\u0442 \u0420\u0443\u0434\u0430\u043a\u0438"},"arcs":[146]},{"type":"LineString","properties":{"kind":"major_road","name:en":"Ayni Street","network":"e-road","sort_rank":381,"kind_detail":"trunk","name:de":"Ajnistra\u00dfe","source":"openstreetmap.org","min_zoom":8.0,"int_name":"Ayni Street","shield_text":"60","name:ru":"\u0443\u043b\u0438\u0446\u0430 \u0410\u0439\u043d\u0438","ref":"M41","id":23358297},"arcs":[147]},{"type":"LineString","properties":{"kind":"major_road","network":"e-road","sort_rank":381,"kind_detail":"trunk","name:de":"Ismoili-Somoni-Allee","source":"openstreetmap.org","min_zoom":8.0,"landuse_kind":"urban_area","shield_text":"60","name:ru":"\u043f\u0440\u043e\u0441\u043f\u0435\u043a\u0442 \u0418\u0441\u043c\u043e\u0438\u043b\u0430 \u0421\u043e\u043c\u043e\u043d\u0438","id":268614531},"arcs":[148]},{"type":"LineString","properties":{"kind":"major_road","name:en":"Abuali Ibn Sino Avenue","sort_rank":380,"kind_detail":"primary","name:de":"Abuali-Sino-Allee","source":"openstreetmap.org","min_zoom":8.0,"landuse_kind":"urban_area","name:ru":"\u043f\u0440\u043e\u0441\u043f\u0435\u043a\u0442 \u0410\u0431\u0443\u0430\u043b\u0438 \u0421\u0438\u043d\u043e","id":23350935},"arcs":[149]},{"type":"LineString","properties":{"kind":"major_road","name:en":"Rudaki","network":"AsianHighway","sort_rank":381,"kind_detail":"trunk","source":"openstreetmap.org","min_zoom":8.0,"landuse_kind":"urban_area","shield_text":"7","name:ru":"\u043f\u0440\u043e\u0441\u043f\u0435\u043a\u0442 \u0420\u0443\u0434\u0430\u043a\u0438","ref":"M41","id":201618928},"arcs":[150]},{"type":"LineString","properties":{"kind":"major_road","name:en":"Ismoili Somoni Avenue","network":"e-road","sort_rank":381,"kind_detail":"trunk","name:de":"Ismoili-Somoni-Allee","source":"openstreetmap.org","min_zoom":8.0,"shield_text":"60","name:ru":"\u043f\u0440\u043e\u0441\u043f\u0435\u043a\u0442 \u0418\u0441\u043c\u043e\u0438\u043b\u0430 \u0421\u043e\u043c\u043e\u043d\u0438","ref":"M41","id":23350880},"arcs":[151]},{"type":"MultiLineString","properties":{"kind":"major_road","int_name":"Ismoili Somoni Avenue","network":"e-road","sort_rank":381,"kind_detail":"trunk","name:de":"Ismoili-Somoni-Allee","source":"openstreetmap.org","min_zoom":8.0,"landuse_kind":"urban_area","shield_text":"60","name:ru":"\u043f\u0440\u043e\u0441\u043f\u0435\u043a\u0442 \u0418\u0441\u043c\u043e\u0438\u043b\u0430 \u0421\u043e\u043c\u043e\u043d\u0438","ref":"M41"},"arcs":[[152],[153]]},{"type":"LineString","properties":{"kind":"major_road","network":"e-road","sort_rank":381,"kind_detail":"trunk","name:de":"Ismoili-Somoni-Allee","source":"openstreetmap.org","min_zoom":8.0,"landuse_kind":"urban_area","shield_text":"60","name:ru":"\u043f\u0440\u043e\u0441\u043f\u0435\u043a\u0442 \u0418\u0441\u043c\u043e\u0438\u043b\u0430 \u0421\u043e\u043c\u043e\u043d\u0438","ref":"M41","id":23350865},"arcs":[154]},{"type":"LineString","properties":{"kind":"major_road","network":"AsianHighway","sort_rank":381,"kind_detail":"trunk","source":"openstreetmap.org","min_zoom":8.0,"landuse_kind":"residential","shield_text":"7","ref":"A384","id":246794692},"arcs":[155]}]},"earth":{"type":"GeometryCollection","geometries":[{"type":"Polygon","properties":{"sort_rank":10,"source":"naturalearthdata.com","min_zoom":0.0,"kind":"earth","area":98022885885},"arcs":[[156]]}]},"landuse":{"type":"GeometryCollection","geometries":[{"type":"Polygon","properties":{"kind":"residential","name:en":"Qurghonteppa","name":"\u049a\u0443\u0440\u0493\u043e\u043d\u0442\u0435\u043f\u043f\u0430","area":17629900,"sort_rank":20,"name:fr":"Qurghonteppa","source":"openstreetmap.org","min_zoom":8.0,"int_name":"Kurgon-Teppa","tier":2,"name:ru":"\u041a\u0443\u0440\u0433\u0430\u043d-\u0422\u044e\u0431\u0435","id":38153741,"name:ja":"\u30af\u30eb\u30ac\u30f3\u30c6\u30c3\u30d1"},"arcs":[[157]]},{"type":"MultiPolygon","properties":{"source":"naturalearthdata.com","kind":"urban_area","name":"","area":940678719,"sort_rank":11,"min_zoom":4.0},"arcs":[[[158]],[[159]],[[160]],[[161]],[[162]],[[163]],[[164]]]},{"type":"MultiPolygon","properties":{"source":"openstreetmap.org","kind":"residential","tier":2,"area":175994152,"sort_rank":20,"min_zoom":8.0},"arcs":[[[165]],[[166]]]},{"type":"Polygon","properties":{"kind":"residential","int_name":"Kumkurgan","name":"Qumqo\u2018rg\u2018on","area":31807800,"sort_rank":20,"source":"openstreetmap.org","min_zoom":8.0,"tier":2,"name:ru":"\u041a\u0443\u043c\u043a\u0443\u0440\u0433\u0430\u043d","id":232836675,"name:ja":"\u30af\u30e0\u30af\u30eb\u30ac\u30f3"},"arcs":[[167]]},{"type":"Polygon","properties":{"kind":"residential","name:en":"Tursunzoda","name":"\u0422\u0443\u0440\u0441\u0443\u043d\u0437\u043e\u0434\u0430","area":13092700,"sort_rank":20,"source":"openstreetmap.org","min_zoom":8.0,"int_name":"Tursunzoda","old_name:en":"Regar","old_name":"\u0420\u0435\u0433\u0430\u0440","tier":2,"name:ru":"\u0422\u0443\u0440\u0441\u0443\u043d\u0437\u0430\u0434\u0435","id":38241459,"name:ja":"\u30c4\u30eb\u30b9\u30f3\u30be\u30c0"},"arcs":[[168]]}]}},"type":"Topology","transform":{"translate":[67.5,37.7185903256],"scale":[0.0003433228,0.0002695314]},"arcs":[[[2077,2314],[57,-76],[165,5],[22,-29],[-18,-77],[34,-144],[90,-80],[109,43],[27,-156],[70,-18],[-26,-203],[-23,-3],[-27,-93],[-2,-125],[-35,-60],[-64,-31],[-61,-102],[-43,-13],[-54,-111],[-6,-107],[-21,-20],[14,-36],[-29,-64],[30,-42],[-18,-55],[-42,-48],[-25,71],[-88,52],[-278,-5],[-19,-158],[-115,-218],[-10,-80],[-53,-66],[-71,-168],[-80,-93],[1,-4]],[[1843,4096],[-109,-33],[-75,17],[-5,-39],[-3,-33],[84,-43],[94,-201],[-131,-17],[-76,-60],[50,-82],[21,-140],[34,-37],[-33,-40],[-6,-146],[-55,-78],[2,-45],[28,-95],[38,-1],[4,-60],[46,-5],[11,-41],[-23,-45],[56,-91],[-133,-179],[-25,-101],[89,-13],[128,80],[60,-135],[137,-65],[26,-54]],[[3639,2314],[-42,-55],[-89,-40],[-277,43],[-109,-123],[39,-203],[-3,-149],[-190,-364],[10,-33],[78,-34],[-16,-240],[-151,-135],[-91,-270],[-92,-29],[-57,58],[-276,-49],[-105,26]],[[4007,2314],[-156,-58],[-31,4],[-33,54]],[[3787,2314],[-59,40],[-89,-40]],[[4096,2461],[-11,-8],[-78,-139]],[[2268,717],[-42,-48],[-25,71],[-88,52],[-278,-5],[-19,-158],[-115,-218],[-10,-80],[-53,-66],[-71,-168],[-80,-93],[1,-4]],[[2077,2314],[57,-76],[165,5],[22,-29],[-18,-77],[34,-144],[90,-80],[109,43],[27,-156],[72,-27],[-28,-194],[-23,-3],[-27,-93],[-2,-125],[-35,-60],[-64,-31],[-61,-102],[-43,-13],[-54,-111],[-6,-107],[-21,-20],[14,-36],[-29,-64],[30,-42],[-18,-55]],[[1843,4096],[-109,-33],[-75,17],[-5,-39],[-3,-33],[84,-43],[94,-201],[-131,-17],[-76,-60],[50,-82],[21,-140],[34,-37],[-33,-40],[-6,-146],[-55,-78],[2,-45],[28,-95],[38,-1],[4,-60],[46,-5],[11,-41],[-23,-45],[56,-91],[-133,-179],[-25,-101],[89,-13],[128,80],[60,-135],[137,-65],[26,-54]],[[3372,3231],[136,24],[209,160],[96,-6],[56,-135],[96,-105],[102,176],[29,-7]],[[4096,2867],[-485,-125],[-201,-24],[57,213],[-95,300]],[[0,3708],[91,-75],[80,244],[-1,219]],[[266,429],[-1,31],[-265,315]],[[189,319],[76,109]],[[0,775],[265,-315],[1,-31]],[[266,429],[20,30],[41,100],[41,16],[195,230],[64,27]],[[266,429],[-1,-1]],[[5,0],[31,117],[243,330],[48,112],[41,16],[195,230],[95,39],[183,257],[7,50],[163,182],[38,155],[51,54],[103,297],[9,80],[-32,120],[32,97],[136,175],[151,105],[308,319],[319,197],[216,26],[118,64],[155,38],[692,-67],[79,16],[171,134],[121,14],[108,-47]],[[1939,2921],[201,126]],[[2140,3047],[8,5]],[[2199,3094],[-51,-42]],[[3513,3206],[1,0],[0,1],[-1,0],[0,-1]],[[3748,3207],[-27,2]],[[1205,1877],[7,121]],[[1217,2201],[-10,53]],[[1530,2501],[96,139]],[[1644,2675],[96,226]],[[1207,2254],[-8,40]],[[1212,1998],[45,78],[-40,125]],[[1494,2416],[36,85]],[[1626,2640],[18,35]],[[3657,2899],[-2,-6]],[[3655,2891],[3,8]],[[3843,3133],[1,1]],[[3721,3209],[-10,0]],[[3711,3209],[10,-1]],[[3675,2928],[0,-1]],[[3613,3209],[-86,-3]],[[3687,3507],[-2,-24]],[[3685,3482],[2,25]],[[3843,4096],[29,-89],[-39,-183],[-80,-195],[7,-64],[-49,-7],[-24,-51]],[[3875,459],[221,76]],[[3627,491],[30,-19]],[[1322,2565],[68,-118]],[[1458,2410],[36,6]],[[4005,3092],[-108,16]],[[3386,648],[-138,-65],[-49,-141],[-13,-241],[-79,-201]],[[3658,469],[4,-15]],[[1217,2647],[57,2]],[[3747,3134],[-70,-17]],[[3678,3115],[72,18]],[[1205,1877],[-28,129]],[[1274,2649],[92,-22]],[[1367,2627],[0,-1]],[[1367,2626],[1,0],[0,1]],[[1368,2627]],[[1368,2627],[-1,0],[0,-1]],[[1368,2627]],[[1368,2627]],[[1368,2627]],[[1614,2844],[22,12]],[[1780,2921],[-8,-4]],[[2777,3122],[25,0]],[[3029,3116],[16,-5]],[[3088,3098],[-3,0],[2,-1]],[[3089,3097],[2,0],[-2,1]],[[3088,3096],[1,2],[-1,0]],[[3088,3098],[-1,-1],[1,-1]],[[1760,2911],[179,10]],[[3062,3106],[-125,36],[-93,-22],[-243,18],[-103,40],[-228,-26],[-71,-58]],[[3511,3208],[-178,-52],[-101,-76],[-160,25]],[[3511,3208],[2,-2]],[[3513,3207],[-2,1]],[[4004,3092],[92,6]],[[4096,3100],[-91,-8]],[[3782,3133],[121,-15]],[[3750,3133],[-3,1]],[[3657,472],[1,-3]],[[3662,454],[25,-60]],[[10,0],[59,161],[108,137]],[[292,487],[36,72],[41,16],[131,163],[156,101],[161,227],[82,59],[86,121]],[[3781,3133],[1,0]],[[3617,3207],[38,5]],[[3711,3209],[-54,4]],[[1152,2064],[16,96]],[[3750,3133],[31,0]],[[3431,1600],[83,-428],[-7,-175],[-114,-190],[-6,-157]],[[3613,2780],[-56,-193],[2,-235],[-145,-310],[5,-136],[-67,-140],[41,-78]],[[3613,2780],[42,111]],[[3655,2893],[-42,-113]],[[1274,2649],[48,-84]],[[1390,2447],[68,-37]],[[3724,482],[-64,-12]],[[3655,3115],[2,0],[-1,2],[-2,-1],[1,-1]],[[292,487],[-115,-189]],[[3840,3135],[2,-2]],[[3674,3115],[2,-1],[2,2],[-4,0],[0,-1]],[[1369,2628],[87,124],[158,92]],[[1636,2856],[104,45]],[[185,311],[9,12]],[[217,358],[34,49]],[[3387,655],[240,-164]],[[3072,3105],[-10,1]],[[3721,3208],[27,-1]],[[3685,3482],[0,1],[-1,0],[1,-1]],[[3658,2899],[16,13],[-17,-13]],[[3688,394],[0,-1]],[[3689,393],[-1,0]],[[3688,3474],[3,-10]],[[3897,3108],[-58,25]],[[1177,2006],[-25,58]],[[1168,2160],[31,134]],[[3743,3132],[1,-1]],[[3618,3116],[56,-1]],[[3674,3116],[-56,0]],[[3688,391],[-268,-391]],[[3685,3482],[1,-1]],[[3686,3481],[-1,1]],[[3686,3481],[2,-7]],[[3688,393],[0,-1]],[[3688,393],[1,0]],[[3388,650],[0,1],[-1,-1],[0,-1],[1,1]],[[3655,3212],[0,-95]],[[3656,3117],[-1,69]],[[3807,453],[-21,40],[-62,-11]],[[3691,3464],[20,-47]],[[3807,453],[1,0]],[[3675,2938],[0,-10]],[[3675,3114],[0,-16]],[[3676,2928],[0,10]],[[3675,2927],[-1,-15]],[[1199,2294],[-1,39]],[[3748,3207],[-1,-7]],[[3675,2927],[1,1]],[[3675,3098],[0,-160]],[[3676,2938],[1,177]],[[3808,453],[67,6]],[[3747,3200],[0,-24]],[[3747,3176],[34,-43]],[[3782,3133],[-35,43]],[[3747,3132],[1,1]],[[985,1246],[54,165],[119,203],[47,263]],[[1198,2333],[-6,287],[25,27]],[[1740,2901],[20,10]],[[3513,3206],[14,0]],[[3527,3206],[87,1]],[[3691,3464],[58,-163],[-1,-94]],[[3903,3118],[101,-26]],[[3657,3214],[-2,0],[0,-2],[2,0],[0,2]],[[3655,3186],[2,26]],[[3748,3207]],[[3527,3206],[-13,0]],[[3655,3214],[-38,-5]],[[3657,3212],[54,-3]],[[3614,3207],[2,0],[0,2],[-2,1],[0,-3]],[[3393,1688],[38,-88]],[[0,0],[0,2283],[0,1813],[4096,0],[0,-4096],[-4096,0]],[[3624,468],[74,1],[98,49],[15,-83],[-97,-60],[-58,88],[-32,5]],[[4007,759],[36,-170],[-194,0],[33,-165],[-146,-46],[-146,46],[100,182],[-3,107],[38,4],[60,-86],[64,82],[128,14],[2,69],[28,-37]],[[1035,1001],[-66,11],[-29,58],[29,137],[65,-11],[29,-58],[-28,-137]],[[1714,2568],[32,0],[10,-96],[-36,-45],[-71,-24],[-32,82],[31,79],[4,50],[-35,36],[16,28],[81,-28],[0,-82]],[[2164,3139],[35,-35],[0,-82],[65,-1],[0,-82],[-152,-56],[-172,15],[-2,59],[51,57],[23,82],[114,53],[38,-10]],[[3817,2980],[0,-206],[-162,0],[0,124],[-113,-21],[-46,272],[53,100],[106,20],[2,120],[31,86],[84,-77],[77,-171],[65,-41],[-6,-60],[-91,-146]],[[1222,2277],[-26,-39],[18,-39],[47,39],[65,-41],[122,31],[39,-31],[-65,-207],[-83,-22],[-272,64],[32,247],[64,0],[64,99],[46,23],[53,-39],[-14,-56],[-90,-29]],[[1455,2568],[65,0],[32,-206],[-78,24],[-66,98],[-18,1],[0,-41],[-97,83],[64,85],[98,-3],[0,-41]],[[3337,1571],[15,-10],[30,64],[18,102],[34,-6],[18,-130],[-60,25],[-26,-59],[-23,-2],[-6,16]],[[3019,2987],[43,121],[15,16],[-21,-87],[93,-35],[-29,-29],[-33,12],[14,-30],[-24,4],[-2,-52],[-8,50],[-44,31],[8,-59],[-12,58]],[[159,295],[64,167],[-61,86],[21,13],[37,-60],[36,-31],[33,21],[53,-69],[-29,-43],[11,-33],[-40,-34],[-125,-17]],[[2068,2930],[6,56],[104,5],[6,-25],[60,-12],[-100,-52],[-5,21],[-32,-23],[-39,30]]]}