{"objects":{"water":{"type":"GeometryCollection","geometries":[]},"buildings":{"type":"GeometryCollection","geometries":[]},"places":{"type":"GeometryCollection","geometries":[{"type":"Point","properties":{"name:short":"CA","name:cs":"Kalifornie","name:tt":"\u041a\u0430\u043b\u0438\u0444\u043e\u0440\u043d\u0438\u044f","min_zoom":4.0,"name:iu":"\u1473\u14d6\u1434\u1550\u14c3\u140a \/ kaaliipuurniia","name:vi":"Ca Li","name:ru":"\u041a\u0430\u043b\u0438\u0444\u043e\u0440\u043d\u0438\u044f","name:pl":"Kalifornia","id":671022,"name:af":"Kaliforni\u00eb","kind_detail":"state","name:da":"Californien","name:de":"Kalifornien","source":"openstreetmap.org","name:fr":"Californie","name:fy":"Kalifornje","name:zh":"\u52a0\u5229\u798f\u5c3c\u4e9a\u5dde","name:nl":"Californi\u00eb","name:ja":"\u30ab\u30ea\u30d5\u30a9\u30eb\u30cb\u30a2","name:lt":"Kalifornija","name:sv":"Karlifonien","name:he":"\u05e7\u05dc\u05d9\u05e4\u05d5\u05e8\u05e0\u05d9\u05d4","kind":"region","name:lb":"Kalifornien","name:sk":"Kalifornia","name:uk":"\u041a\u0430\u043b\u0456\u0444\u043e\u0440\u043d\u0456\u044f","name:be":"\u041a\u0430\u043b\u0456\u0444\u043e\u0440\u043d\u0456\u044f","name:hu":"Kalifornia","name:ba":"\u041a\u0430\u043b\u0438\u0444\u043e\u0440\u043d\u0438\u044f","population":37253956,"name:el":"\u039a\u03b1\u03bb\u03b9\u03c6\u03cc\u03c1\u03bd\u03b9\u03b1","name:eo":"Kalifornio","name":"California"},"coordinates":[2258,379]},{"type":"Point","properties":{"source":"naturalearthdata.com","kind":"locality","name":"Bishop","population":4827,"min_zoom":7.0,"id":1856},"coordinates":[3312,2800]},{"type":"Point","properties":{"source":"openstreetmap.org","kind":"locality","name":"Parlier","kind_detail":"town","population":13124,"min_zoom":8.0,"id":150950782},"coordinates":[12,50]},{"type":"Point","properties":{"source":"openstreetmap.org","kind":"locality","name":"Mammoth Lakes","kind_detail":"town","population":8234,"min_zoom":8.0,"id":96909012},"coordinates":[1644,3821]},{"type":"Point","properties":{"source":"openstreetmap.org","kind":"locality","name":"Bishop","kind_detail":"town","population":3879,"min_zoom":8.0,"id":96907196},"coordinates":[3311,2804]}]},"transit":{"type":"GeometryCollection","geometries":[]},"pois":{"type":"GeometryCollection","geometries":[{"type":"Point","properties":{"kind":"nature_reserve","tier":2,"protect_class":"1b","area":98769800,"source":"openstreetmap.org","min_zoom":8.98,"operator":"BLM","id":-6171846,"osm_relation":true,"name":"Fish Slough Wilderness Study Area"},"coordinates":[3117,3258]},{"type":"Point","properties":{"kind":"nature_reserve","tier":2,"protect_class":"1b","area":131425000,"source":"openstreetmap.org","min_zoom":8.77,"operator":"BLM","id":-6171845,"osm_relation":true,"name":"Chidago Canyon Wilderness Study Area"},"coordinates":[3107,3641]},{"type":"Point","properties":{"kind":"nature_reserve","tier":2,"protect_class":"1b","area":140810000,"source":"openstreetmap.org","min_zoom":8.72,"operator":"United States Forest Service","id":-6171212,"osm_relation":true,"name":"Kaiser Wilderness"},"coordinates":[921,2506]},{"type":"Point","properties":{"kind":"forest","tier":2,"protect_class":"3","area":763615000,"source":"openstreetmap.org","min_zoom":7.0,"operator":"United States Forest Service","id":-6167795,"osm_relation":true,"name":"Giant Sequoia National Monument"},"coordinates":[2052,518]},{"type":"Point","properties":{"kind":"nature_reserve","tier":2,"protect_class":"1b","area":1431740000,"source":"openstreetmap.org","min_zoom":7.05,"operator":"BLM;US Forest Service","id":-5990718,"osm_relation":true,"name":"White Mountains Wilderness Area"},"coordinates":[3793,3918]},{"type":"Point","properties":{"kind":"nature_reserve","tier":2,"protect_class":"1b","area":224644000,"source":"openstreetmap.org","min_zoom":8.38,"operator":"United States Forest Service","id":-5372302,"osm_relation":true,"name":"Monarch Wilderness"},"coordinates":[2148,955]},{"type":"Point","properties":{"kind":"nature_reserve","tier":2,"protect_class":"1b","area":4174940000,"source":"openstreetmap.org","min_zoom":6.28,"operator":"United States Forest Service","id":-5372301,"osm_relation":true,"name":"John Muir Wilderness"},"coordinates":[2025,1618]},{"type":"Point","properties":{"kind":"nature_reserve","tier":2,"protect_class":"1b","area":1495290000,"source":"openstreetmap.org","min_zoom":7.02,"name:uk":"\u0414\u0438\u043a\u0430 \u0442\u0435\u0440\u0438\u0442\u043e\u0440\u0456\u044f \u0410\u043d\u0441\u0435\u043b\u044c \u0410\u0434\u0430\u043c\u0441","operator":"US Forest Service;National Park Service","id":-5372296,"osm_relation":true,"name":"Ansel Adams Wilderness"},"coordinates":[910,3764]},{"type":"Point","properties":{"kind":"nature_reserve","tier":2,"protect_class":"1b","area":197066000,"source":"openstreetmap.org","min_zoom":8.48,"operator":"United States Forest Service","id":-5360757,"osm_relation":true,"name":"Dinkey Lakes Wilderness"},"coordinates":[1596,2131]},{"type":"Point","properties":{"kind":"forest","tier":2,"protect_class":"6","area":691374000,"name:de":"Nationalforst Inyo","source":"openstreetmap.org","min_zoom":7.0,"name:es":"Bosque nacional de Inyo","operator":"United States Forest Service","id":-2300949,"osm_relation":true,"name":"Inyo National Forest"},"coordinates":[3127,2187]},{"type":"Point","properties":{"kind":"forest","tier":2,"protect_class":"6","area":175185000,"source":"openstreetmap.org","min_zoom":7.0,"operator":"United States Forest Service","id":-972017,"osm_relation":true,"name":"Sequoia National Forest"},"coordinates":[1214,847]},{"type":"Point","properties":{"kind":"forest","tier":2,"protect_class":"6","area":5346030000,"name:de":"Nationalforst Sierra","source":"openstreetmap.org","min_zoom":7.0,"operator":"United States Forest Service","id":-972011,"osm_relation":true,"name":"Sierra National Forest"},"coordinates":[221,2418]},{"type":"Point","properties":{"kind":"national_park","tier":1,"protect_class":"2","area":2812880000,"min_zoom":5.06,"name:de":"Kings-Canyon-Nationalpark","source":"openstreetmap.org","name:fr":"Parc national de Kings Canyon","operator":"United States National Park Service","id":-175061,"osm_relation":true,"name":"Kings Canyon National Park"},"coordinates":[2691,1162]}]},"boundaries":{"type":"GeometryCollection","geometries":[{"type":"LineString","properties":{"name:pt":"Calif\u00f3rnia","name:cy":"Califfornia","name:ko":"\uce98\ub9ac\ud3ec\ub2c8\uc544","name:cv":"\u041a\u0430\u043b\u0438\u0444\u043e\u0440\u043d\u0438","name:cs":"Kalifornie","name:kw":"Kaliforni","min_zoom":8.0,"name:tl":"Kaliporniya","name:be":"\u041a\u0430\u043b\u0456\u0444\u043e\u0440\u043d\u0456\u044f","name:os":"\u041a\u0430\u043b\u0438\u0444\u043e\u0440\u043d\u0438","name:pl":"Kalifornia","name:ta":"\u0b95\u0bb2\u0bbf\u0baa\u0bcb\u0bb0\u0bcd\u0ba9\u0bbf\u0baf\u0bbe","name:ca":"Calif\u00f2rnia","name:ka":"\u10d9\u10d0\u10da\u10d8\u10e4\u10dd\u10e0\u10dc\u10d8\u10d0","sort_rank":256,"name:da":"Californien","name:de":"Kalifornien","source":"openstreetmap.org","name:nv":"Ak\u00e9\u00e9h\u00e1sh\u012f\u0301\u012f\u0301 Hahoodzo","name:kn":"\u0c95\u0ccd\u0caf\u0cbe\u0cb2\u0cbf\u0cab\u0cca\u0cb0\u0ccd\u0ca8\u0cbf\u0caf","name:tr":"Kaliforniya","name:uz":"Kaliforniya","name:he":"\u05e7\u05dc\u05d9\u05e4\u05d5\u05e8\u05e0\u05d9\u05d4","kind":"region","name:uk":"\u041a\u0430\u043b\u0456\u0444\u043e\u0440\u043d\u0456\u044f","name:hy":"\u053f\u0561\u056c\u056b\u0586\u0578\u0580\u0576\u056b\u0561","name:ht":"Kalif\u00f2ni","name:hu":"Kalifornia","name:hr":"Kalifornija","name:oc":"Calif\u00f2rnia","name:el":"\u039a\u03b1\u03bb\u03b9\u03c6\u03cc\u03c1\u03bd\u03b9\u03b1","name:eo":"Kalifornio","name":"California","name:th":"\u0e23\u0e31\u0e10\u0e41\u0e04\u0e25\u0e34\u0e1f\u0e2d\u0e23\u0e4c\u0e40\u0e19\u0e35\u0e22","name:yi":"\u05e7\u05d0\u05dc\u05d9\u05e4\u05d0\u05e8\u05e0\u05d9\u05e2","name:az":"Kaliforniya","name:mr":"\u0915\u0945\u0932\u093f\u092b\u094b\u0930\u094d\u0928\u093f\u092f\u093e","name:ar":"\u0643\u0627\u0644\u064a\u0641\u0648\u0631\u0646\u064a\u0627","name:is":"Kaliforn\u00eda","name:iu":"\u1473\u14d6\u1434\u1550\u14c3\u140a","name:vi":"Ca Li","name:ml":"\u0d15\u0d3e\u0d32\u0d3f\u0d2b\u0d4b\u0d30\u0d4d\u200d\u0d23\u0d3f\u0d2f","name:mn":"\u041a\u0430\u043b\u0438\u0444\u043e\u0440\u043d\u0438","name:mi":"Karap\u014dnia","id":-165475,"name:af":"Kaliforni\u00eb","name:fa":"\u06a9\u0627\u0644\u06cc\u0641\u0631\u0646\u06cc\u0627","name:lt":"Kalifornija","kind_detail":"4","name:hi":"\u0915\u0948\u0932\u093f\u092b\u093c\u094b\u0930\u094d\u0928\u093f\u092f\u093e","name:mg":"Kalifornia","name:fo":"Kalifornia","name:fr":"Californie","name:fy":"Kalifornje","name:zh":"\u52a0\u5229\u798f\u5c3c\u4e9a\u5dde","name:sl":"Kalifornija","name:nl":"Californi\u00eb","name:ja":"\u30ab\u30ea\u30d5\u30a9\u30eb\u30cb\u30a2\u5dde","name:sh":"Kalifornija","name:br":"Kalifornia","name:eu":"Kalifornia","name:bn":"\u0995\u09cd\u09af\u09be\u09b2\u09bf\u09ab\u09cb\u09b0\u09cd\u09a8\u09bf\u09af\u09bc\u09be","name:sk":"Kalifornia","name:ru":"\u041a\u0430\u043b\u0438\u0444\u043e\u0440\u043d\u0438\u044f","name:sv":"Kalifornien","name:bg":"\u041a\u0430\u043b\u0438\u0444\u043e\u0440\u043d\u0438\u044f","name:sr":"\u041a\u0430\u043b\u0438\u0444\u043e\u0440\u043d\u0438\u0458\u0430","osm_relation":true,"name:gd":"Calaf\u00f2rnia","name:fi":"Kalifornia"},"arcs":[0]}]},"roads":{"type":"GeometryCollection","geometries":[{"type":"MultiLineString","properties":{"source":"openstreetmap.org","kind":"major_road","sort_rank":380,"kind_detail":"primary","ref":"CA 198","min_zoom":8.0},"arcs":[[1],[2],[3]]},{"type":"LineString","properties":{"kind":"major_road","network":"US:CA","sort_rank":380,"kind_detail":"primary","source":"openstreetmap.org","min_zoom":8.0,"shield_text":"245","ref":"CA 245"},"arcs":[4]},{"type":"MultiLineString","properties":{"source":"openstreetmap.org","kind":"major_road","landuse_kind":"forest","sort_rank":380,"kind_detail":"primary","ref":"CA 198","min_zoom":8.0},"arcs":[[5],[6]]},{"type":"MultiLineString","properties":{"source":"openstreetmap.org","kind":"major_road","landuse_kind":"national_park","sort_rank":380,"kind_detail":"primary","ref":"CA 198","min_zoom":8.0},"arcs":[[7],[8],[9],[10]]},{"type":"MultiLineString","properties":{"kind":"major_road","network":"US:CA","sort_rank":380,"kind_detail":"primary","source":"openstreetmap.org","min_zoom":8.0,"landuse_kind":"nature_reserve","shield_text":"180","ref":"CA 180"},"arcs":[[11],[12]]},{"type":"MultiLineString","properties":{"kind":"major_road","network":"US:US","sort_rank":381,"kind_detail":"trunk","source":"openstreetmap.org","min_zoom":8.0,"shield_text":"395","ref":"US 395"},"arcs":[[13],[14],[15]]},{"type":"MultiLineString","properties":{"kind":"major_road","network":"US:US","sort_rank":381,"kind_detail":"trunk","source":"openstreetmap.org","min_zoom":8.0,"shield_text":"6","ref":"US 6"},"arcs":[[16],[17],[18]]},{"type":"LineString","properties":{"source":"openstreetmap.org","kind":"major_road","sort_rank":381,"kind_detail":"trunk","min_zoom":8.0,"id":185358137},"arcs":[19]},{"type":"MultiLineString","properties":{"kind":"major_road","network":"US:CA","sort_rank":380,"kind_detail":"primary","source":"openstreetmap.org","min_zoom":8.0,"landuse_kind":"forest","shield_text":"180","ref":"CA 180"},"arcs":[[20],[21],[22],[23],[24],[25]]},{"type":"LineString","properties":{"kind":"major_road","network":"US:CA","sort_rank":380,"kind_detail":"primary","source":"openstreetmap.org","min_zoom":8.0,"shield_text":"63","ref":"CA 63"},"arcs":[26]},{"type":"LineString","properties":{"kind":"major_road","network":"US:CA","sort_rank":380,"kind_detail":"primary","source":"openstreetmap.org","min_zoom":8.0,"landuse_kind":"forest","shield_text":"168","ref":"CA 168","id":357196387},"arcs":[27]},{"type":"MultiLineString","properties":{"source":"openstreetmap.org","kind":"major_road","landuse_kind":"national_park","sort_rank":380,"kind_detail":"primary","ref":"CA 180","min_zoom":8.0},"arcs":[[28],[29],[30],[31],[32],[33]]},{"type":"MultiLineString","properties":{"kind":"major_road","network":"US:US","sort_rank":381,"kind_detail":"trunk","is_bicycle_related":true,"source":"openstreetmap.org","min_zoom":8.0,"shield_text":"395","ref":"US 395;CA 168"},"arcs":[[34],[35],[36],[37]]},{"type":"LineString","properties":{"source":"openstreetmap.org","kind":"ferry","name":"Vermilion Ferry","sort_rank":355,"landuse_kind":"forest","min_zoom":8.0,"id":128121072},"arcs":[38]},{"type":"MultiLineString","properties":{"kind":"major_road","network":"US:US","sort_rank":381,"kind_detail":"trunk","is_bicycle_related":true,"source":"openstreetmap.org","min_zoom":8.0,"shield_text":"395","ref":"US 395"},"arcs":[[39],[40],[41],[42],[43],[44],[45],[46],[47],[48],[49],[50],[51],[52],[53],[54],[55],[56],[57],[58],[59],[60],[61],[62],[63],[64],[65],[66],[67],[68],[69]]},{"type":"MultiLineString","properties":{"source":"openstreetmap.org","kind":"major_road","landuse_kind":"national_park","sort_rank":380,"kind_detail":"primary","min_zoom":8.0},"arcs":[[70],[71],[72]]},{"type":"MultiLineString","properties":{"kind":"major_road","network":"US:CA","sort_rank":380,"kind_detail":"primary","source":"openstreetmap.org","min_zoom":8.0,"shield_text":"180","ref":"CA 180"},"arcs":[[73],[74],[75],[76]]},{"type":"MultiLineString","properties":{"kind":"major_road","network":"US:CA","sort_rank":380,"kind_detail":"primary","source":"openstreetmap.org","min_zoom":8.0,"shield_text":"168","ref":"CA 168"},"arcs":[[77],[78],[79]]},{"type":"LineString","properties":{"kind":"major_road","network":"US:US","sort_rank":381,"kind_detail":"trunk","source":"openstreetmap.org","min_zoom":8.0,"shield_text":"395","ref":"US 395;CA 168"},"arcs":[80]},{"type":"MultiLineString","properties":{"kind":"major_road","network":"US:US","sort_rank":381,"landuse_kind":"forest","is_bicycle_related":true,"source":"openstreetmap.org","min_zoom":8.0,"kind_detail":"trunk","shield_text":"395","ref":"US 395"},"arcs":[[81],[82],[83],[84],[85],[86],[87],[88],[89],[90],[91],[92],[93],[94]]},{"type":"LineString","properties":{"source":"openstreetmap.org","kind":"ferry","name":"Florence Lake Ferry","sort_rank":355,"landuse_kind":"forest","min_zoom":8.0,"id":402666814},"arcs":[95]},{"type":"LineString","properties":{"kind":"major_road","network":"US:US","sort_rank":380,"kind_detail":"primary","source":"openstreetmap.org","min_zoom":8.0,"shield_text":"6","ref":"US 6"},"arcs":[96]},{"type":"LineString","properties":{"kind":"major_road","network":"US:CA","sort_rank":380,"kind_detail":"primary","source":"openstreetmap.org","min_zoom":8.0,"landuse_kind":"forest","shield_text":"245","ref":"CA 245"},"arcs":[97]},{"type":"MultiLineString","properties":{"kind":"major_road","network":"US:CA","sort_rank":380,"kind_detail":"primary","source":"openstreetmap.org","min_zoom":8.0,"landuse_kind":"national_park","shield_text":"180","ref":"CA 180"},"arcs":[[98],[99]]},{"type":"MultiLineString","properties":{"kind":"major_road","network":"US:CA","sort_rank":380,"kind_detail":"primary","source":"openstreetmap.org","min_zoom":8.0,"landuse_kind":"residential","shield_text":"168","ref":"CA 168"},"arcs":[[100],[101]]},{"type":"LineString","properties":{"source":"openstreetmap.org","kind":"ferry","name":"Vermilion Ferry","sort_rank":355,"min_zoom":8.0,"id":128121072},"arcs":[102]}]},"earth":{"type":"GeometryCollection","geometries":[{"type":"Polygon","properties":{"sort_rank":10,"source":"naturalearthdata.com","kind":"earth","min_zoom":0.0,"id":4490},"arcs":[[103]]}]},"landuse":{"type":"GeometryCollection","geometries":[{"type":"MultiPolygon","properties":{"kind":"nature_reserve","protect_class":"1b","area":3002814098,"sort_rank":23,"operator":"United States Forest Service","source":"openstreetmap.org","min_zoom":6.0,"tier":2,"osm_relation":true},"arcs":[[[104]],[[105]]]},{"type":"MultiPolygon","properties":{"kind":"forest","protect_class":"6","area":872477437,"sort_rank":31,"operator":"United States Forest Service","source":"openstreetmap.org","min_zoom":6.0,"tier":2,"osm_relation":true},"arcs":[[[106]],[[107]]]},{"type":"Polygon","properties":{"kind":"national_park","area":95973800,"sort_rank":18,"operator":"United States National Park Service","source":"openstreetmap.org","min_zoom":8.0,"tier":1,"id":-175059,"osm_relation":true},"arcs":[[108]]},{"type":"Polygon","properties":{"kind":"nature_reserve","protect_class":"1b","area":1495289984,"sort_rank":23,"operator":"US Forest Service;National Park Service","source":"openstreetmap.org","min_zoom":4.0,"tier":2,"id":-5372296,"osm_relation":true},"arcs":[[109]]},{"type":"MultiPolygon","properties":{"kind":"forest","protect_class":"6","area":74301736,"sort_rank":31,"operator":"United States Forest Service","source":"openstreetmap.org","min_zoom":8.0,"tier":2,"osm_relation":true},"arcs":[[[110]],[[111]],[[112]],[[113]]]},{"type":"MultiPolygon","properties":{"source":"openstreetmap.org","kind":"residential","tier":2,"area":268287226,"sort_rank":20,"min_zoom":8.0,"osm_relation":true},"arcs":[[[114]]]},{"type":"MultiPolygon","properties":{"kind":"nature_reserve","protect_class":"1b","area":371662167,"sort_rank":23,"operator":"BLM","source":"openstreetmap.org","min_zoom":7.0,"tier":2,"osm_relation":true},"arcs":[[[115]]]},{"type":"MultiPolygon","properties":{"kind":"nature_reserve","protect_class":"1b","area":286467387,"sort_rank":23,"operator":"United States Forest Service","source":"openstreetmap.org","min_zoom":8.0,"tier":2,"osm_relation":true},"arcs":[[[116]],[[117]],[[118]]]},{"type":"MultiPolygon","properties":{"kind":"forest","protect_class":"6","area":27016180240,"sort_rank":31,"operator":"United States Forest Service","source":"openstreetmap.org","min_zoom":4.0,"tier":2,"osm_relation":true},"arcs":[[[119]],[[120]],[[121]],[[122],[123],[124]],[[125]],[[126],[127],[128],[129],[130]]]},{"type":"MultiPolygon","properties":{"source":"openstreetmap.org","kind":"park","tier":2,"area":218503966,"sort_rank":24,"min_zoom":8.0,"osm_relation":true},"arcs":[[[131],[132]]]},{"type":"MultiPolygon","properties":{"kind":"national_park","protect_class":"2","area":8151076825,"sort_rank":18,"operator":"United States National Park Service","source":"openstreetmap.org","min_zoom":3.0,"tier":1,"osm_relation":true},"arcs":[[[133]],[[134],[135],[136],[137]]]},{"type":"MultiPolygon","properties":{"source":"openstreetmap.org","kind":"park","tier":2,"area":66602460,"sort_rank":24,"min_zoom":8.0},"arcs":[[[138]]]},{"type":"Polygon","properties":{"kind":"nature_reserve","protect_class":"1b","area":140810000,"sort_rank":23,"operator":"United States Forest Service","source":"openstreetmap.org","min_zoom":7.0,"tier":2,"id":-6171212,"osm_relation":true},"arcs":[[139]]},{"type":"Polygon","properties":{"kind":"nature_reserve","protect_class":"1b","area":1431740032,"sort_rank":23,"operator":"BLM;US Forest Service","source":"openstreetmap.org","min_zoom":4.0,"tier":2,"id":-5990718,"osm_relation":true},"arcs":[[140]]},{"type":"MultiPolygon","properties":{"kind":"nature_reserve","protect_class":"1b","area":5005991287,"sort_rank":23,"operator":"United States Forest Service","source":"openstreetmap.org","min_zoom":4.0,"tier":2,"osm_relation":true},"arcs":[[[141]]]},{"type":"MultiPolygon","properties":{"source":"openstreetmap.org","kind":"residential","tier":2,"area":162514126,"sort_rank":20,"min_zoom":8.0},"arcs":[[[142]],[[143]]]},{"type":"Polygon","properties":{"kind":"nature_reserve","protect_class":"1b","area":57032800,"sort_rank":23,"operator":"BLM;US Forest Service","source":"openstreetmap.org","min_zoom":8.0,"tier":2,"id":-5990718,"osm_relation":true},"arcs":[[144]]},{"type":"MultiPolygon","properties":{"kind":"nature_reserve","protect_class":"1b","area":884152450,"sort_rank":23,"operator":"BLM","source":"openstreetmap.org","min_zoom":8.0,"tier":2,"osm_relation":true},"arcs":[[[145]],[[146]],[[147]],[[148]],[[149]]]},{"type":"Polygon","properties":{"kind":"forest","protect_class":"6","area":144760000,"sort_rank":31,"operator":"United States Forest Service","source":"openstreetmap.org","min_zoom":7.0,"tier":2,"id":-2300949,"osm_relation":true},"arcs":[[150]]},{"type":"Polygon","properties":{"kind":"forest","protect_class":"3","area":763614976,"sort_rank":31,"operator":"United States Forest Service","source":"openstreetmap.org","min_zoom":6.0,"tier":2,"id":-6167795,"osm_relation":true},"arcs":[[151],[152]]}]}},"type":"Topology","transform":{"translate":[-119.53125,36.5978891331],"scale":[0.0003433228,0.0002736087]},"arcs":[[[4096,3945],[-168,151]],[[1804,445],[-23,1]],[[2031,192],[-2,4]],[[2283,0],[3,2]],[[1243,0],[87,59],[53,-18],[108,39],[18,105],[-18,158]],[[1890,398],[-43,46],[-43,1]],[[2029,196],[8,48],[-51,1],[-22,82],[-41,4],[10,44],[-31,-12],[-2,23]],[[1781,446],[-60,-15],[-42,9],[-2,21]],[[1900,386],[-10,12]],[[2283,34],[-52,-7],[-59,43],[-26,-43],[-32,-2],[3,151],[-45,-12],[-41,28]],[[2286,2],[35,23],[-36,9]],[[1995,822],[-14,10]],[[2102,784],[-46,31]],[[3130,2843],[177,-4],[2,-48]],[[3615,2104],[16,-84]],[[3861,783],[33,-65]],[[3308,2840],[0,-3]],[[3308,2836],[0,4]],[[3309,2843],[-1,-3]],[[3309,2843],[-7,0]],[[1214,590],[-29,15]],[[1350,529],[-60,21]],[[1627,431],[-107,28],[-103,86],[-55,5],[13,-22]],[[1981,832],[-70,24],[-37,-43],[-2,18],[-26,-12],[21,36],[-52,-3],[-20,-77],[-78,-15],[-40,-42],[-18,-142]],[[2056,815],[-13,13],[-15,-41],[-33,35]],[[2369,747],[-267,37]],[[712,484],[2,-62],[-53,-14],[-1,-311],[52,-1],[-1,-96]],[[220,1701],[100,-86],[40,-2],[-2,44],[122,33]],[[2460,731],[-33,16]],[[2645,676],[-111,6],[-74,48]],[[2663,690],[-17,-13]],[[2753,718],[-88,-27]],[[2754,721],[-1,-3]],[[2753,718],[9,4],[-4,3],[-4,-4]],[[3318,2664],[34,-80]],[[3352,2584],[22,-84],[34,-85],[44,-106],[115,-144]],[[3567,2165],[-115,145],[-100,274]],[[3567,2165],[48,-61]],[[1515,2847],[56,-4],[72,34],[70,72]],[[1761,3876],[10,-45]],[[1779,3825],[-7,7],[-7,39],[-3,5]],[[1771,3831],[6,-7]],[[1880,3790],[-65,16]],[[1816,3804],[64,-15]],[[2025,3742],[62,-21],[66,-82]],[[2155,3639],[-66,82],[-64,22]],[[2159,3633],[15,-15],[87,-44],[27,-3]],[[2288,3571],[118,-10]],[[2406,3561],[18,-2]],[[2424,3560],[-18,1]],[[2406,3561],[-105,5],[-13,5]],[[2288,3571],[-108,45],[-21,19]],[[2754,3339],[21,-178],[18,-62],[1,-2]],[[2794,3097],[14,-27]],[[2808,3070],[33,-65],[1,-2],[34,-50],[147,-69]],[[3023,2884],[-144,69],[-35,47],[-1,3],[-35,67]],[[2808,3070],[-14,26],[0,1]],[[2794,3097],[0,2],[-17,64],[-16,178],[-7,8]],[[3023,2884],[107,-41]],[[3631,2020],[4,-5]],[[3635,2015],[10,-19],[23,-39]],[[3668,1957],[8,-14],[3,-6],[42,-74],[0,-1],[0,-1]],[[3721,1861],[2,-5],[24,-97],[11,-38],[2,-7]],[[3760,1714],[18,-46],[2,-22],[1,-167]],[[3781,1479],[0,-2],[-22,-194],[-2,-116],[38,-298],[14,-22],[52,-64],[-65,84],[-38,293],[24,310],[-1,9]],[[3781,1479],[-20,233],[-1,2]],[[3760,1714],[-1,5],[-4,16],[-31,122],[-3,4]],[[3721,1861],[-53,96]],[[3668,1957],[-32,56],[-1,2]],[[4096,387],[-202,331],[202,-332]],[[2460,730],[0,1]],[[2646,677],[-1,-1]],[[2665,691],[-2,-1]],[[0,501],[171,-13],[44,-41],[96,-17],[79,16],[168,-18],[369,144],[183,2],[75,31]],[[1290,550],[-76,40]],[[1375,528],[-25,1]],[[2423,747],[-54,0]],[[0,1074],[29,26],[3,68],[45,51],[-4,80],[-61,54]],[[6,1445],[-1,69],[44,92],[122,26],[49,69]],[[8,1357],[-2,83]],[[3309,2791],[9,-127]],[[1662,4096],[99,-220]],[[1762,3876],[-76,185],[-18,35]],[[1771,3831]],[[1777,3824],[39,-20]],[[1815,3806],[-36,19]],[[2025,3743],[-145,47]],[[1880,3789],[145,-47]],[[2153,3639],[6,-6]],[[2159,3635],[-4,4]],[[2513,3518],[-89,42]],[[2424,3559],[60,-35],[3,-1],[26,-5]],[[2513,3518],[81,-35],[12,-57]],[[2606,3426],[148,-87]],[[2754,3349],[-148,77]],[[1625,2477],[92,-95]],[[3199,4096],[68,-139],[175,-796],[-18,-234],[-106,-9],[-9,-75]],[[1491,343],[17,20],[16,-15],[4,33],[56,46],[-37,18]],[[1659,576],[18,-115],[-43,-3],[16,-32],[-23,5]],[[2427,747],[-4,0]],[[6,1440],[0,5]],[[12,1353],[-4,4]],[[1713,2949],[4,4]],[[4096,4096],[0,-4096],[-4096,0],[0,4096],[4096,0]],[[1824,1046],[40,92],[33,-15],[62,37],[171,-114],[-4,23],[84,-30],[46,10],[67,-40],[40,21],[37,-14],[30,-267],[-142,1],[-31,29],[-122,-10],[-92,63],[-19,-29],[-107,67],[-93,176]],[[1211,2187],[30,24],[-18,46],[135,212],[10,-52],[45,-25],[-31,-50],[21,-51],[-33,-35],[39,-44],[6,-92],[106,11],[92,93],[58,-41],[-14,-182],[-40,-110],[-13,39],[-6,-20],[-65,-2],[-32,-115],[-75,38],[-56,155],[-37,29],[-56,-8],[-20,91],[21,27],[-44,31],[4,17],[27,-24],[20,7],[-74,31]],[[615,906],[58,62],[52,-31],[14,31],[38,2],[-3,28],[-57,26],[-4,81],[108,-59],[39,5],[9,-60],[222,65],[55,-71],[18,13],[17,-35],[82,-18],[1,-52],[41,9],[-10,-105],[-20,1],[14,-33],[-30,21],[-5,-8],[60,-83],[-48,-13],[23,-32],[-13,-20],[-43,11],[6,-52],[-53,1],[-4,51],[-51,-1],[-9,262],[-122,0],[1,-26],[-374,-2],[-12,32]],[[2621,2484],[42,-1],[33,35],[-30,-3],[22,39],[-31,5],[28,15],[-40,6],[-1,53],[40,0],[33,53],[33,0],[0,26],[-62,-15],[38,49],[-30,-21],[-8,2],[-10,16],[-5,12],[2,11],[-8,8],[-16,28],[25,-35],[14,-40],[59,64],[107,0],[-1,-51],[105,-1],[0,-53],[40,0],[13,-53],[216,-1],[1,-105],[38,-1],[16,-102],[53,-1],[0,-132],[53,0],[0,-55],[27,0],[41,-58],[-18,-162],[26,-1],[0,39],[45,-3],[-26,-25],[26,-15],[-1,-439],[-101,21],[43,44],[-42,15],[22,21],[-62,82],[17,88],[-22,4],[47,23],[49,-19],[-16,39],[52,68],[-172,-53],[-69,29],[-52,-9],[-53,-66],[-14,106],[-118,125],[-69,-13],[-52,-48],[-92,42],[-18,-25],[0,51],[40,63],[-31,55],[-6,157],[-41,-11],[-106,-160],[44,96],[-60,0],[21,11],[-3,64],[43,-6],[24,81],[-14,29],[-78,8]],[[1597,473],[1,104],[130,-2],[-4,-126],[123,-6],[53,-55],[-6,-147],[48,-53],[65,-10],[-106,-83],[-57,-11],[0,49],[-47,42],[-28,119],[-35,26],[1,39],[26,0],[14,39],[-26,0],[1,25],[-123,0],[0,50],[-30,0]],[[255,3428],[63,69],[43,-39],[58,36],[2,125],[48,161],[47,-19],[79,26],[38,104],[55,17],[13,84],[89,55],[5,49],[445,0],[125,-153],[2,-56],[-48,75],[-55,9],[63,-53],[1,-88],[-32,-40],[11,-108],[48,7],[-12,110],[35,13],[3,-45],[49,-8],[25,-39],[-62,-106],[-40,37],[-19,-16],[-69,-160],[-97,-18],[3,-53],[45,-33],[-53,-71],[48,-37],[20,-67],[62,13],[32,-24],[12,-58],[67,-23],[12,-30],[246,-114],[45,0],[-68,-58],[-90,-5],[-33,-28],[-3,34],[-56,17],[-20,-31],[-27,5],[-34,0],[-16,14],[-4,18],[-21,37],[-15,14],[37,-70],[15,-14],[65,-7],[20,15],[8,-58],[88,-31],[-29,-117],[-46,-21],[-7,-65],[-38,39],[-44,-25],[-42,34],[-21,-15],[-34,33],[-1,73],[-115,47],[-60,190],[-27,-5],[-23,48],[-35,3],[-33,83],[-10,-18],[-21,27],[-85,-98],[-55,-14],[-20,-90],[-57,0],[-1,22],[-2,-25],[-40,7],[-6,46],[49,24],[14,89],[35,29],[-17,129],[59,38],[7,72],[62,65],[-69,127],[-126,53],[-34,-11],[-70,-95],[24,-52],[-48,-24],[-26,-76],[-46,-20],[1,24],[-92,2],[-34,41],[-43,3],[24,36],[-116,3]],[[3823,0],[2,39],[103,-26],[0,-13],[-105,0]],[[3767,154],[10,54],[45,43],[0,-198],[-44,34],[-11,67]],[[2309,2928],[17,23],[67,-12],[-5,-72],[35,-68],[55,71],[-30,21],[57,-6],[87,77],[0,-45],[-45,-6],[-134,-190],[-39,83],[-36,20],[-12,45],[29,11],[-46,48]],[[3495,3320],[2,48],[31,-32],[5,32],[60,16],[0,16],[10,13],[21,-16],[51,27],[5,-7],[-113,-86],[37,4],[-35,-43],[51,-7],[-11,-28],[30,-19],[-59,32],[2,-34],[-29,8],[21,-31],[-26,-4],[0,111],[-53,0]],[[5,1441],[10,34],[46,-14],[25,20],[14,-42],[-26,1],[-14,-104],[-53,18],[17,61],[-19,26]],[[2970,3693],[8,199],[145,-1],[53,-23],[97,-428],[-9,-56],[-51,77],[-204,120],[-39,112]],[[2014,331],[117,94],[130,1],[24,52],[92,14],[-6,-82],[-61,-118],[-119,12],[-110,-51],[-48,27],[-19,51]],[[1911,850],[77,-24],[43,-43],[12,40],[91,-60],[119,10],[35,-29],[136,1],[6,-70],[-49,-23],[0,26],[-43,22],[-244,-39],[13,31],[-39,-9],[18,33],[-93,-11],[6,45],[-88,100]],[[1240,4096],[223,0],[-43,-34],[-38,13],[34,-29],[52,39],[0,-91],[26,-31],[-26,-81],[-86,-2],[25,47],[-13,29],[-118,86],[-36,54]],[[3547,2950],[0,212],[153,53],[16,-17],[-20,-37],[197,0],[16,69],[-8,65],[-40,25],[-24,79],[-81,84],[-2,71],[-30,45],[42,154],[-12,3],[-7,10],[-7,-3],[2,6],[-7,-1],[0,6],[-5,-2],[1,4],[-3,1],[-8,17],[0,4],[-1,-2],[-1,-12],[-3,2],[6,14],[47,-47],[-5,-121],[50,-162],[19,16],[22,-42],[22,44],[53,41],[-18,-27],[30,-19],[-63,4],[-9,-161],[54,-41],[49,59],[69,-38],[-7,39],[-12,2],[-12,19],[-5,15],[-6,4],[-12,-1],[-3,3],[-4,22],[1,3],[35,11],[-34,-12],[3,-24],[15,0],[8,-6],[38,-51],[-1,-36],[51,-17],[-24,-4],[-65,46],[-39,-7],[-67,-151],[195,1],[0,-2223],[-8,53],[-53,1],[-1,105],[-53,28],[1,132],[-53,0],[-2,425],[-24,1],[0,52],[-24,1],[-13,579],[-158,-1],[-2,265],[-52,0],[0,159],[-27,0],[0,53],[-27,0],[0,158],[-53,0]],[[4096,4096],[0,-151],[-166,151],[166,0]],[[3907,4096],[9,0],[-1,-2],[-44,-39],[-33,-19],[-48,-18],[117,78]],[[0,2380],[0,1051],[371,-6],[-24,-36],[43,-3],[34,-41],[92,-2],[-1,-24],[46,20],[26,76],[48,24],[-24,52],[70,95],[34,11],[97,-32],[98,-148],[-62,-65],[-7,-72],[-59,-38],[17,-129],[-35,-29],[-14,-89],[-49,-24],[6,-46],[40,-7],[-5,18],[7,7],[1,-22],[57,0],[20,90],[55,14],[85,98],[21,-27],[10,18],[33,-83],[35,-3],[23,-48],[27,5],[60,-190],[115,-47],[1,-73],[34,-33],[21,15],[42,-34],[44,25],[38,-39],[7,65],[46,21],[29,117],[-88,31],[-8,58],[-20,-15],[-65,7],[-15,14],[-37,70],[56,-83],[61,-5],[20,31],[56,-17],[3,-34],[222,90],[-43,-80],[-100,-71],[-60,-85],[34,-47],[20,22],[36,13],[-1,-17],[-57,-21],[-31,31],[-38,-68],[67,-25],[57,-75],[3,-40],[39,43],[-18,62],[43,4],[7,-66],[-36,-19],[-3,-62],[72,-64],[-13,-19],[-34,13],[21,-27],[-100,110],[16,64],[-44,28],[-37,-26],[-224,60],[-32,-47],[38,-57],[35,-5],[19,-73],[31,-11],[12,-11],[-32,-51],[15,-6],[7,-45],[-34,-37],[39,-39],[-5,-12],[11,-23],[0,-59],[42,22],[60,-9],[43,62],[50,31],[45,-13],[14,-28],[7,-20],[-3,-48],[-16,-23],[4,-9],[-8,-99],[6,-41],[-6,-71],[50,22],[-39,-172],[53,-123],[-59,-47],[111,-178],[76,-28],[-62,-41],[-40,17],[-21,-29],[74,-33],[-16,-76],[17,-31],[31,12],[31,-22],[-38,-101],[74,-104],[14,-63],[-268,90],[-101,-21],[-146,23],[-43,-25],[-60,15],[-66,-19],[-164,120],[-55,-43],[-140,-27],[-8,60],[-40,-5],[-104,59],[0,-81],[62,-49],[-40,-7],[-14,-31],[-52,31],[-39,-52],[0,480],[-105,0],[0,53],[-53,0],[0,54],[-52,0],[-1,54],[-103,-1],[-1,53],[-79,53],[-28,55],[-52,0],[-1,106],[-113,-1],[2,110],[-27,1],[-10,447],[-11,0]],[[1211,2187],[74,-31],[-47,17],[-4,-17],[44,-31],[-21,-27],[20,-91],[56,8],[37,-29],[56,-155],[75,-38],[32,115],[65,2],[6,20],[13,-39],[40,110],[-1,93],[15,89],[-58,41],[-92,-93],[-106,-11],[-12,82],[6,10],[-39,44],[33,35],[-21,51],[31,50],[-45,25],[-10,52],[-135,-212],[18,-46],[-30,-24]],[[737,2529],[5,-56],[41,-32],[-22,-82],[58,-25],[91,31],[39,46],[124,15],[27,89],[97,-9],[48,36],[-40,76],[-56,13],[-16,30],[-91,-55],[-38,71],[-122,-33],[-10,-61],[-34,20],[-6,-27],[-32,5],[-17,-36],[-35,9],[-11,-25]],[[2370,4096],[534,0],[-2,-614],[-40,-1],[-2,-107],[-106,0],[0,-53],[-160,-1],[0,-104],[-27,0],[0,79],[-37,79],[-107,36],[-29,-158],[41,22],[51,-17],[15,-17],[-8,-59],[-6,72],[-52,19],[-41,-22],[-24,-125],[-72,-30],[-21,-51],[-28,23],[-9,71],[95,44],[7,95],[-20,5],[10,29],[26,-9],[-7,97],[77,54],[-44,-14],[-70,38],[111,5],[-3,316],[-52,0],[0,298]],[[1463,4096],[589,0],[-1,-258],[-53,0],[0,-53],[53,0],[0,-40],[-101,25],[75,-25],[-1,-40],[82,-13],[0,-53],[53,0],[0,-53],[53,0],[0,-53],[106,1],[0,-52],[-58,-19],[-33,19],[-16,-29],[-44,40],[-90,-31],[20,79],[-119,20],[-5,49],[-41,-25],[-15,21],[43,39],[0,25],[-109,42],[-34,-89],[14,-24],[-35,-39],[-38,110],[-68,-28],[-28,-54],[-40,59],[-45,-22],[2,-35],[-46,39],[-9,-50],[-72,86],[-1,73],[-56,43],[-14,-14],[-2,45],[-36,-13],[12,-110],[-48,-7],[-11,108],[32,40],[1,72],[-61,78],[53,-20],[46,-73],[-11,86],[18,11],[33,-57],[-25,-47],[85,2],[27,81],[-26,31],[0,91],[-52,-39],[-21,4],[-13,25],[38,-13],[43,34]],[[1545,3757],[67,-27],[39,30],[1,49],[45,10],[-123,51],[18,-17],[-46,-10],[0,-33],[12,-13],[1,3],[19,-3],[0,-3],[-33,-10],[0,-27]],[[1758,3757],[13,-26],[121,-12],[-13,79],[93,0],[0,26],[-67,27],[-13,-40],[-80,-1],[26,-39],[-80,-14]],[[1700,3816],[7,-16],[8,-2],[0,13],[-15,5]],[[1759,3876],[13,-52],[47,6],[0,20],[-33,-13],[0,39],[-27,0]],[[185,2449],[10,128],[75,114],[13,-96],[57,-35],[19,-165],[138,27],[16,-22],[-75,-54],[-151,-27],[-35,72],[-51,14],[-16,44]],[[211,2465],[31,-1],[7,-54],[16,107],[-54,-52]],[[0,3421],[0,675],[795,0],[-5,-49],[-89,-55],[-13,-84],[-55,-17],[-38,-104],[-79,-26],[-47,19],[-48,-161],[-4,-127],[-56,-34],[-43,39],[-63,-69],[-255,-7]],[[1782,3],[55,80],[64,12],[169,126],[16,39],[105,44],[152,-27],[-33,18],[61,115],[6,234],[53,31],[-30,341],[-37,14],[-40,-21],[-67,40],[-46,-10],[-84,30],[4,-23],[-104,83],[-53,4],[198,143],[65,118],[14,138],[83,89],[-14,46],[23,25],[-33,82],[-80,62],[-32,72],[-43,13],[-1,66],[-93,106],[-34,89],[23,86],[-15,28],[76,17],[54,-17],[13,35],[30,6],[63,-56],[80,9],[34,-67],[33,1],[24,39],[44,-24],[41,-117],[-26,-40],[55,-97],[178,-10],[22,-52],[50,-3],[9,-35],[99,-5],[24,-45],[58,-15],[51,-68],[56,-36],[56,7],[31,-32],[-13,-53],[52,-70],[-11,-56],[41,-44],[-23,-32],[36,-36],[11,-84],[48,-45],[78,-211],[-27,-60],[26,-98],[-92,-51],[56,-111],[-19,-62],[32,-122],[90,-78],[13,-82],[-95,-52],[-26,13],[84,-85],[39,2],[13,-21],[-29,-39],[61,-60],[-11,-43],[135,-111],[-730,0],[-144,0],[-1002,3]],[[2372,262],[78,-115],[-49,99],[-29,16]],[[3141,290],[10,30],[-1,0],[-9,-30]],[[3331,367],[22,-3],[-7,3],[-15,0]],[[111,1924],[9,52],[84,31],[-26,-132],[-38,-2],[-29,51]],[[737,2529],[11,25],[35,-9],[17,36],[32,-5],[6,27],[34,-20],[10,61],[122,33],[38,-71],[91,55],[16,-30],[56,-13],[40,-76],[-48,-36],[-97,9],[-27,-89],[-124,-15],[-39,-46],[-91,-31],[-58,25],[22,82],[-41,32],[-5,56]],[[3911,4096],[-41,-40],[-8,-1],[-10,-9],[-11,-3],[-3,-6],[-14,1],[-18,-7],[-16,-13],[48,18],[33,19],[43,41],[16,0],[166,-151],[0,-668],[-51,17],[-2,13],[5,17],[-2,6],[-38,51],[-8,6],[-15,0],[-3,24],[38,10],[-4,2],[-35,-11],[3,-25],[50,-42],[7,-39],[-69,38],[-49,-59],[-54,41],[16,72],[-14,-35],[-13,27],[26,81],[1,14],[-7,2],[63,-4],[-30,19],[18,27],[-53,-41],[-22,-44],[-22,42],[-19,-16],[-50,162],[7,84],[-2,37],[-3,5],[-10,0],[-7,10],[-6,-4],[1,6],[-7,6],[-5,-3],[1,4],[-11,23],[-6,-14],[5,12],[10,-26],[12,-3],[-2,-6],[7,3],[9,-11],[9,2],[4,-39],[-27,-20],[-18,-99],[30,-45],[2,-71],[81,-84],[24,-79],[43,-31],[-8,-123],[-200,-5],[20,37],[-16,17],[-38,-29],[-128,-25],[-16,44],[56,8],[-21,31],[29,-8],[-4,33],[21,-15],[4,6],[19,-17],[17,-5],[-30,19],[11,28],[-51,7],[35,43],[-35,2],[47,12],[10,35],[54,33],[-56,-20],[-21,16],[-10,-29],[-60,-16],[-5,-32],[-33,29],[-21,55],[36,25],[-38,55],[35,8],[-29,0],[-22,-29],[1,146],[42,24],[64,-6],[-132,31],[0,74],[20,-22],[43,-14],[40,18],[-71,16],[-12,-18],[-20,21],[0,30],[36,22],[16,-14],[5,100],[-46,55],[-62,-12],[1,87],[27,-2],[27,15],[-47,9],[30,31],[-7,26],[500,0]],[[1163,3300],[53,71],[-45,33],[-3,53],[97,18],[86,176],[42,-37],[53,64],[35,-71],[43,-28],[9,50],[46,-39],[-2,35],[45,22],[40,-59],[28,54],[68,28],[38,-110],[35,39],[-14,24],[34,89],[109,-42],[-43,-64],[15,-21],[41,25],[5,-49],[119,-20],[-20,-79],[97,32],[37,-41],[15,29],[34,-19],[32,24],[92,-48],[44,14],[-77,-54],[7,-97],[-26,9],[-10,-29],[20,-5],[-13,-108],[-93,-38],[41,-87],[21,51],[72,31],[24,124],[4,-6],[5,-1],[13,5],[19,24],[1,-6],[6,-8],[42,-2],[1,-54],[5,-22],[3,1],[-7,76],[-51,17],[-41,-22],[27,157],[108,-35],[38,-79],[0,-79],[27,0],[-2,-254],[-87,-77],[-57,6],[30,-21],[-55,-71],[-35,68],[5,72],[-67,12],[-17,-23],[46,-48],[-29,-11],[12,-45],[36,-20],[39,-83],[156,202],[48,-27],[1,-52],[80,0],[0,-53],[51,0],[-11,-34],[-34,-17],[-11,-10],[1,-4],[-31,63],[-12,12],[37,-74],[8,-2],[30,21],[-38,-49],[62,15],[0,-26],[-33,0],[-33,-53],[-40,0],[1,-53],[40,-6],[-28,-15],[31,-5],[-22,-39],[30,3],[-74,-39],[77,-3],[16,-60],[-27,-51],[-42,7],[3,-64],[-21,-11],[60,0],[-49,-92],[146,177],[12,-167],[31,-55],[-40,-63],[0,-51],[18,25],[92,-42],[52,48],[69,13],[118,-125],[14,-106],[53,66],[52,9],[69,-29],[172,53],[-52,-68],[16,-39],[-49,19],[-47,-23],[22,-4],[-17,-88],[62,-82],[-22,-21],[42,-15],[-41,-33],[-2,-11],[101,-21],[0,-91],[-15,-2],[-4,-4],[53,3],[-24,-85],[-6,-5],[-1,4],[-13,14],[-8,1],[21,-24],[-33,-50],[26,19],[16,-70],[-77,-5],[-16,-8],[-6,-8],[58,9],[-4,-31],[33,-1],[0,-26],[55,23],[51,-25],[8,-164],[-22,-84],[34,-3],[-7,-38],[-59,-23],[53,1],[0,-28],[42,-14],[-22,-33],[27,-10],[-38,-42],[-75,-23],[-31,-99],[-74,4],[-10,-57],[30,38],[63,10],[41,47],[46,-43],[-19,-53],[60,-21],[-46,-28],[74,-6],[-52,-77],[46,4],[-13,-43],[57,-114],[63,-60],[-25,-97],[64,-150],[-173,-4],[-54,29],[-25,52],[-56,30],[11,43],[-60,59],[28,42],[-52,17],[-56,66],[93,58],[-13,82],[-90,78],[-32,122],[19,62],[-56,111],[92,51],[-26,98],[27,60],[-78,211],[-48,45],[-11,84],[-36,36],[23,32],[-41,44],[11,56],[-52,70],[13,53],[-31,32],[-56,-7],[-56,36],[-51,68],[-58,15],[-24,45],[-99,5],[-9,35],[-50,3],[-22,52],[-178,10],[-55,97],[20,81],[-69,98],[-66,-38],[-35,67],[-80,-9],[-63,56],[-30,-6],[-13,-35],[-54,17],[-76,-17],[15,-28],[-23,-86],[34,-89],[92,-104],[7,-74],[38,-7],[32,-72],[75,-53],[38,-91],[-23,-25],[14,-46],[-83,-89],[-14,-138],[-65,-118],[-198,-143],[-14,27],[-62,-37],[-45,39],[-52,-6],[-17,31],[16,76],[-58,13],[-17,29],[25,21],[37,-18],[62,41],[-76,28],[-111,181],[59,44],[-53,123],[39,172],[-50,-22],[16,311],[-59,41],[-93,-93],[-60,9],[-42,-22],[-6,94],[-39,39],[34,37],[-22,51],[32,51],[-44,24],[-18,71],[-35,5],[-38,62],[32,42],[224,-60],[37,26],[28,-25],[16,-3],[-16,-64],[100,-110],[-21,27],[34,-13],[13,19],[-72,64],[3,62],[36,19],[-7,66],[-43,-4],[18,-62],[-39,-43],[-3,40],[-57,75],[-67,25],[38,68],[31,-31],[57,21],[1,17],[-56,-35],[-34,47],[60,85],[100,71],[43,79],[-76,2],[-246,114],[-12,30],[-67,23],[-12,58],[-32,24],[-62,-13],[-20,67],[-48,37]],[[332,1715],[3,33],[69,-45],[128,28],[1,59],[61,38],[66,-4],[27,-53],[39,26],[-15,-79],[-51,25],[-24,-106],[-38,-44],[-60,-11],[-31,34],[-93,-7],[-7,32],[38,31],[-83,5],[-30,38]],[[246,1738],[6,43],[78,91],[34,-114],[-49,2],[-17,-50],[-46,3],[-6,25]],[[3901,3161],[67,151],[50,4],[78,-41],[0,-113],[-195,-1]],[[3811,251],[153,133],[28,0],[40,-66],[-9,-71],[-94,-50],[-107,-23],[-11,77]],[[3718,564],[50,57],[0,-52],[52,0],[0,53],[-51,0],[130,40],[-13,-39],[66,-40],[3,-72],[-64,-33],[10,-34],[-145,-21],[-17,20],[20,10],[8,28],[-33,-33],[-16,116]],[[3510,1750],[21,100],[-18,80],[90,74],[66,-116],[0,-101],[-53,0],[-7,-60],[-99,23]],[[2935,3259],[18,86],[219,-222],[4,-8],[-5,10],[-217,221],[19,136],[35,14],[25,-41],[51,-6],[165,-128],[-47,-66],[40,-14],[-14,-80],[51,0],[-10,-132],[-56,14],[-6,11],[-41,-55],[-42,5],[-1,47],[-53,1],[0,-53],[39,-1],[-13,-24],[-93,-12],[-53,27],[-12,160],[26,12],[0,54],[-27,0],[-2,44]],[[2862,3423],[0,58],[40,1],[2,195],[25,51],[51,-110],[-27,-269],[-91,74]],[[3423,1261],[6,8],[16,8],[77,6],[-18,71],[-10,-11],[-14,-11],[33,51],[-21,24],[28,-14],[24,85],[-53,-3],[19,48],[106,-1],[-1,-238],[53,0],[-1,-160],[-26,13],[26,-59],[-39,-40],[39,20],[0,-119],[73,0],[1,-159],[-27,0],[4,-423],[26,0],[0,-53],[26,0],[0,-19],[-41,26],[-57,114],[13,43],[-46,-4],[52,77],[-36,11],[-34,-7],[-4,2],[46,29],[-60,20],[25,31],[-37,61],[-60,-45],[-59,-8],[-30,-38],[10,57],[74,-4],[31,99],[75,23],[38,42],[-27,10],[22,33],[-42,14],[0,28],[-46,-5],[-7,4],[59,23],[7,38],[-34,3],[22,84],[-8,164],[-51,25],[-55,-23],[0,26],[-33,1],[4,31],[-58,-9]],[[1233,641],[43,-11],[13,20],[-23,32],[48,13],[-59,70],[4,21],[20,-24],[10,3],[-14,33],[20,-1],[10,79],[0,26],[-49,2],[7,41],[91,0],[43,25],[146,-23],[49,24],[97,-10],[72,-46],[130,-24],[133,-88],[0,21],[20,7],[91,-62],[21,9],[101,1],[31,-29],[73,8],[69,-9],[-142,-5],[-35,29],[-119,-10],[-91,60],[-12,-40],[-43,43],[-77,24],[88,-100],[-6,-45],[93,11],[-18,-33],[39,9],[-13,-31],[244,39],[45,-29],[-6,-179],[-92,-14],[-24,-52],[-130,-1],[-33,-35],[-28,5],[-56,-64],[19,-51],[48,-27],[-6,-21],[-46,-36],[-52,-3],[4,-18],[-87,66],[6,147],[-54,55],[-122,6],[4,126],[-130,2],[-1,-104],[30,0],[0,-50],[123,0],[-1,-25],[26,0],[-14,-39],[-26,0],[-1,-39],[35,-26],[34,-131],[41,-30],[-9,-72],[-88,-4],[-1,55],[-102,-1],[0,105],[-52,1],[1,77],[-77,1],[1,26],[-26,0],[1,129],[-52,25],[1,26],[-51,1],[0,26],[-100,4],[0,58],[-51,-1],[-6,52]],[[1767,667],[39,-14],[0,40],[-39,6],[0,-32]]]}