{"objects":{"water":{"type":"GeometryCollection","geometries":[{"type":"Polygon","properties":{"source":"naturalearthdata.com","kind":"ocean","area":1576712559132672,"sort_rank":200,"min_zoom":0.0,"id":1},"arcs":[[2],[3],[4]]},{"type":"LineString","properties":{"source":"naturalearthdata.com","kind":"ocean","sort_rank":205,"boundary":true,"min_zoom":0.0,"id":1131},"arcs":[5]},{"type":"LineString","properties":{"source":"naturalearthdata.com","kind":"ocean","sort_rank":205,"boundary":true,"min_zoom":0.0,"id":1132},"arcs":[6]}]},"buildings":{"type":"GeometryCollection","geometries":[]},"places":{"type":"GeometryCollection","geometries":[{"type":"Point","properties":{"source":"openstreetmap.org","kind":"locality","name":"Vila do Corvo","kind_detail":"town","population":430,"min_zoom":8.0,"id":25270672},"coordinates":[3583,3205]}]},"transit":{"type":"GeometryCollection","geometries":[]},"pois":{"type":"GeometryCollection","geometries":[{"type":"Point","properties":{"kind":"nature_reserve","protect_class":"6","area":435539000,"source":"openstreetmap.org","min_zoom":7.91,"tier":2,"ref":"COR02","id":-7209335,"osm_relation":true,"name":"\u00c1rea Protegida para a Gest\u00e3o de Recursos da Costa do Corvo"},"coordinates":[3438,3302]}]},"boundaries":{"type":"GeometryCollection","geometries":[{"type":"MultiLineString","properties":{"name:kg":"Mputulukesi","name:ty":"P\u014dt\u012bt\u012b","name:ps":"\u067e\u0631\u062a\u06ab\u0627\u0644","name:ka":"\u10de\u10dd\u10e0\u10e2\u10e3\u10d2\u10d0\u10da\u10d8\u10d0","name:ko":"\ud3ec\ub974\ud22c\uac08","name:cv":"\u041f\u043e\u0440\u0442\u0443\u0433\u0430\u043b\u0438","name:cu":"\u041f\u043e\u0440\u0442\u043e\u0433\u0430\u043b\u0457\ua657","name:cs":"Portugalsko","name:tt":"\u041f\u043e\u0440\u0442\u0443\u0433\u0430\u043b\u0438\u044f","name:co":"Portugallu","name:kv":"\u041f\u043e\u0440\u0442\u0443\u0433\u0430\u043b\u0438\u044f","name:ku":"Port\u00fbgal","name:az":"Portuqaliya","name:zh-min-nan":"Ph\u00fb-t\u00f4-g\u00e2","name:os":"\u041f\u043e\u0440\u0442\u0443\u0433\u0430\u043b\u0438","name:or":"\u0b2a\u0b30\u0b4d\u0b24\u0b4d\u0b24\u0b41\u0b17\u0b3e\u0b32","name:ce":"\u041f\u043e\u0440\u0442\u0443\u0433\u0430\u043b\u0438","name:ta":"\u0baa\u0bcb\u0bb0\u0bcd\u0ba4\u0bcd\u0ba4\u0bc1\u0b95\u0bb2\u0bcd","name:tg":"\u041f\u043e\u0440\u0442\u0443\u0433\u0430\u043b\u0438\u044f","name:ky":"\u041f\u043e\u0440\u0442\u0443\u0433\u0430\u043b\u0438\u044f","name:te":"\u0c2a\u0c4b\u0c30\u0c4d\u0c1a\u0c41\u0c17\u0c32\u0c4d","name:cy":"Portiwgal","sort_rank":262,"name:ln":"Pulutugal","name:ba":"\u041f\u043e\u0440\u0442\u0443\u0433\u0430\u043b\u0438\u044f","name:dz":"\u0f54\u0f7c\u0f62\u0f0b\u0f45\u0f74\u0f0b\u0f42\u0f63\u0f0b","source":"openstreetmap.org","name:sq":"Portugalia","name:kn":"\u0caa\u0ccb\u0cb0\u0ccd\u0c9a\u0cc1\u0c97\u0cb2\u0ccd","name:dv":"\u0795\u07af\u0797\u07aa\u078e\u07a6\u078d\u07b0","name:km":"\u1794\u17d2\u179a\u1791\u17c1\u179f \u1796\u17d0\u179a\u1791\u17bb\u1799\u17a0\u17d2\u1782\u17b6\u179b\u17cb","name:lv":"Portug\u0101le","name:lt":"Portugalija","name:hi":"\u092a\u0941\u0930\u094d\u0924\u0917\u093e\u0932","name:kk":"\u041f\u043e\u0440\u0442\u0443\u0433\u0430\u043b\u0438\u044f","name:he":"\u05e4\u05d5\u05e8\u05d8\u05d5\u05d2\u05dc","name:eo":"Portugalujo","name:ur":"\u067e\u0631\u062a\u06af\u0627\u0644","name:la":"Portugallia","name:uk":"\u041f\u043e\u0440\u0442\u0443\u0433\u0430\u043b\u0456\u044f","name:hy":"\u054a\u0578\u0580\u057f\u0578\u0582\u0563\u0561\u056c\u056b\u0561","name:ug":"Portugaliye","name:hu":"Portug\u00e1lia","name:qu":"Purtugal","name:el":"\u03a0\u03bf\u03c1\u03c4\u03bf\u03b3\u03b1\u03bb\u03af\u03b1","kind":"country","name":"Portugal","name:tk":"Portugali\u00fda","min_zoom":8.0,"name:th":"\u0e1b\u0e23\u0e30\u0e40\u0e17\u0e28\u0e42\u0e1b\u0e23\u0e15\u0e38\u0e40\u0e01\u0e2a","name:yi":"\u05e4\u05d0\u05e8\u05d8\u05d5\u05d2\u05d0\u05dc","name:yo":"P\u1ecd\u0301rt\u00fag\u00e0l","name:ay":"Purtuwal","name:mt":"Portugall","alt_name:eo":"Portugalio","name:ro":"Portugalia","name:mr":"\u092a\u094b\u0930\u094d\u0924\u0941\u0917\u093e\u0932","name:ar":"\u0627\u0644\u0628\u0631\u062a\u063a\u0627\u0644","name:my":"\u1015\u1031\u102b\u103a\u1010\u1030\u1002\u102e\u1014\u102d\u102f\u1004\u103a\u1004\u1036","official_name":"Rep\u00fablica Portuguesa","name:kw":"Portyngal","name:is":"Port\u00fagal","name:am":"\u1356\u122d\u1271\u130b\u120d","name:it":"Portogallo","name:ru":"\u041f\u043e\u0440\u0442\u0443\u0433\u0430\u043b\u0438\u044f","name:vi":"B\u1ed3 \u0110\u00e0o Nha","name:rw":"Porutigali","name:mi":"Potukara","name:pl":"Portugalia","name:mk":"\u041f\u043e\u0440\u0442\u0443\u0433\u0430\u043b\u0438\u0458\u0430","name:vo":"Portug\u00e4n","name:zu":"IPhothugali","name:mn":"\u041f\u043e\u0440\u0442\u0443\u0433\u0430\u043b","name:ss":"IPhuthukezi","kind_detail":"2","name:uz":"Portugaliya","name:mg":"P\u00f4rtogaly","id":-295480,"name:zh-yue":"\u8461\u8404\u7259","name:fy":"Portegal","name:zh":"\u8461\u8404\u7259","name:so":"Bortuqaal","name:sl":"Portugalska","name:sk":"Portugalsko","name:ja":"\u30dd\u30eb\u30c8\u30ac\u30eb","name:si":"\u0db4\u0dd8\u0dad\u0dd4\u0d9c\u0dcf\u0dbd\u0dba","name:fa":"\u067e\u0631\u062a\u063a\u0627\u0644","name:na":"Portsiugar","name:sc":"Portogallo","name:ne":"\u092a\u094b\u0930\u094d\u091a\u0941\u0917\u0932","name:sa":"\u092a\u0941\u0930\u094d\u0924\u0917\u093e\u0932","name:bn":"\u09aa\u09b0\u09cd\u09a4\u09c1\u0997\u09be\u09b2","name:bo":"\u0f54\u0f7c\u0f0b\u0f45\u0f74\u0f0b\u0f42\u0fb7\u0f63\u0f0d","name:ml":"\u0d2a\u0d4b\u0d7c\u0d1a\u0d4d\u0d1a\u0d41\u0d17\u0d7d","name:sw":"Ureno","name:be":"\u041f\u0430\u0440\u0442\u0443\u0433\u0430\u043b\u0456\u044f","name:bg":"\u041f\u043e\u0440\u0442\u0443\u0433\u0430\u043b\u0438\u044f","name:wo":"Portugaal","name:sr":"\u041f\u043e\u0440\u0442\u0443\u0433\u0430\u043b\u0438\u0458\u0430","osm_relation":true,"name:tr":"Portekiz","name:ga":"An Phortaing\u00e9il","name:gd":"A' Phortagail","name:ht":"P\u00f2tigal","name:gn":"Poytuga","maritime_boundary":true,"name:gv":"Yn Phortiugal","name:gu":"\u0aaa\u0acb\u0ab0\u0acd\u0a9f\u0ac1\u0a97\u0ab2","name:fi":"Portugali"},"arcs":[[0],[1]]}]},"roads":{"type":"GeometryCollection","geometries":[{"type":"LineString","properties":{"sort_rank":355,"source":"openstreetmap.org","min_zoom":8.0,"kind":"ferry","name":"Horta - Lajes das Flores"},"arcs":[7]},{"type":"MultiLineString","properties":{"source":"openstreetmap.org","kind":"ferry","name":"Vila do Corvo - Santa Cruz das Flores","sort_rank":355,"landuse_kind":"nature_reserve","min_zoom":8.0},"arcs":[[8],[9]]},{"type":"MultiLineString","properties":{"source":"openstreetmap.org","kind":"ferry","name":"Vila do Corvo - Santa Cruz das Flores","sort_rank":355,"min_zoom":8.0,"id":380624852},"arcs":[[10],[11],[12]]}]},"earth":{"type":"GeometryCollection","geometries":[{"type":"MultiPolygon","properties":{"sort_rank":10,"source":"naturalearthdata.com","min_zoom":0.0,"kind":"earth","area":376134404},"arcs":[[[13]],[[14]]]}]},"landuse":{"type":"GeometryCollection","geometries":[{"type":"Polygon","properties":{"kind":"nature_reserve","protect_class":"6","area":435539008,"sort_rank":23,"source":"openstreetmap.org","min_zoom":6.0,"tier":2,"id":-7209335,"osm_relation":true},"arcs":[[15],[16]]},{"type":"Polygon","properties":{"kind":"nature_reserve","protect_class":"1a","area":26777800,"sort_rank":23,"source":"openstreetmap.org","min_zoom":8.0,"tier":2,"id":350336997},"arcs":[[17]]},{"type":"Polygon","properties":{"kind":"nature_reserve","protect_class":"5","area":43109800,"sort_rank":23,"source":"openstreetmap.org","min_zoom":8.0,"tier":2,"id":380457818},"arcs":[[18]]},{"type":"Polygon","properties":{"kind":"nature_reserve","protect_class":"4","area":14951300,"sort_rank":23,"source":"openstreetmap.org","min_zoom":8.0,"tier":2,"id":-5282623,"osm_relation":true},"arcs":[[19]]},{"type":"Polygon","properties":{"kind":"nature_reserve","protect_class":"6","area":66943100,"sort_rank":23,"source":"openstreetmap.org","min_zoom":8.0,"tier":2,"id":-7209440,"osm_relation":true},"arcs":[[20],[21]]}]}},"type":"Topology","transform":{"translate":[-32.34375,38.8225909762],"scale":[0.0003433228,0.0002654163]},"arcs":[[[4096,3954],[-214,141],[-3,1]],[[3289,4096],[-210,-115],[-162,-190],[-474,-910],[-124,-336],[-29,-198],[51,-360],[153,-352],[154,-196],[238,-154],[289,-64],[426,58],[299,139],[196,180]],[[4096,0],[-4096,0],[0,4096],[4096,0],[0,-4096]],[[3526,3175],[5,-24],[92,19],[57,111],[-7,110],[-101,22],[-35,-5],[-34,-23],[-25,-36],[-9,-39],[11,-18],[46,-117]],[[3276,2637],[-59,-19],[-48,-38],[-20,-58],[-13,-75],[-25,-56],[-15,-53],[15,-64],[-27,-38],[1,-68],[19,-74],[27,-52],[41,-24],[59,-9],[64,7],[55,26],[48,-34],[60,64],[51,105],[22,85],[-4,160],[-23,65],[-55,72],[-38,-24],[-40,5],[-35,20],[-28,25],[22,51],[-54,1]],[[3572,3413],[-35,-5],[-34,-23],[-25,-36],[-9,-39],[11,-18],[46,-117],[5,-24],[92,19],[57,111],[-7,110],[-101,22]],[[3308,2585],[22,51],[-54,1],[-59,-19],[-48,-38],[-20,-58],[-13,-75],[-25,-56],[-15,-53],[15,-64],[-27,-38],[1,-68],[19,-74],[27,-52],[41,-24],[59,-9],[64,7],[55,26],[48,-34],[60,64],[51,105],[22,85],[-4,160],[-23,65],[-55,72],[-38,-24],[-40,5],[-35,20],[-28,25]],[[4096,1800],[-673,293]],[[3548,2371],[1,1]],[[3586,2997],[8,200]],[[3547,2369],[1,2]],[[3549,2372],[37,625]],[[3594,3197],[0,3]],[[3371,2540],[40,-5],[38,24],[55,-72],[23,-65],[4,-160],[-22,-85],[-51,-105],[-60,-64],[-48,34],[-55,-26],[-64,-7],[-59,9],[-41,24],[-27,52],[-19,74],[-1,68],[27,38],[-15,64],[15,53],[25,56],[13,75],[20,58],[48,38],[59,19],[54,-1],[-22,-51],[28,-25],[35,-20]],[[3623,3170],[-92,-19],[-5,24],[-46,117],[-11,18],[9,39],[25,36],[34,23],[35,5],[101,-22],[7,-110],[-57,-111]],[[3334,3606],[519,0],[0,-609],[-519,0],[0,609]],[[3539,3315],[33,-82],[-14,-36],[28,-7],[72,64],[16,77],[-17,47],[-92,22],[-26,-85]],[[3222,2368],[7,80],[62,11],[44,38],[29,-34],[-45,-16],[103,-29],[-130,-59],[-24,-42],[-28,-5],[4,47],[-15,-15],[-7,24]],[[3158,2400],[4,110],[53,50],[22,-77],[73,-10],[-84,-30],[13,-130],[72,55],[77,-18],[-73,-57],[40,-37],[-43,-14],[-36,22],[-17,-32],[-31,2],[17,-20],[-33,-26],[-9,80],[-38,13],[38,1],[2,33],[-47,85]],[[3212,2561],[11,70],[81,14],[-1,-2],[4,0],[3,0],[4,-2],[0,-2],[10,-54],[25,2],[-6,-20],[34,-20],[72,19],[31,-64],[1,-45],[26,-18],[10,-25],[25,3],[-5,-6],[4,1],[3,-2],[2,2],[5,-32],[-2,-9],[-4,-2],[4,9],[-6,31],[-6,1],[1,5],[-23,-2],[-15,30],[-58,16],[34,19],[-14,35],[-39,-14],[34,35],[-8,25],[-20,-21],[-29,11],[0,-39],[-34,-19],[10,-51],[-57,7],[45,17],[-52,46],[-4,38],[27,29],[-13,6],[-6,9],[-6,50],[-84,-14],[12,-43],[-26,-24]],[[3186,2561],[0,113],[367,0],[0,-260],[-36,0],[-36,43],[-31,109],[-73,-19],[-34,20],[6,20],[-25,-2],[-14,58],[-87,-12],[7,-44],[-18,-26],[-26,0]],[[3199,2581],[4,-6],[10,1],[-8,10],[-6,-5]]]}