{"objects":{"water":{"type":"GeometryCollection","geometries":[{"type":"MultiPolygon","properties":{"source":"naturalearthdata.com","kind":"ocean","area":1576712559132672,"sort_rank":200,"min_zoom":0.0,"id":1},"arcs":[[[31],[32],[33],[34],[35],[36],[37],[38],[39],[40],[41],[42],[43],[44],[45],[46],[47],[48],[49],[50],[51],[52],[53],[54],[55],[56],[57],[58],[59],[60],[61],[62],[63],[64]],[[65],[66]]]},{"type":"LineString","properties":{"source":"naturalearthdata.com","kind":"ocean","sort_rank":205,"boundary":true,"min_zoom":0.0,"id":32},"arcs":[67]},{"type":"MultiLineString","properties":{"source":"naturalearthdata.com","kind":"ocean","sort_rank":205,"boundary":true,"min_zoom":0.0,"id":79},"arcs":[[68],[69],[70]]},{"type":"LineString","properties":{"source":"naturalearthdata.com","kind":"ocean","sort_rank":205,"boundary":true,"min_zoom":0.0,"id":170},"arcs":[71]},{"type":"LineString","properties":{"source":"naturalearthdata.com","kind":"ocean","sort_rank":205,"boundary":true,"min_zoom":0.0,"id":171},"arcs":[72]},{"type":"LineString","properties":{"source":"naturalearthdata.com","kind":"ocean","sort_rank":205,"boundary":true,"min_zoom":0.0,"id":172},"arcs":[73]},{"type":"LineString","properties":{"source":"naturalearthdata.com","kind":"ocean","sort_rank":205,"boundary":true,"min_zoom":0.0,"id":173},"arcs":[74]},{"type":"LineString","properties":{"source":"naturalearthdata.com","kind":"ocean","sort_rank":205,"boundary":true,"min_zoom":0.0,"id":174},"arcs":[75]},{"type":"LineString","properties":{"source":"naturalearthdata.com","kind":"ocean","sort_rank":205,"boundary":true,"min_zoom":0.0,"id":175},"arcs":[76]},{"type":"LineString","properties":{"source":"naturalearthdata.com","kind":"ocean","sort_rank":205,"boundary":true,"min_zoom":0.0,"id":1628},"arcs":[77]},{"type":"LineString","properties":{"source":"naturalearthdata.com","kind":"ocean","sort_rank":205,"boundary":true,"min_zoom":0.0,"id":1629},"arcs":[78]},{"type":"LineString","properties":{"source":"naturalearthdata.com","kind":"ocean","sort_rank":205,"boundary":true,"min_zoom":0.0,"id":1630},"arcs":[79]},{"type":"LineString","properties":{"source":"naturalearthdata.com","kind":"ocean","sort_rank":205,"boundary":true,"min_zoom":0.0,"id":1631},"arcs":[80]},{"type":"LineString","properties":{"source":"naturalearthdata.com","kind":"ocean","sort_rank":205,"boundary":true,"min_zoom":0.0,"id":1632},"arcs":[81]},{"type":"LineString","properties":{"source":"naturalearthdata.com","kind":"ocean","sort_rank":205,"boundary":true,"min_zoom":0.0,"id":1633},"arcs":[82]},{"type":"LineString","properties":{"source":"naturalearthdata.com","kind":"ocean","sort_rank":205,"boundary":true,"min_zoom":0.0,"id":1634},"arcs":[83]},{"type":"LineString","properties":{"source":"naturalearthdata.com","kind":"ocean","sort_rank":205,"boundary":true,"min_zoom":0.0,"id":1635},"arcs":[84]},{"type":"LineString","properties":{"source":"naturalearthdata.com","kind":"ocean","sort_rank":205,"boundary":true,"min_zoom":0.0,"id":1636},"arcs":[85]},{"type":"LineString","properties":{"source":"naturalearthdata.com","kind":"ocean","sort_rank":205,"boundary":true,"min_zoom":0.0,"id":1637},"arcs":[86]},{"type":"LineString","properties":{"source":"naturalearthdata.com","kind":"ocean","sort_rank":205,"boundary":true,"min_zoom":0.0,"id":1638},"arcs":[87]},{"type":"LineString","properties":{"source":"naturalearthdata.com","kind":"ocean","sort_rank":205,"boundary":true,"min_zoom":0.0,"id":1639},"arcs":[88]},{"type":"LineString","properties":{"source":"naturalearthdata.com","kind":"ocean","sort_rank":205,"boundary":true,"min_zoom":0.0,"id":1640},"arcs":[89]},{"type":"LineString","properties":{"source":"naturalearthdata.com","kind":"ocean","sort_rank":205,"boundary":true,"min_zoom":0.0,"id":1757},"arcs":[90]}]},"buildings":{"type":"GeometryCollection","geometries":[]},"places":{"type":"GeometryCollection","geometries":[{"type":"Point","properties":{"source":"naturalearthdata.com","kind":"locality","name":"Singapore","country_capital":true,"population":5183700,"min_zoom":2.0,"id":7288},"coordinates":[3792,1887]},{"type":"Point","properties":{"name:ka":"\u10e1\u10d8\u10dc\u10d2\u10d0\u10de\u10e3\u10e0\u10d8","name:ko":"\uc2f1\uac00\ud3ec\ub974","name:cv":"\u0421\u0438\u043d\u0433\u0430\u043f\u0443\u0440","name:km":"\u179f\u17b7\u1784\u17d2\u17a0\u1794\u17bb\u179a\u17b8","name:cs":"Singapur","name:ki":"Singapoo","name:kw":"Singapour","name:kv":"\u0421\u0438\u043d\u0433\u0430\u043f\u0443\u0440","name:ku":"Singap\u00fbr","name:ti":"\u1232\u1295\u130b\u1356\u122d","name:ks":"\u065b\u0633\u0650\u0646\u065b\u06af\u0627\u067e\u0648\u0657\u0631","name:to":"Singapoa","name:ce":"\u0421\u0438\u043d\u0433\u0430\u043f\u0443\u0440","name:ta":"\u0b9a\u0bbf\u0b99\u0bcd\u0b95\u0baa\u0bcd\u0baa\u0bc2\u0bb0\u0bcd","name:tg":"\u0421\u0438\u043d\u0433\u0430\u043f\u0443\u0440","name:ca":"Singapur","name:te":"\u0c38\u0c3f\u0c02\u0c17\u0c2a\u0c42\u0c30\u0c4d","name:hr":"Singapur","name:de":"Singapur","name:dz":"\u0f66\u0f72\u0f44\u0f0b\u0f42\u0f0b\u0f54\u0f7c\u0f62","source":"openstreetmap.org","name:kn":"\u0cb8\u0cbf\u0c82\u0c97\u0caa\u0cc1\u0cb0","name:dv":"\u0790\u07a8\u0782\u07b0\u078e\u07a6\u0795\u07ab\u0783\u07aa","name:lv":"Singap\u016bra","name:lt":"Singap\u016bras","name:uz":"Singapur","name:kk":"\u0421\u0438\u043d\u0433\u0430\u043f\u0443\u0440","name:ur":"\u0633\u0646\u06af\u0627\u067e\u0648\u0631","name:lb":"Singapur","name:la":"Singapura","name:lg":"Singapowa","name:uk":"\u0421\u0456\u043d\u0433\u0430\u043f\u0443\u0440","name:ug":"\u0633\u0649\u0646\u06af\u0627\u067e\u0648\u0631","name:ln":"Singapur\u025b","name:lo":"\u0eaa\u0eb4\u0e87\u0e81\u0eb0\u0ec2\u0e9b","name:el":"\u03a3\u03b9\u03b3\u03ba\u03b1\u03c0\u03bf\u03cd\u03c1\u03b7","name:eo":"Singapuro","name":"Singapore","name:tk":"Singapur","name:ee":"Singap\u0254r nutome","name:th":"\u0e1b\u0e23\u0e30\u0e40\u0e17\u0e28\u0e2a\u0e34\u0e07\u0e04\u0e42\u0e1b\u0e23\u0e4c","name:eu":"Singapur","name:et":"Singapur","name:es":"Singapur","name:ia":"Singapur","name:rm":"Singapur","name:rn":"Singapuru","name:az":"Sinqapur","name:ie":"Singapor","name:id":"Singapura","name:ar":"\u0633\u0646\u063a\u0627\u0641\u0648\u0631\u0629","name:io":"Singapur","name:ak":"Singap\u0254","name:am":"\u1232\u1295\u130b\u1356\u122d","name:an":"Singapur","name:ru":"\u0421\u0438\u043d\u0433\u0430\u043f\u0443\u0440","name:af":"Singapoer","name:zu":"i-Singapore","name:ky":"\u0421\u0438\u043d\u0433\u0430\u043f\u0443\u0440","name:zh-yue":"\u661f\u67b6\u5761","name:zh":"\u65b0\u52a0\u5761","name:so":"Singaboor","name:sm":"Sigapoa","name:sl":"Singapur","name:sk":"Singapur","name:ja":"\u30b7\u30f3\u30ac\u30dd\u30fc\u30eb","name:si":"\u0dc3\u0dd2\u0d82\u0d9c\u0db4\u0dca\u0db4\u0dd6\u0dbb\u0dd4\u0dc0","name:sh":"Singapur","name:sg":"S\u00efng\u00e4p\u00fbru","name:sa":"\u0938\u093f\u0919\u094d\u0917\u093e\u092a\u0941\u0930\u092e\u094d","name:bs":"Singapur","name:bm":"S\u025bngapuri","name:bn":"\u09b8\u09bf\u0999\u09cd\u0997\u09be\u09aa\u09c1\u09b0","name:bo":"\u0f66\u0f72\u0f44\u0f92\u0f0b\u0f54\u0f74\u0f62\u0f0d","name:br":"Singapour","name:sw":"Singapoo","name:be":"\u0421\u0456\u043d\u0433\u0430\u043f\u0443\u0440","name:su":"Singapura","name:bg":"\u0421\u0438\u043d\u0433\u0430\u043f\u0443\u0440","name:ss":"ISingapholo","name:ba":"\u0421\u0438\u043d\u0433\u0430\u043f\u0443\u0440","name:sq":"Singapor","name:jv":"Singapura","name:pt":"Cingapura","name:ps":"\u0633\u064a\u0646\u06ab\u0627\u067e\u0648\u0631","name:oc":"Singapor","min_zoom":2.0,"name:zh-min-nan":"Sin-ka-pho","name:os":"\u0421\u0438\u043d\u0433\u0430\u043f\u0443\u0440","name:or":"\u0b38\u0b3f\u0b19\u0b4d\u0b17\u0b3e\u0b2a\u0b41\u0b30\u0b4d","name:pl":"Singapur","name:sr":"\u0421\u0438\u043d\u0433\u0430\u043f\u0443\u0440","name:pa":"\u0a38\u0a3f\u0a70\u0a18\u0a3e\u0a2a\u0a41\u0a30","name:tr":"Singapur","name:hi":"\u0938\u093f\u0902\u0917\u093e\u092a\u0941\u0930","name:he":"\u05e1\u05d9\u05e0\u05d2\u05e4\u05d5\u05e8","name:ha":"Singapur","name:hy":"\u054d\u056b\u0576\u0563\u0561\u057a\u0578\u0582\u0580","name:ht":"Sengapou","name:hu":"Szingap\u00far","name:qu":"Singapur","population":4839400,"kind":"country","name:is":"Singap\u00far","name:yi":"\u05e1\u05d9\u05e0\u05d2\u05d0\u05e4\u05d5\u05e8","name:yo":"Or\u00edl\u1eb9\u0301\u00e8de Singapo","name:mt":"Singapor","name:ms":"Singapura","name:mr":"\u0938\u093f\u0902\u0917\u093e\u092a\u0942\u0930","name:my":"\u1005\u1004\u103a\u1039\u1000\u102c\u1015\u1030","official_name":"Republic of Singapore","name:mg":"Singaporo","name:ml":"\u0d38\u0d3f\u0d02\u0d17\u0d2a\u0d4d\u0d2a\u0d41\u0d7c","name:vi":"T\u00e2n Gia Ba","name:mn":"\u0421\u0438\u043d\u0433\u0430\u043f\u0443\u0440","name:mi":"Hingapoa","id":424313428,"name:mk":"\u0421\u0438\u043d\u0433\u0430\u043f\u0443\u0440","name:vo":"Singapur\u00e4n","name:fa":"\u0633\u0646\u06af\u0627\u067e\u0648\u0631","name:ff":"Sinngapuur","old_name:vi":"Chi\u00eau Nam","name:fo":"Singapor","name:fr":"Singapour","name:fy":"Singapoer","name:na":"Tsingapoar","name:ne":"\u0938\u093f\u0919\u094d\u0917\u093e\u092a\u0941\u0930","name:wo":"Singapoor","name:nv":"S\u012f\u0301\u02bcgaboo","name:ga":"Singeap\u00f3r","name:gd":"Siongap\u00f2r","name:gl":"Singapur","name:gu":"\u0ab8\u0abf\u0a82\u0a97\u0abe\u0aaa\u0ac1\u0ab0","name:tt":"\u0421\u0438\u043d\u0433\u0430\u043f\u0443\u0440"},"coordinates":[3742,1977]},{"type":"Point","properties":{"name:short":"M","name:ja":"\u30e0\u30e9\u30ab\u5dde","name:ms":"Melaka","name:ko":"\ubbc8\ub77c\uce74 \uc8fc","name:th":"\u0e23\u0e31\u0e10\u0e21\u0e30\u0e25\u0e30\u0e01\u0e32","name:ru":"\u041c\u0430\u043b\u0430\u043a\u043a\u0430 \u0448\u0442\u0430\u0442","name:ta":"\u0bae\u0bb2\u0bbe\u0b95\u0bcd\u0b95\u0bbe","id":4165154141,"population":872900,"name:el":"\u039c\u03b1\u03bb\u03ac\u03ba\u03b1","kind":"region","name":"Malacca","kind_detail":"state","short_name":"MLK","min_zoom":4.0,"source":"openstreetmap.org","name:zh":"\u9a6c\u516d\u7532\u5dde"},"coordinates":[1457,3205]},{"type":"Point","properties":{"kind":"region","name":"Riau","kind_detail":"state","name:eo":"Riauo","source":"openstreetmap.org","min_zoom":4.0,"name:zh":"\u5ed6\u5185\u7701","id":1898283470},"coordinates":[433,729]},{"type":"Point","properties":{"kind":"region","name":"Johor","name:lt":"D\u017eohoras","kind_detail":"state","source":"openstreetmap.org","min_zoom":4.0,"name:zh":"\u67d4\u4f5b\u5dde","id":2609539356},"coordinates":[3199,2931]},{"type":"Point","properties":{"source":"naturalearthdata.com","kind":"locality","name":"Johor Bahru","population":875000,"region_capital":true,"min_zoom":6.0,"id":5000},"coordinates":[3609,2159]},{"type":"Point","properties":{"source":"naturalearthdata.com","kind":"locality","name":"Pekanbaru","population":799000,"region_capital":true,"min_zoom":6.0,"id":5796},"coordinates":[252,826]},{"type":"Point","properties":{"source":"naturalearthdata.com","kind":"locality","name":"Malacca","population":788706,"region_capital":true,"min_zoom":6.0,"id":5818},"coordinates":[1451,3215]},{"type":"Point","properties":{"source":"naturalearthdata.com","kind":"locality","name":"Seremban","population":372917,"region_capital":true,"min_zoom":7.0,"id":2711},"coordinates":[1005,3949]},{"type":"Point","properties":{"source":"naturalearthdata.com","kind":"locality","name":"Batu Pahat","population":199619,"min_zoom":7.0,"id":2709},"coordinates":[2452,2696]},{"type":"Point","properties":{"source":"naturalearthdata.com","kind":"locality","name":"Muar","population":191346,"min_zoom":7.0,"id":2708},"coordinates":[1917,2963]},{"type":"Point","properties":{"source":"naturalearthdata.com","kind":"locality","name":"Keluang","population":169828,"min_zoom":7.0,"id":2710},"coordinates":[3012,2970]}]},"transit":{"type":"GeometryCollection","geometries":[]},"pois":{"type":"GeometryCollection","geometries":[{"type":"Point","properties":{"kind":"nature_reserve","name":"Endau Rompin National Park","area":1260100000,"source":"openstreetmap.org","min_zoom":7.14,"tier":2,"name:zh":"\u5174\u697c\u4e91\u51b0\u56fd\u5bb6\u516c\u56ed","id":197886608},"coordinates":[2950,3527]},{"type":"Point","properties":{"source":"openstreetmap.org","kind":"museum","name":"istana siak","area":361214000,"min_zoom":4.47,"id":485341339},"coordinates":[1183,1179]}]},"boundaries":{"type":"GeometryCollection","geometries":[{"type":"LineString","properties":{"source":"naturalearthdata.com","kind":"country","sort_rank":262,"kind_detail":"2","min_zoom":0.0,"id":4},"arcs":[0]},{"type":"LineString","properties":{"source":"naturalearthdata.com","kind":"region","sort_rank":256,"kind_detail":"4","min_zoom":6.0,"id":108},"arcs":[1]},{"type":"LineString","properties":{"source":"naturalearthdata.com","kind":"region","sort_rank":256,"kind_detail":"4","min_zoom":6.0,"id":110},"arcs":[2]},{"type":"LineString","properties":{"source":"naturalearthdata.com","kind":"region","sort_rank":256,"kind_detail":"4","min_zoom":6.0,"id":111},"arcs":[3]},{"type":"LineString","properties":{"source":"naturalearthdata.com","kind":"region","sort_rank":256,"kind_detail":"4","min_zoom":2.0,"id":246},"arcs":[4]},{"type":"MultiLineString","properties":{"source":"naturalearthdata.com","kind":"region","name":"Johor - Melaka","sort_rank":256,"kind_detail":"4","min_zoom":6.0,"id":2444},"arcs":[[5],[6],[7]]},{"type":"LineString","properties":{"source":"naturalearthdata.com","kind":"region","name":"Johor - Negeri Sembilan","sort_rank":256,"kind_detail":"4","min_zoom":6.0,"id":2451},"arcs":[8]},{"type":"MultiLineString","properties":{"source":"naturalearthdata.com","kind":"region","name":"Melaka - Negeri Sembilan","sort_rank":256,"kind_detail":"4","min_zoom":6.0,"id":2450},"arcs":[[9],[10],[11],[12],[13],[14],[15],[16]]},{"type":"MultiLineString","properties":{"source":"naturalearthdata.com","kind":"region","name":"Pahang - Johor","sort_rank":256,"kind_detail":"4","min_zoom":6.0,"id":2443},"arcs":[[17],[18],[19],[20]]},{"type":"LineString","properties":{"source":"naturalearthdata.com","kind":"region","name":"Negeri Sembilan - Selangor","sort_rank":256,"kind_detail":"4","min_zoom":6.0,"id":2452},"arcs":[21]},{"type":"LineString","properties":{"source":"naturalearthdata.com","kind":"region","name":"Central Singapore - South West","sort_rank":256,"kind_detail":"4","min_zoom":7.0,"id":8140},"arcs":[22]},{"type":"LineString","properties":{"source":"naturalearthdata.com","kind":"region","name":"North West - South West","sort_rank":256,"kind_detail":"4","min_zoom":7.0,"id":8141},"arcs":[23]},{"type":"MultiLineString","properties":{"source":"naturalearthdata.com","kind":"region","name":"North West - Central Singapore","sort_rank":256,"kind_detail":"4","min_zoom":7.0,"id":8142},"arcs":[[24],[25],[26]]},{"type":"LineString","properties":{"source":"naturalearthdata.com","kind":"region","name":"North East - Central Singapore","sort_rank":256,"kind_detail":"4","min_zoom":7.0,"id":8143},"arcs":[27]},{"type":"MultiLineString","properties":{"source":"naturalearthdata.com","kind":"region","name":"North East - South East","sort_rank":256,"kind_detail":"4","min_zoom":7.0,"id":8144},"arcs":[[28],[29]]},{"type":"LineString","properties":{"source":"naturalearthdata.com","kind":"region","name":"South East - Central Singapore","sort_rank":256,"kind_detail":"4","min_zoom":7.0,"id":8145},"arcs":[30]}]},"roads":{"type":"GeometryCollection","geometries":[{"type":"LineString","properties":{"source":"naturalearthdata.com","kind":"highway","sort_rank":355,"kind_detail":"trunk","min_zoom":6.0,"id":11061},"arcs":[91]},{"type":"LineString","properties":{"source":"naturalearthdata.com","kind":"minor_road","sort_rank":355,"kind_detail":"tertiary","min_zoom":7.0,"id":40892},"arcs":[92]},{"type":"LineString","properties":{"source":"naturalearthdata.com","kind":"minor_road","sort_rank":355,"kind_detail":"tertiary","min_zoom":7.0,"id":40903},"arcs":[93]},{"type":"LineString","properties":{"source":"naturalearthdata.com","kind":"minor_road","sort_rank":355,"kind_detail":"tertiary","min_zoom":7.0,"id":40905},"arcs":[94]},{"type":"LineString","properties":{"source":"naturalearthdata.com","kind":"minor_road","sort_rank":355,"kind_detail":"tertiary","min_zoom":7.0,"id":40913},"arcs":[95]},{"type":"LineString","properties":{"source":"naturalearthdata.com","kind":"highway","kind_detail":"motorway","sort_rank":383,"landuse_kind":"urban_area","min_zoom":3.0,"id":40919},"arcs":[96]},{"type":"LineString","properties":{"source":"naturalearthdata.com","kind":"highway","kind_detail":"motorway","sort_rank":383,"landuse_kind":"urban_area","min_zoom":3.0,"id":40919},"arcs":[97]},{"type":"MultiLineString","properties":{"source":"naturalearthdata.com","kind":"highway","sort_rank":383,"kind_detail":"motorway","min_zoom":3.0,"id":40919},"arcs":[[98],[99]]},{"type":"LineString","properties":{"source":"naturalearthdata.com","kind":"minor_road","kind_detail":"tertiary","sort_rank":355,"landuse_kind":"urban_area","min_zoom":7.0,"id":40920},"arcs":[100]},{"type":"MultiLineString","properties":{"source":"naturalearthdata.com","kind":"minor_road","sort_rank":355,"kind_detail":"tertiary","min_zoom":7.0,"id":40920},"arcs":[[101],[102]]},{"type":"LineString","properties":{"source":"naturalearthdata.com","kind":"minor_road","sort_rank":355,"kind_detail":"tertiary","min_zoom":5.0,"id":40921},"arcs":[103]},{"type":"LineString","properties":{"source":"naturalearthdata.com","kind":"minor_road","sort_rank":355,"kind_detail":"tertiary","min_zoom":7.0,"id":40942},"arcs":[104]},{"type":"LineString","properties":{"source":"naturalearthdata.com","kind":"minor_road","sort_rank":355,"kind_detail":"tertiary","min_zoom":7.0,"id":40946},"arcs":[105]},{"type":"LineString","properties":{"source":"naturalearthdata.com","kind":"minor_road","sort_rank":355,"kind_detail":"tertiary","min_zoom":7.0,"id":40947},"arcs":[106]},{"type":"LineString","properties":{"source":"naturalearthdata.com","kind":"minor_road","sort_rank":355,"kind_detail":"tertiary","min_zoom":5.0,"id":40951},"arcs":[107]},{"type":"LineString","properties":{"source":"naturalearthdata.com","kind":"minor_road","sort_rank":355,"kind_detail":"tertiary","min_zoom":5.0,"id":40952},"arcs":[108]},{"type":"LineString","properties":{"source":"naturalearthdata.com","kind":"minor_road","sort_rank":355,"kind_detail":"tertiary","min_zoom":7.0,"id":40955},"arcs":[109]},{"type":"LineString","properties":{"source":"naturalearthdata.com","kind":"minor_road","sort_rank":355,"kind_detail":"tertiary","min_zoom":5.0,"id":40956},"arcs":[110]},{"type":"LineString","properties":{"source":"naturalearthdata.com","kind":"highway","sort_rank":383,"kind_detail":"motorway","min_zoom":3.0,"id":40962},"arcs":[111]},{"type":"LineString","properties":{"source":"naturalearthdata.com","kind":"minor_road","sort_rank":355,"kind_detail":"tertiary","min_zoom":5.0,"id":40964},"arcs":[112]},{"type":"LineString","properties":{"source":"naturalearthdata.com","kind":"minor_road","sort_rank":355,"kind_detail":"tertiary","min_zoom":5.0,"id":40965},"arcs":[113]},{"type":"LineString","properties":{"source":"naturalearthdata.com","kind":"major_road","kind_detail":"secondary","sort_rank":379,"landuse_kind":"nature_reserve","min_zoom":3.0,"id":41008},"arcs":[114]},{"type":"MultiLineString","properties":{"source":"naturalearthdata.com","kind":"major_road","sort_rank":379,"kind_detail":"secondary","min_zoom":3.0,"id":41008},"arcs":[[115],[116]]},{"type":"LineString","properties":{"source":"naturalearthdata.com","kind":"highway","kind_detail":"motorway","sort_rank":383,"landuse_kind":"urban_area","min_zoom":4.0,"id":41020},"arcs":[117]},{"type":"LineString","properties":{"source":"naturalearthdata.com","kind":"highway","sort_rank":383,"kind_detail":"motorway","min_zoom":4.0,"id":41020},"arcs":[118]},{"type":"MultiLineString","properties":{"source":"naturalearthdata.com","kind":"minor_road","kind_detail":"tertiary","sort_rank":355,"landuse_kind":"urban_area","min_zoom":7.0,"id":41021},"arcs":[[119],[120]]},{"type":"MultiLineString","properties":{"source":"naturalearthdata.com","kind":"minor_road","sort_rank":355,"kind_detail":"tertiary","min_zoom":7.0,"id":41021},"arcs":[[121],[122]]},{"type":"LineString","properties":{"source":"naturalearthdata.com","kind":"highway","kind_detail":"motorway","sort_rank":383,"landuse_kind":"urban_area","min_zoom":3.0,"id":41042},"arcs":[123]},{"type":"LineString","properties":{"source":"naturalearthdata.com","kind":"highway","kind_detail":"motorway","sort_rank":383,"landuse_kind":"urban_area","min_zoom":3.0,"id":41042},"arcs":[124]},{"type":"LineString","properties":{"source":"naturalearthdata.com","kind":"highway","sort_rank":383,"kind_detail":"motorway","min_zoom":3.0,"id":41042},"arcs":[125]},{"type":"LineString","properties":{"source":"naturalearthdata.com","kind":"minor_road","kind_detail":"tertiary","sort_rank":355,"landuse_kind":"urban_area","min_zoom":5.0,"id":41054},"arcs":[126]},{"type":"LineString","properties":{"source":"naturalearthdata.com","kind":"minor_road","sort_rank":355,"kind_detail":"tertiary","min_zoom":7.0,"id":41061},"arcs":[127]},{"type":"LineString","properties":{"source":"naturalearthdata.com","kind":"minor_road","sort_rank":355,"kind_detail":"tertiary","min_zoom":5.0,"id":41066},"arcs":[128]},{"type":"LineString","properties":{"source":"naturalearthdata.com","kind":"highway","kind_detail":"motorway","sort_rank":383,"landuse_kind":"urban_area","min_zoom":3.0,"id":41070},"arcs":[129]},{"type":"LineString","properties":{"source":"naturalearthdata.com","kind":"highway","sort_rank":383,"kind_detail":"motorway","min_zoom":3.0,"id":41070},"arcs":[130]},{"type":"LineString","properties":{"source":"naturalearthdata.com","kind":"highway","sort_rank":383,"kind_detail":"motorway","min_zoom":6.0,"id":41071},"arcs":[131]},{"type":"LineString","properties":{"source":"naturalearthdata.com","kind":"minor_road","sort_rank":355,"kind_detail":"tertiary","min_zoom":7.0,"id":41075},"arcs":[132]},{"type":"LineString","properties":{"source":"naturalearthdata.com","kind":"highway","sort_rank":383,"kind_detail":"motorway","min_zoom":3.0,"id":41076},"arcs":[133]},{"type":"LineString","properties":{"source":"naturalearthdata.com","kind":"minor_road","sort_rank":355,"kind_detail":"tertiary","min_zoom":5.0,"id":41090},"arcs":[134]},{"type":"LineString","properties":{"source":"naturalearthdata.com","kind":"minor_road","kind_detail":"tertiary","sort_rank":355,"landuse_kind":"urban_area","min_zoom":5.0,"id":41093},"arcs":[135]},{"type":"LineString","properties":{"source":"naturalearthdata.com","kind":"minor_road","sort_rank":355,"kind_detail":"tertiary","min_zoom":5.0,"id":41093},"arcs":[136]},{"type":"LineString","properties":{"source":"naturalearthdata.com","kind":"major_road","sort_rank":379,"kind_detail":"secondary","min_zoom":3.0,"id":41095},"arcs":[137]},{"type":"LineString","properties":{"source":"naturalearthdata.com","kind":"highway","sort_rank":383,"kind_detail":"motorway","min_zoom":3.0,"id":41158},"arcs":[138]},{"type":"LineString","properties":{"source":"naturalearthdata.com","kind":"major_road","kind_detail":"secondary","sort_rank":379,"landuse_kind":"urban_area","min_zoom":3.0,"id":41176},"arcs":[139]},{"type":"MultiLineString","properties":{"source":"naturalearthdata.com","kind":"major_road","sort_rank":379,"kind_detail":"secondary","min_zoom":3.0,"id":41176},"arcs":[[140],[141]]},{"type":"LineString","properties":{"source":"naturalearthdata.com","kind":"highway","sort_rank":383,"kind_detail":"motorway","min_zoom":5.0,"id":41177},"arcs":[142]},{"type":"MultiLineString","properties":{"source":"naturalearthdata.com","kind":"highway","kind_detail":"motorway","sort_rank":383,"landuse_kind":"urban_area","min_zoom":3.0,"id":41216},"arcs":[[143],[144],[145]]},{"type":"LineString","properties":{"source":"naturalearthdata.com","kind":"highway","kind_detail":"motorway","sort_rank":383,"landuse_kind":"urban_area","min_zoom":3.0,"id":41216},"arcs":[146]},{"type":"MultiLineString","properties":{"source":"naturalearthdata.com","kind":"highway","sort_rank":383,"kind_detail":"motorway","min_zoom":3.0,"id":41216},"arcs":[[147],[148],[149],[150]]},{"type":"MultiLineString","properties":{"source":"naturalearthdata.com","kind":"minor_road","kind_detail":"tertiary","sort_rank":355,"landuse_kind":"urban_area","min_zoom":5.0,"id":41221},"arcs":[[151],[152]]},{"type":"MultiLineString","properties":{"source":"naturalearthdata.com","kind":"minor_road","sort_rank":355,"kind_detail":"tertiary","min_zoom":5.0,"id":41221},"arcs":[[153],[154]]},{"type":"LineString","properties":{"source":"naturalearthdata.com","kind":"minor_road","kind_detail":"tertiary","sort_rank":355,"landuse_kind":"urban_area","min_zoom":5.0,"id":41228},"arcs":[155]},{"type":"LineString","properties":{"source":"naturalearthdata.com","kind":"minor_road","sort_rank":355,"kind_detail":"tertiary","min_zoom":5.0,"id":41228},"arcs":[156]},{"type":"LineString","properties":{"source":"naturalearthdata.com","kind":"minor_road","sort_rank":355,"kind_detail":"tertiary","min_zoom":5.0,"id":41232},"arcs":[157]},{"type":"LineString","properties":{"source":"naturalearthdata.com","kind":"minor_road","sort_rank":355,"kind_detail":"tertiary","min_zoom":5.0,"id":41342},"arcs":[158]},{"type":"LineString","properties":{"source":"naturalearthdata.com","kind":"minor_road","sort_rank":355,"kind_detail":"tertiary","min_zoom":7.0,"id":41406},"arcs":[159]},{"type":"LineString","properties":{"source":"naturalearthdata.com","kind":"minor_road","kind_detail":"tertiary","sort_rank":355,"landuse_kind":"urban_area","min_zoom":5.0,"id":41420},"arcs":[160]},{"type":"MultiLineString","properties":{"source":"naturalearthdata.com","kind":"minor_road","sort_rank":355,"kind_detail":"tertiary","min_zoom":5.0,"id":41420},"arcs":[[161],[162]]},{"type":"LineString","properties":{"source":"naturalearthdata.com","kind":"minor_road","sort_rank":355,"kind_detail":"tertiary","min_zoom":5.0,"id":41472},"arcs":[163]},{"type":"LineString","properties":{"source":"naturalearthdata.com","kind":"minor_road","sort_rank":355,"kind_detail":"tertiary","min_zoom":7.0,"id":41648},"arcs":[164]},{"type":"MultiLineString","properties":{"source":"naturalearthdata.com","kind":"minor_road","sort_rank":355,"kind_detail":"tertiary","min_zoom":7.0,"id":41649},"arcs":[[165],[166]]}]},"earth":{"type":"GeometryCollection","geometries":[{"type":"MultiPolygon","properties":{"sort_rank":10,"source":"naturalearthdata.com","min_zoom":0.0,"kind":"earth","area":141886238394},"arcs":[[[167]],[[168]],[[169]],[[170]],[[171]],[[172]],[[173]],[[174]],[[175]],[[176]],[[177]],[[178]],[[179]],[[180]],[[181]],[[182]],[[183]],[[184]],[[185]],[[186]],[[187]],[[188]],[[189]]]}]},"landuse":{"type":"GeometryCollection","geometries":[{"type":"Polygon","properties":{"source":"openstreetmap.org","kind":"nature_reserve","area":1260099968,"tier":2,"id":197886608,"min_zoom":4.0,"sort_rank":23},"arcs":[[190]]},{"type":"MultiPolygon","properties":{"source":"naturalearthdata.com","kind":"urban_area","name":"","area":2145683979,"sort_rank":11,"min_zoom":4.0},"arcs":[[[191]],[[192]],[[193]],[[194]],[[195]],[[196]],[[197]],[[198]],[[199]],[[200]]]},{"type":"Polygon","properties":{"source":"openstreetmap.org","kind":"nature_reserve","area":164554000,"tier":2,"id":197886609,"min_zoom":6.0,"sort_rank":23},"arcs":[[201]]}]}},"type":"Topology","transform":{"translate":[101.25,-0.0],"scale":[0.0006866455,0.0006863699]},"arcs":[[[4096,2039],[-15,24],[-38,5],[-42,-11],[-34,-2],[-32,-3],[-25,9],[-21,8],[-50,25],[-67,35],[-43,-2],[-32,-12],[-25,-13],[-38,-5],[-39,3],[-35,-8],[-27,-27],[-27,-44],[-117,-163],[33,-101]],[[1804,3049]],[[1075,3484]],[[686,3782]],[[2837,1516],[37,-59],[37,-81],[22,-95],[-15,-81],[22,-74],[51,-95],[74,-103],[66,-51],[95,-59],[125,-15]],[[1965,3528],[-31,-21],[-34,-14],[-11,-10],[-30,-38],[-7,-12],[-3,-10],[1,-5],[4,-15],[0,-6],[-2,-11],[-28,-76],[-3,-16],[-1,-6],[1,-5],[2,-12],[1,-6],[-1,-11],[-2,-6],[-3,-4],[-24,-21],[-2,-6],[1,-5],[5,-9],[3,-9],[2,-4],[4,-2],[10,-2],[23,-10],[8,-5],[5,-2],[11,-1],[4,-2],[4,-3],[3,-8],[1,-13],[-2,-29],[-4,-12],[-5,-7],[-6,0]],[[1859,3094],[-16,2]],[[1843,3096],[-14,-7],[-25,-39],[0,-1]],[[2111,4096],[0,-4],[-82,-215],[-13,-40],[-1,-7],[1,-8],[7,-11],[4,-10],[0,-6],[-1,-5],[-10,-9],[-5,-7],[-4,-9],[-9,-20],[-4,-13],[-2,-16],[1,-8],[2,-7],[2,-7],[3,-11],[-2,-8],[-8,-18],[-1,-7],[3,-17],[4,-13],[1,-5],[-2,-8],[-3,-7],[-18,-21],[-5,-13],[-4,-38]],[[1482,3589],[-60,12],[-37,16],[-25,13],[-5,1]],[[1355,3631],[-3,0],[-5,-4],[-25,-25],[-5,-3],[-7,-4],[-61,-16],[-9,-1]],[[1965,3528],[-208,49],[-22,12],[-84,36],[-44,1]],[[1607,3626],[-15,-3],[-99,-33],[-11,-1]],[[1240,3578],[-28,8]],[[1212,3586],[-7,-1],[-4,-1],[-1,-3],[-1,-4],[0,-15],[-2,-3],[-2,-2],[-5,-3],[-4,-4],[-5,-14],[-4,-2]],[[1177,3534],[-5,1],[-4,3],[-2,4],[-6,10]],[[1160,3552],[-25,-30],[-12,-11],[-47,-27],[-1,0]],[[2229,4096],[29,-12],[20,-12],[207,-249],[52,-42],[230,-94],[7,-2]],[[3449,3564],[6,1],[-2,6],[0,6],[0,3],[1,4],[2,3],[16,21],[2,5],[1,5],[0,11],[0,6],[-2,9],[-3,8],[-5,7],[-7,9],[-4,3],[-5,1],[-13,4],[-4,2],[-3,3],[-2,4],[-1,2],[0,3],[1,4],[3,9],[3,5],[9,11],[2,2],[1,3],[-1,3],[-7,19],[-1,6],[2,3],[3,4],[6,5],[1,2],[4,7],[2,4],[3,9],[0,5],[0,4],[-3,5],[-3,6],[-4,5],[-3,3],[-4,3],[-12,6],[-2,2],[-4,4],[1,6],[5,8],[33,16],[2,3],[13,20],[5,10]],[[3060,3780],[19,-1],[18,-9],[19,-13],[82,-32],[7,-6],[13,-13],[7,-11],[4,-3],[208,-124],[12,-4]],[[2774,3685],[6,1],[217,81],[63,13]],[[750,4096],[8,-48],[3,-59],[-35,-77],[-12,-21],[-3,-6],[-2,-26],[-2,-11],[-9,-12],[-8,-18],[-4,-36]],[[3723,1930],[2,-19],[-1,-12],[4,-14],[14,-15],[13,-8],[17,-6],[10,-3]],[[3659,2085],[-2,-14],[-3,-16],[-1,-13],[0,-16],[8,-11],[10,-10],[10,-9],[15,-11],[1,-9],[-6,-7],[-6,-6],[3,-6],[11,-4],[12,-10],[12,-13]],[[3805,2064],[17,2],[10,12]],[[3787,2065],[18,-1]],[[3723,1930],[12,10],[13,13],[0,15],[-6,10],[7,12],[15,8],[12,10],[-2,11],[-6,11],[-9,11],[4,12],[11,11],[13,1]],[[3873,2058],[-7,-9],[-5,-14],[-3,-15]],[[3911,1973],[10,0],[5,16],[0,11],[13,6],[11,9],[5,10]],[[3858,2020],[-2,-17],[12,-10],[16,-5],[19,-9],[8,-6]],[[3858,2020],[-12,-5],[-10,-5],[-10,-10],[-6,-14],[0,-14],[3,-15],[8,-14],[11,-16],[10,-17],[5,-8]],[[230,4096],[32,-28],[72,-110],[34,-40],[58,-41],[32,-13],[49,-8],[29,-14],[81,-14],[25,-18],[15,-16],[18,-11],[69,-6],[20,-9],[12,-15],[30,-84],[21,-23],[14,-12],[10,-5],[24,-17],[8,-41],[3,-46],[10,-36],[18,21],[46,2],[26,17],[43,-25],[23,-9],[24,-6],[-3,-26],[18,-22],[29,-17],[31,-6],[16,-7],[110,-122],[40,-32],[49,-28],[234,-97],[204,-83],[56,-32],[26,-19],[18,-18],[1,-7],[3,-6],[-1,-5],[-13,-2],[10,-19],[17,-18],[119,-95],[24,-28],[28,-62],[19,-29],[33,-18],[24,-1],[72,11],[24,9],[45,-21],[41,-26],[35,-30],[28,-33],[24,-39],[16,-15],[25,-6],[33,-3],[32,-9],[60,-29],[246,-153],[173,-65],[62,-40],[40,-46],[27,-56],[48,-159],[12,-29],[21,-28],[51,-44],[18,-28],[20,51],[26,38],[4,16],[-1,12],[-7,22],[-2,16],[6,8],[11,-11],[10,-15],[3,-7],[52,-9],[43,35],[75,94],[24,12],[22,3],[58,-5],[31,7],[59,30],[37,3],[126,-65],[70,-17],[51,42],[4,22],[-3,23],[-7,20],[-3,19],[8,41],[-1,20],[-55,88],[-15,39],[8,18],[33,-23],[35,-51],[46,-96],[9,-27],[5,-9],[11,5],[2,2],[0,-35],[-4,-3],[4,-30],[0,-450],[-31,37],[-15,10],[-17,-13],[-12,-50],[-22,-17],[-12,1],[-30,11],[-16,-1],[-17,-8],[-2,-6],[5,-9],[7,-31],[6,-15],[1,-12],[-10,-10],[-16,2],[-21,24],[-14,5],[-17,-13],[6,-28],[17,-29],[47,-55],[8,-6],[15,-2],[31,3],[12,-1],[52,-29],[26,-8],[19,5],[0,-31],[-2,2],[-3,6],[-4,2],[-8,-11],[-4,-49],[4,-5],[6,0],[4,-2],[7,-10],[0,-1341],[-373,0],[7,12],[4,15],[-8,7],[-12,16],[-59,299],[-24,55],[-19,24],[-28,26],[-30,21],[-37,13],[-13,8],[-16,7],[-16,1],[-13,-9],[-11,-14],[-16,-28],[-28,96],[-67,84],[-88,70],[-87,49],[-46,20],[-40,9],[-38,-6],[-41,-27],[-40,-22],[-83,-14],[-32,-28],[-29,-63],[-22,-27],[-33,-11],[-31,-3],[-34,-9],[-34,-13],[-26,-15],[-73,-70],[-22,-9],[-29,-8],[-102,-66],[-25,-9],[-98,-11],[-80,-36],[-32,-4],[-67,8],[-26,-9],[-14,-10],[-34,-14],[-17,-11],[-7,-9],[-13,-20],[-10,-12],[-50,-22],[-47,15],[-41,35],[-32,34],[-13,19],[-9,7],[-12,3],[-33,1],[-14,4],[-14,10],[10,4],[33,-2],[38,-7],[24,-10],[50,-53],[26,-19],[40,-8],[14,7],[30,53],[11,10],[11,7],[27,12],[102,22],[24,13],[20,17],[168,84],[55,12],[32,20],[58,43],[111,49],[54,31],[26,40],[-12,67],[-40,62],[-150,172],[-52,46],[-59,27],[-140,7],[-166,28],[-28,-3],[-46,-14],[-31,-4],[-63,3],[-29,7],[-33,11],[-66,35],[-57,44],[-151,164],[-118,95],[-46,61],[-21,61],[-1,56],[11,113],[-5,26],[-15,25],[-21,20],[-23,8],[-14,17],[-1,37],[10,56],[-15,67],[-37,42],[-140,75],[-354,301],[-43,25],[-55,14],[-55,-3],[-120,-21],[-35,2],[-55,21],[-51,12],[-98,44],[-43,40],[-29,54],[-38,126],[-36,82],[-5,33],[5,62],[-2,30],[-12,33],[-25,32],[-73,60],[0,1054],[230,0]],[[532,3084],[-71,-71],[-23,-14],[-29,-3],[-51,18],[-26,5],[-54,-11],[-33,-29],[-18,-45],[-18,-121],[5,-31],[37,-53],[12,-33],[15,-66],[28,-58],[45,-42],[58,-27],[68,-13],[29,1],[41,7],[35,11],[15,17],[9,16],[71,49],[21,30],[5,28],[-6,66],[11,35],[46,55],[11,33],[-7,54],[-18,38],[-54,69],[-20,30],[-37,44],[-48,28],[-49,-17]],[[1550,2071],[23,-12],[62,-78],[90,-88],[65,-42],[44,10],[3,26],[-23,100],[0,114],[-7,69],[-41,38],[-122,33],[-14,6],[-30,18],[-15,6],[-15,1],[-44,-1],[-88,17],[-91,8],[-33,8],[-23,12],[-24,16],[-69,33],[-27,6],[-67,-17],[-5,-44],[32,-55],[44,-54],[56,-52],[57,-28],[220,-33],[28,-14],[14,-3]],[[3158,1914],[6,-6],[3,0],[13,11],[4,13],[-15,25],[-15,-11],[4,-32]],[[1516,2046],[-55,14],[-32,-1],[-20,-6],[-10,-16],[-3,-31],[9,-60],[-3,-15],[-13,-27],[-4,-13],[5,-25],[12,-33],[15,-29],[28,-24],[4,-26],[-3,-53],[-13,-63],[-2,-36],[10,-25],[17,-23],[23,-43],[97,-107],[52,-41],[44,-11],[12,7],[43,38],[14,6],[15,-1],[11,2],[5,13],[-4,32],[-26,83],[-3,36],[3,35],[42,137],[5,36],[-9,34],[-10,13],[-22,23],[-111,80],[-78,87],[-45,33]],[[3716,1843],[36,-1],[18,3],[8,3],[4,5],[8,8],[51,35],[29,11],[36,4],[33,9],[29,24],[25,30],[17,28],[-6,9],[-20,8],[-36,8],[-41,14],[-110,55],[-37,12],[-39,3],[-22,-7],[-40,-19],[-33,-4],[-32,4],[-14,-2],[-19,-12],[-16,-17],[-8,-15],[-6,-28],[-43,-62],[-7,-23],[11,-20],[26,-6],[63,2],[31,-4],[36,-8],[31,-14],[12,-20],[8,-9],[17,-4]],[[3403,614],[-18,24],[-44,12],[10,-16],[16,-23],[38,-18],[-2,21]],[[3425,762],[-5,11],[-15,13],[-10,15],[-2,11],[-14,-6],[1,-11],[30,-34],[15,-48],[10,10],[15,0],[3,15],[-11,6],[-17,18]],[[2979,800],[6,38],[-3,43],[-6,30],[-12,31],[-17,28],[-18,21],[-21,20],[-24,15],[-27,6],[-47,-19],[-30,-44],[-32,-133],[-1,-26],[6,-24],[19,-23],[25,-15],[19,2],[17,8],[125,26],[21,16]],[[2629,960],[-17,3],[-10,-5],[1,-7],[5,-9],[4,-9],[3,-18],[18,-46],[10,-16],[10,-12],[8,-4],[6,7],[5,19],[1,11],[-2,13],[-6,23],[-9,17],[-12,19],[-15,14]],[[2598,1027],[14,23],[8,54],[13,28],[-5,1],[-4,10],[-4,18],[-13,36],[-5,10],[-22,25],[-164,120],[-111,52],[-73,56],[-27,13],[-31,7],[-35,2],[-20,-5],[-39,-21],[-21,-5],[-27,2],[-34,6],[-24,14],[5,24],[12,24],[-2,20],[-11,16],[-75,83],[-42,21],[-57,-10],[-31,-39],[4,-57],[46,-138],[-2,-28],[-16,-20],[-65,-15],[-29,-22],[-22,-28],[-5,-32],[75,-60],[14,-7],[71,-52],[61,-16],[58,7],[122,29],[30,-2],[62,-15],[32,-3],[124,10],[62,-12],[52,-29],[76,-70],[25,-31],[5,-3],[6,-7],[15,3],[15,8],[9,5]],[[2004,1471],[31,-5],[34,12],[32,17],[28,8],[90,6],[25,-6],[15,-14],[15,-20],[19,-19],[26,-8],[24,-3],[50,-18],[20,-9],[65,-60],[0,-5],[196,-122],[60,-9],[59,35],[10,34],[-17,26],[-53,41],[-71,110],[-59,60],[-102,68],[-118,61],[-123,44],[-68,7],[-58,-20],[-19,-24],[-25,-62],[-21,-29],[-49,-50],[-18,-28],[2,-18]],[[3569,882],[-1,5],[3,9],[5,12],[-7,6],[-14,6],[-14,8],[-9,1],[-5,3],[-2,-7],[2,-6],[-1,-12],[1,-12],[7,-5],[8,2],[4,-6],[5,-1],[18,-3]],[[3274,914],[12,20],[17,39],[5,16],[1,16],[-7,13],[-16,5],[-10,-10],[-20,-41],[-10,-9],[-7,-11],[-7,-23],[4,-21],[25,-5],[13,11]],[[3248,998],[43,84],[-4,19],[-7,11],[-19,20],[-27,45],[-16,18],[-47,17],[-14,21],[-11,27],[-14,22],[-22,13],[-23,-4],[-18,-20],[-10,-48],[-14,-32],[-3,-18],[3,-31],[7,-30],[56,-80],[14,-14],[14,-30],[18,-30],[27,-15],[37,16],[30,39]],[[2725,1136],[-12,19],[-9,0],[-9,-4],[-9,-6],[-14,-15],[-7,-10],[-4,-11],[-2,-12],[2,-11],[5,-16],[8,-14],[9,-4],[18,19],[17,33],[7,32]],[[3196,1273],[20,-6],[16,0],[15,13],[0,22],[-10,22],[-15,15],[-13,2],[-68,-13],[5,-10],[17,-12],[9,-9],[7,-14],[17,-10]],[[3957,1399],[-8,21],[-14,19],[-14,12],[-49,15],[-23,12],[-19,25],[-9,-29],[0,-12],[-25,16],[-17,-3],[-9,-14],[2,-19],[9,-18],[15,-13],[80,-44],[15,-5],[16,-1],[20,2],[18,6],[11,11],[1,19]],[[3720,1430],[-7,48],[2,7],[0,18],[-6,21],[-6,4],[-6,-3],[-14,7],[-7,0],[0,-9],[-21,-20],[2,-12],[-4,-15],[5,-7],[8,7],[8,3],[4,-9],[3,-26],[5,-13],[10,-12],[13,-6],[7,-5],[5,-6],[4,8],[-1,9],[-4,11]],[[3196,1466],[-2,10],[-4,6],[-9,10],[-3,6],[-1,8],[0,7],[0,6],[-4,7],[-9,3],[-19,2],[-8,6],[-9,13],[-7,18],[-8,34],[1,18],[5,15],[-3,12],[-19,4],[-15,-3],[-27,-14],[-8,-3],[-12,-12],[-15,-27],[-12,-28],[-1,-17],[38,-62],[25,-22],[33,8],[39,-21],[24,-7],[19,1],[8,6],[3,7],[0,9]],[[2991,1632],[7,24],[0,9],[-5,4],[-6,4],[-5,-7],[0,-3],[-3,-10],[1,-9],[-4,-10],[15,-2]],[[3099,1684],[20,-29],[24,1],[-3,19],[-10,12],[-11,14],[-20,-17]],[[3811,1692],[2,-10],[5,7],[-7,3]],[[3844,1687],[-3,-7],[-7,0],[-6,-11],[14,-4],[6,2],[-4,20]],[[3718,1586],[14,-5],[9,12],[-6,8],[-5,0],[-4,6],[-10,10],[-8,-19],[10,-12]],[[4090,1337],[-4,2],[-6,-1],[-7,-7],[-4,-14],[-8,-3],[-2,-5],[2,-10],[0,-3],[1,0],[12,6],[5,3],[3,11],[4,8],[4,13]],[[3641,1295],[-10,7],[-25,-30],[6,-37],[24,-36],[25,-26],[55,-30],[28,-23],[9,-4],[8,-1],[8,6],[2,28],[-12,40],[-20,37],[-23,16],[-35,40],[-14,6],[-26,7]],[[3891,1126],[16,-4],[13,8],[1,23],[-26,45],[-38,45],[-51,35],[-65,13],[0,-9],[34,-43],[6,-12],[8,-10],[52,-25],[11,-12],[24,-42],[15,-12]],[[3572,1186],[-51,37],[-2,-23],[33,-47],[9,-25],[8,-12],[19,-5],[16,6],[4,19],[-14,27],[-22,23]],[[3351,1148],[-8,9],[-10,-1],[-7,-5],[-3,-8],[-2,-21],[19,-23],[4,21],[6,6],[6,5],[-5,17]],[[3311,1133],[1,30],[-1,14],[-7,15],[-9,13],[-10,10],[-12,9],[-13,8],[-84,32],[-14,8],[7,-27],[21,-15],[52,-18],[21,-15],[48,-64]],[[3523,1051],[11,-12],[1,1],[7,6],[-2,6],[11,7],[-12,14],[-27,11],[-8,-2],[15,-20],[-2,-7],[6,-4]],[[3622,1073],[-34,-9],[-17,0],[-12,2],[-3,-5],[0,-13],[7,-14],[32,-27],[18,0],[12,-6],[4,5],[-10,24],[0,11],[7,9],[9,6],[5,10],[1,9],[-8,0],[-11,-2]],[[2314,424],[12,-19],[41,9],[47,21],[29,18],[-20,14],[-43,-8],[-43,-17],[-23,-18]],[[4096,2991],[-20,27],[-37,92],[-68,84],[-11,30],[4,17],[14,29],[3,13],[-5,18],[-26,31],[-9,16],[-4,17],[0,29],[-6,15],[-10,10],[-32,23],[-13,12],[-107,136],[-11,27],[1,28],[13,34],[-38,82],[-18,22],[-50,40],[-4,13],[3,13],[-2,10],[-23,9],[-34,-17],[-14,-2],[-16,5],[-22,20],[-8,4],[-25,2],[-23,4],[-17,8],[-3,1],[-172,170],[-24,33],[814,0],[0,-1105]],[[3875,3907],[3,3],[-1,7],[2,0],[10,-9],[6,8],[-1,18],[-9,7],[-13,5],[-6,-16],[9,-23]],[[0,3042],[73,-60],[25,-32],[12,-33],[2,-30],[-5,-62],[5,-33],[36,-82],[38,-126],[29,-54],[43,-40],[98,-44],[51,-12],[55,-21],[35,-2],[120,21],[55,3],[55,-14],[43,-25],[354,-301],[140,-75],[37,-42],[15,-67],[-10,-56],[1,-37],[14,-17],[23,-8],[21,-20],[15,-25],[5,-26],[-11,-113],[1,-56],[21,-61],[46,-61],[118,-95],[151,-164],[57,-44],[66,-35],[33,-11],[29,-7],[63,-3],[31,4],[46,14],[28,3],[166,-28],[140,-7],[59,-27],[52,-46],[150,-172],[40,-62],[12,-67],[-26,-40],[-54,-31],[-111,-49],[-58,-43],[-32,-20],[-55,-12],[-168,-84],[-20,-17],[-24,-13],[-102,-22],[-27,-12],[-11,-7],[-11,-10],[-30,-53],[-14,-7],[-40,8],[-26,19],[-50,53],[-24,10],[-38,7],[-33,2],[-10,-4],[14,-10],[14,-4],[33,-1],[12,-3],[9,-7],[13,-19],[32,-34],[41,-35],[47,-15],[50,22],[10,12],[13,20],[7,9],[17,11],[34,14],[14,10],[26,9],[67,-8],[32,4],[80,36],[98,11],[25,9],[102,66],[29,8],[22,9],[73,70],[26,15],[34,13],[34,9],[31,3],[33,11],[22,27],[29,63],[32,28],[83,14],[40,22],[41,27],[38,6],[40,-9],[46,-20],[87,-49],[88,-70],[67,-84],[28,-96],[16,28],[11,14],[13,9],[16,-1],[16,-7],[13,-8],[37,-13],[30,-21],[28,-26],[19,-24],[24,-55],[59,-299],[12,-16],[8,-7],[-4,-15],[-7,-12]],[[230,4096],[32,-28],[72,-110],[34,-40],[58,-41],[32,-13],[49,-8],[29,-14],[81,-14],[25,-18],[15,-16],[18,-11],[69,-6],[20,-9],[12,-15],[30,-84],[21,-23],[14,-12],[10,-5],[24,-17],[8,-41],[3,-46],[10,-36],[18,21],[46,2],[26,17],[43,-25],[23,-9],[24,-6],[-3,-26],[18,-22],[29,-17],[31,-6],[16,-7],[110,-122],[40,-32],[49,-28],[234,-97],[204,-83],[56,-32],[26,-19],[18,-18],[1,-7],[3,-6],[-1,-5],[-13,-2],[10,-19],[17,-18],[119,-95],[24,-28],[28,-62],[19,-29],[33,-18],[24,-1],[72,11],[24,9],[45,-21],[41,-26],[35,-30],[28,-33],[24,-39],[16,-15],[25,-6],[33,-3],[32,-9],[60,-29],[246,-153],[173,-65],[62,-40],[40,-46],[27,-56],[48,-159],[12,-29],[21,-28],[51,-44],[18,-28],[20,51],[26,38],[4,16],[-1,12],[-7,22],[-2,16],[6,8],[11,-11],[10,-15],[3,-7],[52,-9],[43,35],[75,94],[24,12],[22,3],[58,-5],[31,7],[59,30],[37,3],[126,-65],[70,-17],[51,42],[4,22],[-3,23],[-7,20],[-3,19],[8,41],[-1,20],[-55,88],[-15,39],[8,18],[33,-23],[35,-51],[46,-96],[9,-27],[5,-9],[11,5],[2,2]],[[4096,2167],[-4,-3],[4,-30]],[[4096,2991],[-20,27],[-37,92],[-68,84],[-11,30],[4,17],[14,29],[3,13],[-5,18],[-26,31],[-9,16],[-4,17],[0,29],[-6,15],[-10,10],[-32,23],[-13,12],[-107,136],[-11,27],[1,28],[13,34],[-38,82],[-18,22],[-50,40],[-4,13],[3,13],[-2,10],[-23,9],[-34,-17],[-14,-2],[-16,5],[-22,20],[-8,4],[-25,2],[-23,4],[-17,8],[-3,1],[-172,170],[-24,33]],[[3521,1223],[-2,-23],[33,-47],[9,-25],[8,-12],[19,-5],[16,6],[4,19],[-14,27],[-22,23],[-51,37]],[[3286,1023],[-10,-10],[-20,-41],[-10,-9],[-7,-11],[-7,-23],[4,-21],[25,-5],[13,11],[12,20],[17,39],[5,16],[1,16],[-7,13],[-16,5]],[[3222,1339],[-13,2],[-68,-13],[5,-10],[17,-12],[9,-9],[7,-14],[17,-10],[20,-6],[16,0],[15,13],[0,22],[-10,22],[-15,15]],[[2665,910],[-9,17],[-12,19],[-15,14],[-17,3],[-10,-5],[1,-7],[5,-9],[4,-9],[3,-18],[18,-46],[10,-16],[10,-12],[8,-4],[6,7],[5,19],[1,11],[-2,13],[-6,23]],[[2713,1155],[-9,0],[-9,-4],[-9,-6],[-14,-15],[-7,-10],[-4,-11],[-2,-12],[2,-11],[5,-16],[8,-14],[9,-4],[18,19],[17,33],[7,32],[-12,19]],[[2314,424],[12,-19],[41,9],[47,21],[29,18],[-20,14],[-43,-8],[-43,-17],[-23,-18]],[[4096,1684],[-31,37],[-15,10],[-17,-13],[-12,-50],[-22,-17],[-12,1],[-30,11],[-16,-1],[-17,-8],[-2,-6],[5,-9],[7,-31],[6,-15],[1,-12],[-10,-10],[-16,2],[-21,24],[-14,5],[-17,-13],[6,-28],[17,-29],[47,-55],[8,-6],[15,-2],[31,3],[12,-1],[52,-29],[26,-8],[19,5]],[[3921,1451],[-49,15],[-23,12],[-19,25],[-9,-29],[0,-12],[-25,16],[-17,-3],[-9,-14],[2,-19],[9,-18],[15,-13],[80,-44],[15,-5],[16,-1],[20,2],[18,6],[11,11],[1,19],[-8,21],[-14,19],[-14,12]],[[3741,1291],[0,-9],[34,-43],[6,-12],[8,-10],[52,-25],[11,-12],[24,-42],[15,-12],[16,-4],[13,8],[1,23],[-26,45],[-38,45],[-51,35],[-65,13]],[[3716,1242],[-35,40],[-14,6],[-26,7],[-10,7],[-25,-30],[6,-37],[24,-36],[25,-26],[55,-30],[28,-23],[9,-4],[8,-1],[8,6],[2,28],[-12,40],[-20,37],[-23,16]],[[3304,1192],[-9,13],[-10,10],[-12,9],[-13,8],[-84,32],[-14,8],[7,-27],[21,-15],[52,-18],[21,-15],[48,-64],[1,30],[-1,14],[-7,15]],[[3261,1132],[-27,45],[-16,18],[-47,17],[-14,21],[-11,27],[-14,22],[-22,13],[-23,-4],[-18,-20],[-10,-48],[-14,-32],[-3,-18],[3,-31],[7,-30],[56,-80],[14,-14],[14,-30],[18,-30],[27,-15],[37,16],[30,39],[43,84],[-4,19],[-7,11],[-19,20]],[[3194,1476],[-4,6],[-9,10],[-3,6],[-1,8],[0,7],[0,6],[-4,7],[-9,3],[-19,2],[-8,6],[-9,13],[-7,18],[-8,34],[1,18],[5,15],[-3,12],[-19,4],[-15,-3],[-27,-14],[-8,-3],[-12,-12],[-15,-27],[-12,-28],[-1,-17],[38,-62],[25,-22],[33,8],[39,-21],[24,-7],[19,1],[8,6],[3,7],[0,9],[-2,10]],[[2976,911],[-12,31],[-17,28],[-18,21],[-21,20],[-24,15],[-27,6],[-47,-19],[-30,-44],[-32,-133],[-1,-26],[6,-24],[19,-23],[25,-15],[19,2],[17,8],[125,26],[21,16],[6,38],[-3,43],[-6,30]],[[2733,1352],[-71,110],[-59,60],[-102,68],[-118,61],[-123,44],[-68,7],[-58,-20],[-19,-24],[-25,-62],[-21,-29],[-49,-50],[-18,-28],[2,-18],[31,-5],[34,12],[32,17],[28,8],[90,6],[25,-6],[15,-14],[15,-20],[19,-19],[26,-8],[24,-3],[50,-18],[20,-9],[65,-60],[0,-5],[196,-122],[60,-9],[59,35],[10,34],[-17,26],[-53,41]],[[2620,1161],[-13,36],[-5,10],[-22,25],[-164,120],[-111,52],[-73,56],[-27,13],[-31,7],[-35,2],[-20,-5],[-39,-21],[-21,-5],[-27,2],[-34,6],[-24,14],[5,24],[12,24],[-2,20],[-11,16],[-75,83],[-42,21],[-57,-10],[-31,-39],[4,-57],[46,-138],[-2,-28],[-16,-20],[-65,-15],[-29,-22],[-22,-28],[-5,-32],[75,-60],[14,-7],[71,-52],[61,-16],[58,7],[122,29],[30,-2],[62,-15],[32,-3],[124,10],[62,-12],[52,-29],[76,-70],[25,-31],[5,-3],[6,-7],[15,3],[15,8],[9,5],[14,23],[8,54],[13,28],[-5,1],[-4,10],[-4,18]],[[1814,1987],[0,114],[-7,69],[-41,38],[-122,33],[-14,6],[-30,18],[-15,6],[-15,1],[-44,-1],[-88,17],[-91,8],[-33,8],[-23,12],[-24,16],[-69,33],[-27,6],[-67,-17],[-5,-44],[32,-55],[44,-54],[56,-52],[57,-28],[220,-33],[28,-14],[14,-3],[23,-12],[62,-78],[90,-88],[65,-42],[44,10],[3,26],[-23,100]],[[1782,1810],[-10,13],[-22,23],[-111,80],[-78,87],[-45,33],[-55,14],[-32,-1],[-20,-6],[-10,-16],[-3,-31],[9,-60],[-3,-15],[-13,-27],[-4,-13],[5,-25],[12,-33],[15,-29],[28,-24],[4,-26],[-3,-53],[-13,-63],[-2,-36],[10,-25],[17,-23],[23,-43],[97,-107],[52,-41],[44,-11],[12,7],[43,38],[14,6],[15,-1],[11,2],[5,13],[-4,32],[-26,83],[-3,36],[3,35],[42,137],[5,36],[-9,34]],[[686,2999],[-20,30],[-37,44],[-48,28],[-49,-17],[-71,-71],[-23,-14],[-29,-3],[-51,18],[-26,5],[-54,-11],[-33,-29],[-18,-45],[-18,-121],[5,-31],[37,-53],[12,-33],[15,-66],[28,-58],[45,-42],[58,-27],[68,-13],[29,1],[41,7],[35,11],[15,17],[9,16],[71,49],[21,30],[5,28],[-6,66],[11,35],[46,55],[11,33],[-7,54],[-18,38],[-54,69]],[[3948,2027],[-41,14],[-110,55],[-37,12],[-39,3],[-22,-7],[-40,-19],[-33,-4],[-32,4],[-14,-2],[-19,-12],[-16,-17],[-8,-15],[-6,-28],[-43,-62],[-7,-23],[11,-20],[26,-6],[63,2],[31,-4],[36,-8],[31,-14],[12,-20],[8,-9],[17,-4],[36,-1],[18,3],[8,3],[4,5],[8,8],[51,35],[29,11],[36,4],[33,9],[29,24],[25,30],[17,28],[-6,9],[-20,8],[-36,8]],[[2489,2816],[50,0],[89,104]],[[1683,4096],[-14,-18],[-12,-6]],[[1531,4042],[23,54]],[[1657,4072],[-66,-18],[-24,-12],[-36,0]],[[1531,4042],[-48,-30],[-42,-24]],[[979,3970],[5,0],[18,-12]],[[804,4096],[12,-13]],[[816,4083],[72,-77],[42,-36],[49,0]],[[1002,3958]],[[1117,3947],[-6,-1],[-36,6],[-19,0],[-26,3]],[[1030,3955],[-28,3]],[[1441,3988],[-36,0],[-24,-6],[-156,-12],[-60,-12],[-48,-11]],[[1002,3958],[6,-24]],[[1657,4072],[66,-126],[60,-18],[30,-6],[30,-30],[30,-55],[18,-36],[0,-30]],[[1008,3934],[-54,-73],[-36,-24],[-12,-48],[-18,-18],[-48,-18]],[[840,3753],[-18,30],[-18,36],[-30,30],[-18,31],[-24,18],[-12,-6],[-12,-37],[-42,-30],[-24,0],[-18,12],[-78,18],[-102,37],[-60,30],[-36,30],[-30,36],[-6,48],[30,18],[30,36],[9,6]],[[2432,4096],[0,-6],[-24,-72],[-42,-78],[-30,-66],[-18,-13],[-18,-24],[-48,-54],[-12,-18],[0,-54]],[[1891,3771],[48,0],[49,0],[42,0],[30,-30],[72,-24],[48,0],[36,6],[24,-12]],[[840,3753],[-30,-24],[-6,-42],[-6,-12]],[[2240,3711],[24,-12],[24,-48]],[[1008,3934],[18,-24],[79,-36],[30,-43],[30,-18],[18,-36],[36,-18],[42,0],[0,-36],[6,-24],[30,-24],[36,-48],[12,-12]],[[1345,3615],[84,-6]],[[1429,3609],[36,18],[54,0],[60,-18],[30,6],[12,36],[36,6],[78,48],[66,48],[24,18],[24,0],[42,0]],[[3586,3741],[53,-48],[60,-60],[3,-5]],[[3197,4096],[16,-18],[42,-12],[12,-12],[12,-54],[36,-18],[114,-102],[12,-31],[24,-30],[42,0],[12,-12],[24,-30],[42,-36],[1,0]],[[3702,3628],[33,-61],[24,-42],[12,-48],[-6,-48],[6,-54],[12,-18],[13,-72]],[[1465,3213],[-18,18],[-36,72],[-6,36],[0,7]],[[1405,3346],[0,47],[-30,60],[-24,66],[-6,54],[-6,30],[6,12]],[[1295,3327],[2,-6],[24,-48],[16,-16]],[[1399,3235],[24,-10],[42,-12]],[[846,3657],[42,-48],[24,-72],[6,-6],[30,6],[60,0],[85,6],[12,18],[0,30],[18,6],[60,-12],[6,-18],[36,-48],[-6,-30],[18,-60],[36,-36],[22,-66]],[[1337,3257],[8,-8],[24,0],[30,-14]],[[1897,3008],[-12,12],[-1,2]],[[1566,3159],[-101,54]],[[1884,3022],[-53,58],[-12,0],[-48,12],[-30,6],[-18,24],[-36,0],[-42,6],[-54,24],[-24,6],[-1,1]],[[1921,2978],[-24,30]],[[3796,3285],[-37,0],[-30,-12],[-12,0],[-48,-12],[-36,12],[-30,36],[-24,-6],[-12,36],[-36,6],[-66,-30],[-66,-54],[-36,-30],[-54,-24],[-12,-31],[-72,-66],[-42,0],[-24,-18],[-42,-54],[-24,-18],[-42,-42],[-24,-24],[-30,-6]],[[2288,3651],[12,-30],[12,-12],[48,0],[54,-18],[66,-6],[36,-12],[36,-30],[18,-66],[12,-60],[12,-24],[-6,-48],[6,-36],[18,-54],[0,-30],[-6,-79],[-6,-66],[12,-72],[12,-90]],[[1921,2978],[51,0]],[[1972,2978],[16,0],[48,-24],[60,-42],[30,12],[36,-6],[24,18],[54,-12],[78,-36],[30,-24],[18,-6],[60,-6],[24,-24],[42,-12]],[[2492,2816],[48,0],[24,18],[30,36],[30,48]],[[2997,2948],[-36,-24],[-78,-48],[-25,-30],[-36,-30],[-18,-30]],[[2624,2918],[6,-12],[78,-60],[60,-30],[36,-30]],[[2804,2786],[-12,-36],[-18,-24],[-48,-6],[-66,-36],[-24,0],[-36,12],[-48,-6],[-24,18],[-66,-12]],[[1937,2961],[-16,17]],[[2462,2696],[-24,-6],[-60,0],[-24,-6],[-72,42],[-162,54],[-18,-12],[-30,48],[-36,42],[-48,48],[-51,55]],[[3796,3285],[6,-48],[-6,-67],[12,-36],[0,-30],[-6,-66],[-12,-78],[0,-66],[12,-12],[12,-42],[36,-24],[12,-18],[6,-66],[12,-12],[30,-18],[24,-30]],[[2804,2786],[42,-24],[103,-54],[30,-30],[24,-48],[12,-18],[78,-36],[24,-30],[30,-7],[30,-24],[24,-6],[18,-12],[36,-36],[48,-30],[18,-6],[36,0],[36,-6],[24,-12],[30,-36],[42,-96],[0,-24]],[[3722,2250],[-11,-17],[-42,-24],[-48,0],[-24,-12],[-6,-20]],[[3591,2177],[-6,-16]],[[3934,2672],[6,-6],[-6,-54],[-36,-48],[-36,-67],[-24,-36],[-42,-30],[-25,-36],[-30,-48],[0,-66],[-19,-31]],[[3489,2251],[0,-18],[24,-6],[42,-24],[30,-42]],[[3655,2079],[2,-8],[10,-24]],[[3678,2019],[1,-2]],[[3689,1960],[10,-21]],[[3605,2156],[4,-1],[24,-18],[10,-23]],[[3585,2161],[20,-5]],[[3643,2114],[8,-19],[4,-16]],[[3667,2047],[11,-28]],[[3679,2017],[2,-6],[6,-48],[2,-3]],[[3699,1939],[12,-6]],[[3756,1931],[15,2],[5,-4]],[[3711,1933],[12,-6],[33,4]],[[3776,1929],[7,-8]],[[3779,1894],[-2,-9],[0,-19]],[[3783,1921],[-4,-27]],[[0,2029],[17,30],[36,36],[48,48],[18,54],[36,24],[25,72],[18,24],[36,30],[36,42],[-6,54]],[[0,1750],[41,-52],[0,-24],[0,-60],[6,-54],[-24,-60],[0,-84],[6,-48],[0,-60],[12,-18],[24,-18],[30,-6],[24,-18],[36,-55],[13,-6],[42,-18],[60,-36],[30,-42]],[[300,1091],[102,-36],[18,-18],[36,-84],[36,-66],[30,-24],[48,6],[36,-12],[18,-60],[30,-36],[48,6],[24,-6],[36,-24],[30,-6],[12,-12]],[[277,823],[47,-119]],[[300,1091],[0,-24],[-6,-36],[-30,-66],[6,-72],[0,-24],[6,-42],[1,-4]],[[324,704],[6,-15],[0,-18],[-24,-6]],[[306,665],[-24,0],[-66,6],[-42,0],[-55,-18],[-42,-24],[-30,-24],[-30,-48],[-17,-25]],[[804,719],[48,-54],[42,-60],[12,-42],[-18,-43],[-6,-24],[12,-18],[18,-12],[24,-24],[42,-42],[36,-24],[97,-66],[48,-42],[78,-42],[12,-18],[6,-36],[0,-90],[18,-66],[2,-16]],[[42,0],[-7,10],[-18,6],[-17,3]],[[0,134],[17,20],[24,48],[54,18],[48,30],[37,42],[30,30],[36,54],[24,60],[36,169],[0,60]],[[3797,2096],[110,-55],[41,-14],[36,-8],[20,-8],[6,-9],[-17,-28],[-25,-30],[-29,-24],[-33,-9],[-36,-4],[-29,-11],[-51,-35],[-8,-8],[-4,-5],[-8,-3],[-18,-3],[-36,1],[-17,4],[-8,9],[-12,20],[-31,14],[-36,8],[-31,4],[-63,-2],[-26,6],[-11,20],[7,23],[43,62],[6,28],[8,15],[16,17],[19,12],[14,2],[32,-4],[33,4],[40,19],[22,7],[39,-3],[37,-12]],[[1438,2288],[88,-17],[44,1],[15,-1],[15,-6],[30,-18],[14,-6],[122,-33],[41,-38],[7,-69],[0,-114],[23,-100],[-3,-26],[-44,-10],[-65,42],[-90,88],[-62,78],[-23,12],[-14,3],[-28,14],[-220,33],[-57,28],[-56,52],[-44,54],[-32,55],[5,44],[67,17],[27,-6],[69,-33],[24,-16],[23,-12],[33,-8],[91,-8]],[[686,2999],[54,-69],[18,-38],[7,-54],[-11,-33],[-46,-55],[-11,-35],[6,-66],[-5,-28],[-21,-30],[-71,-49],[-9,-16],[-15,-17],[-35,-11],[-41,-7],[-29,-1],[-68,13],[-58,27],[-45,42],[-28,58],[-15,66],[-12,33],[-37,53],[-5,31],[18,121],[18,45],[33,29],[54,11],[26,-5],[51,-18],[29,3],[23,14],[71,71],[49,17],[48,-28],[37,-44],[20,-30]],[[4096,2167],[0,-33],[-4,30],[4,3]],[[4096,2991],[0,-789],[-2,-2],[-11,-5],[-5,9],[-9,27],[-46,96],[-35,51],[-33,23],[-8,-18],[15,-39],[55,-88],[1,-20],[-8,-41],[3,-19],[7,-20],[3,-23],[-4,-22],[-51,-42],[-70,17],[-126,65],[-37,-3],[-59,-30],[-31,-7],[-58,5],[-22,-3],[-24,-12],[-75,-94],[-43,-35],[-52,9],[-3,7],[-10,15],[-11,11],[-6,-8],[2,-16],[7,-22],[1,-12],[-4,-16],[-26,-38],[-20,-51],[-18,28],[-51,44],[-21,28],[-12,29],[-48,159],[-27,56],[-40,46],[-62,40],[-173,65],[-246,153],[-60,29],[-32,9],[-33,3],[-25,6],[-16,15],[-24,39],[-28,33],[-35,30],[-41,26],[-45,21],[-24,-9],[-72,-11],[-24,1],[-33,18],[-19,29],[-28,62],[-24,28],[-119,95],[-17,18],[-10,19],[13,2],[1,5],[-3,6],[-1,7],[-18,18],[-26,19],[-56,32],[-204,83],[-234,97],[-49,28],[-40,32],[-110,122],[-16,7],[-31,6],[-29,17],[-18,22],[3,26],[-24,6],[-23,9],[-43,25],[-26,-17],[-46,-2],[-18,-21],[-10,36],[-3,46],[-8,41],[-24,17],[-10,5],[-14,12],[-21,23],[-30,84],[-12,15],[-20,9],[-69,6],[-18,11],[-15,16],[-25,18],[-81,14],[-29,14],[-49,8],[-32,13],[-58,41],[-34,40],[-72,110],[-32,28],[3052,0],[24,-33],[172,-170],[3,-1],[17,-8],[23,-4],[25,-2],[8,-4],[22,-20],[16,-5],[14,2],[34,17],[23,-9],[2,-10],[-3,-13],[4,-13],[50,-40],[18,-22],[38,-82],[-13,-34],[-1,-28],[11,-27],[107,-136],[13,-12],[32,-23],[10,-10],[6,-15],[0,-29],[4,-17],[9,-16],[26,-31],[5,-18],[-3,-13],[-14,-29],[-4,-17],[11,-30],[68,-84],[37,-92],[20,-27]],[[2367,414],[-41,-9],[-12,19],[23,18],[43,17],[43,8],[20,-14],[-29,-18],[-47,-21]],[[2667,844],[-6,-7],[-8,4],[-10,12],[-10,16],[-18,46],[-3,18],[-4,9],[-5,9],[-1,7],[10,5],[17,-3],[15,-14],[12,-19],[9,-17],[6,-23],[2,-13],[-1,-11],[-5,-19]],[[2701,1071],[-18,-19],[-9,4],[-8,14],[-5,16],[-2,11],[2,12],[4,11],[7,10],[14,15],[9,6],[9,4],[9,0],[12,-19],[-7,-32],[-17,-33]],[[3604,1117],[-16,-6],[-19,5],[-8,12],[-9,25],[-33,47],[2,23],[51,-37],[22,-23],[14,-27],[-4,-19]],[[2816,750],[-19,-2],[-25,15],[-19,23],[-6,24],[1,26],[32,133],[30,44],[47,19],[27,-6],[24,-15],[21,-20],[18,-21],[17,-28],[12,-31],[6,-30],[3,-43],[-6,-38],[-21,-16],[-125,-26],[-17,-8]],[[3274,914],[-13,-11],[-25,5],[-4,21],[7,23],[7,11],[10,9],[20,41],[10,10],[16,-5],[7,-13],[-1,-16],[-5,-16],[-17,-39],[-12,-20]],[[3218,959],[-37,-16],[-27,15],[-18,30],[-14,30],[-14,14],[-56,80],[-7,30],[-3,31],[3,18],[14,32],[10,48],[18,20],[23,4],[22,-13],[14,-22],[11,-27],[14,-21],[47,-17],[16,-18],[27,-45],[19,-20],[7,-11],[4,-19],[-43,-84],[-30,-39]],[[2032,1453],[27,-2],[21,5],[39,21],[20,5],[35,-2],[31,-7],[27,-13],[73,-56],[111,-52],[164,-120],[22,-25],[5,-10],[13,-36],[4,-18],[4,-10],[5,-1],[-13,-28],[-8,-54],[-14,-23],[-9,-5],[-15,-8],[-15,-3],[-6,7],[-5,3],[-25,31],[-76,70],[-52,29],[-62,12],[-124,-10],[-32,3],[-62,15],[-30,2],[-122,-29],[-58,-7],[-61,16],[-71,52],[-14,7],[-75,60],[5,32],[22,28],[29,22],[65,15],[16,20],[2,28],[-46,138],[-4,57],[31,39],[57,10],[42,-21],[75,-83],[11,-16],[2,-20],[-12,-24],[-5,-24],[24,-14],[34,-6]],[[3312,1163],[-1,-30],[-48,64],[-21,15],[-52,18],[-21,15],[-7,27],[14,-8],[84,-32],[13,-8],[12,-9],[10,-10],[9,-13],[7,-15],[1,-14]],[[3920,1130],[-13,-8],[-16,4],[-15,12],[-24,42],[-11,12],[-52,25],[-8,10],[-6,12],[-34,43],[0,9],[65,-13],[51,-35],[38,-45],[26,-45],[-1,-23]],[[3769,1121],[-8,-6],[-8,1],[-9,4],[-28,23],[-55,30],[-25,26],[-24,36],[-6,37],[25,30],[10,-7],[26,-7],[14,-6],[35,-40],[23,-16],[20,-37],[12,-40],[-2,-28]],[[3247,1280],[-15,-13],[-16,0],[-20,6],[-17,10],[-7,14],[-9,9],[-17,12],[-5,10],[68,13],[13,-2],[15,-15],[10,-22],[0,-22]],[[2603,1522],[59,-60],[71,-110],[53,-41],[17,-26],[-10,-34],[-59,-35],[-60,9],[-196,122],[0,5],[-65,60],[-20,9],[-50,18],[-24,3],[-26,8],[-19,19],[-15,20],[-15,14],[-25,6],[-90,-6],[-28,-8],[-32,-17],[-34,-12],[-31,5],[-2,18],[18,28],[49,50],[21,29],[25,62],[19,24],[58,20],[68,-7],[123,-44],[118,-61],[102,-68]],[[3872,1466],[49,-15],[14,-12],[14,-19],[8,-21],[-1,-19],[-11,-11],[-18,-6],[-20,-2],[-16,1],[-15,5],[-80,44],[-15,13],[-9,18],[-2,19],[9,14],[17,3],[25,-16],[0,12],[9,29],[19,-25],[23,-12]],[[4096,1684],[0,-245],[-19,-5],[-26,8],[-52,29],[-12,1],[-31,-3],[-15,2],[-8,6],[-47,55],[-17,29],[-6,28],[17,13],[14,-5],[21,-24],[16,-2],[10,10],[-1,12],[-6,15],[-7,31],[-5,9],[2,6],[17,8],[16,1],[30,-11],[12,-1],[22,17],[12,50],[17,13],[15,-10],[31,-37]],[[3194,1476],[2,-10],[0,-9],[-3,-7],[-8,-6],[-19,-1],[-24,7],[-39,21],[-33,-8],[-25,22],[-38,62],[1,17],[12,28],[15,27],[12,12],[8,3],[27,14],[15,3],[19,-4],[3,-12],[-5,-15],[-1,-18],[8,-34],[7,-18],[9,-13],[8,-6],[19,-2],[9,-3],[4,-7],[0,-6],[0,-7],[1,-8],[3,-6],[9,-10],[4,-6]],[[1769,1404],[-11,-2],[-15,1],[-14,-6],[-43,-38],[-12,-7],[-44,11],[-52,41],[-97,107],[-23,43],[-17,23],[-10,25],[2,36],[13,63],[3,53],[-4,26],[-28,24],[-15,29],[-12,33],[-5,25],[4,13],[13,27],[3,15],[-9,60],[3,31],[10,16],[20,6],[32,1],[55,-14],[45,-33],[78,-87],[111,-80],[22,-23],[10,-13],[9,-34],[-5,-36],[-42,-137],[-3,-35],[3,-36],[26,-83],[4,-32],[-5,-13]],[[0,3042],[73,-60],[25,-32],[12,-33],[2,-30],[-5,-62],[5,-33],[36,-82],[38,-126],[29,-54],[43,-40],[98,-44],[51,-12],[55,-21],[35,-2],[120,21],[55,3],[55,-14],[43,-25],[354,-301],[140,-75],[37,-42],[15,-67],[-10,-56],[1,-37],[14,-17],[23,-8],[21,-20],[15,-25],[5,-26],[-11,-113],[1,-56],[21,-61],[46,-61],[118,-95],[151,-164],[57,-44],[66,-35],[33,-11],[29,-7],[63,-3],[31,4],[46,14],[28,3],[166,-28],[140,-7],[59,-27],[52,-46],[150,-172],[40,-62],[12,-67],[-26,-40],[-54,-31],[-111,-49],[-58,-43],[-32,-20],[-55,-12],[-168,-84],[-20,-17],[-24,-13],[-102,-22],[-27,-12],[-11,-7],[-11,-10],[-30,-53],[-14,-7],[-40,8],[-26,19],[-50,53],[-24,10],[-38,7],[-33,2],[-10,-4],[14,-10],[14,-4],[33,-1],[12,-3],[9,-7],[13,-19],[32,-34],[41,-35],[47,-15],[50,22],[10,12],[13,20],[7,9],[17,11],[34,14],[14,10],[26,9],[67,-8],[32,4],[80,36],[98,11],[25,9],[102,66],[29,8],[22,9],[73,70],[26,15],[34,13],[34,9],[31,3],[33,11],[22,27],[29,63],[32,28],[83,14],[40,22],[41,27],[38,6],[40,-9],[46,-20],[87,-49],[88,-70],[67,-84],[28,-96],[16,28],[11,14],[13,9],[16,-1],[16,-7],[13,-8],[37,-13],[30,-21],[28,-26],[19,-24],[24,-55],[59,-299],[12,-16],[8,-7],[-4,-15],[-7,-12],[-3723,0],[0,3042]],[[2504,3782],[266,-109],[294,101],[135,-55],[64,-90],[68,-16],[18,-47],[-83,-23],[-39,-59],[-146,-98],[-32,28],[-56,-51],[8,-20],[-122,-30],[-6,-42],[-22,27],[-79,-23],[-12,30],[48,38],[-20,20],[14,38],[-64,18],[-33,-38],[-73,44],[25,42],[-37,42],[45,36],[25,84],[-129,77],[-57,76]],[[317,689],[-68,35],[32,113],[49,0],[22,-74],[-35,-74]],[[4047,1662],[-23,-36],[-38,-12],[-4,40],[39,14],[11,46],[15,-52]],[[3797,2096],[213,-94],[-71,-82],[-90,-21],[-8,55],[-74,-29],[-23,13],[32,48],[-48,81],[-97,-32],[48,-16],[-19,-51],[51,-14],[0,-81],[81,25],[19,-23],[-33,-27],[-62,-5],[-68,47],[-156,16],[84,105],[-8,54],[30,-14],[123,60],[76,-15]],[[3967,2154],[3,-38],[-48,0],[-3,-35],[-96,44],[20,20],[79,-13],[-3,26],[-62,22],[17,27],[93,-53]],[[2479,2713],[-30,1],[38,65],[27,-16],[-35,-50]],[[1964,2957],[-56,9],[-42,47],[83,41],[35,-47],[-20,-50]],[[1511,3346],[59,-201],[-171,70],[-1,51],[-76,-12],[-89,83],[87,-15],[45,24],[146,0]],[[1105,3983],[18,-55],[-65,-16],[-35,52],[-62,-19],[44,60],[102,4],[-2,-26]],[[795,4096],[37,0],[0,-22],[-37,22]],[[3717,2252],[75,-23],[-64,-33],[69,-58],[-62,10],[-99,-37],[-70,102],[28,-11],[36,59],[65,-16],[0,32],[22,-25]],[[3526,3728],[42,-26],[26,58],[73,29],[21,-52],[47,9],[19,-60],[-71,9],[21,-75],[-32,-32],[23,-49],[-70,-11],[-56,64],[30,27],[-23,59],[-50,50]]]}