{"objects":{"water":{"type":"GeometryCollection","geometries":[{"type":"Polygon","properties":{"source":"naturalearthdata.com","kind":"ocean","area":1576712559132672,"sort_rank":200,"min_zoom":0.0,"id":1},"arcs":[[5]]},{"type":"LineString","properties":{"source":"naturalearthdata.com","kind":"ocean","sort_rank":205,"boundary":true,"min_zoom":0.0,"id":54},"arcs":[6]}]},"buildings":{"type":"GeometryCollection","geometries":[]},"places":{"type":"GeometryCollection","geometries":[{"type":"Point","properties":{"int_name":"Ban\u0121\u0101z\u012b","name:eo":"Bengazi","min_zoom":8.0,"name:it":"Bengasi","name:uk":"\u0411\u0435\u043d\u0433\u0430\u0437\u0456","name:ru":"\u0411\u0435\u043d\u0433\u0430\u0437\u0438","name:pl":"Bengazi","id":27565118,"population":696345,"name:el":"\u0392\u03b5\u03b3\u03b3\u03ac\u03b6\u03b7","kind":"locality","name:en":"Benghazi","name":"\u0628\u0646\u063a\u0627\u0632\u064a","kind_detail":"city","name:de":"Bengasi","source":"openstreetmap.org","name:fr":"Benghazi","name:es":"Bengasi"},"coordinates":[1105,570]},{"type":"Point","properties":{"kind":"locality","name:en":"Marj","name":"\u0627\u0644\u0645\u0631\u062c","kind_detail":"city","source":"openstreetmap.org","min_zoom":8.0,"int_name":"Al Marj","name:it":"Barce","name:uk":"\u0415\u043b\u044c-\u041c\u0430\u0440\u0434\u0436","old_name":"Barce","name:ru":"\u042d\u043b\u044c-\u041c\u0430\u0440\u0434\u0436","name:pl":"Al-Mard\u017c","population":90667,"id":1159112554,"alt_name:it":"Barca"},"coordinates":[3339,1844]},{"type":"Point","properties":{"kind":"locality","name:en":"Daryanah","name":"\u062f\u0631\u064a\u0627\u0646\u0629 Daryanah","kind_detail":"town","source":"openstreetmap.org","min_zoom":8.0,"id":1565510740,"population":4097},"coordinates":[1816,1368]},{"type":"Point","properties":{"kind":"locality","int_name":"Bu Mariam","name":"Bu Maryam \u0628\u0648\u0645\u0631\u064a\u0645","kind_detail":"town","source":"openstreetmap.org","min_zoom":8.0,"name:it":"Bu Mariam","id":1565510638,"population":2785},"coordinates":[2372,665]}]},"transit":{"type":"GeometryCollection","geometries":[]},"pois":{"type":"GeometryCollection","geometries":[]},"boundaries":{"type":"GeometryCollection","geometries":[{"type":"LineString","properties":{"name:kg":"Libia","name:ka":"\u10da\u10d8\u10d1\u10d8\u10d0","name:ko":"\ub9ac\ube44\uc544","name:cv":"\u041b\u0438\u0432\u0438","name:kl":"Libya","name:cs":"Libye","name:tt":"\u041b\u0438\u0432\u0438\u044f","name:kw":"Libi","name:tk":"Liwi\u00fda","name:ku":"L\u00eebya","name:ti":"\u120a\u1262\u12eb","name:tl":"Libya","name:ce":"\u041b\u0438\u0432\u0438","name:ta":"\u0bb2\u0bbf\u0baa\u0bbf\u0baf\u0bbe","name:tg":"\u041b\u0438\u0431\u0438\u044f","name:ca":"L\u00edbia","name:te":"\u0c32\u0c3f\u0c2c\u0c3f\u0c2f\u0c3e","name:cy":"Libya","name:qu":"Libya","name:da":"Libyen","name:de":"Libyen","source":"openstreetmap.org","name:kn":"\u0cb2\u0cbf\u0cac\u0cbf\u0caf\u0cbe","name:dv":"\u078d\u07a9\u0784\u07a8\u0794\u07a7","name:lv":"L\u012bbija","name:lt":"Libija","name:uz":"Liviya","name:kk":"\u041b\u0438\u0432\u0438\u044f","name:ur":"\u0644\u06cc\u0628\u06cc\u0627","name:lb":"Libyen","name:la":"Libya","name:uk":"\u041b\u0456\u0432\u0456\u044f","name:ug":"\u0644\u0649\u06cb\u0649\u064a\u06d5","name:li":"Libi\u00eb","name:ln":"Lib\u00eeya","name:el":"\u039b\u03b9\u03b2\u03cd\u03b7","name:eo":"Libio","name:en":"Libya","name":"\u2d4d\u2d49\u2d31\u2d62\u2d30 \u0644\u064a\u0628\u064a\u0627","name:ee":"Libya","name:th":"\u0e1b\u0e23\u0e30\u0e40\u0e17\u0e28\u0e25\u0e34\u0e40\u0e1a\u0e35\u0e22","name:eu":"Libia","name:et":"Liib\u00fca","name:es":"Libia","name:ia":"Libya","name:az":"Liviya","name:ie":"Libya","name:id":"Libya","name:ar":"\u0644\u064a\u0628\u064a\u0627","name:io":"Libia","name:is":"L\u00edb\u00fda","name:am":"\u120a\u1262\u12eb","name:it":"Libia","name:an":"Libia","name:ru":"\u041b\u0438\u0432\u0438\u044f","name:rw":"Libiya","name:af":"Libi\u00eb","name:zu":"ILibiya","kind_detail":"2","name:ky":"\u041b\u0438\u0432\u0438\u044f","name:zh-yue":"\u5229\u6bd4\u4e9e","name:zh":"\u5229\u6bd4\u4e9a","name:so":"Libiya","name:sn":"Libya","name:sm":"Libya","name:sl":"Libija","name:sk":"L\u00edbya","name:ja":"\u30ea\u30d3\u30a2","name:si":"\u0dbd\u0dd2\u0db6\u0dd2\u0dba\u0dcf\u0dc0","name:sh":"Libija","name:sg":"Lib\u00efi","name:se":"Libya","name:sc":"L\u00ecbia","name:br":"Libia","name:bs":"Libija","name:bm":"Libya","name:bn":"\u09b2\u09bf\u09ac\u09bf\u09af\u09bc\u09be","name:bo":"\u0f63\u0f72\u0f0b\u0f54\u0f72\u0f0b\u0f61\u0f0d","name:sa":"\u0932\u093f\u092c\u093f\u092f\u093e","name:sw":"Libya","name:be":"\u041b\u0456\u0432\u0456\u044f","name:su":"Libya","name:bg":"\u041b\u0438\u0431\u0438\u044f","name:ss":"ILibhiya","name:ba":"\u041b\u0438\u0432\u0438\u044f","name:sq":"Libia","name:jv":"Libya","name:pt":"L\u00edbia","name:ps":"\u0644\u06d0\u0628\u064a\u0627","name:oc":"Libia","min_zoom":8.0,"name:ro":"Libia","name:zh-min-nan":"Libya","name:os":"\u041b\u0438\u0432\u0438","name:or":"\u0b32\u0b3f\u0b2c\u0b3f\u0b06","name:pl":"Libia","sort_rank":262,"name:sr":"\u041b\u0438\u0431\u0438\u0458\u0430","osm_relation":true,"name:pa":"\u0a32\u0a40\u0a2c\u0a40\u0a06","name:tr":"Libya","name:hi":"\u0932\u0940\u092c\u093f\u092f\u093e","name:sv":"Libyen","name:he":"\u05dc\u05d5\u05d1","name:ha":"Libya","name:hy":"\u053c\u056b\u0562\u056b\u0561","name:ht":"Libi","name:hu":"L\u00edbia","name:hr":"Libija","kind":"country","name:ts":"Libiya","name:yi":"\u05dc\u05d9\u05d1\u05d9\u05e2","name:yo":"L\u00edby\u00e0","name:mt":"Libja","name:ms":"Libya","name:mr":"\u0932\u0940\u092c\u093f\u092f\u093e","name:my":"\u101c\u1005\u103a\u1017\u103b\u102c\u1038\u1014\u102d\u102f\u1004\u103a\u1004\u1036","name:mg":"Libia","name:vi":"Libya","name:ml":"\u0d32\u0d3f\u0d2c\u0d3f\u0d2f","name:mn":"\u041b\u0438\u0432\u0438","id":-192758,"name:mk":"\u041b\u0438\u0431\u0438\u0458\u0430","name:vo":"L\u00fcb\u00e4n","name:fa":"\u0644\u06cc\u0628\u06cc","name:fi":"Libya","name:fo":"Libya","alt_name:vi":"Libi","name:fr":"Libye","name:fy":"Lybje","name:nl":"Libi\u00eb","name:nn":"Libya","name:no":"Libya","name:ne":"\u0932\u093f\u092c\u093f\u092f\u093e","name:wa":"Libeye","name:wo":"Libi","name:nv":"\u0141\u00edbya","name:ga":"An Libia","name:gd":"Libia","name:gn":"Livia","name:gl":"Libia","maritime_boundary":true,"name:gv":"Yn Leeb"},"arcs":[0]},{"type":"LineString","properties":{"alt_name:left:it":"Distretto di Al-Marj","name:right:uk":"\u0411\u0435\u043d\u0433\u0430\u0437\u0456","int_name:left":"Marj","name:right:it":"Distretto di Bengasi","id:right":-2060170,"name:left:uk":"\u0415\u043b\u044c-\u041c\u0430\u0440\u0434\u0436","min_zoom":8.0,"id:left":-2060179,"name:left:en":"Marj","name:left:ru":"\u042d\u043b\u044c-\u041c\u0430\u0440\u0434\u0436","name:right:ru":"\u0411\u0435\u043d\u0433\u0430\u0437\u0438","name:right:pl":"Bengazi","id":-2060179,"osm_relation":true,"name:right":"\u0628\u0646\u063a\u0627\u0632\u064a","kind":"region","name:left:it":"Distretto di Barce","name":"\u0627\u0644\u0645\u0631\u062c - \u0628\u0646\u063a\u0627\u0632\u064a","source":"openstreetmap.org","sort_rank":256,"kind_detail":"4","int_name:right":"Benghazi","name:right:en":"Benghazi","name:left:pl":"Al-Mard\u017c","name:right:de":"Bengasi","name:left":"\u0627\u0644\u0645\u0631\u062c"},"arcs":[1]},{"type":"LineString","properties":{"name:right:it":"Distretto di Bengasi","name":"\u0627\u0644\u0645\u0631\u062c - \u0628\u0646\u063a\u0627\u0632\u064a","name:right:uk":"\u0411\u0435\u043d\u0433\u0430\u0437\u0456","int_name:left":"Marj","alt_name:left:it":"Distretto di Al-Marj","id:right":-2060170,"name:left:uk":"\u0415\u043b\u044c-\u041c\u0430\u0440\u0434\u0436","min_zoom":8.0,"name:left:pl":"Al-Mard\u017c","name:left:ru":"\u042d\u043b\u044c-\u041c\u0430\u0440\u0434\u0436","name:right:ru":"\u0411\u0435\u043d\u0433\u0430\u0437\u0438","name:right:pl":"Bengazi","id":-2060179,"osm_relation":true,"name:right":"\u0628\u0646\u063a\u0627\u0632\u064a","kind":"region","name:left:it":"Distretto di Barce","name:left:en":"Marj","sort_rank":256,"kind_detail":"4","int_name:right":"Benghazi","name:right:en":"Benghazi","source":"openstreetmap.org","maritime_boundary":true,"name:right:de":"Bengasi","id:left":-2060179,"name:left":"\u0627\u0644\u0645\u0631\u062c"},"arcs":[2]},{"type":"LineString","properties":{"int_name":"Marj","min_zoom":8.0,"name:it":"Distretto di Barce","name:uk":"\u0415\u043b\u044c-\u041c\u0430\u0440\u0434\u0436","name:ru":"\u042d\u043b\u044c-\u041c\u0430\u0440\u0434\u0436","name:pl":"Al-Mard\u017c","id":-2060179,"osm_relation":true,"kind":"region","name:en":"Marj","name":"\u0627\u0644\u0645\u0631\u062c","sort_rank":256,"kind_detail":"4","source":"openstreetmap.org","maritime_boundary":true,"alt_name:it":"Distretto di Al-Marj"},"arcs":[3]},{"type":"LineString","properties":{"int_name":"Benghazi","min_zoom":8.0,"name:it":"Distretto di Bengasi","name:uk":"\u0411\u0435\u043d\u0433\u0430\u0437\u0456","name:ru":"\u0411\u0435\u043d\u0433\u0430\u0437\u0438","name:pl":"Bengazi","id":-2060170,"osm_relation":true,"kind":"region","name:en":"Benghazi","name":"\u0628\u0646\u063a\u0627\u0632\u064a","sort_rank":256,"kind_detail":"4","name:de":"Bengasi","source":"openstreetmap.org","maritime_boundary":true},"arcs":[4]}]},"roads":{"type":"GeometryCollection","geometries":[{"type":"MultiLineString","properties":{"sort_rank":380,"kind_detail":"primary","min_zoom":8.0,"kind":"major_road","source":"openstreetmap.org"},"arcs":[[7],[8],[9],[10],[11],[12],[13],[14],[15],[16],[17],[18],[19],[20],[21],[22],[23],[24],[25],[26],[27],[28],[29],[30],[31],[32],[33],[34],[35]]},{"type":"MultiLineString","properties":{"sort_rank":381,"source":"openstreetmap.org","min_zoom":8.0,"kind":"major_road","kind_detail":"trunk"},"arcs":[[36],[37],[38],[39],[40],[41],[42],[43],[44],[45],[46],[47],[48],[49],[50],[51],[52],[53],[54],[55],[56]]},{"type":"LineString","properties":{"kind":"major_road","name:en":"Sidi Yuniss Roundabout","sort_rank":381,"landuse_kind":"urban_area","source":"openstreetmap.org","min_zoom":8.0,"kind_detail":"trunk","id":28153438},"arcs":[57]},{"type":"MultiLineString","properties":{"source":"openstreetmap.org","kind":"major_road","name:en":"First Ring Road","landuse_kind":"urban_area","sort_rank":380,"kind_detail":"primary","min_zoom":8.0},"arcs":[[58],[59],[60],[61],[62],[63],[64],[65],[66],[67],[68]]},{"type":"LineString","properties":{"source":"openstreetmap.org","kind":"major_road","name:en":"Almahdwy Street","landuse_kind":"urban_area","sort_rank":380,"kind_detail":"primary","min_zoom":8.0},"arcs":[69]},{"type":"LineString","properties":{"kind":"major_road","name:en":"Algeria Street","sort_rank":380,"kind_detail":"primary","name:fr":"Rue d'Alg\u00e9rie","source":"openstreetmap.org","min_zoom":8.0,"landuse_kind":"urban_area"},"arcs":[70]},{"type":"LineString","properties":{"kind":"major_road","name:en":"Baninah-Al Rajmah Rd","sort_rank":381,"landuse_kind":"urban_area","source":"openstreetmap.org","min_zoom":8.0,"kind_detail":"trunk","id":102690243},"arcs":[71]},{"type":"LineString","properties":{"kind":"major_road","name:en":"Bininah-Al Rajmah Rd","sort_rank":381,"landuse_kind":"urban_area","source":"openstreetmap.org","min_zoom":8.0,"kind_detail":"trunk","id":176546592},"arcs":[72]},{"type":"MultiLineString","properties":{"source":"openstreetmap.org","kind":"major_road","name:en":"old Al Marj","landuse_kind":"urban_area","sort_rank":380,"kind_detail":"primary","min_zoom":8.0},"arcs":[[73],[74]]},{"type":"MultiLineString","properties":{"source":"openstreetmap.org","kind":"major_road","name:en":"Al-Hawary Road","landuse_kind":"urban_area","sort_rank":380,"kind_detail":"primary","min_zoom":8.0},"arcs":[[75],[76],[77],[78]]},{"type":"MultiLineString","properties":{"source":"openstreetmap.org","kind":"major_road","name:en":"Algeria Street","landuse_kind":"urban_area","sort_rank":380,"kind_detail":"primary","min_zoom":8.0},"arcs":[[79],[80],[81],[82]]},{"type":"MultiLineString","properties":{"source":"openstreetmap.org","kind":"major_road","name:en":"Benghazi - Aijdabyia Road","sort_rank":381,"kind_detail":"trunk","min_zoom":8.0},"arcs":[[83],[84],[85],[86]]},{"type":"MultiLineString","properties":{"source":"openstreetmap.org","kind":"major_road","name:en":"Julyana Bridge","landuse_kind":"urban_area","sort_rank":380,"kind_detail":"primary","min_zoom":8.0},"arcs":[[87],[88]]},{"type":"LineString","properties":{"kind":"major_road","name:en":"Attiarah Roundabout","sort_rank":381,"landuse_kind":"urban_area","source":"openstreetmap.org","min_zoom":8.0,"kind_detail":"trunk","id":34150210},"arcs":[89]},{"type":"LineString","properties":{"kind":"major_road","name:en":"Ajja'ab Roundabout","sort_rank":380,"landuse_kind":"urban_area","source":"openstreetmap.org","min_zoom":8.0,"kind_detail":"primary","id":28153325},"arcs":[90]},{"type":"LineString","properties":{"source":"openstreetmap.org","kind":"major_road","name:en":"Algeria St","landuse_kind":"urban_area","sort_rank":380,"kind_detail":"primary","min_zoom":8.0},"arcs":[91]},{"type":"LineString","properties":{"source":"openstreetmap.org","kind":"major_road","name:en":"Qaminis SEA ROAD - Benghazi","sort_rank":380,"kind_detail":"primary","min_zoom":8.0,"id":38705937},"arcs":[92]},{"type":"LineString","properties":{"kind":"major_road","name:en":"Ajjaraat Roundabout","sort_rank":381,"landuse_kind":"urban_area","source":"openstreetmap.org","min_zoom":8.0,"kind_detail":"trunk","id":101078198},"arcs":[93]},{"type":"LineString","properties":{"kind":"major_road","name:en":"Jamal Abdel Nasser Street","sort_rank":380,"landuse_kind":"urban_area","source":"openstreetmap.org","min_zoom":8.0,"kind_detail":"primary","id":100089379},"arcs":[94]},{"type":"MultiLineString","properties":{"source":"openstreetmap.org","kind":"major_road","landuse_kind":"urban_area","sort_rank":380,"kind_detail":"primary","min_zoom":8.0},"arcs":[[95],[96],[97],[98],[99],[100],[101],[102],[103],[104],[105],[106],[107],[108],[109],[110],[111],[112],[113],[114],[115],[116],[117],[118],[119],[120],[121],[122],[123],[124],[125],[126],[127],[128],[129],[130],[131],[132],[133],[134],[135],[136],[137],[138],[139],[140],[141],[142],[143],[144],[145],[146],[147],[148],[149],[150],[151],[152],[153],[154],[155],[156],[157],[158],[159],[160],[161],[162],[163],[164],[165],[166],[167],[168],[169],[170],[171],[172],[173],[174],[175],[176],[177],[178],[179],[180],[181],[182],[183],[184],[185],[186],[187],[188],[189],[190],[191],[192],[193],[194]]},{"type":"MultiLineString","properties":{"source":"openstreetmap.org","kind":"major_road","kind_detail":"trunk","sort_rank":381,"landuse_kind":"urban_area","min_zoom":8.0},"arcs":[[195],[196],[197],[198],[199],[200],[201],[202],[203],[204],[205],[206],[207],[208],[209],[210],[211],[212],[213],[214],[215],[216],[217],[218],[219],[220],[221],[222],[223],[224],[225],[226],[227],[228],[229],[230],[231],[232],[233],[234],[235],[236],[237],[238],[239],[240],[241]]},{"type":"LineString","properties":{"source":"openstreetmap.org","kind":"major_road","name:en":"(Tukrah(Al Aquriyah)-AlDirsiyah(tlmethah","sort_rank":380,"kind_detail":"primary","min_zoom":8.0,"id":224815283},"arcs":[242]},{"type":"MultiLineString","properties":{"source":"openstreetmap.org","kind":"major_road","name:en":"Ahmed Al Megharief Road","kind_detail":"trunk","sort_rank":381,"landuse_kind":"urban_area","min_zoom":8.0},"arcs":[[243],[244]]},{"type":"LineString","properties":{"source":"openstreetmap.org","kind":"major_road","name:en":"Baninah-Al Rajmah Rd","sort_rank":381,"kind_detail":"trunk","min_zoom":8.0,"id":102690243},"arcs":[245]},{"type":"LineString","properties":{"kind":"major_road","name:en":"Jamal Abdel Nasser St","sort_rank":380,"kind_detail":"primary","source":"openstreetmap.org","min_zoom":8.0,"old_name":"\u0634\u0627\u0631\u0639 \u0627\u0644\u0627\u0633\u062a\u0642\u0644\u0627\u0644","landuse_kind":"urban_area","id":344758007},"arcs":[246]},{"type":"LineString","properties":{"source":"openstreetmap.org","kind":"major_road","name:en":"Jardas al Abid-Al Kharoba","sort_rank":380,"kind_detail":"primary","min_zoom":8.0},"arcs":[247]},{"type":"LineString","properties":{"kind":"major_road","name:en":"Souq Assayarat Roundabout","sort_rank":381,"landuse_kind":"urban_area","source":"openstreetmap.org","min_zoom":8.0,"kind_detail":"trunk","id":26726464},"arcs":[248]},{"type":"LineString","properties":{"kind":"major_road","name:en":"Jamal Abdel Nasser Street","sort_rank":380,"kind_detail":"primary","source":"openstreetmap.org","min_zoom":8.0,"old_name":"\u0634\u0627\u0631\u0639 \u0627\u0644\u0627\u0633\u062a\u0642\u0644\u0627\u0644","landuse_kind":"urban_area"},"arcs":[249]},{"type":"LineString","properties":{"source":"openstreetmap.org","kind":"major_road","name:en":"Tukrah - Tlmethah Road","sort_rank":380,"kind_detail":"primary","min_zoom":8.0,"id":178619675},"arcs":[250]},{"type":"MultiLineString","properties":{"source":"openstreetmap.org","kind":"major_road","name:en":"Buhadi Rd","sort_rank":381,"kind_detail":"trunk","min_zoom":8.0},"arcs":[[251],[252]]},{"type":"MultiLineString","properties":{"source":"openstreetmap.org","kind":"major_road","name:en":"Buhadi Rd","kind_detail":"trunk","sort_rank":381,"landuse_kind":"urban_area","min_zoom":8.0},"arcs":[[253],[254]]},{"type":"LineString","properties":{"kind":"major_road","name:en":"Jamal Abdel Nasser St","sort_rank":380,"landuse_kind":"urban_area","source":"openstreetmap.org","min_zoom":8.0,"kind_detail":"primary","id":100317615},"arcs":[255]},{"type":"LineString","properties":{"kind":"major_road","name:en":"Algeria Street","sort_rank":380,"kind_detail":"primary","min_zoom":8.0,"source":"openstreetmap.org","name:fr":"Rue d'Alg\u00e9rie","int_name":"Algeria Street","landuse_kind":"urban_area","id":27255033},"arcs":[256]},{"type":"MultiLineString","properties":{"kind":"major_road","name:en":"23rd July Road","sort_rank":380,"kind_detail":"primary","name:fr":"Route du 23 Juillet","source":"openstreetmap.org","min_zoom":8.0,"landuse_kind":"urban_area"},"arcs":[[257],[258],[259],[260]]},{"type":"MultiLineString","properties":{"source":"openstreetmap.org","kind":"major_road","name:en":"Airport Rd","kind_detail":"trunk","sort_rank":381,"landuse_kind":"urban_area","min_zoom":8.0},"arcs":[[261],[262]]},{"type":"MultiLineString","properties":{"source":"openstreetmap.org","kind":"major_road","name:en":"Qaminis SEA ROAD - Benghazi","landuse_kind":"urban_area","sort_rank":380,"kind_detail":"primary","min_zoom":8.0},"arcs":[[263],[264],[265],[266],[267],[268],[269]]},{"type":"MultiLineString","properties":{"source":"openstreetmap.org","kind":"major_road","landuse_kind":"residential","sort_rank":381,"kind_detail":"trunk","min_zoom":8.0},"arcs":[[270],[271],[272],[273],[274]]},{"type":"MultiLineString","properties":{"source":"openstreetmap.org","kind":"major_road","landuse_kind":"residential","sort_rank":380,"kind_detail":"primary","min_zoom":8.0},"arcs":[[275],[276],[277],[278],[279],[280],[281],[282],[283],[284],[285],[286],[287],[288],[289],[290],[291],[292],[293],[294],[295],[296],[297],[298],[299],[300]]},{"type":"MultiLineString","properties":{"source":"openstreetmap.org","kind":"major_road","name:en":"Africa Bridge","landuse_kind":"urban_area","sort_rank":380,"kind_detail":"primary","min_zoom":8.0},"arcs":[[301],[302]]},{"type":"MultiLineString","properties":{"source":"openstreetmap.org","kind":"major_road","name:en":"Benghazi - Aijdabyia Road","kind_detail":"trunk","sort_rank":381,"landuse_kind":"urban_area","min_zoom":8.0},"arcs":[[303],[304]]},{"type":"LineString","properties":{"source":"openstreetmap.org","kind":"major_road","name:en":"Sidi Hussian Street","landuse_kind":"urban_area","sort_rank":380,"kind_detail":"primary","min_zoom":8.0},"arcs":[305]},{"type":"LineString","properties":{"kind":"major_road","name:en":"Algeria Street","sort_rank":380,"kind_detail":"primary","source":"openstreetmap.org","min_zoom":8.0,"int_name":"Algeria Street","landuse_kind":"urban_area","id":344768886},"arcs":[306]},{"type":"LineString","properties":{"kind":"major_road","name:en":"Baninah-Al Rajmah Rd","sort_rank":381,"landuse_kind":"aerodrome","source":"openstreetmap.org","min_zoom":8.0,"kind_detail":"trunk","id":102690243},"arcs":[307]},{"type":"LineString","properties":{"source":"openstreetmap.org","kind":"major_road","name:en":"Al Rajmah-Alybiaar Rd","sort_rank":381,"kind_detail":"trunk","min_zoom":8.0,"id":172224274},"arcs":[308]},{"type":"MultiLineString","properties":{"source":"openstreetmap.org","kind":"major_road","name:en":"old Al Marj","sort_rank":380,"kind_detail":"primary","min_zoom":8.0},"arcs":[[309],[310]]},{"type":"LineString","properties":{"kind":"major_road","name:en":"Al Marj-alBayda","sort_rank":381,"landuse_kind":"residential","source":"openstreetmap.org","min_zoom":8.0,"kind_detail":"trunk","id":317499325},"arcs":[311]},{"type":"LineString","properties":{"kind":"major_road","name:en":"Al Marj-alBayda","sort_rank":381,"landuse_kind":"urban_area","source":"openstreetmap.org","min_zoom":8.0,"kind_detail":"trunk","id":317499325},"arcs":[312]},{"type":"MultiLineString","properties":{"source":"openstreetmap.org","kind":"major_road","name:en":"Al Qayrawan Street","landuse_kind":"urban_area","sort_rank":380,"kind_detail":"primary","min_zoom":8.0},"arcs":[[313],[314]]},{"type":"LineString","properties":{"kind":"major_road","name:en":"old Al Marj","sort_rank":380,"landuse_kind":"residential","source":"openstreetmap.org","min_zoom":8.0,"kind_detail":"primary","id":317514248},"arcs":[315]},{"type":"LineString","properties":{"source":"openstreetmap.org","kind":"major_road","name:en":"Al Marj-alBayda","sort_rank":381,"kind_detail":"trunk","min_zoom":8.0,"id":317499325},"arcs":[316]}]},"earth":{"type":"GeometryCollection","geometries":[{"type":"Polygon","properties":{"sort_rank":10,"source":"naturalearthdata.com","kind":"earth","min_zoom":0.0,"id":4727},"arcs":[[317]]}]},"landuse":{"type":"GeometryCollection","geometries":[{"type":"Polygon","properties":{"source":"openstreetmap.org","kind":"residential","area":22272300,"tier":2,"id":100283857,"min_zoom":8.0,"sort_rank":20},"arcs":[[318]]},{"type":"MultiPolygon","properties":{"source":"naturalearthdata.com","kind":"urban_area","name":"","area":791436669,"sort_rank":11,"min_zoom":4.0},"arcs":[[[319]],[[320]]]},{"type":"Polygon","properties":{"kind":"aerodrome","area":22526200,"sort_rank":60,"operator":"LCAA","source":"openstreetmap.org","min_zoom":8.0,"tier":3,"id":102157958},"arcs":[[321]]}]}},"type":"Topology","transform":{"translate":[19.6875,31.952162238],"scale":[0.0003433228,0.0002894016]},"arcs":[[[4096,3520],[-104,-10],[-227,-63],[-343,-154],[-1093,-589],[-267,-316],[-616,-527],[-643,-716],[-536,-815],[-73,-330]],[[2556,2174],[198,-498],[17,-99],[386,-757],[75,-239],[34,-538],[24,-43]],[[2329,2704],[227,-530]],[[4096,3522],[-45,-4],[-286,-71],[-418,-193],[-1018,-550]],[[2329,2704],[-267,-316],[-616,-527],[-643,-716],[-536,-815],[-73,-330]],[[4096,2862],[-125,-28],[-340,-172],[-401,-275],[-681,-294],[-425,-340],[-39,-42],[-52,-44],[-116,-51],[-59,-35],[-140,-169],[-45,-73],[-554,-564],[-69,-105],[-264,-564],[-37,-53],[-13,-34],[2,-19],[-738,0],[0,4096],[4096,0],[0,-1234]],[[4096,2862],[-125,-28],[-340,-172],[-401,-275],[-681,-294],[-425,-340],[-39,-42],[-52,-44],[-116,-51],[-59,-35],[-140,-169],[-45,-73],[-554,-564],[-69,-105],[-264,-564],[-37,-53],[-13,-34],[2,-19]],[[1343,0],[-48,165]],[[2668,1992],[-1,0]],[[2667,1992],[-1,0]],[[2666,1992],[-3,0]],[[2663,1992],[-19,2]],[[2644,1994],[-74,6]],[[2570,2000],[-1,0],[-79,-63]],[[2491,1939],[79,61]],[[2570,2000],[1,1],[73,-7]],[[2644,1994],[20,-2]],[[2664,1992],[2,0]],[[2666,1992]],[[2666,1992],[0,1]],[[2656,1995],[7,-2]],[[2663,1993],[3,-1]],[[2666,1992],[1,0]],[[2667,1992],[64,-21],[65,-40]],[[2663,1993]],[[2663,1993],[0,-1]],[[2663,1992],[1,0]],[[2664,1992]],[[2689,919],[425,-183],[75,-96],[-19,-168],[-166,-199],[-34,-136],[-69,-67],[-78,-8],[-81,-62]],[[3390,1774],[85,-88],[-9,-32],[29,-41],[100,7],[5,-6]],[[3600,1614],[40,-47],[-50,-55],[8,-189],[-50,-40],[0,-31],[66,-34],[156,18],[24,-29]],[[3556,1885],[105,-46],[30,13],[139,-82]],[[3656,2077],[40,338],[-88,67],[-14,61]],[[3600,1613],[0,1]],[[3600,1614],[2,50],[228,106]],[[3830,1770],[228,56],[38,0]],[[2676,1990],[-187,-53],[-230,-259],[-534,-400],[-203,-214],[-32,-41]],[[1490,1023]],[[1490,1023],[-12,-16]],[[1478,1006],[345,344],[436,328],[230,258],[187,54]],[[1484,1028],[1,-1],[5,-4]],[[1490,1023],[0,-1]],[[1491,1023],[-1,0]],[[1490,1023],[-5,5]],[[2059,517],[93,91]],[[2152,608],[30,11]],[[2374,668],[-103,-1],[-89,-48]],[[2396,674],[-22,-6]],[[2396,674],[74,21],[127,100]],[[2597,795],[33,13],[36,68]],[[2666,876],[-35,-67],[-34,-14]],[[2666,876],[122,222]],[[2676,1990],[119,-58],[309,-66],[162,21]],[[2804,1119],[-16,-21]],[[2804,1119],[540,543],[38,123]],[[3859,2084],[237,11]],[[1892,423],[2,-1],[38,-4],[-40,5]],[[1202,643],[-2,1],[-1,-2],[2,-2],[1,3]],[[1097,484],[10,-15],[24,-11],[7,-1],[54,12],[1,1]],[[1192,471],[-61,-13],[-32,24]],[[1206,518],[-13,-45]],[[1195,472],[12,46]],[[1204,533],[1,6]],[[1205,539],[1,6]],[[1207,519],[-1,5]],[[1206,524],[-2,7]],[[1205,546],[0,-7]],[[1205,539],[1,-15]],[[1206,524],[0,-5]],[[1079,566],[-8,9]],[[1081,531],[13,27]],[[1642,458],[36,-19]],[[1642,467],[0,-6]],[[3386,1897],[97,9]],[[3495,1907],[4,5]],[[1191,423],[69,-143]],[[1260,281],[-67,143]],[[1261,278],[24,-83]],[[1286,195],[-25,84]],[[1097,561],[18,15]],[[1116,579],[13,26]],[[1129,605],[15,21]],[[1144,626],[4,4]],[[1026,123],[-6,-23]],[[1020,100],[-26,-100]],[[995,0],[25,100]],[[1020,100],[5,23]],[[1080,531],[-2,-13]],[[1078,518],[3,13]],[[1253,716],[-2,1],[0,-3],[2,0],[0,2]],[[1193,470],[2,1],[-2,2],[-2,-1],[2,-2]],[[1116,579],[-1,-3]],[[913,89],[-74,-89]],[[1165,577],[-1,3],[-3,-1],[1,-3],[3,1]],[[1072,577],[13,-12]],[[1056,449],[-1,-28]],[[1055,452],[1,-3]],[[1056,449],[3,0]],[[1059,449],[0,3],[-4,0]],[[1075,506],[-17,-47]],[[1058,459],[-1,-3]],[[1057,456],[-2,-4]],[[1058,416],[131,8]],[[1060,421],[-1,28]],[[1059,449],[33,-1]],[[1189,425],[-128,-5]],[[1078,518],[-7,3]],[[1106,613],[-35,-37]],[[1071,576],[36,36]],[[1077,512],[0,-5],[5,2],[-3,4],[-2,-1]],[[1078,518],[-1,-6]],[[1092,450],[-35,6]],[[1057,456],[1,3]],[[1058,459],[20,48]],[[1082,529],[-3,37]],[[1081,508],[12,-16]],[[1096,487],[-5,11],[-9,13]],[[1098,495],[-5,1]],[[1093,490],[4,-6]],[[1099,482],[0,9]],[[1213,740],[-105,-125]],[[1179,643],[-2,0],[-8,-1],[-27,-14],[-9,-10],[-3,-5]],[[1130,613],[-5,-7]],[[1125,606],[-1,-1]],[[1124,605],[-15,-22]],[[1109,583],[-1,-2]],[[1108,581],[2,-4]],[[1111,578],[-3,3]],[[1109,581],[0,2]],[[1109,583],[3,8],[6,6],[5,8]],[[1123,605],[1,2]],[[1124,607],[6,6]],[[1130,613],[3,4],[46,26]],[[1109,615],[103,123]],[[1109,613],[6,-3]],[[1115,610],[9,-3]],[[1124,607],[1,-1]],[[1125,606],[4,-1],[19,-16]],[[1148,589],[13,-10]],[[1162,580],[-14,9]],[[1148,589],[-24,16]],[[1124,605],[-1,0]],[[1123,605],[-8,5]],[[1115,610],[-6,4]],[[1110,577],[1,1]],[[1110,577],[34,-27]],[[1145,552],[-34,26]],[[1137,538],[-10,12]],[[1137,538],[3,-4]],[[1139,536],[-2,2]],[[1141,535],[-2,0]],[[1141,535],[-1,-2],[2,0],[0,2],[-1,0]],[[1146,454],[0,36],[37,-53]],[[1183,437],[-37,55]],[[1151,435],[-1,5]],[[1161,575],[6,1]],[[1167,576],[2,0]],[[1165,576],[2,0]],[[1167,576],[3,-1],[12,-3],[23,-24]],[[1206,549],[-24,23],[-17,6]],[[1183,437]],[[1183,437],[24,14]],[[1183,437]],[[1183,437],[7,-11]],[[1207,451],[-24,-14]],[[1192,427],[-9,10]],[[1183,437]],[[1200,644],[-14,-2]],[[1186,642],[13,-1]],[[1201,641],[43,-88],[-5,-97],[-45,-30]],[[1194,426],[33,14],[12,16],[6,98],[-3,19],[-26,57],[-14,13]],[[1204,531],[0,2]],[[1216,738],[34,-23]],[[1252,717],[-36,23]],[[1260,280],[1,-2]],[[1261,279],[-1,2]],[[1295,165],[-8,26]],[[3307,1813],[43,-10]],[[3381,1805]],[[3386,1813],[3,38],[0,2]],[[3389,1853],[-2,-37]],[[3388,1854],[1,-1]],[[3502,1908],[54,-23]],[[1061,416],[-1,5]],[[1060,421],[-4,2],[-2,-6],[7,-1]],[[1070,576],[0,-1],[1,1],[-1,0]],[[1095,450],[-3,0],[0,-2]],[[1092,448],[2,0],[1,2]],[[1109,612],[0,3]],[[1109,615],[-2,0],[0,-3],[2,0]],[[1145,494],[-2,-2],[2,-2],[1,2],[-1,2]],[[1190,424],[3,0],[0,2],[-3,0],[0,-2]],[[1206,518],[1,0],[0,1],[-1,0],[0,-1]],[[1207,545],[1,3],[-3,0],[-1,-2],[3,-1]],[[1216,737],[0,3],[-3,0],[0,-3],[3,0]],[[1050,215],[81,-2]],[[1131,215],[-81,1]],[[1161,577],[-68,-85],[0,-37],[1,-9],[0,-3]],[[1094,443],[2,-8],[2,-16],[-1,-5],[0,-1]],[[1097,413],[0,-1],[0,-3],[-2,-12]],[[1097,410],[0,2],[0,1]],[[1097,413],[-3,30]],[[1094,443],[0,3],[-1,9],[3,32],[66,89]],[[1285,195],[-153,20]],[[1132,214],[153,-20]],[[1199,641],[-36,-61]],[[1165,579],[36,62]],[[1260,539],[-9,1],[-5,1]],[[1246,541],[-1,0]],[[1245,541],[-6,1],[-6,1],[-19,3],[-15,0]],[[1200,546],[11,0],[21,-3],[7,-1],[6,-1]],[[1245,541],[1,0]],[[1246,541],[5,-1],[8,-1]],[[1229,691],[-29,-47]],[[1202,643],[28,46]],[[1250,715],[-19,-22]],[[1233,691],[19,23]],[[1478,1007],[-226,-290]],[[1254,715],[224,291]],[[1608,488],[0,-3],[-4,-5]],[[1604,480],[-229,-273],[-89,-12]],[[1286,194],[90,12],[229,274]],[[1605,480],[4,4],[0,4]],[[1599,487],[5,-7]],[[1604,480],[1,0]],[[1605,480],[2,-4]],[[1609,496],[-10,-9]],[[1608,476],[11,8]],[[1619,485],[-9,10]],[[1636,485],[6,-18]],[[1642,461],[0,-3]],[[3382,1785],[-32,23]],[[1131,213],[1,1]],[[1132,214],[0,1]],[[1132,215],[-1,0],[0,-2]],[[1149,551],[-4,1],[-1,-3],[3,-1],[2,3]],[[1245,543],[0,-2]],[[1245,541]],[[1245,541],[0,-3],[1,0],[0,3]],[[1246,541]],[[1246,541],[0,2],[-1,0]],[[1285,195],[0,-1],[1,0],[0,1],[-1,0]],[[3619,2572],[50,60]],[[1147,548],[53,-2]],[[1199,546],[-50,4]],[[1718,417],[99,-53],[75,59]],[[1131,529],[12,-21]],[[3794,1207],[122,-40],[22,-47],[58,4],[75,-37],[25,-23]],[[1230,693],[-1,-2],[3,-2],[1,3],[-3,1]],[[1085,565],[46,-36]],[[2580,2003],[298,174],[384,158],[357,237]],[[1490,1022],[120,-293],[-1,-148]],[[1610,581],[1,147],[-120,295]],[[1609,581],[-1,-93]],[[1609,488],[1,93]],[[1143,508],[3,-13]],[[1094,558],[-4,-6]],[[1132,517],[-3,9],[-4,5],[-45,34]],[[1080,564],[49,-38]],[[1131,510],[12,-18]],[[1145,494],[-11,19]],[[1259,539],[371,-56]],[[1629,483],[-369,56]],[[929,110],[-16,-21]],[[929,110],[51,95],[1,60]],[[981,265],[1,34],[1,1]],[[983,300],[74,116]],[[1054,420],[-71,-119],[0,-1]],[[983,300],[-2,-35]],[[981,265],[-2,-60],[-50,-95]],[[3266,1887],[18,2]],[[3284,1889],[62,8]],[[3346,1897],[2,-2]],[[3348,1895],[0,3]],[[3350,1808],[-2,87]],[[3304,1888],[1,-1]],[[3305,1887],[0,1]],[[3305,1887],[2,-74]],[[3325,1881],[0,1]],[[3325,1882]],[[3325,1882],[0,2]],[[3325,1884],[-1,2],[-4,4]],[[3323,1881],[1,1],[1,0]],[[3325,1882]],[[3325,1882],[2,1]],[[3327,1883],[17,3]],[[3344,1886],[4,1],[3,1]],[[3351,1888],[-3,-1],[-4,-1]],[[3344,1886],[-14,-4],[-3,1]],[[3327,1883],[-1,0],[-1,-1]],[[3325,1882]],[[3325,1882],[-1,0]],[[3325,1891],[0,-7]],[[3325,1884],[0,-1],[0,-1]],[[3325,1882]],[[3325,1882],[0,-2]],[[3349,1889],[2,-1]],[[3351,1888],[37,-34]],[[3381,1805],[5,3]],[[3386,1808],[0,5]],[[3387,1816],[-1,-8]],[[1194,426],[-5,-1]],[[1189,424],[5,2]],[[1025,123],[72,287]],[[1095,397],[-69,-274]],[[1127,550],[-19,25]],[[1090,552],[-10,-21]],[[1678,439],[40,-22]],[[1932,418],[127,99]],[[3482,1944],[17,-32]],[[3483,1906],[12,1]],[[3360,1902],[11,3]],[[3371,1905],[95,32]],[[1143,492],[8,-57]],[[1150,440],[-4,14]],[[3364,1895],[22,2]],[[3466,1937],[205,149],[188,-2]],[[738,0],[-2,19],[13,34],[37,53],[264,564],[69,105],[554,564],[45,73],[140,169],[59,35],[116,51],[52,44],[39,42],[425,340],[681,294],[401,275],[340,172],[125,28],[0,-2862],[-3358,0]],[[3264,1817],[2,102],[32,28],[92,-52],[-4,-90],[-122,12]],[[1347,165],[-226,0],[-167,-74],[-59,-3],[-82,75],[237,507],[69,105],[259,264],[99,-29],[35,-147],[-2,-45],[-68,-70],[3,-45],[61,-81],[194,-77],[36,-111],[-41,-30],[-121,-9],[-227,-230]],[[3483,1893],[32,38],[26,-8],[39,-107],[-97,38],[-68,-61],[-72,-17],[-87,40],[98,154],[129,-39],[0,-38]],[[1634,602],[22,13],[23,-40],[27,15],[82,-145],[-54,-32],[-53,13],[-47,176]]]}