{"objects":{"water":{"type":"GeometryCollection","geometries":[{"type":"Polygon","properties":{"kind":"lake","name":"Kaliningradskiy Zaliv","area":1193998848,"sort_rank":200,"alkaline":true,"source":"naturalearthdata.com","min_zoom":0.0,"id":1302},"arcs":[[17]]},{"type":"Polygon","properties":{"kind":"lake","name":"Zalew Wislany","area":1019609664,"sort_rank":200,"alkaline":true,"source":"naturalearthdata.com","min_zoom":0.0,"id":1303},"arcs":[[18]]},{"type":"MultiPolygon","properties":{"source":"naturalearthdata.com","kind":"ocean","area":1576712559132672,"sort_rank":200,"min_zoom":0.0,"id":1},"arcs":[[[19]],[[20]]]},{"type":"Point","properties":{"label_placement":true,"kind":"lake","name":"Kaliningradskiy Zaliv","area":1193998848,"sort_rank":200,"alkaline":true,"source":"naturalearthdata.com","min_zoom":0.0,"id":1302},"coordinates":[979,2196]},{"type":"MultiLineString","properties":{"source":"naturalearthdata.com","kind":"ocean","sort_rank":205,"boundary":true,"min_zoom":0.0,"id":49},"arcs":[[21],[22]]},{"type":"LineString","properties":{"source":"naturalearthdata.com","kind":"lake","sort_rank":367,"alkaline":true,"boundary":true,"min_zoom":0.0,"id":1302},"arcs":[23]},{"type":"MultiLineString","properties":{"source":"naturalearthdata.com","kind":"lake","sort_rank":367,"alkaline":true,"boundary":true,"min_zoom":0.0,"id":1303},"arcs":[[24],[25]]}]},"buildings":{"type":"GeometryCollection","geometries":[]},"places":{"type":"GeometryCollection","geometries":[{"type":"Point","properties":{"old_name:fr":"Koenigsberg","name:pt":"Kaliningrado","int_name":"Kaliningrad","name:ka":"\u10d9\u10d0\u10da\u10d8\u10dc\u10d8\u10dc\u10d2\u10e0\u10d0\u10d3\u10d8","name:ko":"\uce7c\ub9ac\ub2cc\uadf8\ub77c\ub4dc","name:ar":"\u0643\u0627\u0644\u064a\u0646\u064a\u0646\u063a\u0631\u0627\u062f","name:cs":"Kaliningrad","old_name:zh":"\u54e5\u5c3c\u65af\u5821","min_zoom":8.0,"name:lv":"Ka\u013ci\u0146ingrada","name:pl":"Kr\u00f3lewiec","name:de":"Kaliningrad","id":27048976,"name:fa":"\u06a9\u0627\u0644\u06cc\u0646\u06cc\u0646\u06af\u0631\u0627\u062f","old_name:pl":"Kr\u00f3lewiec","kind_detail":"city","old_name:ru":"\u041a\u0451\u043d\u0438\u0433\u0441\u0431\u0435\u0440\u0433;\u041a\u043e\u0440\u043e\u043b\u0435\u0432\u0435\u0446","old_name:de":"K\u00f6nigsberg","source":"openstreetmap.org","name:fr":"Kaliningrad","old_name:cs":"Kr\u00e1lovec","name:zh":"\u52a0\u91cc\u5be7\u683c\u52d2","name:hy":"\u053f\u0561\u056c\u056b\u0576\u056b\u0576\u0563\u0580\u0561\u0564","admin_level":"6","name:sl":"Kaliningrad","name:nl":"Kaliningrad","name:ja":"\u30ab\u30ea\u30fc\u30cb\u30f3\u30b0\u30e9\u30fc\u30c9","name:lt":"Kaliningradas","kind":"locality","name:la":"Calininopolis","name:sk":"Kaliningrad","old_name:en":"Konigsberg","name:uk":"\u041a\u0430\u043b\u0456\u043d\u0456\u043d\u0433\u0440\u0430\u0434","old_name":"\u041a\u0451\u043d\u0438\u0433\u0441\u0431\u0435\u0440\u0433;\u041a\u043e\u0440\u043e\u043b\u0435\u0432\u0435\u0446","name:be":"\u041a\u0430\u043b\u0456\u043d\u0456\u043d\u0433\u0440\u0430\u0434","name:hu":"Kalinyingr\u00e1d","name:hr":"Kalinjingrad","name:sr":"\u041a\u0430\u043b\u0438\u045a\u0438\u043d\u0433\u0440\u0430\u0434","population":453461,"old_name:la":"Regiomonte","name:eo":"Kaliningrado","name:en":"Kaliningrad","name":"\u041a\u0430\u043b\u0438\u043d\u0438\u043d\u0433\u0440\u0430\u0434","old_name:lv":"K\u0113nigsberga","name:ku":"Kaliningrad","old_name:lt":"Karaliau\u010dius","old_name:nl":"Koningsbergen","old_name:eo":"Kenigsbergo","name:es":"Kaliningrado"},"coordinates":[2397,2734]},{"type":"Point","properties":{"name:sl":"Baltijsk","name:lt":"Baltijskas","name:eo":"Baltijsk","name:io":"Baltiysk","min_zoom":8.0,"name:uk":"\u0411\u0430\u043b\u0442\u0456\u0439\u0441\u044c\u043a","old_name":"\u041f\u0438\u043b\u0430\u0443","name:pl":"Ba\u0142tijsk","id":27048978,"population":33095,"kind":"locality","name:en":"Baltiysk","old_name:de":"Pillau","name":"\u0411\u0430\u043b\u0442\u0438\u0439\u0441\u043a","old_name:pl":"Pi\u0142awa","kind_detail":"town","name:de":"Baltijsk (Pillau)","source":"openstreetmap.org","old_name:lt":"Piliava"},"coordinates":[651,2477]},{"type":"Point","properties":{"kind":"locality","name":"Bartoszyce","name:lt":"Bar\u0161tynas","kind_detail":"town","name:de":"Bartenstein","source":"openstreetmap.org","min_zoom":8.0,"name:ru":"\u0411\u0430\u0440\u0442\u043e\u0448\u0438\u0446\u0435","id":31527468,"population":24552},"coordinates":[3282,452]},{"type":"Point","properties":{"name:sl":"Svetli","name:lv":"Svetlija","name:lt":"Svetlas","min_zoom":8.0,"old_name":"\u0426\u0438\u043c\u043c\u0435\u0440\u0431\u0443\u0434\u0435","name:pl":"Swiet\u0142yj","id":60237889,"population":21849,"kind":"locality","old_name:de":"Zimmerbude","name":"\u0421\u0432\u0435\u0442\u043b\u044b\u0439","old_name:pl":"Buda","kind_detail":"town","name:de":"Swetly (Zimmerbude)","source":"openstreetmap.org","old_name:lt":"Cimerb\u016bd\u0117","old_name:lv":"Cimmerb\u016bde"},"coordinates":[1292,2567]},{"type":"Point","properties":{"kind":"locality","name":"Braniewo","name:lt":"Pr\u016bsa","kind_detail":"town","name:de":"Braunsberg","source":"openstreetmap.org","min_zoom":8.0,"name:ru":"\u0411\u0440\u0430\u043d\u0435\u0432\u043e","id":31532496,"population":17385},"coordinates":[396,1100]},{"type":"Point","properties":{"name:sl":"Zelenogradsk","name:lt":"Zelenogradskas","name:eo":"Zelenogradsk","min_zoom":8.0,"int_name":"Selenogradsk","old_name":"\u041a\u0440\u0430\u043d\u0446","name:pl":"Zielenogradsk","id":60237699,"population":14308,"kind":"locality","name:en":"Zelenogradsk","old_name:de":"Cranz","name":"\u0417\u0435\u043b\u0435\u043d\u043e\u0433\u0440\u0430\u0434\u0441\u043a","old_name:pl":"Koronowo, Kranc","kind_detail":"town","name:de":"Selenogradsk (Cranz)","source":"openstreetmap.org","old_name:lt":"Krantas","name:et":"Zelenogradsk"},"coordinates":[2294,4008]},{"type":"Point","properties":{"name:sl":"Gvardejsk","name:lt":"Gvardeiskas","name:eo":"Gvardejsk","min_zoom":8.0,"name:it":"Gvardejsk","name:sv":"Gvardejsk","name:pl":"Gwardiejsk","id":1681538643,"population":13321,"kind":"locality","name:en":"Gvardeysk","old_name:de":"Tapiau","name":"\u0413\u0432\u0430\u0440\u0434\u0435\u0439\u0441\u043a","old_name:pl":"Tapiawa","kind_detail":"town","name:de":"Gwardeisk","source":"openstreetmap.org","name:fr":"Gvarde\u00efsk","old_name:lt":"Tepliuva","name:fi":"Gvardeisk"},"coordinates":[4032,2439]},{"type":"Point","properties":{"name:lv":"Svetlogorska","name:lt":"Svetlogorskas","min_zoom":8.0,"name:uk":"\u0421\u0432\u0454\u0442\u043b\u043e\u0433\u043e\u0440\u0441\u044c\u043a","old_name":"\u0420\u0430\u0443\u0448\u0435\u043d","name:pl":"Swiet\u0142ogorsk","id":394996639,"population":12014,"kind":"locality","name:en":"Svetlogorsk","old_name:de":"Rauschen","name":"\u0421\u0432\u0435\u0442\u043b\u043e\u0433\u043e\u0440\u0441\u043a","old_name:pl":"Ruszowice","kind_detail":"town","name:de":"Swetlogorsk","source":"openstreetmap.org","old_name:lt":"Rau\u0161iai","old_name:lv":"Rau\u0161ene","name:fi":"Svetlogorsk"},"coordinates":[1361,3915]},{"type":"Point","properties":{"name:lt":"Pionerskis","min_zoom":8.0,"name:uk":"\u041f\u0456\u043e\u043d\u0435\u0440\u0441\u044c\u043a\u0438\u0439","old_name":"\u041d\u043e\u0439\u043a\u0443\u0440\u0435\u043d","name:pl":"Pionierskij","id":261008814,"population":11475,"kind":"locality","name:en":"Pionersky","old_name:de":"Neukuhren","name":"\u041f\u0438\u043e\u043d\u0435\u0440\u0441\u043a\u0438\u0439","old_name:pl":"Kurowo","kind_detail":"town","name:de":"Pionerski","source":"openstreetmap.org","old_name:lt":"Naujieji Kur\u0161iai"},"coordinates":[1568,3948]},{"type":"Point","properties":{"name:sl":"Mamonovo","name:lt":"Mamonovas","min_zoom":8.0,"int_name":"Mamonovo","old_name":"\u0425\u0430\u0439\u043b\u0438\u0433\u0435\u043d\u0431\u0430\u0439\u043b\u044c","name:pl":"Mamonowo","id":60238036,"population":8075,"kind":"locality","name:en":"Mamonovo","old_name:de":"Heiligenbeil","name":"\u041c\u0430\u043c\u043e\u043d\u043e\u0432\u043e","old_name:pl":"\u015awi\u0119tomiejsce \u015awi\u0119ta Siekierka","kind_detail":"town","name:de":"Heiligenbeil","source":"openstreetmap.org","old_name:lt":"\u0160ventapil\u0117"},"coordinates":[740,1513]},{"type":"Point","properties":{"name:sl":"Bagratjonovsk","name:lt":"Bagrationovskas","min_zoom":8.0,"name:uk":"\u0411\u0430\u0433\u0440\u0430\u0442\u0456\u043e\u043d\u0456\u0432\u0441\u044c\u043a","old_name":"\u041f\u0440\u0435\u0439\u0441\u0438\u0448-\u042d\u0439\u043b\u0430\u0443","name:pl":"Bagrationowsk","id":60238153,"population":6197,"kind":"locality","old_name:de":"Preu\u00dfisch Eylau","name":"\u0411\u0430\u0433\u0440\u0430\u0442\u0438\u043e\u043d\u043e\u0432\u0441\u043a","old_name:pl":"I\u0142awka","kind_detail":"town","name:de":"Bagrationowsk","source":"openstreetmap.org","old_name:lt":"Pr\u016bs\u0173 Eiluva, Ylava"},"coordinates":[2776,1127]},{"type":"Point","properties":{"kind":"locality","name":"G\u00f3rowo I\u0142aweckie","kind_detail":"town","name:de":"Landsberg (Ostpreu\u00dfen)","source":"openstreetmap.org","min_zoom":8.0,"name:ru":"\u0413\u0443\u0440\u043e\u0432\u043e-\u0418\u043b\u0430\u0432\u0435\u0446\u043a\u0435","id":31524682,"population":4264},"coordinates":[2342,612]},{"type":"Point","properties":{"int_name":"Pravdinsk","name:lt":"Pravdinskas","min_zoom":8.0,"old_name":"Friedland","name:pl":"Prawdinsk","id":767068249,"population":4241,"kind":"locality","name:en":"Pravdinsk","old_name:de":"Friedland in Ostpreu\u00dfen","name":"\u041f\u0440\u0430\u0432\u0434\u0438\u043d\u0441\u043a","old_name:pl":"Frydl\u0105d","kind_detail":"town","old_name:ru":"\u0424\u0440\u0438\u0434\u043b\u0430\u043d\u0434","name:de":"Prawdinsk","source":"openstreetmap.org","old_name:lt":"Bart\u0173 Romuva","name:et":"Pravdinsk"},"coordinates":[3864,1431]},{"type":"Point","properties":{"name:sl":"Laduskin","name:lt":"Ladu\u0161kinas","min_zoom":8.0,"old_name":"\u041b\u044e\u0434\u0432\u0438\u0433\u0441\u043e\u0440\u0442","name:pl":"\u0141aduszkin","id":255910496,"population":4068,"kind":"locality","name:en":"Ladushkin","old_name:de":"Ludwigsort","name":"\u041b\u0430\u0434\u0443\u0448\u043a\u0438\u043d","old_name:pl":"Ludwikowo","kind_detail":"town","name:de":"Laduschkin (Ludwigsort)","source":"openstreetmap.org","old_name:lt":"Liudvigsortas","old_name:lv":"Ludvigsorta"},"coordinates":[1415,2054]},{"type":"Point","properties":{"kind":"locality","old_name:de":"Zinten","name":"\u041a\u043e\u0440\u043d\u0435\u0432\u043e","name:lt":"Kornevas","old_name:pl":"Cynty","kind_detail":"town","name:de":"Kornewo","source":"openstreetmap.org","min_zoom":8.0,"old_name:lt":"Cintai","old_name":"\u0426\u0438\u043d\u0442\u0435\u043d","name:pl":"Korniewo","id":599304464,"population":3000},"coordinates":[1767,1424]},{"type":"Point","properties":{"kind":"locality","name":"Pieni\u0119\u017cno","name:lt":"Mal\u0161iakukis","kind_detail":"town","old_name:de":"Mehlsack","source":"openstreetmap.org","min_zoom":8.0,"name:uk":"\u041f\u0435\u043d\u0454\u043d\u0436\u043d\u043e","old_name":"Melzak","name:ru":"\u041f\u0435\u043d\u0435\u043d\u0436\u043d\u043e","id":31521665,"population":2949},"coordinates":[1277,383]},{"type":"Point","properties":{"kind":"locality","name":"S\u0119popol","name:lt":"Sempopolis","kind_detail":"town","name:de":"Schippenbeil","source":"openstreetmap.org","min_zoom":8.0,"name:ru":"\u0421\u0435\u043c\u043f\u043e\u043f\u043e\u043b\u044c","id":31519392,"population":2051},"coordinates":[3866,514]},{"type":"Point","properties":{"kind":"locality","name":"M\u0142ynary","name:lt":"Mlynarai","kind_detail":"town","name:de":"M\u00fchlhausen","source":"openstreetmap.org","min_zoom":8.0,"name:ru":"\u041c\u043b\u044b\u043d\u0430\u0440\u044b","id":31531280,"population":1831},"coordinates":[103,127]}]},"transit":{"type":"GeometryCollection","geometries":[{"type":"LineString","properties":{"source":"openstreetmap.org","kind":"train","sort_rank":275,"ref":"\u044d\u043b. \u041c\u0430\u043c\u043e\u043d\u043e\u0432\u043e - \u041a\u0430\u043b\u0438\u043d\u0438\u043d\u0433\u0440\u0430\u0434","min_zoom":6.0,"osm_relation":true,"id":-301662},"arcs":[2]},{"type":"MultiLineString","properties":{"source":"openstreetmap.org","kind":"train","name":"\u044d\u043b. \u041a\u0430\u043b\u0438\u043d\u0438\u043d\u0433\u0440\u0430\u0434 - \u0421\u043e\u0432\u0435\u0442\u0441\u043a","sort_rank":275,"ref":"\u044d\u043b. \u041a\u0430\u043b\u0438\u043d\u0438\u043d\u0433\u0440\u0430\u0434 - \u0421\u043e\u0432\u0435\u0442\u0441\u043a","min_zoom":6.0,"osm_relation":true},"arcs":[[3],[4]]},{"type":"LineString","properties":{"kind":"train","name":"Linia kolejowa nr 221 Gutkowo - Braniewo","sort_rank":275,"source":"openstreetmap.org","min_zoom":6.0,"operator":"PKP Polskie Linie Kolejowe S.A.","ref":"221","osm_relation":true,"network":"PKP"},"arcs":[5]},{"type":"LineString","properties":{"source":"openstreetmap.org","kind":"train","sort_rank":275,"ref":"\u044d\u043b. \u041a\u0430\u043b\u0438\u043d\u0438\u043d\u0433\u0440\u0430\u0434 - \u0421\u0432\u0435\u0442\u043b\u043e\u0433\u043e\u0440\u0441\u043a","min_zoom":6.0,"osm_relation":true,"id":-301675},"arcs":[6]},{"type":"MultiLineString","properties":{"kind":"train","name":"\u041a\u0430\u043b\u0438\u043d\u0438\u043d\u0433\u0440\u0430\u0434 - \u0411\u0430\u043b\u0442\u0438\u0439\u0441\u043a","name:lt":"Karaliau\u010dius - Baltijskas","sort_rank":275,"source":"openstreetmap.org","min_zoom":6.0,"name:pl":"Linia Kaliningrad - Ba\u0142tijsk","ref":"\u041a\u0430\u043b\u0438\u043d\u0438\u043d\u0433\u0440\u0430\u0434 - \u0411\u0430\u043b\u0442\u0438\u0439\u0441\u043a","osm_relation":true},"arcs":[[7],[8],[9]]},{"type":"LineString","properties":{"kind":"train","name":"\u0421\u0430\u043d\u043a\u0442-\u041f\u0435\u0442\u0435\u0440\u0431\u0443\u0440\u0433 - \u041a\u0430\u043b\u0438\u043d\u0438\u043d\u0433\u0440\u0430\u0434","name:lt":"Sankt Peterburgas - Karaliau\u010dius","sort_rank":275,"name:de":"Sankt Petersburg - Kaliningrad","source":"openstreetmap.org","min_zoom":6.0,"ref":"\u0421\u0430\u043d\u043a\u0442-\u041f\u0435\u0442\u0435\u0440\u0431\u0443\u0440\u0433 - \u041a\u0430\u043b\u0438\u043d\u0438\u043d\u0433\u0440\u0430\u0434","osm_relation":true},"arcs":[10]},{"type":"LineString","properties":{"kind":"train","name":"\u041a\u0430\u043b\u0438\u043d\u0438\u043d\u0433\u0440\u0430\u0434 - \u0425\u0430\u0440\u044c\u043a\u043e\u0432","name:lt":"Karaliau\u010dius - Charkovas","sort_rank":275,"name:de":"Kaliningrad - Charkiw","source":"openstreetmap.org","min_zoom":6.0,"ref":"\u041a\u0430\u043b\u0438\u043d\u0438\u043d\u0433\u0440\u0430\u0434 - \u0425\u0430\u0440\u044c\u043a\u043e\u0432","osm_relation":true},"arcs":[11]},{"type":"LineString","properties":{"kind":"train","name":"\u041a\u0430\u043b\u0438\u043d\u0438\u043d\u0433\u0440\u0430\u0434 - \u0410\u0434\u043b\u0435\u0440","name:lt":"Karaliau\u010dius - Adleris","sort_rank":275,"name:de":"Kaliningrad - Adler","source":"openstreetmap.org","min_zoom":6.0,"ref":"\u041a\u0430\u043b\u0438\u043d\u0438\u043d\u0433\u0440\u0430\u0434 - \u0410\u0434\u043b\u0435\u0440","osm_relation":true},"arcs":[12]},{"type":"MultiLineString","properties":{"source":"openstreetmap.org","kind":"train","sort_rank":275,"ref":"\u044d\u043b. \u041a\u0430\u043b\u0438\u043d\u0438\u043d\u0433\u0440\u0430\u0434 - \u0417\u0435\u043b\u0435\u043d\u043e\u0433\u0440\u0430\u0434\u0441\u043a - \u0421\u0432\u0435\u0442\u043b\u043e\u0433\u043e\u0440\u0441\u043a","min_zoom":6.0,"osm_relation":true},"arcs":[[13],[14],[15]]},{"type":"LineString","properties":{"kind":"train","name:en":"Moscow - Kaliningrad","name":"\u041c\u043e\u0441\u043a\u0432\u0430 - \u041a\u0430\u043b\u0438\u043d\u0438\u043d\u0433\u0440\u0430\u0434","name:lt":"Maskva - Karaliau\u010dius","sort_rank":275,"name:de":"Moskau - Kaliningrad","source":"openstreetmap.org","min_zoom":6.0,"ref":"\u041c\u043e\u0441\u043a\u0432\u0430 - \u041a\u0430\u043b\u0438\u043d\u0438\u043d\u0433\u0440\u0430\u0434","osm_relation":true},"arcs":[16]}]},"pois":{"type":"GeometryCollection","geometries":[{"type":"Point","properties":{"kind":"military","name":"\u041f\u043e\u043b\u0438\u0433\u043e\u043d \u041f\u0430\u0432\u0435\u043d\u043a\u043e\u0432\u043e","name:lt":"Pavenkovo poligonas","area":667120000,"name:de":"Truppen\u00fcbungsplatz Pawenkowo","source":"openstreetmap.org","min_zoom":8.0,"tier":3,"name:pl":"Poligon wojskowy Pawienkowo","id":-3620923,"osm_relation":true},"coordinates":[3775,1858]},{"type":"Point","properties":{"source":"openstreetmap.org","kind":"military","name":"\u0410\u0440\u0441\u0435\u043d\u0430\u043b","area":14688800,"tier":3,"min_zoom":8.0,"id":157912168},"coordinates":[1140,2553]}]},"boundaries":{"type":"GeometryCollection","geometries":[{"type":"LineString","properties":{"name:right:yo":"Polandi","name:left:ch":"Russia","name:right:yi":"\u05e4\u05d5\u05d9\u05dc\u05df","name:left:la":"Russia","name:right:qu":"Pulunya","name:left:pl":"Rosja","name:left:li":"Rusland","name:left:vi":"Li\u00ean bang Nga","name:left:ik":"Russia","name:left:sw":"Shirikisho la Urusi","name:left:kg":"Rusia","name:left:ka":"\u10e0\u10e3\u10e1\u10d4\u10d7\u10d8","name:left:km":"\u179a\u17bb\u179f\u17d2\u179f\u17ca\u17b8","name:left:kl":"Ruslandi","name:left:ko":"\ub7ec\uc2dc\uc544","name:left:kn":"\u0cb0\u0cb7\u0ccd\u0caf\u0cbe","name:left:ki":"Russia","name:left:ro":"Rusia","name:left:kk":"\u0420\u0435\u0441\u0435\u0439","name:left:rm":"Russia","name:left:ku":"R\u00fbsya","name:left:kw":"Russi","name:left:kv":"\u0420\u043e\u0447\u043c\u0443","name:right:rn":"Polonia","name:right:ro":"Polonia","name:left:ks":"\u0631\u0648\u0657\u0633","name:right:rm":"Pologna","name:right:ig":"Poland","name:right:ie":"Polonia","name:right:id":"Polandia","name:left:ky":"\u041e\u0440\u0443\u0441\u0438\u044f","name:right:ia":"Polonia","name:right:bi":"Poland","name:right:bn":"\u09aa\u09cb\u09b2\u09cd\u09af\u09be\u09a8\u09cd\u09a1","name:right:bo":"\u0f55\u0f7c\u0f0b\u0f63\u0f53\u0f0d","name:left:sl":"Rusija","name:right:ba":"\u041f\u043e\u043b\u044c\u0448\u0430","name:right:bg":"\u041f\u043e\u043b\u0448\u0430","name:right:be":"\u041f\u043e\u043b\u044c\u0448\u0447\u0430","name:right:br":"Polonia","name:left:lt":"Rusija","name:right:nn":"Polen","name:right:no":"Polen","name:right:nl":"Polen","name:right:wa":"Pologne","name:left:lv":"Krievija","name:right:wo":"Polo\u00f1","name:right:ne":"\u092a\u094b\u0932\u094d\u092f\u093e\u0923\u094d\u0921","name:right:na":"Poran","name:right:gv":"Yn Pholynn","name:left:sd":"\u0631\u0648\u0633","name:right:nv":"P\u00f3olish Dine\u02bc\u00e9 Bik\u00e9yah","name:left:mg":"Rosia","kind_detail":"2","name:left:tr":"Rusya Federasyonu","name:right:gu":"\u0aaa\u0acb\u0ab2\u0ac7\u0a82\u0aa1","name:left:ty":"R\u016btia","name:right:ps":"\u067e\u0648\u0644\u0646\u0689","name:right:pt":"Pol\u00f3nia","name:left:mk":"\u0420\u0443\u0441\u0438\u0458\u0430","name:left:mi":"R\u016bhia","name:left:ts":"Russia","name:left:tt":"\u0420\u0443\u0441\u0438\u044f","name:left:mn":"\u041e\u0440\u043e\u0441\u044b\u043d \u0425\u043e\u043b\u0431\u043e\u043e\u043d\u044b \u0423\u043b\u0441","name:left:tw":"Russia","name:left:th":"\u0e1b\u0e23\u0e30\u0e40\u0e17\u0e28\u0e23\u0e31\u0e2a\u0e40\u0e0b\u0e35\u0e22","name:left:mr":"\u0930\u0936\u093f\u092f\u093e","name:left:tk":"Russi\u00fda","name:left:tl":"Pederasyong Ruso","name:left:to":"L\u016bsia","name:right:gl":"Polonia","name:left:my":"\u101b\u102f\u101b\u103e\u102c\u1038\u1014\u102d\u102f\u1004\u103a\u1004\u1036","name:right:gn":"Polo\u00f1a","name:left:te":"\u0c30\u0c37\u0c4d\u0c2f\u0c3e","name:left:tg":"\u0420\u0443\u0441\u0438\u044f","name:left:ms":"Rusia","name:left:ti":"\u122b\u123b","name:right:tr":"Polonya","name:left:da":"Rusland","name:left:de":"Russland","name:left:dz":"\u0f62\u0f0b\u0f64\u0f72\u0f0b\u0f61\u0f71\u0f53\u0f0b\u0f55\u0f7a\u0f0b\u0f4c\u0f72\u0f0b\u0f62\u0f7a\u0f0b\u0f64\u0f71\u0f53","name:right:ga":"An Pholainn","name:left:dv":"\u0783\u07ab\u0790\u07a9\u0788\u07a8\u078d\u07a7\u078c\u07b0","name:right:lg":"Bupoolo","name:right:ug":"\u067e\u0648\u0644\u0634\u0627","name:left:hi":"\u0930\u0942\u0938","name:right:lb":"Polen","name:left:nn":"Russland","name:right:uk":"\u041f\u043e\u043b\u044c\u0449\u0430","name:left:he":"\u05e8\u05d5\u05e1\u05d9\u05d4","name:right:ln":"Poloni","name:left:mt":"Russja","name:left:ha":"Rasha","name:right:lt":"Lenkija","name:right:ur":"\u067e\u0648\u0644\u06cc\u0646\u0688","name:right:lv":"Polija","name:left:hy":"\u054c\u0578\u0582\u057d\u0561\u057d\u057f\u0561\u0576","name:left:ta":"\u0b89\u0bb0\u0bc1\u0b9a\u0bbf\u0baf\u0bbe","name:left:ht":"Risi","name:left:hu":"Oroszorsz\u00e1g","name:left:hr":"Ruska Federacija","sort_rank":262,"name:right:gd":"A' Ph\u00f2lainn","name:right:os":"\u041f\u043e\u043b\u044c\u0448\u00e6","name:right:es":"Polonia","name:right:sr":"\u041f\u043e\u0459\u0441\u043a\u0430","name:right:eu":"Polonia","name:right:et":"Poola","name:left:os":"\u0423\u00e6\u0440\u00e6\u0441\u0435","name:left:or":"\u0b0b\u0b37\u0b3f\u0b06","name:left:ve":"Rashia","name:left:om":"Raashiyaa","name:right:pa":"\u0a2a\u0a4b\u0a32\u0a48\u0a02\u0a21","name:right:ee":"Poland","name:left:vo":"Rus\u00e4n","name:left:oc":"Russia","name:right:eo":"Polujo","name:right:en":"Poland","name:right:el":"\u03a0\u03bf\u03bb\u03c9\u03bd\u03af\u03b1","name:left:ff":"Roosiya","name:left:fa":"\u0631\u0648\u0633\u06cc\u0647","name:left:fo":"Russland","name:right:sk":"Po\u013esko","name:left:fi":"Ven\u00e4j\u00e4","name:left:fr":"F\u00e9d\u00e9ration de Russie","name:left:cs":"Rusko","name:right:jv":"Polandia","name:left:fy":"Rusl\u00e2n","name:right:ja":"\u30dd\u30fc\u30e9\u30f3\u30c9","name:right:sq":"Polonia","name:right:ss":"IPholandi","name:left:ja":"\u30ed\u30b7\u30a2","name:right:su":"Polandia","name:right:st":"Poland","name:right:sw":"Poland","name:right:sv":"Polen","name:right:si":"\u0db4\u0ddd\u0dbd\u0db1\u0dca\u0dad\u0dba","name:right:sh":"Poljska","name:left:qu":"Rusiya","name:right:sm":"Polagi","name:right:sl":"Poljska","name:right:so":"Boland","name:right:sa":"\u092a\u094b\u0932\u0948\u0902\u0921","name:right:sc":"Polonia","name:left:jv":"Rusia","id":-60189,"name:right:sg":"P\u00f6l\u00f4ni","name:right:co":"Polonia","name:right:ca":"Pol\u00f2nia","name:right:ce":"\u041f\u043e\u043b\u044c\u0448\u0430","name:right:cy":"Gwlad Pwyl","name:right:zh-yue":"\u6ce2\u862d","name:right:cs":"Polsko","name:right":"Polska","name:right:cu":"\u041f\u043e\u043b\u0484\u044c\u0441\u043a\u0430","name:right:iu":"\u1433\u14da\u14d0\u1466","name:right:cv":"\u041f\u043e\u043b\u044c\u0448\u0430","name:left:av":"\u0420\u043e\u0441\u0441\u0438\u044f\u043b\u044a\u0443\u043b \u0424\u0435\u0434\u0435\u0440\u0430\u0446\u0438\u044f","name:right:it":"Polonia","name:left:as":"\u09f0\u09c1\u09b6\u09bf\u09af\u09be","name:left:ar":"\u0631\u0648\u0633\u064a\u0627","name:right:is":"P\u00f3lland","name:left:az":"Rusiya","name:left:ay":"Rusiya","name:right:rw":"Polonye","name:left:af":"Rusland","name:left:ab":"\u0423\u0440\u044b\u0441\u0442\u04d9\u044b\u043b\u0430","name:left:an":"Rusia","name:left:am":"\u1229\u1232\u12eb","name:right:ru":"\u041f\u043e\u043b\u044c\u0448\u0430","name:left:ak":"Russia","name:right:io":"Polonia","name:left:xh":"IRashiya","name:left:zh-yue":"\u4fc4\u7f85\u65af","name:left:rw":"Uburusiya","name:right:hy":"\u053c\u0565\u0570\u0561\u057d\u057f\u0561\u0576","name:left:lb":"Russland","alt_name:left:eo":"Rusio;Ruslando","name:left:lg":"Rwasha","name:left:su":"Rusia","name:left:st":"Russia","name:right:hr":"Poljska","name:left:sv":"Ryssland","name:left:sq":"Rusia","name:right:hu":"Lengyelorsz\u00e1g","name:left:ss":"IRashiya","name:left:sr":"\u0420\u0443\u0441\u0438\u0458\u0430","name:left:sm":"Lusia","name:right:hi":"\u092a\u094b\u0932\u0948\u0902\u0921","name:left:so":"Ruushka","name:left:sn":"Russia","name:left:si":"\u0dbb\u0dd4\u0dc3\u0dd2\u0dba\u0dcf\u0dc0","name:left:sh":"Rusija","name:left:sk":"Rusko","name:left:se":"Ruo\u0161\u0161a","name:right:ha":"Poland","name:left:sg":"Rus\u00efi","name:right:he":"\u05e4\u05d5\u05dc\u05d9\u05df","name:left:sc":"R\u00f9ssia","name:right:la":"Polonia","name:right:af":"Pole","name:left:co":"Russia","name:right:ab":"\u041f\u043e\u043b\u0448\u0430","name:left:ce":"\u0420\u043e\u0441\u0441\u0438","name:right:an":"Polonia","name:right:am":"\u1356\u120b\u1295\u12f5","name:left:ca":"R\u00fassia","source":"openstreetmap.org","name:left:cy":"Rwsia","name:right:ar":"\u0628\u0648\u0644\u0646\u062f\u0627","name:left:cu":"\u0420\u0461\u0441\u0457\ua657","name:left:cv":"\u0420\u0430\u00e7\u00e7\u0435\u0439 \u041f\u0430\u0442\u0448\u0430\u043b\u0103\u0445\u0115","name:right:az":"Pol\u015fa","name:right:ay":"Pulu\u00f1a","name:right:ak":"Poland","name:right:li":"Pole","name":"\u0420\u043e\u0441\u0441\u0438\u044f - Polska","name:right:zu":"IPolandi","name:left:zu":"IRashiya","name:left:zh":"\u4fc4\u7f57\u65af","name:right:zh":"\u6ce2\u5170","name:left:za":"Ezlozswh Lienzbangh","official_name:left":"\u0420\u043e\u0441\u0441\u0438\u0439\u0441\u043a\u0430\u044f \u0424\u0435\u0434\u0435\u0440\u0430\u0446\u0438\u044f","name:left:uz":"Rossiya Federatsiyasi","name:right:fr":"Pologne","name:left:ps":"\u0631\u0648\u0633\u06cc\u0647","name:left:ny":"Russia","name:left:nv":"Bi\u02bc\u00e9\u00e9\u02bc \u0141ich\u00ed\u00ed\u02bc\u00ed Bik\u00e9yah","name:left:ur":"\u0631\u0648\u0633","id:right":-49715,"name:left:uk":"\u0420\u043e\u0441\u0456\u044f","name:left:no":"Rusland","name:left:nl":"Russische Federatie","alt_name:right:eo":"Pollando;Polio","name:right:fa":"\u0644\u0647\u0633\u062a\u0627\u0646","name:right:fo":"P\u00f3lland","name:left:ne":"\u0930\u0941\u0938","name:left:ug":"\u0631\u0648\u0633\u0649\u064a\u06d5","name:right:fi":"Puola","name:left:ml":"\u0d31\u0d37\u0d4d\u0d2f","name:left:eo":"Rusujo","name:left:en":"Russia","name:left:el":"\u03a1\u03c9\u03c3\u03af\u03b1","name:left:ee":"Russia","name:right:tt":"\u041f\u043e\u043b\u044c\u0448\u0430","name:left:es":"Rusia","name:left:ie":"Russia","name:left:eu":"Errusia","name:left:et":"Venemaa","name:right:oc":"Polonha","name:left:ia":"Russia","name:right:bs":"Poljska","short_name:right":"RP","name:right:uz":"Polsha","osm_relation":true,"name:right:or":"\u0b2a\u0b4b\u0b32\u0b3e\u0b23\u0b4d\u0b21","name:left:pt":"R\u00fassia","name:right:ku":"Polonya","old_name:left":"\u0420\u0443\u0441\u044c;\u0417\u043e\u043b\u043e\u0442\u0430\u044f \u041e\u0440\u0434\u0430;\u0420\u0443\u0441\u0441\u043a\u043e\u0435 \u0426\u0430\u0440\u0441\u0442\u0432\u043e;\u0420\u043e\u0441\u0441\u0438\u0439\u0441\u043a\u0430\u044f \u0418\u043c\u043f\u0435\u0440\u0438\u044f;\u0421\u043e\u044e\u0437 \u0421\u043e\u0432\u0435\u0442\u0441\u043a\u0438\u0445 \u0421\u043e\u0446\u0438\u0430\u043b\u0438\u0441\u0442\u0438\u0447\u0435\u0441\u043a\u0438\u0445 \u0420\u0435\u0441\u043f\u0443\u0431\u043b\u0438\u043a","old_name:left:ru":"\u0420\u0443\u0441\u044c;\u0417\u043e\u043b\u043e\u0442\u0430\u044f \u041e\u0440\u0434\u0430;\u0420\u0443\u0441\u0441\u043a\u043e\u0435 \u0426\u0430\u0440\u0441\u0442\u0432\u043e;\u0420\u043e\u0441\u0441\u0438\u0439\u0441\u043a\u0430\u044f \u0418\u043c\u043f\u0435\u0440\u0438\u044f;\u0421\u043e\u044e\u0437 \u0421\u043e\u0432\u0435\u0442\u0441\u043a\u0438\u0445 \u0421\u043e\u0446\u0438\u0430\u043b\u0438\u0441\u0442\u0438\u0447\u0435\u0441\u043a\u0438\u0445 \u0420\u0435\u0441\u043f\u0443\u0431\u043b\u0438\u043a","name:right:kv":"\u041f\u043e\u043b\u044c\u0448\u0430","name:left:wa":"Feder\u00e5cion d' R\u00fbsseye","min_zoom":8.0,"old_name:left:pl":"Zwi\u0105zek Socjalistycznych Republik Radzieckich","name:left:zh-min-nan":"L\u014d\u0358-se-a","name:left:ln":"Rus\u00ed","name:left:wo":"Federaasio\u014b bu Riisi","name:left:ga":"An R\u00fais","short_name:left":"\u0420\u0424","name:left:it":"Russia","name:left:gd":"An Ruis","name:left:gl":"Rusia","name:left:gn":"Rrusia","name:left:gu":"\u0ab0\u0ab6\u0abf\u0aaf\u0abe","name:left:gv":"Yn Roosh","name:left:lo":"\u0ea5\u0eb1\u0e94\u0ec0\u0e8a\u0eb1\u0ebd","name:left":"\u0420\u043e\u0441\u0441\u0438\u044f","name:right:mk":"\u041f\u043e\u043b\u0441\u043a\u0430","name:right:mi":"P\u014drana","name:right:mn":"\u041f\u043e\u043b\u044c\u0448","name:right:ml":"\u0d2a\u0d4b\u0d33\u0d23\u0d4d\u0d1f\u0d4d","name:right:vo":"Pol\u00e4n","name:right:mg":"Polonia","name:right:vi":"Ba Lan","official_name:right":"Rzeczpospolita Polska","name:right:my":"\u1015\u102d\u102f\u101c\u1014\u103a\u1014\u102d\u102f\u1004\u103a\u1004\u1036","name:right:ms":"Poland","name:right:mr":"\u092a\u094b\u0932\u0902\u0921","name:right:fy":"Poalen","name:right:mt":"Polonja","name:right:ff":"Poloonya","kind":"country","name:left:br":"Rusia","name:left:bs":"Rusija","int_name:left":"Russia","name:left:ba":"\u0420\u04d9\u0441\u04d9\u0439","name:left:bg":"\u0420\u0443\u0441\u0438\u044f","name:left:be":"\u0420\u0430\u0441\u0456\u0439\u0441\u043a\u0430\u044f \u0424\u0435\u0434\u044d\u0440\u0430\u0446\u044b\u044f","name:left:bi":"Rusia","name:left:bn":"\u09b0\u09be\u09b6\u09bf\u09af\u09bc\u09be","name:left:bo":"\u0f68\u0f74\u0f0b\u0f62\u0f74\u0f0b\u0f66\u0f74\u0f0d","name:left:bm":"Risila","name:left:yo":"R\u1ecd\u0301s\u00ed\u00e0","name:left:yi":"\u05e8\u05d5\u05e1\u05dc\u05d0\u05e0\u05d3","id:left":-60189,"name:left:na":"Ratsiya","name:right:ka":"\u10de\u10dd\u10da\u10dd\u10dc\u10d4\u10d7\u10d8","name:left:io":"Rusia","name:left:pa":"\u0a30\u0a42\u0a38","name:right:kg":"Pologne","name:left:ig":"Mpaghara Russia","name:right:kk":"\u041f\u043e\u043b\u044c\u0448\u0430","name:left:id":"Rusia","name:right:km":"\u1794\u17d2\u179a\u1791\u17c1\u179f\u1794\u17c9\u17bc\u17a1\u17bc\u1789","name:right:kl":"Poleni","name:right:ko":"\ud3f4\ub780\ub4dc","name:right:kn":"\u0caa\u0ccb\u0cb2\u0cc6\u0c82\u0ca1\u0ccd","name:right:tl":"Polonya","name:right:th":"\u0e1b\u0e23\u0e30\u0e40\u0e17\u0e28\u0e42\u0e1b\u0e41\u0e25\u0e19\u0e14\u0e4c","name:right:kw":"Poloni","name:right:tk":"Pol\u015fa","name:right:ky":"\u041f\u043e\u043b\u044c\u0448\u0430","name:right:te":"\u0c2a\u0c4b\u0c32\u0c3e\u0c02\u0c21\u0c4d","name:left:iu":"\u1405\u14db\u14f4","name:right:tg":"\u041b\u0430\u04b3\u0438\u0441\u0442\u043e\u043d","name:left:is":"R\u00fassland","name:right:ta":"\u0baa\u0bcb\u0bb2\u0ba8\u0bcd\u0ba4\u0bc1","name:right:de":"Polen","name:right:da":"Polen","name:left:rn":"Uburusiya","name:right:dv":"\u0795\u07ae\u078d\u07ac\u0782\u07b0\u0791\u07aa","name:right:ht":"Pol\u00f2y"},"arcs":[0]},{"type":"LineString","properties":{"name:right:hy":"\u053f\u0561\u056c\u056b\u0576\u056b\u0576\u0563\u0580\u0561\u0564\u056b \u0574\u0561\u0580\u0566","alt_name:left:en":"Warmian-Masurian Province","name:right:yi":"\u05e7\u05d0\u05dc\u05d9\u05e0\u05d9\u05e0\u05d2\u05e8\u05d0\u05d3 \u05d0\u05d1\u05dc\u05d0\u05e1\u05d8","name:right:uk":"\u041a\u0430\u043b\u0456\u043d\u0456\u043d\u0433\u0440\u0430\u0434\u0441\u044c\u043a\u0430 \u043e\u0431\u043b\u0430\u0441\u0442\u044c","name:right:hu":"Kalinyingr\u00e1di ter\u00fclet","name:right:lt":"Kaliningrado sritis","name:left:sl":"Varminsko-Mazursko vojvodstvo","min_zoom":8.0,"name:left:lt":"Varmijos Moz\u016br\u0173 vaivadija","alt_name:left:es":"Voivodato de Warmia y Mazuria","name:right:uz":"Kaliningrad viloyati","name:right:he":"\u05de\u05d7\u05d5\u05d6 \u05e7\u05dc\u05d9\u05e0\u05d9\u05e0\u05d2\u05e8\u05d3","name:left:hr":"Varminsko-mazursko vojvodstvo","short_name:left":"warmi\u0144sko-mazurskie","sort_rank":256,"name:right:sk":"Kaliningradsk\u00e1 oblas\u0165","source":"openstreetmap.org","osm_relation":true,"name:right:az":"Kalininqrad Vilay\u0259ti","name:left:cs":"Varmijsko-mazursk\u00e9 vojvodstv\u00ed","name:left":"wojew\u00f3dztwo warmi\u0144sko-mazurskie","name:left:ja":"\u30f4\u30a1\u30eb\u30df\u30a2\uff1d\u30de\u30ba\u30fc\u30eb\u30a3\u770c","name:right:mn":"\u041a\u0430\u043b\u0438\u043d\u0438\u043d\u0433\u0440\u0430\u0434 \u043c\u0443\u0436","name:right:et":"Kaliningradi oblast","name:right:it":"Oblast' di Kaliningrad","name:right:ro":"Regiunea Kaliningrad","name:left:ru":"\u0412\u0430\u0440\u043c\u0438\u043d\u0441\u043a\u043e-\u041c\u0430\u0437\u0443\u0440\u0441\u043a\u043e\u0435 \u0432\u043e\u0435\u0432\u043e\u0434\u0441\u0442\u0432\u043e","name:right:ms":"Wilayah Kaliningrad","alt_name:right:de":"Kaliningrader Gebiet","name:right:eo":"Kaliningrada provinco","name:right:en":"Kaliningrad","name:right:el":"\u03a0\u03b5\u03c1\u03b9\u03c6\u03ad\u03c1\u03b5\u03b9\u03b1 \u039a\u03b1\u03bb\u03af\u03bd\u03b9\u03bd\u03b3\u03ba\u03c1\u03b1\u03bd\u03c4","kind":"region","name":"wojew\u00f3dztwo warmi\u0144sko-mazurskie - \u041a\u0430\u043b\u0438\u043d\u0438\u043d\u0433\u0440\u0430\u0434\u0441\u043a\u0430\u044f \u043e\u0431\u043b\u0430\u0441\u0442\u044c","name:right:lv":"Ka\u013ci\u0146ingradas apgabals","name:right:be":"\u041a\u0430\u043b\u0456\u043d\u0456\u043d\u0433\u0440\u0430\u0434\u0441\u043a\u0430\u044f \u0432\u043e\u0431\u043b\u0430\u0441\u0446\u044c","name:left:fr":"Varmie-Mazurie","name:left:da":"Ermlandsk-Masuriske voivodskab","name:right:zh":"\u52a0\u91cc\u5b81\u683c\u52d2\u5dde","name:right:sl":"Kaliningrajska oblast","name:right:nl":"Oblast Kaliningrad","name:right:ja":"\u30ab\u30ea\u30fc\u30cb\u30f3\u30b0\u30e9\u30fc\u30c9\u5dde","loc_name:left":"Warmia i Mazury","name:right:sr":"\u041a\u0430\u043b\u0438\u045a\u0438\u043d\u0433\u0440\u0430\u0434\u0441\u043a\u0430 \u043e\u0431\u043b\u0430\u0441\u0442","id:right":-103906,"name:left:uk":"\u0412\u0430\u0440\u043c\u0456\u043d\u0441\u044c\u043a\u043e-\u041c\u0430\u0437\u0443\u0440\u0441\u044c\u043a\u0435 \u0432\u043e\u0454\u0432\u043e\u0434\u0441\u0442\u0432\u043e","name:right:sh":"Kalinjingradska oblast","name:left:nl":"Woiwodschap Ermland-Mazuri\u00eb","name:left:be":"\u0412\u0430\u0440\u043c\u0456\u043d\u0441\u043a\u0430-\u041c\u0430\u0437\u0443\u0440\u0441\u043a\u0430\u0435 \u0432\u0430\u044f\u0432\u043e\u0434\u0441\u0442\u0432\u0430","name:left:bg":"\u0412\u0430\u0440\u043c\u0438\u043d\u0441\u043a\u043e-\u041c\u0430\u0437\u0443\u0440\u0441\u043a\u043e \u0432\u043e\u0439\u0432\u043e\u0434\u0441\u0442\u0432\u043e","name:left:hu":"Varmia-Maz\u00fariai vajdas\u00e1g","id":-223408,"name:right":"\u041a\u0430\u043b\u0438\u043d\u0438\u043d\u0433\u0440\u0430\u0434\u0441\u043a\u0430\u044f \u043e\u0431\u043b\u0430\u0441\u0442\u044c","name:left:eo":"Varmia-Mazuria Provinco","name:left:en":"Warmian-Masurian Voivodeship","name:right:ca":"Prov\u00edncia de Kaliningrad","kind_detail":"4","name:right:ce":"\u041a\u0430\u043b\u0438\u043d\u0438\u043d\u0433\u0440\u0430\u0434\u0430\u043d \u043e\u0431\u043b\u0430\u0441\u0442\u044c","id:left":-223408,"name:left:es":"Voivodato de Varmia y Masuria","name:right:cs":"Kaliningradsk\u00e1 oblast","name:right:cv":"\u041a\u0430\u043b\u0438\u043d\u0438\u043d\u0433\u0440\u0430\u0434 \u043e\u0431\u043b\u0430\u00e7\u0115","name:right:ka":"\u10d9\u10d0\u10da\u10d8\u10dc\u10d8\u10dc\u10d2\u10e0\u10d0\u10d3\u10d8\u10e1 \u10dd\u10da\u10e5\u10d8","name:right:pt":"Oblast de Kaliningrado","name:right:tt":"\u041a\u0430\u043b\u0438\u043d\u0438\u043d\u0433\u0440\u0430\u0434 \u04e9\u043b\u043a\u04d9\u0441\u0435","name:right:ko":"\uce7c\ub9ac\ub2cc\uadf8\ub77c\ub4dc \uc8fc","name:left:pt":"Voivodia da V\u00e1rmia-Mas\u00faria","name:right:ku":"Oblasta Kaliningrad\u00ea","name:right:kv":"\u041a\u0430\u043b\u0438\u043d\u0438\u043d\u0433\u0440\u0430\u0434 \u043e\u0431\u043b\u0430\u0441\u044c\u0442","name:left:it":"Voivodato di Varmia-Masuria","name:right:pl":"Obw\u00f3d kaliningradzki","name:right:os":"\u041a\u0430\u043b\u0438\u043d\u0438\u043d\u0433\u0440\u0430\u0434\u044b \u043e\u0431\u043b\u00e6\u0441\u0442","name:right:de":"Oblast Kaliningrad","name:left:de":"Woiwodschaft Ermland-Masuren","name:right:ga":"C\u00faige Kaliningrad"},"arcs":[1]}]},"roads":{"type":"GeometryCollection","geometries":[{"type":"LineString","properties":{"bus_network":null,"network":"ru:regional","sort_rank":380,"kind_detail":"primary","kind":"major_road","source":"openstreetmap.org","min_zoom":8.0,"bus_shield_text":"120","shield_text":"27\u0410","ref":"27\u0410-032"},"arcs":[26]},{"type":"LineString","properties":{"bus_network":null,"network":"pl:national","sort_rank":380,"kind_detail":"primary","is_bicycle_related":true,"kind":"major_road","bicycle_shield_text":"R1","bicycle_network":"icn","source":"openstreetmap.org","min_zoom":8.0,"bus_shield_text":"249","shield_text":"54","ref":"54"},"arcs":[27]},{"type":"LineString","properties":{"bus_network":"city","sort_rank":380,"kind_detail":"primary","kind":"major_road","source":"openstreetmap.org","min_zoom":8.0,"bus_shield_text":"49","landuse_kind":"urban_area"},"arcs":[28]},{"type":"MultiLineString","properties":{"bus_network":"city","sort_rank":380,"kind_detail":"primary","kind":"major_road","source":"openstreetmap.org","min_zoom":8.0,"bus_shield_text":"Trolley 7","landuse_kind":"urban_area"},"arcs":[[29],[30],[31],[32],[33]]},{"type":"MultiLineString","properties":{"kind":"minor_road","sort_rank":358,"kind_detail":"service","is_bicycle_related":true,"bicycle_shield_text":"GV","bicycle_network":"ncn","source":"openstreetmap.org","min_zoom":8.0},"arcs":[[34],[35]]},{"type":"LineString","properties":{"bus_network":null,"network":"ru:regional","sort_rank":380,"kind_detail":"primary","kind":"major_road","source":"openstreetmap.org","min_zoom":8.0,"bus_shield_text":"247","shield_text":"27\u0410","ref":"27\u0410-003"},"arcs":[36]},{"type":"LineString","properties":{"bus_network":null,"network":"ru:regional","sort_rank":379,"kind_detail":"secondary","is_bicycle_related":true,"kind":"major_road","bicycle_shield_text":null,"bicycle_network":"icn","source":"openstreetmap.org","min_zoom":8.0,"bus_shield_text":"120","shield_text":"27\u041a","ref":"27\u041a-369"},"arcs":[37]},{"type":"MultiLineString","properties":{"bus_network":null,"name:lt":"Soviet\u0173 g.","sort_rank":380,"kind_detail":"primary","kind":"major_road","source":"openstreetmap.org","min_zoom":8.0,"bus_shield_text":"105"},"arcs":[[38],[39],[40],[41],[42]]},{"type":"LineString","properties":{"kind":"major_road","sort_rank":377,"landuse_kind":"urban_area","is_bicycle_related":true,"bicycle_shield_text":"R1","bicycle_network":"icn","source":"openstreetmap.org","min_zoom":8.0,"kind_detail":"tertiary"},"arcs":[43]},{"type":"LineString","properties":{"bus_network":"city","sort_rank":380,"kind_detail":"primary","is_bicycle_related":true,"kind":"major_road","bicycle_shield_text":"R1","bicycle_network":"icn","source":"openstreetmap.org","min_zoom":8.0,"bus_shield_text":"10","landuse_kind":"urban_area"},"arcs":[44]},{"type":"LineString","properties":{"bus_network":"city","network":"ru:regional","sort_rank":380,"kind_detail":"primary","kind":"major_road","source":"openstreetmap.org","min_zoom":8.0,"bus_shield_text":"9","shield_text":"27\u0410","ref":"27\u0410-017"},"arcs":[45]},{"type":"MultiLineString","properties":{"bus_network":null,"network":"ru:regional","sort_rank":380,"kind_detail":"primary","kind":"major_road","source":"openstreetmap.org","min_zoom":8.0,"bus_shield_text":"105","shield_text":"27\u0410","ref":"27\u0410-015"},"arcs":[[46],[47],[48],[49]]},{"type":"MultiLineString","properties":{"kind":"minor_road","sort_rank":360,"landuse_kind":"residential","is_bicycle_related":true,"bicycle_shield_text":"GV","bicycle_network":"ncn","source":"openstreetmap.org","min_zoom":8.0,"kind_detail":"residential"},"arcs":[[50],[51],[52],[53]]},{"type":"MultiLineString","properties":{"kind":"minor_road","sort_rank":358,"landuse_kind":"urban_area","is_bicycle_related":true,"bicycle_shield_text":"R1","bicycle_network":"icn","source":"openstreetmap.org","min_zoom":8.0,"kind_detail":"service"},"arcs":[[54],[55],[56],[57]]},{"type":"LineString","properties":{"kind":"path","sort_rank":354,"kind_detail":"pedestrian","is_bicycle_related":true,"bicycle_shield_text":null,"bicycle_network":"icn","source":"openstreetmap.org","min_zoom":8.0,"landuse_kind":"urban_area","id":177144580},"arcs":[58]},{"type":"LineString","properties":{"bus_network":"city","sort_rank":380,"kind_detail":"primary","kind":"major_road","source":"openstreetmap.org","min_zoom":8.0,"bus_shield_text":"18","landuse_kind":"urban_area"},"arcs":[59]},{"type":"MultiLineString","properties":{"kind":"major_road","network":"ru:regional","sort_rank":380,"kind_detail":"primary","source":"openstreetmap.org","min_zoom":8.0,"shield_text":"27\u0410","ref":"27\u0410-025"},"arcs":[[60],[61],[62]]},{"type":"MultiLineString","properties":{"kind":"minor_road","sort_rank":360,"landuse_kind":"residential","is_bicycle_related":true,"bicycle_shield_text":"R1","bicycle_network":"icn","source":"openstreetmap.org","min_zoom":8.0,"kind_detail":"residential"},"arcs":[[63],[64]]},{"type":"LineString","properties":{"kind":"minor_road","sort_rank":358,"kind_detail":"service","is_bicycle_related":true,"bicycle_shield_text":"R1","bicycle_network":"icn","source":"openstreetmap.org","min_zoom":8.0},"arcs":[65]},{"type":"LineString","properties":{"bus_network":null,"sort_rank":380,"kind_detail":"primary","kind":"major_road","source":"openstreetmap.org","min_zoom":8.0,"bus_shield_text":"114","landuse_kind":"residential"},"arcs":[66]},{"type":"MultiLineString","properties":{"bus_network":"city","sort_rank":380,"kind_detail":"primary","kind":"major_road","source":"openstreetmap.org","min_zoom":8.0,"bus_shield_text":"23","landuse_kind":"urban_area"},"arcs":[[67],[68]]},{"type":"MultiLineString","properties":{"bus_network":"city","sort_rank":380,"kind_detail":"primary","kind":"major_road","source":"openstreetmap.org","min_zoom":8.0,"bus_shield_text":"21","landuse_kind":"urban_area"},"arcs":[[69],[70],[71],[72],[73]]},{"type":"LineString","properties":{"kind":"major_road","name:lt":"Dzer\u017einskio gatv\u0117","sort_rank":380,"kind_detail":"primary","bus_network":"city","source":"openstreetmap.org","min_zoom":8.0,"bus_shield_text":"3","name:pl":"ulica Dzier\u017cy\u0144skiego","landuse_kind":"urban_area","id":106485864},"arcs":[74]},{"type":"LineString","properties":{"bus_network":"city","network":"ru:regional","sort_rank":381,"kind_detail":"trunk","kind":"major_road","source":"openstreetmap.org","min_zoom":8.0,"bus_shield_text":"Trolley 6","shield_text":"27\u0410","ref":"27\u0410-016"},"arcs":[75]},{"type":"LineString","properties":{"bus_network":"city","network":"ru:regional","sort_rank":381,"kind_detail":"trunk","kind":"major_road","source":"openstreetmap.org","min_zoom":8.0,"bus_shield_text":"23","shield_text":"27\u0410","ref":"27\u0410-007"},"arcs":[76]},{"type":"LineString","properties":{"kind":"major_road","network":"ru:regional","sort_rank":380,"kind_detail":"primary","source":"openstreetmap.org","min_zoom":8.0,"shield_text":"27\u0410","ref":"27\u0410-083"},"arcs":[77]},{"type":"LineString","properties":{"kind":"major_road","network":"e-road","sort_rank":381,"landuse_kind":"urban_area","source":"openstreetmap.org","min_zoom":8.0,"kind_detail":"trunk","shield_text":"28"},"arcs":[78]},{"type":"LineString","properties":{"kind":"path","sort_rank":354,"kind_detail":"steps","is_bicycle_related":true,"bicycle_shield_text":null,"bicycle_network":"icn","source":"openstreetmap.org","min_zoom":8.0,"landuse_kind":"urban_area","id":177144579},"arcs":[79]},{"type":"LineString","properties":{"bus_network":null,"sort_rank":380,"kind_detail":"primary","kind":"major_road","source":"openstreetmap.org","min_zoom":8.0,"bus_shield_text":"105","landuse_kind":"urban_area"},"arcs":[80]},{"type":"LineString","properties":{"bus_network":null,"network":"ru:regional","sort_rank":380,"kind_detail":"primary","is_bicycle_related":true,"kind":"major_road","bicycle_shield_text":null,"bicycle_network":"icn","source":"openstreetmap.org","min_zoom":8.0,"bus_shield_text":"120","shield_text":"27\u0410","ref":"27\u0410-013"},"arcs":[81]},{"type":"LineString","properties":{"kind":"major_road","name:lt":"Lenino g.","sort_rank":379,"kind_detail":"secondary","is_bicycle_related":true,"bicycle_shield_text":"R1","bicycle_network":"icn","source":"openstreetmap.org","min_zoom":8.0,"name:be":"\u0432\u0443\u043b\u0456\u0446\u0430 \u041b\u0435\u043d\u0456\u043d\u0430"},"arcs":[82]},{"type":"LineString","properties":{"kind":"major_road","sort_rank":377,"kind_detail":"tertiary","is_bicycle_related":true,"bus_network":"city","bicycle_shield_text":"R1","bicycle_network":"icn","source":"openstreetmap.org","min_zoom":8.0,"bus_shield_text":"Trolley 1","id":41427516},"arcs":[83]},{"type":"MultiLineString","properties":{"bus_network":"KenigAuto","network":"e-road","sort_rank":381,"kind_detail":"trunk","kind":"major_road","source":"openstreetmap.org","min_zoom":8.0,"bus_shield_text":"217","shield_text":"28"},"arcs":[[84],[85]]},{"type":"LineString","properties":{"kind":"minor_road","sort_rank":358,"kind_detail":"service","is_bicycle_related":true,"bicycle_shield_text":"R1","bicycle_network":"icn","source":"openstreetmap.org","min_zoom":8.0,"landuse_kind":"urban_area","name:pl":"ulica Kanta","id":172879474},"arcs":[86]},{"type":"LineString","properties":{"bus_network":"city","sort_rank":380,"kind_detail":"primary","kind":"major_road","name:de":"Litauer Wallstra\u00dfe","source":"openstreetmap.org","min_zoom":8.0,"bus_shield_text":"28","landuse_kind":"urban_area"},"arcs":[87]},{"type":"LineString","properties":{"kind":"major_road","name:en":"Yantarnaya Street","network":"ru:regional","sort_rank":380,"kind_detail":"primary","name:de":"Jantarnaja uliza","source":"openstreetmap.org","min_zoom":8.0,"shield_text":"27\u0410","ref":"27\u0410-013","id":477676287},"arcs":[88]},{"type":"LineString","properties":{"kind":"major_road","network":"ru:regional","sort_rank":380,"kind_detail":"primary","bus_network":null,"source":"openstreetmap.org","min_zoom":8.0,"bus_shield_text":"239","shield_text":"27\u041a","ref":"27\u041a-385","id":57953627},"arcs":[89]},{"type":"MultiLineString","properties":{"bus_network":"city","sort_rank":380,"kind_detail":"primary","old_name":"Samitter Allee","kind":"major_road","source":"openstreetmap.org","min_zoom":8.0,"bus_shield_text":"Trolley 7","landuse_kind":"urban_area"},"arcs":[[90],[91],[92]]},{"type":"MultiLineString","properties":{"bus_network":"city","name:en":"Yuri Gagarin Street","sort_rank":380,"kind_detail":"primary","kind":"major_road","name:de":"Juri-Gagarin-Stra\u00dfe","source":"openstreetmap.org","min_zoom":8.0,"bus_shield_text":"24","landuse_kind":"urban_area"},"arcs":[[93],[94],[95]]},{"type":"MultiLineString","properties":{"bus_network":"city","sort_rank":380,"landuse_kind":"urban_area","bus_shield_text":"Trolley 7","kind":"major_road","source":"openstreetmap.org","min_zoom":8.0,"old_name":"Waldburgstra\u00dfe","kind_detail":"primary"},"arcs":[[96],[97]]},{"type":"MultiLineString","properties":{"kind":"major_road","network":"ru:regional","sort_rank":380,"kind_detail":"primary","source":"openstreetmap.org","min_zoom":8.0,"shield_text":"27\u0410","ref":"27\u0410-013"},"arcs":[[98],[99],[100],[101],[102],[103],[104],[105],[106],[107],[108],[109],[110]]},{"type":"LineString","properties":{"bus_network":null,"network":"ru:regional","sort_rank":377,"kind_detail":"tertiary","is_bicycle_related":true,"kind":"major_road","bicycle_shield_text":"R1","bicycle_network":"icn","source":"openstreetmap.org","min_zoom":8.0,"bus_shield_text":"106","shield_text":"27\u041a","ref":"27\u041a-184"},"arcs":[111]},{"type":"LineString","properties":{"kind":"major_road","network":"ru:national","sort_rank":381,"kind_detail":"trunk","source":"openstreetmap.org","min_zoom":8.0,"shield_text":"229","ref":"\u0410-229"},"arcs":[112]},{"type":"MultiLineString","properties":{"bus_network":"city","sort_rank":380,"kind_detail":"primary","is_bicycle_related":true,"kind":"major_road","bicycle_shield_text":"R1","bicycle_network":"icn","source":"openstreetmap.org","min_zoom":8.0,"bus_shield_text":"Trolley 1","landuse_kind":"urban_area"},"arcs":[[113],[114],[115]]},{"type":"MultiLineString","properties":{"bus_network":"city","sort_rank":379,"landuse_kind":"urban_area","is_bicycle_related":true,"kind":"major_road","bicycle_shield_text":null,"bicycle_network":"icn","source":"openstreetmap.org","min_zoom":8.0,"bus_shield_text":"4","kind_detail":"secondary"},"arcs":[[116],[117]]},{"type":"LineString","properties":{"bus_network":null,"network":"pl:national","sort_rank":380,"kind_detail":"primary","is_bicycle_related":true,"kind":"major_road","source":"openstreetmap.org","min_zoom":8.0,"bus_shield_text":"253","shield_text":"54","ref":"54"},"arcs":[118]},{"type":"MultiLineString","properties":{"kind":"path","sort_rank":354,"landuse_kind":"residential","is_bicycle_related":true,"bicycle_shield_text":"GV","bicycle_network":"ncn","source":"openstreetmap.org","min_zoom":8.0,"kind_detail":"track"},"arcs":[[119],[120],[121]]},{"type":"LineString","properties":{"kind":"major_road","sort_rank":377,"kind_detail":"tertiary","is_bicycle_related":true,"bicycle_shield_text":null,"bicycle_network":"icn","source":"openstreetmap.org","min_zoom":8.0},"arcs":[122]},{"type":"LineString","properties":{"kind":"major_road","network":"ru:regional","sort_rank":381,"kind_detail":"trunk","bus_network":null,"source":"openstreetmap.org","min_zoom":8.0,"bus_shield_text":"247","shield_text":"27\u0410","landuse_kind":"urban_area","ref":"27\u0410-008","id":491890816},"arcs":[123]},{"type":"MultiLineString","properties":{"kind":"major_road","network":"ru:regional","sort_rank":381,"landuse_kind":"urban_area","source":"openstreetmap.org","min_zoom":8.0,"kind_detail":"trunk","shield_text":"27\u0410","ref":"27\u0410-007"},"arcs":[[124],[125],[126],[127],[128],[129]]},{"type":"LineString","properties":{"kind":"ferry","name":"Sassnitz - Baltijsk \/ \u0417\u0430\u0441\u043d\u0438\u0446 - \u0411\u0430\u043b\u0442\u0438\u0439\u0441\u043a","sort_rank":355,"landuse_kind":"urban_area","name:de":"Sassnitz - Baltijsk","source":"openstreetmap.org","min_zoom":8.0,"name:ru":"\u0417\u0430\u0441\u043d\u0438\u0446 - \u0411\u0430\u043b\u0442\u0438\u0439\u0441\u043a","id":42343853},"arcs":[130]},{"type":"LineString","properties":{"kind":"path","sort_rank":354,"landuse_kind":"residential","is_bicycle_related":true,"bicycle_shield_text":"GV","bicycle_network":"ncn","source":"openstreetmap.org","min_zoom":8.0,"kind_detail":"path"},"arcs":[131]},{"type":"MultiLineString","properties":{"kind":"minor_road","sort_rank":360,"kind_detail":"residential","is_bicycle_related":true,"bicycle_shield_text":"R1","bicycle_network":"icn","source":"openstreetmap.org","min_zoom":8.0},"arcs":[[132],[133],[134]]},{"type":"MultiLineString","properties":{"bus_network":"city","sort_rank":380,"kind_detail":"primary","kind":"major_road","source":"openstreetmap.org","min_zoom":8.0,"bus_shield_text":"Trolley 1","name:pl":"Leninowski prospekt","landuse_kind":"urban_area"},"arcs":[[135],[136],[137]]},{"type":"MultiLineString","properties":{"bus_network":"city","name:en":"Yuri Gagarin Street","sort_rank":380,"kind_detail":"primary","kind":"major_road","name:de":"Juri-Gagarin-Stra\u00dfe","source":"openstreetmap.org","min_zoom":8.0,"bus_shield_text":"19","landuse_kind":"urban_area"},"arcs":[[138],[139],[140],[141],[142],[143],[144]]},{"type":"MultiLineString","properties":{"kind":"major_road","sort_rank":379,"kind_detail":"secondary","is_bicycle_related":true,"bicycle_shield_text":null,"bicycle_network":"icn","source":"openstreetmap.org","min_zoom":8.0},"arcs":[[145],[146]]},{"type":"MultiLineString","properties":{"source":"openstreetmap.org","bus_network":"city","bus_shield_text":"23","sort_rank":380,"kind_detail":"primary","min_zoom":8.0,"kind":"major_road"},"arcs":[[147],[148]]},{"type":"MultiLineString","properties":{"kind":"major_road","network":"ru:regional","sort_rank":381,"landuse_kind":"urban_area","source":"openstreetmap.org","min_zoom":8.0,"kind_detail":"trunk","shield_text":"27\u0410","ref":"27\u0410-008"},"arcs":[[149],[150]]},{"type":"LineString","properties":{"kind":"major_road","network":"ru:regional","sort_rank":380,"kind_detail":"primary","is_bicycle_related":true,"bicycle_shield_text":null,"bicycle_network":"icn","source":"openstreetmap.org","min_zoom":8.0,"shield_text":"27\u0410","ref":"27\u0410-013"},"arcs":[151]},{"type":"LineString","properties":{"bus_network":"city","sort_rank":380,"kind_detail":"primary","kind":"major_road","source":"openstreetmap.org","min_zoom":8.0,"bus_shield_text":"24","landuse_kind":"urban_area"},"arcs":[152]},{"type":"LineString","properties":{"kind":"path","sort_rank":354,"kind_detail":"pedestrian","is_bicycle_related":true,"bicycle_shield_text":"R1","bicycle_network":"icn","source":"openstreetmap.org","min_zoom":8.0,"landuse_kind":"residential","id":211436752},"arcs":[153]},{"type":"LineString","properties":{"source":"openstreetmap.org","kind":"major_road","name:lt":"Lenino prospektas","sort_rank":380,"kind_detail":"primary","min_zoom":8.0,"id":79400205},"arcs":[154]},{"type":"LineString","properties":{"kind":"major_road","network":"e-road","sort_rank":381,"kind_detail":"trunk","bus_network":"city","source":"openstreetmap.org","min_zoom":8.0,"bus_shield_text":"37","shield_text":"28","landuse_kind":"urban_area","id":107178253},"arcs":[155]},{"type":"MultiLineString","properties":{"bus_network":"city","sort_rank":380,"kind_detail":"primary","kind":"major_road","source":"openstreetmap.org","min_zoom":8.0,"bus_shield_text":"3","landuse_kind":"urban_area"},"arcs":[[156],[157]]},{"type":"LineString","properties":{"bus_network":"city","sort_rank":379,"landuse_kind":"urban_area","is_bicycle_related":true,"kind":"major_road","bicycle_shield_text":null,"bicycle_network":"icn","source":"openstreetmap.org","min_zoom":8.0,"bus_shield_text":"24","kind_detail":"secondary"},"arcs":[158]},{"type":"LineString","properties":{"kind":"major_road","sort_rank":380,"kind_detail":"primary","bus_network":null,"source":"openstreetmap.org","min_zoom":8.0,"bus_shield_text":"108","landuse_kind":"urban_area","id":415795758},"arcs":[159]},{"type":"MultiLineString","properties":{"kind":"major_road","network":"pl:regional","sort_rank":379,"landuse_kind":"residential","is_bicycle_related":true,"bicycle_shield_text":"R1","bicycle_network":"icn","source":"openstreetmap.org","min_zoom":8.0,"kind_detail":"secondary","shield_text":"504","ref":"504"},"arcs":[[160],[161],[162]]},{"type":"LineString","properties":{"bus_network":null,"network":"ru:regional","sort_rank":380,"kind_detail":"primary","kind":"major_road","source":"openstreetmap.org","min_zoom":8.0,"bus_shield_text":"231","shield_text":"27\u0410","ref":"27\u0410-028"},"arcs":[163]},{"type":"MultiLineString","properties":{"kind":"major_road","network":"pl:regional","sort_rank":379,"kind_detail":"secondary","is_bicycle_related":true,"bicycle_shield_text":"GV","bicycle_network":"ncn","source":"openstreetmap.org","min_zoom":8.0,"shield_text":"512","ref":"512"},"arcs":[[164],[165],[166],[167]]},{"type":"LineString","properties":{"bus_network":"city","sort_rank":380,"kind_detail":"primary","kind":"major_road","source":"openstreetmap.org","min_zoom":8.0,"bus_shield_text":"1","name:pl":"Leninowski prospekt","landuse_kind":"urban_area"},"arcs":[168]},{"type":"LineString","properties":{"bus_network":null,"network":"ru:regional","sort_rank":380,"kind_detail":"primary","is_bicycle_related":true,"kind":"major_road","bicycle_shield_text":"R1","bicycle_network":"icn","source":"openstreetmap.org","min_zoom":8.0,"bus_shield_text":"141","shield_text":"27\u0410","ref":"27\u0410-013"},"arcs":[169]},{"type":"LineString","properties":{"kind":"major_road","network":"pl:regional","sort_rank":379,"kind_detail":"secondary","is_bicycle_related":true,"bicycle_shield_text":"GV","bicycle_network":"ncn","source":"openstreetmap.org","min_zoom":8.0,"shield_text":"507","ref":"507"},"arcs":[170]},{"type":"MultiLineString","properties":{"kind":"major_road","network":"ru:national","sort_rank":380,"kind_detail":"primary","source":"openstreetmap.org","min_zoom":8.0,"shield_text":"217","ref":"\u0410-217"},"arcs":[[171],[172]]},{"type":"MultiLineString","properties":{"bus_network":null,"network":"pl:national","sort_rank":380,"kind_detail":"primary","is_bicycle_related":true,"kind":"major_road","bicycle_shield_text":"R1","bicycle_network":"icn","source":"openstreetmap.org","min_zoom":8.0,"bus_shield_text":"249","shield_text":"54","landuse_kind":"residential","ref":"54"},"arcs":[[173],[174],[175],[176]]},{"type":"LineString","properties":{"bus_network":"city","name:lt":"\u010cerniachovsko g.","sort_rank":380,"kind_detail":"primary","kind":"major_road","source":"openstreetmap.org","min_zoom":8.0,"bus_shield_text":"9","landuse_kind":"urban_area"},"arcs":[177]},{"type":"LineString","properties":{"kind":"major_road","network":"ru:regional","sort_rank":380,"kind_detail":"primary","source":"openstreetmap.org","min_zoom":8.0,"landuse_kind":"urban_area","shield_text":"27\u0410","ref":"27\u0410-008"},"arcs":[178]},{"type":"LineString","properties":{"bus_network":null,"network":"ru:regional","sort_rank":380,"kind_detail":"primary","is_bicycle_related":true,"kind":"major_road","bicycle_shield_text":"R1","bicycle_network":"icn","source":"openstreetmap.org","min_zoom":8.0,"bus_shield_text":"239","shield_text":"27\u0410","landuse_kind":"park","ref":"27\u0410-076"},"arcs":[179]},{"type":"LineString","properties":{"kind":"major_road","network":"ru:regional","sort_rank":377,"kind_detail":"tertiary","is_bicycle_related":true,"bicycle_shield_text":"R1","bicycle_network":"icn","source":"openstreetmap.org","min_zoom":8.0,"shield_text":"27\u041a","ref":"27\u041a-101"},"arcs":[180]},{"type":"LineString","properties":{"kind":"major_road","network":"ru:regional","name:lt":"Kaliningrado g.","sort_rank":380,"kind_detail":"primary","bus_network":null,"source":"openstreetmap.org","min_zoom":8.0,"bus_shield_text":"247","shield_text":"27\u0410","ref":"27\u0410-017","id":328019568},"arcs":[181]},{"type":"LineString","properties":{"kind":"major_road","network":"pl:regional","sort_rank":379,"kind_detail":"secondary","is_bicycle_related":true,"bus_network":null,"bicycle_shield_text":"GV","bicycle_network":"ncn","source":"openstreetmap.org","min_zoom":8.0,"bus_shield_text":"253","shield_text":"507","ref":"507","id":401278558},"arcs":[182]},{"type":"LineString","properties":{"bus_network":null,"network":"e-road","name:lt":"Lenino prospektas","sort_rank":380,"kind_detail":"primary","kind":"major_road","source":"openstreetmap.org","min_zoom":8.0,"bus_shield_text":"107","shield_text":"77"},"arcs":[183]},{"type":"MultiLineString","properties":{"bus_network":"city","name:en":"Yuri Gagarin Street","sort_rank":380,"kind_detail":"primary","kind":"major_road","name:de":"Juri-Gagarin-Stra\u00dfe","source":"openstreetmap.org","min_zoom":8.0,"bus_shield_text":"11","landuse_kind":"urban_area"},"arcs":[[184],[185]]},{"type":"MultiLineString","properties":{"bus_network":"city","sort_rank":380,"kind_detail":"primary","kind":"major_road","source":"openstreetmap.org","min_zoom":8.0,"bus_shield_text":"45","landuse_kind":"urban_area"},"arcs":[[186],[187],[188]]},{"type":"LineString","properties":{"bus_network":"city","sort_rank":380,"kind_detail":"primary","is_bicycle_related":true,"kind":"major_road","source":"openstreetmap.org","min_zoom":8.0,"bus_shield_text":"37","landuse_kind":"urban_area"},"arcs":[189]},{"type":"LineString","properties":{"bus_network":"city","network":"ru:regional","sort_rank":380,"kind_detail":"primary","is_bicycle_related":true,"kind":"major_road","bicycle_shield_text":"R1","bicycle_network":"icn","source":"openstreetmap.org","min_zoom":8.0,"bus_shield_text":"34","shield_text":"27\u0410","ref":"27\u0410-020"},"arcs":[190]},{"type":"MultiLineString","properties":{"bus_network":null,"network":"ru:national","sort_rank":381,"kind_detail":"trunk","kind":"major_road","source":"openstreetmap.org","min_zoom":8.0,"bus_shield_text":"140","shield_text":"217","ref":"\u0410-217"},"arcs":[[191],[192],[193],[194],[195],[196]]},{"type":"MultiLineString","properties":{"bus_network":null,"network":"ru:regional","sort_rank":377,"kind_detail":"tertiary","is_bicycle_related":true,"kind":"major_road","bicycle_shield_text":"R1","bicycle_network":"icn","source":"openstreetmap.org","min_zoom":8.0,"bus_shield_text":"108","shield_text":"27\u041a","landuse_kind":"aerodrome","ref":"27\u041a-183"},"arcs":[[197],[198]]},{"type":"MultiLineString","properties":{"kind":"major_road","network":"pl:national","sort_rank":381,"kind_detail":"trunk","source":"openstreetmap.org","min_zoom":8.0,"shield_text":"22","ref":"S22"},"arcs":[[199],[200],[201],[202],[203]]},{"type":"LineString","properties":{"bus_network":"city","network":"ru:regional","sort_rank":380,"kind_detail":"primary","is_bicycle_related":true,"kind":"major_road","bicycle_shield_text":"R1","bicycle_network":"icn","source":"openstreetmap.org","min_zoom":8.0,"bus_shield_text":"18","shield_text":"27\u0410","ref":"27\u0410-020"},"arcs":[204]},{"type":"MultiLineString","properties":{"bus_network":null,"network":"ru:regional","sort_rank":380,"kind_detail":"primary","is_bicycle_related":true,"kind":"major_road","bicycle_shield_text":"R1","bicycle_network":"icn","source":"openstreetmap.org","min_zoom":8.0,"bus_shield_text":"249","shield_text":"27\u0410","ref":"27\u0410-020"},"arcs":[[205],[206],[207]]},{"type":"LineString","properties":{"kind":"major_road","network":"ru:regional","sort_rank":380,"kind_detail":"primary","source":"openstreetmap.org","min_zoom":8.0,"shield_text":"27\u0410","ref":"27\u0410-015","id":364809229},"arcs":[208]},{"type":"MultiLineString","properties":{"kind":"major_road","sort_rank":377,"landuse_kind":"residential","is_bicycle_related":true,"bicycle_shield_text":"GV","bicycle_network":"ncn","source":"openstreetmap.org","min_zoom":8.0,"kind_detail":"tertiary"},"arcs":[[209],[210]]},{"type":"LineString","properties":{"bus_network":"city","network":"e-road","sort_rank":381,"kind_detail":"trunk","is_bicycle_related":true,"kind":"major_road","source":"openstreetmap.org","min_zoom":8.0,"bus_shield_text":"37","shield_text":"28"},"arcs":[211]},{"type":"MultiLineString","properties":{"kind":"major_road","network":"ru:regional","sort_rank":380,"kind_detail":"primary","source":"openstreetmap.org","min_zoom":8.0,"shield_text":"27\u0410","ref":"27\u0410-028"},"arcs":[[212],[213]]},{"type":"LineString","properties":{"kind":"major_road","network":"ru:regional","sort_rank":377,"kind_detail":"tertiary","is_bicycle_related":true,"bicycle_shield_text":null,"bicycle_network":"icn","source":"openstreetmap.org","min_zoom":8.0,"shield_text":"27\u041a","ref":"27\u041a-063","id":77607453},"arcs":[214]},{"type":"MultiLineString","properties":{"bus_network":"city","sort_rank":380,"kind_detail":"primary","bus_shield_text":"1","kind":"major_road","name:de":"Kalininallee","source":"openstreetmap.org","min_zoom":8.0,"old_name":"Haberberger Wallstra\u00dfe; Horst-Wessel-Stra\u00dfe","name:pl":"prospekt Kalinina","landuse_kind":"urban_area"},"arcs":[[215],[216]]},{"type":"MultiLineString","properties":{"bus_network":"city","network":"ru:regional","sort_rank":380,"kind_detail":"primary","kind":"major_road","source":"openstreetmap.org","min_zoom":8.0,"bus_shield_text":"101","shield_text":"27\u0410","ref":"27\u0410-083"},"arcs":[[217],[218],[219]]},{"type":"MultiLineString","properties":{"source":"openstreetmap.org","kind":"major_road","name:lt":"Kaliningrado g.","sort_rank":380,"kind_detail":"primary","min_zoom":8.0},"arcs":[[220],[221]]},{"type":"LineString","properties":{"kind":"minor_road","sort_rank":360,"kind_detail":"unclassified","is_bicycle_related":true,"bicycle_shield_text":null,"bicycle_network":"icn","source":"openstreetmap.org","min_zoom":8.0,"id":422885018},"arcs":[222]},{"type":"LineString","properties":{"bus_network":null,"network":"ru:regional","sort_rank":379,"kind_detail":"secondary","is_bicycle_related":true,"kind":"major_road","bicycle_shield_text":null,"bicycle_network":"icn","source":"openstreetmap.org","min_zoom":8.0,"bus_shield_text":"120","shield_text":"27\u041a","ref":"27\u041a-139"},"arcs":[223]},{"type":"MultiLineString","properties":{"source":"openstreetmap.org","bus_network":null,"bus_shield_text":"105","sort_rank":380,"kind_detail":"primary","min_zoom":8.0,"kind":"major_road"},"arcs":[[224],[225]]},{"type":"MultiLineString","properties":{"bus_network":"city","sort_rank":380,"kind_detail":"primary","kind":"major_road","source":"openstreetmap.org","min_zoom":8.0,"bus_shield_text":"11","landuse_kind":"urban_area"},"arcs":[[226],[227],[228]]},{"type":"MultiLineString","properties":{"bus_network":null,"network":"pl:national","sort_rank":380,"kind_detail":"primary","kind":"major_road","source":"openstreetmap.org","min_zoom":8.0,"bus_shield_text":"249","shield_text":"54","landuse_kind":"residential","ref":"54"},"arcs":[[229],[230],[231]]},{"type":"LineString","properties":{"bus_network":"city","sort_rank":379,"kind_detail":"secondary","old_name":"Tragheimsdorf","is_bicycle_related":true,"kind":"major_road","bicycle_shield_text":null,"name:de":"Asowsche Stra\u00dfe","source":"openstreetmap.org","min_zoom":8.0,"bus_shield_text":"14","landuse_kind":"urban_area","id":42593705,"bicycle_network":"icn"},"arcs":[232]},{"type":"MultiLineString","properties":{"bus_network":null,"network":"ru:national","sort_rank":381,"kind_detail":"trunk","kind":"major_road","source":"openstreetmap.org","min_zoom":8.0,"bus_shield_text":"144","shield_text":"217","ref":"\u0410-217"},"arcs":[[233],[234],[235],[236],[237],[238]]},{"type":"LineString","properties":{"kind":"major_road","network":"ru:regional","sort_rank":377,"kind_detail":"tertiary","is_bicycle_related":true,"bicycle_shield_text":"R1","bicycle_network":"icn","source":"openstreetmap.org","min_zoom":8.0,"shield_text":"27\u041a","ref":"27\u041a-184"},"arcs":[239]},{"type":"MultiLineString","properties":{"kind":"major_road","network":"ru:regional","sort_rank":377,"kind_detail":"tertiary","is_bicycle_related":true,"bicycle_shield_text":"R1","bicycle_network":"icn","source":"openstreetmap.org","min_zoom":8.0,"shield_text":"27\u041a","ref":"27\u041a-158"},"arcs":[[240],[241]]},{"type":"MultiLineString","properties":{"kind":"path","sort_rank":354,"kind_detail":"footway","is_bicycle_related":true,"bicycle_shield_text":"GV","bicycle_network":"ncn","source":"openstreetmap.org","min_zoom":8.0},"arcs":[[242],[243],[244],[245],[246]]},{"type":"LineString","properties":{"source":"openstreetmap.org","bus_network":"city","bus_shield_text":"44","sort_rank":380,"kind_detail":"primary","min_zoom":8.0,"kind":"major_road"},"arcs":[247]},{"type":"LineString","properties":{"bus_network":"city","name:lt":"\u010cerniachovsko g.","sort_rank":380,"kind_detail":"primary","kind":"major_road","source":"openstreetmap.org","min_zoom":8.0,"bus_shield_text":"Trolley 7","landuse_kind":"urban_area"},"arcs":[248]},{"type":"LineString","properties":{"kind":"major_road","sort_rank":377,"kind_detail":"tertiary","is_bicycle_related":true,"bus_network":"city","bicycle_shield_text":"R1","bicycle_network":"icn","source":"openstreetmap.org","min_zoom":8.0,"bus_shield_text":"1","id":107288306},"arcs":[249]},{"type":"MultiLineString","properties":{"bus_network":"city","sort_rank":380,"kind_detail":"primary","kind":"major_road","source":"openstreetmap.org","min_zoom":8.0,"bus_shield_text":"38","landuse_kind":"urban_area"},"arcs":[[250],[251],[252]]},{"type":"LineString","properties":{"kind":"path","sort_rank":354,"kind_detail":"path","is_bicycle_related":true,"bicycle_shield_text":"R1","bicycle_network":"icn","source":"openstreetmap.org","min_zoom":8.0},"arcs":[253]},{"type":"MultiLineString","properties":{"bus_network":"city","sort_rank":380,"kind_detail":"primary","kind":"major_road","source":"openstreetmap.org","min_zoom":8.0,"bus_shield_text":"1","landuse_kind":"urban_area"},"arcs":[[254],[255],[256],[257],[258]]},{"type":"LineString","properties":{"bus_network":null,"name:lt":"Lenino g.","sort_rank":380,"kind_detail":"primary","is_bicycle_related":true,"kind":"major_road","bicycle_shield_text":"R1","bicycle_network":"icn","source":"openstreetmap.org","min_zoom":8.0,"bus_shield_text":"114","landuse_kind":"residential"},"arcs":[259]},{"type":"MultiLineString","properties":{"bus_network":null,"network":"ru:regional","sort_rank":380,"kind_detail":"primary","kind":"major_road","source":"openstreetmap.org","min_zoom":8.0,"bus_shield_text":"114","shield_text":"27\u0410","ref":"27\u0410-001"},"arcs":[[260],[261],[262],[263],[264],[265]]},{"type":"MultiLineString","properties":{"kind":"path","sort_rank":354,"kind_detail":"track","is_bicycle_related":true,"bicycle_shield_text":"GV","bicycle_network":"ncn","source":"openstreetmap.org","min_zoom":8.0},"arcs":[[266],[267],[268],[269],[270],[271],[272],[273],[274],[275],[276],[277]]},{"type":"LineString","properties":{"kind":"major_road","network":"ru:regional","sort_rank":380,"kind_detail":"primary","source":"openstreetmap.org","min_zoom":8.0,"shield_text":"27\u0410","ref":"27\u0410-032"},"arcs":[278]},{"type":"MultiLineString","properties":{"bus_network":null,"network":"pl:national","sort_rank":381,"kind_detail":"trunk","kind":"major_road","source":"openstreetmap.org","min_zoom":8.0,"bus_shield_text":"253","shield_text":"22","ref":"S22"},"arcs":[[279],[280],[281],[282],[283]]},{"type":"LineString","properties":{"bus_network":"city","sort_rank":380,"kind_detail":"primary","is_bicycle_related":true,"kind":"major_road","bicycle_shield_text":"R1","bicycle_network":"icn","source":"openstreetmap.org","min_zoom":8.0,"bus_shield_text":"18","landuse_kind":"urban_area","name:de":"Berliner Stra\u00dfe"},"arcs":[284]},{"type":"MultiLineString","properties":{"bus_network":"city","sort_rank":380,"kind_detail":"primary","bus_shield_text":"9","kind":"major_road","source":"openstreetmap.org","min_zoom":8.0,"old_name":"Hohe Br\u00fccke","landuse_kind":"urban_area"},"arcs":[[285],[286]]},{"type":"MultiLineString","properties":{"kind":"major_road","network":"ru:regional","sort_rank":381,"kind_detail":"trunk","source":"openstreetmap.org","min_zoom":8.0,"shield_text":"27\u0410","ref":"27\u0410-002"},"arcs":[[287],[288],[289],[290],[291]]},{"type":"LineString","properties":{"kind":"major_road","network":"ru:regional","sort_rank":380,"kind_detail":"primary","source":"openstreetmap.org","min_zoom":8.0,"shield_text":"27\u041a","ref":"27\u041a-158"},"arcs":[292]},{"type":"LineString","properties":{"kind":"major_road","network":"pl:regional","sort_rank":379,"kind_detail":"secondary","is_bicycle_related":true,"bicycle_shield_text":"GV","bicycle_network":"ncn","source":"openstreetmap.org","min_zoom":8.0,"shield_text":"511","ref":"511","id":398440550},"arcs":[293]},{"type":"LineString","properties":{"bus_network":"KenigAuto","network":"ru:regional","sort_rank":380,"kind_detail":"primary","kind":"major_road","name:de":"Marktplatz","source":"openstreetmap.org","min_zoom":8.0,"bus_shield_text":"217","shield_text":"27\u041a","ref":"27\u041a-047"},"arcs":[294]},{"type":"LineString","properties":{"kind":"major_road","network":"ru:regional","sort_rank":380,"kind_detail":"primary","is_bicycle_related":true,"bus_network":null,"source":"openstreetmap.org","min_zoom":8.0,"bus_shield_text":"253","shield_text":"27\u0410","ref":"27\u0410-020","id":292429591},"arcs":[295]},{"type":"LineString","properties":{"bus_network":"city","sort_rank":380,"kind_detail":"primary","kind":"major_road","source":"openstreetmap.org","min_zoom":8.0,"bus_shield_text":"7","landuse_kind":"urban_area"},"arcs":[296]},{"type":"LineString","properties":{"sort_rank":355,"source":"openstreetmap.org","kind":"ferry","min_zoom":8.0,"id":61073462},"arcs":[297]},{"type":"LineString","properties":{"kind":"major_road","network":"pl:regional","sort_rank":379,"kind_detail":"secondary","is_bicycle_related":true,"bicycle_shield_text":"R1","bicycle_network":"icn","source":"openstreetmap.org","min_zoom":8.0,"shield_text":"504","ref":"504"},"arcs":[298]},{"type":"LineString","properties":{"kind":"path","sort_rank":354,"landuse_kind":"residential","is_bicycle_related":true,"bicycle_shield_text":"GV","bicycle_network":"ncn","source":"openstreetmap.org","min_zoom":8.0,"kind_detail":"footway"},"arcs":[299]},{"type":"LineString","properties":{"bus_network":null,"network":"ru:regional","sort_rank":380,"kind_detail":"primary","is_bicycle_related":true,"kind":"major_road","bicycle_shield_text":"R1","bicycle_network":"icn","source":"openstreetmap.org","min_zoom":8.0,"bus_shield_text":"249","shield_text":"27\u0410","landuse_kind":"residential","ref":"27\u0410-020"},"arcs":[300]},{"type":"LineString","properties":{"bus_network":null,"network":"pl:regional","sort_rank":379,"kind_detail":"secondary","is_bicycle_related":true,"kind":"major_road","bicycle_shield_text":"GV","bicycle_network":"ncn","source":"openstreetmap.org","min_zoom":8.0,"bus_shield_text":"250","shield_text":"592","ref":"592","id":352383460},"arcs":[301]},{"type":"MultiLineString","properties":{"kind":"major_road","network":"ru:national","sort_rank":381,"kind_detail":"trunk","source":"openstreetmap.org","min_zoom":8.0,"shield_text":"217","ref":"\u0410-217"},"arcs":[[302],[303]]},{"type":"MultiLineString","properties":{"kind":"major_road","network":"ru:regional","sort_rank":380,"kind_detail":"primary","source":"openstreetmap.org","min_zoom":8.0,"shield_text":"27\u0410","ref":"27\u0410-008"},"arcs":[[304],[305],[306],[307]]},{"type":"MultiLineString","properties":{"bus_network":"city","network":"ru:regional","sort_rank":380,"kind_detail":"primary","kind":"major_road","source":"openstreetmap.org","min_zoom":8.0,"bus_shield_text":"101","shield_text":"27\u0410","ref":"27\u0410-024"},"arcs":[[308],[309]]},{"type":"MultiLineString","properties":{"kind":"major_road","network":"ru:regional","sort_rank":381,"kind_detail":"trunk","source":"openstreetmap.org","min_zoom":8.0,"shield_text":"27\u0410","ref":"27\u0410-007"},"arcs":[[310],[311]]},{"type":"MultiLineString","properties":{"bus_network":"city","sort_rank":380,"kind_detail":"primary","is_bicycle_related":true,"kind":"major_road","bicycle_shield_text":"R1","bicycle_network":"icn","source":"openstreetmap.org","min_zoom":8.0,"bus_shield_text":"18","landuse_kind":"urban_area"},"arcs":[[312],[313]]},{"type":"LineString","properties":{"kind":"major_road","sort_rank":380,"kind_detail":"primary","is_bicycle_related":true,"bicycle_shield_text":"R1","bicycle_network":"icn","source":"openstreetmap.org","min_zoom":8.0,"landuse_kind":"urban_area"},"arcs":[314]},{"type":"LineString","properties":{"kind":"major_road","network":"ru:regional","sort_rank":380,"kind_detail":"primary","bus_network":"city","source":"openstreetmap.org","min_zoom":8.0,"bus_shield_text":"101","shield_text":"27\u0410","landuse_kind":"urban_area","ref":"27\u0410-024","id":41755513},"arcs":[315]},{"type":"LineString","properties":{"kind":"major_road","sort_rank":379,"kind_detail":"secondary","is_bicycle_related":true,"bicycle_shield_text":"R1","bicycle_network":"icn","source":"openstreetmap.org","min_zoom":8.0},"arcs":[316]},{"type":"LineString","properties":{"sort_rank":381,"source":"openstreetmap.org","min_zoom":8.0,"kind":"major_road","kind_detail":"trunk"},"arcs":[317]},{"type":"LineString","properties":{"kind":"major_road","sort_rank":380,"kind_detail":"primary","old_name":"Hansaplatz; Adolf-Hitler-Platz","is_bicycle_related":true,"bus_network":"city","bicycle_shield_text":"R1","bicycle_network":"icn","source":"openstreetmap.org","min_zoom":8.0,"bus_shield_text":"Trolley 1","landuse_kind":"urban_area","name:de":"Siegesplatz","id":102523053},"arcs":[318]},{"type":"MultiLineString","properties":{"kind":"major_road","sort_rank":380,"kind_detail":"primary","is_bicycle_related":true,"bicycle_shield_text":null,"bicycle_network":"icn","source":"openstreetmap.org","min_zoom":8.0,"landuse_kind":"urban_area"},"arcs":[[319],[320]]},{"type":"LineString","properties":{"kind":"major_road","network":"ru:regional","name:lt":"Soviet\u0173 g.","sort_rank":377,"kind_detail":"tertiary","is_bicycle_related":true,"bicycle_shield_text":null,"bicycle_network":"icn","source":"openstreetmap.org","min_zoom":8.0,"shield_text":"27\u041a","ref":"27\u041a-063","id":145246110},"arcs":[321]},{"type":"MultiLineString","properties":{"bus_network":null,"network":"ru:regional","sort_rank":377,"kind_detail":"tertiary","is_bicycle_related":true,"kind":"major_road","bicycle_shield_text":"R1","bicycle_network":"icn","source":"openstreetmap.org","min_zoom":8.0,"bus_shield_text":"108","shield_text":"27\u041a","ref":"27\u041a-183"},"arcs":[[322],[323],[324]]},{"type":"LineString","properties":{"kind":"major_road","network":"ru:regional","sort_rank":381,"kind_detail":"trunk","bus_network":null,"official_name":"\u041c\u0435\u043b\u0438\u043e\u0440\u0430\u0442\u0438\u0432\u043d\u0430\u044f \u0443\u043b\u0438\u0446\u0432","source":"openstreetmap.org","min_zoom":8.0,"bus_shield_text":"159","shield_text":"27\u0410","landuse_kind":"urban_area","ref":"27\u0410-007","id":400619669},"arcs":[325]},{"type":"LineString","properties":{"bus_network":null,"network":"ru:regional","sort_rank":380,"kind_detail":"primary","kind":"major_road","source":"openstreetmap.org","min_zoom":8.0,"bus_shield_text":"239","shield_text":"27\u041a","landuse_kind":"residential","ref":"27\u041a-385"},"arcs":[326]},{"type":"LineString","properties":{"bus_network":"city","sort_rank":379,"landuse_kind":"urban_area","is_bicycle_related":true,"kind":"major_road","bicycle_shield_text":"R1","bicycle_network":"icn","source":"openstreetmap.org","min_zoom":8.0,"bus_shield_text":"45","kind_detail":"secondary"},"arcs":[327]},{"type":"MultiLineString","properties":{"bus_network":"KenigAuto","network":"ru:national","sort_rank":381,"kind_detail":"trunk","kind":"major_road","source":"openstreetmap.org","min_zoom":8.0,"bus_shield_text":"217","shield_text":"229","ref":"\u0410-229"},"arcs":[[328],[329],[330],[331],[332],[333],[334],[335],[336],[337],[338],[339]]},{"type":"LineString","properties":{"bus_network":null,"network":"ru:regional","sort_rank":380,"kind_detail":"primary","kind":"major_road","source":"openstreetmap.org","min_zoom":8.0,"bus_shield_text":"247","shield_text":"27\u0410","ref":"27\u0410-018"},"arcs":[340]},{"type":"LineString","properties":{"kind":"minor_road","sort_rank":358,"kind_detail":"service","is_bicycle_related":true,"bicycle_shield_text":"R1","bicycle_network":"icn","source":"openstreetmap.org","min_zoom":8.0,"landuse_kind":"urban_area","name:de":"Honigbr\u00fccke","id":172879462},"arcs":[341]},{"type":"MultiLineString","properties":{"kind":"major_road","network":"ru:regional","sort_rank":377,"kind_detail":"tertiary","is_bicycle_related":true,"bicycle_shield_text":"R1","bicycle_network":"icn","source":"openstreetmap.org","min_zoom":8.0,"shield_text":"27\u041a","ref":"27\u041a-243"},"arcs":[[342],[343]]},{"type":"LineString","properties":{"kind":"path","sort_rank":354,"kind_detail":"path","is_bicycle_related":true,"bicycle_shield_text":null,"bicycle_network":"icn","source":"openstreetmap.org","min_zoom":8.0,"id":186628255},"arcs":[344]},{"type":"LineString","properties":{"kind":"major_road","sort_rank":380,"kind_detail":"primary","is_bicycle_related":true,"bicycle_shield_text":null,"bicycle_network":"icn","source":"openstreetmap.org","min_zoom":8.0,"id":80757218},"arcs":[345]},{"type":"LineString","properties":{"bus_network":"city","sort_rank":380,"kind_detail":"primary","kind":"major_road","source":"openstreetmap.org","min_zoom":8.0,"bus_shield_text":"44","landuse_kind":"urban_area"},"arcs":[346]},{"type":"LineString","properties":{"kind":"minor_road","sort_rank":360,"kind_detail":"unclassified","is_bicycle_related":true,"bicycle_shield_text":"R1","bicycle_network":"icn","source":"openstreetmap.org","min_zoom":8.0},"arcs":[347]},{"type":"LineString","properties":{"kind":"major_road","name:en":"Kaliningradskaya Street","name:lt":"Kaliningrado g.","sort_rank":380,"kind_detail":"primary","bus_network":null,"name:de":"Kaliningradskaja uliza","source":"openstreetmap.org","min_zoom":8.0,"bus_shield_text":"105","id":291719490},"arcs":[348]},{"type":"LineString","properties":{"bus_network":null,"network":"ru:regional","sort_rank":380,"kind_detail":"primary","is_bicycle_related":true,"kind":"major_road","bicycle_shield_text":"R1","bicycle_network":"icn","source":"openstreetmap.org","min_zoom":8.0,"bus_shield_text":"141","shield_text":"27\u0410","landuse_kind":"residential","ref":"27\u0410-013","id":79329542},"arcs":[349]},{"type":"LineString","properties":{"bus_network":null,"network":"ru:regional","sort_rank":377,"kind_detail":"tertiary","is_bicycle_related":true,"kind":"major_road","bicycle_shield_text":"R1","bicycle_network":"icn","source":"openstreetmap.org","min_zoom":8.0,"bus_shield_text":"106","shield_text":"27\u041a","ref":"27\u041a-118"},"arcs":[350]},{"type":"MultiLineString","properties":{"bus_network":null,"network":"ru:regional","sort_rank":380,"kind_detail":"primary","kind":"major_road","source":"openstreetmap.org","min_zoom":8.0,"bus_shield_text":"105","shield_text":"27\u0410","ref":"27\u0410-016"},"arcs":[[351],[352],[353],[354]]},{"type":"LineString","properties":{"kind":"major_road","sort_rank":380,"kind_detail":"primary","is_bicycle_related":true,"bus_network":null,"bicycle_shield_text":null,"bicycle_network":"icn","source":"openstreetmap.org","min_zoom":8.0,"bus_shield_text":"114","landuse_kind":"residential","id":211040856},"arcs":[355]},{"type":"LineString","properties":{"kind":"major_road","sort_rank":380,"kind_detail":"primary","is_bicycle_related":true,"bus_network":"city","source":"openstreetmap.org","min_zoom":8.0,"bus_shield_text":"37","id":321027992},"arcs":[356]},{"type":"MultiLineString","properties":{"source":"openstreetmap.org","bus_network":"city","bus_shield_text":"Trolley 6","sort_rank":380,"kind_detail":"primary","min_zoom":8.0,"kind":"major_road"},"arcs":[[357],[358],[359]]},{"type":"MultiLineString","properties":{"bus_network":null,"network":"ru:regional","sort_rank":381,"kind_detail":"trunk","kind":"major_road","source":"openstreetmap.org","min_zoom":8.0,"bus_shield_text":"159","shield_text":"27\u0410","landuse_kind":"urban_area","ref":"27\u0410-007"},"arcs":[[360],[361],[362],[363],[364],[365]]},{"type":"MultiLineString","properties":{"bus_network":"city","sort_rank":380,"kind_detail":"primary","is_bicycle_related":true,"kind":"major_road","bicycle_shield_text":"R1","bicycle_network":"icn","source":"openstreetmap.org","min_zoom":8.0,"bus_shield_text":"Trolley 2","landuse_kind":"urban_area"},"arcs":[[366],[367]]},{"type":"MultiLineString","properties":{"bus_network":null,"network":"ru:regional","sort_rank":380,"kind_detail":"primary","kind":"major_road","source":"openstreetmap.org","min_zoom":8.0,"bus_shield_text":"107","shield_text":"27\u0410","ref":"27\u0410-016"},"arcs":[[368],[369]]},{"type":"MultiLineString","properties":{"kind":"minor_road","sort_rank":360,"kind_detail":"unclassified","is_bicycle_related":true,"bicycle_shield_text":"GV","bicycle_network":"ncn","source":"openstreetmap.org","min_zoom":8.0},"arcs":[[370],[371],[372],[373],[374],[375],[376],[377],[378],[379]]},{"type":"MultiLineString","properties":{"bus_network":"city","sort_rank":380,"kind_detail":"primary","kind":"major_road","source":"openstreetmap.org","min_zoom":8.0,"bus_shield_text":"4","landuse_kind":"urban_area"},"arcs":[[380],[381],[382],[383],[384]]},{"type":"MultiLineString","properties":{"kind":"major_road","network":"ru:regional","sort_rank":380,"kind_detail":"primary","is_bicycle_related":true,"bicycle_shield_text":"R1","bicycle_network":"icn","source":"openstreetmap.org","min_zoom":8.0,"shield_text":"27\u0410","ref":"27\u0410-013"},"arcs":[[385],[386],[387]]},{"type":"LineString","properties":{"kind":"major_road","sort_rank":380,"kind_detail":"primary","source":"openstreetmap.org","min_zoom":8.0,"old_name":"Franz-Seldte-Stra\u00dfe","name:pl":"ulica G\u00f3rna","landuse_kind":"urban_area"},"arcs":[388]},{"type":"MultiLineString","properties":{"kind":"major_road","network":"ru:regional","sort_rank":380,"kind_detail":"primary","source":"openstreetmap.org","min_zoom":8.0,"landuse_kind":"residential","shield_text":"27\u0410","ref":"27\u0410-001"},"arcs":[[389],[390],[391]]},{"type":"LineString","properties":{"bus_network":"city","sort_rank":380,"kind_detail":"primary","kind":"major_road","source":"openstreetmap.org","min_zoom":8.0,"bus_shield_text":"1","name:pl":"prospekt Kalinina","landuse_kind":"urban_area"},"arcs":[392]},{"type":"LineString","properties":{"bus_network":null,"network":"ru:regional","name:lt":"Kaliningrado g.","sort_rank":380,"kind_detail":"primary","kind":"major_road","source":"openstreetmap.org","min_zoom":8.0,"bus_shield_text":"514","shield_text":"27\u0410","ref":"27\u0410-024"},"arcs":[393]},{"type":"LineString","properties":{"bus_network":null,"network":"ru:regional","sort_rank":381,"kind_detail":"trunk","kind":"major_road","source":"openstreetmap.org","min_zoom":8.0,"bus_shield_text":"247","shield_text":"27\u0410","ref":"27\u0410-008"},"arcs":[394]},{"type":"LineString","properties":{"kind":"major_road","network":"ru:regional","sort_rank":380,"kind_detail":"primary","is_bicycle_related":true,"source":"openstreetmap.org","min_zoom":8.0,"shield_text":"27\u0410","ref":"27\u0410-028"},"arcs":[395]},{"type":"LineString","properties":{"kind":"major_road","network":"ru:regional","name:lt":"Lenino prospektas","sort_rank":380,"kind_detail":"primary","bus_network":null,"source":"openstreetmap.org","min_zoom":8.0,"bus_shield_text":"107","shield_text":"27\u0410","landuse_kind":"urban_area","ref":"27\u0410-016","id":262037730},"arcs":[396]},{"type":"LineString","properties":{"kind":"major_road","sort_rank":380,"kind_detail":"primary","is_bicycle_related":true,"bus_network":"city","bicycle_shield_text":"R1","bicycle_network":"icn","source":"openstreetmap.org","min_zoom":8.0,"bus_shield_text":"Trolley 1"},"arcs":[397]},{"type":"LineString","properties":{"kind":"major_road","network":"ru:regional","sort_rank":380,"kind_detail":"primary","bus_network":"KenigAuto","source":"openstreetmap.org","min_zoom":8.0,"bus_shield_text":"217","shield_text":"27\u041a","ref":"27\u041a-047","id":108120730},"arcs":[398]},{"type":"LineString","properties":{"bus_network":"city","sort_rank":379,"landuse_kind":"urban_area","is_bicycle_related":true,"kind":"major_road","bicycle_shield_text":null,"bicycle_network":"icn","source":"openstreetmap.org","min_zoom":8.0,"bus_shield_text":"10","kind_detail":"secondary"},"arcs":[399]},{"type":"LineString","properties":{"bus_network":null,"network":"ru:regional","sort_rank":380,"kind_detail":"primary","is_bicycle_related":true,"kind":"major_road","bicycle_shield_text":"R1","bicycle_network":"icn","source":"openstreetmap.org","min_zoom":8.0,"bus_shield_text":"239","shield_text":"27\u0410","ref":"27\u0410-076"},"arcs":[400]},{"type":"MultiLineString","properties":{"kind":"major_road","network":"pl:national","sort_rank":380,"kind_detail":"primary","source":"openstreetmap.org","min_zoom":8.0,"shield_text":"57","ref":"57"},"arcs":[[401],[402],[403]]},{"type":"LineString","properties":{"kind":"major_road","network":"ru:regional","name:lt":"Komsomolsko g.","sort_rank":377,"kind_detail":"tertiary","is_bicycle_related":true,"bicycle_shield_text":"R1","bicycle_network":"icn","source":"openstreetmap.org","min_zoom":8.0,"shield_text":"27\u041a","ref":"27\u041a-158","id":297395841},"arcs":[404]},{"type":"MultiLineString","properties":{"bus_network":"city","sort_rank":380,"kind_detail":"primary","kind":"major_road","source":"openstreetmap.org","min_zoom":8.0,"bus_shield_text":"9","name:pl":"ulica Dzier\u017cy\u0144skiego","landuse_kind":"urban_area"},"arcs":[[405],[406],[407]]},{"type":"LineString","properties":{"bus_network":null,"network":"pl:regional","sort_rank":379,"kind_detail":"secondary","is_bicycle_related":true,"kind":"major_road","bicycle_shield_text":"GV","bicycle_network":"ncn","source":"openstreetmap.org","min_zoom":8.0,"bus_shield_text":"249","shield_text":"507","landuse_kind":"residential","ref":"507","id":401280647},"arcs":[408]},{"type":"LineString","properties":{"source":"openstreetmap.org","bus_network":null,"bus_shield_text":"120","sort_rank":380,"kind_detail":"primary","min_zoom":8.0,"kind":"major_road"},"arcs":[409]},{"type":"LineString","properties":{"kind":"major_road","sort_rank":380,"kind_detail":"primary","is_bicycle_related":true,"bus_network":"city","bicycle_shield_text":null,"bicycle_network":"icn","source":"openstreetmap.org","min_zoom":8.0,"bus_shield_text":"4","landuse_kind":"urban_area","id":190450458},"arcs":[410]},{"type":"LineString","properties":{"kind":"ferry","name":"Sassnitz - Baltijsk \/ \u0417\u0430\u0441\u043d\u0438\u0446 - \u0411\u0430\u043b\u0442\u0438\u0439\u0441\u043a","sort_rank":355,"name:de":"Sassnitz - Baltijsk","source":"openstreetmap.org","min_zoom":8.0,"name:ru":"\u0417\u0430\u0441\u043d\u0438\u0446 - \u0411\u0430\u043b\u0442\u0438\u0439\u0441\u043a","id":42343853},"arcs":[411]},{"type":"LineString","properties":{"source":"openstreetmap.org","bus_network":"city","bus_shield_text":"9","sort_rank":380,"kind_detail":"primary","min_zoom":8.0,"kind":"major_road"},"arcs":[412]},{"type":"MultiLineString","properties":{"kind":"minor_road","sort_rank":360,"kind_detail":"road","is_bicycle_related":true,"bicycle_shield_text":"GV","bicycle_network":"ncn","source":"openstreetmap.org","min_zoom":8.0},"arcs":[[413],[414]]},{"type":"LineString","properties":{"kind":"major_road","network":"ru:regional","sort_rank":377,"kind_detail":"tertiary","is_bicycle_related":true,"bicycle_shield_text":null,"bicycle_network":"icn","source":"openstreetmap.org","min_zoom":8.0,"shield_text":"27\u041a","ref":"27\u041a-356","id":277529924},"arcs":[415]},{"type":"LineString","properties":{"kind":"major_road","network":"ru:regional","sort_rank":380,"kind_detail":"primary","source":"openstreetmap.org","min_zoom":8.0,"shield_text":"27\u0410","ref":"27\u0410-017"},"arcs":[416]},{"type":"MultiLineString","properties":{"kind":"major_road","network":"ru:regional","sort_rank":380,"kind_detail":"primary","source":"openstreetmap.org","min_zoom":8.0,"shield_text":"27\u0410","ref":"27\u0410-001"},"arcs":[[417],[418]]},{"type":"LineString","properties":{"bus_network":null,"network":"ru:regional","sort_rank":380,"kind_detail":"primary","is_bicycle_related":true,"kind":"major_road","bicycle_shield_text":"R1","name:de":"uliza Tschekistow","source":"openstreetmap.org","min_zoom":8.0,"bus_shield_text":"249","shield_text":"27\u0410","bicycle_network":"icn","ref":"27\u0410-020","id":146612409},"arcs":[419]},{"type":"MultiLineString","properties":{"bus_network":null,"name:lt":"Kaliningrado g.","sort_rank":380,"kind_detail":"primary","kind":"major_road","source":"openstreetmap.org","min_zoom":8.0,"bus_shield_text":"105"},"arcs":[[420],[421],[422]]},{"type":"MultiLineString","properties":{"sort_rank":380,"kind_detail":"primary","min_zoom":8.0,"kind":"major_road","source":"openstreetmap.org"},"arcs":[[423],[424],[425],[426],[427],[428],[429],[430],[431]]},{"type":"LineString","properties":{"kind":"major_road","name:lt":"Komsomolsko g.","sort_rank":377,"kind_detail":"tertiary","is_bicycle_related":true,"bicycle_shield_text":null,"bicycle_network":"icn","source":"openstreetmap.org","min_zoom":8.0,"ref":"27\u041a-158","id":211041292},"arcs":[432]},{"type":"LineString","properties":{"bus_network":"city","sort_rank":380,"kind_detail":"primary","is_bicycle_related":true,"kind":"major_road","bicycle_shield_text":"R1","bicycle_network":"icn","source":"openstreetmap.org","min_zoom":8.0,"bus_shield_text":"4","landuse_kind":"urban_area"},"arcs":[433]},{"type":"LineString","properties":{"kind":"major_road","network":"ru:regional","name:lt":"Soviet\u0173 g.","sort_rank":380,"kind_detail":"primary","bus_network":null,"source":"openstreetmap.org","min_zoom":8.0,"bus_shield_text":"105","shield_text":"27\u0410","ref":"27\u0410-016","id":131380399},"arcs":[434]},{"type":"LineString","properties":{"kind":"major_road","network":"ru:regional","sort_rank":380,"kind_detail":"primary","bus_network":null,"source":"openstreetmap.org","min_zoom":8.0,"bus_shield_text":"249","shield_text":"27\u0410","ref":"27\u0410-020","id":67803612},"arcs":[435]},{"type":"LineString","properties":{"source":"openstreetmap.org","bus_network":"city","bus_shield_text":"7","sort_rank":380,"kind_detail":"primary","min_zoom":8.0,"kind":"major_road"},"arcs":[436]},{"type":"LineString","properties":{"bus_network":null,"sort_rank":380,"kind_detail":"primary","is_bicycle_related":true,"kind":"major_road","bicycle_shield_text":"R1","bicycle_network":"icn","source":"openstreetmap.org","min_zoom":8.0,"bus_shield_text":"141","landuse_kind":"residential"},"arcs":[437]},{"type":"LineString","properties":{"kind":"major_road","network":"ru:regional","sort_rank":377,"kind_detail":"tertiary","is_bicycle_related":true,"bicycle_shield_text":"R1","bicycle_network":"icn","source":"openstreetmap.org","min_zoom":8.0,"shield_text":"27\u041a","ref":"27\u041a-100"},"arcs":[438]},{"type":"LineString","properties":{"bus_network":null,"network":"ru:regional","name:lt":"Soviet\u0173 g.","sort_rank":379,"kind_detail":"secondary","is_bicycle_related":true,"kind":"major_road","bicycle_shield_text":null,"bicycle_network":"icn","source":"openstreetmap.org","min_zoom":8.0,"bus_shield_text":"120","shield_text":"27\u041a","ref":"27\u041a-369","id":119311541},"arcs":[439]},{"type":"MultiLineString","properties":{"bus_network":null,"network":"pl:national","sort_rank":380,"kind_detail":"primary","kind":"major_road","source":"openstreetmap.org","min_zoom":8.0,"bus_shield_text":"247","shield_text":"51","ref":"51;512"},"arcs":[[440],[441],[442],[443]]},{"type":"LineString","properties":{"bus_network":"city","sort_rank":379,"kind_detail":"secondary","old_name":"Cecilienallee","is_bicycle_related":true,"kind":"major_road","bicycle_shield_text":null,"name:de":"Proletarische Stra\u00dfe","source":"openstreetmap.org","min_zoom":8.0,"bus_shield_text":"14","landuse_kind":"urban_area","id":58648297,"bicycle_network":"icn"},"arcs":[444]},{"type":"LineString","properties":{"bus_network":null,"network":"pl:national","sort_rank":380,"kind_detail":"primary","kind":"major_road","source":"openstreetmap.org","min_zoom":8.0,"bus_shield_text":"249","shield_text":"54","ref":"54"},"arcs":[445]},{"type":"LineString","properties":{"bus_network":null,"network":"ru:regional","sort_rank":379,"kind_detail":"secondary","is_bicycle_related":true,"kind":"major_road","bicycle_shield_text":"R1","bicycle_network":"icn","source":"openstreetmap.org","min_zoom":8.0,"bus_shield_text":"120","shield_text":"27\u041a","ref":"27\u041a-139"},"arcs":[446]},{"type":"MultiLineString","properties":{"kind":"major_road","sort_rank":377,"kind_detail":"tertiary","is_bicycle_related":true,"bicycle_shield_text":null,"bicycle_network":"icn","source":"openstreetmap.org","min_zoom":8.0,"landuse_kind":"urban_area"},"arcs":[[447],[448],[449]]},{"type":"MultiLineString","properties":{"kind":"path","sort_rank":354,"kind_detail":"cycleway","is_bicycle_related":true,"bicycle_shield_text":"GV","bicycle_network":"ncn","source":"openstreetmap.org","min_zoom":8.0},"arcs":[[450],[451],[452],[453],[454]]},{"type":"MultiLineString","properties":{"kind":"major_road","network":"ru:regional","sort_rank":381,"kind_detail":"trunk","source":"openstreetmap.org","min_zoom":8.0,"shield_text":"27\u0410","ref":"27\u0410-008"},"arcs":[[455],[456],[457],[458]]},{"type":"LineString","properties":{"bus_network":"city","network":"ru:regional","sort_rank":381,"kind_detail":"trunk","kind":"major_road","source":"openstreetmap.org","min_zoom":8.0,"bus_shield_text":"24","shield_text":"27\u0410","ref":"27\u0410-007"},"arcs":[459]},{"type":"MultiLineString","properties":{"bus_network":null,"sort_rank":380,"kind_detail":"primary","kind":"major_road","source":"openstreetmap.org","min_zoom":8.0,"bus_shield_text":"114","landuse_kind":"urban_area"},"arcs":[[460],[461],[462]]},{"type":"LineString","properties":{"bus_network":"KenigAuto","network":"ru:regional","sort_rank":380,"kind_detail":"primary","kind":"major_road","name:de":"Bahnhofstra\u00dfe","source":"openstreetmap.org","min_zoom":8.0,"bus_shield_text":"217","shield_text":"27\u041a","ref":"27\u041a-047"},"arcs":[463]},{"type":"MultiLineString","properties":{"bus_network":null,"network":"ru:national","sort_rank":381,"kind_detail":"trunk","kind":"major_road","source":"openstreetmap.org","min_zoom":8.0,"bus_shield_text":"144","shield_text":"217","landuse_kind":"aerodrome","ref":"\u0410-217"},"arcs":[[464],[465]]},{"type":"LineString","properties":{"bus_network":null,"network":"pl:national","sort_rank":381,"kind_detail":"trunk","kind":"major_road","source":"openstreetmap.org","min_zoom":8.0,"bus_shield_text":"249","shield_text":"22","ref":"S22"},"arcs":[466]},{"type":"MultiLineString","properties":{"bus_network":"city","sort_rank":380,"kind_detail":"primary","kind":"major_road","source":"openstreetmap.org","min_zoom":8.0,"bus_shield_text":"Trolley 1","landuse_kind":"urban_area"},"arcs":[[467],[468],[469],[470],[471],[472],[473]]},{"type":"MultiLineString","properties":{"source":"openstreetmap.org","kind":"major_road","landuse_kind":"urban_area","sort_rank":380,"kind_detail":"primary","min_zoom":8.0},"arcs":[[474],[475],[476],[477],[478],[479],[480],[481],[482],[483],[484],[485],[486],[487],[488],[489],[490],[491],[492],[493],[494],[495]]},{"type":"LineString","properties":{"kind":"major_road","sort_rank":381,"kind_detail":"trunk","bus_network":"city","source":"openstreetmap.org","min_zoom":8.0,"bus_shield_text":"101","landuse_kind":"urban_area","id":132077323},"arcs":[496]},{"type":"MultiLineString","properties":{"bus_network":"city","sort_rank":380,"kind_detail":"primary","kind":"major_road","source":"openstreetmap.org","min_zoom":8.0,"bus_shield_text":"1","name:pl":"ulica Dzier\u017cy\u0144skiego","landuse_kind":"urban_area"},"arcs":[[497],[498]]},{"type":"LineString","properties":{"kind":"path","sort_rank":354,"kind_detail":"footway","is_bicycle_related":true,"bicycle_shield_text":"R1","bicycle_network":"icn","source":"openstreetmap.org","min_zoom":8.0,"landuse_kind":"urban_area","id":435401091},"arcs":[499]},{"type":"MultiLineString","properties":{"kind":"minor_road","sort_rank":360,"kind_detail":"residential","is_bicycle_related":true,"bicycle_shield_text":"GV","bicycle_network":"ncn","source":"openstreetmap.org","min_zoom":8.0},"arcs":[[500],[501],[502],[503],[504],[505],[506],[507]]},{"type":"LineString","properties":{"bus_network":null,"name:lt":"Lenino g.","sort_rank":380,"kind_detail":"primary","is_bicycle_related":true,"kind":"major_road","bicycle_shield_text":"R1","bicycle_network":"icn","source":"openstreetmap.org","min_zoom":8.0,"bus_shield_text":"141","landuse_kind":"residential"},"arcs":[508]},{"type":"MultiLineString","properties":{"bus_network":"city","sort_rank":380,"kind_detail":"primary","kind":"major_road","source":"openstreetmap.org","min_zoom":8.0,"bus_shield_text":"9","landuse_kind":"urban_area"},"arcs":[[509],[510],[511],[512],[513],[514]]},{"type":"LineString","properties":{"kind":"major_road","sort_rank":381,"kind_detail":"trunk","bus_network":"city","source":"openstreetmap.org","min_zoom":8.0,"bus_shield_text":"24","landuse_kind":"urban_area","id":145908455},"arcs":[515]},{"type":"MultiLineString","properties":{"kind":"path","sort_rank":354,"kind_detail":"path","is_bicycle_related":true,"bicycle_shield_text":"GV","bicycle_network":"ncn","source":"openstreetmap.org","min_zoom":8.0},"arcs":[[516],[517]]},{"type":"MultiLineString","properties":{"source":"openstreetmap.org","kind":"major_road","network":"ru:regional","sort_rank":381,"kind_detail":"trunk","min_zoom":8.0,"shield_text":null},"arcs":[[518],[519]]},{"type":"MultiLineString","properties":{"bus_network":"city","sort_rank":380,"landuse_kind":"urban_area","kind":"major_road","name:de":"Tapiauer Stra\u00dfe","source":"openstreetmap.org","min_zoom":8.0,"bus_shield_text":"Trolley 2","kind_detail":"primary"},"arcs":[[520],[521]]},{"type":"MultiLineString","properties":{"bus_network":null,"network":"ru:regional","sort_rank":380,"kind_detail":"primary","kind":"major_road","source":"openstreetmap.org","min_zoom":8.0,"bus_shield_text":"247","shield_text":"27\u0410","ref":"27\u0410-017"},"arcs":[[522],[523]]},{"type":"MultiLineString","properties":{"bus_network":"city","sort_rank":380,"kind_detail":"primary","kind":"major_road","source":"openstreetmap.org","min_zoom":8.0,"bus_shield_text":"31","landuse_kind":"urban_area"},"arcs":[[524],[525],[526],[527],[528]]},{"type":"MultiLineString","properties":{"bus_network":"city","sort_rank":380,"kind_detail":"primary","is_bicycle_related":true,"kind":"major_road","bicycle_shield_text":"R1","bicycle_network":"icn","source":"openstreetmap.org","min_zoom":8.0,"bus_shield_text":"Trolley 7","landuse_kind":"urban_area"},"arcs":[[529],[530]]},{"type":"LineString","properties":{"kind":"path","sort_rank":354,"landuse_kind":"urban_area","is_bicycle_related":true,"bicycle_shield_text":null,"bicycle_network":"icn","source":"openstreetmap.org","min_zoom":8.0,"kind_detail":"footway"},"arcs":[531]},{"type":"MultiLineString","properties":{"kind":"major_road","sort_rank":355,"kind_detail":"primary_link","is_bicycle_related":true,"bicycle_shield_text":null,"bicycle_network":"icn","source":"openstreetmap.org","min_zoom":8.0,"is_link":true,"landuse_kind":"urban_area"},"arcs":[[532],[533]]},{"type":"LineString","properties":{"bus_network":null,"sort_rank":381,"landuse_kind":"urban_area","kind":"major_road","source":"openstreetmap.org","min_zoom":8.0,"bus_shield_text":"114","kind_detail":"trunk"},"arcs":[534]},{"type":"MultiLineString","properties":{"bus_network":null,"network":"ru:regional","name:lt":"Soviet\u0173 g.","sort_rank":379,"kind_detail":"secondary","is_bicycle_related":true,"kind":"major_road","bicycle_shield_text":null,"bicycle_network":"icn","source":"openstreetmap.org","min_zoom":8.0,"bus_shield_text":"120","shield_text":"27\u041a","ref":"27\u041a-063"},"arcs":[[535],[536]]},{"type":"LineString","properties":{"kind":"minor_road","sort_rank":360,"landuse_kind":"residential","is_bicycle_related":true,"bicycle_shield_text":null,"bicycle_network":"icn","source":"openstreetmap.org","min_zoom":8.0,"kind_detail":"residential"},"arcs":[537]},{"type":"MultiLineString","properties":{"kind":"major_road","sort_rank":377,"kind_detail":"tertiary","is_bicycle_related":true,"bicycle_shield_text":"GV","bicycle_network":"ncn","source":"openstreetmap.org","min_zoom":8.0},"arcs":[[538],[539],[540],[541],[542],[543],[544]]},{"type":"LineString","properties":{"kind":"path","sort_rank":354,"landuse_kind":"urban_area","is_bicycle_related":true,"bicycle_shield_text":"R1","bicycle_network":"icn","source":"openstreetmap.org","min_zoom":8.0,"kind_detail":"steps"},"arcs":[545]},{"type":"LineString","properties":{"bus_network":"city","network":"e-road","sort_rank":381,"kind_detail":"trunk","kind":"major_road","source":"openstreetmap.org","min_zoom":8.0,"bus_shield_text":"37","shield_text":"28"},"arcs":[546]},{"type":"LineString","properties":{"bus_network":null,"network":"pl:national","sort_rank":380,"kind_detail":"primary","kind":"major_road","source":"openstreetmap.org","min_zoom":8.0,"bus_shield_text":"250","shield_text":"51","ref":"51"},"arcs":[547]},{"type":"MultiLineString","properties":{"bus_network":null,"network":"ru:national","sort_rank":381,"landuse_kind":"urban_area","kind":"major_road","source":"openstreetmap.org","min_zoom":8.0,"bus_shield_text":"114","shield_text":"217","kind_detail":"trunk","ref":"\u0410-217"},"arcs":[[548],[549],[550]]},{"type":"MultiLineString","properties":{"bus_network":null,"network":"ru:national","sort_rank":380,"kind_detail":"primary","kind":"major_road","source":"openstreetmap.org","min_zoom":8.0,"bus_shield_text":"114","shield_text":"217","ref":"\u0410-217"},"arcs":[[551],[552]]},{"type":"LineString","properties":{"bus_network":null,"bicycle_shield_text":"R1","min_zoom":8.0,"bus_shield_text":"249","name:de":"uliza Tschekistow","id":146612409,"kind":"major_road","network":"ru:regional","sort_rank":380,"landuse_kind":"residential","is_bicycle_related":true,"bicycle_network":"icn","source":"openstreetmap.org","kind_detail":"primary","shield_text":"27\u0410","ref":"27\u0410-020"},"arcs":[553]},{"type":"MultiLineString","properties":{"kind":"major_road","sort_rank":379,"kind_detail":"secondary","is_bicycle_related":true,"bicycle_shield_text":null,"bicycle_network":"icn","source":"openstreetmap.org","min_zoom":8.0,"landuse_kind":"urban_area"},"arcs":[[554],[555],[556]]},{"type":"LineString","properties":{"kind":"major_road","sort_rank":355,"kind_detail":"primary_link","is_bicycle_related":true,"bicycle_shield_text":"R1","bicycle_network":"icn","source":"openstreetmap.org","min_zoom":8.0,"is_link":true,"landuse_kind":"urban_area","id":64310805},"arcs":[557]},{"type":"LineString","properties":{"kind":"minor_road","sort_rank":360,"kind_detail":"unclassified","is_bicycle_related":true,"bicycle_shield_text":"R1","bicycle_network":"icn","source":"openstreetmap.org","min_zoom":8.0,"landuse_kind":"urban_area","id":32454235},"arcs":[558]},{"type":"LineString","properties":{"kind":"major_road","name:lt":"Komsomolsko g.","sort_rank":377,"kind_detail":"tertiary","is_bicycle_related":true,"bicycle_shield_text":"R1","bicycle_network":"icn","source":"openstreetmap.org","min_zoom":8.0,"ref":"27\u041a-158"},"arcs":[559]},{"type":"MultiLineString","properties":{"bus_network":"city","sort_rank":380,"kind_detail":"primary","kind":"major_road","source":"openstreetmap.org","min_zoom":8.0,"bus_shield_text":"3","name:pl":"ulica Dzier\u017cy\u0144skiego","landuse_kind":"urban_area"},"arcs":[[560],[561]]},{"type":"LineString","properties":{"kind":"path","sort_rank":354,"landuse_kind":"urban_area","is_bicycle_related":true,"bicycle_shield_text":"R1","bicycle_network":"icn","source":"openstreetmap.org","min_zoom":8.0,"kind_detail":"pedestrian"},"arcs":[562]},{"type":"MultiLineString","properties":{"kind":"major_road","network":"pl:national","sort_rank":380,"kind_detail":"primary","is_bicycle_related":true,"source":"openstreetmap.org","min_zoom":8.0,"shield_text":"54","ref":"54"},"arcs":[[563],[564]]},{"type":"LineString","properties":{"kind":"major_road","sort_rank":380,"kind_detail":"primary","bus_network":"city","source":"openstreetmap.org","min_zoom":8.0,"bus_shield_text":"1","id":107288308},"arcs":[565]},{"type":"LineString","properties":{"bus_network":"city","sort_rank":380,"kind_detail":"primary","is_bicycle_related":true,"kind":"major_road","bicycle_shield_text":null,"bicycle_network":"icn","source":"openstreetmap.org","min_zoom":8.0,"bus_shield_text":"Trolley 7","landuse_kind":"urban_area"},"arcs":[566]},{"type":"LineString","properties":{"bus_network":"city","network":"e-road","sort_rank":381,"landuse_kind":"urban_area","is_bicycle_related":true,"kind":"major_road","source":"openstreetmap.org","min_zoom":8.0,"bus_shield_text":"37","shield_text":"28","kind_detail":"trunk"},"arcs":[567]},{"type":"LineString","properties":{"kind":"major_road","sort_rank":355,"kind_detail":"primary_link","is_bicycle_related":true,"bus_network":"city","bicycle_shield_text":"R1","bicycle_network":"icn","source":"openstreetmap.org","min_zoom":8.0,"is_link":true,"bus_shield_text":"Trolley 7","landuse_kind":"urban_area","id":128052451},"arcs":[568]},{"type":"LineString","properties":{"kind":"major_road","network":"ru:regional","sort_rank":380,"kind_detail":"primary","bus_network":null,"source":"openstreetmap.org","min_zoom":8.0,"bus_shield_text":"114","shield_text":"27\u0410","landuse_kind":"residential","ref":"27\u0410-001","id":79498903},"arcs":[569]},{"type":"LineString","properties":{"source":"openstreetmap.org","kind":"major_road","sort_rank":380,"kind_detail":"primary","ref":"54","min_zoom":8.0},"arcs":[570]},{"type":"LineString","properties":{"bus_network":null,"network":"pl:national","sort_rank":381,"kind_detail":"trunk","kind":"major_road","source":"openstreetmap.org","min_zoom":8.0,"bus_shield_text":"253","shield_text":"22","landuse_kind":"nature_reserve","ref":"S22"},"arcs":[571]},{"type":"MultiLineString","properties":{"bus_network":"city","sort_rank":380,"kind_detail":"primary","kind":"major_road","source":"openstreetmap.org","min_zoom":8.0,"bus_shield_text":"37","landuse_kind":"urban_area"},"arcs":[[572],[573]]},{"type":"MultiLineString","properties":{"bus_network":null,"network":"pl:national","sort_rank":380,"kind_detail":"primary","kind":"major_road","source":"openstreetmap.org","min_zoom":8.0,"bus_shield_text":"247","shield_text":"51","ref":"51"},"arcs":[[574],[575],[576],[577],[578],[579],[580],[581],[582],[583],[584],[585],[586],[587],[588]]},{"type":"LineString","properties":{"kind":"major_road","sort_rank":380,"kind_detail":"primary","is_bicycle_related":true,"bus_network":"city","bicycle_shield_text":"R1","bicycle_network":"icn","source":"openstreetmap.org","min_zoom":8.0,"bus_shield_text":"18","id":133592973},"arcs":[589]},{"type":"LineString","properties":{"kind":"major_road","network":"pl:national","sort_rank":380,"kind_detail":"primary","bus_network":null,"source":"openstreetmap.org","min_zoom":8.0,"bus_shield_text":"247","shield_text":"51","ref":"51;57","id":22414299},"arcs":[590]},{"type":"MultiLineString","properties":{"bus_network":"city","sort_rank":380,"kind_detail":"primary","kind":"major_road","source":"openstreetmap.org","min_zoom":8.0,"bus_shield_text":"Trolley 2","landuse_kind":"urban_area"},"arcs":[[591],[592],[593],[594],[595],[596],[597],[598],[599]]},{"type":"MultiLineString","properties":{"bus_network":null,"network":"ru:regional","sort_rank":380,"kind_detail":"primary","kind":"major_road","source":"openstreetmap.org","min_zoom":8.0,"bus_shield_text":"514","shield_text":"27\u0410","ref":"27\u0410-024"},"arcs":[[600],[601]]},{"type":"MultiLineString","properties":{"kind":"major_road","network":"ru:regional","name:lt":"Lenino prospektas","sort_rank":380,"kind_detail":"primary","bus_network":null,"source":"openstreetmap.org","min_zoom":8.0,"bus_shield_text":"107","shield_text":"27\u0410","ref":"27\u0410-016","id":262037730},"arcs":[[602],[603]]},{"type":"LineString","properties":{"bus_network":"city","sort_rank":379,"landuse_kind":"urban_area","is_bicycle_related":true,"kind":"major_road","bicycle_shield_text":null,"bicycle_network":"icn","source":"openstreetmap.org","min_zoom":8.0,"bus_shield_text":"14","kind_detail":"secondary"},"arcs":[604]},{"type":"MultiLineString","properties":{"bus_network":"city","sort_rank":380,"kind_detail":"primary","kind":"major_road","source":"openstreetmap.org","min_zoom":8.0,"bus_shield_text":"Trolley 6","landuse_kind":"urban_area"},"arcs":[[605],[606],[607],[608],[609],[610],[611]]},{"type":"LineString","properties":{"kind":"major_road","sort_rank":380,"kind_detail":"primary","old_name":"Steindamm","is_bicycle_related":true,"bus_network":"city","bicycle_shield_text":"R1","bicycle_network":"icn","source":"openstreetmap.org","min_zoom":8.0,"bus_shield_text":"Trolley 7","landuse_kind":"urban_area","name:de":"Leninallee","id":287010164},"arcs":[612]},{"type":"MultiLineString","properties":{"source":"openstreetmap.org","bus_network":"city","bus_shield_text":"101","sort_rank":380,"kind_detail":"primary","min_zoom":8.0,"kind":"major_road"},"arcs":[[613],[614],[615]]},{"type":"MultiLineString","properties":{"bus_network":"city","network":"ru:regional","sort_rank":381,"kind_detail":"trunk","kind":"major_road","source":"openstreetmap.org","min_zoom":8.0,"bus_shield_text":"8","shield_text":"27\u0410","ref":"27\u0410-007"},"arcs":[[616],[617],[618]]},{"type":"MultiLineString","properties":{"bus_network":"city","network":"ru:regional","sort_rank":381,"landuse_kind":"urban_area","kind":"major_road","source":"openstreetmap.org","min_zoom":8.0,"bus_shield_text":"24","shield_text":"27\u0410","kind_detail":"trunk","ref":"27\u0410-007"},"arcs":[[619],[620],[621],[622]]},{"type":"MultiLineString","properties":{"bus_network":null,"network":"ru:national","sort_rank":381,"kind_detail":"trunk","kind":"major_road","source":"openstreetmap.org","min_zoom":8.0,"bus_shield_text":"114","shield_text":"217","ref":"\u0410-217"},"arcs":[[623],[624]]},{"type":"LineString","properties":{"kind":"major_road","network":"ru:regional","sort_rank":380,"kind_detail":"primary","source":"openstreetmap.org","min_zoom":8.0,"shield_text":"27\u0410","ref":"27\u0410-029"},"arcs":[625]}]},"earth":{"type":"GeometryCollection","geometries":[{"type":"Polygon","properties":{"sort_rank":10,"source":"naturalearthdata.com","kind":"earth","min_zoom":0.0,"id":4768},"arcs":[[626]]}]},"landuse":{"type":"GeometryCollection","geometries":[{"type":"Polygon","properties":{"kind":"nature_reserve","protect_class":"4","area":128408000,"sort_rank":23,"source":"openstreetmap.org","min_zoom":7.0,"tier":2,"id":-2719039,"osm_relation":true},"arcs":[[627]]},{"type":"MultiPolygon","properties":{"source":"openstreetmap.org","kind":"military","tier":3,"area":39912062,"sort_rank":45,"min_zoom":8.0},"arcs":[[[628]]]},{"type":"MultiPolygon","properties":{"source":"naturalearthdata.com","kind":"urban_area","name":"","area":595000829,"sort_rank":11,"min_zoom":4.0},"arcs":[[[629]],[[630]]]},{"type":"Polygon","properties":{"int_name":"Mamonovo","name:lt":"Mamonovas","min_zoom":8.0,"name:sl":"Mamonovo","old_name":"\u0425\u0430\u0439\u043b\u0438\u0433\u0435\u043d\u0431\u0430\u0439\u043b\u044c","tier":2,"name:pl":"Mamonowo","name:de":"Mamonowo","id":71760308,"kind":"residential","name:en":"Mamonovo","name":"\u041c\u0430\u043c\u043e\u043d\u043e\u0432\u043e","area":10134900,"sort_rank":20,"old_name:de":"Heiligenbeil","old_name:pl":"\u015awi\u0119tomiejsce","old_name:lt":"\u0160ventapil\u0117","source":"openstreetmap.org"},"arcs":[[631]]},{"type":"Polygon","properties":{"int_name":"Selenogradsk","name:lt":"Zelenogradskas","min_zoom":8.0,"name:sl":"Zelenogradsk","old_name":"\u041a\u0440\u0430\u043d\u0446","tier":2,"name:pl":"Zielenogradsk","name:de":"Selenogradsk","id":80819153,"kind":"residential","name:en":"Zelenogradsk","name":"\u0417\u0435\u043b\u0435\u043d\u043e\u0433\u0440\u0430\u0434\u0441\u043a","area":11321600,"old_name:pl":"Koronowo, Kranc","old_name:de":"Cranz","sort_rank":20,"old_name:lt":"Krantas","source":"openstreetmap.org","name:et":"Zelenogradsk"},"arcs":[[632]]},{"type":"Polygon","properties":{"kind":"aerodrome","area":11489600,"sort_rank":60,"operator":"\u0417\u0410\u041e \u00ab\u0410\u044d\u0440\u043e\u043f\u043e\u0440\u0442 \u00ab\u0425\u0440\u0430\u0431\u0440\u043e\u0432\u043e\u00bb","source":"openstreetmap.org","min_zoom":8.0,"tier":3,"id":59178160},"arcs":[[633]]},{"type":"MultiPolygon","properties":{"source":"openstreetmap.org","kind":"aerodrome","tier":3,"area":33775380,"sort_rank":60,"min_zoom":8.0},"arcs":[[[634]]]},{"type":"MultiPolygon","properties":{"source":"openstreetmap.org","kind":"residential","tier":2,"area":50867350,"sort_rank":20,"min_zoom":8.0},"arcs":[[[635]]]},{"type":"Polygon","properties":{"kind":"park","area":1051750016,"sort_rank":24,"source":"openstreetmap.org","min_zoom":4.0,"tier":2,"id":-3974416,"osm_relation":true},"arcs":[[636]]},{"type":"Polygon","properties":{"kind":"military","area":667120000,"sort_rank":45,"source":"openstreetmap.org","min_zoom":8.0,"tier":3,"id":-3620923,"osm_relation":true},"arcs":[[637]]}]}},"type":"Topology","transform":{"translate":[19.6875,54.1624339681],"scale":[0.0003433228,0.0001990185]},"arcs":[[[0,1447],[1878,-248],[458,-91],[276,-25],[136,-58],[170,29],[376,-61],[387,-15],[415,-64]],[[4096,914],[-415,64],[-387,15],[-376,61],[-170,-29],[-136,58],[-276,25],[-458,91],[-1878,248]],[[705,1505],[114,171],[70,41],[184,197],[423,164],[133,-66],[237,18],[171,141],[279,496],[30,9],[36,-31]],[[2373,2661],[-29,25],[-14,74],[56,106],[61,47]],[[2447,2914],[77,75],[14,51],[129,102],[223,92],[615,40],[203,116],[378,98],[10,-3]],[[1314,0],[16,68],[-81,82],[-15,114],[52,185],[-77,9],[-121,76],[-95,10],[-179,362],[-352,168],[-14,36]],[[2373,2661],[-44,95],[51,92],[-57,41],[-56,118],[-98,31],[-43,46],[-162,5],[-89,50],[-223,247],[0,127],[-34,76],[-45,356],[-25,15],[-60,-50],[-128,-39],[-59,33],[36,23]],[[1745,2881],[-151,-18],[-221,69],[-422,-48],[-128,-69],[-71,-102],[-86,-233],[-62,-65]],[[1773,2883],[-28,-2]],[[2207,2749],[-333,137],[-101,-3]],[[4096,2363],[-45,17],[-148,-62],[-252,67],[-443,-92],[-473,161],[-222,148],[-60,11]],[[4096,2363],[-45,17],[-148,-62],[-252,67],[-443,-92],[-473,161],[-222,148],[-60,11]],[[4096,2363],[-45,17],[-148,-62],[-252,67],[-443,-92],[-473,161],[-222,148],[-60,11]],[[2288,3988],[-208,-76],[-97,-61],[-323,18],[-107,91],[-65,-50],[-123,-38],[-64,32],[36,23]],[[2373,2661],[-29,25],[-14,74],[56,106],[88,86],[13,91],[-92,254],[-68,366],[23,164],[-62,161]],[[2288,3988],[-1,12]],[[4096,2363],[-45,17],[-148,-62],[-252,67],[-443,-92],[-473,161],[-222,148],[-60,11]],[[308,1914],[293,373],[16,27],[23,26],[39,24],[39,4],[34,-4],[28,13],[18,55],[-40,34],[-9,80],[11,92],[19,69],[33,53],[45,31],[54,15],[58,5],[57,-27],[14,-66],[4,-85],[24,-80],[54,-66],[38,-5],[78,88],[187,109],[670,-40],[0,-38],[-213,-99],[-45,-40],[-72,-83],[-38,-34],[-80,-28],[-382,-212],[-57,-19],[-29,-15],[-39,-71],[-31,-16],[-37,4],[-20,12],[-19,22],[-34,30],[-115,9],[-71,-129],[-69,-173],[-106,-121],[-194,-89],[-136,365]],[[444,1549],[-55,-12],[-17,-20],[-15,-48],[-19,-47],[-29,-22],[-85,-24],[-30,-16],[-32,3],[5,-22],[8,-55],[5,-22],[-45,-11],[-23,-49],[-16,-56],[-26,-25],[-41,-6],[-29,-12],[0,496],[156,120],[152,193],[136,-365]],[[4096,3723],[-9,-9],[-34,-9],[-9,18],[-28,34],[-30,22],[-15,-21],[-34,-32],[-204,-21],[-317,58],[-161,148],[-120,35],[-544,-44],[-55,9],[-22,20],[-27,37],[-22,38],[-8,25],[7,45],[19,15],[19,5],[1594,0],[0,-373]],[[2328,4096],[-13,-10],[-219,-121],[-121,-27],[-465,62],[-182,-34],[-199,13],[-121,-31],[-35,15],[-75,85],[-56,-17],[-58,-64],[-46,-88],[-19,-88],[-40,-137],[5,-65],[10,-48],[77,-255],[19,-98],[9,-119],[-16,-82],[-76,-188],[-44,-85],[-28,-39],[-16,-36],[-2,-23],[5,-57],[-3,-23],[-11,-25],[-10,-6],[-12,-4],[-16,-20],[-149,-292],[-285,-364],[-136,-124],[0,2395],[2328,0]],[[0,1701],[136,124],[285,364],[149,292],[16,20],[12,4],[10,6],[11,25],[3,23],[-5,57],[2,23],[16,36],[28,39],[44,85],[76,188],[16,82],[-9,119],[-19,98],[-77,255],[-10,48],[-5,65],[40,137],[19,88],[46,88],[58,64],[56,17],[75,-85],[35,-15],[121,31],[199,-13],[182,34],[465,-62],[121,27],[219,121],[13,10]],[[2502,4096],[-19,-5],[-19,-15],[-7,-45],[8,-25],[22,-38],[27,-37],[22,-20],[55,-9],[544,44],[120,-35],[161,-148],[317,-58],[204,21],[34,32],[15,21],[30,-22],[28,-34],[9,-18],[34,9],[9,9]],[[308,1914],[293,373],[16,27],[23,26],[39,24],[39,4],[34,-4],[28,13],[18,55],[-40,34],[-9,80],[11,92],[19,69],[33,53],[45,31],[54,15],[58,5],[57,-27],[14,-66],[4,-85],[24,-80],[54,-66],[38,-5],[78,88],[187,109],[670,-40],[0,-38],[-213,-99],[-45,-40],[-72,-83],[-38,-34],[-80,-28],[-382,-212],[-57,-19],[-29,-15],[-39,-71],[-31,-16],[-37,4],[-20,12],[-19,22],[-34,30],[-115,9],[-71,-129],[-69,-173],[-106,-121],[-194,-89],[-136,365]],[[444,1549],[-55,-12],[-17,-20],[-15,-48],[-19,-47],[-29,-22],[-85,-24],[-30,-16],[-32,3],[5,-22],[8,-55],[5,-22],[-45,-11],[-23,-49],[-16,-56],[-26,-25],[-41,-6],[-29,-12]],[[0,1601],[156,120],[152,193],[136,-365]],[[1699,3286],[84,17],[156,-44],[172,-139],[44,-72]],[[424,1138],[187,227]],[[2533,2747],[28,-2]],[[2352,2757],[-3,0]],[[2388,2806],[0,4]],[[2390,2817]],[[2390,2885],[-17,33],[23,-71]],[[2393,2821],[1,10]],[[3275,432],[-1,-2]],[[3352,387]],[[2799,1405],[51,-118],[-31,-219]],[[928,3404],[-164,79]],[[1288,2559],[-33,-13]],[[1292,2564],[-4,-5]],[[1295,2567],[-3,-3]],[[1295,2567],[12,18]],[[1307,2585],[-12,-18]],[[2338,2735],[42,0]],[[2269,2653],[-20,-24]],[[2489,2482],[8,-50]],[[1325,2609],[56,33]],[[1381,2642],[-55,-32]],[[1510,2703],[-129,-61]],[[1510,2704]],[[387,1105],[7,5]],[[407,1069],[-14,23]],[[428,1109],[-3,-4]],[[441,1102],[6,6]],[[2380,2735],[0,-1]],[[2404,2730],[-6,3]],[[2406,2730]],[[2408,2730]],[[2386,2753],[0,1]],[[2363,2682],[-14,4]],[[2759,2549],[-2,1]],[[2757,2548],[2,1]],[[2759,2549],[102,-41],[31,-59],[294,-142],[26,29],[168,28],[106,-20],[171,39],[257,-91],[68,19],[114,-34]],[[2294,4007],[1,0]],[[2356,4035],[-48,-20]],[[1783,3913],[0,1]],[[2310,3981],[-15,23]],[[2286,2983],[40,-89],[1,-1],[11,-5],[10,-3],[5,18]],[[2354,2904],[-26,-10],[-41,89]],[[2459,2864],[-13,-31]],[[2459,2864],[1,8]],[[2461,2912],[-1,-5]],[[2460,2907],[0,-35]],[[2461,2912],[8,24]],[[2466,2617],[4,-10]],[[2026,2790],[-35,-14],[31,12]],[[2292,3025],[-84,-32]],[[2761,2456],[351,-741],[46,-42],[121,-24],[162,-83],[221,39],[434,-379]],[[2652,2717],[-1,-10]],[[2385,2753],[1,0]],[[2247,2773],[36,35]],[[928,3404],[18,-57],[127,-130]],[[1351,3928],[-46,-12]],[[2191,2997],[8,8]],[[2715,2736],[-8,-2]],[[2707,2734],[23,4]],[[2398,2733],[8,-3]],[[2477,2750],[-35,57]],[[928,2915],[3,-41]],[[2357,4036],[-1,-2]],[[2390,2817],[3,4]],[[2394,2825],[2,22]],[[2396,2847],[-2,-16]],[[2536,2842],[-4,-2]],[[2533,2840],[3,2]],[[2536,2842],[57,59]],[[2388,2810],[2,7]],[[2390,2801],[-2,5]],[[931,2874],[-27,-23]],[[987,3898],[-69,-70],[55,-166],[-45,-258]],[[1073,3217],[-67,-51],[-4,-82],[-63,-92],[-11,-77]],[[1345,3905],[-40,11]],[[1398,3855],[-15,18]],[[1398,3855],[0,-1]],[[1398,3855]],[[1400,3853],[1,0]],[[1401,3853],[0,1]],[[1401,3853],[47,-48]],[[1498,3705],[157,-98],[60,83],[178,40]],[[1398,3855],[0,-2],[2,0]],[[1400,3853],[0,2],[-2,0]],[[1431,3277],[103,-170],[-3,-62],[-62,-90]],[[3721,2553],[375,6]],[[2289,2910],[-41,34]],[[2367,2801],[-57,86]],[[2371,2796],[-1,2]],[[2338,2725],[-92,-56]],[[2359,2861],[0,16]],[[604,1355],[7,10]],[[361,1138],[8,-6]],[[378,1124],[16,-14]],[[428,1109],[13,-7]],[[805,3857],[6,44],[25,-1]],[[2652,2692],[0,-1]],[[2492,3041],[-46,7]],[[2492,3041],[11,1]],[[2545,3015],[-42,27]],[[2625,2933],[2,-2]],[[2655,2733],[-6,37]],[[2650,2835],[-2,-55],[6,-47]],[[686,2371],[-26,-2]],[[423,1106],[-4,-5]],[[1416,3900],[-33,-27]],[[1566,3976],[-13,2]],[[2357,4036],[-1,-1]],[[2375,2695],[-8,-15]],[[2383,2721],[-5,-17]],[[2384,2723],[7,26]],[[2509,2824],[-2,-3]],[[2507,2821],[-11,-10]],[[2496,2811],[-1,-1],[-7,-24],[-17,-17]],[[2471,2768],[15,15],[4,6],[5,18],[1,3],[0,1]],[[2496,2811],[1,1],[9,9],[1,0]],[[2507,2821],[3,3]],[[2532,2839],[1,1]],[[1587,3940],[-23,16]],[[1609,3967],[-21,-26]],[[2281,3000],[5,-17]],[[2287,2983],[5,45]],[[2654,2733],[-2,-26],[0,-15]],[[2653,2691],[2,42]],[[1151,3910],[-79,11],[-85,-23]],[[2593,2901],[30,28]],[[2295,4007],[13,8]],[[596,2420],[8,-1]],[[2653,2722],[-5,1]],[[2362,2802],[-17,-4]],[[2482,2586],[9,-16]],[[2401,2757],[-8,3]],[[2310,2882],[1,-1]],[[355,1077],[28,14]],[[385,1091],[-2,0]],[[383,1091],[2,-1]],[[4027,2453],[33,115]],[[2319,616],[1,0]],[[2323,601],[3,-35]],[[3304,506],[-41,-28]],[[3347,601],[-31,-80]],[[2375,2695],[-8,-15]],[[2081,3753],[1,98],[56,0],[140,102]],[[1289,381],[-5,31]],[[1687,3790],[-21,55],[-57,23],[-21,72]],[[1448,3805],[43,-57],[7,-43],[-4,64],[-46,36]],[[387,1093],[-1,-1]],[[386,1091],[1,2]],[[387,1093],[37,45]],[[386,1090],[0,1],[-1,1],[0,-2],[1,0]],[[2436,2809],[-46,-8]],[[2213,2523],[178,-44]],[[2445,4096],[-5,-3]],[[1195,3567],[22,89]],[[2557,2152],[8,-32]],[[554,1035],[-16,7]],[[604,2419],[61,93]],[[2532,2840],[-23,-16]],[[2510,2824],[22,15]],[[2327,2895],[-1,0]],[[2347,2887],[-1,-1]],[[2348,2887],[-1,0]],[[2650,2722],[28,1]],[[1861,2384],[81,44]],[[2359,3756],[132,-207],[39,-83],[30,-45],[31,-86],[-59,-95],[-1,-3]],[[2531,3237],[-5,-27]],[[2526,3210],[-8,-43],[-1,-2],[-26,-78]],[[2492,3086],[26,79],[0,2],[8,43]],[[2526,3210],[5,26],[0,1]],[[2531,3237],[60,98],[-28,84],[-33,47],[-39,84],[-115,189]],[[2003,2992],[6,1]],[[2104,3001],[6,1]],[[688,972],[13,10]],[[701,982],[-13,-9]],[[701,982],[322,252]],[[1023,1234],[9,7],[80,64]],[[1111,1305],[-88,-71]],[[1942,2428],[228,127]],[[611,1365],[81,114]],[[779,1516],[413,195]],[[1197,1717],[318,479],[346,188]],[[1510,2703],[0,1]],[[386,1104],[-2,-3]],[[386,1105],[0,-1],[1,0],[0,1],[-1,0]],[[2707,2734],[-29,-10]],[[4060,2568],[14,409],[-127,294],[16,146]],[[4042,2429],[2,-54]],[[726,3625],[8,58],[22,-3],[35,54],[14,123]],[[2375,2675],[40,2]],[[2415,2678],[-37,-2]],[[2756,2548],[1,-3]],[[2757,2545],[0,3]],[[2757,2545],[4,-89]],[[1322,2608],[1,-1]],[[1325,2609],[-1,1]],[[1416,3900],[-31,-4]],[[1073,3217],[108,56],[186,1]],[[1255,2546],[-37,-52]],[[1218,2494],[1,0],[-1,0]],[[2441,2822],[0,-7],[0,-1],[-1,-2]],[[2441,2811],[0,3],[0,8]],[[2446,2833],[-5,-11]],[[367,1033],[18,52]],[[385,1085],[1,5]],[[385,1090],[0,-5]],[[2408,2833],[-12,14]],[[2617,3597],[-53,-48],[-1,-4]],[[2563,3545],[-1,-45]],[[2562,3500],[0,-12],[0,-2],[-5,-41]],[[2558,3447],[5,40],[0,1],[-1,12]],[[2562,3500],[-1,42],[2,3]],[[2563,3545],[50,46],[4,4],[2,8]],[[1367,3274],[-172,293]],[[1217,3656],[-2,19]],[[1660,3957],[-22,3]],[[3263,466],[-1,7]],[[3262,460],[1,-9]],[[3266,436],[-3,15]],[[3274,430]],[[3275,432],[10,-4]],[[2731,2571],[-67,45],[-115,-4]],[[2390,2801],[-19,-5]],[[2190,2999],[1,-2]],[[2310,2938],[-2,-1]],[[2310,2935],[0,1]],[[2327,2893],[1,1]],[[1740,3955],[43,-41]],[[2353,2903],[20,12]],[[2372,2916],[-18,-12]],[[2378,2676],[-11,4]],[[2415,2677],[15,3]],[[2437,2673],[2,-2]],[[2288,4003],[6,4]],[[2353,3729],[2,7]],[[2354,3736],[-1,-7]],[[2353,3729],[5,-147],[107,-184],[-31,-115],[53,-48],[-21,-47],[18,-71]],[[2355,3952],[17,-9]],[[2378,3935],[-5,7]],[[2497,3108],[-2,0]],[[241,1333],[-9,18],[-24,-13],[-16,-77],[-87,-63],[-68,-191],[-25,-12]],[[242,1332],[79,-53],[18,-125]],[[348,1149],[13,-11]],[[369,1132],[9,-8]],[[419,1100],[2,-1]],[[531,902],[16,122]],[[1008,296],[35,-6],[6,30],[54,8]],[[1351,464],[-16,129]],[[2013,807],[-5,-13]],[[2375,266],[-5,9]],[[2374,225],[62,-56]],[[3095,16],[34,12],[54,85],[33,-15]],[[1699,3286],[1,159],[-45,162]],[[0,448],[49,24]],[[304,634],[149,145]],[[459,784],[220,182]],[[679,966],[9,6]],[[688,973],[-9,-7]],[[2249,2629],[-46,-43]],[[2434,2741],[-13,-53]],[[2422,2688],[13,53]],[[1164,1348],[-53,-43]],[[1112,1305],[52,43]],[[2446,2423],[-458,-439],[-405,-226],[-246,-269],[-173,-141]],[[2446,2423],[12,1]],[[2462,2425],[-16,-2]],[[1715,3690],[-28,100]],[[2375,266],[-1,-41]],[[4041,2436],[-8,16]],[[1192,1711],[5,6]],[[2373,2918],[-7,89]],[[594,2392],[-13,-30]],[[0,986],[242,31],[113,60]],[[384,1101],[9,-9]],[[707,1498],[72,18]],[[3352,387],[10,-7]],[[2376,3739],[-19,20],[-19,17],[-35,19],[-69,14],[-164,13],[-120,-15],[-96,8],[-76,-2],[-132,-9],[-23,-5],[-31,-13],[-75,-36],[-29,-4]],[[1488,3745],[28,4],[125,53],[309,4],[119,16],[234,-28],[56,-38]],[[2170,2555],[43,-32]],[[2391,2479],[64,-52]],[[2455,2427],[2,-3]],[[2462,2425],[-7,2]],[[2635,2939],[60,128]],[[2703,3087],[42,68],[166,36]],[[2446,3048],[-53,13],[-101,-36]],[[2551,2998],[-6,17]],[[2203,2586],[-23,-22]],[[2349,2686],[-80,-33]],[[2349,2686],[-10,40]],[[2634,2938],[1,1]],[[1345,3905],[6,23]],[[551,864],[3,2]],[[2370,2798],[-3,3]],[[2338,2860],[-1,-4]],[[2339,2857],[1,2]],[[726,3624],[0,1]],[[1774,2949],[94,59],[52,-29],[83,13]],[[2009,2993],[95,8]],[[2110,3002],[63,14],[17,-17]],[[2639,2906],[-4,14]],[[2356,4034],[-44,-53]],[[2409,2730],[-1,14]],[[4096,2558],[-195,-22],[-167,16],[-19,1]],[[3715,2553],[-6,1],[-19,-1],[-211,65],[-125,13],[-22,11],[-51,25],[-2,0]],[[3279,2667],[-4,0]],[[3275,2667],[-19,2],[-88,-8],[-23,1],[-7,1]],[[3138,2663],[-24,1],[-7,1],[-19,4],[-4,1]],[[3084,2670],[-126,34],[-1,0],[-112,7],[-92,25],[-23,2],[-15,-2]],[[2730,2738],[101,-25],[32,-5],[94,-4],[119,-33],[8,-1]],[[3084,2670],[54,-7]],[[3138,2663],[11,-1],[23,-2],[84,9],[19,-2]],[[3275,2667],[3,0],[1,0]],[[3279,2667],[6,-3],[48,-23],[13,-8],[8,-3],[22,-6],[30,-6],[68,0],[198,-64],[18,-2],[25,1]],[[3715,2553],[2,0],[4,0]],[[2819,1068],[7,-8],[7,-8],[-6,8],[-8,8]],[[2408,2730],[-2,0]],[[1660,3957],[80,-2]],[[1783,3913],[76,-36],[-4,-59],[38,-88]],[[1405,3892],[7,4]],[[1588,3940],[0,1],[-1,0],[0,-1],[1,0]],[[2549,2612],[-83,5]],[[1553,3978],[-112,-42],[-25,-36]],[[1318,2600],[5,7]],[[2278,3953],[2,7]],[[1469,2955],[177,-40],[128,34]],[[1510,2703],[1,0]],[[1511,2703],[-1,1]],[[1511,2703],[77,-12]],[[1659,2699],[332,77]],[[2295,4004],[-1,3]],[[2678,2723],[1,1]],[[2032,2801],[112,-37]],[[2144,2764],[29,-4]],[[2221,2760],[-48,0]],[[2628,2931],[5,-3]],[[2633,2928],[-3,5]],[[2635,2920],[-2,8]],[[2639,2906],[1,-1]],[[2640,2905],[10,-70]],[[2649,2770],[-9,135]],[[2310,2887],[-21,23]],[[2408,2745],[-7,1]],[[763,2743],[101,110],[82,-10],[99,58],[191,-15],[215,-116],[59,-66]],[[1510,2704],[0,-1]],[[241,1333],[1,-1]],[[564,1100],[-31,22],[-64,-17]],[[531,902],[176,-238],[128,-17],[168,-102],[-11,-138]],[[1103,328],[18,-15],[168,68]],[[1335,593],[48,71],[-20,145],[33,70]],[[2000,783],[8,11]],[[2370,275],[-119,6],[18,172],[57,113]],[[2537,0],[-101,169]],[[3362,380],[-6,-57],[75,-107],[128,-38],[-38,-110],[-71,-47],[-83,4],[-36,-25]],[[3347,601],[79,-4],[55,65],[90,-77],[132,14],[68,-56],[74,15]],[[2335,2732],[1,2]],[[2337,2727],[0,-1]],[[2349,2756],[-11,-21]],[[2338,2735],[13,19]],[[2352,2755],[0,2]],[[1305,3916],[-154,-6]],[[1383,3873],[2,23],[-40,9]],[[1893,3730],[188,23]],[[2340,2764],[-7,2]],[[2312,3979],[9,-9]],[[2357,3952],[-45,28]],[[2310,3979],[2,0],[0,2],[-2,0],[0,-2]],[[2430,2680],[-15,-2]],[[4085,3471],[11,8]],[[2652,2691],[17,-230],[-68,-43],[-103,11]],[[4044,2375],[-27,-19],[9,-60]],[[667,2517],[4,9]],[[2248,2944],[-49,61]],[[4027,2453],[6,-1]],[[2246,2669],[23,-16]],[[2440,4093],[-83,-57]],[[3280,268],[1,-2]],[[3281,266],[-1,3]],[[3281,266],[35,-102],[2,-164]],[[1638,3960],[-29,7]],[[2430,2680],[0,1]],[[2461,2644],[-20,25]],[[2464,2626],[-3,17]],[[425,1105],[-2,1]],[[2198,3007],[-43,41]],[[2339,2726],[-1,-1]],[[660,2369],[-58,-5],[-87,82],[-515,128]],[[2496,2543],[-7,-61]],[[538,1042],[26,58]],[[3216,98],[64,-31],[33,-67]],[[836,3900],[23,49],[30,9],[98,-60]],[[2497,2432],[1,-3]],[[2373,3942],[-4,4],[-12,6]],[[2372,3943],[6,-9]],[[692,1479],[8,10]],[[1324,2610],[-17,-25]],[[1307,2585],[11,15]],[[1323,2607],[2,2]],[[621,1386],[5,8]],[[1655,3608],[2,0]],[[2284,3025],[-3,-25]],[[2366,3013],[-21,32]],[[2457,2424],[-1,2]],[[2757,2550],[-2,-1]],[[2756,2548],[1,0]],[[3261,448]],[[3262,451],[0,1]],[[1566,3976],[-2,-20]],[[2339,2726],[-1,9]],[[1588,2691],[71,8]],[[611,1365],[22,31]],[[2366,3007],[0,6]],[[2280,3960],[4,40]],[[1215,3675],[-64,235]],[[764,3483],[-6,1]],[[3255,488],[6,-11]],[[3261,477],[-6,12]],[[3261,476],[0,1]],[[3254,489],[1,-1]],[[2411,2817],[-3,16]],[[367,1033],[-55,-162],[-10,-245]],[[1367,3274],[64,3]],[[2359,2861],[-20,-4]],[[2384,2749],[-4,-14]],[[2386,2754],[0,6]],[[3263,478],[-1,-5]],[[3274,430],[-8,6]],[[3316,410],[-12,16],[-4,3]],[[3304,505],[12,16]],[[3316,410],[2,-2],[34,-21]],[[2458,2424],[7,1]],[[2465,2425],[-3,0]],[[2498,2429],[-33,-4]],[[2657,2614],[-4,77]],[[2553,2990],[-2,8]],[[2499,3029],[-2,-31]],[[2499,3029],[-1,10]],[[2499,2994],[0,35]],[[4041,2436],[1,-7]],[[2619,3607],[-2,-10]],[[2619,3603],[1,4]],[[49,472],[148,71],[107,91]],[[2307,2883],[-4,0]],[[2313,2880],[24,-26]],[[2363,2804],[1,-2]],[[2367,2680],[-4,2]],[[2378,2704],[-3,-29]],[[2384,2723],[-1,-2]],[[2392,2752],[-1,-3]],[[2322,2777],[-56,0]],[[2311,2884],[-1,-2]],[[2310,2936],[1,0]],[[2322,2778],[0,-1]],[[2322,2777],[1,0]],[[2324,2776],[1,0]],[[2325,2776],[0,1]],[[2333,2766],[-8,10]],[[2337,2726],[1,-1]],[[2337,2856],[2,1]],[[2347,2885],[-9,-25]],[[2340,2859],[8,26]],[[2374,2914],[1,1]],[[2438,2810],[0,-2]],[[2439,2807],[0,-1]],[[2440,2812],[0,-1]],[[2440,2806],[2,1]],[[2442,2807],[-1,4]],[[2441,2807],[1,0]],[[2442,2807],[0,1]],[[2563,2746],[-27,2]],[[2322,2777],[2,0],[1,1],[-1,1],[-2,-2]],[[2628,2936],[-3,-3]],[[2430,2680],[7,-7]],[[2439,2671],[2,-2]],[[2380,2734],[1,-1]],[[2,986],[10,9]],[[348,1149],[-9,5]],[[447,1108],[22,-3]],[[554,1035],[-7,-11]],[[1287,359],[-10,-17],[12,12]],[[2335,604],[-7,13]],[[3263,466],[-1,-6]],[[3304,505],[0,1]],[[2284,4000],[4,3]],[[2266,2777],[-19,-4]],[[2283,2808],[-36,-34]],[[2421,2688],[-6,-11]],[[2435,2741],[5,70],[-6,-70]],[[2461,2643],[0,1]],[[2491,2570],[5,-27]],[[2628,2931],[2,2]],[[419,1101],[0,-1]],[[3300,429],[-15,-1]],[[1488,3746],[-11,-2]],[[1478,3743],[10,2]],[[2457,2751],[-24,-4]],[[2438,2747],[39,3],[-18,1]],[[2498,2429],[59,-277]],[[2565,2120],[23,-109],[-32,-17],[63,-31],[154,-355],[26,-203]],[[2311,2881],[0,3]],[[2437,2809],[3,-2]],[[2440,2812],[-3,-3]],[[2441,2810],[0,1]],[[2497,2998],[-28,-62]],[[2373,2792],[-2,4]],[[2375,2784],[17,-32]],[[2384,2749],[1,4]],[[2337,2856],[-1,0]],[[2338,2860],[2,-1]],[[2498,3039],[-3,16]],[[722,3618],[4,6]],[[758,3484],[-26,67]],[[2319,4012],[-24,-8]],[[1008,296],[-16,111]],[[1289,354],[-5,17]],[[1396,879],[413,-138],[50,31],[141,11]],[[2328,617],[-8,-1]],[[2335,604],[-12,-3]],[[3099,0],[-4,16]],[[4096,353],[-21,5],[-13,62],[-217,138]],[[2409,2739]],[[2679,2724],[28,10]],[[2876,1001],[-43,51]],[[2493,3065],[1,-7]],[[2494,3058],[0,7]],[[2495,3055],[-1,3]],[[2378,3934],[13,-112],[-37,-86]],[[2355,3736],[30,65],[6,15],[1,6],[6,67],[-4,20],[-16,26]],[[700,1489],[7,9]],[[2359,2877],[31,8]],[[2386,2760],[7,0]],[[2401,2757],[7,47]],[[2408,2744],[0,1]],[[2409,2730],[-1,0]],[[1609,3967],[-43,9]],[[2464,2626],[2,-9]],[[2470,2607],[12,-21]],[[2378,2732],[31,7]],[[606,1358],[5,6]],[[608,1364],[1,0]],[[2199,3005],[-1,2]],[[2396,2847],[-6,38]],[[2678,2724],[-25,-2]],[[2401,2746],[-9,6]],[[2321,3970],[34,-18]],[[607,1364],[-2,-4]],[[453,779],[6,5]],[[2620,2732],[9,-5],[21,-5]],[[2648,2723],[-28,10]],[[3277,268],[-264,-131],[-65,-75],[-138,-62]],[[2833,1052],[160,-174],[261,-388]],[[3254,490],[0,-1]],[[3255,489],[-1,1]],[[3261,477],[0,-1]],[[3261,476],[0,-1]],[[3261,475],[1,1]],[[3261,475],[3,-11]],[[3263,432],[1,3],[0,29]],[[3264,464],[-1,-32]],[[3263,432],[17,-160]],[[3277,268],[2,1]],[[3279,269],[-2,-1]],[[3280,272],[-1,-2]],[[3280,270],[0,2]],[[2180,2564],[-10,-9]],[[3280,268],[1,2],[-2,0],[0,-1],[1,-1]],[[2289,2910],[14,-27]],[[2345,2798],[-39,6]],[[2311,2881]],[[2401,2746],[-61,18],[98,-17]],[[2433,2747],[-25,-2]],[[2459,2751],[-2,0]],[[2536,2748],[-38,3],[-21,-1],[56,-3]],[[2561,2745],[59,-13]],[[2620,2733],[-11,4],[-46,9]],[[2695,3067],[8,20]],[[2911,3191],[118,8],[43,43],[541,34],[91,99],[163,49],[120,-11],[98,58]],[[665,2512],[2,5]],[[671,2526],[92,217]],[[2408,2804],[3,13]],[[2223,2763],[-2,-3]],[[2223,2763],[21,10]],[[2247,2773],[-3,0]],[[2247,2773]],[[2247,2774],[0,-1]],[[2283,2808],[10,-4]],[[2293,2804],[8,-1],[5,1],[-13,0]],[[2375,2784],[-2,8]],[[2753,2552],[-22,19]],[[2753,2552],[3,-4]],[[2757,2548],[-4,4]],[[2022,2788],[5,2],[28,21]],[[2055,2811],[-29,-21]],[[2208,2993],[-153,-182]],[[2620,2939],[-57,19],[-10,32]],[[2620,2939],[5,-6]],[[2630,2933],[-10,6]],[[2627,2931],[1,0]],[[2491,3087],[2,-22]],[[2494,3065],[-2,21]],[[4096,1512],[-97,-27],[-107,-70]],[[0,1701],[136,124],[285,364],[149,292],[16,20],[12,4],[10,6],[11,25],[3,23],[-5,57],[2,23],[16,36],[28,39],[44,85],[76,188],[16,82],[-9,119],[-19,98],[-77,255],[-10,48],[-5,65],[40,137],[19,88],[46,88],[58,64],[56,17],[75,-85],[35,-15],[121,31],[199,-13],[182,34],[465,-62],[121,27],[219,121],[13,10],[174,0],[-19,-5],[-19,-15],[-7,-45],[8,-25],[22,-38],[27,-37],[22,-20],[55,-9],[544,44],[120,-35],[161,-148],[317,-58],[204,21],[34,32],[15,21],[30,-22],[28,-34],[9,-18],[34,9],[9,9],[0,-3723],[-4096,0],[0,1701]],[[416,470],[9,74],[62,38],[-31,38],[11,141],[-27,34],[24,32],[-47,72],[13,45],[25,9],[-12,43],[21,9],[-28,37],[7,51],[29,-90],[-19,-12],[11,-41],[-35,-66],[49,-50],[-21,-49],[47,-27],[-38,-49],[23,-20],[-16,-86],[30,-1],[1,-20],[-29,-27],[8,-28],[-28,-5],[88,-97],[66,50],[12,-25],[31,-1],[26,36],[32,-19],[-46,-34],[29,-21],[-19,-39],[65,21],[-74,-38],[52,-17],[-30,-2],[-31,-47],[62,10],[19,-25],[-35,-30],[41,14],[28,-43],[16,-154],[-11,7],[8,-23],[-25,-6],[19,-21],[-4,-9],[-30,-9],[29,15],[-18,25],[23,11],[-12,77],[11,11],[-12,40],[-98,27],[21,60],[-45,30],[43,49],[-35,0],[7,59],[-49,36],[-28,-73],[-48,-10],[-27,29],[-32,-20],[-6,51],[-17,-7],[-35,60]],[[1450,2101],[47,67],[87,-36],[-21,-44],[-97,-15],[-16,28]],[[780,2378],[-112,-21],[-15,22],[14,144],[71,66],[20,-122],[41,-34],[-19,-55]],[[2545,3039],[0,-56],[64,56],[47,-182],[51,14],[-33,-167],[-97,-56],[-129,-168],[-155,-2],[-74,39],[-62,75],[-1,68],[65,100],[32,223],[65,0],[168,86],[59,-30]],[[688,1482],[24,31],[-21,10],[11,76],[38,-82],[20,26],[28,-40],[17,22],[23,-16],[-19,-30],[-66,20],[-19,-2],[9,-30],[-24,28],[-21,-13]],[[2232,3980],[121,67],[23,-95],[-122,1],[-22,27]],[[2557,3637],[48,49],[141,17],[-117,-72],[-12,-34],[-54,16],[-6,24]],[[1945,3023],[27,63],[131,-8],[65,-54],[-62,-23],[-87,19],[-13,-34],[-19,35],[-42,2]],[[335,1084],[28,58],[11,-19],[67,20],[11,-69],[-38,31],[4,-42],[-27,-35],[-26,6],[14,34],[-44,16]],[[2643,4096],[-151,-101],[-54,101],[205,0]],[[3072,1989],[29,84],[129,59],[99,5],[32,-110],[735,61],[0,-357],[-24,2],[-91,-47],[-87,5],[-15,-24],[-23,-1],[0,31],[-50,-40],[-65,14],[-155,-96],[-339,212],[-58,78],[-54,-2],[-12,60],[-51,66]]]}