{"objects":{"water":{"type":"GeometryCollection","geometries":[]},"buildings":{"type":"GeometryCollection","geometries":[]},"places":{"type":"GeometryCollection","geometries":[{"type":"Point","properties":{"name:pt":"Vars\u00f3via","name:ml":"\u0d35\u0d3e\u0d34\u0d4d\u200c\u0d38","name:cy":"Warsaw","name:mt":"Varsavja","name:ko":"\ubc14\ub974\uc0e4\ubc14","name:cv":"\u0412\u0430\u0440\u0448\u0430\u0432\u0430","name:cu":"\u0412\u0430\u0440\u0448\u0430\u0432\u0430","name:cs":"Var\u0161ava","name:tt":"\u0412\u0430\u0440\u0448\u0430\u0432\u0430","name:kv":"\u0412\u0430\u0440\u0448\u0430\u0432\u0430","name:ku":"War\u015fova","name:ro":"Var\u0219ovia","name:tl":"Warsaw","name:pa":"\u0a35\u0a3e\u0a30\u0a38\u0a3e","name:os":"\u0412\u0430\u0440\u0448\u0430\u0432\u00e6","name:ta":"\u0bb5\u0bbe\u0bb0\u0bcd\u0b9a\u0bbe","name:tg":"\u0412\u0430\u0440\u0448\u0430\u0432\u0430","name:ca":"Vars\u00f2via","name:bg":"\u0412\u0430\u0440\u0448\u0430\u0432\u0430","name:ka":"\u10d5\u10d0\u10e0\u10e8\u10d0\u10d5\u10d0","name:hr":"Var\u0161ava","name:de":"Warschau","source":"openstreetmap.org","name:yo":"Warsaw","name:kn":"\u0cb5\u0cbe\u0cb0\u0ccd\u0cb8\u0cbe","admin_level":"2","name:lv":"Var\u0161ava","name:lt":"Var\u0161uva","name:uz":"Varshava","name:kk":"\u0412\u0430\u0440\u0448\u0430\u0432\u0430","name:he":"\u05d5\u05e8\u05e9\u05d4","min_zoom":8.0,"kind":"locality","name:ur":"\u0648\u0627\u0631\u0633\u0627","name:lb":"Warschau","name:la":"Varsovia","name:uk":"\u0412\u0430\u0440\u0448\u0430\u0432\u0430","name:hy":"\u054e\u0561\u0580\u0577\u0561\u057e\u0561","country_capital":true,"name:ug":"Warshawa","name:hu":"Vars\u00f3","name:ln":"Warsaw","name:oc":"Vars\u00f2via","population":1744351,"name:el":"\u0392\u03b1\u03c1\u03c3\u03bf\u03b2\u03af\u03b1","name:eo":"Varsovio","name:en":"Warsaw","name":"Warszawa","name:tk":"War\u015fawa","name:ee":"Warsaw","name:th":"\u0e27\u0e2d\u0e23\u0e4c\u0e0b\u0e2d","name:eu":"Varsovia","name:et":"Varssavi","name:nl":"Warschau","name:es":"Varsovia","name:ia":"Varsovia","name:rm":"Varsovia","name:az":"Var\u015fava","name:id":"Warsawa","name:ms":"Warsaw","name:mr":"\u0935\u0930\u094d\u091d\u093e\u0935\u093e","name:ar":"\u0648\u0627\u0631\u0633\u0648","name:my":"\u101d\u102b\u1006\u1031\u102c\u1019\u103c\u102d\u102f\u1037","official_name":"miasto sto\u0142eczne Warszawa","name:is":"Varsj\u00e1","name:am":"\u12cb\u122d\u1236\u12cd","name:it":"Varsavia","name:an":"Varsovia","name:ru":"\u0412\u0430\u0440\u0448\u0430\u0432\u0430","name:ab":"\u0412\u0430\u0440\u0448\u0430\u0432\u0430","name:mi":"Pakangakite","id":428339515,"name:mk":"\u0412\u0430\u0440\u0448\u0430\u0432\u0430","name:af":"Warskou","name:zu":"IWarshawa","name:mn":"\u0412\u0430\u0440\u0448\u0430\u0432","kind_detail":"city","name:hi":"\u0935\u093e\u0930\u0938\u0949","name:mg":"Vars\u00f4via","name:fr":"Varsovie","name:ky":"\u0412\u0430\u0440\u0448\u0430\u0432\u0430","name:zh-yue":"\u83ef\u6c99","name:fy":"Warsjau","name:zh":"\u83ef\u6c99","name:sr":"\u0412\u0430\u0440\u0448\u0430\u0432\u0430","name:sl":"Var\u0161ava","name:sk":"Var\u0161ava","name:ja":"\u30ef\u30eb\u30b7\u30e3\u30ef","name:sh":"Var\u0161ava","name:na":"Warsaw","name:sc":"Varsavia","name:br":"Varsovia","name:bs":"Var\u0161ava","name:yi":"\u05d5\u05d5\u05d0\u05e8\u05e9\u05e2","name:bn":"\u0993\u09af\u09bc\u09be\u09b0\u09cd\u09b8\u09be","name:bo":"\u0f5d\u0f62\u0f0b\u0f66\u0f7c\u0f0d","name:bi":"Warsaw","name:sw":"Warshawa","name:be":"\u0412\u0430\u0440\u0448\u0430\u0432\u0430","name:st":"Warsaw","name:wo":"Warsaw","name:ba":"\u0412\u0430\u0440\u0448\u0430\u0432\u0430","name:sq":"Varshava","name:ga":"V\u00e1rs\u00e1","name:gd":"Warsaw","name:ht":"Vasovi","name:jv":"Warsawa","name:gl":"Varsovia","name:fa":"\u0648\u0631\u0634\u0648","name:tr":"Var\u015fova","name:ak":"Warsaw","name:fi":"Varsova"},"coordinates":[3843,2908]},{"type":"Point","properties":{"kind":"locality","name":"Pruszk\u00f3w","name:lt":"Pru\u0161kuvas","kind_detail":"town","source":"openstreetmap.org","min_zoom":8.0,"name:uk":"\u041f\u0440\u0443\u0448\u043a\u0443\u0432","name:ru":"\u041f\u0440\u0443\u0448\u043a\u0443\u0432","id":31689160,"population":59570},"coordinates":[3245,2588]},{"type":"Point","properties":{"kind":"locality","name":"Legionowo","name:lt":"Legionovas","kind_detail":"town","source":"openstreetmap.org","min_zoom":8.0,"name:uk":"\u041b\u0435\u0491\u044c\u043e\u043d\u043e\u0432\u043e","name:ru":"\u041b\u0435\u0433\u0438\u043e\u043d\u043e\u0432\u043e","id":31694025,"population":54231},"coordinates":[3632,3737]},{"type":"Point","properties":{"kind":"locality","name":"Skierniewice","name:lt":"Skernevic\u0117s","kind_detail":"city","source":"openstreetmap.org","min_zoom":8.0,"name:ru":"\u0421\u043a\u0435\u0440\u043d\u0435\u0432\u0438\u0446\u0435","id":31866436,"population":48634},"coordinates":[1327,1605]},{"type":"Point","properties":{"kind":"locality","name":"\u017byrard\u00f3w","name:lt":"\u017dyrarduvas","kind_detail":"town","source":"openstreetmap.org","min_zoom":8.0,"name:ru":"\u0416\u0438\u0440\u0430\u0440\u0434\u0443\u0432","id":279242630,"population":41096},"coordinates":[2202,2067]},{"type":"Point","properties":{"kind":"locality","name":"Piaseczno","name:lt":"Piase\u010dnas","kind_detail":"town","source":"openstreetmap.org","min_zoom":8.0,"name:ru":"\u041f\u044f\u0441\u0435\u0447\u043d\u043e","id":28396171,"population":38104},"coordinates":[3902,2163]},{"type":"Point","properties":{"kind":"locality","name":"Sochaczew","name:lt":"Socha\u010devas","kind_detail":"town","source":"openstreetmap.org","min_zoom":8.0,"name:ru":"\u0421\u043e\u0445\u0430\u0447\u0435\u0432","id":31687374,"population":37480},"coordinates":[1616,2884]},{"type":"Point","properties":{"kind":"locality","name":"Grodzisk Mazowiecki","name:lt":"Mazovijos Grodziskas","kind_detail":"town","source":"openstreetmap.org","min_zoom":8.0,"name:ru":"\u0413\u0440\u043e\u0434\u0437\u0438\u0441\u043a-\u041c\u0430\u0437\u043e\u0432\u0435\u0446\u043a\u0438\u0439","id":31698397,"population":29907},"coordinates":[2749,2314]},{"type":"Point","properties":{"kind":"locality","name":"\u0141owicz","name:lt":"Lovi\u010dius","kind_detail":"town","name:de":"Lowitsch","source":"openstreetmap.org","min_zoom":8.0,"name:ru":"\u041b\u043e\u0432\u0438\u0447","id":31707960,"population":29420},"coordinates":[749,2319]},{"type":"Point","properties":{"kind":"locality","name":"Nowy Dw\u00f3r Mazowiecki","name:lt":"Mazovijos Novy Dvuras","kind_detail":"town","source":"openstreetmap.org","min_zoom":8.0,"name:ru":"\u041d\u043e\u0432\u044b-\u0414\u0432\u0443\u0440-\u041c\u0430\u0437\u043e\u0432\u0435\u0446\u043a\u0438","id":31691304,"population":28287},"coordinates":[2994,3849]},{"type":"Point","properties":{"kind":"locality","name":"Rawa Mazowiecka","kind_detail":"town","source":"openstreetmap.org","min_zoom":8.0,"name:ru":"\u0420\u0430\u0432\u0430-\u041c\u0430\u0437\u043e\u0432\u0435\u0446\u043a\u0430\u044f","id":31867531,"population":17819},"coordinates":[1644,684]},{"type":"Point","properties":{"kind":"locality","name":"\u0141omianki","kind_detail":"town","source":"openstreetmap.org","min_zoom":8.0,"name:ru":"\u041b\u043e\u043c\u044f\u043d\u043a\u0438","id":31693576,"population":16639},"coordinates":[3517,3399]},{"type":"Point","properties":{"kind":"locality","name":"Milan\u00f3wek","kind_detail":"town","source":"openstreetmap.org","min_zoom":8.0,"name:ru":"\u041c\u0438\u043b\u044f\u043d\u0443\u0432\u0435\u043a","id":31692544,"population":16410},"coordinates":[2850,2408]},{"type":"Point","properties":{"name:lv":"Grujeca","name:he":"\u05d2\u05e8\u05d5\u05d9\u05d9\u05e5","min_zoom":8.0,"name:uk":"\u0413\u0440\u0443\u0454\u0446\u044c","name:ru":"\u0413\u0440\u0443\u0435\u0446","name:nl":"Gr\u00f3jec (stad)","name:bg":"\u0413\u0440\u043e\u0439\u0435\u0446","id":1854936860,"population":16197,"kind":"locality","name":"Gr\u00f3jec","kind_detail":"town","name:sr":"\u0413\u0440\u043e\u0458\u0435\u0446","source":"openstreetmap.org","name:fr":"Gr\u00f3jec (ville)","name:yi":"\u05d2\u05e8\u05d9\u05e6\u05e2","name:zh":"\u683c\u9b6f\u8036\u8328"},"coordinates":[3437,1172]},{"type":"Point","properties":{"kind":"locality","name":"G\u0142owno","kind_detail":"town","source":"openstreetmap.org","min_zoom":8.0,"name:uk":"\u0413\u043b\u043e\u0432\u043d\u043e","name:ru":"\u0413\u043b\u043e\u0432\u043d\u043e","id":31880924,"population":14814},"coordinates":[76,1649]},{"type":"Point","properties":{"source":"openstreetmap.org","kind":"locality","name":"Koluszki","kind_detail":"town","population":13419,"min_zoom":8.0,"id":31880566},"coordinates":[380,599]},{"type":"Point","properties":{"kind":"locality","name":"Brwin\u00f3w","name:lt":"Brvinuvas","kind_detail":"town","source":"openstreetmap.org","min_zoom":8.0,"name:ru":"\u0411\u0440\u0432\u0438\u043d\u0443\u0432","id":31701866,"population":13090},"coordinates":[3001,2481]},{"type":"Point","properties":{"kind":"locality","name":"Brzeziny","kind_detail":"town","source":"openstreetmap.org","min_zoom":8.0,"name:uk":"\u0411\u0436\u0435\u0437\u0456\u043d\u0438","name:ru":"\u0411\u0436\u0435\u0437\u0438\u043d\u044b","name:zh":"\u5e03\u672d\u5e0c\u5c3c","id":60121372,"population":12577},"coordinates":[187,864]},{"type":"Point","properties":{"name:lv":"Blo\u0146e","name:he":"\u05d1\u05dc\u05d5\u05e0\u05d9\u05d4","min_zoom":8.0,"name:uk":"\u0411\u043b\u043e\u043d\u0435","name:ru":"\u0411\u043b\u043e\u043d\u0435 (\u041f\u043e\u043b\u044c\u0448\u0430)","name:ce":"\u0411\u043b\u043e\u043d\u0435 (\u041f\u043e\u043b\u044c\u0448\u0430)","id":31702473,"population":12570,"kind":"locality","name:zh":"\u5e03\u6c83\u6d85","name":"B\u0142onie","kind_detail":"town","name:sr":"\u0411\u043b\u043e\u045a\u0435","source":"openstreetmap.org","name:fr":"B\u0142onie (Varsovie-ouest)","name:nl":"B\u0142onie (stad)"},"coordinates":[2708,2742]},{"type":"Point","properties":{"kind":"locality","name":"O\u017car\u00f3w Mazowiecki","name:lt":"Mazovijos O\u017earuvas","kind_detail":"town","source":"openstreetmap.org","min_zoom":8.0,"name:ru":"\u041e\u0436\u0430\u0440\u0443\u0432-\u041c\u0430\u0437\u043e\u0432\u0435\u0446\u043a\u0438\u0439","id":31690528,"population":10735},"coordinates":[3223,2795]},{"type":"Point","properties":{"kind":"locality","name":"Bia\u0142obrzegi","kind_detail":"town","source":"openstreetmap.org","min_zoom":8.0,"name:uk":"\u0411\u044f\u043b\u043e\u0431\u0436\u0435\u0433\u0456","name:ru":"\u0411\u044f\u043b\u043e\u0431\u0436\u0435\u0433\u0438","id":368033785,"population":7132},"coordinates":[3677,143]},{"type":"Point","properties":{"kind":"locality","name:he":"\u05d0\u05de\u05e9\u05d9\u05e0\u05d5\u05d1","name":"Mszczon\u00f3w","kind_detail":"town","name:ar":"\u0645\u0634\u062a\u0634\u0648\u0646\u0648\u0641","source":"openstreetmap.org","min_zoom":8.0,"name:ru":"\u041c\u0449\u043e\u043d\u0443\u0432","id":31870955,"population":6460},"coordinates":[2403,1686]},{"type":"Point","properties":{"kind":"locality","name":"G\u0105bin","kind_detail":"town","source":"openstreetmap.org","min_zoom":8.0,"name:ru":"\u0413\u043e\u043c\u0431\u0438\u043d","id":31709942,"population":4142},"coordinates":[126,3701]},{"type":"Point","properties":{"kind":"locality","name":"Podkowa Le\u015bna","kind_detail":"town","source":"openstreetmap.org","min_zoom":8.0,"name:ru":"\u041f\u043e\u0434\u043a\u043e\u0432\u0430-\u041b\u0435\u0441\u044c\u043d\u0430","id":31689600,"population":3869},"coordinates":[3035,2386]},{"type":"Point","properties":{"source":"openstreetmap.org","kind":"locality","name":"Tarczyn","kind_detail":"town","population":3869,"min_zoom":8.0,"id":31865115},"coordinates":[3339,1715]},{"type":"Point","properties":{"kind":"locality","name":"Bia\u0142a Rawska","kind_detail":"town","source":"openstreetmap.org","min_zoom":8.0,"name:ru":"\u0411\u044f\u043b\u0430-\u0420\u0430\u0432\u0441\u043a\u0430","id":31878124,"population":3244},"coordinates":[2285,898]},{"type":"Point","properties":{"kind":"locality","name":"Zakroczym","name:lt":"Zakro\u010dimas","kind_detail":"town","source":"openstreetmap.org","min_zoom":8.0,"name:ru":"\u0417\u0430\u043a\u0440\u043e\u0447\u0438\u043c","id":31684011,"population":3241},"coordinates":[2692,3862]},{"type":"Point","properties":{"kind":"locality","name":"Mogielnica","kind_detail":"town","source":"openstreetmap.org","min_zoom":8.0,"name:uk":"\u041c\u043e\u0433\u0435\u043b\u044c\u043d\u0438\u0446\u044f","name:ru":"\u041c\u043e\u0433\u0435\u043b\u044c\u043d\u0438\u0446\u0430","id":368033575,"population":2386},"coordinates":[3017,355]},{"type":"Point","properties":{"kind":"locality","name":"Wy\u015bmierzyce","kind_detail":"town","source":"openstreetmap.org","min_zoom":8.0,"name:ru":"\u0412\u044b\u0441\u043c\u0435\u0436\u0438\u0446\u0435","id":1854937233,"population":910},"coordinates":[3275,34]}]},"transit":{"type":"GeometryCollection","geometries":[{"type":"MultiLineString","properties":{"source":"openstreetmap.org","kind":"train","name":"KM 8","sort_rank":275,"ref":"KM 8","min_zoom":6.0,"osm_relation":true},"arcs":[[2],[3],[4]]},{"type":"MultiLineString","properties":{"kind":"train","name":"EC95 Warszawa - Berlin","service":"international","sort_rank":275,"source":"openstreetmap.org","min_zoom":5.0,"operator":"DB Fernverkehr AG;PKP","ref":"EC95","osm_relation":true,"network":"DB InterCity;EuroCity"},"arcs":[[5],[6],[7],[8]]},{"type":"LineString","properties":{"kind":"subway","network":"ZTM Warszawa","sort_rank":275,"colour":"red","name":"M2: Rondo Daszy\u0144skiego => Dworzec Wile\u0144ski","source":"openstreetmap.org","min_zoom":8.0,"operator":"Metro Warszawskie","ref":"M2","id":-4232534,"osm_relation":true,"colour_name":"red"},"arcs":[9]},{"type":"MultiLineString","properties":{"kind":"train","name":"S1: Otwock => Pruszk\u00f3w","sort_rank":275,"source":"openstreetmap.org","min_zoom":6.0,"operator":"Szybka Kolej Miejska Sp. z o.o.","ref":"S1","osm_relation":true,"network":"ZTM Warszawa"},"arcs":[[10],[11],[12],[13],[14],[15],[16],[17],[18],[19],[20],[21]]},{"type":"LineString","properties":{"kind":"subway","network":"ZTM Warszawa","sort_rank":275,"colour":"blue","name":"M1: M\u0142ociny => Kabaty","source":"openstreetmap.org","min_zoom":8.0,"operator":"Metro Warszawskie","ref":"M1","id":-4236800,"osm_relation":true,"colour_name":"blue"},"arcs":[22]},{"type":"MultiLineString","properties":{"kind":"train","name":"Linia kolejowa nr 7 Warszawa Wschodnia Osobowa - Dorohusk","sort_rank":275,"source":"openstreetmap.org","min_zoom":6.0,"operator":"PKP Polskie Linie Kolejowe S.A.","ref":"7","osm_relation":true,"network":"PKP"},"arcs":[[23],[24]]},{"type":"MultiLineString","properties":{"kind":"train","name":"Warszawa - Moskwa","sort_rank":275,"source":"openstreetmap.org","min_zoom":6.0,"name:ru":"\u0412\u0430\u0440\u0448\u0430\u0432\u0430 - \u041c\u043e\u0441\u043a\u0432\u0430","name:be":"\u0412\u0430\u0440\u0448\u0430\u0432\u0430 - \u041c\u0430\u0441\u043a\u0432\u0430","ref":"Warszawa - Moskwa","osm_relation":true},"arcs":[[25],[26]]},{"type":"MultiLineString","properties":{"kind":"train","name":"S9: Wieliszew => Warszawa Zachodnia","sort_rank":275,"source":"openstreetmap.org","min_zoom":6.0,"operator":"Szybka Kolej Miejska Sp. z o.o.","ref":"S9","osm_relation":true,"network":"ZTM Warszawa"},"arcs":[[27],[28],[29],[30],[31],[32],[33],[34],[35],[36],[37],[38],[39],[40],[41],[42]]},{"type":"MultiLineString","properties":{"kind":"train","name":"S3: Wieliszew => Warszawa Lotnisko Chopina","sort_rank":275,"source":"openstreetmap.org","min_zoom":6.0,"operator":"Szybka Kolej Miejska Sp. z o.o.","ref":"S3","osm_relation":true,"network":"ZTM Warszawa"},"arcs":[[43],[44],[45],[46],[47],[48],[49],[50],[51],[52],[53],[54],[55],[56],[57],[58],[59],[60]]},{"type":"MultiLineString","properties":{"kind":"train","name:en":"EN 453 : Paris \u2212 Berlin \u2212 Moscow","network":"EuroNight","service":"international","sort_rank":275,"source":"openstreetmap.org","min_zoom":5.0,"operator":"\u0420\u043e\u0441\u0441\u0438\u0439\u0441\u043a\u0438\u0435 \u0436\u0435\u043b\u0435\u0437\u043d\u044b\u0435 \u0434\u043e\u0440\u043e\u0433\u0438","ref":"EN 453","osm_relation":true,"name":"EN 453 : Paris \u2212 Berlin \u2212 Moscou"},"arcs":[[61],[62]]},{"type":"MultiLineString","properties":{"kind":"train","name":"S2: Warszawa Lotnisko Chopina => Sulej\u00f3wek Mi\u0142osna","sort_rank":275,"source":"openstreetmap.org","min_zoom":6.0,"operator":"Szybka Kolej Miejska Sp. z o.o.","ref":"S2","osm_relation":true,"network":"ZTM Warszawa"},"arcs":[[63],[64],[65],[66],[67],[68],[69],[70],[71],[72],[73],[74]]},{"type":"LineString","properties":{"kind":"subway","network":"ZTM Warszawa","sort_rank":275,"colour":"red","name":"M2: Dworzec Wile\u0144ski => Rondo Daszy\u0144skiego","source":"openstreetmap.org","min_zoom":8.0,"operator":"Metro Warszawskie","ref":"M2","id":-4232533,"osm_relation":true,"colour_name":"red"},"arcs":[75]},{"type":"MultiLineString","properties":{"kind":"train","name":"S2: Sulej\u00f3wek Mi\u0142osna => Warszawa Lotnisko Chopina","sort_rank":275,"source":"openstreetmap.org","min_zoom":6.0,"operator":"Szybka Kolej Miejska Sp. z o.o.","ref":"S2","osm_relation":true,"network":"ZTM Warszawa"},"arcs":[[76],[77],[78],[79],[80],[81],[82],[83],[84],[85],[86],[87]]},{"type":"MultiLineString","properties":{"kind":"train","network":"WKD","sort_rank":275,"source":"openstreetmap.org","min_zoom":6.0,"operator":"Warszawska Kolej Dojazdowa Sp. z o.o.","ref":"A1","osm_relation":true,"name":"A1: Milan\u00f3wek Grud\u00f3w => Warszawa \u015ar\u00f3dmie\u015bcie WKD"},"arcs":[[88],[89],[90],[91],[92],[93],[94],[95],[96],[97],[98],[99],[100],[101],[102],[103],[104],[105],[106],[107],[108],[109],[110]]},{"type":"MultiLineString","properties":{"kind":"train","network":"WKD","sort_rank":275,"source":"openstreetmap.org","min_zoom":6.0,"operator":"Warszawska Kolej Dojazdowa Sp. z o.o.","ref":"A1","osm_relation":true,"name":"A1: Warszawa \u015ar\u00f3dmie\u015bcie WKD => Grodzisk Mazowiecki Rado\u0144ska"},"arcs":[[111],[112],[113],[114],[115],[116],[117],[118],[119],[120],[121],[122],[123],[124],[125],[126],[127],[128],[129],[130],[131],[132],[133],[134],[135],[136],[137]]},{"type":"MultiLineString","properties":{"kind":"train","name":"Linia kolejowa nr 11 Skierniewice - \u0141owicz G\u0142\u00f3wny","sort_rank":275,"source":"openstreetmap.org","min_zoom":6.0,"operator":"PKP Polskie Linie Kolejowe S.A.","ref":"11","osm_relation":true,"network":"PKP"},"arcs":[[138],[139],[140],[141]]},{"type":"MultiLineString","properties":{"kind":"train","name":"Linia kolejowa nr 9 Warszawa Wschodnia Osobowa - Gda\u0144sk G\u0142\u00f3wny","sort_rank":275,"source":"openstreetmap.org","min_zoom":6.0,"operator":"PKP Polskie Linie Kolejowe S.A.","ref":"9","osm_relation":true,"network":"PKP"},"arcs":[[142],[143],[144]]},{"type":"LineString","properties":{"kind":"train","network":"PKP","sort_rank":275,"source":"openstreetmap.org","min_zoom":6.0,"operator":"PKP Polskie Linie Kolejowe S.A.","ref":"532","id":-319295,"osm_relation":true,"name":"\u0141\u0105cznica nr 532 \u0141owicz G\u0142\u00f3wny - \u0141owicz Przedmie\u015bcie"},"arcs":[145]},{"type":"MultiLineString","properties":{"kind":"train","name":"R90 (Dzia\u0142dowo - Warszawa) przez Warszawe Gda\u0144sk\u0105","sort_rank":275,"source":"openstreetmap.org","min_zoom":6.0,"operator":"\u201eKoleje Mazowieckie - KM\" sp. z o.o.","ref":"R90","osm_relation":true,"network":"ZTM Warszawa"},"arcs":[[146],[147],[148],[149],[150],[151],[152],[153],[154],[155],[156],[157],[158],[159],[160],[161],[162],[163]]},{"type":"MultiLineString","properties":{"kind":"train","name":"Linia kolejowa nr 17 \u0141\u00f3d\u017a Fabryczna - Koluszki","sort_rank":275,"source":"openstreetmap.org","min_zoom":6.0,"operator":"PKP Polskie Linie Kolejowe S.A.","ref":"17","osm_relation":true,"network":"PKP"},"arcs":[[164],[165]]},{"type":"LineString","properties":{"kind":"subway","network":"ZTM Warszawa","sort_rank":275,"colour":"blue","name":"M1: Kabaty => M\u0142ociny","source":"openstreetmap.org","min_zoom":8.0,"operator":"Metro Warszawskie","ref":"M1","id":-4236801,"osm_relation":true,"colour_name":"blue"},"arcs":[166]},{"type":"MultiLineString","properties":{"kind":"train","name":"Linia kolejowa nr 8 Warszawa Zachodnia - Krak\u00f3w G\u0142\u00f3wny Osobowy","sort_rank":275,"source":"openstreetmap.org","min_zoom":6.0,"operator":"PKP Polskie Linie Kolejowe S.A.","ref":"8","osm_relation":true,"network":"PKP"},"arcs":[[167],[168]]},{"type":"MultiLineString","properties":{"kind":"train","name":"S3: Warszawa Lotnisko Chopina => Wieliszew","sort_rank":275,"source":"openstreetmap.org","min_zoom":6.0,"operator":"Szybka Kolej Miejska Sp. z o.o.","osm_relation":true,"network":"ZTM Warszawa"},"arcs":[[169],[170],[171],[172],[173],[174],[175],[176],[177],[178],[179],[180],[181],[182],[183],[184],[185],[186]]},{"type":"MultiLineString","properties":{"kind":"train","name":"A12: Warszawa \u015ar\u00f3dmie\u015bcie WKD => Milan\u00f3wek Grud\u00f3w","sort_rank":275,"source":"openstreetmap.org","min_zoom":6.0,"operator":"Warszawska Kolej Dojazdowa Sp. z o.o.","ref":"A12","osm_relation":true,"network":"WKD"},"arcs":[[187],[188],[189],[190],[191],[192],[193],[194],[195],[196],[197],[198],[199],[200],[201],[202],[203],[204],[205],[206],[207],[208],[209]]},{"type":"MultiLineString","properties":{"kind":"train","name":"EN 452 : Moscou \u2212 Berlin \u2212 Paris","service":"international","sort_rank":275,"source":"openstreetmap.org","min_zoom":5.0,"operator":"\u0420\u043e\u0441\u0441\u0438\u0439\u0441\u043a\u0438\u0435 \u0436\u0435\u043b\u0435\u0437\u043d\u044b\u0435 \u0434\u043e\u0440\u043e\u0433\u0438","ref":"EN 452","osm_relation":true,"network":"EuroNight"},"arcs":[[210],[211]]},{"type":"LineString","properties":{"kind":"train","network":"PKP","sort_rank":275,"source":"openstreetmap.org","min_zoom":6.0,"operator":"PKP Polskie Linie Kolejowe S.A.","ref":"537","id":-3566389,"osm_relation":true,"name":"\u0141\u0105cznica nr 537 \u017bakowice Po\u0142udniowe - S\u0142otwiny"},"arcs":[212]},{"type":"MultiLineString","properties":{"kind":"train","network":"WKD","sort_rank":275,"source":"openstreetmap.org","min_zoom":6.0,"operator":"Warszawska Kolej Dojazdowa Sp. z o.o.","ref":"A1","osm_relation":true,"name":"A1: Grodzisk Mazowiecki Rado\u0144ska => Warszawa \u015ar\u00f3dmie\u015bcie WKD"},"arcs":[[213],[214],[215],[216],[217],[218],[219],[220],[221],[222],[223],[224],[225],[226],[227],[228],[229],[230],[231],[232],[233],[234],[235],[236],[237],[238],[239]]},{"type":"LineString","properties":{"kind":"train","network":"PKP","sort_rank":275,"source":"openstreetmap.org","min_zoom":6.0,"operator":"PKP Polskie Linie Kolejowe S.A.","ref":"15","id":-318954,"osm_relation":true,"name":"Linia kolejowa nr 15 Bednary - \u0141\u00f3d\u017a Kaliska"},"arcs":[240]},{"type":"MultiLineString","properties":{"kind":"train","name":"EC95 Berlin - Warszawa","service":"international","sort_rank":275,"source":"openstreetmap.org","min_zoom":5.0,"operator":"DB Fernverkehr AG;PKP","ref":"EC95","osm_relation":true,"network":"DB InterCity;EuroCity"},"arcs":[[241],[242],[243],[244]]},{"type":"MultiLineString","properties":{"kind":"train","name":"R90 (Warszawa \u2013 Dzia\u0142dowo) przez Warszawe Gda\u0144sk\u0105","sort_rank":275,"source":"openstreetmap.org","min_zoom":6.0,"operator":"\u201eKoleje Mazowieckie - KM\" sp. z o.o.","ref":"R90","osm_relation":true,"network":"ZTM Warszawa"},"arcs":[[245],[246],[247],[248],[249],[250],[251],[252],[253],[254],[255],[256],[257],[258],[259],[260],[261],[262]]},{"type":"MultiLineString","properties":{"kind":"train","name":"S1: Pruszk\u00f3w => Otwock","sort_rank":275,"source":"openstreetmap.org","min_zoom":6.0,"operator":"Szybka Kolej Miejska Sp. z o.o.","ref":"S1","osm_relation":true,"network":"ZTM Warszawa"},"arcs":[[263],[264],[265],[266],[267],[268],[269],[270],[271],[272],[273],[274]]},{"type":"MultiLineString","properties":{"kind":"train","name":"Centralna Magistrala Kolejowa","sort_rank":275,"source":"openstreetmap.org","min_zoom":6.0,"operator":"PKP Polskie Linie Kolejowe S.A.","ref":"4","osm_relation":true,"network":"PKP"},"arcs":[[275],[276]]},{"type":"MultiLineString","properties":{"kind":"train","name":"S9: Warszawa Zachodnia => Wieliszew","sort_rank":275,"source":"openstreetmap.org","min_zoom":6.0,"operator":"Szybka Kolej Miejska Sp. z o.o.","ref":"S9","osm_relation":true,"network":"ZTM Warszawa"},"arcs":[[277],[278],[279],[280],[281],[282],[283],[284],[285],[286],[287],[288],[289],[290]]}]},"pois":{"type":"GeometryCollection","geometries":[{"type":"Point","properties":{"kind":"nature_reserve","protect_class":"5","area":621563000,"source":"openstreetmap.org","min_zoom":7.65,"tier":2,"id":-4522144,"osm_relation":true,"name":"Bolimowski Park Krajobrazowy"},"coordinates":[1640,1718]},{"type":"Point","properties":{"kind":"national_park","name:en":"Kampinos National Park","protect_class":"2","area":1002980000,"name:de":"Nationalpark Kampinos","source":"openstreetmap.org","min_zoom":5.81,"tier":1,"id":-1561264,"osm_relation":true,"name":"Kampinoski Park Narodowy"},"coordinates":[2641,3402]},{"type":"Point","properties":{"source":"openstreetmap.org","kind":"military","name":"JW 1530 Regny 1 Sk\u0142adnica Uzbrojenia i Amunicji","area":18982000,"tier":3,"min_zoom":8.0,"id":265582735},"coordinates":[669,380]}]},"boundaries":{"type":"GeometryCollection","geometries":[{"type":"MultiLineString","properties":{"name:right:nl":"Woiwodschap Mazovi\u00eb","name:right:ja":"\u30de\u30be\u30d5\u30b7\u30a7\u770c","loc_name:left":"\u0141\u00f3dzkie","alt_name:left:en":"\u0141\u00f3d\u017a Province","name:right:uk":"\u041c\u0430\u0437\u043e\u0432\u0435\u0446\u044c\u043a\u0435 \u0432\u043e\u0454\u0432\u043e\u0434\u0441\u0442\u0432\u043e","name:left:ja":"\u30a6\u30c3\u30c1\u770c","id:right":-130935,"name:right:lt":"Mazovijos vaivadija","name:left:sl":"Lodzsko vojvodstvo","min_zoom":8.0,"name:left:lt":"Lodz\u0117s vaivadija","alt_name:right:en":"Masovian Province","name:left:be":"\u041b\u043e\u0434\u0437\u0456\u043d\u0441\u043a\u0430\u0435 \u0432\u0430\u044f\u0432\u043e\u0434\u0441\u0442\u0432\u0430","name:right:fr":"Mazovie","id":-224458,"name:right":"wojew\u00f3dztwo mazowieckie","short_name:left":"\u0142\u00f3dzkie","name:left:eo":"Lodza Provinco","name:left:en":"\u0141\u00f3d\u017a Voivodeship","sort_rank":256,"kind_detail":"4","source":"openstreetmap.org","name:left:nl":"Woiwodschap Lodz","id:left":-224458,"name:left:es":"Voivodato de \u0141\u00f3d\u017a","name:right:cs":"Mazovsk\u00e9 vojvodstv\u00ed","name:left:cs":"Lod\u017esk\u00e9 vojvodstv\u00ed","name:left":"wojew\u00f3dztwo \u0142\u00f3dzkie","name:right:es":"Voivodato de Mazovia","kind":"region","name:right:ru":"\u041c\u0430\u0437\u043e\u0432\u0435\u0446\u043a\u043e\u0435 \u0432\u043e\u0435\u0432\u043e\u0434\u0441\u0442\u0432\u043e","name:left:ru":"\u041b\u043e\u0434\u0437\u0438\u043d\u0441\u043a\u043e\u0435 \u0432\u043e\u0435\u0432\u043e\u0434\u0441\u0442\u0432\u043e","short_name:right":"mazowieckie","name:right:eo":"Mazovia Provinco","name:right:en":"Masovian Voivodeship","osm_relation":true,"name:left:uk":"\u041b\u043e\u0434\u0437\u044c\u043a\u0435 \u0432\u043e\u0454\u0432\u043e\u0434\u0441\u0442\u0432\u043e","loc_name:right":"Mazowsze","name":"wojew\u00f3dztwo \u0142\u00f3dzkie - wojew\u00f3dztwo mazowieckie","name:right:de":"Woiwodschaft Masowien","name:left:de":"Woiwodschaft Lodz","name:right:be":"\u041c\u0430\u0437\u0430\u0432\u0435\u0446\u043a\u0430\u0435 \u0432\u0430\u044f\u0432\u043e\u0434\u0441\u0442\u0432\u0430","name:left:fr":"\u0141\u00f3d\u017a","name:right:sl":"Mazovijsko vojvodstvo"},"arcs":[[0],[1]]}]},"roads":{"type":"GeometryCollection","geometries":[{"type":"MultiLineString","properties":{"kind":"major_road","network":"pl:national","sort_rank":380,"kind_detail":"primary","is_bicycle_related":true,"bicycle_shield_text":null,"bicycle_network":"lcn","source":"openstreetmap.org","min_zoom":8.0,"shield_text":"85","ref":"85"},"arcs":[[291],[292]]},{"type":"LineString","properties":{"bus_network":"DKM Legionowo","network":"pl:national","sort_rank":380,"kind_detail":"primary","kind":"major_road","source":"openstreetmap.org","min_zoom":8.0,"bus_shield_text":"D1","shield_text":"61","landuse_kind":"urban_area","ref":"61"},"arcs":[293]},{"type":"LineString","properties":{"bus_network":"\u0141\u00f3d\u017a","network":"pl:national","sort_rank":380,"kind_detail":"primary","is_bicycle_related":true,"kind":"major_road","bicycle_shield_text":"SRM","bicycle_network":"lcn","source":"openstreetmap.org","min_zoom":8.0,"bus_shield_text":"53B","shield_text":"72","ref":"72"},"arcs":[294]},{"type":"MultiLineString","properties":{"bus_network":"ZTM Warszawa","network":"pl:national","sort_rank":381,"landuse_kind":"urban_area","kind":"major_road","source":"openstreetmap.org","min_zoom":8.0,"bus_shield_text":"414","shield_text":"7","kind_detail":"trunk","ref":"S7;S8"},"arcs":[[295],[296]]},{"type":"LineString","properties":{"kind":"major_road","network":"pl:national","sort_rank":380,"kind_detail":"primary","is_bicycle_related":true,"bicycle_shield_text":null,"bicycle_network":"lcn","source":"openstreetmap.org","min_zoom":8.0,"shield_text":"50","ref":"50"},"arcs":[297]},{"type":"LineString","properties":{"kind":"major_road","network":"pl:national","sort_rank":380,"kind_detail":"primary","bus_network":"\u0141\u00f3d\u017a","source":"openstreetmap.org","min_zoom":8.0,"bus_shield_text":"53B","shield_text":"72","landuse_kind":"nature_reserve","ref":"72","id":201745433},"arcs":[298]},{"type":"LineString","properties":{"kind":"major_road","network":"pl:national","sort_rank":380,"kind_detail":"primary","bus_network":"ZTM Warszawa","source":"openstreetmap.org","min_zoom":8.0,"bus_shield_text":"N83","shield_text":"79","landuse_kind":"urban_area","id":172986348},"arcs":[299]},{"type":"MultiLineString","properties":{"kind":"path","sort_rank":354,"kind_detail":"track","is_bicycle_related":true,"bicycle_shield_text":"R11","bicycle_network":"icn","source":"openstreetmap.org","min_zoom":8.0},"arcs":[[300],[301],[302]]},{"type":"LineString","properties":{"kind":"major_road","network":"pl:regional","sort_rank":380,"kind_detail":"primary","bus_network":"ZTM Warszawa","source":"openstreetmap.org","min_zoom":8.0,"bus_shield_text":"705","shield_text":"631","ref":"61","id":335995698},"arcs":[303]},{"type":"MultiLineString","properties":{"kind":"minor_road","sort_rank":360,"kind_detail":"unclassified","is_bicycle_related":true,"bicycle_shield_text":"R11","bicycle_network":"icn","source":"openstreetmap.org","min_zoom":8.0},"arcs":[[304],[305]]},{"type":"MultiLineString","properties":{"kind":"highway","network":"pl:national","sort_rank":383,"landuse_kind":"nature_reserve","source":"openstreetmap.org","min_zoom":8.0,"all_networks":["pl:national","e-road","pl:motorways"],"kind_detail":"motorway","shield_text":"2","ref":"A2","all_shield_texts":["2","30","2"]},"arcs":[[306],[307],[308],[309],[310],[311],[312],[313]]},{"type":"LineString","properties":{"kind":"major_road","network":"pl:national","sort_rank":380,"kind_detail":"primary","bus_network":"ZTM Warszawa","source":"openstreetmap.org","min_zoom":8.0,"bus_shield_text":"L25","shield_text":"79","ref":"79","id":335241279},"arcs":[314]},{"type":"LineString","properties":{"bus_network":"ZTM Warszawa","sort_rank":380,"kind_detail":"primary","kind":"major_road","source":"openstreetmap.org","min_zoom":8.0,"bus_shield_text":"132","landuse_kind":"urban_area"},"arcs":[315]},{"type":"LineString","properties":{"source":"openstreetmap.org","kind":"ferry","name":"statek wycieczkowy Stelmach, trasa godzinna","sort_rank":355,"landuse_kind":"urban_area","min_zoom":8.0,"id":34049254},"arcs":[316]},{"type":"MultiLineString","properties":{"bus_network":"\u0141\u00f3d\u017a","network":"pl:national","sort_rank":380,"kind_detail":"primary","kind":"major_road","source":"openstreetmap.org","min_zoom":8.0,"bus_shield_text":"53B","shield_text":"72","ref":"72"},"arcs":[[317],[318],[319]]},{"type":"LineString","properties":{"kind":"major_road","network":"pl:regional","sort_rank":379,"kind_detail":"secondary","is_bicycle_related":true,"bicycle_shield_text":"R2","bicycle_network":"ncn","source":"openstreetmap.org","min_zoom":8.0,"shield_text":"574","ref":"577;574","id":177573604},"arcs":[320]},{"type":"LineString","properties":{"bus_network":"ZTM Warszawa","network":"pl:regional","sort_rank":379,"kind_detail":"secondary","is_bicycle_related":true,"kind":"major_road","bicycle_shield_text":"R11","bicycle_network":"icn","source":"openstreetmap.org","min_zoom":8.0,"bus_shield_text":"L31","shield_text":"633","ref":"633","id":125615604},"arcs":[321]},{"type":"MultiLineString","properties":{"bus_network":"ZTM Warszawa","network":"historical","sort_rank":381,"kind_detail":"trunk","kind":"major_road","source":"openstreetmap.org","min_zoom":8.0,"bus_shield_text":"733","shield_text":null,"ref":"S8"},"arcs":[[322],[323],[324],[325]]},{"type":"MultiLineString","properties":{"kind":"major_road","network":"pl:national","short_name":"POW","sort_rank":381,"landuse_kind":"urban_area","source":"openstreetmap.org","min_zoom":8.0,"kind_detail":"trunk","shield_text":"2","ref":"S2"},"arcs":[[326],[327]]},{"type":"MultiLineString","properties":{"kind":"major_road","network":"pl:national","sort_rank":381,"landuse_kind":"urban_area","source":"openstreetmap.org","min_zoom":8.0,"kind_detail":"trunk","shield_text":"7","ref":"S7;S8"},"arcs":[[328],[329]]},{"type":"MultiLineString","properties":{"kind":"major_road","network":"e-road","sort_rank":381,"landuse_kind":"urban_area","source":"openstreetmap.org","min_zoom":8.0,"kind_detail":"trunk","shield_text":"67","ref":"S7;S8"},"arcs":[[330],[331],[332]]},{"type":"MultiLineString","properties":{"sort_rank":380,"kind_detail":"primary","min_zoom":8.0,"kind":"major_road","source":"openstreetmap.org"},"arcs":[[333],[334],[335],[336],[337],[338],[339],[340],[341],[342],[343],[344],[345],[346],[347],[348],[349],[350]]},{"type":"MultiLineString","properties":{"bus_network":"ZTM Warszawa","network":"pl:national","sort_rank":380,"kind_detail":"primary","kind":"major_road","source":"openstreetmap.org","min_zoom":8.0,"bus_shield_text":"N35","shield_text":"7","landuse_kind":"urban_area","ref":"7"},"arcs":[[351],[352],[353]]},{"type":"MultiLineString","properties":{"bus_network":null,"network":"pl:national","sort_rank":380,"kind_detail":"primary","kind":"major_road","source":"openstreetmap.org","min_zoom":8.0,"bus_shield_text":"247","shield_text":"7","landuse_kind":"urban_area","ref":"7"},"arcs":[[354],[355],[356],[357],[358],[359],[360]]},{"type":"MultiLineString","properties":{"bus_network":"ZTM Warszawa","network":"pl:national","sort_rank":380,"kind_detail":"primary","kind":"major_road","source":"openstreetmap.org","min_zoom":8.0,"bus_shield_text":"511","shield_text":"61","landuse_kind":"urban_area","ref":"61"},"arcs":[[361],[362],[363]]},{"type":"LineString","properties":{"kind":"major_road","network":"e-road","sort_rank":380,"kind_detail":"primary","source":"openstreetmap.org","min_zoom":8.0,"shield_text":"67","id":499632931},"arcs":[364]},{"type":"LineString","properties":{"kind":"major_road","network":"pl:national","sort_rank":380,"kind_detail":"primary","is_bicycle_related":true,"bicycle_shield_text":null,"bicycle_network":"lcn","source":"openstreetmap.org","min_zoom":8.0,"shield_text":"92","ref":"92","id":322858168},"arcs":[365]},{"type":"LineString","properties":{"bus_network":"G\u0142owno","network":"pl:national","sort_rank":380,"kind_detail":"primary","kind":"major_road","source":"openstreetmap.org","min_zoom":8.0,"bus_shield_text":"Z","shield_text":"14","ref":"14"},"arcs":[366]},{"type":"MultiLineString","properties":{"source":"openstreetmap.org","kind":"major_road","sort_rank":380,"kind_detail":"primary","ref":"50","min_zoom":8.0},"arcs":[[367],[368]]},{"type":"LineString","properties":{"bus_network":"ZTM Warszawa","network":"pl:national","sort_rank":380,"kind_detail":"primary","is_bicycle_related":true,"kind":"major_road","bicycle_shield_text":null,"bicycle_network":"lcn","source":"openstreetmap.org","min_zoom":8.0,"bus_shield_text":"L24","shield_text":"79","ref":"79","id":240865017},"arcs":[369]},{"type":"LineString","properties":{"bus_network":"MZK Skierniewice","network":"pl:national","sort_rank":380,"kind_detail":"primary","is_bicycle_related":true,"kind":"major_road","bicycle_shield_text":null,"bicycle_network":"lcn","source":"openstreetmap.org","min_zoom":8.0,"bus_shield_text":"1","shield_text":"70","landuse_kind":"urban_area","ref":"70","id":26766974},"arcs":[370]},{"type":"LineString","properties":{"bus_network":"ZTM Warszawa","network":"pl:national","sort_rank":380,"kind_detail":"primary","kind":"major_road","source":"openstreetmap.org","min_zoom":8.0,"bus_shield_text":"N83","shield_text":"79","landuse_kind":"residential","ref":"79"},"arcs":[371]},{"type":"MultiLineString","properties":{"bus_network":"ZTM Warszawa","network":"pl:national","sort_rank":380,"kind_detail":"primary","kind":"major_road","source":"openstreetmap.org","min_zoom":8.0,"bus_shield_text":"731","shield_text":"61","landuse_kind":"urban_area"},"arcs":[[372],[373]]},{"type":"LineString","properties":{"kind":"major_road","network":"pl:national","sort_rank":380,"kind_detail":"primary","bus_network":"ZTM Warszawa","source":"openstreetmap.org","min_zoom":8.0,"bus_shield_text":"N56","shield_text":"7","landuse_kind":"urban_area","ref":"7","id":303249166},"arcs":[374]},{"type":"LineString","properties":{"bus_network":"ZTM Warszawa","sort_rank":380,"kind_detail":"primary","kind":"major_road","source":"openstreetmap.org","min_zoom":8.0,"bus_shield_text":"N03","landuse_kind":"urban_area"},"arcs":[375]},{"type":"LineString","properties":{"bus_network":"ZTM Warszawa","network":"pl:regional","sort_rank":379,"kind_detail":"secondary","is_bicycle_related":true,"kind":"major_road","bicycle_shield_text":"R11","bicycle_network":"icn","source":"openstreetmap.org","min_zoom":8.0,"bus_shield_text":"705","shield_text":"631","ref":"631"},"arcs":[376]},{"type":"LineString","properties":{"kind":"major_road","network":"pl:regional","sort_rank":379,"kind_detail":"secondary","is_bicycle_related":true,"bus_network":"komunikacja miejska w P\u0142ocku","bicycle_shield_text":"R2","bicycle_network":"ncn","source":"openstreetmap.org","min_zoom":8.0,"bus_shield_text":"140","shield_text":"575","ref":"575"},"arcs":[377]},{"type":"MultiLineString","properties":{"kind":"major_road","network":"pl:national","sort_rank":380,"kind_detail":"primary","source":"openstreetmap.org","min_zoom":8.0,"landuse_kind":"urban_area","shield_text":"61","ref":"61"},"arcs":[[378],[379],[380],[381]]},{"type":"MultiLineString","properties":{"kind":"major_road","network":"pl:national","sort_rank":380,"kind_detail":"primary","source":"openstreetmap.org","min_zoom":8.0,"landuse_kind":"residential","shield_text":"50","ref":"50"},"arcs":[[382],[383],[384],[385],[386]]},{"type":"MultiLineString","properties":{"kind":"major_road","network":"pl:national","sort_rank":380,"kind_detail":"primary","source":"openstreetmap.org","min_zoom":8.0,"shield_text":"48","ref":"48"},"arcs":[[387],[388]]},{"type":"MultiLineString","properties":{"kind":"major_road","network":"pl:national","sort_rank":381,"landuse_kind":"urban_area","source":"openstreetmap.org","min_zoom":8.0,"kind_detail":"trunk","shield_text":"79","ref":"S79"},"arcs":[[389],[390],[391]]},{"type":"LineString","properties":{"kind":"minor_road","sort_rank":358,"kind_detail":"service","is_bicycle_related":true,"bicycle_shield_text":"R11","bicycle_network":"icn","source":"openstreetmap.org","min_zoom":8.0,"id":126808801},"arcs":[392]},{"type":"MultiLineString","properties":{"bus_network":"ZTM Warszawa","network":"pl:national","sort_rank":380,"kind_detail":"primary","kind":"major_road","source":"openstreetmap.org","min_zoom":8.0,"bus_shield_text":"705","shield_text":"61","ref":"61"},"arcs":[[393],[394],[395]]},{"type":"LineString","properties":{"bus_network":"MZK Skierniewice","network":"pl:national","sort_rank":380,"kind_detail":"primary","is_bicycle_related":true,"kind":"major_road","bicycle_shield_text":null,"bicycle_network":"lcn","source":"openstreetmap.org","min_zoom":8.0,"bus_shield_text":"1","shield_text":"70","ref":"70"},"arcs":[396]},{"type":"LineString","properties":{"kind":"major_road","network":"pl:national","sort_rank":380,"kind_detail":"primary","bus_network":"ZTM Warszawa","source":"openstreetmap.org","min_zoom":8.0,"bus_shield_text":"743","shield_text":"92","ref":"92","id":223731537},"arcs":[397]},{"type":"LineString","properties":{"bus_network":"ZTM Warszawa","network":"pl:national","sort_rank":380,"kind_detail":"primary","old_name":"Nowoaleksandryjska","kind":"major_road","source":"openstreetmap.org","min_zoom":8.0,"bus_shield_text":"N83","shield_text":"79","landuse_kind":"residential","ref":"79"},"arcs":[398]},{"type":"MultiLineString","properties":{"kind":"major_road","network":"pl:national","sort_rank":380,"kind_detail":"primary","source":"openstreetmap.org","min_zoom":8.0,"shield_text":"62","ref":"62"},"arcs":[[399],[400],[401],[402],[403],[404],[405],[406],[407],[408],[409],[410],[411],[412],[413],[414],[415],[416],[417],[418]]},{"type":"LineString","properties":{"kind":"major_road","network":"pl:national","sort_rank":380,"kind_detail":"primary","bus_network":"MZK Skierniewice","source":"openstreetmap.org","min_zoom":8.0,"bus_shield_text":"5","shield_text":"70","landuse_kind":"urban_area","id":348003411},"arcs":[419]},{"type":"MultiLineString","properties":{"kind":"major_road","network":"pl:national","sort_rank":380,"kind_detail":"primary","source":"openstreetmap.org","min_zoom":8.0,"landuse_kind":"urban_area","shield_text":"7","ref":"7"},"arcs":[[420],[421],[422],[423],[424],[425],[426],[427],[428],[429],[430],[431],[432],[433],[434],[435],[436]]},{"type":"MultiLineString","properties":{"bus_network":"ZTM Warszawa","network":"pl:national","sort_rank":380,"kind_detail":"primary","kind":"major_road","source":"openstreetmap.org","min_zoom":8.0,"bus_shield_text":"L24","shield_text":"79","ref":"79"},"arcs":[[437],[438]]},{"type":"LineString","properties":{"kind":"major_road","network":"pl:national","sort_rank":380,"kind_detail":"primary","is_bicycle_related":true,"bicycle_shield_text":"SIB","bicycle_network":"rcn","source":"openstreetmap.org","min_zoom":8.0,"shield_text":"14","ref":"14","id":227741207},"arcs":[439]},{"type":"LineString","properties":{"kind":"major_road","sort_rank":380,"kind_detail":"primary","bus_network":"ZTM Warszawa","source":"openstreetmap.org","min_zoom":8.0,"bus_shield_text":"L-7","landuse_kind":"urban_area","id":490382311},"arcs":[440]},{"type":"LineString","properties":{"kind":"path","sort_rank":354,"kind_detail":"cycleway","is_bicycle_related":true,"bicycle_shield_text":"R11","bicycle_network":"icn","source":"openstreetmap.org","min_zoom":8.0},"arcs":[441]},{"type":"LineString","properties":{"kind":"major_road","network":"pl:regional","sort_rank":380,"kind_detail":"primary","bus_network":"ZTM Warszawa","source":"openstreetmap.org","min_zoom":8.0,"bus_shield_text":"N63","shield_text":"630","landuse_kind":"urban_area","id":253162208},"arcs":[442]},{"type":"LineString","properties":{"kind":"major_road","network":"pl:national","sort_rank":380,"kind_detail":"primary","source":"openstreetmap.org","min_zoom":8.0,"landuse_kind":"urban_area","shield_text":"61"},"arcs":[443]},{"type":"MultiLineString","properties":{"bus_network":"ZTM Warszawa","sort_rank":380,"kind_detail":"primary","kind":"major_road","source":"openstreetmap.org","min_zoom":8.0,"bus_shield_text":"N83","landuse_kind":"urban_area"},"arcs":[[444],[445]]},{"type":"LineString","properties":{"kind":"major_road","network":"pl:national","sort_rank":380,"kind_detail":"primary","source":"openstreetmap.org","min_zoom":8.0,"landuse_kind":"nature_reserve","shield_text":"79","ref":"79"},"arcs":[446]},{"type":"LineString","properties":{"kind":"major_road","sort_rank":380,"landuse_kind":"urban_area","source":"openstreetmap.org","min_zoom":8.0,"kind_detail":"primary","ref":"79","id":234796949},"arcs":[447]},{"type":"LineString","properties":{"kind":"major_road","network":"pl:national","sort_rank":380,"kind_detail":"primary","bus_network":"MZK Skierniewice","source":"openstreetmap.org","min_zoom":8.0,"bus_shield_text":"1","shield_text":"70","ref":"70","id":229142555},"arcs":[448]},{"type":"MultiLineString","properties":{"bus_network":null,"network":"pl:national","sort_rank":380,"kind_detail":"primary","kind":"major_road","source":"openstreetmap.org","min_zoom":8.0,"bus_shield_text":"247","shield_text":"7","ref":"7"},"arcs":[[449],[450],[451],[452]]},{"type":"LineString","properties":{"source":"openstreetmap.org","kind":"major_road","network":"pl:national","sort_rank":380,"kind_detail":"primary","min_zoom":8.0,"shield_text":"48"},"arcs":[453]},{"type":"LineString","properties":{"kind":"major_road","network":"pl:national","sort_rank":381,"kind_detail":"trunk","source":"openstreetmap.org","min_zoom":8.0,"landuse_kind":"residential","shield_text":"7","ref":"S7","id":42904666},"arcs":[454]},{"type":"MultiLineString","properties":{"bus_network":"ZTM Warszawa","network":"pl:national","sort_rank":380,"kind_detail":"primary","kind":"major_road","source":"openstreetmap.org","min_zoom":8.0,"bus_shield_text":"166","shield_text":"2","landuse_kind":"urban_area","ref":"2"},"arcs":[[455],[456]]},{"type":"MultiLineString","properties":{"kind":"path","sort_rank":354,"landuse_kind":"nature_reserve","is_bicycle_related":true,"bicycle_shield_text":"R2","bicycle_network":"ncn","source":"openstreetmap.org","min_zoom":8.0,"kind_detail":"path"},"arcs":[[457],[458],[459]]},{"type":"LineString","properties":{"bus_network":"ZTM Warszawa","network":"pl:national","sort_rank":380,"kind_detail":"primary","kind":"major_road","source":"openstreetmap.org","min_zoom":8.0,"bus_shield_text":"L-9","shield_text":"61","landuse_kind":"urban_area","ref":"61"},"arcs":[460]},{"type":"MultiLineString","properties":{"kind":"major_road","network":"pl:national","sort_rank":381,"landuse_kind":"urban_area","source":"openstreetmap.org","min_zoom":8.0,"kind_detail":"trunk","shield_text":"7","ref":"7"},"arcs":[[461],[462]]},{"type":"MultiLineString","properties":{"bus_network":"ZTM Warszawa","network":"historical","sort_rank":381,"landuse_kind":"urban_area","kind":"major_road","source":"openstreetmap.org","min_zoom":8.0,"bus_shield_text":"733","shield_text":null,"kind_detail":"trunk","ref":"S8"},"arcs":[[463],[464],[465],[466]]},{"type":"MultiLineString","properties":{"kind":"path","sort_rank":354,"kind_detail":"path","is_bicycle_related":true,"bicycle_shield_text":"R11","bicycle_network":"icn","source":"openstreetmap.org","min_zoom":8.0},"arcs":[[467],[468],[469]]},{"type":"MultiLineString","properties":{"bus_network":"ZTM Warszawa","network":"pl:national","sort_rank":380,"kind_detail":"primary","kind":"major_road","source":"openstreetmap.org","min_zoom":8.0,"bus_shield_text":"N83","shield_text":"2","landuse_kind":"urban_area","ref":"2"},"arcs":[[470],[471],[472]]},{"type":"LineString","properties":{"source":"openstreetmap.org","kind":"major_road","network":"pl:national","sort_rank":380,"kind_detail":"primary","min_zoom":8.0,"shield_text":"85"},"arcs":[473]},{"type":"MultiLineString","properties":{"kind":"highway","network":"pl:national","sort_rank":383,"landuse_kind":"urban_area","source":"openstreetmap.org","min_zoom":8.0,"all_networks":["pl:national","e-road","pl:motorways"],"kind_detail":"motorway","shield_text":"2","ref":"A2","all_shield_texts":["2","30","2"]},"arcs":[[474],[475],[476],[477],[478],[479],[480],[481]]},{"type":"MultiLineString","properties":{"kind":"major_road","network":"pl:national","sort_rank":380,"kind_detail":"primary","source":"openstreetmap.org","min_zoom":8.0,"landuse_kind":"urban_area","shield_text":"70","ref":"70"},"arcs":[[482],[483],[484],[485]]},{"type":"MultiLineString","properties":{"bus_network":"ZTM Warszawa","network":"e-road","sort_rank":381,"landuse_kind":"urban_area","kind":"major_road","source":"openstreetmap.org","min_zoom":8.0,"bus_shield_text":"E-9","shield_text":"67","kind_detail":"trunk","ref":"S8"},"arcs":[[486],[487]]},{"type":"LineString","properties":{"kind":"major_road","sort_rank":380,"kind_detail":"primary","bus_network":"ZTM Warszawa","source":"openstreetmap.org","min_zoom":8.0,"bus_shield_text":"N52","landuse_kind":"urban_area","id":489328259},"arcs":[488]},{"type":"MultiLineString","properties":{"kind":"major_road","network":"pl:national","sort_rank":380,"kind_detail":"primary","source":"openstreetmap.org","min_zoom":8.0,"shield_text":"70","ref":"70"},"arcs":[[489],[490],[491],[492],[493],[494],[495],[496],[497],[498],[499],[500],[501],[502],[503],[504],[505],[506]]},{"type":"MultiLineString","properties":{"bus_network":"ZTM Warszawa","network":"e-road","sort_rank":380,"kind_detail":"primary","kind":"major_road","source":"openstreetmap.org","min_zoom":8.0,"bus_shield_text":"703","shield_text":"67","ref":"8"},"arcs":[[507],[508],[509],[510],[511]]},{"type":"LineString","properties":{"bus_network":"ZTM Warszawa","network":"e-road","sort_rank":380,"kind_detail":"primary","kind":"major_road","source":"openstreetmap.org","min_zoom":8.0,"bus_shield_text":"733","shield_text":"67","ref":"8"},"arcs":[512]},{"type":"MultiLineString","properties":{"bus_network":"ZTM Warszawa","network":"pl:national","sort_rank":380,"kind_detail":"primary","kind":"major_road","source":"openstreetmap.org","min_zoom":8.0,"bus_shield_text":"N02","shield_text":"7","landuse_kind":"urban_area","ref":"7"},"arcs":[[513],[514]]},{"type":"MultiLineString","properties":{"kind":"major_road","network":"pl:national","sort_rank":380,"kind_detail":"primary","source":"openstreetmap.org","min_zoom":8.0,"shield_text":"92","ref":"92"},"arcs":[[515],[516],[517],[518],[519],[520],[521],[522],[523],[524],[525],[526],[527],[528],[529],[530],[531],[532],[533],[534],[535],[536],[537],[538]]},{"type":"MultiLineString","properties":{"bus_network":"ZTM Warszawa","network":"pl:national","sort_rank":380,"kind_detail":"primary","kind":"major_road","source":"openstreetmap.org","min_zoom":8.0,"bus_shield_text":"N34","shield_text":"2","landuse_kind":"urban_area","ref":"2"},"arcs":[[539],[540]]},{"type":"MultiLineString","properties":{"source":"openstreetmap.org","kind":"major_road","kind_detail":"trunk","sort_rank":381,"landuse_kind":"urban_area","ref":"S7","min_zoom":8.0},"arcs":[[541],[542]]},{"type":"LineString","properties":{"kind":"major_road","sort_rank":381,"kind_detail":"trunk","bus_network":"ZTM Warszawa","source":"openstreetmap.org","min_zoom":8.0,"bus_shield_text":"Z-1","landuse_kind":"urban_area","id":400545446},"arcs":[543]},{"type":"MultiLineString","properties":{"kind":"major_road","network":"e-road","sort_rank":381,"kind_detail":"trunk","source":"openstreetmap.org","min_zoom":8.0,"shield_text":"67","ref":"S8"},"arcs":[[544],[545]]},{"type":"MultiLineString","properties":{"kind":"major_road","network":"pl:national","sort_rank":380,"kind_detail":"primary","source":"openstreetmap.org","min_zoom":8.0,"landuse_kind":"urban_area","shield_text":"79","ref":"79"},"arcs":[[546],[547],[548]]},{"type":"LineString","properties":{"kind":"major_road","network":"e-road","sort_rank":381,"landuse_kind":"urban_area","source":"openstreetmap.org","min_zoom":8.0,"kind_detail":"trunk","shield_text":"67","ref":"8"},"arcs":[549]},{"type":"MultiLineString","properties":{"bus_network":"ZTM Warszawa","network":"pl:national","sort_rank":381,"landuse_kind":"urban_area","kind":"major_road","source":"openstreetmap.org","min_zoom":8.0,"bus_shield_text":"N02","shield_text":"7","kind_detail":"trunk","ref":"S7;S8"},"arcs":[[550],[551],[552],[553]]},{"type":"MultiLineString","properties":{"kind":"major_road","network":"pl:national","sort_rank":380,"kind_detail":"primary","source":"openstreetmap.org","min_zoom":8.0,"shield_text":"50","ref":"50;92;705"},"arcs":[[554],[555],[556],[557]]},{"type":"MultiLineString","properties":{"bus_network":"ZTM Warszawa","network":"pl:national","sort_rank":380,"kind_detail":"primary","kind":"major_road","source":"openstreetmap.org","min_zoom":8.0,"bus_shield_text":"N63","shield_text":"61","landuse_kind":"urban_area","ref":"61"},"arcs":[[558],[559],[560],[561]]},{"type":"LineString","properties":{"kind":"major_road","network":"pl:national","sort_rank":380,"kind_detail":"primary","is_bicycle_related":true,"bicycle_shield_text":null,"bicycle_network":"lcn","source":"openstreetmap.org","min_zoom":8.0,"landuse_kind":"nature_reserve","shield_text":"85","ref":"85","id":413183185},"arcs":[562]},{"type":"LineString","properties":{"bus_network":"ZTM Warszawa","network":"pl:national","sort_rank":380,"kind_detail":"primary","kind":"major_road","source":"openstreetmap.org","min_zoom":8.0,"bus_shield_text":"L11","shield_text":"61","landuse_kind":"urban_area","ref":"61"},"arcs":[563]},{"type":"LineString","properties":{"kind":"major_road","network":"pl:national","sort_rank":380,"kind_detail":"primary","bus_network":"ZTM Warszawa","source":"openstreetmap.org","min_zoom":8.0,"bus_shield_text":"717","shield_text":"7","landuse_kind":"urban_area","ref":"7;719","id":141388661},"arcs":[564]},{"type":"LineString","properties":{"kind":"major_road","network":"pl:national","sort_rank":380,"kind_detail":"primary","is_bicycle_related":true,"bicycle_shield_text":"\u017c\u00f3\u0142ty","bicycle_network":"lcn","source":"openstreetmap.org","min_zoom":8.0,"shield_text":"50","ref":"50","id":420483604},"arcs":[565]},{"type":"LineString","properties":{"kind":"minor_road","sort_rank":360,"kind_detail":"living_street","is_bicycle_related":true,"bicycle_shield_text":"R11","bicycle_network":"icn","source":"openstreetmap.org","min_zoom":8.0,"id":178559401},"arcs":[566]},{"type":"LineString","properties":{"kind":"major_road","network":"pl:national","sort_rank":380,"kind_detail":"primary","bus_network":"ZTM Warszawa","source":"openstreetmap.org","min_zoom":8.0,"bus_shield_text":"178","shield_text":"7","landuse_kind":"urban_area","ref":"7","id":229152920},"arcs":[567]},{"type":"LineString","properties":{"kind":"major_road","network":"pl:national","sort_rank":380,"kind_detail":"primary","source":"openstreetmap.org","min_zoom":8.0,"shield_text":"50","ref":"50;62","id":189021008},"arcs":[568]},{"type":"LineString","properties":{"kind":"major_road","network":"pl:national","sort_rank":380,"kind_detail":"primary","source":"openstreetmap.org","min_zoom":8.0,"landuse_kind":"residential","shield_text":"61","ref":"61"},"arcs":[569]},{"type":"MultiLineString","properties":{"kind":"major_road","network":"pl:national","short_name":"POW","sort_rank":381,"landuse_kind":"urban_area","source":"openstreetmap.org","min_zoom":8.0,"kind_detail":"trunk","shield_text":"2","ref":"S2;S7;S8"},"arcs":[[570],[571]]},{"type":"LineString","properties":{"bus_network":"ZTM Warszawa","network":"pl:national","sort_rank":380,"kind_detail":"primary","kind":"major_road","source":"openstreetmap.org","min_zoom":8.0,"bus_shield_text":"N63","shield_text":"61","landuse_kind":"residential","ref":"61"},"arcs":[572]},{"type":"MultiLineString","properties":{"kind":"major_road","network":"pl:national","sort_rank":380,"kind_detail":"primary","source":"openstreetmap.org","min_zoom":8.0,"landuse_kind":"residential","shield_text":"79","ref":"79"},"arcs":[[573],[574]]},{"type":"LineString","properties":{"kind":"major_road","network":"pl:national","sort_rank":380,"kind_detail":"primary","is_bicycle_related":true,"bicycle_shield_text":null,"bicycle_network":"lcn","source":"openstreetmap.org","min_zoom":8.0,"shield_text":"70","ref":"70","id":106675404},"arcs":[575]},{"type":"MultiLineString","properties":{"bus_network":"KM\u0141 Sp. z o.o.","network":"pl:national","sort_rank":380,"kind_detail":"primary","kind":"major_road","source":"openstreetmap.org","min_zoom":8.0,"bus_shield_text":"\u01411","shield_text":"7","landuse_kind":"urban_area","ref":"7"},"arcs":[[576],[577],[578],[579],[580],[581]]},{"type":"LineString","properties":{"kind":"major_road","network":"pl:national","sort_rank":380,"kind_detail":"primary","is_bicycle_related":true,"bicycle_shield_text":"SG","bicycle_network":"rcn","source":"openstreetmap.org","min_zoom":8.0,"shield_text":"72","ref":"72","id":260843460},"arcs":[582]},{"type":"MultiLineString","properties":{"bus_network":"ZTM Warszawa","network":"pl:national","sort_rank":380,"kind_detail":"primary","kind":"major_road","source":"openstreetmap.org","min_zoom":8.0,"bus_shield_text":"186","shield_text":"7","landuse_kind":"urban_area","ref":"7"},"arcs":[[583],[584]]},{"type":"LineString","properties":{"kind":"major_road","network":"pl:regional","sort_rank":379,"kind_detail":"secondary","is_bicycle_related":true,"bicycle_shield_text":"R2","bicycle_network":"ncn","source":"openstreetmap.org","min_zoom":8.0,"shield_text":"575"},"arcs":[585]},{"type":"MultiLineString","properties":{"bus_network":"ZTM Warszawa","network":"pl:national","sort_rank":380,"kind_detail":"primary","kind":"major_road","source":"openstreetmap.org","min_zoom":8.0,"bus_shield_text":"402","shield_text":"2","landuse_kind":"urban_area","ref":"2"},"arcs":[[586],[587]]},{"type":"MultiLineString","properties":{"kind":"major_road","network":"e-road","sort_rank":380,"kind_detail":"primary","source":"openstreetmap.org","min_zoom":8.0,"landuse_kind":"urban_area","shield_text":"67","ref":"8"},"arcs":[[588],[589]]},{"type":"MultiLineString","properties":{"kind":"highway","network":"pl:national","sort_rank":383,"kind_detail":"motorway","source":"openstreetmap.org","min_zoom":8.0,"all_networks":["pl:national","e-road","pl:motorways"],"shield_text":"2","ref":"A2","all_shield_texts":["2","30","2"]},"arcs":[[590],[591],[592],[593],[594],[595],[596],[597],[598],[599],[600],[601],[602],[603],[604],[605],[606],[607],[608],[609]]},{"type":"MultiLineString","properties":{"bus_network":"ZTM Warszawa","network":"pl:national","sort_rank":380,"kind_detail":"primary","kind":"major_road","source":"openstreetmap.org","min_zoom":8.0,"bus_shield_text":"N03","shield_text":"61","landuse_kind":"urban_area","ref":"61"},"arcs":[[610],[611]]},{"type":"MultiLineString","properties":{"bus_network":"ZTM Warszawa","network":"pl:national","short_name":"al. gen. Marii Wittek","sort_rank":380,"kind_detail":"primary","kind":"major_road","source":"openstreetmap.org","min_zoom":8.0,"bus_shield_text":"N01","shield_text":"61","landuse_kind":"urban_area","ref":"61"},"arcs":[[612],[613]]},{"type":"MultiLineString","properties":{"source":"openstreetmap.org","kind":"major_road","sort_rank":380,"kind_detail":"primary","ref":"85","min_zoom":8.0},"arcs":[[614],[615],[616]]},{"type":"LineString","properties":{"kind":"major_road","network":"e-road","sort_rank":380,"kind_detail":"primary","bus_network":"ZTM Warszawa","source":"openstreetmap.org","min_zoom":8.0,"bus_shield_text":"733","shield_text":"67","id":464120383},"arcs":[617]},{"type":"MultiLineString","properties":{"kind":"major_road","network":"pl:national","sort_rank":380,"kind_detail":"primary","source":"openstreetmap.org","min_zoom":8.0,"shield_text":"85","ref":"85"},"arcs":[[618],[619],[620],[621],[622],[623]]},{"type":"MultiLineString","properties":{"kind":"major_road","network":"pl:national","sort_rank":380,"kind_detail":"primary","source":"openstreetmap.org","min_zoom":8.0,"landuse_kind":"urban_area","shield_text":"2","ref":"2"},"arcs":[[624],[625],[626],[627],[628],[629]]},{"type":"LineString","properties":{"kind":"major_road","network":"pl:national","sort_rank":380,"kind_detail":"primary","bus_network":"ZTM Warszawa","source":"openstreetmap.org","min_zoom":8.0,"bus_shield_text":"414","shield_text":"7","landuse_kind":"urban_area","ref":"7","id":197717603},"arcs":[630]},{"type":"LineString","properties":{"kind":"major_road","network":"pl:regional","sort_rank":380,"kind_detail":"primary","source":"openstreetmap.org","min_zoom":8.0,"landuse_kind":"urban_area","shield_text":"630","id":240734505},"arcs":[631]},{"type":"MultiLineString","properties":{"bus_network":"G\u0142owno","network":"pl:national","sort_rank":380,"kind_detail":"primary","kind":"major_road","source":"openstreetmap.org","min_zoom":8.0,"bus_shield_text":"B","shield_text":"14","ref":"14"},"arcs":[[632],[633]]},{"type":"MultiLineString","properties":{"kind":"major_road","network":"e-road","sort_rank":380,"kind_detail":"primary","source":"openstreetmap.org","min_zoom":8.0,"shield_text":"67","ref":"8"},"arcs":[[634],[635],[636]]},{"type":"MultiLineString","properties":{"kind":"path","sort_rank":354,"landuse_kind":"urban_area","is_bicycle_related":true,"bicycle_shield_text":"R2","bicycle_network":"ncn","source":"openstreetmap.org","min_zoom":8.0,"kind_detail":"path"},"arcs":[[637],[638]]},{"type":"LineString","properties":{"bus_network":"ZTM Warszawa","network":"pl:national","sort_rank":380,"kind_detail":"primary","kind":"major_road","source":"openstreetmap.org","min_zoom":8.0,"bus_shield_text":"L-7","shield_text":"92","landuse_kind":"urban_area","ref":"92"},"arcs":[639]},{"type":"LineString","properties":{"kind":"major_road","network":"pl:national","sort_rank":380,"kind_detail":"primary","source":"openstreetmap.org","min_zoom":8.0,"shield_text":"92","ref":"92;579","id":174794950},"arcs":[640]},{"type":"LineString","properties":{"kind":"minor_road","sort_rank":360,"kind_detail":"unclassified","is_bicycle_related":true,"bicycle_shield_text":"R11","bicycle_network":"icn","source":"openstreetmap.org","min_zoom":8.0,"landuse_kind":"urban_area"},"arcs":[641]},{"type":"LineString","properties":{"kind":"major_road","network":"pl:national","sort_rank":380,"kind_detail":"primary","bus_network":"ZTM Warszawa","source":"openstreetmap.org","min_zoom":8.0,"bus_shield_text":"709","shield_text":"79","landuse_kind":"urban_area","ref":"79","id":47257694},"arcs":[642]},{"type":"MultiLineString","properties":{"kind":"major_road","network":"pl:national","sort_rank":380,"kind_detail":"primary","source":"openstreetmap.org","min_zoom":8.0,"landuse_kind":"nature_reserve","shield_text":"70","ref":"70"},"arcs":[[643],[644],[645],[646],[647],[648],[649],[650],[651],[652],[653],[654]]},{"type":"LineString","properties":{"bus_network":"ZTM Warszawa","network":"pl:national","sort_rank":380,"kind_detail":"primary","kind":"major_road","source":"openstreetmap.org","min_zoom":8.0,"bus_shield_text":"517","shield_text":"7","landuse_kind":"urban_area","ref":"7"},"arcs":[655]},{"type":"MultiLineString","properties":{"kind":"major_road","network":"pl:regional","sort_rank":379,"kind_detail":"secondary","is_bicycle_related":true,"bicycle_shield_text":"R2","bicycle_network":"ncn","source":"openstreetmap.org","min_zoom":8.0,"shield_text":"574","ref":"574"},"arcs":[[656],[657]]},{"type":"LineString","properties":{"bus_network":"ZTM Warszawa","network":"pl:national","sort_rank":380,"kind_detail":"primary","kind":"major_road","source":"openstreetmap.org","min_zoom":8.0,"bus_shield_text":"713","shield_text":"92","ref":"92"},"arcs":[658]},{"type":"LineString","properties":{"kind":"major_road","network":"pl:national","sort_rank":380,"kind_detail":"primary","source":"openstreetmap.org","min_zoom":8.0,"shield_text":"79","ref":"79"},"arcs":[659]},{"type":"LineString","properties":{"kind":"major_road","network":"pl:national","sort_rank":380,"kind_detail":"primary","bus_network":"ZTM Warszawa","source":"openstreetmap.org","min_zoom":8.0,"bus_shield_text":"N41","shield_text":"61","landuse_kind":"urban_area","ref":"61","id":187017302},"arcs":[660]},{"type":"LineString","properties":{"kind":"major_road","sort_rank":380,"kind_detail":"primary","bus_network":"ZTM Warszawa","source":"openstreetmap.org","min_zoom":8.0,"bus_shield_text":"N83","landuse_kind":"urban_area","ref":"79","id":238500374},"arcs":[661]},{"type":"MultiLineString","properties":{"kind":"path","sort_rank":354,"kind_detail":"path","is_bicycle_related":true,"bicycle_shield_text":"R2","bicycle_network":"ncn","source":"openstreetmap.org","min_zoom":8.0},"arcs":[[662],[663],[664],[665]]},{"type":"LineString","properties":{"bus_network":"ZTM Warszawa","network":"e-road","sort_rank":380,"kind_detail":"primary","kind":"major_road","source":"openstreetmap.org","min_zoom":8.0,"bus_shield_text":"E-7","shield_text":"67","landuse_kind":"urban_area","ref":"8"},"arcs":[666]},{"type":"MultiLineString","properties":{"bus_network":"ZTM Warszawa","network":"pl:national","sort_rank":380,"kind_detail":"primary","kind":"major_road","source":"openstreetmap.org","min_zoom":8.0,"bus_shield_text":"141","shield_text":"79","landuse_kind":"urban_area","ref":"79"},"arcs":[[667],[668]]},{"type":"MultiLineString","properties":{"bus_network":"MZK Skierniewice","network":"pl:national","sort_rank":380,"kind_detail":"primary","kind":"major_road","source":"openstreetmap.org","min_zoom":8.0,"bus_shield_text":"5","shield_text":"70","landuse_kind":"urban_area","ref":"70;705"},"arcs":[[669],[670]]},{"type":"LineString","properties":{"kind":"major_road","network":"pl:national","sort_rank":380,"kind_detail":"primary","bus_shield_text":"N83","bus_network":"ZTM Warszawa","source":"openstreetmap.org","min_zoom":8.0,"old_name":"Nowoaleksandryjska","shield_text":"79","landuse_kind":"urban_area","id":4401160},"arcs":[671]},{"type":"MultiLineString","properties":{"bus_network":"ZTM Warszawa","network":"historical","sort_rank":380,"kind_detail":"primary","kind":"major_road","source":"openstreetmap.org","min_zoom":8.0,"bus_shield_text":"733","shield_text":null,"ref":"8"},"arcs":[[672],[673],[674],[675]]},{"type":"MultiLineString","properties":{"source":"openstreetmap.org","kind":"major_road","sort_rank":380,"kind_detail":"primary","ref":"92","min_zoom":8.0},"arcs":[[676],[677],[678],[679],[680],[681]]},{"type":"MultiLineString","properties":{"source":"openstreetmap.org","kind":"major_road","kind_detail":"trunk","sort_rank":381,"landuse_kind":"urban_area","min_zoom":8.0},"arcs":[[682],[683],[684],[685],[686]]},{"type":"MultiLineString","properties":{"bus_network":null,"network":"pl:national","sort_rank":381,"kind_detail":"trunk","kind":"major_road","source":"openstreetmap.org","min_zoom":8.0,"bus_shield_text":"247","shield_text":"7","landuse_kind":"nature_reserve","ref":"S7"},"arcs":[[687],[688]]},{"type":"LineString","properties":{"kind":"major_road","network":"pl:national","sort_rank":380,"kind_detail":"primary","bus_network":"ZTM Warszawa","source":"openstreetmap.org","min_zoom":8.0,"bus_shield_text":"189","shield_text":"79","landuse_kind":"urban_area","id":164825650},"arcs":[689]},{"type":"MultiLineString","properties":{"bus_network":"ZTM Warszawa","network":"pl:national","sort_rank":380,"kind_detail":"primary","kind":"major_road","source":"openstreetmap.org","min_zoom":8.0,"bus_shield_text":"717","shield_text":"7","landuse_kind":"urban_area","ref":"7"},"arcs":[[690],[691],[692]]},{"type":"LineString","properties":{"bus_network":"ZTM Warszawa","network":"pl:national","sort_rank":380,"kind_detail":"primary","kind":"major_road","source":"openstreetmap.org","min_zoom":8.0,"bus_shield_text":"713","shield_text":"92","landuse_kind":"urban_area","ref":"92"},"arcs":[693]},{"type":"MultiLineString","properties":{"bus_network":"MZK Skierniewice","network":"pl:national","sort_rank":380,"kind_detail":"primary","kind":"major_road","source":"openstreetmap.org","min_zoom":8.0,"bus_shield_text":"5","shield_text":"70","landuse_kind":"urban_area","ref":"70"},"arcs":[[694],[695],[696]]},{"type":"MultiLineString","properties":{"kind":"major_road","network":"pl:national","sort_rank":381,"landuse_kind":"urban_area","source":"openstreetmap.org","min_zoom":8.0,"kind_detail":"trunk","shield_text":"2","ref":"S2"},"arcs":[[697],[698],[699],[700],[701],[702],[703]]},{"type":"MultiLineString","properties":{"kind":"major_road","network":"pl:national","sort_rank":380,"kind_detail":"primary","source":"openstreetmap.org","min_zoom":8.0,"shield_text":"50","ref":"50"},"arcs":[[704],[705],[706],[707],[708],[709],[710],[711],[712],[713],[714],[715],[716],[717],[718],[719],[720],[721],[722],[723],[724],[725],[726],[727],[728],[729],[730],[731],[732],[733],[734],[735],[736],[737],[738],[739],[740],[741],[742],[743],[744],[745],[746],[747],[748],[749],[750],[751],[752],[753],[754],[755],[756],[757],[758],[759],[760],[761],[762],[763],[764],[765],[766],[767],[768],[769],[770],[771],[772],[773],[774],[775],[776],[777],[778],[779],[780],[781],[782],[783],[784],[785],[786],[787],[788],[789],[790],[791],[792],[793],[794],[795]]},{"type":"MultiLineString","properties":{"kind":"path","sort_rank":354,"landuse_kind":"urban_area","is_bicycle_related":true,"bicycle_shield_text":"R11","bicycle_network":"icn","source":"openstreetmap.org","min_zoom":8.0,"kind_detail":"track"},"arcs":[[796],[797]]},{"type":"LineString","properties":{"kind":"path","sort_rank":354,"kind_detail":"track","is_bicycle_related":true,"bicycle_shield_text":"R2","bicycle_network":"ncn","source":"openstreetmap.org","min_zoom":8.0},"arcs":[798]},{"type":"MultiLineString","properties":{"kind":"major_road","network":"pl:expressways","sort_rank":381,"landuse_kind":"urban_area","source":"openstreetmap.org","min_zoom":8.0,"kind_detail":"trunk","shield_text":"8","ref":"S8"},"arcs":[[799],[800]]},{"type":"MultiLineString","properties":{"kind":"major_road","network":"pl:national","sort_rank":380,"kind_detail":"primary","source":"openstreetmap.org","min_zoom":8.0,"shield_text":"61","ref":"61"},"arcs":[[801],[802],[803],[804],[805],[806],[807],[808],[809],[810]]},{"type":"LineString","properties":{"kind":"path","network":"pl:regional","sort_rank":354,"kind_detail":"path","is_bicycle_related":true,"bicycle_shield_text":"R2","bicycle_network":"ncn","source":"openstreetmap.org","min_zoom":8.0,"all_networks":["pl:regional"],"shield_text":"639","id":174857506,"all_shield_texts":["639"]},"arcs":[811]},{"type":"MultiLineString","properties":{"bus_network":null,"network":"pl:national","sort_rank":381,"kind_detail":"trunk","kind":"major_road","source":"openstreetmap.org","min_zoom":8.0,"bus_shield_text":"247","shield_text":"7","ref":"S7"},"arcs":[[812],[813],[814],[815],[816],[817],[818],[819],[820],[821],[822],[823]]},{"type":"MultiLineString","properties":{"kind":"major_road","network":"pl:national","sort_rank":380,"kind_detail":"primary","is_bicycle_related":true,"bicycle_shield_text":"SIB","bicycle_network":"rcn","source":"openstreetmap.org","min_zoom":8.0,"shield_text":"70","ref":"70"},"arcs":[[824],[825]]},{"type":"MultiLineString","properties":{"bus_network":"ZTM Warszawa","network":"pl:national","sort_rank":380,"kind_detail":"primary","kind":"major_road","source":"openstreetmap.org","min_zoom":8.0,"bus_shield_text":"N83","shield_text":"79","landuse_kind":"urban_area","ref":"79"},"arcs":[[826],[827],[828],[829]]},{"type":"LineString","properties":{"kind":"major_road","network":"pl:national","sort_rank":380,"kind_detail":"primary","source":"openstreetmap.org","min_zoom":8.0,"shield_text":"85","ref":"62","id":362554486},"arcs":[830]},{"type":"MultiLineString","properties":{"bus_network":"ZTM Warszawa","network":"pl:national","sort_rank":380,"kind_detail":"primary","kind":"major_road","source":"openstreetmap.org","min_zoom":8.0,"bus_shield_text":"721","shield_text":"7","ref":"7"},"arcs":[[831],[832]]},{"type":"MultiLineString","properties":{"bus_network":"ZTM Warszawa","network":"e-road","sort_rank":380,"kind_detail":"primary","kind":"major_road","source":"openstreetmap.org","min_zoom":8.0,"bus_shield_text":"703","shield_text":"67"},"arcs":[[833],[834]]},{"type":"MultiLineString","properties":{"bus_network":null,"network":"pl:national","sort_rank":380,"kind_detail":"primary","kind":"major_road","source":"openstreetmap.org","min_zoom":8.0,"bus_shield_text":"247","shield_text":"7","landuse_kind":"residential","ref":"7"},"arcs":[[835],[836]]},{"type":"MultiLineString","properties":{"bus_network":"ZTM Warszawa","network":"pl:national","sort_rank":380,"kind_detail":"primary","kind":"major_road","source":"openstreetmap.org","min_zoom":8.0,"bus_shield_text":"N63","shield_text":"61","landuse_kind":"urban_area"},"arcs":[[837],[838],[839]]},{"type":"MultiLineString","properties":{"bus_network":"ZTM Warszawa","network":"pl:national","sort_rank":380,"kind_detail":"primary","kind":"major_road","source":"openstreetmap.org","min_zoom":8.0,"bus_shield_text":"126","shield_text":"61","landuse_kind":"urban_area","ref":"61"},"arcs":[[840],[841]]},{"type":"LineString","properties":{"bus_network":"KM\u0141 Sp. z o.o.","network":"pl:national","sort_rank":380,"kind_detail":"primary","kind":"major_road","source":"openstreetmap.org","min_zoom":8.0,"bus_shield_text":"\u01411","shield_text":"61","landuse_kind":"urban_area","ref":"61"},"arcs":[842]},{"type":"MultiLineString","properties":{"bus_network":"ZTM Warszawa","network":"pl:national","sort_rank":380,"kind_detail":"primary","kind":"major_road","source":"openstreetmap.org","min_zoom":8.0,"bus_shield_text":"N03","shield_text":"2","landuse_kind":"urban_area","ref":"2"},"arcs":[[843],[844],[845],[846],[847],[848]]},{"type":"LineString","properties":{"kind":"major_road","network":"pl:national","sort_rank":380,"kind_detail":"primary","is_bicycle_related":true,"bicycle_shield_text":"SNK","bicycle_network":"lcn","source":"openstreetmap.org","min_zoom":8.0,"shield_text":"70","ref":"70","id":96929076},"arcs":[849]},{"type":"MultiLineString","properties":{"kind":"major_road","network":"pl:national","sort_rank":380,"kind_detail":"primary","source":"openstreetmap.org","min_zoom":8.0,"shield_text":"7","ref":"7"},"arcs":[[850],[851],[852],[853],[854],[855],[856],[857]]},{"type":"MultiLineString","properties":{"kind":"major_road","network":"historical","sort_rank":380,"kind_detail":"primary","source":"openstreetmap.org","min_zoom":8.0,"shield_text":null,"ref":"8"},"arcs":[[858],[859],[860],[861],[862],[863],[864],[865]]},{"type":"MultiLineString","properties":{"kind":"major_road","network":"pl:national","sort_rank":381,"kind_detail":"trunk","source":"openstreetmap.org","min_zoom":8.0,"shield_text":"7","ref":"S7"},"arcs":[[866],[867],[868],[869],[870],[871],[872],[873],[874],[875],[876],[877],[878],[879],[880]]},{"type":"MultiLineString","properties":{"bus_network":"ZTM Warszawa","network":"pl:national","sort_rank":381,"landuse_kind":"urban_area","kind":"major_road","source":"openstreetmap.org","min_zoom":8.0,"bus_shield_text":"E-9","shield_text":"7","kind_detail":"trunk","ref":"S7;S8"},"arcs":[[881],[882]]},{"type":"MultiLineString","properties":{"bus_network":"KM\u0141 Sp. z o.o.","network":"pl:national","sort_rank":380,"kind_detail":"primary","kind":"major_road","source":"openstreetmap.org","min_zoom":8.0,"bus_shield_text":"\u01411","shield_text":"7","ref":"7"},"arcs":[[883],[884],[885],[886]]},{"type":"LineString","properties":{"kind":"major_road","network":"pl:national","sort_rank":380,"kind_detail":"primary","bus_network":null,"source":"openstreetmap.org","min_zoom":8.0,"bus_shield_text":"M1 Brzeziny","shield_text":"72","ref":"72","id":175771518},"arcs":[887]},{"type":"MultiLineString","properties":{"bus_network":"ZTM Warszawa","network":"pl:national","sort_rank":380,"kind_detail":"primary","kind":"major_road","source":"openstreetmap.org","min_zoom":8.0,"bus_shield_text":"N01","shield_text":"61","landuse_kind":"urban_area","ref":"61"},"arcs":[[888],[889],[890]]},{"type":"MultiLineString","properties":{"bus_network":"ZTM Warszawa","network":"historical","sort_rank":380,"kind_detail":"primary","kind":"major_road","source":"openstreetmap.org","min_zoom":8.0,"bus_shield_text":"703","shield_text":null,"ref":"8"},"arcs":[[891],[892],[893],[894]]},{"type":"LineString","properties":{"kind":"major_road","sort_rank":380,"kind_detail":"primary","bus_network":"ZTM Warszawa","source":"openstreetmap.org","min_zoom":8.0,"bus_shield_text":"703","ref":"8","id":542911799},"arcs":[895]},{"type":"MultiLineString","properties":{"bus_network":"ZTM Warszawa","network":"pl:national","sort_rank":380,"kind_detail":"primary","kind":"major_road","source":"openstreetmap.org","min_zoom":8.0,"bus_shield_text":"189","shield_text":"79","landuse_kind":"urban_area","ref":"79"},"arcs":[[896],[897],[898],[899]]},{"type":"MultiLineString","properties":{"kind":"major_road","network":"e-road","short_name":"POW","sort_rank":381,"landuse_kind":"urban_area","source":"openstreetmap.org","min_zoom":8.0,"kind_detail":"trunk","shield_text":"67","ref":"S7;S8"},"arcs":[[900],[901]]},{"type":"LineString","properties":{"kind":"major_road","network":"pl:national","sort_rank":380,"kind_detail":"primary","bus_shield_text":"N83","bus_network":"ZTM Warszawa","source":"openstreetmap.org","min_zoom":8.0,"old_name":"Nowoaleksandryjska","shield_text":"79","landuse_kind":"urban_area","ref":"79","id":165982324},"arcs":[902]},{"type":"LineString","properties":{"bus_network":"ZTM Warszawa","network":"pl:national","sort_rank":380,"kind_detail":"primary","kind":"major_road","source":"openstreetmap.org","min_zoom":8.0,"bus_shield_text":"L25","shield_text":"79","landuse_kind":"nature_reserve","ref":"79"},"arcs":[903]},{"type":"MultiLineString","properties":{"bus_network":"ZTM Warszawa","network":"pl:national","sort_rank":380,"kind_detail":"primary","kind":"major_road","source":"openstreetmap.org","min_zoom":8.0,"bus_shield_text":"N43","shield_text":"7","landuse_kind":"urban_area","ref":"7"},"arcs":[[904],[905],[906],[907]]},{"type":"MultiLineString","properties":{"bus_network":"ZTM Warszawa","network":"pl:national","sort_rank":380,"kind_detail":"primary","kind":"major_road","source":"openstreetmap.org","min_zoom":8.0,"bus_shield_text":"731","shield_text":"61","landuse_kind":"urban_area","ref":"61"},"arcs":[[908],[909]]},{"type":"LineString","properties":{"kind":"major_road","network":"pl:regional","sort_rank":379,"kind_detail":"secondary","is_bicycle_related":true,"bus_network":"komunikacja miejska w P\u0142ocku","bicycle_shield_text":"R2","bicycle_network":"ncn","source":"openstreetmap.org","min_zoom":8.0,"bus_shield_text":"140","shield_text":"574","ref":"574"},"arcs":[910]},{"type":"LineString","properties":{"bus_network":"ZTM Warszawa","network":"e-road","sort_rank":380,"kind_detail":"primary","kind":"major_road","source":"openstreetmap.org","min_zoom":8.0,"bus_shield_text":"N61","shield_text":"67","landuse_kind":"urban_area","ref":"8"},"arcs":[911]},{"type":"MultiLineString","properties":{"source":"openstreetmap.org","kind":"major_road","landuse_kind":"urban_area","sort_rank":380,"kind_detail":"primary","min_zoom":8.0},"arcs":[[912],[913],[914],[915],[916]]},{"type":"MultiLineString","properties":{"kind":"major_road","network":"historical","sort_rank":381,"kind_detail":"trunk","source":"openstreetmap.org","min_zoom":8.0,"shield_text":null,"ref":"S8"},"arcs":[[917],[918],[919],[920],[921],[922],[923],[924],[925],[926]]},{"type":"MultiLineString","properties":{"kind":"minor_road","sort_rank":360,"kind_detail":"residential","is_bicycle_related":true,"bicycle_shield_text":"R11","bicycle_network":"icn","source":"openstreetmap.org","min_zoom":8.0},"arcs":[[927],[928],[929],[930],[931],[932]]},{"type":"LineString","properties":{"kind":"major_road","network":"pl:national","sort_rank":380,"kind_detail":"primary","bus_network":"\u0141\u00f3d\u017a","source":"openstreetmap.org","min_zoom":8.0,"bus_shield_text":"90C","shield_text":"72","ref":"72","id":409229584},"arcs":[933]},{"type":"LineString","properties":{"kind":"major_road","network":"pl:regional","sort_rank":380,"kind_detail":"primary","source":"openstreetmap.org","min_zoom":8.0,"shield_text":"631","ref":"61","id":303249093},"arcs":[934]},{"type":"LineString","properties":{"kind":"major_road","network":"pl:regional","sort_rank":379,"kind_detail":"secondary","is_bicycle_related":true,"bicycle_shield_text":"R2","bicycle_network":"ncn","source":"openstreetmap.org","min_zoom":8.0,"shield_text":"577","ref":"577"},"arcs":[935]},{"type":"LineString","properties":{"bus_network":"ZTM Warszawa","network":"pl:regional","sort_rank":380,"kind_detail":"primary","kind":"major_road","source":"openstreetmap.org","min_zoom":8.0,"bus_shield_text":"717","shield_text":"719","landuse_kind":"urban_area","ref":"79;719"},"arcs":[936]},{"type":"MultiLineString","properties":{"bus_network":"ZTM Warszawa","sort_rank":380,"kind_detail":"primary","kind":"major_road","source":"openstreetmap.org","min_zoom":8.0,"bus_shield_text":"N02","landuse_kind":"urban_area"},"arcs":[[937],[938]]},{"type":"MultiLineString","properties":{"bus_network":"ZTM Warszawa","network":"pl:national","sort_rank":380,"kind_detail":"primary","kind":"major_road","source":"openstreetmap.org","min_zoom":8.0,"bus_shield_text":"N01","shield_text":"7","landuse_kind":"urban_area","ref":"7"},"arcs":[[939],[940],[941]]},{"type":"MultiLineString","properties":{"kind":"major_road","network":"pl:national","sort_rank":381,"landuse_kind":"urban_area","source":"openstreetmap.org","min_zoom":8.0,"kind_detail":"trunk","shield_text":"2","ref":"S2;S79"},"arcs":[[942],[943]]},{"type":"MultiLineString","properties":{"kind":"major_road","network":"pl:national","sort_rank":380,"kind_detail":"primary","source":"openstreetmap.org","min_zoom":8.0,"landuse_kind":"nature_reserve","shield_text":"72","ref":"72"},"arcs":[[944],[945]]},{"type":"LineString","properties":{"kind":"major_road","network":"pl:national","sort_rank":380,"kind_detail":"primary","bus_shield_text":"N34","bus_network":"ZTM Warszawa","source":"openstreetmap.org","min_zoom":8.0,"old_name":"Wincentego Rzymowskiego","shield_text":"2","landuse_kind":"urban_area","ref":"2","id":4896071},"arcs":[946]},{"type":"MultiLineString","properties":{"source":"openstreetmap.org","kind":"major_road","sort_rank":380,"kind_detail":"primary","ref":"70","min_zoom":8.0},"arcs":[[947],[948]]},{"type":"LineString","properties":{"kind":"major_road","network":"pl:national","sort_rank":381,"kind_detail":"trunk","bus_network":null,"source":"openstreetmap.org","min_zoom":8.0,"bus_shield_text":"247","shield_text":"7","landuse_kind":"urban_area","ref":"S7;S8","id":122227348},"arcs":[949]},{"type":"LineString","properties":{"kind":"major_road","network":"pl:national","sort_rank":380,"kind_detail":"primary","bus_network":"ZTM Warszawa","source":"openstreetmap.org","min_zoom":8.0,"bus_shield_text":"186","shield_text":"7","landuse_kind":"urban_area","id":450667686},"arcs":[950]},{"type":"LineString","properties":{"bus_network":"komunikacja miejska w P\u0142ocku","network":"pl:regional","sort_rank":379,"kind_detail":"secondary","is_bicycle_related":true,"kind":"major_road","bicycle_shield_text":"R2","bicycle_network":"ncn","source":"openstreetmap.org","min_zoom":8.0,"bus_shield_text":"140","shield_text":"575","id":280498862},"arcs":[951]},{"type":"LineString","properties":{"kind":"major_road","network":"pl:national","sort_rank":380,"kind_detail":"primary","source":"openstreetmap.org","min_zoom":8.0,"shield_text":"14","id":30016418},"arcs":[952]},{"type":"MultiLineString","properties":{"bus_network":"ZTM Warszawa","network":"pl:national","sort_rank":381,"landuse_kind":"urban_area","kind":"major_road","source":"openstreetmap.org","min_zoom":8.0,"bus_shield_text":"733","shield_text":"7","kind_detail":"trunk","ref":"S7;S8"},"arcs":[[953],[954]]},{"type":"LineString","properties":{"bus_network":"ZTM Warszawa","network":"pl:national","sort_rank":380,"kind_detail":"primary","kind":"major_road","source":"openstreetmap.org","min_zoom":8.0,"bus_shield_text":"N50","shield_text":"2","landuse_kind":"urban_area","ref":"2"},"arcs":[955]},{"type":"LineString","properties":{"kind":"major_road","network":"e-road","sort_rank":380,"kind_detail":"primary","source":"openstreetmap.org","min_zoom":8.0,"landuse_kind":"urban_area","shield_text":"67","ref":"S8"},"arcs":[956]},{"type":"MultiLineString","properties":{"source":"openstreetmap.org","kind":"major_road","network":"pl:national","sort_rank":380,"kind_detail":"primary","min_zoom":8.0,"shield_text":"70"},"arcs":[[957],[958]]},{"type":"MultiLineString","properties":{"kind":"major_road","network":"pl:national","sort_rank":380,"kind_detail":"primary","source":"openstreetmap.org","min_zoom":8.0,"shield_text":"50","ref":"50;92"},"arcs":[[959],[960]]},{"type":"MultiLineString","properties":{"kind":"major_road","network":"pl:regional","sort_rank":379,"kind_detail":"secondary","is_bicycle_related":true,"bicycle_shield_text":"R2","bicycle_network":"ncn","source":"openstreetmap.org","min_zoom":8.0,"shield_text":"575","ref":"575"},"arcs":[[961],[962]]},{"type":"MultiLineString","properties":{"bus_network":"ZTM Warszawa","network":"e-road","sort_rank":381,"landuse_kind":"urban_area","kind":"major_road","source":"openstreetmap.org","min_zoom":8.0,"bus_shield_text":"733","shield_text":"67","kind_detail":"trunk","ref":"S8"},"arcs":[[963],[964]]},{"type":"LineString","properties":{"kind":"major_road","network":"historical","sort_rank":380,"kind_detail":"primary","source":"openstreetmap.org","min_zoom":8.0,"landuse_kind":"urban_area","shield_text":null,"id":385493923},"arcs":[965]},{"type":"LineString","properties":{"bus_network":"ZTM Warszawa","sort_rank":377,"kind_detail":"tertiary","is_bicycle_related":true,"kind":"major_road","bicycle_shield_text":"R11","bicycle_network":"icn","source":"openstreetmap.org","min_zoom":8.0,"bus_shield_text":"N14","ref":"5584W"},"arcs":[966]},{"type":"LineString","properties":{"kind":"major_road","network":"pl:expressways","sort_rank":381,"kind_detail":"trunk","source":"openstreetmap.org","min_zoom":8.0,"landuse_kind":"urban_area","shield_text":"8","id":122430771},"arcs":[967]},{"type":"MultiLineString","properties":{"kind":"major_road","network":"e-road","sort_rank":381,"landuse_kind":"urban_area","source":"openstreetmap.org","min_zoom":8.0,"kind_detail":"trunk","shield_text":"67","ref":"S8"},"arcs":[[968],[969]]},{"type":"LineString","properties":{"kind":"major_road","sort_rank":377,"kind_detail":"tertiary","is_bicycle_related":true,"bicycle_shield_text":"R2","bicycle_network":"ncn","source":"openstreetmap.org","min_zoom":8.0},"arcs":[970]},{"type":"LineString","properties":{"source":"openstreetmap.org","kind":"major_road","sort_rank":380,"kind_detail":"primary","ref":"8","min_zoom":8.0,"id":542911800},"arcs":[971]},{"type":"MultiLineString","properties":{"kind":"major_road","network":"pl:national","sort_rank":380,"kind_detail":"primary","source":"openstreetmap.org","min_zoom":8.0,"shield_text":"72","ref":"72"},"arcs":[[972],[973],[974],[975],[976],[977],[978],[979],[980],[981],[982],[983],[984],[985],[986],[987],[988],[989],[990]]},{"type":"MultiLineString","properties":{"kind":"major_road","network":"pl:national","sort_rank":380,"kind_detail":"primary","source":"openstreetmap.org","min_zoom":8.0,"shield_text":"14","ref":"14"},"arcs":[[991],[992],[993],[994],[995],[996],[997],[998],[999],[1000],[1001],[1002],[1003],[1004],[1005],[1006],[1007],[1008]]},{"type":"LineString","properties":{"kind":"path","sort_rank":354,"kind_detail":"footway","is_bicycle_related":true,"bicycle_shield_text":"R11","bicycle_network":"icn","source":"openstreetmap.org","min_zoom":8.0,"id":209232076},"arcs":[1009]},{"type":"MultiLineString","properties":{"bus_network":"ZTM Warszawa","network":"pl:national","sort_rank":380,"kind_detail":"primary","kind":"major_road","source":"openstreetmap.org","min_zoom":8.0,"bus_shield_text":"N52","shield_text":"92","landuse_kind":"urban_area","ref":"92"},"arcs":[[1010],[1011],[1012],[1013]]},{"type":"MultiLineString","properties":{"bus_network":"ZTM Warszawa","network":"pl:national","sort_rank":380,"kind_detail":"primary","kind":"major_road","source":"openstreetmap.org","min_zoom":8.0,"bus_shield_text":"L-3","shield_text":"7","ref":"7"},"arcs":[[1014],[1015]]},{"type":"LineString","properties":{"bus_network":"ZTM Warszawa","network":"pl:national","sort_rank":380,"kind_detail":"primary","kind":"major_road","source":"openstreetmap.org","min_zoom":8.0,"bus_shield_text":"L-9","shield_text":"61","landuse_kind":"urban_area","ref":"61;632"},"arcs":[1016]}]},"earth":{"type":"GeometryCollection","geometries":[{"type":"Polygon","properties":{"sort_rank":10,"source":"naturalearthdata.com","kind":"earth","min_zoom":0.0,"id":4754},"arcs":[[1017]]}]},"landuse":{"type":"GeometryCollection","geometries":[{"type":"Polygon","properties":{"kind":"national_park","protect_class":"2","area":1002979968,"sort_rank":18,"source":"openstreetmap.org","min_zoom":3.0,"tier":1,"id":-1561264,"osm_relation":true},"arcs":[[1018]]},{"type":"MultiPolygon","properties":{"source":"openstreetmap.org","kind":"nature_reserve","tier":2,"protect_class":"1","area":59970182,"sort_rank":23,"min_zoom":8.0},"arcs":[[[1019]],[[1020]]]},{"type":"MultiPolygon","properties":{"source":"openstreetmap.org","kind":"aerodrome","tier":3,"area":69423980,"sort_rank":60,"min_zoom":8.0},"arcs":[[[1021]],[[1022]],[[1023]]]},{"type":"MultiPolygon","properties":{"source":"openstreetmap.org","kind":"military","tier":3,"area":63961372,"sort_rank":45,"min_zoom":8.0},"arcs":[[[1024]],[[1025]]]},{"type":"MultiPolygon","properties":{"source":"naturalearthdata.com","kind":"urban_area","name":"","area":3726096295,"sort_rank":11,"min_zoom":4.0},"arcs":[[[1026]],[[1027]],[[1028]],[[1029]],[[1030]],[[1031],[1032]]]},{"type":"MultiPolygon","properties":{"kind":"nature_reserve","protect_class":"5","area":385567977,"sort_rank":23,"source":"openstreetmap.org","min_zoom":8.0,"tier":2,"osm_relation":true},"arcs":[[[1033],[1034],[1035]],[[1036]]]},{"type":"MultiPolygon","properties":{"source":"openstreetmap.org","kind":"residential","tier":2,"area":125805868,"sort_rank":20,"min_zoom":8.0,"osm_relation":true},"arcs":[[[1037],[1038],[1039],[1040],[1041],[1042],[1043],[1044],[1045],[1046],[1047],[1048],[1049],[1050],[1051],[1052],[1053],[1054],[1055]],[[1056]],[[1057],[1058],[1059]],[[1060],[1061],[1062]]]},{"type":"MultiPolygon","properties":{"source":"openstreetmap.org","kind":"nature_reserve","tier":2,"protect_class":"4","area":212952421,"sort_rank":23,"min_zoom":8.0},"arcs":[[[1063]],[[1064]],[[1065]],[[1066]],[[1067]]]},{"type":"MultiPolygon","properties":{"source":"openstreetmap.org","kind":"residential","tier":2,"area":167349349,"sort_rank":20,"min_zoom":8.0},"arcs":[[[1068]],[[1069]],[[1070]],[[1071]],[[1072]],[[1073]],[[1074]],[[1075]]]},{"type":"MultiPolygon","properties":{"kind":"nature_reserve","protect_class":"4","area":60185913,"sort_rank":23,"source":"openstreetmap.org","min_zoom":8.0,"tier":2,"osm_relation":true},"arcs":[[[1076],[1077],[1078],[1079],[1080],[1081],[1082]]]},{"type":"MultiPolygon","properties":{"kind":"nature_reserve","protect_class":"5","area":4782156863,"sort_rank":23,"source":"openstreetmap.org","min_zoom":6.0,"tier":2,"osm_relation":true},"arcs":[[[1083]],[[1084],[1085]]]}]}},"type":"Topology","transform":{"translate":[19.6875,51.6180165488],"scale":[0.0003433228,0.0002111239]},"arcs":[[[0,3047],[0,-11]],[[2142,0],[-12,58],[-98,54],[30,25],[-15,61],[29,61],[109,38],[12,51],[26,-26],[9,35],[38,18],[61,-64],[78,9],[24,-94],[36,14],[179,-55],[73,4],[6,53],[86,38],[15,222],[-57,64],[-164,50],[4,65],[30,30],[-20,4],[1,6],[22,-5],[-47,112],[8,86],[-62,6],[-9,26],[25,17],[121,-25],[34,20],[-1,35],[-56,-1],[-10,59],[27,46],[-44,-1],[-14,95],[-56,32],[12,56],[-176,30],[-34,-23],[-26,21],[-29,29],[33,49],[-45,97],[-54,11],[-50,49],[-21,-29],[-36,49],[10,-32],[-29,-51],[-48,1],[-45,57],[-32,-20],[2,-21],[36,15],[-32,-62],[-37,22],[-18,-42],[-87,11],[-16,-46],[-67,0],[47,30],[-5,77],[-53,23],[-75,-42],[-65,12],[-9,83],[156,77],[-65,19],[2,52],[-51,63],[22,23],[-36,27],[-20,-34],[-29,14],[-102,113],[159,140],[-28,85],[78,19],[-4,111],[-49,79],[-144,-12],[-109,113],[-13,60],[-129,-36],[-74,42],[-10,74],[-74,94],[54,213],[-125,65],[13,52],[-224,50],[-15,81],[-61,18],[-9,50],[-62,-5],[-69,60],[-86,-97],[47,-15],[-85,-73],[-56,11],[-39,44],[-76,-20],[9,-29],[-80,-54],[-85,-18],[-21,46],[-87,50],[-34,-63]],[[3786,2615],[-6,102],[-112,45],[-4,3],[-2,2],[-16,26]],[[3709,2845],[-67,-45],[25,-37],[113,-46],[6,-102]],[[3786,2615],[25,-383],[94,-168],[147,-415],[44,-206]],[[3984,3006],[-88,-94],[-359,-145],[-75,39],[-88,-20],[-251,10],[-263,-44],[-110,-57],[-201,-5],[-915,155],[-66,-44],[-57,-124],[-241,-277],[-306,-151],[-101,-14],[-119,134],[-144,96],[-339,108],[-261,160]],[[3715,2851],[16,5],[-17,-5],[1,0]],[[3838,2896],[-13,-5],[12,4],[1,1]],[[3966,2997],[16,8],[-16,-8]],[[3771,2898],[172,65],[-18,52]],[[3237,2606],[412,218],[246,87],[61,79],[93,37],[47,-18]],[[3900,2914],[8,5]],[[3243,2609],[-9,-5],[9,5]],[[3369,2677],[-8,-5],[3,2],[5,3]],[[3440,2714],[8,4],[-7,-4],[-1,0]],[[3485,2737],[0,1],[9,4],[-9,-5]],[[3570,2783],[8,4],[-8,-3],[0,-1]],[[3727,2852],[-8,-3],[8,3]],[[3792,2877],[-1,0],[10,4],[0,-1],[-9,-3]],[[3849,2898],[1,0],[-10,-3],[2,0],[7,3]],[[3950,2973],[1,0],[0,-9],[-1,0],[0,9]],[[3985,3004],[0,-1],[-9,-4],[9,5]],[[3616,3188],[167,-106],[21,-37],[65,-182],[-25,-60],[59,-149],[1,-81],[108,-138]],[[3969,2996],[63,30],[2,1],[5,0],[7,0],[3,0],[4,-2],[43,-16]],[[3973,2997],[77,29],[46,-26]],[[3985,3005],[69,29],[26,-1],[16,1]],[[4096,3035],[-40,0],[-40,-10],[-16,-9]],[[3892,3114],[4,-46],[-188,-68],[-4,-11],[-2,-43],[-2,-33],[0,-21],[10,-31]],[[3750,3837],[-111,-105],[66,-90],[177,-502]],[[3650,3715],[8,-10],[-6,8],[-2,2]],[[3653,3760],[4,4],[2,3],[-6,-7]],[[3700,2893],[0,9],[0,-9]],[[3702,2946],[-1,-8],[1,8]],[[3710,2856],[0,1],[1,2],[-1,5],[0,-2],[0,-3],[0,-3]],[[3711,3808],[0,1],[7,5],[-7,-6]],[[3743,3499],[-2,8],[0,1],[3,-9],[-1,0]],[[3753,3840],[-2,-1],[-5,-4],[7,5]],[[3780,3395],[3,-8],[-3,8]],[[3806,3036],[-1,-1],[-12,1],[13,0]],[[3818,3302],[4,-9],[-4,9]],[[3864,3195],[-1,3],[-3,9],[-1,0],[5,-12]],[[3879,3059],[-8,-3],[4,1],[4,2]],[[3890,3118],[-2,6],[-2,5],[2,-5],[2,-6]],[[3753,2612],[-5,1]],[[3750,3837],[-110,-106],[65,-89],[198,-553],[109,-56],[-103,-114],[-268,-105],[24,-50],[117,-50],[3,-96],[-37,-5]],[[3762,2727],[8,-3]],[[3648,2789],[6,-10],[-2,2],[-4,8]],[[3650,3715],[8,-10],[-6,8],[-2,2]],[[3653,3760],[4,4],[2,3],[-6,-7]],[[3711,3808],[0,1],[7,5],[-7,-6]],[[3715,2851],[16,5],[-17,-5],[1,0]],[[3720,2743],[8,-3],[0,-1],[-8,4]],[[3743,3499],[-2,8],[0,1],[3,-9],[-1,0]],[[3753,3840],[-2,-1],[-5,-4],[7,5]],[[3780,3395],[3,-8],[-3,8]],[[3785,2660],[0,11],[1,-11],[-1,0]],[[3818,3302],[4,-9],[-4,9]],[[3838,2896],[-13,-5],[12,4],[1,1]],[[3864,3195],[-1,3],[-3,9],[-1,0],[5,-12]],[[3890,3118],[-2,6],[-2,5],[2,-5],[2,-6]],[[3966,2997],[2,2],[13,6],[-15,-8]],[[0,2733],[259,-159],[341,-109],[143,-95],[33,-58]],[[828,2252],[33,-17],[101,13],[309,151],[240,278],[57,123],[66,45],[915,-155],[199,5],[112,57],[263,44],[251,-10],[88,20],[82,-41],[352,147],[61,79],[98,43],[41,-2]],[[3753,2612],[-5,1]],[[3748,2613],[37,5],[-3,95],[-116,51],[-18,53],[247,94],[60,78],[92,43],[49,-3]],[[3901,2914],[5,3],[3,1]],[[3649,2789],[6,-9],[-7,9],[1,0]],[[3719,2849],[8,2],[1,0],[-9,-3],[0,1]],[[3729,2740],[-8,3],[8,-3]],[[3762,2727],[8,-3],[-8,3]],[[3785,2660],[0,11],[1,-11],[-1,0]],[[3792,2877],[-1,0],[10,4],[0,-1],[-9,-3]],[[3850,2897],[-9,-4],[0,1],[9,3]],[[3952,2964],[-1,0],[0,9],[1,0],[0,-9]],[[3976,2998],[9,5],[0,-1],[-5,-2],[-4,-2]],[[3924,3015],[19,-51],[-173,-65]],[[3753,2612],[-5,1]],[[3748,2613],[37,5],[-3,96],[-117,50],[-22,47],[16,15],[135,52],[7,3],[11,3],[38,14],[12,1],[31,11],[12,7],[3,1],[5,4],[35,33],[3,28],[3,6],[75,37],[67,-2]],[[3762,2727],[8,-3]],[[3900,2914],[8,5]],[[3648,2789],[6,-10],[-2,2],[-4,8]],[[3720,2743],[8,-3],[0,-1],[-8,4]],[[3727,2852],[-8,-3],[8,3]],[[3785,2660],[0,11],[1,-11],[-1,0]],[[3792,2877],[-1,0],[10,4],[0,-1],[-9,-3]],[[3849,2898],[1,0],[-10,-3],[2,0],[7,3]],[[3950,2973],[1,0],[0,-9],[-1,0],[0,9]],[[3985,3004],[0,-1],[-9,-4],[9,5]],[[2896,2389],[21,4],[58,-14],[160,32],[135,86],[43,120],[113,2],[179,74],[55,72],[-8,56],[37,5],[17,18],[7,2],[8,2],[4,1],[46,20],[53,19]],[[2897,2389],[2,-1]],[[2940,2387],[2,-1]],[[2978,2380],[3,1]],[[3024,2389],[-3,-1]],[[3060,2395],[2,1]],[[3130,2408],[-3,-1]],[[3165,2433],[-2,-2]],[[3229,2475],[-2,-1]],[[3288,2573],[2,3]],[[3309,2612],[-1,-3]],[[3358,2613],[2,-1]],[[3411,2616],[2,0]],[[3477,2640],[-3,-1]],[[3545,2668],[-3,-1]],[[3634,2727],[2,2]],[[3824,2888],[-7,-3]],[[3274,2512],[0,-2],[0,2]],[[3604,2693],[-1,0],[-3,-2],[4,2]],[[3654,2783],[1,-2],[1,0],[-2,2]],[[3668,2825],[3,0],[0,-1],[-3,0],[0,1]],[[3720,2848],[5,2],[0,-1],[-4,-1],[-1,0]],[[3791,2876],[2,1],[-2,-1]],[[2739,2285],[44,20],[54,-18],[99,40],[45,53],[154,31],[135,86],[43,120],[113,2],[179,74],[55,72],[-8,56],[37,5],[17,18],[81,31],[15,5],[22,8]],[[2742,2287],[-3,-1]],[[2765,2298],[-3,-1]],[[2807,2296],[3,-2]],[[2832,2286],[3,1]],[[2885,2306],[-2,-1]],[[2943,2335],[2,2]],[[2986,2382],[-2,-1]],[[3021,2389],[2,0]],[[3060,2396],[2,0]],[[3127,2408],[2,0]],[[3166,2433],[2,2]],[[3229,2476],[-3,-2]],[[3289,2576],[-1,-2]],[[3307,2607],[1,2]],[[3361,2612],[2,-1]],[[3414,2617],[-3,-1]],[[3480,2642],[-2,-2]],[[3545,2669],[3,1]],[[3638,2734],[-1,-3]],[[3824,2888],[-7,-3]],[[3273,2512],[0,-2],[0,2]],[[3604,2693],[-2,-1],[2,2],[0,-1]],[[3654,2783],[1,-2],[1,0],[-2,2]],[[3672,2825],[2,0],[-3,0],[1,0]],[[3720,2848],[5,2],[0,-1],[-4,-1],[-1,0]],[[3791,2876],[2,1],[-2,-1]],[[772,2318],[2,-3]],[[774,2315],[136,-160],[130,-297],[15,-24],[218,-188],[61,1]],[[1334,1647],[3,2]],[[1334,1647],[-61,-1],[-218,189],[-15,23],[-54,125],[-71,163],[-5,9],[-4,7],[-6,9],[-126,144]],[[3063,4044],[19,52]],[[3061,4043],[-9,-5],[-2,-2],[-3,-3],[-2,-3],[-38,-57],[-11,-18],[-8,-16],[-3,-4],[-18,-20],[-21,-16],[-4,-6],[-7,-21],[-1,-6],[1,-5],[1,-5],[1,-3],[3,-4],[2,-2],[4,-4],[4,-3],[4,-3],[6,-2],[31,-8],[5,-1],[82,-9],[6,-1],[5,1],[10,0],[156,13],[16,0],[367,-101],[67,-87],[2,-6],[14,-72],[2,-6],[64,-181],[23,-59],[6,-13],[29,-60],[43,-121],[7,-19],[8,-16],[2,-2],[2,-3],[2,-1],[3,-2],[90,-32],[9,-10],[-53,-47]],[[3959,2993],[52,46],[-9,10],[-99,41],[-197,550],[-3,6],[-4,6],[-55,70],[-7,8],[-5,5],[-355,94],[-6,1],[-7,0],[-9,0],[-174,-13],[-141,32],[3,46],[24,20],[18,20],[3,4],[19,34],[40,60],[25,15],[4,4],[4,4],[3,5],[1,2],[1,4],[1,5],[-1,6],[-3,18]],[[763,2253],[29,21],[-10,30]],[[3710,2861],[-10,31],[0,21],[1,6],[3,71],[6,12],[60,34],[8,1],[47,-1],[9,2],[70,45],[-200,561],[-72,90],[-58,23],[-104,25],[-149,36],[-50,12],[-187,-14],[-134,24],[-8,53],[105,140],[33,23],[2,40]],[[2960,3909],[0,1],[7,5],[-2,-2],[-5,-4]],[[3017,3824],[8,-1],[-8,0],[0,1]],[[3078,4054],[-3,-3],[-3,-3],[6,6]],[[3168,3823],[9,0],[-9,0]],[[3478,3780],[8,-2],[-8,2]],[[3572,3757],[-8,2],[8,-2]],[[3645,3721],[8,-11],[-9,11],[1,0]],[[3700,2893],[0,9],[0,-9]],[[3702,2946],[-1,-8],[1,8]],[[3710,2856],[0,1],[1,2],[-1,5],[0,-2],[0,-3],[0,-3]],[[3743,3499],[-2,8],[0,1],[3,-9],[-1,0]],[[3780,3395],[3,-8],[-3,8]],[[3790,3037],[2,0],[16,-1],[-18,1]],[[3818,3302],[4,-9],[-4,9]],[[3864,3195],[-1,3],[-3,9],[-1,0],[5,-12]],[[3879,3059],[-8,-3],[4,1],[4,2]],[[3890,3118],[-2,6],[-2,5],[2,-5],[2,-6]],[[0,530],[212,-12],[143,37],[10,5],[7,9],[27,73]],[[402,648],[-46,-93],[-144,-37],[-15,2],[-27,10],[-5,1],[-7,1],[-158,-2]],[[4013,2435],[-109,138],[-1,81],[-58,149],[24,60],[-68,189],[-185,137]],[[3711,2850],[-20,-7],[-15,-9],[-17,-5],[-20,-24],[27,-42],[117,-53],[4,-146],[24,-332],[94,-168],[148,-419],[43,-203]],[[4096,1444],[-37,176],[-5,22],[-2,7],[-147,415],[-17,38],[-77,130],[-24,333],[-1,89],[-2,51],[-1,5],[-1,4],[-2,3],[-2,2],[-3,2],[-3,2],[-52,20],[-53,20],[-23,35],[14,31],[18,5],[17,9],[46,15]],[[3753,2612],[-5,1]],[[3748,2613],[37,5],[-3,95],[-116,51],[-17,56],[256,97],[107,116],[-109,57],[-198,552],[-65,89],[110,106]],[[3649,2789],[6,-9],[-7,9],[1,0]],[[3650,3715],[8,-10],[-6,8],[-2,2]],[[3653,3760],[4,4],[2,3],[-6,-7]],[[3711,3808],[0,1],[7,5],[-7,-6]],[[3715,2851],[16,5],[-17,-5],[1,0]],[[3729,2740],[-8,3],[8,-3]],[[3744,3500],[-3,8],[1,0],[2,-8]],[[3753,3840],[-2,-1],[-5,-4],[7,5]],[[3762,2727],[8,-3],[-8,3]],[[3784,3388],[-3,8],[3,-8]],[[3785,2660],[0,11],[1,-11],[-1,0]],[[3818,3302],[4,-9],[-4,9]],[[3838,2895],[-1,-1],[-12,-4],[13,5]],[[3864,3195],[-1,3],[-3,9],[-1,0],[5,-12]],[[3890,3118],[-2,6],[-2,5],[2,-5],[2,-6]],[[3980,3002],[1,1],[-17,-8],[2,0],[14,7]],[[2896,2389],[21,4],[58,-14],[160,32],[135,86],[43,120],[113,2],[179,74],[55,72],[-8,56],[37,5],[17,18],[81,31],[15,5],[22,8]],[[2897,2389],[2,-1]],[[2940,2387],[2,-1]],[[2978,2380],[3,1]],[[3021,2389],[2,0]],[[3060,2396],[2,0]],[[3127,2408],[2,0]],[[3166,2433],[2,2]],[[3229,2476],[-3,-2]],[[3289,2576],[-1,-2]],[[3307,2607],[1,2]],[[3361,2612],[2,-1]],[[3414,2617],[-3,-1]],[[3480,2642],[-2,-2]],[[3545,2669],[3,1]],[[3638,2734],[-1,-3]],[[3824,2888],[-7,-3]],[[3273,2512],[0,-2],[0,2]],[[3604,2693],[-2,-1],[2,2],[0,-1]],[[3654,2783],[1,-2],[1,0],[-2,2]],[[3672,2825],[2,0],[-3,0],[1,0]],[[3720,2848],[5,2],[0,-1],[-4,-1],[-1,0]],[[3791,2876],[2,1],[-2,-1]],[[775,2313],[-31,56],[-144,96],[-339,108],[-261,160]],[[4096,3032],[-42,2],[-98,-43],[-60,-79],[-359,-145],[-75,39],[-88,-20],[-251,10],[-263,-44],[-112,-57],[-199,-5],[-915,155],[-66,-44],[-57,-124],[-241,-277],[-308,-152],[-105,-13],[-36,26]],[[306,525],[117,-14]],[[2739,2285],[44,20],[54,-18],[99,40],[45,53],[141,26],[13,5],[135,86],[43,120],[113,2],[179,74],[55,72],[-8,56],[37,5],[17,18],[7,2],[8,2],[4,1],[46,20],[53,19]],[[2742,2287],[-3,-1]],[[2765,2298],[-3,-1]],[[2807,2296],[3,-2]],[[2832,2286],[3,1]],[[2885,2306],[-2,-1]],[[2943,2335],[2,2]],[[2986,2382],[-2,-1]],[[3024,2389],[-3,-1]],[[3060,2395],[2,1]],[[3130,2408],[-3,-1]],[[3165,2433],[-2,-2]],[[3229,2475],[-2,-1]],[[3288,2573],[2,3]],[[3309,2612],[-1,-3]],[[3358,2613],[2,-1]],[[3411,2616],[2,0]],[[3477,2640],[-3,-1]],[[3545,2668],[-3,-1]],[[3634,2727],[2,2]],[[3824,2888],[-7,-3]],[[3274,2512],[0,-2],[0,2]],[[3604,2693],[-1,0],[-3,-2],[4,2]],[[3654,2783],[1,-2],[1,0],[-2,2]],[[3668,2825],[3,0],[0,-1],[-3,0],[0,1]],[[3720,2848],[5,2],[0,-1],[-4,-1],[-1,0]],[[3791,2876],[2,1],[-2,-1]],[[1122,2319],[-286,-105],[-62,39],[-58,-18],[-109,-219],[-299,-147],[-127,-123],[-96,-47],[-46,-91],[-39,-15]],[[0,2733],[259,-159],[341,-109],[143,-95],[120,-135],[101,14],[307,150],[240,278],[57,123],[66,45],[915,-155],[199,5],[112,57],[263,44],[251,-10],[88,20],[82,-41],[352,147],[92,96]],[[3713,2849],[15,5],[-15,-5]],[[3838,2895],[-1,-1],[-12,-4],[13,5]],[[3966,2997],[16,8],[-16,-8]],[[3711,2861],[-1,141],[60,34],[55,0],[9,2],[70,45],[-200,561],[-70,89],[-60,24],[-303,73],[-187,-13],[-134,23],[-8,53],[105,140],[33,23],[2,40]],[[2960,3909],[5,4],[2,2],[0,-1],[-7,-5]],[[3025,3823],[-9,1],[9,-1]],[[3072,4048],[4,3],[3,3],[-1,0],[-6,-6]],[[3187,3825],[-8,-1],[8,1]],[[3496,3777],[0,-1],[-8,2],[0,1],[8,-2]],[[3583,3755],[-5,1],[-4,1],[0,1],[4,-2],[5,-1]],[[3650,3715],[8,-10],[-6,8],[-2,2]],[[3700,2893],[0,9],[0,-9]],[[3702,2938],[1,8],[-1,0],[0,-8]],[[3710,2856],[0,1],[1,2],[-1,5],[0,-8]],[[3744,3500],[-3,8],[1,0],[2,-8]],[[3784,3388],[-3,8],[3,-8]],[[3790,3037],[2,0],[16,-1],[-18,1]],[[3818,3302],[4,-9],[-4,9]],[[3864,3195],[-1,3],[-3,9],[-1,0],[5,-12]],[[3879,3059],[-8,-3],[4,1],[4,2]],[[3890,3118],[-2,6],[-2,5],[2,-5],[2,-6]],[[3237,2606],[311,160],[102,58],[39,2],[206,85],[61,79],[93,37],[47,-28]],[[3901,2914],[8,4]],[[3243,2609],[-9,-5],[9,5]],[[3365,2673],[-4,-1],[8,4],[-4,-3]],[[3440,2714],[8,4],[-7,-4],[-1,0]],[[3485,2737],[0,1],[9,4],[-9,-5]],[[3578,2787],[-7,-4],[7,4]],[[3719,2849],[8,2],[1,0],[-9,-3],[0,1]],[[3792,2877],[-1,0],[10,4],[0,-1],[-9,-3]],[[3850,2897],[-9,-4],[0,1],[9,3]],[[3952,2964],[-1,0],[0,9],[1,0],[0,-9]],[[3976,2998],[9,5],[0,-1],[-5,-2],[-4,-2]],[[2075,0],[3,52],[2,19],[29,148],[2,16],[1,5],[8,274],[60,213],[3,11],[2,9],[1,9],[1,10],[38,466],[6,256],[90,266],[2,9],[36,173],[36,181],[11,31],[45,46],[14,6],[33,11],[14,6],[19,10],[139,75]],[[2681,2308],[-230,-114],[-45,-46],[-11,-32],[-74,-362],[-89,-262],[-4,-18],[-2,-22],[-1,-220],[-38,-469],[-67,-249],[-8,-274],[-32,-169],[-2,-19],[-3,-52]],[[3711,2861],[-3,139],[188,68],[-4,47]],[[3750,3837],[-111,-105],[66,-90],[82,-265],[96,-237]],[[3650,3715],[8,-10],[-6,8],[-2,2]],[[3700,2893],[0,9],[0,-9]],[[3702,2938],[1,8],[-1,0],[0,-8]],[[3710,2856],[0,1],[1,2],[-1,5],[0,-8]],[[3711,3808],[0,1],[7,5],[-7,-6]],[[3744,3500],[-3,8],[1,0],[2,-8]],[[3753,3840],[-2,-1],[-5,-4],[7,5]],[[3784,3388],[-3,8],[3,-8]],[[3806,3036],[-1,-1],[-12,1],[13,0]],[[3864,3195],[-1,3],[-3,9],[-1,0],[5,-12]],[[3879,3059],[-8,-3],[4,1],[4,2]],[[3890,3118],[-2,6],[-2,5],[2,-5],[2,-6]],[[2910,3800],[12,21]],[[2932,3837],[8,57]],[[3670,3716],[-26,-33]],[[185,865],[3,-10]],[[3693,3061],[-11,-17]],[[3682,3043],[11,17]],[[3192,1313],[-3,2]],[[22,883],[45,-5]],[[3879,2226]],[[3888,4039],[-30,40]],[[3917,3848],[7,-1]],[[3923,3498],[0,-12]],[[3825,3916],[1,-1]],[[3866,3961],[-2,3]],[[3888,4039],[19,-20]],[[1415,2119],[-337,-95]],[[1079,2024],[181,38],[165,60]],[[1439,2128],[1,0]],[[1440,2129]],[[1479,2139],[108,19]],[[1583,2158],[-98,-18]],[[1773,2154],[8,-1],[58,15]],[[1829,2166],[-51,-11]],[[3984,2070],[28,-20]],[[3895,3219],[-39,-20]],[[3873,2999],[31,-26],[31,-46],[-27,43],[-34,35],[-1,-6]],[[0,885],[22,-2]],[[67,878],[118,-13]],[[188,855],[32,7]],[[135,3697],[-2,2]],[[3912,3849],[1,5]],[[3342,2308],[64,42],[3,2]],[[3409,2352],[27,20]],[[3437,2372],[-7,-6],[-21,-14]],[[3409,2352],[-59,-39]],[[3473,2671],[32,-18],[125,-55]],[[3630,2599],[-64,32],[-60,22],[-33,19]],[[3732,3110],[-15,-16],[-24,-33]],[[3693,3060],[43,53]],[[3380,2753],[128,204],[138,38],[36,48]],[[3682,3044],[-36,-49],[-132,-32],[-7,-5],[-141,-192],[3,-11],[15,-6]],[[3549,2636],[12,-21]],[[2606,3956],[13,-20]],[[2616,3940],[5,11]],[[2619,3936],[2,-4]],[[2622,3932],[-3,4]],[[2939,3860],[0,-2]],[[2940,3857],[0,-1]],[[2940,3859],[0,-2]],[[3372,1741],[0,4]],[[3385,1193],[-2,0]],[[3383,1193],[1,-1]],[[3384,1192],[2,1]],[[3385,1191],[-1,1]],[[3394,1193],[1,-1]],[[3395,1195],[-1,-1]],[[3395,1192]],[[3395,1192],[1,1]],[[3395,1195]],[[3397,1194],[-2,1]],[[3621,2745],[5,5]],[[3646,2772],[19,20]],[[3683,2812],[11,12]],[[3438,3425],[-23,36]],[[3416,3458],[18,-30],[4,-3]],[[3443,3421],[33,-22]],[[3494,3390],[-45,28]],[[3650,3245],[1,-1]],[[3651,3245],[-1,0]],[[3783,3149],[1,1]],[[3711,3395],[0,-1]],[[3713,3284],[39,24]],[[3748,3314],[-35,-29]],[[2583,1828],[-1,0]],[[2163,2813],[7,-1]],[[118,1626],[-50,-8]],[[2299,1878],[-4,2]],[[2300,1876],[3,-2]],[[3962,2086],[1,0]],[[1432,1676],[-57,-28]],[[3926,2171],[-40,40]],[[3592,3614],[0,-1]],[[3625,3582],[-31,32]],[[3476,3399],[17,-10]],[[3748,3314],[3,-8]],[[3881,3887],[-47,27]],[[172,4052],[-2,44]],[[3617,3647],[17,22]],[[3633,3669],[-15,-20]],[[3635,3530],[-9,52]],[[3724,3785],[27,35]],[[3458,1199],[-11,7]],[[3458,1199],[10,0]],[[3470,1200],[-2,-1]],[[3470,1200],[6,1]],[[3475,1202],[-5,-2]],[[3696,135],[-100,-14],[-107,-69],[-208,-20],[-60,-32]],[[3738,148],[113,23],[144,-28],[101,6]],[[3782,2655],[3,-189],[35,2]],[[3820,2469],[-29,4],[-8,200]],[[3890,2472],[-47,-2]],[[3834,3926],[32,35]],[[3865,3962],[-40,-46]],[[3826,3915],[1,1]],[[3828,3918],[36,43]],[[1432,1676],[19,-3]],[[2924,2814],[28,3]],[[3885,2210],[8,-17]],[[596,4096],[156,-112],[240,-62],[205,-137],[233,-116]],[[1430,3669],[3,-2]],[[1433,3668],[-3,1]],[[1434,3667],[4,0]],[[1438,3667],[-4,0]],[[2617,3929],[-75,-35],[-174,31],[-96,-64],[-238,-67],[-90,-69],[-506,-58]],[[2617,3929],[3,2]],[[2621,3932],[-4,-3]],[[2620,3931],[2,0]],[[2622,3931],[0,1]],[[2620,3931],[3,-1]],[[2622,3932],[-1,0]],[[2621,3932],[1,-1]],[[2622,3931],[5,-5]],[[2627,3926],[-5,6]],[[2756,3895],[-91,-6],[-38,37]],[[2756,3895],[13,-3]],[[2929,3927],[-160,-35]],[[2929,3927],[-1,-1]],[[2929,3927],[52,24],[54,90],[166,55]],[[1330,1680],[1,0],[-1,1],[0,-1]],[[3480,2382],[-13,31]],[[3475,2452],[-11,-40],[16,-30]],[[3493,3389],[60,-34]],[[3549,3358],[-55,32]],[[3589,2711],[-7,-13]],[[3583,2698],[38,47]],[[3621,2745],[-20,-21]],[[3650,3245],[-19,11]],[[3635,3252],[7,-5],[8,-2]],[[3651,3244],[129,-95]],[[3784,3150],[-133,95]],[[3694,2917],[5,-39]],[[3698,2949],[-2,-7],[-2,-16]],[[3695,2925],[3,23]],[[3701,2873],[-6,43]],[[3698,2827],[6,31]],[[3780,3148],[3,1]],[[3931,2111],[31,-25]],[[3963,2086],[21,-16]],[[363,1851],[-2,0]],[[3288,2809],[-1,-1]],[[3877,3988],[-12,-25]],[[3592,3613],[2,1]],[[3625,3580],[9,-51]],[[3874,2469]],[[3876,2469],[0,3]],[[4079,2000],[17,-13]],[[3609,2732],[-3,-3]],[[1451,1673],[-9,-60]],[[2522,4096],[66,-104]],[[2589,3992],[-66,104]],[[3061,3645],[277,-139]],[[3338,3506],[-151,79],[-118,59],[-8,1]],[[3738,148],[-42,-13]],[[3395,1184],[2,-16]],[[3958,2711],[-6,-63]],[[3953,2647],[7,63]],[[3344,3615],[-20,14]],[[3522,3612],[-9,3]],[[3581,3542],[-4,13]],[[3634,3669],[43,56]],[[3582,2698],[-26,-100]],[[3557,2598],[26,100]],[[3436,2372],[3,2]],[[3439,2374],[3,3]],[[3446,2381],[-7,-7]],[[3439,2374],[-2,-2]],[[3838,3913],[-4,13]],[[3865,3963]],[[3918,3504],[29,206],[-23,137]],[[3873,2600],[1,-128]],[[3876,2472],[-1,114]],[[3952,2637],[1,10]],[[2940,3855],[-2,10]],[[2684,2496],[-10,-3]],[[2674,2492],[14,4]],[[2960,2559],[74,23]],[[3032,2585],[-71,-25]],[[3038,2587],[-6,-2]],[[3034,2582],[4,1]],[[3038,2583],[11,7],[108,72],[27,41],[98,20],[25,10],[29,16]],[[3333,2748],[-154,-46],[-141,-115]],[[1207,1790],[117,-108]],[[1324,1682],[6,-2]],[[1330,1681],[-6,1]],[[1375,1648],[-15,-7]],[[3960,3247],[-189,-105]],[[3771,3141],[192,106]],[[3296,2811],[-8,-2]],[[778,2317],[0,2]],[[778,2317],[34,-16]],[[801,2336],[-23,-17]],[[835,2362],[-34,-26]],[[813,2301],[136,-77]],[[835,2363]],[[835,2362],[1,2]],[[836,2364],[-1,-2]],[[949,2223],[2,-2]],[[1024,2133],[44,-87]],[[1082,2017],[0,-1]],[[1084,2013],[-8,-80],[19,-20]],[[1095,1912],[69,-76]],[[1166,1834],[41,-44]],[[1442,1613],[1,-41],[126,-42],[101,18]],[[1866,1513],[116,-57]],[[2062,1420],[70,28],[99,-13]],[[2230,1435],[1,-1],[1,1],[-1,0],[-1,0]],[[3273,2251],[-3,-16]],[[3271,2235],[2,5]],[[3275,2253],[-1,-1]],[[3276,2252],[11,19]],[[3338,2305],[-19,-12]],[[3155,2158],[16,6]],[[3780,3149],[-9,-7]],[[3771,3141],[9,7]],[[0,2670],[372,-170],[218,-44],[112,-75]],[[702,2381],[18,-6]],[[720,2375],[107,-10]],[[827,2365],[15,-1]],[[842,2364],[394,159],[49,47],[51,114],[165,160]],[[1504,2847],[-3,-3]],[[1501,2844],[7,0]],[[1644,2808],[-3,-4]],[[1642,2804],[2,4]],[[1644,2808],[30,65]],[[1674,2873],[11,7]],[[1684,2880],[-3,-2],[-7,-5]],[[1694,2882],[-8,-1]],[[1686,2880],[8,2]],[[1728,2877],[-34,5]],[[1728,2877],[16,-2]],[[2163,2813],[-419,62]],[[2170,2812],[506,-60]],[[2684,2751],[131,40]],[[2815,2791],[15,5]],[[2830,2796],[94,18]],[[2952,2817],[115,-5]],[[1685,2881],[-1,-1],[2,0],[0,1]],[[1686,2881],[-1,0]],[[3904,2597],[-31,2]],[[3889,2596],[7,0]],[[3790,2469],[1,-22]],[[3792,2447],[-2,18]],[[3782,2675],[0,-11]],[[1206,52],[-43,-52]],[[1163,0],[42,50]],[[3712,2704],[-19,9],[-3,1]],[[3690,2714],[22,-10]],[[3927,2154],[2,-30]],[[4058,3265],[13,0]],[[3751,3127],[-17,-16]],[[3736,3113],[16,13]],[[3761,3133],[10,8]],[[3771,3142],[-4,-3]],[[1554,2806],[86,-4]],[[1640,2802],[1,1]],[[1640,2803],[0,-1]],[[1641,2804],[0,-1],[1,0],[-1,1]],[[3610,3640],[-18,-25]],[[3612,3641],[5,6]],[[3635,3528],[47,-92],[29,-41]],[[3711,3396],[-76,134]],[[2922,3821],[10,16]],[[3644,3683],[-11,-14]],[[3601,2724],[-12,-13]],[[3429,1206],[1,1],[0,1],[-1,-1],[0,-1]],[[3918,3504],[1,-2]],[[3707,2836],[-1,-2]],[[1434,3667],[-1,1],[0,-1],[1,0]],[[3618,3649],[-2,-2]],[[3473,2672],[-93,81]],[[3384,2749],[89,-78]],[[3616,3647],[-6,-7]],[[3893,2193],[13,-5]],[[3926,2171],[1,-17]],[[1164,1836],[2,-2]],[[3387,3480],[20,-11],[4,-4],[2,-2],[1,-1]],[[3414,3462],[2,-4]],[[3415,3461],[-1,1]],[[3414,3462],[-27,15]],[[3631,3256],[-23,21],[-47,68],[-8,10],[-4,3]],[[3553,3355],[55,-79],[27,-24]],[[1344,725],[1,0]],[[3698,2948],[3,19],[-4,22],[-20,44]],[[3678,3039],[-4,-7],[3,-13],[23,-45],[-2,-25]],[[171,4051],[1,1]],[[3991,2761],[48,13]],[[4036,2774],[-15,-3],[-25,-7]],[[4071,3265],[8,1]],[[4094,3266],[2,6]],[[0,1321],[123,35],[194,123],[58,40],[67,56],[76,85],[1,1],[23,24]],[[542,1685],[54,57],[8,7],[3,2]],[[607,1751],[41,25],[23,11],[119,71],[82,50],[36,23],[30,26],[46,28],[95,39]],[[1078,2024],[-94,-38],[-371,-229],[-6,-6]],[[607,1751],[-65,-66]],[[542,1685],[-24,-24],[-76,-86],[-125,-96],[-194,-122],[-123,-35]],[[1440,2129],[-25,-10]],[[1425,2122],[14,6]],[[1440,2128],[39,11]],[[1485,2140],[-45,-11]],[[1778,2155],[-195,3]],[[1587,2158],[186,-4]],[[2674,2493],[-18,-6],[-198,-80],[-76,-35],[-106,-33],[-84,-32],[0,-1],[-146,-43],[-48,-19]],[[1998,2244],[-20,-8]],[[1978,2236],[-6,-2],[-85,-53],[-58,-15]],[[1839,2168],[48,12],[56,33],[23,16],[12,7]],[[1978,2236],[2,1],[18,7]],[[1998,2244],[48,19],[146,43],[191,65],[291,121]],[[2961,2560],[-277,-64]],[[2688,2496],[198,42],[74,21]],[[3741,3330],[7,-16]],[[3752,3308],[-10,23]],[[3657,3242],[14,12]],[[3671,3254],[-3,-2]],[[2939,3899]],[[2939,3899]],[[2943,3757],[-1,-1]],[[3153,2156],[2,2]],[[2942,3758],[-32,42]],[[2938,3907],[-11,17]],[[2938,3751],[2,3]],[[2938,3907],[1,-9]],[[2940,3894],[-1,4]],[[2940,3754],[2,4]],[[3871,2599],[2,1]],[[3875,2586],[14,10]],[[3896,2596],[13,1]],[[3911,2598],[-7,-1]],[[3996,2764],[-11,-7],[-22,-35]],[[3964,2722],[27,39]],[[3677,3033],[3,4]],[[3594,3614],[-2,1]],[[68,1618],[-1,0]],[[119,1626],[-1,0]],[[2954,2009],[37,34]],[[3270,2235],[0,-5]],[[3274,2252],[-1,-1]],[[3577,3555],[-22,30]],[[3611,3435],[-30,107]],[[3229,2806],[62,3]],[[2676,2752],[8,-1]],[[3920,3397],[-5,-30]],[[3876,2336]],[[951,2221],[63,-54]],[[1023,2141],[-9,26]],[[1023,2141],[1,-8]],[[1068,2046],[14,-27]],[[1082,2019],[0,-1]],[[1083,2018],[-1,1]],[[1082,2016],[0,1]],[[1083,2016],[1,-1]],[[1084,2015],[-1,1]],[[1084,2015],[0,-2]],[[1670,1548],[196,-35]],[[1982,1456],[80,-36]],[[3665,2792],[18,20]],[[135,3697],[-2,5]],[[171,4050],[1,1]],[[3067,2812],[28,-1]],[[3929,2124],[2,-13]],[[3645,3235],[1,-2]],[[3874,2472],[0,-3]],[[3270,3687],[-236,77]],[[3324,3629],[-61,50]],[[3513,3615],[-169,0]],[[3555,3585],[-33,27]],[[4092,3267],[-22,0]],[[3712,2704],[50,-26]],[[3761,2680],[-49,24]],[[1339,1671],[20,-30]],[[1360,1641],[-20,30]],[[3879,2226],[1,-6]],[[3075,2110],[78,46]],[[3171,2164],[11,6]],[[3182,2170],[35,28]],[[3216,2198],[-34,-28]],[[290,2541],[-10,5]],[[336,2516],[8,-4]],[[365,2503],[-10,4]],[[378,2498],[-8,3]],[[393,2495],[-10,2]],[[834,2364],[1,-1]],[[3782,2689],[0,-14]],[[3782,2664],[0,-9]],[[3783,2673],[0,16]],[[3790,2475],[0,-6]],[[3790,2465],[1,22]],[[2821,3831],[3,-6]],[[2824,3826],[-3,5]],[[3618,2737],[-2,1]],[[3626,2750],[20,22]],[[3646,2773],[-20,-22]],[[3684,2814],[-19,-20]],[[3095,2811],[58,-2]],[[1330,1680],[9,-9]],[[1340,1671],[-4,5],[-5,4]],[[1360,1641],[-1,0]],[[3380,2753],[-40,-4]],[[3340,2749],[-7,-1]],[[3336,2749],[4,0]],[[3340,2749],[44,0]],[[3630,2598],[119,-126],[16,-5],[18,0],[37,1]],[[3820,2469],[-52,-1],[-138,131]],[[3856,2469],[34,2]],[[1389,3085],[-1,-1]],[[1388,3082],[2,-1]],[[1389,3083],[0,2]],[[1390,3081],[-1,2]],[[1389,3085],[72,174],[44,34],[37,86],[-24,120],[-44,41]],[[1390,3081],[43,-121]],[[1576,4096],[-99,-205],[-44,-221]],[[1433,3670],[0,-2]],[[1434,3668],[-1,2]],[[1433,2960],[12,-28]],[[1433,3667],[2,-3]],[[1435,3664],[-1,3]],[[1435,3664],[31,-102]],[[1502,2849],[-57,83]],[[1466,3562],[8,-22]],[[1502,2849],[2,-2]],[[1504,2848],[-2,1]],[[1505,2847],[1,-1]],[[1641,2803],[2,-3]],[[1643,2800],[-1,3]],[[1643,2800],[3,-3]],[[1970,2245],[-75,87],[-30,99],[-208,350]],[[1970,2245],[0,-3]],[[1970,2242],[0,3]],[[1970,2242],[-1,-1],[1,-1],[1,1],[-1,1]],[[1970,2240],[0,-3]],[[1970,2237],[0,3]],[[1970,2237],[3,-44]],[[1973,2193],[0,-9]],[[1973,2184],[110,-97],[33,-71]],[[2116,2016],[28,-50]],[[2144,1966],[155,-89]],[[2300,1877],[32,-41]],[[2332,1836],[4,-6]],[[2336,1830],[28,-45]],[[2364,1785],[10,-7],[13,-5]],[[2387,1773],[-23,12]],[[2427,1725],[-40,48]],[[2430,1724],[13,-4]],[[2444,1720],[-1,0]],[[2443,1720],[1,-1]],[[2446,1719],[3,0]],[[2449,1719],[-3,1]],[[2449,1719],[123,-29]],[[2572,1690],[6,-38]],[[2578,1652],[4,-51]],[[2582,1601],[16,-24]],[[2598,1577],[147,-81]],[[2745,1496],[9,-5]],[[2904,1416],[-150,75]],[[2904,1416],[7,-4]],[[2953,1383],[-42,29]],[[2953,1383],[7,0]],[[3189,1315],[-189,84],[-40,-16]],[[3373,1196],[-181,117]],[[3373,1196],[33,-2]],[[3410,1195],[-4,-1]],[[3410,1195],[6,4]],[[3427,1206],[-11,-7]],[[3427,1206],[2,0]],[[3429,1207],[-2,-1]],[[3432,1208],[-2,0]],[[3430,1207],[2,1]],[[3439,1208],[-7,0]],[[3439,1208],[2,0]],[[3441,1208],[-2,0]],[[3441,1208],[1,-1],[1,1]],[[3443,1208],[-1,0],[-1,0]],[[3442,1207],[3,0]],[[3445,1207],[-2,1]],[[3447,1206],[-2,1]],[[3479,1202],[-4,0]],[[3476,1201],[3,1]],[[3537,1220],[-58,-18]],[[3537,1220],[25,2]],[[3672,1245],[-110,-23]],[[3672,1245],[9,17]],[[3681,1262],[-3,-4],[-6,-13]],[[3702,1275],[-21,-13]],[[3702,1275],[17,6]],[[3767,1299],[-48,-18]],[[3767,1299],[7,2]],[[3786,1305],[-12,-4]],[[3786,1305],[5,3],[17,13]],[[3808,1321],[-22,-16]],[[4071,1393],[-263,-72]],[[4071,1393],[24,10]],[[4096,1403],[-1,0]],[[1388,3084],[-1,-1],[1,-1],[1,1],[-1,1]],[[2299,1878],[0,-1],[1,0],[0,1],[-1,0]],[[2446,1721],[-2,-1],[1,-1],[1,0]],[[2446,1719],[0,2]],[[3915,3367],[-17,-40],[-66,-37]],[[3923,3486],[-3,-89]],[[1461,3579],[-311,-6]],[[4071,3265],[25,0]],[[4096,3266],[-2,0]],[[3751,3820],[67,86]],[[3818,3906],[8,9]],[[3825,3916],[-7,-10]],[[3827,3916],[1,2]],[[3864,3961],[42,55],[1,2]],[[3907,4018],[1,18]],[[3908,4036],[1,1],[-1,7],[32,52]],[[3940,4096],[-32,-49],[0,-4],[0,-7]],[[3908,4036],[1,-3],[-1,-14],[-1,-1]],[[3907,4018],[-3,-2],[-28,-33],[-11,-21]],[[3263,3679],[7,8]],[[2588,3992],[13,-24],[5,-7],[1,-1]],[[2607,3960],[129,-53]],[[2736,3907],[3,-1],[32,-9],[9,-2]],[[2780,3895],[1,-1],[2,-1],[1,-1]],[[2784,3892],[30,-48],[7,-13]],[[2821,3831],[-29,55],[-8,6]],[[2784,3892],[-4,3]],[[2780,3895],[-3,1],[-41,11]],[[2736,3907],[-34,9],[-10,2],[-84,41],[-1,1]],[[2607,3960],[-4,6],[-14,26]],[[2824,3825],[113,-64],[124,-116]],[[3061,3645],[-132,124],[-105,57]],[[801,2336]],[[1095,1913],[0,-1]],[[3874,2469],[2,-133]],[[3879,2226],[-3,243]],[[3876,2336],[3,-110]],[[3886,2211],[-7,15]],[[2928,3926],[-1,-2]],[[3490,2290],[-23,-93]],[[3468,2197],[22,91]],[[3287,2271],[0,1]],[[3331,2301],[1,0]],[[3438,3425],[5,-4]],[[3449,3418],[-11,7]],[[3592,3615],[0,-1]],[[3594,3614],[18,27]],[[3634,3529],[1,-1]],[[3711,3394],[30,-64]],[[3742,3331],[-19,48],[-12,17]],[[3635,3252],[10,-17]],[[3909,2597],[33,18]],[[3952,2648],[-41,-50]],[[3963,2722],[-5,-11]],[[3960,2710],[4,12]],[[4096,2830],[-60,-56]],[[4039,2774],[12,3],[16,13],[29,37]],[[949,2224],[0,-1]],[[3408,1948],[-48,-157],[0,-7],[11,-45],[-29,-71],[11,-50]],[[3355,1612],[13,-60]],[[3370,1542],[8,-38]],[[3382,1486],[22,-102]],[[3406,1375],[0,-1]],[[3407,1375],[-33,154],[-32,140],[29,68],[1,8],[-11,40],[48,163]],[[3480,2382],[20,-35],[-10,-57]],[[3490,2288],[11,45],[-1,14],[-4,13],[-16,22]],[[2583,1828],[81,9],[288,172]],[[2952,2009],[2,0]],[[2993,2045],[-41,-36]],[[2991,2043],[2,2]],[[2993,2045],[82,65]],[[3261,2216],[-45,-18]],[[3217,2198],[44,18]],[[3261,2216],[9,16]],[[3406,1374],[7,-30],[2,-8]],[[3415,1336],[0,-1],[-20,-151]],[[3397,1168],[3,-19]],[[3400,1149],[0,-1],[43,-52],[19,-55],[170,-706],[18,-41]],[[3650,294],[6,-14]],[[3656,280],[1,-2],[88,-136],[1,-2]],[[3746,140],[3,-9],[-6,-104]],[[3743,27],[0,-1],[11,-26]],[[3754,0],[-11,26],[0,1]],[[3743,27],[-2,4],[-5,11],[10,98]],[[3746,140],[0,2],[-20,36],[-54,79],[-8,12],[-8,11]],[[3656,280],[-1,2],[-5,12]],[[3650,294],[-18,45],[-171,706],[-16,48],[-1,2],[-29,42],[-13,10],[-2,2]],[[3400,1149],[-3,3],[-8,15],[-1,12],[6,21],[6,22],[15,114]],[[3415,1336],[0,1],[-8,38]],[[3767,3139],[-16,-12]],[[3752,3126],[9,7]],[[3338,3506],[17,-10]],[[3355,3496],[32,-16]],[[3387,3477],[-32,19]],[[3355,3496],[-9,6],[-8,4]],[[197,859],[-3,-2]],[[3646,3233],[2,2]],[[3713,3285],[-42,-31]],[[3671,3254],[42,30]],[[3273,2240],[3,10]],[[3319,2293],[-44,-40]],[[3332,2301],[10,7]],[[3350,2313],[-12,-8]],[[3276,2250],[0,2]],[[3615,2736],[75,-22]],[[3690,2714],[-72,23]],[[3770,2675],[-9,5]],[[3762,2678],[12,-6]],[[3473,2671],[76,-35]],[[3551,2638],[-78,34]],[[3880,2220],[5,-10]],[[4012,2050],[67,-50]],[[3694,2926],[0,-9]],[[3695,2916],[0,9]],[[3699,2878],[8,-42]],[[3704,2858],[-3,15]],[[3592,3613],[33,-33]],[[3626,3582],[-1,0]],[[133,3699],[38,352]],[[4096,3275],[-4,-8]],[[3752,3308],[-4,-1]],[[3780,3165],[10,-10]],[[3874,2469],[0,-4]],[[3876,2437],[-1,0]],[[3875,2436],[1,0]],[[1205,50],[46,36],[9,8]],[[1260,94],[108,94],[22,12]],[[1390,200],[6,3],[137,161],[18,41],[46,184],[2,4]],[[1599,593],[11,16],[2,2],[4,3]],[[1616,614],[1,1],[14,13],[44,44],[15,18],[8,11],[158,285],[139,130],[49,107],[74,45],[167,215],[43,74],[10,17],[30,67],[14,54],[55,32],[54,38],[50,53],[42,10]],[[2582,1828],[-42,-10],[-158,-122],[-98,-212],[-167,-216],[-75,-44],[-48,-108],[-139,-130],[-158,-285],[-80,-85],[-1,-2]],[[1616,614],[-17,-21]],[[1599,593],[-3,-4],[-64,-225],[-133,-157],[-9,-7]],[[1390,200],[-69,-60],[-61,-46]],[[1260,94],[-10,-8],[-44,-34]],[[3858,4079],[59,-17],[22,34]],[[3865,3963],[-1,1]],[[3881,3887],[32,-33]],[[3907,4019],[-1,-2]],[[3917,3848],[-5,1]],[[3923,3502],[0,-4]],[[220,862],[10,1]],[[3827,3916],[-1,1]],[[547,3363],[-174,210],[-130,45],[-108,79]],[[3606,2729],[-5,-5]],[[3856,3199],[-31,-17],[-45,-33]],[[3780,3148],[44,32]],[[3626,2751],[-5,-6]],[[3665,2794],[-19,-21]],[[3706,2834],[-22,-20]],[[3843,2470],[-23,-1]],[[3820,2468],[36,1]],[[1637,723],[4,-1]],[[1642,723],[-5,0]],[[3873,2599],[-2,0]],[[836,2364]],[[2239,1418],[0,-1],[0,1]],[[3734,3111],[-2,-1]],[[3677,3033]],[[172,4052],[-1,-1]],[[658,2174],[-1,-2]],[[3468,2421],[89,177]],[[3556,2598],[-68,-111],[-5,-10],[-8,-25]],[[3942,2615],[10,22]],[[4079,3266],[15,0]],[[812,2301],[1,0]],[[2240,1419],[-9,15]],[[1505,2847],[49,-41]],[[1504,2848],[0,-1],[1,0],[0,1],[-1,0]],[[172,4052],[-1,1]],[[982,3417],[168,156]],[[3442,2377],[12,11],[14,33]],[[3475,2452],[-29,-71]],[[3471,2405],[-5,-5]],[[3923,3502],[-4,0]],[[4079,3266],[-15,0]],[[4064,3266],[-52,-1],[-6,-1],[-46,-17]],[[3963,3247],[95,18]],[[547,3363],[170,64],[265,-10]],[[3270,2232],[1,3]],[[230,863],[587,63],[122,-22],[149,-130],[45,-11]],[[1134,764],[130,-17]],[[1305,735],[39,-10]],[[1345,725],[76,10]],[[1434,737],[52,-3]],[[1499,732],[130,-8]],[[1629,724],[8,-1]],[[1637,723],[-8,1]],[[1641,722],[6,0]],[[1647,722],[-5,1]],[[1647,722],[49,7]],[[1696,729],[1,1]],[[1697,730],[-1,-1]],[[1699,731],[-1,0]],[[1698,730],[1,1]],[[1699,731],[18,5]],[[1133,763],[1,1]],[[1134,764],[-1,1],[-1,-1],[1,-1]],[[1697,730],[1,0],[0,1],[-1,-1]],[[67,1618],[-67,-48]],[[361,1851],[-242,-225]],[[657,2172],[-56,-120],[-238,-201]],[[678,2221],[-20,-47]],[[677,2226],[0,-1]],[[677,2223],[1,-2]],[[677,2226],[-4,66],[33,32],[4,50]],[[678,2225],[-1,1]],[[678,2221],[0,2]],[[678,2223],[0,1],[-1,1]],[[677,2225],[0,-1],[1,-1]],[[710,2377],[1,-2]],[[710,2374],[1,1]],[[714,2376],[-2,1],[-1,-2]],[[711,2375],[-1,-1]],[[711,2375],[3,1]],[[711,2375]],[[711,2375],[0,2]],[[3906,4017],[-29,-29]],[[3153,2809],[76,-3]],[[3291,2809],[11,3]],[[3302,2812],[126,21]],[[3430,2834],[-69,-7],[-59,-15]],[[3467,2197],[-59,-249]],[[3409,1948],[59,249]],[[3677,3725],[47,60]],[[0,0],[0,4096],[4096,0],[0,-4096],[-4096,0]],[[1736,3569],[283,7],[27,-32],[80,4],[47,-29],[103,15],[60,15],[65,76],[110,-7],[143,77],[0,29],[148,35],[-17,-80],[44,-2],[-3,-25],[-86,22],[-52,-41],[43,-5],[-18,-49],[30,-3],[-8,-126],[148,63],[119,23],[28,-26],[16,55],[179,-33],[64,-51],[2,-36],[36,17],[98,-32],[-21,-22],[19,-2],[-2,-54],[42,-28],[2,-120],[-58,-14],[-22,53],[-42,6],[13,-89],[-59,52],[-7,41],[-39,10],[-26,-67],[-24,23],[29,28],[-33,-5],[-65,42],[-5,-23],[79,-55],[35,-60],[50,6],[11,36],[18,-13],[-7,-60],[-50,25],[-21,-24],[-116,2],[-21,-27],[15,44],[-59,21],[-4,28],[-107,-61],[-24,-47],[-21,-4],[-18,42],[-19,-20],[-84,12],[-25,-30],[-40,13],[8,-17],[-74,-35],[-42,13],[2,23],[-33,-19],[6,38],[-59,8],[-1,28],[-78,-10],[-47,-40],[-124,18],[15,31],[-19,7],[-11,-27],[-126,49],[-52,-9],[9,31],[-26,-40],[-92,5],[-6,28],[-67,21],[13,49],[-63,23],[-16,40],[3,81],[35,37],[-97,50],[-2,49],[-39,48]],[[3085,3380],[44,1],[17,36],[-18,8],[48,3],[4,41],[7,-18],[63,16],[34,-22],[-7,-19],[125,-34],[-40,-35],[-64,12],[8,-28],[-52,-23],[11,23],[-22,10],[-10,-25],[-79,43],[-60,-31],[12,34],[-21,8]],[[2129,3407],[40,20],[-21,15],[11,22],[175,-34],[19,19],[1,-28],[-46,-3],[-5,-81],[-163,-6],[15,35],[-26,41]],[[2461,0],[-49,0],[-17,52],[160,40],[13,-36],[-65,-53],[-42,-3]],[[3646,2621],[29,5],[33,56],[47,-20],[6,-31],[-20,-2],[41,-59],[5,-88],[-57,89],[-84,50]],[[2707,3961],[151,37],[53,-62],[-126,-31],[-75,17],[-3,39]],[[605,350],[8,67],[28,-7],[74,53],[-5,-45],[29,-18],[-55,-111],[-79,61]],[[1682,2755],[9,37],[164,-46],[-53,-53],[-78,-2],[-42,64]],[[118,1653],[-100,22],[-18,137],[89,-22],[29,-137]],[[2221,2030],[-69,37],[-28,113],[194,0],[-28,-113],[-69,-37]],[[1445,1759],[-19,-126],[-46,-85],[-46,8],[-85,100],[-63,-2],[32,211],[61,19],[166,-125]],[[2759,2296],[-46,5],[-33,62],[-6,133],[162,0],[-2,-102],[-75,-98]],[[2700,2771],[-91,93],[27,82],[50,17],[44,-46],[9,-106],[-39,-40]],[[4096,3443],[0,-1240],[-121,-21],[-6,-55],[-115,-8],[-15,-45],[-65,106],[62,68],[-19,99],[-107,43],[-33,53],[-97,-53],[-114,-9],[-15,-44],[-65,159],[-164,-48],[-62,48],[-33,105],[-64,-53],[32,-105],[-54,-44],[-75,-9],[-21,44],[20,167],[130,105],[0,211],[65,0],[46,87],[18,123],[33,0],[32,106],[69,-56],[28,3],[14,45],[83,60],[-15,67],[-78,59],[-4,85],[45,45],[149,-45],[-35,123],[-102,184],[8,219],[262,-7],[61,-45],[-32,-211],[65,-52],[32,-106],[82,-109],[48,-207],[47,-12],[49,170],[31,0]],[[3232,2970],[-40,-53],[109,-102],[127,30],[23,124],[-219,1]],[[3570,1686],[34,12],[42,130],[121,203],[24,4],[16,-35],[-43,-11],[-9,-36],[58,-8],[26,-45],[-18,-92],[35,-5],[8,33],[-11,108],[27,10],[26,-23],[-8,-37],[43,-3],[-1,-21],[-30,4],[17,-103],[-50,11],[16,-37],[67,-6],[-56,-90],[-20,74],[-44,2],[1,-58],[-66,-38],[-5,41],[-70,-5],[36,52],[-11,45],[-70,-10],[25,-46],[-32,-71],[23,-62],[-20,0],[35,-36],[19,-79],[-21,-5],[-31,61],[13,32],[-45,44],[18,94],[-38,-20],[-31,22]],[[3793,1771],[10,-33],[70,-1],[-6,43],[-74,-9]],[[3681,1831],[11,-26],[44,8],[-30,-28],[55,-2],[42,59],[-47,15],[-23,48],[-52,-74]],[[4096,1895],[0,-59],[-60,-21],[-9,16],[3,-23],[-47,8],[-12,51],[-32,-10],[57,26],[-44,58],[29,8],[-27,37],[-44,-1],[-20,41],[52,40],[70,-16],[12,32],[71,39],[-10,19],[11,3],[0,-41],[-17,-17],[0,-29],[17,0],[0,-107],[-15,5],[-21,59],[-13,-23],[35,-52],[-28,5],[-11,-52],[53,4]],[[4096,2186],[0,-48],[-11,2],[2,-22],[-26,9],[10,17],[-79,22],[3,29],[46,4],[-46,7],[21,50],[51,-46],[16,30],[-1,-28],[14,16],[0,-22],[-2,-1],[-1,-10],[3,2],[0,-2],[-11,-8],[-27,2],[0,-7],[26,-2],[12,6]],[[4064,2154],[0,-2],[3,-2],[16,-6],[-2,-5],[13,4],[-30,11]],[[4082,2164],[2,-8],[9,3],[-7,3],[0,7],[-4,-5]],[[4066,2157],[3,1],[7,-3],[-2,13],[-8,-11]],[[4070,2196],[2,-1],[6,2],[7,-9],[6,8],[-6,-4],[-4,8],[-11,-4]],[[4082,2152],[1,-2],[4,0],[-1,-1],[8,0],[0,6],[-12,-3]],[[4021,2171],[5,-2],[0,9],[-4,0],[-1,-7]],[[4042,2167],[4,-4],[3,3],[-1,-5],[5,3],[-2,4],[-9,-1]],[[4058,2176],[1,-7],[4,0],[0,9],[-5,-2]],[[4053,2168],[0,-9],[5,-2],[0,11],[-5,0]],[[4047,2184],[1,-5],[4,0],[0,8],[-5,-3]],[[4075,2168],[3,-5],[3,1],[1,6],[-7,-2]],[[4080,2200],[4,0],[0,-3],[6,4],[-10,-1]],[[4026,2175],[2,-5],[3,0],[0,8],[-5,-3]],[[4087,2168],[0,-5],[6,0],[0,6],[-6,-1]],[[4041,2213],[5,-1],[1,7],[-6,-2],[0,-4]],[[4041,2203],[1,-3],[15,1],[-9,6],[-7,-4]],[[4053,2186],[0,-7],[5,0],[0,5],[-5,2]],[[4018,2214],[2,1],[7,18],[-2,1],[-7,-20]],[[2660,2279],[21,8],[-18,49],[35,10],[-5,33],[23,-1],[22,-53],[50,62],[62,-44],[-22,-15],[11,-70],[-21,-26],[-44,42],[-63,-32],[-6,39],[-13,-36],[15,-2],[3,-6],[-35,-4],[12,3],[5,7],[-27,14],[22,-1],[-15,11],[21,0],[1,13],[-34,-1]],[[3521,3750],[4,18],[52,-12],[82,-54],[-67,-86],[-71,134]],[[3571,3722],[9,-21],[-5,14],[11,5],[-6,-9],[12,-17],[-9,16],[5,7],[-1,3],[-6,4],[4,16],[-6,9],[-8,-27]],[[3608,3664],[5,-1],[2,6],[-7,0],[0,-5]],[[3148,2640],[68,-4],[-23,-51],[56,42],[-3,33],[-17,-18],[-32,22],[35,27],[-6,-22],[34,-2],[30,44],[-7,-34],[36,49],[5,-48],[21,67],[23,-24],[-1,23],[22,-1],[7,-53],[18,9],[23,-36],[-31,-29],[-91,13],[62,-38],[-11,-33],[-35,36],[-27,-52],[22,-5],[-37,-45],[-12,24],[-28,-1],[3,-18],[-60,18],[-17,97],[-27,10]],[[3263,2629],[4,-6],[48,29],[-22,5],[-30,-28]],[[3322,2657],[30,11],[0,7],[-3,3],[-27,-21]],[[3298,3593],[7,49],[42,-29],[172,2],[59,-61],[23,-96],[-35,-22],[-21,94],[-42,49],[-118,12],[-35,-18],[-52,20]],[[861,3701],[40,21],[72,-61],[83,-29],[8,-37],[-110,14],[-93,92]],[[2844,3844],[36,8],[62,-18],[61,-72],[177,-45],[29,-13],[-9,-24],[-183,44],[-64,40],[-30,57],[-79,23]],[[437,4032],[19,27],[34,-38],[143,-51],[-16,-35],[-103,37],[-77,60]],[[2574,3842],[11,15],[246,-27],[-94,-67],[-59,17],[-35,51],[-69,11]],[[3389,1180],[45,28],[42,-7],[15,-38],[28,6],[0,-42],[-62,19],[-16,-41],[-52,75]],[[2050,2127],[9,19],[37,-11],[34,-20],[24,-36],[-22,65],[76,0],[-5,31],[34,-16],[53,-76],[-42,-58],[43,-44],[-24,-18],[26,1],[-11,-35],[-60,0],[9,28],[-58,77],[-42,7],[-13,73],[-68,13]],[[3737,2080],[56,26],[0,47],[80,-25],[-25,62],[59,32],[-26,6],[-2,45],[77,-29],[2,-44],[40,14],[-72,-61],[-1,-57],[-47,-2],[15,-23],[-32,-44],[-32,19],[-27,-3],[-4,-26],[-40,14],[-21,49]],[[2764,2418],[47,13],[-26,3],[13,58],[70,-12],[-10,-32],[38,4],[-10,-33],[-74,-40],[-48,39]],[[3877,3189],[25,11],[39,-26],[47,45],[4,-26],[62,0],[-40,-78],[-33,18],[-7,48],[-76,-41],[-21,49]],[[3437,3424],[24,54],[28,8],[-3,-21],[35,-5],[-9,-22],[32,1],[-17,-10],[15,-57],[-105,52]],[[3437,3727],[19,13],[-2,96],[39,-25],[0,22],[4,-24],[4,21],[20,-23],[-15,-32],[24,1],[-16,-38],[-12,12],[10,-61],[-75,38]],[[3200,2496],[11,25],[66,13],[0,-22],[51,-10],[-15,-20],[32,-36],[-38,-9],[-8,29],[-51,-32],[-48,62]],[[569,663],[4,7],[25,11],[9,10],[2,10],[5,4],[10,2],[9,24],[7,11],[6,5],[-23,5],[-11,-6],[-41,-2],[2,2],[132,18],[8,0],[11,-5],[0,3],[6,2],[35,4],[9,7],[7,2],[1,2],[20,7],[2,6],[13,0],[-1,5],[3,-8],[13,-6],[17,-17],[14,7],[7,-1],[218,-87],[2,-13],[21,-21],[5,-15],[21,-14],[41,-41],[6,-9],[14,2],[4,9],[3,3],[11,2],[7,0],[3,-5],[20,-3],[3,-3],[20,4],[32,-8],[8,7],[11,-3],[6,3],[16,0],[9,5],[7,-1],[15,7],[12,1],[3,-2],[12,6],[31,9],[6,5],[11,5],[31,-2],[2,-3],[8,8],[14,7],[6,17],[10,7],[88,19],[67,122],[12,84],[7,9],[7,1],[-3,18],[11,26],[4,0],[-3,4],[-1,18],[-2,1],[26,78],[26,17],[-22,27],[-4,20],[31,46],[-19,26],[5,36],[10,-3],[-6,5],[0,5],[5,1],[-1,5],[8,6],[-9,1],[-8,28],[13,28],[15,18],[4,-2],[-4,3],[0,5],[-5,-7],[9,27],[8,6],[-5,2],[1,10],[-2,-3],[-9,13],[6,27],[-21,22],[-31,132],[7,7],[-15,-2],[-14,6],[-1,7],[-4,-4],[-8,1],[-1,3],[-12,-6],[-30,31],[0,4],[5,8],[8,-1],[-4,3],[-1,4],[6,13],[-5,2],[-3,-7],[-4,0],[-30,31],[-1,11],[6,4],[-5,3],[-20,24],[1,11],[-7,-4],[-6,4],[-4,14],[3,8],[-10,1],[-3,25],[-7,-1],[-15,6],[-1,3],[-2,-2],[-2,24],[1,2],[3,-2],[-2,3],[1,9],[5,2],[-5,4],[2,11],[6,10],[-3,-1],[-3,2],[1,9],[-5,-3],[-20,9],[-13,13],[-29,102],[5,85],[3,6],[7,-2],[-7,5],[3,5],[4,-3],[-2,8],[4,11],[4,2],[-14,-4],[4,9],[-7,16],[3,4],[-14,3],[-1,3],[3,2],[-6,1],[0,5],[-13,0],[-31,28],[8,15],[-2,-1],[-6,5],[-10,28],[6,6],[-6,3],[-10,16],[-6,23],[-33,18],[-29,61],[-11,27],[12,9],[11,-1],[-24,23],[-6,17],[0,11],[7,1],[5,7],[3,-1],[-19,9],[-9,25],[2,7],[5,1],[-4,9],[6,9],[-65,8],[-20,30],[8,8],[13,-37],[66,-9],[-2,-18],[-7,-7],[27,-35],[-16,-11],[32,-45],[-5,-7],[-18,-4],[37,-41],[2,-44],[33,-19],[23,-42],[12,-38],[-9,-15],[62,-42],[15,-26],[-18,-105],[43,-59],[-15,13],[-3,6],[-12,13],[-3,1],[16,-87],[19,3],[27,-35],[-10,-8],[5,-22],[-7,-1],[1,-6],[-4,-3],[16,1],[8,-2],[10,-18],[-1,-14],[-5,-1],[1,-14],[11,-4],[1,-23],[13,1],[25,-39],[-6,-14],[29,-30],[7,6],[7,-3],[-2,-21],[-13,-9],[30,-30],[14,10],[41,-16],[45,-160],[12,-56],[-10,-2],[-1,-28],[-31,-47],[33,-17],[-27,-3],[10,-5],[-8,-15],[-4,0],[8,-7],[-7,-1],[4,-3],[-6,-2],[4,-6],[-4,-3],[2,-9],[-4,-5],[18,-22],[0,-14],[-3,-8],[-13,-8],[-1,-7],[-5,0],[-13,-26],[26,-38],[-51,-90],[4,-34],[-38,-132],[-64,-130],[-101,-18],[-24,-65],[3,39],[-8,-7],[-33,5],[-17,-11],[-42,-14],[-89,-17],[-51,4],[-24,6],[-9,5],[-18,-14],[-14,-2],[-68,64],[-38,46],[-160,65],[-11,-14],[-32,-20],[-8,-1],[-4,2],[-1,-2],[-7,-1],[-1,-5],[-4,-3],[-17,-3],[-13,1],[-11,5],[-8,-9],[-6,-2],[-11,-18],[4,-2],[3,-15],[-2,-18],[-4,-9],[-34,-44],[-27,-17],[-1,-56],[-2,55],[64,62],[-2,45],[11,18],[15,11],[37,-4],[6,3],[3,5],[7,4],[13,-1],[39,30],[-41,27],[-23,-5],[-25,21],[-11,0],[-1,3],[-48,-22],[-49,-11],[-11,7],[-59,-14],[1,-5],[-12,-13],[-2,-14],[-33,-40],[-31,-14]],[[1747,1162],[17,-22],[-4,-14],[5,0],[3,20],[-21,16]],[[1746,1166],[4,-1],[2,13],[-4,-2],[-2,-10]],[[1608,667],[2,-4],[3,4],[2,9],[-7,-9]],[[1552,1742],[2,-5],[21,-5],[4,-7],[3,3],[-10,29],[-20,-15]],[[1489,1931],[3,0],[1,2],[3,-6],[3,1],[-4,3],[-1,9],[-5,-9]],[[803,788],[10,2],[1,-3],[4,2],[-1,2],[-12,0],[-2,-3]],[[0,1176],[40,33],[-40,74],[139,40],[16,-142],[55,-8],[-23,-110],[109,-58],[-37,-34],[-122,6],[-74,-48],[4,-51],[-45,4],[4,50],[-26,0],[0,244]],[[940,2224],[112,-28],[25,-61],[82,-11],[1,-83],[386,118],[213,-8],[126,26],[7,-38],[56,-44],[-14,-9],[77,-49],[26,11],[34,-89],[-2,-30],[-96,-5],[51,-56],[-19,-28],[24,-44],[-35,-27],[29,-20],[-21,-35],[28,-21],[-16,-21],[44,-12],[8,29],[52,-16],[-20,-82],[67,-75],[-22,-35],[-94,-17],[17,-57],[-26,-65],[33,-7],[8,-54],[-48,19],[-118,-83],[-51,-7],[-115,27],[-27,30],[12,208],[-86,98],[16,27],[-43,31],[-44,95],[-49,25],[-47,-30],[-95,59],[-5,-25],[-30,26],[-17,-17],[-222,193],[-89,178],[-78,37],[-5,52]],[[1580,1870],[122,-78],[-33,-23],[34,-42],[1,-53],[49,-11],[-5,-70],[54,-68],[73,48],[-22,-134],[54,-5],[4,-60],[83,-4],[-4,60],[-23,8],[60,72],[-34,-15],[-2,22],[69,22],[-17,116],[-70,8],[-86,91],[-20,92],[-82,25],[-65,55],[-18,-42],[-46,23],[-11,-32],[-58,16],[-7,-21]]]}