{"objects":{"water":{"type":"GeometryCollection","geometries":[]},"buildings":{"type":"GeometryCollection","geometries":[]},"places":{"type":"GeometryCollection","geometries":[{"type":"Point","properties":{"name:pt":"Santa Cruz","name:ro":"Sfintei Cruci","name:ja":"\u30b7\u30d5\u30a3\u30a7\u30f3\u30c6\u30a3\u30af\u30b7\u30b7\u30e5\u770c","name:lt":"\u0160vento Kry\u017eiaus vaivadija","kind":"region","min_zoom":4.0,"name:it":"Santacroce","name:uk":"\u0421\u0432\u0435\u043d\u0442\u043e\u043a\u0448\u0438\u0441\u044c\u043a\u0435 \u0432\u043e\u0454\u0432\u043e\u0434\u0441\u0442\u0432\u043e","name:be":"\u0421\u0432\u0435\u043d\u0442\u0430\u043a\u0448\u044b\u0441\u043a\u0430\u0435 \u0432\u0430\u044f\u0432\u043e\u0434\u0441\u0442\u0432\u0430","name:ru":"\u0421\u0432\u0435\u043d\u0442\u043e\u043a\u0448\u0438\u0441\u043a\u043e\u0435 \u0432\u043e\u0435\u0432\u043e\u0434\u0441\u0442\u0432\u043e","id":1172157011,"population":1281796,"name:eo":"Sanktakruca Provinco","name:en":"Holy Cross","name":"wojew\u00f3dztwo \u015bwi\u0119tokrzyskie","kind_detail":"state","name:de":"Heiligkreuz","source":"openstreetmap.org","name:fr":"Sainte-Croix","name:et":"\u015awi\u0119ty Krzy\u017ci","name:es":"Santa Cruz"},"coordinates":[3191,65]},{"type":"Point","properties":{"name:he":"\u05e7\u05d9\u05d9\u05dc\u05e6\u05d4","name:lv":"Kelce","name:ja":"\u30ad\u30a7\u30eb\u30c4\u30a7","name:ka":"\u10d9\u10d4\u10da\u10ea\u10d4","name:ko":"\ud0a4\uc5d8\uccb4","name:ar":"\u0643\u064a\u0644\u0633\u064a","min_zoom":8.0,"name:uk":"\u041a\u0435\u043b\u044c\u0446\u0435","name:be":"\u041a\u0435\u0301\u043b\u044c\u0446\u044b","name:ru":"\u041a\u0435\u043b\u044c\u0446\u0435","name:bg":"\u041a\u0435\u043b\u0446\u0435","name":"Kielce","id":2110720553,"population":199870,"name:fa":"\u06a9\u06cc\u0644\u062a\u0633","kind":"locality","name:lt":"Kelcai","kind_detail":"city","name:sr":"\u041a\u0458\u0435\u043b\u0446\u0435","source":"openstreetmap.org","name:yi":"\u05e7\u05e2\u05dc\u05e5","name:zh":"\u51ef\u5c14\u91c7"},"coordinates":[2748,629]},{"type":"Point","properties":{"name:sr":"\u041f\u0458\u043e\u0442\u0440\u043a\u043e\u0432 \u0422\u0440\u0438\u0431\u0443\u043d\u0430\u043b\u0441\u043a\u0438","name:lv":"Pjotrkova Tribunalska","name:ja":"\u30d4\u30e7\u30fc\u30c8\u30eb\u30af\u30d5\u30fb\u30c8\u30eb\u30a3\u30d6\u30ca\u30eb\u30b9\u30ad","name:ms":"Piotrkow Trybunalski","name:ko":"\ud53c\uc624\ud2b8\ub974\ucfe0\ud504\ud2b8\ub9ac\ubd80\ub0a0\uc2a4\ud0a4","name:he":"\u05e4\u05d9\u05d5\u05d8\u05e8\u05e7\u05d5\u05d1 \u05d8\u05e8\u05d9\u05d1\u05d5\u05e0\u05dc\u05e1\u05e7\u05d9","name:tt":"\u041f\u0451\u0442\u0440\u043a\u0443\u0432-\u0422\u0440\u044b\u0431\u0443\u043d\u0430\u043b\u044c\u0441\u043a\u0438","name:th":"\u0e1b\u0e35\u0e22\u0e2d\u0e15\u0e23\u0e4c\u0e01\u0e38\u0e1f\u0e15\u0e23\u0e37\u0e2d\u0e1a\u0e39\u0e19\u0e31\u0e25\u0e2a\u0e01\u0e35","name:uk":"\u041f\u0439\u043e\u0442\u0440\u043a\u0443\u0432-\u0422\u0440\u0438\u0431\u0443\u043d\u0430\u043b\u044c\u0441\u044c\u043a\u0438\u0439","name:be":"\u0413\u043e\u0440\u0430\u0434 \u041f\u0451\u0442\u0440\u043a\u0430\u045e \u0422\u0440\u044b\u0431\u0443\u043d\u0430\u043b\u044c\u0441\u043a\u0456","name:ru":"\u041f\u0451\u0442\u0440\u043a\u0443\u0432-\u0422\u0440\u044b\u0431\u0443\u043d\u0430\u043b\u044c\u0441\u043a\u0438","name:bg":"\u041f\u044c\u043e\u0442\u044a\u0440\u043a\u043e\u0432 \u0422\u0440\u0438\u0431\u0443\u043d\u0430\u043b\u0441\u043a\u0438","name":"Piotrk\u00f3w Trybunalski","id":769235431,"population":75903,"name:fa":"\u067e\u06cc\u0648\u062a\u0631\u06a9\u0648\u0641 \u062a\u0631\u0628\u0648\u0646\u0627\u0644\u0633\u06a9\u06cc","kind":"locality","name:lt":"Petrakavas","kind_detail":"city","min_zoom":8.0,"name:de":"Petrikau","source":"openstreetmap.org","name:yi":"\u05e4\u05d9\u05e2\u05d8\u05e8\u05e7\u05d0\u05d5\u05d5","name:zh":"\u5f7c\u5f97\u5eab\u592b\u7279\u96f7\u5e03\u7d0d\u723e\u65af\u57fa"},"coordinates":[25,3121]},{"type":"Point","properties":{"kind":"locality","name":"Tomasz\u00f3w Mazowiecki","name:lt":"Mazovijos Toma\u0161uvas","kind_detail":"town","source":"openstreetmap.org","min_zoom":8.0,"name:uk":"\u0422\u043e\u043c\u0430\u0448\u0443\u0432-\u041c\u0430\u0437\u043e\u0432\u0435\u0446\u044c\u043a\u0438\u0439","name:ru":"\u0422\u043e\u043c\u0430\u0448\u0443\u0432-\u041c\u0430\u0437\u043e\u0432\u0435\u0446\u043a\u0438\u0439","id":31865024,"population":64893},"coordinates":[935,3695]},{"type":"Point","properties":{"name:lv":"Starahovice","name:lt":"Starachovic\u0117s","name:he":"\u05e1\u05d8\u05e8\u05d7\u05d5\u05d1\u05d9\u05e6\u05d4","name:tt":"\u0421\u0442\u0430\u0440\u0430\u0445\u043e\u0432\u0438\u0446\u0435","min_zoom":8.0,"name:uk":"\u0421\u0442\u0430\u0440\u0430\u0445\u043e\u0432\u0456\u0446\u0435","name:ru":"\u0421\u0442\u0430\u0440\u0430\u0445\u043e\u0432\u0438\u0446\u0435","name:bg":"\u0421\u0442\u0430\u0440\u0430\u0445\u043e\u0432\u0438\u0446\u0435","id":253554130,"name:mk":"\u0421\u0442\u0430\u0440\u0430\u0445\u043e\u0432\u0438\u0446\u0435","population":51158,"name:el":"\u03a3\u03c4\u03b1\u03c1\u03b1\u03c7\u03bf\u03b2\u03af\u03c4\u03c3\u03b5","kind":"locality","name":"Starachowice","kind_detail":"town","name:sr":"\u0421\u0442\u0430\u0440\u0430\u0445\u043e\u0432\u0438\u0446\u0435","source":"openstreetmap.org","name:zh":"\u65af\u5854\u62c9\u970d\u7dad\u91c7"},"coordinates":[4045,1466]},{"type":"Point","properties":{"kind":"locality","name:lv":"Skar\u017eisko-Kamenna","name":"Skar\u017cysko-Kamienna","name:lt":"Skar\u017eyskas-Kamena","kind_detail":"town","name:he":"\u05e1\u05e7\u05e8\u05d6'\u05d9\u05e1\u05e7\u05d5-\u05e7\u05de\u05d9\u05d9\u05e0\u05d4","name:sr":"\u0421\u043a\u0430\u0440\u0436\u0438\u0441\u043a\u043e-\u041a\u0430\u043c\u0458\u0435\u043d\u0430","source":"openstreetmap.org","min_zoom":8.0,"name:uk":"\u0421\u043a\u0430\u0440\u0436\u0438\u0441\u044c\u043a\u043e-\u041a\u0430\u043c\u0435\u043d\u043d\u0430","name:ru":"\u0421\u043a\u0430\u0440\u0436\u0438\u0441\u043a\u043e-\u041a\u0430\u043c\u0435\u043d\u043d\u0430","name:bg":"\u0421\u043a\u0430\u0440\u0436\u0438\u0441\u043a\u043e-\u041a\u0430\u043c\u0435\u043d\u043d\u0430","name:zh":"\u65af\u5361\u65e5\u65af\u79d1-\u5361\u7dec\u7d0d","id":31174958,"population":47538},"coordinates":[3409,1754]},{"type":"Point","properties":{"kind":"locality","name":"Opoczno","name:lt":"Opo\u010dnas","kind_detail":"town","source":"openstreetmap.org","min_zoom":8.0,"name:ru":"\u041e\u043f\u043e\u0447\u043d\u043e","id":31869732,"population":22188},"coordinates":[1745,2975]},{"type":"Point","properties":{"kind":"locality","name":"Ko\u0144skie","name:lt":"Konskiai","kind_detail":"town","source":"openstreetmap.org","min_zoom":8.0,"name:uk":"\u041a\u043e\u043d\u0441\u044c\u043a\u0435","name:ru":"\u041a\u043e\u043d\u044c\u0441\u043a\u0435","id":31874770,"population":20281},"coordinates":[2103,2125]},{"type":"Point","properties":{"kind":"locality","name:lv":"Suhed\u0146ova","name":"Suchedni\u00f3w","kind_detail":"town","name:he":"\u05e1\u05d5\u05d7\u05d3\u05e0\u05d9\u05d5\u05d1","name:sr":"\u0421\u0443\u0445\u0435\u0434\u045a\u043e\u0432","source":"openstreetmap.org","min_zoom":8.0,"name:uk":"\u0421\u0443\u0445\u0435\u0434\u043d\u044e\u0432","name:ru":"\u0421\u0443\u0445\u0435\u0434\u043d\u044e\u0432","name:zh":"\u8607\u6d77\u5fb7\u7d10\u592b","id":31865372,"population":8714},"coordinates":[3353,1444]},{"type":"Point","properties":{"kind":"locality","name":"Sulej\u00f3w","kind_detail":"town","source":"openstreetmap.org","min_zoom":8.0,"name:ru":"\u0421\u0443\u043b\u0435\u044e\u0432","id":31879358,"population":6349},"coordinates":[587,2874]},{"type":"Point","properties":{"kind":"locality","name:lv":"Stamporkova","name":"St\u0105pork\u00f3w","kind_detail":"town","min_zoom":8.0,"name:sr":"\u0421\u0442\u043e\u043c\u043f\u043e\u0440\u043a\u043e\u0432","source":"openstreetmap.org","name:fr":"St\u0105pork\u00f3w (ville)","name:uk":"\u0421\u0442\u043e\u043c\u043f\u043e\u0440\u043a\u0443\u0432","name:ru":"\u0421\u0442\u043e\u043c\u043f\u043e\u0440\u043a\u0443\u0432","id":31865852,"population":5996},"coordinates":[2533,1866]},{"type":"Point","properties":{"kind":"locality","name":"Ch\u0119ciny","kind_detail":"town","source":"openstreetmap.org","min_zoom":8.0,"name:ru":"\u0425\u0435\u043d\u0446\u0438\u043d\u044b","id":339828805,"population":4438},"coordinates":[2257,296]},{"type":"Point","properties":{"kind":"locality","name":"Drzewica","kind_detail":"town","source":"openstreetmap.org","min_zoom":8.0,"name:uk":"\u0414\u0436\u0435\u0432\u0438\u0446\u044f","name:ru":"\u0414\u0436\u0435\u0432\u0438\u0446\u0430","id":105491400,"population":4008},"coordinates":[2301,3319]},{"type":"Point","properties":{"kind":"locality","name":"Ma\u0142ogoszcz","kind_detail":"town","source":"openstreetmap.org","min_zoom":8.0,"name:ru":"\u041c\u0430\u043b\u043e\u0433\u043e\u0449","id":31890647,"population":3929},"coordinates":[1682,353]},{"type":"Point","properties":{"kind":"locality","name":"Nowe Miasto nad Pilic\u0105","kind_detail":"town","name:de":"Neumark an der Pilitza","source":"openstreetmap.org","min_zoom":8.0,"name:ru":"\u041d\u043e\u0432\u0435-\u041c\u044f\u0441\u0442\u043e-\u043d\u0430\u0434-\u041f\u0438\u043b\u0438\u0446\u0435\u0439","id":31870239,"population":3920},"coordinates":[2598,4090]},{"type":"Point","properties":{"name:fa":"\u067e\u0634\u062f\u0628\u0648\u0634","kind":"locality","name:lv":"P\u0161edbo\u017ea","name":"Przedb\u00f3rz","kind_detail":"town","name:he":"\u05e4\u05e9\u05d3\u05d1\u05d5\u05d6'","name:sr":"\u041f\u0448\u0435\u0434\u0431\u043e\u0436","source":"openstreetmap.org","min_zoom":8.0,"name:uk":"\u041f\u0448\u0435\u0434\u0431\u0443\u0436","name:ru":"\u041f\u0448\u0435\u0434\u0431\u0443\u0436","name:zh":"\u666e\u71b1\u5fb7\u5e03\u65e5","id":1854937038,"population":3800},"coordinates":[543,1631]},{"type":"Point","properties":{"kind":"locality","name":"Daleszyce","kind_detail":"town","source":"openstreetmap.org","min_zoom":8.0,"name:ru":"\u0414\u0430\u043b\u0435\u0448\u0438\u0446\u0435","id":31896315,"population":2932},"coordinates":[3260,304]},{"type":"Point","properties":{"kind":"locality","name:lv":"Vonhocka","name":"W\u0105chock","kind_detail":"town","name:he":"\u05d5\u05d5\u05e0\u05d7\u05d5\u05e6\u05e7","min_zoom":8.0,"name:sr":"\u0412\u043e\u043d\u0445\u043e\u0446\u043a","source":"openstreetmap.org","name:fr":"W\u0105chock (ville)","name:uk":"\u0412\u043e\u043d\u0445\u043e\u0446\u044c\u043a","name:ru":"\u0412\u043e\u043d\u0445\u043e\u0446\u043a","name:bg":"\u0412\u043e\u043d\u0445\u043e\u0446\u043a","name:zh":"\u7fc1\u970d\u8328\u514b","id":31864785,"population":2865},"coordinates":[3857,1567]},{"type":"Point","properties":{"kind":"locality","name":"Wolb\u00f3rz","kind_detail":"town","source":"openstreetmap.org","min_zoom":8.0,"name:ru":"\u0412\u043e\u043b\u044c\u0431\u0443\u0436","id":31878876,"population":2381},"coordinates":[416,3565]},{"type":"Point","properties":{"kind":"locality","name":"Bodzentyn","kind_detail":"town","source":"openstreetmap.org","min_zoom":8.0,"name:ru":"\u0411\u043e\u0434\u0437\u0435\u043d\u0442\u044b\u043d","id":31899213,"population":2274},"coordinates":[3699,950]},{"type":"Point","properties":{"source":"openstreetmap.org","kind":"locality","name":"Morawica","kind_detail":"town","population":1576,"min_zoom":8.0,"id":31889932},"coordinates":[2710,53]}]},"transit":{"type":"GeometryCollection","geometries":[{"type":"MultiLineString","properties":{"source":"openstreetmap.org","kind":"train","name":"KM 8","sort_rank":275,"ref":"KM 8","min_zoom":6.0,"osm_relation":true},"arcs":[[6],[7]]},{"type":"MultiLineString","properties":{"source":"openstreetmap.org","kind":"train","name":"Linia kolejowa w\u0105skotorowa nr 2012 Starachowice - I\u0142\u017ca","sort_rank":275,"min_zoom":6.0,"osm_relation":true},"arcs":[[8],[9],[10],[11],[12],[13]]},{"type":"MultiLineString","properties":{"kind":"train","name":"Linia kolejowa nr 61 Kielce - Fosowskie","sort_rank":275,"source":"openstreetmap.org","min_zoom":6.0,"operator":"PKP Polskie Linie Kolejowe S.A.","ref":"61","osm_relation":true,"network":"PKP"},"arcs":[[14],[15],[16]]},{"type":"MultiLineString","properties":{"source":"openstreetmap.org","kind":"train","name":"Linia 25","sort_rank":275,"ref":"25","min_zoom":6.0,"osm_relation":true},"arcs":[[17],[18],[19]]},{"type":"MultiLineString","properties":{"kind":"train","name":"Linia kolejowa nr 8 Warszawa Zachodnia - Krak\u00f3w G\u0142\u00f3wny Osobowy","sort_rank":275,"source":"openstreetmap.org","min_zoom":6.0,"operator":"PKP Polskie Linie Kolejowe S.A.","ref":"8","osm_relation":true,"network":"PKP"},"arcs":[[20],[21]]},{"type":"MultiLineString","properties":{"source":"openstreetmap.org","kind":"train","name":"KM 22","sort_rank":275,"ref":"KM 22","min_zoom":6.0,"osm_relation":true},"arcs":[[22],[23],[24],[25],[26],[27],[28],[29],[30],[31],[32],[33],[34],[35],[36],[37],[38],[39],[40],[41],[42],[43],[44],[45],[46],[47],[48],[49]]},{"type":"MultiLineString","properties":{"kind":"train","name":"Centralna Magistrala Kolejowa","sort_rank":275,"source":"openstreetmap.org","min_zoom":6.0,"operator":"PKP Polskie Linie Kolejowe S.A.","ref":"4","osm_relation":true,"network":"PKP"},"arcs":[[50],[51],[52]]}]},"pois":{"type":"GeometryCollection","geometries":[{"type":"Point","properties":{"kind":"national_park","protect_class":"2","area":35111200,"source":"openstreetmap.org","min_zoom":8.22,"tier":1,"id":-4524956,"osm_relation":true,"name":"\u015awi\u0119tokrzyski Park Narodowy"},"coordinates":[3345,941]},{"type":"Point","properties":{"kind":"nature_reserve","protect_class":"5","area":432986000,"source":"openstreetmap.org","min_zoom":7.91,"tier":2,"id":-4522414,"osm_relation":true,"name":"Sulejowski Park Krajobrazowy"},"coordinates":[720,2796]},{"type":"Point","properties":{"kind":"nature_reserve","protect_class":"5","area":337673000,"source":"openstreetmap.org","min_zoom":8.09,"tier":2,"id":-4522410,"osm_relation":true,"name":"Spalski Park Krajobrazowy"},"coordinates":[1850,3797]},{"type":"Point","properties":{"kind":"nature_reserve","protect_class":"5","area":308948000,"source":"openstreetmap.org","min_zoom":8.15,"tier":2,"id":-4522400,"osm_relation":true,"name":"Sieradowicki Park Krajobrazowy"},"coordinates":[3701,1300]},{"type":"Point","properties":{"kind":"nature_reserve","protect_class":"5","area":457517000,"source":"openstreetmap.org","min_zoom":7.87,"tier":2,"id":-4522384,"osm_relation":true,"name":"Suchedniowsko-Obl\u0119gorski Park Krajobrazowy"},"coordinates":[2920,1437]},{"type":"Point","properties":{"kind":"nature_reserve","protect_class":"5","area":416944000,"source":"openstreetmap.org","min_zoom":7.94,"tier":2,"id":-4522346,"osm_relation":true,"name":"Przedborski Park Krajobrazowy"},"coordinates":[753,1273]},{"type":"Point","properties":{"kind":"nature_reserve","protect_class":"5","area":518311000,"source":"openstreetmap.org","min_zoom":7.78,"tier":2,"id":-4522204,"osm_relation":true,"name":"Cisowsko-Or\u0142owi\u0144ski Park Krajobrazowy"},"coordinates":[3534,72]},{"type":"Point","properties":{"kind":"nature_reserve","protect_class":"5","area":443470000,"source":"openstreetmap.org","min_zoom":7.89,"tier":2,"id":-4522175,"osm_relation":true,"name":"Ch\u0119ci\u0144sko-Kielecki Park Krajobrazowy"},"coordinates":[2049,307]}]},"boundaries":{"type":"GeometryCollection","geometries":[{"type":"LineString","properties":{"name:left:la":"Silesia vaivodatus","alt_name:left:en":"Silesian Province","name:right:uk":"\u041b\u043e\u0434\u0437\u044c\u043a\u0435 \u0432\u043e\u0454\u0432\u043e\u0434\u0441\u0442\u0432\u043e","name:left:sv":"Schlesiens vojvodskap","name:left:sr":"\u0412\u043e\u0458\u0432\u043e\u0434\u0441\u0442\u0432\u043e \u0448\u043b\u0435\u0441\u043a\u043e","name:right:lt":"Lodz\u0117s vaivadija","name:left:sl":"\u0160lezijsko vojvodstvo","min_zoom":8.0,"name:left:lt":"Silezijos vaivadija","name:left:lv":"Sil\u0113zijas vojevodiste","name:left:hu":"Szil\u00e9ziai vajdas\u00e1g","name:left:hr":"\u0160lesko vojvodstvo","short_name:left":"\u015bl\u0105skie","sort_rank":256,"name:left:ca":"Voivodat de Sil\u00e8sia","name:left:gl":"Voivodato de Silesia","source":"openstreetmap.org","name:left:gv":"Queiggey ny Sileesh","loc_name:left":"\u015al\u0105sk","name:left:cs":"Slezsk\u00e9 vojvodstv\u00ed","name:left":"wojew\u00f3dztwo \u015bl\u0105skie","name:right:es":"Voivodato de \u0141\u00f3d\u017a","name:left:ka":"\u10e1\u10d8\u10da\u10d4\u10d6\u10d8\u10d8\u10e1 \u10e1\u10d0\u10d5\u10dd\u10d4\u10d5\u10dd\u10d3\u10dd","name:left:ko":"\uc2e4\ub871\uc2a4\ud06c \uc8fc","name:left:ro":"Voievodatul Silezia","name:right:ru":"\u041b\u043e\u0434\u0437\u0438\u043d\u0441\u043a\u043e\u0435 \u0432\u043e\u0435\u0432\u043e\u0434\u0441\u0442\u0432\u043e","name:left:ru":"\u0421\u0438\u043b\u0435\u0437\u0441\u043a\u043e\u0435 \u0432\u043e\u0435\u0432\u043e\u0434\u0441\u0442\u0432\u043e","name:left:oc":"Voivodat de Sil\u00e8sia","name:right:eo":"Lodza Provinco","name:right:en":"\u0141\u00f3d\u017a Voivodeship","name:left:nn":"Schlesiske voivodskap","kind":"region","name":"wojew\u00f3dztwo \u015bl\u0105skie - wojew\u00f3dztwo \u0142\u00f3dzkie","name:left:fi":"Sleesian voivodikunta","name:left:zh":"\u897f\u91cc\u897f\u4e9a\u7701","name:left:fr":"Sil\u00e9sie","alt_name:right:en":"\u0141\u00f3d\u017a Province","name:left:bs":"\u0160lesko vojvodstvo","name:right:nl":"Woiwodschap Lodz","name:right:ja":"\u30a6\u30c3\u30c1\u770c","name:right:fr":"\u0141\u00f3d\u017a","name:left:sk":"Sliezske vojvodstvo","name:right:sl":"Lodzsko vojvodstvo","name:left:ja":"\u30b7\u30ed\u30f3\u30b9\u30af\u770c","id:right":-224458,"name:left:uk":"\u0421\u0456\u043b\u0435\u0437\u044c\u043a\u0435 \u0432\u043e\u0454\u0432\u043e\u0434\u0441\u0442\u0432\u043e","name:left:no":"Schlesiske voivodskap","name:left:nl":"Woiwodschap Silezi\u00eb","name:left:bg":"\u0421\u0438\u043b\u0435\u0437\u043a\u043e \u0432\u043e\u0439\u0432\u043e\u0434\u0441\u0442\u0432\u043e","name:left:be":"\u0421\u0456\u043b\u0435\u0437\u0441\u043a\u0430\u0435 \u0432\u0430\u044f\u0432\u043e\u0434\u0441\u0442\u0432\u0430","name:right:be":"\u041b\u043e\u0434\u0437\u0456\u043d\u0441\u043a\u0430\u0435 \u0432\u0430\u044f\u0432\u043e\u0434\u0441\u0442\u0432\u0430","name:left:jv":"Provinsi Silesia","id":-224462,"name:right":"wojew\u00f3dztwo \u0142\u00f3dzkie","name:left:eo":"Silezia Provinco","name:left:en":"Silesian Voivodeship","kind_detail":"4","id:left":-224462,"name:left:es":"Voivodato de Silesia","name:right:cs":"Lod\u017esk\u00e9 vojvodstv\u00ed","name:left:eu":"Silesiako voivoderria","name:left:et":"Sileesia vojevoodkond","name:left:ar":"\u0645\u062d\u0627\u0641\u0638\u0629 \u0633\u064a\u0644\u064a\u0632\u064a\u0627","name:left:tr":"Silezya Voyvodal\u0131\u011f\u0131","name:left:id":"Provinsi Silesia","name:left:pt":"Voivodia da Sil\u00e9sia","name:left:mr":"\u0936\u094d\u0932\u094b\u0902\u0938\u094d\u0915\u093e \u092a\u094d\u0930\u093e\u0902\u0924","short_name:right":"\u0142\u00f3dzkie","name:left:it":"Voivodato della Slesia","name:left:is":"Sles\u00eda","osm_relation":true,"name:left:ms":"Wilayah Silesia","loc_name:right":"\u0141\u00f3dzkie","name:right:de":"Woiwodschaft Lodz","name:left:de":"Woiwodschaft Schlesien"},"arcs":[0]},{"type":"LineString","properties":{"name:left:la":"Silesia vaivodatus","alt_name:left:en":"Silesian Province","name:right:uk":"\u0421\u0432\u0435\u043d\u0442\u043e\u043a\u0448\u0438\u0441\u044c\u043a\u0435 \u0432\u043e\u0454\u0432\u043e\u0434\u0441\u0442\u0432\u043e","name:left:sv":"Schlesiens vojvodskap","name:left:sr":"\u0412\u043e\u0458\u0432\u043e\u0434\u0441\u0442\u0432\u043e \u0448\u043b\u0435\u0441\u043a\u043e","name:right:lt":"\u0160vento Kry\u017eiaus vaivadija","name:left:sl":"\u0160lezijsko vojvodstvo","min_zoom":8.0,"name:left:lt":"Silezijos vaivadija","name:left:lv":"Sil\u0113zijas vojevodiste","name:left:hu":"Szil\u00e9ziai vajdas\u00e1g","name:left:hr":"\u0160lesko vojvodstvo","short_name:left":"\u015bl\u0105skie","sort_rank":256,"name:left:ca":"Voivodat de Sil\u00e8sia","name:left:gl":"Voivodato de Silesia","source":"openstreetmap.org","name:left:gv":"Queiggey ny Sileesh","loc_name:left":"\u015al\u0105sk","name:left:cs":"Slezsk\u00e9 vojvodstv\u00ed","name:left":"wojew\u00f3dztwo \u015bl\u0105skie","name:right:es":"Voivodato de Santa Cruz","name:left:ka":"\u10e1\u10d8\u10da\u10d4\u10d6\u10d8\u10d8\u10e1 \u10e1\u10d0\u10d5\u10dd\u10d4\u10d5\u10dd\u10d3\u10dd","name:left:ko":"\uc2e4\ub871\uc2a4\ud06c \uc8fc","name:left:ro":"Voievodatul Silezia","name:right:ru":"\u0421\u0432\u0435\u043d\u0442\u043e\u043a\u0448\u0438\u0441\u043a\u043e\u0435 \u0432\u043e\u0435\u0432\u043e\u0434\u0441\u0442\u0432\u043e","name:left:ru":"\u0421\u0438\u043b\u0435\u0437\u0441\u043a\u043e\u0435 \u0432\u043e\u0435\u0432\u043e\u0434\u0441\u0442\u0432\u043e","name:left:oc":"Voivodat de Sil\u00e8sia","name:right:eo":"Sanktakruca Provinco","name:right:en":"\u015awi\u0119tokrzyskie Voivodeship","name:left:nn":"Schlesiske voivodskap","kind":"region","name":"wojew\u00f3dztwo \u015bl\u0105skie - wojew\u00f3dztwo \u015bwi\u0119tokrzyskie","name:left:fi":"Sleesian voivodikunta","name:left:zh":"\u897f\u91cc\u897f\u4e9a\u7701","name:left:fr":"Sil\u00e9sie","alt_name:right:en":"\u015awi\u0119tokrzyskie Province","name:left:bs":"\u0160lesko vojvodstvo","name:right:nl":"Woiwodschap Swiety Krzyz","name:right:ja":"\u30b7\u30d5\u30a3\u30a7\u30f3\u30c6\u30a3\u30af\u30b7\u30b7\u30e5\u770c","name:right:fr":"Sainte-Croix","name:left:sk":"Sliezske vojvodstvo","name:right:sl":"Svetokri\u0161ko vojvodstvo","name:left:ja":"\u30b7\u30ed\u30f3\u30b9\u30af\u770c","id:right":-130914,"name:left:uk":"\u0421\u0456\u043b\u0435\u0437\u044c\u043a\u0435 \u0432\u043e\u0454\u0432\u043e\u0434\u0441\u0442\u0432\u043e","name:left:no":"Schlesiske voivodskap","name:left:nl":"Woiwodschap Silezi\u00eb","name:left:bg":"\u0421\u0438\u043b\u0435\u0437\u043a\u043e \u0432\u043e\u0439\u0432\u043e\u0434\u0441\u0442\u0432\u043e","name:left:be":"\u0421\u0456\u043b\u0435\u0437\u0441\u043a\u0430\u0435 \u0432\u0430\u044f\u0432\u043e\u0434\u0441\u0442\u0432\u0430","name:right:be":"\u0421\u0432\u0435\u043d\u0442\u0430\u043a\u0448\u044b\u0441\u043a\u0430\u0435 \u0432\u0430\u044f\u0432\u043e\u0434\u0441\u0442\u0432\u0430","name:left:jv":"Provinsi Silesia","id":-224462,"name:right":"wojew\u00f3dztwo \u015bwi\u0119tokrzyskie","name:left:eo":"Silezia Provinco","name:left:en":"Silesian Voivodeship","kind_detail":"4","id:left":-224462,"name:left:es":"Voivodato de Silesia","name:right:cs":"Svatok\u0159\u00ed\u017esk\u00e9 vojvodstv\u00ed","name:left:eu":"Silesiako voivoderria","name:left:et":"Sileesia vojevoodkond","name:left:ar":"\u0645\u062d\u0627\u0641\u0638\u0629 \u0633\u064a\u0644\u064a\u0632\u064a\u0627","name:left:tr":"Silezya Voyvodal\u0131\u011f\u0131","name:left:id":"Provinsi Silesia","name:left:ms":"Wilayah Silesia","name:left:mr":"\u0936\u094d\u0932\u094b\u0902\u0938\u094d\u0915\u093e \u092a\u094d\u0930\u093e\u0902\u0924","short_name:right":"\u015bwi\u0119tokrzyskie","name:left:it":"Voivodato della Slesia","name:left:is":"Sles\u00eda","osm_relation":true,"name:left:pt":"Voivodia da Sil\u00e9sia","name:right:de":"Woiwodschaft Heiligkreuz","name:left:de":"Woiwodschaft Schlesien"},"arcs":[1]},{"type":"LineString","properties":{"name:right:nl":"Woiwodschap Mazovi\u00eb","name:right:ja":"\u30de\u30be\u30d5\u30b7\u30a7\u770c","loc_name:left":"\u0141\u00f3dzkie","alt_name:left:en":"\u0141\u00f3d\u017a Province","name:right:uk":"\u041c\u0430\u0437\u043e\u0432\u0435\u0446\u044c\u043a\u0435 \u0432\u043e\u0454\u0432\u043e\u0434\u0441\u0442\u0432\u043e","name:left:ja":"\u30a6\u30c3\u30c1\u770c","id:right":-130935,"name:right:lt":"Mazovijos vaivadija","name:left:sl":"Lodzsko vojvodstvo","min_zoom":8.0,"name:left:lt":"Lodz\u0117s vaivadija","alt_name:right:en":"Masovian Province","name:left:be":"\u041b\u043e\u0434\u0437\u0456\u043d\u0441\u043a\u0430\u0435 \u0432\u0430\u044f\u0432\u043e\u0434\u0441\u0442\u0432\u0430","name:right:fr":"Mazovie","id":-224458,"name:right":"wojew\u00f3dztwo mazowieckie","short_name:left":"\u0142\u00f3dzkie","name:left:eo":"Lodza Provinco","name:left:en":"\u0141\u00f3d\u017a Voivodeship","sort_rank":256,"kind_detail":"4","source":"openstreetmap.org","name:left:nl":"Woiwodschap Lodz","id:left":-224458,"name:left:es":"Voivodato de \u0141\u00f3d\u017a","name:right:cs":"Mazovsk\u00e9 vojvodstv\u00ed","name:left:cs":"Lod\u017esk\u00e9 vojvodstv\u00ed","name:left":"wojew\u00f3dztwo \u0142\u00f3dzkie","name:right:es":"Voivodato de Mazovia","kind":"region","name:right:ru":"\u041c\u0430\u0437\u043e\u0432\u0435\u0446\u043a\u043e\u0435 \u0432\u043e\u0435\u0432\u043e\u0434\u0441\u0442\u0432\u043e","name:left:ru":"\u041b\u043e\u0434\u0437\u0438\u043d\u0441\u043a\u043e\u0435 \u0432\u043e\u0435\u0432\u043e\u0434\u0441\u0442\u0432\u043e","short_name:right":"mazowieckie","name:right:eo":"Mazovia Provinco","name:right:en":"Masovian Voivodeship","osm_relation":true,"name:left:uk":"\u041b\u043e\u0434\u0437\u044c\u043a\u0435 \u0432\u043e\u0454\u0432\u043e\u0434\u0441\u0442\u0432\u043e","loc_name:right":"Mazowsze","name":"wojew\u00f3dztwo \u0142\u00f3dzkie - wojew\u00f3dztwo mazowieckie","name:right:de":"Woiwodschaft Masowien","name:left:de":"Woiwodschaft Lodz","name:right:be":"\u041c\u0430\u0437\u0430\u0432\u0435\u0446\u043a\u0430\u0435 \u0432\u0430\u044f\u0432\u043e\u0434\u0441\u0442\u0432\u0430","name:left:fr":"\u0141\u00f3d\u017a","name:right:sl":"Mazovijsko vojvodstvo"},"arcs":[2]},{"type":"LineString","properties":{"name:right:nl":"Woiwodschap Swiety Krzyz","name:right:ja":"\u30b7\u30d5\u30a3\u30a7\u30f3\u30c6\u30a3\u30af\u30b7\u30b7\u30e5\u770c","loc_name:left":"\u0141\u00f3dzkie","alt_name:left:en":"\u0141\u00f3d\u017a Province","name:right:uk":"\u0421\u0432\u0435\u043d\u0442\u043e\u043a\u0448\u0438\u0441\u044c\u043a\u0435 \u0432\u043e\u0454\u0432\u043e\u0434\u0441\u0442\u0432\u043e","name:left:ja":"\u30a6\u30c3\u30c1\u770c","id:right":-130914,"name:right:lt":"\u0160vento Kry\u017eiaus vaivadija","name:left:sl":"Lodzsko vojvodstvo","min_zoom":8.0,"name:left:lt":"Lodz\u0117s vaivadija","alt_name:right:en":"\u015awi\u0119tokrzyskie Province","name:left:be":"\u041b\u043e\u0434\u0437\u0456\u043d\u0441\u043a\u0430\u0435 \u0432\u0430\u044f\u0432\u043e\u0434\u0441\u0442\u0432\u0430","name:right:fr":"Sainte-Croix","id":-224458,"name:right":"wojew\u00f3dztwo \u015bwi\u0119tokrzyskie","short_name:left":"\u0142\u00f3dzkie","name:left:eo":"Lodza Provinco","name:left:en":"\u0141\u00f3d\u017a Voivodeship","sort_rank":256,"kind_detail":"4","source":"openstreetmap.org","name:left:nl":"Woiwodschap Lodz","id:left":-224458,"name:left:es":"Voivodato de \u0141\u00f3d\u017a","name:right:cs":"Svatok\u0159\u00ed\u017esk\u00e9 vojvodstv\u00ed","name:left:cs":"Lod\u017esk\u00e9 vojvodstv\u00ed","name:left":"wojew\u00f3dztwo \u0142\u00f3dzkie","name:right:es":"Voivodato de Santa Cruz","name:right:ru":"\u0421\u0432\u0435\u043d\u0442\u043e\u043a\u0448\u0438\u0441\u043a\u043e\u0435 \u0432\u043e\u0435\u0432\u043e\u0434\u0441\u0442\u0432\u043e","name:left:ru":"\u041b\u043e\u0434\u0437\u0438\u043d\u0441\u043a\u043e\u0435 \u0432\u043e\u0435\u0432\u043e\u0434\u0441\u0442\u0432\u043e","short_name:right":"\u015bwi\u0119tokrzyskie","name:right:eo":"Sanktakruca Provinco","name:right:en":"\u015awi\u0119tokrzyskie Voivodeship","osm_relation":true,"name:left:uk":"\u041b\u043e\u0434\u0437\u044c\u043a\u0435 \u0432\u043e\u0454\u0432\u043e\u0434\u0441\u0442\u0432\u043e","kind":"region","name":"wojew\u00f3dztwo \u0142\u00f3dzkie - wojew\u00f3dztwo \u015bwi\u0119tokrzyskie","name:right:de":"Woiwodschaft Heiligkreuz","name:left:de":"Woiwodschaft Lodz","name:right:be":"\u0421\u0432\u0435\u043d\u0442\u0430\u043a\u0448\u044b\u0441\u043a\u0430\u0435 \u0432\u0430\u044f\u0432\u043e\u0434\u0441\u0442\u0432\u0430","name:left:fr":"\u0141\u00f3d\u017a","name:right:sl":"Svetokri\u0161ko vojvodstvo"},"arcs":[3]},{"type":"MultiLineString","properties":{"name:right:nl":"Woiwodschap Swiety Krzyz","name:right:ja":"\u30b7\u30d5\u30a3\u30a7\u30f3\u30c6\u30a3\u30af\u30b7\u30b7\u30e5\u770c","loc_name:left":"Mazowsze","alt_name:left:en":"Masovian Province","name:right:uk":"\u0421\u0432\u0435\u043d\u0442\u043e\u043a\u0448\u0438\u0441\u044c\u043a\u0435 \u0432\u043e\u0454\u0432\u043e\u0434\u0441\u0442\u0432\u043e","name:left:ja":"\u30de\u30be\u30d5\u30b7\u30a7\u770c","id:right":-130914,"name:right:lt":"\u0160vento Kry\u017eiaus vaivadija","name:left:sl":"Mazovijsko vojvodstvo","min_zoom":8.0,"name:left:lt":"Mazovijos vaivadija","alt_name:right:en":"\u015awi\u0119tokrzyskie Province","name:left:be":"\u041c\u0430\u0437\u0430\u0432\u0435\u0446\u043a\u0430\u0435 \u0432\u0430\u044f\u0432\u043e\u0434\u0441\u0442\u0432\u0430","name:right:fr":"Sainte-Croix","id":-130935,"name:right":"wojew\u00f3dztwo \u015bwi\u0119tokrzyskie","short_name:left":"mazowieckie","name:left:eo":"Mazovia Provinco","name:left:en":"Masovian Voivodeship","sort_rank":256,"kind_detail":"4","source":"openstreetmap.org","name:left:nl":"Woiwodschap Mazovi\u00eb","id:left":-130935,"name:left:es":"Voivodato de Mazovia","name:right:cs":"Svatok\u0159\u00ed\u017esk\u00e9 vojvodstv\u00ed","name:left:cs":"Mazovsk\u00e9 vojvodstv\u00ed","name:left":"wojew\u00f3dztwo mazowieckie","name:right:es":"Voivodato de Santa Cruz","name:right:ru":"\u0421\u0432\u0435\u043d\u0442\u043e\u043a\u0448\u0438\u0441\u043a\u043e\u0435 \u0432\u043e\u0435\u0432\u043e\u0434\u0441\u0442\u0432\u043e","name:left:ru":"\u041c\u0430\u0437\u043e\u0432\u0435\u0446\u043a\u043e\u0435 \u0432\u043e\u0435\u0432\u043e\u0434\u0441\u0442\u0432\u043e","short_name:right":"\u015bwi\u0119tokrzyskie","name:right:eo":"Sanktakruca Provinco","name:right:en":"\u015awi\u0119tokrzyskie Voivodeship","osm_relation":true,"name:left:uk":"\u041c\u0430\u0437\u043e\u0432\u0435\u0446\u044c\u043a\u0435 \u0432\u043e\u0454\u0432\u043e\u0434\u0441\u0442\u0432\u043e","kind":"region","name":"wojew\u00f3dztwo mazowieckie - wojew\u00f3dztwo \u015bwi\u0119tokrzyskie","name:right:de":"Woiwodschaft Heiligkreuz","name:left:de":"Woiwodschaft Masowien","name:right:be":"\u0421\u0432\u0435\u043d\u0442\u0430\u043a\u0448\u044b\u0441\u043a\u0430\u0435 \u0432\u0430\u044f\u0432\u043e\u0434\u0441\u0442\u0432\u0430","name:left:fr":"Mazovie","name:right:sl":"Svetokri\u0161ko vojvodstvo"},"arcs":[[4],[5]]}]},"roads":{"type":"GeometryCollection","geometries":[{"type":"MultiLineString","properties":{"bus_network":"Kielce","network":"pl:national","sort_rank":380,"kind_detail":"primary","kind":"major_road","source":"openstreetmap.org","min_zoom":8.0,"bus_shield_text":"4","shield_text":"74","landuse_kind":"urban_area","ref":"74"},"arcs":[[53],[54]]},{"type":"MultiLineString","properties":{"kind":"path","sort_rank":354,"landuse_kind":"nature_reserve","is_bicycle_related":true,"bicycle_shield_text":"GV","bicycle_network":"ncn","source":"openstreetmap.org","min_zoom":8.0,"kind_detail":"cycleway"},"arcs":[[55],[56]]},{"type":"MultiLineString","properties":{"bus_network":"Kielce","network":"pl:national","sort_rank":380,"kind_detail":"primary","kind":"major_road","source":"openstreetmap.org","min_zoom":8.0,"bus_shield_text":"2","shield_text":"73","landuse_kind":"nature_reserve","ref":"73"},"arcs":[[57],[58]]},{"type":"LineString","properties":{"bus_network":"MZDiK Radom","network":"pl:national","sort_rank":380,"kind_detail":"primary","is_bicycle_related":true,"kind":"major_road","bicycle_shield_text":"R11","bicycle_network":"icn","source":"openstreetmap.org","min_zoom":8.0,"bus_shield_text":"5","shield_text":"7","ref":"7"},"arcs":[59]},{"type":"MultiLineString","properties":{"kind":"major_road","network":"pl:national","sort_rank":380,"kind_detail":"primary","source":"openstreetmap.org","min_zoom":8.0,"landuse_kind":"nature_reserve","shield_text":"48","ref":"48"},"arcs":[[60],[61],[62]]},{"type":"MultiLineString","properties":{"kind":"major_road","network":"pl:national","sort_rank":380,"kind_detail":"primary","source":"openstreetmap.org","min_zoom":8.0,"landuse_kind":"urban_area","shield_text":"12","ref":"12;74"},"arcs":[[63],[64],[65],[66],[67],[68]]},{"type":"LineString","properties":{"kind":"major_road","network":"pl:national","sort_rank":380,"kind_detail":"primary","bus_network":"Piotrk\u00f3w Trybunalski","source":"openstreetmap.org","min_zoom":8.0,"bus_shield_text":"2","shield_text":"12","landuse_kind":"urban_area","ref":"12;74","id":547007695},"arcs":[69]},{"type":"MultiLineString","properties":{"kind":"major_road","network":"pl:national","sort_rank":381,"kind_detail":"trunk","source":"openstreetmap.org","min_zoom":8.0,"shield_text":"74","ref":"S74"},"arcs":[[70],[71]]},{"type":"LineString","properties":{"kind":"path","sort_rank":354,"kind_detail":"track","is_bicycle_related":true,"bicycle_shield_text":"R11","bicycle_network":"icn","source":"openstreetmap.org","min_zoom":8.0},"arcs":[72]},{"type":"MultiLineString","properties":{"kind":"minor_road","sort_rank":358,"landuse_kind":"nature_reserve","is_bicycle_related":true,"bicycle_shield_text":"GV","bicycle_network":"ncn","source":"openstreetmap.org","min_zoom":8.0,"kind_detail":"service"},"arcs":[[73],[74]]},{"type":"MultiLineString","properties":{"bus_network":"Piotrk\u00f3w Trybunalski","network":"pl:national","sort_rank":380,"kind_detail":"primary","kind":"major_road","source":"openstreetmap.org","min_zoom":8.0,"bus_shield_text":"6","shield_text":"91","landuse_kind":"urban_area","ref":"91"},"arcs":[[75],[76]]},{"type":"MultiLineString","properties":{"bus_network":"Kielce","network":"pl:national","sort_rank":380,"kind_detail":"primary","kind":"major_road","source":"openstreetmap.org","min_zoom":8.0,"bus_shield_text":"2","shield_text":"73","ref":"73"},"arcs":[[77],[78],[79],[80]]},{"type":"LineString","properties":{"kind":"major_road","network":"pl:national","sort_rank":380,"kind_detail":"primary","bus_network":"MZDiK Radom","source":"openstreetmap.org","min_zoom":8.0,"bus_shield_text":"5","shield_text":"7","id":479753968},"arcs":[81]},{"type":"LineString","properties":{"kind":"minor_road","sort_rank":360,"landuse_kind":"nature_reserve","is_bicycle_related":true,"bicycle_shield_text":"GV","bicycle_network":"ncn","source":"openstreetmap.org","min_zoom":8.0,"kind_detail":"unclassified"},"arcs":[82]},{"type":"MultiLineString","properties":{"kind":"major_road","network":"pl:national","sort_rank":381,"kind_detail":"trunk","source":"openstreetmap.org","min_zoom":8.0,"landuse_kind":"nature_reserve","shield_text":"7","ref":"S7"},"arcs":[[83],[84],[85],[86],[87],[88],[89],[90],[91],[92]]},{"type":"LineString","properties":{"bus_network":"MPK Kielce","network":"pl:national","sort_rank":380,"kind_detail":"primary","kind":"major_road","source":"openstreetmap.org","min_zoom":8.0,"bus_shield_text":"206","shield_text":"74","landuse_kind":"nature_reserve","ref":"74"},"arcs":[93]},{"type":"MultiLineString","properties":{"bus_network":null,"network":"pl:national","sort_rank":380,"kind_detail":"primary","kind":"major_road","source":"openstreetmap.org","min_zoom":8.0,"bus_shield_text":"25","shield_text":"42","ref":"42"},"arcs":[[94],[95],[96]]},{"type":"LineString","properties":{"kind":"major_road","network":"pl:national","sort_rank":380,"kind_detail":"primary","bus_network":"Tomasz\u00f3w Mazowiecki","source":"openstreetmap.org","min_zoom":8.0,"bus_shield_text":"22","shield_text":"48","landuse_kind":"urban_area","ref":"48;713","id":436456378},"arcs":[97]},{"type":"MultiLineString","properties":{"bus_network":"Tomasz\u00f3w Mazowiecki","network":"pl:national","sort_rank":380,"kind_detail":"primary","kind":"major_road","source":"openstreetmap.org","min_zoom":8.0,"bus_shield_text":"2","shield_text":"48","landuse_kind":"urban_area","ref":"48"},"arcs":[[98],[99],[100]]},{"type":"LineString","properties":{"bus_network":"ZTM Kielce","sort_rank":380,"kind_detail":"primary","kind":"major_road","source":"openstreetmap.org","min_zoom":8.0,"bus_shield_text":"102","landuse_kind":"urban_area"},"arcs":[101]},{"type":"LineString","properties":{"sort_rank":380,"kind_detail":"primary","min_zoom":8.0,"kind":"major_road","source":"openstreetmap.org"},"arcs":[102]},{"type":"MultiLineString","properties":{"kind":"major_road","sort_rank":377,"kind_detail":"tertiary","is_bicycle_related":true,"bicycle_shield_text":"GV","bicycle_network":"ncn","source":"openstreetmap.org","min_zoom":8.0,"ref":"0286T"},"arcs":[[103],[104]]},{"type":"LineString","properties":{"kind":"major_road","network":"pl:national","sort_rank":380,"kind_detail":"primary","source":"openstreetmap.org","min_zoom":8.0,"shield_text":"42","ref":"42;728","id":255161269},"arcs":[105]},{"type":"LineString","properties":{"kind":"major_road","sort_rank":377,"kind_detail":"tertiary","is_bicycle_related":true,"bicycle_shield_text":"GV","bicycle_network":"ncn","source":"openstreetmap.org","min_zoom":8.0,"ref":"0490T"},"arcs":[106]},{"type":"LineString","properties":{"kind":"minor_road","sort_rank":360,"kind_detail":"living_street","is_bicycle_related":true,"bicycle_shield_text":"GV","bicycle_network":"ncn","source":"openstreetmap.org","min_zoom":8.0,"landuse_kind":"urban_area","id":328261573},"arcs":[107]},{"type":"LineString","properties":{"bus_network":"Kielce","network":"pl:national","sort_rank":380,"kind_detail":"primary","kind":"major_road","source":"openstreetmap.org","min_zoom":8.0,"bus_shield_text":"34","shield_text":"73","landuse_kind":"urban_area","ref":"73"},"arcs":[108]},{"type":"MultiLineString","properties":{"source":"openstreetmap.org","kind":"major_road","network":"pl:national","sort_rank":380,"kind_detail":"primary","min_zoom":8.0,"shield_text":"7"},"arcs":[[109],[110]]},{"type":"MultiLineString","properties":{"kind":"major_road","network":"pl:national","sort_rank":380,"kind_detail":"primary","source":"openstreetmap.org","min_zoom":8.0,"shield_text":"74","ref":"S74"},"arcs":[[111],[112]]},{"type":"LineString","properties":{"kind":"minor_road","sort_rank":358,"kind_detail":"service","is_bicycle_related":true,"bicycle_shield_text":"GV","bicycle_network":"ncn","source":"openstreetmap.org","min_zoom":8.0,"id":72209780},"arcs":[113]},{"type":"LineString","properties":{"bus_network":"Kielce","sort_rank":377,"kind_detail":"tertiary","is_bicycle_related":true,"kind":"major_road","bicycle_shield_text":"GV","bicycle_network":"ncn","source":"openstreetmap.org","min_zoom":8.0,"bus_shield_text":"40","ref":"0983T"},"arcs":[114]},{"type":"MultiLineString","properties":{"kind":"major_road","network":"historical","sort_rank":381,"kind_detail":"trunk","source":"openstreetmap.org","min_zoom":8.0,"landuse_kind":"nature_reserve","shield_text":null,"ref":"S8"},"arcs":[[115],[116]]},{"type":"MultiLineString","properties":{"bus_network":"Kielce","sort_rank":380,"kind_detail":"primary","kind":"major_road","source":"openstreetmap.org","min_zoom":8.0,"bus_shield_text":"4","landuse_kind":"urban_area"},"arcs":[[117],[118]]},{"type":"MultiLineString","properties":{"kind":"major_road","network":"pl:national","sort_rank":380,"kind_detail":"primary","source":"openstreetmap.org","min_zoom":8.0,"shield_text":"48","ref":"48"},"arcs":[[119],[120],[121],[122],[123],[124],[125],[126],[127],[128],[129],[130],[131],[132],[133],[134],[135],[136],[137],[138]]},{"type":"LineString","properties":{"kind":"path","footway":"crossing","sort_rank":354,"kind_detail":"footway","is_bicycle_related":true,"bicycle_shield_text":"GV","bicycle_network":"ncn","source":"openstreetmap.org","min_zoom":8.0,"landuse_kind":"urban_area","id":180239695},"arcs":[139]},{"type":"MultiLineString","properties":{"kind":"minor_road","cycleway_left":"opposite_lane","sort_rank":360,"kind_detail":"residential","is_bicycle_related":true,"bicycle_shield_text":"GV","cycleway":"opposite_lane","source":"openstreetmap.org","min_zoom":8.0,"bicycle_network":"ncn"},"arcs":[[140],[141]]},{"type":"LineString","properties":{"bus_network":null,"network":"pl:national","sort_rank":380,"kind_detail":"primary","kind":"major_road","source":"openstreetmap.org","min_zoom":8.0,"bus_shield_text":"9","shield_text":"7","ref":"7"},"arcs":[142]},{"type":"MultiLineString","properties":{"kind":"major_road","network":"pl:national","sort_rank":380,"kind_detail":"primary","source":"openstreetmap.org","min_zoom":8.0,"landuse_kind":"urban_area","shield_text":"42"},"arcs":[[143],[144]]},{"type":"MultiLineString","properties":{"kind":"major_road","network":"pl:national","sort_rank":380,"kind_detail":"primary","source":"openstreetmap.org","min_zoom":8.0,"landuse_kind":"urban_area","shield_text":"7","ref":"7"},"arcs":[[145],[146],[147]]},{"type":"MultiLineString","properties":{"bus_network":"Piotrk\u00f3w Trybunalski","network":"pl:national","sort_rank":380,"kind_detail":"primary","kind":"major_road","source":"openstreetmap.org","min_zoom":8.0,"bus_shield_text":"6","shield_text":"12","ref":"12;74"},"arcs":[[148],[149],[150],[151],[152]]},{"type":"LineString","properties":{"kind":"major_road","network":"pl:national","sort_rank":380,"kind_detail":"primary","bus_network":"MZDiK Radom","source":"openstreetmap.org","min_zoom":8.0,"bus_shield_text":"8","shield_text":"12","ref":"12","id":32714669},"arcs":[153]},{"type":"LineString","properties":{"kind":"minor_road","cycleway_left":"opposite_lane","sort_rank":360,"kind_detail":"residential","is_bicycle_related":true,"bicycle_shield_text":"GV","cycleway":"opposite_lane","source":"openstreetmap.org","min_zoom":8.0,"landuse_kind":"urban_area","bicycle_network":"ncn","id":384046707},"arcs":[154]},{"type":"MultiLineString","properties":{"kind":"path","sort_rank":354,"kind_detail":"path","is_bicycle_related":true,"bicycle_shield_text":"GV","bicycle_network":"ncn","source":"openstreetmap.org","min_zoom":8.0},"arcs":[[155],[156]]},{"type":"LineString","properties":{"kind":"major_road","network":"pl:national","sort_rank":380,"kind_detail":"primary","bus_network":"Piotrk\u00f3w Trybunalski","source":"openstreetmap.org","min_zoom":8.0,"bus_shield_text":null,"shield_text":"12","landuse_kind":"urban_area","ref":"12;74","id":89835267},"arcs":[157]},{"type":"MultiLineString","properties":{"bus_network":"Kielce","network":"pl:national","sort_rank":380,"kind_detail":"primary","kind":"major_road","source":"openstreetmap.org","min_zoom":8.0,"bus_shield_text":"1","shield_text":"73","landuse_kind":"urban_area","ref":"73"},"arcs":[[158],[159]]},{"type":"MultiLineString","properties":{"kind":"major_road","network":"pl:national","sort_rank":381,"landuse_kind":"urban_area","source":"openstreetmap.org","min_zoom":8.0,"kind_detail":"trunk","shield_text":"7","ref":"S7"},"arcs":[[160],[161],[162]]},{"type":"MultiLineString","properties":{"kind":"major_road","network":"pl:national","sort_rank":380,"kind_detail":"primary","source":"openstreetmap.org","min_zoom":8.0,"shield_text":"74","ref":"74"},"arcs":[[163],[164],[165],[166],[167],[168],[169],[170],[171],[172],[173],[174],[175],[176],[177],[178],[179],[180],[181],[182],[183],[184]]},{"type":"LineString","properties":{"bus_network":"Kielce","network":"pl:regional","sort_rank":379,"kind_detail":"secondary","is_bicycle_related":true,"kind":"major_road","bicycle_shield_text":"GV","bicycle_network":"ncn","source":"openstreetmap.org","min_zoom":8.0,"bus_shield_text":"18","shield_text":"786","ref":"786"},"arcs":[185]},{"type":"LineString","properties":{"kind":"major_road","network":"e-road","sort_rank":380,"kind_detail":"primary","source":"openstreetmap.org","min_zoom":8.0,"shield_text":"77","id":299524035},"arcs":[186]},{"type":"LineString","properties":{"bus_network":"Kielce","network":"pl:national","sort_rank":380,"kind_detail":"primary","kind":"major_road","source":"openstreetmap.org","min_zoom":8.0,"bus_shield_text":"4","shield_text":"73","landuse_kind":"urban_area"},"arcs":[187]},{"type":"LineString","properties":{"kind":"major_road","network":"pl:national","sort_rank":380,"kind_detail":"primary","bus_network":null,"source":"openstreetmap.org","min_zoom":8.0,"bus_shield_text":"14","shield_text":"42","ref":"42","id":212763215},"arcs":[188]},{"type":"MultiLineString","properties":{"kind":"major_road","network":"pl:national","sort_rank":381,"landuse_kind":"urban_area","source":"openstreetmap.org","min_zoom":8.0,"kind_detail":"trunk","shield_text":"74","ref":"S74"},"arcs":[[189],[190]]},{"type":"MultiLineString","properties":{"kind":"major_road","network":"pl:national","sort_rank":380,"kind_detail":"primary","source":"openstreetmap.org","min_zoom":8.0,"landuse_kind":"urban_area","shield_text":"48","ref":"48"},"arcs":[[191],[192],[193],[194],[195],[196],[197],[198],[199],[200],[201],[202],[203]]},{"type":"MultiLineString","properties":{"kind":"major_road","network":"pl:national","sort_rank":380,"kind_detail":"primary","source":"openstreetmap.org","min_zoom":8.0,"shield_text":"12","ref":"12;74"},"arcs":[[204],[205],[206],[207],[208],[209]]},{"type":"MultiLineString","properties":{"kind":"major_road","network":"pl:expressways","sort_rank":381,"landuse_kind":"urban_area","source":"openstreetmap.org","min_zoom":8.0,"kind_detail":"trunk","shield_text":"74"},"arcs":[[210],[211]]},{"type":"LineString","properties":{"kind":"major_road","sort_rank":380,"kind_detail":"primary","is_bicycle_related":true,"bicycle_shield_text":null,"bicycle_network":"lcn","source":"openstreetmap.org","min_zoom":8.0,"id":339561494},"arcs":[212]},{"type":"MultiLineString","properties":{"kind":"major_road","network":"pl:national","sort_rank":380,"kind_detail":"primary","bus_network":"Kielce","source":"openstreetmap.org","min_zoom":8.0,"bus_shield_text":"7","shield_text":"73","ref":"73"},"arcs":[[213],[214]]},{"type":"MultiLineString","properties":{"bus_network":"Kielce","network":"pl:national","sort_rank":380,"kind_detail":"primary","kind":"major_road","source":"openstreetmap.org","min_zoom":8.0,"bus_shield_text":"14","shield_text":"74","ref":"74"},"arcs":[[215],[216],[217]]},{"type":"MultiLineString","properties":{"bus_network":"Piotrk\u00f3w Trybunalski","network":"pl:national","sort_rank":380,"kind_detail":"primary","kind":"major_road","source":"openstreetmap.org","min_zoom":8.0,"bus_shield_text":"4","shield_text":"12","landuse_kind":"urban_area","ref":"12;74;91"},"arcs":[[218],[219],[220],[221],[222]]},{"type":"LineString","properties":{"bus_network":"Kielce","sort_rank":377,"kind_detail":"tertiary","is_bicycle_related":true,"kind":"major_road","bicycle_shield_text":"GV","bicycle_network":"ncn","source":"openstreetmap.org","min_zoom":8.0,"bus_shield_text":"18","ref":"0285T"},"arcs":[223]},{"type":"LineString","properties":{"kind":"major_road","network":"pl:national","sort_rank":380,"kind_detail":"primary","source":"openstreetmap.org","min_zoom":8.0,"landuse_kind":"nature_reserve","shield_text":"42","ref":"42","id":187444654},"arcs":[224]},{"type":"MultiLineString","properties":{"kind":"path","sort_rank":354,"landuse_kind":"urban_area","is_bicycle_related":true,"bicycle_shield_text":"GV","bicycle_network":"ncn","source":"openstreetmap.org","min_zoom":8.0,"kind_detail":"path"},"arcs":[[225],[226],[227],[228],[229],[230],[231]]},{"type":"LineString","properties":{"kind":"major_road","sort_rank":377,"kind_detail":"tertiary","is_bicycle_related":true,"bicycle_shield_text":"GV","bicycle_network":"ncn","source":"openstreetmap.org","min_zoom":8.0,"ref":"0285T"},"arcs":[232]},{"type":"MultiLineString","properties":{"bus_network":"Kielce","network":"pl:national","sort_rank":380,"kind_detail":"primary","kind":"major_road","source":"openstreetmap.org","min_zoom":8.0,"bus_shield_text":"30","shield_text":"73","landuse_kind":"urban_area","ref":"73"},"arcs":[[233],[234]]},{"type":"LineString","properties":{"kind":"major_road","network":"pl:national","sort_rank":380,"kind_detail":"primary","bus_network":"Starachowice","source":"openstreetmap.org","min_zoom":8.0,"bus_shield_text":"N","shield_text":"42","landuse_kind":"urban_area","ref":"42","id":240448798},"arcs":[235]},{"type":"LineString","properties":{"kind":"major_road","sort_rank":380,"kind_detail":"primary","bus_network":"MPK Kielce","source":"openstreetmap.org","min_zoom":8.0,"bus_shield_text":"200","ref":"74","id":300370418},"arcs":[236]},{"type":"MultiLineString","properties":{"kind":"major_road","network":"pl:national","sort_rank":380,"kind_detail":"primary","source":"openstreetmap.org","min_zoom":8.0,"landuse_kind":"urban_area","shield_text":"74","ref":"74"},"arcs":[[237],[238],[239],[240]]},{"type":"MultiLineString","properties":{"kind":"major_road","network":"pl:national","sort_rank":380,"kind_detail":"primary","is_bicycle_related":true,"bicycle_shield_text":"SG","bicycle_network":"rcn","source":"openstreetmap.org","min_zoom":8.0,"shield_text":"74","ref":"74"},"arcs":[[241],[242],[243],[244]]},{"type":"MultiLineString","properties":{"kind":"major_road","network":"historical","sort_rank":381,"landuse_kind":"urban_area","source":"openstreetmap.org","min_zoom":8.0,"kind_detail":"trunk","shield_text":null,"ref":"S8"},"arcs":[[245],[246],[247],[248],[249],[250]]},{"type":"MultiLineString","properties":{"kind":"path","sort_rank":354,"landuse_kind":"urban_area","is_bicycle_related":true,"bicycle_shield_text":"GV","bicycle_network":"ncn","source":"openstreetmap.org","min_zoom":8.0,"kind_detail":"track"},"arcs":[[251],[252]]},{"type":"MultiLineString","properties":{"bus_network":"Kielce","network":"pl:national","sort_rank":380,"kind_detail":"primary","kind":"major_road","source":"openstreetmap.org","min_zoom":8.0,"bus_shield_text":"45","shield_text":"73","landuse_kind":"urban_area","ref":"73"},"arcs":[[253],[254]]},{"type":"LineString","properties":{"kind":"major_road","network":"pl:regional","sort_rank":380,"kind_detail":"primary","source":"openstreetmap.org","min_zoom":8.0,"landuse_kind":"urban_area","shield_text":"716","ref":"716"},"arcs":[255]},{"type":"LineString","properties":{"kind":"major_road","network":"pl:national","sort_rank":380,"kind_detail":"primary","is_bicycle_related":true,"bicycle_shield_text":"SRWK","bicycle_network":"lcn","source":"openstreetmap.org","min_zoom":8.0,"shield_text":"42","ref":"42"},"arcs":[256]},{"type":"MultiLineString","properties":{"kind":"major_road","network":"pl:national","sort_rank":380,"kind_detail":"primary","is_bicycle_related":true,"bicycle_shield_text":null,"bicycle_network":"rcn","source":"openstreetmap.org","min_zoom":8.0,"shield_text":"42","ref":"42"},"arcs":[[257],[258],[259],[260]]},{"type":"MultiLineString","properties":{"bus_network":"Kielce","network":"pl:national","sort_rank":380,"kind_detail":"primary","kind":"major_road","source":"openstreetmap.org","min_zoom":8.0,"bus_shield_text":"9","shield_text":"74","landuse_kind":"urban_area","ref":"74"},"arcs":[[261],[262],[263],[264]]},{"type":"LineString","properties":{"kind":"major_road","sort_rank":377,"kind_detail":"tertiary","is_bicycle_related":true,"bicycle_shield_text":"GV","bicycle_network":"ncn","source":"openstreetmap.org","min_zoom":8.0,"ref":"0487T"},"arcs":[265]},{"type":"MultiLineString","properties":{"bus_network":"MPK Kielce","network":"pl:national","sort_rank":380,"kind_detail":"primary","kind":"major_road","source":"openstreetmap.org","min_zoom":8.0,"bus_shield_text":"200","shield_text":"74","ref":"74"},"arcs":[[266],[267],[268]]},{"type":"MultiLineString","properties":{"kind":"major_road","network":"e-road","sort_rank":381,"kind_detail":"trunk","source":"openstreetmap.org","min_zoom":8.0,"shield_text":"67","ref":"S8"},"arcs":[[269],[270]]},{"type":"LineString","properties":{"bus_network":"Kielce","network":"pl:national","sort_rank":381,"landuse_kind":"urban_area","kind":"major_road","source":"openstreetmap.org","min_zoom":8.0,"bus_shield_text":"4","shield_text":"74","kind_detail":"trunk","ref":"74"},"arcs":[271]},{"type":"MultiLineString","properties":{"kind":"minor_road","sort_rank":360,"landuse_kind":"nature_reserve","is_bicycle_related":true,"bicycle_shield_text":"GV","bicycle_network":"ncn","source":"openstreetmap.org","min_zoom":8.0,"kind_detail":"residential"},"arcs":[[272],[273]]},{"type":"LineString","properties":{"kind":"major_road","network":"pl:national","sort_rank":380,"kind_detail":"primary","bus_network":"Kielce","source":"openstreetmap.org","min_zoom":8.0,"bus_shield_text":"36","shield_text":"74","landuse_kind":"urban_area","ref":"74","id":159528527},"arcs":[274]},{"type":"MultiLineString","properties":{"kind":"major_road","network":"pl:national","sort_rank":380,"kind_detail":"primary","source":"openstreetmap.org","min_zoom":8.0,"landuse_kind":"urban_area","shield_text":"73","ref":"73"},"arcs":[[275],[276],[277]]},{"type":"MultiLineString","properties":{"kind":"path","sort_rank":354,"kind_detail":"footway","is_bicycle_related":true,"bicycle_shield_text":"GV","bicycle_network":"ncn","source":"openstreetmap.org","min_zoom":8.0},"arcs":[[278],[279]]},{"type":"LineString","properties":{"bus_network":"Starachowice","network":"pl:national","sort_rank":380,"kind_detail":"primary","kind":"major_road","source":"openstreetmap.org","min_zoom":8.0,"bus_shield_text":"1","shield_text":"42","landuse_kind":"urban_area","ref":"42"},"arcs":[280]},{"type":"LineString","properties":{"kind":"path","sort_rank":354,"landuse_kind":"urban_area","is_bicycle_related":true,"bicycle_shield_text":"GV","bicycle_network":"ncn","source":"openstreetmap.org","min_zoom":8.0,"kind_detail":"pedestrian"},"arcs":[281]},{"type":"LineString","properties":{"kind":"major_road","network":"pl:national","sort_rank":380,"kind_detail":"primary","is_bicycle_related":true,"bicycle_shield_text":"GV","bicycle_network":"ncn","source":"openstreetmap.org","min_zoom":8.0,"shield_text":"42","ref":"42","id":384046718},"arcs":[282]},{"type":"MultiLineString","properties":{"bus_network":"Kielce","network":"pl:regional","sort_rank":380,"kind_detail":"primary","kind":"major_road","source":"openstreetmap.org","min_zoom":8.0,"bus_shield_text":"Z","shield_text":"786","landuse_kind":"urban_area","ref":"786"},"arcs":[[283],[284]]},{"type":"LineString","properties":{"kind":"major_road","sort_rank":380,"kind_detail":"primary","is_bicycle_related":true,"bus_network":"Kielce","bicycle_shield_text":"Dziki zach\u00f3d","bicycle_network":"lcn","source":"openstreetmap.org","min_zoom":8.0,"bus_shield_text":"2","id":35712299},"arcs":[285]},{"type":"LineString","properties":{"kind":"major_road","network":"pl:national","sort_rank":380,"kind_detail":"primary","source":"openstreetmap.org","min_zoom":8.0,"shield_text":"48","ref":"48;726","id":184766697},"arcs":[286]},{"type":"LineString","properties":{"bus_network":null,"network":"pl:national","sort_rank":380,"kind_detail":"primary","kind":"major_road","source":"openstreetmap.org","min_zoom":8.0,"bus_shield_text":"12","shield_text":"42","ref":"42"},"arcs":[287]},{"type":"LineString","properties":{"kind":"major_road","network":"pl:national","sort_rank":380,"kind_detail":"primary","bus_network":"Starachowice","source":"openstreetmap.org","min_zoom":8.0,"bus_shield_text":"5","shield_text":"42","landuse_kind":"urban_area","ref":"42","id":35710895},"arcs":[288]},{"type":"LineString","properties":{"kind":"major_road","network":"pl:national","sort_rank":380,"kind_detail":"primary","source":"openstreetmap.org","min_zoom":8.0,"landuse_kind":"nature_reserve","shield_text":"12","ref":"12","id":104677491},"arcs":[289]},{"type":"LineString","properties":{"bus_network":"Kielce","network":"pl:national","sort_rank":380,"kind_detail":"primary","kind":"major_road","source":"openstreetmap.org","min_zoom":8.0,"bus_shield_text":"9","shield_text":"74","ref":"74"},"arcs":[290]},{"type":"LineString","properties":{"kind":"major_road","network":"pl:national","sort_rank":380,"kind_detail":"primary","is_bicycle_related":true,"bicycle_shield_text":"SAO","bicycle_network":"rcn","source":"openstreetmap.org","min_zoom":8.0,"landuse_kind":"nature_reserve","shield_text":"7","ref":"7"},"arcs":[291]},{"type":"LineString","properties":{"source":"openstreetmap.org","kind":"major_road","sort_rank":380,"kind_detail":"primary","ref":"42","min_zoom":8.0,"id":543686595},"arcs":[292]},{"type":"MultiLineString","properties":{"source":"openstreetmap.org","kind":"major_road","sort_rank":380,"kind_detail":"primary","ref":"12","min_zoom":8.0},"arcs":[[293],[294]]},{"type":"MultiLineString","properties":{"kind":"path","sort_rank":354,"kind_detail":"track","is_bicycle_related":true,"bicycle_shield_text":"GV","bicycle_network":"ncn","source":"openstreetmap.org","min_zoom":8.0},"arcs":[[295],[296],[297],[298],[299]]},{"type":"MultiLineString","properties":{"kind":"major_road","network":"pl:national","sort_rank":380,"kind_detail":"primary","source":"openstreetmap.org","min_zoom":8.0,"landuse_kind":"urban_area","shield_text":"91","ref":"91"},"arcs":[[300],[301],[302]]},{"type":"LineString","properties":{"bus_network":"Kielce","network":"pl:national","sort_rank":380,"kind_detail":"primary","kind":"major_road","source":"openstreetmap.org","min_zoom":8.0,"bus_shield_text":"41","shield_text":"74","ref":"74"},"arcs":[303]},{"type":"LineString","properties":{"kind":"major_road","sort_rank":377,"kind_detail":"tertiary","is_bicycle_related":true,"bicycle_shield_text":"GV","bicycle_network":"ncn","source":"openstreetmap.org","min_zoom":8.0,"ref":"0450T"},"arcs":[304]},{"type":"MultiLineString","properties":{"bus_network":"MPK Kielce","network":"pl:national","sort_rank":380,"kind_detail":"primary","kind":"major_road","source":"openstreetmap.org","min_zoom":8.0,"bus_shield_text":"206","shield_text":"74","ref":"74"},"arcs":[[305],[306],[307]]},{"type":"LineString","properties":{"kind":"major_road","network":"e-road","sort_rank":380,"kind_detail":"primary","source":"openstreetmap.org","min_zoom":8.0,"shield_text":"77","ref":"S7","id":507050800},"arcs":[308]},{"type":"MultiLineString","properties":{"kind":"major_road","network":"pl:national","sort_rank":380,"kind_detail":"primary","source":"openstreetmap.org","min_zoom":8.0,"shield_text":"42","ref":"42"},"arcs":[[309],[310],[311],[312],[313],[314],[315],[316],[317],[318],[319],[320],[321],[322],[323],[324],[325],[326],[327],[328],[329],[330]]},{"type":"MultiLineString","properties":{"bus_network":"Kielce","sort_rank":380,"kind_detail":"primary","kind":"major_road","source":"openstreetmap.org","min_zoom":8.0,"bus_shield_text":"F","ref":"74"},"arcs":[[331],[332]]},{"type":"LineString","properties":{"kind":"major_road","network":"pl:national","sort_rank":380,"kind_detail":"primary","bus_network":"ZTM Kielce","source":"openstreetmap.org","min_zoom":8.0,"bus_shield_text":"10","shield_text":"74","ref":"74","id":288366307},"arcs":[333]},{"type":"MultiLineString","properties":{"bus_network":"Piotrk\u00f3w Trybunalski","network":"pl:national","sort_rank":380,"kind_detail":"primary","kind":"major_road","source":"openstreetmap.org","min_zoom":8.0,"bus_shield_text":"4","shield_text":"91","landuse_kind":"urban_area","ref":"91"},"arcs":[[334],[335],[336],[337],[338],[339],[340]]},{"type":"LineString","properties":{"kind":"major_road","network":"pl:national","sort_rank":380,"kind_detail":"primary","source":"openstreetmap.org","min_zoom":8.0,"shield_text":"12","ref":"12;727","id":174592135},"arcs":[341]},{"type":"LineString","properties":{"kind":"major_road","network":"pl:national","sort_rank":380,"kind_detail":"primary","bus_network":null,"source":"openstreetmap.org","min_zoom":8.0,"bus_shield_text":"13","shield_text":"42","ref":"42","id":214760589},"arcs":[342]},{"type":"LineString","properties":{"kind":"major_road","network":"pl:national","sort_rank":380,"kind_detail":"primary","bus_network":"Kielce","source":"openstreetmap.org","min_zoom":8.0,"bus_shield_text":"4","shield_text":"74","landuse_kind":"urban_area","id":246068615},"arcs":[343]},{"type":"LineString","properties":{"bus_network":"Kielce","network":"pl:regional","sort_rank":380,"kind_detail":"primary","is_bicycle_related":true,"kind":"major_road","bicycle_shield_text":"SAO","bicycle_network":"rcn","source":"openstreetmap.org","min_zoom":8.0,"bus_shield_text":"6","shield_text":"762","landuse_kind":"urban_area","id":246068613},"arcs":[344]},{"type":"LineString","properties":{"bus_network":"ZTM Kielce","network":"pl:national","sort_rank":380,"kind_detail":"primary","kind":"major_road","source":"openstreetmap.org","min_zoom":8.0,"bus_shield_text":"0W","shield_text":"73","landuse_kind":"urban_area","ref":"73"},"arcs":[345]},{"type":"LineString","properties":{"kind":"major_road","sort_rank":377,"kind_detail":"tertiary","is_bicycle_related":true,"bicycle_shield_text":"GV","bicycle_network":"ncn","source":"openstreetmap.org","min_zoom":8.0,"landuse_kind":"nature_reserve","ref":"0469T","id":258657276},"arcs":[346]},{"type":"MultiLineString","properties":{"bus_network":"MZDiK Radom","network":"pl:national","sort_rank":380,"kind_detail":"primary","kind":"major_road","source":"openstreetmap.org","min_zoom":8.0,"bus_shield_text":"5","shield_text":"7","ref":"7"},"arcs":[[347],[348],[349],[350],[351],[352]]},{"type":"MultiLineString","properties":{"kind":"minor_road","sort_rank":360,"landuse_kind":"urban_area","is_bicycle_related":true,"bicycle_shield_text":"GV","bicycle_network":"ncn","source":"openstreetmap.org","min_zoom":8.0,"kind_detail":"residential"},"arcs":[[353],[354],[355]]},{"type":"LineString","properties":{"kind":"major_road","sort_rank":377,"kind_detail":"tertiary","is_bicycle_related":true,"bus_network":"Kielce","bicycle_shield_text":"GV","bicycle_network":"ncn","source":"openstreetmap.org","min_zoom":8.0,"bus_shield_text":"11","ref":"0372T","id":259198370},"arcs":[356]},{"type":"MultiLineString","properties":{"kind":"path","sort_rank":354,"landuse_kind":"urban_area","is_bicycle_related":true,"bicycle_shield_text":"GV","bicycle_network":"ncn","source":"openstreetmap.org","min_zoom":8.0,"kind_detail":"cycleway"},"arcs":[[357],[358],[359],[360],[361],[362],[363],[364],[365],[366],[367]]},{"type":"MultiLineString","properties":{"bus_network":"Piotrk\u00f3w Trybunalski","network":"pl:national","sort_rank":380,"kind_detail":"primary","kind":"major_road","source":"openstreetmap.org","min_zoom":8.0,"bus_shield_text":"5","shield_text":"91","landuse_kind":"urban_area","ref":"91"},"arcs":[[368],[369],[370],[371],[372]]},{"type":"LineString","properties":{"bus_network":"Kielce","network":"pl:regional","sort_rank":380,"kind_detail":"primary","is_bicycle_related":true,"kind":"major_road","bicycle_shield_text":"SAO","bicycle_network":"rcn","source":"openstreetmap.org","min_zoom":8.0,"bus_shield_text":"4","shield_text":"762","landuse_kind":"urban_area","id":246068607},"arcs":[373]},{"type":"MultiLineString","properties":{"source":"openstreetmap.org","kind":"major_road","sort_rank":380,"kind_detail":"primary","ref":"74","min_zoom":8.0},"arcs":[[374],[375],[376]]},{"type":"MultiLineString","properties":{"bus_network":"Kielce","network":"pl:national","sort_rank":380,"kind_detail":"primary","kind":"major_road","source":"openstreetmap.org","min_zoom":8.0,"bus_shield_text":"F","shield_text":"74","ref":"74"},"arcs":[[377],[378],[379],[380]]},{"type":"LineString","properties":{"kind":"path","sort_rank":354,"landuse_kind":"urban_area","is_bicycle_related":true,"bicycle_shield_text":"GV","bicycle_network":"ncn","source":"openstreetmap.org","min_zoom":8.0,"kind_detail":"footway"},"arcs":[381]},{"type":"LineString","properties":{"bus_network":null,"network":"pl:national","sort_rank":380,"kind_detail":"primary","kind":"major_road","source":"openstreetmap.org","min_zoom":8.0,"bus_shield_text":"9","shield_text":"7","landuse_kind":"urban_area","ref":"7"},"arcs":[382]},{"type":"LineString","properties":{"kind":"major_road","network":"pl:regional","sort_rank":380,"kind_detail":"primary","bus_network":"Piotrk\u00f3w Trybunalski","source":"openstreetmap.org","min_zoom":8.0,"bus_shield_text":"4","shield_text":"716","landuse_kind":"urban_area","ref":"716","id":278272069},"arcs":[383]},{"type":"LineString","properties":{"bus_network":"Kielce","sort_rank":380,"kind_detail":"primary","kind":"major_road","source":"openstreetmap.org","min_zoom":8.0,"bus_shield_text":"41","ref":"74"},"arcs":[384]},{"type":"MultiLineString","properties":{"source":"openstreetmap.org","kind":"major_road","network":"pl:national","sort_rank":380,"kind_detail":"primary","min_zoom":8.0,"shield_text":"12"},"arcs":[[385],[386]]},{"type":"MultiLineString","properties":{"kind":"minor_road","sort_rank":360,"kind_detail":"unclassified","is_bicycle_related":true,"bicycle_shield_text":"GV","bicycle_network":"ncn","source":"openstreetmap.org","min_zoom":8.0},"arcs":[[387],[388],[389]]},{"type":"LineString","properties":{"kind":"major_road","network":"pl:national","sort_rank":380,"kind_detail":"primary","is_bicycle_related":true,"bicycle_shield_text":null,"bicycle_network":"rcn","source":"openstreetmap.org","min_zoom":8.0,"shield_text":"48","ref":"48","id":229473903},"arcs":[390]},{"type":"LineString","properties":{"kind":"major_road","network":"e-road","sort_rank":380,"kind_detail":"primary","source":"openstreetmap.org","min_zoom":8.0,"shield_text":"77","ref":"7","id":390839967},"arcs":[391]},{"type":"LineString","properties":{"kind":"major_road","network":"pl:national","sort_rank":380,"kind_detail":"primary","bus_network":"MPK Kielce","source":"openstreetmap.org","min_zoom":8.0,"bus_shield_text":"206","shield_text":"74","ref":"74;756","id":227598191},"arcs":[392]},{"type":"MultiLineString","properties":{"bus_network":"Kielce","network":"pl:national","sort_rank":380,"kind_detail":"primary","kind":"major_road","source":"openstreetmap.org","min_zoom":8.0,"bus_shield_text":"6","shield_text":"74","landuse_kind":"urban_area","ref":"74"},"arcs":[[393],[394],[395],[396]]},{"type":"LineString","properties":{"bus_network":"Kielce","sort_rank":377,"kind_detail":"tertiary","is_bicycle_related":true,"kind":"major_road","bicycle_shield_text":"GV","bicycle_network":"ncn","source":"openstreetmap.org","min_zoom":8.0,"bus_shield_text":"40","ref":"0373T"},"arcs":[397]},{"type":"MultiLineString","properties":{"bus_network":"Kielce","network":"pl:national","sort_rank":380,"kind_detail":"primary","kind":"major_road","source":"openstreetmap.org","min_zoom":8.0,"bus_shield_text":"4","shield_text":"73","landuse_kind":"urban_area","ref":"73"},"arcs":[[398],[399]]},{"type":"LineString","properties":{"kind":"major_road","network":"pl:national","sort_rank":380,"kind_detail":"primary","is_bicycle_related":true,"bicycle_shield_text":"SAO","bicycle_network":"rcn","source":"openstreetmap.org","min_zoom":8.0,"shield_text":"42","ref":"42","id":251624838},"arcs":[400]},{"type":"LineString","properties":{"bus_network":null,"network":"pl:national","sort_rank":380,"kind_detail":"primary","bus_shield_text":"5","kind":"major_road","source":"openstreetmap.org","min_zoom":8.0,"old_name":"Armii Ludowej","shield_text":"42","ref":"42"},"arcs":[401]},{"type":"LineString","properties":{"kind":"major_road","network":"pl:national","sort_rank":380,"kind_detail":"primary","bus_network":"Piotrk\u00f3w Trybunalski","source":"openstreetmap.org","min_zoom":8.0,"bus_shield_text":"0","shield_text":"91","landuse_kind":"urban_area","id":471090543},"arcs":[402]},{"type":"MultiLineString","properties":{"bus_network":"Tomasz\u00f3w Mazowiecki","network":"pl:national","sort_rank":380,"kind_detail":"primary","kind":"major_road","source":"openstreetmap.org","min_zoom":8.0,"bus_shield_text":"2","shield_text":"48","ref":"48"},"arcs":[[403],[404]]},{"type":"LineString","properties":{"kind":"major_road","network":"pl:national","sort_rank":380,"kind_detail":"primary","source":"openstreetmap.org","min_zoom":8.0,"landuse_kind":"urban_area","shield_text":"12","ref":"12;74;91"},"arcs":[405]},{"type":"LineString","properties":{"kind":"major_road","network":"pl:national","sort_rank":380,"kind_detail":"primary","source":"openstreetmap.org","min_zoom":8.0,"shield_text":"48","ref":"48;728"},"arcs":[406]},{"type":"LineString","properties":{"kind":"major_road","network":"pl:national","sort_rank":380,"kind_detail":"primary","bus_network":"Kielce","source":"openstreetmap.org","min_zoom":8.0,"bus_shield_text":"5","shield_text":"73","ref":"73","id":289199204},"arcs":[407]},{"type":"LineString","properties":{"kind":"major_road","network":"pl:national","sort_rank":380,"kind_detail":"primary","bus_network":"Kielce","source":"openstreetmap.org","min_zoom":8.0,"bus_shield_text":"29","shield_text":"73","ref":"73"},"arcs":[408]},{"type":"MultiLineString","properties":{"bus_network":"Kielce","network":"pl:national","sort_rank":380,"kind_detail":"primary","kind":"major_road","source":"openstreetmap.org","min_zoom":8.0,"bus_shield_text":"45","shield_text":"73","ref":"73"},"arcs":[[409],[410],[411],[412],[413]]},{"type":"LineString","properties":{"bus_network":null,"network":"pl:national","sort_rank":380,"kind_detail":"primary","kind":"major_road","source":"openstreetmap.org","min_zoom":8.0,"bus_shield_text":"6","shield_text":"12","ref":"12"},"arcs":[414]},{"type":"MultiLineString","properties":{"bus_network":"Starachowice","network":"pl:national","sort_rank":380,"kind_detail":"primary","old_name":"Aleja Wyzwolenia","kind":"major_road","source":"openstreetmap.org","min_zoom":8.0,"bus_shield_text":"1","shield_text":"42","landuse_kind":"urban_area","ref":"42"},"arcs":[[415],[416],[417],[418]]},{"type":"MultiLineString","properties":{"kind":"major_road","network":"pl:national","sort_rank":380,"kind_detail":"primary","source":"openstreetmap.org","min_zoom":8.0,"shield_text":"7","ref":"7"},"arcs":[[419],[420],[421],[422],[423],[424],[425],[426],[427],[428],[429],[430],[431],[432],[433]]},{"type":"MultiLineString","properties":{"bus_network":null,"network":"pl:national","sort_rank":380,"kind_detail":"primary","old_name":"Armii Ludowej","kind":"major_road","source":"openstreetmap.org","min_zoom":8.0,"bus_shield_text":"5","shield_text":"42","landuse_kind":"urban_area","ref":"42"},"arcs":[[434],[435]]},{"type":"MultiLineString","properties":{"bus_network":"Starachowice","network":"pl:national","sort_rank":380,"kind_detail":"primary","old_name":"Aleja Wyzwolenia","kind":"major_road","source":"openstreetmap.org","min_zoom":8.0,"bus_shield_text":"N","shield_text":"42","landuse_kind":"urban_area","ref":"42"},"arcs":[[436],[437],[438],[439],[440]]},{"type":"LineString","properties":{"kind":"major_road","network":"pl:national","sort_rank":380,"kind_detail":"primary","source":"openstreetmap.org","min_zoom":8.0,"landuse_kind":"nature_reserve","shield_text":"74","ref":"74"},"arcs":[441]},{"type":"MultiLineString","properties":{"kind":"major_road","network":"pl:national","sort_rank":380,"kind_detail":"primary","source":"openstreetmap.org","min_zoom":8.0,"shield_text":"42","ref":"42;742"},"arcs":[[442],[443],[444],[445],[446]]},{"type":"MultiLineString","properties":{"kind":"major_road","network":"pl:national","sort_rank":381,"kind_detail":"trunk","source":"openstreetmap.org","min_zoom":8.0,"shield_text":"7","ref":"S7"},"arcs":[[447],[448],[449],[450],[451],[452],[453],[454],[455],[456],[457],[458],[459],[460],[461],[462],[463],[464],[465],[466],[467],[468],[469],[470],[471],[472],[473],[474],[475],[476]]},{"type":"MultiLineString","properties":{"bus_network":null,"network":"pl:national","sort_rank":380,"kind_detail":"primary","kind":"major_road","source":"openstreetmap.org","min_zoom":8.0,"bus_shield_text":"5","shield_text":"42","landuse_kind":"urban_area"},"arcs":[[477],[478]]},{"type":"LineString","properties":{"kind":"major_road","network":"pl:national","sort_rank":380,"kind_detail":"primary","bus_network":"Kielce","source":"openstreetmap.org","min_zoom":8.0,"bus_shield_text":"6","shield_text":"74","landuse_kind":"urban_area","id":246068603},"arcs":[479]},{"type":"LineString","properties":{"bus_network":"Kielce","network":"pl:national","sort_rank":380,"kind_detail":"primary","is_bicycle_related":true,"kind":"major_road","bicycle_shield_text":"SAO","bicycle_network":"rcn","source":"openstreetmap.org","min_zoom":8.0,"bus_shield_text":"7","shield_text":"73","ref":"73","id":518135051},"arcs":[480]},{"type":"MultiLineString","properties":{"kind":"major_road","network":"pl:national","sort_rank":380,"kind_detail":"primary","source":"openstreetmap.org","min_zoom":8.0,"old_name":"Aleja Wyzwolenia","shield_text":"42","landuse_kind":"urban_area","ref":"42"},"arcs":[[481],[482],[483]]},{"type":"MultiLineString","properties":{"kind":"path","sort_rank":354,"kind_detail":"cycleway","is_bicycle_related":true,"bicycle_shield_text":"GV","bicycle_network":"ncn","source":"openstreetmap.org","min_zoom":8.0},"arcs":[[484],[485],[486],[487],[488],[489],[490]]},{"type":"MultiLineString","properties":{"kind":"major_road","network":"pl:national","sort_rank":380,"kind_detail":"primary","source":"openstreetmap.org","min_zoom":8.0,"shield_text":"12","ref":"12"},"arcs":[[491],[492],[493],[494],[495],[496],[497],[498],[499],[500]]},{"type":"LineString","properties":{"kind":"major_road","network":"pl:national","sort_rank":380,"kind_detail":"primary","source":"openstreetmap.org","min_zoom":8.0,"landuse_kind":"urban_area","shield_text":"12","ref":"12"},"arcs":[501]},{"type":"MultiLineString","properties":{"kind":"major_road","network":"pl:national","sort_rank":380,"kind_detail":"primary","source":"openstreetmap.org","min_zoom":8.0,"landuse_kind":"urban_area","shield_text":"48","ref":"48;713"},"arcs":[[502],[503],[504],[505]]},{"type":"LineString","properties":{"kind":"major_road","sort_rank":377,"kind_detail":"tertiary","is_bicycle_related":true,"bicycle_shield_text":"GV","bicycle_network":"ncn","source":"openstreetmap.org","min_zoom":8.0,"ref":"0489T"},"arcs":[506]},{"type":"MultiLineString","properties":{"kind":"major_road","network":"pl:regional","sort_rank":379,"kind_detail":"secondary","is_bicycle_related":true,"bicycle_shield_text":"GV","bicycle_network":"ncn","source":"openstreetmap.org","min_zoom":8.0,"shield_text":"728","ref":"728"},"arcs":[[507],[508]]},{"type":"LineString","properties":{"cycleway_right":"lane","cycleway_left":"opposite_lane","sort_rank":360,"kind_detail":"residential","is_bicycle_related":true,"kind":"minor_road","bicycle_shield_text":"GV","bicycle_network":"ncn","source":"openstreetmap.org","min_zoom":8.0,"landuse_kind":"nature_reserve","id":519029752},"arcs":[509]},{"type":"LineString","properties":{"bus_network":"Starachowice","old_name":"Aleja Wyzwolenia","bicycle_shield_text":null,"min_zoom":8.0,"bus_shield_text":"N","id":516698275,"kind":"major_road","network":"pl:national","sort_rank":380,"kind_detail":"primary","is_bicycle_related":true,"bicycle_network":"rcn","source":"openstreetmap.org","landuse_kind":"urban_area","shield_text":"42","ref":"42"},"arcs":[510]},{"type":"LineString","properties":{"kind":"major_road","network":"pl:national","sort_rank":380,"kind_detail":"primary","bus_network":"Kielce","source":"openstreetmap.org","min_zoom":8.0,"bus_shield_text":"30","shield_text":"73","landuse_kind":"urban_area","id":287921375},"arcs":[511]},{"type":"MultiLineString","properties":{"bus_network":"Kielce","network":"pl:national","sort_rank":380,"kind_detail":"primary","kind":"major_road","source":"openstreetmap.org","min_zoom":8.0,"bus_shield_text":"43","shield_text":"74","ref":"74"},"arcs":[[512],[513],[514]]},{"type":"MultiLineString","properties":{"kind":"major_road","network":"pl:national","sort_rank":381,"landuse_kind":"urban_area","source":"openstreetmap.org","min_zoom":8.0,"kind_detail":"trunk","shield_text":"12","ref":"S8;12;74;91"},"arcs":[[515],[516],[517],[518]]},{"type":"LineString","properties":{"source":"openstreetmap.org","kind":"major_road","landuse_kind":"urban_area","sort_rank":380,"kind_detail":"primary","ref":"12","min_zoom":8.0},"arcs":[519]},{"type":"LineString","properties":{"bus_network":null,"network":"pl:national","sort_rank":380,"kind_detail":"primary","kind":"major_road","source":"openstreetmap.org","min_zoom":8.0,"bus_shield_text":"5","shield_text":"42","ref":"42"},"arcs":[520]},{"type":"MultiLineString","properties":{"source":"openstreetmap.org","kind":"major_road","landuse_kind":"urban_area","sort_rank":380,"kind_detail":"primary","min_zoom":8.0},"arcs":[[521],[522],[523],[524],[525],[526],[527]]},{"type":"MultiLineString","properties":{"kind":"major_road","network":"historical","sort_rank":381,"kind_detail":"trunk","source":"openstreetmap.org","min_zoom":8.0,"shield_text":null,"ref":"S8"},"arcs":[[528],[529],[530],[531],[532],[533],[534],[535]]},{"type":"LineString","properties":{"kind":"major_road","network":"pl:national","sort_rank":380,"kind_detail":"primary","source":"openstreetmap.org","min_zoom":8.0,"shield_text":"12","ref":"12;733","id":109870194},"arcs":[536]},{"type":"MultiLineString","properties":{"kind":"major_road","network":"pl:national","sort_rank":380,"kind_detail":"primary","source":"openstreetmap.org","min_zoom":8.0,"landuse_kind":"nature_reserve","shield_text":"7","ref":"7"},"arcs":[[537],[538],[539],[540],[541],[542],[543],[544],[545],[546],[547]]},{"type":"MultiLineString","properties":{"bus_network":"Piotrk\u00f3w Trybunalski","network":"pl:national","sort_rank":380,"kind_detail":"primary","kind":"major_road","source":"openstreetmap.org","min_zoom":8.0,"bus_shield_text":"0","shield_text":"91","landuse_kind":"urban_area","ref":"91"},"arcs":[[548],[549],[550],[551],[552],[553],[554]]},{"type":"LineString","properties":{"kind":"major_road","sort_rank":377,"kind_detail":"tertiary","is_bicycle_related":true,"bicycle_shield_text":"R11","bicycle_network":"icn","source":"openstreetmap.org","min_zoom":8.0},"arcs":[555]},{"type":"MultiLineString","properties":{"kind":"minor_road","sort_rank":360,"kind_detail":"residential","is_bicycle_related":true,"bicycle_shield_text":"GV","bicycle_network":"ncn","source":"openstreetmap.org","min_zoom":8.0},"arcs":[[556],[557],[558],[559],[560],[561],[562],[563],[564],[565],[566],[567],[568],[569],[570]]},{"type":"LineString","properties":{"kind":"major_road","network":"pl:national","sort_rank":380,"kind_detail":"primary","is_bicycle_related":true,"bicycle_shield_text":"im. Zygmunta Goliata","bicycle_network":"lcn","source":"openstreetmap.org","min_zoom":8.0,"shield_text":"12","ref":"12;74","id":242995942},"arcs":[571]},{"type":"MultiLineString","properties":{"kind":"major_road","network":"pl:national","sort_rank":380,"kind_detail":"primary","is_bicycle_related":true,"bicycle_shield_text":null,"bicycle_network":"rcn","source":"openstreetmap.org","min_zoom":8.0,"shield_text":"48","ref":"48;726"},"arcs":[[572],[573]]},{"type":"LineString","properties":{"bus_network":"MZDiK Radom","network":"pl:national","sort_rank":380,"kind_detail":"primary","kind":"major_road","source":"openstreetmap.org","min_zoom":8.0,"bus_shield_text":"8","shield_text":"12","landuse_kind":"urban_area","ref":"12"},"arcs":[574]},{"type":"MultiLineString","properties":{"kind":"major_road","network":"pl:national","sort_rank":380,"kind_detail":"primary","source":"openstreetmap.org","min_zoom":8.0,"shield_text":"73","ref":"73"},"arcs":[[575],[576],[577],[578]]},{"type":"LineString","properties":{"bus_network":"Kielce","network":"pl:national","sort_rank":380,"kind_detail":"primary","kind":"major_road","source":"openstreetmap.org","min_zoom":8.0,"bus_shield_text":"27","shield_text":"73","ref":"73"},"arcs":[579]},{"type":"LineString","properties":{"kind":"major_road","network":"pl:national","sort_rank":380,"kind_detail":"primary","bus_network":"Piotrk\u00f3w Trybunalski","source":"openstreetmap.org","min_zoom":8.0,"bus_shield_text":"1","shield_text":"91","landuse_kind":"urban_area","ref":"91","id":546842276},"arcs":[580]},{"type":"LineString","properties":{"bus_network":"Piotrk\u00f3w Trybunalski","network":"pl:national","sort_rank":380,"kind_detail":"primary","kind":"major_road","source":"openstreetmap.org","min_zoom":8.0,"bus_shield_text":"5","shield_text":"91","ref":"91","id":179659839},"arcs":[581]},{"type":"MultiLineString","properties":{"kind":"major_road","sort_rank":377,"kind_detail":"tertiary","is_bicycle_related":true,"bicycle_shield_text":"GV","bicycle_network":"ncn","source":"openstreetmap.org","min_zoom":8.0},"arcs":[[582],[583],[584],[585],[586],[587]]},{"type":"MultiLineString","properties":{"kind":"major_road","sort_rank":377,"kind_detail":"tertiary","is_bicycle_related":true,"bicycle_shield_text":"GV","bicycle_network":"ncn","source":"openstreetmap.org","min_zoom":8.0,"ref":"0469T"},"arcs":[[588],[589],[590]]},{"type":"LineString","properties":{"bus_network":"Piotrk\u00f3w Trybunalski","network":"pl:national","sort_rank":380,"kind_detail":"primary","kind":"major_road","source":"openstreetmap.org","min_zoom":8.0,"bus_shield_text":"2","shield_text":"91","landuse_kind":"urban_area","ref":"91"},"arcs":[591]},{"type":"LineString","properties":{"kind":"major_road","network":"pl:national","sort_rank":380,"kind_detail":"primary","source":"openstreetmap.org","min_zoom":8.0,"landuse_kind":"nature_reserve","shield_text":"48","id":256720411},"arcs":[592]},{"type":"LineString","properties":{"bus_network":"Starachowice","network":"pl:national","sort_rank":380,"kind_detail":"primary","kind":"major_road","source":"openstreetmap.org","min_zoom":8.0,"bus_shield_text":"5","shield_text":"42","ref":"42"},"arcs":[593]},{"type":"LineString","properties":{"kind":"major_road","sort_rank":377,"kind_detail":"tertiary","is_bicycle_related":true,"bicycle_shield_text":"GV","bicycle_network":"ncn","source":"openstreetmap.org","min_zoom":8.0,"ref":"0470T"},"arcs":[594]},{"type":"LineString","properties":{"kind":"major_road","sort_rank":377,"kind_detail":"tertiary","is_bicycle_related":true,"bus_network":"Kielce","bicycle_shield_text":"GV","bicycle_network":"ncn","source":"openstreetmap.org","min_zoom":8.0,"bus_shield_text":"2","id":384046717},"arcs":[595]},{"type":"MultiLineString","properties":{"kind":"major_road","network":"pl:national","sort_rank":380,"kind_detail":"primary","is_bicycle_related":true,"bicycle_shield_text":"SG","bicycle_network":"rcn","source":"openstreetmap.org","min_zoom":8.0,"shield_text":"12","ref":"12;74"},"arcs":[[596],[597],[598]]},{"type":"LineString","properties":{"bus_network":"Kielce","network":"pl:national","sort_rank":380,"kind_detail":"primary","kind":"major_road","source":"openstreetmap.org","min_zoom":8.0,"bus_shield_text":"11","shield_text":"73","landuse_kind":"urban_area","ref":"73"},"arcs":[599]},{"type":"MultiLineString","properties":{"kind":"minor_road","cycleway_left":"opposite_lane","sort_rank":360,"landuse_kind":"nature_reserve","is_bicycle_related":true,"bicycle_shield_text":"GV","bicycle_network":"ncn","source":"openstreetmap.org","min_zoom":8.0,"kind_detail":"residential","cycleway":"opposite_lane"},"arcs":[[600],[601]]},{"type":"LineString","properties":{"kind":"major_road","network":"pl:national","sort_rank":380,"kind_detail":"primary","is_bicycle_related":true,"bicycle_shield_text":"SAO","bicycle_network":"rcn","source":"openstreetmap.org","min_zoom":8.0,"shield_text":"74","ref":"74"},"arcs":[602]},{"type":"MultiLineString","properties":{"bus_network":"Kielce","network":"pl:national","sort_rank":380,"kind_detail":"primary","kind":"major_road","source":"openstreetmap.org","min_zoom":8.0,"bus_shield_text":"T","shield_text":"7","landuse_kind":"nature_reserve","ref":"7"},"arcs":[[603],[604],[605],[606]]},{"type":"MultiLineString","properties":{"kind":"major_road","network":"pl:national","sort_rank":380,"kind_detail":"primary","source":"openstreetmap.org","min_zoom":8.0,"landuse_kind":"urban_area","shield_text":"42","ref":"42"},"arcs":[[607],[608],[609],[610],[611],[612]]},{"type":"MultiLineString","properties":{"bus_network":"Kielce","sort_rank":380,"kind_detail":"primary","kind":"major_road","source":"openstreetmap.org","min_zoom":8.0,"bus_shield_text":"F","landuse_kind":"urban_area"},"arcs":[[613],[614]]},{"type":"MultiLineString","properties":{"kind":"major_road","network":"e-road","sort_rank":381,"landuse_kind":"urban_area","source":"openstreetmap.org","min_zoom":8.0,"kind_detail":"trunk","shield_text":"67","ref":"S8"},"arcs":[[615],[616]]},{"type":"LineString","properties":{"kind":"major_road","network":"pl:national","sort_rank":380,"kind_detail":"primary","source":"openstreetmap.org","min_zoom":8.0,"shield_text":"91","ref":"91"},"arcs":[617]},{"type":"LineString","properties":{"kind":"major_road","network":"pl:national","sort_rank":380,"kind_detail":"primary","is_bicycle_related":true,"bicycle_shield_text":"SG","bicycle_network":"rcn","source":"openstreetmap.org","min_zoom":8.0,"landuse_kind":"nature_reserve","shield_text":"12","ref":"12;74"},"arcs":[618]},{"type":"LineString","properties":{"kind":"major_road","sort_rank":380,"kind_detail":"primary","bus_network":"Kielce","source":"openstreetmap.org","min_zoom":8.0,"bus_shield_text":"13","landuse_kind":"urban_area","id":35715009},"arcs":[619]},{"type":"LineString","properties":{"kind":"path","sort_rank":354,"landuse_kind":"nature_reserve","is_bicycle_related":true,"bicycle_shield_text":"GV","bicycle_network":"ncn","source":"openstreetmap.org","min_zoom":8.0,"kind_detail":"track"},"arcs":[620]}]},"earth":{"type":"GeometryCollection","geometries":[{"type":"Polygon","properties":{"sort_rank":10,"source":"naturalearthdata.com","kind":"earth","min_zoom":0.0,"id":4754},"arcs":[[621]]}]},"landuse":{"type":"GeometryCollection","geometries":[{"type":"MultiPolygon","properties":{"source":"openstreetmap.org","kind":"aerodrome","tier":3,"area":69423980,"sort_rank":60,"min_zoom":8.0},"arcs":[[[622]],[[623]]]},{"type":"Polygon","properties":{"kind":"national_park","protect_class":"2","area":118462000,"sort_rank":18,"source":"openstreetmap.org","min_zoom":7.0,"tier":1,"id":-4524956,"osm_relation":true},"arcs":[[624]]},{"type":"MultiPolygon","properties":{"source":"naturalearthdata.com","kind":"urban_area","name":"","area":3726096295,"sort_rank":11,"min_zoom":4.0},"arcs":[[[625]],[[626]],[[627]],[[628]],[[629]],[[630]]]},{"type":"MultiPolygon","properties":{"kind":"nature_reserve","protect_class":"5","area":385567977,"sort_rank":23,"source":"openstreetmap.org","min_zoom":8.0,"tier":2,"osm_relation":true},"arcs":[[[631]],[[632]],[[633]]]},{"type":"MultiPolygon","properties":{"kind":"national_park","protect_class":"2","area":62415256,"sort_rank":18,"source":"openstreetmap.org","min_zoom":8.0,"tier":1,"osm_relation":true},"arcs":[[[634]],[[635]]]},{"type":"MultiPolygon","properties":{"source":"openstreetmap.org","kind":"nature_reserve","tier":2,"protect_class":"4","area":212952421,"sort_rank":23,"min_zoom":8.0},"arcs":[[[636]],[[637]]]},{"type":"MultiPolygon","properties":{"kind":"nature_reserve","protect_class":"5","area":333256916,"sort_rank":23,"source":"openstreetmap.org","min_zoom":7.0,"tier":2,"osm_relation":true},"arcs":[[[638]]]},{"type":"Polygon","properties":{"kind":"nature_reserve","protect_class":"19","area":15431900,"sort_rank":23,"source":"openstreetmap.org","min_zoom":8.0,"tier":2,"id":423722356},"arcs":[[639]]},{"type":"MultiPolygon","properties":{"kind":"nature_reserve","protect_class":"4","area":60185913,"sort_rank":23,"source":"openstreetmap.org","min_zoom":8.0,"tier":2,"osm_relation":true},"arcs":[[[640]]]},{"type":"MultiPolygon","properties":{"kind":"nature_reserve","protect_class":"5","area":4782156863,"sort_rank":23,"source":"openstreetmap.org","min_zoom":6.0,"tier":2,"osm_relation":true},"arcs":[[[641]],[[642]],[[643]],[[644]],[[645]],[[646],[647],[648]],[[649],[650]]]}]}},"type":"Topology","transform":{"translate":[19.6875,50.736455137],"scale":[0.0003433228,0.000215225]},"arcs":[[[173,602],[-12,-66],[-39,-9],[-4,-31],[-118,7]],[[85,0],[-32,118],[49,-11],[12,54],[22,-6],[22,-70],[83,75],[-16,32],[90,28],[-59,68],[29,42],[6,-7],[10,-2],[0,24],[-3,-21],[-17,18],[4,-13],[-7,-8],[-12,17],[16,40],[27,4],[2,-34],[60,-42],[25,15],[-14,71],[39,-5],[-78,127],[-170,88]],[[2171,2801],[-47,106],[38,34],[54,198],[68,-17],[45,20],[17,58],[-23,30],[8,44],[135,100],[-22,27],[-19,192],[-74,-44],[-123,16],[9,179],[36,80],[-21,69],[-56,-13],[-24,18],[13,32],[-23,80],[-43,22],[29,34],[-6,30]],[[173,602],[116,99],[20,92],[42,-2],[86,50],[33,85],[-8,44],[-38,22],[-15,78],[57,130],[47,47],[-9,63],[46,139],[29,-3],[33,-90],[115,-17],[-4,-63],[41,4],[24,-100],[174,-131],[27,48],[26,0],[10,82],[-19,26],[46,73],[-1,199],[23,16],[-34,10],[3,40],[-186,21],[33,123],[-22,163],[47,-7],[-39,30],[98,74],[11,42],[-83,103],[83,64],[63,9],[38,-15],[-13,-20],[0,-19],[25,29],[160,-36],[115,21],[-2,19],[62,-11],[-2,54],[49,-4],[19,-34],[36,49],[6,-48],[45,9],[9,36],[48,-10],[37,54],[-38,15],[14,70],[-42,34],[3,62],[52,7],[-1,-37],[52,-31],[93,-5],[61,68],[67,-34],[50,-64],[25,43],[-13,74],[31,6],[13,42],[-77,182],[61,35],[74,-1],[-2,35],[31,-2],[37,63]],[[2171,2801],[89,-13],[2,-22],[128,-5],[27,-65],[-12,-40],[-60,-4],[6,-40],[9,-27],[38,6],[-27,-33],[92,-47],[11,-32],[-35,-43],[42,-28],[-18,-33],[31,-76],[65,1],[38,62],[81,9],[76,-108],[168,-84],[35,-95],[-52,-53],[2,-104],[35,-10],[61,110],[154,-73],[-15,-33],[47,-21],[16,34],[73,-32],[26,56],[-37,15],[36,81],[94,-26],[76,-86],[119,190],[233,-166],[-22,-35],[16,-35],[75,27],[-4,38],[98,-6],[49,131],[-10,121],[69,-29]],[[4096,1959],[-7,-14],[7,-4]],[[3647,2252],[-43,-18],[-97,-443],[-30,-28]],[[4096,2839],[-118,-42],[-45,-236],[-94,-139],[-165,-89],[-1,-58],[-25,-23]],[[4096,1428],[-22,-30]],[[4074,1398],[-5,1]],[[4069,1399],[-1,2]],[[4073,1394],[-4,5]],[[4074,1398],[-1,-4]],[[4073,1394],[2,-19]],[[0,177],[7,0],[3,1],[39,11],[24,5],[8,2],[7,4],[67,41],[13,6],[266,61],[41,-3],[4,0],[5,2],[205,92],[84,8],[115,30],[3,1],[4,2],[4,3],[21,24],[9,2],[37,2],[15,1],[4,1],[4,1],[99,40],[134,0],[42,3],[5,0],[40,-11],[9,-2],[9,-1],[15,0],[6,0],[4,1],[3,1],[4,3],[5,3],[4,4],[8,7],[5,7],[2,4],[3,8],[2,15],[-2,21],[5,12],[28,14],[18,-3],[15,-15],[3,-2],[5,-2],[169,-48],[4,0],[4,-1],[51,1],[32,-9],[12,-2],[5,0],[4,0],[3,1],[5,2],[3,2],[50,44],[5,4],[2,2],[11,19],[11,7],[37,-5],[53,-2],[5,0],[5,0],[136,26],[80,4],[7,2],[22,6],[5,1],[9,-2],[29,-12],[5,-2],[9,-2],[4,-1],[3,0],[8,0],[5,0],[7,2],[5,2],[102,52],[20,4],[6,1],[14,7],[55,-5],[21,1],[6,1],[4,2],[19,10],[41,28],[10,3],[17,-2],[34,-15],[46,-12],[21,-4],[27,-2],[9,-26]],[[0,177],[168,70],[269,61],[46,-2],[197,90],[11,5],[197,36],[32,30],[168,47],[176,4],[88,-14],[39,85],[28,14],[18,-3],[23,-19],[171,-48],[57,0],[49,-11],[65,49],[17,25],[12,7],[350,32],[9,-2],[43,-16],[20,0],[114,55],[40,12],[82,-3],[64,40],[10,3],[17,-2],[77,-26],[51,-6],[9,-27]],[[2717,663],[0,-1]],[[4096,1317],[-25,17],[2,56],[-30,40],[-32,19],[-18,15],[-29,16],[-25,52],[-98,91],[-52,31],[-37,13],[-19,73],[-4,7],[-6,6],[-89,43],[-132,-17]],[[3502,1779],[-53,-34]],[[3502,1779],[132,17],[91,-44],[8,-12],[13,-62],[1,-3],[2,-4],[3,-4],[4,-4],[3,-2],[6,-3],[4,-1],[14,-2],[6,-2],[52,-30],[32,-31],[66,-60],[15,-37],[4,-8],[4,-5],[2,-2],[4,-3],[4,-3],[21,-11],[16,-13],[36,-23],[28,-37],[-6,-40],[0,-3],[1,-4],[1,-5],[3,-5],[3,-5],[10,-8],[6,-4],[5,-3]],[[2167,0],[2,5],[4,6],[3,4],[5,5],[7,4],[20,9],[10,7],[19,32],[3,4],[5,4],[6,2],[7,1],[65,-7],[84,56],[40,68],[24,33],[2,2],[4,4],[16,9],[9,11],[19,54],[-10,81],[-6,21],[-18,20],[-5,8],[-2,5],[-1,4],[0,3],[0,6],[1,6],[3,5],[4,4],[8,8],[13,14],[21,19],[5,5],[46,28],[6,3],[4,2],[6,1],[40,7],[39,16],[26,30],[45,162],[-24,73],[-48,38],[-2,2],[-3,4],[-2,4],[-1,5],[-1,5],[0,5],[3,17],[-2,13],[0,4],[0,4],[2,5],[1,3],[3,5],[5,4],[8,6],[4,5],[5,14],[-2,9],[-9,18],[-15,42],[-3,9],[-1,2],[0,2],[0,4],[0,4],[1,3],[3,5],[1,2],[3,4],[3,3],[4,2],[4,2],[5,1],[15,0],[16,-1],[7,1],[14,6],[15,4],[10,8],[5,2],[4,1],[6,1],[5,-1],[4,-1],[18,-8],[4,-1],[13,0],[3,0],[32,-8],[17,-8],[4,-3],[7,-6],[5,-3],[19,-6],[21,-10],[90,13],[6,0],[26,-2],[5,0],[8,3],[13,9],[4,2],[4,1],[6,1],[20,-3],[19,5],[11,1],[6,2],[12,11],[5,23],[2,4],[3,4],[3,4],[4,3],[16,9],[11,15],[3,4],[3,2],[3,1],[4,2],[13,5],[14,4],[39,2],[13,9],[3,7],[3,11],[2,5],[3,4],[10,10],[4,4],[5,18],[1,3],[6,11],[1,10],[-2,14],[-1,5],[1,4],[1,6],[5,15],[23,41],[5,5],[7,7],[4,5],[9,23],[-5,51],[-2,5],[-4,9],[-2,5],[-1,6],[1,4],[9,48],[6,14],[9,17],[3,11],[1,10],[0,3],[1,3],[8,22],[-15,31],[-1,3],[-1,5],[1,4],[1,5],[2,5],[2,3],[13,19],[15,14],[16,32],[4,6],[3,3],[4,3],[42,29],[9,12],[1,23],[5,31],[49,270],[2,6],[2,4],[2,4],[2,3],[27,34],[5,62],[1,5],[2,5],[3,5],[5,4],[3,2],[5,2],[3,1],[4,1],[16,-1],[9,2],[16,14],[5,18],[-7,24],[-1,5],[1,4],[0,4],[2,5],[4,5],[3,4],[4,2],[3,2],[5,2],[43,7],[118,85],[87,135],[28,201],[2,5],[1,4],[8,13],[3,5],[9,7],[19,12],[7,3],[83,25]],[[2167,0],[51,40],[27,39],[78,-3],[84,56],[95,127],[19,54],[-10,79],[-6,23],[-25,33],[3,23],[62,57],[43,26],[48,8],[39,17],[25,28],[3,7],[42,143],[1,14],[-24,73],[-56,53],[28,90],[0,5],[-2,6],[-27,69],[7,24],[54,7],[29,11],[15,10],[12,2],[25,-10],[51,-9],[34,-20],[40,-16],[127,11],[8,2],[21,13],[26,-2],[30,6],[6,2],[13,11],[9,31],[23,16],[17,20],[73,15],[13,9],[25,41],[12,32],[1,9],[-2,24],[6,21],[39,58],[9,23],[-5,51],[-8,29],[10,48],[15,31],[12,48],[-15,49],[32,41],[20,38],[49,34],[9,12],[56,325],[34,51],[8,72],[48,16],[16,14],[6,18],[-8,33],[10,18],[54,13],[117,83],[82,125],[7,13],[41,226],[118,42]],[[2267,3255],[29,-25]],[[2296,3230],[8,-6],[6,-3],[8,-4],[70,-29],[9,-3],[75,-22],[58,-16],[9,-3],[54,-30],[81,-56],[4,-2],[4,-2],[5,-1],[7,-2],[43,-2],[14,-4],[12,-10],[27,-34],[5,-5],[5,-4],[5,-2],[12,-5]],[[2817,2985],[2,0]],[[2819,2985],[2,-1]],[[2821,2984],[43,-16]],[[2864,2968],[2,0]],[[2866,2968],[1,-1]],[[2867,2967],[107,-38],[9,-3],[9,-2],[16,-2],[58,-8],[9,-1],[737,-45]],[[3812,2868],[43,-7]],[[3855,2861],[2,0]],[[3857,2861],[4,0]],[[3861,2861],[92,-14],[35,-11],[6,-1],[6,-1],[8,0],[6,2],[73,19],[1,1]],[[2296,3230],[101,-45],[133,-37],[9,-4],[54,-30],[89,-60],[55,-5],[14,-4],[12,-10],[32,-39],[20,-10]],[[2815,2986],[6,-2]],[[2821,2984],[41,-15]],[[2862,2969],[8,-2]],[[2870,2967],[202,-54],[427,-14],[156,-13],[147,-17],[17,-2],[34,-5]],[[2817,2985],[-2,1]],[[2819,2985],[2,-1]],[[2821,2984],[4,-2],[36,-13],[5,-1]],[[2864,2968],[-2,1]],[[2867,2967],[3,0]],[[3812,2868],[41,-7],[4,0]],[[3853,2862],[2,-1]],[[4088,2856],[-87,-22],[-49,13],[-89,14]],[[3863,2861],[-10,1]],[[3861,2861],[2,0]],[[4088,2856],[8,2]],[[397,0],[36,22],[9,5],[8,6],[11,9],[7,6],[5,6],[9,11],[7,9],[94,136],[13,19],[4,8],[8,15],[117,225],[5,10],[3,7],[4,10],[52,166],[12,29],[166,215],[8,12],[51,83],[7,11],[5,11],[2,5],[4,13],[5,16],[56,225],[3,11],[2,14],[1,11],[0,9],[-1,407],[3,29],[5,20],[95,302],[4,14],[4,17],[2,13],[18,205],[45,115],[23,36],[113,118],[7,9],[5,7],[8,11],[3,7],[15,30],[65,128],[7,14],[75,103],[7,11],[8,14],[5,10],[5,14],[16,53],[102,218],[20,25],[194,191],[8,8],[9,11],[10,15],[8,14],[37,77],[4,8],[5,12],[4,18],[3,14],[0,11],[23,452]],[[2075,4096],[-32,-500],[-66,-125],[-206,-205],[-21,-26],[-102,-218],[-26,-77],[-90,-128],[-8,-14],[-83,-165],[-132,-145],[-24,-36],[-44,-115],[-24,-235],[-99,-316],[-5,-20],[-3,-29],[0,-427],[-70,-279],[-239,-337],[-13,-29],[-58,-183],[-134,-258],[-123,-175],[-76,-54]],[[1641,2992],[0,-2],[1,2],[-1,0]],[[2741,701],[37,-16]],[[2786,681],[-33,18],[-12,4]],[[2492,619],[-23,18]],[[2729,466],[-3,-11]],[[2725,464],[-1,-20]],[[2725,445],[1,19]],[[4029,2945],[-44,-50]],[[1281,3742],[-127,22]],[[1320,3737],[175,-83]],[[1584,3640],[107,-29],[119,50],[67,0]],[[75,3184],[16,-9]],[[92,3176],[-16,9]],[[91,3175],[1,0]],[[92,3175],[0,1]],[[92,3175],[23,-71]],[[116,3105],[-20,66],[-4,4]],[[92,3175]],[[2873,643],[27,-8],[123,-21]],[[3023,615],[-6,2],[-117,19],[-26,7]],[[4063,2934],[33,23]],[[2628,522],[39,-27]],[[2726,446],[0,9]],[[29,3092],[1,-1]],[[30,3092]],[[2724,444],[-2,-41]],[[2723,402],[2,43]],[[2726,471],[-1,-7]],[[2726,464],[1,7]],[[4094,3018],[2,3]],[[3261,0],[-131,132]],[[2323,329],[-45,70]],[[2278,399],[-5,8],[10,41],[104,112]],[[2386,560],[-7,-7],[-38,-36],[-58,-68],[-10,-44],[5,-6]],[[2278,399],[40,-46],[6,-21]],[[2427,667],[-2,-5]],[[2426,662],[2,5]],[[3291,1359],[-48,-105]],[[3244,1254],[47,105]],[[3343,1575],[-14,-47]],[[3329,1527],[14,45]],[[3974,196],[-68,47]],[[3335,1686],[1,7]],[[3360,1711],[-24,-18]],[[3336,1693],[24,17]],[[962,3798],[-25,7]],[[962,3798],[3,11]],[[965,3809],[3,1]],[[1021,3790],[-53,20]],[[2800,671],[5,-2]],[[3353,1698],[6,10]],[[2406,685],[0,-6]],[[2406,984],[10,47]],[[2071,2110],[-1,0],[-1,-2],[2,0],[0,2]],[[2406,984],[-105,15]],[[2732,629],[0,-2]],[[2754,508],[-1,-2]],[[4025,3725],[-3,2]],[[4065,3692],[-14,13]],[[3023,614],[10,-3]],[[3033,611],[-10,4]],[[2628,522],[15,24]],[[2732,385],[60,-12]],[[214,3306],[9,6],[47,48]],[[263,3353],[-48,-45]],[[2784,681],[16,-10]],[[2805,669],[-19,12]],[[1154,3764],[-66,11]],[[1320,3737],[-39,5]],[[1495,3654],[59,15]],[[1560,3667],[-1,1]],[[1560,3642],[24,-2]],[[1877,3661],[50,5],[31,35],[102,4],[227,-74],[239,3]],[[3011,3588],[-237,121],[-244,-72]],[[3011,3588],[1,-1]],[[3013,3587],[-2,1]],[[3013,3589],[0,-2]],[[3146,4055],[13,-134],[-38,-149],[-108,-183]],[[3013,3587],[0,2]],[[3146,4057],[0,-2]],[[3146,4055],[1,2]],[[3149,4058],[-2,0]],[[3147,4057],[2,1]],[[3221,4096],[-72,-38]],[[3013,3587],[-1,0],[1,0]],[[3148,4058],[-1,0],[-1,-1]],[[3146,4057],[1,0],[1,1]],[[2722,613],[0,-1]],[[2668,498],[8,30]],[[2689,499],[-9,-9]],[[3404,1833],[6,104]],[[3407,1703]],[[3408,1702],[0,1]],[[3369,1731],[5,12]],[[3374,1743],[-2,-5]],[[3374,1743],[12,33]],[[117,3099],[22,-4]],[[143,3095],[-25,5]],[[139,3095],[4,0]],[[117,3100],[0,-1]],[[117,3099],[1,0],[0,1],[-1,0]],[[4066,3084],[-51,-15]],[[2676,528],[1,7]],[[2733,483],[2,-2]],[[3096,172],[-3,10]],[[92,3176],[-1,-1]],[[2775,590],[-21,-82]],[[2754,508],[23,81]],[[2473,741],[167,74]],[[2639,816],[-165,-73]],[[3372,1738],[-4,-7]],[[577,2869],[0,1]],[[579,2867],[118,-42]],[[766,2798],[227,-35],[115,-75],[130,-42]],[[1238,2646],[5,-1]],[[1244,2645],[-6,1]],[[1251,2641],[2,-5]],[[1253,2636],[-2,5]],[[1253,2636],[86,-102],[69,-142]],[[1410,2372],[1,-1]],[[1411,2375],[-1,0]],[[1410,2375],[-1,-3],[1,0]],[[1410,2372],[1,1],[-1,2]],[[1411,2371],[0,1]],[[1411,2371],[21,-90],[185,-378]],[[1617,1903],[8,-13]],[[1625,1890],[39,-92],[154,-93]],[[1818,1705],[21,-13]],[[1839,1692],[-4,3],[-17,10]],[[1839,1692],[152,-69],[64,-105]],[[2069,1495],[160,-169],[141,-85],[47,-100]],[[3033,610]],[[4071,187],[25,11]],[[2448,678],[-33,0]],[[3956,2861],[0,-1]],[[2803,667],[2,2]],[[3451,1672],[38,-26]],[[2784,681],[27,-15],[62,-23]],[[2874,643],[-82,34]],[[874,3788],[1,-2]],[[876,3790],[-2,0]],[[875,3786],[-1,3]],[[874,3789],[2,1]],[[875,3786],[6,-13]],[[876,3790],[42,16]],[[881,3773],[0,-2]],[[881,3771],[0,2]],[[918,3806],[1,2]],[[919,3808],[-1,-2]],[[874,3789],[-1,1],[0,-1],[0,-1],[1,1]],[[882,3771],[-1,0]],[[881,3771],[-1,-1],[1,0],[1,1]],[[115,3104],[2,-4]],[[118,3100],[-2,5]],[[139,3095]],[[167,3086],[-16,8],[-8,1]],[[143,3095],[24,-9]],[[167,3086],[212,-110]],[[2550,794],[11,-11],[16,9]],[[2567,790],[-17,4]],[[2723,402],[-1,1]],[[2862,930],[32,-109]],[[2894,815],[4,29],[-25,76]],[[3034,610],[2,-1]],[[3036,609],[-2,1]],[[3135,580],[-99,29]],[[76,3187],[-1,-3]],[[76,3185],[0,2]],[[100,3270],[-24,-83]],[[100,3270],[1,3]],[[100,3273],[0,-3]],[[2374,680],[-44,26]],[[734,1648],[143,8]],[[2606,565],[-3,0]],[[2636,575],[-1,0]],[[2687,647],[21,-3]],[[2705,551],[0,6]],[[2719,573],[3,3]],[[2722,612],[-1,-2]],[[2722,613],[7,7]],[[2330,706],[-29,31]],[[2821,687],[-20,-20]],[[2806,670],[31,29]],[[4031,1394],[0,1]],[[3315,539],[5,0]],[[2602,794],[24,-16]],[[2626,778],[-20,11]],[[2626,778],[3,-1]],[[2792,677],[-6,4]],[[574,2871],[5,-4]],[[1243,2645],[8,-4]],[[1251,2641],[-4,3],[-3,1]],[[1408,2392],[3,-16]],[[93,3286],[34,0]],[[127,3286],[-20,0]],[[937,3821],[-124,-81]],[[813,3739],[101,61],[24,20]],[[976,3855],[-30,-27]],[[952,3833],[25,22]],[[2450,669]],[[2646,552],[3,19]],[[2751,505],[3,3]],[[2753,506],[-1,-1]],[[104,3287],[-3,-11]],[[2301,2035],[-49,31]],[[1675,1970],[2,2]],[[2108,2097],[13,-3]],[[2521,1872],[3,14]],[[3122,1726],[-4,2]],[[2557,883],[34,-70]],[[2591,813],[11,-19]],[[2606,789],[-15,24]],[[2629,777],[13,-7]],[[2272,872],[66,18],[-37,109]],[[3401,510],[-81,29]],[[3401,510],[6,-4]],[[3406,508],[-5,2]],[[1163,4096],[-4,-4],[-45,-27],[-24,-23],[-1,-1]],[[1090,4041],[69,51],[4,4]],[[2778,685],[6,-4]],[[2492,619],[44,-47]],[[2726,446],[14,-10]],[[2672,742],[5,-2]],[[2862,710],[-41,-23]],[[2837,699],[25,11]],[[2893,769],[-31,-59]],[[2103,2071]],[[3096,168],[0,4]],[[4029,1399],[0,-2]],[[2732,629],[-17,9]],[[2121,2094],[11,-2]],[[2776,592],[1,-1]],[[2778,593],[-2,0]],[[2722,402],[1,0]],[[1561,3658],[0,-1]],[[3286,1669],[49,17]],[[4048,1368],[-3,-11]],[[785,2885],[55,-1]],[[2417,1141],[93,-19],[-12,-143],[59,-96]],[[2119,35],[-10,-20]],[[2524,1886],[0,2]],[[2684,2987],[-1,1]],[[3882,3031],[7,3]],[[2275,838],[3,17]],[[2450,669],[-1,1]],[[2643,546],[3,6]],[[2927,185],[-3,90]],[[2945,172],[-16,10]],[[48,3113],[-1,-2]],[[47,3110],[1,3]],[[48,3113],[-1,16]],[[3320,539],[-108,41],[-77,0]],[[2075,1262],[0,-8]],[[3407,507],[-1,1]],[[3906,243],[-55,65],[-234,81],[-59,-1],[-141,107]],[[4070,188],[-96,8]],[[4033,3717],[6,-5]],[[0,1670],[68,-22],[139,46],[270,-66],[51,13]],[[544,1634],[-1,-1]],[[543,1633],[1,1]],[[544,1634],[190,14]],[[877,1656],[143,69],[92,116],[145,37],[93,78],[268,-59]],[[1625,1902],[-7,-5]],[[1625,1902],[50,68]],[[1677,1972],[122,69],[120,24]],[[1926,2073],[142,35]],[[2068,2108],[2,0]],[[2069,2109],[-1,-1]],[[2073,2109],[-2,0]],[[2071,2109],[2,0]],[[2073,2109],[35,-12]],[[2252,2066],[-120,26]],[[2524,1888],[-223,147]],[[3082,1749],[-157,105],[-404,18]],[[3118,1728],[-36,21]],[[3286,1669],[-164,57]],[[3360,1710],[43,-7]],[[3402,1704],[-13,4],[-29,3]],[[3489,1646],[100,-70],[184,-33],[91,21]],[[3033,611]],[[3034,610]],[[3034,611]],[[47,3109]],[[52,3134],[1,0]],[[54,3136],[-1,-1]],[[53,3134]],[[75,3180],[-1,-11]],[[75,3180],[1,5]],[[75,3184],[0,-4]],[[2751,2887],[20,8]],[[3082,1749]],[[2739,701],[2,0]],[[2741,701],[0,2]],[[2777,589],[1,39]],[[2131,1182],[80,-21]],[[3951,2856],[-33,-37]],[[3951,2856],[5,5]],[[3956,2863],[-5,-7]],[[3959,2862],[-1,1]],[[3985,2895],[-24,-27]],[[4096,3021],[-67,-76]],[[2538,555],[-2,17]],[[2553,548],[25,10]],[[2649,571],[3,7]],[[2853,319],[-1,0]],[[2539,554],[-1,1]],[[2550,547],[3,1]],[[2603,565],[-25,-7]],[[2635,575],[-29,-10]],[[2636,575],[18,6]],[[2654,581],[-2,-2]],[[2654,581],[33,66]],[[2705,551],[-28,-16]],[[2705,557],[14,16]],[[2721,610],[1,-34]],[[2729,620],[3,7]],[[29,3089],[-2,-35]],[[28,3090]],[[28,3090],[1,-1]],[[29,3090],[-1,1]],[[29,3089],[0,1]],[[2739,704],[0,-3]],[[576,2870]],[[577,2869],[0,1]],[[1492,2184],[10,-18]],[[3033,611],[0,-1]],[[3034,611],[-1,0]],[[3033,610],[1,0]],[[3034,610],[0,1]],[[2722,578],[1,-1]],[[3404,1833],[-18,-57]],[[101,3276],[-1,-3]],[[3302,542],[13,-3]],[[1694,2923],[2,-1]],[[2685,2986],[0,1],[-1,0],[1,-1]],[[1718,1570],[128,-22],[4,-55]],[[1841,1493],[-36,-60],[27,-135],[25,-8],[28,73],[62,-25]],[[3130,132],[-14,11]],[[1554,3669],[5,-1]],[[4039,3712],[21,-16]],[[4070,188],[1,-1],[0,1],[-1,0]],[[2642,770],[4,-3]],[[2646,767],[16,-17]],[[2662,750],[10,-8]],[[2739,704],[-51,32],[-11,4],[62,-39]],[[2820,367],[-28,6]],[[2801,667],[-25,-38],[1,-34]],[[2778,628],[25,39]],[[1919,2065],[7,8]],[[3412,1699],[31,-21],[-29,21]],[[46,3108],[-2,-2]],[[1051,3781],[-30,9]],[[1060,3780],[-2,0]],[[101,3273],[5,18]],[[2530,3637],[-4,-3]],[[2897,780],[-2,-7]],[[2722,403],[-4,-116]],[[2716,236],[-7,-189],[44,-47]],[[2752,505],[-10,-13]],[[2742,492],[-16,-20],[0,-1]],[[2727,471],[0,1],[15,20]],[[2742,492],[9,13]],[[1840,2957],[284,69]],[[3994,1443],[5,-3]],[[3999,1440],[-3,3]],[[3999,1440],[29,-37]],[[4030,1396],[-1,3]],[[2108,15],[-8,-15]],[[2323,317],[-3,-12],[-1,-4]],[[2319,301],[-4,-12],[-2,-1]],[[2314,290],[5,11]],[[2319,301],[1,1],[3,12],[1,5]],[[3368,1730],[1,1]],[[3410,1937],[2,70]],[[3411,2014],[1,-7]],[[3412,2007],[0,7]],[[3871,2740],[2,23]],[[3918,2819],[-43,-49]],[[3961,2868],[-1,-1]],[[4060,3696],[1,-1],[35,-28]],[[4096,3668],[-31,24]],[[3875,2770],[-1,0],[0,-1],[1,0],[0,1]],[[3408,1702],[4,-3]],[[3414,1699],[-6,4]],[[4030,1395],[2,-3]],[[4031,1395],[-1,1]],[[4032,1392],[-1,2]],[[4032,1392],[7,-9]],[[4039,1383],[8,-12]],[[697,2825],[69,-27]],[[528,1641],[13,-7]],[[541,1634],[1,-1]],[[542,1633],[-1,1]],[[543,1633],[-1,0]],[[542,1633],[0,-1],[1,1]],[[2324,332],[0,-2],[0,-3]],[[2324,327],[-1,-10]],[[2324,319],[1,7],[-1,1]],[[2324,327],[-1,2]],[[2425,662],[-39,-102]],[[2387,560],[6,6],[33,96]],[[2474,743],[-47,-76]],[[2428,667],[45,74]],[[3243,1254],[-130,-103],[-159,-152],[-114,-78],[-130,-62],[-71,-43]],[[2640,815],[198,104],[116,79],[290,256]],[[3329,1528],[-33,-96],[-5,-73]],[[3291,1359],[38,168]],[[3343,1572],[4,13],[-2,107],[23,38]],[[3368,1731],[-9,-9],[-15,-31],[-1,-4],[0,-112]],[[3754,4096],[39,-90],[38,-84]],[[3831,3922],[1,-3]],[[3832,3919],[1,-2],[76,-101],[124,-99]],[[4022,3727],[-113,89],[-18,50],[-59,53]],[[3832,3919],[-1,3]],[[3831,3922],[-37,84],[-17,37],[-23,53]],[[3871,2740],[-17,-66],[-93,-109],[-302,-233],[-4,-12],[-2,-8],[0,-7]],[[3453,2305],[0,-3],[0,-15],[-6,-37],[-6,-20],[-4,-15]],[[3437,2215],[-2,-7],[-1,-1],[-1,-5],[-4,-15],[-7,-16],[0,-4]],[[3422,2167],[-7,-70]],[[3415,2097],[-2,-23],[-2,-60]],[[3412,2014],[2,60],[1,23]],[[3415,2097],[3,58],[4,11],[0,1]],[[3422,2167],[11,32],[2,9],[2,7]],[[3437,2215],[16,90]],[[3453,2305],[3,14],[3,9],[233,181],[70,56],[93,109],[17,40],[0,28]],[[3407,1703],[1,-1]],[[3408,1703],[-1,0]],[[2741,703],[-2,1]],[[2894,821],[0,-1]],[[3996,1443],[-2,0]],[[4029,1397],[1,-2]],[[4047,1371],[1,-3]],[[2044,2053],[-78,-119],[2,-78],[-42,-122],[-98,-36]],[[2059,2072]],[[2098,2053],[35,18]],[[2388,681],[-14,-1]],[[2539,554],[11,-7]],[[2690,498],[28,-16]],[[2735,481],[-6,-15]],[[574,2871],[211,14]],[[840,2884],[215,59],[368,-3],[142,41],[129,-58]],[[1696,2922],[96,-13],[48,48]],[[2124,3026],[174,56],[205,-20],[181,-75]],[[2685,2986],[1,-2]],[[2686,2984],[-1,2]],[[2686,2984],[19,-68],[46,-29]],[[3756,2990],[-296,-48],[-80,-63],[-107,-13],[-96,46],[-209,12],[-197,-29]],[[3882,3031],[-122,-28]],[[4015,3069],[-126,-35]],[[4078,3087],[18,-6]],[[922,3810],[-2,0]],[[920,3809],[2,1]],[[937,3805],[-15,5]],[[920,3809],[-1,1],[-1,-1],[2,-1],[0,1]],[[2363,1102],[53,-71]],[[1828,1698],[-110,-128]],[[1944,1793],[-8,-18]],[[2678,489],[-11,6]],[[4039,1383]],[[2805,669],[1,1]],[[3407,506],[5,-3]],[[3412,503],[-5,4]],[[3417,495],[-5,8]],[[0,3280],[9,1],[28,2]],[[37,3283],[47,3],[9,0]],[[107,3286],[-6,0],[-64,-3]],[[37,3283],[-28,-2],[-9,-1]],[[4083,3087],[-11,-1]],[[3443,1678],[8,-6]],[[77,3184],[-2,0]],[[75,3183],[2,1]],[[2762,534],[-2,2]],[[2803,670],[1,-1]],[[2805,671],[-1,-1]],[[2804,669],[1,-1]],[[2818,665],[-13,5]],[[215,3308],[-21,-12],[-47,-9],[-1,0],[-12,-1]],[[134,3286],[-7,0]],[[127,3286],[7,0]],[[134,3286],[12,0],[1,1],[48,8],[19,11]],[[813,3740],[-224,-159],[-45,-12],[-122,-54],[-10,-7],[-149,-155]],[[270,3360],[147,152],[170,67],[170,106],[56,54]],[[1089,4041],[-85,-113],[-8,-15],[-20,-58]],[[977,3855],[19,56],[0,2],[68,76],[13,20],[13,32]],[[3760,3003],[-4,-13]],[[2109,15],[-1,0]],[[2189,119],[-70,-84]],[[2310,284],[-3,-11]],[[2310,285],[0,-1]],[[2310,284],[1,1]],[[2313,288],[-1,-1]],[[2312,287],[-1,0]],[[2312,286],[0,1]],[[2312,287],[2,3]],[[2312,285],[-1,2]],[[2311,287],[-1,-1],[0,-1],[2,0]],[[30,3093],[-2,-3]],[[28,3090],[2,3]],[[30,3093],[17,16]],[[47,3109],[-1,-1]],[[47,3129],[5,4]],[[52,3133],[1,1]],[[53,3134],[-1,-1]],[[4029,2945],[34,-11]],[[2098,2053]],[[2272,872],[6,-17]],[[2345,780],[-70,58]],[[2406,685],[-18,-4]],[[2406,679],[9,-1]],[[2448,678],[1,-8]],[[2690,498],[-1,1]],[[2726,480],[-8,2]],[[2726,481],[7,2]],[[2740,436],[-8,-51]],[[2852,319],[-27,6],[-5,42]],[[2853,319],[63,-10],[8,-34]],[[2929,182],[-2,3]],[[3093,182],[-107,17],[-41,-27]],[[3116,143],[-20,25]],[[382,2974],[3,-1]],[[1561,3657],[-1,-15]],[[1560,3667],[1,-9]],[[4066,3084],[12,3]],[[2895,773],[-2,-4]],[[2894,820],[1,-15]],[[2895,805],[-1,10]],[[2895,805],[2,-25]],[[2716,236],[7,166]],[[46,3108],[1,0]],[[27,3054],[-1,-3]],[[1841,1493],[9,0]],[[1977,1327],[-30,11]],[[2033,2033],[57,-22],[8,42]],[[2075,1264],[0,-2]],[[2133,2071],[-1,21]],[[2345,780],[-44,-43]],[[2078,1281],[-3,-17]],[[2075,1254],[6,-59],[50,-13]],[[2211,1161],[152,-59]],[[53,3135],[21,34]],[[1321,3737],[4,-1]],[[4045,1357],[17,-78],[34,-6]],[[2078,1281],[-101,46]],[[2726,481],[0,-1]],[[379,2976],[3,-2]],[[385,2973],[137,-75]],[[573,2871],[1,0]],[[2777,595],[-2,-5]],[[2667,495],[1,3]],[[2680,490],[-2,-1]],[[2055,1518],[14,-23]],[[2228,176],[-39,-57]],[[2228,176],[66,73]],[[2294,249],[12,22]],[[2307,272],[0,1],[-1,-1],[0,-1],[1,1]],[[3406,1703],[-4,1]],[[3403,1703],[3,-1]],[[3986,1445],[-122,119]],[[3986,1445],[8,-2]],[[3994,1443],[-8,2]],[[4048,1368]],[[2776,627],[2,-1]],[[2778,628],[-2,1]],[[946,3828],[-9,-7]],[[938,3820],[14,13]],[[0,2783],[26,268]],[[522,2898],[51,-27]],[[2777,631],[1,-1]],[[2450,669],[21,-35]],[[0,0],[0,4096],[4096,0],[0,-4096],[-4096,0]],[[1120,3952],[19,38],[137,-86],[-128,-13],[-25,10],[20,25],[-23,26]],[[2412,4096],[49,0],[-48,-4],[-1,4]],[[3456,742],[66,68],[-12,29],[149,73],[20,-18],[-23,-23],[-1,-141],[383,-128],[11,-34],[-31,-20],[22,-30],[-102,-40],[0,24],[-40,-1],[-1,104],[-27,-20],[-150,-1],[-6,-20],[-22,51],[-44,-5],[-29,52],[-39,0],[-33,-66],[13,43],[-94,42],[-10,61]],[[2856,566],[-108,-64],[-42,2],[-64,51],[-65,-51],[-32,51],[-53,-14],[53,-140],[98,-35],[-1,-69],[-212,11],[-47,41],[14,158],[78,238],[5,172],[41,-4],[121,-99],[203,-6],[56,-46],[-45,-196]],[[4096,1510],[0,-164],[-4,-4],[-41,10],[-162,150],[-26,55],[9,83],[38,2],[59,-105],[114,-17],[13,-10]],[[3483,1686],[-76,14],[-53,43],[29,81],[68,27],[75,-14],[54,-42],[-29,-82],[-68,-27]],[[121,3272],[29,-84],[-64,-154],[-28,-5],[-58,46],[0,373],[38,2],[112,-107],[-29,-71]],[[965,3602],[-91,35],[-64,107],[-13,167],[99,-10],[79,-43],[54,-81],[27,-124],[-91,-51]],[[4096,3189],[0,-154],[-31,50],[-5,77],[36,27]],[[2474,451],[109,98],[141,-85],[66,34],[40,-79],[-12,-38],[-92,65],[-19,-21],[-115,21],[-39,-10],[-12,-36],[-67,51]],[[2420,667],[72,4],[12,-31],[70,8],[67,-24],[-3,-19],[-33,8],[-14,-25],[-82,-24],[-27,55],[-62,48]],[[1960,1113],[21,35],[121,-5],[37,48],[68,-24],[32,-59],[27,12],[81,-63],[-22,-48],[-47,28],[-10,-21],[-308,97]],[[3650,766],[18,40],[2,-1],[0,1],[1,0],[1,1],[0,-1],[1,-1],[1,1],[-2,1],[-3,-1],[3,1],[4,2],[2,1],[3,1],[2,1],[24,13],[-39,-19],[29,67],[14,-46],[-6,-5],[-1,-5],[0,1],[-3,1],[-3,-2],[0,-2],[-1,1],[-2,0],[-3,-2],[-2,-2],[0,-1],[-5,1],[-10,-4],[15,2],[2,4],[6,1],[4,3],[2,-2],[8,11],[95,4],[5,-33],[-45,-56],[-9,37],[-108,-13]],[[3266,1001],[17,39],[2,0],[-2,0],[10,29],[224,-88],[-12,-18],[-77,20],[-16,-19],[5,-3],[-4,-35],[90,-30],[21,27],[66,4],[-5,-40],[-56,-36],[-61,23],[-152,-31],[-14,19],[22,38],[-58,25],[55,76],[-37,23],[-18,-23]],[[3250,135],[7,24],[28,-25],[35,8],[68,-48],[45,-94],[-34,0],[-49,84],[-100,51]],[[2499,1549],[60,13],[8,-74],[126,-46],[-47,-36],[-6,25],[-4,-23],[-15,19],[-10,-36],[-9,-5],[-5,54],[-39,-4],[29,27],[-46,51],[9,29],[-51,6]],[[4096,446],[0,-97],[-1,0],[0,67],[-24,20],[25,10]],[[1023,1181],[34,64],[30,-27],[17,68],[44,-11],[-12,-38],[27,-9],[-42,-44],[34,-5],[-14,-15],[-62,-29],[-56,46]],[[907,1451],[37,-10],[41,40],[66,-7],[5,-68],[-42,-8],[27,-63],[-42,16],[14,-15],[-23,-25],[-19,11],[-46,55],[27,-10],[11,45],[-34,3],[4,-8],[-8,-15],[-18,59]],[[3037,123],[35,29],[16,-35],[93,32],[30,-53],[48,69],[-80,40],[110,67],[22,-53],[30,3],[-22,24],[25,-6],[18,27],[59,0],[-51,64],[10,43],[80,46],[39,-45],[256,-84],[7,-25],[144,-23],[74,-46],[-18,-2],[29,-26],[-20,-75],[49,-76],[-9,-18],[-893,0],[-34,6],[7,44],[-54,73]],[[1729,520],[114,83],[82,-30],[78,-83],[130,-48],[12,32],[-34,24],[23,61],[90,46],[94,-15],[5,25],[40,-6],[18,-46],[66,-33],[36,-60],[-29,-49],[-53,20],[-22,-38],[23,-16],[-78,-52],[-15,-63],[122,-67],[-3,-35],[-92,-88],[-30,50],[-28,-1],[-67,-96],[-80,14],[-22,-34],[-134,-10],[-88,103],[-125,84],[22,133],[-41,46],[53,14],[-44,50],[-23,85]],[[592,1417],[254,-48],[42,-27],[-17,-28],[32,-56],[-16,-10],[48,-16],[-12,134],[-22,24],[-72,24],[-126,93],[-16,-25],[-47,54],[39,7],[57,109],[142,10],[-23,-122],[-36,-25],[74,-55],[51,49],[96,-1],[67,36],[-13,-161],[-38,-7],[-2,-87],[144,-4],[25,-83],[-52,-62],[101,20],[25,-48],[-30,-29],[49,-15],[11,-22],[-23,-19],[54,-82],[-101,17],[-25,-37],[-74,-11],[-130,125],[-19,-42],[-27,16],[1,-67],[-112,-57],[-24,45],[43,100],[-243,-13],[60,121],[-34,-3],[-57,122],[38,92],[-42,7],[-20,57]],[[3351,1323],[24,-4],[11,58],[30,-10],[13,51],[109,8],[24,68],[51,28],[160,-32],[33,14],[61,-36],[41,15],[13,-24],[-35,-24],[65,-22],[-29,-70],[119,-8],[47,-175],[-98,11],[5,-60],[-33,11],[-92,-41],[-83,46],[-10,-28],[-95,-1],[-100,30],[-22,34],[-138,18],[-71,143]],[[2367,1283],[39,18],[-13,29],[46,36],[48,-34],[116,53],[-23,72],[-48,-1],[-6,54],[-21,-60],[-30,18],[23,112],[143,-36],[-1,-28],[115,28],[14,75],[63,-14],[60,75],[102,-3],[26,23],[121,-64],[7,18],[63,-33],[135,-9],[-7,-91],[-49,30],[-33,-53],[25,-23],[-18,4],[-23,-92],[53,-29],[-18,-92],[-91,-34],[-45,18],[-75,-67],[-91,27],[-74,-28],[-56,50],[-32,-27],[-49,26],[18,52],[-109,39],[-13,-36],[20,-14],[-22,8],[-30,-87],[-39,16],[-12,-29],[3,29],[-20,2],[-156,-38],[-18,45],[33,32],[-50,11],[-1,22]],[[1137,3704],[9,56],[39,19],[94,-15],[3,-40],[50,16],[19,180],[246,-16],[15,-41],[178,78],[128,20],[222,124],[18,-78],[-104,-104],[-91,-177],[-33,-1],[-4,-32],[-39,3],[-12,-39],[-65,1],[-59,-36],[14,-8],[-101,-106],[-165,9],[-52,70],[-40,-12],[-58,25],[-20,-49],[-39,50],[-94,39],[4,48],[-63,16]],[[1358,3802],[138,-123],[-6,-98],[96,42],[-6,49],[78,14],[-46,23],[-53,-16],[-27,24],[3,99],[-139,15],[-38,-29]],[[1609,3793],[62,-22],[37,35],[-21,34],[23,23],[-23,10],[-78,-80]],[[169,3230],[38,9],[0,61],[62,60],[87,-26],[6,24],[48,-7],[63,29],[-1,-31],[62,7],[-23,-51],[45,-85],[39,7],[142,141],[38,-3],[7,52],[91,-17],[34,29],[37,-10],[-21,-31],[24,-37],[-36,16],[-16,-39],[-54,-18],[3,-26],[55,-20],[24,36],[60,-29],[-1,-36],[-42,0],[-33,-69],[48,-26],[-57,-53],[0,-86],[-35,6],[-6,75],[-53,-10],[4,19],[-69,-19],[-6,-32],[-92,17],[-1,-71],[-113,-6],[-11,-20],[33,-39],[156,2],[-105,-4],[-31,-56],[23,-63],[71,-10],[25,11],[-11,26],[20,-8],[1,45],[47,-18],[44,43],[63,-6],[-9,-66],[-79,-9],[8,-48],[-20,-3],[26,-65],[51,5],[-1,-34],[-152,-71],[-3,-45],[33,-13],[-23,-25],[9,-102],[39,-79],[-41,-6],[39,-5],[-28,-27],[20,-36],[-11,-93],[-89,7],[-36,194],[41,342],[-65,93],[-69,174],[-65,-5],[51,15],[-3,67],[-174,30],[14,49],[-78,-11],[-68,114]],[[640,3133],[12,-51],[50,4],[46,78],[-52,29],[-56,-60]]]}