{"objects":{"water":{"type":"GeometryCollection","geometries":[]},"buildings":{"type":"GeometryCollection","geometries":[]},"places":{"type":"GeometryCollection","geometries":[{"type":"Point","properties":{"name:mt":"Krakovja","name:pt":"Crac\u00f3via","name:ro":"Cracovia","name:cs":"Krakov","min_zoom":8.0,"name:it":"Cracovia","name:ru":"\u041a\u0440\u0430\u043a\u043e\u0432","id":1838666975,"name:ca":"Crac\u00f2via","name:lv":"Krakova","kind_detail":"city","name:de":"Krakau","source":"openstreetmap.org","name:fr":"Cracovie","name:sl":"Krakov","name:nl":"Krakau","name:ja":"\u30af\u30e9\u30af\u30d5","name:lt":"Krokuva","kind":"locality","name:la":"Cracovia","name:sk":"Krakov","name:uk":"\u041a\u0440\u0430\u043a\u0456\u0432","name:be":"\u041a\u0440\u0430\u043a\u0430\u045e","name:hu":"Krakk\u00f3","name:hr":"Krakov","name:sr":"\u041a\u0440\u0430\u043a\u043e\u0432","population":762508,"name:eo":"Krakovo","name:en":"Krakow","name":"Krak\u00f3w","name:fi":"Krakova","name:eu":"Krakovia","name:es":"Cracovia"},"coordinates":[726,1021]},{"type":"Point","properties":{"kind":"locality","name":"Tarn\u00f3w","name:lt":"Tarnuvas","kind_detail":"city","name:de":"Tarnau","source":"openstreetmap.org","min_zoom":8.0,"name:uk":"\u0422\u0430\u0440\u043d\u0443\u0432","name:ru":"\u0422\u0430\u0440\u043d\u0443\u0432","population":112120,"name:zh":"\u5854\u723e\u52aa\u592b","id":34811728,"name:ja":"\u30bf\u30eb\u30cc\u30d5"},"coordinates":[3788,795]},{"type":"Point","properties":{"kind":"locality","name":"Bochnia","kind_detail":"town","name:de":"Salzberg","source":"openstreetmap.org","min_zoom":8.0,"name:uk":"\u0411\u043e\u0445\u043d\u044f","name:ru":"\u0411\u043e\u0445\u043d\u044f","id":248045354,"population":30219},"coordinates":[2164,599]},{"type":"Point","properties":{"kind":"locality","name":"Skawina","name:lt":"Skavina","kind_detail":"town","name:de":"Konradshof","source":"openstreetmap.org","min_zoom":8.0,"name:uk":"\u0421\u043a\u0430\u0432\u0456\u043d\u0430","name:ru":"\u0421\u043a\u0430\u0432\u0438\u043d\u0430","name:zh":"\u65af\u5361\u7dad\u7d0d","id":262894107,"population":24260},"coordinates":[405,624]},{"type":"Point","properties":{"kind":"locality","name":"Wieliczka","name:lt":"Veli\u010dka","kind_detail":"town","name:de":"Gro\u00df Salze","source":"openstreetmap.org","min_zoom":8.0,"name:ru":"\u0412\u0435\u043b\u0438\u0447\u043a\u0430","id":31943878,"population":21676},"coordinates":[1086,658]},{"type":"Point","properties":{"kind":"locality","name":"Brzesko","kind_detail":"town","name:he":"\u05d1\u05d6'\u05e1\u05e7\u05d5","source":"openstreetmap.org","min_zoom":8.0,"name:ru":"\u0411\u0436\u0435\u0441\u043a\u043e","id":268608330,"population":17097},"coordinates":[2678,592]},{"type":"Point","properties":{"kind":"locality","name":"Busko-Zdr\u00f3j","kind_detail":"town","source":"openstreetmap.org","min_zoom":8.0,"name:ru":"\u0411\u0443\u0441\u043a\u043e-\u0417\u0434\u0440\u0443\u0439","id":31898571,"population":16694},"coordinates":[3005,2870]},{"type":"Point","properties":{"name:lv":"Dombrova Tarnovska","name:ja":"\u30c9\u30f3\u30d6\u30ed\u30f4\u30a1\u30fb\u30bf\u30eb\u30ce\u30d5\u30b9\u30ab","name:he":"\u05d3\u05d5\u05de\u05d1\u05e8\u05d5\u05d1\u05d4 \u05d8\u05e8\u05e0\u05d5\u05d1\u05e1\u05e7\u05d4","min_zoom":8.0,"name:uk":"\u0414\u043e\u043c\u0431\u0440\u043e\u0432\u0430-\u0422\u0430\u0440\u043d\u043e\u0432\u0441\u044c\u043a\u0430","name:ru":"\u0414\u043e\u043c\u0431\u0440\u043e\u0432\u0430-\u0422\u0430\u0440\u043d\u043e\u0432\u0441\u043a\u0430","name:bg":"\u0414\u043e\u043c\u0431\u0440\u043e\u0432\u0430 \u0422\u0430\u0440\u043d\u043e\u0432\u0441\u043a\u0430","id":31896633,"population":11846,"kind":"locality","name":"D\u0105browa Tarnowska","kind_detail":"town","name:sr":"\u0414\u043e\u043c\u0431\u0440\u043e\u0432\u0430 \u0422\u0430\u0440\u043d\u043e\u0432\u0441\u043a\u0430","name:nl":"D\u0105browa Tarnowska (stad)","source":"openstreetmap.org","name:zh":"\u5854\u723e\u52aa\u592b\u7684\u68df\u5e03\u7f85\u74e6"},"coordinates":[3779,1533]},{"type":"Point","properties":{"kind":"locality","name":"Miech\u00f3w","kind_detail":"town","source":"openstreetmap.org","min_zoom":8.0,"name:uk":"\u041c\u0435\u0445\u0443\u0432","name:ru":"\u041c\u0435\u0445\u0443\u0432","id":31890453,"population":11832},"coordinates":[991,2364]},{"type":"Point","properties":{"kind":"locality","name:lv":"\u0145epolomice","name":"Niepo\u0142omice","alt_name:de":"Heidenau","kind_detail":"town","name:de":"Niepolomitz","source":"openstreetmap.org","min_zoom":8.0,"name:sr":"\u040a\u0435\u043f\u043e\u043b\u043e\u043c\u0438\u0446\u0435","name:uk":"\u041d\u0435\u043f\u043e\u043b\u043e\u043c\u0456\u0446\u0435","name:ru":"\u041d\u0435\u043f\u043e\u043b\u043e\u043c\u0438\u0446\u0435","name:bg":"\u041d\u0435\u043f\u043e\u043b\u043e\u043c\u0438\u0446\u0435","name:zh":"\u6d85\u6ce2\u6c83\u7c73\u91c7","id":31889794,"population":11573},"coordinates":[1542,890]},{"type":"Point","properties":{"kind":"locality","name":"Pi\u0144cz\u00f3w","name:lt":"Pin\u010duvas","kind_detail":"town","source":"openstreetmap.org","min_zoom":8.0,"name:ru":"\u041f\u0438\u043d\u044c\u0447\u0443\u0432","id":31889135,"population":11306},"coordinates":[2441,3110]},{"type":"Point","properties":{"kind":"locality","name":"Wolbrom","kind_detail":"town","source":"openstreetmap.org","min_zoom":8.0,"name:uk":"\u0412\u043e\u043b\u044c\u0431\u0440\u043e\u043c","name:ru":"\u0412\u043e\u043b\u044c\u0431\u0440\u043e\u043c","name:zh":"\u6c83\u723e\u5e03\u7f85\u59c6","id":243643366,"population":8874},"coordinates":[211,2493]},{"type":"Point","properties":{"kind":"locality","name":"Tuch\u00f3w","kind_detail":"town","source":"openstreetmap.org","min_zoom":8.0,"name:uk":"\u0422\u0443\u0445\u0443\u0432","name:ru":"\u0422\u0443\u0445\u0443\u0432","id":31945638,"population":6720},"coordinates":[3980,261]},{"type":"Point","properties":{"kind":"locality","name":"S\u0119dzisz\u00f3w","kind_detail":"town","source":"openstreetmap.org","min_zoom":8.0,"name:uk":"\u0421\u0435\u043d\u0434\u0437\u0456\u0448\u0443\u0432","name:ru":"\u0421\u0435\u043d\u0434\u0437\u0438\u0448\u0443\u0432","id":31888566,"population":6707},"coordinates":[1067,3313]},{"type":"Point","properties":{"kind":"locality","name":"Su\u0142kowice","kind_detail":"town","source":"openstreetmap.org","min_zoom":8.0,"name:ru":"\u0421\u0443\u043b\u043a\u043e\u0432\u0438\u0446\u0435","id":256355426,"population":6520},"coordinates":[331,13]},{"type":"Point","properties":{"kind":"locality","name":"Proszowice","kind_detail":"town","source":"openstreetmap.org","min_zoom":8.0,"name:uk":"\u041f\u0440\u043e\u0448\u043e\u0432\u0456\u0446\u0435","name:ru":"\u041f\u0440\u043e\u0448\u043e\u0432\u0438\u0446\u0435","id":31888928,"population":6184},"coordinates":[1760,1617]},{"type":"Point","properties":{"kind":"locality","name":"Kazimierza Wielka","kind_detail":"town","source":"openstreetmap.org","min_zoom":8.0,"name:ru":"\u041a\u0430\u0437\u0438\u043c\u0435\u0436\u0430-\u0412\u0435\u043b\u044c\u043a\u0430","id":31893519,"population":5748},"coordinates":[2324,1958]},{"type":"Point","properties":{"kind":"locality","name":"S\u0142omniki","kind_detail":"town","source":"openstreetmap.org","min_zoom":8.0,"name:uk":"\u0421\u043b\u043e\u043c\u043d\u0438\u043a\u0438","name:ru":"\u0421\u043b\u043e\u043c\u043d\u0438\u043a\u0438","id":31888437,"population":4423},"coordinates":[1147,1834]},{"type":"Point","properties":{"kind":"locality","name":"\u017babno","kind_detail":"town","source":"openstreetmap.org","min_zoom":8.0,"name:ru":"\u0416\u0430\u0431\u043d\u043e","id":260456352,"population":4223},"coordinates":[3491,1347]},{"type":"Point","properties":{"kind":"locality","name":"Ska\u0142a","name:lt":"Uoliena","kind_detail":"town","source":"openstreetmap.org","min_zoom":8.0,"name:uk":"\u0421\u043a\u0430\u043b\u0430","name:ru":"\u0421\u043a\u0430\u043b\u0430","id":243643364,"population":3762},"coordinates":[484,1789]},{"type":"Point","properties":{"kind":"locality","name":"Szczekociny","kind_detail":"town","source":"openstreetmap.org","min_zoom":8.0,"name:ru":"\u0429\u0435\u043a\u043e\u0446\u0438\u043d\u044b","id":31900343,"population":3745},"coordinates":[384,3592]},{"type":"Point","properties":{"kind":"locality","name":"Wojnicz","kind_detail":"town","source":"openstreetmap.org","min_zoom":8.0,"name:ru":"\u0412\u043e\u0439\u043d\u0438\u0447","id":31943251,"population":3404},"coordinates":[3346,544]},{"type":"Point","properties":{"kind":"locality","name":"Nowy Wi\u015bnicz","kind_detail":"town","name:he":"\u05d5\u05d9\u05e9\u05e0\u05d9\u05e6\u05d4","source":"openstreetmap.org","min_zoom":8.0,"name:uk":"\u041d\u043e\u0432\u0438\u0439 \u0412\u0456\u0441\u044c\u043d\u0438\u0447","name:ru":"\u041d\u043e\u0432\u044b-\u0412\u0438\u0441\u043d\u0438\u0447","id":303245076,"population":2757},"coordinates":[2256,352]},{"type":"Point","properties":{"kind":"locality","name":"\u015awi\u0105tniki G\u00f3rne","kind_detail":"town","source":"openstreetmap.org","min_zoom":8.0,"name:ru":"\u0421\u0432\u0451\u043d\u0442\u043d\u0438\u043a\u0438-\u0413\u0443\u0440\u043d\u0435","id":281792787,"population":2394},"coordinates":[772,441]},{"type":"Point","properties":{"kind":"locality","name":"Nowe Brzesko","kind_detail":"town","source":"openstreetmap.org","min_zoom":8.0,"name:ru":"\u041d\u043e\u0432\u0435-\u0411\u0436\u0435\u0441\u043a\u043e","id":31889649,"population":1700},"coordinates":[2007,1342]},{"type":"Point","properties":{"kind":"locality","name":"Zakliczyn","kind_detail":"town","source":"openstreetmap.org","min_zoom":8.0,"name:ru":"\u0417\u0430\u043a\u043b\u0438\u0447\u0438\u043d","id":31941066,"population":1558},"coordinates":[3266,84]},{"type":"Point","properties":{"kind":"locality","name":"Stopnica","kind_detail":"town","source":"openstreetmap.org","min_zoom":8.0,"name:ru":"\u0421\u0442\u043e\u043f\u043d\u0438\u0446\u0430","id":31888190,"population":1500},"coordinates":[3644,2737]},{"type":"Point","properties":{"kind":"locality","name":"Skalbmierz","kind_detail":"town","source":"openstreetmap.org","min_zoom":8.0,"name:ru":"\u0421\u043a\u0430\u043b\u044c\u0431\u043c\u0435\u0436","id":31888513,"population":1315},"coordinates":[2074,2184]},{"type":"Point","properties":{"kind":"locality","name":"Dzia\u0142oszyce","kind_detail":"town","source":"openstreetmap.org","min_zoom":8.0,"name:ru":"\u0414\u0437\u044f\u043b\u043e\u0448\u0438\u0446\u0435","id":31895302,"population":981},"coordinates":[1936,2405]},{"type":"Point","properties":{"source":"openstreetmap.org","kind":"locality","name":"J\u0119drzej\u00f3w","kind_detail":"town","population":16,"min_zoom":8.0,"id":31894002},"coordinates":[1797,3654]}]},"transit":{"type":"GeometryCollection","geometries":[{"type":"MultiLineString","properties":{"kind":"train","name":"Linia kolejowa nr 8 Warszawa Zachodnia - Krak\u00f3w G\u0142\u00f3wny Osobowy","sort_rank":275,"source":"openstreetmap.org","min_zoom":6.0,"operator":"PKP Polskie Linie Kolejowe S.A.","ref":"8","osm_relation":true,"network":"PKP"},"arcs":[[3],[4],[5]]},{"type":"LineString","properties":{"kind":"train","name":"Linia kolejowa w\u0105skotorowa nr 2014 Umianowice - Cudzynowice","sort_rank":275,"source":"openstreetmap.org","min_zoom":6.0,"operator":"J\u0119drzejowska Kolej Dojazdowa","ref":"2014","id":-7086814,"osm_relation":true},"arcs":[6]},{"type":"LineString","properties":{"kind":"train","network":"PKP","sort_rank":275,"source":"openstreetmap.org","min_zoom":6.0,"operator":"PKP Polskie Linie Kolejowe S.A.","ref":"117","id":-318909,"osm_relation":true,"name":"Linia kolejowa nr 117 Kalwaria Zebrzydowska Lanckorona - Bielsko Bia\u0142a G\u0142\u00f3wna"},"arcs":[7]},{"type":"MultiLineString","properties":{"kind":"train","name":"Linia kolejowa nr 62 Tunel - Sosnowiec G\u0142\u00f3wny","sort_rank":275,"source":"openstreetmap.org","min_zoom":6.0,"operator":"PKP Polskie Linie Kolejowe S.A.","ref":"62","osm_relation":true,"network":"PKP"},"arcs":[[8],[9]]},{"type":"MultiLineString","properties":{"kind":"train","name":"Linia kolejowa nr 91 Krak\u00f3w G\u0142\u00f3wny Osobowy - Medyka","sort_rank":275,"source":"openstreetmap.org","min_zoom":6.0,"operator":"PKP Polskie Linie Kolejowe S.A.","ref":"91","osm_relation":true,"network":"PKP"},"arcs":[[10],[11],[12]]},{"type":"MultiLineString","properties":{"source":"openstreetmap.org","kind":"train","name":"Line 97","sort_rank":275,"ref":"97","min_zoom":6.0,"osm_relation":true},"arcs":[[13],[14],[15],[16]]},{"type":"LineString","properties":{"kind":"train","name":"J\u0119drzejowska Kolej Dojazdowa","sort_rank":275,"source":"openstreetmap.org","min_zoom":6.0,"operator":"\u015awi\u0119tokrzyska Kolejka Dojazdowa","ref":"JKD","id":-6354979,"osm_relation":true},"arcs":[17]},{"type":"MultiLineString","properties":{"kind":"train","network":"PKP","sort_rank":275,"source":"openstreetmap.org","min_zoom":6.0,"operator":"PKP Polskie Linie Kolejowe S.A.","ref":"94","osm_relation":true,"name":"Linia kolejowa nr 94 Krak\u00f3w P\u0142asz\u00f3w - O\u015bwi\u0119cim"},"arcs":[[18],[19],[20],[21],[22]]},{"type":"LineString","properties":{"kind":"train","name":"Linia kolejowa w\u0105skotorowa nr 2013 J\u0119drzej\u00f3w - Szczucin","sort_rank":275,"source":"openstreetmap.org","min_zoom":6.0,"operator":"J\u0119drzejowska Kolej Dojazdowa","ref":"2013","id":-7086813,"osm_relation":true},"arcs":[23]},{"type":"LineString","properties":{"kind":"train","name":"Linia kolejowa nr 96 Tarn\u00f3w - Leluch\u00f3w","sort_rank":275,"source":"openstreetmap.org","min_zoom":6.0,"operator":"PKP Polskie Linie Kolejowe S.A.","ref":"96","osm_relation":true,"network":"PKP"},"arcs":[24]},{"type":"MultiLineString","properties":{"kind":"train","name":"Linia kolejowa nr 133 D\u0105browa G\u00f3rnicza Z\u0105bkowice - Krak\u00f3w G\u0142\u00f3wny Osobowy","sort_rank":275,"source":"openstreetmap.org","min_zoom":6.0,"operator":"PKP Polskie Linie Kolejowe S.A.","ref":"133","osm_relation":true,"network":"PKP"},"arcs":[[25],[26]]},{"type":"MultiLineString","properties":{"kind":"train","name":"Centralna Magistrala Kolejowa","sort_rank":275,"source":"openstreetmap.org","min_zoom":6.0,"operator":"PKP Polskie Linie Kolejowe S.A.","ref":"4","osm_relation":true,"network":"PKP"},"arcs":[[27],[28]]}]},"pois":{"type":"GeometryCollection","geometries":[{"type":"Point","properties":{"kind":"national_park","protect_class":"2","area":52308000,"source":"openstreetmap.org","min_zoom":8.0,"tier":1,"id":-6247785,"osm_relation":true,"name":"Ojcowski Park Narodowy"},"coordinates":[353,1699]},{"type":"Point","properties":{"kind":"nature_reserve","protect_class":"5","area":342254000,"source":"openstreetmap.org","min_zoom":8.08,"tier":2,"id":-4524593,"osm_relation":true,"name":"Wi\u015bnicko-Lipnicki Park Krajobrazowy"},"coordinates":[2285,172]},{"type":"Point","properties":{"kind":"nature_reserve","protect_class":"5","area":280123000,"source":"openstreetmap.org","min_zoom":8.23,"tier":2,"id":-4524563,"osm_relation":true,"name":"Szaniecki Park Krajobrazowy"},"coordinates":[3047,3041]},{"type":"Point","properties":{"kind":"nature_reserve","protect_class":"5","area":151999000,"source":"openstreetmap.org","min_zoom":8.67,"tier":2,"id":-4524332,"osm_relation":true,"name":"Kozubowski Park Krajobrazowy"},"coordinates":[2279,2648]},{"type":"Point","properties":{"kind":"nature_reserve","protect_class":"5","area":179048000,"source":"openstreetmap.org","min_zoom":8.55,"tier":2,"id":-4522355,"osm_relation":true,"name":"Nadnidzia\u0144ski Park Krajobrazowy"},"coordinates":[2526,2910]},{"type":"Point","properties":{"kind":"nature_reserve","protect_class":"5","area":154713000,"source":"openstreetmap.org","min_zoom":8.65,"tier":2,"id":-4519978,"osm_relation":true,"name":"Biela\u0144sko-Tyniecki Park Krajobrazowy"},"coordinates":[460,870]},{"type":"Point","properties":{"kind":"nature_reserve","protect_class":"5","area":501869000,"name:de":"Landschaftsschutzpark Krakauer T\u00e4ler","source":"openstreetmap.org","min_zoom":7.8,"tier":2,"id":-4519929,"osm_relation":true,"name":"Park Krajobrazowy Dolinki Krakowskie"},"coordinates":[41,1576]},{"type":"Point","properties":{"kind":"nature_reserve","protect_class":"5","area":267950000,"source":"openstreetmap.org","min_zoom":8.26,"tier":2,"id":-4519924,"osm_relation":true,"name":"D\u0142ubnia\u0144ski Park Krajobrazowy"},"coordinates":[855,1745]}]},"boundaries":{"type":"GeometryCollection","geometries":[{"type":"LineString","properties":{"name:left:la":"Silesia vaivodatus","alt_name:left:en":"Silesian Province","name:right:uk":"\u041c\u0430\u043b\u043e\u043f\u043e\u043b\u044c\u0441\u044c\u043a\u0435 \u0432\u043e\u0454\u0432\u043e\u0434\u0441\u0442\u0432\u043e","name:left:sv":"Schlesiens vojvodskap","name:left:sr":"\u0412\u043e\u0458\u0432\u043e\u0434\u0441\u0442\u0432\u043e \u0448\u043b\u0435\u0441\u043a\u043e","name:left:sl":"\u0160lezijsko vojvodstvo","min_zoom":8.0,"name:left:lt":"Silezijos vaivadija","name:left:lv":"Sil\u0113zijas vojevodiste","name:left:hu":"Szil\u00e9ziai vajdas\u00e1g","name:left:hr":"\u0160lesko vojvodstvo","short_name:left":"\u015bl\u0105skie","sort_rank":256,"name:left:ca":"Voivodat de Sil\u00e8sia","name:left:gl":"Voivodato de Silesia","source":"openstreetmap.org","name:left:gv":"Queiggey ny Sileesh","loc_name:left":"\u015al\u0105sk","name:left:cs":"Slezsk\u00e9 vojvodstv\u00ed","name:left":"wojew\u00f3dztwo \u015bl\u0105skie","name:right:es":"Voivodato de Peque\u00f1a Polonia","name:left:ka":"\u10e1\u10d8\u10da\u10d4\u10d6\u10d8\u10d8\u10e1 \u10e1\u10d0\u10d5\u10dd\u10d4\u10d5\u10dd\u10d3\u10dd","name:left:ko":"\uc2e4\ub871\uc2a4\ud06c \uc8fc","name:left:ro":"Voievodatul Silezia","name:right:ru":"\u041c\u0430\u043b\u043e\u043f\u043e\u043b\u044c\u0441\u043a\u043e\u0435 \u0432\u043e\u0435\u0432\u043e\u0434\u0441\u0442\u0432\u043e","name:left:ru":"\u0421\u0438\u043b\u0435\u0437\u0441\u043a\u043e\u0435 \u0432\u043e\u0435\u0432\u043e\u0434\u0441\u0442\u0432\u043e","name:left:oc":"Voivodat de Sil\u00e8sia","name:right:eo":"Malgrandpollanda Provinco","name:right:en":"Lesser Poland Voivodeship","name:left:nn":"Schlesiske voivodskap","kind":"region","name":"wojew\u00f3dztwo \u015bl\u0105skie - wojew\u00f3dztwo ma\u0142opolskie","name:left:fi":"Sleesian voivodikunta","name:left:zh":"\u897f\u91cc\u897f\u4e9a\u7701","name:left:fr":"Sil\u00e9sie","alt_name:right:en":"Ma\u0142opolska Province","name:left:bs":"\u0160lesko vojvodstvo","name:right:nl":"Woiwodschap Klein-Polen","name:right:ja":"\u30de\u30a6\u30a9\u30dd\u30eb\u30b9\u30ab\u770c","name:right:fr":"Petite-Pologne","name:left:sk":"Sliezske vojvodstvo","name:right:sl":"Malopoljsko vojvodstvo","name:left:ja":"\u30b7\u30ed\u30f3\u30b9\u30af\u770c","id:right":-224459,"name:left:uk":"\u0421\u0456\u043b\u0435\u0437\u044c\u043a\u0435 \u0432\u043e\u0454\u0432\u043e\u0434\u0441\u0442\u0432\u043e","name:left:no":"Schlesiske voivodskap","name:left:nl":"Woiwodschap Silezi\u00eb","name:left:bg":"\u0421\u0438\u043b\u0435\u0437\u043a\u043e \u0432\u043e\u0439\u0432\u043e\u0434\u0441\u0442\u0432\u043e","name:left:be":"\u0421\u0456\u043b\u0435\u0437\u0441\u043a\u0430\u0435 \u0432\u0430\u044f\u0432\u043e\u0434\u0441\u0442\u0432\u0430","name:right:be":"\u041c\u0430\u043b\u0430\u043f\u043e\u043b\u044c\u0441\u043a\u0430\u0435 \u0432\u0430\u044f\u0432\u043e\u0434\u0441\u0442\u0432\u0430","name:left:jv":"Provinsi Silesia","id":-224462,"name:right":"wojew\u00f3dztwo ma\u0142opolskie","name:left:eo":"Silezia Provinco","name:left:en":"Silesian Voivodeship","kind_detail":"4","id:left":-224462,"name:left:es":"Voivodato de Silesia","name:right:cs":"Malopolsk\u00e9 vojvodstv\u00ed","name:left:eu":"Silesiako voivoderria","name:left:et":"Sileesia vojevoodkond","name:left:ar":"\u0645\u062d\u0627\u0641\u0638\u0629 \u0633\u064a\u0644\u064a\u0632\u064a\u0627","name:left:tr":"Silezya Voyvodal\u0131\u011f\u0131","name:left:id":"Provinsi Silesia","name:left:pt":"Voivodia da Sil\u00e9sia","name:left:mr":"\u0936\u094d\u0932\u094b\u0902\u0938\u094d\u0915\u093e \u092a\u094d\u0930\u093e\u0902\u0924","short_name:right":"ma\u0142opolskie","name:left:it":"Voivodato della Slesia","name:left:is":"Sles\u00eda","osm_relation":true,"name:left:ms":"Wilayah Silesia","loc_name:right":"Ma\u0142opolska","name:right:de":"Woiwodschaft Kleinpolen","name:left:de":"Woiwodschaft Schlesien"},"arcs":[0]},{"type":"LineString","properties":{"name:left:la":"Silesia vaivodatus","alt_name:left:en":"Silesian Province","name:right:uk":"\u0421\u0432\u0435\u043d\u0442\u043e\u043a\u0448\u0438\u0441\u044c\u043a\u0435 \u0432\u043e\u0454\u0432\u043e\u0434\u0441\u0442\u0432\u043e","name:left:sv":"Schlesiens vojvodskap","name:left:sr":"\u0412\u043e\u0458\u0432\u043e\u0434\u0441\u0442\u0432\u043e \u0448\u043b\u0435\u0441\u043a\u043e","name:right:lt":"\u0160vento Kry\u017eiaus vaivadija","name:left:sl":"\u0160lezijsko vojvodstvo","min_zoom":8.0,"name:left:lt":"Silezijos vaivadija","name:left:lv":"Sil\u0113zijas vojevodiste","name:left:hu":"Szil\u00e9ziai vajdas\u00e1g","name:left:hr":"\u0160lesko vojvodstvo","short_name:left":"\u015bl\u0105skie","sort_rank":256,"name:left:ca":"Voivodat de Sil\u00e8sia","name:left:gl":"Voivodato de Silesia","source":"openstreetmap.org","name:left:gv":"Queiggey ny Sileesh","loc_name:left":"\u015al\u0105sk","name:left:cs":"Slezsk\u00e9 vojvodstv\u00ed","name:left":"wojew\u00f3dztwo \u015bl\u0105skie","name:right:es":"Voivodato de Santa Cruz","name:left:ka":"\u10e1\u10d8\u10da\u10d4\u10d6\u10d8\u10d8\u10e1 \u10e1\u10d0\u10d5\u10dd\u10d4\u10d5\u10dd\u10d3\u10dd","name:left:ko":"\uc2e4\ub871\uc2a4\ud06c \uc8fc","name:left:ro":"Voievodatul Silezia","name:right:ru":"\u0421\u0432\u0435\u043d\u0442\u043e\u043a\u0448\u0438\u0441\u043a\u043e\u0435 \u0432\u043e\u0435\u0432\u043e\u0434\u0441\u0442\u0432\u043e","name:left:ru":"\u0421\u0438\u043b\u0435\u0437\u0441\u043a\u043e\u0435 \u0432\u043e\u0435\u0432\u043e\u0434\u0441\u0442\u0432\u043e","name:left:oc":"Voivodat de Sil\u00e8sia","name:right:eo":"Sanktakruca Provinco","name:right:en":"\u015awi\u0119tokrzyskie Voivodeship","name:left:nn":"Schlesiske voivodskap","kind":"region","name":"wojew\u00f3dztwo \u015bl\u0105skie - wojew\u00f3dztwo \u015bwi\u0119tokrzyskie","name:left:fi":"Sleesian voivodikunta","name:left:zh":"\u897f\u91cc\u897f\u4e9a\u7701","name:left:fr":"Sil\u00e9sie","alt_name:right:en":"\u015awi\u0119tokrzyskie Province","name:left:bs":"\u0160lesko vojvodstvo","name:right:nl":"Woiwodschap Swiety Krzyz","name:right:ja":"\u30b7\u30d5\u30a3\u30a7\u30f3\u30c6\u30a3\u30af\u30b7\u30b7\u30e5\u770c","name:right:fr":"Sainte-Croix","name:left:sk":"Sliezske vojvodstvo","name:right:sl":"Svetokri\u0161ko vojvodstvo","name:left:ja":"\u30b7\u30ed\u30f3\u30b9\u30af\u770c","id:right":-130914,"name:left:uk":"\u0421\u0456\u043b\u0435\u0437\u044c\u043a\u0435 \u0432\u043e\u0454\u0432\u043e\u0434\u0441\u0442\u0432\u043e","name:left:no":"Schlesiske voivodskap","name:left:nl":"Woiwodschap Silezi\u00eb","name:left:bg":"\u0421\u0438\u043b\u0435\u0437\u043a\u043e \u0432\u043e\u0439\u0432\u043e\u0434\u0441\u0442\u0432\u043e","name:left:be":"\u0421\u0456\u043b\u0435\u0437\u0441\u043a\u0430\u0435 \u0432\u0430\u044f\u0432\u043e\u0434\u0441\u0442\u0432\u0430","name:right:be":"\u0421\u0432\u0435\u043d\u0442\u0430\u043a\u0448\u044b\u0441\u043a\u0430\u0435 \u0432\u0430\u044f\u0432\u043e\u0434\u0441\u0442\u0432\u0430","name:left:jv":"Provinsi Silesia","id":-224462,"name:right":"wojew\u00f3dztwo \u015bwi\u0119tokrzyskie","name:left:eo":"Silezia Provinco","name:left:en":"Silesian Voivodeship","kind_detail":"4","id:left":-224462,"name:left:es":"Voivodato de Silesia","name:right:cs":"Svatok\u0159\u00ed\u017esk\u00e9 vojvodstv\u00ed","name:left:eu":"Silesiako voivoderria","name:left:et":"Sileesia vojevoodkond","name:left:ar":"\u0645\u062d\u0627\u0641\u0638\u0629 \u0633\u064a\u0644\u064a\u0632\u064a\u0627","name:left:tr":"Silezya Voyvodal\u0131\u011f\u0131","name:left:id":"Provinsi Silesia","name:left:ms":"Wilayah Silesia","name:left:mr":"\u0936\u094d\u0932\u094b\u0902\u0938\u094d\u0915\u093e \u092a\u094d\u0930\u093e\u0902\u0924","short_name:right":"\u015bwi\u0119tokrzyskie","name:left:it":"Voivodato della Slesia","name:left:is":"Sles\u00eda","osm_relation":true,"name:left:pt":"Voivodia da Sil\u00e9sia","name:right:de":"Woiwodschaft Heiligkreuz","name:left:de":"Woiwodschaft Schlesien"},"arcs":[1]},{"type":"LineString","properties":{"name:right:nl":"Woiwodschap Swiety Krzyz","name:right:ja":"\u30b7\u30d5\u30a3\u30a7\u30f3\u30c6\u30a3\u30af\u30b7\u30b7\u30e5\u770c","loc_name:left":"Ma\u0142opolska","alt_name:left:en":"Ma\u0142opolska Province","name:right:uk":"\u0421\u0432\u0435\u043d\u0442\u043e\u043a\u0448\u0438\u0441\u044c\u043a\u0435 \u0432\u043e\u0454\u0432\u043e\u0434\u0441\u0442\u0432\u043e","name:left:ja":"\u30de\u30a6\u30a9\u30dd\u30eb\u30b9\u30ab\u770c","id:right":-130914,"name:right:lt":"\u0160vento Kry\u017eiaus vaivadija","name:left:sl":"Malopoljsko vojvodstvo","min_zoom":8.0,"alt_name:right:en":"\u015awi\u0119tokrzyskie Province","name:left:be":"\u041c\u0430\u043b\u0430\u043f\u043e\u043b\u044c\u0441\u043a\u0430\u0435 \u0432\u0430\u044f\u0432\u043e\u0434\u0441\u0442\u0432\u0430","name:right:fr":"Sainte-Croix","id":-224459,"name:right":"wojew\u00f3dztwo \u015bwi\u0119tokrzyskie","short_name:left":"ma\u0142opolskie","name:left:eo":"Malgrandpollanda Provinco","name:left:en":"Lesser Poland Voivodeship","sort_rank":256,"kind_detail":"4","source":"openstreetmap.org","name:left:nl":"Woiwodschap Klein-Polen","id:left":-224459,"name:left:es":"Voivodato de Peque\u00f1a Polonia","name:right:cs":"Svatok\u0159\u00ed\u017esk\u00e9 vojvodstv\u00ed","name:left:cs":"Malopolsk\u00e9 vojvodstv\u00ed","name:left":"wojew\u00f3dztwo ma\u0142opolskie","name:right:es":"Voivodato de Santa Cruz","name:right:ru":"\u0421\u0432\u0435\u043d\u0442\u043e\u043a\u0448\u0438\u0441\u043a\u043e\u0435 \u0432\u043e\u0435\u0432\u043e\u0434\u0441\u0442\u0432\u043e","name:left:ru":"\u041c\u0430\u043b\u043e\u043f\u043e\u043b\u044c\u0441\u043a\u043e\u0435 \u0432\u043e\u0435\u0432\u043e\u0434\u0441\u0442\u0432\u043e","short_name:right":"\u015bwi\u0119tokrzyskie","name:right:eo":"Sanktakruca Provinco","name:right:en":"\u015awi\u0119tokrzyskie Voivodeship","osm_relation":true,"name:left:uk":"\u041c\u0430\u043b\u043e\u043f\u043e\u043b\u044c\u0441\u044c\u043a\u0435 \u0432\u043e\u0454\u0432\u043e\u0434\u0441\u0442\u0432\u043e","kind":"region","name":"wojew\u00f3dztwo ma\u0142opolskie - wojew\u00f3dztwo \u015bwi\u0119tokrzyskie","name:right:de":"Woiwodschaft Heiligkreuz","name:left:de":"Woiwodschaft Kleinpolen","name:right:be":"\u0421\u0432\u0435\u043d\u0442\u0430\u043a\u0448\u044b\u0441\u043a\u0430\u0435 \u0432\u0430\u044f\u0432\u043e\u0434\u0441\u0442\u0432\u0430","name:left:fr":"Petite-Pologne","name:right:sl":"Svetokri\u0161ko vojvodstvo"},"arcs":[2]}]},"roads":{"type":"GeometryCollection","geometries":[{"type":"MultiLineString","properties":{"kind":"major_road","network":"pl:national","sort_rank":380,"kind_detail":"primary","source":"openstreetmap.org","min_zoom":8.0,"shield_text":"52","ref":"52"},"arcs":[[29],[30],[31],[32]]},{"type":"MultiLineString","properties":{"bus_network":"Komunikacja Miejska w Krakowie","network":"pl:national","sort_rank":380,"kind_detail":"primary","kind":"major_road","source":"openstreetmap.org","min_zoom":8.0,"bus_shield_text":"238","shield_text":"79","ref":"79"},"arcs":[[33],[34],[35]]},{"type":"MultiLineString","properties":{"kind":"major_road","network":"pl:regional","sort_rank":379,"kind_detail":"secondary","is_bicycle_related":true,"bicycle_shield_text":"WTR","bicycle_network":"ncn","source":"openstreetmap.org","min_zoom":8.0,"shield_text":"964","ref":"964"},"arcs":[[36],[37]]},{"type":"LineString","properties":{"bus_network":"Krak\u00f3w","sort_rank":380,"kind_detail":"primary","kind":"major_road","source":"openstreetmap.org","min_zoom":8.0,"bus_shield_text":"221","landuse_kind":"urban_area"},"arcs":[38]},{"type":"LineString","properties":{"kind":"minor_road","sort_rank":360,"kind_detail":"unclassified","is_bicycle_related":true,"bicycle_shield_text":"GV","bicycle_network":"ncn","source":"openstreetmap.org","min_zoom":8.0,"landuse_kind":"nature_reserve","id":35712198},"arcs":[39]},{"type":"LineString","properties":{"kind":"major_road","network":"pl:national","sort_rank":380,"kind_detail":"primary","source":"openstreetmap.org","min_zoom":8.0,"shield_text":"79","ref":"79;768"},"arcs":[40]},{"type":"LineString","properties":{"kind":"major_road","sort_rank":377,"kind_detail":"tertiary","is_bicycle_related":true,"bicycle_shield_text":"WTR","bicycle_network":"ncn","source":"openstreetmap.org","min_zoom":8.0,"ref":"1336K","id":502021140},"arcs":[41]},{"type":"LineString","properties":{"kind":"major_road","network":"pl:national","sort_rank":381,"kind_detail":"trunk","source":"openstreetmap.org","min_zoom":8.0,"landuse_kind":"urban_area","shield_text":"94","ref":"94","id":218446466},"arcs":[42]},{"type":"LineString","properties":{"kind":"major_road","network":"pl:national","sort_rank":380,"kind_detail":"primary","is_bicycle_related":true,"bicycle_shield_text":"AT","bicycle_network":"ncn","source":"openstreetmap.org","min_zoom":8.0,"landuse_kind":"urban_area","shield_text":"75","ref":"75"},"arcs":[43]},{"type":"LineString","properties":{"kind":"highway","sort_rank":383,"landuse_kind":"nature_reserve","source":"openstreetmap.org","min_zoom":8.0,"kind_detail":"motorway","ref":"A4","id":24555862},"arcs":[44]},{"type":"MultiLineString","properties":{"bus_network":"Komunikacja Miejska w Krakowie","sort_rank":380,"kind_detail":"primary","kind":"major_road","source":"openstreetmap.org","min_zoom":8.0,"bus_shield_text":"139","name:be":"\u0410\u043b\u0435\u044f \u042e\u043b\u0456\u044e\u0448\u0430 \u0421\u043b\u0430\u0432\u0430\u0446\u043a\u0430\u0433\u0430","landuse_kind":"urban_area"},"arcs":[[45],[46],[47],[48]]},{"type":"LineString","properties":{"kind":"path","sort_rank":354,"landuse_kind":"urban_area","is_bicycle_related":true,"bicycle_shield_text":"AT","bicycle_network":"ncn","source":"openstreetmap.org","min_zoom":8.0,"kind_detail":"pedestrian"},"arcs":[49]},{"type":"MultiLineString","properties":{"kind":"major_road","sort_rank":377,"kind_detail":"tertiary","is_bicycle_related":true,"bicycle_shield_text":"WTR","bicycle_network":"ncn","source":"openstreetmap.org","min_zoom":8.0},"arcs":[[50],[51],[52],[53]]},{"type":"MultiLineString","properties":{"kind":"minor_road","sort_rank":360,"landuse_kind":"urban_area","is_bicycle_related":true,"bicycle_shield_text":"AT","bicycle_network":"ncn","source":"openstreetmap.org","min_zoom":8.0,"kind_detail":"unclassified"},"arcs":[[54],[55]]},{"type":"LineString","properties":{"kind":"major_road","sort_rank":377,"kind_detail":"tertiary","is_bicycle_related":true,"bicycle_shield_text":"AT","bicycle_network":"ncn","source":"openstreetmap.org","min_zoom":8.0,"name:de":"Marktplatz","id":221349316},"arcs":[56]},{"type":"MultiLineString","properties":{"source":"openstreetmap.org","bus_network":null,"bus_shield_text":"210","sort_rank":380,"kind_detail":"primary","min_zoom":8.0,"kind":"major_road"},"arcs":[[57],[58]]},{"type":"LineString","properties":{"bus_network":"Komunikacja Miejska w Krakowie","network":"pl:national","sort_rank":380,"kind_detail":"primary","kind":"major_road","source":"openstreetmap.org","min_zoom":8.0,"bus_shield_text":"169","shield_text":"7","landuse_kind":"urban_area","ref":"7"},"arcs":[59]},{"type":"MultiLineString","properties":{"bus_network":"Komunikacja Miejska w Krakowie","sort_rank":380,"kind_detail":"primary","kind":"major_road","source":"openstreetmap.org","min_zoom":8.0,"bus_shield_text":"178","landuse_kind":"urban_area"},"arcs":[[60],[61],[62],[63],[64],[65],[66]]},{"type":"MultiLineString","properties":{"kind":"path","sort_rank":354,"landuse_kind":"urban_area","is_bicycle_related":true,"bicycle_shield_text":"AT","bicycle_network":"ncn","source":"openstreetmap.org","min_zoom":8.0,"kind_detail":"path"},"arcs":[[67],[68],[69],[70],[71],[72],[73],[74],[75],[76],[77],[78],[79],[80],[81],[82]]},{"type":"MultiLineString","properties":{"kind":"path","sort_rank":354,"kind_detail":"track","is_bicycle_related":true,"bicycle_shield_text":"WTR","bicycle_network":"ncn","source":"openstreetmap.org","min_zoom":8.0},"arcs":[[83],[84]]},{"type":"LineString","properties":{"bus_network":"Komunikacja Miejska w Krakowie","sort_rank":377,"landuse_kind":"nature_reserve","is_bicycle_related":true,"kind":"major_road","bicycle_shield_text":"GW K-M-W","bicycle_network":"ncn","source":"openstreetmap.org","min_zoom":8.0,"bus_shield_text":"102","kind_detail":"tertiary","ref":"2260K"},"arcs":[85]},{"type":"MultiLineString","properties":{"kind":"major_road","network":"pl:national","sort_rank":380,"kind_detail":"primary","source":"openstreetmap.org","min_zoom":8.0,"shield_text":"94","ref":"94"},"arcs":[[86],[87],[88],[89],[90],[91],[92],[93],[94],[95],[96],[97],[98],[99],[100],[101],[102],[103],[104],[105],[106],[107],[108],[109],[110],[111],[112],[113],[114],[115],[116]]},{"type":"MultiLineString","properties":{"bus_network":"Komunikacja Miejska w Krakowie","sort_rank":380,"kind_detail":"primary","kind":"major_road","source":"openstreetmap.org","min_zoom":8.0,"bus_shield_text":"164","landuse_kind":"urban_area"},"arcs":[[117],[118]]},{"type":"MultiLineString","properties":{"bus_network":"Komunikacja Miejska w Krakowie","network":"pl:regional","sort_rank":380,"kind_detail":"primary","kind":"major_road","source":"openstreetmap.org","min_zoom":8.0,"bus_shield_text":"222","shield_text":"776","landuse_kind":"urban_area","ref":"776"},"arcs":[[119],[120]]},{"type":"LineString","properties":{"kind":"major_road","sort_rank":377,"landuse_kind":"urban_area","is_bicycle_related":true,"bus_network":"Radzisz\u00f3w P\u0119tla -> Czerwone Maki","bicycle_shield_text":"AT","bicycle_network":"ncn","source":"openstreetmap.org","min_zoom":8.0,"bus_shield_text":"253","kind_detail":"tertiary"},"arcs":[121]},{"type":"LineString","properties":{"kind":"major_road","sort_rank":377,"kind_detail":"tertiary","is_bicycle_related":true,"bus_network":"Komunikacja Miejska w Krakowie","bicycle_shield_text":"AT","bicycle_network":"ncn","source":"openstreetmap.org","min_zoom":8.0,"bus_shield_text":"203","id":447688641},"arcs":[122]},{"type":"MultiLineString","properties":{"kind":"path","sort_rank":354,"kind_detail":"track","is_bicycle_related":true,"bicycle_shield_text":"AT","bicycle_network":"ncn","source":"openstreetmap.org","min_zoom":8.0,"landuse_kind":"urban_area"},"arcs":[[123],[124],[125],[126],[127]]},{"type":"MultiLineString","properties":{"source":"openstreetmap.org","kind":"major_road","landuse_kind":"urban_area","sort_rank":380,"kind_detail":"primary","ref":"776","min_zoom":8.0},"arcs":[[128],[129],[130],[131]]},{"type":"MultiLineString","properties":{"bus_network":"Krak\u00f3w","network":"tourist","sort_rank":380,"kind_detail":"primary","kind":"major_road","source":"openstreetmap.org","min_zoom":8.0,"bus_shield_text":"141","shield_text":null,"landuse_kind":"urban_area"},"arcs":[[132],[133]]},{"type":"LineString","properties":{"kind":"major_road","network":"pl:national","sort_rank":380,"kind_detail":"primary","source":"openstreetmap.org","min_zoom":8.0,"shield_text":"79","ref":"79;775","id":143746042},"arcs":[134]},{"type":"LineString","properties":{"kind":"major_road","sort_rank":380,"kind_detail":"primary","bus_network":"Komunikacja Miejska w Krakowie","source":"openstreetmap.org","min_zoom":8.0,"bus_shield_text":"163","landuse_kind":"urban_area","id":37828102},"arcs":[135]},{"type":"MultiLineString","properties":{"kind":"major_road","network":"pl:national","sort_rank":380,"kind_detail":"primary","source":"openstreetmap.org","min_zoom":8.0,"landuse_kind":"urban_area","shield_text":"75","ref":"75;94"},"arcs":[[136],[137]]},{"type":"MultiLineString","properties":{"kind":"major_road","sort_rank":377,"kind_detail":"tertiary","is_bicycle_related":true,"bicycle_shield_text":"AT","bicycle_network":"ncn","source":"openstreetmap.org","min_zoom":8.0},"arcs":[[138],[139],[140],[141],[142],[143],[144],[145],[146],[147],[148],[149],[150],[151],[152],[153],[154]]},{"type":"MultiLineString","properties":{"bus_network":"Komunikacja Miejska w Krakowie","network":"pl:national","sort_rank":380,"kind_detail":"primary","kind":"major_road","source":"openstreetmap.org","min_zoom":8.0,"bus_shield_text":"159","shield_text":"79","landuse_kind":"urban_area","ref":"79"},"arcs":[[155],[156]]},{"type":"LineString","properties":{"kind":"major_road","network":"pl:national","sort_rank":380,"kind_detail":"primary","source":"openstreetmap.org","min_zoom":8.0,"landuse_kind":"nature_reserve","shield_text":"94","ref":"94"},"arcs":[157]},{"type":"MultiLineString","properties":{"sort_rank":380,"kind_detail":"primary","min_zoom":8.0,"kind":"major_road","source":"openstreetmap.org"},"arcs":[[158],[159],[160],[161],[162],[163],[164],[165],[166],[167],[168],[169],[170],[171],[172],[173]]},{"type":"LineString","properties":{"bus_network":"Komunikacja Miejska w Krakowie","network":"pl:national","sort_rank":380,"kind_detail":"primary","kind":"major_road","source":"openstreetmap.org","min_zoom":8.0,"bus_shield_text":"137","shield_text":"7","landuse_kind":"urban_area","ref":"7"},"arcs":[174]},{"type":"LineString","properties":{"kind":"major_road","sort_rank":377,"kind_detail":"tertiary","is_bicycle_related":true,"bicycle_shield_text":"GW K-M-W","bicycle_network":"ncn","source":"openstreetmap.org","min_zoom":8.0,"landuse_kind":"nature_reserve","id":202741526},"arcs":[175]},{"type":"LineString","properties":{"kind":"major_road","network":"pl:national","sort_rank":380,"kind_detail":"primary","is_bicycle_related":true,"bicycle_shield_text":"SAO","bicycle_network":"rcn","source":"openstreetmap.org","min_zoom":8.0,"shield_text":"78","ref":"78","id":255026363},"arcs":[176]},{"type":"LineString","properties":{"kind":"major_road","sort_rank":380,"kind_detail":"primary","bus_network":"Komunikacja Miejska w Krakowie","source":"openstreetmap.org","min_zoom":8.0,"bus_shield_text":"139","landuse_kind":"urban_area","id":19843581},"arcs":[177]},{"type":"MultiLineString","properties":{"kind":"path","sort_rank":354,"landuse_kind":"urban_area","is_bicycle_related":true,"bicycle_shield_text":"WTR","bicycle_network":"ncn","source":"openstreetmap.org","min_zoom":8.0,"kind_detail":"footway"},"arcs":[[178],[179],[180],[181],[182],[183],[184],[185],[186]]},{"type":"MultiLineString","properties":{"bus_network":"Komunikacja Miejska w Krakowie","sort_rank":380,"kind_detail":"primary","kind":"major_road","source":"openstreetmap.org","min_zoom":8.0,"bus_shield_text":"129","landuse_kind":"urban_area"},"arcs":[[187],[188],[189],[190],[191]]},{"type":"MultiLineString","properties":{"bus_network":"Komunikacja Miejska w Krakowie","network":"pl:national","sort_rank":380,"kind_detail":"primary","kind":"major_road","source":"openstreetmap.org","min_zoom":8.0,"bus_shield_text":"235","shield_text":"7","ref":"7"},"arcs":[[192],[193]]},{"type":"LineString","properties":{"kind":"major_road","sort_rank":377,"kind_detail":"tertiary","is_bicycle_related":true,"bus_network":"Komunikacja Miejska w Krakowie","bicycle_shield_text":"WTR","bicycle_network":"ncn","source":"openstreetmap.org","min_zoom":8.0,"bus_shield_text":"123","landuse_kind":"urban_area","id":502049380},"arcs":[194]},{"type":"MultiLineString","properties":{"bus_network":"Komunikacja Miejska w Krakowie","sort_rank":380,"kind_detail":"primary","kind":"major_road","source":"openstreetmap.org","min_zoom":8.0,"bus_shield_text":"143","landuse_kind":"urban_area"},"arcs":[[195],[196],[197]]},{"type":"LineString","properties":{"kind":"path","sort_rank":354,"landuse_kind":"nature_reserve","is_bicycle_related":true,"bicycle_shield_text":"GW K-M-W","bicycle_network":"ncn","source":"openstreetmap.org","min_zoom":8.0,"kind_detail":"footway"},"arcs":[198]},{"type":"LineString","properties":{"kind":"path","sort_rank":354,"kind_detail":"cycleway","is_bicycle_related":true,"bicycle_shield_text":"GW K-M-W","bicycle_network":"ncn","source":"openstreetmap.org","min_zoom":8.0,"landuse_kind":"urban_area","id":47944102},"arcs":[199]},{"type":"MultiLineString","properties":{"kind":"major_road","network":"pl:national","sort_rank":380,"kind_detail":"primary","source":"openstreetmap.org","min_zoom":8.0,"landuse_kind":"urban_area","shield_text":"94","ref":"94"},"arcs":[[200],[201],[202],[203],[204],[205],[206],[207],[208],[209],[210],[211],[212],[213],[214],[215],[216],[217],[218],[219],[220],[221],[222]]},{"type":"LineString","properties":{"kind":"major_road","sort_rank":377,"kind_detail":"tertiary","is_bicycle_related":true,"bus_network":"Kopanka P\u0119tla -> Borek Fa\u0142\u0119cki","bicycle_shield_text":"WTR","bicycle_network":"ncn","source":"openstreetmap.org","min_zoom":8.0,"bus_shield_text":"233","id":313562713},"arcs":[223]},{"type":"LineString","properties":{"kind":"major_road","sort_rank":377,"kind_detail":"tertiary","is_bicycle_related":true,"bus_network":"Komunikacja Miejska w Krakowie","bicycle_shield_text":"AT","bicycle_network":"ncn","source":"openstreetmap.org","min_zoom":8.0,"bus_shield_text":"123","landuse_kind":"urban_area","id":219054389},"arcs":[224]},{"type":"LineString","properties":{"bus_network":"Komunikacja Miejska w Krakowie","network":"pl:national","sort_rank":380,"kind_detail":"primary","kind":"major_road","source":"openstreetmap.org","min_zoom":8.0,"bus_shield_text":"201","shield_text":"44","landuse_kind":"nature_reserve","ref":"44"},"arcs":[225]},{"type":"MultiLineString","properties":{"kind":"minor_road","sort_rank":360,"landuse_kind":"urban_area","is_bicycle_related":true,"bicycle_shield_text":"WTR","bicycle_network":"ncn","source":"openstreetmap.org","min_zoom":8.0,"kind_detail":"residential"},"arcs":[[226],[227]]},{"type":"LineString","properties":{"bus_network":"Krak\u00f3w","network":"pl:national","sort_rank":380,"kind_detail":"primary","kind":"major_road","source":"openstreetmap.org","min_zoom":8.0,"bus_shield_text":"166","shield_text":"44","ref":"44"},"arcs":[228]},{"type":"LineString","properties":{"bus_network":"Komunikacja Miejska w Krakowie","sort_rank":380,"kind_detail":"primary","kind":"major_road","source":"openstreetmap.org","min_zoom":8.0,"bus_shield_text":"Telebus","landuse_kind":"urban_area"},"arcs":[229]},{"type":"MultiLineString","properties":{"bus_network":"ZIKiT Krak\u00f3w","network":"pl:national","sort_rank":380,"kind_detail":"primary","kind":"major_road","source":"openstreetmap.org","min_zoom":8.0,"bus_shield_text":"132","shield_text":"7","landuse_kind":"urban_area","ref":"7"},"arcs":[[230],[231]]},{"type":"MultiLineString","properties":{"kind":"highway","network":"pl:national","sort_rank":383,"kind_detail":"motorway","source":"openstreetmap.org","min_zoom":8.0,"all_networks":["pl:national","pl:national","e-road","e-road","pl:motorways"],"shield_text":"4","ref":"A4;7","all_shield_texts":["4","7","40","77","4"]},"arcs":[[232],[233],[234]]},{"type":"LineString","properties":{"kind":"major_road","short_name":"\u017bwirki i Wigury","sort_rank":377,"landuse_kind":"urban_area","is_bicycle_related":true,"bus_network":"Radzisz\u00f3w P\u0119tla -> Czerwone Maki","bicycle_shield_text":"AT","bicycle_network":"ncn","source":"openstreetmap.org","min_zoom":8.0,"bus_shield_text":"253","kind_detail":"tertiary"},"arcs":[235]},{"type":"MultiLineString","properties":{"kind":"path","footway":"sidewalk","sort_rank":354,"landuse_kind":"urban_area","is_bicycle_related":true,"bicycle_shield_text":"AT","bicycle_network":"ncn","source":"openstreetmap.org","min_zoom":8.0,"kind_detail":"footway"},"arcs":[[236],[237],[238],[239]]},{"type":"MultiLineString","properties":{"bus_network":null,"sort_rank":380,"kind_detail":"primary","kind":"major_road","source":"openstreetmap.org","min_zoom":8.0,"bus_shield_text":"210","landuse_kind":"urban_area"},"arcs":[[240],[241]]},{"type":"LineString","properties":{"kind":"major_road","network":"pl:national","sort_rank":380,"kind_detail":"primary","source":"openstreetmap.org","min_zoom":8.0,"landuse_kind":"urban_area","shield_text":"7","ref":"7"},"arcs":[242]},{"type":"LineString","properties":{"kind":"path","sort_rank":354,"kind_detail":"path","is_bicycle_related":true,"bicycle_shield_text":"GV","bicycle_network":"ncn","source":"openstreetmap.org","min_zoom":8.0},"arcs":[243]},{"type":"MultiLineString","properties":{"kind":"minor_road","sort_rank":360,"landuse_kind":"nature_reserve","is_bicycle_related":true,"bicycle_shield_text":"GW K-M-W","bicycle_network":"ncn","source":"openstreetmap.org","min_zoom":8.0,"kind_detail":"residential"},"arcs":[[244],[245],[246]]},{"type":"MultiLineString","properties":{"bus_network":"Komunikacja Miejska w Krakowie","network":"pl:national","sort_rank":380,"kind_detail":"primary","kind":"major_road","source":"openstreetmap.org","min_zoom":8.0,"bus_shield_text":"502","shield_text":"79","landuse_kind":"urban_area","ref":"79"},"arcs":[[247],[248]]},{"type":"LineString","properties":{"kind":"major_road","network":"pl:national","sort_rank":380,"kind_detail":"primary","source":"openstreetmap.org","min_zoom":8.0,"landuse_kind":"nature_reserve","shield_text":"79","ref":"79","id":207807863},"arcs":[249]},{"type":"LineString","properties":{"kind":"major_road","network":"pl:national","sort_rank":380,"kind_detail":"primary","is_bicycle_related":true,"bicycle_shield_text":"AT","bicycle_network":"ncn","source":"openstreetmap.org","min_zoom":8.0,"shield_text":"79","ref":"79;973"},"arcs":[250]},{"type":"MultiLineString","properties":{"kind":"major_road","network":"pl:national","sort_rank":380,"kind_detail":"primary","source":"openstreetmap.org","min_zoom":8.0,"shield_text":"73","ref":"73;94"},"arcs":[[251],[252],[253]]},{"type":"LineString","properties":{"kind":"path","sort_rank":354,"landuse_kind":"nature_reserve","is_bicycle_related":true,"bicycle_shield_text":"AT","bicycle_network":"ncn","source":"openstreetmap.org","min_zoom":8.0,"kind_detail":"cycleway"},"arcs":[254]},{"type":"MultiLineString","properties":{"kind":"minor_road","sort_rank":360,"kind_detail":"residential","is_bicycle_related":true,"bicycle_shield_text":"WTR","bicycle_network":"ncn","source":"openstreetmap.org","min_zoom":8.0},"arcs":[[255],[256],[257],[258],[259],[260],[261],[262],[263],[264],[265]]},{"type":"MultiLineString","properties":{"kind":"path","footway":"crossing","sort_rank":354,"landuse_kind":"urban_area","is_bicycle_related":true,"bicycle_shield_text":"GW K-M-W","bicycle_network":"ncn","source":"openstreetmap.org","min_zoom":8.0,"kind_detail":"footway"},"arcs":[[266],[267]]},{"type":"MultiLineString","properties":{"kind":"major_road","sort_rank":377,"landuse_kind":"urban_area","is_bicycle_related":true,"bicycle_shield_text":"AT","cycleway":"lane","source":"openstreetmap.org","min_zoom":8.0,"kind_detail":"tertiary","bicycle_network":"ncn"},"arcs":[[268],[269]]},{"type":"MultiLineString","properties":{"kind":"minor_road","sort_rank":360,"landuse_kind":"urban_area","is_bicycle_related":true,"bicycle_shield_text":"AT","bicycle_network":"ncn","source":"openstreetmap.org","min_zoom":8.0,"kind_detail":"residential"},"arcs":[[270],[271],[272],[273],[274],[275],[276],[277],[278],[279]]},{"type":"MultiLineString","properties":{"bus_network":"Komunikacja Miejska w Krakowie","sort_rank":380,"kind_detail":"primary","kind":"major_road","source":"openstreetmap.org","min_zoom":8.0,"bus_shield_text":"158","landuse_kind":"urban_area"},"arcs":[[280],[281],[282]]},{"type":"MultiLineString","properties":{"source":"openstreetmap.org","kind":"ferry","name":"Wis\u0142a","sort_rank":355,"landuse_kind":"nature_reserve","min_zoom":8.0},"arcs":[[283],[284]]},{"type":"LineString","properties":{"kind":"minor_road","sort_rank":358,"kind_detail":"service","is_bicycle_related":true,"bicycle_shield_text":"GW K-M-W","bicycle_network":"ncn","source":"openstreetmap.org","min_zoom":8.0,"landuse_kind":"urban_area","id":47944099},"arcs":[285]},{"type":"LineString","properties":{"kind":"major_road","sort_rank":377,"kind_detail":"tertiary","is_bicycle_related":true,"bus_network":null,"bicycle_shield_text":"WTR","bicycle_network":"ncn","source":"openstreetmap.org","min_zoom":8.0,"bus_shield_text":"112","landuse_kind":"urban_area","id":41401466},"arcs":[286]},{"type":"MultiLineString","properties":{"kind":"path","footway":"sidewalk","sort_rank":354,"landuse_kind":"urban_area","is_bicycle_related":true,"bicycle_shield_text":"WTR","bicycle_network":"ncn","source":"openstreetmap.org","min_zoom":8.0,"kind_detail":"footway"},"arcs":[[287],[288]]},{"type":"LineString","properties":{"kind":"major_road","sort_rank":381,"landuse_kind":"urban_area","source":"openstreetmap.org","min_zoom":8.0,"kind_detail":"trunk","ref":"S7","id":378869523},"arcs":[289]},{"type":"LineString","properties":{"osm_relation":true,"kind":"ferry","network":"Krakowski Tramwaj Wodny","sort_rank":355,"landuse_kind":"urban_area","source":"openstreetmap.org","min_zoom":8.0,"all_networks":["Krakowski Tramwaj Wodny"],"shield_text":"3","id":-5991596,"all_shield_texts":["3"],"name":"Linia 3: Most Wandy => Kazimierz"},"arcs":[290]},{"type":"MultiLineString","properties":{"kind":"minor_road","sort_rank":358,"kind_detail":"service","is_bicycle_related":true,"bicycle_shield_text":"WTR","bicycle_network":"ncn","source":"openstreetmap.org","min_zoom":8.0},"arcs":[[291],[292],[293]]},{"type":"LineString","properties":{"bus_network":"Komunikacja Miejska w Krakowie","sort_rank":377,"landuse_kind":"urban_area","is_bicycle_related":true,"kind":"major_road","bicycle_shield_text":"WTR","bicycle_network":"ncn","source":"openstreetmap.org","min_zoom":8.0,"bus_shield_text":"203","kind_detail":"tertiary"},"arcs":[294]},{"type":"LineString","properties":{"bus_network":"Komunikacja Miejska w Krakowie","network":"pl:regional","sort_rank":379,"kind_detail":"secondary","is_bicycle_related":true,"kind":"major_road","bicycle_shield_text":"GW K-M-W","bicycle_network":"ncn","source":"openstreetmap.org","min_zoom":8.0,"bus_shield_text":"209","shield_text":"774","landuse_kind":"nature_reserve","ref":"774","id":211148029},"arcs":[295]},{"type":"MultiLineString","properties":{"bus_network":"Komunikacja Miejska w Krakowie","sort_rank":380,"kind_detail":"primary","kind":"major_road","source":"openstreetmap.org","min_zoom":8.0,"bus_shield_text":"158","landuse_kind":"urban_area","ref":"776"},"arcs":[[296],[297],[298],[299]]},{"type":"MultiLineString","properties":{"bus_network":"Komunikacja Miejska w Krakowie","network":"pl:national","sort_rank":380,"kind_detail":"primary","kind":"major_road","source":"openstreetmap.org","min_zoom":8.0,"bus_shield_text":"123","shield_text":"79","landuse_kind":"urban_area","ref":"79"},"arcs":[[300],[301]]},{"type":"LineString","properties":{"kind":"minor_road","sort_rank":358,"kind_detail":"service","is_bicycle_related":true,"bicycle_shield_text":"AT","bicycle_network":"ncn","source":"openstreetmap.org","min_zoom":8.0},"arcs":[302]},{"type":"MultiLineString","properties":{"kind":"major_road","sort_rank":377,"kind_detail":"tertiary","is_bicycle_related":true,"bicycle_shield_text":"AT","bicycle_network":"ncn","source":"openstreetmap.org","min_zoom":8.0,"ref":"1429K"},"arcs":[[303],[304]]},{"type":"MultiLineString","properties":{"bus_network":"Komunikacja Miejska w Krakowie","network":"pl:national","sort_rank":380,"kind_detail":"primary","kind":"major_road","source":"openstreetmap.org","min_zoom":8.0,"bus_shield_text":"238","shield_text":"7","landuse_kind":"urban_area","ref":"7;79"},"arcs":[[305],[306],[307],[308]]},{"type":"LineString","properties":{"kind":"major_road","sort_rank":380,"kind_detail":"primary","bus_network":"ZIKiT Krak\u00f3w","source":"openstreetmap.org","min_zoom":8.0,"bus_shield_text":"142","landuse_kind":"urban_area","id":37828106},"arcs":[309]},{"type":"LineString","properties":{"kind":"minor_road","sort_rank":360,"kind_detail":"residential","is_bicycle_related":true,"bicycle_shield_text":"AT","bicycle_network":"ncn","source":"openstreetmap.org","min_zoom":8.0,"name:de":"Marktplatz","id":229652350},"arcs":[310]},{"type":"MultiLineString","properties":{"bus_network":"Komunikacja Miejska w Krakowie","network":"pl:national","sort_rank":380,"kind_detail":"primary","kind":"major_road","source":"openstreetmap.org","min_zoom":8.0,"bus_shield_text":"172","shield_text":"7","landuse_kind":"urban_area","ref":"7;79"},"arcs":[[311],[312]]},{"type":"LineString","properties":{"osm_relation":true,"kind":"ferry","network":"Krakowski Tramwaj Wodny","sort_rank":355,"landuse_kind":"urban_area","source":"openstreetmap.org","min_zoom":8.0,"all_networks":["Krakowski Tramwaj Wodny"],"shield_text":"3","id":-5991595,"all_shield_texts":["3"],"name":"Linia 3: Kazimierz => Most Wandy"},"arcs":[313]},{"type":"MultiLineString","properties":{"kind":"path","sort_rank":354,"landuse_kind":"urban_area","is_bicycle_related":true,"bicycle_shield_text":"GW K-M-W","bicycle_network":"ncn","source":"openstreetmap.org","min_zoom":8.0,"kind_detail":"footway"},"arcs":[[314],[315],[316],[317]]},{"type":"MultiLineString","properties":{"bus_network":"Komunikacja Miejska w Krakowie","sort_rank":380,"kind_detail":"primary","kind":"major_road","source":"openstreetmap.org","min_zoom":8.0,"bus_shield_text":"144","name:be":"\u0410\u043b\u0435\u044f \u0410\u0434\u0430\u043c\u0430 \u041c\u0456\u0446\u043a\u0435\u0432\u0456\u0447\u0430","landuse_kind":"urban_area"},"arcs":[[318],[319]]},{"type":"LineString","properties":{"kind":"major_road","network":"pl:regional","sort_rank":379,"kind_detail":"secondary","is_bicycle_related":true,"bicycle_shield_text":"GV","bicycle_network":"ncn","source":"openstreetmap.org","min_zoom":8.0,"shield_text":"756","ref":"756","id":112102784},"arcs":[320]},{"type":"LineString","properties":{"kind":"major_road","network":"pl:national","sort_rank":381,"kind_detail":"trunk","source":"openstreetmap.org","min_zoom":8.0,"shield_text":"7","id":514975228},"arcs":[321]},{"type":"MultiLineString","properties":{"source":"openstreetmap.org","kind":"major_road","network":"pl:national","sort_rank":380,"kind_detail":"primary","min_zoom":8.0,"shield_text":"75"},"arcs":[[322],[323]]},{"type":"MultiLineString","properties":{"kind":"path","sort_rank":354,"kind_detail":"steps","is_bicycle_related":true,"bicycle_shield_text":"WTR","bicycle_network":"ncn","source":"openstreetmap.org","min_zoom":8.0,"landuse_kind":"urban_area"},"arcs":[[324],[325]]},{"type":"MultiLineString","properties":{"kind":"major_road","network":"pl:national","sort_rank":380,"kind_detail":"primary","source":"openstreetmap.org","min_zoom":8.0,"shield_text":"73","ref":"73"},"arcs":[[326],[327],[328],[329],[330],[331],[332],[333],[334],[335],[336],[337],[338],[339],[340],[341],[342],[343],[344],[345],[346],[347],[348],[349]]},{"type":"MultiLineString","properties":{"bus_network":"Komunikacja Miejska w Krakowie","sort_rank":380,"landuse_kind":"urban_area","kind":"major_road","source":"openstreetmap.org","min_zoom":8.0,"bus_shield_text":"130","kind_detail":"primary","name:be":"\u0410\u043b\u0435\u044f \u042e\u043b\u0456\u044e\u0448\u0430 \u0421\u043b\u0430\u0432\u0430\u0446\u043a\u0430\u0433\u0430"},"arcs":[[350],[351]]},{"type":"LineString","properties":{"bus_network":"Komunikacja Miejska w Krakowie","network":"pl:national","sort_rank":380,"kind_detail":"primary","kind":"major_road","source":"openstreetmap.org","min_zoom":8.0,"bus_shield_text":"125","shield_text":"79","landuse_kind":"urban_area","ref":"79"},"arcs":[352]},{"type":"MultiLineString","properties":{"kind":"path","sort_rank":354,"landuse_kind":"urban_area","is_bicycle_related":true,"bicycle_shield_text":"GW K-M-W","bicycle_network":"ncn","source":"openstreetmap.org","min_zoom":8.0,"kind_detail":"path"},"arcs":[[353],[354],[355],[356],[357]]},{"type":"MultiLineString","properties":{"bus_network":"ZIKiT Krak\u00f3w","network":"pl:national","sort_rank":380,"kind_detail":"primary","kind":"major_road","source":"openstreetmap.org","min_zoom":8.0,"bus_shield_text":"132","shield_text":"79","landuse_kind":"urban_area","ref":"79"},"arcs":[[358],[359],[360],[361],[362],[363],[364],[365],[366]]},{"type":"MultiLineString","properties":{"kind":"minor_road","sort_rank":360,"landuse_kind":"urban_area","is_bicycle_related":true,"bicycle_shield_text":"GW K-M-W","bicycle_network":"ncn","source":"openstreetmap.org","min_zoom":8.0,"kind_detail":"residential"},"arcs":[[367],[368],[369],[370],[371]]},{"type":"MultiLineString","properties":{"bus_network":null,"network":"pl:national","sort_rank":380,"kind_detail":"primary","kind":"major_road","source":"openstreetmap.org","min_zoom":8.0,"bus_shield_text":"Olkusz <-> Krak\u00f3w","shield_text":"94","landuse_kind":"nature_reserve","ref":"94"},"arcs":[[372],[373],[374],[375],[376],[377],[378]]},{"type":"LineString","properties":{"kind":"major_road","sort_rank":377,"landuse_kind":"urban_area","is_bicycle_related":true,"bicycle_shield_text":"GW K-M-W","bicycle_network":"ncn","source":"openstreetmap.org","min_zoom":8.0,"kind_detail":"tertiary"},"arcs":[379]},{"type":"LineString","properties":{"bus_network":"Borek Fa\u0142\u0119cki -> Kopanka P\u0119tla","sort_rank":380,"kind_detail":"primary","kind":"major_road","source":"openstreetmap.org","min_zoom":8.0,"bus_shield_text":"233","landuse_kind":"urban_area","ref":"44"},"arcs":[380]},{"type":"MultiLineString","properties":{"kind":"minor_road","sort_rank":358,"landuse_kind":"urban_area","is_bicycle_related":true,"bicycle_shield_text":"AT","bicycle_network":"ncn","source":"openstreetmap.org","min_zoom":8.0,"kind_detail":"service"},"arcs":[[381],[382],[383]]},{"type":"MultiLineString","properties":{"kind":"major_road","network":"pl:national","sort_rank":380,"kind_detail":"primary","source":"openstreetmap.org","min_zoom":8.0,"landuse_kind":"nature_reserve","shield_text":"7","ref":"7"},"arcs":[[384],[385],[386],[387],[388]]},{"type":"MultiLineString","properties":{"kind":"major_road","network":"pl:national","sort_rank":380,"kind_detail":"primary","source":"openstreetmap.org","min_zoom":8.0,"landuse_kind":"urban_area","shield_text":"79","ref":"79"},"arcs":[[389],[390],[391],[392],[393],[394],[395],[396],[397],[398],[399],[400],[401]]},{"type":"MultiLineString","properties":{"bus_network":"Komunikacja Miejska w Krakowie","sort_rank":380,"kind_detail":"primary","kind":"major_road","source":"openstreetmap.org","min_zoom":8.0,"bus_shield_text":"124","landuse_kind":"urban_area"},"arcs":[[402],[403],[404],[405],[406],[407],[408],[409]]},{"type":"MultiLineString","properties":{"kind":"path","sort_rank":354,"kind_detail":"path","is_bicycle_related":true,"bicycle_shield_text":"AT","bicycle_network":"ncn","source":"openstreetmap.org","min_zoom":8.0},"arcs":[[410],[411]]},{"type":"LineString","properties":{"bus_network":"Komunikacja Miejska w Krakowie","network":"pl:national","sort_rank":380,"kind_detail":"primary","kind":"major_road","source":"openstreetmap.org","min_zoom":8.0,"bus_shield_text":"115","shield_text":"7","landuse_kind":"urban_area","ref":"7"},"arcs":[412]},{"type":"MultiLineString","properties":{"bus_network":"Komunikacja Miejska w Krakowie","sort_rank":380,"kind_detail":"primary","kind":"major_road","source":"openstreetmap.org","min_zoom":8.0,"bus_shield_text":"204","landuse_kind":"urban_area"},"arcs":[[413],[414]]},{"type":"LineString","properties":{"kind":"major_road","network":"pl:national","sort_rank":380,"kind_detail":"primary","bus_network":"ZIKiT Krak\u00f3w","source":"openstreetmap.org","min_zoom":8.0,"bus_shield_text":"260","shield_text":"7","ref":"7","id":533446588},"arcs":[415]},{"type":"MultiLineString","properties":{"bus_network":"Komunikacja Miejska w Krakowie","sort_rank":380,"kind_detail":"primary","kind":"major_road","source":"openstreetmap.org","min_zoom":8.0,"bus_shield_text":"304","landuse_kind":"urban_area"},"arcs":[[416],[417]]},{"type":"MultiLineString","properties":{"kind":"highway","network":"pl:national","sort_rank":383,"landuse_kind":"urban_area","source":"openstreetmap.org","min_zoom":8.0,"all_networks":["pl:national","pl:national","e-road","pl:motorways"],"kind_detail":"motorway","shield_text":"4","ref":"A4;75","all_shield_texts":["4","75","40","4"]},"arcs":[[418],[419]]},{"type":"MultiLineString","properties":{"kind":"minor_road","sort_rank":360,"kind_detail":"unclassified","is_bicycle_related":true,"bicycle_shield_text":"AT","bicycle_network":"ncn","source":"openstreetmap.org","min_zoom":8.0},"arcs":[[420],[421],[422],[423],[424]]},{"type":"LineString","properties":{"bus_network":"Komunikacja Miejska w Krakowie","sort_rank":380,"kind_detail":"primary","kind":"major_road","source":"openstreetmap.org","min_zoom":8.0,"bus_shield_text":"107","landuse_kind":"urban_area"},"arcs":[425]},{"type":"MultiLineString","properties":{"kind":"path","sort_rank":354,"landuse_kind":"urban_area","is_bicycle_related":true,"bicycle_shield_text":"WTR","bicycle_network":"ncn","source":"openstreetmap.org","min_zoom":8.0,"kind_detail":"path"},"arcs":[[426],[427],[428],[429],[430],[431],[432],[433],[434]]},{"type":"MultiLineString","properties":{"bus_network":"ZIKiT Krak\u00f3w","network":"pl:national","sort_rank":380,"kind_detail":"primary","kind":"major_road","source":"openstreetmap.org","min_zoom":8.0,"bus_shield_text":"132","shield_text":"79","landuse_kind":"urban_area","ref":"79;776"},"arcs":[[435],[436],[437],[438]]},{"type":"MultiLineString","properties":{"kind":"path","sort_rank":354,"kind_detail":"track","is_bicycle_related":true,"bicycle_shield_text":"AT","bicycle_network":"ncn","source":"openstreetmap.org","min_zoom":8.0},"arcs":[[439],[440],[441],[442],[443],[444],[445]]},{"type":"LineString","properties":{"bus_network":"Komunikacja Miejska w Krakowie","sort_rank":377,"landuse_kind":"nature_reserve","is_bicycle_related":true,"kind":"major_road","bicycle_shield_text":"WTR","bicycle_network":"ncn","source":"openstreetmap.org","min_zoom":8.0,"bus_shield_text":"203","kind_detail":"tertiary"},"arcs":[446]},{"type":"MultiLineString","properties":{"kind":"major_road","network":"pl:national","sort_rank":380,"kind_detail":"primary","source":"openstreetmap.org","min_zoom":8.0,"shield_text":"78","ref":"78"},"arcs":[[447],[448],[449],[450],[451],[452],[453],[454],[455],[456],[457],[458],[459],[460],[461],[462],[463],[464]]},{"type":"LineString","properties":{"kind":"major_road","network":"tourist","sort_rank":380,"kind_detail":"primary","bus_network":"Komunikacja Miejska w Krakowie","source":"openstreetmap.org","min_zoom":8.0,"bus_shield_text":"133","shield_text":null,"landuse_kind":"urban_area","id":125871013},"arcs":[465]},{"type":"MultiLineString","properties":{"kind":"major_road","network":"pl:national","sort_rank":380,"kind_detail":"primary","source":"openstreetmap.org","min_zoom":8.0,"landuse_kind":"nature_reserve","shield_text":"73","ref":"73"},"arcs":[[466],[467],[468],[469]]},{"type":"LineString","properties":{"kind":"major_road","sort_rank":377,"landuse_kind":"nature_reserve","is_bicycle_related":true,"bicycle_shield_text":"GW K-M-W","bicycle_network":"ncn","source":"openstreetmap.org","min_zoom":8.0,"kind_detail":"tertiary","ref":"2189K"},"arcs":[470]},{"type":"MultiLineString","properties":{"bus_network":null,"network":"pl:national","sort_rank":380,"kind_detail":"primary","kind":"major_road","source":"openstreetmap.org","min_zoom":8.0,"bus_shield_text":"210","shield_text":"94","landuse_kind":"nature_reserve","ref":"94"},"arcs":[[471],[472]]},{"type":"MultiLineString","properties":{"kind":"major_road","network":"tourist","sort_rank":380,"kind_detail":"primary","source":"openstreetmap.org","min_zoom":8.0,"landuse_kind":"urban_area","shield_text":null},"arcs":[[473],[474],[475]]},{"type":"MultiLineString","properties":{"kind":"path","sort_rank":354,"kind_detail":"steps","is_bicycle_related":true,"bicycle_shield_text":"AT","bicycle_network":"ncn","source":"openstreetmap.org","min_zoom":8.0,"landuse_kind":"urban_area"},"arcs":[[476],[477],[478]]},{"type":"MultiLineString","properties":{"bus_network":"Komunikacja Miejska w Krakowie","sort_rank":380,"kind_detail":"primary","kind":"major_road","source":"openstreetmap.org","min_zoom":8.0,"bus_shield_text":"174","landuse_kind":"urban_area","ref":"776"},"arcs":[[479],[480],[481],[482],[483],[484],[485],[486]]},{"type":"MultiLineString","properties":{"kind":"path","sort_rank":354,"kind_detail":"track","is_bicycle_related":true,"bicycle_shield_text":"GV","bicycle_network":"ncn","source":"openstreetmap.org","min_zoom":8.0},"arcs":[[487],[488]]},{"type":"MultiLineString","properties":{"bus_network":"Komunikacja Miejska w Krakowie","network":"pl:national","sort_rank":380,"kind_detail":"primary","kind":"major_road","source":"openstreetmap.org","min_zoom":8.0,"bus_shield_text":"175","shield_text":"7","landuse_kind":"urban_area","ref":"7"},"arcs":[[489],[490]]},{"type":"LineString","properties":{"kind":"path","sort_rank":354,"kind_detail":"footway","is_bicycle_related":true,"bicycle_shield_text":"WTR","bicycle_network":"ncn","source":"openstreetmap.org","min_zoom":8.0,"landuse_kind":"nature_reserve","id":340195376},"arcs":[491]},{"type":"MultiLineString","properties":{"bus_network":"Komunikacja Miejska w Krakowie","network":"pl:national","sort_rank":380,"kind_detail":"primary","kind":"major_road","source":"openstreetmap.org","min_zoom":8.0,"bus_shield_text":"204","shield_text":"94","landuse_kind":"urban_area","ref":"94"},"arcs":[[492],[493]]},{"type":"LineString","properties":{"bus_network":"Komunikacja Miejska w Krakowie","network":"pl:national","sort_rank":380,"kind_detail":"primary","kind":"major_road","source":"openstreetmap.org","min_zoom":8.0,"bus_shield_text":"203","shield_text":"44","landuse_kind":"urban_area","ref":"44"},"arcs":[494]},{"type":"MultiLineString","properties":{"kind":"major_road","sort_rank":377,"landuse_kind":"urban_area","is_bicycle_related":true,"bicycle_shield_text":"AT","bicycle_network":"ncn","source":"openstreetmap.org","min_zoom":8.0,"kind_detail":"tertiary"},"arcs":[[495],[496],[497],[498],[499],[500],[501],[502]]},{"type":"MultiLineString","properties":{"kind":"major_road","network":"pl:national","sort_rank":380,"kind_detail":"primary","is_bicycle_related":true,"bicycle_shield_text":null,"bicycle_network":"lcn","source":"openstreetmap.org","min_zoom":8.0,"shield_text":"52","ref":"52"},"arcs":[[503],[504]]},{"type":"MultiLineString","properties":{"kind":"major_road","network":"pl:national","sort_rank":380,"kind_detail":"primary","source":"openstreetmap.org","min_zoom":8.0,"shield_text":"75","ref":"75;94"},"arcs":[[505],[506],[507],[508],[509],[510],[511],[512],[513]]},{"type":"MultiLineString","properties":{"kind":"major_road","sort_rank":377,"kind_detail":"tertiary","is_bicycle_related":true,"bus_network":"Radzisz\u00f3w P\u0119tla -> Czerwone Maki","bicycle_shield_text":"AT","bicycle_network":"ncn","source":"openstreetmap.org","min_zoom":8.0,"bus_shield_text":"253"},"arcs":[[514],[515]]},{"type":"LineString","properties":{"source":"openstreetmap.org","kind":"major_road","network":"pl:national","sort_rank":380,"kind_detail":"primary","min_zoom":8.0,"shield_text":"52"},"arcs":[516]},{"type":"MultiLineString","properties":{"bus_network":"Komunikacja Miejska w Krakowie","sort_rank":380,"kind_detail":"primary","kind":"major_road","source":"openstreetmap.org","min_zoom":8.0,"bus_shield_text":"133","landuse_kind":"urban_area"},"arcs":[[517],[518],[519],[520]]},{"type":"MultiLineString","properties":{"kind":"path","sort_rank":354,"landuse_kind":"urban_area","is_bicycle_related":true,"bicycle_shield_text":"AT","bicycle_network":"ncn","source":"openstreetmap.org","min_zoom":8.0,"kind_detail":"footway"},"arcs":[[521],[522],[523],[524],[525],[526],[527],[528],[529],[530],[531]]},{"type":"LineString","properties":{"bus_network":"Komunikacja Miejska w Krakowie","sort_rank":380,"kind_detail":"primary","kind":"major_road","source":"openstreetmap.org","min_zoom":8.0,"bus_shield_text":"115","landuse_kind":"urban_area"},"arcs":[532]},{"type":"LineString","properties":{"kind":"major_road","network":"tourist","sort_rank":380,"kind_detail":"primary","bus_network":"Komunikacja Miejska w Krakowie","source":"openstreetmap.org","min_zoom":8.0,"bus_shield_text":"106","shield_text":null,"landuse_kind":"urban_area","id":77882930},"arcs":[533]},{"type":"MultiLineString","properties":{"kind":"minor_road","sort_rank":360,"landuse_kind":"nature_reserve","is_bicycle_related":true,"bicycle_shield_text":"WTR","bicycle_network":"ncn","source":"openstreetmap.org","min_zoom":8.0,"kind_detail":"residential"},"arcs":[[534],[535],[536],[537],[538],[539]]},{"type":"MultiLineString","properties":{"bus_network":"ZIKiT Krak\u00f3w","sort_rank":380,"kind_detail":"primary","kind":"major_road","source":"openstreetmap.org","min_zoom":8.0,"bus_shield_text":"132","landuse_kind":"urban_area"},"arcs":[[540],[541]]},{"type":"MultiLineString","properties":{"bus_network":"Komunikacja Miejska w Krakowie","sort_rank":377,"landuse_kind":"nature_reserve","is_bicycle_related":true,"kind":"major_road","bicycle_shield_text":"GW K-M-W","bicycle_network":"ncn","source":"openstreetmap.org","min_zoom":8.0,"bus_shield_text":"269","kind_detail":"tertiary"},"arcs":[[542],[543]]},{"type":"MultiLineString","properties":{"kind":"major_road","network":"pl:national","sort_rank":380,"kind_detail":"primary","is_bicycle_related":true,"bicycle_shield_text":null,"bicycle_network":"lcn","source":"openstreetmap.org","min_zoom":8.0,"shield_text":"7","ref":"7"},"arcs":[[544],[545]]},{"type":"LineString","properties":{"kind":"major_road","network":"pl:national","sort_rank":380,"kind_detail":"primary","source":"openstreetmap.org","min_zoom":8.0,"landuse_kind":"nature_reserve","shield_text":"7","ref":"7;79"},"arcs":[546]},{"type":"LineString","properties":{"kind":"major_road","sort_rank":380,"kind_detail":"primary","bus_network":"Komunikacja Miejska w Krakowie","source":"openstreetmap.org","min_zoom":8.0,"bus_shield_text":"123","landuse_kind":"urban_area","id":21896365},"arcs":[547]},{"type":"MultiLineString","properties":{"bus_network":"Komunikacja Miejska w Krakowie","network":"e-road","sort_rank":380,"kind_detail":"primary","kind":"major_road","source":"openstreetmap.org","min_zoom":8.0,"bus_shield_text":"238","shield_text":"77","landuse_kind":"urban_area"},"arcs":[[548],[549]]},{"type":"MultiLineString","properties":{"bus_network":"Komunikacja Miejska w Krakowie","network":"pl:national","sort_rank":380,"kind_detail":"primary","kind":"major_road","source":"openstreetmap.org","min_zoom":8.0,"bus_shield_text":"238","shield_text":"7","landuse_kind":"nature_reserve","ref":"7;79"},"arcs":[[550],[551],[552]]},{"type":"LineString","properties":{"kind":"minor_road","sort_rank":360,"landuse_kind":"nature_reserve","is_bicycle_related":true,"bicycle_shield_text":"WTR","bicycle_network":"ncn","source":"openstreetmap.org","min_zoom":8.0,"kind_detail":"unclassified"},"arcs":[553]},{"type":"MultiLineString","properties":{"kind":"major_road","network":"pl:national","sort_rank":380,"kind_detail":"primary","source":"openstreetmap.org","min_zoom":8.0,"shield_text":"79","ref":"79"},"arcs":[[554],[555],[556],[557],[558],[559],[560],[561],[562],[563],[564],[565]]},{"type":"MultiLineString","properties":{"kind":"major_road","network":"pl:regional","sort_rank":379,"kind_detail":"secondary","is_bicycle_related":true,"bicycle_shield_text":"AT","bicycle_network":"ncn","source":"openstreetmap.org","min_zoom":8.0,"shield_text":"973","ref":"973"},"arcs":[[566],[567]]},{"type":"LineString","properties":{"kind":"major_road","sort_rank":380,"kind_detail":"primary","bus_network":"Komunikacja Miejska w Krakowie","source":"openstreetmap.org","min_zoom":8.0,"bus_shield_text":"503","landuse_kind":"urban_area","id":206880020},"arcs":[568]},{"type":"LineString","properties":{"kind":"minor_road","sort_rank":360,"landuse_kind":"urban_area","is_bicycle_related":true,"bicycle_shield_text":"GW K-M-W","bicycle_network":"ncn","source":"openstreetmap.org","min_zoom":8.0,"kind_detail":"residential","cycleway":"opposite"},"arcs":[569]},{"type":"MultiLineString","properties":{"kind":"major_road","network":"pl:national","sort_rank":380,"kind_detail":"primary","source":"openstreetmap.org","min_zoom":8.0,"landuse_kind":"nature_reserve","shield_text":"78","ref":"78","id":81883138},"arcs":[[570],[571]]},{"type":"MultiLineString","properties":{"kind":"path","footway":"sidewalk","sort_rank":354,"landuse_kind":"urban_area","is_bicycle_related":true,"bicycle_shield_text":"GW K-M-W","bicycle_network":"ncn","source":"openstreetmap.org","min_zoom":8.0,"kind_detail":"footway"},"arcs":[[572],[573]]},{"type":"MultiLineString","properties":{"bus_network":"Komunikacja Miejska w Krakowie","sort_rank":380,"kind_detail":"primary","kind":"major_road","source":"openstreetmap.org","min_zoom":8.0,"bus_shield_text":"174","landuse_kind":"urban_area"},"arcs":[[574],[575]]},{"type":"MultiLineString","properties":{"kind":"path","sort_rank":354,"landuse_kind":"nature_reserve","is_bicycle_related":true,"bicycle_shield_text":"WTR","bicycle_network":"ncn","source":"openstreetmap.org","min_zoom":8.0,"kind_detail":"path"},"arcs":[[576],[577]]},{"type":"LineString","properties":{"source":"openstreetmap.org","kind":"ferry","name":"Wis\u0142a","sort_rank":355,"landuse_kind":"urban_area","min_zoom":8.0,"id":34614316},"arcs":[578]},{"type":"LineString","properties":{"kind":"path","sort_rank":354,"kind_detail":"track","is_bicycle_related":true,"bicycle_shield_text":"WTR","bicycle_network":"ncn","source":"openstreetmap.org","min_zoom":8.0,"landuse_kind":"urban_area","id":82500395},"arcs":[579]},{"type":"MultiLineString","properties":{"kind":"major_road","network":"pl:national","sort_rank":380,"kind_detail":"primary","source":"openstreetmap.org","min_zoom":8.0,"landuse_kind":"urban_area","shield_text":"73","ref":"73"},"arcs":[[580],[581],[582],[583],[584],[585],[586],[587],[588],[589],[590],[591],[592],[593],[594],[595],[596],[597],[598]]},{"type":"LineString","properties":{"kind":"highway","network":"pl:national","sort_rank":383,"kind_detail":"motorway","source":"openstreetmap.org","min_zoom":8.0,"all_networks":["pl:national","pl:national","e-road","pl:motorways"],"shield_text":"4","ref":"A4","id":252177260,"all_shield_texts":["4","75","40","4"]},"arcs":[599]},{"type":"LineString","properties":{"kind":"path","sort_rank":354,"kind_detail":"path","is_bicycle_related":true,"bicycle_shield_text":"AT","bicycle_network":"ncn","source":"openstreetmap.org","min_zoom":8.0,"landuse_kind":"nature_reserve","id":297870640},"arcs":[600]},{"type":"MultiLineString","properties":{"kind":"highway","network":"pl:national","sort_rank":383,"kind_detail":"motorway","source":"openstreetmap.org","min_zoom":8.0,"all_networks":["pl:national","e-road","pl:motorways"],"shield_text":"4","ref":"A4","all_shield_texts":["4","40","4"]},"arcs":[[601],[602],[603],[604],[605],[606],[607],[608],[609],[610],[611],[612],[613],[614],[615],[616],[617],[618],[619],[620],[621],[622],[623],[624],[625],[626],[627],[628]]},{"type":"LineString","properties":{"kind":"major_road","network":"e-road","sort_rank":380,"kind_detail":"primary","source":"openstreetmap.org","min_zoom":8.0,"landuse_kind":"urban_area","shield_text":"77"},"arcs":[629]},{"type":"MultiLineString","properties":{"kind":"highway","network":"pl:national","sort_rank":383,"landuse_kind":"urban_area","source":"openstreetmap.org","min_zoom":8.0,"all_networks":["pl:national","e-road","pl:motorways"],"kind_detail":"motorway","shield_text":"4","ref":"A4","all_shield_texts":["4","40","4"]},"arcs":[[630],[631],[632],[633],[634],[635],[636],[637],[638],[639],[640],[641],[642],[643],[644],[645],[646],[647],[648],[649],[650],[651],[652],[653]]},{"type":"MultiLineString","properties":{"bus_network":"Komunikacja Miejska w Krakowie","network":"pl:national","sort_rank":380,"kind_detail":"primary","kind":"major_road","source":"openstreetmap.org","min_zoom":8.0,"bus_shield_text":"163","shield_text":"79","landuse_kind":"urban_area","ref":"79"},"arcs":[[654],[655],[656]]},{"type":"MultiLineString","properties":{"kind":"minor_road","sort_rank":360,"kind_detail":"unclassified","is_bicycle_related":true,"bicycle_shield_text":"GV","bicycle_network":"ncn","source":"openstreetmap.org","min_zoom":8.0},"arcs":[[657],[658]]},{"type":"LineString","properties":{"source":"openstreetmap.org","kind":"highway","landuse_kind":"nature_reserve","sort_rank":383,"kind_detail":"motorway","min_zoom":8.0},"arcs":[659]},{"type":"MultiLineString","properties":{"kind":"major_road","network":"pl:national","sort_rank":380,"kind_detail":"primary","source":"openstreetmap.org","min_zoom":8.0,"shield_text":"75","ref":"94"},"arcs":[[660],[661],[662],[663],[664]]},{"type":"LineString","properties":{"kind":"major_road","network":"pl:national","sort_rank":380,"kind_detail":"primary","source":"openstreetmap.org","min_zoom":8.0,"landuse_kind":"urban_area","shield_text":"44","ref":"44"},"arcs":[665]},{"type":"MultiLineString","properties":{"bus_network":"Komunikacja Miejska w Krakowie","network":"tourist","sort_rank":380,"kind_detail":"primary","kind":"major_road","source":"openstreetmap.org","min_zoom":8.0,"bus_shield_text":"175","shield_text":null,"landuse_kind":"urban_area"},"arcs":[[666],[667]]},{"type":"LineString","properties":{"bus_network":"Krak\u00f3w","network":"tourist","sort_rank":380,"kind_detail":"primary","kind":"major_road","source":"openstreetmap.org","min_zoom":8.0,"bus_shield_text":"151","shield_text":null,"landuse_kind":"urban_area"},"arcs":[668]},{"type":"LineString","properties":{"bus_network":"Komunikacja Miejska w Krakowie","sort_rank":380,"kind_detail":"primary","kind":"major_road","source":"openstreetmap.org","min_zoom":8.0,"bus_shield_text":"125","landuse_kind":"urban_area"},"arcs":[669]},{"type":"LineString","properties":{"kind":"major_road","network":"pl:regional","sort_rank":379,"kind_detail":"secondary","is_bicycle_related":true,"bicycle_shield_text":"AT","bicycle_network":"ncn","source":"openstreetmap.org","min_zoom":8.0,"landuse_kind":"urban_area","shield_text":"964","ref":"964","id":208647054},"arcs":[670]},{"type":"LineString","properties":{"kind":"major_road","short_name":"\u017bwirki i Wigury","sort_rank":377,"landuse_kind":"urban_area","is_bicycle_related":true,"bicycle_shield_text":"AT","bicycle_network":"ncn","source":"openstreetmap.org","min_zoom":8.0,"kind_detail":"tertiary"},"arcs":[671]},{"type":"LineString","properties":{"kind":"major_road","network":"pl:national","sort_rank":380,"kind_detail":"primary","bus_network":"Komunikacja Miejska w Krakowie","source":"openstreetmap.org","min_zoom":8.0,"bus_shield_text":"152","shield_text":"79","landuse_kind":"urban_area","ref":"79","id":148469613},"arcs":[672]},{"type":"MultiLineString","properties":{"kind":"major_road","network":"pl:national","sort_rank":381,"landuse_kind":"urban_area","source":"openstreetmap.org","min_zoom":8.0,"kind_detail":"trunk","shield_text":"7","ref":"S52;7"},"arcs":[[673],[674]]},{"type":"LineString","properties":{"kind":"major_road","sort_rank":380,"kind_detail":"primary","bus_network":"Komunikacja Miejska w Krakowie","source":"openstreetmap.org","min_zoom":8.0,"bus_shield_text":"101","landuse_kind":"urban_area","id":196713930},"arcs":[675]},{"type":"LineString","properties":{"bus_network":"Krak\u00f3w","network":"pl:national","sort_rank":380,"kind_detail":"primary","kind":"major_road","source":"openstreetmap.org","min_zoom":8.0,"bus_shield_text":"166","shield_text":"44","landuse_kind":"nature_reserve","ref":"44"},"arcs":[676]},{"type":"MultiLineString","properties":{"kind":"minor_road","sort_rank":358,"landuse_kind":"nature_reserve","is_bicycle_related":true,"bicycle_shield_text":"WTR","bicycle_network":"ncn","source":"openstreetmap.org","min_zoom":8.0,"kind_detail":"service"},"arcs":[[677],[678],[679],[680]]},{"type":"MultiLineString","properties":{"bus_network":"Komunikacja Miejska w Krakowie","sort_rank":380,"kind_detail":"primary","kind":"major_road","source":"openstreetmap.org","min_zoom":8.0,"bus_shield_text":"139","name:be":"\u0410\u043b\u0435\u044f \u0410\u0434\u0430\u043c\u0430 \u041c\u0456\u0446\u043a\u0435\u0432\u0456\u0447\u0430","landuse_kind":"urban_area"},"arcs":[[681],[682]]},{"type":"MultiLineString","properties":{"kind":"major_road","network":"pl:national","sort_rank":380,"kind_detail":"primary","source":"openstreetmap.org","min_zoom":8.0,"shield_text":"75","ref":"75"},"arcs":[[683],[684],[685],[686],[687],[688],[689],[690],[691],[692],[693],[694],[695],[696],[697],[698],[699],[700],[701],[702],[703]]},{"type":"MultiLineString","properties":{"bus_network":"Komunikacja Miejska w Krakowie","sort_rank":377,"kind_detail":"tertiary","is_bicycle_related":true,"kind":"major_road","bicycle_shield_text":"WTR","bicycle_network":"ncn","source":"openstreetmap.org","min_zoom":8.0,"bus_shield_text":"203"},"arcs":[[704],[705]]},{"type":"MultiLineString","properties":{"bus_network":"ZIKiT Krak\u00f3w","network":"pl:national","sort_rank":380,"kind_detail":"primary","kind":"major_road","source":"openstreetmap.org","min_zoom":8.0,"bus_shield_text":"132","shield_text":"7","landuse_kind":"urban_area","ref":"7;79"},"arcs":[[706],[707]]},{"type":"LineString","properties":{"kind":"major_road","sort_rank":379,"kind_detail":"secondary","is_bicycle_related":true,"bicycle_shield_text":"AT","bicycle_network":"ncn","source":"openstreetmap.org","min_zoom":8.0,"landuse_kind":"urban_area","id":138361792},"arcs":[708]},{"type":"LineString","properties":{"kind":"minor_road","sort_rank":360,"kind_detail":"residential","is_bicycle_related":true,"bicycle_shield_text":"AT","cycleway":"lane","source":"openstreetmap.org","min_zoom":8.0,"landuse_kind":"urban_area","bicycle_network":"ncn","id":392754852},"arcs":[709]},{"type":"LineString","properties":{"kind":"major_road","network":"pl:expressways","sort_rank":381,"kind_detail":"trunk","source":"openstreetmap.org","min_zoom":8.0,"shield_text":"7","ref":"S7","id":313453620},"arcs":[710]},{"type":"MultiLineString","properties":{"bus_network":"Komunikacja Miejska w Krakowie","sort_rank":380,"kind_detail":"primary","kind":"major_road","source":"openstreetmap.org","min_zoom":8.0,"bus_shield_text":"152","landuse_kind":"urban_area"},"arcs":[[711],[712]]},{"type":"MultiLineString","properties":{"bus_network":null,"sort_rank":380,"kind_detail":"primary","bus_shield_text":"210","kind":"major_road","source":"openstreetmap.org","min_zoom":8.0,"old_name":"Jurija Gagarina","landuse_kind":"urban_area"},"arcs":[[713],[714]]},{"type":"MultiLineString","properties":{"kind":"path","sort_rank":354,"landuse_kind":"nature_reserve","is_bicycle_related":true,"bicycle_shield_text":"WTR","bicycle_network":"ncn","source":"openstreetmap.org","min_zoom":8.0,"kind_detail":"cycleway"},"arcs":[[715],[716]]},{"type":"LineString","properties":{"kind":"major_road","network":"pl:national","sort_rank":380,"kind_detail":"primary","is_bicycle_related":true,"bicycle_shield_text":null,"bicycle_network":"lcn","source":"openstreetmap.org","min_zoom":8.0,"landuse_kind":"urban_area","shield_text":"94","ref":"94","id":198987107},"arcs":[717]},{"type":"LineString","properties":{"bus_network":null,"network":"pl:national","sort_rank":380,"kind_detail":"primary","is_bicycle_related":true,"kind":"major_road","bicycle_shield_text":null,"bicycle_network":"lcn","source":"openstreetmap.org","min_zoom":8.0,"bus_shield_text":"Olkusz <-> Krak\u00f3w","shield_text":"94","landuse_kind":"nature_reserve","ref":"94","id":102149964},"arcs":[718]},{"type":"MultiLineString","properties":{"bus_network":"Komunikacja Miejska w Krakowie","sort_rank":380,"kind_detail":"primary","kind":"major_road","source":"openstreetmap.org","min_zoom":8.0,"bus_shield_text":"152","name:be":"\u0410\u043b\u0435\u044f \u0410\u0434\u0430\u043c\u0430 \u041c\u0456\u0446\u043a\u0435\u0432\u0456\u0447\u0430","landuse_kind":"urban_area"},"arcs":[[719],[720]]},{"type":"MultiLineString","properties":{"bus_network":"Krak\u00f3w","network":"pl:national","sort_rank":380,"kind_detail":"primary","kind":"major_road","source":"openstreetmap.org","min_zoom":8.0,"bus_shield_text":"125","shield_text":"79","landuse_kind":"urban_area","ref":"79"},"arcs":[[721],[722],[723]]},{"type":"MultiLineString","properties":{"kind":"major_road","network":"pl:national","sort_rank":380,"kind_detail":"primary","source":"openstreetmap.org","min_zoom":8.0,"shield_text":"46","ref":"46"},"arcs":[[724],[725]]},{"type":"LineString","properties":{"kind":"major_road","network":"pl:national","sort_rank":380,"kind_detail":"primary","bus_network":"Kielce","source":"openstreetmap.org","min_zoom":8.0,"bus_shield_text":"45","shield_text":"73","ref":"73","id":255975831},"arcs":[726]},{"type":"MultiLineString","properties":{"bus_network":"Komunikacja Miejska w Krakowie","sort_rank":377,"landuse_kind":"urban_area","is_bicycle_related":true,"kind":"major_road","bicycle_shield_text":"AT","bicycle_network":"ncn","source":"openstreetmap.org","min_zoom":8.0,"bus_shield_text":"203","kind_detail":"tertiary"},"arcs":[[727],[728]]},{"type":"LineString","properties":{"kind":"major_road","sort_rank":377,"kind_detail":"tertiary","is_bicycle_related":true,"bicycle_shield_text":"AT","bicycle_network":"ncn","source":"openstreetmap.org","min_zoom":8.0,"ref":"1430K","id":208699499},"arcs":[729]},{"type":"LineString","properties":{"kind":"major_road","network":"pl:national","sort_rank":380,"kind_detail":"primary","source":"openstreetmap.org","min_zoom":8.0,"landuse_kind":"urban_area","shield_text":"75","ref":"94","id":401689944},"arcs":[730]},{"type":"MultiLineString","properties":{"kind":"major_road","network":"pl:national","sort_rank":380,"kind_detail":"primary","source":"openstreetmap.org","min_zoom":8.0,"shield_text":"7","ref":"7"},"arcs":[[731],[732],[733],[734],[735],[736],[737],[738],[739],[740],[741],[742],[743],[744],[745],[746],[747],[748],[749],[750],[751],[752],[753],[754],[755],[756],[757]]},{"type":"MultiLineString","properties":{"bus_network":"Komunikacja Miejska w Krakowie","network":"pl:national","sort_rank":380,"kind_detail":"primary","kind":"major_road","source":"openstreetmap.org","min_zoom":8.0,"bus_shield_text":"175","shield_text":"7","ref":"7"},"arcs":[[758],[759]]},{"type":"MultiLineString","properties":{"kind":"major_road","network":"pl:national","sort_rank":380,"kind_detail":"primary","source":"openstreetmap.org","min_zoom":8.0,"landuse_kind":"urban_area","shield_text":"75","ref":"75"},"arcs":[[760],[761],[762],[763]]},{"type":"LineString","properties":{"kind":"major_road","sort_rank":380,"kind_detail":"primary","bus_network":"ZIKiT Krak\u00f3w","source":"openstreetmap.org","min_zoom":8.0,"bus_shield_text":"132","name:be":"\u0410\u043b\u0435\u044f \u042e\u043b\u0456\u044e\u0448\u0430 \u0421\u043b\u0430\u0432\u0430\u0446\u043a\u0430\u0433\u0430","landuse_kind":"urban_area","id":117386953},"arcs":[764]},{"type":"MultiLineString","properties":{"kind":"path","footway":"crossing","sort_rank":354,"landuse_kind":"urban_area","is_bicycle_related":true,"bicycle_shield_text":"AT","bicycle_network":"ncn","source":"openstreetmap.org","min_zoom":8.0,"kind_detail":"footway"},"arcs":[[765],[766]]},{"type":"MultiLineString","properties":{"bus_network":"Komunikacja Miejska w Krakowie","network":"tourist","sort_rank":380,"kind_detail":"primary","kind":"major_road","source":"openstreetmap.org","min_zoom":8.0,"bus_shield_text":"144","shield_text":null,"landuse_kind":"urban_area"},"arcs":[[767],[768]]},{"type":"LineString","properties":{"bus_network":"Kopanka P\u0119tla -> Borek Fa\u0142\u0119cki","network":"pl:national","sort_rank":380,"kind_detail":"primary","is_bicycle_related":true,"kind":"major_road","bicycle_shield_text":"AT","bicycle_network":"ncn","source":"openstreetmap.org","min_zoom":8.0,"bus_shield_text":"233","shield_text":"44","landuse_kind":"urban_area","ref":"44","id":208161521},"arcs":[769]},{"type":"MultiLineString","properties":{"kind":"major_road","network":"pl:national","sort_rank":381,"kind_detail":"trunk","source":"openstreetmap.org","min_zoom":8.0,"shield_text":"7","ref":"S7"},"arcs":[[770],[771],[772],[773]]},{"type":"LineString","properties":{"kind":"minor_road","sort_rank":360,"kind_detail":"road","is_bicycle_related":true,"bicycle_shield_text":"AT","bicycle_network":"ncn","source":"openstreetmap.org","min_zoom":8.0,"id":204002384},"arcs":[774]},{"type":"MultiLineString","properties":{"bus_network":"ZIKiT Krak\u00f3w","network":"pl:national","sort_rank":380,"kind_detail":"primary","kind":"major_road","source":"openstreetmap.org","min_zoom":8.0,"bus_shield_text":"105","shield_text":"7","landuse_kind":"urban_area","ref":"7"},"arcs":[[775],[776]]},{"type":"MultiLineString","properties":{"kind":"highway","network":"pl:national","sort_rank":383,"landuse_kind":"urban_area","source":"openstreetmap.org","min_zoom":8.0,"all_networks":["pl:national","pl:national","e-road","e-road","pl:motorways"],"kind_detail":"motorway","shield_text":"4","ref":"A4;7","all_shield_texts":["4","7","40","77","4"]},"arcs":[[777],[778],[779]]},{"type":"LineString","properties":{"bus_network":"Komunikacja Miejska w Krakowie","sort_rank":377,"kind_detail":"tertiary","is_bicycle_related":true,"kind":"major_road","bicycle_shield_text":"GW K-M-W","bicycle_network":"ncn","source":"openstreetmap.org","min_zoom":8.0,"bus_shield_text":"269"},"arcs":[780]},{"type":"LineString","properties":{"bus_network":"Komunikacja Miejska w Krakowie","sort_rank":380,"kind_detail":"primary","kind":"major_road","source":"openstreetmap.org","min_zoom":8.0,"bus_shield_text":"143","landuse_kind":"urban_area","ref":"776"},"arcs":[781]},{"type":"MultiLineString","properties":{"kind":"path","sort_rank":354,"kind_detail":"footway","is_bicycle_related":true,"bicycle_shield_text":"AT","bicycle_network":"ncn","source":"openstreetmap.org","min_zoom":8.0},"arcs":[[782],[783]]},{"type":"LineString","properties":{"kind":"minor_road","sort_rank":360,"landuse_kind":"nature_reserve","is_bicycle_related":true,"bicycle_shield_text":"GW K-M-W","bicycle_network":"ncn","source":"openstreetmap.org","min_zoom":8.0,"kind_detail":"unclassified"},"arcs":[784]},{"type":"LineString","properties":{"kind":"major_road","network":"pl:national","sort_rank":380,"kind_detail":"primary","is_bicycle_related":true,"bicycle_shield_text":null,"bicycle_network":"lcn","source":"openstreetmap.org","min_zoom":8.0,"landuse_kind":"nature_reserve","shield_text":"7","ref":"7","id":175304336},"arcs":[785]},{"type":"MultiLineString","properties":{"bus_network":"Komunikacja Miejska w Krakowie","sort_rank":380,"kind_detail":"primary","kind":"major_road","source":"openstreetmap.org","min_zoom":8.0,"bus_shield_text":"178","landuse_kind":"urban_area","ref":"776"},"arcs":[[786],[787]]},{"type":"MultiLineString","properties":{"kind":"highway","network":"pl:national","sort_rank":383,"kind_detail":"motorway","source":"openstreetmap.org","min_zoom":8.0,"all_networks":["pl:national","pl:national","e-road","pl:motorways"],"shield_text":"4","ref":"A4;75","all_shield_texts":["4","75","40","4"]},"arcs":[[788],[789],[790],[791],[792],[793],[794],[795]]},{"type":"MultiLineString","properties":{"bus_network":"Komunikacja Miejska w Krakowie","sort_rank":380,"kind_detail":"primary","kind":"major_road","source":"openstreetmap.org","min_zoom":8.0,"bus_shield_text":"135","landuse_kind":"urban_area"},"arcs":[[796],[797],[798]]},{"type":"LineString","properties":{"kind":"path","sort_rank":354,"landuse_kind":"nature_reserve","is_bicycle_related":true,"bicycle_shield_text":"GW K-M-W","bicycle_network":"ncn","source":"openstreetmap.org","min_zoom":8.0,"kind_detail":"track"},"arcs":[799]},{"type":"MultiLineString","properties":{"bus_network":"Komunikacja Miejska w Krakowie","network":"pl:national","sort_rank":380,"kind_detail":"primary","kind":"major_road","source":"openstreetmap.org","min_zoom":8.0,"bus_shield_text":"238","shield_text":"79","landuse_kind":"urban_area","ref":"79"},"arcs":[[800],[801],[802],[803],[804]]},{"type":"LineString","properties":{"bus_network":"Komunikacja Miejska w Krakowie","network":"pl:national","sort_rank":380,"kind_detail":"primary","kind":"major_road","source":"openstreetmap.org","min_zoom":8.0,"bus_shield_text":"201","shield_text":"44","landuse_kind":"urban_area","ref":"44"},"arcs":[805]},{"type":"LineString","properties":{"kind":"path","sort_rank":354,"kind_detail":"track","is_bicycle_related":true,"bicycle_shield_text":"AT","bicycle_network":"ncn","source":"openstreetmap.org","min_zoom":8.0,"landuse_kind":"nature_reserve","id":40870356},"arcs":[806]},{"type":"MultiLineString","properties":{"kind":"major_road","network":"pl:national","sort_rank":381,"kind_detail":"trunk","source":"openstreetmap.org","min_zoom":8.0,"landuse_kind":"nature_reserve","shield_text":"7","ref":"S52;7"},"arcs":[[807],[808]]},{"type":"MultiLineString","properties":{"source":"openstreetmap.org","kind":"major_road","landuse_kind":"urban_area","sort_rank":380,"kind_detail":"primary","min_zoom":8.0},"arcs":[[809],[810],[811],[812],[813],[814],[815],[816],[817],[818],[819],[820],[821],[822],[823],[824],[825],[826],[827],[828],[829],[830],[831],[832],[833],[834],[835],[836],[837],[838],[839],[840],[841],[842],[843],[844],[845],[846],[847],[848],[849],[850],[851],[852],[853],[854],[855]]},{"type":"MultiLineString","properties":{"bus_network":"Krak\u00f3w","sort_rank":380,"kind_detail":"primary","kind":"major_road","source":"openstreetmap.org","min_zoom":8.0,"bus_shield_text":"125","landuse_kind":"urban_area"},"arcs":[[856],[857]]},{"type":"MultiLineString","properties":{"kind":"path","sort_rank":354,"kind_detail":"cycleway","is_bicycle_related":true,"bicycle_shield_text":"WTR","bicycle_network":"ncn","source":"openstreetmap.org","min_zoom":8.0},"arcs":[[858],[859],[860],[861],[862],[863],[864]]},{"type":"MultiLineString","properties":{"kind":"minor_road","sort_rank":360,"kind_detail":"residential","is_bicycle_related":true,"bicycle_shield_text":"AT","bicycle_network":"ncn","source":"openstreetmap.org","min_zoom":8.0},"arcs":[[865],[866],[867],[868],[869],[870],[871],[872],[873],[874],[875],[876],[877],[878],[879],[880],[881],[882],[883],[884]]},{"type":"MultiLineString","properties":{"bus_network":"MPK Kielce","network":"pl:national","sort_rank":380,"kind_detail":"primary","kind":"major_road","source":"openstreetmap.org","min_zoom":8.0,"bus_shield_text":"208","shield_text":"73","ref":"73"},"arcs":[[885],[886]]},{"type":"MultiLineString","properties":{"kind":"minor_road","sort_rank":360,"kind_detail":"residential","is_bicycle_related":true,"bicycle_shield_text":"GV","bicycle_network":"ncn","source":"openstreetmap.org","min_zoom":8.0},"arcs":[[887],[888],[889],[890]]},{"type":"MultiLineString","properties":{"bus_network":"ZIKiT Krak\u00f3w","sort_rank":380,"kind_detail":"primary","kind":"major_road","source":"openstreetmap.org","min_zoom":8.0,"bus_shield_text":"105","landuse_kind":"urban_area"},"arcs":[[891],[892],[893]]},{"type":"LineString","properties":{"bus_network":"Kopanka P\u0119tla -> Borek Fa\u0142\u0119cki","sort_rank":377,"landuse_kind":"urban_area","is_bicycle_related":true,"kind":"major_road","bicycle_shield_text":"WTR","bicycle_network":"ncn","source":"openstreetmap.org","min_zoom":8.0,"bus_shield_text":"233","kind_detail":"tertiary"},"arcs":[894]},{"type":"LineString","properties":{"kind":"major_road","network":"pl:national","sort_rank":380,"kind_detail":"primary","source":"openstreetmap.org","min_zoom":8.0,"shield_text":"73","ref":"73;79","id":30971376},"arcs":[895]},{"type":"LineString","properties":{"kind":"major_road","network":"pl:national","sort_rank":380,"kind_detail":"primary","source":"openstreetmap.org","min_zoom":8.0,"shield_text":"79","ref":"79;973","id":351425038},"arcs":[896]},{"type":"MultiLineString","properties":{"bus_network":"Komunikacja Miejska w Krakowie","sort_rank":380,"kind_detail":"primary","kind":"major_road","source":"openstreetmap.org","min_zoom":8.0,"bus_shield_text":"144","landuse_kind":"urban_area"},"arcs":[[897],[898],[899],[900],[901],[902],[903],[904],[905],[906],[907]]},{"type":"MultiLineString","properties":{"bus_network":"Komunikacja Miejska w Krakowie","network":"pl:national","sort_rank":380,"kind_detail":"primary","kind":"major_road","source":"openstreetmap.org","min_zoom":8.0,"bus_shield_text":"238","shield_text":"79","landuse_kind":"nature_reserve","ref":"79"},"arcs":[[908],[909],[910],[911],[912]]},{"type":"LineString","properties":{"kind":"major_road","network":"pl:national","sort_rank":380,"kind_detail":"primary","is_bicycle_related":true,"bicycle_shield_text":"AT","bicycle_network":"ncn","source":"openstreetmap.org","min_zoom":8.0,"shield_text":"52","ref":"52","id":204001957},"arcs":[913]},{"type":"MultiLineString","properties":{"kind":"major_road","sort_rank":377,"kind_detail":"tertiary","is_bicycle_related":true,"bicycle_shield_text":"AT","bicycle_network":"ncn","source":"openstreetmap.org","min_zoom":8.0,"ref":"1421K"},"arcs":[[914],[915]]},{"type":"MultiLineString","properties":{"bus_network":"Komunikacja Miejska w Krakowie","network":"tourist","sort_rank":380,"kind_detail":"primary","kind":"major_road","source":"openstreetmap.org","min_zoom":8.0,"bus_shield_text":"145","shield_text":null,"landuse_kind":"urban_area"},"arcs":[[916],[917]]},{"type":"LineString","properties":{"bus_network":"Kopanka P\u0119tla -> Borek Fa\u0142\u0119cki","network":"pl:national","sort_rank":380,"kind_detail":"primary","kind":"major_road","source":"openstreetmap.org","min_zoom":8.0,"bus_shield_text":"233","shield_text":"44","landuse_kind":"urban_area","ref":"44"},"arcs":[918]},{"type":"MultiLineString","properties":{"kind":"major_road","network":"pl:national","sort_rank":380,"kind_detail":"primary","source":"openstreetmap.org","min_zoom":8.0,"shield_text":"7","ref":"S7"},"arcs":[[919],[920]]},{"type":"LineString","properties":{"kind":"major_road","sort_rank":380,"kind_detail":"primary","bus_network":"ZIKiT Krak\u00f3w","source":"openstreetmap.org","min_zoom":8.0,"bus_shield_text":"610","landuse_kind":"urban_area","id":533275337},"arcs":[921]},{"type":"LineString","properties":{"kind":"major_road","network":"pl:national","sort_rank":380,"kind_detail":"primary","source":"openstreetmap.org","min_zoom":8.0,"shield_text":"44","ref":"44"},"arcs":[922]},{"type":"MultiLineString","properties":{"kind":"major_road","network":"pl:national","sort_rank":380,"kind_detail":"primary","source":"openstreetmap.org","min_zoom":8.0,"landuse_kind":"urban_area","shield_text":"7","ref":"7;79"},"arcs":[[923],[924],[925]]},{"type":"LineString","properties":{"kind":"major_road","sort_rank":377,"kind_detail":"tertiary","is_bicycle_related":true,"bicycle_shield_text":"GV","bicycle_network":"ncn","source":"openstreetmap.org","min_zoom":8.0},"arcs":[926]},{"type":"MultiLineString","properties":{"kind":"path","sort_rank":354,"landuse_kind":"urban_area","is_bicycle_related":true,"bicycle_shield_text":"AT","bicycle_network":"ncn","source":"openstreetmap.org","min_zoom":8.0,"kind_detail":"cycleway"},"arcs":[[927],[928],[929],[930],[931],[932],[933],[934]]},{"type":"MultiLineString","properties":{"kind":"minor_road","sort_rank":360,"kind_detail":"unclassified","is_bicycle_related":true,"bicycle_shield_text":"WTR","bicycle_network":"ncn","source":"openstreetmap.org","min_zoom":8.0},"arcs":[[935],[936],[937],[938],[939]]},{"type":"LineString","properties":{"kind":"major_road","sort_rank":380,"kind_detail":"primary","bus_network":"ZIKiT Krak\u00f3w","source":"openstreetmap.org","min_zoom":8.0,"bus_shield_text":"105","name:be":"\u0410\u043b\u0435\u044f \u042e\u043b\u0456\u044e\u0448\u0430 \u0421\u043b\u0430\u0432\u0430\u0446\u043a\u0430\u0433\u0430","landuse_kind":"urban_area","id":24822480},"arcs":[940]},{"type":"LineString","properties":{"bus_network":"Komunikacja Miejska w Krakowie","network":"pl:national","sort_rank":380,"kind_detail":"primary","kind":"major_road","source":"openstreetmap.org","min_zoom":8.0,"bus_shield_text":"168","shield_text":"7","landuse_kind":"urban_area","ref":"7;79"},"arcs":[941]},{"type":"LineString","properties":{"kind":"minor_road","sort_rank":360,"landuse_kind":"urban_area","is_bicycle_related":true,"bicycle_shield_text":"AT","bicycle_network":"ncn","source":"openstreetmap.org","min_zoom":8.0,"kind_detail":"living_street"},"arcs":[942]},{"type":"MultiLineString","properties":{"bus_network":null,"network":"pl:national","sort_rank":380,"kind_detail":"primary","kind":"major_road","source":"openstreetmap.org","min_zoom":8.0,"bus_shield_text":"210","shield_text":"94","ref":"94"},"arcs":[[943],[944]]},{"type":"MultiLineString","properties":{"kind":"highway","network":"pl:national","sort_rank":383,"landuse_kind":"nature_reserve","source":"openstreetmap.org","min_zoom":8.0,"all_networks":["pl:national","pl:national","e-road","e-road","pl:motorways"],"kind_detail":"motorway","shield_text":"4","ref":"A4;7","all_shield_texts":["4","7","40","77","4"]},"arcs":[[945],[946],[947],[948],[949]]},{"type":"MultiLineString","properties":{"bus_network":"Komunikacja Miejska w Krakowie","sort_rank":377,"landuse_kind":"nature_reserve","is_bicycle_related":true,"kind":"major_road","bicycle_shield_text":"GW K-M-W","bicycle_network":"ncn","source":"openstreetmap.org","min_zoom":8.0,"bus_shield_text":"102","kind_detail":"tertiary"},"arcs":[[950],[951]]},{"type":"LineString","properties":{"bus_network":"Komunikacja Miejska w Krakowie","network":"pl:national","sort_rank":380,"kind_detail":"primary","kind":"major_road","source":"openstreetmap.org","min_zoom":8.0,"bus_shield_text":"201","shield_text":"44","ref":"44"},"arcs":[952]},{"type":"MultiLineString","properties":{"kind":"major_road","network":"pl:expressways","sort_rank":381,"landuse_kind":"urban_area","source":"openstreetmap.org","min_zoom":8.0,"kind_detail":"trunk","shield_text":"7","ref":"S7"},"arcs":[[953],[954]]},{"type":"LineString","properties":{"kind":"major_road","network":"pl:national","sort_rank":380,"kind_detail":"primary","bus_network":"ZIKiT Krak\u00f3w","source":"openstreetmap.org","min_zoom":8.0,"bus_shield_text":"260","shield_text":"7","landuse_kind":"nature_reserve","ref":"7","id":533446588},"arcs":[955]},{"type":"MultiLineString","properties":{"bus_network":null,"network":"pl:national","sort_rank":380,"kind_detail":"primary","kind":"major_road","source":"openstreetmap.org","min_zoom":8.0,"bus_shield_text":"Olkusz <-> Krak\u00f3w","shield_text":"94","ref":"94"},"arcs":[[956],[957],[958],[959],[960],[961]]},{"type":"MultiLineString","properties":{"kind":"major_road","network":"pl:national","sort_rank":381,"kind_detail":"trunk","source":"openstreetmap.org","min_zoom":8.0,"shield_text":"7","ref":"S7;78"},"arcs":[[962],[963]]},{"type":"LineString","properties":{"kind":"major_road","network":"e-road","sort_rank":380,"kind_detail":"primary","bus_network":"Komunikacja Miejska w Krakowie","source":"openstreetmap.org","min_zoom":8.0,"bus_shield_text":"168","shield_text":"77","landuse_kind":"urban_area","id":435099053},"arcs":[964]},{"type":"LineString","properties":{"kind":"major_road","network":"pl:expressways","sort_rank":381,"kind_detail":"trunk","source":"openstreetmap.org","min_zoom":8.0,"landuse_kind":"nature_reserve","shield_text":"52","ref":"S52"},"arcs":[965]},{"type":"LineString","properties":{"kind":"major_road","sort_rank":377,"kind_detail":"tertiary","is_bicycle_related":true,"bicycle_shield_text":"WTR","bicycle_network":"ncn","source":"openstreetmap.org","min_zoom":8.0,"landuse_kind":"nature_reserve","id":41401455},"arcs":[966]},{"type":"MultiLineString","properties":{"kind":"highway","network":"pl:national","sort_rank":383,"landuse_kind":"nature_reserve","source":"openstreetmap.org","min_zoom":8.0,"all_networks":["pl:national","e-road","pl:motorways"],"kind_detail":"motorway","shield_text":"4","ref":"A4","all_shield_texts":["4","40","4"]},"arcs":[[967],[968],[969],[970],[971],[972],[973]]},{"type":"MultiLineString","properties":{"kind":"path","sort_rank":354,"landuse_kind":"urban_area","is_bicycle_related":true,"bicycle_shield_text":"WTR","bicycle_network":"ncn","source":"openstreetmap.org","min_zoom":8.0,"kind_detail":"cycleway"},"arcs":[[974],[975],[976],[977]]},{"type":"MultiLineString","properties":{"bus_network":"Komunikacja Miejska w Krakowie","network":"e-road","sort_rank":380,"kind_detail":"primary","kind":"major_road","source":"openstreetmap.org","min_zoom":8.0,"bus_shield_text":"172","shield_text":"77","landuse_kind":"urban_area"},"arcs":[[978],[979]]},{"type":"LineString","properties":{"bus_network":"Komunikacja Miejska w Krakowie","network":"pl:national","sort_rank":380,"kind_detail":"primary","kind":"major_road","source":"openstreetmap.org","min_zoom":8.0,"bus_shield_text":"235","shield_text":"44","landuse_kind":"urban_area","ref":"44"},"arcs":[980]},{"type":"LineString","properties":{"kind":"path","sort_rank":354,"landuse_kind":"nature_reserve","is_bicycle_related":true,"bicycle_shield_text":"GV","bicycle_network":"ncn","source":"openstreetmap.org","min_zoom":8.0,"kind_detail":"track"},"arcs":[981]},{"type":"LineString","properties":{"kind":"major_road","network":"e-road","sort_rank":380,"kind_detail":"primary","bus_network":null,"source":"openstreetmap.org","min_zoom":8.0,"bus_shield_text":"210","shield_text":"77","landuse_kind":"urban_area","id":37830030},"arcs":[982]},{"type":"LineString","properties":{"kind":"major_road","network":"pl:national","sort_rank":380,"kind_detail":"primary","bus_network":"MPK Kielce","source":"openstreetmap.org","min_zoom":8.0,"bus_shield_text":"208","shield_text":"78","ref":"78","id":173059881},"arcs":[983]},{"type":"MultiLineString","properties":{"bus_network":null,"sort_rank":377,"landuse_kind":"nature_reserve","is_bicycle_related":true,"kind":"major_road","bicycle_shield_text":"WTR","bicycle_network":"ncn","source":"openstreetmap.org","min_zoom":8.0,"bus_shield_text":"112","kind_detail":"tertiary"},"arcs":[[984],[985],[986],[987]]}]},"earth":{"type":"GeometryCollection","geometries":[{"type":"Polygon","properties":{"sort_rank":10,"source":"naturalearthdata.com","kind":"earth","min_zoom":0.0,"id":4754},"arcs":[[988]]}]},"landuse":{"type":"GeometryCollection","geometries":[{"type":"Polygon","properties":{"kind":"nature_reserve","protect_class":"5","area":102332000,"sort_rank":23,"source":"openstreetmap.org","min_zoom":7.0,"tier":2,"id":-4522355,"osm_relation":true},"arcs":[[989]]},{"type":"MultiPolygon","properties":{"kind":"nature_reserve","protect_class":"5","area":4179801833,"sort_rank":23,"source":"openstreetmap.org","min_zoom":6.0,"tier":2,"osm_relation":true},"arcs":[[[990]],[[991]],[[992]],[[993]],[[994]],[[995]],[[996]],[[997]],[[998]],[[999]],[[1000]],[[1001]]]},{"type":"MultiPolygon","properties":{"kind":"national_park","protect_class":"2","area":180970375,"sort_rank":18,"source":"openstreetmap.org","min_zoom":8.0,"tier":1,"osm_relation":true},"arcs":[[[1002]]]},{"type":"MultiPolygon","properties":{"source":"openstreetmap.org","kind":"nature_reserve","tier":2,"protect_class":"4","area":75895658,"sort_rank":23,"min_zoom":8.0},"arcs":[[[1003]]]},{"type":"MultiPolygon","properties":{"source":"naturalearthdata.com","kind":"urban_area","name":"","area":2226276051,"sort_rank":11,"min_zoom":4.0},"arcs":[[[1004]],[[1005]],[[1006]],[[1007]]]},{"type":"MultiPolygon","properties":{"kind":"nature_reserve","protect_class":"5","area":20453664,"sort_rank":23,"source":"openstreetmap.org","min_zoom":8.0,"tier":2,"osm_relation":true},"arcs":[[[1008]]]},{"type":"MultiPolygon","properties":{"kind":"nature_reserve","protect_class":"5","area":3819655368,"sort_rank":23,"source":"openstreetmap.org","min_zoom":4.0,"tier":2,"osm_relation":true},"arcs":[[[1009]],[[1010]]]},{"type":"MultiPolygon","properties":{"kind":"nature_reserve","protect_class":"4","area":90434256,"sort_rank":23,"source":"openstreetmap.org","min_zoom":8.0,"tier":2,"osm_relation":true},"arcs":[[[1011]]]}]}},"type":"Topology","transform":{"translate":[19.6875,49.8379824531],"scale":[0.0003433228,0.0002193537]},"arcs":[[[0,2717],[39,72],[26,-38],[265,11],[29,-39],[67,17],[58,-18],[-2,56],[136,28],[-22,58],[25,33],[108,25],[103,-15],[-68,133]],[[764,3040],[-43,-11],[-67,41],[-31,129],[-136,17],[-30,57],[-162,-7],[3,64],[42,-12],[112,118],[42,124],[120,-14],[70,108],[-36,12],[-61,-26],[-30,45],[-139,23],[31,32],[-14,55],[48,-27],[36,1],[-21,42],[42,41],[-4,46],[-61,-11],[-21,69],[-102,1],[7,89],[-26,-38],[-66,21],[-70,-26],[-123,60],[11,33]],[[4096,2275],[-31,-3],[-32,-62],[-48,-33],[-66,17],[-67,-29],[-160,14],[-70,-81],[-104,39],[-46,-51],[-77,-2],[-14,-74],[-36,-25],[-77,68],[-57,6],[-59,-93],[-118,-81],[3,-92],[-65,-20],[-18,-45],[-58,-2],[-19,-69],[-103,46],[-2,-28],[-16,29],[-28,-45],[20,3],[0,-3],[-109,-2],[-63,-69],[-43,70],[-52,-19],[-13,-41],[-64,-14],[-127,70],[12,-46],[-53,39],[-11,-30],[-60,21],[-44,-28],[-16,94],[-74,-19],[-30,38],[-1,51],[68,65],[-62,8],[-68,93],[-64,18],[91,67],[-16,31],[-46,-8],[-2,52],[26,1],[-14,28],[-34,-2],[-12,65],[-104,15],[37,63],[-38,45],[9,22],[51,-9],[76,50],[-63,50],[10,63],[-44,21],[-46,137],[-76,50],[-10,52],[36,130],[-32,-11],[-41,55],[-64,-8],[-16,59],[-44,22],[-98,-21],[-15,-30],[-105,25],[-48,-23],[-79,21],[30,30],[-39,15],[-23,48],[-62,8],[-12,-29],[-61,-21],[-7,36],[-115,51],[-49,3],[-61,-71]],[[759,1039],[-1,-4]],[[759,1039],[-7,58],[42,67],[91,62],[74,1],[131,59],[97,101],[-1,52],[-59,41],[-12,24],[-6,27],[-23,60],[8,21],[32,10],[10,15],[11,159],[-238,487],[22,36],[18,54],[5,73],[-24,141],[-6,13],[-34,35],[-10,63],[74,77],[-1,18],[-30,45],[73,290],[43,76],[-2,84],[125,82],[112,28],[53,21],[36,0],[20,8],[24,23],[-2,62],[144,60],[66,48],[72,23],[49,59],[79,17],[29,38],[9,98],[9,33],[5,51],[28,43],[12,29],[75,6],[30,-12],[37,-4],[97,-43],[22,50],[-1,88]],[[759,1039],[-9,45],[0,3],[1,9],[3,6],[14,34],[2,2],[4,5],[20,21],[50,38],[38,22],[5,3],[8,2],[6,0],[58,-2],[63,31],[68,28],[97,101],[-1,52],[-35,19],[-18,15],[-3,3],[-2,3],[-4,6],[-9,19],[-1,4],[-6,23],[-1,4],[-7,11],[-2,4],[-1,3],[-3,12],[-7,20],[-2,6],[0,6],[2,6],[3,5],[3,3],[4,3],[5,3],[24,5],[10,15],[11,159],[-22,25],[-21,30],[-2,3],[-150,311],[-1,4],[-5,22],[-7,13],[-15,32],[-14,42],[-2,5],[0,4],[1,5],[1,4],[3,4],[3,3],[11,10],[4,6],[17,54],[1,29],[5,44],[-3,11],[-11,22],[-2,6],[-8,102],[-6,13],[-28,26],[-3,4],[-3,5],[-1,6],[-8,39],[-2,15],[0,5],[10,26],[5,7],[60,42],[-1,18],[-7,9],[-9,5],[-4,3],[-3,4],[-2,2],[-3,5],[-2,4],[0,3],[-1,6],[1,4],[73,290],[4,11],[17,32],[22,33],[-5,68],[0,5],[1,4],[2,7],[3,6],[3,3],[3,4],[5,4],[14,10],[39,27],[3,1],[8,4],[47,23],[63,19],[4,1],[37,7],[8,2],[29,13],[5,2],[19,5],[7,2],[3,0],[26,-2],[20,8],[23,23],[-1,15],[-9,16],[-1,4],[0,5],[0,4],[1,4],[2,6],[3,3],[1,2],[3,3],[8,4],[59,29],[14,11],[2,2],[4,2],[2,0],[3,1],[31,5],[21,6],[48,38],[8,5],[7,4],[7,3],[7,2],[61,19],[38,51],[2,2],[3,3],[6,3],[14,7],[7,2],[58,8],[28,38],[10,98],[1,5],[8,28],[3,43],[1,4],[1,4],[1,4],[3,7],[3,6],[4,6],[14,16],[3,4],[6,21],[2,3],[2,2],[2,3],[2,2],[2,2],[5,2],[3,1],[6,1],[14,2],[8,0],[33,-3],[8,-3],[24,-10],[26,-1],[5,-1],[6,-2],[97,-43],[22,50],[-4,72],[0,7],[1,5],[2,4]],[[2419,3397],[-5,-58],[-102,-95],[111,-122]],[[7,145],[-7,11]],[[0,2324],[32,70],[87,36],[71,37],[25,2],[49,-26],[27,0],[12,17],[5,50],[36,34],[53,18],[25,18],[113,-37],[35,-9],[56,-10],[81,20],[50,-1],[9,2],[15,26],[-21,67],[17,9],[26,-2],[8,1],[19,6],[26,-2],[10,2],[14,35]],[[0,2324],[15,45],[1,3],[4,8],[3,4],[4,6],[5,4],[5,4],[5,2],[77,30],[5,3],[9,7],[5,3],[52,24],[5,2],[7,1],[5,0],[3,0],[5,-1],[6,-1],[6,-3],[37,-22],[27,0],[12,17],[1,12],[-3,15],[-1,4],[1,3],[1,5],[1,4],[2,4],[3,3],[27,27],[4,4],[5,3],[16,10],[7,3],[3,1],[4,1],[16,1],[7,2],[16,14],[4,3],[5,1],[3,1],[4,0],[3,0],[4,-1],[19,-8],[30,-9],[50,-20],[35,-9],[33,-5],[23,-5],[81,21],[11,1],[7,0],[32,-3],[9,2],[15,26],[-4,12],[-18,22],[-2,4],[-2,4],[-1,6],[0,3],[0,3],[2,5],[1,3],[1,3],[2,2],[2,2],[2,2],[4,2],[4,2],[5,1],[6,0],[20,-2],[8,1],[13,4],[6,2],[6,0],[3,0],[17,-2],[10,3],[14,36]],[[759,1049],[-1,-30]],[[758,1049],[-1,-18],[1,-31],[7,-17],[80,-95],[19,-14],[7,-4],[10,-4],[181,-46],[8,-1],[301,10],[132,-41],[143,-3],[468,-151],[740,62],[130,56],[823,10],[103,67],[70,57],[116,28]],[[776,970],[92,-98],[195,-52],[297,14],[26,-7],[117,-39],[133,-2],[5,0],[5,-1],[10,-2],[147,-41],[127,-35],[186,-73],[339,44],[399,18],[97,50],[6,2],[6,2],[7,1],[14,2],[138,7],[289,13],[34,0],[35,-1],[176,-6],[105,-4],[46,0],[103,67],[55,49],[8,5],[6,3],[5,2],[5,1],[107,25]],[[341,503],[6,-174],[-125,-34],[-58,-59],[-131,56],[-33,-9]],[[0,157],[0,-30]],[[0,109],[0,-14]],[[341,503],[23,115],[54,23]],[[2423,3122],[-111,122],[102,95],[8,56],[-107,24],[-137,150],[-49,-27],[-136,14],[-211,77],[-38,44]],[[0,563],[175,-1],[123,54],[63,3],[13,11],[85,29],[142,20],[46,26],[7,2],[18,0],[13,20],[37,37],[-5,24],[5,36],[-1,4],[-3,9],[-1,3],[0,5],[2,5],[3,5],[4,4],[4,2],[18,7],[4,3],[27,50]],[[0,563],[18,-1],[25,-9],[4,-1],[3,0],[85,2],[40,8],[29,8],[69,23],[3,2],[2,2],[6,11],[15,8],[25,-1],[37,4],[2,0],[1,1],[10,10],[53,14],[12,4],[4,1],[2,1],[8,7],[6,2],[59,3],[83,17],[3,1],[3,1],[40,24],[7,2],[12,-1],[3,0],[2,1],[2,1],[1,1],[3,2],[8,16],[23,19],[11,12],[2,3],[1,3],[1,4],[0,5],[-5,16],[4,33],[0,3],[-1,4],[-3,8],[-1,5],[6,14],[5,4],[19,7],[5,3],[31,52],[52,-23]],[[835,899],[15,-15]],[[800,927],[-1,0]],[[810,924],[25,-25]],[[2419,3397],[-104,22],[-137,150],[-49,-27],[-136,14],[-211,77],[-38,44]],[[3768,762],[15,-19],[-48,-42],[0,-104],[-75,-115],[18,-89],[45,-43],[75,20],[127,-57],[72,-79],[-46,-91],[-107,-86],[-66,4],[-45,-61]],[[0,1320],[75,-39],[18,0],[52,11],[8,1],[23,1],[34,8],[12,1],[68,-12],[10,-4],[51,-23],[15,-10],[5,-4],[5,-6],[50,-59],[69,-63],[221,-14],[43,-59]],[[0,1320],[10,-5],[32,-22],[9,-5],[5,-2],[8,-3],[9,-2],[10,-1],[7,0],[6,1],[51,12],[8,0],[13,0],[8,1],[9,1],[25,7],[12,1],[71,-14],[73,-35],[8,-8],[47,-55],[5,-6],[51,-51],[10,-7],[8,-5],[14,-5],[4,-1],[14,-2],[189,-6],[42,-59]],[[397,4096],[-234,-158],[-26,-45],[-8,-17],[-11,-50],[0,-21],[1,-12],[2,-8],[26,-137],[-9,-67],[-53,-73],[-85,-39]],[[0,3469],[38,13],[14,6],[10,4],[6,4],[9,6],[8,6],[11,9],[9,9],[7,8],[6,9],[6,9],[6,10],[4,10],[4,9],[3,9],[3,10],[2,16],[1,11],[1,7],[-1,14],[0,8],[-2,12],[-25,125],[-2,33],[43,108],[236,162]],[[25,129],[-25,0]],[[151,120],[-122,12]],[[200,114],[-42,6]],[[225,146],[293,171]],[[59,1258],[-25,4]],[[129,1252],[-2,-1]],[[340,1253],[-111,17]],[[2279,1305]],[[2392,1278],[10,2]],[[907,920],[3,0]],[[3273,4008],[-12,88]],[[2584,1493],[22,40]],[[3080,1657],[16,-50]],[[447,1229],[-9,-14]],[[1522,969],[13,-9]],[[325,1125],[-10,-3]],[[723,1075],[-27,-21]],[[696,1053],[27,21]],[[741,1072],[7,0]],[[747,1073],[-5,-1]],[[1544,891],[0,2]],[[220,636],[-35,6],[-23,-65]],[[383,724],[-1,-1]],[[3052,1854],[53,-35],[39,-152],[25,-13]],[[3096,1607],[42,1]],[[1112,1016],[-16,-6]],[[1439,987],[-52,-34],[-7,33]],[[82,32]],[[539,1255],[-11,24]],[[528,1294],[-1,-11],[2,-12],[9,-16]],[[795,1158],[-8,-13]],[[753,889],[-2,-9]],[[752,884],[2,7]],[[918,1084],[-2,4]],[[919,1076],[5,-10]],[[924,1065],[-2,-20]],[[925,1069],[-2,7]],[[924,1046],[0,21]],[[721,966],[10,-17]],[[722,966],[1,0]],[[861,1065],[1,-2]],[[870,1073],[-8,-7]],[[862,1063],[1,1]],[[864,1065],[12,-12]],[[880,1033],[-16,-6]],[[885,1075],[-4,0]],[[904,1076],[-9,0]],[[918,1078],[-4,-1]],[[934,1078],[-12,0]],[[956,1075],[-21,3]],[[964,1076],[6,-3]],[[992,1070],[3,-1]],[[996,1069],[1,-2]],[[1555,877],[14,-10]],[[2689,1432],[2,2]],[[3080,1657],[7,0]],[[465,1048],[12,-1]],[[514,1280],[-43,-19]],[[474,1260],[54,19]],[[1774,612],[-137,43],[-416,13]],[[1774,612],[16,-5]],[[1836,595],[-46,12]],[[1853,594],[-17,1]],[[2078,558],[-104,0],[-121,36]],[[2078,558],[9,-2]],[[2238,630],[-69,-80],[-82,6]],[[2238,630],[14,2]],[[2252,632],[155,-4]],[[2407,628],[15,-1]],[[2422,627],[179,-13]],[[2603,614],[-2,0]],[[2601,614],[2,-1]],[[2640,606]],[[2642,604],[1,0]],[[2668,577],[3,-1]],[[2671,576],[-2,2]],[[2671,576],[21,6]],[[2736,595],[544,-40],[126,19]],[[3406,574],[17,10]],[[3423,584],[46,21]],[[3469,605],[77,36]],[[3546,641],[-77,-36]],[[3548,642],[75,49]],[[3622,691],[-74,-48]],[[3640,691],[106,-2]],[[3745,689],[-103,2]],[[3981,784],[-45,-35]],[[3936,749],[52,35]],[[713,963],[-2,-1]],[[712,960],[2,2]],[[990,1103],[-2,-1]],[[990,1100],[1,1]],[[390,593],[-18,-56]],[[383,725],[0,-1]],[[377,624]],[[392,610],[-15,14]],[[1174,1026],[-6,-6]],[[1374,977],[6,9]],[[1522,969],[-51,5]],[[789,926],[21,6]],[[843,951],[-26,-14]],[[820,938],[22,12]],[[922,1043],[2,0]],[[692,771],[7,20]],[[698,791],[-6,-18]],[[1996,1333],[5,5]],[[1018,1070],[-1,-1]],[[2644,602],[4,-4]],[[2644,603],[15,-17]],[[13,57],[3,10]],[[202,48],[-94,7],[-26,-23]],[[289,315],[36,14]],[[349,367],[10,87]],[[372,528],[0,-1]],[[1330,1015],[-30,-8]],[[1836,942],[-4,-25],[-125,-16],[-74,-38]],[[2455,1014],[-64,-36],[-58,36],[-31,-47]],[[2966,1086],[-26,97]],[[2944,1232],[5,56]],[[3153,1316],[-47,68]],[[3244,1998],[-32,-5],[-27,-50]],[[3294,1810],[-99,35]],[[3238,1479],[12,-21]],[[3293,1549],[10,10]],[[3343,1710],[5,-1]],[[3393,1762],[9,-7]],[[907,1138],[-21,-2],[-45,-7]],[[843,1128],[44,8]],[[532,1308]],[[531,1283],[-17,-3]],[[529,319],[-4,1]],[[566,379],[0,-1]],[[1734,680],[3,-8]],[[1737,672],[-3,8]],[[1737,672],[44,-55]],[[1781,617],[1,-7]],[[1783,609],[-2,8]],[[1781,610],[1,0]],[[1782,610]],[[1782,610],[0,-1]],[[2604,616],[-3,-2]],[[3491,613],[0,1]],[[3866,960],[-4,0]],[[3862,959],[4,0]],[[3866,959],[1,0],[1,1],[-2,0],[0,-1]],[[804,1202],[-4,-17]],[[98,1011],[-1,15]],[[2339,3498],[0,-1]],[[748,1072],[2,2]],[[729,943],[-13,17]],[[716,960],[-1,1]],[[716,959],[0,1]],[[716,960],[-1,2]],[[715,961],[1,0]],[[716,962],[1,0]],[[717,962]],[[731,949],[-8,17]],[[842,988],[-3,-1]],[[914,1138],[-6,-36],[11,-25]],[[916,1088],[-2,51]],[[922,1077],[-4,7]],[[919,1077],[3,0]],[[923,1076],[-1,1]],[[661,681],[-13,-38]],[[649,642],[13,39]],[[1047,983],[6,0]],[[799,931],[2,-1]],[[846,853],[8,-8]],[[855,845],[-5,5]],[[540,1038],[-7,-6]],[[658,1001],[-1,1]],[[443,1221],[31,39]],[[471,1261],[-14,-15],[-10,-17]],[[1024,713],[13,0]],[[1037,713],[-5,0]],[[1094,716],[-57,-3]],[[1094,716],[19,-3]],[[1115,713],[-2,0]],[[1115,713],[10,-1]],[[1136,711],[-21,2]],[[1126,712],[10,-1]],[[1145,700],[-9,11]],[[1145,700],[2,-16]],[[1221,668],[-74,16]],[[2692,582],[3,3]],[[2695,585],[15,10]],[[2710,595],[26,0]],[[3548,643],[-2,-2]],[[3546,641],[2,1]],[[3642,691],[-15,3],[-5,-3]],[[3623,691],[17,0]],[[3806,704],[-26,6],[-35,-21]],[[3746,689],[34,20],[27,-5],[112,33],[17,12]],[[3936,749],[-128,-45]],[[262,652],[-41,-16]],[[1061,1025],[1,5]],[[480,719],[-1,-2]],[[361,688],[-4,-6]],[[665,969],[-9,0]],[[494,729],[-4,-2]],[[1082,910],[-19,3],[-31,2],[-32,-1],[-31,-3],[-83,13],[-42,0],[-13,21],[11,-21],[122,-14],[118,0]],[[778,1132],[-10,3]],[[768,1134],[10,-3]],[[480,745]],[[491,727],[138,-30],[24,4]],[[645,700],[-154,28]],[[398,609],[-8,-16]],[[861,1023],[4,3]],[[922,1078],[-4,0]],[[956,1075],[4,1]],[[997,1067],[23,-4]],[[538,1255],[57,-79]],[[595,1176],[-6,18],[-50,61]],[[804,1202],[8,49]],[[3949,3814],[-3,4]],[[335,950],[-11,-3]],[[435,1023],[-21,-25]],[[477,1047],[56,-15]],[[1005,1084],[10,-13]],[[1016,1072],[-8,8]],[[33,1262],[-5,5]],[[3239,2079],[17,20]],[[3995,783],[-14,1]],[[3988,784],[7,-1]],[[3995,783],[101,0]],[[390,877],[-8,-9]],[[22,630],[-5,4]],[[94,617],[0,4]],[[134,570],[-35,8],[-5,39]],[[162,577],[-28,-7]],[[2279,1305],[-13,28],[-26,-13]],[[2241,1321],[-1,-1]],[[2342,1294],[50,-16]],[[2824,1514],[7,2]],[[3019,1773],[-6,-7]],[[3138,1608],[26,29]],[[3165,1640],[4,14]],[[544,1042]],[[544,1041],[0,1]],[[1544,888],[2,-4]],[[1547,883],[7,-5]],[[376,628],[1,-4]],[[398,615],[-5,-4]],[[400,616],[-2,-1]],[[398,615],[1,0]],[[1061,1025],[-5,1]],[[1062,1030],[34,-20]],[[1122,1018],[-10,-2]],[[1226,1015],[1,41],[-23,2]],[[1439,987],[32,-13]],[[1544,893],[-1,17]],[[831,945],[-14,-8]],[[820,938],[22,12]],[[843,951],[-10,-6]],[[332,835],[23,27]],[[405,893],[69,43],[141,-18],[44,54]],[[640,998],[-6,6]],[[586,904],[0,1]],[[857,1020],[2,2]],[[860,1023],[1,0]],[[1110,1048],[-1,2]],[[761,955],[111,56],[71,-67],[36,31],[35,-18],[65,14]],[[2627,1372],[44,36]],[[2684,1424],[5,9]],[[2691,1435],[1,-1]],[[378,721],[-17,-33]],[[324,947],[0,1]],[[817,937],[-11,-4]],[[810,932],[10,6]],[[842,950],[15,11]],[[857,962],[-14,-11]],[[914,1138],[35,-8]],[[1063,1051],[-19,6]],[[1592,842],[-3,3]],[[2479,1038],[66,1]],[[2741,1020],[97,6],[37,-47],[50,6]],[[468,1224],[-6,2]],[[523,1194],[-2,3]],[[576,1146],[-33,26]],[[547,1168],[12,-11],[16,-11]],[[964,1128],[-1,-2]],[[80,35],[2,-3]],[[734,1156],[-43,-1],[-28,-8],[-29,0],[-27,-7]],[[641,1146],[16,0],[40,9],[37,0]],[[761,955],[111,56],[71,-67],[36,31],[35,-18],[65,14]],[[540,1038],[3,4]],[[627,1026],[-2,-4]],[[628,1046],[-2,-19]],[[667,980],[5,-2]],[[690,1037],[-3,-13],[4,-15]],[[693,1009],[-3,25]],[[3959,3809],[4,12]],[[1447,3000],[1,2]],[[2898,0],[6,33]],[[2915,60],[1,1],[-1,0],[0,-1]],[[716,961],[0,1]],[[717,962]],[[3000,2967],[2,-45]],[[3006,3004],[-5,-27]],[[3002,2922],[1,-8]],[[3004,2914],[-2,8]],[[3004,2912],[4,-3]],[[3008,2909],[-4,4]],[[3008,2909],[128,-65]],[[3064,3254],[-33,-143]],[[3080,3532],[12,-159],[-23,-100]],[[3071,3593],[9,-58]],[[3296,2778],[73,-31],[206,4],[100,-34],[104,-76],[112,-38],[36,-118]],[[3857,1005],[-3,-18],[0,-8]],[[3854,978],[3,27]],[[3896,1115],[-39,-110]],[[3932,2470],[80,-142],[13,-99],[23,-19],[-8,-61],[-89,-235],[-152,-171],[-8,-200],[-19,-11],[1,-104],[123,-313]],[[3896,1115]],[[3927,2485],[1,-8]],[[3928,2477],[-1,8]],[[3928,2476],[4,-6]],[[3932,2470],[-4,6]],[[3981,784],[-10,3],[-38,5]],[[3967,787],[11,-5],[10,2]],[[3003,2913],[1,-1],[0,1],[-1,1]],[[3003,2914],[0,-1]],[[723,1074],[18,-2]],[[742,1072],[-17,3]],[[965,1128],[-58,10]],[[619,1048],[-13,4]],[[634,1004],[-9,18]],[[640,998],[17,4]],[[665,981],[-3,6]],[[672,977],[42,10],[7,-21]],[[805,1126],[-15,2]],[[791,1127],[24,-1]],[[968,1127],[-3,1]],[[968,1124],[20,-22]],[[990,1103],[-21,23]],[[988,1102],[1,-2]],[[990,1100],[15,-16]],[[992,1101],[-1,2]],[[1005,1084],[-14,17]],[[606,1052],[-23,-2]],[[628,1046],[-9,2]],[[627,1026],[-1,1]],[[662,987],[-4,14]],[[672,978],[0,-1]],[[3,1823]],[[87,1792],[-67,25]],[[219,1717],[-12,12]],[[319,1605],[-16,24]],[[334,1596],[-14,9]],[[440,1485],[-81,86]],[[532,1311],[-16,55]],[[544,1042],[10,20]],[[429,643],[-3,-5]],[[1122,1018],[26,6]],[[1168,1020],[-20,1]],[[1209,1039],[-35,-13]],[[842,1401],[-10,-9]],[[861,1419],[-11,-10]],[[862,1530],[-8,-54]],[[863,1425],[-1,-2]],[[905,1591],[-42,-61]],[[437,1231],[27,-6]],[[790,1128],[-22,7]],[[768,1134],[17,-6],[6,-1]],[[841,1129],[-36,-3]],[[815,1126],[28,2]],[[1015,1071],[2,-2]],[[1018,1070],[-2,2]],[[1022,1068],[-1,1]],[[1063,1051],[60,-22],[32,3]],[[1155,1032],[-92,19]],[[1155,1032],[21,18]],[[1176,1050],[9,6]],[[1185,1056],[231,44]],[[691,1009],[9,-20]],[[700,989],[-7,20]],[[700,989],[4,-9]],[[704,980],[8,-20]],[[714,962],[-10,18]],[[715,957],[3,-9]],[[791,1043],[-2,-4]],[[790,1036],[3,6]],[[1569,867],[6,-4]],[[1588,846],[-14,16]],[[800,1185],[-13,-40]],[[949,775],[28,-19]],[[981,752],[-7,7],[-21,14]],[[853,1465],[8,-31]],[[785,871],[-19,7]],[[768,876],[15,-5]],[[2215,752],[-57,9],[-123,-36]],[[2035,725],[123,36],[57,-10]],[[225,146],[51,36]],[[227,272],[19,-43]],[[2231,1024],[-395,-82]],[[3185,1943],[24,-33]],[[3289,1540],[4,9]],[[801,930],[9,2]],[[665,969],[38,14],[13,-19],[1,-1]],[[717,963],[0,-1]],[[715,961],[1,2],[1,0]],[[717,963],[5,3],[1,0]],[[731,949],[64,32]],[[834,985],[5,2]],[[858,1005],[-16,-17]],[[857,1020],[2,-1]],[[861,1023],[1,0]],[[988,1102]],[[989,1100],[1,0]],[[991,1103],[-1,0]],[[991,1101],[1,0]],[[0,51],[8,4]],[[1346,996],[-3,-22],[31,3]],[[1633,863],[-41,-21]],[[2545,1039],[196,-19]],[[3153,1316],[-106,-15]],[[3250,1458],[-75,-65],[-20,14],[-49,-23]],[[3380,1720],[-30,-6]],[[369,776],[13,-46]],[[1219,3830],[-155,-109],[-242,-10],[-484,-125],[-179,-51],[-159,-107]],[[1219,3830],[1,0]],[[1220,3830],[-1,0]],[[1220,3830],[1,0],[-1,1],[0,-1]],[[1223,3830],[-2,0]],[[1221,3830],[2,0]],[[1569,3744],[-166,21],[-180,65]],[[1569,3744],[2,0]],[[1571,3744],[-2,0]],[[1833,3691],[-48,31],[-98,54],[-90,-22],[-25,-9]],[[1572,3744],[116,31],[146,-85]],[[1828,3634],[160,-57],[202,4],[149,-83]],[[2339,3497],[212,-17],[134,33]],[[2696,3513],[28,-5]],[[2742,3499],[54,-27],[273,58]],[[1571,3745],[0,-1]],[[1571,3744],[1,-1],[0,2]],[[1572,3745],[-1,0]],[[725,872],[0,-1]],[[3001,2977],[-1,-10]],[[3031,3111],[-25,-107]],[[3069,3273],[-5,-19]],[[3136,2844],[160,-66]],[[97,1026],[-97,32]],[[532,1308],[-3,-11]],[[530,1297],[2,11]],[[699,791],[39,114]],[[725,871],[-20,-60]],[[736,904],[-10,-29]],[[377,624]],[[715,961]],[[715,961]],[[801,932],[-47,-41]],[[758,899],[18,21],[9,5],[4,1],[8,4],[2,1]],[[857,961],[0,1],[10,7]],[[867,969],[4,4],[4,2]],[[875,975],[5,3],[30,16],[5,5],[9,44]],[[924,1046],[-11,-49],[-34,-19],[-4,-3]],[[875,975],[-8,-6]],[[867,969],[-6,-4],[-4,-3]],[[3396,3991],[80,-18]],[[3514,3979],[81,-20]],[[664,690],[-1,-3]],[[664,687],[1,2]],[[642,963],[-1,-2]],[[977,756],[15,-20],[27,-20],[5,-3]],[[1032,713],[-51,39]],[[419,631],[-42,-3]],[[1148,1024],[0,-3]],[[1209,1039],[-5,19]],[[1300,1007],[-24,-18],[-50,26]],[[1527,942],[16,-30]],[[1546,883],[0,1]],[[1547,883],[-1,0]],[[1546,883]],[[1546,883],[-1,0],[1,0]],[[29,132],[-4,-3]],[[158,120],[-7,0]],[[2606,613],[26,-5]],[[2632,608],[8,-2]],[[2640,606],[-8,2]],[[2642,604],[2,-2]],[[2644,603],[-1,1]],[[2659,586],[6,-6]],[[2665,580],[2,-2]],[[2668,578],[-3,2]],[[2668,578],[-1,0],[1,-1],[0,1]],[[372,527],[-12,-75]],[[372,537],[0,-9]],[[524,318],[11,12]],[[752,827],[-1,-21]],[[751,808],[1,19]],[[906,803],[43,-28]],[[953,773],[-40,27]],[[377,624]],[[715,961]],[[715,961]],[[862,1066],[0,-1]],[[863,1064],[1,1]],[[935,1078],[-1,0]],[[960,1076],[3,-1]],[[964,1076]],[[1020,1062],[0,1]],[[1026,1055],[30,-29]],[[1544,891],[0,-3]],[[757,1070],[-2,5]],[[726,875],[-1,-3]],[[334,830],[19,-19]],[[353,811],[1,-1]],[[355,811],[-2,0]],[[382,868],[25,-23]],[[580,900],[-29,9]],[[656,969],[-3,0]],[[778,1131],[13,-4]],[[790,1128],[-12,4]],[[99,1011],[-1,0]],[[324,948],[-2,1]],[[814,1346],[0,-1]],[[1149,1837],[-1,-13]],[[467,1224],[41,-18]],[[914,1139],[0,-1]],[[575,1146],[15,-9]],[[594,1138],[-18,8]],[[521,1197],[-4,5],[-37,19],[-12,3]],[[508,1206],[8,-4],[11,-17],[20,-17]],[[543,1172],[-20,22]],[[414,887],[-5,-44]],[[28,1267],[-28,26]],[[1416,1100],[21,4]],[[1437,1104],[25,2]],[[1462,1106],[468,178],[66,49]],[[2001,1338],[48,67],[338,-9],[103,76],[94,21]],[[2606,1533],[92,36],[152,164],[167,108],[39,112],[41,47],[142,79]],[[3262,2111],[157,157],[278,132],[229,76]],[[3926,2476],[2,0]],[[3927,2477],[-1,-1]],[[3931,2479],[-3,-2]],[[3928,2477],[3,2]],[[3931,2479],[53,95],[112,48]],[[3239,2079],[6,-14]],[[3245,2060],[-1,-62]],[[763,1097],[2,6]],[[583,1050],[-29,12]],[[2685,3513],[11,0]],[[2724,3508],[18,-9]],[[543,1042],[1,-1]],[[544,1042]],[[754,891],[-1,-2]],[[1021,1065],[-4,1]],[[641,959],[-30,-49]],[[653,969],[-11,-6]],[[659,972],[57,1]],[[866,1021],[-4,2]],[[3854,979],[0,-18]],[[3855,961],[-1,17]],[[3854,959],[2,1],[-1,1]],[[3855,961],[-1,0],[0,-2]],[[3854,959],[4,-61]],[[3859,898],[-4,61]],[[3859,896],[9,-95]],[[3868,801],[-9,95]],[[3868,801],[13,-2]],[[3884,799],[-3,0]],[[3881,799],[3,-1]],[[3884,799],[0,-1]],[[3884,798],[1,0]],[[3885,799],[-1,0]],[[3885,798],[0,1]],[[3885,798],[2,0]],[[3887,798],[-2,1]],[[3887,798],[46,-6]],[[3859,898],[-1,0],[0,-2],[2,1],[-1,1]],[[2605,701],[8,1]],[[390,875],[20,12]],[[176,1100],[-45,-16],[-2,0]],[[129,1084],[-5,-1],[-20,4]],[[104,1087],[25,-3]],[[129,1084],[2,0],[183,37]],[[308,1120],[-122,-18]],[[653,701],[-8,-1]],[[1718,696],[-134,7],[-274,117],[-76,2]],[[1234,821],[75,-1],[15,-6],[60,-37],[58,-30],[142,-44],[86,-10],[58,2]],[[2665,717],[-60,-15]],[[2613,702],[18,3],[33,11]],[[3503,930],[-17,-22],[-41,-96],[-6,-8],[-7,-9],[-1,0],[-4,-3]],[[3427,792],[-3,-3],[-2,0]],[[3422,789],[-88,-16],[-202,-4],[-358,-28]],[[2774,741],[199,14],[159,14],[154,1],[48,2],[73,7],[15,10]],[[3422,789],[5,3]],[[3427,792],[4,2],[11,12],[9,17],[36,85],[15,21]],[[3806,1008],[-39,18]],[[3767,1026],[-13,6]],[[3754,1032],[-2,1],[-56,-9],[-45,-18]],[[3652,1005],[11,3],[33,15],[58,9]],[[3754,1032],[1,0],[12,-6]],[[3767,1026],[39,-19]],[[4096,1086],[-5,-2],[-2,-1],[-98,-48]],[[3991,1035],[-104,-51],[-2,0]],[[3885,984],[-9,0],[-11,0],[-15,3]],[[3851,986],[21,-3],[11,0],[2,1]],[[3885,984],[106,51]],[[3991,1035],[98,47],[3,2],[4,1]],[[590,1137],[5,-1]],[[1234,822],[-84,-3],[-28,-3],[-9,-3],[-8,-7]],[[1105,806],[-21,-20]],[[1084,786],[-2,-1],[-3,-4]],[[1079,781],[-2,-2],[-3,-2]],[[1074,777],[-10,-6]],[[1064,771],[-1,-1]],[[1063,770],[-23,-3],[-38,0],[-19,-3],[-39,-10],[-11,-3]],[[933,751],[-1,0],[-19,-6],[-109,-1]],[[804,744],[-50,-1],[-31,1],[-8,-3],[-8,-5],[-42,-33],[-12,-2]],[[657,701],[12,3],[15,8],[39,32],[38,-3],[43,3]],[[804,744],[129,7]],[[933,751],[2,0],[116,16],[12,3]],[[1063,770],[1,1]],[[1064,771],[3,1],[7,5]],[[1074,777],[5,4]],[[1079,781],[3,3],[2,2]],[[1084,786],[7,9],[9,9],[5,2]],[[1105,806],[45,12],[84,3]],[[2664,716],[110,25]],[[2774,741],[-25,-1],[-34,-8],[-50,-15]],[[3502,929],[82,61],[68,15]],[[3651,1006],[-67,-16],[-81,-60]],[[3806,1007],[13,-9],[16,-8],[16,-4]],[[3850,987],[-44,21]],[[1017,1069],[0,-4],[46,-14]],[[1021,1069],[-3,1]],[[1044,1057],[-22,11]],[[3273,4002],[0,6]],[[3396,3991],[-73,-6]],[[336,1131],[-11,-6]],[[2608,613],[-2,1]],[[2640,606],[2,-2]],[[2643,604],[-3,2]],[[2604,615],[-1,-2],[2,-1],[1,2]],[[2606,614],[-2,1]],[[283,595],[-30,-12]],[[679,735],[-15,-45]],[[665,689],[15,46]],[[705,811],[-7,-20]],[[789,1039],[5,-18]],[[1543,912],[0,-2]],[[400,616],[-2,-7]],[[1008,1080],[-3,4]],[[438,1215],[-21,-18]],[[417,1197],[20,16],[6,8]],[[712,960],[3,-3]],[[490,727],[-10,-8]],[[334,830],[48,38]],[[409,843],[-2,2]],[[410,887],[4,0]],[[641,961],[0,-2]],[[696,1054],[-6,-15]],[[691,1039],[5,14]],[[1455,1099],[54,-117]],[[1557,925],[1,-1],[2,-6]],[[1560,918],[-3,6]],[[1560,918],[19,-60],[149,-162]],[[1728,696],[6,-16]],[[1734,680],[-6,16]],[[2605,624],[-2,-9]],[[2635,685],[3,-21],[-33,-40]],[[2605,614],[0,10]],[[2632,687],[3,-2]],[[2635,686],[0,-1]],[[2635,685],[0,2]],[[2663,575],[2,1]],[[2666,579],[-3,-4]],[[2663,575],[-53,-144],[63,-122],[27,-185],[57,-50],[156,-13]],[[2915,57],[-11,-24]],[[2913,61],[2,-1]],[[2915,61],[-2,0]],[[2915,57],[0,3]],[[2915,60],[0,-3]],[[2635,686],[1,1],[-1,1],[-1,-1],[1,-1]],[[382,723],[-4,-2]],[[382,730],[1,-5]],[[734,1155],[34,-21]],[[768,1135],[-27,18],[-7,3]],[[1535,960],[-8,-18]],[[1554,878],[1,-1]],[[1445,2986],[3,16]],[[769,1049],[20,-8]],[[791,1043],[-21,6]],[[595,1176],[-1,-38]],[[596,1138],[4,22],[-1,7],[-4,9]],[[551,909],[-73,15],[-68,-37]],[[611,910],[-24,-5]],[[1125,712],[1,0]],[[320,1605],[-1,0]],[[690,1039],[0,-2]],[[690,1034],[1,5]],[[887,1136],[27,2]],[[949,1130],[19,-6]],[[969,1126],[-1,1]],[[0,3786],[135,-75]],[[137,3710],[171,-70],[45,-44]],[[2753,4096],[29,-22]],[[361,688],[12,-16]],[[374,670],[3,-42]],[[2967,1034],[-42,-49]],[[2648,598],[2,-2]],[[648,643],[-62,-88],[0,-1]],[[586,554],[0,-1]],[[586,553],[0,-7],[3,-29],[16,-63],[-30,-37],[-34,-71],[0,-1]],[[541,345],[-7,-44]],[[534,301],[0,-2],[23,-112],[78,-20],[11,-63],[0,-1]],[[646,103],[16,-29]],[[662,74],[1,-2],[26,-21],[8,-20],[2,-2]],[[699,29],[1,-1]],[[700,28],[4,-5],[53,-23]],[[759,0],[-55,24],[-4,4]],[[700,28],[-1,1]],[[699,29],[-3,6],[-1,4],[-6,12],[-26,21],[-1,2]],[[662,74],[-14,15],[-3,12],[1,2]],[[646,103],[0,1],[5,9],[0,9],[-5,9],[-2,19],[-8,17],[-56,24],[-22,-3],[-7,55],[-6,8],[-6,29],[-4,16],[0,1],[-1,4]],[[534,301],[-2,8],[7,33],[2,3]],[[541,345],[28,42],[6,30],[30,35],[-15,67],[-4,34]],[[586,553],[0,1]],[[586,554],[29,30],[8,4],[24,50],[2,4]],[[812,1251],[2,94]],[[832,1392],[-18,-46]],[[850,1409],[-8,-8]],[[854,1476],[-1,-11]],[[862,1423],[-1,-4]],[[1148,1824],[-132,-74],[-111,-159]],[[1447,3000],[-28,-133],[-68,-39],[-68,-154],[-121,-137],[-37,5],[-78,-53],[-8,-135],[-27,-48],[-1,-211],[156,-206],[-18,-52]],[[1860,3732],[3,4]],[[2100,4096],[-223,-342]],[[663,687],[-2,-6]],[[662,681],[2,6]],[[1509,982],[13,-13]],[[1535,960],[19,-30]],[[1557,924],[-3,6]],[[1554,930],[3,-5]],[[725,1075],[-2,0]],[[864,1027],[1,-1]],[[881,1075],[-1,0]],[[736,904],[2,-1]],[[738,905]],[[377,628],[-1,0]],[[1835,3638],[-23,-42],[-77,-22],[-229,-295],[-29,-120],[1,-14],[12,-46],[-43,-99]],[[1448,3002],[43,99],[-1,14],[-12,36],[29,129],[228,293],[78,22],[17,20],[3,12]],[[1855,3725],[-6,-16],[-6,-31]],[[1845,3688],[11,37]],[[276,182],[-30,47]],[[778,1131],[9,14]],[[787,1145],[-9,-13]],[[353,1096],[1,-80]],[[355,1016],[3,48],[-5,32]],[[653,701],[4,0]],[[322,949],[-61,56],[-162,6]],[[806,933],[-9,-3]],[[1588,846],[1,-1]],[[2270,991],[-6,9]],[[335,950],[17,2]],[[863,1530],[-1,0]],[[754,891],[4,8]],[[924,1043],[0,3]],[[2035,725],[-172,-60],[-51,-1],[-83,31],[-11,1]],[[1728,695],[83,-32],[52,1],[172,61]],[[2215,751],[20,-1],[34,1],[2,0]],[[2271,751],[159,30]],[[2430,781],[120,-63],[55,-17]],[[2605,702],[-173,80],[-2,-1]],[[2430,781],[-152,-30],[-7,0]],[[2271,751],[-9,0],[-20,0],[-14,0],[-13,1]],[[751,806],[-11,-54]],[[741,752],[6,11]],[[748,741],[1,-1],[0,1],[0,1],[-1,-1]],[[352,952],[58,44]],[[372,1240],[-32,13]],[[384,1234],[-8,2]],[[434,1231],[-49,3]],[[434,1231],[3,0]],[[462,1226],[-28,5]],[[440,668],[-21,-37]],[[551,909]],[[417,1197],[-43,-33],[-24,-23],[-14,-10]],[[353,1142],[64,55]],[[709,970],[8,-17]],[[718,953],[-9,17]],[[737,906],[0,-1]],[[747,763],[4,45]],[[751,880],[1,-53]],[[752,827],[0,55]],[[756,1072],[0,12]],[[770,1049],[-13,21]],[[757,1087],[-2,-2],[-2,-9],[16,-27]],[[790,1003],[-1,-3]],[[789,1000],[3,-13],[7,-16],[32,-26]],[[789,1000],[3,0]],[[794,1021],[-4,-18]],[[793,1003],[-3,0]],[[792,1000],[1,3]],[[833,945],[-41,55]],[[793,1003],[-1,5]],[[830,942],[2,0]],[[910,920],[1,-1]],[[915,1087],[4,-8],[1,-1]],[[920,1078],[0,-1]],[[920,1077],[1,-1],[3,-11]],[[924,1067],[-2,9]],[[922,1076],[-1,2]],[[921,1078],[-1,1],[-2,5],[-2,5]],[[920,1078]],[[920,1078],[-1,0]],[[920,1078],[0,-1]],[[920,1077],[-1,0]],[[922,1078],[-1,0]],[[921,1078],[-1,0]],[[921,1076],[1,0]],[[922,1076],[1,0]],[[931,1135],[0,1]],[[934,916],[-1,-1]],[[955,911],[1,1]],[[972,911],[0,-1]],[[979,910],[0,1]],[[996,914],[1,-1]],[[1020,1064],[1,1]],[[1082,910],[12,-3]],[[1095,910],[-13,0]],[[1095,910],[-1,-3]],[[1121,1032],[2,-3]],[[1127,1030],[-2,2]],[[3855,960],[7,-1]],[[3862,960],[-2,0]],[[792,1008],[1,28]],[[968,1124],[1,2]],[[1934,1193],[-2,49],[155,58],[10,64],[53,-22]],[[2342,1294],[-40,3]],[[2402,1280],[-11,70],[77,41],[72,-18],[34,31],[53,-32]],[[2691,1435],[117,121],[16,-42]],[[2831,1516],[15,84],[52,41],[3,63],[112,62]],[[3019,1773],[29,32],[18,-22],[21,-126]],[[4046,2214],[-65,-50],[-79,15],[-68,-27],[-149,-2],[-56,-80],[-121,34],[-105,-47],[-17,-59],[-37,-19],[-44,3],[-60,67],[-55,-30],[-34,-69],[-77,-47],[-27,-49]],[[8,55],[5,2]],[[16,67],[65,-2],[-1,-30]],[[200,114],[2,-66]],[[259,298],[-32,-26]],[[259,298],[30,17]],[[349,367],[-24,-38]],[[1330,1015],[16,-19]],[[1575,863],[-1,-1]],[[2264,1000],[-5,27],[-28,-3]],[[2270,991],[32,-24]],[[2479,1038],[-24,-24]],[[3047,1301],[-92,21]],[[2966,1086],[1,-52]],[[3209,1910],[-14,-65]],[[3238,1479],[50,60]],[[3256,2099],[13,6]],[[3294,1810],[89,5],[10,-53]],[[3303,1559],[-26,22],[40,21],[26,108]],[[3348,1709],[2,5]],[[3402,1755],[5,-27],[-27,-8]],[[2782,4074],[81,-285],[208,-196]],[[3080,3533],[0,1],[-1,0],[1,-1]],[[3323,3985],[-50,17]],[[3595,3959],[104,-13],[197,-131],[50,3]],[[3949,3814]],[[3963,3821],[69,4],[33,-48],[31,-1]],[[778,1132],[-31,-59]],[[750,1074],[13,23]],[[765,1103],[13,28]],[[284,658],[-22,-6]],[[3927,2477],[1,-1],[0,1],[-1,0]],[[3256,2099],[6,12]],[[738,905],[-24,57]],[[718,948],[3,-16],[3,-6],[10,-17],[1,-1],[1,-4]],[[738,903],[3,-1]],[[741,902],[-3,3]],[[741,902],[20,-19]],[[761,883],[7,-7]],[[766,878],[-5,5]],[[783,871],[63,-18]],[[850,850],[-4,3],[-11,6],[-50,12]],[[854,845],[36,-33],[16,-9]],[[913,800],[-58,45]],[[34,1262],[-1,0]],[[127,1251],[-68,7]],[[229,1270],[-100,-18]],[[376,1236],[-4,4]],[[385,1234],[-1,0]],[[225,146],[-25,-32]],[[2940,1183],[4,49]],[[2949,1288],[6,34]],[[692,773],[-13,-38]],[[680,735],[12,36]],[[377,628],[-23,-12]],[[1877,3754],[-22,-29]],[[1856,3725],[4,7]],[[793,1042],[-2,1]],[[253,583],[-100,-33],[-153,9]],[[464,1225],[3,-1]],[[575,1146],[28,-7],[7,1]],[[607,1140],[-31,6]],[[3949,3814],[10,-5]],[[722,966],[-1,0]],[[723,966]],[[870,1073],[10,2]],[[880,1033],[-4,20]],[[885,1075],[10,1]],[[904,1076],[10,1]],[[970,1073],[22,-3]],[[995,1069],[1,0]],[[0,642],[17,-8]],[[22,630],[38,33],[34,-42]],[[2150,1342],[90,-22]],[[2279,1305],[23,-8]],[[2671,1408],[13,16]],[[747,1073]],[[610,1140],[31,6]],[[1020,1062],[6,-7]],[[528,1279],[2,18]],[[529,1297],[-1,-3]],[[353,1096],[-1,26],[-2,6]],[[351,1121],[2,-24],[0,-1]],[[354,1016],[-5,-82],[59,-97],[58,-41],[14,-54],[11,-15]],[[480,745],[-14,52],[-56,39],[-60,98],[5,82]],[[491,728],[-11,17]],[[414,998],[-4,-2]],[[435,1023],[30,25]],[[479,717],[-39,-49]],[[1102,1059],[25,-63],[-37,-179]],[[1090,817],[38,179],[1,21],[-4,11],[-2,5],[-21,27]],[[861,1434],[2,-9]],[[3,1823],[-3,0]],[[20,1817],[-17,6]],[[207,1729],[-120,63]],[[303,1629],[-84,88]],[[359,1571],[-25,25]],[[516,1366],[-76,119]],[[1833,3627],[12,61]],[[1843,3678],[-8,-40]],[[602,1138],[8,2]],[[334,1129],[19,13]],[[582,901]],[[0,1151],[73,-58],[4,-2],[17,-2]],[[94,1089],[10,-2]],[[104,1087],[-10,2]],[[94,1089],[-17,3],[-4,2],[-73,58]],[[186,1102],[-10,-2]],[[350,1128],[-42,-8]],[[314,1121],[37,0]],[[284,658],[31,49],[42,-25]],[[795,981],[39,4]],[[859,1019],[-1,-14]],[[1047,983],[-115,-21],[-66,59]],[[607,1140],[-14,-4]],[[595,1136],[7,2]],[[354,616],[-71,-21]],[[3476,3973],[38,6]],[[595,1136],[1,2]],[[3069,3530],[9,3]],[[355,811],[14,-35]],[[580,900],[2,1]],[[582,901],[4,3]],[[586,905],[1,0]],[[0,0],[0,4096],[4096,0],[0,-4096],[-4096,0]],[[2209,3117],[48,119],[7,124],[49,32],[-1,31],[109,-28],[-5,-55],[88,-42],[-12,-52],[-44,4],[-6,-23],[41,-18],[-5,-28],[-58,-10],[41,-41],[-81,-78],[-41,28],[-17,-52],[-67,12],[-2,43],[-44,34]],[[3221,0],[-115,0],[114,5],[1,-5]],[[3705,0],[-74,0],[74,2],[0,-2]],[[4096,212],[0,-212],[-323,0],[-20,17],[26,45],[64,-6],[82,63],[53,83],[76,-47],[35,60],[7,-3]],[[2595,0],[-329,0],[13,23],[-168,37],[2,64],[-68,32],[-29,45],[126,100],[-29,160],[25,19],[105,-16],[39,30],[-10,32],[44,0],[76,-68],[69,-14],[56,-92],[43,12],[-2,-102],[-35,-66],[27,-92],[52,-65],[-7,-39]],[[0,773],[37,-32],[58,15],[32,41],[123,-25],[6,42],[53,14],[-1,83],[-73,47],[0,50],[74,-87],[46,96],[75,36],[65,6],[170,-80],[-29,-35],[42,-33],[-21,-26],[-71,20],[29,-41],[-137,-46],[2,-73],[30,-2],[-31,-26],[-115,15],[-19,-25],[-87,3],[-28,46],[-115,-68],[-115,0],[0,85]],[[2048,2832],[27,41],[91,23],[81,-41],[11,31],[83,37],[-56,-118],[128,-85],[-31,-87],[28,-39],[149,-49],[-53,-26],[81,-66],[-65,2],[53,-54],[-14,-28],[-89,43],[-1,86],[-61,-14],[-81,32],[-60,-9],[-21,38],[20,40],[-46,-15],[-26,33],[-41,4],[18,48],[-69,44],[10,43],[-66,86]],[[4011,4096],[-6,-52],[-24,-12],[24,-11],[-23,-109],[-60,-7],[-33,-81],[-211,143],[-103,22],[-101,-16],[-46,55],[-187,-24],[-22,15],[4,70],[-26,7],[814,0]],[[2381,3053],[80,77],[125,8],[65,40],[70,-119],[76,-41],[-49,-120],[-99,53],[-8,-116],[18,-21],[-28,-16],[-64,16],[-14,-29],[63,-57],[60,-17],[-46,-53],[-23,11],[-26,-26],[-41,32],[-55,-27],[23,51],[-111,110],[24,194],[-40,50]],[[2602,3302],[41,17],[-9,120],[36,23],[16,54],[53,-12],[51,-92],[102,-3],[-31,-33],[42,-3],[-35,-31],[60,-67],[82,-31],[9,33],[51,-4],[-28,-94],[-30,11],[-20,-56],[88,-52],[140,-36],[28,-87],[109,-64],[-68,-113],[221,-117],[-31,-99],[-183,130],[-16,-31],[-51,42],[-126,-22],[-24,25],[10,56],[70,114],[-39,30],[-57,-10],[11,31],[-43,-1],[8,58],[-41,-22],[8,38],[-183,51],[11,32],[-30,3],[8,30],[27,0],[29,47],[-51,50],[-56,8],[69,70],[-98,45],[-36,-61],[-94,23]],[[0,1293],[35,-32],[94,-10],[7,39],[174,48],[135,-98],[-60,-6],[-87,72],[-68,-17],[-1,-24],[66,-1],[-5,-31],[59,-23],[23,30],[85,-81],[26,41],[-24,19],[73,45],[25,-38],[-36,-29],[29,-32],[-13,-51],[-75,34],[-18,-57],[-38,-2],[-15,24],[-40,-17],[-3,30],[-243,-36],[-6,-79],[-69,-1],[-30,14],[0,269]],[[0,1686],[20,70],[-17,67],[84,-30],[28,-73],[50,-32],[43,41],[233,-245],[76,-119],[125,32],[-15,88],[58,-15],[9,59],[121,-8],[3,-32],[-59,-45],[52,-52],[3,-47],[-160,-83],[-51,39],[-107,-5],[8,20],[-43,42],[-95,-16],[-111,91],[-255,-41],[0,294]],[[165,2146],[221,92],[67,-37],[29,16],[59,-54],[25,36],[57,-38],[21,20],[80,-62],[26,-75],[96,-105],[-16,-91],[49,-127],[-24,-92],[88,-68],[-12,-54],[-10,25],[-50,-15],[8,-46],[54,-44],[5,-67],[21,15],[31,-22],[-10,-55],[41,-22],[-63,-24],[-66,67],[13,30],[-80,36],[38,36],[-24,156],[-54,7],[33,59],[-20,23],[43,27],[8,52],[-87,9],[-21,38],[-147,18],[1,40],[-47,-19],[6,-18],[-56,-4],[38,75],[-100,-1],[-9,56],[50,99],[-42,17],[3,28],[-66,3],[7,26],[-47,20],[-23,-35],[-67,55],[-53,-22],[-24,16]],[[238,1720],[77,48],[95,-37],[-49,75],[-78,1],[-43,49],[39,3],[-3,25],[93,-9],[35,-49],[-11,-31],[70,-49],[-20,-33],[15,-49],[-32,-26],[52,-116],[-45,5],[-9,65],[-40,-32],[-15,86],[-78,2],[-15,50],[-38,22]],[[3433,4096],[-3,-16],[-30,1],[-1,15],[34,0]],[[1315,1298],[33,0],[0,-102],[60,-73],[32,-94],[112,-76],[22,-111],[-94,-8],[-65,38],[-68,172],[-128,-101],[32,-253],[-117,-85],[-175,-17],[-97,51],[-140,7],[-45,22],[-70,95],[-4,79],[-140,-77],[-86,26],[1,-73],[96,-78],[-25,-77],[-56,-26],[-146,1],[33,253],[64,1],[0,101],[162,0],[-5,67],[-85,83],[-43,6],[-29,-55],[-25,30],[25,274],[47,-31],[206,-17],[6,-53],[153,65],[74,-15],[32,-50],[162,50],[162,-50],[33,51],[-6,81],[-60,121],[37,45],[61,6],[64,-102],[0,-101]],[[2713,579],[-71,9],[28,159],[36,44],[65,1],[6,-111],[-19,-71],[-45,-31]],[[2189,588],[-113,53],[-37,55],[-12,96],[146,0],[16,50],[35,-41],[-35,-213]],[[3678,943],[26,-6],[38,57],[64,0],[1,51],[23,-12],[103,-232],[3,-61],[-67,-52],[-315,4],[-6,-53],[-97,101],[97,355],[84,-45],[46,-107]],[[2744,2417],[35,27],[50,-44],[-5,-103],[-80,120]],[[0,2316],[125,-2],[75,-51],[-21,-53],[-48,-4],[8,-58],[-139,-3],[0,171]],[[0,2792],[116,-18],[9,34],[72,29],[65,-33],[27,24],[24,-55],[-53,-102],[24,-5],[-4,-22],[-104,25],[6,85],[-63,8],[-85,-107],[31,-84],[-65,-2],[0,223]],[[0,1567],[20,-5],[-14,-52],[20,-14],[7,26],[4,-25],[47,-16],[-10,-29],[-44,-9],[-19,33],[-11,-20],[0,111]]]}