{"objects":{"water":{"type":"GeometryCollection","geometries":[]},"buildings":{"type":"GeometryCollection","geometries":[]},"places":{"type":"GeometryCollection","geometries":[{"type":"Point","properties":{"name:pt":"Pequena Pol\u00f3nia","name:sk":"Malopo\u013esk\u00e9","name:ja":"\u30de\u30a6\u30a9\u30dd\u30eb\u30b9\u30ab\u770c","name:ka":"\u10db\u10ea\u10d8\u10e0\u10d4 \u10de\u10dd\u10da\u10dd\u10dc\u10e3\u10e0\u10d8 \u10e1\u10d0\u10d5\u10dd\u10d4\u10d5\u10dd\u10d3\u10dd","name:ar":"\u0645\u062d\u0627\u0641\u0638\u0629 \u0628\u0648\u0644\u0646\u062f\u0627 \u0627\u0644\u0635\u063a\u0631\u0649","kind":"region","min_zoom":4.0,"name:uk":"\u041c\u0430\u043b\u043e\u043f\u043e\u043b\u044c\u0441\u044c\u043a\u0435 \u0432\u043e\u0454\u0432\u043e\u0434\u0441\u0442\u0432\u043e","name:be":"\u041c\u0430\u043b\u0430\u043f\u043e\u043b\u044c\u0441\u043a\u0430\u0435 \u0432\u0430\u044f\u0432\u043e\u0434\u0441\u0442\u0432\u0430","name:ru":"\u041c\u0430\u043b\u043e\u043f\u043e\u043b\u044c\u0441\u043a\u043e\u0435 \u0432\u043e\u0435\u0432\u043e\u0434\u0441\u0442\u0432\u043e","name:hu":"Kis-Lengyelorsz\u00e1g","name":"wojew\u00f3dztwo ma\u0142opolskie","id":504966405,"population":3279000,"name:eo":"Malgrandpollanda Provinco","name:en":"Lesser Poland","name:lt":"Ma\u017eosios Lenkijos vaivadija","kind_detail":"state","name:de":"Kleinpolen","source":"openstreetmap.org","name:fr":"Petite-Pologne","name:et":"V\u00e4ike-Poola","name:zh":"\u5c0f\u6ce2\u5170\u7701"},"coordinates":[2015,3886]},{"type":"Point","properties":{"name:lv":"Novi Son\u010da","name:ja":"\u30ce\u30f4\u30a3\u30fb\u30bd\u30f3\u30c1","name:lt":"Naujasis Son\u010das","name:cs":"Nov\u00fd Sadec","name:eo":"Nova Son\u0109o","min_zoom":8.0,"name:uk":"\u041d\u043e\u0432\u0438\u0439 \u0421\u043e\u043d\u0447","name:ru":"\u041d\u043e\u0432\u044b-\u0421\u043e\u043d\u0447","name:hu":"\u00dajszandec","id":46715854,"population":83943,"kind":"locality","old_name:de":"Neu Sandec","name":"Nowy S\u0105cz","kind_detail":"city","name:de":"Neu Sandez","source":"openstreetmap.org"},"coordinates":[2924,3143]},{"type":"Point","properties":{"kind":"locality","name":"Poprad","kind_detail":"town","name:de":"Deutschendorf","source":"openstreetmap.org","min_zoom":8.0,"loc_name":"Deutschendorf","name:ru":"\u041f\u043e\u043f\u0440\u0430\u0434","name:hu":"Popr\u00e1d","id":203077481,"population":54931},"coordinates":[1777,589]},{"type":"Point","properties":{"kind":"locality","name":"Spi\u0161sk\u00e1 Nov\u00e1 Ves","kind_detail":"town","alt_name:pl":"Spiska Nowa Wie\u015b","name:de":"Zipser Neudorf","source":"openstreetmap.org","min_zoom":8.0,"loc_name":"Iglo,Igl\u00f3,Neudorf,Spishska Nova Ves,Spiska Nowa Wies,Spiska Nowa Wie\u015b,Spisska,Spisska Nova Ves,Spi\u0161sk\u00e1,Spi\u0161sk\u00e1 Nov\u00e1 Ves","name:ru":"\u0421\u043f\u0438\u0448\u0441\u043a\u0430 \u041d\u043e\u0432\u0430 \u0412\u0435\u0441","name:pl":"Nowa Wie\u015b Spiska","name:hu":"Igl\u00f3","id":26037190,"population":38257},"coordinates":[2550,94]},{"type":"Point","properties":{"kind":"locality","name":"Nowy Targ","name:lt":"Naujasis Targas","kind_detail":"town","name:de":"Neumarkt","source":"openstreetmap.org","min_zoom":8.0,"name:uk":"\u041d\u043e\u0432\u0438\u0439 \u0422\u0430\u0440\u0433","name:ru":"\u041d\u043e\u0432\u044b-\u0422\u0430\u0440\u0433","name:zh":"\u65b0\u5854\u723e\u683c","id":147844965,"population":33672},"coordinates":[999,2502]},{"type":"Point","properties":{"kind":"locality","name":"My\u015blenice","kind_detail":"town","source":"openstreetmap.org","min_zoom":8.0,"name:uk":"\u041c\u0438\u0441\u044c\u043b\u0435\u043d\u0456\u0446\u0435","name:ru":"\u041c\u044b\u0441\u043b\u0435\u043d\u0438\u0446\u0435","name:zh":"\u6885\u5e0c\u840a\u5c3c\u91c7","id":262936633,"population":18365},"coordinates":[731,4081]},{"type":"Point","properties":{"kind":"locality","name":"Ke\u017emarok","alt_name:de":"Kesmark","kind_detail":"town","name:de":"K\u00e4smark","source":"openstreetmap.org","min_zoom":8.0,"name:la":"Kesmarkium","loc_name":"Kasmark,Kesmark,Kezhmarok,Kezmarok,Kezmarokas,Ke\u017emarok,Ke\u017emarokas,Kiezmark,Kie\u017cmark,K\u00e4smark,K\u00e9sm\u00e1rk","name:ru":"\u041a\u0435\u0436\u043c\u0430\u0440\u043e\u043a","name:pl":"Kie\u017cmark","name:hu":"K\u00e9sm\u00e1rk","id":26036067,"population":17013},"coordinates":[2165,956]},{"type":"Point","properties":{"kind":"locality","name":"Star\u00e1 \u013dubov\u0148a","alt_name:de":"Lublau","old_name:pl":"Lubowla","kind_detail":"town","alt_name:pl":"Lubowla","name:de":"Altlublau","source":"openstreetmap.org","min_zoom":8.0,"name:pl":"Stara Lubowla","name:hu":"\u00d3lubl\u00f3","id":26037357,"population":16338},"coordinates":[2917,1690]},{"type":"Point","properties":{"kind":"locality","name":"Limanowa","kind_detail":"town","name:de":"Ilmenau","source":"openstreetmap.org","min_zoom":8.0,"name:ru":"\u041b\u0438\u043c\u0430\u043d\u043e\u0432\u0430","id":227609975,"population":15133},"coordinates":[2139,3506]},{"type":"Point","properties":{"kind":"locality","name":"Levo\u010da","kind_detail":"town","name:de":"Leutschau","source":"openstreetmap.org","min_zoom":8.0,"name:la":"Leutsovia","loc_name":"Leutschau,Levoca,Levocha,Levo\u010da,Locse,L\u00f6cse,L\u0151cse","name:pl":"Lewocza","name:hu":"L\u0151cse","id":26036345,"population":14716},"coordinates":[2623,459]},{"type":"Point","properties":{"kind":"locality","name":"Rabka-Zdr\u00f3j","kind_detail":"town","name:de":"Bad Rabka","source":"openstreetmap.org","min_zoom":8.0,"name:uk":"\u0420\u0430\u0431\u043a\u0430-\u0417\u0434\u0440\u0443\u0439","name:ru":"\u0420\u0430\u0431\u043a\u0430-\u0417\u0434\u0440\u0443\u0439","name:zh":"\u62c9\u5e03\u5361-\u8332\u5fb7\u9b6f\u4f0a","id":262936634,"population":13154},"coordinates":[800,3066]},{"type":"Point","properties":{"kind":"locality","name":"Krynica-Zdr\u00f3j","kind_detail":"town","source":"openstreetmap.org","min_zoom":8.0,"name:uk":"\u041a\u0440\u0438\u043d\u0438\u0446\u044f-\u0417\u0434\u0440\u0443\u0439","name:ru":"\u041a\u0440\u044b\u043d\u0438\u0446\u0430-\u0417\u0434\u0440\u0443\u0439","id":288825557,"population":11165},"coordinates":[3705,2229]},{"type":"Point","properties":{"kind":"locality","name":"Stary S\u0105cz","kind_detail":"town","name:de":"Alt Sandez","source":"openstreetmap.org","min_zoom":8.0,"name:ru":"\u0421\u0442\u0430\u0440\u044b-\u0421\u043e\u043d\u0447","id":31949310,"population":9107},"coordinates":[2765,2870]},{"type":"Point","properties":{"kind":"locality","old_name:de":"Neuh\u00e4usel in der Liptau","name":"Liptovsk\u00fd Hr\u00e1dok","kind_detail":"town","name:de":"Liptau-Hradek","source":"openstreetmap.org","min_zoom":8.0,"name:pl":"Liptowski Gr\u00f3dek","name:hu":"Lipt\u00f3\u00fajv\u00e1r","id":26036903,"population":7729},"coordinates":[100,513]},{"type":"Point","properties":{"kind":"locality","name":"Svit","kind_detail":"town","source":"openstreetmap.org","min_zoom":8.0,"loc_name":"Szvit","name:pl":"\u015awit","name:hu":"Szvit","id":26036457,"population":7474},"coordinates":[1483,607]},{"type":"Point","properties":{"kind":"locality","name":"Lipany","kind_detail":"town","name:de":"Siebenlinden","source":"openstreetmap.org","min_zoom":8.0,"name:la":"Septemtiliae","name:ru":"\u041b\u0438\u043f\u0430\u043d\u044b","name:hu":"H\u00e9th\u00e1rs","id":2137762280,"population":6302},"coordinates":[3715,1029]},{"type":"Point","properties":{"kind":"locality","name":"Spi\u0161sk\u00e1 Bel\u00e1","kind_detail":"town","name:de":"Zipser Bela","source":"openstreetmap.org","min_zoom":8.0,"name:pl":"Bia\u0142a Spiska","name:hu":"Szepesb\u00e9la","id":26037553,"population":6265},"coordinates":[2236,1197]},{"type":"Point","properties":{"kind":"locality","name":"Szczawnica","kind_detail":"town","source":"openstreetmap.org","min_zoom":8.0,"name:uk":"\u0429\u0430\u0432\u043d\u0438\u0446\u044f","name:ru":"\u0429\u0430\u0432\u043d\u0438\u0446\u0430","name:zh":"\u4ec0\u6070\u592b\u5c3c\u5bdf","id":31947405,"population":6032},"coordinates":[2297,2255]},{"type":"Point","properties":{"kind":"locality","name":"Muszyna","kind_detail":"town","source":"openstreetmap.org","min_zoom":8.0,"name:uk":"\u041c\u0443\u0448\u0438\u043d\u0430","name:ru":"\u041c\u0443\u0448\u0438\u043d\u0430","name:pl":"Krynica-Zdr\u00f3j","id":298014658,"population":5069},"coordinates":[3522,1940]},{"type":"Point","properties":{"kind":"locality","name":"Vysok\u00e9 Tatry","kind_detail":"town","name:de":"Hohe Tatra","source":"openstreetmap.org","min_zoom":8.0,"loc_name":"Smokovec","name:pl":"Wysokie Tatry","name:hu":"T\u00e1traf\u00fcred","id":26038409,"population":4593},"coordinates":[1553,967]},{"type":"Point","properties":{"kind":"locality","old_name:de":"Kirchdorf","name":"Spi\u0161sk\u00e9 Podhradie","kind_detail":"town","name:de":"Kirchdrauf","source":"openstreetmap.org","min_zoom":8.0,"loc_name":"Spishske Podgra\u010fe,Spiskie Podhradie,Spisske Podhradie,Spi\u015bkie Podhradie,Spi\u0161sk\u00e9 Podhradie,Szepesvaralja,Szepesv\u00e1ralja","name:pl":"Spiskie Podgrodzie","name:hu":"Szepesv\u00e1ralja","id":26038123,"population":3892},"coordinates":[3098,347]},{"type":"Point","properties":{"kind":"locality","name":"Spi\u0161sk\u00e9 Vlachy","kind_detail":"town","name:de":"Wallendorf","source":"openstreetmap.org","min_zoom":8.0,"name:la":"Latina villa","name:pl":"Spiskie W\u0142ochy","name:hu":"Szepesolaszi","id":26037425,"population":3635},"coordinates":[3232,114]},{"type":"Point","properties":{"kind":"locality","name":"Podol\u00ednec","kind_detail":"town","name:de":"Pudlein","source":"openstreetmap.org","min_zoom":8.0,"name:pl":"Podoliniec","name:hu":"Podolin","id":26037628,"population":3243},"coordinates":[2470,1497]},{"type":"Point","properties":{"kind":"locality","name":"Spi\u0161sk\u00e1 Star\u00e1 Ves","kind_detail":"town","name:de":"Altdorf","source":"openstreetmap.org","min_zoom":8.0,"loc_name":"Altendorf,Szepesofalu,Szepes\u00f3falu","name:pl":"Stara Wie\u015b Spiska","name:hu":"Szepes\u00f3falu","id":26036678,"population":2329},"coordinates":[1958,2061]}]},"transit":{"type":"GeometryCollection","geometries":[{"type":"MultiLineString","properties":{"kind":"train","network":"\u017dSR","service":"fast_train","sort_rank":275,"source":"openstreetmap.org","min_zoom":6.0,"operator":"ZSSK","ref":"R","osm_relation":true,"name":"R Bratislava-Zilina-Kosice"},"arcs":[[8],[9],[10],[11],[12],[13],[14],[15]]},{"type":"LineString","properties":{"kind":"train","network":"PKP","sort_rank":275,"source":"openstreetmap.org","min_zoom":6.0,"operator":"PKP Polskie Linie Kolejowe S.A.","ref":"105","id":-2342131,"osm_relation":true,"name":"Linia kolejowa nr 105 Muszyna - Krynica"},"arcs":[16]},{"type":"MultiLineString","properties":{"kind":"train","name":"Linia kolejowa nr 96 Tarn\u00f3w - Leluch\u00f3w","sort_rank":275,"source":"openstreetmap.org","min_zoom":6.0,"operator":"PKP Polskie Linie Kolejowe S.A.","ref":"96","osm_relation":true,"network":"PKP"},"arcs":[[17],[18],[19],[20],[21],[22]]}]},"pois":{"type":"GeometryCollection","geometries":[{"type":"Point","properties":{"kind":"nature_reserve","protect_class":"5","area":434846000,"source":"openstreetmap.org","min_zoom":7.91,"tier":2,"id":-4522334,"osm_relation":true,"name":"Ci\u0119\u017ckowicko-Ro\u017cnowski Park Krajobrazowy"},"coordinates":[3519,3890]},{"type":"Point","properties":{"kind":"nature_reserve","protect_class":"5","area":1271440000,"name:de":"Landschaftsschutzpark Popper","source":"openstreetmap.org","min_zoom":7.13,"tier":2,"id":-4520005,"osm_relation":true,"name":"Popradzki Park Krajobrazowy"},"coordinates":[3477,2198]},{"type":"Point","properties":{"kind":"national_park","protect_class":"2","area":493252000,"name:de":"Tatra-Nationalpark","source":"openstreetmap.org","min_zoom":6.32,"tier":1,"id":-2226518,"osm_relation":true,"name":"Tatrza\u0144ski Park Narodowy"},"coordinates":[761,1493]},{"type":"Point","properties":{"kind":"national_park","protect_class":"2","area":55004800,"name:de":"Pieninen-Nationalpark","source":"openstreetmap.org","min_zoom":8.0,"tier":1,"id":-1984552,"osm_relation":true,"name":"Pieni\u0144ski Park Narodowy"},"coordinates":[2013,2215]},{"type":"Point","properties":{"kind":"national_park","protect_class":"2","short_name":"GPN","area":162244000,"name:de":"Nationalpark Gorce","source":"openstreetmap.org","min_zoom":7.12,"tier":1,"id":-1984482,"osm_relation":true,"name":"Gorcza\u0144ski Park Narodowy"},"coordinates":[1399,2814]},{"type":"Point","properties":{"kind":"protected_area","protect_class":"1","area":126764000,"alt_name:de":"Beler Tatra;Beler Gebirge","name:de":"Beler Kalkalpen","source":"openstreetmap.org","min_zoom":7.0,"tier":2,"name:pl":"Narodowy rezerwat przyrody Tatry Bielskie","id":-1216088,"osm_relation":true,"name":"Belianske Tatry"},"coordinates":[1565,1428]},{"type":"Point","properties":{"kind":"protected_area","protect_class":"1","area":19967400,"source":"openstreetmap.org","min_zoom":8.0,"tier":2,"id":-1215299,"osm_relation":true,"name":"Ohni\u0161te"},"coordinates":[114,280]}]},"boundaries":{"type":"GeometryCollection","geometries":[{"type":"MultiLineString","properties":{"name:right:yo":"Slof\u00e1k\u00ed\u00e0","name:right:yi":"\u05e1\u05dc\u05d0\u05d5\u05d5\u05d0\u05e7\u05d9\u05d9","name:left:la":"Polonia","name:right:qu":"Isluwakya","name:left:li":"Pole","name:left:vi":"Ba Lan","name:left:sw":"Poland","name:left:kg":"Pologne","name:left:ka":"\u10de\u10dd\u10da\u10dd\u10dc\u10d4\u10d7\u10d8","name:left:km":"\u1794\u17d2\u179a\u1791\u17c1\u179f\u1794\u17c9\u17bc\u17a1\u17bc\u1789","name:left:kl":"Poleni","name:left:ko":"\ud3f4\ub780\ub4dc","name:left:kn":"\u0caa\u0ccb\u0cb2\u0cc6\u0c82\u0ca1\u0ccd","name:left:rn":"Polonia","name:left:ro":"Polonia","name:left:kk":"\u041f\u043e\u043b\u044c\u0448\u0430","name:left:rm":"Pologna","name:left:ku":"Polonya","name:left:kw":"Poloni","name:left:kv":"\u041f\u043e\u043b\u044c\u0448\u0430","name:right:ro":"Slovacia","name:left:ru":"\u041f\u043e\u043b\u044c\u0448\u0430","name:right:ie":"Slovacia","name:right:id":"Slowakia","name:left:ky":"\u041f\u043e\u043b\u044c\u0448\u0430","name:right:ia":"Slovachia","name:right:bi":"Slovakia","name:right:bn":"\u09b8\u09cd\u09b2\u09cb\u09ad\u09be\u0995\u09bf\u09af\u09bc\u09be","name:right:bo":"\u0f66\u0f72\u0f0b\u0f63\u0f7c\u0f0b\u0f55\u0f0b\u0f41\u0f7a\u0f0d","name:left:sl":"Poljska","name:right:ba":"\u0421\u043b\u043e\u0432\u0430\u043a\u0438\u044f","name:right:bg":"\u0421\u043b\u043e\u0432\u0430\u043a\u0438\u044f","name:right:be":"\u0421\u043b\u0430\u0432\u0430\u043a\u0456\u044f","name:right:br":"Slovakia","name:left:lt":"Lenkija","name:right:nn":"Slovakia","name:right:no":"Slovakia","name:right:nl":"Slowakije","name:left:lv":"Polija","name:right:wo":"Eslowaaki","name:right:ne":"\u0938\u094d\u0932\u094b\u092d\u093e\u0915\u093f\u092f\u093e","name:right:na":"Slowakia","name:right:gv":"Yn Clovack","name:right:nv":"S\u0142\u00f3ba\u02bc Bik\u00e9yah","name:left:mg":"Polonia","kind_detail":"2","name:left:tr":"Polonya","name:right:gu":"\u0ab8\u0acd\u0ab2\u0acb\u0ab5\u0abe\u0a95\u0abf\u0aaf\u0abe","name:right:ps":"\u0633\u0644\u0648\u0627\u06a9\u064a\u0627","name:right:pt":"Eslov\u00e1quia","name:left:mk":"\u041f\u043e\u043b\u0441\u043a\u0430","name:left:mi":"P\u014drana","name:left:tt":"\u041f\u043e\u043b\u044c\u0448\u0430","name:left:mn":"\u041f\u043e\u043b\u044c\u0448","name:left:ml":"\u0d2a\u0d4b\u0d33\u0d23\u0d4d\u0d1f\u0d4d","name:left:th":"\u0e1b\u0e23\u0e30\u0e40\u0e17\u0e28\u0e42\u0e1b\u0e41\u0e25\u0e19\u0e14\u0e4c","name:left:mr":"\u092a\u094b\u0932\u0902\u0921","name:left:tk":"Pol\u015fa","name:left:tl":"Polonya","name:left:mt":"Polonja","name:left:ta":"\u0baa\u0bcb\u0bb2\u0ba8\u0bcd\u0ba4\u0bc1","name:left:my":"\u1015\u102d\u102f\u101c\u1014\u103a\u1014\u102d\u102f\u1004\u103a\u1004\u1036","name:right:gn":"Elovakia","name:right:pl":"S\u0142owacja","name:left:te":"\u0c2a\u0c4b\u0c32\u0c3e\u0c02\u0c21\u0c4d","name:left:tg":"\u041b\u0430\u04b3\u0438\u0441\u0442\u043e\u043d","name:left:ms":"Poland","name:right:gd":"An t-Sl\u00f2bhac","name:right:tr":"Slovakya","name:left:da":"Polen","name:left:de":"Polen","name:right:ga":"An tSl\u00f3vaic","name:left:dv":"\u0795\u07ae\u078d\u07ac\u0782\u07b0\u0791\u07aa","name:right:ug":"\u0633\u0644\u0648\u06cb\u0627\u0643\u0649\u064a\u06d5","name:left:hi":"\u092a\u094b\u0932\u0948\u0902\u0921","name:right:lb":"Slowakei","name:right:uk":"\u0421\u043b\u043e\u0432\u0430\u0447\u0447\u0438\u043d\u0430","name:left:he":"\u05e4\u05d5\u05dc\u05d9\u05df","name:right:ln":"Slovakia","name:left:ha":"Poland","name:right:lt":"Slovakija","name:right:ur":"\u0633\u0644\u0648\u0648\u0627\u06a9\u06cc\u06c1","name:right:lv":"Slov\u0101kija","name:left:hy":"\u053c\u0565\u0570\u0561\u057d\u057f\u0561\u0576","name:right:gl":"Eslovaquia","name:left:ht":"Pol\u00f2y","name:left:hu":"Lengyelorsz\u00e1g","name:left:hr":"Poljska","sort_rank":262,"name:right:os":"\u0421\u043b\u043e\u0432\u0430\u043a\u0438","name:right:es":"Eslovaquia","name:right:sr":"\u0421\u043b\u043e\u0432\u0430\u0447\u043a\u0430","name:right:eu":"Eslovakia","name:right:et":"Slovakkia","name:left:os":"\u041f\u043e\u043b\u044c\u0448\u00e6","name:left:or":"\u0b2a\u0b4b\u0b32\u0b3e\u0b23\u0b4d\u0b21","name:right:ee":"Slovakia","name:left:vo":"Pol\u00e4n","name:left:oc":"Polonha","name:right:eo":"Slovakujo","name:right:en":"Slovakia","name:right:el":"\u03a3\u03bb\u03bf\u03b2\u03b1\u03ba\u03af\u03b1","name:left:ff":"Poloonya","name:left:fa":"\u0644\u0647\u0633\u062a\u0627\u0646","name:left:fo":"P\u00f3lland","name:left:fi":"Puola","name:left:fr":"Pologne","name:left:fy":"Poalen","name:right:ja":"\u30b9\u30ed\u30d0\u30ad\u30a2","name:right:sq":"Sllovakia","name:right:ss":"Silovakhi","name:left:ja":"\u30dd\u30fc\u30e9\u30f3\u30c9","name:right:su":"Slovakia","name:right:st":"Slovakia","name:right:sw":"Slovakia","name:right:sv":"Slovakien","name:right:sh":"Slova\u010dka","name:left:qu":"Pulunya","name:right:jv":"Slowakia","name:right:sl":"Slova\u0161ka","name:right:so":"Islofaakiya","name:right:sa":"\u0938\u094d\u0932\u094b\u0935\u093e\u0915\u093f\u092f\u093e","name:left:jv":"Polandia","id":-49715,"name:right:co":"Sluvacchia","name:right:ca":"Eslov\u00e0quia","name:right:se":"Slovakia","name:right:ce":"\u0421\u043b\u043e\u0432\u0430\u043a\u0438","name:right:cy":"Slofacia","name:right:zh-yue":"\u65af\u6d1b\u4f10\u514b","name:right:cu":"\u0421\u043b\u043e\u0432\u0463\u043d\u044c\u0441\u043a\u043e","name:right:cv":"\u0421\u043b\u043e\u0432\u0430\u043a\u0438","name:right:it":"Slovacchia","name:left:ar":"\u0628\u0648\u0644\u0646\u062f\u0627","name:right:is":"Sl\u00f3vak\u00eda","name:left:az":"Pol\u015fa","name:left:ay":"Pulu\u00f1a","name:right:rw":"Silovakiya","name:left:af":"Pole","name:left:ab":"\u041f\u043e\u043b\u0448\u0430","name:left:an":"Polonia","name:left:am":"\u1356\u120b\u1295\u12f5","name:right:ru":"\u0421\u043b\u043e\u0432\u0430\u043a\u0438\u044f","name:left:ak":"Poland","name:right:io":"Slovakia","name:left:zh-yue":"\u6ce2\u862d","name:left:rw":"Polonye","name:right:hy":"\u054d\u056c\u0578\u057e\u0561\u056f\u056b\u0561","name:left:lb":"Polen","alt_name:left:eo":"Pollando;Polio","name:left:lg":"Bupoolo","name:left:su":"Polandia","name:left:st":"Poland","name:right:hr":"Slova\u010dka","name:left:sv":"Polen","name:left:sq":"Polonia","name:right:hu":"Szlov\u00e1kia","name:left:ss":"IPholandi","name:left:sr":"\u041f\u043e\u0459\u0441\u043a\u0430","name:left:sm":"Polagi","name:right:hi":"\u0938\u094d\u0932\u094b\u0935\u093e\u0915\u093f\u092f\u093e","name:left:so":"Boland","name:left:si":"\u0db4\u0ddd\u0dbd\u0db1\u0dca\u0dad\u0dba","name:left:sh":"Poljska","name:left:sk":"Po\u013esko","name:left:sg":"P\u00f6l\u00f4ni","name:left:sa":"\u092a\u094b\u0932\u0948\u0902\u0921","name:right:he":"\u05e1\u05dc\u05d5\u05d1\u05e7\u05d9\u05d4","name:left:sc":"Polonia","name:right:la":"Slovacia","name:right:af":"Slowakye","name:left:co":"Polonia","name:left:ce":"\u041f\u043e\u043b\u044c\u0448\u0430","name:right:an":"Eslovaquia","name:right:am":"\u1235\u120e\u126b\u12aa\u12eb","name:left:ca":"Pol\u00f2nia","source":"openstreetmap.org","name:left:cy":"Gwlad Pwyl","name:right:ar":"\u0633\u0644\u0648\u0641\u0627\u0643\u064a\u0627","name:left:cu":"\u041f\u043e\u043b\u0484\u044c\u0441\u043a\u0430","name:left:cv":"\u041f\u043e\u043b\u044c\u0448\u0430","name:right:az":"Slovakiya","name:left:cs":"Polsko","name:right:li":"Slowakie\u00eb","name:right:rm":"Slovachia","name":"Polska - Slovensko","name:right:zu":"ISlovaki","name:left:zu":"IPolandi","name:left:zh":"\u6ce2\u5170","name:right:zh":"\u65af\u6d1b\u4f10\u514b","official_name:left":"Rzeczpospolita Polska","name:left:uz":"Polsha","name:right:fr":"Slovaquie","name:left:ps":"\u067e\u0648\u0644\u0646\u0689","name:left:nv":"P\u00f3olish Dine\u02bc\u00e9 Bik\u00e9yah","name:left:ur":"\u067e\u0648\u0644\u06cc\u0646\u0688","id:right":-14296,"name:left:uk":"\u041f\u043e\u043b\u044c\u0449\u0430","name:left:no":"Polen","name:left:nl":"Polen","alt_name:right:eo":"Slovakio","name:right:fa":"\u0627\u0633\u0644\u0648\u0627\u06a9\u06cc","name:right:fo":"Slovakia","name:left:ne":"\u092a\u094b\u0932\u094d\u092f\u093e\u0923\u094d\u0921","name:left:ug":"\u067e\u0648\u0644\u0634\u0627","name:left:na":"Poran","name:left:eo":"Polujo","name:left:en":"Poland","name:left:el":"\u03a0\u03bf\u03bb\u03c9\u03bd\u03af\u03b1","name:left:ee":"Poland","name:left:ig":"Poland","name:left:es":"Polonia","name:left:ie":"Polonia","name:left:eu":"Polonia","name:left:et":"Poola","name:right:oc":"Eslovaquia","name:left:ia":"Polonia","name:right:bs":"Slova\u010dka","name:right:uz":"Slovakiya","osm_relation":true,"name:right:or":"\u0b38\u0b4d\u0b32\u0b4b\u0b2d\u0b3e\u0b15\u0b3f\u0b06","name:left:pt":"Pol\u00f3nia","name:right:ku":"Slovakya","name:right:tk":"Slowaki\u00fda","name:left:wa":"Pologne","min_zoom":8.0,"name:left:ln":"Poloni","name:left:wo":"Polo\u00f1","name:left:ga":"An Pholainn","short_name:left":"RP","name:left:it":"Polonia","name:left:gd":"A' Ph\u00f2lainn","name:left:gl":"Polonia","name:left:gn":"Polo\u00f1a","name:left:gu":"\u0aaa\u0acb\u0ab2\u0ac7\u0a82\u0aa1","name:left:gv":"Yn Pholynn","official_name:right":"Slovensk\u00e1 republika","name:left":"Polska","name:right:mk":"\u0421\u043b\u043e\u0432\u0430\u0447\u043a\u0430","name:right:mi":"Horow\u0101kia","name:right:mn":"\u0421\u043b\u043e\u0432\u0430\u043a","name:right:ml":"\u0d38\u0d4d\u0d32\u0d4b\u0d35\u0d3e\u0d15\u0d4d\u0d2f","name:right:vo":"Slovakiy\u00e4n","name:right:vi":"Slovakia","name:right:my":"\u1006\u101c\u102d\u102f\u1017\u102c\u1038\u1000\u102e\u1038\u101a\u102c\u1038\u1014\u102d\u102f\u1004\u103a\u1004\u1036","name:right:ms":"Slovakia","name:right:mr":"\u0938\u094d\u0932\u094b\u0935\u094d\u0939\u093e\u0915\u093f\u092f\u093e","name:right:fy":"Slowakije","name:right:mt":"Slovakkja","name:left:nn":"Polen","kind":"country","name:left:br":"Polonia","name:left:bs":"Poljska","name:left:ba":"\u041f\u043e\u043b\u044c\u0448\u0430","name:left:bg":"\u041f\u043e\u043b\u0448\u0430","name:left:be":"\u041f\u043e\u043b\u044c\u0448\u0447\u0430","name:left:bi":"Poland","name:left:bn":"\u09aa\u09cb\u09b2\u09cd\u09af\u09be\u09a8\u09cd\u09a1","name:left:bo":"\u0f55\u0f7c\u0f0b\u0f63\u0f53\u0f0d","name:right":"Slovensko","name:left:yo":"Polandi","name:left:yi":"\u05e4\u05d5\u05d9\u05dc\u05df","id:left":-49715,"name:right:fi":"Slovakia","name:right:ka":"\u10e1\u10da\u10dd\u10d5\u10d0\u10d9\u10d4\u10d7\u10d8","name:left:io":"Polonia","name:left:pa":"\u0a2a\u0a4b\u0a32\u0a48\u0a02\u0a21","name:right:kg":"Slovakia","name:right:tt":"\u0421\u043b\u043e\u0432\u0430\u043a\u0438\u044f","name:right:kk":"\u0421\u043b\u043e\u0432\u0430\u043a\u0438\u044f","name:left:id":"Polandia","name:right:kl":"Slovakia","name:right:ko":"\uc2ac\ub85c\ubc14\ud0a4\uc544","name:right:tl":"Eslobakya","name:right:th":"\u0e1b\u0e23\u0e30\u0e40\u0e17\u0e28\u0e2a\u0e42\u0e25\u0e27\u0e32\u0e40\u0e01\u0e35\u0e22","name:right:kw":"Slovaki","name:right:kv":"\u0421\u043b\u043e\u0432\u0430\u043a\u0438\u044f","name:right:ky":"\u0421\u043b\u043e\u0432\u0430\u043a\u0438\u044f","name:left:iu":"\u1433\u14da\u14d0\u1466","name:right:tg":"\u0421\u043b\u043e\u0432\u0430\u043a\u0438\u044f","name:left:is":"P\u00f3lland","name:right:ta":"\u0b9a\u0bbf\u0bb2\u0bcb\u0bb5\u0bbe\u0b95\u0bcd\u0b95\u0bbf\u0baf\u0bbe","name:right:de":"Slowakei","name:right:da":"Slovakiet","name:right:dv":"\u0790\u07aa\u078d\u07ae\u0788\u07a7\u0786\u07a8\u0787\u07a7","name:right:ht":"Slovaki"},"arcs":[[0],[1]]},{"type":"LineString","properties":{"name:left:pl":"Kraj koszycki","id:left":-388272,"name:right:hu":"Eperjesi ker\u00fclet","name:left:ro":"Regiunea Ko\u0161ice","min_zoom":8.0,"name:left:ru":"\u041a\u043e\u0448\u0438\u0446\u043a\u0438\u0439 \u043a\u0440\u0430\u0439","name:left:hu":"Kassai ker\u00fclet","id:right":-388271,"name:right:pl":"Kraj preszowski","id":-388272,"osm_relation":true,"name:right":"Pre\u0161ovsk\u00fd kraj","kind":"region","name":"Ko\u0161ick\u00fd kraj - Pre\u0161ovsk\u00fd kraj","source":"openstreetmap.org","sort_rank":256,"kind_detail":"4","name:right:ru":"\u041f\u0440\u0435\u0448\u043e\u0432\u0441\u043a\u0438\u0439 \u043a\u0440\u0430\u0439","name:left:de":"Kaschauer Landschaftsverband","name:right:en":"Region of Pre\u0161ov","name:left:en":"Region of Ko\u0161ice","name:right:de":"Eperieser Landschaftsverband","name:left":"Ko\u0161ick\u00fd kraj"},"arcs":[2]},{"type":"LineString","properties":{"name:left:pl":"Kraj preszowski","id:left":-388271,"name:right:hu":"Zsolnai ker\u00fclet","id:right":-388269,"min_zoom":8.0,"name:left:ru":"\u041f\u0440\u0435\u0448\u043e\u0432\u0441\u043a\u0438\u0439 \u043a\u0440\u0430\u0439","name:left:hu":"Eperjesi ker\u00fclet","name:right:ru":"\u0416\u0438\u043b\u0438\u043d\u0441\u043a\u0438\u0439 \u043a\u0440\u0430\u0439","name:right:pl":"Kraj \u017cyli\u0144ski","id":-388271,"osm_relation":true,"name:right":"\u017dilinsk\u00fd kraj","kind":"region","name":"Pre\u0161ovsk\u00fd kraj - \u017dilinsk\u00fd kraj","source":"openstreetmap.org","sort_rank":256,"kind_detail":"4","name:left:de":"Eperieser Landschaftsverband","name:right:en":"Region of \u017dilina","name:left:en":"Region of Pre\u0161ov","name:right:de":"Silleiner Landschaftsverband","name:left":"Pre\u0161ovsk\u00fd kraj"},"arcs":[3]},{"type":"MultiLineString","properties":{"name:right:nl":"Woiwodschap Klein-Polen","name:right:ja":"\u30de\u30a6\u30a9\u30dd\u30eb\u30b9\u30ab\u770c","name:right:fr":"Petite-Pologne","name:right:uk":"\u041c\u0430\u043b\u043e\u043f\u043e\u043b\u044c\u0441\u044c\u043a\u0435 \u0432\u043e\u0454\u0432\u043e\u0434\u0441\u0442\u0432\u043e","id:right":-224459,"min_zoom":8.0,"alt_name:right:en":"Ma\u0142opolska Province","name:left:hu":"Eperjesi ker\u00fclet","id":-388271,"name:right":"wojew\u00f3dztwo ma\u0142opolskie","name:left:en":"Region of Pre\u0161ov","sort_rank":256,"kind_detail":"4","source":"openstreetmap.org","id:left":-388271,"name:right:cs":"Malopolsk\u00e9 vojvodstv\u00ed","name:left":"Pre\u0161ovsk\u00fd kraj","name:right:es":"Voivodato de Peque\u00f1a Polonia","name:left:pl":"Kraj preszowski","kind":"region","name:right:ru":"\u041c\u0430\u043b\u043e\u043f\u043e\u043b\u044c\u0441\u043a\u043e\u0435 \u0432\u043e\u0435\u0432\u043e\u0434\u0441\u0442\u0432\u043e","name:left:ru":"\u041f\u0440\u0435\u0448\u043e\u0432\u0441\u043a\u0438\u0439 \u043a\u0440\u0430\u0439","short_name:right":"ma\u0142opolskie","name:right:eo":"Malgrandpollanda Provinco","name:right:en":"Lesser Poland Voivodeship","osm_relation":true,"loc_name:right":"Ma\u0142opolska","name":"Pre\u0161ovsk\u00fd kraj - wojew\u00f3dztwo ma\u0142opolskie","name:right:de":"Woiwodschaft Kleinpolen","name:left:de":"Eperieser Landschaftsverband","name:right:be":"\u041c\u0430\u043b\u0430\u043f\u043e\u043b\u044c\u0441\u043a\u0430\u0435 \u0432\u0430\u044f\u0432\u043e\u0434\u0441\u0442\u0432\u0430","name:right:sl":"Malopoljsko vojvodstvo"},"arcs":[[4],[5]]},{"type":"LineString","properties":{"name:left:pl":"Kraj ba\u0144skobystrzycki","id:left":-388270,"name:right:hu":"Zsolnai ker\u00fclet","id:right":-388269,"min_zoom":8.0,"name:left:ru":"\u0411\u0430\u043d\u0441\u043a\u043e\u0431\u0438\u0441\u0442\u0440\u0438\u0446\u043a\u0438\u0439 \u043a\u0440\u0430\u0439","name:left:hu":"Beszterceb\u00e1nyai ker\u00fclet","name:right:ru":"\u0416\u0438\u043b\u0438\u043d\u0441\u043a\u0438\u0439 \u043a\u0440\u0430\u0439","name:right:pl":"Kraj \u017cyli\u0144ski","id":-388270,"osm_relation":true,"name:right":"\u017dilinsk\u00fd kraj","kind":"region","name":"Banskobystrick\u00fd kraj - \u017dilinsk\u00fd kraj","source":"openstreetmap.org","sort_rank":256,"kind_detail":"4","name:left:de":"Neusohler Landschaftsverband","name:right:en":"Region of \u017dilina","name:left:en":"Region of Bansk\u00e1 Bystrica","name:right:de":"Silleiner Landschaftsverband","name:left":"Banskobystrick\u00fd kraj"},"arcs":[6]},{"type":"LineString","properties":{"name:right:nl":"Woiwodschap Klein-Polen","name:right:ja":"\u30de\u30a6\u30a9\u30dd\u30eb\u30b9\u30ab\u770c","name:right:fr":"Petite-Pologne","name:right:uk":"\u041c\u0430\u043b\u043e\u043f\u043e\u043b\u044c\u0441\u044c\u043a\u0435 \u0432\u043e\u0454\u0432\u043e\u0434\u0441\u0442\u0432\u043e","id:right":-224459,"min_zoom":8.0,"alt_name:right:en":"Ma\u0142opolska Province","name:left:hu":"Zsolnai ker\u00fclet","id":-388269,"name:right":"wojew\u00f3dztwo ma\u0142opolskie","name:left:en":"Region of \u017dilina","sort_rank":256,"kind_detail":"4","source":"openstreetmap.org","id:left":-388269,"name:right:cs":"Malopolsk\u00e9 vojvodstv\u00ed","name:left":"\u017dilinsk\u00fd kraj","name:right:es":"Voivodato de Peque\u00f1a Polonia","name:left:pl":"Kraj \u017cyli\u0144ski","kind":"region","name:right:ru":"\u041c\u0430\u043b\u043e\u043f\u043e\u043b\u044c\u0441\u043a\u043e\u0435 \u0432\u043e\u0435\u0432\u043e\u0434\u0441\u0442\u0432\u043e","name:left:ru":"\u0416\u0438\u043b\u0438\u043d\u0441\u043a\u0438\u0439 \u043a\u0440\u0430\u0439","short_name:right":"ma\u0142opolskie","name:right:eo":"Malgrandpollanda Provinco","name:right:en":"Lesser Poland Voivodeship","osm_relation":true,"loc_name:right":"Ma\u0142opolska","name":"\u017dilinsk\u00fd kraj - wojew\u00f3dztwo ma\u0142opolskie","name:right:de":"Woiwodschaft Kleinpolen","name:left:de":"Silleiner Landschaftsverband","name:right:be":"\u041c\u0430\u043b\u0430\u043f\u043e\u043b\u044c\u0441\u043a\u0430\u0435 \u0432\u0430\u044f\u0432\u043e\u0434\u0441\u0442\u0432\u0430","name:right:sl":"Malopoljsko vojvodstvo"},"arcs":[7]}]},"roads":{"type":"GeometryCollection","geometries":[{"type":"LineString","properties":{"kind":"major_road","network":"pl:national","sort_rank":380,"kind_detail":"primary","is_bicycle_related":true,"bicycle_shield_text":null,"bicycle_network":"rcn","source":"openstreetmap.org","min_zoom":8.0,"shield_text":"47","ref":"47"},"arcs":[23]},{"type":"LineString","properties":{"kind":"major_road","sort_rank":377,"kind_detail":"tertiary","is_bicycle_related":true,"bicycle_shield_text":"014","bicycle_network":"ncn","source":"openstreetmap.org","min_zoom":8.0,"ref":"3223","id":244340336},"arcs":[24]},{"type":"MultiLineString","properties":{"kind":"highway","network":"sk:national","sort_rank":383,"landuse_kind":"urban_area","source":"openstreetmap.org","min_zoom":8.0,"all_networks":["sk:national","e-road"],"kind_detail":"motorway","shield_text":"1","ref":"D1","all_shield_texts":["1","50"]},"arcs":[[25],[26]]},{"type":"MultiLineString","properties":{"kind":"major_road","network":"pl:national","sort_rank":380,"kind_detail":"primary","source":"openstreetmap.org","min_zoom":8.0,"landuse_kind":"residential","shield_text":"28","ref":"28"},"arcs":[[27],[28]]},{"type":"MultiLineString","properties":{"kind":"major_road","network":"pl:national","sort_rank":380,"kind_detail":"primary","is_bicycle_related":true,"cycleway":"lane","source":"openstreetmap.org","min_zoom":8.0,"landuse_kind":"urban_area","shield_text":"28","ref":"28"},"arcs":[[29],[30]]},{"type":"MultiLineString","properties":{"kind":"major_road","sort_rank":377,"kind_detail":"tertiary","is_bicycle_related":true,"bicycle_shield_text":"035","bicycle_network":"ncn","source":"openstreetmap.org","min_zoom":8.0,"ref":"2356"},"arcs":[[31],[32]]},{"type":"LineString","properties":{"bus_network":"MHD Poprad","sort_rank":380,"kind_detail":"primary","kind":"major_road","source":"openstreetmap.org","min_zoom":8.0,"bus_shield_text":"3","landuse_kind":"residential","ref":"66"},"arcs":[33]},{"type":"LineString","properties":{"bus_network":"MHD Poprad","sort_rank":380,"kind_detail":"primary","kind":"major_road","source":"openstreetmap.org","min_zoom":8.0,"bus_shield_text":"2","ref":"66A"},"arcs":[34]},{"type":"LineString","properties":{"kind":"major_road","sort_rank":380,"kind_detail":"primary","is_bicycle_related":true,"bicycle_shield_text":"035","bicycle_network":"ncn","source":"openstreetmap.org","min_zoom":8.0,"ref":"72","id":274295142},"arcs":[35]},{"type":"LineString","properties":{"kind":"path","sort_rank":354,"kind_detail":"cycleway","is_bicycle_related":true,"bicycle_shield_text":"014","bicycle_network":"ncn","source":"openstreetmap.org","min_zoom":8.0,"id":306085162},"arcs":[36]},{"type":"MultiLineString","properties":{"kind":"path","sort_rank":354,"kind_detail":"track","is_bicycle_related":true,"bicycle_shield_text":"R11","bicycle_network":"icn","source":"openstreetmap.org","min_zoom":8.0},"arcs":[[37],[38],[39],[40],[41]]},{"type":"MultiLineString","properties":{"kind":"minor_road","sort_rank":360,"kind_detail":"unclassified","is_bicycle_related":true,"bicycle_shield_text":"R11","bicycle_network":"icn","source":"openstreetmap.org","min_zoom":8.0},"arcs":[[42],[43],[44],[45],[46],[47],[48],[49],[50],[51]]},{"type":"MultiLineString","properties":{"bus_network":"MHD Poprad","sort_rank":380,"landuse_kind":"residential","is_bicycle_related":true,"kind":"major_road","bicycle_shield_text":"008","bicycle_network":"ncn","source":"openstreetmap.org","min_zoom":8.0,"bus_shield_text":"1","kind_detail":"primary","ref":"66"},"arcs":[[52],[53],[54]]},{"type":"LineString","properties":{"kind":"minor_road","sort_rank":358,"kind_detail":"service","is_bicycle_related":true,"bicycle_shield_text":"R11","bicycle_network":"icn","source":"openstreetmap.org","min_zoom":8.0,"landuse_kind":"nature_reserve","id":330197181},"arcs":[55]},{"type":"LineString","properties":{"kind":"major_road","sort_rank":377,"kind_detail":"tertiary","is_bicycle_related":true,"bicycle_shield_text":"014","bicycle_network":"ncn","source":"openstreetmap.org","min_zoom":8.0,"ref":"3092"},"arcs":[56]},{"type":"LineString","properties":{"kind":"major_road","sort_rank":380,"kind_detail":"primary","is_bicycle_related":true,"bicycle_shield_text":"2889","bicycle_network":"rcn","source":"openstreetmap.org","min_zoom":8.0,"ref":"68;77"},"arcs":[57]},{"type":"MultiLineString","properties":{"source":"openstreetmap.org","kind":"major_road","sort_rank":380,"kind_detail":"primary","ref":"68","min_zoom":8.0},"arcs":[[58],[59],[60],[61],[62],[63],[64],[65],[66],[67],[68],[69],[70],[71],[72],[73],[74]]},{"type":"LineString","properties":{"kind":"major_road","network":"pl:national","sort_rank":380,"kind_detail":"primary","source":"openstreetmap.org","min_zoom":8.0,"landuse_kind":"urban_area","shield_text":"75","id":345297845},"arcs":[75]},{"type":"LineString","properties":{"kind":"minor_road","sort_rank":360,"kind_detail":"unclassified","is_bicycle_related":true,"bicycle_shield_text":"014","bicycle_network":"ncn","source":"openstreetmap.org","min_zoom":8.0},"arcs":[76]},{"type":"MultiLineString","properties":{"kind":"major_road","network":"pl:national","sort_rank":380,"kind_detail":"primary","source":"openstreetmap.org","min_zoom":8.0,"landuse_kind":"urban_area","shield_text":"87","ref":"87"},"arcs":[[77],[78],[79],[80],[81],[82]]},{"type":"MultiLineString","properties":{"source":"openstreetmap.org","kind":"major_road","sort_rank":380,"kind_detail":"primary","ref":"68;77","min_zoom":8.0},"arcs":[[83],[84]]},{"type":"LineString","properties":{"kind":"minor_road","sort_rank":360,"kind_detail":"residential","is_bicycle_related":true,"bicycle_shield_text":"006","bicycle_network":"ncn","source":"openstreetmap.org","min_zoom":8.0,"id":33545184},"arcs":[85]},{"type":"LineString","properties":{"kind":"path","sort_rank":354,"kind_detail":"track","is_bicycle_related":true,"bicycle_shield_text":"008","bicycle_network":"ncn","source":"openstreetmap.org","min_zoom":8.0},"arcs":[86]},{"type":"LineString","properties":{"kind":"major_road","network":"pl:national","sort_rank":380,"kind_detail":"primary","source":"openstreetmap.org","min_zoom":8.0,"shield_text":"7","ref":"7;957"},"arcs":[87]},{"type":"LineString","properties":{"kind":"major_road","name:hu":"Szabads\u00e1g-\u00fat","sort_rank":380,"kind_detail":"primary","is_bicycle_related":true,"bicycle_shield_text":"007","bicycle_network":"ncn","source":"openstreetmap.org","min_zoom":8.0,"landuse_kind":"national_park","name:pl":"Droga Wolno\u015bci","name:de":"Freiheitsstrasse","ref":"66"},"arcs":[88]},{"type":"MultiLineString","properties":{"sort_rank":380,"kind_detail":"primary","min_zoom":8.0,"kind":"major_road","source":"openstreetmap.org"},"arcs":[[89],[90]]},{"type":"MultiLineString","properties":{"kind":"major_road","name:hu":"Szabads\u00e1g-\u00fat","sort_rank":380,"kind_detail":"primary","is_bicycle_related":true,"bicycle_shield_text":"007","bicycle_network":"ncn","source":"openstreetmap.org","min_zoom":8.0,"name:pl":"Droga Wolno\u015bci","name:de":"Freiheitsstrasse","ref":"66"},"arcs":[[91],[92],[93]]},{"type":"LineString","properties":{"kind":"major_road","sort_rank":377,"kind_detail":"tertiary","is_bicycle_related":true,"bicycle_shield_text":"014","bicycle_network":"ncn","source":"openstreetmap.org","min_zoom":8.0,"landuse_kind":"park","ref":"3250","id":356959444},"arcs":[94]},{"type":"LineString","properties":{"kind":"major_road","sort_rank":377,"kind_detail":"tertiary","is_bicycle_related":true,"bicycle_shield_text":"014","bicycle_network":"ncn","source":"openstreetmap.org","min_zoom":8.0,"ref":"3261"},"arcs":[95]},{"type":"MultiLineString","properties":{"kind":"minor_road","sort_rank":360,"landuse_kind":"urban_area","is_bicycle_related":true,"bicycle_shield_text":"R11","bicycle_network":"icn","source":"openstreetmap.org","min_zoom":8.0,"kind_detail":"residential"},"arcs":[[96],[97],[98],[99],[100],[101],[102]]},{"type":"LineString","properties":{"kind":"major_road","sort_rank":379,"kind_detail":"secondary","is_bicycle_related":true,"bicycle_shield_text":"2882","bicycle_network":"ncn","source":"openstreetmap.org","min_zoom":8.0,"ref":"546"},"arcs":[103]},{"type":"LineString","properties":{"kind":"major_road","sort_rank":380,"kind_detail":"primary","bus_network":"MHD Poprad","source":"openstreetmap.org","min_zoom":8.0,"bus_shield_text":"4","landuse_kind":"residential","ref":"66","id":28022143},"arcs":[104]},{"type":"LineString","properties":{"kind":"path","sort_rank":354,"kind_detail":"footway","is_bicycle_related":true,"bicycle_shield_text":"014","bicycle_network":"ncn","source":"openstreetmap.org","min_zoom":8.0,"landuse_kind":"urban_area","id":389240994},"arcs":[105]},{"type":"LineString","properties":{"kind":"major_road","sort_rank":379,"kind_detail":"secondary","is_bicycle_related":true,"bicycle_shield_text":"007","bicycle_network":"ncn","source":"openstreetmap.org","min_zoom":8.0,"landuse_kind":"park","ref":"537"},"arcs":[106]},{"type":"LineString","properties":{"kind":"major_road","sort_rank":380,"kind_detail":"primary","is_bicycle_related":true,"bicycle_shield_text":"8434","bicycle_network":"rcn","source":"openstreetmap.org","min_zoom":8.0,"ref":"72","id":242200772},"arcs":[107]},{"type":"LineString","properties":{"kind":"minor_road","sort_rank":358,"kind_detail":"service","is_bicycle_related":true,"bicycle_shield_text":"035","bicycle_network":"ncn","source":"openstreetmap.org","min_zoom":8.0,"id":23464151},"arcs":[108]},{"type":"MultiLineString","properties":{"kind":"minor_road","sort_rank":360,"kind_detail":"unclassified","is_bicycle_related":true,"bicycle_shield_text":"040","bicycle_network":"ncn","source":"openstreetmap.org","min_zoom":8.0,"landuse_kind":"park"},"arcs":[[109],[110],[111],[112]]},{"type":"LineString","properties":{"kind":"major_road","sort_rank":380,"kind_detail":"primary","is_bicycle_related":true,"bicycle_shield_text":"2869","bicycle_network":"rcn","source":"openstreetmap.org","min_zoom":8.0,"ref":"66"},"arcs":[113]},{"type":"MultiLineString","properties":{"bus_network":"MHD Poprad","sort_rank":380,"kind_detail":"primary","kind":"major_road","source":"openstreetmap.org","min_zoom":8.0,"bus_shield_text":"1","landuse_kind":"residential","ref":"66"},"arcs":[[114],[115],[116],[117]]},{"type":"LineString","properties":{"kind":"major_road","sort_rank":377,"kind_detail":"tertiary","is_bicycle_related":true,"bicycle_shield_text":"014","bicycle_network":"ncn","source":"openstreetmap.org","min_zoom":8.0,"ref":"3243"},"arcs":[118]},{"type":"LineString","properties":{"kind":"major_road","sort_rank":380,"kind_detail":"primary","is_bicycle_related":true,"source":"openstreetmap.org","min_zoom":8.0,"ref":"66","id":166138569},"arcs":[119]},{"type":"MultiLineString","properties":{"kind":"major_road","sort_rank":377,"kind_detail":"tertiary","is_bicycle_related":true,"bicycle_shield_text":"R11","bicycle_network":"icn","source":"openstreetmap.org","min_zoom":8.0,"ref":"1449K"},"arcs":[[120],[121]]},{"type":"MultiLineString","properties":{"source":"openstreetmap.org","kind":"major_road","landuse_kind":"residential","sort_rank":380,"kind_detail":"primary","ref":"18","min_zoom":8.0},"arcs":[[122],[123],[124]]},{"type":"MultiLineString","properties":{"kind":"major_road","network":"pl:national","sort_rank":380,"kind_detail":"primary","source":"openstreetmap.org","min_zoom":8.0,"shield_text":"87","ref":"87"},"arcs":[[125],[126],[127],[128],[129]]},{"type":"LineString","properties":{"source":"openstreetmap.org","kind":"major_road","landuse_kind":"urban_area","sort_rank":380,"kind_detail":"primary","ref":"28","min_zoom":8.0},"arcs":[130]},{"type":"LineString","properties":{"kind":"major_road","sort_rank":377,"kind_detail":"tertiary","is_bicycle_related":true,"bicycle_shield_text":"R11","bicycle_network":"icn","source":"openstreetmap.org","min_zoom":8.0,"ref":"1561 K","id":183561965},"arcs":[131]},{"type":"LineString","properties":{"kind":"minor_road","sort_rank":358,"kind_detail":"service","is_bicycle_related":true,"bicycle_shield_text":"R11","bicycle_network":"icn","source":"openstreetmap.org","min_zoom":8.0,"id":122562410},"arcs":[132]},{"type":"LineString","properties":{"bus_network":null,"sort_rank":380,"kind_detail":"primary","kind":"major_road","source":"openstreetmap.org","min_zoom":8.0,"bus_shield_text":"706404","landuse_kind":"urban_area","ref":"18"},"arcs":[133]},{"type":"LineString","properties":{"kind":"major_road","sort_rank":380,"kind_detail":"primary","is_bicycle_related":true,"bicycle_shield_text":"2887","bicycle_network":"rcn","source":"openstreetmap.org","min_zoom":8.0,"ref":"66","id":324825499},"arcs":[134]},{"type":"MultiLineString","properties":{"kind":"path","sort_rank":354,"kind_detail":"track","is_bicycle_related":true,"bicycle_shield_text":"007","bicycle_network":"ncn","source":"openstreetmap.org","min_zoom":8.0,"landuse_kind":"park"},"arcs":[[135],[136]]},{"type":"LineString","properties":{"kind":"major_road","sort_rank":377,"kind_detail":"tertiary","is_bicycle_related":true,"bicycle_shield_text":"014","bicycle_network":"ncn","source":"openstreetmap.org","min_zoom":8.0,"ref":"3148","id":23428617},"arcs":[137]},{"type":"LineString","properties":{"kind":"major_road","sort_rank":377,"kind_detail":"tertiary","is_bicycle_related":true,"bicycle_shield_text":"014","bicycle_network":"ncn","source":"openstreetmap.org","min_zoom":8.0,"ref":"3241"},"arcs":[138]},{"type":"MultiLineString","properties":{"kind":"major_road","sort_rank":380,"kind_detail":"primary","is_bicycle_related":true,"bicycle_shield_text":"014","bicycle_network":"ncn","source":"openstreetmap.org","min_zoom":8.0,"ref":"66"},"arcs":[[139],[140],[141]]},{"type":"LineString","properties":{"kind":"minor_road","sort_rank":360,"kind_detail":"unclassified","is_bicycle_related":true,"bicycle_shield_text":"008","bicycle_network":"ncn","source":"openstreetmap.org","min_zoom":8.0},"arcs":[142]},{"type":"LineString","properties":{"kind":"major_road","sort_rank":377,"kind_detail":"tertiary","is_bicycle_related":true,"bicycle_shield_text":"R11","bicycle_network":"icn","source":"openstreetmap.org","min_zoom":8.0,"ref":"1514K"},"arcs":[143]},{"type":"LineString","properties":{"kind":"major_road","sort_rank":377,"kind_detail":"tertiary","is_bicycle_related":true,"bicycle_shield_text":"014","bicycle_network":"ncn","source":"openstreetmap.org","min_zoom":8.0,"ref":"3259"},"arcs":[144]},{"type":"LineString","properties":{"kind":"major_road","network":"pl:national","sort_rank":380,"kind_detail":"primary","source":"openstreetmap.org","min_zoom":8.0,"shield_text":"47","ref":"7;47","id":181661500},"arcs":[145]},{"type":"LineString","properties":{"kind":"minor_road","sort_rank":360,"kind_detail":"residential","is_bicycle_related":true,"bicycle_shield_text":"008","bicycle_network":"ncn","source":"openstreetmap.org","min_zoom":8.0,"id":92484175},"arcs":[146]},{"type":"LineString","properties":{"kind":"path","sort_rank":354,"kind_detail":"path","is_bicycle_related":true,"bicycle_shield_text":"R11","bicycle_network":"icn","source":"openstreetmap.org","min_zoom":8.0},"arcs":[147]},{"type":"LineString","properties":{"kind":"major_road","sort_rank":379,"kind_detail":"secondary","is_bicycle_related":true,"bicycle_shield_text":"014","bicycle_network":"ncn","source":"openstreetmap.org","min_zoom":8.0},"arcs":[148]},{"type":"MultiLineString","properties":{"kind":"major_road","sort_rank":380,"kind_detail":"primary","bicycle_shield_text":"5852","bicycle_network":"nwn","source":"openstreetmap.org","min_zoom":8.0,"ref":"68"},"arcs":[[149],[150]]},{"type":"MultiLineString","properties":{"kind":"path","sort_rank":354,"landuse_kind":"urban_area","is_bicycle_related":true,"bicycle_shield_text":"R11","bicycle_network":"icn","source":"openstreetmap.org","min_zoom":8.0,"kind_detail":"track"},"arcs":[[151],[152]]},{"type":"MultiLineString","properties":{"source":"openstreetmap.org","kind":"major_road","sort_rank":380,"kind_detail":"primary","ref":"72","min_zoom":8.0},"arcs":[[153],[154],[155],[156]]},{"type":"LineString","properties":{"kind":"major_road","sort_rank":377,"kind_detail":"tertiary","is_bicycle_related":true,"bicycle_shield_text":"014","bicycle_network":"ncn","source":"openstreetmap.org","min_zoom":8.0,"ref":"3225"},"arcs":[157]},{"type":"LineString","properties":{"kind":"path","sort_rank":354,"landuse_kind":"urban_area","is_bicycle_related":true,"bicycle_shield_text":"R11","bicycle_network":"icn","source":"openstreetmap.org","min_zoom":8.0,"kind_detail":"path"},"arcs":[158]},{"type":"MultiLineString","properties":{"source":"openstreetmap.org","kind":"major_road","landuse_kind":"urban_area","sort_rank":380,"kind_detail":"primary","ref":"66","min_zoom":8.0},"arcs":[[159],[160]]},{"type":"LineString","properties":{"kind":"major_road","sort_rank":377,"kind_detail":"tertiary","is_bicycle_related":true,"bicycle_shield_text":"008","bicycle_network":"ncn","source":"openstreetmap.org","min_zoom":8.0,"ref":"3061"},"arcs":[161]},{"type":"LineString","properties":{"kind":"major_road","sort_rank":380,"kind_detail":"primary","is_bicycle_related":true,"bicycle_shield_text":"5901","bicycle_network":"rcn","source":"openstreetmap.org","min_zoom":8.0,"ref":"77"},"arcs":[162]},{"type":"MultiLineString","properties":{"kind":"highway","network":"sk:national","sort_rank":383,"kind_detail":"motorway","source":"openstreetmap.org","min_zoom":8.0,"all_networks":["sk:national","e-road"],"shield_text":"1","ref":"D1","all_shield_texts":["1","50"]},"arcs":[[163],[164],[165],[166],[167],[168],[169],[170],[171],[172],[173],[174],[175],[176],[177],[178],[179],[180],[181]]},{"type":"MultiLineString","properties":{"kind":"major_road","sort_rank":377,"landuse_kind":"nature_reserve","is_bicycle_related":true,"bicycle_shield_text":"R11","bicycle_network":"icn","source":"openstreetmap.org","min_zoom":8.0,"kind_detail":"tertiary"},"arcs":[[182],[183],[184]]},{"type":"MultiLineString","properties":{"kind":"major_road","sort_rank":379,"kind_detail":"secondary","is_bicycle_related":true,"bicycle_shield_text":"014","bicycle_network":"ncn","source":"openstreetmap.org","min_zoom":8.0,"landuse_kind":"park","ref":"543"},"arcs":[[185],[186],[187]]},{"type":"MultiLineString","properties":{"source":"openstreetmap.org","kind":"major_road","sort_rank":380,"kind_detail":"primary","ref":"77A","min_zoom":8.0},"arcs":[[188],[189]]},{"type":"LineString","properties":{"source":"openstreetmap.org","kind":"major_road","network":"pl:national","sort_rank":380,"kind_detail":"primary","min_zoom":8.0,"shield_text":"75"},"arcs":[190]},{"type":"LineString","properties":{"kind":"major_road","network":"pl:national","sort_rank":380,"kind_detail":"primary","source":"openstreetmap.org","min_zoom":8.0,"landuse_kind":"park","shield_text":"49","ref":"49","id":500662621},"arcs":[191]},{"type":"MultiLineString","properties":{"kind":"major_road","network":"pl:national","sort_rank":380,"kind_detail":"primary","is_bicycle_related":true,"bicycle_shield_text":null,"bicycle_network":"rcn","source":"openstreetmap.org","min_zoom":8.0,"shield_text":"75","ref":"75"},"arcs":[[192],[193]]},{"type":"MultiLineString","properties":{"kind":"minor_road","sort_rank":360,"landuse_kind":"residential","is_bicycle_related":true,"bicycle_shield_text":"008","bicycle_network":"ncn","source":"openstreetmap.org","min_zoom":8.0,"kind_detail":"residential"},"arcs":[[194],[195],[196],[197],[198],[199]]},{"type":"MultiLineString","properties":{"kind":"major_road","network":"pl:regional","sort_rank":379,"landuse_kind":"nature_reserve","is_bicycle_related":true,"bicycle_shield_text":"R11","bicycle_network":"icn","source":"openstreetmap.org","min_zoom":8.0,"kind_detail":"secondary","shield_text":"971","ref":"971"},"arcs":[[200],[201],[202],[203],[204],[205]]},{"type":"MultiLineString","properties":{"kind":"major_road","network":"pl:national","sort_rank":380,"kind_detail":"primary","source":"openstreetmap.org","min_zoom":8.0,"shield_text":"47","ref":"47"},"arcs":[[206],[207],[208],[209],[210],[211],[212],[213],[214],[215],[216],[217],[218],[219],[220],[221],[222],[223]]},{"type":"MultiLineString","properties":{"source":"openstreetmap.org","kind":"major_road","landuse_kind":"urban_area","sort_rank":380,"kind_detail":"primary","ref":"1599K","min_zoom":8.0},"arcs":[[224],[225]]},{"type":"LineString","properties":{"kind":"major_road","network":"pl:national","sort_rank":380,"kind_detail":"primary","is_bicycle_related":true,"bicycle_shield_text":null,"bicycle_network":"rcn","source":"openstreetmap.org","min_zoom":8.0,"shield_text":"28","ref":"28"},"arcs":[226]},{"type":"MultiLineString","properties":{"kind":"minor_road","sort_rank":358,"kind_detail":"service","is_bicycle_related":true,"bicycle_shield_text":"014","bicycle_network":"ncn","source":"openstreetmap.org","min_zoom":8.0},"arcs":[[227],[228],[229],[230],[231]]},{"type":"MultiLineString","properties":{"kind":"minor_road","sort_rank":360,"landuse_kind":"residential","is_bicycle_related":true,"bicycle_shield_text":"014","bicycle_network":"ncn","source":"openstreetmap.org","min_zoom":8.0,"kind_detail":"residential"},"arcs":[[232],[233],[234]]},{"type":"MultiLineString","properties":{"kind":"minor_road","sort_rank":360,"kind_detail":"residential","is_bicycle_related":true,"bicycle_shield_text":"R11","bicycle_network":"icn","source":"openstreetmap.org","min_zoom":8.0,"landuse_kind":"nature_reserve"},"arcs":[[235],[236],[237],[238],[239]]},{"type":"MultiLineString","properties":{"kind":"major_road","sort_rank":379,"kind_detail":"secondary","is_bicycle_related":true,"bicycle_shield_text":"014","bicycle_network":"ncn","source":"openstreetmap.org","min_zoom":8.0,"ref":"536"},"arcs":[[240],[241],[242],[243],[244]]},{"type":"MultiLineString","properties":{"kind":"minor_road","sort_rank":360,"kind_detail":"residential","is_bicycle_related":true,"bicycle_shield_text":"035","bicycle_network":"ncn","source":"openstreetmap.org","min_zoom":8.0},"arcs":[[245],[246],[247],[248],[249]]},{"type":"LineString","properties":{"kind":"major_road","sort_rank":380,"kind_detail":"primary","is_bicycle_related":true,"bicycle_shield_text":"2432","bicycle_network":"rcn","source":"openstreetmap.org","min_zoom":8.0,"ref":"72","id":403831860},"arcs":[250]},{"type":"LineString","properties":{"kind":"major_road","sort_rank":380,"kind_detail":"primary","is_bicycle_related":true,"bicycle_shield_text":"035","bicycle_network":"ncn","source":"openstreetmap.org","min_zoom":8.0,"ref":"18"},"arcs":[251]},{"type":"MultiLineString","properties":{"kind":"path","sort_rank":354,"kind_detail":"track","is_bicycle_related":true,"bicycle_shield_text":"007","bicycle_network":"ncn","source":"openstreetmap.org","min_zoom":8.0},"arcs":[[252],[253],[254],[255]]},{"type":"LineString","properties":{"kind":"major_road","sort_rank":380,"kind_detail":"primary","is_bicycle_related":true,"bicycle_shield_text":"5750C;5894","bicycle_network":"rcn","source":"openstreetmap.org","min_zoom":8.0,"ref":"18","id":237179048},"arcs":[256]},{"type":"LineString","properties":{"cycleway_right":"lane","network":"pl:national","sort_rank":380,"kind_detail":"primary","is_bicycle_related":true,"kind":"major_road","source":"openstreetmap.org","min_zoom":8.0,"landuse_kind":"urban_area","shield_text":"28","ref":"28"},"arcs":[257]},{"type":"LineString","properties":{"kind":"major_road","sort_rank":377,"kind_detail":"tertiary","is_bicycle_related":true,"bicycle_shield_text":"014","bicycle_network":"ncn","source":"openstreetmap.org","min_zoom":8.0,"ref":"3204"},"arcs":[258]},{"type":"MultiLineString","properties":{"kind":"major_road","sort_rank":377,"landuse_kind":"nature_reserve","is_bicycle_related":true,"bicycle_shield_text":"R11","bicycle_network":"icn","source":"openstreetmap.org","min_zoom":8.0,"kind_detail":"tertiary","ref":"1514K"},"arcs":[[259],[260],[261],[262],[263],[264]]},{"type":"LineString","properties":{"kind":"major_road","network":"pl:national","sort_rank":380,"kind_detail":"primary","source":"openstreetmap.org","min_zoom":8.0,"landuse_kind":"residential","shield_text":"28","ref":"28;981","id":174337507},"arcs":[265]},{"type":"LineString","properties":{"kind":"path","sort_rank":354,"kind_detail":"footway","is_bicycle_related":true,"bicycle_shield_text":"014","bicycle_network":"ncn","source":"openstreetmap.org","min_zoom":8.0},"arcs":[266]},{"type":"MultiLineString","properties":{"kind":"major_road","network":"pl:national","sort_rank":380,"kind_detail":"primary","is_bicycle_related":true,"bicycle_shield_text":null,"bicycle_network":"lcn","source":"openstreetmap.org","min_zoom":8.0,"shield_text":"75","ref":"75"},"arcs":[[267],[268],[269],[270],[271]]},{"type":"LineString","properties":{"kind":"major_road","sort_rank":379,"kind_detail":"secondary","is_bicycle_related":true,"bicycle_shield_text":"006","bicycle_network":"ncn","source":"openstreetmap.org","min_zoom":8.0,"ref":"520","id":229379943},"arcs":[272]},{"type":"LineString","properties":{"kind":"major_road","sort_rank":380,"kind_detail":"primary","is_bicycle_related":true,"bicycle_shield_text":"5901","bicycle_network":"rcn","source":"openstreetmap.org","min_zoom":8.0,"ref":"68"},"arcs":[273]},{"type":"LineString","properties":{"source":"openstreetmap.org","kind":"ferry","name":"rejsy po jeziorze statkiem \"Harna\u015b\"","sort_rank":355,"min_zoom":8.0,"id":166871838},"arcs":[274]},{"type":"MultiLineString","properties":{"source":"openstreetmap.org","kind":"major_road","sort_rank":380,"kind_detail":"primary","ref":"77","min_zoom":8.0},"arcs":[[275],[276],[277],[278],[279],[280]]},{"type":"MultiLineString","properties":{"kind":"major_road","sort_rank":377,"kind_detail":"tertiary","is_bicycle_related":true,"bicycle_shield_text":"R11","bicycle_network":"icn","source":"openstreetmap.org","min_zoom":8.0},"arcs":[[281],[282],[283]]},{"type":"LineString","properties":{"bus_network":"MHD Poprad","sort_rank":380,"kind_detail":"primary","kind":"major_road","source":"openstreetmap.org","min_zoom":8.0,"bus_shield_text":"2","landuse_kind":"urban_area","ref":"66A"},"arcs":[284]},{"type":"MultiLineString","properties":{"source":"openstreetmap.org","kind":"ferry","name":"rejsy Czorsztyn-Niedzica - statki \"Dunajec\" i \"Halny\"","sort_rank":355,"min_zoom":8.0,"id":512659732},"arcs":[[285],[286]]},{"type":"MultiLineString","properties":{"kind":"path","sort_rank":354,"kind_detail":"track","is_bicycle_related":true,"bicycle_shield_text":"014","bicycle_network":"ncn","source":"openstreetmap.org","min_zoom":8.0},"arcs":[[287],[288],[289],[290],[291],[292],[293],[294],[295],[296],[297]]},{"type":"LineString","properties":{"kind":"path","sort_rank":354,"landuse_kind":"residential","is_bicycle_related":true,"bicycle_shield_text":"014","bicycle_network":"ncn","source":"openstreetmap.org","min_zoom":8.0,"kind_detail":"cycleway"},"arcs":[298]},{"type":"MultiLineString","properties":{"kind":"minor_road","short_name":"\u0160t\u00farovo n\u00e1br.","sort_rank":360,"kind_detail":"residential","is_bicycle_related":true,"bicycle_shield_text":"014","bicycle_network":"ncn","source":"openstreetmap.org","min_zoom":8.0,"landuse_kind":"residential"},"arcs":[[299],[300]]},{"type":"LineString","properties":{"kind":"major_road","name:hu":"Szabads\u00e1g-\u00fat","sort_rank":380,"landuse_kind":"protected_area","is_bicycle_related":true,"bicycle_shield_text":"007","bicycle_network":"ncn","source":"openstreetmap.org","min_zoom":8.0,"kind_detail":"primary","name:pl":"Droga Wolno\u015bci","name:de":"Freiheitsstrasse","ref":"66"},"arcs":[301]},{"type":"LineString","properties":{"kind":"major_road","sort_rank":380,"kind_detail":"primary","is_bicycle_related":true,"bicycle_shield_text":"2432","bicycle_network":"rcn","source":"openstreetmap.org","min_zoom":8.0,"ref":"18","id":295833137},"arcs":[302]},{"type":"LineString","properties":{"kind":"major_road","sort_rank":377,"kind_detail":"tertiary","is_bicycle_related":true,"bicycle_shield_text":"008","bicycle_network":"ncn","source":"openstreetmap.org","min_zoom":8.0,"ref":"3062"},"arcs":[303]},{"type":"LineString","properties":{"kind":"major_road","sort_rank":380,"kind_detail":"primary","is_bicycle_related":true,"bicycle_shield_text":"8896","bicycle_network":"rcn","source":"openstreetmap.org","min_zoom":8.0,"ref":"66","id":412525441},"arcs":[304]},{"type":"MultiLineString","properties":{"kind":"minor_road","sort_rank":360,"kind_detail":"unclassified","is_bicycle_related":true,"bicycle_shield_text":"035","bicycle_network":"ncn","source":"openstreetmap.org","min_zoom":8.0},"arcs":[[305],[306],[307],[308],[309],[310],[311],[312]]},{"type":"LineString","properties":{"kind":"major_road","sort_rank":377,"kind_detail":"tertiary","is_bicycle_related":true,"bicycle_shield_text":"014","bicycle_network":"ncn","source":"openstreetmap.org","min_zoom":8.0,"ref":"3216"},"arcs":[313]},{"type":"MultiLineString","properties":{"kind":"major_road","network":"pl:national","sort_rank":380,"kind_detail":"primary","source":"openstreetmap.org","min_zoom":8.0,"shield_text":"28","ref":"28"},"arcs":[[314],[315],[316],[317],[318],[319],[320],[321],[322],[323],[324],[325],[326],[327],[328],[329],[330],[331],[332],[333],[334],[335],[336],[337]]},{"type":"MultiLineString","properties":{"bus_network":"MHD Poprad","sort_rank":380,"kind_detail":"primary","kind":"major_road","source":"openstreetmap.org","min_zoom":8.0,"bus_shield_text":"2","landuse_kind":"residential","ref":"66"},"arcs":[[338],[339],[340],[341],[342]]},{"type":"LineString","properties":{"bus_network":"MHD Spi\u0161sk\u00e1 Nov\u00e1 Ves","sort_rank":377,"landuse_kind":"residential","is_bicycle_related":true,"kind":"major_road","bicycle_shield_text":"014","bicycle_network":"ncn","source":"openstreetmap.org","min_zoom":8.0,"bus_shield_text":"2","kind_detail":"tertiary","ref":"3248"},"arcs":[343]},{"type":"LineString","properties":{"kind":"major_road","sort_rank":377,"kind_detail":"tertiary","is_bicycle_related":true,"bicycle_shield_text":"014","bicycle_network":"ncn","source":"openstreetmap.org","min_zoom":8.0,"ref":"3214"},"arcs":[344]},{"type":"MultiLineString","properties":{"source":"openstreetmap.org","kind":"major_road","sort_rank":380,"kind_detail":"primary","ref":"28","min_zoom":8.0},"arcs":[[345],[346]]},{"type":"LineString","properties":{"source":"openstreetmap.org","kind":"major_road","landuse_kind":"urban_area","sort_rank":380,"kind_detail":"primary","ref":"68","min_zoom":8.0},"arcs":[347]},{"type":"LineString","properties":{"kind":"major_road","sort_rank":380,"kind_detail":"primary","is_bicycle_related":true,"bicycle_shield_text":"2891","bicycle_network":"rcn","source":"openstreetmap.org","min_zoom":8.0,"ref":"68;77"},"arcs":[348]},{"type":"LineString","properties":{"kind":"major_road","sort_rank":380,"kind_detail":"primary","is_bicycle_related":true,"bicycle_shield_text":"5873","bicycle_network":"rcn","source":"openstreetmap.org","min_zoom":8.0,"ref":"18"},"arcs":[349]},{"type":"MultiLineString","properties":{"kind":"minor_road","sort_rank":360,"kind_detail":"unclassified","is_bicycle_related":true,"bicycle_shield_text":"R11","bicycle_network":"icn","source":"openstreetmap.org","min_zoom":8.0,"landuse_kind":"urban_area"},"arcs":[[350],[351]]},{"type":"LineString","properties":{"kind":"major_road","sort_rank":377,"kind_detail":"tertiary","is_bicycle_related":true,"bicycle_shield_text":"034","bicycle_network":"ncn","source":"openstreetmap.org","min_zoom":8.0,"ref":"3069"},"arcs":[352]},{"type":"LineString","properties":{"bus_network":null,"sort_rank":380,"kind_detail":"primary","kind":"major_road","source":"openstreetmap.org","min_zoom":8.0,"bus_shield_text":"706404","landuse_kind":"residential","ref":"18"},"arcs":[353]},{"type":"LineString","properties":{"kind":"path","sort_rank":354,"landuse_kind":"urban_area","is_bicycle_related":true,"bicycle_shield_text":"R11","bicycle_network":"icn","source":"openstreetmap.org","min_zoom":8.0,"kind_detail":"footway"},"arcs":[354]},{"type":"LineString","properties":{"kind":"major_road","sort_rank":355,"kind_detail":"tertiary_link","is_bicycle_related":true,"bicycle_shield_text":"008","bicycle_network":"ncn","source":"openstreetmap.org","min_zoom":8.0,"is_link":true,"id":291719906},"arcs":[355]},{"type":"LineString","properties":{"kind":"highway","network":"sk:national","sort_rank":383,"kind_detail":"motorway","source":"openstreetmap.org","min_zoom":8.0,"all_networks":["sk:national","e-road"],"shield_text":"1","id":279073619,"all_shield_texts":["1","50"]},"arcs":[356]},{"type":"LineString","properties":{"kind":"major_road","sort_rank":377,"kind_detail":"tertiary","is_bicycle_related":true,"bicycle_shield_text":"014","bicycle_network":"ncn","source":"openstreetmap.org","min_zoom":8.0,"ref":"3260"},"arcs":[357]},{"type":"MultiLineString","properties":{"kind":"major_road","sort_rank":377,"kind_detail":"tertiary","is_bicycle_related":true,"bicycle_shield_text":"014","bicycle_network":"ncn","source":"openstreetmap.org","min_zoom":8.0,"ref":"3250"},"arcs":[[358],[359]]},{"type":"LineString","properties":{"kind":"minor_road","sort_rank":360,"kind_detail":"unclassified","is_bicycle_related":true,"bicycle_shield_text":"R11","bicycle_network":"icn","source":"openstreetmap.org","min_zoom":8.0,"landuse_kind":"nature_reserve"},"arcs":[360]},{"type":"MultiLineString","properties":{"kind":"major_road","name:hu":"Szabads\u00e1g-\u00fat","sort_rank":380,"kind_detail":"primary","is_bicycle_related":true,"bicycle_shield_text":"007","bicycle_network":"ncn","source":"openstreetmap.org","min_zoom":8.0,"landuse_kind":"park","name:pl":"Droga Wolno\u015bci","name:de":"Freiheitsstrasse","ref":"66"},"arcs":[[361],[362]]},{"type":"LineString","properties":{"source":"openstreetmap.org","kind":"major_road","sort_rank":380,"kind_detail":"primary","ref":"49","min_zoom":8.0,"id":330071854},"arcs":[363]},{"type":"LineString","properties":{"kind":"major_road","sort_rank":380,"kind_detail":"primary","is_bicycle_related":true,"bicycle_shield_text":"2710","bicycle_network":"rcn","source":"openstreetmap.org","min_zoom":8.0,"ref":"18","id":237179047},"arcs":[364]},{"type":"MultiLineString","properties":{"kind":"major_road","network":"pl:national","sort_rank":380,"kind_detail":"primary","source":"openstreetmap.org","min_zoom":8.0,"landuse_kind":"nature_reserve","shield_text":"87","ref":"87"},"arcs":[[365],[366],[367],[368],[369],[370]]},{"type":"LineString","properties":{"kind":"minor_road","sort_rank":360,"kind_detail":"unclassified","is_bicycle_related":true,"bicycle_shield_text":"007","bicycle_network":"ncn","source":"openstreetmap.org","min_zoom":8.0},"arcs":[371]},{"type":"MultiLineString","properties":{"kind":"major_road","network":"pl:regional","sort_rank":379,"kind_detail":"secondary","is_bicycle_related":true,"bicycle_shield_text":"R11","bicycle_network":"icn","source":"openstreetmap.org","min_zoom":8.0,"shield_text":"971","ref":"971"},"arcs":[[372],[373],[374],[375],[376]]},{"type":"LineString","properties":{"kind":"major_road","sort_rank":377,"kind_detail":"tertiary","is_bicycle_related":true,"bicycle_shield_text":"006","bicycle_network":"ncn","source":"openstreetmap.org","min_zoom":8.0,"ref":"2311"},"arcs":[377]},{"type":"LineString","properties":{"kind":"major_road","network":"pl:national","sort_rank":380,"kind_detail":"primary","source":"openstreetmap.org","min_zoom":8.0,"shield_text":"47","id":26552177},"arcs":[378]},{"type":"LineString","properties":{"kind":"major_road","sort_rank":377,"kind_detail":"tertiary","is_bicycle_related":true,"bicycle_shield_text":"014","bicycle_network":"ncn","source":"openstreetmap.org","min_zoom":8.0,"landuse_kind":"urban_area","ref":"3244","id":10369961},"arcs":[379]},{"type":"LineString","properties":{"bus_network":"MHD Spi\u0161sk\u00e1 Nov\u00e1 Ves","sort_rank":377,"landuse_kind":"urban_area","is_bicycle_related":true,"kind":"major_road","bicycle_shield_text":"014","bicycle_network":"ncn","source":"openstreetmap.org","min_zoom":8.0,"bus_shield_text":"9","kind_detail":"tertiary","ref":"3244"},"arcs":[380]},{"type":"LineString","properties":{"kind":"major_road","sort_rank":380,"landuse_kind":"park","source":"openstreetmap.org","min_zoom":8.0,"kind_detail":"primary","ref":"72","id":242200774},"arcs":[381]},{"type":"LineString","properties":{"kind":"major_road","network":"e-road","sort_rank":380,"kind_detail":"primary","source":"openstreetmap.org","min_zoom":8.0,"shield_text":"77","ref":"7","id":105078872},"arcs":[382]},{"type":"MultiLineString","properties":{"kind":"path","sort_rank":354,"kind_detail":"path","is_bicycle_related":true,"bicycle_shield_text":"007","bicycle_network":"ncn","source":"openstreetmap.org","min_zoom":8.0},"arcs":[[383],[384],[385],[386]]},{"type":"LineString","properties":{"kind":"major_road","sort_rank":380,"landuse_kind":"urban_area","source":"openstreetmap.org","min_zoom":8.0,"kind_detail":"primary","ref":"75","id":75084207},"arcs":[387]},{"type":"LineString","properties":{"kind":"major_road","sort_rank":380,"kind_detail":"primary","is_bicycle_related":true,"bus_network":"MHD Poprad","bicycle_shield_text":"008","bicycle_network":"ncn","source":"openstreetmap.org","min_zoom":8.0,"bus_shield_text":"4","landuse_kind":"residential","ref":"66","id":397234722},"arcs":[388]},{"type":"MultiLineString","properties":{"kind":"major_road","sort_rank":379,"kind_detail":"secondary","is_bicycle_related":true,"bicycle_shield_text":"014","bicycle_network":"ncn","source":"openstreetmap.org","min_zoom":8.0,"ref":"543"},"arcs":[[389],[390],[391],[392]]},{"type":"LineString","properties":{"kind":"major_road","network":"sk:national","sort_rank":381,"kind_detail":"trunk","name:de":"Branisko-Tunnel","source":"openstreetmap.org","min_zoom":8.0,"shield_text":"1","ref":"D1","id":4342806},"arcs":[393]},{"type":"LineString","properties":{"kind":"major_road","sort_rank":377,"kind_detail":"tertiary","is_bicycle_related":true,"bicycle_shield_text":"035","bicycle_network":"ncn","source":"openstreetmap.org","min_zoom":8.0,"ref":"2341"},"arcs":[394]},{"type":"LineString","properties":{"kind":"major_road","sort_rank":380,"landuse_kind":"urban_area","source":"openstreetmap.org","min_zoom":8.0,"kind_detail":"primary","ref":"18","id":23787276},"arcs":[395]},{"type":"LineString","properties":{"kind":"major_road","network":"pl:regional","sort_rank":379,"kind_detail":"secondary","is_bicycle_related":true,"bicycle_shield_text":"R11","bicycle_network":"icn","source":"openstreetmap.org","min_zoom":8.0,"shield_text":"975","ref":"975","id":173451740},"arcs":[396]},{"type":"LineString","properties":{"kind":"major_road","sort_rank":380,"kind_detail":"primary","is_bicycle_related":true,"bicycle_shield_text":"5454","bicycle_network":"rcn","source":"openstreetmap.org","min_zoom":8.0,"ref":"18"},"arcs":[397]},{"type":"LineString","properties":{"source":"openstreetmap.org","kind":"ferry","name":"gondole Czorsztyn - Niedzica","sort_rank":355,"min_zoom":8.0,"id":111544471},"arcs":[398]},{"type":"LineString","properties":{"kind":"path","sort_rank":354,"kind_detail":"track","is_bicycle_related":true,"bicycle_shield_text":"006","bicycle_network":"ncn","source":"openstreetmap.org","min_zoom":8.0},"arcs":[399]},{"type":"MultiLineString","properties":{"kind":"minor_road","sort_rank":360,"kind_detail":"unclassified","is_bicycle_related":true,"bicycle_shield_text":"035","bicycle_network":"ncn","source":"openstreetmap.org","min_zoom":8.0,"landuse_kind":"park"},"arcs":[[400],[401],[402],[403]]},{"type":"MultiLineString","properties":{"kind":"major_road","network":"pl:national","sort_rank":380,"kind_detail":"primary","source":"openstreetmap.org","min_zoom":8.0,"shield_text":"75","ref":"75"},"arcs":[[404],[405],[406],[407],[408],[409],[410],[411],[412],[413]]},{"type":"LineString","properties":{"kind":"minor_road","sort_rank":360,"kind_detail":"unclassified","is_bicycle_related":true,"bicycle_shield_text":"014","bicycle_network":"ncn","source":"openstreetmap.org","min_zoom":8.0,"landuse_kind":"park"},"arcs":[414]},{"type":"MultiLineString","properties":{"kind":"major_road","name:hu":"Szabads\u00e1g-\u00fat","sort_rank":379,"kind_detail":"secondary","is_bicycle_related":true,"bicycle_shield_text":"007","bicycle_network":"ncn","source":"openstreetmap.org","min_zoom":8.0,"landuse_kind":"park","name:pl":"Droga Wolno\u015bci","name:de":"Freiheitsstrasse","ref":"537"},"arcs":[[415],[416],[417],[418],[419]]},{"type":"MultiLineString","properties":{"bus_network":"MHD Spi\u0161sk\u00e1 Nov\u00e1 Ves","sort_rank":377,"landuse_kind":"residential","is_bicycle_related":true,"kind":"major_road","bicycle_shield_text":"014","bicycle_network":"ncn","source":"openstreetmap.org","min_zoom":8.0,"bus_shield_text":"9","kind_detail":"tertiary","ref":"3244"},"arcs":[[420],[421]]},{"type":"LineString","properties":{"kind":"major_road","sort_rank":377,"kind_detail":"tertiary","is_bicycle_related":true,"bicycle_shield_text":"R11","bicycle_network":"icn","source":"openstreetmap.org","min_zoom":8.0,"ref":"1562 K"},"arcs":[422]},{"type":"MultiLineString","properties":{"kind":"path","sort_rank":354,"kind_detail":"path","is_bicycle_related":true,"bicycle_shield_text":"035","bicycle_network":"ncn","source":"openstreetmap.org","min_zoom":8.0},"arcs":[[423],[424],[425]]},{"type":"MultiLineString","properties":{"bus_network":"MHD Poprad","sort_rank":380,"kind_detail":"primary","kind":"major_road","source":"openstreetmap.org","min_zoom":8.0,"bus_shield_text":"2","landuse_kind":"urban_area","ref":"66"},"arcs":[[426],[427],[428],[429]]},{"type":"LineString","properties":{"kind":"major_road","sort_rank":377,"kind_detail":"tertiary","is_bicycle_related":true,"bicycle_shield_text":"014","bicycle_network":"ncn","source":"openstreetmap.org","min_zoom":8.0,"landuse_kind":"park","ref":"3148"},"arcs":[430]},{"type":"LineString","properties":{"bus_network":"MHD Poprad","sort_rank":380,"kind_detail":"primary","kind":"major_road","source":"openstreetmap.org","min_zoom":8.0,"bus_shield_text":"5","landuse_kind":"residential","ref":"18"},"arcs":[431]},{"type":"LineString","properties":{"kind":"major_road","network":"pl:national","sort_rank":380,"kind_detail":"primary","source":"openstreetmap.org","min_zoom":8.0,"old_name":"Karola \u015awierczewskiego","shield_text":"28","ref":"28"},"arcs":[432]},{"type":"MultiLineString","properties":{"kind":"major_road","network":"pl:national","sort_rank":380,"kind_detail":"primary","source":"openstreetmap.org","min_zoom":8.0,"shield_text":"49","ref":"49"},"arcs":[[433],[434],[435],[436],[437],[438],[439],[440],[441]]},{"type":"LineString","properties":{"kind":"path","sort_rank":354,"landuse_kind":"urban_area","is_bicycle_related":true,"bicycle_shield_text":"014","bicycle_network":"ncn","source":"openstreetmap.org","min_zoom":8.0,"kind_detail":"path"},"arcs":[442]},{"type":"MultiLineString","properties":{"kind":"major_road","network":"pl:national","sort_rank":380,"kind_detail":"primary","source":"openstreetmap.org","min_zoom":8.0,"landuse_kind":"urban_area","shield_text":"28","ref":"28"},"arcs":[[443],[444],[445],[446],[447],[448],[449],[450],[451]]},{"type":"MultiLineString","properties":{"kind":"major_road","network":"pl:national","sort_rank":380,"kind_detail":"primary","source":"openstreetmap.org","min_zoom":8.0,"shield_text":"7","ref":"7"},"arcs":[[452],[453],[454],[455]]},{"type":"MultiLineString","properties":{"kind":"major_road","network":"pl:national","sort_rank":380,"kind_detail":"primary","source":"openstreetmap.org","min_zoom":8.0,"landuse_kind":"urban_area","shield_text":"75","ref":"75"},"arcs":[[456],[457],[458],[459],[460],[461],[462],[463],[464],[465],[466],[467],[468]]},{"type":"LineString","properties":{"kind":"major_road","sort_rank":380,"kind_detail":"primary","is_bicycle_related":true,"bicycle_shield_text":"034","bicycle_network":"ncn","source":"openstreetmap.org","min_zoom":8.0,"ref":"66","id":451756964},"arcs":[469]},{"type":"MultiLineString","properties":{"kind":"major_road","network":"pl:national","sort_rank":381,"kind_detail":"trunk","source":"openstreetmap.org","min_zoom":8.0,"shield_text":"7","ref":"S7"},"arcs":[[470],[471],[472],[473],[474]]},{"type":"LineString","properties":{"kind":"major_road","sort_rank":377,"kind_detail":"tertiary","is_bicycle_related":true,"bicycle_shield_text":"014","bicycle_network":"ncn","source":"openstreetmap.org","min_zoom":8.0,"ref":"3090"},"arcs":[475]},{"type":"LineString","properties":{"kind":"major_road","sort_rank":380,"landuse_kind":"nature_reserve","source":"openstreetmap.org","min_zoom":8.0,"kind_detail":"primary","ref":"68","id":280020628},"arcs":[476]},{"type":"LineString","properties":{"kind":"major_road","sort_rank":380,"landuse_kind":"residential","source":"openstreetmap.org","min_zoom":8.0,"kind_detail":"primary","ref":"66","id":494917883},"arcs":[477]},{"type":"MultiLineString","properties":{"source":"openstreetmap.org","kind":"major_road","sort_rank":380,"kind_detail":"primary","ref":"66A","min_zoom":8.0},"arcs":[[478],[479]]},{"type":"LineString","properties":{"kind":"path","sort_rank":354,"kind_detail":"cycleway","is_bicycle_related":true,"bicycle_shield_text":"008","bicycle_network":"ncn","source":"openstreetmap.org","min_zoom":8.0,"landuse_kind":"residential","id":40496610},"arcs":[480]},{"type":"MultiLineString","properties":{"source":"openstreetmap.org","kind":"major_road","sort_rank":380,"kind_detail":"primary","ref":"18","min_zoom":8.0},"arcs":[[481],[482],[483],[484],[485],[486],[487],[488],[489],[490],[491],[492],[493],[494],[495],[496],[497],[498],[499],[500],[501]]},{"type":"LineString","properties":{"kind":"major_road","sort_rank":377,"kind_detail":"tertiary","is_bicycle_related":true,"bicycle_shield_text":"014","bicycle_network":"ncn","source":"openstreetmap.org","min_zoom":8.0,"ref":"3219","id":132313885},"arcs":[502]},{"type":"MultiLineString","properties":{"source":"openstreetmap.org","kind":"major_road","landuse_kind":"urban_area","sort_rank":380,"kind_detail":"primary","min_zoom":8.0},"arcs":[[503],[504],[505],[506]]},{"type":"MultiLineString","properties":{"kind":"major_road","network":"sk:national","sort_rank":381,"kind_detail":"trunk","source":"openstreetmap.org","min_zoom":8.0,"shield_text":"1","ref":"D1"},"arcs":[[507],[508]]},{"type":"MultiLineString","properties":{"kind":"minor_road","sort_rank":360,"kind_detail":"residential","is_bicycle_related":true,"bicycle_shield_text":"R11","bicycle_network":"icn","source":"openstreetmap.org","min_zoom":8.0},"arcs":[[509],[510],[511],[512],[513],[514],[515],[516]]},{"type":"MultiLineString","properties":{"source":"openstreetmap.org","kind":"major_road","network":"pl:national","sort_rank":380,"kind_detail":"primary","min_zoom":8.0,"shield_text":"49"},"arcs":[[517],[518]]},{"type":"MultiLineString","properties":{"source":"openstreetmap.org","kind":"major_road","landuse_kind":"park","sort_rank":380,"kind_detail":"primary","ref":"66","min_zoom":8.0},"arcs":[[519],[520]]},{"type":"MultiLineString","properties":{"kind":"minor_road","sort_rank":360,"kind_detail":"residential","is_bicycle_related":true,"bicycle_shield_text":"014","bicycle_network":"ncn","source":"openstreetmap.org","min_zoom":8.0},"arcs":[[521],[522],[523],[524],[525],[526],[527],[528],[529],[530],[531],[532],[533],[534],[535],[536],[537]]},{"type":"LineString","properties":{"kind":"major_road","sort_rank":377,"kind_detail":"tertiary","is_bicycle_related":true,"bicycle_shield_text":"8898","bicycle_network":"ncn","source":"openstreetmap.org","min_zoom":8.0,"ref":"3077","id":414678399},"arcs":[538]},{"type":"MultiLineString","properties":{"kind":"path","sort_rank":354,"kind_detail":"path","is_bicycle_related":true,"bicycle_shield_text":"014","bicycle_network":"ncn","source":"openstreetmap.org","min_zoom":8.0},"arcs":[[539],[540]]},{"type":"MultiLineString","properties":{"bus_network":null,"network":"pl:national","sort_rank":380,"kind_detail":"primary","kind":"major_road","source":"openstreetmap.org","min_zoom":8.0,"bus_shield_text":"Limanowa <-> Krak\u00f3w","shield_text":"28","ref":"28"},"arcs":[[541],[542]]},{"type":"LineString","properties":{"kind":"major_road","network":"pl:national","sort_rank":380,"kind_detail":"primary","is_bicycle_related":true,"bicycle_shield_text":"R11","bicycle_network":"icn","source":"openstreetmap.org","min_zoom":8.0,"landuse_kind":"nature_reserve","shield_text":"87","ref":"87"},"arcs":[543]},{"type":"LineString","properties":{"kind":"major_road","network":"pl:national","sort_rank":380,"kind_detail":"primary","is_bicycle_related":true,"bicycle_shield_text":"R11","bicycle_network":"icn","source":"openstreetmap.org","min_zoom":8.0,"shield_text":"87","ref":"87","id":102007848},"arcs":[544]},{"type":"LineString","properties":{"kind":"minor_road","short_name":"\u0160t\u00farovo n\u00e1br.","sort_rank":360,"kind_detail":"residential","is_bicycle_related":true,"bicycle_shield_text":"014","bicycle_network":"ncn","source":"openstreetmap.org","min_zoom":8.0,"landuse_kind":"urban_area","id":209194021},"arcs":[545]},{"type":"LineString","properties":{"kind":"major_road","sort_rank":377,"kind_detail":"tertiary","is_bicycle_related":true,"bicycle_shield_text":"R11","bicycle_network":"icn","source":"openstreetmap.org","min_zoom":8.0,"ref":"1591K","id":276147958},"arcs":[546]},{"type":"LineString","properties":{"kind":"path","sort_rank":354,"kind_detail":"pedestrian","is_bicycle_related":true,"bicycle_shield_text":"008","bicycle_network":"ncn","source":"openstreetmap.org","min_zoom":8.0,"landuse_kind":"residential","id":413990306},"arcs":[547]},{"type":"MultiLineString","properties":{"kind":"highway","network":"sk:national","sort_rank":383,"landuse_kind":"residential","source":"openstreetmap.org","min_zoom":8.0,"all_networks":["sk:national","e-road"],"kind_detail":"motorway","shield_text":"1","ref":"D1","all_shield_texts":["1","50"]},"arcs":[[548],[549]]},{"type":"LineString","properties":{"kind":"major_road","network":"pl:expressways","sort_rank":380,"kind_detail":"primary","source":"openstreetmap.org","min_zoom":8.0,"shield_text":"7","ref":"S7","id":75382778},"arcs":[550]},{"type":"MultiLineString","properties":{"kind":"path","sort_rank":354,"kind_detail":"path","is_bicycle_related":true,"bicycle_shield_text":"007","bicycle_network":"ncn","source":"openstreetmap.org","min_zoom":8.0,"landuse_kind":"park"},"arcs":[[551],[552],[553],[554]]},{"type":"LineString","properties":{"kind":"path","sort_rank":354,"landuse_kind":"urban_area","is_bicycle_related":true,"bicycle_shield_text":"014","bicycle_network":"ncn","source":"openstreetmap.org","min_zoom":8.0,"kind_detail":"track"},"arcs":[555]},{"type":"LineString","properties":{"kind":"major_road","sort_rank":379,"kind_detail":"secondary","is_bicycle_related":true,"bicycle_shield_text":"014","bicycle_network":"ncn","source":"openstreetmap.org","min_zoom":8.0,"ref":"547","id":5036373},"arcs":[556]},{"type":"LineString","properties":{"kind":"major_road","sort_rank":377,"kind_detail":"tertiary","is_bicycle_related":true,"bicycle_shield_text":"014","bicycle_network":"ncn","source":"openstreetmap.org","min_zoom":8.0,"ref":"3227"},"arcs":[557]},{"type":"LineString","properties":{"bus_network":"MHD Spi\u0161sk\u00e1 Nov\u00e1 Ves","sort_rank":377,"landuse_kind":"residential","is_bicycle_related":true,"kind":"major_road","bicycle_shield_text":"014","bicycle_network":"ncn","source":"openstreetmap.org","min_zoom":8.0,"bus_shield_text":"2","kind_detail":"tertiary","ref":"3244"},"arcs":[558]},{"type":"LineString","properties":{"kind":"major_road","sort_rank":377,"kind_detail":"tertiary","is_bicycle_related":true,"bicycle_shield_text":"014","bicycle_network":"ncn","source":"openstreetmap.org","min_zoom":8.0,"ref":"3215"},"arcs":[559]},{"type":"LineString","properties":{"kind":"major_road","sort_rank":379,"kind_detail":"secondary","is_bicycle_related":true,"bicycle_shield_text":"R11","bicycle_network":"icn","source":"openstreetmap.org","min_zoom":8.0},"arcs":[560]},{"type":"MultiLineString","properties":{"kind":"minor_road","sort_rank":358,"landuse_kind":"residential","is_bicycle_related":true,"bicycle_shield_text":"014","bicycle_network":"ncn","source":"openstreetmap.org","min_zoom":8.0,"kind_detail":"service"},"arcs":[[561],[562]]},{"type":"LineString","properties":{"kind":"path","sort_rank":354,"kind_detail":"steps","is_bicycle_related":true,"bicycle_shield_text":"R11","bicycle_network":"icn","source":"openstreetmap.org","min_zoom":8.0,"landuse_kind":"urban_area","id":348013432},"arcs":[563]},{"type":"LineString","properties":{"kind":"major_road","sort_rank":377,"kind_detail":"tertiary","is_bicycle_related":true,"bicycle_shield_text":"R11","bicycle_network":"icn","source":"openstreetmap.org","min_zoom":8.0,"landuse_kind":"urban_area","ref":"1601K","id":74819106},"arcs":[564]},{"type":"MultiLineString","properties":{"kind":"minor_road","sort_rank":360,"kind_detail":"residential","is_bicycle_related":true,"bicycle_shield_text":"8898","bicycle_network":"ncn","source":"openstreetmap.org","min_zoom":8.0},"arcs":[[565],[566]]},{"type":"MultiLineString","properties":{"kind":"path","sort_rank":354,"kind_detail":"track","is_bicycle_related":true,"bicycle_shield_text":"8898","bicycle_network":"ncn","source":"openstreetmap.org","min_zoom":8.0},"arcs":[[567],[568]]},{"type":"LineString","properties":{"kind":"path","sort_rank":354,"kind_detail":"cycleway","is_bicycle_related":true,"bicycle_shield_text":"008","bicycle_network":"ncn","source":"openstreetmap.org","min_zoom":8.0},"arcs":[569]},{"type":"LineString","properties":{"kind":"major_road","sort_rank":377,"kind_detail":"tertiary","is_bicycle_related":true,"bicycle_shield_text":"014","bicycle_network":"ncn","source":"openstreetmap.org","min_zoom":8.0,"ref":"3244","id":10369961},"arcs":[570]},{"type":"LineString","properties":{"kind":"major_road","sort_rank":379,"kind_detail":"secondary","is_bicycle_related":true,"bicycle_shield_text":"014","bicycle_network":"ncn","source":"openstreetmap.org","min_zoom":8.0,"ref":"542"},"arcs":[571]},{"type":"MultiLineString","properties":{"kind":"major_road","network":"pl:national","sort_rank":380,"kind_detail":"primary","source":"openstreetmap.org","min_zoom":8.0,"landuse_kind":"urban_area","shield_text":"28","ref":"28;75"},"arcs":[[572],[573],[574]]},{"type":"LineString","properties":{"kind":"major_road","network":"pl:national","sort_rank":380,"kind_detail":"primary","source":"openstreetmap.org","min_zoom":8.0,"shield_text":"28","ref":"28;968"},"arcs":[575]},{"type":"MultiLineString","properties":{"bus_network":null,"network":"pl:national","sort_rank":380,"kind_detail":"primary","bus_shield_text":"Limanowa <-> Krak\u00f3w","kind":"major_road","source":"openstreetmap.org","min_zoom":8.0,"old_name":"Karola \u015awierczewskiego","shield_text":"28","ref":"28"},"arcs":[[576],[577],[578]]},{"type":"LineString","properties":{"kind":"path","sort_rank":354,"kind_detail":"path","is_bicycle_related":true,"bicycle_shield_text":"014","bicycle_network":"ncn","source":"openstreetmap.org","min_zoom":8.0,"landuse_kind":"residential","id":356904063},"arcs":[579]},{"type":"MultiLineString","properties":{"source":"openstreetmap.org","kind":"major_road","sort_rank":380,"kind_detail":"primary","ref":"66","min_zoom":8.0},"arcs":[[580],[581],[582],[583],[584],[585],[586],[587],[588],[589],[590],[591],[592],[593],[594],[595]]},{"type":"MultiLineString","properties":{"kind":"major_road","sort_rank":377,"landuse_kind":"urban_area","is_bicycle_related":true,"bicycle_shield_text":"R11","bicycle_network":"icn","source":"openstreetmap.org","min_zoom":8.0,"kind_detail":"tertiary"},"arcs":[[596],[597],[598]]},{"type":"MultiLineString","properties":{"kind":"major_road","network":"pl:national","sort_rank":380,"kind_detail":"primary","is_bicycle_related":true,"bicycle_shield_text":null,"bicycle_network":"lcn","source":"openstreetmap.org","min_zoom":8.0,"landuse_kind":"urban_area","shield_text":"28","ref":"28;75"},"arcs":[[599],[600]]}]},"earth":{"type":"GeometryCollection","geometries":[{"type":"Polygon","properties":{"sort_rank":10,"source":"naturalearthdata.com","kind":"earth","min_zoom":0.0,"id":4754},"arcs":[[601]]}]},"landuse":{"type":"GeometryCollection","geometries":[{"type":"MultiPolygon","properties":{"kind":"national_park","protect_class":"2","area":1882449168,"sort_rank":18,"source":"openstreetmap.org","min_zoom":3.0,"tier":1,"osm_relation":true},"arcs":[[[602]],[[603]],[[604]]]},{"type":"MultiPolygon","properties":{"kind":"nature_reserve","protect_class":"5","area":4179801833,"sort_rank":23,"source":"openstreetmap.org","min_zoom":6.0,"tier":2,"osm_relation":true},"arcs":[[[605]],[[606]],[[607]]]},{"type":"MultiPolygon","properties":{"source":"openstreetmap.org","kind":"park","tier":2,"area":1406077771,"sort_rank":24,"min_zoom":6.0,"osm_relation":true},"arcs":[[[608],[609],[610]],[[611]],[[612]]]},{"type":"MultiPolygon","properties":{"kind":"national_park","protect_class":"2","area":180970375,"sort_rank":18,"source":"openstreetmap.org","min_zoom":8.0,"tier":1,"osm_relation":true},"arcs":[[[613]]]},{"type":"Polygon","properties":{"kind":"park","area":87599600,"sort_rank":24,"source":"openstreetmap.org","min_zoom":8.0,"tier":2,"id":-6757024,"osm_relation":true},"arcs":[[614]]},{"type":"MultiPolygon","properties":{"source":"naturalearthdata.com","kind":"urban_area","name":"","area":2226276051,"sort_rank":11,"min_zoom":4.0},"arcs":[[[615]],[[616]],[[617]],[[618]]]},{"type":"MultiPolygon","properties":{"kind":"national_park","protect_class":"2","area":378061793,"sort_rank":18,"source":"openstreetmap.org","min_zoom":5.0,"tier":1,"osm_relation":true},"arcs":[[[619]]]},{"type":"Polygon","properties":{"kind":"national_park","protect_class":"5","area":1447689984,"sort_rank":18,"source":"openstreetmap.org","min_zoom":3.0,"tier":1,"id":-6897930,"osm_relation":true},"arcs":[[620]]},{"type":"Polygon","properties":{"kind":"protected_area","protect_class":"1","area":126764000,"sort_rank":17,"source":"openstreetmap.org","min_zoom":7.0,"tier":2,"id":-1216088,"osm_relation":true},"arcs":[[621]]},{"type":"MultiPolygon","properties":{"kind":"nature_reserve","protect_class":"5","area":3819655368,"sort_rank":23,"source":"openstreetmap.org","min_zoom":4.0,"tier":2,"osm_relation":true},"arcs":[[[622]]]},{"type":"MultiPolygon","properties":{"source":"openstreetmap.org","kind":"residential","tier":2,"area":51935432,"sort_rank":20,"min_zoom":8.0},"arcs":[[[623]],[[624]],[[625]]]},{"type":"Polygon","properties":{"kind":"park","area":1737859968,"sort_rank":24,"source":"openstreetmap.org","min_zoom":4.0,"tier":2,"id":-6757027,"osm_relation":true},"arcs":[[626]]},{"type":"MultiPolygon","properties":{"kind":"protected_area","protect_class":"1","area":31416607,"sort_rank":17,"source":"openstreetmap.org","min_zoom":8.0,"tier":2,"osm_relation":true},"arcs":[[[627]],[[628],[629],[630]]]}]}},"type":"Topology","transform":{"translate":[19.6875,48.9224992638],"scale":[0.0003433228,0.0002235066]},"arcs":[[[0,2145],[88,-69],[83,96],[62,23],[67,-11],[2,-121],[37,-84],[-27,-91],[30,-97],[-36,-103],[50,-20],[38,-83],[-88,-39],[-22,-96],[-53,-45],[0,-62],[-25,-30],[14,-38],[62,-37],[68,29],[35,-28],[28,10],[34,-40],[83,14],[96,78],[4,78],[83,26],[144,-21],[78,-53],[-6,-31],[41,-52],[170,-103],[27,6],[-3,125],[42,67],[-2,124],[71,92],[26,156],[33,52],[19,5],[17,-70],[52,50],[-15,61],[40,0],[26,59],[80,49],[32,-25],[63,25],[45,-28],[13,26],[57,1],[69,-32],[28,96],[-14,56],[29,58],[-40,-12],[22,64],[108,-21],[39,43],[20,-76],[31,-2],[56,21],[13,47],[48,-41],[-3,94],[41,-25],[-1,19],[76,-4],[96,-54],[15,-44],[191,-77],[110,115],[4,71],[94,-77],[54,13],[76,73],[91,-1],[59,-20],[-3,-50],[46,-16],[-30,-42],[40,-30],[0,-57],[70,13],[-9,-60],[46,10],[33,-17],[-8,-28],[-6,28],[-20,-3],[-1,-70],[42,20],[41,-59],[33,-2],[50,60],[32,0],[49,-64],[-28,-59],[90,16],[60,-123],[132,62],[50,-14],[22,27],[-15,70],[56,29],[9,57],[91,77],[69,3],[26,-28],[54,26]],[[4096,2055],[-75,61],[-2,30],[-38,9],[-20,63],[135,48]],[[3861,0],[-67,61],[-15,104],[-88,-18],[-14,-36],[-85,72],[-63,-1],[-64,55],[-103,-25],[24,22],[-79,2],[-15,24],[63,45],[-70,-17],[-92,56],[-32,-34],[-10,50],[-16,-20],[32,-51],[-11,-52],[31,-19],[-45,-23],[-38,50],[-56,-46],[-67,67],[-95,-40],[11,-33],[-23,-36],[-126,-23],[-38,118],[-121,-36],[-35,59],[-74,32],[-37,36],[15,88],[-27,5],[-47,-80],[-71,4],[82,-41],[-59,-41],[-18,20],[20,-95],[-40,27],[5,52],[-33,39],[-32,-25],[-79,66],[-43,-71],[-29,-9],[-3,29],[-45,-16],[-164,-98],[-102,-131],[43,-26],[64,9],[24,-49]],[[572,1260],[48,-17],[-8,-67],[51,-15],[24,-98],[-82,-130],[53,-44],[39,93],[91,9],[123,84],[-56,-100],[-50,-6],[-44,-52],[12,-81],[52,38],[13,-42],[45,5],[-5,-19],[142,13],[-22,-136],[-31,-31],[22,-69],[-41,-87],[7,-90],[-97,-16],[-38,19],[-16,-34],[73,-56],[101,-134],[-10,-74],[38,-72],[80,-7],[-35,-44]],[[4096,2266],[-111,-33],[-25,-21],[21,-57],[38,-9],[2,-30],[75,-61]],[[4096,1980],[-54,-26],[-26,28],[-69,-3],[-91,-77],[-9,-57],[-56,-29],[15,-70],[-22,-27],[-50,14],[-132,-62],[-60,123],[-90,-16],[28,59],[-49,64],[-32,0],[-50,-60],[-33,2],[-41,59],[-42,-20],[1,70],[20,3],[6,-28],[8,28],[-79,7],[9,60],[-70,-13],[0,57],[-40,30],[30,42],[-46,16],[3,50],[-59,20],[-91,1],[-76,-73],[-54,-13],[-94,77],[-4,-71],[-110,-115],[-191,77],[-15,44],[-96,54],[-76,4],[1,-19],[-41,25],[3,-94],[-48,41],[-13,-47],[-56,-21],[-31,2],[-20,76],[-39,-43],[-108,21],[-22,-64],[40,12],[-29,-58],[14,-56],[-28,-96],[-69,32],[-57,-1],[-13,-26],[-45,28],[-63,-25],[-32,25],[-80,-49],[-26,-59],[-40,0],[15,-61],[-52,-50],[-17,70],[-19,-5],[-33,-52],[-26,-156],[-71,-93],[2,-123],[-50,-118],[10,-75],[-54,5],[-142,93],[-41,52],[6,31],[-78,53],[-182,18],[-45,-23],[-4,-78],[-54,-41]],[[30,0],[-30,3]],[[572,1260],[-42,-37],[-83,-14],[-34,40],[-28,-10],[-35,28],[-68,-29],[-69,49],[18,118],[53,45],[22,96],[88,39],[-38,83],[-50,20],[36,103],[-30,97],[27,91],[-37,84],[-2,121],[-67,11],[-62,-23],[-83,-96],[-88,69]],[[3612,0],[-4,1],[-17,2],[-6,2],[-12,7],[-6,3],[-8,1],[-5,0],[-8,-3],[-16,-9],[-20,-4]],[[3425,0],[-19,10],[-40,5],[-9,7],[-10,14],[-7,7],[-58,30],[-15,-3],[-50,-34],[-15,-1],[-24,7],[-8,1],[-63,-13],[-10,-5],[-24,-25]],[[3050,0],[-92,15],[-34,-15]],[[2593,0],[-2,20],[2,5],[9,17],[1,2],[5,11],[1,8],[-1,9],[-4,7],[-12,20],[-7,10],[-5,6],[-4,3],[-9,3],[-4,1],[-7,2],[-10,1],[-8,1],[-56,8],[-34,4],[-52,-1],[-8,2],[-7,4],[-4,2],[-5,2],[-13,2],[-8,5],[-12,15],[-4,3],[-5,3],[-4,1],[-13,3],[-39,19],[-3,4],[-16,23],[-4,5],[-5,4],[-6,2],[-6,1],[-6,1],[-10,4],[-53,48],[-5,3],[-5,1],[-11,1],[-8,3],[-36,24],[-3,2],[-18,7],[-25,18],[-6,3],[-7,2],[-12,2],[-6,3],[-6,5],[-7,15],[-7,9],[-9,7],[-11,7],[-24,11],[-8,2],[-15,3],[-10,3],[-28,9],[-12,5],[-3,1],[-31,7],[-14,6],[-4,2],[-6,1],[-2,0],[-17,3],[-9,4],[-11,25],[7,35],[5,29],[2,10],[12,23],[1,4],[1,4],[0,2],[0,2],[0,2],[-1,2],[-1,2],[-2,4],[-1,2],[-2,1],[-1,1],[-2,1],[-2,1],[-2,1],[-2,1],[-3,1],[-13,1],[-177,22],[-6,0],[-8,0],[-8,-1],[-44,-6],[-71,-11],[-65,-10],[-33,-5],[-31,3],[-7,3],[-11,6],[-6,3],[-4,2],[-3,1],[-6,1],[-3,0],[-4,0],[-2,0],[-2,-1],[-5,-1],[-31,-13],[-35,-1],[-9,4],[-17,13],[-2,2],[-3,1],[-2,1],[-2,0],[-3,0],[-2,0],[-4,-2],[-8,-3],[-3,-1],[-11,2],[-34,27],[-18,31],[0,11],[2,4],[2,4],[0,2],[1,1],[0,2],[0,1],[0,2],[0,1],[-1,1],[-2,5],[-1,2],[-3,3],[0,1],[-8,5],[-6,3],[-3,1],[-2,0],[-7,-1],[-3,-1],[-54,-39],[-7,-1],[-4,-1],[-22,-6],[-5,-1],[-15,4],[-4,1],[-1,0],[-2,0],[-5,-1],[-4,-2],[-11,-11],[-20,-8],[-12,-2],[-10,2],[-2,0],[-2,0],[-1,0],[-3,-1],[-2,0],[-4,-3],[-1,-1],[-2,-2],[-18,-25],[-19,-9],[-11,-2],[-21,2],[-6,-1],[-5,-1],[-5,-1],[-4,-2],[-2,-1],[-7,-4],[-5,-2],[-2,-1],[-9,1],[-4,-1],[-4,0],[-3,-2],[-2,-2],[-12,-11],[-6,-2],[-6,-1],[-16,4],[-4,0],[-3,0],[-3,0],[-189,-67],[-17,-8],[-4,-3],[-14,-12],[-6,-8],[-10,-7],[-4,-4],[-13,-17],[-10,-6],[-4,-4],[-15,-20],[-25,-1],[-8,-1],[-21,-5],[-8,-1],[-5,-1],[-10,4],[-20,10],[-3,2],[-2,1],[-18,6],[-24,27],[-3,2],[-6,5],[-10,4],[-195,39],[-20,23],[-11,45],[-1,4],[-2,4],[-3,6],[-2,3],[-2,3],[-1,2],[-4,5],[-4,3],[-10,8]],[[0,635],[21,-21],[19,-62],[20,-23],[195,-39],[43,-38],[18,-6],[25,-13],[10,-4],[5,1],[37,7],[25,1],[97,89],[329,94],[19,9],[25,31],[6,1],[14,-2],[12,2],[20,8],[15,13],[27,-4],[5,1],[33,8],[64,41],[23,-15],[3,-10],[-1,-3],[-2,-6],[-2,-4],[0,-11],[18,-31],[34,-27],[66,-17],[35,1],[44,15],[12,-2],[21,-11],[7,-3],[31,-3],[33,5],[188,28],[207,-24],[16,-20],[-14,-33],[-7,-39],[-7,-35],[11,-25],[9,-4],[25,-4],[18,-8],[74,-22],[10,-3],[23,-5],[24,-11],[20,-14],[14,-24],[6,-5],[113,-61],[8,-4],[16,-2],[5,-2],[53,-48],[10,-4],[18,-4],[5,-4],[20,-28],[3,-4],[85,-49],[13,-2],[16,-8],[8,-2],[180,-19],[32,-46],[-17,-52],[2,-20]],[[2924,0],[126,0]],[[3073,0],[3,1],[2,2],[2,2],[1,1],[2,1],[10,13],[4,5],[10,5],[63,13],[8,-1],[19,-5],[4,-1],[1,-1],[4,0],[2,0],[1,0],[2,0],[2,0],[2,1],[2,0],[2,1],[2,0],[2,1],[8,5],[7,4],[29,23],[15,3],[31,-20],[3,-2],[3,-1],[13,-4],[8,-3],[7,-7],[7,-11],[3,-3],[1,-2],[2,-1],[4,-3],[2,-1],[2,-1],[5,-1],[4,-1],[29,-2],[19,-10]],[[3511,0],[19,4],[29,12],[8,-1],[18,-10],[6,-2],[21,-3]],[[3505,1873],[12,73],[161,62],[31,101],[-10,79]],[[3203,2940],[-88,-11],[-22,12],[-14,29],[-2,3],[-12,14],[-2,1],[-2,1],[-19,5],[-9,7],[-43,66],[-2,3],[-3,1],[-2,1],[-2,0],[-3,-1],[-34,-17]],[[3232,2946],[-29,-6]],[[3203,2940],[-43,-14],[-41,2],[-3,1],[-17,7],[-5,5],[-8,10],[-21,36],[-23,7],[-10,7],[-49,71],[-133,-84],[-69,-106],[31,-273],[81,-57],[-2,-62],[51,-53],[-8,-48],[66,-71],[-30,-38],[41,-5],[13,-60],[50,-9],[4,-50],[41,-17],[-28,-39],[39,-34],[-3,-51],[73,8],[-7,-54],[66,-5],[16,-58],[55,-56],[81,56],[51,-21],[36,40],[24,-9],[-13,-29]],[[3743,3292],[14,-73],[-72,-85],[-64,-2],[-62,7],[66,-38],[0,-5],[-1,-2],[-2,-3],[-14,-17],[-17,-7],[-4,-12],[-3,-4],[-9,-2],[-41,15],[-24,-17],[-20,-8],[-65,24],[-20,-22],[-28,-14],[-6,-10],[-21,-21],[-118,-50]],[[3743,3292],[14,-73],[-72,-84],[-29,3],[-11,-1],[-24,-5],[-52,12],[-3,0],[-3,-1],[-2,-1],[-2,-2],[-2,-3],[0,-3],[0,-2],[1,-2],[1,-2],[2,-2],[1,-1],[63,-24],[-2,-9],[-3,-2],[-4,-3],[-2,-2],[-6,-11],[-14,-5],[-3,-2],[-1,-2],[-1,-2],[-2,-8],[-3,-4],[-9,-2],[-4,2],[-6,5],[-3,2],[-19,6],[-3,0],[-5,0],[-6,-1],[-3,-1],[-3,-2],[-4,-3],[-5,-7],[-4,-3],[-20,-8],[-8,3],[-20,23],[-2,1],[-2,1],[-3,1],[-3,0],[-15,-5],[-9,0],[-3,0],[-3,-2],[-2,-2],[-15,-18],[-11,-3],[-17,-11],[-2,-2],[-4,-8],[-7,-5],[-2,-2],[-12,-14],[-7,-1],[-10,5],[-1,0],[-2,0],[-3,0],[-7,-1],[-5,-2],[-17,-9],[-3,-2],[-18,-15],[-24,-8],[-3,-1],[-11,-7],[-2,-1],[-2,-2],[-2,-4],[-1,-2]],[[3733,4096],[-34,-46],[58,-120],[-54,-72],[10,-71],[-58,-103],[44,-35],[15,-61],[-31,-60],[-40,-16],[-40,-107],[84,-46],[56,-67]],[[868,2667],[-1,2]],[[2891,767],[54,-52]],[[1817,681],[76,-28]],[[1893,653],[-16,12],[-59,17]],[[3635,3136],[36,4]],[[3671,3139],[76,7]],[[2952,3124],[-16,16]],[[2977,3117],[-18,4]],[[305,448],[-29,21]],[[484,393],[-148,37]],[[1766,589],[-7,-36]],[[1867,712],[-2,-11]],[[258,448],[12,19]],[[2185,1020],[32,36]],[[2883,2589],[-19,2]],[[2888,2830],[26,9]],[[2918,2978],[14,-64]],[[2950,2437],[-22,26]],[[3148,3726],[17,-10]],[[2808,2697],[56,-106]],[[2814,3931],[72,-40],[90,4],[-14,-65]],[[2882,2799],[-18,15]],[[2883,2589],[0,-2]],[[2898,2867],[25,-27]],[[2902,2519],[26,-56]],[[2946,2419],[4,18]],[[2996,3752],[52,24],[-3,-25],[34,-20]],[[3038,3481],[-10,-80],[22,-21],[-29,2],[-22,-96]],[[3087,3730],[-2,0]],[[1766,590],[-1,0]],[[1766,589],[2,0]],[[1769,589],[-3,2]],[[3025,2221],[1,-6]],[[2190,801],[33,-49],[157,-74],[28,-83]],[[2912,1715],[-4,7]],[[2870,1914],[76,44],[14,210],[57,46]],[[2898,1735],[-18,113]],[[2898,1735],[0,-2]],[[2898,1735],[1,-1]],[[2900,1733],[-1,1]],[[3655,1223],[-75,96],[-40,13],[0,46],[-62,74],[-28,91]],[[3716,1031],[-8,42]],[[3716,1031],[-1,-1]],[[3715,1030],[0,-1],[1,0],[0,1]],[[3716,1030],[-1,0]],[[3715,1029],[2,-6]],[[3716,1030],[0,1]],[[3717,1023],[-1,6]],[[3898,952],[-181,71]],[[4069,830],[-170,121]],[[4096,810],[-21,14]],[[4096,810]],[[2932,3213],[-1,0],[-1,-1],[1,0],[1,1]],[[3262,18],[40,32],[-37,17]],[[2854,2941],[6,6]],[[2863,2951],[7,13]],[[2870,2964],[6,14]],[[2968,3080],[-41,-12],[-51,-90]],[[2968,3080],[25,28]],[[2991,3109],[-23,-29]],[[2904,1730],[-4,3]],[[3450,1543],[-84,-51],[-37,3],[-54,16],[-63,86],[-55,-55],[-205,173],[-40,0]],[[99,1968],[6,-11]],[[1375,531],[-84,-65],[-17,-62],[-51,63]],[[18,2492],[15,28]],[[1251,1527],[-6,-1]],[[700,3068],[-1,0]],[[1014,2483],[3,1]],[[1251,1527]],[[1823,1400],[-39,125],[-97,28]],[[1833,1377],[-3,3]],[[2337,121],[-5,-1]],[[3224,289],[-8,-29]],[[2870,3043],[45,86]],[[2893,3006],[-12,20]],[[2906,3000],[13,-15]],[[2913,3146],[0,2]],[[2927,3172],[18,5]],[[2958,3192]],[[2975,3235],[-16,-40]],[[4096,181],[-39,9],[23,-28],[-96,-47],[-46,-115]],[[1770,591],[-2,0]],[[2494,119],[0,1]],[[628,982],[4,-17]],[[285,490],[0,1]],[[0,581],[4,7]],[[739,0],[-16,50],[64,98],[49,26]],[[757,385],[-14,15]],[[757,385],[97,-176],[-18,-35]],[[836,174],[21,31],[-26,81],[-74,99]],[[2166,1010],[-2,-13]],[[1755,539],[12,49]],[[1765,590],[1,-1]],[[1768,589],[1,0]],[[1797,603],[-28,-13]],[[3009,27],[-63,-15]],[[1812,303],[-16,-46]],[[2962,3830],[-51,-42]],[[2996,3752],[22,-29],[67,5]],[[1743,574],[7,0]],[[1755,575],[-5,-1]],[[1755,575],[7,2]],[[2806,2709],[17,171]],[[2938,2413],[-60,164],[-43,10],[-26,38],[-1,72]],[[2825,2887],[29,54]],[[2860,2947],[3,4]],[[2822,2884],[0,-1],[1,0],[0,1],[-1,0]],[[2929,3212],[-79,-1]],[[3038,3481],[90,8]],[[2902,2519],[1,4]],[[1869,528],[-57,40]],[[2212,1205],[-8,6]],[[203,947],[-31,2]],[[392,929],[18,5]],[[2389,2018],[3,13]],[[3106,18],[-15,4]],[[2150,964],[7,-15]],[[2243,1124],[-28,-27]],[[2234,1184],[-10,-36]],[[1375,531],[43,64]],[[3582,1709],[-13,26]],[[3302,188],[-70,-65]],[[700,3067],[0,3]],[[1204,477],[19,-10]],[[2903,2523],[-20,64]],[[3225,116],[-2,1]],[[3899,951],[-1,1]],[[4075,824],[-6,6]],[[2870,3043],[-1,-3]],[[2919,2985],[-1,-7]],[[147,0],[36,14],[19,69],[44,50],[16,108],[-49,42]],[[211,286],[8,49]],[[270,467],[15,23]],[[283,494],[6,2]],[[2615,490],[26,146],[50,31],[46,-11]],[[2924,3165],[-11,-17]],[[1875,700],[-7,-21]],[[1870,682],[6,17]],[[1003,423],[118,68]],[[2591,1615],[0,-8]],[[0,600],[48,-5],[127,18],[87,-32],[212,15],[30,6],[14,7],[81,48],[33,8],[141,-33],[6,2]],[[779,634],[80,29]],[[859,663],[9,3],[24,-7],[144,-3],[7,-3],[97,-23],[19,6],[48,29],[46,4],[61,-29],[11,-5],[5,-1],[315,2],[38,9],[48,32]],[[1733,678],[-86,-42],[-317,-1],[-77,35],[-47,-4],[-66,-35],[-104,26],[-168,9],[-9,-3]],[[859,663],[-73,-30],[-7,1]],[[779,634],[-39,9],[-43,7],[-64,15],[-35,-7],[-124,-62],[-212,-15],[-86,32],[-176,-12]],[[1736,677],[81,4]],[[1818,682],[-82,-4]],[[1893,653],[57,-40],[30,-39],[24,-14],[159,-54],[28,-67],[5,-5],[74,-56],[6,-2],[58,-19],[106,-8],[37,3]],[[2477,352],[84,5]],[[2561,357],[2,1],[126,34],[25,-3],[25,-9],[16,-4],[17,-2],[38,5],[38,11],[43,-10],[71,-2],[81,8],[133,-11],[125,13],[-14,-1]],[[3278,386],[-430,4],[-76,-15],[-58,14],[-25,4],[-36,-6],[-29,-12],[-35,-7],[-14,-4],[-7,-3],[-7,-4]],[[2561,357],[-4,-2],[-80,-3]],[[2477,352],[-37,-2],[-105,8],[-138,76],[-34,72],[-158,55],[-54,52],[-58,40]],[[4096,349],[-93,-10],[-78,99],[-20,15],[-18,11],[-9,2],[-59,2],[-168,-72],[-1,-2],[-42,-55]],[[3608,339],[-1,-1],[-7,-1]],[[3600,337],[-46,-7],[15,-2],[31,9]],[[3600,337],[8,2]],[[3608,339],[2,1],[41,56],[168,71],[85,-15],[99,-113],[93,9]],[[3539,1860],[-1,0]],[[3606,1675],[0,-2]],[[3607,1673],[0,1]],[[2105,2117],[16,15],[19,-48]],[[2155,2065],[81,-44]],[[2240,2019],[77,4]],[[3605,1672],[0,-5]],[[3605,1667],[1,4]],[[2876,3975],[22,121]],[[1378,1710]],[[2787,3910],[20,29]],[[3892,2246],[13,-108]],[[1737,587],[27,2]],[[1764,589],[2,0]],[[1765,590],[-1,-1]],[[1768,589],[2,-1]],[[1770,588],[-1,1]],[[1770,588],[4,0]],[[3026,2215],[39,-7]],[[3069,2204],[13,-48],[38,-19],[-23,-45]],[[3124,2044],[9,-24]],[[3183,2021],[13,1]],[[3193,1972],[75,-13],[8,-34],[-31,-25],[31,7],[65,-56],[57,48]],[[3432,1899],[30,-12],[46,41]],[[700,3069],[1,-7]],[[701,3062],[-1,5]],[[701,3062],[4,-28]],[[705,3034],[52,-130]],[[757,2904],[-10,16],[-8,4],[-12,39],[-13,13],[1,5],[2,13],[-9,14],[-3,26]],[[867,2669],[-37,108],[-96,47],[23,80]],[[790,1712],[1,0],[-1,1]],[[790,1713],[0,-1]],[[790,1714],[0,-2]],[[922,1966],[-4,-113],[-128,-139]],[[790,1713],[0,1]],[[947,2549],[-79,118]],[[969,2344],[-10,-232],[-39,-145]],[[947,2549],[28,-68],[-3,-26],[-3,-53],[0,-33]],[[969,2369],[7,104],[-1,12],[-28,64]],[[969,2369],[0,-24]],[[969,2345],[0,-1]],[[969,2344],[1,0],[-1,1]],[[2955,3123],[-1,-2]],[[2956,3121],[0,1]],[[0,3598],[10,-14]],[[2175,993],[10,27]],[[2215,1097],[4,-4]],[[3082,19],[-1,-1]],[[3177,649],[-28,89]],[[3375,301],[3,2]],[[2528,95],[10,1]],[[2562,72],[-6,4]],[[2508,104],[1,-1],[2,0],[-2,2],[-1,-1]],[[2945,2414],[-6,-29],[44,-33]],[[3512,1933],[11,9]],[[3512,1933]],[[3521,1937],[-1,-3],[-6,-7]],[[3518,1932],[-3,2]],[[2157,949],[7,-6]],[[2165,943],[-1,0]],[[2164,943],[0,-1],[1,1]],[[2165,943],[51,-56],[-26,-86]],[[3223,117],[13,1]],[[26,566],[-15,20]],[[92,499],[48,1]],[[143,495],[19,-16]],[[270,467],[6,2]],[[305,448],[31,-18]],[[219,335],[39,113]],[[36,561],[40,-43]],[[265,945],[-62,2]],[[307,944],[22,4]],[[425,935],[2,-1]],[[472,952],[6,2]],[[3303,381],[3,2]],[[2952,3124],[2,-3],[5,0],[-3,1],[-4,2]],[[2945,715],[57,59]],[[3514,1927],[-6,-60],[30,-7]],[[3569,1735],[-23,66],[23,26],[-30,33]],[[3607,1674],[2,7],[-1,1]],[[3608,1682],[-26,27]],[[3609,1682],[-1,0]],[[3608,1682],[-2,-7]],[[3671,3140],[0,-1]],[[3090,21],[-3,0]],[[3080,2854],[-2,2]],[[3163,2803],[-26,12]],[[3480,2659],[-4,4]],[[3800,2334],[58,-31],[34,-57]],[[3905,2138],[-6,-20],[65,-36],[132,-50]],[[98,1952],[7,5]],[[2880,1848],[-10,66]],[[1835,2240],[-41,45],[-54,6],[-8,24],[100,-35],[3,-40]],[[2238,1190],[-1,1]],[[2591,1607],[3,-23],[-232,-161],[-47,-106],[-70,-127],[-8,0]],[[2900,1733],[-111,-32],[-68,8],[-64,-32],[12,-51],[-78,-11]],[[3452,1545],[-1,-2]],[[4096,1776],[-12,0],[-87,-67],[-116,25],[-92,-27],[-5,-21],[-15,36],[-39,8],[-162,-67],[-31,-48],[-81,-9],[-19,-28],[15,-33]],[[3455,1541],[-3,4]],[[2864,2814],[-36,-38]],[[3606,1673],[-1,-1]],[[3606,1671],[1,2]],[[1865,701],[-6,-28]],[[1816,2290],[-2,6],[1,3],[1,-9]],[[1816,2290],[18,-49]],[[2275,182],[-142,61]],[[2388,118],[45,-7]],[[2429,596],[116,1],[54,-105]],[[2737,656],[151,108]],[[2946,12],[-19,-12]],[[3081,18],[-67,8]],[[3118,13],[17,-13]],[[3254,540],[-77,109]],[[3215,0],[47,18]],[[3236,262],[103,47],[36,-8]],[[3364,272],[-59,-77]],[[2543,90],[13,-14]],[[2508,104],[-9,9]],[[2528,95],[-17,8]],[[1830,1380],[-7,20]],[[416,548],[6,2]],[[1121,491],[83,-14]],[[2112,1247],[-2,1]],[[36,561],[-10,5]],[[140,500],[3,0]],[[190,455],[-28,24]],[[258,448],[-68,7]],[[501,396],[-17,-3]],[[594,387],[-64,15]],[[741,401],[-114,-21]],[[1003,420],[-50,-8]],[[3254,540],[26,-4],[-6,-34],[-102,-128]],[[10,3584],[-6,-59],[48,-57],[188,-125],[84,-13],[88,-79],[237,-15],[137,-108]],[[786,3128],[1,0]],[[787,3128],[-1,0]],[[788,3127],[1,0]],[[789,3127],[-1,1]],[[789,3127],[160,44],[133,123],[16,76]],[[2085,3577],[-232,-1],[-84,30],[-96,-42],[-75,-69],[-222,-40],[-80,42],[-153,-135]],[[2085,3577],[2,1]],[[2087,3578],[-2,-1]],[[2137,3508],[6,15]],[[2137,3508],[3,-4]],[[2140,3504],[254,-184],[100,-49],[166,-17],[56,-59],[93,-26]],[[2144,3523],[-1,3]],[[2809,3169]],[[2809,3169]],[[2810,3169],[1,0]],[[2811,3169],[-1,0]],[[2811,3169]],[[3107,3093],[18,-31],[58,54],[118,-20],[131,11],[30,-20],[96,48],[77,1]],[[3747,3146],[197,-90],[152,69]],[[788,3127],[-1,1]],[[787,3128],[0,-1],[1,0]],[[2810,3169]],[[2810,3169],[0,1],[-1,-1],[1,0]],[[1808,608],[-11,-5]],[[1808,608],[21,16],[6,6]],[[1835,630],[8,8]],[[1843,638],[-1,-2],[-7,-6]],[[1835,630],[-6,-6],[-21,-16]],[[2588,86],[-9,-28]],[[3002,774],[122,-76],[25,40]],[[2138,3508],[-1,-1]],[[2139,3505],[1,0]],[[3708,1073],[-53,150]],[[2908,1722],[-4,8]],[[3757,429],[-102,-41],[3,-44]],[[2881,3026],[-12,14]],[[2893,3006],[13,-6]],[[1812,303],[9,1]],[[1812,568],[-12,2]],[[2925,3171],[1,1]],[[1003,423],[0,-3]],[[3287,387],[-9,-1]],[[3225,116],[28,-53]],[[2286,178],[46,-58]],[[2390,128],[-53,-7]],[[2983,2352],[21,-12],[-20,-48]],[[1687,1553],[-165,48],[-66,-24],[-34,24],[-103,-63],[-27,15],[-41,-26]],[[1880,1333],[-47,44]],[[1056,2478],[1,0]],[[3306,383],[36,0]],[[2984,2292],[12,29],[-55,50],[-3,42]],[[3020,2215],[5,8]],[[3024,2226]],[[3024,2225],[1,-2]],[[3025,2223],[0,2]],[[3025,2225],[0,1],[-1,-1],[1,0]],[[307,944],[-42,1]],[[3065,2208],[4,-4]],[[3097,2092],[27,-48]],[[3133,2020],[50,1]],[[3196,2022],[-3,-50]],[[3398,1899],[34,0]],[[98,1952],[47,-60],[29,-210],[-61,-75],[-113,-20]],[[920,1967],[2,-1]],[[2630,63],[12,-24]],[[2630,63],[-37,22]],[[213,283],[-2,3]],[[699,3067],[1,0]],[[329,948],[18,-5]],[[412,934],[13,1]],[[427,934],[6,3]],[[472,951],[0,1]],[[2929,3215],[0,-3]],[[1766,591],[0,-1]],[[1945,2115],[57,21],[31,-51],[72,32]],[[2140,2084],[15,-19]],[[2236,2021],[4,-2]],[[2317,2023],[72,-5]],[[3366,393],[183,-63]],[[143,500],[0,-5]],[[1875,522],[-6,6]],[[3087,3730],[61,4]],[[546,595],[63,17]],[[1812,2299],[20,-57]],[[0,1994],[31,39],[59,-12],[9,-53]],[[190,455]],[[530,402],[-29,-6]],[[627,380],[-33,7]],[[953,412],[-152,0],[-32,-28],[-28,17]],[[2787,3910],[-3,-107],[-30,-31],[9,-44],[-29,-47],[33,-35],[9,-100],[46,-98],[-7,-67],[20,-8]],[[2807,3939],[69,36]],[[3022,2978],[20,16],[1,17],[-3,7]],[[3040,3018],[-18,-40]],[[3078,2856],[-56,122]],[[3137,2815],[-57,39]],[[3476,2663],[-108,68],[-205,72]],[[3687,2424],[-25,40],[-78,41],[-104,154]],[[3687,2424],[6,-1]],[[3693,2423],[107,-89]],[[2264,2166],[-53,41]],[[632,965],[176,5],[22,-64],[46,14],[182,-41],[45,-33],[137,40],[35,-15],[163,22],[232,133],[33,47]],[[1704,1075],[-1,-1]],[[1704,1075],[62,39],[-4,72],[116,145]],[[1878,1334],[0,-3]],[[1878,1331],[2,2]],[[2588,87],[0,-1]],[[2593,85],[-4,2]],[[3128,3489],[42,61],[-5,166]],[[11,586],[-7,2]],[[75,516],[1,2]],[[91,497],[1,2]],[[1868,679],[-16,-28],[-6,-10],[-3,-3]],[[1843,638]],[[1843,638]],[[1843,638],[4,3],[3,5],[20,36]],[[2392,2031],[-128,135]],[[1762,577],[38,-7]],[[2132,3543],[12,-20]],[[968,2482],[51,1]],[[1019,2483],[-51,0]],[[1019,2483],[38,-4]],[[1058,2478],[1,0]],[[1059,2478],[-1,1]],[[1059,2478],[83,-146],[130,-385]],[[1275,1947],[25,-11],[78,-226]],[[1057,2479],[0,-1],[1,1],[0,1],[-1,-1]],[[1274,1945],[0,1],[-1,0],[1,-1]],[[2460,118],[34,2]],[[2918,3163],[-107,6]],[[2927,3160],[-9,3]],[[2936,3140],[-9,20]],[[2983,3115],[-6,2],[4,-1],[2,-1]],[[2988,3112],[-5,3]],[[2988,3112],[3,-3]],[[2992,3110],[-4,2]],[[2993,3108],[1,2]],[[3005,3140],[75,-14],[27,-33]],[[0,2372],[18,120]],[[33,2520],[59,112],[-18,71],[20,60],[190,133],[255,39],[121,64],[40,70],[-21,103],[-22,66],[-70,81],[37,51],[160,62],[31,64]],[[757,4096],[2,-1],[10,-34],[-42,-43]],[[728,4018],[42,43],[-8,28],[-2,7],[-1,0]],[[2835,3373],[64,-5],[29,-152]],[[2928,3216],[2,-3]],[[2929,3215],[-1,1]],[[2931,3213],[-2,2]],[[2933,3211],[-4,4]],[[2932,3212],[1,-1]],[[2933,3211],[-1,2]],[[2933,3211],[73,-53]],[[2992,3110],[-1,-1]],[[2993,3108],[47,-90]],[[3040,3018],[-5,19],[-2,20],[-3,16],[-8,10],[-13,14],[-11,11],[-4,2]],[[3006,3158],[-1,-18]],[[3005,3140],[3,16],[-2,2]],[[1810,304],[2,-1]],[[727,4018],[-32,-22],[-12,-21],[5,-74],[2,-6],[5,-8],[69,-34],[59,-131],[6,-21],[8,-16],[1,-41],[12,-67],[5,-14],[1,-11]],[[856,3552],[0,-2],[-33,-45],[-2,-3]],[[821,3502],[-2,-2],[-4,-4],[3,3],[3,3]],[[821,3502],[35,50]],[[856,3552],[1,2],[-20,131],[-14,38],[-58,131],[-77,49],[-5,73],[45,42]],[[2408,595],[20,8]],[[3017,2214],[3,1]],[[1755,537],[0,2]],[[1895,768],[-28,-56]],[[1895,768],[3,-1],[0,1],[-3,0]],[[1729,585],[8,2]],[[0,630],[36,-69]],[[76,518],[207,-24],[133,54]],[[422,550],[40,39]],[[462,589],[52,13]],[[514,602],[32,-7]],[[1687,617],[-315,-18],[-47,43],[-232,88],[-213,-70],[-44,-39],[-145,28],[-82,-37]],[[1687,617],[20,-16]],[[1700,613],[-13,4]],[[1707,601],[-20,16]],[[1707,601]],[[1707,601],[3,-3]],[[1710,598],[-3,3]],[[1710,598],[33,-24]],[[2611,437],[-58,-46],[-108,39],[-127,-8],[-53,-54],[-64,46],[-239,44],[-87,64]],[[2963,373],[-189,-11],[-93,123],[-69,-47]],[[2612,438],[-1,0],[0,-1]],[[2611,437],[1,0],[0,1]],[[3303,381],[-339,-8]],[[3342,383],[35,14],[-3,-20],[33,48],[85,-84],[71,-16],[95,19]],[[4096,361],[-43,2],[-168,94],[-128,-28]],[[2963,374],[1,-2]],[[3379,281],[-1,22]],[[2849,3211],[1,0],[-1,0]],[[2930,3213],[0,-1]],[[2994,3110],[-2,0]],[[2849,3211],[0,-1],[0,1]],[[3301,388],[65,5]],[[3549,330],[5,0]],[[2806,2709],[14,64]],[[2888,2830],[-6,-31]],[[2909,2902],[-11,-35]],[[2923,2840],[-9,-1]],[[2932,2914],[6,-11]],[[2946,2419],[-1,-5]],[[2999,3286],[-24,-51]],[[3148,3734],[0,-8]],[[1274,1946],[-1,-1]],[[1274,1946]],[[1762,179],[8,-39],[-63,-140]],[[1885,1330],[-5,3]],[[2121,250],[12,-7]],[[2175,993],[-25,-29]],[[2212,1205],[22,-21]],[[2243,1124],[-19,24]],[[2286,178],[-11,4]],[[2390,128],[-2,-10]],[[2428,603],[1,-7]],[[2615,490],[-16,2]],[[2888,764],[3,3]],[[3009,27],[5,-1]],[[3087,21],[-5,-2]],[[3090,21],[1,1]],[[3106,18],[12,-5]],[[3216,260],[20,2]],[[3253,63],[12,4]],[[3305,195],[-3,-7]],[[3379,281],[-15,-9]],[[1944,1394],[-2,2]],[[2219,1093],[-2,-37]],[[2433,111],[27,7]],[[2088,3578],[-1,1],[0,-1],[1,-1],[0,1]],[[2089,3577],[-1,1]],[[2984,2292],[39,-65]],[[2808,2697],[-2,12]],[[2499,113],[-2,3]],[[2909,2902],[29,1]],[[1774,588],[5,1]],[[1731,677],[5,0]],[[1736,678],[-3,0]],[[804,3486],[14,13]],[[347,943],[45,-14]],[[410,934],[2,0]],[[433,937],[39,14]],[[478,954],[150,28]],[[2497,116],[-3,3]],[[3236,118],[-4,5]],[[2070,220],[51,30]],[[2588,86],[0,1]],[[3172,374],[14,-72],[38,-13]],[[2828,2776],[-8,-3]],[[2538,96],[5,-6]],[[2578,59],[1,-1]],[[2926,3172],[1,0]],[[2945,3177],[5,1]],[[1942,1396],[-31,48]],[[1958,1368],[-14,26]],[[1911,1444],[-71,173]],[[1958,1368],[44,-18],[-2,-64]],[[1729,585],[-311,10]],[[2642,39],[19,-39]],[[1945,2115],[18,-163],[-46,-137],[119,-142],[121,-29],[-27,-82],[24,-21],[-4,-183],[62,-153]],[[2991,3109],[2,-1]],[[3002,3124],[-10,-14]],[[2994,3110],[8,14]],[[1143,3362],[-45,8]],[[2088,3577],[3,-1]],[[2091,3576],[-2,1]],[[2132,3543],[-41,33]],[[2562,72],[16,-13]],[[1810,304],[-6,52],[-74,48],[-7,56],[32,77]],[[1796,257],[-34,-78]],[[1907,795],[-32,-95]],[[1876,699],[31,96]],[[2110,1248],[-225,82]],[[2157,949],[-250,-154]],[[2204,1211],[-92,36]],[[2146,968],[4,-4]],[[2164,997],[-18,-28]],[[2146,969],[-1,-1],[1,0],[0,1]],[[2202,1078],[-36,-68]],[[2215,1097],[-12,-18]],[[2203,1079],[-1,0],[0,-1]],[[2202,1078],[1,0],[0,1]],[[2212,1205],[22,-21]],[[2224,1148],[19,-24]],[[2925,3171],[-1,-6]],[[2950,3178],[8,14]],[[2958,3192],[1,3]],[[3005,3140],[-3,-16]],[[3002,3124],[3,7],[0,9]],[[0,0],[0,4096],[4096,0],[0,-4096],[-4096,0]],[[255,0],[50,20],[10,122],[-49,120],[-55,22],[9,48],[21,-44],[79,-15],[47,71],[39,-8],[15,23],[10,-28],[81,75],[133,-30],[171,45],[42,-21],[93,18],[29,-74],[54,-14],[2,-65],[44,-34],[-16,-104],[12,-20],[57,69],[41,-4],[22,-70],[25,56],[36,-38],[15,-67],[30,25],[93,-78],[-1140,0]],[[0,430],[25,-20],[18,28],[63,9],[27,-23],[14,39],[34,-24],[9,17],[41,-62],[-13,-39],[-54,35],[24,-33],[-75,-11],[-26,-22],[124,2],[-7,-27],[-29,2],[18,-15],[-19,-34],[-70,-34],[64,-71],[-49,-45],[52,-38],[-23,-37],[-47,17],[18,-37],[-25,-7],[-94,0],[0,430]],[[206,1313],[25,30],[0,62],[53,45],[22,96],[86,52],[131,-15],[4,34],[57,-45],[22,24],[179,-6],[48,29],[22,-23],[48,29],[65,-4],[14,43],[-22,1],[4,26],[83,-10],[18,116],[73,-129],[21,32],[21,-12],[17,47],[-56,-7],[18,53],[-54,20],[-8,40],[78,-24],[43,-127],[76,-8],[-19,-123],[-72,-97],[5,-107],[-44,-79],[-5,-126],[-46,5],[-143,94],[-39,49],[4,33],[-78,53],[-182,18],[-47,-25],[-4,-77],[-96,-77],[-81,-12],[-34,38],[-28,-10],[-35,28],[-37,-33],[-35,7],[-58,34],[-14,38]],[[3631,4096],[74,0],[-8,-42],[60,18],[72,-73],[136,-76],[35,-116],[-11,-36],[-68,30],[-90,-18],[-15,-49],[-47,-19],[-31,15],[-27,-38],[-135,-6],[-71,42],[-70,-55],[-53,96],[-76,-2],[-206,116],[-41,-13],[16,29],[-36,43],[-112,13],[-64,-31],[-10,21],[40,10],[32,109],[74,28],[107,4],[115,0],[3,-27],[94,4],[61,-38],[73,56],[179,5]],[[3773,4096],[323,0],[0,-56],[-31,4],[-53,-53],[-89,45],[-22,48],[-54,-50],[-74,62]],[[2266,4096],[329,0],[-173,-21],[36,-102],[-45,-51],[-138,10],[-30,128],[21,36]],[[1524,0],[42,72],[81,-6],[-3,50],[54,39],[61,25],[51,-12],[123,78],[-2,-26],[36,8],[-59,-42],[58,10],[-24,-40],[127,59],[26,-16],[-7,-26],[116,1],[55,-66],[69,-9],[6,29],[11,-25],[34,17],[31,-30],[-16,-90],[-870,0]],[[2385,39],[5,-4],[7,15],[-5,-3],[-7,-8]],[[1959,144],[5,-1],[4,5],[-6,2],[-3,-6]],[[255,0],[50,20],[10,122],[-49,120],[-55,22],[9,48],[21,-44],[79,-15],[47,71],[39,-8],[15,23],[10,-28],[81,75],[133,-30],[171,45],[42,-21],[93,18],[29,-74],[54,-14],[2,-65],[44,-34],[-16,-104],[12,-20],[57,69],[41,-4],[22,-70],[25,56],[36,-38],[15,-67],[30,25],[93,-78],[-1140,0]],[[0,430],[25,-20],[18,28],[63,9],[27,-23],[14,39],[34,-24],[9,17],[41,-62],[-13,-39],[-54,35],[24,-33],[-75,-11],[-26,-22],[124,2],[-7,-27],[-29,2],[18,-15],[-19,-34],[-70,-34],[64,-71],[-49,-45],[52,-38],[-23,-37],[-47,17],[18,-37],[-25,-7],[-94,0],[0,430]],[[1848,2265],[44,44],[50,-4],[1,-50],[21,-10],[152,54],[24,-26],[44,10],[16,-35],[42,0],[12,-46],[-44,7],[2,-19],[-48,21],[-4,-39],[23,-7],[-16,-47],[-66,59],[-83,-16],[-107,44],[-22,-22],[-41,82]],[[2093,2086],[31,76],[51,-36],[-6,89],[41,-25],[-1,19],[60,-1],[112,-57],[14,-44],[140,-69],[54,-8],[31,41],[46,-51],[-48,-21],[-16,-53],[-209,85],[-146,-15],[-81,34],[-32,43],[-41,-7]],[[2642,200],[0,-200],[-97,0],[-32,100],[-97,34],[-1,66],[118,46],[58,-1],[51,-45]],[[1840,489],[-90,83],[-14,75],[45,5],[64,51],[53,-6],[-16,-169],[-42,-39]],[[3737,1067],[-125,27],[7,81],[54,72],[37,-3],[64,-100],[-5,-60],[-32,-17]],[[2804,2884],[-51,53],[18,96],[27,25],[38,323],[66,19],[96,-217],[105,-22],[24,-28],[-54,-104],[-199,-66],[-70,-79]],[[1019,2860],[2,32],[32,3],[29,46],[76,-3],[11,36],[53,29],[41,-15],[-16,-28],[47,4],[2,-18],[6,29],[38,-19],[6,27],[55,-33],[34,30],[-16,13],[38,-30],[89,26],[101,-114],[-98,-66],[-39,2],[38,-34],[-73,-14],[30,-11],[-1,-37],[-88,26],[-39,-13],[-38,-43],[10,-59],[-24,43],[-31,-12],[14,30],[-36,0],[6,-14],[0,-2],[-1,-6],[-27,16],[8,135],[-47,-17],[-83,51],[-109,10]],[[0,2145],[87,-69],[84,96],[62,22],[67,-10],[1,-114],[-301,-1],[0,76]],[[1324,1519],[101,80],[83,-53],[69,11],[74,-42],[62,15],[45,-31],[17,30],[27,-61],[-58,-25],[21,-9],[-15,-18],[69,-7],[23,-59],[-97,-92],[-50,27],[3,31],[-90,50],[-5,-6],[8,-5],[-3,-4],[9,-7],[6,-6],[-1,-2],[-42,1],[-28,36],[-178,45],[-50,101]],[[4096,2004],[0,-12],[-54,-38],[-27,28],[-69,-4],[-90,-77],[-10,-56],[-55,-29],[15,-71],[-22,-27],[-50,15],[-132,-62],[-63,124],[-87,-18],[28,59],[-49,65],[-33,-1],[-51,-59],[-31,1],[-42,60],[-43,-19],[4,69],[26,-25],[6,28],[-74,4],[4,63],[-78,-3],[9,45],[-41,38],[31,34],[-46,16],[-3,55],[-141,18],[-79,-72],[-55,-13],[-93,76],[-4,-72],[-31,-22],[-97,80],[12,32],[-51,-3],[-25,25],[-45,-13],[-33,50],[-89,25],[-77,-5],[-31,50],[-62,29],[-16,41],[30,32],[-69,55],[-2,101],[22,62],[74,-12],[-5,-109],[59,-66],[142,76],[115,9],[9,35],[46,-12],[29,36],[5,-28],[116,-47],[62,7],[-2,-38],[27,-4],[-7,-27],[43,-54],[97,-38],[29,36],[-70,88],[-12,50],[29,41],[-28,0],[-7,26],[75,71],[247,-86],[105,6],[67,-43],[12,30],[51,17],[107,-100],[3,-48],[48,-19],[-27,-93],[63,-39],[49,6],[112,-108],[88,-5],[7,-96],[-62,3],[7,-66],[114,-10],[146,-68]],[[2483,109],[31,8],[-31,17],[77,-14],[-9,16],[33,15],[-16,-21],[30,-13],[7,-12],[-21,-35],[12,-30],[-75,1],[9,19],[-40,3],[-7,46]],[[1689,645],[49,36],[-9,-21],[43,-22],[82,24],[-58,-129],[-75,8],[40,19],[-44,35],[8,16],[59,12],[-95,22]],[[3608,3193],[13,2],[13,-11],[-23,24],[29,-4],[30,-55],[70,73],[14,-8],[-37,-39],[38,-36],[-57,1],[35,-14],[7,-27],[-20,26],[-26,11],[28,-22],[-33,7],[6,-51],[-35,61],[38,-95],[-60,83],[14,13],[-38,9],[26,9],[-32,43]],[[0,1587],[114,20],[64,73],[104,-71],[103,6],[9,-29],[-88,-41],[-22,-95],[-53,-45],[-20,-113],[69,-54],[33,-4],[36,33],[98,-56],[81,12],[97,78],[5,78],[83,26],[144,-21],[78,-53],[-5,-33],[40,-49],[143,-94],[54,-5],[-12,73],[51,121],[-3,118],[72,97],[26,158],[46,58],[23,-73],[52,50],[-15,61],[40,0],[-4,-78],[102,-125],[-28,-6],[266,-79],[40,-140],[92,-81],[60,-11],[5,-47],[-81,-1],[57,-23],[-14,-40],[39,-38],[-35,-47],[-33,-4],[10,-27],[-56,34],[-18,-29],[20,-22],[-24,-20],[-37,35],[19,-51],[-79,38],[-21,-41],[25,-32],[-37,-21],[78,-72],[0,-31],[-65,29],[9,32],[-92,63],[3,-65],[-30,-34],[45,-21],[-39,-35],[-112,10],[-35,35],[-4,-107],[-24,-12],[-27,25],[3,-19],[-53,36],[-7,-85],[-35,29],[-17,70],[-26,-87],[-54,47],[-95,-46],[-15,65],[-60,2],[-50,53],[-88,-30],[-37,27],[-51,-6],[-13,39],[-51,-35],[-30,105],[-68,1],[-18,-52],[-50,69],[-25,-41],[-79,-28],[-25,66],[-43,-19],[-39,35],[20,-34],[-30,-12],[-42,11],[10,24],[-197,-15],[-157,59],[0,584]],[[0,103],[47,28],[28,-52],[-75,-76],[0,100]],[[0,245],[28,-9],[-28,64],[0,47],[39,-6],[2,22],[-41,11],[0,57],[48,-66],[-4,-23],[4,4],[26,-43],[51,24],[57,-13],[-7,-39],[-75,-45],[-85,-14],[-15,29]],[[67,270],[18,-13],[11,18],[-6,4],[-23,-9]],[[45,283],[7,-7],[-3,24],[-2,-1],[-2,-16]]]}