{"objects":{"water":{"type":"GeometryCollection","geometries":[]},"buildings":{"type":"GeometryCollection","geometries":[]},"places":{"type":"GeometryCollection","geometries":[{"type":"Point","properties":{"name:sr":"\u041c\u0438\u0448\u043a\u043e\u043b\u0446","name:ro":"Mi\u0219col\u021b","name:lv":"Mi\u0161kolca","name:ja":"\u30df\u30b7\u30e5\u30b3\u30eb\u30c4","name:ka":"\u10db\u10d8\u10e8\u10d9\u10dd\u10da\u10ea\u10d8","name:ko":"\ubbf8\uc288\ucf5c\uce20","name:ar":"\u0645\u064a\u0634\u0643\u0648\u0644\u062a\u0633","name":"Miskolc","min_zoom":8.0,"name:sk":"Mi\u0161kovec","name:uk":"\u041c\u0456\u0448\u043a\u043e\u043b\u044c\u0446","name:ru":"\u041c\u0438\u0448\u043a\u043e\u043b\u044c\u0446","name:pl":"Miszkolc","name:de":"Mischkolz","name:hr":"Mi\u0161kolc","id":64622559,"name:mk":"\u041c\u0438\u0448\u043a\u043e\u043b\u0446","population":158101,"name:fa":"\u0645\u06cc\u0634\u06a9\u0648\u0644\u062a\u0633","kind":"locality","name:bg":"\u041c\u0438\u0448\u043a\u043e\u043b\u0446","name:lt":"Mi\u0161kolcas","kind_detail":"city","name:he":"\u05de\u05d9\u05e9\u05e7\u05d5\u05dc\u05e5","old_name:de":"Mischkolz","source":"openstreetmap.org","name:zh":"\u7c73\u4ec0\u79d1\u5c14\u8328"},"coordinates":[3212,497]},{"type":"Point","properties":{"kind":"locality","name:sk":"\u0160algov-Tarjany","name":"Salg\u00f3tarj\u00e1n","kind_detail":"city","name:de":"Schalgotarjan","source":"openstreetmap.org","min_zoom":8.0,"name:ru":"\u0428\u0430\u043b\u044c\u0433\u043e\u0442\u0430\u0440\u044c\u044f\u043d","id":243688523,"population":35188},"coordinates":[329,466]},{"type":"Point","properties":{"kind":"locality","name":"\u00d3zd","kind_detail":"town","source":"openstreetmap.org","min_zoom":8.0,"name:ru":"\u041e\u0437\u0434","id":268215944,"population":33141},"coordinates":[1771,1009]},{"type":"Point","properties":{"kind":"locality","name:sk":"Kazinec","name":"Kazincbarcika","kind_detail":"town","source":"openstreetmap.org","min_zoom":8.0,"name:uk":"\u041a\u0430\u0437\u0456\u043d\u0446\u0431\u0430\u0440\u0446\u0438\u043a\u0430","name:ru":"\u041a\u0430\u0437\u0438\u043d\u0446\u0431\u0430\u0440\u0446\u0438\u043a\u0430","id":245769604,"population":27078},"coordinates":[2723,1162]},{"type":"Point","properties":{"kind":"locality","name":"Rimavsk\u00e1 Sobota","kind_detail":"town","name:de":"Gro\u00dfsteffelsdorf","source":"openstreetmap.org","min_zoom":8.0,"loc_name":"Rima-Szombat,Rimaszombat,Rimavska Sobota,Rimavsk\u00e1 Sobota,Sobota Rimavska,Sobota Rimavsk\u00e1","name:ru":"\u0420\u0438\u043c\u0430\u0432\u0441\u043a\u0430 \u0421\u043e\u0431\u043e\u0442\u0430","name:pl":"Rymawska Sobota","name:hu":"Rimaszombat","id":26036617,"population":24309},"coordinates":[963,1728]},{"type":"Point","properties":{"kind":"locality","name":"Ro\u017e\u0148ava","kind_detail":"town","name:de":"Rosenau","source":"openstreetmap.org","min_zoom":8.0,"loc_name":"Rozhnjava,Roznava,Rozsnyo,Rozsny\u00f3,Ro\u017e\u0148ava","name:ru":"\u0420\u043e\u0436\u043d\u044f\u0432\u0430","name:pl":"Ro\u017cniawa","name:hu":"Rozsny\u00f3","id":26036896,"population":19043},"coordinates":[2458,2918]},{"type":"Point","properties":{"kind":"locality","name":"Rev\u00faca","kind_detail":"town","name:de":"Gro\u00df-Rauschenbach","source":"openstreetmap.org","min_zoom":8.0,"loc_name":"Nagyroce,Nagyr\u0151ce,Revuca,Rev\u00face","name:ru":"\u0420\u0435\u0432\u0443\u0446\u0430","name:hu":"Nagyr\u0151ce","id":26037282,"population":12975},"coordinates":[1250,3046]},{"type":"Point","properties":{"kind":"locality","name:sk":"Terany","name":"B\u00e1tonyterenye","kind_detail":"town","source":"openstreetmap.org","min_zoom":8.0,"id":286129272,"population":12221},"coordinates":[408,26]},{"type":"Point","properties":{"kind":"locality","name:sk":"Sv\u00e4t\u00fd Peter nad Slanou","name":"Saj\u00f3szentp\u00e9ter","kind_detail":"town","name:de":"Sankt Peter","source":"openstreetmap.org","min_zoom":8.0,"name:ru":"\u0428\u0430\u0439\u043e\u0441\u0435\u043d\u0442\u043f\u0435\u0442\u0435\u0440","id":245767926,"population":11491},"coordinates":[2975,1003]},{"type":"Point","properties":{"kind":"locality","name":"Moldava nad Bodvou","kind_detail":"town","name:de":"Moldau an der Bodwa","source":"openstreetmap.org","min_zoom":8.0,"name:hu":"Szepsi","id":530544418,"population":11000},"coordinates":[3815,2742]},{"type":"Point","properties":{"kind":"locality","name":"Fi\u013eakovo","kind_detail":"town","name:de":"Fileck","source":"openstreetmap.org","min_zoom":8.0,"loc_name":"Fulek,F\u00fclek","name:ru":"\u0424\u0438\u043b\u044f\u043a\u043e\u0432\u043e","name:pl":"Filakovo","name:hu":"F\u00fclek","id":26037578,"population":10342},"coordinates":[393,1231]},{"type":"Point","properties":{"kind":"locality","name:sk":"Edel\u00edn","name":"Edel\u00e9ny","kind_detail":"town","name:de":"Edeling","source":"openstreetmap.org","min_zoom":8.0,"name:ru":"\u042d\u0434\u0435\u043b\u0435\u043d\u044c","id":248466484,"population":9516},"coordinates":[3048,1334]},{"type":"Point","properties":{"kind":"locality","name":"Krompachy","kind_detail":"town","name:de":"Krompach","source":"openstreetmap.org","min_zoom":8.0,"loc_name":"Korompa,Krompachi,Krompachy,Krompakhi","name:hu":"Korompa","id":26036409,"population":8809},"coordinates":[3460,4060]},{"type":"Point","properties":{"kind":"locality","name":"Torna\u013ea","kind_detail":"town","source":"openstreetmap.org","min_zoom":8.0,"loc_name":"Safarikovo,\u0160af\u00e1rikovo","name:ru":"\u0422\u043e\u0440\u043d\u0430\u043b\u044f","name:hu":"Tornalja","id":26036918,"population":7920},"coordinates":[1852,1898]},{"type":"Point","properties":{"kind":"locality","name":"Hn\u00fa\u0161\u0165a","kind_detail":"town","name:de":"Nusten","source":"openstreetmap.org","min_zoom":8.0,"name:ru":"\u0413\u043d\u0443\u0448\u0442\u044f","name:hu":"Nyustya","id":26036127,"population":7471},"coordinates":[774,2586]},{"type":"Point","properties":{"kind":"locality","name:sk":"Putn\u00edk","name":"Putnok","kind_detail":"town","source":"openstreetmap.org","min_zoom":8.0,"name:ru":"\u041f\u0443\u0442\u043d\u043e\u043a","id":286985492,"population":6609},"coordinates":[2175,1337]},{"type":"Point","properties":{"kind":"locality","name:sk":"Vy\u0161n\u00e1 \u017dolca","name":"Fels\u0151zsolca","kind_detail":"town","source":"openstreetmap.org","min_zoom":8.0,"name:ru":"\u0424\u0435\u043b\u044c\u0448\u0451\u0436\u043e\u043b\u044c\u0446\u0430","id":244172750,"population":6486},"coordinates":[3413,525]},{"type":"Point","properties":{"kind":"locality","name":"Gelnica","kind_detail":"town","name:de":"G\u00f6llnitz","source":"openstreetmap.org","min_zoom":8.0,"loc_name":"Gelnica,Goelnicbanya,Gollnitz,G\u00f6lnicb\u00e1nya","name:hu":"G\u00f6lnicb\u00e1nya","id":26038139,"population":6157},"coordinates":[3639,3792]},{"type":"Point","properties":{"source":"openstreetmap.org","kind":"locality","name":"Polt\u00e1r","kind_detail":"town","population":5836,"min_zoom":8.0,"id":26036195},"coordinates":[306,1937]},{"type":"Point","properties":{"kind":"locality","name:sk":"Ni\u017en\u00e1 \u017dolca","name":"Als\u00f3zsolca","kind_detail":"town","source":"openstreetmap.org","min_zoom":8.0,"name:ru":"\u0410\u043b\u044c\u0448\u043e\u0436\u043e\u043b\u044c\u0446\u0430","id":286979602,"population":5606},"coordinates":[3479,353]},{"type":"Point","properties":{"kind":"locality","name:sk":"Siksava","name":"Sziksz\u00f3","kind_detail":"town","name:de":"Sixau","source":"openstreetmap.org","min_zoom":8.0,"name:ru":"\u0421\u0438\u043a\u0441\u043e","id":286982043,"population":5307},"coordinates":[3612,929]},{"type":"Point","properties":{"kind":"locality","name":"Dob\u0161in\u00e1","kind_detail":"town","name:de":"Dobschau","source":"openstreetmap.org","min_zoom":8.0,"name:la":"Dobsinium","loc_name":"Dobshina;Dob\u0161in\u00e1","name:ru":"\u0414\u043e\u0431\u0448\u0438\u043d\u0430","name:pl":"Dobszyna","name:hu":"Dobsina","id":26037427,"population":5148},"coordinates":[1973,3651]},{"type":"Point","properties":{"kind":"locality","name":"Ny\u00e9kl\u00e1dh\u00e1za","kind_detail":"town","source":"openstreetmap.org","min_zoom":8.0,"name:ru":"\u041d\u044c\u0435\u043a\u043b\u0430\u0434\u0445\u0430\u0437\u0430","id":244172660,"population":4865},"coordinates":[3329,10]},{"type":"Point","properties":{"kind":"locality","name":"Onga","kind_detail":"town","source":"openstreetmap.org","min_zoom":8.0,"name:ru":"\u041e\u043d\u0433\u0430","id":354944685,"population":4764},"coordinates":[3569,574]},{"type":"Point","properties":{"kind":"locality","name:sk":"Sendrov","name":"Szendr\u0151","kind_detail":"town","source":"openstreetmap.org","min_zoom":8.0,"name:ru":"\u0421\u0435\u043d\u0434\u0440\u0451","id":286985356,"population":4249},"coordinates":[3044,1814]},{"type":"Point","properties":{"kind":"locality","name":"Tisovec","kind_detail":"town","name:de":"Thei\u00dfholz","source":"openstreetmap.org","min_zoom":8.0,"name:la":"Taxovia","name:hu":"Tiszolc","id":26036952,"population":4091},"coordinates":[741,3037]},{"type":"Point","properties":{"kind":"locality","name":"Medzev","kind_detail":"town","name:de":"Metzenseifen","source":"openstreetmap.org","min_zoom":8.0,"loc_name":"Nizni Medzev,Nizny Medzev,Ni\u017en\u00ed Medzev,Ni\u017en\u00fd Medzev,Unter-Metzenseifen","name:ru":"\u041c\u0435\u0434\u0437\u0435\u0432","name:hu":"Meczenz\u00e9f","id":530544420,"population":3846},"coordinates":[3509,3120]},{"type":"Point","properties":{"kind":"locality","name":"Borsodn\u00e1dasd","kind_detail":"town","source":"openstreetmap.org","min_zoom":8.0,"name:ru":"\u0411\u043e\u0440\u0449\u043e\u0434\u043d\u0430\u0434\u0430\u0448\u0434","id":286986224,"population":3185},"coordinates":[1625,583]},{"type":"Point","properties":{"kind":"locality","name":"Jel\u0161ava","kind_detail":"town","name:de":"Eltsch","source":"openstreetmap.org","min_zoom":8.0,"name:la":"Alnovia","loc_name":"Elshava,Jelsava,Jel\u0161ava,Jolsva,Velsava","name:hu":"Jolsva","id":26038012,"population":3152},"coordinates":[1610,2802]},{"type":"Point","properties":{"kind":"locality","name":"B\u00e9lap\u00e1tfalva","kind_detail":"town","source":"openstreetmap.org","min_zoom":8.0,"name:ru":"\u0411\u0435\u043b\u0430\u043f\u0430\u0442\u0444\u0430\u043b\u044c\u0432\u0430","id":286962843,"population":2979},"coordinates":[1925,277]},{"type":"Point","properties":{"kind":"locality","name":"Saj\u00f3b\u00e1bony","kind_detail":"town","source":"openstreetmap.org","min_zoom":8.0,"name:ru":"\u0428\u0430\u0439\u043e\u0431\u0430\u0431\u043e\u043d\u044c","id":354944867,"population":2761},"coordinates":[3062,813]},{"type":"Point","properties":{"kind":"locality","name":"P\u00e9terv\u00e1s\u00e1ra","kind_detail":"town","source":"openstreetmap.org","min_zoom":8.0,"name:ru":"\u041f\u0435\u0442\u0435\u0440\u0432\u0430\u0448\u0430\u0440\u0430","id":286966161,"population":2065},"coordinates":[1197,128]}]},"transit":{"type":"GeometryCollection","geometries":[{"type":"MultiLineString","properties":{"source":"openstreetmap.org","kind":"train","sort_rank":275,"ref":"323","min_zoom":6.0,"osm_relation":true},"arcs":[[9],[10],[11],[12],[13],[14],[15],[16],[17],[18],[19],[20],[21],[22],[23],[24],[25],[26],[27],[28],[29],[30],[31],[32],[33],[34],[35],[36],[37],[38],[39],[40],[41],[42],[43],[44],[45],[46],[47],[48],[49],[50],[51],[52],[53],[54],[55],[56],[57],[58],[59],[60],[61],[62],[63],[64],[65],[66],[67],[68],[69],[70],[71],[72],[73],[74],[75],[76],[77],[78],[79],[80],[81],[82],[83],[84],[85]]},{"type":"LineString","properties":{"kind":"train","sort_rank":275,"source":"openstreetmap.org","min_zoom":6.0,"operator":"M\u00c1V","ref":"90","id":-77596,"osm_relation":true},"arcs":[86]},{"type":"LineString","properties":{"kind":"train","name:en":"Blue line","description":"\u010cierny Balog \u2013 Dobro\u010d","sort_rank":275,"source":"openstreetmap.org","min_zoom":6.0,"operator":"chz","id":-2320049,"osm_relation":true,"name":"Modr\u00e1 trasa"},"arcs":[87]},{"type":"MultiLineString","properties":{"kind":"train","network":"\u017dSR","service":"fast_train","sort_rank":275,"source":"openstreetmap.org","min_zoom":6.0,"operator":"ZSSK","ref":"R","osm_relation":true,"name":"R Bratislava-Zilina-Kosice"},"arcs":[[88],[89],[90],[91],[92],[93],[94],[95]]},{"type":"MultiLineString","properties":{"kind":"train","name":"80: Hatvan\u2013Miskolc\u2013Szerencs\u2013S\u00e1toralja\u00fajhely\/Ny\u00edregyh\u00e1za","sort_rank":275,"source":"openstreetmap.org","min_zoom":6.0,"operator":"M\u00c1V","ref":"80","osm_relation":true},"arcs":[[96],[97]]},{"type":"MultiLineString","properties":{"source":"openstreetmap.org","kind":"train","network":"LAEV","sort_rank":275,"min_zoom":6.0,"osm_relation":true,"name":"331"},"arcs":[[98],[99],[100],[101],[102],[103],[104],[105],[106],[107],[108],[109],[110],[111],[112],[113],[114],[115],[116],[117],[118],[119],[120],[121],[122],[123],[124],[125],[126],[127],[128],[129],[130],[131],[132],[133],[134],[135],[136],[137],[138],[139],[140],[141],[142],[143],[144],[145],[146],[147],[148],[149],[150],[151],[152],[153],[154],[155],[156],[157],[158],[159],[160],[161],[162],[163],[164],[165],[166],[167],[168],[169],[170],[171],[172],[173],[174],[175],[176],[177],[178],[179],[180],[181],[182],[183],[184],[185],[186],[187],[188],[189],[190],[191],[192],[193],[194],[195],[196],[197],[198],[199],[200],[201],[202],[203],[204],[205],[206],[207],[208],[209],[210],[211],[212],[213],[214],[215],[216],[217],[218],[219],[220],[221],[222],[223],[224],[225],[226],[227],[228],[229],[230],[231],[232],[233],[234],[235],[236],[237],[238],[239],[240],[241],[242],[243],[244],[245],[246],[247],[248],[249],[250],[251],[252],[253],[254],[255],[256],[257],[258],[259],[260],[261],[262],[263],[264],[265],[266],[267],[268],[269],[270],[271],[272],[273],[274],[275],[276],[277],[278],[279],[280],[281],[282],[283],[284],[285],[286],[287],[288],[289],[290],[291],[292],[293],[294],[295],[296],[297],[298],[299],[300],[301],[302],[303],[304],[305],[306],[307],[308],[309],[310],[311],[312],[313],[314],[315],[316],[317],[318],[319],[320],[321],[322],[323],[324],[325],[326],[327],[328],[329],[330],[331],[332],[333],[334],[335],[336],[337],[338],[339],[340],[341],[342],[343],[344],[345],[346],[347],[348],[349],[350],[351],[352],[353],[354],[355],[356],[357],[358],[359],[360],[361],[362],[363],[364],[365],[366],[367],[368],[369],[370],[371],[372],[373],[374],[375],[376],[377],[378],[379],[380],[381],[382],[383],[384],[385],[386],[387],[388],[389],[390],[391],[392],[393],[394],[395],[396],[397],[398],[399],[400],[401],[402],[403],[404],[405],[406],[407],[408],[409],[410],[411],[412],[413],[414],[415],[416],[417],[418],[419],[420],[421],[422],[423],[424],[425],[426],[427],[428],[429],[430],[431],[432],[433],[434],[435],[436],[437],[438],[439],[440],[441],[442],[443],[444],[445],[446],[447],[448],[449],[450],[451],[452],[453],[454],[455],[456],[457],[458],[459],[460],[461],[462],[463],[464],[465],[466],[467],[468],[469],[470],[471],[472],[473],[474],[475],[476],[477],[478],[479],[480],[481],[482],[483],[484],[485]]},{"type":"LineString","properties":{"source":"openstreetmap.org","kind":"train","name":"ZSSK: Bratislava-Zvolen-Kosice","sort_rank":275,"ref":"R","min_zoom":6.0,"osm_relation":true},"arcs":[486]},{"type":"MultiLineString","properties":{"kind":"train","name":"92: Miskolc\u2013B\u00e1nr\u00e9ve","sort_rank":275,"source":"openstreetmap.org","min_zoom":6.0,"operator":"M\u00c1V","ref":"92","osm_relation":true},"arcs":[[487],[488],[489],[490],[491],[492],[493],[494],[495],[496],[497],[498]]},{"type":"MultiLineString","properties":{"kind":"train","name":"92a: B\u00e1nr\u00e9ve\u2013\u00d3zd","sort_rank":275,"source":"openstreetmap.org","min_zoom":6.0,"operator":"M\u00c1V","ref":"92A","osm_relation":true},"arcs":[[499],[500]]},{"type":"MultiLineString","properties":{"source":"openstreetmap.org","kind":"train","sort_rank":275,"ref":"321","min_zoom":6.0,"osm_relation":true},"arcs":[[501],[502],[503],[504],[505],[506],[507],[508],[509],[510],[511],[512],[513],[514],[515],[516],[517],[518],[519],[520],[521],[522],[523],[524],[525],[526],[527],[528],[529],[530],[531],[532],[533],[534],[535],[536],[537],[538],[539],[540],[541],[542],[543],[544],[545],[546],[547],[548],[549],[550],[551],[552],[553],[554],[555],[556],[557],[558],[559],[560],[561],[562],[563],[564],[565],[566],[567],[568],[569],[570],[571],[572],[573],[574],[575]]},{"type":"MultiLineString","properties":{"source":"openstreetmap.org","kind":"train","sort_rank":275,"ref":"330","min_zoom":6.0,"osm_relation":true},"arcs":[[576],[577],[578],[579],[580],[581],[582],[583],[584],[585],[586],[587],[588],[589],[590],[591],[592],[593],[594],[595],[596],[597],[598],[599],[600],[601],[602],[603],[604],[605],[606],[607],[608],[609],[610],[611],[612],[613],[614],[615],[616],[617],[618],[619],[620],[621],[622],[623],[624],[625],[626],[627],[628],[629],[630],[631],[632],[633],[634],[635],[636],[637],[638],[639],[640],[641],[642],[643],[644],[645],[646],[647],[648],[649],[650],[651],[652],[653],[654],[655],[656],[657],[658],[659],[660],[661],[662],[663],[664],[665],[666],[667],[668],[669],[670],[671],[672],[673],[674],[675],[676],[677],[678],[679],[680],[681],[682],[683],[684],[685],[686],[687],[688],[689],[690],[691],[692],[693],[694],[695],[696],[697],[698],[699],[700],[701],[702],[703],[704],[705],[706],[707],[708],[709],[710],[711],[712],[713],[714],[715],[716],[717],[718],[719],[720],[721],[722],[723],[724],[725],[726],[727],[728],[729],[730],[731],[732],[733],[734],[735],[736],[737],[738],[739],[740],[741],[742],[743],[744],[745],[746],[747],[748],[749],[750],[751],[752],[753],[754],[755],[756],[757],[758],[759],[760],[761],[762],[763],[764],[765],[766],[767],[768],[769],[770],[771],[772],[773],[774],[775],[776],[777],[778],[779],[780],[781],[782],[783],[784],[785],[786],[787],[788],[789],[790],[791],[792],[793],[794],[795],[796],[797],[798],[799],[800],[801],[802],[803],[804],[805],[806],[807],[808],[809],[810],[811],[812],[813],[814],[815],[816],[817],[818],[819],[820],[821],[822],[823],[824],[825],[826],[827],[828],[829],[830],[831],[832],[833],[834],[835],[836],[837],[838],[839],[840],[841],[842],[843],[844],[845],[846],[847],[848],[849],[850],[851],[852],[853],[854],[855],[856],[857],[858],[859],[860],[861],[862],[863],[864],[865],[866],[867],[868],[869],[870],[871],[872],[873],[874],[875],[876],[877],[878],[879],[880],[881],[882],[883],[884],[885],[886],[887],[888],[889],[890],[891],[892],[893],[894],[895],[896],[897],[898],[899],[900],[901],[902],[903],[904],[905],[906],[907],[908],[909],[910],[911],[912],[913],[914],[915],[916],[917],[918],[919],[920],[921],[922],[923],[924],[925],[926],[927],[928],[929],[930],[931],[932],[933],[934],[935],[936],[937]]},{"type":"LineString","properties":{"kind":"train","name":"94: Miskolc\u2013Tornan\u00e1daska","sort_rank":275,"source":"openstreetmap.org","min_zoom":6.0,"operator":"M\u00c1V","ref":"94","id":-253403,"osm_relation":true},"arcs":[938]}]},"pois":{"type":"GeometryCollection","geometries":[{"type":"Point","properties":{"name:nl":"Nationaal Park Slowaakse Karst","name:cs":"N\u00e1rodn\u00ed park Slovensk\u00fd kras","min_zoom":8.2,"tier":1,"name:pl":"Park Narodowy Kras S\u0142owacki","id":-3572332,"osm_relation":true,"name":"N\u00e1rodn\u00fd park Slovensk\u00fd kras","kind":"national_park","name:en":"Slovak Karst National Park","protect_class":"2","area":36146000,"name:de":"Nationalpark Slowakischer Karst","source":"openstreetmap.org","name:fr":"Parc national du karst de Slovaquie","name:es":"Parque nacional del Carst eslovaco"},"coordinates":[1989,2553]}]},"boundaries":{"type":"GeometryCollection","geometries":[{"type":"LineString","properties":{"name:right:yo":"Slof\u00e1k\u00ed\u00e0","name:right:yi":"\u05e1\u05dc\u05d0\u05d5\u05d5\u05d0\u05e7\u05d9\u05d9","name:left:la":"Hungaria","name:right:qu":"Isluwakya","name:left:li":"Hongarie\u00eb","name:left:vi":"Hungary","name:left:sw":"Hungaria","name:left:kg":"Hongrie","name:left:ka":"\u10e3\u10dc\u10d2\u10e0\u10d4\u10d7\u10d8","name:left:km":"\u1794\u17d2\u179a\u1791\u17c1\u179f\u17a0\u17bb\u1784\u1782\u17d2\u179a\u17b8","name:left:kl":"Ungarni","name:left:ko":"\ud5dd\uac00\ub9ac","name:right:it":"Slovacchia","name:left:ki":"Macartsa","name:left:ro":"Ungaria","name:left:kk":"\u041c\u0430\u0436\u0430\u0440\u0441\u0442\u0430\u043d","name:left:rm":"Ungaria","name:left:ku":"Macaristan","name:left:kw":"Hungari","name:left:kv":"\u041c\u0430\u0434\u044c\u044f\u0440 \u041c\u0443","name:left:rw":"Hongiriya","name:left:ru":"\u0412\u0435\u043d\u0433\u0440\u0438\u044f","name:right:ie":"Slovacia","name:right:id":"Slowakia","name:left:ky":"\u041c\u0430\u0436\u0430\u0440\u0441\u0442\u0430\u043d","name:right:ia":"Slovachia","name:right:bi":"Slovakia","name:right:bn":"\u09b8\u09cd\u09b2\u09cb\u09ad\u09be\u0995\u09bf\u09af\u09bc\u09be","name:right:bo":"\u0f66\u0f72\u0f0b\u0f63\u0f7c\u0f0b\u0f55\u0f0b\u0f41\u0f7a\u0f0d","name:left:sl":"Mad\u017earska","name:left:zh_PY":"Xiongyali","name:right:bg":"\u0421\u043b\u043e\u0432\u0430\u043a\u0438\u044f","name:right:be":"\u0421\u043b\u0430\u0432\u0430\u043a\u0456\u044f","name:right:br":"Slovakia","name:left:lt":"Vengrija","name:right:nn":"Slovakia","name:right:no":"Slovakia","name:right:nl":"Slowakije","name:left:lv":"Ung\u0101rija","name:right:wo":"Eslowaaki","name:right:ne":"\u0938\u094d\u0932\u094b\u092d\u093e\u0915\u093f\u092f\u093e","name:right:na":"Slowakia","name:right:gv":"Yn Clovack","name:right:nv":"S\u0142\u00f3ba\u02bc Bik\u00e9yah","kind_detail":"2","name:left:tr":"Macaristan","name:right:gu":"\u0ab8\u0acd\u0ab2\u0acb\u0ab5\u0abe\u0a95\u0abf\u0aaf\u0abe","name:right:ps":"\u0633\u0644\u0648\u0627\u06a9\u064a\u0627","name:right:pt":"Eslov\u00e1quia","name:left:mk":"\u0423\u043d\u0433\u0430\u0440\u0438\u0458\u0430","name:left:mi":"Hanekeria","name:left:ts":"Hungary","name:left:tt":"\u041c\u0430\u0497\u0430\u0440\u0441\u0442\u0430\u043d","name:left:mn":"\u0423\u043d\u0433\u0430\u0440","name:left:ml":"\u0d39\u0d02\u0d17\u0d31\u0d3f","name:left:th":"\u0e1b\u0e23\u0e30\u0e40\u0e17\u0e28\u0e2e\u0e31\u0e07\u0e01\u0e32\u0e23\u0e35","name:left:mr":"\u0939\u0902\u0917\u0947\u0930\u0940","name:left:tk":"Wengri\u00fda","name:left:tl":"Unggarya","name:left:mt":"Ungerija","name:right:gl":"Eslovaquia","name:left:my":"\u101f\u1014\u103a\u1002\u1031\u101b\u102e\u1014\u102d\u102f\u1004\u103a\u1004\u1036","name:right:gn":"Elovakia","name:right:pl":"S\u0142owacja","name:left:te":"\u0c39\u0c02\u0c17\u0c47\u0c30\u0c3f","name:left:tg":"\u041c\u0430\u04b7\u043e\u0440\u0438\u0441\u0442\u043e\u043d","name:left:ms":"Hungary","name:right:gd":"An t-Sl\u00f2bhac","name:right:tr":"Slovakya","name:left:da":"Ungarn","name:left:de":"Ungarn","name:right:ga":"An tSl\u00f3vaic","name:left:dv":"\u0780\u07a6\u0782\u07b0\u078e\u07ad\u0783\u07a9","name:right:ug":"\u0633\u0644\u0648\u06cb\u0627\u0643\u0649\u064a\u06d5","name:left:hi":"\u0939\u0902\u0917\u0930\u0940","name:right:lb":"Slowakei","name:right:uk":"\u0421\u043b\u043e\u0432\u0430\u0447\u0447\u0438\u043d\u0430","name:left:he":"\u05d4\u05d5\u05e0\u05d2\u05e8\u05d9\u05d4","name:right:ln":"Slovakia","name:right:li":"Slowakie\u00eb","name:right:lt":"Slovakija","name:right:ur":"\u0633\u0644\u0648\u0648\u0627\u06a9\u06cc\u06c1","name:right:lv":"Slov\u0101kija","name:left:hy":"\u0540\u0578\u0582\u0576\u0563\u0561\u0580\u056b\u0561","name:left:ta":"\u0b85\u0b99\u0bcd\u0b95\u0bc7\u0bb0\u0bbf","name:left:ht":"Ongri","name:right:uz":"Slovakiya","name:left:hr":"Ma\u0111arska","sort_rank":262,"name:right:os":"\u0421\u043b\u043e\u0432\u0430\u043a\u0438","name:right:es":"Eslovaquia","name:right:sr":"\u0421\u043b\u043e\u0432\u0430\u0447\u043a\u0430","name:right:eu":"Eslovakia","name:right:et":"Slovakkia","name:left:os":"\u0412\u0435\u043d\u0433\u0440\u0438","name:left:or":"\u0b39\u0b19\u0b4d\u0b17\u0b47\u0b30\u0b40","name:right:ee":"Slovakia","name:left:vo":"Macar\u00e4n","name:left:oc":"Ongria","name:right:eo":"Slovakujo","name:right:en":"Slovakia","name:right:el":"\u03a3\u03bb\u03bf\u03b2\u03b1\u03ba\u03af\u03b1","name:left:ff":"Hunngariya","name:left:fa":"\u0645\u062c\u0627\u0631\u0633\u062a\u0627\u0646","name:left:fo":"Ungarn","name:left:fi":"Unkari","name:left:fr":"Hongrie","name:left:fy":"Hongarije","name:right:ja":"\u30b9\u30ed\u30d0\u30ad\u30a2","name:right:sq":"Sllovakia","name:right:ss":"Silovakhi","name:left:ja":"\u30cf\u30f3\u30ac\u30ea\u30fc","name:right:su":"Slovakia","name:right:st":"Slovakia","name:right:sw":"Slovakia","name:right:sv":"Slovakien","name:right:sh":"Slova\u010dka","name:left:qu":"Unriya","name:right:jv":"Slowakia","name:right:sl":"Slova\u0161ka","name:right:so":"Islofaakiya","name:right:sa":"\u0938\u094d\u0932\u094b\u0935\u093e\u0915\u093f\u092f\u093e","name:left:jv":"Hongaria","id":-21335,"name:right:co":"Sluvacchia","name:right:ca":"Eslov\u00e0quia","name:right:se":"Slovakia","name:right:ce":"\u0421\u043b\u043e\u0432\u0430\u043a\u0438","name:right:cy":"Slofacia","name:right:zh-yue":"\u65af\u6d1b\u4f10\u514b","name:right:cu":"\u0421\u043b\u043e\u0432\u0463\u043d\u044c\u0441\u043a\u043e","name:right:cv":"\u0421\u043b\u043e\u0432\u0430\u043a\u0438","name:left:ar":"\u0627\u0644\u0645\u062c\u0631","name:right:is":"Sl\u00f3vak\u00eda","name:left:az":"Macar\u0131stan","name:left:ay":"Hunkariya","name:right:rw":"Silovakiya","name:left:af":"Hongarye","name:left:ab":"\u041c\u0430\u0434\u0438\u0430\u0440\u0442\u04d9\u044b\u043b\u0430","name:left:an":"Hongr\u00eda","name:left:am":"\u1200\u1295\u130b\u122a","name:right:ru":"\u0421\u043b\u043e\u0432\u0430\u043a\u0438\u044f","name:right:io":"Slovakia","name:left:zh-yue":"\u5308\u7259\u5229","name:right:ro":"Slovacia","name:right:hy":"\u054d\u056c\u0578\u057e\u0561\u056f\u056b\u0561","name:left:lb":"Ungarn","alt_name:left:eo":"Hungario","name:left:su":"Hungaria","name:left:st":"Hungary","name:right:hr":"Slova\u010dka","name:left:sv":"Ungern","name:left:sq":"Hungaria","name:right:hu":"Szlov\u00e1kia","name:left:ss":"IHangareyi","name:left:sr":"\u041c\u0430\u0452\u0430\u0440\u0441\u043a\u0430","name:left:sm":"Hungary","name:right:hi":"\u0938\u094d\u0932\u094b\u0935\u093e\u0915\u093f\u092f\u093e","name:left:so":"Hungaria","name:left:sn":"Hungary","name:left:si":"\u0dc4\u0db1\u0dca\u0d9c\u0dda\u0dbb\u0dd2\u0dba\u0dcf\u0db1\u0dd4 \u0dc3\u0db8\u0dd4\u0dc4\u0dcf\u0dab\u0dca\u0da9\u0dd4\u0dc0","name:left:sh":"Ma\u0111arska","name:left:sk":"Ma\u010farsko","name:left:se":"U\u014bg\u00e1r","name:left:sa":"\u0939\u0902\u0917\u0930\u0940","name:right:he":"\u05e1\u05dc\u05d5\u05d1\u05e7\u05d9\u05d4","name:right:la":"Slovacia","name:right:af":"Slowakye","name:left:co":"Ungheria","name:left:ce":"\u0412\u0435\u043d\u0433\u0440\u0438","name:right:an":"Eslovaquia","name:right:am":"\u1235\u120e\u126b\u12aa\u12eb","name:left:ca":"Hongria","source":"openstreetmap.org","name:left:cy":"Hwngari","name:right:ar":"\u0633\u0644\u0648\u0641\u0627\u0643\u064a\u0627","name:left:cu":"\u046a\u0433\u0440\u0438","name:left:cv":"\u0412\u0435\u043d\u0433\u0440\u0438","name:right:az":"Slovakiya","name:left:cs":"Ma\u010farsko","name:right:rm":"Slovachia","name":"Magyarorsz\u00e1g - Slovensko","name:right:zu":"ISlovaki","name:left:zh":"\u5308\u7259\u5229","name:right:zh":"\u65af\u6d1b\u4f10\u514b","name:left:uz":"Mojariston","name:right:ba":"\u0421\u043b\u043e\u0432\u0430\u043a\u0438\u044f","name:right:fr":"Slovaquie","name:left:ps":"\u0647\u0646\u06ab\u0631\u064a","name:left:nv":"H\u00e1ngewii","name:left:ur":"\u0645\u062c\u0627\u0631\u0633\u062a\u0627\u0646","id:right":-14296,"name:left:uk":"\u0423\u0433\u043e\u0440\u0449\u0438\u043d\u0430","name:left:no":"Ungern","name:left:nl":"Hongarije","alt_name:right:eo":"Slovakio","name:right:fa":"\u0627\u0633\u0644\u0648\u0627\u06a9\u06cc","name:right:fo":"Slovakia","name:left:ne":"\u0939\u0902\u0917\u0947\u0930\u0940","name:left:ug":"\u06cb\u06d0\u0646\u06af\u0631\u0649\u064a\u06d5","name:left:na":"Ungari","name:left:eo":"Hungarujo","name:left:en":"Hungary","name:left:el":"\u039f\u03c5\u03b3\u03b3\u03b1\u03c1\u03af\u03b1","name:left:ee":"Hungary","name:left:pl":"W\u0119gry","name:left:es":"Hungr\u00eda","name:left:ie":"Hungaria","name:left:eu":"Hungaria","name:left:et":"Ungari","name:right:oc":"Eslovaquia","name:left:ia":"Hungaria","name:right:bs":"Slova\u010dka","osm_relation":true,"name:right:or":"\u0b38\u0b4d\u0b32\u0b4b\u0b2d\u0b3e\u0b15\u0b3f\u0b06","name:left:pt":"Hungria","name:right:ku":"Slovakya","name:right:tk":"Slowaki\u00fda","min_zoom":8.0,"name:left:ln":"Ungri","name:left:wo":"Ongiri","name:left:ga":"An Ung\u00e1ir","name:left:it":"Ungheria","name:left:gd":"An Ungair","name:left:gl":"Hungr\u00eda - Magyarorsz\u00e1g","name:left:gn":"Hungyria","name:left:gu":"\u0ab9\u0a82\u0a97\u0ac7\u0ab0\u0ac0","name:left:gv":"Yn Ungaar","official_name:right":"Slovensk\u00e1 republika","name:left":"Magyarorsz\u00e1g","name:right:mk":"\u0421\u043b\u043e\u0432\u0430\u0447\u043a\u0430","name:right:mi":"Horow\u0101kia","name:right:mn":"\u0421\u043b\u043e\u0432\u0430\u043a","name:right:ml":"\u0d38\u0d4d\u0d32\u0d4b\u0d35\u0d3e\u0d15\u0d4d\u0d2f","name:right:vo":"Slovakiy\u00e4n","name:right:vi":"Slovakia","name:right:my":"\u1006\u101c\u102d\u102f\u1017\u102c\u1038\u1000\u102e\u1038\u101a\u102c\u1038\u1014\u102d\u102f\u1004\u103a\u1004\u1036","name:right:ms":"Slovakia","name:right:mr":"\u0938\u094d\u0932\u094b\u0935\u094d\u0939\u093e\u0915\u093f\u092f\u093e","name:right:fy":"Slowakije","name:right:mt":"Slovakkja","name:left:nn":"Ungarn","kind":"country","name:left:br":"Hungaria","name:left:bs":"Ma\u0111arska","int_name:left":"Hungary","name:left:ba":"\u0412\u0435\u043d\u0433\u0440\u0438\u044f","name:left:bg":"\u0423\u043d\u0433\u0430\u0440\u0438\u044f","name:left:be":"\u0412\u0435\u043d\u0433\u0440\u044b\u044f","name:left:bi":"Hungary","name:left:bn":"\u09b9\u09be\u0999\u09cd\u0997\u09c7\u09b0\u09bf","name:left:bo":"\u0f67\u0f74\u0f44\u0f0b\u0f42\u0fb7\u0f0b\u0f62\u0f72\u0f0d","name:right":"Slovensko","name:left:yo":"H\u00fang\u00e1r\u00ec","name:left:yi":"\u05d0\u05d5\u05e0\u05d2\u05d0\u05e8\u05df","id:left":-21335,"name:right:fi":"Slovakia","name:right:ka":"\u10e1\u10da\u10dd\u10d5\u10d0\u10d9\u10d4\u10d7\u10d8","name:left:io":"Hungaria","name:left:pa":"\u0a39\u0a70\u0a17\u0a30\u0a40","name:right:kg":"Slovakia","name:right:tt":"\u0421\u043b\u043e\u0432\u0430\u043a\u0438\u044f","name:right:kk":"\u0421\u043b\u043e\u0432\u0430\u043a\u0438\u044f","name:left:id":"Hongaria","name:right:kl":"Slovakia","name:right:ko":"\uc2ac\ub85c\ubc14\ud0a4\uc544","name:right:tl":"Eslobakya","name:right:th":"\u0e1b\u0e23\u0e30\u0e40\u0e17\u0e28\u0e2a\u0e42\u0e25\u0e27\u0e32\u0e40\u0e01\u0e35\u0e22","name:right:kw":"Slovaki","name:right:kv":"\u0421\u043b\u043e\u0432\u0430\u043a\u0438\u044f","name:right:ky":"\u0421\u043b\u043e\u0432\u0430\u043a\u0438\u044f","name:left:zh-min-nan":"Magyar-kok","name:right:tg":"\u0421\u043b\u043e\u0432\u0430\u043a\u0438\u044f","name:left:is":"Ungverjaland","name:right:ta":"\u0b9a\u0bbf\u0bb2\u0bcb\u0bb5\u0bbe\u0b95\u0bcd\u0b95\u0bbf\u0baf\u0bbe","name:right:de":"Slowakei","name:right:da":"Slovakiet","name:right:dv":"\u0790\u07aa\u078d\u07ae\u0788\u07a7\u0786\u07a8\u0787\u07a7","name:right:ht":"Slovaki"},"arcs":[0]},{"type":"MultiLineString","properties":{"name:left:pl":"Kraj koszycki","id:left":-388272,"name:right:hu":"Eperjesi ker\u00fclet","name:left:ro":"Regiunea Ko\u0161ice","min_zoom":8.0,"name:left:ru":"\u041a\u043e\u0448\u0438\u0446\u043a\u0438\u0439 \u043a\u0440\u0430\u0439","name:left:hu":"Kassai ker\u00fclet","id:right":-388271,"name:right:pl":"Kraj preszowski","id":-388272,"osm_relation":true,"name:right":"Pre\u0161ovsk\u00fd kraj","kind":"region","name":"Ko\u0161ick\u00fd kraj - Pre\u0161ovsk\u00fd kraj","source":"openstreetmap.org","sort_rank":256,"kind_detail":"4","name:right:ru":"\u041f\u0440\u0435\u0448\u043e\u0432\u0441\u043a\u0438\u0439 \u043a\u0440\u0430\u0439","name:left:de":"Kaschauer Landschaftsverband","name:right:en":"Region of Pre\u0161ov","name:left:en":"Region of Ko\u0161ice","name:right:de":"Eperieser Landschaftsverband","name:left":"Ko\u0161ick\u00fd kraj"},"arcs":[[1],[2]]},{"type":"LineString","properties":{"name:left:pl":"Kraj koszycki","id:left":-388272,"name:right:hu":"Beszterceb\u00e1nyai ker\u00fclet","name:left:ro":"Regiunea Ko\u0161ice","min_zoom":8.0,"name:left:ru":"\u041a\u043e\u0448\u0438\u0446\u043a\u0438\u0439 \u043a\u0440\u0430\u0439","name:left:hu":"Kassai ker\u00fclet","id:right":-388270,"name:right:pl":"Kraj ba\u0144skobystrzycki","id":-388272,"osm_relation":true,"name:right":"Banskobystrick\u00fd kraj","kind":"region","name":"Ko\u0161ick\u00fd kraj - Banskobystrick\u00fd kraj","source":"openstreetmap.org","sort_rank":256,"kind_detail":"4","name:right:ru":"\u0411\u0430\u043d\u0441\u043a\u043e\u0431\u0438\u0441\u0442\u0440\u0438\u0446\u043a\u0438\u0439 \u043a\u0440\u0430\u0439","name:left:de":"Kaschauer Landschaftsverband","name:right:en":"Region of Bansk\u00e1 Bystrica","name:left:en":"Region of Ko\u0161ice","name:right:de":"Neusohler Landschaftsverband","name:left":"Ko\u0161ick\u00fd kraj"},"arcs":[3]},{"type":"LineString","properties":{"name:right:uk":"\u041f\u0456\u0432\u043d\u0456\u0447\u043d\u0438\u0439 \u0412\u0435\u043b\u0438\u043a\u0438\u0439 \u0410\u043b\u044c\u0444\u0435\u043b\u044c\u0434","name:right:hr":"Sjeverni Alf\u00f6ld","name:right:sr":"\u0412\u0435\u043b\u0438\u043a\u0435 \u0440\u0430\u0432\u043d\u0438\u0446\u0435 \u0438 \u0441\u0435\u0432\u0435\u0440\u043d\u0430 \u041c\u0430\u0452\u0430\u0440\u0441\u043a\u0430","name:left:ro":"Regiunea Ko\u0161ice","id:right":-22793,"min_zoom":8.0,"name:right:ro":"Marea C\u00e2mpie \u0219i Nordul","name:left:en":"Region of Ko\u0161ice","name:left:ru":"\u041a\u043e\u0448\u0438\u0446\u043a\u0438\u0439 \u043a\u0440\u0430\u0439","name:left:hu":"Kassai ker\u00fclet","name:right:ru":"\u0421\u0435\u0432\u0435\u0440\u043d\u044b\u0439 \u0410\u043b\u044c\u0444\u0451\u043b\u044c\u0434","id":-388272,"osm_relation":true,"name:right":"Alf\u00f6ld \u00e9s \u00c9szak","kind":"region","name":"Ko\u0161ick\u00fd kraj - Alf\u00f6ld \u00e9s \u00c9szak","source":"openstreetmap.org","sort_rank":256,"kind_detail":"4","name:left:de":"Kaschauer Landschaftsverband","name:right:en":"Great Plain and North","name:left:pl":"Kraj koszycki","name:right:de":"N\u00f6rdliche Gro\u00dfe Tiefebene","id:left":-388272,"name:left":"Ko\u0161ick\u00fd kraj"},"arcs":[4]},{"type":"LineString","properties":{"name:left:pl":"Kraj preszowski","id:left":-388271,"name:right:hu":"Beszterceb\u00e1nyai ker\u00fclet","id:right":-388270,"min_zoom":8.0,"name:left:ru":"\u041f\u0440\u0435\u0448\u043e\u0432\u0441\u043a\u0438\u0439 \u043a\u0440\u0430\u0439","name:left:hu":"Eperjesi ker\u00fclet","name:right:ru":"\u0411\u0430\u043d\u0441\u043a\u043e\u0431\u0438\u0441\u0442\u0440\u0438\u0446\u043a\u0438\u0439 \u043a\u0440\u0430\u0439","name:right:pl":"Kraj ba\u0144skobystrzycki","id":-388271,"osm_relation":true,"name:right":"Banskobystrick\u00fd kraj","kind":"region","name":"Pre\u0161ovsk\u00fd kraj - Banskobystrick\u00fd kraj","source":"openstreetmap.org","sort_rank":256,"kind_detail":"4","name:left:de":"Eperieser Landschaftsverband","name:right:en":"Region of Bansk\u00e1 Bystrica","name:left:en":"Region of Pre\u0161ov","name:right:de":"Neusohler Landschaftsverband","name:left":"Pre\u0161ovsk\u00fd kraj"},"arcs":[5]},{"type":"LineString","properties":{"name:left:pl":"Kraj preszowski","id:left":-388271,"name:right:hu":"Zsolnai ker\u00fclet","id:right":-388269,"min_zoom":8.0,"name:left:ru":"\u041f\u0440\u0435\u0448\u043e\u0432\u0441\u043a\u0438\u0439 \u043a\u0440\u0430\u0439","name:left:hu":"Eperjesi ker\u00fclet","name:right:ru":"\u0416\u0438\u043b\u0438\u043d\u0441\u043a\u0438\u0439 \u043a\u0440\u0430\u0439","name:right:pl":"Kraj \u017cyli\u0144ski","id":-388271,"osm_relation":true,"name:right":"\u017dilinsk\u00fd kraj","kind":"region","name":"Pre\u0161ovsk\u00fd kraj - \u017dilinsk\u00fd kraj","source":"openstreetmap.org","sort_rank":256,"kind_detail":"4","name:left:de":"Eperieser Landschaftsverband","name:right:en":"Region of \u017dilina","name:left:en":"Region of Pre\u0161ov","name:right:de":"Silleiner Landschaftsverband","name:left":"Pre\u0161ovsk\u00fd kraj"},"arcs":[6]},{"type":"LineString","properties":{"name:left:pl":"Kraj ba\u0144skobystrzycki","id:left":-388270,"name:right:hu":"Zsolnai ker\u00fclet","id:right":-388269,"min_zoom":8.0,"name:left:ru":"\u0411\u0430\u043d\u0441\u043a\u043e\u0431\u0438\u0441\u0442\u0440\u0438\u0446\u043a\u0438\u0439 \u043a\u0440\u0430\u0439","name:left:hu":"Beszterceb\u00e1nyai ker\u00fclet","name:right:ru":"\u0416\u0438\u043b\u0438\u043d\u0441\u043a\u0438\u0439 \u043a\u0440\u0430\u0439","name:right:pl":"Kraj \u017cyli\u0144ski","id":-388270,"osm_relation":true,"name:right":"\u017dilinsk\u00fd kraj","kind":"region","name":"Banskobystrick\u00fd kraj - \u017dilinsk\u00fd kraj","source":"openstreetmap.org","sort_rank":256,"kind_detail":"4","name:left:de":"Neusohler Landschaftsverband","name:right:en":"Region of \u017dilina","name:left:en":"Region of Bansk\u00e1 Bystrica","name:right:de":"Silleiner Landschaftsverband","name:left":"Banskobystrick\u00fd kraj"},"arcs":[7]},{"type":"LineString","properties":{"name:right:uk":"\u041f\u0456\u0432\u043d\u0456\u0447\u043d\u0438\u0439 \u0412\u0435\u043b\u0438\u043a\u0438\u0439 \u0410\u043b\u044c\u0444\u0435\u043b\u044c\u0434","name:right:hr":"Sjeverni Alf\u00f6ld","name:right:sr":"\u0412\u0435\u043b\u0438\u043a\u0435 \u0440\u0430\u0432\u043d\u0438\u0446\u0435 \u0438 \u0441\u0435\u0432\u0435\u0440\u043d\u0430 \u041c\u0430\u0452\u0430\u0440\u0441\u043a\u0430","id:right":-22793,"min_zoom":8.0,"name:right:ro":"Marea C\u00e2mpie \u0219i Nordul","name:left:en":"Region of Bansk\u00e1 Bystrica","name:left:ru":"\u0411\u0430\u043d\u0441\u043a\u043e\u0431\u0438\u0441\u0442\u0440\u0438\u0446\u043a\u0438\u0439 \u043a\u0440\u0430\u0439","name:left:hu":"Beszterceb\u00e1nyai ker\u00fclet","name:right:ru":"\u0421\u0435\u0432\u0435\u0440\u043d\u044b\u0439 \u0410\u043b\u044c\u0444\u0451\u043b\u044c\u0434","id":-388270,"osm_relation":true,"name:right":"Alf\u00f6ld \u00e9s \u00c9szak","kind":"region","name":"Banskobystrick\u00fd kraj - Alf\u00f6ld \u00e9s \u00c9szak","source":"openstreetmap.org","sort_rank":256,"kind_detail":"4","name:left:de":"Neusohler Landschaftsverband","name:right:en":"Great Plain and North","name:left:pl":"Kraj ba\u0144skobystrzycki","name:right:de":"N\u00f6rdliche Gro\u00dfe Tiefebene","id:left":-388270,"name:left":"Banskobystrick\u00fd kraj"},"arcs":[8]}]},"roads":{"type":"GeometryCollection","geometries":[{"type":"MultiLineString","properties":{"kind":"major_road","sort_rank":377,"landuse_kind":"national_park","is_bicycle_related":true,"bicycle_shield_text":"029","bicycle_network":"ncn","source":"openstreetmap.org","min_zoom":8.0,"kind_detail":"tertiary","ref":"3306"},"arcs":[[939],[940]]},{"type":"LineString","properties":{"kind":"major_road","network":null,"sort_rank":380,"kind_detail":"primary","bus_network":"local","source":"openstreetmap.org","min_zoom":8.0,"bus_shield_text":"3A","shield_text":"26","landuse_kind":"residential","ref":"26","id":521650319},"arcs":[941]},{"type":"LineString","properties":{"kind":"major_road","network":null,"sort_rank":380,"kind_detail":"primary","is_bicycle_related":true,"bicycle_shield_text":"2A","bicycle_network":"ncn","source":"openstreetmap.org","min_zoom":8.0,"shield_text":"27","ref":"27"},"arcs":[942]},{"type":"MultiLineString","properties":{"kind":"minor_road","sort_rank":360,"kind_detail":"residential","is_bicycle_related":true,"bicycle_shield_text":"029","bicycle_network":"ncn","source":"openstreetmap.org","min_zoom":8.0},"arcs":[[943],[944],[945],[946],[947],[948],[949],[950],[951],[952],[953],[954],[955]]},{"type":"LineString","properties":{"kind":"minor_road","sort_rank":358,"kind_detail":"service","is_bicycle_related":true,"bicycle_shield_text":"23A","cycleway":"opposite","source":"openstreetmap.org","min_zoom":8.0,"landuse_kind":"residential","bicycle_network":"ncn","id":279046957},"arcs":[956]},{"type":"LineString","properties":{"source":"openstreetmap.org","kind":"major_road","landuse_kind":"residential","sort_rank":380,"kind_detail":"primary","ref":"211","min_zoom":8.0},"arcs":[957]},{"type":"MultiLineString","properties":{"bus_network":null,"network":null,"sort_rank":380,"kind_detail":"primary","is_bicycle_related":true,"kind":"major_road","bicycle_shield_text":"23A","bicycle_network":"ncn","source":"openstreetmap.org","min_zoom":8.0,"bus_shield_text":"3730","shield_text":"37","landuse_kind":"urban_area","ref":"37"},"arcs":[[958],[959]]},{"type":"LineString","properties":{"kind":"major_road","sort_rank":380,"kind_detail":"primary","is_bicycle_related":true,"bicycle_shield_text":"040","bicycle_network":"ncn","source":"openstreetmap.org","min_zoom":8.0,"ref":"66"},"arcs":[960]},{"type":"MultiLineString","properties":{"source":"openstreetmap.org","kind":"major_road","sort_rank":380,"kind_detail":"primary","ref":"21","min_zoom":8.0},"arcs":[[961],[962]]},{"type":"MultiLineString","properties":{"source":"openstreetmap.org","kind":"major_road","sort_rank":380,"kind_detail":"primary","ref":"67","min_zoom":8.0},"arcs":[[963],[964],[965],[966],[967],[968],[969],[970],[971],[972],[973]]},{"type":"MultiLineString","properties":{"bus_network":"local","sort_rank":380,"kind_detail":"primary","kind":"major_road","source":"openstreetmap.org","min_zoom":8.0,"bus_shield_text":"7","landuse_kind":"residential","ref":"3"},"arcs":[[974],[975]]},{"type":"LineString","properties":{"kind":"major_road","network":null,"sort_rank":380,"kind_detail":"primary","bus_network":"Salg\u00f3tarj\u00e1n","source":"openstreetmap.org","min_zoom":8.0,"bus_shield_text":"1U","shield_text":"211","landuse_kind":"residential","id":362213242},"arcs":[976]},{"type":"LineString","properties":{"kind":"minor_road","sort_rank":358,"kind_detail":"service","is_bicycle_related":true,"bicycle_shield_text":"037","bicycle_network":"ncn","source":"openstreetmap.org","min_zoom":8.0},"arcs":[977]},{"type":"MultiLineString","properties":{"kind":"minor_road","sort_rank":360,"kind_detail":"residential","is_bicycle_related":true,"bicycle_shield_text":"23A","bicycle_network":"ncn","source":"openstreetmap.org","min_zoom":8.0,"landuse_kind":"urban_area"},"arcs":[[978],[979],[980],[981],[982],[983],[984]]},{"type":"LineString","properties":{"kind":"major_road","sort_rank":377,"kind_detail":"tertiary","is_bicycle_related":true,"bicycle_shield_text":"040","bicycle_network":"ncn","source":"openstreetmap.org","min_zoom":8.0,"ref":"2770"},"arcs":[985]},{"type":"MultiLineString","properties":{"kind":"major_road","sort_rank":380,"kind_detail":"primary","is_bicycle_related":true,"bicycle_shield_text":"040","bicycle_network":"ncn","source":"openstreetmap.org","min_zoom":8.0,"ref":"72"},"arcs":[[986],[987]]},{"type":"LineString","properties":{"kind":"major_road","network":null,"sort_rank":380,"kind_detail":"primary","bus_network":null,"source":"openstreetmap.org","min_zoom":8.0,"bus_shield_text":"113","shield_text":"211","landuse_kind":"residential","ref":"211","id":178630412},"arcs":[988]},{"type":"LineString","properties":{"kind":"major_road","sort_rank":379,"kind_detail":"secondary","is_bicycle_related":true,"bicycle_shield_text":"009","bicycle_network":"ncn","source":"openstreetmap.org","min_zoom":8.0,"ref":"595"},"arcs":[989]},{"type":"LineString","properties":{"kind":"major_road","network":null,"sort_rank":380,"kind_detail":"primary","source":"openstreetmap.org","min_zoom":8.0,"landuse_kind":"urban_area","shield_text":"21","ref":"21"},"arcs":[990]},{"type":"LineString","properties":{"bus_network":"local","sort_rank":380,"kind_detail":"primary","kind":"major_road","source":"openstreetmap.org","min_zoom":8.0,"bus_shield_text":"20G","landuse_kind":"residential"},"arcs":[991]},{"type":"LineString","properties":{"kind":"major_road","network":null,"sort_rank":380,"kind_detail":"primary","is_bicycle_related":true,"bicycle_shield_text":"2A","bicycle_network":"ncn","source":"openstreetmap.org","min_zoom":8.0,"shield_text":"26","ref":"26","id":223197981},"arcs":[992]},{"type":"MultiLineString","properties":{"kind":"major_road","sort_rank":379,"kind_detail":"secondary","is_bicycle_related":true,"bicycle_shield_text":"23A","bicycle_network":"ncn","source":"openstreetmap.org","min_zoom":8.0,"landuse_kind":"urban_area"},"arcs":[[993],[994]]},{"type":"MultiLineString","properties":{"bus_network":"local","sort_rank":379,"landuse_kind":"urban_area","is_bicycle_related":true,"kind":"major_road","bicycle_shield_text":"23A","bicycle_network":"ncn","source":"openstreetmap.org","min_zoom":8.0,"bus_shield_text":"ZOO","kind_detail":"secondary","ref":"2505"},"arcs":[[995],[996],[997]]},{"type":"LineString","properties":{"bus_network":"local","sort_rank":380,"kind_detail":"primary","kind":"major_road","source":"openstreetmap.org","min_zoom":8.0,"bus_shield_text":"3","landuse_kind":"urban_area"},"arcs":[998]},{"type":"MultiLineString","properties":{"kind":"major_road","sort_rank":355,"kind_detail":"primary_link","is_bicycle_related":true,"bicycle_shield_text":"2882","bicycle_network":"ncn","source":"openstreetmap.org","min_zoom":8.0,"is_link":true,"ref":"526"},"arcs":[[999],[1000]]},{"type":"MultiLineString","properties":{"kind":"major_road","network":null,"sort_rank":380,"kind_detail":"primary","source":"openstreetmap.org","min_zoom":8.0,"shield_text":"21","ref":"21"},"arcs":[[1001],[1002],[1003],[1004],[1005],[1006]]},{"type":"MultiLineString","properties":{"kind":"major_road","sort_rank":377,"kind_detail":"tertiary","is_bicycle_related":true,"bicycle_shield_text":"029","bicycle_network":"ncn","source":"openstreetmap.org","min_zoom":8.0,"ref":"3009"},"arcs":[[1007],[1008],[1009],[1010]]},{"type":"LineString","properties":{"bus_network":null,"bicycle_shield_text":"2C","min_zoom":8.0,"is_link":true,"bus_shield_text":"36C","id":362138292,"kind":"major_road","network":null,"sort_rank":355,"kind_detail":"primary_link","is_bicycle_related":true,"bicycle_network":"ncn","source":"openstreetmap.org","landuse_kind":"residential","shield_text":"211","ref":"211"},"arcs":[1011]},{"type":"LineString","properties":{"kind":"major_road","sort_rank":379,"kind_detail":"secondary","is_bicycle_related":true,"bicycle_shield_text":"049","bicycle_network":"ncn","source":"openstreetmap.org","min_zoom":8.0,"landuse_kind":"park","ref":"531"},"arcs":[1012]},{"type":"MultiLineString","properties":{"bus_network":"local","sort_rank":379,"landuse_kind":"urban_area","is_bicycle_related":true,"kind":"major_road","bicycle_shield_text":"23A","bicycle_network":"ncn","source":"openstreetmap.org","min_zoom":8.0,"bus_shield_text":"7","kind_detail":"secondary"},"arcs":[[1013],[1014]]},{"type":"LineString","properties":{"kind":"major_road","sort_rank":380,"kind_detail":"primary","is_bicycle_related":true,"bus_network":null,"bicycle_shield_text":"2C","bicycle_network":"ncn","source":"openstreetmap.org","min_zoom":8.0,"bus_shield_text":"11B","landuse_kind":"urban_area","ref":"21","id":178630945},"arcs":[1015]},{"type":"MultiLineString","properties":{"kind":"major_road","network":"ro:regional","sort_rank":380,"kind_detail":"primary","source":"openstreetmap.org","min_zoom":8.0,"shield_text":"3","ref":"3"},"arcs":[[1016],[1017],[1018],[1019],[1020],[1021],[1022],[1023],[1024],[1025]]},{"type":"LineString","properties":{"kind":"major_road","network":null,"sort_rank":380,"kind_detail":"primary","source":"openstreetmap.org","min_zoom":8.0,"shield_text":"67","ref":"67"},"arcs":[1026]},{"type":"LineString","properties":{"kind":"major_road","network":null,"sort_rank":379,"kind_detail":"secondary","is_bicycle_related":true,"bicycle_shield_text":"049","bicycle_network":"ncn","source":"openstreetmap.org","min_zoom":8.0,"shield_text":"571","name:hu":"Gy\u00e1ri \u00fat","ref":"571"},"arcs":[1027]},{"type":"LineString","properties":{"kind":"minor_road","sort_rank":360,"kind_detail":"residential","is_bicycle_related":true,"bicycle_shield_text":"049","bicycle_network":"ncn","source":"openstreetmap.org","min_zoom":8.0,"id":22616717},"arcs":[1028]},{"type":"LineString","properties":{"kind":"major_road","network":null,"sort_rank":380,"kind_detail":"primary","is_bicycle_related":true,"bicycle_shield_text":"22","bicycle_network":"ncn","source":"openstreetmap.org","min_zoom":8.0,"landuse_kind":"park","shield_text":"25","ref":"25"},"arcs":[1029]},{"type":"LineString","properties":{"kind":"minor_road","sort_rank":360,"kind_detail":"residential","is_bicycle_related":true,"bicycle_shield_text":"23A","cycleway":"lane","source":"openstreetmap.org","min_zoom":8.0,"landuse_kind":"urban_area","bicycle_network":"ncn","id":244748435},"arcs":[1030]},{"type":"LineString","properties":{"kind":"minor_road","sort_rank":360,"kind_detail":"residential","is_bicycle_related":true,"bicycle_shield_text":"23A","cycleway":"opposite_lane","source":"openstreetmap.org","min_zoom":8.0,"landuse_kind":"residential","bicycle_network":"ncn","id":22753722},"arcs":[1031]},{"type":"MultiLineString","properties":{"bus_network":"local","sort_rank":380,"kind_detail":"primary","kind":"major_road","source":"openstreetmap.org","min_zoom":8.0,"bus_shield_text":"7","landuse_kind":"urban_area","ref":"3"},"arcs":[[1032],[1033]]},{"type":"MultiLineString","properties":{"kind":"major_road","network":null,"sort_rank":380,"kind_detail":"primary","source":"openstreetmap.org","min_zoom":8.0,"shield_text":"22","ref":"22"},"arcs":[[1034],[1035],[1036],[1037]]},{"type":"LineString","properties":{"kind":"major_road","sort_rank":380,"kind_detail":"primary","is_bicycle_related":true,"bicycle_shield_text":null,"bicycle_network":"ncn","source":"openstreetmap.org","min_zoom":8.0,"ref":"66","id":28085458},"arcs":[1038]},{"type":"LineString","properties":{"kind":"major_road","network":null,"sort_rank":380,"kind_detail":"primary","source":"openstreetmap.org","min_zoom":8.0,"landuse_kind":"residential","shield_text":"26","ref":"26"},"arcs":[1039]},{"type":"LineString","properties":{"kind":"minor_road","sort_rank":360,"kind_detail":"unclassified","is_bicycle_related":true,"bicycle_shield_text":"23B","bicycle_network":"ncn","source":"openstreetmap.org","min_zoom":8.0,"landuse_kind":"park"},"arcs":[1040]},{"type":"MultiLineString","properties":{"bus_network":"local","sort_rank":379,"landuse_kind":"urban_area","is_bicycle_related":true,"kind":"major_road","bicycle_shield_text":"23A","bicycle_network":"ncn","source":"openstreetmap.org","min_zoom":8.0,"bus_shield_text":"7","kind_detail":"secondary","ref":"3605"},"arcs":[[1041],[1042],[1043]]},{"type":"MultiLineString","properties":{"kind":"major_road","sort_rank":379,"landuse_kind":"residential","is_bicycle_related":true,"bicycle_shield_text":"2A","bicycle_network":"ncn","source":"openstreetmap.org","min_zoom":8.0,"kind_detail":"secondary","ref":"2306"},"arcs":[[1044],[1045]]},{"type":"MultiLineString","properties":{"bus_network":"local","network":"ro:regional","sort_rank":380,"kind_detail":"primary","kind":"major_road","source":"openstreetmap.org","min_zoom":8.0,"bus_shield_text":"7","shield_text":"3","landuse_kind":"urban_area","ref":"3"},"arcs":[[1046],[1047],[1048],[1049],[1050]]},{"type":"MultiLineString","properties":{"kind":"major_road","sort_rank":379,"kind_detail":"secondary","is_bicycle_related":true,"bicycle_shield_text":"029","bicycle_network":"ncn","source":"openstreetmap.org","min_zoom":8.0},"arcs":[[1051],[1052]]},{"type":"MultiLineString","properties":{"source":"openstreetmap.org","kind":"major_road","landuse_kind":"urban_area","sort_rank":380,"kind_detail":"primary","ref":"306","min_zoom":8.0},"arcs":[[1053],[1054],[1055],[1056]]},{"type":"MultiLineString","properties":{"sort_rank":380,"kind_detail":"primary","min_zoom":8.0,"kind":"major_road","source":"openstreetmap.org"},"arcs":[[1057],[1058],[1059]]},{"type":"MultiLineString","properties":{"bus_network":"local","network":"ro:regional","sort_rank":380,"kind_detail":"primary","is_bicycle_related":true,"kind":"major_road","bicycle_shield_text":"23A","bicycle_network":"ncn","source":"openstreetmap.org","min_zoom":8.0,"bus_shield_text":"AU1","shield_text":"3","landuse_kind":"urban_area","ref":"3"},"arcs":[[1060],[1061]]},{"type":"LineString","properties":{"kind":"major_road","sort_rank":380,"kind_detail":"primary","is_bicycle_related":true,"bicycle_shield_text":"2701","bicycle_network":"rcn","source":"openstreetmap.org","min_zoom":8.0,"ref":"16"},"arcs":[1062]},{"type":"LineString","properties":{"kind":"major_road","sort_rank":379,"kind_detail":"secondary","is_bicycle_related":true,"bicycle_shield_text":"2882","bicycle_network":"ncn","source":"openstreetmap.org","min_zoom":8.0,"ref":"546"},"arcs":[1063]},{"type":"LineString","properties":{"kind":"minor_road","sort_rank":360,"kind_detail":"unclassified","is_bicycle_related":true,"bicycle_shield_text":"22","bicycle_network":"ncn","source":"openstreetmap.org","min_zoom":8.0},"arcs":[1064]},{"type":"MultiLineString","properties":{"source":"openstreetmap.org","kind":"major_road","sort_rank":380,"kind_detail":"primary","ref":"71","min_zoom":8.0},"arcs":[[1065],[1066]]},{"type":"MultiLineString","properties":{"bus_network":"local","sort_rank":379,"landuse_kind":"urban_area","is_bicycle_related":true,"kind":"major_road","bicycle_shield_text":"23A","bicycle_network":"ncn","source":"openstreetmap.org","min_zoom":8.0,"bus_shield_text":"ZOO","kind_detail":"secondary"},"arcs":[[1067],[1068],[1069]]},{"type":"LineString","properties":{"bus_network":"local","network":"ro:regional","sort_rank":380,"kind_detail":"primary","kind":"major_road","source":"openstreetmap.org","min_zoom":8.0,"bus_shield_text":"1\u00c9","shield_text":"3","landuse_kind":"residential","ref":"3"},"arcs":[1070]},{"type":"MultiLineString","properties":{"bus_network":"local","network":"ro:regional","sort_rank":380,"kind_detail":"primary","kind":"major_road","source":"openstreetmap.org","min_zoom":8.0,"bus_shield_text":"4","shield_text":"3","landuse_kind":"urban_area","ref":"3"},"arcs":[[1071],[1072],[1073]]},{"type":"MultiLineString","properties":{"kind":"minor_road","sort_rank":358,"kind_detail":"service","is_bicycle_related":true,"bicycle_shield_text":"029","bicycle_network":"ncn","source":"openstreetmap.org","min_zoom":8.0},"arcs":[[1074],[1075],[1076]]},{"type":"MultiLineString","properties":{"kind":"minor_road","sort_rank":360,"landuse_kind":"residential","is_bicycle_related":true,"bicycle_shield_text":"2A","bicycle_network":"ncn","source":"openstreetmap.org","min_zoom":8.0,"kind_detail":"residential"},"arcs":[[1077],[1078]]},{"type":"LineString","properties":{"kind":"major_road","sort_rank":377,"kind_detail":"tertiary","is_bicycle_related":true,"bicycle_shield_text":"029","bicycle_network":"ncn","source":"openstreetmap.org","min_zoom":8.0,"ref":"3027"},"arcs":[1079]},{"type":"LineString","properties":{"kind":"major_road","network":null,"sort_rank":380,"kind_detail":"primary","is_bicycle_related":true,"bicycle_shield_text":"2A","bicycle_network":"ncn","source":"openstreetmap.org","min_zoom":8.0,"shield_text":"25","ref":"25"},"arcs":[1080]},{"type":"MultiLineString","properties":{"bus_network":null,"network":null,"sort_rank":380,"kind_detail":"primary","kind":"major_road","source":"openstreetmap.org","min_zoom":8.0,"bus_shield_text":"36C","shield_text":"211","landuse_kind":"residential","ref":"211"},"arcs":[[1081],[1082],[1083]]},{"type":"LineString","properties":{"kind":"major_road","network":null,"sort_rank":380,"kind_detail":"primary","bus_network":"Salg\u00f3tarj\u00e1n","source":"openstreetmap.org","min_zoom":8.0,"bus_shield_text":"9","shield_text":"21","landuse_kind":"urban_area","ref":"21"},"arcs":[1084]},{"type":"LineString","properties":{"bus_network":null,"network":null,"sort_rank":380,"kind_detail":"primary","is_bicycle_related":true,"kind":"major_road","bicycle_shield_text":"2C","bicycle_network":"ncn","source":"openstreetmap.org","min_zoom":8.0,"bus_shield_text":"36C","shield_text":"211","landuse_kind":"residential","ref":"211","id":178629902},"arcs":[1085]},{"type":"LineString","properties":{"kind":"major_road","sort_rank":380,"kind_detail":"primary","is_bicycle_related":true,"bicycle_shield_text":"8594","bicycle_network":"rcn","source":"openstreetmap.org","min_zoom":8.0,"ref":"66"},"arcs":[1086]},{"type":"LineString","properties":{"kind":"major_road","sort_rank":380,"kind_detail":"primary","is_bicycle_related":true,"bicycle_shield_text":"012","bicycle_network":"ncn","source":"openstreetmap.org","min_zoom":8.0,"ref":"72","id":57389226},"arcs":[1087]},{"type":"MultiLineString","properties":{"source":"openstreetmap.org","kind":"major_road","landuse_kind":"urban_area","sort_rank":380,"kind_detail":"primary","ref":"3","min_zoom":8.0},"arcs":[[1088],[1089],[1090],[1091]]},{"type":"MultiLineString","properties":{"kind":"highway","network":"e-road","sort_rank":383,"kind_detail":"motorway","source":"openstreetmap.org","min_zoom":8.0,"all_networks":["e-road",null],"shield_text":"71","ref":"M30","all_shield_texts":["71","30"]},"arcs":[[1092],[1093]]},{"type":"MultiLineString","properties":{"kind":"major_road","sort_rank":377,"kind_detail":"tertiary","is_bicycle_related":true,"bicycle_shield_text":"22","bicycle_network":"ncn","source":"openstreetmap.org","min_zoom":8.0,"ref":"2518"},"arcs":[[1094],[1095]]},{"type":"LineString","properties":{"kind":"major_road","sort_rank":380,"kind_detail":"primary","bus_network":null,"source":"openstreetmap.org","min_zoom":8.0,"bus_shield_text":"4","landuse_kind":"residential","id":546037325},"arcs":[1096]},{"type":"LineString","properties":{"kind":"major_road","network":"ro:regional","sort_rank":380,"kind_detail":"primary","is_bicycle_related":true,"cycleway":"lane","source":"openstreetmap.org","min_zoom":8.0,"landuse_kind":"urban_area","shield_text":"3","ref":"3","id":154893348},"arcs":[1097]},{"type":"LineString","properties":{"bus_network":"local","network":null,"sort_rank":380,"kind_detail":"primary","kind":"major_road","source":"openstreetmap.org","min_zoom":8.0,"bus_shield_text":"20G","shield_text":"26","landuse_kind":"residential","ref":"26"},"arcs":[1098]},{"type":"LineString","properties":{"kind":"major_road","sort_rank":377,"kind_detail":"tertiary","is_bicycle_related":true,"bicycle_shield_text":"22","bicycle_network":"ncn","source":"openstreetmap.org","min_zoom":8.0,"ref":"2524"},"arcs":[1099]},{"type":"LineString","properties":{"kind":"major_road","network":null,"sort_rank":380,"kind_detail":"primary","is_bicycle_related":true,"bicycle_shield_text":"2701","bicycle_network":"rcn","source":"openstreetmap.org","min_zoom":8.0,"shield_text":"67","ref":"67","id":10039614},"arcs":[1100]},{"type":"LineString","properties":{"kind":"major_road","network":null,"sort_rank":380,"kind_detail":"primary","source":"openstreetmap.org","min_zoom":8.0,"landuse_kind":"park","shield_text":"25","ref":"25","id":224943527},"arcs":[1101]},{"type":"LineString","properties":{"kind":"major_road","sort_rank":379,"kind_detail":"secondary","is_bicycle_related":true,"bus_network":null,"bicycle_shield_text":"22","bicycle_network":"ncn","source":"openstreetmap.org","min_zoom":8.0,"bus_shield_text":"2","landuse_kind":"residential","id":356865156},"arcs":[1102]},{"type":"LineString","properties":{"bus_network":"local","network":null,"sort_rank":380,"kind_detail":"primary","kind":"major_road","source":"openstreetmap.org","min_zoom":8.0,"bus_shield_text":"240","shield_text":"306","landuse_kind":"urban_area","ref":"306"},"arcs":[1103]},{"type":"MultiLineString","properties":{"kind":"major_road","network":null,"sort_rank":380,"kind_detail":"primary","source":"openstreetmap.org","min_zoom":8.0,"shield_text":"26","ref":"26"},"arcs":[[1104],[1105],[1106],[1107],[1108],[1109],[1110]]},{"type":"LineString","properties":{"kind":"major_road","network":"e-road","sort_rank":380,"kind_detail":"primary","source":"openstreetmap.org","min_zoom":8.0,"landuse_kind":"residential","shield_text":"58","ref":"16"},"arcs":[1111]},{"type":"LineString","properties":{"bus_network":null,"network":"e-road","sort_rank":380,"kind_detail":"primary","kind":"major_road","source":"openstreetmap.org","min_zoom":8.0,"bus_shield_text":"606101","shield_text":"58","ref":"16"},"arcs":[1112]},{"type":"MultiLineString","properties":{"kind":"minor_road","sort_rank":360,"kind_detail":"unclassified","is_bicycle_related":true,"bicycle_shield_text":"040","bicycle_network":"ncn","source":"openstreetmap.org","min_zoom":8.0},"arcs":[[1113],[1114]]},{"type":"MultiLineString","properties":{"kind":"minor_road","sort_rank":358,"landuse_kind":"national_park","is_bicycle_related":true,"bicycle_shield_text":"029","bicycle_network":"ncn","source":"openstreetmap.org","min_zoom":8.0,"kind_detail":"service"},"arcs":[[1115],[1116]]},{"type":"LineString","properties":{"bus_network":"B\u00e1tonyterenye","network":null,"sort_rank":380,"kind_detail":"primary","kind":"major_road","source":"openstreetmap.org","min_zoom":8.0,"bus_shield_text":"11A","shield_text":"21","ref":"21"},"arcs":[1117]},{"type":"MultiLineString","properties":{"kind":"minor_road","sort_rank":360,"kind_detail":"unclassified","is_bicycle_related":true,"bicycle_shield_text":"040","bicycle_network":"ncn","source":"openstreetmap.org","min_zoom":8.0,"landuse_kind":"park"},"arcs":[[1118],[1119]]},{"type":"LineString","properties":{"kind":"major_road","sort_rank":379,"kind_detail":"secondary","is_bicycle_related":true,"bus_network":"Salg\u00f3tarj\u00e1n","bicycle_shield_text":"2A","bicycle_network":"ncn","source":"openstreetmap.org","min_zoom":8.0,"bus_shield_text":"1U","ref":"2303"},"arcs":[1120]},{"type":"LineString","properties":{"kind":"major_road","sort_rank":377,"kind_detail":"tertiary","is_bicycle_related":true,"bicycle_shield_text":"037","bicycle_network":"ncn","source":"openstreetmap.org","min_zoom":8.0,"ref":"2747"},"arcs":[1121]},{"type":"LineString","properties":{"kind":"major_road","sort_rank":377,"kind_detail":"tertiary","is_bicycle_related":true,"bicycle_shield_text":"029","bicycle_network":"ncn","source":"openstreetmap.org","min_zoom":8.0,"ref":"3014"},"arcs":[1122]},{"type":"MultiLineString","properties":{"kind":"major_road","sort_rank":377,"landuse_kind":"national_park","is_bicycle_related":true,"bicycle_shield_text":"029","bicycle_network":"ncn","source":"openstreetmap.org","min_zoom":8.0,"kind_detail":"tertiary","ref":"3015"},"arcs":[[1123],[1124],[1125]]},{"type":"MultiLineString","properties":{"kind":"major_road","network":null,"sort_rank":380,"kind_detail":"primary","source":"openstreetmap.org","min_zoom":8.0,"landuse_kind":"urban_area","shield_text":"306","ref":"306"},"arcs":[[1126],[1127],[1128]]},{"type":"LineString","properties":{"bus_network":"local","sort_rank":379,"kind_detail":"secondary","is_bicycle_related":true,"kind":"major_road","bicycle_shield_text":"23A","bicycle_network":"ncn","source":"openstreetmap.org","min_zoom":8.0,"bus_shield_text":"ZOO","landuse_kind":"park","ref":"2505","id":389551650},"arcs":[1129]},{"type":"MultiLineString","properties":{"bus_network":null,"network":null,"sort_rank":380,"kind_detail":"primary","kind":"major_road","source":"openstreetmap.org","min_zoom":8.0,"bus_shield_text":"3730","shield_text":"37","ref":"37"},"arcs":[[1130],[1131]]},{"type":"LineString","properties":{"kind":"major_road","network":null,"sort_rank":380,"kind_detail":"primary","bus_network":"Salg\u00f3tarj\u00e1n","source":"openstreetmap.org","min_zoom":8.0,"bus_shield_text":"27A","shield_text":"211","landuse_kind":"residential","ref":"211","id":30637134},"arcs":[1132]},{"type":"MultiLineString","properties":{"kind":"major_road","sort_rank":380,"kind_detail":"primary","is_bicycle_related":true,"bicycle_shield_text":"5576","bicycle_network":"rcn","source":"openstreetmap.org","min_zoom":8.0,"ref":"66"},"arcs":[[1133],[1134],[1135],[1136]]},{"type":"LineString","properties":{"kind":"major_road","sort_rank":379,"kind_detail":"secondary","is_bicycle_related":true,"bicycle_shield_text":"23A","bicycle_network":"ncn","source":"openstreetmap.org","min_zoom":8.0,"ref":"2505"},"arcs":[1137]},{"type":"LineString","properties":{"kind":"major_road","sort_rank":380,"kind_detail":"primary","bus_network":"local","source":"openstreetmap.org","min_zoom":8.0,"bus_shield_text":"AU2","landuse_kind":"urban_area","ref":"304","id":262939853},"arcs":[1138]},{"type":"LineString","properties":{"kind":"major_road","network":"e-road","sort_rank":380,"kind_detail":"primary","is_bicycle_related":true,"bicycle_shield_text":"029","bicycle_network":"ncn","source":"openstreetmap.org","min_zoom":8.0,"shield_text":"58","ref":"16"},"arcs":[1139]},{"type":"LineString","properties":{"kind":"path","sort_rank":354,"kind_detail":"track","is_bicycle_related":true,"bicycle_shield_text":"040","bicycle_network":"ncn","source":"openstreetmap.org","min_zoom":8.0,"id":376275039},"arcs":[1140]},{"type":"MultiLineString","properties":{"kind":"minor_road","sort_rank":360,"kind_detail":"residential","is_bicycle_related":true,"bicycle_shield_text":"040","bicycle_network":"ncn","source":"openstreetmap.org","min_zoom":8.0,"landuse_kind":"park"},"arcs":[[1141],[1142]]},{"type":"MultiLineString","properties":{"source":"openstreetmap.org","kind":"major_road","landuse_kind":"park","sort_rank":380,"kind_detail":"primary","ref":"71","min_zoom":8.0},"arcs":[[1143],[1144]]},{"type":"LineString","properties":{"kind":"major_road","sort_rank":380,"kind_detail":"primary","bus_network":"local","source":"openstreetmap.org","min_zoom":8.0,"bus_shield_text":"3A","landuse_kind":"residential","ref":"3","id":521650309},"arcs":[1145]},{"type":"MultiLineString","properties":{"kind":"path","sort_rank":354,"landuse_kind":"residential","is_bicycle_related":true,"bicycle_shield_text":"23A","bicycle_network":"ncn","source":"openstreetmap.org","min_zoom":8.0,"kind_detail":"pedestrian"},"arcs":[[1146],[1147],[1148],[1149]]},{"type":"MultiLineString","properties":{"bus_network":"local","network":"ro:regional","sort_rank":380,"kind_detail":"primary","kind":"major_road","source":"openstreetmap.org","min_zoom":8.0,"bus_shield_text":"AU1","shield_text":"3","landuse_kind":"residential","ref":"3"},"arcs":[[1150],[1151]]},{"type":"LineString","properties":{"kind":"minor_road","sort_rank":360,"kind_detail":"unclassified","is_bicycle_related":true,"bicycle_shield_text":"21","bicycle_network":"ncn","source":"openstreetmap.org","min_zoom":8.0},"arcs":[1152]},{"type":"LineString","properties":{"kind":"major_road","sort_rank":377,"kind_detail":"tertiary","is_bicycle_related":true,"bicycle_shield_text":"21","bicycle_network":"ncn","source":"openstreetmap.org","min_zoom":8.0,"ref":"21138","id":227004779},"arcs":[1153]},{"type":"LineString","properties":{"kind":"minor_road","sort_rank":360,"kind_detail":"residential","is_bicycle_related":true,"bicycle_shield_text":"22","bicycle_network":"ncn","source":"openstreetmap.org","min_zoom":8.0,"old_name":"Felszabad\u00edt\u00f3k utca","id":442198664},"arcs":[1154]},{"type":"LineString","properties":{"bus_network":null,"network":null,"sort_rank":380,"kind_detail":"primary","is_bicycle_related":true,"kind":"major_road","bicycle_shield_text":"2C","bicycle_network":"ncn","source":"openstreetmap.org","min_zoom":8.0,"bus_shield_text":"36C","shield_text":"21","landuse_kind":"residential","ref":"21","id":178630602},"arcs":[1155]},{"type":"LineString","properties":{"kind":"major_road","sort_rank":380,"kind_detail":"primary","is_bicycle_related":true,"bicycle_shield_text":"5702","bicycle_network":"rcn","source":"openstreetmap.org","min_zoom":8.0,"ref":"67"},"arcs":[1156]},{"type":"MultiLineString","properties":{"bus_network":null,"sort_rank":380,"kind_detail":"primary","kind":"major_road","source":"openstreetmap.org","min_zoom":8.0,"bus_shield_text":"2","landuse_kind":"residential"},"arcs":[[1157],[1158],[1159]]},{"type":"LineString","properties":{"kind":"minor_road","sort_rank":360,"kind_detail":"residential","is_bicycle_related":true,"bicycle_shield_text":"2A","bicycle_network":"ncn","source":"openstreetmap.org","min_zoom":8.0},"arcs":[1160]},{"type":"LineString","properties":{"kind":"major_road","sort_rank":377,"kind_detail":"tertiary","is_bicycle_related":true,"bus_network":"Salg\u00f3tarj\u00e1n","bicycle_shield_text":"2C","bicycle_network":"ncn","source":"openstreetmap.org","min_zoom":8.0,"bus_shield_text":"9","ref":"21135","id":59535641},"arcs":[1161]},{"type":"MultiLineString","properties":{"kind":"major_road","sort_rank":379,"kind_detail":"secondary","is_bicycle_related":true,"bicycle_shield_text":"029","bicycle_network":"ncn","source":"openstreetmap.org","min_zoom":8.0,"ref":"587"},"arcs":[[1162],[1163],[1164],[1165],[1166]]},{"type":"MultiLineString","properties":{"kind":"major_road","network":null,"sort_rank":380,"kind_detail":"primary","bus_network":"Salg\u00f3tarj\u00e1n","source":"openstreetmap.org","min_zoom":8.0,"bus_shield_text":"9","shield_text":"21","ref":"21"},"arcs":[[1167],[1168],[1169],[1170],[1171],[1172]]},{"type":"LineString","properties":{"kind":"major_road","network":null,"sort_rank":380,"kind_detail":"primary","source":"openstreetmap.org","min_zoom":8.0,"landuse_kind":"urban_area","shield_text":"27","ref":"27","id":310208788},"arcs":[1173]},{"type":"LineString","properties":{"kind":"path","sort_rank":354,"landuse_kind":"residential","is_bicycle_related":true,"bicycle_shield_text":"2A","bicycle_network":"ncn","source":"openstreetmap.org","min_zoom":8.0,"kind_detail":"footway"},"arcs":[1174]},{"type":"MultiLineString","properties":{"kind":"major_road","sort_rank":379,"kind_detail":"secondary","is_bicycle_related":true,"bicycle_shield_text":"2A","bicycle_network":"ncn","source":"openstreetmap.org","min_zoom":8.0,"ref":"2304"},"arcs":[[1175],[1176]]},{"type":"MultiLineString","properties":{"kind":"major_road","network":null,"sort_rank":380,"kind_detail":"primary","source":"openstreetmap.org","min_zoom":8.0,"landuse_kind":"urban_area","shield_text":"306"},"arcs":[[1177],[1178],[1179]]},{"type":"LineString","properties":{"kind":"major_road","network":null,"sort_rank":380,"kind_detail":"primary","source":"openstreetmap.org","min_zoom":8.0,"landuse_kind":"urban_area","shield_text":"304","ref":"304","id":521649921},"arcs":[1180]},{"type":"LineString","properties":{"kind":"minor_road","sort_rank":358,"kind_detail":"service","is_bicycle_related":true,"bicycle_shield_text":"23B","bicycle_network":"ncn","source":"openstreetmap.org","min_zoom":8.0,"landuse_kind":"park"},"arcs":[1181]},{"type":"LineString","properties":{"bus_network":"regional","network":"ro:regional","sort_rank":380,"kind_detail":"primary","kind":"major_road","source":"openstreetmap.org","min_zoom":8.0,"bus_shield_text":"3740","shield_text":"3","landuse_kind":"urban_area","ref":"3"},"arcs":[1182]},{"type":"MultiLineString","properties":{"kind":"minor_road","sort_rank":360,"kind_detail":"unclassified","is_bicycle_related":true,"bicycle_shield_text":"23A","bicycle_network":"ncn","source":"openstreetmap.org","min_zoom":8.0,"landuse_kind":"park"},"arcs":[[1183],[1184],[1185],[1186]]},{"type":"MultiLineString","properties":{"kind":"minor_road","sort_rank":360,"kind_detail":"unclassified","is_bicycle_related":true,"bicycle_shield_text":"021","bicycle_network":"ncn","source":"openstreetmap.org","min_zoom":8.0},"arcs":[[1187],[1188],[1189],[1190]]},{"type":"LineString","properties":{"kind":"major_road","network":null,"sort_rank":380,"kind_detail":"primary","source":"openstreetmap.org","min_zoom":8.0,"landuse_kind":"residential","shield_text":"27","ref":"27"},"arcs":[1191]},{"type":"MultiLineString","properties":{"source":"openstreetmap.org","kind":"major_road","sort_rank":380,"kind_detail":"primary","ref":"72","min_zoom":8.0},"arcs":[[1192],[1193],[1194],[1195],[1196],[1197],[1198],[1199],[1200],[1201],[1202],[1203]]},{"type":"LineString","properties":{"kind":"major_road","sort_rank":380,"kind_detail":"primary","is_bicycle_related":true,"bicycle_shield_text":"2A","bicycle_network":"ncn","source":"openstreetmap.org","min_zoom":8.0,"landuse_kind":"residential","ref":"211","id":415803828},"arcs":[1204]},{"type":"MultiLineString","properties":{"bus_network":null,"network":null,"sort_rank":355,"kind_detail":"primary_link","is_bicycle_related":true,"kind":"major_road","bicycle_shield_text":"2C","bicycle_network":"ncn","source":"openstreetmap.org","min_zoom":8.0,"is_link":true,"bus_shield_text":"11B","shield_text":"21","landuse_kind":"residential","ref":"21"},"arcs":[[1205],[1206]]},{"type":"LineString","properties":{"kind":"major_road","sort_rank":377,"kind_detail":"tertiary","is_bicycle_related":true,"bicycle_shield_text":"014","bicycle_network":"ncn","source":"openstreetmap.org","min_zoom":8.0,"ref":"3245"},"arcs":[1207]},{"type":"LineString","properties":{"kind":"minor_road","sort_rank":360,"landuse_kind":"urban_area","is_bicycle_related":true,"bicycle_shield_text":"2A","bicycle_network":"ncn","source":"openstreetmap.org","min_zoom":8.0,"kind_detail":"residential"},"arcs":[1208]},{"type":"MultiLineString","properties":{"kind":"major_road","sort_rank":377,"kind_detail":"tertiary","is_bicycle_related":true,"bicycle_shield_text":"009","bicycle_network":"ncn","source":"openstreetmap.org","min_zoom":8.0,"ref":"2715"},"arcs":[[1209],[1210]]},{"type":"MultiLineString","properties":{"kind":"major_road","network":null,"sort_rank":380,"kind_detail":"primary","is_bicycle_related":true,"bicycle_shield_text":"2A","bicycle_network":"ncn","source":"openstreetmap.org","min_zoom":8.0,"landuse_kind":"residential","shield_text":"25","ref":"25"},"arcs":[[1211],[1212],[1213]]},{"type":"MultiLineString","properties":{"bus_network":"local","network":"ro:regional","sort_rank":380,"kind_detail":"primary","kind":"major_road","source":"openstreetmap.org","min_zoom":8.0,"bus_shield_text":"7","shield_text":"3","landuse_kind":"residential","ref":"3"},"arcs":[[1214],[1215]]},{"type":"MultiLineString","properties":{"bus_network":"B\u00e1tonyterenye","network":null,"sort_rank":380,"kind_detail":"primary","kind":"major_road","source":"openstreetmap.org","min_zoom":8.0,"bus_shield_text":"3A","shield_text":"23","ref":"23"},"arcs":[[1216],[1217]]},{"type":"MultiLineString","properties":{"kind":"major_road","sort_rank":379,"kind_detail":"secondary","is_bicycle_related":true,"bicycle_shield_text":"22","bicycle_network":"ncn","source":"openstreetmap.org","min_zoom":8.0,"ref":"2506"},"arcs":[[1218],[1219],[1220]]},{"type":"LineString","properties":{"kind":"path","sort_rank":354,"landuse_kind":"urban_area","is_bicycle_related":true,"bicycle_shield_text":"2C","bicycle_network":"ncn","source":"openstreetmap.org","min_zoom":8.0,"kind_detail":"cycleway"},"arcs":[1221]},{"type":"LineString","properties":{"kind":"minor_road","sort_rank":360,"kind_detail":"residential","is_bicycle_related":true,"bicycle_shield_text":"012","bicycle_network":"ncn","source":"openstreetmap.org","min_zoom":8.0},"arcs":[1222]},{"type":"LineString","properties":{"kind":"major_road","network":null,"sort_rank":380,"kind_detail":"primary","bus_network":"Salg\u00f3tarj\u00e1n","source":"openstreetmap.org","min_zoom":8.0,"bus_shield_text":"7B","shield_text":"211","landuse_kind":"residential","ref":"211"},"arcs":[1223]},{"type":"MultiLineString","properties":{"kind":"major_road","sort_rank":377,"kind_detail":"tertiary","is_bicycle_related":true,"bicycle_shield_text":"037","bicycle_network":"ncn","source":"openstreetmap.org","min_zoom":8.0,"ref":"2753"},"arcs":[[1224],[1225]]},{"type":"LineString","properties":{"kind":"major_road","sort_rank":380,"kind_detail":"primary","bus_network":"regional","source":"openstreetmap.org","min_zoom":8.0,"bus_shield_text":"3740","landuse_kind":"urban_area","ref":"3","id":521649939},"arcs":[1226]},{"type":"MultiLineString","properties":{"kind":"major_road","sort_rank":377,"kind_detail":"tertiary","is_bicycle_related":true,"bicycle_shield_text":"029","bicycle_network":"ncn","source":"openstreetmap.org","min_zoom":8.0,"ref":"3306"},"arcs":[[1227],[1228],[1229]]},{"type":"MultiLineString","properties":{"bus_network":"local","sort_rank":380,"kind_detail":"primary","kind":"major_road","source":"openstreetmap.org","min_zoom":8.0,"bus_shield_text":"AU2","landuse_kind":"urban_area","ref":"3"},"arcs":[[1230],[1231]]},{"type":"LineString","properties":{"bus_network":"local","network":null,"sort_rank":380,"kind_detail":"primary","kind":"major_road","source":"openstreetmap.org","min_zoom":8.0,"bus_shield_text":"35R","shield_text":"26","landuse_kind":"urban_area","ref":"26"},"arcs":[1232]},{"type":"MultiLineString","properties":{"kind":"minor_road","sort_rank":360,"kind_detail":"residential","is_bicycle_related":true,"bicycle_shield_text":"021","bicycle_network":"ncn","source":"openstreetmap.org","min_zoom":8.0},"arcs":[[1233],[1234]]},{"type":"MultiLineString","properties":{"kind":"major_road","network":null,"sort_rank":380,"kind_detail":"primary","source":"openstreetmap.org","min_zoom":8.0,"landuse_kind":"residential","shield_text":"21","ref":"21"},"arcs":[[1235],[1236],[1237],[1238],[1239],[1240],[1241]]},{"type":"LineString","properties":{"kind":"path","sort_rank":354,"landuse_kind":"residential","is_bicycle_related":true,"bicycle_shield_text":"23A","bicycle_network":"ncn","source":"openstreetmap.org","min_zoom":8.0,"kind_detail":"footway"},"arcs":[1242]},{"type":"LineString","properties":{"kind":"major_road","network":null,"sort_rank":380,"kind_detail":"primary","source":"openstreetmap.org","min_zoom":8.0,"landuse_kind":"urban_area","shield_text":"25","ref":"25"},"arcs":[1243]},{"type":"LineString","properties":{"kind":"major_road","sort_rank":377,"kind_detail":"tertiary","is_bicycle_related":true,"bicycle_shield_text":"22","bicycle_network":"ncn","source":"openstreetmap.org","min_zoom":8.0,"ref":"2521"},"arcs":[1244]},{"type":"MultiLineString","properties":{"kind":"path","sort_rank":354,"kind_detail":"track","is_bicycle_related":true,"bicycle_shield_text":"029","bicycle_network":"ncn","source":"openstreetmap.org","min_zoom":8.0},"arcs":[[1245],[1246],[1247],[1248],[1249],[1250],[1251],[1252]]},{"type":"MultiLineString","properties":{"kind":"major_road","sort_rank":380,"kind_detail":"primary","is_bicycle_related":true,"bicycle_shield_text":"8592","bicycle_network":"rcn","source":"openstreetmap.org","min_zoom":8.0,"ref":"66"},"arcs":[[1253],[1254],[1255],[1256],[1257],[1258]]},{"type":"LineString","properties":{"kind":"major_road","sort_rank":380,"kind_detail":"primary","is_bicycle_related":true,"bicycle_shield_text":"5581","bicycle_network":"rcn","source":"openstreetmap.org","min_zoom":8.0,"landuse_kind":"park","ref":"66"},"arcs":[1259]},{"type":"LineString","properties":{"kind":"major_road","network":null,"sort_rank":380,"kind_detail":"primary","bus_network":"Salg\u00f3tarj\u00e1n","source":"openstreetmap.org","min_zoom":8.0,"bus_shield_text":"7A","shield_text":"211","landuse_kind":"residential","ref":"211","id":39773515},"arcs":[1260]},{"type":"MultiLineString","properties":{"kind":"major_road","sort_rank":379,"kind_detail":"secondary","is_bicycle_related":true,"bicycle_shield_text":"049","bicycle_network":"ncn","source":"openstreetmap.org","min_zoom":8.0,"ref":"531"},"arcs":[[1261],[1262]]},{"type":"MultiLineString","properties":{"kind":"path","sort_rank":354,"kind_detail":"steps","is_bicycle_related":true,"bicycle_shield_text":"2C","bicycle_network":"ncn","source":"openstreetmap.org","min_zoom":8.0},"arcs":[[1263],[1264]]},{"type":"LineString","properties":{"kind":"major_road","network":null,"sort_rank":380,"kind_detail":"primary","source":"openstreetmap.org","min_zoom":8.0,"landuse_kind":"urban_area","shield_text":"22","ref":"22","id":339024197},"arcs":[1265]},{"type":"LineString","properties":{"kind":"major_road","sort_rank":377,"kind_detail":"tertiary","is_bicycle_related":true,"bicycle_shield_text":"021","bicycle_network":"ncn","source":"openstreetmap.org","min_zoom":8.0,"landuse_kind":"park","ref":"3047"},"arcs":[1266]},{"type":"LineString","properties":{"bus_network":null,"sort_rank":379,"kind_detail":"secondary","is_bicycle_related":true,"kind":"major_road","bicycle_shield_text":"23A","bicycle_network":"ncn","source":"openstreetmap.org","min_zoom":8.0,"bus_shield_text":"3730","ref":"3702"},"arcs":[1267]},{"type":"MultiLineString","properties":{"bus_network":null,"network":null,"sort_rank":380,"kind_detail":"primary","is_bicycle_related":true,"kind":"major_road","bicycle_shield_text":"22","bicycle_network":"ncn","source":"openstreetmap.org","min_zoom":8.0,"bus_shield_text":"4","shield_text":"25","landuse_kind":"residential","ref":"25"},"arcs":[[1268],[1269]]},{"type":"LineString","properties":{"bus_network":null,"network":null,"sort_rank":380,"kind_detail":"primary","is_bicycle_related":true,"kind":"major_road","bicycle_shield_text":"2C","bicycle_network":"ncn","source":"openstreetmap.org","min_zoom":8.0,"bus_shield_text":"11B","shield_text":"21","landuse_kind":"urban_area","ref":"21"},"arcs":[1270]},{"type":"MultiLineString","properties":{"bus_network":null,"network":null,"sort_rank":380,"kind_detail":"primary","kind":"major_road","source":"openstreetmap.org","min_zoom":8.0,"bus_shield_text":"2","shield_text":"25","landuse_kind":"residential","ref":"25"},"arcs":[[1271],[1272],[1273]]},{"type":"LineString","properties":{"kind":"major_road","sort_rank":380,"kind_detail":"primary","bus_network":null,"source":"openstreetmap.org","min_zoom":8.0,"bus_shield_text":"2","landuse_kind":"residential","ref":"25","id":495738741},"arcs":[1274]},{"type":"MultiLineString","properties":{"kind":"major_road","sort_rank":377,"kind_detail":"tertiary","is_bicycle_related":true,"bicycle_shield_text":"029","bicycle_network":"ncn","source":"openstreetmap.org","min_zoom":8.0,"ref":"3004"},"arcs":[[1275],[1276],[1277]]},{"type":"MultiLineString","properties":{"kind":"major_road","sort_rank":379,"kind_detail":"secondary","is_bicycle_related":true,"bicycle_shield_text":"021","bicycle_network":"ncn","source":"openstreetmap.org","min_zoom":8.0,"ref":"535"},"arcs":[[1278],[1279]]},{"type":"MultiLineString","properties":{"kind":"major_road","network":null,"sort_rank":380,"kind_detail":"primary","source":"openstreetmap.org","min_zoom":8.0,"shield_text":"304","ref":"304"},"arcs":[[1280],[1281],[1282]]},{"type":"MultiLineString","properties":{"kind":"major_road","network":null,"sort_rank":380,"kind_detail":"primary","is_bicycle_related":true,"bicycle_shield_text":"2A","bicycle_network":"ncn","source":"openstreetmap.org","min_zoom":8.0,"landuse_kind":"urban_area","shield_text":"25","ref":"25"},"arcs":[[1283],[1284],[1285]]},{"type":"LineString","properties":{"kind":"major_road","sort_rank":379,"kind_detail":"secondary","is_bicycle_related":true,"bicycle_shield_text":"2A","bicycle_network":"ncn","source":"openstreetmap.org","min_zoom":8.0,"ref":"2603"},"arcs":[1286]},{"type":"MultiLineString","properties":{"bus_network":null,"sort_rank":379,"kind_detail":"secondary","is_bicycle_related":true,"kind":"major_road","bicycle_shield_text":"22","bicycle_network":"ncn","source":"openstreetmap.org","min_zoom":8.0,"bus_shield_text":"2","landuse_kind":"residential","ref":"2508"},"arcs":[[1287],[1288],[1289]]},{"type":"LineString","properties":{"kind":"path","sort_rank":354,"kind_detail":"cycleway","is_bicycle_related":true,"bicycle_shield_text":"2C","bicycle_network":"ncn","source":"openstreetmap.org","min_zoom":8.0},"arcs":[1290]},{"type":"MultiLineString","properties":{"kind":"major_road","sort_rank":380,"kind_detail":"primary","is_bicycle_related":true,"bicycle_shield_text":"8605","bicycle_network":"rcn","source":"openstreetmap.org","min_zoom":8.0,"ref":"66"},"arcs":[[1291],[1292]]},{"type":"LineString","properties":{"kind":"major_road","sort_rank":379,"kind_detail":"secondary","is_bicycle_related":true,"bicycle_shield_text":"2A","bicycle_network":"ncn","source":"openstreetmap.org","min_zoom":8.0,"ref":"2306"},"arcs":[1293]},{"type":"LineString","properties":{"kind":"major_road","sort_rank":379,"kind_detail":"secondary","is_bicycle_related":true,"bicycle_shield_text":"2A","bicycle_network":"ncn","source":"openstreetmap.org","min_zoom":8.0,"landuse_kind":"park","ref":"2304"},"arcs":[1294]},{"type":"LineString","properties":{"kind":"major_road","network":"ro:regional","sort_rank":380,"kind_detail":"primary","bus_network":"local","source":"openstreetmap.org","min_zoom":8.0,"bus_shield_text":"ME","shield_text":"3","landuse_kind":"urban_area","ref":"Szil\u00e1gyi Dezs\u0151 utca","id":500253692},"arcs":[1295]},{"type":"MultiLineString","properties":{"kind":"major_road","sort_rank":380,"kind_detail":"primary","is_bicycle_related":true,"bicycle_shield_text":"2554","bicycle_network":"rcn","source":"openstreetmap.org","min_zoom":8.0,"ref":"66"},"arcs":[[1296],[1297],[1298],[1299],[1300],[1301]]},{"type":"MultiLineString","properties":{"kind":"major_road","sort_rank":377,"landuse_kind":"national_park","is_bicycle_related":true,"bicycle_shield_text":"029","bicycle_network":"ncn","source":"openstreetmap.org","min_zoom":8.0,"kind_detail":"tertiary","ref":"3004"},"arcs":[[1302],[1303]]},{"type":"MultiLineString","properties":{"kind":"minor_road","sort_rank":360,"landuse_kind":"national_park","is_bicycle_related":true,"bicycle_shield_text":"029","bicycle_network":"ncn","source":"openstreetmap.org","min_zoom":8.0,"kind_detail":"unclassified"},"arcs":[[1304],[1305]]},{"type":"LineString","properties":{"kind":"major_road","sort_rank":380,"kind_detail":"primary","bus_network":"local","source":"openstreetmap.org","min_zoom":8.0,"bus_shield_text":"AU2","landuse_kind":"urban_area","id":262939850},"arcs":[1306]},{"type":"LineString","properties":{"kind":"path","footway":"sidewalk","sort_rank":354,"landuse_kind":"urban_area","is_bicycle_related":true,"bicycle_shield_text":"23A","bicycle_network":"ncn","source":"openstreetmap.org","min_zoom":8.0,"kind_detail":"footway"},"arcs":[1307]},{"type":"LineString","properties":{"kind":"major_road","sort_rank":380,"kind_detail":"primary","is_bicycle_related":true,"bus_network":null,"bicycle_shield_text":"2C","bicycle_network":"ncn","source":"openstreetmap.org","min_zoom":8.0,"bus_shield_text":"11","landuse_kind":"urban_area","ref":"21","id":177444501},"arcs":[1308]},{"type":"LineString","properties":{"kind":"major_road","network":null,"sort_rank":379,"kind_detail":"secondary","is_bicycle_related":true,"bicycle_shield_text":"2A","bicycle_network":"ncn","source":"openstreetmap.org","min_zoom":8.0,"shield_text":"2613","ref":"2613"},"arcs":[1309]},{"type":"LineString","properties":{"bus_network":null,"sort_rank":379,"landuse_kind":"residential","is_bicycle_related":true,"kind":"major_road","bicycle_shield_text":"2A","bicycle_network":"ncn","source":"openstreetmap.org","min_zoom":8.0,"bus_shield_text":"2","kind_detail":"secondary","ref":"2306"},"arcs":[1310]},{"type":"LineString","properties":{"kind":"major_road","network":null,"sort_rank":380,"kind_detail":"primary","source":"openstreetmap.org","min_zoom":8.0,"shield_text":"23","ref":"23"},"arcs":[1311]},{"type":"LineString","properties":{"kind":"major_road","network":"e-road","sort_rank":380,"kind_detail":"primary","is_bicycle_related":true,"bicycle_shield_text":"8703","bicycle_network":"rcn","source":"openstreetmap.org","min_zoom":8.0,"shield_text":"58","ref":"16"},"arcs":[1312]},{"type":"LineString","properties":{"kind":"major_road","sort_rank":377,"kind_detail":"tertiary","is_bicycle_related":true,"bicycle_shield_text":"21","bicycle_network":"ncn","source":"openstreetmap.org","min_zoom":8.0,"ref":"21135"},"arcs":[1313]},{"type":"LineString","properties":{"kind":"major_road","sort_rank":377,"kind_detail":"tertiary","is_bicycle_related":true,"bicycle_shield_text":"040","bicycle_network":"ncn","source":"openstreetmap.org","min_zoom":8.0,"ref":"2775"},"arcs":[1314]},{"type":"MultiLineString","properties":{"kind":"minor_road","sort_rank":360,"kind_detail":"residential","is_bicycle_related":true,"bicycle_shield_text":"2C","cycleway":"lane","source":"openstreetmap.org","min_zoom":8.0,"landuse_kind":"residential","bicycle_network":"ncn"},"arcs":[[1315],[1316],[1317]]},{"type":"LineString","properties":{"kind":"major_road","sort_rank":380,"kind_detail":"primary","is_bicycle_related":true,"bicycle_shield_text":"2715","bicycle_network":"rcn","source":"openstreetmap.org","min_zoom":8.0,"landuse_kind":"park","ref":"67","id":11962251},"arcs":[1318]},{"type":"LineString","properties":{"kind":"major_road","sort_rank":380,"kind_detail":"primary","bus_network":"local","source":"openstreetmap.org","min_zoom":8.0,"bus_shield_text":"240","landuse_kind":"urban_area","ref":"306","id":22014803},"arcs":[1319]},{"type":"MultiLineString","properties":{"kind":"minor_road","sort_rank":360,"kind_detail":"residential","is_bicycle_related":true,"bicycle_shield_text":"23A","cycleway":"shared_lane","source":"openstreetmap.org","min_zoom":8.0,"landuse_kind":"urban_area","bicycle_network":"ncn"},"arcs":[[1320],[1321],[1322],[1323]]},{"type":"MultiLineString","properties":{"bus_network":null,"network":null,"sort_rank":380,"kind_detail":"primary","is_bicycle_related":true,"kind":"major_road","bicycle_shield_text":"23A","bicycle_network":"ncn","source":"openstreetmap.org","min_zoom":8.0,"bus_shield_text":"3730","shield_text":"37","ref":"37"},"arcs":[[1324],[1325]]},{"type":"LineString","properties":{"kind":"major_road","sort_rank":377,"kind_detail":"tertiary","is_bicycle_related":true,"bicycle_shield_text":"049","bicycle_network":"ncn","source":"openstreetmap.org","min_zoom":8.0,"name:hu":"S\u00e1volyi \u00fat","ref":"2670","id":33628945},"arcs":[1326]},{"type":"MultiLineString","properties":{"kind":"major_road","network":"ro:regional","sort_rank":380,"kind_detail":"primary","source":"openstreetmap.org","min_zoom":8.0,"landuse_kind":"urban_area","shield_text":"3","ref":"3"},"arcs":[[1327],[1328],[1329],[1330],[1331]]},{"type":"LineString","properties":{"kind":"major_road","sort_rank":380,"kind_detail":"primary","bus_network":"local","source":"openstreetmap.org","min_zoom":8.0,"bus_shield_text":"14Y","landuse_kind":"residential","id":154532087},"arcs":[1332]},{"type":"LineString","properties":{"kind":"major_road","sort_rank":377,"kind_detail":"tertiary","is_bicycle_related":true,"bicycle_shield_text":"021","bicycle_network":"ncn","source":"openstreetmap.org","min_zoom":8.0,"ref":"3278","id":58966082},"arcs":[1333]},{"type":"MultiLineString","properties":{"kind":"major_road","network":"e-road","sort_rank":380,"kind_detail":"primary","source":"openstreetmap.org","min_zoom":8.0,"landuse_kind":"urban_area","shield_text":"71","ref":"M30"},"arcs":[[1334],[1335],[1336],[1337],[1338],[1339]]},{"type":"LineString","properties":{"kind":"major_road","sort_rank":380,"kind_detail":"primary","bus_network":"local","source":"openstreetmap.org","min_zoom":8.0,"bus_shield_text":"ME","landuse_kind":"urban_area","ref":"3","id":521650171},"arcs":[1340]},{"type":"MultiLineString","properties":{"kind":"minor_road","sort_rank":358,"kind_detail":"service","is_bicycle_related":true,"bicycle_shield_text":"23A","bicycle_network":"ncn","source":"openstreetmap.org","min_zoom":8.0,"landuse_kind":"park"},"arcs":[[1341],[1342],[1343]]},{"type":"MultiLineString","properties":{"bus_network":null,"network":null,"sort_rank":380,"kind_detail":"primary","is_bicycle_related":true,"kind":"major_road","bicycle_shield_text":"2A","bicycle_network":"ncn","source":"openstreetmap.org","min_zoom":8.0,"bus_shield_text":"4","shield_text":"25","landuse_kind":"residential","ref":"25"},"arcs":[[1344],[1345],[1346]]},{"type":"MultiLineString","properties":{"source":"openstreetmap.org","kind":"major_road","sort_rank":380,"kind_detail":"primary","ref":"16","min_zoom":8.0},"arcs":[[1347],[1348],[1349],[1350],[1351],[1352],[1353],[1354],[1355]]},{"type":"LineString","properties":{"kind":"major_road","sort_rank":379,"kind_detail":"secondary","is_bicycle_related":true,"bicycle_shield_text":"009","bicycle_network":"ncn","source":"openstreetmap.org","min_zoom":8.0,"ref":"526"},"arcs":[1356]},{"type":"LineString","properties":{"kind":"major_road","sort_rank":379,"kind_detail":"secondary","is_bicycle_related":true,"bicycle_shield_text":"029","bicycle_network":"ncn","source":"openstreetmap.org","min_zoom":8.0,"landuse_kind":"national_park","ref":"587","id":11889908},"arcs":[1357]},{"type":"LineString","properties":{"kind":"major_road","sort_rank":380,"kind_detail":"primary","is_bicycle_related":true,"bicycle_shield_text":"2554","bicycle_network":"rcn","source":"openstreetmap.org","min_zoom":8.0,"landuse_kind":"park","ref":"66","id":11294836},"arcs":[1358]},{"type":"MultiLineString","properties":{"bus_network":"local","network":null,"sort_rank":380,"kind_detail":"primary","kind":"major_road","source":"openstreetmap.org","min_zoom":8.0,"bus_shield_text":"AU2","shield_text":"304","landuse_kind":"urban_area","ref":"304"},"arcs":[[1359],[1360]]},{"type":"MultiLineString","properties":{"kind":"major_road","network":"e-road","sort_rank":380,"kind_detail":"primary","source":"openstreetmap.org","min_zoom":8.0,"shield_text":"58","ref":"16"},"arcs":[[1361],[1362],[1363],[1364],[1365],[1366],[1367],[1368],[1369],[1370],[1371],[1372],[1373],[1374],[1375],[1376]]},{"type":"MultiLineString","properties":{"kind":"minor_road","sort_rank":360,"landuse_kind":"national_park","is_bicycle_related":true,"bicycle_shield_text":"029","bicycle_network":"ncn","source":"openstreetmap.org","min_zoom":8.0,"kind_detail":"residential"},"arcs":[[1377],[1378],[1379]]},{"type":"MultiLineString","properties":{"source":"openstreetmap.org","kind":"major_road","network":"e-road","sort_rank":380,"kind_detail":"primary","min_zoom":8.0,"shield_text":"71"},"arcs":[[1380],[1381],[1382],[1383]]},{"type":"LineString","properties":{"source":"openstreetmap.org","bus_network":null,"bus_shield_text":"3730","sort_rank":380,"kind_detail":"primary","min_zoom":8.0,"kind":"major_road"},"arcs":[1384]},{"type":"LineString","properties":{"kind":"major_road","sort_rank":377,"kind_detail":"tertiary","is_bicycle_related":true,"bicycle_shield_text":"029","bicycle_network":"ncn","source":"openstreetmap.org","min_zoom":8.0,"ref":"3033"},"arcs":[1385]},{"type":"LineString","properties":{"kind":"major_road","network":null,"sort_rank":380,"kind_detail":"primary","bus_network":"B\u00e1tonyterenye","source":"openstreetmap.org","min_zoom":8.0,"bus_shield_text":"3A","shield_text":"21","ref":"21","id":181912710},"arcs":[1386]},{"type":"LineString","properties":{"bus_network":null,"network":null,"sort_rank":380,"kind_detail":"primary","is_bicycle_related":true,"kind":"major_road","bicycle_shield_text":"2A","bicycle_network":"ncn","source":"openstreetmap.org","min_zoom":8.0,"bus_shield_text":"4","shield_text":"25","landuse_kind":"urban_area","id":545111877},"arcs":[1387]},{"type":"MultiLineString","properties":{"kind":"path","sort_rank":354,"landuse_kind":"urban_area","is_bicycle_related":true,"bicycle_shield_text":"23A","bicycle_network":"ncn","source":"openstreetmap.org","min_zoom":8.0,"kind_detail":"footway"},"arcs":[[1388],[1389]]},{"type":"LineString","properties":{"bus_network":"local","sort_rank":379,"kind_detail":"secondary","is_bicycle_related":true,"kind":"major_road","bicycle_shield_text":"23A","bicycle_network":"ncn","source":"openstreetmap.org","min_zoom":8.0,"bus_shield_text":"5","landuse_kind":"park","ref":"2505"},"arcs":[1390]},{"type":"LineString","properties":{"kind":"major_road","sort_rank":379,"landuse_kind":"urban_area","is_bicycle_related":true,"bus_network":"Salg\u00f3tarj\u00e1n","bicycle_shield_text":"2A","bicycle_network":"ncn","source":"openstreetmap.org","min_zoom":8.0,"bus_shield_text":"1U","kind_detail":"secondary","ref":"2303"},"arcs":[1391]},{"type":"LineString","properties":{"kind":"major_road","sort_rank":379,"kind_detail":"secondary","is_bicycle_related":true,"bicycle_shield_text":"2A","bicycle_network":"ncn","source":"openstreetmap.org","min_zoom":8.0,"ref":"2206"},"arcs":[1392]},{"type":"LineString","properties":{"kind":"major_road","sort_rank":379,"kind_detail":"secondary","is_bicycle_related":true,"bicycle_shield_text":"2882","bicycle_network":"ncn","source":"openstreetmap.org","min_zoom":8.0,"ref":"549"},"arcs":[1393]},{"type":"MultiLineString","properties":{"bus_network":"local","network":"ro:regional","sort_rank":380,"kind_detail":"primary","kind":"major_road","source":"openstreetmap.org","min_zoom":8.0,"bus_shield_text":"ME","shield_text":"3","landuse_kind":"residential","ref":"3"},"arcs":[[1394],[1395],[1396],[1397]]},{"type":"LineString","properties":{"kind":"minor_road","sort_rank":360,"kind_detail":"residential","is_bicycle_related":true,"bicycle_shield_text":"029","bicycle_network":"ncn","source":"openstreetmap.org","min_zoom":8.0,"name:hu":"Domicai","id":159807637},"arcs":[1398]},{"type":"LineString","properties":{"kind":"major_road","sort_rank":380,"kind_detail":"primary","is_bicycle_related":true,"bicycle_shield_text":"2570","bicycle_network":"rcn","source":"openstreetmap.org","min_zoom":8.0,"ref":"72"},"arcs":[1399]},{"type":"LineString","properties":{"bus_network":null,"bicycle_shield_text":"2C","min_zoom":8.0,"is_link":true,"bus_shield_text":"36","id":362138291,"kind":"major_road","network":null,"sort_rank":355,"kind_detail":"primary_link","is_bicycle_related":true,"bicycle_network":"ncn","source":"openstreetmap.org","landuse_kind":"residential","shield_text":"211","ref":"211"},"arcs":[1400]},{"type":"MultiLineString","properties":{"kind":"major_road","network":null,"sort_rank":380,"kind_detail":"primary","source":"openstreetmap.org","min_zoom":8.0,"shield_text":"27","ref":"27"},"arcs":[[1401],[1402],[1403],[1404]]},{"type":"LineString","properties":{"kind":"major_road","sort_rank":380,"kind_detail":"primary","is_bicycle_related":true,"bicycle_shield_text":"029","bicycle_network":"ncn","source":"openstreetmap.org","min_zoom":8.0,"ref":"67"},"arcs":[1405]},{"type":"MultiLineString","properties":{"kind":"major_road","network":null,"sort_rank":380,"kind_detail":"primary","bus_network":"Salg\u00f3tarj\u00e1n","source":"openstreetmap.org","min_zoom":8.0,"bus_shield_text":"1U","shield_text":"211","landuse_kind":"residential","ref":"211"},"arcs":[[1406],[1407]]},{"type":"MultiLineString","properties":{"kind":"minor_road","sort_rank":360,"kind_detail":"residential","is_bicycle_related":true,"bicycle_shield_text":"23A","bicycle_network":"ncn","source":"openstreetmap.org","min_zoom":8.0,"landuse_kind":"residential","cycleway":"opposite"},"arcs":[[1408],[1409],[1410]]},{"type":"LineString","properties":{"kind":"major_road","sort_rank":377,"kind_detail":"tertiary","is_bicycle_related":true,"bicycle_shield_text":"029","bicycle_network":"ncn","source":"openstreetmap.org","min_zoom":8.0,"ref":"3329"},"arcs":[1411]},{"type":"MultiLineString","properties":{"kind":"path","sort_rank":354,"landuse_kind":"national_park","is_bicycle_related":true,"bicycle_shield_text":"029","bicycle_network":"ncn","source":"openstreetmap.org","min_zoom":8.0,"kind_detail":"path"},"arcs":[[1412],[1413]]},{"type":"MultiLineString","properties":{"kind":"major_road","network":null,"sort_rank":380,"kind_detail":"primary","source":"openstreetmap.org","min_zoom":8.0,"landuse_kind":"urban_area","shield_text":"26","ref":"26"},"arcs":[[1414],[1415],[1416],[1417],[1418]]},{"type":"LineString","properties":{"kind":"major_road","sort_rank":379,"kind_detail":"secondary","is_bicycle_related":true,"bus_network":"Salg\u00f3tarj\u00e1n","bicycle_shield_text":"2A","bicycle_network":"ncn","source":"openstreetmap.org","min_zoom":8.0,"bus_shield_text":"1U","ref":"2304","id":25777612},"arcs":[1419]},{"type":"MultiLineString","properties":{"kind":"major_road","sort_rank":377,"landuse_kind":"national_park","is_bicycle_related":true,"bicycle_shield_text":"029","bicycle_network":"ncn","source":"openstreetmap.org","min_zoom":8.0,"kind_detail":"tertiary","ref":"3009"},"arcs":[[1420],[1421],[1422]]},{"type":"LineString","properties":{"kind":"major_road","sort_rank":379,"kind_detail":"secondary","is_bicycle_related":true,"bicycle_shield_text":"021","bicycle_network":"ncn","source":"openstreetmap.org","min_zoom":8.0,"ref":"547"},"arcs":[1423]},{"type":"LineString","properties":{"kind":"minor_road","sort_rank":358,"kind_detail":"service","is_bicycle_related":true,"bicycle_shield_text":"049","bicycle_network":"ncn","source":"openstreetmap.org","min_zoom":8.0},"arcs":[1424]},{"type":"LineString","properties":{"kind":"major_road","sort_rank":380,"kind_detail":"primary","bus_network":"local","source":"openstreetmap.org","min_zoom":8.0,"bus_shield_text":"20G","landuse_kind":"residential","ref":"3","id":521650259},"arcs":[1425]},{"type":"LineString","properties":{"bus_network":"regional","network":"ro:regional","sort_rank":380,"kind_detail":"primary","is_bicycle_related":true,"kind":"major_road","cycleway":"lane","source":"openstreetmap.org","min_zoom":8.0,"bus_shield_text":"3740","shield_text":"3","landuse_kind":"urban_area","ref":"3"},"arcs":[1426]},{"type":"MultiLineString","properties":{"bus_network":"local","network":null,"sort_rank":380,"kind_detail":"primary","kind":"major_road","source":"openstreetmap.org","min_zoom":8.0,"bus_shield_text":"3","shield_text":"304","landuse_kind":"urban_area","ref":"304"},"arcs":[[1427],[1428]]},{"type":"LineString","properties":{"bus_network":"B\u00e1tonyterenye","network":null,"sort_rank":380,"kind_detail":"primary","kind":"major_road","source":"openstreetmap.org","min_zoom":8.0,"bus_shield_text":"11A","shield_text":"23","ref":"23"},"arcs":[1429]},{"type":"LineString","properties":{"bus_network":null,"network":null,"sort_rank":380,"kind_detail":"primary","is_bicycle_related":true,"kind":"major_road","bicycle_shield_text":"2C","bicycle_network":"ncn","source":"openstreetmap.org","min_zoom":8.0,"bus_shield_text":"11B","shield_text":"21","landuse_kind":"residential","ref":"21"},"arcs":[1430]},{"type":"LineString","properties":{"kind":"major_road","sort_rank":380,"kind_detail":"primary","is_bicycle_related":true,"bicycle_shield_text":"5573","bicycle_network":"rcn","source":"openstreetmap.org","min_zoom":8.0,"ref":"72"},"arcs":[1431]},{"type":"MultiLineString","properties":{"kind":"minor_road","sort_rank":360,"kind_detail":"residential","is_bicycle_related":true,"bicycle_shield_text":"040","bicycle_network":"ncn","source":"openstreetmap.org","min_zoom":8.0},"arcs":[[1432],[1433],[1434],[1435]]},{"type":"LineString","properties":{"kind":"major_road","sort_rank":380,"kind_detail":"primary","is_bicycle_related":true,"bicycle_shield_text":"8638","bicycle_network":"rcn","source":"openstreetmap.org","min_zoom":8.0,"ref":"72","id":415350107},"arcs":[1436]},{"type":"MultiLineString","properties":{"kind":"path","sort_rank":354,"kind_detail":"track","is_bicycle_related":true,"bicycle_shield_text":"040","bicycle_network":"ncn","source":"openstreetmap.org","min_zoom":8.0,"landuse_kind":"park"},"arcs":[[1437],[1438]]},{"type":"LineString","properties":{"bus_network":null,"sort_rank":355,"kind_detail":"secondary_link","is_bicycle_related":true,"kind":"major_road","bicycle_shield_text":"22","bicycle_network":"ncn","source":"openstreetmap.org","min_zoom":8.0,"is_link":true,"bus_shield_text":"2","landuse_kind":"residential"},"arcs":[1439]},{"type":"LineString","properties":{"bus_network":null,"network":null,"sort_rank":380,"kind_detail":"primary","kind":"major_road","source":"openstreetmap.org","min_zoom":8.0,"bus_shield_text":"3C","shield_text":"21","landuse_kind":"residential","ref":"21"},"arcs":[1440]},{"type":"LineString","properties":{"kind":"major_road","sort_rank":380,"kind_detail":"primary","is_bicycle_related":true,"bicycle_shield_text":"8583","bicycle_network":"rcn","source":"openstreetmap.org","min_zoom":8.0,"ref":"72"},"arcs":[1441]},{"type":"LineString","properties":{"kind":"major_road","network":null,"sort_rank":380,"kind_detail":"primary","bus_network":"Salg\u00f3tarj\u00e1n","source":"openstreetmap.org","min_zoom":8.0,"bus_shield_text":"4A","shield_text":"21","landuse_kind":"urban_area","ref":"21","id":361561434},"arcs":[1442]},{"type":"MultiLineString","properties":{"source":"openstreetmap.org","kind":"major_road","landuse_kind":"park","sort_rank":380,"kind_detail":"primary","ref":"72","min_zoom":8.0},"arcs":[[1443],[1444],[1445],[1446],[1447]]},{"type":"MultiLineString","properties":{"kind":"path","sort_rank":354,"kind_detail":"track","is_bicycle_related":true,"bicycle_shield_text":"029","bicycle_network":"ncn","source":"openstreetmap.org","min_zoom":8.0,"landuse_kind":"national_park"},"arcs":[[1448],[1449],[1450]]},{"type":"MultiLineString","properties":{"kind":"path","sort_rank":354,"kind_detail":"path","is_bicycle_related":true,"bicycle_shield_text":"029","bicycle_network":"ncn","source":"openstreetmap.org","min_zoom":8.0},"arcs":[[1451],[1452]]},{"type":"MultiLineString","properties":{"bus_network":"local","network":null,"sort_rank":380,"kind_detail":"primary","kind":"major_road","source":"openstreetmap.org","min_zoom":8.0,"bus_shield_text":"43","shield_text":"304","landuse_kind":"urban_area","ref":"304"},"arcs":[[1453],[1454]]},{"type":"MultiLineString","properties":{"kind":"minor_road","sort_rank":360,"kind_detail":"residential","is_bicycle_related":true,"bicycle_shield_text":"23A","cycleway":"shared_lane","source":"openstreetmap.org","min_zoom":8.0,"landuse_kind":"residential","bicycle_network":"ncn"},"arcs":[[1455],[1456],[1457],[1458],[1459],[1460],[1461]]},{"type":"LineString","properties":{"kind":"major_road","sort_rank":379,"kind_detail":"secondary","is_bicycle_related":true,"bicycle_shield_text":"8705","bicycle_network":"ncn","source":"openstreetmap.org","min_zoom":8.0,"ref":"587"},"arcs":[1462]},{"type":"LineString","properties":{"bus_network":"Salg\u00f3tarj\u00e1n","bicycle_shield_text":"2C","min_zoom":8.0,"is_link":true,"bus_shield_text":"456","id":362138296,"kind":"major_road","network":null,"sort_rank":355,"kind_detail":"primary_link","is_bicycle_related":true,"bicycle_network":"ncn","source":"openstreetmap.org","landuse_kind":"residential","shield_text":"21","ref":"21"},"arcs":[1463]},{"type":"LineString","properties":{"kind":"major_road","network":null,"sort_rank":380,"kind_detail":"primary","bus_network":null,"source":"openstreetmap.org","min_zoom":8.0,"bus_shield_text":"11B","shield_text":"211","landuse_kind":"residential","ref":"211","id":25964740},"arcs":[1464]},{"type":"MultiLineString","properties":{"bus_network":"local","sort_rank":380,"kind_detail":"primary","kind":"major_road","source":"openstreetmap.org","min_zoom":8.0,"bus_shield_text":"ME","landuse_kind":"residential","ref":"3"},"arcs":[[1465],[1466],[1467]]},{"type":"MultiLineString","properties":{"kind":"major_road","network":"e-road","sort_rank":380,"kind_detail":"primary","source":"openstreetmap.org","min_zoom":8.0,"landuse_kind":"urban_area","shield_text":"71","ref":"3"},"arcs":[[1468],[1469]]},{"type":"MultiLineString","properties":{"source":"openstreetmap.org","kind":"major_road","landuse_kind":"residential","sort_rank":380,"kind_detail":"primary","min_zoom":8.0},"arcs":[[1470],[1471]]},{"type":"MultiLineString","properties":{"kind":"major_road","network":"e-road","sort_rank":380,"kind_detail":"primary","source":"openstreetmap.org","min_zoom":8.0,"shield_text":"71","ref":"M30"},"arcs":[[1472],[1473]]},{"type":"LineString","properties":{"kind":"major_road","sort_rank":379,"kind_detail":"secondary","is_bicycle_related":true,"bicycle_shield_text":"2A","bicycle_network":"ncn","source":"openstreetmap.org","min_zoom":8.0,"landuse_kind":"residential","ref":"2206","id":178626950},"arcs":[1474]},{"type":"LineString","properties":{"kind":"major_road","sort_rank":379,"kind_detail":"secondary","is_bicycle_related":true,"bus_network":"Salg\u00f3tarj\u00e1n","bicycle_shield_text":"2A","bicycle_network":"ncn","source":"openstreetmap.org","min_zoom":8.0,"bus_shield_text":"51","landuse_kind":"residential","ref":"2206","id":178627508},"arcs":[1475]},{"type":"MultiLineString","properties":{"kind":"major_road","sort_rank":379,"kind_detail":"secondary","is_bicycle_related":true,"bicycle_shield_text":"23A","bicycle_network":"ncn","source":"openstreetmap.org","min_zoom":8.0,"landuse_kind":"urban_area","ref":"3605"},"arcs":[[1476],[1477],[1478]]},{"type":"LineString","properties":{"source":"openstreetmap.org","kind":"major_road","landuse_kind":"residential","sort_rank":380,"kind_detail":"primary","ref":"72","min_zoom":8.0},"arcs":[1479]},{"type":"LineString","properties":{"kind":"major_road","network":null,"sort_rank":380,"kind_detail":"primary","bus_network":"Salg\u00f3tarj\u00e1n","source":"openstreetmap.org","min_zoom":8.0,"bus_shield_text":"7C","shield_text":"211","landuse_kind":"residential","ref":"211","id":23039012},"arcs":[1480]},{"type":"MultiLineString","properties":{"bus_network":null,"sort_rank":379,"kind_detail":"secondary","is_bicycle_related":true,"kind":"major_road","bicycle_shield_text":"2A","bicycle_network":"ncn","source":"openstreetmap.org","min_zoom":8.0,"bus_shield_text":"20","ref":"2306"},"arcs":[[1481],[1482]]},{"type":"LineString","properties":{"kind":"major_road","network":null,"sort_rank":380,"kind_detail":"primary","bus_network":"Salg\u00f3tarj\u00e1n","source":"openstreetmap.org","min_zoom":8.0,"bus_shield_text":"63S","shield_text":"21","ref":"21","id":362132053},"arcs":[1483]},{"type":"LineString","properties":{"kind":"minor_road","sort_rank":360,"kind_detail":"residential","is_bicycle_related":true,"cycleway_right":"shared_lane","bicycle_shield_text":"23A","bicycle_network":"ncn","source":"openstreetmap.org","min_zoom":8.0,"landuse_kind":"residential"},"arcs":[1484]},{"type":"LineString","properties":{"kind":"path","sort_rank":354,"kind_detail":"track","is_bicycle_related":true,"bicycle_shield_text":"021","bicycle_network":"ncn","source":"openstreetmap.org","min_zoom":8.0},"arcs":[1485]},{"type":"MultiLineString","properties":{"bus_network":null,"network":null,"sort_rank":380,"kind_detail":"primary","is_bicycle_related":true,"kind":"major_road","bicycle_shield_text":"22","bicycle_network":"ncn","source":"openstreetmap.org","min_zoom":8.0,"bus_shield_text":"2","shield_text":"25","landuse_kind":"residential","ref":"25"},"arcs":[[1486],[1487]]},{"type":"LineString","properties":{"kind":"major_road","sort_rank":380,"kind_detail":"primary","is_bicycle_related":true,"bicycle_shield_text":"2D","bicycle_network":"ncn","source":"openstreetmap.org","min_zoom":8.0,"id":355359125},"arcs":[1488]},{"type":"LineString","properties":{"kind":"major_road","network":null,"sort_rank":380,"kind_detail":"primary","source":"openstreetmap.org","min_zoom":8.0,"landuse_kind":"residential","shield_text":"211","id":546088332},"arcs":[1489]},{"type":"LineString","properties":{"kind":"major_road","sort_rank":380,"kind_detail":"primary","is_bicycle_related":true,"bicycle_shield_text":"2882","bicycle_network":"ncn","source":"openstreetmap.org","min_zoom":8.0,"ref":"67","id":431080597},"arcs":[1490]},{"type":"MultiLineString","properties":{"kind":"highway","network":"e-road","sort_rank":383,"kind_detail":"motorway","source":"openstreetmap.org","min_zoom":8.0,"all_networks":["e-road","e-road",null],"shield_text":"71","ref":"M30","all_shield_texts":["71","79","30"]},"arcs":[[1491],[1492],[1493],[1494]]},{"type":"LineString","properties":{"kind":"major_road","sort_rank":380,"kind_detail":"primary","is_bicycle_related":true,"bicycle_shield_text":"8592","bicycle_network":"rcn","source":"openstreetmap.org","min_zoom":8.0,"landuse_kind":"park","ref":"66"},"arcs":[1495]},{"type":"LineString","properties":{"kind":"major_road","sort_rank":377,"kind_detail":"tertiary","is_bicycle_related":true,"bicycle_shield_text":"029","bicycle_network":"ncn","source":"openstreetmap.org","min_zoom":8.0,"ref":"3333"},"arcs":[1496]},{"type":"MultiLineString","properties":{"kind":"path","sort_rank":354,"kind_detail":"track","is_bicycle_related":true,"bicycle_shield_text":"049","bicycle_network":"ncn","source":"openstreetmap.org","min_zoom":8.0,"landuse_kind":"park"},"arcs":[[1497],[1498],[1499],[1500],[1501]]},{"type":"MultiLineString","properties":{"kind":"major_road","network":null,"sort_rank":380,"kind_detail":"primary","bus_network":"Salg\u00f3tarj\u00e1n","source":"openstreetmap.org","min_zoom":8.0,"bus_shield_text":"7C","shield_text":"21","landuse_kind":"residential","ref":"21"},"arcs":[[1502],[1503],[1504],[1505]]},{"type":"LineString","properties":{"kind":"major_road","sort_rank":380,"kind_detail":"primary","is_bicycle_related":true,"bicycle_shield_text":"2C","bicycle_network":"ncn","source":"openstreetmap.org","min_zoom":8.0,"ref":"21"},"arcs":[1506]},{"type":"MultiLineString","properties":{"kind":"path","sort_rank":354,"kind_detail":"track","is_bicycle_related":true,"bicycle_shield_text":"049","bicycle_network":"ncn","source":"openstreetmap.org","min_zoom":8.0},"arcs":[[1507],[1508],[1509]]},{"type":"MultiLineString","properties":{"kind":"path","sort_rank":354,"landuse_kind":"residential","is_bicycle_related":true,"bicycle_shield_text":"23A","bicycle_network":"ncn","source":"openstreetmap.org","min_zoom":8.0,"kind_detail":"cycleway"},"arcs":[[1510],[1511],[1512],[1513],[1514],[1515],[1516],[1517],[1518]]},{"type":"LineString","properties":{"bus_network":"local","network":"ro:regional","sort_rank":380,"kind_detail":"primary","kind":"major_road","source":"openstreetmap.org","min_zoom":8.0,"bus_shield_text":"4","shield_text":"3","landuse_kind":"residential","ref":"3"},"arcs":[1519]},{"type":"LineString","properties":{"kind":"minor_road","sort_rank":360,"kind_detail":"unclassified","is_bicycle_related":true,"bicycle_shield_text":"23B","bicycle_network":"ncn","source":"openstreetmap.org","min_zoom":8.0,"id":292284171},"arcs":[1520]},{"type":"LineString","properties":{"kind":"major_road","network":null,"sort_rank":380,"kind_detail":"primary","bus_network":"local","source":"openstreetmap.org","min_zoom":8.0,"bus_shield_text":"1\u00c9","shield_text":"26","landuse_kind":"residential","ref":"26","id":154714863},"arcs":[1521]},{"type":"MultiLineString","properties":{"kind":"major_road","network":null,"sort_rank":380,"kind_detail":"primary","is_bicycle_related":true,"bicycle_shield_text":"22","bicycle_network":"ncn","source":"openstreetmap.org","min_zoom":8.0,"landuse_kind":"residential","shield_text":"25","ref":"25"},"arcs":[[1522],[1523],[1524]]},{"type":"MultiLineString","properties":{"bus_network":"local","network":null,"sort_rank":380,"kind_detail":"primary","kind":"major_road","source":"openstreetmap.org","min_zoom":8.0,"bus_shield_text":"35R","shield_text":"26","landuse_kind":"residential","ref":"26"},"arcs":[[1525],[1526],[1527]]},{"type":"LineString","properties":{"kind":"minor_road","sort_rank":358,"kind_detail":"service","is_bicycle_related":true,"bicycle_shield_text":"23A","bicycle_network":"ncn","source":"openstreetmap.org","min_zoom":8.0,"landuse_kind":"residential","id":262939842},"arcs":[1528]},{"type":"MultiLineString","properties":{"bus_network":"local","network":"ro:regional","sort_rank":380,"kind_detail":"primary","kind":"major_road","source":"openstreetmap.org","min_zoom":8.0,"bus_shield_text":"AU1","shield_text":"3","landuse_kind":"urban_area","ref":"3"},"arcs":[[1529],[1530],[1531],[1532]]},{"type":"LineString","properties":{"kind":"major_road","sort_rank":377,"kind_detail":"tertiary","is_bicycle_related":true,"bicycle_shield_text":"2C","bicycle_network":"ncn","source":"openstreetmap.org","min_zoom":8.0,"ref":"21135"},"arcs":[1533]},{"type":"LineString","properties":{"kind":"major_road","sort_rank":379,"kind_detail":"secondary","is_bicycle_related":true,"bicycle_shield_text":"2A","bicycle_network":"ncn","source":"openstreetmap.org","min_zoom":8.0,"landuse_kind":"urban_area","ref":"2206"},"arcs":[1534]},{"type":"MultiLineString","properties":{"kind":"major_road","network":null,"sort_rank":380,"kind_detail":"primary","source":"openstreetmap.org","min_zoom":8.0,"landuse_kind":"residential","shield_text":"25","ref":"25"},"arcs":[[1535],[1536]]},{"type":"MultiLineString","properties":{"kind":"path","sort_rank":354,"kind_detail":"cycleway","is_bicycle_related":true,"bicycle_shield_text":"23A","bicycle_network":"ncn","source":"openstreetmap.org","min_zoom":8.0,"landuse_kind":"urban_area"},"arcs":[[1537],[1538],[1539]]},{"type":"LineString","properties":{"cycleway_right":"shared_lane","sort_rank":379,"kind_detail":"secondary","is_bicycle_related":true,"kind":"major_road","bicycle_shield_text":"23A","bicycle_network":"ncn","bus_network":"local","source":"openstreetmap.org","min_zoom":8.0,"bus_shield_text":"1\u00c9","landuse_kind":"residential","id":279046952},"arcs":[1540]},{"type":"LineString","properties":{"kind":"major_road","sort_rank":377,"kind_detail":"tertiary","is_bicycle_related":true,"bicycle_shield_text":"021","bicycle_network":"ncn","source":"openstreetmap.org","min_zoom":8.0,"ref":"3279"},"arcs":[1541]},{"type":"LineString","properties":{"kind":"major_road","sort_rank":377,"kind_detail":"tertiary","is_bicycle_related":true,"bicycle_shield_text":"037","bicycle_network":"ncn","source":"openstreetmap.org","min_zoom":8.0,"ref":"2756"},"arcs":[1542]},{"type":"LineString","properties":{"bus_network":null,"sort_rank":380,"kind_detail":"primary","is_bicycle_related":true,"kind":"major_road","bicycle_shield_text":"2C","bicycle_network":"ncn","source":"openstreetmap.org","min_zoom":8.0,"bus_shield_text":"11","ref":"21"},"arcs":[1543]},{"type":"LineString","properties":{"kind":"major_road","sort_rank":379,"kind_detail":"secondary","is_bicycle_related":true,"bus_network":"local","bicycle_shield_text":"23A","bicycle_network":"ncn","source":"openstreetmap.org","min_zoom":8.0,"bus_shield_text":"1\u00c9","landuse_kind":"residential","id":332738303},"arcs":[1544]},{"type":"LineString","properties":{"bus_network":"local","sort_rank":379,"kind_detail":"secondary","is_bicycle_related":true,"kind":"major_road","bicycle_shield_text":"23A","bicycle_network":"ncn","source":"openstreetmap.org","min_zoom":8.0,"bus_shield_text":"ZOO","ref":"2505"},"arcs":[1545]},{"type":"MultiLineString","properties":{"kind":"path","sort_rank":354,"landuse_kind":"residential","is_bicycle_related":true,"bicycle_shield_text":"2C","bicycle_network":"ncn","source":"openstreetmap.org","min_zoom":8.0,"kind_detail":"cycleway"},"arcs":[[1546],[1547],[1548],[1549],[1550]]},{"type":"LineString","properties":{"kind":"major_road","sort_rank":380,"kind_detail":"primary","is_bicycle_related":true,"bicycle_shield_text":"5704","bicycle_network":"rcn","source":"openstreetmap.org","min_zoom":8.0,"ref":"16"},"arcs":[1551]},{"type":"MultiLineString","properties":{"kind":"major_road","sort_rank":379,"kind_detail":"secondary","is_bicycle_related":true,"bicycle_shield_text":"23A","bicycle_network":"ncn","source":"openstreetmap.org","min_zoom":8.0,"landuse_kind":"park","ref":"2505"},"arcs":[[1552],[1553],[1554],[1555]]},{"type":"MultiLineString","properties":{"kind":"major_road","network":"sk:national","sort_rank":381,"kind_detail":"trunk","source":"openstreetmap.org","min_zoom":8.0,"shield_text":"2","ref":"R2"},"arcs":[[1556],[1557]]},{"type":"LineString","properties":{"kind":"major_road","sort_rank":380,"kind_detail":"primary","is_bicycle_related":true,"bus_network":null,"bicycle_shield_text":"22","bicycle_network":"ncn","source":"openstreetmap.org","min_zoom":8.0,"bus_shield_text":"2","landuse_kind":"residential","ref":"25","id":495738742},"arcs":[1558]},{"type":"LineString","properties":{"kind":"major_road","sort_rank":377,"kind_detail":"tertiary","is_bicycle_related":true,"bicycle_shield_text":"029","bicycle_network":"ncn","source":"openstreetmap.org","min_zoom":8.0,"ref":"3038"},"arcs":[1559]},{"type":"MultiLineString","properties":{"kind":"major_road","network":null,"sort_rank":380,"kind_detail":"primary","source":"openstreetmap.org","min_zoom":8.0,"shield_text":"37","ref":"37"},"arcs":[[1560],[1561],[1562],[1563]]},{"type":"LineString","properties":{"kind":"path","sort_rank":354,"kind_detail":"path","is_bicycle_related":true,"bicycle_shield_text":"049","bicycle_network":"ncn","source":"openstreetmap.org","min_zoom":8.0,"id":311292367},"arcs":[1564]},{"type":"LineString","properties":{"kind":"major_road","sort_rank":380,"landuse_kind":"urban_area","source":"openstreetmap.org","min_zoom":8.0,"kind_detail":"primary","ref":"304","id":119017080},"arcs":[1565]},{"type":"MultiLineString","properties":{"kind":"major_road","sort_rank":379,"landuse_kind":"residential","is_bicycle_related":true,"bicycle_shield_text":"22","bicycle_network":"ncn","source":"openstreetmap.org","min_zoom":8.0,"kind_detail":"secondary","ref":"2508"},"arcs":[[1566],[1567]]},{"type":"LineString","properties":{"kind":"major_road","sort_rank":377,"kind_detail":"tertiary","is_bicycle_related":true,"bicycle_shield_text":"012","bicycle_network":"ncn","source":"openstreetmap.org","min_zoom":8.0,"ref":"2780"},"arcs":[1568]},{"type":"MultiLineString","properties":{"bus_network":"local","network":null,"sort_rank":380,"kind_detail":"primary","kind":"major_road","source":"openstreetmap.org","min_zoom":8.0,"bus_shield_text":"3","shield_text":"304","ref":"304"},"arcs":[[1569],[1570],[1571]]},{"type":"LineString","properties":{"bus_network":null,"sort_rank":380,"kind_detail":"primary","kind":"major_road","source":"openstreetmap.org","min_zoom":8.0,"bus_shield_text":"3730","ref":"37"},"arcs":[1572]},{"type":"MultiLineString","properties":{"bus_network":"local","sort_rank":380,"kind_detail":"primary","kind":"major_road","source":"openstreetmap.org","min_zoom":8.0,"bus_shield_text":"4","landuse_kind":"urban_area","ref":"3"},"arcs":[[1573],[1574]]},{"type":"MultiLineString","properties":{"kind":"major_road","sort_rank":380,"kind_detail":"primary","is_bicycle_related":true,"bicycle_shield_text":"5576","bicycle_network":"rcn","source":"openstreetmap.org","min_zoom":8.0,"landuse_kind":"park","ref":"66"},"arcs":[[1575],[1576]]},{"type":"MultiLineString","properties":{"bus_network":"local","network":"ro:regional","sort_rank":380,"kind_detail":"primary","kind":"major_road","source":"openstreetmap.org","min_zoom":8.0,"bus_shield_text":"ME","shield_text":"3","landuse_kind":"urban_area","ref":"3"},"arcs":[[1577],[1578]]},{"type":"MultiLineString","properties":{"kind":"major_road","sort_rank":377,"kind_detail":"tertiary","is_bicycle_related":true,"bicycle_shield_text":"029","bicycle_network":"ncn","source":"openstreetmap.org","min_zoom":8.0,"ref":"3015"},"arcs":[[1579],[1580],[1581]]},{"type":"MultiLineString","properties":{"kind":"major_road","sort_rank":379,"landuse_kind":"residential","is_bicycle_related":true,"bus_network":"Salg\u00f3tarj\u00e1n","bicycle_shield_text":"2A","bicycle_network":"ncn","source":"openstreetmap.org","min_zoom":8.0,"bus_shield_text":"5","kind_detail":"secondary","ref":"2206"},"arcs":[[1582],[1583]]},{"type":"MultiLineString","properties":{"kind":"major_road","sort_rank":379,"kind_detail":"secondary","is_bicycle_related":true,"bicycle_shield_text":"021","bicycle_network":"ncn","source":"openstreetmap.org","min_zoom":8.0,"ref":"546"},"arcs":[[1584],[1585]]},{"type":"MultiLineString","properties":{"source":"openstreetmap.org","kind":"major_road","landuse_kind":"urban_area","sort_rank":380,"kind_detail":"primary","min_zoom":8.0},"arcs":[[1586],[1587]]},{"type":"LineString","properties":{"kind":"major_road","sort_rank":380,"kind_detail":"primary","is_bicycle_related":true,"bus_network":"MHD Brezno","bicycle_shield_text":"2554","bicycle_network":"rcn","source":"openstreetmap.org","min_zoom":8.0,"bus_shield_text":"4","ref":"66","id":187940383},"arcs":[1588]},{"type":"LineString","properties":{"kind":"major_road","sort_rank":380,"kind_detail":"primary","is_bicycle_related":true,"bus_network":null,"bicycle_shield_text":"5580","bicycle_network":"rcn","source":"openstreetmap.org","min_zoom":8.0,"bus_shield_text":"603429","ref":"72","id":415125033},"arcs":[1589]},{"type":"LineString","properties":{"kind":"major_road","cycleway_left":"lane","network":"ro:regional","sort_rank":380,"kind_detail":"primary","is_bicycle_related":true,"source":"openstreetmap.org","min_zoom":8.0,"shield_text":"3","ref":"3","id":318577032},"arcs":[1590]},{"type":"MultiLineString","properties":{"kind":"major_road","sort_rank":379,"kind_detail":"secondary","is_bicycle_related":true,"bicycle_shield_text":"012","bicycle_network":"ncn","source":"openstreetmap.org","min_zoom":8.0,"ref":"526"},"arcs":[[1591],[1592]]},{"type":"MultiLineString","properties":{"kind":"path","sort_rank":354,"kind_detail":"footway","is_bicycle_related":true,"bicycle_shield_text":"2C","bicycle_network":"ncn","source":"openstreetmap.org","min_zoom":8.0},"arcs":[[1593],[1594]]},{"type":"MultiLineString","properties":{"kind":"major_road","network":"e-road","sort_rank":380,"kind_detail":"primary","source":"openstreetmap.org","min_zoom":8.0,"landuse_kind":"national_park","shield_text":"58","ref":"16"},"arcs":[[1595],[1596],[1597],[1598]]},{"type":"MultiLineString","properties":{"bus_network":null,"network":"ro:regional","sort_rank":380,"kind_detail":"primary","kind":"major_road","source":"openstreetmap.org","min_zoom":8.0,"bus_shield_text":"3730","shield_text":"3","landuse_kind":"urban_area","ref":"3"},"arcs":[[1599],[1600],[1601],[1602],[1603],[1604]]},{"type":"LineString","properties":{"kind":"major_road","network":null,"sort_rank":380,"kind_detail":"primary","is_bicycle_related":true,"bicycle_shield_text":"2D","bicycle_network":"ncn","source":"openstreetmap.org","min_zoom":8.0,"shield_text":"26","ref":"26"},"arcs":[1605]},{"type":"LineString","properties":{"kind":"minor_road","sort_rank":360,"landuse_kind":"residential","is_bicycle_related":true,"bicycle_shield_text":"2C","bicycle_network":"ncn","source":"openstreetmap.org","min_zoom":8.0,"kind_detail":"residential"},"arcs":[1606]},{"type":"MultiLineString","properties":{"source":"openstreetmap.org","kind":"major_road","landuse_kind":"park","sort_rank":380,"kind_detail":"primary","ref":"66","min_zoom":8.0},"arcs":[[1607],[1608]]},{"type":"LineString","properties":{"kind":"major_road","network":null,"sort_rank":380,"kind_detail":"primary","is_bicycle_related":true,"bicycle_shield_text":"2A","bicycle_network":"ncn","source":"openstreetmap.org","min_zoom":8.0,"landuse_kind":"urban_area","shield_text":"25","id":545111883},"arcs":[1609]},{"type":"MultiLineString","properties":{"bus_network":null,"network":null,"sort_rank":380,"kind_detail":"primary","kind":"major_road","source":"openstreetmap.org","min_zoom":8.0,"bus_shield_text":"3730","shield_text":"37","landuse_kind":"urban_area","ref":"37"},"arcs":[[1610],[1611]]},{"type":"MultiLineString","properties":{"kind":"major_road","sort_rank":379,"kind_detail":"secondary","is_bicycle_related":true,"bicycle_shield_text":"2882","bicycle_network":"ncn","source":"openstreetmap.org","min_zoom":8.0},"arcs":[[1612],[1613]]},{"type":"LineString","properties":{"kind":"minor_road","sort_rank":360,"kind_detail":"residential","is_bicycle_related":true,"bicycle_shield_text":"014","bicycle_network":"ncn","source":"openstreetmap.org","min_zoom":8.0,"id":62087286},"arcs":[1614]},{"type":"MultiLineString","properties":{"bus_network":"regional","network":null,"sort_rank":380,"kind_detail":"primary","kind":"major_road","source":"openstreetmap.org","min_zoom":8.0,"bus_shield_text":"3738","shield_text":"304","ref":"304"},"arcs":[[1615],[1616]]},{"type":"LineString","properties":{"kind":"major_road","sort_rank":379,"kind_detail":"secondary","is_bicycle_related":true,"bicycle_shield_text":"2A","bicycle_network":"ncn","source":"openstreetmap.org","min_zoom":8.0,"ref":"2601"},"arcs":[1617]},{"type":"MultiLineString","properties":{"kind":"major_road","sort_rank":379,"kind_detail":"secondary","is_bicycle_related":true,"bicycle_shield_text":"22","bicycle_network":"ncn","source":"openstreetmap.org","min_zoom":8.0,"landuse_kind":"park","ref":"2506"},"arcs":[[1618],[1619],[1620]]},{"type":"LineString","properties":{"bus_network":null,"network":null,"sort_rank":380,"kind_detail":"primary","kind":"major_road","source":"openstreetmap.org","min_zoom":8.0,"bus_shield_text":"3C","shield_text":"21","landuse_kind":"urban_area","ref":"21"},"arcs":[1621]},{"type":"LineString","properties":{"kind":"minor_road","sort_rank":360,"kind_detail":"residential","is_bicycle_related":true,"bicycle_shield_text":"23B","bicycle_network":"ncn","source":"openstreetmap.org","min_zoom":8.0,"id":292284176},"arcs":[1622]},{"type":"MultiLineString","properties":{"bus_network":"local","network":null,"sort_rank":380,"kind_detail":"primary","kind":"major_road","source":"openstreetmap.org","min_zoom":8.0,"bus_shield_text":"14Y","shield_text":"26","landuse_kind":"residential","ref":"26"},"arcs":[[1623],[1624]]},{"type":"MultiLineString","properties":{"bus_network":null,"network":null,"sort_rank":380,"kind_detail":"primary","is_bicycle_related":true,"kind":"major_road","bicycle_shield_text":"2A","bicycle_network":"ncn","source":"openstreetmap.org","min_zoom":8.0,"bus_shield_text":"4","shield_text":"25","landuse_kind":"urban_area","ref":"25"},"arcs":[[1625],[1626],[1627]]},{"type":"MultiLineString","properties":{"kind":"major_road","sort_rank":379,"kind_detail":"secondary","is_bicycle_related":true,"bicycle_shield_text":"23A","bicycle_network":"ncn","source":"openstreetmap.org","min_zoom":8.0,"ref":"3605"},"arcs":[[1628],[1629],[1630]]},{"type":"LineString","properties":{"kind":"major_road","sort_rank":379,"kind_detail":"secondary","is_bicycle_related":true,"bicycle_shield_text":"22","bicycle_network":"ncn","source":"openstreetmap.org","min_zoom":8.0,"ref":"2508"},"arcs":[1631]},{"type":"LineString","properties":{"kind":"major_road","sort_rank":380,"kind_detail":"primary","is_bicycle_related":true,"bus_network":null,"bicycle_shield_text":"22","bicycle_network":"ncn","source":"openstreetmap.org","min_zoom":8.0,"bus_shield_text":"4","landuse_kind":"residential","ref":"25","id":251564457},"arcs":[1632]},{"type":"MultiLineString","properties":{"bus_network":null,"sort_rank":380,"kind_detail":"primary","kind":"major_road","source":"openstreetmap.org","min_zoom":8.0,"bus_shield_text":"603429","ref":"72"},"arcs":[[1633],[1634]]},{"type":"LineString","properties":{"kind":"major_road","network":null,"sort_rank":379,"kind_detail":"secondary","is_bicycle_related":true,"bicycle_shield_text":"049","bicycle_network":"ncn","source":"openstreetmap.org","min_zoom":8.0,"shield_text":"571","name:hu":"F\u0151 utca","ref":"571","id":320177031},"arcs":[1635]},{"type":"LineString","properties":{"kind":"major_road","sort_rank":377,"kind_detail":"tertiary","is_bicycle_related":true,"bicycle_shield_text":"037","bicycle_network":"ncn","source":"openstreetmap.org","min_zoom":8.0,"ref":"2744"},"arcs":[1636]},{"type":"LineString","properties":{"bus_network":null,"sort_rank":380,"kind_detail":"primary","is_bicycle_related":true,"kind":"major_road","bicycle_shield_text":"2C","bicycle_network":"ncn","source":"openstreetmap.org","min_zoom":8.0,"bus_shield_text":"11B","ref":"21"},"arcs":[1637]},{"type":"LineString","properties":{"kind":"major_road","network":null,"sort_rank":379,"kind_detail":"secondary","is_bicycle_related":true,"bicycle_shield_text":"2A","bicycle_network":"ncn","source":"openstreetmap.org","min_zoom":8.0,"shield_text":"2624","ref":"2624"},"arcs":[1638]},{"type":"LineString","properties":{"kind":"major_road","sort_rank":380,"kind_detail":"primary","bus_network":"local","source":"openstreetmap.org","min_zoom":8.0,"bus_shield_text":"1","landuse_kind":"residential","ref":"26","id":154532407},"arcs":[1639]},{"type":"LineString","properties":{"kind":"major_road","sort_rank":379,"kind_detail":"secondary","is_bicycle_related":true,"bicycle_shield_text":"2A","bicycle_network":"ncn","source":"openstreetmap.org","min_zoom":8.0,"ref":"2626"},"arcs":[1640]},{"type":"LineString","properties":{"kind":"major_road","network":null,"sort_rank":380,"kind_detail":"primary","bus_network":null,"source":"openstreetmap.org","min_zoom":8.0,"bus_shield_text":"2","shield_text":"25","landuse_kind":"urban_area","ref":"25","id":545755858},"arcs":[1641]},{"type":"MultiLineString","properties":{"kind":"major_road","sort_rank":379,"kind_detail":"secondary","is_bicycle_related":true,"bicycle_shield_text":"2882","bicycle_network":"ncn","source":"openstreetmap.org","min_zoom":8.0,"ref":"526"},"arcs":[[1642],[1643],[1644]]},{"type":"LineString","properties":{"kind":"major_road","sort_rank":377,"kind_detail":"tertiary","is_bicycle_related":true,"bicycle_shield_text":"029","bicycle_network":"ncn","source":"openstreetmap.org","min_zoom":8.0,"ref":"3005"},"arcs":[1645]},{"type":"MultiLineString","properties":{"kind":"path","sort_rank":354,"kind_detail":"track","is_bicycle_related":true,"bicycle_shield_text":"014","bicycle_network":"ncn","source":"openstreetmap.org","min_zoom":8.0},"arcs":[[1646],[1647]]},{"type":"LineString","properties":{"kind":"major_road","sort_rank":380,"kind_detail":"primary","bicycle_shield_text":"5583","bicycle_network":"rwn","source":"openstreetmap.org","min_zoom":8.0,"ref":"16"},"arcs":[1648]},{"type":"MultiLineString","properties":{"kind":"minor_road","sort_rank":358,"landuse_kind":"urban_area","is_bicycle_related":true,"bicycle_shield_text":"23A","bicycle_network":"ncn","source":"openstreetmap.org","min_zoom":8.0,"kind_detail":"service"},"arcs":[[1649],[1650],[1651],[1652],[1653],[1654]]},{"type":"MultiLineString","properties":{"kind":"major_road","network":"e-road","sort_rank":380,"kind_detail":"primary","is_bicycle_related":true,"bicycle_shield_text":"2701","bicycle_network":"rcn","source":"openstreetmap.org","min_zoom":8.0,"shield_text":"58","ref":"16"},"arcs":[[1655],[1656],[1657],[1658],[1659],[1660]]},{"type":"MultiLineString","properties":{"bus_network":"local","sort_rank":380,"kind_detail":"primary","kind":"major_road","source":"openstreetmap.org","min_zoom":8.0,"bus_shield_text":"1\u00c9","landuse_kind":"residential","ref":"3"},"arcs":[[1661],[1662]]},{"type":"LineString","properties":{"kind":"major_road","sort_rank":377,"kind_detail":"tertiary","is_bicycle_related":true,"bicycle_shield_text":"021","bicycle_network":"ncn","source":"openstreetmap.org","min_zoom":8.0,"ref":"3047"},"arcs":[1663]},{"type":"LineString","properties":{"kind":"path","sort_rank":354,"kind_detail":"pedestrian","is_bicycle_related":true,"bicycle_shield_text":"23B","bicycle_network":"ncn","source":"openstreetmap.org","min_zoom":8.0},"arcs":[1664]},{"type":"LineString","properties":{"kind":"major_road","sort_rank":377,"kind_detail":"tertiary","is_bicycle_related":true,"bicycle_shield_text":"014","bicycle_network":"ncn","source":"openstreetmap.org","min_zoom":8.0,"ref":"3244"},"arcs":[1665]},{"type":"LineString","properties":{"kind":"major_road","sort_rank":379,"kind_detail":"secondary","is_bicycle_related":true,"bicycle_shield_text":"029","bicycle_network":"ncn","source":"openstreetmap.org","min_zoom":8.0,"ref":"587 - 006","id":431080591},"arcs":[1666]},{"type":"LineString","properties":{"kind":"major_road","sort_rank":379,"kind_detail":"secondary","is_bicycle_related":true,"bus_network":"Salg\u00f3tarj\u00e1n","bicycle_shield_text":"2A","bicycle_network":"ncn","source":"openstreetmap.org","min_zoom":8.0,"bus_shield_text":"1R","ref":"2304"},"arcs":[1667]},{"type":"LineString","properties":{"source":"openstreetmap.org","kind":"major_road","landuse_kind":"residential","sort_rank":380,"kind_detail":"primary","ref":"25","min_zoom":8.0},"arcs":[1668]},{"type":"LineString","properties":{"kind":"major_road","sort_rank":377,"kind_detail":"tertiary","is_bicycle_related":true,"bicycle_shield_text":"029","bicycle_network":"ncn","source":"openstreetmap.org","min_zoom":8.0,"ref":"3018"},"arcs":[1669]},{"type":"LineString","properties":{"kind":"major_road","sort_rank":379,"kind_detail":"secondary","is_bicycle_related":true,"bicycle_shield_text":"029","bicycle_network":"ncn","source":"openstreetmap.org","min_zoom":8.0,"ref":"549"},"arcs":[1670]},{"type":"LineString","properties":{"kind":"major_road","sort_rank":379,"kind_detail":"secondary","is_bicycle_related":true,"bicycle_shield_text":"021","bicycle_network":"ncn","source":"openstreetmap.org","min_zoom":8.0,"ref":"533","id":519987846},"arcs":[1671]},{"type":"MultiLineString","properties":{"kind":"minor_road","sort_rank":360,"kind_detail":"residential","is_bicycle_related":true,"bicycle_shield_text":"037","bicycle_network":"ncn","source":"openstreetmap.org","min_zoom":8.0},"arcs":[[1672],[1673]]},{"type":"MultiLineString","properties":{"source":"openstreetmap.org","kind":"major_road","landuse_kind":"park","sort_rank":380,"kind_detail":"primary","ref":"67","min_zoom":8.0},"arcs":[[1674],[1675]]},{"type":"LineString","properties":{"kind":"major_road","sort_rank":377,"landuse_kind":"residential","is_bicycle_related":true,"bicycle_shield_text":"2A","bicycle_network":"ncn","source":"openstreetmap.org","min_zoom":8.0,"kind_detail":"tertiary","ref":"25122"},"arcs":[1676]},{"type":"MultiLineString","properties":{"bus_network":null,"sort_rank":379,"landuse_kind":"residential","is_bicycle_related":true,"kind":"major_road","bicycle_shield_text":"2A","bicycle_network":"ncn","source":"openstreetmap.org","min_zoom":8.0,"bus_shield_text":"20","kind_detail":"secondary","ref":"2306"},"arcs":[[1677],[1678]]},{"type":"MultiLineString","properties":{"kind":"major_road","sort_rank":380,"kind_detail":"primary","is_bicycle_related":true,"bicycle_shield_text":"5702","bicycle_network":"rcn","source":"openstreetmap.org","min_zoom":8.0,"landuse_kind":"park","ref":"67"},"arcs":[[1679],[1680],[1681]]},{"type":"LineString","properties":{"kind":"major_road","network":null,"sort_rank":380,"kind_detail":"primary","bus_network":"B\u00e1tonyterenye","source":"openstreetmap.org","min_zoom":8.0,"bus_shield_text":"3A","shield_text":"23","id":299572081},"arcs":[1682]},{"type":"MultiLineString","properties":{"kind":"major_road","sort_rank":380,"kind_detail":"primary","is_bicycle_related":true,"bicycle_shield_text":"5581","bicycle_network":"rcn","source":"openstreetmap.org","min_zoom":8.0,"ref":"66"},"arcs":[[1683],[1684]]},{"type":"LineString","properties":{"kind":"major_road","network":"ro:regional","sort_rank":380,"kind_detail":"primary","bus_network":"local","source":"openstreetmap.org","min_zoom":8.0,"bus_shield_text":"20G","shield_text":"3","landuse_kind":"residential","ref":"3","id":154714867},"arcs":[1685]},{"type":"LineString","properties":{"kind":"major_road","network":null,"sort_rank":380,"kind_detail":"primary","source":"openstreetmap.org","min_zoom":8.0,"landuse_kind":"urban_area","shield_text":"37","ref":"37"},"arcs":[1686]},{"type":"MultiLineString","properties":{"bus_network":"local","sort_rank":380,"kind_detail":"primary","kind":"major_road","source":"openstreetmap.org","min_zoom":8.0,"bus_shield_text":"14Y","landuse_kind":"urban_area","ref":"3"},"arcs":[[1687],[1688]]},{"type":"LineString","properties":{"kind":"major_road","sort_rank":380,"kind_detail":"primary","is_bicycle_related":true,"bicycle_shield_text":"2C","bicycle_network":"ncn","source":"openstreetmap.org","min_zoom":8.0,"landuse_kind":"park","ref":"21","id":357879606},"arcs":[1689]},{"type":"LineString","properties":{"kind":"major_road","sort_rank":380,"kind_detail":"primary","bus_network":"Salg\u00f3tarj\u00e1n","source":"openstreetmap.org","min_zoom":8.0,"bus_shield_text":"1U","landuse_kind":"residential","ref":"2307","id":177267318},"arcs":[1690]},{"type":"MultiLineString","properties":{"source":"openstreetmap.org","kind":"major_road","sort_rank":380,"kind_detail":"primary","ref":"66","min_zoom":8.0},"arcs":[[1691],[1692],[1693],[1694],[1695],[1696],[1697],[1698],[1699]]},{"type":"MultiLineString","properties":{"kind":"major_road","network":null,"sort_rank":380,"kind_detail":"primary","source":"openstreetmap.org","min_zoom":8.0,"shield_text":"25","ref":"25"},"arcs":[[1700],[1701]]},{"type":"MultiLineString","properties":{"bus_network":"local","sort_rank":380,"kind_detail":"primary","kind":"major_road","source":"openstreetmap.org","min_zoom":8.0,"bus_shield_text":"43","landuse_kind":"urban_area","ref":"3"},"arcs":[[1702],[1703]]},{"type":"LineString","properties":{"kind":"major_road","sort_rank":380,"kind_detail":"primary","is_bicycle_related":true,"bicycle_shield_text":"2577","bicycle_network":"rcn","source":"openstreetmap.org","min_zoom":8.0,"ref":"66"},"arcs":[1704]},{"type":"LineString","properties":{"bus_network":"local","network":"ro:regional","sort_rank":380,"kind_detail":"primary","kind":"major_road","source":"openstreetmap.org","min_zoom":8.0,"bus_shield_text":"14Y","shield_text":"3","landuse_kind":"urban_area","ref":"3"},"arcs":[1705]}]},"earth":{"type":"GeometryCollection","geometries":[{"type":"Polygon","properties":{"sort_rank":10,"source":"naturalearthdata.com","kind":"earth","min_zoom":0.0,"id":4754},"arcs":[[1706]]}]},"landuse":{"type":"GeometryCollection","geometries":[{"type":"MultiPolygon","properties":{"kind":"national_park","protect_class":"2","area":2388979444,"sort_rank":18,"source":"openstreetmap.org","min_zoom":3.0,"tier":1,"osm_relation":true},"arcs":[[[1707],[1708],[1709],[1710]],[[1711]],[[1712]]]},{"type":"MultiPolygon","properties":{"source":"openstreetmap.org","kind":"park","tier":2,"area":3268115152,"sort_rank":24,"min_zoom":6.0,"osm_relation":true},"arcs":[[[1713]],[[1714]],[[1715]],[[1716]],[[1717],[1718]]]},{"type":"Polygon","properties":{"kind":"national_park","protect_class":"2","area":127112000,"sort_rank":18,"source":"openstreetmap.org","min_zoom":7.0,"tier":1,"id":-3572332,"osm_relation":true},"arcs":[[1719]]},{"type":"MultiPolygon","properties":{"source":"naturalearthdata.com","kind":"urban_area","name":"","area":4138469821,"sort_rank":11,"min_zoom":4.0},"arcs":[[[1720]],[[1721]],[[1722]],[[1723]]]},{"type":"MultiPolygon","properties":{"source":"openstreetmap.org","kind":"residential","tier":2,"area":537684724,"sort_rank":20,"min_zoom":8.0,"osm_relation":true},"arcs":[[[1724]],[[1725]],[[1726]],[[1727]],[[1728]]]},{"type":"MultiPolygon","properties":{"kind":"national_park","protect_class":"2","area":292566940,"sort_rank":18,"source":"openstreetmap.org","min_zoom":8.0,"tier":1,"osm_relation":true},"arcs":[[[1729]]]},{"type":"MultiPolygon","properties":{"source":"openstreetmap.org","kind":"residential","tier":2,"area":572479053,"sort_rank":20,"min_zoom":8.0},"arcs":[[[1730]],[[1731]]]},{"type":"Polygon","properties":{"source":"openstreetmap.org","kind":"nature_reserve","area":200768000,"tier":2,"id":157434015,"min_zoom":6.0,"sort_rank":23},"arcs":[[1732]]}]}},"type":"Topology","transform":{"translate":[19.6875,47.9899216674],"scale":[0.0003433228,0.0002276801]},"arcs":[[[4096,2303],[-10,14],[-70,37],[-38,-16],[0,17],[-111,27],[-71,-26],[-27,-38],[-16,30],[-58,-13],[-1,54],[-43,3],[2,37],[-20,-20],[-36,92],[-158,-33],[-38,66],[-29,-2],[15,67],[-37,-33],[-4,38],[-298,-56],[-17,-24],[-5,22],[-39,3],[-98,-47],[-74,8],[-29,-41],[-10,15],[-50,-21],[-107,-66],[-117,38],[-26,-72],[-54,42],[-36,-14],[3,-198],[-37,-7],[-18,-52],[-72,-51],[17,-51],[-53,-18],[-102,-129],[11,-66],[-52,-94],[21,-74],[-75,-64],[-48,-84],[19,-23],[-25,-45],[-82,-66],[-34,-127],[-53,2],[10,-33],[-70,-18],[-108,77],[-43,4],[-21,-12],[22,-26],[-20,-38],[-72,-3],[7,-48],[-62,-14],[-151,27],[19,-49],[-16,-78],[-94,-69],[-32,-54],[-61,-24],[26,-35],[-51,-23],[-28,-47],[-66,44],[-110,-41],[-8,-27],[-41,16],[-32,-61],[-35,-2],[-41,-90],[-85,-7],[-23,-24],[5,55],[36,45],[-46,86],[-112,13],[-15,40],[-28,-69],[-70,28],[-43,-31],[0,-35],[-34,-2],[-37,50],[67,82],[-19,49],[-34,-10],[-77,93],[-42,12],[-33,-6],[-40,-60],[-87,11],[-11,20]],[[1904,4096],[-49,-84],[-52,18],[-33,-36],[-18,-104],[-35,-20],[-28,13]],[[4096,3977],[-104,45],[-95,-8],[-36,82]],[[1689,3883],[-56,-15],[-21,-115],[-127,-113],[-9,-123],[39,-75],[-75,-73],[1,-126],[25,-36],[55,9],[157,-129],[77,-134],[36,-19],[-26,-60],[30,-91],[-21,-55],[72,-27],[36,17],[26,-38],[39,-6],[-71,-270],[-38,-59],[-46,-22],[-13,-63],[33,-42],[-9,-67],[102,-30],[-21,-42],[22,-10],[81,1],[30,30],[47,-51],[52,21],[18,41],[50,-13],[53,26],[24,-42]],[[2261,2082],[73,52],[18,52],[37,7],[-3,198],[36,14],[54,-42],[26,72],[117,-38],[107,66],[50,21],[10,-15],[29,41],[74,-8],[98,47],[39,-3],[5,-22],[17,24],[298,56],[4,-38],[37,33],[-15,-67],[29,2],[38,-66],[158,33],[36,-92],[20,20],[-2,-37],[43,-3],[1,-54],[58,13],[16,-30],[27,38],[71,26],[111,-27],[0,-17],[38,16],[70,-37],[10,-14]],[[888,4030],[67,-28],[416,-52],[51,82],[267,-149]],[[1051,4096],[-63,-49],[-100,-17]],[[888,4030],[-45,37],[-66,-39],[-214,12],[-124,-24],[-45,18],[-16,35],[-163,-49],[-49,-37],[-136,113]],[[0,960],[11,-20],[87,-11],[40,60],[33,6],[42,-12],[77,-93],[34,10],[19,-49],[-67,-82],[37,-50],[34,2],[0,35],[43,31],[70,-28],[28,69],[15,-40],[112,-13],[46,-86],[-36,-45],[-5,-55],[23,24],[85,7],[41,90],[35,2],[32,61],[41,-16],[8,27],[110,41],[66,-44],[28,47],[51,23],[-26,35],[61,24],[32,54],[94,69],[16,78],[-19,49],[151,-27],[62,14],[-7,48],[72,3],[20,38],[-22,26],[21,12],[43,-4],[108,-77],[70,18],[-10,33],[53,-2],[34,127],[82,66],[25,45],[-19,23],[48,84],[75,64],[-21,74],[52,94],[-13,62],[88,118],[69,33],[-18,50]],[[2044,474],[1,-1]],[[2045,473],[3,-6]],[[2048,467],[4,-2]],[[2052,465],[2,-1]],[[2054,464],[0,-1]],[[2054,463],[1,-1]],[[2055,462]],[[2055,462],[1,-1]],[[2056,461],[1,-2]],[[2057,459],[2,-2]],[[2059,457],[2,-4]],[[2061,453],[2,-2]],[[2063,451],[7,-6]],[[2070,445],[3,-2]],[[2073,443],[5,-5]],[[2078,438],[2,-1]],[[2080,437],[2,-1]],[[2082,436],[3,-1]],[[2085,435],[3,-1]],[[2088,434],[2,-1]],[[2090,433],[2,-2]],[[2092,431],[0,-2]],[[2092,429],[0,-1]],[[2092,428],[-1,-3]],[[2091,425],[0,-1]],[[2091,424],[0,-1]],[[2091,423],[1,-1]],[[2092,422]],[[2092,422],[2,-1]],[[2094,421]],[[2094,421],[1,-1]],[[2095,420]],[[2095,420],[1,-1]],[[2096,419]],[[2096,419],[0,-1]],[[2096,418],[0,-1]],[[2096,417],[0,-2]],[[2096,415],[0,-1]],[[2096,414],[0,-2]],[[2096,412],[0,-1]],[[2096,411],[0,-1]],[[2096,410],[-1,-1]],[[2095,409],[0,-1]],[[2095,408]],[[2095,408],[0,-3]],[[2095,405],[0,-2]],[[2095,403],[0,-3]],[[2095,400],[0,-2]],[[2095,398],[0,-1]],[[2095,397],[0,-1]],[[2095,396],[2,-4]],[[2097,392],[1,0]],[[2098,392],[1,-5]],[[2099,387],[1,-3]],[[2100,384]],[[2100,384]],[[2100,384],[1,-1]],[[2101,383],[2,-1]],[[2103,382],[2,-1]],[[2105,381],[2,-1]],[[2107,380],[1,0]],[[2108,380],[1,0]],[[2109,380]],[[2109,380],[1,0]],[[2110,380]],[[2110,380],[1,0]],[[2111,380],[0,1]],[[2111,381],[1,-1]],[[2112,380]],[[2112,380],[1,0]],[[2113,380]],[[2113,380],[0,-1]],[[2113,379],[0,-1]],[[2113,378],[1,-1]],[[2114,377],[0,-1]],[[2114,376],[0,-2]],[[2114,374],[0,-2]],[[3431,412],[65,12],[150,496],[151,206],[158,172],[141,94]],[[27,3265],[-27,10]],[[4096,3883],[-291,108],[-9,5],[-13,18],[-9,6],[-89,38],[-11,1],[-19,-5],[-10,2],[-22,34],[-11,6]],[[3510,4096],[-85,0]],[[3073,4096],[-23,0]],[[2924,4096],[-16,-5],[-19,0],[-9,-2],[-93,-53],[-52,19],[-117,19],[-25,22]],[[2593,4096],[5,-6],[14,-12],[6,-4],[7,-2],[33,-6],[25,-9],[15,-5],[7,-1],[6,1],[11,4],[13,-1],[28,-16],[3,-1],[3,-1],[2,0],[13,-1],[3,0],[2,0],[2,0],[4,0],[2,1],[2,1],[2,1],[55,31],[3,2],[2,2],[4,3],[9,8],[6,4],[9,2],[14,-1],[2,0],[3,1],[2,0],[2,1],[12,4]],[[3050,4096],[2,-1],[3,-1],[3,0],[4,-1],[3,1],[3,0],[3,1],[2,1]],[[3425,4096],[20,-6],[66,6]],[[3612,4096],[11,-6],[12,-25],[2,-3],[2,-2],[1,-1],[2,-2],[3,-1],[2,-1],[3,-1],[3,0],[3,0],[1,0],[3,0],[14,5],[11,-1],[17,-16],[3,-2],[6,-3],[5,-1],[25,-7],[30,-8],[3,-1],[9,-6],[9,-14],[4,-4],[4,-3],[5,-2],[291,-108]],[[4096,273],[-38,-33],[-30,-19],[-11,-4],[-126,7],[-503,205],[-59,49],[-78,-6],[-14,-65],[127,-343],[-7,-64]],[[3357,0],[7,64],[-127,344],[-1,4],[0,5],[9,46],[1,3],[2,3],[2,3],[3,1],[5,2],[39,8],[5,0],[7,0],[16,-3],[5,-2],[3,-2],[55,-46],[43,-18],[341,-139],[8,-3],[111,-45],[128,-7],[77,61]],[[2806,549],[-1,1]],[[2805,550],[0,1]],[[2805,551],[-1,2]],[[2804,553],[0,3]],[[2804,556],[1,2]],[[2805,558],[1,2]],[[2806,560],[0,8]],[[2806,568],[1,2]],[[2807,570]],[[2807,570],[-1,3]],[[2806,573],[0,5]],[[2806,578],[0,1]],[[2806,579]],[[2806,579],[-1,1]],[[2805,580],[-2,3]],[[2803,583],[0,1]],[[2803,584],[-1,2]],[[2802,586],[-2,3]],[[2800,589],[-1,2]],[[2799,591],[-1,2]],[[2798,593],[-1,2]],[[2797,595],[-2,2]],[[2795,597],[-2,2]],[[2793,599],[-1,1]],[[2792,600],[-1,0]],[[2791,600],[-2,1]],[[2789,601],[-1,1]],[[2788,602],[-2,3]],[[2786,605],[-2,1]],[[2784,606],[-1,1]],[[2783,607],[-1,0]],[[2782,607],[-1,1]],[[2781,608],[-2,0]],[[2779,608],[-2,2]],[[2777,610],[-1,1]],[[2776,611],[-1,1]],[[2775,612],[-2,3]],[[2773,615],[-2,2]],[[2771,617],[-3,4]],[[2768,621],[-1,0]],[[2767,621],[0,1]],[[2767,622],[-1,1]],[[2766,623],[0,1]],[[2766,624],[-1,0]],[[2765,624],[-1,1]],[[2764,625],[-1,0]],[[2763,625],[0,-1]],[[2763,624],[-1,0]],[[2762,624],[-1,-1]],[[2761,623],[0,-1]],[[2761,622],[0,-1]],[[2761,621],[0,-1]],[[2761,620],[1,0]],[[2762,620],[0,-1]],[[2762,619],[1,0]],[[2763,619],[0,-1]],[[2763,618],[1,0]],[[2764,618],[0,-1]],[[2764,617],[0,-1]],[[2764,616],[-1,0]],[[2763,616],[0,-1]],[[2763,615],[-1,0]],[[2762,615]],[[2762,615],[-1,0]],[[2761,615]],[[2761,615],[-2,1]],[[2759,616],[-1,0]],[[2758,616],[-1,1]],[[2757,617],[-6,1]],[[2751,618],[0,1]],[[2751,619],[-1,0]],[[2750,619],[-1,1]],[[2749,620]],[[2749,620],[0,1]],[[2749,621]],[[2749,621],[0,1]],[[2749,622],[0,1]],[[2749,623],[1,0]],[[2750,623],[1,1]],[[2751,624]],[[2751,624]],[[2751,624],[1,1]],[[2752,625],[0,1]],[[2752,626],[-1,0]],[[2751,626],[0,1]],[[2751,627],[-1,0]],[[2750,627],[0,1]],[[2750,628],[-1,0]],[[2749,628],[0,-1]],[[2749,627],[-1,0]],[[2748,627],[-1,-1]],[[2747,626],[-1,0]],[[2746,626],[-1,0]],[[2745,626],[-1,-1]],[[2744,625]],[[2744,625],[-1,-1]],[[2743,624]],[[2743,624],[-1,-1]],[[2742,623],[0,-1]],[[2742,622],[-1,0]],[[2741,622],[0,-1]],[[2741,621],[-1,0]],[[2740,621],[-1,0]],[[2739,621]],[[2739,621],[-1,1]],[[2738,622]],[[2738,622],[0,1]],[[2738,623],[0,1]],[[2738,624]],[[2738,624],[0,1]],[[2738,625],[1,3]],[[2739,628],[2,3]],[[2741,631]],[[2741,631],[1,1]],[[2742,632],[1,1]],[[2743,633]],[[2743,633],[0,1]],[[2743,634],[1,1]],[[2744,635]],[[2744,635],[0,1]],[[2744,636],[1,0]],[[2745,636]],[[2745,636],[1,0]],[[2746,636],[1,0]],[[2747,636],[1,0]],[[2748,636]],[[2748,636],[1,0]],[[2749,636],[2,2]],[[2751,638],[2,1]],[[2753,639]],[[2753,639],[0,1]],[[2753,640],[1,1]],[[2754,641]],[[2754,641],[1,1]],[[2755,642],[2,1]],[[2757,643],[2,2]],[[2759,645],[1,0]],[[2760,645]],[[2760,645],[0,1]],[[2760,646]],[[2760,646],[0,1]],[[2760,647]],[[2760,647],[0,1]],[[2760,648]],[[2760,648]],[[2760,648],[-1,1]],[[2759,649]],[[2759,649],[-1,1]],[[2758,650],[-8,3]],[[2750,653]],[[2750,653],[-1,0]],[[2749,653]],[[2749,653],[-1,0]],[[2748,653],[-2,0]],[[2746,653],[-1,0]],[[2745,653]],[[2745,653],[-1,1]],[[2744,654],[-1,0]],[[2743,654]],[[2743,654],[0,1]],[[2743,655],[-1,1]],[[2742,656],[-1,1]],[[2741,657],[0,1]],[[2741,658],[-1,0]],[[2740,658]],[[2740,658],[-1,1]],[[2739,659]],[[2739,659],[-1,0]],[[2738,659],[0,-1]],[[2738,658],[-1,0]],[[2737,658],[-2,-1]],[[2735,657],[-2,-2]],[[2733,655],[-1,0]],[[2732,655]],[[2732,655],[-1,0]],[[2731,655],[-2,1]],[[2729,656]],[[2729,656],[-1,0]],[[2728,656],[-1,0]],[[2727,656],[0,-1]],[[2727,655]],[[2727,655],[-1,-1]],[[2726,654]],[[2726,654],[1,-2]],[[2727,652],[0,-1]],[[2727,651],[0,-1]],[[2727,650],[-1,0]],[[2726,650],[0,-1]],[[2726,649],[-3,-2]],[[2723,647],[-1,-1]],[[2722,646],[-1,0]],[[2721,646],[-2,-1]],[[2719,645],[-1,-1]],[[2718,644]],[[2718,644],[-1,1]],[[2717,645]],[[2717,645],[-1,1]],[[2716,646],[0,1]],[[2716,647],[-1,1]],[[2715,648]],[[2715,648],[-1,1]],[[2714,649],[-1,0]],[[2713,649]],[[2713,649],[-1,0]],[[2712,649],[-2,-1]],[[2710,648],[-1,0]],[[2709,648],[-1,-1]],[[2708,647],[-1,-2]],[[2707,645],[0,-1]],[[2707,644],[-1,0]],[[2706,644],[-1,-1]],[[2705,643]],[[2705,643],[-1,0]],[[2704,643],[-3,0]],[[2701,643],[-2,0]],[[2699,643],[-2,0]],[[2697,643],[-1,0]],[[2696,643],[-2,0]],[[2694,643],[-1,0]],[[2693,643],[-1,0]],[[2692,643],[-1,0]],[[2691,643]],[[2691,643],[-1,0]],[[2690,643]],[[2690,643],[0,1]],[[2690,644],[-1,1]],[[2689,645],[0,1]],[[2689,646]],[[2689,646],[-1,1]],[[2688,647],[-2,1]],[[2686,648]],[[2686,648],[0,1]],[[2686,649]],[[2686,649],[0,1]],[[2686,650],[2,6]],[[2688,656]],[[2688,656]],[[2688,656],[1,1]],[[2689,657],[0,1]],[[2689,658],[1,0]],[[2690,658],[0,1]],[[2690,659]],[[2690,659],[0,1]],[[2690,660],[-1,1]],[[2689,661],[-3,3]],[[2686,664],[-1,1]],[[2685,665],[-1,0]],[[2684,665]],[[2684,665],[-1,1]],[[2683,666]],[[2683,666],[-1,0]],[[2682,666]],[[2682,666],[-1,0]],[[2681,666],[-4,-1]],[[2677,665],[-1,0]],[[2676,665],[-1,-1]],[[2675,664],[-1,0]],[[2674,664],[-1,-1]],[[2673,663],[0,-1]],[[2673,662],[-1,-2]],[[2672,660],[-1,-3]],[[2671,657],[-1,-1]],[[2670,656],[-1,-1]],[[2669,655],[-1,0]],[[2668,655],[0,-1]],[[2668,654],[-1,0]],[[2667,654],[-1,0]],[[2666,654],[-2,0]],[[2664,654],[-1,0]],[[2663,654],[-3,0]],[[2660,654],[-1,0]],[[2659,654]],[[2659,654]],[[2659,654],[-1,0]],[[2658,654],[0,1]],[[2658,655],[-1,0]],[[2657,655],[0,1]],[[2657,656],[0,1]],[[2657,657],[0,1]],[[2657,658],[-1,0]],[[2656,658]],[[2656,658],[-1,1]],[[2655,659]],[[2655,659],[-1,0]],[[2654,659],[-2,1]],[[2652,660],[-2,-1]],[[2650,659],[-1,0]],[[2649,659]],[[2649,659],[-1,0]],[[2648,659],[0,-1]],[[2648,658],[0,-1]],[[2648,657],[-1,-1]],[[2647,656]],[[2647,656],[-1,-1]],[[2646,655]],[[2646,655],[-1,0]],[[2645,655]],[[2645,655],[-1,0]],[[2644,655],[0,1]],[[2644,656],[-1,0]],[[2643,656],[-1,1]],[[2642,657]],[[2642,657],[0,1]],[[2642,658]],[[2642,658],[0,1]],[[2642,659]],[[2642,659],[1,1]],[[2643,660]],[[2643,660],[0,1]],[[2643,661]],[[2643,661]],[[2643,661]],[[2643,661],[0,1]],[[2643,662]],[[2643,662]],[[2643,662],[-1,1]],[[2642,663]],[[2642,663]],[[2642,663],[-1,0]],[[2641,663]],[[2641,663],[-1,0]],[[2640,663]],[[2640,663],[-2,1]],[[2638,664],[-1,0]],[[2637,664],[-2,0]],[[2635,664],[0,1]],[[2635,665],[-1,0]],[[2634,665]],[[2634,665],[0,1]],[[2634,666]],[[2634,666],[0,1]],[[2634,667]],[[2634,667],[0,1]],[[2634,668]],[[2634,668],[1,0]],[[2635,668]],[[2635,668]],[[2635,668],[1,0]],[[2636,668],[1,0]],[[2637,668],[1,0]],[[2638,668],[0,1]],[[2638,669]],[[2638,669],[1,0]],[[2639,669],[0,1]],[[2639,670],[1,3]],[[2640,673]],[[2640,673]],[[2640,673],[-1,1]],[[2639,674]],[[2639,674],[0,1]],[[2639,675]],[[2639,675],[-1,0]],[[2638,675],[-6,4]],[[2632,679],[-1,0]],[[2631,679],[-1,0]],[[2630,679],[-1,1]],[[2629,680],[-1,0]],[[2628,680]],[[2806,548],[0,1]],[[2811,544],[0,1]],[[2811,545],[-3,1]],[[2808,546],[-2,2]],[[2812,544],[-1,0]],[[2812,544],[2,-1]],[[2814,543],[2,-2]],[[2816,541],[1,0]],[[2817,541],[1,1]],[[2818,542]],[[2818,542],[1,1]],[[2819,543],[1,1]],[[2820,544],[0,1]],[[2820,545],[1,0]],[[2821,545],[0,1]],[[2821,546],[2,1]],[[2823,547],[1,0]],[[2824,547]],[[2824,547],[1,0]],[[2825,547]],[[2825,547],[2,0]],[[2827,547],[1,-1]],[[2828,546],[1,-1]],[[2829,545],[2,-1]],[[2831,544],[2,-2]],[[2833,542],[1,-1]],[[2834,541],[1,0]],[[2835,541],[0,-1]],[[2835,540],[0,-1]],[[2835,539],[1,-1]],[[4096,2620],[-106,1],[-135,25],[-55,63],[-148,3],[-202,-63],[-357,81],[-118,-51],[-171,-3],[-109,138],[-270,38],[-128,-152],[-44,-142],[-178,-95],[-57,-91],[0,-84],[-157,-433],[23,-481],[-120,-9],[-106,37],[-275,-14],[-138,-33],[-319,17],[-144,-70],[-20,-104],[32,-50],[-63,-75],[-52,56],[-93,17],[-53,86],[-89,8],[16,-59],[-18,-8],[-93,165],[-281,63],[-68,62]],[[2937,1034],[-98,87],[-52,58]],[[2787,1179],[-57,32]],[[2730,1211],[-3,2]],[[2727,1213],[-791,149]],[[2787,1179],[-2,1],[-58,33]],[[2727,1213]],[[2730,1211],[22,-11]],[[2778,1185],[9,-5],[5,-3],[43,-46]],[[3004,1013],[-4,0],[-39,10],[-7,3],[-17,8]],[[3269,477],[-24,6]],[[3245,483],[-111,404],[-108,122],[-89,25]],[[3245,483],[-1,5],[0,5]],[[1927,1363],[46,-15],[4,-123],[-208,-203]],[[1936,1362],[27,-5]],[[2177,0],[1,2]],[[2178,2],[0,2]],[[2178,4],[0,1]],[[2178,5],[0,1]],[[2178,6],[1,2]],[[2179,8],[1,2]],[[2180,10],[0,2]],[[2180,12],[0,1]],[[2180,13],[0,2]],[[2180,15],[0,1]],[[2180,16],[0,3]],[[2180,19],[1,3]],[[2181,22],[0,3]],[[2181,25],[0,2]],[[2181,27]],[[2181,27],[1,1]],[[2182,28]],[[2182,28]],[[2182,28],[0,1]],[[2182,29],[2,2]],[[2184,31],[1,1]],[[2185,32],[2,2]],[[2187,34],[2,3]],[[2189,37],[4,4]],[[2193,41],[1,2]],[[2194,43],[1,1]],[[2195,44],[1,1]],[[2196,45],[0,1]],[[2196,46],[0,1]],[[2196,47],[1,1]],[[2197,48],[0,2]],[[2197,50],[0,3]],[[2197,53],[1,2]],[[2198,55],[0,1]],[[2198,56],[0,1]],[[2198,57],[0,1]],[[2198,58]],[[2198,58],[1,0]],[[2199,58],[4,4]],[[2203,62],[1,1]],[[2204,63],[1,1]],[[2205,64],[1,1]],[[2206,65],[0,2]],[[2206,67],[1,2]],[[2207,69],[0,2]],[[2207,71],[1,1]],[[2208,72],[0,2]],[[2208,74],[2,4]],[[2210,78],[1,2]],[[2211,80],[1,3]],[[2212,83],[1,3]],[[2213,86],[2,4]],[[2215,90],[1,3]],[[2216,93],[1,1]],[[2217,94],[0,1]],[[2217,95],[1,1]],[[2218,96],[1,1]],[[2219,97],[0,2]],[[2219,99],[1,4]],[[2220,103],[0,3]],[[2220,106],[0,3]],[[2220,109],[1,2]],[[2221,111],[0,1]],[[2221,112],[0,1]],[[2221,113],[0,1]],[[2221,114],[1,1]],[[2222,115],[1,1]],[[2223,116],[2,2]],[[2225,118],[2,2]],[[2227,120],[3,3]],[[2230,123]],[[2230,123],[1,1]],[[2231,124],[0,1]],[[2231,125],[1,2]],[[2232,127],[0,1]],[[2728,499],[1,2]],[[2729,501],[1,1]],[[2730,502],[1,1]],[[2731,503]],[[2731,503],[2,1]],[[2733,504],[1,1]],[[2734,505],[1,1]],[[2735,506],[4,1]],[[2739,507],[1,0]],[[2740,507],[2,0]],[[2742,507],[2,-1]],[[2744,506],[8,-3]],[[2752,503],[1,-1]],[[2753,502],[2,-1]],[[2755,501],[1,1]],[[2756,502],[2,1]],[[2758,503],[1,1]],[[2759,504],[2,1]],[[2761,505],[1,2]],[[2762,507]],[[2762,507],[2,1]],[[2764,508],[1,0]],[[2765,508],[0,1]],[[2765,509]],[[2765,509],[0,1]],[[2765,510],[1,2]],[[2766,512]],[[2766,512],[0,1]],[[2766,513],[1,0]],[[2767,513],[2,1]],[[2769,514],[1,0]],[[2770,514],[2,1]],[[2772,515],[1,0]],[[2773,515],[5,0]],[[2778,515]],[[2778,515],[1,1]],[[2779,516],[1,0]],[[2780,516],[1,1]],[[2781,517],[3,5]],[[2784,522],[1,1]],[[2785,523],[1,1]],[[2786,524],[3,1]],[[2789,525],[1,0]],[[2790,525],[0,1]],[[2790,526]],[[2790,526],[1,0]],[[2791,526],[0,1]],[[2791,527]],[[2791,527],[1,0]],[[2792,527]],[[2792,527],[1,0]],[[2793,527]],[[2793,527],[1,-1]],[[2794,526],[1,-1]],[[2795,525]],[[2795,525],[1,0]],[[2796,525],[2,0]],[[2798,525],[2,1]],[[2800,526],[1,0]],[[2801,526],[1,0]],[[2802,526],[0,1]],[[2802,527],[0,1]],[[2802,528],[1,0]],[[2803,528],[0,1]],[[2803,529],[1,1]],[[2804,530],[0,1]],[[2804,531],[1,1]],[[2805,532],[3,3]],[[2808,535]],[[2808,535],[1,0]],[[2809,535],[0,1]],[[2809,536]],[[2809,536]],[[2809,536],[2,1]],[[2811,537],[1,0]],[[2812,537],[2,0]],[[2814,537]],[[2814,537],[1,0]],[[2815,537],[0,-1]],[[2815,536],[1,-1]],[[2816,535]],[[2816,535],[1,-1]],[[2817,534],[1,-1]],[[2818,533],[1,0]],[[2819,533],[1,0]],[[2820,533]],[[2820,533],[1,1]],[[2821,534]],[[2821,534],[1,1]],[[2822,535],[0,1]],[[2822,536],[0,1]],[[2822,537],[1,1]],[[2823,538]],[[2823,538],[-1,0]],[[2822,538],[0,1]],[[2822,539]],[[2822,539],[-1,1]],[[2821,540],[-1,1]],[[2820,541]],[[2820,541],[0,1]],[[2820,542]],[[2820,542],[0,1]],[[2820,543],[0,1]],[[2820,544],[1,0]],[[2821,544],[1,2]],[[2822,546],[1,0]],[[2823,546],[1,0]],[[2824,546]],[[2824,546],[2,-1]],[[2826,545],[1,-1]],[[2827,544],[1,0]],[[2828,544],[3,-1]],[[2831,543],[2,-1]],[[2833,542]],[[2833,542],[2,-2]],[[2835,540],[0,-1]],[[2835,539],[1,-1]],[[2836,538]],[[2836,538],[0,-1]],[[2836,537],[1,-1]],[[2837,536],[1,0]],[[2838,536],[1,-1]],[[2839,535],[1,0]],[[2840,535]],[[2840,535],[1,-1]],[[2841,534],[1,-3]],[[2842,531]],[[2842,531],[1,0]],[[2843,531],[0,-1]],[[2843,530],[1,0]],[[2844,530],[1,0]],[[2845,530]],[[2845,530],[1,0]],[[2846,530]],[[2846,530],[1,-1]],[[2847,529],[1,0]],[[2848,529],[1,0]],[[2849,529],[1,0]],[[2850,529]],[[2850,529],[1,-1]],[[2851,528],[0,-1]],[[2851,527],[1,-1]],[[2852,526],[0,-1]],[[2852,525],[1,-1]],[[2853,524]],[[2853,524],[1,-1]],[[2854,523],[2,-1]],[[2856,522],[3,-2]],[[2859,520],[1,0]],[[2860,520],[1,0]],[[2861,520]],[[2861,520],[1,0]],[[2862,520]],[[2862,520],[1,0]],[[2863,520],[0,1]],[[2863,521],[3,1]],[[2866,522]],[[2866,522],[0,1]],[[2866,523],[1,2]],[[2867,525],[2,2]],[[2869,527],[1,2]],[[2870,529],[0,1]],[[2870,530],[1,0]],[[2871,530]],[[2871,530]],[[2871,530],[1,0]],[[2872,530],[1,0]],[[2873,530],[5,-2]],[[2878,528]],[[2878,528],[0,-1]],[[2878,527],[1,0]],[[2879,527],[1,0]],[[2880,527],[7,-1]],[[2887,526],[1,-1]],[[2888,525],[1,0]],[[2889,525],[1,0]],[[2890,525],[1,-1]],[[2891,524],[2,-1]],[[2893,523],[4,-2]],[[2897,521],[1,0]],[[2898,521],[3,-1]],[[2901,520],[1,0]],[[2902,520],[0,-1]],[[2902,519],[2,0]],[[2904,519],[1,-1]],[[2905,518],[3,-1]],[[2908,517],[1,0]],[[2909,517],[4,-2]],[[2913,515],[2,-1]],[[2915,514],[0,-1]],[[2915,513],[1,0]],[[2916,513],[0,-1]],[[2916,512],[1,-2]],[[2917,510],[2,-2]],[[2919,508],[1,-1]],[[2920,507],[3,-4]],[[2923,503],[0,-1]],[[2923,502],[1,-1]],[[2924,501],[1,0]],[[2925,501],[2,-1]],[[2927,500]],[[2927,500]],[[2927,500],[1,0]],[[2928,500]],[[2928,500],[1,0]],[[2929,500]],[[2929,500],[2,-1]],[[2931,499],[2,-1]],[[2933,498],[1,0]],[[2934,498]],[[2934,498],[4,-1]],[[2938,497],[2,-1]],[[2940,496],[2,0]],[[2942,496],[1,0]],[[2943,496],[1,0]],[[2944,496],[1,0]],[[2945,496],[3,-1]],[[2948,495]],[[2948,495],[1,0]],[[2949,495]],[[2949,495]],[[2949,495],[2,0]],[[2951,495],[2,1]],[[2953,496]],[[2953,496],[1,0]],[[2954,496]],[[2954,496],[1,0]],[[2955,496]],[[2955,496],[0,-1]],[[2955,495],[1,0]],[[2956,495],[0,-1]],[[2956,494]],[[2956,494]],[[2956,494],[0,-3]],[[2956,491],[0,-2]],[[2956,489],[0,-3]],[[2956,486],[0,-1]],[[2728,499]],[[2728,499]],[[2728,499],[-1,0]],[[2727,499],[-1,0]],[[2726,499],[-1,0]],[[2725,499],[-2,1]],[[2723,500]],[[2723,500]],[[2723,500]],[[2723,500]],[[2723,500],[-1,0]],[[2722,500],[-3,3]],[[2719,503],[-1,1]],[[2718,504],[-1,1]],[[2717,505],[-2,1]],[[2715,506],[-1,0]],[[2714,506],[-1,1]],[[2713,507],[0,1]],[[2713,508],[-1,0]],[[2712,508],[-1,0]],[[2711,508]],[[2711,508],[-1,0]],[[2710,508],[0,1]],[[2710,509],[-1,1]],[[2709,510]],[[2709,510]],[[2709,510],[0,1]],[[2709,511],[-1,0]],[[2708,511],[-1,1]],[[2707,512],[-2,2]],[[2705,514],[-1,1]],[[2704,515],[-1,1]],[[2703,516],[-2,2]],[[2701,518],[0,1]],[[2701,519],[-1,1]],[[2700,520],[0,2]],[[2700,522],[-1,1]],[[2699,523],[0,1]],[[2699,524],[-1,2]],[[2698,526],[0,1]],[[2698,527],[-1,2]],[[2697,529],[-1,2]],[[2696,531],[-1,1]],[[2695,532],[-1,1]],[[2694,533],[-1,1]],[[2693,534],[-2,0]],[[2691,534],[-1,1]],[[2690,535],[-3,0]],[[2687,535],[-1,0]],[[2686,535],[-3,1]],[[2683,536],[-4,2]],[[2679,538],[-1,1]],[[2678,539],[-2,1]],[[2676,540],[-7,4]],[[2669,544],[-2,1]],[[2667,545],[-3,0]],[[2664,545],[-3,1]],[[2661,546],[-3,0]],[[2658,546],[-2,-1]],[[2656,545],[-1,0]],[[2655,545],[-1,-1]],[[2654,544],[-2,-2]],[[2652,542],[-2,0]],[[2650,542],[-2,-1]],[[2648,541],[-2,0]],[[2646,541],[-1,0]],[[2645,541],[-1,0]],[[2644,541]],[[2644,541],[-2,0]],[[2642,541],[-3,0]],[[2639,541],[-1,0]],[[2638,541],[-2,1]],[[2636,542],[-2,1]],[[2634,543],[-1,0]],[[2633,543],[-1,0]],[[2632,543],[-1,0]],[[2631,543],[-2,0]],[[2629,543],[-1,0]],[[2628,543],[-1,0]],[[2627,543],[-1,0]],[[2626,543],[-1,1]],[[2625,544],[-1,0]],[[2624,544],[-2,1]],[[2622,545],[-4,3]],[[2618,548],[-2,3]],[[2616,551],[-2,1]],[[2614,552],[-1,0]],[[2613,552],[-3,1]],[[2610,553],[-1,0]],[[2609,553],[-4,-1]],[[2605,552],[-3,1]],[[2602,553],[-2,0]],[[2600,553],[-3,1]],[[2597,554],[-5,1]],[[2592,555],[-2,1]],[[2590,556],[-2,0]],[[2588,556],[-1,1]],[[2587,557],[-2,0]],[[2585,557],[-4,0]],[[2581,557],[-3,0]],[[2578,557]],[[2578,557],[-4,0]],[[2574,557],[-3,0]],[[2571,557],[-2,0]],[[2569,557],[-5,0]],[[2564,557],[-4,0]],[[2560,557],[-4,0]],[[2556,557],[-2,-1]],[[2554,556],[-2,0]],[[2552,556],[-5,1]],[[2547,557],[-1,0]],[[2546,557],[-2,-1]],[[2544,556],[-5,-1]],[[2539,555],[-3,-1]],[[2536,554],[-3,-1]],[[2728,499]],[[2728,499]],[[2728,499]],[[2728,499],[0,-1]],[[2728,498],[0,-1]],[[2728,497],[0,-1]],[[2728,496],[0,-1]],[[2728,495],[-1,-1]],[[2727,494],[-1,-1]],[[2726,493],[0,-1]],[[3143,858],[79,146],[-133,370],[14,47],[-61,84],[13,46],[-52,163],[33,52],[-30,86],[8,172],[-80,50],[-3,135],[41,99],[99,112],[315,171]],[[3371,2952],[17,-119]],[[3387,2828],[4,-15]],[[3215,503]],[[3064,2010],[-147,75],[2,152]],[[1828,3486],[6,12]],[[1895,3422],[-1,-15]],[[2083,2437],[32,12]],[[2323,2211],[-2,4]],[[2325,2383],[4,-8]],[[2461,2951],[-1,-10]],[[2653,2914],[-8,2]],[[2666,2913],[6,1]],[[2668,2486],[15,11]],[[2866,2638],[7,-1]],[[3336,2740],[-3,-4]],[[3347,2977],[3,-10]],[[3471,2687],[6,12]],[[3209,490],[2,0]],[[362,524],[1,1]],[[3450,538],[-1,-1]],[[3450,536],[0,1]],[[672,3782],[149,43]],[[273,269],[90,-98]],[[376,0],[23,72]],[[1608,3931],[-1,1]],[[2426,2942],[1,-1]],[[2427,2944],[-1,-1]],[[2427,2941],[0,1]],[[2436,2883],[-9,58]],[[2427,2944],[1,98]],[[2427,2943],[0,1]],[[2440,2871],[-4,11]],[[2442,2867],[-2,4]],[[2447,2860],[-7,11]],[[2436,2882],[0,1],[-1,0],[1,-1]],[[3249,506],[9,1]],[[3262,508],[1,0]],[[345,495],[2,5]],[[1056,2306],[-32,156],[26,36]],[[2876,524]],[[2876,525],[0,-1]],[[2876,524],[2,-9]],[[2878,513],[39,-27]],[[3299,513],[13,-24],[-43,-6]],[[3299,513],[5,1]],[[3302,514],[-3,-1]],[[728,3061],[-1,3]],[[776,2590],[5,170],[-53,301]],[[775,2083],[-52,154],[67,176],[-15,172]],[[342,588],[1,1]],[[0,1751],[81,51],[89,107],[135,33]],[[342,595],[-5,-6]],[[3217,502],[-2,1]],[[2019,1369],[-46,8]],[[2877,525],[-1,0]],[[3386,508]],[[2841,545],[34,-20]],[[2875,525],[1,0]],[[2876,525],[-1,0]],[[3267,286],[2,0],[-1,1],[-1,-1]],[[2426,2943],[0,-1]],[[2427,2942],[0,1]],[[279,329],[0,-3]],[[279,326],[-5,-51]],[[274,275],[-1,-6]],[[387,134],[-96,111],[-17,30]],[[274,275],[-5,9],[10,42]],[[279,326],[0,3]],[[2175,2399],[-66,-8]],[[2274,2522],[1,0]],[[2325,2383],[-22,17]],[[2344,2498],[99,-36]],[[351,597],[1,1]],[[911,3176],[103,104]],[[3386,508],[1,0]],[[3386,508]],[[371,667],[4,11]],[[3329,53],[1,-53]],[[3576,818],[-139,-236]],[[3642,957],[-64,-134]],[[3764,1152],[-121,-192]],[[3764,1152],[2,1]],[[3765,1153],[-1,-1]],[[3768,1155],[-2,-1]],[[3767,1154],[1,1]],[[4096,1473],[-38,-46],[-290,-272]],[[3766,1153],[1,0],[-1,1],[-1,-1],[1,0]],[[1839,1834],[30,-284],[79,-130]],[[405,1243],[5,2]],[[1047,3297],[-2,6]],[[1864,0],[-21,19]],[[3056,509],[38,2]],[[3231,490],[3,-1]],[[3346,508],[5,1]],[[3358,512],[-4,-2]],[[0,469],[48,-55],[50,6],[149,-80]],[[250,339],[27,-3]],[[278,336],[-1,0]],[[277,336],[1,0]],[[1457,3785],[25,-3]],[[2791,1156],[-83,36]],[[2062,455],[83,-18],[-63,23],[25,7],[68,-31],[-13,-26],[59,-21]],[[3388,508],[-2,0]],[[3387,508],[1,0]],[[3388,508],[33,20]],[[1683,1025],[17,-11]],[[1700,1014],[1,0]],[[3354,510],[-8,-2]],[[3351,509],[2,0],[11,8]],[[3364,517],[3,2],[2,0]],[[3370,520],[-2,1],[-3,-3],[-1,-1]],[[3364,517],[-2,-1],[-4,-4]],[[1969,2942],[1,-2]],[[2460,2941],[83,-37]],[[3179,648],[2,0]],[[3363,557],[-34,85],[-80,-24]],[[3363,557],[0,-17]],[[3365,536],[-2,21]],[[278,335],[1,-5]],[[1948,1420],[1,-2]],[[1961,1380],[-1,-3]],[[3335,509],[-33,5]],[[3304,514],[30,-5]],[[1818,1909],[31,-7]],[[3863,3965],[75,131]],[[2203,985],[41,-19],[57,-90]],[[0,1529],[77,-128],[104,-77],[124,-8],[102,-149],[26,-50],[-50,-223]],[[381,849],[1,-4]],[[2876,525]],[[2876,525]],[[2876,524],[1,1]],[[3258,508],[-21,-4]],[[3198,405],[0,-3]],[[3217,339],[1,-2]],[[3226,313],[9,-31]],[[2274,2522],[-2,-2]],[[2877,2620],[-4,17]],[[3162,2697],[11,-91]],[[354,516],[2,-2]],[[359,519],[26,17]],[[2428,3042],[33,-91]],[[1894,1147],[45,39],[14,53],[-56,41],[56,81]],[[353,559],[-11,29]],[[343,589],[2,2]],[[363,525],[-1,-1]],[[280,350],[3,23]],[[345,591],[6,6]],[[204,3685],[6,0]],[[775,2585],[1,5]],[[3371,526],[-6,-8]],[[3371,526],[0,-1],[-2,-3]],[[3370,543],[1,-17]],[[3371,524],[0,2]],[[3371,311],[0,5]],[[3372,307],[2,-5]],[[2076,770],[-100,-85],[-69,5]],[[2312,853],[-3,9]],[[1746,1014],[0,-4]],[[3306,116],[8,-22]],[[3215,503],[-3,7]],[[2066,976],[84,29],[53,-20]],[[1849,1902],[-10,-68]],[[1843,19],[-5,5]],[[1760,1000],[8,-4]],[[3219,615],[19,1]],[[2708,1192],[-113,50],[-141,0],[-120,56],[-315,71]],[[3060,939],[-145,112]],[[3060,939],[0,-2],[1,0]],[[3061,937],[1,2],[-2,0]],[[3061,937],[64,-111]],[[3125,826],[-63,111]],[[3160,707],[1,-2]],[[872,1758],[135,-3]],[[0,1543],[27,22]],[[730,3584],[-36,184]],[[813,3889],[-26,90],[15,15],[-21,2],[-16,-40],[13,60]],[[2272,2520],[-3,-4]],[[3284,2849],[-14,38]],[[399,72],[-6,37]],[[667,3454],[27,39],[32,3],[4,88]],[[778,4016],[-39,80]],[[502,536],[-71,28]],[[1181,2097],[-105,85],[-20,105]],[[2626,2903],[19,13]],[[2919,2877],[7,-8]],[[2984,2820],[63,-13]],[[3152,2816],[3,0]],[[3175,650],[3,-1]],[[3193,648],[-14,2]],[[3193,647],[26,-32]],[[2812,546],[2,1]],[[3452,538],[-2,1]],[[3725,461],[0,-1],[1,0],[0,1],[-1,0]],[[362,524],[-1,-2]],[[1277,3677],[17,-12]],[[1569,3830],[3,9]],[[1581,3881],[5,28]],[[1590,3914],[18,19]],[[2694,382],[2,1]],[[3242,285],[1,1]],[[2543,2904],[83,-1]],[[682,3140],[0,1]],[[704,3100],[-13,17]],[[707,3094],[-2,2]],[[383,894],[-2,-45]],[[382,845],[11,-59]],[[3215,503],[0,-1]],[[3177,506],[0,-7]],[[3180,491],[0,1]],[[3187,490],[0,1]],[[3214,491],[-1,-1]],[[3271,510],[-9,-2]],[[3263,508],[9,2]],[[0,99],[5,0]],[[78,67],[-31,-9],[-42,41]],[[2301,876],[8,-14]],[[369,626],[-16,-26]],[[2035,3560],[4,45],[-39,43],[4,21],[19,-28],[24,78],[-63,60]],[[1731,1007],[1,0]],[[1732,1007],[1,0]],[[1732,1007]],[[1973,1377],[-20,-16]],[[270,275],[-49,-8]],[[1921,3080],[48,-138]],[[1970,2940],[60,-284]],[[2030,2655],[37,-165]],[[2089,2434],[-28,29]],[[2296,2132],[-104,73],[-94,147],[3,50]],[[278,340],[0,-3]],[[278,340],[2,10]],[[279,337],[-1,3]],[[279,335],[0,1],[-1,1]],[[278,337],[0,-1],[1,-1]],[[279,330],[0,5]],[[3028,1112],[-3,16]],[[353,517],[1,-1]],[[622,590],[-1,-1]],[[690,614],[52,-1],[4,29],[125,64],[164,-71]],[[3175,657],[0,-7]],[[3179,650],[-1,1]],[[3178,649],[15,-2]],[[3239,285],[1,1]],[[2221,389],[47,-34],[53,13]],[[3235,287],[58,-143]],[[2246,5],[57,5],[12,32],[23,-18],[-5,73],[32,0],[-11,37],[45,-15],[11,41],[-65,70]],[[2334,357],[0,1]],[[2361,391],[1,1]],[[2383,302],[0,1]],[[2158,3788],[3,2]],[[2269,3759],[-86,-15]],[[2371,3725],[1,5]],[[2372,3725],[-20,-90],[61,4],[31,-35],[78,17]],[[3005,1277],[13,50],[48,15],[18,71]],[[0,3550],[64,-15]],[[59,3975],[-17,3],[-3,31],[-1,4],[2,2]],[[41,4014],[7,-25]],[[41,3963],[24,8]],[[49,3988],[4,1]],[[92,4005],[55,21],[21,53],[-29,-7],[8,24]],[[100,3519],[115,-87]],[[268,3394],[94,-61]],[[384,3331],[86,-19]],[[477,3302],[32,-105]],[[523,3181],[94,-105],[111,-15]],[[878,1777],[-60,109],[-43,197]],[[356,514],[3,5]],[[353,600],[-1,-2]],[[352,598],[1,1]],[[2813,4026],[50,43]],[[385,536],[6,8]],[[0,2190],[40,-85],[100,-88],[85,-35],[28,-48]],[[30,2683],[40,-16],[28,-57],[-98,-136]],[[1750,1020],[2,-1]],[[1766,1023],[6,1]],[[1782,1027],[17,14]],[[3234,503],[15,3]],[[3258,507],[4,1]],[[419,74],[49,-8]],[[468,65],[8,-22]],[[1866,153],[-14,-104]],[[2225,692],[-160,-98],[-17,-116],[-75,-63],[-107,-252]],[[2312,853],[13,-63],[-99,-97]],[[279,350],[31,106]],[[739,2608],[37,-18]],[[353,559],[9,-34]],[[1253,1999],[-48,110]],[[1243,1996],[10,3]],[[3237,273],[4,-13]],[[3347,2977],[24,-25]],[[3388,2833],[-1,-5]],[[3477,2699],[12,26],[-98,88]],[[3226,313],[-8,24]],[[3218,335],[8,-22]],[[3203,577],[-10,32]],[[2161,3790],[-6,-14]],[[2183,3744],[-22,8]],[[337,589],[19,-69]],[[350,599],[-8,-4]],[[350,599],[1,-1]],[[352,599],[-2,0]],[[353,517],[0,-1]],[[356,520],[-2,-2]],[[354,517],[2,3]],[[3154,510],[1,0]],[[1683,935],[5,28]],[[2076,770],[-29,139],[19,67]],[[1844,3496],[-18,-56],[69,-18]],[[2197,2492],[8,9]],[[2329,2375],[-1,-14]],[[2800,2855],[-128,59]],[[3173,2606],[-122,5],[-22,26],[-26,-27],[-126,10]],[[3178,2707],[-16,-10]],[[3333,2736],[-57,-16]],[[3350,2967],[1,-2]],[[821,3825],[76,-30]],[[1171,3684],[94,-4]],[[1268,3679],[9,-2]],[[1325,3644],[16,21]],[[1442,3744],[15,41]],[[1482,3782],[87,48]],[[1045,3723],[0,-4]],[[363,525],[-1,2]],[[866,3123],[45,53]],[[1014,3280],[33,17]],[[269,280],[0,1]],[[271,281],[-1,0]],[[247,340],[3,-1]],[[2033,3808],[-12,42]],[[3715,518],[20,13],[12,179],[73,127],[131,25],[145,-50]],[[1746,1014],[4,3]],[[1747,1009],[-1,1]],[[370,635],[1,31]],[[1706,997],[13,5]],[[1720,1003],[12,4]],[[1732,1007],[12,0]],[[1747,1009],[-1,0]],[[2296,2132],[2,6]],[[2310,2191],[15,11]],[[2326,2203],[-3,8]],[[2035,3794],[123,-6]],[[2155,3776],[6,-24]],[[3325,289],[-2,0]],[[3324,288],[1,1]],[[3364,305],[-39,-16]],[[1799,1041],[34,29]],[[1854,1109],[-2,-2]],[[1855,1110],[39,37]],[[2919,2237],[-171,-40],[-95,-55],[-136,23],[-74,-67],[-71,-4],[-67,-57],[46,-126],[66,-73]],[[1771,987],[-24,20]],[[1769,969],[2,18]],[[1771,987],[-2,-17]],[[279,350],[-8,-69]],[[435,3775],[44,11]],[[488,3789],[43,-5]],[[1035,635],[86,60],[-12,41],[41,67],[146,153],[246,92]],[[690,614],[-68,-24]],[[3216,428],[0,-1]],[[1,3649],[62,-10],[39,20]],[[254,3694],[9,3]],[[479,3786],[9,3]],[[642,3778],[30,4]],[[1007,3764],[23,-18]],[[1032,3744],[5,-8]],[[2298,2138],[12,53]],[[2325,2202],[1,1]],[[2457,2449],[77,-9],[22,37],[21,4],[-6,-26],[97,31]],[[3155,2816],[129,33]],[[3239,285],[3,0]],[[3369,504],[5,2]],[[371,667],[0,-1]],[[3064,2010],[149,41],[16,-81],[64,-6],[15,62],[40,-3],[1,45],[39,-36],[24,36],[74,-15],[299,56]],[[1639,1052],[44,-27]],[[476,43],[36,-18],[92,45],[77,-15],[85,32],[158,-21],[11,22],[283,33],[66,107],[179,86]],[[2662,2886],[2,-3]],[[78,67],[4,-53],[8,-14]],[[775,2083],[21,4]],[[347,508],[-8,-5]],[[356,533],[-5,-15]],[[353,517],[5,17]],[[1922,3858],[-16,12]],[[3238,616],[11,2]],[[2917,486],[66,-5]],[[3056,509],[-21,-19]],[[3094,511],[10,-1]],[[3243,486]],[[3450,539],[0,-1]],[[3450,537],[2,1]],[[410,1245],[1,1]],[[3314,94],[15,-41]],[[3411,551],[-4,0]],[[3416,552],[-3,-1]],[[3413,550],[3,2]],[[3437,582],[-21,-30]],[[3210,513],[2,-3]],[[3866,3970],[-3,-5]],[[3363,540],[7,-23],[2,-11]],[[3372,506],[1,0]],[[3373,506],[1,-14],[0,-5],[8,-27]],[[3382,461],[-7,26],[-2,14],[0,5]],[[3373,506],[-1,0]],[[3372,506],[-2,11],[-5,19]],[[3216,427]],[[2334,358],[-13,10],[40,23]],[[2383,303],[-17,48],[-32,6]],[[2362,392],[63,31],[260,-36]],[[1752,1019],[14,4]],[[1772,1024],[10,3]],[[1840,1082],[6,12]],[[542,1693],[60,9]],[[661,1717],[54,27]],[[1593,1784],[85,2],[57,38],[45,93],[38,-8]],[[1886,1984],[25,36]],[[1911,2020],[4,0]],[[1913,2021],[-2,-1]],[[1920,2036],[-7,-15]],[[1915,2020],[-2,1]],[[1915,2020],[7,4]],[[0,2701],[30,-18]],[[2067,2490],[-6,-27]],[[1037,3736],[8,-13]],[[3238,286],[1,-1]],[[3252,287],[-9,-1]],[[27,1565],[170,53],[206,10],[71,56],[68,9]],[[715,1744],[70,22],[87,-8]],[[1007,1755],[159,8],[214,-58],[213,79]],[[1920,2036],[48,129]],[[1984,2193],[14,34]],[[1998,2230],[24,64]],[[2022,2296],[-3,19]],[[2020,2321],[46,124],[136,58],[48,48],[82,205]],[[2336,2760],[51,69]],[[2414,2857],[129,47]],[[2626,2903],[36,-17]],[[2664,2883],[83,-79]],[[2764,2795],[-5,-7]],[[2835,2679],[431,4]],[[3269,2683],[138,39]],[[3441,2711],[47,-16],[279,23],[241,-47],[88,38]],[[2115,2449],[5,0]],[[2321,2215],[4,9]],[[2668,2486]],[[3576,820],[1,-1]],[[3578,821],[-1,1]],[[3577,822],[-1,-1],[1,-2]],[[3577,819],[1,2],[-1,1]],[[3663,480],[62,-20]],[[2035,3560],[-201,-62]],[[393,109],[-6,25]],[[1852,1107],[2,2]],[[2878,515],[0,-2]],[[3335,509]],[[2714,456],[10,52],[88,38]],[[431,564],[-40,-20]],[[254,592],[-68,29],[0,47],[-55,52],[-65,7],[-66,71]],[[2877,3142],[79,26],[45,67],[98,31],[68,57],[90,205],[-3,49]],[[3204,415],[-3,-3]],[[3217,502],[-2,0]],[[3216,497],[18,6]],[[3218,485],[-1,-46]],[[2089,2434],[12,-32]],[[64,3535],[36,-16]],[[352,598],[-1,-1]],[[2919,2237],[126,165],[305,164]],[[3025,1128],[-20,149]],[[3024,991],[-17,22],[21,99]],[[3084,1413],[-45,92],[43,30],[-51,134],[39,92],[-37,52],[-2,52],[33,145]],[[2428,3042],[-42,79],[-59,36],[-183,37],[-26,43],[7,158],[-90,165]],[[347,500],[9,14]],[[359,519],[2,3]],[[3187,490],[-3,-1]],[[3198,492],[6,-1]],[[3208,491],[1,-1]],[[3471,2687],[-30,-19],[-86,21]],[[2120,2449],[53,26]],[[2269,2516],[-7,-1]],[[2915,1051],[-124,105]],[[3125,826],[35,-119]],[[3177,654],[-52,172]],[[3161,705],[16,-51]],[[3193,609],[-16,45]],[[513,547],[-11,-11]],[[2303,2400],[-128,-1]],[[2275,2522],[19,-4],[-10,28],[27,-45],[33,-3]],[[2443,2462],[14,-13]],[[3815,3889],[31,58]],[[1045,3303],[-6,4]],[[3218,502],[-1,0]],[[3293,144],[13,-28]],[[3267,286],[-15,1]],[[3298,285],[-29,1]],[[399,72],[20,2]],[[369,626],[1,9]],[[215,3432],[53,-38]],[[672,3782],[22,-14]],[[705,3096],[-1,4]],[[727,3064],[-20,30]],[[821,3825],[-8,64]],[[65,3971],[-6,4]],[[682,3141],[-52,62],[-46,117],[83,134]],[[691,3117],[-9,23]],[[1746,1008],[1,0]],[[337,499],[-26,-43]],[[362,3333],[22,-2]],[[285,375],[-2,-2]],[[40,4015],[1,-1]],[[48,3989],[1,-1]],[[53,3989],[39,16]],[[470,3312],[7,-10]],[[509,3197],[14,-16]],[[2328,2361],[-3,-137]],[[3276,2720],[-98,-13]],[[3270,2887],[-25,50],[-42,13],[38,12],[45,-59],[70,-2],[-5,64]],[[2197,2492],[-24,-17]],[[2262,2515],[-57,-14]],[[3238,286],[-3,1]],[[3243,286],[-5,0]],[[3104,510],[9,-2]],[[3113,502],[0,5]],[[3177,514],[-3,0]],[[3176,514],[1,-8]],[[3222,492],[9,-2]],[[3234,489],[9,-3]],[[3221,492],[0,-1],[1,0],[-1,1]],[[2143,3191],[-57,-6],[-17,21],[-148,-126]],[[353,599],[0,1]],[[361,522],[2,2]],[[3201,412],[-1,0]],[[3215,502]],[[3216,497],[2,-12]],[[3407,551],[-35,-6]],[[3372,544],[-2,1],[0,-2],[1,0],[1,1]],[[338,498],[0,2]],[[1751,1019]],[[3371,316],[20,112],[-9,33]],[[3382,460],[8,-32],[-20,-111],[2,-10]],[[284,538],[14,-15]],[[318,514],[10,-10]],[[3421,528],[26,7]],[[3447,535],[3,1]],[[3449,537],[-2,-2]],[[887,1758],[-9,19]],[[337,499],[7,-6]],[[1542,1048],[45,19]],[[1610,1071],[16,-10]],[[279,329],[1,1],[-1,0],[-1,0],[1,-1]],[[3177,513],[0,1]],[[2372,3730],[-103,29]],[[1746,1009],[-1,-1]],[[1746,1008]],[[1963,1379],[-2,1]],[[336,496],[3,1]],[[2427,2942],[0,1],[-1,0],[1,-1]],[[3374,302],[36,-100],[59,-118]],[[3469,84],[41,-84]],[[3505,0],[-36,84]],[[3469,84],[-98,227]],[[1265,3680],[3,-1]],[[3355,2689],[-19,51]],[[1024,3316],[-11,23],[42,19],[1,1],[39,45]],[[1095,3404],[-4,33]],[[1090,3390],[5,10],[0,4]],[[1095,3404],[-4,33]],[[1091,3437]],[[337,499],[10,8]],[[347,507],[7,10]],[[353,516],[-6,-9]],[[354,518],[-1,-1]],[[390,781],[2,5]],[[866,3123],[21,11],[27,-31],[61,21],[19,-25],[-55,-8]],[[928,3084],[-5,-7]],[[1039,3307],[-15,9]],[[3113,508],[0,-1]],[[3113,502],[41,8]],[[3174,514],[-19,-4]],[[3180,492],[-3,7]],[[3184,489],[-4,2]],[[3187,491],[11,1]],[[3204,491],[4,0]],[[3213,490],[-2,0]],[[3221,492],[-7,-1]],[[3200,412],[-2,-7]],[[2057,461],[5,-6]],[[3212,510],[-2,4]],[[1745,1008],[1,0]],[[1746,1010],[0,-1]],[[1750,1020],[0,-3]],[[3206,530],[-3,47]],[[3206,530],[0,-1]],[[3209,514],[-3,16]],[[3209,490]],[[3302,514],[-11,0],[-20,-4]],[[3272,510],[32,4]],[[3334,509],[12,-1]],[[3346,508],[-11,1]],[[221,267],[-116,-50],[-29,-62],[2,-88]],[[254,592],[30,-54]],[[1676,897],[7,38]],[[1688,963],[18,34]],[[2983,481],[52,9]],[[3269,483],[-26,3]],[[3335,509],[14,-3]],[[3171,513],[5,1]],[[2711,3744],[-132,-133],[-57,10]],[[1044,2625],[25,-30],[-5,-90]],[[389,772],[1,9]],[[3171,513]],[[2814,547],[27,-2]],[[339,503],[-29,-47]],[[341,581],[15,-48]],[[347,508],[6,9]],[[351,518],[2,-1]],[[353,517]],[[1849,1902],[37,82]],[[2236,0],[10,5]],[[2345,230],[-27,65],[27,-19],[-2,23],[40,3]],[[2685,387],[9,-5]],[[2696,383],[18,73]],[[542,1693],[103,-6],[70,57]],[[1593,1784],[270,27],[32,41],[25,184]],[[1747,1008],[0,1]],[[1894,3407],[-33,-88],[7,-106],[53,-133]],[[3725,461],[-273,76]],[[3727,461],[-1,0]],[[3726,460],[1,1]],[[3727,461],[278,22],[91,56]],[[939,3091],[-11,-7]],[[3235,284],[3,1]],[[1769,970],[0,-1]],[[1770,969],[7,-34]],[[775,2585],[12,-14]],[[3317,286],[-19,-1]],[[3317,286],[5,3]],[[3321,288],[-4,-2]],[[3451,536],[212,-56]],[[3218,337],[0,-2]],[[3235,282],[0,-2]],[[1572,3839],[9,42]],[[1586,3909],[4,5]],[[3216,427],[-12,-12]],[[3217,439],[-1,-11]],[[2800,2855],[53,43],[66,-21]],[[2926,2869],[58,-49]],[[3047,2807],[105,9]],[[298,523],[20,-9]],[[328,504],[9,-5]],[[3815,3889],[-110,-39],[-111,-115],[-17,-111],[-64,6],[-32,63],[-357,-182],[-140,103],[-100,-17],[-95,121],[-78,26]],[[3846,3947],[17,18]],[[3291,148],[2,-4]],[[3320,79],[-1,3]],[[0,3649],[1,0]],[[8,3960],[5,3]],[[3643,960],[-1,-3]],[[30,2683],[231,-99],[14,55],[30,-4],[145,-87],[50,63],[7,66],[76,-6],[156,-63]],[[787,2571],[48,11],[13,-24],[74,45],[27,-4],[35,-66],[27,9],[44,100],[63,-43],[70,55],[-20,50]],[[270,281],[-1,0]],[[269,280],[1,-5]],[[2747,2804],[17,-9]],[[2759,2788],[-17,-24],[25,-55],[68,-30]],[[3266,2683],[3,0]],[[3407,2722],[34,-11]],[[3368,521],[0,-1]],[[3369,519],[1,1]],[[3370,521],[1,3]],[[3371,526],[0,17]],[[3372,544],[39,6]],[[3413,551],[-1,1],[-1,-2],[1,-1],[1,2]],[[1973,1377],[-24,41]],[[341,581],[4,10]],[[1045,3719],[45,-7]],[[1707,4096],[-85,-103],[-11,-49]],[[1856,1113],[-2,-2]],[[3412,549],[37,-12]],[[3449,537],[1,-1]],[[1985,2951],[21,2]],[[2053,2963],[68,13]],[[2873,4083],[-10,-14]],[[3321,288],[1,-1]],[[3322,289],[-1,-1]],[[2019,1369],[51,179],[178,95],[84,96],[0,52],[29,-8],[56,55]],[[1852,49],[-9,-30]],[[1866,163],[0,-10]],[[2226,693],[-1,-1]],[[285,375],[26,81]],[[2048,478]],[[3206,529],[0,-4],[2,-10],[2,-2]],[[3210,514],[-1,0]],[[1833,1070],[7,12]],[[1846,1094],[6,13]],[[1854,1110],[1,-1],[1,1],[-2,1],[0,-1]],[[3452,539],[-2,0]],[[3452,538],[0,1]],[[3452,539],[139,35],[124,-56]],[[1777,935],[42,-72],[-11,-30],[99,-143]],[[1750,1017],[2,2]],[[0,3947],[8,13]],[[13,3963],[28,0]],[[392,1233],[13,10]],[[1181,2097],[24,12]],[[375,678],[14,94]],[[3785,2109],[55,33],[12,71],[58,59],[117,71]],[[3212,510],[3,-7]],[[4096,2300],[-69,43]],[[1719,1002],[1,1]],[[1971,2942],[14,9]],[[2006,2953],[47,10]],[[2121,2976],[304,-33]],[[2058,2446],[-32,-33]],[[2927,4096],[-54,-13]],[[3135,4096],[21,-26],[59,26]],[[602,1702],[59,15]],[[3334,509],[1,0]],[[3335,509]],[[3349,506],[1,-1]],[[3350,505],[-1,1]],[[3350,505],[19,-1]],[[3383,507],[3,1]],[[1968,2165],[16,28]],[[1998,2227],[0,3]],[[2019,2315],[1,6]],[[2022,2294],[0,2]],[[2332,2756],[4,4]],[[2387,2829],[27,28]],[[3237,504],[-3,-1]],[[3262,508],[-4,0]],[[2035,3794],[-2,14]],[[2048,478],[9,-17]],[[2661,4096],[152,-70]],[[2030,2656],[0,-1]],[[513,547],[25,-1],[-1,46],[84,-3]],[[1746,1008],[1,0]],[[2866,2638],[-183,-141]],[[2653,2914],[13,-1]],[[2371,3725],[1,0]],[[1064,2505],[-14,-7]],[[1056,2287],[0,19]],[[1791,3883],[-101,2],[-82,46]],[[1869,3880],[-18,3]],[[1750,1020],[-49,-6]],[[1587,1067],[23,4]],[[1626,1061],[13,-9]],[[1851,3883],[-27,49],[-33,-49]],[[1906,3870],[-37,10]],[[1984,3779],[-40,20],[-22,59]],[[468,66],[0,-1]],[[948,3784],[59,-20]],[[1030,3746],[2,-2]],[[3234,503],[-16,-1]],[[3450,538],[-37,12]],[[3198,402],[-1,-1]],[[3217,339],[1,-2]],[[392,786],[1,0]],[[344,493],[1,2]],[[102,3659],[102,26]],[[210,3685],[44,9]],[[263,3697],[152,92],[20,-14]],[[531,3784],[111,-6]],[[897,3795],[51,-11]],[[1090,3712],[81,-28]],[[1294,3665],[3,-4]],[[1341,3665],[54,20],[47,59]],[[1611,3944],[-3,-11]],[[1838,24],[-70,67],[-43,120],[-70,72],[-32,-49],[-41,53],[-41,-8],[-78,35],[57,79],[60,4],[12,61],[-23,89],[70,115],[-17,31],[54,204]],[[1953,1361],[9,17]],[[3235,287],[-9,26]],[[3235,280],[2,-7]],[[1297,3661],[28,-17]],[[3197,401],[20,-62]],[[0,0],[0,4096],[4096,0],[0,-4096],[-4096,0]],[[2092,2438],[182,83],[56,196],[68,74],[310,-30],[61,32],[-57,28],[15,24],[127,-25],[4,74],[64,-18],[33,-59],[77,8],[30,-36],[74,-1],[23,40],[-44,58],[-22,94],[87,-22],[139,28],[52,-34],[30,11],[-51,59],[22,18],[65,-1],[28,-25],[191,77],[100,-69],[-69,-39],[31,-33],[-17,-52],[44,-26],[18,-49],[-26,-78],[-59,41],[-102,-25],[-42,32],[-106,0],[-43,43],[12,-47],[67,-53],[-11,-29],[-129,44],[-66,-5],[24,-34],[-13,-30],[-177,48],[-60,-38],[-358,-23],[57,-48],[-28,-17],[0,-65],[-39,13],[5,-74],[221,123],[196,9],[136,-21],[4,-19],[-178,-23],[-20,-24],[-3,23],[-38,4],[-98,-47],[-76,7],[-27,-39],[-11,15],[-160,-88],[-116,38],[-29,-73],[-48,41],[-38,-12],[4,-197],[-37,-9],[-25,-58],[-75,26],[-14,78],[-38,3],[31,32],[-111,74],[31,31],[23,-18],[15,37],[-21,3],[31,17],[-31,0],[4,24],[-79,3]],[[2343,2495],[125,-41],[84,56],[-50,35],[-153,-23],[-6,-27]],[[2296,2195],[7,-9],[28,21],[-14,11],[-21,-23]],[[2296,2384],[24,-31],[32,34],[-46,20],[-10,-23]],[[91,3899],[20,15],[-17,22],[24,-14],[-11,33],[48,8],[-20,36],[32,51],[12,14],[15,-51],[17,33],[59,16],[9,26],[-24,8],[1140,0],[7,-50],[101,15],[57,-59],[73,-26],[-53,-76],[-11,-70],[-84,-39],[-11,56],[-34,20],[-76,-32],[-31,26],[-81,-72],[-10,60],[-34,-10],[-7,29],[-37,9],[-25,-24],[10,32],[-30,-13],[-18,27],[-15,-18],[-7,38],[-40,24],[2,36],[-48,-25],[-16,33],[-23,-24],[-31,32],[-9,-28],[-31,39],[-43,-23],[-34,44],[-114,-45],[-20,48],[-68,3],[-56,-36],[-71,24],[-67,-56],[-41,35],[6,62],[-160,-52],[-44,-41],[4,-38],[-28,0],[35,-51],[-75,-44],[5,49],[-21,14]],[[94,4096],[-2,-24],[36,10],[-5,-37],[29,11],[-16,-32],[-87,-37],[-9,30],[-40,-32],[0,111],[94,0]],[[1874,0],[-51,0],[55,91],[-14,70],[53,73],[23,-17],[29,32],[-5,-30],[13,16],[11,-27],[59,15],[-20,59],[-26,-8],[4,68],[-33,9],[33,76],[56,26],[2,41],[33,15],[-24,61],[34,-15],[36,32],[14,-16],[23,44],[11,-24],[64,67],[-29,35],[67,48],[35,-70],[46,41],[130,-35],[2,54],[56,28],[14,-23],[51,-1],[41,-70],[136,-46],[11,-72],[57,-93],[-58,-39],[19,-15],[-14,-38],[-110,26],[-82,-31],[-1,-90],[85,-32],[35,21],[14,52],[96,-26],[56,12],[62,-60],[-33,-22],[65,-6],[45,-60],[-86,-21],[-27,22],[-3,-32],[-87,18],[-8,-27],[22,5],[35,-85],[-41,48],[-32,-4],[-25,-70],[-624,0],[5,57],[-124,-1],[-7,27],[-16,-51],[-35,2],[-28,-34],[-95,0]],[[257,935],[95,44],[-13,-11],[57,-33],[-41,-71],[28,-22],[-11,37],[46,66],[16,14],[25,-46],[38,46],[-56,77],[47,9],[-12,32],[36,34],[15,-23],[33,29],[-18,-36],[55,-30],[-16,-36],[30,-36],[33,42],[33,-17],[-7,20],[28,11],[-45,4],[23,19],[28,-16],[-6,-23],[34,25],[-4,-30],[44,8],[-21,38],[32,44],[56,-5],[-27,64],[19,11],[1,4],[-60,20],[25,14],[-8,92],[74,10],[-6,29],[31,9],[36,-18],[-20,-14],[14,-21],[-31,-11],[60,-35],[-18,-122],[77,0],[14,-15],[-22,-62],[77,-20],[-22,-30],[27,-32],[91,15],[34,89],[-87,33],[23,29],[65,-9],[62,93],[45,1],[85,58],[89,-23],[5,-39],[30,-2],[-19,-26],[12,-37],[-35,-18],[-182,24],[19,-48],[-16,-79],[-126,-123],[-61,-24],[26,-35],[-51,-23],[-28,-47],[-86,78],[53,51],[-39,46],[-35,-50],[-29,33],[-30,-11],[-5,46],[-31,-38],[-104,20],[-18,-45],[53,-49],[-85,2],[-32,24],[-25,-50],[68,-58],[11,-51],[-18,-15],[22,-21],[-32,-31],[20,-38],[-99,-35],[4,54],[37,46],[-46,86],[-113,13],[-14,40],[-29,-69],[-69,28],[-44,-32],[0,-34],[-34,-2],[-36,50],[67,93],[-19,38],[-34,-10],[-33,45]],[[94,4096],[-2,-24],[36,10],[-5,-37],[29,11],[-16,-32],[-87,-37],[-9,30],[-40,-32],[0,111],[94,0]],[[461,3323],[9,42],[33,19],[-35,71],[26,68],[31,-18],[-6,46],[34,7],[54,-57],[47,63],[61,-3],[15,23],[144,-32],[19,51],[77,32],[41,112],[161,-71],[96,4],[30,-59],[41,12],[-7,-76],[-161,-154],[14,-12],[-39,0],[-74,-76],[-61,1],[4,-43],[-214,-199],[-45,18],[7,35],[-53,38],[-28,-24],[36,-68],[-109,9],[-104,120],[-10,77],[-34,44]],[[1454,4056],[6,14],[64,26],[870,0],[-51,-55],[-47,7],[-109,-69],[-26,9],[-13,-81],[-89,-54],[12,-46],[-53,2],[-9,-36],[-56,14],[-37,-30],[-54,24],[-54,-47],[-33,29],[-1,50],[-38,5],[-37,-35],[-16,21],[-30,-11],[-33,-38],[-12,-4],[1,67],[-39,22],[-1,-10],[-84,-39],[-11,56],[-34,20],[-76,-32],[-31,26],[-81,-72],[-10,60],[-34,-10],[-7,29],[-37,9],[-25,-24],[10,32],[-30,-13],[-18,27],[-15,-18],[-7,38],[-40,24],[2,36],[-48,-25],[-16,33],[-23,-24],[-31,32],[-9,-28],[-31,39],[-43,-23],[-34,44],[-114,-45],[-20,48],[-68,3],[-56,-36],[-71,24],[-67,-56],[-41,35],[6,62],[-160,-52],[-44,-41],[4,-38],[-28,0],[35,-51],[-75,-44],[5,49],[-21,14],[20,15],[-17,22],[24,-14],[-11,33],[48,8],[-20,36],[32,51],[12,14],[15,-51],[17,33],[59,16],[9,26],[-24,8],[1140,0],[7,-50],[101,15],[-49,-5]],[[1576,3872],[57,104],[-53,-76],[-4,-28]],[[2038,2858],[28,86],[34,23],[92,-15],[-7,-32],[47,9],[-25,-32],[35,-57],[-24,-18],[51,-15],[13,-151],[-59,-114],[-83,-58],[-64,40],[-29,115],[-9,219]],[[247,339],[-19,71],[34,239],[59,48],[38,-8],[83,-57],[-19,-119],[-39,-88],[-58,-58],[-79,-28]],[[1671,924],[-22,83],[81,135],[6,124],[194,-146],[-43,-82],[-64,-50],[-152,-64]],[[2804,1364],[32,0],[0,-49],[32,0],[0,-49],[33,0],[0,-49],[65,0],[64,-97],[-17,-60],[-37,-18],[-161,24],[-11,54],[-108,-31],[-22,31],[11,57],[68,43],[18,46],[-28,56],[-134,-56],[2,58],[103,128],[29,1],[61,-89]],[[3387,0],[-4,0],[-56,55],[-103,235],[-52,-5],[-12,54],[-65,0],[0,48],[-97,-97],[-65,146],[-97,49],[6,69],[123,27],[46,91],[82,-49],[67,9],[1,74],[-67,46],[1,75],[25,-9],[40,58],[88,-52],[41,3],[32,49],[43,-42],[22,-154],[28,-22],[38,-127],[-1,-46],[-124,-44],[-38,-102],[18,-103],[100,-160],[-20,-76]],[[275,536],[28,6],[38,-33],[-13,71],[30,30],[-10,26],[58,-1],[-21,-41],[1,23],[-16,-7],[8,-25],[-30,2],[22,-21],[-7,-36],[32,9],[-6,-27],[-27,5],[3,-25],[22,9],[-3,-41],[-37,1],[27,-43],[-24,-9],[-24,44],[-35,-78],[20,80],[-17,16],[18,-5],[13,39],[-30,-9],[-20,40]],[[1583,1066],[32,9],[31,-27],[39,21],[40,-28],[2,44],[-38,34],[-9,38],[82,-90],[-10,-33],[22,3],[-5,35],[-30,45],[29,14],[-8,-38],[36,-13],[-18,-38],[35,25],[-14,43],[18,-26],[38,13],[-72,-71],[58,45],[22,-19],[-23,-50],[6,20],[-47,14],[15,-28],[-41,-39],[7,-62],[-14,30],[-23,-17],[20,32],[-26,-12],[19,53],[-24,0],[8,-34],[-24,3],[4,41],[-25,-23],[15,-26],[-28,12],[2,-53],[30,-43],[16,10],[-6,-26],[-51,46],[2,56],[-20,-27],[-37,18],[26,-3],[2,37],[30,-1],[8,24],[-70,68],[-31,-6]],[[2993,1319],[96,99],[34,-174],[-36,30],[18,36],[-9,22],[-77,-23],[-13,-35],[-13,45]],[[2639,1056],[42,57],[-34,16],[49,3],[16,84],[79,-40],[-1,-53],[-40,20],[-45,-65],[-66,-22]],[[3087,486],[18,25],[93,17],[5,52],[39,-75],[21,17],[22,-33],[-41,-1],[-65,-118],[-30,97],[47,5],[-21,19],[-43,-34],[-45,29]],[[1922,2590],[40,103],[47,-23],[63,-196],[-63,-65],[-37,-1],[22,56],[-52,48],[-20,78]],[[0,1516],[19,-34],[-14,-11],[-5,0],[0,45]],[[1002,1756],[4,1],[22,-52],[-1,1],[3,-6],[-23,20],[1,-10],[6,-33],[-3,1],[0,-5],[-34,18],[-31,-25],[-2,-2],[-7,8],[-12,13],[-2,-1],[-14,-19],[5,13],[-14,-9],[17,22],[-49,50],[12,45],[112,-12],[10,-18]],[[3925,18],[14,58],[68,25],[36,103],[53,66],[0,-270],[-162,0],[-9,18]]]}