{"objects":{"water":{"type":"GeometryCollection","geometries":[]},"buildings":{"type":"GeometryCollection","geometries":[]},"places":{"type":"GeometryCollection","geometries":[{"type":"Point","properties":{"name:sr":"\u0421\u0435\u0433\u0435\u0434\u0438\u043d","name:ro":"Seghedin","name:ja":"\u30bb\u30b2\u30c9","name:lt":"Segedas","alt_name:de":"Segedin","name:ar":"\u0633\u064a\u062c\u062f","min_zoom":8.0,"name:la":"Partiscum","name:it":"Seghedino","name:uk":"\u0421\u0435\u0433\u0435\u0434","name:ru":"\u0421\u0435\u0433\u0435\u0434","name:pl":"Segedyn","id":30453579,"population":162621,"kind":"locality","name":"Szeged","kind_detail":"city","name:de":"Szegedin","source":"openstreetmap.org"},"coordinates":[1343,768]},{"type":"Point","properties":{"kind":"locality","name:sk":"Ke\u010dkem\u00edt","name":"Kecskem\u00e9t","kind_detail":"city","name:de":"Ketschkemet","source":"openstreetmap.org","min_zoom":8.0,"name:sr":"\u041a\u0435\u0447\u043a\u0435\u043c\u0435\u0442","name:ru":"\u041a\u0435\u0447\u043a\u0435\u043c\u0435\u0442","id":32443002,"population":111724},"coordinates":[15,3536]},{"type":"Point","properties":{"kind":"locality","name:ro":"Bichi\u0219ciaba","name:sk":"B\u00e9ke\u0161sk\u00e1 \u010caba","name":"B\u00e9k\u00e9scsaba","kind_detail":"city","name:de":"Tschabe","source":"openstreetmap.org","min_zoom":8.0,"name:sr":"\u0411\u0435\u043a\u0435\u0448\u0447\u0430\u0431\u0430","name:ru":"\u0411\u0435\u043a\u0435\u0448\u0447\u0430\u0431\u0430","id":32444521,"population":60126},"coordinates":[4075,2591]},{"type":"Point","properties":{"kind":"locality","name:ro":"Ione\u0219ti","name":"H\u00f3dmez\u0151v\u00e1s\u00e1rhely","kind_detail":"town","name:de":"Neumarkt an der Thei\u00df","source":"openstreetmap.org","min_zoom":8.0,"name:ru":"\u0425\u043e\u0434\u043c\u0435\u0437\u0451\u0432\u0430\u0448\u0430\u0440\u0445\u0435\u0439","id":30848697,"population":44401},"coordinates":[1841,1457]},{"type":"Point","properties":{"kind":"locality","name":"Kiskunf\u00e9legyh\u00e1za","kind_detail":"town","name:de":"Feulega\u00df","source":"openstreetmap.org","min_zoom":8.0,"name:ru":"\u041a\u0438\u0448\u043a\u0443\u043d\u0444\u0435\u043b\u0435\u0434\u044c\u0445\u0430\u0437\u0430","id":287005902,"population":29138},"coordinates":[474,2703]},{"type":"Point","properties":{"kind":"locality","name":"Orosh\u00e1za","kind_detail":"town","source":"openstreetmap.org","min_zoom":8.0,"name:ru":"\u041e\u0440\u043e\u0448\u0445\u0430\u0437\u0430","id":31094677,"population":28093},"coordinates":[2860,2063]},{"type":"Point","properties":{"kind":"locality","name":"Szentes","kind_detail":"town","source":"openstreetmap.org","min_zoom":8.0,"name:ru":"\u0421\u0435\u043d\u0442\u0435\u0448","id":286974186,"population":27695},"coordinates":[1658,2453]},{"type":"Point","properties":{"kind":"locality","name:sk":"Ve\u013ek\u00fd Kere\u0161","name":"Nagyk\u0151r\u00f6s","kind_detail":"town","name:de":"Grosskirisch","source":"openstreetmap.org","min_zoom":8.0,"name:ru":"\u041d\u0430\u0434\u044c\u043a\u0451\u0440\u0451\u0448","id":31377320,"population":23589},"coordinates":[288,4084]},{"type":"Point","properties":{"kind":"locality","name:ro":"Mac\u01ceu","name":"Mak\u00f3","kind_detail":"town","name:de":"Makowa","source":"openstreetmap.org","min_zoom":8.0,"name:ru":"\u041c\u0430\u043a\u043e","id":30848692,"population":22747},"coordinates":[2294,601]},{"type":"Point","properties":{"kind":"locality","name":"Mez\u0151t\u00far","kind_detail":"town","name:de":"Thur","source":"openstreetmap.org","min_zoom":8.0,"name:ru":"\u041c\u0435\u0437\u0451\u0442\u0443\u0440","id":268205246,"population":16502},"coordinates":[2745,3928]},{"type":"Point","properties":{"kind":"locality","name":"Csongr\u00e1d","kind_detail":"town","name:de":"Tschongrad","source":"openstreetmap.org","min_zoom":8.0,"name:ru":"\u0427\u043e\u043d\u0433\u0440\u0430\u0434","id":286972968,"population":16277},"coordinates":[1335,2696]},{"type":"Point","properties":{"kind":"locality","name:sk":"Sarva\u0161","name":"Szarvas","kind_detail":"town","name:de":"Hirschfeld","source":"openstreetmap.org","min_zoom":8.0,"name:ru":"\u0421\u0430\u0440\u0432\u0430\u0448","id":75716568,"population":16044},"coordinates":[2518,3342]},{"type":"Point","properties":{"source":"openstreetmap.org","kind":"locality","name":"Gyomaendr\u0151d","kind_detail":"town","population":13133,"min_zoom":8.0,"id":286990172},"coordinates":[3316,3654]},{"type":"Point","properties":{"kind":"locality","name":"Tiszak\u00e9cske","kind_detail":"town","source":"openstreetmap.org","min_zoom":8.0,"name:ru":"\u0422\u0438\u0441\u0430\u043a\u0435\u0447\u043a\u0435","id":287008438,"population":11743},"coordinates":[1215,3636]},{"type":"Point","properties":{"kind":"locality","name":"Pecica","kind_detail":"town","name:de":"Petschka","source":"openstreetmap.org","min_zoom":8.0,"name:uk":"\u041f\u0435\u0447\u0438\u043a\u0430","name:hu":"P\u00e9cska","id":34088253,"population":11472},"coordinates":[4017,396]},{"type":"Point","properties":{"kind":"locality","name":"Kiskunmajsa","kind_detail":"town","source":"openstreetmap.org","min_zoom":8.0,"name:ru":"\u041a\u0438\u0448\u043a\u0443\u043d\u043c\u0430\u0439\u0448\u0430","id":287005373,"population":11216},"coordinates":[151,1768]},{"type":"Point","properties":{"kind":"locality","name":"Tiszaf\u00f6ldv\u00e1r","kind_detail":"town","source":"openstreetmap.org","min_zoom":8.0,"name:ru":"\u0422\u0438\u0441\u0430\u0444\u0451\u043b\u044c\u0434\u0432\u0430\u0440","id":84775644,"population":10741},"coordinates":[1650,3843]},{"type":"Point","properties":{"kind":"locality","name:sk":"Po\u013en\u00fd Berin\u010dok","name":"Mez\u0151ber\u00e9ny","kind_detail":"town","name:de":"Maisbr\u00fcnn","source":"openstreetmap.org","min_zoom":8.0,"name:ru":"\u041c\u0435\u0437\u0451\u0431\u0435\u0440\u0435\u043d\u044c","id":268205542,"population":10148},"coordinates":[3910,3184]},{"type":"Point","properties":{"kind":"locality","name:sk":"Nadlak","name":"N\u0103dlac","kind_detail":"town","name:de":"Nadlak","source":"openstreetmap.org","min_zoom":8.0,"name:sr":"\u041d\u0430\u0434\u043b\u0430\u043a","name:uk":"\u041d\u0435\u0434\u043b\u0430\u043a","name:hu":"Nagylak","id":34088260,"population":8458},"coordinates":[3095,396]},{"type":"Point","properties":{"kind":"locality","name":"Kunszentm\u00e1rton","kind_detail":"town","source":"openstreetmap.org","min_zoom":8.0,"name:ru":"\u041a\u0443\u043d\u0441\u0435\u043d\u0442\u043c\u0430\u0440\u0442\u043e\u043d","id":84774706,"population":8324},"coordinates":[1757,3248]},{"type":"Point","properties":{"kind":"locality","name":"S\u00e1ndorfalva","kind_detail":"town","source":"openstreetmap.org","min_zoom":8.0,"name:ru":"\u0428\u0430\u043d\u0434\u043e\u0440\u0444\u0430\u043b\u044c\u0432\u0430","id":286973106,"population":7772},"coordinates":[1214,1239]},{"type":"Point","properties":{"kind":"locality","name":"D\u00e9vav\u00e1nya","kind_detail":"town","source":"openstreetmap.org","min_zoom":8.0,"name:ru":"\u0414\u0435\u0432\u0430\u043d\u044c\u044f","id":286995352,"population":7747},"coordinates":[3713,4059]},{"type":"Point","properties":{"kind":"locality","name":"Kistelek","kind_detail":"town","source":"openstreetmap.org","min_zoom":8.0,"name:ru":"\u041a\u0438\u0448\u0442\u0435\u043b\u0435\u043a","id":286973656,"population":6968},"coordinates":[855,1683]},{"type":"Point","properties":{"kind":"locality","name":"Mindszent","kind_detail":"town","source":"openstreetmap.org","min_zoom":8.0,"name:ru":"\u041c\u0438\u043d\u0434\u0441\u0435\u043d\u0442","name:hr":"Micenta","id":286973296,"population":6674},"coordinates":[1453,1910]},{"type":"Point","properties":{"kind":"locality","name":"Martf\u0171","kind_detail":"town","source":"openstreetmap.org","min_zoom":8.0,"name:ru":"\u041c\u0430\u0440\u0442\u0444\u044e","id":84776496,"population":6237},"coordinates":[1730,4005]},{"type":"Point","properties":{"kind":"locality","name":"Mez\u0151kov\u00e1csh\u00e1za","kind_detail":"town","source":"openstreetmap.org","min_zoom":8.0,"name:ru":"\u041c\u0435\u0437\u0451\u0445\u043e\u0432\u0430\u0447\u0445\u0430\u0437\u0430","id":286991898,"population":6059},"coordinates":[3576,1421]},{"type":"Point","properties":{"kind":"locality","name":"M\u00f3rahalom","kind_detail":"town","name:sr":"\u041c\u043e\u0440\u0430\u0445\u0430\u043b\u043e\u043c","source":"openstreetmap.org","min_zoom":8.0,"name:ru":"\u041c\u043e\u0440\u0430\u0445\u0430\u043b\u043e\u043c","name:hr":"Ralma","id":30848800,"population":6017},"coordinates":[588,606]},{"type":"Point","properties":{"kind":"locality","name:sk":"Slovensk\u00fd Koml\u00f3\u0161","name":"T\u00f3tkoml\u00f3s","kind_detail":"town","source":"openstreetmap.org","min_zoom":8.0,"name:ru":"\u0422\u043e\u0442\u043a\u043e\u043c\u043b\u043e\u0448","id":286991019,"population":5902},"coordinates":[3064,1439]},{"type":"Point","properties":{"kind":"locality","name:ro":"B\u0103tania","name":"Battonya","kind_detail":"town","name:sr":"\u0411\u0430\u0442\u0430\u045a\u0430","source":"openstreetmap.org","min_zoom":8.0,"name:ru":"\u0411\u0430\u0442\u0442\u043e\u043d\u044c\u044f","name:hr":"Batanja","id":286994582,"population":5835},"coordinates":[3885,920]},{"type":"Point","properties":{"kind":"locality","name":"Mez\u0151hegyes","kind_detail":"town","source":"openstreetmap.org","min_zoom":8.0,"name:ru":"\u041c\u0435\u0437\u0451\u0445\u0435\u0434\u044c\u0435\u0448","id":286991190,"population":5274},"coordinates":[3291,1028]},{"type":"Point","properties":{"kind":"locality","name":"\u00dajk\u00edgy\u00f3s","kind_detail":"town","source":"openstreetmap.org","min_zoom":8.0,"name:ru":"\u0423\u0439\u043a\u0438\u0434\u044c\u043e\u0448","id":354700473,"population":5009},"coordinates":[3896,2211]},{"type":"Point","properties":{"kind":"locality","name":"Kondoros","kind_detail":"town","source":"openstreetmap.org","min_zoom":8.0,"name:ru":"\u041a\u043e\u043d\u0434\u043e\u0440\u043e\u0448","id":75716773,"population":4898},"coordinates":[3226,2909]},{"type":"Point","properties":{"kind":"locality","name:ro":"Ciorva\u0219","name":"Csorv\u00e1s","kind_detail":"town","source":"openstreetmap.org","min_zoom":8.0,"name:ru":"\u0427\u043e\u0440\u0432\u0430\u0448","id":286990297,"population":4789},"coordinates":[3342,2379]},{"type":"Point","properties":{"kind":"locality","name":"K\u00f6r\u00f6slad\u00e1ny","kind_detail":"town","source":"openstreetmap.org","min_zoom":8.0,"name:ru":"\u041a\u0451\u0440\u0451\u0448\u043b\u0430\u0434\u0430\u043d\u044c","id":286992616,"population":4476},"coordinates":[4048,3764]},{"type":"Point","properties":{"kind":"locality","name:sk":"Mede\u0161","name":"Medgyesegyh\u00e1za","kind_detail":"town","source":"openstreetmap.org","min_zoom":8.0,"name:ru":"\u041c\u0435\u0434\u0434\u044c\u0435\u0448\u0435\u0434\u044c\u0445\u0430\u0437\u0430","id":354700463,"population":3527},"coordinates":[3905,1800]},{"type":"Point","properties":{"kind":"locality","name":"Csan\u00e1dpalota","kind_detail":"town","source":"openstreetmap.org","min_zoom":8.0,"name:ru":"\u0427\u0430\u043d\u0430\u0434\u043f\u0430\u043b\u043e\u0442\u0430","id":354693572,"population":2801},"coordinates":[3017,724]}]},"transit":{"type":"GeometryCollection","geometries":[{"type":"LineString","properties":{"kind":"train","name":"S220: Tiszak\u00e9cske => Szolnok","sort_rank":275,"source":"openstreetmap.org","min_zoom":6.0,"operator":"M\u00c1V-Start","ref":"S220","id":-5189482,"osm_relation":true},"arcs":[9]},{"type":"LineString","properties":{"kind":"train","name":"S220: Tiszak\u00e9cske => Lakitelek => Kecskem\u00e9t","sort_rank":275,"source":"openstreetmap.org","min_zoom":6.0,"operator":"M\u00c1V-Start","ref":"S220","id":-5189481,"osm_relation":true},"arcs":[10]},{"type":"LineString","properties":{"kind":"train","name":"S220: Kecskem\u00e9t => Lakitelek => Tiszak\u00e9cske => Szolnok","sort_rank":275,"source":"openstreetmap.org","min_zoom":6.0,"operator":"M\u00c1V-Start","ref":"S220","id":-5189475,"osm_relation":true},"arcs":[11]},{"type":"MultiLineString","properties":{"kind":"train","name":"125: Mez\u0151t\u00far\u2013Orosh\u00e1za\u2013Mez\u0151hegyes\u2013Battonya","sort_rank":275,"source":"openstreetmap.org","min_zoom":6.0,"operator":"M\u00c1V","ref":"125","osm_relation":true},"arcs":[[12],[13]]},{"type":"LineString","properties":{"kind":"train","name":"S210: Kecskem\u00e9t => Lajosmizse","sort_rank":275,"source":"openstreetmap.org","min_zoom":6.0,"operator":"M\u00c1V-Start","ref":"S210","id":-4522096,"osm_relation":true},"arcs":[14]},{"type":"LineString","properties":{"kind":"train","name":"128: B\u00e9k\u00e9scsaba\u2013K\u00f6tegy\u00e1n\u2013V\u00e9szt\u0151\u2013P\u00fcsp\u00f6klad\u00e1ny","sort_rank":275,"source":"openstreetmap.org","min_zoom":6.0,"operator":"M\u00c1V","ref":"128","osm_relation":true},"arcs":[15]},{"type":"MultiLineString","properties":{"kind":"train","name":"120: Szolnok\u2013B\u00e9k\u00e9scsaba\u2013L\u0151k\u00f6sh\u00e1za","sort_rank":275,"source":"openstreetmap.org","min_zoom":6.0,"operator":"M\u00c1V","ref":"120","osm_relation":true},"arcs":[[16],[17]]},{"type":"LineString","properties":{"kind":"train","name":"S210: Lajosmizse => Kecskem\u00e9t","sort_rank":275,"source":"openstreetmap.org","min_zoom":6.0,"operator":"M\u00c1V-Start","ref":"S210","id":-4522097,"osm_relation":true},"arcs":[18]},{"type":"LineString","properties":{"kind":"train","name":"S20: Budapest-Nyugati => Szeged","service":"commuter","sort_rank":275,"source":"openstreetmap.org","min_zoom":6.0,"operator":"M\u00c1V-Start","ref":"S20","osm_relation":true},"arcs":[19]},{"type":"LineString","properties":{"kind":"train","name:en":"Belgrade - Subotica","name":"\u0411\u0435\u043e\u0433\u0440\u0430\u0434 - \u0421\u0443\u0431\u043e\u0442\u0438\u0446\u0430","sort_rank":275,"name:de":"Belgrad - Subotica","source":"openstreetmap.org","min_zoom":6.0,"ref":"2400;2402;2404","osm_relation":true},"arcs":[20]},{"type":"LineString","properties":{"kind":"train","name":"155:Kiskunhalas\u2013Kiskunf\u00e9legyh\u00e1za","sort_rank":275,"source":"openstreetmap.org","min_zoom":6.0,"operator":"M\u00c1V","ref":"155","id":-240969,"osm_relation":true},"arcs":[21]},{"type":"LineString","properties":{"kind":"train","name":"S220: Szolnok => Tiszak\u00e9cske","sort_rank":275,"source":"openstreetmap.org","min_zoom":6.0,"operator":"M\u00c1V-Start","ref":"S220","id":-5189480,"osm_relation":true},"arcs":[22]},{"type":"LineString","properties":{"kind":"train","name":"S220: Kecskem\u00e9t => Lakitelek => Tiszak\u00e9cske => Piroska => Szolnok","sort_rank":275,"source":"openstreetmap.org","min_zoom":6.0,"operator":"M\u00c1V-Start","ref":"S220","id":-5189474,"osm_relation":true},"arcs":[23]},{"type":"LineString","properties":{"kind":"train","name":"S220: Lakitelek => Kecskem\u00e9t","sort_rank":275,"source":"openstreetmap.org","min_zoom":6.0,"operator":"M\u00c1V-Start","ref":"S220","id":-5189476,"osm_relation":true},"arcs":[24]},{"type":"MultiLineString","properties":{"source":"openstreetmap.org","kind":"train","osm_relation":true,"sort_rank":275,"ref":"147","min_zoom":6.0,"operator":"M\u00c1V"},"arcs":[[25],[26]]},{"type":"LineString","properties":{"kind":"train","name":"S220: Szolnok => Piroska => Tiszak\u00e9cske => Lakitelek => Kecskem\u00e9t","sort_rank":275,"source":"openstreetmap.org","min_zoom":6.0,"operator":"M\u00c1V-Start","ref":"S220","id":-5189478,"osm_relation":true},"arcs":[27]},{"type":"MultiLineString","properties":{"kind":"train","name":"135: Szeged\u2013B\u00e9k\u00e9scsaba","sort_rank":275,"source":"openstreetmap.org","min_zoom":6.0,"operator":"M\u00c1V","ref":"135","osm_relation":true},"arcs":[[28],[29]]},{"type":"LineString","properties":{"kind":"train","name":"S220: Szolnok => Tiszak\u00e9cske => Lakitelek => Kecskem\u00e9t","sort_rank":275,"source":"openstreetmap.org","min_zoom":6.0,"operator":"M\u00c1V-Start","ref":"S220","id":-5189479,"osm_relation":true},"arcs":[30]},{"type":"LineString","properties":{"kind":"train","name":"S220: Lakitelek => Tiszak\u00e9cske => Piroska => Szolnok","sort_rank":275,"source":"openstreetmap.org","min_zoom":6.0,"operator":"M\u00c1V-Start","ref":"S220","id":-5189477,"osm_relation":true},"arcs":[31]}]},"pois":{"type":"GeometryCollection","geometries":[]},"boundaries":{"type":"GeometryCollection","geometries":[{"type":"LineString","properties":{"name:right:yo":"Rom\u00e1n\u00ed\u00e0","name:right:yi":"\u05e8\u05d5\u05de\u05e2\u05e0\u05d9\u05e2","name:left:la":"Serbia","name:right:qu":"Rumanya","name:left:li":"Servi\u00eb","name:left:vi":"Serbia","name:left:sw":"Serbia","name:left:kg":"Serbie","name:left:ka":"\u10e1\u10d4\u10e0\u10d1\u10d4\u10d7\u10d8","name:left:kl":"Serbia","name:left:ko":"\uc138\ub974\ube44\uc544","name:right:it":"Romania","name:right:is":"R\u00famen\u00eda","name:right:rw":"Romaniya","name:left:kk":"\u0421\u0435\u0440\u0431\u0438\u044f","name:left:rm":"Serbia","name:left:ku":"Serbistan","name:left:kw":"Serbi","name:left:kv":"\u0421\u0435\u0440\u0431\u0438\u044f","name:left:rw":"Seribiya","name:left:ru":"\u0421\u0435\u0440\u0431\u0438\u044f","name:right:ie":"Rumania","name:right:id":"Rumania","name:left:ky":"\u0421\u0435\u0440\u0431\u0438\u044f","name:right:ia":"Romania","name:right:bi":"Romania","name:right:bn":"\u09b0\u09cb\u09ae\u09be\u09a8\u09bf\u09af\u09bc\u09be","name:right:bo":"\u0f62\u0f7c\u0f0b\u0f58\u0f0b\u0f53\u0f72\u0f0b\u0f61\u0f0d","name:left:sl":"Srbija","name:right:ba":"\u0420\u0443\u043c\u044b\u043d\u0438\u044f","name:right:bg":"\u0420\u0443\u043c\u044a\u043d\u0438\u044f","name:right:be":"\u0420\u0443\u043c\u044b\u043d\u0456\u044f","name:right:br":"Roumania","name:right:bs":"Rumunija","name:right:nn":"Romania","name:right:no":"Romania","name:right:nl":"Roemeni\u00eb","name:right:wa":"Roumaneye","name:left:lv":"Serbija","name:right:wo":"Romaani","name:right:ne":"\u0930\u094b\u092e\u093e\u0928\u093f\u092f\u093e","name:right:na":"Romania","name:right:gv":"Yn Romaan","name:right:nv":"Woom\u00e9iniya","name:left:mg":"Serbia","kind_detail":"2","name:left:tr":"S\u0131rbistan","name:right:gu":"\u0ab0\u0acb\u0aae\u0abe\u0aa8\u0abf\u0aaf\u0abe","name:left:ty":"Terepia","name:right:ps":"\u0631\u0648\u0645\u0627\u0646\u06cc\u0627","name:right:pt":"Rom\u00e9nia","name:left:mi":"Serbia","name:left:tt":"\u0421\u0435\u0440\u0431\u0438\u044f","name:left:mn":"\u0421\u0435\u0440\u0431\u0438","name:left:tw":"Serbia","name:left:th":"\u0e1b\u0e23\u0e30\u0e40\u0e17\u0e28\u0e40\u0e0b\u0e2d\u0e23\u0e4c\u0e40\u0e1a\u0e35\u0e22","name:right:pa":"\u0a30\u0a4b\u0a2e\u0a3e\u0a28\u0a40\u0a06","name:left:tk":"Serbi\u00fda","name:left:tl":"Serbiya","name:left:mt":"Serbja","name:right:gl":"Roman\u00eda","name:left:my":"\u1006\u102c\u1038\u1018\u102e\u1038\u101a\u102c\u1038\u1014\u102d\u102f\u1004\u103a\u1004\u1036","name:right:gn":"Rruma\u00f1a","name:right:pl":"Rumunia","name:left:te":"\u0c38\u0c46\u0c30\u0c4d\u0c2c\u0c3f\u0c2f\u0c3e","name:left:tg":"\u0421\u0435\u0440\u0431\u0438\u044f","name:left:ms":"Serbia","name:left:mr":"\u0938\u0930\u094d\u092c\u093f\u092f\u093e","name:right:tr":"Romanya","name:left:da":"Serbien","name:left:de":"Serbien","name:right:ga":"An R\u00f3m\u00e1in","name:left:dv":"\u0790\u07a7\u0784\u07a8\u0787\u07a7","name:right:ug":"Ruminiye","name:left:hi":"\u0938\u0930\u094d\u092c\u093f\u092f\u093e","name:right:lb":"Rum\u00e4nien","name:right:uk":"\u0420\u0443\u043c\u0443\u043d\u0456\u044f","name:left:he":"\u05e1\u05e8\u05d1\u05d9\u05d4","name:right:ln":"Rumania","name:right:li":"Roemeni\u00eb","name:right:lt":"Rumunija","name:right:ur":"\u0631\u0648\u0645\u0627\u0646\u06cc\u06c1","name:right:lv":"Rum\u0101nija","name:left:hy":"\u054d\u0565\u0580\u0562\u056b\u0561","name:left:ta":"\u0b9a\u0bc6\u0bb0\u0bcd\u0baa\u0bbf\u0baf\u0bbe","name:left:ht":"S\u00e8bi","name:left:hu":"Szerbia","name:left:hr":"Srbija","sort_rank":262,"name:right:gd":"Rom\u00e0inia","name:right:os":"\u0420\u0443\u043c\u044b\u043d\u0438","name:right:es":"Ruman\u00eda","name:right:sr":"\u0420\u0443\u043c\u0443\u043d\u0438\u0458\u0430","name:right:eu":"Errumania","name:right:et":"Rumeenia","name:left:os":"\u0421\u0435\u0440\u0431\u0438","name:left:or":"\u0b38\u0b30\u0b4d\u0b2c\u0b3f\u0b06","name:right:ee":"Romania","name:left:vo":"S\u00e4rb\u00e4n","name:left:oc":"Serbia","name:right:eo":"Rumanujo","name:right:en":"Romania","name:right:el":"\u03a1\u03bf\u03c5\u03bc\u03b1\u03bd\u03af\u03b1","name:left:fa":"\u0635\u0631\u0628\u0633\u062a\u0627\u0646","name:left:fo":"Serbia","name:right:sk":"Rumunsko","name:left:fi":"Serbia","name:left:fr":"Serbie","name:left:cs":"Srbsko","name:right:jv":"Rumania","name:left:fy":"Servje","name:right:ja":"\u30eb\u30fc\u30de\u30cb\u30a2","name:right:sq":"Rumania","name:right:ss":"IRomaniya","name:left:ja":"\u30bb\u30eb\u30d3\u30a2","name:right:su":"Romania","name:right:sw":"Romania","name:right:sv":"Rum\u00e4nien","name:right:si":"\u0dbb\u0dd4\u0db8\u0dda\u0db1\u0dd2\u0dba\u0dcf\u0dc0","name:right:sh":"Rumunija","name:left:qu":"Sirbya","name:right:sm":"Romania","name:right:sl":"Romunija","name:right:so":"Romania","name:right:sc":"Romania","name:left:jv":"Serbia","id":-1741311,"name:right:co":"Romania","name:right:ca":"Romania","name:right:se":"Rom\u00e1nia","name:right:ce":"\u0420\u0443\u043c\u044b\u043d\u0438","name:right:cy":"Rwmania","name:right:zh-yue":"\u7f85\u99ac\u5c3c\u4e9e","name:right:cs":"Rumunsko","name:right:cu":"\u0420\u043e\u0443\u043c\ua651\u043d\u0457\ua657","name:right:cv":"\u0420\u0443\u043c\u044b\u043d\u0438","name:left:ar":"\u0635\u0631\u0628\u064a\u0627","name:left:az":"Serbiya","name:left:ay":"Sirwiya","name:left:ro":"Serbia","name:left:af":"Serwi\u00eb","name:left:an":"Serbia","name:left:am":"\u1230\u122d\u1262\u12eb","name:right:ru":"\u0420\u0443\u043c\u044b\u043d\u0438\u044f","name:right:io":"Rumania","name:left:zh-yue":"\u585e\u723e\u7dad\u4e9e","name:right:hy":"\u054c\u0578\u0582\u0574\u056b\u0576\u056b\u0561","name:left:lb":"Serbien","alt_name:left:eo":"Serbio","name:left:su":"S\u00e9rbia","name:left:st":"Serbia","name:right:hr":"Rumunjska","name:left:sv":"Serbien","name:left:sq":"Serbia","name:right:hu":"Rom\u00e1nia","name:left:ln":"Serbia","name:left:sm":"Serbia","name:right:hi":"\u0930\u094b\u092e\u093e\u0928\u093f\u092f\u093e","name:left:so":"Serbia","name:left:lt":"Serbija","name:left:sh":"Srbija","name:left:sk":"Srbsko","name:left:se":"Serbia","name:left:sa":"\u0938\u0930\u094d\u092c\u093f\u092f\u093e","name:right:he":"\u05e8\u05d5\u05de\u05e0\u05d9\u05d4","name:left:sc":"S\u00e8rbia","name:right:la":"Romania","name:right:af":"Roemeni\u00eb","name:left:co":"Serbia","name:left:ce":"\u0421\u0435\u0440\u0431\u0438","name:right:an":"Ruman\u00eda","name:right:am":"\u122e\u121b\u1295\u12eb","name:left:ca":"S\u00e8rbia","source":"openstreetmap.org","name:left:cy":"Serbia","name:right:ar":"\u0631\u0648\u0645\u0627\u0646\u064a\u0627","name:left:cu":"\u0421\u0440\u044c\u0431\u0457\ua657","name:left:cv":"\u0421\u0435\u0440\u0431\u0438","name:right:az":"Rum\u0131niya","name:right:ay":"Rumanya","name:right:rm":"Rumenia","name":"\u0421\u0440\u0431\u0438\u0458\u0430 - Rom\u00e2nia","name:left:zu":"ISerbiya","name:left:zh":"\u585e\u723e\u7dad\u4e9e","name:right:zh":"\u7f85\u99ac\u5c3c\u4e9e","official_name:left":"\u0420\u0435\u043f\u0443\u0431\u043b\u0438\u043a\u0430 \u0421\u0440\u0431\u0438\u0458\u0430","name:left:uz":"Serbiya","name:right:fr":"Roumanie","name:left:ur":"\u0633\u0631\u0628\u06cc\u0627","id:right":-90689,"name:left:uk":"\u0421\u0435\u0440\u0431\u0456\u044f","name:left:no":"Serbia","name:left:nl":"Servi\u00eb","alt_name:right:eo":"Rumanio","name:right:fa":"\u0631\u0648\u0645\u0627\u0646\u06cc","name:right:fo":"Rumenia","name:left:ne":"\u0938\u0930\u094d\u092c\u093f\u092f\u093e","name:left:ug":"S\u00e9rbiye","name:left:na":"Terbiya","name:left:ml":"\u0d38\u0d46\u0d7c\u0d2c\u0d3f\u0d2f","name:left:eo":"Serbujo","name:left:en":"Serbia","name:left:el":"\u03a3\u03b5\u03c1\u03b2\u03af\u03b1","name:left:ee":"Serbia","name:left:pl":"Serbia","name:left:es":"Serbia","name:left:ss":"ISebhiya","name:left:ie":"Serbia","name:left:eu":"Serbia","name:left:et":"Serbia","name:right:oc":"Romania","name:right:ko":"\ub8e8\ub9c8\ub2c8\uc544","name:right:uz":"Ruminiya","osm_relation":true,"name:right:or":"\u0b30\u0b4b\u0b2e\u0b3e\u0b28\u0b3f\u0b06","name:left:pt":"S\u00e9rvia","name:right:ku":"Romanya","name:right:tk":"Rumyni\u00fda","name:left:gl":"Serbia","min_zoom":8.0,"name:left:zh-min-nan":"Srbija","name:left:wo":"Seerbi","name:left:ga":"An tSeirbia","name:left:it":"Serbia","name:left:gd":"An t-S\u00e8irb","int_name:right":"Romania","name:left:gn":"Sevia","name:left:gv":"Yn Serb","name:left":"\u0421\u0440\u0431\u0438\u0458\u0430","name:right:mk":"\u0420\u043e\u043c\u0430\u043d\u0438\u0458\u0430","name:right:mi":"Romeinia","name:right:mn":"\u0420\u0443\u043c\u044b\u043d","name:right:ml":"\u0d31\u0d4a\u0d2e\u0d3e\u0d28\u0d3f\u0d2f","name:right:vo":"Rum\u00e4n","name:right:vi":"Romania","name:right:my":"\u101b\u102d\u102f\u1019\u1031\u1038\u1014\u102e\u1038\u101a\u102c\u1038\u1014\u102d\u102f\u1004\u103a\u1004\u1036","name:right:ms":"Romania","name:right:mr":"\u0930\u094b\u092e\u0947\u0928\u093f\u092f\u093e","name:right:fy":"Roemeenje","name:right:mt":"Rumanija","name:left:nn":"Serbia","kind":"country","name:left:br":"Serbia","name:left:bs":"Srbija","int_name:left":"Serbia","name:left:ba":"\u0421\u0435\u0440\u0431\u0438\u044f","name:left:bg":"\u0421\u044a\u0440\u0431\u0438\u044f","name:right:kv":"\u0420\u0443\u043c\u044b\u043d\u0438\u044f","name:left:be":"\u0421\u0435\u0440\u0431\u0456\u044f","name:left:bi":"Serbia","name:left:bn":"\u09b8\u09be\u09b0\u09cd\u09ac\u09bf\u09af\u09bc\u09be","name:left:bo":"\u0f66\u0f7a\u0f62\u0f0b\u0f56\u0fb7\u0f72\u0f0b\u0f61\u0f0d","name:right":"Rom\u00e2nia","name:left:yo":"S\u00e9rb\u00ed\u00e0","name:left:yi":"\u05e1\u05e2\u05e8\u05d1\u05d9\u05e2","id:left":-1741311,"name:right:fi":"Romania","name:right:ka":"\u10e0\u10e3\u10db\u10d8\u10dc\u10d4\u10d7\u10d8","name:left:io":"Serbia","name:left:pa":"\u0a38\u0a30\u0a2c\u0a40\u0a06","name:right:kg":"Romania","name:right:tt":"\u0420\u0443\u043c\u044b\u043d\u0438\u044f","name:right:kk":"\u0420\u0443\u043c\u044b\u043d\u0438\u044f","name:left:id":"Serbia","name:right:kl":"Rum\u00e6nia","name:left:ia":"Serbia","name:right:kn":"\u0cb0\u0cca\u0cae\u0cbe\u0ca8\u0cbf\u0caf","name:right:tl":"Rumanya","name:right:th":"\u0e1b\u0e23\u0e30\u0e40\u0e17\u0e28\u0e42\u0e23\u0e21\u0e32\u0e40\u0e19\u0e35\u0e22","name:right:kw":"Roumani","name:left:ps":"\u0633\u0631\u0628\u064a\u0627","name:right:ky":"\u0420\u0443\u043c\u044b\u043d\u0438\u044f","name:right:te":"\u0c30\u0c4a\u0c2e\u0c47\u0c28\u0c3f\u0c2f\u0c3e","name:right:tg":"\u0420\u0443\u043c\u0438\u043d\u0438\u044f","name:left:is":"Serb\u00eda","name:right:ta":"\u0b89\u0bb0\u0bc1\u0bae\u0bc7\u0ba9\u0bbf\u0baf\u0bbe","name:right:de":"Rum\u00e4nien","name:right:da":"Rum\u00e6nien","name:right:dv":"\u0783\u07aa\u0789\u07ad\u0782\u07a8\u0787\u07a7","name:right:ht":"Woumani"},"arcs":[0]},{"type":"LineString","properties":{"name:right:yo":"H\u00fang\u00e1r\u00ec","name:right:yi":"\u05d0\u05d5\u05e0\u05d2\u05d0\u05e8\u05df","name:left:la":"Serbia","name:right:qu":"Unriya","name:left:li":"Servi\u00eb","name:left:vi":"Serbia","name:left:sw":"Serbia","name:left:kg":"Serbie","name:left:ka":"\u10e1\u10d4\u10e0\u10d1\u10d4\u10d7\u10d8","name:left:kl":"Serbia","name:left:ko":"\uc138\ub974\ube44\uc544","name:right:it":"Ungheria","name:right:is":"Ungverjaland","name:right:rw":"Hongiriya","name:left:kk":"\u0421\u0435\u0440\u0431\u0438\u044f","name:left:rm":"Serbia","name:left:ku":"Serbistan","name:left:kw":"Serbi","name:left:kv":"\u0421\u0435\u0440\u0431\u0438\u044f","name:left:pl":"Serbia","name:left:rw":"Seribiya","name:left:ru":"\u0421\u0435\u0440\u0431\u0438\u044f","name:right:ie":"Hungaria","name:right:id":"Hongaria","name:left:ky":"\u0421\u0435\u0440\u0431\u0438\u044f","name:right:ia":"Hungaria","name:right:bi":"Hungary","name:right:bn":"\u09b9\u09be\u0999\u09cd\u0997\u09c7\u09b0\u09bf","name:right:bo":"\u0f67\u0f74\u0f44\u0f0b\u0f42\u0fb7\u0f0b\u0f62\u0f72\u0f0d","name:left:sl":"Srbija","name:right:ba":"\u0412\u0435\u043d\u0433\u0440\u0438\u044f","name:right:bg":"\u0423\u043d\u0433\u0430\u0440\u0438\u044f","name:right:be":"\u0412\u0435\u043d\u0433\u0440\u044b\u044f","name:right:br":"Hungaria","name:right:bs":"Ma\u0111arska","name:right:nn":"Ungarn","name:right:no":"Ungern","name:right:nl":"Hongarije","name:left:lv":"Serbija","name:right:wo":"Ongiri","name:right:ne":"\u0939\u0902\u0917\u0947\u0930\u0940","name:right:na":"Ungari","name:right:ps":"\u0647\u0646\u06ab\u0631\u064a","name:right:nv":"H\u00e1ngewii","name:left:mg":"Serbia","kind_detail":"2","name:left:tr":"S\u0131rbistan","name:right:gu":"\u0ab9\u0a82\u0a97\u0ac7\u0ab0\u0ac0","name:left:ty":"Terepia","name:right:gv":"Yn Ungaar","name:right:pt":"Hungria","name:left:mi":"Serbia","name:left:tt":"\u0421\u0435\u0440\u0431\u0438\u044f","name:left:mn":"\u0421\u0435\u0440\u0431\u0438","name:left:tw":"Serbia","name:left:th":"\u0e1b\u0e23\u0e30\u0e40\u0e17\u0e28\u0e40\u0e0b\u0e2d\u0e23\u0e4c\u0e40\u0e1a\u0e35\u0e22","name:right:pa":"\u0a39\u0a70\u0a17\u0a30\u0a40","name:left:tk":"Serbi\u00fda","name:left:tl":"Serbiya","name:left:mt":"Serbja","name:right:gl":"Hungr\u00eda - Magyarorsz\u00e1g","name:left:my":"\u1006\u102c\u1038\u1018\u102e\u1038\u101a\u102c\u1038\u1014\u102d\u102f\u1004\u103a\u1004\u1036","name:right:gn":"Hungyria","name:right:pl":"W\u0119gry","name:left:te":"\u0c38\u0c46\u0c30\u0c4d\u0c2c\u0c3f\u0c2f\u0c3e","name:left:tg":"\u0421\u0435\u0440\u0431\u0438\u044f","name:left:ms":"Serbia","name:left:mr":"\u0938\u0930\u094d\u092c\u093f\u092f\u093e","name:right:tr":"Macaristan","name:left:da":"Serbien","name:left:de":"Serbien","name:right:ga":"An Ung\u00e1ir","name:left:dv":"\u0790\u07a7\u0784\u07a8\u0787\u07a7","name:right:ug":"\u06cb\u06d0\u0646\u06af\u0631\u0649\u064a\u06d5","name:left:hi":"\u0938\u0930\u094d\u092c\u093f\u092f\u093e","name:right:lb":"Ungarn","name:right:uk":"\u0423\u0433\u043e\u0440\u0449\u0438\u043d\u0430","name:left:he":"\u05e1\u05e8\u05d1\u05d9\u05d4","name:right:ln":"Ungri","name:right:li":"Hongarie\u00eb","name:right:lt":"Vengrija","name:right:ur":"\u0645\u062c\u0627\u0631\u0633\u062a\u0627\u0646","name:right:lv":"Ung\u0101rija","name:left:hy":"\u054d\u0565\u0580\u0562\u056b\u0561","name:left:ta":"\u0b9a\u0bc6\u0bb0\u0bcd\u0baa\u0bbf\u0baf\u0bbe","name:left:ht":"S\u00e8bi","name:left:hu":"Szerbia","name:left:hr":"Srbija","sort_rank":262,"name:right:gd":"An Ungair","name:right:os":"\u0412\u0435\u043d\u0433\u0440\u0438","name:right:es":"Hungr\u00eda","name:right:sr":"\u041c\u0430\u0452\u0430\u0440\u0441\u043a\u0430","name:right:eu":"Hungaria","name:right:et":"Ungari","name:left:os":"\u0421\u0435\u0440\u0431\u0438","name:left:or":"\u0b38\u0b30\u0b4d\u0b2c\u0b3f\u0b06","name:right:ee":"Hungary","name:left:vo":"S\u00e4rb\u00e4n","name:left:oc":"Serbia","name:right:eo":"Hungarujo","name:right:en":"Hungary","name:right:el":"\u039f\u03c5\u03b3\u03b3\u03b1\u03c1\u03af\u03b1","name:left:fa":"\u0635\u0631\u0628\u0633\u062a\u0627\u0646","name:left:fo":"Serbia","name:right:sk":"Ma\u010farsko","name:left:fi":"Serbia","name:left:fr":"Serbie","name:left:cs":"Srbsko","name:right:jv":"Hongaria","name:left:fy":"Servje","name:right:ja":"\u30cf\u30f3\u30ac\u30ea\u30fc","name:right:sq":"Hungaria","name:right:ss":"IHangareyi","name:left:ja":"\u30bb\u30eb\u30d3\u30a2","name:right:su":"Hungaria","name:right:st":"Hungary","name:right:sw":"Hungaria","name:right:sv":"Ungern","name:right:si":"\u0dc4\u0db1\u0dca\u0d9c\u0dda\u0dbb\u0dd2\u0dba\u0dcf\u0db1\u0dd4 \u0dc3\u0db8\u0dd4\u0dc4\u0dcf\u0dab\u0dca\u0da9\u0dd4\u0dc0","name:right:sh":"Ma\u0111arska","name:left:qu":"Sirbya","name:right:sm":"Hungary","name:right:sl":"Mad\u017earska","name:right:so":"Hungaria","name:right:sn":"Hungary","name:right:sa":"\u0939\u0902\u0917\u0930\u0940","name:left:jv":"Serbia","id":-1741311,"name:right:co":"Ungheria","name:right:ca":"Hongria","name:right:se":"U\u014bg\u00e1r","name:right:ce":"\u0412\u0435\u043d\u0433\u0440\u0438","name:right:cy":"Hwngari","name:right:zh-yue":"\u5308\u7259\u5229","name:right:cs":"Ma\u010farsko","name:right:cu":"\u046a\u0433\u0440\u0438","name:right:cv":"\u0412\u0435\u043d\u0433\u0440\u0438","name:left:ar":"\u0635\u0631\u0628\u064a\u0627","name:left:az":"Serbiya","name:left:ay":"Sirwiya","name:left:ro":"Serbia","name:left:af":"Serwi\u00eb","name:left:an":"Serbia","name:left:am":"\u1230\u122d\u1262\u12eb","name:right:ru":"\u0412\u0435\u043d\u0433\u0440\u0438\u044f","name:right:io":"Hungaria","name:right:zh_PY":"Xiongyali","name:left:zh-yue":"\u585e\u723e\u7dad\u4e9e","name:right:ro":"Ungaria","name:right:hy":"\u0540\u0578\u0582\u0576\u0563\u0561\u0580\u056b\u0561","name:left:lb":"Serbien","alt_name:left:eo":"Serbio","name:left:su":"S\u00e9rbia","name:left:st":"Serbia","name:right:hr":"Ma\u0111arska","name:left:sv":"Serbien","name:left:sq":"Serbia","name:left:ln":"Serbia","name:left:sm":"Serbia","name:right:hi":"\u0939\u0902\u0917\u0930\u0940","name:left:so":"Serbia","name:left:lt":"Serbija","name:left:sh":"Srbija","name:left:sk":"Srbsko","name:left:se":"Serbia","name:left:sa":"\u0938\u0930\u094d\u092c\u093f\u092f\u093e","name:right:he":"\u05d4\u05d5\u05e0\u05d2\u05e8\u05d9\u05d4","name:left:sc":"S\u00e8rbia","name:right:la":"Hungaria","name:right:af":"Hongarye","name:left:co":"Serbia","name:right:ab":"\u041c\u0430\u0434\u0438\u0430\u0440\u0442\u04d9\u044b\u043b\u0430","name:left:ce":"\u0421\u0435\u0440\u0431\u0438","name:right:an":"Hongr\u00eda","name:right:am":"\u1200\u1295\u130b\u122a","name:left:ca":"S\u00e8rbia","source":"openstreetmap.org","name:left:cy":"Serbia","name:right:ar":"\u0627\u0644\u0645\u062c\u0631","name:left:cu":"\u0421\u0440\u044c\u0431\u0457\ua657","name:left:cv":"\u0421\u0435\u0440\u0431\u0438","name:right:az":"Macar\u0131stan","name:right:ay":"Hunkariya","name:right:rm":"Ungaria","name":"\u0421\u0440\u0431\u0438\u0458\u0430 - Magyarorsz\u00e1g","name:left:zu":"ISerbiya","name:left:zh":"\u585e\u723e\u7dad\u4e9e","name:right:zh":"\u5308\u7259\u5229","official_name:left":"\u0420\u0435\u043f\u0443\u0431\u043b\u0438\u043a\u0430 \u0421\u0440\u0431\u0438\u0458\u0430","name:left:uz":"Serbiya","name:right:fr":"Hongrie","name:left:ur":"\u0633\u0631\u0628\u06cc\u0627","id:right":-21335,"name:left:uk":"\u0421\u0435\u0440\u0431\u0456\u044f","name:left:no":"Serbia","name:left:nl":"Servi\u00eb","alt_name:right:eo":"Hungario","name:right:fa":"\u0645\u062c\u0627\u0631\u0633\u062a\u0627\u0646","name:right:fo":"Ungarn","name:left:ne":"\u0938\u0930\u094d\u092c\u093f\u092f\u093e","name:left:ug":"S\u00e9rbiye","name:left:na":"Terbiya","name:left:ml":"\u0d38\u0d46\u0d7c\u0d2c\u0d3f\u0d2f","name:left:eo":"Serbujo","name:left:en":"Serbia","name:left:el":"\u03a3\u03b5\u03c1\u03b2\u03af\u03b1","name:left:ee":"Serbia","name:right:tt":"\u041c\u0430\u0497\u0430\u0440\u0441\u0442\u0430\u043d","name:left:es":"Serbia","name:left:ss":"ISebhiya","name:left:ie":"Serbia","name:left:eu":"Serbia","name:left:et":"Serbia","name:right:zh-min-nan":"Magyar-kok","name:right:oc":"Ongria","name:right:ko":"\ud5dd\uac00\ub9ac","name:right:uz":"Mojariston","osm_relation":true,"name:right:or":"\u0b39\u0b19\u0b4d\u0b17\u0b47\u0b30\u0b40","name:left:pt":"S\u00e9rvia","name:right:ku":"Macaristan","name:right:tk":"Wengri\u00fda","name:left:gl":"Serbia","min_zoom":8.0,"name:left:zh-min-nan":"Srbija","name:left:wo":"Seerbi","name:left:ga":"An tSeirbia","name:left:it":"Serbia","name:left:gd":"An t-S\u00e8irb","int_name:right":"Hungary","name:left:gn":"Sevia","name:left:gv":"Yn Serb","name:left":"\u0421\u0440\u0431\u0438\u0458\u0430","name:right:mk":"\u0423\u043d\u0433\u0430\u0440\u0438\u0458\u0430","name:right:mi":"Hanekeria","name:right:mn":"\u0423\u043d\u0433\u0430\u0440","name:right:ml":"\u0d39\u0d02\u0d17\u0d31\u0d3f","name:right:vo":"Macar\u00e4n","name:right:vi":"Hungary","name:right:my":"\u101f\u1014\u103a\u1002\u1031\u101b\u102e\u1014\u102d\u102f\u1004\u103a\u1004\u1036","name:right:ms":"Hungary","name:right:mr":"\u0939\u0902\u0917\u0947\u0930\u0940","name:right:fy":"Hongarije","name:right:mt":"Ungerija","name:left:nn":"Serbia","kind":"country","name:left:br":"Serbia","name:left:bs":"Srbija","int_name:left":"Serbia","name:left:ba":"\u0421\u0435\u0440\u0431\u0438\u044f","name:left:bg":"\u0421\u044a\u0440\u0431\u0438\u044f","name:right:kv":"\u041c\u0430\u0434\u044c\u044f\u0440 \u041c\u0443","name:left:be":"\u0421\u0435\u0440\u0431\u0456\u044f","name:right:ff":"Hunngariya","name:left:bi":"Serbia","name:left:bn":"\u09b8\u09be\u09b0\u09cd\u09ac\u09bf\u09af\u09bc\u09be","name:left:bo":"\u0f66\u0f7a\u0f62\u0f0b\u0f56\u0fb7\u0f72\u0f0b\u0f61\u0f0d","name:right":"Magyarorsz\u00e1g","name:left:yo":"S\u00e9rb\u00ed\u00e0","name:left:yi":"\u05e1\u05e2\u05e8\u05d1\u05d9\u05e2","id:left":-1741311,"name:right:fi":"Unkari","name:right:ka":"\u10e3\u10dc\u10d2\u10e0\u10d4\u10d7\u10d8","name:left:io":"Serbia","name:left:pa":"\u0a38\u0a30\u0a2c\u0a40\u0a06","name:right:kg":"Hongrie","name:right:ki":"Macartsa","name:right:kk":"\u041c\u0430\u0436\u0430\u0440\u0441\u0442\u0430\u043d","name:left:id":"Serbia","name:right:km":"\u1794\u17d2\u179a\u1791\u17c1\u179f\u17a0\u17bb\u1784\u1782\u17d2\u179a\u17b8","name:right:kl":"Ungarni","name:left:ia":"Serbia","name:right:ts":"Hungary","name:right:tl":"Unggarya","name:right:th":"\u0e1b\u0e23\u0e30\u0e40\u0e17\u0e28\u0e2e\u0e31\u0e07\u0e01\u0e32\u0e23\u0e35","name:right:kw":"Hungari","name:left:ps":"\u0633\u0631\u0628\u064a\u0627","name:right:ky":"\u041c\u0430\u0436\u0430\u0440\u0441\u0442\u0430\u043d","name:right:te":"\u0c39\u0c02\u0c17\u0c47\u0c30\u0c3f","name:right:tg":"\u041c\u0430\u04b7\u043e\u0440\u0438\u0441\u0442\u043e\u043d","name:left:is":"Serb\u00eda","name:right:ta":"\u0b85\u0b99\u0bcd\u0b95\u0bc7\u0bb0\u0bbf","name:right:de":"Ungarn","name:right:da":"Ungarn","name:right:dv":"\u0780\u07a6\u0782\u07b0\u078e\u07ad\u0783\u07a9","name:right:ht":"Ongri"},"arcs":[1]},{"type":"LineString","properties":{"name:right:yo":"H\u00fang\u00e1r\u00ec","name:right:yi":"\u05d0\u05d5\u05e0\u05d2\u05d0\u05e8\u05df","name:left:la":"Romania","name:right:qu":"Unriya","name:left:li":"Roemeni\u00eb","name:left:vi":"Romania","name:left:sw":"Romania","name:left:kg":"Romania","name:left:ka":"\u10e0\u10e3\u10db\u10d8\u10dc\u10d4\u10d7\u10d8","name:left:kl":"Rum\u00e6nia","name:left:ko":"\ub8e8\ub9c8\ub2c8\uc544","name:left:kn":"\u0cb0\u0cca\u0cae\u0cbe\u0ca8\u0cbf\u0caf","name:right:is":"Ungverjaland","name:right:rw":"Hongiriya","name:left:kk":"\u0420\u0443\u043c\u044b\u043d\u0438\u044f","name:left:rm":"Rumenia","name:left:ku":"Romanya","name:left:kw":"Roumani","name:left:kv":"\u0420\u0443\u043c\u044b\u043d\u0438\u044f","name:left:pl":"Rumunia","name:left:rw":"Romaniya","name:left:ru":"\u0420\u0443\u043c\u044b\u043d\u0438\u044f","name:right:ie":"Hungaria","name:right:id":"Hongaria","name:left:ky":"\u0420\u0443\u043c\u044b\u043d\u0438\u044f","name:right:ia":"Hungaria","name:right:bi":"Hungary","name:right:bn":"\u09b9\u09be\u0999\u09cd\u0997\u09c7\u09b0\u09bf","name:right:bo":"\u0f67\u0f74\u0f44\u0f0b\u0f42\u0fb7\u0f0b\u0f62\u0f72\u0f0d","name:left:sl":"Romunija","name:right:ba":"\u0412\u0435\u043d\u0433\u0440\u0438\u044f","name:right:bg":"\u0423\u043d\u0433\u0430\u0440\u0438\u044f","name:right:be":"\u0412\u0435\u043d\u0433\u0440\u044b\u044f","name:right:br":"Hungaria","name:left:lt":"Rumunija","name:right:nn":"Ungarn","name:right:no":"Ungern","name:right:nl":"Hongarije","name:left:lv":"Rum\u0101nija","name:right:wo":"Ongiri","name:right:ne":"\u0939\u0902\u0917\u0947\u0930\u0940","name:right:na":"Ungari","name:right:ps":"\u0647\u0646\u06ab\u0631\u064a","name:right:nv":"H\u00e1ngewii","kind_detail":"2","name:left:tr":"Romanya","name:right:gu":"\u0ab9\u0a82\u0a97\u0ac7\u0ab0\u0ac0","name:right:gv":"Yn Ungaar","name:right:pt":"Hungria","name:left:mk":"\u0420\u043e\u043c\u0430\u043d\u0438\u0458\u0430","name:left:mi":"Romeinia","name:left:tt":"\u0420\u0443\u043c\u044b\u043d\u0438\u044f","name:left:mn":"\u0420\u0443\u043c\u044b\u043d","name:left:ml":"\u0d31\u0d4a\u0d2e\u0d3e\u0d28\u0d3f\u0d2f","name:left:th":"\u0e1b\u0e23\u0e30\u0e40\u0e17\u0e28\u0e42\u0e23\u0e21\u0e32\u0e40\u0e19\u0e35\u0e22","name:right:pa":"\u0a39\u0a70\u0a17\u0a30\u0a40","name:left:tk":"Rumyni\u00fda","name:left:tl":"Rumanya","name:left:mt":"Rumanija","name:right:gl":"Hungr\u00eda - Magyarorsz\u00e1g","name:left:my":"\u101b\u102d\u102f\u1019\u1031\u1038\u1014\u102e\u1038\u101a\u102c\u1038\u1014\u102d\u102f\u1004\u103a\u1004\u1036","name:right:gn":"Hungyria","name:right:pl":"W\u0119gry","name:left:te":"\u0c30\u0c4a\u0c2e\u0c47\u0c28\u0c3f\u0c2f\u0c3e","name:left:tg":"\u0420\u0443\u043c\u0438\u043d\u0438\u044f","name:left:ms":"Romania","name:left:mr":"\u0930\u094b\u092e\u0947\u0928\u093f\u092f\u093e","name:right:tr":"Macaristan","name:left:da":"Rum\u00e6nien","name:left:de":"Rum\u00e4nien","name:right:ga":"An Ung\u00e1ir","name:left:dv":"\u0783\u07aa\u0789\u07ad\u0782\u07a8\u0787\u07a7","name:right:ug":"\u06cb\u06d0\u0646\u06af\u0631\u0649\u064a\u06d5","name:left:hi":"\u0930\u094b\u092e\u093e\u0928\u093f\u092f\u093e","name:right:lb":"Ungarn","name:right:uk":"\u0423\u0433\u043e\u0440\u0449\u0438\u043d\u0430","name:left:he":"\u05e8\u05d5\u05de\u05e0\u05d9\u05d4","name:right:ln":"Ungri","name:right:li":"Hongarie\u00eb","name:right:lt":"Vengrija","name:right:ur":"\u0645\u062c\u0627\u0631\u0633\u062a\u0627\u0646","name:right:lv":"Ung\u0101rija","name:left:hy":"\u054c\u0578\u0582\u0574\u056b\u0576\u056b\u0561","name:left:ta":"\u0b89\u0bb0\u0bc1\u0bae\u0bc7\u0ba9\u0bbf\u0baf\u0bbe","name:left:ht":"Woumani","name:left:hu":"Rom\u00e1nia","name:left:hr":"Rumunjska","sort_rank":262,"name:right:gd":"An Ungair","name:right:os":"\u0412\u0435\u043d\u0433\u0440\u0438","name:right:es":"Hungr\u00eda","name:right:sr":"\u041c\u0430\u0452\u0430\u0440\u0441\u043a\u0430","name:right:eu":"Hungaria","name:right:et":"Ungari","name:left:os":"\u0420\u0443\u043c\u044b\u043d\u0438","name:left:or":"\u0b30\u0b4b\u0b2e\u0b3e\u0b28\u0b3f\u0b06","name:right:ee":"Hungary","name:left:vo":"Rum\u00e4n","name:left:oc":"Romania","name:right:eo":"Hungarujo","name:right:en":"Hungary","name:right:el":"\u039f\u03c5\u03b3\u03b3\u03b1\u03c1\u03af\u03b1","name:left:fa":"\u0631\u0648\u0645\u0627\u0646\u06cc","name:left:fo":"Rumenia","name:right:sk":"Ma\u010farsko","name:left:fi":"Romania","name:left:fr":"Roumanie","name:left:cs":"Rumunsko","name:right:jv":"Hongaria","name:left:fy":"Roemeenje","name:right:ja":"\u30cf\u30f3\u30ac\u30ea\u30fc","name:right:sq":"Hungaria","name:right:ss":"IHangareyi","name:left:ja":"\u30eb\u30fc\u30de\u30cb\u30a2","name:right:su":"Hungaria","name:right:st":"Hungary","name:right:sw":"Hungaria","name:right:sv":"Ungern","name:right:si":"\u0dc4\u0db1\u0dca\u0d9c\u0dda\u0dbb\u0dd2\u0dba\u0dcf\u0db1\u0dd4 \u0dc3\u0db8\u0dd4\u0dc4\u0dcf\u0dab\u0dca\u0da9\u0dd4\u0dc0","name:right:sh":"Ma\u0111arska","name:left:qu":"Rumanya","name:right:sm":"Hungary","name:right:sl":"Mad\u017earska","name:right:so":"Hungaria","name:right:sn":"Hungary","name:right:sa":"\u0939\u0902\u0917\u0930\u0940","name:left:jv":"Rumania","id":-90689,"name:right:co":"Ungheria","name:right:ca":"Hongria","name:right:se":"U\u014bg\u00e1r","name:right:ce":"\u0412\u0435\u043d\u0433\u0440\u0438","name:right:cy":"Hwngari","name:right:zh-yue":"\u5308\u7259\u5229","name:right:cs":"Ma\u010farsko","name:right:cu":"\u046a\u0433\u0440\u0438","name:right:cv":"\u0412\u0435\u043d\u0433\u0440\u0438","name:right:it":"Ungheria","name:left:ar":"\u0631\u0648\u0645\u0627\u0646\u064a\u0627","name:left:az":"Rum\u0131niya","name:left:ay":"Rumanya","name:left:af":"Roemeni\u00eb","name:left:an":"Ruman\u00eda","name:left:am":"\u122e\u121b\u1295\u12eb","name:right:ru":"\u0412\u0435\u043d\u0433\u0440\u0438\u044f","name:right:io":"Hungaria","name:right:zh_PY":"Xiongyali","name:left:zh-yue":"\u7f85\u99ac\u5c3c\u4e9e","name:right:ro":"Ungaria","name:right:hy":"\u0540\u0578\u0582\u0576\u0563\u0561\u0580\u056b\u0561","name:left:lb":"Rum\u00e4nien","alt_name:left:eo":"Rumanio","name:left:su":"Romania","int_name:left":"Romania","name:right:hr":"Ma\u0111arska","name:left:sv":"Rum\u00e4nien","name:left:sq":"Rumania","name:left:ln":"Rumania","name:left:sr":"\u0420\u0443\u043c\u0443\u043d\u0438\u0458\u0430","name:left:sm":"Romania","name:right:hi":"\u0939\u0902\u0917\u0930\u0940","name:left:so":"Romania","name:left:si":"\u0dbb\u0dd4\u0db8\u0dda\u0db1\u0dd2\u0dba\u0dcf\u0dc0","name:left:sh":"Rumunija","name:left:sk":"Rumunsko","name:left:se":"Rom\u00e1nia","name:right:he":"\u05d4\u05d5\u05e0\u05d2\u05e8\u05d9\u05d4","name:left:sc":"Romania","name:right:la":"Hungaria","name:right:af":"Hongarye","name:left:co":"Romania","name:right:ab":"\u041c\u0430\u0434\u0438\u0430\u0440\u0442\u04d9\u044b\u043b\u0430","name:left:ce":"\u0420\u0443\u043c\u044b\u043d\u0438","name:right:an":"Hongr\u00eda","name:right:am":"\u1200\u1295\u130b\u122a","name:left:ca":"Romania","source":"openstreetmap.org","name:left:cy":"Rwmania","name:right:ar":"\u0627\u0644\u0645\u062c\u0631","name:left:cu":"\u0420\u043e\u0443\u043c\ua651\u043d\u0457\ua657","name:left:cv":"\u0420\u0443\u043c\u044b\u043d\u0438","name:right:az":"Macar\u0131stan","name:right:ay":"Hunkariya","name:right:rm":"Ungaria","name":"Rom\u00e2nia - Magyarorsz\u00e1g","name:left:zh":"\u7f85\u99ac\u5c3c\u4e9e","name:right:zh":"\u5308\u7259\u5229","name:left:uz":"Ruminiya","name:right:fr":"Hongrie","name:left:nv":"Woom\u00e9iniya","name:left:ur":"\u0631\u0648\u0645\u0627\u0646\u06cc\u06c1","id:right":-21335,"name:left:uk":"\u0420\u0443\u043c\u0443\u043d\u0456\u044f","name:left:no":"Romania","name:left:nl":"Roemeni\u00eb","alt_name:right:eo":"Hungario","name:right:fa":"\u0645\u062c\u0627\u0631\u0633\u062a\u0627\u0646","name:right:fo":"Ungarn","name:left:ne":"\u0930\u094b\u092e\u093e\u0928\u093f\u092f\u093e","name:left:ug":"Ruminiye","name:left:na":"Romania","name:left:eo":"Rumanujo","name:left:en":"Romania","name:left:el":"\u03a1\u03bf\u03c5\u03bc\u03b1\u03bd\u03af\u03b1","name:left:ee":"Romania","name:right:tt":"\u041c\u0430\u0497\u0430\u0440\u0441\u0442\u0430\u043d","name:left:es":"Ruman\u00eda","name:left:ss":"IRomaniya","name:left:ie":"Rumania","name:left:eu":"Errumania","name:left:et":"Rumeenia","name:right:zh-min-nan":"Magyar-kok","name:right:oc":"Ongria","name:right:ko":"\ud5dd\uac00\ub9ac","name:right:bs":"Ma\u0111arska","name:right:uz":"Mojariston","osm_relation":true,"name:right:or":"\u0b39\u0b19\u0b4d\u0b17\u0b47\u0b30\u0b40","name:left:pt":"Rom\u00e9nia","name:right:th":"\u0e1b\u0e23\u0e30\u0e40\u0e17\u0e28\u0e2e\u0e31\u0e07\u0e01\u0e32\u0e23\u0e35","name:right:tk":"Wengri\u00fda","name:left:gl":"Roman\u00eda","name:left:wa":"Roumaneye","min_zoom":8.0,"name:left:wo":"Romaani","name:left:ga":"An R\u00f3m\u00e1in","name:left:it":"Romania","name:left:gd":"Rom\u00e0inia","int_name:right":"Hungary","name:left:gn":"Rruma\u00f1a","name:left:gu":"\u0ab0\u0acb\u0aae\u0abe\u0aa8\u0abf\u0aaf\u0abe","name:left:gv":"Yn Romaan","name:left":"Rom\u00e2nia","name:right:mk":"\u0423\u043d\u0433\u0430\u0440\u0438\u0458\u0430","name:right:mi":"Hanekeria","name:right:mn":"\u0423\u043d\u0433\u0430\u0440","name:right:ml":"\u0d39\u0d02\u0d17\u0d31\u0d3f","name:right:vo":"Macar\u00e4n","name:right:vi":"Hungary","name:right:my":"\u101f\u1014\u103a\u1002\u1031\u101b\u102e\u1014\u102d\u102f\u1004\u103a\u1004\u1036","name:right:ms":"Hungary","name:right:mr":"\u0939\u0902\u0917\u0947\u0930\u0940","name:right:fy":"Hongarije","name:right:mt":"Ungerija","name:left:nn":"Romania","kind":"country","name:left:br":"Roumania","name:left:bs":"Rumunija","name:left:ba":"\u0420\u0443\u043c\u044b\u043d\u0438\u044f","name:left:bg":"\u0420\u0443\u043c\u044a\u043d\u0438\u044f","name:right:kv":"\u041c\u0430\u0434\u044c\u044f\u0440 \u041c\u0443","name:left:be":"\u0420\u0443\u043c\u044b\u043d\u0456\u044f","name:right:ff":"Hunngariya","name:left:bi":"Romania","name:left:bn":"\u09b0\u09cb\u09ae\u09be\u09a8\u09bf\u09af\u09bc\u09be","name:left:bo":"\u0f62\u0f7c\u0f0b\u0f58\u0f0b\u0f53\u0f72\u0f0b\u0f61\u0f0d","name:right":"Magyarorsz\u00e1g","name:left:yo":"Rom\u00e1n\u00ed\u00e0","name:left:yi":"\u05e8\u05d5\u05de\u05e2\u05e0\u05d9\u05e2","id:left":-90689,"name:right:fi":"Unkari","name:right:ka":"\u10e3\u10dc\u10d2\u10e0\u10d4\u10d7\u10d8","name:left:io":"Rumania","name:left:pa":"\u0a30\u0a4b\u0a2e\u0a3e\u0a28\u0a40\u0a06","name:right:kg":"Hongrie","name:right:ki":"Macartsa","name:right:kk":"\u041c\u0430\u0436\u0430\u0440\u0441\u0442\u0430\u043d","name:left:id":"Rumania","name:right:km":"\u1794\u17d2\u179a\u1791\u17c1\u179f\u17a0\u17bb\u1784\u1782\u17d2\u179a\u17b8","name:right:kl":"Ungarni","name:left:ia":"Romania","name:right:ts":"Hungary","name:right:tl":"Unggarya","name:right:ku":"Macaristan","name:right:kw":"Hungari","name:left:ps":"\u0631\u0648\u0645\u0627\u0646\u06cc\u0627","name:right:ky":"\u041c\u0430\u0436\u0430\u0440\u0441\u0442\u0430\u043d","name:right:te":"\u0c39\u0c02\u0c17\u0c47\u0c30\u0c3f","name:right:tg":"\u041c\u0430\u04b7\u043e\u0440\u0438\u0441\u0442\u043e\u043d","name:left:is":"R\u00famen\u00eda","name:right:ta":"\u0b85\u0b99\u0bcd\u0b95\u0bc7\u0bb0\u0bbf","name:right:de":"Ungarn","name:right:da":"Ungarn","name:right:dv":"\u0780\u07a6\u0782\u07b0\u078e\u07ad\u0783\u07a9","name:right:ht":"Ongri"},"arcs":[2]},{"type":"LineString","properties":{"name:right:hu":"Arad megye","name:right:ru":"\u0410\u0440\u0430\u0434","min_zoom":8.0,"name:left:lt":"Timi\u0161as","name:left:ru":"\u0422\u0438\u043c\u0438\u0448","name:left:hu":"Temes megye","id:right":-2248721,"id":-2366863,"osm_relation":true,"name:right":"Arad","kind":"region","name":"Timi\u0219 - Arad","sort_rank":256,"kind_detail":"4","name:left:de":"Temesch","source":"openstreetmap.org","id:left":-2366863,"name:left":"Timi\u0219"},"arcs":[3]},{"type":"LineString","properties":{"name:right:es":"Voivodina","id:left":-2366863,"name:right:hu":"Vajdas\u00e1g","name:right:ru":"\u0412\u043e\u0435\u0432\u043e\u0434\u0438\u043d\u0430","name:right:lt":"Voivodina","min_zoom":8.0,"name:left:lt":"Timi\u0161as","name:right:ro":"Voivodina","name:left:ru":"\u0422\u0438\u043c\u0438\u0448","name:left:hu":"Temes megye","id:right":-1279074,"id":-2366863,"osm_relation":true,"name:right":"\u0412\u043e\u0458\u0432\u043e\u0434\u0438\u043d\u0430","kind":"region","name":"Timi\u0219 - \u0412\u043e\u0458\u0432\u043e\u0434\u0438\u043d\u0430","source":"openstreetmap.org","name:right:ca":"Voivodina","kind_detail":"4","name:left:de":"Temesch","name:right:sk":"Vojvodina","name:right:en":"Vojvodina","sort_rank":256,"name:right:de":"Wojwodina","official_name:right":"\u0410\u0443\u0442\u043e\u043d\u043e\u043c\u043d\u0430 \u041f\u043e\u043a\u0440\u0430\u0458\u0438\u043d\u0430 \u0412\u043e\u0458\u0432\u043e\u0434\u0438\u043d\u0430","name:left":"Timi\u0219"},"arcs":[4]},{"type":"LineString","properties":{"name:right:uk":"\u041f\u0456\u0432\u043d\u0456\u0447\u043d\u0438\u0439 \u0412\u0435\u043b\u0438\u043a\u0438\u0439 \u0410\u043b\u044c\u0444\u0435\u043b\u044c\u0434","name:right:hr":"Sjeverni Alf\u00f6ld","name:right:sr":"\u0412\u0435\u043b\u0438\u043a\u0435 \u0440\u0430\u0432\u043d\u0438\u0446\u0435 \u0438 \u0441\u0435\u0432\u0435\u0440\u043d\u0430 \u041c\u0430\u0452\u0430\u0440\u0441\u043a\u0430","id:right":-22793,"min_zoom":8.0,"name:left:lt":"Timi\u0161as","name:right:ro":"Marea C\u00e2mpie \u0219i Nordul","name:left:ru":"\u0422\u0438\u043c\u0438\u0448","name:left:hu":"Temes megye","name:right:ru":"\u0421\u0435\u0432\u0435\u0440\u043d\u044b\u0439 \u0410\u043b\u044c\u0444\u0451\u043b\u044c\u0434","id":-2366863,"osm_relation":true,"name:right":"Alf\u00f6ld \u00e9s \u00c9szak","kind":"region","name":"Timi\u0219 - Alf\u00f6ld \u00e9s \u00c9szak","sort_rank":256,"kind_detail":"4","name:left:de":"Temesch","name:right:en":"Great Plain and North","source":"openstreetmap.org","name:right:de":"N\u00f6rdliche Gro\u00dfe Tiefebene","id:left":-2366863,"name:left":"Timi\u0219"},"arcs":[5]},{"type":"LineString","properties":{"name:right:uk":"\u041f\u0456\u0432\u043d\u0456\u0447\u043d\u0438\u0439 \u0412\u0435\u043b\u0438\u043a\u0438\u0439 \u0410\u043b\u044c\u0444\u0435\u043b\u044c\u0434","name:right:hr":"Sjeverni Alf\u00f6ld","name:right:sr":"\u0412\u0435\u043b\u0438\u043a\u0435 \u0440\u0430\u0432\u043d\u0438\u0446\u0435 \u0438 \u0441\u0435\u0432\u0435\u0440\u043d\u0430 \u041c\u0430\u0452\u0430\u0440\u0441\u043a\u0430","name:right:ru":"\u0421\u0435\u0432\u0435\u0440\u043d\u044b\u0439 \u0410\u043b\u044c\u0444\u0451\u043b\u044c\u0434","min_zoom":8.0,"name:right:ro":"Marea C\u00e2mpie \u0219i Nordul","name:left:ru":"\u0410\u0440\u0430\u0434","name:left:hu":"Arad megye","id:right":-22793,"id":-2248721,"osm_relation":true,"name:right":"Alf\u00f6ld \u00e9s \u00c9szak","kind":"region","name":"Arad - Alf\u00f6ld \u00e9s \u00c9szak","sort_rank":256,"kind_detail":"4","name:right:en":"Great Plain and North","source":"openstreetmap.org","name:right:de":"N\u00f6rdliche Gro\u00dfe Tiefebene","id:left":-2248721,"name:left":"Arad"},"arcs":[6]},{"type":"LineString","properties":{"name:right:uk":"\u041f\u0456\u0432\u043d\u0456\u0447\u043d\u0438\u0439 \u0412\u0435\u043b\u0438\u043a\u0438\u0439 \u0410\u043b\u044c\u0444\u0435\u043b\u044c\u0434","name:right:hr":"Sjeverni Alf\u00f6ld","name:right:sr":"\u0412\u0435\u043b\u0438\u043a\u0435 \u0440\u0430\u0432\u043d\u0438\u0446\u0435 \u0438 \u0441\u0435\u0432\u0435\u0440\u043d\u0430 \u041c\u0430\u0452\u0430\u0440\u0441\u043a\u0430","name:left:ro":"Voivodina","id:right":-22793,"min_zoom":8.0,"name:left:lt":"Voivodina","name:right:ro":"Marea C\u00e2mpie \u0219i Nordul","name:left:sk":"Vojvodina","name:left:ru":"\u0412\u043e\u0435\u0432\u043e\u0434\u0438\u043d\u0430","name:left:hu":"Vajdas\u00e1g","name:right:ru":"\u0421\u0435\u0432\u0435\u0440\u043d\u044b\u0439 \u0410\u043b\u044c\u0444\u0451\u043b\u044c\u0434","id":-1279074,"osm_relation":true,"name:right":"Alf\u00f6ld \u00e9s \u00c9szak","kind":"region","name":"\u0412\u043e\u0458\u0432\u043e\u0434\u0438\u043d\u0430 - Alf\u00f6ld \u00e9s \u00c9szak","source":"openstreetmap.org","sort_rank":256,"kind_detail":"4","name:left:ca":"Voivodina","name:left:de":"Wojwodina","name:right:en":"Great Plain and North","name:left:en":"Vojvodina","name:right:de":"N\u00f6rdliche Gro\u00dfe Tiefebene","name:left:es":"Voivodina","id:left":-1279074,"official_name:left":"\u0410\u0443\u0442\u043e\u043d\u043e\u043c\u043d\u0430 \u041f\u043e\u043a\u0440\u0430\u0458\u0438\u043d\u0430 \u0412\u043e\u0458\u0432\u043e\u0434\u0438\u043d\u0430","name:left":"\u0412\u043e\u0458\u0432\u043e\u0434\u0438\u043d\u0430"},"arcs":[7]},{"type":"LineString","properties":{"name:right:hr":"Sredi\u0161nja Mad\u017earska","id:left":-22793,"name:left:ro":"Marea C\u00e2mpie \u0219i Nordul","name:left:sr":"\u0412\u0435\u043b\u0438\u043a\u0435 \u0440\u0430\u0432\u043d\u0438\u0446\u0435 \u0438 \u0441\u0435\u0432\u0435\u0440\u043d\u0430 \u041c\u0430\u0452\u0430\u0440\u0441\u043a\u0430","name:left:uk":"\u041f\u0456\u0432\u043d\u0456\u0447\u043d\u0438\u0439 \u0412\u0435\u043b\u0438\u043a\u0438\u0439 \u0410\u043b\u044c\u0444\u0435\u043b\u044c\u0434","min_zoom":8.0,"name:right:ro":"Ungaria Central\u0103","name:left:ru":"\u0421\u0435\u0432\u0435\u0440\u043d\u044b\u0439 \u0410\u043b\u044c\u0444\u0451\u043b\u044c\u0434","name:right:ru":"\u0426\u0435\u043d\u0442\u0440\u0430\u043b\u044c\u043d\u0430\u044f \u0412\u0435\u043d\u0433\u0440\u0438\u044f","id":-22793,"name:left:hr":"Sjeverni Alf\u00f6ld","name:right":"K\u00f6z\u00e9p-Magyarorsz\u00e1g","kind":"region","name":"Alf\u00f6ld \u00e9s \u00c9szak - K\u00f6z\u00e9p-Magyarorsz\u00e1g","source":"openstreetmap.org","sort_rank":256,"kind_detail":"4","name:left:de":"N\u00f6rdliche Gro\u00dfe Tiefebene","name:right:en":"Central Hungary","name:left:en":"Great Plain and North","osm_relation":true,"name:right:de":"Mittelungarn","id:right":-22786,"name:left":"Alf\u00f6ld \u00e9s \u00c9szak"},"arcs":[8]}]},"roads":{"type":"GeometryCollection","geometries":[{"type":"MultiLineString","properties":{"source":"openstreetmap.org","kind":"major_road","sort_rank":380,"kind_detail":"primary","ref":"55","min_zoom":8.0},"arcs":[[32],[33],[34],[35],[36],[37],[38],[39]]},{"type":"MultiLineString","properties":{"bus_network":"4953 DAKK D\u00e9l-alf\u00f6ldi K\u00f6zleked\u00e9si K\u00f6zpont - www.dakk.hu","sort_rank":379,"kind_detail":"secondary","is_bicycle_related":true,"kind":"major_road","bicycle_shield_text":"5A","bicycle_network":"ncn","source":"openstreetmap.org","min_zoom":8.0,"bus_shield_text":"4953","ref":"4427"},"arcs":[[40],[41]]},{"type":"LineString","properties":{"kind":"major_road","network":null,"sort_rank":380,"kind_detail":"primary","source":"openstreetmap.org","min_zoom":8.0,"landuse_kind":"urban_area","shield_text":"54","ref":"54","id":209567896},"arcs":[42]},{"type":"LineString","properties":{"kind":"major_road","sort_rank":380,"kind_detail":"primary","bus_network":"Szeged","source":"openstreetmap.org","min_zoom":8.0,"bus_shield_text":"94E","landuse_kind":"urban_area","ref":"5","id":78303665},"arcs":[43]},{"type":"LineString","properties":{"bus_network":null,"network":null,"sort_rank":380,"kind_detail":"primary","is_bicycle_related":true,"kind":"major_road","bicycle_shield_text":"32","bicycle_network":"ncn","source":"openstreetmap.org","min_zoom":8.0,"bus_shield_text":"2D","shield_text":"541","landuse_kind":"residential","ref":"541"},"arcs":[44]},{"type":"MultiLineString","properties":{"kind":"major_road","network":null,"sort_rank":380,"kind_detail":"primary","source":"openstreetmap.org","min_zoom":8.0,"landuse_kind":"residential","shield_text":"46","ref":"46"},"arcs":[[45],[46],[47],[48]]},{"type":"LineString","properties":{"source":"openstreetmap.org","kind":"major_road","sort_rank":380,"kind_detail":"primary","ref":"451","min_zoom":8.0},"arcs":[49]},{"type":"MultiLineString","properties":{"source":"openstreetmap.org","kind":"major_road","landuse_kind":"residential","sort_rank":380,"kind_detail":"primary","ref":"DN59C","min_zoom":8.0},"arcs":[[50],[51],[52]]},{"type":"LineString","properties":{"kind":"major_road","network":null,"sort_rank":380,"kind_detail":"primary","source":"openstreetmap.org","min_zoom":8.0,"landuse_kind":"urban_area","shield_text":"441","ref":"441"},"arcs":[53]},{"type":"LineString","properties":{"source":"openstreetmap.org","kind":"highway","sort_rank":383,"kind_detail":"motorway","ref":"M5","min_zoom":8.0},"arcs":[54]},{"type":"LineString","properties":{"kind":"major_road","network":"e-road","sort_rank":380,"kind_detail":"primary","source":"openstreetmap.org","min_zoom":8.0,"shield_text":"68","ref":"DN7","id":23156434},"arcs":[55]},{"type":"MultiLineString","properties":{"kind":"path","sort_rank":354,"kind_detail":"cycleway","is_bicycle_related":true,"bicycle_shield_text":"51","bicycle_network":"ncn","source":"openstreetmap.org","min_zoom":8.0},"arcs":[[56],[57],[58],[59],[60],[61],[62],[63],[64]]},{"type":"LineString","properties":{"kind":"major_road","sort_rank":377,"kind_detail":"tertiary","is_bicycle_related":true,"bicycle_shield_text":"EV11","bicycle_network":"icn","source":"openstreetmap.org","min_zoom":8.0,"landuse_kind":"urban_area","ref":"45518","id":69972102},"arcs":[65]},{"type":"LineString","properties":{"kind":"major_road","network":null,"sort_rank":380,"kind_detail":"primary","source":"openstreetmap.org","min_zoom":8.0,"shield_text":"443","ref":"443","id":164370841},"arcs":[66]},{"type":"LineString","properties":{"kind":"major_road","sort_rank":380,"kind_detail":"primary","bus_network":null,"source":"openstreetmap.org","min_zoom":8.0,"bus_shield_text":"14D","ref":"5","id":209567893},"arcs":[67]},{"type":"LineString","properties":{"kind":"major_road","sort_rank":380,"kind_detail":"primary","bus_network":"Szeged","source":"openstreetmap.org","min_zoom":8.0,"bus_shield_text":"12","landuse_kind":"residential","ref":"55","id":126670068},"arcs":[68]},{"type":"LineString","properties":{"source":"openstreetmap.org","kind":"major_road","landuse_kind":"residential","sort_rank":380,"kind_detail":"primary","ref":"441;4601","min_zoom":8.0},"arcs":[69]},{"type":"LineString","properties":{"source":"openstreetmap.org","kind":"major_road","sort_rank":380,"kind_detail":"primary","ref":"502","min_zoom":8.0,"id":174438124},"arcs":[70]},{"type":"LineString","properties":{"kind":"major_road","network":null,"sort_rank":380,"kind_detail":"primary","is_bicycle_related":true,"bicycle_shield_text":"Szentes-Csongr\u00e1d","bicycle_network":"lcn","source":"openstreetmap.org","min_zoom":8.0,"shield_text":"451","ref":"451"},"arcs":[71]},{"type":"MultiLineString","properties":{"sort_rank":383,"kind_detail":"motorway","min_zoom":8.0,"kind":"highway","source":"openstreetmap.org"},"arcs":[[72],[73],[74],[75],[76],[77]]},{"type":"MultiLineString","properties":{"source":"openstreetmap.org","kind":"major_road","landuse_kind":"urban_area","sort_rank":380,"kind_detail":"primary","ref":"43","min_zoom":8.0},"arcs":[[78],[79],[80]]},{"type":"LineString","properties":{"bus_network":"4840 DAKK D\u00e9l-alf\u00f6ldi K\u00f6zleked\u00e9si K\u00f6zpont - www.dakk.hu","network":null,"sort_rank":380,"kind_detail":"primary","kind":"major_road","source":"openstreetmap.org","min_zoom":8.0,"bus_shield_text":"4840","shield_text":"444","landuse_kind":"residential","ref":"444"},"arcs":[81]},{"type":"LineString","properties":{"kind":"major_road","network":null,"sort_rank":380,"kind_detail":"primary","source":"openstreetmap.org","min_zoom":8.0,"shield_text":"474","ref":"474"},"arcs":[82]},{"type":"LineString","properties":{"kind":"minor_road","sort_rank":360,"kind_detail":"unclassified","is_bicycle_related":true,"bicycle_shield_text":"43","bicycle_network":"ncn","source":"openstreetmap.org","min_zoom":8.0},"arcs":[83]},{"type":"MultiLineString","properties":{"kind":"major_road","sort_rank":379,"kind_detail":"secondary","is_bicycle_related":true,"bicycle_shield_text":"5A","bicycle_network":"ncn","source":"openstreetmap.org","min_zoom":8.0,"ref":"4444"},"arcs":[[84],[85]]},{"type":"MultiLineString","properties":{"bus_network":"Szeged","network":null,"sort_rank":380,"kind_detail":"primary","kind":"major_road","source":"openstreetmap.org","min_zoom":8.0,"bus_shield_text":"77A","shield_text":"55","landuse_kind":"residential","ref":"55"},"arcs":[[86],[87],[88]]},{"type":"MultiLineString","properties":{"kind":"path","sort_rank":354,"kind_detail":"track","is_bicycle_related":true,"bicycle_shield_text":"43","bicycle_network":"ncn","source":"openstreetmap.org","min_zoom":8.0},"arcs":[[89],[90]]},{"type":"MultiLineString","properties":{"kind":"highway","network":null,"sort_rank":383,"kind_detail":"motorway","source":"openstreetmap.org","min_zoom":8.0,"all_networks":[null],"shield_text":"43","ref":"M43","all_shield_texts":["43"]},"arcs":[[91],[92]]},{"type":"LineString","properties":{"kind":"major_road","sort_rank":377,"kind_detail":"tertiary","is_bicycle_related":true,"bicycle_shield_text":"EV11","bicycle_network":"icn","source":"openstreetmap.org","min_zoom":8.0,"ref":"4522","id":208376527},"arcs":[93]},{"type":"LineString","properties":{"kind":"path","sort_rank":354,"kind_detail":"cycleway","is_bicycle_related":true,"bicycle_shield_text":"EV11","cycleway":"segregated","source":"openstreetmap.org","min_zoom":8.0,"landuse_kind":"residential","bicycle_network":"icn","id":111091555},"arcs":[94]},{"type":"LineString","properties":{"kind":"major_road","sort_rank":377,"kind_detail":"tertiary","is_bicycle_related":true,"bicycle_shield_text":"EV11","bicycle_network":"icn","source":"openstreetmap.org","min_zoom":8.0,"ref":"4502","id":329293106},"arcs":[95]},{"type":"LineString","properties":{"kind":"major_road","network":null,"sort_rank":380,"kind_detail":"primary","source":"openstreetmap.org","min_zoom":8.0,"landuse_kind":"residential","shield_text":"445","ref":"470"},"arcs":[96]},{"type":"MultiLineString","properties":{"kind":"major_road","sort_rank":379,"kind_detail":"secondary","is_bicycle_related":true,"bicycle_shield_text":"EV11","bicycle_network":"icn","source":"openstreetmap.org","min_zoom":8.0,"ref":"4519"},"arcs":[[97],[98],[99]]},{"type":"MultiLineString","properties":{"kind":"major_road","network":null,"sort_rank":380,"kind_detail":"primary","source":"openstreetmap.org","min_zoom":8.0,"shield_text":"451","ref":"451"},"arcs":[[100],[101],[102],[103],[104],[105],[106],[107],[108],[109],[110]]},{"type":"LineString","properties":{"kind":"major_road","network":null,"sort_rank":380,"kind_detail":"primary","source":"openstreetmap.org","min_zoom":8.0,"old_name":"Felszabadul\u00e1s utca","shield_text":"46","ref":"46"},"arcs":[111]},{"type":"LineString","properties":{"bus_network":"Szeged","sort_rank":377,"landuse_kind":"urban_area","is_bicycle_related":true,"cycleway_right":"lane","bicycle_shield_text":"51","bicycle_network":"ncn","source":"openstreetmap.org","min_zoom":8.0,"bus_shield_text":"67Y","kind_detail":"tertiary","kind":"major_road"},"arcs":[112]},{"type":"MultiLineString","properties":{"bus_network":"Szeged","network":null,"sort_rank":380,"kind_detail":"primary","kind":"major_road","source":"openstreetmap.org","min_zoom":8.0,"bus_shield_text":"67Y","shield_text":"5","landuse_kind":"urban_area","ref":"5"},"arcs":[[113],[114]]},{"type":"LineString","properties":{"cycleway_right":"lane","sort_rank":360,"kind_detail":"residential","is_bicycle_related":true,"kind":"minor_road","bicycle_shield_text":"51","bicycle_network":"ncn","source":"openstreetmap.org","min_zoom":8.0,"landuse_kind":"urban_area","id":209280297},"arcs":[115]},{"type":"MultiLineString","properties":{"kind":"path","sort_rank":354,"kind_detail":"cycleway","is_bicycle_related":true,"bicycle_shield_text":"5A","bicycle_network":"ncn","source":"openstreetmap.org","min_zoom":8.0},"arcs":[[116],[117],[118],[119],[120],[121],[122],[123]]},{"type":"LineString","properties":{"kind":"major_road","sort_rank":377,"kind_detail":"tertiary","is_bicycle_related":true,"bicycle_shield_text":"EV11","bicycle_network":"icn","source":"openstreetmap.org","min_zoom":8.0,"ref":"4501"},"arcs":[124]},{"type":"MultiLineString","properties":{"kind":"highway","network":"RO:A","sort_rank":383,"kind_detail":"motorway","source":"openstreetmap.org","min_zoom":8.0,"all_networks":["RO:A"],"shield_text":"1","ref":"A1","all_shield_texts":["1"]},"arcs":[[125],[126],[127],[128],[129],[130],[131]]},{"type":"LineString","properties":{"kind":"major_road","network":null,"sort_rank":380,"kind_detail":"primary","bus_network":"Szeged","source":"openstreetmap.org","min_zoom":8.0,"bus_shield_text":"12","shield_text":"55","landuse_kind":"residential","ref":"55","id":26515715},"arcs":[132]},{"type":"LineString","properties":{"kind":"path","sort_rank":354,"kind_detail":"cycleway","is_bicycle_related":true,"bicycle_shield_text":"4A","bicycle_network":"ncn","source":"openstreetmap.org","min_zoom":8.0,"id":83245373},"arcs":[133]},{"type":"LineString","properties":{"kind":"major_road","network":null,"sort_rank":380,"kind_detail":"primary","bus_network":"Szeged","source":"openstreetmap.org","min_zoom":8.0,"bus_shield_text":"67Y","shield_text":"43","landuse_kind":"residential","id":372383677},"arcs":[134]},{"type":"MultiLineString","properties":{"kind":"path","sort_rank":354,"landuse_kind":"urban_area","is_bicycle_related":true,"bicycle_shield_text":"EV11","bicycle_network":"icn","source":"openstreetmap.org","min_zoom":8.0,"kind_detail":"cycleway"},"arcs":[[135],[136],[137],[138]]},{"type":"MultiLineString","properties":{"kind":"major_road","network":null,"sort_rank":380,"kind_detail":"primary","source":"openstreetmap.org","min_zoom":8.0,"shield_text":"431","ref":"431"},"arcs":[[139],[140],[141],[142]]},{"type":"LineString","properties":{"kind":"path","sort_rank":354,"kind_detail":"footway","is_bicycle_related":true,"bicycle_shield_text":"EV11","bicycle_network":"icn","source":"openstreetmap.org","min_zoom":8.0,"id":78393188},"arcs":[143]},{"type":"LineString","properties":{"kind":"major_road","sort_rank":380,"kind_detail":"primary","bus_network":"Szeged","source":"openstreetmap.org","min_zoom":8.0,"bus_shield_text":"77A","landuse_kind":"residential","ref":"55","id":93124864},"arcs":[144]},{"type":"LineString","properties":{"kind":"path","sort_rank":354,"landuse_kind":"residential","is_bicycle_related":true,"bicycle_shield_text":"43","bicycle_network":"ncn","source":"openstreetmap.org","min_zoom":8.0,"kind_detail":"footway"},"arcs":[145]},{"type":"MultiLineString","properties":{"kind":"major_road","sort_rank":379,"kind_detail":"secondary","is_bicycle_related":true,"bicycle_shield_text":"43","bicycle_network":"ncn","source":"openstreetmap.org","min_zoom":8.0,"ref":"5302"},"arcs":[[146],[147],[148],[149],[150],[151]]},{"type":"LineString","properties":{"kind":"major_road","sort_rank":379,"kind_detail":"secondary","is_bicycle_related":true,"bicycle_shield_text":"5A","bicycle_network":"ncn","source":"openstreetmap.org","min_zoom":8.0,"ref":"4434"},"arcs":[152]},{"type":"LineString","properties":{"kind":"minor_road","sort_rank":360,"kind_detail":"residential","is_bicycle_related":true,"bicycle_shield_text":"5A","cycleway":"opposite","source":"openstreetmap.org","min_zoom":8.0,"landuse_kind":"residential","bicycle_network":"ncn","id":204966963},"arcs":[153]},{"type":"MultiLineString","properties":{"sort_rank":380,"kind_detail":"primary","min_zoom":8.0,"kind":"major_road","source":"openstreetmap.org"},"arcs":[[154],[155],[156],[157],[158],[159],[160],[161],[162],[163],[164],[165]]},{"type":"LineString","properties":{"kind":"major_road","sort_rank":380,"kind_detail":"primary","bus_network":null,"source":"openstreetmap.org","min_zoom":8.0,"bus_shield_text":"14D","landuse_kind":"urban_area","ref":"5","id":209567894},"arcs":[166]},{"type":"MultiLineString","properties":{"kind":"major_road","network":null,"sort_rank":380,"kind_detail":"primary","source":"openstreetmap.org","min_zoom":8.0,"shield_text":"46","ref":"46"},"arcs":[[167],[168],[169]]},{"type":"LineString","properties":{"kind":"major_road","network":null,"sort_rank":380,"kind_detail":"primary","bus_network":"Szeged","source":"openstreetmap.org","min_zoom":8.0,"bus_shield_text":"94E","shield_text":"5","ref":"5","id":380992982},"arcs":[170]},{"type":"MultiLineString","properties":{"kind":"path","sort_rank":354,"landuse_kind":"residential","is_bicycle_related":true,"bicycle_shield_text":"32","bicycle_network":"ncn","source":"openstreetmap.org","min_zoom":8.0,"kind_detail":"cycleway"},"arcs":[[171],[172],[173],[174],[175],[176],[177],[178]]},{"type":"LineString","properties":{"kind":"major_road","sort_rank":379,"kind_detail":"secondary","is_bicycle_related":true,"bicycle_shield_text":"51","bicycle_network":"ncn","source":"openstreetmap.org","min_zoom":8.0,"ref":"5427","id":35101399},"arcs":[179]},{"type":"LineString","properties":{"kind":"minor_road","sort_rank":360,"kind_detail":"residential","is_bicycle_related":true,"bicycle_shield_text":"5A","bicycle_network":"ncn","source":"openstreetmap.org","min_zoom":8.0,"landuse_kind":"urban_area"},"arcs":[180]},{"type":"LineString","properties":{"bus_network":"Szeged","network":null,"sort_rank":380,"kind_detail":"primary","kind":"major_road","source":"openstreetmap.org","min_zoom":8.0,"bus_shield_text":"77Y","shield_text":"47","landuse_kind":"residential","ref":"47"},"arcs":[181]},{"type":"MultiLineString","properties":{"kind":"major_road","network":null,"sort_rank":380,"kind_detail":"primary","source":"openstreetmap.org","min_zoom":8.0,"landuse_kind":"residential","shield_text":"474","ref":"474"},"arcs":[[182],[183],[184],[185],[186],[187]]},{"type":"MultiLineString","properties":{"kind":"major_road","network":null,"sort_rank":380,"kind_detail":"primary","source":"openstreetmap.org","min_zoom":8.0,"shield_text":"45","ref":"45"},"arcs":[[188],[189],[190]]},{"type":"MultiLineString","properties":{"kind":"path","sort_rank":354,"kind_detail":"cycleway","is_bicycle_related":true,"bicycle_shield_text":"5A","bicycle_network":"ncn","source":"openstreetmap.org","min_zoom":8.0,"landuse_kind":"residential"},"arcs":[[191],[192],[193],[194],[195],[196],[197]]},{"type":"MultiLineString","properties":{"kind":"minor_road","sort_rank":360,"kind_detail":"residential","is_bicycle_related":true,"bicycle_shield_text":"EV11","bicycle_network":"icn","source":"openstreetmap.org","min_zoom":8.0},"arcs":[[198],[199],[200],[201],[202],[203],[204]]},{"type":"LineString","properties":{"kind":"major_road","sort_rank":380,"kind_detail":"primary","bus_network":"Szeged","source":"openstreetmap.org","min_zoom":8.0,"bus_shield_text":"67Y","landuse_kind":"urban_area","ref":"43","id":235059153},"arcs":[205]},{"type":"LineString","properties":{"kind":"minor_road","cycleway_left":"track","sort_rank":360,"kind_detail":"residential","is_bicycle_related":true,"bicycle_shield_text":"5A","cycleway":"opposite","source":"openstreetmap.org","min_zoom":8.0,"landuse_kind":"residential","bicycle_network":"ncn","id":108580860},"arcs":[206]},{"type":"LineString","properties":{"bus_network":"Szeged","sort_rank":380,"kind_detail":"primary","kind":"major_road","source":"openstreetmap.org","min_zoom":8.0,"bus_shield_text":"91E","landuse_kind":"urban_area","ref":"43"},"arcs":[207]},{"type":"MultiLineString","properties":{"bus_network":null,"network":null,"sort_rank":380,"kind_detail":"primary","kind":"major_road","source":"openstreetmap.org","min_zoom":8.0,"bus_shield_text":"23","shield_text":"441","landuse_kind":"urban_area","ref":"441"},"arcs":[[208],[209],[210],[211],[212],[213],[214],[215]]},{"type":"LineString","properties":{"kind":"path","sort_rank":354,"kind_detail":"pedestrian","is_bicycle_related":true,"bicycle_shield_text":"EV11","bicycle_network":"icn","source":"openstreetmap.org","min_zoom":8.0,"landuse_kind":"residential"},"arcs":[216]},{"type":"LineString","properties":{"bus_network":"Szeged","network":null,"sort_rank":380,"kind_detail":"primary","kind":"major_road","source":"openstreetmap.org","min_zoom":8.0,"bus_shield_text":"90H","shield_text":"5","landuse_kind":"urban_area","ref":"5"},"arcs":[217]},{"type":"MultiLineString","properties":{"bus_network":"Szeged","network":null,"sort_rank":380,"kind_detail":"primary","kind":"major_road","source":"openstreetmap.org","min_zoom":8.0,"bus_shield_text":"67Y","shield_text":"5","landuse_kind":"residential","ref":"5"},"arcs":[[218],[219]]},{"type":"MultiLineString","properties":{"kind":"major_road","network":null,"sort_rank":380,"kind_detail":"primary","source":"openstreetmap.org","min_zoom":8.0,"shield_text":"542","ref":"542"},"arcs":[[220],[221],[222],[223],[224],[225],[226],[227]]},{"type":"MultiLineString","properties":{"kind":"highway","network":"e-road","sort_rank":383,"landuse_kind":"urban_area","source":"openstreetmap.org","min_zoom":8.0,"all_networks":["e-road",null],"kind_detail":"motorway","shield_text":"75","ref":"M5","all_shield_texts":["75","5"]},"arcs":[[228],[229]]},{"type":"LineString","properties":{"bus_network":"Szeged","network":null,"sort_rank":380,"kind_detail":"primary","kind":"major_road","source":"openstreetmap.org","min_zoom":8.0,"bus_shield_text":"90F","shield_text":"55","landuse_kind":"residential","ref":"55"},"arcs":[230]},{"type":"LineString","properties":{"kind":"minor_road","sort_rank":358,"kind_detail":"service","is_bicycle_related":true,"bicycle_shield_text":"43","bicycle_network":"ncn","source":"openstreetmap.org","min_zoom":8.0,"id":389328558},"arcs":[231]},{"type":"LineString","properties":{"kind":"major_road","sort_rank":377,"kind_detail":"tertiary","is_bicycle_related":true,"bicycle_shield_text":"EV11","bicycle_network":"icn","source":"openstreetmap.org","min_zoom":8.0,"landuse_kind":"residential","ref":"46133","id":70091331},"arcs":[232]},{"type":"LineString","properties":{"cycleway_right":"lane","network":null,"sort_rank":380,"kind_detail":"primary","is_bicycle_related":true,"kind":"major_road","source":"openstreetmap.org","min_zoom":8.0,"landuse_kind":"residential","shield_text":"441","ref":"441"},"arcs":[233]},{"type":"LineString","properties":{"kind":"major_road","network":null,"sort_rank":380,"kind_detail":"primary","source":"openstreetmap.org","min_zoom":8.0,"landuse_kind":"urban_area","shield_text":"502","ref":"55;502","id":35130303},"arcs":[234]},{"type":"LineString","properties":{"kind":"path","sort_rank":354,"kind_detail":"footway","is_bicycle_related":true,"bicycle_shield_text":"5A","bicycle_network":"ncn","source":"openstreetmap.org","min_zoom":8.0,"landuse_kind":"urban_area","id":372098415},"arcs":[235]},{"type":"LineString","properties":{"kind":"major_road","network":null,"sort_rank":380,"kind_detail":"primary","bus_network":"4840 DAKK D\u00e9l-alf\u00f6ldi K\u00f6zleked\u00e9si K\u00f6zpont - www.dakk.hu","source":"openstreetmap.org","min_zoom":8.0,"bus_shield_text":"4840","shield_text":"44","landuse_kind":"urban_area","id":136161986},"arcs":[236]},{"type":"LineString","properties":{"kind":"major_road","sort_rank":377,"kind_detail":"tertiary","is_bicycle_related":true,"bicycle_shield_text":"43","bicycle_network":"ncn","source":"openstreetmap.org","min_zoom":8.0,"ref":"4502","id":56127569},"arcs":[237]},{"type":"MultiLineString","properties":{"kind":"major_road","network":"DN","sort_rank":380,"kind_detail":"primary","source":"openstreetmap.org","min_zoom":8.0,"shield_text":"6","ref":"DN6"},"arcs":[[238],[239]]},{"type":"LineString","properties":{"kind":"major_road","network":"RS:national","sort_rank":380,"kind_detail":"primary","source":"openstreetmap.org","min_zoom":8.0,"shield_text":"13","name:hu":"Nagy utca","ref":"13","id":81622802},"arcs":[240]},{"type":"LineString","properties":{"kind":"major_road","network":null,"sort_rank":380,"kind_detail":"primary","is_bicycle_related":true,"bicycle_shield_text":"43","bicycle_network":"ncn","source":"openstreetmap.org","min_zoom":8.0,"shield_text":"542","ref":"542","id":154716263},"arcs":[241]},{"type":"LineString","properties":{"kind":"major_road","network":null,"sort_rank":380,"kind_detail":"primary","bus_network":"Szeged","source":"openstreetmap.org","min_zoom":8.0,"bus_shield_text":"77Y","shield_text":"5","landuse_kind":"residential","ref":"43","id":80414973},"arcs":[242]},{"type":"LineString","properties":{"kind":"major_road","network":null,"sort_rank":380,"kind_detail":"primary","bus_network":null,"source":"openstreetmap.org","min_zoom":8.0,"bus_shield_text":"21","shield_text":"5","landuse_kind":"residential","ref":"5","id":40694864},"arcs":[243]},{"type":"LineString","properties":{"bus_network":"4840 DAKK D\u00e9l-alf\u00f6ldi K\u00f6zleked\u00e9si K\u00f6zpont - www.dakk.hu","network":null,"sort_rank":380,"kind_detail":"primary","kind":"major_road","source":"openstreetmap.org","min_zoom":8.0,"bus_shield_text":"4840","shield_text":"47","ref":"47"},"arcs":[244]},{"type":"MultiLineString","properties":{"bus_network":"Szeged","sort_rank":380,"kind_detail":"primary","kind":"major_road","source":"openstreetmap.org","min_zoom":8.0,"bus_shield_text":"90H","landuse_kind":"urban_area","ref":"502"},"arcs":[[245],[246],[247]]},{"type":"MultiLineString","properties":{"kind":"major_road","network":"RS:national","sort_rank":380,"kind_detail":"primary","source":"openstreetmap.org","min_zoom":8.0,"shield_text":"13","ref":"13"},"arcs":[[248],[249],[250]]},{"type":"MultiLineString","properties":{"source":"openstreetmap.org","kind":"major_road","landuse_kind":"residential","sort_rank":380,"kind_detail":"primary","ref":"445","min_zoom":8.0},"arcs":[[251],[252],[253]]},{"type":"MultiLineString","properties":{"bus_network":"Szeged","sort_rank":377,"landuse_kind":"residential","is_bicycle_related":true,"kind":"major_road","bicycle_shield_text":"5A","cycleway":"shared_lane","source":"openstreetmap.org","min_zoom":8.0,"bus_shield_text":"12","kind_detail":"tertiary","bicycle_network":"ncn"},"arcs":[[254],[255]]},{"type":"MultiLineString","properties":{"kind":"major_road","sort_rank":377,"kind_detail":"tertiary","is_bicycle_related":true,"bicycle_shield_text":"43","bicycle_network":"ncn","source":"openstreetmap.org","min_zoom":8.0,"ref":"54102"},"arcs":[[256],[257],[258]]},{"type":"LineString","properties":{"kind":"major_road","sort_rank":379,"kind_detail":"secondary","is_bicycle_related":true,"bus_network":"Szeged","bicycle_shield_text":"EV11","bicycle_network":"icn","source":"openstreetmap.org","min_zoom":8.0,"bus_shield_text":"93E","landuse_kind":"residential","id":207129581},"arcs":[259]},{"type":"MultiLineString","properties":{"kind":"major_road","network":null,"sort_rank":380,"kind_detail":"primary","source":"openstreetmap.org","min_zoom":8.0,"landuse_kind":"urban_area","shield_text":"44","ref":"44; 47"},"arcs":[[260],[261],[262]]},{"type":"MultiLineString","properties":{"kind":"path","sort_rank":354,"landuse_kind":"residential","is_bicycle_related":true,"bicycle_shield_text":"EV11","bicycle_network":"icn","source":"openstreetmap.org","min_zoom":8.0,"kind_detail":"footway"},"arcs":[[263],[264],[265]]},{"type":"LineString","properties":{"kind":"major_road","sort_rank":380,"landuse_kind":"urban_area","source":"openstreetmap.org","min_zoom":8.0,"kind_detail":"primary","ref":"55","id":35130302},"arcs":[266]},{"type":"MultiLineString","properties":{"kind":"minor_road","sort_rank":360,"kind_detail":"residential","is_bicycle_related":true,"bicycle_shield_text":"51","bicycle_network":"ncn","source":"openstreetmap.org","min_zoom":8.0},"arcs":[[267],[268]]},{"type":"LineString","properties":{"kind":"major_road","network":null,"sort_rank":380,"kind_detail":"primary","bus_network":"2","source":"openstreetmap.org","min_zoom":8.0,"bus_shield_text":"2","shield_text":"44","landuse_kind":"residential","ref":"44","id":495051716},"arcs":[269]},{"type":"LineString","properties":{"kind":"major_road","sort_rank":379,"kind_detail":"secondary","is_bicycle_related":true,"bicycle_shield_text":"51","bicycle_network":"ncn","source":"openstreetmap.org","min_zoom":8.0,"old_name":"Felszabadul\u00e1s utca","ref":"5405","id":118420784},"arcs":[270]},{"type":"LineString","properties":{"kind":"major_road","sort_rank":377,"kind_detail":"tertiary","is_bicycle_related":true,"bicycle_shield_text":"43","bicycle_network":"ncn","source":"openstreetmap.org","min_zoom":8.0,"ref":"44301","id":202352766},"arcs":[271]},{"type":"MultiLineString","properties":{"bus_network":null,"network":null,"sort_rank":380,"kind_detail":"primary","kind":"major_road","source":"openstreetmap.org","min_zoom":8.0,"bus_shield_text":"4A","shield_text":"44","ref":"44"},"arcs":[[272],[273]]},{"type":"MultiLineString","properties":{"kind":"path","sort_rank":354,"landuse_kind":"residential","is_bicycle_related":true,"bicycle_shield_text":"5A","bicycle_network":"ncn","source":"openstreetmap.org","min_zoom":8.0,"kind_detail":"footway"},"arcs":[[274],[275]]},{"type":"MultiLineString","properties":{"source":"openstreetmap.org","kind":"major_road","landuse_kind":"urban_area","sort_rank":380,"kind_detail":"primary","ref":"5","min_zoom":8.0},"arcs":[[276],[277],[278],[279],[280],[281],[282],[283],[284]]},{"type":"LineString","properties":{"kind":"major_road","network":null,"sort_rank":380,"kind_detail":"primary","source":"openstreetmap.org","min_zoom":8.0,"landuse_kind":"residential","shield_text":"45","ref":"45"},"arcs":[285]},{"type":"MultiLineString","properties":{"kind":"major_road","network":"DN","sort_rank":380,"kind_detail":"primary","source":"openstreetmap.org","min_zoom":8.0,"landuse_kind":"residential","shield_text":"7","osm_relation":true},"arcs":[[286],[287]]},{"type":"LineString","properties":{"kind":"major_road","sort_rank":380,"kind_detail":"primary","bus_network":null,"source":"openstreetmap.org","min_zoom":8.0,"bus_shield_text":"4A","landuse_kind":"urban_area","ref":"445","id":370477888},"arcs":[288]},{"type":"MultiLineString","properties":{"kind":"path","sort_rank":354,"landuse_kind":"residential","is_bicycle_related":true,"bicycle_shield_text":"51","bicycle_network":"ncn","source":"openstreetmap.org","min_zoom":8.0,"kind_detail":"footway"},"arcs":[[289],[290]]},{"type":"MultiLineString","properties":{"kind":"major_road","network":null,"sort_rank":380,"kind_detail":"primary","source":"openstreetmap.org","min_zoom":8.0,"landuse_kind":"residential","shield_text":"441","ref":"441"},"arcs":[[291],[292]]},{"type":"LineString","properties":{"bus_network":"4840 DAKK D\u00e9l-alf\u00f6ldi K\u00f6zleked\u00e9si K\u00f6zpont - www.dakk.hu","network":null,"sort_rank":380,"kind_detail":"primary","kind":"major_road","source":"openstreetmap.org","min_zoom":8.0,"bus_shield_text":"4840","shield_text":"474","landuse_kind":"residential","ref":"474"},"arcs":[293]},{"type":"LineString","properties":{"kind":"major_road","sort_rank":379,"kind_detail":"secondary","is_bicycle_related":true,"bicycle_shield_text":"43","bicycle_network":"ncn","source":"openstreetmap.org","min_zoom":8.0,"ref":"4625","id":219867575},"arcs":[294]},{"type":"MultiLineString","properties":{"kind":"major_road","network":null,"sort_rank":380,"kind_detail":"primary","source":"openstreetmap.org","min_zoom":8.0,"landuse_kind":"residential","shield_text":"470","ref":"470"},"arcs":[[295],[296]]},{"type":"LineString","properties":{"kind":"major_road","network":null,"sort_rank":380,"kind_detail":"primary","is_bicycle_related":true,"bicycle_shield_text":"51","cycleway":"lane","source":"openstreetmap.org","min_zoom":8.0,"shield_text":"43","bicycle_network":"ncn","ref":"43"},"arcs":[297]},{"type":"LineString","properties":{"kind":"major_road","network":null,"sort_rank":380,"kind_detail":"primary","is_bicycle_related":true,"bicycle_shield_text":"43","bicycle_network":"ncn","source":"openstreetmap.org","min_zoom":8.0,"shield_text":"443","ref":"443"},"arcs":[298]},{"type":"LineString","properties":{"kind":"major_road","network":null,"sort_rank":380,"kind_detail":"primary","bus_network":"4840 DAKK D\u00e9l-alf\u00f6ldi K\u00f6zleked\u00e9si K\u00f6zpont - www.dakk.hu","source":"openstreetmap.org","min_zoom":8.0,"bus_shield_text":"4840","shield_text":"474","ref":"474","id":267290880},"arcs":[299]},{"type":"LineString","properties":{"kind":"major_road","sort_rank":379,"kind_detail":"secondary","is_bicycle_related":true,"bicycle_shield_text":"51","bicycle_network":"ncn","source":"openstreetmap.org","min_zoom":8.0,"ref":"5408"},"arcs":[300]},{"type":"MultiLineString","properties":{"kind":"highway","network":"RS:national","sort_rank":383,"kind_detail":"motorway","is_bicycle_related":true,"source":"openstreetmap.org","min_zoom":8.0,"all_networks":["RS:national","e-road"],"shield_text":"1","ref":"A1","all_shield_texts":["1","75"]},"arcs":[[301],[302],[303],[304],[305],[306]]},{"type":"MultiLineString","properties":{"bus_network":"Szeged","network":null,"sort_rank":380,"kind_detail":"primary","kind":"major_road","source":"openstreetmap.org","min_zoom":8.0,"bus_shield_text":"94E","shield_text":"5","landuse_kind":"urban_area","ref":"5"},"arcs":[[307],[308]]},{"type":"MultiLineString","properties":{"kind":"major_road","network":"DN","sort_rank":380,"kind_detail":"primary","source":"openstreetmap.org","min_zoom":8.0,"landuse_kind":"residential","shield_text":"6","ref":"DN6"},"arcs":[[309],[310]]},{"type":"LineString","properties":{"kind":"major_road","sort_rank":380,"landuse_kind":"residential","source":"openstreetmap.org","min_zoom":8.0,"kind_detail":"primary","ref":"DN7G","id":90517103},"arcs":[311]},{"type":"LineString","properties":{"bus_network":"4840 DAKK D\u00e9l-alf\u00f6ldi K\u00f6zleked\u00e9si K\u00f6zpont - www.dakk.hu","network":null,"sort_rank":380,"kind_detail":"primary","kind":"major_road","source":"openstreetmap.org","min_zoom":8.0,"bus_shield_text":"4840","shield_text":"474","landuse_kind":"urban_area","ref":"474"},"arcs":[312]},{"type":"LineString","properties":{"kind":"major_road","sort_rank":380,"kind_detail":"primary","is_bicycle_related":true,"bicycle_shield_text":"EV11","bicycle_network":"icn","source":"openstreetmap.org","min_zoom":8.0,"ref":"5","id":416500754},"arcs":[313]},{"type":"LineString","properties":{"bus_network":"Szeged","network":null,"sort_rank":380,"kind_detail":"primary","kind":"major_road","source":"openstreetmap.org","min_zoom":8.0,"bus_shield_text":"7A","shield_text":"5","landuse_kind":"residential","ref":"5"},"arcs":[314]},{"type":"LineString","properties":{"kind":"major_road","network":null,"sort_rank":380,"kind_detail":"primary","bus_network":"Szeged","source":"openstreetmap.org","min_zoom":8.0,"bus_shield_text":"72A","shield_text":"5","landuse_kind":"residential","ref":"5","id":424417800},"arcs":[315]},{"type":"MultiLineString","properties":{"kind":"major_road","sort_rank":379,"landuse_kind":"residential","is_bicycle_related":true,"bicycle_shield_text":"EV11","bicycle_network":"icn","source":"openstreetmap.org","min_zoom":8.0,"kind_detail":"secondary","ref":"4625"},"arcs":[[316],[317],[318]]},{"type":"LineString","properties":{"kind":"major_road","sort_rank":380,"kind_detail":"primary","bus_network":"Szeged","source":"openstreetmap.org","min_zoom":8.0,"bus_shield_text":"91E","landuse_kind":"urban_area","id":178794680},"arcs":[319]},{"type":"LineString","properties":{"bus_network":"Szeged","network":null,"sort_rank":380,"kind_detail":"primary","kind":"major_road","source":"openstreetmap.org","min_zoom":8.0,"bus_shield_text":"7F","shield_text":"5","landuse_kind":"urban_area"},"arcs":[320]},{"type":"MultiLineString","properties":{"bus_network":"7\/a DAKK D\u00e9l-alf\u00f6ldi K\u00f6zleked\u00e9si K\u00f6zpont - www.dakk.hu","sort_rank":380,"kind_detail":"primary","kind":"major_road","source":"openstreetmap.org","min_zoom":8.0,"bus_shield_text":"7\/a","landuse_kind":"residential"},"arcs":[[321],[322],[323],[324],[325]]},{"type":"MultiLineString","properties":{"kind":"major_road","network":"DN","sort_rank":380,"kind_detail":"primary","source":"openstreetmap.org","min_zoom":8.0,"shield_text":"7","osm_relation":true},"arcs":[[326],[327],[328],[329],[330],[331],[332]]},{"type":"LineString","properties":{"bus_network":"Szeged","network":null,"sort_rank":380,"kind_detail":"primary","kind":"major_road","source":"openstreetmap.org","min_zoom":8.0,"bus_shield_text":"77Y","shield_text":"43","landuse_kind":"residential","ref":"43"},"arcs":[333]},{"type":"MultiLineString","properties":{"kind":"highway","network":"e-road","sort_rank":383,"kind_detail":"motorway","source":"openstreetmap.org","min_zoom":8.0,"all_networks":["e-road",null],"shield_text":"68","ref":"M43","all_shield_texts":["68","43"]},"arcs":[[334],[335],[336],[337],[338]]},{"type":"LineString","properties":{"bus_network":"Szeged","network":null,"sort_rank":380,"kind_detail":"primary","kind":"major_road","source":"openstreetmap.org","min_zoom":8.0,"bus_shield_text":"32","shield_text":"43","landuse_kind":"residential","ref":"43"},"arcs":[339]},{"type":"LineString","properties":{"bus_network":"Szeged","network":null,"sort_rank":380,"kind_detail":"primary","kind":"major_road","source":"openstreetmap.org","min_zoom":8.0,"bus_shield_text":"67Y","shield_text":"502","landuse_kind":"urban_area","ref":"502"},"arcs":[340]},{"type":"LineString","properties":{"kind":"major_road","sort_rank":377,"kind_detail":"tertiary","is_bicycle_related":true,"bicycle_shield_text":"5A","bicycle_network":"ncn","source":"openstreetmap.org","min_zoom":8.0,"ref":"5509"},"arcs":[341]},{"type":"LineString","properties":{"kind":"path","sort_rank":354,"landuse_kind":"residential","is_bicycle_related":true,"bicycle_shield_text":"51","bicycle_network":"ncn","source":"openstreetmap.org","min_zoom":8.0,"kind_detail":"path"},"arcs":[342]},{"type":"MultiLineString","properties":{"source":"openstreetmap.org","kind":"major_road","landuse_kind":"urban_area","sort_rank":380,"kind_detail":"primary","ref":"445","min_zoom":8.0},"arcs":[[343],[344]]},{"type":"MultiLineString","properties":{"kind":"minor_road","sort_rank":360,"kind_detail":"unclassified","is_bicycle_related":true,"bicycle_shield_text":"EV11","bicycle_network":"icn","source":"openstreetmap.org","min_zoom":8.0},"arcs":[[345],[346]]},{"type":"MultiLineString","properties":{"bus_network":"7\/a DAKK D\u00e9l-alf\u00f6ldi K\u00f6zleked\u00e9si K\u00f6zpont - www.dakk.hu","network":null,"sort_rank":380,"kind_detail":"primary","kind":"major_road","source":"openstreetmap.org","min_zoom":8.0,"bus_shield_text":"7\/a","shield_text":"474","landuse_kind":"residential","ref":"474"},"arcs":[[347],[348]]},{"type":"MultiLineString","properties":{"kind":"path","sort_rank":354,"landuse_kind":"urban_area","is_bicycle_related":true,"bicycle_shield_text":"51","bicycle_network":"ncn","source":"openstreetmap.org","min_zoom":8.0,"kind_detail":"cycleway"},"arcs":[[349],[350],[351],[352],[353]]},{"type":"MultiLineString","properties":{"kind":"path","sort_rank":354,"kind_detail":"cycleway","is_bicycle_related":true,"bicycle_shield_text":"43","bicycle_network":"ncn","source":"openstreetmap.org","min_zoom":8.0},"arcs":[[354],[355],[356],[357],[358],[359],[360]]},{"type":"LineString","properties":{"bus_network":"Szeged","sort_rank":377,"kind_detail":"tertiary","is_bicycle_related":true,"kind":"major_road","bicycle_shield_text":"51","cycleway":"lane","source":"openstreetmap.org","min_zoom":8.0,"bus_shield_text":"91E","landuse_kind":"urban_area","id":209280288,"bicycle_network":"ncn"},"arcs":[361]},{"type":"MultiLineString","properties":{"bus_network":null,"network":null,"sort_rank":380,"kind_detail":"primary","kind":"major_road","source":"openstreetmap.org","min_zoom":8.0,"bus_shield_text":"2D","shield_text":"54","ref":"54"},"arcs":[[362],[363]]},{"type":"MultiLineString","properties":{"kind":"path","sort_rank":354,"kind_detail":"cycleway","is_bicycle_related":true,"bicycle_shield_text":"EV11","cycleway":"shared","source":"openstreetmap.org","min_zoom":8.0,"landuse_kind":"urban_area","bicycle_network":"icn","id":111091817},"arcs":[[364],[365]]},{"type":"MultiLineString","properties":{"bus_network":"Szeged","network":null,"sort_rank":380,"kind_detail":"primary","kind":"major_road","source":"openstreetmap.org","min_zoom":8.0,"bus_shield_text":"76Y","shield_text":"5","landuse_kind":"urban_area","ref":"5"},"arcs":[[366],[367],[368],[369]]},{"type":"MultiLineString","properties":{"kind":"major_road","network":null,"sort_rank":380,"kind_detail":"primary","is_bicycle_related":true,"bicycle_shield_text":"43","bicycle_network":"ncn","source":"openstreetmap.org","min_zoom":8.0,"shield_text":"44","ref":"44"},"arcs":[[370],[371]]},{"type":"MultiLineString","properties":{"kind":"major_road","network":null,"sort_rank":380,"kind_detail":"primary","source":"openstreetmap.org","min_zoom":8.0,"landuse_kind":"residential","shield_text":"5","ref":"5"},"arcs":[[372],[373],[374],[375],[376],[377]]},{"type":"MultiLineString","properties":{"kind":"major_road","network":null,"sort_rank":380,"kind_detail":"primary","source":"openstreetmap.org","min_zoom":8.0,"landuse_kind":"urban_area","shield_text":"442","ref":"442"},"arcs":[[378],[379],[380],[381],[382],[383],[384],[385]]},{"type":"LineString","properties":{"kind":"minor_road","sort_rank":360,"kind_detail":"residential","is_bicycle_related":true,"bicycle_shield_text":"EV11","bicycle_network":"icn","source":"openstreetmap.org","min_zoom":8.0,"landuse_kind":"urban_area","id":82422871},"arcs":[386]},{"type":"LineString","properties":{"kind":"major_road","sort_rank":379,"landuse_kind":"urban_area","is_bicycle_related":true,"bicycle_shield_text":"43","bicycle_network":"ncn","source":"openstreetmap.org","min_zoom":8.0,"kind_detail":"secondary","ref":"5302"},"arcs":[387]},{"type":"MultiLineString","properties":{"source":"openstreetmap.org","kind":"major_road","sort_rank":380,"kind_detail":"primary","ref":"445","min_zoom":8.0},"arcs":[[388],[389]]},{"type":"LineString","properties":{"kind":"major_road","network":null,"sort_rank":380,"kind_detail":"primary","source":"openstreetmap.org","min_zoom":8.0,"shield_text":"502","ref":"502"},"arcs":[390]},{"type":"LineString","properties":{"kind":"path","sort_rank":354,"landuse_kind":"residential","is_bicycle_related":true,"bicycle_shield_text":"5A","bicycle_network":"ncn","source":"openstreetmap.org","min_zoom":8.0,"kind_detail":"path"},"arcs":[391]},{"type":"MultiLineString","properties":{"kind":"major_road","network":"DN","sort_rank":380,"kind_detail":"primary","source":"openstreetmap.org","min_zoom":8.0,"landuse_kind":"residential","shield_text":"7","ref":"DN7"},"arcs":[[392],[393]]},{"type":"LineString","properties":{"kind":"minor_road","sort_rank":360,"kind_detail":"residential","is_bicycle_related":true,"bicycle_shield_text":"51","cycleway":"lane","source":"openstreetmap.org","min_zoom":8.0,"landuse_kind":"residential","bicycle_network":"ncn","id":194312449},"arcs":[394]},{"type":"MultiLineString","properties":{"bus_network":"Szeged","network":null,"sort_rank":380,"kind_detail":"primary","kind":"major_road","source":"openstreetmap.org","min_zoom":8.0,"bus_shield_text":"78A","shield_text":"5","landuse_kind":"residential","ref":"5"},"arcs":[[395],[396],[397]]},{"type":"MultiLineString","properties":{"kind":"major_road","network":"DN","sort_rank":380,"kind_detail":"primary","source":"openstreetmap.org","min_zoom":8.0,"shield_text":"7","ref":"DN7"},"arcs":[[398],[399],[400],[401],[402],[403]]},{"type":"LineString","properties":{"kind":"minor_road","sort_rank":358,"kind_detail":"service","is_bicycle_related":true,"bicycle_shield_text":"5A","bicycle_network":"ncn","source":"openstreetmap.org","min_zoom":8.0},"arcs":[404]},{"type":"LineString","properties":{"bus_network":null,"network":null,"sort_rank":380,"kind_detail":"primary","kind":"major_road","source":"openstreetmap.org","min_zoom":8.0,"bus_shield_text":"16","shield_text":"441","landuse_kind":"residential","ref":"441"},"arcs":[405]},{"type":"LineString","properties":{"kind":"major_road","sort_rank":377,"kind_detail":"tertiary","is_bicycle_related":true,"bicycle_shield_text":"5A","bicycle_network":"ncn","source":"openstreetmap.org","min_zoom":8.0,"landuse_kind":"urban_area","ref":"44119","id":422705176},"arcs":[406]},{"type":"LineString","properties":{"bus_network":"Szeged","sort_rank":379,"landuse_kind":"residential","is_bicycle_related":true,"kind":"major_road","bicycle_shield_text":"EV11","bicycle_network":"icn","source":"openstreetmap.org","min_zoom":8.0,"bus_shield_text":"93E","kind_detail":"secondary","cycleway":"lane","ref":"4519"},"arcs":[407]},{"type":"MultiLineString","properties":{"kind":"major_road","network":null,"sort_rank":380,"kind_detail":"primary","source":"openstreetmap.org","min_zoom":8.0,"landuse_kind":"urban_area","shield_text":"47","ref":"47"},"arcs":[[408],[409],[410],[411],[412],[413],[414],[415],[416],[417],[418],[419],[420],[421],[422],[423],[424],[425],[426],[427],[428],[429],[430],[431],[432]]},{"type":"MultiLineString","properties":{"kind":"major_road","sort_rank":379,"kind_detail":"secondary","is_bicycle_related":true,"bicycle_shield_text":"51","bicycle_network":"ncn","source":"openstreetmap.org","min_zoom":8.0,"ref":"5405"},"arcs":[[433],[434]]},{"type":"LineString","properties":{"kind":"major_road","network":null,"sort_rank":380,"kind_detail":"primary","is_bicycle_related":true,"bicycle_shield_text":"43","bicycle_network":"ncn","source":"openstreetmap.org","min_zoom":8.0,"landuse_kind":"residential","shield_text":"46","ref":"46","id":223251928},"arcs":[435]},{"type":"LineString","properties":{"kind":"major_road","network":null,"sort_rank":380,"kind_detail":"primary","source":"openstreetmap.org","min_zoom":8.0,"shield_text":"442","ref":"442"},"arcs":[436]},{"type":"LineString","properties":{"cycleway_right":"track","sort_rank":360,"kind_detail":"residential","is_bicycle_related":true,"kind":"minor_road","bicycle_shield_text":"5A","cycleway":"opposite","source":"openstreetmap.org","min_zoom":8.0,"landuse_kind":"residential","bicycle_network":"ncn","id":4432179},"arcs":[437]},{"type":"MultiLineString","properties":{"kind":"major_road","network":null,"sort_rank":380,"kind_detail":"primary","is_bicycle_related":true,"bicycle_shield_text":"43","bicycle_network":"ncn","source":"openstreetmap.org","min_zoom":8.0,"shield_text":"46","ref":"46"},"arcs":[[438],[439]]},{"type":"MultiLineString","properties":{"source":"openstreetmap.org","kind":"major_road","landuse_kind":"residential","sort_rank":380,"kind_detail":"primary","ref":"5","min_zoom":8.0},"arcs":[[440],[441]]},{"type":"MultiLineString","properties":{"kind":"path","sort_rank":354,"kind_detail":"track","is_bicycle_related":true,"bicycle_shield_text":"51","bicycle_network":"ncn","source":"openstreetmap.org","min_zoom":8.0},"arcs":[[442],[443]]},{"type":"MultiLineString","properties":{"kind":"minor_road","sort_rank":360,"kind_detail":"residential","is_bicycle_related":true,"bicycle_shield_text":"43","bicycle_network":"ncn","source":"openstreetmap.org","min_zoom":8.0},"arcs":[[444],[445],[446]]},{"type":"LineString","properties":{"kind":"major_road","sort_rank":377,"kind_detail":"tertiary","is_bicycle_related":true,"bus_network":null,"bicycle_shield_text":"32","bicycle_network":"ncn","source":"openstreetmap.org","min_zoom":8.0,"bus_shield_text":"2D","landuse_kind":"residential","id":223255177},"arcs":[447]},{"type":"MultiLineString","properties":{"bus_network":null,"network":null,"sort_rank":380,"kind_detail":"primary","kind":"major_road","source":"openstreetmap.org","min_zoom":8.0,"bus_shield_text":"23","shield_text":"441","landuse_kind":"urban_area"},"arcs":[[448],[449]]},{"type":"LineString","properties":{"kind":"major_road","network":null,"sort_rank":380,"kind_detail":"primary","bus_network":"7\/a DAKK D\u00e9l-alf\u00f6ldi K\u00f6zleked\u00e9si K\u00f6zpont - www.dakk.hu","source":"openstreetmap.org","min_zoom":8.0,"bus_shield_text":"7\/a","shield_text":"47","landuse_kind":"urban_area","ref":"47","id":30029854},"arcs":[450]},{"type":"MultiLineString","properties":{"kind":"major_road","network":"e-road","sort_rank":380,"kind_detail":"primary","source":"openstreetmap.org","min_zoom":8.0,"landuse_kind":"urban_area","shield_text":"68","ref":"430"},"arcs":[[451],[452]]},{"type":"MultiLineString","properties":{"source":"openstreetmap.org","kind":"major_road","sort_rank":380,"kind_detail":"primary","ref":"DN6","min_zoom":8.0},"arcs":[[453],[454]]},{"type":"LineString","properties":{"kind":"major_road","sort_rank":377,"kind_detail":"tertiary","is_bicycle_related":true,"bicycle_shield_text":"EV11","bicycle_network":"icn","source":"openstreetmap.org","min_zoom":8.0,"landuse_kind":"urban_area","ref":"45118","id":284543020},"arcs":[455]},{"type":"LineString","properties":{"bus_network":"Szeged","sort_rank":380,"kind_detail":"primary","kind":"major_road","source":"openstreetmap.org","min_zoom":8.0,"bus_shield_text":"79H","landuse_kind":"urban_area","ref":"5"},"arcs":[456]},{"type":"MultiLineString","properties":{"source":"openstreetmap.org","kind":"major_road","landuse_kind":"urban_area","sort_rank":380,"kind_detail":"primary","ref":"502","min_zoom":8.0},"arcs":[[457],[458],[459]]},{"type":"LineString","properties":{"kind":"path","sort_rank":354,"kind_detail":"cycleway","is_bicycle_related":true,"bicycle_shield_text":"51","cycleway":"shared","source":"openstreetmap.org","min_zoom":8.0,"landuse_kind":"residential","bicycle_network":"ncn","id":109115492},"arcs":[460]},{"type":"MultiLineString","properties":{"kind":"minor_road","sort_rank":358,"kind_detail":"service","is_bicycle_related":true,"bicycle_shield_text":"EV11","bicycle_network":"icn","source":"openstreetmap.org","min_zoom":8.0},"arcs":[[461],[462],[463],[464],[465],[466]]},{"type":"MultiLineString","properties":{"source":"openstreetmap.org","kind":"major_road","sort_rank":380,"kind_detail":"primary","ref":"DN7G","min_zoom":8.0,"id":90517103},"arcs":[[467],[468]]},{"type":"LineString","properties":{"bus_network":"Szeged","network":null,"sort_rank":380,"kind_detail":"primary","kind":"major_road","source":"openstreetmap.org","min_zoom":8.0,"bus_shield_text":"12","shield_text":"55","landuse_kind":"urban_area","ref":"55"},"arcs":[469]},{"type":"MultiLineString","properties":{"bus_network":"Szeged","network":null,"sort_rank":380,"kind_detail":"primary","kind":"major_road","source":"openstreetmap.org","min_zoom":8.0,"bus_shield_text":"60Y","shield_text":"43","landuse_kind":"residential","ref":"43"},"arcs":[[470],[471],[472]]},{"type":"MultiLineString","properties":{"kind":"path","sort_rank":354,"kind_detail":"cycleway","is_bicycle_related":true,"bicycle_shield_text":"EV11","bicycle_network":"icn","source":"openstreetmap.org","min_zoom":8.0},"arcs":[[473],[474],[475],[476],[477],[478],[479],[480],[481],[482]]},{"type":"LineString","properties":{"kind":"major_road","network":null,"sort_rank":380,"kind_detail":"primary","is_bicycle_related":true,"cycleway":"shared_lane","source":"openstreetmap.org","min_zoom":8.0,"shield_text":"45","ref":"45","id":31132759},"arcs":[483]},{"type":"MultiLineString","properties":{"kind":"major_road","network":null,"sort_rank":380,"kind_detail":"primary","source":"openstreetmap.org","min_zoom":8.0,"landuse_kind":"urban_area","shield_text":"44","ref":"44"},"arcs":[[484],[485],[486],[487],[488],[489],[490],[491]]},{"type":"LineString","properties":{"bus_network":"Szeged","network":null,"sort_rank":380,"kind_detail":"primary","kind":"major_road","source":"openstreetmap.org","min_zoom":8.0,"bus_shield_text":"7F","shield_text":"502","landuse_kind":"urban_area","ref":"502"},"arcs":[492]},{"type":"MultiLineString","properties":{"kind":"major_road","network":"e-road","sort_rank":380,"kind_detail":"primary","source":"openstreetmap.org","min_zoom":8.0,"shield_text":"68","ref":"430"},"arcs":[[493],[494],[495],[496],[497],[498],[499],[500]]},{"type":"MultiLineString","properties":{"kind":"highway","network":"e-road","sort_rank":383,"landuse_kind":"urban_area","source":"openstreetmap.org","min_zoom":8.0,"all_networks":["e-road",null],"kind_detail":"motorway","shield_text":"68","ref":"M43","all_shield_texts":["68","43"]},"arcs":[[501],[502],[503],[504]]},{"type":"LineString","properties":{"kind":"major_road","network":null,"sort_rank":380,"kind_detail":"primary","source":"openstreetmap.org","min_zoom":8.0,"shield_text":"470","ref":"470"},"arcs":[505]},{"type":"LineString","properties":{"kind":"major_road","network":null,"sort_rank":380,"kind_detail":"primary","bus_network":"4935 DAKK D\u00e9l-alf\u00f6ldi K\u00f6zleked\u00e9si K\u00f6zpont - www.dakk.hu","source":"openstreetmap.org","min_zoom":8.0,"bus_shield_text":"4935","shield_text":"44","ref":"44","id":488721753},"arcs":[506]},{"type":"LineString","properties":{"kind":"major_road","sort_rank":379,"landuse_kind":"urban_area","is_bicycle_related":true,"bicycle_shield_text":"43","bicycle_network":"ncn","source":"openstreetmap.org","min_zoom":8.0,"kind_detail":"secondary","ref":"4513"},"arcs":[507]},{"type":"MultiLineString","properties":{"bus_network":"4840 DAKK D\u00e9l-alf\u00f6ldi K\u00f6zleked\u00e9si K\u00f6zpont - www.dakk.hu","network":null,"sort_rank":380,"kind_detail":"primary","kind":"major_road","source":"openstreetmap.org","min_zoom":8.0,"bus_shield_text":"4840","shield_text":"47","landuse_kind":"urban_area","ref":"47"},"arcs":[[508],[509],[510]]},{"type":"MultiLineString","properties":{"bus_network":"Szeged","network":null,"sort_rank":380,"kind_detail":"primary","kind":"major_road","source":"openstreetmap.org","min_zoom":8.0,"bus_shield_text":"67Y","shield_text":"43","landuse_kind":"residential","ref":"43"},"arcs":[[511],[512],[513]]},{"type":"LineString","properties":{"kind":"path","sort_rank":354,"kind_detail":"track","is_bicycle_related":true,"bicycle_shield_text":"43","bicycle_network":"ncn","source":"openstreetmap.org","min_zoom":8.0,"landuse_kind":"urban_area","id":67828999},"arcs":[514]},{"type":"MultiLineString","properties":{"kind":"major_road","network":null,"sort_rank":380,"kind_detail":"primary","source":"openstreetmap.org","min_zoom":8.0,"landuse_kind":"urban_area","shield_text":"502","ref":"502"},"arcs":[[515],[516],[517],[518],[519],[520],[521],[522],[523],[524]]},{"type":"MultiLineString","properties":{"kind":"major_road","network":null,"sort_rank":380,"kind_detail":"primary","source":"openstreetmap.org","min_zoom":8.0,"shield_text":"43","ref":"43"},"arcs":[[525],[526],[527],[528],[529],[530],[531],[532],[533],[534]]},{"type":"LineString","properties":{"bus_network":"Szeged","network":null,"sort_rank":380,"kind_detail":"primary","kind":"major_road","source":"openstreetmap.org","min_zoom":8.0,"bus_shield_text":"92E","shield_text":"47","landuse_kind":"urban_area","ref":"47"},"arcs":[535]},{"type":"LineString","properties":{"kind":"major_road","network":null,"sort_rank":380,"kind_detail":"primary","is_bicycle_related":true,"bicycle_shield_text":"43","bicycle_network":"ncn","source":"openstreetmap.org","min_zoom":8.0,"old_name":"Felszabadul\u00e1s utca","shield_text":"46","ref":"46","id":442033897},"arcs":[536]},{"type":"LineString","properties":{"bus_network":"Szeged","sort_rank":379,"kind_detail":"secondary","is_bicycle_related":true,"kind":"major_road","bicycle_shield_text":"EV11","bicycle_network":"icn","source":"openstreetmap.org","min_zoom":8.0,"bus_shield_text":"76Y","ref":"4301"},"arcs":[537]},{"type":"MultiLineString","properties":{"kind":"minor_road","sort_rank":360,"landuse_kind":"urban_area","is_bicycle_related":true,"bicycle_shield_text":"5A","bicycle_network":"ncn","source":"openstreetmap.org","min_zoom":8.0,"kind_detail":"unclassified"},"arcs":[[538],[539]]},{"type":"LineString","properties":{"bus_network":"Szeged","network":null,"sort_rank":380,"kind_detail":"primary","kind":"major_road","source":"openstreetmap.org","min_zoom":8.0,"bus_shield_text":"76Y","shield_text":"5","landuse_kind":"residential","ref":"5"},"arcs":[540]},{"type":"LineString","properties":{"bus_network":"Szeged","network":null,"sort_rank":380,"kind_detail":"primary","kind":"major_road","source":"openstreetmap.org","min_zoom":8.0,"bus_shield_text":"77A","shield_text":"5","landuse_kind":"residential","ref":"5"},"arcs":[541]},{"type":"LineString","properties":{"kind":"path","sort_rank":354,"landuse_kind":"urban_area","is_bicycle_related":true,"bicycle_shield_text":"5A","bicycle_network":"ncn","source":"openstreetmap.org","min_zoom":8.0,"kind_detail":"path"},"arcs":[542]},{"type":"LineString","properties":{"kind":"major_road","network":null,"sort_rank":380,"kind_detail":"primary","is_bicycle_related":true,"bicycle_shield_text":"43","bicycle_network":"ncn","source":"openstreetmap.org","min_zoom":8.0,"old_name":"Kun B\u00e9la utca","shield_text":"451","ref":"451","id":203370537},"arcs":[543]},{"type":"LineString","properties":{"cycleway_right":"lane","sort_rank":360,"kind_detail":"residential","is_bicycle_related":true,"kind":"minor_road","bicycle_shield_text":"51","cycleway":"opposite_lane","source":"openstreetmap.org","min_zoom":8.0,"landuse_kind":"residential","bicycle_network":"ncn","id":76562263},"arcs":[544]},{"type":"LineString","properties":{"kind":"major_road","network":null,"sort_rank":380,"kind_detail":"primary","bus_network":"Szeged","source":"openstreetmap.org","min_zoom":8.0,"bus_shield_text":"76Y","shield_text":"5","ref":"5","id":235059235},"arcs":[545]},{"type":"MultiLineString","properties":{"kind":"highway","network":"e-road","sort_rank":383,"landuse_kind":"residential","source":"openstreetmap.org","min_zoom":8.0,"all_networks":["e-road",null],"kind_detail":"motorway","shield_text":"75","ref":"M5","all_shield_texts":["75","5"]},"arcs":[[546],[547]]},{"type":"LineString","properties":{"kind":"major_road","network":null,"sort_rank":380,"kind_detail":"primary","is_bicycle_related":true,"bicycle_shield_text":"32","cycleway":"lane","source":"openstreetmap.org","min_zoom":8.0,"landuse_kind":"urban_area","shield_text":"441","bicycle_network":"ncn","ref":"441","id":300748427},"arcs":[548]},{"type":"MultiLineString","properties":{"source":"openstreetmap.org","kind":"major_road","kind_detail":"primary","sort_rank":380,"landuse_kind":"residential","ref":"470","min_zoom":8.0},"arcs":[[549],[550]]},{"type":"LineString","properties":{"kind":"major_road","sort_rank":377,"kind_detail":"tertiary","is_bicycle_related":true,"bicycle_shield_text":"EV11","cycleway":"shared_lane","source":"openstreetmap.org","min_zoom":8.0,"bicycle_network":"icn","ref":"4502","id":362890763},"arcs":[551]},{"type":"LineString","properties":{"kind":"major_road","sort_rank":380,"kind_detail":"primary","bus_network":"Szeged","source":"openstreetmap.org","min_zoom":8.0,"bus_shield_text":"73Y","landuse_kind":"residential","ref":"5","id":182658820},"arcs":[552]},{"type":"LineString","properties":{"kind":"minor_road","sort_rank":358,"landuse_kind":"residential","is_bicycle_related":true,"bicycle_shield_text":"32","cycleway":"shared","source":"openstreetmap.org","min_zoom":8.0,"kind_detail":"service","bicycle_network":"ncn"},"arcs":[553]},{"type":"MultiLineString","properties":{"kind":"minor_road","sort_rank":360,"kind_detail":"residential","is_bicycle_related":true,"bicycle_shield_text":"5A","bicycle_network":"ncn","source":"openstreetmap.org","min_zoom":8.0,"landuse_kind":"residential"},"arcs":[[554],[555],[556],[557],[558],[559],[560]]},{"type":"MultiLineString","properties":{"bus_network":null,"network":null,"sort_rank":380,"kind_detail":"primary","kind":"major_road","source":"openstreetmap.org","min_zoom":8.0,"bus_shield_text":"14D","shield_text":"5","landuse_kind":"residential","ref":"5"},"arcs":[[561],[562],[563]]},{"type":"LineString","properties":{"kind":"major_road","sort_rank":377,"kind_detail":"tertiary","is_bicycle_related":true,"bicycle_shield_text":"5A","bicycle_network":"ncn","source":"openstreetmap.org","min_zoom":8.0,"ref":"5511"},"arcs":[564]},{"type":"MultiLineString","properties":{"kind":"major_road","network":null,"sort_rank":380,"kind_detail":"primary","source":"openstreetmap.org","min_zoom":8.0,"landuse_kind":"residential","shield_text":"445","ref":"445"},"arcs":[[565],[566]]},{"type":"MultiLineString","properties":{"kind":"major_road","sort_rank":379,"kind_detail":"secondary","is_bicycle_related":true,"bicycle_shield_text":"EV11","bicycle_network":"icn","source":"openstreetmap.org","min_zoom":8.0,"ref":"4625"},"arcs":[[567],[568],[569]]},{"type":"LineString","properties":{"bus_network":"Szeged","sort_rank":380,"kind_detail":"primary","kind":"major_road","source":"openstreetmap.org","min_zoom":8.0,"bus_shield_text":"67Y","landuse_kind":"urban_area"},"arcs":[570]},{"type":"MultiLineString","properties":{"kind":"path","sort_rank":354,"landuse_kind":"residential","is_bicycle_related":true,"bicycle_shield_text":"EV11","bicycle_network":"icn","source":"openstreetmap.org","min_zoom":8.0,"kind_detail":"cycleway"},"arcs":[[571],[572],[573],[574],[575],[576],[577],[578],[579],[580]]},{"type":"LineString","properties":{"kind":"minor_road","sort_rank":358,"kind_detail":"service","is_bicycle_related":true,"bicycle_shield_text":"51","bicycle_network":"ncn","source":"openstreetmap.org","min_zoom":8.0,"landuse_kind":"urban_area","id":416208851},"arcs":[581]},{"type":"MultiLineString","properties":{"bus_network":null,"network":null,"sort_rank":380,"kind_detail":"primary","kind":"major_road","source":"openstreetmap.org","min_zoom":8.0,"bus_shield_text":"14D","shield_text":"5","ref":"5"},"arcs":[[582],[583],[584],[585],[586]]},{"type":"MultiLineString","properties":{"source":"openstreetmap.org","kind":"major_road","landuse_kind":"urban_area","sort_rank":380,"kind_detail":"primary","ref":"47","min_zoom":8.0},"arcs":[[587],[588],[589],[590],[591],[592],[593],[594],[595]]},{"type":"MultiLineString","properties":{"source":"openstreetmap.org","kind":"major_road","sort_rank":380,"kind_detail":"primary","ref":"542","min_zoom":8.0},"arcs":[[596],[597],[598],[599]]},{"type":"MultiLineString","properties":{"kind":"major_road","network":null,"sort_rank":380,"kind_detail":"primary","source":"openstreetmap.org","min_zoom":8.0,"shield_text":"5","ref":"5"},"arcs":[[600],[601],[602],[603],[604],[605],[606],[607],[608],[609],[610],[611],[612],[613],[614],[615],[616],[617],[618],[619],[620],[621],[622],[623],[624],[625],[626],[627],[628],[629],[630]]},{"type":"LineString","properties":{"kind":"major_road","network":null,"sort_rank":380,"kind_detail":"primary","source":"openstreetmap.org","min_zoom":8.0,"landuse_kind":"urban_area","shield_text":"451","id":49259595},"arcs":[631]},{"type":"LineString","properties":{"source":"openstreetmap.org","kind":"major_road","network":null,"sort_rank":380,"kind_detail":"primary","min_zoom":8.0,"shield_text":"55"},"arcs":[632]},{"type":"MultiLineString","properties":{"kind":"major_road","network":null,"sort_rank":380,"kind_detail":"primary","is_bicycle_related":true,"bicycle_shield_text":"32","cycleway":"lane","source":"openstreetmap.org","min_zoom":8.0,"landuse_kind":"residential","shield_text":"441","bicycle_network":"ncn","ref":"441"},"arcs":[[633],[634]]},{"type":"LineString","properties":{"bus_network":"Szeged","network":null,"sort_rank":380,"kind_detail":"primary","kind":"major_road","source":"openstreetmap.org","min_zoom":8.0,"bus_shield_text":"21","shield_text":"5","landuse_kind":"residential","ref":"5"},"arcs":[635]},{"type":"LineString","properties":{"kind":"major_road","network":null,"sort_rank":380,"kind_detail":"primary","bus_network":"Szeged","source":"openstreetmap.org","min_zoom":8.0,"bus_shield_text":"77Y","shield_text":"5","landuse_kind":"residential","ref":"5","id":4937502},"arcs":[636]},{"type":"MultiLineString","properties":{"source":"openstreetmap.org","kind":"major_road","landuse_kind":"residential","sort_rank":380,"kind_detail":"primary","min_zoom":8.0},"arcs":[[637],[638],[639]]},{"type":"MultiLineString","properties":{"kind":"minor_road","sort_rank":360,"kind_detail":"residential","is_bicycle_related":true,"bicycle_shield_text":"4A","bicycle_network":"ncn","source":"openstreetmap.org","min_zoom":8.0},"arcs":[[640],[641]]},{"type":"LineString","properties":{"kind":"major_road","network":null,"sort_rank":380,"kind_detail":"primary","source":"openstreetmap.org","min_zoom":8.0,"landuse_kind":"urban_area","shield_text":"43","ref":"43"},"arcs":[642]},{"type":"MultiLineString","properties":{"kind":"highway","network":"e-road","sort_rank":383,"kind_detail":"motorway","source":"openstreetmap.org","min_zoom":8.0,"all_networks":["e-road",null],"shield_text":"75","ref":"M5","all_shield_texts":["75","5"]},"arcs":[[643],[644],[645],[646],[647],[648],[649],[650],[651],[652],[653],[654],[655],[656],[657],[658],[659],[660],[661],[662],[663],[664],[665],[666],[667],[668],[669],[670],[671],[672],[673]]},{"type":"LineString","properties":{"kind":"major_road","network":"RS:national","sort_rank":380,"kind_detail":"primary","source":"openstreetmap.org","min_zoom":8.0,"shield_text":"22.1","ref":"13"},"arcs":[674]},{"type":"LineString","properties":{"bus_network":null,"network":null,"sort_rank":380,"kind_detail":"primary","kind":"major_road","source":"openstreetmap.org","min_zoom":8.0,"bus_shield_text":"21","shield_text":"441","landuse_kind":"residential","ref":"441"},"arcs":[675]},{"type":"LineString","properties":{"kind":"minor_road","sort_rank":360,"landuse_kind":"residential","is_bicycle_related":true,"bicycle_shield_text":"EV11","cycleway":"lane","source":"openstreetmap.org","min_zoom":8.0,"kind_detail":"residential","bicycle_network":"icn"},"arcs":[676]},{"type":"LineString","properties":{"kind":"minor_road","sort_rank":360,"kind_detail":"unclassified","is_bicycle_related":true,"bicycle_shield_text":"EV11","bicycle_network":"icn","source":"openstreetmap.org","min_zoom":8.0,"landuse_kind":"urban_area","id":69972342},"arcs":[677]},{"type":"MultiLineString","properties":{"bus_network":"Szeged","network":null,"sort_rank":380,"kind_detail":"primary","kind":"major_road","source":"openstreetmap.org","min_zoom":8.0,"bus_shield_text":"67Y","shield_text":"43","landuse_kind":"urban_area","ref":"43"},"arcs":[[678],[679],[680]]},{"type":"LineString","properties":{"kind":"major_road","network":null,"sort_rank":380,"kind_detail":"primary","bus_network":"Szeged","source":"openstreetmap.org","min_zoom":8.0,"bus_shield_text":"72A","shield_text":"43","landuse_kind":"residential","ref":"43","id":231722415},"arcs":[681]},{"type":"MultiLineString","properties":{"source":"openstreetmap.org","kind":"major_road","network":null,"sort_rank":380,"kind_detail":"primary","min_zoom":8.0,"shield_text":"451"},"arcs":[[682],[683],[684]]},{"type":"MultiLineString","properties":{"kind":"path","footway":"crossing","sort_rank":354,"landuse_kind":"residential","is_bicycle_related":true,"bicycle_shield_text":"EV11","bicycle_network":"icn","source":"openstreetmap.org","min_zoom":8.0,"kind_detail":"footway"},"arcs":[[685],[686]]},{"type":"LineString","properties":{"kind":"major_road","sort_rank":379,"kind_detail":"secondary","is_bicycle_related":true,"bus_network":"4953 DAKK D\u00e9l-alf\u00f6ldi K\u00f6zleked\u00e9si K\u00f6zpont - www.dakk.hu","bicycle_shield_text":"5A","bicycle_network":"ncn","source":"openstreetmap.org","min_zoom":8.0,"bus_shield_text":"4953","id":55896689},"arcs":[687]},{"type":"MultiLineString","properties":{"kind":"major_road","network":null,"sort_rank":380,"kind_detail":"primary","source":"openstreetmap.org","min_zoom":8.0,"landuse_kind":"residential","shield_text":"44","ref":"44"},"arcs":[[688],[689],[690],[691]]},{"type":"LineString","properties":{"source":"openstreetmap.org","kind":"major_road","network":"e-road","sort_rank":380,"kind_detail":"primary","min_zoom":8.0,"shield_text":"68"},"arcs":[692]},{"type":"LineString","properties":{"bus_network":null,"network":null,"sort_rank":380,"kind_detail":"primary","kind":"major_road","source":"openstreetmap.org","min_zoom":8.0,"bus_shield_text":"18","shield_text":"441","landuse_kind":"residential","ref":"441"},"arcs":[693]},{"type":"MultiLineString","properties":{"kind":"major_road","network":null,"sort_rank":380,"kind_detail":"primary","source":"openstreetmap.org","min_zoom":8.0,"landuse_kind":"urban_area","shield_text":"55","ref":"55"},"arcs":[[694],[695],[696],[697]]},{"type":"LineString","properties":{"source":"openstreetmap.org","kind":"highway","sort_rank":383,"kind_detail":"motorway","ref":"M43","min_zoom":8.0,"id":25695753},"arcs":[698]},{"type":"MultiLineString","properties":{"kind":"major_road","network":null,"sort_rank":380,"kind_detail":"primary","source":"openstreetmap.org","min_zoom":8.0,"landuse_kind":"urban_area","shield_text":"45","ref":"45"},"arcs":[[699],[700],[701]]},{"type":"MultiLineString","properties":{"kind":"major_road","network":null,"sort_rank":380,"kind_detail":"primary","is_bicycle_related":true,"bicycle_shield_text":"5A","bicycle_network":"ncn","source":"openstreetmap.org","min_zoom":8.0,"landuse_kind":"urban_area","shield_text":"47","ref":"47"},"arcs":[[702],[703]]},{"type":"MultiLineString","properties":{"kind":"major_road","sort_rank":377,"kind_detail":"tertiary","is_bicycle_related":true,"bicycle_shield_text":"43","bicycle_network":"ncn","source":"openstreetmap.org","min_zoom":8.0,"landuse_kind":"residential","ref":"54102","id":154716925},"arcs":[[704],[705]]},{"type":"LineString","properties":{"bus_network":"Szeged","network":null,"sort_rank":380,"kind_detail":"primary","kind":"major_road","source":"openstreetmap.org","min_zoom":8.0,"bus_shield_text":"78A","shield_text":"5","landuse_kind":"urban_area","ref":"5"},"arcs":[706]},{"type":"LineString","properties":{"kind":"major_road","sort_rank":355,"kind_detail":"secondary_link","is_bicycle_related":true,"bicycle_shield_text":"EV11","bicycle_network":"icn","source":"openstreetmap.org","min_zoom":8.0,"is_link":true,"ref":"4301"},"arcs":[707]},{"type":"LineString","properties":{"kind":"major_road","network":null,"sort_rank":380,"landuse_kind":"residential","is_bicycle_related":true,"bicycle_shield_text":"51","cycleway":"lane","source":"openstreetmap.org","min_zoom":8.0,"kind_detail":"primary","shield_text":"43","bicycle_network":"ncn","ref":"43"},"arcs":[708]},{"type":"LineString","properties":{"kind":"major_road","sort_rank":380,"kind_detail":"primary","bus_network":null,"source":"openstreetmap.org","min_zoom":8.0,"bus_shield_text":"16","landuse_kind":"residential","ref":"441","id":416268371},"arcs":[709]},{"type":"LineString","properties":{"kind":"major_road","network":null,"sort_rank":380,"kind_detail":"primary","bus_network":"2A D\u00e9l-alf\u00f6ldi K\u00f6zleked\u00e9si K\u00f6zpont - www.dakk.hu","source":"openstreetmap.org","min_zoom":8.0,"bus_shield_text":"2A","shield_text":"474","landuse_kind":"residential","ref":"474","id":488658901},"arcs":[710]},{"type":"LineString","properties":{"kind":"minor_road","sort_rank":360,"kind_detail":"residential","is_bicycle_related":true,"bicycle_shield_text":"EV11","cycleway":"opposite_lane","source":"openstreetmap.org","min_zoom":8.0,"landuse_kind":"residential","bicycle_network":"icn"},"arcs":[711]},{"type":"LineString","properties":{"kind":"major_road","sort_rank":377,"landuse_kind":"residential","is_bicycle_related":true,"bicycle_shield_text":"43","bicycle_network":"ncn","source":"openstreetmap.org","min_zoom":8.0,"kind_detail":"tertiary"},"arcs":[712]},{"type":"MultiLineString","properties":{"kind":"major_road","sort_rank":379,"landuse_kind":"residential","is_bicycle_related":true,"bicycle_shield_text":"5A","bicycle_network":"ncn","source":"openstreetmap.org","min_zoom":8.0,"kind_detail":"secondary","ref":"4444"},"arcs":[[713],[714]]},{"type":"MultiLineString","properties":{"kind":"major_road","network":null,"sort_rank":380,"kind_detail":"primary","source":"openstreetmap.org","min_zoom":8.0,"shield_text":"55","ref":"55"},"arcs":[[715],[716],[717],[718]]},{"type":"MultiLineString","properties":{"kind":"minor_road","sort_rank":360,"landuse_kind":"residential","is_bicycle_related":true,"bicycle_shield_text":"51","bicycle_network":"ncn","source":"openstreetmap.org","min_zoom":8.0,"kind_detail":"residential"},"arcs":[[719],[720]]},{"type":"MultiLineString","properties":{"kind":"major_road","network":null,"sort_rank":380,"kind_detail":"primary","source":"openstreetmap.org","min_zoom":8.0,"landuse_kind":"urban_area","shield_text":"472","ref":"47"},"arcs":[[721],[722]]},{"type":"LineString","properties":{"kind":"minor_road","sort_rank":358,"landuse_kind":"residential","is_bicycle_related":true,"bicycle_shield_text":"51","bicycle_network":"ncn","source":"openstreetmap.org","min_zoom":8.0,"kind_detail":"service"},"arcs":[723]},{"type":"MultiLineString","properties":{"kind":"highway","network":"RS:national","sort_rank":383,"kind_detail":"motorway","source":"openstreetmap.org","min_zoom":8.0,"all_networks":["RS:national","e-road"],"shield_text":"1","ref":"A1","all_shield_texts":["1","75"]},"arcs":[[724],[725]]},{"type":"MultiLineString","properties":{"kind":"major_road","sort_rank":379,"landuse_kind":"urban_area","is_bicycle_related":true,"bicycle_shield_text":"EV11","bicycle_network":"icn","source":"openstreetmap.org","min_zoom":8.0,"kind_detail":"secondary","ref":"4519"},"arcs":[[726],[727],[728]]},{"type":"MultiLineString","properties":{"kind":"path","sort_rank":354,"kind_detail":"cycleway","is_bicycle_related":true,"bicycle_shield_text":"43","bicycle_network":"ncn","source":"openstreetmap.org","min_zoom":8.0,"landuse_kind":"urban_area"},"arcs":[[729],[730],[731],[732],[733]]},{"type":"MultiLineString","properties":{"source":"openstreetmap.org","kind":"major_road","sort_rank":380,"kind_detail":"primary","ref":"47","min_zoom":8.0},"arcs":[[734],[735],[736]]},{"type":"LineString","properties":{"kind":"minor_road","sort_rank":358,"kind_detail":"service","is_bicycle_related":true,"bicycle_shield_text":"43","bicycle_network":"ncn","source":"openstreetmap.org","min_zoom":8.0,"landuse_kind":"urban_area","id":227651080},"arcs":[737]},{"type":"LineString","properties":{"kind":"major_road","sort_rank":379,"kind_detail":"secondary","is_bicycle_related":true,"bicycle_shield_text":"51","bicycle_network":"ncn","source":"openstreetmap.org","min_zoom":8.0,"ref":"5402"},"arcs":[738]},{"type":"MultiLineString","properties":{"kind":"major_road","network":null,"sort_rank":380,"kind_detail":"primary","source":"openstreetmap.org","min_zoom":8.0,"landuse_kind":"urban_area","shield_text":"451","ref":"451"},"arcs":[[739],[740],[741]]},{"type":"LineString","properties":{"kind":"major_road","network":"RS:national","sort_rank":380,"kind_detail":"primary","source":"openstreetmap.org","min_zoom":8.0,"shield_text":"22.1","ref":"13;100","id":81615419},"arcs":[742]},{"type":"LineString","properties":{"kind":"major_road","network":null,"sort_rank":380,"kind_detail":"primary","bus_network":null,"source":"openstreetmap.org","min_zoom":8.0,"bus_shield_text":"18","shield_text":"441","landuse_kind":"urban_area","ref":"441","id":422315903},"arcs":[743]},{"type":"MultiLineString","properties":{"bus_network":null,"network":null,"sort_rank":380,"kind_detail":"primary","kind":"major_road","source":"openstreetmap.org","min_zoom":8.0,"bus_shield_text":"14D","shield_text":"5","landuse_kind":"urban_area","ref":"5"},"arcs":[[744],[745],[746],[747],[748]]},{"type":"LineString","properties":{"kind":"major_road","sort_rank":379,"landuse_kind":"residential","is_bicycle_related":true,"bicycle_shield_text":"43","cycleway":"lane","source":"openstreetmap.org","min_zoom":8.0,"kind_detail":"secondary","bicycle_network":"ncn"},"arcs":[749]},{"type":"MultiLineString","properties":{"source":"openstreetmap.org","kind":"major_road","network":null,"sort_rank":380,"kind_detail":"primary","min_zoom":8.0,"shield_text":"5"},"arcs":[[750],[751]]},{"type":"MultiLineString","properties":{"kind":"major_road","network":null,"sort_rank":380,"kind_detail":"primary","source":"openstreetmap.org","min_zoom":8.0,"landuse_kind":"residential","shield_text":"43","ref":"43"},"arcs":[[752],[753],[754],[755],[756],[757],[758],[759],[760],[761],[762],[763],[764],[765],[766],[767],[768],[769],[770],[771],[772],[773],[774],[775],[776],[777],[778],[779],[780],[781],[782],[783],[784],[785]]},{"type":"MultiLineString","properties":{"kind":"minor_road","sort_rank":360,"landuse_kind":"residential","is_bicycle_related":true,"bicycle_shield_text":"EV11","bicycle_network":"icn","source":"openstreetmap.org","min_zoom":8.0,"kind_detail":"residential"},"arcs":[[786],[787]]},{"type":"MultiLineString","properties":{"kind":"major_road","network":null,"sort_rank":380,"kind_detail":"primary","source":"openstreetmap.org","min_zoom":8.0,"landuse_kind":"urban_area","shield_text":"5","ref":"5"},"arcs":[[788],[789],[790],[791],[792],[793],[794],[795],[796],[797],[798],[799]]},{"type":"LineString","properties":{"bus_network":"Szeged","network":null,"sort_rank":380,"kind_detail":"primary","kind":"major_road","source":"openstreetmap.org","min_zoom":8.0,"bus_shield_text":"92E","shield_text":"43","landuse_kind":"residential","ref":"43"},"arcs":[800]},{"type":"LineString","properties":{"kind":"major_road","network":null,"sort_rank":380,"kind_detail":"primary","is_bicycle_related":true,"bicycle_shield_text":"EV11","bicycle_network":"icn","source":"openstreetmap.org","min_zoom":8.0,"shield_text":"5","id":107171151},"arcs":[801]},{"type":"LineString","properties":{"kind":"major_road","network":null,"sort_rank":380,"kind_detail":"primary","source":"openstreetmap.org","min_zoom":8.0,"landuse_kind":"residential","shield_text":"46","id":309374088},"arcs":[802]},{"type":"MultiLineString","properties":{"kind":"path","sort_rank":354,"kind_detail":"cycleway","is_bicycle_related":true,"bicycle_shield_text":"5A","bicycle_network":"ncn","source":"openstreetmap.org","min_zoom":8.0,"landuse_kind":"urban_area"},"arcs":[[803],[804],[805],[806],[807],[808],[809]]},{"type":"LineString","properties":{"kind":"major_road","sort_rank":377,"kind_detail":"tertiary","is_bicycle_related":true,"bicycle_shield_text":"43","bicycle_network":"ncn","source":"openstreetmap.org","min_zoom":8.0,"ref":"4627"},"arcs":[810]},{"type":"MultiLineString","properties":{"kind":"major_road","network":null,"sort_rank":380,"kind_detail":"primary","is_bicycle_related":true,"bicycle_shield_text":"EV11","bicycle_network":"icn","source":"openstreetmap.org","min_zoom":8.0,"shield_text":"5","ref":"5"},"arcs":[[811],[812],[813]]},{"type":"MultiLineString","properties":{"kind":"major_road","sort_rank":379,"landuse_kind":"residential","is_bicycle_related":true,"bicycle_shield_text":"43","bicycle_network":"ncn","source":"openstreetmap.org","min_zoom":8.0,"kind_detail":"secondary","ref":"4513"},"arcs":[[814],[815]]},{"type":"LineString","properties":{"kind":"major_road","sort_rank":377,"kind_detail":"tertiary","is_bicycle_related":true,"bicycle_shield_text":"EV11","bicycle_network":"icn","source":"openstreetmap.org","min_zoom":8.0,"ref":"45125","id":208376979},"arcs":[816]},{"type":"MultiLineString","properties":{"source":"openstreetmap.org","kind":"major_road","sort_rank":380,"kind_detail":"primary","ref":"5","min_zoom":8.0},"arcs":[[817],[818],[819],[820],[821],[822]]},{"type":"MultiLineString","properties":{"kind":"major_road","network":null,"sort_rank":380,"kind_detail":"primary","source":"openstreetmap.org","min_zoom":8.0,"landuse_kind":"urban_area","shield_text":"46","ref":"46"},"arcs":[[823],[824],[825]]},{"type":"LineString","properties":{"kind":"major_road","sort_rank":380,"kind_detail":"primary","is_bicycle_related":true,"bicycle_shield_text":"5A","bicycle_network":"ncn","source":"openstreetmap.org","min_zoom":8.0,"ref":"55"},"arcs":[826]},{"type":"LineString","properties":{"bus_network":"4840 DAKK D\u00e9l-alf\u00f6ldi K\u00f6zleked\u00e9si K\u00f6zpont - www.dakk.hu","sort_rank":380,"kind_detail":"primary","kind":"major_road","source":"openstreetmap.org","min_zoom":8.0,"bus_shield_text":"4840","landuse_kind":"urban_area","ref":"445"},"arcs":[827]},{"type":"LineString","properties":{"kind":"major_road","sort_rank":377,"kind_detail":"tertiary","is_bicycle_related":true,"bicycle_shield_text":"51","bicycle_network":"ncn","source":"openstreetmap.org","min_zoom":8.0,"ref":"43107","id":130512438},"arcs":[828]},{"type":"MultiLineString","properties":{"bus_network":null,"network":null,"sort_rank":380,"kind_detail":"primary","kind":"major_road","source":"openstreetmap.org","min_zoom":8.0,"bus_shield_text":"3","shield_text":"5","landuse_kind":"urban_area","ref":"5"},"arcs":[[829],[830]]},{"type":"MultiLineString","properties":{"kind":"path","sort_rank":354,"landuse_kind":"residential","is_bicycle_related":true,"bicycle_shield_text":"51","bicycle_network":"ncn","source":"openstreetmap.org","min_zoom":8.0,"kind_detail":"cycleway"},"arcs":[[831],[832],[833],[834],[835],[836],[837],[838],[839]]},{"type":"LineString","properties":{"kind":"major_road","sort_rank":380,"kind_detail":"primary","bus_network":"Szeged","source":"openstreetmap.org","min_zoom":8.0,"bus_shield_text":"90H","landuse_kind":"urban_area","ref":"5","id":103704530},"arcs":[840]},{"type":"LineString","properties":{"source":"openstreetmap.org","kind":"highway","landuse_kind":"urban_area","sort_rank":383,"kind_detail":"motorway","ref":"M43","min_zoom":8.0},"arcs":[841]},{"type":"LineString","properties":{"kind":"major_road","sort_rank":380,"kind_detail":"primary","bus_network":"Szeged","source":"openstreetmap.org","min_zoom":8.0,"bus_shield_text":"72A","landuse_kind":"urban_area","ref":"5","id":387149289},"arcs":[842]},{"type":"LineString","properties":{"kind":"major_road","network":null,"sort_rank":380,"kind_detail":"primary","source":"openstreetmap.org","min_zoom":8.0,"shield_text":"54","ref":"54"},"arcs":[843]},{"type":"LineString","properties":{"bus_network":"Szeged","sort_rank":377,"landuse_kind":"residential","is_bicycle_related":true,"kind":"major_road","bicycle_shield_text":"EV11","bicycle_network":"icn","source":"openstreetmap.org","min_zoom":8.0,"bus_shield_text":"8","kind_detail":"tertiary","cycleway":"lane"},"arcs":[844]},{"type":"LineString","properties":{"kind":"major_road","cycleway_left":"lane","network":null,"sort_rank":380,"kind_detail":"primary","is_bicycle_related":true,"bicycle_shield_text":"32","bicycle_network":"ncn","source":"openstreetmap.org","min_zoom":8.0,"landuse_kind":"residential","shield_text":"441","ref":"441"},"arcs":[845]},{"type":"LineString","properties":{"kind":"major_road","network":null,"sort_rank":380,"kind_detail":"primary","source":"openstreetmap.org","min_zoom":8.0,"landuse_kind":"urban_area","shield_text":"5","id":248973386},"arcs":[846]},{"type":"LineString","properties":{"bus_network":"Szeged","network":null,"sort_rank":380,"kind_detail":"primary","is_bicycle_related":true,"kind":"major_road","bicycle_shield_text":"5A","bicycle_network":"ncn","source":"openstreetmap.org","min_zoom":8.0,"bus_shield_text":"92E","shield_text":"47","landuse_kind":"residential","ref":"47"},"arcs":[847]},{"type":"LineString","properties":{"kind":"major_road","sort_rank":377,"kind_detail":"tertiary","is_bicycle_related":true,"bicycle_shield_text":"5A","bicycle_network":"ncn","source":"openstreetmap.org","min_zoom":8.0,"landuse_kind":"urban_area","ref":"4413","id":4435579},"arcs":[848]},{"type":"MultiLineString","properties":{"kind":"major_road","network":null,"sort_rank":380,"kind_detail":"primary","source":"openstreetmap.org","min_zoom":8.0,"landuse_kind":"residential","shield_text":"47","ref":"47"},"arcs":[[849],[850],[851],[852],[853],[854],[855],[856],[857]]},{"type":"LineString","properties":{"kind":"minor_road","sort_rank":360,"kind_detail":"residential","is_bicycle_related":true,"bicycle_shield_text":"5A","cycleway":"shared_lane","source":"openstreetmap.org","min_zoom":8.0,"landuse_kind":"residential","bicycle_network":"ncn","id":206911842},"arcs":[858]},{"type":"MultiLineString","properties":{"source":"openstreetmap.org","kind":"major_road","sort_rank":380,"kind_detail":"primary","ref":"430","min_zoom":8.0},"arcs":[[859],[860],[861],[862],[863]]},{"type":"LineString","properties":{"kind":"major_road","sort_rank":379,"kind_detail":"secondary","is_bicycle_related":true,"bicycle_shield_text":"EV11","bicycle_network":"icn","source":"openstreetmap.org","min_zoom":8.0,"ref":"4301"},"arcs":[864]},{"type":"MultiLineString","properties":{"bus_network":"Szeged","network":null,"sort_rank":380,"kind_detail":"primary","kind":"major_road","source":"openstreetmap.org","min_zoom":8.0,"bus_shield_text":"84","shield_text":"43","landuse_kind":"residential","ref":"43"},"arcs":[[865],[866]]},{"type":"LineString","properties":{"kind":"major_road","network":null,"sort_rank":380,"kind_detail":"primary","is_bicycle_related":true,"bicycle_shield_text":"5A","bicycle_network":"ncn","source":"openstreetmap.org","min_zoom":8.0,"shield_text":"55","ref":"55"},"arcs":[867]},{"type":"LineString","properties":{"kind":"major_road","sort_rank":380,"kind_detail":"primary","bus_network":null,"source":"openstreetmap.org","min_zoom":8.0,"bus_shield_text":"2D","landuse_kind":"urban_area","ref":"54","id":209567903},"arcs":[868]},{"type":"MultiLineString","properties":{"kind":"major_road","sort_rank":377,"kind_detail":"tertiary","is_bicycle_related":true,"bicycle_shield_text":"43","bicycle_network":"ncn","source":"openstreetmap.org","min_zoom":8.0},"arcs":[[869],[870]]},{"type":"LineString","properties":{"kind":"path","sort_rank":354,"kind_detail":"pedestrian","is_bicycle_related":true,"bicycle_shield_text":"5A","bicycle_network":"ncn","source":"openstreetmap.org","min_zoom":8.0,"landuse_kind":"residential","id":77342478},"arcs":[871]},{"type":"MultiLineString","properties":{"kind":"major_road","name:en":"Put Kanjiski","network":"RS:national","sort_rank":380,"kind_detail":"primary","source":"openstreetmap.org","min_zoom":8.0,"old_name":"\u0408\u041d\u0410","shield_text":"13","name:hu":"Kanizsai utca","ref":"13"},"arcs":[[872],[873]]},{"type":"LineString","properties":{"kind":"major_road","sort_rank":379,"kind_detail":"secondary","is_bicycle_related":true,"bicycle_shield_text":"43","bicycle_network":"ncn","source":"openstreetmap.org","min_zoom":8.0,"landuse_kind":"residential","ref":"4512","id":51492888},"arcs":[874]},{"type":"MultiLineString","properties":{"bus_network":null,"network":null,"sort_rank":380,"kind_detail":"primary","kind":"major_road","source":"openstreetmap.org","min_zoom":8.0,"bus_shield_text":"21","shield_text":"5","landuse_kind":"urban_area","ref":"5"},"arcs":[[875],[876],[877]]},{"type":"MultiLineString","properties":{"kind":"path","sort_rank":354,"landuse_kind":"residential","is_bicycle_related":true,"bicycle_shield_text":"32","bicycle_network":"ncn","source":"openstreetmap.org","min_zoom":8.0,"kind_detail":"pedestrian"},"arcs":[[878],[879],[880],[881],[882]]},{"type":"LineString","properties":{"kind":"major_road","sort_rank":380,"kind_detail":"primary","bus_network":"4840 DAKK D\u00e9l-alf\u00f6ldi K\u00f6zleked\u00e9si K\u00f6zpont - www.dakk.hu","source":"openstreetmap.org","min_zoom":8.0,"bus_shield_text":"4840","landuse_kind":"residential","ref":"445","id":488698489},"arcs":[883]},{"type":"MultiLineString","properties":{"kind":"major_road","network":"e-road","sort_rank":380,"kind_detail":"primary","source":"openstreetmap.org","min_zoom":8.0,"shield_text":"68","ref":"43"},"arcs":[[884],[885],[886],[887],[888],[889],[890]]},{"type":"MultiLineString","properties":{"kind":"major_road","network":null,"sort_rank":380,"kind_detail":"primary","is_bicycle_related":true,"bicycle_shield_text":"43","bicycle_network":"ncn","source":"openstreetmap.org","min_zoom":8.0,"shield_text":"451","ref":"451"},"arcs":[[891],[892]]},{"type":"LineString","properties":{"source":"openstreetmap.org","kind":"major_road","landuse_kind":"urban_area","sort_rank":380,"kind_detail":"primary","ref":"44","min_zoom":8.0},"arcs":[893]},{"type":"LineString","properties":{"kind":"path","sort_rank":354,"kind_detail":"track","is_bicycle_related":true,"bicycle_shield_text":"5A","bicycle_network":"ncn","source":"openstreetmap.org","min_zoom":8.0,"id":495731179},"arcs":[894]},{"type":"MultiLineString","properties":{"source":"openstreetmap.org","kind":"major_road","landuse_kind":"residential","sort_rank":380,"kind_detail":"primary","ref":"441","min_zoom":8.0},"arcs":[[895],[896]]},{"type":"LineString","properties":{"source":"openstreetmap.org","kind":"major_road","landuse_kind":"urban_area","sort_rank":380,"kind_detail":"primary","ref":"13","min_zoom":8.0},"arcs":[897]},{"type":"LineString","properties":{"kind":"minor_road","sort_rank":358,"kind_detail":"service","is_bicycle_related":true,"bicycle_shield_text":"EV11","bicycle_network":"icn","source":"openstreetmap.org","min_zoom":8.0,"landuse_kind":"urban_area","id":56127521},"arcs":[898]},{"type":"LineString","properties":{"kind":"major_road","network":"RS:national","sort_rank":380,"kind_detail":"primary","is_bicycle_related":true,"bicycle_shield_text":null,"bicycle_network":"rcn","source":"openstreetmap.org","min_zoom":8.0,"shield_text":"13","ref":"13","id":39501317},"arcs":[899]},{"type":"LineString","properties":{"bus_network":"Szeged","sort_rank":377,"landuse_kind":"residential","is_bicycle_related":true,"cycleway_right":"lane","bicycle_shield_text":"51","bicycle_network":"ncn","source":"openstreetmap.org","min_zoom":8.0,"bus_shield_text":"67Y","kind_detail":"tertiary","kind":"major_road"},"arcs":[900]},{"type":"LineString","properties":{"bus_network":"4840 DAKK D\u00e9l-alf\u00f6ldi K\u00f6zleked\u00e9si K\u00f6zpont - www.dakk.hu","network":null,"sort_rank":380,"kind_detail":"primary","kind":"major_road","source":"openstreetmap.org","min_zoom":8.0,"bus_shield_text":"4840","shield_text":"445","landuse_kind":"residential","ref":"445"},"arcs":[901]},{"type":"MultiLineString","properties":{"kind":"major_road","network":null,"sort_rank":380,"kind_detail":"primary","source":"openstreetmap.org","min_zoom":8.0,"shield_text":"47","ref":"47"},"arcs":[[902],[903],[904],[905],[906],[907],[908],[909]]},{"type":"LineString","properties":{"kind":"major_road","network":null,"sort_rank":380,"kind_detail":"primary","source":"openstreetmap.org","min_zoom":8.0,"landuse_kind":"urban_area","shield_text":"470","ref":"470"},"arcs":[910]},{"type":"LineString","properties":{"kind":"path","sort_rank":354,"landuse_kind":"residential","is_bicycle_related":true,"bicycle_shield_text":"32","bicycle_network":"ncn","source":"openstreetmap.org","min_zoom":8.0,"kind_detail":"footway"},"arcs":[911]},{"type":"MultiLineString","properties":{"bus_network":null,"sort_rank":380,"kind_detail":"primary","kind":"major_road","source":"openstreetmap.org","min_zoom":8.0,"bus_shield_text":"2D","ref":"54"},"arcs":[[912],[913]]},{"type":"LineString","properties":{"kind":"path","sort_rank":354,"kind_detail":"track","is_bicycle_related":true,"bicycle_shield_text":"EV11","bicycle_network":"icn","source":"openstreetmap.org","min_zoom":8.0,"id":308795589},"arcs":[914]},{"type":"LineString","properties":{"kind":"major_road","sort_rank":379,"landuse_kind":"residential","is_bicycle_related":true,"bicycle_shield_text":"43","bicycle_network":"ncn","source":"openstreetmap.org","min_zoom":8.0,"kind_detail":"secondary","ref":"5302"},"arcs":[915]},{"type":"LineString","properties":{"source":"openstreetmap.org","kind":"major_road","sort_rank":380,"kind_detail":"primary","ref":"54","min_zoom":8.0,"id":209567898},"arcs":[916]},{"type":"MultiLineString","properties":{"kind":"major_road","network":null,"sort_rank":380,"kind_detail":"primary","source":"openstreetmap.org","min_zoom":8.0,"shield_text":"44","ref":"44"},"arcs":[[917],[918],[919],[920],[921],[922],[923]]},{"type":"LineString","properties":{"kind":"major_road","network":null,"sort_rank":380,"kind_detail":"primary","bus_network":"7A\/b DAKK D\u00e9l-alf\u00f6ldi K\u00f6zleked\u00e9si K\u00f6zpont - www.dakk.hu","source":"openstreetmap.org","min_zoom":8.0,"bus_shield_text":"7A\/b","shield_text":"474","landuse_kind":"residential","ref":"474","id":39993115},"arcs":[924]},{"type":"LineString","properties":{"kind":"major_road","sort_rank":379,"kind_detail":"secondary","is_bicycle_related":true,"bus_network":"4949 DAKK D\u00e9l-alf\u00f6ldi K\u00f6zleked\u00e9si K\u00f6zpont - www.dakk.hu","bicycle_shield_text":"5A","bicycle_network":"ncn","source":"openstreetmap.org","min_zoom":8.0,"bus_shield_text":"4949","landuse_kind":"residential","id":119774442},"arcs":[925]},{"type":"MultiLineString","properties":{"source":"openstreetmap.org","kind":"major_road","landuse_kind":"residential","sort_rank":380,"kind_detail":"primary","ref":"DN6","min_zoom":8.0},"arcs":[[926],[927],[928],[929],[930],[931],[932],[933],[934]]},{"type":"MultiLineString","properties":{"kind":"path","sort_rank":354,"landuse_kind":"residential","is_bicycle_related":true,"bicycle_shield_text":"43","bicycle_network":"ncn","source":"openstreetmap.org","min_zoom":8.0,"kind_detail":"cycleway"},"arcs":[[935],[936],[937],[938],[939],[940]]},{"type":"LineString","properties":{"kind":"major_road","sort_rank":377,"kind_detail":"tertiary","is_bicycle_related":true,"bicycle_shield_text":"43","bicycle_network":"ncn","source":"openstreetmap.org","min_zoom":8.0,"ref":"45112","id":321592624},"arcs":[941]},{"type":"LineString","properties":{"kind":"minor_road","sort_rank":360,"kind_detail":"unclassified","is_bicycle_related":true,"bicycle_shield_text":"5A","bicycle_network":"ncn","source":"openstreetmap.org","min_zoom":8.0},"arcs":[942]},{"type":"MultiLineString","properties":{"bus_network":"4840 DAKK D\u00e9l-alf\u00f6ldi K\u00f6zleked\u00e9si K\u00f6zpont - www.dakk.hu","network":null,"sort_rank":380,"kind_detail":"primary","kind":"major_road","source":"openstreetmap.org","min_zoom":8.0,"bus_shield_text":"4840","shield_text":"445","landuse_kind":"urban_area","ref":"445"},"arcs":[[943],[944]]},{"type":"MultiLineString","properties":{"kind":"minor_road","sort_rank":360,"kind_detail":"residential","is_bicycle_related":true,"bicycle_shield_text":"43","bicycle_network":"ncn","source":"openstreetmap.org","min_zoom":8.0,"landuse_kind":"residential"},"arcs":[[945],[946],[947],[948]]},{"type":"MultiLineString","properties":{"bus_network":"Szeged","network":null,"sort_rank":380,"kind_detail":"primary","kind":"major_road","source":"openstreetmap.org","min_zoom":8.0,"bus_shield_text":"92E","shield_text":"47","landuse_kind":"residential","ref":"47"},"arcs":[[949],[950],[951]]},{"type":"LineString","properties":{"bus_network":"Szeged","network":null,"sort_rank":380,"kind_detail":"primary","kind":"major_road","source":"openstreetmap.org","min_zoom":8.0,"bus_shield_text":"60Y","shield_text":"43","landuse_kind":"urban_area","ref":"43"},"arcs":[952]},{"type":"LineString","properties":{"kind":"path","sort_rank":354,"kind_detail":"cycleway","is_bicycle_related":true,"bicycle_shield_text":"EV11","cycleway":"shared","source":"openstreetmap.org","min_zoom":8.0,"landuse_kind":"residential","bicycle_network":"icn","id":111091817},"arcs":[953]},{"type":"MultiLineString","properties":{"kind":"major_road","network":null,"sort_rank":380,"kind_detail":"primary","source":"openstreetmap.org","min_zoom":8.0,"landuse_kind":"urban_area","shield_text":"45"},"arcs":[[954],[955],[956],[957]]},{"type":"LineString","properties":{"kind":"major_road","sort_rank":380,"landuse_kind":"residential","source":"openstreetmap.org","min_zoom":8.0,"kind_detail":"primary","ref":"47","id":203793312},"arcs":[958]},{"type":"LineString","properties":{"kind":"major_road","network":null,"sort_rank":380,"kind_detail":"primary","source":"openstreetmap.org","min_zoom":8.0,"landuse_kind":"residential","shield_text":"451","ref":"451","id":91740558},"arcs":[959]},{"type":"LineString","properties":{"source":"openstreetmap.org","kind":"major_road","sort_rank":380,"kind_detail":"primary","ref":"13","min_zoom":8.0,"id":440064079},"arcs":[960]},{"type":"LineString","properties":{"bus_network":"Szeged","network":null,"sort_rank":380,"kind_detail":"primary","kind":"major_road","source":"openstreetmap.org","min_zoom":8.0,"bus_shield_text":"84","shield_text":"43","landuse_kind":"urban_area","ref":"43","id":4806572},"arcs":[961]},{"type":"MultiLineString","properties":{"kind":"path","sort_rank":354,"landuse_kind":"urban_area","is_bicycle_related":true,"bicycle_shield_text":"32","bicycle_network":"ncn","source":"openstreetmap.org","min_zoom":8.0,"kind_detail":"cycleway"},"arcs":[[962],[963]]},{"type":"MultiLineString","properties":{"bus_network":"1","network":null,"sort_rank":380,"kind_detail":"primary","kind":"major_road","source":"openstreetmap.org","min_zoom":8.0,"bus_shield_text":"1","shield_text":"44","landuse_kind":"residential","ref":"44"},"arcs":[[964],[965],[966]]},{"type":"LineString","properties":{"kind":"minor_road","sort_rank":360,"kind_detail":"residential","is_bicycle_related":true,"bicycle_shield_text":"32","bicycle_network":"ncn","source":"openstreetmap.org","min_zoom":8.0,"landuse_kind":"residential","id":300748430},"arcs":[967]},{"type":"LineString","properties":{"kind":"major_road","sort_rank":379,"kind_detail":"secondary","is_bicycle_related":true,"bicycle_shield_text":"EV11","bicycle_network":"icn","source":"openstreetmap.org","min_zoom":8.0,"landuse_kind":"urban_area","id":108190442},"arcs":[968]},{"type":"LineString","properties":{"source":"openstreetmap.org","kind":"highway","sort_rank":383,"kind_detail":"motorway","ref":"A1","min_zoom":8.0},"arcs":[969]},{"type":"MultiLineString","properties":{"kind":"minor_road","sort_rank":358,"kind_detail":"service","is_bicycle_related":true,"bicycle_shield_text":"51","bicycle_network":"ncn","source":"openstreetmap.org","min_zoom":8.0},"arcs":[[970],[971],[972]]},{"type":"LineString","properties":{"kind":"major_road","sort_rank":377,"kind_detail":"tertiary","is_bicycle_related":true,"bicycle_shield_text":"5A","bicycle_network":"ncn","source":"openstreetmap.org","min_zoom":8.0,"id":106365290},"arcs":[973]},{"type":"LineString","properties":{"kind":"major_road","network":null,"sort_rank":380,"kind_detail":"primary","source":"openstreetmap.org","min_zoom":8.0,"shield_text":"441","ref":"441"},"arcs":[974]},{"type":"MultiLineString","properties":{"kind":"major_road","sort_rank":379,"kind_detail":"secondary","is_bicycle_related":true,"bicycle_shield_text":"EV11","bicycle_network":"icn","source":"openstreetmap.org","min_zoom":8.0},"arcs":[[975],[976],[977]]},{"type":"LineString","properties":{"kind":"major_road","network":"e-road","sort_rank":380,"kind_detail":"primary","is_bicycle_related":true,"bicycle_shield_text":"51","cycleway":"lane","source":"openstreetmap.org","min_zoom":8.0,"shield_text":"68","bicycle_network":"ncn","ref":"43"},"arcs":[978]},{"type":"LineString","properties":{"kind":"major_road","sort_rank":379,"kind_detail":"secondary","is_bicycle_related":true,"bicycle_shield_text":"5A","bicycle_network":"ncn","source":"openstreetmap.org","min_zoom":8.0,"ref":"4427"},"arcs":[979]},{"type":"MultiLineString","properties":{"bus_network":"Szeged","network":null,"sort_rank":380,"kind_detail":"primary","kind":"major_road","source":"openstreetmap.org","min_zoom":8.0,"bus_shield_text":"79H","shield_text":"5","landuse_kind":"urban_area","ref":"5"},"arcs":[[980],[981],[982],[983],[984],[985],[986],[987],[988]]},{"type":"LineString","properties":{"kind":"path","sort_rank":354,"kind_detail":"cycleway","is_bicycle_related":true,"bicycle_shield_text":"32","bicycle_network":"ncn","source":"openstreetmap.org","min_zoom":8.0},"arcs":[989]}]},"earth":{"type":"GeometryCollection","geometries":[{"type":"Polygon","properties":{"sort_rank":10,"source":"naturalearthdata.com","min_zoom":0.0,"kind":"earth","area":98022885885},"arcs":[[990]]}]},"landuse":{"type":"GeometryCollection","geometries":[{"type":"MultiPolygon","properties":{"source":"openstreetmap.org","kind":"residential","tier":2,"area":291953145,"sort_rank":20,"min_zoom":8.0,"osm_relation":true},"arcs":[[[991],[992]],[[993]],[[994]],[[995]],[[996],[997]],[[998]],[[999]],[[1000],[1001]],[[1002]],[[1003]],[[1004]],[[1005]],[[1006]],[[1007]]]},{"type":"MultiPolygon","properties":{"source":"naturalearthdata.com","kind":"urban_area","name":"","area":2742446673,"sort_rank":11,"min_zoom":4.0},"arcs":[[[1008]],[[1009]],[[1010]],[[1011]],[[1012]],[[1013]],[[1014]],[[1015]],[[1016]],[[1017]],[[1018]],[[1019]],[[1020]],[[1021]],[[1022]],[[1023]],[[1024]],[[1025]]]},{"type":"MultiPolygon","properties":{"source":"openstreetmap.org","kind":"residential","tier":2,"area":480111588,"sort_rank":20,"min_zoom":8.0},"arcs":[[[1026]],[[1027]],[[1028]],[[1029]],[[1030]],[[1031]],[[1032]],[[1033]],[[1034]],[[1035]],[[1036]],[[1037]],[[1038]],[[1039]],[[1040]]]}]}},"type":"Topology","transform":{"translate":[19.6875,46.0732306254],"scale":[0.0003433228,0.0002360721]},"arcs":[[[1811,0],[-20,57],[-84,49],[-25,45],[53,39],[-53,-2],[-2,37]],[[1680,225],[-27,-45],[-20,60],[-44,-26],[-149,154],[-130,-67],[-89,78],[-2,51],[-30,11],[-93,-143],[-17,18],[-68,-9],[-55,132],[-235,-3],[-59,-52],[-179,-60],[-103,-93],[-60,50],[-113,35],[-51,75],[-67,26],[-53,67],[-36,-22]],[[4096,791],[-67,-26],[-14,-46],[-85,21],[-35,79],[-100,-30],[-86,12],[-42,72],[-62,-11],[-9,-63],[-93,41],[-49,69],[-245,-62],[-40,12],[-77,-107],[37,-196],[-100,12],[-5,-46],[24,-11],[-34,-27],[-21,-87],[-59,-35],[-23,-56],[-97,14],[-42,-93],[-261,213],[-140,54],[-28,-38],[9,-42],[-105,-119],[-95,10],[-84,52],[-9,-21],[-39,23],[-37,-21],[-37,71],[-125,-83],[-10,27],[-36,-18],[-95,-110]],[[3586,0],[-2,5],[-93,43],[-156,26],[-78,63],[-25,69],[-49,19],[-23,76],[-131,3],[-30,63],[-37,4]],[[1680,225],[2,-37],[53,2],[-53,-39],[25,-45],[84,-49],[20,-57]],[[2962,371],[-60,-68],[-88,17],[-13,-60],[-41,-34],[-249,214],[-140,54],[-28,-38],[9,-42],[-105,-119],[-95,10],[-84,52],[-9,-21],[-39,23],[-37,-21],[-37,71],[-125,-83],[-10,27],[-36,-18],[-95,-110]],[[4096,791],[-67,-26],[-14,-46],[-85,21],[-35,79],[-100,-30],[-86,12],[-42,72],[-62,-11],[-9,-63],[-93,41],[-49,69],[-245,-62],[-40,12],[-77,-107],[37,-196],[-100,12],[-5,-46],[22,-18],[-32,-20],[-21,-87],[-31,-26]],[[1680,225],[-27,-45],[-20,60],[-44,-26],[-149,154],[-130,-67],[-89,78],[-2,51],[-30,11],[-93,-143],[-17,18],[-68,-9],[-55,132],[-235,-3],[-59,-52],[-179,-60],[-103,-93],[-60,50],[-113,35],[-51,75],[-67,26],[-53,67],[-36,-22]],[[1221,4096],[17,-31],[-52,-107],[-73,51],[-204,-90],[-49,-65],[2,-86],[-164,52],[-147,97],[-106,-226],[-111,46],[-65,-29],[-269,200]],[[1148,3661],[177,435]],[[38,3561],[60,-86],[144,35],[273,-151],[299,-51],[138,100],[136,149],[60,104]],[[38,3561],[60,-86],[144,35],[273,-151],[306,-50],[131,99],[186,220],[187,468]],[[2714,3983],[-73,10],[-109,-305],[45,-200],[-19,-174],[295,-145],[167,-319],[-23,-127],[-129,-42],[42,-511],[-20,-48],[-64,-48]],[[2813,2065],[23,-55],[47,-30],[149,-451],[-9,-84],[61,-373],[164,-84],[95,38],[369,35],[128,-195]],[[38,3561],[32,-59],[-70,-22]],[[4059,2527],[37,-48]],[[2546,4096],[97,-82],[11,-7],[7,-4],[9,-4]],[[2546,4096],[64,-46],[51,-47],[371,-139],[211,-146],[93,-163],[512,-392],[171,-579],[77,-166]],[[38,3561],[32,-59],[-70,-22]],[[1329,709],[-25,-46],[-46,17],[-433,967],[-267,480],[-117,534],[-199,320],[-147,488],[-67,111],[186,516]],[[0,0],[0,62]],[[0,1760],[85,11],[33,30],[22,169],[170,305],[129,378],[-12,32]],[[1148,3661],[177,435]],[[38,3561],[60,-86],[144,35],[273,-151],[306,-50],[131,99],[186,220],[187,468]],[[921,3388],[-98,-78],[-52,-5],[-260,55],[-269,150],[-144,-35],[-60,86]],[[2808,2061],[-36,-1],[-39,57],[-1,177],[-50,37],[-14,127],[-131,39],[-92,-13],[-93,40],[-255,32],[-372,-109],[-21,29]],[[2826,2074],[19,14]],[[38,3561],[60,-86],[144,35],[273,-151],[306,-50],[131,99],[186,220],[187,468]],[[1287,664],[-6,0],[-5,2],[-5,2],[-5,4],[-4,3],[-3,4],[-4,8]],[[1318,681],[-18,-19],[-38,13],[-22,88],[255,370],[28,105],[603,325],[751,548],[549,250],[561,215],[39,-5],[33,-44]],[[38,3561],[60,-86],[144,35],[273,-151],[306,-50],[131,99],[186,220],[187,468]],[[921,3388],[218,241],[186,467]],[[537,694],[-108,-45]],[[644,641],[-103,54]],[[921,713]],[[921,713],[1,0],[-1,0]],[[1001,737]],[[1001,737]],[[1002,737]],[[921,713]],[[2885,1974],[157,-482]],[[3049,1461],[1,-2]],[[4,3384],[-4,-3]],[[1259,707],[-1,1]],[[5,3500],[-5,-14]],[[2686,3995],[36,-41],[-11,-17],[47,-8]],[[3286,3647],[-24,-7]],[[3340,3605],[-19,40],[-34,3]],[[3908,3188],[-31,10]],[[477,2604],[1,1]],[[2724,27]],[[2724,27],[1,1]],[[2726,0],[-2,27]],[[153,3822],[-48,-68]],[[861,450],[-3,-4]],[[2993,402],[5,0]],[[0,2233],[66,-43]],[[0,2313],[0,-23]],[[86,2177],[112,-73]],[[150,1793],[31,74],[-36,108],[30,75]],[[882,949],[-107,59]],[[810,1096],[19,-24]],[[996,853],[-16,-2]],[[2226,539],[-35,-27]],[[2381,610],[43,-2],[168,-178],[51,-18]],[[1306,2762],[-1,-1],[1,-1],[0,1],[0,1]],[[2602,3301],[106,106]],[[67,3410],[1,-1]],[[1300,760],[2,-1]],[[280,4067]],[[1166,675],[-1,3]],[[1512,2600],[-35,-14]],[[541,251],[-15,-5]],[[526,246],[15,5]],[[539,251],[-12,-4]],[[529,247],[9,3]],[[838,419],[8,12]],[[844,430],[-10,-14],[11,14]],[[1482,630]],[[1482,630],[1,0]],[[1483,630]],[[4090,2544],[6,3]],[[2781,2010],[-133,-60]],[[561,2684]],[[3293,1054],[8,-21],[524,-108]],[[4096,1075],[-173,-144]],[[1302,760],[-31,4]],[[1314,757],[-11,3]],[[1303,760],[-1,0],[0,-1],[1,1]],[[1455,2893],[16,-89],[-19,-39],[-53,-8]],[[2279,3433],[-3,44],[-41,28],[-207,62]],[[2300,828],[262,-158],[178,-17],[160,-49],[222,-11]],[[3122,594],[-95,12],[-127,-1],[-159,49],[-179,16],[-247,153],[-15,5]],[[1364,1959],[-160,19]],[[1340,846],[1,-2]],[[1001,2889],[-121,110]],[[4082,2595],[2,3]],[[1081,1803],[123,175]],[[1245,1273],[-25,278],[-67,196]],[[1262,1181],[-20,38]],[[590,2678],[-114,-73]],[[1243,2728],[-56,15]],[[1272,2666],[-29,61]],[[1313,2624],[-40,41]],[[1317,2624],[-3,-1]],[[1344,2632],[-27,-8]],[[1374,2619],[-29,14]],[[1477,2586],[-76,20]],[[1519,2593],[-7,7]],[[1728,2326],[-34,-8],[-89,55],[-20,53]],[[1244,2727],[0,1],[-1,0],[0,-1],[1,0]],[[3626,3348],[33,-24]],[[1356,753],[13,-6]],[[1216,822],[54,-10]],[[1300,805],[-14,7]],[[1371,745],[1,0]],[[0,740],[193,-79],[107,-72],[111,60],[43,-32],[155,-12],[108,59],[155,48],[100,1],[29,24]],[[567,558],[21,47]],[[1092,752],[-42,-3]],[[1574,1262],[125,67]],[[1812,1392],[-54,-31]],[[1947,1529],[60,53],[381,173],[201,161],[184,90]],[[2885,1974],[-2,10]],[[3049,1461],[-7,31]],[[880,2999],[52,82],[-54,91]],[[3122,593],[21,-9],[3,0]],[[3146,584],[787,-9],[1,0]],[[3934,575],[95,-26],[67,-50]],[[3133,589],[-11,5]],[[4096,503],[-67,46],[-86,26],[-9,0]],[[3934,575],[-697,7],[-53,-3],[-32,4],[-6,1]],[[3146,584],[-2,1]],[[1256,765],[-1,0]],[[884,3339],[26,18]],[[1411,687],[0,1],[-1,0],[0,-1],[1,0]],[[1283,723],[-56,-37]],[[1311,922],[-13,32]],[[1390,2707],[-84,53]],[[1331,867],[-1,14]],[[2208,528],[1,-1]],[[2209,527],[0,2]],[[2209,527],[-2,-103],[72,-78]],[[2279,346],[4,-6],[5,-4],[-4,4],[-5,6]],[[1127,604],[2,1]],[[1302,759],[12,-2]],[[472,2706],[1,0]],[[365,2724],[4,0]],[[372,2724],[-3,0]],[[369,2724],[3,-1]],[[375,2723],[-2,1]],[[373,2723],[2,0]],[[384,2723],[-9,0]],[[3288,1049],[5,5]],[[1343,748],[1,-1]],[[428,649],[1,0],[-1,1]],[[538,695],[0,-1]],[[540,694],[0,1]],[[645,640],[-1,1],[1,-1]],[[646,640]],[[951,1475],[-2,10]],[[2313,720],[-1,0]],[[2313,719],[0,1]],[[428,649],[-1,1],[0,-1],[1,0]],[[540,695],[-2,0],[1,-1],[1,0],[0,1]],[[646,641],[-1,-1],[0,-1],[1,1],[0,1]],[[3196,575],[-1,1],[0,-1],[1,0]],[[67,3413],[-2,2]],[[3164,3646],[-88,102],[-2,84],[-302,101]],[[3351,3583],[-10,20]],[[3877,3198],[-218,126]],[[1220,689],[3,2]],[[0,3504],[5,-4]],[[0,3526]],[[36,3550],[-16,-12]],[[32,3599],[-2,-10]],[[260,4023],[-4,-8]],[[260,4023]],[[280,4064],[-3,-7]],[[280,4074],[-2,-7]],[[775,1008],[54,64]],[[1495,1123],[1,2]],[[1374,844],[-4,-47]],[[2797,2019],[-16,-9]],[[2797,2019],[1,1]],[[2798,2020],[-1,-1]],[[2800,2021],[-1,0]],[[2799,2020],[1,1]],[[2836,2048],[-36,-27]],[[1711,2374],[0,-11]],[[1711,2362],[123,-359],[-2,-438]],[[1721,3289],[40,-58],[99,-591],[-53,-99],[-40,-19]],[[1270,763],[58,-9]],[[1342,743],[13,23]],[[1364,774],[18,78]],[[1412,904],[3,8]],[[1931,1514],[-77,-78]],[[2773,2006],[93,53]],[[2883,1984],[-15,50]],[[1081,1799],[0,1]],[[1099,1783],[1,1]],[[1120,1767]],[[1126,604],[1,0]],[[1242,1219]],[[1245,1273]],[[1328,4075],[-27,-76]],[[1483,630],[-1,0]],[[1361,772],[-6,-6]],[[1482,631],[0,-1]],[[59,3665],[-24,-58]],[[63,3680],[-3,-10]],[[63,3680],[2,5]],[[63,3682],[0,-2]],[[65,3685],[-2,-1]],[[105,3754],[-40,-69]],[[60,3668],[-1,0],[0,-1],[1,0],[0,1]],[[62,3682],[1,1],[0,1],[-1,-1],[0,-1]],[[1334,756],[-2,-2]],[[1179,885],[35,-62]],[[1270,812],[16,0]],[[1324,780],[-3,-4]],[[372,2721],[1,2]],[[372,2723],[0,-2]],[[372,2721],[-8,-74],[44,-54]],[[373,2726],[-1,-2]],[[373,2724],[0,2]],[[426,2844],[-53,-118]],[[410,2595],[65,9]],[[410,2593],[1,1],[-2,1],[0,-2],[1,0]],[[1034,970],[-18,-202]],[[1016,768],[18,204]],[[1271,764],[-15,1]],[[1522,3091],[-17,-151],[-50,-47]],[[1194,3669]],[[277,4057],[3,9]],[[1148,758],[1,-1],[0,1],[-1,0]],[[1395,862],[1,1]],[[3969,2595],[-1,-1],[0,-1],[2,0],[-1,2]],[[1187,2743],[0,1]],[[2288,336],[65,-73],[195,-26]],[[2679,65],[-36,141]],[[799,313],[11,23]],[[372,2724],[0,-1],[1,0],[0,1],[-1,0]],[[1327,785]],[[26,3505],[11,5]],[[3959,2589],[-324,-109],[-144,-77],[-45,25],[-307,-131],[-125,-89]],[[1176,883],[-2,-2]],[[1176,883],[3,2]],[[1179,885],[-3,-2]],[[738,306],[61,7]],[[846,319],[121,-154]],[[1011,72],[4,-19]],[[4082,2596],[-36,-16]],[[4082,2595],[2,1]],[[4096,2586],[-14,11]],[[1328,753],[3,0]],[[1331,753],[-3,1]],[[0,2612],[33,14],[181,-90],[72,80]],[[293,2624],[4,4]],[[365,2724],[-35,-60]],[[1351,819],[0,-1]],[[3970,2596],[-1,-1]],[[3970,2594],[0,2]],[[3970,2596],[23,36]],[[1330,753],[1,-3]],[[1331,754],[-1,-1]],[[1337,842],[-1,-2]],[[1148,758],[-2,-1]],[[150,1793],[0,1]],[[2164,498],[27,14]],[[2491,3349],[10,-4]],[[629,1255],[39,-31]],[[1746,3253],[12,38]],[[178,3521],[113,40]],[[176,3522],[1,-2]],[[1394,859],[1,3]],[[1396,863],[1,3]],[[1150,936],[-1,0]],[[1149,934],[1,1]],[[1151,932],[-1,0]],[[1151,930],[0,1]],[[1158,922]],[[1158,921],[1,0]],[[1180,884],[1,1]],[[1198,860]],[[1258,707]],[[1838,1520],[60,-30]],[[3048,402],[54,7],[23,-36]],[[3951,426],[138,-1]],[[149,3537],[1,0],[-1,1],[-1,-1],[1,0]],[[1339,776],[4,-3]],[[1450,746],[-31,-19]],[[260,4023],[-4,-8]],[[280,4074],[-1,-6]],[[2870,2092],[34,30]],[[561,2684],[29,-6]],[[3920,3153],[-12,27]],[[4084,2598],[9,15]],[[2226,539],[18,30]],[[2708,3407],[433,112],[23,127]],[[2933,2148],[81,60]],[[882,949],[98,-98]],[[704,314],[23,25]],[[727,339],[45,46],[44,17]],[[816,402],[5,2],[29,32]],[[849,436],[-33,-34]],[[816,402],[-1,-1],[-88,-62]],[[727,339],[-2,-2]],[[1258,708],[-35,-17]],[[1259,707]],[[2643,206],[-25,69],[-70,-38]],[[2683,61],[-4,4]],[[3148,407],[0,17]],[[2904,2122],[29,26]],[[907,496],[0,1]],[[1321,776],[-4,-8]],[[1327,785],[-1,1]],[[1188,3640],[-2,-5]],[[1188,3640],[1,4]],[[1194,3669],[-5,-25]],[[1417,673],[0,-1]],[[1214,823],[3,-1]],[[2837,2067],[0,-1]],[[2838,2068],[-1,-2]],[[2837,2066],[4,-15]],[[2841,2051],[-1,-2]],[[2841,2051],[0,-1]],[[3015,398],[33,4]],[[3015,398],[-9,5],[-8,-1],[10,-4],[7,0]],[[3125,373],[22,-6]],[[3148,367],[307,-68],[185,26],[235,108],[76,-7]],[[4089,425],[7,3]],[[3147,368],[0,-1],[1,0]],[[3148,367],[0,1],[-1,0]],[[1370,797],[-43,-12]],[[1033,974],[2,-1]],[[1273,939],[-90,0]],[[1183,939],[89,0]],[[1659,894],[272,-9],[369,-57]],[[2300,828],[-369,57],[-272,9]],[[1397,749],[-5,-12]],[[1144,847],[-1,0]],[[267,516],[-93,-94],[-98,126],[-76,-34]],[[2287,592],[91,18]],[[149,3538],[-86,136],[-43,27]],[[175,3521],[-26,16]],[[1153,1747]],[[1193,2842],[29,8]],[[2841,2050],[-5,-2]],[[2838,2068],[32,24]],[[66,2190],[20,-13]],[[1272,813],[-276,40]],[[1292,813],[-6,-1]],[[1292,813],[9,-7]],[[1372,745],[6,-2]],[[559,2685],[2,-1]],[[1700,3253],[-95,-60],[-14,-53],[-65,-43]],[[2299,3406],[36,-35],[82,-9]],[[2577,3312],[25,-10],[80,102],[26,3]],[[3347,3601],[4,-18]],[[3625,3347],[251,-153]],[[4096,3035],[-175,114]],[[1369,747],[2,-2]],[[66,3411],[-31,-7]],[[35,3403],[-1,1],[0,-1],[1,-1],[0,1]],[[1329,883],[-2,7]],[[1330,881],[-1,2]],[[1257,706],[2,1]],[[1262,709],[-4,-1]],[[1259,707],[3,2]],[[1262,709],[27,12]],[[1778,3327],[64,78],[185,102]],[[2279,3419],[22,-14]],[[463,2756],[0,-7]],[[463,2748],[10,-96]],[[1301,804],[19,-14]],[[1326,786],[-25,19]],[[462,2748],[1,0]],[[463,2748],[0,1],[-1,-1]],[[1744,4096],[14,-91]],[[1757,4001],[-5,-21]],[[1756,4002],[1,-1]],[[1758,4005],[-1,-2]],[[1757,4001],[0,1]],[[1757,4003],[1,2]],[[1757,4003]],[[1757,4003],[-1,0],[0,-1],[1,1]],[[1327,890]],[[407,2718],[-23,5]],[[20,3701],[-20,12]],[[176,3521],[-1,0]],[[1157,717],[8,-42]],[[1853,1432],[1,4]],[[3047,398],[55,12],[24,-37]],[[3940,419],[156,4]],[[2284,590],[3,2]],[[1285,813],[1,-1]],[[1320,790],[6,-4]],[[1326,784],[-2,-4]],[[3015,398],[32,0]],[[3015,398],[-17,4]],[[3126,373],[21,-6]],[[3148,367],[307,-68],[185,26],[235,108],[65,-14]],[[3147,368],[0,-1],[1,0]],[[3148,367],[0,1],[-1,0]],[[1699,1329],[59,32]],[[0,3570],[2,8]],[[1509,1149],[0,1]],[[1351,818],[-1,-20]],[[1423,936],[-9,-24]],[[1425,941],[-1,-3]],[[1430,953],[-4,-10]],[[1458,1019],[-10,-20]],[[1475,1062],[-14,-35]],[[1462,1026],[14,36]],[[1475,1062],[1,0]],[[1476,1062],[0,1],[-1,0]],[[1475,1063],[0,-1]],[[1491,1115],[-16,-52]],[[1476,1064],[16,51]],[[1492,1118],[0,-1]],[[1492,1117],[0,1]],[[1509,1150],[-17,-32]],[[1574,1264],[-60,-67]],[[1827,1400],[-15,-8]],[[1853,1433],[1,0]],[[1948,1529],[-18,-15]],[[2802,2135],[-11,-83]],[[2823,2153],[-20,-16]],[[3946,2758],[55,-114]],[[1460,1026],[1,-1],[1,1],[-1,1],[-1,-1]],[[1493,1116],[-1,1]],[[1492,1117],[-1,-1],[1,-1]],[[1492,1115],[1,1]],[[144,1775],[275,-294],[74,-50],[136,-176]],[[668,1224],[142,-128]],[[3262,3640],[-9,0]],[[1752,3980],[-61,-319],[-6,-383]],[[1344,747],[4,7]],[[3253,3640],[-89,6]],[[3591,3372],[-172,128],[-68,83]],[[463,2750],[0,-1]],[[463,2748],[0,-1]],[[198,2104],[-23,-54]],[[1919,636],[219,-59],[9,-63],[21,0]],[[1522,3091],[0,4]],[[3626,3348],[-1,-1]],[[3919,3152],[2,-3]],[[5,3500]],[[59,3667],[1,0]],[[60,3668],[-1,0]],[[2803,2137],[-1,0],[0,-2],[1,1],[0,1]],[[2318,719],[14,-2]],[[2358,698],[24,-22]],[[2300,322],[-9,11]],[[2748,32],[-2,1]],[[1243,2825],[63,-63]],[[1209,839],[-5,11]],[[1144,849],[0,-2]],[[1174,881],[-30,-32]],[[1144,847],[0,2]],[[1339,776],[-22,18]],[[873,445],[-10,-9]],[[865,436],[8,9]],[[876,451],[-3,-6]],[[1024,3493]],[[1364,1959],[10,30],[-62,87],[1,100],[62,44],[-10,113],[40,5],[-7,45],[36,10],[54,113]],[[1504,2565],[-27,21]],[[3148,368],[0,39]],[[3148,424],[1,144],[46,8]],[[1255,765],[-55,1]],[[1387,726]],[[1410,689],[0,-1]],[[1411,687]],[[1149,2778],[-130,94]],[[1024,3493],[134,133]],[[1081,1799],[18,-16]],[[1100,1784],[20,-17]],[[1120,1767],[33,-20]],[[1227,686],[-98,-81]],[[1274,3899],[-83,-129],[-2,-54]],[[1242,1219],[3,54]],[[1438,2718],[-5,0]],[[1477,2586],[-11,107],[-27,24]],[[1711,2363],[0,-1]],[[67,3413],[19,8]],[[171,3503],[3,13]],[[2415,3369],[65,-18]],[[2555,3324],[24,-12]],[[3958,2597],[8,-2]],[[3966,2595],[2,-1]],[[3968,2594],[-2,1]],[[3993,2632],[103,16]],[[1143,847],[1,-1]],[[2314,818],[-4,13]],[[2312,818],[2,0]],[[2314,818],[-1,-97]],[[2314,720],[4,-1]],[[2332,717],[26,-19]],[[2382,676],[43,-66]],[[2425,610],[0,-2]],[[2426,608],[-1,2]],[[1035,973],[28,-16],[63,-25],[10,-1],[47,8]],[[1183,939],[-17,0],[-30,-7],[-11,1],[-79,34]],[[1272,939],[32,0],[68,16],[58,-18],[181,-13],[31,-21],[17,-9]],[[1659,894],[-48,31],[-239,31],[-99,-17]],[[4096,3038],[-176,115]],[[3224,2911],[9,-3]],[[1361,2751],[-29,-22]],[[3968,2591],[-9,-2]],[[3968,2591],[1,2]],[[3968,2593],[0,-2]],[[1387,726],[1,2]],[[1401,698],[9,-10]],[[1411,687],[4,-9]],[[1399,2757],[-38,-6]],[[1143,847]],[[1144,845],[0,1]],[[1144,846],[0,-1]],[[1144,845],[4,-85]],[[1144,846],[0,1]],[[1148,760],[0,-2]],[[1149,758],[-1,2]],[[1148,757],[1,-1]],[[1149,756],[0,1]],[[1149,756],[8,-39]],[[1484,629],[83,-29],[356,20],[183,-110],[55,-9],[45,27]],[[2206,528],[2,0]],[[2207,529],[-1,-1]],[[2210,530],[-2,0]],[[2209,529],[1,1]],[[2210,530],[16,9]],[[2382,609],[42,-1]],[[2425,608],[-1,0]],[[2424,608],[1,-1]],[[2208,529],[0,1],[0,-1]],[[1395,863],[0,-1]],[[3591,3372],[35,-24]],[[1121,593],[5,11]],[[1427,944],[3,9]],[[1515,1197],[38,54]],[[1289,721],[24,15]],[[1317,768],[-3,-11]],[[1852,1424],[1,8]],[[780,2591],[-11,5]],[[1341,764],[-2,1]],[[1218,688],[2,1]],[[396,2558],[3,-5]],[[399,2554],[-2,5]],[[284,4096],[1,-2]],[[3908,3180],[0,-1]],[[4084,2598],[-2,-2]],[[1019,2872],[-18,17]],[[1326,786],[1,-1]],[[278,4067],[2,-3]],[[1332,753],[1,-1]],[[1333,752],[-1,1]],[[1333,752],[10,-4]],[[1348,754],[1,1]],[[1382,852],[1,-1]],[[1397,866],[15,38]],[[2866,2059],[2,-25]],[[0,3503],[1,-1]],[[1,3502],[9,-3]],[[10,3499],[16,6]],[[567,558],[-113,-99],[18,-25],[-51,-101],[-79,74],[-39,88]],[[4046,2580],[36,15]],[[4082,2596],[14,-9]],[[1007,3471],[-150,-151],[-25,-97],[46,-51]],[[1301,3999],[-27,-100]],[[1371,4096],[-1,-26],[-42,5]],[[1417,672],[0,1]],[[1158,3626],[9,8]],[[1176,3637],[10,-2]],[[1189,3716],[5,-47]],[[1283,723],[49,31]],[[1340,846],[-9,21]],[[1351,819],[-15,21]],[[1341,844],[-4,-2]],[[1343,773],[2,2]],[[1433,2718],[-43,-11]],[[1439,2717],[-1,1]],[[1453,755],[85,-40]],[[66,3411],[1,0]],[[68,3411],[12,-21]],[[80,3390],[1,-2]],[[82,3389],[-2,1]],[[81,3388],[0,-1],[1,0],[0,1],[-1,0]],[[1424,938],[1,3]],[[1460,1026],[1,-1]],[[1476,1063],[0,1]],[[1514,1197],[60,67]],[[1813,1392],[40,20]],[[1851,1424],[1,-10]],[[1854,1433],[-3,-8]],[[1851,1424],[0,1],[-1,-1],[1,0]],[[1851,1424]],[[409,2594],[-3,2]],[[410,2599],[-1,-4]],[[426,2845],[-2,-1]],[[475,2605],[-3,-1]],[[82,3387],[1,-2]],[[83,3385],[-1,2]],[[83,3385],[36,-44]],[[119,3341],[1,0]],[[120,3341],[-1,0]],[[426,2846],[-306,495]],[[427,2845],[25,-50]],[[473,2652],[2,-47]],[[476,2604],[0,1],[-1,0]],[[475,2605],[0,-1],[1,0]],[[476,2604],[329,-661],[-1,-185],[48,-78]],[[852,1680],[1,-1]],[[853,1679],[-1,1]],[[853,1678],[1,-1]],[[854,1677],[0,1]],[[854,1677],[231,-508]],[[906,495],[1,1]],[[908,498],[151,79],[104,97]],[[1085,1169],[1,-1]],[[1086,1168],[-1,1]],[[1086,1168]],[[1086,1168],[0,-1]],[[1086,1167],[0,1]],[[1086,1167],[17,-75]],[[1163,674],[2,0]],[[1165,675],[-2,-1]],[[1170,676],[-4,-1]],[[1166,675],[4,1]],[[1170,676],[48,12]],[[426,2846],[0,-1],[1,-1],[0,1],[-1,1]],[[853,1679],[0,-1],[1,0],[0,1],[-1,0]],[[1585,2531],[-1,1],[-1,0],[0,-2],[2,1]],[[427,649]],[[277,4057],[-17,-34]],[[285,4094],[-5,-20]],[[1314,757],[-1,-21]],[[1327,785],[-1,-1]],[[1313,757],[1,-1]],[[1314,758],[-1,-1]],[[4066,415]],[[884,3339]],[[910,3357],[0,-1]],[[1483,630],[1,-1]],[[0,3236],[91,-82]],[[91,3154],[2,-2],[43,-69]],[[136,3083],[71,-113]],[[207,2970],[6,-10],[79,-181]],[[292,2779],[11,-23],[11,-35],[71,-143],[11,-20]],[[397,2559],[-82,162],[-11,33],[-12,25]],[[292,2779],[-85,191]],[[207,2970],[-5,10],[-66,103]],[[136,3083],[-45,71]],[[91,3154],[-12,19],[-79,64]],[[399,2553],[3,-6]],[[402,2547],[0,-1],[10,-69]],[[412,2477],[25,-187],[3,-11],[9,-21],[5,-10],[91,-134],[33,-129],[130,-352],[1,-2]],[[709,1631],[54,-108]],[[763,1523],[49,-99],[84,-136],[14,-41],[1,-2]],[[911,1245],[110,-212],[3,-12]],[[1024,1021],[5,-18]],[[1029,1003],[1,-2],[0,-3]],[[1030,998],[4,-21],[0,-7]],[[1034,972],[-1,14],[-3,12]],[[1030,998],[-1,5]],[[1029,1003],[-3,13],[-2,5]],[[1024,1021],[-113,223],[0,1]],[[911,1245],[-3,9],[-12,33],[-84,137],[-49,99]],[[763,1523],[-53,105],[-1,3]],[[709,1631],[-2,6],[-5,20],[-2,7],[-121,320],[-33,130],[-105,165],[-4,9],[-25,189]],[[412,2477],[-10,70]],[[402,2547],[0,1],[-3,6]],[[1016,768],[-13,-117],[-154,-215]],[[850,436],[11,14]],[[869,459],[19,23],[115,169],[13,117]],[[732,335],[9,-19]],[[26,3566],[-24,12]],[[1345,775],[4,12]],[[1222,2850],[21,-25]],[[1401,698],[-14,28]],[[1415,678],[2,-5]],[[1417,672],[65,-42]],[[1392,737],[-4,-9]],[[1273,2665],[0,1],[-1,0],[0,-1],[1,0]],[[1314,2623],[0,1],[-1,0],[0,-1],[1,0]],[[1345,2633],[-1,0],[0,-1],[1,1]],[[1330,753]],[[1332,754],[-1,0]],[[3050,1459],[17,-21]],[[2480,3351],[11,-2]],[[2510,3342],[5,-2]],[[2526,3336],[3,-1]],[[2540,3331],[15,-7]],[[2312,720],[1,-1],[1,1],[-1,1],[-1,-1]],[[32,3601],[-6,-35]],[[1148,757],[-58,-5]],[[1151,758],[-2,0]],[[1149,757],[2,1]],[[1200,766],[-49,-8]],[[1035,973],[-2,1]],[[1712,2463],[-1,-89]],[[1767,2522],[-51,-21],[-5,-33]],[[1832,1565],[6,-45]],[[1448,999],[-18,-46]],[[1514,1197],[-5,-47]],[[286,2616],[7,8]],[[297,2628],[33,36]],[[1286,812],[6,-3]],[[906,495],[1,1]],[[2244,569],[38,20]],[[0,3572],[0,-1]],[[2837,2067],[1,1]],[[1343,773],[-7,-12]],[[456,2700],[16,6]],[[3825,925],[47,2]],[[3873,927],[50,4]],[[425,649],[-133,-56],[-96,67],[-196,80]],[[920,713],[-273,-72]],[[1001,737],[-79,-24]],[[1090,752],[-44,-4]],[[1419,727],[0,-1]],[[1450,746],[2,9]],[[1852,1412],[-25,-12]],[[1853,1412],[1,1],[-1,0],[0,-1]],[[1452,755],[1,0]],[[268,0],[7,9],[49,157],[54,44],[151,37],[12,4],[163,63]],[[725,337],[-180,-84],[-170,-44],[-52,-43],[-3,-6],[-16,-49],[0,-1],[-50,-110]],[[1302,1112],[-40,69]],[[1298,954],[4,157]],[[1327,890],[-16,32]],[[504,2698],[55,-13]],[[2417,3362],[29,-4]],[[2453,3356],[27,-5]],[[2554,3322],[23,-10]],[[3343,3609],[4,-8]],[[1574,1264],[239,128]],[[3828,2935],[1,-1]],[[3829,2938],[-1,-1]],[[2446,3358],[7,-2]],[[150,1794],[-6,-19]],[[1401,2606],[-27,13]],[[1583,2532],[-64,61]],[[1585,2426],[-1,104]],[[742,313],[-4,-7]],[[35,3607],[-3,-6]],[[47,3447],[12,-23]],[[59,3423],[7,-11]],[[67,3411],[-1,0]],[[68,3411]],[[59,3424],[0,-1],[0,1]],[[474,2677],[27,20]],[[907,496],[0,1]],[[1166,675],[-1,0],[1,-1],[0,1]],[[2282,589],[3,3]],[[2285,592],[1,1]],[[2286,593],[-1,-1]],[[2287,594],[-1,-1]],[[2287,593],[0,1]],[[2287,594],[4,5]],[[2291,599],[2,1]],[[2293,600],[-2,-1]],[[2293,600]],[[2293,600]],[[2293,600],[9,0]],[[2303,600],[-1,0]],[[2302,600],[1,-1]],[[2303,599],[0,1]],[[2303,600],[0,-1]],[[2303,599],[2,0]],[[2305,599],[-2,1]],[[2305,599],[23,0]],[[2328,599],[1,0]],[[2329,599],[-1,0]],[[2330,598],[0,1]],[[2330,599]],[[2330,599],[40,9]],[[2372,609],[-2,-1]],[[2370,608],[2,0]],[[2372,609],[0,-1]],[[2372,608],[1,0],[0,1],[-1,0]],[[2374,609],[-2,0]],[[2373,608],[1,1]],[[2374,609],[8,0]],[[2286,593],[1,0],[-1,0]],[[2293,600]],[[2293,600]],[[2329,599],[0,-1],[1,1],[-1,0]],[[1167,3634],[9,3]],[[1334,756],[2,5]],[[47,3514],[-3,-1]],[[47,3504],[0,-2]],[[47,3502],[1,2]],[[47,3502],[0,-55]],[[49,3508],[-2,-2]],[[48,3505],[1,3]],[[49,3508],[1,3]],[[452,2795],[11,-39]],[[1103,1092],[16,-122]],[[1292,809],[9,-5]],[[1301,805],[-1,0]],[[47,3504],[1,1],[-1,1],[-1,-1],[1,-1]],[[1380,793],[-10,4]],[[905,496],[-3,-4]],[[3286,3647],[1,1]],[[1270,763],[-178,-11]],[[1415,912],[12,32]],[[1448,999],[47,124]],[[1496,1125],[13,24]],[[1553,1251],[21,11]],[[1812,1392],[40,32]],[[1947,1529],[-16,-15]],[[2027,3507],[1,60]],[[876,451],[30,44]],[[907,497],[-2,-1]],[[907,496]],[[1320,2703],[9,-2]],[[1332,2729],[-2,-28]],[[1193,2842],[-43,-62]],[[427,2846],[-2,2]],[[427,2844],[1,-1]],[[475,2603],[1,-2]],[[476,2605],[-1,2]],[[905,496],[1,-1]],[[1084,1170],[1,-2]],[[2621,4096],[65,-101]],[[2772,3933],[-14,-4]],[[3341,3603],[-1,2]],[[1001,737]],[[4036,2580],[-65,13]],[[2164,501],[0,-3]],[[50,3511],[-3,3]],[[47,3513],[1,-1]],[[1286,812],[-14,1]],[[1292,813]],[[1292,813]],[[1301,806],[16,-12]],[[1336,767],[1,0]],[[1351,758],[-10,6]],[[1419,726],[-41,17]],[[2282,589],[2,1]],[[2381,610],[-3,0]],[[1180,886],[-1,0]],[[1046,967],[-11,6]],[[1197,861]],[[4,3384],[30,18]],[[1350,798],[-1,-11]],[[260,4023]],[[48,3512],[1,-3]],[[1394,859],[-11,-8]],[[1514,1197],[1,0]],[[1414,912],[-12,-32]],[[1854,1433],[-1,0]],[[1867,1455],[-13,-22]],[[1930,1514],[-61,-55]],[[3907,3180],[-37,-47]],[[3904,3258],[4,-75]],[[3908,3183],[-1,-2]],[[3908,3181],[0,2]],[[3908,3181],[-1,0],[0,-1],[1,0],[0,1]],[[1328,754],[0,-1]],[[2310,831],[1,0]],[[2311,831],[1,-1]],[[2313,819],[-1,-1]],[[2313,818],[0,1]],[[2313,819]],[[908,494],[59,-48],[154,147]],[[1390,777],[-10,16]],[[1393,767],[4,-18]],[[1046,748],[-44,-11]],[[66,3412],[-2,-1]],[[1746,3253],[-20,-18],[-26,18]],[[1758,3291],[20,36]],[[1361,772],[3,2]],[[810,336],[36,-17]],[[809,337],[1,-1],[0,1],[-1,0]],[[1320,2703],[-9,1]],[[37,3510],[7,3]],[[44,3513],[3,0]],[[50,3511]],[[12,3534],[-4,-2]],[[16,3536],[-3,-2]],[[20,3538],[-3,-2]],[[13,3533],[-1,1],[0,-1],[1,0]],[[17,3536],[-1,0],[1,0]],[[4046,2580],[-10,0]],[[2426,607],[1,-1]],[[2427,606],[-1,1]],[[2427,606],[165,-175],[51,-19]],[[2728,402],[254,-1]],[[2992,402],[-10,-1]],[[2992,402],[1,0]],[[2425,608],[0,-1],[1,0],[0,1],[-1,0]],[[769,2596],[-179,82]],[[1187,2743],[-291,-139],[-116,-13]],[[68,3412],[1,1]],[[567,558]],[[281,4067],[-1,0]],[[280,4066],[1,0]],[[1048,21],[21,-21]],[[1488,2506],[54,30],[-38,29]],[[1011,72],[-44,93]],[[1350,756],[6,-3]],[[4036,2579],[10,1]],[[1812,1392],[-238,-128]],[[2791,2052],[-404,-297],[-378,-173],[-61,-53]],[[3014,2208],[-120,0],[-71,-55]],[[3829,2935],[117,-177]],[[3870,3133],[-39,-75],[-2,-121]],[[4096,3905],[-2,-1],[-52,-312],[-45,-13],[-117,-185],[24,-136]],[[3828,2935],[1,1],[0,1]],[[3829,2937],[-1,0],[0,-2]],[[4093,2613],[3,4]],[[8,3532],[-8,-6]],[[35,3403],[1,1]],[[64,3411],[-1,0]],[[1150,2780],[-1,-2]],[[435,2688],[-28,30]],[[34,3403],[-2,-1]],[[86,3421],[69,30],[16,52]],[[174,3516],[2,4]],[[291,3561],[40,0],[155,-181],[241,-37],[131,64],[78,11],[137,-60],[117,16],[86,41],[425,-133],[77,45]],[[2027,3507],[252,-88]],[[2301,3405],[31,-32],[83,-4]],[[2579,3312],[138,-55],[367,-241],[41,-68],[99,-37]],[[3233,2908],[261,-86],[157,-106],[196,-35],[28,-58],[83,-26]],[[2841,2050],[-4,17]],[[3873,928],[-1,0],[0,-1],[1,0],[0,1]],[[2683,61],[40,-32]],[[2723,29],[1,-1]],[[2724,29],[-1,0]],[[2725,29]],[[2725,28],[0,1]],[[2746,33],[-21,-4]],[[2750,0],[-2,32]],[[2724,28],[1,0],[0,1]],[[2725,29],[-1,-1]],[[435,2689],[20,11],[-20,-12]],[[473,2706],[1,-29]],[[501,2697],[3,1]],[[2480,3351],[74,-29]],[[3343,3609],[-33,46],[-48,-15]],[[3917,3161],[-41,33]],[[1522,3095],[4,2]],[[1046,748],[4,1]],[[3970,2593],[66,-14]],[[3971,2593],[-1,1]],[[501,2698],[0,-1]],[[1251,2726],[0,1]],[[1311,2704]],[[3917,3161],[2,-9]],[[1383,851],[-9,-7]],[[1395,862],[-1,-3]],[[1402,880],[-7,-17]],[[1387,726],[-3,-8]],[[1329,883]],[[1712,2466],[-1,0]],[[1711,2465],[1,-2],[0,3]],[[1712,2465],[0,1]],[[1711,2466],[1,-1]],[[3907,3178],[1,2]],[[1317,2624]],[[1017,51],[31,-30]],[[1390,777],[3,-10]],[[30,3589],[6,-39]],[[148,3825],[-116,-226]],[[2501,3345],[9,-3]],[[2515,3340],[11,-4]],[[2529,3335],[11,-4]],[[280,4074]],[[1302,1111],[0,1]],[[3144,585],[-11,4]],[[1538,715],[239,-26],[9,-33],[133,-20]],[[2164,501],[4,13]],[[2226,539]],[[303,495],[-36,21]],[[256,4015],[-103,-193]],[[1024,3493],[-17,-22]],[[1081,1800],[-1,2],[1,1],[-1,-2],[1,-1]],[[1081,1800]],[[2643,412],[85,-10]],[[3067,1438],[221,-389]],[[1119,970],[29,-33]],[[1148,937],[6,-10]],[[1154,927],[4,-5]],[[1158,922],[1,-2]],[[1159,920],[18,-30]],[[1177,890],[2,-5]],[[1182,882],[-5,8]],[[1201,855],[-6,9]],[[1216,822],[-4,5]],[[256,4015],[-108,-190]],[[0,0],[0,2284],[0,1812],[4096,0],[0,-4096],[-4096,0]],[[0,176],[16,7],[32,-60],[-48,-9],[0,62]],[[12,124],[1,-5],[21,3],[-2,6],[-20,-4]],[[0,258],[19,-26],[-7,-27],[-12,16],[0,37]],[[2548,236],[8,58],[53,5],[28,-14],[10,-81],[-67,26],[-28,-21],[-4,27]],[[1360,713],[34,55],[58,-12],[29,-100],[-51,9],[-6,25],[-12,-16],[-24,53],[-28,-14]],[[1241,767],[41,20],[5,-13],[32,-1],[-26,8],[11,33],[-34,-3],[61,56],[68,-5],[-70,21],[29,53],[13,-26],[21,16],[34,-21],[8,-46],[18,18],[5,-40],[30,5],[2,-39],[11,19],[32,-9],[-46,-53],[-67,23],[-51,-11],[-68,-109],[-35,32],[25,25],[-27,9],[7,34],[-29,4]],[[1463,824],[15,-15],[6,5],[-14,15],[-7,-5]],[[3484,1428],[25,53],[36,-18],[-3,-35],[80,40],[25,-42],[-19,-35],[-74,-5],[-70,42]],[[1721,1379],[86,27],[-9,35],[-27,-2],[10,106],[61,-27],[2,24],[52,3],[-11,-48],[50,27],[-11,-23],[36,-29],[-22,8],[-8,-35],[46,18],[-36,-53],[-40,-2],[-27,38],[-148,-97],[24,26],[-28,4]],[[2745,1993],[67,47],[-5,83],[24,24],[34,-14],[-12,28],[55,5],[-19,-48],[18,4],[-8,-69],[20,-12],[-40,-35],[25,-49],[-43,53],[-28,6],[-10,-28],[-16,34],[-62,-29]],[[2896,2041],[2,-10],[5,-2],[2,10],[-9,2]],[[0,3637],[36,-13],[-9,-57],[26,-47],[-53,-36],[0,153]],[[1138,3628],[15,48],[35,4],[-24,19],[19,-6],[8,30],[33,-74],[63,17],[-39,-31],[32,-21],[-142,14]],[[204,4054],[11,36],[96,6],[-12,-19],[52,-35],[-54,-37],[-66,16],[-27,33]],[[1600,2512],[21,37],[22,-20],[2,20],[36,12],[23,-71],[-14,-104],[-21,-7],[-9,31],[-38,-7],[27,67],[-38,-12],[-11,54]],[[3949,2519],[43,57],[41,-12],[30,-51],[-13,-35],[-30,2],[15,-42],[-27,-14],[-20,77],[-39,18]],[[4096,2607],[0,-88],[-15,-5],[-72,105],[81,1],[6,-13]],[[1166,0],[-129,0],[26,50],[103,-50]],[[2383,680],[-57,-159],[-49,19],[-37,66],[13,74],[65,0],[0,47],[65,-47]],[[1671,962],[-17,-95],[-19,-32],[-61,-14],[-64,-189],[-97,-12],[-139,26],[-99,86],[-41,-33],[-37,52],[-105,23],[5,109],[92,220],[46,-37],[52,-138],[64,-13],[34,38],[-3,68],[-26,63],[-38,19],[23,65],[279,170],[54,1],[0,-142],[97,-235]],[[19,1482],[-19,-1],[0,181],[86,-88],[-20,-66],[-47,-26]],[[2868,1998],[-64,-1],[-33,142],[97,26],[98,-26],[-54,-110],[-44,-31]],[[0,2203],[86,-17],[3,-53],[-89,-71],[0,141]],[[4096,2794],[0,-307],[-10,-8],[-118,49],[-32,223],[54,39],[106,4]],[[1658,2617],[82,18],[29,-26],[-3,-138],[-30,-97],[-89,1],[-170,140],[62,115],[100,27],[19,-40]],[[1425,2695],[-12,-86],[-27,-7],[-39,54],[-64,0],[0,95],[-60,57],[-5,37],[33,47],[138,-112],[36,-85]],[[538,2654],[-61,-4],[-100,53],[25,70],[112,49],[25,70],[40,-38],[-35,-131],[27,-20],[-33,-49]],[[61,3881],[219,-142],[-13,-53],[-67,-75],[-30,-109],[-84,-46],[0,-47],[-54,5],[-32,-34],[0,316],[21,-4],[-21,200],[61,-11]],[[3354,3597],[-150,66],[-12,76],[127,22],[29,-41],[6,-123]],[[2611,3640],[63,-89],[-4,-33],[-61,-62],[0,-141],[-87,-8],[-107,55],[0,189],[65,0],[0,47],[53,-5],[55,55],[23,-8]],[[2689,4096],[49,-77],[33,50],[22,-13],[-22,-129],[-60,-18],[-63,30],[-42,71],[3,86],[80,0]],[[362,4096],[-17,-75],[-130,0],[2,75],[145,0]],[[1768,3974],[-129,47],[-11,75],[178,0],[-38,-122]],[[1995,1386],[-169,-13],[-42,57],[-16,144],[162,-23],[48,-61],[17,-104]],[[0,0],[0,417],[64,-10],[72,-97],[-36,-305],[-5,-5],[-95,0]],[[2792,0],[-124,0],[11,65],[115,-55],[-2,-10]],[[99,164],[27,25],[12,-44],[62,34],[36,-4],[9,-37],[61,3],[-37,-33],[7,-30],[-48,-2],[17,25],[-128,35],[-18,28]],[[2214,631],[55,16],[13,39],[47,6],[66,-104],[-32,15],[-2,-27],[-54,-9],[-15,-31],[-64,44],[8,39],[-22,12]],[[4096,423],[0,-2],[-13,-3],[6,-45],[-56,10],[-44,-58],[-58,73],[20,8],[-13,16],[64,19],[94,-18]],[[3035,340],[28,132],[22,-45],[50,10],[9,-19],[35,60],[30,-4],[12,-51],[-40,2],[-10,-27],[-18,17],[-33,-51],[-85,-24]],[[3821,895],[5,38],[83,21],[43,-71],[-106,-20],[-25,32]],[[240,2665],[6,9],[47,-50],[7,0],[-53,53],[12,53],[72,-60],[-3,-36],[57,-83],[18,12],[-19,-46],[-52,55],[17,14],[-30,41],[10,23],[-28,-50],[-61,65]],[[1251,2726],[17,37],[113,-60],[45,16],[13,-1],[-46,-22],[17,-27],[-66,6],[-27,-51],[-6,80],[-32,-10],[-28,32]],[[404,2723],[71,40],[44,-100],[-66,-16],[-49,76]],[[3827,3164],[48,24],[12,69],[34,3],[-4,-31],[25,12],[-1,-58],[-47,-67],[-67,48]],[[2456,3379],[35,42],[59,-39],[16,25],[-18,-137],[-92,109]],[[2630,3888],[6,52],[69,8],[-15,29],[-20,-17],[-24,12],[18,-3],[-18,23],[96,8],[26,-113],[-63,29],[-75,-28]],[[3253,3637],[4,30],[61,31],[57,-37],[-54,-86],[-38,42],[15,6],[-5,15],[-28,-26],[-12,25]],[[3755,4096],[21,-51],[-13,-41],[38,-24],[13,47],[39,-42],[-5,-54],[-23,-19],[-18,26],[17,-6],[24,39],[-16,15],[-33,-12],[8,-24],[-102,33],[-5,35],[-21,-7],[-18,33],[-20,-26],[13,25],[-26,-3],[21,16],[-19,40],[125,0]],[[3899,1459],[62,86],[60,-73],[-87,-39],[-35,26]]]}