{"objects":{"water":{"type":"GeometryCollection","geometries":[]},"buildings":{"type":"GeometryCollection","geometries":[]},"places":{"type":"GeometryCollection","geometries":[{"type":"Point","properties":{"name:pt":"S\u00e9rvia","name:cy":"Serbia","name:ko":"\uc138\ub974\ube44\uc544","name:kn":"\u0cb8\u0cc6\u0cb0\u0ccd\u0cac\u0cbf\u0caf\u0cbe","name:km":"\u179f\u17be\u1794","name:kl":"Serbia","name:cs":"Srbsko","name:tt":"\u0421\u0435\u0440\u0431\u0438\u044f","name:tr":"S\u0131rbistan","name:ku":"Serbistan","name:ro":"Serbia","name:ks":"\u0633\u064e\u0631\u0628\u0650\u06cc\u0627","name:to":"S\u0113pia","name:tl":"Serbya","name:sv":"Serbien","name:or":"\u0b38\u0b30\u0b4d\u0b2c\u0b3f\u0b06","name:pl":"Serbia","name:ta":"\u0b9a\u0bc6\u0bb0\u0bcd\u0baa\u0bbf\u0baf\u0bbe","name:tg":"\u0421\u0435\u0440\u0431\u0438\u044f","name:ca":"S\u00e8rbia","name:te":"\u0c38\u0c46\u0c30\u0c4d\u0c2c\u0c3f\u0c2f\u0c3e","name:vi":"Serbia","name:hu":"Szerbia","name:ka":"\u10e1\u10d4\u10e0\u10d1\u10d8\u10d0","name:da":"Serbien","name:de":"Serbien","name:dz":"\u0f66\u0f71\u0f62\u0f0b\u0f56\u0fb7\u0f72\u0f0b\u0f61","source":"openstreetmap.org","name:lv":"Serbija","name:lt":"Serbija","name:uz":"Serbiya","name:he":"\u05e1\u05e8\u05d1\u05d9\u05d4","kind":"country","name:ur":"\u0633\u0631\u0628\u06cc\u0627","name:lb":"Serbien","name:la":"Serbia","official_name":"\u0420\u0435\u043f\u0443\u0431\u043b\u0438\u043a\u0430 \u0421\u0440\u0431\u0438\u0458\u0430","name:uk":"\u0421\u0435\u0440\u0431\u0456\u044f","min_zoom":2.0,"name:li":"Servi\u00eb","name:hr":"Srbija","name:lo":"\u0ec0\u0e8a\u0eb5\u0ec0\u0e9a\u0e8d","population":10159046,"name:el":"\u03a3\u03b5\u03c1\u03b2\u03af\u03b1","name:eo":"Serbujo","name:en":"Serbia","name":"\u0421\u0440\u0431\u0438\u0458\u0430","name:ee":"Serbia nutome","name:th":"\u0e1b\u0e23\u0e30\u0e40\u0e17\u0e28\u0e40\u0e0b\u0e2d\u0e23\u0e4c\u0e40\u0e1a\u0e35\u0e22","name:eu":"Serbia","name:et":"Serbia","name:nl":"Servi\u00eb","name:es":"Serbia","name:ia":"Serbia","name:rm":"Serbia","alt_name:eo":"Serbio","name:az":"Serbiya","name:id":"Serbia","name:ms":"Serbia","name:mr":"\u0938\u0930\u094d\u092c\u093f\u092f\u093e","name:ar":"\u0635\u0631\u0628\u064a\u0627","name:my":"\u1006\u102c\u1038\u1018\u102e\u1038\u101a\u102c\u1038","name:io":"Serbia","name:is":"Serb\u00eda","name:am":"\u1230\u122d\u1265\u12eb","name:it":"Serbia","name:ml":"\u0d38\u0d46\u0d7c\u0d2c\u0d3f\u0d2f","name:ru":"\u0421\u0435\u0440\u0431\u0438\u044f","name:mn":"\u0421\u0435\u0440\u0431\u0438","id":369137525,"name:af":"Serwi\u00eb","name:zu":"i-Serbia","name:nn":"Serbia","name:fi":"Serbia","name:hi":"\u0938\u0930\u094d\u092c\u093f\u092f\u093e","name:fo":"Serbia","name:fr":"Serbie","name:fy":"Servje","name:vo":"S\u00e4rb\u00e4n","name:zh":"\u585e\u5c14\u7ef4\u4e9a","name:nb":"Serbia","name:sl":"Srbija","name:sk":"Srbsko","name:ja":"\u30bb\u30eb\u30d3\u30a2","name:si":"\u0dc3\u0dbb\u0dca\u0db6\u0dd2\u0dba\u0dcf\u0dc0","name:fa":"\u0635\u0631\u0628\u0633\u062a\u0627\u0646","name:se":"Serbia","name:ne":"\u0938\u0930\u094d\u092c\u093f\u092f\u093e","name:br":"Serbia","name:bs":"Srbija","name:bn":"\u09b8\u09be\u09b0\u09ac\u09bf\u09af\u09bc\u09be","name:bo":"\u0f66\u0f7a\u0f62\u0f0b\u0f56\u0f72\u0f0b\u0f61\u0f0d","name:no":"Serbia","name:sw":"Serbia","name:be":"\u0421\u0435\u0440\u0431\u0456\u044f","name:bg":"\u0421\u044a\u0440\u0431\u0438\u044f","name:sq":"Serbia","name:ga":"An tSeirbia","name:gd":"An t-S\u00e8arb","name:gl":"Serbia","name:gv":"Yn Serb","name:gu":"\u0ab8\u0ab0\u0acd\u0aac\u0abf\u0aaf\u0abe"},"coordinates":[2516,269]},{"type":"Point","properties":{"name:pt":"Belgrado","name:ty":"Beograd","name:ka":"\u10d1\u10d4\u10da\u10d2\u10e0\u10d0\u10d3\u10d8","name:ko":"\ubca0\uc624\uadf8\ub77c\ub4dc","name:cv":"\u0411\u0435\u043b\u0433\u0440\u0430\u0434","name:cu":"\u0411\u0463\u043b\u044a \u0413\u0440\u0430\u0434\u044a \u00b7 \u0421\u0440\u044c\u0431\u0457\u0438","old_name":"N\u00e1ndorfeh\u00e9rv\u00e1r","name:cs":"B\u011blehrad","name:tt":"\u0411\u0435\u043b\u0433\u0440\u0430\u0434","name:kv":"\u0411\u0435\u043b\u0433\u0440\u0430\u0434","name:ku":"Belgrad","name:ro":"Belgrad","name:tl":"Belgrade","name:sv":"Belgrad","name:os":"\u0411\u0435\u043b\u0433\u0440\u0430\u0434","name:pl":"Belgrad","name:ta":"\u0baa\u0bc6\u0bb2\u0bcd\u0b95\u0bbf\u0bb1\u0bc7\u0b9f\u0bcd","name:tg":"\u0411\u0435\u043b\u0433\u0440\u0430\u0434","name:ca":"Belgrad","name:vi":"Beograd","name:hu":"Belgr\u00e1d","name:cy":"Beograd","name:qu":"Beograd","name:da":"Beograd","name:de":"Belgrad","source":"openstreetmap.org","name:yo":"Belgrade","name:kn":"\u0cac\u0cc6\u0cb2\u0ccd\u0c97\u0ccd\u0cb0\u0cbe\u0ca6\u0ccd","admin_level":"2","name:lv":"Belgrada","name:lt":"Belgradas","name:hi":"\u092c\u0945\u0932\u0917\u094d\u0930\u0947\u0921","name:kk":"\u0411\u0435\u043b\u0433\u0440\u0430\u0434","name:he":"\u05d1\u05dc\u05d2\u05e8\u05d3","min_zoom":8.0,"kind":"locality","name:ur":"\u0628\u0644\u063a\u0631\u0627\u062f","name:lb":"Belgrad","name:la":"Belgradum","name:uk":"\u0411\u0435\u043b\u0433\u0440\u0430\u0434","old_name:el":"\u03a3\u03b9\u03b3\u03b3\u03b9\u03b4\u03bf\u03c5\u03bd\u03bf\u03bd","country_capital":true,"name:ug":"\u0628\u06d0\u0644\u06af\u0631\u0627\u062f","name:li":"Belgrado","name:hr":"Beograd \/ Biograd na Dunavu","population":1346930,"name:el":"\u0392\u03b5\u03bb\u03b9\u03b3\u03c1\u03ac\u03b4\u03b9","name:eo":"Beogrado","name:en":"Belgrade","name":"\u0411\u0435\u043e\u0433\u0440\u0430\u0434","name:th":"\u0e40\u0e1a\u0e25\u0e40\u0e01\u0e23\u0e14","name:yi":"\u05d1\u05e2\u05dc\u05d2\u05e8\u05d0\u05d3","name:et":"Belgrad","name:nl":"Belgrado","name:es":"Belgrado","name:ml":"\u0d2c\u0d46\u0d7d\u0d17\u0d4d\u0d30\u0d47\u0d21\u0d4d","name:mt":"Belgrad","name:az":"Belqrad","name:ie":"Beograd","name:id":"Beograd","name:ms":"Belgrade","name:mr":"\u092c\u0947\u0932\u0917\u094d\u0930\u0947\u0921","name:ar":"\u0628\u0644\u063a\u0631\u0627\u062f","name:io":"Belgrade","int_name":"Beograd","name:is":"Belgrad","name:am":"\u1260\u120d\u130d\u122b\u12f5","name:it":"Belgrado","name:an":"Belgrado","name:ru":"\u0411\u0435\u043b\u0433\u0440\u0430\u0434","name:mn":"\u0411\u0435\u043b\u0433\u0440\u0430\u0434","name:mi":"Belgrade","id":60571493,"name:mk":"\u0411\u0435\u043b\u0433\u0440\u0430\u0434","name:af":"Belgrado","name:fa":"\u0628\u0644\u06af\u0631\u0627\u062f","kind_detail":"city","name:no":"Beograd","old_name:de":"Griechisch Wei\u00dfenburg","name:zh-min-nan":"Belgrade","name:fr":"Belgrade","name:zh-yue":"\u8c9d\u723e\u683c\u840a\u5fb7","name:fy":"Belgrado","name:vo":"Beograd","name:zh":"\u8c9d\u723e\u683c\u840a\u5fb7","name:hy":"\u0532\u0565\u056c\u0563\u0580\u0561\u0564","name:gv":"Belgraaid","name:so":"Belgaraad","name:sm":"Belgrade","name:sl":"Beograd","name:sk":"Belehrad","name:ja":"\u30d9\u30aa\u30b0\u30e9\u30fc\u30c9","name:nn":"Beograd","name:sh":"Beograd","name:sc":"Belgrado","name:br":"Beograd","name:bs":"Beograd","name:bn":"\u09ac\u09c7\u09b2\u0997\u09cd\u09b0\u09c7\u09a1","name:bo":"\u0f56\u0f7a\u0f63\u0f0b\u0f42\u0f7a\u0f0b\u0f62\u0f7a\u0f0b\u0f4c\u0f72\u0f0d","name:be":"\u0411\u044f\u043b\u0433\u0440\u0430\u0434","old_name:la":"Singidunum","name:ga":"B\u00e9algr\u00e1d","name:gd":"Belgrade","name:ht":"B\u00e8lgrad","name:jv":"Beograd","name:gl":"Belgrado - \u0411\u0435\u043e\u0433\u0440\u0430\u0434","name:fo":"Beograd","name:tr":"Belgrad","name:fi":"Belgrad"},"coordinates":[2241,2987]},{"type":"Point","properties":{"kind":"locality","name:en":"Pancevo","name":"\u041f\u0430\u043d\u0447\u0435\u0432\u043e","name:lt":"Pan\u010devas","kind_detail":"city","name:da":"Pan\u010devo","name:de":"Pantschowa","source":"openstreetmap.org","min_zoom":8.0,"name:ro":"Panciova","name:hu":"Pancsova","id":253736569,"population":76203},"coordinates":[2777,3201]},{"type":"Point","properties":{"kind":"locality","name:en":"Smederevo","name":"\u0421\u043c\u0435\u0434\u0435\u0440\u0435\u0432\u043e","kind_detail":"city","name:de":"Semendria","source":"openstreetmap.org","min_zoom":8.0,"name:hu":"Szendr\u0151","id":359219458,"population":62805},"coordinates":[3610,2367]},{"type":"Point","properties":{"kind":"locality","name:en":"Valjevo","name":"\u0412\u0430\u0459\u0435\u0432\u043e","name:lt":"Valjevas","kind_detail":"city","name:de":"Valjevo","source":"openstreetmap.org","min_zoom":8.0,"name:sl":"Valjevo","name:ru":"\u0412\u0430\u043b\u0435\u0432\u043e","name:hr":"Valjevo","id":307649772,"population":61035},"coordinates":[580,749]},{"type":"Point","properties":{"kind":"locality","name:en":"Sabac","old_name:de":"Schabatz;Sabatsch","name":"\u0428\u0430\u0431\u0430\u0446","kind_detail":"city","name:de":"Schabatz","source":"openstreetmap.org","min_zoom":8.0,"name:sl":"\u0160abac","name:hu":"Szab\u00e1cs","name:hr":"\u0160abac","id":254036931,"population":53919},"coordinates":[12,2717]},{"type":"Point","properties":{"kind":"locality","name:en":"Batajnica","name":"\u0411\u0430\u0442\u0430\u0458\u043d\u0438\u0446\u0430","kind_detail":"town","source":"openstreetmap.org","min_zoom":8.0,"name:ru":"\u0411\u0430\u0442\u0430\u0439\u043d\u0438\u0446\u0430","id":72725583,"population":48600},"coordinates":[1710,3348]},{"type":"Point","properties":{"kind":"locality","name:en":"Ruma","name":"\u0420\u0443\u043c\u0430","kind_detail":"town","source":"openstreetmap.org","min_zoom":8.0,"name:hu":"Ruma","id":60583019,"population":34229},"coordinates":[373,3766]},{"type":"Point","properties":{"kind":"locality","name:en":"Indjija","name":"\u0418\u043d\u0452\u0438\u0458\u0430","kind_detail":"town","name:de":"India","source":"openstreetmap.org","min_zoom":8.0,"name:ru":"\u0418\u043d\u0434\u0436\u0438\u044f","name:hu":"Ingyia","id":60349665,"population":26247},"coordinates":[1146,3927]},{"type":"Point","properties":{"kind":"locality","name:en":"Smederevska Palanka","name":"\u0421\u043c\u0435\u0434\u0435\u0440\u0435\u0432\u0441\u043a\u0430 \u041f\u0430\u043b\u0430\u043d\u043a\u0430","kind_detail":"town","source":"openstreetmap.org","min_zoom":8.0,"old_name":"Bela Crkva","name:ru":"\u0421\u043c\u0435\u0434\u0435\u0440\u0435\u0432\u0441\u043a\u0430-\u041f\u0430\u043b\u0430\u043d\u043a\u0430","id":1599448252,"population":25300},"coordinates":[3697,1139]},{"type":"Point","properties":{"kind":"locality","name:en":"Obrenovac","name":"\u041e\u0431\u0440\u0435\u043d\u043e\u0432\u0430\u0446","name:lt":"Obrenovacas","kind_detail":"town","name:de":"Obrenowatz","source":"openstreetmap.org","min_zoom":8.0,"name:pl":"Obrenovac","name:zh":"\u5967\u5e03\u96f7\u8afe\u74e6\u8328","id":61721018,"population":24568},"coordinates":[1488,2331]},{"type":"Point","properties":{"kind":"locality","name:en":"Arandjelovac","name":"\u0410\u0440\u0430\u043d\u0452\u0435\u043b\u043e\u0432\u0430\u0446","kind_detail":"town","source":"openstreetmap.org","min_zoom":8.0,"name:sl":"Aran\u0111elovac","name:ru":"\u0410\u0440\u0430\u043d\u0434\u0436\u0435\u043b\u043e\u0432\u0430\u0446","name:hr":"Aran\u0111elovac","id":419138241,"population":24309},"coordinates":[2533,899]},{"type":"Point","properties":{"kind":"locality","name:en":"Mladenovac","name":"\u041c\u043b\u0430\u0434\u0435\u043d\u043e\u0432\u0430\u0446","kind_detail":"town","source":"openstreetmap.org","min_zoom":8.0,"id":364942011,"population":23609},"coordinates":[2928,1442]},{"type":"Point","properties":{"kind":"locality","name:en":"Lazarevac","name":"\u041b\u0430\u0437\u0430\u0440\u0435\u0432\u0430\u0446","kind_detail":"town","source":"openstreetmap.org","min_zoom":8.0,"id":561313083,"population":23600},"coordinates":[1671,1202]},{"type":"Point","properties":{"kind":"locality","name:en":"Kovin","name":"\u041a\u043e\u0432\u0438\u043d","kind_detail":"town","source":"openstreetmap.org","min_zoom":8.0,"name:hu":"Kevev\u00e1ra","id":848393787,"population":21250},"coordinates":[3754,2685]},{"type":"Point","properties":{"kind":"locality","name:en":"Stara Pazova","name":"\u0421\u0442\u0430\u0440\u0430 \u041f\u0430\u0437\u043e\u0432\u0430","kind_detail":"town","name:de":"Alt-Pasua","source":"openstreetmap.org","min_zoom":8.0,"name:ru":"\u0421\u0442\u0430\u0440\u0430-\u041f\u0430\u0437\u043e\u0432\u0430","name:hu":"\u00d3pazova","id":600576574,"population":18645},"coordinates":[1373,3668]},{"type":"Point","properties":{"kind":"locality","name:en":"Nova Pazova","name":"\u041d\u043e\u0432\u0430 \u041f\u0430\u0437\u043e\u0432\u0430","kind_detail":"town","name:de":"Neu-Pasua","source":"openstreetmap.org","min_zoom":8.0,"name:ru":"\u041d\u043e\u0432\u0430-\u041f\u0430\u0437\u043e\u0432\u0430","name:hu":"\u00dajp\u00e1zova","id":599719132,"population":18214},"coordinates":[1549,3505]},{"type":"Point","properties":{"kind":"locality","name:en":"Velika Plana","name":"\u0412\u0435\u043b\u0438\u043a\u0430 \u041f\u043b\u0430\u043d\u0430","kind_detail":"town","source":"openstreetmap.org","min_zoom":8.0,"name:ru":"\u0412\u0435\u043b\u0438\u043a\u0430-\u041f\u043b\u0430\u043d\u0430","id":1599448253,"population":16210},"coordinates":[4046,1008]},{"type":"Point","properties":{"kind":"locality","name:en":"Barajevo","name":"\u0411\u0430\u0440\u0430\u0458\u0435\u0432\u043e","kind_detail":"town","source":"openstreetmap.org","min_zoom":8.0,"name:ru":"\u0411\u0430\u0440\u0430\u0435\u0432\u043e","id":1223609453,"population":8325},"coordinates":[2121,2007]},{"type":"Point","properties":{"kind":"locality","name:en":"Grocka","name":"\u0413\u0440\u043e\u0446\u043a\u0430","kind_detail":"town","source":"openstreetmap.org","min_zoom":8.0,"id":354907052,"population":8300},"coordinates":[2999,2386]},{"type":"Point","properties":{"kind":"locality","name:en":"Ub","name":"\u0423\u0431","kind_detail":"town","source":"openstreetmap.org","min_zoom":8.0,"name:hr":"Ub","id":417200414,"population":6018},"coordinates":[1125,1508]},{"type":"Point","properties":{"kind":"locality","name:en":"Batocina","name":"\u0411\u0430\u0442\u043e\u0447\u0438\u043d\u0430","kind_detail":"town","source":"openstreetmap.org","min_zoom":8.0,"id":1001823871,"population":5574},"coordinates":[4055,275]},{"type":"Point","properties":{"kind":"locality","name:en":"Topola","name":"\u0422\u043e\u043f\u043e\u043b\u0430","kind_detail":"town","source":"openstreetmap.org","min_zoom":8.0,"name:sl":"Topola","name:hr":"Topola","id":419136775,"population":5422},"coordinates":[2886,681]},{"type":"Point","properties":{"kind":"locality","name:en":"Koceljeva","name":"\u041a\u043e\u0446\u0435\u0459\u0435\u0432\u0430","kind_detail":"town","source":"openstreetmap.org","min_zoom":8.0,"name:sl":"Koceljeva","name:ru":"\u041a\u043e\u0446\u0435\u043b\u0435\u0432\u0430","name:hr":"Koceljeva","id":417807945,"population":4645},"coordinates":[373,1557]},{"type":"Point","properties":{"kind":"locality","name:en":"Lajkovac","name":"\u041b\u0430\u0458\u043a\u043e\u0432\u0430\u0446","kind_detail":"town","source":"openstreetmap.org","min_zoom":8.0,"name:sl":"Lajkovac","name:ru":"\u041b\u0430\u0439\u043a\u043e\u0432\u0430\u0446","name:hr":"Lajkovac","id":417187593,"population":3443},"coordinates":[1392,1153]},{"type":"Point","properties":{"kind":"locality","name:en":"Ljig","name":"\u0409\u0438\u0433","kind_detail":"town","source":"openstreetmap.org","min_zoom":8.0,"name:sl":"Ljig","name:ru":"\u041b\u0438\u0433","name:hr":"Ljig","id":372815072,"population":2979},"coordinates":[1609,563]},{"type":"Point","properties":{"kind":"locality","name:en":"Raca","name":"\u0420\u0430\u0447\u0430","kind_detail":"town","source":"openstreetmap.org","min_zoom":8.0,"id":611866026,"population":2744},"coordinates":[3765,563]},{"type":"Point","properties":{"kind":"locality","name:en":"Vladimirci","name":"\u0412\u043b\u0430\u0434\u0438\u043c\u0438\u0440\u0446\u0438","kind_detail":"town","source":"openstreetmap.org","min_zoom":8.0,"id":2131563205,"population":1879},"coordinates":[280,2161]},{"type":"Point","properties":{"kind":"locality","name:en":"Mionica","name":"\u041c\u0438\u043e\u043d\u0438\u0446\u0430","kind_detail":"town","source":"openstreetmap.org","min_zoom":8.0,"name:sl":"Mionica","name:hr":"Mionica","id":416476184,"population":1723},"coordinates":[1158,679]},{"type":"Point","properties":{"kind":"locality","name:en":"Rudnik","name":"\u0420\u0443\u0434\u043d\u0438\u043a","kind_detail":"town","source":"openstreetmap.org","min_zoom":8.0,"name:sl":"Rudnik","name:hr":"Rudnik","id":355059927,"population":1706},"coordinates":[2362,217]}]},"transit":{"type":"GeometryCollection","geometries":[{"type":"MultiLineString","properties":{"kind":"train","name:en":"Belgrade - Nis","name":"\u0411\u0435\u043e\u0433\u0440\u0430\u0434 - \u041d\u0438\u0448","sort_rank":275,"source":"openstreetmap.org","min_zoom":6.0,"name:hu":"Belgr\u00e1d\u2013Nis","osm_relation":true},"arcs":[[2],[3],[4],[5],[6]]},{"type":"MultiLineString","properties":{"name:el":"\u0392\u03b5\u03bb\u03b9\u03b3\u03c1\u03ac\u03b4\u03b9 - \u0398\u03b5\u03c3\u03c3\u03b1\u03bb\u03bf\u03bd\u03af\u03ba\u03b7","kind":"train","name:en":"Belgrade - Thessaloniki","name":"Beograd - Salonica","sort_rank":275,"source":"openstreetmap.org","min_zoom":6.0,"name:hu":"Belgr\u00e1d\u2013Szaloniki","ref":"Beograd - Thessaloniki","name:sr":"\u0411\u0435\u043e\u0433\u0440\u0430\u0434 - \u0421\u043e\u043b\u0443\u043d","osm_relation":true},"arcs":[[7],[8],[9],[10],[11]]},{"type":"LineString","properties":{"distance":"476","kind":"train","name:en":"Belgrade - Bar","name":"Tunel Br. 42","sort_rank":275,"id":151226410,"source":"openstreetmap.org","min_zoom":6.0,"operator":"\u0416\u0435\u043b\u0435\u0437\u043d\u0438\u0446\u0435 \u0421\u0440\u0431\u0438\u0458\u0435","type":"route","name:sr":"\u0411\u0435\u043e\u0433\u0440\u0430\u0434 - \u0411\u0430\u0440"},"arcs":[12]},{"type":"LineString","properties":{"kind":"train","name:en":"Ada Train","name":"\u0410\u0434\u0430 \u0432\u043e\u0437","sort_rank":275,"source":"openstreetmap.org","min_zoom":6.0,"operator":"\u0408\u041f \u0410\u0434\u0430 \u0426\u0438\u0433\u0430\u043d\u043b\u0438\u0458\u0430","id":-6744184,"osm_relation":true},"arcs":[13]},{"type":"LineString","properties":{"distance":"476","kind":"train","name:en":"Tunnel 2","name":"\u0422\u0443\u043d\u0435\u043b 2","sort_rank":275,"source":"openstreetmap.org","min_zoom":6.0,"operator":"\u0416\u0435\u043b\u0435\u0437\u043d\u0438\u0446\u0435 \u0421\u0440\u0431\u0438\u0458\u0435","type":"route","id":35795034},"arcs":[14]},{"type":"LineString","properties":{"distance":"476","kind":"train","name":"\u0422\u0443\u043d\u0435\u043b 44","sort_rank":275,"source":"openstreetmap.org","min_zoom":6.0,"operator":"\u0416\u0435\u043b\u0435\u0437\u043d\u0438\u0446\u0435 \u0421\u0440\u0431\u0438\u0458\u0435","type":"route","id":151072965},"arcs":[15]},{"type":"MultiLineString","properties":{"distance":"476","kind":"train","name:en":"Belgrade - Bar","name":"\u0411\u0435\u043e\u0433\u0440\u0430\u0434 - \u0411\u0430\u0440","sort_rank":275,"source":"openstreetmap.org","min_zoom":6.0,"operator":"\u0416\u0435\u043b\u0435\u0437\u043d\u0438\u0446\u0435 \u0421\u0440\u0431\u0438\u0458\u0435","type":"route"},"arcs":[[16],[17],[18],[19],[20],[21],[22],[23],[24],[25],[26],[27]]},{"type":"LineString","properties":{"distance":"476","layer":-1.0,"name:en":"Tunnel 1","name":"\u0422\u0443\u043d\u0435\u043b 1","sort_rank":275,"kind":"train","source":"openstreetmap.org","min_zoom":6.0,"operator":"\u0416\u0435\u043b\u0435\u0437\u043d\u0438\u0446\u0435 \u0421\u0440\u0431\u0438\u0458\u0435","type":"route","id":206161851},"arcs":[28]},{"type":"LineString","properties":{"distance":"476","kind":"train","name":"\u0422\u0443\u043d\u0435\u043b 43","sort_rank":275,"source":"openstreetmap.org","min_zoom":6.0,"operator":"\u0416\u0435\u043b\u0435\u0437\u043d\u0438\u0446\u0435 \u0421\u0440\u0431\u0438\u0458\u0435","type":"route","id":151226430},"arcs":[29]},{"type":"LineString","properties":{"distance":"476","kind":"train","name":"\u0422\u0443\u043d\u0435\u043b 40","sort_rank":275,"source":"openstreetmap.org","min_zoom":6.0,"operator":"\u0416\u0435\u043b\u0435\u0437\u043d\u0438\u0446\u0435 \u0421\u0440\u0431\u0438\u0458\u0435","type":"route","id":207249320},"arcs":[30]},{"type":"LineString","properties":{"distance":"476","kind":"train","name:en":"Tunnel 4","name":"\u0422\u0443\u043d\u0435\u043b 4","sort_rank":275,"source":"openstreetmap.org","min_zoom":6.0,"operator":"\u0416\u0435\u043b\u0435\u0437\u043d\u0438\u0446\u0435 \u0421\u0440\u0431\u0438\u0458\u0435","type":"route","id":35795084},"arcs":[31]},{"type":"LineString","properties":{"distance":"476","kind":"train","name":"\u0422\u0443\u043d\u0435\u043b 41","sort_rank":275,"source":"openstreetmap.org","min_zoom":6.0,"operator":"\u0416\u0435\u043b\u0435\u0437\u043d\u0438\u0446\u0435 \u0421\u0440\u0431\u0438\u0458\u0435","type":"route","id":151226446},"arcs":[32]},{"type":"LineString","properties":{"distance":"476","kind":"train","name:en":"Tunnel 3","name":"\u0422\u0443\u043d\u0435\u043b 3","sort_rank":275,"source":"openstreetmap.org","min_zoom":6.0,"operator":"\u0416\u0435\u043b\u0435\u0437\u043d\u0438\u0446\u0435 \u0421\u0440\u0431\u0438\u0458\u0435","type":"route","id":35795038},"arcs":[33]},{"type":"MultiLineString","properties":{"kind":"train","name:en":"Belgrade - Subotica","name":"\u0411\u0435\u043e\u0433\u0440\u0430\u0434 - \u0421\u0443\u0431\u043e\u0442\u0438\u0446\u0430","sort_rank":275,"name:de":"Belgrad - Subotica","source":"openstreetmap.org","min_zoom":6.0,"ref":"2400;2402;2404","osm_relation":true},"arcs":[[34],[35],[36],[37],[38]]},{"type":"MultiLineString","properties":{"kind":"train","name:en":"Belgrade - Sid","name":"\u0411\u0435\u043e\u0433\u0440\u0430\u0434 - \u0428\u0438\u0434","sort_rank":275,"name:de":"Belgrad - Schid","source":"openstreetmap.org","min_zoom":6.0,"ref":"2200;2204;2208","osm_relation":true},"arcs":[[39],[40],[41],[42]]},{"type":"LineString","properties":{"distance":"476","kind":"train","name":"\u0411\u0435\u043e\u0433\u0440\u0430\u0434 - \u0411\u0430\u0440","sort_rank":275,"name:de":"Belgrad - Bar","source":"openstreetmap.org","min_zoom":6.0,"osm_relation":true},"arcs":[43]},{"type":"MultiLineString","properties":{"distance":"476","kind":"train","name:en":"Belgrade - Bar","name":"\u0411\u0435\u043e\u0433\u0440\u0430\u0434 - \u0411\u0430\u0440","sort_rank":275,"layer":1.0,"source":"openstreetmap.org","min_zoom":6.0,"operator":"\u0416\u0435\u043b\u0435\u0437\u043d\u0438\u0446\u0435 \u0421\u0440\u0431\u0438\u0458\u0435","type":"route"},"arcs":[[44],[45]]}]},"pois":{"type":"GeometryCollection","geometries":[{"type":"Point","properties":{"source":"openstreetmap.org","kind":"military","name":"\u0411\u0430\u0442\u0430\u0458\u043d\u0438\u0446\u0430","area":15628700,"tier":3,"min_zoom":8.0,"id":288181980},"coordinates":[1641,3471]}]},"boundaries":{"type":"GeometryCollection","geometries":[{"type":"MultiLineString","properties":{"name:right:es":"Voivodina","name:left:sv":"Mellersta Serbien","name:right:hu":"Vajdas\u00e1g","id:right":-1279074,"name:right:lt":"Voivodina","name:right:sk":"Vojvodina","name:right:ro":"Voivodina","name:left:ru":"\u0426\u0435\u043d\u0442\u0440\u0430\u043b\u044c\u043d\u0430\u044f \u0421\u0435\u0440\u0431\u0438\u044f","name:left:hu":"K\u00f6z\u00e9p-Szerbia","min_zoom":8.0,"name:right:ru":"\u0412\u043e\u0435\u0432\u043e\u0434\u0438\u043d\u0430","id":-1658166,"osm_relation":true,"name:right":"\u0412\u043e\u0458\u0432\u043e\u0434\u0438\u043d\u0430","kind":"region","name:right:ca":"Voivodina","name":"\u0426\u0435\u043d\u0442\u0440\u0430\u043b\u043d\u0430 \u0421\u0440\u0431\u0438\u0458\u0430 - \u0412\u043e\u0458\u0432\u043e\u0434\u0438\u043d\u0430","source":"openstreetmap.org","sort_rank":256,"kind_detail":"4","name:left:ca":"S\u00e8rbia central","name:left:de":"Zentralserbien","name:right:en":"Vojvodina","name:left:en":"Central Serbia","name:right:de":"Wojwodina","official_name:right":"\u0410\u0443\u0442\u043e\u043d\u043e\u043c\u043d\u0430 \u041f\u043e\u043a\u0440\u0430\u0458\u0438\u043d\u0430 \u0412\u043e\u0458\u0432\u043e\u0434\u0438\u043d\u0430","id:left":-1658166,"name:left:vi":"Trung Serbia","name:left":"\u0426\u0435\u043d\u0442\u0440\u0430\u043b\u043d\u0430 \u0421\u0440\u0431\u0438\u0458\u0430"},"arcs":[[0],[1]]}]},"roads":{"type":"GeometryCollection","geometries":[{"type":"LineString","properties":{"kind":"highway","name:en":"Zeleznik","network":"RS:national","sort_rank":383,"kind_detail":"motorway","source":"openstreetmap.org","min_zoom":8.0,"all_networks":["RS:national","e-road"],"shield_text":"1","ref":"A1","id":126781699,"all_shield_texts":["1","75"]},"arcs":[46]},{"type":"MultiLineString","properties":{"bus_network":null,"network":"RS:national","sort_rank":381,"landuse_kind":"urban_area","kind":"major_road","source":"openstreetmap.org","min_zoom":8.0,"bus_shield_text":"108","shield_text":"1.9","kind_detail":"trunk","ref":"10"},"arcs":[[47],[48]]},{"type":"LineString","properties":{"kind":"major_road","sort_rank":377,"kind_detail":"tertiary","is_bicycle_related":true,"bicycle_shield_text":null,"bicycle_network":"icn","source":"openstreetmap.org","min_zoom":8.0,"ref":"OP3"},"arcs":[49]},{"type":"LineString","properties":{"kind":"major_road","name:en":"Jovana Brankovica","sort_rank":377,"kind_detail":"tertiary","is_bicycle_related":true,"bicycle_shield_text":null,"bicycle_network":"icn","source":"openstreetmap.org","min_zoom":8.0,"landuse_kind":"military","ref":"319","id":175262542},"arcs":[50]},{"type":"MultiLineString","properties":{"bus_network":null,"sort_rank":380,"kind_detail":"primary","is_bicycle_related":true,"kind":"major_road","bicycle_shield_text":null,"bicycle_network":"icn","source":"openstreetmap.org","min_zoom":8.0,"bus_shield_text":"35L","landuse_kind":"urban_area","ref":"47"},"arcs":[[51],[52],[53]]},{"type":"LineString","properties":{"kind":"minor_road","name:en":"Tadeusa Koscuska","sort_rank":360,"landuse_kind":"urban_area","is_bicycle_related":true,"bicycle_shield_text":null,"bicycle_network":"icn","source":"openstreetmap.org","min_zoom":8.0,"kind_detail":"residential"},"arcs":[54]},{"type":"MultiLineString","properties":{"kind":"minor_road","sort_rank":358,"landuse_kind":"urban_area","is_bicycle_related":true,"bicycle_shield_text":null,"bicycle_network":"icn","source":"openstreetmap.org","min_zoom":8.0,"kind_detail":"service"},"arcs":[[55],[56]]},{"type":"LineString","properties":{"kind":"major_road","network":"RS:national","sort_rank":380,"kind_detail":"primary","bus_network":null,"source":"openstreetmap.org","min_zoom":8.0,"bus_shield_text":"85","shield_text":"13","landuse_kind":"urban_area","id":338426117},"arcs":[57]},{"type":"LineString","properties":{"bus_network":null,"name:en":"Ibar Highway","network":"RS:national","sort_rank":380,"kind_detail":"primary","kind":"major_road","source":"openstreetmap.org","min_zoom":8.0,"bus_shield_text":"534","shield_text":"22","ref":"22"},"arcs":[58]},{"type":"MultiLineString","properties":{"kind":"highway","network":"RS:national","sort_rank":383,"kind_detail":"motorway","source":"openstreetmap.org","min_zoom":8.0,"all_networks":["RS:national","RS:national","e-road","e-road"],"shield_text":"1","ref":"A1","all_shield_texts":["1","1","70","75"]},"arcs":[[59],[60]]},{"type":"MultiLineString","properties":{"kind":"major_road","network":"RS:national","sort_rank":380,"kind_detail":"primary","source":"openstreetmap.org","min_zoom":8.0,"landuse_kind":"urban_area","shield_text":"21","ref":"21"},"arcs":[[61],[62],[63],[64],[65],[66],[67]]},{"type":"MultiLineString","properties":{"source":"openstreetmap.org","kind":"major_road","landuse_kind":"residential","sort_rank":380,"kind_detail":"primary","ref":"21","min_zoom":8.0},"arcs":[[68],[69],[70]]},{"type":"MultiLineString","properties":{"bus_network":null,"network":"RS:national","sort_rank":380,"kind_detail":"primary","kind":"major_road","source":"openstreetmap.org","min_zoom":8.0,"bus_shield_text":"43","shield_text":"1.9","landuse_kind":"urban_area","ref":"47"},"arcs":[[71],[72]]},{"type":"LineString","properties":{"kind":"major_road","network":"RS:national","sort_rank":381,"kind_detail":"trunk","bus_network":null,"source":"openstreetmap.org","min_zoom":8.0,"bus_shield_text":"51","shield_text":"19","landuse_kind":"urban_area","id":478316688},"arcs":[73]},{"type":"MultiLineString","properties":{"kind":"highway","network":"RS:national","sort_rank":383,"landuse_kind":"residential","source":"openstreetmap.org","min_zoom":8.0,"all_networks":["RS:national","e-road"],"kind_detail":"motorway","shield_text":"1","ref":"A1","all_shield_texts":["1","75"]},"arcs":[[74],[75]]},{"type":"LineString","properties":{"kind":"path","sort_rank":354,"kind_detail":"pedestrian","is_bicycle_related":true,"bicycle_shield_text":null,"bicycle_network":"icn","source":"openstreetmap.org","min_zoom":8.0,"landuse_kind":"urban_area","id":205990053},"arcs":[76]},{"type":"MultiLineString","properties":{"kind":"major_road","network":"RS:national","sort_rank":380,"kind_detail":"primary","source":"openstreetmap.org","min_zoom":8.0,"shield_text":"22","ref":"22"},"arcs":[[77],[78],[79]]},{"type":"LineString","properties":{"bus_network":null,"name:en":"Ibar Highway","network":"RS:national","sort_rank":380,"kind_detail":"primary","kind":"major_road","source":"openstreetmap.org","min_zoom":8.0,"bus_shield_text":"531","shield_text":"22","ref":"22"},"arcs":[80]},{"type":"MultiLineString","properties":{"bus_network":null,"name:en":"Dr Ivana Ribara","sort_rank":380,"kind_detail":"primary","kind":"major_road","source":"openstreetmap.org","min_zoom":8.0,"bus_shield_text":"45","landuse_kind":"urban_area","ref":"\u0421\u041c\u0422"},"arcs":[[81],[82]]},{"type":"LineString","properties":{"kind":"major_road","sort_rank":380,"kind_detail":"primary","is_bicycle_related":true,"bus_network":null,"bicycle_shield_text":null,"bicycle_network":"icn","source":"openstreetmap.org","min_zoom":8.0,"bus_shield_text":"27E","landuse_kind":"urban_area","ref":"47","id":287873243},"arcs":[83]},{"type":"MultiLineString","properties":{"bus_network":null,"network":"RS:national","sort_rank":381,"landuse_kind":"urban_area","kind":"major_road","source":"openstreetmap.org","min_zoom":8.0,"bus_shield_text":"91","shield_text":"19","kind_detail":"trunk"},"arcs":[[84],[85]]},{"type":"LineString","properties":{"kind":"major_road","name:en":"Dimitrija Tucovica","network":"RS:national","sort_rank":380,"kind_detail":"primary","source":"openstreetmap.org","min_zoom":8.0,"shield_text":"4","ref":"27"},"arcs":[86]},{"type":"MultiLineString","properties":{"kind":"major_road","name:en":"Vladike Nikolaja","network":"RS:national","sort_rank":380,"kind_detail":"primary","source":"openstreetmap.org","min_zoom":8.0,"landuse_kind":"residential","shield_text":"4","ref":"27"},"arcs":[[87],[88],[89],[90]]},{"type":"LineString","properties":{"kind":"major_road","name:en":"Ibar Highway","network":"RS:national","sort_rank":380,"kind_detail":"primary","source":"openstreetmap.org","min_zoom":8.0,"shield_text":"4","ref":"22"},"arcs":[91]},{"type":"LineString","properties":{"source":"openstreetmap.org","kind":"ferry","name":"\u0421\u043a\u0435\u043b\u0430 \u0412\u0438\u043d\u0447\u0430","sort_rank":355,"min_zoom":8.0,"id":194536628},"arcs":[92]},{"type":"LineString","properties":{"bus_network":null,"network":"RS:national","sort_rank":381,"landuse_kind":"urban_area","kind":"major_road","source":"openstreetmap.org","min_zoom":8.0,"bus_shield_text":"551","shield_text":"19","kind_detail":"trunk","ref":"26"},"arcs":[93]},{"type":"LineString","properties":{"kind":"major_road","sort_rank":381,"landuse_kind":"urban_area","source":"openstreetmap.org","min_zoom":8.0,"kind_detail":"trunk","ref":"100","id":474823561},"arcs":[94]},{"type":"LineString","properties":{"bus_network":null,"bicycle_shield_text":null,"min_zoom":8.0,"bus_shield_text":"706E","id":195144204,"kind":"major_road","name:en":"Cara Dusana","network":"RS:national","sort_rank":379,"kind_detail":"secondary","is_bicycle_related":true,"bicycle_network":"icn","source":"openstreetmap.org","landuse_kind":"urban_area","shield_text":"22.1","ref":"100"},"arcs":[95]},{"type":"LineString","properties":{"kind":"path","sort_rank":354,"kind_detail":"steps","is_bicycle_related":true,"bicycle_shield_text":null,"bicycle_network":"icn","source":"openstreetmap.org","min_zoom":8.0,"landuse_kind":"urban_area"},"arcs":[96]},{"type":"LineString","properties":{"kind":"major_road","name:en":"Marsala Tita","network":"RS:national","sort_rank":380,"kind_detail":"primary","source":"openstreetmap.org","min_zoom":8.0,"landuse_kind":"residential","shield_text":"1.9","ref":"10","id":314878106},"arcs":[97]},{"type":"MultiLineString","properties":{"sort_rank":380,"kind_detail":"primary","min_zoom":8.0,"kind":"major_road","source":"openstreetmap.org"},"arcs":[[98],[99],[100],[101],[102],[103],[104]]},{"type":"MultiLineString","properties":{"kind":"major_road","network":"RS:national","sort_rank":380,"kind_detail":"primary","source":"openstreetmap.org","min_zoom":8.0,"landuse_kind":"urban_area","shield_text":"19","ref":"26"},"arcs":[[105],[106],[107],[108],[109]]},{"type":"LineString","properties":{"bus_network":null,"name:en":"Ibar Highway","network":"RS:national","sort_rank":380,"kind_detail":"primary","kind":"major_road","source":"openstreetmap.org","min_zoom":8.0,"bus_shield_text":"551","shield_text":"22","ref":"22"},"arcs":[110]},{"type":"MultiLineString","properties":{"kind":"major_road","network":"RS:national","sort_rank":380,"kind_detail":"primary","source":"openstreetmap.org","min_zoom":8.0,"landuse_kind":"residential","shield_text":"19","ref":"26"},"arcs":[[111],[112]]},{"type":"MultiLineString","properties":{"kind":"minor_road","sort_rank":360,"kind_detail":"residential","is_bicycle_related":true,"bicycle_shield_text":null,"bicycle_network":"icn","source":"openstreetmap.org","min_zoom":8.0},"arcs":[[113],[114]]},{"type":"LineString","properties":{"kind":"major_road","network":"RS:national","sort_rank":381,"kind_detail":"trunk","is_bicycle_related":true,"bicycle_shield_text":null,"bicycle_network":"icn","source":"openstreetmap.org","min_zoom":8.0,"landuse_kind":"urban_area","shield_text":"1.9","ref":"10","id":24624704},"arcs":[115]},{"type":"MultiLineString","properties":{"kind":"major_road","sort_rank":377,"landuse_kind":"urban_area","is_bicycle_related":true,"bicycle_shield_text":null,"bicycle_network":"icn","source":"openstreetmap.org","min_zoom":8.0,"kind_detail":"tertiary","ref":"319"},"arcs":[[116],[117]]},{"type":"LineString","properties":{"kind":"major_road","network":"RS:national","sort_rank":380,"kind_detail":"primary","is_bicycle_related":true,"source":"openstreetmap.org","min_zoom":8.0,"landuse_kind":"urban_area","shield_text":"1.9","ref":"10","id":68406507},"arcs":[118]},{"type":"LineString","properties":{"kind":"major_road","name:en":"Marsala Tolbuhina","network":"e-road","sort_rank":380,"kind_detail":"primary","old_name:sr":"\u041b\u0430\u0437\u0430\u0440\u0435\u0432\u0430\u0447\u043a\u0438 \u0434\u0440\u0443\u043c","bus_network":null,"source":"openstreetmap.org","min_zoom":8.0,"old_name":"\u041b\u0430\u0437\u0430\u0440\u0435\u0432\u0430\u0447\u043a\u0438 \u0434\u0440\u0443\u043c","shield_text":"763","landuse_kind":"urban_area","bus_shield_text":"E5","id":381706295},"arcs":[119]},{"type":"LineString","properties":{"kind":"major_road","sort_rank":380,"kind_detail":"primary","bus_network":null,"source":"openstreetmap.org","min_zoom":8.0,"bus_shield_text":"71","landuse_kind":"urban_area","ref":"\u0421\u041c\u0422","id":34015674},"arcs":[120]},{"type":"MultiLineString","properties":{"kind":"path","sort_rank":354,"kind_detail":"track","is_bicycle_related":true,"bicycle_shield_text":"EV6","bicycle_network":"ncn","source":"openstreetmap.org","min_zoom":8.0,"landuse_kind":"urban_area"},"arcs":[[121],[122]]},{"type":"LineString","properties":{"bus_network":null,"network":"RS:national","sort_rank":380,"kind_detail":"primary","is_bicycle_related":true,"kind":"major_road","bicycle_shield_text":null,"bicycle_network":"icn","source":"openstreetmap.org","min_zoom":8.0,"bus_shield_text":"43","shield_text":"1.9","landuse_kind":"urban_area","ref":"47"},"arcs":[123]},{"type":"LineString","properties":{"kind":"major_road","sort_rank":379,"kind_detail":"secondary","is_bicycle_related":true,"bus_network":null,"bicycle_shield_text":null,"bicycle_network":"icn","source":"openstreetmap.org","min_zoom":8.0,"bus_shield_text":"33","landuse_kind":"urban_area","id":521052118},"arcs":[124]},{"type":"LineString","properties":{"bus_network":null,"name:en":"Bulevar vojvode Putnika","network":"RS:national","sort_rank":380,"landuse_kind":"urban_area","kind":"major_road","source":"openstreetmap.org","min_zoom":8.0,"bus_shield_text":"E2","shield_text":"1.9","kind_detail":"primary"},"arcs":[125]},{"type":"LineString","properties":{"bus_network":null,"network":"RS:national","sort_rank":380,"kind_detail":"primary","kind":"major_road","source":"openstreetmap.org","min_zoom":8.0,"bus_shield_text":"102","shield_text":"24.1","ref":"13"},"arcs":[126]},{"type":"LineString","properties":{"kind":"path","sort_rank":354,"landuse_kind":"urban_area","is_bicycle_related":true,"bicycle_shield_text":"EV6","bicycle_network":"ncn","source":"openstreetmap.org","min_zoom":8.0,"kind_detail":"path"},"arcs":[127]},{"type":"LineString","properties":{"kind":"major_road","network":"RS:national","sort_rank":380,"kind_detail":"primary","source":"openstreetmap.org","min_zoom":8.0,"shield_text":"4","ref":"25;27"},"arcs":[128]},{"type":"LineString","properties":{"kind":"major_road","network":"RS:national","sort_rank":380,"kind_detail":"primary","source":"openstreetmap.org","min_zoom":8.0,"landuse_kind":"urban_area","shield_text":"14","id":68341460},"arcs":[129]},{"type":"MultiLineString","properties":{"kind":"major_road","network":"RS:national","sort_rank":380,"kind_detail":"primary","source":"openstreetmap.org","min_zoom":8.0,"landuse_kind":"residential","shield_text":"4","ref":"27","id":36612644},"arcs":[[130],[131]]},{"type":"LineString","properties":{"kind":"major_road","sort_rank":379,"kind_detail":"secondary","is_bicycle_related":true,"bicycle_shield_text":null,"bicycle_network":"icn","source":"openstreetmap.org","min_zoom":8.0,"landuse_kind":"urban_area","id":391677803},"arcs":[132]},{"type":"MultiLineString","properties":{"kind":"major_road","network":"RS:national","sort_rank":380,"kind_detail":"primary","source":"openstreetmap.org","min_zoom":8.0,"landuse_kind":"urban_area","shield_text":"1.9","ref":"10"},"arcs":[[133],[134],[135],[136],[137],[138]]},{"type":"LineString","properties":{"bus_network":null,"network":"RS:national","sort_rank":355,"kind_detail":"primary_link","is_bicycle_related":true,"kind":"major_road","bicycle_shield_text":"EV6","bicycle_network":"ncn","source":"openstreetmap.org","min_zoom":8.0,"is_link":true,"bus_shield_text":"43","shield_text":"1.9","landuse_kind":"urban_area"},"arcs":[139]},{"type":"LineString","properties":{"kind":"major_road","name:en":"Kolarceva","sort_rank":355,"kind_detail":"secondary_link","is_bicycle_related":true,"bicycle_shield_text":null,"bicycle_network":"icn","source":"openstreetmap.org","min_zoom":8.0,"is_link":true,"landuse_kind":"urban_area","id":289959739},"arcs":[140]},{"type":"LineString","properties":{"bus_network":null,"sort_rank":380,"kind_detail":"primary","is_bicycle_related":true,"kind":"major_road","source":"openstreetmap.org","min_zoom":8.0,"bus_shield_text":"27E","landuse_kind":"urban_area","ref":"47"},"arcs":[141]},{"type":"MultiLineString","properties":{"bus_network":null,"sort_rank":380,"kind_detail":"primary","kind":"major_road","source":"openstreetmap.org","min_zoom":8.0,"bus_shield_text":"612","landuse_kind":"urban_area","ref":"\u0421\u041c\u0422"},"arcs":[[142],[143],[144]]},{"type":"LineString","properties":{"kind":"major_road","sort_rank":380,"kind_detail":"primary","is_bicycle_related":true,"bus_network":null,"bicycle_shield_text":null,"bicycle_network":"icn","source":"openstreetmap.org","min_zoom":8.0,"bus_shield_text":"25P","landuse_kind":"urban_area","ref":"47","id":526535455},"arcs":[145]},{"type":"MultiLineString","properties":{"kind":"highway","network":"RS:national","sort_rank":383,"landuse_kind":"urban_area","source":"openstreetmap.org","min_zoom":8.0,"all_networks":["RS:national","RS:national","e-road","e-road"],"kind_detail":"motorway","shield_text":"1","ref":"A1","all_shield_texts":["1","1","70","75"]},"arcs":[[146],[147],[148],[149],[150],[151],[152]]},{"type":"LineString","properties":{"bus_network":null,"network":"RS:national","sort_rank":380,"kind_detail":"primary","is_bicycle_related":true,"kind":"major_road","bicycle_shield_text":null,"bicycle_network":"icn","source":"openstreetmap.org","min_zoom":8.0,"bus_shield_text":"101","shield_text":"47","landuse_kind":"urban_area","ref":"47"},"arcs":[153]},{"type":"MultiLineString","properties":{"bus_network":null,"network":"e-road","sort_rank":380,"kind_detail":"primary","old_name:sr":"\u041b\u0430\u0437\u0430\u0440\u0435\u0432\u0430\u0447\u043a\u0438 \u0434\u0440\u0443\u043c","kind":"major_road","source":"openstreetmap.org","min_zoom":8.0,"old_name":"\u041b\u0430\u0437\u0430\u0440\u0435\u0432\u0430\u0447\u043a\u0438 \u0434\u0440\u0443\u043c","shield_text":"763","landuse_kind":"urban_area","bus_shield_text":"56"},"arcs":[[154],[155]]},{"type":"MultiLineString","properties":{"kind":"highway","network":"RS:national","sort_rank":383,"landuse_kind":"urban_area","source":"openstreetmap.org","min_zoom":8.0,"all_networks":["RS:national","RS:national","e-road"],"kind_detail":"motorway","shield_text":"1","ref":"A3","all_shield_texts":["1","3","70"]},"arcs":[[156],[157],[158],[159]]},{"type":"LineString","properties":{"kind":"major_road","network":"RS:national","sort_rank":380,"kind_detail":"primary","source":"openstreetmap.org","min_zoom":8.0,"shield_text":"33","ref":"33","id":147565286},"arcs":[160]},{"type":"LineString","properties":{"kind":"major_road","network":"RS:national","sort_rank":380,"kind_detail":"primary","source":"openstreetmap.org","min_zoom":8.0,"landuse_kind":"urban_area","shield_text":"23","ref":"25"},"arcs":[161]},{"type":"MultiLineString","properties":{"source":"openstreetmap.org","kind":"major_road","sort_rank":380,"kind_detail":"primary","ref":"27","min_zoom":8.0},"arcs":[[162],[163],[164],[165],[166]]},{"type":"LineString","properties":{"kind":"path","name:en":"King Alexander Karadjordjevic's quay","sort_rank":354,"kind_detail":"footway","is_bicycle_related":true,"bicycle_shield_text":null,"bicycle_network":"icn","source":"openstreetmap.org","min_zoom":8.0,"landuse_kind":"urban_area","id":75215605},"arcs":[167]},{"type":"LineString","properties":{"kind":"major_road","name:en":"Tadeusa Koscuska","sort_rank":379,"kind_detail":"secondary","is_bicycle_related":true,"bus_network":null,"bicycle_shield_text":null,"bicycle_network":"icn","source":"openstreetmap.org","min_zoom":8.0,"bus_shield_text":"E9","landuse_kind":"urban_area","id":148788169},"arcs":[168]},{"type":"LineString","properties":{"bus_network":null,"network":"RS:national","sort_rank":380,"kind_detail":"primary","kind":"major_road","source":"openstreetmap.org","min_zoom":8.0,"bus_shield_text":"101","shield_text":"24.1","landuse_kind":"urban_area","ref":"13"},"arcs":[169]},{"type":"MultiLineString","properties":{"kind":"major_road","network":"RS:national","sort_rank":380,"kind_detail":"primary","source":"openstreetmap.org","min_zoom":8.0,"landuse_kind":"urban_area","shield_text":"26","ref":"26"},"arcs":[[170],[171]]},{"type":"LineString","properties":{"kind":"major_road","sort_rank":377,"landuse_kind":"urban_area","is_bicycle_related":true,"bicycle_shield_text":null,"bicycle_network":"icn","source":"openstreetmap.org","min_zoom":8.0,"kind_detail":"tertiary","ref":"OP7"},"arcs":[172]},{"type":"LineString","properties":{"bus_network":null,"old_name":"Bulevar revolucije","bicycle_shield_text":null,"min_zoom":8.0,"bus_shield_text":"E4","name:ru":"\u0411\u0443\u043b\u044c\u0432\u0430\u0440 \u043a\u043e\u0440\u043e\u043b\u044f \u0410\u043b\u0435\u043a\u0441\u0430\u043d\u0434\u0440\u0430","kind":"major_road","name:en":"Bulevar kralja Aleksandra","network":"RS:regional","sort_rank":379,"landuse_kind":"urban_area","old_name:sr":"\u0411\u0443\u043b\u0435\u0432\u0430\u0440 \u0440\u0435\u0432\u043e\u043b\u0443\u0446\u0438\u0458\u0435","is_bicycle_related":true,"bicycle_network":"icn","source":"openstreetmap.org","kind_detail":"secondary","shield_text":"100"},"arcs":[173]},{"type":"LineString","properties":{"kind":"major_road","network":"RS:national","sort_rank":380,"kind_detail":"primary","source":"openstreetmap.org","min_zoom":8.0,"shield_text":"1.10","id":485887056},"arcs":[174]},{"type":"LineString","properties":{"source":"openstreetmap.org","kind":"major_road","landuse_kind":"urban_area","sort_rank":380,"kind_detail":"primary","ref":"25","min_zoom":8.0},"arcs":[175]},{"type":"MultiLineString","properties":{"bus_network":null,"name:en":"Trgovacka","network":"e-road","sort_rank":380,"kind_detail":"primary","kind":"major_road","source":"openstreetmap.org","min_zoom":8.0,"bus_shield_text":"56","shield_text":"763","landuse_kind":"urban_area"},"arcs":[[176],[177]]},{"type":"LineString","properties":{"kind":"major_road","name:en":"Pariska","sort_rank":379,"kind_detail":"secondary","is_bicycle_related":true,"bicycle_shield_text":null,"bicycle_network":"icn","source":"openstreetmap.org","min_zoom":8.0,"landuse_kind":"urban_area","id":205990054},"arcs":[178]},{"type":"MultiLineString","properties":{"kind":"minor_road","sort_rank":360,"landuse_kind":"urban_area","is_bicycle_related":true,"bicycle_shield_text":null,"bicycle_network":"icn","source":"openstreetmap.org","min_zoom":8.0,"kind_detail":"residential"},"arcs":[[179],[180],[181],[182],[183]]},{"type":"LineString","properties":{"bus_network":null,"name:en":"Ibar Highway","network":"RS:national","sort_rank":381,"kind_detail":"trunk","kind":"major_road","source":"openstreetmap.org","min_zoom":8.0,"bus_shield_text":"531","shield_text":"22","ref":"22"},"arcs":[184]},{"type":"LineString","properties":{"kind":"major_road","network":"RS:national","sort_rank":380,"kind_detail":"primary","bus_network":null,"source":"openstreetmap.org","min_zoom":8.0,"bus_shield_text":"101","shield_text":"13","landuse_kind":"urban_area","id":541966161},"arcs":[185]},{"type":"LineString","properties":{"kind":"major_road","network":"RS:national","sort_rank":380,"kind_detail":"primary","is_bicycle_related":true,"bicycle_shield_text":null,"bicycle_network":"icn","source":"openstreetmap.org","min_zoom":8.0,"landuse_kind":"urban_area","shield_text":"1.9","ref":"10","id":96346710},"arcs":[186]},{"type":"MultiLineString","properties":{"kind":"major_road","name:en":"Ibar Highway","network":"RS:national","sort_rank":380,"kind_detail":"primary","source":"openstreetmap.org","min_zoom":8.0,"shield_text":"22","ref":"22"},"arcs":[[187],[188],[189],[190],[191],[192],[193],[194],[195],[196]]},{"type":"LineString","properties":{"bus_network":null,"network":"RS:national","sort_rank":380,"kind_detail":"primary","is_bicycle_related":true,"kind":"major_road","source":"openstreetmap.org","min_zoom":8.0,"bus_shield_text":"101","shield_text":"47","landuse_kind":"urban_area","ref":"47"},"arcs":[197]},{"type":"MultiLineString","properties":{"bus_network":null,"name:en":"Pupin Bridge","sort_rank":380,"kind_detail":"primary","kind":"major_road","source":"openstreetmap.org","min_zoom":8.0,"bus_shield_text":"85","landuse_kind":"urban_area","ref":"\u0421\u041c\u0422"},"arcs":[[198],[199]]},{"type":"MultiLineString","properties":{"bus_network":null,"name:en":"Cara Dusana","network":"RS:national","sort_rank":379,"landuse_kind":"urban_area","is_bicycle_related":true,"kind":"major_road","bicycle_shield_text":null,"bicycle_network":"icn","source":"openstreetmap.org","min_zoom":8.0,"bus_shield_text":"706E","shield_text":"22.1","kind_detail":"secondary"},"arcs":[[200],[201],[202],[203]]},{"type":"MultiLineString","properties":{"kind":"path","sort_rank":354,"kind_detail":"track","is_bicycle_related":true,"bicycle_shield_text":null,"bicycle_network":"icn","source":"openstreetmap.org","min_zoom":8.0},"arcs":[[204],[205]]},{"type":"LineString","properties":{"kind":"major_road","network":"RS:national","sort_rank":380,"kind_detail":"primary","bus_network":null,"source":"openstreetmap.org","min_zoom":8.0,"bus_shield_text":"32E","shield_text":"1.9","landuse_kind":"urban_area","id":41202289},"arcs":[206]},{"type":"MultiLineString","properties":{"kind":"major_road","network":"RS:national","sort_rank":380,"kind_detail":"primary","source":"openstreetmap.org","min_zoom":8.0,"landuse_kind":"urban_area","shield_text":"14","ref":"14"},"arcs":[[207],[208]]},{"type":"LineString","properties":{"kind":"major_road","sort_rank":377,"kind_detail":"tertiary","is_bicycle_related":true,"bicycle_shield_text":null,"bicycle_network":"icn","source":"openstreetmap.org","min_zoom":8.0,"ref":"OP1"},"arcs":[209]},{"type":"LineString","properties":{"bus_network":null,"name:en":"Jovana Brankovica","sort_rank":377,"kind_detail":"tertiary","is_bicycle_related":true,"kind":"major_road","bicycle_shield_text":null,"bicycle_network":"icn","source":"openstreetmap.org","min_zoom":8.0,"bus_shield_text":"700","landuse_kind":"residential","ref":"319","id":209086485},"arcs":[210]},{"type":"LineString","properties":{"kind":"minor_road","sort_rank":360,"kind_detail":"unclassified","is_bicycle_related":true,"bicycle_shield_text":null,"bicycle_network":"icn","source":"openstreetmap.org","min_zoom":8.0},"arcs":[211]},{"type":"LineString","properties":{"kind":"major_road","sort_rank":381,"kind_detail":"trunk","bus_network":null,"source":"openstreetmap.org","min_zoom":8.0,"bus_shield_text":"707","landuse_kind":"urban_area","ref":"100","id":500523372},"arcs":[212]},{"type":"LineString","properties":{"kind":"major_road","name:en":"Nikola Pasic Square","sort_rank":379,"kind_detail":"secondary","is_bicycle_related":true,"bus_network":null,"bicycle_shield_text":null,"bicycle_network":"icn","source":"openstreetmap.org","min_zoom":8.0,"bus_shield_text":"EKO1","landuse_kind":"urban_area","id":150899574},"arcs":[213]},{"type":"LineString","properties":{"bus_network":null,"sort_rank":380,"kind_detail":"primary","is_bicycle_related":true,"kind":"major_road","source":"openstreetmap.org","min_zoom":8.0,"bus_shield_text":"35L","landuse_kind":"urban_area","ref":"47"},"arcs":[214]},{"type":"MultiLineString","properties":{"kind":"major_road","sort_rank":377,"landuse_kind":"urban_area","is_bicycle_related":true,"bicycle_shield_text":null,"bicycle_network":"icn","source":"openstreetmap.org","min_zoom":8.0,"kind_detail":"tertiary","ref":"OP1"},"arcs":[[215],[216]]},{"type":"MultiLineString","properties":{"source":"openstreetmap.org","kind":"major_road","network":"RS:national","sort_rank":381,"kind_detail":"trunk","min_zoom":8.0,"shield_text":"24"},"arcs":[[217],[218]]},{"type":"LineString","properties":{"kind":"major_road","name:en":"Kneza Mihaila","network":"RS:national","sort_rank":380,"kind_detail":"primary","source":"openstreetmap.org","min_zoom":8.0,"landuse_kind":"urban_area","shield_text":"4","ref":"27","id":409129468},"arcs":[219]},{"type":"LineString","properties":{"kind":"major_road","network":"RS:national","sort_rank":380,"kind_detail":"primary","bus_network":null,"source":"openstreetmap.org","min_zoom":8.0,"bus_shield_text":"101","shield_text":"24.1","ref":"13","id":463278548},"arcs":[220]},{"type":"MultiLineString","properties":{"bus_network":null,"name:en":"Trgovacka","network":"e-road","sort_rank":380,"kind_detail":"primary","kind":"major_road","source":"openstreetmap.org","min_zoom":8.0,"bus_shield_text":"51","shield_text":"763","landuse_kind":"urban_area"},"arcs":[[221],[222],[223]]},{"type":"MultiLineString","properties":{"kind":"major_road","network":"RS:national","sort_rank":380,"kind_detail":"primary","source":"openstreetmap.org","min_zoom":8.0,"shield_text":"13","ref":"13"},"arcs":[[224],[225],[226],[227],[228],[229]]},{"type":"LineString","properties":{"kind":"minor_road","sort_rank":360,"kind_detail":"unclassified","is_bicycle_related":true,"bicycle_shield_text":null,"cycleway":"lane","source":"openstreetmap.org","min_zoom":8.0,"landuse_kind":"urban_area","bicycle_network":"icn","id":96346724},"arcs":[230]},{"type":"LineString","properties":{"kind":"major_road","name:en":"Duke Vojvoda Misic street","network":"RS:national","sort_rank":380,"kind_detail":"primary","name:sr":"Vojvode Misica","source":"openstreetmap.org","min_zoom":8.0,"landuse_kind":"urban_area","shield_text":"21","ref":"21","id":35912848},"arcs":[231]},{"type":"LineString","properties":{"bus_network":null,"name:en":"Cara Dusana","network":"RS:national","sort_rank":377,"kind_detail":"tertiary","is_bicycle_related":true,"kind":"major_road","bicycle_shield_text":null,"bicycle_network":"icn","source":"openstreetmap.org","min_zoom":8.0,"bus_shield_text":"706E","shield_text":"22.1","landuse_kind":"urban_area","id":500523371},"arcs":[232]},{"type":"LineString","properties":{"kind":"major_road","network":"RS:national","sort_rank":380,"kind_detail":"primary","bus_network":null,"source":"openstreetmap.org","min_zoom":8.0,"bus_shield_text":"56L","shield_text":"1.9","landuse_kind":"urban_area","id":24282347},"arcs":[233]},{"type":"MultiLineString","properties":{"bus_network":null,"network":"RS:national","sort_rank":379,"landuse_kind":"urban_area","is_bicycle_related":true,"kind":"major_road","bicycle_shield_text":null,"bicycle_network":"icn","source":"openstreetmap.org","min_zoom":8.0,"bus_shield_text":"706E","shield_text":"22.1","kind_detail":"secondary"},"arcs":[[234],[235],[236]]},{"type":"LineString","properties":{"kind":"major_road","sort_rank":380,"kind_detail":"primary","bus_network":null,"name:sr":"\u0421\u043f\u043e\u0459\u043d\u0430 \u043c\u0430\u0433\u0441\u0442\u0440\u0430\u043b\u043d\u0430 \u043c\u0430\u043d\u0433\u0435\u043d\u0442\u0430","source":"openstreetmap.org","min_zoom":8.0,"bus_shield_text":"85","landuse_kind":"urban_area","ref":"\u0421\u041c\u0422","id":354345633},"arcs":[237]},{"type":"LineString","properties":{"bus_network":null,"name:en":"Kneza Milosa","network":"RS:national","sort_rank":380,"kind_detail":"primary","kind":"major_road","source":"openstreetmap.org","min_zoom":8.0,"bus_shield_text":"E2","shield_text":"1.9","landuse_kind":"urban_area"},"arcs":[238]},{"type":"MultiLineString","properties":{"kind":"highway","network":"RS:national","sort_rank":383,"kind_detail":"motorway","source":"openstreetmap.org","min_zoom":8.0,"all_networks":["RS:national","RS:national","e-road"],"shield_text":"1","ref":"A1","all_shield_texts":["1","1","75"]},"arcs":[[239],[240],[241],[242],[243],[244],[245],[246],[247],[248],[249],[250],[251],[252],[253],[254],[255],[256],[257],[258],[259],[260],[261],[262],[263]]},{"type":"MultiLineString","properties":{"bus_network":null,"name:en":"Trgovacka","network":"e-road","sort_rank":380,"kind_detail":"primary","kind":"major_road","source":"openstreetmap.org","min_zoom":8.0,"bus_shield_text":"E5","shield_text":"763","landuse_kind":"urban_area"},"arcs":[[264],[265]]},{"type":"MultiLineString","properties":{"kind":"highway","network":"RS:national","sort_rank":383,"kind_detail":"motorway","source":"openstreetmap.org","min_zoom":8.0,"all_networks":["RS:national","RS:national","e-road"],"shield_text":"1","ref":"A3","all_shield_texts":["1","3","70"]},"arcs":[[266],[267],[268],[269],[270],[271]]},{"type":"LineString","properties":{"bus_network":null,"bicycle_shield_text":"EV6","min_zoom":8.0,"bus_shield_text":"43","id":23428571,"kind":"major_road","name:en":"Pancevo Bridge","network":"RS:national","sort_rank":380,"kind_detail":"primary","is_bicycle_related":true,"bicycle_network":"ncn","source":"openstreetmap.org","landuse_kind":"urban_area","shield_text":"1.9","ref":"47"},"arcs":[272]},{"type":"MultiLineString","properties":{"kind":"major_road","name:en":"Jovana Brankovica","sort_rank":377,"kind_detail":"tertiary","is_bicycle_related":true,"bicycle_shield_text":null,"bicycle_network":"icn","source":"openstreetmap.org","min_zoom":8.0,"ref":"319","id":175262542},"arcs":[[273],[274]]},{"type":"LineString","properties":{"source":"openstreetmap.org","kind":"major_road","sort_rank":381,"kind_detail":"trunk","ref":"24","min_zoom":8.0,"id":287300713},"arcs":[275]},{"type":"LineString","properties":{"bus_network":null,"name:en":"Ibar Highway","network":"e-road","sort_rank":381,"kind_detail":"trunk","kind":"major_road","source":"openstreetmap.org","min_zoom":8.0,"bus_shield_text":"521","shield_text":"763"},"arcs":[276]},{"type":"LineString","properties":{"kind":"highway","network":"e-road","sort_rank":383,"kind_detail":"motorway","source":"openstreetmap.org","min_zoom":8.0,"all_networks":["e-road"],"shield_text":"763","id":491746331,"all_shield_texts":["763"]},"arcs":[277]},{"type":"LineString","properties":{"bus_network":null,"network":"RS:national","sort_rank":380,"kind_detail":"primary","is_bicycle_related":true,"kind":"major_road","bicycle_shield_text":"EV6","bicycle_network":"ncn","source":"openstreetmap.org","min_zoom":8.0,"bus_shield_text":"43","shield_text":"1.9","landuse_kind":"urban_area","ref":"47","id":23428523},"arcs":[278]},{"type":"LineString","properties":{"bus_network":null,"name:en":"Ibar Highway","network":"e-road","sort_rank":380,"kind_detail":"primary","kind":"major_road","source":"openstreetmap.org","min_zoom":8.0,"bus_shield_text":"56","shield_text":"763","landuse_kind":"urban_area"},"arcs":[279]},{"type":"LineString","properties":{"kind":"minor_road","name:en":"Branko Radicevic Square","sort_rank":360,"landuse_kind":"urban_area","is_bicycle_related":true,"bicycle_shield_text":null,"bicycle_network":"icn","source":"openstreetmap.org","min_zoom":8.0,"kind_detail":"residential"},"arcs":[280]},{"type":"LineString","properties":{"bus_network":null,"bicycle_shield_text":null,"min_zoom":8.0,"bus_shield_text":"E4","id":205987189,"kind":"major_road","name:en":"Branko's Bridge","network":"RS:national","sort_rank":379,"kind_detail":"secondary","is_bicycle_related":true,"bicycle_network":"icn","source":"openstreetmap.org","landuse_kind":"urban_area","shield_text":"22.1","ref":"100"},"arcs":[281]},{"type":"MultiLineString","properties":{"bus_network":null,"name:en":"Kolarceva","sort_rank":379,"landuse_kind":"urban_area","is_bicycle_related":true,"kind":"major_road","bicycle_shield_text":null,"bicycle_network":"icn","source":"openstreetmap.org","min_zoom":8.0,"bus_shield_text":"E2","kind_detail":"secondary"},"arcs":[[282],[283],[284]]},{"type":"MultiLineString","properties":{"bus_network":null,"sort_rank":381,"landuse_kind":"urban_area","kind":"major_road","source":"openstreetmap.org","min_zoom":8.0,"bus_shield_text":"A1","kind_detail":"trunk"},"arcs":[[285],[286]]},{"type":"LineString","properties":{"kind":"major_road","name:en":"Tadeusa Koscuska","sort_rank":377,"kind_detail":"tertiary","is_bicycle_related":true,"bus_network":null,"bicycle_shield_text":null,"bicycle_network":"icn","source":"openstreetmap.org","min_zoom":8.0,"bus_shield_text":"E9","landuse_kind":"urban_area","id":148788166},"arcs":[287]},{"type":"MultiLineString","properties":{"kind":"highway","network":"RS:national","sort_rank":383,"landuse_kind":"urban_area","source":"openstreetmap.org","min_zoom":8.0,"all_networks":["RS:national","RS:national","e-road"],"kind_detail":"motorway","shield_text":"1","ref":"A1","all_shield_texts":["1","1","75"]},"arcs":[[288],[289],[290],[291],[292],[293],[294],[295],[296],[297],[298],[299],[300],[301],[302],[303],[304],[305],[306],[307],[308],[309]]},{"type":"MultiLineString","properties":{"kind":"path","sort_rank":354,"landuse_kind":"urban_area","is_bicycle_related":true,"bicycle_shield_text":null,"bicycle_network":"icn","source":"openstreetmap.org","min_zoom":8.0,"kind_detail":"track"},"arcs":[[310],[311],[312],[313]]},{"type":"LineString","properties":{"kind":"major_road","network":"RS:national","sort_rank":380,"kind_detail":"primary","is_bicycle_related":true,"bicycle_shield_text":null,"bicycle_network":"icn","source":"openstreetmap.org","min_zoom":8.0,"landuse_kind":"urban_area","shield_text":"47","ref":"47","id":23152001},"arcs":[314]},{"type":"LineString","properties":{"kind":"major_road","network":"RS:national","sort_rank":381,"kind_detail":"trunk","bus_network":null,"source":"openstreetmap.org","min_zoom":8.0,"bus_shield_text":"36","shield_text":"19","landuse_kind":"urban_area","id":102702767},"arcs":[315]},{"type":"MultiLineString","properties":{"bus_network":null,"sort_rank":380,"kind_detail":"primary","kind":"major_road","source":"openstreetmap.org","min_zoom":8.0,"bus_shield_text":"707","landuse_kind":"urban_area","ref":"\u0421\u041c\u0422"},"arcs":[[316],[317]]},{"type":"LineString","properties":{"kind":"major_road","name:en":"Kneza Mihaila","network":"RS:national","sort_rank":380,"kind_detail":"primary","source":"openstreetmap.org","min_zoom":8.0,"shield_text":"4","ref":"27"},"arcs":[318]},{"type":"MultiLineString","properties":{"bus_network":null,"sort_rank":381,"landuse_kind":"urban_area","kind":"major_road","source":"openstreetmap.org","min_zoom":8.0,"bus_shield_text":"707","kind_detail":"trunk"},"arcs":[[319],[320]]},{"type":"LineString","properties":{"bus_network":null,"name:en":"Nikola Pasic Square","sort_rank":379,"landuse_kind":"urban_area","is_bicycle_related":true,"kind":"major_road","bicycle_shield_text":null,"bicycle_network":"icn","source":"openstreetmap.org","min_zoom":8.0,"bus_shield_text":"E2","kind_detail":"secondary"},"arcs":[321]},{"type":"MultiLineString","properties":{"bus_network":null,"network":"RS:national","sort_rank":381,"kind_detail":"trunk","kind":"major_road","source":"openstreetmap.org","min_zoom":8.0,"bus_shield_text":"E2","shield_text":"19","landuse_kind":"urban_area"},"arcs":[[322],[323]]},{"type":"LineString","properties":{"kind":"major_road","name:en":"Ilije Garasanina","network":"RS:national","sort_rank":380,"kind_detail":"primary","source":"openstreetmap.org","min_zoom":8.0,"landuse_kind":"urban_area","shield_text":"4","ref":"27;150","id":520389237},"arcs":[324]},{"type":"LineString","properties":{"kind":"major_road","network":"RS:national","sort_rank":380,"kind_detail":"primary","source":"openstreetmap.org","min_zoom":8.0,"landuse_kind":"urban_area","shield_text":"19","ref":"21;26"},"arcs":[325]},{"type":"MultiLineString","properties":{"bus_network":null,"name:en":"Savska magistrala","network":"RS:national","sort_rank":381,"kind_detail":"trunk","kind":"major_road","source":"openstreetmap.org","min_zoom":8.0,"bus_shield_text":"91","shield_text":"19","landuse_kind":"urban_area"},"arcs":[[326],[327],[328],[329]]},{"type":"MultiLineString","properties":{"kind":"major_road","network":"RS:national","sort_rank":380,"kind_detail":"primary","source":"openstreetmap.org","min_zoom":8.0,"landuse_kind":"urban_area","shield_text":"4","ref":"27"},"arcs":[[330],[331],[332]]},{"type":"MultiLineString","properties":{"kind":"major_road","network":"RS:national","sort_rank":380,"kind_detail":"primary","source":"openstreetmap.org","min_zoom":8.0,"shield_text":"23","ref":"25"},"arcs":[[333],[334],[335]]},{"type":"LineString","properties":{"kind":"major_road","network":"RS:national","sort_rank":380,"kind_detail":"primary","source":"openstreetmap.org","min_zoom":8.0,"shield_text":"14","ref":"14","id":308840874},"arcs":[336]},{"type":"MultiLineString","properties":{"kind":"major_road","network":"e-road","sort_rank":380,"kind_detail":"primary","old_name:sr":"\u041b\u0430\u0437\u0430\u0440\u0435\u0432\u0430\u0447\u043a\u0438 \u0434\u0440\u0443\u043c","source":"openstreetmap.org","min_zoom":8.0,"old_name":"\u041b\u0430\u0437\u0430\u0440\u0435\u0432\u0430\u0447\u043a\u0438 \u0434\u0440\u0443\u043c","shield_text":"763","landuse_kind":"urban_area"},"arcs":[[337],[338]]},{"type":"MultiLineString","properties":{"source":"openstreetmap.org","kind":"highway","landuse_kind":"urban_area","sort_rank":383,"kind_detail":"motorway","min_zoom":8.0},"arcs":[[339],[340]]},{"type":"LineString","properties":{"kind":"minor_road","name:en":"Dunavska","sort_rank":360,"kind_detail":"residential","is_bicycle_related":true,"bicycle_shield_text":null,"bicycle_network":"icn","source":"openstreetmap.org","min_zoom":8.0},"arcs":[341]},{"type":"MultiLineString","properties":{"kind":"major_road","network":"RS:national","sort_rank":381,"kind_detail":"trunk","source":"openstreetmap.org","min_zoom":8.0,"shield_text":"1.11","ref":"24"},"arcs":[[342],[343]]},{"type":"LineString","properties":{"bus_network":null,"network":"RS:national","sort_rank":380,"kind_detail":"primary","kind":"major_road","source":"openstreetmap.org","min_zoom":8.0,"bus_shield_text":"551","shield_text":"19","ref":"26"},"arcs":[344]},{"type":"LineString","properties":{"bus_network":null,"sort_rank":380,"kind_detail":"primary","kind":"major_road","source":"openstreetmap.org","min_zoom":8.0,"bus_shield_text":"40","landuse_kind":"urban_area"},"arcs":[345]},{"type":"LineString","properties":{"kind":"major_road","network":"RS:national","sort_rank":380,"kind_detail":"primary","source":"openstreetmap.org","min_zoom":8.0,"landuse_kind":"urban_area","shield_text":"1.10","ref":"14"},"arcs":[346]},{"type":"MultiLineString","properties":{"bus_network":null,"network":"RS:national","sort_rank":380,"kind_detail":"primary","kind":"major_road","source":"openstreetmap.org","min_zoom":8.0,"bus_shield_text":"108","shield_text":"1.9","landuse_kind":"urban_area","ref":"47"},"arcs":[[347],[348]]},{"type":"LineString","properties":{"kind":"major_road","name:en":"Takovska","network":"RS:national","sort_rank":380,"kind_detail":"primary","bus_network":null,"source":"openstreetmap.org","min_zoom":8.0,"bus_shield_text":"E2","shield_text":"1.9","landuse_kind":"urban_area","id":289953743},"arcs":[349]},{"type":"MultiLineString","properties":{"kind":"major_road","network":"RS:national","sort_rank":380,"kind_detail":"primary","source":"openstreetmap.org","min_zoom":8.0,"shield_text":"1.9","ref":"10"},"arcs":[[350],[351]]},{"type":"MultiLineString","properties":{"bus_network":null,"network":"RS:national","sort_rank":379,"landuse_kind":"residential","is_bicycle_related":true,"kind":"major_road","bicycle_shield_text":null,"bicycle_network":"icn","source":"openstreetmap.org","min_zoom":8.0,"bus_shield_text":"706E","shield_text":"22.1","kind_detail":"secondary","ref":"100"},"arcs":[[352],[353]]},{"type":"MultiLineString","properties":{"kind":"major_road","name:en":"Ilije Garasanina","network":"RS:national","sort_rank":380,"kind_detail":"primary","source":"openstreetmap.org","min_zoom":8.0,"landuse_kind":"urban_area","shield_text":"4","ref":"27"},"arcs":[[354],[355]]},{"type":"LineString","properties":{"kind":"highway","name:en":"Lipak","network":"RS:national","sort_rank":383,"kind_detail":"motorway","source":"openstreetmap.org","min_zoom":8.0,"all_networks":["RS:national","e-road"],"shield_text":"1","ref":"A1","id":166474857,"all_shield_texts":["1","75"]},"arcs":[356]},{"type":"MultiLineString","properties":{"bus_network":null,"network":"RS:national","sort_rank":379,"landuse_kind":"residential","is_bicycle_related":true,"kind":"major_road","bicycle_shield_text":null,"bicycle_network":"icn","source":"openstreetmap.org","min_zoom":8.0,"bus_shield_text":"73","shield_text":"22.1","kind_detail":"secondary","ref":"100"},"arcs":[[357],[358]]},{"type":"MultiLineString","properties":{"bus_network":null,"name:en":"Dr Ivana Ribara","sort_rank":380,"kind_detail":"primary","kind":"major_road","source":"openstreetmap.org","min_zoom":8.0,"bus_shield_text":"E6","landuse_kind":"urban_area","ref":"\u0421\u041c\u0422"},"arcs":[[359],[360],[361]]},{"type":"LineString","properties":{"kind":"major_road","name:en":"Ibar Highway","network":"e-road","sort_rank":380,"kind_detail":"primary","bus_network":null,"source":"openstreetmap.org","min_zoom":8.0,"bus_shield_text":"531","shield_text":"763","landuse_kind":"urban_area","id":196715560},"arcs":[362]},{"type":"LineString","properties":{"bus_network":null,"name:en":"Karamatina","sort_rank":377,"landuse_kind":"urban_area","is_bicycle_related":true,"kind":"major_road","bicycle_shield_text":null,"bicycle_network":"icn","source":"openstreetmap.org","min_zoom":8.0,"bus_shield_text":"705","kind_detail":"tertiary"},"arcs":[363]},{"type":"LineString","properties":{"kind":"major_road","sort_rank":380,"kind_detail":"primary","bus_network":null,"source":"openstreetmap.org","min_zoom":8.0,"bus_shield_text":"612","landuse_kind":"urban_area","id":53208238},"arcs":[364]},{"type":"MultiLineString","properties":{"source":"openstreetmap.org","kind":"major_road","kind_detail":"trunk","sort_rank":381,"landuse_kind":"urban_area","min_zoom":8.0},"arcs":[[365],[366],[367],[368],[369],[370]]},{"type":"LineString","properties":{"kind":"major_road","name:en":"Savska magistrala","network":"RS:national","sort_rank":381,"kind_detail":"trunk","bus_network":null,"source":"openstreetmap.org","min_zoom":8.0,"bus_shield_text":"91","shield_text":"19","landuse_kind":"urban_area","ref":"A2","id":354332213},"arcs":[371]},{"type":"LineString","properties":{"kind":"major_road","network":"RS:national","sort_rank":380,"kind_detail":"primary","bus_network":null,"source":"openstreetmap.org","min_zoom":8.0,"bus_shield_text":"552","shield_text":"19","ref":"26","id":208735840},"arcs":[372]},{"type":"MultiLineString","properties":{"source":"openstreetmap.org","kind":"major_road","landuse_kind":"residential","sort_rank":380,"kind_detail":"primary","min_zoom":8.0},"arcs":[[373],[374],[375],[376],[377],[378]]},{"type":"MultiLineString","properties":{"sort_rank":383,"kind_detail":"motorway","min_zoom":8.0,"kind":"highway","source":"openstreetmap.org"},"arcs":[[379],[380],[381],[382],[383],[384],[385],[386],[387],[388],[389],[390],[391],[392],[393],[394],[395],[396],[397],[398],[399],[400],[401],[402],[403],[404],[405],[406],[407],[408],[409],[410],[411],[412],[413],[414],[415],[416],[417],[418],[419],[420],[421],[422],[423],[424],[425],[426],[427]]},{"type":"LineString","properties":{"kind":"major_road","network":"RS:national","sort_rank":380,"kind_detail":"primary","source":"openstreetmap.org","min_zoom":8.0,"landuse_kind":"urban_area","shield_text":"1.11","ref":"24"},"arcs":[428]},{"type":"MultiLineString","properties":{"kind":"major_road","network":"RS:national","sort_rank":380,"kind_detail":"primary","source":"openstreetmap.org","min_zoom":8.0,"landuse_kind":"urban_area","shield_text":"21","ref":"21;26"},"arcs":[[429],[430]]},{"type":"MultiLineString","properties":{"kind":"major_road","network":"RS:national","sort_rank":380,"kind_detail":"primary","source":"openstreetmap.org","min_zoom":8.0,"landuse_kind":"residential","shield_text":"21","ref":"21"},"arcs":[[431],[432],[433],[434],[435],[436]]},{"type":"MultiLineString","properties":{"kind":"major_road","network":"RS:national","sort_rank":381,"landuse_kind":"urban_area","source":"openstreetmap.org","min_zoom":8.0,"kind_detail":"trunk","shield_text":"1.9","ref":"10"},"arcs":[[437],[438]]},{"type":"LineString","properties":{"bus_network":null,"name:en":"Batajnicki drum","network":"RS:national","sort_rank":377,"kind_detail":"tertiary","is_bicycle_related":true,"kind":"major_road","bicycle_shield_text":null,"bicycle_network":"icn","source":"openstreetmap.org","min_zoom":8.0,"bus_shield_text":"706E","shield_text":"22.1","landuse_kind":"urban_area","id":144714967},"arcs":[439]},{"type":"LineString","properties":{"bus_network":null,"name:en":"Radnicka","network":"RS:national","sort_rank":381,"kind_detail":"trunk","kind":"major_road","source":"openstreetmap.org","min_zoom":8.0,"bus_shield_text":"56L","shield_text":"19","landuse_kind":"urban_area","id":519156042},"arcs":[440]},{"type":"MultiLineString","properties":{"kind":"major_road","network":"RS:national","sort_rank":380,"kind_detail":"primary","source":"openstreetmap.org","min_zoom":8.0,"shield_text":"21","ref":"21"},"arcs":[[441],[442],[443],[444],[445],[446]]},{"type":"MultiLineString","properties":{"kind":"major_road","network":"RS:national","sort_rank":380,"kind_detail":"primary","source":"openstreetmap.org","min_zoom":8.0,"landuse_kind":"residential","shield_text":"21"},"arcs":[[447],[448],[449]]},{"type":"LineString","properties":{"kind":"path","name:en":"Kej oslobodjenja","sort_rank":354,"kind_detail":"footway","is_bicycle_related":true,"bicycle_shield_text":null,"bicycle_network":"icn","source":"openstreetmap.org","min_zoom":8.0,"landuse_kind":"urban_area","id":518433862},"arcs":[450]},{"type":"LineString","properties":{"kind":"major_road","name:en":"Ibar Highway","network":"RS:national","sort_rank":380,"kind_detail":"primary","source":"openstreetmap.org","min_zoom":8.0,"shield_text":"22","ref":"22;148"},"arcs":[451]},{"type":"LineString","properties":{"bus_network":null,"sort_rank":380,"kind_detail":"primary","kind":"major_road","source":"openstreetmap.org","min_zoom":8.0,"bus_shield_text":"45","landuse_kind":"urban_area","ref":"\u0421\u041c\u0422"},"arcs":[452]},{"type":"LineString","properties":{"kind":"major_road","name:en":"Radnicka","network":"RS:national","sort_rank":380,"kind_detail":"primary","source":"openstreetmap.org","min_zoom":8.0,"landuse_kind":"residential","shield_text":"4","ref":"27","id":36332188},"arcs":[453]},{"type":"LineString","properties":{"bus_network":null,"name:en":"Radnicka","network":"RS:national","sort_rank":381,"kind_detail":"trunk","kind":"major_road","source":"openstreetmap.org","min_zoom":8.0,"bus_shield_text":"E2","shield_text":"19","landuse_kind":"urban_area"},"arcs":[454]},{"type":"LineString","properties":{"kind":"major_road","name:en":"Bulevar vo\u0458vode Misica","network":"RS:national","sort_rank":381,"kind_detail":"trunk","bus_network":null,"source":"openstreetmap.org","min_zoom":8.0,"bus_shield_text":"E2","shield_text":"19","landuse_kind":"urban_area","id":41171349},"arcs":[455]},{"type":"LineString","properties":{"kind":"major_road","network":"e-road","sort_rank":380,"kind_detail":"primary","bus_network":null,"source":"openstreetmap.org","min_zoom":8.0,"bus_shield_text":"23","shield_text":"70","landuse_kind":"urban_area","id":365056147},"arcs":[456]},{"type":"MultiLineString","properties":{"kind":"major_road","name:en":"Vladike Nikolaja","network":"RS:national","sort_rank":380,"kind_detail":"primary","source":"openstreetmap.org","min_zoom":8.0,"shield_text":"4","ref":"27"},"arcs":[[457],[458],[459],[460],[461]]},{"type":"LineString","properties":{"bus_network":null,"name:en":"Ibar Highway","network":"e-road","sort_rank":380,"kind_detail":"primary","kind":"major_road","source":"openstreetmap.org","min_zoom":8.0,"bus_shield_text":"521","shield_text":"763","landuse_kind":"urban_area"},"arcs":[462]},{"type":"LineString","properties":{"bus_network":null,"name:en":"Terazije","sort_rank":379,"landuse_kind":"urban_area","is_bicycle_related":true,"kind":"major_road","bicycle_shield_text":null,"bicycle_network":"icn","source":"openstreetmap.org","min_zoom":8.0,"bus_shield_text":"E2","kind_detail":"secondary"},"arcs":[463]},{"type":"LineString","properties":{"kind":"major_road","name:en":"Panticeva","network":"RS:national","sort_rank":380,"kind_detail":"primary","source":"openstreetmap.org","min_zoom":8.0,"landuse_kind":"residential","shield_text":"4","ref":"27","id":35277534},"arcs":[464]},{"type":"LineString","properties":{"kind":"major_road","network":"RS:national","sort_rank":381,"kind_detail":"trunk","source":"openstreetmap.org","min_zoom":8.0,"shield_text":"24","ref":"33"},"arcs":[465]},{"type":"LineString","properties":{"kind":"major_road","network":"RS:national","sort_rank":380,"kind_detail":"primary","source":"openstreetmap.org","min_zoom":8.0,"shield_text":"27","ref":"27","id":201532688},"arcs":[466]},{"type":"LineString","properties":{"kind":"highway","network":"RS:national","sort_rank":383,"kind_detail":"motorway","source":"openstreetmap.org","min_zoom":8.0,"all_networks":["RS:national","RS:national","e-road","e-road"],"landuse_kind":"urban_area","shield_text":"1","ref":"A3","id":208996959,"all_shield_texts":["1","1","70","75"]},"arcs":[467]},{"type":"MultiLineString","properties":{"kind":"major_road","network":"RS:national","sort_rank":380,"kind_detail":"primary","source":"openstreetmap.org","min_zoom":8.0,"shield_text":"4","ref":"27"},"arcs":[[468],[469],[470],[471],[472],[473],[474]]},{"type":"LineString","properties":{"kind":"major_road","name:en":"Ibar Highway","network":"RS:national","sort_rank":380,"kind_detail":"primary","source":"openstreetmap.org","min_zoom":8.0,"shield_text":"22","ref":"22;150"},"arcs":[475]},{"type":"LineString","properties":{"kind":"major_road","sort_rank":377,"kind_detail":"tertiary","is_bicycle_related":true,"bus_network":null,"bicycle_shield_text":null,"bicycle_network":"icn","source":"openstreetmap.org","min_zoom":8.0,"bus_shield_text":"705","landuse_kind":"urban_area","id":24926563},"arcs":[476]},{"type":"LineString","properties":{"kind":"major_road","network":"RS:national","sort_rank":380,"kind_detail":"primary","source":"openstreetmap.org","min_zoom":8.0,"shield_text":"1.10","ref":"14"},"arcs":[477]},{"type":"MultiLineString","properties":{"kind":"highway","network":"RS:national","sort_rank":383,"landuse_kind":"urban_area","source":"openstreetmap.org","min_zoom":8.0,"all_networks":["RS:national","e-road"],"kind_detail":"motorway","shield_text":"1","ref":"A1","all_shield_texts":["1","75"]},"arcs":[[478],[479],[480],[481],[482],[483],[484],[485],[486],[487]]},{"type":"MultiLineString","properties":{"kind":"highway","network":"RS:national","sort_rank":383,"kind_detail":"motorway","source":"openstreetmap.org","min_zoom":8.0,"all_networks":["RS:national","e-road"],"shield_text":"1","ref":"A1","all_shield_texts":["1","75"]},"arcs":[[488],[489],[490],[491],[492],[493],[494],[495],[496],[497],[498],[499],[500],[501],[502],[503],[504],[505],[506],[507],[508],[509],[510],[511],[512]]},{"type":"LineString","properties":{"kind":"major_road","network":"RS:national","sort_rank":380,"kind_detail":"primary","source":"openstreetmap.org","min_zoom":8.0,"shield_text":"25","ref":"27","id":380561805},"arcs":[513]},{"type":"MultiLineString","properties":{"kind":"major_road","sort_rank":377,"kind_detail":"tertiary","is_bicycle_related":true,"bicycle_shield_text":null,"bicycle_network":"icn","source":"openstreetmap.org","min_zoom":8.0,"landuse_kind":"urban_area"},"arcs":[[514],[515]]},{"type":"MultiLineString","properties":{"kind":"major_road","network":"RS:national","sort_rank":380,"kind_detail":"primary","source":"openstreetmap.org","min_zoom":8.0,"landuse_kind":"urban_area","shield_text":"13","ref":"13"},"arcs":[[516],[517],[518],[519]]},{"type":"MultiLineString","properties":{"bus_network":null,"bus_shield_text":"EKO1","bicycle_shield_text":null,"min_zoom":8.0,"old_name":"Bulevar revolucije","name:ru":"\u0411\u0443\u043b\u044c\u0432\u0430\u0440 \u043a\u043e\u0440\u043e\u043b\u044f \u0410\u043b\u0435\u043a\u0441\u0430\u043d\u0434\u0440\u0430","kind":"major_road","name:en":"Bulevar kralja Aleksandra","network":"RS:regional","sort_rank":379,"landuse_kind":"urban_area","old_name:sr":"\u0411\u0443\u043b\u0435\u0432\u0430\u0440 \u0440\u0435\u0432\u043e\u043b\u0443\u0446\u0438\u0458\u0435","is_bicycle_related":true,"bicycle_network":"icn","source":"openstreetmap.org","kind_detail":"secondary","shield_text":"100"},"arcs":[[520],[521]]},{"type":"LineString","properties":{"bus_network":null,"network":"RS:national","sort_rank":380,"kind_detail":"primary","is_bicycle_related":true,"kind":"major_road","bicycle_shield_text":null,"bicycle_network":"icn","source":"openstreetmap.org","min_zoom":8.0,"bus_shield_text":"101","shield_text":"1.9","landuse_kind":"urban_area","ref":"47","id":23428521},"arcs":[522]},{"type":"LineString","properties":{"kind":"major_road","network":"RS:national","sort_rank":380,"kind_detail":"primary","bus_network":null,"source":"openstreetmap.org","min_zoom":8.0,"bus_shield_text":"553","shield_text":"19","ref":"26","id":477954518},"arcs":[523]},{"type":"LineString","properties":{"kind":"major_road","name:en":"Ibar Highway","network":"RS:national","sort_rank":380,"kind_detail":"primary","source":"openstreetmap.org","min_zoom":8.0,"shield_text":"4","ref":"22;27"},"arcs":[524]},{"type":"MultiLineString","properties":{"kind":"highway","name:en":"Belgrade Bypass","network":"RS:national","sort_rank":383,"landuse_kind":"urban_area","source":"openstreetmap.org","min_zoom":8.0,"all_networks":["RS:national","e-road"],"kind_detail":"motorway","shield_text":"1","ref":"A1","all_shield_texts":["1","75"]},"arcs":[[525],[526],[527]]},{"type":"LineString","properties":{"source":"openstreetmap.org","kind":"major_road","sort_rank":380,"kind_detail":"primary","ref":"33","min_zoom":8.0},"arcs":[528]},{"type":"LineString","properties":{"kind":"highway","network":"RS:national","sort_rank":383,"kind_detail":"motorway","source":"openstreetmap.org","min_zoom":8.0,"all_networks":["RS:national","e-road"],"shield_text":"2","ref":"\u04102","all_shield_texts":["2","763"]},"arcs":[529]},{"type":"LineString","properties":{"bus_network":null,"name:en":"Kneza Milosa","network":"RS:national","sort_rank":380,"landuse_kind":"urban_area","kind":"major_road","source":"openstreetmap.org","min_zoom":8.0,"bus_shield_text":"23","shield_text":"1.9","kind_detail":"primary"},"arcs":[530]},{"type":"MultiLineString","properties":{"kind":"highway","network":"RS:national","sort_rank":383,"landuse_kind":"urban_area","source":"openstreetmap.org","min_zoom":8.0,"all_networks":["RS:national","RS:national","e-road"],"kind_detail":"motorway","shield_text":"1","ref":"A1","all_shield_texts":["1","1","70"]},"arcs":[[531],[532]]},{"type":"MultiLineString","properties":{"source":"openstreetmap.org","kind":"major_road","landuse_kind":"urban_area","sort_rank":380,"kind_detail":"primary","min_zoom":8.0},"arcs":[[533],[534],[535],[536],[537],[538],[539]]},{"type":"LineString","properties":{"kind":"major_road","name:en":"Cvijiceva","network":"RS:national","sort_rank":380,"kind_detail":"primary","bus_network":null,"source":"openstreetmap.org","min_zoom":8.0,"bus_shield_text":"23","shield_text":"1.9","landuse_kind":"urban_area","id":23897510},"arcs":[540]},{"type":"MultiLineString","properties":{"kind":"major_road","name:en":"Dr Ivana Ribara","sort_rank":380,"kind_detail":"primary","source":"openstreetmap.org","min_zoom":8.0,"landuse_kind":"urban_area","ref":"\u0421\u041c\u0422"},"arcs":[[541],[542]]},{"type":"MultiLineString","properties":{"bus_network":null,"sort_rank":380,"kind_detail":"primary","kind":"major_road","source":"openstreetmap.org","min_zoom":8.0,"bus_shield_text":"85","landuse_kind":"urban_area","ref":"\u0421\u041c\u0422"},"arcs":[[543],[544],[545],[546],[547],[548],[549],[550]]},{"type":"LineString","properties":{"bus_network":null,"name:en":"Batajnicki drum","network":"RS:national","sort_rank":379,"landuse_kind":"urban_area","is_bicycle_related":true,"kind":"major_road","bicycle_shield_text":null,"bicycle_network":"icn","source":"openstreetmap.org","min_zoom":8.0,"bus_shield_text":"706E","shield_text":"22.1","kind_detail":"secondary"},"arcs":[551]},{"type":"MultiLineString","properties":{"kind":"major_road","name:en":"Stevana Supljikca","network":"RS:national","sort_rank":380,"landuse_kind":"urban_area","source":"openstreetmap.org","min_zoom":8.0,"kind_detail":"primary","shield_text":"1.9","ref":"10"},"arcs":[[552],[553]]},{"type":"MultiLineString","properties":{"bus_network":null,"name:en":"Ibar Highway","network":"e-road","sort_rank":381,"kind_detail":"trunk","kind":"major_road","source":"openstreetmap.org","min_zoom":8.0,"bus_shield_text":"531","shield_text":"763"},"arcs":[[554],[555],[556]]},{"type":"MultiLineString","properties":{"kind":"path","sort_rank":354,"landuse_kind":"urban_area","is_bicycle_related":true,"bicycle_shield_text":null,"bicycle_network":"icn","source":"openstreetmap.org","min_zoom":8.0,"kind_detail":"footway"},"arcs":[[557],[558],[559],[560],[561],[562]]},{"type":"LineString","properties":{"kind":"major_road","network":"RS:national","sort_rank":380,"kind_detail":"primary","source":"openstreetmap.org","min_zoom":8.0,"landuse_kind":"urban_area","shield_text":"13","ref":"\u0421\u041c\u0422","id":387668126},"arcs":[563]},{"type":"LineString","properties":{"kind":"major_road","name:en":"Dusanova","network":"RS:national","sort_rank":380,"kind_detail":"primary","source":"openstreetmap.org","min_zoom":8.0,"landuse_kind":"residential","shield_text":"4","ref":"27"},"arcs":[564]},{"type":"LineString","properties":{"bus_network":null,"network":"RS:national","sort_rank":381,"kind_detail":"trunk","kind":"major_road","source":"openstreetmap.org","min_zoom":8.0,"bus_shield_text":"551","shield_text":"19","ref":"26"},"arcs":[565]},{"type":"MultiLineString","properties":{"kind":"path","sort_rank":354,"landuse_kind":"urban_area","is_bicycle_related":true,"bicycle_shield_text":null,"bicycle_network":"icn","source":"openstreetmap.org","min_zoom":8.0,"kind_detail":"cycleway"},"arcs":[[566],[567],[568],[569],[570]]},{"type":"LineString","properties":{"kind":"major_road","sort_rank":380,"kind_detail":"primary","bus_network":null,"source":"openstreetmap.org","min_zoom":8.0,"bus_shield_text":"604","landuse_kind":"urban_area","ref":"\u0421\u041c\u0422","id":473835834},"arcs":[571]},{"type":"LineString","properties":{"kind":"minor_road","name:en":"Dunavska","sort_rank":360,"kind_detail":"residential","is_bicycle_related":true,"bicycle_shield_text":null,"bicycle_network":"icn","source":"openstreetmap.org","min_zoom":8.0,"landuse_kind":"urban_area","id":125048668},"arcs":[572]},{"type":"LineString","properties":{"bus_network":null,"bicycle_shield_text":null,"min_zoom":8.0,"bus_shield_text":"43","id":23428586,"kind":"major_road","name:en":"Pancevo Bridge","network":"RS:national","sort_rank":380,"kind_detail":"primary","is_bicycle_related":true,"bicycle_network":"icn","source":"openstreetmap.org","landuse_kind":"urban_area","shield_text":"1.9","ref":"47"},"arcs":[573]},{"type":"MultiLineString","properties":{"kind":"major_road","name:en":"Jovana Brankovica","sort_rank":377,"landuse_kind":"residential","is_bicycle_related":true,"bicycle_shield_text":null,"bicycle_network":"icn","source":"openstreetmap.org","min_zoom":8.0,"kind_detail":"tertiary","ref":"319"},"arcs":[[574],[575]]},{"type":"LineString","properties":{"kind":"major_road","sort_rank":355,"kind_detail":"primary_link","is_bicycle_related":true,"bicycle_shield_text":"EV6","bicycle_network":"ncn","source":"openstreetmap.org","min_zoom":8.0,"is_link":true,"landuse_kind":"urban_area"},"arcs":[576]},{"type":"LineString","properties":{"kind":"path","name:en":"Knez Mihailova","sort_rank":354,"kind_detail":"pedestrian","is_bicycle_related":true,"bicycle_shield_text":null,"bicycle_network":"icn","source":"openstreetmap.org","min_zoom":8.0,"landuse_kind":"urban_area","name:ru":"\u0423\u043b\u0438\u0446\u0430 \u043a\u043d\u044f\u0437\u044f \u041c\u0438\u0445\u0430\u0438\u043b\u0430","id":23671224},"arcs":[577]},{"type":"LineString","properties":{"kind":"major_road","name:en":"Bulevar vojvode Misica","network":"RS:national","sort_rank":381,"kind_detail":"trunk","bus_network":null,"source":"openstreetmap.org","min_zoom":8.0,"bus_shield_text":"56L","shield_text":"19","landuse_kind":"urban_area","id":179926017},"arcs":[578]},{"type":"MultiLineString","properties":{"kind":"highway","name:en":"Belgrade Bypass","network":"RS:national","sort_rank":383,"kind_detail":"motorway","source":"openstreetmap.org","min_zoom":8.0,"all_networks":["RS:national","e-road"],"shield_text":"1","ref":"A1","all_shield_texts":["1","75"]},"arcs":[[579],[580],[581],[582],[583],[584],[585],[586],[587],[588],[589]]},{"type":"MultiLineString","properties":{"bus_network":null,"name:en":"Takovska","network":"RS:national","sort_rank":380,"landuse_kind":"urban_area","kind":"major_road","source":"openstreetmap.org","min_zoom":8.0,"bus_shield_text":"23","shield_text":"1.9","kind_detail":"primary"},"arcs":[[590],[591],[592]]},{"type":"MultiLineString","properties":{"kind":"major_road","network":"RS:national","sort_rank":381,"kind_detail":"trunk","source":"openstreetmap.org","min_zoom":8.0,"shield_text":"24","ref":"24"},"arcs":[[593],[594]]},{"type":"LineString","properties":{"kind":"major_road","network":"RS:national","sort_rank":381,"kind_detail":"trunk","source":"openstreetmap.org","min_zoom":8.0,"shield_text":"23","ref":"25"},"arcs":[595]},{"type":"MultiLineString","properties":{"source":"openstreetmap.org","kind":"major_road","network":"RS:national","sort_rank":380,"kind_detail":"primary","min_zoom":8.0,"shield_text":"25"},"arcs":[[596],[597]]},{"type":"LineString","properties":{"kind":"major_road","name:en":"Ibar Highway","network":"e-road","sort_rank":380,"kind_detail":"primary","bus_network":null,"source":"openstreetmap.org","min_zoom":8.0,"bus_shield_text":"521","shield_text":"763","id":208732172},"arcs":[598]},{"type":"LineString","properties":{"kind":"minor_road","name:en":"Milorada Bate Mihailovica","sort_rank":360,"kind_detail":"residential","is_bicycle_related":true,"bicycle_shield_text":null,"bicycle_network":"icn","source":"openstreetmap.org","min_zoom":8.0,"landuse_kind":"urban_area","id":68324049},"arcs":[599]},{"type":"LineString","properties":{"kind":"major_road","name:en":"Bulevar vojvode Misica","network":"RS:national","sort_rank":381,"kind_detail":"trunk","bus_network":null,"source":"openstreetmap.org","min_zoom":8.0,"bus_shield_text":"E2","shield_text":"19","landuse_kind":"urban_area","id":437072200},"arcs":[600]},{"type":"MultiLineString","properties":{"kind":"highway","name:en":"Gazela Bridge","network":"RS:national","sort_rank":383,"landuse_kind":"urban_area","source":"openstreetmap.org","min_zoom":8.0,"all_networks":["RS:national","RS:national","e-road","e-road"],"kind_detail":"motorway","shield_text":"1","ref":"A1","all_shield_texts":["1","1","70","75"]},"arcs":[[601],[602]]},{"type":"MultiLineString","properties":{"kind":"major_road","name:en":"Marsala Tita","network":"RS:national","sort_rank":380,"kind_detail":"primary","source":"openstreetmap.org","min_zoom":8.0,"shield_text":"1.9","ref":"10","id":314878106},"arcs":[[603],[604]]},{"type":"LineString","properties":{"bus_network":null,"network":"RS:national","sort_rank":379,"landuse_kind":"residential","is_bicycle_related":true,"kind":"major_road","bicycle_shield_text":null,"bicycle_network":"icn","source":"openstreetmap.org","min_zoom":8.0,"bus_shield_text":"706E","shield_text":"22.1","kind_detail":"secondary"},"arcs":[605]},{"type":"MultiLineString","properties":{"bus_network":null,"network":"e-road","sort_rank":380,"kind_detail":"primary","old_name:sr":"\u041b\u0430\u0437\u0430\u0440\u0435\u0432\u0430\u0447\u043a\u0438 \u0434\u0440\u0443\u043c","kind":"major_road","source":"openstreetmap.org","min_zoom":8.0,"old_name":"\u041b\u0430\u0437\u0430\u0440\u0435\u0432\u0430\u0447\u043a\u0438 \u0434\u0440\u0443\u043c","shield_text":"763","landuse_kind":"urban_area","bus_shield_text":"55"},"arcs":[[606],[607]]},{"type":"LineString","properties":{"kind":"major_road","name:en":"Duke Vojvoda Misic street","network":"RS:national","sort_rank":380,"kind_detail":"primary","name:sr":"Vojvode Misica","source":"openstreetmap.org","min_zoom":8.0,"landuse_kind":"residential","shield_text":"21","ref":"21","id":35912848},"arcs":[608]},{"type":"LineString","properties":{"kind":"major_road","network":"RS:national","sort_rank":380,"kind_detail":"primary","source":"openstreetmap.org","min_zoom":8.0,"shield_text":"21","ref":"21;141"},"arcs":[609]},{"type":"MultiLineString","properties":{"kind":"major_road","network":"RS:national","sort_rank":380,"kind_detail":"primary","source":"openstreetmap.org","min_zoom":8.0,"shield_text":"4","ref":"25"},"arcs":[[610],[611]]},{"type":"MultiLineString","properties":{"kind":"major_road","network":"RS:national","sort_rank":380,"kind_detail":"primary","source":"openstreetmap.org","min_zoom":8.0,"shield_text":"19","ref":"26"},"arcs":[[612],[613],[614],[615]]},{"type":"MultiLineString","properties":{"source":"openstreetmap.org","kind":"major_road","landuse_kind":"urban_area","sort_rank":380,"kind_detail":"primary","ref":"\u0421\u041c\u0422","min_zoom":8.0},"arcs":[[616],[617],[618],[619],[620],[621],[622],[623],[624],[625]]},{"type":"MultiLineString","properties":{"bus_network":null,"network":"RS:national","sort_rank":381,"landuse_kind":"urban_area","kind":"major_road","source":"openstreetmap.org","min_zoom":8.0,"bus_shield_text":"56L","shield_text":"19","kind_detail":"trunk"},"arcs":[[626],[627],[628],[629]]},{"type":"LineString","properties":{"kind":"major_road","network":"RS:national","sort_rank":380,"kind_detail":"primary","bus_network":null,"source":"openstreetmap.org","min_zoom":8.0,"bus_shield_text":"107","shield_text":"24.1","ref":"13","id":38731526},"arcs":[630]},{"type":"LineString","properties":{"kind":"major_road","name:en":"Jovana Brankovica","sort_rank":377,"kind_detail":"tertiary","is_bicycle_related":true,"bicycle_shield_text":null,"bicycle_network":"icn","source":"openstreetmap.org","min_zoom":8.0,"landuse_kind":"urban_area","ref":"319","id":175262542},"arcs":[631]},{"type":"MultiLineString","properties":{"kind":"minor_road","sort_rank":360,"kind_detail":"residential","is_bicycle_related":true,"bicycle_shield_text":"EV6","bicycle_network":"ncn","source":"openstreetmap.org","min_zoom":8.0,"landuse_kind":"urban_area"},"arcs":[[632],[633]]},{"type":"LineString","properties":{"kind":"minor_road","sort_rank":360,"kind_detail":"residential","is_bicycle_related":true,"bicycle_shield_text":null,"cycleway":"track","source":"openstreetmap.org","min_zoom":8.0,"bicycle_network":"icn","id":72992433},"arcs":[634]},{"type":"LineString","properties":{"kind":"major_road","name:en":"Ilije Garasanina","sort_rank":380,"landuse_kind":"urban_area","source":"openstreetmap.org","min_zoom":8.0,"kind_detail":"primary","id":408963479},"arcs":[635]},{"type":"LineString","properties":{"bus_network":null,"network":"RS:national","sort_rank":380,"kind_detail":"primary","kind":"major_road","source":"openstreetmap.org","min_zoom":8.0,"bus_shield_text":"23","shield_text":"1.9","landuse_kind":"urban_area"},"arcs":[636]},{"type":"MultiLineString","properties":{"kind":"major_road","network":"RS:national","sort_rank":380,"kind_detail":"primary","source":"openstreetmap.org","min_zoom":8.0,"shield_text":"1.11","ref":"24"},"arcs":[[637],[638]]},{"type":"LineString","properties":{"kind":"major_road","sort_rank":380,"kind_detail":"primary","bus_network":null,"source":"openstreetmap.org","min_zoom":8.0,"bus_shield_text":"602","landuse_kind":"urban_area","ref":"\u0421\u041c\u0422","id":473835833},"arcs":[639]},{"type":"LineString","properties":{"kind":"major_road","network":"e-road","sort_rank":380,"kind_detail":"primary","bus_network":null,"source":"openstreetmap.org","min_zoom":8.0,"bus_shield_text":"43","shield_text":"70","landuse_kind":"urban_area","id":286312169},"arcs":[640]},{"type":"MultiLineString","properties":{"bus_network":null,"name:en":"Bulevar Despota Stefana","network":"RS:national","sort_rank":380,"landuse_kind":"urban_area","kind":"major_road","source":"openstreetmap.org","min_zoom":8.0,"bus_shield_text":"32E","shield_text":"1.9","kind_detail":"primary"},"arcs":[[641],[642],[643]]},{"type":"MultiLineString","properties":{"bus_network":null,"network":"RS:national","sort_rank":380,"kind_detail":"primary","kind":"major_road","source":"openstreetmap.org","min_zoom":8.0,"bus_shield_text":"108","shield_text":"1.9","landuse_kind":"urban_area","ref":"10"},"arcs":[[644],[645]]},{"type":"LineString","properties":{"bus_network":null,"name:en":"Kneza Milosa","network":"RS:national","sort_rank":380,"kind_detail":"primary","bus_shield_text":"E2","is_bicycle_related":true,"kind":"major_road","source":"openstreetmap.org","min_zoom":8.0,"old_name":"Milo\u0161a Velikog","shield_text":"1.9","landuse_kind":"urban_area"},"arcs":[646]}]},"earth":{"type":"GeometryCollection","geometries":[{"type":"Polygon","properties":{"sort_rank":10,"source":"naturalearthdata.com","kind":"earth","min_zoom":0.0,"id":4741},"arcs":[[647]]}]},"landuse":{"type":"GeometryCollection","geometries":[{"type":"MultiPolygon","properties":{"source":"openstreetmap.org","kind":"residential","tier":2,"area":70523507,"sort_rank":20,"min_zoom":8.0,"osm_relation":true},"arcs":[[[648]],[[649]],[[650],[651],[652],[653]]]},{"type":"Polygon","properties":{"source":"openstreetmap.org","kind":"military","area":15628700,"tier":3,"id":288181980,"min_zoom":8.0,"sort_rank":45},"arcs":[[654]]},{"type":"MultiPolygon","properties":{"source":"naturalearthdata.com","kind":"urban_area","name":"","area":4381907546,"sort_rank":11,"min_zoom":4.0},"arcs":[[[655]],[[656]],[[657]],[[658]],[[659]],[[660]],[[661]],[[662]],[[663]],[[664]],[[665]],[[666]],[[667]],[[668]],[[669]]]},{"type":"MultiPolygon","properties":{"source":"openstreetmap.org","kind":"residential","tier":2,"area":156429000,"sort_rank":20,"min_zoom":8.0},"arcs":[[[670]],[[671]],[[672]],[[673]],[[674]],[[675]],[[676]],[[677]],[[678]]]}]}},"type":"Topology","transform":{"translate":[19.6875,44.0875850282],"scale":[0.0003433228,0.0002444948]},"arcs":[[[1973,4096],[-97,-60],[76,-121],[8,-137],[-193,-94],[-21,-88],[41,-99],[-232,-111],[11,-34],[-163,0],[-9,-155],[-58,-51],[-21,-220],[-123,17],[-26,-81],[140,-84],[-3,-24],[-61,-10],[-6,-26],[60,-55],[-32,-10],[1,-35],[-57,-15],[64,-54],[-51,-47],[-201,-67],[-224,-218],[-99,27],[-17,61],[200,86],[27,51],[-12,31],[-190,-10],[-83,22],[-124,58],[-159,139],[-234,24],[-33,33],[-48,99],[0,155],[59,156],[15,-16],[25,38],[84,178],[-27,28],[-74,-11],[-55,63],[-51,-7]],[[4096,2606],[-58,-21],[-230,-2],[-245,-211],[-219,-36],[-211,17],[-152,114],[-99,165],[-116,81],[-34,60],[-8,54],[29,84],[-56,76],[15,42],[-68,2],[-55,85],[128,28],[-81,31],[89,19],[-24,78],[15,94],[-75,102],[-125,23],[-16,50],[-32,-23],[-59,92],[10,38],[-125,65],[-61,100],[-83,61],[-32,89],[9,89],[-37,44]],[[2237,2950],[-27,-44],[-53,-23],[52,-165],[-44,-79],[111,-202],[52,-19],[134,-127],[16,-304],[85,-29],[47,-87],[32,-11],[173,-211],[37,-121],[67,-76],[37,-90],[66,-60],[88,-34],[25,-49],[147,-49],[84,17],[110,-49],[212,-5],[186,-119],[175,6],[22,-80],[-7,-33],[0,-4],[0,-3],[1,-6],[2,-7],[24,-56],[2,-9],[0,-10],[-7,-29],[-1,-5],[0,-6],[7,-73],[1,-5],[1,-3],[2,-3]],[[4096,513],[-2,-14],[-1,-7],[1,-3],[1,-5],[1,-2]],[[4047,1022],[1,-1]],[[4051,1018],[20,-78],[-6,-46],[26,-63],[2,-10],[3,-36]],[[4096,510],[-2,-17],[2,-7]],[[2237,2950],[-27,-44],[-53,-23],[52,-165],[-44,-79],[111,-202],[52,-19],[134,-127],[16,-304],[85,-29],[47,-87],[32,-11],[173,-211],[37,-121],[67,-76],[37,-90],[66,-60],[88,-34],[25,-49],[147,-49],[84,17],[110,-49],[212,-5],[186,-119],[175,6],[22,-80],[-7,-33],[0,-4],[0,-3],[1,-6],[2,-7],[24,-56],[2,-9],[0,-10],[-7,-29],[-1,-5],[0,-6],[7,-73],[1,-5],[1,-3],[2,-3]],[[4096,513],[-2,-14],[-1,-7],[1,-3],[1,-5],[1,-2]],[[4047,1022],[1,-1]],[[4051,1018],[20,-78],[-6,-46],[26,-63],[2,-10],[3,-36]],[[4096,510],[-2,-17],[2,-7]],[[503,178],[1,-2]],[[2000,2817],[25,28],[96,22],[-73,-24],[-48,-26]],[[2323,2414],[5,-5]],[[499,131],[75,-122]],[[503,170],[-4,-39]],[[503,184],[0,-6]],[[504,176],[0,-2]],[[516,194],[-5,2]],[[1481,1160],[-211,-33],[-142,-104],[-19,-87],[-51,-42],[-256,-53],[-189,-102],[-44,-60],[-14,-80],[-46,-13],[-18,-142],[84,-160],[75,-23],[-67,4],[-32,-66],[-27,-6]],[[574,9],[4,-9]],[[1490,1160],[-8,0]],[[2190,2196],[-46,-152],[-188,-281],[-120,-86],[-74,-15],[-45,-300],[-71,-82],[-7,-52],[-94,-68],[-52,-1]],[[2221,2516],[33,-40]],[[2255,2472],[19,-39],[49,-19]],[[2334,2381],[-64,-68]],[[2328,2409],[7,-21]],[[2254,2476],[1,-4]],[[504,174],[-1,-4]],[[524,193],[-8,1]],[[2270,2313],[-80,-117]],[[511,196],[-8,-12]],[[2335,2388],[-1,-7]],[[1128,4096],[15,-94],[153,-297]],[[1296,3705],[60,-95],[339,-284]],[[2139,2935],[-79,51],[-20,54],[-6,7],[-3,2],[-3,2],[-58,23],[-38,32],[-188,176],[-76,67],[-117,102],[-86,75],[-106,83],[-63,96]],[[1793,3237],[142,-153],[97,-36],[8,-8],[17,-49],[1,-2],[2,-2],[2,-3],[3,-2],[71,-46],[3,-1]],[[2236,2951],[-28,-43],[-69,27]],[[0,3683],[491,6],[200,-49],[16,-3],[16,-1],[12,0],[17,2],[9,1],[18,4],[40,11],[29,9],[9,4],[7,3],[7,4],[28,18],[165,109],[29,19],[11,6],[61,7],[74,-30],[86,-153],[11,-18],[14,-16],[24,-20],[100,-78],[221,-192]],[[2139,2935],[-79,51],[-20,54],[-6,7],[-3,2],[-3,2],[-58,23],[-38,32],[-188,176],[-71,63],[-198,173],[-122,96],[-97,173],[-20,21],[-26,13],[-45,12],[-13,2],[-42,-6],[-10,-5],[-7,-4],[-229,-150],[-115,-32],[-258,52],[-491,-6]],[[1793,3237],[142,-153],[97,-36],[8,-8],[17,-49],[1,-2],[2,-2],[2,-3],[3,-2],[71,-46],[3,-1]],[[2236,2951],[-28,-43],[-69,27]],[[2237,2950],[-27,-44],[-53,-23],[52,-165],[-45,-78],[109,-206],[52,-21],[10,-30],[-150,-194],[-41,-145],[-188,-281],[-120,-86],[-74,-15],[-45,-300],[-71,-82],[-7,-52],[-101,-70],[-120,7],[-46,-29],[-102,-9],[-142,-104],[-19,-87],[-51,-42],[-256,-53],[-184,-97],[-49,-65],[0,-58],[-56,-30],[-14,-38],[-8,-109],[31,-32],[4,-66],[53,-65],[71,-20],[-81,-4],[-18,-58],[-47,-7],[-5,-61],[71,-131]],[[1482,1160],[-1,0]],[[1493,1159],[-3,1]],[[1979,2550],[26,-4]],[[2589,3171],[-5,-2],[-36,-13]],[[2548,3156],[33,12]],[[2967,2640],[100,91]],[[1724,3409],[0,-4]],[[2340,2976],[0,1]],[[2342,2976],[1,0]],[[2342,2977],[0,-1]],[[2240,3039],[-1,-12]],[[2274,2956],[0,3]],[[2812,3148],[-3,-2]],[[2224,3331],[-6,13]],[[2160,2305],[-1,124]],[[1804,3054],[-5,0]],[[1799,3053],[4,0]],[[125,2911],[-25,-153],[-45,-43],[52,-46]],[[135,2661],[1,0]],[[136,2661]],[[136,2661],[2,-21]],[[409,3674],[-18,-24]],[[478,4013],[-50,-178],[36,-79],[-34,-59]],[[568,878],[-11,61]],[[628,676],[-3,-1]],[[626,673],[-1,1]],[[696,790],[1,-13]],[[2346,3058],[0,-5]],[[2346,3053],[1,2]],[[2220,2916],[1,0]],[[1786,3314],[-11,-25]],[[1775,3289],[12,25]],[[2248,2978],[3,3]],[[1688,460],[11,-5]],[[1722,1620],[-1,-10]],[[1699,455],[1,1],[-1,0],[0,-1]],[[2153,2441],[-35,62]],[[1977,2929],[9,-14]],[[1987,2914],[-9,15]],[[2343,2976],[-1,1]],[[1868,2653],[92,26]],[[2110,2850],[1,1]],[[1638,1217],[-31,22]],[[687,786],[-126,-24]],[[561,762],[126,23]],[[736,806],[-48,-20]],[[688,786],[48,20]],[[1607,1239],[75,129],[40,260]],[[2715,2788],[32,10]],[[1845,2641],[23,12]],[[1986,3130],[-2,1]],[[2007,3158]],[[2224,2975],[1,1]],[[3167,3660],[73,73]],[[258,839],[8,2]],[[673,714],[-33,-30]],[[688,760],[-3,-13]],[[688,760],[4,7]],[[1951,2128],[-8,-8]],[[1947,2124]],[[1947,2124]],[[1,2667],[106,2]],[[158,2656],[-22,6]],[[1420,2313],[-72,-12]],[[1537,2319],[-1,0]],[[1538,2319]],[[2023,2232],[82,9],[9,33]],[[1536,2319],[-116,-6]],[[1619,2304],[68,16]],[[1752,3695],[-4,-15]],[[1890,3819],[-98,-82]],[[2815,3151],[-3,-3]],[[1729,3496],[4,8]],[[1733,3504],[0,2],[-1,4],[0,-3],[1,-3]],[[2830,3242],[66,67]],[[2113,2770],[1,0]],[[1977,2929],[1,0]],[[2353,3060],[1,2]],[[2428,3061],[-40,-2]],[[2338,2987],[3,27]],[[2291,2951],[-6,-7]],[[2221,2902],[9,11]],[[2110,3708],[70,-229]],[[2388,3060],[0,-1]],[[2917,666],[-18,31],[31,35],[6,85]],[[2851,3200],[2,2]],[[528,732],[-1,2]],[[557,745],[-2,-4]],[[2285,2944],[-2,0]],[[2815,3151],[37,51],[1,2]],[[2851,3202],[-36,-50]],[[2827,3239],[-2,-2]],[[2826,3236],[1,3]],[[2827,3239],[3,3]],[[2896,3309],[47,61]],[[2337,2992],[-4,-4]],[[2253,2979]],[[2337,2978],[1,0]],[[1981,3085],[-8,-19],[-1,-3],[-4,-17],[-6,-39]],[[1963,3008],[6,38]],[[1970,3053],[11,30]],[[2342,2976]],[[1799,3054],[-141,4]],[[1660,3057],[139,-4]],[[1803,3053],[231,-25],[149,-95]],[[2068,3008],[-35,21],[-63,16],[-166,9]],[[2183,2933],[-115,75]],[[2201,2919],[17,-12]],[[2218,2908],[-16,12]],[[2338,2979],[0,7]],[[2100,2804],[13,-34]],[[2114,2770],[-13,33]],[[1567,3080],[39,-13],[15,-2]],[[1593,3073],[-26,8]],[[1623,3065],[-30,8]],[[1596,3072],[-3,1]],[[3781,2021],[-7,-6]],[[2896,1368],[16,104],[-39,45]],[[1486,1136],[-1,1]],[[1485,1137],[-1,1]],[[1491,1138],[-6,0]],[[1485,1137]],[[1485,1137],[0,-2]],[[2140,3029],[-1,2]],[[2238,3019],[-4,-19]],[[2208,3366],[16,-35]],[[136,2661],[1,1]],[[1537,2319],[0,-1],[1,1],[-1,0]],[[2725,3196],[35,15]],[[2300,2934],[-16,9]],[[3753,2029],[3,-1]],[[2910,1476],[2,-4]],[[2110,2705],[6,-34]],[[2115,2768],[-1,2]],[[2230,2996],[4,4]],[[1748,3680],[-19,-21]],[[2117,3106],[2,-3]],[[2613,3173],[0,-1]],[[2758,3201],[2,10]],[[2773,3176],[4,-42]],[[2120,2558],[-7,-39],[1,-8],[4,-8],[3,55]],[[2218,3344],[-10,20]],[[2815,3152],[0,-1]],[[1656,586],[79,69],[5,81],[-95,163],[-172,170],[13,67]],[[1745,446],[-175,27],[9,65],[30,25]],[[1745,446],[-46,9]],[[1722,1628],[39,79]],[[2315,144],[-188,194],[-43,-23],[-95,70],[-244,61]],[[1768,1743],[25,229],[136,99],[94,161]],[[2114,2274],[46,31]],[[2159,2429],[-6,12]],[[2315,144],[3,-8]],[[2308,0],[-2,6],[12,130]],[[2337,2992],[0,-14]],[[2041,3212],[-28,-46]],[[2013,3165],[28,47]],[[1985,3172],[17,-11]],[[2003,3161],[4,-3]],[[2007,3158],[74,-42]],[[2086,3114],[13,-10]],[[3452,2382],[-124,-25],[-138,7],[-172,111],[-47,71],[-4,94]],[[3746,2620],[267,-24],[83,61]],[[2299,2984]],[[2851,3202],[193,-13]],[[3720,2610],[-59,-87],[53,-72],[15,-150],[-18,-79]],[[2936,2979],[82,-101],[3,-65],[46,-82]],[[1723,3395],[7,-25]],[[1789,4096],[81,-86],[20,-191]],[[1984,3131],[0,-1]],[[2268,2957]],[[2340,2977],[-2,1]],[[2829,3130],[-14,22]],[[2829,3129],[107,-150]],[[3870,151],[0,-1]],[[3852,115],[-1,1],[-1,-1],[1,-1],[1,1]],[[2588,886],[-65,25]],[[2208,3366],[-28,113]],[[2115,2722],[-5,-17]],[[2115,2722],[5,25]],[[2120,2747],[-5,-25]],[[2419,3253],[1,12],[-7,30]],[[2413,3295],[-16,70]],[[2397,3365],[-1,3],[-8,6],[-84,-4]],[[2305,3370],[84,3],[8,-8]],[[2397,3365],[1,-1],[15,-69]],[[2413,3295],[6,-25],[1,-5],[-2,-11]],[[2191,3002],[1,5]],[[560,846],[8,32]],[[2002,3161],[1,0]],[[2230,2913]],[[1904,3220],[-108,68]],[[2081,3116],[5,-2]],[[2099,3104],[3,-1]],[[2070,3254],[-29,-42]],[[2267,2956],[1,1]],[[2488,2682],[-2,-71],[7,-9],[92,-81],[36,-102],[3,-2]],[[2624,2417],[15,-11]],[[2639,2406],[12,-8],[3,0],[38,-40],[9,-9]],[[2701,2349],[2,-2],[22,-41]],[[2725,2306],[41,-74],[8,-176],[39,-87],[34,-13],[4,1]],[[2851,1957],[392,59]],[[3243,2016],[162,25],[108,-44],[74,-13],[3,1]],[[3590,1985],[126,47],[1,0],[8,-3]],[[3725,2029],[9,-2]],[[3734,2027],[12,-3],[4,-14]],[[3750,2010],[34,-133],[65,-87],[41,-142],[43,-58],[54,-267],[1,-7]],[[3988,1316],[46,-173]],[[4029,1115],[-2,4],[0,2],[-39,195]],[[3988,1316],[-1,8],[-53,265],[-43,60],[-42,142],[-64,86],[-19,117],[-16,16]],[[3750,2010],[-16,17]],[[3734,2027],[-4,4],[-5,-2]],[[3725,2029],[-135,-44]],[[3590,1985],[-45,9],[-32,3],[-106,44],[-164,-25]],[[3243,2016],[-390,-60],[-2,1]],[[2851,1957],[-38,12],[-38,88],[-9,177],[-41,72]],[[2725,2306],[-24,43]],[[2701,2349],[-7,11],[-22,32],[-4,3],[-29,11]],[[2639,2406],[-13,5],[-2,6]],[[2624,2417],[-36,101],[-41,43],[-57,44],[2,48],[-3,29]],[[4092,924],[4,-18]],[[2114,2770],[6,-23]],[[2120,2747],[-5,21]],[[0,3719],[76,-42],[819,-321],[39,-11]],[[934,3345],[274,-77],[16,-8],[7,-4],[8,-5]],[[1239,3251],[3,-2],[39,-26],[248,-130],[38,-13]],[[1567,3081],[-324,169],[-4,1]],[[1239,3251],[-305,94]],[[934,3345],[-39,12],[-895,363]],[[2346,3053],[-6,-39]],[[1724,3405],[0,-1]],[[1727,3454],[-3,-45]],[[3981,245],[-4,1]],[[2123,2590],[-3,-11]],[[1703,457],[-4,-1]],[[2340,3014],[-3,-22]],[[2116,2671],[17,-35]],[[2102,3103],[-1,0]],[[2226,2976],[-31,-3]],[[2251,2975],[1,3]],[[2252,2978],[1,2]],[[2252,2980],[0,-2]],[[1724,3039],[28,-45]],[[1751,2995],[-26,41]],[[2239,3027],[-1,-8]],[[2218,2907],[14,-8],[18,-6],[5,-3]],[[2255,2890],[9,-5],[5,-5]],[[2269,2880],[3,-3],[4,-3]],[[2276,2874],[24,-17]],[[2300,2857],[3,-3],[14,-7],[25,-9],[10,-1],[18,-3]],[[2370,2834],[2,0],[6,-2]],[[2378,2832],[14,-5],[1,-1],[3,-2]],[[2396,2824],[4,-2],[3,-2],[8,-7],[3,-2],[0,-1]],[[2414,2810],[3,-2],[5,-6],[61,-82],[5,-38]],[[2489,2682],[-5,37],[-60,81],[-7,8],[-3,2]],[[2414,2810],[-18,14]],[[2396,2824],[-3,3],[-9,4],[-6,1]],[[2378,2832],[-8,2]],[[2370,2834],[-11,3],[-3,0],[-39,10],[-9,5],[-2,1],[-3,2],[-3,2]],[[2300,2857],[-8,5],[-4,2],[-12,10]],[[2276,2874],[-5,4],[-2,2]],[[2269,2880],[-14,10]],[[2255,2890],[-5,3],[-32,15]],[[4096,931],[-15,64],[-21,49]],[[4060,1044],[-31,71]],[[4034,1143],[26,-99]],[[4060,1044],[32,-120]],[[2613,3172],[-164,-105],[-96,-7]],[[2613,3173],[108,24]],[[2777,3134],[32,12]],[[3742,2585],[-51,-70],[-91,-29],[-148,-104]],[[2340,2977],[-2,2]],[[2221,2918],[-6,-9]],[[2000,3121],[-6,-12]],[[1994,3110],[7,12]],[[2606,882],[-18,4]],[[1984,3130],[16,-9]],[[2001,3122],[-15,8]],[[2268,2957],[-14,8]],[[2130,2865],[26,18]],[[2166,2888],[0,1]],[[2520,912],[-14,14]],[[107,2669],[27,-7]],[[1960,2679],[110,128]],[[2070,2807],[40,43]],[[2090,2832],[-20,-25]],[[2110,2851],[-15,-14]],[[555,741],[-14,-20]],[[2447,962],[-40,23]],[[2501,931],[-53,30]],[[2822,1659],[51,-142]],[[2934,821],[9,141],[-52,96],[-30,192],[35,118]],[[3438,0],[-16,37],[-150,150],[-192,24],[-28,97],[5,112],[-40,53],[-39,145],[-61,48]],[[3044,3189],[214,-118],[232,-89],[240,-258],[-10,-114]],[[2096,2810],[-9,10]],[[2088,2818],[8,-8]],[[1582,3076],[40,-18],[21,-50]],[[1645,3011],[-23,48],[-13,8],[-16,6]],[[3743,2600],[3,20]],[[3838,0],[13,114]],[[3852,115],[70,142],[59,-12]],[[1797,2423],[11,22]],[[2230,2913],[-10,-11]],[[3709,2129],[2,93]],[[2421,3109],[-75,-51]],[[2347,3055],[73,53]],[[2268,2957]],[[2943,3370],[219,286]],[[3243,3736],[433,287],[182,-82],[86,25],[152,-24]],[[1742,3323],[-9,6]],[[1747,3320],[33,-22]],[[2506,926],[-5,5]],[[2521,912],[-1,0]],[[1911,2627],[22,-10]],[[1733,3329],[-22,19]],[[1747,3320],[-5,3]],[[1986,2915],[9,-16]],[[1995,2899],[-8,15]],[[2003,2885],[-8,14]],[[2133,2636],[0,-4]],[[2104,3104],[13,2]],[[1969,3046],[1,7]],[[1752,2995],[-1,0]],[[1784,3274],[200,-143]],[[1984,3131],[-200,144]],[[1999,3122],[2,0]],[[2442,2772],[6,-5]],[[2447,2768],[-4,4]],[[2095,2837],[-5,-5]],[[1795,2419],[2,4]],[[640,684],[-14,-11]],[[678,719],[-5,-5]],[[684,741],[-4,-15]],[[694,789],[2,0]],[[697,777],[-1,-2]],[[696,775],[-4,-8]],[[1643,3008],[1,-4]],[[2122,2568],[0,3]],[[2685,2373],[4,-10]],[[2689,2363],[2,-4]],[[2691,2359],[1,-1],[1,-1]],[[2693,2357],[1,-1]],[[2694,2356],[3,-3]],[[2697,2353],[2,-3]],[[2687,2371],[7,-11],[7,-10],[-7,9],[-6,11]],[[2702,2348],[-8,12],[-7,11]],[[2687,2371],[13,-19],[-12,18]],[[2687,2370],[2,-4]],[[2689,2366],[0,-1]],[[2689,2365],[1,-2]],[[2690,2363],[1,-3]],[[2691,2360],[1,-2],[2,-2]],[[2694,2356],[1,-2]],[[2695,2354],[1,-2]],[[2700,2350],[-7,9],[-5,9]],[[2699,2351]],[[2699,2351],[-6,8],[-5,9]],[[2688,2364],[3,-5]],[[2691,2359],[1,-1],[1,-1]],[[2693,2357],[2,-3]],[[2695,2354],[2,-3]],[[2699,2351],[-1,1]],[[2698,2352],[-5,7],[-5,8]],[[2688,2365],[1,-2]],[[2689,2363],[2,-3]],[[2691,2360],[1,-1],[2,-2]],[[2694,2357],[2,-2]],[[2696,2355],[0,-1]],[[2696,2354],[2,-2]],[[2698,2352],[1,-1]],[[2699,2351],[2,-2]],[[2697,2352],[0,1]],[[2697,2353],[-3,4]],[[2694,2357],[-2,2],[-2,4]],[[2690,2363],[-1,2]],[[2698,2356],[-6,9]],[[2697,2356],[-2,4],[-2,3]],[[2801,1984],[10,-12]],[[3777,1913],[1,-7]],[[3779,1895],[2,-8]],[[2689,2366],[0,-1]],[[2689,2365],[4,-6],[3,-4]],[[2696,2355],[2,-4],[-2,3]],[[2696,2354],[-3,5],[-4,7]],[[2689,2366]],[[4033,249],[31,-9]],[[135,2662],[-1,0],[1,0]],[[136,2662],[-1,0],[0,-1],[1,1]],[[572,767],[8,-31]],[[580,736],[9,-4]],[[589,732],[6,-11]],[[595,721],[5,-3]],[[600,719],[-5,2]],[[601,718],[13,-66]],[[2581,3168],[190,-38],[20,3],[21,15],[3,3]],[[2812,3148],[-41,-18],[-158,39],[-24,2]],[[1985,3172],[-1,0]],[[2162,2887],[-10,-5]],[[391,3650],[-166,-278],[6,-279],[33,-101],[-139,-81]],[[138,2640],[54,-429],[-42,-116],[6,-200],[43,-63],[48,-21],[43,-142],[86,-78]],[[557,939],[74,129],[-10,67],[35,140],[-148,100],[-17,52],[-80,23],[-25,41],[13,51]],[[430,3697],[-21,-23]],[[502,4096],[-24,-83]],[[614,652],[8,-74],[-39,-38],[-32,-96],[-3,-119],[165,-121],[-19,11],[13,-46],[-30,-48],[-8,-121]],[[572,768],[0,-1]],[[601,718]],[[601,719],[-1,0],[0,-1],[1,1]],[[2139,3031],[-19,71]],[[1761,1707],[7,36]],[[1977,2930],[0,-1]],[[553,754],[4,-9]],[[2156,2883],[10,5]],[[2166,2889],[17,5]],[[2268,2957],[-1,0]],[[687,785],[1,1]],[[688,786],[-1,0]],[[736,806],[87,37]],[[823,843],[-87,-37]],[[825,843],[-2,0]],[[2133,2632],[-2,-20]],[[2254,2965],[-3,10]],[[553,754],[8,0]],[[4096,2109],[-29,1],[-286,-89]],[[2932,816],[1,1]],[[2068,3008]],[[527,734],[-133,55],[-39,-18],[-89,70],[-153,45],[-36,61],[-77,27]],[[541,721],[-13,11]],[[825,843],[196,37],[79,46],[25,95],[161,113],[83,3],[38,25],[79,-26]],[[2407,985],[-47,27],[-190,-3],[-96,60],[-128,17],[-29,56],[-99,29],[-29,-17],[-83,54],[-68,9]],[[2448,961],[-1,1]],[[2933,818],[-63,-12],[-264,76]],[[2917,666],[261,-3],[130,38],[34,-85],[37,-24],[226,75],[246,-133],[245,65]],[[1609,563],[47,23]],[[2102,3104],[2,0]],[[3781,2021],[-26,6],[-46,102]],[[1689,3528],[86,-72]],[[1775,3456],[2,-15]],[[1777,3441],[-2,15]],[[1775,3456],[-1,2],[-85,71]],[[1763,3278],[5,3]],[[1768,3281],[1,1],[6,7]],[[1775,3289],[-6,-8],[-1,0]],[[1768,3281],[-4,-4]],[[1786,3370],[0,-56]],[[1787,3314],[0,56]],[[1281,4096],[124,-142],[12,-24]],[[1417,3930],[57,-117],[9,-20],[7,-17],[1,-4]],[[1491,3772],[3,-7],[3,-6],[1,-5],[4,-9]],[[1502,3745],[16,-33]],[[1518,3712],[5,-12],[12,-20],[2,-3]],[[1537,3677],[48,-59]],[[1585,3618],[3,-4],[16,-15],[85,-71]],[[1689,3529],[-90,76],[-5,4],[-9,9]],[[1585,3618],[-7,7],[-28,33],[-7,11],[-6,8]],[[1537,3677],[0,1],[-13,21],[-1,1],[-5,12]],[[1518,3712],[-7,14],[-4,7],[-5,12]],[[1502,3745],[0,1],[-7,17],[-4,9]],[[1491,3772],[-74,158]],[[1417,3930],[-11,24],[-125,142]],[[1764,3277],[-1,0],[-10,-5]],[[1753,3272],[-6,-3]],[[1747,3269],[6,3]],[[1753,3272],[10,6]],[[1787,3370],[-10,68]],[[1777,3438],[0,3]],[[1777,3441],[0,-3]],[[1777,3438],[9,-68]],[[2137,2557],[20,1]],[[2186,2572],[24,12]],[[2213,2586],[26,4]],[[2934,817],[2,0]],[[1732,3510],[-3,149]],[[2725,3196],[-4,1]],[[2218,3340],[87,30]],[[2304,3370],[-75,-25]],[[2418,3254],[-11,-84],[2,-20],[11,-42]],[[2420,3110],[-1,143]],[[2273,2953],[-5,4]],[[2284,2943]],[[2338,2986],[0,1]],[[1790,2406],[5,13]],[[1486,1136],[121,103]],[[1644,3135],[-6,-46],[6,-83]],[[1645,3004],[0,131]],[[1835,2681],[59,-45]],[[3772,2014]],[[2004,0],[27,66],[-13,49],[-89,103],[-83,62],[-16,37],[-42,39],[-21,56],[-6,6],[-12,6],[-10,11],[-19,18],[-17,4],[63,-45],[21,-56],[58,-76],[173,-165],[13,-49],[-27,-66]],[[2267,2957],[0,-1]],[[1621,3065],[39,-8]],[[1658,3058],[-35,7]],[[11,2667],[10,1]],[[64,2668],[-13,0]],[[673,714]],[[680,726],[-2,-7]],[[685,747],[-1,-6]],[[1967,3036]],[[2001,3125],[-2,-2]],[[2300,2982],[-1,2]],[[2003,2884],[0,1]],[[2003,2884],[1,-2],[-1,2]],[[2013,3166],[-6,-8]],[[2007,3158],[6,7]],[[2041,3212],[32,45]],[[2073,3257],[1,2],[1,1]],[[2075,3260],[133,76]],[[2222,3342],[-103,-39],[-44,-43]],[[2075,3260],[-2,-3]],[[2073,3257],[-3,-3]],[[1984,3172],[-80,48]],[[2825,3237],[26,-35]],[[2853,3204],[-9,15],[-18,17]],[[2120,2579],[0,-2]],[[2120,2577],[0,-19]],[[2121,2558],[0,3],[0,10],[-1,6]],[[2120,3102],[-1,1]],[[2194,2974],[31,2]],[[2223,2975],[-3,0]],[[2224,2975]],[[2225,2976]],[[2275,2955],[12,-8]],[[2421,3108],[-1,2]],[[561,754],[0,8]],[[1808,2445],[26,48],[11,148]],[[2190,3003],[-50,26]],[[2192,3007],[2,-33]],[[2220,2975],[-11,47],[31,17]],[[2347,3053],[6,7]],[[2758,3201],[15,-25]],[[1978,2929],[-1,1]],[[3743,2600],[-1,-15]],[[2341,3014],[5,39]],[[1730,3370],[-19,-22]],[[1724,3404],[-1,-9]],[[2341,2988],[-2,4]],[[2230,2996],[18,-18]],[[2207,2903],[-45,-16]],[[1644,3006],[8,-93],[11,-44],[10,-18],[43,-64],[75,-71],[44,-35]],[[1747,3269],[-17,-8],[-77,-69],[-9,-57]],[[1645,3135],[8,57],[94,77]],[[1809,2701],[-137,151],[-27,152]],[[1894,2636],[17,-9]],[[1933,2617],[46,-67]],[[2005,2546],[90,19]],[[2095,2565],[16,-4],[26,-4],[-35,8],[-7,0]],[[2157,2558],[29,14]],[[2210,2584],[3,2]],[[2239,2590],[20,-10]],[[2273,2960],[-5,-3]],[[2268,2957],[5,3]],[[2273,2960],[26,21]],[[3851,114],[-13,-114]],[[3977,246],[-61,3],[-65,-134]],[[2860,1942],[-44,-163],[6,-120]],[[2934,821],[-1,-2]],[[2935,819],[-1,1],[-1,-2],[1,-1],[1,2]],[[2131,2612],[-8,-22]],[[2774,3178],[17,6]],[[2183,2894],[27,10]],[[2183,2933],[18,-14]],[[2202,2920],[-19,13]],[[3162,3656],[5,4]],[[3240,3733],[3,3]],[[1796,3288],[-16,10]],[[2096,2810],[4,-6]],[[2101,2803],[-5,7]],[[572,768],[-12,78]],[[376,1591],[23,-49]],[[2934,819],[0,2]],[[2936,817],[-1,1]],[[1,2667],[-1,0]],[[1348,2301],[-88,-6],[-121,54],[-75,81],[-269,-223],[-212,-24],[-142,116],[-26,135],[-79,104],[-178,118]],[[1538,2319],[81,-15]],[[1687,2320],[80,34],[23,52]],[[1962,3007],[0,-1]],[[1963,3006],[0,2]],[[1977,2930]],[[1981,3083],[13,27]],[[1994,3109],[-13,-24]],[[2007,3158],[-7,-37]],[[2001,3122],[6,36]],[[2041,3212]],[[2208,3336],[10,4]],[[2229,3345],[-7,-3]],[[2152,2882],[-32,-22],[-10,-9]],[[2111,2851],[19,14]],[[2215,2909],[-8,-6]],[[2210,2904],[6,4],[4,8]],[[2006,4096],[104,-388]],[[1730,3490],[-3,-36]],[[2354,3062],[34,-2]],[[2762,3204]],[[1792,3737],[-40,-42]],[[2521,911],[0,1]],[[2299,2984],[1,-2]],[[3981,245],[52,4]],[[4064,240],[30,-15],[2,2]],[[1977,2930]],[[2329,2987],[11,0]],[[2299,2984],[25,2]],[[2324,2986],[5,1]],[[2333,2988],[-9,-2]],[[2420,3108],[128,48]],[[2548,3156],[-127,-47]],[[2230,2913],[35,41]],[[0,0],[0,4096],[4096,0],[0,-4096],[-4096,0]],[[507,771],[24,-4],[-14,57],[22,-10],[-2,28],[16,-26],[5,42],[6,-43],[13,44],[17,-7],[-15,-28],[28,0],[-11,30],[30,-30],[50,23],[23,-6],[-10,-24],[28,21],[29,-18],[-50,-69],[-8,36],[-13,-37],[-47,-16],[76,9],[-2,-20],[-31,5],[14,-17],[-42,14],[-10,-3],[13,-16],[-7,-7],[-28,25],[27,-41],[37,13],[-60,-44],[-28,24],[19,-2],[-10,31],[-51,-26],[31,24],[-5,26],[-23,17],[-23,-16],[11,19],[-29,22]],[[1533,2261],[28,46],[10,-18],[63,20],[14,30],[105,-50],[31,40],[37,-52],[-50,0],[12,-28],[-23,-7],[-11,45],[-47,-10],[28,-43],[-7,-13],[-49,43],[-24,-8],[-4,49],[-4,-22],[-109,-22]],[[3483,2208],[59,89],[-31,-10],[34,61],[75,23],[58,-94],[-34,4],[9,-39],[-39,-2],[-14,40],[-15,8],[-10,-90],[-33,28],[22,5],[-13,31],[-13,-18],[14,42],[-22,-59],[-47,-19]],[[3601,2280],[36,5],[1,18],[-30,-2],[-7,-21]],[[3566,2278],[6,-1],[6,11],[-9,-1],[-3,-9]],[[3601,2336],[5,-2],[4,7],[-5,-2],[-4,-3]],[[1573,3482],[26,27],[-17,20],[34,13],[49,-49],[20,8],[41,-97],[-33,21],[-44,-28],[-76,85]],[[3690,0],[-175,0],[0,7],[102,14],[73,-21]],[[4096,455],[0,-209],[-63,-13],[0,126],[32,80],[31,16]],[[1865,1324],[-105,23],[-41,52],[17,153],[68,85],[61,6],[-2,-54],[-62,-83],[69,-93],[-5,-89]],[[3050,1559],[16,-101],[-36,-134],[-236,77],[-23,105],[97,0],[65,137],[67,-20],[50,-64]],[[3774,2051],[-32,17],[-65,120],[-162,45],[-64,91],[2,69],[35,49],[179,152],[51,17],[67,-29],[54,-212],[33,-46],[-98,-273]],[[84,2628],[-84,40],[0,227],[117,22],[131,-93],[-98,-182],[-66,-14]],[[1445,3725],[-32,-83],[-98,46],[5,60],[70,79],[35,-22],[20,-80]],[[1607,2551],[97,0],[-33,-227],[-129,0],[-32,-45],[-130,7],[-69,31],[-35,137],[136,52],[33,91],[161,0],[1,-46]],[[541,3819],[-35,-86],[-97,-45],[0,-46],[-41,17],[-36,58],[-52,198],[97,0],[95,100],[34,-9],[0,-91],[35,-96]],[[1057,4096],[110,-76],[51,1],[33,75],[27,-48],[-60,-224],[-130,67],[-32,80],[1,125]],[[1930,3324],[116,-5],[186,54],[86,-3],[155,-179],[72,-3],[58,55],[6,263],[98,-45],[32,-91],[129,45],[33,-45],[129,0],[24,-300],[-92,-87],[-126,-23],[0,46],[-65,0],[0,91],[-97,45],[-26,-20],[-6,-161],[-65,-1],[3,-26],[142,-202],[-15,-90],[-130,0],[-64,45],[-195,-45],[-32,-45],[-453,45],[3,75],[58,78],[3,75],[-37,46],[-157,-1],[-93,144],[-36,-53],[-26,28],[23,59],[121,69],[109,-110],[64,45],[-11,97],[-98,90],[-20,85],[97,1],[-3,58],[-127,32],[-15,64],[48,164],[23,-14],[10,-123],[159,-106],[2,-121]],[[686,719],[-83,-31],[0,-45],[-23,10],[-89,155],[-17,199],[210,-172],[2,-116]],[[2609,1006],[-32,-182],[-194,91],[32,92],[33,-46],[24,11],[60,50],[21,58],[56,18],[0,45],[98,0],[7,-66],[-105,-71]],[[4096,1183],[0,-260],[-27,6],[-47,139],[11,75],[63,40]],[[3680,1111],[-35,32],[0,91],[35,31],[94,-31],[0,-91],[-94,-32]],[[1396,2320],[75,2],[-11,45],[-39,-34],[-8,36],[80,18],[-20,13],[18,24],[13,-10],[29,14],[-33,1],[2,12],[57,-12],[-56,-22],[41,-83],[-50,-28],[-6,-37],[-27,-2],[3,34],[-18,-20],[-28,-118],[-19,15],[34,52],[-25,47],[26,-11],[-18,22],[42,26],[-62,16]],[[0,2811],[56,-119],[19,-11],[3,-12],[-78,-1],[0,143]],[[1657,2926],[22,-18],[5,19],[18,-18],[76,15],[8,-27],[6,21],[5,-19],[47,10],[19,31],[-2,-43],[24,-6],[-211,-37],[-17,72]],[[1607,3303],[59,49],[-13,39],[29,-12],[26,32],[45,-22],[33,-55],[-11,-27],[26,16],[10,-36],[-204,16]],[[1478,3544],[56,15],[40,-18],[25,-32],[-15,-40],[-34,-24],[-72,99]],[[1299,3702],[22,32],[37,-4],[49,-36],[32,13],[24,-32],[-45,-17],[-2,-45],[-19,13],[-17,-47],[9,50],[-41,-2],[-49,75]],[[3146,3678],[46,71],[49,-16],[9,-30],[-42,-64],[-54,1],[13,21],[-21,17]],[[305,3765],[10,34],[73,32],[9,-55],[18,5],[-9,34],[19,7],[-6,-40],[33,5],[-25,-27],[18,-3],[8,-13],[-24,10],[0,-35],[-1,29],[-13,7],[-26,-50],[-3,39],[-12,-25],[-43,-1],[3,40],[-29,7]],[[1086,3937],[38,77],[-6,-34],[25,21],[15,-30],[50,2],[-15,-27],[35,-20],[-44,-47],[36,-42],[-38,39],[-32,-19],[1,24],[-46,-4],[-19,60]]]}