{"objects":{"water":{"type":"GeometryCollection","geometries":[]},"buildings":{"type":"GeometryCollection","geometries":[]},"places":{"type":"GeometryCollection","geometries":[{"type":"Point","properties":{"name:ia":"Kosovo","name:sr":"\u041a\u043e\u0441\u043e\u0432\u043e","name:sk":"Kosovo","name:ko":"\ucf54\uc18c\ubcf4","kind":"country","name:io":"Kosovo","min_zoom":2.0,"name:it":"Kosovo","name:uk":"\u041a\u043e\u0441\u043e\u0432\u043e","name:ru":"\u041a\u043e\u0441\u043e\u0432\u043e","name:pl":"Kosowo","id":4366234392,"name:vo":"Kosov\u00e4n","name:fa":"\u06a9\u0648\u0632\u0648\u0648","name:eo":"Kosovo","name:en":"Kosovo","name":"Kosova","name:de":"Kosovo","name:nl":"Kosovo","source":"openstreetmap.org","name:fr":"Kosovo","name:fy":"Kosovo","population":1800000,"name:zh":"\u79d1\u7d22\u6c83","name:es":"Kosovo"},"coordinates":[3538,2190]},{"type":"Point","properties":{"admin_level":"1","kind":"locality","name:lv":"Prizrena","name":"Prizren","name:lt":"Prizrenas","kind_detail":"city","source":"openstreetmap.org","min_zoom":8.0,"name:ru":"\u041f\u0440\u0438\u0437\u0440\u0435\u043d","id":150906142,"population":177781},"coordinates":[3081,704]},{"type":"Point","properties":{"kind":"locality","name:en":"Kosovska Mitrovica","name":"Mitrovic\u00eb","kind_detail":"city","name:de":"Kosovska Mitrovica","source":"openstreetmap.org","min_zoom":8.0,"name:sr":"\u041a\u043e\u0441\u043e\u0432\u0441\u043a\u0430 \u041c\u0438\u0442\u0440\u043e\u0432\u0438\u0446\u0430","id":1640485042,"population":107000},"coordinates":[3434,3392]},{"type":"Point","properties":{"kind":"locality","name":"Pej\u00eb","kind_detail":"city","name:de":"Peja","source":"openstreetmap.org","min_zoom":8.0,"id":3075195901,"population":97776},"coordinates":[1750,2477]},{"type":"Point","properties":{"kind":"locality","name":"Gjakov\u00eb","kind_detail":"city","name:de":"Gjakova","source":"openstreetmap.org","min_zoom":8.0,"name:sr":"\u0402\u0430\u043a\u043e\u0432\u0438\u0446\u0430","id":1530391541,"population":94158},"coordinates":[2167,1372]},{"type":"Point","properties":{"kind":"locality","name:sl":"Vu\u010ditrn","name":"Vushtrri","kind_detail":"town","name:de":"Vushtrria","source":"openstreetmap.org","min_zoom":8.0,"name:sr":"\u0412\u0443\u0447\u0438\u0442\u0440\u043d","name:ru":"\u0412\u0443\u0447\u0438\u0442\u0440\u043d","name:hr":"Vu\u010ditrn","id":448726882,"population":69881},"coordinates":[3723,3118]},{"type":"Point","properties":{"kind":"locality","name":"Suharek\u00eb","kind_detail":"town","name:de":"Suhareka","source":"openstreetmap.org","min_zoom":8.0,"old_name":"Suhareka","id":1836571291,"population":59722},"coordinates":[3322,1299]},{"type":"Point","properties":{"kind":"locality","name":"Drenas \/ Gllogoc","kind_detail":"town","name:de":"Drenas","source":"openstreetmap.org","min_zoom":8.0,"id":1957422741,"name:sq":"Drenas","population":58531},"coordinates":[3513,2331]},{"type":"Point","properties":{"name:no":"Orahovac","name:tr":"Rahof\u00e7a","min_zoom":8.0,"name:it":"Orahovac","name:ru":"\u041e\u0440\u0430\u0445\u043e\u0432\u0430\u0446","name:pl":"Orahovac","name:hr":"Orahovac","id":1379511730,"population":56208,"name:fa":"\u0631\u0627\u0647\u0648\u0648\u0633","kind":"locality","name":"Rahovec","kind_detail":"town","source":"openstreetmap.org","name:fr":"Orahovac","name:es":"Orahovac"},"coordinates":[2812,1448]},{"type":"Point","properties":{"kind":"locality","name":"Malishev\u00eb","kind_detail":"town","name:de":"Malisheva","source":"openstreetmap.org","min_zoom":8.0,"id":1920392800,"population":54613},"coordinates":[3074,1783]},{"type":"Point","properties":{"source":"openstreetmap.org","kind":"locality","name":"Skenderaj","kind_detail":"town","population":50858,"min_zoom":8.0,"id":1957453084},"coordinates":[3209,2825]},{"type":"Point","properties":{"kind":"locality","name":"Istog \/ Burim","kind_detail":"town","name:de":"Istog","source":"openstreetmap.org","min_zoom":8.0,"id":3031511862,"name:sq":"Istog","population":39289},"coordinates":[2321,2961]},{"type":"Point","properties":{"kind":"locality","name":"Klin\u00eb","kind_detail":"town","name:de":"Klina","source":"openstreetmap.org","min_zoom":8.0,"id":430705589,"population":38496},"coordinates":[2595,2331]},{"type":"Point","properties":{"kind":"locality","name":"Fush\u00eb Kosov\u00eb","kind_detail":"town","name:de":"Fush\u00eb Kosova","source":"openstreetmap.org","min_zoom":8.0,"id":448554221,"population":34718},"coordinates":[4094,2390]},{"type":"Point","properties":{"admin_level":"1","kind":"locality","name":"Dragash \/ Sharr","kind_detail":"town","name:de":"Dragash","source":"openstreetmap.org","min_zoom":8.0,"id":623922742,"name:sq":"Dragash","population":33997},"coordinates":[2813,117]},{"type":"Point","properties":{"source":"openstreetmap.org","kind":"locality","name":"Shtime","kind_detail":"town","population":27324,"min_zoom":8.0,"id":282425103},"coordinates":[3930,1583]},{"type":"Point","properties":{"admin_level":"8","kind":"locality","name":"Ro\u017eaje","kind_detail":"town","name:sr":"\u0420\u043e\u0436\u0430\u0458\u0435","source":"openstreetmap.org","min_zoom":8.0,"name:ru":"\u0420\u043e\u0436\u0430\u0435","id":307861977,"population":22693},"coordinates":[1394,3198]},{"type":"Point","properties":{"kind":"locality","name":"Obiliq \/ Kastriot","kind_detail":"town","name:de":"Obiliq","source":"openstreetmap.org","min_zoom":8.0,"id":430796564,"name:sq":"Kastriot","population":21519},"coordinates":[4029,2576]},{"type":"Point","properties":{"kind":"locality","name":"Kuk\u00ebs","kind_detail":"city","source":"openstreetmap.org","min_zoom":8.0,"name:ru":"\u041a\u0443\u043a\u0435\u0441","id":470406312,"population":17832},"coordinates":[2143,169]},{"type":"Point","properties":{"admin_level":"8","kind":"locality","name":"Bijelo Polje","kind_detail":"town","name:sr":"\u0411\u0438\u0458\u0435\u043b\u043e \u041f\u043e\u0459\u0435","source":"openstreetmap.org","min_zoom":8.0,"name:uk":"\u0411\u0456\u0454\u043b\u043e-\u041f\u043e\u043b\u0454","name:ru":"\u0411\u0438\u0435\u043b\u043e-\u041f\u043e\u043b\u0435","id":313119774,"population":15883},"coordinates":[173,3957]},{"type":"Point","properties":{"admin_level":"8","kind":"locality","name":"Berane","kind_detail":"town","name:sr":"\u0411\u0435\u0440\u0430\u043d\u0435","source":"openstreetmap.org","min_zoom":8.0,"name:uk":"\u0411\u0435\u0440\u0430\u043d\u0435","name:ru":"\u0411\u0435\u0440\u0430\u043d\u0435","id":320443766,"population":11776},"coordinates":[543,3218]},{"type":"Point","properties":{"source":"openstreetmap.org","kind":"locality","name":"Junik","kind_detail":"town","population":9600,"min_zoom":8.0,"id":2239429768},"coordinates":[1715,1758]},{"type":"Point","properties":{"kind":"locality","name:en":"Tutin","name":"\u0422\u0443\u0442\u0438\u043d","kind_detail":"town","source":"openstreetmap.org","min_zoom":8.0,"id":292556852,"population":9111},"coordinates":[1891,3785]},{"type":"Point","properties":{"kind":"locality","name":"Mamush\u00eb","name:tr":"Mamu\u015fa","kind_detail":"town","name:de":"Mamusha","source":"openstreetmap.org","min_zoom":8.0,"id":2060212428,"population":5507},"coordinates":[3019,1170]},{"type":"Point","properties":{"kind":"locality","name":"Bajram Curri","kind_detail":"town","source":"openstreetmap.org","min_zoom":8.0,"name:ru":"\u0411\u0430\u0439\u0440\u0430\u043c-\u0426\u0443\u0440\u0440\u0438","id":728422812,"population":4171},"coordinates":[1139,1275]},{"type":"Point","properties":{"kind":"locality","name":"De\u00e7an","kind_detail":"town","name:sr":"\u0414\u0435\u0447\u0430\u043d\u0438","source":"openstreetmap.org","min_zoom":8.0,"name:ru":"\u0414\u0435\u0447\u0430\u043d\u0435","name:zh":"\u4ee3\u67e5\u5c3c","id":1839805748,"population":3803},"coordinates":[1755,2007]},{"type":"Point","properties":{"admin_level":"8","kind":"locality","name":"Plav","kind_detail":"town","name:sr":"\u041f\u043b\u0430\u0432","source":"openstreetmap.org","min_zoom":8.0,"name:uk":"\u041f\u043b\u0430\u0432","name:ru":"\u041f\u043b\u0430\u0432","name:be":"\u041f\u043b\u0430\u045e","id":335731660,"population":3615},"coordinates":[748,2230]},{"type":"Point","properties":{"source":"openstreetmap.org","kind":"locality","name":"Puk\u00eb","kind_detail":"town","population":3607,"min_zoom":8.0,"id":728422866},"coordinates":[619,45]},{"type":"Point","properties":{"admin_level":"8","kind":"locality","name":"Gusinje","kind_detail":"town","name:sr":"\u0413\u0443\u0441\u0438\u045a\u0435","source":"openstreetmap.org","min_zoom":8.0,"name:uk":"\u0413\u0443\u0441\u0456\u043d\u044c\u0454","name:ru":"\u0413\u0443\u0441\u0438\u043d\u0435","name:bg":"\u0413\u0443\u0441\u0438\u043d\u0435","id":1927167879,"name:sq":"Gucia","population":1704},"coordinates":[425,2099]},{"type":"Point","properties":{"admin_level":"8","kind":"locality","name":"Andrijevica","kind_detail":"town","source":"openstreetmap.org","min_zoom":8.0,"name:uk":"\u0410\u043d\u0434\u0440\u0456\u0454\u0432\u0456\u0446\u0430","name:ru":"\u0410\u043d\u0434\u0440\u0438\u0435\u0432\u0438\u0446\u0430","id":335730547,"population":1073},"coordinates":[303,2772]},{"type":"Point","properties":{"admin_level":"8","name:sr":"\u041f\u0435\u0442\u045a\u0438\u0446\u0430","name:sl":"Petjnica","name:cs":"Petjnica","min_zoom":8.0,"name:it":"Petjnica","name:uk":"\u041f\u0435\u0442\u043d'\u0457\u0446\u044f","name:ru":"\u041f\u0435\u0442\u043d\u0438\u0446\u0430","name:bg":"\u041f\u0435\u0442\u043d\u0438\u0446\u0430","id":338462696,"population":565,"kind":"locality","name":"Petnjica","kind_detail":"town","name:de":"Petjnica","source":"openstreetmap.org","name:fr":"Petjnica"},"coordinates":[805,3465]}]},"transit":{"type":"GeometryCollection","geometries":[{"type":"MultiLineString","properties":{"distance":"476","kind":"train","name:en":"Belgrade - Bar","name":"\u0411\u0435\u043e\u0433\u0440\u0430\u0434-\u0411\u0430\u0440 (Beograd-Bar)","sort_rank":275,"layer":-1.0,"source":"openstreetmap.org","min_zoom":6.0,"int_name":"Belgrade - Bar","operator":"\u017dICG","type":"route","name:sr":"\u0411\u0435\u043e\u0433\u0440\u0430\u0434 - \u0411\u0430\u0440"},"arcs":[[13],[14],[15],[16],[17]]},{"type":"LineString","properties":{"kind":"train","name:en":"Prishtina-Peja railway","name":"Hekurudha Prishtin\u00eb - Pej\u00eb","sort_rank":275,"source":"openstreetmap.org","min_zoom":6.0,"operator":"Trainkos","osm_relation":true},"arcs":[18]},{"type":"MultiLineString","properties":{"distance":"476","kind":"train","name:en":"Belgrade - Bar","name":"\u0411\u0435\u043e\u0433\u0440\u0430\u0434-\u0411\u0430\u0440 (Beograd-Bar)","sort_rank":275,"layer":1.0,"source":"openstreetmap.org","min_zoom":6.0,"int_name":"Belgrade - Bar","operator":"\u017dICG","type":"route","name:sr":"\u0411\u0435\u043e\u0433\u0440\u0430\u0434 - \u0411\u0430\u0440"},"arcs":[[19],[20],[21],[22],[23],[24],[25],[26],[27]]},{"type":"MultiLineString","properties":{"distance":"476","kind":"train","name:en":"Belgrade - Bar","name":"\u0411\u0435\u043e\u0433\u0440\u0430\u0434-\u0411\u0430\u0440 (Beograd-Bar)","sort_rank":275,"source":"openstreetmap.org","min_zoom":6.0,"int_name":"Belgrade - Bar","operator":"\u017dICG","type":"route","name:sr":"\u0411\u0435\u043e\u0433\u0440\u0430\u0434 - \u0411\u0430\u0440"},"arcs":[[28],[29],[30],[31],[32],[33],[34],[35],[36],[37],[38],[39],[40],[41],[42]]},{"type":"LineString","properties":{"distance":"476","kind":"train","name":"\u0411\u0435\u043e\u0433\u0440\u0430\u0434 - \u0411\u0430\u0440","sort_rank":275,"name:de":"Belgrad - Bar","source":"openstreetmap.org","min_zoom":6.0,"osm_relation":true},"arcs":[43]},{"type":"MultiLineString","properties":{"kind":"train","name":"IC 891\/892","sort_rank":275,"min_zoom":6.0,"source":"openstreetmap.org","state":"connection","ref":"IC 891\/892","osm_relation":true},"arcs":[[44],[45],[46]]}]},"pois":{"type":"GeometryCollection","geometries":[{"type":"Point","properties":{"kind":"nature_reserve","protect_class":"1a","area":188036000,"source":"openstreetmap.org","min_zoom":8.51,"tier":2,"id":-7717392,"osm_relation":true,"name":"Lumi Gashit"},"coordinates":[1096,1759]},{"type":"Point","properties":{"kind":"national_park","name:en":"Valbona Valley National Park","protect_class":"2","area":389530000,"source":"openstreetmap.org","min_zoom":6.49,"tier":1,"id":354315205,"name":"Parku Komb\u00ebtar Lugina e Valbon\u00ebs"},"coordinates":[676,1642]},{"type":"Point","properties":{"kind":"national_park","name:en":"Thethi National Park","protect_class":"2","area":88135000,"source":"openstreetmap.org","min_zoom":8.0,"tier":1,"id":504459147,"name":"Parku Komb\u00ebtar i Thethit"},"coordinates":[250,1477]},{"type":"Point","properties":{"kind":"nature_reserve","protect_class":"4","area":329528000,"source":"openstreetmap.org","min_zoom":8.11,"tier":2,"id":539181928,"name":"Nikaj-Mertur"},"coordinates":[670,1132]}]},"boundaries":{"type":"GeometryCollection","geometries":[{"type":"LineString","properties":{"name:right:yo":"S\u00e9rb\u00ed\u00e0","name:right:hy":"\u054d\u0565\u0580\u0562\u056b\u0561","name:right:qu":"Sirbya","name:right:yi":"\u05e1\u05e2\u05e8\u05d1\u05d9\u05e2","int_name:left":"Kosovo","name:right:hr":"Srbija","name:left:ru":"\u041a\u043e\u0441\u043e\u0432\u043e","name:right:ht":"S\u00e8bi","name:right:hu":"Szerbia","name:left:sr":"\u041a\u043e\u0441\u043e\u0432\u043e","name:left:sl":"Kosovo","name:left:lt":"Kosovas","name:left:sk":"Kosovo","name:left:vo":"Kosov\u00e4n","name:left:hu":"Koszov\u00f3","name:right:he":"\u05e1\u05e8\u05d1\u05d9\u05d4","name:right:af":"Serwi\u00eb","name:left:ce":"\u041a\u043e\u0441\u043e\u0432\u043e","name:right:an":"Serbia","name:right:am":"\u1230\u122d\u1262\u12eb","name:left:ca":"Kosovo","source":"openstreetmap.org","name:right:ar":"\u0635\u0631\u0628\u064a\u0627","name:left:cv":"\u041a\u043e\u0441\u043e\u0432\u043e","name:right:az":"Serbiya","name:left:cs":"Kosovo","name:left:ka":"\u10d9\u10dd\u10e1\u10dd\u10d5\u10dd","name:left:kn":"\u0c95\u0cca\u0cb8\u0cca\u0cb5\u0cca","name:right:is":"Serb\u00eda","name:right:rw":"Seribiya","name:right:ru":"\u0421\u0435\u0440\u0431\u0438\u044f","name:right:io":"Serbia","name:right:ro":"Serbia","name:right:rm":"Serbia","name:right:ie":"Serbia","name:right:id":"Serbia","name:right:ia":"Serbia","name":"Kosova - \u0421\u0440\u0431\u0438\u0458\u0430","name:right:bi":"Serbia","name:right:bn":"\u09b8\u09be\u09b0\u09cd\u09ac\u09bf\u09af\u09bc\u09be","name:right:bo":"\u0f66\u0f7a\u0f62\u0f0b\u0f56\u0fb7\u0f72\u0f0b\u0f61\u0f0d","name:right:zu":"ISerbiya","name:right:ba":"\u0421\u0435\u0440\u0431\u0438\u044f","name:right:bg":"\u0421\u044a\u0440\u0431\u0438\u044f","name:right:be":"\u0421\u0435\u0440\u0431\u0456\u044f","name:left:zh":"\u79d1\u7d22\u6c83","name:right:br":"Serbia","name:right:bs":"Srbija","name:right:zh":"\u585e\u723e\u7dad\u4e9e","official_name:left":"Republika e Kosov\u00ebs \/ \u0420\u0435\u043f\u0443\u0431\u043b\u0438\u043a\u0430 \u041a\u043e\u0441\u043e\u0432\u043e","name:right:nn":"Serbia","name:right:no":"Serbia","name:right:nl":"Servi\u00eb","name:right:fr":"Serbie","name:left:ny":"Kosovo","name:left:ur":"\u06a9\u0648\u0633\u0648\u0648\u06c1","name:right:wo":"Seerbi","name:right:ne":"\u0938\u0930\u094d\u092c\u093f\u092f\u093e","id:right":-1741311,"name:left:uk":"\u041a\u043e\u0441\u043e\u0432\u043e","name:left:nl":"Kosovo","name:right:gv":"Yn Serb","name:right:hi":"\u0938\u0930\u094d\u092c\u093f\u092f\u093e","name:right:fa":"\u0635\u0631\u0628\u0633\u062a\u0627\u0646","name:right:fo":"Serbia","name:right:fi":"Serbia","name:left:eo":"Kosovo","name:left:en":"Kosovo","name:left:el":"\u039a\u03cc\u03c3\u03bf\u03b2\u03bf","kind_detail":"2","name:right:kk":"\u0421\u0435\u0440\u0431\u0438\u044f","name:left:eu":"Kosovo","name:right:zh-min-nan":"Srbija","name:right:ps":"\u0633\u0631\u0628\u064a\u0627","name:right:pt":"S\u00e9rvia","name:left:mk":"\u041a\u043e\u0441\u043e\u0432\u043e","name:right:oc":"Serbia","name:left:az":"Kosovo","name:right:pa":"\u0a38\u0a30\u0a2c\u0a40\u0a06","name:right:ga":"An tSeirbia","name:right:tr":"S\u0131rbistan","name:left:ta":"\u0b95\u0bca\u0b9a\u0bcb\u0bb5\u0bcb","name:left:my":"\u1000\u102d\u102f\u1006\u102d\u102f\u1017\u102d\u102f","name:right:gn":"Sevia","name:right:pl":"Serbia","osm_relation":true,"name:right:or":"\u0b38\u0b30\u0b4d\u0b2c\u0b3f\u0b06","name:left:pt":"Kosovo","name:right:gd":"An t-S\u00e8irb","name:left:da":"Kosovo","name:left:ar":"\u0643\u0648\u0633\u0648\u0641\u0648","name:left:de":"Kosovo","name:right:ku":"Serbistan","name:right:ug":"S\u00e9rbiye","name:right:la":"Serbia","name:right:lb":"Serbien","name:right:uk":"\u0421\u0435\u0440\u0431\u0456\u044f","name:left:he":"\u05e7\u05d5\u05e1\u05d5\u05d1\u05d5","name:right:ln":"Serbia","name:right:kv":"\u0421\u0435\u0440\u0431\u0438\u044f","name:right:li":"Servi\u00eb","name:left:gl":"Kosovo","name:right:lt":"Serbija","name:right:ur":"\u0633\u0631\u0628\u06cc\u0627","name:right:lv":"Serbija","name:left:hy":"\u053f\u0578\u057d\u0578\u057e\u0578\u0576","name:right:gl":"Serbia","name:right:uz":"Serbiya","name:left:hr":"Kosovo","name:left:ga":"An Chosaiv","sort_rank":262,"int_name:right":"Serbia","name:right:os":"\u0421\u0435\u0440\u0431\u0438","official_name:right":"\u0420\u0435\u043f\u0443\u0431\u043b\u0438\u043a\u0430 \u0421\u0440\u0431\u0438\u0458\u0430","name:left":"Kosova","name:right:es":"Serbia","name:right:mi":"Serbia","name:right:mn":"\u0421\u0435\u0440\u0431\u0438","name:right:eu":"Serbia","name:right:et":"Serbia","name:right:vo":"S\u00e4rb\u00e4n","name:right:mg":"Serbia","name:right:vi":"Serbia","name:right:my":"\u1006\u102c\u1038\u1018\u102e\u1038\u101a\u102c\u1038\u1014\u102d\u102f\u1004\u103a\u1004\u1036","name:right:ee":"Serbia","name:right:ms":"Serbia","name:right:mr":"\u0938\u0930\u094d\u092c\u093f\u092f\u093e","min_zoom":8.0,"name:right:na":"Terbiya","name:right:eo":"Serbujo","name:right:en":"Serbia","name:right:mt":"Serbja","kind":"country","name:left:ia":"Kosovo","name:left:fi":"Kosovo","name:left:fr":"Kosovo","name:right:ay":"Sirwiya","alt_name:right:eo":"Serbio","name:right:fy":"Servje","name:left:fy":"Kosovo","name:left:bs":"Kosovo","name:right:ja":"\u30bb\u30eb\u30d3\u30a2","name:right:sq":"Serbia","name:right:ss":"ISebhiya","name:left:ja":"\u30b3\u30bd\u30dc","name:right:su":"S\u00e9rbia","name:right:st":"Serbia","name:right:sw":"Serbia","name:right:sv":"Serbien","name:right:sh":"Srbija","name:right:sk":"Srbsko","name:right:sm":"Serbia","name:left:bg":"\u041a\u043e\u0441\u043e\u0432\u043e","name:right:so":"Serbia","name:left:be":"\u041a\u043e\u0441\u0430\u0432\u0430","name:right:sa":"\u0938\u0930\u094d\u092c\u093f\u092f\u093e","name:right:sl":"Srbija","name:right:sc":"S\u00e8rbia","name:right:se":"Serbia","name:left:bo":"\u0f41\u0f7c\u0f0b\u0f66\u0f7c\u0f0b\u0f5d\u0f7c\u0f0d","name:right":"\u0421\u0440\u0431\u0438\u0458\u0430","name:right:co":"Serbia","name:right:ca":"S\u00e8rbia","name:left:bn":"\u0995\u09b8\u09cb\u09ad\u09cb","name:right:ml":"\u0d38\u0d46\u0d7c\u0d2c\u0d3f\u0d2f","name:right:ce":"\u0421\u0435\u0440\u0431\u0438","id":-2088990,"name:right:cy":"Serbia","name:right:zh-yue":"\u585e\u723e\u7dad\u4e9e","id:left":-2088990,"name:right:cs":"Srbsko","name:right:cu":"\u0421\u0440\u044c\u0431\u0457\ua657","name:right:cv":"\u0421\u0435\u0440\u0431\u0438","name:right:ka":"\u10e1\u10d4\u10e0\u10d1\u10d4\u10d7\u10d8","name:right:it":"Serbia","name:left:io":"Kosovo","name:right:ty":"Terepia","name:right:kg":"Serbie","name:right:tt":"\u0421\u0435\u0440\u0431\u0438\u044f","name:right:jv":"Serbia","name:right:tw":"Serbia","name:right:kl":"Serbia","name:right:ko":"\uc138\ub974\ube44\uc544","name:right:tl":"Serbiya","name:right:th":"\u0e1b\u0e23\u0e30\u0e40\u0e17\u0e28\u0e40\u0e0b\u0e2d\u0e23\u0e4c\u0e40\u0e1a\u0e35\u0e22","name:right:kw":"Serbi","name:right:tk":"Serbi\u00fda","name:right:ky":"\u0421\u0435\u0440\u0431\u0438\u044f","name:right:te":"\u0c38\u0c46\u0c30\u0c4d\u0c2c\u0c3f\u0c2f\u0c3e","name:left:am":"\u12ae\u1236\u126e","name:right:tg":"\u0421\u0435\u0440\u0431\u0438\u044f","name:right:ta":"\u0b9a\u0bc6\u0bb0\u0bcd\u0baa\u0bbf\u0baf\u0bbe","name:right:de":"Serbien","name:right:da":"Serbien","name:right:el":"\u03a3\u03b5\u03c1\u03b2\u03af\u03b1","name:left:zh-yue":"\u79d1\u7d22\u6c83","name:right:dv":"\u0790\u07a7\u0784\u07a8\u0787\u07a7"},"arcs":[0]},{"type":"LineString","properties":{"name:right:yo":"Monten\u1eb9\u0301gr\u00f2","name:right:hy":"\u0549\u0565\u057c\u0576\u0578\u0563\u0578\u0580\u056b\u0561","name:right:qu":"Yanaurqu","name:right:yi":"\u05de\u05d0\u05e0\u05d8\u05e2\u05e0\u05e2\u05d2\u05e8\u05d0","int_name:left":"Kosovo","name:right:hr":"Crna Gora","name:right:ht":"Montenegwo","name:right:hu":"Montenegr\u00f3","name:left:sr":"\u041a\u043e\u0441\u043e\u0432\u043e","name:left:sl":"Kosovo","name:left:lt":"Kosovas","name:left:sk":"Kosovo","name:left:vo":"Kosov\u00e4n","name:left:hu":"Koszov\u00f3","name:right:he":"\u05de\u05d5\u05e0\u05d8\u05e0\u05d2\u05e8\u05d5","name:right:af":"Montenegro","name:left:ce":"\u041a\u043e\u0441\u043e\u0432\u043e","name:right:an":"Montenegro","name:right:am":"\u121e\u1295\u1274\u1294\u130d\u122e","name:left:ca":"Kosovo","source":"openstreetmap.org","name:right:ar":"\u0627\u0644\u062c\u0628\u0644 \u0627\u0644\u0623\u0633\u0648\u062f","name:left:cv":"\u041a\u043e\u0441\u043e\u0432\u043e","name:right:az":"Monteneqro","name:left:cs":"Kosovo","name:left:ka":"\u10d9\u10dd\u10e1\u10dd\u10d5\u10dd","name:right:it":"Montenegro","name:right:is":"Svartfjallaland","name:right:rw":"Montenegoro","name:right:ru":"\u0427\u0435\u0440\u043d\u043e\u0433\u043e\u0440\u0438\u044f","name:right:io":"Montenegro","name:right:ro":"Muntenegru","name:left:ru":"\u041a\u043e\u0441\u043e\u0432\u043e","name:right:ie":"Montenegro","name:right:id":"Montenegro","name:right:ia":"Montenegro","name":"Kosova - Crna Gora \/ \u0426\u0440\u043d\u0430 \u0413\u043e\u0440\u0430","name:right:bi":"Montenegro","name:right:bn":"\u09ae\u09a8\u09cd\u099f\u09bf\u09a8\u09bf\u0997\u09cd\u09b0\u09cb","name:right:bo":"\u0f58\u0f7c\u0f53\u0f0b\u0f4a\u0f7a\u0f53\u0f72\u0f42\u0f0b\u0f62\u0f7c\u0f0d","name:right:ba":"\u0427\u0435\u0440\u043d\u043e\u0433\u043e\u0440\u0438\u044f","name:right:bg":"\u0427\u0435\u0440\u043d\u0430 \u0433\u043e\u0440\u0430","name:right:be":"\u0427\u0430\u0440\u043d\u0430\u0433\u043e\u0440\u044b\u044f","name:left:zh":"\u79d1\u7d22\u6c83","name:right:br":"Montenegro","name:right:bs":"Crna Gora","name:right:zh":"\u8499\u7279\u5167\u54e5\u7f85","official_name:left":"Republika e Kosov\u00ebs \/ \u0420\u0435\u043f\u0443\u0431\u043b\u0438\u043a\u0430 \u041a\u043e\u0441\u043e\u0432\u043e","name:right:nn":"Montenegro","name:right:no":"Montenegro","name:right:nl":"Montenegro","name:right:fr":"Mont\u00e9n\u00e9gro","name:left:ny":"Kosovo","name:left:ur":"\u06a9\u0648\u0633\u0648\u0648\u06c1","name:right:wo":"Montenegro","name:right:ne":"\u092e\u094b\u0928\u094d\u091f\u0947\u0928\u0947\u0917\u094d\u0930\u094b","id:right":-53296,"name:left:uk":"\u041a\u043e\u0441\u043e\u0432\u043e","name:left:nl":"Kosovo","name:right:gv":"Montenegro","name:right:fa":"\u0645\u0648\u0646\u062a\u0647\u200c\u0646\u06af\u0631\u0648","name:right:nv":"Dzi\u0142izhin Bik\u00e9yah","name:right:fo":"Montenegro","name:right:fi":"Montenegro","name:left:eo":"Kosovo","name:left:en":"Kosovo","name:left:el":"\u039a\u03cc\u03c3\u03bf\u03b2\u03bf","kind_detail":"2","name:left:eu":"Kosovo","name:right:gu":"\u0aae\u0acb\u0aa8\u0acd\u0a9f\u0ac7\u0aa8\u0ac0\u0a97\u0acd\u0ab0\u0acb","name:right:zh-min-nan":"O\u0358-soa\u207f Ki\u014dng-h\u00f4-kok","name:right:ps":"\u0645\u0627\u0646\u062a\u06d0\u0646\u06d0\u06ab\u0631\u0648","name:right:pt":"Montenegro","name:left:mk":"\u041a\u043e\u0441\u043e\u0432\u043e","name:right:oc":"Montenegro","name:left:az":"Kosovo","name:right:pa":"\u0a2e\u0a4b\u0a02\u0a1f\u0a47\u0a28\u0a47\u0a17\u0a30\u0a4b","name:right:ga":"Montain\u00e9agr\u00f3","name:right:tr":"Karada\u011f","name:left:ta":"\u0b95\u0bca\u0b9a\u0bcb\u0bb5\u0bcb","name:left:my":"\u1000\u102d\u102f\u1006\u102d\u102f\u1017\u102d\u102f","name:right:pl":"Czarnog\u00f3ra","osm_relation":true,"name:right:or":"\u0b2e\u0b4b\u0b23\u0b4d\u0b1f\u0b47\u0b28\u0b47\u0b17\u0b4d\u0b30\u0b4b","name:left:pt":"Kosovo","name:right:ka":"\u10e9\u10d4\u10e0\u10dc\u10dd\u10d2\u10dd\u10e0\u10d8\u10d0","name:right:gd":"Am Monadh Neagrach","name:left:da":"Kosovo","name:left:de":"Kosovo","name:right:th":"\u0e1b\u0e23\u0e30\u0e40\u0e17\u0e28\u0e21\u0e2d\u0e19\u0e40\u0e15\u0e40\u0e19\u0e42\u0e01\u0e23","name:right:ug":"\u0686\u06d0\u0631\u0646\u0648\u06af\u0648\u0631\u0649\u064a\u06d5","name:right:la":"Mons Niger","name:right:lb":"Montenegro","name:right:uk":"\u0427\u043e\u0440\u043d\u043e\u0433\u043e\u0440\u0456\u044f","name:left:he":"\u05e7\u05d5\u05e1\u05d5\u05d1\u05d5","name:right:ln":"Montenegro","name:right:kv":"\u0427\u0435\u0440\u043d\u043e\u0433\u043e\u0440\u0438\u044f","name:right:li":"Montenegro","name:left:gl":"Kosovo","name:right:lt":"Juodkalnija","name:right:ur":"\u0645\u0648\u0646\u0679\u06cc\u0646\u06cc\u06af\u0631\u0648","name:right:lv":"Melnkalne","name:left:hy":"\u053f\u0578\u057d\u0578\u057e\u0578\u0576","name:right:gl":"Montenegro","name:right:uz":"Chernogoriya","name:left:hr":"Kosovo","name:left:ga":"An Chosaiv","name:right:av":"\u0427\u0435\u044d\u0440\u0430\u0431 \u041c\u0435\u044d\u0440","sort_rank":262,"int_name:right":"Montenegro","name:right:os":"\u0427\u0435\u0440\u043d\u043e\u0433\u043e\u0440\u0438","official_name:right":"Crna Gora","name:left":"Kosova","name:right:es":"Montenegro","name:right:mi":"Monoten\u012bkoro","name:right:sr":"\u0426\u0440\u043d\u0430 \u0413\u043e\u0440\u0430","name:right:eu":"Montenegro","name:right:et":"Montenegro","name:right:vo":"Montenegr\u00e4n","name:right:vi":"Montenegro","name:right:my":"\u1019\u103d\u1014\u103a\u1010\u102e\u1014\u102e\u1002\u101b\u102d\u102f\u1038\u1014\u102d\u102f\u1004\u103a\u1004\u1036","name:right:ee":"Montenegro","name:right:ms":"Montenegro","name:right:mr":"\u092e\u093e\u0901\u091f\u0947\u0928\u093f\u0917\u094d\u0930\u094b","min_zoom":8.0,"name:right:na":"Montenegro","name:right:eo":"Montenegro","name:right:en":"Montenegro","name:right:mt":"Montenegro","kind":"country","name:left:ia":"Kosovo","name:left:fi":"Kosovo","name:left:fr":"Kosovo","name:right:jv":"Monten\u00e9gro","name:right:fy":"Montenegro","name:left:fy":"Kosovo","name:left:bs":"Kosovo","name:right:ja":"\u30e2\u30f3\u30c6\u30cd\u30b0\u30ed","name:right:sq":"Mali i Zi","name:right:ss":"IMonthenekho","name:left:ja":"\u30b3\u30bd\u30dc","name:right:su":"Mont\u00e9n\u00e9gro","name:right:sw":"Montenegro","name:right:sv":"Montenegro","name:right:sh":"Crna Gora","name:right:sk":"\u010cierna Hora","name:right:sm":"Montenegro","name:left:bg":"\u041a\u043e\u0441\u043e\u0432\u043e","name:right:so":"Montenegro","name:left:be":"\u041a\u043e\u0441\u0430\u0432\u0430","name:right:sl":"\u010crna gora","name:right:sc":"Montenegro","name:right:se":"Montenegro","name:left:bo":"\u0f41\u0f7c\u0f0b\u0f66\u0f7c\u0f0b\u0f5d\u0f7c\u0f0d","name:right":"Crna Gora \/ \u0426\u0440\u043d\u0430 \u0413\u043e\u0440\u0430","name:right:ca":"Montenegro","name:left:bn":"\u0995\u09b8\u09cb\u09ad\u09cb","name:right:ml":"\u0d2e\u0d4b\u0d23\u0d4d\u0d1f\u0d46\u0d28\u0d46\u0d17\u0d4d\u0d30\u0d4a","name:right:ce":"I\u0430\u044c\u0440\u0436\u0430\u043b\u0430\u044c\u043c\u043d\u0438","id":-2088990,"name:right:cy":"Montenegro","name:right:zh-yue":"\u9ed1\u5c71","id:left":-2088990,"name:right:cs":"\u010cern\u00e1 Hora","name:right:cu":"\u0427\u0440\u044c\u043d\u0430 \u0413\u043e\u0440\u0430","name:right:cv":"\u0427\u0435\u0440\u043d\u043e\u0433\u043e\u0440\u0438","name:right:mk":"\u0426\u0440\u043d\u0430 \u0413\u043e\u0440\u0430","name:left:kn":"\u0c95\u0cca\u0cb8\u0cca\u0cb5\u0cca","name:left:io":"Kosovo","name:left:ar":"\u0643\u0648\u0633\u0648\u0641\u0648","name:right:kg":"Monte Negro","name:right:tt":"\u041c\u043e\u043d\u0442\u0435\u043d\u0435\u0433\u0440\u043e","name:right:kk":"\u0427\u0435\u0440\u043d\u043e\u0433\u043e\u0440\u0438\u044f","name:right:kl":"Montenegro","name:right:ko":"\ubaac\ud14c\ub124\uadf8\ub85c","name:right:kn":"\u0cae\u0cbe\u0c82\u0c9f\u0cc6\u0ca8\u0cc6\u0c97\u0ccd\u0cb0\u0cca","name:right:tl":"Montenegro","name:right:ku":"Montenegro","name:right:kw":"Montenegro","name:right:tk":"\u00c7ernogori\u00fda","name:right:ky":"\u041c\u043e\u043d\u0442\u0435\u043d\u0435\u0433\u0440\u043e","name:left:am":"\u12ae\u1236\u126e","name:right:tg":"\u041c\u043e\u043d\u0442\u0435\u043d\u0435\u0433\u0440\u043e","name:right:ta":"\u0bae\u0bca\u0ba3\u0bcd\u0b9f\u0bc6\u0ba9\u0bc7\u0b95\u0bc1\u0bb0\u0bcb","name:right:de":"Montenegro","name:right:da":"Montenegro","name:right:el":"\u039c\u03b1\u03c5\u03c1\u03bf\u03b2\u03bf\u03cd\u03bd\u03b9\u03bf","name:left:zh-yue":"\u79d1\u7d22\u6c83","name:right:dv":"\u0789\u07ae\u0782\u07b0\u0793\u07ac\u0782\u07a9\u078e\u07aa\u0783\u07af"},"arcs":[1]},{"type":"LineString","properties":{"name:right:yo":"Or\u00edl\u1eb9\u0300-\u00e8d\u00e8 Ol\u00f3m\u00ecnira il\u1eb9\u0300 Mak\u1eb9d\u00f3n\u00ed\u00e0","name:right:hy":"\u0544\u0561\u056f\u0565\u0564\u0578\u0576\u056b\u0561\u0575\u056b \u0540\u0561\u0576\u0580\u0561\u057a\u0565\u057f\u0578\u0582\u0569\u0575\u0578\u0582\u0576","name:right:qu":"Makidunya","name:right:yi":"\u05e8\u05e2\u05e4\u05d5\u05d1\u05dc\u05d9\u05e7 \u05e4\u05d5\u05df \u05de\u05d0\u05e7\u05e2\u05d3\u05d0\u05e0\u05d9\u05e2","int_name:left":"Kosovo","name:right:hr":"Makedonija","name:right:ht":"Repiblik d Masedoni","name:right:hu":"Maced\u00f3nia","name:left:sr":"\u041a\u043e\u0441\u043e\u0432\u043e","name:left:sl":"Kosovo","name:left:lt":"Kosovas","name:left:sk":"Kosovo","name:left:vo":"Kosov\u00e4n","name:left:hu":"Koszov\u00f3","name:right:he":"\u05de\u05e7\u05d3\u05d5\u05e0\u05d9\u05d4","name:right:af":"Masedoni\u00eb","name:left:ce":"\u041a\u043e\u0441\u043e\u0432\u043e","name:right:an":"Macedonia","name:right:am":"\u1218\u1244\u12f6\u1292\u12eb","name:left:ca":"Kosovo","source":"openstreetmap.org","name:right:ar":"\u0645\u0642\u062f\u0648\u0646\u064a\u0627","name:left:cv":"\u041a\u043e\u0441\u043e\u0432\u043e","name:right:az":"Makedoniya","name:left:cs":"Kosovo","name:left:ka":"\u10d9\u10dd\u10e1\u10dd\u10d5\u10dd","name:right:it":"Repubblica di Macedonia","name:right:is":"L\u00fd\u00f0veldi\u00f0 Maked\u00f3n\u00eda","name:right:rw":"Masedoniya","name:right:ru":"\u041c\u0430\u043a\u0435\u0434\u043e\u043d\u0438\u044f","name:right:io":"Republiko Macedonia","name:right:ro":"Macedonia","name:left:ru":"\u041a\u043e\u0441\u043e\u0432\u043e","name:right:ie":"Macedonia","name:right:id":"Republik Makedonia","name:right:ia":"Republica de Macedonia","name":"Kosova - \u041c\u0430\u043a\u0435\u0434\u043e\u043d\u0438\u0458\u0430","name:right:bi":"Macedonia","name:right:bn":"\u09ae\u09cd\u09af\u09be\u09b8\u09c7\u09a1\u09cb\u09a8\u09bf\u09af\u09bc\u09be \u09aa\u09cd\u09b0\u099c\u09be\u09a4\u09a8\u09cd\u09a4\u09cd\u09b0","name:right:bo":"\u0f58\u0f0b\u0f66\u0f7a\u0f0b\u0f4c\u0f7c\u0f0b\u0f53\u0f72\u0f61\u0f0d (\u0f62\u0f92\u0fb1\u0f63\u0f0b\u0f41\u0f56\u0f0d)","name:right:hi":"\u092e\u0948\u0938\u093f\u0921\u094b\u0928\u093f\u092f\u093e","name:right:ba":"\u041c\u0430\u043a\u0435\u0434\u043e\u043d\u0438\u044f \u0420\u0435\u0441\u043f\u0443\u0431\u043b\u0438\u043a\u0430\u04bb\u044b","name:right:bg":"\u0420\u0435\u043f\u0443\u0431\u043b\u0438\u043a\u0430 \u041c\u0430\u043a\u0435\u0434\u043e\u043d\u0438\u044f","name:right:be":"\u0420\u044d\u0441\u043f\u0443\u0431\u043b\u0456\u043a\u0430 \u041c\u0430\u043a\u0435\u0434\u043e\u043d\u0456\u044f","name:left:zh":"\u79d1\u7d22\u6c83","name:right:br":"Republik Makedonia","name:right:bs":"Makedonija","name:right:zh":"\u99ac\u5176\u9813\u5171\u548c\u570b","official_name:left":"Republika e Kosov\u00ebs \/ \u0420\u0435\u043f\u0443\u0431\u043b\u0438\u043a\u0430 \u041a\u043e\u0441\u043e\u0432\u043e","name:right:nn":"Republikken Makedonia","name:right:no":"Republikken Makedonia","name:right:nl":"Macedoni\u00eb (land)","name:right:fr":"Mac\u00e9doine (pays)","name:left:ny":"Kosovo","name:left:ur":"\u06a9\u0648\u0633\u0648\u0648\u06c1","name:right:wo":"R\u00e9ewum Maseduwaan","name:right:ne":"\u092e\u094d\u092f\u093e\u0938\u0947\u0921\u094b\u0928\u093f\u092f\u093e","id:right":-53293,"name:left:uk":"\u041a\u043e\u0441\u043e\u0432\u043e","name:left:nl":"Kosovo","name:right:gv":"Pobblaght ny Massadoan","alt_name:right:eo":"Makedonio","name:right:fa":"\u062c\u0645\u0647\u0648\u0631\u06cc \u0645\u0642\u062f\u0648\u0646\u06cc\u0647","name:right:fo":"L\u00fd\u00f0veldi\u00f0 Maked\u00f3nia","name:right:fi":"Makedonia","name:left:eo":"Kosovo","name:left:en":"Kosovo","name:left:el":"\u039a\u03cc\u03c3\u03bf\u03b2\u03bf","kind_detail":"2","name:left:eu":"Kosovo","name:right:gu":"\u0aae\u0ac7\u0ab8\u0ac7\u0aa1\u0acb\u0aa8\u0abf\u0aaf\u0abe","name:right:zh-min-nan":"Makedonija Ki\u014dng-h\u00f4-kok","name:right:ps":"\u062f \u0645\u0642\u062f\u0648\u0646\u064a\u06d0 \u0648\u0644\u0633\u0645\u0634\u0631\u064a\u0632\u0647","name:right:pt":"Maced\u00f3nia","name:left:mk":"\u041a\u043e\u0441\u043e\u0432\u043e","name:right:oc":"Republica de Maced\u00f2nia","name:left:az":"Kosovo","name:right:pa":"\u0a2e\u0a15\u0a26\u0a42\u0a28\u0a40\u0a06 \u0a17\u0a23\u0a30\u0a3e\u0a1c","name:right:ga":"Poblacht na Macad\u00f3ine","name:right:tr":"Makedonya Cumhuriyeti","name:left:ta":"\u0b95\u0bca\u0b9a\u0bcb\u0bb5\u0bcb","name:left:my":"\u1000\u102d\u102f\u1006\u102d\u102f\u1017\u102d\u102f","name:right:gn":"Masendo\u00f1a","name:right:pl":"Macedonia","osm_relation":true,"name:right:or":"\u0b2e\u0b3e\u0b38\u0b3f\u0b21\u0b4b\u0b28\u0b3f\u0b06","name:left:pt":"Kosovo","name:right:gd":"Masadoinia","name:left:da":"Kosovo","name:left:de":"Kosovo","name:right:th":"\u0e1b\u0e23\u0e30\u0e40\u0e17\u0e28\u0e21\u0e32\u0e0b\u0e34\u0e42\u0e14\u0e40\u0e19\u0e35\u0e22","name:right:ug":"\u0645\u0627\u0643\u06d0\u062f\u0648\u0646\u0649\u064a\u06d5","name:right:la":"Respublica Macedonica","name:right:lb":"Republik Mazedonien","name:right:uk":"\u041c\u0430\u043a\u0435\u0434\u043e\u043d\u0456\u044f","name:left:he":"\u05e7\u05d5\u05e1\u05d5\u05d1\u05d5","name:right:kv":"\u041c\u0430\u043a\u0435\u0434\u043e\u043d\u0438\u044f \u0420\u0435\u0441\u043f\u0443\u0431\u043b\u0438\u043a\u0430","name:right:li":"Macedoni\u00eb (land)","name:left:gl":"Kosovo","name:right:lt":"Makedonija","name:right:ur":"\u0645\u0642\u062f\u0648\u0646\u06cc\u06c1","name:right:lv":"Ma\u0137edonija","name:left:hy":"\u053f\u0578\u057d\u0578\u057e\u0578\u0576","name:right:gl":"Rep\u00fablica de Macedonia - \u0420\u0435\u043f\u0443\u0431\u043b\u0438\u043a\u0430 \u041c\u0430\u043a\u0435\u0434\u043e\u043d\u0438\u0458\u0430","name:right:uz":"Makedoniya Respublikasi","name:left:hr":"Kosovo","name:left:ga":"An Chosaiv","sort_rank":262,"int_name:right":"Macedonia","name:right:os":"\u0420\u0435\u0441\u043f\u0443\u0431\u043b\u0438\u043a\u00e6 \u041c\u0430\u043a\u0435\u0434\u043e\u043d\u0438","official_name:right":"\u0420\u0435\u043f\u0443\u0431\u043b\u0438\u043a\u0430 \u041c\u0430\u043a\u0435\u0434\u043e\u043d\u0438\u0458\u0430","alt_name:right:cs":"B\u00fdval\u00e1 jugosl\u00e1vsk\u00e1 republika Makedonie","name:left":"Kosova","name:right:es":"Rep\u00fablica de Macedonia","name:right:mi":"Maker\u014dnia","name:right:mn":"\u0411\u04af\u0433\u0434 \u041d\u0430\u0439\u0440\u0430\u043c\u0434\u0430\u0445 \u041c\u0430\u043a\u0435\u0434\u043e\u043d \u0423\u043b\u0441","name:right:eu":"Former Yugoslav Republic Of Macedonia","name:right:et":"Makedoonia","name:right:vo":"Makedoniy\u00e4n","name:right:vi":"C\u1ed9ng h\u00f2a Macedonia","name:right:my":"\u1019\u1000\u103a\u1005\u102e\u1012\u102d\u102f\u1038\u1014\u102e\u1038\u101a\u102c\u1038\u1014\u102d\u102f\u1004\u103a\u1004\u1036","name:right:ee":"Republic of Macedonia","name:right:ms":"Republik Macedonia","name:right:mr":"\u092e\u0945\u0938\u093f\u0921\u094b\u0928\u093f\u092f\u093e","min_zoom":8.0,"name:right:na":"Matedoniya","name:right:eo":"Makedonujo","name:right:en":"Macedonia","name:right:mt":"Repubblika tal-Ma\u010bedonja","kind":"country","name:left:ia":"Kosovo","name:left:fi":"Kosovo","name:left:fr":"Kosovo","name:right:fy":"Masedoanje (l\u00e2n)","name:left:fy":"Kosovo","name:left:bs":"Kosovo","name:right:ja":"\u30de\u30b1\u30c9\u30cb\u30a2\u5171\u548c\u56fd","name:right:sq":"Maqedonia","name:right:ss":"IMakhedoniya","name:left:ja":"\u30b3\u30bd\u30dc","name:right:su":"Mak\u00e9donia","name:right:sw":"Jamhuri ya Masedonia","name:right:sv":"Makedonien","name:right:sh":"Makedonija","name:right:sk":"Maced\u00f3nsko","name:right:jv":"R\u00e9publik Makedonia","name:left:bg":"\u041a\u043e\u0441\u043e\u0432\u043e","name:right:so":"Makedonia","name:left:be":"\u041a\u043e\u0441\u0430\u0432\u0430","name:right:sa":"\u092e\u0947\u0938\u0947\u0921\u094b\u0928\u093f\u092f\u093e","name:right:sl":"Makedonija","name:right:sc":"Matzed\u00f2nia","name:right:se":"Makedonia","name:left:bo":"\u0f41\u0f7c\u0f0b\u0f66\u0f7c\u0f0b\u0f5d\u0f7c\u0f0d","name:right":"\u041c\u0430\u043a\u0435\u0434\u043e\u043d\u0438\u0458\u0430","name:right:ca":"Rep\u00fablica de Maced\u00f2nia","name:left:bn":"\u0995\u09b8\u09cb\u09ad\u09cb","name:right:ml":"\u0d31\u0d3f\u0d2a\u0d4d\u0d2a\u0d2c\u0d4d\u0d32\u0d3f\u0d15\u0d4d \u0d13\u0d2b\u0d4d \u0d2e\u0d3e\u0d38\u0d3f\u0d21\u0d4b\u0d23\u0d3f\u0d2f","name:right:ce":"\u041c\u0430\u043a\u0435\u0434\u043e\u043d\u0438","id":-2088990,"name:right:cy":"Gweriniaeth Macedonia","name:right:zh-yue":"\u99ac\u5176\u9813\u5171\u548c\u570b","id:left":-2088990,"name:right:cs":"Makedonie","name:right:cu":"\u041c\u0430\u043a\u0454\u0434\u043e\u043d\u0457\ua657","name:right:cv":"\u041c\u0430\u043a\u0435\u0434\u043e\u043d\u0438 \u0420\u0435\u0441\u043f\u0443\u0431\u043b\u0438\u043a\u0438","name:right:ka":"\u10db\u10d0\u10d9\u10d4\u10d3\u10dd\u10dc\u10d8\u10d0","name:left:kn":"\u0c95\u0cca\u0cb8\u0cca\u0cb5\u0cca","name:left:io":"Kosovo","name:left:ar":"\u0643\u0648\u0633\u0648\u0641\u0648","name:right:kg":"Makedonia","name:right:tt":"\u041c\u0430\u043a\u0435\u0434\u043e\u043d\u0438\u044f \u0496\u04e9\u043c\u04bb\u04af\u0440\u0438\u044f\u0442\u0435","name:right:kk":"\u041c\u0430\u043a\u0435\u0434\u043e\u043d\u0438\u044f \u0420\u0435\u0441\u043f\u0443\u0431\u043b\u0438\u043a\u0430\u0441\u044b","name:right:kl":"Makedonia","name:right:ko":"\ub9c8\ucf00\ub3c4\ub2c8\uc544 \uacf5\ud654\uad6d","name:right:kn":"\u0cae\u0ccd\u0caf\u0cbe\u0cb8\u0cc6\u0ca1\u0cca\u0ca8\u0cbf\u0caf \u0c97\u0ca3\u0cb0\u0cbe\u0c9c\u0ccd\u0caf","name:right:tl":"Republika ng Masedonya","name:right:ku":"Komara Makedonyay\u00ea","name:right:kw":"Repoblek Makedoni","name:right:tk":"Makedoni\u00fda Respublikasy","name:right:te":"\u0c2e\u0c47\u0c38\u0c3f\u0c21\u0c4b\u0c28\u0c3f\u0c2f\u0c3e","name:left:am":"\u12ae\u1236\u126e","name:right:tg":"\u04b6\u0443\u043c\u04b3\u0443\u0440\u0438\u0438 \u041c\u0430\u049b\u0434\u0443\u043d\u0438\u044f","name:right:ta":"\u0bae\u0bbe\u0b95\u0bcd\u0b95\u0b9f\u0bcb\u0ba9\u0bbf\u0baf\u0b95\u0bcd \u0b95\u0bc1\u0b9f\u0bbf\u0baf\u0bb0\u0b9a\u0bc1","name:right:de":"Mazedonien","name:right:da":"Makedonien","name:right:el":"\u03a0\u03c1\u03ce\u03b7\u03bd \u0393\u03b9\u03bf\u03c5\u03b3\u03ba\u03bf\u03c3\u03bb\u03b1\u03b2\u03b9\u03ba\u03ae \u0394\u03b7\u03bc\u03bf\u03ba\u03c1\u03b1\u03c4\u03af\u03b1 \u03c4\u03b7\u03c2 \u039c\u03b1\u03ba\u03b5\u03b4\u03bf\u03bd\u03af\u03b1\u03c2","name:left:zh-yue":"\u79d1\u7d22\u6c83","name:right:dv":"\u0789\u07ac\u0790\u07ac\u0791\u07af\u0782\u07a8\u0787\u07a7"},"arcs":[2]},{"type":"LineString","properties":{"name:right:yo":"Alb\u00e1n\u00ed\u00e0","name:right:hy":"\u0531\u056c\u0562\u0561\u0576\u056b\u0561","name:right:qu":"Albanya","name:right:pi":"\u0905\u0932\u094d\u092c\u093e\u0928\u093f\u092f\u093e","name:right:yi":"\u05d0\u05dc\u05d1\u05d0\u05e0\u05d9\u05e2","int_name:left":"Kosovo","name:right:hr":"Albanija","name:left:ru":"\u041a\u043e\u0441\u043e\u0432\u043e","name:right:ht":"Albani","name:right:hu":"Alb\u00e1nia","name:left:sr":"\u041a\u043e\u0441\u043e\u0432\u043e","name:left:sl":"Kosovo","name:left:lt":"Kosovas","name:left:sk":"Kosovo","name:left:vo":"Kosov\u00e4n","name:right:ha":"Albaniya","name:left:hu":"Koszov\u00f3","name:right:he":"\u05d0\u05b7\u05dc\u05b0\u05d1\u05b7\u05bc\u05e0\u05b0\u05d9\u05b8\u05d4","name:right:af":"Albani\u00eb","name:right:ab":"\u0410\u0440\u043d\u0430\u0443\u044b\u04ad\u0442\u04d9\u044b\u043b\u0430","name:left:ce":"\u041a\u043e\u0441\u043e\u0432\u043e","name:right:an":"Albania","name:right:am":"\u12a0\u120d\u1263\u1292\u12eb","name:left:ca":"Kosovo","source":"openstreetmap.org","name:right:as":"\u0986\u09b2\u09ac\u09c7\u09a8\u09bf\u09af\u09bc\u09be","name:right:ar":"\u0623\u0644\u0628\u0627\u0646\u064a\u0627","name:left:he":"\u05e7\u05d5\u05e1\u05d5\u05d1\u05d5","name:left:cv":"\u041a\u043e\u0441\u043e\u0432\u043e","name:right:az":"Albaniya","name:left:cs":"Kosovo","name:left:ka":"\u10d9\u10dd\u10e1\u10dd\u10d5\u10dd","name:right:ts":"Albania","name:left:kn":"\u0c95\u0cca\u0cb8\u0cca\u0cb5\u0cca","name:right:is":"Alban\u00eda","name:right:rw":"Alubaniya","name:right:ru":"\u0410\u043b\u0431\u0430\u0301\u043d\u0438\u044f","name:right:io":"Albania","name:right:rn":"Alubaniya","name:right:ro":"Albania","name:right:rm":"Albania","name:right:ig":"Albania","name:right:ie":"Albania","name:right:id":"Albania","name:right:ia":"Albania","name":"Kosova - Shqip\u00ebria","name:right:bi":"Albania","name:right:bn":"\u0986\u09b2\u09ac\u09c7\u09a8\u09bf\u09af\u09bc\u09be","name:right:bo":"\u0f68\u0f63\u0f0b\u0f54\u0f0b\u0f49\u0f72\u0f0b\u0f61\u0f0d","name:right:zu":"I-Albaniya","alt_name:right:qu":"Shkipirya","name:right:bm":"Alibani","name:right:bg":"\u0410\u043b\u0431\u0430\u043d\u0438\u044f","name:right:be":"\u0410\u043b\u0431\u0430\u0301\u043d\u0456\u044f","name:left:zh":"\u79d1\u7d22\u6c83","name:right:br":"Albania","name:right:bs":"Albanija","name:right:zh":"\u963f\u723e\u5df4\u5c3c\u4e9e","official_name:left":"Republika e Kosov\u00ebs \/ \u0420\u0435\u043f\u0443\u0431\u043b\u0438\u043a\u0430 \u041a\u043e\u0441\u043e\u0432\u043e","name:right:nn":"Albania","name:right:no":"Albania","name:right:nl":"Albani\u00eb","name:right:ba":"\u0410\u043b\u0431\u0430\u0301\u043d\u0438\u044f","name:right:fr":"Albanie","name:left:ny":"Kosovo","name:right:ko":"\uc54c\ubc14\ub2c8\uc544","name:left:ur":"\u06a9\u0648\u0633\u0648\u0648\u06c1","name:right:wo":"Albaani","name:right:ne":"\u0905\u0932\u094d\u092c\u093e\u0928\u093f\u092f\u093e","id:right":-53292,"name:left:uk":"\u041a\u043e\u0441\u043e\u0432\u043e","name:left:nl":"Kosovo","name:right:gv":"Yn Albaan","name:right:hi":"\u0905\u0932\u094d\u092c\u093e\u0928\u093f\u092f\u093e","name:right:fa":"\u0622\u0644\u0628\u0627\u0646\u06cc","name:right:nv":"Dzi\u0142igaii Bik\u00e9yah","name:right:fo":"Albania","name:right:fi":"Albania","name:left:eo":"Kosovo","name:left:en":"Kosovo","name:left:el":"\u039a\u03cc\u03c3\u03bf\u03b2\u03bf","kind_detail":"2","name:right:tt":"\u0410\u043b\u0431\u0430\u043d\u0438\u044f","name:left:eu":"Kosovo","name:right:om":"Albeeniyaa","name:right:zh-min-nan":"Albania","name:right:ps":"\u0627\u0644\u0628\u0627\u0646\u06cc\u0627","name:right:pt":"Alb\u00e2nia","name:left:mk":"\u041a\u043e\u0441\u043e\u0432\u043e","name:right:oc":"Albania","name:right:kl":"Albania","name:right:pa":"\u0a05\u0a32\u0a2c\u0a3e\u0a28\u0a40\u0a06","name:right:ga":"An Alb\u00e1in","name:right:tr":"Arnavutluk","name:right:gl":"Albania","name:left:my":"\u1000\u102d\u102f\u1006\u102d\u102f\u1017\u102d\u102f","name:right:gn":"Ava\u00f1a","name:right:pl":"Albania","osm_relation":true,"name:right:or":"\u0b06\u0b32\u0b2c\u0b3e\u0b28\u0b3f\u0b06","name:left:pt":"Kosovo","name:right:ka":"\u10d0\u10da\u10d1\u10d0\u10dc\u10d4\u10d7\u10d8","name:right:gd":"Alb\u00e0inia","name:left:da":"Kosovo","name:left:ar":"\u0643\u0648\u0633\u0648\u0641\u0648","name:left:de":"Kosovo","name:right:th":"\u0e1b\u0e23\u0e30\u0e40\u0e17\u0e28\u0e41\u0e2d\u0e25\u0e40\u0e1a\u0e40\u0e19\u0e35\u0e22","name:right:lg":"Alibaniya","name:right:ug":"\u0626\u0627\u0644\u0628\u0627\u0646\u0649\u064a\u06d5","name:right:la":"Albania","name:right:lb":"Albanien","name:right:uk":"\u0410\u043b\u0431\u0430\u0301\u043d\u0456\u044f","name:right:ak":"Albania","name:right:ln":"Albania","name:right:lo":"\u0ec1\u0ead\u0ea5\u0ec0\u0e9a\u0ec0\u0e99\u0e8d","name:right:li":"Albani\u00eb","name:left:gl":"Kosovo","name:right:lt":"Albanija","name:right:ur":"\u0627\u0644\u0628\u0627\u0646\u06cc\u0627","name:right:lv":"Alb\u0101nija","name:left:hy":"\u053f\u0578\u057d\u0578\u057e\u0578\u0576","name:left:ta":"\u0b95\u0bca\u0b9a\u0bcb\u0bb5\u0bcb","name:right:uz":"Albaniya","name:left:hr":"Kosovo","name:left:ga":"An Chosaiv","name:right:av":"\u0410\u043b\u0431\u0430\u0301\u043d\u0438\u044f","sort_rank":262,"name:right:gu":"\u0a86\u0ab2\u0acd\u0aac\u0ac7\u0aa8\u0abf\u0aaf\u0abe","int_name:right":"Albania","name:right:os":"\u0410\u043b\u0431\u0430\u043d\u0438","name:right:tk":"Albani\u00fda","alt_name:right:tt":"\u0410\u0440\u043d\u0430\u0443\u0442\u043b\u044b\u043a","name:left":"Kosova","name:right:es":"Albania","name:right:mi":"Arapeinia","name:right:sr":"\u0410\u043b\u0431\u0430\u043d\u0438\u0458\u0430","name:right:mn":"\u0410\u043b\u0431\u0430\u043d\u0438","name:right:eu":"Albania","name:right:et":"Albaania","name:right:vo":"Lalban\u00e4n","name:right:mg":"Albania","name:right:vi":"Albania","official_name:right":"Republika e Shqip\u00ebris\u00eb","name:right:my":"\u1021\u101a\u103a\u101c\u103a\u1018\u1031\u1038\u1014\u102e\u1038\u101a\u102c\u1038\u104f","name:right:ee":"Albania","name:right:ms":"Albania","name:right:mr":"\u0906\u0932\u094d\u092c\u0947\u0928\u093f\u092f\u093e","min_zoom":8.0,"name:right:na":"Arbainiya","name:right:eo":"Albanujo","name:right:en":"Albania","name:right:mt":"Albanija","alt_name:right:uk":"\u0428\u043a\u0456\u043f\u0435\u0440\u0456\u044f","name:right:ff":"Albaniya","kind":"country","name:left:bg":"\u041a\u043e\u0441\u043e\u0432\u043e","name:left:fi":"Kosovo","name:left:fr":"Kosovo","alt_name:right:eo":"Albanio","name:right:fy":"Albaanje","name:left:fy":"Kosovo","name:left:bs":"Kosovo","name:right:mk":"\u0410\u043b\u0431\u0430\u043d\u0438\u0458\u0430","name:right:ja":"\u30a2\u30eb\u30d0\u30cb\u30a2","name:right:ss":"I-Alibheniya","name:left:ja":"\u30b3\u30bd\u30dc","name:right:su":"Albania","name:right:st":"Albania","name:right:sw":"Albania","name:right:sv":"Albanien","name:right:si":"\u0d87\u0dbd\u0dca\u0db6\u0dda\u0db1\u0dd2\u0dba\u0dcf\u0dc0","name:right:sh":"Albanija","name:right:sk":"Alb\u00e1nsko","name:right:jv":"Albania","name:right:sl":"Albanija","name:right:so":"Albania","name:left:be":"\u041a\u043e\u0441\u0430\u0432\u0430","name:right:sa":"\u0905\u0932\u094d\u092c\u0947\u0928\u093f\u092f\u093e","name:right:sc":"Albania","name:right:se":"Alb\u00e1nia","name:left:bo":"\u0f41\u0f7c\u0f0b\u0f66\u0f7c\u0f0b\u0f5d\u0f7c\u0f0d","name:right:sg":"Alban\u00efi","name:right":"Shqip\u00ebria","name:right:co":"Albania","name:right:ca":"Alb\u00e0nia","name:left:bn":"\u0995\u09b8\u09cb\u09ad\u09cb","name:right:ml":"\u0d05\u0d7d\u0d2c\u0d47\u0d28\u0d3f\u0d2f","name:right:ce":"\u0410\u043b\u0431\u0430\u0301\u043d\u0438","alt_name:right:ab":"\u0410\u043b\u0431\u0430\u043d\u0438\u0430","id":-2088990,"name:right:cy":"Albania","name:right:zh-yue":"\u963f\u723e\u5df4\u5c3c\u4e9e","id:left":-2088990,"name:right:cs":"Alb\u00e1nie","name:right:cu":"\u0410\u043b\u0432\u0430\u043d\u0457\ua657","name:left:zh-yue":"\u79d1\u7d22\u6c83","name:right:cv":"\u0410\u043b\u0431\u0430\u043d\u0438","name:left:io":"Kosovo","name:right:it":"Albania","name:right:sn":"Albania","name:right:ty":"Arapania","name:right:kg":"Albania","name:right:ki":"Ar\u0169mb\u0129nia","name:right:kk":"\u0410\u043b\u0431\u0430\u043d\u0438\u044f","name:right:tw":"Albania","name:right:km":"\u17a2\u17b6\u179b\u17cb\u1794\u17b6\u1793\u17b8","name:left:az":"Kosovo","name:left:ia":"Kosovo","name:right:kn":"\u0c85\u0cb2\u0ccd\u0cac\u0cc7\u0ca8\u0cbf\u0caf","name:right:tl":"Albanya","name:right:ks":"\u0627\u066e\u06ea\u0644\u0628\u0627\u0646\u0650\u06cc\u0627","name:right:to":"\u02bbAlipania","name:right:ku":"Albanya","name:right:ti":"\u12a0\u120d\u1263\u1292\u12eb","name:right:kw":"Albani","name:right:kv":"\u0410\u043b\u0431\u0430\u043d\u0438\u044f","name:right:ky":"\u0410\u043b\u0431\u0430\u043d\u0438\u044f","name:right:te":"\u0c05\u0c32\u0c4d\u0c2c\u0c47\u0c28\u0c3f\u0c2f\u0c3e","name:left:am":"\u12ae\u1236\u126e","name:right:tg":"\u0410\u043b\u0431\u0430\u043d\u0438\u044f","name:right:ta":"\u0b85\u0bb2\u0bcd\u0baa\u0bc7\u0ba9\u0bbf\u0baf\u0bbe","name:right:de":"Albanien","name:right:da":"Albanien","name:right:el":"\u0391\u03bb\u03b2\u03b1\u03bd\u03af\u03b1","name:right:dz":"\u0f68\u0f71\u0f63\u0f0b\u0f56\u0f7a\u0f0b\u0f53\u0f72\u0f0b\u0f61","name:right:dv":"\u0787\u07a6\u078d\u07b0\u0784\u07ad\u0782\u07a8\u0787\u07a7"},"arcs":[3]},{"type":"LineString","properties":{"name:right:yo":"Monten\u1eb9\u0301gr\u00f2","name:right:yi":"\u05de\u05d0\u05e0\u05d8\u05e2\u05e0\u05e2\u05d2\u05e8\u05d0","name:left:la":"Serbia","name:right:qu":"Yanaurqu","name:left:li":"Servi\u00eb","name:left:vi":"Serbia","name:left:sw":"Serbia","name:left:kg":"Serbie","name:left:ka":"\u10e1\u10d4\u10e0\u10d1\u10d4\u10d7\u10d8","name:left:kl":"Serbia","name:left:ko":"\uc138\ub974\ube44\uc544","name:right:it":"Montenegro","name:right:is":"Svartfjallaland","name:right:rw":"Montenegoro","name:left:kk":"\u0421\u0435\u0440\u0431\u0438\u044f","name:left:rm":"Serbia","name:left:ku":"Serbistan","name:left:kw":"Serbi","name:left:kv":"\u0421\u0435\u0440\u0431\u0438\u044f","name:left:rw":"Seribiya","name:left:ru":"\u0421\u0435\u0440\u0431\u0438\u044f","name:right:ie":"Montenegro","name:right:id":"Montenegro","name:left:ky":"\u0421\u0435\u0440\u0431\u0438\u044f","name:right:ia":"Montenegro","name:right:bi":"Montenegro","name:right:bn":"\u09ae\u09a8\u09cd\u099f\u09bf\u09a8\u09bf\u0997\u09cd\u09b0\u09cb","name:right:bo":"\u0f58\u0f7c\u0f53\u0f0b\u0f4a\u0f7a\u0f53\u0f72\u0f42\u0f0b\u0f62\u0f7c\u0f0d","name:right:ba":"\u0427\u0435\u0440\u043d\u043e\u0433\u043e\u0440\u0438\u044f","name:right:bg":"\u0427\u0435\u0440\u043d\u0430 \u0433\u043e\u0440\u0430","name:right:be":"\u0427\u0430\u0440\u043d\u0430\u0433\u043e\u0440\u044b\u044f","name:right:br":"Montenegro","name:right:bs":"Crna Gora","name:right:nn":"Montenegro","name:right:no":"Montenegro","name:right:nl":"Montenegro","name:left:lv":"Serbija","name:right:wo":"Montenegro","name:right:ne":"\u092e\u094b\u0928\u094d\u091f\u0947\u0928\u0947\u0917\u094d\u0930\u094b","name:right:na":"Montenegro","name:right:gv":"Montenegro","name:right:nv":"Dzi\u0142izhin Bik\u00e9yah","name:left:mg":"Serbia","kind_detail":"2","name:left:tr":"S\u0131rbistan","name:right:gu":"\u0aae\u0acb\u0aa8\u0acd\u0a9f\u0ac7\u0aa8\u0ac0\u0a97\u0acd\u0ab0\u0acb","name:left:ty":"Terepia","name:right:ps":"\u0645\u0627\u0646\u062a\u06d0\u0646\u06d0\u06ab\u0631\u0648","name:right:pt":"Montenegro","name:left:mi":"Serbia","name:left:tt":"\u0421\u0435\u0440\u0431\u0438\u044f","name:left:mn":"\u0421\u0435\u0440\u0431\u0438","name:left:tw":"Serbia","name:left:th":"\u0e1b\u0e23\u0e30\u0e40\u0e17\u0e28\u0e40\u0e0b\u0e2d\u0e23\u0e4c\u0e40\u0e1a\u0e35\u0e22","name:right:pa":"\u0a2e\u0a4b\u0a02\u0a1f\u0a47\u0a28\u0a47\u0a17\u0a30\u0a4b","name:left:tk":"Serbi\u00fda","name:left:tl":"Serbiya","name:left:mt":"Serbja","name:right:gl":"Montenegro","name:left:my":"\u1006\u102c\u1038\u1018\u102e\u1038\u101a\u102c\u1038\u1014\u102d\u102f\u1004\u103a\u1004\u1036","name:left:ml":"\u0d38\u0d46\u0d7c\u0d2c\u0d3f\u0d2f","name:right:pl":"Czarnog\u00f3ra","name:left:te":"\u0c38\u0c46\u0c30\u0c4d\u0c2c\u0c3f\u0c2f\u0c3e","name:left:tg":"\u0421\u0435\u0440\u0431\u0438\u044f","name:left:ms":"Serbia","name:left:mr":"\u0938\u0930\u094d\u092c\u093f\u092f\u093e","name:right:tr":"Karada\u011f","name:left:da":"Serbien","name:left:de":"Serbien","name:right:ga":"Montain\u00e9agr\u00f3","name:left:dv":"\u0790\u07a7\u0784\u07a8\u0787\u07a7","name:right:ug":"\u0686\u06d0\u0631\u0646\u0648\u06af\u0648\u0631\u0649\u064a\u06d5","name:left:hi":"\u0938\u0930\u094d\u092c\u093f\u092f\u093e","name:right:lb":"Montenegro","name:right:uk":"\u0427\u043e\u0440\u043d\u043e\u0433\u043e\u0440\u0456\u044f","name:left:he":"\u05e1\u05e8\u05d1\u05d9\u05d4","name:right:ln":"Montenegro","name:right:li":"Montenegro","name:right:lt":"Juodkalnija","name:right:ur":"\u0645\u0648\u0646\u0679\u06cc\u0646\u06cc\u06af\u0631\u0648","name:right:lv":"Melnkalne","name:left:hy":"\u054d\u0565\u0580\u0562\u056b\u0561","name:left:ta":"\u0b9a\u0bc6\u0bb0\u0bcd\u0baa\u0bbf\u0baf\u0bbe","name:left:ht":"S\u00e8bi","name:left:hu":"Szerbia","name:left:hr":"Srbija","source":"openstreetmap.org","sort_rank":262,"name:right:gd":"Am Monadh Neagrach","name:right:os":"\u0427\u0435\u0440\u043d\u043e\u0433\u043e\u0440\u0438","name:right:es":"Montenegro","name:right:sr":"\u0426\u0440\u043d\u0430 \u0413\u043e\u0440\u0430","name:right:eu":"Montenegro","name:right:et":"Montenegro","name:left:os":"\u0421\u0435\u0440\u0431\u0438","name:left:or":"\u0b38\u0b30\u0b4d\u0b2c\u0b3f\u0b06","name:right:ee":"Montenegro","name:left:vo":"S\u00e4rb\u00e4n","name:left:oc":"Serbia","name:right:eo":"Montenegro","name:right:en":"Montenegro","name:right:el":"\u039c\u03b1\u03c5\u03c1\u03bf\u03b2\u03bf\u03cd\u03bd\u03b9\u03bf","name:left:fa":"\u0635\u0631\u0628\u0633\u062a\u0627\u0646","name:left:fo":"Serbia","name:right:sk":"\u010cierna Hora","name:left:fi":"Serbia","name:left:fr":"Serbie","name:right:jv":"Monten\u00e9gro","name:left:fy":"Servje","name:right:ja":"\u30e2\u30f3\u30c6\u30cd\u30b0\u30ed","name:right:sq":"Mali i Zi","name:right:ss":"IMonthenekho","name:left:ja":"\u30bb\u30eb\u30d3\u30a2","name:right:su":"Mont\u00e9n\u00e9gro","name:right:sw":"Montenegro","name:right:sv":"Montenegro","name:right:sh":"Crna Gora","name:left:qu":"Sirbya","name:right:sm":"Montenegro","name:right:sl":"\u010crna gora","name:right:so":"Montenegro","name:right:sc":"Montenegro","name:left:jv":"Serbia","id":-1741311,"name:right:ca":"Montenegro","name:right:se":"Montenegro","name:right:ce":"I\u0430\u044c\u0440\u0436\u0430\u043b\u0430\u044c\u043c\u043d\u0438","name:right:cy":"Montenegro","name:right:zh-yue":"\u9ed1\u5c71","name:right:cs":"\u010cern\u00e1 Hora","name:right:cu":"\u0427\u0440\u044c\u043d\u0430 \u0413\u043e\u0440\u0430","name:right:cv":"\u0427\u0435\u0440\u043d\u043e\u0433\u043e\u0440\u0438","name:left:ar":"\u0635\u0631\u0628\u064a\u0627","name:left:az":"Serbiya","name:left:ay":"Sirwiya","name:left:ro":"Serbia","name:left:af":"Serwi\u00eb","name:left:an":"Serbia","name:left:am":"\u1230\u122d\u1262\u12eb","name:right:ru":"\u0427\u0435\u0440\u043d\u043e\u0433\u043e\u0440\u0438\u044f","name:right:io":"Montenegro","name:left:zh-yue":"\u585e\u723e\u7dad\u4e9e","name:right:ro":"Muntenegru","name:right:hy":"\u0549\u0565\u057c\u0576\u0578\u0563\u0578\u0580\u056b\u0561","name:left:lb":"Serbien","alt_name:left:eo":"Serbio","name:left:su":"S\u00e9rbia","name:left:st":"Serbia","name:right:hr":"Crna Gora","name:left:sv":"Serbien","name:left:sq":"Serbia","name:right:hu":"Montenegr\u00f3","name:left:ln":"Serbia","name:left:sm":"Serbia","name:left:sl":"Srbija","name:left:so":"Serbia","name:left:lt":"Serbija","name:left:sh":"Srbija","name:left:sk":"Srbsko","name:left:se":"Serbia","name:left:sa":"\u0938\u0930\u094d\u092c\u093f\u092f\u093e","name:right:he":"\u05de\u05d5\u05e0\u05d8\u05e0\u05d2\u05e8\u05d5","name:left:sc":"S\u00e8rbia","name:right:la":"Mons Niger","name:right:af":"Montenegro","name:left:co":"Serbia","name:left:ce":"\u0421\u0435\u0440\u0431\u0438","name:right:an":"Montenegro","name:right:am":"\u121e\u1295\u1274\u1294\u130d\u122e","name:left:ca":"S\u00e8rbia","name:right:av":"\u0427\u0435\u044d\u0440\u0430\u0431 \u041c\u0435\u044d\u0440","name:left:cy":"Serbia","name:right:ar":"\u0627\u0644\u062c\u0628\u0644 \u0627\u0644\u0623\u0633\u0648\u062f","name:left:cu":"\u0421\u0440\u044c\u0431\u0457\ua657","name:left:cv":"\u0421\u0435\u0440\u0431\u0438","name:right:az":"Monteneqro","name:left:cs":"Srbsko","name":"\u0421\u0440\u0431\u0438\u0458\u0430 - Crna Gora \/ \u0426\u0440\u043d\u0430 \u0413\u043e\u0440\u0430","name:left:zu":"ISerbiya","name:left:zh":"\u585e\u723e\u7dad\u4e9e","name:right:zh":"\u8499\u7279\u5167\u54e5\u7f85","official_name:left":"\u0420\u0435\u043f\u0443\u0431\u043b\u0438\u043a\u0430 \u0421\u0440\u0431\u0438\u0458\u0430","name:left:uz":"Serbiya","name:right:fr":"Mont\u00e9n\u00e9gro","name:left:ur":"\u0633\u0631\u0628\u06cc\u0627","id:right":-53296,"name:left:uk":"\u0421\u0435\u0440\u0431\u0456\u044f","name:left:no":"Serbia","name:left:nl":"Servi\u00eb","name:right:fa":"\u0645\u0648\u0646\u062a\u0647\u200c\u0646\u06af\u0631\u0648","name:right:fo":"Montenegro","name:left:ne":"\u0938\u0930\u094d\u092c\u093f\u092f\u093e","name:left:ug":"S\u00e9rbiye","name:left:na":"Terbiya","name:left:eo":"Serbujo","name:left:en":"Serbia","name:left:el":"\u03a3\u03b5\u03c1\u03b2\u03af\u03b1","name:left:ee":"Serbia","name:left:pl":"Serbia","name:left:es":"Serbia","name:left:ss":"ISebhiya","name:left:ie":"Serbia","name:left:eu":"Serbia","name:left:et":"Serbia","name:right:zh-min-nan":"O\u0358-soa\u207f Ki\u014dng-h\u00f4-kok","name:right:oc":"Montenegro","name:left:ia":"Serbia","name:right:uz":"Chernogoriya","osm_relation":true,"name:right:or":"\u0b2e\u0b4b\u0b23\u0b4d\u0b1f\u0b47\u0b28\u0b47\u0b17\u0b4d\u0b30\u0b4b","name:left:pt":"S\u00e9rvia","name:right:ku":"Montenegro","name:right:tk":"\u00c7ernogori\u00fda","name:left:gl":"Serbia","min_zoom":8.0,"name:left:wo":"Seerbi","name:left:ga":"An tSeirbia","name:left:it":"Serbia","name:left:gd":"An t-S\u00e8irb","int_name:right":"Montenegro","name:left:gn":"Sevia","name:left:gv":"Yn Serb","official_name:right":"Crna Gora","name:left":"\u0421\u0440\u0431\u0438\u0458\u0430","name:right:mk":"\u0426\u0440\u043d\u0430 \u0413\u043e\u0440\u0430","name:right:mi":"Monoten\u012bkoro","name:right:ml":"\u0d2e\u0d4b\u0d23\u0d4d\u0d1f\u0d46\u0d28\u0d46\u0d17\u0d4d\u0d30\u0d4a","name:right:vo":"Montenegr\u00e4n","name:right:vi":"Montenegro","name:right:my":"\u1019\u103d\u1014\u103a\u1010\u102e\u1014\u102e\u1002\u101b\u102d\u102f\u1038\u1014\u102d\u102f\u1004\u103a\u1004\u1036","name:right:ms":"Montenegro","name:right:mr":"\u092e\u093e\u0901\u091f\u0947\u0928\u093f\u0917\u094d\u0930\u094b","name:right:fy":"Montenegro","name:right:mt":"Montenegro","name:left:nn":"Serbia","kind":"country","name:left:br":"Serbia","name:left:bs":"Srbija","int_name:left":"Serbia","name:left:ba":"\u0421\u0435\u0440\u0431\u0438\u044f","name:left:bg":"\u0421\u044a\u0440\u0431\u0438\u044f","name:right:kv":"\u0427\u0435\u0440\u043d\u043e\u0433\u043e\u0440\u0438\u044f","name:left:be":"\u0421\u0435\u0440\u0431\u0456\u044f","name:left:bi":"Serbia","name:left:bn":"\u09b8\u09be\u09b0\u09cd\u09ac\u09bf\u09af\u09bc\u09be","name:left:bo":"\u0f66\u0f7a\u0f62\u0f0b\u0f56\u0fb7\u0f72\u0f0b\u0f61\u0f0d","name:right":"Crna Gora \/ \u0426\u0440\u043d\u0430 \u0413\u043e\u0440\u0430","name:left:yo":"S\u00e9rb\u00ed\u00e0","name:left:yi":"\u05e1\u05e2\u05e8\u05d1\u05d9\u05e2","id:left":-1741311,"name:right:fi":"Montenegro","name:right:ka":"\u10e9\u10d4\u10e0\u10dc\u10dd\u10d2\u10dd\u10e0\u10d8\u10d0","name:left:io":"Serbia","name:left:pa":"\u0a38\u0a30\u0a2c\u0a40\u0a06","name:right:kg":"Monte Negro","name:right:tt":"\u041c\u043e\u043d\u0442\u0435\u043d\u0435\u0433\u0440\u043e","name:right:kk":"\u0427\u0435\u0440\u043d\u043e\u0433\u043e\u0440\u0438\u044f","name:left:id":"Serbia","name:right:kl":"Montenegro","name:right:ko":"\ubaac\ud14c\ub124\uadf8\ub85c","name:right:kn":"\u0cae\u0cbe\u0c82\u0c9f\u0cc6\u0ca8\u0cc6\u0c97\u0ccd\u0cb0\u0cca","name:right:tl":"Montenegro","name:right:th":"\u0e1b\u0e23\u0e30\u0e40\u0e17\u0e28\u0e21\u0e2d\u0e19\u0e40\u0e15\u0e40\u0e19\u0e42\u0e01\u0e23","name:right:kw":"Montenegro","name:left:ps":"\u0633\u0631\u0628\u064a\u0627","name:right:ky":"\u041c\u043e\u043d\u0442\u0435\u043d\u0435\u0433\u0440\u043e","name:left:zh-min-nan":"Srbija","name:right:tg":"\u041c\u043e\u043d\u0442\u0435\u043d\u0435\u0433\u0440\u043e","name:left:is":"Serb\u00eda","name:right:ta":"\u0bae\u0bca\u0ba3\u0bcd\u0b9f\u0bc6\u0ba9\u0bc7\u0b95\u0bc1\u0bb0\u0bcb","name:right:de":"Montenegro","name:right:da":"Montenegro","name:right:dv":"\u0789\u07ae\u0782\u07b0\u0793\u07ac\u0782\u07a9\u078e\u07aa\u0783\u07af","name:right:ht":"Montenegwo"},"arcs":[4]},{"type":"LineString","properties":{"name:right:yo":"Alb\u00e1n\u00ed\u00e0","name:right:yi":"\u05d0\u05dc\u05d1\u05d0\u05e0\u05d9\u05e2","name:left:la":"Mons Niger","name:right:qu":"Albanya","name:left:li":"Montenegro","name:left:vi":"Montenegro","name:left:sw":"Montenegro","name:left:kg":"Monte Negro","name:left:ka":"\u10e9\u10d4\u10e0\u10dc\u10dd\u10d2\u10dd\u10e0\u10d8\u10d0","name:left:kl":"Montenegro","name:left:ko":"\ubaac\ud14c\ub124\uadf8\ub85c","name:left:kn":"\u0cae\u0cbe\u0c82\u0c9f\u0cc6\u0ca8\u0cc6\u0c97\u0ccd\u0cb0\u0cca","name:right:is":"Alban\u00eda","name:right:rw":"Alubaniya","name:left:kk":"\u0427\u0435\u0440\u043d\u043e\u0433\u043e\u0440\u0438\u044f","name:right:ru":"\u0410\u043b\u0431\u0430\u0301\u043d\u0438\u044f","name:left:ku":"Montenegro","name:left:kw":"Montenegro","name:left:kv":"\u0427\u0435\u0440\u043d\u043e\u0433\u043e\u0440\u0438\u044f","name:right:rn":"Alubaniya","name:left:rw":"Montenegoro","name:left:ru":"\u0427\u0435\u0440\u043d\u043e\u0433\u043e\u0440\u0438\u044f","name:right:ig":"Albania","name:right:ie":"Albania","name:right:id":"Albania","name:left:ky":"\u041c\u043e\u043d\u0442\u0435\u043d\u0435\u0433\u0440\u043e","name:right:ia":"Albania","name:right:bi":"Albania","name:right:bn":"\u0986\u09b2\u09ac\u09c7\u09a8\u09bf\u09af\u09bc\u09be","name:right:bo":"\u0f68\u0f63\u0f0b\u0f54\u0f0b\u0f49\u0f72\u0f0b\u0f61\u0f0d","name:right:bm":"Alibani","name:right:ba":"\u0410\u043b\u0431\u0430\u0301\u043d\u0438\u044f","name:right:bg":"\u0410\u043b\u0431\u0430\u043d\u0438\u044f","name:right:be":"\u0410\u043b\u0431\u0430\u0301\u043d\u0456\u044f","name:right:br":"Albania","name:right:bs":"Albanija","name:right:nn":"Albania","name:right:no":"Albania","name:right:nl":"Albani\u00eb","name:left:lv":"Melnkalne","name:right:wo":"Albaani","name:right:ne":"\u0905\u0932\u094d\u092c\u093e\u0928\u093f\u092f\u093e","name:right:na":"Arbainiya","name:right:ps":"\u0627\u0644\u0628\u0627\u0646\u06cc\u0627","name:right:nv":"Dzi\u0142igaii Bik\u00e9yah","kind_detail":"2","name:left:tr":"Karada\u011f","name:right:gu":"\u0a86\u0ab2\u0acd\u0aac\u0ac7\u0aa8\u0abf\u0aaf\u0abe","name:right:gv":"Yn Albaan","name:right:pt":"Alb\u00e2nia","name:left:mk":"\u0426\u0440\u043d\u0430 \u0413\u043e\u0440\u0430","name:left:mi":"Monoten\u012bkoro","name:left:tt":"\u041c\u043e\u043d\u0442\u0435\u043d\u0435\u0433\u0440\u043e","name:left:ml":"\u0d2e\u0d4b\u0d23\u0d4d\u0d1f\u0d46\u0d28\u0d46\u0d17\u0d4d\u0d30\u0d4a","name:left:th":"\u0e1b\u0e23\u0e30\u0e40\u0e17\u0e28\u0e21\u0e2d\u0e19\u0e40\u0e15\u0e40\u0e19\u0e42\u0e01\u0e23","name:right:pa":"\u0a05\u0a32\u0a2c\u0a3e\u0a28\u0a40\u0a06","name:left:tk":"\u00c7ernogori\u00fda","name:left:tl":"Montenegro","name:left:mt":"Montenegro","name:left:ta":"\u0bae\u0bca\u0ba3\u0bcd\u0b9f\u0bc6\u0ba9\u0bc7\u0b95\u0bc1\u0bb0\u0bcb","name:left:my":"\u1019\u103d\u1014\u103a\u1010\u102e\u1014\u102e\u1002\u101b\u102d\u102f\u1038\u1014\u102d\u102f\u1004\u103a\u1004\u1036","name:right:gn":"Ava\u00f1a","name:right:pl":"Albania","name:left:tg":"\u041c\u043e\u043d\u0442\u0435\u043d\u0435\u0433\u0440\u043e","name:left:ms":"Montenegro","name:left:mr":"\u092e\u093e\u0901\u091f\u0947\u0928\u093f\u0917\u094d\u0930\u094b","name:left:da":"Montenegro","name:left:de":"Montenegro","name:right:ga":"An Alb\u00e1in","name:left:dv":"\u0789\u07ae\u0782\u07b0\u0793\u07ac\u0782\u07a9\u078e\u07aa\u0783\u07af","name:right:lg":"Alibaniya","name:right:ug":"\u0626\u0627\u0644\u0628\u0627\u0646\u0649\u064a\u06d5","name:right:la":"Albania","name:right:lb":"Albanien","name:right:uk":"\u0410\u043b\u0431\u0430\u0301\u043d\u0456\u044f","name:left:ca":"Montenegro","name:right:ln":"Albania","name:right:lo":"\u0ec1\u0ead\u0ea5\u0ec0\u0e9a\u0ec0\u0e99\u0e8d","name:right:li":"Albani\u00eb","name:right:lt":"Albanija","name:right:ur":"\u0627\u0644\u0628\u0627\u0646\u06cc\u0627","name:right:lv":"Alb\u0101nija","name:left:hy":"\u0549\u0565\u057c\u0576\u0578\u0563\u0578\u0580\u056b\u0561","name:right:pi":"\u0905\u0932\u094d\u092c\u093e\u0928\u093f\u092f\u093e","name:left:ht":"Montenegwo","name:left:hu":"Montenegr\u00f3","name:left:hr":"Crna Gora","source":"openstreetmap.org","sort_rank":262,"name:right:gd":"Alb\u00e0inia","name:right:os":"\u0410\u043b\u0431\u0430\u043d\u0438","alt_name:right:tt":"\u0410\u0440\u043d\u0430\u0443\u0442\u043b\u044b\u043a","name:left:cy":"Montenegro","name:right:es":"Albania","name:right:sr":"\u0410\u043b\u0431\u0430\u043d\u0438\u0458\u0430","name:right:eu":"Albania","name:right:et":"Albaania","name:left:os":"\u0427\u0435\u0440\u043d\u043e\u0433\u043e\u0440\u0438","name:left:or":"\u0b2e\u0b4b\u0b23\u0b4d\u0b1f\u0b47\u0b28\u0b47\u0b17\u0b4d\u0b30\u0b4b","name:right:ee":"Albania","name:left:vo":"Montenegr\u00e4n","name:left:oc":"Montenegro","name:right:eo":"Albanujo","name:right:en":"Albania","name:right:el":"\u0391\u03bb\u03b2\u03b1\u03bd\u03af\u03b1","name:right:tt":"\u0410\u043b\u0431\u0430\u043d\u0438\u044f","name:left:fa":"\u0645\u0648\u0646\u062a\u0647\u200c\u0646\u06af\u0631\u0648","name:left:ia":"Montenegro","name:left:fo":"Montenegro","name:right:sk":"Alb\u00e1nsko","name:left:fi":"Montenegro","name:left:fr":"Mont\u00e9n\u00e9gro","name:left:fy":"Montenegro","name:right:ja":"\u30a2\u30eb\u30d0\u30cb\u30a2","name:right:ss":"I-Alibheniya","name:left:ja":"\u30e2\u30f3\u30c6\u30cd\u30b0\u30ed","name:right:su":"Albania","name:right:st":"Albania","name:right:sw":"Albania","name:right:sv":"Albanien","name:right:si":"\u0d87\u0dbd\u0dca\u0db6\u0dda\u0db1\u0dd2\u0dba\u0dcf\u0dc0","name:right:sh":"Albanija","name:left:qu":"Yanaurqu","name:right:jv":"Albania","name:right:sl":"Albanija","name:right:so":"Albania","name:right:sn":"Albania","name:right:sa":"\u0905\u0932\u094d\u092c\u0947\u0928\u093f\u092f\u093e","name:right:sc":"Albania","name:left:jv":"Monten\u00e9gro","id":-53296,"name:right:sg":"Alban\u00efi","name:right:co":"Albania","name:right:ca":"Alb\u00e0nia","name:right:se":"Alb\u00e1nia","name:right:ce":"\u0410\u043b\u0431\u0430\u0301\u043d\u0438","alt_name:right:ab":"\u0410\u043b\u0431\u0430\u043d\u0438\u0430","name:right:cy":"Albania","name:right:zh-yue":"\u963f\u723e\u5df4\u5c3c\u4e9e","name:right:cs":"Alb\u00e1nie","name:right:cu":"\u0410\u043b\u0432\u0430\u043d\u0457\ua657","name:right:cv":"\u0410\u043b\u0431\u0430\u043d\u0438","name:left:av":"\u0427\u0435\u044d\u0440\u0430\u0431 \u041c\u0435\u044d\u0440","name:right:it":"Albania","name:left:ar":"\u0627\u0644\u062c\u0628\u0644 \u0627\u0644\u0623\u0633\u0648\u062f","name:left:az":"Monteneqro","name:left:ro":"Muntenegru","name:left:af":"Montenegro","name:left:an":"Montenegro","name:left:am":"\u121e\u1295\u1274\u1294\u130d\u122e","name:right:io":"Albania","name:left:zh-yue":"\u9ed1\u5c71","name:right:ro":"Albania","name:right:hy":"\u0531\u056c\u0562\u0561\u0576\u056b\u0561","name:left:lb":"Montenegro","name:left:su":"Mont\u00e9n\u00e9gro","int_name:left":"Montenegro","name:right:hr":"Albanija","name:left:sv":"Montenegro","name:left:sq":"Mali i Zi","name:right:hu":"Alb\u00e1nia","name:left:ln":"Montenegro","name:left:sr":"\u0426\u0440\u043d\u0430 \u0413\u043e\u0440\u0430","name:left:sm":"Montenegro","name:right:hi":"\u0905\u0932\u094d\u092c\u093e\u0928\u093f\u092f\u093e","name:left:so":"Montenegro","name:left:lt":"Juodkalnija","name:left:sh":"Crna Gora","name:left:sk":"\u010cierna Hora","name:left:se":"Montenegro","name:right:ha":"Albaniya","name:right:gl":"Albania","name:right:he":"\u05d0\u05b7\u05dc\u05b0\u05d1\u05b7\u05bc\u05e0\u05b0\u05d9\u05b8\u05d4","name:left:sc":"Montenegro","name:right:af":"Albani\u00eb","name:right:ab":"\u0410\u0440\u043d\u0430\u0443\u044b\u04ad\u0442\u04d9\u044b\u043b\u0430","name:left:ce":"I\u0430\u044c\u0440\u0436\u0430\u043b\u0430\u044c\u043c\u043d\u0438","name:right:an":"Albania","name:right:am":"\u12a0\u120d\u1263\u1292\u12eb","name:right:ak":"Albania","name:right:av":"\u0410\u043b\u0431\u0430\u0301\u043d\u0438\u044f","name:right:as":"\u0986\u09b2\u09ac\u09c7\u09a8\u09bf\u09af\u09bc\u09be","name:right:ar":"\u0623\u0644\u0628\u0627\u0646\u064a\u0627","name:left:he":"\u05de\u05d5\u05e0\u05d8\u05e0\u05d2\u05e8\u05d5","name:left:cu":"\u0427\u0440\u044c\u043d\u0430 \u0413\u043e\u0440\u0430","name:left:cv":"\u0427\u0435\u0440\u043d\u043e\u0433\u043e\u0440\u0438","name:right:az":"Albaniya","name:left:cs":"\u010cern\u00e1 Hora","name:right:rm":"Albania","name":"Crna Gora \/ \u0426\u0440\u043d\u0430 \u0413\u043e\u0440\u0430 - Shqip\u00ebria","name:right:zu":"I-Albaniya","alt_name:right:qu":"Shkipirya","name:left:zh":"\u8499\u7279\u5167\u54e5\u7f85","name:right:zh":"\u963f\u723e\u5df4\u5c3c\u4e9e","official_name:left":"Crna Gora","name:left:uz":"Chernogoriya","name:right:fr":"Albanie","name:left:nv":"Dzi\u0142izhin Bik\u00e9yah","name:left:ur":"\u0645\u0648\u0646\u0679\u06cc\u0646\u06cc\u06af\u0631\u0648","id:right":-53292,"name:left:uk":"\u0427\u043e\u0440\u043d\u043e\u0433\u043e\u0440\u0456\u044f","name:left:no":"Montenegro","name:left:nl":"Montenegro","alt_name:right:eo":"Albanio","name:right:fa":"\u0622\u0644\u0628\u0627\u0646\u06cc","name:right:fo":"Albania","name:left:ne":"\u092e\u094b\u0928\u094d\u091f\u0947\u0928\u0947\u0917\u094d\u0930\u094b","name:left:ug":"\u0686\u06d0\u0631\u0646\u0648\u06af\u0648\u0631\u0649\u064a\u06d5","name:left:na":"Montenegro","name:left:eo":"Montenegro","name:left:en":"Montenegro","name:left:el":"\u039c\u03b1\u03c5\u03c1\u03bf\u03b2\u03bf\u03cd\u03bd\u03b9\u03bf","name:left:ee":"Montenegro","name:left:pl":"Czarnog\u00f3ra","name:left:es":"Montenegro","name:left:ss":"IMonthenekho","name:left:ie":"Montenegro","name:left:eu":"Montenegro","name:left:et":"Montenegro","name:right:om":"Albeeniyaa","name:right:zh-min-nan":"Albania","name:left:id":"Montenegro","name:right:oc":"Albania","name:right:ko":"\uc54c\ubc14\ub2c8\uc544","name:right:ts":"Albania","name:right:uz":"Albaniya","osm_relation":true,"name:right:or":"\u0b06\u0b32\u0b2c\u0b3e\u0b28\u0b3f\u0b06","name:left:pt":"Montenegro","name:right:th":"\u0e1b\u0e23\u0e30\u0e40\u0e17\u0e28\u0e41\u0e2d\u0e25\u0e40\u0e1a\u0e40\u0e19\u0e35\u0e22","name:right:kv":"\u0410\u043b\u0431\u0430\u043d\u0438\u044f","name:left:gl":"Montenegro","min_zoom":8.0,"name:left:sl":"\u010crna gora","name:left:zh-min-nan":"O\u0358-soa\u207f Ki\u014dng-h\u00f4-kok","name:left:wo":"Montenegro","name:left:ga":"Montain\u00e9agr\u00f3","name:left:it":"Montenegro","name:left:gd":"Am Monadh Neagrach","int_name:right":"Albania","name:left:gu":"\u0aae\u0acb\u0aa8\u0acd\u0a9f\u0ac7\u0aa8\u0ac0\u0a97\u0acd\u0ab0\u0acb","name:right:tk":"Albani\u00fda","name:left:gv":"Montenegro","official_name:right":"Republika e Shqip\u00ebris\u00eb","name:left":"Crna Gora \/ \u0426\u0440\u043d\u0430 \u0413\u043e\u0440\u0430","name:right:mk":"\u0410\u043b\u0431\u0430\u043d\u0438\u0458\u0430","name:right:mi":"Arapeinia","name:right:mn":"\u0410\u043b\u0431\u0430\u043d\u0438","name:right:ml":"\u0d05\u0d7d\u0d2c\u0d47\u0d28\u0d3f\u0d2f","name:right:vo":"Lalban\u00e4n","name:right:mg":"Albania","name:right:vi":"Albania","name:right:my":"\u1021\u101a\u103a\u101c\u103a\u1018\u1031\u1038\u1014\u102e\u1038\u101a\u102c\u1038\u104f","name:right:ms":"Albania","name:right:mr":"\u0906\u0932\u094d\u092c\u0947\u0928\u093f\u092f\u093e","name:right:fy":"Albaanje","name:right:mt":"Albanija","alt_name:right:uk":"\u0428\u043a\u0456\u043f\u0435\u0440\u0456\u044f","name:left:nn":"Montenegro","kind":"country","name:left:br":"Montenegro","name:left:bs":"Crna Gora","name:left:ba":"\u0427\u0435\u0440\u043d\u043e\u0433\u043e\u0440\u0438\u044f","name:left:bg":"\u0427\u0435\u0440\u043d\u0430 \u0433\u043e\u0440\u0430","name:left:be":"\u0427\u0430\u0440\u043d\u0430\u0433\u043e\u0440\u044b\u044f","name:right:ff":"Albaniya","name:left:bi":"Montenegro","name:left:bn":"\u09ae\u09a8\u09cd\u099f\u09bf\u09a8\u09bf\u0997\u09cd\u09b0\u09cb","name:left:bo":"\u0f58\u0f7c\u0f53\u0f0b\u0f4a\u0f7a\u0f53\u0f72\u0f42\u0f0b\u0f62\u0f7c\u0f0d","name:right":"Shqip\u00ebria","name:left:yo":"Monten\u1eb9\u0301gr\u00f2","name:left:yi":"\u05de\u05d0\u05e0\u05d8\u05e2\u05e0\u05e2\u05d2\u05e8\u05d0","id:left":-53296,"name:right:fi":"Albania","name:right:ka":"\u10d0\u10da\u10d1\u10d0\u10dc\u10d4\u10d7\u10d8","name:left:io":"Montenegro","name:right:ty":"Arapania","name:right:kg":"Albania","name:right:ki":"Ar\u0169mb\u0129nia","name:right:kk":"\u0410\u043b\u0431\u0430\u043d\u0438\u044f","name:right:tw":"Albania","name:right:km":"\u17a2\u17b6\u179b\u17cb\u1794\u17b6\u1793\u17b8","name:right:kl":"Albania","name:right:tr":"Arnavutluk","name:right:kn":"\u0c85\u0cb2\u0ccd\u0cac\u0cc7\u0ca8\u0cbf\u0caf","name:right:tl":"Albanya","name:right:ks":"\u0627\u066e\u06ea\u0644\u0628\u0627\u0646\u0650\u06cc\u0627","name:right:to":"\u02bbAlipania","name:right:ku":"Albanya","name:right:ti":"\u12a0\u120d\u1263\u1292\u12eb","name:right:kw":"Albani","name:left:ps":"\u0645\u0627\u0646\u062a\u06d0\u0646\u06d0\u06ab\u0631\u0648","name:right:ky":"\u0410\u043b\u0431\u0430\u043d\u0438\u044f","name:right:te":"\u0c05\u0c32\u0c4d\u0c2c\u0c47\u0c28\u0c3f\u0c2f\u0c3e","name:right:tg":"\u0410\u043b\u0431\u0430\u043d\u0438\u044f","name:left:is":"Svartfjallaland","name:right:ta":"\u0b85\u0bb2\u0bcd\u0baa\u0bc7\u0ba9\u0bbf\u0baf\u0bbe","name:right:de":"Albanien","name:right:da":"Albanien","name:right:dz":"\u0f68\u0f71\u0f63\u0f0b\u0f56\u0f7a\u0f0b\u0f53\u0f72\u0f0b\u0f61","name:left:pa":"\u0a2e\u0a4b\u0a02\u0a1f\u0a47\u0a28\u0a47\u0a17\u0a30\u0a4b","name:right:dv":"\u0787\u07a6\u078d\u07b0\u0784\u07ad\u0782\u07a8\u0787\u07a7","name:right:ht":"Albani"},"arcs":[5]},{"type":"LineString","properties":{"kind":"region","name:en":"Northern Albania","name":"Shqip\u00ebria veriore","name:tr":"Kuzey Arnavutluk","kind_detail":"4","name:de":"Nord-Albanien","source":"openstreetmap.org","min_zoom":8.0,"name:sr":"\u0421\u0458\u0435\u0432\u0435\u0440\u043d\u0430 \u0410\u043b\u0431\u0430\u043d\u0438\u0458\u0430","name:zh":"\u963f\u723e\u5df4\u5c3c\u4e9e\u5317\u90e8","id":-7739254,"osm_relation":true,"sort_rank":256},"arcs":[6]},{"type":"MultiLineString","properties":{"id:left":-6900417,"id:right":-6898597,"min_zoom":8.0,"id":-6900417,"osm_relation":true,"name:left:en":"District of Prishtina (01)","kind":"region","name":"Rajoni i Prishtin\u00ebs (01) - Rajoni i Mitrovic\u00ebs (02)","sort_rank":256,"kind_detail":"4","name:left:de":"Bezirk Pristina (01)","name:right:en":"District of Mitrovica (02)","source":"openstreetmap.org","name:right:de":"Bezirk Mitrovica (02)","name:right":"Rajoni i Mitrovic\u00ebs (02)","name:left":"Rajoni i Prishtin\u00ebs (01)"},"arcs":[[7],[8]]},{"type":"LineString","properties":{"kind":"region","name:en":"District of Prishtina (01)","name":"Rajoni i Prishtin\u00ebs (01)","sort_rank":256,"kind_detail":"4","name:de":"Bezirk Pristina (01)","source":"openstreetmap.org","min_zoom":8.0,"id":-6900417,"osm_relation":true},"arcs":[9]},{"type":"LineString","properties":{"name":"Rajoni i Mitrovic\u00ebs (02) - \u0426\u0435\u043d\u0442\u0440\u0430\u043b\u043d\u0430 \u0421\u0440\u0431\u0438\u0458\u0430","name:right:hu":"K\u00f6z\u00e9p-Szerbia","name:right:vi":"Trung Serbia","min_zoom":8.0,"name:right:sv":"Mellersta Serbien","id":-6898597,"osm_relation":true,"name:right":"\u0426\u0435\u043d\u0442\u0440\u0430\u043b\u043d\u0430 \u0421\u0440\u0431\u0438\u0458\u0430","kind":"region","sort_rank":256,"name:left:en":"District of Mitrovica (02)","name:right:ca":"S\u00e8rbia central","kind_detail":"4","name:right:ru":"\u0426\u0435\u043d\u0442\u0440\u0430\u043b\u044c\u043d\u0430\u044f \u0421\u0435\u0440\u0431\u0438\u044f","name:left:de":"Bezirk Mitrovica (02)","name:right:en":"Central Serbia","source":"openstreetmap.org","name:right:de":"Zentralserbien","id:left":-6898597,"id:right":-1658166,"name:left":"Rajoni i Mitrovic\u00ebs (02)"},"arcs":[10]},{"type":"LineString","properties":{"kind":"region","name:en":"District of Mitrovica (02)","name":"Rajoni i Mitrovic\u00ebs (02)","sort_rank":256,"kind_detail":"4","name:de":"Bezirk Mitrovica (02)","source":"openstreetmap.org","min_zoom":8.0,"id":-6898597,"osm_relation":true},"arcs":[11]},{"type":"LineString","properties":{"kind":"region","name:en":"Central Serbia","name":"\u0426\u0435\u043d\u0442\u0440\u0430\u043b\u043d\u0430 \u0421\u0440\u0431\u0438\u0458\u0430","sort_rank":256,"kind_detail":"4","name:sv":"Mellersta Serbien","name:de":"Zentralserbien","source":"openstreetmap.org","min_zoom":8.0,"name:ca":"S\u00e8rbia central","name:ru":"\u0426\u0435\u043d\u0442\u0440\u0430\u043b\u044c\u043d\u0430\u044f \u0421\u0435\u0440\u0431\u0438\u044f","name:vi":"Trung Serbia","name:hu":"K\u00f6z\u00e9p-Szerbia","id":-1658166,"osm_relation":true},"arcs":[12]}]},"roads":{"type":"GeometryCollection","geometries":[{"type":"MultiLineString","properties":{"kind":"major_road","network":"XKX:national","sort_rank":380,"kind_detail":"primary","source":"openstreetmap.org","min_zoom":8.0,"shield_text":"9.1","ref":"M-9.1"},"arcs":[[47],[48],[49]]},{"type":"MultiLineString","properties":{"source":"openstreetmap.org","kind":"major_road","network":"XKX:national","sort_rank":380,"kind_detail":"primary","min_zoom":8.0,"shield_text":"25"},"arcs":[[50],[51],[52],[53],[54]]},{"type":"LineString","properties":{"kind":"major_road","int_name":"Tony Blair","network":"XKX:national","sort_rank":381,"kind_detail":"trunk","source":"openstreetmap.org","min_zoom":8.0,"shield_text":"2","ref":"M-2"},"arcs":[55]},{"type":"MultiLineString","properties":{"kind":"major_road","network":"e-road","sort_rank":380,"kind_detail":"primary","is_bicycle_related":true,"bicycle_shield_text":"TT3","bicycle_network":"ncn","source":"openstreetmap.org","min_zoom":8.0,"landuse_kind":"residential","shield_text":"65","ref":"M-5"},"arcs":[[56],[57]]},{"type":"MultiLineString","properties":{"kind":"major_road","network":"RS:national","sort_rank":380,"kind_detail":"primary","source":"openstreetmap.org","min_zoom":8.0,"shield_text":"22","ref":"22"},"arcs":[[58],[59],[60],[61],[62],[63],[64]]},{"type":"MultiLineString","properties":{"kind":"highway","network":"e-road","sort_rank":383,"kind_detail":"motorway","source":"openstreetmap.org","min_zoom":8.0,"all_networks":["e-road"],"shield_text":"851","ref":"A1","all_shield_texts":["851"]},"arcs":[[65],[66]]},{"type":"LineString","properties":{"kind":"major_road","network":"e-road","sort_rank":380,"kind_detail":"primary","is_bicycle_related":true,"source":"openstreetmap.org","min_zoom":8.0,"shield_text":"763","ref":"M-2","id":338765880},"arcs":[67]},{"type":"MultiLineString","properties":{"kind":"major_road","network":"e-road","sort_rank":380,"kind_detail":"primary","is_bicycle_related":true,"bicycle_shield_text":"TT2","bicycle_network":"ncn","source":"openstreetmap.org","min_zoom":8.0,"shield_text":"763","ref":"M-2"},"arcs":[[68],[69],[70]]},{"type":"MultiLineString","properties":{"kind":"major_road","network":"e-road","sort_rank":380,"kind_detail":"primary","is_bicycle_related":true,"bicycle_shield_text":"TT2","bicycle_network":"ncn","source":"openstreetmap.org","min_zoom":8.0,"shield_text":"65","ref":"M-2"},"arcs":[[71],[72],[73],[74]]},{"type":"LineString","properties":{"kind":"major_road","network":"XKX:national","sort_rank":380,"kind_detail":"primary","is_bicycle_related":true,"source":"openstreetmap.org","min_zoom":8.0,"landuse_kind":"residential","shield_text":"9","ref":"M-9","id":273616909},"arcs":[75]},{"type":"LineString","properties":{"kind":"major_road","sort_rank":377,"landuse_kind":"residential","is_bicycle_related":true,"bicycle_shield_text":"TT3","bicycle_network":"ncn","source":"openstreetmap.org","min_zoom":8.0,"kind_detail":"tertiary"},"arcs":[76]},{"type":"LineString","properties":{"kind":"major_road","int_name":"Tony Blair","network":"XKX:national","sort_rank":380,"kind_detail":"primary","source":"openstreetmap.org","min_zoom":8.0,"shield_text":"2","ref":"M-2","id":494906772},"arcs":[77]},{"type":"MultiLineString","properties":{"kind":"major_road","sort_rank":380,"kind_detail":"primary","is_bicycle_related":true,"bicycle_shield_text":"TT3","bicycle_network":"ncn","source":"openstreetmap.org","min_zoom":8.0},"arcs":[[78],[79]]},{"type":"LineString","properties":{"kind":"major_road","network":"XKX:national","sort_rank":380,"kind_detail":"primary","is_bicycle_related":true,"bicycle_shield_text":"Katun Road","bicycle_network":"rcn","source":"openstreetmap.org","min_zoom":8.0,"landuse_kind":"park","shield_text":"9","ref":"M-9"},"arcs":[80]},{"type":"MultiLineString","properties":{"kind":"major_road","network":"XKX:national","sort_rank":380,"kind_detail":"primary","source":"openstreetmap.org","min_zoom":8.0,"shield_text":"2","ref":"M-2"},"arcs":[[81],[82],[83],[84],[85],[86],[87],[88],[89],[90],[91],[92],[93]]},{"type":"MultiLineString","properties":{"sort_rank":380,"kind_detail":"primary","min_zoom":8.0,"kind":"major_road","source":"openstreetmap.org"},"arcs":[[94],[95],[96],[97],[98],[99],[100],[101],[102],[103],[104],[105],[106],[107]]},{"type":"LineString","properties":{"kind":"major_road","sort_rank":379,"kind_detail":"secondary","is_bicycle_related":true,"bicycle_shield_text":"TT3","bicycle_network":"ncn","source":"openstreetmap.org","min_zoom":8.0,"ref":"R-12"},"arcs":[108]},{"type":"LineString","properties":{"kind":"major_road","network":"XKX:national","sort_rank":380,"kind_detail":"primary","source":"openstreetmap.org","min_zoom":8.0,"shield_text":"25.3","id":25984526},"arcs":[109]},{"type":"MultiLineString","properties":{"source":"openstreetmap.org","kind":"ferry","name":"Komani Lake Ferry","sort_rank":355,"landuse_kind":"nature_reserve","min_zoom":8.0,"id":361123576},"arcs":[[110],[111],[112]]},{"type":"MultiLineString","properties":{"kind":"major_road","network":"XKX:national","sort_rank":380,"kind_detail":"primary","source":"openstreetmap.org","min_zoom":8.0,"landuse_kind":"residential","shield_text":"9.1"},"arcs":[[113],[114],[115],[116],[117],[118]]},{"type":"LineString","properties":{"kind":"major_road","network":"XKX:national","sort_rank":380,"kind_detail":"primary","source":"openstreetmap.org","min_zoom":8.0,"landuse_kind":"urban_area","shield_text":"25","ref":"M-25"},"arcs":[119]},{"type":"MultiLineString","properties":{"source":"openstreetmap.org","kind":"major_road","sort_rank":381,"kind_detail":"trunk","ref":"R-102","min_zoom":8.0},"arcs":[[120],[121],[122],[123],[124],[125],[126],[127],[128],[129],[130],[131],[132],[133],[134],[135],[136],[137],[138],[139],[140],[141],[142],[143],[144],[145],[146],[147],[148],[149]]},{"type":"LineString","properties":{"kind":"major_road","network":"XKX:national","sort_rank":380,"kind_detail":"primary","source":"openstreetmap.org","min_zoom":8.0,"landuse_kind":"urban_area","shield_text":"2","ref":"M-2;M-22.3"},"arcs":[150]},{"type":"LineString","properties":{"source":"openstreetmap.org","kind":"major_road","sort_rank":380,"kind_detail":"primary","ref":"R-101","min_zoom":8.0,"id":300711454},"arcs":[151]},{"type":"MultiLineString","properties":{"kind":"major_road","network":"XKX:national","sort_rank":381,"kind_detail":"trunk","is_bicycle_related":true,"source":"openstreetmap.org","min_zoom":8.0,"shield_text":"2","ref":"M-2"},"arcs":[[152],[153]]},{"type":"LineString","properties":{"kind":"major_road","network":"e-road","sort_rank":380,"kind_detail":"primary","source":"openstreetmap.org","min_zoom":8.0,"shield_text":"763","ref":"M-2"},"arcs":[154]},{"type":"MultiLineString","properties":{"kind":"major_road","network":"XKX:national","sort_rank":380,"kind_detail":"primary","source":"openstreetmap.org","min_zoom":8.0,"shield_text":"25.3","ref":"M-25.3"},"arcs":[[155],[156],[157],[158],[159],[160],[161]]},{"type":"LineString","properties":{"kind":"major_road","network":"XKX:national","sort_rank":380,"kind_detail":"primary","source":"openstreetmap.org","min_zoom":8.0,"landuse_kind":"urban_area","shield_text":"2","id":129221500},"arcs":[162]},{"type":"MultiLineString","properties":{"source":"openstreetmap.org","kind":"major_road","sort_rank":380,"kind_detail":"primary","ref":"SH5","min_zoom":8.0},"arcs":[[163],[164],[165]]},{"type":"LineString","properties":{"kind":"major_road","network":"e-road","sort_rank":380,"kind_detail":"primary","is_bicycle_related":true,"bicycle_shield_text":"TT3","bicycle_network":"ncn","source":"openstreetmap.org","min_zoom":8.0,"shield_text":"65","ref":"M-5","id":374247876},"arcs":[166]},{"type":"LineString","properties":{"kind":"major_road","int_name":"M-25","network":"XKX:national","sort_rank":380,"kind_detail":"primary","source":"openstreetmap.org","min_zoom":8.0,"old_name":"M-25","shield_text":"25","landuse_kind":"residential","ref":"M-25"},"arcs":[167]},{"type":"LineString","properties":{"kind":"highway","int_name":"A 1","network":"e-road","sort_rank":383,"kind_detail":"motorway","source":"openstreetmap.org","min_zoom":8.0,"all_networks":["e-road"],"old_name":"Rruga e Kombit","shield_text":"851","ref":"A1","all_shield_texts":["851"]},"arcs":[168]},{"type":"MultiLineString","properties":{"kind":"highway","network":"e-road","sort_rank":383,"landuse_kind":"urban_area","name:de":"Ibrahim-Rugova-Autobahn","source":"openstreetmap.org","min_zoom":8.0,"all_networks":["e-road","XKX:motorway"],"kind_detail":"motorway","shield_text":"851","ref":"R 7","all_shield_texts":["851","7"]},"arcs":[[169],[170]]},{"type":"MultiLineString","properties":{"kind":"major_road","network":"e-road","sort_rank":380,"kind_detail":"primary","is_bicycle_related":true,"source":"openstreetmap.org","min_zoom":8.0,"shield_text":"65","ref":"M-5"},"arcs":[[171],[172],[173],[174]]},{"type":"MultiLineString","properties":{"source":"openstreetmap.org","kind":"major_road","landuse_kind":"residential","sort_rank":380,"kind_detail":"primary","ref":"M-25","min_zoom":8.0},"arcs":[[175],[176],[177]]},{"type":"MultiLineString","properties":{"kind":"major_road","sort_rank":379,"kind_detail":"secondary","is_bicycle_related":true,"bicycle_shield_text":"TT3","bicycle_network":"ncn","source":"openstreetmap.org","min_zoom":8.0,"ref":"R-9"},"arcs":[[178],[179]]},{"type":"MultiLineString","properties":{"kind":"minor_road","sort_rank":358,"kind_detail":"service","is_bicycle_related":true,"bicycle_shield_text":"TT3","bicycle_network":"ncn","source":"openstreetmap.org","min_zoom":8.0},"arcs":[[180],[181],[182],[183]]},{"type":"MultiLineString","properties":{"kind":"major_road","network":"XKX:national","sort_rank":381,"kind_detail":"trunk","source":"openstreetmap.org","min_zoom":8.0,"landuse_kind":"residential","shield_text":"9","ref":"M-9;R 7"},"arcs":[[184],[185]]},{"type":"LineString","properties":{"kind":"major_road","network":"XKX:national","sort_rank":380,"kind_detail":"primary","source":"openstreetmap.org","min_zoom":8.0,"landuse_kind":"park","shield_text":"9","ref":"M-9"},"arcs":[186]},{"type":"LineString","properties":{"kind":"major_road","sort_rank":379,"kind_detail":"secondary","is_bicycle_related":true,"bicycle_shield_text":"TT3","bicycle_network":"ncn","source":"openstreetmap.org","min_zoom":8.0,"landuse_kind":"residential","ref":"R-24","id":399254533},"arcs":[187]},{"type":"MultiLineString","properties":{"source":"openstreetmap.org","kind":"major_road","network":"e-road","sort_rank":380,"kind_detail":"primary","min_zoom":8.0,"shield_text":"763"},"arcs":[[188],[189],[190],[191]]},{"type":"MultiLineString","properties":{"kind":"highway","network":"XKX:motorway","sort_rank":383,"kind_detail":"motorway","source":"openstreetmap.org","min_zoom":8.0,"all_networks":["XKX:motorway"],"shield_text":"7","ref":"R 7","all_shield_texts":["7"]},"arcs":[[192],[193]]},{"type":"LineString","properties":{"kind":"major_road","network":"XKX:national","sort_rank":381,"kind_detail":"trunk","source":"openstreetmap.org","min_zoom":8.0,"landuse_kind":"residential","shield_text":"2","ref":"M-2"},"arcs":[194]},{"type":"MultiLineString","properties":{"kind":"major_road","network":"RS:national","sort_rank":380,"kind_detail":"primary","is_bicycle_related":true,"source":"openstreetmap.org","min_zoom":8.0,"shield_text":"22","ref":"22"},"arcs":[[195],[196]]},{"type":"LineString","properties":{"kind":"minor_road","sort_rank":360,"kind_detail":"unclassified","is_bicycle_related":true,"bicycle_shield_text":null,"bicycle_network":"ncn","source":"openstreetmap.org","min_zoom":8.0},"arcs":[197]},{"type":"LineString","properties":{"source":"openstreetmap.org","kind":"major_road","sort_rank":380,"kind_detail":"primary","ref":"221","min_zoom":8.0,"id":185505767},"arcs":[198]},{"type":"MultiLineString","properties":{"kind":"major_road","sort_rank":379,"kind_detail":"secondary","is_bicycle_related":true,"bicycle_shield_text":"TT2","bicycle_network":"ncn","source":"openstreetmap.org","min_zoom":8.0},"arcs":[[199],[200],[201]]},{"type":"MultiLineString","properties":{"kind":"major_road","network":"XKX:national","sort_rank":381,"kind_detail":"trunk","source":"openstreetmap.org","min_zoom":8.0,"shield_text":"9","ref":"M-9;R 7"},"arcs":[[202],[203],[204],[205],[206],[207]]},{"type":"LineString","properties":{"kind":"major_road","network":"RS:national","sort_rank":380,"kind_detail":"primary","source":"openstreetmap.org","min_zoom":8.0,"shield_text":"32","ref":"32"},"arcs":[208]},{"type":"LineString","properties":{"source":"openstreetmap.org","kind":"major_road","sort_rank":380,"kind_detail":"primary","ref":"R105","min_zoom":8.0},"arcs":[209]},{"type":"MultiLineString","properties":{"kind":"minor_road","sort_rank":360,"landuse_kind":"residential","is_bicycle_related":true,"bicycle_shield_text":"TT3","bicycle_network":"ncn","source":"openstreetmap.org","min_zoom":8.0,"kind_detail":"unclassified"},"arcs":[[210],[211]]},{"type":"MultiLineString","properties":{"source":"openstreetmap.org","kind":"ferry","name":"Komani Lake Ferry","sort_rank":355,"min_zoom":8.0,"id":361123576},"arcs":[[212],[213],[214],[215]]},{"type":"LineString","properties":{"kind":"minor_road","sort_rank":360,"kind_detail":"unclassified","is_bicycle_related":true,"bicycle_shield_text":"TT3","bicycle_network":"ncn","source":"openstreetmap.org","min_zoom":8.0,"landuse_kind":"park"},"arcs":[216]},{"type":"LineString","properties":{"source":"openstreetmap.org","kind":"major_road","sort_rank":380,"kind_detail":"primary","is_bicycle_related":true,"min_zoom":8.0,"id":49151402},"arcs":[217]},{"type":"MultiLineString","properties":{"kind":"major_road","network":"e-road","sort_rank":380,"kind_detail":"primary","source":"openstreetmap.org","min_zoom":8.0,"landuse_kind":"residential","shield_text":"65","ref":"M-5"},"arcs":[[218],[219],[220]]},{"type":"MultiLineString","properties":{"kind":"major_road","network":"XKX:national","sort_rank":380,"kind_detail":"primary","source":"openstreetmap.org","min_zoom":8.0,"shield_text":"9","ref":"M-9"},"arcs":[[221],[222],[223],[224],[225]]},{"type":"MultiLineString","properties":{"kind":"major_road","network":"XKX:national","sort_rank":380,"kind_detail":"primary","source":"openstreetmap.org","min_zoom":8.0,"landuse_kind":"residential","shield_text":"2","ref":"M-2"},"arcs":[[226],[227]]},{"type":"MultiLineString","properties":{"kind":"minor_road","sort_rank":360,"kind_detail":"unclassified","is_bicycle_related":true,"bicycle_shield_text":"TT2","bicycle_network":"ncn","source":"openstreetmap.org","min_zoom":8.0},"arcs":[[228],[229],[230],[231],[232]]},{"type":"MultiLineString","properties":{"kind":"major_road","network":"XKX:national","sort_rank":380,"kind_detail":"primary","source":"openstreetmap.org","min_zoom":8.0,"landuse_kind":"residential","shield_text":"9.1","ref":"M-9.1"},"arcs":[[233],[234],[235],[236],[237],[238],[239],[240],[241]]},{"type":"LineString","properties":{"kind":"path","sort_rank":354,"kind_detail":"track","is_bicycle_related":true,"bicycle_shield_text":"TT2","bicycle_network":"ncn","source":"openstreetmap.org","min_zoom":8.0},"arcs":[242]},{"type":"LineString","properties":{"kind":"major_road","network":"XKX:national","sort_rank":380,"kind_detail":"primary","source":"openstreetmap.org","min_zoom":8.0,"landuse_kind":"residential","shield_text":"9.1","ref":"M 9.1"},"arcs":[243]},{"type":"MultiLineString","properties":{"sort_rank":381,"source":"openstreetmap.org","min_zoom":8.0,"kind":"major_road","kind_detail":"trunk"},"arcs":[[244],[245],[246],[247],[248]]},{"type":"MultiLineString","properties":{"kind":"major_road","network":"XKX:national","sort_rank":381,"kind_detail":"trunk","source":"openstreetmap.org","min_zoom":8.0,"landuse_kind":"residential","shield_text":"9","ref":"M-9"},"arcs":[[249],[250],[251],[252],[253],[254],[255],[256],[257]]},{"type":"LineString","properties":{"source":"openstreetmap.org","kind":"major_road","sort_rank":380,"kind_detail":"primary","ref":"R-221","min_zoom":8.0,"id":185656676},"arcs":[258]},{"type":"MultiLineString","properties":{"kind":"highway","network":"e-road","sort_rank":383,"kind_detail":"motorway","name:de":"Ibrahim-Rugova-Autobahn","source":"openstreetmap.org","min_zoom":8.0,"all_networks":["e-road","XKX:motorway"],"shield_text":"851","ref":"R 7","all_shield_texts":["851","7"]},"arcs":[[259],[260],[261],[262],[263],[264],[265],[266],[267],[268],[269],[270],[271],[272]]},{"type":"MultiLineString","properties":{"kind":"major_road","network":"XKX:national","sort_rank":381,"kind_detail":"trunk","source":"openstreetmap.org","min_zoom":8.0,"shield_text":"2","ref":"M-2"},"arcs":[[273],[274],[275],[276],[277],[278],[279],[280]]},{"type":"MultiLineString","properties":{"kind":"major_road","sort_rank":379,"kind_detail":"secondary","is_bicycle_related":true,"bicycle_shield_text":"TT3","bicycle_network":"ncn","source":"openstreetmap.org","min_zoom":8.0,"ref":"R-24"},"arcs":[[281],[282],[283],[284],[285]]},{"type":"MultiLineString","properties":{"kind":"major_road","int_name":"William Walker","network":"XKX:national","sort_rank":381,"kind_detail":"trunk","source":"openstreetmap.org","min_zoom":8.0,"shield_text":"2","ref":"M-2"},"arcs":[[286],[287]]},{"type":"LineString","properties":{"kind":"highway","network":"e-road","sort_rank":383,"kind_detail":"motorway","source":"openstreetmap.org","min_zoom":8.0,"all_networks":["e-road"],"shield_text":"851","ref":"A 1","all_shield_texts":["851"]},"arcs":[288]},{"type":"LineString","properties":{"kind":"major_road","network":null,"sort_rank":380,"kind_detail":"primary","source":"openstreetmap.org","min_zoom":8.0,"landuse_kind":"urban_area","shield_text":"22.3","id":469679466},"arcs":[289]},{"type":"MultiLineString","properties":{"kind":"major_road","network":"e-road","sort_rank":380,"kind_detail":"primary","is_bicycle_related":true,"source":"openstreetmap.org","min_zoom":8.0,"landuse_kind":"residential","shield_text":"65","ref":"M-5"},"arcs":[[290],[291],[292]]},{"type":"MultiLineString","properties":{"kind":"major_road","network":null,"sort_rank":380,"kind_detail":"primary","source":"openstreetmap.org","min_zoom":8.0,"landuse_kind":"urban_area","shield_text":"22.3","ref":"M-22.3"},"arcs":[[293],[294],[295],[296],[297],[298]]},{"type":"MultiLineString","properties":{"source":"openstreetmap.org","kind":"major_road","landuse_kind":"residential","sort_rank":380,"kind_detail":"primary","min_zoom":8.0},"arcs":[[299],[300],[301],[302],[303],[304],[305]]},{"type":"LineString","properties":{"kind":"major_road","sort_rank":379,"kind_detail":"secondary","is_bicycle_related":true,"bicycle_shield_text":"TT3","bicycle_network":"ncn","source":"openstreetmap.org","min_zoom":8.0,"landuse_kind":"residential","ref":"R-2","id":157633580},"arcs":[306]},{"type":"MultiLineString","properties":{"kind":"major_road","network":"XKX:national","sort_rank":380,"kind_detail":"primary","source":"openstreetmap.org","min_zoom":8.0,"landuse_kind":"residential","shield_text":"25"},"arcs":[[307],[308],[309]]},{"type":"LineString","properties":{"kind":"major_road","network":"XKX:national","sort_rank":381,"landuse_kind":"urban_area","source":"openstreetmap.org","min_zoom":8.0,"kind_detail":"trunk","shield_text":"2","ref":"M-2"},"arcs":[310]},{"type":"LineString","properties":{"kind":"major_road","network":null,"sort_rank":380,"kind_detail":"primary","source":"openstreetmap.org","min_zoom":8.0,"shield_text":"22.3","ref":"M-22.3"},"arcs":[311]},{"type":"MultiLineString","properties":{"kind":"major_road","network":"XKX:national","sort_rank":380,"kind_detail":"primary","source":"openstreetmap.org","min_zoom":8.0,"landuse_kind":"urban_area","shield_text":"9.1","ref":"M-9.1"},"arcs":[[312],[313]]},{"type":"LineString","properties":{"kind":"minor_road","name:en":"Top Biking Trail 3 \/ Biking Trail AN06","sort_rank":360,"kind_detail":"unclassified","is_bicycle_related":true,"bicycle_shield_text":"TT3","bicycle_network":"ncn","source":"openstreetmap.org","min_zoom":8.0,"id":374114728},"arcs":[314]},{"type":"MultiLineString","properties":{"kind":"path","sort_rank":354,"kind_detail":"track","is_bicycle_related":true,"bicycle_shield_text":"TT3","bicycle_network":"ncn","source":"openstreetmap.org","min_zoom":8.0},"arcs":[[315],[316]]},{"type":"LineString","properties":{"kind":"minor_road","sort_rank":360,"kind_detail":"residential","is_bicycle_related":true,"bicycle_shield_text":"TT2","bicycle_network":"ncn","source":"openstreetmap.org","min_zoom":8.0},"arcs":[317]},{"type":"MultiLineString","properties":{"kind":"major_road","network":"e-road","sort_rank":380,"kind_detail":"primary","source":"openstreetmap.org","min_zoom":8.0,"shield_text":"65","ref":"M-5"},"arcs":[[318],[319],[320],[321],[322]]},{"type":"MultiLineString","properties":{"kind":"major_road","sort_rank":377,"kind_detail":"tertiary","is_bicycle_related":true,"bicycle_shield_text":"TT3","bicycle_network":"ncn","source":"openstreetmap.org","min_zoom":8.0},"arcs":[[323],[324],[325],[326],[327],[328],[329],[330],[331],[332]]},{"type":"MultiLineString","properties":{"kind":"minor_road","sort_rank":360,"kind_detail":"unclassified","is_bicycle_related":true,"bicycle_shield_text":"TT3","bicycle_network":"ncn","source":"openstreetmap.org","min_zoom":8.0},"arcs":[[333],[334],[335],[336],[337],[338],[339],[340]]},{"type":"MultiLineString","properties":{"kind":"major_road","network":"e-road","sort_rank":381,"kind_detail":"trunk","source":"openstreetmap.org","min_zoom":8.0,"shield_text":"851","ref":"SH5"},"arcs":[[341],[342],[343],[344],[345],[346],[347],[348],[349],[350],[351],[352],[353],[354],[355],[356],[357],[358],[359],[360],[361],[362],[363],[364]]},{"type":"MultiLineString","properties":{"kind":"highway","network":"e-road","sort_rank":383,"kind_detail":"motorway","source":"openstreetmap.org","min_zoom":8.0,"all_networks":["e-road","XKX:motorway"],"shield_text":"851","ref":"R 7","all_shield_texts":["851","7"]},"arcs":[[365],[366]]},{"type":"MultiLineString","properties":{"kind":"path","sort_rank":354,"kind_detail":"path","is_bicycle_related":true,"bicycle_shield_text":"TT3","bicycle_network":"ncn","source":"openstreetmap.org","min_zoom":8.0},"arcs":[[367],[368]]},{"type":"MultiLineString","properties":{"kind":"major_road","sort_rank":379,"kind_detail":"secondary","is_bicycle_related":true,"bicycle_shield_text":"TT3","bicycle_network":"ncn","source":"openstreetmap.org","min_zoom":8.0,"landuse_kind":"residential","ref":"R-12"},"arcs":[[369],[370]]},{"type":"MultiLineString","properties":{"source":"openstreetmap.org","kind":"major_road","sort_rank":380,"kind_detail":"primary","ref":"R104","min_zoom":8.0},"arcs":[[371],[372],[373]]},{"type":"MultiLineString","properties":{"kind":"major_road","network":"XKX:national","sort_rank":380,"kind_detail":"primary","source":"openstreetmap.org","min_zoom":8.0,"landuse_kind":"residential","shield_text":"9","ref":"M-9"},"arcs":[[374],[375],[376],[377],[378],[379],[380],[381],[382],[383],[384]]},{"type":"MultiLineString","properties":{"source":"openstreetmap.org","kind":"major_road","landuse_kind":"urban_area","sort_rank":380,"kind_detail":"primary","min_zoom":8.0},"arcs":[[385],[386],[387],[388]]},{"type":"MultiLineString","properties":{"kind":"major_road","network":"XKX:national","sort_rank":380,"kind_detail":"primary","source":"openstreetmap.org","min_zoom":8.0,"landuse_kind":"residential","shield_text":"25","ref":"M-25"},"arcs":[[389],[390],[391],[392],[393],[394],[395],[396],[397],[398],[399],[400],[401],[402],[403],[404],[405],[406]]},{"type":"MultiLineString","properties":{"kind":"major_road","network":null,"sort_rank":380,"kind_detail":"primary","source":"openstreetmap.org","min_zoom":8.0,"landuse_kind":"residential","shield_text":"22.3","ref":"M-22.3","id":146478686},"arcs":[[407],[408]]},{"type":"LineString","properties":{"source":"openstreetmap.org","kind":"major_road","sort_rank":381,"kind_detail":"trunk","ref":"R 102","min_zoom":8.0,"id":377873340},"arcs":[409]},{"type":"MultiLineString","properties":{"kind":"major_road","int_name":"M-25","network":"XKX:national","sort_rank":380,"kind_detail":"primary","source":"openstreetmap.org","min_zoom":8.0,"old_name":"M-25","shield_text":"25","ref":"M-25"},"arcs":[[410],[411]]},{"type":"LineString","properties":{"kind":"major_road","int_name":"M-25","network":"XKX:national","sort_rank":380,"kind_detail":"primary","source":"openstreetmap.org","min_zoom":8.0,"old_name":"M-25","shield_text":"25","landuse_kind":"urban_area","ref":"M-25","id":184796200},"arcs":[412]},{"type":"MultiLineString","properties":{"kind":"major_road","network":"XKX:national","sort_rank":381,"kind_detail":"trunk","source":"openstreetmap.org","min_zoom":8.0,"shield_text":"9","ref":"M-9"},"arcs":[[413],[414],[415],[416],[417],[418],[419],[420],[421],[422],[423],[424],[425]]},{"type":"MultiLineString","properties":{"kind":"major_road","sort_rank":379,"kind_detail":"secondary","is_bicycle_related":true,"bicycle_shield_text":"TT3","bicycle_network":"ncn","source":"openstreetmap.org","min_zoom":8.0,"ref":"R-2"},"arcs":[[426],[427],[428],[429]]},{"type":"LineString","properties":{"kind":"highway","int_name":"A1","network":"e-road","sort_rank":383,"kind_detail":"motorway","source":"openstreetmap.org","min_zoom":8.0,"all_networks":["e-road"],"shield_text":"851","ref":"A1","id":41819458,"all_shield_texts":["851"]},"arcs":[430]},{"type":"LineString","properties":{"kind":"minor_road","sort_rank":358,"kind_detail":"service","is_bicycle_related":true,"bicycle_shield_text":null,"bicycle_network":"ncn","source":"openstreetmap.org","min_zoom":8.0,"id":372112483},"arcs":[431]},{"type":"MultiLineString","properties":{"source":"openstreetmap.org","kind":"major_road","sort_rank":380,"kind_detail":"primary","ref":"R-102","min_zoom":8.0},"arcs":[[432],[433]]},{"type":"MultiLineString","properties":{"kind":"major_road","network":"XKX:national","sort_rank":380,"kind_detail":"primary","source":"openstreetmap.org","min_zoom":8.0,"shield_text":"25","ref":"M-25"},"arcs":[[434],[435],[436],[437],[438],[439],[440],[441],[442],[443],[444],[445],[446],[447],[448],[449],[450],[451],[452],[453],[454],[455],[456],[457],[458],[459]]},{"type":"LineString","properties":{"kind":"major_road","network":"XKX:national","sort_rank":380,"kind_detail":"primary","source":"openstreetmap.org","min_zoom":8.0,"landuse_kind":"urban_area","shield_text":"2","ref":"M-2"},"arcs":[460]},{"type":"MultiLineString","properties":{"kind":"major_road","network":"XKX:national","sort_rank":380,"kind_detail":"primary","source":"openstreetmap.org","min_zoom":8.0,"landuse_kind":"residential","shield_text":"9.1","ref":"R 107"},"arcs":[[461],[462],[463],[464]]},{"type":"LineString","properties":{"kind":"major_road","network":"XKX:national","sort_rank":380,"kind_detail":"primary","source":"openstreetmap.org","min_zoom":8.0,"landuse_kind":"park","shield_text":"9.1","ref":"M-9.1"},"arcs":[465]},{"type":"LineString","properties":{"kind":"highway","int_name":"A1","network":"e-road","sort_rank":383,"kind_detail":"motorway","source":"openstreetmap.org","min_zoom":8.0,"all_networks":["e-road"],"shield_text":"851","ref":"A 1","all_shield_texts":["851"]},"arcs":[466]},{"type":"MultiLineString","properties":{"kind":"minor_road","sort_rank":358,"kind_detail":"service","is_bicycle_related":true,"bicycle_shield_text":"TT2","bicycle_network":"ncn","source":"openstreetmap.org","min_zoom":8.0},"arcs":[[467],[468]]},{"type":"MultiLineString","properties":{"kind":"major_road","network":"RS:national","sort_rank":380,"kind_detail":"primary","source":"openstreetmap.org","min_zoom":8.0,"shield_text":"32","ref":"22"},"arcs":[[469],[470]]}]},"earth":{"type":"GeometryCollection","geometries":[{"type":"Polygon","properties":{"sort_rank":10,"source":"naturalearthdata.com","kind":"earth","min_zoom":0.0,"id":4741},"arcs":[[471]]}]},"landuse":{"type":"GeometryCollection","geometries":[{"type":"Polygon","properties":{"kind":"park","area":108214000,"sort_rank":24,"source":"openstreetmap.org","min_zoom":7.0,"tier":2,"id":-7126576,"osm_relation":true},"arcs":[[472]]},{"type":"MultiPolygon","properties":{"source":"openstreetmap.org","kind":"nature_reserve","tier":2,"area":88090080,"sort_rank":23,"min_zoom":8.0},"arcs":[[[473]]]},{"type":"Polygon","properties":{"kind":"nature_reserve","protect_class":"1a","area":188036000,"sort_rank":23,"source":"openstreetmap.org","min_zoom":6.0,"tier":2,"id":-7717392,"osm_relation":true},"arcs":[[474]]},{"type":"Polygon","properties":{"kind":"nature_reserve","protect_class":"4","area":1002689984,"sort_rank":23,"source":"openstreetmap.org","min_zoom":4.0,"tier":2,"id":-7717305,"osm_relation":true},"arcs":[[475]]},{"type":"MultiPolygon","properties":{"source":"openstreetmap.org","kind":"park","tier":2,"area":1791550100,"sort_rank":24,"min_zoom":6.0,"osm_relation":true},"arcs":[[[476]],[[477]],[[478]]]},{"type":"Polygon","properties":{"kind":"nature_reserve","area":46966300,"sort_rank":23,"source":"openstreetmap.org","min_zoom":8.0,"tier":2,"id":-7765929,"osm_relation":true},"arcs":[[479]]},{"type":"MultiPolygon","properties":{"source":"openstreetmap.org","kind":"park","tier":2,"area":103169684,"sort_rank":24,"min_zoom":8.0},"arcs":[[[480]],[[481]]]},{"type":"MultiPolygon","properties":{"source":"naturalearthdata.com","kind":"urban_area","name":"","area":2346272244,"sort_rank":11,"min_zoom":4.0},"arcs":[[[482]],[[483]],[[484]],[[485]],[[486]],[[487]]]},{"type":"MultiPolygon","properties":{"source":"openstreetmap.org","kind":"nature_reserve","tier":2,"protect_class":"4","area":486211568,"sort_rank":23,"min_zoom":6.0},"arcs":[[[488]]]},{"type":"MultiPolygon","properties":{"source":"openstreetmap.org","kind":"national_park","tier":1,"protect_class":"2","area":141612648,"sort_rank":18,"min_zoom":8.0},"arcs":[[[489]]]},{"type":"Polygon","properties":{"kind":"national_park","natural":"valley","protect_class":"2","area":389529984,"sort_rank":18,"source":"openstreetmap.org","min_zoom":3.0,"tier":1,"id":354315205},"arcs":[[490]]},{"type":"MultiPolygon","properties":{"source":"openstreetmap.org","kind":"residential","tier":2,"area":291507894,"sort_rank":20,"min_zoom":8.0},"arcs":[[[491]],[[492]],[[493]],[[494]],[[495]],[[496]],[[497]],[[498]],[[499]]]},{"type":"Polygon","properties":{"kind":"nature_reserve","natural":"valley","area":20154700,"sort_rank":23,"source":"openstreetmap.org","min_zoom":8.0,"tier":2,"id":535771280},"arcs":[[500]]},{"type":"Polygon","properties":{"kind":"residential","name:en":"Southern Mitrovica","name":"Mitrovica Jugore","area":17637300,"sort_rank":20,"name:de":"S\u00fcd-Mitrovica","source":"openstreetmap.org","min_zoom":8.0,"tier":2,"id":304218488,"name:sq":"Mitrovica e Jugut"},"arcs":[[501]]},{"type":"MultiPolygon","properties":{"source":"openstreetmap.org","kind":"park","tier":2,"area":2509347647,"sort_rank":24,"min_zoom":4.0,"osm_relation":true},"arcs":[[[502]]]}]}},"type":"Topology","transform":{"translate":[19.6875,42.0329743324],"scale":[0.0003433228,0.0002529086]},"arcs":[[[2828,4096],[31,-15],[8,-109],[-57,-22],[-3,-43],[-30,0],[-1,-61],[-31,10],[-30,-26],[-2,56],[-82,1],[-33,-20],[4,-39],[-30,-19],[-59,-132],[-63,48],[-90,-90],[-31,-95],[57,-93],[93,-81],[-151,-65],[-131,-136],[-96,54],[-160,-57]],[[1941,3162],[-55,11],[-44,-37],[-13,38],[-51,1],[-12,-42],[-38,20],[-20,-41],[-56,-23],[33,-140],[-45,-78],[-49,-23],[-120,-24],[-109,86],[-27,-54],[-92,32],[-46,49],[-111,12],[-105,-55],[-33,-144],[50,-35],[-44,-38],[49,3],[1,-52],[62,-51],[84,-20],[18,-43],[69,-50],[-107,-140],[-8,-54],[49,-125],[-30,-79]],[[3110,0],[30,48],[-21,32],[81,73],[-4,28],[144,29],[42,52],[126,-7],[82,123],[310,94],[196,184]],[[1141,2066],[65,-93],[192,-102],[-2,-37],[87,-135],[-10,-41],[81,-75],[15,-75],[-53,-53],[92,-80],[20,-50],[-29,-82],[27,-92],[39,-22],[97,20],[40,-35],[95,51],[44,-41],[-2,-30],[121,-43],[30,-57],[155,-52],[164,-186],[156,-407],[-20,-49],[19,-42],[-38,-61],[45,-94],[72,-63],[3,-40]],[[854,4096],[33,-68],[161,-98],[35,-127],[70,-22],[39,-70],[34,3],[39,-35],[84,101],[8,-56],[125,-65],[39,4],[91,-74],[109,-20],[61,-54],[38,6],[-3,-23],[76,-39],[26,14],[14,-61],[-23,-108],[31,-142]],[[0,2394],[48,69],[68,21],[31,-72],[54,-25],[-14,-91],[71,-116],[-72,-11],[8,-68],[-29,-83],[63,-162],[44,-22],[34,-61],[110,-59],[17,48],[92,12],[30,56],[60,-43],[22,88],[99,42],[38,-28],[145,-8],[40,136],[96,27],[21,36],[65,-14]],[[2646,0],[-3,40],[-72,63],[-45,94],[38,61],[-19,42],[20,49],[-156,407],[-164,186],[-155,52],[-30,57],[-121,43],[2,30],[-44,41],[-95,-51],[-40,35],[-97,-20],[-39,22],[-27,92],[29,82],[-20,50],[-92,80],[53,53],[-15,75],[-81,75],[10,41],[-87,135],[2,37],[-192,102],[-43,79],[-87,28],[-21,-36],[-99,-30],[-36,-132],[-146,7],[-38,28],[-99,-42],[-22,-88],[-60,43],[-30,-56],[-92,-12],[-17,-48],[-110,59],[-34,61],[-44,22],[-63,162],[29,83],[-8,68],[72,11],[-71,116],[14,91],[-54,25],[-31,72],[-68,-21],[-48,-69]],[[3844,4096],[69,-91],[-5,-59],[85,-55],[82,-183],[-15,-123],[-33,-96],[-35,-6],[3,-44],[44,-52],[22,-206],[35,-3]],[[4096,3024],[-23,-9],[-50,-60],[-7,-40],[38,-42],[-59,-90],[24,-37],[-45,7],[-3,-45],[-69,-20],[5,-20],[-98,-73],[-60,-14],[-90,150],[-58,-45],[-39,18],[-90,-127],[-40,69],[-56,18],[-31,-44],[-60,-13],[12,-102],[-146,-27],[-6,-183],[-25,-27]],[[3120,2268],[78,7],[40,-36],[-35,-79],[54,-50],[-4,-146],[129,8],[11,60],[60,-105],[33,-12],[-73,-7],[-5,-69],[-22,-15],[15,-38],[79,25],[39,-9],[32,-50],[65,-2],[103,82],[50,-69],[60,28],[38,-42],[80,9],[69,-31],[68,57],[12,-28]],[[2828,4096],[31,-15],[8,-109],[-57,-22],[-3,-43],[-30,0],[-1,-61],[-31,10],[-30,-26],[-2,56],[-82,1],[-33,-20],[4,-39],[-30,-19],[-59,-132],[-63,48],[-90,-90],[-31,-95],[57,-93],[93,-77]],[[2479,3370],[82,27],[104,-45],[53,-36],[-13,-17],[26,-18],[17,-83],[58,3],[-18,-191],[-15,-48],[-31,-16],[66,-118],[-42,-47],[2,-40],[-57,5],[11,-75],[36,-12],[4,-50],[52,-72],[66,2],[25,45],[26,2],[32,-89],[-22,-117],[84,-19],[39,-89],[56,-4]],[[854,4096],[33,-68],[161,-98],[35,-127],[70,-22],[39,-70],[34,3],[39,-35],[84,101],[8,-56],[125,-65],[39,4],[91,-74],[109,-20],[61,-54],[38,6],[-3,-23],[76,-39],[26,14],[14,-61],[-23,-108],[31,-142],[160,57],[96,-54],[131,136],[151,69]],[[7,3778],[16,2]],[[46,3771],[4,-1]],[[157,3953],[10,14]],[[162,3800],[0,7]],[[172,3973],[10,7]],[[4059,2395],[-7,-54],[-136,-6],[-193,206],[-50,-12],[-96,-101],[10,-38],[-86,-84],[-84,-4],[-115,65],[-197,-112],[-33,12],[-13,53],[-49,43],[-44,-64],[-166,66],[-92,-45],[-72,39],[-39,-37],[-49,-1],[-214,196],[-101,-5],[-158,-51],[-101,17],[-162,-17],[-20,40]],[[25,3780],[5,-1]],[[52,3770],[5,1]],[[72,3775],[2,0]],[[99,3785],[7,2]],[[110,3787],[3,1]],[[131,3913]],[[168,3968],[1,1]],[[169,3970],[1,0]],[[186,3980],[1,0]],[[0,3781],[7,-3]],[[23,3780],[2,0]],[[30,3779],[16,-8]],[[50,3770],[2,0]],[[57,3771],[15,4]],[[74,3775],[25,10]],[[106,3787],[4,0]],[[113,3788],[49,12]],[[131,3913],[26,40]],[[162,3807],[-28,32],[-3,74]],[[167,3967],[1,1]],[[169,3969],[0,1]],[[170,3970],[2,3]],[[182,3980],[4,0]],[[187,3980],[37,17],[25,99]],[[0,3781],[160,14],[-26,47],[-1,86],[91,69],[25,99]],[[4059,2382],[33,35],[4,2]],[[4066,2240],[-7,136]],[[4096,2180],[-1,3]],[[2078,1349],[-133,-12],[-149,72],[-51,55],[-153,2],[-43,17],[8,18]],[[2543,1938],[-51,-64],[-46,-2],[-55,-71],[-3,-118],[-46,-57],[-142,-63]],[[2611,2206],[-36,-68],[-29,-195]],[[2874,657],[0,-1]],[[2916,664],[-1,0]],[[2875,657],[-1,0]],[[2874,656],[1,0],[0,1]],[[3994,1629],[0,1],[-1,0],[1,-1]],[[3936,2848],[-32,40],[31,-40]],[[546,3254],[-19,0]],[[1331,3155],[-4,2]],[[1902,3468],[6,4]],[[1908,3472],[-6,-4]],[[1908,3472],[66,60]],[[2232,3710],[-102,-47],[4,-96],[-77,-5],[-19,-34],[-59,13]],[[2178,3810],[55,-96]],[[2232,3710],[1,4]],[[2304,3995],[16,101]],[[1821,45],[14,67],[28,10],[28,-29],[-11,47]],[[1879,140],[1,-9]],[[252,4096],[-7,-39]],[[167,3802],[-30,99]],[[167,3802],[-1,-1]],[[167,3801],[0,1]],[[0,3775],[71,-8],[95,32]],[[166,3799],[1,1]],[[166,3800],[0,-1]],[[166,3801],[0,-1],[1,0],[0,1],[-1,0]],[[1775,2488],[0,1],[0,-1]],[[558,3262],[-11,-5]],[[3904,2888],[-39,58]],[[726,2240],[-30,36]],[[727,2240],[20,-10]],[[1120,2592],[13,24]],[[3346,3297],[-78,-2],[-98,87],[-12,43],[-165,21],[-76,34],[-71,69],[16,38],[-27,22],[-60,-22],[-90,22],[-120,82],[-57,-18]],[[3735,3140],[-109,115],[-100,41]],[[3735,3140],[1,-1]],[[3736,3139],[-1,1]],[[3736,3139]],[[3736,3139],[1,-1]],[[3737,3139],[-1,0]],[[3737,3138],[0,1]],[[3737,3138]],[[3737,3138],[0,1]],[[3774,3092],[-37,46]],[[3865,2946],[-91,146]],[[3774,3092]],[[136,3905],[1,1]],[[210,3987],[19,19]],[[228,4005],[2,0]],[[1166,227],[-130,-55]],[[1116,214],[-2,-2]],[[2100,170],[18,31],[33,-33]],[[2587,2317],[0,-1]],[[2588,2315]],[[2589,2317],[9,6]],[[2589,2316],[1,1]],[[2595,2780],[24,11]],[[2584,2320],[0,1],[0,-1]],[[2589,2315],[0,1],[-1,1],[0,-1],[1,-1]],[[3292,1225]],[[1186,3235],[-31,51],[-28,-4],[11,-17],[-61,13],[17,39],[-146,129],[-94,-12],[-60,-38],[-85,53],[-2,-59],[-78,-49],[-3,-50]],[[3939,1582],[1,-2]],[[558,816],[7,8]],[[613,844],[45,41]],[[772,906],[47,-6]],[[2160,1389],[0,1]],[[2163,1385],[-5,5],[0,-1],[5,-4]],[[2163,1385],[10,-24]],[[2176,1361],[12,-4]],[[2172,1399],[1,0],[-1,1],[-1,0],[1,-1]],[[2200,1354],[-1,1],[-1,-1],[1,-1],[1,1]],[[3171,889],[-51,-92]],[[3188,2994],[17,-127]],[[3205,2867],[-17,127]],[[3228,2825],[-22,42]],[[3221,2850],[7,-23]],[[3261,2776],[29,-13]],[[3290,2763],[-29,13]],[[3291,2687],[0,52]],[[3291,2739],[0,24]],[[3291,2763]],[[3291,2763],[0,1]],[[3291,2763],[0,-24]],[[3291,2739],[0,-52]],[[3291,2686],[6,-21]],[[3298,2665],[-6,21]],[[3297,2665],[13,-61]],[[3310,2605],[-12,60]],[[3310,2604],[1,-1],[0,1]],[[3206,2867],[-1,0]],[[3205,2867],[1,-1],[0,1]],[[3239,2780],[-1,0],[1,0]],[[3291,2763]],[[3291,2763],[-1,1],[0,-1]],[[3290,2763],[1,0]],[[3291,2763]],[[3291,2686]],[[3291,2686],[1,1],[-1,0]],[[3291,2687],[0,-1]],[[3298,2665],[-1,0],[1,0]],[[3311,2604],[-1,1]],[[3310,2605],[0,-1],[1,0]],[[3498,3350],[-5,-5]],[[3338,3258],[8,4]],[[4093,2708],[-37,30]],[[4086,2713],[7,-6]],[[137,3906],[107,82],[-10,15]],[[3993,1561],[-53,20]],[[3995,1561],[-1,-1]],[[3995,1559],[1,0]],[[4096,1500],[-100,58]],[[3994,1559],[1,0]],[[3995,1559],[1,1],[-1,1]],[[3995,1561],[-1,-2]],[[3497,3348],[-1,1]],[[492,0],[12,33],[80,27],[38,-60]],[[665,0],[85,15],[-1,26],[87,-9],[200,140]],[[1166,227],[76,38],[64,-24],[26,43],[-12,-58],[40,-1],[-3,21],[8,-22],[-5,-48],[118,89],[25,-24],[54,38],[19,-28],[19,24],[20,-7],[-11,-43],[26,24],[31,-36],[20,12],[2,-37],[78,26],[37,-55],[-46,-32],[58,-20],[41,53],[29,-20]],[[1327,3157],[-142,78]],[[3077,728],[43,69]],[[1880,131],[10,-38],[-17,1]],[[3053,911],[-34,-39],[-15,-9],[-20,-14],[-32,-30],[-29,-54]],[[2923,764],[130,147]],[[525,3274],[-19,83],[19,70],[-59,161],[-1,92],[-105,22],[-27,108],[-40,20],[-87,-90],[-38,60]],[[760,3169],[-158,42]],[[1185,3235],[-69,7],[-115,-50]],[[1433,3231],[29,25]],[[3067,723],[1,-1]],[[3070,719],[2,5]],[[3120,795],[0,1],[-1,0],[0,-1],[1,0]],[[577,2487],[1,0]],[[791,2533],[-56,-63],[-34,-5],[-25,35],[-98,-13]],[[41,2707],[39,-13]],[[263,2639],[2,-1]],[[1019,2932],[2,1]],[[1072,2966],[-29,5]],[[4075,2341],[-16,-18]],[[4060,2323],[9,11]],[[1133,2616],[40,-12],[61,35],[92,-2],[47,-15],[143,-132],[135,-5]],[[450,3146],[10,-1]],[[136,3905],[1,1],[-1,-1]],[[137,3901],[-1,4]],[[230,4005],[0,2]],[[234,4003],[11,54]],[[4079,2333],[17,-4]],[[4096,2330],[-17,3]],[[3432,3331],[28,7]],[[1974,3532],[5,9]],[[2304,3995],[-23,-28],[-40,0],[12,-28],[-55,-7],[4,-76],[-24,-46]],[[173,2685],[14,2]],[[2676,2974],[16,-83],[-39,-63]],[[158,3956],[-26,-34]],[[132,3921],[3,-7]],[[136,3906],[-1,7]],[[3301,2071],[16,19],[1,2],[7,10]],[[3325,2102],[1,2],[87,31]],[[3413,2135],[32,12],[67,8],[164,98],[85,-26],[175,24],[124,72]],[[4059,2323],[-123,-72],[-175,-24],[-85,26],[-78,-40],[-86,-58],[-67,-8],[-32,-12]],[[3413,2135],[-88,-33]],[[3325,2102],[-2,-1],[-20,-27]],[[2508,3673],[-35,54],[-67,-8],[-34,33],[-138,-41]],[[3091,2680],[-51,19]],[[460,3145],[61,100]],[[1331,3155],[-3,-5]],[[405,300],[20,37],[116,48],[27,48],[1,80],[-44,78],[54,33],[36,112],[-57,80]],[[565,824],[48,20]],[[658,885],[33,39],[81,-18]],[[819,900],[121,14]],[[0,3383],[30,16]],[[726,2240],[1,0]],[[526,3256],[1,-1]],[[527,3255],[0,2]],[[527,3254],[0,1]],[[1651,2485],[44,-1]],[[2429,2254],[-335,182]],[[2584,2214],[-54,-10],[-82,38]],[[2973,2146],[-158,77],[-222,-12]],[[2973,2146],[1,0],[1,0],[-1,1],[-1,-1]],[[3346,3297],[86,34]],[[3462,3339],[-2,-1]],[[0,3582],[34,-12],[-25,-28]],[[0,3592],[0,15]],[[0,3614],[52,-21],[21,34],[-39,21]],[[95,3776],[3,3]],[[96,3776],[1,-15]],[[2095,1343],[38,-10],[17,21]],[[2159,1355],[-9,-1]],[[2173,1361],[3,0]],[[2177,1402],[23,-47]],[[2200,1355],[-23,48]],[[2201,1433],[-24,-29]],[[2188,1357],[10,-3]],[[2150,1354],[0,1],[0,-1]],[[2177,1402],[0,1],[0,1],[-1,-1],[1,-1]],[[97,3761],[-4,-12]],[[2159,1355],[29,2]],[[3245,2777],[-6,3]],[[3939,2842],[-2,7]],[[3938,2844],[1,-2]],[[3939,2842],[3,-2]],[[3904,2243],[3,0],[0,1],[-2,0],[-1,-1]],[[1824,2461],[-22,7],[22,-7]],[[1875,2466],[-50,-5]],[[1825,2461],[48,4]],[[4069,2334],[5,6],[21,49]],[[4094,2389],[-19,-48]],[[4094,2389],[0,2],[0,-2]],[[4095,2390],[1,0]],[[4096,2391],[-1,0]],[[1824,2461],[1,0],[-1,0]],[[2619,2791],[34,37]],[[2508,488],[-4,-2]],[[2505,485],[3,2]],[[2923,765],[-89,-145],[-174,-59],[-152,-73]],[[2510,487],[324,133],[89,144]],[[3290,2061],[-11,-13],[-10,-22],[-21,-86],[-28,-155],[40,-108],[133,-185],[13,-13],[10,-16]],[[3416,1463],[1,-3],[-18,-44]],[[3399,1416],[-1,-2],[-7,-6],[-30,-55],[-47,-21],[-10,-5]],[[3304,1327],[-26,-12]],[[3278,1315],[-2,-1],[-114,-134],[-5,-12],[-25,-116],[-79,-141]],[[3053,911],[79,141],[31,127],[102,118],[4,7],[5,8],[4,3]],[[3278,1315],[3,3],[23,9]],[[3304,1327],[11,5],[1,0],[46,21],[36,61],[1,2]],[[3399,1416],[17,47]],[[3416,1463],[0,2],[-156,212],[-39,108],[49,241],[31,45]],[[3998,2786],[54,-45]],[[4054,2742],[-55,45]],[[4054,2739],[32,-26]],[[4056,2738],[-1,2]],[[4093,2707],[3,-4]],[[4096,2706],[-3,2]],[[4055,2742],[-2,0],[0,-3],[2,1]],[[4055,2740],[0,2]],[[220,3267],[12,-7]],[[233,3259],[37,-5]],[[270,3253],[53,-36]],[[324,3216],[7,-3]],[[332,3213],[118,-67]],[[3935,2848],[63,-62]],[[3999,2787],[-63,61]],[[1783,0],[38,45]],[[3496,3350],[-2,4]],[[525,3274],[1,-18]],[[602,3211],[-56,43]],[[1433,3231],[-102,-76]],[[3479,3409],[-125,77],[0,145]],[[3482,3398],[-3,10]],[[3494,3354],[-11,40]],[[3494,3354],[-1,-9]],[[3498,3350],[-4,4]],[[3496,3349],[0,1]],[[3028,696]],[[3028,696]],[[3028,696]],[[3028,696]],[[3070,719]],[[3113,784]],[[4096,2391],[-2,0]],[[526,3256],[-5,-11]],[[3023,732],[5,-36]],[[3027,696],[1,0]],[[3074,725],[2,3]],[[3499,3344],[-2,4]],[[3354,3631],[-73,82],[22,76],[-62,50],[98,71],[-44,44],[-35,142]],[[2095,1343],[-17,6]],[[2200,1563],[-31,-59],[32,-71]],[[224,2290],[58,34],[-5,230],[23,51]],[[905,2824],[4,24]],[[1021,2933],[22,38]],[[158,3956],[17,4]],[[167,3800],[0,1]],[[1001,3192],[-38,-35],[-203,12]],[[1897,3464],[-59,-28],[-51,-73],[-35,47],[-264,-175],[-26,21]],[[1897,3464],[5,4]],[[1902,3468],[-5,-4]],[[0,2760],[41,-53]],[[204,2617],[-3,0]],[[287,2594],[-82,22]],[[232,3260],[1,-1]],[[270,3254],[0,-1]],[[287,2594],[13,11]],[[323,3217],[1,-1]],[[331,3213],[1,0]],[[433,2128],[-2,-48]],[[748,2230],[-2,-8]],[[30,3399],[152,-65],[38,-67]],[[173,2685],[-51,-19],[-42,28]],[[187,2687],[78,-49]],[[201,2617],[62,22]],[[431,2080],[169,32],[146,110]],[[791,2533],[-9,25],[-36,-20],[-5,68],[17,34],[86,29],[-31,31],[64,63],[-32,40],[60,21]],[[909,2848],[-39,43],[-30,-40],[-7,77],[72,49],[27,-15],[-46,-22],[91,9],[24,-15],[-24,-19],[42,17]],[[1328,3150],[-33,-72],[-34,0],[-36,-53],[-135,-18],[-18,-41]],[[2086,167],[-33,35],[-52,0],[-21,-36],[-101,-26]],[[1880,140],[101,26],[11,14],[9,22],[52,0],[30,-36],[3,1]],[[2107,161],[-21,6]],[[2107,161],[40,-9],[10,-34],[20,-15],[18,6],[62,23],[1,1]],[[2258,133],[-81,-29],[-30,48],[-40,9]],[[2243,173],[16,9]],[[2259,182],[28,14]],[[2287,196],[-17,-21],[-11,7]],[[2259,182],[-17,9],[1,-18]],[[2243,173],[3,-8]],[[2246,165],[7,-13]],[[2253,152],[5,-19]],[[2284,217],[7,28]],[[2284,217],[2,-6]],[[2288,200],[-2,11]],[[2288,200],[-1,-4]],[[2294,250],[-3,-5]],[[2294,250],[21,36]],[[2321,292],[-6,-6]],[[2321,292],[79,55],[53,101]],[[2453,448],[-53,-101],[-79,-55]],[[2453,448],[4,4]],[[2457,452],[48,33]],[[2504,486],[-5,-2],[-42,-32]],[[2508,488]],[[2508,487],[2,0]],[[224,2290],[4,-41]],[[228,2248],[35,-68]],[[558,3262],[57,20]],[[616,3283],[10,8]],[[2544,2395],[38,-68]],[[2584,2320],[4,-3]],[[2588,2316],[-2,-14]],[[1695,2484],[71,2]],[[1768,2486],[-2,0]],[[1766,2486],[9,2]],[[1790,2505],[-15,-16]],[[1775,2489],[15,16]],[[1790,2505],[1,-1]],[[1791,2504],[0,1]],[[1797,2481],[-6,23]],[[1802,2468],[-6,12]],[[1791,2505],[-1,0],[1,0]],[[1797,2480],[0,1],[-1,0],[0,-1],[1,0]],[[3483,3392],[-1,0]],[[3482,3391],[1,1]],[[3483,3387],[0,-1],[0,1]],[[3484,3386],[-1,1]],[[3002,681],[-37,-7]],[[2965,673],[37,7]],[[3028,696],[-25,-15]],[[3003,681],[24,15]],[[3024,744],[-1,-12]],[[3024,733],[10,-13]],[[3028,696],[-4,36]],[[3035,721],[-10,23]],[[3076,728],[-41,-7]],[[3035,720],[12,-1],[14,2],[1,-2],[6,3],[2,-3],[4,6]],[[3120,797],[-44,-68]],[[3003,681],[-1,0],[0,-1]],[[3002,680],[1,1]],[[3024,733],[-1,-1],[1,0],[0,1]],[[3024,744]],[[3034,720],[1,0],[0,1],[-1,-1]],[[3076,728],[1,0],[-1,1]],[[3076,729],[0,-1]],[[3479,3408],[0,1]],[[3483,3394],[-1,4]],[[3239,2780],[6,-3]],[[3314,1284],[-20,-22]],[[3389,1349],[-75,-64]],[[3120,797],[7,11]],[[1873,2465],[116,11]],[[1989,2476],[2,1],[103,-41],[-105,40]],[[1989,2476],[-2,1],[-112,-11]],[[2448,2242],[-19,12]],[[2593,2211],[-9,3]],[[3303,2074],[-53,-41],[-2,1]],[[3248,2034],[-59,26]],[[3189,2060],[-3,2],[-11,11]],[[3175,2073],[-7,7],[0,1],[-11,20],[-3,2],[-67,9],[-113,35]],[[2975,2146],[112,-34],[70,-11],[11,-21],[7,-7]],[[3175,2073],[9,-8],[5,-5]],[[3189,2060],[36,-33],[23,7]],[[3248,2034],[5,1],[12,11]],[[433,2128],[-170,52]],[[577,2487],[1,-1]],[[578,2486],[0,1]],[[578,2486],[119,-66],[18,-62],[-19,-82]],[[1873,94],[-9,28],[-30,-11],[-14,-66]],[[122,2666],[1,-10]],[[3228,2827],[10,-47]],[[3239,2780],[-11,45]],[[2872,656],[-61,-22],[-108,-98],[-129,-7],[-40,-29]],[[2915,664],[-41,-7]],[[2875,656],[41,7]],[[2965,674],[-48,-10]],[[2917,663],[48,10]],[[3292,1225],[-121,-336]],[[3294,1262],[-2,-37]],[[3314,1285],[0,-1]],[[3439,1468],[1,-80],[-51,-39]],[[3438,1470],[1,0]],[[3439,1470]],[[3439,1470],[1,1]],[[3441,1474],[-2,-2]],[[3439,1472],[-1,-1],[1,-1]],[[3439,1470]],[[3439,1470],[1,1],[-1,1]],[[3440,1471],[1,3]],[[3887,1600],[-64,67],[-63,14],[-178,-93],[-68,-67],[-48,0],[-25,-47]],[[3889,1600],[-2,0]],[[3887,1600],[2,-1]],[[3889,1599],[2,-1]],[[3891,1598],[-1,2]],[[3993,1629],[-37,-34],[-65,3]],[[4096,1798],[-101,-168]],[[2917,664],[-1,0],[0,-1],[1,1]],[[3889,1600],[0,-1],[0,1]],[[3526,3296],[-27,48]],[[2158,1389],[14,10]],[[2171,1399],[-13,-9]],[[2176,1403],[-4,-3]],[[2173,1400],[3,3]],[[2546,1943],[-3,-5]],[[1820,45],[-38,-45]],[[0,3520],[9,22]],[[93,3749],[-29,-104],[-30,3]],[[2233,3712],[1,-1]],[[2236,3711],[-2,1]],[[0,0],[0,4096],[4096,0],[0,-4096],[-4096,0]],[[0,3424],[30,-19],[-4,-59],[30,-59],[-7,-49],[-49,-42],[0,228]],[[2264,690],[34,53],[83,14],[33,30],[108,-39],[-33,-135],[-110,8],[-115,69]],[[902,1785],[57,232],[96,27],[22,36],[88,-29],[32,-63],[-49,-44],[8,-69],[10,-29],[45,-4],[44,-44],[10,-107],[-83,18],[-38,-47],[36,-110],[-27,-107],[-114,53],[-34,41],[-24,108],[-43,13],[33,77],[-69,48]],[[2176,0],[86,133],[111,42],[21,50],[53,4],[18,87],[48,64],[-5,99],[57,-130],[-20,-49],[19,-42],[-38,-61],[45,-94],[72,-63],[3,-40],[-470,0]],[[4096,852],[0,-196],[-196,-184],[-310,-94],[-82,-123],[-126,7],[-42,-52],[-144,-29],[4,-28],[-81,-73],[21,-32],[-30,-48],[-178,0],[-5,14],[44,42],[28,-54],[16,14],[15,44],[-39,27],[31,32],[-17,54],[26,35],[93,15],[-4,33],[39,21],[-36,56],[62,-22],[11,50],[48,26],[126,-44],[79,42],[32,82],[67,34],[-7,25],[112,16],[-14,53],[-111,-12],[-112,30],[-133,-26],[-143,54],[19,33],[63,-38],[87,20],[46,68],[-12,53],[68,23],[-5,32],[35,37],[-45,54],[13,32],[101,47],[109,-72],[80,66],[125,-38],[22,-102],[-117,4],[-26,-20],[-7,-68],[-106,-9],[-3,-44],[35,-28],[146,-39],[176,77],[9,31],[117,84],[26,8]],[[2654,0],[-8,0],[-3,40],[-72,63],[-45,94],[38,61],[-19,44],[61,69],[34,30],[76,2],[-2,-52],[-31,-7],[36,-41],[-60,-39],[7,-78],[-73,-68],[67,-25],[-22,-39],[11,-23],[-1,-19],[6,-12]],[[163,2024],[31,77],[-16,40],[74,6],[37,-30],[-21,-55],[36,5],[-42,-75],[42,-13],[-3,-19],[89,31],[8,-84],[51,-25],[43,65],[-49,69],[162,-1],[93,140],[29,-126],[17,45],[51,-27],[25,-60],[-20,-41],[43,15],[-7,38],[63,107],[-27,23],[-106,-21],[10,27],[57,25],[15,55],[50,9],[19,41],[75,32],[67,-6],[94,-187],[-15,-36],[-62,13],[-21,-37],[-96,-26],[-40,-136],[-144,7],[-39,28],[-99,-41],[-22,-89],[-60,43],[-29,-57],[-93,-10],[-15,-52],[-100,50],[-89,89],[-66,174]],[[2264,690],[34,53],[83,14],[33,30],[108,-39],[-33,-135],[-110,8],[-115,69]],[[2542,1941],[103,50],[9,-40],[44,12],[30,-24],[-171,-25],[-15,27]],[[3680,1984],[14,45],[64,9],[49,-47],[17,-47],[-20,13],[5,-33],[-32,-16],[-18,-44],[69,53],[48,5],[14,-44],[-25,-10],[-19,-76],[-72,-33],[-81,92],[-13,133]],[[3684,0],[-39,0],[0,2],[39,-2]],[[3067,648],[-126,58],[-40,131],[84,64],[105,16],[100,-34],[67,-90],[-57,-119],[-133,-26]],[[2306,1502],[45,-138],[-74,1],[-129,-53],[-56,8],[-65,132],[78,97],[106,16],[95,-63]],[[1865,2594],[0,-44],[-64,44],[-59,-85],[-39,-3],[27,108],[59,62],[173,50],[5,-71],[-102,-61]],[[3633,3653],[30,-120],[-37,-182],[-21,-30],[-219,-68],[-91,162],[59,146],[0,88],[33,14],[96,-58],[97,44],[0,44],[53,-40]],[[4096,2580],[0,-226],[-31,21],[0,87],[-58,-14],[-59,-66],[-44,37],[65,132],[127,29]],[[391,1326],[17,90],[108,-28],[4,28],[58,8],[52,45],[84,-78],[79,3],[52,-99],[40,-4],[-1,-242],[-63,-78],[18,-66],[-47,-12],[-59,38],[-47,-6],[-54,-77],[-57,-11],[-31,-40],[-81,39],[-24,49],[30,203],[-25,83],[13,55],[-63,39],[-3,61]],[[74,1526],[86,104],[115,-13],[19,-59],[101,-107],[-2,-101],[-130,-30],[-39,69],[-78,32],[-5,46],[-67,59]],[[312,1537],[54,53],[0,48],[69,122],[91,11],[27,57],[64,-42],[22,86],[105,45],[28,-28],[86,6],[72,-25],[-29,-87],[69,-46],[-33,-77],[44,-14],[6,-78],[51,-70],[118,-64],[-54,-45],[-125,-20],[-90,30],[-74,-12],[-40,33],[-62,-9],[-80,74],[-60,-46],[-55,-5],[-4,-28],[-92,5],[-108,126]],[[3846,0],[-59,0],[-2,15],[17,-12],[53,43],[-9,-46]],[[2955,757],[6,55],[27,19],[47,-37],[49,6],[12,-27],[17,26],[37,-10],[-59,-104],[-96,-73],[-27,32],[-13,113]],[[2071,1501],[79,10],[13,-47],[46,-37],[-17,-20],[29,-20],[-3,-60],[29,-26],[-144,10],[-13,54],[42,-6],[5,34],[-66,108]],[[1694,2483],[19,41],[121,49],[6,-61],[40,-44],[-64,-21],[-21,-52],[-101,88]],[[4096,2565],[0,-35],[-45,-21],[-81,141],[71,-7],[17,-58],[38,-20]],[[3449,2321],[14,64],[40,-10],[12,46],[39,-1],[-2,-72],[-61,-48],[-42,21]],[[4096,2436],[0,-88],[-35,-28],[-43,86],[36,4],[-6,42],[21,8],[27,-24]],[[442,3109],[30,137],[26,-8],[52,69],[76,-13],[-47,-160],[-94,-39],[-43,14]],[[1326,3166],[60,45],[-10,42],[20,-35],[27,23],[29,-29],[-39,-82],[-46,3],[-7,37],[-32,-20],[-2,16]],[[1065,2580],[156,72],[121,-6],[44,-19],[134,-130],[46,12],[83,-30],[-132,-2],[-64,42],[-63,90],[-69,24],[-31,-27],[-55,27],[-53,-43],[-117,-10]],[[3340,3265],[8,46],[48,11],[-26,19],[11,20],[33,-10],[-11,22],[48,45],[28,-9],[-15,-16],[1,-4],[27,14],[-40,-40],[24,-44],[-12,-33],[-32,6],[-26,-49],[-3,25],[-63,-3]],[[945,2795],[36,99],[105,55],[111,-12],[46,-49],[92,-32],[27,54],[109,-86],[122,24],[47,23],[44,75],[-9,103],[-30,26],[63,37],[20,41],[38,-20],[12,42],[51,-1],[13,-38],[44,37],[86,-13],[129,59],[34,-19],[54,-228],[-111,-29],[-105,7],[-52,-42],[-34,11],[-8,-29],[-48,36],[-37,-12],[-13,-41],[40,-78],[-31,-26],[18,-59],[-52,-64],[25,-74],[-93,-21],[-58,-55],[82,-42],[6,-44],[-23,-6],[27,-97],[-9,-60],[43,-68],[-22,-25],[5,-67],[-34,-23],[14,-18],[-65,-1],[19,-43],[-7,-138],[49,-41],[-20,8],[-23,-115],[-27,-5],[17,-26],[-34,-19],[55,-35],[-79,-33],[-35,-51],[-96,111],[10,41],[-87,135],[2,37],[-192,102],[-65,93],[30,79],[-49,125],[8,54],[107,140],[-69,50],[-18,43],[-84,20],[-62,51],[-1,52],[-49,-3],[44,38],[-45,26],[-8,54]]]}