{"objects":{"water":{"type":"GeometryCollection","geometries":[{"type":"Polygon","properties":{"source":"naturalearthdata.com","kind":"lake","name":"Lago de Izabal","area":786270272,"sort_rank":200,"min_zoom":0.0,"id":159},"arcs":[[16]]},{"type":"Polygon","properties":{"source":"naturalearthdata.com","kind":"lake","name":"Lago de Managua (Lake Xolotl\u00e1n)","area":1024317632,"sort_rank":200,"min_zoom":0.0,"id":284},"arcs":[[17]]},{"type":"Polygon","properties":{"source":"naturalearthdata.com","kind":"lake","name":"L. Gat\u00fan","area":495731456,"sort_rank":200,"min_zoom":0.0,"id":286},"arcs":[[18]]},{"type":"MultiPolygon","properties":{"source":"naturalearthdata.com","kind":"ocean","area":1444195503964160,"sort_rank":200,"min_zoom":0.0,"id":1},"arcs":[[[19],[20],[21],[22],[23],[24]],[[25],[26],[27],[28],[29],[30],[31],[32],[33],[34],[35],[36],[37],[38],[39],[40],[41],[42],[43],[44],[45]]]},{"type":"Polygon","properties":{"kind":"lake","name":"Lago Enriquillo","area":274652864,"sort_rank":200,"alkaline":true,"source":"naturalearthdata.com","min_zoom":0.0,"id":108},"arcs":[[46]]},{"type":"Polygon","properties":{"source":"naturalearthdata.com","kind":"lake","name":"Lago de Nicaragua","area":8295937536,"sort_rank":200,"min_zoom":0.0,"id":21},"arcs":[[47]]},{"type":"Point","properties":{"label_placement":true,"kind":"lake","name":"Lago de Nicaragua","area":8295937536,"sort_rank":200,"source":"naturalearthdata.com","min_zoom":0.0,"id":21},"coordinates":[827,2164]},{"type":"Point","properties":{"label_placement":true,"kind":"lake","name":"Lago de Managua (Lake Xolotl\u00e1n)","area":1024317632,"sort_rank":200,"source":"naturalearthdata.com","min_zoom":0.0,"id":284},"coordinates":[663,2300]},{"type":"Point","properties":{"label_placement":true,"kind":"lake","name":"Lago de Izabal","area":786270272,"sort_rank":200,"source":"naturalearthdata.com","min_zoom":0.0,"id":159},"coordinates":[165,2907]},{"type":"Point","properties":{"label_placement":true,"kind":"lake","name":"L. Gat\u00fan","area":495731456,"sort_rank":200,"source":"naturalearthdata.com","min_zoom":0.0,"id":286},"coordinates":[1842,1710]},{"type":"Point","properties":{"label_placement":true,"kind":"lake","name":"Lago Enriquillo","area":274652864,"sort_rank":200,"alkaline":true,"source":"naturalearthdata.com","min_zoom":0.0,"id":108},"coordinates":[3341,3450]},{"type":"LineString","properties":{"source":"naturalearthdata.com","kind":"lake","sort_rank":367,"boundary":true,"min_zoom":0.0,"id":21},"arcs":[48]},{"type":"LineString","properties":{"source":"naturalearthdata.com","kind":"ocean","sort_rank":205,"boundary":true,"min_zoom":0.0,"id":73},"arcs":[49]},{"type":"LineString","properties":{"source":"naturalearthdata.com","kind":"lake","sort_rank":367,"alkaline":true,"boundary":true,"min_zoom":0.0,"id":108},"arcs":[50]},{"type":"MultiLineString","properties":{"source":"naturalearthdata.com","kind":"ocean","sort_rank":205,"boundary":true,"min_zoom":0.0,"id":126},"arcs":[[51],[52],[53]]},{"type":"LineString","properties":{"source":"naturalearthdata.com","kind":"ocean","sort_rank":205,"boundary":true,"min_zoom":0.0,"id":134},"arcs":[54]},{"type":"LineString","properties":{"source":"naturalearthdata.com","kind":"ocean","sort_rank":205,"boundary":true,"min_zoom":0.0,"id":157},"arcs":[55]},{"type":"LineString","properties":{"source":"naturalearthdata.com","kind":"ocean","sort_rank":205,"boundary":true,"min_zoom":0.0,"id":159},"arcs":[56]},{"type":"LineString","properties":{"source":"naturalearthdata.com","kind":"lake","sort_rank":367,"boundary":true,"min_zoom":0.0,"id":159},"arcs":[57]},{"type":"LineString","properties":{"source":"naturalearthdata.com","kind":"ocean","sort_rank":205,"boundary":true,"min_zoom":0.0,"id":205},"arcs":[58]},{"type":"LineString","properties":{"source":"naturalearthdata.com","kind":"lake","sort_rank":367,"boundary":true,"min_zoom":0.0,"id":284},"arcs":[59]},{"type":"LineString","properties":{"source":"naturalearthdata.com","kind":"lake","sort_rank":367,"boundary":true,"min_zoom":0.0,"id":286},"arcs":[60]},{"type":"LineString","properties":{"source":"naturalearthdata.com","kind":"ocean","sort_rank":205,"boundary":true,"min_zoom":0.0,"id":300},"arcs":[61]},{"type":"LineString","properties":{"source":"naturalearthdata.com","kind":"ocean","sort_rank":205,"boundary":true,"min_zoom":0.0,"id":1044},"arcs":[62]},{"type":"LineString","properties":{"source":"naturalearthdata.com","kind":"ocean","sort_rank":205,"boundary":true,"min_zoom":0.0,"id":1050},"arcs":[63]},{"type":"LineString","properties":{"source":"naturalearthdata.com","kind":"ocean","sort_rank":205,"boundary":true,"min_zoom":0.0,"id":1061},"arcs":[64]},{"type":"LineString","properties":{"source":"naturalearthdata.com","kind":"ocean","sort_rank":205,"boundary":true,"min_zoom":0.0,"id":1066},"arcs":[65]},{"type":"LineString","properties":{"source":"naturalearthdata.com","kind":"ocean","sort_rank":205,"boundary":true,"min_zoom":0.0,"id":1067},"arcs":[66]},{"type":"LineString","properties":{"source":"naturalearthdata.com","kind":"ocean","sort_rank":205,"boundary":true,"min_zoom":0.0,"id":1069},"arcs":[67]},{"type":"LineString","properties":{"source":"naturalearthdata.com","kind":"ocean","sort_rank":205,"boundary":true,"min_zoom":0.0,"id":1070},"arcs":[68]},{"type":"LineString","properties":{"source":"naturalearthdata.com","kind":"ocean","sort_rank":205,"boundary":true,"min_zoom":0.0,"id":1071},"arcs":[69]},{"type":"LineString","properties":{"source":"naturalearthdata.com","kind":"ocean","sort_rank":205,"boundary":true,"min_zoom":0.0,"id":1076},"arcs":[70]},{"type":"LineString","properties":{"source":"naturalearthdata.com","kind":"ocean","sort_rank":205,"boundary":true,"min_zoom":0.0,"id":1091},"arcs":[71]},{"type":"LineString","properties":{"source":"naturalearthdata.com","kind":"ocean","sort_rank":205,"boundary":true,"min_zoom":0.0,"id":1092},"arcs":[72]},{"type":"LineString","properties":{"source":"naturalearthdata.com","kind":"ocean","sort_rank":205,"boundary":true,"min_zoom":0.0,"id":1093},"arcs":[73]},{"type":"MultiLineString","properties":{"source":"naturalearthdata.com","kind":"ocean","sort_rank":205,"boundary":true,"min_zoom":0.0,"id":1094},"arcs":[[74],[75]]},{"type":"LineString","properties":{"source":"naturalearthdata.com","kind":"ocean","sort_rank":205,"boundary":true,"min_zoom":0.0,"id":1095},"arcs":[76]},{"type":"LineString","properties":{"source":"naturalearthdata.com","kind":"ocean","sort_rank":205,"boundary":true,"min_zoom":0.0,"id":1132},"arcs":[77]},{"type":"LineString","properties":{"source":"naturalearthdata.com","kind":"ocean","sort_rank":205,"boundary":true,"min_zoom":0.0,"id":1133},"arcs":[78]},{"type":"LineString","properties":{"source":"naturalearthdata.com","kind":"ocean","sort_rank":205,"boundary":true,"min_zoom":0.0,"id":1134},"arcs":[79]},{"type":"LineString","properties":{"source":"naturalearthdata.com","kind":"ocean","sort_rank":205,"boundary":true,"min_zoom":0.0,"id":1148},"arcs":[80]},{"type":"MultiLineString","properties":{"source":"naturalearthdata.com","kind":"ocean","sort_rank":205,"boundary":true,"min_zoom":0.0,"id":1201},"arcs":[[81],[82]]},{"type":"LineString","properties":{"source":"naturalearthdata.com","kind":"ocean","sort_rank":205,"boundary":true,"min_zoom":0.0,"id":1354},"arcs":[83]},{"type":"LineString","properties":{"source":"naturalearthdata.com","kind":"ocean","sort_rank":205,"boundary":true,"min_zoom":0.0,"id":1382},"arcs":[84]},{"type":"LineString","properties":{"source":"naturalearthdata.com","kind":"ocean","sort_rank":205,"boundary":true,"min_zoom":0.0,"id":1425},"arcs":[85]},{"type":"Point","properties":{"label_placement":true,"kind":"sea","name":"Caribbean Sea","source":"openstreetmap.org","sort_rank":200,"min_zoom":3.0,"id":305640123},"coordinates":[2731,2800]}]},"buildings":{"type":"GeometryCollection","geometries":[]},"places":{"type":"GeometryCollection","geometries":[{"type":"Point","properties":{"name:pt":"Col\u00f4mbia","name:ps":"\u06a9\u0648\u0644\u0645\u0628\u06cc\u0627","name:ka":"\u10d9\u10dd\u10da\u10e3\u10db\u10d1\u10d8\u10d0","name:mt":"Kolumbja","name:ko":"\ucf5c\ub86c\ube44\uc544","name:cv":"\u041a\u043e\u043b\u0443\u043c\u0431\u0438","name:km":"\u1780\u17bc\u17a1\u17bb\u17c6\u1794\u17ca\u17b8","name:cs":"Kolumbie","name:ki":"Kolombia","name:kw":"Kolombi","name:tr":"Kolombiya","name:ku":"Kolombiya","name:ti":"\u12ae\u120e\u121d\u1262\u12eb","name:ks":"\u06a9\u0648\u0644\u064e\u0645\u0628\u0650\u06cc\u0627","name:to":"Kolomipia","name:tl":"Kolombiya","name:pa":"\u0a15\u0a4b\u0a32\u0a70\u0a2c\u0a40\u0a06","name:os":"\u041a\u043e\u043b\u0443\u043c\u0431\u0438","name:or":"\u0b15\u0b4b\u0b32\u0b2e\u0b4d\u0b2c\u0b3f\u0b06","name:ce":"\u041a\u043e\u043b\u0443\u043c\u0431\u0438","name:ta":"\u0b95\u0bca\u0bb2\u0bae\u0bcd\u0baa\u0bbf\u0baf\u0bbe","name:tg":"\u041a\u043e\u043b\u0443\u043c\u0431\u0438\u044f","name:ca":"Col\u00f2mbia","name:te":"\u0c15\u0c4a\u0c32\u0c02\u0c2c\u0c3f\u0c2f\u0c3e","name:ro":"Columbia","name:hr":"Kolumbija","name:ln":"Kolombi","name:de":"Kolumbien","name:dz":"\u0f40\u0f7c\u0f0b\u0f63\u0f7c\u0f58\u0f0b\u0f56\u0fb7\u0f72\u0f0b\u0f61","source":"openstreetmap.org","name:nv":"Kol\u00e1mbiya","name:xh":"IsiColombia","name:kn":"\u0c95\u0cca\u0cb2\u0c82\u0cac\u0cbf\u0caf\u0cbe","name:yi":"\u05e7\u05d0\u05dc\u05d0\u05de\u05d1\u05d9\u05e2","name:dv":"\u0786\u07ae\u078d\u07a6\u0782\u07b0\u0784\u07a8\u0787\u07a7","name:lv":"Kolumbija","name:lt":"Kolumbija","name:uz":"Kolumbiya","name:kk":"\u041a\u043e\u043b\u0443\u043c\u0431\u0438\u044f","name:he":"\u05e7\u05d5\u05dc\u05d5\u05de\u05d1\u05d9\u05d4","min_zoom":2.0,"kind":"country","name:ur":"\u06a9\u0648\u0644\u0645\u0628\u06cc\u0627","name:lb":"Kolumbien","name:la":"Columbia","name:lg":"Kolombya","name:uk":"\u041a\u043e\u043b\u0443\u043c\u0431\u0456\u044f","name:hy":"\u053f\u0578\u056c\u0578\u0582\u0574\u0562\u056b\u0561","name:ug":"\u0643\u0648\u0644\u0648\u0645\u0628\u0649\u064a\u06d5","name:hu":"Kolumbia","name:qu":"Kulumbya","name:lo":"\u0ec2\u0e84\u0ea5\u0eb3\u0ec0\u0e9a\u0e8d","name:oc":"Col\u00f3mbia","population":44050548,"name:el":"\u039a\u03bf\u03bb\u03bf\u03bc\u03b2\u03af\u03b1","name:eo":"Kolombio","name":"Colombia","name:is":"K\u00f3lumb\u00eda","name:ee":"Kolombia nutome","name:th":"\u0e1b\u0e23\u0e30\u0e40\u0e17\u0e28\u0e42\u0e04\u0e25\u0e2d\u0e21\u0e40\u0e1a\u0e35\u0e22","name:eu":"Kolonbia","name:yo":"Or\u00edl\u1eb9\u0301\u00e8de K\u00f2l\u00f3m\u00edb\u00eca","name:ay":"Kuluwya","name:rm":"Columbia","name:rn":"Kolombiya","name:az":"Kolumbiya","name:ie":"Columbia","name:id":"Kolombia","name:mr":"\u0915\u094b\u0932\u092e\u094d\u092c\u093f\u092f\u093e","name:ar":"\u0643\u0648\u0644\u0648\u0645\u0628\u064a\u0627","name:my":"\u1000\u102d\u102f\u101c\u1036\u1018\u102e\u101a\u102c","name:io":"Kolumbia","name:gn":"Kol\u00f3mbia","name:ak":"Kolombia","name:am":"\u12ae\u120e\u121d\u1262\u12eb","name:fo":"Kolombia","name:ml":"\u0d15\u0d4a\u0d33\u0d02\u0d2c\u0d3f\u0d2f","name:ru":"\u041a\u043e\u043b\u0443\u043c\u0431\u0438\u044f","name:rw":"Kolombiya","name:pl":"Kolumbia","name:mk":"\u041a\u043e\u043b\u0443\u043c\u0431\u0438\u0458\u0430","name:af":"Kolombi\u00eb","name:zu":"i-Colombia","name:ha":"Kolambiya","name:mn":"\u041a\u043e\u043b\u0443\u043c\u0431","name:ff":"Kolombiya","name:fi":"Kolumbia","name:hi":"\u0915\u094b\u0932\u092e\u094d\u092c\u093f\u092f\u093e","name:mg":"K\u00f4l\u00f4mbia","id":424314631,"official_name":"Rep\u00fablica de Colombia","name:fr":"Colombie","name:fy":"Kolombia","name:vo":"Kolumb\u00e4n","name:zh":"\u54e5\u4f26\u6bd4\u4e9a","name:so":"Kolombiya","name:sn":"Kolombia","name:sl":"Kolumbija","name:sk":"Kolumbia","name:ja":"\u30b3\u30ed\u30f3\u30d3\u30a2","name:si":"\u0d9a\u0ddc\u0dc5\u0ddc\u0db8\u0dca\u0db6\u0dd2\u0dba\u0dcf\u0dc0","name:fa":"\u06a9\u0644\u0645\u0628\u06cc\u0627","name:sg":"Kolomb\u00efi","name:na":"Korombiya","name:se":"Kolombia","name:ne":"\u0915\u094b\u0932\u094b\u092e\u094d\u092c\u093f\u092f\u093e","name:br":"Kolombia","name:bs":"Kolumbija","name:bm":"Kolombi","name:bn":"\u0995\u09cb\u09b2\u09cb\u09ae\u09cd\u09ac\u09bf\u09af\u09bc\u09be","name:bo":"\u0f40\u0f7c\u0f0b\u0f63\u0f7c\u0f58\u0f0b\u0f56\u0f72\u0f0b\u0f61\u0f0d","name:sa":"\u0915\u094b\u0932\u094b\u092e\u094d\u092c\u093f\u092f\u093e","name:sw":"Kolombia","name:be":"\u041a\u0430\u043b\u0443\u043c\u0431\u0456\u044f","name:su":"Kolombia","name:bg":"\u041a\u043e\u043b\u0443\u043c\u0431\u0438\u044f","name:wo":"Koloombi","name:sr":"\u041a\u043e\u043b\u0443\u043c\u0431\u0438\u0458\u0430","name:sq":"Kolumbi","name:ga":"An Chol\u00f3im","name:gd":"Coloimbia","name:ht":"Kolonbi","name:jv":"Kolombia","name:gv":"Yn Cholombey","name:gu":"\u0a95\u0acb\u0ab2\u0aae\u0acd\u0aac\u0abf\u0aaf\u0abe","name:tt":"\u041a\u043e\u043b\u0443\u043c\u0431\u0438\u044f"},"coordinates":[2952,539]},{"type":"Point","properties":{"name:ps":"\u06ab\u0648\u0627\u062a\u0645\u0627\u0644\u0627","name:ka":"\u10d2\u10d5\u10d0\u10e2\u10d4\u10db\u10d0\u10da\u10d0","name:ko":"\uacfc\ud14c\ub9d0\ub77c","name:kn":"\u0c97\u0ccd\u0cb5\u0cbe\u0c9f\u0cc6\u0cae\u0cbe\u0cb2","name:km":"\u17a0\u17d2\u1782\u17b6\u178f\u17c1\u1798\u17c9\u17b6\u17a1\u17b6","name:kk":"\u0413\u0432\u0430\u0442\u0435\u043c\u0430\u043b\u0430","name:tt":"\u0413\u0432\u0430\u0442\u0435\u043c\u0430\u043b\u0430","name:kw":"Gwatemala","name:th":"\u0e1b\u0e23\u0e30\u0e40\u0e17\u0e28\u0e01\u0e31\u0e27\u0e40\u0e15\u0e21\u0e32\u0e25\u0e32","name:tl":"Guwatemala","name:pa":"\u0a17\u0a41\u0a06\u0a24\u0a47\u0a2e\u0a3e\u0a32\u0a3e","name:os":"\u0413\u0432\u0430\u0442\u0435\u043c\u0430\u043b\u00e6","name:ce":"\u0413\u0432\u0430\u0442\u0435\u043c\u0430\u043b\u0430","name:ta":"\u0b95\u0bc1\u0bb5\u0bbe\u0ba4\u0bcd\u0ba4\u0bae\u0bbe\u0bb2\u0bbe","name:tg":"\u0413\u0443\u0430\u0442\u0435\u043c\u0430\u043b\u0430","name:qu":"Watimala","name:sr":"\u0413\u0432\u0430\u0442\u0435\u043c\u0430\u043b\u0430","source":"openstreetmap.org","name:dv":"\u078e\u07aa\u0787\u07a6\u0793\u07ac\u0789\u07a7\u078d\u07a7","name:lv":"Gvatemala","name:lt":"Gvatemala","name:hi":"\u0917\u094d\u0935\u093e\u091f\u0947\u092e\u093e\u0932\u093e","name:he":"\u05d2\u05d5\u05d0\u05d8\u05de\u05dc\u05d4","min_zoom":2.0,"kind":"country","name:ur":"\u06af\u0648\u0626\u0679\u06d2 \u0645\u0627\u0644\u0627","name:la":"Guatimalia","name:uk":"\u0413\u0432\u0430\u0442\u0435\u043c\u0430\u043b\u0430","name:hy":"\u0533\u057e\u0561\u057f\u0565\u0574\u0561\u056c\u0561","name:ug":"\u06af\u06cb\u0627\u062a\u06d0\u0645\u0627\u0644\u0627","name:hr":"Gvatemala","population":13824463,"name:el":"\u0393\u03bf\u03c5\u03b1\u03c4\u03b5\u03bc\u03ac\u03bb\u03b1","name:eo":"Gvatemalo","name":"Guatemala","name:is":"Gvatemala","name:ln":"Gwatemala","name:yi":"\u05d2\u05d5\u05d5\u05d0\u05d8\u05e2\u05de\u05d0\u05dc\u05e2","name:yo":"Guat\u1eb9m\u00e1l\u00e0","name:ht":"Gwatemala","name:ay":"Watimala","name:mt":"Gwatemala","name:az":"Qvatemala","name:mr":"\u0917\u094d\u0935\u093e\u0924\u0947\u092e\u093e\u0932\u093e","name:ar":"\u063a\u0648\u0627\u062a\u064a\u0645\u0627\u0644\u0627","name:my":"\u1002\u103d\u102b\u1010\u102e\u1019\u102c\u101c\u102c\u1014\u102d\u102f\u1004\u103a\u1004\u1036","name:mg":"Goatemala","name:am":"\u1313\u1274\u121b\u120b","name:ml":"\u0d17\u0d4d\u0d35\u0d3e\u0d1f\u0d4d\u0d1f\u0d3f\u0d2e\u0d3e\u0d32","name:ru":"\u0413\u0432\u0430\u0442\u0435\u043c\u0430\u043b\u0430","name:rw":"Gwatemala","id":1644732479,"name:mk":"\u0413\u0432\u0430\u0442\u0435\u043c\u0430\u043b\u0430","name:vo":"Gvatem\u00e4n","name:fa":"\u06af\u0648\u0627\u062a\u0645\u0627\u0644\u0627","name:mn":"\u0413\u0432\u0430\u0442\u0435\u043c\u0430\u043b","name:uz":"Gvatemala","name:fr":"Guat\u00e9mala","name:zh-yue":"\u5371\u5730\u99ac\u62c9","name:fy":"G\u00fbatemala","name:zh":"\u5371\u5730\u9a6c\u62c9","name:sm":"Tuatemala","name:sl":"Gvatemala","name:ja":"\u30b0\u30a2\u30c6\u30de\u30e9","name:sh":"Gvatemala","name:na":"Guatemara","name:ne":"\u0917\u094d\u0935\u093e\u091f\u0947\u092e\u093e\u0932\u093e","name:sa":"\u0917\u094d\u0935\u093e\u091f\u0947\u092e\u093e\u0932\u093e","name:bs":"Gvatemala","name:bm":"Gatemala","name:bn":"\u0997\u09c1\u09af\u09bc\u09be\u09a4\u09c7\u09ae\u09be\u09b2\u09be","name:bo":"\u0f42\u0f74\u0f0b\u0f5d\u0f7a\u0f0b\u0f50\u0f72\u0f0b\u0f58\u0f0b\u0f63\u0f0d","name:be":"\u0413\u0432\u0430\u0442\u044d\u043c\u0430\u043b\u0430","name:su":"Guat\u00e9mala","name:bg":"\u0413\u0432\u0430\u0442\u0435\u043c\u0430\u043b\u0430","name:ss":"IGwathamala","name:ba":"\u0413\u0432\u0430\u0442\u0435\u043c\u0430\u043b\u0430","name:ga":"Guatamala","name:gd":"Guatamala","name:wo":"Guwaatemala","name:pl":"Gwatemala","name:gv":"Yn Ghuatemaley"},"coordinates":[18,2919]},{"type":"Point","properties":{"name:cy":"Gweriniaeth Dominica","name:tr":"Dominik Cumhuriyeti","name:kn":"\u0ca1\u0cca\u0cae\u0cc6\u0ca8\u0cbf\u0c95\u0ccd \u0cb0\u0cbf\u0caa\u0cac\u0ccd\u0cb2\u0cbf\u0c95\u0ccd","name:km":"\u179f\u17b6\u1792\u17b6\u179a\u178e\u179a\u178a\u17d2\u178b\u178a\u17bc\u1798\u17b8\u1793\u17b8\u1780\u17c2\u1793","name:cs":"Dominik\u00e1nsk\u00e1 republika","name:ki":"Jamhuri ya Dominika","name:kw":"Repoblek Dhominikanek","name:ku":"Komara Dom\u00een\u00eek","name:ti":"\u12f6\u121a\u1292\u12ad \u122a\u1351\u1265\u120a\u12ad","name:ks":"\u0921\u094b\u092e\u094b\u0928\u093f\u0915\u0928 \u0930\u093f\u092a\u092c\u094d\u0932\u093f\u0915","name:to":"Lipapilika Tominika","name:tl":"Republikang Dominikana","name:ce":"\u0414\u043e\u043c\u0438\u043d\u0438\u043a\u0430\u043d \u041f\u0430\u0447\u0445\u044c\u0430\u043b\u043a\u0445","name:ta":"\u0b9f\u0bca\u0bae\u0bbf\u0ba9\u0bbf\u0b95\u0bcd\u0b95\u0ba9\u0bcd \u0b95\u0bc1\u0b9f\u0bbf\u0baf\u0bb0\u0b9a\u0bc1","name:tg":"\u04b6\u0443\u043c\u04b3\u0443\u0440\u0438\u0438 \u0414\u043e\u043c\u0438\u043d\u0438\u043a\u0430\u043d\u0430","name:te":"\u0c21\u0c4a\u0c2e\u0c3f\u0c28\u0c3f\u0c15\u0c28\u0c4d \u0c17\u0c23 \u0c30\u0c3e\u0c1c\u0c4d\u0c2f\u0c02","name:ka":"\u10d3\u10dd\u10db\u10d8\u10dc\u10d8\u10d9\u10d4\u10da\u10d7\u10d0 \u10e0\u10d4\u10e1\u10de\u10e3\u10d1\u10da\u10d8\u10d9\u10d0","name:hr":"Dominikanska Republika","name:da":"Dominikanske Republik","name:de":"Dominikanische Republik","name:dz":"\u0f4c\u0f7c\u0f0b\u0f58\u0f72\u0f0b\u0f53\u0f72\u0f0b\u0f40\u0f71\u0f53\u0f0b \u0f62\u0f72\u0f0b\u0f54\u0f56\u0f0b\u0f63\u0f72\u0f40","source":"openstreetmap.org","name:dv":"\u0791\u07ae\u0789\u07a8\u0782\u07a8\u0786\u07a6\u0782\u07b0 \u0796\u07aa\u0789\u07b0\u0780\u07ab\u0783\u07a8\u0787\u07b0\u0794\u07a7","name:lv":"Dominik\u0101nas Republika","name:lt":"Dominikos Respublika","name:uz":"Dominika Respublikasi","name:kk":"\u0414\u043e\u043c\u0438\u043d\u0438\u043a\u0430\u043d \u0420\u0435\u0441\u043f\u0443\u0431\u043b\u0438\u043a\u0430\u0441\u044b","name:ur":"\u062c\u0645\u06c1\u0648\u0631\u06cc\u06c1 \u0688\u0648\u0645\u06cc\u0646\u06cc\u06a9\u0627","name:lb":"Dominikanesch Republik","name:la":"Respublica Dominicana","name:lg":"Lipubulika ya Dominika","name:uk":"\u0414\u043e\u043c\u0456\u043d\u0456\u043a\u0430\u043d\u0441\u044c\u043a\u0430 \u0420\u0435\u0441\u043f\u0443\u0431\u043b\u0456\u043a\u0430","name:ug":"Dominikan Jumhuriyeti","name:li":"Dominicaanse Rippebliek","name:ln":"Republiki Dominikani","name:lo":"\u0eaa\u0eb2\u0e97\u0eb2\u0ea5\u0eb0\u0e99\u0eb0\u0ea5\u0eb1\u0e94 \u0ec2\u0e94\u0ea1\u0eb4\u0e99\u0eb4\u0e81\u0eb1\u0e99","name:el":"\u0394\u03bf\u03bc\u03b9\u03bd\u03b9\u03ba\u03b1\u03bd\u03ae \u0394\u03b7\u03bc\u03bf\u03ba\u03c1\u03b1\u03c4\u03af\u03b1","name:eo":"Domingo","name:en":"Dominican Republic","name":"Rep\u00fablica Dominicana","name:ee":"Dominika rep\u0254blik nutome","name:th":"\u0e2a\u0e32\u0e18\u0e32\u0e23\u0e13\u0e23\u0e31\u0e10\u0e42\u0e14\u0e21\u0e34\u0e19\u0e34\u0e01\u0e31\u0e19","name:eu":"Dominikar Errepublika","name:et":"Dominikaani Vabariik","name:ay":"Republika Duminikana","name:rm":"Republica Dominicana","name:rn":"Repubulika ya Dominika","name:az":"Dominikan Respublikas\u0131","name:id":"Republik Dominika","name:ar":"\u0627\u0644\u062c\u0645\u0647\u0648\u0631\u064a\u0629 \u0627\u0644\u062f\u0648\u0645\u064a\u0646\u064a\u0643\u064a\u0629","name:io":"Dominikana Republiko","name:ak":"D\u0254meneka Kurok\u025bse","name:am":"\u12f6\u121a\u1292\u12ad \u122a\u1351\u1265\u120a\u12ad","name:it":"Repubblica Dominicana","name:an":"Republica Dominicana","name:ru":"\u0414\u043e\u043c\u0438\u043d\u0438\u043a\u0430\u043d\u0441\u043a\u0430\u044f \u0420\u0435\u0441\u043f\u0443\u0431\u043b\u0438\u043a\u0430","name:rw":"Repubulika ya Dominikani","name:af":"Dominikaanse Republiek","name:zu":"i-Dominican Republic","name:zh-yue":"\u591a\u660e\u5c3c\u52a0","name:zh":"\u591a\u660e\u5c3c\u52a0\u5171\u548c\u570b","name:so":"Jamhuuriyadda Domeenika","name:sn":"Dominican Republic","name:sl":"Dominikanska republika","name:sk":"Dominik\u00e1nska republika","name:ja":"\u30c9\u30df\u30cb\u30ab\u5171\u548c\u56fd","name:si":"\u0da9\u0ddc\u0db8\u0dd2\u0db1\u0dd2\u0d9a\u0dcf \u0da2\u0db1\u0dbb\u0da2\u0dba","name:sh":"Dominikanska Republika","name:sg":"K\u00f6d\u00f6r\u00f6s\u00ease t\u00ee Domin\u00eeka","name:se":"Dominik\u00e1na d\u00e1ssev\u00e1ldi","name:sa":"\u0921\u094b\u092e\u094b\u0928\u093f\u0915\u0928 \u0930\u093f\u092a\u092c\u094d\u0932\u093f\u0915","name:bs":"Dominikanska Republika","name:bm":"D\u0254mimiki republiki","name:bn":"\u09a1\u09cb\u09ae\u09bf\u09a8\u09bf\u0995\u09be\u09a8 \u09aa\u09cd\u09b0\u099c\u09be\u09a4\u09a8\u09cd\u09a4\u09cd\u09b0","name:bo":"\u0f4c\u0f7c\u0f0b\u0f58\u0f72\u0f0b\u0f53\u0f72\u0f0b\u0f40\u0f53\u0f0b\u0f66\u0fa4\u0fb1\u0f72\u0f0b\u0f58\u0f50\u0f74\u0f53\u0f0b\u0f62\u0f92\u0fb1\u0f63\u0f0b\u0f41\u0f56\u0f0d","name:br":"Republik Dominikan","name:sw":"Jamhuri ya Dominika","name:be":"\u0414\u0430\u043c\u0456\u043d\u0456\u043a\u0430\u043d\u0441\u043a\u0430\u044f \u0420\u044d\u0441\u043f\u0443\u0431\u043b\u0456\u043a\u0430","name:su":"R\u00e9publik Dominika","name:bg":"\u0414\u043e\u043c\u0438\u043d\u0438\u043a\u0430\u043d\u0441\u043a\u0430 \u0440\u0435\u043f\u0443\u0431\u043b\u0438\u043a\u0430","name:ss":"Tibuse weDomonokha","name:sr":"\u0414\u043e\u043c\u0438\u043d\u0438\u043a\u0430\u043d\u0441\u043a\u0430 \u0420\u0435\u043f\u0443\u0431\u043b\u0438\u043a\u0430","name:sq":"Republika Dominikane","name:jv":"Republik Dominika","name:ia":"Republica Dominican","name:ps":"\u0689\u0648\u0645\u0646\u064a\u06a9\u0627\u0646 \u062c\u0645\u0647\u0648\u0631\u064a\u062a","name:mt":"Republikka Domenikana","name:oc":"Republica Dominicana","min_zoom":2.0,"name:ro":"Republica Dominican\u0103","name:ko":"\ub3c4\ubbf8\ub2c8\uce74 \uacf5\ud654\uad6d","name:zh-min-nan":"Dominic Ki\u014dng-h\u00f4-kok","name:os":"\u0414\u043e\u043c\u0438\u043d\u0438\u043a\u0430\u043d\u00e6\u0439\u044b \u0420\u0435\u0441\u043f\u0443\u0431\u043b\u0438\u043a\u00e6","name:or":"\u0b21\u0b4b\u0b2e\u0b3f\u0b28\u0b15\u0b3e\u0b28\u0b4d \u0b2a\u0b4d\u0b30\u0b1c\u0b3e\u0b24\u0b28\u0b4d\u0b24\u0b4d\u0b30","name:pl":"Dominikana","name:pa":"\u0a21\u0a4b\u0a2e\u0a3f\u0a28\u0a3f\u0a15\u0a3e\u0a08 \u0a17\u0a23\u0a30\u0a3e\u0a1c","name:hi":"\u0921\u094b\u092e\u093f\u0928\u093f\u0915\u0928 \u0917\u0923\u0930\u093e\u091c\u094d\u092f","name:sv":"Dominikanska republiken","name:he":"\u05d3\u05d5\u05de\u05d9\u05e0\u05d9\u05e7","name:ha":"Jamhuriyar Dominika","name:hy":"\u0534\u0578\u0574\u056b\u0576\u056b\u056f\u0575\u0561\u0576 \u0540\u0561\u0576\u0580\u0561\u057a\u0565\u057f\u0578\u0582\u0569\u0575\u0578\u0582\u0576","name:ht":"Repiblik dominik\u00e0n","name:hu":"Dominikai K\u00f6zt\u00e1rsas\u00e1g","name:qu":"Duminikana","population":10464474,"kind":"country","name:is":"D\u00f3min\u00edska l\u00fd\u00f0veldi\u00f0","name:yi":"\u05d3\u05d0\u05de\u05d9\u05e0\u05d9\u05e7\u05d0\u05e0\u05d9\u05e9\u05e2 \u05e8\u05e2\u05e4\u05d5\u05d1\u05dc\u05d9\u05e7","name:yo":"D\u00f3m\u00edn\u00edk\u00ec Ol\u00f3m\u00ecnira","alt_name:el":"\u039d\u03c4\u03bf\u03bc\u03b9\u03bd\u03b9\u03ba\u03b1\u03bd\u03ae \u0394\u03b7\u03bc\u03bf\u03ba\u03c1\u03b1\u03c4\u03af\u03b1","name:ms":"Republik Dominika","name:mr":"\u0921\u0949\u092e\u093f\u0928\u093f\u0915\u0928 \u092a\u094d\u0930\u091c\u093e\u0938\u0924\u094d\u0924\u093e\u0915","name:my":"\u1012\u102d\u102f\u1019\u102e\u1014\u102e\u1000\u1014\u103a","name:mg":"Repoblika Dominikanina","name:ml":"\u0d21\u0d4a\u0d2e\u0d28\u0d3f\u0d15\u0d4d\u0d15\u0d28\u0d4d\u200d \u0d31\u0d3f\u0d2a\u0d4d\u0d2a\u0d2c\u0d4d\u0d32\u0d3f\u0d15\u0d4d","name:vi":"C\u1ed9ng h\u00f2a Dominicana","name:mn":"\u0414\u043e\u043c\u0438\u043d\u0438\u043a\u0430\u043d\u044b \u0411\u04af\u0433\u0434 \u041d\u0430\u0439\u0440\u0430\u043c\u0434\u0430\u0445 \u0423\u043b\u0441","id":246422158,"name:mk":"\u0414\u043e\u043c\u0438\u043d\u0438\u043a\u0430\u043d\u0441\u043a\u0430 \u0420\u0435\u043f\u0443\u0431\u043b\u0438\u043a\u0430","name:vo":"Sandomin\u00e4n","name:fa":"\u062c\u0645\u0647\u0648\u0631\u06cc \u062f\u0648\u0645\u06cc\u0646\u06cc\u06a9\u0646","name:ff":"Ndenndanndi Dominika","name:fi":"Dominikaaninen tasavalta","name:fo":"Dominikanal\u00fd\u00f0veldi\u00f0","alt_name:vi":"C\u1ed9ng ho\u00e0 Dominicana","name:fr":"R\u00e9publique Dominicaine","name:fy":"de Dominikaanske Republyk","name:nl":"Dominicaanse Republiek","name:nn":"Den dominikanske republikken","name:no":"Den dominikanske republikk","name:na":"Ripubrikin Dominika","name:ne":"\u0921\u094b\u092e\u093f\u0928\u093f\u0915\u0928 \u0917\u0923\u0924\u0928\u094d\u0924\u094d\u0930","name:wo":"R\u00e9ewum Dominik","name:nv":"Domingo Bik\u00e9yah","name:ga":"An Phoblacht Dhoiminiceach","name:gd":"Poblachd Dhoiminicia","name:gv":"Yn Phobblaght Ghominicagh","name:gu":"\u0aa1\u0acb\u0aae\u0abf\u0aa8\u0abf\u0a95\u0aa8 \u0ab0\u0ac0\u0aaa\u0aac\u0acd\u0ab2\u0abf\u0a95","name:tt":"\u0414\u043e\u043c\u0438\u043d\u0438\u043a\u0430\u043d \u0496\u04e9\u043c\u04bb\u04af\u0440\u0438\u044f\u0442\u0435"},"coordinates":[3586,3565]},{"type":"Point","properties":{"name:kg":"Ayiti","name:ps":"\u0647\u06d0\u064a\u0627\u062a\u064a","name:ka":"\u10f0\u10d0\u10d8\u10e2\u10d8","name:ko":"\uc544\uc774\ud2f0","name:cv":"\u0413\u0430\u0438\u0442\u0438","name:km":"\u17a0\u17c3\u1791\u17b8","name:kk":"\u0410\u0438\u0442\u0438","name:tt":"\u0413\u0430\u0438\u0442\u0438","name:kw":"Hayti","name:ku":"Ha\u00eet\u00ee","name:ti":"\u1200\u12ed\u1272","name:ks":"\u06c1\u0627\u06cc\u062a\u06cc","name:tl":"Hayti","name:pa":"\u0a39\u0a48\u0a24\u0a40","name:os":"\u0413\u0430\u0438\u0442\u0438","name:or":"\u0b39\u0b3e\u0b07\u0b24\u0b3f","name:ce":"\u0413\u0430\u0438\u0442\u0438 \u041f\u0430\u0447\u0445\u044c\u0430\u043b\u043a\u0445","name:ta":"\u0b8e\u0baf\u0bbf\u0b9f\u0bcd\u0b9f\u0bbf","name:ht":"Ayiti","name:ca":"Hait\u00ed","name:te":"\u0c39\u0c48\u0c1f\u0c3f","name:qu":"Ayti","name:dz":"\u0f67\u0f7a\u0f0b\u0f4a\u0f72","source":"openstreetmap.org","name:nv":"H\u00e9\u00edtii","name:kn":"\u0cb9\u0cc8\u0c9f\u0cbf","name:dv":"\u0780\u07a6\u0787\u07a8\u0793\u07a9","name:lt":"Haitis","name:uz":"Gaiti","name:he":"\u05d4\u05d0\u05d9\u05d8\u05d9","min_zoom":2.0,"kind":"country","name:ur":"\u06c1\u06cc\u0679\u06cc","name:la":"Haitia","name:lg":"Hayiti","name:uk":"\u0413\u0430\u0457\u0442\u0456","name:hy":"\u0540\u0561\u0575\u056b\u0569\u056b","name:ug":"\u06be\u0627\u064a\u062a\u0649","name:li":"Ha\u00efti","name:ln":"Ayiti","name:lo":"\u0ec4\u0eae\u0e95\u0eb4","name:oc":"Hait\u00ed","population":9801664,"name:el":"\u0391\u03ca\u03c4\u03ae","name:eo":"Haitio","name":"Haiti","name:is":"Ha\u00edt\u00ed","name:ee":"Haiti nutome","name:th":"\u0e1b\u0e23\u0e30\u0e40\u0e17\u0e28\u0e40\u0e2e\u0e15\u0e34","name:yi":"\u05d4\u05d0\u05d9\u05d8\u05d9","name:es":"Hait\u00ed","name:ay":"Ayti","name:mt":"\u0126aiti","name:rn":"Hayiti","name:az":"Haiti Respublikas\u0131","name:ig":"Hati","name:mr":"\u0939\u0948\u0924\u0940","name:ar":"\u0647\u0627\u064a\u062a\u064a","name:my":"\u101f\u1031\u1010\u102e","official_name":"Repiblik Ayiti","name:ak":"Heiti","name:am":"\u1200\u12ed\u1272","name:an":"Ait\u00ed","name:ru":"\u0413\u0430\u0438\u0442\u0438","name:rw":"Hayiti","id":424297281,"name:mk":"\u0425\u0430\u0438\u0442\u0438","name:af":"Ha\u00efti","name:zu":"i-Haiti","name:mn":"\u0413\u0430\u0439\u0442\u0438","name:ff":"Haytii","name:hi":"\u0939\u0948\u0924\u0940","name:fr":"Ha\u00efti","name:zh-yue":"\u6d77\u5730","name:fy":"Ha\u00efty","name:vo":"Haitiy\u00e4n","name:zh":"\u6d77\u5730","name:so":"Hayti","name:nl":"Ha\u00efti","name:ja":"\u30cf\u30a4\u30c1","name:si":"\u0dc4\u0dba\u0dd2\u0da7\u0dd2","name:fa":"\u0647\u0627\u0626\u06cc\u062a\u06cc","name:sg":"Hait\u00efi","name:na":"Aiti","name:ne":"\u0939\u0948\u091f\u0940","name:bm":"Ayiti","name:bn":"\u09b9\u09be\u0987\u09a4\u09bf","name:bo":"\u0f67\u0f60\u0f72\u0f0b\u0f4f\u0f72\u0f0d","name:ml":"\u0d39\u0d46\u0d2f\u0d4d\u0d31\u0d4d\u0d31\u0d3f","name:be":"\u0413\u0430\u0456\u0446\u0456","name:bg":"\u0425\u0430\u0438\u0442\u0438","name:ss":"IHayithi","name:sr":"\u0425\u0430\u0438\u0442\u0438","name:sq":"Haitia","name:ga":"H\u00e1it\u00ed","name:gd":"Haidhti","name:wo":"Ayiti","name:wa":"Ayiti","name:gl":"Hait\u00ed","name:yo":"H\u00e0\u00edt\u00ec","name:gu":"\u0ab9\u0ac8\u0aa4\u0ac0"},"coordinates":[3212,3573]},{"type":"Point","properties":{"name:ps":"\u0647\u0627\u0646\u0689\u0648\u0631\u0627\u0633","name:ka":"\u10f0\u10dd\u10dc\u10d3\u10e3\u10e0\u10d0\u10e1\u10d8","name:ko":"\uc628\ub450\ub77c\uc2a4","name:kn":"\u0cb9\u0cca\u0c82\u0ca1\u0cc1\u0cb0\u0cbe\u0cb8\u0ccd","name:cu":"\u041e\u043d\u0434\u043e\u0443\u0440\u0430\u0441\u044a","name:kk":"\u0413\u043e\u043d\u0434\u0443\u0440\u0430\u0441","name:ki":"Hondurasi","name:kw":"Hondouras","name:ku":"Hond\u00fbras","name:ti":"\u1206\u1295\u12f1\u122b\u1235","name:ks":"\u06c1\u0627\u0646\u065b\u0688\u0648\u0657\u0631\u0650\u0633","name:to":"Honitulasi","name:pa":"\u0a39\u0a3e\u0a02\u0a21\u0a42\u0a30\u0a3e\u0a38","name:os":"\u0413\u043e\u043d\u0434\u0443\u0440\u0430\u0441","name:or":"\u0b39\u0b4b\u0b23\u0b4d\u0b21\u0b3e\u0b30\u0b41\u0b38\u0b4d","name:ce":"\u0413\u043e\u043d\u0434\u0443\u0440\u0430\u0441","name:ta":"\u0bb9\u0bbe\u0ba3\u0bcd\u0b9f\u0bc1\u0bb0\u0bbe\u0bb8\u0bcd","name:tg":"\u04b2\u043e\u043d\u0434\u0443\u0440\u0430\u0441","name:ca":"Hondures","name:te":"\u0c39\u0c4b\u0c02\u0c21\u0c4b\u0c30\u0c3e\u0c38\u0c4d","name:cy":"Hondwras","name:qu":"Unduras","name:sr":"\u0425\u043e\u043d\u0434\u0443\u0440\u0430\u0441","name:dz":"\u0f67\u0f71\u0f53\u0f0b\u0f4c\u0f74\u0f0b\u0f62\u0f71\u0f66\u0f84","source":"openstreetmap.org","name:dv":"\u0780\u07ae\u0782\u07b0\u0791\u07a8\u0787\u07aa\u0783\u07a6\u0790\u07b0","name:km":"\u17a0\u17bb\u1784\u178c\u17bd\u179a\u17c9\u17b6\u179f\u17cb","name:lv":"Hondurasa","name:lt":"Hond\u016bras","name:uz":"Gonduras","name:he":"\u05d4\u05d5\u05e0\u05d3\u05d5\u05e8\u05e1","min_zoom":2.0,"kind":"country","name:ur":"\u06c1\u0648\u0646\u0688\u0627\u0631\u0648\u0633","name:la":"Honduria","name:lg":"Hundurasi","name:uk":"\u0413\u043e\u043d\u0434\u0443\u0440\u0430\u0441","name:hy":"\u0540\u0578\u0576\u0564\u0578\u0582\u0580\u0561\u057d","name:ug":"\u06be\u0648\u0646\u062f\u06c7\u0631\u0627\u0633","name:ln":"Onduras\u025b","name:lo":"\u0eae\u0ead\u0e99\u0e94\u0eb9\u0ea3\u0eb1\u0eaa","population":7989415,"name:el":"\u039f\u03bd\u03b4\u03bf\u03cd\u03c1\u03b1","name:eo":"Honduro","name":"Honduras","name:ee":"Hondurasdu","name:th":"\u0e1b\u0e23\u0e30\u0e40\u0e17\u0e28\u0e2e\u0e2d\u0e19\u0e14\u0e39\u0e23\u0e31\u0e2a","name:gu":"\u0ab9\u0acb\u0aa8\u0acd\u0aa1\u0ac1\u0ab0\u0ab8","name:yi":"\u05d4\u05d0\u05e0\u05d3\u05d5\u05e8\u05d0\u05e1","name:yo":"Or\u00edl\u1eb9\u0301\u00e8de Hondurasi","name:mt":"\u0126onduras","name:rn":"Hondurasi","name:az":"Qonduras","name:mr":"\u0939\u094b\u0902\u0921\u0941\u0930\u093e\u091c\u094d","name:ar":"\u0647\u0646\u062f\u0648\u0631\u0627\u0633","name:my":"\u101f\u103d\u1014\u103a\u1012\u1030\u1038\u101b\u1015\u103a\u1005\u103a","official_name":"Rep\u00fablica de Honduras","name:is":"Hond\u00faras","name:am":"\u1206\u1295\u12f1\u122b\u1235","name:ml":"\u0d39\u0d4b\u0d23\u0d4d\u0d1f\u0d41\u0d31\u0d3e\u0d38\u0d4d","name:ru":"\u0413\u043e\u043d\u0434\u0443\u0440\u0430\u0441","name:rw":"Hondurasi","id":424297629,"name:mk":"\u0425\u043e\u043d\u0434\u0443\u0440\u0430\u0441","name:vo":"Hondur\u00e4n","name:zu":"i-Honduras","name:mn":"\u0413\u043e\u043d\u0434\u0443\u0440\u0430\u0441","name:ff":"Onnduraas","name:hi":"\u0939\u093e\u0923\u094d\u0921\u0942\u0930\u0938","name:mg":"Hondiorasy","alt_name:vi":"H\u00f4n-\u0111u-r\u00e1t","name:wo":"Onduras","name:ky":"\u0413\u043e\u043d\u0434\u0443\u0440\u0430\u0441","name:zh-yue":"\u6d2a\u90fd\u62c9\u65af","name:fy":"Hondueras","name:zh":"\u6d2a\u90fd\u62c9\u65af","name:sm":"Honilagi","name:ja":"\u30db\u30f3\u30b8\u30e5\u30e9\u30b9","name:si":"\u0dc4\u0ddc\u0db1\u0dca\u0da9\u0dd4\u0dbb\u0dcf\u0dc3\u0dca","name:fa":"\u0647\u0646\u062f\u0648\u0631\u0627\u0633","name:sg":"Hondur\u00e4si","name:na":"Ondurat","name:ne":"\u0939\u0928\u094d\u0921\u0941\u0930\u093e\u0938","name:sa":"\u0939\u093e\u0902\u0921\u0942\u0930\u0938","name:bm":"H\u0254ndirasi","name:bn":"\u09b9\u09a3\u09cd\u09a1\u09c1\u09b0\u09be\u09b8","name:bo":"\u0f67\u0f7c\u0f53\u0f0b\u0f51\u0f74\u0f0b\u0f62\u0f66\u0f84\u0f0d","name:sw":"Hondurasi","name:be":"\u0413\u0430\u043d\u0434\u0443\u0440\u0430\u0441","name:bg":"\u0425\u043e\u043d\u0434\u0443\u0440\u0430\u0441","name:ss":"IHondulasi","name:ba":"\u0413\u043e\u043d\u0434\u0443\u0440\u0430\u0441","name:sq":"Hondurasi","name:ga":"Hond\u00faras","name:gd":"Hond\u00f9ras","name:ht":"Ondiras","name:wa":"Hondourasse","name:gv":"Ny Hondooraghyn","name:ak":"H\u0254nduras","name:tt":"\u0413\u043e\u043d\u0434\u0443\u0440\u0430\u0441"},"coordinates":[983,2811]},{"type":"Point","properties":{"source":"naturalearthdata.com","kind":"locality","name":"Bogota","country_capital":true,"population":7772000,"min_zoom":2.0,"id":7277},"coordinates":[2897,858]},{"type":"Point","properties":{"name:ps":"\u0633\u0627\u0644\u0648\u06d0\u0689\u0648\u0631","name:cy":"El Salfador","name:ko":"\uc5d8\uc0b4\ubc14\ub3c4\ub974","name:kn":"\u0c8e\u0cb2\u0ccd \u0cb8\u0cbe\u0cb2\u0ccd\u0cb5\u0cc7\u0ca1\u0cbe\u0cb0\u0ccd","name:km":"\u17a2\u17c2\u179b\u179f\u17b6\u179b\u17cb\u179c\u17c9\u17b6\u178c\u17d0\u179a","name:cs":"Salvador","name:ki":"Elsavado","name:th":"\u0e1b\u0e23\u0e30\u0e40\u0e17\u0e28\u0e40\u0e2d\u0e25\u0e0b\u0e31\u0e25\u0e27\u0e32\u0e14\u0e2d\u0e23\u0e4c","name:ti":"\u12a4\u120d \u1233\u120d\u126b\u12f6\u122d","name:ks":"\u0627\u066e\u06ea\u0644 \u0633\u064e\u0644\u0648\u0627\u0691\u0648\u0631","name:to":"\u02bbEle Salavatoa","name:pa":"\u0a38\u0a3e\u0a32\u0a35\u0a3e\u0a26\u0a4b\u0a30","name:os":"\u0421\u0430\u043b\u044c\u0432\u0430\u0434\u043e\u0440","name:or":"\u0b0f\u0b32\u0b4d \u0b38\u0b3e\u0b32\u0b2d\u0b3e\u0b21\u0b4b\u0b30\u0b4d","name:ce":"\u0421\u0430\u043b\u044c\u0432\u0430\u0434\u043e\u0440","name:ta":"\u0b8e\u0bb2\u0bcd \u0b9a\u0bbe\u0bb2\u0bcd\u0bb5\u0b9f\u0bbe\u0bb0\u0bcd","name:tg":"\u0421\u0430\u043b\u0432\u0430\u0434\u043e\u0440","name:te":"\u0c0e\u0c32\u0c4d \u0c38\u0c3e\u0c32\u0c4d\u0c35\u0c21\u0c4b\u0c30\u0c4d","name:ka":"\u10e1\u10d0\u10da\u10d5\u10d0\u10d3\u10dd\u10e0\u10d8","name:hr":"Salvador","name:ln":"Savad\u0254r\u025b","name:sr":"\u0421\u0430\u043b\u0432\u0430\u0434\u043e\u0440","name:dz":"\u0f68\u0f7a\u0f63\u0f0b\u0f66\u0f63\u0f0b\u0f56\u0f0b\u0f4c\u0f7c\u0f62","source":"openstreetmap.org","name:dv":"\u0787\u07ac\u078d\u07b0\u0790\u07ac\u078d\u07b0\u0788\u07a6\u0791\u07af\u0783\u07aa","name:lv":"Salvadora","name:lt":"Salvadoras","name:hi":"\u0905\u0932 \u0938\u093e\u0932\u094d\u0935\u093e\u0921\u094b\u0930","name:kk":"\u042d\u043b\u044c-\u0421\u0430\u043b\u044c\u0432\u0430\u0434\u043e\u0440 \u0420\u0435\u0441\u043f\u0443\u0431\u043b\u0438\u043a\u0430\u0441\u044b","name:he":"\u05d0\u05dc \u05e1\u05dc\u05d1\u05d3\u05d5\u05e8","kind":"country","name:ur":"\u0627\u0644 \u0633\u0644\u0648\u0627\u0688\u0648\u0631","name:la":"Salvatoria","name:lg":"El salivado","name:uk":"\u0421\u0430\u043b\u044c\u0432\u0430\u0434\u043e\u0440","name:hy":"\u054d\u0561\u056c\u057e\u0561\u0564\u0578\u0580","name:ug":"\u0626\u06d5\u0644 \u0633\u0627\u0644\u06cb\u0627\u062f\u0648\u0631","name:qu":"Salwadur","name:lo":"\u0ead\u0eb5\u0ec1\u0ead\u0ea7 \u0e8a\u0ecd\u0ea7\u0eb2\u0e94\u0ecd","name:oc":"Lo Salvador","population":6000000,"name:el":"\u0395\u03bb \u03a3\u03b1\u03bb\u03b2\u03b1\u03b4\u03cc\u03c1","name:eo":"Salvadoro","name":"El Salvador","official_name":"Rep\u00fablica de El Salvador","name:ee":"El Salvad\u0254 nutome","min_zoom":2.0,"name:yi":"\u05e2\u05dc \u05e1\u05d0\u05dc\u05d5\u05d5\u05d0\u05d3\u05d0\u05e8","name:yo":"Or\u00edl\u1eb9\u0301\u00e8de \u1eb8\u1eb9s\u00e1f\u00e1d\u00f2","name:rn":"Eli Saluvatori","name:az":"Salvador","name:mr":"\u0905\u0932 \u0938\u093e\u0932\u094d\u0935\u093e\u0921\u094b\u0930","name:ar":"\u0627\u0644\u0633\u0644\u0641\u0627\u062f\u0648\u0631","name:my":"\u1021\u101a\u103a\u101c\u103a\u1006\u102c\u1017\u1031\u1038\u1012\u102d\u102f\u1038","name:io":"Salvadoria","name:ak":"\u0190l Salvad\u0254","name:am":"\u12a4\u120d \u1233\u120d\u126b\u12f6\u122d","name:ml":"\u0d0e\u0d7d \u0d38\u0d3e\u0d7d\u0d35\u0d26\u0d4b\u0d7c","name:ru":"\u0421\u0430\u043b\u044c\u0432\u0430\u0434\u043e\u0440","name:rw":"Saluvadoro","name:pl":"Salwador","name:mk":"\u0415\u043b \u0421\u0430\u043b\u0432\u0430\u0434\u043e\u0440","name:af":"Salvador","name:zu":"i-El Salvador","name:ha":"El Salbador","name:mn":"\u042d\u043b\u044c \u0421\u0430\u043b\u044c\u0432\u0430\u0434\u043e\u0440","name:ff":"El Salwador","id":424311802,"alt_name:vi":"En Xan-va-\u0111o","name:fr":"Salvador","name:wo":"Salbadoor","name:zh-yue":"\u85a9\u723e\u74e6\u591a","name:vo":"Salvador\u00e4n","name:zh":"\u8428\u5c14\u74e6\u591a","name:so":"El Salfador","name:sl":"Salvador","name:sk":"Salv\u00e1dor","name:ja":"\u30a8\u30eb\u30b5\u30eb\u30d0\u30c9\u30eb","name:si":"\u0d91\u0dbd\u0dca \u0dc3\u0dd0\u0dbd\u0dca\u0dc0\u0daf\u0ddd\u0dbb\u0dba","name:sh":"Salvador","name:sg":"Salvad\u00f6ro","name:na":"Ersarbador","name:ne":"\u090f\u0932\u094d \u0938\u093e\u0932\u094d\u092d\u093e\u0921\u094b\u0930","name:sa":"\u090f\u0932-\u0938\u093e\u0932\u094d\u0935\u093e\u0921\u094b\u0930","name:bs":"Salvador","name:bm":"Salivad\u0254r","name:bn":"\u098f\u09b2 \u09b8\u09be\u09b2\u09ad\u09c7\u09a6\u09b0","name:bo":"\u0f68\u0f7a\u0f63\u0f0d \u0f66\u0f71\u0f63\u0f0b\u0f5d\u0f0b\u0f4c\u0f7c\u0f62\u0f0d","name:br":"Salvador","name:sw":"Elsavado","name:be":"\u042d\u043b\u044c-\u0421\u0430\u043b\u044c\u0432\u0430\u0434\u043e\u0440","name:su":"\u00c9l Salvador","name:bg":"\u0415\u043b \u0421\u0430\u043b\u0432\u0430\u0434\u043e\u0440","name:ss":"ISalivado","name:ba":"\u0421\u0430\u043b\u044c\u0432\u0430\u0434\u043e\u0440","name:sq":"Salvadori","name:ga":"An tSalvad\u00f3ir","name:gd":"El Salbhador","name:ht":"Salvad\u00f2","name:gn":"Salvador","name:gl":"O Salvador - El Salvador","name:fa":"\u0627\u0644\u0633\u0627\u0644\u0648\u0627\u062f\u0648\u0631","name:gv":"Yn Salvador","name:gu":"\u0a8f\u0ab2 \u0ab8\u0ac7\u0ab2\u0acd\u0ab5\u0abe\u0aa1\u0acb\u0ab0","name:tt":"\u0421\u0430\u043b\u044c\u0432\u0430\u0434\u043e\u0440"},"coordinates":[198,2576]},{"type":"Point","properties":{"name:pt":"Nicar\u00e1gua","name:ps":"\u0646\u06a9\u0627\u0631\u0627\u06ab\u0648\u0627","name:ka":"\u10dc\u10d8\u10d9\u10d0\u10e0\u10d0\u10d2\u10e3\u10d0","name:mt":"Nikaragwa","name:tr":"Nikaragua","name:kn":"\u0ca8\u0cbf\u0c95\u0cbe\u0cb0\u0cbe\u0c97\u0cc1\u0cb5\u0cbe","name:km":"\u1793\u17b8\u1780\u17b6\u179a\u17c9\u17b6\u17a0\u17d2\u1782\u17d0\u179a","name:cs":"Nikaragua","name:ki":"Nikaragwa","name:kw":"Nikaragwa","name:kv":"\u041d\u0438\u043a\u0430\u0440\u0430\u0433\u0443\u0430","name:ku":"N\u00eekaragua","name:ti":"\u1292\u12ab\u122b\u1313","name:ks":"\u0646\u0627\u06a9\u0627\u0631\u0627\u06af\u064f\u0648\u0627","name:to":"Nikalakua","name:pa":"\u0a28\u0a3f\u0a15\u0a3e\u0a30\u0a3e\u0a17\u0a41\u0a06","name:os":"\u041d\u0438\u043a\u0430\u0440\u0430\u0433\u0443\u00e6","name:or":"\u0b28\u0b3f\u0b15\u0b3e\u0b30\u0b3e\u0b17\u0b41\u0b06","name:ce":"\u041d\u0438\u043a\u0430\u0440\u0430\u0433\u0443\u0430","name:ta":"\u0ba8\u0bbf\u0b95\u0bbe\u0bb0\u0b95\u0bc1\u0bb5\u0bbe","name:tg":"\u041d\u0438\u043a\u0430\u0440\u0430\u0433\u0443\u0430","name:te":"\u0c28\u0c3f\u0c15\u0c30\u0c3e\u0c17\u0c41\u0c35\u0c3e","name:cy":"Nicaragwa","source":"openstreetmap.org","name:ln":"Nikaragwa","name:sr":"\u041d\u0438\u043a\u0430\u0440\u0430\u0433\u0432\u0430","name:dz":"\u0f53\u0f72\u0f0b\u0f40\u0fb2\u0f0b\u0f5d\u0f0b\u0f42","name:ko":"\ub2c8\uce74\ub77c\uacfc","name:dv":"\u0782\u07a8\u0786\u07a6\u0783\u07a7\u078e\u07aa\u0787\u07a7","name:lv":"Nikaragva","name:lt":"Nikaragva","name:uz":"Nikaragua","name:kk":"\u041d\u0438\u043a\u0430\u0440\u0430\u0433\u0443\u0430","name:he":"\u05e0\u05d9\u05e7\u05e8\u05d2\u05d5\u05d0\u05d4","min_zoom":2.0,"kind":"country","name:ur":"\u0646\u06a9\u0627\u0631\u0627\u06af\u0648\u0648\u0627","name:lg":"Nikaraguwa","name:uk":"\u041d\u0456\u043a\u0430\u0440\u0430\u0433\u0443\u0430","name:hy":"\u0546\u056b\u056f\u0561\u0580\u0561\u0563\u0578\u0582\u0561","name:ug":"\u0646\u0649\u0643\u0627\u0631\u0627\u06af\u06c7\u0626\u0627","name:hr":"Nikaragva","name:lo":"\u0e99\u0eb4\u0e81\u0e84\u0eb2\u0ea5\u0eb2\u0e81\u0ebb\u0ea7","population":5727707,"name:el":"\u039d\u03b9\u03ba\u03b1\u03c1\u03ac\u03b3\u03bf\u03c5\u03b1","name:eo":"Nikaragvo","name":"Nicaragua","official_name":"Rep\u00fablica de Nicaragua","name:ee":"Nicaraguaduk\u0254","name:th":"\u0e1b\u0e23\u0e30\u0e40\u0e17\u0e28\u0e19\u0e34\u0e01\u0e32\u0e23\u0e32\u0e01\u0e31\u0e27","name:gu":"\u0aa8\u0abf\u0a95\u0abe\u0ab0\u0abe\u0a97\u0ac1\u0a86","name:eu":"Nikaragua","name:yo":"Or\u00edl\u1eb9\u0301\u00e8de NIkaragua","name:ay":"Nikarwa","name:yi":"\u05e0\u05d9\u05e7\u05d0\u05e8\u05d0\u05d2\u05d5\u05d0","name:rn":"Nikaragwa","name:az":"Nikaraqua","name:id":"Nikaragua","name:mr":"\u0928\u093f\u0915\u093e\u0930\u093e\u0917\u094d\u0935\u0947","name:qu":"Nikarawa","name:ar":"\u0646\u064a\u0643\u0627\u0631\u0627\u063a\u0648\u0627","name:my":"\u1014\u102e\u1000\u102c\u101b\u102c\u1002\u103d\u102c","name:io":"Nikaragua","name:gn":"Nikaragua","name:is":"N\u00edkaragva","name:am":"\u1292\u12ab\u122b\u1313","name:fo":"Nikaragua","name:ml":"\u0d28\u0d3f\u0d15\u0d4d\u0d15\u0d3e\u0d30\u0d17\u0d4d\u0d35","name:ru":"\u041d\u0438\u043a\u0430\u0440\u0430\u0433\u0443\u0430","name:rw":"Nikaragwa","name:pl":"Nikaragua","name:mk":"\u041d\u0438\u043a\u0430\u0440\u0430\u0433\u0432\u0430","name:vo":"Nikaraguv\u00e4n","name:zu":"i-Nicaragua","name:ha":"Nikaraguwa","name:mn":"\u041d\u0438\u043a\u0430\u0440\u0430\u0433\u0443\u0430","name:ff":"Nikaraguwaa","name:hi":"\u0928\u093f\u0915\u093e\u0930\u093e\u0917\u0941\u0906","name:mg":"Nikarago\u00e0","id":424316671,"name:wo":"Nikaraaguwa","name:zh-yue":"\u5c3c\u52a0\u62c9\u74dc","name:fy":"Nikaragua","name:zh":"\u5c3c\u52a0\u62c9\u74dc","name:so":"Nikaraaguwa","name:sl":"Nikaragva","name:sk":"Nikaragua","name:ja":"\u30cb\u30ab\u30e9\u30b0\u30a2","name:si":"\u0db1\u0dd2\u0d9a\u0dbb\u0d9c\u0dd4\u0dc0\u0dcf\u0dc0","name:sh":"Nikaragva","name:sg":"Nikaragua","name:ne":"\u0928\u093f\u0915\u093e\u0930\u093e\u0917\u0941\u0935\u093e","name:sa":"\u0928\u093f\u0915\u093e\u0930\u0917\u0941\u0935\u093e","name:bs":"Nikaragva","name:bm":"Nikaragwa","name:bn":"\u09a8\u09bf\u0995\u09be\u09b0\u09be\u0997\u09c1\u09af\u09bc\u09be","name:bo":"\u0f53\u0f72\u0f0b\u0f40\u0f0b\u0f62\u0f0b\u0f42\u0f74\u0f0b\u0f68\u0f0d","name:sw":"Nikaragwa","name:be":"\u041d\u0456\u043a\u0430\u0440\u0430\u0433\u0443\u0430","name:su":"Nikaragua","name:bg":"\u041d\u0438\u043a\u0430\u0440\u0430\u0433\u0443\u0430","name:ss":"INikhalaga","name:ba":"\u041d\u0438\u043a\u0430\u0440\u0430\u0433\u0443\u0430","name:sq":"Nikaragua","name:ga":"Nicearagua","name:gd":"Niocaragua","name:ht":"Nikaragwa","name:jv":"Nikaragua","name:fa":"\u0646\u06cc\u06a9\u0627\u0631\u0627\u06af\u0648\u0622","name:gv":"Yn Nickeraag","name:ak":"Nekaraguwa","name:tt":"\u041d\u0438\u043a\u0430\u0440\u0430\u0433\u0443\u0430"},"coordinates":[934,2310]},{"type":"Point","properties":{"name:ps":"\u06a9\u0648\u0633\u067c\u0627\u0631\u06cc\u06a9\u0627","name:ka":"\u10d9\u10dd\u10e1\u10e2\u10d0-\u10e0\u10d8\u10d9\u10d0","name:tr":"Kosta Rika","name:kn":"\u0c95\u0cca\u0cb8\u0ccd\u0c9f\u0cbe \u0cb0\u0cbf\u0c95\u0cbe","name:km":"\u1780\u17bc\u179f\u17d2\u178f\u17b6\u179a\u17b8\u1780\u17b6","name:cs":"Kostarika","name:ki":"Kostarika","name:kw":"Kosta Rika","name:ku":"Kosta R\u00eeka","name:ti":"\u12ae\u1235\u1273 \u122a\u12ab","name:ks":"\u06a9\u0648\u0633\u0679\u0627 \u0631\u0650\u06a9\u0627","name:to":"Kosita Lika","name:pa":"\u0a15\u0a4b\u0a38\u0a24\u0a3e \u0a30\u0a40\u0a15\u0a3e","name:os":"\u041a\u043e\u0441\u0442\u0430-\u0420\u0438\u043a\u00e6","name:or":"\u0b15\u0b4b\u0b37\u0b4d\u0b1f\u0b3e \u0b30\u0b3f\u0b15\u0b3e","name:ce":"\u041a\u043e\u0441\u0442\u0430-\u0420\u0438\u043a\u0430","name:ta":"\u0b95\u0bcb\u0bb8\u0bcd\u0b9f\u0bbe\u0bb0\u0bbf\u0b95\u0bbe","name:tg":"\u041a\u043e\u0441\u0442\u0430 \u0420\u0438\u043a\u0430","name:te":"\u0c15\u0c4b\u0c38\u0c4d\u0c1f\u0c3e\u0c30\u0c3f\u0c15\u0c3e","source":"openstreetmap.org","name:ln":"Kositarika","name:sr":"\u041a\u043e\u0441\u0442\u0430\u0440\u0438\u043a\u0430","name:dz":"\u0f40\u0f7c\u0f66\u0f0b\u0f4a\u0f0b\u0f62\u0f72\u0f0b\u0f40","name:ko":"\ucf54\uc2a4\ud0c0\ub9ac\uce74","name:dv":"\u0786\u07ae\u0790\u07b0\u0793\u07a6\u0783\u07a9\u0786\u07a7","name:lv":"Kostarika","name:lt":"Kosta Rika","name:uz":"Kosta Rika","name:kk":"\u041a\u043e\u0441\u0442\u0430-\u0420\u0438\u043a\u0430","name:he":"\u05e7\u05d5\u05e1\u05d8\u05d4 \u05e8\u05d9\u05e7\u05d4","min_zoom":2.0,"kind":"country","name:ur":"\u06a9\u0648\u0633\u0679\u0627 \u0631\u06cc\u06a9\u0627","name:la":"Ora Opulenta","name:lg":"Kosita Rika","name:uk":"\u041a\u043e\u0441\u0442\u0430-\u0420\u0456\u043a\u0430","name:hy":"\u053f\u0578\u057d\u057f\u0561-\u054c\u056b\u056f\u0561","name:ug":"\u0643\u0648\u0633\u062a\u0627\u0631\u0649\u0643\u0627","name:hr":"Kostarika","name:lo":"\u0e84\u0ead\u0e94\u0e95\u0eb2\u0ea5\u0eb5\u0e81\u0ec9\u0eb2","name:oc":"C\u00f2sta Rica","population":4301712,"name:el":"\u039a\u03cc\u03c3\u03c4\u03b1 \u03a1\u03af\u03ba\u03b1","name:eo":"Kostariko","name":"Costa Rica","official_name":"Rep\u00fablica de Costa Rica","name:ee":"Kosta Rika nutome","name:th":"\u0e1b\u0e23\u0e30\u0e40\u0e17\u0e28\u0e04\u0e2d\u0e2a\u0e15\u0e32\u0e23\u0e34\u0e01\u0e32","name:gu":"\u0a95\u0acb\u0ab8\u0acd\u0a9f\u0abe \u0ab0\u0abf\u0a95\u0abe","name:yi":"\u05e7\u05d0\u05e1\u05d8\u05d0 \u05e8\u05d9\u05e7\u05d0","name:yo":"Or\u00edl\u1eb9\u0301\u00e8de Kuusita R\u00edk\u00e0","name:ay":"Kustarika","name:mt":"Kosta Rika","name:rn":"Kositarika","name:az":"Kosta Rika","name:id":"Kosta Rika","name:ms":"Kosta Rika","name:mr":"\u0915\u094b\u0938\u094d\u091f\u093e\u0930\u093f\u0915\u093e","name:qu":"Kustarika","name:ar":"\u0643\u0648\u0633\u062a\u0627\u0631\u064a\u0643\u0627","name:my":"\u1000\u1031\u102c\u1037\u1005\u103a\u1010\u102c\u101b\u102e\u1000\u102c","name:io":"Kosta Rika","name:gn":"Kosta Rrika","name:is":"Kosta R\u00edka","name:am":"\u12ae\u1235\u1273 \u122a\u12ab","name:fo":"Kosta Rika","name:ml":"\u0d15\u0d4b\u0d38\u0d4d\u0d31\u0d4d\u0d31\u0d31\u0d3f\u0d15\u0d4d\u0d15","name:ru":"\u041a\u043e\u0441\u0442\u0430-\u0420\u0438\u043a\u0430","name:rw":"Kosita Rika","name:pl":"Kostaryka","name:mk":"\u041a\u043e\u0441\u0442\u0430\u0440\u0438\u043a\u0430","name:vo":"Kostarik\u00e4n","name:zu":"i-Costa Rica","name:ha":"Kwasta Rika","name:mn":"\u041a\u043e\u0441\u0442\u0430-\u0420\u0438\u043a\u0430","name:ff":"Kosta Rikaa","name:hi":"\u0915\u094b\u0938\u094d\u091f\u093e\u0930\u0940\u0915\u093e","name:mg":"Kosta Rik\u00e0","id":424297465,"alt_name:vi":"C\u1ed1t-xta Ri-ca","name:wo":"Kosta Riika","name:zh-yue":"\u54e5\u65af\u9054\u9ece\u52a0","name:fy":"Kosta Rika","name:zh":"\u54e5\u65af\u5927\u9ece\u52a0","name:so":"Kosta Riika","name:sn":"Kostarika","name:sl":"Kostarika","name:sk":"Kostarika","name:ja":"\u30b3\u30b9\u30bf\u30ea\u30ab","name:si":"\u0d9a\u0ddc\u0dc3\u0dca\u0da7\u0dbb\u0dd2\u0d9a\u0dcf\u0dc0","name:sh":"Kostarika","name:sg":"K\u00f4sta R\u00eeka","name:na":"Kosta Rika","name:ne":"\u0915\u094b\u0937\u094d\u091f\u093e\u0930\u093f\u0915\u093e","name:sa":"\u0915\u094b\u0938\u094d\u091f\u093e \u0930\u0940\u0915\u093e","name:bs":"Kostarika","name:bm":"K\u0254sitarika","name:bn":"\u0995\u09cb\u09b8\u09cd\u099f\u09be\u09b0\u09bf\u0995\u09be","name:bo":"\u0f40\u0f7c\u0f0b\u0f66\u0f84\u0f4a\u0f0b\u0f62\u0f72\u0f0b\u0f40\u0f0d","name:sw":"Kostarika","name:be":"\u041a\u043e\u0441\u0442\u0430 \u0420\u044b\u043a\u0430","name:su":"Kosta Rika","name:bg":"\u041a\u043e\u0441\u0442\u0430 \u0420\u0438\u043a\u0430","name:ss":"IKhosta-Likha","name:ba":"\u041a\u043e\u0441\u0442\u0430-\u0420\u0438\u043a\u0430","name:sq":"Kosta Rika","name:ga":"C\u00f3sta R\u00edce","name:gd":"Costa R\u00eccea","name:ht":"Kostarika","name:jv":"Kosta Rika","name:fa":"\u06a9\u0627\u0633\u062a\u0627\u0631\u06cc\u06a9\u0627","name:gv":"Yn Coose Ber\u00e7hagh","name:ak":"K\u0254sta Rika","name:tt":"\u041a\u043e\u0441\u0442\u0430-\u0420\u0438\u043a\u0430"},"coordinates":[1079,1918]},{"type":"Point","properties":{"name:pt":"Panam\u00e1","name:ps":"\u067e\u0627\u0646\u0627\u0645\u0627","name:ka":"\u10de\u10d0\u10dc\u10d0\u10db\u10d0","name:ko":"\ud30c\ub098\ub9c8","name:cv":"\u041f\u0430\u043d\u0430\u043c\u0430","name:km":"\u1794\u17c9\u17b6\u178e\u17b6\u1798\u17c9\u17b6","name:kk":"\u041f\u0430\u043d\u0430\u043c\u0430","name:tt":"\u041f\u0430\u043d\u0430\u043c\u0430","name:th":"\u0e1b\u0e23\u0e30\u0e40\u0e17\u0e28\u0e1b\u0e32\u0e19\u0e32\u0e21\u0e32","name:ti":"\u1353\u1293\u121b","name:ks":"\u067e\u064e\u0646\u0627\u0645\u0627","name:to":"Panam\u0101","name:zh-min-nan":"Panam\u00e1","name:os":"\u041f\u0430\u043d\u0430\u043c\u00e6","name:or":"\u0b2a\u0b3e\u0b28\u0b3e\u0b2e\u0b3e","name:ce":"\u041f\u0430\u043d\u0430\u043c\u0430","name:ta":"\u0baa\u0ba9\u0bbe\u0bae\u0bbe","name:tg":"\u041f\u0430\u043d\u0430\u043c\u0430","name:ca":"Panam\u00e0","name:te":"\u0c2a\u0c28\u0c3e\u0c2e\u0c3e","name:wo":"Panamaa","name:ba":"\u041f\u0430\u043d\u0430\u043c\u0430","name:dz":"\u0f54\u0f0b\u0f53\u0f0b\u0f58","source":"openstreetmap.org","name:yo":"Or\u00edl\u1eb9\u0301\u00e8de Panama","name:kn":"\u0caa\u0ca8\u0cbe\u0cae\u0cbe","name:pa":"\u0a2a\u0a28\u0a3e\u0a2e\u0a3e","name:dv":"\u0795\u07ac\u0782\u07a6\u0789\u07a7","name:hi":"\u092a\u0928\u093e\u092e\u093e","name:he":"\u05e4\u05e0\u05de\u05d4","kind":"country","name:ur":"\u067e\u0646\u0627\u0645\u06c1","name:uk":"\u041f\u0430\u043d\u0430\u043c\u0430","name:hy":"\u054a\u0561\u0576\u0561\u0574\u0561","name:ug":"\u067e\u0627\u0646\u0627\u0645\u0627","name:li":"P\u00e1nama","name:lo":"\u0e9e\u0eb2\u0e99\u0eb2\u0ea1\u0eb2","name:oc":"Panam\u00e0","population":3332576,"name:el":"\u03a0\u03b1\u03bd\u03b1\u03bc\u03ac\u03c2","name:eo":"Panamo","name":"Panama","name:ee":"Panama nutome","min_zoom":2.0,"name:yi":"\u05e4\u05d0\u05e0\u05d0\u05de\u05d0","name:es":"Panam\u00e1","name:ie":"Panam\u00e1","name:mr":"\u092a\u0928\u093e\u092e\u093e","name:ar":"\u0628\u0646\u0645\u0627","name:my":"\u1015\u1014\u102c\u1038\u1019\u102c\u1038","official_name":"Rep\u00fablica de Panam\u00e1","name:am":"\u1353\u1293\u121b","name:it":"Panam\u00e1","name:an":"Panam\u00e1","name:ml":"\u0d2a\u0d28\u0d3e\u0d2e","name:mn":"\u041f\u0430\u043d\u0430\u043c\u0430","id":424316758,"name:mk":"\u041f\u0430\u043d\u0430\u043c\u0430","name:vo":"Panam\u00e4n","name:zu":"i-Panama","name:ff":"Panamaa","name:zh-yue":"\u5df4\u62ff\u99ac","name:zh":"\u5df4\u62ff\u9a6c","name:so":"Banama","name:ja":"\u30d1\u30ca\u30de","name:si":"\u0db4\u0dd0\u0db1\u0db8\u0dcf","name:fa":"\u067e\u0627\u0646\u0627\u0645\u0627","name:ne":"\u092a\u0928\u093e\u092e\u093e","name:sa":"\u092a\u093e\u0928\u093e\u092e\u093e","name:bn":"\u09aa\u09be\u09a8\u09be\u09ae\u09be","name:bo":"\u0f54\u0f0b\u0f53\u0f71\u0f0b\u0f58\u0f0d","name:ru":"\u041f\u0430\u043d\u0430\u043c\u0430","name:be":"\u041f\u0430\u043d\u0430\u043c\u0430","name:bg":"\u041f\u0430\u043d\u0430\u043c\u0430","name:ss":"IPhanama","name:sr":"\u041f\u0430\u043d\u0430\u043c\u0430","name:sq":"Panamaja","name:gl":"Panam\u00e1","name:gv":"Yn Phanamaa","name:gu":"\u0aaa\u0aa8\u0abe\u0aae\u0abe"},"coordinates":[1583,1551]},{"type":"Point","properties":{"name:ps":"\u062c\u0645\u06cc\u06a9\u0627","name:ka":"\u10d8\u10d0\u10db\u10d0\u10d8\u10d9\u10d0","name:mt":"\u0120amajka","name:tr":"Jamaika","name:kn":"\u0c9c\u0cae\u0cc8\u0c95\u0cbe","name:km":"\u17a0\u17d2\u179f\u17b6\u1798\u17c9\u17b6\u17a2\u17c9\u17b7\u1782","name:cs":"Jamajka","name:ki":"Jamaika","name:ku":"Jama\u00eeka","name:ti":"\u1303\u121b\u12ed\u12ab","name:ks":"\u062c\u064e\u0645\u0627\u06cc\u06a9\u0627","name:to":"Samaika","name:tl":"Hamayka","name:or":"\u0b1c\u0b3e\u0b2e\u0b3e\u0b07\u0b15\u0b3e","name:pl":"Jamajka","name:ta":"\u0b9c\u0bae\u0bc8\u0b95\u0bbe","name:te":"\u0c1c\u0c2e\u0c48\u0c15\u0c3e","name:hr":"Jamajka","name:de":"Jamaika","name:dz":"\u0f47\u0f71\u0f0b\u0f58\u0f7b\u0f0b\u0f40","source":"openstreetmap.org","name:lv":"Jamaika","name:lt":"Jamaika","name:hi":"\u091c\u092e\u0948\u0915\u093e","name:he":"\u05d2'\u05de\u05d9\u05d9\u05e7\u05d4","kind":"country","name:ur":"\u062c\u0645\u0627\u0626\u06cc\u06a9\u0627","name:lb":"Jamaika","name:la":"Iamaica","name:lg":"Jamayika","name:uk":"\u042f\u043c\u0430\u0439\u043a\u0430","name:hy":"\u054b\u0561\u0574\u0561\u0575\u056f\u0561","min_zoom":2.0,"name:ln":"Zamaiki","name:lo":"\u0e88\u0eb2\u0ec4\u0ea1\u0e81\u0eb2","population":2804332,"name:el":"\u03a4\u03b6\u03b1\u03bc\u03ac\u03b9\u03ba\u03b1","name:eo":"Jamajko","name":"Jamaica","name:ee":"Dzamaika nutome","name:th":"\u0e1b\u0e23\u0e30\u0e40\u0e17\u0e28\u0e08\u0e32\u0e40\u0e21\u0e01\u0e32","name:gu":"\u0a9c\u0aae\u0ac8\u0a95\u0abe","name:eu":"Jamaika","name:yo":"Or\u00edl\u1eb9\u0301\u00e8de Jamaika","name:rm":"Giamaica","name:rn":"Jamayika","name:az":"Yamayka","name:id":"Jamaika","name:ms":"Jamaika","name:mr":"\u091c\u092e\u0948\u0915\u093e","name:ar":"\u062c\u0627\u0645\u0627\u064a\u0643\u0627","name:my":"\u1002\u103b\u1019\u1031\u1014\u102e\u1000\u102c","name:io":"Jamaika","name:is":"Jama\u00edka","name:am":"\u1303\u121b\u12ed\u12ab","name:it":"Giamaica","name:ml":"\u0d1c\u0d2e\u0d48\u0d15\u0d4d\u0d15","name:ru":"\u042f\u043c\u0430\u0439\u043a\u0430","name:mn":"\u042f\u043c\u0430\u0439\u043a\u0430","id":424313591,"name:mk":"\u0408\u0430\u043c\u0430\u0458\u043a\u0430","name:af":"Jamaika","name:zu":"i-Jamaica","name:ha":"Jamaika","name:ff":"Jamayka","name:fi":"Jamaika","name:mg":"Jama\u00efka","name:fo":"Jameika","name:fr":"Jama\u00efque","name:fy":"Jamaika","name:vo":"Cameke\u00e4n","name:zh":"\u7259\u4e70\u52a0","name:so":"Jameyka","name:sl":"Jamajka","name:sk":"Jamajka","name:ja":"\u30b8\u30e3\u30de\u30a4\u30ab","name:si":"\u0da2\u0dd0\u0db8\u0dd9\u0dba\u0dd2\u0d9a\u0dcf\u0dc0","name:fa":"\u062c\u0627\u0645\u0627\u0626\u06cc\u06a9\u0627","name:sg":"Zama\u00eeka","name:ne":"\u091c\u092e\u093e\u0907\u0915\u093e","name:br":"Jamaika","name:bs":"Jamajka","name:bm":"Zamayiki","name:bn":"\u099c\u09cd\u09af\u09be\u09ae\u09c7\u0995\u09be","name:bo":"\u0f5b\u0f0b\u0f58\u0f7a\u0f0b\u0f40\u0f0d","name:sw":"Jamaika","name:be":"\u042f\u043c\u0430\u0439\u043a\u0430","name:bg":"\u042f\u043c\u0430\u0439\u043a\u0430","name:sr":"\u0408\u0430\u043c\u0430\u0458\u043a\u0430","name:sq":"Xhamajk\u00eb","name:ko":"\uc790\uba54\uc774\uce74","name:ga":"Iam\u00e1ice","name:gd":"Iaimeuca","name:gl":"Xamaica","name:gv":"Yn Yamaicey","name:ak":"Gyameka","name:tt":"\u042f\u043c\u0430\u0439\u043a\u0430"},"coordinates":[2295,3395]},{"type":"Point","properties":{"name:ps":"\u0628\u06d0\u0644\u06cc\u0632","name:ka":"\u10d1\u10d4\u10da\u10d8\u10d6\u10d8","name:ko":"\ubca8\ub9ac\uc988","name:cv":"\u0411\u0435\u043b\u0438\u0437","name:km":"\u1794\u17c1\u179b\u17b8\u17a0\u17d2\u179f","name:kk":"\u0411\u0435\u043b\u0438\u0437","name:tt":"\u0411\u0435\u043b\u0438\u0437","name:kw":"Belisa","name:ku":"Bel\u00eeze","name:ti":"\u1264\u120a\u12d8","name:ks":"\u0628\u06cc\u0644\u0650\u062c","name:to":"Pelise","name:tl":"Belise","name:pa":"\u0a2c\u0a47\u0a32\u0a40\u0a1c\u0a3c","name:os":"\u0411\u0435\u043b\u0438\u0437","name:or":"\u0b2c\u0b47\u0b32\u0b3f\u0b1c\u0b4d","name:ce":"\u0411\u0435\u043b\u0438\u0437","name:ta":"\u0baa\u0bc6\u0bb2\u0bbf\u0bb8\u0bcd","name:tg":"\u0411\u0435\u043b\u0438\u0437","name:te":"\u0c2c\u0c46\u0c32\u0c40\u0c1c\u0c4d","name:qu":"Bilisi","name:sr":"\u0411\u0435\u043b\u0438\u0437\u0435","name:dz":"\u0f56\u0fb7\u0f7a\u0f0b\u0f63\u0f72\u0f5b","source":"openstreetmap.org","name:kn":"\u0cac\u0cc6\u0cb2\u0cbf\u0c9c\u0ccd","name:dv":"\u0784\u07ac\u078d\u07a9\u0792\u07aa","name:lv":"Beliza","name:lt":"Belizas","name:uz":"Beliz","name:he":"\u05d1\u05dc\u05d9\u05d6","min_zoom":2.0,"kind":"country","name:ur":"\u0628\u06cc\u0644\u0627\u0626\u0632","name:la":"Beliza","old_name:eo":"Brita Honduro","name:uk":"\u0411\u0435\u043b\u0456\u0437","name:hy":"\u0532\u0565\u056c\u056b\u0566","name:ug":"\u0628\u06d0\u0644\u0649\u0632","name:ln":"Beliz\u025b","name:lo":"\u0ec0\u0e9a\u0e8a\u0eb5\u0ea7","population":327719,"name:el":"\u039c\u03c0\u03b5\u03bb\u03af\u03b6","name:eo":"Belizo","name":"Belize","name:ee":"Belize nutome","name:th":"\u0e1b\u0e23\u0e30\u0e40\u0e17\u0e28\u0e40\u0e1a\u0e25\u0e35\u0e0b","name:gu":"\u0aac\u0ac7\u0ab2\u0ac0\u0a9d","name:yi":"\u05d1\u05e2\u05dc\u05d9\u05d6","name:es":"Belice","name:ay":"Wilisi","name:mt":"Beli\u017ce","name:az":"Beliz","name:mr":"\u092c\u0947\u0932\u093f\u091d\u0947","name:ar":"\u0628\u0644\u064a\u0632","name:my":"\u1018\u1031\u101c\u102e\u1007\u103a","name:is":"Bel\u00eds","name:am":"\u1264\u120a\u12d8","name:ml":"\u0d2c\u0d46\u0d32\u0d40\u0d38\u0d4d","name:ru":"\u0411\u0435\u043b\u0438\u0437","name:mn":"\u0411\u0435\u043b\u0438\u0437","id":332779764,"name:mk":"\u0411\u0435\u043b\u0438\u0437\u0435","name:vo":"Belis\u00e4n","name:zu":"i-Belize","name:ha":"Beliz","name:ff":"Beliise","name:hi":"\u092c\u0947\u0932\u0940\u091c\u093c","name:fo":"Belis","alt_name:vi":"B\u00ea-li-x\u00ea","name:fr":"B\u00e9lize","name:wo":"Beliis","name:zh-yue":"\u4f2f\u5229\u8332","name:zh":"\u4f2f\u5229\u5179","name:gv":"Yn Veleesh","name:so":"Belise","name:ja":"\u30d9\u30ea\u30fc\u30ba","name:si":"\u0db6\u0dd9\u0dbd\u0dd3\u0dc3\u0dca","name:fa":"\u0628\u0644\u06cc\u0632","name:sg":"Bel\u00eezi","name:na":"Berij","name:ne":"\u092c\u0947\u0932\u093f\u091c","name:sa":"\u092c\u0947\u0932\u0940\u091c","name:bs":"Belise","name:bm":"Belizi","name:bn":"\u09ac\u09c7\u09b2\u09bf\u09af","name:bo":"\u0f56\u0f7a\u0f0b\u0f63\u0f72\u0f5b\u0f0d","name:be":"\u0411\u0435\u043b\u0456\u0437","name:su":"B\u00e9lis","name:bg":"\u0411\u0435\u043b\u0438\u0437","name:ss":"IBhelizi","name:ba":"\u0411\u0435\u043b\u0438\u0437","name:sq":"Beliza","name:ga":"An Bheil\u00eds","name:gd":"Beilise","name:ht":"Beliz","name:gn":"Mbelise","name:gl":"Belice","name:yo":"Or\u00edl\u1eb9\u0301\u00e8de B\u00e8l\u00eds\u1eb9\u0300","name:ak":"Beliz"},"coordinates":[226,3141]},{"type":"Point","properties":{"name:he":"\u05d0\u05e8\u05d5\u05d1\u05d4","name:ja":"\u30a2\u30eb\u30d0","name:el":"\u0391\u03c1\u03bf\u03cd\u03bc\u03c0\u03b1","name:ar":"\u0623\u0631\u0648\u0628\u0627","name:eo":"Arubo","name:is":"Ar\u00faba","name:uk":"\u0410\u0440\u0443\u0431\u0430","name:be":"\u0410\u0440\u0443\u0431\u0430","name:ru":"\u0410\u0440\u0443\u0431\u0430","id":1770467684,"population":101484,"name:fa":"\u0622\u0631\u0648\u0628\u0627","kind":"country","name":"Aruba","min_zoom":2.0,"name:sr":"\u0410\u0440\u0443\u0431\u0430","source":"openstreetmap.org","name:eu":"Aruba uhartea","name:fy":"Ar\u00fbba","name:zh":"\u963f\u9c81\u5df4"},"coordinates":[3648,2334]},{"type":"Point","properties":{"name:pt":"Ilhas Cayman","name:cy":"Ynysoedd Cayman","alt_name:el":"\u039d\u03ae\u03c3\u03bf\u03b9 \u039a\u03b1\u03cb\u03bc\u03ac\u03bd;\u039d\u03b7\u03c3\u03b9\u03ac \u039a\u03b1\u03cb\u03bc\u03ac\u03bd;\u039d\u03b7\u03c3\u03b9\u03ac \u039a\u03ad\u03b9\u03bc\u03b1\u03bd","name:ko":"\ucf00\uc774\ub9e8\uc81c\ub3c4","name:kn":"\u0c95\u0cc7\u0cae\u0ca8\u0ccd \u0ca6\u0ccd\u0cb5\u0cc0\u0caa\u0c97\u0cb3\u0cc1","name:km":"\u1780\u17c4\u17c7\u200b\u1780\u17c3\u1798\u17c9\u1784\u17cb","name:cs":"Kajmansk\u00e9 ostrovy","alt_name:eo":"Kajmaninsuloj;Kajmana Insularo","name:ki":"Visiwa vya Kayman","name:tr":"Kayman Adalar\u0131","name:ku":"Girav\u00ean Cayman\u00ea","name:ti":"\u12ab\u12ed\u121b\u1295 \u12f0\u1234\u1276\u127d","name:ks":"\u06a9\u06cc\u0645\u064e\u0646 \u062c\u0654\u0632\u06cc\u0656\u0631\u0655","name:to":"\u02bbOtumotu Keimeni","name:sv":"Cayman\u00f6arna","name:or":"\u0b15\u0b47\u0b2e\u0b4d\u0b5f\u0b3e\u0b28\u0b4d \u0b26\u0b4d\u0b2c\u0b40\u0b2a\u0b2a\u0b41\u0b1e\u0b4d\u0b1c","name:pl":"Kajmany","name:ta":"\u0b95\u0bc7\u0bae\u0bc6\u0ba9\u0bcd \u0ba4\u0bc0\u0bb5\u0bc1\u0b95\u0bb3\u0bcd","name:ca":"Illes Caiman","name:te":"\u0c15\u0c47\u0c2e\u0c3e\u0c28\u0c4d \u0c26\u0c40\u0c35\u0c41\u0c32\u0c41","name:ro":"Insulele Cayman","name:ka":"\u10d9\u10d0\u10d8\u10db\u10d0\u10dc\u10d8\u10e1 \u10d9\u10e3\u10dc\u10eb\u10e3\u10da\u10d4\u10d1\u10d8","name:hr":"Kajmanski otoci","name:da":"Cayman\u00f8erne","name:de":"Kaimaninseln","name:dz":"\u0f41\u0f7a\u0f0b\u0f58\u0f7a\u0f53\u0f0b\u0f42\u0fb3\u0f72\u0f44\u0f0b\u0f5a\u0f7c\u0f58","source":"openstreetmap.org","name:lv":"Kaimanu salas","name:lt":"Kaiman\u0173 salos","name:hi":"\u0915\u0947\u092e\u0948\u0928 \u0926\u094d\u0935\u0940\u092a\u0938\u092e\u0942\u0939","name:he":"\u05d0\u05d9\u05d9 \u05e7\u05d9\u05d9\u05de\u05df","kind":"country","name:ur":"\u06a9\u06cc\u0645\u06cc\u0646 \u0622\u0626\u0644\u06cc\u0646\u0688\u0632","name:lb":"Kaimaninselen","name:lg":"Bizinga ebya Kayimaani","name:uk":"\u041a\u0430\u0439\u043c\u0430\u043d\u043e\u0432\u0456 \u043e\u0441\u0442\u0440\u043e\u0432\u0438","min_zoom":2.0,"name:hu":"Kajm\u00e1n-szigetek","name:ln":"Bisanga bya Kay\u00edma","name:lo":"\u0e84\u0eb2\u0e8d\u0ec1\u0ea1\u0e99 \u0ead\u0eb4\u0e94\u0ec1\u0ea5\u0e99","population":49035,"name:el":"\u039d\u03ae\u03c3\u03bf\u03b9 \u039a\u03ad\u03b9\u03bc\u03b1\u03bd","name:eo":"Kejmanoj","name":"Cayman Islands","name:ee":"Kayman \u0192udomekpowo nutome","name:th":"\u0e2b\u0e21\u0e39\u0e48\u0e40\u0e01\u0e32\u0e30\u0e40\u0e04\u0e22\u0e4c\u0e41\u0e21\u0e19","name:gu":"\u0a95\u0ac7\u0aaf\u0aae\u0ac7\u0aa8 \u0a86\u0a87\u0ab2\u0ac5\u0a82\u0aa1\u0acd\u0ab8","name:eu":"Kaiman Uharteak","name:et":"Kaimanisaared","name:nl":"Kaaimaneilanden","name:es":"Islas Caim\u00e1n","name:ia":"Insulas de Caiman","name:rm":"Inslas Cayman","name:rn":"Ibirwa bya Keyimani","name:az":"Kayman Adalar\u0131","name:id":"Kepulauan Cayman","name:mr":"\u0915\u0947\u092e\u0928 \u092c\u0947\u091f\u0947","name:ar":"\u062c\u0632\u0631 \u0627\u0644\u0643\u0627\u064a\u0645\u0627\u0646","name:my":"\u1000\u1031\u1019\u1014\u103a \u1000\u103b\u103d\u1014\u103a\u1038\u1005\u102f","name:io":"Insuli Kaiman","name:is":"Caymaneyjar","name:am":"\u12ab\u12ed\u121b\u1295 \u12f0\u1234\u1276\u127d","name:it":"Isole Cayman","name:vi":"Qu\u1ea7n \u0111\u1ea3o Cayman","name:ru":"\u041e\u0441\u0442\u0440\u043e\u0432\u0430 \u041a\u0430\u0439\u043c\u0430\u043d","name:mn":"\u041a\u0430\u0439\u043c\u0430\u043d\u044b \u0410\u0440\u043b\u0443\u0443\u0434","id":249399364,"name:mk":"\u041a\u0430\u0458\u043c\u0430\u043d\u0441\u043a\u0438 \u041e\u0441\u0442\u0440\u043e\u0432\u0438","name:af":"Kaaimanseilande","name:zu":"i-Cayman Islands","name:ha":"Tsibiran Kaiman","name:nn":"Cayman\u00f8yane","name:ff":"Duu\u0257e Kaymaa","name:fi":"Caymansaaret","name:no":"Cayman\u00f8yene","name:mg":"Nosy Kayman","name:fo":"Caymanoyggjarnar","name:mt":"G\u017cejjer Kajmani","name:fr":"\u00celes Ca\u00efmans","name:fy":"de Kaaimaneilannen","name:zh":"\u5f00\u66fc\u7fa4\u5c9b","name:gv":"Ellanyn Cayman","name:sn":"Zvitsuwa zveCayman","name:sl":"Kajmanski otoki","name:sk":"Kajmanie ostrovy","name:ja":"\u30b1\u30a4\u30de\u30f3\u8af8\u5cf6","name:si":"\u0d9a\u0dda\u0db8\u0db1\u0dca \u0daf\u0dd6\u0db4\u0dad\u0dca","name:fa":"\u062c\u0632\u0627\u06cc\u0631 \u06a9\u0627\u06cc\u0645\u0627\u0646","name:sg":"\u00c2z\u00fb\u00e2 Ngund\u00eb, Kaim\u00e4ni","name:se":"Cayman-sullot","name:ne":"\u0915\u0947\u092f\u092e\u093e\u0928 \u091f\u093e\u092a\u0941","name:br":"Inizi Cayman","name:bs":"Kajmanska Ostrva","name:bm":"Bama Gun","name:bn":"\u0995\u09c7\u09ae\u09cd\u09af\u09be\u09a8 \u09a6\u09cd\u09ac\u09c0\u09aa\u09aa\u09c1\u099e\u09cd\u099c","name:bo":"\u0f41\u0f7a\u0f0b\u0f58\u0f7a\u0f53\u0f0b\u0f42\u0fb3\u0f72\u0f44\u0f0b\u0f55\u0fb2\u0f53\u0f0d","name:ml":"\u0d15\u0d47\u0d2f\u0d4d\u0d2e\u0d3e\u0d7b \u0d26\u0d4d\u0d35\u0d40\u0d2a\u0d41\u0d15\u0d7e","name:sw":"Visiwa vya Kayman","name:be":"\u041a\u0430\u0439\u043c\u0430\u043d\u0430\u0432\u044b \u0430\u0441\u0442\u0440\u0430\u0432\u044b","name:bg":"\u041a\u0430\u0439\u043c\u0430\u043d\u043e\u0432\u0438 \u043e\u0441\u0442\u0440\u043e\u0432\u0438","name:sr":"\u041a\u0430\u0458\u043c\u0430\u043d\u0441\u043a\u0430 \u041e\u0441\u0442\u0440\u0432\u0430","name:ga":"Oile\u00e1in Cayman","name:gd":"Na h-Eileanan Caimean","name:gl":"Illas Caim\u00e1n","name:yo":"Or\u00edl\u1eb9\u0301\u00e8de Et\u00edokun K\u00e1m\u00e1n\u00ec","name:ak":"Kemanfo Islands","alt_name:ku":"Girav\u00ean Kayman\u00ea"},"coordinates":[1717,3648]},{"type":"Point","properties":{"name:pt":"Turks e Caicos","name:cy":"Ynysoedd Turks a Caicos","alt_name:el":"\u039d\u03b7\u03c3\u03b9\u03ac \u03a4\u03b5\u03c1\u03ba\u03c2 \u03ba\u03b1\u03b9 \u039a\u03ac\u03b9\u03ba\u03bf\u03c2","name:ko":"\ud130\ud06c\uc2a4 \ucf00\uc774\ucee4\uc2a4 \uc81c\ub3c4","name:cv":"\u0422\u04d7\u0440\u043a\u0441 \u0442\u0430\u0442\u0430 \u041a\u0430\u0439\u043a\u043e\u0441","name:km":"\u1780\u17c4\u17c7\u200b\u1780\u17c3\u1780\u17bc\u179f \u1793\u17b7\u1784\u1791\u17bc\u1780","name:cs":"Turks a Caicos","name:ki":"Visiwa vya Turki na Kaiko","name:kw":"Turks ha Kaykos","name:tr":"Turks ve Caicos Adalar\u0131","name:th":"\u0e2b\u0e21\u0e39\u0e48\u0e40\u0e01\u0e32\u0e30\u0e40\u0e15\u0e34\u0e23\u0e4c\u0e01\u0e41\u0e25\u0e30\u0e44\u0e04\u0e04\u0e2d\u0e2a","name:ti":"\u12e8\u1271\u122d\u12ae\u127d\u1293 \u12e8\u12ab\u12a2\u12ae\u1235 \u12f0\u1234\u1276\u127d","name:ks":"\u062a\u064f\u0631\u064f\u06a9 \u062a\u06c1\u0655 \u06a9\u06cc\u06a9\u0648\u0633 \u062c\u0654\u0632\u06cc\u0656\u0631\u0655","name:to":"\u02bbOtumotu Teki mo Keikosi","name:zh-min-nan":"Turks kap Caicos K\u00fbn-t\u00f3","name:or":"\u0b24\u0b41\u0b30\u0b4d\u0b15\u0b38\u0b4d \u0b0f\u0b2c\u0b02 \u0b38\u0b3e\u0b07\u0b15\u0b38\u0b4d \u0b26\u0b4d\u0b2c\u0b40\u0b2a\u0b2a\u0b41\u0b1e\u0b4d\u0b1c","name:pl":"Turks i Caicos","name:ta":"\u0ba4\u0bc1\u0bb0\u0bcd\u0b95\u0b9a\u0bc1 \u0b95\u0bc8\u0b95\u0bcb\u0b9a\u0bc1 \u0ba4\u0bc0\u0bb5\u0bc1\u0b95\u0bb3\u0bcd","name:ca":"Illes Turks i Caicos","name:te":"\u0c24\u0c41\u0c30\u0c4d\u0c15\u0c4d \u0c2e\u0c30\u0c3f\u0c2f\u0c41 \u0c15\u0c3e\u0c32\u0c3f\u0c15\u0c4b\u0c38\u0c4d \u0c26\u0c40\u0c35\u0c41\u0c32\u0c41","name:vi":"Qu\u1ea7n \u0111\u1ea3o Turks v\u00e0 Caicos","name:ro":"Insulele Turks \u015fi Caicos","name:hr":"Otoci Turks i Caicos","name:da":"Turks- og Caicos\u00f8erne","name:de":"Turks- und Caicosinseln","name:dz":"\u0f4f\u0f74\u0f62\u0f90\u0f66\u0f84\u0f0b \u0f68\u0f7a\u0f53\u0f4c\u0f0b \u0f40\u0f0b\u0f40\u0f7c\u0f66\u0f0b\u0f42\u0fb3\u0f72\u0f44\u0f0b\u0f5a\u0f7c\u0f58","source":"openstreetmap.org","name:kn":"\u0c9f\u0cb0\u0ccd\u0c95\u0ccd\u0cb8\u0ccd \u0cae\u0ca4\u0ccd\u0ca4\u0cc1 \u0c95\u0cc8\u0c95\u0ccb\u0cb8\u0ccd \u0ca6\u0ccd\u0cb5\u0cc0\u0caa\u0c97\u0cb3\u0cc1","name:dv":"\u0793\u07a7\u0786\u07a6\u0790\u07b0 \u0787\u07a6\u078b\u07a8 \u0786\u07a6\u0787\u07a8\u0786\u07af \u0796\u07a6\u0792\u07a9\u0783\u07a7","name:lv":"T\u0113rksas un Kaikosas","name:lt":"Terksas ir Kaikosas","name:hi":"\u091f\u0930\u094d\u0915\u094d\u0938 \u0914\u0930 \u0915\u0947\u0915\u094b\u0938 \u0926\u094d\u0935\u0940\u092a-\u0938\u092e\u0942\u0939","name:sv":"Turks- och Caicos\u00f6arna","name:he":"\u05d0\u05d9\u05d9 \u05d8\u05d5\u05e8\u05e7\u05e1 \u05d5\u05e7\u05d0\u05d9\u05e7\u05d5\u05e1","kind":"country","name:ur":"\u062a\u0631\u06a9\u0633 \u0627\u0648\u0631 \u06a9\u06cc\u06a9\u0627\u0624\u0633 \u062c\u0632\u0627\u0626\u0631","name:lg":"Bizinga by'eTaaka ne Kayikosi","name:uk":"\u041e\u0441\u0442\u0440\u043e\u0432\u0438 \u0422\u0435\u0440\u043a\u0441 \u0456 \u041a\u0430\u0439\u043a\u043e\u0441","name:ug":"Turks we Kaykos Taqim Aralliri","name:hu":"Turks- \u00e9s Caicos-szigetek","name:ln":"Bisanga bya Turki mp\u00e9 Kaiko","name:lo":"\u0ec0\u0e88\u0eb5 \u0ec1\u0ea5\u0eb0 \u0e84\u0eb2\u0e8d\u0e84\u0ead\u0e94 \u0ead\u0eb4\u0e94\u0ec1\u0ea5\u0e99","population":41000,"name:el":"\u039d\u03ae\u03c3\u03bf\u03b9 \u03a4\u03b5\u03c1\u03ba\u03c2 \u03ba\u03b1\u03b9 \u039a\u03ac\u03b9\u03ba\u03bf\u03c2","name:eo":"Turkoj kaj Kajkoj","name":"Turks and Caicos Islands","name:ee":"T\u025bks kple Kaikos \u0192udomekpowo nutome","min_zoom":2.0,"name:gu":"\u0a9f\u0ab0\u0acd\u0a95\u0acd\u0ab8 \u0a8f\u0aa8\u0acd\u0aa1 \u0a95\u0ac8\u0a95\u0acb\u0ab8 \u0a86\u0a87\u0ab2\u0ac7\u0aa8\u0acd\u0aa1\u0acd\u0ab8","name:eu":"Turks eta Caicos uharteak","name:et":"Turks ja Caicos","name:nl":"Turks- en Caicoseilanden","name:es":"Islas Turcas y Caicos","name:ia":"Insulas Turcos e Caicos","name:rm":"Inslas Turks e Caicos","name:rn":"Amazinga ya Turkisi na Cayikosi","name:az":"T\u00fcrk v\u0259 Kaykos Adalar\u0131","name:id":"Kepulauan Turks dan Caicos","name:ms":"Kepulauan Turks dan Caicos","name:mr":"\u091f\u0930\u094d\u0915\u094d\u0938 \u0906\u0923\u093f \u0915\u0948\u0915\u093e\u0938 \u0926\u094d\u0935\u0940\u092a\u0938\u092e\u0942\u0939","name:ar":"\u062c\u0632\u0631 \u062a\u0631\u0643\u0633 \u0648\u0643\u0627\u064a\u0643\u0648\u0633","name:io":"Turks e Kaikos-Insuli","name:is":"Turks- og Caicoseyjar","name:am":"\u12e8\u1271\u122d\u12ae\u127d\u1293 \u12e8\u12ab\u12a2\u12ae\u1235 \u12f0\u1234\u1276\u127d","name:it":"Turks e Caicos","name:an":"Islas Turcas e Caicos","name:ru":"\u041e\u0441\u0442\u0440\u043e\u0432\u0430 \u0422\u0451\u0440\u043a\u0441 \u0438 \u041a\u0430\u0439\u043a\u043e\u0441","name:mn":"\u0422\u0443\u0440\u043a\u0441 \u0431\u0430 \u041a\u0430\u0439\u043a\u043e\u0441\u044b\u043d \u0410\u0440\u043b\u0443\u0443\u0434","id":424311814,"name:mk":"\u0422\u0443\u0440\u043a \u0438 \u041a\u0430\u0438\u043a\u043e\u0441 \u041e\u0441\u0442\u0440\u043e\u0432\u0438","name:af":"Turks en Caicos Eilande","name:zu":"i-Turks and Caicos Islands","name:ha":"Turkis Da Tsibiran Kaikwas","name:nn":"Turks- og Caicos\u00f8yane","name:ff":"Duu\u0257e Turke e Keikoos","name:fi":"Turks- ja Caicossaaret","name:no":"Turks- og Caicos\u00f8yene","name:mg":"Nosy Turks sy Ca\u00efques","name:fo":"Turks- og Caicosoyggjarnar","name:fr":"\u00celes Turques-et-Ca\u00efques","name:fy":"Turks- en Kaikoseilannen","name:zh":"\u7279\u514b\u65af\u548c\u51f1\u79d1\u65af\u7fa4\u5cf6","name:gv":"Ellanyn ny Turkee as Caicos","name:sn":"Zvitsuwa zveTurk neCaico","name:sl":"Turks in Caicos","name:sk":"Turks a Caicos","name:ja":"\u30bf\u30fc\u30af\u30b9\u30fb\u30ab\u30a4\u30b3\u30b9\u8af8\u5cf6","name:si":"\u0da7\u0dbb\u0dca\u0d9a\u0dca\u0dc3\u0dca \u0dc3\u0dc4 \u0d9a\u0dba\u0dd2\u0d9a\u0ddc\u0dc3\u0dca \u0daf\u0dd6\u0db4\u0dad\u0dca","name:sh":"Turks i Caicos Otoci","name:sg":"\u00c2z\u00fb\u00e2 Turku na Ka\u00eeki","name:se":"Turks ja Caicos-sullot","name:ne":"\u0924\u0941\u0930\u094d\u0915 \u0930 \u0915\u093e\u0907\u0915\u094b\u0938 \u091f\u093e\u092a\u0941","name:br":"Inizi Turks ha Caicos","name:bs":"Ostrva Turks i Caicos","name:bm":"Turiki Gun ni Kayiki","name:bn":"\u099f\u09be\u09b0\u09cd\u0995\u09b8\u09cd\u200c \u0993 \u0995\u09c7\u0987\u0995\u09cb\u09b8 \u09a6\u09cd\u09ac\u09c0\u09aa\u09aa\u09c1\u099e\u09cd\u099c","name:ml":"\u0d1f\u0d7c\u0d15\u0d4d\u0d15\u0d4d\u0d38\u0d41\u0d02 \u0d15\u0d48\u0d15\u0d4d\u0d15\u0d4b \u0d26\u0d4d\u0d35\u0d40\u0d2a\u0d41\u0d15\u0d33\u0d41\u0d02","name:sw":"Visiwa vya Turks na Caicos","name:be":"\u0422\u044d\u0440\u043a\u0441 \u0456 \u041a\u0430\u0439\u043a\u0430\u0441 \u0430\u0441\u0442\u0440\u0430\u0432\u044b","name:bg":"\u0422\u044a\u0440\u043a\u0441 \u0438 \u041a\u0430\u0439\u043a\u043e\u0441","name:sr":"\u0422\u0443\u0440\u043a\u0441 \u0438 \u041a\u0430\u0458\u043a\u043e\u0441","name:sq":"Turks dhe Kaikos","name:ga":"Oile\u00e1in na dTurcach agus Caicos","name:gd":"Oile\u00e1in na dTurcach agus Caicos","name:jv":"Kapuloan Turks lan Caicos","name:gl":"Turks e Caicos","name:fa":"\u062c\u0632\u0627\u06cc\u0631 \u062a\u0648\u0631\u06a9\u0633 \u0648 \u06a9\u0627\u06cc\u06a9\u0648\u0633","name:yo":"Or\u00edl\u1eb9\u0301\u00e8de T\u1ecd\u1ecdki ati Etikun Kak\u1ecdsi","name:ak":"Turks ne Caicos Islands"},"coordinates":[3346,4055]},{"type":"Point","properties":{"kind":"region","name":"Cundinamarca","kind_detail":"state","name:eo":"Kundinamarko","source":"openstreetmap.org","min_zoom":4.0,"name:ru":"\u041a\u0443\u043d\u0434\u0438\u043d\u0430\u043c\u0430\u0440\u043a\u0430","id":306394570,"population":9467562},"coordinates":[2882,933]},{"type":"Point","properties":{"kind":"region","name":"Distrito Capital de Bogot\u00e1","kind_detail":"state","name:eo":"\u0108efurba Distrikto de Bogoto","name:de":"Hauptstadtdistrikt Bogot\u00e1","source":"openstreetmap.org","min_zoom":4.0,"name:ru":"\u0421\u0442\u043e\u043b\u0438\u0447\u043d\u044b\u0439 \u043e\u043a\u0440\u0443\u0433 \u0411\u043e\u0433\u043e\u0442\u0430","id":306394560,"population":7117984},"coordinates":[2879,814]},{"type":"Point","properties":{"kind":"region","name":"Antioquia","kind_detail":"state","name:eo":"Antjokio","source":"openstreetmap.org","min_zoom":4.0,"name:ru":"\u0410\u043d\u0442\u0438\u043e\u043a\u0438\u044f","id":306394567,"population":5750478},"coordinates":[2640,1307]},{"type":"Point","properties":{"source":"naturalearthdata.com","kind":"locality","name":"Medellin","population":3297000,"region_capital":true,"min_zoom":4.0,"id":7162},"coordinates":[2626,1172]},{"type":"Point","properties":{"kind":"region","name":"Atl\u00e1ntico","kind_detail":"state","name:eo":"Atlantiko","source":"openstreetmap.org","min_zoom":4.0,"name:ru":"\u0410\u0442\u043b\u0430\u043d\u0442\u0438\u043a\u043e","id":306394557,"population":2365663},"coordinates":[2731,2007]},{"type":"Point","properties":{"source":"naturalearthdata.com","kind":"locality","name":"Cali","population":2254000,"region_capital":true,"min_zoom":4.0,"id":7163},"coordinates":[2457,635]},{"type":"Point","properties":{"kind":"region","name":"Bol\u00edvar","kind_detail":"state","name:eo":"Bolivaro","source":"openstreetmap.org","min_zoom":4.0,"name:ru":"\u0411\u043e\u043b\u0438\u0432\u0430\u0440","id":306394527,"population":2229967},"coordinates":[2852,1680]},{"type":"Point","properties":{"source":"naturalearthdata.com","kind":"locality","name":"Santo Domingo","country_capital":true,"population":2154000,"min_zoom":4.0,"id":7188},"coordinates":[3659,3448]},{"type":"Point","properties":{"kind":"region","name":"Santander","kind_detail":"state","name:eo":"Santandero","source":"openstreetmap.org","min_zoom":4.0,"name:ru":"\u0421\u0430\u043d\u0442\u0430\u043d\u0434\u0435\u0440","id":306394501,"population":2085084},"coordinates":[3049,1307]},{"type":"Point","properties":{"source":"naturalearthdata.com","kind":"locality","name":"Maracaibo","population":2072000,"region_capital":true,"min_zoom":4.0,"id":7115},"coordinates":[3338,2003]},{"type":"Point","properties":{"kind":"region","name":"Nari\u00f1o","kind_detail":"state","name:eo":"Narino","source":"openstreetmap.org","min_zoom":4.0,"name:ru":"\u041d\u0430\u0440\u0438\u043d\u044c\u043e","id":306394524,"population":1775139},"coordinates":[2185,280]},{"type":"Point","properties":{"source":"openstreetmap.org","kind":"region","name":"San Jos\u00e9","kind_detail":"state","population":1500000,"min_zoom":4.0,"id":1328796425},"coordinates":[1037,1827]},{"type":"Point","properties":{"kind":"region","name":"Norte de Santander","kind_detail":"state","name:eo":"Norda Santandero","source":"openstreetmap.org","min_zoom":4.0,"name:ru":"\u0421\u0435\u0432\u0435\u0440\u043d\u044b\u0439 \u0421\u0430\u043d\u0442\u0430\u043d\u0434\u0435\u0440","id":306394554,"population":1493932},"coordinates":[3086,1576]},{"type":"Point","properties":{"kind":"region","name":"Boyac\u00e1","kind_detail":"state","name:eo":"Bojakao","source":"openstreetmap.org","min_zoom":4.0,"name:ru":"\u0411\u043e\u044f\u043a\u0430","id":306394580,"population":1411239},"coordinates":[3126,1051]},{"type":"Point","properties":{"kind":"region","name":"Magdalena","kind_detail":"state","name:eo":"Magdaleno","source":"openstreetmap.org","min_zoom":4.0,"name:ru":"\u041c\u0430\u0433\u0434\u0430\u043b\u0435\u043d\u0430","id":306394543,"population":1403318},"coordinates":[2822,1867]},{"type":"Point","properties":{"kind":"region","name":"C\u00f3rdoba","kind_detail":"state","name:eo":"Kordovo","source":"openstreetmap.org","min_zoom":4.0,"name:ru":"\u041a\u043e\u0440\u0434\u043e\u0431\u0430","id":306394513,"population":1392905},"coordinates":[2609,1556]},{"type":"Point","properties":{"kind":"region","name":"Cauca","kind_detail":"state","name:eo":"Ka\u016dko","source":"openstreetmap.org","min_zoom":4.0,"name:ru":"\u041a\u0430\u0443\u043a\u0430","id":306394508,"population":1363054},"coordinates":[2428,507]},{"type":"Point","properties":{"kind":"region","name":"Tolima","kind_detail":"state","name:eo":"Tolimo","source":"openstreetmap.org","min_zoom":4.0,"name:ru":"\u0422\u043e\u043b\u0438\u043c\u0430","id":306394523,"population":1312972},"coordinates":[2685,700]},{"type":"Point","properties":{"name:ja":"\u30ab\u30eb\u30c0\u30b9","name:lt":"Kaldas","name:ko":"\uce7c\ub2e4\uc2a4","name:ar":"\u0643\u0627\u0644\u062f\u0627\u0633","name:eo":"Kaldaso","min_zoom":4.0,"name:uk":"\u041a\u0430\u043b\u044c\u0434\u0430\u0441","name:ru":"\u041a\u0430\u043b\u0434\u0430\u0441","id":306394562,"population":1170187,"name:el":"\u039a\u03b1\u03bb\u03b4\u03ac\u03c2","kind":"region","name":"Caldas","kind_detail":"state","source":"openstreetmap.org","name:zh":"\u5361\u5c14\u8fbe\u65af\u7701"},"coordinates":[2678,995]},{"type":"Point","properties":{"kind":"region","name":"Cesar","kind_detail":"state","name:eo":"Cezaro","source":"openstreetmap.org","min_zoom":4.0,"name:ru":"\u0421\u0435\u0441\u0430\u0440","id":306394540,"population":1050303},"coordinates":[3004,1742]},{"type":"Point","properties":{"kind":"region","name":"Risaralda","kind_detail":"state","name:eo":"Risaraldo","source":"openstreetmap.org","min_zoom":4.0,"name:ru":"\u0420\u0438\u0441\u0430\u0440\u0430\u043b\u044c\u0434\u0430","id":306394583,"population":1024362},"coordinates":[2551,973]},{"type":"Point","properties":{"kind":"region","name":"Huila","kind_detail":"state","name:eo":"Ujlao","source":"openstreetmap.org","min_zoom":4.0,"name:ru":"\u0423\u0438\u043b\u0430","id":306394577,"population":994218},"coordinates":[2623,462]},{"type":"Point","properties":{"kind":"region","name":"Sucre","kind_detail":"state","name:eo":"Sukreo","source":"openstreetmap.org","min_zoom":4.0,"name:ru":"\u0421\u0443\u043a\u0440\u0435","id":306394572,"population":868648},"coordinates":[2731,1680]},{"type":"Point","properties":{"kind":"region","name":"Meta","kind_detail":"state","name:eo":"Metao","source":"openstreetmap.org","min_zoom":4.0,"name:ru":"\u041c\u0435\u0442\u0430","id":306394504,"population":771089},"coordinates":[3095,653]},{"type":"Point","properties":{"kind":"region","name":"Quind\u00edo","kind_detail":"state","name:eo":"Kindio","source":"openstreetmap.org","min_zoom":4.0,"name:ru":"\u041a\u0438\u043d\u0434\u0438\u043e","id":306394556,"population":613375},"coordinates":[2599,811]},{"type":"Point","properties":{"kind":"region","name":"La Guajira","kind_detail":"state","name:eo":"La G\u016da\u0125ira","source":"openstreetmap.org","min_zoom":4.0,"name:ru":"\u0413\u0443\u0430\u0445\u0438\u0440\u0430","id":306394511,"population":524619},"coordinates":[3165,2105]},{"type":"Point","properties":{"kind":"region","name":"Caquet\u00e1","kind_detail":"state","name:eo":"Kaketao","source":"openstreetmap.org","min_zoom":4.0,"name:ru":"\u041a\u0430\u043a\u044c\u0435\u0442\u0430","id":306394531,"population":463333},"coordinates":[2893,208]},{"type":"Point","properties":{"kind":"region","name":"Choc\u00f3","kind_detail":"state","name:eo":"\u0108okoo","source":"openstreetmap.org","min_zoom":4.0,"name:ru":"\u0427\u043e\u043a\u043e","id":306394516,"population":413173},"coordinates":[2367,1120]},{"type":"Point","properties":{"kind":"region","name":"Putumayo","kind_detail":"state","name:eo":"Putumajo","source":"openstreetmap.org","min_zoom":4.0,"name:ru":"\u041f\u0443\u0442\u0443\u043c\u0430\u0439\u043e","id":306394564,"population":378483},"coordinates":[2549,93]},{"type":"Point","properties":{"kind":"region","name":"Casanare","kind_detail":"state","name:eo":"Kasanareo","source":"openstreetmap.org","min_zoom":4.0,"name:ru":"\u041a\u0430\u0441\u0430\u043d\u0430\u0440","id":306394536,"population":325713},"coordinates":[3368,1027]},{"type":"Point","properties":{"kind":"region","name":"Arauca","kind_detail":"state","name:eo":"Ara\u016dko","source":"openstreetmap.org","min_zoom":4.0,"name:ru":"\u0410\u0440\u0430\u0443\u043a\u0430","id":306394548,"population":282302},"coordinates":[3459,1244]},{"type":"Point","properties":{"kind":"region","name":"Guaviare","kind_detail":"state","name:eo":"G\u016davjaro","source":"openstreetmap.org","min_zoom":4.0,"name:ru":"\u0413\u0443\u0430\u0432\u0438\u0430\u0440","id":306394518,"population":133236},"coordinates":[3127,315]},{"type":"Point","properties":{"kind":"region","name":"Vichada","kind_detail":"state","name:eo":"Vi\u0109ado","source":"openstreetmap.org","min_zoom":4.0,"name:ru":"\u0412\u0438\u0447\u0430\u0434\u0430","id":306394574,"population":97276},"coordinates":[3732,933]},{"type":"Point","properties":{"kind":"region","name:en":"San Andr\u00e9s and Providencia","name":"San Andr\u00e9s y Providencia","kind_detail":"state","name:eo":"Sankta Andreo kaj Providenco","official_name":"Archipi\u00e9lago de San Andr\u00e9s, Providencia y Santa Catalina","name:de":"San Andr\u00e9s und Providencia","source":"openstreetmap.org","min_zoom":4.0,"name:ru":"\u0421\u0430\u043d-\u0410\u043d\u0434\u0440\u0435\u0441-\u0438-\u041f\u0440\u043e\u0432\u0438\u0434\u0435\u043d\u0446\u0438\u044f","id":306394506,"population":83491},"coordinates":[1549,2391]},{"type":"Point","properties":{"kind":"region","name":"Guain\u00eda","kind_detail":"state","name:eo":"Gvajnio","source":"openstreetmap.org","min_zoom":4.0,"name:ru":"\u0413\u0443\u0430\u0438\u043d\u044c\u044f","id":306394521,"population":43314},"coordinates":[3823,467]},{"type":"Point","properties":{"kind":"region","name":"Vaup\u00e9s","kind_detail":"state","name:eo":"Va\u016dpeso","source":"openstreetmap.org","min_zoom":4.0,"name:ru":"\u0412\u0430\u0443\u043f\u0435\u0441","id":306394579,"population":33152},"coordinates":[3504,47]},{"type":"Point","properties":{"source":"openstreetmap.org","kind":"region","name":"Esmeraldas","name:ru":"\u042d\u0441\u043c\u0435\u0440\u0430\u043b\u044c\u0434\u0430\u0441","kind_detail":"state","min_zoom":4.0,"id":470287874},"coordinates":[1932,137]},{"type":"Point","properties":{"source":"openstreetmap.org","kind":"region","name":"Guanacaste","kind_detail":"state","min_zoom":4.0,"id":859637912},"coordinates":[814,1962]},{"type":"Point","properties":{"source":"openstreetmap.org","kind":"region","name":"Puntarenas","kind_detail":"state","min_zoom":4.0,"id":859637913},"coordinates":[935,1880]},{"type":"Point","properties":{"source":"openstreetmap.org","kind":"region","name":"Alajuela","kind_detail":"state","min_zoom":4.0,"id":859637917},"coordinates":[955,1996]},{"type":"Point","properties":{"source":"openstreetmap.org","kind":"region","name":"Cartago","kind_detail":"state","min_zoom":4.0,"id":859637916},"coordinates":[1145,1818]},{"type":"Point","properties":{"source":"openstreetmap.org","kind":"region","name":"Heredia","kind_detail":"state","min_zoom":4.0,"id":859637914},"coordinates":[1080,1937]},{"type":"Point","properties":{"source":"openstreetmap.org","kind":"region","name":"Imbabura","name:ru":"\u0418\u043c\u0431\u0430\u0431\u0443\u0440\u0430","kind_detail":"state","min_zoom":4.0,"id":470293880},"coordinates":[2120,70]},{"type":"Point","properties":{"source":"openstreetmap.org","kind":"region","name":"Carchi","name:ru":"\u041a\u0430\u0440\u0447\u0438","kind_detail":"state","min_zoom":4.0,"id":470295913},"coordinates":[2147,156]},{"type":"Point","properties":{"kind":"region","name":"T\u00e1chira","kind_detail":"state","name:eo":"Ta\u0109iro","source":"openstreetmap.org","min_zoom":4.0,"name:ru":"\u0422\u0430\u0447\u0438\u0440\u0430","id":313467056},"coordinates":[3259,1490]},{"type":"Point","properties":{"kind":"region","name":"Falc\u00f3n","kind_detail":"state","name:eo":"Falkono","source":"openstreetmap.org","min_zoom":4.0,"name:ru":"\u0424\u0430\u043b\u044c\u043a\u043e\u043d","id":313467090},"coordinates":[3671,2053]},{"type":"Point","properties":{"kind":"region","name":"Barinas","kind_detail":"state","name:eo":"Barinaso","source":"openstreetmap.org","min_zoom":4.0,"name:ru":"\u0411\u0430\u0440\u0438\u043d\u0430\u0441","id":313466839},"coordinates":[3671,1524]},{"type":"Point","properties":{"kind":"region","name":"Apure","kind_detail":"state","name:eo":"Apuro","source":"openstreetmap.org","min_zoom":4.0,"name:ru":"\u0410\u043f\u0443\u0440\u0435","id":313466933},"coordinates":[3853,1338]},{"type":"Point","properties":{"source":"openstreetmap.org","kind":"region","name":"Trujillo","kind_detail":"state","min_zoom":4.0,"id":2526052935},"coordinates":[3543,1787]},{"type":"Point","properties":{"kind":"region","name":"Zulia","kind_detail":"state","name:eo":"Zulio","source":"openstreetmap.org","min_zoom":4.0,"name:ru":"\u0421\u0443\u043b\u0438\u044f","id":313466923},"coordinates":[3237,1875]},{"type":"Point","properties":{"kind":"region","name":"Portuguesa","kind_detail":"state","name:eo":"Portugeso","source":"openstreetmap.org","min_zoom":4.0,"name:ru":"\u041f\u043e\u0440\u0442\u0443\u0433\u0435\u0441\u0430","id":313467071},"coordinates":[3777,1711]},{"type":"Point","properties":{"kind":"region","name":"Cojedes","kind_detail":"state","name:eo":"Kojedeso","source":"openstreetmap.org","min_zoom":4.0,"name:ru":"\u041a\u043e\u0445\u0435\u0434\u0435\u0441","id":313466946},"coordinates":[3944,1742]},{"type":"Point","properties":{"kind":"region","name":"Lara","kind_detail":"state","name:eo":"Laro","source":"openstreetmap.org","min_zoom":4.0,"name:ru":"\u041b\u0430\u0440\u0430","id":313467044},"coordinates":[3674,1909]},{"type":"Point","properties":{"source":"openstreetmap.org","kind":"region","name":"Yaracuy","name:ru":"\u042f\u0440\u0430\u043a\u0443\u0439","kind_detail":"state","min_zoom":4.0,"id":313467052},"coordinates":[3868,1929]},{"type":"Point","properties":{"kind":"region","name":"Carabobo","kind_detail":"state","name:eo":"Karabobo","source":"openstreetmap.org","min_zoom":4.0,"name:ru":"\u041a\u0430\u0440\u0430\u0431\u043e\u0431\u043e","id":313467022},"coordinates":[3990,1898]},{"type":"Point","properties":{"source":"openstreetmap.org","kind":"region","name":"Pedernales","kind_detail":"state","min_zoom":4.0,"id":2652225303},"coordinates":[3362,3352]},{"type":"Point","properties":{"source":"openstreetmap.org","kind":"region","name":"Independencia","kind_detail":"state","min_zoom":4.0,"id":2652225277},"coordinates":[3343,3432]},{"type":"Point","properties":{"source":"openstreetmap.org","kind":"region","name":"Bahoruco","kind_detail":"state","min_zoom":4.0,"id":2652225267},"coordinates":[3399,3456]},{"type":"Point","properties":{"source":"openstreetmap.org","kind":"region","name":"Peravia","kind_detail":"state","min_zoom":4.0,"id":2652225306},"coordinates":[3573,3422]},{"type":"Point","properties":{"source":"openstreetmap.org","kind":"region","name":"San Jos\u00e9 de Ocoa","kind_detail":"state","min_zoom":4.0,"id":2652225320},"coordinates":[3550,3474]},{"type":"Point","properties":{"source":"openstreetmap.org","kind":"region","name":"Monse\u00f1or Nouel","kind_detail":"state","min_zoom":4.0,"id":2652225292},"coordinates":[3565,3525]},{"type":"Point","properties":{"source":"openstreetmap.org","kind":"region","name":"El\u00edas Pi\u00f1a","kind_detail":"state","min_zoom":4.0,"id":2652225273},"coordinates":[3332,3546]},{"type":"Point","properties":{"source":"openstreetmap.org","kind":"region","name":"Dajab\u00f3n","kind_detail":"state","min_zoom":4.0,"id":2652225269},"coordinates":[3349,3632]},{"type":"Point","properties":{"source":"openstreetmap.org","kind":"region","name":"Santiago Rodr\u00edguez","kind_detail":"state","min_zoom":4.0,"id":2652225329},"coordinates":[3402,3618]},{"type":"Point","properties":{"source":"openstreetmap.org","kind":"region","name":"Valverde","kind_detail":"state","min_zoom":4.0,"id":2652225342},"coordinates":[3450,3655]},{"type":"Point","properties":{"source":"openstreetmap.org","kind":"region","name":"Santiago","kind_detail":"state","min_zoom":4.0,"id":2652225332},"coordinates":[3476,3608]},{"type":"Point","properties":{"source":"openstreetmap.org","kind":"region","name":"Hermanas Mirabal","kind_detail":"state","min_zoom":4.0,"id":2652225276},"coordinates":[3569,3623]},{"type":"Point","properties":{"source":"openstreetmap.org","kind":"region","name":"Espaillat","kind_detail":"state","min_zoom":4.0,"id":2652225274},"coordinates":[3553,3654]},{"type":"Point","properties":{"source":"openstreetmap.org","kind":"region","name":"San Crist\u00f3bal","kind_detail":"state","min_zoom":4.0,"id":2652225316},"coordinates":[3603,3457]},{"type":"Point","properties":{"source":"openstreetmap.org","kind":"region","name":"Santo Domingo","kind_detail":"state","min_zoom":4.0,"id":2652225336},"coordinates":[3668,3465]},{"type":"Point","properties":{"source":"openstreetmap.org","kind":"region","name":"Monte Plata","kind_detail":"state","min_zoom":4.0,"id":2652225300},"coordinates":[3676,3515]},{"type":"Point","properties":{"source":"openstreetmap.org","kind":"region","name":"San Pedro de Macor\u00eds","kind_detail":"state","min_zoom":4.0,"id":2652225326},"coordinates":[3736,3455]},{"type":"Point","properties":{"source":"openstreetmap.org","kind":"region","name":"La Romana","kind_detail":"state","min_zoom":4.0,"id":2652225281},"coordinates":[3827,3453]},{"type":"Point","properties":{"source":"openstreetmap.org","kind":"region","name":"Hato Mayor","kind_detail":"state","min_zoom":4.0,"id":2652225275},"coordinates":[3759,3522]},{"type":"Point","properties":{"source":"openstreetmap.org","kind":"region","name":"S\u00e1nchez Ram\u00edrez","kind_detail":"state","min_zoom":4.0,"id":2652225339},"coordinates":[3615,3550]},{"type":"Point","properties":{"source":"openstreetmap.org","kind":"region","name":"Duarte","kind_detail":"state","min_zoom":4.0,"id":2652225270},"coordinates":[3625,3592]},{"type":"Point","properties":{"source":"openstreetmap.org","kind":"region","name":"Mar\u00eda Trinidad S\u00e1nchez","kind_detail":"state","min_zoom":4.0,"id":2652225288},"coordinates":[3644,3630]},{"type":"Point","properties":{"source":"openstreetmap.org","kind":"region","name":"La Altagracia","kind_detail":"state","min_zoom":4.0,"id":2652225278},"coordinates":[3885,3469]},{"type":"Point","properties":{"source":"openstreetmap.org","kind":"region","name":"Monte Cristi","kind_detail":"state","min_zoom":4.0,"id":2652225296},"coordinates":[3378,3682]},{"type":"Point","properties":{"source":"openstreetmap.org","kind":"region","name":"Puerto Plata","kind_detail":"state","min_zoom":4.0,"id":2652225309},"coordinates":[3495,3686]},{"type":"Point","properties":{"kind":"region","name":"Centre","kind_detail":"state","source":"openstreetmap.org","min_zoom":4.0,"name:pl":"Departament Centralny","name:ru":"\u0426\u0435\u043d\u0442\u0440\u0430\u043b\u044c\u043d\u044b\u0439 \u0434\u0435\u043f\u0430\u0440\u0442\u0430\u043c\u0435\u043d\u0442","name:ht":"Sant","id":618755470},"coordinates":[3278,3545]},{"type":"Point","properties":{"kind":"region","name":"Grand'Anse","kind_detail":"state","source":"openstreetmap.org","min_zoom":4.0,"name:pl":"Departament Grand'Anse","name:ru":"\u0413\u0440\u0430\u043d\u0434-\u0410\u043d\u0441","name:ht":"Grandans","id":618756414},"coordinates":[2885,3459]},{"type":"Point","properties":{"kind":"region","name":"Nippes","kind_detail":"state","source":"openstreetmap.org","min_zoom":4.0,"name:pl":"Departament Nippes","name:ru":"\u041d\u0438\u043f","name:ht":"Nip","id":618757391},"coordinates":[3024,3442]},{"type":"Point","properties":{"kind":"region","name":"Nord","kind_detail":"state","source":"openstreetmap.org","min_zoom":4.0,"name:pl":"Departament P\u00f3\u0142nocny","name:ru":"\u0421\u0435\u0432\u0435\u0440\u043d\u044b\u0439 \u0434\u0435\u043f\u0430\u0440\u0442\u0430\u043c\u0435\u043d\u0442","name:ht":"N\u00f2","id":618759492},"coordinates":[3228,3663]},{"type":"Point","properties":{"kind":"region","name:en":"North-East","name":"Nord-Est","kind_detail":"state","name:de":"Nordost","source":"openstreetmap.org","min_zoom":4.0,"name:pl":"Departament P\u00f3\u0142nocno-Wschodni","name:ru":"\u0421\u0435\u0432\u0435\u0440\u043e-\u0412\u043e\u0441\u0442\u043e\u0447\u043d\u044b\u0439 \u0434\u0435\u043f\u0430\u0440\u0442\u0430\u043c\u0435\u043d\u0442","name:ht":"N\u00f2d\u00e8s","id":618760787},"coordinates":[3300,3643]},{"type":"Point","properties":{"kind":"region","name:en":"North-West","name":"Nord-Ouest","kind_detail":"state","name:de":"Nordwest","source":"openstreetmap.org","min_zoom":4.0,"name:pl":"Departament P\u00f3\u0142nocno-Zachodni","name:ru":"\u0421\u0435\u0432\u0435\u0440\u043e-\u0417\u0430\u043f\u0430\u0434\u043d\u044b\u0439 \u0434\u0435\u043f\u0430\u0440\u0442\u0430\u043c\u0435\u043d\u0442","name:ht":"N\u00f2dw\u00e8s","id":618761050},"coordinates":[3084,3705]},{"type":"Point","properties":{"kind":"region","name:en":"West","name":"Ouest","kind_detail":"state","name:de":"West","source":"openstreetmap.org","min_zoom":4.0,"name:pl":"Departament Zachodni","name:ru":"\u0417\u0430\u043f\u0430\u0434\u043d\u044b\u0439 \u0434\u0435\u043f\u0430\u0440\u0442\u0430\u043c\u0435\u043d\u0442","name:ht":"Lw\u00e8s","id":618762860},"coordinates":[3197,3503]},{"type":"Point","properties":{"kind":"region","name:en":"South-East","name":"Sud-Est","kind_detail":"state","name:de":"S\u00fcdost","source":"openstreetmap.org","min_zoom":4.0,"name:pl":"Departament Po\u0142udniowo-Wschodni","name:ru":"\u042e\u0433\u043e-\u0412\u043e\u0441\u0442\u043e\u0447\u043d\u044b\u0439 \u0434\u0435\u043f\u0430\u0440\u0442\u0430\u043c\u0435\u043d\u0442","name:ht":"Sid\u00e8s","id":618769644},"coordinates":[3209,3415]},{"type":"Point","properties":{"kind":"region","name:en":"South","name":"Sud","kind_detail":"state","name:de":"S\u00fcd","source":"openstreetmap.org","min_zoom":4.0,"name:pl":"Departament Po\u0142udniowy","name:ru":"\u042e\u0436\u043d\u044b\u0439 \u0434\u0435\u043f\u0430\u0440\u0442\u0430\u043c\u0435\u043d\u0442","name:ht":"Sid","id":618769994},"coordinates":[2941,3409]},{"type":"Point","properties":{"source":"openstreetmap.org","kind":"region","name":"Artibonite","kind_detail":"state","min_zoom":4.0,"id":620051802},"coordinates":[3171,3587]},{"type":"Point","properties":{"source":"openstreetmap.org","kind":"region","name":"Lim\u00f3n","name:lt":"Limono provincija","kind_detail":"state","min_zoom":4.0,"id":859637911},"coordinates":[1168,1937]},{"type":"Point","properties":{"kind":"region","name":"Quintana Roo","kind_detail":"state","name:eo":"Kintanaroo","official_name":"Estado de Quintana Roo","source":"openstreetmap.org","min_zoom":4.0,"name:uk":"\u041a\u0456\u043d\u0442\u0430\u043d\u0430-\u0420\u043e\u043e","name:ru":"\u041a\u0438\u043d\u0442\u0430\u043d\u0430-\u0420\u043e\u043e","id":305626621},"coordinates":[273,3671]},{"type":"Point","properties":{"kind":"region","name":"Yucat\u00e1n","alt_name:de":"Yukatan","kind_detail":"state","name:eo":"Jukatano","official_name":"Estado de Yucat\u00e1n","source":"openstreetmap.org","min_zoom":4.0,"name:la":"Iucatania","name:uk":"\u042e\u043a\u0430\u0442\u0430\u043d","name:ru":"\u042e\u043a\u0430\u0442\u0430\u043d","name:pl":"Jukatan","id":2160053458},"coordinates":[205,3861]},{"type":"Point","properties":{"admin_level":"4","kind":"region","name":"Regi\u00f3n Aut\u00f3noma de la Costa Caribe Sur","short_name":"RACCS","kind_detail":"state","name:eo":"A\u016dtonoma Regiono Suda Atlantiko","source":"openstreetmap.org","min_zoom":4.0,"id":2775799305},"coordinates":[1074,2344]},{"type":"Point","properties":{"admin_level":"4","kind":"region","name":"Regi\u00f3n Aut\u00f3noma de la Costa Caribe Norte","short_name":"RACCN","kind_detail":"state","name:eo":"A\u016dtonoma Regiono Norda Atlantiko","source":"openstreetmap.org","min_zoom":4.0,"id":2923223363},"coordinates":[1114,2677]},{"type":"Point","properties":{"kind":"region","name":"M\u00e9rida","kind_detail":"state","name:eo":"Merido","source":"openstreetmap.org","min_zoom":4.0,"name:ru":"\u041c\u0435\u0440\u0438\u0434\u0430","id":313466830},"coordinates":[3430,1638]},{"type":"Point","properties":{"source":"openstreetmap.org","kind":"region","name":"Azua","name:ru":"\u0410\u0441\u0443\u0430","kind_detail":"state","min_zoom":4.0,"id":2652225266},"coordinates":[3489,3468]},{"type":"Point","properties":{"source":"openstreetmap.org","kind":"region","name":"Barahona","name:ru":"\u0411\u0430\u0440\u0430\u043e\u043d\u0430","kind_detail":"state","min_zoom":4.0,"id":2652225268},"coordinates":[3421,3392]},{"type":"Point","properties":{"source":"openstreetmap.org","kind":"region","name":"La Vega","name:ru":"\u041b\u0430-\u0412\u0435\u0433\u0430","kind_detail":"state","min_zoom":4.0,"id":2652225284},"coordinates":[3526,3556]},{"type":"Point","properties":{"source":"openstreetmap.org","kind":"region","name":"Saman\u00e1","name:ru":"\u0421\u0430\u043c\u0430\u043d\u0430","kind_detail":"state","min_zoom":4.0,"id":2652225313},"coordinates":[3733,3596]},{"type":"Point","properties":{"source":"openstreetmap.org","kind":"region","name":"San Juan","name:ru":"\u0421\u0430\u043d-\u0425\u0443\u0430\u043d","kind_detail":"state","min_zoom":4.0,"id":2652225323},"coordinates":[3407,3524]},{"type":"Point","properties":{"source":"openstreetmap.org","kind":"region","name":"Chiriqu\u00ed","kind_detail":"state","min_zoom":4.0,"name:eo":"\u0108irikio","id":2537069583},"coordinates":[1348,1596]},{"type":"Point","properties":{"source":"openstreetmap.org","kind":"region","name":"Bocas del Toro","kind_detail":"state","min_zoom":4.0,"name:eo":"Bokas-del-Toro","id":2537777115},"coordinates":[1373,1746]},{"type":"Point","properties":{"source":"openstreetmap.org","kind":"region","name":"Ng\u00e4be Bugl\u00e9","kind_detail":"state","min_zoom":4.0,"name:eo":"Ngabe-Bugleo","id":2537777133},"coordinates":[1435,1661]},{"type":"Point","properties":{"source":"openstreetmap.org","kind":"region","name":"Dari\u00e9n","kind_detail":"state","min_zoom":4.0,"name:eo":"Darjeno","id":4644141122},"coordinates":[2181,1534]},{"type":"Point","properties":{"kind":"region","name":"Izabal","kind_detail":"state","name:eo":"Izabalo","source":"openstreetmap.org","min_zoom":4.0,"name:ru":"\u0418\u0441\u0430\u0431\u0430\u043b\u044c","id":472114108},"coordinates":[257,2938]},{"type":"Point","properties":{"kind":"region","name":"Pet\u00e9n","kind_detail":"state","name:eo":"Peteno","source":"openstreetmap.org","min_zoom":4.0,"name:ru":"\u041f\u0435\u0442\u0435\u043d","id":472114124},"coordinates":[18,3155]},{"type":"Point","properties":{"kind":"region","name":"Zacapa","kind_detail":"state","name:eo":"Zakapo","source":"openstreetmap.org","min_zoom":4.0,"name:ru":"\u0421\u0430\u043a\u0430\u043f\u0430","id":1073096525},"coordinates":[88,2794]},{"type":"Point","properties":{"admin_level":"4","kind":"region","name":"Boaco","kind_detail":"state","name:eo":"Boako","source":"openstreetmap.org","min_zoom":4.0,"id":2923223351},"coordinates":[825,2329]},{"type":"Point","properties":{"admin_level":"4","kind":"region","name":"Carazo","kind_detail":"state","name:eo":"Karazo","source":"openstreetmap.org","min_zoom":4.0,"id":2923223352},"coordinates":[672,2177]},{"type":"Point","properties":{"admin_level":"4","kind":"region","name":"Chinandega","kind_detail":"state","name:eo":"\u0108inandego","source":"openstreetmap.org","min_zoom":4.0,"id":2923223353},"coordinates":[554,2406]},{"type":"Point","properties":{"admin_level":"4","kind":"region","name":"Chontales","kind_detail":"state","name:eo":"\u0108ontaleso","source":"openstreetmap.org","min_zoom":4.0,"id":2923223354},"coordinates":[892,2220]},{"type":"Point","properties":{"admin_level":"4","kind":"region","name":"Estel\u00ed","kind_detail":"state","name:eo":"Estelio","source":"openstreetmap.org","min_zoom":4.0,"id":2923223355},"coordinates":[645,2472]},{"type":"Point","properties":{"admin_level":"4","kind":"region","name":"Granada","kind_detail":"state","name:eo":"Granado","source":"openstreetmap.org","min_zoom":4.0,"id":2923223356},"coordinates":[746,2205]},{"type":"Point","properties":{"admin_level":"4","kind":"region","name":"Le\u00f3n","kind_detail":"state","name:eo":"Leono","source":"openstreetmap.org","min_zoom":4.0,"id":2923223358},"coordinates":[620,2356]},{"type":"Point","properties":{"admin_level":"4","kind":"region","name":"Madriz","kind_detail":"state","name:eo":"Madrizo","source":"openstreetmap.org","min_zoom":4.0,"id":2923223359},"coordinates":[666,2522]},{"type":"Point","properties":{"admin_level":"4","kind":"region","name":"Managua","kind_detail":"state","name:eo":"Managvo","source":"openstreetmap.org","min_zoom":4.0,"id":2923223360},"coordinates":[633,2228]},{"type":"Point","properties":{"admin_level":"4","kind":"region","name":"Matagalpa","kind_detail":"state","name:eo":"Matagalpo","source":"openstreetmap.org","min_zoom":4.0,"id":2923223361},"coordinates":[819,2420]},{"type":"Point","properties":{"admin_level":"4","kind":"region","name":"Nueva Segovia","kind_detail":"state","name:eo":"Nova Segovio","source":"openstreetmap.org","min_zoom":4.0,"id":2923223362},"coordinates":[717,2572]},{"type":"Point","properties":{"admin_level":"4","kind":"region","name":"Rivas","kind_detail":"state","name:eo":"Rivaso","source":"openstreetmap.org","min_zoom":4.0,"id":2923223364},"coordinates":[797,2126]},{"type":"Point","properties":{"admin_level":"4","kind":"region","name":"R\u00edo San Juan","kind_detail":"state","name:eo":"Rivero Sankta Johano","source":"openstreetmap.org","min_zoom":4.0,"id":2923223365},"coordinates":[1017,2093]},{"type":"Point","properties":{"admin_level":"4","kind":"region","name":"Masaya","kind_detail":"state","name:eo":"Masajo","source":"openstreetmap.org","min_zoom":4.0,"id":2923256183},"coordinates":[719,2240]},{"type":"Point","properties":{"admin_level":"4","kind":"region","name":"Jinotega","kind_detail":"state","name:eo":"\u0124inotegao","source":"openstreetmap.org","min_zoom":4.0,"id":2923223357},"coordinates":[728,2447]}]},"transit":{"type":"GeometryCollection","geometries":[]},"pois":{"type":"GeometryCollection","geometries":[{"type":"Point","properties":{"kind":"national_park","protect_class":"2","area":27908500000,"source":"openstreetmap.org","min_zoom":3.41,"tier":1,"id":-6637001,"osm_relation":true,"name":"Parque Nacional Natural Sierra de Chiribiquete"},"coordinates":[3153,129]},{"type":"Point","properties":{"kind":"nature_reserve","tier":2,"protect_class":"24","area":79934000000,"source":"openstreetmap.org","min_zoom":4.15,"operator":"Funda\u00e7\u00e3o Nacional do \u00cdndio","id":-3910734,"osm_relation":true,"name":"Terra Ind\u00edgena Alto Rio Negro"},"coordinates":[3908,107]},{"type":"Point","properties":{"kind":"national_park","name:en":"Patuca National Park","name":"Parque Nacional Patuca","area":4030460000,"name:de":"Nationalpark Patuca","source":"openstreetmap.org","min_zoom":4.8,"tier":1,"id":-553401,"osm_relation":true},"coordinates":[834,2711]}]},"boundaries":{"type":"GeometryCollection","geometries":[{"type":"LineString","properties":{"source":"naturalearthdata.com","kind":"country","sort_rank":262,"kind_detail":"2","min_zoom":0.0,"id":207},"arcs":[0]},{"type":"MultiLineString","properties":{"source":"naturalearthdata.com","kind":"country","sort_rank":262,"kind_detail":"2","min_zoom":0.0,"id":240},"arcs":[[1],[2],[3]]},{"type":"LineString","properties":{"source":"naturalearthdata.com","kind":"country","sort_rank":262,"kind_detail":"2","min_zoom":0.0,"id":256},"arcs":[4]},{"type":"LineString","properties":{"source":"naturalearthdata.com","kind":"country","sort_rank":262,"kind_detail":"2","min_zoom":0.0,"id":337},"arcs":[5]},{"type":"LineString","properties":{"source":"naturalearthdata.com","kind":"country","sort_rank":262,"kind_detail":"2","min_zoom":0.0,"id":100},"arcs":[6]},{"type":"LineString","properties":{"source":"naturalearthdata.com","kind":"country","sort_rank":262,"kind_detail":"2","min_zoom":0.0,"id":104},"arcs":[7]},{"type":"LineString","properties":{"source":"naturalearthdata.com","kind":"country","sort_rank":262,"kind_detail":"2","min_zoom":0.0,"id":130},"arcs":[8]},{"type":"LineString","properties":{"source":"naturalearthdata.com","kind":"country","sort_rank":262,"kind_detail":"2","min_zoom":0.0,"id":131},"arcs":[9]},{"type":"LineString","properties":{"source":"naturalearthdata.com","kind":"country","sort_rank":262,"kind_detail":"2","min_zoom":0.0,"id":132},"arcs":[10]},{"type":"LineString","properties":{"source":"naturalearthdata.com","kind":"country","sort_rank":262,"kind_detail":"2","min_zoom":0.0,"id":208},"arcs":[11]},{"type":"LineString","properties":{"source":"naturalearthdata.com","kind":"country","sort_rank":262,"kind_detail":"2","min_zoom":0.0,"id":238},"arcs":[12]},{"type":"LineString","properties":{"source":"naturalearthdata.com","kind":"country","sort_rank":262,"kind_detail":"2","min_zoom":0.0,"id":239},"arcs":[13]},{"type":"LineString","properties":{"source":"naturalearthdata.com","kind":"country","sort_rank":262,"kind_detail":"2","min_zoom":0.0,"id":259},"arcs":[14]},{"type":"LineString","properties":{"source":"naturalearthdata.com","kind":"country","sort_rank":262,"kind_detail":"2","min_zoom":0.0,"id":322},"arcs":[15]}]},"roads":{"type":"GeometryCollection","geometries":[]},"earth":{"type":"GeometryCollection","geometries":[{"type":"MultiPolygon","properties":{"sort_rank":10,"source":"naturalearthdata.com","min_zoom":0.0,"kind":"earth","area":6126806313666},"arcs":[[[86]],[[87]],[[88]],[[89]],[[90]],[[91]],[[92]],[[93]],[[94]],[[95]],[[96]],[[97]],[[98]],[[99]],[[100]],[[101]],[[102]],[[103]],[[104]],[[105]],[[106]],[[107]],[[108]],[[109]],[[110]]]}]},"landuse":{"type":"GeometryCollection","geometries":[{"type":"Polygon","properties":{"kind":"park","name":"Parque Nacional Natural Sierra de la Macarena","area":6137950208,"sort_rank":24,"source":"openstreetmap.org","min_zoom":4.0,"tier":2,"id":-2626665,"osm_relation":true},"arcs":[[111]]},{"type":"Polygon","properties":{"kind":"nature_reserve","name":"Reserva de la biosfera Sierra de las Minas","area":2602700032,"sort_rank":23,"source":"openstreetmap.org","min_zoom":4.0,"tier":2,"id":-546738,"osm_relation":true},"arcs":[[112]]},{"type":"Polygon","properties":{"kind":"park","name":"Parque Nacional Natural Corales del Rosario y de San Bernardo","area":1275469952,"sort_rank":24,"source":"openstreetmap.org","min_zoom":4.0,"tier":2,"id":-7669493,"osm_relation":true},"arcs":[[113]]},{"type":"Polygon","properties":{"kind":"nature_reserve","name":"Terra Ind\u00edgena Alto Rio Negro","area":79933997056,"sort_rank":23,"operator":"Funda\u00e7\u00e3o Nacional do \u00cdndio","source":"openstreetmap.org","min_zoom":4.0,"tier":2,"id":-3910734,"osm_relation":true,"protect_class":"24"},"arcs":[[114]]},{"type":"Polygon","properties":{"kind":"park","name":"Reserva Forestal de Ticoporo","area":1756150016,"sort_rank":24,"source":"openstreetmap.org","min_zoom":4.0,"tier":2,"id":-3420528,"osm_relation":true},"arcs":[[115],[116]]},{"type":"Polygon","properties":{"kind":"national_park","name":"Parque Nacional Guanahacabibes","area":518720992,"sort_rank":18,"source":"openstreetmap.org","min_zoom":3.0,"tier":1,"id":-6488943,"osm_relation":true,"protect_class":"2"},"arcs":[[117]]},{"type":"Polygon","properties":{"kind":"park","name":"Parque Nacional Jos\u00e9 Armando Berm\u00fadez","area":1159320064,"sort_rank":24,"source":"openstreetmap.org","min_zoom":4.0,"tier":2,"id":346306919},"arcs":[[118]]},{"type":"Polygon","properties":{"kind":"nature_reserve","name":"Reserva de Biosfera Guanahacabibes","area":1799570048,"sort_rank":23,"source":"openstreetmap.org","min_zoom":4.0,"tier":2,"id":-6488944,"osm_relation":true},"arcs":[[119]]},{"type":"Polygon","properties":{"kind":"park","name":"Reserva Ecol\u00f3gica Cayambe-Coca","area":4158010112,"sort_rank":24,"source":"openstreetmap.org","min_zoom":4.0,"tier":2,"id":-225646,"osm_relation":true},"arcs":[[120]]},{"type":"Polygon","properties":{"kind":"national_park","name":"Parque Nacional Jeanette Kawas","area":839468032,"sort_rank":18,"source":"openstreetmap.org","min_zoom":3.0,"tier":1,"id":-556267,"osm_relation":true},"arcs":[[121]]},{"type":"Polygon","properties":{"kind":"national_park","name":"Parque Nacional Natural Farallones de Cali","area":2078279936,"sort_rank":18,"source":"openstreetmap.org","min_zoom":3.0,"tier":1,"id":-912599,"osm_relation":true,"protect_class":"2"},"arcs":[[122]]},{"type":"Polygon","properties":{"kind":"nature_reserve","name":"Reserva Ecol\u00f3gica Cotacachi-Cayapas","area":2327859968,"sort_rank":23,"source":"openstreetmap.org","min_zoom":4.0,"tier":2,"id":-225653,"osm_relation":true,"protect_class":"4"},"arcs":[[123]]},{"type":"Polygon","properties":{"kind":"park","name":"Parque Nacional Chagres","area":1333760000,"sort_rank":24,"source":"openstreetmap.org","min_zoom":4.0,"tier":2,"id":-3262889,"osm_relation":true},"arcs":[[124]]},{"type":"Polygon","properties":{"kind":"park","name":"Parque Internacional La Amistad","area":1629490048,"sort_rank":24,"source":"openstreetmap.org","min_zoom":4.0,"tier":2,"id":93254144},"arcs":[[125]]},{"type":"Polygon","properties":{"kind":"park","name":"Parque Nacional Natural Sumapaz","area":2288150016,"sort_rank":24,"source":"openstreetmap.org","min_zoom":4.0,"tier":2,"id":-4755934,"osm_relation":true},"arcs":[[126]]},{"type":"Polygon","properties":{"kind":"park","name":"Parque Nacional Natural Nukak","area":8942029824,"sort_rank":24,"source":"openstreetmap.org","min_zoom":4.0,"tier":2,"id":-4840223,"osm_relation":true},"arcs":[[127]]},{"type":"Polygon","properties":{"kind":"park","name":"Parque Nacional Natural El Cocuy","area":3141040128,"sort_rank":24,"source":"openstreetmap.org","min_zoom":4.0,"tier":2,"id":-912564,"osm_relation":true},"arcs":[[128]]},{"type":"Polygon","properties":{"kind":"national_park","name":"Parque Nacional Jardines de la Reina","area":2550240000,"sort_rank":18,"source":"openstreetmap.org","min_zoom":3.0,"tier":1,"id":371542550,"protect_class":"2"},"arcs":[[129]]},{"type":"Polygon","properties":{"kind":"park","name":"Parque Nacional de Dari\u00e9n","area":5586120192,"sort_rank":24,"source":"openstreetmap.org","min_zoom":4.0,"tier":2,"id":-3256775,"osm_relation":true},"arcs":[[130]]},{"type":"Polygon","properties":{"kind":"park","name":"Parque Nacional Jaragua","area":1500610048,"sort_rank":24,"source":"openstreetmap.org","min_zoom":4.0,"tier":2,"id":-3569104,"osm_relation":true},"arcs":[[131]]},{"type":"Polygon","properties":{"kind":"nature_reserve","name":"Reserva Bioantropol\u00f3gica Aw\u00e1","area":1602640000,"sort_rank":23,"source":"openstreetmap.org","min_zoom":4.0,"tier":2,"id":-180686,"osm_relation":true},"arcs":[[132]]},{"type":"Polygon","properties":{"kind":"park","name":"Parque Nacional Natural Las Hermosas","area":1259410048,"sort_rank":24,"source":"openstreetmap.org","min_zoom":4.0,"tier":2,"id":-912445,"osm_relation":true},"arcs":[[133]]},{"type":"Polygon","properties":{"kind":"park","name":"Sian Ka'an","area":5978120192,"sort_rank":24,"source":"openstreetmap.org","min_zoom":4.0,"tier":2,"id":-7771089,"osm_relation":true},"arcs":[[134]]},{"type":"Polygon","properties":{"kind":"park","name":"Parque Nacional Natural Tinigua","area":2253839872,"sort_rank":24,"source":"openstreetmap.org","min_zoom":4.0,"tier":2,"id":-912441,"osm_relation":true},"arcs":[[135]]},{"type":"Polygon","properties":{"kind":"national_park","name":"Parque Nacional Ci\u00e9naga de Zapata","area":5238170112,"sort_rank":18,"source":"openstreetmap.org","min_zoom":3.0,"tier":1,"id":361290872,"protect_class":"2"},"arcs":[[136]]},{"type":"Polygon","properties":{"kind":"park","name":"Reserva Natural Cerro Silva","area":3061959936,"sort_rank":24,"source":"openstreetmap.org","min_zoom":4.0,"tier":2,"id":-3621609,"osm_relation":true},"arcs":[[137]]},{"type":"Polygon","properties":{"kind":"nature_reserve","name":"Reserva Ecol\u00f3gica Mache - Chindul","area":1215190016,"sort_rank":23,"source":"openstreetmap.org","min_zoom":4.0,"tier":2,"id":-225628,"osm_relation":true,"protect_class":"4"},"arcs":[[138]]},{"type":"Polygon","properties":{"kind":"park","name":"Reserva Antropologica Tawahka","area":2707350016,"sort_rank":24,"source":"openstreetmap.org","min_zoom":4.0,"tier":2,"id":-553514,"osm_relation":true},"arcs":[[139]]},{"type":"MultiPolygon","properties":{"source":"naturalearthdata.com","kind":"urban_area","name":"","area":85863704369,"sort_rank":11,"min_zoom":4.0},"arcs":[[[140]],[[141]],[[142]],[[143]],[[144]],[[145]],[[146]],[[147]],[[148]],[[149]],[[150]],[[151]],[[152]],[[153]],[[154]]]},{"type":"Polygon","properties":{"kind":"park","name":"Reserva Forestal de Tur\u00e9n","area":1026030016,"sort_rank":24,"source":"openstreetmap.org","min_zoom":4.0,"tier":2,"id":-5659074,"osm_relation":true},"arcs":[[155]]},{"type":"Polygon","properties":{"kind":"national_park","name":"Parque Nacional Natural Sierra de Chiribiquete","area":27908499456,"sort_rank":18,"source":"openstreetmap.org","min_zoom":3.0,"tier":1,"id":-6637001,"osm_relation":true,"protect_class":"2"},"arcs":[[156]]},{"type":"Polygon","properties":{"kind":"park","name":"Parque Nacional Sierra de Perij\u00e1","area":3002609920,"sort_rank":24,"source":"openstreetmap.org","min_zoom":4.0,"tier":2,"id":-2732290,"osm_relation":true},"arcs":[[157]]},{"type":"MultiPolygon","properties":{"kind":"park","name":"Reserva de Producci\u00f3n Faun\u00edstica Cuyabeno","area":5840390144,"sort_rank":24,"source":"openstreetmap.org","min_zoom":4.0,"tier":2,"id":-451263,"osm_relation":true},"arcs":[[[158]],[[159]]]},{"type":"Polygon","properties":{"kind":"national_park","name":"Parque Nacional Desembarco del Granma","area":367728000,"sort_rank":18,"source":"openstreetmap.org","min_zoom":3.0,"tier":1,"id":361219689,"protect_class":"2"},"arcs":[[160]]},{"type":"Polygon","properties":{"kind":"park","name":"Reserva Nacional Natural Puinawai","area":11060700160,"sort_rank":24,"source":"openstreetmap.org","min_zoom":4.0,"tier":2,"id":-911663,"osm_relation":true},"arcs":[[161]]},{"type":"Polygon","properties":{"kind":"protected_area","name":"Resguardo ind\u00edgena Alto Sin\u00fa","area":1196179968,"sort_rank":17,"source":"openstreetmap.org","min_zoom":4.0,"tier":2,"id":169627590,"protect_class":"24"},"arcs":[[162]]},{"type":"Polygon","properties":{"kind":"park","name":"Parque Nacional Henri Pittier","area":1111449984,"sort_rank":24,"source":"openstreetmap.org","min_zoom":4.0,"tier":2,"id":-3432362,"osm_relation":true},"arcs":[[163]]},{"type":"Polygon","properties":{"kind":"park","name":"Parque Nacional El Tam\u00e1","area":1428620032,"sort_rank":24,"source":"openstreetmap.org","min_zoom":4.0,"tier":2,"id":-3320002,"osm_relation":true},"arcs":[[164]]},{"type":"Polygon","properties":{"kind":"park","name":"Parque Nacional Natural Sierra Nevada de Santa Marta","area":4183379968,"sort_rank":24,"source":"openstreetmap.org","min_zoom":4.0,"tier":2,"id":-911602,"osm_relation":true},"arcs":[[165]]},{"type":"Polygon","properties":{"kind":"nature_reserve","name":"Reserva Marina de Gal\u00e1pagos","area":147727007744,"sort_rank":23,"source":"openstreetmap.org","min_zoom":4.0,"tier":2,"id":542174480},"arcs":[[166]]},{"type":"Polygon","properties":{"kind":"park","name":"Parque Nacional Natural Cordillera de los Picachos","area":2754980096,"sort_rank":24,"source":"openstreetmap.org","min_zoom":4.0,"tier":2,"id":-912447,"osm_relation":true},"arcs":[[167]]},{"type":"Polygon","properties":{"kind":"national_park","name":"Parque Nacional Patuca","area":4030459904,"sort_rank":18,"source":"openstreetmap.org","min_zoom":3.0,"tier":1,"id":-553401,"osm_relation":true},"arcs":[[168]]},{"type":"Polygon","properties":{"kind":"nature_reserve","name":"Parque Nacional Pico Bonito","area":1150589952,"sort_rank":23,"source":"openstreetmap.org","min_zoom":4.0,"tier":2,"id":-5263941,"osm_relation":true,"protect_class":"2"},"arcs":[[169]]},{"type":"Polygon","properties":{"kind":"park","name":"Parque Nacional Tapo-Caparo","area":2068000000,"sort_rank":24,"source":"openstreetmap.org","min_zoom":4.0,"tier":2,"id":-7419399,"osm_relation":true},"arcs":[[170]]},{"type":"Polygon","properties":{"kind":"nature_reserve","name":"Navassa National Wildlife Refuge","area":1949420032,"sort_rank":23,"operator":"United States Fish & Wildlife Service","source":"openstreetmap.org","min_zoom":4.0,"tier":2,"id":-6482899,"osm_relation":true,"protect_class":"4"},"arcs":[[171]]},{"type":"Polygon","properties":{"kind":"park","name":"Bosque Protector de Alto Darien","area":2602710016,"sort_rank":24,"source":"openstreetmap.org","min_zoom":4.0,"tier":2,"id":-3256764,"osm_relation":true},"arcs":[[172]]},{"type":"Polygon","properties":{"kind":"protected_area","name":"Resguardo ind\u00edgena Motilones-Bar\u00ed","area":1101280000,"sort_rank":17,"source":"openstreetmap.org","min_zoom":4.0,"tier":2,"id":-3027390,"osm_relation":true,"protect_class":"24"},"arcs":[[173]]},{"type":"Polygon","properties":{"kind":"park","name":"Parque Nacional Natural La Paya","area":4879840256,"sort_rank":24,"source":"openstreetmap.org","min_zoom":4.0,"tier":2,"id":-2738327,"osm_relation":true},"arcs":[[174]]},{"type":"Polygon","properties":{"kind":"park","name":"Parque Nacional Natural Corales de Profundidad","area":1474360064,"sort_rank":24,"source":"openstreetmap.org","min_zoom":4.0,"tier":2,"id":336319351},"arcs":[[175]]},{"type":"Polygon","properties":{"kind":"park","name":"Parque Nacional Sierra de la Culata","area":2056640000,"sort_rank":24,"source":"openstreetmap.org","min_zoom":4.0,"tier":2,"id":-1142078,"osm_relation":true},"arcs":[[176]]},{"type":"Polygon","properties":{"kind":"park","name":"Parque Internacional La Amistad (PILA) - WHS y N\u00facleo Reserva de la Biosfera La Amistad Panam\u00e1","area":2142919936,"sort_rank":24,"source":"openstreetmap.org","min_zoom":4.0,"tier":2,"id":221965083},"arcs":[[177]]},{"type":"Polygon","properties":{"kind":"park","name":"Parque Nacional Los Haitises","area":1040659968,"sort_rank":24,"source":"openstreetmap.org","min_zoom":4.0,"tier":2,"id":-3569102,"osm_relation":true},"arcs":[[178]]},{"type":"Polygon","properties":{"kind":"park","name":"Reserva Natural Wawashang","area":2373410048,"sort_rank":24,"source":"openstreetmap.org","min_zoom":4.0,"tier":2,"id":-3621610,"osm_relation":true},"arcs":[[179]]},{"type":"Polygon","properties":{"kind":"national_park","name":"Parque Nacional Natural Catatumbo Bar\u00ed","area":1652000000,"sort_rank":18,"source":"openstreetmap.org","min_zoom":3.0,"tier":1,"id":-2873433,"osm_relation":true,"protect_class":"2"},"arcs":[[180]]},{"type":"Polygon","properties":{"kind":"park","name":"Parque Nacional Coiba","area":2774320128,"sort_rank":24,"source":"openstreetmap.org","min_zoom":4.0,"tier":2,"id":241377841},"arcs":[[181]]},{"type":"Polygon","properties":{"kind":"national_park","name":"Chiquibul National Park","area":1210829952,"sort_rank":18,"operator":"Forest Department","source":"openstreetmap.org","min_zoom":3.0,"tier":1,"id":-2958267,"osm_relation":true,"protect_class":"2"},"arcs":[[182]]},{"type":"Polygon","properties":{"kind":"park","name":"Reserva Forestal de Caparo","area":1801560064,"sort_rank":24,"source":"openstreetmap.org","min_zoom":4.0,"tier":2,"id":-6793927,"osm_relation":true},"arcs":[[183]]},{"type":"Polygon","properties":{"kind":"park","name":"Parque Nacional Sierra Nevada","area":2836529920,"sort_rank":24,"source":"openstreetmap.org","min_zoom":4.0,"tier":2,"id":-7370370,"osm_relation":true},"arcs":[[184]]},{"type":"Polygon","properties":{"kind":"park","name":"Parque Nacional Jos\u00e9 Del Carmen Ram\u00edrez","area":1450029952,"sort_rank":24,"source":"openstreetmap.org","min_zoom":4.0,"tier":2,"id":346306920},"arcs":[[185]]},{"type":"Polygon","properties":{"kind":"park","name":"Parque Nacional Los Haitises","area":1040659968,"sort_rank":24,"source":"openstreetmap.org","min_zoom":4.0,"tier":2,"id":489653632},"arcs":[[186]]},{"type":"Polygon","properties":{"kind":"national_park","name":"Parque Nacional Mirador-R\u00edo Azul","area":1305799936,"sort_rank":18,"source":"openstreetmap.org","min_zoom":3.0,"tier":1,"id":-546716,"osm_relation":true},"arcs":[[187]]},{"type":"Polygon","properties":{"kind":"park","name":"Parque Nacional Natural Paramillo","area":5306299904,"sort_rank":24,"source":"openstreetmap.org","min_zoom":4.0,"tier":2,"id":59144134},"arcs":[[188]]},{"type":"Polygon","properties":{"kind":"park","name":"Parque Nacional Natural Nevado del Huila","area":1588450048,"sort_rank":24,"source":"openstreetmap.org","min_zoom":4.0,"tier":2,"id":-912598,"osm_relation":true},"arcs":[[189]]},{"type":"Polygon","properties":{"kind":"park","name":"Reserva de Fauna Silvestre Ci\u00e9nagas de Juan Manuel","area":2108690048,"sort_rank":24,"source":"openstreetmap.org","min_zoom":4.0,"tier":2,"id":-3420523,"osm_relation":true},"arcs":[[190]]},{"type":"Polygon","properties":{"kind":"park","name":"Parque Nacional Natural El Tuparro","area":5555780096,"sort_rank":24,"source":"openstreetmap.org","min_zoom":4.0,"tier":2,"id":-911667,"osm_relation":true},"arcs":[[191]]},{"type":"Polygon","properties":{"kind":"park","name":"Parque Nacional Cinaruco-Capanaparo","area":5851530240,"sort_rank":24,"source":"openstreetmap.org","min_zoom":4.0,"tier":2,"id":208077858},"arcs":[[192]]},{"type":"Polygon","properties":{"kind":"park","name":"Bosaw\u00e1s Biosphere Reserve","area":7939850240,"sort_rank":24,"source":"openstreetmap.org","min_zoom":4.0,"tier":2,"id":-5748204,"osm_relation":true},"arcs":[[193]]}]}},"type":"Topology","transform":{"translate":[-90.0,-0.0],"scale":[0.0054931641,0.0053571889]},"arcs":[[[323,2936],[-8,-6],[-17,-15],[-31,-25],[-28,-23],[-26,-20],[-24,-19],[-3,-1],[-30,-14],[-5,-6],[-6,-26],[-3,-6],[5,-14],[6,-23],[-2,-11],[-21,-15],[-10,-13],[-4,-8]],[[4096,495],[-6,5],[-6,2],[-6,15],[-4,4],[-8,2],[-19,6],[-16,-8],[-1,12],[5,7],[58,55],[3,2]],[[4096,689],[-9,8],[-10,7],[-10,17],[-13,42],[-10,21],[-2,16],[0,18],[-3,14],[-8,9],[0,30],[8,49],[2,38],[-4,26],[6,19],[18,14],[9,21],[2,28],[10,23],[14,13]],[[4096,1156],[-12,9],[-29,8],[-24,1],[-15,-9],[-37,-8],[-60,-8],[-48,0],[-37,8],[-27,-3],[-19,-12],[-14,-3],[-8,7],[-8,2],[-13,-5],[-2,2],[-28,35],[-27,32],[-30,39],[-34,44],[-7,3],[-10,0],[-15,-1],[-22,5],[-15,6],[-12,6],[-21,8],[-15,1],[-14,-2],[-37,-15],[-21,-2],[-16,0],[-43,8],[-30,1],[-35,-5],[-15,-3],[-20,8],[-15,12],[-13,28],[-9,23],[-16,4],[-18,4],[-9,8],[-5,13],[-1,16],[1,27],[2,10],[3,29],[9,15],[7,8],[-1,12],[-5,25],[-5,18],[-20,20],[-25,25],[-11,42],[-13,48],[-10,5],[-10,-2],[-10,2],[-9,20],[-9,3],[-14,-6],[-10,-6],[-27,-5],[-5,5],[2,6],[11,18],[13,23],[15,21],[14,21],[11,22],[7,45],[5,31],[13,55],[23,44],[9,21],[22,26],[9,14],[14,12],[36,15],[43,76],[9,12],[44,11],[33,9],[25,9],[8,5],[7,2]],[[201,2966],[-8,0],[-32,2],[-21,-2],[-1,1],[2,46],[2,72],[2,53],[2,51],[2,39],[2,52],[2,45]],[[1029,2050],[17,-15],[9,-11],[1,-8],[6,-4],[13,-1],[32,-7],[20,1],[18,8],[9,10],[3,15]],[[3317,3681],[4,-6],[8,-38],[1,-12],[-8,-18],[1,-7],[18,-17],[0,-6],[-2,-6],[-15,-16],[-12,-11],[4,-12],[9,-12],[1,-10],[-2,-13],[-15,-17],[-8,-5],[-22,-1],[-2,-2],[11,-16],[12,-18],[20,-14],[5,-13],[-5,-13],[-1,-31]],[[0,2603],[10,10],[13,9],[6,2],[9,-1],[8,5],[7,12],[7,7],[18,8],[4,3],[-1,7],[-4,13],[1,8],[6,4],[7,1],[15,3],[6,-1],[4,-2]],[[116,2691],[5,-1],[30,-9],[9,1],[12,-7],[5,-6],[5,-9],[24,-16],[4,-7],[18,-10],[7,-8],[8,-3],[15,-3],[13,-4],[1,-2],[1,-12],[3,-9],[6,-1],[8,5],[24,13],[23,8],[12,-5],[8,-10],[9,-5],[18,3],[16,-1],[13,-9],[3,-6],[-8,-30],[-3,-13],[-1,-11],[4,-3],[5,-4],[-1,-6],[-14,-10]],[[485,2423],[50,2],[9,3],[10,9],[4,12],[1,11],[2,8],[8,8],[15,3],[11,1],[4,5],[-4,18],[-6,42],[-1,12],[2,9],[5,3],[22,2],[43,-3],[8,2],[17,25],[16,17],[11,8],[9,3],[10,-16],[36,-23],[6,2],[4,1],[1,3],[-1,11],[9,9],[19,9],[18,15],[19,21],[16,13],[14,4],[6,5],[-4,8],[1,12],[6,14],[8,9],[10,2],[5,5],[-3,7],[2,7],[10,13],[23,10],[13,-3],[10,-15],[16,-9],[19,-5],[16,1],[11,9],[9,3],[9,-3],[5,2],[0,7],[5,2],[8,-4],[8,-1],[6,2],[3,3],[1,4],[5,3],[17,-3],[19,5],[22,11],[14,5],[7,-1],[8,6],[10,13],[22,5],[47,-2]],[[2636,0],[-18,12],[-29,5],[-18,11],[-18,18],[-9,12],[-8,7],[-37,17],[-7,2],[-14,-8],[-5,-5],[0,-14],[-2,-8],[-12,-5],[-20,1],[-14,5],[-9,1],[-2,-4],[-5,-2],[-11,1],[-17,4],[-15,5],[-20,11],[-10,-1],[-23,2],[-19,7],[-4,5],[-9,40],[-2,3],[-8,1],[-14,6],[-8,6],[-5,11],[-5,10],[-23,-2],[-38,14],[-26,13],[-24,14],[-37,29],[-13,7],[-18,9],[-10,14],[-16,14],[-6,4]],[[2298,1616],[-3,-2],[-10,-15],[-6,-13],[13,-13],[4,-14],[8,-15],[11,-16],[13,-28],[3,-12],[-4,-7],[-12,-5],[-11,-13],[-3,-17],[2,-8],[-34,-26],[-9,-4],[-6,4],[-7,13],[-9,11],[-5,3],[-2,1],[-3,-3],[-1,-6],[4,-24],[-4,-10],[-11,-8],[-13,-40]],[[1029,2050],[-10,-1],[-16,3],[-26,10],[-12,1],[-18,-9],[-20,-11],[-49,18],[-35,12],[-31,11],[-8,5],[-7,-1],[-6,-6],[-6,-10],[-3,-3],[-3,-3],[-4,-1]],[[1296,1507],[0,11],[-6,13],[-6,10],[-14,11],[-1,4],[6,6],[25,16],[3,7],[0,14],[-2,13],[-12,20],[7,12],[13,9],[13,8],[2,3],[-3,7],[-7,7],[-18,12],[-11,1],[0,35],[0,38],[3,4],[7,2],[5,5],[3,12],[8,3],[14,-8],[14,-8],[6,3],[5,4],[3,3],[1,4]],[[4096,393],[-10,-6],[-10,-7],[-19,-21],[-18,-25],[-11,-5],[-11,-3],[-10,1],[-8,7],[-8,13],[-10,18],[-11,6],[-5,-6],[-4,-10],[-3,-11],[8,-13],[7,-10],[-12,0],[-37,0],[-43,0],[-42,0],[-39,0],[-35,0],[-14,1],[-14,6],[-13,3],[-7,0],[-12,-6],[-17,-1],[-11,-6],[-9,1],[0,-31],[0,-44],[0,-46],[10,3],[8,0],[6,-3],[18,2],[10,-1],[9,-1],[8,0],[6,-4],[7,1],[7,4],[9,-3],[10,-6],[6,-10],[6,-12],[5,-7],[0,-11],[0,-9],[-2,-8],[2,-5],[2,-5],[0,-3],[-4,-1],[-7,-1],[-7,-1],[-6,0],[-4,5],[-4,0],[-5,0],[-6,2],[-6,6],[-9,6],[-10,-2],[-7,-3],[-7,-4],[-6,-4],[-7,1],[-8,-3],[-7,-4],[-9,-4],[-10,-1],[-11,-2],[-11,-1],[-13,-1],[-1,-24],[-1,-49],[-1,-32],[0,-3]],[[0,3326],[49,0],[65,-1],[39,0],[-1,17],[6,13],[15,5],[19,-11],[9,-5],[7,3],[9,7],[12,19],[28,41],[12,29],[11,6],[16,1],[14,-2],[9,-11],[38,1],[-1,-42],[40,-2]],[[204,2933],[-8,-7],[-9,-7],[-4,-12],[-5,-16],[-10,-8],[-19,-5],[-10,-1],[-8,-3],[-4,-3],[-4,6],[-7,9],[-5,5],[3,3],[10,3],[13,5],[12,5],[14,5],[24,16],[20,15],[4,0],[-2,-5],[-5,-5]],[[709,2298],[1,-7],[-1,-12],[-13,-5],[-15,-2],[-10,1],[1,5],[2,7],[-1,4],[-4,3],[-11,-1],[-15,0],[-11,6],[-8,7],[-3,7],[0,5],[8,1],[14,3],[12,7],[12,3],[8,-2],[10,-17],[14,-12],[8,2],[2,-3]],[[1880,1707],[-3,-4],[0,-4],[-20,-5],[-6,-5],[-3,-1],[-1,2],[4,5],[4,5],[-5,2],[-7,4],[-4,3],[-3,-6],[-2,-8],[-4,-2],[-1,-5],[-1,-4],[-3,0],[-3,3],[-4,4],[-1,0],[0,-4],[-2,-2],[-5,-1],[-3,-1],[1,5],[10,10],[11,18],[5,14],[12,5],[7,5],[2,-1],[1,-6],[1,-6],[-4,-3],[-4,-2],[1,-3],[4,-5],[1,-2],[6,-4],[7,-4],[4,0],[6,1],[2,2]],[[0,2557],[5,-3],[31,-23],[51,-9],[45,-6],[74,-36],[65,-19],[5,2],[-18,9],[-13,3],[-6,4],[17,0],[32,-12],[43,-10],[29,1],[17,2],[9,9],[11,11],[-3,19],[4,2],[8,-4],[11,-3],[19,5],[21,-6],[1,-8],[-3,-7],[8,-11],[8,-17],[15,-8],[-1,-19],[-1,-6],[-9,-5],[-6,0],[-14,12],[-8,10],[-7,1],[-16,-15],[1,-11],[37,-28],[50,-46],[11,-14],[50,-35],[18,-17],[18,-32],[34,-46],[92,-76],[24,-25],[16,-20],[0,-5],[0,-4],[-2,-10],[-24,-12],[-4,-5],[14,-9],[21,-11],[9,-8],[-1,-12],[1,-9],[-7,-13],[-23,-31],[-3,-20],[9,-30],[21,-32],[10,-11],[57,-17],[29,-35],[7,-7],[7,3],[3,13],[11,6],[21,22],[-4,12],[-10,9],[-36,16],[-14,17],[-5,28],[5,-3],[7,-9],[32,-15],[56,-40],[13,-21],[-5,-16],[2,-10],[14,-15],[18,-8],[48,-12],[19,-15],[40,-19],[29,-24],[18,-21],[4,-15],[1,-29],[-6,-14],[-16,-21],[23,-25],[11,-6],[17,-2],[14,-4],[15,-2],[1,11],[-2,8],[-22,21],[-9,16],[14,2],[19,-10],[23,-14],[6,-15],[1,-29],[15,-12],[17,-20],[12,-20],[5,5],[-2,27],[15,11],[19,3],[27,-6],[30,-2],[23,6],[3,-15],[11,-6],[12,5],[22,-2],[21,-9],[24,-5],[6,-12],[3,-11],[32,-55],[24,-8],[19,-10],[9,0],[4,8],[3,26],[4,9],[11,4],[6,5],[5,-36],[22,-51],[2,-30],[11,-10],[32,1],[42,9],[12,9],[4,12],[11,7],[32,2],[8,3],[10,9],[-5,19],[-6,12],[-34,35],[-19,27],[-8,6],[-9,9],[-1,11],[1,14],[9,9],[7,5],[31,5],[14,7],[68,45],[-12,9],[10,13],[5,12],[8,14],[21,10],[4,4],[8,8],[12,7],[36,3],[29,-5],[24,-12],[19,-16],[14,-6],[11,-11],[8,-2],[9,-5],[19,-16],[8,-34],[6,-8],[5,-9],[5,0],[2,9],[-3,7],[-2,12],[4,-3],[5,-6],[17,-1],[1,-6],[5,-5],[6,4],[5,7],[11,8],[8,-19],[8,-13],[29,-20],[17,-16],[-13,4],[-22,14],[-17,10],[-12,18],[-5,1],[-7,-10],[-19,-15],[5,-21],[-6,-9],[-5,-4],[-9,0],[-10,-1],[8,-30],[38,-67],[43,-53],[6,-6],[17,-17],[23,-33],[6,-17],[8,-6],[14,-27],[16,0],[12,-22],[2,-13],[-7,-43],[-8,0],[-6,2],[1,-20],[23,-34],[17,-40],[-14,-20],[-38,-25],[24,-23],[6,-17],[2,-21],[-1,-25],[5,-45],[6,-10],[3,-12],[-5,-23],[-2,-23],[-5,-14],[-11,-9],[-6,-9],[-12,-8],[-1,-9],[20,7],[1,-9],[-5,-13],[1,-13],[12,-22],[15,22],[5,-4],[-2,-27],[9,-5],[8,-1],[7,8],[10,1],[-31,-61],[-14,-20],[-6,-24],[-11,-1],[-10,-20],[-9,-14],[-7,-16],[-13,-4],[-12,-3],[-1,-6],[5,-16],[1,-8],[-20,-17],[-6,-7],[-1,-6],[-11,2],[-4,-5],[-6,-13],[-10,-11],[-8,-5],[-7,-7],[-9,-4],[-32,5],[-9,-10],[-13,5],[-8,-3],[-14,-9],[-10,-12],[-5,-9],[-2,-47],[14,-25],[-4,-28],[-40,14],[-30,-18],[-12,-24],[25,-19],[5,-12],[6,-30],[-13,-17],[-60,-19],[-43,-8],[-27,-17],[-23,2],[-10,-11],[-20,-11],[-24,-5],[-10,-10],[5,-35],[7,-34],[-4,-48],[-15,-29],[-1797,0],[0,2557]],[[2019,234],[2,20],[-5,-2],[-12,-11],[5,-9],[10,2]],[[2159,492],[-7,2],[-6,-7],[3,-9],[10,-8],[5,4],[-1,12],[-4,6]],[[1982,1532],[9,9],[-4,8],[-2,-1],[-6,-8],[3,-8]],[[2009,1554],[8,-17],[4,8],[8,5],[3,8],[-3,19],[-5,2],[-6,0],[-8,-4],[0,-16],[-1,-5]],[[1516,1404],[-10,19],[-5,0],[-10,-6],[-9,-16],[0,-5],[1,-5],[15,-15],[21,-8],[10,1],[-2,9],[-15,8],[-3,11],[7,7]],[[3290,4096],[806,0],[0,-2130],[-15,-2],[-53,-9],[-48,4],[-18,14],[-11,22],[-5,23],[9,13],[-9,13],[-3,19],[-11,20],[-39,28],[-39,23],[-41,5],[-32,11],[-54,-3],[-8,-3],[-11,-1],[-15,16],[-9,21],[-9,30],[-3,29],[-6,11],[-10,11],[-16,12],[-21,-8],[-15,-7],[-8,-17],[-7,-22],[12,-29],[0,-10],[5,-10],[51,9],[17,0],[8,-25],[-6,-12],[-14,-6],[-30,16],[-9,-2],[-11,-17],[-13,-10],[-57,-21],[-50,-10],[-81,-39],[-38,-6],[2,-24],[-15,-11],[5,-29],[4,-17],[6,-12],[13,-38],[23,-23],[10,-24],[23,-33],[5,-24],[-4,-37],[-2,-30],[-22,-23],[-6,-12],[-10,-7],[-44,-14],[-15,0],[-12,5],[-10,11],[-7,22],[3,16],[-8,9],[-12,8],[-19,23],[-3,17],[-22,32],[29,55],[13,11],[16,28],[24,23],[13,40],[-1,13],[-17,21],[-7,29],[10,1],[6,3],[-27,23],[-8,10],[-21,42],[-1,12],[0,17],[9,7],[7,3],[69,17],[13,7],[12,11],[6,9],[6,11],[27,24],[-3,22],[-20,32],[-42,18],[-19,0],[-21,-3],[-37,-20],[-3,-8],[-7,-6],[-15,0],[-15,-9],[-5,-24],[-20,-32],[-32,-16],[-50,-17],[-107,-77],[-66,-5],[-22,1],[-21,6],[-27,6],[-15,-4],[-11,-10],[-3,-30],[-15,-29],[-9,-25],[-9,-10],[-11,5],[-10,14],[4,13],[15,6],[11,2],[4,4],[-23,-2],[-71,23],[-14,-10],[-37,-35],[-22,-16],[-6,-11],[-31,-21],[-8,-16],[-11,-37],[-21,-25],[-7,-10],[12,6],[15,12],[4,-6],[-11,-15],[1,-25],[-8,-29],[-8,-20],[8,-13],[6,-22],[-7,-17],[-21,-6],[-27,2],[-22,-12],[-20,-18],[-26,-52],[-75,-55],[-20,-10],[-16,-4],[-6,-9],[9,-11],[10,-9],[8,-29],[5,-57],[-8,-13],[-14,-3],[-6,4],[-5,6],[3,12],[7,5],[4,5],[-8,7],[-8,4],[-10,19],[-25,28],[-24,17],[-15,27],[-6,4],[-58,43],[-25,34],[-46,31],[-76,32],[-35,5],[-43,-1],[-8,5],[-8,10],[-17,5],[-18,-1],[-26,7],[-41,6],[-13,-8],[-13,-15],[-24,-18],[-11,-4],[-12,-3],[-27,-25],[-76,-24],[-24,-11],[-29,-25],[-41,-14],[-26,-5],[-27,-1],[-35,9],[-30,36],[-17,10],[-7,8],[-9,4],[-1,-5],[12,-13],[9,-16],[-8,-2],[-12,2],[-34,-4],[-10,8],[-20,10],[1,20],[7,5],[2,5],[-3,4],[-12,-4],[-12,3],[-7,24],[2,8],[-1,9],[-24,18],[-11,10],[-9,7],[-30,10],[-6,12],[-10,7],[-30,41],[-17,9],[-41,52],[-18,28],[-23,50],[-3,15],[-5,11],[-5,8],[-13,3],[-9,14],[-12,23],[-7,31],[2,10],[5,14],[10,14],[6,12],[17,14],[-3,15],[-7,19],[-9,0],[-7,2],[-7,5],[3,7],[8,6],[0,9],[1,15],[9,0],[3,-5],[3,-1],[2,37],[4,12],[-3,9],[-9,13],[-7,18],[7,9],[6,3],[10,8],[6,19],[3,-8],[-2,-17],[-6,-12],[-1,-10],[6,-12],[5,-1],[10,4],[-1,19],[-4,15],[5,65],[-10,70],[13,79],[15,48],[12,11],[12,18],[13,21],[4,14],[-20,76],[-8,3],[-6,0],[-7,11],[4,9],[9,6],[7,-2],[0,-17],[4,2],[12,22],[6,5],[5,7],[-13,9],[-12,7],[-14,30],[-50,24],[-6,-1],[23,-13],[10,-14],[-7,0],[-10,9],[-15,-1],[-8,-8],[-8,0],[-8,13],[-12,12],[-11,8],[-15,3],[-6,-3],[-9,1],[-2,5],[-1,12],[5,3],[20,2],[38,-21],[-2,6],[-88,72],[-47,9],[5,-5],[12,-3],[-3,-3],[-9,-4],[-13,2],[-15,15],[-60,20],[-14,-3],[-21,-11],[-58,-3],[-54,19],[-37,4],[6,-4],[3,-9],[-24,-9],[-21,-4],[-32,-19],[-22,4],[-51,-2],[-27,-6],[-69,14],[-17,-2],[-20,-7],[-10,8],[-13,15],[-16,0],[-31,-6],[-6,-3],[-19,-14],[-8,-4],[-14,-12],[-17,5],[-67,41],[-1,-4],[5,-5],[6,-9],[-12,-16],[-19,8],[-16,10],[-8,1],[-10,4],[-3,12],[6,12],[34,43],[24,8],[18,27],[10,10],[17,27],[9,61],[-5,43],[1,23],[3,15],[12,23],[-12,17],[9,27],[2,17],[20,52],[3,19],[-9,23],[-21,1],[-9,-2],[-9,3],[9,21],[4,8],[15,24],[-1,14],[13,10],[10,12],[7,1],[4,-21],[-8,-38],[3,-8],[14,-8],[15,-31],[5,-1],[9,17],[7,16],[6,39],[14,27],[11,46],[17,45],[-2,6],[-7,1],[-13,-14],[-6,2],[-1,17],[6,6],[11,6],[10,2],[5,3],[9,11],[2,16],[-8,0],[-8,-2],[-14,0],[-10,-4],[-8,7],[0,9],[18,26],[15,9],[7,-1],[5,7],[2,7],[-7,19],[0,19],[8,24],[37,52],[29,23],[25,29],[11,19],[9,22],[8,27],[-6,9],[-3,7],[-1,35],[-16,7],[-22,25],[-17,5],[-16,-7],[-11,-2],[-17,0],[-3,-4],[16,-5],[9,0],[7,4],[4,0],[4,-6],[-4,-7],[-6,-4],[-6,-2],[-41,5],[-38,12],[-16,3],[-42,10],[-23,2],[-7,-2],[0,-3],[-3,-2],[-12,-2],[-39,0],[-21,-5],[-30,-17],[-24,-7],[-171,-26],[-13,-4],[-20,-9],[0,138],[955,0],[-22,-9],[-2,-7],[9,-5],[9,2],[19,11],[10,4],[12,2],[11,0],[2,-15],[-2,-14],[10,3],[37,20],[19,5],[20,3],[675,0],[2,-2],[14,-11],[17,-8],[42,-16],[100,-30],[16,-4],[15,-2],[67,13],[17,-5],[17,-15],[11,-19],[7,-22],[8,-45],[7,-8],[9,-7],[16,-9],[36,-30],[22,-9],[26,0],[48,-5],[23,0],[21,-3],[22,-6],[4,-6],[3,-9],[15,-13],[3,-7],[-2,-9],[-9,-11],[-11,-9],[-62,-40],[-30,-43],[46,1],[46,6],[39,0],[20,6],[20,3],[48,3],[48,6],[17,0],[71,-5],[20,-5],[19,-8],[48,0],[13,6],[7,7],[5,9],[5,-10],[0,-6],[1,-4],[21,5],[9,5],[19,9],[39,10],[41,3],[29,1],[6,7],[12,10],[3,12],[-6,11],[-5,3],[-7,3],[-7,-1],[-20,2],[-24,10],[-27,26],[-13,9],[-27,15],[-14,4],[-46,8],[-23,-3],[-34,3],[-21,3],[-15,-3],[-5,4],[-2,7],[4,7],[26,5],[-12,11],[4,9],[8,9],[-7,12],[-16,10],[-32,0],[-32,4],[-34,17],[-35,9],[-18,0],[-17,2],[-8,11],[-7,3],[-7,1],[-18,-6],[1,6],[4,7],[-16,11],[-31,24],[-8,-9],[-12,-12],[-8,1],[-3,10],[-18,14],[22,-3],[12,1],[6,8],[-14,5],[-14,8],[-8,8],[-28,22],[-16,3],[2,-4],[12,-11],[2,-4],[-9,-2],[-16,4],[-42,19],[-11,8],[35,0],[4,-4],[6,4],[1032,0],[-2,-5],[7,-4],[3,-1],[2,-5],[10,-6],[4,2],[-4,4],[-5,15]],[[3305,4077],[3,-9],[19,-1],[11,-7],[0,3],[5,4],[-6,9],[-25,3],[-7,-2]],[[3251,4068],[-1,2],[-13,-1],[-21,10],[-2,-11],[2,-7],[6,0],[20,3],[2,2],[7,2]],[[3083,4016],[3,-11],[24,10],[-14,10],[-13,-9]],[[3084,3978],[-14,-20],[-18,-9],[-12,0],[-23,9],[-17,-2],[-12,-13],[-17,-4],[2,-4],[0,-4],[-3,-9],[1,-7],[3,-7],[48,1],[43,7],[19,26],[6,14],[3,20],[-9,2]],[[3113,3739],[4,-1],[6,2],[19,-6],[18,-3],[3,5],[-7,4],[-23,10],[-11,1],[-10,-2],[-10,-4],[11,-6]],[[3073,3715],[-18,-3],[-18,-6],[-15,-9],[-7,-16],[8,-11],[14,-4],[48,-5],[35,-16],[29,-16],[-7,-19],[-5,-18],[5,-21],[-13,-11],[30,-33],[33,-28],[22,-13],[0,-10],[-6,-9],[-7,-3],[-37,-1],[-7,-7],[-7,-9],[-8,-4],[-9,-2],[-23,4],[-123,12],[-17,8],[-32,2],[-21,5],[-23,8],[-23,4],[-10,-1],[-19,-6],[-16,-33],[3,-11],[7,-8],[41,-15],[20,-10],[18,-13],[19,-19],[8,3],[3,12],[14,12],[19,8],[23,3],[24,1],[20,-3],[21,-6],[51,-10],[22,1],[23,4],[7,2],[7,4],[9,2],[81,2],[10,-3],[11,-5],[17,-13],[15,-15],[10,-6],[7,-10],[3,-12],[0,-12],[5,-9],[11,-3],[9,-6],[15,-17],[8,2],[7,9],[16,29],[30,41],[4,11],[0,18],[2,5],[8,4],[19,4],[30,9],[21,-1],[14,-13],[16,-9],[54,6],[7,5],[14,12],[9,6],[22,8],[23,5],[23,-2],[22,-3],[23,0],[22,4],[37,-8],[25,2],[21,-13],[7,-13],[11,-9],[6,-1],[5,1],[9,16],[8,9],[13,5],[9,7],[16,22],[3,14],[-7,11],[-12,8],[-44,36],[-39,15],[-24,5],[-24,3],[-21,4],[-21,7],[-21,4],[-21,2],[0,8],[4,8],[15,1],[36,-2],[11,5],[6,8],[-17,11],[-76,-6],[-15,13],[-10,20],[-2,22],[-12,15],[-11,0],[-21,-7],[-11,1],[-21,7],[-24,18],[-7,1],[-29,-1],[-9,4],[-18,10],[-9,7],[-22,5],[-23,-4],[-28,-8],[-8,0],[-30,9],[-21,0],[-10,-4],[-10,-5],[-7,-10],[-5,-11],[-8,-3],[-10,-4],[-22,4],[-48,5],[-38,12],[-38,17],[-44,5],[-44,-5]],[[2338,3331],[7,7],[9,4],[6,-9],[17,-1],[8,10],[8,13],[11,1],[8,-3],[-4,-4],[19,-3],[8,-5],[18,-6],[20,0],[21,3],[16,6],[-4,10],[-21,34],[-64,20],[-17,9],[-21,16],[-9,2],[-10,0],[-23,4],[-22,6],[-17,2],[-18,0],[-76,10],[-10,-4],[-9,-6],[-22,-4],[-22,1],[-6,-4],[-14,-15],[-2,-11],[8,-13],[40,-5],[5,-4],[15,-23],[15,-5],[6,-6],[15,-21],[17,-3],[38,-1],[19,-4],[15,-10],[13,-12],[9,24]],[[390,3389],[-7,0],[-10,-29],[-1,-7],[-8,-11],[9,4],[19,40],[-2,3]],[[3082,3534],[-18,7],[-20,-3],[-1,-11],[38,-19],[46,-16],[3,13],[-21,16],[-27,13]],[[1615,3611],[-28,3],[-3,-4],[-7,-2],[-6,4],[-4,6],[-5,-1],[3,-18],[18,-2],[5,1],[10,5],[21,1],[-4,7]],[[591,3836],[-2,5],[-12,-3],[-18,-2],[-9,-11],[-7,-20],[5,-21],[9,6],[24,31],[10,15]],[[596,3969],[-2,3],[-3,0],[3,-8],[4,-7],[3,-1],[-3,9],[-2,4]],[[1337,4017],[17,10],[-1,9],[-11,27],[-10,10],[-6,13],[-7,4],[-43,6],[-16,-20],[-1,-8],[20,-37],[-6,-5],[-9,-3],[-10,4],[-12,9],[-1,-5],[8,-12],[13,-11],[20,-6],[19,1],[36,14]],[[376,3234],[1,-8],[14,26],[10,11],[2,8],[-7,4],[-1,-8],[-5,-7],[-8,-7],[-6,-19]],[[623,3043],[29,14],[30,10],[-15,2],[-19,-5],[-21,-10],[-14,-11],[10,0]],[[735,3067],[3,-5],[14,11],[4,5],[2,4],[-8,1],[-8,-6],[-7,-10]],[[3651,2322],[9,-3],[-1,5],[-2,6],[-11,16],[-12,9],[-2,-4],[-3,-9],[11,-9],[11,-11]],[[1398,1758],[14,-16],[2,9],[-5,9],[-3,1],[-8,-3]],[[3795,2296],[29,-30],[35,-18],[9,3],[-14,19],[-33,13],[-12,21],[-8,6],[-7,1],[1,-15]],[[3954,2255],[5,-9],[9,21],[-3,16],[-27,13],[-1,-8],[5,-5],[7,-4],[4,-7],[1,-17]],[[3366,3448],[-5,-7],[-13,-2],[-34,13],[3,7],[17,4],[19,-7],[13,-8]],[[944,2102],[4,-10],[2,-9],[2,-8],[-6,-10],[-7,-3],[-10,-2],[-8,3],[-12,1],[-19,4],[-27,8],[-28,10],[-19,8],[-12,6],[-10,6],[-8,6],[-7,7],[-6,10],[-8,14],[-7,15],[-3,12],[-2,7],[-2,4],[-3,1],[-1,2],[-1,4],[0,4],[0,10],[-1,14],[-1,15],[0,10],[3,6],[5,11],[6,2],[7,0],[8,-3],[14,-5],[16,-9],[14,-11],[13,-10],[14,-9],[19,-14],[23,-22],[23,-25],[16,-21],[11,-16],[8,-13]],[[944,2102],[4,-10],[2,-9],[2,-8],[-6,-10],[-7,-3],[-10,-2],[-8,3],[-12,1],[-19,4],[-27,8],[-28,10],[-19,8],[-12,6],[-10,6],[-8,6],[-7,7],[-6,10],[-8,14],[-7,15],[-3,12],[-2,7],[-2,4],[-3,1],[-1,2],[-1,4],[0,4],[0,10],[-1,14],[-1,15],[0,10],[3,6],[5,11],[6,2],[7,0],[8,-3],[14,-5],[16,-9],[14,-11],[13,-10],[14,-9],[19,-14],[23,-22],[23,-25],[16,-21],[11,-16],[8,-13]],[[2485,3388],[-64,20],[-17,9],[-21,16],[-9,2],[-10,0],[-23,4],[-22,6],[-17,2],[-18,0],[-76,10],[-10,-4],[-9,-6],[-22,-4],[-22,1],[-6,-4],[-14,-15],[-2,-11],[8,-13],[40,-5],[5,-4],[15,-23],[15,-5],[6,-6],[15,-21],[17,-3],[38,-1],[19,-4],[15,-10],[13,-12],[9,24],[7,7],[9,4],[6,-9],[17,-1],[8,10],[8,13],[11,1],[8,-3],[-4,-4],[19,-3],[8,-5],[18,-6],[20,0],[21,3],[16,6],[-4,10],[-21,34]],[[3366,3448],[-5,-7],[-13,-2],[-34,13],[3,7],[17,4],[19,-7],[13,-8]],[[2819,3805],[-27,26],[-13,9],[-27,15],[-14,4],[-46,8],[-23,-3],[-34,3],[-21,3],[-15,-3],[-5,4],[-2,7],[4,7],[26,5],[-12,11],[4,9],[8,9],[-7,12],[-16,10],[-32,0],[-32,4],[-34,17],[-35,9],[-18,0],[-17,2],[-8,11],[-7,3],[-7,1],[-18,-6],[1,6],[4,7],[-16,11],[-31,24],[-8,-9],[-12,-12],[-8,1],[-3,10],[-18,14],[22,-3],[12,1],[6,8],[-14,5],[-14,8],[-8,8],[-28,22],[-16,3],[2,-4],[12,-11],[2,-4],[-9,-2],[-16,4],[-42,19],[-11,8]],[[955,4096],[-22,-9],[-2,-7],[9,-5],[9,2],[19,11],[10,4],[12,2],[11,0],[2,-15],[-2,-14],[10,3],[37,20],[19,5],[20,3]],[[1762,4096],[2,-2],[14,-11],[17,-8],[42,-16],[100,-30],[16,-4],[15,-2],[67,13],[17,-5],[17,-15],[11,-19],[7,-22],[8,-45],[7,-8],[9,-7],[16,-9],[36,-30],[22,-9],[26,0],[48,-5],[23,0],[21,-3],[22,-6],[4,-6],[3,-9],[15,-13],[3,-7],[-2,-9],[-9,-11],[-11,-9],[-62,-40],[-30,-43],[46,1],[46,6],[39,0],[20,6],[20,3],[48,3],[48,6],[17,0],[71,-5],[20,-5],[19,-8],[48,0],[13,6],[7,7],[5,9],[5,-10],[0,-6],[1,-4],[21,5],[9,5],[19,9],[39,10],[41,3],[29,1],[6,7],[12,10],[3,12],[-6,11],[-5,3],[-7,3],[-7,-1],[-20,2],[-24,10]],[[3880,3529],[-39,15],[-24,5],[-24,3],[-21,4],[-21,7],[-21,4],[-21,2],[0,8],[4,8],[15,1],[36,-2],[11,5],[6,8],[-17,11],[-76,-6],[-15,13],[-10,20],[-2,22],[-12,15],[-11,0],[-21,-7],[-11,1],[-21,7],[-24,18],[-7,1],[-29,-1],[-9,4],[-18,10],[-9,7],[-22,5],[-23,-4],[-28,-8],[-8,0],[-30,9],[-21,0],[-10,-4],[-10,-5],[-7,-10],[-5,-11],[-8,-3],[-10,-4],[-22,4],[-48,5],[-38,12],[-38,17],[-44,5],[-44,-5],[-18,-3],[-18,-6],[-15,-9],[-7,-16],[8,-11],[14,-4],[48,-5],[35,-16],[29,-16],[-7,-19],[-5,-18],[5,-21],[-13,-11],[30,-33],[33,-28],[22,-13],[0,-10],[-6,-9],[-7,-3],[-37,-1],[-7,-7],[-7,-9],[-8,-4],[-9,-2],[-23,4],[-123,12],[-17,8],[-32,2],[-21,5],[-23,8],[-23,4],[-10,-1],[-19,-6],[-16,-33],[3,-11],[7,-8],[41,-15],[20,-10],[18,-13],[19,-19],[8,3],[3,12],[14,12],[19,8],[23,3],[24,1],[20,-3],[21,-6],[51,-10],[22,1],[23,4],[7,2],[7,4],[9,2],[81,2],[10,-3],[11,-5],[17,-13],[15,-15],[10,-6],[7,-10],[3,-12],[0,-12],[5,-9],[11,-3],[9,-6],[15,-17],[8,2],[7,9],[16,29],[30,41],[4,11],[0,18],[2,5],[8,4],[19,4],[30,9],[21,-1],[14,-13],[16,-9],[54,6],[7,5],[14,12],[9,6],[22,8],[23,5],[23,-2],[22,-3],[23,0],[22,4],[37,-8],[25,2],[21,-13],[7,-13],[11,-9],[6,-1],[5,1],[9,16],[8,9],[13,5],[9,7],[16,22],[3,14],[-7,11],[-12,8],[-44,36]],[[3646,2346],[-12,9],[-2,-4],[-3,-9],[11,-9],[11,-11],[9,-3],[-1,5],[-2,6],[-11,16]],[[3064,3541],[-20,-3],[-1,-11],[38,-19],[46,-16],[3,13],[-21,16],[-27,13],[-18,7]],[[204,2933],[-8,-7],[-9,-7],[-4,-12],[-5,-16],[-10,-8],[-19,-5],[-10,-1],[-8,-3],[-4,-3],[-4,6],[-7,9],[-5,5],[3,3],[10,3],[13,5],[12,5],[14,5],[24,16],[20,15],[4,0],[-2,-5],[-5,-5]],[[667,3069],[15,-2],[-30,-10],[-29,-14],[-10,0],[14,11],[21,10],[19,5]],[[709,2298],[1,-7],[-1,-12],[-13,-5],[-15,-2],[-10,1],[1,5],[2,7],[-1,4],[-4,3],[-11,-1],[-15,0],[-11,6],[-8,7],[-3,7],[0,5],[8,1],[14,3],[12,7],[12,3],[8,-2],[10,-17],[14,-12],[8,2],[2,-3]],[[1880,1707],[-3,-4],[0,-4],[-20,-5],[-6,-5],[-3,-1],[-1,2],[4,5],[4,5],[-5,2],[-7,4],[-4,3],[-3,-6],[-2,-8],[-4,-2],[-1,-5],[-1,-4],[-3,0],[-3,3],[-4,4],[-1,0],[0,-4],[-2,-2],[-5,-1],[-3,-1],[1,5],[10,10],[11,18],[5,14],[12,5],[7,5],[2,-1],[1,-6],[1,-6],[-4,-3],[-4,-2],[1,-3],[4,-5],[1,-2],[6,-4],[7,-4],[4,0],[6,1],[2,2]],[[2032,1558],[-3,-8],[-8,-5],[-4,-8],[-8,17],[1,5],[0,16],[8,4],[6,0],[5,-2],[3,-19]],[[2233,4096],[4,-4],[6,4]],[[2974,3908],[48,1],[43,7],[19,26],[6,14],[3,20],[-9,2],[-14,-20],[-18,-9],[-12,0],[-23,9],[-17,-2],[-12,-13],[-17,-4],[2,-4],[0,-4],[-3,-9],[1,-7],[3,-7]],[[1332,4073],[-6,13],[-7,4],[-43,6],[-16,-20],[-1,-8],[20,-37],[-6,-5],[-9,-3],[-10,4],[-12,9],[-1,-5],[8,-12],[13,-11],[20,-6],[19,1],[36,14],[17,10],[-1,9],[-11,27],[-10,10]],[[392,3386],[-2,3],[-7,0],[-10,-29],[-1,-7],[-8,-11],[9,4],[19,40]],[[382,3253],[-6,-19],[1,-8],[14,26],[10,11],[2,8],[-7,4],[-1,-8],[-5,-7],[-8,-7]],[[1412,1742],[2,9],[-5,9],[-3,1],[-8,-3],[14,-16]],[[1587,3614],[-3,-4],[-7,-2],[-6,4],[-4,6],[-5,-1],[3,-18],[18,-2],[5,1],[10,5],[21,1],[-4,7],[-28,3]],[[559,3836],[-9,-11],[-7,-20],[5,-21],[9,6],[24,31],[10,15],[-2,5],[-12,-3],[-18,-2]],[[3938,2296],[-1,-8],[5,-5],[7,-4],[4,-7],[1,-17],[5,-9],[9,21],[-3,16],[-27,13]],[[3854,2270],[-33,13],[-12,21],[-8,6],[-7,1],[1,-15],[29,-30],[35,-18],[9,3],[-14,19]],[[3327,4067],[11,-7],[0,3],[5,4],[-6,9],[-25,3],[-7,-2],[3,-9],[19,-1]],[[3110,4015],[-14,10],[-13,-9],[3,-11],[24,10]],[[3285,4081],[10,-6],[4,2],[-4,4],[-5,15]],[[3275,4096],[-2,-5],[7,-4],[3,-1],[2,-5]],[[3242,4064],[2,2],[7,2],[-1,2],[-13,-1],[-21,10],[-2,-11],[2,-7],[6,0],[20,3]],[[1979,1540],[3,-8],[9,9],[-4,8],[-2,-1],[-6,-8]],[[2004,241],[5,-9],[10,2],[2,20],[-5,-2],[-12,-11]],[[2152,494],[-6,-7],[3,-9],[10,-8],[5,4],[-1,12],[-4,6],[-7,2]],[[1509,1397],[7,7],[-10,19],[-5,0],[-10,-6],[-9,-16],[0,-5],[1,-5],[15,-15],[21,-8],[10,1],[-2,9],[-15,8],[-3,11]],[[0,2557],[5,-3],[31,-23],[51,-9],[45,-6],[74,-36],[65,-19],[5,2],[-18,9],[-13,3],[-6,4],[17,0],[32,-12],[43,-10],[29,1],[17,2],[9,9],[11,11],[-3,19],[4,2],[8,-4],[11,-3],[19,5],[21,-6],[1,-8],[-3,-7],[8,-11],[8,-17],[15,-8],[-1,-19],[-1,-6],[-9,-5],[-6,0],[-14,12],[-8,10],[-7,1],[-16,-15],[1,-11],[37,-28],[50,-46],[11,-14],[50,-35],[18,-17],[18,-32],[34,-46],[92,-76],[24,-25],[16,-20],[0,-5],[0,-4],[-2,-10],[-24,-12],[-4,-5],[14,-9],[21,-11],[9,-8],[-1,-12],[1,-9],[-7,-13],[-23,-31],[-3,-20],[9,-30],[21,-32],[10,-11],[57,-17],[29,-35],[7,-7],[7,3],[3,13],[11,6],[21,22],[-4,12],[-10,9],[-36,16],[-14,17],[-5,28],[5,-3],[7,-9],[32,-15],[56,-40],[13,-21],[-5,-16],[2,-10],[14,-15],[18,-8],[48,-12],[19,-15],[40,-19],[29,-24],[18,-21],[4,-15],[1,-29],[-6,-14],[-16,-21],[23,-25],[11,-6],[17,-2],[14,-4],[15,-2],[1,11],[-2,8],[-22,21],[-9,16],[14,2],[19,-10],[23,-14],[6,-15],[1,-29],[15,-12],[17,-20],[12,-20],[5,5],[-2,27],[15,11],[19,3],[27,-6],[30,-2],[23,6],[3,-15],[11,-6],[12,5],[22,-2],[21,-9],[24,-5],[6,-12],[3,-11],[32,-55],[24,-8],[19,-10],[9,0],[4,8],[3,26],[4,9],[11,4],[6,5],[5,-36],[22,-51],[2,-30],[11,-10],[32,1],[42,9],[12,9],[4,12],[11,7],[32,2],[8,3],[10,9],[-5,19],[-6,12],[-34,35],[-19,27],[-8,6],[-9,9],[-1,11],[1,14],[9,9],[7,5],[31,5],[14,7],[68,45],[-12,9],[10,13],[5,12],[8,14],[21,10],[4,4],[8,8],[12,7],[36,3],[29,-5],[24,-12],[19,-16],[14,-6],[11,-11],[8,-2],[9,-5],[19,-16],[8,-34],[6,-8],[5,-9],[5,0],[2,9],[-3,7],[-2,12],[4,-3],[5,-6],[17,-1],[1,-6],[5,-5],[6,4],[5,7],[11,8],[8,-19],[8,-13],[29,-20],[17,-16],[-13,4],[-22,14],[-17,10],[-12,18],[-5,1],[-7,-10],[-19,-15],[5,-21],[-6,-9],[-5,-4],[-9,0],[-10,-1],[8,-30],[38,-67],[43,-53],[6,-6],[17,-17],[23,-33],[6,-17],[8,-6],[14,-27],[16,0],[12,-22],[2,-13],[-7,-43],[-8,0],[-6,2],[1,-20],[23,-34],[17,-40],[-14,-20],[-38,-25],[24,-23],[6,-17],[2,-21],[-1,-25],[5,-45],[6,-10],[3,-12],[-5,-23],[-2,-23],[-5,-14],[-11,-9],[-6,-9],[-12,-8],[-1,-9],[20,7],[1,-9],[-5,-13],[1,-13],[12,-22],[15,22],[5,-4],[-2,-27],[9,-5],[8,-1],[7,8],[10,1],[-31,-61],[-14,-20],[-6,-24],[-11,-1],[-10,-20],[-9,-14],[-7,-16],[-13,-4],[-12,-3],[-1,-6],[5,-16],[1,-8],[-20,-17],[-6,-7],[-1,-6],[-11,2],[-4,-5],[-6,-13],[-10,-11],[-8,-5],[-7,-7],[-9,-4],[-32,5],[-9,-10],[-13,5],[-8,-3],[-14,-9],[-10,-12],[-5,-9],[-2,-47],[14,-25],[-4,-28],[-40,14],[-30,-18],[-12,-24],[25,-19],[5,-12],[6,-30],[-13,-17],[-60,-19],[-43,-8],[-27,-17],[-23,2],[-10,-11],[-20,-11],[-24,-5],[-10,-10],[5,-35],[7,-34],[-4,-48],[-15,-29]],[[4096,1966],[-15,-2],[-53,-9],[-48,4],[-18,14],[-11,22],[-5,23],[9,13],[-9,13],[-3,19],[-11,20],[-39,28],[-39,23],[-41,5],[-32,11],[-54,-3],[-8,-3],[-11,-1],[-15,16],[-9,21],[-9,30],[-3,29],[-6,11],[-10,11],[-16,12],[-21,-8],[-15,-7],[-8,-17],[-7,-22],[12,-29],[0,-10],[5,-10],[51,9],[17,0],[8,-25],[-6,-12],[-14,-6],[-30,16],[-9,-2],[-11,-17],[-13,-10],[-57,-21],[-50,-10],[-81,-39],[-38,-6],[2,-24],[-15,-11],[5,-29],[4,-17],[6,-12],[13,-38],[23,-23],[10,-24],[23,-33],[5,-24],[-4,-37],[-2,-30],[-22,-23],[-6,-12],[-10,-7],[-44,-14],[-15,0],[-12,5],[-10,11],[-7,22],[3,16],[-8,9],[-12,8],[-19,23],[-3,17],[-22,32],[29,55],[13,11],[16,28],[24,23],[13,40],[-1,13],[-17,21],[-7,29],[10,1],[6,3],[-27,23],[-8,10],[-21,42],[-1,12],[0,17],[9,7],[7,3],[69,17],[13,7],[12,11],[6,9],[6,11],[27,24],[-3,22],[-20,32],[-42,18],[-19,0],[-21,-3],[-37,-20],[-3,-8],[-7,-6],[-15,0],[-15,-9],[-5,-24],[-20,-32],[-32,-16],[-50,-17],[-107,-77],[-66,-5],[-22,1],[-21,6],[-27,6],[-15,-4],[-11,-10],[-3,-30],[-15,-29],[-9,-25],[-9,-10],[-11,5],[-10,14],[4,13],[15,6],[11,2],[4,4],[-23,-2],[-71,23],[-14,-10],[-37,-35],[-22,-16],[-6,-11],[-31,-21],[-8,-16],[-11,-37],[-21,-25],[-7,-10],[12,6],[15,12],[4,-6],[-11,-15],[1,-25],[-8,-29],[-8,-20],[8,-13],[6,-22],[-7,-17],[-21,-6],[-27,2],[-22,-12],[-20,-18],[-26,-52],[-75,-55],[-20,-10],[-16,-4],[-6,-9],[9,-11],[10,-9],[8,-29],[5,-57],[-8,-13],[-14,-3],[-6,4],[-5,6],[3,12],[7,5],[4,5],[-8,7],[-8,4],[-10,19],[-25,28],[-24,17],[-15,27],[-6,4],[-58,43],[-25,34],[-46,31],[-76,32],[-35,5],[-43,-1],[-8,5],[-8,10],[-17,5],[-18,-1],[-26,7],[-41,6],[-13,-8],[-13,-15],[-24,-18],[-11,-4],[-12,-3],[-27,-25],[-76,-24],[-24,-11],[-29,-25],[-41,-14],[-26,-5],[-27,-1],[-35,9],[-30,36],[-17,10],[-7,8],[-9,4],[-1,-5],[12,-13],[9,-16],[-8,-2],[-12,2],[-34,-4],[-10,8],[-20,10],[1,20],[7,5],[2,5],[-3,4],[-12,-4],[-12,3],[-7,24],[2,8],[-1,9],[-24,18],[-11,10],[-9,7],[-30,10],[-6,12],[-10,7],[-30,41],[-17,9],[-41,52],[-18,28],[-23,50],[-3,15],[-5,11],[-5,8],[-13,3],[-9,14],[-12,23],[-7,31],[2,10],[5,14],[10,14],[6,12],[17,14],[-3,15],[-7,19],[-9,0],[-7,2],[-7,5],[3,7],[8,6],[0,9],[1,15],[9,0],[3,-5],[3,-1],[2,37],[4,12],[-3,9],[-9,13],[-7,18],[7,9],[6,3],[10,8],[6,19],[3,-8],[-2,-17],[-6,-12],[-1,-10],[6,-12],[5,-1],[10,4],[-1,19],[-4,15],[5,65],[-10,70],[13,79],[15,48],[12,11],[12,18],[13,21],[4,14],[-20,76],[-8,3],[-6,0],[-7,11],[4,9],[9,6],[7,-2],[0,-17],[4,2],[12,22],[6,5],[5,7],[-13,9],[-12,7],[-14,30],[-50,24],[-6,-1],[23,-13],[10,-14],[-7,0],[-10,9],[-15,-1],[-8,-8],[-8,0],[-8,13],[-12,12],[-11,8],[-15,3],[-6,-3],[-9,1],[-2,5],[-1,12],[5,3],[20,2],[38,-21],[-2,6],[-88,72],[-47,9],[5,-5],[12,-3],[-3,-3],[-9,-4],[-13,2],[-15,15],[-60,20],[-14,-3],[-21,-11],[-58,-3],[-54,19],[-37,4],[6,-4],[3,-9],[-24,-9],[-21,-4],[-32,-19],[-22,4],[-51,-2],[-27,-6],[-69,14],[-17,-2],[-20,-7],[-10,8],[-13,15],[-16,0],[-31,-6],[-6,-3],[-19,-14],[-8,-4],[-14,-12],[-17,5],[-67,41],[-1,-4],[5,-5],[6,-9],[-12,-16],[-19,8],[-16,10],[-8,1],[-10,4],[-3,12],[6,12],[34,43],[24,8],[18,27],[10,10],[17,27],[9,61],[-5,43],[1,23],[3,15],[12,23],[-12,17],[9,27],[2,17],[20,52],[3,19],[-9,23],[-21,1],[-9,-2],[-9,3],[9,21],[4,8],[15,24],[-1,14],[13,10],[10,12],[7,1],[4,-21],[-8,-38],[3,-8],[14,-8],[15,-31],[5,-1],[9,17],[7,16],[6,39],[14,27],[11,46],[17,45],[-2,6],[-7,1],[-13,-14],[-6,2],[-1,17],[6,6],[11,6],[10,2],[5,3],[9,11],[2,16],[-8,0],[-8,-2],[-14,0],[-10,-4],[-8,7],[0,9],[18,26],[15,9],[7,-1],[5,7],[2,7],[-7,19],[0,19],[8,24],[37,52],[29,23],[25,29],[11,19],[9,22],[8,27],[-6,9],[-3,7],[-1,35],[-16,7],[-22,25],[-17,5],[-16,-7],[-11,-2],[-17,0],[-3,-4],[16,-5],[9,0],[7,4],[4,0],[4,-6],[-4,-7],[-6,-4],[-6,-2],[-41,5],[-38,12],[-16,3],[-42,10],[-23,2],[-7,-2],[0,-3],[-3,-2],[-12,-2],[-39,0],[-21,-5],[-30,-17],[-24,-7],[-171,-26],[-13,-4],[-20,-9]],[[735,3067],[3,-5],[14,11],[4,5],[2,4],[-8,1],[-8,-6],[-7,-10]],[[3122,3751],[-10,-2],[-10,-4],[11,-6],[4,-1],[6,2],[19,-6],[18,-3],[3,5],[-7,4],[-23,10],[-11,1]],[[596,3969],[-2,3],[-3,0],[3,-8],[4,-7],[3,-1],[-3,9],[-2,4]],[[2021,1545],[-4,-8],[-8,17],[1,5],[0,16],[8,4],[6,0],[5,-2],[3,-19],[-3,-8],[-8,-5]],[[2164,474],[-5,-4],[-10,8],[-3,9],[6,7],[7,-2],[4,-6],[1,-12]],[[1529,1369],[-10,-1],[-21,8],[-15,15],[-1,5],[0,5],[9,16],[10,6],[5,0],[10,-19],[-7,-7],[3,-11],[15,-8],[2,-9]],[[3968,2267],[-9,-21],[-5,9],[-1,17],[-4,7],[-7,4],[-5,5],[1,8],[27,-13],[3,-16]],[[3868,2251],[-9,-3],[-35,18],[-29,30],[-1,15],[7,-1],[8,-6],[12,-21],[33,-13],[14,-19]],[[3659,2324],[1,-5],[-9,3],[-11,11],[-11,9],[3,9],[2,4],[12,-9],[11,-16],[2,-6]],[[652,3057],[-29,-14],[-10,0],[14,11],[21,10],[19,5],[15,-2],[-30,-10]],[[391,3252],[-14,-26],[-1,8],[6,19],[8,7],[5,7],[1,8],[7,-4],[-2,-8],[-10,-11]],[[373,3346],[-9,-4],[8,11],[1,7],[10,29],[7,0],[2,-3],[-19,-40]],[[1571,3612],[6,-4],[7,2],[3,4],[28,-3],[4,-7],[-21,-1],[-10,-5],[-5,-1],[-18,2],[-3,18],[5,1],[4,-6]],[[3130,3505],[-3,-13],[-46,16],[-38,19],[1,11],[20,3],[18,-7],[27,-13],[21,-16]],[[2319,3445],[22,-6],[23,-4],[10,0],[9,-2],[21,-16],[17,-9],[64,-20],[21,-34],[4,-10],[-16,-6],[-21,-3],[-20,0],[-18,6],[-8,5],[-19,3],[4,4],[-8,3],[-11,-1],[-8,-13],[-8,-10],[-17,1],[-6,9],[-9,-4],[-7,-7],[-9,-24],[-13,12],[-15,10],[-19,4],[-38,1],[-17,3],[-15,21],[-6,6],[-15,5],[-15,23],[-5,4],[-40,5],[-8,13],[2,11],[14,15],[6,4],[22,-1],[22,4],[9,6],[10,4],[76,-10],[18,0],[17,-2]],[[3338,4063],[0,-3],[-11,7],[-19,1],[-3,9],[7,2],[25,-3],[6,-9],[-5,-4]],[[3216,4079],[21,-10],[13,1],[1,-2],[-7,-2],[-2,-2],[-20,-3],[-6,0],[-2,7],[2,11]],[[3275,4096],[15,0],[5,-15],[4,-4],[-4,-2],[-10,6],[-2,5],[-3,1],[-7,4],[2,5]],[[2233,4096],[10,0],[-6,-4],[-4,4]],[[4096,1966],[0,-1966],[-2299,0],[15,29],[4,48],[-7,34],[-5,35],[10,10],[24,5],[20,11],[10,11],[23,-2],[27,17],[43,8],[60,19],[13,17],[-6,30],[-5,12],[-25,19],[12,24],[30,18],[40,-14],[4,28],[-14,25],[2,47],[5,9],[10,12],[14,9],[8,3],[13,-5],[9,10],[32,-5],[9,4],[7,7],[8,5],[10,11],[6,13],[4,5],[11,-2],[1,6],[6,7],[20,17],[-1,8],[-5,16],[1,6],[12,3],[13,4],[7,16],[9,14],[10,20],[11,1],[6,24],[14,20],[31,61],[-10,-1],[-7,-8],[-8,1],[-9,5],[2,27],[-5,4],[-15,-22],[-12,22],[-1,13],[5,13],[-1,9],[-20,-7],[1,9],[12,8],[6,9],[11,9],[5,14],[2,23],[5,23],[-3,12],[-6,10],[-5,45],[1,25],[-2,21],[-6,17],[-24,23],[38,25],[14,20],[-17,40],[-23,34],[-1,20],[6,-2],[8,0],[7,43],[-2,13],[-12,22],[-16,0],[-14,27],[-8,6],[-6,17],[-23,33],[-17,17],[-6,6],[-43,53],[-38,67],[-8,30],[10,1],[9,0],[5,4],[6,9],[-5,21],[19,15],[7,10],[5,-1],[12,-18],[17,-10],[22,-14],[13,-4],[-17,16],[-29,20],[-8,13],[-8,19],[-11,-8],[-5,-7],[-6,-4],[-5,5],[-1,6],[-17,1],[-5,6],[-4,3],[2,-12],[3,-7],[-2,-9],[-5,0],[-5,9],[-6,8],[-8,34],[-19,16],[-9,5],[-8,2],[-11,11],[-14,6],[-19,16],[-24,12],[-29,5],[-36,-3],[-12,-7],[-8,-8],[-4,-4],[-21,-10],[-8,-14],[-5,-12],[-10,-13],[12,-9],[-68,-45],[-14,-7],[-31,-5],[-7,-5],[-9,-9],[-1,-14],[1,-11],[9,-9],[8,-6],[19,-27],[34,-35],[6,-12],[5,-19],[-10,-9],[-8,-3],[-32,-2],[-11,-7],[-4,-12],[-12,-9],[-42,-9],[-32,-1],[-11,10],[-2,30],[-22,51],[-5,36],[-6,-5],[-11,-4],[-4,-9],[-3,-26],[-4,-8],[-9,0],[-19,10],[-24,8],[-32,55],[-3,11],[-6,12],[-24,5],[-21,9],[-22,2],[-12,-5],[-11,6],[-3,15],[-23,-6],[-30,2],[-27,6],[-19,-3],[-15,-11],[2,-27],[-5,-5],[-12,20],[-17,20],[-15,12],[-1,29],[-6,15],[-23,14],[-19,10],[-14,-2],[9,-16],[22,-21],[2,-8],[-1,-11],[-15,2],[-14,4],[-17,2],[-11,6],[-23,25],[16,21],[6,14],[-1,29],[-4,15],[-18,21],[-29,24],[-40,19],[-19,15],[-48,12],[-18,8],[-14,15],[-2,10],[5,16],[-13,21],[-56,40],[-32,15],[-7,9],[-5,3],[5,-28],[14,-17],[36,-16],[10,-9],[4,-12],[-21,-22],[-11,-6],[-3,-13],[-7,-3],[-7,7],[-29,35],[-57,17],[-10,11],[-21,32],[-9,30],[3,20],[23,31],[7,13],[-1,9],[1,12],[-9,8],[-21,11],[-14,9],[4,5],[24,12],[2,10],[0,4],[0,5],[-16,20],[-24,25],[-92,76],[-34,46],[-18,32],[-18,17],[-50,35],[-11,14],[-50,46],[-37,28],[-1,11],[16,15],[7,-1],[8,-10],[14,-12],[6,0],[9,5],[1,6],[1,19],[-15,8],[-8,17],[-8,11],[3,7],[-1,8],[-21,6],[-19,-5],[-11,3],[-8,4],[-4,-2],[3,-19],[-11,-11],[-9,-9],[-17,-2],[-29,-1],[-43,10],[-32,12],[-17,0],[6,-4],[13,-3],[18,-9],[-5,-2],[-65,19],[-74,36],[-45,6],[-51,9],[-31,23],[-5,3],[0,1401],[20,9],[13,4],[171,26],[24,7],[30,17],[21,5],[39,0],[12,2],[3,2],[0,3],[7,2],[23,-2],[42,-10],[16,-3],[38,-12],[41,-5],[6,2],[6,4],[4,7],[-4,6],[-4,0],[-7,-4],[-9,0],[-16,5],[3,4],[17,0],[11,2],[16,7],[17,-5],[22,-25],[16,-7],[1,-35],[3,-7],[6,-9],[-8,-27],[-9,-22],[-11,-19],[-25,-29],[-29,-23],[-37,-52],[-8,-24],[0,-19],[7,-19],[-2,-7],[-5,-7],[-7,1],[-15,-9],[-18,-26],[0,-9],[8,-7],[10,4],[14,0],[8,2],[8,0],[-2,-16],[-9,-11],[-5,-3],[-10,-2],[-11,-6],[-6,-6],[1,-17],[6,-2],[13,14],[7,-1],[2,-6],[-17,-45],[-11,-46],[-14,-27],[-6,-39],[-7,-16],[-9,-17],[-5,1],[-15,31],[-14,8],[-3,8],[8,38],[-4,21],[-7,-1],[-10,-12],[-13,-10],[1,-14],[-15,-24],[-4,-8],[-9,-21],[9,-3],[9,2],[21,-1],[9,-23],[-3,-19],[-20,-52],[-2,-17],[-9,-27],[12,-17],[-12,-23],[-3,-15],[-1,-23],[5,-43],[-9,-61],[-17,-27],[-10,-10],[-18,-27],[-24,-8],[-34,-43],[-6,-12],[3,-12],[10,-4],[8,-1],[16,-10],[19,-8],[12,16],[-6,9],[-5,5],[1,4],[67,-41],[17,-5],[14,12],[8,4],[19,14],[6,3],[31,6],[16,0],[13,-15],[10,-8],[20,7],[17,2],[69,-14],[27,6],[51,2],[22,-4],[32,19],[21,4],[24,9],[-3,9],[-6,4],[37,-4],[54,-19],[58,3],[21,11],[14,3],[60,-20],[15,-15],[13,-2],[9,4],[3,3],[-12,3],[-5,5],[47,-9],[88,-72],[2,-6],[-38,21],[-20,-2],[-5,-3],[1,-12],[2,-5],[9,-1],[6,3],[15,-3],[11,-8],[12,-12],[8,-13],[8,0],[8,8],[15,1],[10,-9],[7,0],[-10,14],[-23,13],[6,1],[50,-24],[14,-30],[12,-7],[13,-9],[-5,-7],[-6,-5],[-12,-22],[-4,-2],[0,17],[-7,2],[-9,-6],[-4,-9],[7,-11],[6,0],[8,-3],[20,-76],[-4,-14],[-13,-21],[-12,-18],[-12,-11],[-15,-48],[-13,-79],[10,-70],[-5,-65],[4,-15],[1,-19],[-10,-4],[-5,1],[-6,12],[1,10],[6,12],[2,17],[-3,8],[-6,-19],[-10,-8],[-6,-3],[-7,-9],[7,-18],[9,-13],[3,-9],[-4,-12],[-2,-37],[-3,1],[-3,5],[-9,0],[-1,-15],[0,-9],[-8,-6],[-3,-7],[7,-5],[7,-2],[9,0],[7,-19],[3,-15],[-17,-14],[-6,-12],[-10,-14],[-5,-14],[-2,-10],[7,-31],[12,-23],[9,-14],[13,-3],[5,-8],[5,-11],[3,-15],[23,-50],[18,-28],[41,-52],[17,-9],[30,-41],[10,-7],[6,-12],[30,-10],[9,-7],[11,-10],[24,-18],[1,-9],[-2,-8],[7,-24],[12,-3],[12,4],[3,-4],[-2,-5],[-7,-5],[-1,-20],[20,-10],[10,-8],[34,4],[12,-2],[8,2],[-9,16],[-12,13],[1,5],[9,-4],[7,-8],[17,-10],[30,-36],[35,-9],[27,1],[26,5],[41,14],[29,25],[24,11],[76,24],[27,25],[12,3],[11,4],[24,18],[13,15],[13,8],[41,-6],[26,-7],[18,1],[17,-5],[8,-10],[8,-5],[43,1],[35,-5],[76,-32],[46,-31],[25,-34],[58,-43],[6,-4],[15,-27],[24,-17],[25,-28],[10,-19],[8,-4],[8,-7],[-4,-5],[-7,-5],[-3,-12],[5,-6],[6,-4],[14,3],[8,13],[-5,57],[-8,29],[-10,9],[-9,11],[6,9],[16,4],[20,10],[75,55],[26,52],[20,18],[22,12],[27,-2],[21,6],[7,17],[-6,22],[-8,13],[8,20],[8,29],[-1,25],[11,15],[-4,6],[-15,-12],[-12,-6],[7,10],[21,25],[11,37],[8,16],[31,21],[6,11],[22,16],[37,35],[14,10],[71,-23],[23,2],[-4,-4],[-11,-2],[-15,-6],[-4,-13],[10,-14],[11,-5],[9,10],[9,25],[15,29],[3,30],[11,10],[15,4],[27,-6],[21,-6],[22,-1],[66,5],[107,77],[50,17],[32,16],[20,32],[5,24],[15,9],[15,0],[7,6],[3,8],[37,20],[21,3],[19,0],[42,-18],[20,-32],[3,-22],[-27,-24],[-6,-11],[-6,-9],[-12,-11],[-13,-7],[-69,-17],[-7,-3],[-9,-7],[0,-17],[1,-12],[21,-42],[8,-10],[27,-23],[-6,-3],[-10,-1],[7,-29],[17,-21],[1,-13],[-13,-40],[-24,-23],[-16,-28],[-13,-11],[-29,-55],[22,-32],[3,-17],[19,-23],[12,-8],[8,-9],[-3,-16],[7,-22],[10,-11],[12,-5],[15,0],[44,14],[10,7],[6,12],[22,23],[2,30],[4,37],[-5,24],[-23,33],[-10,24],[-23,23],[-13,38],[-6,12],[-4,17],[-5,29],[15,11],[-2,24],[38,6],[81,39],[50,10],[57,21],[13,10],[11,17],[9,2],[30,-16],[14,6],[6,12],[-8,25],[-17,0],[-51,-9],[-5,10],[0,10],[-12,29],[7,22],[8,17],[15,7],[21,8],[16,-12],[10,-11],[6,-11],[3,-29],[9,-30],[9,-21],[15,-16],[11,1],[8,3],[54,3],[32,-11],[41,-5],[39,-23],[39,-28],[11,-20],[3,-19],[9,-13],[-9,-13],[5,-23],[11,-22],[18,-14],[48,-4],[53,9],[15,2]],[[3156,3740],[7,-4],[-3,-5],[-18,3],[-19,6],[-6,-2],[-4,1],[-11,6],[10,4],[10,2],[11,-1],[23,-10]],[[557,3790],[-9,-6],[-5,21],[7,20],[9,11],[18,2],[12,3],[2,-5],[-10,-15],[-24,-31]],[[3285,3681],[22,-4],[10,4],[8,3],[5,11],[7,10],[10,5],[10,4],[21,0],[30,-9],[8,0],[28,8],[23,4],[22,-5],[9,-7],[18,-10],[9,-4],[29,1],[7,-1],[24,-18],[21,-7],[11,-1],[21,7],[11,0],[12,-15],[2,-22],[10,-20],[15,-13],[76,6],[17,-11],[-6,-8],[-11,-5],[-36,2],[-15,-1],[-4,-8],[0,-8],[21,-2],[21,-4],[21,-7],[21,-4],[24,-3],[24,-5],[39,-15],[44,-36],[12,-8],[7,-11],[-3,-14],[-16,-22],[-9,-7],[-13,-5],[-8,-9],[-9,-16],[-5,-1],[-6,1],[-11,9],[-7,13],[-21,13],[-25,-2],[-37,8],[-22,-4],[-23,0],[-22,3],[-23,2],[-23,-5],[-22,-8],[-9,-6],[-14,-12],[-7,-5],[-54,-6],[-16,9],[-14,13],[-21,1],[-30,-9],[-19,-4],[-8,-4],[-2,-5],[0,-18],[-4,-11],[-30,-41],[-16,-29],[-7,-9],[-8,-2],[-15,17],[-9,6],[-11,3],[-5,9],[0,12],[-3,12],[-7,10],[-10,6],[-15,15],[-17,13],[-11,5],[-10,3],[-81,-2],[-9,-2],[-7,-4],[-7,-2],[-23,-4],[-22,-1],[-51,10],[-21,6],[-20,3],[-24,-1],[-23,-3],[-19,-8],[-14,-12],[-3,-12],[-8,-3],[-19,19],[-18,13],[-20,10],[-41,15],[-7,8],[-3,11],[16,33],[19,6],[10,1],[23,-4],[23,-8],[21,-5],[32,-2],[17,-8],[123,-12],[23,-4],[9,2],[8,4],[7,9],[7,7],[37,1],[7,3],[6,9],[0,10],[-22,13],[-33,28],[-30,33],[13,11],[-5,21],[5,18],[7,19],[-29,16],[-35,16],[-48,5],[-14,4],[-8,11],[7,16],[15,9],[18,6],[18,3],[44,5],[44,-5],[38,-17],[38,-12],[48,-5]],[[3110,4015],[-24,-10],[-3,11],[13,9],[14,-10]],[[3090,3956],[-6,-14],[-19,-26],[-43,-7],[-48,-1],[-3,7],[-1,7],[3,9],[0,4],[-2,4],[17,4],[12,13],[17,2],[23,-9],[12,0],[18,9],[14,20],[9,-2],[-3,-20]],[[1354,4027],[-17,-10],[-36,-14],[-19,-1],[-20,6],[-13,11],[-8,12],[1,5],[12,-9],[10,-4],[9,3],[6,5],[-20,37],[1,8],[16,20],[43,-6],[7,-4],[6,-13],[10,-10],[11,-27],[1,-9]],[[1762,4096],[436,0],[11,-8],[42,-19],[16,-4],[9,2],[-2,4],[-12,11],[-2,4],[16,-3],[28,-22],[8,-8],[14,-8],[14,-5],[-6,-8],[-12,-1],[-22,3],[18,-14],[3,-10],[8,-1],[12,12],[8,9],[31,-24],[16,-11],[-4,-7],[-1,-6],[18,6],[7,-1],[7,-3],[8,-11],[17,-2],[18,0],[35,-9],[34,-17],[32,-4],[32,0],[16,-10],[7,-12],[-8,-9],[-4,-9],[12,-11],[-26,-5],[-4,-7],[2,-7],[5,-4],[15,3],[21,-3],[34,-3],[23,3],[46,-8],[14,-4],[27,-15],[13,-9],[27,-26],[24,-10],[20,-2],[7,1],[7,-3],[5,-3],[6,-11],[-3,-12],[-12,-10],[-6,-7],[-29,-1],[-41,-3],[-39,-10],[-19,-9],[-9,-5],[-21,-5],[-1,4],[0,6],[-5,10],[-5,-9],[-7,-7],[-13,-6],[-48,0],[-19,8],[-20,5],[-71,5],[-17,0],[-48,-6],[-48,-3],[-20,-3],[-20,-6],[-39,0],[-46,-6],[-46,-1],[30,43],[62,40],[11,9],[9,11],[2,9],[-3,7],[-15,13],[-3,9],[-4,6],[-22,6],[-21,3],[-23,0],[-48,5],[-26,0],[-22,9],[-36,30],[-16,9],[-9,7],[-7,8],[-8,45],[-7,22],[-11,19],[-17,15],[-17,5],[-67,-13],[-15,2],[-16,4],[-100,30],[-42,16],[-17,8],[-14,11],[-2,2]],[[955,4096],[132,0],[-20,-3],[-19,-5],[-37,-20],[-10,-3],[2,14],[-2,15],[-11,0],[-12,-2],[-10,-4],[-19,-11],[-9,-2],[-9,5],[2,7],[22,9]],[[2879,585],[45,39],[3,-116],[95,6],[2,18],[103,-44],[-61,-47],[-109,10],[-18,-39],[-59,116],[18,36],[-19,21]],[[0,2843],[152,25],[13,-10],[-132,-54],[-33,-1],[0,40]],[[2559,1821],[15,77],[46,15],[-19,-79],[-28,-33],[-14,20]],[[3632,105],[104,32],[66,-17],[-24,77],[-108,3],[0,121],[305,2],[-22,19],[16,38],[54,-42],[73,63],[0,-401],[-463,0],[-1,105]],[[3478,1498],[49,53],[60,-94],[-78,4],[-31,37]],[[3539,1512],[12,-27],[7,-25],[14,13],[-33,39]],[[916,4084],[30,-10],[28,22],[29,0],[18,-30],[-27,-7],[6,31],[-53,-21],[-31,15]],[[3379,3609],[40,11],[75,-50],[-33,-16],[-82,55]],[[929,4096],[5,-11],[25,11],[96,0],[5,-2],[-63,-37],[6,31],[-75,-17],[-32,13],[0,12],[33,0]],[[2180,0],[3,42],[33,19],[83,-47],[-119,-14]],[[391,2959],[46,22],[21,-37],[-48,-9],[-19,24]],[[2348,612],[28,72],[64,-41],[-26,-56],[-6,17],[-36,-22],[-24,30]],[[2010,126],[59,41],[64,-74],[-6,-29],[-33,38],[-63,-40],[-21,64]],[[1881,1748],[26,32],[69,-22],[-65,-48],[-30,38]],[[1194,1795],[37,42],[20,-13],[-45,-49],[34,14],[-1,-22],[47,-15],[0,-57],[-44,47],[-44,1],[-4,52]],[[2823,698],[28,21],[21,81],[-2,-37],[47,5],[7,-58],[-9,6],[-9,-2],[-3,1],[-1,0],[29,-11],[-8,-23],[-21,-11],[-29,40],[-31,-25],[-19,13]],[[3239,388],[7,17],[21,5],[-10,29],[7,8],[24,-34],[27,18],[43,-36],[55,43],[4,-32],[87,5],[-13,-54],[-93,-42],[-29,-59],[-130,132]],[[3191,1239],[29,56],[16,-51],[27,17],[44,-28],[-33,-59],[-36,-3],[-2,-6],[6,-5],[4,-21],[-2,-2],[-40,31],[16,31],[-29,40]],[[1910,3938],[39,41],[12,-55],[88,-40],[80,-3],[-1,-49],[-218,106]],[[2112,1478],[61,-36],[62,29],[2,25],[14,-30],[30,25],[-18,44],[18,25],[-8,11],[12,22],[56,-108],[-35,-12],[-42,-72],[-30,36],[5,-36],[-35,-53],[-28,33],[15,17],[-61,36],[-18,44]],[[3321,3362],[66,-43],[20,13],[-48,-71],[-21,-2],[18,35],[-35,68]],[[2040,221],[88,1],[11,-61],[-93,33],[-6,27]],[[2535,646],[31,83],[32,3],[5,-50],[-41,-4],[16,-33],[-43,1]],[[357,3577],[45,142],[62,38],[14,-98],[-19,-96],[-102,14]],[[2832,463],[35,12],[0,68],[15,1],[53,-116],[-29,-19],[-74,54]],[[1604,4096],[1,-30],[-46,30],[45,0]],[[1050,2208],[43,51],[40,9],[-13,-46],[26,-9],[11,-49],[-44,-23],[-24,20],[-32,-11],[-7,58]],[[1831,86],[25,46],[34,-58],[-32,-58],[-27,70]],[[820,2788],[109,50],[25,-63],[-53,-48],[-81,61]],[[2462,666],[5,-31],[-23,-7],[1,23],[17,15]],[[2876,879],[35,12],[-19,-52],[-23,14],[7,26]],[[2621,1180],[15,-15],[-21,-18],[0,24],[6,9]],[[1932,1687],[2,-5],[-34,-15],[10,30],[22,-10]],[[1073,1870],[21,-7],[0,-19],[-42,21],[21,5]],[[3766,1870],[-14,-3],[-14,3],[14,24],[28,-7],[-14,-17]],[[4016,1908],[16,5],[-12,-24],[-32,-5],[9,36],[19,-12]],[[4096,1913],[0,-15],[-18,-4],[7,28],[11,-9]],[[2760,2060],[19,-12],[-7,-19],[-14,12],[2,19]],[[3612,2174],[-6,-4],[-8,27],[20,-4],[-6,-19]],[[127,2551],[15,17],[22,-6],[-14,-10],[-23,-1]],[[2414,3359],[-25,-12],[-4,11],[16,16],[13,-15]],[[62,3930],[19,-12],[-8,-10],[-13,1],[2,21]],[[3679,3454],[0,-12],[-42,-13],[-5,34],[47,-9]],[[3333,2013],[18,-24],[-13,-40],[-10,-9],[5,73]],[[3821,1762],[71,-39],[-6,-50],[-42,31],[-23,58]],[[2911,111],[49,6],[37,-41],[32,28],[-12,137],[36,67],[34,-2],[47,-35],[10,-49],[50,-20],[42,-70],[41,-9],[27,-58],[59,-36],[-11,-29],[-398,0],[-20,6],[8,49],[-31,56]],[[3031,1721],[74,115],[7,97],[22,2],[14,-42],[-50,-86],[24,-103],[-18,-7],[-11,37],[-62,-13]],[[2446,21],[42,-3],[0,-12],[-28,-6],[-14,21]],[[2504,0],[-3,19],[48,-19],[-45,0]],[[2229,3709],[43,14],[40,-11],[-68,-13],[-15,10]],[[3692,456],[30,26],[6,58],[44,-31],[112,36],[-51,-73],[6,-23],[33,1],[0,-127],[-149,8],[-15,56],[23,43],[-39,26]],[[2472,1462],[63,8],[-26,-35],[12,-65],[-22,-4],[-27,96]],[[4027,1936],[4,20],[20,-17],[-2,20],[47,7],[0,-55],[-69,25]],[[3191,1399],[8,27],[64,-12],[-14,-14],[37,-28],[-22,-10],[22,-8],[-22,-1],[21,-9],[-16,-25],[-28,59],[-50,21]],[[2911,2033],[16,53],[26,-23],[14,39],[25,-1],[-16,-22],[3,-5],[-2,-3],[0,-2],[1,-1],[-1,-1],[93,11],[-24,-14],[34,-24],[-52,-13],[-22,-35],[-63,-8],[-20,13],[18,19],[-30,17]],[[0,201],[93,-47],[104,-154],[-197,0],[0,201]],[[2738,535],[85,39],[44,-99],[-86,8],[-43,52]],[[765,2640],[20,73],[50,25],[-26,47],[9,23],[43,-69],[45,-12],[-23,-7],[-6,-60],[-61,-38],[-27,-7],[-24,25]],[[515,2887],[35,43],[45,5],[-16,-50],[-64,2]],[[3334,1454],[47,56],[8,-15],[30,40],[8,-22],[30,26],[-32,-76],[-68,-32],[-23,23]],[[2687,3434],[40,41],[42,-37],[-37,-43],[-45,39]],[[2199,1603],[48,24],[-4,28],[57,-35],[-37,-85],[18,-44],[-30,-25],[-14,30],[27,12],[-65,95]],[[3031,1709],[65,21],[-34,-90],[-26,17],[21,23],[-26,29]],[[2615,54],[1,25],[56,20],[8,-27],[98,-33],[7,-34],[-160,-5],[-10,54]],[[2495,1815],[0,75],[53,0],[0,-75],[-53,0]],[[3375,1611],[34,49],[21,-17],[-3,29],[40,-8],[-7,29],[31,-21],[-2,37],[19,0],[-21,-47],[8,-7],[23,26],[16,6],[-86,-73],[-2,19],[-26,-29],[-30,24],[-6,-30],[-9,13]],[[1286,1768],[55,-50],[19,10],[2,-40],[-28,-1],[61,-24],[-7,-20],[-53,8],[-49,44],[0,73]],[[3633,3569],[112,-3],[6,-27],[-34,-13],[-84,43]],[[1052,2349],[4,45],[26,10],[83,-36],[-43,-45],[-70,26]],[[3023,1663],[22,0],[-19,27],[4,29],[64,15],[-16,-78],[21,-2],[-46,-18],[-30,27]],[[1463,1410],[35,63],[43,-42],[-1,-89],[-52,0],[-25,68]],[[148,3075],[20,46],[-16,27],[24,1],[-15,-59],[40,8],[1,52],[28,19],[13,-30],[-25,-37],[-70,-27]],[[3447,1394],[20,16],[87,20],[-25,-63],[-63,-3],[-19,30]],[[3406,1589],[88,58],[42,1],[5,-26],[-79,-96],[-56,63]],[[3378,3594],[117,-45],[-1,-7],[-64,-23],[-52,75]],[[3633,3569],[112,-3],[6,-27],[-34,-13],[-84,43]],[[0,3298],[0,28],[91,-27],[0,27],[63,0],[0,-28],[-154,0]],[[2456,1419],[7,39],[55,8],[41,38],[-8,-114],[64,51],[-62,-126],[-45,18],[-52,86]],[[2513,522],[19,76],[50,5],[1,-18],[14,19],[-1,-30],[-14,6],[-19,-5],[23,-28],[18,12],[3,-38],[-5,-1],[0,13],[-8,6],[-27,-20],[-33,30],[-21,-27]],[[3188,1754],[65,40],[62,-46],[-103,-53],[-24,59]],[[3792,977],[130,57],[115,-55],[-35,-45],[-12,18],[-63,-26],[-23,33],[-94,-23],[-18,41]],[[3845,1281],[78,35],[173,-8],[0,-88],[-72,1],[-36,81],[-73,9],[-70,-30]],[[801,2592],[40,63],[36,5],[6,60],[46,45],[13,-34],[79,-18],[-132,-178],[-88,57]]]}