{"objects":{"water":{"type":"GeometryCollection","geometries":[{"type":"Polygon","properties":{"source":"naturalearthdata.com","kind":"playa","name":"Salar de Coipasa","area":2230827776,"sort_rank":200,"min_zoom":0.0,"id":18},"arcs":[[9]]},{"type":"MultiPolygon","properties":{"source":"naturalearthdata.com","kind":"ocean","area":1444195503964160,"sort_rank":200,"min_zoom":0.0,"id":1},"arcs":[[[10],[11],[12]]]},{"type":"Polygon","properties":{"source":"naturalearthdata.com","kind":"lake","name":"Lago Titicaca","area":8616878080,"sort_rank":200,"min_zoom":0.0,"id":23},"arcs":[[13]]},{"type":"Polygon","properties":{"source":"naturalearthdata.com","kind":"playa","name":"Salar de Uyuni","area":9690357760,"sort_rank":200,"min_zoom":0.0,"id":31},"arcs":[[14]]},{"type":"Point","properties":{"label_placement":true,"kind":"playa","name":"Salar de Uyuni","area":9690357760,"sort_rank":200,"source":"naturalearthdata.com","min_zoom":0.0,"id":31},"coordinates":[4071,325]},{"type":"Point","properties":{"label_placement":true,"kind":"lake","name":"Lago Titicaca","area":8616878080,"sort_rank":200,"source":"naturalearthdata.com","min_zoom":0.0,"id":23},"coordinates":[3766,1122]},{"type":"Point","properties":{"label_placement":true,"kind":"playa","name":"Salar de Coipasa","area":2230827776,"sort_rank":200,"source":"naturalearthdata.com","min_zoom":0.0,"id":18},"coordinates":[4004,481]},{"type":"LineString","properties":{"source":"naturalearthdata.com","kind":"playa","sort_rank":367,"boundary":true,"min_zoom":0.0,"id":18},"arcs":[15]},{"type":"LineString","properties":{"source":"naturalearthdata.com","kind":"lake","sort_rank":367,"boundary":true,"min_zoom":0.0,"id":23},"arcs":[16]},{"type":"LineString","properties":{"source":"naturalearthdata.com","kind":"playa","sort_rank":367,"boundary":true,"min_zoom":0.0,"id":31},"arcs":[17]},{"type":"LineString","properties":{"source":"naturalearthdata.com","kind":"ocean","sort_rank":205,"boundary":true,"min_zoom":0.0,"id":1130},"arcs":[18]},{"type":"LineString","properties":{"source":"naturalearthdata.com","kind":"ocean","sort_rank":205,"boundary":true,"min_zoom":0.0,"id":1147},"arcs":[19]},{"type":"LineString","properties":{"source":"naturalearthdata.com","kind":"ocean","sort_rank":205,"boundary":true,"min_zoom":0.0,"id":1201},"arcs":[20]}]},"buildings":{"type":"GeometryCollection","geometries":[]},"places":{"type":"GeometryCollection","geometries":[{"type":"Point","properties":{"name:ka":"\u10de\u10d4\u10e0\u10e3","name:ko":"\ud398\ub8e8","name:cv":"\u041f\u0435\u0440\u0443","name:km":"\u1794\u17c9\u17c1\u179a\u17bc","name:kl":"Peru","name:cs":"Peru","name:ki":"Peru","name:co":"Per\u00f9","name:kv":"\u041f\u0435\u0440\u0443","name:ku":"Per\u00fb","name:ti":"\u1354\u1229","name:ks":"\u067e\u06cc\u0656\u0631\u0648\u0657","name:to":"Pel\u016b","name:tl":"Peru","name:ce":"\u041f\u0435\u0440\u0443","name:ta":"\u0baa\u0bc6\u0bb0\u0bc1","name:tg":"\u041f\u0435\u0440\u0443","name:ky":"\u041f\u0435\u0440\u0443","name:te":"\u0c2a\u0c46\u0c30\u0c42","name:cy":"Periw","name:hr":"Peru","name:da":"Peru","name:de":"Peru","name:dz":"\u0f54\u0f7a\u0f0b\u0f62\u0f74","source":"openstreetmap.org","name:kn":"\u0caa\u0cc6\u0cb0\u0cc1","name:dv":"\u0795\u07ac\u0783\u07ab","name:lv":"Peru","name:lt":"Peru","name:uz":"Peru","name:kk":"\u041f\u0435\u0440\u0443","name:ur":"\u067e\u06cc\u0631\u0648","name:lb":"Peru","name:la":"Peruvia","name:lg":"Peru","name:uk":"\u041f\u0435\u0440\u0443","name:ug":"\u067e\u06d0\u0631\u06c7","name:li":"Peru","name:ln":"Peru","name:lo":"\u0ec0\u0e9b\u0ea5\u0eb9","name:el":"\u03a0\u03b5\u03c1\u03bf\u03cd","name:eo":"Peruo","name:en":"Peru","name":"Per\u00fa","name:tk":"Peru","name:ee":"Peru","name:th":"\u0e1b\u0e23\u0e30\u0e40\u0e17\u0e28\u0e40\u0e1b\u0e23\u0e39","name:eu":"Peru","name:et":"Peruu","name:ay":"Piruw","name:rm":"Peru","name:rn":"Peru","name:az":"Peru","name:id":"Peru","name:ar":"\u0628\u064a\u0631\u0648","name:io":"Peru","name:ak":"Peru","name:am":"\u1354\u1229","name:it":"Per\u00f9","name:ru":"\u041f\u0435\u0440\u0443","name:ab":"\u041f\u0435\u0440\u0443","name:af":"Peru","name:zu":"Peru","name:zh-yue":"\u79d8\u9b6f","name:zh":"\u79d8\u9c81","name:so":"Peru","name:sn":"Peru","name:sl":"Peru","name:sk":"Peru","name:ja":"\u30da\u30eb\u30fc","name:si":"\u0db4\u0dda\u0dbb\u0dd6","name:sh":"Peru","name:sg":"Per\u00fcu","name:se":"Peru","name:sa":"\u092a\u0947\u0930\u0941","name:bs":"Peru","name:bm":"Peru","name:bn":"\u09aa\u09c7\u09b0\u09c1","name:bo":"\u0f54\u0f7a\u0f0b\u0f62\u0f74\u0f0d","name:bi":"Peru","name:sw":"Peru","name:be":"\u041f\u0435\u0440\u0443","name:su":"P\u00e9ru","name:bg":"\u041f\u0435\u0440\u0443","name:ss":"IPheru","name:ba":"\u041f\u0435\u0440\u0443","name:sq":"Peruja","name:jv":"Peru","name:br":"Perou","name:ia":"Peru","name:pt":"Peru","name:ps":"\u067e\u064a\u0631\u0648","name:oc":"Per\u00f3","min_zoom":2.0,"name:ro":"Peru","name:pa":"\u0a2a\u0a47\u0a30\u0a42","name:os":"\u041f\u0435\u0440\u0443","name:or":"\u0b2a\u0b47\u0b30\u0b41","name:pl":"Peru","name:sr":"\u041f\u0435\u0440\u0443","name:tr":"Peru","name:hi":"\u092a\u0947\u0930\u0942","name:sv":"Peru","name:he":"\u05e4\u05e8\u05d5","name:ha":"Peru","name:hy":"\u054a\u0565\u0580\u0578\u0582","name:ht":"Pewou","name:hu":"Peru","name:qu":"Piruw","population":29180899,"kind":"country","name:yi":"\u05e4\u05e2\u05e8\u05d5","name:iu":"\u1431\u1549","name:mt":"Per\u00f9","name:ms":"Peru","name:mr":"\u092a\u0947\u0930\u0942","name:my":"\u1015\u102e\u101b\u1030\u1038\u1014\u102d\u102f\u1004\u103a\u1004\u1036","official_name":"Rep\u00fablica del Per\u00fa","name:kw":"Perou","name:mg":"Peroa","name:ml":"\u0d2a\u0d46\u0d31\u0d41","name:vi":"Peru","name:mn":"\u041f\u0435\u0440\u0443","name:mi":"Per\u016b","id":249399406,"name:mk":"\u041f\u0435\u0440\u0443","name:vo":"Peruv\u00e4n","name:fa":"\u067e\u0631\u0648","name:rw":"Peru","name:ff":"Peru","name:fi":"Peru","name:fo":"Peru","name:fr":"P\u00e9rou","name:fy":"Per\u00fb","int_name":"Peru","name:nl":"Peru","name:nn":"Peru","name:no":"Peru","name:na":"Peru","name:ne":"\u092a\u0947\u0930\u0942","name:wo":"Peru","name:ga":"Peiri\u00fa","name:gd":"Pear\u00f9","name:gn":"Per\u0169","name:gv":"Yn Pheroo","name:gu":"\u0aaa\u0ac7\u0ab0\u0ac1","name:tt":"\u041f\u0435\u0440\u0443"},"coordinates":[2722,2814]},{"type":"Point","properties":{"name:pt":"Equador","name:ps":"\u0627\u06d0\u06a9\u0648\u0627\u062f\u0648\u0631","name:ka":"\u10d4\u10d9\u10d5\u10d0\u10d3\u10dd\u10e0\u10d8","name:mt":"Ekwador","name:ko":"\uc5d0\ucf70\ub3c4\ub974","name:cv":"\u042d\u043a\u0432\u0430\u0434\u043e\u0440","name:km":"\u17a2\u17c1\u1780\u17d2\u179c\u17b6\u178c\u17d0\u179a","name:cs":"Ekv\u00e1dor","name:ki":"Ekwado","name:kw":"Pow Ekwadorel","name:tr":"Ekvador","name:ku":"Ekuador","name:ti":"\u12a2\u12b3\u12f6\u122d","name:ks":"\u0627\u0650\u06a9\u0648\u0627\u0691\u0648\u0631","name:to":"\u02bbEkuetoa","name:tl":"Ekwador","name:pa":"\u0a0f\u0a15\u0a41\u0a06\u0a26\u0a4b\u0a30","name:os":"\u042d\u043a\u0432\u0430\u0434\u043e\u0440","name:or":"\u0b07\u0b15\u0b4d\u0b71\u0b3e\u0b21\u0b4b\u0b30\u0b4d","name:ce":"\u042d\u043a\u0432\u0430\u0434\u043e\u0440","name:ta":"\u0b88\u0b95\u0bcd\u0bb5\u0b9f\u0bbe\u0bb0\u0bcd","name:tg":"\u042d\u043a\u0443\u0430\u0434\u043e\u0440","name:ca":"Equador","name:te":"\u0c08\u0c15\u0c4d\u0c35\u0c21\u0c4b\u0c30\u0c4d","name:cy":"Ecwador","name:ln":"Ekwat\u025b\u0301l\u025b","name:sr":"\u0415\u043a\u0432\u0430\u0434\u043e\u0440","name:dz":"\u0f68\u0f7a\u0f0b\u0f41\u0fad\u0f0b\u0f4c\u0f7c\u0f62","source":"openstreetmap.org","name:nv":"K\u00e9yah Nahasdz\u00e1\u00e1n A\u0142n\u00edi\u02bcgi Si\u02bc\u00e1n\u00edg\u00ed\u00ed","name:kn":"\u0c88\u0c95\u0ccd\u0cb5\u0cc6\u0ca1\u0cbe\u0cb0\u0ccd","name:yi":"\u05e2\u05e7\u05d5\u05d5\u05d0\u05d3\u05d0\u05e8","name:dv":"\u0787\u07a8\u0786\u07aa\u0787\u07ac\u0791\u07af\u0783\u07aa","name:lv":"Ekvadora","name:lt":"Ekvadoras","name:uz":"Ekvador","name:kk":"\u042d\u043a\u0432\u0430\u0434\u043e\u0440","name:he":"\u05d0\u05e7\u05d5\u05d0\u05d3\u05d5\u05e8","min_zoom":2.0,"kind":"country","name:ur":"\u0627\u06cc\u06a9\u0648\u0627\u0688\u0648\u0631","name:la":"Aequatoria","name:lg":"Ekwado","name:uk":"\u0415\u043a\u0432\u0430\u0434\u043e\u0440","name:hy":"\u0537\u056f\u057e\u0561\u0564\u0578\u0580","name:ug":"\u0626\u06d0\u0643\u06cb\u0627\u062f\u0648\u0631","name:hr":"Ekvador","name:lo":"\u0ec0\u0ead\u0e81\u0ea7\u0eb2\u0e94\u0ecd","name:oc":"Eq\u00fcator","population":13755680,"name:el":"\u0399\u03c3\u03b7\u03bc\u03b5\u03c1\u03b9\u03bd\u03cc\u03c2","name:eo":"Ekvadoro","name":"Ecuador","name:is":"Ekvador","name:ee":"Ekuad\u0254 nutome","name:th":"\u0e1b\u0e23\u0e30\u0e40\u0e17\u0e28\u0e40\u0e2d\u0e01\u0e27\u0e32\u0e14\u0e2d\u0e23\u0e4c","name:eu":"Ekuador","name:yo":"Or\u00edl\u1eb9\u0301\u00e8de Eku\u00e1d\u00f2","name:ay":"Ikwadur","alt_name:el":"\u0395\u03ba\u03bf\u03c5\u03b1\u03b4\u03cc\u03c1","name:rn":"Ekwateri","name:az":"Ekvador","name:id":"Ekuador","name:mr":"\u0907\u0915\u094d\u0935\u093e\u0921\u094b\u0930","name:qu":"Ikwadur","name:ar":"\u0625\u0643\u0648\u0627\u062f\u0648\u0631","name:my":"\u1021\u102e\u1000\u103d\u1031\u1012\u1031\u102b","name:io":"Equador","name:gn":"Ekuator","name:ak":"Ikuwad\u0254","name:am":"\u12a2\u12b3\u12f6\u122d","name:fo":"Ekvador","name:ml":"\u0d07\u0d15\u0d4d\u0d35\u0d21\u0d4b\u0d7c","name:ru":"\u042d\u043a\u0432\u0430\u0434\u043e\u0440","name:rw":"Ekwadoro","name:mi":"Ekuatoa","name:pl":"Ekwador","name:mk":"\u0415\u043a\u0432\u0430\u0434\u043e\u0440","name:vo":"Lekvador\u00e4n","name:zu":"i-Ecuador","name:ha":"Ekwador","name:mn":"\u042d\u043a\u0432\u0430\u0434\u043e\u0440","name:ff":"Ekuwatoor","name:hi":"\u0907\u0915\u094d\u0935\u093e\u0921\u094b\u0930","name:mg":"Ekoatera","id":424298227,"official_name":"Rep\u00fablica del Ecuador","name:fr":"\u00c9quateur","name:zh-yue":"\u5384\u74dc\u591a\u723e","name:fy":"Ekwador","name:zh":"\u5384\u74dc\u591a\u5c14","name:so":"Ikuwadoor","name:sl":"Ekvador","name:sk":"Ekv\u00e1dor","name:ja":"\u30a8\u30af\u30a2\u30c9\u30eb","name:si":"\u0d89\u0d9a\u0dca\u0dc0\u0daf\u0ddd\u0dbb\u0dba","name:sh":"Ekvador","name:sg":"Ekuat\u00ebre","name:na":"Ekwador","name:ne":"\u0907\u0915\u094d\u0935\u0921\u0947\u0930","name:sa":"\u090f\u0915\u094d\u0935\u093e\u0921\u094b\u0930","name:bs":"Ekvador","name:bm":"Ekwat\u0254r","name:bn":"\u0987\u0995\u09c1\u09af\u09bc\u09c7\u09a1\u09b0","name:bo":"\u0f68\u0f72\u0f0b\u0f41\u0fad\u0f0b\u0f4c\u0f7c\u0f62\u0f0d","name:sw":"Ekwado","name:be":"\u042d\u043a\u0432\u0430\u0434\u043e\u0440","name:su":"\u00c9kuador","name:bg":"\u0415\u043a\u0432\u0430\u0434\u043e\u0440","name:wo":"Ekwadoor","name:ba":"\u042d\u043a\u0432\u0430\u0434\u043e\u0440","name:sq":"Ekuator","name:ga":"Eacuad\u00f3r","name:gd":"Eacuador","name:ht":"Ekwat\u00e8","name:jv":"Ekuador","name:fa":"\u0627\u06a9\u0648\u0627\u062f\u0648\u0631","name:gu":"\u0a8f\u0a95\u0acd\u0ab5\u0abe\u0aa1\u0acb\u0ab0","name:tt":"\u042d\u043a\u0432\u0430\u0434\u043e\u0440"},"coordinates":[1936,3846]},{"type":"Point","properties":{"source":"naturalearthdata.com","kind":"locality","name":"Lima","country_capital":true,"population":8012000,"min_zoom":3.0,"id":7237},"coordinates":[2357,1847]},{"type":"Point","properties":{"kind":"region","name:en":"Department of Lima","name":"Lima","kind_detail":"state","name:eo":"Limio","source":"openstreetmap.org","min_zoom":4.0,"name:uk":"\u041b\u0456\u043c\u0430","name:ru":"\u041b\u0438\u043c\u0430","id":1230775171,"name:es":"Departamento de Lima","population":8445211},"coordinates":[2432,1855]},{"type":"Point","properties":{"source":"naturalearthdata.com","kind":"locality","name":"Guayaquil","population":2514000,"region_capital":true,"min_zoom":4.0,"id":7161},"coordinates":[1835,3682]},{"type":"Point","properties":{"admin_level":"4","kind":"region","name:en":"Department of Piura","name":"Piura","kind_detail":"state","name:eo":"Pi\u016drio","source":"openstreetmap.org","min_zoom":4.0,"name:uk":"\u041f\u0456\u0443\u0440\u0430","name:ru":"\u041f\u044c\u044e\u0440\u0430","name:pl":"Region Piura","id":1230775107,"name:es":"Departamento de Piura","population":1676315},"coordinates":[1760,3163]},{"type":"Point","properties":{"kind":"region","name:en":"Department of La Libertad","name":"La Libertad","kind_detail":"state","source":"openstreetmap.org","min_zoom":4.0,"name:uk":"\u041b\u0430-\u041b\u0456\u0431\u0435\u0440\u0442\u0430\u0434","name:ru":"\u041b\u0430-\u041b\u0438\u0431\u0435\u0440\u0442\u0430\u0434","id":1230774980,"name:es":"Departamento de La Libertad","population":1617050},"coordinates":[2094,2603]},{"type":"Point","properties":{"kind":"region","name:en":"Department of Cajamarca","name":"Cajamarca","kind_detail":"state","name:eo":"Ka\u015damarkio","source":"openstreetmap.org","min_zoom":4.0,"name:uk":"\u041a\u0430\u0445\u0430\u043c\u0430\u0440\u043a\u0430","name:ru":"\u041a\u0430\u0445\u0430\u043c\u0430\u0440\u043a\u0430","id":1230775133,"name:es":"Departamento de Cajamarca","population":1387809},"coordinates":[2033,2929]},{"type":"Point","properties":{"kind":"region","name:en":"Department of Puno","name":"Puno","kind_detail":"state","name:eo":"Punio","source":"openstreetmap.org","min_zoom":4.0,"name:uk":"\u041f\u0443\u043d\u043e","name:ru":"\u041f\u0443\u043d\u043e","id":1230775247,"name:es":"Departamento de Puno","population":1268441},"coordinates":[3641,1296]},{"type":"Point","properties":{"kind":"region","name:en":"Department of Jun\u00edn","name":"Junin","kind_detail":"state","name:eo":"\u015cuninio","source":"openstreetmap.org","min_zoom":4.0,"name:uk":"\u0425\u0443\u043d\u0456\u043d","name:ru":"\u0425\u0443\u043d\u0438\u043d","id":1230775049,"name:es":"Departamento de Jun\u00edn","population":1232611},"coordinates":[2731,1949]},{"type":"Point","properties":{"kind":"region","name:en":"Department of Cusco","name":"Cusco","kind_detail":"state","name:eo":"Kuskio","source":"openstreetmap.org","min_zoom":4.0,"name:uk":"\u041a\u0443\u0441\u043a\u043e","name:ru":"\u041a\u0443\u0441\u043a\u043e","id":1230775156,"name:es":"Departamento de Cusco","population":1171403},"coordinates":[3186,1763]},{"type":"Point","properties":{"kind":"region","name:en":"Department of Arequipa","name":"Arequipa","kind_detail":"state","name:eo":"Arekipio","source":"openstreetmap.org","min_zoom":4.0,"name:uk":"\u0410\u0440\u0435\u043a\u0456\u043f\u0430","name:ru":"\u0410\u0440\u0435\u043a\u0438\u043f\u0430","id":1230775043,"name:es":"Departamento de Arequipa","population":1152303},"coordinates":[3231,1109]},{"type":"Point","properties":{"kind":"region","name:en":"Department of Lambayeque","name":"Lambayeque","kind_detail":"state","name:eo":"Lambajekio","source":"openstreetmap.org","min_zoom":4.0,"name:uk":"\u041b\u0430\u043c\u0431\u0430\u0454\u043a\u0435","name:ru":"\u041b\u0430\u043c\u0431\u0430\u0435\u043a\u0435","id":1230775023,"name:es":"Departamento de Lambayeque","population":1112868},"coordinates":[1820,2914]},{"type":"Point","properties":{"kind":"region","name:en":"Department of Apur\u00edmac","name":"Apur\u00edmac","kind_detail":"state","name:eo":"Apurimako","source":"openstreetmap.org","min_zoom":4.0,"name:uk":"\u0410\u043f\u0443\u0440\u0456\u043c\u0430\u043a","name:ru":"\u0410\u043f\u0443\u0440\u0438\u043c\u0430\u043a","id":1230775126,"name:es":"Departamento de Apur\u00edmac","population":1063459},"coordinates":[3095,1483]},{"type":"Point","properties":{"kind":"region","name:en":"Department of Ancash","name":"Ancash","kind_detail":"state","name:eo":"Anka\u015dio","source":"openstreetmap.org","min_zoom":4.0,"name:uk":"\u0410\u043d\u043a\u0430\u0448","name:ru":"\u0410\u043d\u043a\u0430\u0448","id":1230775088,"name:es":"Departamento de Ancash","population":1063459},"coordinates":[2230,2323]},{"type":"Point","properties":{"kind":"region","name:en":"Department of Loreto","name":"Loreto","kind_detail":"state","source":"openstreetmap.org","min_zoom":4.0,"name:uk":"\u041b\u043e\u0440\u0435\u0442\u043e","name:ru":"\u041b\u043e\u0440\u0435\u0442\u043e","id":1230775094,"name:es":"Departamento de Loreto","population":891732},"coordinates":[2731,3163]},{"type":"Point","properties":{"kind":"region","name:en":"Constitutional Province of Callao","name":"Callao","kind_detail":"state","source":"openstreetmap.org","min_zoom":4.0,"name:uk":"\u041a\u0430\u044f\u043e","name:ru":"\u041a\u0430\u043b\u044c\u044f\u043e","id":1230775177,"name:es":"Provincia Constitucional del Callao","population":876877},"coordinates":[2339,1844]},{"type":"Point","properties":{"kind":"region","name:en":"Department of Hu\u00e1nuco","name":"Hu\u00e1nuco","kind_detail":"state","name:eo":"\u016canukio","source":"openstreetmap.org","min_zoom":4.0,"name:uk":"\u0423\u0430\u043d\u0443\u043a\u043e","name:ru":"\u0423\u0430\u043d\u0443\u043a\u043e","id":1230775000,"name:es":"Departamento de Hu\u00e1nuco","population":762223},"coordinates":[2579,2323]},{"type":"Point","properties":{"kind":"region","name:en":"Department of San Mart\u00edn","name":"San Mart\u00edn","kind_detail":"state","source":"openstreetmap.org","min_zoom":4.0,"name:uk":"\u0421\u0430\u043d-\u041c\u0430\u0440\u0442\u0456\u043d","name:ru":"\u0421\u0430\u043d-\u041c\u0430\u0440\u0442\u0438\u043d","id":1230775198,"name:es":"Departamento de San Mart\u00edn","population":728808},"coordinates":[2397,2789]},{"type":"Point","properties":{"kind":"region","name:en":"Department of Ica","name":"Ica","kind_detail":"state","name:eo":"Ikio","source":"openstreetmap.org","min_zoom":4.0,"name:uk":"\u0406\u043a\u0430","name:ru":"\u0418\u043a\u0430","id":1230775060,"name:es":"Departamento de Ica","population":711932},"coordinates":[2640,1421]},{"type":"Point","properties":{"kind":"region","name:en":"Department of Ayacucho","name":"Ayacucho","kind_detail":"state","name:eo":"Ajaku\u0109io","source":"openstreetmap.org","min_zoom":4.0,"name:uk":"\u0410\u044f\u043a\u0443\u0447\u043e","name:ru":"\u0410\u044f\u043a\u0443\u0447\u043e","id":1230775224,"name:es":"Departamento de Ayacucho","population":612489},"coordinates":[2913,1483]},{"type":"Point","properties":{"kind":"region","name:en":"Department of Huancavelica","name":"Huancavelica","kind_detail":"state","name:eo":"\u016cankavilkio","source":"openstreetmap.org","min_zoom":4.0,"name:uk":"\u0423\u0430\u043d\u043a\u0430\u0432\u0435\u043b\u0456\u043a\u0430","name:ru":"\u0423\u0430\u043d\u043a\u0430\u0432\u0435\u043b\u0438\u043a\u0430","id":1230774993,"name:es":"Departamento de Huancavelica","population":454797},"coordinates":[2731,1669]},{"type":"Point","properties":{"kind":"region","name:en":"Department of Ucayali","name":"Ucayali","kind_detail":"state","name:eo":"Ukajalio","source":"openstreetmap.org","min_zoom":4.0,"name:uk":"\u0423\u043a\u0430\u044f\u043b\u0456","name:ru":"\u0423\u043a\u0430\u044f\u043b\u0438","id":1230775072,"name:es":"Departamento de Ucayali","population":432159},"coordinates":[3004,2416]},{"type":"Point","properties":{"kind":"region","name:en":"Department of Amazonas","name":"Amazonas","kind_detail":"state","name:eo":"Amazonjo","source":"openstreetmap.org","min_zoom":4.0,"name:uk":"\u0410\u043c\u0430\u0437\u043e\u043d\u0430\u0441","name:ru":"\u0410\u043c\u0430\u0441\u043e\u043d\u0430\u0441","id":1230775254,"name:es":"Departamento de Amazonas","population":375993},"coordinates":[2185,3163]},{"type":"Point","properties":{"kind":"region","name:en":"Department of Tacna","name":"Tacna","kind_detail":"state","name:eo":"Taknio","source":"openstreetmap.org","min_zoom":4.0,"name:uk":"\u0422\u0430\u043a\u043d\u0430","name:ru":"\u0422\u0430\u043a\u043d\u0430","id":1230775030,"name:es":"Departamento de Tacna","population":288781},"coordinates":[3580,798]},{"type":"Point","properties":{"name:pt":"Regi\u00e3o de Tarapac\u00e1","name:ja":"\u30bf\u30e9\u30d1\u30ab\u5dde","name:eo":"Tarapakio","min_zoom":4.0,"name:it":"Regione di Tarapac\u00e1","name:uk":"I \u0420\u0435\u0433\u0456\u043e\u043d \u0422\u0430\u0440\u0430\u043f\u0430\u043a\u0430","name:ru":"\u0422\u0430\u0440\u0430\u043f\u0430\u043a\u0430","name:hu":"Tarapaca","id":655437768,"name:ca":"Regi\u00f3 de Tarapac\u00e1","population":286105,"kind":"region","name:en":"Tarapac\u00e1 Region","name":"Regi\u00f3n de Tarapac\u00e1","kind_detail":"state","source":"openstreetmap.org","name:fr":"Tarapac\u00e1","name:zh":"\u5854\u62c9\u5e15\u5361\u5927\u533a"},"coordinates":[3723,332]},{"type":"Point","properties":{"kind":"region","name:en":"Department of Pasco","name":"Pasco","kind_detail":"state","name:eo":"Paskio","source":"openstreetmap.org","min_zoom":4.0,"name:uk":"\u041f\u0430\u0441\u043a\u043e","name:ru":"\u041f\u0430\u0441\u043a\u043e","id":1230775201,"name:es":"Departamento de Pasco","population":280449},"coordinates":[2685,2136]},{"type":"Point","properties":{"admin_level":"4","kind":"region","name:en":"Department of Tumbes","name":"Tumbes","kind_detail":"state","name:eo":"Tumpiujo","source":"openstreetmap.org","min_zoom":4.0,"name:uk":"\u0422\u0443\u043c\u0431\u0435\u0441","name:ru":"\u0422\u0443\u043c\u0431\u0435\u0441","name:pl":"Region Tumbes","id":1230775012,"name:es":"Departamento de Tumbes","population":200306},"coordinates":[1729,3380]},{"type":"Point","properties":{"kind":"region","name:en":"Arica and Parinacota Region","name":"Regi\u00f3n de Arica y Parinacota","kind_detail":"state","min_zoom":4.0,"source":"openstreetmap.org","name:fr":"Arica et Parinacota","name:it":"Regione di Arica e Parinacota","name:ru":"\u0410\u0440\u0438\u043a\u0430-\u0438-\u041f\u0430\u0440\u0438\u043d\u0430\u043a\u043e\u0442\u0430","name:hu":"Arica y Parinacota","id":655443563,"population":175441},"coordinates":[3685,626]},{"type":"Point","properties":{"kind":"region","name:en":"Department of Moquegua","name":"Moquegua","kind_detail":"state","name:eo":"Mokegvio","source":"openstreetmap.org","min_zoom":4.0,"name:uk":"\u041c\u043e\u043a\u0435\u0491\u0443\u0430","name:ru":"\u041c\u043e\u043a\u0435\u0433\u0443\u0430","id":1230775270,"name:es":"Departamento de Moquegua","population":161533},"coordinates":[3474,954]},{"type":"Point","properties":{"kind":"region","name:en":"Department of Madre de Dios","name":"Madre de Dios","kind_detail":"state","name:eo":"Dipatrinio","source":"openstreetmap.org","min_zoom":4.0,"name:uk":"\u041c\u0430\u0434\u0440\u0435-\u0434\u0435-\u0414\u044c\u0439\u043e\u0441","name:ru":"\u041c\u0430\u0434\u0440\u0435-\u0434\u0435-\u0414\u044c\u043e\u0441","id":1230775077,"name:es":"Departamento de Madre de Dios","population":109555},"coordinates":[3595,1856]},{"type":"Point","properties":{"kind":"region","name":"Amazonas","kind_detail":"state","name:eo":"Amazono","source":"openstreetmap.org","min_zoom":4.0,"name:ru":"\u0410\u043c\u0430\u0437\u043e\u043d\u0430\u0441","id":306394550,"population":80360},"coordinates":[3288,3906]},{"type":"Point","properties":{"source":"openstreetmap.org","kind":"region","name":"Oruro","kind_detail":"state","min_zoom":4.0,"name:eo":"Uruio","id":2890584085},"coordinates":[4066,612]},{"type":"Point","properties":{"kind":"region","name:en":"Province of Ica","name":"Ica","kind_detail":"province","source":"openstreetmap.org","min_zoom":4.0,"id":1237030165,"name:es":"Provincia de Ica"},"coordinates":[2613,1419]},{"type":"Point","properties":{"source":"openstreetmap.org","kind":"region","name":"La Paz","kind_detail":"state","min_zoom":4.0,"name:eo":"La-Pazio","id":2854906390},"coordinates":[3944,1296]},{"type":"Point","properties":{"source":"openstreetmap.org","kind":"region","name":"Loja","name:ru":"\u041b\u043e\u0445\u0430","kind_detail":"state","min_zoom":4.0,"id":470265002},"coordinates":[1856,3339]},{"type":"Point","properties":{"source":"openstreetmap.org","kind":"region","name":"El Oro","name:ru":"\u042d\u043b\u044c-\u041e\u0440\u043e","kind_detail":"state","min_zoom":4.0,"id":470265571},"coordinates":[1851,3437]},{"type":"Point","properties":{"source":"openstreetmap.org","kind":"region","name":"Zamora Chinchipe","name:ru":"\u0421\u0430\u043c\u043e\u0440\u0430-\u0427\u0438\u043d\u0447\u0438\u043f\u0435","kind_detail":"state","min_zoom":4.0,"id":470261838},"coordinates":[2043,3338]},{"type":"Point","properties":{"source":"openstreetmap.org","kind":"region","name":"Ca\u00f1ar","name:ru":"\u041a\u0430\u043d\u044c\u044f\u0440","kind_detail":"state","min_zoom":4.0,"id":470284543},"coordinates":[2006,3615]},{"type":"Point","properties":{"source":"openstreetmap.org","kind":"region","name":"Guayas","name:ru":"\u0413\u0443\u0430\u044f\u0441","kind_detail":"state","min_zoom":4.0,"id":249420312},"coordinates":[1820,3723]},{"type":"Point","properties":{"source":"openstreetmap.org","kind":"region","name":"Los R\u00edos","name:ru":"\u041b\u043e\u0441-\u0420\u0438\u043e\u0441","kind_detail":"state","min_zoom":4.0,"id":470298090},"coordinates":[1902,3817]},{"type":"Point","properties":{"source":"openstreetmap.org","kind":"region","name":"Manab\u00ed","name:ru":"\u041c\u0430\u043d\u0430\u0431\u0438","kind_detail":"state","min_zoom":4.0,"id":470298798},"coordinates":[1809,3954]},{"type":"Point","properties":{"source":"openstreetmap.org","kind":"region","name":"Cotopaxi","name:ru":"\u041a\u043e\u0442\u043e\u043f\u0430\u043a\u0441\u0438","kind_detail":"state","min_zoom":4.0,"id":470287322},"coordinates":[2022,3942]},{"type":"Point","properties":{"kind":"region","name:en":"Province of Huaral","name":"Huaral","kind_detail":"state","source":"openstreetmap.org","min_zoom":4.0,"id":1237030004,"name:es":"Provincia de Huaral"},"coordinates":[2382,1996]},{"type":"Point","properties":{"source":"openstreetmap.org","kind":"region","name":"Morona Santiago","name:ru":"\u041c\u043e\u0440\u043e\u043d\u0430-\u0421\u0430\u043d\u0442\u044c\u044f\u0433\u043e","kind_detail":"state","min_zoom":4.0,"id":470260937},"coordinates":[2184,3606]},{"type":"Point","properties":{"source":"openstreetmap.org","kind":"region","name":"Chimborazo","name:ru":"\u0427\u0438\u043c\u0431\u043e\u0440\u0430\u0441\u043e","kind_detail":"state","min_zoom":4.0,"id":470285642},"coordinates":[2052,3736]},{"type":"Point","properties":{"source":"openstreetmap.org","kind":"region","name":"Pastaza","name:ru":"\u041f\u0430\u0441\u0442\u0430\u0441\u0430","kind_detail":"state","min_zoom":4.0,"id":249420393},"coordinates":[2367,3738]},{"type":"Point","properties":{"source":"openstreetmap.org","kind":"region","name":"Tungurahua","name:ru":"\u0422\u0443\u043d\u043a\u0443\u0440\u0430\u0433\u0443\u0430","kind_detail":"state","min_zoom":4.0,"id":470287016},"coordinates":[2098,3858]},{"type":"Point","properties":{"source":"openstreetmap.org","kind":"region","name":"Napo","name:ru":"\u041d\u0430\u043f\u043e","kind_detail":"state","min_zoom":4.0,"id":470256961},"coordinates":[2190,3954]},{"type":"Point","properties":{"source":"openstreetmap.org","kind":"region","name":"Pichincha","name:ru":"\u041f\u0438\u0447\u0438\u043d\u0447\u0430","kind_detail":"state","min_zoom":4.0,"id":470290033},"coordinates":[2125,4085]},{"type":"Point","properties":{"source":"openstreetmap.org","kind":"region","name":"Orellana","name:ru":"\u041e\u0440\u0435\u043b\u044c\u044f\u043d\u0430","kind_detail":"state","min_zoom":4.0,"id":470257133},"coordinates":[2461,3949]},{"type":"Point","properties":{"source":"openstreetmap.org","kind":"region","name":"Sucumb\u00edos","name:ru":"\u0421\u0443\u043a\u0443\u043c\u0431\u0438\u043e\u0441","kind_detail":"state","min_zoom":4.0,"id":249420465},"coordinates":[2455,4089]},{"type":"Point","properties":{"kind":"region","name":"Acre","kind_detail":"state","name:eo":"Akro","source":"openstreetmap.org","min_zoom":4.0,"name:uk":"\u0410\u043a\u0440\u0456","name:ru":"\u0410\u043a\u0440\u0438","id":539687471,"name:ja":"\u30a2\u30af\u30ec"},"coordinates":[3545,2407]},{"type":"Point","properties":{"source":"openstreetmap.org","kind":"region","name":"Azuay","name:ru":"\u0410\u0441\u0443\u0430\u0439","kind_detail":"state","min_zoom":4.0,"id":470265856},"coordinates":[1959,3526]},{"type":"Point","properties":{"source":"openstreetmap.org","kind":"region","name":"Santa Elena","name:ru":"\u041f\u0440\u043e\u0432\u0438\u043d\u0446\u0438\u044f \u0421\u0432\u044f\u0442\u043e\u0439 \u0415\u043b\u0435\u043d\u044b","kind_detail":"state","min_zoom":4.0,"id":470284940},"coordinates":[1717,3686]}]},"transit":{"type":"GeometryCollection","geometries":[]},"pois":{"type":"GeometryCollection","geometries":[{"type":"Point","properties":{"kind":"national_park","name:en":"Alto Purus National Park","tier":1,"name":"Parque Nacional Alto Pur\u00fas","short_name":"PNAP","area":27380800000,"source":"openstreetmap.org","min_zoom":3.42,"operator":"SERNANP","id":-3874631,"osm_relation":true},"coordinates":[3361,2074]},{"type":"Point","properties":{"kind":"nature_reserve","tier":2,"protect_class":"24","area":86835200000,"source":"openstreetmap.org","min_zoom":4.09,"operator":"Funda\u00e7\u00e3o Nacional do \u00cdndio","id":-3816970,"osm_relation":true,"name":"Terra Ind\u00edgena Vale do Javari"},"coordinates":[3415,3018]},{"type":"Point","properties":{"kind":"national_park","name":"Parque Nacional Cordillera Azul","area":13872800000,"source":"openstreetmap.org","min_zoom":3.91,"tier":1,"id":-548656,"osm_relation":true},"coordinates":[2544,2660]}]},"boundaries":{"type":"GeometryCollection","geometries":[{"type":"LineString","properties":{"source":"naturalearthdata.com","kind":"country","sort_rank":262,"kind_detail":"2","min_zoom":0.0,"id":33},"arcs":[0]},{"type":"LineString","properties":{"source":"naturalearthdata.com","kind":"country","sort_rank":262,"kind_detail":"2","min_zoom":0.0,"id":260},"arcs":[1]},{"type":"LineString","properties":{"source":"naturalearthdata.com","kind":"country","sort_rank":262,"kind_detail":"2","min_zoom":0.0,"id":32},"arcs":[2]},{"type":"LineString","properties":{"source":"naturalearthdata.com","kind":"country","sort_rank":262,"kind_detail":"2","min_zoom":0.0,"id":132},"arcs":[3]},{"type":"LineString","properties":{"source":"naturalearthdata.com","kind":"country","sort_rank":262,"kind_detail":"2","min_zoom":0.0,"id":257},"arcs":[4]},{"type":"LineString","properties":{"source":"naturalearthdata.com","kind":"country","sort_rank":262,"kind_detail":"2","min_zoom":0.0,"id":258},"arcs":[5]},{"type":"LineString","properties":{"source":"naturalearthdata.com","kind":"country","sort_rank":262,"kind_detail":"2","min_zoom":0.0,"id":259},"arcs":[6]},{"type":"LineString","properties":{"source":"naturalearthdata.com","kind":"country","sort_rank":262,"kind_detail":"2","min_zoom":0.0,"id":261},"arcs":[7]},{"type":"LineString","properties":{"source":"naturalearthdata.com","kind":"country","sort_rank":262,"kind_detail":"2","min_zoom":0.0,"id":262},"arcs":[8]}]},"roads":{"type":"GeometryCollection","geometries":[]},"earth":{"type":"GeometryCollection","geometries":[{"type":"MultiPolygon","properties":{"sort_rank":10,"source":"naturalearthdata.com","min_zoom":0.0,"kind":"earth","area":14028125193060},"arcs":[[[21]],[[22]],[[23]]]}]},"landuse":{"type":"GeometryCollection","geometries":[{"type":"Polygon","properties":{"kind":"nature_reserve","name":"Terra Ind\u00edgena Alto Rio Negro","area":79933997056,"sort_rank":23,"operator":"Funda\u00e7\u00e3o Nacional do \u00cdndio","source":"openstreetmap.org","min_zoom":4.0,"tier":2,"id":-3910734,"osm_relation":true,"protect_class":"24"},"arcs":[[24]]},{"type":"Polygon","properties":{"kind":"nature_reserve","name":"Reserva Extrativista Arapixi","area":1378589952,"sort_rank":23,"operator":"Instituto Chico Mendes de Conserva\u00e7\u00e3o da Biodiversidade","source":"openstreetmap.org","min_zoom":4.0,"tier":2,"id":-4286736,"osm_relation":true,"protect_class":"6"},"arcs":[[25]]},{"type":"Polygon","properties":{"kind":"park","name":"Parque Nacional Natural Yaigoj\u00e9 Apaporis","area":10595699712,"sort_rank":24,"source":"openstreetmap.org","min_zoom":4.0,"tier":2,"id":-4845284,"osm_relation":true},"arcs":[[26]]},{"type":"Polygon","properties":{"kind":"nature_reserve","name":"Terra Ind\u00edgena Rio Apaporis","area":1085430016,"sort_rank":23,"operator":"Funda\u00e7\u00e3o Nacional do \u00cdndio","source":"openstreetmap.org","min_zoom":4.0,"tier":2,"id":-3817090,"osm_relation":true,"protect_class":"24"},"arcs":[[27]]},{"type":"Polygon","properties":{"kind":"park","name":"Parque Nacional Natural La Paya","area":4879840256,"sort_rank":24,"source":"openstreetmap.org","min_zoom":4.0,"tier":2,"id":-2738327,"osm_relation":true},"arcs":[[28]]},{"type":"Polygon","properties":{"kind":"park","name":"Parque Nacional Natural Amacayacu","area":2689319936,"sort_rank":24,"source":"openstreetmap.org","min_zoom":4.0,"tier":2,"id":-2393817,"osm_relation":true},"arcs":[[29]]},{"type":"Polygon","properties":{"kind":"park","name":"Parque nacional Otishi","area":3224829952,"sort_rank":24,"source":"openstreetmap.org","min_zoom":4.0,"tier":2,"id":-3868769,"osm_relation":true},"arcs":[[30]]},{"type":"Polygon","properties":{"kind":"nature_reserve","name":"Zona Reservada Aymara-Lupaca","area":3523719936,"sort_rank":23,"source":"openstreetmap.org","min_zoom":4.0,"tier":2,"id":-548705,"osm_relation":true},"arcs":[[31]]},{"type":"Polygon","properties":{"kind":"national_park","name":"Parque Nacional Alto Pur\u00fas","area":27380799488,"sort_rank":18,"operator":"SERNANP","source":"openstreetmap.org","min_zoom":3.0,"tier":1,"id":-3874631,"osm_relation":true},"arcs":[[32]]},{"type":"Polygon","properties":{"kind":"nature_reserve","name":"Floresta Nacional do Macau\u00e3","area":1829449984,"sort_rank":23,"operator":"Instituto Chico Mendes de Conserva\u00e7\u00e3o da Biodiversidade","source":"openstreetmap.org","min_zoom":4.0,"tier":2,"id":-3424544,"osm_relation":true,"protect_class":"6"},"arcs":[[33]]},{"type":"Polygon","properties":{"kind":"nature_reserve","name":"Concession El Breo","area":1162809984,"sort_rank":23,"operator":"Asociaci\u00f3n de Protecci\u00f3n de Bosques Comunales Dos de Mayo (El Breo)","source":"openstreetmap.org","min_zoom":4.0,"tier":2,"id":-5793977,"osm_relation":true},"arcs":[[34]]},{"type":"Polygon","properties":{"kind":"nature_reserve","name":"Reserva Paisaj\u00edstica Nor Yauyos-Cochas","area":2410080000,"sort_rank":23,"operator":"SERNANP","source":"openstreetmap.org","min_zoom":4.0,"tier":2,"id":-3899375,"osm_relation":true},"arcs":[[35]]},{"type":"Polygon","properties":{"kind":"nature_reserve","name":"Terra Ind\u00edgena Vui-Uata-In","area":1227619968,"sort_rank":23,"operator":"Funda\u00e7\u00e3o Nacional do \u00cdndio","source":"openstreetmap.org","min_zoom":4.0,"tier":2,"id":-3817103,"osm_relation":true,"protect_class":"24"},"arcs":[[36]]},{"type":"Polygon","properties":{"kind":"park","name":"Reserva Nacional de Paracas","area":1128960000,"sort_rank":24,"source":"openstreetmap.org","min_zoom":4.0,"tier":2,"id":-3907592,"osm_relation":true},"arcs":[[37]]},{"type":"Polygon","properties":{"kind":"nature_reserve","name":"Reserva Extrativista Chico Mendes","area":9695160320,"sort_rank":23,"operator":"Instituto Chico Mendes de Conserva\u00e7\u00e3o da Biodiversidade","source":"openstreetmap.org","min_zoom":4.0,"tier":2,"id":-3424550,"osm_relation":true,"protect_class":"6"},"arcs":[[38]]},{"type":"Polygon","properties":{"kind":"protected_area","name":"Lagos Poop\u00f3 y Uru Uru","area":9900739584,"sort_rank":17,"source":"openstreetmap.org","min_zoom":4.0,"tier":2,"id":-557214,"osm_relation":true},"arcs":[[39]]},{"type":"Polygon","properties":{"kind":"park","name":"Reserva Ecol\u00f3gica Cayambe-Coca","area":4158010112,"sort_rank":24,"source":"openstreetmap.org","min_zoom":4.0,"tier":2,"id":-225646,"osm_relation":true},"arcs":[[40]]},{"type":"Polygon","properties":{"kind":"nature_reserve","name":"Reserva Extrativista do Alto Juru\u00e1","area":5554899968,"sort_rank":23,"operator":"Instituto Chico Mendes de Conserva\u00e7\u00e3o da Biodiversidade","source":"openstreetmap.org","min_zoom":4.0,"tier":2,"id":-3424889,"osm_relation":true,"protect_class":"6"},"arcs":[[41]]},{"type":"Polygon","properties":{"kind":"nature_reserve","name":"Concession Martin Sagrado","area":1110380032,"sort_rank":23,"operator":"Asociaci\u00f3n de Protecci\u00f3n de Bosques Comunales Dos de Mayo (El Breo)","source":"openstreetmap.org","min_zoom":4.0,"tier":2,"id":-5793978,"osm_relation":true},"arcs":[[42]]},{"type":"Polygon","properties":{"kind":"nature_reserve","name":"Zona Reservada Santiago-Comaina","area":4050739968,"sort_rank":23,"source":"openstreetmap.org","min_zoom":4.0,"tier":2,"id":-454431,"osm_relation":true},"arcs":[[43]]},{"type":"Polygon","properties":{"kind":"national_park","name":"Parque Nacional Sajama","area":1085309952,"sort_rank":18,"operator":"SERNAP","source":"openstreetmap.org","min_zoom":3.0,"tier":1,"id":-421862,"osm_relation":true},"arcs":[[44]]},{"type":"Polygon","properties":{"kind":"nature_reserve","name":"Bien Nacional Protegido Salar de Huasco","area":1366579968,"sort_rank":23,"source":"openstreetmap.org","min_zoom":4.0,"tier":2,"id":-4782788,"osm_relation":true},"arcs":[[45]]},{"type":"MultiPolygon","properties":{"kind":"protected_area","name":"\u00c1rea Natural de Manejo Integrado Madidi","area":11676103541,"sort_rank":17,"operator":"SERNAP","source":"openstreetmap.org","min_zoom":4.0,"tier":2,"osm_relation":true,"protect_class":"6"},"arcs":[[[46]],[[47]]]},{"type":"Polygon","properties":{"kind":"nature_reserve","name":"Terra Ind\u00edgena Rio Bi\u00e1","area":12020799488,"sort_rank":23,"operator":"Funda\u00e7\u00e3o Nacional do \u00cdndio","source":"openstreetmap.org","min_zoom":4.0,"tier":2,"id":-3817091,"osm_relation":true,"protect_class":"24"},"arcs":[[48]]},{"type":"Polygon","properties":{"kind":"nature_reserve","name":"Reserva Nacional Amaz\u00f3nica Manuripi-Heath","area":7893459968,"sort_rank":23,"source":"openstreetmap.org","min_zoom":4.0,"tier":2,"id":-447057,"osm_relation":true},"arcs":[[49]]},{"type":"Polygon","properties":{"kind":"nature_reserve","name":"Terra Ind\u00edgena \u00c9vare I","area":5527810048,"sort_rank":23,"operator":"Funda\u00e7\u00e3o Nacional do \u00cdndio","source":"openstreetmap.org","min_zoom":4.0,"tier":2,"id":-3817104,"osm_relation":true,"protect_class":"24"},"arcs":[[50]]},{"type":"Polygon","properties":{"kind":"park","name":"Mapari","area":1586669952,"sort_rank":24,"source":"openstreetmap.org","min_zoom":4.0,"tier":2,"id":-2670413,"osm_relation":true},"arcs":[[51]]},{"type":"Polygon","properties":{"kind":"nature_reserve","name":"Floresta Nacional de Santa Rosa do Purus","area":2414010112,"sort_rank":23,"operator":"Instituto Chico Mendes de Conserva\u00e7\u00e3o da Biodiversidade","source":"openstreetmap.org","min_zoom":4.0,"tier":2,"id":-3424875,"osm_relation":true,"protect_class":"6"},"arcs":[[52]]},{"type":"Polygon","properties":{"kind":"nature_reserve","name":"Reserva Extrativista do Cazumb\u00e1-Iracema","area":7775300096,"sort_rank":23,"operator":"Instituto Chico Mendes de Conserva\u00e7\u00e3o da Biodiversidade","source":"openstreetmap.org","min_zoom":4.0,"tier":2,"id":-3426367,"osm_relation":true,"protect_class":"6"},"arcs":[[53],[54]]},{"type":"Polygon","properties":{"kind":"nature_reserve","name":"Bosque de Protecci\u00f3n San Mat\u00edas-San Carlos","area":1543929984,"sort_rank":23,"source":"openstreetmap.org","min_zoom":4.0,"tier":2,"id":-548600,"osm_relation":true},"arcs":[[55]]},{"type":"Polygon","properties":{"kind":"park","name":"Bosque Nacional Pastaza-Morona-Mara\u00f1\u00f3n","area":3605870080,"sort_rank":24,"source":"openstreetmap.org","min_zoom":4.0,"tier":2,"id":-454232,"osm_relation":true},"arcs":[[56]]},{"type":"Polygon","properties":{"kind":"nature_reserve","name":"Reserva Nacional Pucacuro","area":6463130112,"sort_rank":23,"source":"openstreetmap.org","min_zoom":4.0,"tier":2,"id":-454231,"osm_relation":true},"arcs":[[57]]},{"type":"Polygon","properties":{"kind":"park","name":"Parque Nacional R\u00edo Abiseo","area":3082500096,"sort_rank":24,"source":"openstreetmap.org","min_zoom":4.0,"tier":2,"id":-6421151,"osm_relation":true},"arcs":[[58]]},{"type":"Polygon","properties":{"kind":"nature_reserve","name":"Terra Ind\u00edgena Mamoadate","area":3271369984,"sort_rank":23,"operator":"Funda\u00e7\u00e3o Nacional do \u00cdndio","source":"openstreetmap.org","min_zoom":4.0,"tier":2,"id":-3817218,"osm_relation":true,"protect_class":"24"},"arcs":[[59]]},{"type":"Polygon","properties":{"kind":"nature_reserve","name":"Reserva Extrativista Riozinho da Liberdade","area":3337019904,"sort_rank":23,"operator":"Instituto Chico Mendes de Conserva\u00e7\u00e3o da Biodiversidade","source":"openstreetmap.org","min_zoom":4.0,"tier":2,"id":-3817191,"osm_relation":true,"protect_class":"6"},"arcs":[[60]]},{"type":"Polygon","properties":{"kind":"park","name":"Parque Nacional del Manu","area":17902200832,"sort_rank":24,"source":"openstreetmap.org","min_zoom":4.0,"tier":2,"id":-3812128,"osm_relation":true},"arcs":[[61]]},{"type":"Polygon","properties":{"kind":"nature_reserve","name":"Esta\u00e7\u00e3o Ecol\u00f3gica de Juta\u00ed-Solim\u00f5es","area":2919650048,"sort_rank":23,"operator":"Instituto Chico Mendes de Conserva\u00e7\u00e3o da Biodiversidade","source":"openstreetmap.org","min_zoom":4.0,"tier":2,"id":-3817069,"osm_relation":true,"protect_class":"1"},"arcs":[[62]]},{"type":"Polygon","properties":{"kind":"park","name":"Parque Nacional Lauca","area":1610080000,"sort_rank":24,"source":"openstreetmap.org","min_zoom":4.0,"tier":2,"id":-4740979,"osm_relation":true},"arcs":[[63]]},{"type":"Polygon","properties":{"kind":"nature_reserve","name":"Reserva Marina de Gal\u00e1pagos","area":147727007744,"sort_rank":23,"source":"openstreetmap.org","min_zoom":4.0,"tier":2,"id":542174480},"arcs":[[64]]},{"type":"Polygon","properties":{"kind":"national_park","name":"Parque Nacional Podocarpus","area":1412140032,"sort_rank":18,"source":"openstreetmap.org","min_zoom":3.0,"tier":1,"id":-3723356,"osm_relation":true},"arcs":[[65]]},{"type":"Polygon","properties":{"kind":"national_park","name":"Parque Nacional Sumaco Napo-Galeras","area":1914759936,"sort_rank":18,"source":"openstreetmap.org","min_zoom":3.0,"tier":1,"id":-225645,"osm_relation":true,"protect_class":"2"},"arcs":[[66]]},{"type":"MultiPolygon","properties":{"kind":"protected_area","protect_class":"2","area":13699291694,"sort_rank":17,"operator":"SERNAP","source":"openstreetmap.org","min_zoom":4.0,"tier":2,"osm_relation":true,"name":"Parque Nacional Madidi"},"arcs":[[[67]],[[68]]]},{"type":"Polygon","properties":{"kind":"nature_reserve","name":"\u00c1rea de Conservaci\u00f3n Nacional Cordillera Escalera","area":1523980032,"sort_rank":23,"source":"openstreetmap.org","min_zoom":4.0,"tier":2,"id":-5521331,"osm_relation":true,"protect_class":"7"},"arcs":[[69]]},{"type":"Polygon","properties":{"kind":"nature_reserve","name":"Reserva Ecol\u00f3gica Los Ilinizas","area":1371360000,"sort_rank":23,"source":"openstreetmap.org","min_zoom":4.0,"tier":2,"id":-225647,"osm_relation":true},"arcs":[[70]]},{"type":"Polygon","properties":{"kind":"nature_reserve","name":"Esta\u00e7\u00e3o Ecol\u00f3gica Juami-Japur\u00e1","area":8306930176,"sort_rank":23,"operator":"Instituto Chico Mendes de Conserva\u00e7\u00e3o da Biodiversidade","source":"openstreetmap.org","min_zoom":4.0,"tier":2,"id":-3817068,"osm_relation":true,"protect_class":"1"},"arcs":[[71]]},{"type":"Polygon","properties":{"kind":"nature_reserve","name":"Terra Ind\u00edgena Kulina do M\u00e9dio Juru\u00e1","area":7435539968,"sort_rank":23,"operator":"Funda\u00e7\u00e3o Nacional do \u00cdndio","source":"openstreetmap.org","min_zoom":4.0,"tier":2,"id":-3817157,"osm_relation":true,"protect_class":"24"},"arcs":[[72]]},{"type":"Polygon","properties":{"kind":"nature_reserve","name":"Terra Ind\u00edgena Uati-Paran\u00e1","area":1301289984,"sort_rank":23,"operator":"Funda\u00e7\u00e3o Nacional do \u00cdndio","source":"openstreetmap.org","min_zoom":4.0,"tier":2,"id":-3817102,"osm_relation":true,"protect_class":"24"},"arcs":[[73]]},{"type":"Polygon","properties":{"kind":"nature_reserve","name":"Reserva Comunal El Sira","area":6428490240,"sort_rank":23,"source":"openstreetmap.org","min_zoom":4.0,"tier":2,"id":-548599,"osm_relation":true},"arcs":[[74]]},{"type":"Polygon","properties":{"kind":"nature_reserve","name":"Reserva Nacional Salinas y Aguada Blanca","area":4005260032,"sort_rank":23,"source":"openstreetmap.org","min_zoom":4.0,"tier":2,"id":-548706,"osm_relation":true},"arcs":[[75]]},{"type":"Polygon","properties":{"kind":"nature_reserve","name":"Terra Ind\u00edgena \u00c9vare II","area":1696089984,"sort_rank":23,"operator":"Funda\u00e7\u00e3o Nacional do \u00cdndio","source":"openstreetmap.org","min_zoom":4.0,"tier":2,"id":-3817105,"osm_relation":true,"protect_class":"24"},"arcs":[[76]]},{"type":"Polygon","properties":{"kind":"park","name":"Parque Nacional G\u00fceppi-Sekime","area":2435589888,"sort_rank":24,"source":"openstreetmap.org","min_zoom":4.0,"tier":2,"id":-548640,"osm_relation":true},"arcs":[[77]]},{"type":"Polygon","properties":{"kind":"nature_reserve","name":"Terra Ind\u00edgena S\u00e3o Domingos do Jacapari e Esta\u00e7\u00e3o","area":1345590016,"sort_rank":23,"operator":"Funda\u00e7\u00e3o Nacional do \u00cdndio","source":"openstreetmap.org","min_zoom":4.0,"tier":2,"id":-3817095,"osm_relation":true,"protect_class":"24"},"arcs":[[78]]},{"type":"Polygon","properties":{"kind":"nature_reserve","name":"Terra Ind\u00edgena Alto Rio Purus","area":2720910080,"sort_rank":23,"operator":"Funda\u00e7\u00e3o Nacional do \u00cdndio","source":"openstreetmap.org","min_zoom":4.0,"tier":2,"id":-3817135,"osm_relation":true,"protect_class":"24"},"arcs":[[79]]},{"type":"Polygon","properties":{"kind":"protected_area","name":"Reserva Paisajistica Subcuenca del Cotahuasi","area":4318490112,"sort_rank":17,"source":"openstreetmap.org","min_zoom":4.0,"tier":2,"id":-3988760,"osm_relation":true},"arcs":[[80]]},{"type":"Polygon","properties":{"kind":"park","name":"Parque Nacional Sangay","area":5057589760,"sort_rank":24,"source":"openstreetmap.org","min_zoom":4.0,"tier":2,"id":-207400,"osm_relation":true},"arcs":[[81]]},{"type":"Polygon","properties":{"kind":"nature_reserve","name":"Terra Ind\u00edgena Deni","area":15604100096,"sort_rank":23,"operator":"Funda\u00e7\u00e3o Nacional do \u00cdndio","source":"openstreetmap.org","min_zoom":4.0,"tier":2,"id":-4286492,"osm_relation":true,"protect_class":"24"},"arcs":[[82]]},{"type":"Polygon","properties":{"kind":"nature_reserve","name":"Terra Ind\u00edgena Alto Tarauac\u00e1","area":1471549952,"sort_rank":23,"operator":"Funda\u00e7\u00e3o Nacional do \u00cdndio","source":"openstreetmap.org","min_zoom":4.0,"tier":2,"id":-3817152,"osm_relation":true,"protect_class":"24"},"arcs":[[83]]},{"type":"MultiPolygon","properties":{"kind":"national_park","name":"Parque Nacional Natural Sierra de Chiribiquete","area":27908499456,"sort_rank":18,"source":"openstreetmap.org","min_zoom":3.0,"tier":1,"id":-6637001,"osm_relation":true,"protect_class":"2"},"arcs":[[[84]]]},{"type":"Polygon","properties":{"kind":"nature_reserve","name":"Reserva Ecol\u00f3gica Antisana","area":1190509952,"sort_rank":23,"source":"openstreetmap.org","min_zoom":4.0,"tier":2,"id":-225644,"osm_relation":true,"protect_class":"4"},"arcs":[[85]]},{"type":"Polygon","properties":{"kind":"nature_reserve","name":"Terra Ind\u00edgena Betania","area":1149890048,"sort_rank":23,"operator":"Funda\u00e7\u00e3o Nacional do \u00cdndio","source":"openstreetmap.org","min_zoom":4.0,"tier":2,"id":-3817073,"osm_relation":true,"protect_class":"24"},"arcs":[[86]]},{"type":"Polygon","properties":{"kind":"nature_reserve","name":"Terra Ind\u00edgena Igarap\u00e9 Capana","area":1332210048,"sort_rank":23,"operator":"Funda\u00e7\u00e3o Nacional do \u00cdndio","source":"openstreetmap.org","min_zoom":4.0,"tier":2,"id":-4286737,"osm_relation":true,"protect_class":"24"},"arcs":[[87]]},{"type":"Polygon","properties":{"kind":"national_park","name":"Parque Nacional Llanganates","area":2222970112,"sort_rank":18,"source":"openstreetmap.org","min_zoom":3.0,"tier":1,"id":-225639,"osm_relation":true},"arcs":[[88]]},{"type":"Polygon","properties":{"kind":"nature_reserve","name":"Parque Nacional da Serra do Divisor","area":8535569920,"sort_rank":23,"operator":"Instituto Chico Mendes de Conserva\u00e7\u00e3o da Biodiversidade","source":"openstreetmap.org","min_zoom":4.0,"tier":2,"id":-3424882,"osm_relation":true,"protect_class":"2"},"arcs":[[89]]},{"type":"Polygon","properties":{"kind":"nature_reserve","name":"Floresta Nacional Mapi\u00e1-Inauini","area":3793039872,"sort_rank":23,"operator":"Instituto Chico Mendes de Conserva\u00e7\u00e3o da Biodiversidade","source":"openstreetmap.org","min_zoom":4.0,"tier":2,"id":-3424873,"osm_relation":true,"protect_class":"6"},"arcs":[[90]]},{"type":"Polygon","properties":{"kind":"nature_reserve","name":"Terra Ind\u00edgena \u00c1gua Preta\/Inari","area":1431539968,"sort_rank":23,"operator":"Funda\u00e7\u00e3o Nacional do \u00cdndio","source":"openstreetmap.org","min_zoom":4.0,"tier":2,"id":-4286587,"osm_relation":true,"protect_class":"24"},"arcs":[[91]]},{"type":"Polygon","properties":{"kind":"nature_reserve","name":"Terra Ind\u00edgena Kampa e Isolados do Rio Envira","area":2416770048,"sort_rank":23,"operator":"Funda\u00e7\u00e3o Nacional do \u00cdndio","source":"openstreetmap.org","min_zoom":4.0,"tier":2,"id":-3817070,"osm_relation":true,"protect_class":"24"},"arcs":[[92]]},{"type":"Polygon","properties":{"kind":"national_park","name":"Parque Nacional Cordillera Azul","area":13872799744,"sort_rank":18,"source":"openstreetmap.org","min_zoom":3.0,"tier":1,"id":-548656,"osm_relation":true},"arcs":[[93]]},{"type":"Polygon","properties":{"kind":"national_park","name":"Parque Nacional Yanachaga-Chemill\u00e9n","area":1155629952,"sort_rank":18,"source":"openstreetmap.org","min_zoom":3.0,"tier":1,"id":-548598,"osm_relation":true},"arcs":[[94]]},{"type":"Polygon","properties":{"kind":"nature_reserve","name":"Terra Ind\u00edgena Vale do Javari","area":86835200000,"sort_rank":23,"operator":"Funda\u00e7\u00e3o Nacional do \u00cdndio","source":"openstreetmap.org","min_zoom":4.0,"tier":2,"id":-3816970,"osm_relation":true,"protect_class":"24"},"arcs":[[95]]},{"type":"Polygon","properties":{"kind":"nature_reserve","name":"Zona Reservada Coordillera Huayhuash","area":1224179968,"sort_rank":23,"source":"openstreetmap.org","min_zoom":4.0,"tier":2,"id":-5547626,"osm_relation":true},"arcs":[[96]]},{"type":"Polygon","properties":{"kind":"nature_reserve","name":"Terra Ind\u00edgena Inauini\/Teuini","area":4804830208,"sort_rank":23,"operator":"Funda\u00e7\u00e3o Nacional do \u00cdndio","source":"openstreetmap.org","min_zoom":4.0,"tier":2,"id":-4286817,"osm_relation":true,"protect_class":"24"},"arcs":[[97]]},{"type":"Polygon","properties":{"kind":"park","name":"Reserva Nacional Pampa del Tamarugal","area":1004819968,"sort_rank":24,"source":"openstreetmap.org","min_zoom":4.0,"tier":2,"id":61334603},"arcs":[[98]]},{"type":"Polygon","properties":{"kind":"nature_reserve","name":"Bajo Napo","area":2121910016,"sort_rank":23,"source":"openstreetmap.org","min_zoom":4.0,"tier":2,"id":-452238,"osm_relation":true},"arcs":[[99]]},{"type":"Polygon","properties":{"kind":"nature_reserve","name":"Reserva Extrativista do M\u00e9dio Juru\u00e1","area":2553979904,"sort_rank":23,"operator":"Instituto Chico Mendes de Conserva\u00e7\u00e3o da Biodiversidade","source":"openstreetmap.org","min_zoom":4.0,"tier":2,"id":255726867,"protect_class":"6"},"arcs":[[100]]},{"type":"Polygon","properties":{"kind":"nature_reserve","name":"Reserva Extrativista do Rio Juta\u00ed","area":2791920128,"sort_rank":23,"operator":"Instituto Chico Mendes de Conserva\u00e7\u00e3o da Biodiversidade","source":"openstreetmap.org","min_zoom":4.0,"tier":2,"id":-3424552,"osm_relation":true,"protect_class":"6"},"arcs":[[101]]},{"type":"Polygon","properties":{"kind":"park","name":"Parque Nacional Natural R\u00edo Pur\u00e9","area":10166200320,"sort_rank":24,"source":"openstreetmap.org","min_zoom":4.0,"tier":2,"id":-2393818,"osm_relation":true},"arcs":[[102]]},{"type":"Polygon","properties":{"kind":"park","name":"Parque Nacional Volc\u00e1n Isluga","area":1911960064,"sort_rank":24,"source":"openstreetmap.org","min_zoom":4.0,"tier":2,"id":-5401391,"osm_relation":true},"arcs":[[103]]},{"type":"Polygon","properties":{"kind":"park","name":"Reserva Nacional Las Vicu\u00f1as","area":2270520064,"sort_rank":24,"source":"openstreetmap.org","min_zoom":4.0,"tier":2,"id":-4816373,"osm_relation":true},"arcs":[[104]]},{"type":"Polygon","properties":{"kind":"nature_reserve","name":"Terra Ind\u00edgena Mawetek","area":1178509952,"sort_rank":23,"operator":"Funda\u00e7\u00e3o Nacional do \u00cdndio","source":"openstreetmap.org","min_zoom":4.0,"tier":2,"id":-3817225,"osm_relation":true,"protect_class":"24"},"arcs":[[105]]},{"type":"Polygon","properties":{"kind":"nature_reserve","name":"Terra Ind\u00edgena Kaxinaw\u00e1 do Rio Humait\u00e1","area":1330690048,"sort_rank":23,"operator":"Funda\u00e7\u00e3o Nacional do \u00cdndio","source":"openstreetmap.org","min_zoom":4.0,"tier":2,"id":-3816980,"osm_relation":true,"protect_class":"24"},"arcs":[[106]]},{"type":"Polygon","properties":{"kind":"national_park","name":"Parque Nacional Cerros de Amotape","area":959548032,"sort_rank":18,"source":"openstreetmap.org","min_zoom":3.0,"tier":1,"id":-454409,"osm_relation":true},"arcs":[[107]]},{"type":"MultiPolygon","properties":{"source":"naturalearthdata.com","kind":"urban_area","name":"","area":35746977038,"sort_rank":11,"min_zoom":4.0},"arcs":[[[108]],[[109]],[[110]],[[111]],[[112]],[[113]],[[114]],[[115]],[[116]]]},{"type":"Polygon","properties":{"kind":"park","name":"Reserva de Producci\u00f3n Faun\u00edstica Cuyabeno","area":5840390144,"sort_rank":24,"source":"openstreetmap.org","min_zoom":4.0,"tier":2,"id":-451263,"osm_relation":true},"arcs":[[117]]},{"type":"Polygon","properties":{"kind":"nature_reserve","name":"Parque Nacional Natural Cahuinar\u00ed","area":5473979904,"sort_rank":23,"source":"openstreetmap.org","min_zoom":4.0,"tier":2,"id":-912446,"osm_relation":true},"arcs":[[118]]},{"type":"Polygon","properties":{"kind":"national_park","name":"Parque Nacional Llica","area":852411008,"sort_rank":18,"source":"openstreetmap.org","min_zoom":3.0,"tier":1,"id":-443816,"osm_relation":true},"arcs":[[119]]},{"type":"Polygon","properties":{"kind":"nature_reserve","name":"Parque Nacional del Huascar\u00e1n","area":4440629760,"sort_rank":23,"source":"openstreetmap.org","min_zoom":4.0,"tier":2,"id":-3805257,"osm_relation":true},"arcs":[[120]]},{"type":"Polygon","properties":{"kind":"park","name":"Parque Nacional Yasun\u00ed","area":10242899968,"sort_rank":24,"source":"openstreetmap.org","min_zoom":4.0,"tier":2,"id":-207723,"osm_relation":true},"arcs":[[121]]},{"type":"Polygon","properties":{"kind":"nature_reserve","name":"Floresta Nacional do Purus","area":2632270080,"sort_rank":23,"operator":"Instituto Chico Mendes de Conserva\u00e7\u00e3o da Biodiversidade","source":"openstreetmap.org","min_zoom":4.0,"tier":2,"id":-3424878,"osm_relation":true,"protect_class":"6"},"arcs":[[122]]},{"type":"Polygon","properties":{"kind":"nature_reserve","name":"Terra Ind\u00edgena Riozinho do Alto Envira","area":2708590080,"sort_rank":23,"operator":"Funda\u00e7\u00e3o Nacional do \u00cdndio","source":"openstreetmap.org","min_zoom":4.0,"tier":2,"id":-3817150,"osm_relation":true,"protect_class":"24"},"arcs":[[123]]},{"type":"Polygon","properties":{"kind":"nature_reserve","name":"Reserva Nacional Pacaya Samiria","area":21796399104,"sort_rank":23,"source":"openstreetmap.org","min_zoom":4.0,"tier":2,"id":-548647,"osm_relation":true},"arcs":[[124]]},{"type":"Polygon","properties":{"kind":"nature_reserve","name":"Reserva Extrativista do Alto Tarauac\u00e1","area":1575229952,"sort_rank":23,"operator":"Instituto Chico Mendes de Conserva\u00e7\u00e3o da Biodiversidade","source":"openstreetmap.org","min_zoom":4.0,"tier":2,"id":-3817219,"osm_relation":true,"protect_class":"6"},"arcs":[[125]]},{"type":"Polygon","properties":{"kind":"nature_reserve","name":"Terra Ind\u00edgena Kanamari do Rio Juru\u00e1","area":6145679872,"sort_rank":23,"operator":"Funda\u00e7\u00e3o Nacional do \u00cdndio","source":"openstreetmap.org","min_zoom":4.0,"tier":2,"id":-4286689,"osm_relation":true,"protect_class":"24"},"arcs":[[126]]},{"type":"Polygon","properties":{"kind":"protected_area","name":"Area de conservaci\u00f3n regional Choquequirao","area":1291299968,"sort_rank":17,"source":"openstreetmap.org","min_zoom":4.0,"tier":2,"id":-3812218,"osm_relation":true,"protect_class":"5"},"arcs":[[127]]}]}},"type":"Topology","transform":{"translate":[-90.0,-21.9430455334],"scale":[0.0054931641,0.0053571889]},"arcs":[[[3730,828],[-14,-12],[-18,-15],[-22,-2],[-8,-8],[2,-15],[7,-21],[0,-17],[-7,-19],[-16,-21],[-24,-15],[-23,-8],[-18,0],[-17,-1],[-7,-2]],[[3718,2052],[22,-41],[17,-29],[19,-34],[15,-27],[24,-42],[20,-35],[21,-38],[24,-44],[-8,-11],[-6,-8],[1,-15],[-10,-8],[-10,-5],[-12,-12],[-8,-11],[-1,-16],[2,-78],[-2,-21],[-6,-19],[-7,-9],[-4,-7],[10,-18],[9,-37],[6,-7],[9,-15],[3,-14],[-1,-5],[-17,-7],[-6,-6],[-1,-21],[-8,-7],[-12,-10],[-8,-11],[-6,-8],[-7,-5],[-3,-14],[-4,-14],[-16,-9],[-2,-17],[0,-14],[8,-14],[26,-30],[3,-7],[-15,-18],[-9,-13],[-21,-38],[-1,-7],[6,-18],[31,-76],[6,-7],[10,-7],[16,1],[24,-9],[11,-9],[2,-5],[-3,-3],[-13,-6],[-14,-9],[-5,-7],[-1,-13],[3,-19],[-6,-6],[-14,-7],[-12,-10],[-13,-17],[-21,-27],[-7,-7],[-3,-9],[-12,-3],[-22,-18],[-4,-9],[4,-8],[11,-7],[8,-11],[2,-13],[0,-9]],[[3730,828],[3,-21],[25,-28],[8,-32],[6,-4],[34,-16],[0,-4],[-5,-6],[-5,-8],[4,-11],[6,-15],[2,-14],[4,-14],[4,-22],[2,-19],[9,-30],[2,-18],[0,-11],[6,-10],[14,-13],[18,-13],[14,-15],[11,-10],[13,-8],[10,-8],[4,-5],[2,-4],[-5,-4],[-16,-20],[-22,-30],[0,-4],[22,-22],[3,-8],[0,-12],[-7,-15],[-23,-4],[-6,-4],[0,-5],[5,-6],[-1,-14],[9,-16],[-5,-6],[-8,-7],[0,-7],[2,-8],[9,-6],[36,-23],[3,-3],[-1,-2],[-14,-15],[-1,-9],[0,-15],[2,-10],[5,-4],[18,-4],[22,-34],[21,-32],[0,-27],[2,-32],[14,-26],[1,-20],[4,-15]],[[2679,4076],[-33,13],[-10,7]],[[2679,4076],[-10,-7],[-11,0],[-14,-2],[-20,6],[-7,0],[-1,-6],[13,-8],[12,-9],[5,-14],[7,-16],[18,-19],[12,-9],[0,-6],[-3,-12],[-1,-10],[6,-46],[-4,-2],[-7,-1],[-7,1],[-6,4],[-5,3],[-2,-7],[-5,-20],[-12,-46],[-10,-40],[-13,-14],[-19,-23],[-26,-30],[-37,-45],[-27,-21],[-22,-16],[-25,-19],[-33,-24],[-37,-14],[-51,-19],[-36,-13],[-27,-10],[-27,-10],[-37,-13],[-14,-12],[-24,-30],[-11,-14],[-10,-12],[-2,-6],[1,-4],[5,-6],[1,-6],[-7,-4],[-6,0],[-2,3],[-2,7],[-6,7],[-7,2],[-4,-2],[-1,-6],[-9,-31],[0,-15],[-4,-6],[0,-13],[-9,-12],[-4,-11],[-3,-10],[-8,-6],[-2,-10],[-7,-22],[-8,-17],[-6,-14],[-1,-11],[4,-8],[2,-6],[-4,-11],[-2,-9],[-11,-5],[-21,-14],[-9,-9],[-3,-11],[2,-8],[-1,-8],[-10,-3],[-4,-6],[-7,-12],[-7,-4],[-20,6],[-15,1],[-12,5],[-12,17],[-10,13],[-9,18],[-2,25],[-12,7],[-11,8],[-13,-2],[-16,-2],[-8,6],[-22,10],[-18,12],[-14,6],[-11,-3],[-6,-7],[-11,-12],[-16,-9],[-8,0],[-10,6],[-1,7],[8,11],[16,23],[-18,1],[-6,7],[-1,9],[-3,9],[3,11],[10,6],[14,-4],[10,-1],[7,11],[6,5],[7,3],[3,5],[-7,17],[-2,9],[2,5],[0,11],[-1,8],[-4,6],[0,11],[-4,5],[-1,6],[0,7],[-5,3],[-5,4]],[[3647,3305],[-9,14],[-14,13],[-14,8],[-5,10],[-8,21],[-10,7],[-8,6],[-7,-1],[-8,-6],[-12,-3],[-8,0],[-32,15],[-5,1],[21,33],[37,59],[23,38],[26,41],[13,22],[2,3],[0,6],[-6,8],[-12,3],[-15,6],[-9,11],[-12,4],[-10,7],[-18,7],[-11,7],[-13,2],[-11,12],[-38,23],[-9,2],[-11,-3],[-16,-4],[-15,-13],[-19,-4],[-17,0],[-10,8],[-8,3],[-12,10],[-20,8],[-15,5],[-9,-2],[-12,-12],[-12,-11],[-9,-7],[-13,0],[-15,-10],[-15,-4],[-15,-2],[-17,-3],[-19,6],[-16,6],[-7,2],[-6,-2],[-10,-6],[-18,-2],[-14,-1],[-10,3],[-8,10],[-15,5],[-15,7],[-4,13],[3,9],[6,15],[-4,14],[-6,23],[-3,9],[-5,8],[-8,3],[-15,-2],[-16,9],[-11,8],[-5,10],[6,19],[-5,16],[-10,9],[-6,16],[-10,13],[-13,6],[-13,0],[-10,4],[-12,13],[-11,5],[-12,13],[-23,6],[-12,5],[-7,8],[-9,14],[1,8],[-5,8],[-4,14],[-7,21],[-9,11],[-9,9],[-7,8],[-11,11],[-14,6],[-12,7],[-4,10],[-4,9],[-7,-1],[-9,1],[-10,2],[-11,6],[-9,7],[-16,13],[-8,1],[-7,0],[-11,-12]],[[3628,4096],[0,-26],[5,-11],[22,-22],[17,-12],[15,-13],[14,-6],[7,-5],[4,-8],[2,-9],[1,-7],[-1,-8],[-4,-8],[2,-7],[5,-7],[1,-7],[4,-8],[2,-7],[4,-6],[6,-3],[7,-6],[1,-6],[-1,-7],[0,-5],[7,-11],[2,-8],[-3,-10],[-3,-32],[-8,-38],[-5,-28],[-9,-47],[-9,-54],[-12,-66],[-11,-65],[-12,-63],[-10,-57],[-11,-63],[-7,-38],[-3,-7]],[[3718,2052],[21,0],[42,-1],[42,-7],[28,-3],[11,-7],[3,-10],[8,-4],[8,2],[11,0],[22,10],[19,7],[15,8],[8,8],[20,28],[16,15],[14,5],[29,3],[9,-5],[12,1],[10,16],[15,17],[15,11]],[[3647,3305],[-1,-12],[-6,-5],[-9,-1],[-14,9],[-10,-2],[-10,-1],[-14,10],[-5,10],[-11,8],[-23,-3],[-19,0],[-15,2],[-15,-3],[-12,-11],[-9,-12],[-10,-10],[-31,-7],[-17,0],[-15,-7],[-22,-2],[-15,-6],[-27,-4],[-32,-3],[-18,-9],[-7,-4],[-18,-13],[-32,-19],[-17,-7],[-22,-22],[-25,-20],[-16,-11],[-25,-5],[-10,-5],[-3,-7],[2,-7],[-4,-20],[-8,-36],[-2,-17],[-2,-9],[-16,-29],[-17,-27],[-8,-17],[-5,-13],[5,-11],[7,-20],[6,-15],[2,-11],[-2,-12],[-8,-11],[-11,-7],[-16,-2],[-31,-20],[-36,-29],[-11,-13],[-4,-13],[-5,-20],[2,-10],[7,-7],[6,-17],[1,-8],[-6,-5],[-10,-1],[-9,-2],[-7,-4],[-6,1],[-7,-2],[0,-7],[2,-9],[-1,-8],[-4,-6],[-4,-3],[4,-6],[6,-5],[10,-8],[13,-16],[10,-2],[9,-6],[1,-8],[-4,-9],[-7,-4],[0,-7],[10,-10],[6,-6],[7,-10],[7,-13],[0,-9],[7,-11],[4,-9],[0,-9],[11,-9],[9,-6],[7,-6],[7,-4],[2,-6],[-1,-10],[10,-16],[18,-13],[14,-17],[10,-13],[17,-21],[1,-23],[-22,-28],[-21,-27],[35,1],[37,-1],[38,-7],[25,-8],[16,-3],[11,-9],[5,-13],[4,-11],[1,-17],[16,-13],[-1,-12],[0,-17],[7,-1],[46,0],[51,0],[49,3],[19,5],[22,21],[13,6],[13,10],[16,18],[12,8],[11,10],[15,10],[7,8],[5,2],[12,5],[-5,-9],[-4,-10],[-1,-15],[6,-16],[-5,-11],[-8,-11],[0,-27],[0,-40],[0,-33],[-1,-42],[0,-48],[0,-31],[8,6],[12,6],[15,-15],[10,-6],[10,-2],[9,1],[13,3],[28,12],[19,10],[22,-1],[30,-4],[18,1]],[[3951,455],[-3,9],[9,9],[7,19],[-2,13],[1,15],[26,6],[21,-10],[20,-17],[14,-14],[8,-9],[-3,-12],[-10,-13],[-23,6],[-20,-7],[-20,-14],[-13,1],[-12,18]],[[0,4096],[1797,0],[-1,-1],[-19,-20],[-15,-10],[-29,-38],[2,-12],[15,-28],[19,-7],[-14,-1],[-17,8],[-10,-19],[-8,-30],[-13,-10],[-40,-14],[-11,-19],[15,-39],[4,-18],[-7,-47],[14,-35],[0,-21],[-2,-27],[-18,-12],[-17,-9],[2,-8],[4,-7],[17,-14],[28,-9],[43,-43],[13,-8],[17,-7],[5,8],[1,6],[22,19],[14,26],[8,7],[-4,-38],[7,-4],[12,5],[8,24],[-2,51],[9,15],[2,-8],[-1,-11],[3,-35],[14,-24],[3,-17],[-17,-37],[-18,-59],[-8,-12],[-11,-14],[-14,-8],[-11,-10],[-26,-9],[-4,-2],[-32,-21],[-27,-26],[-27,-17],[-17,-29],[-62,-65],[-9,-17],[-10,-65],[9,-17],[17,-22],[16,-28],[-8,-13],[-3,-13],[41,-57],[11,-30],[0,-23],[-9,-15],[-11,-4],[-18,9],[-14,-12],[-2,-12],[7,-22],[15,-13],[45,-29],[127,-68],[21,-23],[17,-24],[26,-31],[26,-43],[5,-23],[39,-78],[12,-16],[27,-23],[27,-31],[16,-36],[30,-39],[1,-24],[17,-43],[15,-34],[24,-40],[17,-53],[14,-29],[17,-52],[16,-32],[66,-108],[13,-34],[4,-32],[1,-18],[59,-46],[16,-24],[12,-49],[1,-25],[16,-9],[5,-12],[8,-9],[29,-24],[14,-33],[22,-38],[15,-18],[9,-30],[14,-23],[37,-49],[7,-27],[-14,-54],[-11,-3],[-10,-8],[15,-16],[1,-34],[21,-18],[7,-17],[23,-33],[14,-26],[35,-28],[38,-21],[24,-36],[23,-16],[15,-27],[16,-17],[100,-53],[33,-26],[41,-14],[59,-45],[17,-9],[60,-19],[25,-16],[55,-25],[30,-17],[60,-18],[19,-12],[17,-19],[29,-24],[26,-11],[18,-17],[17,-8],[44,-18],[17,-14],[7,-10],[6,-37],[6,-12],[51,-36],[20,-10],[23,-23],[59,-42],[14,-12],[10,-10],[5,-37],[0,-43],[11,-83],[12,-41],[2,-23],[7,-17],[2,-19],[0,-79],[-8,-57],[-1,-36],[20,-98],[1,-20],[-1,-25],[-8,-28],[-4,-42],[-4,-14],[-3609,0],[0,4096]],[[1821,3597],[-15,1],[-12,-5],[-14,-11],[-5,-11],[-4,-26],[0,-8],[5,-3],[17,0],[3,7],[7,24],[4,2],[11,3],[19,17],[-16,10]],[[105,3961],[-10,-13],[-12,-6],[-12,-12],[1,-5],[5,-3],[7,-4],[22,8],[11,16],[11,7],[7,11],[-2,4],[-3,3],[-6,2],[-19,-8]],[[3756,1068],[-6,4],[-6,2],[-9,1],[-1,4],[7,10],[2,9],[-1,6],[-8,3],[-13,4],[-12,5],[-8,4],[-4,4],[-5,3],[-5,4],[-6,5],[-6,5],[-4,2],[-2,-1],[-2,-3],[1,-4],[2,-4],[1,-4],[0,-2],[-2,-1],[-2,0],[-3,1],[-4,3],[-5,4],[-7,4],[-6,3],[-3,2],[-1,4],[-1,7],[1,7],[3,5],[4,5],[4,6],[6,3],[10,-5],[9,-6],[4,0],[-4,10],[-9,20],[-11,19],[-2,6],[5,4],[10,6],[2,3],[2,3],[7,2],[6,2],[4,4],[10,1],[11,-15],[15,-5],[17,-19],[8,-4],[8,-3],[12,-21],[5,-1],[8,-6],[6,-4],[4,-3],[4,-5],[8,-8],[12,-5],[4,-10],[0,-12],[4,-3],[16,-3],[14,-1],[6,-4],[-2,-5],[-3,-4],[-5,-6],[-7,-6],[3,-10],[8,-10],[12,-2],[13,-4],[10,0],[8,-3],[0,-6],[1,-3],[0,-3],[-4,-2],[-8,-1],[-7,-2],[-2,-2],[-2,-4],[-5,-4],[-8,-5],[-14,-1],[-8,-2],[-4,-4],[6,-3],[5,-7],[2,-4],[0,-5],[-1,-4],[-2,-4],[-6,0],[-7,2],[-11,6],[-8,4],[-5,1],[-4,7],[8,12],[3,10],[-1,9],[0,7],[7,5],[11,6],[7,-4],[4,0],[-1,7],[-10,6],[-13,12],[-11,5],[-5,-1],[-1,-8],[-2,-9],[-3,-10],[-7,-3],[-8,-1],[-9,1],[-10,1],[-8,4]],[[4096,251],[-2,2],[-21,27],[-19,6],[-21,-10],[-10,9],[-14,2],[-13,-3],[-2,-11],[-11,-9],[-14,2],[-3,24],[10,44],[1,17],[-1,18],[1,12],[15,11],[15,4],[17,-3],[27,-12],[20,-5],[21,5],[3,10],[-4,18],[5,2],[0,-160]],[[3951,455],[-3,9],[9,9],[7,19],[-2,13],[1,15],[26,6],[21,-10],[20,-17],[14,-14],[8,-9],[-3,-12],[-10,-13],[-23,6],[-20,-7],[-20,-14],[-13,1],[-12,18]],[[3756,1068],[-6,4],[-6,2],[-9,1],[-1,4],[7,10],[2,9],[-1,6],[-8,3],[-13,4],[-12,5],[-8,4],[-4,4],[-5,3],[-5,4],[-6,5],[-6,5],[-4,2],[-2,-1],[-2,-3],[1,-4],[2,-4],[1,-4],[0,-2],[-2,-1],[-2,0],[-3,1],[-4,3],[-5,4],[-7,4],[-6,3],[-3,2],[-1,4],[-1,7],[1,7],[3,5],[4,5],[4,6],[6,3],[10,-5],[9,-6],[4,0],[-4,10],[-9,20],[-11,19],[-2,6],[5,4],[10,6],[2,3],[2,3],[7,2],[6,2],[4,4],[10,1],[11,-15],[15,-5],[17,-19],[8,-4],[8,-3],[12,-21],[5,-1],[8,-6],[6,-4],[4,-3],[4,-5],[8,-8],[12,-5],[4,-10],[0,-12],[4,-3],[16,-3],[14,-1],[6,-4],[-2,-5],[-3,-4],[-5,-6],[-7,-6],[3,-10],[8,-10],[12,-2],[13,-4],[10,0],[8,-3],[0,-6],[1,-3],[0,-3],[-4,-2],[-8,-1],[-7,-2],[-2,-2],[-2,-4],[-5,-4],[-8,-5],[-14,-1],[-8,-2],[-4,-4],[6,-3],[5,-7],[2,-4],[0,-5],[-1,-4],[-2,-4],[-6,0],[-7,2],[-11,6],[-8,4],[-5,1],[-4,7],[8,12],[3,10],[-1,9],[0,7],[7,5],[11,6],[7,-4],[4,0],[-1,7],[-10,6],[-13,12],[-11,5],[-5,-1],[-1,-8],[-2,-9],[-3,-10],[-7,-3],[-8,-1],[-9,1],[-10,1],[-8,4]],[[4096,251],[-2,2],[-21,27],[-19,6],[-21,-10],[-10,9],[-14,2],[-13,-3],[-2,-11],[-11,-9],[-14,2],[-3,24],[10,44],[1,17],[-1,18],[1,12],[15,11],[15,4],[17,-3],[27,-12],[20,-5],[21,5],[3,10],[-4,18],[5,2]],[[1780,3582],[-5,-11],[-4,-26],[0,-8],[5,-3],[17,0],[3,7],[7,24],[4,2],[11,3],[19,17],[-16,10],[-15,1],[-12,-5],[-14,-11]],[[105,3961],[-10,-13],[-12,-6],[-12,-12],[1,-5],[5,-3],[7,-4],[22,8],[11,16],[11,7],[7,11],[-2,4],[-3,3],[-6,2],[-19,-8]],[[1797,4096],[-1,-1],[-19,-20],[-15,-10],[-29,-38],[2,-12],[15,-28],[19,-7],[-14,-1],[-17,8],[-10,-19],[-8,-30],[-13,-10],[-40,-14],[-11,-19],[15,-39],[4,-18],[-7,-47],[14,-35],[0,-21],[-2,-27],[-18,-12],[-17,-9],[2,-8],[4,-7],[17,-14],[28,-9],[43,-43],[13,-8],[17,-7],[5,8],[1,6],[22,19],[14,26],[8,7],[-4,-38],[7,-4],[12,5],[8,24],[-2,51],[9,15],[2,-8],[-1,-11],[3,-35],[14,-24],[3,-17],[-17,-37],[-18,-59],[-8,-12],[-11,-14],[-14,-8],[-11,-10],[-26,-9],[-4,-2],[-32,-21],[-27,-26],[-27,-17],[-17,-29],[-62,-65],[-9,-17],[-10,-65],[9,-17],[17,-22],[16,-28],[-8,-13],[-3,-13],[41,-57],[11,-30],[0,-23],[-9,-15],[-11,-4],[-18,9],[-14,-12],[-2,-12],[7,-22],[15,-13],[45,-29],[127,-68],[21,-23],[17,-24],[26,-31],[26,-43],[5,-23],[39,-78],[12,-16],[27,-23],[27,-31],[16,-36],[30,-39],[1,-24],[17,-43],[15,-34],[24,-40],[17,-53],[14,-29],[17,-52],[16,-32],[66,-108],[13,-34],[4,-32],[1,-18],[59,-46],[16,-24],[12,-49],[1,-25],[16,-9],[5,-12],[8,-9],[29,-24],[14,-33],[22,-38],[15,-18],[9,-30],[14,-23],[37,-49],[7,-27],[-14,-54],[-11,-3],[-10,-8],[15,-16],[1,-34],[21,-18],[7,-17],[23,-33],[14,-26],[35,-28],[38,-21],[24,-36],[23,-16],[15,-27],[16,-17],[100,-53],[33,-26],[41,-14],[59,-45],[17,-9],[60,-19],[25,-16],[55,-25],[30,-17],[60,-18],[19,-12],[17,-19],[29,-24],[26,-11],[18,-17],[17,-8],[44,-18],[17,-14],[7,-10],[6,-37],[6,-12],[51,-36],[20,-10],[23,-23],[59,-42],[14,-12],[10,-10],[5,-37],[0,-43],[11,-83],[12,-41],[2,-23],[7,-17],[2,-19],[0,-79],[-8,-57],[-1,-36],[20,-98],[1,-20],[-1,-25],[-8,-28],[-4,-42],[-4,-14]],[[1796,3541],[-3,-7],[-17,0],[-5,3],[0,8],[4,26],[5,11],[14,11],[12,5],[15,-1],[16,-10],[-19,-17],[-11,-3],[-4,-2],[-7,-24]],[[106,3926],[-22,-8],[-7,4],[-5,3],[-1,5],[12,12],[12,6],[10,13],[19,8],[6,-2],[3,-3],[2,-4],[-7,-11],[-11,-7],[-11,-16]],[[4096,4096],[0,-4096],[-487,0],[4,14],[4,42],[8,28],[1,25],[-1,20],[-20,98],[1,36],[8,57],[0,79],[-2,19],[-7,17],[-2,23],[-12,41],[-11,83],[0,43],[-5,37],[-10,10],[-14,12],[-59,42],[-23,23],[-20,10],[-51,36],[-6,12],[-6,37],[-7,10],[-17,14],[-44,18],[-17,8],[-18,17],[-26,11],[-29,24],[-17,19],[-19,12],[-60,18],[-30,17],[-55,25],[-25,16],[-60,19],[-17,9],[-59,45],[-41,14],[-33,26],[-100,53],[-16,17],[-15,27],[-23,16],[-24,36],[-38,21],[-35,28],[-14,26],[-23,33],[-7,17],[-21,18],[-1,34],[-15,16],[10,8],[11,3],[14,54],[-7,27],[-37,49],[-14,23],[-9,30],[-15,18],[-22,38],[-14,33],[-29,24],[-8,9],[-5,12],[-16,9],[-1,25],[-12,49],[-16,24],[-59,46],[-1,18],[-4,32],[-13,34],[-66,108],[-16,32],[-17,52],[-14,29],[-17,53],[-24,40],[-15,34],[-17,43],[-1,24],[-30,39],[-16,36],[-27,31],[-27,23],[-12,16],[-39,78],[-5,23],[-26,43],[-26,31],[-17,24],[-21,23],[-127,68],[-45,29],[-15,13],[-7,22],[2,12],[14,12],[18,-9],[11,4],[9,15],[0,23],[-11,30],[-41,57],[3,13],[8,13],[-16,28],[-17,22],[-9,17],[10,65],[9,17],[62,65],[17,29],[27,17],[27,26],[32,21],[4,2],[26,9],[11,10],[14,8],[11,14],[8,12],[18,59],[17,37],[-3,17],[-14,24],[-3,35],[1,11],[-2,8],[-9,-15],[2,-51],[-8,-24],[-12,-5],[-7,4],[4,38],[-8,-7],[-14,-26],[-22,-19],[-1,-6],[-5,-8],[-17,7],[-13,8],[-43,43],[-28,9],[-17,14],[-4,7],[-2,8],[17,9],[18,12],[2,27],[0,21],[-14,35],[7,47],[-4,18],[-15,39],[11,19],[40,14],[13,10],[8,30],[10,19],[17,-8],[14,1],[-19,7],[-15,28],[-2,12],[29,38],[15,10],[19,20],[1,1],[2299,0]],[[4096,4018],[-89,-56],[-143,-7],[-117,-61],[-38,63],[3,46],[-79,58],[0,35],[463,0],[0,-78]],[[3988,2425],[34,7],[-7,46],[51,-2],[-15,-20],[20,-21],[-43,-39],[-40,-9],[0,38]],[[3432,4053],[30,42],[28,-67],[17,14],[72,-39],[59,33],[-4,37],[113,-164],[-9,-37],[-35,-5],[-17,37],[-70,-21],[-74,76],[-70,7],[-40,87]],[[3745,3868],[2,26],[48,24],[15,-48],[-46,-31],[-19,29]],[[2753,4096],[-12,-38],[-42,30],[-18,-15],[-56,21],[128,2]],[[3567,3441],[26,17],[-9,41],[60,29],[16,-91],[-39,-15],[-28,-47],[-26,66]],[[2896,1977],[21,9],[60,-26],[55,-90],[7,-41],[-53,-45],[-20,25],[15,83],[-85,85]],[[3691,884],[3,59],[73,94],[57,-50],[-118,-118],[-15,15]],[[3189,2082],[19,45],[-17,46],[57,26],[-4,30],[156,2],[17,-56],[44,-23],[66,71],[4,-204],[-61,-1],[-35,-89],[-42,-12],[-11,32],[-67,35],[-75,-7],[15,46],[-66,59]],[[3650,2229],[108,57],[28,-20],[-13,-16],[-23,16],[-99,-76],[-1,39]],[[2273,2771],[45,22],[32,-38],[-57,-21],[-20,37]],[[2532,1841],[12,34],[52,26],[23,-32],[-27,-58],[27,-32],[-56,11],[-31,51]],[[3891,3447],[69,18],[13,-32],[-49,-42],[-33,56]],[[2477,1503],[35,11],[33,-47],[-3,-63],[-65,99]],[[3676,2139],[104,72],[10,-37],[34,18],[26,-27],[93,36],[10,-29],[32,26],[32,-14],[-26,-13],[19,-21],[-57,-36],[-101,21],[69,-48],[-31,8],[11,-34],[-117,53],[-16,-28],[-35,13],[-45,-52],[-12,92]],[[4046,620],[34,52],[16,4],[0,-132],[-44,-43],[-6,119]],[[2138,4072],[26,-6],[16,30],[113,0],[-92,-86],[-51,17],[-12,45]],[[3112,2387],[19,39],[113,49],[11,-18],[-32,-19],[52,-22],[-46,-89],[-99,12],[-18,48]],[[2251,2806],[64,38],[21,-67],[-38,18],[-25,-24],[-22,35]],[[2213,3536],[35,-7],[0,-77],[48,-32],[9,-19],[-17,1],[-3,-4],[47,-48],[-41,-54],[-32,10],[7,-43],[-29,46],[12,60],[-36,167]],[[3796,706],[45,40],[47,-31],[-79,-34],[-13,25]],[[3822,345],[12,35],[17,-45],[15,37],[22,-18],[-22,-6],[19,-48],[-28,-29],[-35,74]],[[3757,1309],[2,25],[53,20],[33,-38],[29,22],[120,-109],[-76,39],[-106,-32],[-55,73]],[[4096,1381],[0,-1],[-33,-65],[-79,74],[-15,-38],[-104,3],[47,88],[37,23],[42,-23],[10,30],[95,-91]],[[3933,3078],[50,111],[69,50],[4,91],[40,38],[0,-223],[-88,-70],[-5,-43],[-65,11],[-5,35]],[[3828,1872],[59,-6],[5,27],[162,98],[42,-6],[0,-40],[-32,3],[-171,-185],[-65,109]],[[3657,3332],[21,116],[108,45],[12,-39],[-48,-18],[-25,-139],[-53,-2],[-15,37]],[[4063,3665],[33,23],[0,-21],[-33,-2]],[[3401,2332],[63,29],[18,-28],[2,51],[26,-16],[28,38],[31,-48],[-15,-24],[-69,-2],[-42,-54],[-42,54]],[[3606,2168],[91,201],[90,43],[65,-12],[-64,-135],[-30,21],[-75,-22],[-33,-73],[-44,-23]],[[3768,2367],[14,-4],[12,19],[-11,0],[-15,-15]],[[2688,2245],[13,-11],[30,-65],[11,-66],[45,28],[10,-65],[-107,62],[38,20],[-40,97]],[[2334,3333],[1,22],[96,1],[-18,-55],[27,-81],[-70,10],[-36,103]],[[2561,3725],[20,20],[96,-23],[61,-68],[-20,-121],[32,-53],[-71,64],[-13,70],[-105,111]],[[2268,2668],[81,47],[35,-5],[-41,-113],[-46,-5],[-29,76]],[[3527,2135],[61,-12],[88,30],[-22,-64],[-126,-46],[-1,92]],[[3217,2512],[22,6],[-12,104],[49,34],[-13,-42],[34,-7],[3,-49],[-31,-96],[-42,5],[-10,45]],[[3199,1910],[34,68],[106,-1],[145,-155],[-42,-44],[-18,23],[-17,-46],[-27,-5],[-32,-119],[-86,132],[25,31],[-72,68],[-16,48]],[[4016,3474],[27,68],[53,9],[0,-81],[-64,-21],[-16,25]],[[3703,714],[94,-5],[21,-59],[-38,35],[-48,-36],[-2,50],[-24,-7],[-3,22]],[[197,4096],[59,-101],[-10,-91],[-106,-171],[-140,-21],[0,384],[197,0]],[[1970,3330],[15,24],[18,-50],[39,2],[-14,-44],[-38,-13],[1,40],[-5,-22],[-11,-2],[-5,65]],[[2218,3981],[29,70],[81,29],[-38,-29],[-13,-73],[-59,3]],[[3968,1348],[16,41],[79,-73],[-49,-64],[-46,96]],[[3776,1355],[50,83],[28,4],[-43,102],[31,39],[4,110],[26,30],[33,-106],[-40,-63],[26,5],[110,-87],[-10,-30],[-42,23],[-39,-24],[-59,-123],[-75,37]],[[2410,2967],[11,14],[30,1],[43,-75],[24,8],[43,-42],[-50,-11],[-63,111],[-23,-2],[6,-44],[-21,40]],[[1981,3949],[3,45],[33,32],[51,-26],[-17,-40],[-40,30],[-3,-65],[-27,24]],[[3787,3608],[133,72],[56,108],[120,-28],[-120,-86],[-36,-66],[-127,-42],[-26,42]],[[3418,2781],[49,42],[85,-20],[34,19],[8,-41],[30,8],[14,-29],[-109,-72],[9,-32],[-29,-18],[-45,28],[36,99],[-75,-24],[-7,40]],[[4071,3624],[16,52],[9,-1],[0,-43],[-25,-8]],[[2763,2326],[42,136],[24,-59],[-25,-58],[29,-17],[23,-90],[16,6],[-17,-16],[44,-105],[-88,5],[18,20],[-36,9],[-9,53],[29,2],[12,44],[-62,70]],[[3351,1094],[41,24],[-33,39],[94,-1],[23,-55],[-27,-38],[28,7],[7,-27],[-81,-4],[-52,55]],[[3730,3336],[30,20],[-14,47],[18,33],[50,11],[-38,-126],[-46,15]],[[2619,4075],[116,-35],[14,-73],[-65,7],[-65,101]],[[4081,3578],[15,12],[0,-51],[-15,39]],[[3556,2360],[98,44],[17,-17],[12,17],[13,-32],[-24,-25],[-16,14],[-29,-46],[-34,2],[-37,43]],[[3043,1225],[48,46],[5,62],[37,28],[59,-3],[7,-49],[-77,-76],[-32,2],[4,-33],[-22,-12],[-29,35]],[[2011,3641],[92,60],[-7,70],[23,41],[-18,14],[61,-8],[8,-69],[-36,-58],[3,-87],[-86,7],[-40,30]],[[3882,2773],[80,69],[73,124],[61,-69],[0,-152],[-81,37],[-106,-33],[-27,24]],[[3249,2265],[22,65],[55,16],[7,-46],[-84,-35]],[[3352,4096],[-44,-51],[-8,38],[-88,-17],[-131,30],[271,0]],[[2138,4020],[10,14],[49,-26],[-7,-49],[28,21],[-2,-29],[-55,7],[-23,62]],[[3948,3547],[67,12],[-4,-55],[-49,-10],[-14,53]],[[3926,2428],[43,43],[43,3],[13,-24],[-66,-42],[-33,20]],[[2097,3867],[18,65],[73,-33],[-26,-68],[-65,36]],[[2916,2690],[6,33],[43,21],[50,-39],[27,7],[-40,-120],[23,-34],[89,11],[24,-122],[-18,-33],[-14,-10],[-74,84],[-78,131],[17,24],[-55,47]],[[3887,2579],[20,31],[26,-4],[26,-51],[49,36],[-16,-17],[28,-37],[49,-25],[-10,-32],[-54,-7],[-38,65],[-34,-21],[-40,18],[-6,44]],[[4093,2728],[3,0],[0,-3],[-3,3]],[[3244,2229],[5,36],[49,6],[29,46],[36,-26],[23,16],[4,-2],[-54,-76],[-92,0]],[[2432,2630],[6,29],[31,-24],[52,50],[-11,36],[40,-7],[-15,94],[32,73],[87,-56],[12,-24],[-91,-49],[35,-81],[-4,-101],[-19,-10],[26,3],[1,-61],[-29,-60],[-42,1],[-37,147],[-65,12],[-9,28]],[[2607,2182],[43,10],[58,-50],[-37,-26],[-36,64],[-20,-15],[-8,17]],[[2963,2806],[107,75],[-19,87],[68,143],[137,-22],[100,99],[33,82],[71,15],[28,-62],[59,34],[113,-68],[51,18],[10,-87],[27,-20],[-4,-110],[-80,-93],[-173,-55],[-101,-5],[-31,-36],[-47,5],[-17,-42],[-76,-12],[-69,38],[-187,16]],[[2364,2168],[23,31],[47,-48],[-7,-35],[-63,52]],[[3857,2608],[15,47],[53,25],[45,-42],[116,-26],[1,-31],[-14,-25],[-87,35],[-23,-28],[-30,43],[-76,2]],[[3675,266],[27,25],[29,-27],[-9,-66],[-30,2],[16,41],[-33,25]],[[2497,4003],[36,11],[29,-25],[-2,22],[106,-81],[-12,-16],[-70,53],[-75,6],[-12,30]],[[4035,3074],[61,66],[0,-58],[-14,-1],[-21,-33],[-26,26]],[[4080,3407],[16,41],[0,-73],[-16,32]],[[3508,3716],[3,83],[34,14],[27,0],[8,-43],[159,28],[-36,-148],[-36,-8],[-25,32],[-96,-6],[-38,48]],[[3757,440],[63,95],[62,-24],[-49,-17],[-38,-54],[-38,0]],[[3741,651],[39,34],[42,-38],[10,-58],[-35,-12],[23,-25],[-44,17],[7,28],[-42,54]],[[3526,2857],[110,32],[13,-47],[-106,-10],[-17,25]],[[3334,2332],[26,72],[32,29],[-11,-88],[-24,-34],[-23,21]],[[1675,3316],[46,31],[-8,32],[26,1],[-1,-70],[-33,-19],[-30,25]],[[3597,749],[9,-9],[-23,-22],[9,31],[5,0]],[[3967,1000],[-9,22],[27,9],[14,-21],[-32,-10]],[[3370,1050],[7,-24],[-25,-2],[0,22],[18,4]],[[2395,1804],[-56,41],[-10,62],[54,-39],[49,5],[-42,-38],[5,-31]],[[2087,2390],[-7,-5],[-12,27],[22,-7],[-3,-15]],[[2010,2577],[-8,-17],[-21,25],[21,11],[8,-19]],[[1856,3674],[-7,36],[-8,-43],[-19,45],[16,4],[18,-7],[0,-35]],[[2044,3781],[13,10],[17,1],[-9,-26],[-21,15]],[[2113,4079],[26,17],[-33,-62],[-25,0],[12,53],[20,-8]],[[2484,4096],[135,-18],[70,-85],[-1,-71],[-139,92],[0,26],[-54,2],[3,46],[-38,-1],[24,9]],[[3350,3830],[9,50],[55,21],[101,-76],[70,1],[-89,-27],[-19,-30],[-69,-3],[-7,42],[-51,22]],[[3907,358],[14,39],[37,-3],[-12,-52],[-39,16]],[[2206,2471],[19,20],[50,-41],[25,-47],[-13,-22],[42,-30],[23,-79],[-17,-53],[-129,252]],[[2407,3925],[20,76],[26,13],[48,-46],[83,-1],[71,-55],[-36,-112],[-93,-22],[-118,65],[57,20],[82,-13],[1,72],[-32,1],[-32,41],[-77,-39]],[[3992,2575],[25,22],[79,-18],[0,-76],[-5,-8],[-99,80]],[[3336,2229],[44,40],[21,64],[43,-49],[26,46],[44,-14],[-90,-78],[-88,-9]],[[2622,3118],[41,80],[92,11],[53,54],[64,-42],[12,35],[64,-29],[66,33],[-54,-60],[9,-21],[-15,12],[-27,-43],[-78,-24],[-7,-49],[-49,-20],[-8,-48],[-68,-62],[-73,11],[-22,162]],[[3246,2432],[32,49],[57,-7],[-58,-105],[-6,58],[-25,5]],[[3689,2834],[51,29],[23,-45],[199,32],[-97,-87],[-61,25],[-102,-34],[-13,80]],[[3102,1620],[68,25],[12,-60],[-41,-1],[-39,36]]]}