{"objects":{"water":{"type":"GeometryCollection","geometries":[{"type":"Polygon","properties":{"source":"naturalearthdata.com","kind":"playa","name":"Salar de Atacama","area":3049759232,"sort_rank":200,"min_zoom":0.0,"id":17},"arcs":[[2]]},{"type":"Polygon","properties":{"source":"naturalearthdata.com","kind":"lake","name":"Lago Ranco","area":670192512,"sort_rank":200,"min_zoom":0.0,"id":191},"arcs":[[3]]},{"type":"MultiPolygon","properties":{"source":"naturalearthdata.com","kind":"ocean","area":1444195503964160,"sort_rank":200,"min_zoom":0.0,"id":1},"arcs":[[[4],[5]]]},{"type":"Polygon","properties":{"source":"naturalearthdata.com","kind":"lake","area":245364048,"sort_rank":200,"min_zoom":0.0,"id":337},"arcs":[[6]]},{"type":"Polygon","properties":{"source":"naturalearthdata.com","kind":"playa","name":"Salar de Arizaro","area":2162472960,"sort_rank":200,"min_zoom":0.0,"id":16},"arcs":[[7]]},{"type":"Point","properties":{"label_placement":true,"kind":"playa","name":"Salar de Atacama","area":3049759232,"sort_rank":200,"source":"naturalearthdata.com","min_zoom":0.0,"id":17},"coordinates":[3957,3785]},{"type":"Point","properties":{"label_placement":true,"kind":"playa","name":"Salar de Arizaro","area":2162472960,"sort_rank":200,"source":"naturalearthdata.com","min_zoom":0.0,"id":16},"coordinates":[4060,3495]},{"type":"Point","properties":{"label_placement":true,"kind":"lake","name":"Lago Ranco","area":670192512,"sort_rank":200,"source":"naturalearthdata.com","min_zoom":0.0,"id":191},"coordinates":[3202,165]},{"type":"LineString","properties":{"source":"naturalearthdata.com","kind":"playa","sort_rank":367,"boundary":true,"min_zoom":0.0,"id":16},"arcs":[8]},{"type":"LineString","properties":{"source":"naturalearthdata.com","kind":"playa","sort_rank":367,"boundary":true,"min_zoom":0.0,"id":17},"arcs":[9]},{"type":"LineString","properties":{"source":"naturalearthdata.com","kind":"lake","sort_rank":367,"boundary":true,"min_zoom":0.0,"id":63},"arcs":[10]},{"type":"LineString","properties":{"source":"naturalearthdata.com","kind":"lake","sort_rank":367,"boundary":true,"min_zoom":0.0,"id":191},"arcs":[11]},{"type":"LineString","properties":{"source":"naturalearthdata.com","kind":"lake","sort_rank":367,"boundary":true,"min_zoom":0.0,"id":337},"arcs":[12]},{"type":"LineString","properties":{"source":"naturalearthdata.com","kind":"ocean","sort_rank":205,"boundary":true,"min_zoom":0.0,"id":1201},"arcs":[13]},{"type":"LineString","properties":{"source":"naturalearthdata.com","kind":"ocean","sort_rank":205,"boundary":true,"min_zoom":0.0,"id":1406},"arcs":[14]}]},"buildings":{"type":"GeometryCollection","geometries":[]},"places":{"type":"GeometryCollection","geometries":[{"type":"Point","properties":{"name:wa":"Tchili","old_name:vi":"Ch\u00ed L\u1ee3i","name:ps":"\u0686\u06d0\u0644\u064a","name:ka":"\u10e9\u10d8\u10da\u10d4","name:mt":"\u010aili","name:tr":"\u015eili","name:cv":"\u0427\u0438\u043b\u0438","name:km":"\u179f\u17ca\u17b8\u179b\u17b8","name:kk":"\u0427\u0438\u043b\u0438","name:tt":"\u0427\u0438\u043b\u0438","name:co":"Cile","name:kv":"\u0427\u0438\u043b\u0438","name:ku":"\u015e\u00eele","name:ti":"\u127a\u120a","name:ks":"\u0686\u0650\u0644\u06cc","name:to":"Sili","name:tl":"Tsile","name:pa":"\u0a1a\u0a3f\u0a32\u0a47","name:os":"\u0427\u0438\u043b\u0438","name:or":"\u0b1a\u0b3f\u0b32\u0b4d\u0b32\u0b40","name:ce":"\u0427\u0438\u043b\u0438","name:ta":"\u0b9a\u0bbf\u0bb2\u0bbf","name:tg":"\u0427\u0438\u043b\u0438","name:ca":"Xile","name:te":"\u0c1a\u0c3f\u0c32\u0c3f","name:hr":"\u010cile","name:ln":"S\u00edli","name:sr":"\u0427\u0438\u043b\u0435","name:dz":"\u0f45\u0f72\u0f0b\u0f63\u0f72","source":"openstreetmap.org","name:rw":"Shili","name:nv":"Ch\u00edilii","name:kn":"\u0c9a\u0cbf\u0cb2\u0cbf","name:dv":"\u0797\u07a8\u078d\u07a9","name:lv":"\u010c\u012ble","name:lt":"\u010cil\u0117","name:uz":"Chili","name:he":"\u05e6'\u05d9\u05dc\u05d4","min_zoom":2.0,"kind":"country","name:ur":"\u0686\u0644\u06cc","name:la":"Chilia","name:lg":"Cile","name:uk":"\u0427\u0456\u043b\u0456","name:hy":"\u0549\u056b\u056c\u056b","name:ug":"\u0686\u0649\u0644\u0649","name:li":"Chili","name:qu":"Chili","name:lo":"\u0e8a\u0eb4\u0eaa\u0eb4","population":16634603,"name:el":"\u03a7\u03b9\u03bb\u03ae","name:eo":"\u0108ilio","name":"Chile","official_name":"Rep\u00fablica de Chile","name:tk":"\u00c7ili","name:ee":"Tsile nutome","name:th":"\u0e1b\u0e23\u0e30\u0e40\u0e17\u0e28\u0e0a\u0e34\u0e25\u0e35","name:eu":"Txile","name:et":"T\u0161iili","name:nl":"Chili","name:yo":"Or\u00edl\u1eb9\u0301\u00e8de \u1e63\u00edl\u00e8","name:ay":"Chili","name:yi":"\u05d8\u05e9\u05d9\u05dc\u05e2","name:rn":"Shili","name:az":"\u00c7ile","name:id":"Chili","name:ms":"Cile","name:mr":"\u091a\u093f\u0932\u0940","name:ar":"\u0634\u064a\u0644\u064a","name:my":"\u1001\u103b\u102e\u101c\u102e","name:io":"Chili","name:ak":"Kyili","name:am":"\u127a\u120a","name:it":"Cile","name:ml":"\u0d1a\u0d3f\u0d32\u0d3f","name:ru":"\u0427\u0438\u043b\u0438","name:ab":"\u0427\u0438\u043b\u0438","name:mi":"Hiri","id":424311104,"name:mk":"\u0427\u0438\u043b\u0435","name:af":"Chili","name:zu":"i-Chile","name:ha":"Cayile","name:mn":"\u0427\u0438\u043b\u0438","name:ff":"Cilii","name:hi":"\u091a\u093f\u0932\u0940","name:mg":"Shili","name:fo":"Kili","alt_name:vi":"Chi-l\u00ea","name:fr":"Chili","name:wo":"Sili","name:ky":"\u0427\u0438\u043b\u0438","name:zh-yue":"\u667a\u5229","name:fy":"Sily","name:vo":"Cil\u00e4n","name:zh":"\u667a\u5229","name:so":"Jili","name:sl":"\u010cile","name:sk":"\u010cile","name:ja":"\u30c1\u30ea","name:si":"\u0da0\u0dd2\u0dbd\u0dd3","name:sh":"\u010cile","name:sg":"Shil\u00efi","name:na":"Tsire","name:se":"\u010ciile","name:sc":"Cile","name:ne":"\u091a\u093f\u0932\u0940","name:sa":"\u091a\u093f\u0932\u0947","name:bs":"\u010cile","name:bm":"Sili","name:bn":"\u099a\u09bf\u09b2\u09bf","name:bo":"\u0f45\u0f72\u0f0b\u0f63\u0f72\u0f0d","name:be":"\u0427\u044b\u043b\u0456","name:su":"Chili","name:bg":"\u0427\u0438\u043b\u0438","name:ss":"IShile","name:ba":"\u0427\u0438\u043b\u0438","name:sq":"Kili","name:ko":"\uce60\ub808","name:ga":"An tSile","name:gd":"An t-Sile","name:ht":"Chili","name:jv":"Chili","name:fa":"\u0634\u06cc\u0644\u06cc","name:gv":"Yn \u00c7hillee","name:gu":"\u0a9a\u0abf\u0ab2\u0ac0"},"coordinates":[3401,1983]},{"type":"Point","properties":{"source":"naturalearthdata.com","kind":"locality","name":"Santiago","country_capital":true,"population":5720000,"min_zoom":2.0,"id":7283},"coordinates":[3519,1621]},{"type":"Point","properties":{"name:pt":"Regi\u00e3o de B\u00edo-B\u00edo","name:ja":"\u30d3\u30aa\u30d3\u30aa\u5dde","min_zoom":4.0,"name:la":"Regio Fiofina seu Fluvii Fiofii","name:it":"Regione del B\u00edo B\u00edo","name:uk":"VIII \u0420\u0435\u0433\u0456\u043e\u043d \u0411\u0456\u043e\u0431\u0456\u043e","name:ru":"\u0411\u0438\u043e-\u0411\u0438\u043e","name:hu":"B\u00edo-B\u00edo","id":655417187,"name:ca":"Regi\u00f3 del B\u00edo-B\u00edo","population":1982649,"kind":"region","name:en":"Biob\u00edo Region","name":"Regi\u00f3n del Biob\u00edo","kind_detail":"state","source":"openstreetmap.org","name:fr":"Biob\u00edo","name:zh":"\u6bd4\u5965\u6bd4\u5965\u5927\u533a"},"coordinates":[3202,783]},{"type":"Point","properties":{"name:pt":"Regi\u00e3o de Maule","name:ja":"\u30de\u30a6\u30ec\u5dde","name:tr":"Maule b\u00f6lgesi","min_zoom":4.0,"name:la":"Regio Mauleufina seu Fluvii Mauleufi","name:it":"Regione del Maule","name:uk":"VII \u0420\u0435\u0433\u0456\u043e\u043d \u041c\u0430\u0443\u043b\u0435","name:ru":"\u041c\u0430\u0443\u043b\u0435","name:hu":"Maule","id":647620803,"name:ca":"Regi\u00f3 del Maule","population":999685,"kind":"region","name:en":"Maule Region","name":"Regi\u00f3n del Maule","kind_detail":"state","source":"openstreetmap.org","name:fr":"Maule","name:zh":"\u9a6c\u4e4c\u83b1\u5927\u533a"},"coordinates":[3370,1158]},{"type":"Point","properties":{"name:rm":"VI Regiun dal Libertador General Bernardo O'Higgins","name:pt":"Regi\u00e3o de O'Higgins","name:ja":"\u30ea\u30d9\u30eb\u30bf\u30c9\u30fc\u30eb\u30fb\u30d9\u30eb\u30ca\u30eb\u30c9\u30fb\u30aa\u30a4\u30ae\u30f3\u30b9\u5dde","min_zoom":4.0,"name:la":"Regio O'higginiana seu Libertatoris Ducis Bernardi O'Higginii","name:it":"Regione del Libertador General Bernardo O'Higgins","name:ru":"\u041e-\u0425\u0438\u0433\u0433\u0438\u043d\u0441","name:hu":"Libertador General Bernardo O'Higgins","id":647606814,"name:ca":"Regi\u00f3 d'O'Higgins","population":849120,"kind":"region","name:en":"O'Higgins Region","name":"Regi\u00f3n del Libertador General Bernardo O'Higgins","kind_detail":"state","source":"openstreetmap.org","name:fr":"Libertador General Bernardo O'Higgins"},"coordinates":[3452,1387]},{"type":"Point","properties":{"kind":"region","name:en":"Coquimbo Region","name":"Regi\u00f3n de Coquimbo","kind_detail":"state","name:pt":"Regi\u00e3o de Coquimbo","name:la":"Regio Cucimpensis seu Cucimpi","source":"openstreetmap.org","name:fr":"Coquimbo","name:eo":"Kokimbio","name:ru":"\u041a\u043e\u043a\u0438\u043c\u0431\u043e","min_zoom":4.0,"id":647623220,"population":687659},"coordinates":[3477,2200]},{"type":"Point","properties":{"name:ro":"Regiunea Atacama","name:ja":"\u30a2\u30bf\u30ab\u30de\u5dde","name:eo":"Atakamo","min_zoom":4.0,"name:it":"Regione di Atacama","name:uk":"III \u0420\u0435\u0433\u0456\u043e\u043d \u0410\u0442\u0430\u043a\u0430\u043c\u0430","name:ru":"\u0410\u0442\u0430\u043a\u0430\u043c\u0430","id":647624375,"population":272402,"kind":"region","name:en":"Atacama Region","name":"Regi\u00f3n de Atacama","kind_detail":"state","source":"openstreetmap.org","name:fr":"Atacama","name:zh":"\u963f\u5854\u5361\u9a6c\u5927\u533a"},"coordinates":[3638,2888]},{"type":"Point","properties":{"kind":"region","name":"R\u00edo Negro","kind_detail":"state","name:eo":"Rio-Negra Provinco","source":"openstreetmap.org","min_zoom":4.0,"name:ru":"\u0420\u0438\u043e-\u041d\u0435\u0433\u0440\u043e","id":618300943},"coordinates":[4075,107]},{"type":"Point","properties":{"source":"openstreetmap.org","kind":"region","name":"Neuqu\u00e9n","kind_detail":"state","min_zoom":4.0,"name:eo":"Ne\u016dkena Provinco","id":618291415},"coordinates":[3671,562]},{"type":"Point","properties":{"kind":"region","name":"Mendoza","kind_detail":"state","name:he":"\u05de\u05e0\u05d3\u05d5\u05e1\u05d4","name:eo":"Mendoza Provinco","source":"openstreetmap.org","min_zoom":4.0,"name:uk":"\u041c\u0435\u043d\u0434\u043e\u0441\u0430","name:ru":"\u041c\u0435\u043d\u0434\u043e\u0441\u0430","id":618290369},"coordinates":[3905,1315]},{"type":"Point","properties":{"kind":"region","name":"San Juan","kind_detail":"state","name:eo":"Sankta-Johana Provinco","source":"openstreetmap.org","min_zoom":4.0,"name:ru":"\u0421\u0430\u043d-\u0425\u0443\u0430\u043d","id":618300944},"coordinates":[3787,2211]},{"type":"Point","properties":{"kind":"region","name:en":"Antofagasta Region","name":"Regi\u00f3n de Antofagasta","kind_detail":"state","name:pt":"Regi\u00e3o de Antofagasta","source":"openstreetmap.org","name:fr":"Antofagasta","name:it":"Regione di Antofagasta","name:uk":"II \u0420\u0435\u0433\u0456\u043e\u043d \u0410\u043d\u0442\u043e\u0444\u0430\u0491\u0430\u0441\u0442\u0430","name:ru":"\u0410\u043d\u0442\u043e\u0444\u0430\u0433\u0430\u0441\u0442\u0430","min_zoom":4.0,"id":647624582},"coordinates":[3808,3739]},{"type":"Point","properties":{"name:ja":"\u30e9\u30fb\u30a2\u30e9\u30a6\u30ab\u30cb\u30a2\u5dde","min_zoom":4.0,"name:la":"Regio Raucana seu Araucaniae","name:it":"Regione dell'Araucan\u00eda","name:uk":"IX \u0420\u0435\u0433\u0456\u043e\u043d \u0410\u0440\u0430\u0443\u043a\u0430\u043d\u0456\u044f","name:ru":"\u0410\u0440\u0430\u0443\u043a\u0430\u043d\u0438\u044f","name:hu":"Araucan\u00eda","id":655420663,"kind":"region","name:en":"Araucan\u00eda Region","name":"Regi\u00f3n de la Araucan\u00eda","kind_detail":"state","name:de":"Region IX Araukanien","source":"openstreetmap.org","name:fr":"Araucanie","name:zh":"\u963f\u52b3\u5361\u5c3c\u4e9a\u5927\u533a"},"coordinates":[3230,498]},{"type":"Point","properties":{"name:pt":"Regi\u00e3o de Los Rios","name:ja":"\u30ed\u30b9\u30fb\u30ea\u30aa\u30b9\u5dde","min_zoom":4.0,"name:la":"Regio Fluminum","name:it":"Regione di Los R\u00edos","name:uk":"XIV \u0420\u0435\u0433\u0456\u043e\u043d \u041b\u043e\u0441-\u0420\u0456\u043e\u0441","name:ru":"\u041b\u043e\u0441-\u0420\u0438\u043e\u0441","name:hu":"Los R\u00edos","id":655422989,"kind":"region","name:en":"Los R\u00edos Region","name":"Regi\u00f3n de Los R\u00edos","kind_detail":"state","source":"openstreetmap.org","name:fr":"Fleuves","name:zh":"\u6cb3\u5927\u533a"},"coordinates":[3155,216]},{"type":"Point","properties":{"kind":"region","name:en":"Valparaiso Region","name":"Regi\u00f3n de Valpara\u00edso","kind_detail":"state","name:pt":"Regi\u00e3o de Valparaiso","source":"openstreetmap.org","name:fr":"Valparaiso","name:eo":"Valparaiso","name:it":"Regione di Valparaiso","min_zoom":4.0,"id":924836600},"coordinates":[3486,1804]}]},"transit":{"type":"GeometryCollection","geometries":[]},"pois":{"type":"GeometryCollection","geometries":[{"type":"Point","properties":{"kind":"nature_reserve","name":"Parque Marino Nazca-Desventuradas","area":377727000000,"source":"openstreetmap.org","min_zoom":4.0,"tier":2,"id":-7714582,"osm_relation":true},"coordinates":[1822,3175]}]},"boundaries":{"type":"GeometryCollection","geometries":[{"type":"LineString","properties":{"source":"naturalearthdata.com","kind":"country","sort_rank":262,"kind_detail":"2","min_zoom":0.0,"id":32},"arcs":[0]},{"type":"LineString","properties":{"source":"naturalearthdata.com","kind":"country","sort_rank":262,"kind_detail":"2","min_zoom":0.0,"id":241},"arcs":[1]}]},"roads":{"type":"GeometryCollection","geometries":[]},"earth":{"type":"GeometryCollection","geometries":[{"type":"MultiPolygon","properties":{"sort_rank":10,"source":"naturalearthdata.com","min_zoom":0.0,"kind":"earth","area":14028125193060},"arcs":[[[15]],[[16]]]}]},"landuse":{"type":"GeometryCollection","geometries":[{"type":"Polygon","properties":{"kind":"nature_reserve","name":"Parque Provincial Laguna del Diamante","area":2880270080,"sort_rank":23,"source":"openstreetmap.org","min_zoom":4.0,"tier":2,"id":-6836235,"osm_relation":true},"arcs":[[17]]},{"type":"Polygon","properties":{"kind":"nature_reserve","name":"Reserva Nacional de Fauna Andina Eduardo Avaroa","area":8012539904,"sort_rank":23,"operator":"SERNAP","source":"openstreetmap.org","min_zoom":4.0,"tier":2,"id":-445306,"osm_relation":true},"arcs":[[18]]},{"type":"Polygon","properties":{"kind":"nature_reserve","name":"\u00c1rea Marina Costera Protegida de M\u00faltiples Usos Mar de Juan Fern\u00e1ndez","area":15995499520,"sort_rank":23,"source":"openstreetmap.org","min_zoom":4.0,"tier":2,"id":-7734854,"osm_relation":true},"arcs":[[19],[20],[21],[22]]},{"type":"Polygon","properties":{"kind":"park","name":"Parque Nacional Puyehue","area":1867980032,"sort_rank":24,"source":"openstreetmap.org","min_zoom":4.0,"tier":2,"id":-4741077,"osm_relation":true},"arcs":[[23]]},{"type":"Polygon","properties":{"kind":"park","name":"Parque Provincial Los Andes","area":18410600448,"sort_rank":24,"source":"openstreetmap.org","min_zoom":4.0,"tier":2,"id":-2848225,"osm_relation":true},"arcs":[[24]]},{"type":"Polygon","properties":{"kind":"nature_reserve","name":"Parque Nacional Talampaya","area":2895379968,"sort_rank":23,"source":"openstreetmap.org","min_zoom":4.0,"tier":2,"id":379767268},"arcs":[[25]]},{"type":"Polygon","properties":{"kind":"park","name":"Reserva Nacional \u00d1uble","area":1179480064,"sort_rank":24,"source":"openstreetmap.org","min_zoom":4.0,"tier":2,"id":-4741429,"osm_relation":true},"arcs":[[26]]},{"type":"Polygon","properties":{"kind":"nature_reserve","name":"Area Natural Protegida Auca Mahuida","area":1224749952,"sort_rank":23,"source":"openstreetmap.org","min_zoom":4.0,"tier":2,"id":206488399},"arcs":[[27]]},{"type":"Polygon","properties":{"kind":"park","name":"Parque Nacional Llullaillaco","area":3398190080,"sort_rank":24,"source":"openstreetmap.org","min_zoom":4.0,"tier":2,"id":-4741406,"osm_relation":true},"arcs":[[28]]},{"type":"Polygon","properties":{"kind":"park","name":"Parque Provincial Volc\u00e1n Tupungato","area":2820600064,"sort_rank":24,"source":"openstreetmap.org","min_zoom":4.0,"tier":2,"id":-6602119,"osm_relation":true},"arcs":[[29]]},{"type":"Polygon","properties":{"kind":"nature_reserve","name":"Parque Nacional San Guillermo","area":1917590016,"sort_rank":23,"source":"openstreetmap.org","min_zoom":4.0,"tier":2,"id":368823207},"arcs":[[30]]},{"type":"Polygon","properties":{"kind":"park","name":"Parque Nacional Nahuel Huapi","area":12578400256,"sort_rank":24,"source":"openstreetmap.org","min_zoom":4.0,"tier":2,"id":-2744139,"osm_relation":true},"arcs":[[31],[32]]},{"type":"Polygon","properties":{"kind":"park","name":"Parque Natural Provincial Valle F\u00e9rtil","area":10443700224,"sort_rank":24,"source":"openstreetmap.org","min_zoom":4.0,"tier":2,"id":-3302078,"osm_relation":true},"arcs":[[33]]},{"type":"Polygon","properties":{"kind":"nature_reserve","name":"Reserva de la Biosfera Archipi\u00e9lago de Juan Fern\u00e1ndez","area":17714999296,"sort_rank":23,"source":"openstreetmap.org","min_zoom":4.0,"tier":2,"id":-6958708,"osm_relation":true},"arcs":[[34]]},{"type":"Polygon","properties":{"kind":"nature_reserve","name":"Sitio Ramsar Lagunas de Guanacache, Desaguadero y Del Bebedero","area":12871300096,"sort_rank":23,"source":"openstreetmap.org","min_zoom":4.0,"tier":2,"id":409596584},"arcs":[[35]]},{"type":"Polygon","properties":{"kind":"nature_reserve","name":"Reserva Biol\u00f3gica Huilo Huilo","area":1545660032,"sort_rank":23,"source":"openstreetmap.org","min_zoom":4.0,"tier":2,"id":-6809830,"osm_relation":true},"arcs":[[36]]},{"type":"Polygon","properties":{"kind":"nature_reserve","name":"Reserva de la Biosfera Bosque Fray Jorge","area":1802029952,"sort_rank":23,"source":"openstreetmap.org","min_zoom":4.0,"tier":2,"id":-6958709,"osm_relation":true},"arcs":[[37]]},{"type":"Polygon","properties":{"kind":"nature_reserve","name":"Parque Marino Nazca-Desventuradas","area":377726992384,"sort_rank":23,"source":"openstreetmap.org","min_zoom":4.0,"tier":2,"id":-7714582,"osm_relation":true},"arcs":[[38]]},{"type":"Polygon","properties":{"kind":"nature_reserve","name":"Parque Marino Montes Submarinos Crusoe y Selkirk","area":1563209984,"sort_rank":23,"source":"openstreetmap.org","min_zoom":4.0,"tier":2,"id":-7735089,"osm_relation":true},"arcs":[[39]]},{"type":"Polygon","properties":{"kind":"park","name":"Parque Nacional Lan\u00edn","area":6970010112,"sort_rank":24,"operator":"Administraci\u00f3n de Parques Nacionales","source":"openstreetmap.org","min_zoom":4.0,"tier":2,"id":-2744138,"osm_relation":true},"arcs":[[40]]},{"type":"MultiPolygon","properties":{"source":"naturalearthdata.com","kind":"urban_area","name":"","area":35746977038,"sort_rank":11,"min_zoom":4.0},"arcs":[[[41]],[[42]],[[43]],[[44]],[[45]],[[46]],[[47]],[[48]],[[49]],[[50]],[[51]],[[52]],[[53]],[[54]],[[55]],[[56]],[[57]]]},{"type":"Polygon","properties":{"kind":"nature_reserve","name":"Reserva de Bi\u00f3sfera y Reserva Provincial San Guillermo","area":12968899584,"sort_rank":23,"source":"openstreetmap.org","min_zoom":4.0,"tier":2,"id":431048773},"arcs":[[58]]},{"type":"Polygon","properties":{"kind":"park","name":"Parque Nacional Vicente P\u00e9rez Rosales","area":4348930048,"sort_rank":24,"source":"openstreetmap.org","min_zoom":4.0,"tier":2,"id":-2625616,"osm_relation":true},"arcs":[[59]]},{"type":"Polygon","properties":{"kind":"park","name":"Parque Nacional Villarrica","area":1005129984,"sort_rank":24,"source":"openstreetmap.org","min_zoom":4.0,"tier":2,"id":-6751346,"osm_relation":true},"arcs":[[60]]}]}},"type":"Topology","transform":{"translate":[-90.0,-40.9798980696],"scale":[0.0054931641,0.0046476691]},"arcs":[[[3990,4096],[1,-9],[16,-16],[6,-31],[2,-17],[-1,-11],[13,-34],[1,-30],[-3,-21],[0,-12],[2,-8],[11,-8],[4,-4],[16,-3],[23,0],[15,3]],[[3299,0],[1,19],[-13,22],[2,21],[9,15],[8,21],[6,18],[7,9],[11,4],[2,10],[-5,7],[-14,12],[-3,15],[3,11],[7,6],[11,0],[8,16],[2,20],[2,9],[-6,12],[-5,27],[-4,15],[5,7],[7,2],[12,-3],[9,1],[1,9],[1,8],[3,6],[8,20],[8,25],[2,18],[-3,47],[5,11],[9,10],[12,9],[16,8],[20,11],[25,4],[10,13],[7,16],[2,14],[-10,9],[-12,11],[-6,28],[-3,26],[-2,33],[-13,29],[-13,31],[-3,29],[4,15],[5,25],[-5,11],[-7,20],[7,15],[8,25],[-1,12],[-6,29],[-6,17],[6,18],[9,16],[8,9],[-1,14],[3,12],[14,8],[13,14],[10,2],[11,0],[7,4],[3,11],[2,13],[19,15],[10,14],[20,3],[9,15],[0,20],[-2,20],[7,23],[-8,35],[1,18],[-7,15],[1,17],[-4,10],[-11,4],[-4,14],[5,6],[11,5],[13,10],[10,48],[5,15],[5,17],[-1,9],[7,13],[8,20],[12,19],[7,13],[7,17],[2,11],[9,5],[11,2],[12,3],[5,7],[-1,9],[-1,21],[-4,33],[-2,43],[2,28],[8,28],[8,15],[-2,12],[-2,13],[-14,7],[-13,-6],[-10,2],[-12,15],[-3,15],[2,22],[9,14],[4,17],[-6,5],[-11,11],[-11,39],[1,34],[-11,8],[-5,26],[-11,10],[-5,19],[-3,20],[1,9],[12,2],[7,16],[-5,9],[-9,8],[-12,-1],[-10,9],[-14,38],[-11,21],[4,30],[2,24],[5,20],[1,16],[9,8],[8,-4],[7,2],[7,13],[8,8],[-1,7],[-4,7],[-2,12],[5,15],[9,34],[14,37],[5,14],[-1,12],[3,5],[9,-6],[27,6],[9,17],[3,15],[8,8],[-3,12],[-11,3],[-7,6],[3,13],[4,31],[-1,22],[-10,48],[-8,48],[6,16],[17,22],[13,9],[3,13],[13,56],[1,31],[9,17],[5,32],[24,27],[7,19],[9,1],[5,6],[13,21],[16,20],[14,11],[4,16],[6,23],[14,37],[8,26],[10,10],[13,34],[5,20],[14,8],[11,2],[10,-9],[11,2],[10,12],[24,8],[11,4],[5,12],[0,20],[-10,16],[-20,29],[-18,33],[-2,10],[0,11],[3,14],[9,16],[21,27],[-3,19],[-15,70],[-6,19],[-10,36],[1,14],[10,39],[8,16],[12,3],[6,5],[2,7],[-8,9],[-3,11],[-4,16],[-11,6],[-6,13],[0,20],[10,25],[11,7],[4,11],[12,10],[10,8],[9,15],[37,18],[30,14],[57,27],[13,6]],[[3996,3872],[-12,-109],[2,-43],[-11,-7],[-21,12],[-20,-4],[-23,-6],[-5,4],[-2,9],[31,78],[19,42],[21,34],[12,2],[9,-12]],[[3229,155],[0,-7],[-2,-2],[-10,0],[-23,2],[-17,4],[-2,8],[1,8],[5,6],[18,8],[18,1],[5,-4],[5,-4],[1,-5],[0,-7],[1,-8]],[[0,4096],[3609,0],[-2,-7],[-8,-47],[-5,-78],[-13,-63],[-11,-26],[-11,-14],[-21,-5],[-1,-25],[-4,-17],[1,-25],[14,-24],[16,-10],[5,-8],[-3,-19],[-14,-28],[-3,-22],[-3,-18],[3,-34],[-8,-44],[-5,-67],[3,-29],[21,-85],[-1,-17],[-7,-27],[-16,-24],[-10,-12],[-15,-51],[3,-17],[11,-28],[-5,-50],[3,-23],[-7,-20],[-4,-37],[-17,-53],[-2,-23],[-16,-51],[-3,-26],[1,-43],[-3,-18],[-3,-6],[-20,-24],[-6,-18],[-12,-54],[-6,-68],[-15,-27],[-7,-36],[-14,-23],[-20,-16],[-5,-16],[6,-58],[25,-33],[4,-20],[2,-44],[-6,-61],[-9,-45],[-49,-41],[-7,-64],[0,-28],[10,-49],[-2,-39],[16,-71],[9,-66],[2,-87],[17,-38],[-7,-33],[2,-26],[-26,-66],[-8,-12],[-19,-15],[8,-42],[0,-30],[11,-20],[-5,-28],[-30,-36],[-5,-15],[-13,-28],[-14,-32],[2,-26],[-7,-29],[-4,-42],[-23,-65],[-8,-38],[-30,-31],[-12,-22],[-9,-23],[-11,-12],[-11,-17],[7,-38],[-18,-25],[-17,-22],[-17,-89],[-17,-31],[-7,-23],[-21,-10],[-3,-24],[-3,-16],[-4,-38],[-8,-25],[-10,-8],[-18,-4],[-42,8],[-6,-15],[-5,-18],[11,-30],[-11,-24],[0,-23],[27,-46],[9,-28],[-1,-19],[-11,-51],[2,-30],[7,-25],[47,-129],[-5,-43],[-29,-79],[-13,-14],[-34,-23],[0,-26],[-13,-39],[-8,-44],[-25,-87],[-11,-22],[0,-1],[-2916,0],[0,4096]],[[2028,1593],[-3,0],[-2,0],[-9,-8],[-8,-7],[-2,-3],[2,-2],[32,5],[6,1],[1,3],[-3,4],[-10,5],[-4,2]],[[3166,69],[12,9],[28,-1],[4,-4],[0,-5],[-18,-9],[-19,3],[-7,7]],[[4096,3483],[-12,-31],[-9,-23],[-8,-6],[-13,12],[-7,16],[-24,31],[-13,-10],[5,15],[9,15],[10,1],[24,13],[34,41],[4,2],[0,-76]],[[4096,3483],[-12,-31],[-9,-23],[-8,-6],[-13,12],[-7,16],[-24,31],[-13,-10],[5,15],[9,15],[10,1],[24,13],[34,41],[4,2]],[[3996,3872],[-12,-109],[2,-43],[-11,-7],[-21,12],[-20,-4],[-23,-6],[-5,4],[-2,9],[31,78],[19,42],[21,34],[12,2],[9,-12]],[[3121,0],[1,1],[5,-1]],[[3229,155],[0,-7],[-2,-2],[-10,0],[-23,2],[-17,4],[-2,8],[1,8],[5,6],[18,8],[18,1],[5,-4],[5,-4],[1,-5],[0,-7],[1,-8]],[[3166,69],[12,9],[28,-1],[4,-4],[0,-5],[-18,-9],[-19,3],[-7,7]],[[3609,4096],[-2,-7],[-8,-47],[-5,-78],[-13,-63],[-11,-26],[-11,-14],[-21,-5],[-1,-25],[-4,-17],[1,-25],[14,-24],[16,-10],[5,-8],[-3,-19],[-14,-28],[-3,-22],[-3,-18],[3,-34],[-8,-44],[-5,-67],[3,-29],[21,-85],[-1,-17],[-7,-27],[-16,-24],[-10,-12],[-15,-51],[3,-17],[11,-28],[-5,-50],[3,-23],[-7,-20],[-4,-37],[-17,-53],[-2,-23],[-16,-51],[-3,-26],[1,-43],[-3,-18],[-3,-6],[-20,-24],[-6,-18],[-12,-54],[-6,-68],[-15,-27],[-7,-36],[-14,-23],[-20,-16],[-5,-16],[6,-58],[25,-33],[4,-20],[2,-44],[-6,-61],[-9,-45],[-49,-41],[-7,-64],[0,-28],[10,-49],[-2,-39],[16,-71],[9,-66],[2,-87],[17,-38],[-7,-33],[2,-26],[-26,-66],[-8,-12],[-19,-15],[8,-42],[0,-30],[11,-20],[-5,-28],[-30,-36],[-5,-15],[-13,-28],[-14,-32],[2,-26],[-7,-29],[-4,-42],[-23,-65],[-8,-38],[-30,-31],[-12,-22],[-9,-23],[-11,-12],[-11,-17],[7,-38],[-18,-25],[-17,-22],[-17,-89],[-17,-31],[-7,-23],[-21,-10],[-3,-24],[-3,-16],[-4,-38],[-8,-25],[-10,-8],[-18,-4],[-42,8],[-6,-15],[-5,-18],[11,-30],[-11,-24],[0,-23],[27,-46],[9,-28],[-1,-19],[-11,-51],[2,-30],[7,-25],[47,-129],[-5,-43],[-29,-79],[-13,-14],[-34,-23],[0,-26],[-13,-39],[-8,-44],[-25,-87],[-11,-22],[0,-1]],[[2032,1591],[-4,2],[-3,0],[-2,0],[-9,-8],[-8,-7],[-2,-3],[2,-2],[32,5],[6,1],[1,3],[-3,4],[-10,5]],[[2038,1578],[-32,-5],[-2,2],[2,3],[8,7],[9,8],[2,0],[3,0],[4,-2],[10,-5],[3,-4],[-1,-3],[-6,-1]],[[3609,4096],[487,0],[0,-4096],[-1180,0],[0,1],[11,22],[25,87],[8,44],[13,39],[0,26],[34,23],[13,14],[29,79],[5,43],[-47,129],[-7,25],[-2,30],[11,51],[1,19],[-9,28],[-27,46],[0,23],[11,24],[-11,30],[5,18],[6,15],[42,-8],[18,4],[10,8],[8,25],[4,38],[3,16],[3,24],[21,10],[7,23],[17,31],[17,89],[17,22],[18,25],[-7,38],[11,17],[11,12],[9,23],[12,22],[30,31],[8,38],[23,65],[4,42],[7,29],[-2,26],[14,32],[13,28],[5,15],[30,36],[5,28],[-11,20],[0,30],[-8,42],[19,15],[8,12],[26,66],[-2,26],[7,33],[-17,38],[-2,87],[-9,66],[-16,71],[2,39],[-10,49],[0,28],[7,64],[49,41],[9,45],[6,61],[-2,44],[-4,20],[-25,33],[-6,58],[5,16],[20,16],[14,23],[7,36],[15,27],[6,68],[12,54],[6,18],[20,24],[3,6],[3,18],[-1,43],[3,26],[16,51],[2,23],[17,53],[4,37],[7,20],[-3,23],[5,50],[-11,28],[-3,17],[15,51],[10,12],[16,24],[7,27],[1,17],[-21,85],[-3,29],[5,67],[8,44],[-3,34],[3,18],[3,22],[14,28],[3,19],[-5,8],[-16,10],[-14,24],[-1,25],[4,17],[1,25],[21,5],[11,14],[11,26],[13,63],[5,78],[8,47],[2,7]],[[3657,1439],[21,11],[-10,41],[54,-11],[14,37],[43,-33],[-35,-71],[-87,26]],[[3996,4084],[100,-27],[0,-160],[-12,-7],[-58,14],[8,64],[-38,116]],[[1625,1552],[43,53],[354,25],[39,-13],[27,-45],[-24,-39],[-47,-14],[-335,-20],[-57,53]],[[1668,1555],[6,-13],[8,1],[-2,18],[-12,-6]],[[2012,1571],[2,-1],[13,8],[17,-5],[-19,14],[-13,-16]],[[1814,1563],[22,-35],[84,29],[-23,31],[-83,-25]],[[3216,52],[38,34],[-36,34],[42,-28],[45,17],[-5,-41],[-47,-24],[15,-37],[-52,45]],[[3904,3490],[54,77],[138,64],[0,-142],[-192,1]],[[3956,2415],[0,20],[111,2],[-1,-121],[-110,99]],[[3358,853],[53,22],[27,-63],[-34,-8],[-46,49]],[[3787,653],[32,35],[-20,54],[54,-20],[11,-37],[-67,-24],[8,-18],[-18,10]],[[3778,3402],[18,49],[42,9],[38,85],[39,-21],[-31,-123],[-106,1]],[[3624,1706],[7,42],[97,-36],[-21,-32],[26,-30],[-16,-19],[-61,33],[-16,-17],[-16,59]],[[3738,2526],[2,21],[22,-18],[4,52],[34,-13],[-12,-111],[-50,69]],[[3283,51],[26,69],[30,12],[-8,48],[113,-125],[8,-50],[-158,-5],[-11,51]],[[3326,64],[20,-39],[-6,18],[21,-13],[-35,34]],[[4001,2237],[92,-1],[3,-5],[0,-203],[-73,-43],[-17,3],[-5,249]],[[1625,1552],[43,53],[354,25],[39,-13],[27,-45],[-24,-39],[-47,-14],[-335,-20],[-57,53]],[[3882,1809],[41,122],[173,3],[0,-87],[-122,40],[-19,-81],[-73,3]],[[3261,174],[26,97],[48,-15],[-5,-48],[-9,18],[-15,12],[-10,1],[26,-29],[-34,-40],[-27,4]],[[3328,2233],[7,55],[36,-15],[-13,-138],[-20,3],[-10,95]],[[1123,3148],[53,283],[152,238],[225,158],[264,51],[281,-65],[222,-158],[150,-239],[52,-284],[-3,-60],[-972,0],[0,-581],[-174,107],[-134,152],[-87,189],[-29,209]],[[1814,1563],[83,25],[23,-31],[-84,-29],[-22,35]],[[3308,188],[3,6],[26,-3],[14,41],[-23,57],[47,11],[8,100],[37,-4],[5,-97],[-28,1],[23,-46],[-21,-11],[-11,-93],[43,-83],[-100,113],[-10,-34],[-13,42]],[[3985,451],[20,0],[13,-8],[-54,-13],[21,21]],[[3180,480],[-18,-10],[-4,19],[23,8],[-1,-17]],[[3710,806],[5,-19],[-21,-6],[0,19],[16,6]],[[3810,784],[-40,-24],[-16,8],[13,40],[43,-24]],[[3726,841],[11,-17],[-11,15],[-25,-19],[12,52],[13,-31]],[[3089,890],[-22,-6],[8,40],[25,-28],[-11,-6]],[[3357,1199],[-10,-12],[-16,2],[9,18],[17,-8]],[[3507,1489],[21,-22],[-15,-10],[-18,5],[12,27]],[[3358,1594],[-20,-15],[-6,66],[14,-2],[12,-49]],[[3525,1650],[37,-2],[-11,-66],[-88,-11],[40,86],[22,-7]],[[3343,1703],[17,45],[17,-38],[21,3],[-55,-10]],[[3817,1705],[28,55],[18,5],[8,-42],[-54,-18]],[[3427,2372],[-34,-9],[5,36],[37,-8],[-8,-19]],[[3572,2937],[21,3],[11,-22],[-22,-1],[-10,20]],[[3921,2052],[7,-30],[-30,-19],[-12,41],[35,8]],[[3932,1380],[23,-3],[-4,-16],[-14,0],[-5,19]],[[3577,3718],[-15,2],[3,34],[20,-15],[-8,-21]],[[3637,2499],[43,51],[25,157],[60,-3],[44,-152],[-16,-119],[-133,-45],[-23,111]],[[3224,0],[44,7],[-15,37],[30,10],[20,-49],[-79,-5]],[[3270,336],[26,19],[18,-31],[38,3],[6,-20],[4,16],[13,-22],[-27,-10],[-78,45]]]}