{"objects":{"water":{"type":"GeometryCollection","geometries":[{"type":"Polygon","properties":{"source":"naturalearthdata.com","kind":"ocean","area":1576712559132672,"sort_rank":200,"min_zoom":0.0,"id":1},"arcs":[[4],[5]]},{"type":"LineString","properties":{"source":"naturalearthdata.com","kind":"ocean","sort_rank":205,"boundary":true,"min_zoom":0.0,"id":439},"arcs":[6]}]},"buildings":{"type":"GeometryCollection","geometries":[]},"places":{"type":"GeometryCollection","geometries":[{"type":"Point","properties":{"source":"naturalearthdata.com","kind":"locality","name":"Channel-Port aux Basques","population":4220,"min_zoom":7.0,"id":4344},"coordinates":[3841,2272]}]},"transit":{"type":"GeometryCollection","geometries":[]},"pois":{"type":"GeometryCollection","geometries":[]},"boundaries":{"type":"GeometryCollection","geometries":[{"type":"LineString","properties":{"name:ty":"Tanata","name:ka":"\u10d9\u10d0\u10dc\u10d0\u10d3\u10d0","name:ko":"\uce90\ub098\ub2e4","name:cv":"\u041a\u0430\u043d\u0430\u0434\u0430","name:cu":"\u041a\u0430\u043d\u0430\u0434\u0430","name:cs":"Kanada","name:cr":"\u1473\u14c7\u1456","name:tt":"\u041a\u0430\u043d\u0430\u0434\u0430","name:co":"Canad\u00e0","name:kv":"\u041a\u0430\u043d\u0430\u0434\u0430","name:ku":"Kanada","name:tl":"Kanada","name:ce":"\u041a\u0430\u043d\u0430\u0434\u0430","name:ta":"\u0b95\u0ba9\u0b9f\u0bbe","name:tg":"\u041a\u0430\u043d\u0430\u0434\u0430","name:ca":"Canad\u00e0","name:te":"\u0c15\u0c46\u0c28\u0c21\u0c3e","name:qu":"Kanada","name:de":"Kanada","name:dz":"\u0f40\u0f7a\u0f0b\u0f53\u0f0b\u0f4c\u0f0b","source":"openstreetmap.org","name:kn":"\u0c95\u0cc6\u0ca8\u0ca1\u0cbe","name:dv":"\u0786\u07ac\u0782\u07ac\u0791\u07a7","name:km":"\u1780\u17b6\u178e\u17b6\u178a\u17b6","name:lv":"Kan\u0101da","name:lt":"Kanada","name:uz":"Kanada","name:kk":"\u041a\u0430\u043d\u0430\u0434\u0430","name:tw":"Kanada","name:lb":"Kanada","name:uk":"\u041a\u0430\u043d\u0430\u0434\u0430","name:ug":"\u0643\u0627\u0646\u0627\u062f\u0627","name:ln":"Kanad\u00e1","name:kw":"Kanada","name:eo":"Kanado","name":"Canada","name:tk":"Kanada","name:th":"\u0e1b\u0e23\u0e30\u0e40\u0e17\u0e28\u0e41\u0e04\u0e19\u0e32\u0e14\u0e32","name:eu":"Kanada","name:et":"Kanada","name:es":"Canad\u00e1","name:ay":"Kanada","name:rn":"Kanada","name:az":"Kanada","name:id":"Kanada","name:ig":"K\u00e1nada","name:el":"\u039a\u03b1\u03bd\u03b1\u03b4\u03ac\u03c2","name:as":"\u0995\u09be\u09a8\u09be\u09a1\u09be","name:ar":"\u0643\u0646\u062f\u0627","name:io":"Kanada","name:av":"\u041a\u0430\u043d\u0430\u0434\u0430","name:is":"Kanada","name:am":"\u12ab\u1293\u12f3","name:an":"Canad\u00e1","name:ru":"\u041a\u0430\u043d\u0430\u0434\u0430","name:ab":"\u041a\u0430\u043d\u0430\u0434\u0430","name:af":"Kanada","name:zu":"IKhanada","kind_detail":"2","name:ky":"\u041a\u0430\u043d\u0430\u0434\u0430","name:zh-yue":"\u52a0\u62ff\u5927","name:zh":"\u52a0\u62ff\u5927","name:so":"Kanada","name:sl":"Kanada","name:sk":"Kanada","name:ja":"\u30ab\u30ca\u30c0","name:sh":"Kanada","name:sg":"Kanad\u00e4a","name:se":"Kan\u00e1da","name:sa":"\u0915\u0947\u0928\u0921\u093e","name:bs":"Kanada","name:bm":"Kanada","name:bn":"\u0995\u09be\u09a8\u09be\u09a1\u09be","name:bo":"\u0f41\u0f0b\u0f53\u0f0b\u0f4c\u0f0d","name:br":"Kanada","name:sw":"Kanada","name:be":"\u041a\u0430\u043d\u0430\u0434\u0430","name:su":"Kanada","name:bg":"\u041a\u0430\u043d\u0430\u0434\u0430","name:ss":"IKhanada","name:ba":"\u041a\u0430\u043d\u0430\u0434\u0430","name:sq":"Kanadaja","name:jv":"Kanada","name:bi":"Kanada","name:pt":"Canad\u00e1","name:ps":"\u06a9\u0627\u0646\u0627\u0689\u0627","name:oc":"Canad\u00e0","min_zoom":8.0,"name:pa":"\u0a15\u0a48\u0a28\u0a47\u0a21\u0a3e","name:os":"\u041a\u0430\u043d\u0430\u0434\u00e6","name:or":"\u0b15\u0b3e\u0b28\u0b3e\u0b21\u0b3c\u0b3e","name:pl":"Kanada","sort_rank":262,"name:sr":"\u041a\u0430\u043d\u0430\u0434\u0430","osm_relation":true,"name:ik":"Kanada","name:tr":"Kanada","name:hi":"\u0915\u0928\u093e\u0921\u093e","name:sv":"Kanada","name:he":"\u05e7\u05e0\u05d3\u05d4","name:ha":"Kanada","name:hy":"\u053f\u0561\u0576\u0561\u0564\u0561","name:ht":"Kanada","name:hu":"Kanada","name:hr":"Kanada","kind":"country","name:yi":"\u05e7\u05d0\u05e0\u05d0\u05d3\u05e2","name:iu":"\u1472\u14c7\u1455 \/ kanata","name:yo":"K\u00e1n\u00e1d\u00e0","name:mt":"Kanada","name:ms":"Kanada","name:mr":"\u0915\u0945\u0928\u0921\u093e","name:my":"\u1000\u1014\u1031\u1012\u102b\u1014\u102d\u102f\u1004\u103a\u1004\u1036","name:mg":"Kanada","name:ml":"\u0d15\u0d3e\u0d28\u0d21","name:mn":"\u041a\u0430\u043d\u0430\u0434","name:mi":"K\u0101nata","id":-1428125,"name:mk":"\u041a\u0430\u043d\u0430\u0434\u0430","name:vo":"Kanad\u00e4n","name:fa":"\u06a9\u0627\u0646\u0627\u062f\u0627","name:rw":"Kanada","name:fi":"Kanada","old_name:vi":"Gia N\u00e3 \u0110\u1ea1i","name:fo":"Kanada","alt_name:vi":"Ca-na-\u0111a","name:fy":"Kanada","name:na":"Kanada","name:ne":"\u0915\u094d\u092f\u093e\u0928\u093e\u0921\u093e","name:ur":"\u06a9\u06cc\u0646\u06cc\u0688\u0627","name:wo":"Kanadaa","name:nv":"Deeteel Bik\u00e9yah","name:ga":"Ceanada","name:gn":"Kanat\u00e3","name:gl":"Canad\u00e1","maritime_boundary":true,"name:gv":"Yn Chanadey","name:gu":"\u0a95\u0ac7\u0aa8\u0ac7\u0aa1\u0abe"},"arcs":[0]},{"type":"LineString","properties":{"name:pt":"Terra Nova e Labrador","name:ka":"\u10dc\u10d8\u10e3\u10e4\u10d0\u10e3\u10dc\u10d3\u10da\u10d4\u10dc\u10d3\u10d8 \u10d3\u10d0 \u10da\u10d0\u10d1\u10e0\u10d0\u10d3\u10dd\u10e0\u10d8","name:ko":"\ub274\ud380\ub4e4\ub79c\ub4dc \ub798\ube0c\ub77c\ub3c4 \uc8fc","name:kl":"Newfoundland aamma Labrador","name:cs":"Newfoundland a Labrador","name:kw":"Tir Nowydh ha Labrador","name:th":"\u0e23\u0e31\u0e10\u0e19\u0e34\u0e27\u0e1f\u0e31\u0e19\u0e14\u0e4c\u0e41\u0e25\u0e19\u0e14\u0e4c\u0e41\u0e25\u0e30\u0e41\u0e25\u0e1a\u0e23\u0e32\u0e14\u0e2d\u0e23\u0e4c","name:az":"Nyufaundlend v\u0259 Labrador","name:tl":"Newfoundland at Labrador","name:pa":"\u0a28\u0a3f\u0a0a\u0a2b\u0a3c\u0a70\u0a21\u0a32\u0a48\u0a02\u0a21 \u0a05\u0a24\u0a47 \u0a32\u0a3e\u0a2c\u0a30\u0a3e\u0a21\u0a4b\u0a30","name:os":"\u041d\u044c\u044e\u0444\u0430\u0443\u043d\u0434\u043b\u0435\u043d\u0434 \u00e6\u043c\u00e6 \u041b\u0430\u0431\u0440\u0430\u0434\u043e\u0440","name:pl":"Nowa Fundlandia i Labrador","name:ta":"\u0ba8\u0bbf\u0baf\u0bc2\u0b83\u0baa\u0bb5\u0bc1\u0ba9\u0bcd\u0bb2\u0bbe\u0ba8\u0bcd\u0ba4\u0bc1 \u0bae\u0bb1\u0bcd\u0bb1\u0bc1\u0bae\u0bcd \u0bb2\u0bbe\u0baa\u0bcd\u0bb0\u0b9f\u0bcb\u0bb0\u0bcd","name:ca":"Terranova i Labrador","name:cy":"Newfoundland a Labrador","source":"openstreetmap.org","sort_rank":256,"name:qu":"Newfoundland wan Labrador pruwinsya","name:da":"Newfoundland og Labrador","name:de":"Neufundland und Labrador","name:tr":"Newfoundland ve Labrador","name:sq":"Toka e Re dhe Labradori","name:be":"\u041f\u0440\u0430\u0432\u0456\u043d\u0446\u044b\u044f \u041d\u044c\u044e\u0444\u0430\u045e\u043d\u0434\u043b\u0435\u043d\u0434 \u0456 \u041b\u0430\u0431\u0440\u0430\u0434\u043e\u0440","name:lv":"\u0145\u016bfaundlenda un Labradora","name:lt":"Niufaundlandas ir Labradoras","name:uz":"Nyufaundlend va Labrador","name:he":"\u05e0\u05d9\u05d5\u05e4\u05d0\u05d5\u05e0\u05d3\u05dc\u05e0\u05d3 \u05d5\u05dc\u05d1\u05e8\u05d3\u05d5\u05e8","name:eo":"Novlando kaj Labradoro","name:ur":"\u0646\u06cc\u0648 \u0641\u0627\u0624\u0646\u0688 \u0644\u06cc\u0646\u0688 \u0627\u0648\u0631 \u0644\u06cc\u0628\u0631\u0627\u0688\u0648\u0631","name:lb":"Neifundland a Labrador","name:la":"Terra Nova et Terra Laboratoria","name:uk":"\u041d\u044c\u044e\u0444\u0430\u0443\u043d\u0434\u043b\u0435\u043d\u0434 \u0456 \u041b\u0430\u0431\u0440\u0430\u0434\u043e\u0440","name:hy":"\u0546\u0575\u0578\u0582\u0586\u0561\u0578\u0582\u0576\u0564\u056c\u0565\u0576\u0564 \u0587 \u053c\u0561\u0562\u0580\u0561\u0564\u0578\u0580","name:ug":"N\u00e9wfundland \u00d6lkisi","name:hu":"\u00daj-Fundland \u00e9s Labrador","name:hr":"Newfoundland i Labrador","name:oc":"T\u00e8rran\u00f2va e Labrador","name:el":"\u039d\u03ad\u03b1 \u0393\u03b7 \u03ba\u03b1\u03b9 \u039b\u03b1\u03bc\u03c0\u03c1\u03b1\u03bd\u03c4\u03cc\u03c1","kind":"region","name":"Newfoundland and Labrador","min_zoom":8.0,"name:eu":"Ternua eta Labrador","name:et":"Newfoundland ja Labrador","name:es":"Terranova y Labrador","name:ro":"Newfoundland \u0219i Labrador","name:ie":"Nov-Fundland e Labrador","name:id":"Newfoundland dan Labrador","name:ms":"Newfoundland dan Labrador","name:mr":"\u0928\u094d\u092f\u0942\u092b\u093e\u0909\u0902\u0921\u0932\u0902\u0921 \u0906\u0923\u093f \u0932\u093e\u092c\u094d\u0930\u093e\u0921\u094b\u0930","name:ar":"\u0646\u064a\u0648\u0641\u0627\u0648\u0646\u062f\u0644\u0627\u0646\u062f \u0648\u0627\u0644\u0644\u0627\u0628\u0631\u0627\u062f\u0648\u0631","name:io":"Newfoundland e Labrador","name:is":"N\u00fdfundnaland og Labrador","name:it":"Terranova e Labrador","name:ru":"\u041d\u044c\u044e\u0444\u0430\u0443\u043d\u0434\u043b\u0435\u043d\u0434 \u0438 \u041b\u0430\u0431\u0440\u0430\u0434\u043e\u0440","name:vi":"Newfoundland v\u00e0 Labrador","name:mn":"\u041d\u044c\u044e\u0444\u0430\u0443\u043d\u0434\u043b\u0435\u043d\u0434 \u0431\u0430 \u041b\u0430\u0431\u0440\u0430\u0434\u043e\u0440","id":-391196,"name:mk":"\u040a\u0443\u0444\u0430\u0443\u043d\u0434\u043b\u0435\u043d\u0434 \u0438 \u041b\u0430\u0431\u0440\u0430\u0434\u043e\u0440","name:af":"Newfoundland en Labrador","name:fa":"\u0646\u06cc\u0648\u0641\u0627\u0646\u062f\u0644\u0646\u062f \u0648 \u0644\u0627\u0628\u0631\u0627\u062f\u0648\u0631","kind_detail":"4","name:fo":"N\u00fdfundland og Labrador","name:fr":"Terre-Neuve et Labrador","name:fy":"Nijf\u00fbnl\u00e2n en Labrador","name:vo":"Newfoundland e Labrador","name:zh":"\u7d10\u82ac\u862d\u8207\u62c9\u5e03\u62c9\u591a\u7701","name:sl":"Nova Fundlandija in Labrador","name:nl":"Newfoundland en Labrador","name:ja":"\u30cb\u30e5\u30fc\u30d5\u30a1\u30f3\u30c9\u30e9\u30f3\u30c9\u30fb\u30e9\u30d6\u30e9\u30c9\u30fc\u30eb\u5dde","name:nn":"Newfoundland og Labrador","name:no":"Newfoundland og Labrador","name:sc":"Terranova e Labrador","name:br":"Douar-Nevez ha Labrador","name:bs":"Newfoundland i Labrador","name:yi":"\u05e0\u05d9\u05d9\u05e4\u05d5\u05e0\u05d3\u05dc\u05d0\u05e0\u05d3 \u05d0\u05d5\u05df \u05dc\u05d0\u05d1\u05e8\u05d0\u05d3\u05d0\u05e8","name:sk":"Newfoundland a Labrador","name:sv":"Newfoundland och Labrador","name:bg":"\u041d\u044e\u0444\u0430\u0443\u043d\u0434\u043b\u0435\u043d\u0434 \u0438 \u041b\u0430\u0431\u0440\u0430\u0434\u043e\u0440","name:sr":"\u040a\u0443\u0444\u0430\u0443\u043d\u0434\u043b\u0435\u043d\u0434 \u0438 \u041b\u0430\u0431\u0440\u0430\u0434\u043e\u0440","osm_relation":true,"name:ga":"Talamh an \u00c9isc agus Labradar","name:gd":"An Talamh \u00d9r is Labrador","name:yo":"Newfoundland \u00e0ti Labrador","name:gl":"Terra Nova e Labrador","maritime_boundary":true,"name:gv":"Thalloo yn Eeast as Labrador","name:fi":"Newfoundland ja Labrador"},"arcs":[1]},{"type":"LineString","properties":{"name:pt":"Nova Esc\u00f3cia","name:ka":"\u10d0\u10ee\u10d0\u10da\u10d8 \u10e8\u10dd\u10e2\u10da\u10d0\u10dc\u10d3\u10d8\u10d0","name:ko":"\ub178\ubc14\uc2a4\ucf54\uc0e4 \uc8fc","name:cs":"Nov\u00e9 Skotsko","name:kw":"Alban Nowydh","min_zoom":8.0,"name:az":"Yeni \u015eotlandiya","name:pa":"\u0a28\u0a4b\u0a35\u0a3e \u0a38\u0a15\u0a4b\u0a38\u0a3c\u0a3e","name:os":"\u041d\u043e\u0433 \u0428\u043e\u0442\u043b\u0430\u043d\u0434\u0438","name:pl":"Nowa Szkocja","name:ta":"\u0ba8\u0bcb\u0bb5\u0bbe \u0bb8\u0bcd\u0b95\u0bcb\u0b9a\u0bbf\u0baf\u0bbe","name:ca":"Nova Esc\u00f2cia","source":"openstreetmap.org","sort_rank":256,"name:qu":"Nova Scotia pruwinsya","name:de":"Neuschottland","name:tr":"Yeni \u0130sko\u00e7ya","osm_relation":true,"name:lv":"Jaunskotija","name:lt":"Naujoji \u0160kotija","name:uz":"Yangi Shotlandiya","name:he":"\u05e0\u05d5\u05d1\u05d4 \u05e1\u05e7\u05d5\u05d8\u05d9\u05d4","name:eo":"Nov-Skotio","name:ur":"\u0646\u0648\u0648\u0627 \u0633\u06a9\u0648\u0634\u06cc\u0627","name:uk":"\u041d\u043e\u0432\u0430 \u0428\u043e\u0442\u043b\u0430\u043d\u0434\u0456\u044f","name:hy":"\u0546\u0578\u0580 \u0547\u0578\u057f\u056c\u0561\u0576\u0564\u056b\u0561","name:ug":"Nowa Skotiye \u00d6lkisi","name:hu":"\u00daj-Sk\u00f3cia","name:hr":"Nova \u0160kotska","name:oc":"N\u00f2va Esc\u00f2cia","name:el":"\u039d\u03ad\u03b1 \u03a3\u03ba\u03c9\u03c4\u03af\u03b1","kind":"region","name":"Nova Scotia","name:th":"\u0e23\u0e31\u0e10\u0e42\u0e19\u0e27\u0e32\u0e2a\u0e42\u0e01\u0e40\u0e0a\u0e35\u0e22","name:yi":"\u05e0\u05d0\u05d5\u05d5\u05e2 \u05e1\u05e7\u05d0\u05e9\u05e2","name:es":"Nueva Escocia","name:ro":"Noua Sco\u021bie","name:mr":"\u0928\u094b\u0935\u094d\u0939\u093e \u0938\u094d\u0915\u0949\u0936\u093f\u092f\u093e","name:ar":"\u0646\u0648\u0641\u0627 \u0633\u0643\u0648\u0634\u0627","name:io":"Nova Skotia","name:it":"Nuova Scozia","name:ru":"\u041d\u043e\u0432\u0430\u044f \u0428\u043e\u0442\u043b\u0430\u043d\u0434\u0438\u044f","name:mn":"\u041d\u043e\u0432\u0430 \u0421\u043a\u043e\u0448\u0430","id":-390558,"name:mk":"\u041d\u043e\u0432\u0430 \u0428\u043a\u043e\u0442\u0441\u043a\u0430","name:fa":"\u0646\u0648\u0627 \u0627\u0633\u06a9\u0648\u0634\u06cc\u0627","kind_detail":"4","name:fr":"Nouvelle-\u00c9cosse","name:fy":"Nij-Skotl\u00e2n","name:zh":"\u65b0\u65af\u79d1\u820d\u7701","name:sl":"Nova \u0160kotska","name:sk":"Nov\u00e9 \u0160k\u00f3tsko","name:ja":"\u30ce\u30d0\u30b9\u30b3\u30b7\u30a2\u5dde","name:br":"Skos Nevez","name:bs":"Nova \u0160kotska","name:eu":"Eskozia Berria","name:be":"\u041f\u0440\u0430\u0432\u0456\u043d\u0446\u044b\u044f \u041d\u043e\u0432\u0430\u044f \u0428\u0430\u0442\u043b\u0430\u043d\u0434\u044b\u044f","name:bg":"\u041d\u043e\u0432\u0430 \u0421\u043a\u043e\u0442\u0438\u044f","name:sr":"\u041d\u043e\u0432\u0430 \u0428\u043a\u043e\u0442\u0441\u043a\u0430","name:sq":"Skocia e Re","name:ga":"Albain Nua","name:gd":"Alba Nuadh","name:gl":"Nova Escocia","maritime_boundary":true,"name:gv":"Nalbin Noa"},"arcs":[2]},{"type":"LineString","properties":{"name:pt":"Quebec","name:ka":"\u10d9\u10d5\u10d4\u10d1\u10d4\u10d9\u10d8","name:ko":"\ud018\ubca1","name:kn":"\u0c95\u0ccd\u0cb5\u0cbf\u0cac\u0cc6\u0c95\u0ccd","name:cs":"Quebec","name:cr":"\u146f\u142f\u1483","name:tt":"\u041a\u0432\u0435\u0431\u0435\u043a","name:kw":"Kebek","name:th":"\u0e23\u0e31\u0e10\u0e04\u0e27\u0e34\u0e40\u0e1a\u0e01","name:pa":"\u0a15\u0a47\u0a2c\u0a48\u0a71\u0a15","name:os":"\u041a\u0432\u0435\u0431\u0435\u043a","name:pl":"Quebec","name:ta":"\u0b95\u0bbf\u0baf\u0bc2\u0baa\u0bc6\u0b95\u0bcd","name:ug":"Kw\u00e9b\u00e9k","name:ca":"Quebec","sort_rank":256,"name:qu":"Quebec pruwinsya","name:mr":"\u0915\u094d\u0935\u0947\u092c\u0947\u0915","source":"openstreetmap.org","osm_relation":true,"name:lv":"Kvebeka","name:lt":"Kvebekas","name:hi":"\u0915\u094d\u092f\u0942\u092c\u0947\u0915","name:kk":"\u041a\u0432\u0435\u0431\u0435\u043a","name:he":"\u05e7\u05d5\u05d5\u05d9\u05d1\u05e7","name:eo":"Kebekio","name:ur":"\u06a9\u06cc\u0648\u0628\u06cc\u06a9","name:la":"Quebecum","name:uk":"\u041a\u0432\u0435\u0431\u0435\u043a","name:hy":"\u0554\u057e\u0565\u0562\u0565\u056f","name:ht":"Keb\u00e8k","name:ln":"K\u00e9beki","name:lo":"\u0ec1\u0e82\u0ea7\u0e87\u0ec0\u0e81\u0ec1\u0e9a\u0eb1\u0e81","name:oc":"Queb\u00e8c","name:co":"Quebec","kind":"region","name:en":"Quebec","name":"Qu\u00e9bec","name:bn":"\u0995\u09bf\u0989\u09ac\u09c7\u0995","min_zoom":8.0,"name:eu":"Quebec","name:am":"\u12ac\u1260\u12ad","name:es":"Quebec","name:az":"\u0729\u071d\u0712\u0729","name:id":"Quebec","name:ms":"Quebec","name:el":"\u039a\u03b5\u03bc\u03c0\u03ad\u03ba","name:ar":"\u0643\u064a\u0628\u0643","name:io":"Kebekia","name:iu":"\u146f\u1438\u1403\u1483","name:ml":"\u0d15\u0d4d\u0d2f\u0d42\u0d2c\u0d46\u0d15\u0d4d","name:ru":"\u041a\u0432\u0435\u0431\u0435\u043a","name:mn":"\u041a\u044d\u0431\u044d\u043a","name:mi":"Quebec","id":-61549,"name:mk":"\u041a\u0432\u0435\u0431\u0435\u043a","name:af":"Quebec","name:fa":"\u06a9\u0628\u06a9","kind_detail":"4","name:uz":"Kvebek","name:fy":"Kebek","name:zh":"\u9b41\u5317\u514b","name:nl":"Quebec","name:ja":"\u30b1\u30d9\u30c3\u30af\u5dde","name:nn":"Quebec","name:br":"Kebek","name:yi":"\u05e7\u05d5\u05d5\u05d9\u05d1\u05e2\u05e7","name:jv":"Quebec","name:sk":"Quebec","name:sw":"Quebec","name:be":"\u041f\u0440\u0430\u0432\u0456\u043d\u0446\u044b\u044f \u041a\u0432\u0435\u0431\u0435\u043a","name:su":"Quebec","name:bg":"\u041a\u0432\u0435\u0431\u0435\u043a","name:sr":"\u041a\u0432\u0435\u0431\u0435\u043a","name:sq":"Kebeku","name:gd":"Quebec","name:wa":"Kebek","name:gl":"Quebec","maritime_boundary":true,"name:gu":"\u0a95\u0acd\u0ab5\u0abf\u0aac\u0ac7\u0a95","name:fi":"Quebec"},"arcs":[3]}]},"roads":{"type":"GeometryCollection","geometries":[{"type":"LineString","properties":{"kind":"major_road","sort_rank":377,"kind_detail":"tertiary","is_bicycle_related":true,"bicycle_shield_text":"TCT","bicycle_network":"ncn","source":"openstreetmap.org","min_zoom":8.0,"ref":"407-9","id":122444479},"arcs":[7]},{"type":"LineString","properties":{"kind":"major_road","network":"CA:NL:R","sort_rank":381,"kind_detail":"trunk","source":"openstreetmap.org","min_zoom":8.0,"shield_text":"1","ref":"1"},"arcs":[8]},{"type":"LineString","properties":{"source":"openstreetmap.org","kind":"major_road","sort_rank":380,"kind_detail":"primary","ref":"408","min_zoom":8.0,"id":148399065},"arcs":[9]},{"type":"LineString","properties":{"kind":"minor_road","sort_rank":360,"kind_detail":"residential","is_bicycle_related":true,"bicycle_shield_text":"TCT","bicycle_network":"ncn","source":"openstreetmap.org","min_zoom":8.0},"arcs":[10]},{"type":"LineString","properties":{"source":"openstreetmap.org","kind":"major_road","sort_rank":380,"kind_detail":"primary","ref":"408-5","min_zoom":8.0,"id":148399066},"arcs":[11]},{"type":"LineString","properties":{"source":"openstreetmap.org","kind":"major_road","sort_rank":380,"kind_detail":"primary","ref":"406-13","min_zoom":8.0,"id":145595589},"arcs":[12]},{"type":"LineString","properties":{"kind":"major_road","sort_rank":377,"kind_detail":"tertiary","is_bicycle_related":true,"bicycle_shield_text":"TCT","bicycle_network":"ncn","source":"openstreetmap.org","min_zoom":8.0},"arcs":[13]},{"type":"LineString","properties":{"sort_rank":355,"source":"openstreetmap.org","min_zoom":8.0,"name":"North Sydney - Port aux Basques Ferry","kind":"ferry"},"arcs":[14]},{"type":"MultiLineString","properties":{"kind":"path","sort_rank":354,"kind_detail":"path","is_bicycle_related":true,"bicycle_shield_text":"TCT","bicycle_network":"ncn","source":"openstreetmap.org","min_zoom":8.0},"arcs":[[15],[16],[17],[18]]}]},"earth":{"type":"GeometryCollection","geometries":[{"type":"MultiPolygon","properties":{"sort_rank":10,"source":"naturalearthdata.com","min_zoom":0.0,"kind":"earth","area":2903799823},"arcs":[[[19]]]}]},"landuse":{"type":"GeometryCollection","geometries":[]}},"type":"Topology","transform":{"translate":[-60.46875,47.0401821448],"scale":[0.0003433228,0.00023187]},"arcs":[[[1441,0],[130,150],[1807,1328],[282,-64],[436,13]],[[3440,4096],[-166,-204],[-210,-135],[1,-100],[91,-94],[-5,-117],[105,-26],[39,-281],[71,-103],[-34,-209],[6,-307],[260,-201],[160,-50],[106,-28],[232,40]],[[690,0],[358,827],[-217,14],[-801,-737],[-30,-5]],[[0,2846],[189,263],[-47,987]],[[3483,4096],[-89,-108],[-18,-45],[-12,-48],[-19,-38],[-41,-16],[-64,5],[-33,-4],[-22,-16],[-29,-30],[-28,-18],[-23,-28],[-9,-56],[6,-43],[14,-28],[80,-109],[14,-31],[5,-41],[16,-23],[67,-41],[15,-26],[2,-100],[16,-85],[42,-55],[81,-10],[-37,-103],[-35,-156],[-15,-160],[27,-111],[-14,-61],[21,-35],[41,-17],[43,-5],[49,-18],[27,-44],[21,-49],[33,-39],[34,-3],[35,15],[38,5],[80,-62],[50,-13],[101,-1],[143,37],[0,-2282],[-4096,0],[0,4096],[3483,0]],[[961,758],[-9,31],[-13,-1],[-32,-55],[-18,-20],[-4,-11],[-6,-13],[-2,-27],[-5,-15],[6,-20],[27,1],[25,20],[15,24],[17,53],[-1,33]],[[3483,4096],[-89,-108],[-18,-45],[-12,-48],[-19,-38],[-41,-16],[-64,5],[-33,-4],[-22,-16],[-29,-30],[-28,-18],[-23,-28],[-9,-56],[6,-43],[14,-28],[80,-109],[14,-31],[5,-41],[16,-23],[67,-41],[15,-26],[2,-100],[16,-85],[42,-55],[81,-10],[-37,-103],[-35,-156],[-15,-160],[27,-111],[-14,-61],[21,-35],[41,-17],[43,-5],[49,-18],[27,-44],[21,-49],[33,-39],[34,-3],[35,15],[38,5],[80,-62],[50,-13],[101,-1],[143,37]],[[3492,3137],[-1,-2]],[[3868,2337],[-65,39],[-8,46],[-131,49],[-65,52],[2,75],[-28,48],[-97,37],[-101,141],[26,134],[46,38],[76,156],[94,66],[100,177],[234,181],[21,61],[52,38],[72,6]],[[3478,2681],[-30,-15],[-1,-88]],[[3770,2431],[0,-2]],[[3447,2578],[-13,-62],[-45,-12]],[[3655,3407],[34,-45]],[[3550,2490],[-60,32]],[[2649,0],[1082,1983],[212,263],[-2,29],[-67,42]],[[3491,3135],[-106,-215],[-20,-174],[125,-224]],[[4096,3699],[-75,-23],[-54,-41],[-13,-53],[-154,-93],[-223,-262],[-88,-54],[3,-36]],[[3550,2490],[60,-36],[160,-23]],[[3770,2429],[32,-54]],[[4096,4096],[0,-1814],[-143,-37],[-101,1],[-50,13],[-80,62],[-38,-5],[-35,-15],[-34,3],[-33,39],[-21,49],[-27,44],[-49,18],[-43,5],[-41,17],[-21,35],[14,61],[-27,111],[15,160],[35,156],[37,103],[-81,10],[-42,55],[-16,85],[-2,100],[-15,26],[-67,41],[-16,23],[-5,41],[-14,31],[-80,109],[-14,28],[-6,43],[9,56],[23,28],[28,18],[29,30],[22,16],[33,4],[64,-5],[41,16],[19,38],[12,48],[18,45],[89,108],[613,0]]]}