{"objects":{"water":{"type":"GeometryCollection","geometries":[{"type":"MultiPolygon","properties":{"source":"naturalearthdata.com","kind":"ocean","area":1576712559132672,"sort_rank":200,"min_zoom":0.0,"id":1},"arcs":[[[2]],[[3]]]},{"type":"MultiLineString","properties":{"source":"naturalearthdata.com","kind":"ocean","sort_rank":205,"boundary":true,"min_zoom":0.0,"id":2593},"arcs":[[4],[5],[6],[7],[8]]}]},"buildings":{"type":"GeometryCollection","geometries":[]},"places":{"type":"GeometryCollection","geometries":[]},"transit":{"type":"GeometryCollection","geometries":[]},"pois":{"type":"GeometryCollection","geometries":[]},"boundaries":{"type":"GeometryCollection","geometries":[{"type":"LineString","properties":{"name:ty":"Tanata","name:ka":"\u10d9\u10d0\u10dc\u10d0\u10d3\u10d0","name:ko":"\uce90\ub098\ub2e4","name:cv":"\u041a\u0430\u043d\u0430\u0434\u0430","name:cu":"\u041a\u0430\u043d\u0430\u0434\u0430","name:cs":"Kanada","name:cr":"\u1473\u14c7\u1456","name:tt":"\u041a\u0430\u043d\u0430\u0434\u0430","name:co":"Canad\u00e0","name:kv":"\u041a\u0430\u043d\u0430\u0434\u0430","name:ku":"Kanada","name:tl":"Kanada","name:ce":"\u041a\u0430\u043d\u0430\u0434\u0430","name:ta":"\u0b95\u0ba9\u0b9f\u0bbe","name:tg":"\u041a\u0430\u043d\u0430\u0434\u0430","name:ca":"Canad\u00e0","name:te":"\u0c15\u0c46\u0c28\u0c21\u0c3e","name:qu":"Kanada","name:de":"Kanada","name:dz":"\u0f40\u0f7a\u0f0b\u0f53\u0f0b\u0f4c\u0f0b","source":"openstreetmap.org","name:kn":"\u0c95\u0cc6\u0ca8\u0ca1\u0cbe","name:dv":"\u0786\u07ac\u0782\u07ac\u0791\u07a7","name:km":"\u1780\u17b6\u178e\u17b6\u178a\u17b6","name:lv":"Kan\u0101da","name:lt":"Kanada","name:uz":"Kanada","name:kk":"\u041a\u0430\u043d\u0430\u0434\u0430","name:tw":"Kanada","name:lb":"Kanada","name:uk":"\u041a\u0430\u043d\u0430\u0434\u0430","name:ug":"\u0643\u0627\u0646\u0627\u062f\u0627","name:ln":"Kanad\u00e1","name:kw":"Kanada","name:eo":"Kanado","name":"Canada","name:tk":"Kanada","name:th":"\u0e1b\u0e23\u0e30\u0e40\u0e17\u0e28\u0e41\u0e04\u0e19\u0e32\u0e14\u0e32","name:eu":"Kanada","name:et":"Kanada","name:es":"Canad\u00e1","name:ay":"Kanada","name:rn":"Kanada","name:az":"Kanada","name:id":"Kanada","name:ig":"K\u00e1nada","name:el":"\u039a\u03b1\u03bd\u03b1\u03b4\u03ac\u03c2","name:as":"\u0995\u09be\u09a8\u09be\u09a1\u09be","name:ar":"\u0643\u0646\u062f\u0627","name:io":"Kanada","name:av":"\u041a\u0430\u043d\u0430\u0434\u0430","name:is":"Kanada","name:am":"\u12ab\u1293\u12f3","name:an":"Canad\u00e1","name:ru":"\u041a\u0430\u043d\u0430\u0434\u0430","name:ab":"\u041a\u0430\u043d\u0430\u0434\u0430","name:af":"Kanada","name:zu":"IKhanada","kind_detail":"2","name:ky":"\u041a\u0430\u043d\u0430\u0434\u0430","name:zh-yue":"\u52a0\u62ff\u5927","name:zh":"\u52a0\u62ff\u5927","name:so":"Kanada","name:sl":"Kanada","name:sk":"Kanada","name:ja":"\u30ab\u30ca\u30c0","name:sh":"Kanada","name:sg":"Kanad\u00e4a","name:se":"Kan\u00e1da","name:sa":"\u0915\u0947\u0928\u0921\u093e","name:bs":"Kanada","name:bm":"Kanada","name:bn":"\u0995\u09be\u09a8\u09be\u09a1\u09be","name:bo":"\u0f41\u0f0b\u0f53\u0f0b\u0f4c\u0f0d","name:br":"Kanada","name:sw":"Kanada","name:be":"\u041a\u0430\u043d\u0430\u0434\u0430","name:su":"Kanada","name:bg":"\u041a\u0430\u043d\u0430\u0434\u0430","name:ss":"IKhanada","name:ba":"\u041a\u0430\u043d\u0430\u0434\u0430","name:sq":"Kanadaja","name:jv":"Kanada","name:bi":"Kanada","name:pt":"Canad\u00e1","name:ps":"\u06a9\u0627\u0646\u0627\u0689\u0627","name:oc":"Canad\u00e0","min_zoom":8.0,"name:pa":"\u0a15\u0a48\u0a28\u0a47\u0a21\u0a3e","name:os":"\u041a\u0430\u043d\u0430\u0434\u00e6","name:or":"\u0b15\u0b3e\u0b28\u0b3e\u0b21\u0b3c\u0b3e","name:pl":"Kanada","sort_rank":262,"name:sr":"\u041a\u0430\u043d\u0430\u0434\u0430","osm_relation":true,"name:ik":"Kanada","name:tr":"Kanada","name:hi":"\u0915\u0928\u093e\u0921\u093e","name:sv":"Kanada","name:he":"\u05e7\u05e0\u05d3\u05d4","name:ha":"Kanada","name:hy":"\u053f\u0561\u0576\u0561\u0564\u0561","name:ht":"Kanada","name:hu":"Kanada","name:hr":"Kanada","kind":"country","name:yi":"\u05e7\u05d0\u05e0\u05d0\u05d3\u05e2","name:iu":"\u1472\u14c7\u1455 \/ kanata","name:yo":"K\u00e1n\u00e1d\u00e0","name:mt":"Kanada","name:ms":"Kanada","name:mr":"\u0915\u0945\u0928\u0921\u093e","name:my":"\u1000\u1014\u1031\u1012\u102b\u1014\u102d\u102f\u1004\u103a\u1004\u1036","name:mg":"Kanada","name:ml":"\u0d15\u0d3e\u0d28\u0d21","name:mn":"\u041a\u0430\u043d\u0430\u0434","name:mi":"K\u0101nata","id":-1428125,"name:mk":"\u041a\u0430\u043d\u0430\u0434\u0430","name:vo":"Kanad\u00e4n","name:fa":"\u06a9\u0627\u0646\u0627\u062f\u0627","name:rw":"Kanada","name:fi":"Kanada","old_name:vi":"Gia N\u00e3 \u0110\u1ea1i","name:fo":"Kanada","alt_name:vi":"Ca-na-\u0111a","name:fy":"Kanada","name:na":"Kanada","name:ne":"\u0915\u094d\u092f\u093e\u0928\u093e\u0921\u093e","name:ur":"\u06a9\u06cc\u0646\u06cc\u0688\u0627","name:wo":"Kanadaa","name:nv":"Deeteel Bik\u00e9yah","name:ga":"Ceanada","name:gn":"Kanat\u00e3","name:gl":"Canad\u00e1","maritime_boundary":true,"name:gv":"Yn Chanadey","name:gu":"\u0a95\u0ac7\u0aa8\u0ac7\u0aa1\u0abe"},"arcs":[0]},{"type":"LineString","properties":{"name:pt":"Nova Esc\u00f3cia","name:ka":"\u10d0\u10ee\u10d0\u10da\u10d8 \u10e8\u10dd\u10e2\u10da\u10d0\u10dc\u10d3\u10d8\u10d0","name:ko":"\ub178\ubc14\uc2a4\ucf54\uc0e4 \uc8fc","name:cs":"Nov\u00e9 Skotsko","name:kw":"Alban Nowydh","min_zoom":8.0,"name:az":"Yeni \u015eotlandiya","name:pa":"\u0a28\u0a4b\u0a35\u0a3e \u0a38\u0a15\u0a4b\u0a38\u0a3c\u0a3e","name:os":"\u041d\u043e\u0433 \u0428\u043e\u0442\u043b\u0430\u043d\u0434\u0438","name:pl":"Nowa Szkocja","name:ta":"\u0ba8\u0bcb\u0bb5\u0bbe \u0bb8\u0bcd\u0b95\u0bcb\u0b9a\u0bbf\u0baf\u0bbe","name:ca":"Nova Esc\u00f2cia","source":"openstreetmap.org","sort_rank":256,"name:qu":"Nova Scotia pruwinsya","name:de":"Neuschottland","name:tr":"Yeni \u0130sko\u00e7ya","osm_relation":true,"name:lv":"Jaunskotija","name:lt":"Naujoji \u0160kotija","name:uz":"Yangi Shotlandiya","name:he":"\u05e0\u05d5\u05d1\u05d4 \u05e1\u05e7\u05d5\u05d8\u05d9\u05d4","name:eo":"Nov-Skotio","name:ur":"\u0646\u0648\u0648\u0627 \u0633\u06a9\u0648\u0634\u06cc\u0627","name:uk":"\u041d\u043e\u0432\u0430 \u0428\u043e\u0442\u043b\u0430\u043d\u0434\u0456\u044f","name:hy":"\u0546\u0578\u0580 \u0547\u0578\u057f\u056c\u0561\u0576\u0564\u056b\u0561","name:ug":"Nowa Skotiye \u00d6lkisi","name:hu":"\u00daj-Sk\u00f3cia","name:hr":"Nova \u0160kotska","name:oc":"N\u00f2va Esc\u00f2cia","name:el":"\u039d\u03ad\u03b1 \u03a3\u03ba\u03c9\u03c4\u03af\u03b1","kind":"region","name":"Nova Scotia","name:th":"\u0e23\u0e31\u0e10\u0e42\u0e19\u0e27\u0e32\u0e2a\u0e42\u0e01\u0e40\u0e0a\u0e35\u0e22","name:yi":"\u05e0\u05d0\u05d5\u05d5\u05e2 \u05e1\u05e7\u05d0\u05e9\u05e2","name:es":"Nueva Escocia","name:ro":"Noua Sco\u021bie","name:mr":"\u0928\u094b\u0935\u094d\u0939\u093e \u0938\u094d\u0915\u0949\u0936\u093f\u092f\u093e","name:ar":"\u0646\u0648\u0641\u0627 \u0633\u0643\u0648\u0634\u0627","name:io":"Nova Skotia","name:it":"Nuova Scozia","name:ru":"\u041d\u043e\u0432\u0430\u044f \u0428\u043e\u0442\u043b\u0430\u043d\u0434\u0438\u044f","name:mn":"\u041d\u043e\u0432\u0430 \u0421\u043a\u043e\u0448\u0430","id":-390558,"name:mk":"\u041d\u043e\u0432\u0430 \u0428\u043a\u043e\u0442\u0441\u043a\u0430","name:fa":"\u0646\u0648\u0627 \u0627\u0633\u06a9\u0648\u0634\u06cc\u0627","kind_detail":"4","name:fr":"Nouvelle-\u00c9cosse","name:fy":"Nij-Skotl\u00e2n","name:zh":"\u65b0\u65af\u79d1\u820d\u7701","name:sl":"Nova \u0160kotska","name:sk":"Nov\u00e9 \u0160k\u00f3tsko","name:ja":"\u30ce\u30d0\u30b9\u30b3\u30b7\u30a2\u5dde","name:br":"Skos Nevez","name:bs":"Nova \u0160kotska","name:eu":"Eskozia Berria","name:be":"\u041f\u0440\u0430\u0432\u0456\u043d\u0446\u044b\u044f \u041d\u043e\u0432\u0430\u044f \u0428\u0430\u0442\u043b\u0430\u043d\u0434\u044b\u044f","name:bg":"\u041d\u043e\u0432\u0430 \u0421\u043a\u043e\u0442\u0438\u044f","name:sr":"\u041d\u043e\u0432\u0430 \u0428\u043a\u043e\u0442\u0441\u043a\u0430","name:sq":"Skocia e Re","name:ga":"Albain Nua","name:gd":"Alba Nuadh","name:gl":"Nova Escocia","maritime_boundary":true,"name:gv":"Nalbin Noa"},"arcs":[1]}]},"roads":{"type":"GeometryCollection","geometries":[{"type":"LineString","properties":{"sort_rank":380,"kind_detail":"primary","min_zoom":8.0,"kind":"major_road","source":"openstreetmap.org"},"arcs":[9]},{"type":"LineString","properties":{"kind":"major_road","network":"CA:NS:H","sort_rank":380,"kind_detail":"primary","source":"openstreetmap.org","min_zoom":8.0,"shield_text":"162","ref":"162"},"arcs":[10]},{"type":"MultiLineString","properties":{"kind":"highway","network":"CA:NS","sort_rank":383,"kind_detail":"motorway","source":"openstreetmap.org","min_zoom":8.0,"all_shield_texts":["125"],"shield_text":"125","osm_relation":true,"all_networks":["CA:NS"]},"arcs":[[11],[12],[13],[14],[15],[16],[17]]},{"type":"LineString","properties":{"kind":"major_road","network":"CA:NS","sort_rank":380,"kind_detail":"primary","source":"openstreetmap.org","min_zoom":8.0,"landuse_kind":"residential","shield_text":"4","ref":"4"},"arcs":[18]},{"type":"LineString","properties":{"kind":"major_road","network":"CA:NS:T","sort_rank":380,"kind_detail":"primary","source":"openstreetmap.org","min_zoom":8.0,"landuse_kind":"urban_area","shield_text":"22","ref":"22"},"arcs":[19]},{"type":"MultiLineString","properties":{"source":"openstreetmap.org","kind":"major_road","network":"CA:NS:T","sort_rank":380,"kind_detail":"primary","min_zoom":8.0,"shield_text":null},"arcs":[[20],[21],[22],[23],[24],[25],[26]]},{"type":"MultiLineString","properties":{"kind":"major_road","network":"CA:NS","sort_rank":381,"kind_detail":"trunk","source":"openstreetmap.org","min_zoom":8.0,"shield_text":"105","ref":"105"},"arcs":[[27],[28]]},{"type":"LineString","properties":{"kind":"major_road","network":"CA:NS","sort_rank":380,"kind_detail":"primary","source":"openstreetmap.org","min_zoom":8.0,"landuse_kind":"aerodrome","shield_text":"4","ref":"4","id":106854964},"arcs":[29]},{"type":"MultiLineString","properties":{"kind":"highway","network":"CA:NS","sort_rank":383,"kind_detail":"motorway","source":"openstreetmap.org","min_zoom":8.0,"all_networks":["CA:NS"],"shield_text":"125","all_shield_texts":["125"]},"arcs":[[30],[31]]},{"type":"LineString","properties":{"sort_rank":355,"source":"openstreetmap.org","min_zoom":8.0,"name":"North Sydney-Argentia Ferry","kind":"ferry"},"arcs":[32]},{"type":"LineString","properties":{"kind":"major_road","sort_rank":380,"landuse_kind":"urban_area","source":"openstreetmap.org","min_zoom":8.0,"kind_detail":"primary","ref":"4","id":162492793},"arcs":[33]},{"type":"MultiLineString","properties":{"kind":"major_road","network":"CA:NS","sort_rank":380,"kind_detail":"primary","source":"openstreetmap.org","min_zoom":8.0,"landuse_kind":"urban_area","shield_text":"4","ref":"4"},"arcs":[[34],[35],[36]]},{"type":"LineString","properties":{"kind":"major_road","network":"CA:NS","sort_rank":381,"kind_detail":"trunk","source":"openstreetmap.org","min_zoom":8.0,"nat_name":"Trans-Canada Highway","shield_text":"105","ref":"105"},"arcs":[37]},{"type":"MultiLineString","properties":{"kind":"major_road","network":"CA:NS","sort_rank":381,"nat_name":"TransCanada Highway","source":"openstreetmap.org","min_zoom":8.0,"kind_detail":"trunk","shield_text":"105","ref":"105"},"arcs":[[38],[39]]},{"type":"MultiLineString","properties":{"kind":"major_road","network":"CA:NS","sort_rank":381,"kind_detail":"trunk","source":"openstreetmap.org","min_zoom":8.0,"shield_text":"4","ref":"4"},"arcs":[[40],[41]]},{"type":"LineString","properties":{"kind":"major_road","network":"CA:NS:T","sort_rank":380,"kind_detail":"primary","source":"openstreetmap.org","min_zoom":8.0,"landuse_kind":"urban_area","shield_text":"28","ref":"28"},"arcs":[42]},{"type":"LineString","properties":{"kind":"major_road","network":"CA:NS:T","sort_rank":380,"kind_detail":"primary","source":"openstreetmap.org","min_zoom":8.0,"shield_text":"22","id":327008241},"arcs":[43]},{"type":"LineString","properties":{"source":"openstreetmap.org","kind":"major_road","landuse_kind":"residential","sort_rank":380,"kind_detail":"primary","min_zoom":8.0},"arcs":[44]},{"type":"MultiLineString","properties":{"kind":"highway","network":"CA:NS","sort_rank":383,"kind_detail":"motorway","source":"openstreetmap.org","min_zoom":8.0,"all_networks":["CA:NS"],"shield_text":"125","ref":"125","all_shield_texts":["125"]},"arcs":[[45],[46],[47],[48]]},{"type":"LineString","properties":{"kind":"major_road","network":"CA:NS:T","sort_rank":380,"kind_detail":"primary","source":"openstreetmap.org","min_zoom":8.0,"landuse_kind":"residential","shield_text":"28","ref":"28"},"arcs":[49]},{"type":"LineString","properties":{"kind":"major_road","network":"CA:NS:T","sort_rank":380,"kind_detail":"primary","source":"openstreetmap.org","min_zoom":8.0,"shield_text":"28","ref":"28"},"arcs":[50]},{"type":"LineString","properties":{"source":"openstreetmap.org","kind":"major_road","sort_rank":380,"kind_detail":"primary","ref":"4","min_zoom":8.0,"id":162623960},"arcs":[51]},{"type":"LineString","properties":{"source":"openstreetmap.org","kind":"major_road","sort_rank":380,"kind_detail":"primary","ref":"22","min_zoom":8.0,"id":480404593},"arcs":[52]},{"type":"MultiLineString","properties":{"kind":"major_road","network":"CA:NS:T","sort_rank":380,"kind_detail":"primary","source":"openstreetmap.org","min_zoom":8.0,"landuse_kind":"park","shield_text":null},"arcs":[[53],[54],[55],[56],[57],[58],[59],[60]]},{"type":"LineString","properties":{"kind":"major_road","name:en":"Highway 105;Trans-Canada Highway","sort_rank":381,"kind_detail":"trunk","name:fr":"Highway 105;Route Transcanadienne","source":"openstreetmap.org","min_zoom":8.0,"ref":"105","id":208805740},"arcs":[61]},{"type":"MultiLineString","properties":{"kind":"major_road","network":"CA:NS","sort_rank":380,"kind_detail":"primary","source":"openstreetmap.org","min_zoom":8.0,"shield_text":"4","ref":"4"},"arcs":[[62],[63],[64],[65],[66]]},{"type":"MultiLineString","properties":{"kind":"major_road","network":"CA:NS:T","sort_rank":380,"kind_detail":"primary","source":"openstreetmap.org","min_zoom":8.0,"shield_text":"22","ref":"22"},"arcs":[[67],[68]]},{"type":"LineString","properties":{"sort_rank":355,"source":"openstreetmap.org","min_zoom":8.0,"name":"North Sydney - Port aux Basques Ferry","kind":"ferry"},"arcs":[69]}]},"earth":{"type":"GeometryCollection","geometries":[{"type":"MultiPolygon","properties":{"sort_rank":10,"source":"naturalearthdata.com","min_zoom":0.0,"kind":"earth","area":27919875256},"arcs":[[[70]],[[71]],[[72]],[[73]]]}]},"landuse":{"type":"GeometryCollection","geometries":[{"type":"Polygon","properties":{"source":"openstreetmap.org","kind":"aerodrome","area":14503700,"tier":3,"id":223990112,"min_zoom":8.0,"sort_rank":60},"arcs":[[74]]},{"type":"Polygon","properties":{"kind":"residential","area":11913100,"sort_rank":20,"source":"openstreetmap.org","min_zoom":8.0,"tier":2,"id":-5448100,"osm_relation":true},"arcs":[[75],[76],[77],[78]]},{"type":"Polygon","properties":{"source":"naturalearthdata.com","kind":"urban_area","name":"","area":59925308,"sort_rank":11,"min_zoom":4.0,"id":4506},"arcs":[[79]]},{"type":"Polygon","properties":{"kind":"park","protect_class":"1","area":2024480000,"sort_rank":24,"source":"openstreetmap.org","min_zoom":4.0,"tier":2,"id":-4855583,"osm_relation":true},"arcs":[[80],[81]]},{"type":"MultiPolygon","properties":{"kind":"nature_reserve","protect_class":"1","area":160374860,"sort_rank":23,"operator":"Nova Scotia Environment","source":"openstreetmap.org","min_zoom":8.0,"tier":2,"osm_relation":true},"arcs":[[[82]]]},{"type":"MultiPolygon","properties":{"source":"openstreetmap.org","kind":"nature_reserve","tier":2,"protect_class":"1","area":268135435,"sort_rank":23,"min_zoom":7.0},"arcs":[[[83]],[[84]]]}]}},"type":"Topology","transform":{"translate":[-60.46875,46.0732306254],"scale":[0.0003433228,0.0002360721]},"arcs":[[[3076,0],[-41,198],[-100,182],[-236,280],[-81,207],[-153,216],[-122,106],[-158,89],[-200,60],[-469,233],[-411,114],[-116,119],[144,330],[32,390],[49,161],[83,508],[-24,330],[-108,263],[276,310]],[[2370,0],[-22,149],[-81,141],[-222,199],[-558,189],[-1115,537],[118,1280],[38,1244],[162,357]],[[4096,4096],[0,-4096],[-2359,0],[1,2],[179,144],[0,32],[-54,-16],[-64,-30],[-59,-43],[-41,-58],[9,130],[55,107],[78,82],[76,59],[-209,29],[-55,-18],[-95,-59],[-40,17],[10,143],[-138,45],[-290,17],[157,55],[-63,58],[-71,37],[-76,18],[-78,5],[-47,-26],[-63,-63],[-56,-80],[-25,-76],[7,-43],[12,-37],[9,-37],[-6,-43],[-32,-59],[-21,13],[-27,73],[-40,44],[-25,15],[-36,1],[-15,-15],[-21,-30],[-28,-29],[-35,-13],[228,287],[21,76],[-160,158],[-58,162],[-11,43],[-197,-65],[-343,-315],[0,75],[78,64],[44,57],[18,79],[7,53],[8,37],[-10,25],[-45,16],[-24,-5],[-76,-42],[0,382],[21,44],[118,431],[120,237],[66,59],[16,28],[3,62],[-28,30],[-40,28],[-35,53],[24,5],[37,20],[21,7],[0,26],[-36,-7],[-33,8],[-29,22],[-23,37],[138,70],[21,32],[7,61],[52,155],[45,247],[10,129],[-15,87],[-17,29],[-20,24],[-21,20],[-23,17],[-57,-40],[-103,-14],[-107,6],[-71,16],[0,32],[37,37],[-30,35],[-48,15],[0,116],[12,15],[88,158],[105,132],[44,90],[-37,40],[-71,-17],[-120,-80],[-21,-5],[0,161],[4096,0]],[[0,193],[0,188],[62,57],[136,176],[52,24],[130,9],[59,18],[61,33],[-11,-82],[-40,-42],[-56,-15],[-61,-3],[-59,-32],[-88,-141],[-34,-32],[-43,-29],[-108,-129]],[[1737,0],[1,2],[179,144],[0,32],[-54,-16],[-64,-30],[-59,-43],[-41,-58],[9,130],[55,107],[78,82],[76,59],[-209,29],[-55,-18],[-95,-59],[-40,17],[10,143],[-138,45],[-290,17],[157,55],[-63,58],[-71,37],[-76,18],[-78,5],[-47,-26],[-63,-63],[-56,-80],[-25,-76],[7,-43],[12,-37],[9,-37],[-6,-43],[-32,-59],[-21,13],[-27,73],[-40,44],[-25,15],[-36,1],[-15,-15],[-21,-30],[-28,-29],[-35,-13],[228,287],[21,76],[-160,158],[-58,162],[-11,43],[-197,-65],[-343,-315]],[[0,381],[62,57],[136,176],[52,24],[130,9],[59,18],[61,33],[-11,-82],[-40,-42],[-56,-15],[-61,-3],[-59,-32],[-88,-141],[-34,-32],[-43,-29],[-108,-129]],[[0,772],[78,64],[44,57],[18,79],[7,53],[8,37],[-10,25],[-45,16],[-24,-5],[-76,-42]],[[0,1438],[21,44],[118,431],[120,237],[66,59],[16,28],[3,62],[-28,30],[-40,28],[-35,53],[24,5],[37,20],[21,7],[0,26],[-36,-7],[-33,8],[-29,22],[-23,37],[138,70],[21,32],[7,61],[52,155],[45,247],[10,129],[-15,87],[-17,29],[-20,24],[-21,20],[-23,17],[-57,-40],[-103,-14],[-107,6],[-71,16],[0,32],[37,37],[-30,35],[-48,15]],[[0,3602],[12,15],[88,158],[105,132],[44,90],[-37,40],[-71,-17],[-120,-80],[-21,-5]],[[877,174],[3,-2]],[[465,761],[-36,111],[43,122],[-63,42]],[[607,705],[-12,-18]],[[595,687],[-35,-143],[-82,-62],[-21,-58],[16,-115],[217,-171],[74,-5],[93,22],[1,3]],[[858,158],[40,71]],[[898,229],[48,84]],[[945,313],[-47,-84]],[[898,229],[-39,-71],[-1,0]],[[858,158],[-96,-25],[-73,6],[-214,169],[-17,113],[23,62],[80,61],[34,143]],[[1451,502],[40,22]],[[804,276],[36,-56]],[[0,3359],[12,-15]],[[189,2405],[-105,-39],[19,-20],[162,-2],[-49,-72],[30,-106],[-35,-5],[21,-25],[-202,-452],[-30,-167]],[[172,2489],[15,-8]],[[176,2510],[0,-3]],[[305,2685],[15,-57],[-122,-14],[-22,-101]],[[200,2473],[1,-2]],[[362,2766],[-15,-29]],[[600,690],[-95,69]],[[654,581],[-17,44]],[[1188,434]],[[607,705],[-8,-12]],[[722,140],[131,12],[92,141]],[[654,581],[55,-7],[241,289],[114,43],[2059,21],[973,38]],[[828,264],[2,2]],[[798,259],[-48,-76]],[[798,259],[44,25]],[[842,284],[65,21]],[[505,759],[-22,2]],[[483,761],[-109,61],[-232,-85],[-132,-18],[-10,-8]],[[600,690],[37,-65]],[[549,0],[157,138]],[[695,138],[-6,-13]],[[855,287],[-37,108]],[[878,175],[-1,1],[0,-1],[0,-1],[1,1]],[[1490,524],[1,0]],[[595,687],[4,6]],[[595,687],[-22,-81],[-15,-65],[-83,-64],[-18,-82],[6,-60],[10,-26],[213,-167],[9,-5],[9,0],[18,3]],[[945,313],[-70,-136],[-121,-43],[-36,7],[-25,-4],[-219,172],[-16,86],[19,82],[82,64],[36,146]],[[945,293],[1,20]],[[1491,524],[-52,8]],[[818,395],[-39,147],[96,174],[196,65],[27,-19],[-14,-73],[91,-135],[137,41],[127,-63]],[[720,155],[-4,0]],[[876,177],[1,-2]],[[12,3344],[387,-221],[-39,-13],[-15,-71],[65,-97],[5,-75],[-53,-101]],[[176,2507],[-4,-18]],[[176,2513],[0,-3]],[[187,2481],[13,-8]],[[190,2419],[-1,-14]],[[192,2423],[-2,-4]],[[201,2471],[-9,-48]],[[347,2737],[-51,-31],[9,-21]],[[654,581],[-10,24]],[[709,141],[-14,-3]],[[706,138],[3,3]],[[750,183],[-41,-42]],[[907,305],[191,113],[90,16]],[[1188,434],[263,68]],[[840,220],[37,-44]],[[878,175],[129,-171],[4,-4]],[[654,581],[53,-3],[135,229],[1807,3289]],[[0,3602],[0,333],[21,5],[120,80],[71,17],[37,-40],[-44,-90],[-105,-132],[-88,-158],[-12,-15]],[[0,1438],[0,2048],[48,-15],[30,-35],[-37,-37],[0,-32],[71,-16],[107,-6],[103,14],[57,40],[23,-17],[21,-20],[20,-24],[17,-29],[15,-87],[-10,-129],[-45,-247],[-52,-155],[-7,-61],[-21,-32],[-138,-70],[23,-37],[29,-22],[33,-8],[36,7],[0,-26],[-21,-7],[-37,-20],[-24,-5],[35,-53],[40,-28],[28,-30],[-3,-62],[-16,-28],[-66,-59],[-120,-237],[-118,-431],[-21,-44]],[[0,772],[0,284],[76,42],[24,5],[45,-16],[10,-25],[-8,-37],[-7,-53],[-18,-79],[-44,-57],[-78,-64]],[[0,381],[0,316],[343,315],[197,65],[11,-43],[58,-162],[160,-158],[-21,-76],[-228,-287],[35,13],[28,29],[21,30],[15,15],[36,-1],[25,-15],[40,-44],[27,-73],[21,-13],[32,59],[6,43],[-9,37],[-12,37],[-7,43],[25,76],[56,80],[63,63],[47,26],[78,-5],[76,-18],[71,-37],[63,-58],[-157,-55],[290,-17],[138,-45],[-10,-143],[40,-17],[95,59],[55,18],[209,-29],[-76,-59],[-78,-82],[-55,-107],[-9,-130],[41,58],[59,43],[64,30],[54,16],[0,-32],[-179,-144],[-1,-2],[-1737,0],[0,193],[108,129],[43,29],[34,32],[88,141],[59,32],[61,3],[56,15],[40,42],[11,82],[-61,-33],[-59,-18],[-130,-9],[-52,-24],[-136,-176],[-62,-57]],[[1163,343],[45,43],[-21,48],[87,-6],[4,-126],[-115,41]],[[1426,598],[10,16],[18,1],[0,-52],[27,-11],[4,-15],[21,45],[-12,-52],[18,-5],[-21,-22],[-7,-10],[32,34],[33,-39],[-65,-39],[20,-23],[-3,-4],[-36,4],[5,57],[-29,-17],[-13,10],[23,25],[-13,33],[35,16],[-37,14],[-10,34]],[[1470,443],[12,-7],[2,2],[-12,14],[-2,-9]],[[1497,473],[9,-8],[20,25],[-11,3],[-18,-20]],[[1504,497],[3,-1],[-2,-7],[8,8],[-9,0]],[[747,305],[21,-13],[38,103],[76,-4],[50,-35],[-43,-90],[-55,-51],[-32,0],[0,-47],[-59,17],[-135,171],[28,81],[84,-59],[27,-73]],[[0,3294],[1,1],[12,57],[22,-34],[35,6],[195,-90],[142,-111],[30,-79],[6,-32],[-47,-39],[33,-32],[-16,-28],[16,-33],[-28,-78],[-54,-50],[1,-67],[-180,0],[-109,-56],[75,-130],[43,14],[-3,-21],[32,-2],[-33,0],[-2,-2],[-1,-2],[2,-11],[39,15],[136,-26],[-100,0],[-41,-62],[-206,34],[0,858]],[[197,2468],[9,7],[-6,4],[1,-5],[-4,-6]],[[0,825],[0,291],[1,1],[73,34],[-16,-54],[34,-19],[-2,-45],[-17,6],[18,-52],[-36,5],[12,-99],[-27,-42],[-40,-26]],[[0,1782],[0,35],[28,-2],[5,-37],[-33,4]],[[0,1719],[0,13],[5,-6],[-5,-7]]]}