{"objects":{"water":{"type":"GeometryCollection","geometries":[{"type":"Polygon","properties":{"source":"naturalearthdata.com","kind":"ocean","area":1576712559132672,"sort_rank":200,"min_zoom":0.0,"id":1},"arcs":[[12]]},{"type":"LineString","properties":{"source":"naturalearthdata.com","kind":"ocean","sort_rank":205,"boundary":true,"min_zoom":0.0,"id":76},"arcs":[13]}]},"buildings":{"type":"GeometryCollection","geometries":[]},"places":{"type":"GeometryCollection","geometries":[{"type":"Point","properties":{"name:ka":"\u10de\u10d0\u10e0\u10d0\u10db\u10d0\u10e0\u10d8\u10d1\u10dd","name:mr":"\u092a\u093e\u0930\u093e\u092e\u093e\u0930\u093f\u092c\u094b","name:ko":"\ud30c\ub77c\ub9c8\ub9ac\ubcf4","name:kn":"\u0caa\u0cbe\u0cb0\u0cae\u0cbe\u0cb0\u0cbf\u0cac\u0ccb","name:ar":"\u0628\u0627\u0631\u0627\u0645\u0627\u0631\u064a\u0628\u0648","name:is":"Paramar\u00edb\u00f3","name:am":"\u1353\u122b\u121b\u122a\u1266","name:os":"\u041f\u0430\u0440\u0430\u043c\u0430\u0440\u0438\u0431\u043e","name:ru":"\u041f\u0430\u0440\u0430\u043c\u0430\u0440\u0438\u0431\u043e","name:ta":"\u0baa\u0bb0\u0bae\u0bb0\u0bbf\u0baa\u0bca","id":281537750,"name:mk":"\u041f\u0430\u0440\u0430\u043c\u0430\u0440\u0438\u0431\u043e","name:fa":"\u067e\u0627\u0631\u0627\u0645\u0627\u0631\u06cc\u0628\u0648","kind_detail":"city","source":"openstreetmap.org","name:cv":"\u041f\u0430\u0440\u0430\u043c\u0430\u0440\u0438\u0431\u043e","name:zh-yue":"\u5df4\u62c9\u99ac\u5229\u6ce2","name:zh":"\u5e15\u62c9\u99ac\u91cc\u535a","admin_level":"2","name:ja":"\u30d1\u30e9\u30de\u30ea\u30dc","name:lt":"Paramaribas","name:hi":"\u092a\u093e\u0930\u093e\u092e\u0930\u0940\u092c\u094b","name:he":"\u05e4\u05e8\u05de\u05e8\u05d9\u05d1\u05d5","name:ur":"\u067e\u0627\u0631\u0627\u0645\u0627\u0631\u06cc\u0628\u0648","name:bo":"\u0f54\u0f7a\u0f0b\u0f62\u0f0b\u0f58\u0f7a\u0f0b\u0f62\u0f72\u0f0b\u0f56\u0f7c\u0f0d","name:uk":"\u041f\u0430\u0440\u0430\u043c\u0430\u0440\u0438\u0431\u043e","name:hy":"\u054a\u0561\u0580\u0561\u0574\u0561\u0580\u056b\u0562\u0578","country_capital":true,"name:be":"\u041f\u0430\u0440\u0430\u043c\u0430\u0440\u044b\u0431\u0430","name:bg":"\u041f\u0430\u0440\u0430\u043c\u0430\u0440\u0438\u0431\u043e","name:sr":"\u041f\u0430\u0440\u0430\u043c\u0430\u0440\u0438\u0431\u043e","population":242946,"name:el":"\u03a0\u03b1\u03c1\u03b1\u03bc\u03b1\u03c1\u03af\u03bc\u03c0\u03bf","kind":"locality","name":"Paramaribo","min_zoom":8.0,"name:gu":"\u0aaa\u0abe\u0ab0\u0abe\u0aae\u0abe\u0ab0\u0abf\u0aac\u0acb"},"coordinates":[3125,603]},{"type":"Point","properties":{"kind":"locality","name":"Lelydorp","kind_detail":"town","source":"openstreetmap.org","min_zoom":8.0,"old_name":"Kofidjompo","id":281543797,"population":19000},"coordinates":[3017,227]}]},"transit":{"type":"GeometryCollection","geometries":[]},"pois":{"type":"GeometryCollection","geometries":[]},"boundaries":{"type":"GeometryCollection","geometries":[{"type":"LineString","properties":{"name:ps":"\u0633\u0648\u0631\u064a\u0646\u0627\u0645","name:ka":"\u10e1\u10e3\u10e0\u10d8\u10dc\u10d0\u10db\u10d8","name:ko":"\uc218\ub9ac\ub0a8","name:kn":"\u0cb8\u0cc1\u0cb0\u0cbf\u0ca8\u0cbe\u0cae\u0ccd","name:cs":"Surinam","name:tt":"\u0421\u0443\u0440\u0438\u043d\u0430\u043c","name:kw":"Surinam","name:sw":"Surinam","name:ku":"S\u00fbr\u00eenam","name:az":"Surinam","name:tl":"Surinam","name:pa":"\u0a38\u0a42\u0a30\u0a40\u0a28\u0a3e\u0a2e","name:os":"\u0421\u0443\u0440\u0438\u043d\u0430\u043c","name:or":"\u0b38\u0b30\u0b3f\u0b28\u0b2e","name:ce":"\u0421\u0443\u0440\u0438\u043d\u0430\u043c","name:ta":"\u0b9a\u0bc1\u0bb0\u0bbf\u0ba8\u0bbe\u0bae\u0bcd","name:ug":"\u0633\u06c7\u0631\u0649\u0646\u0627\u0645","name:ca":"Surinam","name:te":"\u0c38\u0c41\u0c30\u0c3f\u0c28\u0c3e\u0c2e\u0c4d","name:yo":"S\u00f9r\u00ecn\u00e1m\u00f9","source":"openstreetmap.org","sort_rank":262,"name:hr":"Surinam","name:da":"Surinam","name:ba":"\u0421\u0443\u0440\u0438\u043d\u0430\u043c","name:tr":"Surinam","name:nv":"S\u00f3winam","name:cv":"\u0421\u0443\u0440\u0438\u043d\u0430\u043c","name:be":"\u0421\u0443\u0440\u044b\u043d\u0430\u043c","name:dv":"\u0790\u07aa\u0783\u07a8\u0782\u07a7\u0789\u07b0","name:lv":"Surinama","name:lt":"Surinamas","name:uz":"Surinam","name:kk":"\u0421\u0443\u0440\u0438\u043d\u0430\u043c","name:he":"\u05e1\u05d5\u05e8\u05d9\u05e0\u05d0\u05dd","name:eo":"Surinamo","name:ur":"\u0633\u0631\u06cc\u0646\u0627\u0645","name:la":"Surinamia","name:io":"Surinam","name:uk":"\u0421\u0443\u0440\u0438\u043d\u0430\u043c","name:hy":"\u054d\u0578\u0582\u0580\u056b\u0576\u0561\u0574","name:ht":"Sirinam","name:qu":"Surinam","name:oc":"Surinam","name:el":"\u03a3\u03bf\u03c5\u03c1\u03b9\u03bd\u03ac\u03bc","kind":"country","name":"Suriname","min_zoom":8.0,"name:th":"\u0e1b\u0e23\u0e30\u0e40\u0e17\u0e28\u0e0b\u0e39\u0e23\u0e34\u0e19\u0e32\u0e40\u0e21","name:eu":"Surinam","name:es":"Surinam","name:mt":"Surinam","name:ro":"Surinam","name:ie":"Surinam","name:mr":"\u0938\u0941\u0930\u093f\u0928\u093e\u092e","name:ar":"\u0633\u0648\u0631\u064a\u0646\u0627\u0645","name:my":"\u1006\u1030\u101b\u102c\u1014\u1019\u103a\u1014\u102d\u102f\u1004\u103a\u1004\u1036","official_name":"L\u00fd\u00f0veldi\u00f0 \u00cdsland","name:is":"S\u00far\u00ednam","name:am":"\u1231\u122a\u1293\u121d","name:an":"Surinam","id":-287082,"name:ml":"\u0d38\u0d41\u0d30\u0d3f\u0d28\u0d3e\u0d02","name:rw":"Surinamu","name:pl":"Surinam","name:mk":"\u0421\u0443\u0440\u0438\u043d\u0430\u043c","name:vo":"Surin\u00e4n","name:fa":"\u0633\u0648\u0631\u06cc\u0646\u0627\u0645","name:mn":"\u0421\u0443\u0440\u0438\u043d\u0430\u043c","kind_detail":"2","name:hi":"\u0938\u0942\u0930\u0940\u0928\u093e\u092e","name:fo":"Surinam","name:zh-yue":"\u8607\u91cc\u5357","name:zh":"\u8607\u5229\u5357","name:so":"Surinam","name:sl":"Surinam","name:sk":"Surinam","name:ja":"\u30b9\u30ea\u30ca\u30e0","name:nn":"Surinam","name:sh":"Surinam","name:se":"Surinam","name:br":"Surinam","name:bs":"Surinam","name:yi":"\u05e1\u05d5\u05e8\u05d9\u05e0\u05d0\u05dd","name:bn":"\u09b8\u09c1\u09b0\u09bf\u09a8\u09be\u09ae","name:bo":"\u0f66\u0f74\u0f0b\u0f62\u0f72\u0f0b\u0f53\u0f7a\u0f58\u0f0d","name:no":"Surinam","name:ru":"\u0421\u0443\u0440\u0438\u043d\u0430\u043c","name:sv":"Surinam","name:bg":"\u0421\u0443\u0440\u0438\u043d\u0430\u043c","name:wo":"Surinaam","name:sr":"\u0421\u0443\u0440\u0438\u043d\u0430\u043c","osm_relation":true,"name:sq":"Surinami","name:ga":"Suranam","name:gd":"Suranam","name:gn":"Surinam","maritime_boundary":true,"name:gv":"Yn Toorinam","name:gu":"\u0ab8\u0ac1\u0ab0\u0ac0\u0aa8\u0abe\u0aae"},"arcs":[0]},{"type":"LineString","properties":{"kind":"region","name":"Saramacca - Para","sort_rank":256,"kind_detail":"4","id:right":-5740854,"source":"openstreetmap.org","min_zoom":8.0,"id:left":-5740856,"name:left":"Saramacca","id":-5740856,"osm_relation":true,"name:right":"Para"},"arcs":[1]},{"type":"LineString","properties":{"kind":"region","name":"Saramacca - Coronie","sort_rank":256,"kind_detail":"4","id:right":-5740851,"source":"openstreetmap.org","min_zoom":8.0,"id:left":-5740856,"name:left":"Saramacca","id":-5740856,"osm_relation":true,"name:right":"Coronie"},"arcs":[2]},{"type":"LineString","properties":{"kind":"region","name":"Saramacca - Coronie","sort_rank":256,"kind_detail":"4","min_zoom":8.0,"id:right":-5740851,"source":"openstreetmap.org","maritime_boundary":true,"id:left":-5740856,"name:right":"Coronie","id":-5740856,"osm_relation":true,"name:left":"Saramacca"},"arcs":[3]},{"type":"LineString","properties":{"kind":"region","name":"Saramacca","sort_rank":256,"kind_detail":"4","source":"openstreetmap.org","min_zoom":8.0,"id":-5740856,"osm_relation":true},"arcs":[4]},{"type":"LineString","properties":{"kind":"region","name":"Saramacca","sort_rank":256,"kind_detail":"4","min_zoom":8.0,"source":"openstreetmap.org","maritime_boundary":true,"id":-5740856,"osm_relation":true},"arcs":[5]},{"type":"MultiLineString","properties":{"kind":"region","name":"Para - Commewijne","sort_rank":256,"kind_detail":"4","id:right":-5740850,"source":"openstreetmap.org","min_zoom":8.0,"id:left":-5740854,"name:left":"Para","id":-5740854,"osm_relation":true,"name:right":"Commewijne"},"arcs":[[6],[7]]},{"type":"LineString","properties":{"kind":"region","name":"Para","sort_rank":256,"kind_detail":"4","source":"openstreetmap.org","min_zoom":8.0,"id":-5740854,"osm_relation":true},"arcs":[8]},{"type":"LineString","properties":{"kind":"region","name":"Coronie","sort_rank":256,"kind_detail":"4","min_zoom":8.0,"source":"openstreetmap.org","maritime_boundary":true,"id":-5740851,"osm_relation":true},"arcs":[9]},{"type":"LineString","properties":{"kind":"region","name":"Commewijne","sort_rank":256,"kind_detail":"4","source":"openstreetmap.org","min_zoom":8.0,"id":-5740850,"osm_relation":true},"arcs":[10]},{"type":"LineString","properties":{"kind":"region","name":"Commewijne","sort_rank":256,"kind_detail":"4","min_zoom":8.0,"source":"openstreetmap.org","maritime_boundary":true,"id":-5740850,"osm_relation":true},"arcs":[11]}]},"roads":{"type":"GeometryCollection","geometries":[{"type":"MultiLineString","properties":{"sort_rank":380,"kind_detail":"primary","min_zoom":8.0,"kind":"major_road","source":"openstreetmap.org"},"arcs":[[14],[15],[16],[17],[18],[19],[20],[21],[22],[23],[24],[25],[26],[27]]},{"type":"MultiLineString","properties":{"source":"openstreetmap.org","kind":"major_road","landuse_kind":"urban_area","sort_rank":380,"kind_detail":"primary","min_zoom":8.0},"arcs":[[28],[29],[30],[31],[32],[33],[34],[35],[36],[37],[38],[39],[40],[41],[42],[43],[44]]},{"type":"LineString","properties":{"sort_rank":355,"source":"openstreetmap.org","kind":"ferry","min_zoom":8.0,"id":81719417},"arcs":[45]},{"type":"MultiLineString","properties":{"source":"openstreetmap.org","kind":"major_road","sort_rank":380,"kind_detail":"primary","is_bicycle_related":true,"min_zoom":8.0},"arcs":[[46],[47],[48]]}]},"earth":{"type":"GeometryCollection","geometries":[{"type":"MultiPolygon","properties":{"sort_rank":10,"source":"naturalearthdata.com","min_zoom":0.0,"kind":"earth","area":9155137569},"arcs":[[[49]]]}]},"landuse":{"type":"GeometryCollection","geometries":[{"type":"Polygon","properties":{"source":"naturalearthdata.com","kind":"urban_area","name":"","area":67107768,"sort_rank":11,"min_zoom":4.0,"id":3768},"arcs":[[50]]}]}},"type":"Topology","transform":{"translate":[-56.25,5.6159858192],"scale":[0.0003433228,0.000341231]},"arcs":[[[4096,1676],[-318,21],[-484,-27],[-224,-61],[-148,-70],[-258,82],[-585,35],[-691,-41],[-223,-50],[-345,-132],[-128,-79],[-134,-132],[-558,134]],[[2559,0],[-90,30],[10,69],[76,34],[33,-44],[31,1],[21,69]],[[865,640],[95,-81],[111,-198],[-44,-216],[-46,-22],[-142,-1],[-25,-58],[13,-64]],[[558,1222],[211,-501],[96,-81]],[[2640,159],[-43,123],[12,121],[14,31],[107,-15],[256,593],[-18,150]],[[2968,1162],[-46,377],[-258,82],[-585,35],[-667,-38],[-227,-47],[-404,-158],[-223,-191]],[[3381,0],[85,126],[71,25],[29,40],[-26,46],[-98,15]],[[3515,0],[-50,21],[-29,-21]],[[3442,252],[-6,-77],[-37,-13],[-42,23],[-70,-21],[6,60],[-149,-46],[-23,23],[-39,-62],[-442,20]],[[558,1222],[-558,134]],[[3064,1179],[58,-263],[245,-113],[15,-111],[-37,-73],[-168,-48],[185,-266],[80,-53]],[[4096,1671],[-518,26],[-246,-21],[-211,-49],[-143,-59],[86,-389]],[[4096,1089],[-496,17],[-90,-1],[-118,-7],[-91,-16],[-81,-32],[-26,-17],[-19,-30],[17,-20],[11,-31],[21,-31],[51,-34],[59,-29],[169,-48],[45,-23],[45,-37],[43,-2],[47,27],[41,-9],[44,-29],[67,6],[34,21],[27,22],[26,4],[38,-8],[24,-13],[23,-20],[20,-23],[13,-24],[-52,38],[-29,14],[-28,6],[-34,-7],[-19,-17],[-16,-20],[-23,-14],[-29,-10],[-24,-5],[-25,4],[-65,40],[-23,-5],[-24,-15],[-38,-9],[-59,12],[-96,68],[-64,0],[-15,-23],[-3,-65],[-27,-65],[-81,-27],[-3,-2],[43,48],[35,86],[-23,43],[-58,43],[-50,36],[-47,-4],[-37,-16],[-34,-11],[-41,4],[-30,4],[-25,0],[-24,6],[-9,3],[-30,18],[-30,24],[-30,26],[-21,10],[-62,20],[-46,19],[-82,57],[-172,33],[-705,35],[-121,-2],[-147,-12],[-265,-11],[-71,-4],[-68,-18],[-53,-20],[-42,-32],[-29,-31],[-38,-40],[-20,-30],[-47,-62],[-14,-44],[10,-58],[41,-35],[34,2],[35,1],[30,-26],[-45,-59],[31,-72],[51,-111],[9,-51],[2,-99],[-5,-46],[-15,-46],[-21,0],[-1,0],[0,253],[-17,39],[-42,25],[-52,58],[-184,18],[-113,39],[-60,11],[-72,19],[-120,40],[-196,43],[-91,24],[-79,22],[0,3327],[4096,0],[0,-3007]],[[0,769],[79,-22],[91,-24],[196,-43],[120,-40],[72,-19],[60,-11],[113,-39],[184,-18],[52,-58],[42,-25],[17,-39],[0,-253],[1,0],[21,0],[15,46],[5,46],[-2,99],[-9,51],[-51,111],[-31,72],[45,59],[-30,26],[-35,-1],[-34,-2],[-41,35],[-10,58],[14,44],[47,62],[20,30],[38,40],[29,31],[42,32],[53,20],[68,18],[71,4],[265,11],[147,12],[121,2],[705,-35],[172,-33],[82,-57],[46,-19],[62,-20],[21,-10],[30,-26],[30,-24],[30,-18],[9,-3],[24,-6],[25,0],[30,-4],[41,-4],[34,11],[37,16],[47,4],[50,-36],[58,-43],[23,-43],[-35,-86],[-43,-48],[3,2],[81,27],[27,65],[3,65],[15,23],[64,0],[96,-68],[59,-12],[38,9],[24,15],[23,5],[65,-40],[25,-4],[24,5],[29,10],[23,14],[16,20],[19,17],[34,7],[28,-6],[29,-14],[52,-38],[-13,24],[-20,23],[-23,20],[-24,13],[-38,8],[-26,-4],[-27,-22],[-34,-21],[-67,-6],[-44,29],[-41,9],[-47,-27],[-43,2],[-45,37],[-45,23],[-169,48],[-59,29],[-51,34],[-21,31],[-11,31],[-17,20],[19,30],[26,17],[81,32],[91,16],[118,7],[90,1],[496,-17]],[[0,711],[506,-132],[335,-138],[120,-21],[84,45],[-2,45]],[[2285,628],[256,71],[425,-28]],[[3057,0],[-73,112],[44,281],[59,115]],[[3121,505],[-2,-9]],[[3119,496],[2,9]],[[3119,496],[54,-109],[122,-87],[45,-126],[14,-174]],[[3283,543],[-28,34],[-61,7],[-16,-25]],[[3283,543]],[[3283,542],[0,1]],[[3284,542]],[[3284,543],[0,-1]],[[4096,463],[-124,24],[-27,-15],[-220,28],[-325,-34],[-116,76]],[[3284,542],[-1,0]],[[3283,542],[1,1],[0,-1]],[[2966,671],[176,-26]],[[3090,514],[-3,-6]],[[3167,613],[-55,29]],[[3112,643],[55,-30],[-7,-13],[-7,-13]],[[3121,505],[8,36],[2,7],[5,9]],[[3136,557],[1,2]],[[3137,559],[16,28]],[[3137,557],[-16,-52]],[[3136,557]],[[3136,557],[1,1]],[[3137,558],[0,1],[1,-1],[0,-1],[-1,1]],[[3137,558],[0,1]],[[3137,559],[0,1]],[[3153,587],[-15,-28]],[[3140,557],[-2,0]],[[3138,558],[2,-1]],[[3140,557],[38,2]],[[3364,791],[-9,-47]],[[1043,510],[86,71],[306,79],[549,11],[205,-72]],[[2190,599],[95,29]],[[2190,599],[-1,0],[1,0]],[[4096,1089],[0,-1089],[-2312,0],[-1784,0],[0,769],[79,-22],[91,-24],[196,-43],[120,-40],[72,-19],[60,-11],[113,-39],[184,-18],[52,-58],[42,-25],[17,-39],[0,-253],[1,0],[21,0],[15,46],[5,46],[-2,99],[-9,51],[-51,111],[-31,72],[45,59],[-30,26],[-35,-1],[-34,-2],[-41,35],[-10,58],[14,44],[47,62],[20,30],[38,40],[29,31],[42,32],[53,20],[68,18],[71,4],[265,11],[147,12],[120,2],[1,0],[705,-35],[172,-33],[82,-57],[46,-19],[62,-20],[21,-10],[30,-26],[30,-24],[30,-18],[9,-3],[24,-6],[25,0],[30,-4],[41,-4],[34,11],[37,16],[47,4],[50,-36],[58,-43],[23,-43],[-35,-86],[-43,-48],[3,2],[81,27],[27,65],[3,65],[15,23],[64,0],[96,-68],[59,-12],[38,9],[24,15],[23,5],[65,-40],[25,-4],[24,5],[29,10],[23,14],[16,20],[19,17],[34,7],[28,-6],[29,-14],[52,-38],[-13,24],[-20,23],[-23,20],[-24,13],[-38,8],[-26,-4],[-27,-22],[-34,-21],[-67,-6],[-44,29],[-41,9],[-47,-27],[-43,2],[-45,37],[-45,23],[-169,48],[-59,29],[-51,34],[-21,31],[-11,31],[-17,20],[19,30],[26,17],[81,32],[91,16],[118,7],[90,1],[496,-17]],[[3106,500],[-65,27],[-55,64],[-23,90],[251,34],[104,-36],[-28,-49],[-100,-46],[-33,-65],[-51,-19]]]}