{"objects":{"water":{"type":"GeometryCollection","geometries":[{"type":"Polygon","properties":{"source":"naturalearthdata.com","kind":"ocean","area":1576712559132672,"sort_rank":200,"min_zoom":0.0,"id":1},"arcs":[[3]]}]},"buildings":{"type":"GeometryCollection","geometries":[]},"places":{"type":"GeometryCollection","geometries":[]},"transit":{"type":"GeometryCollection","geometries":[]},"pois":{"type":"GeometryCollection","geometries":[]},"boundaries":{"type":"GeometryCollection","geometries":[{"type":"LineString","properties":{"name:right:yo":"Arg\u1eb9nt\u00edn\u00e0","name:left:la":"Uraquaria","name:right:qu":"Arhintina","name:right:dv":"\u0787\u07a7\u0796\u07ac\u0782\u07b0\u0793\u07a9\u0782\u07a7","name:right:yi":"\u05d0\u05b7\u05e8\u05d2\u05e2\u05e0\u05d8\u05d9\u05e0\u05e2","name:left:lg":"Wurugwayi","name:left:li":"Urugay","name:left:sw":"Urugwai","name:right:rm":"Argentinia","name:left:sq":"Uruguaji","name:right:hu":"Argent\u00edna","name:left:ln":"Ulugwai","name:left:lo":"\u0ead\u0eb8\u0ea5\u0eb8\u0e81\u0ea7\u0e8d","name:left:sl":"Urugvaj","name:left:so":"Uruguwaay","name:left:lt":"Urugvajus","name:left:sh":"Urugvaj","name:left:lv":"Urugvaja","name:left:vo":"Luruguy\u00e4n","name:left:sg":"Urugu\u00ebe","name:left:sa":"\u0909\u0930\u0941\u0917\u094d\u0935\u093e\u092f","name:right:he":"\u05d0\u05e8\u05d2\u05e0\u05d8\u05d9\u05e0\u05d4","name:right:af":"Argentini\u00eb","name:left:ce":"\u0423\u0440\u0443\u0433\u0432\u0430\u0439","name:right:an":"Archentina","name:right:am":"\u12a0\u122d\u1300\u1295\u1272\u1293","name:right:ko":"\uc544\ub974\ud5e8\ud2f0\ub098","name:left:ca":"Uruguai","source":"openstreetmap.org","name:right:as":"\u0986\u09f0\u09cd\u099c\u09c7\u09a3\u09cd\u099f\u09bf\u09a8\u09be","name:right:ar":"\u0627\u0644\u0623\u0631\u062c\u0646\u062a\u064a\u0646","name:left:he":"\u05d0\u05d5\u05e8\u05d5\u05d2\u05d5\u05d5\u05d0\u05d9","name:left:cu":"\u041e\u0443\u0440\u043e\u0443\u0433\u0432\u0430\u0438","name:left:cv":"\u0423\u0440\u0443\u0433\u0432\u0430\u0439","name:left:oc":"Uruguai","name:right:ay":"Arxintina","name:right:ak":"Agy\u025bntina","name:left:ka":"\u10e3\u10e0\u10e3\u10d2\u10d5\u10d0\u10d8","name:right:zh-yue":"\u963f\u6839\u5ef7","name:left:km":"\u17a2\u17ca\u17bb\u1799\u179a\u17bb\u1799\u17a0\u17d2\u1782\u17b6\u1799","name:right:ht":"Ajantin","name:left:ko":"\uc6b0\ub8e8\uacfc\uc774","name:left:kn":"\u0c89\u0cb0\u0cc1\u0c97\u0ccd\u0cb5\u0cc6","name:left:ki":"Urugwai","name:right:rw":"Arijantine","name:left:kk":"\u0423\u0440\u0443\u0433\u0432\u0430\u0439","name:right:ru":"\u0410\u0440\u0433\u0435\u043d\u0442\u0438\u0301\u043d\u0430","name:left:ku":"\u00dbr\u00fbguay","name:right:kv":"\u0410\u0440\u0433\u0435\u043d\u0442\u0438\u043d\u0430","name:left:kw":"Urugway","name:right:rn":"Argentine","name:left:rw":"Irigwe","name:left:ks":"\u06cc\u0648\u0657\u0631\u0648\u06af\u06d2","name:left:ru":"\u0423\u0440\u0443\u0433\u0432\u0430\u0439","name:left:sr":"\u0423\u0440\u0443\u0433\u0432\u0430\u0458","name:right:bo":"\u0f68\u0f62\u0f0b\u0f47\u0f7a\u0f53\u0f0b\u0f4a\u0f72\u0f0b\u0f53\u0f0d","name:right:bn":"\u0986\u09b0\u09cd\u099c\u09c7\u09a8\u09cd\u099f\u09bf\u09a8\u09be","name":"Uruguay - Argentina","name:right:zu":"i-Argentina","alt_name:right:qu":"Qullqillaqta","name:right:ba":"\u0410\u0440\u0433\u0435\u043d\u0442\u0438\u0301\u043d\u0430","name:right:bg":"\u0410\u0440\u0436\u0435\u043d\u0442\u045d\u043d\u0430","name:left:zu":"i-Uruguay","name:left:zh":"\u4e4c\u62c9\u572d","name:right:br":"Arc'hantina","name:left:si":"\u0d8b\u0dbb\u0dd4\u0d9c\u0dd4\u0dc0\u0dcf\u0dba\u0dd2","name:right:zh":"\u963f\u6839\u5ef7","official_name:left":"Rep\u00fablica Oriental del Uruguay","name:left:uz":"Urugvay","name:right:nl":"Argentini\u00eb","name:right:wa":"\u00c5rdjintene","name:left:sk":"Uruguaj","name:left:nv":"T\u00e1\u0142t\u0142\u02bc\u00e1\u00e1h Ch\u02bcosh Bitooh (K\u00e9yah Dah Si\u02bc\u00e1n\u00edg\u00ed\u00ed)","name:left:ur":"\u06cc\u0648\u0631\u0627\u06af\u0648\u0626\u06d2","name:right:wo":"Arsantin","name:right:ne":"\u0905\u0930\u094d\u091c\u0947\u0928\u094d\u091f\u093f\u0928\u093e","id:right":-286393,"name:left:uk":"\u0423\u0440\u0443\u0433\u0432\u0430\u0439","name:right:ps":"\u0627\u0631\u062c\u0646\u067c\u0627\u06cc\u0646","name:right:hi":"\u0905\u0930\u094d\u091c\u0947\u0923\u094d\u091f\u0940\u0928\u093e","name:right:fa":"\u0622\u0631\u0698\u0627\u0646\u062a\u06cc\u0646","name:right:nv":"B\u00e9\u00e9sh \u0141igaii Bik\u00e9yah","name:right:be":"\u0410\u0440\u0433\u0435\u043d\u0446\u0456\u0301\u043d\u0430","name:left:ug":"\u0626\u06c7\u0631\u06c7\u06af\u06cb\u0627\u064a","name:right:fi":"Argentiina","name:left:eo":"Urugvajo","name:left:el":"\u039f\u03c5\u03c1\u03bf\u03c5\u03b3\u03bf\u03c5\u03ac\u03b7","kind_detail":"2","name:left:ee":"uruguayduk\u0254","name:left:pl":"Urugwaj","name:right:hy":"\u0531\u0580\u0563\u0565\u0576\u057f\u056b\u0576\u0561","name:left:hr":"Urugvaj","name:left:eu":"Uruguai","name:right:om":"Arjentiinaa","name:right:gv":"yn Argenteen","name:left:mg":"Orogoay","name:right:cy":"Ariannin","name:left:mk":"\u0423\u0440\u0443\u0433\u0432\u0430\u0458","name:right:pa":"\u0a05\u0a30\u0a1c\u0a28\u0a1f\u0a40\u0a28\u0a3e","name:left:tt":"\u0423\u0440\u0443\u0433\u0432\u0430\u0439","name:left:mn":"\u0423\u0440\u0443\u0433\u0432\u0430\u0439","name:left:ml":"\u0d09\u0d31\u0d41\u0d17\u0d4d\u0d35\u0d47","name:left:th":"\u0e1b\u0e23\u0e30\u0e40\u0e17\u0e28\u0e2d\u0e38\u0e23\u0e38\u0e01\u0e27\u0e31\u0e22","name:left:mr":"\u0909\u0930\u0941\u0917\u094d\u0935\u0947","name:left:tl":"Urugway","name:right:tr":"Arjantin","name:left:to":"\u02bbUlukuei","name:right:gl":"Arxentina","name:left:my":"\u1025\u101b\u102f\u1002\u103d\u1031\u1038\u1014\u102d\u102f\u1004\u103a\u1004\u1036","name:right:kn":"\u0c85\u0cb0\u0ccd\u0c9c\u0cc6\u0c82\u0c9f\u0cc0\u0ca8","name:right:pl":"Argentyna","name:left:te":"\u0c09\u0c30\u0c41\u0c17\u0c41\u0c35\u0c47","name:right:os":"\u0410\u0440\u0433\u0435\u043d\u0442\u0438\u043d\u00e6","name:left:tg":"\u0423\u0440\u0443\u0433\u0443\u0430\u0439","name:right:tl":"Arhentina","name:left:ti":"\u12a1\u122b\u1313\u12ed","alt_name:right:wo":"Argentiin","name:left:dz":"\u0f61\u0f74\u0f0b\u0f62\u0f74\u0f0b\u0f42\u0f74\u0f0b\u0f5d\u0f60\u0f72","name:right:ga":"an Airgint\u00edn","name:left:dv":"\u0787\u07aa\u0783\u07aa\u078e\u07aa\u0787\u07ad","name:right:lg":"Arigentina","name:right:ug":"\u0626\u0627\u0631\u06af\u06d0\u0646\u062a\u0649\u0646\u0627","name:left:hi":"\u0909\u0930\u0941\u0917\u094d\u0935\u0947","name:right:lb":"Argentinien","name:right:uk":"\u0410\u0440\u0433\u0435\u043d\u0442\u0438\u0301\u043d\u0430","old_name:right:vi":"\u00c1 C\u0103n \u0110\u00ecnh","name:right:lo":"\u0ead\u0eb2\u0e81\u0e8a\u0eb1\u0e87\u0e95\u0eb5\u0e99","name:left:ha":"Yurugai","alt_name:right:ta":"\u0b85\u0bb0\u0bcd\u0b9c\u0bc6\u0ba8\u0bcd\u0ba4\u0bc0\u0ba9\u0bbe","name:left:wa":"Ourougway","name:right:ur":"\u0627\u0631\u062c\u0646\u0679\u0627\u0626\u0646","name:right:lv":"Argent\u012bna","name:left:hy":"\u0548\u0582\u0580\u0578\u0582\u0563\u057e\u0561\u0575","name:left:ta":"\u0b89\u0bb0\u0bc1\u0b95\u0bc1\u0bb5\u0bc8","name:left:ht":"Irigwe","name:right:fr":"Argentine","name:right:ty":"\u2019Atetina","name:left:wo":"Uruguwaay","name:left:ga":"Uragua","name:left:gd":"Uruguaidh","alt_name:right:co":"Arghjintina","name:right:av":"\u0410\u0440\u0433\u0435\u043d\u0442\u0438\u043d\u0430","sort_rank":262,"name:left:is":"\u00dar\u00fagv\u00e6","name:right:gu":"\u0a86\u0ab0\u0acd\u0a9c\u0ac7\u0aa8\u0acd\u0a9f\u0ac0\u0aa8\u0abe","name:left:gl":"Uruguai","name:left:gn":"Urugu\u00e1i","name:left:gu":"\u0a89\u0ab0\u0ac1\u0a97\u0acd\u0ab5\u0ac7","osm_relation":true,"name:left:gv":"Yn Ooraguay","official_name:right":"Rep\u00fablica Argentina","id:left":-287072,"name:right:or":"\u0b06\u0b30\u0b4d\u0b1c\u0b47\u0b23\u0b4d\u0b1f\u0b3f\u0b28\u0b3e","name:right:ku":"Arjent\u00een","name:left":"Uruguay","name:right:mk":"\u0410\u0440\u0433\u0435\u043d\u0442\u0438\u043d\u0430","name:right:mi":"\u0100ketina","name:left:ja":"\u30a6\u30eb\u30b0\u30a2\u30a4","name:right:mn":"\u0410\u0440\u0433\u0435\u043d\u0442\u0438\u043d","name:right:ml":"\u0d05\u0d7c\u0d1c\u0d28\u0d4d\u0d31\u0d40\u0d28","name:right:vo":"Larg\u00e4nt\u00e4n","name:left:os":"\u0423\u0440\u0443\u0433\u0432\u0430\u0439","name:left:or":"\u0b09\u0b30\u0b41\u0b17\u0b41\u0b0f","name:right:mg":"Arjentina","name:right:my":"\u1021\u102c\u1002\u103b\u1004\u103a\u1010\u102e\u1038\u1014\u102c\u1038\u1014\u102d\u102f\u1004\u103a\u1004\u1036","name:left:mt":"Urugwaj","name:right:mr":"\u0906\u0930\u094d\u091c\u0947\u0928\u094d\u091f\u093f\u0928\u093e","min_zoom":8.0,"name:right:na":"Ardjentina","name:right:eo":"Argentino","name:right:mt":"Ar\u0121entina","name:left:ff":"Uruguwaay","name:right:ff":"Arjantiin","kind":"country","name:left:fa":"\u0627\u0631\u0648\u06af\u0648\u0626\u0647","name:left:fo":"Uruguei","name:right:sk":"Argent\u00edna","name:right:te":"\u0c05\u0c30\u0c4d\u0c1c\u0c46\u0c02\u0c1f\u0c40\u0c28\u0c3e","alt_name:right:oc":"Riu de la Plata","name:right:sm":"Atenitina","alt_name:right:kn":"\u0c85\u0cb0\u0ccd\u0c9c\u0cc6\u0c82\u0c9f\u0cc0\u0ca8 \u0c97\u0ca3\u0cb0\u0cbe\u0c9c\u0ccd\u0caf","name:right:fy":"Argentynje","name:left:fy":"Ur\u00fbguay","name:left:bs":"Urugvaj","name:right:ja":"\u30a2\u30eb\u30bc\u30f3\u30c1\u30f3","name:right:sq":"Argjentina","name:right:sr":"\u0410\u0440\u0433\u0435\u043d\u0442\u0438\u043d\u0430","name:right:su":"Arg\u00e9ntina","name:right:si":"\u0d86\u0da2\u0db1\u0dca\u0da7\u0dd2\u0db1\u0dcf\u0dc0","name:left:qu":"Uruwayi","name:left:ba":"\u0423\u0440\u0443\u0433\u0432\u0430\u0439","name:right:jv":"Arg\u00e8ntina","name:left:bg":"\u0423\u0440\u0443\u0433\u0432\u0430\u0439","name:right:so":"Arjantiina","name:left:be":"\u0423\u0440\u0443\u0433\u0432\u0430\u0439","name:right:sa":"\u0905\u0930\u094d\u091c\u0923\u094d\u091f\u093f\u0928\u093e","name:right:se":"Argentiinn\u00e1","name:left:bo":"\u0f68\u0f74\u0f0b\u0f62\u0f74\u0f0b\u0f42\u0f74\u0f0b\u0f61\u0f7a\u0f0d","name:right:sg":"Arzant\u00eena","name:right":"Argentina","name:left:ne":"\u0909\u0930\u0941\u0917\u094d\u0935\u093e\u0907","name:left:bn":"\u0989\u09b0\u09c1\u0997\u09c1\u09af\u09bc\u09c7","name:right:ce":"\u0410\u0440\u0433\u0435\u043d\u0442\u0438\u0301\u043d\u0430","alt_name:right:rw":"Arijantina","id":-287072,"name:left:yo":"Urug\u00fa\u00e1\u00ec","name:left:yi":"\u05d0\u05d5\u05e8\u05d5\u05d2\u05d5\u05d5\u05d9\u05d9","name:right:li":"Argentini\u00eb","name:right:dz":"\u0f68\u0f62\u0f0b\u0f47\u0f7a\u0f53\u0f0b\u0f4a\u0f72\u0f0b\u0f53","name:right:pi":"\u0905\u0930\u094d\u091c\u0928\u094d\u091f\u0940\u0928\u093e","name:left:bm":"Urugwayi","name:right:cv":"\u0410\u0440\u0433\u0435\u043d\u0442\u0438\u043d\u0430","name:right:ka":"\u10d0\u10e0\u10d2\u10d4\u10dc\u10e2\u10d8\u10dc\u10d0","maritime_boundary":true,"name:left:ar":"\u0623\u0648\u0631\u0648\u063a\u0648\u0627\u064a","name:right:kg":"Arhentina","name:right:tt":"\u0410\u0440\u0433\u0435\u043d\u0442\u0438\u0301\u043d\u0430","name:right:is":"Argent\u00edna","name:right:kk":"\u0410\u0440\u0433\u0435\u043d\u0442\u0438\u043d\u0430","name:right:km":"\u17a2\u17b6\u17a0\u17d2\u179f\u1784\u17cb\u1791\u17b8\u1793","name:left:az":"Uruqvay","name:left:ay":"Uruwayi","name:right:ts":"Arjentina","name:left:pt":"Uruguai","name:right:ks":"\u0623\u0631\u062c\u064e\u0646\u0679\u06cc\u0646\u0627","name:right:to":"\u02bbAsenitina","name:right:th":"\u0e2d\u0e32\u0e23\u0e4c\u0e40\u0e08\u0e19\u0e15\u0e34\u0e19\u0e32","name:right:ti":"\u12a0\u122d\u1300\u1295\u1272\u1293","name:right:kw":"Arghantina","name:left:ps":"\u06cc\u0648\u0631\u0648\u06ab\u0648\u0627\u06cc","name:right:ky":"\u0410\u0440\u0433\u0435\u043d\u0442\u0438\u043d\u0430","name:left:an":"Uruguai","name:left:am":"\u12a1\u122b\u1313\u12ed","name:right:tg":"\u0410\u0440\u0433\u0435\u043d\u0442\u0438\u0301\u043d\u0430","name:left:ak":"Yurugwae","name:right:ta":"\u0b85\u0bb0\u0bcd\u0b95\u0bc6\u0ba8\u0bcd\u0ba4\u0bc0\u0ba9\u0bbe","name:right:io":"Arjentinia","name:right:de":"Argentinien","name:left:rn":"Irigwe","name:right:el":"\u0391\u03c1\u03b3\u03b5\u03bd\u03c4\u03b9\u03bd\u03ae","name:left:zh-yue":"\u70cf\u62c9\u572d","name:left:pa":"\u0a09\u0a30\u0a42\u0a17\u0a41\u0a0f"},"arcs":[0]},{"type":"LineString","properties":{"name:wa":"Ourougway","name:pt":"Uruguai","name:ps":"\u06cc\u0648\u0631\u0648\u06ab\u0648\u0627\u06cc","name:ka":"\u10e3\u10e0\u10e3\u10d2\u10d5\u10d0\u10d8","name:ko":"\uc6b0\ub8e8\uacfc\uc774","name:cv":"\u0423\u0440\u0443\u0433\u0432\u0430\u0439","name:cu":"\u041e\u0443\u0440\u043e\u0443\u0433\u0432\u0430\u0438","name:kk":"\u0423\u0440\u0443\u0433\u0432\u0430\u0439","name:ki":"Urugwai","name:kw":"Urugway","name:ku":"\u00dbr\u00fbguay","name:ti":"\u12a1\u122b\u1313\u12ed","name:ks":"\u06cc\u0648\u0657\u0631\u0648\u06af\u06d2","name:to":"\u02bbUlukuei","name:tl":"Urugway","name:pa":"\u0a09\u0a30\u0a42\u0a17\u0a41\u0a0f","name:os":"\u0423\u0440\u0443\u0433\u0432\u0430\u0439","name:or":"\u0b09\u0b30\u0b41\u0b17\u0b41\u0b0f","name:ce":"\u0423\u0440\u0443\u0433\u0432\u0430\u0439","name:ta":"\u0b89\u0bb0\u0bc1\u0b95\u0bc1\u0bb5\u0bc8","name:tg":"\u0423\u0440\u0443\u0433\u0443\u0430\u0439","name:ca":"Uruguai","name:te":"\u0c09\u0c30\u0c41\u0c17\u0c41\u0c35\u0c47","name:bg":"\u0423\u0440\u0443\u0433\u0432\u0430\u0439","sort_rank":262,"name:hr":"Urugvaj","name:ba":"\u0423\u0440\u0443\u0433\u0432\u0430\u0439","name:dz":"\u0f61\u0f74\u0f0b\u0f62\u0f74\u0f0b\u0f42\u0f74\u0f0b\u0f5d\u0f60\u0f72","source":"openstreetmap.org","osm_relation":true,"name:ak":"Yurugwae","name:kn":"\u0c89\u0cb0\u0cc1\u0c97\u0ccd\u0cb5\u0cc6","name:dv":"\u0787\u07aa\u0783\u07aa\u078e\u07aa\u0787\u07ad","name:km":"\u17a2\u17ca\u17bb\u1799\u179a\u17bb\u1799\u17a0\u17d2\u1782\u17b6\u1799","name:lv":"Urugvaja","name:lt":"Urugvajus","name:uz":"Urugvay","name:he":"\u05d0\u05d5\u05e8\u05d5\u05d2\u05d5\u05d5\u05d0\u05d9","name:eo":"Urugvajo","name:ur":"\u06cc\u0648\u0631\u0627\u06af\u0648\u0626\u06d2","name:la":"Uraquaria","name:lg":"Wurugwayi","name:uk":"\u0423\u0440\u0443\u0433\u0432\u0430\u0439","name:hy":"\u0548\u0582\u0580\u0578\u0582\u0563\u057e\u0561\u0575","name:ug":"\u0626\u06c7\u0631\u06c7\u06af\u06cb\u0627\u064a","name:li":"Urugay","name:ln":"Ulugwai","name:lo":"\u0ead\u0eb8\u0ea5\u0eb8\u0e81\u0ea7\u0e8d","name:oc":"Uruguai","name:el":"\u039f\u03c5\u03c1\u03bf\u03c5\u03b3\u03bf\u03c5\u03ac\u03b7","kind":"country","name":"Uruguay","name:ee":"uruguayduk\u0254","name:gd":"Uruguaidh","min_zoom":8.0,"name:th":"\u0e1b\u0e23\u0e30\u0e40\u0e17\u0e28\u0e2d\u0e38\u0e23\u0e38\u0e01\u0e27\u0e31\u0e22","name:eu":"Uruguai","name:yo":"Urug\u00fa\u00e1\u00ec","name:ay":"Uruwayi","name:mt":"Urugwaj","name:rn":"Irigwe","name:az":"Uruqvay","name:mr":"\u0909\u0930\u0941\u0917\u094d\u0935\u0947","name:ar":"\u0623\u0648\u0631\u0648\u063a\u0648\u0627\u064a","name:my":"\u1025\u101b\u102f\u1002\u103d\u1031\u1038\u1014\u102d\u102f\u1004\u103a\u1004\u1036","official_name":"Rep\u00fablica Oriental del Uruguay","name:is":"\u00dar\u00fagv\u00e6","name:am":"\u12a1\u122b\u1313\u12ed","name:an":"Uruguai","id":-287072,"name:ru":"\u0423\u0440\u0443\u0433\u0432\u0430\u0439","name:rw":"Irigwe","name:pl":"Urugwaj","name:mk":"\u0423\u0440\u0443\u0433\u0432\u0430\u0458","name:vo":"Luruguy\u00e4n","name:zu":"i-Uruguay","name:mn":"\u0423\u0440\u0443\u0433\u0432\u0430\u0439","name:ff":"Uruguwaay","kind_detail":"2","name:hi":"\u0909\u0930\u0941\u0917\u094d\u0935\u0947","name:mg":"Orogoay","name:fo":"Uruguei","name:sg":"Urugu\u00ebe","name:zh-yue":"\u70cf\u62c9\u572d","name:fy":"Ur\u00fbguay","name:zh":"\u4e4c\u62c9\u572d","name:so":"Uruguwaay","name:sl":"Urugvaj","name:sk":"Uruguaj","name:ja":"\u30a6\u30eb\u30b0\u30a2\u30a4","name:si":"\u0d8b\u0dbb\u0dd4\u0d9c\u0dd4\u0dc0\u0dcf\u0dba\u0dd2","name:sh":"Urugvaj","name:qu":"Uruwayi","name:ne":"\u0909\u0930\u0941\u0917\u094d\u0935\u093e\u0907","name:sa":"\u0909\u0930\u0941\u0917\u094d\u0935\u093e\u092f","name:bs":"Urugvaj","name:yi":"\u05d0\u05d5\u05e8\u05d5\u05d2\u05d5\u05d5\u05d9\u05d9","name:bn":"\u0989\u09b0\u09c1\u0997\u09c1\u09af\u09bc\u09c7","name:bo":"\u0f68\u0f74\u0f0b\u0f62\u0f74\u0f0b\u0f42\u0f74\u0f0b\u0f61\u0f7a\u0f0d","name:ml":"\u0d09\u0d31\u0d41\u0d17\u0d4d\u0d35\u0d47","name:sw":"Urugwai","name:be":"\u0423\u0440\u0443\u0433\u0432\u0430\u0439","name:ha":"Yurugai","name:wo":"Uruguwaay","name:sr":"\u0423\u0440\u0443\u0433\u0432\u0430\u0458","name:nv":"T\u00e1\u0142t\u0142\u02bc\u00e1\u00e1h Ch\u02bcosh Bitooh (K\u00e9yah Dah Si\u02bc\u00e1n\u00edg\u00ed\u00ed)","name:sq":"Uruguaji","name:ga":"Uragua","name:bm":"Urugwayi","name:ht":"Irigwe","name:gn":"Urugu\u00e1i","name:gl":"Uruguai","name:fa":"\u0627\u0631\u0648\u06af\u0648\u0626\u0647","maritime_boundary":true,"name:gv":"Yn Ooraguay","name:gu":"\u0a89\u0ab0\u0ac1\u0a97\u0acd\u0ab5\u0ac7","name:tt":"\u0423\u0440\u0443\u0433\u0432\u0430\u0439"},"arcs":[1]},{"type":"LineString","properties":{"name:kg":"Arhentina","name:ty":"\u2019Atetina","name:ka":"\u10d0\u10e0\u10d2\u10d4\u10dc\u10e2\u10d8\u10dc\u10d0","name:tr":"Arjantin","name:ts":"Arjentina","name:km":"\u17a2\u17b6\u17a0\u17d2\u179f\u1784\u17cb\u1791\u17b8\u1793","name:kk":"\u0410\u0440\u0433\u0435\u043d\u0442\u0438\u043d\u0430","name:tt":"\u0410\u0440\u0433\u0435\u043d\u0442\u0438\u0301\u043d\u0430","name:kw":"Arghantina","name:kv":"\u0410\u0440\u0433\u0435\u043d\u0442\u0438\u043d\u0430","name:ku":"Arjent\u00een","name:ti":"\u12a0\u122d\u1300\u1295\u1272\u1293","name:ks":"\u0623\u0631\u062c\u064e\u0646\u0679\u06cc\u0646\u0627","name:to":"\u02bbAsenitina","name:tl":"Arhentina","name:ce":"\u0410\u0440\u0433\u0435\u043d\u0442\u0438\u0301\u043d\u0430","name:ta":"\u0b85\u0bb0\u0bcd\u0b95\u0bc6\u0ba8\u0bcd\u0ba4\u0bc0\u0ba9\u0bbe","name:tg":"\u0410\u0440\u0433\u0435\u043d\u0442\u0438\u0301\u043d\u0430","name:ky":"\u0410\u0440\u0433\u0435\u043d\u0442\u0438\u043d\u0430","name:te":"\u0c05\u0c30\u0c4d\u0c1c\u0c46\u0c02\u0c1f\u0c40\u0c28\u0c3e","name:cy":"Ariannin","alt_name:qu":"Qullqillaqta","name:de":"Argentinien","name:dz":"\u0f68\u0f62\u0f0b\u0f47\u0f7a\u0f53\u0f0b\u0f4a\u0f72\u0f0b\u0f53","source":"openstreetmap.org","alt_name:ta":"\u0b85\u0bb0\u0bcd\u0b9c\u0bc6\u0ba8\u0bcd\u0ba4\u0bc0\u0ba9\u0bbe","name:kn":"\u0c85\u0cb0\u0ccd\u0c9c\u0cc6\u0c82\u0c9f\u0cc0\u0ca8","name:dv":"\u0787\u07a7\u0796\u07ac\u0782\u07b0\u0793\u07a9\u0782\u07a7","name:lv":"Argent\u012bna","name:ur":"\u0627\u0631\u062c\u0646\u0679\u0627\u0626\u0646","name:lb":"Argentinien","name:lg":"Arigentina","name:uk":"\u0410\u0440\u0433\u0435\u043d\u0442\u0438\u0301\u043d\u0430","name:ug":"\u0626\u0627\u0631\u06af\u06d0\u0646\u062a\u0649\u0646\u0627","name:li":"Argentini\u00eb","name:lo":"\u0ead\u0eb2\u0e81\u0e8a\u0eb1\u0e87\u0e95\u0eb5\u0e99","name:el":"\u0391\u03c1\u03b3\u03b5\u03bd\u03c4\u03b9\u03bd\u03ae","name:eo":"Argentino","name":"Argentina","name:th":"\u0e2d\u0e32\u0e23\u0e4c\u0e40\u0e08\u0e19\u0e15\u0e34\u0e19\u0e32","name:ay":"Arxintina","name:rm":"Argentinia","name:rn":"Argentine","name:as":"\u0986\u09f0\u09cd\u099c\u09c7\u09a3\u09cd\u099f\u09bf\u09a8\u09be","name:ar":"\u0627\u0644\u0623\u0631\u062c\u0646\u062a\u064a\u0646","name:io":"Arjentinia","name:av":"\u0410\u0440\u0433\u0435\u043d\u0442\u0438\u043d\u0430","name:is":"Argent\u00edna","name:am":"\u12a0\u122d\u1300\u1295\u1272\u1293","name:an":"Archentina","name:ru":"\u0410\u0440\u0433\u0435\u043d\u0442\u0438\u0301\u043d\u0430","name:rw":"Arijantine","name:af":"Argentini\u00eb","name:zu":"i-Argentina","alt_name:rw":"Arijantina","kind_detail":"2","name:zh-yue":"\u963f\u6839\u5ef7","name:zh":"\u963f\u6839\u5ef7","name:so":"Arjantiina","name:sm":"Atenitina","name:sk":"Argent\u00edna","name:ja":"\u30a2\u30eb\u30bc\u30f3\u30c1\u30f3","name:si":"\u0d86\u0da2\u0db1\u0dca\u0da7\u0dd2\u0db1\u0dcf\u0dc0","name:sg":"Arzant\u00eena","name:se":"Argentiinn\u00e1","name:br":"Arc'hantina","name:bn":"\u0986\u09b0\u09cd\u099c\u09c7\u09a8\u09cd\u099f\u09bf\u09a8\u09be","name:bo":"\u0f68\u0f62\u0f0b\u0f47\u0f7a\u0f53\u0f0b\u0f4a\u0f72\u0f0b\u0f53\u0f0d","name:sa":"\u0905\u0930\u094d\u091c\u0923\u094d\u091f\u093f\u0928\u093e","name:be":"\u0410\u0440\u0433\u0435\u043d\u0446\u0456\u0301\u043d\u0430","name:su":"Arg\u00e9ntina","name:bg":"\u0410\u0440\u0436\u0435\u043d\u0442\u045d\u043d\u0430","name:sr":"\u0410\u0440\u0433\u0435\u043d\u0442\u0438\u043d\u0430","name:sq":"Argjentina","alt_name:kn":"\u0c85\u0cb0\u0ccd\u0c9c\u0cc6\u0c82\u0c9f\u0cc0\u0ca8 \u0c97\u0ca3\u0cb0\u0cbe\u0c9c\u0ccd\u0caf","name:jv":"Arg\u00e8ntina","name:ps":"\u0627\u0631\u062c\u0646\u067c\u0627\u06cc\u0646","name:om":"Arjentiinaa","alt_name:oc":"Riu de la Plata","min_zoom":8.0,"name:ko":"\uc544\ub974\ud5e8\ud2f0\ub098","name:pa":"\u0a05\u0a30\u0a1c\u0a28\u0a1f\u0a40\u0a28\u0a3e","name:os":"\u0410\u0440\u0433\u0435\u043d\u0442\u0438\u043d\u00e6","name:or":"\u0b06\u0b30\u0b4d\u0b1c\u0b47\u0b23\u0b4d\u0b1f\u0b3f\u0b28\u0b3e","name:pl":"Argentyna","name:pi":"\u0905\u0930\u094d\u091c\u0928\u094d\u091f\u0940\u0928\u093e","sort_rank":262,"name:ba":"\u0410\u0440\u0433\u0435\u043d\u0442\u0438\u0301\u043d\u0430","osm_relation":true,"name:cv":"\u0410\u0440\u0433\u0435\u043d\u0442\u0438\u043d\u0430","alt_name:co":"Arghjintina","name:hi":"\u0905\u0930\u094d\u091c\u0947\u0923\u094d\u091f\u0940\u0928\u093e","name:he":"\u05d0\u05e8\u05d2\u05e0\u05d8\u05d9\u05e0\u05d4","name:hy":"\u0531\u0580\u0563\u0565\u0576\u057f\u056b\u0576\u0561","name:ht":"Ajantin","name:hu":"Argent\u00edna","name:qu":"Arhintina","kind":"country","name:ak":"Agy\u025bntina","name:yi":"\u05d0\u05b7\u05e8\u05d2\u05e2\u05e0\u05d8\u05d9\u05e0\u05e2","name:yo":"Arg\u1eb9nt\u00edn\u00e0","name:mt":"Ar\u0121entina","name:mr":"\u0906\u0930\u094d\u091c\u0947\u0928\u094d\u091f\u093f\u0928\u093e","name:my":"\u1021\u102c\u1002\u103b\u1004\u103a\u1010\u102e\u1038\u1014\u102c\u1038\u1014\u102d\u102f\u1004\u103a\u1004\u1036","official_name":"Rep\u00fablica Argentina","name:mg":"Arjentina","name:ml":"\u0d05\u0d7c\u0d1c\u0d28\u0d4d\u0d31\u0d40\u0d28","name:mn":"\u0410\u0440\u0433\u0435\u043d\u0442\u0438\u043d","name:mi":"\u0100ketina","id":-286393,"name:mk":"\u0410\u0440\u0433\u0435\u043d\u0442\u0438\u043d\u0430","name:vo":"Larg\u00e4nt\u00e4n","name:fa":"\u0622\u0631\u0698\u0627\u0646\u062a\u06cc\u0646","name:ff":"Arjantiin","name:fi":"Argentiina","old_name:vi":"\u00c1 C\u0103n \u0110\u00ecnh","name:fr":"Argentine","name:fy":"Argentynje","name:nl":"Argentini\u00eb","name:na":"Ardjentina","name:ne":"\u0905\u0930\u094d\u091c\u0947\u0928\u094d\u091f\u093f\u0928\u093e","name:wa":"\u00c5rdjintene","name:wo":"Arsantin","name:nv":"B\u00e9\u00e9sh \u0141igaii Bik\u00e9yah","name:ga":"an Airgint\u00edn","name:gl":"Arxentina","maritime_boundary":true,"alt_name:wo":"Argentiin","name:gv":"yn Argenteen","name:gu":"\u0a86\u0ab0\u0acd\u0a9c\u0ac7\u0aa8\u0acd\u0a9f\u0ac0\u0aa8\u0abe"},"arcs":[2]}]},"roads":{"type":"GeometryCollection","geometries":[]},"earth":{"type":"GeometryCollection","geometries":[]},"landuse":{"type":"GeometryCollection","geometries":[]}},"type":"Topology","transform":{"translate":[-56.25,-36.5978891331],"scale":[0.0003433228,0.0002776414]},"arcs":[[[198,4096],[912,-618],[481,-541]],[[1591,2937],[1283,1159]],[[0,1517],[1591,1420]],[[4096,0],[-4096,0],[0,4096],[4096,0],[0,-4096]]]}