{"objects":{"water":{"type":"GeometryCollection","geometries":[{"type":"Polygon","properties":{"source":"naturalearthdata.com","kind":"ocean","area":1576712559132672,"sort_rank":200,"min_zoom":0.0,"id":1},"arcs":[[4],[5]]},{"type":"LineString","properties":{"source":"naturalearthdata.com","kind":"ocean","sort_rank":205,"boundary":true,"min_zoom":0.0,"id":424},"arcs":[6]},{"type":"LineString","properties":{"source":"naturalearthdata.com","kind":"ocean","sort_rank":205,"boundary":true,"min_zoom":0.0,"id":425},"arcs":[7]},{"type":"MultiLineString","properties":{"source":"naturalearthdata.com","kind":"ocean","sort_rank":205,"boundary":true,"min_zoom":0.0,"id":439},"arcs":[[8],[9]]}]},"buildings":{"type":"GeometryCollection","geometries":[]},"places":{"type":"GeometryCollection","geometries":[{"type":"Point","properties":{"name:pt":"Saint-Pierre e Miquelon","name:ka":"\u10e1\u10d4\u10dc\u10e2-\u10de\u10d8\u10d4\u10e0\u10d8 \u10d3\u10d0 \u10db\u10d8\u10e5\u10d4\u10da\u10dd\u10dc\u10d8","name:mt":"Saint Pierre and Miquelon","name:ko":"\uc138\uc778\ud2b8\ud53c\uc5d0\ub974-\ubbf8\ucf00\ub871","name:kn":"\u0cb8\u0cc7\u0c82\u0c9f\u0ccd \u0caa\u0cbf\u0caf\u0cb0\u0cc6 \u0cae\u0ca4\u0ccd\u0ca4\u0cc1 \u0cae\u0cbf\u0c95\u0cc6\u0cb2\u0ca8\u0ccd","name:km":"\u179f\u1784\u17cb\u1796\u17d2\u1799\u17c2\u179a \u1793\u17b7\u1784\u200b\u1798\u17b8\u1782\u17b8\u17a1\u17bb\u1784","name:kl":"Saint Pierre aamma Miquelon","name:cs":"Saint-Pierre a Miquelon","name:ki":"Santapieri na Mikeloni","name:tr":"Saint-Pierre ve Miquelon","name:th":"\u0e41\u0e0b\u0e07\u0e1b\u0e35\u0e41\u0e22\u0e23\u0e4c\u0e41\u0e25\u0e30\u0e21\u0e35\u0e40\u0e01\u0e2d\u0e25\u0e07","name:ti":"\u1245\u12f1\u1235 \u1352\u12ec\u122d \u12a5\u1293 \u121a\u12a9\u12a4\u120e\u1295","name:ks":"\u0633\u06cc\u0646\u065b\u0679 \u067e\u06cc\u0656\u0631\u06cc \u062a\u06c1\u0655 \u0645\u0648\u06a9\u06cc\u0644\u0650\u06cc\u064e\u0646","name:to":"Seini Piea mo Mikaloni","name:tl":"Santa Pierre at Miquelon","name:sv":"Saint-Pierre och Miquelon","name:or":"\u0b38\u0b47\u0b23\u0b4d\u0b1f \u0b2a\u0b3f\u0b0f\u0b30\u0b47 \u0b0f\u0b2c\u0b02 \u0b2e\u0b3f\u0b15\u0b4d\u0b2c\u0b3e\u0b32\u0b4b\u0b28\u0b4d","name:pl":"Saint-Pierre i Miquelon","name:ta":"\u0b9a\u0bc6\u0baf\u0bbf\u0ba9\u0bcd\u0b9f\u0bcd \u0baa\u0bbf\u0baf\u0bb0\u0bcd \u0bae\u0bb1\u0bcd\u0bb1\u0bc1\u0bae\u0bcd \u0bae\u0bbf\u0b95\u0bcd\u0bb5\u0bc7\u0bb2\u0bbe\u0ba9\u0bcd","name:ca":"Saint-Pierre i Miquelon","name:te":"\u0c38\u0c46\u0c02\u0c1f\u0c4d \u0c2a\u0c3f\u0c2f\u0c46\u0c30\u0c4d \u0c2e\u0c30\u0c3f\u0c2f\u0c41 \u0c2e\u0c3f\u0c15\u0c46\u0c32\u0c3e\u0c28\u0c4d","name:vi":"Saint-Pierre v\u00e0 Miquelon","name:ro":"Sf\u00e2ntul Pierre \u0219i Miquelon","name:cy":"Saint Pierre a Miquelon","name:hr":"Sveti Petar i Mikelon","name:da":"Saint Pierre og Miquelon","name:de":"Saint-Pierre und Miquelon","name:dz":"\u0f66\u0f72\u0f53\u0f4a\u0f0b\u0f54\u0f72\u0f0b\u0f61\u0f7a\u0f62\u0f0b \u0f68\u0f7a\u0f53\u0f4c\u0f0b \u0f58\u0f72\u0f40\u0f7c\u0f0b\u0f63\u0f7a\u0f53","source":"openstreetmap.org","name:lv":"Senpj\u0113ra un Mikelona","name:lt":"Sen Pjeras ir Mikelonas","name:hi":"\u0938\u0947\u0902\u091f \u092a\u093f\u090f\u0930\u0947 \u0914\u0930 \u092e\u093f\u0915\u094d\u0935\u0947\u0932\u0928","name:he":"\u05e1\u05e0\u05d8 \u05e4\u05d9\u05d9\u05e8 \u05d5\u05de\u05d9\u05e7\u05dc\u05d5\u05df","kind":"region","name:ur":"\u0633\u06cc\u0646\u0679 \u067e\u06cc\u0626\u0631 \u0627\u0648\u0631 \u0645\u06cc\u06a9\u0644\u06cc\u0626\u0648\u0646","name:lg":"Senti Piyere ne Mikeloni","name:uk":"\u0421\u0435\u043d-\u041f\u2019\u0454\u0440 \u0456 \u041c\u0456\u043a\u0435\u043b\u043e\u043d","name:hu":"Saint-Pierre \u00e9s Miquelon","name:ln":"S\u00e1ntu p\u00e9t\u00e9to mp\u00e9 Mikel\u0254","name:lo":"\u0ec0\u0e8a\u0eb1\u0ec9\u0e99 \u0e9b\u0eb5\u0ec1\u0ead \u0ec1\u0ea5\u0eb0 \u0ea1\u0eb4\u0ec0\u0e81\u0ea7\u0ea5\u0ead\u0e99","population":6080,"name:el":"\u0386\u03b3\u03b9\u03bf\u03c2 \u03a0\u03ad\u03c4\u03c1\u03bf\u03c2 \u03ba\u03b1\u03b9 \u039c\u03b9\u03ba\u03b5\u03bb\u03cc\u03bd","name:eo":"Sankta-Piero kaj Mikelono","name:en":"Saint Pierre and Miquelon","name":"Saint-Pierre-et-Miquelon","name:ee":"Saint Pierre kple Mikel\u0254n nutome","min_zoom":4.0,"name:gu":"\u0ab8\u0ac7\u0a82\u0a9f \u0aaa\u0ac0\u0a8f\u0ab0\u0ac7 \u0a8f\u0aa8\u0acd\u0aa1 \u0aae\u0abf\u0a95\u0ac0\u0ab2\u0acb\u0aa8","name:eu":"Saint-Pierre eta Mikelune","name:et":"Saint Pierre ja Miquelon","name:nl":"Saint-Pierre en Miquelon","name:es":"San Pedro y Miguel\u00f3n","name:rm":"Saint Pierre e Miquelon","name:rn":"Sempiyeri na Mikeloni","name:az":"Seynt Piyer v\u0259 Mikelon","name:id":"Saint Pierre dan Miquelon","name:ms":"Saint Pierre and Miquelon","name:mr":"\u0938\u0947\u0902\u091f \u092a\u093f\u092f\u0930\u0947 \u0906\u0923\u093f \u092e\u093f\u0915\u094d\u0935\u0947\u0932\u094b\u0928","name:ar":"\u0633\u0627\u0646 \u0628\u064a\u0627\u0631 \u0648\u0645\u064a\u0643\u0644\u0648\u0646","int_name":"Saint Pierre and Miquelon","name:is":"Sankti Pierre og Miquelon","name:am":"\u1245\u12f1\u1235 \u1352\u12ec\u122d \u12a5\u1293 \u121a\u12a9\u12a4\u120e\u1295","name:it":"Saint-Pierre e Miquelon","name:ml":"\u0d38\u0d46\u0d7b\u0d31\u0d4d \u0d2a\u0d3f\u0d31\u0d47\u0d2f\u0d41\u0d02 \u0d2e\u0d3f\u0d15\u0d4d\u0d35\u0d32\u0d23\u0d41\u0d02","name:ru":"\u0421\u0435\u043d-\u041f\u044c\u0435\u0440 \u0438 \u041c\u0438\u043a\u0435\u043b\u043e\u043d","name:mn":"\u0421\u0435\u043d\u0442 \u041f\u044c\u0435\u0440 \u0431\u0430 \u041c\u0438\u043a\u0435\u043b\u043e\u043d","id":249399410,"name:mk":"\u0421\u0435\u043d\u0442 \u041f\u0458\u0435\u0440 \u0438 \u041c\u0438\u043a\u0435\u043b\u0430\u043d","name:af":"Saint-Pierre et Miquelon","name:zu":"i-Saint Pierre kanye ne-Miquelon","name:ha":"San Piyar Da Mikelan","name:nn":"St. Pierre og Miquelon","name:ff":"See Piyeer e Mikeloo","kind_detail":"state","name:no":"Saint-Pierre og Miquelon","name:fo":"Saint Pierre og Miquelon","name:zh":"\u5723\u76ae\u57c3\u5c14\u548c\u5bc6\u514b\u9686\u7fa4\u5c9b","name:so":"Saint Pierre and Miquelon","name:sn":"Saint Pierre and Miquelon","name:sl":"Saint Pierre in Miquelon","name:sk":"Saint Pierre a Miquelon","name:ja":"\u30b5\u30f3\u30d4\u30a8\u30fc\u30eb\u5cf6\u30fb\u30df\u30af\u30ed\u30f3\u5cf6","name:si":"\u0dc1\u0dcf\u0db1\u0dca\u0dad \u0db4\u0dd2\u0dba\u0dbb\u0dda \u0dc3\u0dc4 \u0db8\u0dd0\u0d9a\u0ddd\u0dbd\u0db1\u0dca","name:fa":"\u0633\u0646\u062a \u067e\u06cc\u0631 \u0648 \u0645\u06cc\u06a9\u0644\u0648\u0646","name:sg":"S\u00ean-Py\u00eare na Mikel\u00f6on","name:se":"Saint Pierre ja Miquelon","name:ne":"\u0938\u0947\u0928\u094d\u091f \u092a\u093f\u0930\u094d\u0930\u0947 \u0930 \u092e\u093f\u0915\u094d\u0915\u0947\u0932\u094b\u0928","name:br":"Sant-P\u00ear-ha-Mikelon","name:bs":"Sen Pjer i Mikelon","name:bm":"Piy\u025bri-Senu-ni-Mikel\u0254\u014b","name:bn":"\u09b8\u09c7\u09a8\u09cd\u099f \u09aa\u09bf\u09af\u09bc\u09c7\u09b0 \u0993 \u09ae\u09bf\u0995\u09c1\u09af\u09bc\u09c7\u09b2\u09a8","name:sw":"Santapieri na Mikeloni","name:be":"\u0421\u0432\u044f\u0442\u044b \u041f\u2019\u0435\u0440 \u0456 \u041c\u0456\u043a\u0432\u0435\u043b\u043e\u043d","name:bg":"\u0421\u0435\u043d \u041f\u0438\u0435\u0440 \u0438 \u041c\u0438\u0433\u0435\u043b\u043e\u043d","name:sr":"\u0421\u0435\u043d \u041f\u0458\u0435\u0440 \u0438 \u041c\u0438\u043a\u0435\u043b\u043e\u043d","name:ga":"Saint Pierre agus Miquelon","name:gd":"Saint Pierre is Miquelon","name:gl":"San Pedro e Miguel\u00f3n","name:yo":"Or\u00edl\u1eb9\u0301\u00e8de P\u1eb9\u1eb9ri ati mikuloni","name:ak":"Saint Pierre ne Miquelon","name:fi":"Saint-Pierre ja Miquelon"},"coordinates":[111,3237]},{"type":"Point","properties":{"name:az":"Sent Pyer","name:ja":"\u30b5\u30f3\uff1d\u30d4\u30a8\u30fc\u30eb","name:ka":"\u10e1\u10d4\u10dc-\u10de\u10d8\u10d4\u10e0\u10d8","name:ko":"\uc0dd\ud53c\uc5d0\ub974","kind":"locality","name:io":"St Pierre","min_zoom":8.0,"name:uk":"\u0421\u0435\u043d-\u041f'\u0454\u0440","name:be":"\u0421\u0435\u043d-\u041f'\u0435\u0440","name:os":"\u0421\u0435\u043d-\u041f\u044c\u0435\u0440","name:ru":"\u0421\u0435\u043d-\u041f\u044c\u0435\u0440","name:bg":"\u0421\u0435\u043d \u041f\u0438\u0435\u0440","name":"Saint-Pierre","id":246842649,"population":5456,"name:el":"\u03a3\u03b1\u03b9\u03bd \u03a0\u03b9\u03ad\u03c1","name:eo":"Sanktpiero","name:lt":"Sen Pjeras","kind_detail":"town","name:sr":"\u0421\u0435\u043d \u041f\u0458\u0435\u0440","source":"openstreetmap.org","name:zh":"\u8056\u76ae\u57c3\u723e","name:es":"San Pedro"},"coordinates":[213,2983]}]},"transit":{"type":"GeometryCollection","geometries":[]},"pois":{"type":"GeometryCollection","geometries":[]},"boundaries":{"type":"GeometryCollection","geometries":[{"type":"LineString","properties":{"name:right:yo":"K\u00e1n\u00e1d\u00e0","name:right:yi":"\u05e7\u05d0\u05e0\u05d0\u05d3\u05e2","name:right:hy":"\u053f\u0561\u0576\u0561\u0564\u0561","name:right:dv":"\u0786\u07ac\u0782\u07ac\u0791\u07a7","name:left:lb":"Frankr\u00e4ich","name:left:st":"Fora","name:right:el":"\u039a\u03b1\u03bd\u03b1\u03b4\u03ac\u03c2","name:right:hr":"Kanada","name:left:kg":"Fwalansa","name:left:ka":"\u10e1\u10d0\u10e4\u10e0\u10d0\u10dc\u10d2\u10d4\u10d7\u10d8","name:left:km":"\u1794\u17b6\u179a\u17b6\u17c6\u1784","name:left:kl":"Frankrigi","name:left:ko":"\ud504\ub791\uc2a4","name:left:kn":"\u0cab\u0ccd\u0cb0\u0cbe\u0ca8\u0ccd\u0cb8\u0ccd","name:left:ki":"Ubaranja","name:right:rw":"Kanada","name:left:kk":"\u0424\u0440\u0430\u043d\u0446\u0438\u044f","name:left:rm":"Frantscha","name:left:ku":"Fransa","name:left:kw":"Pow Frynk","name:left:kv":"\u0424\u0440\u0430\u043d\u0446\u0438\u044f","name:right:rn":"Kanada","name:left:rw":"Ubufaransa","name:left:ks":"\u0641\u0631\u065b\u0627\u0646\u0633","name:left:ru":"\u0424\u0440\u0430\u043d\u0446\u0438\u044f","name:right:ig":"K\u00e1nada","name:right:id":"Kanada","name:left:ky":"\u0424\u0440\u0430\u043d\u0446\u0438\u044f","name:right:bi":"Kanada","name:right:bn":"\u0995\u09be\u09a8\u09be\u09a1\u09be","name:right:bo":"\u0f41\u0f0b\u0f53\u0f0b\u0f4c\u0f0d","name:right:bm":"Kanada","name:right:ba":"\u041a\u0430\u043d\u0430\u0434\u0430","name:right:bg":"\u041a\u0430\u043d\u0430\u0434\u0430","name:right:be":"\u041a\u0430\u043d\u0430\u0434\u0430","name:right:br":"Kanada","name:left:si":"\u0db4\u0dca\u200d\u0dbb\u0d82\u0dc1\u0dba","name:left:sk":"Franc\u00fazsko","name:right:wo":"Kanadaa","name:right:ne":"\u0915\u094d\u092f\u093e\u0928\u093e\u0921\u093e","name:right:na":"Kanada","name:right:gv":"Yn Chanadey","name:right:hi":"\u0915\u0928\u093e\u0921\u093e","name:right:nv":"Deeteel Bik\u00e9yah","name:right:pt":"Canad\u00e1","kind_detail":"2","alt_name:right:vi":"Ca-na-\u0111a","name:left:mi":"W\u012bw\u012b","name:right:gu":"\u0a95\u0ac7\u0aa8\u0ac7\u0aa1\u0abe","name:left:ty":"Far\u0101ni","name:right:ps":"\u06a9\u0627\u0646\u0627\u0689\u0627","name:left:mg":"Frantsa","name:left:mk":"\u0424\u0440\u0430\u043d\u0446\u0438\u0458\u0430","name:left:tr":"Fransa","name:left:tt":"\u0424\u0440\u0430\u043d\u0446\u0438\u044f","name:left:mn":"\u0424\u0440\u0430\u043d\u0446","name:left:ml":"\u0d2b\u0d4d\u0d30\u0d3e\u0d7b\u0d38\u0d4d","name:left:th":"\u0e1b\u0e23\u0e30\u0e40\u0e17\u0e28\u0e1d\u0e23\u0e31\u0e48\u0e07\u0e40\u0e28\u0e2a","name:left:mr":"\u092b\u094d\u0930\u093e\u0928\u094d\u0938","name:left:tk":"Fransi\u00fda","name:left:tl":"Pransiya","name:left:to":"Falanis\u0113","name:right:gl":"Canad\u00e1","name:left:my":"\u1015\u103c\u1004\u103a\u101e\u1005\u103a\u1014\u102d\u102f\u1004\u103a\u1004\u1036","name:right:gn":"Kanat\u00e3","name:right:pl":"Kanada","name:left:te":"\u0c2b\u0c4d\u0c30\u0c3e\u0c28\u0c4d\u0c38\u0c4d","name:left:tg":"\u0424\u0430\u0440\u043e\u043d\u0441\u0430","name:left:ms":"Perancis","name:right:ka":"\u10d9\u10d0\u10dc\u10d0\u10d3\u10d0","name:left:ti":"\u1348\u1228\u1295\u1233\u12ed","name:left:da":"Frankrig","name:left:de":"Frankreich","name:left:dz":"\u0f55\u0f62\u0f71\u0f53\u0f66\u0f72\u0f0b","name:right:ga":"Ceanada","name:left:dv":"\u078a\u07a6\u0783\u07a6\u0782\u07b0\u0790\u07ad\u0790\u07a8\u0788\u07a8\u078d\u07a7\u078c\u07b0","name:right:ug":"\u0643\u0627\u0646\u0627\u062f\u0627","name:left:hi":"\u092b\u093c\u094d\u0930\u093e\u0928\u094d\u0938","name:right:lb":"Kanada","name:right:uk":"\u041a\u0430\u043d\u0430\u0434\u0430","name:left:he":"\u05e6\u05e8\u05e4\u05ea","name:right:ln":"Kanad\u00e1","name:left:mt":"Franza","name:left:ha":"Faransa","name:right:lt":"Kanada","name:right:ur":"\u06a9\u06cc\u0646\u06cc\u0688\u0627","name:right:lv":"Kan\u0101da","name:left:hy":"\u0556\u0580\u0561\u0576\u057d\u056b\u0561","name:left:ta":"\u0baa\u0bbf\u0bb0\u0bbe\u0ba9\u0bcd\u0b9a\u0bc1","name:left:ht":"Frans","name:left:hu":"Franciaorsz\u00e1g","name:left:hr":"Francuska","name:right:av":"\u041a\u0430\u043d\u0430\u0434\u0430","sort_rank":262,"osm_relation":true,"name:right:as":"\u0995\u09be\u09a8\u09be\u09a1\u09be","name:right:es":"Canad\u00e1","name:left:ja":"\u30d5\u30e9\u30f3\u30b9","name:right:eu":"Kanada","name:right:et":"Kanada","name:left:os":"\u0424\u0440\u0430\u043d\u0446","name:left:or":"\u0b2b\u0b4d\u0b30\u0b3e\u0b28\u0b4d\u0b38","name:right:pa":"\u0a15\u0a48\u0a28\u0a47\u0a21\u0a3e","name:left:vo":"Frans\u00e4n","name:left:oc":"Fran\u00e7a","name:right:eo":"Kanado","name:left:vi":"Ph\u00e1p","name:left:ff":"Faransi","name:left:fa":"\u0641\u0631\u0627\u0646\u0633\u0647","name:left:fo":"Frakland","name:left:qu":"Ransiya","name:left:fi":"Ranska","name:right:ay":"Kanada","name:left:fy":"Frankryk","name:right:ja":"\u30ab\u30ca\u30c0","name:right:sq":"Kanadaja","name:right:ss":"IKhanada","name:right:sr":"\u041a\u0430\u043d\u0430\u0434\u0430","name:right:su":"Kanada","name:right:sw":"Kanada","name:right:sv":"Kanada","name:right:sh":"Kanada","name:right:sk":"Kanada","name:right:jv":"Kanada","name:right:sl":"Kanada","name:right:so":"Kanada","name:right:sa":"\u0915\u0947\u0928\u0921\u093e","name:left:jv":"Prancis","id":-2202162,"name:right:sg":"Kanad\u00e4a","name:right:co":"Canad\u00e0","name:right:ca":"Canad\u00e0","name:right:se":"Kan\u00e1da","name:right:ce":"\u041a\u0430\u043d\u0430\u0434\u0430","name:right:zh-yue":"\u52a0\u62ff\u5927","name:right:cs":"Kanada","name:right:cr":"\u1473\u14c7\u1456","name:right:cu":"\u041a\u0430\u043d\u0430\u0434\u0430","name:right:iu":"\u1472\u14c7\u1455 \/ kanata","name:right:cv":"\u041a\u0430\u043d\u0430\u0434\u0430","name:left:as":"\u09ab\u09cd\u09f0\u09be\u09a8\u09cd\u09b8","name:left:ar":"\u0641\u0631\u0646\u0633\u0627","name:right:is":"Kanada","name:left:az":"Fransa","name:left:ay":"Phransiya","name:left:ro":"Fran\u021ba","name:left:af":"Frankryk","name:left:an":"Francia","name:left:am":"\u1348\u1228\u1295\u1223\u12ed","name:right:ru":"\u041a\u0430\u043d\u0430\u0434\u0430","name:left:ak":"Fr\u025bnkyeman","name:right:io":"Kanada","name:left:zh-yue":"\u6cd5\u570b","name:right:ik":"Kanada","name:left:la":"Francia","name:right:qu":"Kanada","alt_name:left:eo":"Francio","name:left:lg":"Bufalansa","name:left:su":"Perancis","name:left:li":"Frankriek","name:left:sw":"Ufaransa","name:left:sv":"Frankrike","name:left:sq":"Franca","name:right:hu":"Kanada","name:left:ln":"Falansia","name:left:lo":"\u0e9b\u0eb0\u0ec0\u0e97\u0e94\u0e9d\u0eb0\u0ea5\u0eb1\u0ec8\u0e87","name:left:sm":"Farani","name:left:sl":"Francija","name:left:so":"Faransiiska","name:left:lt":"Pranc\u016bzija","name:left:sh":"Francuska","name:left:lv":"Francija","name:left:se":"Frankriika","name:right:ha":"Kanada","name:left:sg":"Far\u00e2nzi","name:left:sa":"\u092b\u094d\u0930\u093e\u0928\u094d\u0938\u0926\u0947\u0936\u0903","name:right:he":"\u05e7\u05e0\u05d3\u05d4","name:left:sc":"Frantza","name:right:af":"Kanada","name:left:co":"Francia","name:right:ab":"\u041a\u0430\u043d\u0430\u0434\u0430","name:left:ce":"\u0424\u0440\u0430\u043d\u0446\u0438","name:right:an":"Canad\u00e1","name:right:am":"\u12ab\u1293\u12f3","name:left:ca":"Fran\u00e7a","source":"openstreetmap.org","name:left:cy":"Ffrainc","name:right:ar":"\u0643\u0646\u062f\u0627","name:left:cu":"\u0424\u0440\u0430\u043d\u043a\u0457\ua657","name:left:cv":"\u0424\u0440\u0430\u043d\u0446\u0438","name:right:az":"Kanada","name:left:cs":"Francie","name":"France - Canada","name:right:zu":"IKhanada","name:left:zu":"IFulansi","name:left:zh":"\u6cd5\u570b","name:right:zh":"\u52a0\u62ff\u5927","name:left:za":"Fazgoz","official_name:left":"R\u00e9publique fran\u00e7aise","name:left:uz":"Fransiya","name:left:ps":"\u0641\u0631\u0627\u0646\u0633\u0647","name:left:nv":"D\u00e1\u00e1ghahii Din\u00e9\u02bci\u02bc Bik\u00e9yah","name:left:ur":"\u0641\u0631\u0627\u0646\u0633","id:right":-1428125,"name:left:uk":"\u0424\u0440\u0430\u043d\u0446\u0456\u044f","name:left:no":"Frankrike","name:left:nl":"Frankrijk","name:right:fa":"\u06a9\u0627\u0646\u0627\u062f\u0627","name:right:fo":"Kanada","name:left:ne":"\u092b\u094d\u0930\u093e\u0928\u094d\u0938","name:left:ug":"\u0641\u0631\u0627\u0646\u0633\u0649\u064a\u06d5","name:left:na":"Prant","name:left:eo":"Francujo","name:left:el":"\u0393\u03b1\u03bb\u03bb\u03af\u03b1","name:left:pl":"Francja","name:left:es":"Francia","name:left:ss":"IFulansi","name:right:kk":"\u041a\u0430\u043d\u0430\u0434\u0430","name:left:eu":"Frantzia","name:left:et":"Prantsusmaa","name:right:tw":"Kanada","name:right:oc":"Canad\u00e0","name:left:ia":"Francia","name:right:bs":"Kanada","name:left:sr":"\u0424\u0440\u0430\u043d\u0446\u0443\u0441\u043a\u0430","name:right:uz":"Kanada","name:right:os":"\u041a\u0430\u043d\u0430\u0434\u00e6","name:right:or":"\u0b15\u0b3e\u0b28\u0b3e\u0b21\u0b3c\u0b3e","name:right:tl":"Kanada","name:right:ku":"Kanada","old_name:right:vi":"Gia N\u00e3 \u0110\u1ea1i","name:right:ko":"\uce90\ub098\ub2e4","min_zoom":8.0,"name:right:te":"\u0c15\u0c46\u0c28\u0c21\u0c3e","name:left:wo":"Faraas","name:left:ga":"An Fhrainc","name:right:tg":"\u041a\u0430\u043d\u0430\u0434\u0430","name:left:gd":"An Fhraing","name:left:gl":"Francia","name:left:gn":"Hy\u00e3sia","name:left:gu":"\u0aab\u0acd\u0ab0\u0abe\u0aa8\u0acd\u0ab8","name:right:tk":"Kanada","name:left:gv":"Yn Rank","name:left":"France","name:right:mk":"\u041a\u0430\u043d\u0430\u0434\u0430","name:right:mi":"K\u0101nata","name:right:mn":"\u041a\u0430\u043d\u0430\u0434","name:right:ml":"\u0d15\u0d3e\u0d28\u0d21","name:right:vo":"Kanad\u00e4n","name:right:mg":"Kanada","name:right:my":"\u1000\u1014\u1031\u1012\u102b\u1014\u102d\u102f\u1004\u103a\u1004\u1036","name:right:ms":"Kanada","name:right:mr":"\u0915\u0945\u0928\u0921\u093e","name:right:fy":"Kanada","name:right:mt":"Kanada","name:left:nn":"Frankrike","kind":"country","name:left:br":"Bro-C'hall","name:left:bs":"Francuska","name:left:ba":"\u0424\u0440\u0430\u043d\u0446\u0438\u044f","name:left:bg":"\u0424\u0440\u0430\u043d\u0446\u0438\u044f","name:left:be":"\u0424\u0440\u0430\u043d\u0446\u044b\u044f","name:left:bi":"Franis","name:left:bn":"\u09ab\u09cd\u09b0\u09be\u09a8\u09cd\u09b8","name:left:bo":"\u0f67\u0fa5\u0f0b\u0f62\u0f53\u0f0b\u0f66\u0f72\u0f0d","name:right":"Canada","name:left:yo":"Fr\u00e1ns\u00ec","name:left:yi":"\u05e4\u05e8\u05d0\u05e0\u05e7\u05e8\u05d9\u05d9\u05da","id:left":-2202162,"name:right:fi":"Kanada","name:left:io":"Francia","name:right:ty":"Tanata","name:left:ii":"\ua0d4\ua1e9","name:right:tt":"\u041a\u0430\u043d\u0430\u0434\u0430","name:left:ie":"Francia","name:left:id":"Perancis","name:right:km":"\u1780\u17b6\u178e\u17b6\u178a\u17b6","name:right:tr":"Kanada","name:right:kn":"\u0c95\u0cc6\u0ca8\u0ca1\u0cbe","name:left:pt":"Fran\u00e7a","name:right:th":"\u0e1b\u0e23\u0e30\u0e40\u0e17\u0e28\u0e41\u0e04\u0e19\u0e32\u0e14\u0e32","name:right:kw":"Kanada","name:right:kv":"\u041a\u0430\u043d\u0430\u0434\u0430","name:right:ky":"\u041a\u0430\u043d\u0430\u0434\u0430","name:left:zh-min-nan":"Hoat-kok","name:left:it":"Francia","name:left:is":"Frakkland","name:right:ta":"\u0b95\u0ba9\u0b9f\u0bbe","name:right:de":"Kanada","name:left:rn":"Francia","maritime_boundary":true,"name:right:dz":"\u0f40\u0f7a\u0f0b\u0f53\u0f0b\u0f4c\u0f0b","name:left:pa":"\u0a2b\u0a4d\u0a30\u0a3e\u0a02\u0a38","name:right:ht":"Kanada"},"arcs":[0]},{"type":"LineString","properties":{"name:kg":"Fwalansa","name:ty":"Far\u0101ni","name:ka":"\u10e1\u10d0\u10e4\u10e0\u10d0\u10dc\u10d2\u10d4\u10d7\u10d8","name:ko":"\ud504\ub791\uc2a4","name:cv":"\u0424\u0440\u0430\u043d\u0446\u0438","name:cu":"\u0424\u0440\u0430\u043d\u043a\u0457\ua657","name:kl":"Frankrigi","name:cs":"Francie","name:ki":"Ubaranja","name:co":"Francia","name:kv":"\u0424\u0440\u0430\u043d\u0446\u0438\u044f","name:ku":"Fransa","name:ti":"\u1348\u1228\u1295\u1233\u12ed","name:ks":"\u0641\u0631\u065b\u0627\u0646\u0633","name:to":"Falanis\u0113","name:tl":"Pransiya","name:ce":"\u0424\u0440\u0430\u043d\u0446\u0438","name:ta":"\u0baa\u0bbf\u0bb0\u0bbe\u0ba9\u0bcd\u0b9a\u0bc1","name:tg":"\u0424\u0430\u0440\u043e\u043d\u0441\u0430","name:ca":"Fran\u00e7a","name:te":"\u0c2b\u0c4d\u0c30\u0c3e\u0c28\u0c4d\u0c38\u0c4d","name:cy":"Ffrainc","name:qu":"Ransiya","name:da":"Frankrig","name:de":"Frankreich","name:dz":"\u0f55\u0f62\u0f71\u0f53\u0f66\u0f72\u0f0b","source":"openstreetmap.org","name:kn":"\u0cab\u0ccd\u0cb0\u0cbe\u0ca8\u0ccd\u0cb8\u0ccd","name:dv":"\u078a\u07a6\u0783\u07a6\u0782\u07b0\u0790\u07ad\u0790\u07a8\u0788\u07a8\u078d\u07a7\u078c\u07b0","name:km":"\u1794\u17b6\u179a\u17b6\u17c6\u1784","name:lv":"Francija","name:lt":"Pranc\u016bzija","name:uz":"Fransiya","name:kk":"\u0424\u0440\u0430\u043d\u0446\u0438\u044f","name:ur":"\u0641\u0631\u0627\u0646\u0633","name:lb":"Frankr\u00e4ich","name:la":"Francia","name:lg":"Bufalansa","name:uk":"\u0424\u0440\u0430\u043d\u0446\u0456\u044f","name:ug":"\u0641\u0631\u0627\u0646\u0633\u0649\u064a\u06d5","name:li":"Frankriek","name:ln":"Falansia","name:lo":"\u0e9b\u0eb0\u0ec0\u0e97\u0e94\u0e9d\u0eb0\u0ea5\u0eb1\u0ec8\u0e87","name:el":"\u0393\u03b1\u03bb\u03bb\u03af\u03b1","name:eo":"Francujo","name":"France","name:tk":"Fransi\u00fda","name:th":"\u0e1b\u0e23\u0e30\u0e40\u0e17\u0e28\u0e1d\u0e23\u0e31\u0e48\u0e07\u0e40\u0e28\u0e2a","name:eu":"Frantzia","name:et":"Prantsusmaa","name:es":"Francia","name:ay":"Phransiya","name:rm":"Frantscha","name:rn":"Francia","name:az":"Fransa","name:ie":"Francia","name:id":"Perancis","name:ii":"\ua0d4\ua1e9","name:as":"\u09ab\u09cd\u09f0\u09be\u09a8\u09cd\u09b8","name:ar":"\u0641\u0631\u0646\u0633\u0627","name:io":"Francia","name:ak":"Fr\u025bnkyeman","name:am":"\u1348\u1228\u1295\u1223\u12ed","name:it":"Francia","name:an":"Francia","name:ru":"\u0424\u0440\u0430\u043d\u0446\u0438\u044f","name:rw":"Ubufaransa","name:af":"Frankryk","name:zu":"IFulansi","kind_detail":"2","name:za":"Fazgoz","name:zh-yue":"\u6cd5\u570b","name:zh":"\u6cd5\u570b","name:so":"Faransiiska","name:sm":"Farani","name:sl":"Francija","name:sk":"Franc\u00fazsko","name:ja":"\u30d5\u30e9\u30f3\u30b9","name:si":"\u0db4\u0dca\u200d\u0dbb\u0d82\u0dc1\u0dba","name:sh":"Francuska","name:sg":"Far\u00e2nzi","name:se":"Frankriika","name:sc":"Frantza","name:br":"Bro-C'hall","name:bs":"Francuska","name:bn":"\u09ab\u09cd\u09b0\u09be\u09a8\u09cd\u09b8","name:bo":"\u0f67\u0fa5\u0f0b\u0f62\u0f53\u0f0b\u0f66\u0f72\u0f0d","name:bi":"Franis","name:sw":"Ufaransa","name:be":"\u0424\u0440\u0430\u043d\u0446\u044b\u044f","name:su":"Perancis","name:bg":"\u0424\u0440\u0430\u043d\u0446\u0438\u044f","name:ss":"IFulansi","name:ba":"\u0424\u0440\u0430\u043d\u0446\u0438\u044f","name:sq":"Franca","name:jv":"Prancis","name:sa":"\u092b\u094d\u0930\u093e\u0928\u094d\u0938\u0926\u0947\u0936\u0903","name:ia":"Francia","name:pt":"Fran\u00e7a","name:ps":"\u0641\u0631\u0627\u0646\u0633\u0647","name:oc":"Fran\u00e7a","min_zoom":8.0,"name:ro":"Fran\u021ba","name:zh-min-nan":"Hoat-kok","name:os":"\u0424\u0440\u0430\u043d\u0446","name:or":"\u0b2b\u0b4d\u0b30\u0b3e\u0b28\u0b4d\u0b38","name:pl":"Francja","name:st":"Fora","sort_rank":262,"name:sr":"\u0424\u0440\u0430\u043d\u0446\u0443\u0441\u043a\u0430","osm_relation":true,"name:pa":"\u0a2b\u0a4d\u0a30\u0a3e\u0a02\u0a38","name:tr":"Fransa","name:hi":"\u092b\u093c\u094d\u0930\u093e\u0928\u094d\u0938","name:sv":"Frankrike","name:he":"\u05e6\u05e8\u05e4\u05ea","name:ha":"Faransa","name:hy":"\u0556\u0580\u0561\u0576\u057d\u056b\u0561","name:ht":"Frans","name:hu":"Franciaorsz\u00e1g","name:hr":"Francuska","kind":"country","name:is":"Frakkland","name:yi":"\u05e4\u05e8\u05d0\u05e0\u05e7\u05e8\u05d9\u05d9\u05da","name:yo":"Fr\u00e1ns\u00ec","name:mt":"Franza","alt_name:eo":"Francio","name:ms":"Perancis","name:mr":"\u092b\u094d\u0930\u093e\u0928\u094d\u0938","name:my":"\u1015\u103c\u1004\u103a\u101e\u1005\u103a\u1014\u102d\u102f\u1004\u103a\u1004\u1036","official_name":"R\u00e9publique fran\u00e7aise","name:kw":"Pow Frynk","name:mg":"Frantsa","name:vi":"Ph\u00e1p","name:ml":"\u0d2b\u0d4d\u0d30\u0d3e\u0d7b\u0d38\u0d4d","name:mn":"\u0424\u0440\u0430\u043d\u0446","name:mi":"W\u012bw\u012b","id":-2202162,"name:mk":"\u0424\u0440\u0430\u043d\u0446\u0438\u0458\u0430","name:vo":"Frans\u00e4n","name:fa":"\u0641\u0631\u0627\u0646\u0633\u0647","name:ff":"Faransi","name:fi":"Ranska","name:ky":"\u0424\u0440\u0430\u043d\u0446\u0438\u044f","name:fo":"Frakland","name:fy":"Frankryk","name:nl":"Frankrijk","name:nn":"Frankrike","name:no":"Frankrike","name:na":"Prant","name:ne":"\u092b\u094d\u0930\u093e\u0928\u094d\u0938","name:wo":"Faraas","name:nv":"D\u00e1\u00e1ghahii Din\u00e9\u02bci\u02bc Bik\u00e9yah","name:ga":"An Fhrainc","name:gd":"An Fhraing","name:gn":"Hy\u00e3sia","name:gl":"Francia","maritime_boundary":true,"name:gv":"Yn Rank","name:gu":"\u0aab\u0acd\u0ab0\u0abe\u0aa8\u0acd\u0ab8","name:tt":"\u0424\u0440\u0430\u043d\u0446\u0438\u044f"},"arcs":[1]},{"type":"LineString","properties":{"name:ty":"Tanata","name:ka":"\u10d9\u10d0\u10dc\u10d0\u10d3\u10d0","name:ko":"\uce90\ub098\ub2e4","name:cv":"\u041a\u0430\u043d\u0430\u0434\u0430","name:cu":"\u041a\u0430\u043d\u0430\u0434\u0430","name:cs":"Kanada","name:cr":"\u1473\u14c7\u1456","name:tt":"\u041a\u0430\u043d\u0430\u0434\u0430","name:co":"Canad\u00e0","name:kv":"\u041a\u0430\u043d\u0430\u0434\u0430","name:ku":"Kanada","name:tl":"Kanada","name:ce":"\u041a\u0430\u043d\u0430\u0434\u0430","name:ta":"\u0b95\u0ba9\u0b9f\u0bbe","name:tg":"\u041a\u0430\u043d\u0430\u0434\u0430","name:ca":"Canad\u00e0","name:te":"\u0c15\u0c46\u0c28\u0c21\u0c3e","name:qu":"Kanada","name:de":"Kanada","name:dz":"\u0f40\u0f7a\u0f0b\u0f53\u0f0b\u0f4c\u0f0b","source":"openstreetmap.org","name:kn":"\u0c95\u0cc6\u0ca8\u0ca1\u0cbe","name:dv":"\u0786\u07ac\u0782\u07ac\u0791\u07a7","name:km":"\u1780\u17b6\u178e\u17b6\u178a\u17b6","name:lv":"Kan\u0101da","name:lt":"Kanada","name:uz":"Kanada","name:kk":"\u041a\u0430\u043d\u0430\u0434\u0430","name:tw":"Kanada","name:lb":"Kanada","name:uk":"\u041a\u0430\u043d\u0430\u0434\u0430","name:ug":"\u0643\u0627\u0646\u0627\u062f\u0627","name:ln":"Kanad\u00e1","name:kw":"Kanada","name:eo":"Kanado","name":"Canada","name:tk":"Kanada","name:th":"\u0e1b\u0e23\u0e30\u0e40\u0e17\u0e28\u0e41\u0e04\u0e19\u0e32\u0e14\u0e32","name:eu":"Kanada","name:et":"Kanada","name:es":"Canad\u00e1","name:ay":"Kanada","name:rn":"Kanada","name:az":"Kanada","name:id":"Kanada","name:ig":"K\u00e1nada","name:el":"\u039a\u03b1\u03bd\u03b1\u03b4\u03ac\u03c2","name:as":"\u0995\u09be\u09a8\u09be\u09a1\u09be","name:ar":"\u0643\u0646\u062f\u0627","name:io":"Kanada","name:av":"\u041a\u0430\u043d\u0430\u0434\u0430","name:is":"Kanada","name:am":"\u12ab\u1293\u12f3","name:an":"Canad\u00e1","name:ru":"\u041a\u0430\u043d\u0430\u0434\u0430","name:ab":"\u041a\u0430\u043d\u0430\u0434\u0430","name:af":"Kanada","name:zu":"IKhanada","kind_detail":"2","name:ky":"\u041a\u0430\u043d\u0430\u0434\u0430","name:zh-yue":"\u52a0\u62ff\u5927","name:zh":"\u52a0\u62ff\u5927","name:so":"Kanada","name:sl":"Kanada","name:sk":"Kanada","name:ja":"\u30ab\u30ca\u30c0","name:sh":"Kanada","name:sg":"Kanad\u00e4a","name:se":"Kan\u00e1da","name:sa":"\u0915\u0947\u0928\u0921\u093e","name:bs":"Kanada","name:bm":"Kanada","name:bn":"\u0995\u09be\u09a8\u09be\u09a1\u09be","name:bo":"\u0f41\u0f0b\u0f53\u0f0b\u0f4c\u0f0d","name:br":"Kanada","name:sw":"Kanada","name:be":"\u041a\u0430\u043d\u0430\u0434\u0430","name:su":"Kanada","name:bg":"\u041a\u0430\u043d\u0430\u0434\u0430","name:ss":"IKhanada","name:ba":"\u041a\u0430\u043d\u0430\u0434\u0430","name:sq":"Kanadaja","name:jv":"Kanada","name:bi":"Kanada","name:pt":"Canad\u00e1","name:ps":"\u06a9\u0627\u0646\u0627\u0689\u0627","name:oc":"Canad\u00e0","min_zoom":8.0,"name:pa":"\u0a15\u0a48\u0a28\u0a47\u0a21\u0a3e","name:os":"\u041a\u0430\u043d\u0430\u0434\u00e6","name:or":"\u0b15\u0b3e\u0b28\u0b3e\u0b21\u0b3c\u0b3e","name:pl":"Kanada","sort_rank":262,"name:sr":"\u041a\u0430\u043d\u0430\u0434\u0430","osm_relation":true,"name:ik":"Kanada","name:tr":"Kanada","name:hi":"\u0915\u0928\u093e\u0921\u093e","name:sv":"Kanada","name:he":"\u05e7\u05e0\u05d3\u05d4","name:ha":"Kanada","name:hy":"\u053f\u0561\u0576\u0561\u0564\u0561","name:ht":"Kanada","name:hu":"Kanada","name:hr":"Kanada","kind":"country","name:yi":"\u05e7\u05d0\u05e0\u05d0\u05d3\u05e2","name:iu":"\u1472\u14c7\u1455 \/ kanata","name:yo":"K\u00e1n\u00e1d\u00e0","name:mt":"Kanada","name:ms":"Kanada","name:mr":"\u0915\u0945\u0928\u0921\u093e","name:my":"\u1000\u1014\u1031\u1012\u102b\u1014\u102d\u102f\u1004\u103a\u1004\u1036","name:mg":"Kanada","name:ml":"\u0d15\u0d3e\u0d28\u0d21","name:mn":"\u041a\u0430\u043d\u0430\u0434","name:mi":"K\u0101nata","id":-1428125,"name:mk":"\u041a\u0430\u043d\u0430\u0434\u0430","name:vo":"Kanad\u00e4n","name:fa":"\u06a9\u0627\u0646\u0627\u062f\u0627","name:rw":"Kanada","name:fi":"Kanada","old_name:vi":"Gia N\u00e3 \u0110\u1ea1i","name:fo":"Kanada","alt_name:vi":"Ca-na-\u0111a","name:fy":"Kanada","name:na":"Kanada","name:ne":"\u0915\u094d\u092f\u093e\u0928\u093e\u0921\u093e","name:ur":"\u06a9\u06cc\u0646\u06cc\u0688\u0627","name:wo":"Kanadaa","name:nv":"Deeteel Bik\u00e9yah","name:ga":"Ceanada","name:gn":"Kanat\u00e3","name:gl":"Canad\u00e1","maritime_boundary":true,"name:gv":"Yn Chanadey","name:gu":"\u0a95\u0ac7\u0aa8\u0ac7\u0aa1\u0abe"},"arcs":[2]},{"type":"LineString","properties":{"name:pt":"Terra Nova e Labrador","name:ka":"\u10dc\u10d8\u10e3\u10e4\u10d0\u10e3\u10dc\u10d3\u10da\u10d4\u10dc\u10d3\u10d8 \u10d3\u10d0 \u10da\u10d0\u10d1\u10e0\u10d0\u10d3\u10dd\u10e0\u10d8","name:ko":"\ub274\ud380\ub4e4\ub79c\ub4dc \ub798\ube0c\ub77c\ub3c4 \uc8fc","name:kl":"Newfoundland aamma Labrador","name:cs":"Newfoundland a Labrador","name:kw":"Tir Nowydh ha Labrador","name:th":"\u0e23\u0e31\u0e10\u0e19\u0e34\u0e27\u0e1f\u0e31\u0e19\u0e14\u0e4c\u0e41\u0e25\u0e19\u0e14\u0e4c\u0e41\u0e25\u0e30\u0e41\u0e25\u0e1a\u0e23\u0e32\u0e14\u0e2d\u0e23\u0e4c","name:az":"Nyufaundlend v\u0259 Labrador","name:tl":"Newfoundland at Labrador","name:pa":"\u0a28\u0a3f\u0a0a\u0a2b\u0a3c\u0a70\u0a21\u0a32\u0a48\u0a02\u0a21 \u0a05\u0a24\u0a47 \u0a32\u0a3e\u0a2c\u0a30\u0a3e\u0a21\u0a4b\u0a30","name:os":"\u041d\u044c\u044e\u0444\u0430\u0443\u043d\u0434\u043b\u0435\u043d\u0434 \u00e6\u043c\u00e6 \u041b\u0430\u0431\u0440\u0430\u0434\u043e\u0440","name:pl":"Nowa Fundlandia i Labrador","name:ta":"\u0ba8\u0bbf\u0baf\u0bc2\u0b83\u0baa\u0bb5\u0bc1\u0ba9\u0bcd\u0bb2\u0bbe\u0ba8\u0bcd\u0ba4\u0bc1 \u0bae\u0bb1\u0bcd\u0bb1\u0bc1\u0bae\u0bcd \u0bb2\u0bbe\u0baa\u0bcd\u0bb0\u0b9f\u0bcb\u0bb0\u0bcd","name:ca":"Terranova i Labrador","name:cy":"Newfoundland a Labrador","source":"openstreetmap.org","sort_rank":256,"name:qu":"Newfoundland wan Labrador pruwinsya","name:da":"Newfoundland og Labrador","name:de":"Neufundland und Labrador","name:tr":"Newfoundland ve Labrador","name:sq":"Toka e Re dhe Labradori","name:be":"\u041f\u0440\u0430\u0432\u0456\u043d\u0446\u044b\u044f \u041d\u044c\u044e\u0444\u0430\u045e\u043d\u0434\u043b\u0435\u043d\u0434 \u0456 \u041b\u0430\u0431\u0440\u0430\u0434\u043e\u0440","name:lv":"\u0145\u016bfaundlenda un Labradora","name:lt":"Niufaundlandas ir Labradoras","name:uz":"Nyufaundlend va Labrador","name:he":"\u05e0\u05d9\u05d5\u05e4\u05d0\u05d5\u05e0\u05d3\u05dc\u05e0\u05d3 \u05d5\u05dc\u05d1\u05e8\u05d3\u05d5\u05e8","name:eo":"Novlando kaj Labradoro","name:ur":"\u0646\u06cc\u0648 \u0641\u0627\u0624\u0646\u0688 \u0644\u06cc\u0646\u0688 \u0627\u0648\u0631 \u0644\u06cc\u0628\u0631\u0627\u0688\u0648\u0631","name:lb":"Neifundland a Labrador","name:la":"Terra Nova et Terra Laboratoria","name:uk":"\u041d\u044c\u044e\u0444\u0430\u0443\u043d\u0434\u043b\u0435\u043d\u0434 \u0456 \u041b\u0430\u0431\u0440\u0430\u0434\u043e\u0440","name:hy":"\u0546\u0575\u0578\u0582\u0586\u0561\u0578\u0582\u0576\u0564\u056c\u0565\u0576\u0564 \u0587 \u053c\u0561\u0562\u0580\u0561\u0564\u0578\u0580","name:ug":"N\u00e9wfundland \u00d6lkisi","name:hu":"\u00daj-Fundland \u00e9s Labrador","name:hr":"Newfoundland i Labrador","name:oc":"T\u00e8rran\u00f2va e Labrador","name:el":"\u039d\u03ad\u03b1 \u0393\u03b7 \u03ba\u03b1\u03b9 \u039b\u03b1\u03bc\u03c0\u03c1\u03b1\u03bd\u03c4\u03cc\u03c1","kind":"region","name":"Newfoundland and Labrador","min_zoom":8.0,"name:eu":"Ternua eta Labrador","name:et":"Newfoundland ja Labrador","name:es":"Terranova y Labrador","name:ro":"Newfoundland \u0219i Labrador","name:ie":"Nov-Fundland e Labrador","name:id":"Newfoundland dan Labrador","name:ms":"Newfoundland dan Labrador","name:mr":"\u0928\u094d\u092f\u0942\u092b\u093e\u0909\u0902\u0921\u0932\u0902\u0921 \u0906\u0923\u093f \u0932\u093e\u092c\u094d\u0930\u093e\u0921\u094b\u0930","name:ar":"\u0646\u064a\u0648\u0641\u0627\u0648\u0646\u062f\u0644\u0627\u0646\u062f \u0648\u0627\u0644\u0644\u0627\u0628\u0631\u0627\u062f\u0648\u0631","name:io":"Newfoundland e Labrador","name:is":"N\u00fdfundnaland og Labrador","name:it":"Terranova e Labrador","name:ru":"\u041d\u044c\u044e\u0444\u0430\u0443\u043d\u0434\u043b\u0435\u043d\u0434 \u0438 \u041b\u0430\u0431\u0440\u0430\u0434\u043e\u0440","name:vi":"Newfoundland v\u00e0 Labrador","name:mn":"\u041d\u044c\u044e\u0444\u0430\u0443\u043d\u0434\u043b\u0435\u043d\u0434 \u0431\u0430 \u041b\u0430\u0431\u0440\u0430\u0434\u043e\u0440","id":-391196,"name:mk":"\u040a\u0443\u0444\u0430\u0443\u043d\u0434\u043b\u0435\u043d\u0434 \u0438 \u041b\u0430\u0431\u0440\u0430\u0434\u043e\u0440","name:af":"Newfoundland en Labrador","name:fa":"\u0646\u06cc\u0648\u0641\u0627\u0646\u062f\u0644\u0646\u062f \u0648 \u0644\u0627\u0628\u0631\u0627\u062f\u0648\u0631","kind_detail":"4","name:fo":"N\u00fdfundland og Labrador","name:fr":"Terre-Neuve et Labrador","name:fy":"Nijf\u00fbnl\u00e2n en Labrador","name:vo":"Newfoundland e Labrador","name:zh":"\u7d10\u82ac\u862d\u8207\u62c9\u5e03\u62c9\u591a\u7701","name:sl":"Nova Fundlandija in Labrador","name:nl":"Newfoundland en Labrador","name:ja":"\u30cb\u30e5\u30fc\u30d5\u30a1\u30f3\u30c9\u30e9\u30f3\u30c9\u30fb\u30e9\u30d6\u30e9\u30c9\u30fc\u30eb\u5dde","name:nn":"Newfoundland og Labrador","name:no":"Newfoundland og Labrador","name:sc":"Terranova e Labrador","name:br":"Douar-Nevez ha Labrador","name:bs":"Newfoundland i Labrador","name:yi":"\u05e0\u05d9\u05d9\u05e4\u05d5\u05e0\u05d3\u05dc\u05d0\u05e0\u05d3 \u05d0\u05d5\u05df \u05dc\u05d0\u05d1\u05e8\u05d0\u05d3\u05d0\u05e8","name:sk":"Newfoundland a Labrador","name:sv":"Newfoundland och Labrador","name:bg":"\u041d\u044e\u0444\u0430\u0443\u043d\u0434\u043b\u0435\u043d\u0434 \u0438 \u041b\u0430\u0431\u0440\u0430\u0434\u043e\u0440","name:sr":"\u040a\u0443\u0444\u0430\u0443\u043d\u0434\u043b\u0435\u043d\u0434 \u0438 \u041b\u0430\u0431\u0440\u0430\u0434\u043e\u0440","osm_relation":true,"name:ga":"Talamh an \u00c9isc agus Labradar","name:gd":"An Talamh \u00d9r is Labrador","name:yo":"Newfoundland \u00e0ti Labrador","name:gl":"Terra Nova e Labrador","maritime_boundary":true,"name:gv":"Thalloo yn Eeast as Labrador","name:fi":"Newfoundland ja Labrador"},"arcs":[3]}]},"roads":{"type":"GeometryCollection","geometries":[{"type":"MultiLineString","properties":{"sort_rank":380,"kind_detail":"primary","min_zoom":8.0,"kind":"major_road","source":"openstreetmap.org"},"arcs":[[10],[11],[12],[13],[14],[15],[16],[17]]},{"type":"LineString","properties":{"sort_rank":355,"source":"openstreetmap.org","min_zoom":8.0,"name":"North Sydney-Argentia Ferry","kind":"ferry"},"arcs":[18]},{"type":"LineString","properties":{"kind":"major_road","network":"CA:NL:R","sort_rank":380,"kind_detail":"primary","source":"openstreetmap.org","min_zoom":8.0,"shield_text":"221","ref":"221","id":144842569},"arcs":[19]},{"type":"LineString","properties":{"kind":"major_road","network":"CA:NL:R","sort_rank":380,"kind_detail":"primary","is_bicycle_related":true,"source":"openstreetmap.org","min_zoom":8.0,"shield_text":"220","ref":"220","id":144846126},"arcs":[20]},{"type":"MultiLineString","properties":{"source":"openstreetmap.org","kind":"major_road","sort_rank":380,"kind_detail":"primary","ref":"N 1","min_zoom":8.0},"arcs":[[21],[22],[23],[24]]},{"type":"LineString","properties":{"sort_rank":355,"source":"openstreetmap.org","kind":"ferry","min_zoom":8.0,"id":442510486},"arcs":[25]},{"type":"MultiLineString","properties":{"source":"openstreetmap.org","kind":"ferry","name":"Saint-Pierre - Miquelon","sort_rank":355,"min_zoom":8.0,"id":406503090},"arcs":[[26],[27]]},{"type":"MultiLineString","properties":{"kind":"major_road","network":"CA:NL:R","sort_rank":380,"kind_detail":"primary","source":"openstreetmap.org","min_zoom":8.0,"shield_text":"220","ref":"220"},"arcs":[[28],[29]]},{"type":"MultiLineString","properties":{"source":"openstreetmap.org","kind":"major_road","sort_rank":380,"kind_detail":"primary","ref":"N 2","min_zoom":8.0},"arcs":[[30],[31],[32],[33],[34],[35],[36],[37],[38],[39],[40],[41],[42]]},{"type":"LineString","properties":{"source":"openstreetmap.org","kind":"ferry","name":"Saint-Pierre - Fortune","sort_rank":355,"min_zoom":8.0,"id":168943308},"arcs":[43]}]},"earth":{"type":"GeometryCollection","geometries":[{"type":"MultiPolygon","properties":{"sort_rank":10,"source":"naturalearthdata.com","min_zoom":0.0,"kind":"earth","area":4584302051},"arcs":[[[44]],[[45]],[[46]],[[47]]]}]},"landuse":{"type":"GeometryCollection","geometries":[]}},"type":"Topology","transform":{"translate":[-56.25,46.0732306254],"scale":[0.0003433228,0.0002360721]},"arcs":[[[1010,2427],[-231,663],[-340,243],[-89,301],[47,462]],[[0,2026],[196,5],[349,81],[215,111],[192,180],[58,24]],[[1010,2427],[567,33],[449,153],[201,-43],[370,9],[295,55],[173,68],[181,127],[584,567],[98,144],[168,338]],[[943,4096],[-187,-194],[-31,-134],[47,-195],[119,-85],[155,-48],[217,-164],[164,17],[195,108],[147,17],[40,88],[134,33],[91,56],[141,-118],[145,-67],[349,41],[507,488],[78,157]],[[1002,4096],[-55,-90],[-114,-127],[-46,-79],[-19,-99],[15,-63],[38,-63],[52,-54],[126,-74],[162,-68],[75,-12],[142,-1],[70,-16],[39,-41],[31,63],[35,7],[93,-38],[48,4],[55,21],[96,62],[56,65],[24,21],[22,14],[16,6],[41,7],[16,-9],[6,-20],[9,-6],[29,35],[10,31],[1,38],[6,40],[22,38],[11,-94],[44,-10],[126,49],[-22,-141],[61,-90],[101,-41],[101,6],[70,28],[-4,41],[-27,50],[-1,55],[28,3],[142,-30],[84,19],[93,49],[62,74],[-9,90],[57,32],[38,65],[20,86],[6,93],[-7,42],[-9,32],[55,0],[-3,-13],[1,-46],[15,-18],[27,-25],[28,-15],[12,14],[12,92],[8,11],[873,0],[0,-4096],[-4096,0],[0,3255],[2,3],[40,126],[-42,37],[0,675],[1002,0]],[[91,3029],[-63,-96],[54,-47],[76,-8],[81,20],[68,35],[-16,5],[-44,24],[4,27],[9,23],[12,21],[17,19],[9,60],[-40,16],[-55,-9],[-34,-12],[-45,-38],[-33,-40]],[[0,3255],[2,3],[40,126],[-42,37]],[[289,3052],[9,60],[-40,16],[-55,-9],[-34,-12],[-45,-38],[-33,-40],[-63,-96],[54,-47],[76,-8],[81,20],[68,35],[-16,5],[-44,24],[4,27],[9,23],[12,21],[17,19]],[[1002,4096],[-55,-90],[-114,-127],[-46,-79],[-19,-99],[15,-63],[38,-63],[52,-54],[126,-74],[162,-68],[75,-12],[142,-1],[70,-16],[39,-41],[31,63],[35,7],[93,-38],[48,4],[55,21],[96,62],[56,65],[24,21],[22,14],[16,6],[41,7],[16,-9],[6,-20],[9,-6],[29,35],[10,31],[1,38],[6,40],[22,38],[11,-94],[44,-10],[126,49],[-22,-141],[61,-90],[101,-41],[101,6],[70,28],[-4,41],[-27,50],[-1,55],[28,3],[142,-30],[84,19],[93,49],[62,74],[-9,90],[57,32],[38,65],[20,86],[6,93],[-7,42],[-9,32]],[[3123,4096],[-3,-13],[1,-46],[15,-18],[27,-25],[28,-15],[12,14],[12,92],[8,11]],[[212,2934],[-3,0]],[[210,2932],[2,2]],[[211,2969],[1,0]],[[212,2969]],[[212,2969],[0,-35]],[[229,2993],[3,3]],[[211,2970],[0,-1],[1,1],[-1,1],[0,-1]],[[234,3023],[1,0],[0,1],[-1,0],[0,-1]],[[0,1294],[368,89],[868,270],[641,253],[1600,741],[549,429],[70,88]],[[3150,4096],[4,-14]],[[2016,3643],[44,63]],[[159,2969],[-107,-35]],[[52,2934],[-2,2],[0,-1],[2,-1]],[[159,2969],[2,1]],[[161,2970],[75,34]],[[745,4096],[-17,-8]],[[229,2988],[71,91],[-26,113],[-147,97],[-127,178]],[[0,4058],[13,38]],[[1168,4096],[-257,-274],[-37,-71],[-14,-141],[45,-92],[241,-89],[132,-89],[280,83],[68,-34],[174,167],[128,79],[88,8]],[[2060,3706],[56,45],[160,10],[118,-139],[146,-30],[200,152],[83,146],[190,206]],[[223,2988],[-12,-16]],[[211,2972],[0,-1]],[[212,2971],[-1,1]],[[212,2970],[1,0]],[[213,2970],[-1,0]],[[213,2970],[40,4]],[[223,2988],[2,2]],[[234,3022],[-9,-32]],[[234,3022],[0,1]],[[234,3023],[0,-1]],[[235,3025],[-1,-1]],[[235,3024],[0,1]],[[235,3025],[26,30]],[[910,4096],[-259,-232],[-236,-687],[-186,-189]],[[0,3421],[42,-37],[-40,-126],[-2,-3],[0,166]],[[239,2898],[-81,-20],[-76,8],[-54,47],[63,96],[33,40],[45,38],[34,12],[55,9],[40,-16],[-9,-60],[-17,-19],[-12,-21],[-9,-23],[-4,-27],[44,-24],[16,-5],[-68,-35]],[[3068,4096],[9,-32],[7,-42],[-6,-93],[-20,-86],[-38,-65],[-57,-32],[9,-90],[-62,-74],[-93,-49],[-84,-19],[-142,30],[-28,-3],[1,-55],[27,-50],[4,-41],[-70,-28],[-101,-6],[-101,41],[-61,90],[22,141],[-126,-49],[-44,10],[-11,94],[-22,-38],[-6,-40],[-1,-38],[-10,-31],[-29,-35],[-9,6],[-6,20],[-16,9],[-41,-7],[-16,-6],[-22,-14],[-24,-21],[-56,-65],[-96,-62],[-55,-21],[-48,-4],[-93,38],[-35,-7],[-31,-63],[-39,41],[-70,16],[-142,1],[-75,12],[-162,68],[-126,74],[-52,54],[-38,63],[-15,63],[19,99],[46,79],[114,127],[55,90],[2066,0]],[[3223,4096],[-8,-11],[-12,-92],[-12,-14],[-28,15],[-27,25],[-15,18],[-1,46],[3,13],[100,0]]]}