{"objects":{"water":{"type":"GeometryCollection","geometries":[{"type":"MultiPolygon","properties":{"source":"naturalearthdata.com","kind":"ocean","area":1576712559132672,"sort_rank":200,"min_zoom":0.0,"id":1},"arcs":[[[3]],[[4]],[[5]]]},{"type":"MultiLineString","properties":{"source":"naturalearthdata.com","kind":"ocean","sort_rank":205,"boundary":true,"min_zoom":0.0,"id":58},"arcs":[[6],[7],[8],[9]]}]},"buildings":{"type":"GeometryCollection","geometries":[]},"places":{"type":"GeometryCollection","geometries":[{"type":"Point","properties":{"kind":"locality","name:en":"Shanwei","name":"\u6c55\u5c3e\u5e02","kind_detail":"city","min_zoom":8.0,"name:de":"Shanwei","source":"openstreetmap.org","name:fr":"Shanwei","name:vi":"S\u00e1n V\u0129","name:ru":"\u0428\u0430\u043d\u044c\u0432\u044d\u0439","name:zh":"Sh\u00e0nw\u011bi Sh\u00ec","id":244085029,"population":2935717},"coordinates":[121,2626]}]},"transit":{"type":"GeometryCollection","geometries":[{"type":"LineString","properties":{"kind":"train","alt_name:en":"Xiamen\u2013Shenzhen Railway","network":"CN-railway","sort_rank":275,"name:zh":"Xi\u00e0sh\u0113n Ti\u011bl\u00f9","source":"openstreetmap.org","min_zoom":6.0,"name:en":"Xiashen Railway","ref":"\u53a6\u6df1\u9ad8\u94c1","osm_relation":true,"name":"\u53a6\u6df1\u94c1\u8def"},"arcs":[2]}]},"pois":{"type":"GeometryCollection","geometries":[]},"boundaries":{"type":"GeometryCollection","geometries":[{"type":"LineString","properties":{"name:kg":"Sina","name:ty":"Tinit\u014d","name:ka":"\u10e9\u10d8\u10dc\u10d4\u10d7\u10d8","name:ko":"\uc911\ud654\uc778\ubbfc\uacf5\ud654\uad6d","name:cv":"\u041a\u0438\u0442\u0430\u0439 \u0425\u0430\u043b\u0103\u0445 \u0420\u0435\u0441\u043f\u0443\u0431\u043b\u0438\u043a\u0438","name:cu":"\u0421\u0440\u0463\u0434\u0438\u043d\ua657\u043d\u0454","name:kl":"Kina","name:cs":"\u010c\u00ednsk\u00e1 lidov\u00e1 republika","name:ki":"China","name:kw":"Repoblek Werin China","name:kv":"\u041a\u0438\u0442\u0430\u0439","name:ku":"\u00c7\u00een","name:ks":"\u0686\u06cc\u0656\u0646","name:tl":"Republikang Popular ng Tsina","name:ce":"\u041a\u0438\u0442\u0430\u0439\u043d \u0425\u0430\u043b\u043a\u044a\u0430\u043d \u0420\u0435\u0441\u043f\u0443\u0431\u043b\u0438\u043a\u0430","name:ta":"\u0b9a\u0bc0\u0ba9 \u0bae\u0b95\u0bcd\u0b95\u0bb3\u0bcd \u0b95\u0bc1\u0b9f\u0bbf\u0baf\u0bb0\u0b9a\u0bc1","name:tg":"\u04b6\u0443\u043c\u04b3\u0443\u0440\u0438\u0438 \u0425\u0430\u043b\u049b\u0438\u0438 \u0427\u0438\u043d","name:ky":"\u041a\u044b\u0442\u0430\u0439","name:te":"\u0c1a\u0c48\u0c28\u0c3e","name:cy":"Gweriniaeth Pobl Tsieina","name:hr":"Kina","name:de":"China","source":"openstreetmap.org","name:kn":"\u0c9a\u0cc0\u0ca8\u0cbf \u0c9c\u0ca8\u0cb0 \u0c97\u0ca3\u0cb0\u0cbe\u0c9c\u0ccd\u0caf","name:dv":"\u0790\u07a9\u0782\u07aa\u0786\u07a6\u0783\u07a6","name:lv":"\u0136\u012bna","name:lt":"Kinijos Liaudies Respublika","name:uz":"Xitoy Xalq Respublikasi","name:kk":"\u049a\u044b\u0442\u0430\u0439 \u0425\u0430\u043b\u044b\u049b \u0420\u0435\u0441\u043f\u0443\u0431\u043b\u0438\u043a\u0430\u0441\u044b","name:ur":"\u0686\u06cc\u0646","name:lb":"Volleksrepublik China","name:tt":"\u041a\u044b\u0442\u0430\u0439","name:uk":"\u041a\u0438\u0442\u0430\u0439\u0441\u044c\u043a\u0430 \u041d\u0430\u0440\u043e\u0434\u043d\u0430 \u0420\u0435\u0441\u043f\u0443\u0431\u043b\u0456\u043a\u0430","name:ug":"\u062c\u06c7\u06ad\u062e\u06c7\u0627 \u062e\u06d5\u0644\u0642 \u062c\u06c7\u0645\u06be\u06c7\u0631\u0649\u064a\u0649\u062a\u0649","name:ln":"S\u00edna","name:lo":"\u0e9b\u0eb0\u0ec0\u0e97\u0e94\u0e88\u0eb5\u0e99","name:el":"\u039b\u03b1\u03ca\u03ba\u03ae \u0394\u03b7\u03bc\u03bf\u03ba\u03c1\u03b1\u03c4\u03af\u03b1 \u03c4\u03b7\u03c2 \u039a\u03af\u03bd\u03b1\u03c2","name:eo":"\u0108inujo","name:en":"China","name":"\u4e2d\u56fd","name:tk":"Hyta\u00fd Halk Respublikasy","name:ee":"China","name:th":"\u0e1b\u0e23\u0e30\u0e40\u0e17\u0e28\u0e08\u0e35\u0e19","name:eu":"Txinako Herri Errepublika","name:et":"Hiina","name:es":"Rep\u00fablica Popular China","name:ia":"China","name:ro":"Republica Popular\u0103 Chinez\u0103","name:ie":"China","name:id":"Republik Rakyat Cina","name:zh-min-nan":"Tiong-ho\u00e2 J\u00een-b\u00een Ki\u014dng-h\u00f4-kok","name:io":"Chinia","name:is":"Al\u00fe\u00fd\u00f0ul\u00fd\u00f0veldi\u00f0 K\u00edna","name:am":"\u12e8\u127b\u12ed\u1293 \u1215\u12dd\u1263\u12ca \u122a\u1350\u1265\u120a\u12ad","name:it":"Cina","name:ru":"\u041a\u0438\u0442\u0430\u0439\u0441\u043a\u0430\u044f \u041d\u0430\u0440\u043e\u0434\u043d\u0430\u044f \u0420\u0435\u0441\u043f\u0443\u0431\u043b\u0438\u043a\u0430","name:ab":"\u0410\u0447\u044b\u043d\u04ad\u0430\u0442\u04d9\u0438 \u0410\u0436\u04d9\u043b\u0430\u0440\u0442\u04d9 \u0420\u0435\u0441\u043f\u0443\u0431\u043b\u0438\u043a\u0430","alt_name:ru":"\u041a\u0438\u0442\u0430\u0439","kind_detail":"2","name:zh":"Zh\u014dnggu\u00f3","name:so":"Shiinaha","name:sn":"China","name:sm":"Saina","name:sk":"\u010c\u00ednska \u013eudov\u00e1 republika","name:si":"\u0da0\u0dd3\u0db1\u0dba","name:sg":"S\u00een\u00e4","name:se":"Kiinn\u00e1","name:sc":"Cina","name:bm":"China","name:bn":"\u0997\u09a3\u099a\u09c0\u09a8","name:bo":"\u0f40\u0fb2\u0f74\u0f44\u0f0b\u0f67\u0fad\u0f0b\u0f58\u0f72\u0f0b\u0f51\u0f58\u0f44\u0f66\u0f0b\u0f66\u0fa4\u0fb1\u0f72\u0f0b\u0f58\u0f50\u0f74\u0f53\u0f0b\u0f62\u0f92\u0fb1\u0f63\u0f0b\u0f41\u0f56\u0f0d","name:bi":"China","name:sw":"Jamhuri ya Watu wa China","name:be":"\u041a\u0456\u0442\u0430\u0439","name:st":"Tjhaena","name:ss":"IShayina","name:sr":"\u041a\u0438\u043d\u0430","name:sq":"Kina","name:pt":"Rep\u00fablica Popular da China","name:ps":"\u0686\u064a\u0646 \u062f \u062e\u0644\u06a9\u0648 \u062c\u0645\u0647\u0648\u0631\u064a\u062a","min_zoom":8.0,"int_name":"People's Republic of China","name:pa":"\u0a1a\u0a40\u0a28 \u0a26\u0a3e \u0a32\u0a4b\u0a15 \u0a30\u0a3e\u0a1c\u0a40 \u0a17\u0a23\u0a24\u0a70\u0a24\u0a30","name:os":"\u041a\u0438\u0442\u0430\u0439","name:or":"\u0b1a\u0b40\u0b28","name:pl":"Chiny","sort_rank":262,"name:ba":"\u04a0\u044b\u0442\u0430\u0439","osm_relation":true,"name:ar":"\u0627\u0644\u0635\u064a\u0646","name:tr":"\u00c7in Halk Cumhuriyeti","name:hi":"\u091a\u0940\u0928\u0940 \u091c\u0928\u0935\u093e\u0926\u0940 \u0917\u0923\u0930\u093e\u091c\u094d\u092f","name:he":"\u05d4\u05e8\u05e4\u05d5\u05d1\u05dc\u05d9\u05e7\u05d4 \u05d4\u05e2\u05de\u05de\u05d9\u05ea \u05e9\u05dc \u05e1\u05d9\u05df","name:ha":"Sin","old_name:eo":"\u0124inujo","name:hy":"\u0549\u056b\u0576\u0561\u057d\u057f\u0561\u0576\u056b \u053a\u0578\u0572\u0578\u057e\u0580\u0564\u0561\u056f\u0561\u0576 \u0540\u0561\u0576\u0580\u0561\u057a\u0565\u057f\u0578\u0582\u0569\u0575\u0578\u0582\u0576","name:hu":"K\u00ednai N\u00e9pk\u00f6zt\u00e1rsas\u00e1g","name:qu":"Chunwa Runallaqta Republika","kind":"country","name:ts":"China","name:yi":"\u05db\u05d9\u05e0\u05e2","name:iu":"China","name:mt":"\u010aina","alt_name:eo":"\u0108inio","name:mr":"\u091a\u0940\u0928","name:my":"\u1010\u101b\u102f\u1010\u103a\u1015\u103c\u100a\u103a\u101e\u1030\u1037\u101e\u1019\u1039\u1019\u1010\u1014\u102d\u102f\u1004\u103a\u1004\u1036","official_name":"\u4e2d\u534e\u4eba\u6c11\u5171\u548c\u56fd","name:vi":"C\u1ed9ng h\u00f2a Nh\u00e2n d\u00e2n Trung Hoa","name:ml":"\u0d1a\u0d48\u0d28","name:mn":"\u0411\u04af\u0433\u0434 \u041d\u0430\u0439\u0440\u0430\u043c\u0434\u0430\u0445 \u0425\u044f\u0442\u0430\u0434 \u0410\u0440\u0434 \u0423\u043b\u0441","name:mi":"Haina","id":-270056,"name:mk":"\u041d\u0430\u0440\u043e\u0434\u043d\u0430 \u0420\u0435\u043f\u0443\u0431\u043b\u0438\u043a\u0430 \u041a\u0438\u043d\u0430","name:vo":"Tsyin\u00e4n","name:fa":"\u062c\u0645\u0647\u0648\u0631\u06cc \u062e\u0644\u0642 \u0686\u06cc\u0646","name:rw":"Ubushinwa","name:fi":"Kiina","name:fo":"F\u00f3lkal\u00fd\u00f0veldi\u00f0 Kina","name:fr":"R\u00e9publique populaire de Chine","name:fy":"Sina","name:zu":"IShayina","name:na":"Tsiene","name:ne":"\u091c\u0928\u092c\u093e\u0926\u0940 \u0917\u0923\u0924\u0928\u094d\u0924\u094d\u0930 \u091a\u0940\u0928","name:wo":"R\u00e9ewum Popileer bu Siin","name:ga":"Daon-Phoblacht na S\u00edne","name:gd":"Sluagh-Phoblachd na S\u00ecne","name:gn":"China Tekoha Tet\u00e3","maritime_boundary":true,"name:gv":"Deynphobblaght ny Sheen","name:gu":"\u0a9a\u0ac0\u0aa8"},"arcs":[0]},{"type":"LineString","properties":{"int_name":"Guangdong","name:ja":"\u5e83\u6771\u7701","name:cs":"Kuang-tung","min_zoom":8.0,"name:ru":"\u0413\u0443\u0430\u043d\u0434\u0443\u043d","name:vi":"Qu\u1ea3ng \u0110\u00f4ng","id":-911844,"osm_relation":true,"kind":"region","name:en":"Guangdong","name":"\u5e7f\u4e1c\u7701","sort_rank":256,"kind_detail":"4","name:fr":"Guangdong","name:de":"Guangdong","source":"openstreetmap.org","maritime_boundary":true},"arcs":[1]}]},"roads":{"type":"GeometryCollection","geometries":[{"type":"LineString","properties":{"source":"openstreetmap.org","kind":"major_road","sort_rank":380,"kind_detail":"primary","ref":"S234","min_zoom":8.0,"id":382307936},"arcs":[10]},{"type":"MultiLineString","properties":{"source":"openstreetmap.org","kind":"major_road","landuse_kind":"urban_area","sort_rank":380,"kind_detail":"primary","min_zoom":8.0},"arcs":[[11],[12],[13],[14],[15],[16],[17],[18],[19],[20],[21],[22],[23],[24],[25],[26],[27]]},{"type":"MultiLineString","properties":{"source":"openstreetmap.org","kind":"major_road","sort_rank":380,"kind_detail":"primary","ref":"S338","min_zoom":8.0},"arcs":[[28],[29],[30],[31],[32],[33],[34],[35],[36],[37]]},{"type":"MultiLineString","properties":{"kind":"major_road","network":"CN-roads","sort_rank":381,"kind_detail":"trunk","source":"openstreetmap.org","min_zoom":8.0,"landuse_kind":"residential","shield_text":"324","ref":"G324"},"arcs":[[38],[39]]},{"type":"MultiLineString","properties":{"source":"openstreetmap.org","kind":"major_road","sort_rank":380,"kind_detail":"primary","ref":"S236","min_zoom":8.0},"arcs":[[40],[41]]},{"type":"LineString","properties":{"source":"openstreetmap.org","kind":"major_road","landuse_kind":"urban_area","sort_rank":380,"kind_detail":"primary","ref":"S234","min_zoom":8.0},"arcs":[42]},{"type":"LineString","properties":{"kind":"major_road","sort_rank":380,"landuse_kind":"urban_area","source":"openstreetmap.org","min_zoom":8.0,"kind_detail":"primary","ref":"S241","id":237294940},"arcs":[43]},{"type":"MultiLineString","properties":{"source":"openstreetmap.org","kind":"major_road","sort_rank":380,"kind_detail":"primary","ref":"S241","min_zoom":8.0},"arcs":[[44],[45]]},{"type":"MultiLineString","properties":{"source":"openstreetmap.org","kind":"major_road","sort_rank":380,"kind_detail":"primary","ref":"S240","min_zoom":8.0},"arcs":[[46],[47],[48],[49]]},{"type":"LineString","properties":{"source":"openstreetmap.org","kind":"major_road","sort_rank":380,"kind_detail":"primary","ref":"S335","min_zoom":8.0},"arcs":[50]},{"type":"MultiLineString","properties":{"kind":"major_road","network":"CN-roads","sort_rank":381,"landuse_kind":"urban_area","source":"openstreetmap.org","min_zoom":8.0,"kind_detail":"trunk","shield_text":"324","ref":"G324"},"arcs":[[51],[52],[53],[54],[55],[56]]},{"type":"MultiLineString","properties":{"kind":"highway","network":"CN-expressways","sort_rank":383,"kind_detail":"motorway","source":"openstreetmap.org","min_zoom":8.0,"all_networks":["CN-expressways"],"shield_text":"17","ref":"S17","all_shield_texts":["17"]},"arcs":[[57],[58],[59],[60],[61],[62],[63],[64],[65],[66],[67],[68],[69]]},{"type":"MultiLineString","properties":{"source":"openstreetmap.org","kind":"major_road","landuse_kind":"urban_area","sort_rank":380,"kind_detail":"primary","ref":"S338","min_zoom":8.0},"arcs":[[70],[71],[72],[73],[74]]},{"type":"LineString","properties":{"source":"openstreetmap.org","kind":"major_road","sort_rank":380,"kind_detail":"primary","ref":"S235","min_zoom":8.0},"arcs":[75]},{"type":"LineString","properties":{"source":"openstreetmap.org","kind":"major_road","sort_rank":380,"kind_detail":"primary","ref":"S337","min_zoom":8.0},"arcs":[76]},{"type":"MultiLineString","properties":{"sort_rank":380,"kind_detail":"primary","min_zoom":8.0,"kind":"major_road","source":"openstreetmap.org"},"arcs":[[77],[78],[79],[80],[81],[82],[83],[84],[85],[86],[87],[88],[89],[90],[91],[92],[93],[94],[95],[96],[97],[98],[99],[100],[101],[102],[103],[104],[105],[106],[107],[108],[109],[110],[111],[112],[113],[114],[115]]},{"type":"LineString","properties":{"source":"openstreetmap.org","kind":"major_road","sort_rank":381,"kind_detail":"trunk","ref":"G324","min_zoom":8.0},"arcs":[116]},{"type":"MultiLineString","properties":{"kind":"highway","name:en":"Shenshan Expressway","network":"CN-expressways","sort_rank":383,"kind_detail":"motorway","source":"openstreetmap.org","min_zoom":8.0,"all_networks":["CN-expressways"],"shield_text":"15","ref":"G15","all_shield_texts":["15"]},"arcs":[[117],[118],[119],[120],[121],[122],[123],[124],[125],[126],[127],[128],[129]]},{"type":"MultiLineString","properties":{"source":"openstreetmap.org","kind":"major_road","landuse_kind":"residential","sort_rank":380,"kind_detail":"primary","ref":"S338","min_zoom":8.0},"arcs":[[130],[131]]},{"type":"LineString","properties":{"kind":"highway","network":"CN-expressways","sort_rank":383,"kind_detail":"motorway","source":"openstreetmap.org","min_zoom":8.0,"all_networks":["CN-expressways"],"shield_text":"15","ref":"G15","all_shield_texts":["15"]},"arcs":[132]},{"type":"MultiLineString","properties":{"kind":"highway","name:en":"Shenshan Expressway","network":"CN-expressways","sort_rank":383,"landuse_kind":"residential","source":"openstreetmap.org","min_zoom":8.0,"all_networks":["CN-expressways"],"kind_detail":"motorway","shield_text":"15","ref":"G15","all_shield_texts":["15"]},"arcs":[[133],[134]]},{"type":"MultiLineString","properties":{"source":"openstreetmap.org","kind":"major_road","sort_rank":380,"kind_detail":"primary","ref":"S324","min_zoom":8.0},"arcs":[[135],[136],[137],[138],[139],[140]]},{"type":"MultiLineString","properties":{"source":"openstreetmap.org","kind":"major_road","landuse_kind":"urban_area","sort_rank":380,"kind_detail":"primary","ref":"S242","min_zoom":8.0},"arcs":[[141],[142],[143],[144],[145],[146],[147],[148],[149],[150]]},{"type":"MultiLineString","properties":{"source":"openstreetmap.org","kind":"major_road","landuse_kind":"residential","sort_rank":380,"kind_detail":"primary","min_zoom":8.0},"arcs":[[151],[152],[153],[154],[155]]},{"type":"LineString","properties":{"sort_rank":383,"kind_detail":"motorway","min_zoom":8.0,"kind":"highway","source":"openstreetmap.org"},"arcs":[156]},{"type":"MultiLineString","properties":{"source":"openstreetmap.org","kind":"highway","sort_rank":383,"kind_detail":"motorway","ref":"S20","min_zoom":8.0},"arcs":[[157],[158]]},{"type":"MultiLineString","properties":{"source":"openstreetmap.org","kind":"major_road","sort_rank":380,"kind_detail":"primary","ref":"S242","min_zoom":8.0},"arcs":[[159],[160],[161],[162],[163],[164],[165],[166]]},{"type":"MultiLineString","properties":{"kind":"major_road","network":"CN-roads","sort_rank":381,"kind_detail":"trunk","source":"openstreetmap.org","min_zoom":8.0,"shield_text":"324","ref":"G324"},"arcs":[[167],[168],[169],[170]]},{"type":"MultiLineString","properties":{"kind":"highway","name:en":"Shenshan Expressway","network":"CN-expressways","sort_rank":383,"landuse_kind":"urban_area","source":"openstreetmap.org","min_zoom":8.0,"all_networks":["CN-expressways"],"kind_detail":"motorway","shield_text":"15","ref":"G15","all_shield_texts":["15"]},"arcs":[[171],[172],[173],[174],[175],[176],[177],[178]]},{"type":"LineString","properties":{"source":"openstreetmap.org","kind":"major_road","landuse_kind":"residential","sort_rank":380,"kind_detail":"primary","ref":"S235","min_zoom":8.0},"arcs":[179]}]},"earth":{"type":"GeometryCollection","geometries":[{"type":"MultiPolygon","properties":{"sort_rank":10,"source":"naturalearthdata.com","min_zoom":0.0,"kind":"earth","area":44623576090},"arcs":[[[180]],[[181]]]}]},"landuse":{"type":"GeometryCollection","geometries":[{"type":"MultiPolygon","properties":{"source":"openstreetmap.org","kind":"residential","tier":2,"area":154732458,"sort_rank":20,"min_zoom":8.0},"arcs":[[[182]],[[183]],[[184]]]},{"type":"MultiPolygon","properties":{"source":"naturalearthdata.com","kind":"urban_area","name":"","area":2251786529,"sort_rank":11,"min_zoom":4.0},"arcs":[[[185]],[[186]],[[187]],[[188]],[[189]],[[190]],[[191]]]}]}},"type":"Topology","transform":{"translate":[115.3125,21.9430455334],"scale":[0.0003433228,0.0003169679]},"arcs":[[[0,737],[3698,1812],[398,161]],[[0,737],[3698,1812],[398,158]],[[2506,4096],[-85,-102],[-122,-228],[-208,-119],[-177,-154],[-347,-130],[-1086,-588],[-109,-31],[-372,3]],[[0,3032],[14,1],[-14,-49],[0,48]],[[0,2909],[4,-5],[32,-12],[-14,-29],[-22,-17],[0,63]],[[4073,4096],[23,0],[0,-4096],[-4096,0],[0,2672],[53,-5],[97,-78],[31,30],[34,31],[73,17],[32,-52],[5,-31],[-42,-13],[-35,-29],[-25,-6],[-89,6],[-23,-6],[-35,-43],[28,-50],[38,-42],[36,-31],[60,-14],[79,1],[49,33],[78,1],[76,-42],[90,-35],[41,-26],[114,0],[-32,52],[-5,66],[54,56],[27,44],[-12,24],[-55,7],[-4,-32],[-30,-72],[-92,87],[9,80],[35,69],[50,58],[102,126],[61,51],[-34,-5],[-21,-17],[-19,-23],[-26,-19],[-35,-17],[-19,-6],[-56,1],[-28,7],[-45,28],[-27,6],[-79,-6],[-31,6],[0,24],[76,12],[6,62],[-38,68],[-55,32],[-26,-7],[-27,-31],[-26,-7],[-29,9],[-25,22],[-37,55],[52,-20],[19,-1],[23,6],[12,30],[25,7],[51,-17],[81,-74],[28,-17],[82,2],[40,-9],[-2,-26],[-30,-41],[-11,-39],[20,-28],[61,-12],[12,13],[27,58],[11,17],[18,10],[161,28],[41,14],[38,34],[48,63],[26,15],[112,16],[10,-7],[-18,-29],[-18,-58],[-22,0],[-25,9],[-37,-23],[-29,-37],[5,-33],[56,-27],[-19,-59],[116,4],[77,-33],[38,-28],[25,-21],[16,-12],[23,-8],[19,-14],[15,-21],[8,-28],[6,-42],[-4,-31],[-20,6],[-15,27],[-6,25],[-13,17],[-20,-7],[7,-34],[15,-54],[7,-49],[35,-26],[47,1],[50,74],[34,28],[83,50],[59,-17],[86,53],[18,4],[54,-8],[24,39],[89,61],[44,5],[42,22],[33,18],[30,3],[17,11],[65,40],[33,69],[-47,25],[-86,78],[1,33],[131,-83],[107,-38],[-95,-83],[-19,-58],[32,-76],[52,22],[47,20],[45,27],[76,53],[84,101],[42,38],[19,33],[74,40],[102,83],[-35,27],[-50,-24],[-50,4],[-99,42],[37,29],[61,-7],[80,-21],[78,16],[28,-49],[116,-36],[43,-44],[77,-28],[136,26],[94,32],[105,-26],[70,89],[10,98],[75,24],[45,40],[-24,54],[-19,96],[9,64],[-52,71],[33,112],[72,104],[92,60],[9,41],[-4,26],[-83,20],[-31,-4],[-31,-21],[-34,-20],[-43,-29],[-51,49],[-1,56],[23,4],[81,19],[166,0],[29,-8],[19,-55],[-4,-59],[-9,-38],[4,-39],[41,-14],[23,-31],[28,-3],[44,97],[27,66],[53,47],[47,28],[16,9]],[[0,3032],[14,1],[-14,-49]],[[0,2909],[4,-5],[32,-12],[-14,-29],[-22,-17]],[[0,2672],[53,-5],[97,-78],[31,30],[34,31],[73,17],[32,-52],[5,-31],[-42,-13],[-35,-29],[-25,-6],[-89,6],[-23,-6],[-35,-43],[28,-50],[38,-42],[36,-31],[60,-14],[79,1],[49,33],[78,1],[76,-42],[90,-35],[41,-26],[114,0],[-32,52],[-5,66],[54,56],[27,44],[-12,24],[-55,7],[-4,-32],[-30,-72],[-92,87],[9,80],[35,69],[50,58],[102,126],[61,51],[-34,-5],[-21,-17],[-19,-23],[-26,-19],[-35,-17],[-19,-6],[-56,1],[-28,7],[-45,28],[-27,6],[-79,-6],[-31,6],[0,24],[76,12],[6,62],[-38,68],[-55,32],[-26,-7],[-27,-31],[-26,-7],[-29,9],[-25,22],[-37,55],[52,-20],[19,-1],[23,6],[12,30],[25,7],[51,-17],[81,-74],[28,-17],[82,2],[40,-9],[-2,-26],[-30,-41],[-11,-39],[20,-28],[61,-12],[12,13],[27,58],[11,17],[18,10],[161,28],[41,14],[38,34],[48,63],[26,15],[112,16],[10,-7],[-18,-29],[-18,-58],[-22,0],[-25,9],[-37,-23],[-29,-37],[5,-33],[56,-27],[-19,-59],[116,4],[77,-33],[38,-28],[25,-21],[16,-12],[23,-8],[19,-14],[15,-21],[8,-28],[6,-42],[-4,-31],[-20,6],[-15,27],[-6,25],[-13,17],[-20,-7],[7,-34],[15,-54],[7,-49],[35,-26],[47,1],[50,74],[34,28],[83,50],[59,-17],[86,53],[18,4],[54,-8],[24,39],[89,61],[44,5],[42,22],[33,18],[30,3],[17,11],[65,40],[33,69],[-47,25],[-86,78],[1,33],[131,-83],[107,-38],[-95,-83],[-19,-58],[32,-76],[52,22],[47,20],[45,27],[76,53],[84,101],[42,38],[19,33],[74,40],[102,83],[-35,27],[-50,-24],[-50,4],[-99,42],[37,29],[61,-7],[80,-21],[78,16],[28,-49],[116,-36],[43,-44],[77,-28],[136,26],[94,32],[105,-26],[70,89],[10,98],[75,24],[45,40],[-24,54],[-19,96],[9,64],[-52,71],[33,112],[72,104],[92,60],[9,41],[-4,26],[-83,20],[-31,-4],[-31,-21],[-34,-20],[-43,-29],[-51,49],[-1,56],[23,4],[81,19]],[[3755,4096],[29,-8],[19,-55],[-4,-59],[-9,-38],[4,-39],[41,-14],[23,-31],[28,-3],[44,97],[27,66],[53,47],[47,28],[16,9]],[[3839,3990],[-16,89]],[[50,3312],[51,11],[36,-15],[14,-40],[1,0]],[[152,3268],[26,4]],[[152,3268]],[[152,3268],[0,1]],[[152,3269],[-15,40],[-35,14],[-52,-10]],[[178,3272],[-26,-3]],[[152,3269],[-1,0]],[[325,2680],[-19,37],[-84,29]],[[222,2745],[83,-28],[19,-37]],[[225,2746],[-3,2]],[[972,3228],[-38,103]],[[3138,3949],[-84,18]],[[3054,3966],[83,-18]],[[3371,4096],[4,-17]],[[3420,3958],[-57,64],[13,58],[-5,16]],[[3758,4014],[-27,-5]],[[3804,4096],[19,-18]],[[959,3111],[33,-130],[42,3]],[[1034,2984],[-42,-3],[-32,130]],[[1314,2840],[-181,58],[-50,93],[-49,-7]],[[1723,3040],[-158,-185]],[[1566,2855],[157,185]],[[1723,3039],[57,-3]],[[1745,3046],[35,-10]],[[1780,3036],[384,-92],[45,35]],[[2209,2979],[12,45],[228,192],[20,82]],[[2208,2978],[1,1]],[[985,3190],[-92,-4]],[[1012,3180],[-9,2]],[[2517,4096],[0,-2],[-26,-21],[3,-114],[57,-30],[10,-65]],[[2935,3232],[-49,15],[-82,214],[-52,58],[-198,106],[20,84],[-12,157]],[[3823,4079],[-18,17]],[[296,2725],[34,18]],[[330,2743],[53,28],[37,120]],[[420,2891],[-11,215]],[[841,3925],[1,0]],[[842,3925]],[[935,3430],[-8,145],[-70,53],[-59,94],[-11,69],[45,106],[0,3],[10,25]],[[842,3925],[0,1]],[[624,3789],[70,136],[146,0],[28,113],[42,58]],[[194,3275],[-10,-1],[-78,-63],[-96,-16]],[[11,3195],[95,15],[4,3],[75,61],[9,1]],[[203,3272],[-9,3]],[[893,3186],[-33,-1]],[[1003,3182],[-18,8]],[[1049,3174],[-37,6]],[[2129,4096],[-35,-47],[-105,-275],[-14,-16],[-78,-135]],[[1897,3623],[-11,-20]],[[1886,3603],[-1,-2]],[[1918,3653],[-18,-26]],[[1900,3627],[-3,-4]],[[1897,3623],[-11,-17],[0,-3]],[[1886,3603],[0,-1]],[[1886,3602],[2,-45]],[[1888,3557],[0,-13],[1,-6],[11,-302]],[[1901,3236],[-11,302],[-1,6],[-1,13]],[[1888,3557],[-4,38],[1,6],[1,1]],[[1886,3602],[14,25]],[[1900,3627],[76,131],[13,15],[22,52],[83,224],[35,47]],[[958,3116],[1,-5]],[[960,3111],[-2,5]],[[1540,2812],[-15,-24],[-157,3],[-54,49]],[[1540,2812],[26,43]],[[1565,2855],[-25,-43]],[[3050,3975],[-7,-147],[-48,-80],[40,-19],[42,-140],[-113,-150]],[[1936,3545],[111,-72],[312,-80],[113,-95]],[[0,3198],[3,-4]],[[3,3194],[-3,5]],[[0,3252],[50,60]],[[50,3313],[-50,-61]],[[624,3789],[-259,-272],[-109,-14],[-32,26]],[[324,2680],[26,-51],[80,-115],[177,-29],[111,-172],[-110,172],[-178,29],[-105,166]],[[409,3106],[28,101]],[[738,3921],[-7,12]],[[934,3331],[1,99]],[[2472,3298],[81,43],[256,86]],[[2809,3427],[16,5],[95,17],[326,-5],[257,148],[35,35],[-5,100],[-33,47]],[[3500,3774],[-29,41],[2,14]],[[3473,3829]],[[3473,3829],[8,61],[-61,68]],[[2800,3452],[4,-6]],[[2804,3446],[-3,6]],[[2888,3422],[-74,-11],[-5,16]],[[2809,3427],[-5,19]],[[2888,3422],[-4,20]],[[2898,3422],[-10,0]],[[2935,3232],[47,112],[-18,95]],[[2947,4013],[45,-32]],[[2993,3982],[-45,31]],[[2995,3980],[1,-1],[58,-13]],[[3054,3967],[-59,13]],[[3137,3948],[199,-43],[53,-48],[84,-28]],[[3473,3829],[1,0]],[[3474,3829],[-1,0]],[[3473,3829],[-84,28],[-52,49],[-199,43]],[[3731,4009],[-110,-48],[-121,-187]],[[3500,3774],[-3,-3]],[[3807,4020],[-49,-6]],[[3807,4020],[8,-29]],[[3817,3979],[-2,12],[0,1]],[[3815,3992],[-8,28]],[[3816,3992],[-1,0]],[[3815,3992],[0,-1]],[[3815,3991],[2,-12]],[[3823,4078],[15,-88]],[[2190,4096],[-99,-124],[-94,-227],[7,-61],[-25,-52]],[[0,2807],[215,58],[44,64],[82,-7],[209,115],[249,180],[60,4]],[[859,3222],[-60,-5],[-249,-179],[-22,-10],[-115,-61],[-72,-45],[-82,7],[-44,-64],[-215,-57]],[[1052,3205],[73,-16]],[[1125,3189],[8,-2],[139,42]],[[1272,3229],[7,2],[75,-12]],[[1354,3219],[9,-1],[99,-8],[687,-2],[79,17],[345,203],[165,-8],[60,39],[126,25],[192,-49],[117,-24],[170,69],[134,132],[12,107],[58,151],[127,104]],[[2795,3457],[-57,-37],[-163,9],[-2,-1],[-46,-20],[-89,-54],[-27,-9],[-183,-120],[-79,-16],[-608,4],[-79,-3],[-87,8],[-13,0],[-8,1]],[[1354,3219],[-82,10]],[[1272,3229],[-13,1],[-134,-41]],[[1125,3189],[-5,-2],[-68,17]],[[3734,3974],[-127,-104],[-58,-151],[-12,-107],[-134,-131],[-170,-70],[-305,73],[-4,0],[-126,-25]],[[3757,3992],[79,23],[92,62],[7,19]],[[3935,4096],[-8,-19],[-170,-84]],[[913,3195],[10,-54],[35,-25]],[[958,3116],[0,2],[-35,24],[-9,53]],[[2798,3459],[-3,-2]],[[945,3219],[33,0]],[[978,3220],[-32,0]],[[3815,3991],[24,-1],[4,4]],[[3843,3994],[47,41]],[[3890,4035],[12,11],[50,50]],[[3951,4096],[-61,-61]],[[3890,4035],[-41,-41],[-6,0]],[[3843,3994],[-27,-2]],[[47,3177],[4,43],[-6,31]],[[48,3193],[-1,-16]],[[108,3335],[-20,-50]],[[88,3285],[21,50]],[[114,2810],[1,-3],[106,-58]],[[221,2749],[-15,-24]],[[206,2725],[-41,-62]],[[166,2662],[40,63]],[[206,2725],[15,24]],[[221,2749],[0,1],[-107,60]],[[977,3179],[-5,49]],[[2898,4096],[-5,-44],[54,-39]],[[2948,4013],[-54,39],[5,44]],[[2992,3981],[3,-1]],[[2995,3980],[-2,2]],[[193,3407],[-6,3]],[[0,3423],[216,-17],[108,31],[100,-2],[60,47],[64,86],[162,351],[161,111],[48,66]],[[919,4096],[-49,-65],[-161,-111],[-162,-352],[-123,-133],[-100,3],[-108,-31],[-216,16]],[[0,3764],[167,-78],[74,-103],[-50,-111]],[[0,3881],[0,-27]],[[0,3976],[0,35]],[[0,4015],[55,81]],[[47,3177],[-6,-96],[73,-271]],[[114,2810],[-63,254],[-10,17],[6,96]],[[191,3472],[-7,-9],[-76,-128]],[[109,3335],[82,137]],[[0,3193],[11,2]],[[10,3195],[-10,-2]],[[860,3185],[-395,9],[-262,78]],[[2191,4096],[-99,-124],[-95,-227],[7,-61],[-68,-139],[-65,-15],[-129,-186],[-93,-5],[-256,-151],[-177,-38],[-167,24]],[[946,3220],[-66,3],[-21,-1]],[[859,3221],[86,-2]],[[1052,3204],[-42,10]],[[1010,3214],[-13,3],[-9,2],[-10,1]],[[978,3219],[18,-2],[1,0],[13,-3]],[[1010,3214],[42,-9]],[[3757,3993],[-23,-19]],[[3734,3974],[23,18]],[[3050,3975],[12,121]],[[3755,4096],[318,0],[-16,-9],[-47,-28],[-53,-47],[-27,-66],[-44,-97],[-28,3],[-23,31],[-41,14],[-4,39],[9,38],[4,59],[-19,55],[-29,8]],[[0,4096],[3589,0],[-81,-19],[-23,-4],[1,-56],[51,-49],[43,29],[34,20],[31,21],[31,4],[83,-20],[4,-26],[-9,-41],[-92,-60],[-72,-104],[-33,-112],[52,-71],[-9,-64],[19,-96],[24,-54],[-45,-40],[-75,-24],[-10,-98],[-70,-89],[-105,26],[-94,-32],[-136,-26],[-77,28],[-43,44],[-116,36],[-28,49],[-78,-16],[-80,21],[-61,7],[-37,-29],[99,-42],[50,-4],[50,24],[35,-27],[-102,-83],[-74,-40],[-19,-33],[-42,-38],[-84,-101],[-76,-53],[-45,-27],[-47,-20],[-52,-22],[-32,76],[19,58],[95,83],[-107,38],[-131,83],[-1,-33],[86,-78],[47,-25],[-33,-69],[-65,-40],[-17,-11],[-30,-3],[-33,-18],[-42,-22],[-44,-5],[-89,-61],[-24,-39],[-54,8],[-18,-4],[-86,-53],[-59,17],[-83,-50],[-34,-28],[-50,-74],[-47,-1],[-35,26],[-7,49],[-15,54],[-7,34],[20,7],[13,-17],[6,-25],[15,-27],[20,-6],[4,31],[-6,42],[-8,28],[-15,21],[-19,14],[-23,8],[-16,12],[-25,21],[-38,28],[-77,33],[-116,-4],[19,59],[-56,27],[-5,33],[29,37],[37,23],[25,-9],[22,0],[18,58],[18,29],[-10,7],[-112,-16],[-26,-15],[-48,-63],[-38,-34],[-41,-14],[-161,-28],[-18,-10],[-11,-17],[-27,-58],[-12,-13],[-61,12],[-20,28],[11,39],[30,41],[2,26],[-40,9],[-82,-2],[-28,17],[-81,74],[-51,17],[-25,-7],[-12,-30],[-23,-6],[-19,1],[-52,20],[37,-55],[25,-22],[29,-9],[26,7],[27,31],[26,7],[55,-32],[38,-68],[-6,-62],[-76,-12],[0,-24],[31,-6],[79,6],[27,-6],[45,-28],[28,-7],[56,-1],[19,6],[35,17],[26,19],[19,23],[21,17],[34,5],[-61,-51],[-102,-126],[-50,-58],[-35,-69],[-9,-80],[92,-87],[30,72],[4,32],[55,-7],[12,-24],[-27,-44],[-54,-56],[5,-66],[32,-52],[-114,0],[-41,26],[-90,35],[-76,42],[-78,-1],[-49,-33],[-79,-1],[-60,14],[-36,31],[-38,42],[-28,50],[35,43],[23,6],[89,-6],[25,6],[35,29],[42,13],[-5,31],[-32,52],[-73,-17],[-34,-31],[-31,-30],[-97,78],[-53,5],[0,174],[22,17],[14,29],[-32,12],[-4,5],[0,75],[14,49],[-14,-1],[0,1064]],[[883,3150],[15,54],[77,25],[10,-43],[52,-12],[13,-30],[-20,-18],[5,18],[-21,13],[11,-16],[-35,2],[9,-42],[-36,21],[-28,-34],[4,39],[-56,23]],[[2860,4096],[254,0],[44,-24],[-70,-41],[72,-11],[11,37],[45,-9],[3,-53],[-55,1],[-13,-36],[-122,18],[-17,32],[-24,-43],[11,36],[-35,11],[-126,-3],[-27,39],[49,46]],[[2787,4096],[56,0],[-44,-15],[-12,15]],[[244,2786],[66,0],[32,-70],[-37,-77],[-17,28],[-73,-17],[-65,-61],[-97,78],[-53,5],[60,120],[146,49],[38,-19],[0,-36]],[[1564,2741],[-115,-13],[-148,111],[274,16],[29,-33],[-40,-81]],[[1021,3102],[-95,15],[-66,55],[-1,70],[-66,33],[2,37],[129,35],[18,-29],[76,-24],[33,-43],[2,-66],[-32,-83]],[[56,3173],[-56,27],[0,39],[50,38],[0,70],[163,-35],[-19,-82],[-60,-48],[-78,-9]],[[3754,3955],[-19,15],[-6,59],[30,-7],[-5,-67]],[[2924,4096],[565,0],[12,-15],[-53,-138],[-194,105],[-122,-104],[-72,-1],[-33,140],[-97,0],[-6,13]],[[3704,4096],[127,0],[-29,-60],[-18,52],[-80,8]]]}