{"objects":{"water":{"type":"GeometryCollection","geometries":[{"type":"Polygon","properties":{"source":"naturalearthdata.com","kind":"ocean","area":1576712559132672,"sort_rank":200,"min_zoom":0.0,"id":1},"arcs":[[40]]},{"type":"LineString","properties":{"source":"naturalearthdata.com","kind":"ocean","sort_rank":205,"boundary":true,"min_zoom":0.0,"id":62},"arcs":[41]}]},"buildings":{"type":"GeometryCollection","geometries":[]},"places":{"type":"GeometryCollection","geometries":[{"type":"Point","properties":{"source":"naturalearthdata.com","kind":"locality","name":"Northam","population":5855,"min_zoom":6.0,"id":5568},"coordinates":[3906,1008]},{"type":"Point","properties":{"source":"naturalearthdata.com","kind":"locality","name":"Gingin","population":1446,"min_zoom":7.0,"id":4643},"coordinates":[1711,2055]},{"type":"Point","properties":{"kind":"locality","name":"Joondalup","kind_detail":"city","source":"openstreetmap.org","min_zoom":8.0,"population":152405,"id":32519001,"name:ja":"\u30b8\u30e5\u30f3\u30c0\u30e9\u30c3\u30d7"},"coordinates":[1339,713]},{"type":"Point","properties":{"source":"openstreetmap.org","kind":"locality","name":"Gidgegannup","kind_detail":"town","population":3200,"min_zoom":8.0,"id":3421286203},"coordinates":[2573,542]},{"type":"Point","properties":{"source":"openstreetmap.org","kind":"locality","name":"Bakers Hill","kind_detail":"town","population":1200,"min_zoom":8.0,"id":3421293712},"coordinates":[3339,697]},{"type":"Point","properties":{"source":"openstreetmap.org","kind":"locality","name":"Bindoon","kind_detail":"town","population":740,"min_zoom":8.0,"id":53841777},"coordinates":[2285,1933]},{"type":"Point","properties":{"source":"openstreetmap.org","kind":"locality","name":"Lancelin","kind_detail":"town","population":726,"min_zoom":8.0,"id":53690494},"coordinates":[52,3171]},{"type":"Point","properties":{"source":"openstreetmap.org","kind":"locality","name":"Muchea","kind_detail":"town","population":493,"min_zoom":8.0,"id":32570625},"coordinates":[1925,1266]},{"type":"Point","properties":{"source":"openstreetmap.org","kind":"locality","name":"Wooroloo","kind_detail":"town","population":250,"min_zoom":8.0,"id":3777466487},"coordinates":[2916,504]},{"type":"Point","properties":{"source":"openstreetmap.org","kind":"locality","name":"Guilderton","kind_detail":"town","population":146,"min_zoom":8.0,"id":53691277},"coordinates":[543,2067]}]},"transit":{"type":"GeometryCollection","geometries":[{"type":"LineString","properties":{"kind":"train","network":"Transperth","service":"urban","sort_rank":275,"colour":"#A6AA12","name":"Joondalup Line","source":"openstreetmap.org","min_zoom":6.0,"ref":"Joondalup","id":-2033180,"osm_relation":true,"colour_name":"yellowgreen"},"arcs":[2]},{"type":"MultiLineString","properties":{"source":"openstreetmap.org","kind":"train","name":"Train Indian Pacific: Perth => Sydney","sort_rank":275,"min_zoom":6.0,"osm_relation":true},"arcs":[[3],[4],[5],[6],[7]]},{"type":"MultiLineString","properties":{"kind":"train","name":"Fremantle Line","service":"urban","sort_rank":275,"colour":"#005A9C","source":"openstreetmap.org","min_zoom":6.0,"network":"Transperth","ref":"Fremantle","osm_relation":true,"colour_name":"teal"},"arcs":[[8],[9]]},{"type":"MultiLineString","properties":{"kind":"train","name":"Midland Line","service":"urban","sort_rank":275,"colour":"#A90056","source":"openstreetmap.org","min_zoom":6.0,"network":"Transperth","ref":"Midland","osm_relation":true,"colour_name":"purple"},"arcs":[[10],[11],[12],[13],[14],[15],[16],[17],[18],[19],[20],[21],[22],[23],[24],[25]]},{"type":"MultiLineString","properties":{"kind":"train","name":"Mandurah Line","service":"urban","sort_rank":275,"colour":"#E06F1D","source":"openstreetmap.org","min_zoom":6.0,"network":"Transperth","ref":"Mandurah","osm_relation":true,"colour_name":"peru"},"arcs":[[26],[27]]},{"type":"MultiLineString","properties":{"kind":"train","name":"Armadale Line","service":"urban","sort_rank":275,"colour":"#FEBE10","source":"openstreetmap.org","min_zoom":6.0,"network":"Transperth","ref":"Armadale","osm_relation":true,"colour_name":"orange"},"arcs":[[28],[29],[30],[31],[32],[33],[34]]},{"type":"MultiLineString","properties":{"source":"openstreetmap.org","kind":"train","name":"Train Indian Pacific: Sydney => Perth","sort_rank":275,"min_zoom":6.0,"osm_relation":true},"arcs":[[35],[36],[37],[38],[39]]}]},"pois":{"type":"GeometryCollection","geometries":[{"type":"Point","properties":{"source":"openstreetmap.org","kind":"military","name":"Bindoon Army Training Area","area":278502000,"tier":3,"min_zoom":8.0,"id":106993050},"coordinates":[2860,2391]},{"type":"Point","properties":{"source":"openstreetmap.org","kind":"military","name":"RAAF Pearce Air Weapons Range","area":30272200,"tier":3,"min_zoom":8.0,"id":326483575},"coordinates":[1730,1074]}]},"boundaries":{"type":"GeometryCollection","geometries":[{"type":"LineString","properties":{"name:ty":"Autereraria","name:ka":"\u10d0\u10d5\u10e1\u10e2\u10e0\u10d0\u10da\u10d8\u10d0","name:tr":"Avustralya","name:kn":"\u0c86\u0cb8\u0ccd\u0c9f\u0ccd\u0cb0\u0cc7\u0cb2\u0cbf\u0caf","name:km":"\u17a2\u17bc\u179f\u17d2\u178f\u17d2\u179a\u17b6\u179b\u17b8","name:kk":"\u0410\u0443\u0441\u0442\u0440\u0430\u043b\u0438\u044f","name:tt":"\u0410\u0432\u0441\u0442\u0440\u0430\u043b\u0438\u044f","name:kw":"Ostrali","name:tk":"Awstrali\u00fda","name:ku":"Awistralya","name:ti":"\u12a3\u12cd\u1235\u1275\u122b\u120a\u12eb","name:tl":"Australya","name:ce":"\u0410\u0432\u0441\u0442\u0440\u0430\u0301\u043b\u0438","name:ta":"\u0b86\u0bb8\u0bcd\u0ba4\u0bbf\u0bb0\u0bc7\u0bb2\u0bbf\u0baf\u0bbe","name:tg":"\u0410\u0432\u0441\u0442\u0440\u0430\u043b\u0438\u044f","name:ky":"\u0410\u0432\u0441\u0442\u0440\u0430\u043b\u0438\u044f","name:te":"\u0c06\u0c38\u0c4d\u0c1f\u0c4d\u0c30\u0c47\u0c32\u0c3f\u0c2f\u0c3e","alt_name:ca":"Mancomunitat d'Austr\u00e0lia","name:hr":"Australija","name:da":"Australien","name:de":"Australien","name:dz":"\u0f68\u0f66\u0f0b\u0f4a\u0f7a\u0f61\u0f7a\u0f0b\u0f63\u0f72\u0f0b\u0f61","source":"openstreetmap.org","alt_name:ta":"\u0b85\u0bb5\u0bc1\u0bb8\u0bcd\u0ba4\u0bbf\u0bb0\u0bc7\u0bb2\u0bbf\u0baf\u0bbe","name:cv":"\u0410\u0432\u0441\u0442\u0440\u0430\u043b\u0438","name:be":"\u0410\u045e\u0441\u0442\u0440\u0430\u0301\u043b\u0456\u044f","name:dv":"\u0787\u07ae\u0790\u07b0\u0793\u07a6\u0783\u07aa\u078d\u07a8\u0794\u07a7","name:cu":"\u0410\u0475\u0441\u0442\u0440\u0430\u043b\u0457\ua657","name:za":"Audaihleihya","name:lv":"Austr\u0101lija","name:lt":"Australija","name:uz":"Avstraliya","name:cs":"Austr\u00e1lie","name:ur":"\u0622\u0633\u0679\u0631\u06cc\u0644\u06cc\u0627","name:lb":"Australien","name:uk":"\u0410\u0432\u0441\u0442\u0440\u0430\u0301\u043b\u0456\u044f","name:ug":"\u0626\u0627\u06cb\u0633\u062a\u0649\u0631\u0627\u0644\u0649\u064a\u06d5","name:li":"Australi\u00eb","name:lo":"\u0e9b\u0eb0\u0ec0\u0e97\u0e94\u0ead\u0ebb\u0e94\u0eaa\u0eb0\u0e95\u0eb2\u0ea5\u0eb5","name:el":"\u0391\u03c5\u03c3\u03c4\u03c1\u03b1\u03bb\u03af\u03b1","name:eo":"A\u016dstralio","name":"Australia","name:kv":"\u0410\u0432\u0441\u0442\u0440\u0430\u043b\u0438\u044f","name:th":"\u0e2d\u0e2d\u0e2a\u0e40\u0e15\u0e23\u0e40\u0e25\u0e35\u0e22","name:et":"Austraalia","name:ay":"Australla","name:rn":"Australiya","name:az":"Avstraliya","name:ig":"Ostraliya","alt_name:zu":"I-Australiya","name:as":"\u0985\u09b7\u09cd\u099f\u09cd\u09f0\u09c7\u09b2\u09bf\u09af\u09bc\u09be","name:ar":"\u0623\u0633\u062a\u0631\u0627\u0644\u064a\u0627","name:is":"\u00c1stral\u00eda","name:iu":"\u140a\u1505\u1466\u154c\u14d5\u140a","name:ru":"\u0410\u0432\u0441\u0442\u0440\u0430\u0301\u043b\u0438\u044f","name:ab":"\u0410\u0432\u0441\u0442\u0440\u0430\u043b\u0438\u0430","name:af":"Australi\u00eb","name:zu":"I-Ostreliya","alt_name:rw":"Australiya","alt_name:gn":"Auter\u00e1lia","kind_detail":"2","name:zh-min-nan":"\u00d2-chiu","name:ca":"Austr\u00e0lia","name:zh-yue":"\u6fb3\u6d32","name:zh":"\u6fb3\u5927\u5229\u4e9a","name:sm":"Ausetalia","name:sl":"Avstralija","name:sk":"Austr\u00e1lia","name:ja":"\u30aa\u30fc\u30b9\u30c8\u30e9\u30ea\u30a2","name:si":"\u0d95\u0dc3\u0dca\u0da7\u0dca\u200d\u0dbb\u0dda\u0dbd\u0dd2\u0dba\u0dcf\u0dc0","name:sh":"Australija","name:sg":"Ostral\u00efi","name:sd":"\u0622\u0633\u067d\u0631\u064a\u0644\u064a\u0627","name:sc":"Austr\u00e0lia","name:br":"Aostralia","name:bs":"Australija","name:bm":"Ostralia","name:bn":"\u0985\u09b8\u09cd\u099f\u09cd\u09b0\u09c7\u09b2\u09bf\u09af\u09bc\u09be","name:bo":"\u0f68\u0f7c\u0f0b\u0f66\u0f7a\u0f0b\u0f50\u0f7a\u0f0b\u0f63\u0f72\u0f0b\u0f61\u0f0d","name:sa":"\u0906\u0938\u094d\u091f\u094d\u0930\u0947\u0932\u093f\u092f\u093e","name:sv":"Australien","name:bg":"\u0410\u0432\u0441\u0442\u0440\u0430\u043b\u0438\u044f","name:sr":"\u0410\u0443\u0441\u0442\u0440\u0430\u043b\u0438\u0458\u0430","osm_relation":true,"alt_name:sv":"Samv\u00e4ldet Australien","name:jv":"Ostrali","alt_name:sk":"Austr\u00e1lske spolo\u010denstvo","name:bi":"Ostrelia","name:pt":"Austr\u00e1lia","name:ps":"\u0622\u0633\u067c\u0631\u0627\u0644\u064a\u0627","name:om":"Awustireliyaa","name:oc":"Austr\u00e0lia","min_zoom":8.0,"name:ko":"\uc624\uc2a4\ud2b8\ub808\uc77c\ub9ac\uc544","name:pa":"\u0a06\u0a38\u0a1f\u0a4d\u0a30\u0a47\u0a32\u0a40\u0a06","name:os":"\u0410\u0432\u0441\u0442\u0440\u0430\u043b\u0438","name:or":"\u0b05\u0b37\u0b4d\u0b1f\u0b4d\u0b30\u0b47\u0b32\u0b3f\u0b06","name:pi":"\u0906\u0938\u094d\u091f\u094d\u0930\u0947\u0932\u093f\u092f\u093e","sort_rank":262,"name:ba":"\u0410\u0432\u0441\u0442\u0440\u0430\u043b\u0438\u044f","name:hi":"\u0911\u0938\u094d\u091f\u094d\u0930\u0947\u0932\u093f\u092f\u093e","name:he":"\u05d0\u05d5\u05e1\u05d8\u05e8\u05dc\u05d9\u05d4","name:ha":"Asturaliya","name:hy":"\u0531\u057e\u057d\u057f\u0580\u0561\u056c\u056b\u0561","name:ht":"Ostrali","name:hu":"Ausztr\u00e1lia","name:qu":"Awstralya","kind":"country","name:cy":"Awstralia","name:yi":"\u05d0\u05d5\u05d9\u05e1\u05d8\u05e8\u05d0\u05b7\u05dc\u05d9\u05e2","name:am":"\u12a0\u12cd\u1235\u1275\u122b\u120d\u12eb","name:yo":"Austr\u00e1l\u00ed\u00e0","name:mt":"Awstralja","name:mr":"\u0911\u0938\u094d\u091f\u094d\u0930\u0947\u0932\u093f\u092f\u093e","name:my":"\u1029\u1005\u1010\u103c\u1031\u1038\u101c\u103b\u1014\u102d\u102f\u1004\u103a\u1004\u1036","official_name":"Commonwealth of Australia","name:mg":"Aostralia","name:ml":"\u0d13\u0d38\u0d4d\u0d1f\u0d4d\u0d30\u0d47\u0d32\u0d3f\u0d2f","name:vi":"\u00dac","name:mn":"\u0410\u0432\u0441\u0442\u0440\u0430\u043b\u0438","name:mi":"Ahitereiria","id":-80500,"name:mk":"\u0410\u0432\u0441\u0442\u0440\u0430\u043b\u0438\u0458\u0430","name:vo":"Laustral\u00e4n","name:fa":"\u0627\u0633\u062a\u0631\u0627\u0644\u06cc\u0627","name:rw":"Ositaraliya","alt_name:mi":"Whenua Moemoe\u0101","name:fo":"Avstralia","name:fr":"Australie","name:fy":"Austraalje","alt_name:af":"Gemenebes van Australi\u00eb","name:nl":"Australi\u00eb","alt_name:nv":"Bich\u02bc\u00e1h Yiisdiis\u00ed Bik\u00e9yah","name:na":"Otereiriya","name:ne":"\u0905\u0937\u094d\u091f\u094d\u0930\u0947\u0932\u093f\u092f\u093e","name:wa":"Ostraleye","name:wo":"\u00d3straali","name:nv":"Nahat\u02bce\u02bciitsoh Bik\u00e9yah","name:ga":"Astr\u00e1il","name:gd":"Astr\u00e0ilia","name:gn":"Autaralia","maritime_boundary":true,"name:gv":"Austrail","name:gu":"\u0a91\u0ab8\u0acd\u0a9f\u0acd\u0ab0\u0ac7\u0ab2\u0abf\u0aaf\u0abe"},"arcs":[0]},{"type":"LineString","properties":{"name:nl":"West-Australi\u00eb","name:ja":"\u897f\u30aa\u30fc\u30b9\u30c8\u30e9\u30ea\u30a2","name:lt":"Vakar\u0173 Australija","name:kn":"\u0caa\u0cb6\u0ccd\u0c9a\u0cbf\u0cae \u0c86\u0cb8\u0ccd\u0c9f\u0ccd\u0cb0\u0cc7\u0cb2\u0cbf\u0caf","kind":"region","min_zoom":8.0,"name:ru":"\u0417\u0430\u043f\u0430\u0434\u043d\u0430\u044f \u0410\u0432\u0441\u0442\u0440\u0430\u043b\u0438\u044f","name:pl":"Australia Zachodnia","id":-2316598,"osm_relation":true,"name:vo":"Ves\u00fcda-Laustral\u00e4n","name:eo":"Okcidenta A\u016dstralio","name":"Western Australia","sort_rank":256,"kind_detail":"4","name:de":"Westaustralien","source":"openstreetmap.org","maritime_boundary":true,"name:zh":"\u897f\u6fb3\u5927\u5229\u4e9a\u5dde"},"arcs":[1]}]},"roads":{"type":"GeometryCollection","geometries":[{"type":"LineString","properties":{"bus_network":"Transperth","network":"T","sort_rank":380,"kind_detail":"primary","is_bicycle_related":true,"cycleway_right":"lane","kind":"major_road","source":"openstreetmap.org","min_zoom":8.0,"bus_shield_text":"52","shield_text":"203","landuse_kind":"urban_area","ref":"S52","id":239140840},"arcs":[42]},{"type":"MultiLineString","properties":{"kind":"major_road","network":"NR","sort_rank":381,"landuse_kind":"urban_area","source":"openstreetmap.org","min_zoom":8.0,"kind_detail":"trunk","shield_text":"1","ref":"NH94;NR1"},"arcs":[[43],[44]]},{"type":"MultiLineString","properties":{"source":"openstreetmap.org","kind":"major_road","landuse_kind":"residential","sort_rank":380,"kind_detail":"primary","ref":"S41","min_zoom":8.0},"arcs":[[45],[46],[47]]},{"type":"MultiLineString","properties":{"bus_network":"Transperth","network":"S","sort_rank":380,"kind_detail":"primary","kind":"major_road","source":"openstreetmap.org","min_zoom":8.0,"bus_shield_text":"342","shield_text":"53","landuse_kind":"residential","ref":"S53"},"arcs":[[48],[49],[50]]},{"type":"LineString","properties":{"kind":"major_road","sort_rank":380,"kind_detail":"primary","bus_network":"Transperth","source":"openstreetmap.org","min_zoom":8.0,"bus_shield_text":"421","landuse_kind":"residential","ref":"S64","id":4830759},"arcs":[51]},{"type":"LineString","properties":{"source":"openstreetmap.org","kind":"major_road","sort_rank":380,"kind_detail":"primary","ref":"S116","min_zoom":8.0},"arcs":[52]},{"type":"MultiLineString","properties":{"bus_network":"Transperth","sort_rank":380,"kind_detail":"primary","kind":"major_road","source":"openstreetmap.org","min_zoom":8.0,"bus_shield_text":"955","landuse_kind":"park"},"arcs":[[53],[54],[55],[56],[57],[58]]},{"type":"MultiLineString","properties":{"kind":"major_road","network":"S","sort_rank":380,"kind_detail":"primary","source":"openstreetmap.org","min_zoom":8.0,"landuse_kind":"residential","shield_text":"72"},"arcs":[[59],[60]]},{"type":"LineString","properties":{"source":"openstreetmap.org","kind":"major_road","sort_rank":381,"kind_detail":"trunk","is_bicycle_related":true,"min_zoom":8.0},"arcs":[61]},{"type":"MultiLineString","properties":{"bus_network":"Transperth","network":"T","sort_rank":380,"kind_detail":"primary","is_bicycle_related":true,"kind":"major_road","cycleway":"lane","source":"openstreetmap.org","min_zoom":8.0,"bus_shield_text":"335","shield_text":"203","ref":"S52"},"arcs":[[62],[63]]},{"type":"LineString","properties":{"kind":"major_road","sort_rank":380,"kind_detail":"primary","bus_network":"Transperth","source":"openstreetmap.org","min_zoom":8.0,"bus_shield_text":"340","landuse_kind":"residential","ref":"S76","id":138943418},"arcs":[64]},{"type":"LineString","properties":{"kind":"major_road","network":"NR","sort_rank":381,"kind_detail":"trunk","source":"openstreetmap.org","min_zoom":8.0,"landuse_kind":"residential","shield_text":"1","ref":"NH94;NR1"},"arcs":[65]},{"type":"LineString","properties":{"kind":"major_road","sort_rank":380,"kind_detail":"primary","is_bicycle_related":true,"cycleway":"lane","source":"openstreetmap.org","min_zoom":8.0,"landuse_kind":"urban_area","ref":"NR1;S51","id":239378703},"arcs":[66]},{"type":"LineString","properties":{"cycleway_right":"lane","network":"T","sort_rank":380,"kind_detail":"primary","is_bicycle_related":true,"kind":"major_road","source":"openstreetmap.org","min_zoom":8.0,"landuse_kind":"urban_area","shield_text":"203","ref":"S52","id":239378695},"arcs":[67]},{"type":"MultiLineString","properties":{"bus_network":"Transperth","sort_rank":380,"kind_detail":"primary","is_bicycle_related":true,"kind":"major_road","source":"openstreetmap.org","min_zoom":8.0,"bus_shield_text":"421","landuse_kind":"residential","ref":"S64"},"arcs":[[68],[69]]},{"type":"MultiLineString","properties":{"bus_network":"Transperth","network":"NH","sort_rank":381,"landuse_kind":"urban_area","kind":"major_road","source":"openstreetmap.org","min_zoom":8.0,"bus_shield_text":"310","shield_text":"95;NR1","kind_detail":"trunk"},"arcs":[[70],[71]]},{"type":"LineString","properties":{"kind":"major_road","sort_rank":380,"landuse_kind":"residential","source":"openstreetmap.org","min_zoom":8.0,"kind_detail":"primary","ref":"S120","id":175518326},"arcs":[72]},{"type":"MultiLineString","properties":{"bus_network":"Transperth","network":"S","sort_rank":380,"kind_detail":"primary","kind":"major_road","source":"openstreetmap.org","min_zoom":8.0,"bus_shield_text":"66","shield_text":"53","landuse_kind":"residential","ref":"S53"},"arcs":[[73],[74],[75],[76],[77],[78],[79],[80],[81],[82],[83],[84],[85]]},{"type":"MultiLineString","properties":{"source":"openstreetmap.org","kind":"highway","landuse_kind":"urban_area","sort_rank":383,"kind_detail":"motorway","ref":"S2","min_zoom":8.0},"arcs":[[86],[87],[88],[89]]},{"type":"MultiLineString","properties":{"kind":"major_road","sort_rank":380,"kind_detail":"primary","is_bicycle_related":true,"bicycle_shield_text":"NE18","bicycle_network":"rcn","source":"openstreetmap.org","min_zoom":8.0,"landuse_kind":"residential"},"arcs":[[90],[91],[92]]},{"type":"LineString","properties":{"kind":"major_road","network":"NR","sort_rank":381,"kind_detail":"trunk","is_bicycle_related":true,"cycleway":"lane","source":"openstreetmap.org","min_zoom":8.0,"landuse_kind":"urban_area","shield_text":"1","ref":"NR 1;S 51","id":4934994},"arcs":[93]},{"type":"MultiLineString","properties":{"source":"openstreetmap.org","kind":"highway","landuse_kind":"residential","sort_rank":383,"kind_detail":"motorway","min_zoom":8.0},"arcs":[[94],[95],[96]]},{"type":"MultiLineString","properties":{"kind":"major_road","network":"S","sort_rank":380,"landuse_kind":"urban_area","is_bicycle_related":true,"cycleway":"lane","source":"openstreetmap.org","min_zoom":8.0,"kind_detail":"primary","shield_text":"83"},"arcs":[[97],[98]]},{"type":"MultiLineString","properties":{"kind":"major_road","sort_rank":380,"kind_detail":"primary","is_bicycle_related":true,"bicycle_shield_text":"NE1","bicycle_network":"rcn","source":"openstreetmap.org","min_zoom":8.0,"landuse_kind":"residential"},"arcs":[[99],[100],[101],[102]]},{"type":"MultiLineString","properties":{"kind":"major_road","network":"S","sort_rank":380,"kind_detail":"primary","is_bicycle_related":true,"cycleway":"lane","source":"openstreetmap.org","min_zoom":8.0,"landuse_kind":"urban_area","shield_text":"83;S84"},"arcs":[[103],[104],[105]]},{"type":"LineString","properties":{"kind":"major_road","network":"T","sort_rank":381,"kind_detail":"trunk","source":"openstreetmap.org","min_zoom":8.0,"landuse_kind":"residential","shield_text":"204","ref":"S71"},"arcs":[106]},{"type":"MultiLineString","properties":{"source":"openstreetmap.org","bus_network":"Transperth","bus_shield_text":"336","sort_rank":380,"kind_detail":"primary","min_zoom":8.0,"kind":"major_road"},"arcs":[[107],[108],[109]]},{"type":"MultiLineString","properties":{"bus_network":"Transperth","sort_rank":380,"kind_detail":"primary","kind":"major_road","source":"openstreetmap.org","min_zoom":8.0,"bus_shield_text":"341","landuse_kind":"residential","ref":"S76"},"arcs":[[110],[111]]},{"type":"LineString","properties":{"source":"openstreetmap.org","kind":"major_road","landuse_kind":"residential","sort_rank":380,"kind_detail":"primary","ref":"S60","min_zoom":8.0},"arcs":[112]},{"type":"LineString","properties":{"kind":"major_road","network":"NR","sort_rank":380,"kind_detail":"primary","source":"openstreetmap.org","min_zoom":8.0,"landuse_kind":"urban_area","shield_text":"52;1","id":239378701},"arcs":[113]},{"type":"MultiLineString","properties":{"kind":"major_road","network":"T","sort_rank":380,"kind_detail":"primary","source":"openstreetmap.org","min_zoom":8.0,"landuse_kind":"urban_area","shield_text":"203","ref":"S52"},"arcs":[[114],[115],[116],[117],[118],[119]]},{"type":"LineString","properties":{"bus_network":"Transperth","sort_rank":380,"kind_detail":"primary","kind":"major_road","source":"openstreetmap.org","min_zoom":8.0,"bus_shield_text":"340","landuse_kind":"residential"},"arcs":[120]},{"type":"MultiLineString","properties":{"kind":"major_road","sort_rank":381,"landuse_kind":"nature_reserve","source":"openstreetmap.org","min_zoom":8.0,"kind_detail":"trunk","ref":"S60","id":131567898},"arcs":[[121],[122]]},{"type":"MultiLineString","properties":{"bus_network":"Transperth","sort_rank":381,"landuse_kind":"residential","kind":"major_road","source":"openstreetmap.org","min_zoom":8.0,"bus_shield_text":"55","kind_detail":"trunk","ref":"S51"},"arcs":[[123],[124],[125]]},{"type":"MultiLineString","properties":{"kind":"major_road","network":"S","sort_rank":380,"kind_detail":"primary","source":"openstreetmap.org","min_zoom":8.0,"landuse_kind":"urban_area","shield_text":"55"},"arcs":[[126],[127],[128],[129]]},{"type":"LineString","properties":{"kind":"major_road","sort_rank":381,"landuse_kind":"military","source":"openstreetmap.org","min_zoom":8.0,"kind_detail":"trunk","ref":"S60","id":131567898},"arcs":[130]},{"type":"MultiLineString","properties":{"kind":"major_road","network":"S","sort_rank":381,"kind_detail":"trunk","source":"openstreetmap.org","min_zoom":8.0,"landuse_kind":"residential","shield_text":"4"},"arcs":[[131],[132],[133],[134],[135]]},{"type":"MultiLineString","properties":{"sort_rank":381,"source":"openstreetmap.org","min_zoom":8.0,"kind":"major_road","kind_detail":"trunk"},"arcs":[[136],[137],[138],[139]]},{"type":"MultiLineString","properties":{"kind":"major_road","network":"S","sort_rank":380,"kind_detail":"primary","source":"openstreetmap.org","min_zoom":8.0,"landuse_kind":"residential","shield_text":"55","ref":"S55"},"arcs":[[140],[141]]},{"type":"MultiLineString","properties":{"source":"openstreetmap.org","kind":"major_road","landuse_kind":"residential","sort_rank":380,"kind_detail":"primary","ref":"S75","min_zoom":8.0},"arcs":[[142],[143],[144],[145],[146],[147],[148],[149],[150],[151],[152],[153]]},{"type":"LineString","properties":{"kind":"major_road","sort_rank":380,"kind_detail":"primary","is_bicycle_related":true,"bicycle_shield_text":"NE26","bicycle_network":"rcn","source":"openstreetmap.org","min_zoom":8.0,"landuse_kind":"urban_area","id":5086295},"arcs":[154]},{"type":"LineString","properties":{"kind":"major_road","network":"S","sort_rank":380,"kind_detail":"primary","source":"openstreetmap.org","min_zoom":8.0,"landuse_kind":"urban_area","shield_text":"55","ref":"S55","id":37637535},"arcs":[155]},{"type":"LineString","properties":{"kind":"major_road","sort_rank":380,"kind_detail":"primary","is_bicycle_related":true,"bicycle_shield_text":"NE1","cycleway":"lane","source":"openstreetmap.org","min_zoom":8.0,"landuse_kind":"residential","bicycle_network":"rcn","id":37814940},"arcs":[156]},{"type":"LineString","properties":{"kind":"major_road","sort_rank":380,"kind_detail":"primary","is_bicycle_related":true,"cycleway":"lane","source":"openstreetmap.org","min_zoom":8.0,"landuse_kind":"urban_area","ref":"S83","id":268550444},"arcs":[157]},{"type":"LineString","properties":{"source":"openstreetmap.org","kind":"ferry","name":"Little Ferry","sort_rank":355,"landuse_kind":"urban_area","min_zoom":8.0,"id":447322843},"arcs":[158]},{"type":"MultiLineString","properties":{"bus_network":"Transperth","sort_rank":380,"kind_detail":"primary","kind":"major_road","source":"openstreetmap.org","min_zoom":8.0,"bus_shield_text":"21","landuse_kind":"residential"},"arcs":[[159],[160],[161],[162],[163],[164],[165],[166]]},{"type":"LineString","properties":{"kind":"major_road","sort_rank":380,"kind_detail":"primary","is_bicycle_related":true,"cycleway":"lane","source":"openstreetmap.org","min_zoom":8.0,"landuse_kind":"residential","ref":"S72"},"arcs":[167]},{"type":"MultiLineString","properties":{"kind":"major_road","network":"S","sort_rank":381,"kind_detail":"trunk","source":"openstreetmap.org","min_zoom":8.0,"landuse_kind":"residential","shield_text":"60;S83"},"arcs":[[168],[169]]},{"type":"LineString","properties":{"bus_network":"Transperth","sort_rank":380,"kind_detail":"primary","kind":"major_road","source":"openstreetmap.org","min_zoom":8.0,"bus_shield_text":"66","landuse_kind":"residential"},"arcs":[170]},{"type":"MultiLineString","properties":{"kind":"major_road","network":"NR","sort_rank":381,"landuse_kind":"residential","is_bicycle_related":true,"cycleway":"lane","source":"openstreetmap.org","min_zoom":8.0,"kind_detail":"trunk","shield_text":"1"},"arcs":[[171],[172]]},{"type":"MultiLineString","properties":{"kind":"major_road","network":"T","sort_rank":380,"kind_detail":"primary","source":"openstreetmap.org","min_zoom":8.0,"landuse_kind":"residential","shield_text":"359"},"arcs":[[173],[174],[175],[176]]},{"type":"LineString","properties":{"kind":"major_road","sort_rank":380,"kind_detail":"primary","is_bicycle_related":true,"bicycle_shield_text":"NE9","bicycle_network":"rcn","source":"openstreetmap.org","min_zoom":8.0,"landuse_kind":"residential","ref":"S75","id":37814917},"arcs":[177]},{"type":"MultiLineString","properties":{"bus_network":"Transperth","sort_rank":381,"kind_detail":"trunk","kind":"major_road","source":"openstreetmap.org","min_zoom":8.0,"bus_shield_text":"422","landuse_kind":"residential","ref":"S76"},"arcs":[[178],[179]]},{"type":"MultiLineString","properties":{"source":"openstreetmap.org","kind":"major_road","landuse_kind":"residential","sort_rank":380,"kind_detail":"primary","ref":"S82","min_zoom":8.0},"arcs":[[180],[181],[182],[183],[184],[185],[186],[187],[188],[189]]},{"type":"MultiLineString","properties":{"bus_network":"Transperth","network":"S","sort_rank":380,"landuse_kind":"residential","kind":"major_road","source":"openstreetmap.org","min_zoom":8.0,"bus_shield_text":"345","shield_text":"53","kind_detail":"primary","ref":"S53"},"arcs":[[190],[191],[192],[193],[194]]},{"type":"MultiLineString","properties":{"kind":"major_road","network":"S","sort_rank":380,"kind_detail":"primary","source":"openstreetmap.org","min_zoom":8.0,"landuse_kind":"residential","shield_text":"83"},"arcs":[[195],[196],[197]]},{"type":"MultiLineString","properties":{"kind":"major_road","sort_rank":380,"kind_detail":"primary","is_bicycle_related":true,"bicycle_shield_text":"NW7","bicycle_network":"rcn","source":"openstreetmap.org","min_zoom":8.0,"landuse_kind":"residential","cycleway":"lane"},"arcs":[[198],[199]]},{"type":"MultiLineString","properties":{"source":"openstreetmap.org","kind":"major_road","landuse_kind":"residential","sort_rank":380,"kind_detail":"primary","ref":"S81","min_zoom":8.0},"arcs":[[200],[201],[202],[203],[204]]},{"type":"LineString","properties":{"source":"openstreetmap.org","kind":"ferry","name":"Hillary Boat Harbour - Rottnest Island","sort_rank":355,"landuse_kind":"urban_area","min_zoom":8.0,"id":188858542},"arcs":[205]},{"type":"MultiLineString","properties":{"kind":"major_road","network":"S","sort_rank":381,"landuse_kind":"urban_area","source":"openstreetmap.org","min_zoom":8.0,"kind_detail":"trunk","shield_text":"3","ref":"3"},"arcs":[[206],[207],[208],[209],[210],[211],[212]]},{"type":"MultiLineString","properties":{"source":"openstreetmap.org","kind":"major_road","kind_detail":"trunk","sort_rank":381,"landuse_kind":"urban_area","ref":"S 51","min_zoom":8.0},"arcs":[[213],[214],[215],[216],[217]]},{"type":"MultiLineString","properties":{"kind":"major_road","network":"NR","sort_rank":381,"landuse_kind":"urban_area","source":"openstreetmap.org","min_zoom":8.0,"kind_detail":"trunk","shield_text":"1"},"arcs":[[218],[219],[220],[221],[222],[223],[224],[225],[226]]},{"type":"MultiLineString","properties":{"bus_network":"Transperth","network":"S","sort_rank":380,"kind_detail":"primary","kind":"major_road","source":"openstreetmap.org","min_zoom":8.0,"bus_shield_text":"48","shield_text":"53","landuse_kind":"residential","ref":"S53"},"arcs":[[227],[228]]},{"type":"LineString","properties":{"kind":"highway","network":"S","sort_rank":383,"landuse_kind":"urban_area","source":"openstreetmap.org","min_zoom":8.0,"all_networks":["S","NH"],"kind_detail":"motorway","shield_text":"3","all_shield_texts":["3","3"]},"arcs":[229]},{"type":"MultiLineString","properties":{"kind":"major_road","sort_rank":381,"landuse_kind":"urban_area","is_bicycle_related":true,"cycleway":"lane","source":"openstreetmap.org","min_zoom":8.0,"kind_detail":"trunk","ref":"S51"},"arcs":[[230],[231]]},{"type":"MultiLineString","properties":{"kind":"major_road","network":"T","sort_rank":380,"kind_detail":"primary","source":"openstreetmap.org","min_zoom":8.0,"landuse_kind":"residential","shield_text":"359","ref":"S85"},"arcs":[[232],[233]]},{"type":"LineString","properties":{"kind":"major_road","sort_rank":380,"landuse_kind":"urban_area","source":"openstreetmap.org","min_zoom":8.0,"kind_detail":"primary","ref":"S82","id":542942517},"arcs":[234]},{"type":"MultiLineString","properties":{"bus_network":"Transperth","sort_rank":380,"kind_detail":"primary","kind":"major_road","source":"openstreetmap.org","min_zoom":8.0,"bus_shield_text":"344","landuse_kind":"residential"},"arcs":[[235],[236],[237],[238],[239]]},{"type":"LineString","properties":{"bus_network":"Transperth","sort_rank":381,"landuse_kind":"urban_area","kind":"major_road","source":"openstreetmap.org","min_zoom":8.0,"bus_shield_text":"315","kind_detail":"trunk","ref":"S50"},"arcs":[240]},{"type":"MultiLineString","properties":{"source":"openstreetmap.org","kind":"major_road","landuse_kind":"residential","sort_rank":380,"kind_detail":"primary","ref":"S84","min_zoom":8.0},"arcs":[[241],[242],[243],[244],[245],[246]]},{"type":"MultiLineString","properties":{"kind":"major_road","sort_rank":380,"kind_detail":"primary","is_bicycle_related":true,"cycleway":"lane","source":"openstreetmap.org","min_zoom":8.0,"landuse_kind":"urban_area","ref":"S72"},"arcs":[[247],[248]]},{"type":"LineString","properties":{"kind":"major_road","sort_rank":380,"kind_detail":"primary","is_bicycle_related":true,"bicycle_shield_text":"NE4","bicycle_network":"rcn","source":"openstreetmap.org","min_zoom":8.0,"landuse_kind":"residential","ref":"S75"},"arcs":[249]},{"type":"LineString","properties":{"bus_network":"Transperth","network":"T","sort_rank":380,"kind_detail":"primary","is_bicycle_related":true,"kind":"major_road","cycleway":"lane","source":"openstreetmap.org","min_zoom":8.0,"bus_shield_text":"335","shield_text":"203","landuse_kind":"urban_area","ref":"S52","id":127142562},"arcs":[250]},{"type":"MultiLineString","properties":{"kind":"highway","network":"S","sort_rank":383,"landuse_kind":"residential","source":"openstreetmap.org","min_zoom":8.0,"all_networks":["S","S"],"kind_detail":"motorway","shield_text":"4","all_shield_texts":["4","4"]},"arcs":[[251],[252],[253],[254]]},{"type":"LineString","properties":{"kind":"major_road","sort_rank":380,"kind_detail":"primary","is_bicycle_related":true,"bicycle_shield_text":"NW1","bicycle_network":"rcn","source":"openstreetmap.org","min_zoom":8.0,"landuse_kind":"residential","ref":"S81","id":50055116},"arcs":[255]},{"type":"MultiLineString","properties":{"source":"openstreetmap.org","kind":"major_road","landuse_kind":"urban_area","sort_rank":380,"kind_detail":"primary","ref":"S65","min_zoom":8.0},"arcs":[[256],[257]]},{"type":"MultiLineString","properties":{"source":"openstreetmap.org","kind":"major_road","landuse_kind":"urban_area","sort_rank":380,"kind_detail":"primary","ref":"S66","min_zoom":8.0},"arcs":[[258],[259],[260],[261]]},{"type":"MultiLineString","properties":{"bus_network":"Transperth","cycleway_left":"lane","network":"T","sort_rank":380,"kind_detail":"primary","is_bicycle_related":true,"kind":"major_road","source":"openstreetmap.org","min_zoom":8.0,"bus_shield_text":"52","shield_text":"203","landuse_kind":"urban_area","ref":"S52"},"arcs":[[262],[263]]},{"type":"MultiLineString","properties":{"bus_network":"Transperth","network":"T","sort_rank":381,"landuse_kind":"urban_area","kind":"major_road","source":"openstreetmap.org","min_zoom":8.0,"bus_shield_text":"421","shield_text":"204","kind_detail":"trunk","ref":"S71"},"arcs":[[264],[265]]},{"type":"MultiLineString","properties":{"source":"openstreetmap.org","kind":"major_road","landuse_kind":"urban_area","sort_rank":380,"kind_detail":"primary","ref":"S75","min_zoom":8.0},"arcs":[[266],[267],[268]]},{"type":"MultiLineString","properties":{"kind":"major_road","sort_rank":380,"kind_detail":"primary","is_bicycle_related":true,"bicycle_shield_text":"NE6","bicycle_network":"rcn","source":"openstreetmap.org","min_zoom":8.0,"landuse_kind":"residential"},"arcs":[[269],[270]]},{"type":"MultiLineString","properties":{"kind":"major_road","network":"T","sort_rank":381,"landuse_kind":"urban_area","is_bicycle_related":true,"cycleway":"lane","source":"openstreetmap.org","min_zoom":8.0,"kind_detail":"trunk","shield_text":"204","ref":"S71"},"arcs":[[271],[272]]},{"type":"MultiLineString","properties":{"bus_network":"Transperth","network":"NR","sort_rank":380,"kind_detail":"primary","kind":"major_road","source":"openstreetmap.org","min_zoom":8.0,"bus_shield_text":"52","shield_text":"1","landuse_kind":"urban_area"},"arcs":[[273],[274],[275]]},{"type":"MultiLineString","properties":{"kind":"major_road","network":"S","sort_rank":380,"kind_detail":"primary","is_bicycle_related":true,"cycleway":"lane","source":"openstreetmap.org","min_zoom":8.0,"shield_text":"83;S84"},"arcs":[[276],[277]]},{"type":"LineString","properties":{"bus_network":"Transperth","network":"NR","sort_rank":380,"kind_detail":"primary","kind":"major_road","source":"openstreetmap.org","min_zoom":8.0,"bus_shield_text":"308","landuse_kind":"urban_area"},"arcs":[278]},{"type":"LineString","properties":{"kind":"major_road","network":"T","sort_rank":380,"kind_detail":"primary","source":"openstreetmap.org","min_zoom":8.0,"shield_text":"254","ref":"S120;S50","id":227892840},"arcs":[279]},{"type":"MultiLineString","properties":{"kind":"major_road","network":"NR","sort_rank":381,"kind_detail":"trunk","source":"openstreetmap.org","min_zoom":8.0,"landuse_kind":"residential","shield_text":"1"},"arcs":[[280],[281],[282]]},{"type":"MultiLineString","properties":{"kind":"major_road","sort_rank":380,"kind_detail":"primary","is_bicycle_related":true,"bicycle_shield_text":"NW1","bicycle_network":"rcn","source":"openstreetmap.org","min_zoom":8.0,"landuse_kind":"residential","cycleway":"lane"},"arcs":[[283],[284],[285]]},{"type":"MultiLineString","properties":{"kind":"major_road","network":"S","sort_rank":381,"kind_detail":"trunk","source":"openstreetmap.org","min_zoom":8.0,"landuse_kind":"residential","shield_text":"3","ref":"3"},"arcs":[[286],[287],[288],[289],[290],[291],[292],[293],[294],[295],[296],[297]]},{"type":"MultiLineString","properties":{"bus_network":"Transperth","sort_rank":381,"landuse_kind":"residential","kind":"major_road","source":"openstreetmap.org","min_zoom":8.0,"bus_shield_text":"426","kind_detail":"trunk","ref":"S76"},"arcs":[[298],[299]]},{"type":"MultiLineString","properties":{"source":"openstreetmap.org","kind":"major_road","network":"NH","sort_rank":381,"kind_detail":"trunk","min_zoom":8.0,"shield_text":"95"},"arcs":[[300],[301],[302]]},{"type":"MultiLineString","properties":{"kind":"major_road","sort_rank":380,"kind_detail":"primary","is_bicycle_related":true,"bicycle_shield_text":"SVML","cycleway":"lane","source":"openstreetmap.org","min_zoom":8.0,"landuse_kind":"urban_area","bicycle_network":"lcn"},"arcs":[[303],[304]]},{"type":"MultiLineString","properties":{"kind":"major_road","network":"S","sort_rank":380,"kind_detail":"primary","source":"openstreetmap.org","min_zoom":8.0,"landuse_kind":"residential","shield_text":"56"},"arcs":[[305],[306],[307],[308],[309],[310],[311],[312],[313]]},{"type":"MultiLineString","properties":{"kind":"major_road","network":"S","sort_rank":380,"kind_detail":"primary","source":"openstreetmap.org","min_zoom":8.0,"landuse_kind":"urban_area","shield_text":"83"},"arcs":[[314],[315],[316],[317],[318],[319],[320],[321],[322],[323],[324],[325],[326],[327],[328],[329]]},{"type":"MultiLineString","properties":{"bus_network":"Transperth","sort_rank":380,"kind_detail":"primary","kind":"major_road","source":"openstreetmap.org","min_zoom":8.0,"bus_shield_text":"17","landuse_kind":"residential"},"arcs":[[330],[331],[332],[333]]},{"type":"MultiLineString","properties":{"bus_network":"Transperth","sort_rank":380,"kind_detail":"primary","kind":"major_road","source":"openstreetmap.org","min_zoom":8.0,"bus_shield_text":"52","landuse_kind":"residential"},"arcs":[[334],[335],[336]]},{"type":"LineString","properties":{"kind":"major_road","sort_rank":380,"kind_detail":"primary","is_bicycle_related":true,"bicycle_shield_text":"NW1","cycleway":"lane","source":"openstreetmap.org","min_zoom":8.0,"landuse_kind":"urban_area","bicycle_network":"rcn","id":56724626},"arcs":[337]},{"type":"LineString","properties":{"kind":"major_road","network":"T","sort_rank":380,"kind_detail":"primary","source":"openstreetmap.org","min_zoom":8.0,"shield_text":"203","id":236408517},"arcs":[338]},{"type":"MultiLineString","properties":{"source":"openstreetmap.org","kind":"major_road","landuse_kind":"urban_area","sort_rank":380,"kind_detail":"primary","min_zoom":8.0},"arcs":[[339],[340],[341],[342],[343],[344],[345],[346],[347],[348],[349],[350],[351],[352],[353],[354],[355],[356],[357],[358],[359],[360],[361],[362],[363],[364],[365],[366],[367],[368],[369],[370],[371],[372],[373],[374],[375],[376],[377],[378],[379]]},{"type":"MultiLineString","properties":{"source":"openstreetmap.org","kind":"highway","landuse_kind":"urban_area","sort_rank":383,"kind_detail":"motorway","min_zoom":8.0},"arcs":[[380],[381],[382],[383],[384]]},{"type":"LineString","properties":{"kind":"major_road","sort_rank":380,"kind_detail":"primary","bus_network":"Transperth","source":"openstreetmap.org","min_zoom":8.0,"bus_shield_text":"97","landuse_kind":"residential","ref":"S65","id":138776097},"arcs":[385]},{"type":"LineString","properties":{"bus_network":"Transperth","cycleway_right":"lane","bicycle_shield_text":"SVGF","min_zoom":8.0,"bus_shield_text":"52","id":127029753,"kind":"major_road","network":"T","sort_rank":380,"kind_detail":"primary","is_bicycle_related":true,"bicycle_network":"lcn","source":"openstreetmap.org","landuse_kind":"urban_area","shield_text":"203","ref":"S52"},"arcs":[386]},{"type":"MultiLineString","properties":{"bus_network":"Transperth","network":"T","sort_rank":380,"kind_detail":"primary","kind":"major_road","source":"openstreetmap.org","min_zoom":8.0,"bus_shield_text":"335","shield_text":"203","ref":"S52"},"arcs":[[387],[388]]},{"type":"MultiLineString","properties":{"source":"openstreetmap.org","kind":"major_road","kind_detail":"trunk","sort_rank":381,"landuse_kind":"urban_area","ref":"S51","min_zoom":8.0},"arcs":[[389],[390],[391]]},{"type":"MultiLineString","properties":{"kind":"major_road","network":"S","sort_rank":380,"kind_detail":"primary","source":"openstreetmap.org","min_zoom":8.0,"landuse_kind":"park","shield_text":"53","ref":"S53"},"arcs":[[392],[393],[394]]},{"type":"MultiLineString","properties":{"source":"openstreetmap.org","kind":"major_road","landuse_kind":"residential","sort_rank":381,"kind_detail":"trunk","ref":"S71","min_zoom":8.0},"arcs":[[395],[396],[397],[398],[399],[400],[401],[402],[403],[404],[405],[406],[407],[408],[409],[410],[411],[412],[413],[414],[415],[416],[417],[418],[419],[420]]},{"type":"MultiLineString","properties":{"source":"openstreetmap.org","kind":"major_road","kind_detail":"trunk","sort_rank":381,"landuse_kind":"urban_area","ref":"S50","min_zoom":8.0},"arcs":[[421],[422]]},{"type":"LineString","properties":{"kind":"major_road","sort_rank":381,"kind_detail":"trunk","is_bicycle_related":true,"bicycle_shield_text":"EPGF1","cycleway":"lane","source":"openstreetmap.org","min_zoom":8.0,"landuse_kind":"urban_area","bicycle_network":"lcn","ref":"S51","id":126760456},"arcs":[423]},{"type":"MultiLineString","properties":{"bus_network":"Transperth","network":"S","sort_rank":380,"kind_detail":"primary","kind":"major_road","source":"openstreetmap.org","min_zoom":8.0,"bus_shield_text":"52","shield_text":"53","landuse_kind":"residential","ref":"S53"},"arcs":[[424],[425]]},{"type":"MultiLineString","properties":{"kind":"major_road","network":"S","sort_rank":380,"landuse_kind":"residential","is_bicycle_related":true,"cycleway":"lane","source":"openstreetmap.org","min_zoom":8.0,"kind_detail":"primary","shield_text":"83"},"arcs":[[426],[427],[428],[429],[430],[431]]},{"type":"MultiLineString","properties":{"source":"openstreetmap.org","kind":"major_road","landuse_kind":"park","sort_rank":381,"kind_detail":"trunk","ref":"S60","min_zoom":8.0},"arcs":[[432],[433]]},{"type":"MultiLineString","properties":{"source":"openstreetmap.org","kind":"major_road","landuse_kind":"urban_area","sort_rank":380,"kind_detail":"primary","ref":"S64","min_zoom":8.0},"arcs":[[434],[435]]},{"type":"MultiLineString","properties":{"bus_network":"Transperth","sort_rank":380,"kind_detail":"primary","kind":"major_road","source":"openstreetmap.org","min_zoom":8.0,"bus_shield_text":"955","landuse_kind":"residential"},"arcs":[[436],[437],[438],[439],[440]]},{"type":"MultiLineString","properties":{"kind":"major_road","sort_rank":381,"landuse_kind":"residential","is_bicycle_related":true,"cycleway":"lane","source":"openstreetmap.org","min_zoom":8.0,"kind_detail":"trunk","ref":"S71"},"arcs":[[441],[442],[443],[444],[445],[446],[447]]},{"type":"MultiLineString","properties":{"kind":"highway","network":"S","sort_rank":383,"landuse_kind":"residential","source":"openstreetmap.org","min_zoom":8.0,"all_networks":["S"],"kind_detail":"motorway","shield_text":"3","ref":"3","all_shield_texts":["3"]},"arcs":[[448],[449],[450],[451],[452]]},{"type":"MultiLineString","properties":{"kind":"major_road","sort_rank":380,"kind_detail":"primary","is_bicycle_related":true,"cycleway":"lane","source":"openstreetmap.org","min_zoom":8.0,"landuse_kind":"residential","ref":"S85"},"arcs":[[453],[454]]},{"type":"MultiLineString","properties":{"bus_network":"Transperth","sort_rank":380,"kind_detail":"primary","kind":"major_road","source":"openstreetmap.org","min_zoom":8.0,"bus_shield_text":"52","landuse_kind":"residential","ref":"S76"},"arcs":[[455],[456]]},{"type":"LineString","properties":{"kind":"major_road","network":"S","sort_rank":380,"kind_detail":"primary","is_bicycle_related":true,"cycleway":"lane","source":"openstreetmap.org","min_zoom":8.0,"landuse_kind":"residential","shield_text":"83;S84","id":176332326},"arcs":[457]},{"type":"MultiLineString","properties":{"kind":"major_road","network":"S","sort_rank":380,"kind_detail":"primary","source":"openstreetmap.org","min_zoom":8.0,"landuse_kind":"residential","shield_text":"55"},"arcs":[[458],[459],[460],[461],[462],[463],[464],[465],[466],[467],[468],[469]]},{"type":"MultiLineString","properties":{"source":"openstreetmap.org","kind":"major_road","landuse_kind":"residential","sort_rank":380,"kind_detail":"primary","ref":"85","min_zoom":8.0},"arcs":[[470],[471]]},{"type":"MultiLineString","properties":{"bus_network":"Transperth","network":"NH","sort_rank":381,"kind_detail":"trunk","kind":"major_road","source":"openstreetmap.org","min_zoom":8.0,"bus_shield_text":"311","shield_text":"95;NR1"},"arcs":[[472],[473]]},{"type":"MultiLineString","properties":{"source":"openstreetmap.org","kind":"major_road","network":"S","sort_rank":380,"kind_detail":"primary","min_zoom":8.0,"shield_text":"83;S84"},"arcs":[[474],[475],[476]]},{"type":"MultiLineString","properties":{"source":"openstreetmap.org","kind":"major_road","landuse_kind":"park","sort_rank":380,"kind_detail":"primary","min_zoom":8.0},"arcs":[[477],[478],[479]]},{"type":"MultiLineString","properties":{"source":"openstreetmap.org","kind":"major_road","landuse_kind":"residential","sort_rank":380,"kind_detail":"primary","is_bicycle_related":true,"min_zoom":8.0},"arcs":[[480],[481],[482],[483],[484],[485],[486],[487],[488],[489]]},{"type":"LineString","properties":{"kind":"major_road","sort_rank":380,"kind_detail":"primary","bus_network":"Transperth","source":"openstreetmap.org","min_zoom":8.0,"bus_shield_text":"371","landuse_kind":"residential","id":55334956},"arcs":[490]},{"type":"MultiLineString","properties":{"source":"openstreetmap.org","kind":"major_road","landuse_kind":"residential","sort_rank":380,"kind_detail":"primary","ref":"S64","min_zoom":8.0},"arcs":[[491],[492],[493],[494],[495],[496],[497],[498],[499],[500],[501],[502],[503],[504],[505]]},{"type":"MultiLineString","properties":{"kind":"highway","network":"S","sort_rank":383,"landuse_kind":"urban_area","source":"openstreetmap.org","min_zoom":8.0,"all_networks":["S","NH","NH"],"kind_detail":"motorway","shield_text":"3","all_shield_texts":["3","3","94"]},"arcs":[[506],[507]]},{"type":"LineString","properties":{"kind":"major_road","sort_rank":381,"kind_detail":"trunk","is_bicycle_related":true,"bicycle_shield_text":"NE6","bicycle_network":"rcn","source":"openstreetmap.org","min_zoom":8.0,"landuse_kind":"residential","ref":"S76","id":55335288},"arcs":[508]},{"type":"MultiLineString","properties":{"source":"openstreetmap.org","kind":"major_road","landuse_kind":"urban_area","sort_rank":380,"kind_detail":"primary","ref":"S85","min_zoom":8.0},"arcs":[[509],[510],[511]]},{"type":"MultiLineString","properties":{"bus_network":"Transperth","network":"S","sort_rank":380,"kind_detail":"primary","kind":"major_road","source":"openstreetmap.org","min_zoom":8.0,"bus_shield_text":"335","shield_text":"83;S84"},"arcs":[[512],[513],[514],[515],[516],[517],[518],[519],[520],[521],[522],[523],[524]]},{"type":"LineString","properties":{"kind":"major_road","sort_rank":380,"kind_detail":"primary","is_bicycle_related":true,"bus_network":"Transperth","bicycle_shield_text":"NW1","bicycle_network":"rcn","source":"openstreetmap.org","min_zoom":8.0,"bus_shield_text":"426","landuse_kind":"residential","id":50054442},"arcs":[525]},{"type":"MultiLineString","properties":{"bus_network":"Transperth","sort_rank":380,"kind_detail":"primary","kind":"major_road","source":"openstreetmap.org","min_zoom":8.0,"bus_shield_text":"315","landuse_kind":"urban_area"},"arcs":[[526],[527]]},{"type":"MultiLineString","properties":{"kind":"major_road","network":"S","sort_rank":380,"kind_detail":"primary","source":"openstreetmap.org","min_zoom":8.0,"landuse_kind":"urban_area","shield_text":"53","ref":"S53"},"arcs":[[528],[529],[530],[531],[532]]},{"type":"LineString","properties":{"kind":"major_road","sort_rank":381,"landuse_kind":"park","source":"openstreetmap.org","min_zoom":8.0,"kind_detail":"trunk","ref":"S50","id":23044757},"arcs":[533]},{"type":"MultiLineString","properties":{"source":"openstreetmap.org","kind":"major_road","network":"NH","sort_rank":381,"kind_detail":"trunk","min_zoom":8.0,"shield_text":"95;NR1"},"arcs":[[534],[535],[536]]},{"type":"LineString","properties":{"kind":"major_road","sort_rank":380,"kind_detail":"primary","is_bicycle_related":true,"bicycle_shield_text":"NE2","cycleway":"lane","source":"openstreetmap.org","min_zoom":8.0,"landuse_kind":"residential","bicycle_network":"rcn","id":55207721},"arcs":[537]},{"type":"MultiLineString","properties":{"source":"openstreetmap.org","kind":"major_road","landuse_kind":"residential","sort_rank":380,"kind_detail":"primary","ref":"S76","min_zoom":8.0},"arcs":[[538],[539],[540],[541],[542]]},{"type":"LineString","properties":{"bus_network":"Transperth","sort_rank":380,"kind_detail":"primary","kind":"major_road","source":"openstreetmap.org","min_zoom":8.0,"bus_shield_text":"65","landuse_kind":"residential"},"arcs":[543]},{"type":"MultiLineString","properties":{"sort_rank":380,"kind_detail":"primary","min_zoom":8.0,"kind":"major_road","source":"openstreetmap.org"},"arcs":[[544],[545],[546],[547],[548],[549],[550],[551],[552],[553],[554],[555],[556],[557],[558],[559],[560],[561],[562],[563],[564],[565],[566],[567],[568],[569],[570],[571],[572],[573],[574],[575],[576],[577],[578],[579],[580],[581],[582],[583],[584],[585],[586],[587],[588],[589],[590],[591],[592]]},{"type":"LineString","properties":{"kind":"major_road","sort_rank":380,"landuse_kind":"residential","source":"openstreetmap.org","min_zoom":8.0,"kind_detail":"primary","ref":"S66","id":36984946},"arcs":[593]},{"type":"LineString","properties":{"bus_network":"Transperth","cycleway_left":"lane","network":"T","sort_rank":380,"kind_detail":"primary","is_bicycle_related":true,"kind":"major_road","source":"openstreetmap.org","min_zoom":8.0,"bus_shield_text":"335","shield_text":"203","landuse_kind":"urban_area","ref":"S52","id":127142569},"arcs":[594]},{"type":"MultiLineString","properties":{"bus_network":"Transperth","sort_rank":380,"kind_detail":"primary","kind":"major_road","source":"openstreetmap.org","min_zoom":8.0,"bus_shield_text":"52","landuse_kind":"urban_area","ref":"S76"},"arcs":[[595],[596],[597],[598]]},{"type":"MultiLineString","properties":{"source":"openstreetmap.org","kind":"major_road","kind_detail":"trunk","sort_rank":381,"landuse_kind":"urban_area","ref":"S60","min_zoom":8.0},"arcs":[[599],[600],[601],[602],[603],[604],[605],[606],[607]]},{"type":"MultiLineString","properties":{"bus_network":"Transperth","network":"T","sort_rank":380,"kind_detail":"primary","kind":"major_road","source":"openstreetmap.org","min_zoom":8.0,"bus_shield_text":"52","shield_text":"203","landuse_kind":"urban_area","ref":"S52"},"arcs":[[608],[609],[610]]},{"type":"MultiLineString","properties":{"kind":"major_road","sort_rank":381,"landuse_kind":"urban_area","is_bicycle_related":true,"cycleway":"lane","source":"openstreetmap.org","min_zoom":8.0,"kind_detail":"trunk","ref":"S71"},"arcs":[[611],[612]]},{"type":"MultiLineString","properties":{"bus_network":"Transperth","sort_rank":380,"kind_detail":"primary","is_bicycle_related":true,"kind":"major_road","bicycle_shield_text":"NE6","bicycle_network":"rcn","source":"openstreetmap.org","min_zoom":8.0,"bus_shield_text":"65","landuse_kind":"residential"},"arcs":[[613],[614],[615],[616],[617],[618],[619]]},{"type":"MultiLineString","properties":{"bus_network":"Transperth","sort_rank":380,"kind_detail":"primary","kind":"major_road","source":"openstreetmap.org","min_zoom":8.0,"bus_shield_text":"955","landuse_kind":"urban_area"},"arcs":[[620],[621],[622]]},{"type":"LineString","properties":{"kind":"major_road","sort_rank":380,"landuse_kind":"urban_area","source":"openstreetmap.org","min_zoom":8.0,"kind_detail":"primary","ref":"S41","id":48503554},"arcs":[623]},{"type":"MultiLineString","properties":{"source":"openstreetmap.org","kind":"major_road","kind_detail":"trunk","sort_rank":381,"landuse_kind":"urban_area","ref":"S66","min_zoom":8.0},"arcs":[[624],[625],[626],[627],[628],[629],[630],[631]]},{"type":"MultiLineString","properties":{"kind":"major_road","sort_rank":381,"landuse_kind":"residential","is_bicycle_related":true,"source":"openstreetmap.org","min_zoom":8.0,"kind_detail":"trunk","ref":"S76"},"arcs":[[632],[633]]},{"type":"MultiLineString","properties":{"kind":"major_road","network":"NH","sort_rank":381,"landuse_kind":"urban_area","source":"openstreetmap.org","min_zoom":8.0,"kind_detail":"trunk","shield_text":"95;NR1"},"arcs":[[634],[635]]},{"type":"LineString","properties":{"kind":"major_road","sort_rank":381,"kind_detail":"trunk","bus_network":"Transperth","source":"openstreetmap.org","min_zoom":8.0,"bus_shield_text":"58","landuse_kind":"residential","ref":"S76","id":295357970},"arcs":[636]},{"type":"MultiLineString","properties":{"kind":"major_road","sort_rank":380,"kind_detail":"primary","is_bicycle_related":true,"cycleway":"lane","source":"openstreetmap.org","min_zoom":8.0,"landuse_kind":"urban_area","ref":"S83;S84"},"arcs":[[637],[638]]},{"type":"LineString","properties":{"kind":"major_road","sort_rank":380,"kind_detail":"primary","is_bicycle_related":true,"bicycle_shield_text":"NW4","bicycle_network":"rcn","source":"openstreetmap.org","min_zoom":8.0,"landuse_kind":"residential","id":4979604},"arcs":[639]},{"type":"LineString","properties":{"kind":"major_road","network":"T","sort_rank":380,"kind_detail":"primary","is_bicycle_related":true,"cycleway":"lane","source":"openstreetmap.org","min_zoom":8.0,"shield_text":"203","ref":"S52","id":127145327},"arcs":[640]},{"type":"MultiLineString","properties":{"source":"openstreetmap.org","kind":"major_road","landuse_kind":"residential","sort_rank":380,"kind_detail":"primary","ref":"S85","min_zoom":8.0},"arcs":[[641],[642],[643],[644]]},{"type":"LineString","properties":{"bus_network":"Transperth","sort_rank":380,"kind_detail":"primary","kind":"major_road","source":"openstreetmap.org","min_zoom":8.0,"bus_shield_text":"66","landuse_kind":"residential","ref":"S53"},"arcs":[645]},{"type":"MultiLineString","properties":{"kind":"major_road","network":"T","sort_rank":380,"kind_detail":"primary","source":"openstreetmap.org","min_zoom":8.0,"shield_text":"203","ref":"S52"},"arcs":[[646],[647]]},{"type":"MultiLineString","properties":{"source":"openstreetmap.org","kind":"major_road","kind_detail":"trunk","sort_rank":381,"landuse_kind":"urban_area","min_zoom":8.0},"arcs":[[648],[649],[650],[651],[652],[653],[654],[655],[656],[657],[658],[659],[660],[661],[662],[663],[664],[665],[666],[667]]},{"type":"LineString","properties":{"source":"openstreetmap.org","kind":"major_road","network":"NR","sort_rank":381,"kind_detail":"trunk","min_zoom":8.0,"shield_text":"1"},"arcs":[668]},{"type":"LineString","properties":{"kind":"major_road","sort_rank":380,"kind_detail":"primary","is_bicycle_related":true,"bicycle_shield_text":"NW1","bicycle_network":"rcn","source":"openstreetmap.org","min_zoom":8.0,"landuse_kind":"residential","ref":"S87","id":4833646},"arcs":[669]},{"type":"MultiLineString","properties":{"source":"openstreetmap.org","kind":"major_road","network":"NH","sort_rank":381,"kind_detail":"trunk","min_zoom":8.0,"shield_text":"94"},"arcs":[[670],[671],[672],[673],[674],[675],[676],[677],[678],[679],[680]]},{"type":"MultiLineString","properties":{"kind":"major_road","network":"NH","sort_rank":381,"landuse_kind":"urban_area","is_bicycle_related":true,"cycleway":"lane","source":"openstreetmap.org","min_zoom":8.0,"kind_detail":"trunk","shield_text":"94"},"arcs":[[681],[682]]},{"type":"MultiLineString","properties":{"kind":"major_road","network":"NR","sort_rank":381,"landuse_kind":"urban_area","source":"openstreetmap.org","min_zoom":8.0,"kind_detail":"trunk","shield_text":"1;S"},"arcs":[[683],[684],[685],[686],[687]]},{"type":"MultiLineString","properties":{"kind":"major_road","sort_rank":380,"kind_detail":"primary","is_bicycle_related":true,"cycleway":"lane","source":"openstreetmap.org","min_zoom":8.0,"landuse_kind":"park","ref":"S82"},"arcs":[[688],[689],[690],[691],[692],[693],[694]]},{"type":"MultiLineString","properties":{"kind":"major_road","network":"S","sort_rank":381,"landuse_kind":"residential","is_bicycle_related":true,"cycleway":"lane","source":"openstreetmap.org","min_zoom":8.0,"kind_detail":"trunk","shield_text":"3","ref":"3"},"arcs":[[695],[696],[697]]},{"type":"LineString","properties":{"kind":"major_road","network":"S","sort_rank":380,"kind_detail":"primary","source":"openstreetmap.org","min_zoom":8.0,"old_name":"Beechboro Road North","shield_text":"53","landuse_kind":"park","ref":"S53"},"arcs":[698]},{"type":"LineString","properties":{"kind":"major_road","sort_rank":380,"kind_detail":"primary","is_bicycle_related":true,"bus_network":"Transperth","bicycle_shield_text":"NE8","bicycle_network":"rcn","source":"openstreetmap.org","min_zoom":8.0,"bus_shield_text":"52","landuse_kind":"residential","id":37819640},"arcs":[699]},{"type":"MultiLineString","properties":{"kind":"major_road","network":"T","sort_rank":380,"kind_detail":"primary","source":"openstreetmap.org","min_zoom":8.0,"landuse_kind":"park","shield_text":"207","id":59292724},"arcs":[[700],[701]]},{"type":"MultiLineString","properties":{"source":"openstreetmap.org","kind":"major_road","landuse_kind":"residential","sort_rank":380,"kind_detail":"primary","ref":"S61","min_zoom":8.0},"arcs":[[702],[703],[704],[705],[706],[707],[708]]},{"type":"LineString","properties":{"kind":"major_road","sort_rank":380,"kind_detail":"primary","bus_network":"Transperth","source":"openstreetmap.org","min_zoom":8.0,"bus_shield_text":"52","landuse_kind":"urban_area","id":43893098},"arcs":[709]},{"type":"LineString","properties":{"kind":"major_road","network":"T","sort_rank":380,"kind_detail":"primary","is_bicycle_related":true,"cycleway":"lane","source":"openstreetmap.org","min_zoom":8.0,"landuse_kind":"urban_area","shield_text":"203","ref":"S52","id":239378694},"arcs":[710]},{"type":"MultiLineString","properties":{"source":"openstreetmap.org","kind":"major_road","landuse_kind":"residential","sort_rank":380,"kind_detail":"primary","ref":"S72","min_zoom":8.0},"arcs":[[711],[712],[713],[714],[715],[716],[717],[718],[719],[720],[721],[722],[723],[724],[725],[726]]},{"type":"MultiLineString","properties":{"source":"openstreetmap.org","kind":"major_road","sort_rank":380,"kind_detail":"primary","ref":"S50","min_zoom":8.0},"arcs":[[727],[728],[729]]},{"type":"MultiLineString","properties":{"kind":"major_road","network":"NH","sort_rank":381,"landuse_kind":"urban_area","source":"openstreetmap.org","min_zoom":8.0,"kind_detail":"trunk","shield_text":"94"},"arcs":[[730],[731],[732],[733],[734],[735]]},{"type":"LineString","properties":{"kind":"major_road","cycleway_left":"lane","network":"T","sort_rank":380,"kind_detail":"primary","is_bicycle_related":true,"source":"openstreetmap.org","min_zoom":8.0,"landuse_kind":"urban_area","shield_text":"203","ref":"S52","id":239378696},"arcs":[736]},{"type":"MultiLineString","properties":{"kind":"highway","network":"S","sort_rank":383,"landuse_kind":"urban_area","source":"openstreetmap.org","min_zoom":8.0,"all_networks":["S"],"kind_detail":"motorway","shield_text":"3","ref":"3","all_shield_texts":["3"]},"arcs":[[737],[738]]},{"type":"LineString","properties":{"source":"openstreetmap.org","kind":"major_road","sort_rank":380,"kind_detail":"primary","ref":"S120","min_zoom":8.0},"arcs":[739]},{"type":"MultiLineString","properties":{"source":"openstreetmap.org","kind":"major_road","sort_rank":381,"kind_detail":"trunk","ref":"S71","min_zoom":8.0},"arcs":[[740],[741],[742],[743],[744],[745],[746],[747],[748],[749],[750],[751],[752],[753],[754],[755],[756],[757],[758],[759],[760],[761],[762],[763],[764],[765],[766],[767],[768],[769],[770],[771],[772],[773],[774]]},{"type":"MultiLineString","properties":{"source":"openstreetmap.org","kind":"major_road","kind_detail":"trunk","sort_rank":381,"landuse_kind":"urban_area","ref":"S71","min_zoom":8.0},"arcs":[[775],[776],[777],[778]]},{"type":"MultiLineString","properties":{"kind":"major_road","network":"S","sort_rank":380,"kind_detail":"primary","source":"openstreetmap.org","min_zoom":8.0,"landuse_kind":"urban_area","shield_text":"56"},"arcs":[[779],[780]]},{"type":"MultiLineString","properties":{"source":"openstreetmap.org","kind":"major_road","network":"T","sort_rank":380,"kind_detail":"primary","min_zoom":8.0,"shield_text":"207"},"arcs":[[781],[782],[783],[784],[785],[786],[787],[788],[789],[790],[791]]},{"type":"MultiLineString","properties":{"source":"openstreetmap.org","kind":"major_road","kind_detail":"trunk","sort_rank":381,"landuse_kind":"residential","ref":"S51","min_zoom":8.0},"arcs":[[792],[793],[794],[795],[796],[797],[798],[799],[800],[801],[802],[803],[804],[805]]},{"type":"MultiLineString","properties":{"kind":"highway","network":"S","sort_rank":383,"landuse_kind":"urban_area","source":"openstreetmap.org","min_zoom":8.0,"all_networks":["S","NH","NH"],"kind_detail":"motorway","shield_text":"3","all_shield_texts":["3","3","95"]},"arcs":[[806],[807]]},{"type":"MultiLineString","properties":{"kind":"highway","cycleway_left":"lane","network":"S","sort_rank":383,"landuse_kind":"residential","is_bicycle_related":true,"source":"openstreetmap.org","min_zoom":8.0,"all_networks":["S"],"kind_detail":"motorway","shield_text":"3","ref":"3","all_shield_texts":["3"]},"arcs":[[808],[809]]},{"type":"MultiLineString","properties":{"source":"openstreetmap.org","kind":"major_road","landuse_kind":"residential","sort_rank":381,"kind_detail":"trunk","ref":"S76","min_zoom":8.0},"arcs":[[810],[811],[812],[813],[814],[815],[816],[817],[818],[819],[820],[821],[822],[823],[824]]},{"type":"MultiLineString","properties":{"kind":"major_road","network":"NR","sort_rank":380,"kind_detail":"primary","is_bicycle_related":true,"cycleway":"lane","source":"openstreetmap.org","min_zoom":8.0,"landuse_kind":"urban_area","shield_text":"1","ref":"NR1;S51"},"arcs":[[825],[826]]},{"type":"MultiLineString","properties":{"source":"openstreetmap.org","kind":"major_road","landuse_kind":"aerodrome","sort_rank":380,"kind_detail":"primary","min_zoom":8.0},"arcs":[[827],[828],[829],[830],[831],[832],[833],[834],[835],[836],[837],[838],[839],[840],[841],[842],[843],[844],[845],[846],[847]]},{"type":"MultiLineString","properties":{"kind":"major_road","sort_rank":380,"kind_detail":"primary","is_bicycle_related":true,"cycleway":"lane","source":"openstreetmap.org","min_zoom":8.0,"landuse_kind":"urban_area"},"arcs":[[848],[849],[850]]},{"type":"MultiLineString","properties":{"source":"openstreetmap.org","kind":"major_road","landuse_kind":"residential","sort_rank":380,"kind_detail":"primary","min_zoom":8.0},"arcs":[[851],[852],[853],[854],[855],[856],[857],[858],[859],[860],[861],[862],[863],[864],[865],[866],[867],[868],[869],[870],[871],[872],[873],[874],[875],[876],[877],[878],[879],[880],[881],[882],[883],[884],[885],[886],[887],[888],[889],[890],[891],[892],[893],[894],[895],[896],[897],[898],[899],[900],[901],[902],[903],[904],[905],[906],[907],[908],[909],[910],[911],[912],[913],[914],[915],[916],[917],[918],[919],[920],[921],[922],[923],[924],[925],[926],[927],[928],[929],[930],[931],[932],[933],[934],[935],[936],[937],[938],[939],[940],[941],[942],[943],[944],[945],[946],[947],[948],[949],[950],[951],[952],[953],[954],[955],[956],[957],[958],[959],[960],[961],[962],[963],[964],[965],[966],[967],[968],[969],[970],[971],[972],[973],[974],[975],[976],[977],[978],[979],[980],[981],[982],[983],[984],[985],[986],[987],[988],[989],[990],[991],[992],[993],[994],[995],[996],[997],[998],[999],[1000],[1001],[1002],[1003],[1004],[1005],[1006],[1007],[1008],[1009],[1010],[1011],[1012],[1013],[1014],[1015],[1016],[1017],[1018],[1019],[1020],[1021],[1022],[1023],[1024],[1025],[1026],[1027],[1028],[1029],[1030],[1031],[1032],[1033],[1034],[1035],[1036],[1037],[1038],[1039],[1040],[1041],[1042],[1043],[1044],[1045],[1046],[1047],[1048],[1049],[1050],[1051],[1052],[1053],[1054],[1055],[1056],[1057],[1058],[1059],[1060],[1061],[1062],[1063],[1064],[1065],[1066],[1067],[1068],[1069],[1070],[1071],[1072],[1073],[1074],[1075],[1076],[1077],[1078],[1079],[1080],[1081],[1082],[1083],[1084],[1085],[1086],[1087],[1088],[1089],[1090],[1091],[1092],[1093],[1094],[1095],[1096],[1097],[1098],[1099],[1100],[1101],[1102],[1103],[1104],[1105],[1106],[1107],[1108],[1109],[1110],[1111],[1112],[1113],[1114],[1115],[1116],[1117],[1118],[1119],[1120],[1121],[1122],[1123],[1124],[1125],[1126],[1127],[1128],[1129],[1130],[1131],[1132],[1133],[1134],[1135],[1136],[1137],[1138],[1139],[1140],[1141],[1142],[1143],[1144],[1145]]},{"type":"LineString","properties":{"kind":"major_road","network":"S","sort_rank":380,"kind_detail":"primary","source":"openstreetmap.org","min_zoom":8.0,"shield_text":"83","id":346143918},"arcs":[1146]},{"type":"MultiLineString","properties":{"source":"openstreetmap.org","kind":"highway","landuse_kind":"residential","sort_rank":383,"kind_detail":"motorway","ref":"S8","min_zoom":8.0},"arcs":[[1147],[1148]]},{"type":"MultiLineString","properties":{"bus_network":"Transperth","sort_rank":380,"kind_detail":"primary","kind":"major_road","source":"openstreetmap.org","min_zoom":8.0,"bus_shield_text":"955","landuse_kind":"residential","ref":"S76"},"arcs":[[1149],[1150]]},{"type":"LineString","properties":{"kind":"major_road","sort_rank":380,"kind_detail":"primary","bus_network":"Transperth","source":"openstreetmap.org","min_zoom":8.0,"bus_shield_text":"342","landuse_kind":"residential","ref":"S53","id":139185062},"arcs":[1151]},{"type":"MultiLineString","properties":{"kind":"major_road","sort_rank":380,"landuse_kind":"urban_area","is_bicycle_related":true,"cycleway":"lane","source":"openstreetmap.org","min_zoom":8.0,"kind_detail":"primary","ref":"S82"},"arcs":[[1152],[1153],[1154],[1155],[1156],[1157],[1158],[1159],[1160]]},{"type":"MultiLineString","properties":{"source":"openstreetmap.org","kind":"major_road","sort_rank":381,"kind_detail":"trunk","ref":"S60","min_zoom":8.0},"arcs":[[1161],[1162],[1163],[1164],[1165],[1166],[1167],[1168],[1169]]},{"type":"MultiLineString","properties":{"kind":"major_road","sort_rank":380,"kind_detail":"primary","is_bicycle_related":true,"cycleway":"lane","source":"openstreetmap.org","min_zoom":8.0,"landuse_kind":"residential","ref":"S84"},"arcs":[[1170],[1171]]},{"type":"LineString","properties":{"bus_network":"Transperth","sort_rank":380,"kind_detail":"primary","kind":"major_road","source":"openstreetmap.org","min_zoom":8.0,"bus_shield_text":"48","landuse_kind":"residential"},"arcs":[1172]},{"type":"MultiLineString","properties":{"source":"openstreetmap.org","kind":"major_road","landuse_kind":"residential","sort_rank":380,"kind_detail":"primary","ref":"S51","min_zoom":8.0},"arcs":[[1173],[1174],[1175],[1176],[1177],[1178],[1179],[1180]]},{"type":"LineString","properties":{"kind":"major_road","network":"S","sort_rank":381,"kind_detail":"trunk","source":"openstreetmap.org","min_zoom":8.0,"landuse_kind":"residential","shield_text":"3"},"arcs":[1181]},{"type":"LineString","properties":{"kind":"major_road","sort_rank":380,"kind_detail":"primary","is_bicycle_related":true,"bus_network":"Transperth","bicycle_shield_text":"SVML","cycleway":"lane","source":"openstreetmap.org","min_zoom":8.0,"bus_shield_text":"315","landuse_kind":"urban_area","id":158256628,"bicycle_network":"lcn"},"arcs":[1182]},{"type":"MultiLineString","properties":{"kind":"major_road","network":"NH","sort_rank":381,"kind_detail":"trunk","source":"openstreetmap.org","min_zoom":8.0,"landuse_kind":"park","shield_text":"94"},"arcs":[[1183],[1184],[1185],[1186]]},{"type":"MultiLineString","properties":{"bus_network":"Transperth","sort_rank":380,"kind_detail":"primary","is_bicycle_related":true,"kind":"major_road","bicycle_shield_text":"NW7","bicycle_network":"rcn","source":"openstreetmap.org","min_zoom":8.0,"bus_shield_text":"955","landuse_kind":"residential"},"arcs":[[1187],[1188]]},{"type":"MultiLineString","properties":{"source":"openstreetmap.org","kind":"major_road","landuse_kind":"park","sort_rank":380,"kind_detail":"primary","ref":"S82","min_zoom":8.0},"arcs":[[1189],[1190],[1191]]},{"type":"MultiLineString","properties":{"bus_network":"Transperth","network":"T","sort_rank":381,"kind_detail":"trunk","kind":"major_road","source":"openstreetmap.org","min_zoom":8.0,"bus_shield_text":"421","shield_text":"204","landuse_kind":"residential","ref":"S71"},"arcs":[[1192],[1193]]},{"type":"LineString","properties":{"kind":"major_road","sort_rank":380,"kind_detail":"primary","is_bicycle_related":true,"bicycle_shield_text":"SVML","bicycle_network":"lcn","source":"openstreetmap.org","min_zoom":8.0,"landuse_kind":"urban_area","id":182626038},"arcs":[1194]},{"type":"MultiLineString","properties":{"kind":"major_road","sort_rank":380,"kind_detail":"primary","is_bicycle_related":true,"cycleway":"lane","source":"openstreetmap.org","min_zoom":8.0,"landuse_kind":"residential","ref":"S77"},"arcs":[[1195],[1196]]},{"type":"MultiLineString","properties":{"source":"openstreetmap.org","kind":"major_road","landuse_kind":"residential","sort_rank":380,"kind_detail":"primary","ref":"S65","min_zoom":8.0},"arcs":[[1197],[1198],[1199],[1200],[1201],[1202],[1203],[1204]]},{"type":"MultiLineString","properties":{"kind":"major_road","network":"T","sort_rank":380,"kind_detail":"primary","source":"openstreetmap.org","min_zoom":8.0,"shield_text":"359","ref":"S85"},"arcs":[[1205],[1206],[1207]]},{"type":"MultiLineString","properties":{"kind":"highway","network":"S","sort_rank":383,"landuse_kind":"urban_area","source":"openstreetmap.org","min_zoom":8.0,"all_networks":["S","S"],"kind_detail":"motorway","shield_text":"4","all_shield_texts":["4","4"]},"arcs":[[1208],[1209]]},{"type":"MultiLineString","properties":{"kind":"major_road","sort_rank":380,"kind_detail":"primary","is_bicycle_related":true,"cycleway":"lane","source":"openstreetmap.org","min_zoom":8.0,"landuse_kind":"residential"},"arcs":[[1210],[1211],[1212],[1213],[1214],[1215],[1216],[1217],[1218]]},{"type":"MultiLineString","properties":{"bus_network":"Transperth","network":"NR","sort_rank":381,"kind_detail":"trunk","kind":"major_road","source":"openstreetmap.org","min_zoom":8.0,"bus_shield_text":"311","shield_text":"1"},"arcs":[[1219],[1220],[1221]]},{"type":"MultiLineString","properties":{"source":"openstreetmap.org","kind":"major_road","landuse_kind":"residential","sort_rank":380,"kind_detail":"primary","ref":"S78","min_zoom":8.0},"arcs":[[1222],[1223]]},{"type":"LineString","properties":{"kind":"major_road","sort_rank":380,"landuse_kind":"park","source":"openstreetmap.org","min_zoom":8.0,"kind_detail":"primary","ref":"S85","id":516373332},"arcs":[1224]},{"type":"LineString","properties":{"kind":"major_road","sort_rank":380,"kind_detail":"primary","bus_network":"Transperth","source":"openstreetmap.org","min_zoom":8.0,"bus_shield_text":"52","landuse_kind":"urban_area","ref":"S52","id":127029757},"arcs":[1225]},{"type":"MultiLineString","properties":{"source":"openstreetmap.org","kind":"major_road","landuse_kind":"residential","sort_rank":381,"kind_detail":"trunk","ref":"S66","min_zoom":8.0},"arcs":[[1226],[1227],[1228]]},{"type":"MultiLineString","properties":{"source":"openstreetmap.org","kind":"major_road","sort_rank":381,"kind_detail":"trunk","ref":"S50","min_zoom":8.0,"id":23044757},"arcs":[[1229],[1230]]},{"type":"LineString","properties":{"kind":"major_road","sort_rank":380,"kind_detail":"primary","bus_network":"Transperth","source":"openstreetmap.org","min_zoom":8.0,"bus_shield_text":"421","landuse_kind":"residential","ref":"S75","id":373539164},"arcs":[1231]},{"type":"MultiLineString","properties":{"kind":"major_road","sort_rank":380,"kind_detail":"primary","is_bicycle_related":true,"bicycle_shield_text":"KPLM","bicycle_network":"lcn","source":"openstreetmap.org","min_zoom":8.0,"landuse_kind":"residential"},"arcs":[[1232],[1233]]},{"type":"MultiLineString","properties":{"source":"openstreetmap.org","kind":"major_road","landuse_kind":"residential","sort_rank":380,"kind_detail":"primary","ref":"S87","min_zoom":8.0},"arcs":[[1234],[1235],[1236],[1237]]},{"type":"MultiLineString","properties":{"source":"openstreetmap.org","kind":"major_road","landuse_kind":"residential","sort_rank":381,"kind_detail":"trunk","ref":"S60","min_zoom":8.0},"arcs":[[1238],[1239],[1240],[1241],[1242],[1243],[1244],[1245],[1246],[1247]]},{"type":"LineString","properties":{"kind":"major_road","network":"S","sort_rank":380,"kind_detail":"primary","source":"openstreetmap.org","min_zoom":8.0,"old_name":"Beechboro Road North","shield_text":"53","ref":"S53","id":542942367},"arcs":[1248]},{"type":"LineString","properties":{"kind":"major_road","network":"NR","sort_rank":380,"kind_detail":"primary","is_bicycle_related":true,"cycleway":"lane","source":"openstreetmap.org","min_zoom":8.0,"landuse_kind":"urban_area","shield_text":"1","ref":"s52","id":239378714},"arcs":[1249]},{"type":"MultiLineString","properties":{"bus_network":"Transperth","sort_rank":380,"kind_detail":"primary","kind":"major_road","source":"openstreetmap.org","min_zoom":8.0,"bus_shield_text":"341","landuse_kind":"residential"},"arcs":[[1250],[1251],[1252],[1253],[1254]]},{"type":"LineString","properties":{"kind":"major_road","network":"S","sort_rank":380,"kind_detail":"primary","source":"openstreetmap.org","min_zoom":8.0,"landuse_kind":"residential","shield_text":"83;S84","id":346143949},"arcs":[1255]},{"type":"MultiLineString","properties":{"kind":"major_road","network":"S","sort_rank":381,"landuse_kind":"urban_area","source":"openstreetmap.org","min_zoom":8.0,"kind_detail":"trunk","shield_text":"3"},"arcs":[[1256],[1257]]},{"type":"MultiLineString","properties":{"source":"openstreetmap.org","kind":"major_road","landuse_kind":"urban_area","sort_rank":380,"kind_detail":"primary","ref":"S51","min_zoom":8.0},"arcs":[[1258],[1259],[1260],[1261],[1262]]},{"type":"MultiLineString","properties":{"kind":"major_road","sort_rank":380,"kind_detail":"primary","is_bicycle_related":true,"cycleway":"lane","source":"openstreetmap.org","min_zoom":8.0,"landuse_kind":"urban_area","ref":"S84"},"arcs":[[1263],[1264]]},{"type":"LineString","properties":{"source":"openstreetmap.org","kind":"major_road","landuse_kind":"residential","sort_rank":381,"kind_detail":"trunk","ref":"S120","min_zoom":8.0},"arcs":[1265]},{"type":"MultiLineString","properties":{"bus_network":"Transperth","sort_rank":380,"kind_detail":"primary","kind":"major_road","source":"openstreetmap.org","min_zoom":8.0,"bus_shield_text":"421","landuse_kind":"residential"},"arcs":[[1266],[1267]]},{"type":"MultiLineString","properties":{"kind":"major_road","sort_rank":380,"landuse_kind":"residential","is_bicycle_related":true,"cycleway":"lane","source":"openstreetmap.org","min_zoom":8.0,"kind_detail":"primary","ref":"S82"},"arcs":[[1268],[1269]]},{"type":"MultiLineString","properties":{"kind":"major_road","network":"T","sort_rank":381,"landuse_kind":"urban_area","source":"openstreetmap.org","min_zoom":8.0,"kind_detail":"trunk","shield_text":"204","ref":"S71"},"arcs":[[1270],[1271]]},{"type":"MultiLineString","properties":{"bus_network":"Transperth","cycleway_left":"lane","network":"T","sort_rank":380,"kind_detail":"primary","is_bicycle_related":true,"kind":"major_road","source":"openstreetmap.org","min_zoom":8.0,"bus_shield_text":"335","shield_text":"203","ref":"S52"},"arcs":[[1272],[1273]]},{"type":"MultiLineString","properties":{"source":"openstreetmap.org","kind":"highway","landuse_kind":"urban_area","sort_rank":383,"kind_detail":"motorway","ref":"S8","min_zoom":8.0},"arcs":[[1274],[1275]]},{"type":"MultiLineString","properties":{"kind":"major_road","sort_rank":380,"landuse_kind":"nature_reserve","source":"openstreetmap.org","min_zoom":8.0,"kind_detail":"primary","ref":"S50","id":24762296},"arcs":[[1276],[1277]]},{"type":"MultiLineString","properties":{"bus_network":"Transperth","network":"NH","sort_rank":381,"kind_detail":"trunk","kind":"major_road","source":"openstreetmap.org","min_zoom":8.0,"bus_shield_text":"310","shield_text":"95;NR1"},"arcs":[[1278],[1279],[1280],[1281],[1282]]},{"type":"LineString","properties":{"bus_network":"Transperth","network":"T","sort_rank":380,"kind_detail":"primary","kind":"major_road","source":"openstreetmap.org","min_zoom":8.0,"bus_shield_text":"335","shield_text":"203","landuse_kind":"urban_area","ref":"S52"},"arcs":[1283]},{"type":"MultiLineString","properties":{"bus_network":"Transperth","network":"NH","sort_rank":381,"kind_detail":"trunk","is_bicycle_related":true,"kind":"major_road","bicycle_shield_text":"SVLP3","bicycle_network":"lcn","source":"openstreetmap.org","min_zoom":8.0,"bus_shield_text":"310","shield_text":"95;NR1"},"arcs":[[1284],[1285]]},{"type":"MultiLineString","properties":{"source":"openstreetmap.org","kind":"major_road","landuse_kind":"residential","sort_rank":380,"kind_detail":"primary","ref":"S77","min_zoom":8.0},"arcs":[[1286],[1287],[1288],[1289],[1290]]},{"type":"MultiLineString","properties":{"kind":"major_road","network":"S","sort_rank":381,"landuse_kind":"urban_area","source":"openstreetmap.org","min_zoom":8.0,"kind_detail":"trunk","shield_text":"60;S83"},"arcs":[[1291],[1292]]},{"type":"MultiLineString","properties":{"source":"openstreetmap.org","bus_network":"Transperth","bus_shield_text":"955","sort_rank":380,"kind_detail":"primary","min_zoom":8.0,"kind":"major_road"},"arcs":[[1293],[1294]]},{"type":"LineString","properties":{"source":"openstreetmap.org","kind":"ferry","name":"Hillary Boat Harbour - Rottnest Island","sort_rank":355,"min_zoom":8.0,"id":188858542},"arcs":[1295]},{"type":"LineString","properties":{"source":"openstreetmap.org","kind":"major_road","sort_rank":381,"kind_detail":"trunk","ref":"S120","min_zoom":8.0},"arcs":[1296]},{"type":"LineString","properties":{"kind":"major_road","network":"NR","sort_rank":380,"kind_detail":"primary","bus_network":"Transperth","source":"openstreetmap.org","min_zoom":8.0,"bus_shield_text":"315","landuse_kind":"urban_area","id":56721889},"arcs":[1297]},{"type":"LineString","properties":{"kind":"major_road","sort_rank":380,"kind_detail":"primary","is_bicycle_related":true,"bus_network":"Transperth","bicycle_shield_text":"NW7","bicycle_network":"rcn","source":"openstreetmap.org","min_zoom":8.0,"bus_shield_text":"344","landuse_kind":"residential","id":55412344},"arcs":[1298]},{"type":"MultiLineString","properties":{"bus_network":"Transperth","sort_rank":381,"kind_detail":"trunk","kind":"major_road","source":"openstreetmap.org","min_zoom":8.0,"bus_shield_text":"17","landuse_kind":"residential","ref":"S76"},"arcs":[[1299],[1300]]},{"type":"MultiLineString","properties":{"kind":"major_road","network":"T","sort_rank":380,"kind_detail":"primary","source":"openstreetmap.org","min_zoom":8.0,"landuse_kind":"urban_area","shield_text":"203"},"arcs":[[1301],[1302]]},{"type":"LineString","properties":{"kind":"major_road","network":"S","sort_rank":380,"kind_detail":"primary","source":"openstreetmap.org","min_zoom":8.0,"landuse_kind":"residential","shield_text":"60","id":406777076},"arcs":[1303]},{"type":"LineString","properties":{"kind":"major_road","sort_rank":380,"kind_detail":"primary","is_bicycle_related":true,"bicycle_shield_text":"NE4","bicycle_network":"rcn","source":"openstreetmap.org","min_zoom":8.0,"landuse_kind":"residential","id":37396674},"arcs":[1304]},{"type":"MultiLineString","properties":{"source":"openstreetmap.org","kind":"major_road","network":"T","sort_rank":380,"kind_detail":"primary","min_zoom":8.0,"shield_text":"359"},"arcs":[[1305],[1306],[1307],[1308]]},{"type":"MultiLineString","properties":{"bus_network":"Transperth","sort_rank":380,"kind_detail":"primary","kind":"major_road","source":"openstreetmap.org","min_zoom":8.0,"bus_shield_text":"58","landuse_kind":"residential"},"arcs":[[1309],[1310],[1311],[1312],[1313]]},{"type":"MultiLineString","properties":{"bus_network":"Transperth","network":"NH","sort_rank":381,"kind_detail":"trunk","is_bicycle_related":true,"kind":"major_road","bicycle_shield_text":"SVLP1","cycleway":"lane","source":"openstreetmap.org","min_zoom":8.0,"bus_shield_text":"310","shield_text":"95;NR1","bicycle_network":"lcn"},"arcs":[[1314],[1315]]},{"type":"MultiLineString","properties":{"source":"openstreetmap.org","kind":"major_road","landuse_kind":"urban_area","sort_rank":380,"kind_detail":"primary","ref":"S72","min_zoom":8.0},"arcs":[[1316],[1317],[1318]]},{"type":"LineString","properties":{"kind":"major_road","sort_rank":380,"kind_detail":"primary","is_bicycle_related":true,"bicycle_shield_text":"UWSU","bicycle_network":"lcn","source":"openstreetmap.org","min_zoom":8.0,"landuse_kind":"residential","ref":"S65"},"arcs":[1319]},{"type":"MultiLineString","properties":{"source":"openstreetmap.org","kind":"major_road","landuse_kind":"urban_area","sort_rank":380,"kind_detail":"primary","ref":"S61","min_zoom":8.0},"arcs":[[1320],[1321]]},{"type":"LineString","properties":{"kind":"major_road","network":"S","sort_rank":380,"kind_detail":"primary","source":"openstreetmap.org","min_zoom":8.0,"landuse_kind":"urban_area","shield_text":"72","id":344736746},"arcs":[1322]},{"type":"LineString","properties":{"kind":"major_road","network":"S","sort_rank":381,"landuse_kind":"residential","is_bicycle_related":true,"cycleway":"lane","source":"openstreetmap.org","min_zoom":8.0,"kind_detail":"trunk","shield_text":"3"},"arcs":[1323]},{"type":"MultiLineString","properties":{"bus_network":"Transperth","network":"S","sort_rank":380,"kind_detail":"primary","kind":"major_road","source":"openstreetmap.org","min_zoom":8.0,"bus_shield_text":"341","shield_text":"53","landuse_kind":"residential","ref":"S53"},"arcs":[[1324],[1325]]},{"type":"MultiLineString","properties":{"source":"openstreetmap.org","kind":"highway","sort_rank":383,"kind_detail":"motorway","ref":"S2","min_zoom":8.0},"arcs":[[1326],[1327]]},{"type":"LineString","properties":{"kind":"major_road","sort_rank":380,"kind_detail":"primary","bus_network":"Transperth","source":"openstreetmap.org","min_zoom":8.0,"bus_shield_text":"426","landuse_kind":"residential","ref":"S64","id":170425340},"arcs":[1328]},{"type":"MultiLineString","properties":{"source":"openstreetmap.org","kind":"major_road","landuse_kind":"residential","sort_rank":381,"kind_detail":"trunk","min_zoom":8.0},"arcs":[[1329],[1330],[1331],[1332],[1333],[1334],[1335],[1336],[1337],[1338],[1339],[1340],[1341],[1342]]},{"type":"LineString","properties":{"kind":"major_road","sort_rank":380,"kind_detail":"primary","is_bicycle_related":true,"bicycle_shield_text":"NW4","bicycle_network":"rcn","source":"openstreetmap.org","min_zoom":8.0,"landuse_kind":"residential","ref":"S82","id":37815233},"arcs":[1343]},{"type":"MultiLineString","properties":{"bus_network":"Transperth","network":"S","sort_rank":380,"landuse_kind":"residential","kind":"major_road","source":"openstreetmap.org","min_zoom":8.0,"bus_shield_text":"335","shield_text":"83;S84","kind_detail":"primary"},"arcs":[[1344],[1345]]},{"type":"MultiLineString","properties":{"bus_network":"Transperth","network":"S","sort_rank":381,"kind_detail":"trunk","kind":"major_road","source":"openstreetmap.org","min_zoom":8.0,"bus_shield_text":"52","shield_text":"3","landuse_kind":"urban_area","ref":"3"},"arcs":[[1346],[1347]]},{"type":"LineString","properties":{"bus_network":"Transperth","sort_rank":380,"kind_detail":"primary","kind":"major_road","source":"openstreetmap.org","min_zoom":8.0,"bus_shield_text":"426","landuse_kind":"residential"},"arcs":[1348]},{"type":"MultiLineString","properties":{"kind":"major_road","network":"S","sort_rank":380,"kind_detail":"primary","source":"openstreetmap.org","min_zoom":8.0,"landuse_kind":"residential","shield_text":"53","ref":"S53"},"arcs":[[1349],[1350],[1351],[1352],[1353],[1354],[1355],[1356],[1357],[1358]]},{"type":"MultiLineString","properties":{"source":"openstreetmap.org","kind":"highway","landuse_kind":"residential","sort_rank":383,"kind_detail":"motorway","ref":"S2","min_zoom":8.0},"arcs":[[1359],[1360]]},{"type":"MultiLineString","properties":{"source":"openstreetmap.org","kind":"major_road","landuse_kind":"residential","sort_rank":381,"kind_detail":"trunk","ref":"3","min_zoom":8.0},"arcs":[[1361],[1362]]},{"type":"MultiLineString","properties":{"bus_network":"Transperth","network":"S","sort_rank":380,"kind_detail":"primary","kind":"major_road","source":"openstreetmap.org","min_zoom":8.0,"bus_shield_text":"66","shield_text":"53","landuse_kind":"urban_area","ref":"S53"},"arcs":[[1363],[1364],[1365],[1366]]},{"type":"MultiLineString","properties":{"kind":"major_road","network":"NR","sort_rank":380,"kind_detail":"primary","source":"openstreetmap.org","min_zoom":8.0,"landuse_kind":"urban_area","shield_text":"1"},"arcs":[[1367],[1368],[1369]]},{"type":"LineString","properties":{"source":"openstreetmap.org","kind":"major_road","sort_rank":380,"kind_detail":"primary","ref":"S120;S50","min_zoom":8.0},"arcs":[1370]},{"type":"MultiLineString","properties":{"bus_network":"Transperth","sort_rank":381,"kind_detail":"trunk","kind":"major_road","source":"openstreetmap.org","min_zoom":8.0,"bus_shield_text":"65","landuse_kind":"residential","ref":"S76"},"arcs":[[1371],[1372]]},{"type":"MultiLineString","properties":{"bus_network":"Transperth","sort_rank":381,"kind_detail":"trunk","kind":"major_road","source":"openstreetmap.org","min_zoom":8.0,"bus_shield_text":"52","landuse_kind":"residential","ref":"S76"},"arcs":[[1373],[1374]]},{"type":"LineString","properties":{"kind":"major_road","network":"S","sort_rank":380,"kind_detail":"primary","source":"openstreetmap.org","min_zoom":8.0,"landuse_kind":"residential","shield_text":"53","id":304327829},"arcs":[1375]},{"type":"LineString","properties":{"kind":"highway","network":"NH","sort_rank":383,"kind_detail":"motorway","source":"openstreetmap.org","min_zoom":8.0,"all_networks":["NH","NH"],"landuse_kind":"urban_area","shield_text":"94","id":161327712,"all_shield_texts":["94","94"]},"arcs":[1376]},{"type":"LineString","properties":{"kind":"major_road","sort_rank":380,"kind_detail":"primary","is_bicycle_related":true,"bicycle_shield_text":"SE4","cycleway":"lane","source":"openstreetmap.org","min_zoom":8.0,"landuse_kind":"urban_area","bicycle_network":"rcn","id":182626037},"arcs":[1377]},{"type":"MultiLineString","properties":{"source":"openstreetmap.org","kind":"major_road","network":"NR","landuse_kind":"urban_area","sort_rank":380,"kind_detail":"primary","min_zoom":8.0},"arcs":[[1378],[1379]]},{"type":"LineString","properties":{"kind":"major_road","network":"S","sort_rank":380,"kind_detail":"primary","is_bicycle_related":true,"cycleway":"shared_lane","source":"openstreetmap.org","min_zoom":8.0,"landuse_kind":"residential","shield_text":"53","ref":"S53","id":96899917},"arcs":[1380]},{"type":"LineString","properties":{"bus_network":"Transperth","sort_rank":380,"kind_detail":"primary","kind":"major_road","source":"openstreetmap.org","min_zoom":8.0,"bus_shield_text":"950","landuse_kind":"residential"},"arcs":[1381]},{"type":"MultiLineString","properties":{"kind":"major_road","network":"NR","sort_rank":381,"landuse_kind":"urban_area","source":"openstreetmap.org","min_zoom":8.0,"kind_detail":"trunk","shield_text":"1;NH"},"arcs":[[1382],[1383],[1384],[1385]]},{"type":"MultiLineString","properties":{"kind":"major_road","network":"T","sort_rank":380,"kind_detail":"primary","source":"openstreetmap.org","min_zoom":8.0,"landuse_kind":"residential","shield_text":"254"},"arcs":[[1386],[1387],[1388],[1389],[1390],[1391]]}]},"earth":{"type":"GeometryCollection","geometries":[{"type":"Polygon","properties":{"sort_rank":10,"source":"naturalearthdata.com","min_zoom":0.0,"kind":"earth","area":94593388502},"arcs":[[1392]]}]},"landuse":{"type":"GeometryCollection","geometries":[{"type":"Polygon","properties":{"kind":"aerodrome","area":12710300,"sort_rank":60,"operator":"Perth Airport Proprietary Limited","source":"openstreetmap.org","min_zoom":8.0,"tier":3,"id":179200892},"arcs":[[1393]]},{"type":"MultiPolygon","properties":{"source":"openstreetmap.org","kind":"park","tier":2,"area":107486053,"sort_rank":24,"min_zoom":8.0},"arcs":[[[1394]],[[1395]]]},{"type":"Polygon","properties":{"source":"openstreetmap.org","kind":"residential","area":494142016,"tier":2,"id":178713770,"min_zoom":6.0,"sort_rank":20},"arcs":[[1396]]},{"type":"MultiPolygon","properties":{"source":"openstreetmap.org","kind":"residential","tier":2,"area":21123840,"sort_rank":20,"min_zoom":8.0,"osm_relation":true},"arcs":[[[1397]],[[1398]]]},{"type":"MultiPolygon","properties":{"source":"openstreetmap.org","kind":"nature_reserve","tier":2,"area":105792622,"sort_rank":23,"min_zoom":8.0},"arcs":[[[1399]]]},{"type":"Polygon","properties":{"source":"naturalearthdata.com","kind":"urban_area","name":"","area":1793676928,"sort_rank":11,"min_zoom":4.0,"id":11829},"arcs":[[1400]]},{"type":"MultiPolygon","properties":{"source":"openstreetmap.org","kind":"residential","tier":2,"area":63268822,"sort_rank":20,"min_zoom":8.0},"arcs":[[[1401]],[[1402]]]},{"type":"Polygon","properties":{"kind":"park","natural":"wood","area":340510016,"sort_rank":24,"source":"openstreetmap.org","min_zoom":6.0,"tier":2,"id":-1247250,"osm_relation":true},"arcs":[[1403],[1404],[1405]]},{"type":"MultiPolygon","properties":{"source":"openstreetmap.org","kind":"military","tier":3,"area":307669131,"sort_rank":45,"min_zoom":8.0},"arcs":[[[1406]],[[1407]]]},{"type":"MultiPolygon","properties":{"source":"openstreetmap.org","kind":"park","tier":2,"area":92647555,"sort_rank":24,"min_zoom":8.0,"osm_relation":true},"arcs":[[[1408],[1409],[1410]],[[1411]],[[1412]],[[1413]]]},{"type":"Polygon","properties":{"kind":"nature_reserve","area":74679504,"sort_rank":23,"source":"openstreetmap.org","min_zoom":8.0,"tier":2,"id":-3197354,"osm_relation":true},"arcs":[[1414]]},{"type":"Polygon","properties":{"kind":"residential","name":"Ellenbrook","area":14196900,"sort_rank":20,"source":"openstreetmap.org","min_zoom":8.0,"tier":2,"id":-3225424,"osm_relation":true},"arcs":[[1415],[1416]]},{"type":"Polygon","properties":{"kind":"military","area":165168992,"sort_rank":45,"source":"openstreetmap.org","min_zoom":8.0,"tier":3,"id":-3197353,"osm_relation":true},"arcs":[[1417]]}]}},"type":"Topology","transform":{"translate":[115.3125,-31.952162238],"scale":[0.0003433228,0.0002931847]},"arcs":[[[0,1417],[165,-159],[56,-157],[92,-156],[55,-204],[92,-152],[-4,-34],[-179,-55],[-277,-168]],[[0,1417],[165,-159],[56,-157],[92,-156],[55,-204],[92,-152],[-4,-34],[-179,-55],[-277,-168]],[[1589,1],[0,7],[-5,2],[-20,10],[-26,24],[-3,4],[-3,3],[-10,21],[-23,26],[-4,5],[-4,7],[-3,12],[-5,43],[-7,13],[-38,16],[-5,4],[-6,8],[-1,4],[-3,14],[-1,10],[-1,11],[0,12],[1,8],[2,39],[-2,20],[-17,55],[-30,56],[-2,5],[-1,7],[-1,4],[-5,109],[-6,48],[-6,14],[-23,28],[-1,3],[-2,3],[-1,6],[-2,27],[-1,31],[-17,7],[-12,7],[-2,2],[-2,3],[-13,28],[-4,15],[-4,32],[-2,7],[-15,29],[-3,8],[-2,4],[-8,26],[-3,12],[34,-86],[9,-50],[44,-44],[37,-113],[5,-47],[6,-114],[32,-64],[5,-14],[13,-44],[1,-4],[2,-15],[-3,-60],[5,-37],[11,-14],[27,-8],[7,-4],[5,-5],[4,-7],[1,-2],[2,-6],[11,-59],[27,-31],[16,-27],[52,-37],[-1,-7]],[[2558,1052],[-2,-15],[-2,-4],[-26,-35]],[[2528,998],[-79,-20],[-181,-114],[-65,-145],[-9,-106],[-103,-88],[-33,-195],[44,-63],[7,-75],[-119,16],[-122,-32],[-77,-65],[-79,-10],[-72,-83]],[[3267,1446],[-26,-7],[-20,-123],[-98,-45],[-116,11],[-94,60],[-43,-38],[-148,-39],[-166,-131],[0,-97],[-6,-9],[-2,0],[-7,-2],[-3,-1],[-1,0],[-3,-3],[-1,-2],[-1,-2],[-3,-8],[-1,-2],[0,-4],[0,-6]],[[4096,997],[-60,34],[-156,41],[-124,-28],[-26,54],[-62,-5],[-146,107],[-17,84],[-110,14],[-14,58],[-58,23],[-56,67]],[[3267,1446],[-22,-1]],[[1600,1],[-76,32],[-66,-33]],[[1600,1],[-56,28],[-9,2],[-7,2],[-5,0],[-66,-33]],[[1618,3],[-8,-3]],[[1601,0],[-10,6]],[[1593,5],[7,-4]],[[1600,1],[2,-1]],[[1610,0],[6,3]],[[1616,3],[11,4]],[[1627,7],[27,51],[59,44],[3,2],[16,7],[19,6],[39,-6],[6,4],[49,48],[6,5],[17,8],[22,5]],[[1602,0],[-2,1]],[[1616,3],[2,0]],[[1920,181],[-63,-10],[-13,-10],[-46,-44],[-4,-4],[-3,-2],[-3,-1],[-2,0],[-3,0],[-2,0],[-30,7],[-36,-14],[-46,-37],[-3,-2],[-8,-3],[-3,-3],[-13,-40],[-2,-3],[-1,-1],[-10,-6],[-3,-1]],[[1626,7],[-8,-4]],[[1627,7],[-1,0]],[[1992,208],[9,0],[6,-2]],[[1992,208],[8,0]],[[2000,208],[2,-1]],[[2000,208],[2,0],[5,-2]],[[1589,1],[-1,-1]],[[1589,1],[0,-1]],[[1592,5],[8,-5]],[[1600,0],[1,0]],[[1611,0],[86,0]],[[1600,0],[-4,2]],[[1599,0],[1,0]],[[1600,0],[1,0]],[[1611,0],[61,16],[25,-16]],[[2558,1052],[-2,-15],[-1,-2],[-1,-2],[-1,-2],[-1,-1],[-2,-2],[-16,-6],[-6,-24]],[[2528,998],[-79,-20],[-181,-114],[-65,-145],[-9,-106],[-103,-88],[-33,-195],[44,-63],[7,-75],[-119,16],[-122,-32],[-77,-65],[-79,-10],[-72,-83]],[[3267,1446],[-26,-7],[-20,-123],[-98,-45],[-116,11],[-94,60],[-43,-38],[-148,-39],[-166,-131],[0,-97],[-22,-15],[-6,-24]],[[4096,997],[-60,34],[-156,41],[-124,-28],[-26,54],[-62,-5],[-146,107],[-17,84],[-110,14],[-14,58],[-58,23],[-56,67]],[[3267,1446],[-22,-1]],[[0,3282],[1,-3],[205,-488],[208,-578],[280,-448],[157,-382],[220,-348],[60,-145],[60,-278],[65,-529],[-9,-83],[-1247,0],[0,3282]],[[1247,0],[9,83],[-65,529],[-60,278],[-60,145],[-220,348],[-157,382],[-280,448],[-208,578],[-205,488],[-1,3]],[[1930,261],[19,14]],[[1826,64],[3,2]],[[1829,66],[-2,-1]],[[1994,77],[18,-19]],[[2021,53],[-9,5]],[[2012,58],[9,-5]],[[1731,184],[-6,-10]],[[1738,189],[22,0]],[[1760,189],[-22,-1]],[[1433,202]],[[2082,4096],[-13,-76],[22,-344],[-15,-48],[32,-115],[50,-53],[0,-60],[-34,-42],[31,-623],[21,-84],[76,-88],[22,-77],[-21,-121],[28,-53],[-42,-234],[24,-19],[68,16],[8,-19]],[[1893,458],[0,5]],[[1893,454],[0,4]],[[1894,458],[-1,-4]],[[1904,362],[-11,92]],[[1893,463],[1,47]],[[1893,463],[0,-5]],[[1588,47],[-1,1]],[[1587,48],[25,-14]],[[2934,265],[657,-30],[81,-31],[83,18],[129,-35],[76,-60],[136,10]],[[1974,369],[10,36]],[[1990,412],[10,97]],[[1874,220]],[[1823,62],[3,2]],[[1920,187],[0,-5]],[[1923,210],[2,5]],[[1428,199],[-19,-2]],[[1409,197],[20,3]],[[2043,308],[6,88]],[[2049,396],[-6,-88]],[[3934,1024],[-30,20]],[[1590,4],[-1,-2]],[[1591,7]],[[1598,20],[-2,-3]],[[1600,2],[1,4]],[[1604,12],[8,15]],[[1636,68],[59,59]],[[1695,127],[-59,-59]],[[1695,127],[8,8]],[[1703,135],[1,2]],[[1708,140],[-4,-3]],[[1712,149],[-4,-9]],[[1712,149],[8,15]],[[1721,165],[-6,-12]],[[1263,819],[-16,52]],[[1249,871],[15,-52]],[[1267,811],[7,-26]],[[1273,784],[-6,19]],[[1740,120],[23,-24]],[[1764,95],[-1,1]],[[1763,96],[2,-1]],[[1925,180],[-13,0]],[[1561,2],[-66,101],[-24,78],[-29,10],[-11,8],[-2,3],[-7,33],[-1,5],[0,86],[-50,123],[-11,156],[-31,47],[-52,117],[-4,15]],[[1275,784],[86,-176],[11,-159],[49,-121],[8,-124],[41,-20],[11,-12],[15,-69],[66,-101]],[[1780,136],[-1,12]],[[1428,523],[41,-3]],[[1469,520],[-41,2]],[[1537,389],[0,12]],[[1538,239],[1,1]],[[1564,159],[0,-2]],[[1537,389]],[[1633,534],[-33,0]],[[1601,535],[67,-1]],[[1668,534],[-34,0]],[[1319,266],[-31,-31]],[[1893,532],[0,1]],[[1893,533],[0,-1]],[[1893,530],[0,2]],[[1874,220],[-16,0]],[[1858,220],[16,0]],[[1573,41],[0,12]],[[1920,180],[0,7]],[[1920,188],[0,8]],[[1920,196],[0,6]],[[1920,196],[0,-9]],[[1926,221],[3,39]],[[1929,260]],[[1929,260]],[[1874,220],[-5,-43]],[[157,3402],[-2,149]],[[172,3255],[-15,88]],[[1777,98],[-4,-1]],[[1796,113],[-19,-15]],[[1777,98],[19,15]],[[1766,55],[-12,20],[13,-20]],[[1772,47],[-5,7]],[[1767,54],[6,-8]],[[1766,54],[1,1],[0,-1],[-1,0]],[[155,3551],[-1,75]],[[1767,235],[-9,56]],[[1759,290],[8,-55]],[[1767,235],[6,-49]],[[1778,157],[-5,29]],[[1773,186],[5,-19],[0,-10]],[[2936,265],[-1,-2]],[[1142,1006],[-1,1],[1,0],[1,-1],[-1,0]],[[1163,942],[1,-1],[0,-1],[-2,0],[1,2]],[[1177,880],[-1,0],[0,1],[1,0],[0,-1]],[[1713,103],[-108,110]],[[1752,78],[-12,12]],[[1300,197],[95,-20]],[[1436,162],[-41,15]],[[1436,162],[66,-33]],[[1502,129],[6,0]],[[1543,130],[-35,-1]],[[1544,130],[37,-20]],[[1583,108],[-2,2]],[[1583,108],[14,-14]],[[1613,78],[12,-13]],[[1633,57],[9,-9]],[[1644,46],[-2,2]],[[1642,48],[2,-2]],[[1623,29],[0,-1],[0,1]],[[1754,75],[-2,3]],[[1529,267]],[[1587,537],[-1,-9]],[[1662,0],[-12,0]],[[1704,196],[12,0],[9,0]],[[1725,196],[1,0]],[[1729,196],[-4,0]],[[1725,196],[-16,0],[-5,0]],[[1717,188],[29,-22]],[[1724,187],[1,7],[0,2]],[[1725,196]],[[1725,196],[1,23]],[[1314,85]],[[1474,507],[-2,5]],[[1472,512],[2,-5]],[[1703,182],[18,-17]],[[1791,39],[31,22]],[[1825,63],[-34,-24]],[[1426,834],[8,14]],[[1434,850],[1,0]],[[1435,848],[-1,-1]],[[1425,833],[2,1],[0,-2],[-2,0],[0,1]],[[1544,130],[-1,0]],[[1356,251],[-7,4]],[[1350,255],[4,-2]],[[1305,462],[48,-6]],[[1353,455],[-48,6]],[[1353,456],[1,0],[-1,-1],[0,1]],[[1354,456],[141,-4]],[[1514,449],[-96,-5],[-64,12]],[[1499,452],[15,-2]],[[1527,447],[-12,2]],[[1515,450],[12,-2]],[[1578,447],[-49,0]],[[1529,448],[49,0]],[[1781,196],[1,20]],[[1782,215],[0,-19]],[[1783,267],[0,51]],[[1784,322],[0,-3]],[[1783,319],[1,0],[0,-1],[-1,0],[0,1]],[[1355,527],[19,-1]],[[1378,526],[-12,-2]],[[1474,507],[13,1]],[[1503,268],[26,-1]],[[1529,267],[6,1]],[[1350,400],[-34,0]],[[1316,400],[167,4]],[[1483,403],[-133,-3]],[[1644,399],[-162,13]],[[1482,413],[162,-13]],[[1213,438],[29,-1]],[[1864,312],[22,-1]],[[1912,305],[-26,6]],[[1912,305],[45,-2]],[[1964,302],[-7,1]],[[1957,303],[7,-1]],[[2048,70],[-3,53]],[[2045,123],[4,-54]],[[1910,180],[2,0]],[[2033,207],[-32,2]],[[2001,209],[-10,1]],[[1991,210],[10,-1]],[[2001,209],[45,-4]],[[1827,65],[-1,-1]],[[1876,103],[5,6]],[[1881,109],[-1,-3]],[[1912,177],[-31,-68]],[[1912,177],[0,3]],[[1912,180],[0,-3]],[[1951,195],[-1,0]],[[1990,210],[1,0]],[[2044,300]],[[1731,184],[7,5]],[[1738,188],[-7,-4]],[[2083,197],[-7,-13]],[[1905,180],[5,0]],[[1912,180],[-4,0]],[[1434,847],[-7,-14]],[[1435,852],[12,20]],[[1683,425],[-21,17]],[[1704,277],[-4,13]],[[1701,290],[3,-12]],[[1726,261],[-24,0]],[[1726,262],[0,-17]],[[1726,236],[0,-17]],[[2099,297],[-18,-10]],[[1280,621],[47,0],[15,-9]],[[1341,611],[-61,10]],[[1342,612],[1,-1],[-1,-1]],[[1342,610],[-1,1],[1,1]],[[1372,604],[-13,0],[-17,6]],[[1343,611],[29,-6]],[[1314,85],[-19,1]],[[1295,86],[19,-1]],[[1592,98],[21,-20]],[[1961,328],[13,41]],[[1758,292],[1,-2]],[[1779,148],[-1,9]],[[1778,157],[31,-71]],[[1808,85],[-28,51]],[[1350,400]],[[1597,0],[-5,2]],[[1593,2],[5,-2]],[[1643,2],[0,11]],[[1645,0],[-1,2]],[[1644,13],[0,-10]],[[1644,2],[1,-2]],[[1929,261],[1,0]],[[1952,279],[5,10]],[[1295,86],[-7,152]],[[1289,222],[7,-136]],[[1625,65],[4,-3]],[[1631,59],[-2,3]],[[1631,59],[2,-2]],[[1654,148],[0,1]],[[1695,88],[8,7]],[[1307,0],[0,1]],[[1308,1],[0,-1]],[[2019,225],[1,5]],[[2020,230],[-1,-5]],[[2020,230],[24,59]],[[1668,534],[46,0]],[[1719,534],[-51,0]],[[2042,225],[5,0]],[[3400,1303],[-11,47]],[[1758,0],[12,23],[21,16]],[[1791,39],[-32,-39]],[[1826,64],[-1,-1]],[[1266,715],[-7,-1]],[[1259,715],[7,1]],[[1395,3],[1,12]],[[1335,322],[-3,-1]],[[1456,324],[-56,0]],[[1419,326],[38,-2]],[[1462,323],[-5,1]],[[1459,324],[3,-1]],[[1794,307],[-36,-16]],[[1765,295],[29,12]],[[1834,308],[-40,-1]],[[1856,311],[-22,-3]],[[1856,311],[8,1]],[[2049,39],[-1,31]],[[2049,69],[0,-30]],[[1349,255],[-2,2]],[[1347,257],[3,-2]],[[1989,1287],[-2,75],[116,129],[69,192],[133,164],[-17,136],[48,71],[78,21],[37,60],[-10,75],[81,195],[-8,194],[80,366],[20,340],[50,55],[-5,34]],[[2612,3310],[47,84]],[[2659,3394],[28,65],[12,162],[87,190],[-25,70],[21,140],[-71,75]],[[2047,225],[-7,-29]],[[2047,225],[0,1]],[[1587,48],[1,1]],[[1588,49],[-1,-1]],[[1588,49],[1,3]],[[1590,55],[-1,-3]],[[1590,55],[2,21]],[[1592,76],[0,-3]],[[1592,76],[1,18]],[[1645,441],[4,-142],[-1,-10],[-55,-195]],[[1593,94],[56,201],[-1,14],[-2,36],[-2,96]],[[1487,508],[32,3]],[[1519,511],[3,1]],[[1522,511],[-3,0]],[[1522,512],[1,-1]],[[1523,511],[-1,0],[0,1]],[[1523,512],[1,-1]],[[1524,511],[-1,0]],[[1524,511],[32,13]],[[1558,524],[-2,0]],[[1556,524],[1,1]],[[1558,525],[2,1]],[[1560,526],[-1,-1]],[[1583,528],[-23,-2]],[[1583,528],[2,0]],[[1585,527],[-2,1]],[[1558,524],[-1,0],[1,1],[1,0],[-1,-1]],[[1679,221],[25,-25]],[[1704,196],[-11,-6]],[[1696,192],[8,4]],[[1704,196]],[[1702,262],[111,-1]],[[1726,219],[-1,-25]],[[1841,261],[0,34]],[[1394,0],[1,3]],[[2004,534],[-1,0],[1,0]],[[1314,794],[20,4]],[[1334,798],[1,0]],[[1359,803],[3,2]],[[1368,805],[-4,-2]],[[1459,0],[3,3]],[[1531,0],[-5,2]],[[1527,2],[6,-2]],[[1580,485],[2,12]],[[1585,528],[3,10]],[[1588,538],[0,2]],[[1585,526],[0,1]],[[1585,527],[1,1]],[[1589,539],[-1,-1]],[[1588,538],[-1,-1]],[[1603,53],[7,0]],[[1610,53],[3,0],[12,0]],[[1609,51],[1,2]],[[1610,53],[1,5]],[[1644,2]],[[1644,2]],[[1647,447],[-3,0]],[[1764,373],[-2,0]],[[1897,308],[5,9]],[[1902,317],[-4,-9]],[[1902,317],[6,9]],[[1915,0],[2,4]],[[1918,5],[-3,-5]],[[1922,0],[2,5]],[[1924,5],[-1,-5]],[[1928,121],[-5,5],[3,-2],[2,-3]],[[1928,121],[59,-38]],[[1987,83],[5,-5]],[[2019,225]],[[2048,228],[-1,-2]],[[2054,273],[-1,-2]],[[2071,0],[0,1]],[[2071,1],[1,-1]],[[2155,226],[-32,0]],[[2155,226]],[[2155,226]],[[2177,226],[-22,0]],[[1273,784]],[[1274,785],[1,-1]],[[1561,0],[0,2]],[[1562,2],[-1,-2]],[[2084,222],[0,3]],[[1488,23],[2,0]],[[1949,275],[2,2]],[[1984,405],[3,4]],[[2002,523],[2,11]],[[1650,50]],[[1895,180],[-9,-4]],[[2086,197],[-2,0]],[[1783,327],[-14,46]],[[1768,373],[1,0]],[[1769,373],[-1,-1],[0,1]],[[1209,811],[11,-24]],[[1219,787],[-8,17]],[[1239,714],[-19,72]],[[1221,786],[11,-18],[8,-54]],[[1287,589],[0,3]],[[1287,592],[-1,14],[-5,12]],[[1281,618],[-2,3],[-29,50],[-11,41]],[[1240,712],[11,-41],[29,-50],[1,-3]],[[1281,618],[6,-26]],[[1287,592],[1,-3]],[[1311,363],[-24,225]],[[1288,588],[23,-225]],[[1309,11],[-13,60]],[[1296,72],[14,-61]],[[1329,327],[-18,36]],[[1311,363],[19,-36]],[[1319,266],[0,2],[0,3]],[[1319,271],[10,41]],[[1329,312],[1,2],[0,5]],[[1330,319],[0,-5],[-1,-2]],[[1329,312],[-11,-22],[1,-19]],[[1319,271],[1,-3],[-1,-2]],[[1330,320],[0,2]],[[1330,325],[0,-3]],[[1330,321],[0,-1]],[[1220,786],[-1,1],[1,0],[1,-1],[-1,0]],[[2081,288],[8,4]],[[2148,340],[-49,-43]],[[1908,180],[-3,0]],[[1782,216],[1,51]],[[1784,318],[0,-89],[-2,-14]],[[1366,524],[-80,10]],[[1286,535],[69,-8]],[[1374,526],[30,-2]],[[1404,524],[24,-1]],[[1428,522],[-24,2]],[[1404,524],[-26,2]],[[1384,767],[-4,7]],[[1381,773],[2,-4]],[[1433,0],[0,3]],[[1433,3],[0,-3]],[[1840,220],[0,12]],[[1840,238],[1,9]],[[1841,248],[0,13]],[[1841,295],[3,14]],[[1841,247],[0,1],[0,-1]],[[1308,3],[1,8]],[[1310,11],[-2,-8]],[[1330,322],[-1,5]],[[1330,319],[0,1]],[[1330,327],[0,-2]],[[1330,322],[0,-1]],[[1330,320],[0,-1]],[[1635,289],[-55,8],[-56,10],[-62,16]],[[1462,323],[186,-36],[86,7],[24,-2]],[[1724,291],[-65,-5]],[[2040,1],[9,38]],[[2049,39],[-8,-38]],[[1371,607],[-46,74],[-11,46]],[[1314,727],[11,-45],[17,-17],[30,-58],[0,-3]],[[1782,215],[-15,0]],[[1774,216],[8,0]],[[1634,534],[-1,0]],[[1606,213],[107,-110]],[[1713,103],[4,1]],[[1740,90],[-23,13]],[[1777,40],[-5,7]],[[1773,46],[5,-6]],[[1781,26],[-4,13]],[[1778,39],[3,-13]],[[1781,26],[16,-17]],[[1793,0],[4,5]],[[1797,5],[0,4]],[[1777,40],[1,0],[0,-1]],[[1778,39],[-1,0],[0,1]],[[1314,727],[19,70]],[[1335,797],[-6,-44],[-15,-26]],[[1991,1280]],[[1993,1273],[51,-99],[5,-122],[48,-110],[23,-249],[-15,-39]],[[1714,534],[164,0]],[[1893,534],[-174,0]],[[1878,534],[5,0]],[[1648,447],[-1,0]],[[1768,373],[-4,0]],[[1893,458],[1,0],[-1,0]],[[1477,158],[-3,9]],[[1476,130],[1,21]],[[1478,100],[-2,30]],[[1476,14],[12,9]],[[1477,152],[0,5]],[[1477,157],[-1,1],[1,0]],[[1477,158],[0,-1]],[[1477,151],[-1,0],[1,1]],[[1477,152],[0,-1]],[[1478,100],[0,-66]],[[1679,238],[0,-17]],[[1408,172],[0,15]],[[1431,72],[-12,2],[-15,50],[11,20]],[[1415,143],[17,-71]],[[1420,147]],[[1426,166],[-6,-19]],[[1420,147],[5,15]],[[1421,147],[-1,0]],[[1429,200],[-1,-1]],[[1432,42],[0,3]],[[1432,39],[0,3]],[[1432,71],[0,-26]],[[1433,3],[-1,36]],[[1432,39],[1,-36]],[[1449,224],[0,-1],[-8,-18],[-8,-4]],[[1433,202],[16,22]],[[2045,123],[33,66]],[[2076,184],[-31,-61]],[[1656,211],[-1,0]],[[1334,799],[38,9]],[[1343,799],[-6,-1]],[[1373,807],[-3,-1],[-13,-4],[-13,-3]],[[1894,534],[-1,0]],[[1902,534],[-8,0]],[[1902,534]],[[1902,534],[39,0]],[[1942,534],[24,0]],[[1966,534],[2,0]],[[1968,534],[-2,0]],[[1972,534],[-3,0]],[[1969,534],[-1,0]],[[1968,534],[1,1],[0,-1]],[[1969,534],[3,0]],[[1972,534],[31,0]],[[1942,534],[-1,-1],[0,1],[1,0]],[[1383,231],[0,7]],[[2047,226],[6,47]],[[2123,226],[-17,0]],[[1599,0],[1,2]],[[1612,27],[-3,2]],[[1783,327]],[[1783,326],[0,1]],[[1783,327],[0,-1]],[[2221,388],[-41,-27]],[[2058,481],[-1,-7]],[[2067,585],[38,69]],[[2068,576],[1,-21]],[[1514,122]],[[1766,215],[8,1]],[[1782,216],[58,5]],[[1840,220],[-58,-5]],[[1850,221],[8,-1]],[[1858,220],[-8,0]],[[1678,274],[-15,0]],[[176,2881],[100,50]],[[503,2380],[-96,1],[-30,-58]],[[550,2069],[83,79],[3,62]],[[803,2162],[61,62],[78,4],[164,-36],[29,-27],[265,19],[106,-67],[112,-3]],[[920,1398],[10,-15]],[[920,1399],[-53,90],[-64,49],[11,30],[110,62],[137,1]],[[930,1383],[1,1],[0,-1],[-1,0]],[[931,1383],[9,-1]],[[940,1382],[3,1]],[[943,1381],[-3,1]],[[946,1382],[2,0]],[[948,1382],[-2,-1]],[[946,1381],[-3,-1],[-1,2],[3,1],[1,-2]],[[948,1382],[27,-1]],[[978,1381],[-3,0]],[[975,1381],[3,0]],[[982,1380],[-3,1]],[[979,1381],[3,-1]],[[982,1380],[6,-1]],[[991,1378],[-3,1]],[[988,1379],[3,-1]],[[994,1377],[-3,1]],[[992,1378],[2,-1]],[[994,1377],[7,-2]],[[1005,1374],[-4,1]],[[1001,1375],[5,-1]],[[1006,1373],[-1,1]],[[1005,1374],[1,0]],[[1006,1374],[0,-1]],[[1011,1373],[-5,0]],[[1006,1374],[5,-1]],[[1011,1373],[88,-25]],[[1996,1012],[-2,25]],[[2067,585],[-2,2]],[[2066,587],[1,1]],[[2160,175],[50,1]],[[2178,226],[-1,0]],[[2178,179],[1,47]],[[2179,226],[-1,-1],[0,1]],[[2178,226],[1,0]],[[3839,982],[75,17]],[[4013,1038],[81,44]],[[919,1398],[1,1]],[[920,1399],[0,-1]],[[920,1398],[-1,0]],[[979,1381],[-1,0]],[[978,1381],[1,0]],[[979,1381]],[[992,1378],[-1,0],[1,0]],[[1644,2]],[[1964,309],[-3,19]],[[1885,261],[-11,0]],[[1929,261],[-43,0]],[[1929,261]],[[1929,260],[0,1]],[[1358,812],[-13,25]],[[1380,774],[-22,38]],[[1358,812],[23,-39]],[[1383,769],[9,-16]],[[1392,753],[-8,14]],[[1468,520],[-23,60]],[[1446,580],[23,-60]],[[1477,477],[-1,9]],[[1477,485],[1,-7]],[[1957,289],[5,9]],[[1964,302],[-2,-4]],[[1962,298],[2,9]],[[1307,1],[1,2]],[[1308,3],[0,-2]],[[1679,248],[0,-10]],[[1679,261],[0,-13]],[[1679,274],[0,-12]],[[1678,275],[1,-1],[-1,0],[0,1]],[[1679,262],[0,-1],[-1,0],[1,1]],[[1679,238],[-1,0],[1,0]],[[1679,248],[-1,0],[1,0]],[[1909,327],[-2,15]],[[1908,326],[0,1],[1,0]],[[1909,327],[0,-1],[-1,0]],[[1923,126],[-18,18]],[[1643,16],[4,14]],[[1646,25],[-2,-9]],[[1644,15],[0,-2]],[[1651,50],[-3,-7]],[[1648,43],[2,7]],[[1648,38],[0,5]],[[1648,38]],[[1649,38],[-1,0]],[[1383,238],[38,0]],[[1421,238],[-35,0]],[[2043,300],[0,8]],[[2043,308],[1,-8]],[[1727,219],[-1,0]],[[1589,539],[12,-4]],[[1600,534],[-11,4]],[[1572,421],[1,-1],[-1,0],[0,1]],[[2017,557],[40,30]],[[1337,798],[-2,-1]],[[1372,604],[-1,3]],[[1372,808],[53,24]],[[1426,832],[-53,-25]],[[1601,6],[3,6]],[[2004,534],[13,23]],[[2057,587],[11,0]],[[1361,808],[3,-3]],[[1365,802],[-3,1]],[[1369,798]],[[1643,13],[0,3]],[[1644,16],[0,-1]],[[1650,50]],[[1834,70],[0,-1]],[[1839,73],[-2,-2]],[[1837,72],[2,1]],[[1839,73],[6,5]],[[1867,95],[-22,-17]],[[1867,95],[6,6]],[[1876,103],[-3,-2]],[[1873,101],[2,2]],[[1880,106],[0,-1]],[[2002,211],[0,1]],[[2004,210],[-1,2]],[[2046,205],[-13,2]],[[2046,205]],[[2072,200],[-26,5]],[[1930,1276],[-191,609],[-119,220],[0,153],[-184,160],[-39,352],[-167,300],[-83,222],[-218,317],[-6,62],[-127,200],[-78,225]],[[1254,775],[-1,2],[2,0],[0,-2],[-1,0]],[[2145,170],[136,1]],[[2265,172],[-113,10]],[[2533,167],[-53,5],[-41,0]],[[2439,172],[-128,0]],[[2312,171],[127,1]],[[2439,172],[41,0],[54,-4]],[[2548,167],[66,3],[1,2],[9,9],[160,69],[77,-22],[58,15],[17,44]],[[2936,287],[-16,-45],[-60,-15],[-76,22],[-170,-79],[-63,-4]],[[2936,287],[24,135],[46,8],[17,51],[97,51],[55,97],[69,2],[230,158],[124,33],[209,142]],[[3807,964],[29,26]],[[3836,990],[45,81],[101,65],[114,-54]],[[2105,189],[-19,8]],[[2086,197],[15,-4]],[[1912,180],[40,16]],[[1952,196],[-3,-16],[-24,0]],[[1973,206],[-21,-10]],[[1991,210],[-18,-4]],[[1973,206],[17,4]],[[1645,448],[3,0]],[[1728,394],[2,-2]],[[1734,389],[-4,3]],[[1760,375],[-30,17]],[[1764,362],[0,-1]],[[1764,362]],[[1764,362]],[[1332,321],[-2,-1]],[[1330,321],[5,2],[84,3]],[[1400,324],[-65,-2]],[[1764,533],[5,-160]],[[1813,261],[-13,0]],[[2527,90],[-17,35]],[[2524,39],[6,21]],[[1514,2],[41,62]],[[1555,64],[-40,-62]],[[1553,142],[-3,-9]],[[1550,133],[2,10]],[[1550,133],[5,-40]],[[1555,90],[0,-26]],[[1555,90],[0,3]],[[1886,261],[-1,0],[1,0]],[[1925,215],[1,6]],[[1318,85],[21,-3]],[[1339,82],[1,0],[0,-1],[-1,0],[0,1]],[[1340,82],[19,-8]],[[1359,74],[1,0],[0,-1],[-1,0],[0,1]],[[1360,73],[27,-7]],[[1392,61],[-4,5]],[[1388,66],[5,-5]],[[1393,61],[7,0]],[[1400,61],[1,0]],[[1401,61],[-1,0]],[[1401,61],[105,3]],[[1515,64],[-9,0]],[[1515,64],[1,0]],[[1516,64],[19,-10]],[[1535,54],[45,0]],[[1627,26],[4,-2]],[[2941,891],[15,26]],[[3017,943],[14,7]],[[3032,951],[70,104],[56,17],[56,71],[74,36],[72,-1],[40,125]],[[1876,103],[47,21],[122,-1],[-167,-19]],[[2084,197],[2,0]],[[2101,193],[6,-5],[1,0]],[[2108,188],[35,-18],[2,0]],[[2152,182],[-44,6]],[[2108,188],[-1,0],[-2,1]],[[1920,202],[3,8]],[[2040,0],[0,1]],[[2041,1],[0,-1]],[[3904,1044],[-30,12]],[[944,1378],[-1,2]],[[945,1380],[-1,-2]],[[944,1377],[0,1]],[[949,1368],[-5,9]],[[1025,1268],[-76,100]],[[1027,1263],[-2,5]],[[1025,1268],[3,-4]],[[1029,1257],[-1,5]],[[1029,1262],[-1,0]],[[1028,1262],[-1,1]],[[1027,1263],[1,1]],[[1028,1264],[1,-2]],[[1029,1262],[0,-5]],[[1094,1141],[-65,116]],[[1095,1136],[-1,5]],[[1094,1141],[2,-5]],[[1097,1131],[-2,4]],[[1096,1135],[1,-4]],[[1100,1110],[-3,21]],[[1100,1099],[-2,-7]],[[1141,1007],[-43,85]],[[1098,1092],[44,-85]],[[1101,1103],[-1,-4]],[[1100,1099],[0,4]],[[1100,1104],[0,6]],[[1100,1104],[1,0],[0,-1]],[[1101,1103],[-1,0],[0,1]],[[1100,1110],[1,-6]],[[1163,941],[-21,65]],[[1143,1006],[21,-65]],[[1176,881],[-13,59]],[[1164,940],[13,-59]],[[1181,870],[-5,10]],[[1177,880],[5,-10]],[[1095,1136],[1,0],[0,-1],[-1,0],[0,1]],[[1211,804],[-30,66]],[[1182,870],[27,-59]],[[1296,71],[0,2]],[[1296,73],[0,-1]],[[1644,441],[-9,94]],[[1635,535],[10,-87],[0,-7]],[[2484,0],[23,4]],[[2492,163],[0,8]],[[2492,163],[1,-1]],[[2493,162],[-1,0],[0,1]],[[2493,159],[0,3]],[[2510,125],[-17,33]],[[2507,4],[17,35]],[[2530,60],[-3,30]],[[2493,159],[0,-1]],[[2493,158],[0,1]],[[2507,4],[-1,0],[1,1],[0,-1]],[[1650,50],[7,4]],[[1657,54],[-7,-4]],[[1697,76],[-40,-22]],[[1707,79],[-10,-3]],[[1737,89],[-30,-10]],[[1743,90],[-6,-1]],[[1761,95],[-18,-5]],[[1767,96],[-6,-1]],[[1773,97],[-6,-1]],[[1796,113],[6,6]],[[1802,119],[-6,-6]],[[1802,119],[48,47]],[[1850,166],[34,9]],[[1886,176],[-2,-1]],[[2078,189],[6,32]],[[2085,226],[-2,-29]],[[1659,286],[-24,3]],[[1758,291],[-34,0]],[[1319,267],[28,-10]],[[1347,257],[-28,10]],[[1354,253],[17,-5],[12,-10]],[[1386,238],[-8,1],[-8,8],[-14,4]],[[1421,238],[235,-27]],[[1655,211],[-20,-1],[-133,6],[-53,8],[-28,14]],[[1679,221],[13,-1]],[[1700,219],[-20,1]],[[1698,220],[28,0]],[[1726,219],[-22,0]],[[1762,214],[0,1]],[[1762,215],[0,-1]],[[1766,214],[-4,0]],[[1766,214]],[[1766,214],[0,1]],[[1920,180]],[[1920,182],[0,-1]],[[1917,4],[5,9]],[[1922,12],[-4,-7]],[[1922,14],[0,8]],[[1922,23]],[[1922,23],[0,-1]],[[1922,22]],[[1922,22],[1,-8]],[[1924,9],[-1,3]],[[1923,13],[1,-4]],[[1923,14],[2,20]],[[1933,36],[-6,-19],[-4,-4]],[[1924,5],[0,2]],[[1924,7],[0,-2]],[[1925,34],[8,2]],[[1922,22],[0,1]],[[1922,23],[0,-1]],[[1922,22]],[[1922,13],[0,1],[1,0],[0,-1]],[[1923,13],[-1,0]],[[1924,8],[0,1]],[[1924,9],[1,0],[0,-1],[-1,0]],[[1644,447],[-11,0]],[[2038,190],[2,6]],[[2040,196],[-1,-6]],[[1219,765],[12,3]],[[1231,768],[-11,-3]],[[1264,716],[1,0]],[[1274,784],[40,10]],[[1333,798],[-59,-15]],[[1302,131]],[[1302,131],[-4,0]],[[1298,131],[1,0]],[[1299,131],[3,0]],[[1302,131]],[[1302,131],[-4,-1]],[[1298,132],[1,-1]],[[1299,131]],[[1302,131],[19,1]],[[1305,42],[131,-3]],[[1314,363],[-3,-1]],[[1321,132],[0,1],[0,-1]],[[1321,132]],[[1321,132],[15,0]],[[1323,678],[0,1]],[[1323,679],[1,3]],[[1325,681],[-7,-8],[-5,-3],[-68,-2],[68,3],[4,2],[6,6]],[[1323,679],[2,2]],[[1335,798],[-1,0]],[[1404,124],[-68,8]],[[1336,132],[68,-8]],[[1382,181],[0,10]],[[1397,56],[-4,4]],[[1393,60],[39,-18]],[[1397,54],[0,2]],[[1432,42],[-35,14]],[[1408,175],[1,-3]],[[1417,167],[-2,0]],[[1415,144],[2,-1]],[[1417,143],[40,-21]],[[1457,122],[4,-2],[5,-18],[35,2]],[[1501,104],[-6,-3],[-17,-1],[-13,1],[-8,21]],[[1457,122],[-5,13],[-35,8]],[[1417,143],[-2,0]],[[1420,167],[6,23],[-4,5],[0,2]],[[1422,197],[0,1]],[[1421,198],[1,-1]],[[1422,197],[4,-6],[0,-1],[-6,-23]],[[1424,287],[-2,0]],[[1427,321],[-1,6]],[[1427,327],[0,-6]],[[1427,321],[23,-7]],[[1433,201],[-4,-1]],[[1432,42],[4,-3]],[[1432,42],[6,-3]],[[1436,39],[10,0]],[[1446,39],[78,0]],[[1454,150],[17,14]],[[1457,376],[3,28]],[[1461,404],[-4,-28]],[[1482,22],[-20,-19]],[[1469,34],[23,-1]],[[1507,190],[-5,0]],[[1502,190],[-21,-17],[-10,-9]],[[1471,164],[10,9],[21,17]],[[1477,126],[-4,7]],[[1474,132],[2,0]],[[1477,126],[-2,5]],[[1529,17],[-42,1]],[[1492,33]],[[1492,33],[0,1],[0,-1]],[[1497,30],[-5,3]],[[1500,30],[-3,0]],[[1501,303],[-1,-1]],[[1500,30],[24,4]],[[1501,104],[1,25],[0,61]],[[1502,190]],[[1502,190],[4,97]],[[1502,190],[5,0]],[[1503,17],[0,4]],[[1503,21],[0,2],[-4,7],[1,-2],[3,-7]],[[1503,129]],[[1538,190],[-31,0]],[[1517,6],[10,-4]],[[1526,2],[-9,3]],[[1520,116],[16,-13]],[[1523,235],[15,4]],[[1524,39],[13,0]],[[1524,34],[12,-2]],[[1528,56],[9,-17]],[[1533,365],[0,-1]],[[1533,364],[0,-1]],[[1533,363],[-1,-10]],[[1535,373],[-2,-7]],[[1533,366],[0,-1]],[[1533,365],[0,1]],[[1535,373]],[[1535,373],[1,0],[-1,0]],[[1537,389],[-2,-16]],[[1536,103],[4,-1]],[[1536,32],[1,0],[-1,0]],[[1543,30],[-6,2]],[[1547,35],[-10,4]],[[1537,39],[10,-4]],[[1537,32],[6,-2]],[[1539,240],[38,18]],[[1540,102],[0,-1]],[[1540,101],[33,-17]],[[1540,69],[0,-15]],[[1540,92],[0,-23]],[[1540,101]],[[1540,101],[0,-9]],[[1540,92]],[[1540,92]],[[1551,40],[0,-2]],[[1556,135],[8,22],[-7,-22]],[[1573,53],[-11,1]],[[1564,216],[0,-57]],[[1564,173],[18,0]],[[1580,278],[-16,0]],[[1571,18],[5,10]],[[1573,53],[-2,-19]],[[1581,376],[-9,44]],[[1572,421],[6,26]],[[1572,420],[7,-23],[2,-21]],[[1579,447],[-7,-26]],[[1584,53],[-11,0]],[[1582,38],[-4,-7]],[[1578,31]],[[1578,31],[0,-1],[-2,-2]],[[1576,28],[2,2],[0,1]],[[1578,31]],[[1578,31],[1,2],[2,5],[1,0]],[[1581,278],[-4,-20]],[[1577,258],[3,20]],[[1580,30],[-2,0],[0,1]],[[1578,31]],[[1578,31]],[[1578,31]],[[1578,31]],[[1578,31],[1,0],[1,-1]],[[1578,448],[0,2]],[[1579,477],[-1,3]],[[1579,477],[-1,-27]],[[1578,450],[1,-2]],[[1578,481],[2,3]],[[1579,480],[0,-3]],[[1580,484],[0,-3]],[[1580,484],[0,1]],[[1581,278],[-1,0]],[[1580,278]],[[1580,278],[1,0]],[[1580,278],[0,21],[0,54]],[[1580,353],[0,1]],[[1580,354],[1,7],[0,14]],[[1580,30],[30,-16]],[[1581,375],[0,-9],[0,-5],[0,-7]],[[1581,354],[0,-1]],[[1581,353],[0,-54],[0,-4],[0,-17]],[[1581,278]],[[1581,278],[65,-17]],[[1646,261],[-65,17]],[[1587,172],[-5,1]],[[1582,38],[4,9]],[[1582,497],[4,26]],[[1584,53],[7,0]],[[1586,523],[-1,3]],[[1586,528],[-1,-1]],[[1586,527],[0,-4]],[[1587,48],[-1,-1]],[[1586,47],[1,1]],[[1587,172],[28,0]],[[1591,53],[4,0]],[[1596,53],[7,0]],[[1600,213],[5,46]],[[1607,258],[-6,-45]],[[1604,32],[5,19]],[[1610,14],[11,-6]],[[1611,58],[5,16]],[[1614,120],[1,0]],[[1615,120],[-1,0]],[[1615,120],[27,-10]],[[1642,109],[-27,11]],[[1621,172],[-6,0]],[[1621,172],[21,3]],[[1621,8]],[[1644,107],[-2,2]],[[1642,110],[1,1]],[[1643,109],[1,-2]],[[1643,111],[0,-1]],[[1643,111],[11,37]],[[1644,2]],[[1644,2]],[[1658,93],[-14,14]],[[1663,274],[-18,0]],[[1646,346],[-50,7],[-15,0]],[[1581,353],[-1,0]],[[1580,353],[-47,10]],[[1533,363],[-46,10],[-75,-11],[-101,1],[176,11],[46,-10]],[[1533,364],[47,-10]],[[1580,354],[1,0]],[[1581,354],[15,-1],[50,-7]],[[1650,50],[4,6]],[[1654,56],[-3,-6]],[[1654,56],[11,7]],[[1654,149],[5,6]],[[1659,155],[3,3]],[[1662,158],[8,10]],[[1689,81],[-24,-18]],[[1668,67],[27,21]],[[1670,168],[1,1]],[[1671,169],[9,10]],[[1680,179],[4,5]],[[1701,261],[-22,0]],[[1679,262],[22,0]],[[1680,179]],[[1680,179],[49,-49],[11,-10]],[[1686,185],[-2,-1]],[[1686,185],[7,5],[2,1]],[[1695,191],[1,1]],[[1717,104],[-28,-23]],[[1704,196],[-11,10]],[[1695,191]],[[1695,191],[1,-2]],[[1699,187],[4,-5]],[[1703,95],[10,8]],[[1720,275],[-16,2]],[[1704,278],[16,-2]],[[1746,166],[-23,18]],[[1723,184],[-6,4]],[[1717,188]],[[1717,188]],[[1717,189],[1,7]],[[1719,196],[-1,-7]],[[1718,195],[1,1]],[[1721,178],[2,6]],[[1723,184],[1,3]],[[1746,114],[-22,-8]],[[1725,275],[0,1]],[[1726,245],[0,-7]],[[1726,219],[0,4]],[[1761,196],[-24,0]],[[1744,116],[2,1]],[[1746,117],[-2,-2]],[[1757,160],[-11,-43]],[[1755,165],[3,-1]],[[1758,164],[1,0]],[[1759,164],[19,-6],[55,-2],[2,-4]],[[1760,192],[0,-24],[-1,-4]],[[1759,164],[-2,-4]],[[1757,160],[1,4]],[[1758,164],[1,4],[1,24]],[[1760,192],[1,3]],[[1761,196],[0,-1]],[[1791,39],[-13,0]],[[1778,40],[13,-1]],[[1781,196]],[[1825,196],[7,0]],[[1833,196],[13,0]],[[1844,309],[-3,-50]],[[1869,171],[0,6]],[[2033,48],[-12,5]],[[2021,53],[12,-5]],[[2033,48],[14,-7]],[[2071,1],[-24,40]],[[2047,41],[24,-40]],[[3914,999],[3,0]],[[3918,1000],[22,16]],[[3940,1016],[-6,8]],[[3940,1016],[21,5]],[[4007,1027],[6,11]],[[1388,66],[-1,0],[1,0]],[[1393,61],[0,-1],[-1,0],[1,1]],[[1397,40],[1,15]],[[1434,848],[0,1],[1,1],[0,-1],[-1,-1]],[[1446,39]],[[1457,375],[0,1]],[[1457,376],[1,-1],[-1,0]],[[1514,449],[0,1],[1,-1],[0,-1],[-1,1]],[[1527,448],[2,0],[-1,-1],[-1,0],[0,1]],[[1540,69]],[[1540,69]],[[1540,69]],[[1578,448],[1,0],[0,-1],[-1,0],[0,1]],[[1580,480],[-2,0],[0,1],[2,0],[0,-1]],[[1582,375],[-1,0],[0,1],[1,-1]],[[1643,109],[-1,0],[0,1],[1,0],[0,-1]],[[1668,66],[0,1],[0,-1]],[[1701,262],[1,0],[0,-1],[-1,0],[0,1]],[[1717,189],[1,-1],[-1,0]],[[1717,188]],[[1717,188],[0,1]],[[1761,196]],[[1761,196]],[[1832,195],[0,1]],[[1832,196],[1,0]],[[1833,196],[-1,-1]],[[1992,78],[2,-1]],[[2021,53]],[[3918,999],[-1,0],[0,1],[1,0],[0,-1]],[[1878,534]],[[1623,9],[-66,23],[-22,14]],[[1555,35],[22,-6],[46,-20]],[[1850,220],[-10,0]],[[1840,221],[10,0]],[[1727,178],[4,6]],[[1632,448],[13,0]],[[1698,413],[-19,16]],[[1683,425],[15,-12]],[[1698,413],[30,-19]],[[1764,362],[-9,8]],[[1760,375],[4,-13]],[[1761,330],[1,10]],[[1762,340],[0,-10]],[[1764,361],[-2,-21]],[[154,3626],[0,79],[-85,150],[-69,61]],[[157,3343],[0,59]],[[201,3087],[-29,168]],[[227,3058],[-26,29]],[[1117,1242],[-28,205],[23,55],[-119,358],[-187,300],[-98,51],[-75,0],[-130,169],[-168,313],[-9,153],[-99,212]],[[1168,1157],[-51,85]],[[1230,1028],[-62,129]],[[1270,929],[-7,10],[-18,31],[-15,58]],[[1230,1028],[32,-87],[83,-104]],[[1372,605],[22,-9]],[[1394,596],[-22,8]],[[1835,152],[-89,14]],[[1618,2],[5,9]],[[1626,16],[-8,-14]],[[1622,10],[4,6]],[[1626,16]],[[1643,44],[-17,-27]],[[1646,47],[-3,-3]],[[1643,44],[1,3],[2,0]],[[1650,50]],[[1330,321]],[[2044,217],[3,8]],[[2311,172],[-46,0]],[[2281,171],[31,0]],[[2551,166],[-18,1]],[[2534,168],[14,-1]],[[1840,233],[0,5]],[[1841,233],[-1,0],[1,0]],[[1657,446],[-9,1]],[[1657,446],[-9,2]],[[1662,442],[-5,4]],[[1288,238],[31,28]],[[1288,235],[1,-13]],[[2047,226],[0,-1]],[[1439,292],[1,1]],[[1442,294],[-1,0]],[[1478,17],[-82,-3]],[[1396,15],[82,2]],[[1485,18],[-7,-1]],[[1478,17]],[[1490,23],[60,-5]],[[1534,23],[1,-1]],[[1592,2],[-42,16]],[[1550,18],[43,-16]],[[1447,872],[9,4]],[[1457,876],[160,1],[220,145],[159,-10]],[[1994,1037],[61,-1]],[[1872,0],[-64,85]],[[1809,86],[64,-86]],[[1240,714],[19,1]],[[1259,714],[-18,-1]],[[1266,716],[40,12],[27,-5],[-67,-8]],[[1396,15],[1,25]],[[1508,126],[6,-4]],[[1514,122],[6,-6]],[[1535,268],[45,10]],[[1557,244],[7,-28]],[[1633,447],[-54,0]],[[1930,1276],[51,2]],[[1991,1280],[-10,-2]],[[1981,1278],[9,3]],[[1500,302],[-29,4],[-28,10]],[[1450,314],[51,-13]],[[1344,799],[-1,0]],[[1951,277],[1,2]],[[1648,38],[-2,-13]],[[1647,30],[2,8]],[[1651,50]],[[2180,361],[-32,-21]],[[2941,891],[-26,-43],[-92,-43],[-75,-163],[-62,-21],[-39,-63],[-426,-170]],[[1296,197],[4,0]],[[1524,39]],[[1524,34]],[[1231,768],[22,8]],[[1254,775],[-23,-7]],[[1255,777],[19,7]],[[1274,783],[-19,-7]],[[1445,580],[-1,70],[-52,103]],[[1392,753],[22,-39],[30,-64],[2,-70]],[[1476,486],[-2,21]],[[1474,507],[3,-22]],[[1558,130],[-2,5],[-20,60],[-34,103],[-7,21],[-13,84],[-5,74]],[[1478,478],[17,-156],[63,-192]],[[1551,148]],[[1557,133],[-1,2]],[[1558,130],[7,-22]],[[1573,53],[0,5]],[[1764,534],[0,-1]],[[1920,181],[0,-1]],[[1756,196],[5,0]],[[1784,196],[-3,0]],[[1781,196],[3,0]],[[1784,196],[41,0]],[[1846,196],[23,0]],[[1883,534],[10,1]],[[2043,300],[39,-12],[3,-62]],[[2084,221],[-3,66],[-38,13]],[[1617,0],[1,2]],[[1618,2],[0,-2]],[[1626,17],[0,-1]],[[1646,47],[4,3]],[[1650,50],[-4,-3]],[[1589,538],[-195,58]],[[1394,596],[162,-41],[33,-16]],[[3934,1024],[102,-5]],[[1300,197],[-4,0]],[[1429,200],[4,2]],[[1579,448],[53,0]],[[1755,370],[-21,19]],[[1296,73],[-1,13]],[[1296,86],[0,-13]],[[1987,409],[3,3]],[[2000,509],[2,14]],[[1699,0],[-76,9]],[[1623,9],[76,-9]],[[2956,917],[61,26]],[[3031,950],[1,1]],[[2049,396],[1,16]],[[2050,412],[-1,-16]],[[2051,420],[3,32]],[[2054,452],[-3,-32]],[[2057,474],[11,113],[37,67]],[[1964,309],[0,-7]],[[2054,452],[3,22]],[[2057,474],[-3,-22]],[[1422,287],[17,5]],[[1441,294],[0,-1],[-5,-3],[-12,-3]],[[1440,293],[17,82]],[[1457,375],[-15,-81]],[[1460,359],[-1,0]],[[1472,512],[-4,8]],[[1469,520],[3,-8]],[[1894,510],[-1,20]],[[1907,342],[-3,20]],[[818,0],[358,368],[37,70]],[[4036,1019],[60,-45]],[[2047,225],[59,1]],[[1726,238],[0,-2]],[[1656,211],[23,10]],[[1680,220],[-24,-9]],[[1920,187],[0,1],[0,-1]],[[1930,261],[-1,-1],[0,1],[1,0]],[[1571,35],[2,6]],[[1595,53],[1,0]],[[1456,875],[-9,-3]],[[1462,876],[-5,-1]],[[1456,875],[0,1],[1,0],[0,-1]],[[1457,875],[-1,0]],[[1720,276],[5,0],[1,-14]],[[1726,245],[-6,30]],[[1800,261],[-74,0]],[[1726,196],[30,0]],[[1737,196],[-8,0]],[[2050,412],[1,8]],[[2051,420],[-1,-8]],[[1297,86],[-1,-1]],[[1296,88],[1,-2]],[[1623,28],[4,-2]],[[1487,18],[-2,0]],[[1512,0],[2,2]],[[1515,2],[-2,-2]],[[1612,34],[11,-5]],[[1330,320]],[[1781,196],[-21,-7]],[[1760,189],[10,4],[11,3]],[[1247,871],[-22,74]],[[1230,935],[19,-64]],[[1408,187],[1,10]],[[1311,360],[0,3]],[[1311,366],[1,-3]],[[1555,16],[4,12]],[[1558,23],[-3,-7]],[[1565,108],[7,-22]],[[1573,83],[-1,3]],[[1573,83],[0,-30]],[[1614,212]],[[1650,50]],[[1651,50]],[[1239,714],[2,-1],[-1,-1],[-1,1],[0,1]],[[1288,588],[-1,0],[1,1],[0,-1]],[[1761,215],[1,0],[-1,0]],[[1766,214],[0,1],[0,-1]],[[1495,452],[4,0]],[[1893,534],[1,0]],[[1894,534],[8,0]],[[2043,300],[-79,2]],[[1964,302],[79,-2]],[[1382,191],[1,40]],[[1593,11],[-2,-4]],[[1596,17],[-3,-6]],[[1609,29],[-11,-9]],[[1600,2]],[[1720,164],[1,2]],[[1721,166],[6,12]],[[1725,174],[-4,-8]],[[1721,166],[0,-1]],[[1783,319],[0,7]],[[1783,326],[1,-4]],[[1267,803],[-4,16]],[[1264,819],[3,-8]],[[1457,324],[-1,0]],[[1457,324],[2,0]],[[1589,2],[-1,-2]],[[1612,27],[14,26]],[[1636,68],[-10,-15]],[[1626,53],[4,7],[6,8]],[[1991,210],[28,15]],[[2019,225],[-28,-15]],[[2044,300],[-1,0]],[[3389,1350],[-35,22]],[[1692,220],[6,0]],[[1704,219],[-4,0]],[[1726,220],[23,-1],[13,-4]],[[1761,215],[-34,4]],[[1593,11]],[[2078,189],[4,8]],[[2040,196],[4,21]],[[2019,225],[23,0]],[[2106,226],[-87,-1]],[[1591,7],[-1,-3]],[[1709,177],[-14,14]],[[1829,66],[8,6]],[[1837,71],[-8,-5]],[[1875,103],[1,0]],[[1878,104],[-2,-1]],[[3961,1021]],[[3961,1022],[1,0]],[[3962,1022],[0,-1]],[[3962,1022],[3,12]],[[3962,1021],[-1,0]],[[3961,1021],[0,1],[1,0],[0,-1]],[[1247,0],[9,83],[-65,529],[-60,278],[-60,145],[-220,348],[-157,382],[-280,448],[-208,578],[-205,488],[-1,3],[0,814],[4096,0],[0,-4096],[-2849,0]],[[1857,73],[35,35],[64,-28],[-21,-74],[-59,-6],[-19,73]],[[2129,65],[50,21],[58,-77],[66,11],[27,35],[51,-15],[23,30],[-8,43],[78,47],[-24,-47],[9,-59],[48,32],[4,60],[25,24],[75,-21],[9,-30],[-51,-39],[-46,56],[8,-90],[-47,-46],[-110,0],[-8,40],[-40,-40],[-114,0],[-83,65]],[[2169,369],[4,19],[132,1],[0,-86],[33,0],[-8,-42],[-34,-14],[16,-79],[-107,9],[-24,53],[11,123],[-23,16]],[[1173,780],[40,15],[-6,24],[59,0],[3,-36],[67,16],[9,-93],[52,-70],[-3,-47],[70,-139],[15,31],[-20,34],[122,-30],[5,43],[48,6],[-2,-86],[126,-72],[-22,-48],[126,-5],[28,-173],[-28,-45],[-9,24],[-53,-52],[-33,18],[-34,-37],[12,-44],[-64,47],[-35,-36],[5,25],[-17,20],[-42,-22],[33,5],[-16,-24],[17,-13],[5,43],[16,-13],[-28,-43],[35,-1],[-356,1],[-2,69],[20,13],[-17,6],[-22,288],[-57,108],[13,135],[-60,158]],[[1748,0],[28,38],[-26,17],[31,-12],[38,30],[52,-73],[-123,0]],[[1975,35],[15,43],[31,8],[34,-20],[9,-49],[10,44],[56,-25],[-38,-35],[64,26],[20,-27],[-182,2],[-19,33]],[[2902,1013],[17,56],[10,-55],[34,10],[69,-74],[-78,-34],[-33,27],[-19,70]],[[1636,564],[32,0],[0,-38],[37,-19],[125,-18],[65,-152],[150,62],[174,-100],[-130,-227],[53,-72],[-895,0],[9,83],[-65,529],[-53,248],[77,18],[104,-21],[116,-90],[136,-13],[65,-190]],[[1343,842],[61,-1],[10,34],[-28,22],[55,2],[-15,-30],[44,23],[-24,-21],[32,2],[3,-36],[-29,3],[-6,-56],[24,-28],[14,40],[44,-15],[-15,-50],[22,-145],[-36,-18],[-70,15],[-45,166],[26,16],[-67,77]],[[3882,953],[48,67],[-26,24],[40,20],[27,-25],[-1,35],[-32,13],[50,26],[32,-18],[-9,-35],[-32,-10],[57,-19],[1,-38],[-52,-1],[-51,-37],[-26,24],[-26,-26]],[[2483,2039],[234,2],[0,35],[36,-2],[64,-84],[92,0],[0,-98],[90,5],[0,-61],[36,0],[26,-51],[-44,-21],[-7,32],[-78,22],[0,-77],[87,19],[49,-85],[-49,-23],[43,-92],[-43,-29],[-31,59],[-241,0],[0,-30],[-63,-11],[0,-40],[-199,0],[-2,530]],[[2520,1807],[66,12],[0,25],[-66,0],[0,-37]],[[2717,1864],[0,-103],[74,0],[0,103],[-74,0]],[[1596,1130],[229,21],[-25,-144],[-54,-21],[-19,36],[-50,0],[-19,75],[-62,33]],[[2630,2292],[84,5],[-1,163],[49,1],[-6,255],[148,39],[0,-216],[35,-96],[70,-1],[-3,-455],[-193,1],[-46,86],[-136,12],[-1,206]],[[1645,448],[0,26],[42,-1],[-1,60],[206,0],[21,-171],[-47,-1],[7,-48],[-110,18],[1,42],[-36,19],[0,28],[-83,28]],[[1735,448],[3,-27],[13,0],[-3,30],[-13,-3]],[[1746,511],[11,0],[0,13],[-11,0],[0,-13]],[[1331,756],[13,44],[38,-28],[50,-151],[-12,-27],[-89,162]],[[2203,718],[63,142],[26,12],[35,-42],[-46,-11],[-4,-103],[-74,2]],[[2155,716],[0,149],[11,-33],[81,0],[18,39],[89,49],[-88,-58],[-65,-146],[-46,0]],[[0,3493],[160,60],[-4,-209],[138,-78],[-6,-75],[-241,134],[-40,-7],[-7,175]],[[1873,614],[56,35],[19,53],[15,-20],[37,27],[45,-8],[-42,-2],[-22,-57],[-40,-7],[0,-101],[-58,0],[-10,80]],[[1889,599],[11,-26],[20,1],[2,8],[-33,17]],[[0,3910],[61,-53],[87,-146],[12,-158],[-160,-60],[0,417]]]}