{"objects":{"water":{"type":"GeometryCollection","geometries":[]},"buildings":{"type":"GeometryCollection","geometries":[]},"places":{"type":"GeometryCollection","geometries":[{"type":"Point","properties":{"name:he":"\u05de\u05d7\u05d5\u05d6 \u05e2\u05d1\u05e8 \u05d4\u05d1\u05d0\u05d9\u05e7\u05dc","name:sk":"Zabajkalsk\u00fd kraj","name:ja":"\u30b6\u30d0\u30a4\u30ab\u30ea\u30a8\u5730\u65b9","name:lt":"U\u017ebaikal\u0117s kra\u0161tas","name:ar":"\u0632\u0627\u0628\u0627\u064a\u0643\u0627\u0644\u0633\u0643\u064a \u0643\u0631\u0627\u064a","kind":"region","min_zoom":4.0,"name:uk":"\u0417\u0430\u0431\u0430\u0439\u043a\u0430\u043b\u044c\u0441\u044c\u043a\u0438\u0439 \u043a\u0440\u0430\u0439","name:be":"\u0417\u0430\u0431\u0430\u0439\u043a\u0430\u043b\u044c\u0441\u043a\u0456 \u043a\u0440\u0430\u0439","name:pl":"Kraj Zabajkalski","name:hu":"Bajk\u00e1lont\u00fali hat\u00e1rter\u00fclet","name:hr":"Zabajkalski kraj","id":503087444,"name:eo":"Transbajkalo Regiono","name:en":"Zabaykalsky Krai","name":"\u0417\u0430\u0431\u0430\u0439\u043a\u0430\u043b\u044c\u0441\u043a\u0438\u0439 \u043a\u0440\u0430\u0439","kind_detail":"state","name:de":"Region Transbaikalien","source":"openstreetmap.org","name:fr":"Kra\u00ef de Transba\u00efkalie","name:es":"Krai de Zabaikalie"},"coordinates":[1875,2986]},{"type":"Point","properties":{"source":"naturalearthdata.com","kind":"locality","name":"Nerchinsk","population":15360,"min_zoom":7.0,"id":3064},"coordinates":[3600,1852]},{"type":"Point","properties":{"kind":"locality","name:en":"Nerchinsk","name":"\u041d\u0435\u0440\u0447\u0438\u043d\u0441\u043a","name:lt":"Ner\u010dinskas","kind_detail":"town","name:de":"Nertschinsk","source":"openstreetmap.org","min_zoom":8.0,"int_name":"Nerchinsk","population":14912,"name:zh":"\u6d85\u5c14\u7434\u65af\u514b\uff08\u5c3c\u5e03\u695a\uff09","id":278298564,"name:ja":"\u30cd\u30eb\u30c1\u30f3\u30b9\u30af"},"coordinates":[3716,1700]},{"type":"Point","properties":{"kind":"locality","name:en":"Shilka","name":"\u0428\u0438\u043b\u043a\u0430","kind_detail":"town","source":"openstreetmap.org","min_zoom":8.0,"int_name":"Shilka","population":12784,"name:zh":"\u77f3\u52d2\u5580","id":243634984,"name:ja":"\u30b7\u30eb\u30ab"},"coordinates":[2078,1107]},{"type":"Point","properties":{"kind":"locality","name:en":"Pervomaysky","name":"\u041f\u0435\u0440\u0432\u043e\u043c\u0430\u0439\u0441\u043a\u0438\u0439","kind_detail":"town","source":"openstreetmap.org","min_zoom":8.0,"population":11334,"id":1256639015,"name:ja":"\u30d4\u30a7\u30eb\u30f4\u30a9\u30de\u30a4\u30b9\u30ad\u30fc"},"coordinates":[949,243]},{"type":"Point","properties":{"kind":"locality","name:en":"Vershino-Darasunsky","name":"\u0412\u0435\u0440\u0448\u0438\u043d\u043e-\u0414\u0430\u0440\u0430\u0441\u0443\u043d\u0441\u043a\u0438\u0439","kind_detail":"town","name:de":"Werschino-Darassunski","source":"openstreetmap.org","min_zoom":8.0,"int_name":"Vershino-Darasunskiy","population":5478,"id":295072813,"name:ja":"\u30f4\u30a7\u30eb\u30b7\u30ce=\u30c0\u30e9\u30b9\u30f3\u30b9\u30ad\u30fc"},"coordinates":[695,3543]}]},"transit":{"type":"GeometryCollection","geometries":[{"type":"LineString","properties":{"kind":"train","name:en":"Blagoveshchensk \u2014 Chita","network":"\u0420\u0416\u0414","sort_rank":275,"name:de":"Blagoweschtschensk \u2014 Tschita","source":"openstreetmap.org","min_zoom":6.0,"operator":"\u0424\u041f\u041a","ref":"\u0411\u043b\u0430\u0433\u043e\u0432\u0435\u0449\u0435\u043d\u0441\u043a \u2014 \u0427\u0438\u0442\u0430","osm_relation":true,"name":"\u0411\u043b\u0430\u0433\u043e\u0432\u0435\u0449\u0435\u043d\u0441\u043a \u2014 \u0427\u0438\u0442\u0430"},"arcs":[0]},{"type":"LineString","properties":{"kind":"train","name:en":"Chita \u2014 Blagoveshchensk","network":"\u0420\u0416\u0414","sort_rank":275,"name:de":"Tschita \u2014 Blagoweschtschensk","source":"openstreetmap.org","min_zoom":6.0,"operator":"\u0424\u041f\u041a","osm_relation":true,"name":"\u0427\u0438\u0442\u0430 \u2014 \u0411\u043b\u0430\u0433\u043e\u0432\u0435\u0449\u0435\u043d\u0441\u043a"},"arcs":[1]},{"type":"LineString","properties":{"kind":"train","name":"Pyongyang \u2014 Moscow","sort_rank":275,"name:de":"Pj\u00f6ngjang \u2014 Moskau","source":"openstreetmap.org","min_zoom":6.0,"name:ko":"\ud3c9\uc591\u2013\ubaa8\uc2a4\ucf54\ubc14","name:ru":"\u041f\u0445\u0435\u043d\u044c\u044f\u043d \u2014 \u041c\u043e\u0441\u043a\u0432\u0430","ref":"002 Pyongyang - Moscow","osm_relation":true},"arcs":[2]}]},"pois":{"type":"GeometryCollection","geometries":[]},"boundaries":{"type":"GeometryCollection","geometries":[]},"roads":{"type":"GeometryCollection","geometries":[{"type":"LineString","properties":{"kind":"major_road","name:en":"Amur","network":"ru:national","sort_rank":381,"kind_detail":"trunk","source":"openstreetmap.org","min_zoom":8.0,"shield_text":"297","ref":"\u0420-297"},"arcs":[3]}]},"earth":{"type":"GeometryCollection","geometries":[{"type":"Polygon","properties":{"sort_rank":10,"source":"naturalearthdata.com","min_zoom":0.0,"kind":"earth","area":98022885885},"arcs":[[4]]}]},"landuse":{"type":"GeometryCollection","geometries":[]}},"type":"Topology","transform":{"translate":[115.3125,51.6180165488],"scale":[0.0003433228,0.0002111239]},"arcs":[[[4096,1529],[-110,-70],[-133,-22],[-341,-124],[-120,-129],[-166,-75],[-224,12],[-73,125],[-171,84],[-139,3],[-271,-83],[-272,-126],[-401,-267],[-87,-178],[8,-125],[-61,-131],[-62,38],[-59,-5],[-27,49],[-124,43],[-35,39],[-73,11],[-277,127],[-151,-29],[-233,11],[-52,24],[-105,-36],[-43,53],[-151,52],[-49,52],[-62,22],[-32,-16]],[[0,858],[32,16],[62,-22],[49,-52],[151,-52],[43,-53],[105,35],[54,-23],[231,-11],[151,29],[277,-128],[73,-10],[35,-39],[124,-44],[27,-48],[59,5],[62,-38],[61,131],[1,153],[78,150],[401,266],[272,127],[271,83],[139,-3],[171,-84],[73,-126],[224,-11],[167,75],[119,129],[339,122],[135,24],[110,69]],[[4096,1529],[-110,-70],[-133,-22],[-341,-124],[-120,-129],[-166,-75],[-224,12],[-73,125],[-171,84],[-139,3],[-271,-83],[-272,-126],[-401,-267],[-87,-178],[8,-125],[-61,-131],[-62,38],[-59,-5],[-27,49],[-124,43],[-35,39],[-73,11],[-277,127],[-151,-29],[-233,11],[-52,24],[-105,-36],[-43,53],[-151,52],[-49,52],[-62,22],[-32,-16]],[[4096,3574],[-134,-68],[-152,-33],[-275,-205],[-139,-123],[-179,-252],[-206,-173],[-387,-69],[-174,-198],[-102,-67],[-97,-15],[-237,-150],[-42,-164],[-159,-36],[-131,-109],[-32,-68],[-123,-27],[-19,-71],[-32,-13],[-97,32],[-136,-54],[-126,-8],[-153,36],[-67,71],[-82,-18],[-82,29],[-178,0],[-118,-45],[-81,2],[-46,32],[-105,3],[-205,137]],[[0,0],[0,4096],[4096,0],[0,-4096],[-4096,0]]]}