{"objects":{"water":{"type":"GeometryCollection","geometries":[{"type":"MultiPolygon","properties":{"source":"naturalearthdata.com","kind":"ocean","area":1576712559132672,"sort_rank":200,"min_zoom":0.0,"id":1},"arcs":[[[4]]]},{"type":"MultiLineString","properties":{"source":"naturalearthdata.com","kind":"ocean","sort_rank":205,"boundary":true,"min_zoom":0.0,"id":41},"arcs":[[5],[6]]}]},"buildings":{"type":"GeometryCollection","geometries":[]},"places":{"type":"GeometryCollection","geometries":[]},"transit":{"type":"GeometryCollection","geometries":[]},"pois":{"type":"GeometryCollection","geometries":[{"type":"Point","properties":{"source":"openstreetmap.org","kind":"military","name":"Cape Wrath Firing Range","area":218576000,"tier":3,"min_zoom":8.0,"id":145343624},"coordinates":[2062,2859]}]},"boundaries":{"type":"GeometryCollection","geometries":[{"type":"MultiLineString","properties":{"name:kg":"Royaume-Uni","name:ty":"Parat\u0101ne","name:ka":"\u10d2\u10d0\u10d4\u10e0\u10d7\u10d8\u10d0\u10dc\u10d4\u10d1\u10e3\u10da\u10d8 \u10e1\u10d0\u10db\u10d4\u10e4\u10dd","name:ko":"\uc601\uad6d","name:cv":"\u0410\u0441\u043b\u0103 \u0411\u0440\u0438\u0442\u0430\u043d\u0438","name:cu":"\u0412\u0454\u043b\u0438\u043a\u0430 \u0411\u0440\u0438\u0442\u0430\u043d\u0457\ua657","name:kl":"Tuluit Nunaat","name:cs":"Spojen\u00e9 kr\u00e1lovstv\u00ed","name:tt":"\u0411\u04e9\u0435\u043a\u0431\u0440\u0438\u0442\u0430\u043d\u0438\u044f","name:co":"Regnu Unitu","name:kv":"\u042b\u0434\u0436\u044b\u0434 \u0411\u0440\u0438\u0442\u0430\u043d\u0438\u044f","name:ku":"Keyaniya Yekb\u00fby\u00ee","name:tl":"Nagkakaisang Kaharian","name:ce":"\u0419\u043e\u043a\u043a\u0445\u0430 \u0411\u0440\u0438\u0442\u0430\u043d\u0438","name:ta":"\u0b90\u0b95\u0bcd\u0b95\u0bbf\u0baf \u0b87\u0bb0\u0bbe\u0b9a\u0bcd\u0b9a\u0bbf\u0baf\u0bae\u0bcd","name:tg":"\u041f\u043e\u0434\u0448\u043e\u04b3\u0438\u0438 \u041c\u0443\u0442\u0442\u0430\u04b3\u0438\u0434\u0430","name:ca":"Regne Unit","name:te":"\u0c2f\u0c41\u0c28\u0c48\u0c1f\u0c46\u0c21\u0c4d \u0c15\u0c3f\u0c02\u0c17\u0c4d\u200c\u0c21\u0c2e\u0c4d","name:cy":"Deyrnas Unedig","name:qu":"Hukllachasqa Qhapaq Suyu","name:da":"Storbritannien","name:de":"Vereinigtes K\u00f6nigreich","name:dz":"\u0f61\u0f74\u0f0b\u0f53\u0f60\u0f72\u0f0b\u0f4a\u0f7a\u0f4a\u0f0b\u0f40\u0f72\u0f44\u0f0b\u0f4c\u0f58","source":"openstreetmap.org","name:kn":"\u0caf\u0cc1\u0ca8\u0cc8\u0c9f\u0cc6\u0ca1\u0ccd \u0c95\u0cbf\u0c82\u0c97\u0ccd\u200c\u0ca1\u0c82","name:dv":"\u0794\u07aa\u0782\u07a6\u0787\u07a8\u0793\u07ac\u0791\u07b0 \u0786\u07a8\u0782\u07b0\u078e\u07b0\u0791\u07a6\u0789\u07b0","name:km":"\u179a\u17b6\u1787\u17b6\u178e\u17b6\u1785\u1780\u17d2\u179a\u179a\u17bd\u1798","name:lv":"Apvienot\u0101 Karaliste","name:lt":"Jungtin\u0117 Karalyst\u0117","name:uz":"Birlashgan Qirollik","name:kk":"\u04b0\u043b\u044b\u0431\u0440\u0438\u0442\u0430\u043d\u0438\u044f","name:ur":"\u0628\u0631\u0637\u0627\u0646\u06cc\u06c1","name:lb":"Groussbritannien an Nordirland","name:la":"Britanniarum Regnum","name:uk":"\u0412\u0435\u043b\u0438\u043a\u0430 \u0411\u0440\u0438\u0442\u0430\u043d\u0456\u044f","name:ug":"\u0628\u06c8\u064a\u06c8\u0643 \u0628\u06d0\u0631\u0649\u062a\u0627\u0646\u0649\u064a\u06d5","name:li":"Vereineg Keuninkriek","name:ln":"Ing\u025bl\u025b\u0301t\u025bl\u025b","name:el":"\u0397\u03bd\u03c9\u03bc\u03ad\u03bd\u03bf \u0392\u03b1\u03c3\u03af\u03bb\u03b5\u03b9\u03bf","name:eo":"Britujo","name":"United Kingdom","name:th":"\u0e2a\u0e2b\u0e23\u0e32\u0e0a\u0e2d\u0e32\u0e13\u0e32\u0e08\u0e31\u0e01\u0e23","name:eu":"Erresuma Batua","name:et":"Suurbritannia","name:es":"Reino Unido","name:ia":"Regno Unite","name:rm":"Reginavel Un\u00ec","name:az":"B\u00f6y\u00fck Britaniya","name:ie":"Reyatu Unit","name:id":"Britania Raya","name:ig":"Obodo\u00e9z\u00e8 N\u00e0 Of\u00fa","name:ar":"\u0627\u0644\u0645\u0645\u0644\u0643\u0629 \u0627\u0644\u0645\u062a\u062d\u062f\u0629","name:io":"Unionita Rejio","name:is":"Bretland","name:am":"\u12e9\u1293\u12ed\u1275\u12f5 \u12aa\u1295\u130d\u12f0\u121d","name:it":"Regno Unito","name:an":"Reino Unito","name:ru":"\u0412\u0435\u043b\u0438\u043a\u043e\u0431\u0440\u0438\u0442\u0430\u043d\u0438\u044f","name:ab":"\u0411\u0440\u0438\u0442\u0430\u043d\u0438\u0430 \u0414\u0443","name:af":"Verenigde Koninkryk","name:zu":"Umbuso Ohlangeneyo","kind_detail":"2","name:za":"Yinghgoz","name:zh-yue":"\u82f1\u570b","name:zh":"\u82f1\u570b","name:so":"Midowga boqortooyada Britan","name:sl":"Zdru\u017eeno kraljestvo Velike Britanije in Severne Irske","name:sk":"Spojen\u00e9 kr\u00e1\u013eovstvo","name:ja":"\u30a4\u30ae\u30ea\u30b9","name:si":"\u0d91\u0d9a\u0dca\u0dc3\u0dad\u0dca \u0dbb\u0dcf\u0da2\u0db0\u0dcf\u0db1\u0dd2\u0dba","name:sh":"Ujedinjeno Kraljevstvo","name:se":"Ovttastuvvan gonagasriika","name:sc":"Rennu Auniadu","name:sa":"\u0938\u0902\u092f\u0941\u0915\u094d\u0924 \u0905\u0927\u093f\u0930\u093e\u091c\u094d\u092f","name:bs":"Ujedinjeno Kraljevstvo Velike Britanije i Sjeverne Irske","name:bn":"\u09af\u09c1\u0995\u09cd\u09a4\u09b0\u09be\u099c\u09cd\u09af","name:bo":"\u0f51\u0f56\u0fb1\u0f72\u0f53\u0f0b\u0f47\u0f72\u0f0b\u0f58\u0f49\u0f58\u0f0b\u0f60\u0f56\u0fb2\u0f7a\u0f63\u0f0d","name:br":"Rouantelezh-Unanet","name:sw":"Ufalme wa Muungano","name:be":"\u0412\u044f\u043b\u0456\u043a\u0430\u0431\u0440\u044b\u0442\u0430\u043d\u0456\u044f","name:su":"Britania","name:bg":"\u041e\u0431\u0435\u0434\u0438\u043d\u0435\u043d\u043e \u043a\u0440\u0430\u043b\u0441\u0442\u0432\u043e \u0412\u0435\u043b\u0438\u043a\u043e\u0431\u0440\u0438\u0442\u0430\u043d\u0438\u044f \u0438 \u0421\u0435\u0432\u0435\u0440\u043d\u0430 \u0418\u0440\u043b\u0430\u043d\u0434\u0438\u044f","name:ba":"\u0411\u04e9\u0439\u04e9\u043a \u0411\u0440\u0438\u0442\u0430\u043d\u0438\u044f","name:sq":"Mbret\u00ebria e Bashkuar e Britanis\u00eb dhe Irland\u00ebs s\u00eb Veriut","name:jv":"Britania Raya","name:bi":"Unaeted Kingdom","name:pt":"Reino Unido","name:ps":"\u0628\u0631\u064a\u062a\u0627\u0646\u064a\u0627","name:oc":"Reialme Unit","min_zoom":8.0,"name:ro":"Regatul Unit al Marii Britanii \u0219i al Irlandei de Nord","name:zh-min-nan":"Li\u00e2n-ha\u030dp \u00d4ng-kok","name:os":"\u0421\u0442\u044b\u0440 \u0411\u0440\u0438\u0442\u0430\u043d\u0438","name:or":"\u0b2f\u0b41\u0b15\u0b4d\u0b24\u0b30\u0b3e\u0b1c\u0b4d\u0b5f","name:pl":"Wielka Brytania","sort_rank":262,"name:sr":"\u0423\u0458\u0435\u0434\u0438\u045a\u0435\u043d\u043e \u041a\u0440\u0430\u0459\u0435\u0432\u0441\u0442\u0432\u043e","osm_relation":true,"name:pa":"\u0a38\u0a70\u0a2f\u0a41\u0a15\u0a24 \u0a2c\u0a3e\u0a26\u0a38\u0a3c\u0a3e\u0a39\u0a40","name:tr":"Birle\u015fik Krall\u0131k","name:hi":"\u092f\u0942\u0928\u093e\u0907\u091f\u0947\u0921 \u0915\u093f\u0902\u0917\u0921\u092e","name:sv":"Storbritannien","name:he":"\u05d4\u05de\u05de\u05dc\u05db\u05d4 \u05d4\u05de\u05d0\u05d5\u05d7\u05d3\u05ea","name:ha":"Birtaniya","name:hy":"\u0544\u056b\u0561\u0581\u0575\u0561\u056c \u0539\u0561\u0563\u0561\u057e\u0578\u0580\u0578\u0582\u0569\u0575\u0578\u0582\u0576","name:ht":"Way\u00f2m Ini","name:hu":"Egyes\u00fclt Kir\u00e1lys\u00e1g","name:hr":"Ujedinjeno Kraljevstvo","kind":"country","name:yi":"\u05e4\u05d0\u05e8\u05d0\u05d9\u05d9\u05e0\u05d9\u05d2\u05d8\u05e2 \u05e7\u05e2\u05e0\u05d9\u05d2\u05e8\u05d9\u05d9\u05da","name:yo":"Il\u1eb9\u0300\u1ecdba A\u1e63\u1ecd\u0300kan","name:mt":"Renju Unit","alt_name:eo":"Britio","name:mr":"\u092f\u0941\u0928\u093e\u092f\u091f\u0947\u0921 \u0915\u093f\u0902\u0917\u094d\u0921\u092e","name:my":"\u101a\u1030\u1014\u102d\u102f\u1000\u103a\u1010\u1000\u103a\u1000\u1004\u103a\u1038\u1012\u1019\u103a\u1038\u1014\u102d\u102f\u1004\u103a\u1004\u1036","name:kw":"Ruwvaneth Unys","name:mg":"Fanjakana Mitambatra","name:vi":"V\u01b0\u01a1ng qu\u1ed1c Anh","name:ml":"\u0d2f\u0d41\u0d23\u0d48\u0d31\u0d4d\u0d31\u0d21\u0d4d \u0d15\u0d3f\u0d19\u0d4d\u0d21\u0d02","name:mn":"\u0418\u0445 \u0411\u0440\u0438\u0442\u0430\u043d\u0438","name:mi":"K\u012bngitanga Kotahi","id":-62149,"name:mk":"\u041e\u0431\u0435\u0434\u0438\u043d\u0435\u0442\u043e \u041a\u0440\u0430\u043b\u0441\u0442\u0432\u043e","name:vo":"Reg\u00e4n Pebal\u00f6l","name:fa":"\u0628\u0631\u06cc\u062a\u0627\u0646\u06cc\u0627","name:rw":"Ubwongereza","short_name":"UK","name:fi":"Yhdistynyt kuningaskunta","name:ky":"\u0423\u043b\u0443\u0443 \u0411\u0440\u0438\u0442\u0430\u043d\u0438\u044f \u0436\u0430\u043d\u0430 \u0422\u04af\u043d\u0434\u04af\u043a \u0418\u0440\u043b\u0430\u043d\u0434\u0438\u044f","name:fo":"St\u00f3ra Bretland","name:fr":"Royaume-Uni","name:fy":"Feriene Keninkryk","name:nl":"Verenigd Koninkrijk","name:nn":"Storbritannia","name:no":"Storbritannia","name:na":"Ingerand","name:ne":"\u0938\u0902\u092f\u0941\u0915\u094d\u0924 \u0905\u0927\u093f\u0930\u093e\u091c\u094d\u092f","name:wo":"Nguur-Yu-Bennoo","name:nv":"T\u00f3ta\u02bc Din\u00e9\u02bci\u02bc Bik\u00e9yah","name:ga":"An R\u00edocht Aontaithe","name:gd":"An R\u00ecoghachd Aonaichte","name:gn":"Tavet\u00e3 Joaju","name:gl":"Reino Unido","maritime_boundary":true,"name:gv":"Reeriaght Unnaneysit","name:gu":"\u0aaf\u0ac1\u0aa8\u0abe\u0a87\u0a9f\u0ac7\u0aa1 \u0a95\u0abf\u0a82\u0a97\u0aa1\u0aae"},"arcs":[[0],[1]]},{"type":"MultiLineString","properties":{"name:ia":"Scotia","name:pt":"Esc\u00f3cia","name:cy":"Yr Alban","name:ar":"\u0625\u0633\u0643\u062a\u0644\u0646\u062f\u0627","alt_name:eo":"Skotio;Skotujo","name:io":"Skotia","min_zoom":8.0,"name:it":"Scozia","name:sv":"Skottland","name:ru":"\u0428\u043e\u0442\u043b\u0430\u043d\u0434\u0438\u044f","name:pl":"Szkocja","name:mi":"Koterana","id":-58446,"name:ca":"Esc\u00f2cia","name:vo":"Skot\u00e4n","alt_name:vi":"T\u00f4 C\u00e1ch Lan;Xc\u1ed1t-lan","sort_rank":256,"name:fi":"Skotlanti","name:de":"Schottland","source":"openstreetmap.org","name:fr":"\u00c9cosse","name:fy":"Skotl\u00e2n","name:nl":"Schotland","name:lt":"\u0160kotija","name:eo":"Skotlando","name:br":"Bro-Skos","name:la":"Scotia","name:sk":"\u0160k\u00f3tsko","name:be":"\u0428\u0430\u0442\u043b\u0430\u043d\u0434\u044b\u044f","name:hu":"Sk\u00f3cia","name:hr":"\u0160kotska","osm_relation":true,"kind":"region","name":"Scotland","name:gd":"Alba","maritime_boundary":true,"name:gv":"Nalbin","kind_detail":"4","name:eu":"Eskozia","name:es":"Escocia"},"arcs":[[2],[3]]}]},"roads":{"type":"GeometryCollection","geometries":[{"type":"LineString","properties":{"source":"openstreetmap.org","kind":"major_road","sort_rank":380,"kind_detail":"primary","ref":"A837","min_zoom":8.0},"arcs":[7]},{"type":"LineString","properties":{"sort_rank":355,"source":"openstreetmap.org","kind":"ferry","min_zoom":8.0,"id":38810624},"arcs":[8]},{"type":"LineString","properties":{"kind":"major_road","network":"Scottish National Tourist Routes","sort_rank":380,"kind_detail":"primary","source":"openstreetmap.org","min_zoom":8.0,"shield_text":null,"ref":"A894"},"arcs":[9]},{"type":"MultiLineString","properties":{"kind":"major_road","network":"Scottish National Tourist Routes","sort_rank":380,"kind_detail":"primary","is_bicycle_related":true,"bicycle_shield_text":"EV12","bicycle_network":"icn","source":"openstreetmap.org","min_zoom":8.0,"shield_text":null,"ref":"A836"},"arcs":[[10],[11]]},{"type":"LineString","properties":{"kind":"major_road","network":"Scottish National Tourist Routes","sort_rank":380,"kind_detail":"primary","source":"openstreetmap.org","min_zoom":8.0,"shield_text":null,"ref":"A838"},"arcs":[12]},{"type":"LineString","properties":{"kind":"major_road","network":"Scottish National Tourist Routes","sort_rank":380,"kind_detail":"primary","source":"openstreetmap.org","min_zoom":8.0,"shield_text":null,"ref":"A837"},"arcs":[13]},{"type":"LineString","properties":{"source":"openstreetmap.org","kind":"major_road","sort_rank":380,"kind_detail":"primary","ref":"A838","min_zoom":8.0},"arcs":[14]},{"type":"LineString","properties":{"source":"openstreetmap.org","kind":"ferry","name":"Cape Wrath ferry","sort_rank":355,"is_bicycle_related":true,"min_zoom":8.0,"id":500786917},"arcs":[15]},{"type":"LineString","properties":{"kind":"major_road","sort_rank":380,"kind_detail":"primary","is_bicycle_related":true,"bicycle_shield_text":"EV12","bicycle_network":"icn","source":"openstreetmap.org","min_zoom":8.0,"ref":"A836"},"arcs":[16]}]},"earth":{"type":"GeometryCollection","geometries":[{"type":"MultiPolygon","properties":{"sort_rank":10,"source":"naturalearthdata.com","min_zoom":0.0,"kind":"earth","area":58875888657},"arcs":[[[17]],[[18]]]}]},"landuse":{"type":"GeometryCollection","geometries":[{"type":"MultiPolygon","properties":{"source":"openstreetmap.org","kind":"military","tier":3,"area":237448346,"sort_rank":45,"min_zoom":8.0},"arcs":[[[19]]]},{"type":"MultiPolygon","properties":{"kind":"nature_reserve","protect_class":"98","area":2155379968,"sort_rank":23,"source":"openstreetmap.org","min_zoom":4.0,"tier":2,"id":-6072461,"osm_relation":true},"arcs":[[[20],[21]]]}]}},"type":"Topology","transform":{"translate":[-5.625,58.0778762679],"scale":[0.0003433228,0.0001796547]},"arcs":[[[1264,4096],[-1264,-207]],[[4096,3867],[-122,-76],[-310,28],[-307,78],[-329,17],[-199,83],[-403,99]],[[1264,4096],[-1264,-207]],[[4096,3867],[-122,-76],[-310,28],[-307,78],[-329,17],[-199,83],[-403,99]],[[4096,4096],[0,-1456],[-7,-1],[-19,-21],[-13,-32],[-18,-34],[-31,-24],[41,-41],[-65,18],[-87,84],[-58,19],[-29,-4],[-78,-38],[-113,-79],[-8,-13],[-118,-129],[-13,-7],[-12,-9],[1,-22],[4,-26],[-4,-22],[-79,-118],[-49,-50],[-51,-22],[52,121],[37,115],[44,101],[68,81],[-7,56],[3,3],[4,20],[0,42],[-143,107],[-122,55],[-126,24],[-71,-32],[-29,-78],[-18,-101],[-32,-96],[-53,-54],[-59,-28],[-47,-39],[-19,-87],[-28,-15],[-173,-195],[-54,-9],[27,76],[56,105],[52,140],[103,102],[34,45],[12,35],[12,51],[-2,47],[-31,19],[-37,12],[-82,64],[-48,25],[-90,120],[-52,45],[15,-93],[-16,-40],[-26,-34],[-12,-82],[0,-59],[-5,-57],[-23,-51],[-54,-43],[19,41],[13,42],[8,49],[2,61],[-9,-5],[-17,75],[-15,87],[-1,30],[-52,67],[-68,46],[-375,84],[-49,-59],[-19,-96],[-11,-114],[-22,-115],[19,0],[-34,-85],[-43,-48],[-155,-92],[-23,-26],[-5,-48],[0,-102],[320,-283],[-87,63],[-72,33],[-161,-96],[28,-28],[12,-9],[20,-4],[0,-38],[-9,-2],[-29,2],[0,-42],[33,-5],[31,4],[29,14],[26,29],[20,-42],[-9,-45],[27,-36],[81,-67],[-121,-5],[-170,119],[-18,5],[-38,24],[-22,5],[-11,-13],[0,-32],[4,-37],[-3,-28],[-28,-58],[-20,-56],[-1,-55],[29,-59],[-58,0],[6,-41],[10,-41],[22,-71],[11,-11],[55,-85],[4,-21],[30,-30],[86,-130],[43,-30],[31,-12],[60,-52],[30,-12],[31,11],[33,50],[24,15],[57,0],[185,-38],[-40,-28],[-83,-15],[-38,-33],[79,-62],[33,-34],[29,-59],[-201,155],[-44,13],[-146,-13],[-39,18],[-89,79],[-51,17],[-26,-10],[-41,-26],[-39,-37],[-22,-41],[-62,51],[-63,8],[-62,-21],[-115,-80],[-49,-14],[-50,14],[-122,87],[-67,29],[-48,-16],[-2,-92],[134,-211],[29,-20],[38,-1],[-7,-26],[-9,-65],[-6,-26],[28,-10],[26,-17],[24,-22],[21,-27],[-21,-35],[40,-32],[46,-10],[96,4],[0,-41],[-39,-23],[-83,-21],[-39,-29],[60,-41],[0,-38],[-40,0],[21,-40],[13,-45],[3,-51],[-15,-54],[18,0],[-36,-48],[-256,0],[-38,80],[-110,32],[-56,-76],[20,-36],[-538,0],[0,4096],[4096,0]],[[538,0],[-20,36],[56,76],[110,-32],[38,-80]],[[978,0],[36,48],[-18,0],[15,54],[-3,51],[-13,45],[-21,40],[40,0],[0,38],[-60,41],[39,29],[83,21],[39,23],[0,41],[-96,-4],[-46,10],[-40,32],[21,35],[-21,27],[-24,22],[-26,17],[-28,10],[6,26],[9,65],[7,26],[-38,1],[-29,20],[-134,211],[2,92],[48,16],[67,-29],[122,-87],[50,-14],[49,14],[115,80],[62,21],[63,-8],[62,-51],[22,41],[39,37],[41,26],[26,10],[51,-17],[89,-79],[39,-18],[146,13],[44,-13],[201,-155],[-29,59],[-33,34],[-79,62],[38,33],[83,15],[40,28],[-185,38],[-57,0],[-24,-15],[-33,-50],[-31,-11],[-30,12],[-60,52],[-31,12],[-43,30],[-86,130],[-30,30],[-4,21],[-55,85],[-11,11],[-22,71],[-10,41],[-6,41],[58,0],[-29,59],[1,55],[20,56],[28,58],[3,28],[-4,37],[0,32],[11,13],[22,-5],[38,-24],[18,-5],[170,-119],[121,5],[-81,67],[-27,36],[9,45],[-20,42],[-26,-29],[-29,-14],[-31,-4],[-33,5],[0,42],[29,-2],[9,2],[0,38],[-20,4],[-12,9],[-28,28],[161,96],[72,-33],[87,-63],[-320,283],[0,102],[5,48],[23,26],[155,92],[43,48],[34,85],[-19,0],[22,115],[11,114],[19,96],[49,59],[375,-84],[68,-46],[52,-67],[1,-30],[15,-87],[17,-75],[9,5],[-2,-61],[-8,-49],[-13,-42],[-19,-41],[54,43],[23,51],[5,57],[0,59],[12,82],[26,34],[16,40],[-15,93],[52,-45],[90,-120],[48,-25],[82,-64],[37,-12],[31,-19],[2,-47],[-12,-51],[-12,-35],[-34,-45],[-103,-102],[-52,-140],[-56,-105],[-27,-76],[54,9],[173,195],[28,15],[19,87],[47,39],[59,28],[53,54],[32,96],[18,101],[29,78],[71,32],[126,-24],[122,-55],[143,-107],[0,-42],[-4,-20],[-3,-3],[7,-56],[-68,-81],[-44,-101],[-37,-115],[-52,-121],[51,22],[49,50],[79,118],[4,22],[-4,26],[-1,22],[12,9],[13,7],[118,129],[8,13],[113,79],[78,38],[29,4],[58,-19],[87,-84],[65,-18],[-41,41],[31,24],[18,34],[13,32],[19,21],[7,1]],[[1115,387],[29,68],[220,100],[86,-8],[71,85],[291,-103]],[[1403,1734],[-78,-66]],[[1812,529],[-34,95],[50,163],[-46,93],[24,62],[-99,75],[-122,157],[-97,56],[-63,209],[-69,50],[13,34],[107,-13],[151,168],[82,-42],[61,12]],[[4096,2489],[-19,-11],[19,-45]],[[4096,2267],[-89,-8],[-107,71],[-53,-9],[-88,46],[-55,-30],[-96,47],[-66,-53],[-13,-57]],[[1770,1648],[-46,49],[88,153],[-3,56],[294,248],[111,131],[142,71],[111,262],[91,113],[21,-9],[-13,-31],[53,15],[148,-91],[-4,-86],[-235,-402],[10,-89],[40,5],[158,130],[34,79],[27,-6],[34,126],[62,-28],[96,41],[55,-27],[75,25],[197,-28],[16,-24],[63,6],[119,-50],[3,-70],[12,57]],[[1812,529],[84,-128],[-11,-97],[32,-97],[-32,-207]],[[3371,0],[-241,323],[-242,75],[-210,130],[-92,189],[37,110],[-89,160],[-144,19],[-78,119],[-235,156],[-18,125],[-143,98],[-80,136],[-66,8]],[[2434,2644],[-34,-6]],[[3529,2274],[76,-153],[17,-84],[-22,-63],[49,-61],[16,-251],[-202,-190],[25,-157],[-49,-156],[27,-55],[-115,-165],[-75,-221],[-49,-47],[12,-128],[124,-164],[150,-304],[16,-75]],[[4096,2640],[0,-2640],[-3118,0],[36,48],[-18,0],[15,54],[-3,51],[-13,45],[-21,40],[40,0],[0,38],[-60,41],[39,29],[83,21],[39,23],[0,41],[-96,-4],[-46,10],[-40,32],[21,35],[-21,27],[-24,22],[-26,17],[-28,10],[6,26],[9,65],[7,26],[-38,1],[-29,20],[-134,211],[2,92],[48,16],[67,-29],[122,-87],[50,-14],[49,14],[115,80],[62,21],[63,-8],[62,-51],[22,41],[39,37],[41,26],[26,10],[51,-17],[89,-79],[39,-18],[146,13],[44,-13],[201,-155],[-29,59],[-33,34],[-79,62],[38,33],[83,15],[40,28],[-185,38],[-57,0],[-24,-15],[-33,-50],[-31,-11],[-30,12],[-60,52],[-31,12],[-43,30],[-86,130],[-30,30],[-4,21],[-55,85],[-11,11],[-22,71],[-10,41],[-6,41],[58,0],[-29,59],[1,55],[20,56],[28,58],[3,28],[-4,37],[0,32],[11,13],[22,-5],[38,-24],[18,-5],[170,-119],[121,5],[-81,67],[-27,36],[9,45],[-20,42],[-26,-29],[-29,-14],[-31,-4],[-33,5],[0,42],[29,-2],[9,2],[0,38],[-20,4],[-12,9],[-28,28],[161,96],[72,-33],[87,-63],[-320,283],[0,102],[5,48],[23,26],[155,92],[43,48],[34,85],[-19,0],[22,115],[11,114],[19,96],[49,59],[375,-84],[68,-46],[52,-67],[1,-30],[15,-87],[17,-75],[9,5],[-2,-61],[-8,-49],[-13,-42],[-19,-41],[54,43],[23,51],[5,57],[0,59],[12,82],[26,34],[16,40],[-15,93],[52,-45],[90,-120],[48,-25],[82,-64],[37,-12],[31,-19],[2,-47],[-12,-51],[-12,-35],[-34,-45],[-103,-102],[-52,-140],[-56,-105],[-27,-76],[54,9],[173,195],[28,15],[19,87],[47,39],[59,28],[53,54],[32,96],[18,101],[29,78],[71,32],[126,-24],[122,-55],[143,-107],[0,-42],[-4,-20],[-3,-3],[7,-56],[-68,-81],[-44,-101],[-37,-115],[-52,-121],[51,22],[49,50],[79,118],[4,22],[-4,26],[-1,22],[12,9],[13,7],[118,129],[8,13],[113,79],[78,38],[29,4],[58,-19],[87,-84],[65,-18],[-41,41],[31,24],[18,34],[13,32],[19,21],[7,1]],[[722,0],[-184,0],[-20,36],[56,76],[110,-32],[38,-80]],[[1757,2790],[5,54],[25,10],[-14,135],[39,68],[74,-66],[91,-37],[32,48],[49,-25],[125,10],[77,-81],[23,12],[46,-27],[-10,-16],[37,-31],[-103,-142],[-61,-31],[-340,55],[-95,64]],[[492,0],[-409,0],[208,209],[255,-61],[0,-44],[-26,5],[-25,-67],[23,-30],[-26,-12]],[[502,17],[3,-5],[4,6],[-5,2],[-2,-3]]]}