{"objects":{"water":{"type":"GeometryCollection","geometries":[{"type":"Polygon","properties":{"source":"naturalearthdata.com","kind":"ocean","area":1576712559132672,"sort_rank":200,"min_zoom":0.0,"id":1},"arcs":[[6],[7]]},{"type":"LineString","properties":{"source":"naturalearthdata.com","kind":"ocean","sort_rank":205,"boundary":true,"min_zoom":0.0,"id":1317},"arcs":[8]},{"type":"MultiLineString","properties":{"source":"naturalearthdata.com","kind":"ocean","sort_rank":205,"boundary":true,"min_zoom":0.0,"id":1338},"arcs":[[9],[10]]},{"type":"LineString","properties":{"source":"naturalearthdata.com","kind":"ocean","sort_rank":205,"boundary":true,"min_zoom":0.0,"id":4084},"arcs":[11]},{"type":"Point","properties":{"label_placement":true,"kind":"sea","name":"Irish Sea","source":"openstreetmap.org","sort_rank":200,"min_zoom":3.0,"id":305639366},"coordinates":[1820,1654]}]},"buildings":{"type":"GeometryCollection","geometries":[]},"places":{"type":"GeometryCollection","geometries":[{"type":"Point","properties":{"source":"naturalearthdata.com","kind":"locality","name":"Douglas","country_capital":true,"population":35854,"min_zoom":7.0,"id":4804},"coordinates":[3335,4037]},{"type":"Point","properties":{"admin_level":"2","kind":"locality","name":"Douglas","name:gd":"D\u00f9ghlais","kind_detail":"town","name:ga":"Dulais","source":"openstreetmap.org","min_zoom":8.0,"name:gv":"Doolish","country_capital":true,"name:ru":"\u0414\u0443\u0433\u043b\u0430\u0441","id":2199688788,"population":27938},"coordinates":[3341,4034]},{"type":"Point","properties":{"kind":"locality","name":"Castletown","name:gd":"Balley Chashtal","kind_detail":"town","source":"openstreetmap.org","min_zoom":8.0,"name:gv":"Balley Chashtal","name:ru":"\u041a\u0430\u0441\u043b\u0442\u0430\u0443\u043d","id":4013424281,"population":3097},"coordinates":[2829,3658]}]},"transit":{"type":"GeometryCollection","geometries":[{"type":"LineString","properties":{"kind":"train","name":"Isle of Man Steam Railway","sort_rank":275,"source":"openstreetmap.org","min_zoom":6.0,"name:gv":"Raad Yiarn Vannin","id":-148241,"osm_relation":true},"arcs":[5]}]},"pois":{"type":"GeometryCollection","geometries":[]},"boundaries":{"type":"GeometryCollection","geometries":[{"type":"LineString","properties":{"name:pt":"Ilha de Man","name:ka":"\u10db\u10d4\u10dc\u10d8","name:ko":"\ub9e8 \uc12c","name:cv":"\u041c\u044d\u043d \u0443\u0442\u0440\u0430\u0432\u0115","name:cs":"Man","name:tt":"\u041c\u044d\u043d \u0443\u0442\u0440\u0430\u0432\u044b","name:kw":"Ynys Manow","name:th":"\u0e40\u0e01\u0e32\u0e30\u0e41\u0e21\u0e19","name:az":"Men adas\u0131","name:tl":"Pulo ng Man","name:pa":"\u0a2e\u0a48\u0a28 \u0a1f\u0a3e\u0a2a\u0a42","name:os":"\u041c\u044d\u043d","name:pl":"Wyspa Man","name:ta":"\u0bae\u0bbe\u0ba3\u0bcd \u0ba4\u0bc0\u0bb5\u0bc1","name:ca":"Illa de Man","name:li":"Man","name:cy":"Ynys Manaw","source":"openstreetmap.org","sort_rank":262,"name:hr":"Otok Man","name:de":"Insel Man","name:tr":"Man Adas\u0131","name:sq":"Ishulli i Njeriut","name:dv":"\u0787\u07a6\u0787\u07a8\u0792\u07a6\u078d\u07b0 \u0787\u07ae\u078a\u07b0 \u0789\u07ad\u0782\u07b0","name:lv":"Menas Sala","name:lt":"Meno Sala","name:hi":"\u0906\u0907\u0932 \u0911\u092b\u093c \u092e\u0948\u0928","name:he":"\u05d4\u05d0\u05d9 \u05de\u05d0\u05df","name:eo":"Manksinsulo","name:ur":"\u0622\u0626\u0644 \u0622\u0641 \u0645\u06cc\u0646","name:la":"Monapia","name:uk":"\u041e\u0441\u0442\u0440\u0456\u0432 \u041c\u0435\u043d","name:hy":"\u0544\u0565\u0576 \u056f\u0572\u0566\u056b","name:hu":"Man","name:qu":"Man wat'a","name:oc":"Illa de Man","name:el":"\u039d\u03ae\u03c3\u03bf\u03c2 \u03c4\u03bf\u03c5 \u039c\u03b1\u03bd","kind":"country","name":"Isle of Man","min_zoom":8.0,"name:eu":"Man","name:et":"Man","name:es":"Isla de Man","name:ia":"Insula de Man","alt_name:eo":"Manksio;Manksujo","name:ro":"Insula Man","name:id":"Pulau Man","name:mr":"\u0906\u0908\u0932 \u0911\u092b \u092e\u093e\u0928","name:ar":"\u062c\u0632\u064a\u0631\u0629 \u0645\u0627\u0646","name:io":"Man-Insulo","name:is":"M\u00f6n","name:it":"Isola di Man","name:an":"Isla de Man","name:vi":"\u0110\u1ea3o Man","name:rw":"Ikirwa cya Man","name:mi":"Motu o Man","id":-62269,"name:mk":"\u041c\u0430\u043d","name:af":"Eiland Man","name:fa":"\u062c\u0632\u06cc\u0631\u0647 \u0645\u0646","kind_detail":"2","name:sh":"Otok Man","name:fo":"Mann","name:zh-min-nan":"Mannin","alt_name:vi":"\u0110\u1ea3o Mann","name:fr":"\u00cele de Man","name:zh-yue":"\u99ac\u6069\u5cf6","name:fy":"Man","name:vo":"M\u00e4ne\u00e4n","name:zh":"\u9a6c\u6069\u5c9b","name:sl":"Otok Man","name:nl":"Eiland Man","name:ja":"\u30de\u30f3\u5cf6","name:no":"Man","name:br":"Manav","name:bs":"Ostrvo Man","name:bn":"\u0986\u0987\u09b2 \u0985\u09ab \u09ae\u09cd\u09af\u09be\u09a8","name:sk":"Ostrov Man","name:ml":"\u0d10\u0d7d \u0d12\u0d2b\u0d4d \u0d2e\u0d3e\u0d7b","name:ru":"\u041e\u0441\u0442\u0440\u043e\u0432 \u041c\u044d\u043d","name:be":"\u0412\u043e\u0441\u0442\u0440\u0430\u045e \u041c\u044d\u043d","name:su":"Pulo Man","name:bg":"\u041c\u0430\u043d","name:sr":"\u041e\u0441\u0442\u0440\u0432\u043e \u041c\u0430\u043d","osm_relation":true,"name:ga":"Oile\u00e1n Mhanann","name:gd":"Eilean Mhanainn","name:yo":"Er\u00e9k\u00f9\u1e63\u00f9 il\u1eb9\u0300 Man","name:jv":"Pulo Man","name:gl":"Illa de Man","maritime_boundary":true,"name:gv":"Ellan Vannin","name:fi":"Mansaari"},"arcs":[0]},{"type":"MultiLineString","properties":{"name:kg":"Royaume-Uni","name:ty":"Parat\u0101ne","name:ka":"\u10d2\u10d0\u10d4\u10e0\u10d7\u10d8\u10d0\u10dc\u10d4\u10d1\u10e3\u10da\u10d8 \u10e1\u10d0\u10db\u10d4\u10e4\u10dd","name:ko":"\uc601\uad6d","name:cv":"\u0410\u0441\u043b\u0103 \u0411\u0440\u0438\u0442\u0430\u043d\u0438","name:cu":"\u0412\u0454\u043b\u0438\u043a\u0430 \u0411\u0440\u0438\u0442\u0430\u043d\u0457\ua657","name:kl":"Tuluit Nunaat","name:cs":"Spojen\u00e9 kr\u00e1lovstv\u00ed","name:tt":"\u0411\u04e9\u0435\u043a\u0431\u0440\u0438\u0442\u0430\u043d\u0438\u044f","name:co":"Regnu Unitu","name:kv":"\u042b\u0434\u0436\u044b\u0434 \u0411\u0440\u0438\u0442\u0430\u043d\u0438\u044f","name:ku":"Keyaniya Yekb\u00fby\u00ee","name:tl":"Nagkakaisang Kaharian","name:ce":"\u0419\u043e\u043a\u043a\u0445\u0430 \u0411\u0440\u0438\u0442\u0430\u043d\u0438","name:ta":"\u0b90\u0b95\u0bcd\u0b95\u0bbf\u0baf \u0b87\u0bb0\u0bbe\u0b9a\u0bcd\u0b9a\u0bbf\u0baf\u0bae\u0bcd","name:tg":"\u041f\u043e\u0434\u0448\u043e\u04b3\u0438\u0438 \u041c\u0443\u0442\u0442\u0430\u04b3\u0438\u0434\u0430","name:ca":"Regne Unit","name:te":"\u0c2f\u0c41\u0c28\u0c48\u0c1f\u0c46\u0c21\u0c4d \u0c15\u0c3f\u0c02\u0c17\u0c4d\u200c\u0c21\u0c2e\u0c4d","name:cy":"Deyrnas Unedig","name:qu":"Hukllachasqa Qhapaq Suyu","name:da":"Storbritannien","name:de":"Vereinigtes K\u00f6nigreich","name:dz":"\u0f61\u0f74\u0f0b\u0f53\u0f60\u0f72\u0f0b\u0f4a\u0f7a\u0f4a\u0f0b\u0f40\u0f72\u0f44\u0f0b\u0f4c\u0f58","source":"openstreetmap.org","name:kn":"\u0caf\u0cc1\u0ca8\u0cc8\u0c9f\u0cc6\u0ca1\u0ccd \u0c95\u0cbf\u0c82\u0c97\u0ccd\u200c\u0ca1\u0c82","name:dv":"\u0794\u07aa\u0782\u07a6\u0787\u07a8\u0793\u07ac\u0791\u07b0 \u0786\u07a8\u0782\u07b0\u078e\u07b0\u0791\u07a6\u0789\u07b0","name:km":"\u179a\u17b6\u1787\u17b6\u178e\u17b6\u1785\u1780\u17d2\u179a\u179a\u17bd\u1798","name:lv":"Apvienot\u0101 Karaliste","name:lt":"Jungtin\u0117 Karalyst\u0117","name:uz":"Birlashgan Qirollik","name:kk":"\u04b0\u043b\u044b\u0431\u0440\u0438\u0442\u0430\u043d\u0438\u044f","name:ur":"\u0628\u0631\u0637\u0627\u0646\u06cc\u06c1","name:lb":"Groussbritannien an Nordirland","name:la":"Britanniarum Regnum","name:uk":"\u0412\u0435\u043b\u0438\u043a\u0430 \u0411\u0440\u0438\u0442\u0430\u043d\u0456\u044f","name:ug":"\u0628\u06c8\u064a\u06c8\u0643 \u0628\u06d0\u0631\u0649\u062a\u0627\u0646\u0649\u064a\u06d5","name:li":"Vereineg Keuninkriek","name:ln":"Ing\u025bl\u025b\u0301t\u025bl\u025b","name:el":"\u0397\u03bd\u03c9\u03bc\u03ad\u03bd\u03bf \u0392\u03b1\u03c3\u03af\u03bb\u03b5\u03b9\u03bf","name:eo":"Britujo","name":"United Kingdom","name:th":"\u0e2a\u0e2b\u0e23\u0e32\u0e0a\u0e2d\u0e32\u0e13\u0e32\u0e08\u0e31\u0e01\u0e23","name:eu":"Erresuma Batua","name:et":"Suurbritannia","name:es":"Reino Unido","name:ia":"Regno Unite","name:rm":"Reginavel Un\u00ec","name:az":"B\u00f6y\u00fck Britaniya","name:ie":"Reyatu Unit","name:id":"Britania Raya","name:ig":"Obodo\u00e9z\u00e8 N\u00e0 Of\u00fa","name:ar":"\u0627\u0644\u0645\u0645\u0644\u0643\u0629 \u0627\u0644\u0645\u062a\u062d\u062f\u0629","name:io":"Unionita Rejio","name:is":"Bretland","name:am":"\u12e9\u1293\u12ed\u1275\u12f5 \u12aa\u1295\u130d\u12f0\u121d","name:it":"Regno Unito","name:an":"Reino Unito","name:ru":"\u0412\u0435\u043b\u0438\u043a\u043e\u0431\u0440\u0438\u0442\u0430\u043d\u0438\u044f","name:ab":"\u0411\u0440\u0438\u0442\u0430\u043d\u0438\u0430 \u0414\u0443","name:af":"Verenigde Koninkryk","name:zu":"Umbuso Ohlangeneyo","kind_detail":"2","name:za":"Yinghgoz","name:zh-yue":"\u82f1\u570b","name:zh":"\u82f1\u570b","name:so":"Midowga boqortooyada Britan","name:sl":"Zdru\u017eeno kraljestvo Velike Britanije in Severne Irske","name:sk":"Spojen\u00e9 kr\u00e1\u013eovstvo","name:ja":"\u30a4\u30ae\u30ea\u30b9","name:si":"\u0d91\u0d9a\u0dca\u0dc3\u0dad\u0dca \u0dbb\u0dcf\u0da2\u0db0\u0dcf\u0db1\u0dd2\u0dba","name:sh":"Ujedinjeno Kraljevstvo","name:se":"Ovttastuvvan gonagasriika","name:sc":"Rennu Auniadu","name:sa":"\u0938\u0902\u092f\u0941\u0915\u094d\u0924 \u0905\u0927\u093f\u0930\u093e\u091c\u094d\u092f","name:bs":"Ujedinjeno Kraljevstvo Velike Britanije i Sjeverne Irske","name:bn":"\u09af\u09c1\u0995\u09cd\u09a4\u09b0\u09be\u099c\u09cd\u09af","name:bo":"\u0f51\u0f56\u0fb1\u0f72\u0f53\u0f0b\u0f47\u0f72\u0f0b\u0f58\u0f49\u0f58\u0f0b\u0f60\u0f56\u0fb2\u0f7a\u0f63\u0f0d","name:br":"Rouantelezh-Unanet","name:sw":"Ufalme wa Muungano","name:be":"\u0412\u044f\u043b\u0456\u043a\u0430\u0431\u0440\u044b\u0442\u0430\u043d\u0456\u044f","name:su":"Britania","name:bg":"\u041e\u0431\u0435\u0434\u0438\u043d\u0435\u043d\u043e \u043a\u0440\u0430\u043b\u0441\u0442\u0432\u043e \u0412\u0435\u043b\u0438\u043a\u043e\u0431\u0440\u0438\u0442\u0430\u043d\u0438\u044f \u0438 \u0421\u0435\u0432\u0435\u0440\u043d\u0430 \u0418\u0440\u043b\u0430\u043d\u0434\u0438\u044f","name:ba":"\u0411\u04e9\u0439\u04e9\u043a \u0411\u0440\u0438\u0442\u0430\u043d\u0438\u044f","name:sq":"Mbret\u00ebria e Bashkuar e Britanis\u00eb dhe Irland\u00ebs s\u00eb Veriut","name:jv":"Britania Raya","name:bi":"Unaeted Kingdom","name:pt":"Reino Unido","name:ps":"\u0628\u0631\u064a\u062a\u0627\u0646\u064a\u0627","name:oc":"Reialme Unit","min_zoom":8.0,"name:ro":"Regatul Unit al Marii Britanii \u0219i al Irlandei de Nord","name:zh-min-nan":"Li\u00e2n-ha\u030dp \u00d4ng-kok","name:os":"\u0421\u0442\u044b\u0440 \u0411\u0440\u0438\u0442\u0430\u043d\u0438","name:or":"\u0b2f\u0b41\u0b15\u0b4d\u0b24\u0b30\u0b3e\u0b1c\u0b4d\u0b5f","name:pl":"Wielka Brytania","sort_rank":262,"name:sr":"\u0423\u0458\u0435\u0434\u0438\u045a\u0435\u043d\u043e \u041a\u0440\u0430\u0459\u0435\u0432\u0441\u0442\u0432\u043e","osm_relation":true,"name:pa":"\u0a38\u0a70\u0a2f\u0a41\u0a15\u0a24 \u0a2c\u0a3e\u0a26\u0a38\u0a3c\u0a3e\u0a39\u0a40","name:tr":"Birle\u015fik Krall\u0131k","name:hi":"\u092f\u0942\u0928\u093e\u0907\u091f\u0947\u0921 \u0915\u093f\u0902\u0917\u0921\u092e","name:sv":"Storbritannien","name:he":"\u05d4\u05de\u05de\u05dc\u05db\u05d4 \u05d4\u05de\u05d0\u05d5\u05d7\u05d3\u05ea","name:ha":"Birtaniya","name:hy":"\u0544\u056b\u0561\u0581\u0575\u0561\u056c \u0539\u0561\u0563\u0561\u057e\u0578\u0580\u0578\u0582\u0569\u0575\u0578\u0582\u0576","name:ht":"Way\u00f2m Ini","name:hu":"Egyes\u00fclt Kir\u00e1lys\u00e1g","name:hr":"Ujedinjeno Kraljevstvo","kind":"country","name:yi":"\u05e4\u05d0\u05e8\u05d0\u05d9\u05d9\u05e0\u05d9\u05d2\u05d8\u05e2 \u05e7\u05e2\u05e0\u05d9\u05d2\u05e8\u05d9\u05d9\u05da","name:yo":"Il\u1eb9\u0300\u1ecdba A\u1e63\u1ecd\u0300kan","name:mt":"Renju Unit","alt_name:eo":"Britio","name:mr":"\u092f\u0941\u0928\u093e\u092f\u091f\u0947\u0921 \u0915\u093f\u0902\u0917\u094d\u0921\u092e","name:my":"\u101a\u1030\u1014\u102d\u102f\u1000\u103a\u1010\u1000\u103a\u1000\u1004\u103a\u1038\u1012\u1019\u103a\u1038\u1014\u102d\u102f\u1004\u103a\u1004\u1036","name:kw":"Ruwvaneth Unys","name:mg":"Fanjakana Mitambatra","name:vi":"V\u01b0\u01a1ng qu\u1ed1c Anh","name:ml":"\u0d2f\u0d41\u0d23\u0d48\u0d31\u0d4d\u0d31\u0d21\u0d4d \u0d15\u0d3f\u0d19\u0d4d\u0d21\u0d02","name:mn":"\u0418\u0445 \u0411\u0440\u0438\u0442\u0430\u043d\u0438","name:mi":"K\u012bngitanga Kotahi","id":-62149,"name:mk":"\u041e\u0431\u0435\u0434\u0438\u043d\u0435\u0442\u043e \u041a\u0440\u0430\u043b\u0441\u0442\u0432\u043e","name:vo":"Reg\u00e4n Pebal\u00f6l","name:fa":"\u0628\u0631\u06cc\u062a\u0627\u0646\u06cc\u0627","name:rw":"Ubwongereza","short_name":"UK","name:fi":"Yhdistynyt kuningaskunta","name:ky":"\u0423\u043b\u0443\u0443 \u0411\u0440\u0438\u0442\u0430\u043d\u0438\u044f \u0436\u0430\u043d\u0430 \u0422\u04af\u043d\u0434\u04af\u043a \u0418\u0440\u043b\u0430\u043d\u0434\u0438\u044f","name:fo":"St\u00f3ra Bretland","name:fr":"Royaume-Uni","name:fy":"Feriene Keninkryk","name:nl":"Verenigd Koninkrijk","name:nn":"Storbritannia","name:no":"Storbritannia","name:na":"Ingerand","name:ne":"\u0938\u0902\u092f\u0941\u0915\u094d\u0924 \u0905\u0927\u093f\u0930\u093e\u091c\u094d\u092f","name:wo":"Nguur-Yu-Bennoo","name:nv":"T\u00f3ta\u02bc Din\u00e9\u02bci\u02bc Bik\u00e9yah","name:ga":"An R\u00edocht Aontaithe","name:gd":"An R\u00ecoghachd Aonaichte","name:gn":"Tavet\u00e3 Joaju","name:gl":"Reino Unido","maritime_boundary":true,"name:gv":"Reeriaght Unnaneysit","name:gu":"\u0aaf\u0ac1\u0aa8\u0abe\u0a87\u0a9f\u0ac7\u0aa1 \u0a95\u0abf\u0a82\u0a97\u0aa1\u0aae"},"arcs":[[1],[2]]},{"type":"LineString","properties":{"name:ia":"Irlanda del Nord","name:ga":"Tuaisceart \u00c9ireann","name:pt":"Irlanda do Norte","name:cy":"Gogledd Iwerddon","name:cs":"Severn\u00ed Irsko","name:io":"Nord-Irlando","min_zoom":8.0,"name:ru":"\u0421\u0435\u0432\u0435\u0440\u043d\u0430\u044f \u0418\u0440\u043b\u0430\u043d\u0434\u0438\u044f","name:vi":"B\u1eafc Ireland","name:pl":"Irlandia P\u00f3\u0142nocna","id":-156393,"name:ca":"Irlanda del Nord","name:vo":"Nol\u00fcda-Lireye\u00e4n","alt_name:vi":"B\u1eafc Ai-len","sort_rank":256,"name:fi":"Pohjois-Irlanti","old_name:vi":"B\u1eafc \u00c1i Nh\u0129 Lan","source":"openstreetmap.org","name:fr":"Irlande du Nord","name:fy":"Noard-Ierl\u00e2n","name:sk":"Severn\u00e9 \u00cdrsko","name:lt":"\u0160iaur\u0117s Airija","name:sv":"Nordirland","name:eo":"Nord-Irlando","name:be":"\u041f\u0430\u045e\u043d\u043e\u0447\u043d\u0430\u044f \u0406\u0440\u043b\u0430\u043d\u0434\u044b\u044f","name:hu":"\u00c9szak-\u00cdrorsz\u00e1g","osm_relation":true,"kind":"region","name":"Northern Ireland","name:gd":"\u00c8irinn a Tuath","maritime_boundary":true,"kind_detail":"4","name:nl":"Noord-Ierland"},"arcs":[3]},{"type":"LineString","properties":{"name:ia":"Galles","alt_name:eo":"Kimrio","name:cy":"Cymru","name:ar":"\u0648\u064a\u0644\u0632","name:io":"Wals","name:kw":"Kembra","min_zoom":8.0,"name:it":"Galles","name:ru":"\u0423\u044d\u043b\u044c\u0441","name:pl":"Walia","id":-58437,"name:ca":"Pa\u00eds de Ga\u0140les","name:vo":"Vels\u00e4n","sort_rank":256,"kind_detail":"4","kind":"region","source":"openstreetmap.org","name:fr":"Pays de Galles","name:zh":"\u5a01\u723e\u65af","name:lt":"Velsas","name:ga":"An Bhreatain Bheag","name:br":"Kembre","name:be":"\u0423\u044d\u043b\u044c\u0441","osm_relation":true,"name:el":"\u039f\u03c5\u03b1\u03bb\u03af\u03b1","name:eo":"Kimrujo","name":"Wales","name:gd":"A' Chuimrigh","maritime_boundary":true,"name:gv":"Bretyn","name:eu":"Gales","name:es":"Gales"},"arcs":[4]}]},"roads":{"type":"GeometryCollection","geometries":[{"type":"LineString","properties":{"bus_network":"Isle of Man Public Transport","sort_rank":377,"kind_detail":"tertiary","is_bicycle_related":true,"kind":"major_road","bicycle_shield_text":"2","bicycle_network":"ncn","source":"openstreetmap.org","min_zoom":8.0,"bus_shield_text":"4C","id":25986532},"arcs":[12]},{"type":"MultiLineString","properties":{"source":"openstreetmap.org","kind":"major_road","sort_rank":380,"kind_detail":"primary","ref":"A29","min_zoom":8.0},"arcs":[[13],[14],[15]]},{"type":"MultiLineString","properties":{"sort_rank":380,"kind_detail":"primary","min_zoom":8.0,"kind":"major_road","source":"openstreetmap.org"},"arcs":[[16],[17],[18],[19],[20],[21],[22]]},{"type":"LineString","properties":{"bus_network":"Isle of Man Public Transport","sort_rank":381,"kind_detail":"trunk","kind":"major_road","source":"openstreetmap.org","min_zoom":8.0,"bus_shield_text":"2","ref":"A29"},"arcs":[23]},{"type":"LineString","properties":{"source":"openstreetmap.org","kind":"major_road","sort_rank":380,"kind_detail":"primary","ref":"A7","min_zoom":8.0},"arcs":[24]},{"type":"LineString","properties":{"kind":"major_road","sort_rank":380,"kind_detail":"primary","is_bicycle_related":true,"bus_network":"Isle of Man Public Transport","bicycle_shield_text":"3","bicycle_network":"ncn","source":"openstreetmap.org","min_zoom":8.0,"bus_shield_text":"2A","ref":"A5","id":160424251},"arcs":[25]},{"type":"LineString","properties":{"kind":"major_road","name:en":"Bethesda Street","sort_rank":379,"kind_detail":"secondary","is_bicycle_related":true,"bicycle_shield_text":"566","bicycle_network":"ncn","source":"openstreetmap.org","min_zoom":8.0,"ref":"B5111"},"arcs":[26]},{"type":"LineString","properties":{"kind":"major_road","sort_rank":381,"kind_detail":"trunk","bus_network":"Isle of Man Public Transport","source":"openstreetmap.org","min_zoom":8.0,"name:gv":"Raad Jeelt","bus_shield_text":"21H","landuse_kind":"urban_area","ref":"A6","id":60473160},"arcs":[27]},{"type":"LineString","properties":{"kind":"major_road","name:en":"Llaneilian Road","sort_rank":377,"kind_detail":"tertiary","is_bicycle_related":true,"bicycle_shield_text":"566","bicycle_network":"ncn","source":"openstreetmap.org","min_zoom":8.0,"id":23698778},"arcs":[28]},{"type":"LineString","properties":{"kind":"minor_road","name:en":"Mona Street","sort_rank":360,"kind_detail":"unclassified","is_bicycle_related":true,"bicycle_shield_text":"566","bicycle_network":"ncn","source":"openstreetmap.org","min_zoom":8.0,"id":23699850},"arcs":[29]},{"type":"MultiLineString","properties":{"bus_network":"Isle of Man Public Transport","sort_rank":380,"kind_detail":"primary","kind":"major_road","source":"openstreetmap.org","min_zoom":8.0,"bus_shield_text":"3A","landuse_kind":"urban_area","ref":"A41"},"arcs":[[30],[31]]},{"type":"LineString","properties":{"kind":"major_road","sort_rank":380,"kind_detail":"primary","bus_network":"Isle of Man Public Transport","source":"openstreetmap.org","min_zoom":8.0,"bus_shield_text":"22A","landuse_kind":"residential","ref":"A42","id":528717375},"arcs":[32]},{"type":"MultiLineString","properties":{"kind":"major_road","sort_rank":380,"kind_detail":"primary","is_bicycle_related":true,"bicycle_shield_text":"566","bicycle_network":"ncn","source":"openstreetmap.org","min_zoom":8.0,"ref":"A5025"},"arcs":[[33],[34]]},{"type":"LineString","properties":{"kind":"major_road","sort_rank":380,"kind_detail":"primary","bus_network":"Isle of Man Public Transport","source":"openstreetmap.org","min_zoom":8.0,"name:gv":"Bayr Valley 'c Phaayl","bus_shield_text":"22","landuse_kind":"residential","ref":"A22","id":39187489},"arcs":[35]},{"type":"LineString","properties":{"source":"openstreetmap.org","kind":"major_road","sort_rank":380,"kind_detail":"primary","ref":"A12","min_zoom":8.0,"id":38772908},"arcs":[36]},{"type":"LineString","properties":{"bus_network":"Isle of Man Public Transport","sort_rank":380,"kind_detail":"primary","kind":"major_road","source":"openstreetmap.org","min_zoom":8.0,"bus_shield_text":"2A","landuse_kind":"urban_area","ref":"A45"},"arcs":[37]},{"type":"MultiLineString","properties":{"source":"openstreetmap.org","bus_network":"Isle of Man Public Transport","bus_shield_text":"21B","sort_rank":381,"kind_detail":"trunk","min_zoom":8.0,"kind":"major_road"},"arcs":[[38],[39]]},{"type":"LineString","properties":{"bus_network":"Isle of Man Public Transport","sort_rank":380,"kind_detail":"primary","is_bicycle_related":true,"kind":"major_road","bicycle_shield_text":"1","bicycle_network":"ncn","source":"openstreetmap.org","min_zoom":8.0,"bus_shield_text":"4C","ref":"A24"},"arcs":[40]},{"type":"LineString","properties":{"kind":"major_road","sort_rank":379,"kind_detail":"secondary","is_bicycle_related":true,"bicycle_shield_text":"1","bicycle_network":"ncn","source":"openstreetmap.org","min_zoom":8.0,"name:gv":"Imman ny Marrey","ref":"B23"},"arcs":[41]},{"type":"LineString","properties":{"kind":"major_road","sort_rank":380,"kind_detail":"primary","source":"openstreetmap.org","min_zoom":8.0,"name:gv":"Bayr Valley 'c Phaayl","landuse_kind":"residential","ref":"A22","id":267303627},"arcs":[42]},{"type":"LineString","properties":{"kind":"major_road","sort_rank":380,"kind_detail":"primary","is_bicycle_related":true,"bus_network":"Isle of Anglesey","bicycle_shield_text":"566","bicycle_network":"ncn","source":"openstreetmap.org","min_zoom":8.0,"bus_shield_text":"62","ref":"A5025","id":138742969},"arcs":[43]},{"type":"LineString","properties":{"bus_network":"Isle of Man Public Transport","sort_rank":380,"kind_detail":"primary","is_bicycle_related":true,"kind":"major_road","bicycle_shield_text":"1","bicycle_network":"ncn","source":"openstreetmap.org","min_zoom":8.0,"name:gv":"Imman ny Marrey","bus_shield_text":"29","ref":"A37"},"arcs":[44]},{"type":"LineString","properties":{"bus_network":"Isle of Man Public Transport","sort_rank":380,"kind_detail":"primary","is_bicycle_related":true,"kind":"major_road","bicycle_shield_text":"3c","bicycle_network":"ncn","source":"openstreetmap.org","min_zoom":8.0,"bus_shield_text":"28","ref":"A31"},"arcs":[45]},{"type":"LineString","properties":{"source":"openstreetmap.org","kind":"major_road","sort_rank":381,"kind_detail":"trunk","ref":"A5","min_zoom":8.0},"arcs":[46]},{"type":"LineString","properties":{"kind":"major_road","sort_rank":379,"kind_detail":"secondary","is_bicycle_related":true,"bus_network":"Isle of Man Public Transport","bicycle_shield_text":"3b","bicycle_network":"ncn","source":"openstreetmap.org","min_zoom":8.0,"name:gv":"Raad y Ven-Rein","bus_shield_text":"1H","ref":"B18","id":38773786},"arcs":[47]},{"type":"LineString","properties":{"sort_rank":381,"source":"openstreetmap.org","min_zoom":8.0,"kind":"major_road","kind_detail":"trunk"},"arcs":[48]},{"type":"LineString","properties":{"kind":"major_road","sort_rank":380,"kind_detail":"primary","bus_network":"Isle of Man Public Transport","source":"openstreetmap.org","min_zoom":8.0,"bus_shield_text":"3A","landuse_kind":"urban_area","ref":"A42","id":25987987},"arcs":[49]},{"type":"MultiLineString","properties":{"kind":"minor_road","sort_rank":360,"kind_detail":"unclassified","is_bicycle_related":true,"bicycle_shield_text":"3","bicycle_network":"ncn","source":"openstreetmap.org","min_zoom":8.0},"arcs":[[50],[51]]},{"type":"LineString","properties":{"kind":"major_road","sort_rank":380,"kind_detail":"primary","is_bicycle_related":true,"bus_network":"Isle of Man Public Transport","bicycle_shield_text":"3","bicycle_network":"ncn","source":"openstreetmap.org","min_zoom":8.0,"name:gv":"Raad ny Keylley","bus_shield_text":"28","ref":"A31","id":25987544},"arcs":[52]},{"type":"MultiLineString","properties":{"bus_network":"Isle of Man Public Transport","sort_rank":381,"kind_detail":"trunk","is_bicycle_related":true,"kind":"major_road","bicycle_shield_text":"3","bicycle_network":"ncn","source":"openstreetmap.org","min_zoom":8.0,"bus_shield_text":null,"ref":"A5"},"arcs":[[53],[54]]},{"type":"MultiLineString","properties":{"bus_network":"Isle of Man Public Transport","sort_rank":381,"landuse_kind":"urban_area","kind":"major_road","source":"openstreetmap.org","min_zoom":8.0,"bus_shield_text":null,"kind_detail":"trunk","ref":"A5"},"arcs":[[55],[56],[57],[58],[59],[60],[61]]},{"type":"LineString","properties":{"kind":"major_road","sort_rank":380,"kind_detail":"primary","is_bicycle_related":true,"bus_network":"Isle of Man Public Transport","bicycle_shield_text":"3","bicycle_network":"ncn","source":"openstreetmap.org","min_zoom":8.0,"name:gv":"Raad Vradda","bus_shield_text":"28","ref":"A32","id":166054827},"arcs":[62]},{"type":"LineString","properties":{"kind":"major_road","sort_rank":380,"kind_detail":"primary","is_bicycle_related":true,"bicycle_shield_text":"3","bicycle_network":"ncn","source":"openstreetmap.org","min_zoom":8.0,"ref":"A32"},"arcs":[63]},{"type":"LineString","properties":{"kind":"major_road","sort_rank":380,"kind_detail":"primary","bus_network":"Isle of Man Public Transport","source":"openstreetmap.org","min_zoom":8.0,"bus_shield_text":"2A","ref":"A8","id":372961583},"arcs":[64]},{"type":"LineString","properties":{"kind":"major_road","sort_rank":379,"kind_detail":"secondary","is_bicycle_related":true,"bicycle_shield_text":"1","bicycle_network":"ncn","source":"openstreetmap.org","min_zoom":8.0,"ref":"B80"},"arcs":[65]},{"type":"LineString","properties":{"kind":"major_road","sort_rank":379,"kind_detail":"secondary","is_bicycle_related":true,"bus_network":"Isle of Man Public Transport","bicycle_shield_text":"3b","bicycle_network":"ncn","source":"openstreetmap.org","min_zoom":8.0,"name:gv":"Raad Fistard","bus_shield_text":"1H","ref":"B28","id":149581570},"arcs":[66]},{"type":"LineString","properties":{"bus_network":"Isle of Anglesey","sort_rank":379,"kind_detail":"secondary","is_bicycle_related":true,"kind":"major_road","bicycle_shield_text":"566","bicycle_network":"ncn","source":"openstreetmap.org","min_zoom":8.0,"bus_shield_text":"32","ref":"B5111"},"arcs":[67]},{"type":"LineString","properties":{"kind":"major_road","sort_rank":379,"kind_detail":"secondary","is_bicycle_related":true,"bus_network":"Isle of Man Public Transport","bicycle_shield_text":"3b","bicycle_network":"ncn","source":"openstreetmap.org","min_zoom":8.0,"bus_shield_text":"1H","ref":"B18","id":25987671},"arcs":[68]},{"type":"LineString","properties":{"bus_network":"Isle of Man Public Transport","sort_rank":381,"kind_detail":"trunk","is_bicycle_related":true,"kind":"major_road","bicycle_shield_text":"3","bicycle_network":"ncn","source":"openstreetmap.org","min_zoom":8.0,"bus_shield_text":"2","ref":"A5","id":25988675},"arcs":[69]},{"type":"MultiLineString","properties":{"bus_network":"Isle of Man Public Transport","sort_rank":381,"kind_detail":"trunk","kind":"major_road","source":"openstreetmap.org","min_zoom":8.0,"bus_shield_text":null,"ref":"A5"},"arcs":[[70],[71],[72],[73],[74]]},{"type":"LineString","properties":{"kind":"major_road","name:en":"Bull Bay Road","sort_rank":377,"kind_detail":"tertiary","is_bicycle_related":true,"bicycle_shield_text":"566","bicycle_network":"ncn","source":"openstreetmap.org","min_zoom":8.0,"id":43658808},"arcs":[75]},{"type":"LineString","properties":{"kind":"major_road","sort_rank":380,"kind_detail":"primary","is_bicycle_related":true,"bus_network":"Isle of Man Public Transport","bicycle_shield_text":"3","bicycle_network":"ncn","source":"openstreetmap.org","min_zoom":8.0,"bus_shield_text":"28","ref":"A32","id":27210635},"arcs":[76]},{"type":"MultiLineString","properties":{"bus_network":"Isle of Anglesey","sort_rank":380,"kind_detail":"primary","kind":"major_road","source":"openstreetmap.org","min_zoom":8.0,"bus_shield_text":"62","ref":"A5025"},"arcs":[[77],[78],[79],[80]]},{"type":"LineString","properties":{"kind":"major_road","name:en":"Brynddu Road","sort_rank":377,"kind_detail":"tertiary","is_bicycle_related":true,"bicycle_shield_text":"566","bicycle_network":"ncn","source":"openstreetmap.org","min_zoom":8.0,"id":89469691},"arcs":[81]},{"type":"LineString","properties":{"kind":"major_road","sort_rank":381,"kind_detail":"trunk","is_bicycle_related":true,"bus_network":"Isle of Man Public Transport","bicycle_shield_text":"2","bicycle_network":"ncn","source":"openstreetmap.org","min_zoom":8.0,"bus_shield_text":"8","ref":"A5","id":38517470},"arcs":[82]},{"type":"LineString","properties":{"kind":"major_road","sort_rank":380,"kind_detail":"primary","bus_network":"Isle of Man Public Transport","source":"openstreetmap.org","min_zoom":8.0,"bus_shield_text":"29","ref":"A37","id":25986790},"arcs":[83]},{"type":"LineString","properties":{"kind":"major_road","sort_rank":380,"kind_detail":"primary","bus_network":"Isle of Man Public Transport","source":"openstreetmap.org","min_zoom":8.0,"bus_shield_text":"28","ref":"A5","id":25986770},"arcs":[84]},{"type":"LineString","properties":{"bus_network":"Isle of Man Public Transport","sort_rank":380,"kind_detail":"primary","kind":"major_road","source":"openstreetmap.org","min_zoom":8.0,"bus_shield_text":"2A","ref":"A5"},"arcs":[85]},{"type":"LineString","properties":{"kind":"major_road","sort_rank":381,"landuse_kind":"urban_area","source":"openstreetmap.org","min_zoom":8.0,"kind_detail":"trunk","ref":"A5","id":170936309},"arcs":[86]},{"type":"LineString","properties":{"sort_rank":355,"source":"openstreetmap.org","min_zoom":8.0,"name":"Dublin - Heysham","kind":"ferry"},"arcs":[87]},{"type":"LineString","properties":{"kind":"major_road","sort_rank":380,"kind_detail":"primary","source":"openstreetmap.org","min_zoom":8.0,"name:gv":"Kerrin Oonlee","ref":"A8","id":25987770},"arcs":[88]},{"type":"LineString","properties":{"kind":"major_road","sort_rank":380,"kind_detail":"primary","bus_network":"Isle of Anglesey","source":"openstreetmap.org","min_zoom":8.0,"bus_shield_text":"62","ref":"A5108","id":47483687},"arcs":[89]},{"type":"MultiLineString","properties":{"kind":"major_road","sort_rank":377,"kind_detail":"tertiary","is_bicycle_related":true,"bicycle_shield_text":"566","bicycle_network":"ncn","source":"openstreetmap.org","min_zoom":8.0},"arcs":[[90],[91],[92],[93],[94],[95],[96]]},{"type":"LineString","properties":{"kind":"major_road","sort_rank":381,"kind_detail":"trunk","bus_network":"Isle of Man Public Transport","source":"openstreetmap.org","min_zoom":8.0,"bus_shield_text":"4C","landuse_kind":"urban_area","id":25987674},"arcs":[97]},{"type":"LineString","properties":{"bus_network":"Isle of Man Public Transport","sort_rank":380,"kind_detail":"primary","is_bicycle_related":true,"kind":"major_road","bicycle_shield_text":"3c","bicycle_network":"ncn","source":"openstreetmap.org","min_zoom":8.0,"name:gv":"Raad Cheyllys","bus_shield_text":"28","ref":"A31"},"arcs":[98]},{"type":"MultiLineString","properties":{"kind":"path","sort_rank":354,"kind_detail":"path","is_bicycle_related":true,"bicycle_shield_text":"566","bicycle_network":"ncn","source":"openstreetmap.org","min_zoom":8.0},"arcs":[[99],[100]]},{"type":"LineString","properties":{"kind":"major_road","sort_rank":380,"kind_detail":"primary","bus_network":"Isle of Man Public Transport","source":"openstreetmap.org","min_zoom":8.0,"name:gv":"Bayr Valley 'c Phaayl","bus_shield_text":"3A","landuse_kind":"residential","ref":"A22","id":528717379},"arcs":[101]},{"type":"MultiLineString","properties":{"kind":"minor_road","sort_rank":360,"kind_detail":"unclassified","is_bicycle_related":true,"bicycle_shield_text":"566","bicycle_network":"ncn","source":"openstreetmap.org","min_zoom":8.0},"arcs":[[102],[103],[104],[105],[106],[107]]},{"type":"MultiLineString","properties":{"source":"openstreetmap.org","kind":"major_road","landuse_kind":"urban_area","sort_rank":380,"kind_detail":"primary","min_zoom":8.0},"arcs":[[108],[109],[110],[111]]},{"type":"LineString","properties":{"kind":"major_road","sort_rank":380,"kind_detail":"primary","is_bicycle_related":true,"bicycle_shield_text":"2a","bicycle_network":"ncn","source":"openstreetmap.org","min_zoom":8.0,"ref":"A12"},"arcs":[112]},{"type":"LineString","properties":{"bus_network":"Isle of Man Public Transport","sort_rank":380,"kind_detail":"primary","is_bicycle_related":true,"kind":"major_road","bicycle_shield_text":"2","bicycle_network":"ncn","source":"openstreetmap.org","min_zoom":8.0,"bus_shield_text":"4C","ref":"A7"},"arcs":[113]},{"type":"LineString","properties":{"source":"openstreetmap.org","kind":"major_road","sort_rank":380,"kind_detail":"primary","ref":"A34","min_zoom":8.0,"id":25989533},"arcs":[114]},{"type":"LineString","properties":{"kind":"major_road","name:en":"Chapel Street","sort_rank":377,"kind_detail":"tertiary","is_bicycle_related":true,"bus_network":"Isle of Anglesey","bicycle_shield_text":"566","bicycle_network":"ncn","source":"openstreetmap.org","min_zoom":8.0,"bus_shield_text":"62","id":23645293},"arcs":[115]},{"type":"LineString","properties":{"kind":"major_road","sort_rank":379,"kind_detail":"secondary","is_bicycle_related":true,"bicycle_shield_text":"1","bicycle_network":"ncn","source":"openstreetmap.org","min_zoom":8.0,"ref":"B24"},"arcs":[116]},{"type":"LineString","properties":{"kind":"major_road","sort_rank":380,"kind_detail":"primary","is_bicycle_related":true,"bicycle_shield_text":"1","bicycle_network":"ncn","source":"openstreetmap.org","min_zoom":8.0,"name:gv":"Shenn Raad Balley Cashtal","ref":"A25"},"arcs":[117]},{"type":"LineString","properties":{"kind":"major_road","sort_rank":381,"landuse_kind":"residential","source":"openstreetmap.org","min_zoom":8.0,"kind_detail":"trunk","ref":"A2","id":25989313},"arcs":[118]},{"type":"LineString","properties":{"kind":"major_road","sort_rank":380,"kind_detail":"primary","bus_network":"Isle of Man Public Transport","source":"openstreetmap.org","min_zoom":8.0,"name:gv":"Straid Varriaght","bus_shield_text":"2A","landuse_kind":"urban_area","ref":"A42","id":25988428},"arcs":[119]},{"type":"LineString","properties":{"kind":"major_road","sort_rank":380,"landuse_kind":"residential","source":"openstreetmap.org","min_zoom":8.0,"kind_detail":"primary","ref":"A47","id":25989058},"arcs":[120]},{"type":"LineString","properties":{"sort_rank":355,"source":"openstreetmap.org","min_zoom":8.0,"name":"Dublin - Holyhead (Irish Ferries)","kind":"ferry"},"arcs":[121]},{"type":"LineString","properties":{"bus_network":"Isle of Man Public Transport","sort_rank":380,"kind_detail":"primary","kind":"major_road","source":"openstreetmap.org","min_zoom":8.0,"bus_shield_text":"2A","landuse_kind":"urban_area","ref":"A1"},"arcs":[122]},{"type":"LineString","properties":{"bus_network":"Isle of Man Public Transport","sort_rank":380,"kind_detail":"primary","kind":"major_road","source":"openstreetmap.org","min_zoom":8.0,"bus_shield_text":"2A","landuse_kind":"urban_area","ref":"A42"},"arcs":[123]},{"type":"MultiLineString","properties":{"bus_network":"Isle of Man Public Transport","sort_rank":381,"kind_detail":"trunk","kind":"major_road","source":"openstreetmap.org","min_zoom":8.0,"bus_shield_text":"21B","ref":"A6"},"arcs":[[124],[125],[126],[127],[128],[129],[130]]},{"type":"MultiLineString","properties":{"kind":"major_road","sort_rank":377,"kind_detail":"tertiary","is_bicycle_related":true,"bicycle_shield_text":"5","bicycle_network":"ncn","source":"openstreetmap.org","min_zoom":8.0},"arcs":[[131],[132]]},{"type":"MultiLineString","properties":{"bus_network":"Isle of Man Public Transport","sort_rank":381,"kind_detail":"trunk","is_bicycle_related":true,"kind":"major_road","cycleway":"lane","source":"openstreetmap.org","min_zoom":8.0,"bus_shield_text":"5A","landuse_kind":"urban_area","ref":"A1"},"arcs":[[133],[134]]},{"type":"LineString","properties":{"bus_network":"Isle of Man Public Transport","sort_rank":381,"kind_detail":"trunk","is_bicycle_related":true,"kind":"major_road","bicycle_shield_text":"3","bicycle_network":"ncn","source":"openstreetmap.org","min_zoom":8.0,"name:gv":"Eaad Ny Traie","bus_shield_text":null,"ref":"A31"},"arcs":[135]},{"type":"LineString","properties":{"bus_network":"Isle of Man Public Transport","sort_rank":381,"landuse_kind":"urban_area","kind":"major_road","source":"openstreetmap.org","min_zoom":8.0,"bus_shield_text":"9","kind_detail":"trunk","ref":"A5"},"arcs":[136]},{"type":"LineString","properties":{"kind":"major_road","name:en":"Machine Street","sort_rank":377,"kind_detail":"tertiary","is_bicycle_related":true,"bicycle_shield_text":"566","bicycle_network":"ncn","source":"openstreetmap.org","min_zoom":8.0,"id":121289394},"arcs":[137]},{"type":"LineString","properties":{"bus_network":"Isle of Man Public Transport","sort_rank":381,"kind_detail":"trunk","kind":"major_road","source":"openstreetmap.org","min_zoom":8.0,"bus_shield_text":"4C","ref":"A3"},"arcs":[138]},{"type":"LineString","properties":{"kind":"major_road","sort_rank":380,"kind_detail":"primary","bus_network":"Isle of Man Public Transport","source":"openstreetmap.org","min_zoom":8.0,"name:gv":"Straid Y Chiarn","bus_shield_text":"2A","ref":"A1","id":38595739},"arcs":[139]},{"type":"LineString","properties":{"kind":"major_road","sort_rank":379,"kind_detail":"secondary","is_bicycle_related":true,"bus_network":"Isle of Man Public Transport","bicycle_shield_text":"3b","bicycle_network":"ncn","source":"openstreetmap.org","min_zoom":8.0,"name:gv":"Raad y Stashoon","bus_shield_text":"2","ref":"B18","id":25986049},"arcs":[140]},{"type":"LineString","properties":{"kind":"major_road","sort_rank":380,"kind_detail":"primary","bus_network":"Isle of Man Public Transport","source":"openstreetmap.org","min_zoom":8.0,"bus_shield_text":"3A","ref":"A8","id":372961587},"arcs":[141]},{"type":"MultiLineString","properties":{"source":"openstreetmap.org","kind":"major_road","sort_rank":380,"kind_detail":"primary","ref":"A41","min_zoom":8.0},"arcs":[[142],[143]]},{"type":"LineString","properties":{"bus_network":"Isle of Man Public Transport","sort_rank":381,"kind_detail":"trunk","kind":"major_road","source":"openstreetmap.org","min_zoom":8.0,"bus_shield_text":"26","landuse_kind":"residential","ref":"A2"},"arcs":[144]},{"type":"LineString","properties":{"source":"openstreetmap.org","kind":"major_road","kind_detail":"trunk","sort_rank":381,"landuse_kind":"urban_area","ref":"A2","min_zoom":8.0},"arcs":[145]},{"type":"LineString","properties":{"bus_network":"Isle of Man Public Transport","sort_rank":380,"kind_detail":"primary","kind":"major_road","source":"openstreetmap.org","min_zoom":8.0,"name:gv":"Shenn Raad Balley Cashtal","bus_shield_text":"29","ref":"A25"},"arcs":[146]},{"type":"LineString","properties":{"kind":"major_road","sort_rank":380,"kind_detail":"primary","is_bicycle_related":true,"bicycle_network":"lcn","source":"openstreetmap.org","min_zoom":8.0,"ref":"A5025","id":39271835},"arcs":[147]},{"type":"LineString","properties":{"bus_network":"Isle of Man Public Transport","sort_rank":380,"kind_detail":"primary","kind":"major_road","source":"openstreetmap.org","min_zoom":8.0,"bus_shield_text":"4C","ref":"A7"},"arcs":[148]},{"type":"LineString","properties":{"kind":"major_road","sort_rank":380,"kind_detail":"primary","bus_network":"Isle of Man Public Transport","source":"openstreetmap.org","min_zoom":8.0,"name:gv":"Raad Balleygawne","bus_shield_text":null,"ref":"A7","id":113526362},"arcs":[149]},{"type":"MultiLineString","properties":{"bus_network":"Isle of Man Public Transport","sort_rank":381,"kind_detail":"trunk","kind":"major_road","source":"openstreetmap.org","min_zoom":8.0,"bus_shield_text":"4C","ref":"A6"},"arcs":[[150],[151],[152],[153]]},{"type":"LineString","properties":{"kind":"major_road","sort_rank":380,"kind_detail":"primary","is_bicycle_related":true,"bicycle_shield_text":"566","cycleway":"track","source":"openstreetmap.org","min_zoom":8.0,"bicycle_network":"ncn","ref":"A5025","id":138746712},"arcs":[154]},{"type":"MultiLineString","properties":{"bus_network":"Isle of Man Public Transport","sort_rank":380,"kind_detail":"primary","kind":"major_road","source":"openstreetmap.org","min_zoom":8.0,"bus_shield_text":"4C","ref":"A24"},"arcs":[[155],[156],[157],[158]]},{"type":"LineString","properties":{"kind":"major_road","sort_rank":380,"landuse_kind":"urban_area","source":"openstreetmap.org","min_zoom":8.0,"kind_detail":"primary","ref":"A22","id":163036515},"arcs":[159]},{"type":"LineString","properties":{"kind":"major_road","sort_rank":379,"kind_detail":"secondary","is_bicycle_related":true,"bicycle_shield_text":"1","bicycle_network":"ncn","source":"openstreetmap.org","min_zoom":8.0,"ref":"B35","id":25985979},"arcs":[160]},{"type":"MultiLineString","properties":{"bus_network":"Isle of Man Public Transport","sort_rank":380,"kind_detail":"primary","kind":"major_road","source":"openstreetmap.org","min_zoom":8.0,"bus_shield_text":"2A","landuse_kind":"urban_area"},"arcs":[[161],[162],[163]]},{"type":"LineString","properties":{"kind":"major_road","sort_rank":381,"kind_detail":"trunk","bus_network":"Isle of Man Public Transport","source":"openstreetmap.org","min_zoom":8.0,"name:gv":"Raad y Stashoon","bus_shield_text":"2","ref":"A29","id":27210580},"arcs":[164]},{"type":"LineString","properties":{"bus_network":"Isle of Man Public Transport","sort_rank":380,"kind_detail":"primary","kind":"major_road","source":"openstreetmap.org","min_zoom":8.0,"bus_shield_text":"3A","landuse_kind":"urban_area","ref":"A33"},"arcs":[165]},{"type":"LineString","properties":{"kind":"major_road","name:en":"Chapel street","sort_rank":377,"kind_detail":"tertiary","is_bicycle_related":true,"bicycle_shield_text":"566","bicycle_network":"ncn","source":"openstreetmap.org","min_zoom":8.0,"id":88830715},"arcs":[166]},{"type":"LineString","properties":{"kind":"major_road","sort_rank":380,"kind_detail":"primary","is_bicycle_related":true,"bicycle_shield_text":"2","bicycle_network":"ncn","source":"openstreetmap.org","min_zoom":8.0,"id":25986102},"arcs":[167]},{"type":"MultiLineString","properties":{"bus_network":"Isle of Man Public Transport","sort_rank":380,"kind_detail":"primary","kind":"major_road","source":"openstreetmap.org","min_zoom":8.0,"bus_shield_text":"8R","ref":"A36"},"arcs":[[168],[169],[170],[171]]},{"type":"LineString","properties":{"kind":"minor_road","sort_rank":360,"kind_detail":"unclassified","is_bicycle_related":true,"bicycle_shield_text":"1","bicycle_network":"ncn","source":"openstreetmap.org","min_zoom":8.0},"arcs":[172]},{"type":"MultiLineString","properties":{"source":"openstreetmap.org","kind":"major_road","sort_rank":380,"kind_detail":"primary","ref":"A8","min_zoom":8.0},"arcs":[[173],[174]]},{"type":"LineString","properties":{"kind":"major_road","sort_rank":380,"kind_detail":"primary","bus_network":"Isle of Man Public Transport","source":"openstreetmap.org","min_zoom":8.0,"bus_shield_text":"3A","ref":"A41","id":25989060},"arcs":[175]},{"type":"LineString","properties":{"kind":"major_road","sort_rank":380,"kind_detail":"primary","bus_network":"Isle of Man Public Transport","source":"openstreetmap.org","min_zoom":8.0,"bus_shield_text":"3A","landuse_kind":"urban_area","id":29169974},"arcs":[176]},{"type":"LineString","properties":{"kind":"major_road","name:en":"Tanybryn Road","sort_rank":377,"kind_detail":"tertiary","is_bicycle_related":true,"bicycle_shield_text":"566","bicycle_network":"ncn","source":"openstreetmap.org","min_zoom":8.0,"id":47405764},"arcs":[177]},{"type":"LineString","properties":{"sort_rank":355,"source":"openstreetmap.org","min_zoom":8.0,"kind":"ferry","name":"Dublin - Liverpool"},"arcs":[178]},{"type":"LineString","properties":{"kind":"major_road","sort_rank":380,"landuse_kind":"urban_area","source":"openstreetmap.org","min_zoom":8.0,"kind_detail":"primary","ref":"A44","id":38054632},"arcs":[179]},{"type":"MultiLineString","properties":{"bus_network":"Isle of Man Public Transport","sort_rank":381,"landuse_kind":"urban_area","kind":"major_road","source":"openstreetmap.org","min_zoom":8.0,"name:gv":"Raad Thie ny Taggyrt","bus_shield_text":"21H","kind_detail":"trunk","ref":"A6"},"arcs":[[180],[181],[182],[183],[184],[185],[186]]},{"type":"LineString","properties":{"kind":"minor_road","sort_rank":360,"kind_detail":"unclassified","is_bicycle_related":true,"bicycle_shield_text":"2a","bicycle_network":"ncn","source":"openstreetmap.org","min_zoom":8.0},"arcs":[187]},{"type":"LineString","properties":{"bus_network":"Isle of Man Public Transport","sort_rank":379,"kind_detail":"secondary","is_bicycle_related":true,"kind":"major_road","bicycle_shield_text":"3b","bicycle_network":"ncn","source":"openstreetmap.org","min_zoom":8.0,"name:gv":"Y Traaid Vooar","bus_shield_text":"1H","ref":"B18","id":25989605},"arcs":[188]},{"type":"MultiLineString","properties":{"source":"openstreetmap.org","kind":"major_road","name:gv":"Shenn Raad Balley Cashtal","sort_rank":380,"kind_detail":"primary","ref":"A25","min_zoom":8.0},"arcs":[[189],[190]]},{"type":"LineString","properties":{"kind":"major_road","sort_rank":380,"kind_detail":"primary","bus_network":"Isle of Man Public Transport","source":"openstreetmap.org","min_zoom":8.0,"bus_shield_text":"X3","landuse_kind":"residential","ref":"A46","id":39187487},"arcs":[191]},{"type":"LineString","properties":{"source":"openstreetmap.org","bus_network":"Isle of Man Public Transport","bus_shield_text":"3A","sort_rank":380,"kind_detail":"primary","min_zoom":8.0,"kind":"major_road"},"arcs":[192]},{"type":"MultiLineString","properties":{"bus_network":"Isle of Man Public Transport","sort_rank":380,"kind_detail":"primary","kind":"major_road","source":"openstreetmap.org","min_zoom":8.0,"bus_shield_text":"8R","ref":"A7"},"arcs":[[193],[194]]},{"type":"LineString","properties":{"source":"openstreetmap.org","kind":"major_road","name:en":"Bull Bay Road","sort_rank":380,"kind_detail":"primary","ref":"A5025","min_zoom":8.0},"arcs":[195]},{"type":"LineString","properties":{"kind":"minor_road","sort_rank":358,"kind_detail":"service","is_bicycle_related":true,"bicycle_shield_text":"2","bicycle_network":"ncn","source":"openstreetmap.org","min_zoom":8.0,"id":25988464},"arcs":[196]},{"type":"LineString","properties":{"kind":"major_road","sort_rank":380,"kind_detail":"primary","source":"openstreetmap.org","min_zoom":8.0,"name:gv":"Kerrin Peveril","ref":"A8","id":25987719},"arcs":[197]},{"type":"LineString","properties":{"kind":"major_road","sort_rank":381,"kind_detail":"trunk","is_bicycle_related":true,"bus_network":"Isle of Man Public Transport","cycleway":"track","source":"openstreetmap.org","min_zoom":8.0,"bus_shield_text":"5A","landuse_kind":"urban_area","ref":"A1","id":28708923},"arcs":[198]},{"type":"LineString","properties":{"bus_network":"Isle of Man Public Transport","sort_rank":380,"kind_detail":"primary","kind":"major_road","source":"openstreetmap.org","min_zoom":8.0,"name:gv":"Kerrin Oonlee","bus_shield_text":"2A","ref":"A8"},"arcs":[199]},{"type":"LineString","properties":{"source":"openstreetmap.org","bus_network":"Isle of Anglesey","bus_shield_text":"62","sort_rank":380,"kind_detail":"primary","min_zoom":8.0,"kind":"major_road"},"arcs":[200]},{"type":"LineString","properties":{"sort_rank":355,"source":"openstreetmap.org","min_zoom":8.0,"name":"Isle of Man - Heysham","kind":"ferry"},"arcs":[201]},{"type":"LineString","properties":{"kind":"minor_road","sort_rank":360,"kind_detail":"residential","is_bicycle_related":true,"bicycle_shield_text":"2","bicycle_network":"ncn","source":"openstreetmap.org","min_zoom":8.0,"id":26944615},"arcs":[202]},{"type":"LineString","properties":{"kind":"major_road","sort_rank":379,"kind_detail":"secondary","is_bicycle_related":true,"bicycle_shield_text":"2","bicycle_network":"ncn","source":"openstreetmap.org","min_zoom":8.0,"ref":"B29"},"arcs":[203]},{"type":"LineString","properties":{"kind":"minor_road","sort_rank":360,"kind_detail":"unclassified","is_bicycle_related":true,"bicycle_shield_text":"2b","bicycle_network":"ncn","source":"openstreetmap.org","min_zoom":8.0},"arcs":[204]},{"type":"LineString","properties":{"source":"openstreetmap.org","kind":"major_road","landuse_kind":"residential","sort_rank":380,"kind_detail":"primary","ref":"A22","min_zoom":8.0},"arcs":[205]},{"type":"LineString","properties":{"kind":"major_road","sort_rank":379,"kind_detail":"secondary","is_bicycle_related":true,"bicycle_shield_text":"2","bicycle_network":"ncn","source":"openstreetmap.org","min_zoom":8.0,"ref":"B30"},"arcs":[206]},{"type":"LineString","properties":{"source":"openstreetmap.org","kind":"major_road","sort_rank":380,"kind_detail":"primary","ref":"A25","min_zoom":8.0,"id":25986612},"arcs":[207]},{"type":"LineString","properties":{"kind":"major_road","sort_rank":380,"kind_detail":"primary","bus_network":"Isle of Man Public Transport","source":"openstreetmap.org","min_zoom":8.0,"bus_shield_text":"5A","landuse_kind":"urban_area","ref":"A1","id":452791563},"arcs":[208]},{"type":"LineString","properties":{"kind":"major_road","sort_rank":380,"kind_detail":"primary","is_bicycle_related":true,"bicycle_shield_text":"2","bicycle_network":"ncn","source":"openstreetmap.org","min_zoom":8.0,"ref":"A34"},"arcs":[209]},{"type":"MultiLineString","properties":{"source":"openstreetmap.org","kind":"major_road","sort_rank":380,"kind_detail":"primary","ref":"A5025","min_zoom":8.0},"arcs":[[210],[211],[212],[213],[214],[215],[216],[217],[218],[219]]},{"type":"LineString","properties":{"sort_rank":355,"source":"openstreetmap.org","min_zoom":8.0,"name":"Isle of Man - Dublin","kind":"ferry"},"arcs":[220]},{"type":"LineString","properties":{"kind":"major_road","sort_rank":381,"kind_detail":"trunk","is_bicycle_related":true,"bus_network":"Isle of Man Public Transport","bicycle_shield_text":"1","bicycle_network":"ncn","source":"openstreetmap.org","min_zoom":8.0,"bus_shield_text":null,"ref":"A5","id":38753831},"arcs":[221]},{"type":"MultiLineString","properties":{"kind":"minor_road","sort_rank":360,"kind_detail":"residential","is_bicycle_related":true,"bicycle_shield_text":"3","bicycle_network":"ncn","source":"openstreetmap.org","min_zoom":8.0},"arcs":[[222],[223]]},{"type":"MultiLineString","properties":{"bus_network":"Isle of Man Public Transport","sort_rank":381,"kind_detail":"trunk","is_bicycle_related":true,"kind":"major_road","bicycle_shield_text":"2","bicycle_network":"ncn","source":"openstreetmap.org","min_zoom":8.0,"bus_shield_text":"4C","ref":"A5"},"arcs":[[224],[225],[226],[227],[228],[229],[230],[231],[232]]},{"type":"LineString","properties":{"kind":"major_road","sort_rank":380,"kind_detail":"primary","bus_network":"Isle of Man Public Transport","source":"openstreetmap.org","min_zoom":8.0,"bus_shield_text":"3A","landuse_kind":"urban_area","ref":"A44","id":26987235},"arcs":[233]},{"type":"MultiLineString","properties":{"bus_network":"Isle of Man Public Transport","sort_rank":380,"kind_detail":"primary","kind":"major_road","source":"openstreetmap.org","min_zoom":8.0,"bus_shield_text":"8R","ref":"A27"},"arcs":[[234],[235]]},{"type":"LineString","properties":{"kind":"major_road","sort_rank":380,"kind_detail":"primary","source":"openstreetmap.org","min_zoom":8.0,"name:gv":"Straid Y Chiarn","ref":"A1","id":452791558},"arcs":[236]},{"type":"LineString","properties":{"kind":"major_road","sort_rank":380,"kind_detail":"primary","bus_network":"Isle of Anglesey","source":"openstreetmap.org","min_zoom":8.0,"bus_shield_text":"32","id":39437680},"arcs":[237]},{"type":"LineString","properties":{"kind":"major_road","sort_rank":380,"kind_detail":"primary","is_bicycle_related":true,"bicycle_shield_text":"3","bicycle_network":"ncn","source":"openstreetmap.org","min_zoom":8.0,"name:gv":"Raad Vradda","ref":"A32","id":25986425},"arcs":[238]},{"type":"MultiLineString","properties":{"bus_network":"Isle of Man Public Transport","sort_rank":381,"kind_detail":"trunk","kind":"major_road","source":"openstreetmap.org","min_zoom":8.0,"bus_shield_text":"2","ref":"A5"},"arcs":[[239],[240],[241],[242]]},{"type":"LineString","properties":{"kind":"minor_road","sort_rank":360,"kind_detail":"residential","is_bicycle_related":true,"bicycle_shield_text":"2","bicycle_network":"ncn","source":"openstreetmap.org","min_zoom":8.0,"name:gv":"Straid Valen"},"arcs":[243]},{"type":"LineString","properties":{"bus_network":"Isle of Man Public Transport","sort_rank":379,"kind_detail":"secondary","is_bicycle_related":true,"kind":"major_road","bicycle_shield_text":"3b","bicycle_network":"ncn","source":"openstreetmap.org","min_zoom":8.0,"name:gv":"Straad Athol","bus_shield_text":"1H","ref":"B18"},"arcs":[244]},{"type":"LineString","properties":{"source":"openstreetmap.org","bus_network":"Isle of Man Public Transport","bus_shield_text":"5A","sort_rank":380,"kind_detail":"primary","min_zoom":8.0,"kind":"major_road"},"arcs":[245]},{"type":"MultiLineString","properties":{"bus_network":"Isle of Man Public Transport","sort_rank":380,"kind_detail":"primary","is_bicycle_related":true,"kind":"major_road","bicycle_shield_text":"3","bicycle_network":"ncn","source":"openstreetmap.org","min_zoom":8.0,"bus_shield_text":"8R","ref":"A7"},"arcs":[[246],[247]]},{"type":"LineString","properties":{"source":"openstreetmap.org","kind":"ferry","name":"Dublin - Holyhead (Irish Ferries) (fast)","sort_rank":355,"is_bicycle_related":true,"min_zoom":8.0},"arcs":[248]},{"type":"LineString","properties":{"kind":"major_road","sort_rank":380,"kind_detail":"primary","bus_network":"Isle of Man Public Transport","source":"openstreetmap.org","min_zoom":8.0,"name:gv":"Kerrin Peveril","bus_shield_text":"2A","ref":"A8","id":29170047},"arcs":[249]},{"type":"LineString","properties":{"kind":"major_road","sort_rank":379,"kind_detail":"secondary","is_bicycle_related":true,"bus_network":"Isle of Man Public Transport","bicycle_shield_text":"3b","bicycle_network":"ncn","source":"openstreetmap.org","min_zoom":8.0,"name:gv":"Y Traaid Vooar","bus_shield_text":"2","ref":"B18","id":25988933},"arcs":[250]},{"type":"LineString","properties":{"kind":"major_road","sort_rank":380,"kind_detail":"primary","is_bicycle_related":true,"bus_network":"Isle of Anglesey","bicycle_shield_text":null,"bicycle_network":"lcn","source":"openstreetmap.org","min_zoom":8.0,"bus_shield_text":"62","ref":"A5025","id":4965422},"arcs":[251]},{"type":"LineString","properties":{"kind":"minor_road","sort_rank":360,"kind_detail":"unclassified","is_bicycle_related":true,"bicycle_shield_text":"1","bicycle_network":"ncn","source":"openstreetmap.org","min_zoom":8.0,"name:gv":"Raad Cooyl Cronk Murray"},"arcs":[252]},{"type":"LineString","properties":{"kind":"minor_road","sort_rank":358,"kind_detail":"service","is_bicycle_related":true,"bicycle_shield_text":"2b","bicycle_network":"ncn","source":"openstreetmap.org","min_zoom":8.0,"id":37634664},"arcs":[253]},{"type":"LineString","properties":{"source":"openstreetmap.org","kind":"major_road","sort_rank":380,"kind_detail":"primary","ref":"A27","min_zoom":8.0},"arcs":[254]},{"type":"MultiLineString","properties":{"source":"openstreetmap.org","bus_network":"Isle of Man Public Transport","bus_shield_text":"2A","sort_rank":380,"kind_detail":"primary","min_zoom":8.0,"kind":"major_road"},"arcs":[[255],[256]]},{"type":"MultiLineString","properties":{"bus_network":"Isle of Man Public Transport","sort_rank":380,"kind_detail":"primary","is_bicycle_related":true,"kind":"major_road","bicycle_shield_text":"3","bicycle_network":"ncn","source":"openstreetmap.org","min_zoom":8.0,"bus_shield_text":null,"ref":"A7"},"arcs":[[257],[258]]},{"type":"MultiLineString","properties":{"kind":"major_road","sort_rank":381,"kind_detail":"trunk","is_bicycle_related":true,"bicycle_shield_text":"2","bicycle_network":"ncn","source":"openstreetmap.org","min_zoom":8.0,"ref":"A5"},"arcs":[[259],[260],[261]]},{"type":"LineString","properties":{"bus_network":"Isle of Man Public Transport","alt_name:en":"Bayview Road","sort_rank":379,"kind_detail":"secondary","is_bicycle_related":true,"kind":"major_road","bicycle_shield_text":"3b","bicycle_network":"ncn","source":"openstreetmap.org","min_zoom":8.0,"name:gv":"Reayrt y Vaie","bus_shield_text":"2","ref":"B18","id":158617621},"arcs":[262]},{"type":"LineString","properties":{"kind":"major_road","sort_rank":381,"kind_detail":"trunk","is_bicycle_related":true,"bus_network":"Isle of Man Public Transport","cycleway":"lane","source":"openstreetmap.org","min_zoom":8.0,"bus_shield_text":"5A","landuse_kind":"residential","ref":"A1","id":289707424},"arcs":[263]},{"type":"MultiLineString","properties":{"bus_network":"Isle of Man Public Transport","sort_rank":380,"kind_detail":"primary","is_bicycle_related":true,"kind":"major_road","bicycle_shield_text":"3","bicycle_network":"ncn","source":"openstreetmap.org","min_zoom":8.0,"name:gv":"Raad Balleygawne","bus_shield_text":null,"ref":"A7"},"arcs":[[264],[265]]},{"type":"LineString","properties":{"sort_rank":355,"source":"openstreetmap.org","min_zoom":8.0,"name":"Belfast - Liverpool (Birkenhead)","kind":"ferry"},"arcs":[266]},{"type":"MultiLineString","properties":{"source":"openstreetmap.org","kind":"major_road","sort_rank":380,"kind_detail":"primary","ref":"A26","min_zoom":8.0},"arcs":[[267],[268],[269],[270]]},{"type":"LineString","properties":{"kind":"major_road","sort_rank":380,"kind_detail":"primary","bus_network":"Isle of Man Public Transport","source":"openstreetmap.org","min_zoom":8.0,"bus_shield_text":"28","ref":"A31","id":38555512},"arcs":[271]},{"type":"LineString","properties":{"kind":"major_road","sort_rank":380,"kind_detail":"primary","is_bicycle_related":true,"bus_network":"Isle of Man Public Transport","bicycle_shield_text":"2","bicycle_network":"ncn","source":"openstreetmap.org","min_zoom":8.0,"bus_shield_text":"4C","ref":"A26","id":25986857},"arcs":[272]},{"type":"LineString","properties":{"source":"openstreetmap.org","kind":"ferry","name":"Belfast - Isle of Man","sort_rank":355,"min_zoom":8.0,"id":399048768},"arcs":[273]},{"type":"LineString","properties":{"sort_rank":355,"source":"openstreetmap.org","min_zoom":8.0,"name":"Dublin - Holyhead (Stena)","kind":"ferry"},"arcs":[274]},{"type":"LineString","properties":{"sort_rank":355,"source":"openstreetmap.org","min_zoom":8.0,"name":"Heysham - Warrenpoint (Freight Only)","kind":"ferry"},"arcs":[275]},{"type":"LineString","properties":{"bus_network":"Isle of Man Public Transport","sort_rank":381,"landuse_kind":"urban_area","kind":"major_road","source":"openstreetmap.org","min_zoom":8.0,"bus_shield_text":"21H","kind_detail":"trunk","ref":"A6"},"arcs":[276]},{"type":"LineString","properties":{"kind":"major_road","sort_rank":381,"kind_detail":"trunk","bus_network":"Isle of Man Public Transport","source":"openstreetmap.org","min_zoom":8.0,"bus_shield_text":"21H","landuse_kind":"urban_area","ref":"A5","id":436942259},"arcs":[277]},{"type":"LineString","properties":{"kind":"major_road","sort_rank":380,"kind_detail":"primary","bus_network":"Isle of Man Public Transport","source":"openstreetmap.org","min_zoom":8.0,"name:gv":"Straid Y Chiarn","bus_shield_text":"5A","ref":"A1","id":38595740},"arcs":[278]},{"type":"LineString","properties":{"kind":"path","sort_rank":354,"kind_detail":"cycleway","is_bicycle_related":true,"bus_network":"Isle of Anglesey","bicycle_shield_text":"566","bicycle_network":"ncn","source":"openstreetmap.org","min_zoom":8.0,"bus_shield_text":"62","id":138742972},"arcs":[279]},{"type":"LineString","properties":{"bus_network":"Isle of Man Public Transport","sort_rank":380,"kind_detail":"primary","kind":"major_road","source":"openstreetmap.org","min_zoom":8.0,"bus_shield_text":"3A","landuse_kind":"residential","ref":"A42"},"arcs":[280]},{"type":"LineString","properties":{"kind":"major_road","sort_rank":381,"kind_detail":"trunk","bus_network":"Isle of Man Public Transport","source":"openstreetmap.org","min_zoom":8.0,"bus_shield_text":"8R","ref":"A3","id":154246851},"arcs":[281]},{"type":"LineString","properties":{"kind":"major_road","name:en":"Burwen Road","sort_rank":379,"kind_detail":"secondary","is_bicycle_related":true,"bicycle_shield_text":"566","bicycle_network":"ncn","source":"openstreetmap.org","min_zoom":8.0,"ref":"B5111","id":138743853},"arcs":[282]},{"type":"LineString","properties":{"kind":"major_road","sort_rank":380,"kind_detail":"primary","bus_network":"Isle of Man Public Transport","source":"openstreetmap.org","min_zoom":8.0,"bus_shield_text":"2A","ref":"A7","id":25987743},"arcs":[283]},{"type":"LineString","properties":{"kind":"major_road","sort_rank":379,"kind_detail":"secondary","is_bicycle_related":true,"bus_network":"Isle of Man Public Transport","bicycle_shield_text":"3b","bicycle_network":"ncn","source":"openstreetmap.org","min_zoom":8.0,"name:gv":"Raad y Phairk","bus_shield_text":"1H","ref":"B28","id":25987989},"arcs":[284]},{"type":"LineString","properties":{"kind":"major_road","sort_rank":379,"kind_detail":"secondary","is_bicycle_related":true,"bicycle_shield_text":"3a","bicycle_network":"ncn","source":"openstreetmap.org","min_zoom":8.0,"ref":"B47"},"arcs":[285]},{"type":"LineString","properties":{"bus_network":"Isle of Man Public Transport","sort_rank":380,"kind_detail":"primary","is_bicycle_related":true,"kind":"major_road","bicycle_shield_text":"3","bicycle_network":"ncn","source":"openstreetmap.org","min_zoom":8.0,"name:gv":"Raad Cheyllys","bus_shield_text":"28","ref":"A31"},"arcs":[286]},{"type":"MultiLineString","properties":{"kind":"minor_road","sort_rank":360,"kind_detail":"unclassified","is_bicycle_related":true,"bicycle_shield_text":"5","bicycle_network":"ncn","source":"openstreetmap.org","min_zoom":8.0},"arcs":[[287],[288],[289]]},{"type":"LineString","properties":{"kind":"path","sort_rank":354,"kind_detail":"pedestrian","is_bicycle_related":true,"bicycle_shield_text":"2","bicycle_network":"ncn","source":"openstreetmap.org","min_zoom":8.0,"name:gv":"Straid Valen"},"arcs":[290]},{"type":"LineString","properties":{"kind":"major_road","sort_rank":380,"kind_detail":"primary","bus_network":"Isle of Man Public Transport","source":"openstreetmap.org","min_zoom":8.0,"name:gv":"Straid Pharaid","bus_shield_text":"3A","ref":"A8","id":186421886},"arcs":[291]},{"type":"LineString","properties":{"source":"openstreetmap.org","kind":"major_road","sort_rank":380,"kind_detail":"primary","ref":"A5108","min_zoom":8.0},"arcs":[292]},{"type":"MultiLineString","properties":{"bus_network":"Isle of Man Public Transport","sort_rank":380,"kind_detail":"primary","kind":"major_road","source":"openstreetmap.org","min_zoom":8.0,"bus_shield_text":"2A","landuse_kind":"residential"},"arcs":[[293],[294],[295]]},{"type":"LineString","properties":{"sort_rank":355,"source":"openstreetmap.org","min_zoom":8.0,"name":"Isle of Man - Liverpool","kind":"ferry"},"arcs":[296]},{"type":"LineString","properties":{"kind":"major_road","sort_rank":380,"kind_detail":"primary","bus_network":"Isle of Anglesey","source":"openstreetmap.org","min_zoom":8.0,"bus_shield_text":"32","ref":"A5025","id":39437683},"arcs":[297]},{"type":"MultiLineString","properties":{"bus_network":"Isle of Man Public Transport","sort_rank":381,"landuse_kind":"urban_area","kind":"major_road","source":"openstreetmap.org","min_zoom":8.0,"bus_shield_text":"4C","kind_detail":"trunk","ref":"A6"},"arcs":[[298],[299],[300],[301],[302],[303]]},{"type":"LineString","properties":{"kind":"major_road","sort_rank":380,"kind_detail":"primary","is_bicycle_related":true,"bicycle_shield_text":"2","bicycle_network":"ncn","source":"openstreetmap.org","min_zoom":8.0,"ref":"A26"},"arcs":[304]},{"type":"LineString","properties":{"bus_network":"Isle of Man Public Transport","sort_rank":380,"kind_detail":"primary","kind":"major_road","source":"openstreetmap.org","min_zoom":8.0,"name:gv":"Straid Varriaght","bus_shield_text":"3A","ref":"A42"},"arcs":[305]},{"type":"LineString","properties":{"bus_network":"Isle of Man Public Transport","sort_rank":380,"kind_detail":"primary","is_bicycle_related":true,"kind":"major_road","bicycle_shield_text":"3","bicycle_network":"ncn","source":"openstreetmap.org","min_zoom":8.0,"bus_shield_text":null,"ref":"A28"},"arcs":[306]},{"type":"LineString","properties":{"kind":"major_road","name:en":"Parys Road","sort_rank":377,"kind_detail":"tertiary","is_bicycle_related":true,"bicycle_shield_text":"566","bicycle_network":"ncn","source":"openstreetmap.org","min_zoom":8.0},"arcs":[307]},{"type":"MultiLineString","properties":{"bus_network":"Isle of Man Public Transport","sort_rank":381,"kind_detail":"trunk","kind":"major_road","source":"openstreetmap.org","min_zoom":8.0,"bus_shield_text":"4C","ref":"A5"},"arcs":[[308],[309],[310]]},{"type":"MultiLineString","properties":{"bus_network":"Isle of Man Public Transport","sort_rank":381,"kind_detail":"trunk","kind":"major_road","source":"openstreetmap.org","min_zoom":8.0,"name:gv":"Raad Thie ny Taggyrt","bus_shield_text":"21H","ref":"A6"},"arcs":[[311],[312],[313],[314]]},{"type":"LineString","properties":{"kind":"major_road","sort_rank":380,"landuse_kind":"urban_area","source":"openstreetmap.org","min_zoom":8.0,"kind_detail":"primary","ref":"A43","id":38335797},"arcs":[315]},{"type":"LineString","properties":{"kind":"major_road","sort_rank":380,"kind_detail":"primary","bus_network":"Isle of Man Public Transport","source":"openstreetmap.org","min_zoom":8.0,"bus_shield_text":"5A","ref":"A1","id":452791563},"arcs":[316]},{"type":"LineString","properties":{"kind":"minor_road","sort_rank":360,"kind_detail":"residential","is_bicycle_related":true,"bicycle_shield_text":"566","bicycle_network":"ncn","source":"openstreetmap.org","min_zoom":8.0,"id":454723980},"arcs":[317]},{"type":"LineString","properties":{"bus_network":"Isle of Man Public Transport","sort_rank":380,"kind_detail":"primary","kind":"major_road","source":"openstreetmap.org","min_zoom":8.0,"name:gv":"Straid Varriaght","bus_shield_text":"2A","ref":"A42"},"arcs":[318]},{"type":"LineString","properties":{"bus_network":"Isle of Man Public Transport","sort_rank":380,"landuse_kind":"urban_area","kind":"major_road","source":"openstreetmap.org","min_zoom":8.0,"name:gv":"Shenn Raad Balley Cashtal","bus_shield_text":"29","kind_detail":"primary","ref":"A25"},"arcs":[319]},{"type":"LineString","properties":{"kind":"minor_road","sort_rank":360,"kind_detail":"unclassified","is_bicycle_related":true,"bicycle_shield_text":"3","bicycle_network":"ncn","source":"openstreetmap.org","min_zoom":8.0,"name:gv":"Bayr Ny Traie","id":38773783},"arcs":[320]},{"type":"MultiLineString","properties":{"bus_network":"Isle of Man Public Transport","sort_rank":381,"landuse_kind":"urban_area","kind":"major_road","source":"openstreetmap.org","min_zoom":8.0,"bus_shield_text":"5A","kind_detail":"trunk","ref":"A1"},"arcs":[[321],[322]]},{"type":"LineString","properties":{"kind":"major_road","sort_rank":381,"kind_detail":"trunk","is_bicycle_related":true,"bicycle_shield_text":"2","bicycle_network":"ncn","source":"openstreetmap.org","min_zoom":8.0,"ref":"A3"},"arcs":[323]},{"type":"LineString","properties":{"kind":"major_road","sort_rank":380,"kind_detail":"primary","is_bicycle_related":true,"bicycle_shield_text":"2","bicycle_network":"ncn","source":"openstreetmap.org","min_zoom":8.0,"ref":"A7"},"arcs":[324]},{"type":"LineString","properties":{"kind":"ferry","network":"e-road","sort_rank":355,"source":"openstreetmap.org","min_zoom":8.0,"all_networks":["e-road"],"shield_text":"20","all_shield_texts":["20"],"name":"Dublin - Liverpool"},"arcs":[325]},{"type":"LineString","properties":{"bus_network":"Isle of Man Public Transport","sort_rank":380,"kind_detail":"primary","is_bicycle_related":true,"kind":"major_road","bicycle_shield_text":"3","bicycle_network":"ncn","source":"openstreetmap.org","min_zoom":8.0,"name:gv":"Yn Shoolaghan","bus_shield_text":"28","ref":"A32"},"arcs":[326]},{"type":"LineString","properties":{"kind":"major_road","sort_rank":380,"kind_detail":"primary","source":"openstreetmap.org","min_zoom":8.0,"name:gv":"Straid Pharaid","ref":"A8","id":25986075},"arcs":[327]},{"type":"LineString","properties":{"bus_network":"Isle of Man Public Transport","sort_rank":379,"kind_detail":"secondary","is_bicycle_related":true,"kind":"major_road","bicycle_shield_text":"1","bicycle_network":"ncn","source":"openstreetmap.org","min_zoom":8.0,"name:gv":"Bayr Glion Purt Soderick","bus_shield_text":"29","ref":"B23"},"arcs":[328]},{"type":"LineString","properties":{"bus_network":"Isle of Man Public Transport","sort_rank":380,"kind_detail":"primary","is_bicycle_related":true,"kind":"major_road","bicycle_shield_text":"3","bicycle_network":"ncn","source":"openstreetmap.org","min_zoom":8.0,"name:gv":"Yn Shoolaghan","bus_shield_text":"2A","ref":"A32"},"arcs":[329]},{"type":"LineString","properties":{"kind":"major_road","name:en":"Mona Street","sort_rank":379,"kind_detail":"secondary","is_bicycle_related":true,"bicycle_shield_text":"566","bicycle_network":"ncn","source":"openstreetmap.org","min_zoom":8.0,"ref":"B5111","id":43658878},"arcs":[330]},{"type":"MultiLineString","properties":{"kind":"minor_road","sort_rank":360,"kind_detail":"unclassified","is_bicycle_related":true,"bicycle_shield_text":"2","bicycle_network":"ncn","source":"openstreetmap.org","min_zoom":8.0},"arcs":[[331],[332],[333],[334]]},{"type":"MultiLineString","properties":{"bus_network":"Isle of Man Public Transport","sort_rank":381,"kind_detail":"trunk","kind":"major_road","source":"openstreetmap.org","min_zoom":8.0,"name:gv":"Raad Thie ny Taggyrt","bus_shield_text":"21B","ref":"A6"},"arcs":[[335],[336],[337]]}]},"earth":{"type":"GeometryCollection","geometries":[{"type":"MultiPolygon","properties":{"sort_rank":10,"source":"naturalearthdata.com","min_zoom":0.0,"kind":"earth","area":29722694262},"arcs":[[[338]],[[339]],[[340]]]}]},"landuse":{"type":"GeometryCollection","geometries":[{"type":"MultiPolygon","properties":{"source":"naturalearthdata.com","kind":"urban_area","name":"","area":2504718031,"sort_rank":11,"min_zoom":4.0},"arcs":[[[341]]]},{"type":"MultiPolygon","properties":{"source":"openstreetmap.org","kind":"residential","tier":2,"area":139529961,"sort_rank":20,"min_zoom":8.0},"arcs":[[[342]]]}]}},"type":"Topology","transform":{"translate":[-5.625,53.330872983],"scale":[0.0003433228,0.0002030178]},"arcs":[[[1484,4096],[-116,-243],[-44,-262],[27,-266],[103,-266],[156,-216],[208,-168],[236,-103],[265,-40],[189,10],[198,50],[223,-15],[185,19],[190,60],[179,98],[141,118],[127,153],[307,256],[38,40]],[[0,3216],[133,233],[203,73],[170,104],[233,187],[256,283]],[[4096,1388],[-622,110],[-186,-15],[-165,-44],[-351,-15],[-321,-128],[-263,-236],[-120,-192],[-86,-296],[-151,-232],[-80,-211],[-20,-129]],[[0,3216],[133,233],[203,73],[170,104],[233,187],[256,283]],[[4096,1374],[-439,104],[-211,20],[-323,-59],[-295,-5],[-257,-74],[-279,-187],[-120,-133],[-94,-153],[-96,-315],[-140,-212],[-79,-187],[-33,-173]],[[2526,3716],[48,-22],[43,48],[114,29],[108,-91],[40,76],[80,37],[48,89],[78,-35],[58,60],[60,15],[77,109],[39,-6]],[[0,0],[0,4096],[2613,0],[-1,-98],[-26,-87],[-98,-138],[3,-96],[-21,-6],[-13,-7],[-10,-8],[-15,-9],[0,-37],[69,-22],[60,40],[58,57],[62,29],[43,-17],[55,-71],[42,-16],[39,14],[34,20],[31,-5],[25,-63],[39,133],[23,35],[33,17],[46,12],[41,19],[17,38],[42,52],[160,108],[-3,60],[49,46],[699,0],[0,-4096],[-17,0],[-18,22],[-2,11],[-11,12],[1,30],[3,34],[-3,25],[-15,1],[-42,24],[-36,29],[2,13],[-9,27],[-8,59],[-14,59],[-28,26],[-112,65],[-54,2],[-202,34],[-37,-1],[-373,-129],[-51,-38],[30,-74],[6,-71],[-14,-160],[-3092,0]],[[2400,3581],[-27,9],[-51,-24],[-8,-26],[20,-34],[21,5],[12,-16],[12,29],[21,57]],[[4079,0],[-18,22],[-2,11],[-11,12],[1,30],[3,34],[-3,25],[-15,1],[-42,24],[-36,29],[2,13],[-9,27],[-8,59],[-14,59],[-28,26],[-112,65],[-54,2],[-202,34],[-37,-1],[-373,-129],[-51,-38],[30,-74],[6,-71],[-14,-160]],[[2950,3576],[39,133],[23,35],[33,17],[46,12],[41,19],[17,38],[42,52],[160,108],[-3,60],[49,46]],[[2613,4096],[-1,-98],[-26,-87],[-98,-138],[3,-96],[-21,-6],[-13,-7],[-10,-8],[-15,-9],[0,-37],[69,-22],[60,40],[58,57],[62,29],[43,-17],[55,-71],[42,-16],[39,14],[34,20],[31,-5],[25,-63]],[[2373,3590],[27,-9],[-21,-57],[-12,-29],[-12,16],[-21,-5],[-20,34],[8,26],[51,24]],[[2839,3677],[-7,-12]],[[2592,3740],[-26,-29]],[[2592,3741],[0,-1]],[[2592,3740],[0,1]],[[2522,3719],[8,-3]],[[2765,3774],[5,-1]],[[3343,4019]],[[3345,4026],[1,0]],[[3350,4029],[-4,3]],[[3350,4029],[1,1]],[[3351,4029],[-1,0]],[[2566,3710],[5,-17]],[[2764,3774],[85,-10]],[[2524,3716],[-2,0]],[[3696,376],[17,8]],[[3252,4085],[5,8]],[[3804,374],[-39,25]],[[3726,390],[-2,-1]],[[3323,4017],[9,3]],[[3333,4020],[7,-1]],[[3321,4090],[3,6]],[[3352,367],[-1,-2]],[[3724,388],[-1,3]],[[3330,4085],[6,-9]],[[2917,3672],[27,31]],[[3309,4032],[17,9]],[[3180,4058],[0,-1]],[[3169,4051],[1,0],[0,-1],[-1,0],[0,1]],[[3020,4085],[40,-28],[47,14]],[[3176,3909],[8,-8]],[[3327,4096],[2,-7]],[[3814,259],[-3,5]],[[3210,3926],[-34,-17]],[[2495,3640],[-70,-30]],[[2878,3716],[-1,-1]],[[2584,3646],[-5,6]],[[3190,4036],[0,1],[0,-1]],[[3326,4042],[0,-1]],[[2490,3642],[22,59]],[[2718,3705],[24,-41],[17,43]],[[2576,3684],[-6,-8]],[[2637,3715],[81,-10]],[[2759,3707],[10,-1]],[[3209,4013],[5,2]],[[3215,4015],[-1,0]],[[3214,4015],[0,1]],[[3216,4017]],[[3216,4017],[0,-1]],[[3216,4017],[19,20]],[[3242,4043],[10,9]],[[2507,3755],[9,-8]],[[2571,3750],[-38,16]],[[3350,4027],[0,-1]],[[3343,4016],[27,-20],[-72,-51]],[[2579,3652],[0,1]],[[3653,63],[-18,-63]],[[2584,3646],[1,1]],[[2612,3708],[1,1]],[[2613,3709],[24,6]],[[2718,3705],[41,2]],[[2769,3706],[22,-12]],[[2898,3776],[173,142]],[[3097,3962],[112,51]],[[3726,390],[-2,2]],[[2516,3747],[5,-14]],[[3803,294],[-69,73]],[[3811,264],[-1,2]],[[4011,65],[-24,-16],[-125,105],[-48,105]],[[4057,0],[-27,39]],[[3410,308],[14,-16]],[[2889,3743],[2,3]],[[3217,3958],[-7,-32]],[[2545,3715],[21,-4]],[[2545,3715],[-21,1]],[[3252,4052],[6,6]],[[4096,2092],[-4096,-1542]],[[3346,4026],[2,0]],[[4011,66],[31,37]],[[3390,344],[20,-36]],[[3611,380],[-5,-44]],[[3653,63],[108,62],[53,134]],[[3696,376],[-4,-3]],[[3714,385],[-3,-24]],[[3804,374],[49,11]],[[3811,289],[24,65]],[[3215,4015],[-1,1],[1,1],[1,-1],[-1,-1]],[[2531,3663],[-36,-23]],[[3239,190],[1,-2]],[[3723,391],[1,1]],[[3329,4089],[1,-4]],[[3238,187],[41,-68],[-3,-81]],[[3352,367],[-61,16],[-108,-25],[37,-76],[-76,39],[-27,-39],[45,-69],[77,-23]],[[3390,344],[-24,6]],[[3424,292],[45,36],[50,-16],[87,24]],[[3611,380],[15,23]],[[3853,385],[-18,-31]],[[3333,4020],[-1,0]],[[3333,4034],[-1,0]],[[3341,4057],[-1,1]],[[3340,4059],[1,1]],[[2856,3673],[61,-1]],[[2850,3764],[32,12]],[[2867,3900],[30,-33]],[[3811,289],[0,-21]],[[3071,3918],[36,-29]],[[3162,3935],[-55,-46]],[[3295,4083],[-4,-4]],[[3333,4031],[10,0]],[[3306,4091],[-6,5]],[[2959,0],[-3,36],[-276,65],[-2680,-35]],[[3309,4032],[31,-5]],[[3326,4041],[7,-10]],[[3170,4051],[9,5]],[[3170,4050],[15,-10]],[[3180,4057],[-1,-1]],[[3179,4056],[1,1]],[[3180,4057],[1,7]],[[3180,4057]],[[3180,4057]],[[3305,17],[0,1]],[[3807,0],[9,1],[0,-1]],[[3274,4055],[6,-11]],[[3280,4043],[19,-8]],[[2576,3684],[36,24]],[[3258,4058],[14,6]],[[3760,399],[-15,0]],[[2850,3764],[24,309]],[[3345,4026]],[[2576,3684],[3,-5]],[[3345,4023],[-1,1]],[[3344,4019],[22,-11]],[[3366,4008],[3,2]],[[3309,4096],[-14,-13]],[[3291,4079],[-18,-16]],[[3251,3987],[-89,-52]],[[3409,387],[1,1],[1,-1],[-1,-1],[-1,1]],[[2882,3776],[12,6]],[[2593,3741]],[[3170,4051],[0,-1]],[[3170,4051]],[[3185,4040],[5,-3]],[[3190,4036],[20,-15]],[[3240,188],[-2,-1]],[[3017,4096],[3,-11]],[[3107,4071],[61,-20]],[[3169,4051],[-1,0]],[[3168,4051],[1,0]],[[3344,4070]],[[3020,4085],[13,11]],[[3344,4071],[-4,-18]],[[3340,4053],[2,15]],[[3344,4034],[-4,19]],[[2571,3693],[5,-9]],[[3321,4025],[2,-8]],[[3765,399],[-5,0]],[[2854,3680],[2,-7]],[[2593,3742]],[[2593,3742]],[[2593,3742],[18,183],[100,61],[73,110]],[[2857,4096],[17,-23]],[[3298,3945],[-88,-19]],[[3344,4024],[1,-1]],[[3350,4026],[0,1]],[[3340,4019],[3,0]],[[3332,4020],[1,0]],[[3692,373],[19,-12]],[[4096,793],[-812,-31],[-3284,-506]],[[3333,4030],[1,1]],[[3214,4075],[15,3]],[[3229,4078],[1,1]],[[3230,4078],[-1,0]],[[3231,4079],[1,0]],[[3232,4079],[-1,-1]],[[3232,4079],[20,6]],[[3230,4079],[1,-1],[-1,0],[0,1]],[[2917,3672],[-6,-105]],[[2582,3654],[0,6]],[[3063,3852],[-87,-24]],[[3107,3889],[-43,-37]],[[3344,4096],[-8,-20]],[[3343,4019],[2,4]],[[2550,3726],[21,24]],[[2592,3741],[-1,1]],[[3722,392],[-41,12],[-19,39]],[[2843,3682],[3,5]],[[3350,4027],[0,2]],[[3273,4063],[1,-8]],[[3346,4025],[4,1]],[[4011,66],[1,0],[0,-1],[-1,0],[0,1]],[[4096,3883],[-605,155],[-135,-17]],[[2848,3672]],[[2889,3950],[24,-34],[-16,-49]],[[2922,3657],[38,2]],[[3336,4076],[8,-6]],[[2956,3950],[-5,20],[-62,-20]],[[3064,3852],[-1,0]],[[3340,4027],[2,0]],[[2897,3867],[-2,-69]],[[3238,187],[-48,-49],[2,-138]],[[3351,365],[-111,-177]],[[3406,387],[-54,-20]],[[3406,387],[3,0]],[[3409,386],[-3,1]],[[3412,386],[-1,0]],[[3662,443],[-37,-39],[-158,9],[-56,-26]],[[3723,391],[-1,1]],[[3730,373],[-6,15]],[[3810,266],[-7,28]],[[3360,4024],[58,-3],[-11,-172],[-3407,-2737]],[[3071,3918],[26,44]],[[2518,3714],[-6,-13]],[[2524,3716],[-5,-1]],[[2839,3677],[5,3]],[[2854,3680],[22,34]],[[2886,3738],[3,5]],[[2887,3737],[13,27],[-2,12]],[[2854,3680]],[[2854,3680]],[[2877,3715],[0,-1],[-1,0]],[[2876,3714],[0,1],[1,0]],[[2886,3735],[0,2],[1,1],[1,-2],[-2,-1]],[[3334,4027],[-1,4]],[[2652,4096],[-32,0]],[[2735,4027],[-40,-1],[-41,70]],[[3345,4026],[-2,1]],[[3734,367]],[[2533,3766],[-26,-11]],[[2567,3710],[-1,0],[0,1],[1,-1]],[[2567,3710],[44,-1]],[[2611,3709],[2,0]],[[2612,3708],[-1,1]],[[2823,3682],[5,-21]],[[2585,3647],[-3,7]],[[3346,4026],[0,-1]],[[2571,3750],[21,-8]],[[2593,3741],[-1,0],[0,1],[1,0],[0,-1]],[[0,62],[2681,34],[284,-66],[1,-30]],[[3351,4029],[-1,-2]],[[2582,3662],[0,-2]],[[4030,39],[-18,26]],[[3097,3962],[10,109]],[[2960,3659],[2,1]],[[2735,4027],[-5,-153],[-39,-40],[-14,-65]],[[3344,4034],[7,-5]],[[3346,4025],[-1,1]],[[2634,3752],[-2,-1]],[[2764,3774],[-100,-7]],[[2876,3715],[7,10]],[[2887,3736],[-4,-11]],[[2883,3725],[3,11]],[[2579,3679],[3,-17]],[[3280,4044],[0,-1]],[[2593,3741],[39,10]],[[2664,3767],[-30,-15]],[[1555,4096],[201,-525],[141,-252],[239,-212],[1960,-831]],[[2956,3950],[2,10]],[[2958,3960],[0,1]],[[2958,3960]],[[2958,3960],[2,2],[45,47],[55,48],[24,39]],[[2425,3610],[1,0]],[[2898,3776],[-4,6]],[[3356,4021],[180,75]],[[2963,0],[-1,28],[-281,63],[-2681,-34]],[[0,3282],[4096,-78]],[[3262,4091],[1,5]],[[3235,4037],[7,6]],[[3343,4027],[3,-1]],[[3811,264],[0,4]],[[3326,4042],[-5,48]],[[2874,4073],[4,23]],[[3626,403],[70,-27]],[[2545,3715],[5,11]],[[2582,3660],[-3,-7]],[[2568,3760],[-27,61]],[[2570,3676],[-39,-13]],[[3265,0],[11,38],[29,-20]],[[3305,17],[30,-17]],[[3519,0],[20,22],[80,-22]],[[2828,3661],[1,-2]],[[3344,4024],[1,1]],[[4042,103],[7,15]],[[3342,4068],[3,4]],[[3345,4072],[-1,-1]],[[3345,4072],[15,24]],[[3360,4024],[66,3],[670,-572]],[[3734,367],[-4,6]],[[3210,4021],[4,-4]],[[3215,4017],[-1,0]],[[3214,4017],[1,0]],[[3216,4015],[-1,0]],[[3216,4016],[0,-1]],[[3216,4015],[37,-17],[70,19]],[[2894,3782],[62,168]],[[3344,4031],[3,0]],[[2764,3774],[5,-68]],[[3724,392],[21,7]],[[2791,3694],[48,-17]],[[2844,3680],[10,0]],[[2876,3714],[-1,-1]],[[3203,4073],[1,0]],[[3204,4073],[-1,0]],[[3204,4073],[10,2]],[[3202,4073],[1,0],[0,-1],[-1,1]],[[3333,4035],[-12,-10]],[[3342,4027],[1,0]],[[3366,350],[-15,15]],[[3343,4031],[3,1]],[[3261,3999],[-10,-12]],[[2518,3714],[1,1]],[[3255,4096],[18,-33]],[[3299,4035],[10,-3]],[[2823,3682],[26,82]],[[2849,3764],[1,0]],[[0,239],[3451,479],[645,26]],[[2521,3733],[2,-7]],[[3346,4025],[-1,-2]],[[3162,3935],[14,-26]],[[2522,3716],[1,10]],[[3713,384],[11,4]],[[2832,3665],[16,7]],[[2844,3680],[-1,2]],[[2848,3672],[8,1]],[[2882,3776],[12,6]],[[3181,4064],[20,9]],[[3201,4073],[1,0]],[[3202,4073],[-1,0]],[[4079,0],[-987,0],[14,160],[-6,71],[-30,74],[51,38],[373,129],[37,1],[202,-34],[54,-2],[112,-65],[28,-26],[14,-59],[8,-59],[9,-27],[-2,-13],[36,-29],[42,-24],[15,-1],[3,-25],[-3,-34],[-1,-30],[11,-12],[2,-11],[18,-22]],[[2379,3524],[-12,-29],[-12,16],[-21,-5],[-20,34],[8,26],[51,24],[27,-9],[-21,-57]],[[3012,3744],[-23,-35],[-39,-133],[-25,63],[-31,5],[-34,-20],[-39,-14],[-42,16],[-55,71],[-43,17],[-62,-29],[-58,-57],[-60,-40],[-69,22],[0,37],[15,9],[10,8],[13,7],[21,6],[-3,96],[98,138],[26,87],[1,98],[784,0],[-49,-46],[3,-60],[-160,-108],[-42,-52],[-17,-38],[-41,-19],[-46,-12],[-33,-17]],[[3397,4096],[-49,-46],[-17,-63],[-77,-2],[-45,25],[7,86],[181,0]],[[3361,4096],[-39,-60],[-42,7],[16,53],[65,0]]]}