{"objects":{"water":{"type":"GeometryCollection","geometries":[{"type":"MultiPolygon","properties":{"source":"naturalearthdata.com","kind":"ocean","area":1576712559132672,"sort_rank":200,"min_zoom":0.0,"id":1},"arcs":[[[29],[30],[31]],[[32],[33]]]},{"type":"MultiLineString","properties":{"source":"naturalearthdata.com","kind":"ocean","sort_rank":205,"boundary":true,"min_zoom":0.0,"id":41},"arcs":[[34],[35],[36]]}]},"buildings":{"type":"GeometryCollection","geometries":[]},"places":{"type":"GeometryCollection","geometries":[{"type":"Point","properties":{"kind":"locality","name":"Carmarthen","name:cy":"Caerfyrddin","kind_detail":"town","name:br":"Caerfyrddin","source":"openstreetmap.org","min_zoom":8.0,"name:la":"Moridunum","name:ru":"\u041a\u0430\u0440\u043c\u0430\u0440\u0442\u0435\u043d","population":15854,"id":21413062,"name:ja":"\u30ab\u30fc\u30de\u30fc\u30bc\u30f3"},"coordinates":[3826,1142]},{"type":"Point","properties":{"kind":"locality","name":"Haverfordwest","name:cy":"Hwlffordd","kind_detail":"town","source":"openstreetmap.org","min_zoom":8.0,"id":1382849428,"population":14596},"coordinates":[1922,873]},{"type":"Point","properties":{"kind":"locality","name":"Milford Haven","name:cy":"Aberdaugleddau","kind_detail":"town","source":"openstreetmap.org","min_zoom":8.0,"id":325896300,"population":13582},"coordinates":[1735,444]},{"type":"Point","properties":{"kind":"locality","name":"Pembroke Dock","name:cy":"Doc Penfro","kind_detail":"town","source":"openstreetmap.org","min_zoom":8.0,"id":202741454,"population":9753},"coordinates":[1998,358]},{"type":"Point","properties":{"kind":"locality","name":"St David's","name:cy":"Tyddewi","kind_detail":"city","name:ar":"\u0633\u0627\u0646\u062a \u062f\u064a\u0641\u064a\u062f","source":"openstreetmap.org","min_zoom":8.0,"name:uk":"\u0421\u0435\u043d\u0442-\u0414\u0435\u0439\u0432\u0456\u0434\u0441","name:ru":"\u0421\u0435\u043d\u0442-\u0414\u0435\u0439\u0432\u0438\u0434\u0441","id":3712052604,"population":2000},"coordinates":[1045,1247]},{"type":"Point","properties":{"kind":"locality","name":"Newcastle Emlyn","name:cy":"Castell Newydd Emlyn","kind_detail":"town","source":"openstreetmap.org","min_zoom":8.0,"id":29229328,"population":900},"coordinates":[3368,1993]}]},"transit":{"type":"GeometryCollection","geometries":[{"type":"LineString","properties":{"kind":"train","name":"Rheilffordd y Gwili","sort_rank":275,"source":"openstreetmap.org","min_zoom":6.0,"operator":"Gwili Railway Co. Ltd","id":-1052142,"osm_relation":true},"arcs":[2]},{"type":"MultiLineString","properties":{"kind":"train","name":"Pembroke Dock Branch","sort_rank":275,"source":"openstreetmap.org","min_zoom":6.0,"operator":"Arriva Trains Wales","ref":"128","osm_relation":true},"arcs":[[3],[4],[5]]},{"type":"MultiLineString","properties":{"kind":"train","name":"Milford Haven Branch","sort_rank":275,"source":"openstreetmap.org","min_zoom":6.0,"operator":"Arriva Trains Wales","ref":"128","osm_relation":true},"arcs":[[6],[7],[8],[9],[10],[11]]},{"type":"MultiLineString","properties":{"kind":"train","name":"West Wales Line","sort_rank":275,"source":"openstreetmap.org","min_zoom":6.0,"operator":"Arriva Trains Wales","ref":"128","osm_relation":true},"arcs":[[12],[13],[14],[15],[16],[17],[18],[19],[20],[21],[22],[23],[24],[25]]},{"type":"MultiLineString","properties":{"kind":"train","name":"Fishguard Branch","sort_rank":275,"source":"openstreetmap.org","min_zoom":6.0,"operator":"Arriva Trains Wales","ref":"128","osm_relation":true},"arcs":[[26],[27],[28]]}]},"pois":{"type":"GeometryCollection","geometries":[{"type":"Point","properties":{"kind":"national_park","name":"Pembrokeshire Coast National Park","name:cy":"Parc Cenedlaethol Arfordir Penfro","area":598323000,"source":"openstreetmap.org","min_zoom":6.18,"tier":1,"id":-165598,"osm_relation":true},"coordinates":[2351,1890]},{"type":"Point","properties":{"source":"openstreetmap.org","kind":"military","name":"Castlemartin Royal Armoured Corps Range","area":63016800,"tier":3,"min_zoom":8.0,"id":37907430},"coordinates":[1790,25]}]},"boundaries":{"type":"GeometryCollection","geometries":[{"type":"LineString","properties":{"name:kg":"Royaume-Uni","name:ty":"Parat\u0101ne","name:ka":"\u10d2\u10d0\u10d4\u10e0\u10d7\u10d8\u10d0\u10dc\u10d4\u10d1\u10e3\u10da\u10d8 \u10e1\u10d0\u10db\u10d4\u10e4\u10dd","name:ko":"\uc601\uad6d","name:cv":"\u0410\u0441\u043b\u0103 \u0411\u0440\u0438\u0442\u0430\u043d\u0438","name:cu":"\u0412\u0454\u043b\u0438\u043a\u0430 \u0411\u0440\u0438\u0442\u0430\u043d\u0457\ua657","name:kl":"Tuluit Nunaat","name:cs":"Spojen\u00e9 kr\u00e1lovstv\u00ed","name:tt":"\u0411\u04e9\u0435\u043a\u0431\u0440\u0438\u0442\u0430\u043d\u0438\u044f","name:co":"Regnu Unitu","name:kv":"\u042b\u0434\u0436\u044b\u0434 \u0411\u0440\u0438\u0442\u0430\u043d\u0438\u044f","name:ku":"Keyaniya Yekb\u00fby\u00ee","name:tl":"Nagkakaisang Kaharian","name:ce":"\u0419\u043e\u043a\u043a\u0445\u0430 \u0411\u0440\u0438\u0442\u0430\u043d\u0438","name:ta":"\u0b90\u0b95\u0bcd\u0b95\u0bbf\u0baf \u0b87\u0bb0\u0bbe\u0b9a\u0bcd\u0b9a\u0bbf\u0baf\u0bae\u0bcd","name:tg":"\u041f\u043e\u0434\u0448\u043e\u04b3\u0438\u0438 \u041c\u0443\u0442\u0442\u0430\u04b3\u0438\u0434\u0430","name:ca":"Regne Unit","name:te":"\u0c2f\u0c41\u0c28\u0c48\u0c1f\u0c46\u0c21\u0c4d \u0c15\u0c3f\u0c02\u0c17\u0c4d\u200c\u0c21\u0c2e\u0c4d","name:cy":"Deyrnas Unedig","name:qu":"Hukllachasqa Qhapaq Suyu","name:da":"Storbritannien","name:de":"Vereinigtes K\u00f6nigreich","name:dz":"\u0f61\u0f74\u0f0b\u0f53\u0f60\u0f72\u0f0b\u0f4a\u0f7a\u0f4a\u0f0b\u0f40\u0f72\u0f44\u0f0b\u0f4c\u0f58","source":"openstreetmap.org","name:kn":"\u0caf\u0cc1\u0ca8\u0cc8\u0c9f\u0cc6\u0ca1\u0ccd \u0c95\u0cbf\u0c82\u0c97\u0ccd\u200c\u0ca1\u0c82","name:dv":"\u0794\u07aa\u0782\u07a6\u0787\u07a8\u0793\u07ac\u0791\u07b0 \u0786\u07a8\u0782\u07b0\u078e\u07b0\u0791\u07a6\u0789\u07b0","name:km":"\u179a\u17b6\u1787\u17b6\u178e\u17b6\u1785\u1780\u17d2\u179a\u179a\u17bd\u1798","name:lv":"Apvienot\u0101 Karaliste","name:lt":"Jungtin\u0117 Karalyst\u0117","name:uz":"Birlashgan Qirollik","name:kk":"\u04b0\u043b\u044b\u0431\u0440\u0438\u0442\u0430\u043d\u0438\u044f","name:ur":"\u0628\u0631\u0637\u0627\u0646\u06cc\u06c1","name:lb":"Groussbritannien an Nordirland","name:la":"Britanniarum Regnum","name:uk":"\u0412\u0435\u043b\u0438\u043a\u0430 \u0411\u0440\u0438\u0442\u0430\u043d\u0456\u044f","name:ug":"\u0628\u06c8\u064a\u06c8\u0643 \u0628\u06d0\u0631\u0649\u062a\u0627\u0646\u0649\u064a\u06d5","name:li":"Vereineg Keuninkriek","name:ln":"Ing\u025bl\u025b\u0301t\u025bl\u025b","name:el":"\u0397\u03bd\u03c9\u03bc\u03ad\u03bd\u03bf \u0392\u03b1\u03c3\u03af\u03bb\u03b5\u03b9\u03bf","name:eo":"Britujo","name":"United Kingdom","name:th":"\u0e2a\u0e2b\u0e23\u0e32\u0e0a\u0e2d\u0e32\u0e13\u0e32\u0e08\u0e31\u0e01\u0e23","name:eu":"Erresuma Batua","name:et":"Suurbritannia","name:es":"Reino Unido","name:ia":"Regno Unite","name:rm":"Reginavel Un\u00ec","name:az":"B\u00f6y\u00fck Britaniya","name:ie":"Reyatu Unit","name:id":"Britania Raya","name:ig":"Obodo\u00e9z\u00e8 N\u00e0 Of\u00fa","name:ar":"\u0627\u0644\u0645\u0645\u0644\u0643\u0629 \u0627\u0644\u0645\u062a\u062d\u062f\u0629","name:io":"Unionita Rejio","name:is":"Bretland","name:am":"\u12e9\u1293\u12ed\u1275\u12f5 \u12aa\u1295\u130d\u12f0\u121d","name:it":"Regno Unito","name:an":"Reino Unito","name:ru":"\u0412\u0435\u043b\u0438\u043a\u043e\u0431\u0440\u0438\u0442\u0430\u043d\u0438\u044f","name:ab":"\u0411\u0440\u0438\u0442\u0430\u043d\u0438\u0430 \u0414\u0443","name:af":"Verenigde Koninkryk","name:zu":"Umbuso Ohlangeneyo","kind_detail":"2","name:za":"Yinghgoz","name:zh-yue":"\u82f1\u570b","name:zh":"\u82f1\u570b","name:so":"Midowga boqortooyada Britan","name:sl":"Zdru\u017eeno kraljestvo Velike Britanije in Severne Irske","name:sk":"Spojen\u00e9 kr\u00e1\u013eovstvo","name:ja":"\u30a4\u30ae\u30ea\u30b9","name:si":"\u0d91\u0d9a\u0dca\u0dc3\u0dad\u0dca \u0dbb\u0dcf\u0da2\u0db0\u0dcf\u0db1\u0dd2\u0dba","name:sh":"Ujedinjeno Kraljevstvo","name:se":"Ovttastuvvan gonagasriika","name:sc":"Rennu Auniadu","name:sa":"\u0938\u0902\u092f\u0941\u0915\u094d\u0924 \u0905\u0927\u093f\u0930\u093e\u091c\u094d\u092f","name:bs":"Ujedinjeno Kraljevstvo Velike Britanije i Sjeverne Irske","name:bn":"\u09af\u09c1\u0995\u09cd\u09a4\u09b0\u09be\u099c\u09cd\u09af","name:bo":"\u0f51\u0f56\u0fb1\u0f72\u0f53\u0f0b\u0f47\u0f72\u0f0b\u0f58\u0f49\u0f58\u0f0b\u0f60\u0f56\u0fb2\u0f7a\u0f63\u0f0d","name:br":"Rouantelezh-Unanet","name:sw":"Ufalme wa Muungano","name:be":"\u0412\u044f\u043b\u0456\u043a\u0430\u0431\u0440\u044b\u0442\u0430\u043d\u0456\u044f","name:su":"Britania","name:bg":"\u041e\u0431\u0435\u0434\u0438\u043d\u0435\u043d\u043e \u043a\u0440\u0430\u043b\u0441\u0442\u0432\u043e \u0412\u0435\u043b\u0438\u043a\u043e\u0431\u0440\u0438\u0442\u0430\u043d\u0438\u044f \u0438 \u0421\u0435\u0432\u0435\u0440\u043d\u0430 \u0418\u0440\u043b\u0430\u043d\u0434\u0438\u044f","name:ba":"\u0411\u04e9\u0439\u04e9\u043a \u0411\u0440\u0438\u0442\u0430\u043d\u0438\u044f","name:sq":"Mbret\u00ebria e Bashkuar e Britanis\u00eb dhe Irland\u00ebs s\u00eb Veriut","name:jv":"Britania Raya","name:bi":"Unaeted Kingdom","name:pt":"Reino Unido","name:ps":"\u0628\u0631\u064a\u062a\u0627\u0646\u064a\u0627","name:oc":"Reialme Unit","min_zoom":8.0,"name:ro":"Regatul Unit al Marii Britanii \u0219i al Irlandei de Nord","name:zh-min-nan":"Li\u00e2n-ha\u030dp \u00d4ng-kok","name:os":"\u0421\u0442\u044b\u0440 \u0411\u0440\u0438\u0442\u0430\u043d\u0438","name:or":"\u0b2f\u0b41\u0b15\u0b4d\u0b24\u0b30\u0b3e\u0b1c\u0b4d\u0b5f","name:pl":"Wielka Brytania","sort_rank":262,"name:sr":"\u0423\u0458\u0435\u0434\u0438\u045a\u0435\u043d\u043e \u041a\u0440\u0430\u0459\u0435\u0432\u0441\u0442\u0432\u043e","osm_relation":true,"name:pa":"\u0a38\u0a70\u0a2f\u0a41\u0a15\u0a24 \u0a2c\u0a3e\u0a26\u0a38\u0a3c\u0a3e\u0a39\u0a40","name:tr":"Birle\u015fik Krall\u0131k","name:hi":"\u092f\u0942\u0928\u093e\u0907\u091f\u0947\u0921 \u0915\u093f\u0902\u0917\u0921\u092e","name:sv":"Storbritannien","name:he":"\u05d4\u05de\u05de\u05dc\u05db\u05d4 \u05d4\u05de\u05d0\u05d5\u05d7\u05d3\u05ea","name:ha":"Birtaniya","name:hy":"\u0544\u056b\u0561\u0581\u0575\u0561\u056c \u0539\u0561\u0563\u0561\u057e\u0578\u0580\u0578\u0582\u0569\u0575\u0578\u0582\u0576","name:ht":"Way\u00f2m Ini","name:hu":"Egyes\u00fclt Kir\u00e1lys\u00e1g","name:hr":"Ujedinjeno Kraljevstvo","kind":"country","name:yi":"\u05e4\u05d0\u05e8\u05d0\u05d9\u05d9\u05e0\u05d9\u05d2\u05d8\u05e2 \u05e7\u05e2\u05e0\u05d9\u05d2\u05e8\u05d9\u05d9\u05da","name:yo":"Il\u1eb9\u0300\u1ecdba A\u1e63\u1ecd\u0300kan","name:mt":"Renju Unit","alt_name:eo":"Britio","name:mr":"\u092f\u0941\u0928\u093e\u092f\u091f\u0947\u0921 \u0915\u093f\u0902\u0917\u094d\u0921\u092e","name:my":"\u101a\u1030\u1014\u102d\u102f\u1000\u103a\u1010\u1000\u103a\u1000\u1004\u103a\u1038\u1012\u1019\u103a\u1038\u1014\u102d\u102f\u1004\u103a\u1004\u1036","name:kw":"Ruwvaneth Unys","name:mg":"Fanjakana Mitambatra","name:vi":"V\u01b0\u01a1ng qu\u1ed1c Anh","name:ml":"\u0d2f\u0d41\u0d23\u0d48\u0d31\u0d4d\u0d31\u0d21\u0d4d \u0d15\u0d3f\u0d19\u0d4d\u0d21\u0d02","name:mn":"\u0418\u0445 \u0411\u0440\u0438\u0442\u0430\u043d\u0438","name:mi":"K\u012bngitanga Kotahi","id":-62149,"name:mk":"\u041e\u0431\u0435\u0434\u0438\u043d\u0435\u0442\u043e \u041a\u0440\u0430\u043b\u0441\u0442\u0432\u043e","name:vo":"Reg\u00e4n Pebal\u00f6l","name:fa":"\u0628\u0631\u06cc\u062a\u0627\u0646\u06cc\u0627","name:rw":"Ubwongereza","short_name":"UK","name:fi":"Yhdistynyt kuningaskunta","name:ky":"\u0423\u043b\u0443\u0443 \u0411\u0440\u0438\u0442\u0430\u043d\u0438\u044f \u0436\u0430\u043d\u0430 \u0422\u04af\u043d\u0434\u04af\u043a \u0418\u0440\u043b\u0430\u043d\u0434\u0438\u044f","name:fo":"St\u00f3ra Bretland","name:fr":"Royaume-Uni","name:fy":"Feriene Keninkryk","name:nl":"Verenigd Koninkrijk","name:nn":"Storbritannia","name:no":"Storbritannia","name:na":"Ingerand","name:ne":"\u0938\u0902\u092f\u0941\u0915\u094d\u0924 \u0905\u0927\u093f\u0930\u093e\u091c\u094d\u092f","name:wo":"Nguur-Yu-Bennoo","name:nv":"T\u00f3ta\u02bc Din\u00e9\u02bci\u02bc Bik\u00e9yah","name:ga":"An R\u00edocht Aontaithe","name:gd":"An R\u00ecoghachd Aonaichte","name:gn":"Tavet\u00e3 Joaju","name:gl":"Reino Unido","maritime_boundary":true,"name:gv":"Reeriaght Unnaneysit","name:gu":"\u0aaf\u0ac1\u0aa8\u0abe\u0a87\u0a9f\u0ac7\u0aa1 \u0a95\u0abf\u0a82\u0a97\u0aa1\u0aae"},"arcs":[0]},{"type":"LineString","properties":{"name:ia":"Galles","alt_name:eo":"Kimrio","name:cy":"Cymru","name:ar":"\u0648\u064a\u0644\u0632","name:io":"Wals","name:kw":"Kembra","min_zoom":8.0,"name:it":"Galles","name:ru":"\u0423\u044d\u043b\u044c\u0441","name:pl":"Walia","id":-58437,"name:ca":"Pa\u00eds de Ga\u0140les","name:vo":"Vels\u00e4n","sort_rank":256,"kind_detail":"4","kind":"region","source":"openstreetmap.org","name:fr":"Pays de Galles","name:zh":"\u5a01\u723e\u65af","name:lt":"Velsas","name:ga":"An Bhreatain Bheag","name:br":"Kembre","name:be":"\u0423\u044d\u043b\u044c\u0441","osm_relation":true,"name:el":"\u039f\u03c5\u03b1\u03bb\u03af\u03b1","name:eo":"Kimrujo","name":"Wales","name:gd":"A' Chuimrigh","maritime_boundary":true,"name:gv":"Bretyn","name:eu":"Gales","name:es":"Gales"},"arcs":[1]}]},"roads":{"type":"GeometryCollection","geometries":[{"type":"LineString","properties":{"bus_network":null,"sort_rank":377,"kind_detail":"tertiary","is_bicycle_related":true,"kind":"major_road","bicycle_shield_text":null,"bicycle_network":"icn","source":"openstreetmap.org","min_zoom":8.0,"bus_shield_text":"207"},"arcs":[37]},{"type":"MultiLineString","properties":{"bus_network":null,"sort_rank":380,"kind_detail":"primary","is_bicycle_related":true,"kind":"major_road","source":"openstreetmap.org","min_zoom":8.0,"bus_shield_text":"411","landuse_kind":"national_park","ref":"A487"},"arcs":[[38],[39]]},{"type":"MultiLineString","properties":{"kind":"minor_road","sort_rank":360,"landuse_kind":"national_park","is_bicycle_related":true,"bicycle_shield_text":null,"bicycle_network":"icn","source":"openstreetmap.org","min_zoom":8.0,"kind_detail":"unclassified"},"arcs":[[40],[41],[42],[43],[44],[45],[46],[47],[48],[49],[50],[51]]},{"type":"LineString","properties":{"kind":"major_road","name:cy":"Stryd Spilman","sort_rank":380,"kind_detail":"primary","bus_network":null,"source":"openstreetmap.org","min_zoom":8.0,"bus_shield_text":"PR1","ref":"A484","id":28503467},"arcs":[52]},{"type":"MultiLineString","properties":{"kind":"path","sort_rank":354,"landuse_kind":"national_park","is_bicycle_related":true,"bicycle_shield_text":null,"bicycle_network":"icn","source":"openstreetmap.org","min_zoom":8.0,"kind_detail":"path"},"arcs":[[53],[54]]},{"type":"MultiLineString","properties":{"bus_network":null,"sort_rank":381,"landuse_kind":"national_park","is_bicycle_related":true,"kind":"major_road","bicycle_shield_text":"82","bicycle_network":"ncn","source":"openstreetmap.org","min_zoom":8.0,"bus_shield_text":"412","kind_detail":"trunk","ref":"A487"},"arcs":[[55],[56]]},{"type":"MultiLineString","properties":{"kind":"major_road","sort_rank":377,"kind_detail":"tertiary","is_bicycle_related":true,"bicycle_shield_text":"82","bicycle_network":"ncn","source":"openstreetmap.org","min_zoom":8.0},"arcs":[[57],[58]]},{"type":"LineString","properties":{"kind":"major_road","name:en":"College Street","name:cy":"Stryd y Coleg","sort_rank":380,"kind_detail":"primary","source":"openstreetmap.org","min_zoom":8.0,"alt_name:en":"Cawdor Terrace","ref":"A475","id":4830639,"alt_name:cy":"Res y Cawdor"},"arcs":[59]},{"type":"LineString","properties":{"bus_network":"National Express","sort_rank":380,"kind_detail":"primary","is_bicycle_related":true,"kind":"major_road","source":"openstreetmap.org","min_zoom":8.0,"bus_shield_text":"508","ref":"A477"},"arcs":[60]},{"type":"LineString","properties":{"kind":"ferry","name":"Fishguard - Rosslare","sort_rank":355,"source":"openstreetmap.org","min_zoom":8.0,"all_networks":["e-road"],"shield_text":"30","id":44643127,"all_shield_texts":["30"],"network":"e-road"},"arcs":[61]},{"type":"MultiLineString","properties":{"source":"openstreetmap.org","kind":"major_road","landuse_kind":"urban_area","sort_rank":380,"kind_detail":"primary","ref":"A4076","min_zoom":8.0},"arcs":[[62],[63],[64],[65]]},{"type":"LineString","properties":{"kind":"major_road","sort_rank":379,"kind_detail":"secondary","is_bicycle_related":true,"bicycle_shield_text":"82","bicycle_network":"ncn","source":"openstreetmap.org","min_zoom":8.0,"ref":"B4332"},"arcs":[66]},{"type":"MultiLineString","properties":{"bus_network":null,"sort_rank":380,"kind_detail":"primary","is_bicycle_related":true,"kind":"major_road","source":"openstreetmap.org","min_zoom":8.0,"bus_shield_text":"413","ref":"A487"},"arcs":[[67],[68]]},{"type":"LineString","properties":{"source":"openstreetmap.org","kind":"major_road","sort_rank":380,"kind_detail":"primary","ref":"A482","min_zoom":8.0},"arcs":[69]},{"type":"MultiLineString","properties":{"sort_rank":380,"kind_detail":"primary","min_zoom":8.0,"kind":"major_road","source":"openstreetmap.org"},"arcs":[[70],[71],[72],[73],[74],[75],[76]]},{"type":"MultiLineString","properties":{"bus_network":null,"sort_rank":380,"kind_detail":"primary","kind":"major_road","source":"openstreetmap.org","min_zoom":8.0,"bus_shield_text":"528","landuse_kind":"national_park","ref":"A4139"},"arcs":[[77],[78],[79]]},{"type":"MultiLineString","properties":{"kind":"path","sort_rank":354,"landuse_kind":"national_park","is_bicycle_related":true,"bicycle_shield_text":null,"cycleway":"track","source":"openstreetmap.org","min_zoom":8.0,"kind_detail":"cycleway","bicycle_network":"icn"},"arcs":[[80],[81],[82]]},{"type":"LineString","properties":{"kind":"major_road","sort_rank":379,"kind_detail":"secondary","is_bicycle_related":true,"bicycle_shield_text":null,"bicycle_network":"icn","source":"openstreetmap.org","min_zoom":8.0,"ref":"B4584","id":131588443},"arcs":[83]},{"type":"MultiLineString","properties":{"bus_network":null,"sort_rank":381,"kind_detail":"trunk","kind":"major_road","source":"openstreetmap.org","min_zoom":8.0,"bus_shield_text":"129","ref":"A40"},"arcs":[[84],[85]]},{"type":"LineString","properties":{"kind":"path","name:cy":"Y Rhodfa","sort_rank":354,"kind_detail":"cycleway","is_bicycle_related":true,"bicycle_shield_text":"47","bicycle_network":"ncn","source":"openstreetmap.org","min_zoom":8.0,"id":108311959},"arcs":[86]},{"type":"LineString","properties":{"kind":"major_road","sort_rank":380,"kind_detail":"primary","bus_network":null,"source":"openstreetmap.org","min_zoom":8.0,"bus_shield_text":"PR1","id":358555411},"arcs":[87]},{"type":"MultiLineString","properties":{"source":"openstreetmap.org","kind":"major_road","ref":"A478","sort_rank":380,"kind_detail":"primary","is_bicycle_related":true,"min_zoom":8.0},"arcs":[[88],[89],[90],[91],[92]]},{"type":"LineString","properties":{"kind":"major_road","name:en":"New Street","name:cy":"Heol Newydd","sort_rank":380,"kind_detail":"primary","bus_network":null,"source":"openstreetmap.org","min_zoom":8.0,"bus_shield_text":"411","landuse_kind":"national_park","ref":"A487","id":182685353},"arcs":[93]},{"type":"LineString","properties":{"kind":"major_road","sort_rank":377,"kind_detail":"tertiary","is_bicycle_related":true,"bicycle_shield_text":null,"bicycle_network":"icn","source":"openstreetmap.org","min_zoom":8.0,"ref":"C3184","id":67304427},"arcs":[94]},{"type":"LineString","properties":{"kind":"major_road","sort_rank":379,"kind_detail":"secondary","is_bicycle_related":true,"bus_network":null,"bicycle_shield_text":null,"bicycle_network":"icn","source":"openstreetmap.org","min_zoom":8.0,"bus_shield_text":"381","ref":"B4316","id":182256292},"arcs":[95]},{"type":"MultiLineString","properties":{"source":"openstreetmap.org","bus_network":null,"bus_shield_text":"X11","sort_rank":380,"kind_detail":"primary","min_zoom":8.0,"kind":"major_road"},"arcs":[[96],[97],[98],[99]]},{"type":"LineString","properties":{"kind":"major_road","name:cy":"Sgwar Alban","sort_rank":381,"kind_detail":"trunk","source":"openstreetmap.org","min_zoom":8.0,"ref":"A487","id":103593556},"arcs":[100]},{"type":"LineString","properties":{"kind":"major_road","name:cy":"Heol Colby","sort_rank":380,"kind_detail":"primary","bus_network":"Bws Bach","source":"openstreetmap.org","min_zoom":8.0,"bus_shield_text":"B1","ref":"A484","id":26992224},"arcs":[101]},{"type":"MultiLineString","properties":{"bus_network":null,"network":"e-road","sort_rank":381,"kind_detail":"trunk","is_bicycle_related":true,"kind":"major_road","source":"openstreetmap.org","min_zoom":8.0,"bus_shield_text":"224","shield_text":"30","ref":"A40"},"arcs":[[102],[103],[104]]},{"type":"LineString","properties":{"kind":"major_road","sort_rank":379,"kind_detail":"secondary","is_bicycle_related":true,"bus_network":null,"bicycle_shield_text":null,"bicycle_network":"icn","source":"openstreetmap.org","min_zoom":8.0,"bus_shield_text":"222*","ref":"B4312","id":33633339},"arcs":[105]},{"type":"LineString","properties":{"kind":"major_road","sort_rank":380,"kind_detail":"primary","bus_network":null,"source":"openstreetmap.org","min_zoom":8.0,"bus_shield_text":"198","ref":"A484","id":160012986},"arcs":[106]},{"type":"MultiLineString","properties":{"bus_network":null,"sort_rank":380,"kind_detail":"primary","is_bicycle_related":true,"kind":"major_road","source":"openstreetmap.org","min_zoom":8.0,"bus_shield_text":"111*","ref":"A484"},"arcs":[[107],[108]]},{"type":"MultiLineString","properties":{"bus_network":"National Express","sort_rank":381,"kind_detail":"trunk","is_bicycle_related":true,"kind":"major_road","source":"openstreetmap.org","min_zoom":8.0,"bus_shield_text":"508","ref":"A4139"},"arcs":[[109],[110],[111]]},{"type":"LineString","properties":{"kind":"major_road","sort_rank":380,"kind_detail":"primary","is_bicycle_related":true,"bus_network":null,"bicycle_shield_text":"(4)","bicycle_network":"lcn","source":"openstreetmap.org","min_zoom":8.0,"bus_shield_text":"411","landuse_kind":"national_park","ref":"A487","id":4990627},"arcs":[112]},{"type":"LineString","properties":{"kind":"major_road","sort_rank":377,"landuse_kind":"national_park","is_bicycle_related":true,"bicycle_shield_text":null,"bicycle_network":"icn","source":"openstreetmap.org","min_zoom":8.0,"kind_detail":"tertiary","ref":"C3082"},"arcs":[113]},{"type":"LineString","properties":{"bus_network":null,"sort_rank":380,"kind_detail":"primary","kind":"major_road","source":"openstreetmap.org","min_zoom":8.0,"bus_shield_text":"411","ref":"A487"},"arcs":[114]},{"type":"MultiLineString","properties":{"bus_network":"National Express","sort_rank":380,"kind_detail":"primary","is_bicycle_related":true,"kind":"major_road","source":"openstreetmap.org","min_zoom":8.0,"bus_shield_text":"508","ref":"A4139"},"arcs":[[115],[116]]},{"type":"LineString","properties":{"kind":"major_road","sort_rank":380,"kind_detail":"primary","bus_network":null,"source":"openstreetmap.org","min_zoom":8.0,"bus_shield_text":"222*","id":4578172},"arcs":[117]},{"type":"LineString","properties":{"kind":"major_road","sort_rank":380,"kind_detail":"primary","is_bicycle_related":true,"bus_network":null,"source":"openstreetmap.org","min_zoom":8.0,"bus_shield_text":"313","landuse_kind":"residential","ref":"A40","id":4012919},"arcs":[118]},{"type":"LineString","properties":{"kind":"minor_road","name:cy":"Y Llannerch","sort_rank":360,"kind_detail":"residential","is_bicycle_related":true,"bicycle_shield_text":"47","bicycle_network":"ncn","source":"openstreetmap.org","min_zoom":8.0,"id":296895928},"arcs":[119]},{"type":"LineString","properties":{"kind":"major_road","sort_rank":377,"landuse_kind":"national_park","is_bicycle_related":true,"bicycle_shield_text":"82","bicycle_network":"ncn","source":"openstreetmap.org","min_zoom":8.0,"kind_detail":"tertiary","ref":"C3043"},"arcs":[120]},{"type":"LineString","properties":{"bus_network":null,"name:cy":"Heol Abergwili","sort_rank":377,"kind_detail":"tertiary","is_bicycle_related":true,"kind":"major_road","bicycle_shield_text":"49","bicycle_network":"ncn","source":"openstreetmap.org","min_zoom":8.0,"bus_shield_text":"276","ref":"C2030"},"arcs":[121]},{"type":"LineString","properties":{"bus_network":null,"name:cy":"Rhiw'r Castell","sort_rank":380,"kind_detail":"primary","kind":"major_road","source":"openstreetmap.org","min_zoom":8.0,"bus_shield_text":"PR1","ref":"A484"},"arcs":[122]},{"type":"MultiLineString","properties":{"kind":"path","sort_rank":354,"kind_detail":"cycleway","is_bicycle_related":true,"bicycle_shield_text":"47","bicycle_network":"ncn","source":"openstreetmap.org","min_zoom":8.0},"arcs":[[123],[124],[125],[126]]},{"type":"LineString","properties":{"kind":"major_road","name:en":"Cross Square","sort_rank":380,"kind_detail":"primary","is_bicycle_related":true,"bicycle_shield_text":null,"bicycle_network":"icn","source":"openstreetmap.org","min_zoom":8.0,"landuse_kind":"national_park","id":182685354},"arcs":[127]},{"type":"MultiLineString","properties":{"bus_network":null,"sort_rank":380,"kind_detail":"primary","kind":"major_road","source":"openstreetmap.org","min_zoom":8.0,"bus_shield_text":"322","ref":"A40"},"arcs":[[128],[129],[130],[131]]},{"type":"MultiLineString","properties":{"bus_network":null,"sort_rank":380,"kind_detail":"primary","kind":"major_road","source":"openstreetmap.org","min_zoom":8.0,"bus_shield_text":"222","ref":"A4066"},"arcs":[[132],[133],[134],[135]]},{"type":"MultiLineString","properties":{"kind":"major_road","sort_rank":377,"landuse_kind":"national_park","is_bicycle_related":true,"bicycle_shield_text":null,"bicycle_network":"icn","source":"openstreetmap.org","min_zoom":8.0,"kind_detail":"tertiary"},"arcs":[[136],[137],[138],[139],[140],[141],[142],[143]]},{"type":"LineString","properties":{"kind":"minor_road","sort_rank":358,"kind_detail":"service","is_bicycle_related":true,"bicycle_shield_text":"49","bicycle_network":"ncn","source":"openstreetmap.org","min_zoom":8.0,"id":485308396},"arcs":[144]},{"type":"LineString","properties":{"kind":"major_road","name:en":"High Street","name:cy":"Stryd Fawr","sort_rank":380,"kind_detail":"primary","bus_network":"Cyngor Sir Ceredigion a Chaerfyrddin \/ Ceredigion and Carmarthenshire County Councils","source":"openstreetmap.org","min_zoom":8.0,"bus_shield_text":"460","ref":"A484","id":23498245},"arcs":[145]},{"type":"MultiLineString","properties":{"bus_network":null,"network":"e-road","sort_rank":381,"kind_detail":"trunk","kind":"major_road","source":"openstreetmap.org","min_zoom":8.0,"bus_shield_text":"X12","shield_text":"30","ref":"A48"},"arcs":[[146],[147]]},{"type":"MultiLineString","properties":{"kind":"major_road","sort_rank":381,"kind_detail":"trunk","is_bicycle_related":true,"bus_network":"Eurolines","source":"openstreetmap.org","min_zoom":8.0,"bus_shield_text":"890","ref":"A4139"},"arcs":[[148],[149],[150]]},{"type":"LineString","properties":{"kind":"major_road","sort_rank":377,"landuse_kind":"national_park","is_bicycle_related":true,"bicycle_shield_text":null,"bicycle_network":"icn","source":"openstreetmap.org","min_zoom":8.0,"kind_detail":"tertiary","ref":"C3014"},"arcs":[151]},{"type":"LineString","properties":{"bus_network":null,"sort_rank":380,"kind_detail":"primary","is_bicycle_related":true,"kind":"major_road","bicycle_shield_text":"47","bicycle_network":"ncn","source":"openstreetmap.org","min_zoom":8.0,"bus_shield_text":"222*","ref":"A484"},"arcs":[152]},{"type":"LineString","properties":{"bus_network":null,"name:cy":"Y Wesh","sort_rank":381,"kind_detail":"trunk","is_bicycle_related":true,"kind":"major_road","source":"openstreetmap.org","min_zoom":8.0,"bus_shield_text":"410","ref":"A487"},"arcs":[153]},{"type":"LineString","properties":{"kind":"major_road","sort_rank":380,"kind_detail":"primary","bus_network":null,"source":"openstreetmap.org","min_zoom":8.0,"bus_shield_text":"230","id":159753745},"arcs":[154]},{"type":"MultiLineString","properties":{"bus_network":null,"network":"e-road","sort_rank":381,"kind_detail":"trunk","kind":"major_road","source":"openstreetmap.org","min_zoom":8.0,"bus_shield_text":"X11","shield_text":"30","ref":"A40"},"arcs":[[155],[156]]},{"type":"LineString","properties":{"kind":"major_road","sort_rank":381,"kind_detail":"trunk","is_bicycle_related":true,"bus_network":"National Express","source":"openstreetmap.org","min_zoom":8.0,"bus_shield_text":"508","landuse_kind":"national_park","ref":"A477","id":101361804},"arcs":[157]},{"type":"MultiLineString","properties":{"bus_network":null,"sort_rank":381,"kind_detail":"trunk","is_bicycle_related":true,"kind":"major_road","source":"openstreetmap.org","min_zoom":8.0,"bus_shield_text":"410","ref":"A487"},"arcs":[[158],[159]]},{"type":"MultiLineString","properties":{"bus_network":null,"network":"e-road","sort_rank":381,"kind_detail":"trunk","is_bicycle_related":true,"kind":"major_road","source":"openstreetmap.org","min_zoom":8.0,"bus_shield_text":"225*","shield_text":"30","ref":"A40"},"arcs":[[160],[161],[162],[163],[164],[165]]},{"type":"LineString","properties":{"bus_network":null,"sort_rank":379,"kind_detail":"secondary","is_bicycle_related":true,"kind":"major_road","bicycle_shield_text":"47","bicycle_network":"ncn","source":"openstreetmap.org","min_zoom":8.0,"bus_shield_text":"166","ref":"B4300"},"arcs":[166]},{"type":"LineString","properties":{"bus_network":null,"sort_rank":379,"kind_detail":"secondary","is_bicycle_related":true,"kind":"major_road","bicycle_shield_text":"47","bicycle_network":"ncn","source":"openstreetmap.org","min_zoom":8.0,"bus_shield_text":"225","ref":"B4299"},"arcs":[167]},{"type":"LineString","properties":{"kind":"major_road","name:en":"Emlyn Square","name:cy":"Sgw\u00e2r y Emlyn","sort_rank":380,"kind_detail":"primary","bus_network":"Cyngor Sir Ceredigion a Chaerfyrddin \/ Ceredigion and Carmarthenshire County Councils","source":"openstreetmap.org","min_zoom":8.0,"bus_shield_text":"460","ref":"A475","id":73022162},"arcs":[168]},{"type":"LineString","properties":{"source":"openstreetmap.org","kind":"major_road","ref":"A40","sort_rank":380,"kind_detail":"primary","is_bicycle_related":true,"min_zoom":8.0},"arcs":[169]},{"type":"LineString","properties":{"kind":"path","sort_rank":354,"kind_detail":"path","is_bicycle_related":true,"bicycle_shield_text":null,"cycleway":"track","source":"openstreetmap.org","min_zoom":8.0,"bicycle_network":"icn"},"arcs":[170]},{"type":"LineString","properties":{"kind":"major_road","sort_rank":380,"landuse_kind":"national_park","source":"openstreetmap.org","min_zoom":8.0,"kind_detail":"primary","ref":"A4218","id":307211229},"arcs":[171]},{"type":"LineString","properties":{"kind":"major_road","name:cy":"Heol-y-Tywysog","sort_rank":380,"kind_detail":"primary","source":"openstreetmap.org","min_zoom":8.0,"ref":"A482","id":104108829},"arcs":[172]},{"type":"LineString","properties":{"kind":"major_road","name:en":"Station Road","name:cy":"Heol y Gorsaf","sort_rank":380,"kind_detail":"primary","bus_network":"Cyngor Sir Ceredigion a Chaerfyrddin \/ Ceredigion and Carmarthenshire County Councils","source":"openstreetmap.org","min_zoom":8.0,"bus_shield_text":"460","ref":"A484","id":334043087},"arcs":[173]},{"type":"MultiLineString","properties":{"kind":"major_road","sort_rank":381,"landuse_kind":"national_park","is_bicycle_related":true,"bus_network":"Eurolines","source":"openstreetmap.org","min_zoom":8.0,"bus_shield_text":"890","kind_detail":"trunk","ref":"A477"},"arcs":[[174],[175],[176],[177]]},{"type":"LineString","properties":{"kind":"major_road","name:cy":"Heol yr Eglwys; Gerddi'r Ffynnon","sort_rank":380,"kind_detail":"primary","source":"openstreetmap.org","min_zoom":8.0,"ref":"A486","id":105136679},"arcs":[178]},{"type":"MultiLineString","properties":{"source":"openstreetmap.org","kind":"major_road","landuse_kind":"national_park","sort_rank":380,"kind_detail":"primary","ref":"A478","min_zoom":8.0},"arcs":[[179],[180]]},{"type":"LineString","properties":{"kind":"major_road","sort_rank":377,"kind_detail":"tertiary","is_bicycle_related":true,"bicycle_shield_text":null,"bicycle_network":"icn","source":"openstreetmap.org","min_zoom":8.0,"ref":"C3112","id":72445389},"arcs":[181]},{"type":"LineString","properties":{"kind":"major_road","sort_rank":381,"kind_detail":"trunk","is_bicycle_related":true,"bus_network":"National Express","source":"openstreetmap.org","min_zoom":8.0,"bus_shield_text":"508","ref":"A478","id":156440815},"arcs":[182]},{"type":"LineString","properties":{"source":"openstreetmap.org","kind":"major_road","name:cy":"Ffordd yr Eglwys","sort_rank":380,"kind_detail":"primary","ref":"A486","min_zoom":8.0},"arcs":[183]},{"type":"LineString","properties":{"kind":"major_road","name:cy":"Ffordd Y Gogledd","sort_rank":381,"kind_detail":"trunk","source":"openstreetmap.org","min_zoom":8.0,"ref":"A487","id":104108845},"arcs":[184]},{"type":"LineString","properties":{"kind":"major_road","sort_rank":379,"kind_detail":"secondary","is_bicycle_related":true,"bicycle_shield_text":"82","bicycle_network":"ncn","source":"openstreetmap.org","min_zoom":8.0,"ref":"B4333","id":73022170},"arcs":[185]},{"type":"LineString","properties":{"kind":"major_road","name:cy":"Stryd Yr Eglwys","sort_rank":379,"kind_detail":"secondary","is_bicycle_related":true,"bicycle_shield_text":"82","bicycle_network":"ncn","source":"openstreetmap.org","min_zoom":8.0,"ref":"B4624","id":176058839},"arcs":[186]},{"type":"MultiLineString","properties":{"kind":"major_road","sort_rank":381,"kind_detail":"trunk","is_bicycle_related":true,"bus_network":"Eurolines","source":"openstreetmap.org","min_zoom":8.0,"bus_shield_text":"890","ref":"A477"},"arcs":[[187],[188],[189],[190],[191],[192],[193],[194],[195],[196]]},{"type":"LineString","properties":{"bus_network":null,"sort_rank":380,"kind_detail":"primary","kind":"major_road","source":"openstreetmap.org","min_zoom":8.0,"bus_shield_text":"381","landuse_kind":"national_park","ref":"A4139"},"arcs":[197]},{"type":"LineString","properties":{"bus_network":null,"sort_rank":380,"kind_detail":"primary","is_bicycle_related":true,"kind":"major_road","bicycle_shield_text":"47","bicycle_network":"ncn","source":"openstreetmap.org","min_zoom":8.0,"bus_shield_text":"223","ref":"A478","id":4985093},"arcs":[198]},{"type":"LineString","properties":{"kind":"major_road","sort_rank":380,"kind_detail":"primary","bus_network":null,"source":"openstreetmap.org","min_zoom":8.0,"bus_shield_text":"227","id":159753740},"arcs":[199]},{"type":"LineString","properties":{"bus_network":null,"sort_rank":377,"kind_detail":"tertiary","is_bicycle_related":true,"kind":"major_road","bicycle_shield_text":null,"bicycle_network":"icn","source":"openstreetmap.org","min_zoom":8.0,"bus_shield_text":"198"},"arcs":[200]},{"type":"LineString","properties":{"bus_network":null,"network":"e-road","sort_rank":381,"kind_detail":"trunk","is_bicycle_related":true,"kind":"major_road","source":"openstreetmap.org","min_zoom":8.0,"bus_shield_text":"322","shield_text":"30","landuse_kind":"national_park","ref":"A40"},"arcs":[201]},{"type":"LineString","properties":{"source":"openstreetmap.org","kind":"major_road","sort_rank":380,"kind_detail":"primary","ref":"A4242","min_zoom":8.0,"id":161132348},"arcs":[202]},{"type":"LineString","properties":{"kind":"major_road","name:cy":"Heol Abergwili","sort_rank":377,"kind_detail":"tertiary","is_bicycle_related":true,"bus_network":null,"bicycle_shield_text":"47","bicycle_network":"ncn","source":"openstreetmap.org","min_zoom":8.0,"bus_shield_text":"276","ref":"C2030","id":33548735},"arcs":[203]},{"type":"MultiLineString","properties":{"bus_network":null,"sort_rank":381,"landuse_kind":"national_park","kind":"major_road","source":"openstreetmap.org","min_zoom":8.0,"bus_shield_text":"381","kind_detail":"trunk","ref":"A478"},"arcs":[[204],[205]]},{"type":"MultiLineString","properties":{"bus_network":"National Express","sort_rank":380,"kind_detail":"primary","kind":"major_road","source":"openstreetmap.org","min_zoom":8.0,"bus_shield_text":"508","ref":"A477"},"arcs":[[206],[207],[208],[209],[210],[211],[212]]},{"type":"MultiLineString","properties":{"bus_network":"Cyngor Sir Ceredigion a Chaerfyrddin \/ Ceredigion and Carmarthenshire County Councils","sort_rank":380,"kind_detail":"primary","kind":"major_road","source":"openstreetmap.org","min_zoom":8.0,"bus_shield_text":"460","ref":"A484"},"arcs":[[213],[214],[215],[216],[217]]},{"type":"LineString","properties":{"kind":"minor_road","name:cy":"Heol Yr Hen Orsaf","sort_rank":360,"kind_detail":"unclassified","is_bicycle_related":true,"bicycle_shield_text":"47","bicycle_network":"ncn","source":"openstreetmap.org","min_zoom":8.0},"arcs":[218]},{"type":"MultiLineString","properties":{"bus_network":"National Express","sort_rank":380,"kind_detail":"primary","kind":"major_road","source":"openstreetmap.org","min_zoom":8.0,"bus_shield_text":"508","ref":"A478"},"arcs":[[219],[220],[221],[222]]},{"type":"LineString","properties":{"kind":"major_road","name:cy":"Stryd Fawr","sort_rank":377,"kind_detail":"tertiary","is_bicycle_related":true,"bus_network":null,"bicycle_shield_text":"49","bicycle_network":"ncn","source":"openstreetmap.org","min_zoom":8.0,"bus_shield_text":"276","ref":"C2030","id":378947606},"arcs":[223]},{"type":"LineString","properties":{"kind":"major_road","sort_rank":380,"kind_detail":"primary","is_bicycle_related":true,"bus_network":null,"bicycle_shield_text":"47","bicycle_network":"ncn","source":"openstreetmap.org","min_zoom":8.0,"bus_shield_text":"205","ref":"A484","id":358555409},"arcs":[224]},{"type":"LineString","properties":{"kind":"minor_road","service":"parking_aisle","sort_rank":356,"kind_detail":"service","is_bicycle_related":true,"bicycle_shield_text":null,"bicycle_network":"icn","source":"openstreetmap.org","min_zoom":8.0},"arcs":[225]},{"type":"MultiLineString","properties":{"kind":"major_road","sort_rank":380,"kind_detail":"primary","is_bicycle_related":true,"bicycle_shield_text":"47","bicycle_network":"ncn","source":"openstreetmap.org","min_zoom":8.0,"ref":"A484"},"arcs":[[226],[227]]},{"type":"MultiLineString","properties":{"kind":"major_road","sort_rank":377,"kind_detail":"tertiary","is_bicycle_related":true,"bicycle_shield_text":"47","bicycle_network":"ncn","source":"openstreetmap.org","min_zoom":8.0,"ref":"C3100"},"arcs":[[228],[229]]},{"type":"LineString","properties":{"kind":"major_road","sort_rank":380,"kind_detail":"primary","bus_network":null,"source":"openstreetmap.org","min_zoom":8.0,"bus_shield_text":"221*","ref":"A478","id":358719339},"arcs":[230]},{"type":"MultiLineString","properties":{"kind":"major_road","sort_rank":377,"kind_detail":"tertiary","is_bicycle_related":true,"bicycle_shield_text":null,"bicycle_network":"icn","source":"openstreetmap.org","min_zoom":8.0,"ref":"C3005"},"arcs":[[231],[232],[233]]},{"type":"MultiLineString","properties":{"source":"openstreetmap.org","kind":"major_road","sort_rank":380,"kind_detail":"primary","ref":"A478","min_zoom":8.0},"arcs":[[234],[235],[236],[237],[238],[239],[240],[241],[242],[243]]},{"type":"LineString","properties":{"kind":"major_road","name:cy":"Sqwar Alban","sort_rank":380,"kind_detail":"primary","source":"openstreetmap.org","min_zoom":8.0,"ref":"A482","id":103593553},"arcs":[244]},{"type":"LineString","properties":{"source":"openstreetmap.org","kind":"major_road","ref":"A4076","sort_rank":380,"kind_detail":"primary","is_bicycle_related":true,"min_zoom":8.0},"arcs":[245]},{"type":"LineString","properties":{"kind":"major_road","sort_rank":380,"kind_detail":"primary","is_bicycle_related":true,"bus_network":null,"source":"openstreetmap.org","min_zoom":8.0,"bus_shield_text":"322","ref":"A40","id":183261720},"arcs":[246]},{"type":"MultiLineString","properties":{"bus_network":null,"network":"e-road","sort_rank":381,"kind_detail":"trunk","is_bicycle_related":true,"kind":"major_road","source":"openstreetmap.org","min_zoom":8.0,"bus_shield_text":"PR1","shield_text":"30","ref":"A40"},"arcs":[[247],[248]]},{"type":"MultiLineString","properties":{"source":"openstreetmap.org","kind":"major_road","sort_rank":381,"kind_detail":"trunk","ref":"A40","min_zoom":8.0},"arcs":[[249],[250],[251],[252],[253],[254],[255],[256]]},{"type":"LineString","properties":{"source":"openstreetmap.org","kind":"major_road","name:cy":"Heol y Graig","sort_rank":380,"kind_detail":"primary","ref":"A482","min_zoom":8.0},"arcs":[257]},{"type":"LineString","properties":{"kind":"minor_road","name:cy":"Y Popls","sort_rank":360,"kind_detail":"unclassified","is_bicycle_related":true,"bicycle_shield_text":null,"bicycle_network":"icn","source":"openstreetmap.org","min_zoom":8.0,"landuse_kind":"national_park"},"arcs":[258]},{"type":"LineString","properties":{"kind":"major_road","sort_rank":380,"kind_detail":"primary","is_bicycle_related":true,"bicycle_shield_text":"82","bicycle_network":"ncn","source":"openstreetmap.org","min_zoom":8.0,"ref":"A475"},"arcs":[259]},{"type":"LineString","properties":{"bus_network":null,"network":"e-road","sort_rank":381,"kind_detail":"trunk","is_bicycle_related":true,"kind":"major_road","source":"openstreetmap.org","min_zoom":8.0,"bus_shield_text":"222","shield_text":"30","ref":"A40"},"arcs":[260]},{"type":"LineString","properties":{"bus_network":null,"sort_rank":381,"kind_detail":"trunk","is_bicycle_related":true,"kind":"major_road","bicycle_shield_text":"82","bicycle_network":"ncn","source":"openstreetmap.org","min_zoom":8.0,"bus_shield_text":"412","ref":"A487"},"arcs":[261]},{"type":"LineString","properties":{"source":"openstreetmap.org","kind":"ferry","name":"Skomer Island foot ferry","sort_rank":355,"min_zoom":8.0,"id":303116052},"arcs":[262]},{"type":"LineString","properties":{"bus_network":null,"sort_rank":380,"kind_detail":"primary","kind":"major_road","source":"openstreetmap.org","min_zoom":8.0,"bus_shield_text":"223","ref":"A478"},"arcs":[263]},{"type":"LineString","properties":{"kind":"minor_road","sort_rank":360,"kind_detail":"unclassified","is_bicycle_related":true,"bicycle_shield_text":"822","bicycle_network":"ncn","source":"openstreetmap.org","min_zoom":8.0,"id":62043271},"arcs":[264]},{"type":"LineString","properties":{"kind":"major_road","sort_rank":380,"landuse_kind":"residential","source":"openstreetmap.org","min_zoom":8.0,"kind_detail":"primary","ref":"A40","id":463878323},"arcs":[265]},{"type":"LineString","properties":{"kind":"major_road","name:en":"Gosport Street","sort_rank":380,"kind_detail":"primary","bus_network":null,"source":"openstreetmap.org","min_zoom":8.0,"bus_shield_text":"222","ref":"A4066","id":104510280},"arcs":[266]},{"type":"MultiLineString","properties":{"kind":"major_road","network":"e-road","sort_rank":381,"kind_detail":"trunk","source":"openstreetmap.org","min_zoom":8.0,"shield_text":"30","ref":"A40"},"arcs":[[267],[268]]},{"type":"MultiLineString","properties":{"bus_network":null,"sort_rank":381,"kind_detail":"trunk","kind":"major_road","source":"openstreetmap.org","min_zoom":8.0,"bus_shield_text":"276","ref":"A40"},"arcs":[[269],[270],[271]]},{"type":"MultiLineString","properties":{"bus_network":null,"sort_rank":380,"kind_detail":"primary","kind":"major_road","source":"openstreetmap.org","min_zoom":8.0,"bus_shield_text":"311","ref":"A40"},"arcs":[[272],[273]]},{"type":"LineString","properties":{"kind":"major_road","sort_rank":377,"kind_detail":"tertiary","is_bicycle_related":true,"bicycle_shield_text":null,"bicycle_network":"icn","source":"openstreetmap.org","min_zoom":8.0,"landuse_kind":"national_park","ref":"C3017","id":4631210},"arcs":[274]},{"type":"LineString","properties":{"kind":"path","sort_rank":354,"kind_detail":"bridleway","is_bicycle_related":true,"bicycle_shield_text":"82","bicycle_network":"ncn","source":"openstreetmap.org","min_zoom":8.0,"landuse_kind":"national_park","id":135294403},"arcs":[275]},{"type":"MultiLineString","properties":{"source":"openstreetmap.org","kind":"major_road","landuse_kind":"national_park","sort_rank":380,"kind_detail":"primary","ref":"A487","min_zoom":8.0},"arcs":[[276],[277]]},{"type":"LineString","properties":{"kind":"major_road","sort_rank":380,"kind_detail":"primary","bus_network":null,"source":"openstreetmap.org","min_zoom":8.0,"bus_shield_text":"411","landuse_kind":"national_park","id":135410221},"arcs":[278]},{"type":"MultiLineString","properties":{"kind":"minor_road","sort_rank":360,"kind_detail":"unclassified","is_bicycle_related":true,"bicycle_shield_text":"82","bicycle_network":"ncn","source":"openstreetmap.org","min_zoom":8.0},"arcs":[[279],[280],[281],[282],[283],[284],[285],[286],[287],[288]]},{"type":"LineString","properties":{"kind":"major_road","name:cy":"Teras Lloyd","sort_rank":379,"kind_detail":"secondary","is_bicycle_related":true,"bicycle_shield_text":"82","bicycle_network":"ncn","source":"openstreetmap.org","min_zoom":8.0,"ref":"B4333","id":15875055},"arcs":[289]},{"type":"LineString","properties":{"kind":"major_road","sort_rank":380,"kind_detail":"primary","is_bicycle_related":true,"bicycle_network":"lcn","source":"openstreetmap.org","min_zoom":8.0,"landuse_kind":"urban_area","ref":"A4076"},"arcs":[290]},{"type":"LineString","properties":{"kind":"major_road","network":"e-road","sort_rank":381,"kind_detail":"trunk","bus_network":null,"source":"openstreetmap.org","min_zoom":8.0,"bus_shield_text":"410","shield_text":"30","id":4451914},"arcs":[291]},{"type":"LineString","properties":{"kind":"major_road","name:cy":"Heol Gwscwm","sort_rank":380,"kind_detail":"primary","is_bicycle_related":true,"bus_network":"Bws Bach","bicycle_shield_text":null,"bicycle_network":"lcn","source":"openstreetmap.org","min_zoom":8.0,"bus_shield_text":"B1","ref":"A484","id":423218424},"arcs":[292]},{"type":"MultiLineString","properties":{"bus_network":null,"sort_rank":380,"kind_detail":"primary","kind":"major_road","source":"openstreetmap.org","min_zoom":8.0,"bus_shield_text":"311","landuse_kind":"residential","ref":"A487"},"arcs":[[293],[294]]},{"type":"LineString","properties":{"bus_network":null,"sort_rank":381,"kind_detail":"trunk","kind":"major_road","source":"openstreetmap.org","min_zoom":8.0,"bus_shield_text":"PR1","ref":"A40"},"arcs":[295]},{"type":"MultiLineString","properties":{"bus_network":null,"sort_rank":381,"kind_detail":"trunk","is_bicycle_related":true,"kind":"major_road","source":"openstreetmap.org","min_zoom":8.0,"bus_shield_text":"224","ref":"A477"},"arcs":[[296],[297],[298]]},{"type":"MultiLineString","properties":{"bus_network":null,"sort_rank":379,"landuse_kind":"national_park","is_bicycle_related":true,"kind":"major_road","bicycle_shield_text":null,"bicycle_network":"icn","source":"openstreetmap.org","min_zoom":8.0,"bus_shield_text":"381","kind_detail":"secondary","ref":"B4316"},"arcs":[[299],[300],[301]]},{"type":"MultiLineString","properties":{"bus_network":null,"network":"e-road","sort_rank":381,"kind_detail":"trunk","is_bicycle_related":true,"kind":"major_road","source":"openstreetmap.org","min_zoom":8.0,"bus_shield_text":"322","shield_text":"30","landuse_kind":"residential","ref":"A40"},"arcs":[[302],[303],[304]]},{"type":"MultiLineString","properties":{"bus_network":null,"sort_rank":381,"landuse_kind":"national_park","is_bicycle_related":true,"kind":"major_road","source":"openstreetmap.org","min_zoom":8.0,"bus_shield_text":"412","kind_detail":"trunk","ref":"A487"},"arcs":[[305],[306],[307]]},{"type":"MultiLineString","properties":{"kind":"path","sort_rank":354,"landuse_kind":"national_park","is_bicycle_related":true,"bicycle_shield_text":null,"bicycle_network":"icn","source":"openstreetmap.org","min_zoom":8.0,"kind_detail":"cycleway"},"arcs":[[308],[309],[310]]},{"type":"MultiLineString","properties":{"bus_network":null,"network":"e-road","sort_rank":381,"kind_detail":"trunk","is_bicycle_related":true,"kind":"major_road","source":"openstreetmap.org","min_zoom":8.0,"bus_shield_text":"224*","shield_text":"30","ref":"A40"},"arcs":[[311],[312],[313]]},{"type":"LineString","properties":{"kind":"minor_road","sort_rank":360,"landuse_kind":"national_park","is_bicycle_related":true,"bicycle_shield_text":null,"cycleway":"track","source":"openstreetmap.org","min_zoom":8.0,"kind_detail":"unclassified","bicycle_network":"icn"},"arcs":[314]},{"type":"LineString","properties":{"bus_network":null,"sort_rank":379,"kind_detail":"secondary","is_bicycle_related":true,"kind":"major_road","bicycle_shield_text":"47","bicycle_network":"ncn","source":"openstreetmap.org","min_zoom":8.0,"bus_shield_text":"410","ref":"B4313"},"arcs":[315]},{"type":"MultiLineString","properties":{"kind":"major_road","sort_rank":379,"kind_detail":"secondary","is_bicycle_related":true,"bicycle_shield_text":"82","bicycle_network":"ncn","source":"openstreetmap.org","min_zoom":8.0,"ref":"B4624"},"arcs":[[316],[317],[318],[319]]},{"type":"LineString","properties":{"bus_network":null,"sort_rank":380,"kind_detail":"primary","is_bicycle_related":true,"kind":"major_road","bicycle_shield_text":"47","bicycle_network":"ncn","source":"openstreetmap.org","min_zoom":8.0,"bus_shield_text":"PR1","ref":"A484"},"arcs":[320]},{"type":"LineString","properties":{"kind":"major_road","name:en":"Old Graig Street","name:cy":"Stryd y Hen Graig","sort_rank":380,"kind_detail":"primary","source":"openstreetmap.org","min_zoom":8.0,"ref":"A484","id":317190350},"arcs":[321]},{"type":"LineString","properties":{"kind":"ferry","name":"Tenby - Caldey Island","sort_rank":355,"landuse_kind":"national_park","is_bicycle_related":true,"source":"openstreetmap.org","min_zoom":8.0,"id":330200141},"arcs":[322]},{"type":"LineString","properties":{"kind":"major_road","sort_rank":380,"kind_detail":"primary","bus_network":null,"source":"openstreetmap.org","min_zoom":8.0,"bus_shield_text":"411","landuse_kind":"residential","ref":"A487","id":52572993},"arcs":[323]},{"type":"LineString","properties":{"bus_network":null,"sort_rank":377,"kind_detail":"tertiary","is_bicycle_related":true,"kind":"major_road","bicycle_shield_text":"47","bicycle_network":"ncn","source":"openstreetmap.org","min_zoom":8.0,"bus_shield_text":"230","ref":"C3094"},"arcs":[324]},{"type":"LineString","properties":{"bus_network":null,"sort_rank":377,"kind_detail":"tertiary","is_bicycle_related":true,"kind":"major_road","bicycle_shield_text":"47","bicycle_network":"ncn","source":"openstreetmap.org","min_zoom":8.0,"bus_shield_text":"225"},"arcs":[325]},{"type":"MultiLineString","properties":{"kind":"minor_road","sort_rank":360,"kind_detail":"residential","is_bicycle_related":true,"bicycle_shield_text":"47","bicycle_network":"ncn","source":"openstreetmap.org","min_zoom":8.0},"arcs":[[326],[327]]},{"type":"LineString","properties":{"kind":"major_road","sort_rank":377,"landuse_kind":"national_park","is_bicycle_related":true,"bicycle_shield_text":"47","bicycle_network":"ncn","source":"openstreetmap.org","min_zoom":8.0,"kind_detail":"tertiary","ref":"C3100"},"arcs":[328]},{"type":"LineString","properties":{"kind":"major_road","sort_rank":377,"kind_detail":"tertiary","is_bicycle_related":true,"bicycle_shield_text":null,"bicycle_network":"icn","source":"openstreetmap.org","min_zoom":8.0,"ref":"C3017","id":4631210},"arcs":[329]},{"type":"LineString","properties":{"kind":"major_road","sort_rank":380,"kind_detail":"primary","is_bicycle_related":true,"bus_network":null,"bicycle_shield_text":null,"bicycle_network":"icn","source":"openstreetmap.org","min_zoom":8.0,"bus_shield_text":"221","ref":"A4066","id":4998265},"arcs":[330]},{"type":"MultiLineString","properties":{"bus_network":null,"network":"e-road","sort_rank":381,"kind_detail":"trunk","is_bicycle_related":true,"kind":"major_road","source":"openstreetmap.org","min_zoom":8.0,"bus_shield_text":"196*","shield_text":"30","ref":"A40"},"arcs":[[331],[332]]},{"type":"LineString","properties":{"bus_network":null,"sort_rank":380,"kind_detail":"primary","kind":"major_road","source":"openstreetmap.org","min_zoom":8.0,"bus_shield_text":"PR1","ref":"A4243"},"arcs":[333]},{"type":"LineString","properties":{"kind":"major_road","sort_rank":379,"kind_detail":"secondary","is_bicycle_related":true,"bicycle_shield_text":"82","bicycle_network":"ncn","source":"openstreetmap.org","min_zoom":8.0,"ref":"B4459","id":23497949},"arcs":[334]},{"type":"MultiLineString","properties":{"source":"openstreetmap.org","kind":"major_road","sort_rank":380,"kind_detail":"primary","ref":"A487","min_zoom":8.0},"arcs":[[335],[336],[337],[338],[339],[340]]},{"type":"MultiLineString","properties":{"bus_network":"National Express","sort_rank":381,"landuse_kind":"national_park","kind":"major_road","source":"openstreetmap.org","min_zoom":8.0,"bus_shield_text":"508","kind_detail":"trunk","ref":"A478"},"arcs":[[341],[342]]},{"type":"LineString","properties":{"bus_network":null,"sort_rank":380,"kind_detail":"primary","is_bicycle_related":true,"kind":"major_road","source":"openstreetmap.org","min_zoom":8.0,"bus_shield_text":"411","ref":"A487"},"arcs":[343]},{"type":"LineString","properties":{"kind":"major_road","sort_rank":380,"kind_detail":"primary","is_bicycle_related":true,"bicycle_shield_text":null,"bicycle_network":"icn","source":"openstreetmap.org","min_zoom":8.0,"ref":"A4219"},"arcs":[344]},{"type":"LineString","properties":{"kind":"minor_road","name:en":"The Pebbles","name:cy":"Y Popls","sort_rank":360,"kind_detail":"unclassified","is_bicycle_related":true,"bicycle_shield_text":null,"bicycle_network":"icn","source":"openstreetmap.org","min_zoom":8.0,"landuse_kind":"national_park","id":4984732},"arcs":[345]},{"type":"MultiLineString","properties":{"source":"openstreetmap.org","kind":"major_road","sort_rank":381,"kind_detail":"trunk","ref":"A487","min_zoom":8.0},"arcs":[[346],[347],[348]]},{"type":"LineString","properties":{"kind":"major_road","sort_rank":381,"kind_detail":"trunk","is_bicycle_related":true,"source":"openstreetmap.org","min_zoom":8.0,"ref":"A4139","id":4641921},"arcs":[349]},{"type":"LineString","properties":{"bus_network":null,"sort_rank":380,"kind_detail":"primary","kind":"major_road","source":"openstreetmap.org","min_zoom":8.0,"bus_shield_text":"410","ref":"A487"},"arcs":[350]},{"type":"LineString","properties":{"kind":"major_road","sort_rank":379,"kind_detail":"secondary","is_bicycle_related":true,"bicycle_shield_text":"82","bicycle_network":"ncn","source":"openstreetmap.org","min_zoom":8.0,"ref":"B4334"},"arcs":[351]},{"type":"LineString","properties":{"kind":"minor_road","sort_rank":358,"kind_detail":"service","is_bicycle_related":true,"bicycle_shield_text":"82","bicycle_network":"ncn","source":"openstreetmap.org","min_zoom":8.0,"landuse_kind":"national_park","id":135294402},"arcs":[352]},{"type":"MultiLineString","properties":{"kind":"major_road","sort_rank":381,"kind_detail":"trunk","is_bicycle_related":true,"source":"openstreetmap.org","min_zoom":8.0,"landuse_kind":"residential","ref":"A40"},"arcs":[[353],[354],[355],[356],[357]]},{"type":"MultiLineString","properties":{"bus_network":null,"sort_rank":380,"kind_detail":"primary","is_bicycle_related":true,"kind":"major_road","bicycle_shield_text":null,"bicycle_network":"icn","source":"openstreetmap.org","min_zoom":8.0,"bus_shield_text":"222","ref":"A4066"},"arcs":[[358],[359]]},{"type":"LineString","properties":{"kind":"minor_road","name:cy":"Y Rhodfa","sort_rank":360,"kind_detail":"residential","is_bicycle_related":true,"bicycle_shield_text":"47","bicycle_network":"ncn","source":"openstreetmap.org","min_zoom":8.0,"id":104495478},"arcs":[360]},{"type":"MultiLineString","properties":{"bus_network":null,"sort_rank":380,"kind_detail":"primary","kind":"major_road","source":"openstreetmap.org","min_zoom":8.0,"bus_shield_text":"X11","ref":"A4242"},"arcs":[[361],[362],[363],[364]]},{"type":"LineString","properties":{"kind":"major_road","sort_rank":379,"kind_detail":"secondary","is_bicycle_related":true,"bicycle_shield_text":"82","bicycle_network":"ncn","source":"openstreetmap.org","min_zoom":8.0,"ref":"B4476"},"arcs":[365]},{"type":"LineString","properties":{"kind":"major_road","network":"e-road","sort_rank":381,"kind_detail":"trunk","is_bicycle_related":true,"bus_network":null,"source":"openstreetmap.org","min_zoom":8.0,"bus_shield_text":"223","shield_text":"30","ref":"A40","id":358845845},"arcs":[366]},{"type":"MultiLineString","properties":{"source":"openstreetmap.org","bus_network":"National Express","bus_shield_text":"508","sort_rank":380,"kind_detail":"primary","min_zoom":8.0,"kind":"major_road"},"arcs":[[367],[368]]},{"type":"MultiLineString","properties":{"bus_network":"National Express","sort_rank":380,"kind_detail":"primary","is_bicycle_related":true,"kind":"major_road","source":"openstreetmap.org","min_zoom":8.0,"bus_shield_text":"508","ref":"A4076"},"arcs":[[369],[370],[371],[372]]},{"type":"MultiLineString","properties":{"bus_network":null,"sort_rank":381,"kind_detail":"trunk","is_bicycle_related":true,"kind":"major_road","bicycle_shield_text":"47","bicycle_network":"ncn","source":"openstreetmap.org","min_zoom":8.0,"bus_shield_text":"410","ref":"A487"},"arcs":[[373],[374]]},{"type":"MultiLineString","properties":{"bus_network":"Bws Bach","name:cy":"Heol Gwscwm","sort_rank":380,"kind_detail":"primary","kind":"major_road","source":"openstreetmap.org","min_zoom":8.0,"bus_shield_text":"B1","ref":"A484"},"arcs":[[375],[376],[377]]},{"type":"LineString","properties":{"kind":"major_road","name:cy":"Heol Newydd","sort_rank":380,"kind_detail":"primary","bus_network":null,"source":"openstreetmap.org","min_zoom":8.0,"bus_shield_text":"413","landuse_kind":"national_park","ref":"A487","id":3869359},"arcs":[378]},{"type":"LineString","properties":{"bus_network":null,"sort_rank":377,"landuse_kind":"national_park","is_bicycle_related":true,"kind":"major_road","bicycle_shield_text":null,"bicycle_network":"icn","source":"openstreetmap.org","min_zoom":8.0,"bus_shield_text":"413","kind_detail":"tertiary"},"arcs":[379]},{"type":"LineString","properties":{"kind":"major_road","sort_rank":380,"kind_detail":"primary","is_bicycle_related":true,"bus_network":null,"bicycle_shield_text":null,"bicycle_network":"icn","source":"openstreetmap.org","min_zoom":8.0,"bus_shield_text":"X11","ref":"A484","id":29560235},"arcs":[380]},{"type":"MultiLineString","properties":{"source":"openstreetmap.org","kind":"major_road","ref":"A487","sort_rank":380,"kind_detail":"primary","is_bicycle_related":true,"min_zoom":8.0},"arcs":[[381],[382]]},{"type":"MultiLineString","properties":{"kind":"major_road","sort_rank":380,"kind_detail":"primary","is_bicycle_related":true,"source":"openstreetmap.org","min_zoom":8.0,"landuse_kind":"residential","ref":"A487"},"arcs":[[383],[384],[385]]},{"type":"LineString","properties":{"kind":"major_road","name:en":"Water Street","name:cy":"Stryd y D\u0175r","sort_rank":380,"kind_detail":"primary","bus_network":"Cyngor Sir Ceredigion a Chaerfyrddin \/ Ceredigion and Carmarthenshire County Councils","source":"openstreetmap.org","min_zoom":8.0,"bus_shield_text":"460","ref":"A475","id":15875034},"arcs":[386]},{"type":"LineString","properties":{"source":"openstreetmap.org","kind":"major_road","ref":"A4115","sort_rank":380,"kind_detail":"primary","is_bicycle_related":true,"min_zoom":8.0},"arcs":[387]},{"type":"LineString","properties":{"kind":"major_road","sort_rank":380,"kind_detail":"primary","is_bicycle_related":true,"source":"openstreetmap.org","min_zoom":8.0,"landuse_kind":"urban_area","ref":"A4076"},"arcs":[388]},{"type":"LineString","properties":{"bus_network":null,"sort_rank":380,"kind_detail":"primary","is_bicycle_related":true,"kind":"major_road","source":"openstreetmap.org","min_zoom":8.0,"bus_shield_text":"222","ref":"A4066"},"arcs":[389]},{"type":"MultiLineString","properties":{"kind":"minor_road","sort_rank":360,"kind_detail":"residential","is_bicycle_related":true,"bicycle_shield_text":null,"bicycle_network":"icn","source":"openstreetmap.org","min_zoom":8.0},"arcs":[[390],[391],[392],[393]]},{"type":"LineString","properties":{"kind":"major_road","sort_rank":380,"kind_detail":"primary","bus_network":null,"source":"openstreetmap.org","min_zoom":8.0,"bus_shield_text":"PR1","ref":"A485","id":23389110},"arcs":[394]},{"type":"MultiLineString","properties":{"bus_network":"National Express","sort_rank":380,"kind_detail":"primary","kind":"major_road","source":"openstreetmap.org","min_zoom":8.0,"bus_shield_text":"508","landuse_kind":"residential","ref":"A4076"},"arcs":[[395],[396]]},{"type":"LineString","properties":{"kind":"minor_road","name:cy":"Pen Cei","sort_rank":360,"kind_detail":"residential","is_bicycle_related":true,"bicycle_shield_text":"822","bicycle_network":"ncn","source":"openstreetmap.org","min_zoom":8.0,"id":23921678},"arcs":[397]},{"type":"LineString","properties":{"bus_network":null,"sort_rank":380,"kind_detail":"primary","is_bicycle_related":true,"kind":"major_road","source":"openstreetmap.org","min_zoom":8.0,"bus_shield_text":"413","landuse_kind":"national_park","ref":"A487"},"arcs":[398]},{"type":"MultiLineString","properties":{"kind":"major_road","sort_rank":377,"kind_detail":"tertiary","is_bicycle_related":true,"bicycle_shield_text":null,"bicycle_network":"icn","source":"openstreetmap.org","min_zoom":8.0},"arcs":[[399],[400],[401]]},{"type":"LineString","properties":{"kind":"major_road","sort_rank":379,"kind_detail":"secondary","is_bicycle_related":true,"bus_network":null,"bicycle_shield_text":"82","bicycle_network":"ncn","source":"openstreetmap.org","min_zoom":8.0,"bus_shield_text":"407","ref":"B4546","id":23498357},"arcs":[402]},{"type":"MultiLineString","properties":{"bus_network":null,"sort_rank":380,"kind_detail":"primary","is_bicycle_related":true,"kind":"major_road","bicycle_shield_text":null,"bicycle_network":"icn","source":"openstreetmap.org","min_zoom":8.0,"bus_shield_text":"411","landuse_kind":"national_park","ref":"A487"},"arcs":[[403],[404],[405],[406]]},{"type":"MultiLineString","properties":{"kind":"path","sort_rank":354,"kind_detail":"footway","is_bicycle_related":true,"bicycle_shield_text":null,"bicycle_network":"icn","source":"openstreetmap.org","min_zoom":8.0},"arcs":[[407],[408]]},{"type":"LineString","properties":{"kind":"major_road","network":"e-road","sort_rank":381,"kind_detail":"trunk","is_bicycle_related":true,"source":"openstreetmap.org","min_zoom":8.0,"shield_text":"30","id":463892951},"arcs":[409]},{"type":"LineString","properties":{"bus_network":null,"sort_rank":379,"kind_detail":"secondary","is_bicycle_related":true,"kind":"major_road","bicycle_shield_text":null,"bicycle_network":"icn","source":"openstreetmap.org","min_zoom":8.0,"bus_shield_text":"311","ref":"B4341"},"arcs":[410]},{"type":"LineString","properties":{"kind":"major_road","sort_rank":380,"kind_detail":"primary","bus_network":"Bws Bach","source":"openstreetmap.org","min_zoom":8.0,"bus_shield_text":"B1","ref":"A484","id":424484664},"arcs":[411]},{"type":"LineString","properties":{"kind":"major_road","sort_rank":380,"kind_detail":"primary","is_bicycle_related":true,"bus_network":null,"bicycle_shield_text":"47","bicycle_network":"ncn","source":"openstreetmap.org","min_zoom":8.0,"bus_shield_text":"207","ref":"A484","id":159764652},"arcs":[412]},{"type":"LineString","properties":{"bus_network":null,"sort_rank":379,"kind_detail":"secondary","is_bicycle_related":true,"kind":"major_road","bicycle_shield_text":null,"bicycle_network":"icn","source":"openstreetmap.org","min_zoom":8.0,"bus_shield_text":"X11","ref":"B4308"},"arcs":[413]},{"type":"LineString","properties":{"kind":"major_road","sort_rank":380,"kind_detail":"primary","is_bicycle_related":true,"bus_network":"National Express","bicycle_shield_text":null,"bicycle_network":"icn","source":"openstreetmap.org","min_zoom":8.0,"bus_shield_text":"508","id":89309957},"arcs":[414]},{"type":"MultiLineString","properties":{"kind":"major_road","sort_rank":381,"kind_detail":"trunk","bus_network":"Eurolines","source":"openstreetmap.org","min_zoom":8.0,"bus_shield_text":"890","ref":"A477"},"arcs":[[415],[416],[417],[418]]},{"type":"MultiLineString","properties":{"bus_network":null,"sort_rank":380,"kind_detail":"primary","is_bicycle_related":true,"kind":"major_road","source":"openstreetmap.org","min_zoom":8.0,"bus_shield_text":"X11","ref":"A484"},"arcs":[[419],[420]]},{"type":"LineString","properties":{"kind":"major_road","sort_rank":377,"kind_detail":"tertiary","is_bicycle_related":true,"bus_network":null,"bicycle_shield_text":"47","bicycle_network":"ncn","source":"openstreetmap.org","min_zoom":8.0,"bus_shield_text":"207","id":29416391},"arcs":[421]},{"type":"LineString","properties":{"source":"openstreetmap.org","kind":"major_road","sort_rank":380,"kind_detail":"primary","ref":"A4219","min_zoom":8.0},"arcs":[422]},{"type":"LineString","properties":{"kind":"major_road","name:en":"Sycamore Street","name:cy":"Heol Sycamorwydden","sort_rank":380,"kind_detail":"primary","source":"openstreetmap.org","min_zoom":8.0,"ref":"A475","id":4830632},"arcs":[423]},{"type":"MultiLineString","properties":{"source":"openstreetmap.org","kind":"major_road","sort_rank":380,"kind_detail":"primary","ref":"A486","min_zoom":8.0},"arcs":[[424],[425],[426],[427],[428],[429],[430],[431],[432],[433]]},{"type":"LineString","properties":{"kind":"major_road","name:cy":"Heol Bronwydd","sort_rank":380,"kind_detail":"primary","is_bicycle_related":true,"bus_network":null,"bicycle_shield_text":"47","bicycle_network":"ncn","source":"openstreetmap.org","min_zoom":8.0,"bus_shield_text":"215","ref":"A484","id":26664849},"arcs":[434]},{"type":"LineString","properties":{"bus_network":"Cyngor Sir Ceredigion a Chaerfyrddin \/ Ceredigion and Carmarthenshire County Councils","sort_rank":380,"kind_detail":"primary","is_bicycle_related":true,"kind":"major_road","bicycle_shield_text":"82","bicycle_network":"ncn","source":"openstreetmap.org","min_zoom":8.0,"bus_shield_text":"460","ref":"A484"},"arcs":[435]},{"type":"LineString","properties":{"kind":"major_road","sort_rank":379,"landuse_kind":"national_park","is_bicycle_related":true,"bicycle_shield_text":"82","bicycle_network":"ncn","source":"openstreetmap.org","min_zoom":8.0,"kind_detail":"secondary","ref":"B4582"},"arcs":[436]},{"type":"LineString","properties":{"kind":"major_road","sort_rank":377,"landuse_kind":"national_park","is_bicycle_related":true,"bicycle_shield_text":"47","bicycle_network":"ncn","source":"openstreetmap.org","min_zoom":8.0,"kind_detail":"tertiary"},"arcs":[437]},{"type":"LineString","properties":{"bus_network":"National Express","sort_rank":380,"kind_detail":"primary","is_bicycle_related":true,"kind":"major_road","bicycle_shield_text":null,"bicycle_network":"icn","source":"openstreetmap.org","min_zoom":8.0,"bus_shield_text":"508","ref":"A4076"},"arcs":[438]},{"type":"MultiLineString","properties":{"bus_network":"National Express","sort_rank":381,"kind_detail":"trunk","is_bicycle_related":true,"kind":"major_road","source":"openstreetmap.org","min_zoom":8.0,"bus_shield_text":"508"},"arcs":[[439],[440],[441]]},{"type":"MultiLineString","properties":{"kind":"path","sort_rank":354,"kind_detail":"cycleway","is_bicycle_related":true,"bicycle_shield_text":null,"bicycle_network":"icn","source":"openstreetmap.org","min_zoom":8.0},"arcs":[[442],[443],[444],[445],[446],[447],[448],[449],[450],[451],[452],[453],[454],[455]]},{"type":"MultiLineString","properties":{"source":"openstreetmap.org","kind":"major_road","landuse_kind":"residential","sort_rank":380,"kind_detail":"primary","ref":"A487","min_zoom":8.0},"arcs":[[456],[457],[458],[459],[460],[461],[462],[463],[464],[465],[466],[467],[468],[469],[470]]},{"type":"MultiLineString","properties":{"source":"openstreetmap.org","kind":"major_road","ref":"A4075","sort_rank":380,"kind_detail":"primary","is_bicycle_related":true,"min_zoom":8.0},"arcs":[[471],[472],[473],[474]]},{"type":"LineString","properties":{"source":"openstreetmap.org","kind":"major_road","sort_rank":380,"kind_detail":"primary","ref":"A477","min_zoom":8.0},"arcs":[475]},{"type":"LineString","properties":{"kind":"ferry","name":"Pembroke Dock to Rosslare","sort_rank":355,"bus_network":"Eurolines","source":"openstreetmap.org","min_zoom":8.0,"bus_shield_text":"890","id":4642313},"arcs":[476]},{"type":"LineString","properties":{"kind":"path","sort_rank":354,"kind_detail":"cycleway","is_bicycle_related":true,"bicycle_shield_text":"822","bicycle_network":"ncn","source":"openstreetmap.org","min_zoom":8.0},"arcs":[477]},{"type":"LineString","properties":{"kind":"minor_road","name:cy":"Heol y Dwr","sort_rank":360,"kind_detail":"residential","is_bicycle_related":true,"bicycle_shield_text":"822","bicycle_network":"ncn","source":"openstreetmap.org","min_zoom":8.0,"id":62093975},"arcs":[478]},{"type":"LineString","properties":{"bus_network":null,"name:en":"Priory Bridge","name:cy":"Pont y Priordy","sort_rank":381,"kind_detail":"trunk","is_bicycle_related":true,"kind":"major_road","source":"openstreetmap.org","min_zoom":8.0,"bus_shield_text":"230","ref":"A487","id":19791528},"arcs":[479]},{"type":"MultiLineString","properties":{"bus_network":null,"sort_rank":380,"kind_detail":"primary","is_bicycle_related":true,"kind":"major_road","bicycle_shield_text":"47","bicycle_network":"ncn","source":"openstreetmap.org","min_zoom":8.0,"bus_shield_text":"129","ref":"A484"},"arcs":[[480],[481]]},{"type":"LineString","properties":{"kind":"minor_road","sort_rank":360,"kind_detail":"unclassified","is_bicycle_related":true,"bicycle_shield_text":null,"bicycle_network":"icn","source":"openstreetmap.org","min_zoom":8.0,"landuse_kind":"residential"},"arcs":[482]},{"type":"MultiLineString","properties":{"bus_network":null,"sort_rank":381,"kind_detail":"trunk","is_bicycle_related":true,"kind":"major_road","source":"openstreetmap.org","min_zoom":8.0,"bus_shield_text":"230","ref":"A487"},"arcs":[[483],[484],[485]]},{"type":"MultiLineString","properties":{"kind":"minor_road","sort_rank":358,"kind_detail":"service","is_bicycle_related":true,"bicycle_shield_text":null,"bicycle_network":"icn","source":"openstreetmap.org","min_zoom":8.0},"arcs":[[486],[487],[488],[489],[490],[491],[492]]},{"type":"LineString","properties":{"kind":"major_road","sort_rank":380,"kind_detail":"primary","bus_network":null,"source":"openstreetmap.org","min_zoom":8.0,"bus_shield_text":"313","landuse_kind":"residential","ref":"A40","id":4012918},"arcs":[493]},{"type":"LineString","properties":{"kind":"major_road","name:cy":"Rhes Cilgwyn","sort_rank":379,"kind_detail":"secondary","is_bicycle_related":true,"bicycle_shield_text":"82","bicycle_network":"ncn","source":"openstreetmap.org","min_zoom":8.0,"ref":"B4624","id":176049527},"arcs":[494]},{"type":"LineString","properties":{"kind":"minor_road","name:cy":"Cadwgan","sort_rank":360,"kind_detail":"residential","is_bicycle_related":true,"bicycle_shield_text":"822","bicycle_network":"ncn","source":"openstreetmap.org","min_zoom":8.0,"id":104108838},"arcs":[495]},{"type":"MultiLineString","properties":{"kind":"path","sort_rank":354,"kind_detail":"cycleway","is_bicycle_related":true,"bicycle_shield_text":null,"cycleway":"track","source":"openstreetmap.org","min_zoom":8.0,"bicycle_network":"icn"},"arcs":[[496],[497],[498],[499],[500],[501],[502]]},{"type":"LineString","properties":{"kind":"minor_road","sort_rank":358,"kind_detail":"service","is_bicycle_related":true,"bicycle_shield_text":null,"bicycle_network":"icn","source":"openstreetmap.org","min_zoom":8.0,"landuse_kind":"national_park","id":453517666},"arcs":[503]},{"type":"MultiLineString","properties":{"kind":"minor_road","sort_rank":360,"landuse_kind":"national_park","is_bicycle_related":true,"bicycle_shield_text":"47","bicycle_network":"ncn","source":"openstreetmap.org","min_zoom":8.0,"kind_detail":"unclassified"},"arcs":[[504],[505]]},{"type":"LineString","properties":{"kind":"major_road","network":"e-road","sort_rank":381,"kind_detail":"trunk","bus_network":null,"source":"openstreetmap.org","min_zoom":8.0,"bus_shield_text":"PR1","shield_text":"30","ref":"A40","id":161238868},"arcs":[506]},{"type":"LineString","properties":{"kind":"minor_road","sort_rank":358,"kind_detail":"service","is_bicycle_related":true,"bicycle_shield_text":"82","bicycle_network":"ncn","source":"openstreetmap.org","min_zoom":8.0,"id":25939476},"arcs":[507]},{"type":"LineString","properties":{"kind":"major_road","sort_rank":381,"kind_detail":"trunk","is_bicycle_related":true,"bicycle_shield_text":null,"bicycle_network":"icn","source":"openstreetmap.org","min_zoom":8.0,"landuse_kind":"national_park","ref":"A478","id":25153106},"arcs":[508]},{"type":"MultiLineString","properties":{"bus_network":null,"sort_rank":380,"kind_detail":"primary","kind":"major_road","source":"openstreetmap.org","min_zoom":8.0,"bus_shield_text":"230","ref":"A478"},"arcs":[[509],[510],[511]]},{"type":"LineString","properties":{"kind":"path","sort_rank":354,"kind_detail":"path","is_bicycle_related":true,"bicycle_shield_text":null,"bicycle_network":"icn","source":"openstreetmap.org","min_zoom":8.0},"arcs":[512]},{"type":"MultiLineString","properties":{"kind":"minor_road","sort_rank":358,"kind_detail":"service","is_bicycle_related":true,"bicycle_shield_text":"47","bicycle_network":"ncn","source":"openstreetmap.org","min_zoom":8.0},"arcs":[[513],[514],[515]]},{"type":"LineString","properties":{"bus_network":null,"name:cy":"Heol y Llandudoch","sort_rank":379,"kind_detail":"secondary","is_bicycle_related":true,"kind":"major_road","bicycle_shield_text":"82","bicycle_network":"ncn","source":"openstreetmap.org","min_zoom":8.0,"bus_shield_text":"407","ref":"B4546","id":135268497},"arcs":[516]},{"type":"MultiLineString","properties":{"bus_network":null,"sort_rank":381,"landuse_kind":"residential","is_bicycle_related":true,"kind":"major_road","source":"openstreetmap.org","min_zoom":8.0,"bus_shield_text":"311","kind_detail":"trunk","ref":"A40"},"arcs":[[517],[518],[519],[520]]},{"type":"LineString","properties":{"kind":"path","sort_rank":354,"kind_detail":"footway","is_bicycle_related":true,"bicycle_shield_text":"82","bicycle_network":"ncn","source":"openstreetmap.org","min_zoom":8.0,"id":62076268},"arcs":[521]},{"type":"LineString","properties":{"kind":"minor_road","sort_rank":360,"kind_detail":"residential","is_bicycle_related":true,"bicycle_shield_text":"822","bicycle_network":"ncn","source":"openstreetmap.org","min_zoom":8.0,"id":104108833},"arcs":[522]},{"type":"MultiLineString","properties":{"bus_network":null,"sort_rank":380,"kind_detail":"primary","kind":"major_road","source":"openstreetmap.org","min_zoom":8.0,"bus_shield_text":"PR1","ref":"A484"},"arcs":[[523],[524]]},{"type":"LineString","properties":{"kind":"minor_road","name:cy":"Fynnon Goch","sort_rank":360,"kind_detail":"residential","is_bicycle_related":true,"bicycle_shield_text":"822","bicycle_network":"ncn","source":"openstreetmap.org","min_zoom":8.0,"id":62091639},"arcs":[525]},{"type":"LineString","properties":{"kind":"path","sort_rank":354,"kind_detail":"cycleway","is_bicycle_related":true,"bicycle_shield_text":"82","bicycle_network":"ncn","source":"openstreetmap.org","min_zoom":8.0},"arcs":[526]},{"type":"LineString","properties":{"kind":"major_road","sort_rank":381,"kind_detail":"trunk","is_bicycle_related":true,"source":"openstreetmap.org","min_zoom":8.0,"ref":"A477","id":4641845},"arcs":[527]},{"type":"LineString","properties":{"kind":"minor_road","name:cy":"Rhodfa Emlyn","sort_rank":360,"kind_detail":"residential","is_bicycle_related":true,"bicycle_shield_text":null,"bicycle_network":"icn","source":"openstreetmap.org","min_zoom":8.0,"id":29559134},"arcs":[528]},{"type":"LineString","properties":{"kind":"major_road","sort_rank":380,"kind_detail":"primary","is_bicycle_related":true,"source":"openstreetmap.org","min_zoom":8.0,"landuse_kind":"residential","ref":"A40","id":463897075},"arcs":[529]},{"type":"LineString","properties":{"bus_network":null,"name:cy":"Heol Llansteffan","sort_rank":379,"kind_detail":"secondary","is_bicycle_related":true,"kind":"major_road","bicycle_shield_text":null,"bicycle_network":"icn","source":"openstreetmap.org","min_zoom":8.0,"bus_shield_text":"222*","ref":"B4312"},"arcs":[530]},{"type":"MultiLineString","properties":{"kind":"minor_road","sort_rank":360,"kind_detail":"unclassified","is_bicycle_related":true,"bicycle_shield_text":"47","bicycle_network":"ncn","source":"openstreetmap.org","min_zoom":8.0},"arcs":[[531],[532],[533],[534],[535],[536],[537],[538]]},{"type":"MultiLineString","properties":{"bus_network":"National Express","sort_rank":380,"kind_detail":"primary","kind":"major_road","source":"openstreetmap.org","min_zoom":8.0,"bus_shield_text":"508","landuse_kind":"national_park","ref":"A4139"},"arcs":[[539],[540]]},{"type":"MultiLineString","properties":{"bus_network":null,"sort_rank":380,"kind_detail":"primary","kind":"major_road","source":"openstreetmap.org","min_zoom":8.0,"bus_shield_text":"411","landuse_kind":"national_park","ref":"A487"},"arcs":[[541],[542],[543]]},{"type":"MultiLineString","properties":{"kind":"minor_road","sort_rank":360,"landuse_kind":"national_park","is_bicycle_related":true,"bicycle_shield_text":null,"bicycle_network":"icn","source":"openstreetmap.org","min_zoom":8.0,"kind_detail":"residential"},"arcs":[[544],[545],[546],[547],[548]]},{"type":"LineString","properties":{"kind":"major_road","sort_rank":381,"kind_detail":"trunk","is_bicycle_related":true,"bus_network":"National Express","bicycle_shield_text":null,"bicycle_network":"icn","source":"openstreetmap.org","min_zoom":8.0,"bus_shield_text":"508","loc_name":"The Norton","landuse_kind":"national_park","ref":"A478","id":29628457},"arcs":[549]},{"type":"LineString","properties":{"kind":"major_road","sort_rank":381,"landuse_kind":"national_park","source":"openstreetmap.org","min_zoom":8.0,"kind_detail":"trunk","ref":"A478","id":171883133},"arcs":[550]},{"type":"MultiLineString","properties":{"source":"openstreetmap.org","kind":"major_road","sort_rank":380,"kind_detail":"primary","ref":"A484","min_zoom":8.0},"arcs":[[551],[552],[553]]},{"type":"LineString","properties":{"bus_network":null,"name:cy":"Heol y Prior","sort_rank":380,"kind_detail":"primary","kind":"major_road","source":"openstreetmap.org","min_zoom":8.0,"bus_shield_text":"PR1","ref":"A484"},"arcs":[554]},{"type":"LineString","properties":{"kind":"minor_road","sort_rank":360,"kind_detail":"unclassified","is_bicycle_related":true,"bicycle_shield_text":"49","bicycle_network":"ncn","source":"openstreetmap.org","min_zoom":8.0},"arcs":[555]},{"type":"LineString","properties":{"kind":"major_road","sort_rank":379,"kind_detail":"secondary","is_bicycle_related":true,"bicycle_shield_text":"82","bicycle_network":"ncn","source":"openstreetmap.org","min_zoom":8.0,"ref":"B4570","id":23498236},"arcs":[556]},{"type":"MultiLineString","properties":{"kind":"major_road","sort_rank":379,"kind_detail":"secondary","is_bicycle_related":true,"bicycle_shield_text":"47","bicycle_network":"ncn","source":"openstreetmap.org","min_zoom":8.0,"ref":"B4313"},"arcs":[[557],[558],[559],[560]]},{"type":"LineString","properties":{"kind":"major_road","sort_rank":380,"kind_detail":"primary","is_bicycle_related":true,"bus_network":null,"source":"openstreetmap.org","min_zoom":8.0,"bus_shield_text":"322","landuse_kind":"residential","ref":"A40","id":183261720},"arcs":[561]},{"type":"LineString","properties":{"kind":"major_road","sort_rank":379,"kind_detail":"secondary","is_bicycle_related":true,"bus_network":null,"bicycle_shield_text":null,"bicycle_network":"icn","source":"openstreetmap.org","min_zoom":8.0,"bus_shield_text":"311","landuse_kind":"national_park","ref":"B4341","id":3216352},"arcs":[562]},{"type":"LineString","properties":{"kind":"major_road","name:en":"Nun Street","name:cy":"Heol Non","sort_rank":380,"kind_detail":"primary","bus_network":null,"source":"openstreetmap.org","min_zoom":8.0,"bus_shield_text":"413","landuse_kind":"national_park","ref":"A487","id":182685357},"arcs":[563]},{"type":"LineString","properties":{"kind":"major_road","sort_rank":380,"kind_detail":"primary","bus_network":"National Express","source":"openstreetmap.org","min_zoom":8.0,"bus_shield_text":"508","ref":"A4066","id":157897928},"arcs":[564]},{"type":"LineString","properties":{"bus_network":null,"sort_rank":381,"kind_detail":"trunk","kind":"major_road","source":"openstreetmap.org","min_zoom":8.0,"bus_shield_text":"281*","ref":"A40"},"arcs":[565]},{"type":"LineString","properties":{"kind":"major_road","sort_rank":380,"kind_detail":"primary","is_bicycle_related":true,"bus_network":null,"bicycle_shield_text":"47","bicycle_network":"ncn","source":"openstreetmap.org","min_zoom":8.0,"bus_shield_text":"PR1","id":358555410},"arcs":[566]},{"type":"LineString","properties":{"kind":"major_road","sort_rank":379,"kind_detail":"secondary","is_bicycle_related":true,"bus_network":null,"bicycle_shield_text":"47","bicycle_network":"ncn","source":"openstreetmap.org","min_zoom":8.0,"bus_shield_text":"129","ref":"B4300","id":139314892},"arcs":[567]},{"type":"MultiLineString","properties":{"source":"openstreetmap.org","kind":"major_road","sort_rank":380,"kind_detail":"primary","ref":"A485","min_zoom":8.0},"arcs":[[568],[569]]},{"type":"LineString","properties":{"kind":"major_road","name:cy":"Glan Dolau","sort_rank":380,"kind_detail":"primary","source":"openstreetmap.org","min_zoom":8.0,"ref":"A486","id":60113347},"arcs":[570]},{"type":"LineString","properties":{"kind":"minor_road","name:cy":"Heol Dewi","sort_rank":360,"kind_detail":"unclassified","is_bicycle_related":true,"bicycle_shield_text":"82","bicycle_network":"ncn","source":"openstreetmap.org","min_zoom":8.0},"arcs":[571]},{"type":"LineString","properties":{"kind":"major_road","sort_rank":380,"kind_detail":"primary","is_bicycle_related":true,"source":"openstreetmap.org","min_zoom":8.0,"landuse_kind":"residential","ref":"A4076"},"arcs":[572]},{"type":"MultiLineString","properties":{"bus_network":null,"network":"e-road","sort_rank":381,"kind_detail":"trunk","is_bicycle_related":true,"kind":"major_road","source":"openstreetmap.org","min_zoom":8.0,"bus_shield_text":"221","shield_text":"30","ref":"A40"},"arcs":[[573],[574]]},{"type":"LineString","properties":{"kind":"major_road","name:en":"Ebenezer Street","name:cy":"Stryd y Ebenezer","sort_rank":380,"kind_detail":"primary","bus_network":"Cyngor Sir Ceredigion a Chaerfyrddin \/ Ceredigion and Carmarthenshire County Councils","source":"openstreetmap.org","min_zoom":8.0,"bus_shield_text":"460","ref":"A484","id":73022173},"arcs":[575]},{"type":"LineString","properties":{"kind":"major_road","sort_rank":381,"kind_detail":"trunk","is_bicycle_related":true,"bus_network":null,"source":"openstreetmap.org","min_zoom":8.0,"bus_shield_text":"230","id":4238050},"arcs":[576]},{"type":"MultiLineString","properties":{"bus_network":null,"name:cy":"Rhiw'r Gofeb","sort_rank":379,"kind_detail":"secondary","is_bicycle_related":true,"kind":"major_road","bicycle_shield_text":null,"bicycle_network":"icn","source":"openstreetmap.org","min_zoom":8.0,"bus_shield_text":"222*","ref":"B4312"},"arcs":[[577],[578]]},{"type":"LineString","properties":{"kind":"major_road","sort_rank":380,"kind_detail":"primary","bus_network":"National Express","source":"openstreetmap.org","min_zoom":8.0,"bus_shield_text":"508","landuse_kind":"residential","id":145405528},"arcs":[579]},{"type":"MultiLineString","properties":{"bus_network":null,"sort_rank":380,"kind_detail":"primary","kind":"major_road","source":"openstreetmap.org","min_zoom":8.0,"bus_shield_text":"322","landuse_kind":"residential","ref":"A40"},"arcs":[[580],[581]]},{"type":"LineString","properties":{"bus_network":null,"sort_rank":380,"kind_detail":"primary","kind":"major_road","source":"openstreetmap.org","min_zoom":8.0,"bus_shield_text":"311","ref":"A487"},"arcs":[582]},{"type":"LineString","properties":{"bus_network":null,"name:cy":"Heol Pwll","sort_rank":380,"kind_detail":"primary","kind":"major_road","source":"openstreetmap.org","min_zoom":8.0,"bus_shield_text":"X11","ref":"A484"},"arcs":[583]},{"type":"LineString","properties":{"bus_network":null,"sort_rank":380,"kind_detail":"primary","is_bicycle_related":true,"kind":"major_road","source":"openstreetmap.org","min_zoom":8.0,"bus_shield_text":"223","ref":"A478"},"arcs":[584]},{"type":"MultiLineString","properties":{"kind":"minor_road","sort_rank":360,"landuse_kind":"national_park","is_bicycle_related":true,"bicycle_shield_text":"82","bicycle_network":"ncn","source":"openstreetmap.org","min_zoom":8.0,"kind_detail":"unclassified"},"arcs":[[585],[586],[587]]},{"type":"LineString","properties":{"kind":"major_road","name:cy":"Heol y Farchnad","sort_rank":377,"kind_detail":"tertiary","is_bicycle_related":true,"bicycle_shield_text":"822","bicycle_network":"ncn","source":"openstreetmap.org","min_zoom":8.0,"id":104108835},"arcs":[588]},{"type":"MultiLineString","properties":{"kind":"major_road","network":"e-road","sort_rank":381,"kind_detail":"trunk","is_bicycle_related":true,"source":"openstreetmap.org","min_zoom":8.0,"shield_text":"30","ref":"A40"},"arcs":[[589],[590],[591],[592],[593],[594],[595],[596],[597],[598],[599],[600],[601],[602],[603],[604],[605],[606],[607],[608],[609]]},{"type":"LineString","properties":{"bus_network":null,"network":"e-road","sort_rank":381,"kind_detail":"trunk","is_bicycle_related":true,"kind":"major_road","source":"openstreetmap.org","min_zoom":8.0,"bus_shield_text":"410","shield_text":"30","ref":"A40"},"arcs":[610]},{"type":"MultiLineString","properties":{"bus_network":null,"sort_rank":381,"kind_detail":"trunk","is_bicycle_related":true,"kind":"major_road","source":"openstreetmap.org","min_zoom":8.0,"bus_shield_text":"412","ref":"A487"},"arcs":[[611],[612],[613],[614]]},{"type":"LineString","properties":{"kind":"major_road","sort_rank":380,"kind_detail":"primary","bus_network":null,"source":"openstreetmap.org","min_zoom":8.0,"bus_shield_text":"111*","ref":"A484","id":180465509},"arcs":[615]},{"type":"LineString","properties":{"kind":"path","sort_rank":354,"kind_detail":"track","is_bicycle_related":true,"bicycle_shield_text":"82","bicycle_network":"ncn","source":"openstreetmap.org","min_zoom":8.0,"id":25939477},"arcs":[616]},{"type":"LineString","properties":{"kind":"major_road","sort_rank":380,"kind_detail":"primary","is_bicycle_related":true,"bus_network":null,"bicycle_shield_text":null,"bicycle_network":"icn","source":"openstreetmap.org","min_zoom":8.0,"bus_shield_text":"413","ref":"A487","id":27061162},"arcs":[617]},{"type":"LineString","properties":{"kind":"major_road","sort_rank":379,"kind_detail":"secondary","is_bicycle_related":true,"bicycle_shield_text":"82","bicycle_network":"ncn","source":"openstreetmap.org","min_zoom":8.0,"ref":"B4571","id":11688775},"arcs":[618]},{"type":"LineString","properties":{"bus_network":null,"sort_rank":377,"kind_detail":"tertiary","is_bicycle_related":true,"kind":"major_road","bicycle_shield_text":"82","bicycle_network":"ncn","source":"openstreetmap.org","min_zoom":8.0,"bus_shield_text":"407","id":139440588},"arcs":[619]},{"type":"MultiLineString","properties":{"bus_network":null,"sort_rank":380,"kind_detail":"primary","kind":"major_road","source":"openstreetmap.org","min_zoom":8.0,"bus_shield_text":"X11","ref":"A484"},"arcs":[[620],[621],[622],[623],[624],[625],[626],[627],[628],[629],[630],[631],[632],[633],[634]]},{"type":"LineString","properties":{"bus_network":null,"sort_rank":380,"kind_detail":"primary","is_bicycle_related":true,"kind":"major_road","bicycle_shield_text":"47","bicycle_network":"ncn","source":"openstreetmap.org","min_zoom":8.0,"bus_shield_text":"230","ref":"A478"},"arcs":[635]},{"type":"LineString","properties":{"bus_network":null,"name:en":"Cross Square","sort_rank":380,"kind_detail":"primary","is_bicycle_related":true,"kind":"major_road","bicycle_shield_text":null,"bicycle_network":"icn","source":"openstreetmap.org","min_zoom":8.0,"bus_shield_text":"411","landuse_kind":"national_park"},"arcs":[636]},{"type":"MultiLineString","properties":{"bus_network":null,"sort_rank":381,"kind_detail":"trunk","is_bicycle_related":true,"kind":"major_road","source":"openstreetmap.org","min_zoom":8.0,"bus_shield_text":"407","ref":"A487"},"arcs":[[637],[638],[639]]},{"type":"MultiLineString","properties":{"bus_network":null,"network":"e-road","sort_rank":381,"kind_detail":"trunk","is_bicycle_related":true,"kind":"major_road","source":"openstreetmap.org","min_zoom":8.0,"bus_shield_text":"410","shield_text":"30"},"arcs":[[640],[641]]},{"type":"LineString","properties":{"kind":"major_road","sort_rank":380,"kind_detail":"primary","bus_network":null,"source":"openstreetmap.org","min_zoom":8.0,"bus_shield_text":"227*","ref":"A484","id":161240332},"arcs":[642]},{"type":"MultiLineString","properties":{"kind":"major_road","sort_rank":379,"landuse_kind":"national_park","is_bicycle_related":true,"bicycle_shield_text":"47","bicycle_network":"ncn","source":"openstreetmap.org","min_zoom":8.0,"kind_detail":"secondary","ref":"B4313"},"arcs":[[643],[644],[645]]},{"type":"LineString","properties":{"source":"openstreetmap.org","kind":"major_road","sort_rank":380,"kind_detail":"primary","ref":"A4139","min_zoom":8.0,"id":306658241},"arcs":[646]},{"type":"LineString","properties":{"kind":"major_road","sort_rank":380,"kind_detail":"primary","bus_network":null,"source":"openstreetmap.org","min_zoom":8.0,"bus_shield_text":"311","landuse_kind":"residential","ref":"A40","id":3979023},"arcs":[647]},{"type":"LineString","properties":{"kind":"major_road","name:en":"High Street","sort_rank":377,"kind_detail":"tertiary","is_bicycle_related":true,"bus_network":null,"bicycle_shield_text":"82","bicycle_network":"ncn","source":"openstreetmap.org","min_zoom":8.0,"bus_shield_text":"230","ref":"C3004","id":55430726},"arcs":[648]},{"type":"LineString","properties":{"kind":"major_road","sort_rank":377,"kind_detail":"tertiary","is_bicycle_related":true,"bicycle_shield_text":"47","bicycle_network":"ncn","source":"openstreetmap.org","min_zoom":8.0},"arcs":[649]},{"type":"LineString","properties":{"kind":"major_road","sort_rank":377,"landuse_kind":"national_park","is_bicycle_related":true,"bicycle_shield_text":"47","bicycle_network":"ncn","source":"openstreetmap.org","min_zoom":8.0,"kind_detail":"tertiary","ref":"C3002"},"arcs":[650]},{"type":"MultiLineString","properties":{"source":"openstreetmap.org","kind":"major_road","ref":"A40","sort_rank":381,"kind_detail":"trunk","is_bicycle_related":true,"min_zoom":8.0},"arcs":[[651],[652],[653],[654]]},{"type":"MultiLineString","properties":{"source":"openstreetmap.org","kind":"major_road","sort_rank":380,"kind_detail":"primary","ref":"A475","min_zoom":8.0},"arcs":[[655],[656],[657]]},{"type":"LineString","properties":{"kind":"major_road","name:en":"Nun Street","name:cy":"Heol Non","sort_rank":380,"kind_detail":"primary","bus_network":null,"source":"openstreetmap.org","min_zoom":8.0,"bus_shield_text":"411","landuse_kind":"national_park","ref":"A487","id":24888815},"arcs":[658]},{"type":"MultiLineString","properties":{"kind":"major_road","network":"e-road","sort_rank":381,"kind_detail":"trunk","is_bicycle_related":true,"source":"openstreetmap.org","min_zoom":8.0,"landuse_kind":"residential","shield_text":"30","ref":"A40"},"arcs":[[659],[660]]},{"type":"MultiLineString","properties":{"kind":"minor_road","sort_rank":360,"kind_detail":"residential","is_bicycle_related":true,"bicycle_shield_text":"82","bicycle_network":"ncn","source":"openstreetmap.org","min_zoom":8.0},"arcs":[[661],[662]]},{"type":"MultiLineString","properties":{"bus_network":null,"sort_rank":380,"kind_detail":"primary","kind":"major_road","source":"openstreetmap.org","min_zoom":8.0,"bus_shield_text":"528","ref":"A4139"},"arcs":[[663],[664],[665]]},{"type":"MultiLineString","properties":{"bus_network":null,"name:en":"High Street","sort_rank":380,"kind_detail":"primary","is_bicycle_related":true,"kind":"major_road","bicycle_shield_text":null,"bicycle_network":"icn","source":"openstreetmap.org","min_zoom":8.0,"bus_shield_text":"411","landuse_kind":"national_park","ref":"A487"},"arcs":[[666],[667],[668]]},{"type":"MultiLineString","properties":{"source":"openstreetmap.org","kind":"major_road","ref":"A487","sort_rank":381,"kind_detail":"trunk","is_bicycle_related":true,"min_zoom":8.0},"arcs":[[669],[670],[671],[672],[673],[674]]},{"type":"MultiLineString","properties":{"bus_network":"National Express","sort_rank":381,"kind_detail":"trunk","kind":"major_road","source":"openstreetmap.org","min_zoom":8.0,"bus_shield_text":"508","ref":"A478"},"arcs":[[675],[676],[677]]},{"type":"LineString","properties":{"kind":"major_road","sort_rank":377,"kind_detail":"tertiary","is_bicycle_related":true,"bicycle_shield_text":null,"bicycle_network":"icn","source":"openstreetmap.org","min_zoom":8.0,"ref":"C3014","id":4998260},"arcs":[678]},{"type":"LineString","properties":{"kind":"major_road","name:cy":"Rhes Y Porth","sort_rank":379,"kind_detail":"secondary","is_bicycle_related":true,"bicycle_shield_text":"82","bicycle_network":"ncn","source":"openstreetmap.org","min_zoom":8.0,"ref":"B4624","id":176058834},"arcs":[679]},{"type":"LineString","properties":{"source":"openstreetmap.org","kind":"major_road","name:cy":"Stryd y Fro","sort_rank":380,"kind_detail":"primary","ref":"A482","min_zoom":8.0},"arcs":[680]},{"type":"LineString","properties":{"kind":"major_road","network":"e-road","sort_rank":381,"kind_detail":"trunk","bus_network":null,"source":"openstreetmap.org","min_zoom":8.0,"bus_shield_text":"196*","shield_text":"30","ref":"A40","id":161131740},"arcs":[681]},{"type":"LineString","properties":{"bus_network":null,"name:cy":"Y Wesh","sort_rank":381,"kind_detail":"trunk","is_bicycle_related":true,"kind":"major_road","bicycle_shield_text":"47","bicycle_network":"ncn","source":"openstreetmap.org","min_zoom":8.0,"bus_shield_text":"410","ref":"A487","id":19791736},"arcs":[682]},{"type":"MultiLineString","properties":{"kind":"minor_road","sort_rank":360,"kind_detail":"unclassified","is_bicycle_related":true,"bicycle_shield_text":null,"bicycle_network":"icn","source":"openstreetmap.org","min_zoom":8.0},"arcs":[[683],[684],[685],[686],[687],[688],[689],[690],[691],[692],[693],[694],[695],[696],[697],[698],[699],[700],[701],[702],[703],[704],[705],[706]]},{"type":"LineString","properties":{"kind":"major_road","name:cy":"Stryd Y Bont","sort_rank":379,"kind_detail":"secondary","is_bicycle_related":true,"bicycle_shield_text":"82","bicycle_network":"ncn","source":"openstreetmap.org","min_zoom":8.0,"ref":"B4624","id":84866484},"arcs":[707]},{"type":"LineString","properties":{"bus_network":null,"network":"e-road","sort_rank":381,"kind_detail":"trunk","is_bicycle_related":true,"kind":"major_road","source":"openstreetmap.org","min_zoom":8.0,"bus_shield_text":"322","shield_text":"30","id":4332712},"arcs":[708]},{"type":"LineString","properties":{"bus_network":null,"sort_rank":380,"kind_detail":"primary","kind":"major_road","source":"openstreetmap.org","min_zoom":8.0,"bus_shield_text":"221","ref":"A4066"},"arcs":[709]},{"type":"LineString","properties":{"kind":"major_road","sort_rank":377,"kind_detail":"tertiary","is_bicycle_related":true,"bicycle_shield_text":null,"bicycle_network":"icn","source":"openstreetmap.org","min_zoom":8.0,"landuse_kind":"national_park","ref":"C3005","id":37869957},"arcs":[710]},{"type":"LineString","properties":{"kind":"major_road","network":"e-road","sort_rank":381,"kind_detail":"trunk","is_bicycle_related":true,"bus_network":null,"source":"openstreetmap.org","min_zoom":8.0,"bus_shield_text":"412","shield_text":"30","id":4685981},"arcs":[711]},{"type":"LineString","properties":{"source":"openstreetmap.org","kind":"major_road","name:cy":"Stryd y Bont","sort_rank":381,"kind_detail":"trunk","ref":"A487","min_zoom":8.0},"arcs":[712]},{"type":"LineString","properties":{"kind":"path","sort_rank":354,"kind_detail":"footway","is_bicycle_related":true,"bicycle_shield_text":"822","bicycle_network":"ncn","source":"openstreetmap.org","min_zoom":8.0},"arcs":[713]},{"type":"LineString","properties":{"kind":"major_road","name:cy":"Heol Capel Dewi","sort_rank":379,"kind_detail":"secondary","is_bicycle_related":true,"bus_network":null,"bicycle_shield_text":"47","bicycle_network":"ncn","source":"openstreetmap.org","min_zoom":8.0,"bus_shield_text":"166","ref":"B4300","id":33635734},"arcs":[714]},{"type":"MultiLineString","properties":{"kind":"minor_road","sort_rank":358,"kind_detail":"service","is_bicycle_related":true,"bicycle_shield_text":"822","bicycle_network":"ncn","source":"openstreetmap.org","min_zoom":8.0},"arcs":[[715],[716]]},{"type":"LineString","properties":{"bus_network":"Eurolines","sort_rank":381,"kind_detail":"trunk","is_bicycle_related":true,"kind":"major_road","source":"openstreetmap.org","min_zoom":8.0,"bus_shield_text":"890","id":4641919},"arcs":[717]},{"type":"LineString","properties":{"source":"openstreetmap.org","kind":"major_road","name:cy":"Heol Gwscwm","sort_rank":380,"kind_detail":"primary","ref":"A484","min_zoom":8.0},"arcs":[718]},{"type":"LineString","properties":{"kind":"major_road","name:cy":"Stryd y Fro","sort_rank":380,"kind_detail":"primary","is_bicycle_related":true,"bicycle_shield_text":"822","bicycle_network":"ncn","source":"openstreetmap.org","min_zoom":8.0,"ref":"A482","id":62043262},"arcs":[719]},{"type":"LineString","properties":{"kind":"major_road","sort_rank":379,"kind_detail":"secondary","is_bicycle_related":true,"bicycle_shield_text":"82","bicycle_network":"ncn","source":"openstreetmap.org","min_zoom":8.0,"ref":"B4335","id":23498119},"arcs":[720]},{"type":"MultiLineString","properties":{"bus_network":"National Express","sort_rank":380,"kind_detail":"primary","kind":"major_road","source":"openstreetmap.org","min_zoom":8.0,"bus_shield_text":"508","ref":"A4139"},"arcs":[[721],[722],[723],[724]]},{"type":"MultiLineString","properties":{"bus_network":null,"network":"e-road","sort_rank":381,"kind_detail":"trunk","is_bicycle_related":true,"kind":"major_road","source":"openstreetmap.org","min_zoom":8.0,"bus_shield_text":"322","shield_text":"30","ref":"A40"},"arcs":[[725],[726],[727],[728],[729],[730],[731],[732],[733],[734],[735],[736],[737],[738],[739]]},{"type":"LineString","properties":{"kind":"major_road","sort_rank":377,"kind_detail":"tertiary","is_bicycle_related":true,"bicycle_shield_text":"47","bicycle_network":"ncn","source":"openstreetmap.org","min_zoom":8.0,"ref":"C3009"},"arcs":[740]},{"type":"LineString","properties":{"kind":"major_road","name:cy":"Stry Lincoln","sort_rank":379,"kind_detail":"secondary","is_bicycle_related":true,"bicycle_shield_text":"82","bicycle_network":"ncn","source":"openstreetmap.org","min_zoom":8.0,"ref":"B4624","id":105666840},"arcs":[741]},{"type":"LineString","properties":{"kind":"major_road","name:cy":"Stryd Yr Eglwys","sort_rank":379,"kind_detail":"secondary","is_bicycle_related":true,"bicycle_shield_text":"82","bicycle_network":"ncn","source":"openstreetmap.org","min_zoom":8.0,"ref":"B4476","id":84866511},"arcs":[742]},{"type":"MultiLineString","properties":{"bus_network":"National Express","sort_rank":380,"kind_detail":"primary","is_bicycle_related":true,"kind":"major_road","bicycle_shield_text":null,"bicycle_network":"icn","source":"openstreetmap.org","min_zoom":8.0,"bus_shield_text":"508","ref":"A4139"},"arcs":[[743],[744]]},{"type":"LineString","properties":{"bus_network":null,"sort_rank":381,"kind_detail":"trunk","kind":"major_road","source":"openstreetmap.org","min_zoom":8.0,"bus_shield_text":"381","ref":"A478"},"arcs":[745]},{"type":"LineString","properties":{"source":"openstreetmap.org","kind":"ferry","name":"Skomer Island foot ferry","sort_rank":355,"landuse_kind":"national_park","min_zoom":8.0,"id":303116052},"arcs":[746]},{"type":"LineString","properties":{"kind":"major_road","name:en":"Bridge Street","name:cy":"Stryd y Bont","sort_rank":380,"kind_detail":"primary","source":"openstreetmap.org","min_zoom":8.0,"ref":"A475","id":4830633},"arcs":[747]},{"type":"LineString","properties":{"bus_network":null,"network":"e-road","sort_rank":381,"kind_detail":"trunk","is_bicycle_related":true,"kind":"major_road","source":"openstreetmap.org","min_zoom":8.0,"bus_shield_text":"313","shield_text":"30","ref":"A40","id":4012521},"arcs":[748]},{"type":"LineString","properties":{"kind":"major_road","sort_rank":380,"kind_detail":"primary","bus_network":null,"source":"openstreetmap.org","min_zoom":8.0,"bus_shield_text":"223","landuse_kind":"national_park","ref":"A478","id":358824033},"arcs":[749]},{"type":"LineString","properties":{"kind":"major_road","sort_rank":380,"kind_detail":"primary","bus_network":"National Express","source":"openstreetmap.org","min_zoom":8.0,"bus_shield_text":"508","landuse_kind":"national_park","ref":"A478","id":4603207},"arcs":[750]},{"type":"LineString","properties":{"kind":"major_road","name:en":"New Road","name:cy":"Heol Newydd","sort_rank":380,"kind_detail":"primary","bus_network":"Cyngor Sir Ceredigion a Chaerfyrddin \/ Ceredigion and Carmarthenshire County Councils","source":"openstreetmap.org","min_zoom":8.0,"bus_shield_text":"460","ref":"A475","id":4830640},"arcs":[751]},{"type":"LineString","properties":{"bus_network":null,"name:cy":"Heol Llansteffan","sort_rank":379,"kind_detail":"secondary","is_bicycle_related":true,"kind":"major_road","bicycle_shield_text":null,"bicycle_network":"icn","source":"openstreetmap.org","min_zoom":8.0,"bus_shield_text":"196*","ref":"B4312"},"arcs":[752]},{"type":"LineString","properties":{"bus_network":null,"name:cy":"Ffordd Cwrwg","sort_rank":380,"kind_detail":"primary","kind":"major_road","source":"openstreetmap.org","min_zoom":8.0,"bus_shield_text":"PR1","ref":"A4242"},"arcs":[753]},{"type":"LineString","properties":{"kind":"major_road","name:cy":"Heol-y-Neuadd","sort_rank":379,"kind_detail":"secondary","is_bicycle_related":true,"bicycle_shield_text":"82","bicycle_network":"ncn","source":"openstreetmap.org","min_zoom":8.0,"ref":"B4624","id":176049518},"arcs":[754]},{"type":"MultiLineString","properties":{"bus_network":"National Express","sort_rank":380,"kind_detail":"primary","is_bicycle_related":true,"kind":"major_road","source":"openstreetmap.org","min_zoom":8.0,"bus_shield_text":"508","landuse_kind":"residential","ref":"A4076"},"arcs":[[755],[756],[757],[758],[759]]},{"type":"LineString","properties":{"kind":"major_road","sort_rank":380,"kind_detail":"primary","bus_network":null,"source":"openstreetmap.org","min_zoom":8.0,"bus_shield_text":"223*","ref":"A478","id":358719353},"arcs":[760]},{"type":"MultiLineString","properties":{"bus_network":"National Express","sort_rank":381,"kind_detail":"trunk","is_bicycle_related":true,"kind":"major_road","source":"openstreetmap.org","min_zoom":8.0,"bus_shield_text":"508","ref":"A477"},"arcs":[[761],[762],[763],[764],[765]]},{"type":"LineString","properties":{"bus_network":null,"sort_rank":380,"kind_detail":"primary","kind":"major_road","source":"openstreetmap.org","min_zoom":8.0,"bus_shield_text":"381","landuse_kind":"national_park","ref":"A4218"},"arcs":[766]},{"type":"MultiLineString","properties":{"source":"openstreetmap.org","kind":"major_road","sort_rank":380,"kind_detail":"primary","ref":"A4075","min_zoom":8.0},"arcs":[[767],[768],[769],[770],[771],[772],[773],[774],[775]]},{"type":"LineString","properties":{"kind":"major_road","name:en":"Carmarthen Road","name:cy":"Heol Caerfyrddin","sort_rank":380,"kind_detail":"primary","bus_network":"Cyngor Sir Ceredigion a Chaerfyrddin \/ Ceredigion and Carmarthenshire County Councils","source":"openstreetmap.org","min_zoom":8.0,"bus_shield_text":"460","ref":"A484","id":56402421},"arcs":[776]},{"type":"LineString","properties":{"kind":"major_road","sort_rank":380,"kind_detail":"primary","bus_network":null,"source":"openstreetmap.org","min_zoom":8.0,"bus_shield_text":"322","id":159632997},"arcs":[777]},{"type":"MultiLineString","properties":{"bus_network":null,"network":"e-road","sort_rank":381,"kind_detail":"trunk","is_bicycle_related":true,"kind":"major_road","source":"openstreetmap.org","min_zoom":8.0,"bus_shield_text":"412","shield_text":"30","ref":"A40"},"arcs":[[778],[779]]},{"type":"LineString","properties":{"kind":"major_road","name:cy":"Ffordd Cwrwg","sort_rank":380,"kind_detail":"primary","bus_network":null,"source":"openstreetmap.org","min_zoom":8.0,"bus_shield_text":"222*","ref":"A4242","id":4987431},"arcs":[780]},{"type":"LineString","properties":{"source":"openstreetmap.org","kind":"ferry","name":"Tenby - Caldey Island","sort_rank":355,"is_bicycle_related":true,"min_zoom":8.0,"id":330200141},"arcs":[781]},{"type":"LineString","properties":{"bus_network":null,"sort_rank":380,"kind_detail":"primary","is_bicycle_related":true,"kind":"major_road","bicycle_shield_text":"47","bicycle_network":"ncn","source":"openstreetmap.org","min_zoom":8.0,"bus_shield_text":"215","ref":"A484"},"arcs":[782]},{"type":"LineString","properties":{"kind":"major_road","name:cy":"Godre Rhiwgoch","sort_rank":380,"kind_detail":"primary","source":"openstreetmap.org","min_zoom":8.0,"ref":"A482","id":34255752},"arcs":[783]},{"type":"LineString","properties":{"source":"openstreetmap.org","kind":"major_road","name:cy":"Heol Llyswen","sort_rank":380,"kind_detail":"primary","ref":"A482","min_zoom":8.0},"arcs":[784]},{"type":"LineString","properties":{"kind":"major_road","sort_rank":380,"kind_detail":"primary","is_bicycle_related":true,"source":"openstreetmap.org","min_zoom":8.0,"landuse_kind":"national_park","ref":"A4075"},"arcs":[785]},{"type":"MultiLineString","properties":{"bus_network":null,"sort_rank":380,"kind_detail":"primary","kind":"major_road","source":"openstreetmap.org","min_zoom":8.0,"bus_shield_text":"129","ref":"A484"},"arcs":[[786],[787],[788]]},{"type":"LineString","properties":{"bus_network":null,"sort_rank":380,"kind_detail":"primary","kind":"major_road","source":"openstreetmap.org","min_zoom":8.0,"bus_shield_text":"322","ref":"A478"},"arcs":[789]},{"type":"LineString","properties":{"kind":"major_road","sort_rank":380,"kind_detail":"primary","bus_network":null,"source":"openstreetmap.org","min_zoom":8.0,"bus_shield_text":"205","ref":"A484","id":26664848},"arcs":[790]},{"type":"LineString","properties":{"kind":"major_road","sort_rank":379,"kind_detail":"secondary","is_bicycle_related":true,"bicycle_shield_text":null,"bicycle_network":"icn","source":"openstreetmap.org","min_zoom":8.0,"ref":"B4320","id":130746100},"arcs":[791]},{"type":"MultiLineString","properties":{"bus_network":null,"sort_rank":380,"kind_detail":"primary","kind":"major_road","source":"openstreetmap.org","min_zoom":8.0,"bus_shield_text":"413","ref":"A487"},"arcs":[[792],[793]]}]},"earth":{"type":"GeometryCollection","geometries":[{"type":"MultiPolygon","properties":{"sort_rank":10,"source":"naturalearthdata.com","min_zoom":0.0,"kind":"earth","area":51152086672},"arcs":[[[794]],[[795]]]}]},"landuse":{"type":"GeometryCollection","geometries":[{"type":"MultiPolygon","properties":{"source":"openstreetmap.org","kind":"national_park","tier":1,"area":489872945,"sort_rank":18,"min_zoom":5.0,"osm_relation":true},"arcs":[[[796]],[[797]]]},{"type":"Polygon","properties":{"source":"openstreetmap.org","kind":"military","area":63016800,"tier":3,"id":37907430,"min_zoom":8.0,"sort_rank":45},"arcs":[[798]]},{"type":"MultiPolygon","properties":{"source":"naturalearthdata.com","kind":"urban_area","name":"","area":1255513725,"sort_rank":11,"min_zoom":4.0},"arcs":[[[799]],[[800]]]},{"type":"MultiPolygon","properties":{"source":"openstreetmap.org","kind":"national_park","tier":1,"area":6378011244,"sort_rank":18,"min_zoom":3.0,"osm_relation":true},"arcs":[[[801]],[[802]]]},{"type":"MultiPolygon","properties":{"source":"openstreetmap.org","kind":"residential","tier":2,"area":54332487,"sort_rank":20,"min_zoom":8.0},"arcs":[[[803]]]}]}},"type":"Topology","transform":{"translate":[-5.625,51.6180165488],"scale":[0.0003433228,0.0002111239]},"arcs":[[[3561,4096],[-79,-283],[-38,-48],[-281,-113],[-317,-237],[-331,-47],[-222,-81],[-297,-194],[-187,-204],[-189,14],[-205,-23],[-172,-52],[-168,-90],[-175,-152],[-152,-208],[-470,-318],[-278,-347]],[[3561,4096],[-79,-283],[-38,-48],[-281,-113],[-317,-237],[-331,-47],[-222,-81],[-297,-194],[-187,-204],[-189,14],[-205,-23],[-172,-52],[-168,-90],[-175,-152],[-152,-208],[-470,-318],[-278,-347]],[[3857,1293],[-38,83],[-53,-5]],[[1999,360],[45,-15],[53,-88],[101,-26],[348,-32],[44,-23],[85,76]],[[2674,266],[-60,48],[-1,120],[41,97],[-66,182],[72,94],[-45,52],[332,87]],[[2674,266],[1,-14]],[[1707,481],[-7,-16],[0,-3],[0,-1],[0,-2]],[[1700,458],[0,1]],[[1700,459],[7,22]],[[1707,481],[27,67],[108,70],[-54,107],[11,40],[125,62],[44,107],[160,180],[217,-49],[379,-19],[223,-100]],[[2797,1024],[-1,0]],[[2827,1014],[-1,0]],[[2604,1052],[192,-28]],[[2797,1024],[29,-10]],[[2827,1014],[84,-57],[152,-25],[47,49],[16,6],[40,1],[29,15],[26,1],[76,-9],[110,44],[23,4],[34,-3],[38,14],[21,5],[286,36]],[[3809,1095],[-128,-25],[-13,-1],[-51,-3],[-68,-4],[-26,-3],[-21,-5],[-29,-12],[-4,-1],[-5,-1],[-6,-1],[-7,0],[-21,4],[-23,-4],[-65,-30],[-17,-6],[-20,-6],[-8,-2],[-8,-1],[-5,0],[-10,0],[-53,10],[-26,-1],[-20,-12],[-9,-3],[-9,-2],[-7,-1],[-24,2],[-15,-6],[-25,-37],[-6,-6],[-5,-3],[-5,-2],[-3,-1],[-4,-1],[-8,1],[-20,3],[-35,0],[-18,1],[-10,2],[-8,2],[-28,9]],[[3809,1095],[24,9]],[[3831,1101],[-6,-21]],[[3825,1080],[-29,-82],[-1,-8],[2,-7],[11,-38],[-15,-70],[-12,-17],[-64,-31],[-4,-2],[-7,-5],[-8,-8],[-3,-4],[-4,-5],[-6,-11],[-5,-15],[-1,-7],[-1,-8],[-1,-9],[-3,-11],[-4,-12],[-12,-15],[-2,-4],[-1,-3],[-2,-6],[-14,-48],[-1,-5],[0,-5],[1,-5],[1,-4],[5,-21],[1,-4],[1,-4],[2,-4],[2,-2],[3,-4],[3,-4],[4,-4],[4,-3],[5,-3],[6,-3],[5,-3],[15,-4],[21,-5],[17,-2],[42,-2],[11,-2],[42,-27],[22,-36],[4,-17],[5,-42],[2,-6],[1,-7],[1,-4],[8,-25],[9,-28],[4,-7],[5,-9],[9,-11],[6,-7],[9,-7],[5,-4],[5,-3],[4,-2],[4,-2],[4,-1],[5,-1],[28,-4],[9,-1],[118,9]],[[3825,1080],[-29,-82],[12,-53],[-15,-70],[-12,-17],[-90,-55],[-16,-61],[-5,-12],[-17,-28],[-14,-63],[37,-60],[41,-12],[59,-4],[11,-2],[42,-27],[22,-36],[5,-17],[7,-55],[18,-57],[24,-34],[64,-24],[127,8]],[[3831,1101],[5,6]],[[3836,1107],[7,7]],[[3833,1104],[-2,-3]],[[3833,1104],[1,1]],[[3834,1105],[8,10]],[[3834,1105],[2,2]],[[1863,1868],[-88,-182],[34,-131],[-45,-77],[43,-94],[102,-65],[30,-165],[399,-88],[386,-20],[223,-100]],[[2797,1024],[-1,0]],[[2827,1014],[-1,0]],[[4096,3078],[-283,-244],[-54,-17],[-59,-3],[-48,-13],[-42,-28],[-87,-104],[-56,-53],[-58,-39],[-86,-27],[-20,-28],[-14,-33],[-19,-24],[-33,-13],[-361,13],[-111,-54],[7,-140],[-97,76],[-40,-1],[-53,-59],[-72,-118],[-42,-52],[-56,-40],[-98,-17],[-22,-19],[-1,-42],[13,-54],[5,-46],[-27,-19],[-63,10],[-112,44],[-55,10],[20,-64],[-84,-35],[-56,0],[-155,84],[-34,10],[-79,5],[-48,-10],[-32,-24],[-5,-32],[35,-31],[0,-29],[-41,0],[-9,-122],[-92,-81],[-119,-45],[-89,-14],[-38,-20],[-88,-91],[-54,-21],[-105,-8],[-28,-28],[23,-61],[0,-29],[-28,-18],[-7,-14],[6,-16],[9,-20],[0,-36],[-20,-12],[-19,-17],[57,0],[162,33],[41,32],[52,-36],[115,-16],[52,-45],[20,32],[40,-38],[24,-58],[12,-71],[3,-74],[16,-119],[-10,-45],[-45,-47],[-51,-22],[-98,-20],[-41,-41],[-34,-48],[-33,-24],[-41,-9],[-62,-1],[56,-17],[144,-113],[0,-29],[-6,-51],[41,-2],[34,41],[-29,77],[52,20],[406,-56],[63,3],[226,54],[43,47],[11,53],[-41,37],[16,71],[-13,42],[-35,20],[-48,0],[36,22],[164,16],[84,35],[34,24],[0,-36],[-111,-28],[-48,-96],[16,-115],[83,-84],[0,-29],[-38,21],[-30,-7],[-71,-50],[-141,-29],[-98,-58],[-39,-10],[-42,8],[-76,26],[-43,-1],[6,-16],[8,-36],[6,-16],[-224,33],[-18,-33],[56,-65],[143,-37],[43,-92],[-27,-50],[58,-42],[-1745,0],[0,4096],[4096,0],[0,-1018]],[[820,1113],[3,-1],[14,6],[12,28],[-2,40],[9,35],[-14,11],[-16,2],[-24,-21],[9,-27],[-10,-16],[-1,-38],[19,-6],[1,-13]],[[943,521],[2,-5],[27,6],[6,14],[23,-2],[29,21],[-28,13],[-35,25],[-50,-15],[-14,-13],[14,-28],[16,-3],[12,-6],[-2,-7]],[[2113,0],[11,15],[23,42],[26,35],[45,32],[44,10],[260,-6],[50,52],[21,15],[39,-34],[26,-9],[54,134],[7,36],[0,18],[6,9],[27,5],[6,117],[95,69],[18,5],[105,29],[85,9],[219,-30],[111,5],[100,54],[-44,45],[-23,45],[11,33],[56,10],[25,-35],[25,-22],[30,-8],[18,10],[23,39],[16,16],[23,50],[19,15],[20,-33],[0,-42],[-14,-44],[-17,-33],[-9,-10],[27,-57],[45,-33],[54,-13],[53,3],[-28,-42],[-52,-7],[-121,17],[38,-88],[70,-83],[79,-63],[63,-25],[218,33],[0,-260],[-7,-2],[-20,20],[-20,15],[0,29],[19,0],[-19,36],[-19,-27],[-31,-58],[-11,-15],[-85,-28],[-1790,0]],[[2724,108],[-50,10],[-5,-19],[12,-21],[6,-9],[16,4],[18,-20],[27,5],[11,26],[-35,24]],[[3903,0],[85,28],[11,15],[31,58],[19,27],[19,-36],[-19,0],[0,-29],[20,-15],[20,-20],[7,2]],[[4096,290],[-218,-33],[-63,25],[-79,63],[-70,83],[-38,88],[121,-17],[52,7],[28,42],[-53,-3],[-54,13],[-45,33],[-27,57],[9,10],[17,33],[14,44],[0,42],[-20,33],[-19,-15],[-23,-50],[-16,-16],[-23,-39],[-18,-10],[-30,8],[-25,22],[-25,35],[-56,-10],[-11,-33],[23,-45],[44,-45],[-100,-54],[-111,-5],[-219,30],[-85,-9],[-105,-29],[-18,-5],[-95,-69],[-6,-117],[-27,-5],[-6,-9],[0,-18],[-7,-36],[-54,-134],[-26,9],[-39,34],[-21,-15],[-50,-52],[-260,6],[-44,-10],[-45,-32],[-26,-35],[-23,-42],[-11,-15]],[[1745,0],[-58,42],[27,50],[-43,92],[-143,37],[-56,65],[18,33],[224,-33],[-6,16],[-8,36],[-6,16],[43,1],[76,-26],[42,-8],[39,10],[98,58],[141,29],[71,50],[30,7],[38,-21],[0,29],[-83,84],[-16,115],[48,96],[111,28],[0,36],[-34,-24],[-84,-35],[-164,-16],[-36,-22],[48,0],[35,-20],[13,-42],[-16,-71],[41,-37],[-11,-53],[-43,-47],[-226,-54],[-63,-3],[-406,56],[-52,-20],[29,-77],[-34,-41],[-41,2],[6,51],[0,29],[-144,113],[-56,17],[62,1],[41,9],[33,24],[34,48],[41,41],[98,20],[51,22],[45,47],[10,45],[-16,119],[-3,74],[-12,71],[-24,58],[-40,38],[-20,-32],[-52,45],[-115,16],[-52,36],[-41,-32],[-162,-33],[-57,0],[19,17],[20,12],[0,36],[-9,20],[-6,16],[7,14],[28,18],[0,29],[-23,61],[28,28],[105,8],[54,21],[88,91],[38,20],[89,14],[119,45],[92,81],[9,122],[41,0],[0,29],[-35,31],[5,32],[32,24],[48,10],[79,-5],[34,-10],[155,-84],[56,0],[84,35],[-20,64],[55,-10],[112,-44],[63,-10],[27,19],[-5,46],[-13,54],[1,42],[22,19],[98,17],[56,40],[42,52],[72,118],[53,59],[40,1],[97,-76],[-7,140],[111,54],[361,-13],[33,13],[19,24],[14,33],[20,28],[86,27],[58,39],[56,53],[87,104],[42,28],[48,13],[59,3],[54,17],[283,244]],[[3846,1110],[-3,-15]],[[1245,1213],[-169,33]],[[1397,1193],[-78,32]],[[1107,1353],[-73,-27],[-10,-28]],[[1040,1247],[-2,16]],[[1297,1267],[-221,-21]],[[1397,1193],[11,4]],[[1460,1117],[-2,2]],[[1506,981],[39,-117]],[[1546,789],[71,51]],[[1572,1613],[15,14]],[[1596,1622],[18,31]],[[2676,249],[-1,1]],[[2696,245],[1,9]],[[2708,458],[-11,-15]],[[3846,1128],[5,7]],[[2683,240],[6,0]],[[2732,495],[-24,-37]],[[2318,1889],[103,4]],[[2491,1890],[17,1]],[[2982,2102],[-36,-48],[-54,15]],[[3811,1984],[11,6]],[[3366,1985],[2,3]],[[2026,363],[-4,30]],[[1861,1855],[53,1],[31,62],[-99,103],[-1846,480]],[[1696,456],[3,-1]],[[1699,455],[1,1]],[[1701,455],[-2,0]],[[1701,455]],[[3123,1964],[80,59]],[[1246,1366],[110,104]],[[1425,1507],[134,31]],[[4096,2819],[-37,11],[-51,57]],[[2628,536],[-1,-1]],[[2628,538],[1,-1]],[[3667,2773],[-5,14]],[[3914,1203],[-1,0]],[[1815,628],[0,1],[1,0],[-1,-1]],[[2406,794],[2,0],[-1,-2],[-1,1],[0,1]],[[3781,2061],[1,-2],[-2,0],[0,2],[1,0]],[[2236,214],[-23,8]],[[2595,182],[-137,-27],[-192,35]],[[2629,194],[-13,-7]],[[2655,229],[20,21]],[[2658,389],[2,-3]],[[2668,310],[13,-28]],[[2194,229],[-1,0]],[[3854,1115],[2,1]],[[3856,1114],[-2,0]],[[3858,1134],[-4,-3]],[[3913,1203],[1,0]],[[2587,695],[-18,151]],[[2580,861],[24,10],[7,68]],[[2611,943],[-5,82]],[[2610,942],[1,0]],[[2612,941],[-2,-1]],[[1057,1263],[-8,-18]],[[2620,237],[4,3]],[[2669,376],[0,2]],[[3824,1118]],[[3825,1117],[-1,0]],[[3834,1122]],[[3835,1122],[-1,-1]],[[3980,2958],[2,2]],[[4036,336],[-27,7]],[[3206,965],[41,-17]],[[3260,939],[1,1]],[[3262,941],[2,-3]],[[3801,1124],[6,2]],[[3894,962],[0,1]],[[3854,518],[22,62]],[[3876,582],[-8,31]],[[2015,363],[7,-2]],[[2022,361],[2,1]],[[2025,361],[-3,0]],[[1555,1101],[11,-19]],[[1498,1037],[-38,80]],[[1866,885],[0,1]],[[2085,258],[-35,17],[36,-9]],[[2194,239],[-107,26]],[[3834,1121],[0,1]],[[1928,917],[2,6]],[[3871,1146],[-8,-7]],[[2318,1889],[71,-100],[-3,-31]],[[3942,1174],[-36,1]],[[3846,1123],[0,5]],[[1848,1782],[25,-1]],[[3835,1120]],[[3853,1119],[4,0]],[[3906,1175],[-35,-29]],[[1046,1247],[2,-1]],[[1914,888],[1,1]],[[1917,881],[-3,5]],[[1915,889],[9,21]],[[1915,889],[0,-1]],[[3145,604],[234,97]],[[3262,941],[19,12]],[[3349,787],[-65,115]],[[3383,714],[-1,2]],[[1024,1298],[14,-35]],[[1107,1353],[32,68],[174,95]],[[1397,1568],[55,43]],[[1498,1037],[8,-56]],[[1524,780],[21,84]],[[2695,434],[-37,-45]],[[2744,515],[-12,-20]],[[2848,551],[-56,-7]],[[3958,1176],[17,-1]],[[3383,1978],[-3,1]],[[4096,1040],[-45,11],[-154,-1],[-59,39]],[[3838,1090],[60,-39],[155,1],[43,-11]],[[1971,353],[-12,6]],[[1996,370],[-25,-17]],[[1998,370],[17,-7]],[[2890,570],[-42,-19]],[[3846,1123],[0,-4]],[[1877,1791],[-21,10]],[[3824,1118],[1,-1]],[[3835,1089],[-24,21],[1,2]],[[3813,1110],[24,-22]],[[2769,647],[-1,0]],[[1856,1801],[-7,-6]],[[1877,1770],[12,10]],[[3592,1087],[22,3]],[[3614,1090],[10,2]],[[3624,1092],[4,1],[68,-7],[44,9]],[[3731,1092],[-25,-6],[-26,-1],[-24,3],[-26,4],[-3,0],[-3,0]],[[3624,1092],[-1,0],[-9,-2]],[[3614,1090],[-22,-4]],[[4096,1134],[-182,-11]],[[3274,1548],[10,-11]],[[3366,1983],[0,2]],[[1929,946]],[[1855,1805],[-14,21]],[[2672,267],[-1,-1]],[[3986,2956],[3,8]],[[3403,1987],[-20,-9]],[[2319,356],[1,0]],[[2661,525],[-4,0]],[[2661,525],[6,8]],[[2665,532],[-4,-7]],[[3686,2829],[-6,-6]],[[2657,287],[-1,1]],[[2799,1472],[32,65]],[[1630,847],[47,-17]],[[2612,432],[-14,31],[41,41],[-7,21]],[[3661,2802],[19,21]],[[3982,2960],[9,7]],[[3357,2013],[-54,33]],[[3838,2013],[0,-4]],[[2215,335],[103,20]],[[2320,356],[-1,0]],[[2320,356],[53,4]],[[2382,362],[57,13],[129,140],[60,10]],[[2382,362],[-6,-2],[-1,1],[7,1]],[[2657,525],[-23,1]],[[2680,551],[-1,-1]],[[2679,550],[-14,-18]],[[2667,533],[10,12],[2,5]],[[2679,550],[0,1],[1,2]],[[2687,259],[-6,-5]],[[2840,1660],[3,10]],[[3824,1117],[-1,1]],[[3654,672],[29,68],[95,15]],[[2356,870],[-157,12]],[[3834,1122],[1,0]],[[3906,1175],[-16,-2]],[[2656,289],[-4,14]],[[2654,311],[16,31]],[[1949,473],[-100,64]],[[1951,473],[-2,0],[0,1],[1,1],[1,-2]],[[2022,395],[-31,68],[-40,10]],[[2025,362],[1,0]],[[1848,536],[-1,1],[1,1],[1,-1]],[[1849,537],[-1,-1]],[[2021,394],[1,1],[1,-1],[-1,-1],[-1,1]],[[2830,2203],[157,-95],[75,-7],[51,-79],[46,38],[40,-33]],[[3352,1989],[-32,28],[-70,-21],[-47,27]],[[3371,1979],[-3,1]],[[3499,1980],[-69,19]],[[3662,1445],[14,406],[-26,99],[-77,22]],[[3854,1131],[-8,-8]],[[2628,536],[-1,-1]],[[2629,530],[-1,4]],[[2630,527],[-1,3]],[[2629,530],[2,-2]],[[3958,1176],[-16,-2]],[[3890,1174],[-1,-1]],[[2052,269],[4,-2]],[[3847,1114],[0,1]],[[3857,1278],[-2,9]],[[2115,1479],[8,-17]],[[2179,1452],[73,-30]],[[2657,1312],[35,57]],[[2217,248],[24,3]],[[2249,253],[9,1]],[[2286,255],[57,-6]],[[2569,846],[1,5]],[[2570,851],[-1,2]],[[2571,853],[-1,-2]],[[2579,861],[0,-1]],[[2624,540],[-37,155]],[[2626,538],[-2,2]],[[2624,540],[4,-2]],[[2799,1471],[0,1]],[[2873,1952],[-62,82],[2,33]],[[2878,1843],[2,97]],[[3985,2953],[1,3]],[[1768,521],[-16,-28]],[[1929,942],[0,3]],[[3789,1102],[-58,-10]],[[3740,1095],[30,5]],[[3836,1092],[19,22]],[[3854,1114],[0,1]],[[3855,1117],[64,67]],[[3920,1183],[1,3]],[[3924,1184],[-2,0]],[[3922,1185],[2,-1]],[[3924,1184],[34,-6]],[[3960,1178],[4,-1]],[[3989,2964],[2,3]],[[1041,1248],[-1,-1]],[[3374,2002],[60,21],[80,-15],[35,23]],[[3267,940],[-5,1]],[[2720,2067],[-15,-67]],[[1084,564],[-83,10]],[[2609,1051],[-2,111],[50,150]],[[3983,2941],[13,-18]],[[1928,915],[-1,1]],[[3379,701],[4,13]],[[3812,1112],[1,-2]],[[3835,1089],[0,2]],[[3964,1177],[75,13]],[[4058,1195],[38,5]],[[3958,1178],[1,0],[1,0],[-1,-1],[-1,1]],[[1915,886],[4,-6]],[[1913,888],[2,0],[0,-2],[-2,0],[0,2]],[[1452,1611],[77,-36]],[[2489,1890],[-60,32]],[[1063,1244],[0,1]],[[1064,1245],[0,-1]],[[1056,1262],[1,1]],[[2599,1926],[106,74]],[[2674,2151],[46,-84]],[[2756,2185],[-80,-32]],[[2982,2102],[97,-40],[44,-98]],[[3199,2027],[59,1],[14,39]],[[3549,2031],[25,-17]],[[3579,1994],[124,-1],[-3,-78]],[[3811,1984],[-98,-70]],[[3955,2000],[-52,10],[-13,56],[-45,-14]],[[4096,2081],[-98,-57],[-2,-27]],[[3372,2004],[-15,9]],[[1701,455]],[[1840,1825],[1,0]],[[3936,331],[-4,0]],[[1893,853],[6,21]],[[1899,874],[6,10]],[[3921,1186],[-83,-95]],[[3253,931],[-63,-49]],[[3263,937],[-10,-6]],[[3253,931],[8,7]],[[2669,378]],[[2670,342],[-1,34]],[[2697,443],[-2,-9]],[[1943,886],[1,5]],[[1949,883],[-4,0]],[[1944,884],[-1,-1],[-1,1],[1,1],[1,-1]],[[1915,1803],[134,10],[70,57],[199,19]],[[2421,1893],[70,-3]],[[2508,1891],[79,-26]],[[2666,329],[4,13]],[[2668,378],[1,0]],[[2794,539],[-39,-23]],[[3002,977],[204,-12]],[[3264,941],[4,-1]],[[3293,950],[151,54]],[[2666,329],[2,-19]],[[1893,1781],[9,-10]],[[3822,1990],[1,2]],[[3826,1997],[1,0]],[[3833,2006],[5,7]],[[3837,2007],[-1,-1]],[[3890,1174],[7,8]],[[3368,1980],[-16,9]],[[2702,261],[4,1]],[[1899,874]],[[3065,1650],[15,-14]],[[3629,1360],[-1,-18],[-88,-3]],[[1873,1781],[4,2]],[[1874,1787],[3,4]],[[2123,1462],[56,-10]],[[1529,1575],[3,-1]],[[3283,940]],[[3788,1102],[23,8]],[[3812,1109],[-23,-7]],[[3897,1182],[16,21]],[[3955,2000],[41,-3]],[[1867,886],[0,-1]],[[1867,885],[0,-1],[-1,1],[1,1]],[[1869,886],[18,5]],[[1889,891],[4,-3]],[[1913,886],[-2,0]],[[1887,892],[2,-1],[-1,-1],[-1,1],[0,1]],[[2656,289],[24,-8]],[[2670,342],[-4,22]],[[1634,1018],[231,-132]],[[1790,1729],[9,-8]],[[1046,1247],[-5,1]],[[3272,2372],[185,79],[25,32],[111,12],[159,87],[71,135],[98,109],[48,124]],[[3991,2967],[105,62]],[[3071,2336],[0,1],[1,0],[-1,-1]],[[1971,353]],[[1820,1784],[19,40]],[[3579,1994],[-5,20]],[[2491,1890],[-2,0]],[[1930,875],[-3,-2]],[[1928,874],[2,1]],[[1930,875],[11,8]],[[1943,883],[-2,0]],[[1941,883],[1,1]],[[3283,940],[1,-38]],[[3382,716],[-33,71]],[[3863,1139],[-5,-5]],[[3812,1112],[12,6]],[[3824,1117],[-11,-7]],[[3824,1118],[10,4]],[[3834,1121],[-9,-4]],[[3845,2052],[-3,-27]],[[3003,979],[-1,-2]],[[2627,535],[1,3]],[[2629,537],[-1,-1]],[[1815,628],[-47,-107]],[[1828,648],[-13,-19]],[[1877,810],[-45,-151]],[[1909,841],[-16,-12]],[[1890,1780],[3,1]],[[1890,1780],[-1,0],[1,0]],[[3932,331],[-6,1]],[[3965,331],[-29,0]],[[3972,333],[-2,-1]],[[1058,1264],[-1,-1]],[[1313,1516],[84,52]],[[3848,871],[1,38]],[[1356,1470],[69,37]],[[1559,1538],[109,76]],[[1899,885],[3,-2]],[[1902,883],[1,0]],[[1902,883],[1,-1]],[[3368,1980],[-2,3]],[[2586,714],[-172,23]],[[1752,493],[-16,-50],[-35,10]],[[3102,588],[43,16]],[[1832,659],[-2,1]],[[1987,359],[-2,-18]],[[1996,340],[-7,1]],[[2054,288],[5,3]],[[3914,1203],[7,-17]],[[1884,823],[-1,0]],[[1884,826],[1,-1]],[[3965,2963],[5,-4]],[[1058,1264],[188,102]],[[1828,648],[9,2]],[[2194,239],[23,9]],[[2241,251],[8,2]],[[2759,2194],[-2,2]],[[1063,1245],[1,0]],[[1064,1245],[-1,-1]],[[1076,1246],[-12,-1]],[[1458,1119],[-2,62],[-59,12]],[[3827,1118],[-5,-1]],[[3839,1113],[-5,7]],[[1928,947],[0,1],[1,0],[0,-2],[-1,1]],[[1677,830],[122,27]],[[3970,332],[-5,-1]],[[3848,1115],[0,-1]],[[3833,569],[18,-51]],[[2086,266],[1,-1]],[[2032,358],[172,-21]],[[2204,337],[2,0],[9,-2],[-5,1],[-6,1]],[[2631,526],[-1,1]],[[2632,528],[0,-1]],[[3868,614],[-20,257]],[[3854,512],[0,1]],[[3847,1113],[-1,-3]],[[1830,1676],[-28,0],[-3,45]],[[3368,1988],[4,5]],[[3662,2787],[-1,15]],[[3757,2589],[-90,184]],[[3676,1851],[117,132]],[[3778,2062],[-93,88],[-44,131],[115,307]],[[3780,2060],[-2,2]],[[3778,2062],[2,-1]],[[3782,2057],[-1,2]],[[3782,2060],[0,-3]],[[3794,1985],[-12,72]],[[3794,1985],[1,-1],[0,-1],[-2,0],[1,2]],[[3897,1183],[-7,46]],[[3199,2027],[4,-4]],[[2429,1922],[-8,-29]],[[2674,1525],[23,19]],[[1832,659],[-4,-11]],[[2026,361],[-1,-1]],[[2026,361],[-1,-1],[-1,2],[1,0],[1,-1]],[[2631,526],[-1,1],[1,1],[1,-1],[-1,-1]],[[1786,740],[-11,-15],[233,-290],[17,-72],[-37,-3]],[[1829,661],[1,-1]],[[1845,1741],[4,9]],[[1985,341],[4,0]],[[2059,291],[-11,32],[-52,17]],[[2050,289],[-3,-2]],[[2049,273],[3,-4]],[[2056,267],[12,0]],[[2664,379],[4,-1]],[[3799,573],[33,-5]],[[3840,1092],[-9,-45]],[[3846,1118],[-3,-1]],[[3857,488],[-6,30]],[[4096,318],[-16,2],[-72,-31],[-91,42],[-33,68]],[[1883,827],[2,13]],[[1883,825],[0,2]],[[1883,827],[1,-1]],[[1887,841],[-2,-1]],[[1885,840],[1,2]],[[1886,843],[1,2]],[[1893,853],[-6,-8]],[[1887,845],[0,-2]],[[1893,888],[6,-3]],[[1903,882],[-1,1]],[[1903,882],[-1,0]],[[1905,884],[-2,-2]],[[1888,842],[-1,-1]],[[1887,841],[-1,1]],[[1886,842],[1,1],[1,-1]],[[2087,265],[27,16]],[[2354,424],[-15,-21]],[[2398,544]],[[2400,856],[23,-34],[-16,-28]],[[1848,538],[-32,90]],[[1957,380],[-14,21],[-62,-31],[-174,23],[-91,-23],[-180,8],[-152,-138],[-345,70],[-939,880]],[[3996,2923],[37,-58]],[[3979,2953],[-1,4]],[[2828,2199],[-1,-6]],[[3846,1119],[2,-4]],[[3848,1114],[-1,0]],[[1801,855],[46,-29]],[[2827,2193],[-6,-22]],[[2829,2202],[-1,-3]],[[2829,2203],[0,1],[1,-1],[-1,-1],[0,1]],[[1987,359],[1,1]],[[2047,287],[2,-13]],[[2625,239],[25,-8]],[[3808,1122],[-1,4]],[[3822,1117],[-4,2]],[[3834,1120],[-7,-2]],[[3846,1110],[0,8]],[[1927,915],[1,1],[1,0],[0,-1],[-2,0]],[[3827,1997],[4,6]],[[3970,2959],[3,3]],[[1853,810],[-67,-70]],[[1849,1750],[-3,14]],[[1849,1764],[6,41]],[[2624,240],[1,-1]],[[2660,386],[4,-7]],[[3283,940],[25,18]],[[3369,985],[-44,-17]],[[2650,231],[5,-2]],[[2400,1446],[25,7]],[[2528,1482],[47,57],[99,-14]],[[3837,1088],[-2,1]],[[2856,2072],[-11,86]],[[2690,262],[7,-8]],[[2813,2067],[8,103]],[[2855,1696],[23,147]],[[2880,1940],[-7,12]],[[3818,1119],[-10,3]],[[1877,1783],[-3,4]],[[3846,1118],[7,1]],[[3857,1119],[8,-3]],[[2810,2188],[-51,6]],[[1923,874],[5,0]],[[1927,873],[-4,-1]],[[1923,874],[0,-2]],[[1923,872],[-1,0],[-1,2],[2,0]],[[2809,2189],[17,4]],[[3980,2953],[-1,0]],[[3851,1135],[2,3]],[[3897,1182]],[[3980,2953],[-1,-3]],[[2826,2193],[21,-33]],[[2375,361],[1,-1]],[[3843,1095],[-3,-3]],[[1928,916],[1,0]],[[3784,1115],[2,-10]],[[2072,1678],[51,-190]],[[2252,1422],[16,-18],[1,26],[146,-2]],[[2425,1453],[103,29]],[[2855,1696],[68,-5],[40,23],[73,-26],[29,-38]],[[3156,1605],[79,-64],[39,7]],[[3540,1339],[-70,-4],[-87,77],[-60,115],[-39,10]],[[3855,1287],[-226,73]],[[3846,1123],[-11,-3]],[[2633,203],[-4,-9]],[[2681,254],[-49,-3]],[[1319,1225],[-74,-12]],[[1458,1119],[97,-18]],[[1566,1082],[68,-64]],[[2676,249],[7,-9]],[[2681,282],[-1,-1]],[[2696,245],[-7,-5]],[[2755,516],[-11,-1]],[[2792,544],[2,-5]],[[2690,262],[-10,19]],[[2704,256],[-7,-2]],[[3573,1972],[-74,8]],[[3855,1287],[-39,89],[-73,-8],[-81,77]],[[3832,1077],[1,0]],[[3853,1138],[36,35]],[[3991,1178],[42,8]],[[3272,2067],[31,-21]],[[1902,1771],[24,-12]],[[1957,1733],[5,-1]],[[2018,1714],[54,-36]],[[2409,1436],[6,-8]],[[1930,923],[-1,19]],[[1524,780],[22,9]],[[1056,1262],[2,2]],[[3262,942],[1,-1]],[[4039,1190],[19,5]],[[3889,1173],[1,1]],[[3887,1113],[-22,3]],[[4096,1909],[-131,-282],[-51,-422]],[[3919,1186],[-5,17]],[[3689,2830],[-3,-1]],[[2757,2188],[-1,-3]],[[1923,865]],[[3592,1086],[-60,-24],[-63,-47],[-20,-10],[-170,-61]],[[3444,1004],[25,12],[54,41],[8,5],[61,25]],[[3380,1979],[-9,0]],[[2822,2170],[-1,0],[-1,0],[1,1],[1,-1]],[[3784,1115],[12,7]],[[3796,1122],[5,2]],[[1885,825],[-1,-2],[-1,1],[1,2],[1,-1]],[[1921,873],[-4,8]],[[1924,910],[2,4]],[[1905,884],[8,3]],[[4096,333],[-29,3]],[[2606,1025],[3,26]],[[2063,1700],[163,-35],[40,44],[120,49]],[[2599,1926],[-91,-35]],[[2674,2151],[2,2]],[[3973,2962],[5,-5]],[[1847,1467],[-24,53]],[[1850,1751],[-2,43]],[[1849,1750],[1,1]],[[1850,1751],[0,-1]],[[1928,948],[1,1]],[[1930,948],[0,-1]],[[1945,937],[0,1]],[[1946,937],[0,-1]],[[2404,867],[1,0]],[[2405,867],[-1,0]],[[2478,895],[-73,-28]],[[2481,895],[-3,0]],[[2478,895],[2,1]],[[2481,898],[2,0]],[[2483,898],[-1,-1]],[[2562,919],[-79,-21]],[[2610,941],[0,1]],[[2611,942],[1,-1]],[[2911,962],[1,1]],[[2912,963],[0,-1]],[[3001,979],[-89,-16]],[[1848,1795],[-8,29]],[[1852,1751],[16,12]],[[1893,1781],[22,22]],[[2705,2000],[12,-79],[-88,-70],[-42,14]],[[2821,2170],[-67,-40],[-34,-63]],[[3876,580],[0,2]],[[2845,2158],[2,2]],[[1772,1705],[18,24]],[[3374,2002],[-2,2]],[[2810,2188],[-1,1]],[[3833,1079],[-1,-5]],[[3833,1049],[-1,25]],[[3833,1079],[0,1]],[[3837,1088],[-4,-8]],[[3833,1080],[2,9]],[[3833,1049],[1,-1],[0,-1],[-1,1],[0,1]],[[3894,963],[-5,53],[-55,32]],[[3849,909],[45,53]],[[3854,513],[0,4]],[[3926,332],[-41,33],[-31,147]],[[4065,335],[-29,1]],[[4065,335],[1,1],[1,-1],[-1,0],[-1,0]],[[3853,518],[1,0],[0,-1]],[[3854,517],[-1,0],[0,1]],[[3867,613],[1,1],[0,-1],[-1,0]],[[2843,1670],[12,26]],[[1048,1246],[-2,1]],[[2830,2204],[19,21]],[[2856,2234],[-7,-9]],[[2849,2225],[6,9]],[[1840,1825],[-1,-1],[0,1],[1,0]],[[1849,1795],[0,-1],[-2,0],[1,1],[1,0]],[[3833,1075],[-1,0]],[[1926,1759],[31,-26]],[[1962,1732],[56,-18]],[[2400,1446],[9,-10]],[[2058,276],[1,0]],[[1919,880],[3,-6]],[[2883,2074],[9,-5]],[[3080,1636],[76,-31]],[[2697,1544],[90,118],[53,-2]],[[3247,948],[12,-7]],[[3279,944],[-12,-4]],[[3268,940],[25,10]],[[3770,1100],[18,2]],[[3374,2000],[0,2]],[[3549,2031],[196,54]],[[3746,2084],[200,124],[114,43],[36,-2]],[[1046,1247],[10,15]],[[1943,884],[1,0]],[[1944,884],[-1,-1]],[[2757,2196],[0,-8]],[[2883,2074],[-27,-2]],[[2213,222],[-19,7]],[[2604,183],[-9,-1]],[[2616,187],[-6,-3]],[[1063,1244],[-15,2]],[[1063,1244],[0,1]],[[1063,1244]],[[1851,1750],[1,1]],[[1868,1763],[9,7]],[[2855,2234],[16,12]],[[2871,2246],[-15,-12]],[[2871,2246],[200,91]],[[3072,2337],[103,-8],[97,43]],[[2664,378],[-52,54]],[[2664,376],[-1,2],[2,0],[0,-1],[-1,-1]],[[2666,364],[-2,12]],[[3284,902],[-45,-35],[-90,-160],[-94,-69],[-104,-17],[-61,-51]],[[3838,2009],[-1,-2]],[[3981,2935],[1,3]],[[3813,1110],[-1,-1]],[[1889,1780],[-12,11]],[[1408,1197],[16,52],[-127,18]],[[1532,1574],[40,39]],[[1587,1627],[9,-5]],[[1614,1653],[114,119],[44,-67]],[[1617,840],[13,7]],[[1799,857],[2,-2]],[[1799,1721],[46,20]],[[1837,650],[1,-8]],[[1846,1764],[3,0]],[[1847,826],[6,-16]],[[2054,288],[-4,1]],[[2068,267],[18,-1]],[[2087,263],[106,-34]],[[2343,249],[99,43],[86,-58],[92,3]],[[3149,707],[233,9]],[[3349,787],[-116,62]],[[3325,968],[-17,-10]],[[3369,985],[-3,-106],[55,-10],[30,60],[45,-17],[86,115],[14,-15],[127,32],[66,50]],[[3799,573],[-154,44],[9,55]],[[3778,755],[9,49],[38,18],[4,50],[19,-1]],[[3831,1047],[-6,-76],[24,-62]],[[3832,568],[1,1]],[[3843,1117],[-4,-4]],[[3884,399],[10,46],[-37,43]],[[3823,1992],[3,5]],[[2611,940],[-1,2],[1,0],[1,-1],[-1,-1]],[[3281,953],[2,-13]],[[2258,254],[28,1]],[[1851,1750],[0,-2],[-2,0],[0,2],[2,0]],[[3969,2950],[11,8]],[[3980,2943],[-1,7]],[[3914,1123],[-27,-10]],[[3980,2943],[3,0]],[[4033,2865],[13,-12]],[[1998,371],[0,-2],[-2,1],[1,1],[1,0]],[[4009,343],[-37,-10]],[[3982,2938],[3,15]],[[3700,1915],[13,-1]],[[2032,358],[26,-82]],[[2087,263],[-2,-5]],[[2610,184],[-6,-1]],[[2632,251],[1,-48]],[[1944,939],[-13,8]],[[1944,891],[3,45]],[[2199,882],[-250,1]],[[2400,867],[-44,3]],[[2400,867],[2,1]],[[2402,866],[-2,1]],[[2609,941],[-47,-22]],[[2909,961],[-296,-19]],[[2909,961],[2,0]],[[2911,961],[-2,0]],[[2402,866],[0,2]],[[2402,868],[2,0],[0,-2],[-2,0]],[[2480,897],[1,1],[1,-2],[-1,-1],[-1,2]],[[2912,961],[-1,-1],[0,1]],[[2911,961],[1,1],[0,-1]],[[2123,1488],[-8,-9]],[[3831,2003],[2,3]],[[3842,2025],[-4,-12]],[[2087,265],[0,-2]],[[2194,229],[0,10]],[[2652,303],[2,8]],[[1107,561],[-23,3]],[[3372,1993],[2,7]],[[1945,938],[1,-1],[0,-1],[-1,1],[0,1]],[[2831,1537],[9,123]],[[2687,259],[3,3]],[[3352,1989],[14,-4]],[[3786,1105],[3,-11]],[[3835,1122],[11,1]],[[3836,2006],[-10,-9]],[[1877,810],[6,14]],[[1893,829],[-5,-3]],[[1924,862],[-15,-21]],[[1923,865],[-2,7]],[[1922,872],[1,-7]],[[2692,1369],[107,102]],[[2027,360],[5,-2]],[[2680,553],[3,9]],[[2683,562],[-3,-11]],[[2768,647],[-85,-85]],[[3190,882],[-204,-79],[-71,-108],[-146,-48]],[[2656,289],[16,-22]],[[2114,281],[95,54]],[[2209,335],[0,1]],[[2210,336],[-1,-1]],[[2209,336]],[[2398,544],[-44,-120]],[[2408,793],[16,-159],[-26,-90]],[[2402,864],[-2,-8]],[[2403,866],[-1,-2]],[[2402,864],[0,2]],[[3430,1999],[-27,-12]],[[2579,861],[0,-1]],[[1823,1520],[27,228]],[[1928,949],[-25,83],[1,329],[-57,106]],[[3836,1122],[-1,0]],[[2706,262],[21,5],[17,-33],[-31,-127]],[[3890,1229],[-33,49]],[[3979,2926],[2,9]],[[4008,2887],[-29,39]],[[2339,403],[-20,-47]],[[3847,1114],[0,2]],[[3848,1115],[6,0]],[[3854,1114],[-6,0]],[[2579,860],[0,1]],[[3897,1182]],[[2049,273],[0,1]],[[1668,1614],[104,91]],[[1790,1729],[30,55]],[[4096,30],[0,-30],[-193,0],[85,28],[11,15],[31,58],[19,27],[19,-36],[-19,0],[0,-29],[20,-15],[20,-20],[7,2]],[[4096,3078],[0,-2788],[-218,-33],[-63,25],[-79,63],[-70,83],[-38,88],[121,-17],[52,7],[28,42],[-53,-3],[-54,13],[-45,33],[-27,57],[9,10],[17,33],[14,44],[0,42],[-20,33],[-19,-15],[-23,-50],[-16,-16],[-23,-39],[-18,-10],[-30,8],[-25,22],[-25,35],[-56,-10],[-11,-33],[23,-45],[44,-45],[-100,-54],[-111,-5],[-219,30],[-85,-9],[-105,-29],[-18,-5],[-95,-69],[-6,-117],[-27,-5],[-6,-9],[0,-18],[-7,-36],[-54,-134],[-26,9],[-39,34],[-21,-15],[-50,-52],[-260,6],[-44,-10],[-45,-32],[-26,-35],[-23,-42],[-11,-15],[-368,0],[-58,42],[27,50],[-43,92],[-143,37],[-56,65],[18,33],[224,-33],[-6,16],[-8,36],[-6,16],[43,1],[76,-26],[42,-8],[39,10],[98,58],[141,29],[71,50],[30,7],[38,-21],[0,29],[-83,84],[-16,115],[48,96],[111,28],[0,36],[-34,-24],[-84,-35],[-164,-16],[-36,-22],[48,0],[35,-20],[13,-42],[-16,-71],[41,-37],[-11,-53],[-43,-47],[-226,-54],[-63,-3],[-406,56],[-52,-20],[29,-77],[-34,-41],[-41,2],[6,51],[0,29],[-144,113],[-56,17],[62,1],[41,9],[33,24],[34,48],[41,41],[98,20],[51,22],[45,47],[10,45],[-16,119],[-3,74],[-12,71],[-24,58],[-40,38],[-20,-32],[-52,45],[-115,16],[-52,36],[-41,-32],[-162,-33],[-57,0],[19,17],[20,12],[0,36],[-9,20],[-6,16],[7,14],[28,18],[0,29],[-23,61],[28,28],[105,8],[54,21],[88,91],[38,20],[89,14],[119,45],[92,81],[9,122],[41,0],[0,29],[-35,31],[5,32],[32,24],[48,10],[79,-5],[34,-10],[155,-84],[56,0],[84,35],[-20,64],[55,-10],[112,-44],[63,-10],[27,19],[-5,46],[-13,54],[1,42],[22,19],[98,17],[56,40],[42,52],[72,118],[53,59],[40,1],[97,-76],[-7,140],[111,54],[361,-13],[33,13],[19,24],[14,33],[20,28],[86,27],[58,39],[56,53],[87,104],[42,28],[48,13],[59,3],[54,17],[283,244]],[[2101,0],[-375,0],[-1,1],[-77,11],[-8,42],[34,19],[1,31],[-44,111],[-124,26],[-52,60],[38,14],[8,38],[86,-12],[18,-44],[45,-5],[21,68],[38,2],[-13,-41],[34,-23],[-3,-32],[89,-13],[4,-53],[-33,-34],[13,-37],[-21,-1],[41,-21],[186,-15],[30,46],[42,-2],[37,29],[54,-33],[21,84],[62,17],[8,25],[291,-40],[-12,-17],[68,-23],[48,47],[-39,43],[32,18],[21,91],[-57,55],[42,90],[35,29],[39,-37],[29,10],[11,124],[90,-7],[31,-33],[1,-63],[-112,-30],[-59,-59],[-3,-42],[46,-40],[-57,-59],[-10,-43],[26,-24],[-57,-55],[-2,-33],[-134,9],[3,-46],[-62,-8],[-11,-35],[-148,62],[-84,-4],[-20,-26],[17,-14],[-107,-55],[-15,-43]],[[1946,717],[25,2],[13,75],[48,42],[130,-3],[38,51],[192,-17],[31,-45],[-28,-43],[-34,-20],[-10,20],[-66,-5],[0,-66],[-92,-19],[19,-56],[49,-25],[-15,-52],[89,-31],[63,19],[-79,-188],[-209,47],[-61,69],[-1,94],[47,30],[-31,88],[14,28],[-80,-19],[-52,24]],[[1638,39],[37,38],[-35,70],[201,-43],[22,-42],[78,-28],[27,-34],[-290,0],[-28,11],[-12,28]],[[1763,304],[-52,38],[-5,12],[100,-23],[-43,-27]],[[1820,420],[-158,16],[-7,112],[108,-61],[57,-67]],[[888,1164],[37,52],[-25,47],[59,41],[-23,49],[-32,-8],[26,30],[48,28],[87,3],[68,69],[75,13],[12,19],[-20,11],[42,16],[-16,15],[22,26],[124,-11],[-6,22],[38,16],[-12,24],[117,-1],[8,39],[54,-5],[-6,56],[22,25],[-45,39],[68,52],[-51,51],[55,71],[138,-25],[8,-22],[48,26],[51,-14],[-6,-30],[-43,-12],[-1,-29],[-148,-22],[-58,-209],[-15,11],[-125,-110],[-138,5],[-120,-78],[114,-219],[144,-44],[33,47],[58,-25],[40,38],[62,3],[1,-124],[-102,-19],[79,-83],[-56,-98],[39,-80],[-20,-11],[-18,-153],[20,-60],[52,-19],[-48,-6],[19,-76],[-31,-93],[-26,2],[-20,64],[-30,12],[4,41],[35,28],[-6,5],[0,5],[2,0],[0,1],[-36,-22],[-1,-89],[-30,-31],[-25,33],[-93,-22],[-32,31],[11,21],[0,19],[-18,14],[18,-30],[-29,-44],[15,-39],[55,-22],[-25,-3],[2,-65],[-40,-2],[-13,-34],[-37,46],[4,89],[-49,14],[-11,45],[-58,3],[-75,53],[2,28],[127,-21],[17,99],[49,-9],[76,88],[121,-18],[32,28],[13,175],[-87,241],[-75,-6],[-22,20],[-44,-19],[7,30],[-45,-1],[13,32],[-24,-31],[-41,0],[-16,29],[-188,-16],[-41,-58],[-2,39],[-53,-31],[-14,20]],[[1906,1817],[26,-9],[99,59],[24,-11],[27,118],[90,-74],[58,19],[105,-20],[-52,27],[10,41],[-29,21],[28,60],[136,38],[71,90],[23,-3],[51,102],[-23,27],[53,66],[69,-50],[46,23],[7,-40],[-50,-29],[-12,-47],[13,-74],[-41,-13],[34,-137],[-86,-64],[65,-41],[-54,-7],[-8,-26],[27,-65],[76,-2],[23,-50],[36,7],[29,-40],[28,2],[35,-55],[-8,-134],[-33,-54],[-11,25],[-130,-87],[-83,129],[-47,-57],[-84,-8],[-45,-49],[-278,34],[24,58],[61,34],[2,35],[-145,114],[-112,35],[-25,24],[36,42],[-42,-6],[-14,22]],[[1798,854],[95,33],[2,45],[9,-48],[16,-4],[10,66],[16,-12],[-12,-24],[27,-49],[-76,-29],[36,-14],[-10,-27],[-113,63]]]}