{"objects":{"water":{"type":"GeometryCollection","geometries":[{"type":"MultiPolygon","properties":{"source":"naturalearthdata.com","kind":"ocean","area":1576712559132672,"sort_rank":200,"min_zoom":0.0,"id":1},"arcs":[[[46]],[[47]],[[48]],[[49]],[[50]]]},{"type":"MultiLineString","properties":{"source":"naturalearthdata.com","kind":"ocean","sort_rank":205,"boundary":true,"min_zoom":0.0,"id":41},"arcs":[[51],[52],[53],[54],[55]]}]},"buildings":{"type":"GeometryCollection","geometries":[]},"places":{"type":"GeometryCollection","geometries":[{"type":"Point","properties":{"source":"naturalearthdata.com","kind":"locality","name":"Penzance","population":20812,"min_zoom":7.0,"id":2394},"coordinates":[218,1348]},{"type":"Point","properties":{"kind":"locality","name":"Falmouth","kind_detail":"town","name:kw":"Aberfala","source":"openstreetmap.org","min_zoom":8.0,"name:ru":"\u0424\u0430\u043b\u043c\u0443\u0442","id":29285363,"population":25223},"coordinates":[1620,1446]},{"type":"Point","properties":{"kind":"locality","name":"St Austell","kind_detail":"town","name:kw":"Sen Ostell","source":"openstreetmap.org","min_zoom":8.0,"id":18253732,"population":23864},"coordinates":[2437,2282]},{"type":"Point","properties":{"name:el":"\u03a4\u03c1\u03bf\u03cd\u03c1\u03bf","kind":"locality","name":"Truro","kind_detail":"city","name:ar":"\u062a\u0631\u0648\u0631\u0648","name:br":"Truru","name:sr":"\u0422\u0440\u0443\u0440\u043e","name:kw":"Truru","source":"openstreetmap.org","min_zoom":8.0,"name:uk":"\u0422\u0440\u0443\u0440\u043e","name:ru":"\u0422\u0440\u0443\u0440\u043e","id":26867377,"population":20332},"coordinates":[1669,1936]},{"type":"Point","properties":{"kind":"locality","name":"Bodmin","kind_detail":"town","source":"openstreetmap.org","min_zoom":8.0,"name:ru":"\u0411\u043e\u0434\u043c\u0438\u043d","id":60455399,"population":14614},"coordinates":[2623,2885]},{"type":"Point","properties":{"kind":"locality","name":"Launceston","kind_detail":"town","name:kw":"Lannstevan","source":"openstreetmap.org","min_zoom":8.0,"name:uk":"\u041b\u043e\u043d\u0441\u0435\u0441\u0442\u043e\u043d","name:ru":"\u041b\u043e\u043d\u0441\u0435\u0441\u0442\u043e\u043d","id":3099722186,"population":7135},"coordinates":[3683,3640]},{"type":"Point","properties":{"kind":"locality","name":"Lostwithiel","kind_detail":"town","name:kw":"Lostwydhyel","source":"openstreetmap.org","min_zoom":8.0,"id":1610355808,"population":2659},"coordinates":[2788,2596]},{"type":"Point","properties":{"source":"openstreetmap.org","kind":"locality","name":"Fowey","kind_detail":"town","population":2131,"min_zoom":8.0,"id":21554314},"coordinates":[2879,2269]}]},"transit":{"type":"GeometryCollection","geometries":[{"type":"MultiLineString","properties":{"kind":"train","network":"national","sort_rank":275,"source":"openstreetmap.org","min_zoom":6.0,"operator":"First Great Western","osm_relation":true,"name":"Truro to Falmouth (Maritime Line)"},"arcs":[[6],[7],[8],[9],[10],[11],[12],[13],[14]]},{"type":"MultiLineString","properties":{"source":"openstreetmap.org","kind":"train","name":"Par to Newquay","sort_rank":275,"min_zoom":6.0,"osm_relation":true},"arcs":[[15],[16],[17],[18],[19],[20]]},{"type":"LineString","properties":{"kind":"train","name":"Plymouth to Gunnislake (Tamar Valley Line)","sort_rank":275,"source":"openstreetmap.org","min_zoom":6.0,"operator":"First Great Western","osm_relation":true,"network":"national"},"arcs":[21]},{"type":"MultiLineString","properties":{"kind":"train","network":"national","sort_rank":275,"colour":"#32366d","name":"Paddington to Penzance","source":"openstreetmap.org","min_zoom":6.0,"operator":"First Great Western","ref":"135 (GW)","osm_relation":true,"colour_name":"darkgrey"},"arcs":[[22],[23],[24],[25],[26],[27],[28],[29],[30],[31],[32],[33],[34],[35],[36],[37]]},{"type":"MultiLineString","properties":{"osm_relation":true,"source":"openstreetmap.org","kind":"train","name":"Liskeard to Looe (Looe Valley Line)","sort_rank":275,"min_zoom":6.0,"operator":"First Great Western"},"arcs":[[38],[39],[40]]},{"type":"MultiLineString","properties":{"kind":"train","name":"St Erth - St Ives (St Ives Bay Line)","sort_rank":275,"source":"openstreetmap.org","min_zoom":6.0,"operator":"First Great Western","osm_relation":true,"network":"national"},"arcs":[[41],[42],[43],[44],[45]]}]},"pois":{"type":"GeometryCollection","geometries":[]},"boundaries":{"type":"GeometryCollection","geometries":[{"type":"MultiLineString","properties":{"name:kg":"Royaume-Uni","name:ty":"Parat\u0101ne","name:ka":"\u10d2\u10d0\u10d4\u10e0\u10d7\u10d8\u10d0\u10dc\u10d4\u10d1\u10e3\u10da\u10d8 \u10e1\u10d0\u10db\u10d4\u10e4\u10dd","name:ko":"\uc601\uad6d","name:cv":"\u0410\u0441\u043b\u0103 \u0411\u0440\u0438\u0442\u0430\u043d\u0438","name:cu":"\u0412\u0454\u043b\u0438\u043a\u0430 \u0411\u0440\u0438\u0442\u0430\u043d\u0457\ua657","name:kl":"Tuluit Nunaat","name:cs":"Spojen\u00e9 kr\u00e1lovstv\u00ed","name:tt":"\u0411\u04e9\u0435\u043a\u0431\u0440\u0438\u0442\u0430\u043d\u0438\u044f","name:co":"Regnu Unitu","name:kv":"\u042b\u0434\u0436\u044b\u0434 \u0411\u0440\u0438\u0442\u0430\u043d\u0438\u044f","name:ku":"Keyaniya Yekb\u00fby\u00ee","name:tl":"Nagkakaisang Kaharian","name:ce":"\u0419\u043e\u043a\u043a\u0445\u0430 \u0411\u0440\u0438\u0442\u0430\u043d\u0438","name:ta":"\u0b90\u0b95\u0bcd\u0b95\u0bbf\u0baf \u0b87\u0bb0\u0bbe\u0b9a\u0bcd\u0b9a\u0bbf\u0baf\u0bae\u0bcd","name:tg":"\u041f\u043e\u0434\u0448\u043e\u04b3\u0438\u0438 \u041c\u0443\u0442\u0442\u0430\u04b3\u0438\u0434\u0430","name:ca":"Regne Unit","name:te":"\u0c2f\u0c41\u0c28\u0c48\u0c1f\u0c46\u0c21\u0c4d \u0c15\u0c3f\u0c02\u0c17\u0c4d\u200c\u0c21\u0c2e\u0c4d","name:cy":"Deyrnas Unedig","name:qu":"Hukllachasqa Qhapaq Suyu","name:da":"Storbritannien","name:de":"Vereinigtes K\u00f6nigreich","name:dz":"\u0f61\u0f74\u0f0b\u0f53\u0f60\u0f72\u0f0b\u0f4a\u0f7a\u0f4a\u0f0b\u0f40\u0f72\u0f44\u0f0b\u0f4c\u0f58","source":"openstreetmap.org","name:kn":"\u0caf\u0cc1\u0ca8\u0cc8\u0c9f\u0cc6\u0ca1\u0ccd \u0c95\u0cbf\u0c82\u0c97\u0ccd\u200c\u0ca1\u0c82","name:dv":"\u0794\u07aa\u0782\u07a6\u0787\u07a8\u0793\u07ac\u0791\u07b0 \u0786\u07a8\u0782\u07b0\u078e\u07b0\u0791\u07a6\u0789\u07b0","name:km":"\u179a\u17b6\u1787\u17b6\u178e\u17b6\u1785\u1780\u17d2\u179a\u179a\u17bd\u1798","name:lv":"Apvienot\u0101 Karaliste","name:lt":"Jungtin\u0117 Karalyst\u0117","name:uz":"Birlashgan Qirollik","name:kk":"\u04b0\u043b\u044b\u0431\u0440\u0438\u0442\u0430\u043d\u0438\u044f","name:ur":"\u0628\u0631\u0637\u0627\u0646\u06cc\u06c1","name:lb":"Groussbritannien an Nordirland","name:la":"Britanniarum Regnum","name:uk":"\u0412\u0435\u043b\u0438\u043a\u0430 \u0411\u0440\u0438\u0442\u0430\u043d\u0456\u044f","name:ug":"\u0628\u06c8\u064a\u06c8\u0643 \u0628\u06d0\u0631\u0649\u062a\u0627\u0646\u0649\u064a\u06d5","name:li":"Vereineg Keuninkriek","name:ln":"Ing\u025bl\u025b\u0301t\u025bl\u025b","name:el":"\u0397\u03bd\u03c9\u03bc\u03ad\u03bd\u03bf \u0392\u03b1\u03c3\u03af\u03bb\u03b5\u03b9\u03bf","name:eo":"Britujo","name":"United Kingdom","name:th":"\u0e2a\u0e2b\u0e23\u0e32\u0e0a\u0e2d\u0e32\u0e13\u0e32\u0e08\u0e31\u0e01\u0e23","name:eu":"Erresuma Batua","name:et":"Suurbritannia","name:es":"Reino Unido","name:ia":"Regno Unite","name:rm":"Reginavel Un\u00ec","name:az":"B\u00f6y\u00fck Britaniya","name:ie":"Reyatu Unit","name:id":"Britania Raya","name:ig":"Obodo\u00e9z\u00e8 N\u00e0 Of\u00fa","name:ar":"\u0627\u0644\u0645\u0645\u0644\u0643\u0629 \u0627\u0644\u0645\u062a\u062d\u062f\u0629","name:io":"Unionita Rejio","name:is":"Bretland","name:am":"\u12e9\u1293\u12ed\u1275\u12f5 \u12aa\u1295\u130d\u12f0\u121d","name:it":"Regno Unito","name:an":"Reino Unito","name:ru":"\u0412\u0435\u043b\u0438\u043a\u043e\u0431\u0440\u0438\u0442\u0430\u043d\u0438\u044f","name:ab":"\u0411\u0440\u0438\u0442\u0430\u043d\u0438\u0430 \u0414\u0443","name:af":"Verenigde Koninkryk","name:zu":"Umbuso Ohlangeneyo","kind_detail":"2","name:za":"Yinghgoz","name:zh-yue":"\u82f1\u570b","name:zh":"\u82f1\u570b","name:so":"Midowga boqortooyada Britan","name:sl":"Zdru\u017eeno kraljestvo Velike Britanije in Severne Irske","name:sk":"Spojen\u00e9 kr\u00e1\u013eovstvo","name:ja":"\u30a4\u30ae\u30ea\u30b9","name:si":"\u0d91\u0d9a\u0dca\u0dc3\u0dad\u0dca \u0dbb\u0dcf\u0da2\u0db0\u0dcf\u0db1\u0dd2\u0dba","name:sh":"Ujedinjeno Kraljevstvo","name:se":"Ovttastuvvan gonagasriika","name:sc":"Rennu Auniadu","name:sa":"\u0938\u0902\u092f\u0941\u0915\u094d\u0924 \u0905\u0927\u093f\u0930\u093e\u091c\u094d\u092f","name:bs":"Ujedinjeno Kraljevstvo Velike Britanije i Sjeverne Irske","name:bn":"\u09af\u09c1\u0995\u09cd\u09a4\u09b0\u09be\u099c\u09cd\u09af","name:bo":"\u0f51\u0f56\u0fb1\u0f72\u0f53\u0f0b\u0f47\u0f72\u0f0b\u0f58\u0f49\u0f58\u0f0b\u0f60\u0f56\u0fb2\u0f7a\u0f63\u0f0d","name:br":"Rouantelezh-Unanet","name:sw":"Ufalme wa Muungano","name:be":"\u0412\u044f\u043b\u0456\u043a\u0430\u0431\u0440\u044b\u0442\u0430\u043d\u0456\u044f","name:su":"Britania","name:bg":"\u041e\u0431\u0435\u0434\u0438\u043d\u0435\u043d\u043e \u043a\u0440\u0430\u043b\u0441\u0442\u0432\u043e \u0412\u0435\u043b\u0438\u043a\u043e\u0431\u0440\u0438\u0442\u0430\u043d\u0438\u044f \u0438 \u0421\u0435\u0432\u0435\u0440\u043d\u0430 \u0418\u0440\u043b\u0430\u043d\u0434\u0438\u044f","name:ba":"\u0411\u04e9\u0439\u04e9\u043a \u0411\u0440\u0438\u0442\u0430\u043d\u0438\u044f","name:sq":"Mbret\u00ebria e Bashkuar e Britanis\u00eb dhe Irland\u00ebs s\u00eb Veriut","name:jv":"Britania Raya","name:bi":"Unaeted Kingdom","name:pt":"Reino Unido","name:ps":"\u0628\u0631\u064a\u062a\u0627\u0646\u064a\u0627","name:oc":"Reialme Unit","min_zoom":8.0,"name:ro":"Regatul Unit al Marii Britanii \u0219i al Irlandei de Nord","name:zh-min-nan":"Li\u00e2n-ha\u030dp \u00d4ng-kok","name:os":"\u0421\u0442\u044b\u0440 \u0411\u0440\u0438\u0442\u0430\u043d\u0438","name:or":"\u0b2f\u0b41\u0b15\u0b4d\u0b24\u0b30\u0b3e\u0b1c\u0b4d\u0b5f","name:pl":"Wielka Brytania","sort_rank":262,"name:sr":"\u0423\u0458\u0435\u0434\u0438\u045a\u0435\u043d\u043e \u041a\u0440\u0430\u0459\u0435\u0432\u0441\u0442\u0432\u043e","osm_relation":true,"name:pa":"\u0a38\u0a70\u0a2f\u0a41\u0a15\u0a24 \u0a2c\u0a3e\u0a26\u0a38\u0a3c\u0a3e\u0a39\u0a40","name:tr":"Birle\u015fik Krall\u0131k","name:hi":"\u092f\u0942\u0928\u093e\u0907\u091f\u0947\u0921 \u0915\u093f\u0902\u0917\u0921\u092e","name:sv":"Storbritannien","name:he":"\u05d4\u05de\u05de\u05dc\u05db\u05d4 \u05d4\u05de\u05d0\u05d5\u05d7\u05d3\u05ea","name:ha":"Birtaniya","name:hy":"\u0544\u056b\u0561\u0581\u0575\u0561\u056c \u0539\u0561\u0563\u0561\u057e\u0578\u0580\u0578\u0582\u0569\u0575\u0578\u0582\u0576","name:ht":"Way\u00f2m Ini","name:hu":"Egyes\u00fclt Kir\u00e1lys\u00e1g","name:hr":"Ujedinjeno Kraljevstvo","kind":"country","name:yi":"\u05e4\u05d0\u05e8\u05d0\u05d9\u05d9\u05e0\u05d9\u05d2\u05d8\u05e2 \u05e7\u05e2\u05e0\u05d9\u05d2\u05e8\u05d9\u05d9\u05da","name:yo":"Il\u1eb9\u0300\u1ecdba A\u1e63\u1ecd\u0300kan","name:mt":"Renju Unit","alt_name:eo":"Britio","name:mr":"\u092f\u0941\u0928\u093e\u092f\u091f\u0947\u0921 \u0915\u093f\u0902\u0917\u094d\u0921\u092e","name:my":"\u101a\u1030\u1014\u102d\u102f\u1000\u103a\u1010\u1000\u103a\u1000\u1004\u103a\u1038\u1012\u1019\u103a\u1038\u1014\u102d\u102f\u1004\u103a\u1004\u1036","name:kw":"Ruwvaneth Unys","name:mg":"Fanjakana Mitambatra","name:vi":"V\u01b0\u01a1ng qu\u1ed1c Anh","name:ml":"\u0d2f\u0d41\u0d23\u0d48\u0d31\u0d4d\u0d31\u0d21\u0d4d \u0d15\u0d3f\u0d19\u0d4d\u0d21\u0d02","name:mn":"\u0418\u0445 \u0411\u0440\u0438\u0442\u0430\u043d\u0438","name:mi":"K\u012bngitanga Kotahi","id":-62149,"name:mk":"\u041e\u0431\u0435\u0434\u0438\u043d\u0435\u0442\u043e \u041a\u0440\u0430\u043b\u0441\u0442\u0432\u043e","name:vo":"Reg\u00e4n Pebal\u00f6l","name:fa":"\u0628\u0631\u06cc\u062a\u0627\u0646\u06cc\u0627","name:rw":"Ubwongereza","short_name":"UK","name:fi":"Yhdistynyt kuningaskunta","name:ky":"\u0423\u043b\u0443\u0443 \u0411\u0440\u0438\u0442\u0430\u043d\u0438\u044f \u0436\u0430\u043d\u0430 \u0422\u04af\u043d\u0434\u04af\u043a \u0418\u0440\u043b\u0430\u043d\u0434\u0438\u044f","name:fo":"St\u00f3ra Bretland","name:fr":"Royaume-Uni","name:fy":"Feriene Keninkryk","name:nl":"Verenigd Koninkrijk","name:nn":"Storbritannia","name:no":"Storbritannia","name:na":"Ingerand","name:ne":"\u0938\u0902\u092f\u0941\u0915\u094d\u0924 \u0905\u0927\u093f\u0930\u093e\u091c\u094d\u092f","name:wo":"Nguur-Yu-Bennoo","name:nv":"T\u00f3ta\u02bc Din\u00e9\u02bci\u02bc Bik\u00e9yah","name:ga":"An R\u00edocht Aontaithe","name:gd":"An R\u00ecoghachd Aonaichte","name:gn":"Tavet\u00e3 Joaju","name:gl":"Reino Unido","maritime_boundary":true,"name:gv":"Reeriaght Unnaneysit","name:gu":"\u0aaf\u0ac1\u0aa8\u0abe\u0a87\u0a9f\u0ac7\u0aa1 \u0a95\u0abf\u0a82\u0a97\u0aa1\u0aae"},"arcs":[[0],[1],[2]]},{"type":"MultiLineString","properties":{"name:ia":"Anglaterra","name:ga":"Sasana","name:pt":"Inglaterra","name:cy":"Lloegr","name:tr":"\u0130ngiltere","name:cs":"Anglie","alt_name:eo":"Anglio","name:io":"Anglia","min_zoom":8.0,"name:it":"Inghilterra","name:ru":"\u0410\u043d\u0433\u043b\u0438\u044f","name:vi":"Anh","name:pl":"Anglia","id":-58447,"name:ca":"Anglaterra","name:vo":"Lingl\u00e4n","sort_rank":256,"name:fi":"Englanti","old_name:vi":"Anh Qu\u1ed1c","source":"openstreetmap.org","name:fr":"Angleterre","name:fy":"Ingel\u00e2n","name:zh":"\u82f1\u683c\u862d","name:nl":"Engeland","name:lt":"Anglija","name:eo":"Anglujo","name:la":"Anglia","name:sk":"Anglicko","name:uk":"\u0410\u043d\u0433\u043b\u0456\u044f","name:be":"\u0410\u043d\u0433\u043b\u0456\u044f","name:hu":"Anglia","osm_relation":true,"alt_name:ia":"Anglia","name:el":"\u0391\u03b3\u03b3\u03bb\u03af\u03b1","kind":"region","name":"England","name:gd":"Sasainn","maritime_boundary":true,"name:gv":"Sostyn","kind_detail":"4","name:es":"Inglaterra"},"arcs":[[3],[4],[5]]}]},"roads":{"type":"GeometryCollection","geometries":[{"type":"LineString","properties":{"kind":"major_road","sort_rank":379,"kind_detail":"secondary","is_bicycle_related":true,"bicycle_shield_text":"3","bicycle_network":"ncn","source":"openstreetmap.org","min_zoom":8.0,"ref":"B3300","id":114123634},"arcs":[56]},{"type":"MultiLineString","properties":{"kind":"major_road","sort_rank":380,"kind_detail":"primary","is_bicycle_related":true,"bicycle_shield_text":"327","bicycle_network":"ncn","source":"openstreetmap.org","min_zoom":8.0,"ref":"A388"},"arcs":[[57],[58],[59]]},{"type":"LineString","properties":{"bus_network":null,"sort_rank":377,"kind_detail":"tertiary","is_bicycle_related":true,"kind":"major_road","bicycle_shield_text":"32","bicycle_network":"ncn","source":"openstreetmap.org","min_zoom":8.0,"bus_shield_text":"594"},"arcs":[60]},{"type":"LineString","properties":{"bus_network":null,"sort_rank":380,"kind_detail":"primary","kind":"major_road","source":"openstreetmap.org","min_zoom":8.0,"bus_shield_text":"595","landuse_kind":"park","ref":"A39"},"arcs":[61]},{"type":"LineString","properties":{"kind":"major_road","sort_rank":355,"kind_detail":"primary_link","is_bicycle_related":true,"bicycle_shield_text":"2","bicycle_network":"ncn","source":"openstreetmap.org","min_zoom":8.0,"is_link":true,"id":164439163},"arcs":[62]},{"type":"MultiLineString","properties":{"source":"openstreetmap.org","kind":"major_road","sort_rank":381,"kind_detail":"trunk","ref":"A38","min_zoom":8.0},"arcs":[[63],[64],[65],[66],[67],[68],[69],[70],[71],[72],[73],[74],[75],[76],[77],[78],[79],[80]]},{"type":"LineString","properties":{"kind":"path","sort_rank":354,"kind_detail":"footway","is_bicycle_related":true,"bicycle_shield_text":"327","bicycle_network":"ncn","source":"openstreetmap.org","min_zoom":8.0,"id":361338218},"arcs":[81]},{"type":"LineString","properties":{"kind":"major_road","sort_rank":379,"kind_detail":"secondary","is_bicycle_related":true,"bus_network":null,"bicycle_shield_text":"3","bicycle_network":"ncn","source":"openstreetmap.org","min_zoom":8.0,"bus_shield_text":"1A","ref":"B3315","id":23138457},"arcs":[82]},{"type":"MultiLineString","properties":{"bus_network":null,"sort_rank":381,"kind_detail":"trunk","kind":"major_road","source":"openstreetmap.org","min_zoom":8.0,"bus_shield_text":"93","ref":"A30"},"arcs":[[83],[84],[85],[86],[87],[88],[89],[90],[91]]},{"type":"LineString","properties":{"kind":"major_road","sort_rank":381,"kind_detail":"trunk","is_bicycle_related":true,"bicycle_shield_text":"2","bicycle_network":"ncn","source":"openstreetmap.org","min_zoom":8.0,"ref":"A390","id":4073235},"arcs":[92]},{"type":"LineString","properties":{"kind":"major_road","sort_rank":379,"kind_detail":"secondary","is_bicycle_related":true,"bicycle_shield_text":"32","bicycle_network":"ncn","source":"openstreetmap.org","min_zoom":8.0,"landuse_kind":"park","ref":"B3276","id":37277579},"arcs":[93]},{"type":"MultiLineString","properties":{"bus_network":null,"sort_rank":380,"kind_detail":"primary","kind":"major_road","source":"openstreetmap.org","min_zoom":8.0,"bus_shield_text":"93","ref":"A3058"},"arcs":[[94],[95]]},{"type":"MultiLineString","properties":{"kind":"major_road","sort_rank":379,"kind_detail":"secondary","is_bicycle_related":true,"bus_network":null,"bicycle_shield_text":"3","bicycle_network":"ncn","source":"openstreetmap.org","min_zoom":8.0,"bus_shield_text":"1A","landuse_kind":"park","ref":"B3315","id":23138457},"arcs":[[96],[97]]},{"type":"MultiLineString","properties":{"bus_network":null,"sort_rank":380,"kind_detail":"primary","is_bicycle_related":true,"kind":"major_road","source":"openstreetmap.org","min_zoom":8.0,"bus_shield_text":"73","ref":"A387"},"arcs":[[98],[99],[100]]},{"type":"LineString","properties":{"kind":"path","sort_rank":354,"kind_detail":"cycleway","is_bicycle_related":true,"bicycle_shield_text":"3","bicycle_network":"ncn","source":"openstreetmap.org","min_zoom":8.0,"landuse_kind":"park","id":37256212},"arcs":[101]},{"type":"LineString","properties":{"kind":"major_road","sort_rank":380,"kind_detail":"primary","is_bicycle_related":true,"bus_network":null,"bicycle_shield_text":"3","bicycle_network":"ncn","source":"openstreetmap.org","min_zoom":8.0,"bus_shield_text":"542","ref":"A3047","id":114123653},"arcs":[102]},{"type":"MultiLineString","properties":{"kind":"minor_road","sort_rank":360,"kind_detail":"unclassified","is_bicycle_related":true,"bicycle_shield_text":"32","cycleway":"lane","source":"openstreetmap.org","min_zoom":8.0,"bicycle_network":"ncn"},"arcs":[[103],[104]]},{"type":"LineString","properties":{"sort_rank":355,"source":"openstreetmap.org","min_zoom":8.0,"name":"Plymouth - Santander","kind":"ferry"},"arcs":[105]},{"type":"MultiLineString","properties":{"kind":"major_road","sort_rank":377,"kind_detail":"tertiary","is_bicycle_related":true,"bicycle_shield_text":"327","bicycle_network":"ncn","source":"openstreetmap.org","min_zoom":8.0},"arcs":[[106],[107]]},{"type":"LineString","properties":{"kind":"major_road","sort_rank":379,"kind_detail":"secondary","is_bicycle_related":true,"bicycle_shield_text":"32","bicycle_network":"ncn","source":"openstreetmap.org","min_zoom":8.0,"ref":"B3285","id":37283663},"arcs":[108]},{"type":"LineString","properties":{"bus_network":null,"sort_rank":380,"kind_detail":"primary","is_bicycle_related":true,"kind":"major_road","bicycle_shield_text":"32","bicycle_network":"ncn","source":"openstreetmap.org","min_zoom":8.0,"bus_shield_text":"93","ref":"A3058"},"arcs":[109]},{"type":"MultiLineString","properties":{"source":"openstreetmap.org","kind":"major_road","sort_rank":380,"kind_detail":"primary","ref":"A3071","min_zoom":8.0},"arcs":[[110],[111],[112]]},{"type":"MultiLineString","properties":{"source":"openstreetmap.org","kind":"major_road","ref":"A388","sort_rank":381,"kind_detail":"trunk","is_bicycle_related":true,"min_zoom":8.0},"arcs":[[113],[114],[115],[116],[117]]},{"type":"MultiLineString","properties":{"bus_network":null,"sort_rank":380,"kind_detail":"primary","kind":"major_road","source":"openstreetmap.org","min_zoom":8.0,"bus_shield_text":"2","ref":"A39"},"arcs":[[118],[119],[120]]},{"type":"LineString","properties":{"source":"openstreetmap.org","kind":"ferry","name":"Falmouth Park and Float","sort_rank":355,"min_zoom":8.0,"id":437423472},"arcs":[121]},{"type":"LineString","properties":{"source":"openstreetmap.org","kind":"ferry","name":"Place Ferry","sort_rank":355,"is_bicycle_related":true,"min_zoom":8.0,"id":352272841},"arcs":[122]},{"type":"LineString","properties":{"kind":"major_road","sort_rank":377,"kind_detail":"tertiary","is_bicycle_related":true,"bus_network":null,"bicycle_shield_text":"3","bicycle_network":"ncn","source":"openstreetmap.org","min_zoom":8.0,"bus_shield_text":"2","id":30629815},"arcs":[123]},{"type":"LineString","properties":{"kind":"minor_road","sort_rank":360,"kind_detail":"residential","is_bicycle_related":true,"bicycle_shield_text":"2","bicycle_network":"ncn","source":"openstreetmap.org","min_zoom":8.0},"arcs":[124]},{"type":"MultiLineString","properties":{"source":"openstreetmap.org","kind":"major_road","sort_rank":380,"kind_detail":"primary","ref":"A390","min_zoom":8.0},"arcs":[[125],[126],[127],[128],[129],[130],[131],[132],[133],[134],[135],[136],[137],[138]]},{"type":"LineString","properties":{"kind":"major_road","sort_rank":381,"kind_detail":"trunk","bus_network":null,"source":"openstreetmap.org","min_zoom":8.0,"bus_shield_text":"2","ref":"A30","id":153450279},"arcs":[139]},{"type":"MultiLineString","properties":{"source":"openstreetmap.org","kind":"major_road","sort_rank":380,"kind_detail":"primary","ref":"A3078","min_zoom":8.0},"arcs":[[140],[141],[142]]},{"type":"MultiLineString","properties":{"source":"openstreetmap.org","kind":"major_road","sort_rank":381,"kind_detail":"trunk","ref":"A39","min_zoom":8.0},"arcs":[[143],[144],[145],[146],[147],[148],[149],[150],[151],[152],[153],[154],[155],[156],[157],[158],[159],[160],[161],[162],[163],[164],[165],[166],[167],[168],[169],[170],[171],[172],[173],[174],[175],[176],[177],[178],[179],[180],[181],[182],[183],[184],[185],[186],[187],[188],[189],[190],[191],[192],[193],[194],[195]]},{"type":"LineString","properties":{"kind":"major_road","sort_rank":381,"kind_detail":"trunk","is_bicycle_related":true,"source":"openstreetmap.org","min_zoom":8.0,"old_name":"Market Street","ref":"A390","id":134160508},"arcs":[196]},{"type":"LineString","properties":{"source":"openstreetmap.org","kind":"ferry","name":"Plymouth - Santander","sort_rank":355,"min_zoom":8.0,"osm_relation":true,"id":-2705258},"arcs":[197]},{"type":"MultiLineString","properties":{"source":"openstreetmap.org","kind":"major_road","sort_rank":380,"kind_detail":"primary","ref":"A39","min_zoom":8.0},"arcs":[[198],[199],[200],[201],[202],[203],[204],[205],[206],[207],[208],[209],[210]]},{"type":"LineString","properties":{"bus_network":null,"sort_rank":379,"kind_detail":"secondary","is_bicycle_related":true,"kind":"major_road","bicycle_shield_text":"3","bicycle_network":"ncn","source":"openstreetmap.org","min_zoom":8.0,"bus_shield_text":"515","ref":"B3301"},"arcs":[211]},{"type":"MultiLineString","properties":{"kind":"major_road","sort_rank":380,"kind_detail":"primary","is_bicycle_related":true,"bicycle_shield_text":"2","bicycle_network":"ncn","source":"openstreetmap.org","min_zoom":8.0,"ref":"A3082"},"arcs":[[212],[213]]},{"type":"MultiLineString","properties":{"kind":"minor_road","sort_rank":360,"kind_detail":"unclassified","is_bicycle_related":true,"bicycle_shield_text":"3","bicycle_network":"ncn","source":"openstreetmap.org","min_zoom":8.0,"landuse_kind":"park"},"arcs":[[214],[215],[216],[217]]},{"type":"MultiLineString","properties":{"source":"openstreetmap.org","bus_network":null,"bus_shield_text":"594","sort_rank":380,"kind_detail":"primary","min_zoom":8.0,"kind":"major_road"},"arcs":[[218],[219]]},{"type":"MultiLineString","properties":{"source":"openstreetmap.org","kind":"major_road","sort_rank":380,"kind_detail":"primary","ref":"A392","min_zoom":8.0},"arcs":[[220],[221],[222],[223],[224],[225],[226],[227]]},{"type":"MultiLineString","properties":{"source":"openstreetmap.org","bus_network":null,"bus_shield_text":"X11","sort_rank":380,"kind_detail":"primary","min_zoom":8.0,"kind":"major_road"},"arcs":[[228],[229],[230]]},{"type":"LineString","properties":{"bus_network":null,"sort_rank":379,"kind_detail":"secondary","is_bicycle_related":true,"kind":"major_road","bicycle_shield_text":"3","bicycle_network":"ncn","source":"openstreetmap.org","min_zoom":8.0,"bus_shield_text":"1A","ref":"B3283"},"arcs":[231]},{"type":"MultiLineString","properties":{"kind":"path","sort_rank":354,"kind_detail":"footway","is_bicycle_related":true,"bicycle_shield_text":"3","bicycle_network":"ncn","source":"openstreetmap.org","min_zoom":8.0},"arcs":[[232],[233],[234],[235]]},{"type":"LineString","properties":{"kind":"major_road","sort_rank":355,"kind_detail":"primary_link","is_bicycle_related":true,"bicycle_shield_text":"2","bicycle_network":"ncn","source":"openstreetmap.org","min_zoom":8.0,"is_link":true,"ref":"A3082","id":127505239},"arcs":[236]},{"type":"MultiLineString","properties":{"bus_network":null,"sort_rank":380,"kind_detail":"primary","kind":"major_road","source":"openstreetmap.org","min_zoom":8.0,"bus_shield_text":"X11","ref":"A390"},"arcs":[[237],[238]]},{"type":"LineString","properties":{"kind":"path","sort_rank":354,"kind_detail":"track","is_bicycle_related":true,"bicycle_shield_text":"3","bicycle_network":"ncn","source":"openstreetmap.org","min_zoom":8.0,"old_name":"Redruth - Chasewater Railway"},"arcs":[239]},{"type":"LineString","properties":{"source":"openstreetmap.org","kind":"ferry","name":"Penzance - St Mary's","sort_rank":355,"is_bicycle_related":true,"min_zoom":8.0,"id":208403530},"arcs":[240]},{"type":"LineString","properties":{"source":"openstreetmap.org","kind":"major_road","sort_rank":380,"kind_detail":"primary","ref":"A374","min_zoom":8.0},"arcs":[241]},{"type":"LineString","properties":{"source":"openstreetmap.org","kind":"major_road","sort_rank":380,"kind_detail":"primary","ref":"A3076","min_zoom":8.0,"id":146366582},"arcs":[242]},{"type":"LineString","properties":{"kind":"major_road","sort_rank":380,"kind_detail":"primary","is_bicycle_related":true,"source":"openstreetmap.org","min_zoom":8.0,"ref":"A3078","id":190608851},"arcs":[243]},{"type":"LineString","properties":{"bus_network":null,"sort_rank":381,"kind_detail":"trunk","kind":"major_road","source":"openstreetmap.org","min_zoom":8.0,"bus_shield_text":"515","ref":"A30"},"arcs":[244]},{"type":"LineString","properties":{"kind":"minor_road","sort_rank":360,"kind_detail":"residential","is_bicycle_related":true,"bicycle_shield_text":"3","bicycle_network":"ncn","source":"openstreetmap.org","min_zoom":8.0,"old_name":"Bodmin & Wadebridge Railway","id":111411153},"arcs":[245]},{"type":"MultiLineString","properties":{"source":"openstreetmap.org","kind":"major_road","ref":"A395","sort_rank":381,"kind_detail":"trunk","is_bicycle_related":true,"min_zoom":8.0},"arcs":[[246],[247],[248],[249]]},{"type":"LineString","properties":{"source":"openstreetmap.org","kind":"ferry","name":"Fowey - Mevagissey Ferry","sort_rank":355,"min_zoom":8.0,"id":122079278},"arcs":[250]},{"type":"LineString","properties":{"source":"openstreetmap.org","kind":"major_road","sort_rank":381,"kind_detail":"trunk","ref":"A395","min_zoom":8.0,"id":8598297},"arcs":[251]},{"type":"MultiLineString","properties":{"source":"openstreetmap.org","kind":"major_road","sort_rank":380,"kind_detail":"primary","ref":"A3074","min_zoom":8.0},"arcs":[[252],[253],[254]]},{"type":"LineString","properties":{"source":"openstreetmap.org","kind":"major_road","ref":"A389","sort_rank":380,"kind_detail":"primary","is_bicycle_related":true,"min_zoom":8.0},"arcs":[255]},{"type":"LineString","properties":{"kind":"minor_road","sort_rank":360,"kind_detail":"residential","is_bicycle_related":true,"bicycle_shield_text":"32","cycleway":"lane","source":"openstreetmap.org","min_zoom":8.0,"bicycle_network":"ncn"},"arcs":[256]},{"type":"LineString","properties":{"kind":"major_road","sort_rank":355,"kind_detail":"primary_link","is_bicycle_related":true,"bicycle_shield_text":"32","bicycle_network":"ncn","source":"openstreetmap.org","min_zoom":8.0,"is_link":true,"ref":"A392"},"arcs":[257]},{"type":"MultiLineString","properties":{"source":"openstreetmap.org","kind":"major_road","sort_rank":381,"kind_detail":"trunk","ref":"A394","min_zoom":8.0},"arcs":[[258],[259],[260],[261],[262],[263],[264],[265],[266],[267],[268],[269],[270],[271],[272],[273],[274],[275],[276],[277],[278],[279]]},{"type":"MultiLineString","properties":{"source":"openstreetmap.org","kind":"major_road","landuse_kind":"park","sort_rank":380,"kind_detail":"primary","ref":"A39","min_zoom":8.0},"arcs":[[280],[281]]},{"type":"LineString","properties":{"kind":"major_road","sort_rank":377,"kind_detail":"tertiary","is_bicycle_related":true,"bicycle_shield_text":"3","bicycle_network":"ncn","source":"openstreetmap.org","min_zoom":8.0,"landuse_kind":"park"},"arcs":[282]},{"type":"MultiLineString","properties":{"kind":"path","sort_rank":354,"kind_detail":"cycleway","is_bicycle_related":true,"bicycle_shield_text":"3","cycleway":"shared","source":"openstreetmap.org","min_zoom":8.0,"bicycle_network":"ncn"},"arcs":[[283],[284]]},{"type":"LineString","properties":{"kind":"path","sort_rank":354,"kind_detail":"cycleway","is_bicycle_related":true,"bicycle_shield_text":"3","bicycle_network":"ncn","source":"openstreetmap.org","min_zoom":8.0,"old_name":"Bodmin & Wadebridge Railway (Wenfordbridge Branch)"},"arcs":[285]},{"type":"MultiLineString","properties":{"kind":"path","sort_rank":354,"kind_detail":"pedestrian","is_bicycle_related":true,"bicycle_shield_text":"32","bicycle_network":"ncn","source":"openstreetmap.org","min_zoom":8.0},"arcs":[[286],[287]]},{"type":"MultiLineString","properties":{"kind":"path","sort_rank":354,"kind_detail":"bridleway","is_bicycle_related":true,"bicycle_shield_text":"3","bicycle_network":"ncn","source":"openstreetmap.org","min_zoom":8.0},"arcs":[[288],[289]]},{"type":"MultiLineString","properties":{"source":"openstreetmap.org","kind":"major_road","sort_rank":380,"kind_detail":"primary","ref":"A3058","min_zoom":8.0},"arcs":[[290],[291],[292],[293],[294],[295],[296],[297],[298],[299],[300],[301],[302],[303],[304],[305],[306],[307]]},{"type":"LineString","properties":{"kind":"path","sort_rank":354,"kind_detail":"path","is_bicycle_related":true,"bicycle_shield_text":"3","bicycle_network":"ncn","source":"openstreetmap.org","min_zoom":8.0,"landuse_kind":"urban_area","id":37341695},"arcs":[308]},{"type":"MultiLineString","properties":{"source":"openstreetmap.org","kind":"major_road","sort_rank":381,"kind_detail":"trunk","ref":"A30","min_zoom":8.0},"arcs":[[309],[310],[311],[312],[313],[314],[315],[316],[317],[318],[319],[320],[321],[322],[323],[324],[325],[326],[327],[328],[329],[330],[331],[332],[333],[334],[335],[336],[337],[338],[339],[340],[341],[342],[343],[344],[345],[346],[347],[348],[349],[350],[351],[352],[353],[354],[355],[356],[357],[358],[359],[360],[361],[362],[363],[364],[365],[366],[367],[368],[369],[370],[371],[372],[373]]},{"type":"MultiLineString","properties":{"bus_network":"First","sort_rank":377,"kind_detail":"tertiary","is_bicycle_related":true,"kind":"major_road","bicycle_shield_text":"3","bicycle_network":"ncn","source":"openstreetmap.org","min_zoom":8.0,"bus_shield_text":"6"},"arcs":[[374],[375],[376]]},{"type":"LineString","properties":{"source":"openstreetmap.org","kind":"major_road","ref":"A388","sort_rank":380,"kind_detail":"primary","is_bicycle_related":true,"min_zoom":8.0},"arcs":[377]},{"type":"MultiLineString","properties":{"bus_network":null,"sort_rank":380,"kind_detail":"primary","kind":"major_road","source":"openstreetmap.org","min_zoom":8.0,"bus_shield_text":"542","landuse_kind":"urban_area","ref":"A3047"},"arcs":[[378],[379]]},{"type":"MultiLineString","properties":{"source":"openstreetmap.org","kind":"major_road","sort_rank":381,"kind_detail":"trunk","ref":"A391","min_zoom":8.0},"arcs":[[380],[381],[382],[383],[384],[385],[386],[387],[388],[389],[390],[391],[392],[393],[394],[395],[396],[397],[398],[399],[400],[401],[402],[403],[404]]},{"type":"LineString","properties":{"source":"openstreetmap.org","kind":"ferry","name":"Flushing Ferry","sort_rank":355,"min_zoom":8.0,"id":104473838},"arcs":[405]},{"type":"MultiLineString","properties":{"source":"openstreetmap.org","bus_network":null,"bus_shield_text":"11","sort_rank":380,"kind_detail":"primary","min_zoom":8.0,"kind":"major_road"},"arcs":[[406],[407]]},{"type":"LineString","properties":{"kind":"major_road","sort_rank":379,"kind_detail":"secondary","is_bicycle_related":true,"bicycle_shield_text":"32","bicycle_network":"ncn","source":"openstreetmap.org","min_zoom":8.0,"ref":"B3284","id":37284879},"arcs":[408]},{"type":"MultiLineString","properties":{"kind":"minor_road","sort_rank":360,"kind_detail":"residential","is_bicycle_related":true,"bicycle_shield_text":"3","bicycle_network":"ncn","source":"openstreetmap.org","min_zoom":8.0},"arcs":[[409],[410],[411],[412],[413],[414],[415],[416],[417],[418],[419],[420],[421],[422]]},{"type":"MultiLineString","properties":{"kind":"path","sort_rank":354,"kind_detail":"cycleway","is_bicycle_related":true,"bicycle_shield_text":"2","bicycle_network":"ncn","source":"openstreetmap.org","min_zoom":8.0},"arcs":[[423],[424],[425],[426],[427],[428],[429],[430]]},{"type":"LineString","properties":{"kind":"minor_road","sort_rank":360,"kind_detail":"unclassified","is_bicycle_related":true,"cycleway_right":"opposite_lane","bicycle_shield_text":"3","bicycle_network":"ncn","source":"openstreetmap.org","min_zoom":8.0},"arcs":[431]},{"type":"MultiLineString","properties":{"kind":"major_road","sort_rank":379,"kind_detail":"secondary","is_bicycle_related":true,"bicycle_shield_text":"32","bicycle_network":"ncn","source":"openstreetmap.org","min_zoom":8.0,"ref":"B3276"},"arcs":[[432],[433]]},{"type":"MultiLineString","properties":{"source":"openstreetmap.org","kind":"major_road","sort_rank":380,"kind_detail":"primary","ref":"A3047","min_zoom":8.0},"arcs":[[434],[435],[436],[437],[438],[439],[440],[441],[442],[443],[444],[445],[446],[447],[448],[449],[450],[451],[452],[453],[454],[455],[456],[457],[458],[459],[460],[461],[462],[463],[464],[465]]},{"type":"LineString","properties":{"kind":"major_road","sort_rank":379,"kind_detail":"secondary","is_bicycle_related":true,"bus_network":null,"bicycle_shield_text":"3","bicycle_network":"ncn","source":"openstreetmap.org","min_zoom":8.0,"bus_shield_text":"542","ref":"B3303","id":46839453},"arcs":[466]},{"type":"MultiLineString","properties":{"kind":"minor_road","sort_rank":360,"kind_detail":"unclassified","is_bicycle_related":true,"bicycle_shield_text":"3","bicycle_network":"ncn","source":"openstreetmap.org","min_zoom":8.0},"arcs":[[467],[468],[469],[470],[471],[472],[473],[474],[475],[476],[477],[478],[479],[480],[481],[482],[483],[484],[485],[486],[487],[488],[489],[490],[491],[492],[493],[494],[495],[496],[497],[498],[499],[500],[501],[502],[503],[504],[505],[506],[507],[508],[509],[510],[511],[512],[513],[514],[515],[516],[517],[518],[519],[520],[521],[522]]},{"type":"LineString","properties":{"source":"openstreetmap.org","kind":"ferry","sort_rank":355,"is_bicycle_related":true,"min_zoom":8.0,"id":43993324},"arcs":[523]},{"type":"MultiLineString","properties":{"source":"openstreetmap.org","kind":"major_road","sort_rank":381,"kind_detail":"trunk","ref":"A388","min_zoom":8.0},"arcs":[[524],[525],[526],[527],[528],[529],[530],[531],[532],[533],[534],[535],[536],[537],[538],[539],[540],[541],[542],[543],[544],[545],[546],[547],[548],[549],[550],[551],[552]]},{"type":"MultiLineString","properties":{"kind":"minor_road","sort_rank":360,"kind_detail":"unclassified","is_bicycle_related":true,"bicycle_shield_text":"32","bicycle_network":"ncn","source":"openstreetmap.org","min_zoom":8.0},"arcs":[[553],[554],[555],[556],[557],[558],[559],[560],[561],[562],[563],[564],[565],[566],[567]]},{"type":"LineString","properties":{"kind":"major_road","sort_rank":381,"kind_detail":"trunk","is_bicycle_related":true,"bus_network":null,"source":"openstreetmap.org","min_zoom":8.0,"bus_shield_text":"2","ref":"A39","id":46836516},"arcs":[568]},{"type":"LineString","properties":{"source":"openstreetmap.org","kind":"major_road","ref":"A387","sort_rank":380,"kind_detail":"primary","is_bicycle_related":true,"min_zoom":8.0},"arcs":[569]},{"type":"MultiLineString","properties":{"kind":"minor_road","sort_rank":360,"kind_detail":"unclassified","is_bicycle_related":true,"bicycle_shield_text":"327","bicycle_network":"ncn","source":"openstreetmap.org","min_zoom":8.0},"arcs":[[570],[571],[572],[573],[574],[575]]},{"type":"MultiLineString","properties":{"kind":"path","sort_rank":354,"kind_detail":"path","is_bicycle_related":true,"bicycle_shield_text":"3","bicycle_network":"ncn","source":"openstreetmap.org","min_zoom":8.0},"arcs":[[576],[577]]},{"type":"MultiLineString","properties":{"kind":"path","sort_rank":354,"kind_detail":"cycleway","is_bicycle_related":true,"bicycle_shield_text":"3","bicycle_network":"ncn","source":"openstreetmap.org","min_zoom":8.0},"arcs":[[578],[579],[580],[581],[582],[583],[584],[585],[586],[587],[588],[589],[590],[591],[592],[593],[594],[595],[596],[597],[598],[599],[600],[601],[602],[603],[604],[605],[606],[607],[608],[609],[610]]},{"type":"LineString","properties":{"kind":"minor_road","sort_rank":358,"kind_detail":"service","is_bicycle_related":true,"bicycle_shield_text":"3","cycleway":"opposite_lane","source":"openstreetmap.org","min_zoom":8.0,"bicycle_network":"ncn","id":46836549},"arcs":[611]},{"type":"LineString","properties":{"kind":"major_road","sort_rank":380,"kind_detail":"primary","is_bicycle_related":true,"bicycle_shield_text":"3","bicycle_network":"ncn","source":"openstreetmap.org","min_zoom":8.0,"ref":"A389"},"arcs":[612]},{"type":"LineString","properties":{"source":"openstreetmap.org","kind":"ferry","name":"Dublin - Cherbourg","sort_rank":355,"is_bicycle_related":true,"min_zoom":8.0},"arcs":[613]},{"type":"MultiLineString","properties":{"bus_network":null,"sort_rank":381,"kind_detail":"trunk","kind":"major_road","source":"openstreetmap.org","min_zoom":8.0,"bus_shield_text":"93","ref":"A39"},"arcs":[[614],[615],[616],[617],[618],[619],[620],[621],[622],[623],[624]]},{"type":"MultiLineString","properties":{"source":"openstreetmap.org","kind":"major_road","sort_rank":380,"kind_detail":"primary","ref":"A389","min_zoom":8.0},"arcs":[[625],[626],[627],[628],[629],[630],[631],[632],[633],[634],[635],[636],[637],[638],[639],[640],[641],[642],[643],[644],[645],[646]]},{"type":"LineString","properties":{"bus_network":null,"sort_rank":380,"kind_detail":"primary","kind":"major_road","source":"openstreetmap.org","min_zoom":8.0,"bus_shield_text":"10","ref":"A3071"},"arcs":[647]},{"type":"MultiLineString","properties":{"kind":"major_road","sort_rank":377,"kind_detail":"tertiary","is_bicycle_related":true,"bicycle_shield_text":"32","bicycle_network":"ncn","source":"openstreetmap.org","min_zoom":8.0},"arcs":[[648],[649],[650],[651],[652]]},{"type":"LineString","properties":{"source":"openstreetmap.org","kind":"major_road","sort_rank":381,"kind_detail":"trunk","is_bicycle_related":true,"min_zoom":8.0,"id":37345463},"arcs":[653]},{"type":"MultiLineString","properties":{"source":"openstreetmap.org","kind":"major_road","kind_detail":"trunk","sort_rank":381,"landuse_kind":"urban_area","ref":"A30","min_zoom":8.0},"arcs":[[654],[655]]},{"type":"MultiLineString","properties":{"bus_network":null,"sort_rank":381,"kind_detail":"trunk","kind":"major_road","source":"openstreetmap.org","min_zoom":8.0,"bus_shield_text":"X11","ref":"A38"},"arcs":[[656],[657],[658],[659],[660],[661],[662],[663]]},{"type":"MultiLineString","properties":{"kind":"major_road","sort_rank":377,"kind_detail":"tertiary","is_bicycle_related":true,"bicycle_shield_text":"3","bicycle_network":"ncn","source":"openstreetmap.org","min_zoom":8.0},"arcs":[[664],[665],[666],[667],[668],[669],[670],[671],[672],[673],[674],[675],[676],[677],[678],[679],[680],[681],[682],[683],[684],[685],[686]]},{"type":"MultiLineString","properties":{"bus_network":null,"sort_rank":380,"kind_detail":"primary","kind":"major_road","source":"openstreetmap.org","min_zoom":8.0,"bus_shield_text":"542","ref":"A3047"},"arcs":[[687],[688],[689],[690],[691]]},{"type":"LineString","properties":{"kind":"minor_road","service":"parking_aisle","sort_rank":356,"kind_detail":"service","is_bicycle_related":true,"bicycle_shield_text":"3","cycleway":"lane","source":"openstreetmap.org","min_zoom":8.0,"bicycle_network":"ncn"},"arcs":[692]},{"type":"MultiLineString","properties":{"source":"openstreetmap.org","kind":"major_road","sort_rank":380,"kind_detail":"primary","ref":"A3075","min_zoom":8.0},"arcs":[[693],[694],[695]]},{"type":"LineString","properties":{"kind":"major_road","sort_rank":380,"kind_detail":"primary","is_bicycle_related":true,"bus_network":null,"bicycle_shield_text":"32","bicycle_network":"ncn","source":"openstreetmap.org","min_zoom":8.0,"bus_shield_text":"93","ref":"A3059","id":37279026},"arcs":[696]},{"type":"MultiLineString","properties":{"kind":"minor_road","sort_rank":358,"kind_detail":"service","is_bicycle_related":true,"bicycle_shield_text":"3","bicycle_network":"ncn","source":"openstreetmap.org","min_zoom":8.0},"arcs":[[697],[698],[699],[700],[701]]},{"type":"MultiLineString","properties":{"sort_rank":381,"source":"openstreetmap.org","min_zoom":8.0,"kind":"major_road","kind_detail":"trunk"},"arcs":[[702],[703],[704],[705],[706],[707],[708],[709],[710],[711],[712],[713],[714],[715],[716],[717],[718],[719],[720],[721],[722],[723],[724],[725],[726],[727],[728],[729],[730],[731],[732]]},{"type":"MultiLineString","properties":{"kind":"minor_road","sort_rank":358,"kind_detail":"service","is_bicycle_related":true,"bicycle_shield_text":"32","bicycle_network":"ncn","source":"openstreetmap.org","min_zoom":8.0},"arcs":[[733],[734],[735],[736],[737]]},{"type":"MultiLineString","properties":{"bus_network":null,"sort_rank":380,"kind_detail":"primary","kind":"major_road","source":"openstreetmap.org","min_zoom":8.0,"bus_shield_text":"93","ref":"A3076"},"arcs":[[738],[739],[740],[741],[742]]},{"type":"LineString","properties":{"sort_rank":355,"source":"openstreetmap.org","min_zoom":8.0,"kind":"ferry"},"arcs":[743]},{"type":"MultiLineString","properties":{"source":"openstreetmap.org","kind":"major_road","landuse_kind":"urban_area","sort_rank":380,"kind_detail":"primary","ref":"A3047","min_zoom":8.0},"arcs":[[744],[745],[746]]},{"type":"MultiLineString","properties":{"source":"openstreetmap.org","kind":"major_road","sort_rank":380,"kind_detail":"primary","ref":"A3083","min_zoom":8.0},"arcs":[[747],[748],[749],[750],[751]]},{"type":"MultiLineString","properties":{"bus_network":null,"sort_rank":380,"kind_detail":"primary","kind":"major_road","source":"openstreetmap.org","min_zoom":8.0,"bus_shield_text":"93","ref":"A39"},"arcs":[[752],[753],[754]]},{"type":"LineString","properties":{"kind":"major_road","sort_rank":377,"kind_detail":"tertiary","is_bicycle_related":true,"bus_network":null,"bicycle_shield_text":"3","bicycle_network":"ncn","source":"openstreetmap.org","min_zoom":8.0,"bus_shield_text":"595","landuse_kind":"park","id":23373009},"arcs":[755]},{"type":"MultiLineString","properties":{"bus_network":null,"sort_rank":377,"kind_detail":"tertiary","is_bicycle_related":true,"kind":"major_road","bicycle_shield_text":"3","bicycle_network":"ncn","source":"openstreetmap.org","min_zoom":8.0,"bus_shield_text":"542"},"arcs":[[756],[757]]},{"type":"MultiLineString","properties":{"source":"openstreetmap.org","kind":"major_road","sort_rank":380,"kind_detail":"primary","ref":"A30","min_zoom":8.0},"arcs":[[758],[759],[760]]},{"type":"MultiLineString","properties":{"source":"openstreetmap.org","kind":"major_road","landuse_kind":"park","sort_rank":381,"kind_detail":"trunk","ref":"A30","min_zoom":8.0},"arcs":[[761],[762],[763],[764],[765],[766],[767],[768]]},{"type":"MultiLineString","properties":{"bus_network":null,"sort_rank":380,"kind_detail":"primary","kind":"major_road","source":"openstreetmap.org","min_zoom":8.0,"bus_shield_text":"93","ref":"A392"},"arcs":[[769],[770]]},{"type":"LineString","properties":{"kind":"major_road","sort_rank":380,"kind_detail":"primary","is_bicycle_related":true,"bicycle_shield_text":"32","bicycle_network":"ncn","source":"openstreetmap.org","min_zoom":8.0,"ref":"A3059","id":37278554},"arcs":[771]},{"type":"LineString","properties":{"kind":"minor_road","sort_rank":360,"kind_detail":"unclassified","is_bicycle_related":true,"bicycle_shield_text":"32","bicycle_network":"ncn","source":"openstreetmap.org","min_zoom":8.0,"landuse_kind":"park"},"arcs":[772]},{"type":"LineString","properties":{"kind":"major_road","sort_rank":380,"kind_detail":"primary","is_bicycle_related":true,"bicycle_shield_text":"32","bicycle_network":"ncn","source":"openstreetmap.org","min_zoom":8.0,"ref":"A389"},"arcs":[773]},{"type":"LineString","properties":{"kind":"major_road","sort_rank":381,"kind_detail":"trunk","is_bicycle_related":true,"bicycle_shield_text":"3","bicycle_network":"ncn","source":"openstreetmap.org","min_zoom":8.0,"ref":"A395","id":37260266},"arcs":[774]},{"type":"MultiLineString","properties":{"kind":"minor_road","sort_rank":360,"kind_detail":"residential","is_bicycle_related":true,"bicycle_shield_text":"32","bicycle_network":"ncn","source":"openstreetmap.org","min_zoom":8.0},"arcs":[[775],[776],[777],[778],[779],[780],[781]]},{"type":"LineString","properties":{"source":"openstreetmap.org","kind":"major_road","ref":"A374","sort_rank":380,"kind_detail":"primary","is_bicycle_related":true,"min_zoom":8.0},"arcs":[782]},{"type":"MultiLineString","properties":{"source":"openstreetmap.org","kind":"major_road","sort_rank":380,"kind_detail":"primary","ref":"A38","min_zoom":8.0},"arcs":[[783],[784],[785],[786],[787]]},{"type":"MultiLineString","properties":{"kind":"major_road","sort_rank":379,"kind_detail":"secondary","is_bicycle_related":true,"bicycle_shield_text":"3","bicycle_network":"ncn","source":"openstreetmap.org","min_zoom":8.0,"ref":"B3289"},"arcs":[[788],[789]]},{"type":"LineString","properties":{"kind":"minor_road","sort_rank":360,"kind_detail":"residential","is_bicycle_related":true,"bicycle_shield_text":"327","bicycle_network":"ncn","source":"openstreetmap.org","min_zoom":8.0,"id":24704860},"arcs":[790]},{"type":"LineString","properties":{"bus_network":null,"sort_rank":380,"kind_detail":"primary","kind":"major_road","source":"openstreetmap.org","min_zoom":8.0,"bus_shield_text":"10","landuse_kind":"park","ref":"A3071"},"arcs":[791]},{"type":"LineString","properties":{"kind":"major_road","sort_rank":380,"kind_detail":"primary","bus_network":null,"source":"openstreetmap.org","min_zoom":8.0,"bus_shield_text":"93","id":4816870},"arcs":[792]},{"type":"LineString","properties":{"kind":"path","sort_rank":354,"kind_detail":"cycleway","is_bicycle_related":true,"bicycle_shield_text":"32","cycleway":"track","source":"openstreetmap.org","min_zoom":8.0,"bicycle_network":"ncn"},"arcs":[793]},{"type":"MultiLineString","properties":{"source":"openstreetmap.org","kind":"major_road","sort_rank":381,"kind_detail":"trunk","ref":"A390","min_zoom":8.0},"arcs":[[794],[795],[796],[797],[798],[799],[800],[801],[802],[803],[804],[805],[806],[807],[808],[809],[810],[811],[812],[813],[814],[815],[816],[817],[818],[819],[820],[821],[822],[823],[824],[825],[826],[827],[828],[829],[830],[831],[832],[833],[834],[835],[836],[837],[838],[839],[840],[841],[842],[843],[844],[845],[846],[847],[848],[849],[850],[851],[852]]},{"type":"MultiLineString","properties":{"source":"openstreetmap.org","kind":"major_road","kind_detail":"trunk","sort_rank":381,"landuse_kind":"park","min_zoom":8.0},"arcs":[[853],[854],[855]]},{"type":"MultiLineString","properties":{"source":"openstreetmap.org","kind":"major_road","ref":"A39","sort_rank":381,"kind_detail":"trunk","is_bicycle_related":true,"min_zoom":8.0},"arcs":[[856],[857]]},{"type":"MultiLineString","properties":{"kind":"major_road","sort_rank":381,"kind_detail":"trunk","is_bicycle_related":true,"cycleway":"lane","source":"openstreetmap.org","min_zoom":8.0,"ref":"A390"},"arcs":[[858],[859],[860]]},{"type":"LineString","properties":{"source":"openstreetmap.org","kind":"ferry","name":"Padstow Rock Ferry (high tide)","sort_rank":355,"is_bicycle_related":true,"min_zoom":8.0,"id":540188266},"arcs":[861]},{"type":"MultiLineString","properties":{"sort_rank":380,"kind_detail":"primary","min_zoom":8.0,"kind":"major_road","source":"openstreetmap.org"},"arcs":[[862],[863],[864],[865],[866],[867],[868],[869],[870],[871],[872]]},{"type":"MultiLineString","properties":{"bus_network":null,"sort_rank":381,"kind_detail":"trunk","kind":"major_road","source":"openstreetmap.org","min_zoom":8.0,"bus_shield_text":"2","ref":"A39"},"arcs":[[873],[874],[875],[876],[877],[878],[879],[880]]},{"type":"MultiLineString","properties":{"source":"openstreetmap.org","kind":"major_road","sort_rank":380,"kind_detail":"primary","ref":"A3082","min_zoom":8.0},"arcs":[[881],[882],[883],[884],[885],[886],[887]]},{"type":"LineString","properties":{"kind":"path","sort_rank":354,"kind_detail":"cycleway","is_bicycle_related":true,"bicycle_shield_text":"2","bicycle_network":"ncn","source":"openstreetmap.org","min_zoom":8.0,"old_name":"Lansalson Mineral Line"},"arcs":[888]},{"type":"MultiLineString","properties":{"bus_network":null,"sort_rank":381,"kind_detail":"trunk","is_bicycle_related":true,"kind":"major_road","source":"openstreetmap.org","min_zoom":8.0,"bus_shield_text":"93","ref":"A39"},"arcs":[[889],[890],[891],[892],[893],[894],[895],[896],[897],[898]]},{"type":"LineString","properties":{"bus_network":null,"sort_rank":377,"kind_detail":"tertiary","is_bicycle_related":true,"kind":"major_road","bicycle_shield_text":"32","cycleway":"lane","source":"openstreetmap.org","min_zoom":8.0,"bus_shield_text":"594","bicycle_network":"ncn","id":24670977},"arcs":[899]},{"type":"LineString","properties":{"source":"openstreetmap.org","kind":"major_road","sort_rank":380,"kind_detail":"primary","ref":"A3059","min_zoom":8.0,"id":146266904},"arcs":[900]},{"type":"LineString","properties":{"sort_rank":355,"source":"openstreetmap.org","min_zoom":8.0,"kind":"ferry","name":"Rosslare - Cherbourg"},"arcs":[901]},{"type":"MultiLineString","properties":{"source":"openstreetmap.org","kind":"major_road","ref":"A390","sort_rank":381,"kind_detail":"trunk","is_bicycle_related":true,"min_zoom":8.0},"arcs":[[902],[903],[904],[905],[906],[907],[908],[909],[910],[911],[912],[913],[914],[915],[916]]},{"type":"LineString","properties":{"kind":"path","sort_rank":354,"kind_detail":"footway","is_bicycle_related":true,"bicycle_shield_text":"2","bicycle_network":"ncn","source":"openstreetmap.org","min_zoom":8.0},"arcs":[917]},{"type":"MultiLineString","properties":{"kind":"path","sort_rank":354,"kind_detail":"footway","is_bicycle_related":true,"bicycle_shield_text":"32","bicycle_network":"ncn","source":"openstreetmap.org","min_zoom":8.0},"arcs":[[918],[919]]},{"type":"MultiLineString","properties":{"bus_network":null,"sort_rank":381,"kind_detail":"trunk","kind":"major_road","source":"openstreetmap.org","min_zoom":8.0,"bus_shield_text":"11","ref":"A38"},"arcs":[[920],[921],[922],[923]]},{"type":"MultiLineString","properties":{"source":"openstreetmap.org","kind":"major_road","sort_rank":380,"kind_detail":"primary","ref":"A393","min_zoom":8.0},"arcs":[[924],[925],[926],[927]]},{"type":"MultiLineString","properties":{"kind":"major_road","sort_rank":379,"kind_detail":"secondary","is_bicycle_related":true,"bicycle_shield_text":"3","bicycle_network":"ncn","source":"openstreetmap.org","min_zoom":8.0,"ref":"B3273"},"arcs":[[928],[929],[930]]},{"type":"LineString","properties":{"bus_network":"First","sort_rank":377,"kind_detail":"tertiary","is_bicycle_related":true,"kind":"major_road","bicycle_shield_text":"3","bicycle_network":"ncn","source":"openstreetmap.org","min_zoom":8.0,"bus_shield_text":"6","landuse_kind":"park"},"arcs":[931]},{"type":"MultiLineString","properties":{"bus_network":null,"sort_rank":381,"kind_detail":"trunk","kind":"major_road","source":"openstreetmap.org","min_zoom":8.0,"bus_shield_text":"2","ref":"A394"},"arcs":[[932],[933],[934],[935],[936],[937],[938],[939],[940],[941],[942],[943],[944],[945],[946],[947],[948],[949],[950],[951]]},{"type":"MultiLineString","properties":{"bus_network":null,"sort_rank":381,"kind_detail":"trunk","kind":"major_road","source":"openstreetmap.org","min_zoom":8.0,"bus_shield_text":"16A","ref":"A30"},"arcs":[[952],[953],[954],[955],[956],[957],[958],[959],[960],[961],[962],[963],[964]]},{"type":"LineString","properties":{"kind":"path","sort_rank":354,"kind_detail":"track","is_bicycle_related":true,"bicycle_shield_text":"327","bicycle_network":"ncn","source":"openstreetmap.org","min_zoom":8.0,"id":364701574},"arcs":[965]},{"type":"LineString","properties":{"bus_network":null,"sort_rank":380,"kind_detail":"primary","kind":"major_road","source":"openstreetmap.org","min_zoom":8.0,"bus_shield_text":"16A","ref":"A3074"},"arcs":[966]},{"type":"LineString","properties":{"kind":"path","sort_rank":354,"kind_detail":"cycleway","is_bicycle_related":true,"bicycle_shield_text":"3","cycleway":"shared","source":"openstreetmap.org","min_zoom":8.0,"landuse_kind":"park","bicycle_network":"ncn","id":37290641},"arcs":[967]},{"type":"MultiLineString","properties":{"bus_network":null,"sort_rank":380,"kind_detail":"primary","kind":"major_road","source":"openstreetmap.org","min_zoom":8.0,"bus_shield_text":"93","ref":"A3059"},"arcs":[[968],[969],[970],[971]]},{"type":"MultiLineString","properties":{"kind":"major_road","sort_rank":380,"kind_detail":"primary","is_bicycle_related":true,"bicycle_shield_text":"32","bicycle_network":"ncn","source":"openstreetmap.org","min_zoom":8.0,"ref":"A392"},"arcs":[[972],[973]]},{"type":"LineString","properties":{"kind":"minor_road","service":"driveway","sort_rank":356,"kind_detail":"service","is_bicycle_related":true,"bicycle_shield_text":"3","cycleway":"lane","source":"openstreetmap.org","min_zoom":8.0,"bicycle_network":"ncn","id":37290448},"arcs":[974]},{"type":"LineString","properties":{"bus_network":null,"sort_rank":377,"kind_detail":"tertiary","is_bicycle_related":true,"kind":"major_road","bicycle_shield_text":"3","bicycle_network":"ncn","source":"openstreetmap.org","min_zoom":8.0,"bus_shield_text":"1A"},"arcs":[975]},{"type":"MultiLineString","properties":{"source":"openstreetmap.org","bus_network":null,"bus_shield_text":"2","sort_rank":381,"kind_detail":"trunk","min_zoom":8.0,"kind":"major_road"},"arcs":[[976],[977]]},{"type":"LineString","properties":{"kind":"major_road","sort_rank":380,"kind_detail":"primary","is_bicycle_related":true,"bicycle_shield_text":"3","bicycle_network":"ncn","source":"openstreetmap.org","min_zoom":8.0,"ref":"A3078","id":116539999},"arcs":[978]},{"type":"LineString","properties":{"source":"openstreetmap.org","kind":"ferry","name":"Padstow Rock Ferry (half tide)","sort_rank":355,"is_bicycle_related":true,"min_zoom":8.0,"id":146618220},"arcs":[979]},{"type":"MultiLineString","properties":{"bus_network":null,"sort_rank":380,"kind_detail":"primary","kind":"major_road","source":"openstreetmap.org","min_zoom":8.0,"bus_shield_text":"594","ref":"A39"},"arcs":[[980],[981],[982],[983],[984],[985]]},{"type":"MultiLineString","properties":{"kind":"minor_road","sort_rank":360,"kind_detail":"unclassified","is_bicycle_related":true,"bicycle_shield_text":"2","bicycle_network":"ncn","source":"openstreetmap.org","min_zoom":8.0},"arcs":[[986],[987],[988],[989],[990],[991],[992],[993]]},{"type":"LineString","properties":{"kind":"major_road","sort_rank":380,"kind_detail":"primary","is_bicycle_related":true,"source":"openstreetmap.org","min_zoom":8.0,"ref":"A3082","id":27743328},"arcs":[994]},{"type":"MultiLineString","properties":{"source":"openstreetmap.org","kind":"major_road","ref":"A30","sort_rank":381,"kind_detail":"trunk","is_bicycle_related":true,"min_zoom":8.0},"arcs":[[995],[996],[997],[998]]},{"type":"MultiLineString","properties":{"kind":"major_road","sort_rank":379,"kind_detail":"secondary","is_bicycle_related":true,"bicycle_shield_text":"3","bicycle_network":"ncn","source":"openstreetmap.org","min_zoom":8.0,"ref":"B3268"},"arcs":[[999],[1000]]},{"type":"LineString","properties":{"kind":"major_road","sort_rank":379,"kind_detail":"secondary","is_bicycle_related":true,"bicycle_shield_text":"3","bicycle_network":"ncn","source":"openstreetmap.org","min_zoom":8.0,"ref":"B3262","id":37260270},"arcs":[1001]},{"type":"MultiLineString","properties":{"bus_network":null,"sort_rank":380,"kind_detail":"primary","kind":"major_road","source":"openstreetmap.org","min_zoom":8.0,"bus_shield_text":"11","ref":"A390"},"arcs":[[1002],[1003],[1004],[1005],[1006],[1007]]},{"type":"MultiLineString","properties":{"source":"openstreetmap.org","kind":"major_road","sort_rank":380,"kind_detail":"primary","ref":"A388","min_zoom":8.0},"arcs":[[1008],[1009],[1010],[1011],[1012],[1013],[1014],[1015],[1016],[1017],[1018],[1019]]},{"type":"MultiLineString","properties":{"kind":"minor_road","sort_rank":358,"kind_detail":"service","is_bicycle_related":true,"bicycle_shield_text":"327","bicycle_network":"ncn","source":"openstreetmap.org","min_zoom":8.0,"id":364701576},"arcs":[[1020],[1021]]},{"type":"LineString","properties":{"kind":"major_road","sort_rank":379,"kind_detail":"secondary","is_bicycle_related":true,"bicycle_shield_text":"3","bicycle_network":"ncn","source":"openstreetmap.org","min_zoom":8.0,"ref":"B3301","id":37295245},"arcs":[1022]},{"type":"MultiLineString","properties":{"bus_network":null,"sort_rank":380,"kind_detail":"primary","kind":"major_road","source":"openstreetmap.org","min_zoom":8.0,"bus_shield_text":"73","ref":"A387"},"arcs":[[1023],[1024],[1025],[1026]]},{"type":"MultiLineString","properties":{"kind":"major_road","sort_rank":377,"kind_detail":"tertiary","is_bicycle_related":true,"bicycle_shield_text":"2","bicycle_network":"ncn","source":"openstreetmap.org","min_zoom":8.0},"arcs":[[1027],[1028]]},{"type":"MultiLineString","properties":{"kind":"path","sort_rank":354,"kind_detail":"track","is_bicycle_related":true,"bicycle_shield_text":"3","bicycle_network":"ncn","source":"openstreetmap.org","min_zoom":8.0},"arcs":[[1029],[1030],[1031],[1032]]},{"type":"LineString","properties":{"source":"openstreetmap.org","kind":"major_road","sort_rank":380,"kind_detail":"primary","ref":"A387","min_zoom":8.0,"id":149495512},"arcs":[1033]},{"type":"MultiLineString","properties":{"kind":"path","sort_rank":354,"kind_detail":"cycleway","is_bicycle_related":true,"bicycle_shield_text":"32","bicycle_network":"ncn","source":"openstreetmap.org","min_zoom":8.0},"arcs":[[1034],[1035],[1036],[1037],[1038],[1039]]}]},"earth":{"type":"GeometryCollection","geometries":[{"type":"Polygon","properties":{"sort_rank":10,"source":"naturalearthdata.com","kind":"earth","min_zoom":0.0,"id":3853},"arcs":[[1040]]}]},"landuse":{"type":"GeometryCollection","geometries":[{"type":"MultiPolygon","properties":{"source":"openstreetmap.org","kind":"park","tier":2,"area":1364752867,"sort_rank":24,"min_zoom":6.0,"osm_relation":true},"arcs":[[[1041]],[[1042]],[[1043]],[[1044]]]},{"type":"MultiPolygon","properties":{"source":"naturalearthdata.com","kind":"urban_area","name":"","area":345329550,"sort_rank":11,"min_zoom":4.0},"arcs":[[[1045]]]},{"type":"Polygon","properties":{"kind":"park","area":56050700,"sort_rank":24,"source":"openstreetmap.org","min_zoom":8.0,"tier":2,"id":-3126721,"osm_relation":true},"arcs":[[1046]]},{"type":"Polygon","properties":{"source":"openstreetmap.org","kind":"nature_reserve","area":38148600,"tier":2,"id":186805502,"min_zoom":8.0,"sort_rank":23},"arcs":[[1047]]},{"type":"Polygon","properties":{"kind":"nature_reserve","natural":"scrub","area":11368600,"sort_rank":23,"source":"openstreetmap.org","min_zoom":8.0,"tier":2,"id":290137805},"arcs":[[1048]]}]}},"type":"Topology","transform":{"translate":[-5.625,49.8379824531],"scale":[0.0003433228,0.0002193537]},"arcs":[[[12,0],[360,91],[94,-91]],[[2014,0],[193,160],[213,310],[146,369],[193,59],[184,105],[150,137],[115,164],[385,68],[283,-100],[220,-16]],[[774,4096],[10,-535],[-49,-169],[-16,-178],[-117,-155],[-111,-223],[-99,-119],[-192,-82],[-200,-34]],[[12,0],[360,91],[94,-91]],[[2014,0],[193,160],[213,310],[146,369],[193,59],[184,105],[150,137],[115,164],[385,68],[283,-100],[220,-16]],[[774,4096],[10,-535],[-49,-169],[-16,-178],[-117,-155],[-111,-223],[-99,-119],[-192,-82],[-200,-34]],[[1490,1529],[1,-6],[8,-13]],[[1591,1910],[51,34]],[[1653,1421],[-11,-4]],[[1642,1417],[-51,-6],[-92,99]],[[1499,1510],[-1,2],[-1,1],[-5,10],[-2,6]],[[1490,1529],[-69,128],[21,51],[58,24],[27,87],[81,102]],[[1632,1941],[-7,0]],[[1653,1422],[-1,-1]],[[1659,1427],[-6,-6]],[[1601,2630],[41,-40],[196,-40],[166,5],[23,38],[63,-19],[216,75],[90,-26],[59,-75]],[[2455,2548],[15,-9]],[[2470,2539],[113,-27],[13,-44]],[[2597,2468],[62,-27],[2,-76]],[[2661,2365],[16,-13]],[[2677,2352],[4,12]],[[4096,3056],[-2,38]],[[279,1307],[-6,-6],[-5,-6]],[[282,1309],[-3,-2]],[[279,1307],[-5,-5],[-5,-8]],[[367,1326],[-84,-17]],[[283,1309],[-7,-5]],[[276,1304],[-7,-10]],[[276,1304],[-6,-10]],[[282,1309],[1,0]],[[282,1309]],[[367,1326],[25,2],[3,0],[4,2],[4,2],[4,2],[5,4],[18,16],[15,11],[2,1],[3,3],[4,5],[3,6],[20,43],[1,6],[3,14],[4,8],[28,50],[14,15],[23,11],[3,2],[4,3],[47,59],[24,7],[5,2],[6,5],[4,2],[6,1],[8,-1],[5,1],[31,10],[18,7],[15,8],[14,4],[15,5],[27,3],[26,-8],[4,0],[4,1],[3,1],[2,2],[15,17],[26,14],[8,3],[18,-1],[4,0],[5,1],[5,1],[2,1],[22,7],[5,2],[67,31],[70,46],[16,5],[31,12],[23,10],[15,4],[3,1],[3,2],[2,3],[3,4],[2,3],[7,50],[37,22],[27,7],[2,1],[4,2],[5,3],[4,3],[2,3],[4,5],[12,28],[20,18],[16,2],[13,-8],[5,-1],[4,-1],[3,0],[4,0],[19,6],[17,-3],[21,-2],[6,-3],[12,-9],[3,-2],[3,-1],[3,-1],[3,0],[4,0],[7,2],[3,0],[9,-1],[5,-3],[9,-9],[2,-2],[2,-1],[34,-16],[3,-1],[10,-1],[11,-4],[4,0],[6,-1],[7,1],[61,23],[4,2],[3,3],[2,3],[10,14],[3,3],[6,3],[10,2],[3,0],[3,1],[3,2],[20,13],[3,3],[3,3],[2,1],[2,5],[2,4],[5,15],[4,10],[15,12],[9,3],[18,3],[14,1],[3,1],[3,1],[3,1],[3,1],[3,2],[14,11],[28,12],[11,0],[16,-3],[4,-1],[4,0],[35,5],[14,5],[2,0],[4,3],[8,6],[4,3],[1,2],[23,37],[16,13],[2,2],[7,10],[10,9],[8,8],[8,6],[5,1],[9,0],[3,1],[6,2],[2,1],[3,2],[11,9],[3,2],[1,2],[2,3],[4,7],[3,4],[9,7],[25,1],[6,-1],[9,-3],[5,-1],[5,0],[6,0],[5,2],[10,4],[9,4],[3,1],[2,2],[1,1],[7,7],[6,3],[15,4],[5,1],[4,2],[2,2],[3,2],[8,8],[9,4],[10,1],[4,-1],[9,-3],[4,-2],[3,0],[4,0],[3,0],[3,1],[3,1],[4,2],[11,8],[14,6],[5,3],[4,2],[6,8],[8,5],[18,6],[28,12],[19,5],[5,1],[22,11],[35,-2],[6,-2],[6,-5],[2,-2],[2,-1],[21,-7],[6,-2],[5,0],[3,0],[10,1]],[[367,1326],[83,43],[34,82],[28,48],[2,4],[8,9],[7,5],[27,14],[48,60],[39,16],[6,1],[15,0],[62,25],[14,4],[12,4],[5,2],[25,2],[34,-7],[20,20],[26,15],[8,2],[27,0],[36,12],[135,76],[70,27],[17,5],[17,61],[5,5],[5,4],[26,13],[7,3],[22,5],[12,7],[21,38],[14,14],[4,3],[4,2],[14,1],[22,-10],[26,7],[38,-6],[53,-15],[52,-31],[41,-5],[62,23],[7,6],[10,14],[2,3],[2,2],[45,20],[21,41],[15,12],[98,36],[90,9],[37,50],[42,40],[69,47],[24,1],[32,-5],[43,24],[24,7],[13,12],[9,5],[5,1],[3,0],[3,-1],[5,-1],[8,-4],[6,-1],[10,1],[55,35],[46,18],[24,7],[22,10],[35,-2],[43,-19],[8,0],[14,2],[18,1],[3,0],[6,0],[11,-5],[5,0],[7,0],[11,3],[7,1],[6,0],[9,-1],[6,0],[14,4],[4,1],[3,0],[4,-1],[10,-3],[7,0],[32,11],[5,1],[14,0],[7,3],[13,15],[10,52],[1,5],[1,3],[1,1],[3,3],[3,3],[3,2],[3,2],[5,2],[11,2],[6,3],[17,19],[9,18],[1,8],[-1,10],[0,3],[1,2],[0,3],[1,2],[3,9],[3,6],[2,3],[3,3],[30,30],[4,8],[0,26],[-9,23],[0,2],[0,4],[0,6],[1,4],[1,2],[11,19],[0,5],[-2,10],[0,6],[5,34],[-5,11],[-9,6],[-5,5],[-24,24],[-2,4],[-2,2],[-1,3],[-1,4],[0,5],[0,3],[1,5],[2,4],[2,4],[3,5],[3,3],[4,4],[8,6],[7,7],[4,2],[7,4],[9,2],[5,4],[3,3],[4,7],[2,2],[8,7],[2,1],[18,10],[33,9],[7,2],[5,0],[4,0],[8,-2],[6,1],[13,4],[18,5],[2,0],[3,0],[2,0],[12,-2],[13,-3],[15,3],[11,-1],[4,0],[4,-1],[11,-7],[14,-1],[5,-2],[10,-5]],[[2467,2283],[26,2],[15,-5],[4,-1],[4,0],[84,5],[1,0],[4,1],[15,5],[13,5],[17,1],[4,1],[4,1],[3,1],[5,4],[4,6],[3,6],[11,59],[36,18],[16,19],[56,105],[8,141],[-5,11],[-42,40],[2,29],[26,25],[8,5],[11,3],[4,3],[38,31],[127,14]],[[2969,2818],[73,-14]],[[3042,2804],[55,-1]],[[3097,2803],[36,12],[17,-1],[16,3],[31,0],[82,-6],[69,-25],[129,-79],[33,-4],[25,-14],[13,-11],[39,-10],[25,-14],[53,-6],[10,-4],[37,-35],[2,-4],[6,-19],[4,-7],[4,-12],[10,-10],[85,-11],[22,-16],[24,1],[22,17],[13,5],[92,-17],[59,15],[39,2],[2,1]],[[3097,2803],[2,0],[2,-1],[3,1],[2,0],[27,11],[17,0],[3,0],[13,2],[15,0],[16,1],[9,-2],[4,-2],[5,-5],[3,-2],[2,-1],[2,-1],[3,-1],[5,-1],[2,0],[6,0],[8,2],[24,7],[9,0],[12,-6],[14,-14],[3,-3],[2,-1],[2,-1],[4,-1],[3,0],[20,3],[9,-2],[59,-40],[70,-39],[4,-2],[4,-1],[2,0],[23,-1],[10,-6],[15,-8],[7,-7],[4,-3],[2,-1],[2,-1],[7,-2],[7,-4],[2,-1],[2,0],[4,-1],[9,0],[6,-2],[17,-10],[4,-2],[4,-1],[4,-2],[6,-1],[43,-3],[10,-4],[22,-24],[15,-11],[2,-4],[6,-19],[4,-7],[2,-8],[2,-4],[0,-2],[3,-3],[3,-3],[4,-2],[5,-3],[7,-2],[7,-2],[12,-1],[6,-1],[13,-1],[35,-1],[14,-12],[4,-3],[4,-1],[9,-1],[4,-1],[3,0],[4,1],[5,2],[4,2],[3,2],[14,13],[13,4],[79,-15],[8,-1],[5,0],[8,1],[8,1],[43,13],[22,-1],[4,1],[13,2],[2,1]],[[3369,2775],[26,16],[-40,-45],[-21,14]],[[3334,2760],[-3,8]],[[3334,2760],[56,-104],[-21,-88],[35,-191]],[[428,1692],[33,-52],[93,-35],[-20,-84]],[[534,1521],[-2,-1]],[[526,1516],[8,5]],[[527,1516],[5,4]],[[532,1520],[-2,-2]],[[2869,4096],[-16,-59],[-34,-56],[-207,-177],[-40,11],[-29,-22],[-10,-48],[18,-69],[-46,-74],[-34,-83],[-46,-67],[-84,-27],[-217,-15],[-72,15],[0,-29],[15,-47],[-14,-38],[-5,-43],[46,-59],[96,-36],[50,-30],[32,-61],[-47,24],[-120,6],[-53,32],[-11,-14],[-8,-8],[-19,-12],[-3,52],[-7,63],[-13,53],[-17,25],[-22,-6],[-38,-44],[-21,-15],[-60,0],[-58,-47],[-28,-62],[-10,-79],[-3,-92],[-26,-177],[-28,-62],[-6,-26],[-202,-109],[-22,2],[-44,-3],[-33,-23],[19,-92],[4,-57],[-2,-53],[-10,-23],[-40,-13],[-107,-76],[-334,-351],[-108,-61],[-103,0],[-16,-17],[-9,-42],[-20,-46],[-42,-67],[-60,-38],[-59,30],[-90,87],[-64,-2],[-112,-73],[-99,-34],[-121,-71],[0,2535],[2869,0]],[[4096,2231],[0,-2231],[-4096,0],[0,948],[16,1],[120,39],[43,22],[52,43],[32,61],[-17,79],[-1,63],[55,47],[77,27],[60,3],[49,-21],[97,-59],[118,-22],[176,-84],[57,-42],[46,-58],[84,-137],[20,-45],[2,-32],[-3,-37],[11,-57],[12,-32],[14,-22],[88,-98],[30,-24],[26,-11],[10,25],[33,107],[87,103],[20,17],[35,5],[59,-11],[27,6],[83,127],[38,84],[-13,38],[-12,13],[-10,61],[-7,20],[-13,4],[-34,-6],[-14,2],[-42,25],[-25,7],[-32,-1],[93,42],[26,20],[12,33],[-2,37],[4,34],[27,20],[36,25],[19,9],[25,-2],[-44,51],[-18,14],[0,28],[37,50],[-5,52],[2,40],[58,16],[37,-33],[17,-162],[35,-56],[122,211],[39,40],[124,42],[51,30],[54,66],[55,23],[145,-23],[29,32],[5,25],[34,86],[0,19],[-15,31],[-5,28],[11,29],[24,33],[27,29],[20,17],[0,34],[-23,59],[32,37],[60,20],[59,6],[17,7],[16,16],[17,11],[21,-3],[40,-124],[16,-1],[15,11],[9,13],[-1,8],[479,28],[114,44],[212,134],[133,14],[249,-65],[50,-31],[28,-64],[20,-37]],[[4096,2436],[0,-32],[-4,0],[-24,-7],[0,31],[28,8]],[[4096,2598],[0,-93],[-158,-25],[-49,70],[141,-12],[38,12],[25,35],[3,13]],[[4096,2741],[0,-78],[-4,17],[-43,29],[0,28],[36,-2],[11,6]],[[4096,2741],[-11,-6],[-36,2],[0,-28],[43,-29],[4,-17]],[[4096,2598],[-3,-13],[-25,-35],[-38,-12],[-141,12],[49,-70],[158,25]],[[4096,2436],[-28,-8],[0,-31],[24,7],[4,0]],[[4096,2231],[-20,37],[-28,64],[-50,31],[-249,65],[-133,-14],[-212,-134],[-114,-44],[-479,-28],[1,-8],[-9,-13],[-15,-11],[-16,1],[-40,124],[-21,3],[-17,-11],[-16,-16],[-17,-7],[-59,-6],[-60,-20],[-32,-37],[23,-59],[0,-34],[-20,-17],[-27,-29],[-24,-33],[-11,-29],[5,-28],[15,-31],[0,-19],[-34,-86],[-5,-25],[-29,-32],[-145,23],[-55,-23],[-54,-66],[-51,-30],[-124,-42],[-39,-40],[-122,-211],[-35,56],[-17,162],[-37,33],[-58,-16],[-2,-40],[5,-52],[-37,-50],[0,-28],[18,-14],[44,-51],[-25,2],[-19,-9],[-36,-25],[-27,-20],[-4,-34],[2,-37],[-12,-33],[-26,-20],[-93,-42],[32,1],[25,-7],[42,-25],[14,-2],[34,6],[13,-4],[7,-20],[10,-61],[12,-13],[13,-38],[-38,-84],[-83,-127],[-27,-6],[-59,11],[-35,-5],[-20,-17],[-87,-103],[-33,-107],[-10,-25],[-26,11],[-30,24],[-88,98],[-14,22],[-12,32],[-11,57],[3,37],[-2,32],[-20,45],[-84,137],[-46,58],[-57,42],[-176,84],[-118,22],[-97,59],[-49,21],[-60,-3],[-77,-27],[-55,-47],[1,-63],[17,-79],[-32,-61],[-52,-43],[-43,-22],[-120,-39],[-16,-1]],[[0,1561],[121,71],[99,34],[112,73],[64,2],[90,-87],[59,-30],[60,38],[42,67],[20,46],[9,42],[16,17],[103,0],[108,61],[334,351],[107,76],[40,13],[10,23],[2,53],[-4,57],[-19,92],[33,23],[44,3],[22,-2],[202,109],[6,26],[28,62],[26,177],[3,92],[10,79],[28,62],[58,47],[60,0],[21,15],[38,44],[22,6],[17,-25],[13,-53],[7,-63],[3,-52],[19,12],[8,8],[11,14],[53,-32],[120,-6],[47,-24],[-32,61],[-50,30],[-96,36],[-46,59],[5,43],[14,38],[-15,47],[0,29],[72,-15],[217,15],[84,27],[46,67],[34,83],[46,74],[-18,69],[10,48],[29,22],[40,-11],[207,177],[34,56],[16,59]],[[1156,1792],[-1,2]],[[3673,3658]],[[3688,3643],[-11,10]],[[3773,3656],[85,25]],[[2291,3104],[0,-1],[0,1]],[[3078,4096],[-29,-27]],[[2696,2343],[0,-1]],[[2711,2836],[2,-2]],[[2713,2834],[-2,0]],[[2713,2834],[6,-2]],[[2730,2827],[-11,5]],[[2719,2832],[11,-4]],[[2731,2828],[2,-1]],[[2733,2827],[-2,0]],[[2733,2827],[39,1],[35,-44],[140,40],[250,5]],[[3197,2829],[2,1]],[[3200,2828],[-3,1]],[[3201,2831],[88,-5],[133,-45]],[[3423,2779],[-91,11],[-12,8],[-31,27],[-87,5]],[[4050,2648],[-2,0]],[[4096,2626],[-44,22]],[[2708,2834],[2,2],[1,-1],[-1,-2],[-2,1]],[[2731,2828],[-1,-1],[0,1],[1,0]],[[3200,2830],[2,0],[0,-2],[-2,0]],[[3200,2828],[0,2]],[[3677,3659],[1,0]],[[88,1032],[37,27]],[[1739,2318],[55,32]],[[1810,2354],[-70,-37]],[[1797,2352],[21,4]],[[1818,2356],[22,4],[27,31]],[[1867,2391],[27,31],[2,1],[72,35],[23,4]],[[1994,2463],[-51,-19],[-69,-48],[-7,-5]],[[1867,2391],[-49,-35]],[[1818,2356],[-2,-2]],[[1739,2315],[-1,2],[2,1],[1,-2],[-2,-1]],[[2646,2386],[-2,8]],[[1910,3186],[-16,-4]],[[1616,2646],[39,0]],[[1670,2644],[25,-6]],[[77,1025],[11,7]],[[125,1059],[9,7]],[[3354,2348],[49,14]],[[3397,2424],[7,-39]],[[3403,2362],[4,1]],[[3048,4070],[2,-1]],[[942,1713],[-2,0]],[[2297,3094],[1,-7]],[[2316,3076],[-10,8]],[[4096,1865],[-774,-1865]],[[3435,3719],[-96,45],[-84,-6],[-28,36]],[[3858,3681],[55,-10]],[[1596,2272],[37,-1]],[[1670,2644],[-15,2]],[[135,1284],[61,-24]],[[197,1258],[-1,2]],[[196,1260],[1,-1]],[[3711,3609],[-1,1]],[[3831,3019],[-19,93],[-34,40]],[[3832,3019],[-1,-1],[0,1]],[[3831,3019],[1,0]],[[3923,2908],[-38,82],[-53,29]],[[1566,1480],[-2,1]],[[1565,1481],[1,-1]],[[1566,1480],[17,-36]],[[1617,1453],[-25,43],[-31,-5]],[[1779,1459],[28,-26]],[[416,1321],[-18,3]],[[2416,2296],[6,-4]],[[3410,2840],[1,0]],[[3410,2793],[1,-1]],[[3412,2793],[-1,0]],[[3411,2840],[0,-1]],[[3411,2840],[144,42],[95,76],[147,11],[4,28]],[[3412,2788],[0,1]],[[3413,2787],[2,-5]],[[3420,2792],[-2,1]],[[3421,2793],[-1,-1]],[[3422,2788],[1,0]],[[3801,2998],[30,21]],[[3832,3019],[24,18]],[[3856,3038],[82,55],[155,3],[3,7]],[[3855,3037],[0,1],[1,0],[-1,-1]],[[326,1327],[0,2],[3,0],[-1,-2],[-2,0]],[[1774,1501],[18,66],[71,86],[29,-18],[33,29]],[[1774,1501],[-5,-18],[-16,-35],[48,14],[-27,39]],[[1949,1682],[121,164],[-12,107]],[[1444,1519],[-1,1]],[[1444,1520],[0,-1]],[[1444,1524],[0,1]],[[1444,1525],[12,52]],[[1444,1525],[1,-1]],[[1444,1519],[10,-29]],[[1453,1488],[1,2]],[[1454,1485],[0,2]],[[1454,1490],[0,-2]],[[1454,1487],[0,-2]],[[1454,1485],[73,-5]],[[1457,1578],[-1,-1]],[[1456,1577],[1,2]],[[1458,1580],[0,1]],[[1458,1581],[1,70],[76,64]],[[1458,1581],[0,-1]],[[1529,1479],[-2,1]],[[1527,1480],[2,0]],[[1530,1481],[3,1]],[[1533,1482],[-2,-2]],[[1533,1482],[21,7]],[[1536,1716],[-1,-1]],[[1535,1715],[1,1]],[[1537,1717],[45,47]],[[1583,1764],[-46,-48]],[[1554,1489],[2,1]],[[1556,1489],[-2,0]],[[1583,1766],[1,1]],[[1584,1767],[-1,-2]],[[1584,1767],[26,27]],[[1611,1795],[-1,-1]],[[1610,1794],[0,1]],[[1611,1796],[1,3]],[[1613,1799],[-2,-3]],[[1612,1800],[1,2]],[[1613,1802],[41,93]],[[1613,1802],[0,-2]],[[1678,1926],[-19,-26],[-5,-5]],[[1654,1895],[2,6]],[[1659,1900],[-3,-1]],[[1725,2183],[0,-54]],[[2044,2539],[-49,27]],[[1995,2567],[50,-27]],[[1530,1478],[-1,1]],[[1529,1479],[1,2],[1,-1]],[[1531,1480],[-1,-2]],[[1582,1766],[1,-1],[0,-1]],[[1583,1764],[-1,1],[0,1]],[[1611,1796],[0,-1],[-1,0],[1,1]],[[1612,1800],[1,0]],[[1613,1800],[0,-1]],[[1613,1799],[-1,0]],[[1612,1799],[0,1]],[[2778,2592],[3,7]],[[4096,1865],[-774,-1865]],[[1583,1444],[10,-19]],[[1593,1425],[61,-4]],[[2227,3098],[8,1]],[[2235,3099],[-7,-2]],[[2235,3099],[101,25]],[[2338,3123],[-2,1]],[[2336,3124],[2,0]],[[2339,3124],[2,-1]],[[2617,3443],[-103,-194],[-51,-25]],[[2753,3567],[-18,-31]],[[2945,3814],[-180,-232]],[[3028,4012],[-57,-96]],[[1593,1425]],[[593,1578],[-2,18]],[[2647,2386],[-1,0]],[[2696,2342],[-17,-5],[17,6]],[[77,1025],[-4,3]],[[254,1124],[-12,-34],[-39,7],[-42,-58],[-27,27]],[[2802,3258],[-27,-108],[-68,-11]],[[2792,3411],[-37,-49],[28,-31],[-42,-25]],[[2049,2833],[0,1],[1,0],[-1,-2],[0,1]],[[2338,3123],[0,1],[1,-1],[0,-1],[-1,1]],[[1596,2588],[-45,26]],[[1618,2557],[-20,31]],[[1618,2556],[27,9]],[[1657,2570],[11,3]],[[1674,2573],[63,3]],[[1739,2576],[237,-13]],[[1618,2556]],[[1669,2573],[1,1],[1,0],[-1,-1],[-1,0]],[[3410,2839],[0,1],[1,0],[0,-1],[-1,0]],[[3420,2794],[1,-1],[-1,-1],[-1,1],[1,1]],[[3422,2786],[-1,1],[1,0],[0,-1]],[[0,1068],[8,11]],[[942,1712],[0,-1]],[[1679,1932],[-2,2]],[[1972,1681],[-4,-5]],[[2430,2280],[2,-1]],[[2647,2387],[0,-1]],[[3421,2793],[-10,46]],[[3421,2793],[1,-6]],[[1422,1807],[-11,3]],[[283,1275],[70,-93],[-78,-250],[-275,-79]],[[3711,2594],[-1,-1]],[[1818,2463],[-19,-107]],[[2058,1953],[-80,-8],[19,53],[-37,30]],[[502,1499],[22,19]],[[2626,2895],[-9,4]],[[2880,3708],[-2,0]],[[2879,3708],[1,0]],[[2880,3708],[173,46]],[[3054,3755],[179,-112],[232,-69],[47,9]],[[2877,2257],[-94,-94],[-147,-57],[-182,-143]],[[3518,3577],[-1,-1],[-1,1],[1,0],[1,0]],[[426,1700],[13,-47],[101,-76],[-8,-43]],[[534,1532],[-2,2]],[[532,1534],[2,0]],[[2540,2919],[-84,133],[-102,21],[-14,48]],[[2306,3084],[-8,3]],[[1646,2566],[1,-1]],[[506,1303],[-41,47],[-72,1]],[[506,1302],[0,1]],[[506,1303],[1,0]],[[543,1289],[-36,13]],[[888,1202],[71,25],[51,-36]],[[1011,1190],[7,-5]],[[1028,1178],[-10,7]],[[1028,1178],[6,2]],[[1051,1158],[1,1]],[[1051,1190],[1,0]],[[1052,1190],[-1,-1]],[[1052,1190],[9,4]],[[1053,1160],[1,1]],[[1062,1195],[-1,-1]],[[1061,1194],[1,1]],[[1062,1195],[0,1],[1,-1],[-1,0]],[[1063,1196],[1,2]],[[1064,1198],[-1,-2]],[[1064,1198],[1,31]],[[1065,1229],[0,1]],[[1065,1230],[0,-1]],[[1377,1496],[16,16]],[[2971,3916],[-26,-102]],[[3049,4069],[-21,-57]],[[3050,4069],[8,-7]],[[235,1194],[14,-13]],[[250,1178],[6,-36]],[[2676,3173],[9,47]],[[1668,1942],[0,3]],[[1669,1945]],[[1013,1720],[-11,-7]],[[1687,1731],[-4,25]],[[1616,2646],[-18,-57]],[[1695,2638],[11,-13]],[[1707,2624],[-1,0],[0,1]],[[1706,2625],[1,0],[0,-1]],[[1707,2624],[30,-47]],[[1737,2577]],[[1737,2577],[1,0]],[[1971,2345],[-185,143],[-48,88]],[[1973,2345],[-2,0]],[[1971,2345],[1,0]],[[1973,2345],[0,1],[0,-1]],[[1973,2345]],[[1974,2345],[-1,0]],[[1973,2345],[1,0]],[[1974,2345],[194,-54],[169,5],[7,-5],[10,-3],[39,-23]],[[2393,2265],[4,-2]],[[2394,2267],[-1,-2]],[[2393,2265],[-1,-2]],[[1076,1757],[-11,-3]],[[197,1259],[1,1]],[[220,1308],[-22,-48]],[[198,1260],[0,-1]],[[220,1308],[0,2]],[[221,1310],[-1,-2]],[[291,1316],[1,1]],[[316,1321],[-23,-5]],[[293,1317],[23,5]],[[317,1322],[9,5]],[[328,1327],[-11,-6]],[[327,1329],[63,23]],[[390,1351],[-61,-22]],[[391,1353],[111,146]],[[524,1518],[9,12]],[[535,1531],[-2,-1]],[[533,1530],[1,2]],[[542,1533],[-3,0]],[[539,1535],[3,-2]],[[542,1533],[98,34],[19,65]],[[659,1632],[-1,3]],[[660,1635],[-1,-3]],[[659,1638],[1,2]],[[660,1640],[192,75]],[[660,1640],[0,-2]],[[1016,1792],[-68,-35],[-89,-40],[-7,-2]],[[852,1715],[164,77]],[[1122,1833],[3,3],[1,1]],[[1126,1837],[109,56],[19,21]],[[1254,1914],[91,97]],[[1346,2011],[-89,-95],[-3,-2]],[[1254,1914],[-105,-56],[-23,-21]],[[1126,1837],[-1,-1],[-3,-3]],[[1346,2014],[4,7]],[[1350,2021],[-3,-8]],[[1350,2021],[92,67]],[[1471,2096],[-29,-8]],[[1471,2096],[112,92],[45,75],[109,52]],[[1739,2315],[-2,0]],[[1737,2315],[1,1]],[[1794,2350],[3,2]],[[1816,2354],[-6,0]],[[1991,2462],[7,4],[2,2]],[[2000,2468],[29,25],[5,25],[4,6]],[[2038,2524],[6,12],[4,5],[39,34]],[[2089,2576],[-45,-40],[-6,-12]],[[2038,2524],[-2,-3],[-36,-53]],[[2000,2468],[-1,-2],[-5,-3]],[[2404,2698],[144,43],[135,27],[30,60],[-18,89],[5,14]],[[2700,2931],[4,10]],[[2704,2941],[15,43],[65,60]],[[2784,3044],[8,7]],[[2577,2745],[-28,-4],[-2,0],[-43,-15],[-100,-29]],[[2792,3051],[-4,-2],[-4,-5]],[[2784,3044],[-80,-103]],[[2704,2941],[-4,-5],[0,-5]],[[2700,2931],[14,-101],[-2,-13]],[[2792,3051],[20,9]],[[4096,3828],[-193,-85],[-48,-60],[-64,-42],[-132,-36],[-75,3],[-145,-82],[-54,-55],[-32,-15],[-18,-2],[-86,6],[-12,-5]],[[3237,3456],[12,4],[104,-4],[32,16]],[[3477,3549],[107,60],[207,33],[112,101],[193,86]],[[198,1259],[0,-1],[-1,1],[1,0]],[[391,1350],[-1,1],[1,1],[1,-1],[-1,-1]],[[534,1532],[1,3],[4,0],[-2,-3],[-3,0]],[[661,1638],[0,-3],[-3,0]],[[658,1635],[0,3],[3,0]],[[219,1224],[11,-23]],[[233,1198],[-3,3]],[[233,1198],[2,-4]],[[3710,3610],[-22,33]],[[1010,1764],[2,1]],[[1086,1783],[10,3]],[[2408,2454],[41,-36]],[[2408,2455],[17,108],[65,93],[-11,54]],[[2449,2417],[0,1]],[[2449,2418],[1,0]],[[2450,2414],[0,1]],[[2450,2416],[0,-2]],[[2450,2414],[3,-42]],[[2453,2372],[1,0],[-1,-1]],[[2453,2371],[0,1]],[[2453,2371],[23,-13]],[[2476,2358],[1,0],[0,-1]],[[2477,2357],[-1,0],[0,1]],[[2477,2357],[25,-14]],[[2479,2710],[-1,1]],[[2479,2712],[0,-2]],[[2502,2343],[1,0],[1,-1]],[[2504,2342],[-1,0],[-1,1]],[[2504,2342],[33,-21]],[[2537,2321],[1,1],[0,-1],[-1,-1],[0,1]],[[2538,2321],[7,-11]],[[2549,2301],[-4,9]],[[2545,2310],[5,-9]],[[2407,2454],[0,1],[1,0]],[[2408,2455],[0,-1]],[[2408,2454],[-1,0]],[[1617,1453],[-2,29]],[[3410,2793],[0,1],[1,0],[-1,-1]],[[3414,2782],[2,-1]],[[1672,1948],[-5,2]],[[23,1073],[-15,6]],[[224,1228],[-5,-4]],[[620,1622],[-33,-20]],[[643,1626],[-2,0]],[[643,1625],[12,-2]],[[918,1705],[22,8]],[[952,1704],[3,8]],[[999,1713],[-36,-21]],[[1150,1785],[-11,-3]],[[1156,1792],[28,0]],[[2041,1729],[3,6]],[[2442,2261],[-10,18]],[[2579,2516],[-7,1]],[[2629,2895],[-3,0]],[[2414,2304],[2,-8]],[[2511,2422],[-24,-46],[-76,3],[8,-38]],[[2520,2408],[30,-32]],[[2584,2364],[-33,13]],[[2648,2385],[12,-17]],[[2661,2368],[19,0]],[[2682,2365],[6,-20]],[[2688,2340],[12,-11]],[[2641,2884],[-2,7]],[[1809,3105],[0,-16]],[[1910,3186],[82,8]],[[891,1724],[-2,11]],[[891,1723],[0,1]],[[891,1724],[1,0]],[[893,1723],[-1,0]],[[892,1724],[1,-1]],[[902,1726],[-9,-3]],[[944,1713],[23,4]],[[973,1724],[-1,0]],[[973,1725],[1,1]],[[974,1726],[0,-1]],[[974,1726],[23,27]],[[1010,1764],[-1,-1]],[[1114,1791],[-3,-1]],[[1114,1793],[14,31]],[[1129,1824],[-14,-32]],[[1129,1825],[11,20]],[[1141,1844],[-12,-20]],[[1140,1845],[0,1]],[[1141,1844],[-1,2],[2,0],[1,-1],[-2,-1]],[[1142,1848],[0,-2]],[[1142,1846],[12,11]],[[1154,1856],[-11,-11]],[[1154,1857],[11,11],[11,2]],[[1154,1857],[1,0],[-1,-1]],[[1154,1856],[0,1]],[[1176,1870],[-22,-13]],[[1176,1870],[65,16],[8,26]],[[1250,1913],[-1,-1]],[[1249,1912],[1,1]],[[973,1725],[1,0],[0,-1],[-1,1]],[[1128,1824],[1,1],[0,-1],[-1,0]],[[1250,1913],[0,1],[0,-1]],[[953,1703],[0,-1]],[[73,1028],[-50,45]],[[357,1323],[-1,0]],[[416,1321],[28,35]],[[465,1349],[25,91],[69,51],[6,57]],[[590,1599],[-3,3]],[[635,1618],[-15,4]],[[899,1702],[-3,-67],[-76,-45],[-163,23]],[[942,1711],[2,-1]],[[955,1712],[-8,-1]],[[1013,1720],[6,5]],[[1039,1743],[-20,-18]],[[1056,1748],[-15,-4]],[[1112,1770],[27,12]],[[1150,1785],[5,9]],[[1192,1783],[18,-8],[49,47],[50,-22]],[[1403,1819],[7,-9]],[[1471,1785],[3,4]],[[1479,1787],[29,58]],[[1507,1772],[-4,-4]],[[1572,1754],[-48,15]],[[1533,1848],[93,77]],[[1601,1783],[12,12]],[[1676,1831],[-62,-31]],[[1676,1831],[-26,44]],[[1671,1935],[6,-1]],[[1683,1756],[12,53],[-19,22]],[[1691,1896],[0,3]],[[1778,1714],[126,11],[21,-61]],[[1949,1682],[19,-6]],[[1972,1681],[69,48]],[[2109,1778],[13,68],[92,40],[20,-53],[37,-16],[80,4],[34,34]],[[2109,1778],[-64,-41],[-1,-2],[94,3],[-29,40]],[[2392,1858],[55,72],[-7,41]],[[2423,2217],[-4,8]],[[2425,2248],[17,13]],[[2430,2280],[10,4]],[[2437,1976],[3,-5]],[[2542,2380],[-1,-58]],[[2569,2400],[-8,-3]],[[2569,2401],[38,44],[-28,71]],[[2596,2734],[-26,-86],[2,-131]],[[2614,2900],[-3,1]],[[2629,2895],[2,-3]],[[2669,2820],[5,-6]],[[2681,2819],[26,-16]],[[2682,3222],[58,83]],[[2699,2768],[71,-2]],[[2703,3139],[4,0]],[[2741,3306],[-1,-1]],[[2740,3305],[54,-18],[8,-29]],[[2822,3514],[-30,-103]],[[2898,3655],[5,-70],[-71,-38],[-10,-32]],[[3053,3754],[-52,-76],[-15,-75]],[[3104,4021],[-39,-91],[23,-96]],[[3156,3966],[-39,-70],[10,-36]],[[3258,4096],[-94,-133]],[[1779,1459],[-25,-22],[-136,16]],[[3720,3606],[-9,3]],[[3722,3605],[-2,1]],[[3720,3606],[2,-1]],[[3722,3605],[1,0]],[[3723,3605],[0,-1]],[[3723,3604],[-1,1]],[[3722,3605]],[[3724,3604],[-1,0]],[[3723,3605],[1,-1]],[[3724,3604],[23,-14],[5,-154],[21,-22],[-19,-206],[24,-56]],[[3924,2907],[0,1]],[[3924,2908]],[[3924,2908]],[[3926,2907],[-1,0]],[[3952,2854],[-25,52]],[[3952,2854],[1,0],[0,-1],[-1,0],[0,1]],[[3986,2729],[2,76],[-35,48]],[[4046,2656],[-65,39],[5,32]],[[4046,2654],[0,2]],[[4046,2656],[1,-1]],[[4050,2651],[-3,3]],[[4050,2649],[0,2]],[[4050,2651],[1,-2]],[[3924,2908]],[[3924,2908],[1,0],[1,-1]],[[3926,2907],[-1,0],[-1,1]],[[3924,2908]],[[3987,2728],[-1,-1],[-1,2],[2,0],[0,-1]],[[4047,2654],[-1,0],[1,1],[0,-1]],[[1596,2272],[13,-34]],[[1597,2109],[20,6],[50,-165]],[[1661,2414],[-33,-60],[6,-83]],[[1669,2426],[-1,52],[44,24],[-55,68]],[[1668,1942],[4,-3]],[[1728,2657],[-39,-3]],[[1973,2678],[-40,-51],[-81,-24],[-59,40],[-62,3]],[[1807,3106],[2,-1]],[[1809,3089],[116,-71]],[[1956,3135],[-50,-17],[19,-100]],[[1997,2724],[-92,161],[20,133]],[[1979,2688],[-3,-5]],[[1988,2707],[6,14]],[[1997,2724],[-3,-3]],[[2291,3104]],[[1557,1489],[7,-7]],[[3734,2523],[-191,13]],[[3078,3855],[111,-25],[38,-36]],[[3435,3719],[-18,-18],[34,-7],[3,-30],[136,-23],[73,14]],[[3677,3659],[-4,-1]],[[3677,3653],[-4,5]],[[3688,3643],[85,13]],[[4096,3547],[-183,124]],[[1065,1754],[-9,-6]],[[1112,1770],[-36,-13]],[[221,1231],[3,-3]],[[249,1181],[1,-3]],[[268,1285],[2,1]],[[272,1294],[84,29]],[[357,1323],[41,1]],[[465,1349],[-21,7]],[[565,1548],[26,31]],[[590,1599],[1,-3]],[[641,1626],[-6,-8]],[[643,1626],[0,-1]],[[899,1702],[19,3]],[[947,1711],[-2,-2]],[[1184,1792],[8,-9]],[[1583,1760],[18,23]],[[1614,1799],[-1,-4]],[[1626,1925],[3,2]],[[1650,1875],[42,20]],[[1683,1918],[-4,14]],[[2407,2189],[16,28]],[[2424,1989],[-41,67],[25,133]],[[2419,2225],[6,23]],[[2541,2322],[-5,-3]],[[2542,2380],[8,-4]],[[2551,2377],[10,20]],[[2569,2400],[0,1]],[[2604,3066],[-62,-154],[69,-11]],[[2607,3066],[91,39],[-22,68]],[[2617,2899],[-3,1]],[[2674,2814],[7,5]],[[2707,2804],[-22,-47]],[[2697,2769],[2,-1]],[[2770,2766],[30,4]],[[3053,3754],[0,1]],[[1614,1800],[0,-1]],[[2631,2892],[8,-1]],[[0,104],[160,-104]],[[1699,2004],[1,1]],[[1700,2003],[0,-1],[-1,1]],[[1700,2005],[0,-1]],[[1700,2005],[26,143]],[[1719,1978],[0,1]],[[1725,2183],[15,131]],[[1740,2314],[-1,1]],[[1740,2316],[0,-2]],[[1699,2004],[1,0]],[[1700,2004],[-1,-1],[0,1]],[[1994,2568],[1,-1],[-1,-2],[-1,1],[1,2]],[[2164,3054],[-181,26],[-27,55]],[[2339,3123],[0,-1]],[[2475,2720],[1,1]],[[2476,2721],[0,-2]],[[2476,2721],[21,4]],[[2509,2736],[-12,-11]],[[2509,2736],[-8,47],[130,109]],[[2540,2919],[32,-31]],[[2572,2888],[1,-1]],[[2573,2887],[2,0]],[[2573,2887],[-1,1]],[[2573,2887]],[[2573,2887]],[[2575,2887],[-1,0]],[[2575,2887],[22,-4]],[[2639,2891],[21,-14]],[[2661,2876],[5,-2]],[[2661,2877],[24,28]],[[2667,2874],[29,-11]],[[2666,2874]],[[2666,2874],[1,1],[0,-1]],[[2667,2874],[-1,0]],[[63,1324],[72,-40]],[[1609,2238],[-34,-44],[22,-85]],[[1625,2588],[12,-9]],[[1644,2572],[2,-5]],[[1655,2646],[0,-11]],[[1999,3199],[1,0]],[[1632,1919],[3,-4]],[[1122,1833],[-35,-16],[-71,-25]],[[1016,1792],[106,41]],[[3422,2781],[32,-59],[64,-45],[191,-82]],[[4007,2631],[-98,48],[-199,-84]],[[4050,2649],[-41,-18]],[[4052,2649],[44,-28]],[[3710,2593],[-2,1],[1,1]],[[3709,2595],[2,-1],[-1,-1]],[[4052,2648],[-1,0],[-1,1]],[[4050,2649],[1,0],[1,-1]],[[268,1285],[-23,-33]],[[657,1613],[-2,10]],[[945,1709],[-1,1]],[[963,1692],[-10,10]],[[1039,1743],[2,1]],[[1447,1793],[-1,-1]],[[1474,1789],[5,-2]],[[1524,1769],[-17,3]],[[1533,1848],[-25,-3]],[[1583,1760],[-11,-6]],[[1629,1927],[42,8]],[[1683,1918],[8,-19]],[[2392,1858],[-7,-3]],[[2432,2279],[29,16]],[[2462,2295],[0,-1],[-1,1]],[[2461,2295],[1,0]],[[2462,2295],[74,24]],[[2682,2754],[-86,-20]],[[2683,2754],[2,3]],[[2986,3603],[-88,52]],[[3127,3860],[-39,-26],[-34,-79]],[[3058,4062],[46,-41]],[[3164,3963],[-8,3]],[[940,1713],[-38,13]],[[944,1713],[-2,0]],[[1010,1764],[-13,-11]],[[1096,1786],[17,6]],[[1114,1791],[-1,1],[1,1],[1,-1],[-1,-1]],[[274,1290],[-7,-7]],[[1344,2013],[2,3]],[[1346,2016],[135,272],[58,40],[14,101],[65,127]],[[1346,2016],[0,-2]],[[1731,2646],[-3,11]],[[1002,1713],[-3,0]],[[1692,1895],[-1,1]],[[2408,2189],[-1,0]],[[2604,3066],[3,0]],[[2685,3220],[-1,1]],[[392,1351]],[[1635,1915],[19,-14]],[[1656,1901],[-1,0]],[[1656,1900],[-1,0]],[[1683,1937],[-2,-1]],[[2418,2264],[1,0]],[[2419,2264],[1,0]],[[2420,2264],[-1,0]],[[2420,2264],[1,0],[-1,-1],[0,1]],[[2422,2263],[1,0],[-1,0]],[[2476,2716],[-1,1]],[[2476,2718],[0,-2]],[[2477,2714],[-1,2]],[[2477,2712],[0,2]],[[2477,2714],[1,-1]],[[2573,2314],[-1,0],[1,1]],[[2574,2315],[2,1],[-2,-2]],[[3513,3583],[-1,0],[0,1],[1,0],[0,-1]],[[3516,3577],[-3,6]],[[316,1321],[0,1],[1,0],[0,-1],[-1,0]],[[1345,2011],[-1,2],[2,1],[1,-2],[-2,-1]],[[1459,1578],[-2,0],[0,1],[1,1],[1,-2]],[[1536,1717],[1,0],[0,-1],[-1,0],[0,1]],[[1571,1937],[0,1],[1,-1],[-1,0]],[[1992,2072],[-1,-1],[-1,1],[1,1],[1,-1]],[[2048,2537],[-3,-1],[-1,3],[3,1],[1,-3]],[[2421,2263],[1,0],[-1,0]],[[2449,2416],[0,1],[1,0],[1,-1],[-2,0]],[[2473,2719],[2,1],[1,-1],[-1,-2],[-2,2]],[[2479,2712],[-1,-1],[-1,0],[0,2],[2,-1]],[[2574,2314],[-1,0],[0,1],[1,0],[0,-1]],[[1642,2631],[-9,-7]],[[1648,2633],[5,1]],[[1653,2634],[2,1]],[[1655,2635]],[[1975,2682],[-2,-4]],[[1800,2351],[-1,4]],[[1801,2347],[-1,4]],[[1810,2352],[-9,-5]],[[1799,2356],[1,-1],[-1,0]],[[1799,2355],[0,1]],[[1680,1933],[47,-83],[54,-14],[-35,-136],[-42,-57],[41,-102],[-16,-80],[25,-24]],[[1014,1767],[-4,-3]],[[1012,1765],[2,2]],[[1014,1767],[72,16]],[[1051,1157],[-1,-1]],[[1050,1156],[1,1]],[[1121,1073],[-84,59],[13,24]],[[1227,596],[-58,397],[-48,79]],[[1121,1072],[0,1],[1,0],[-1,-1]],[[1993,2568],[2,101]],[[1993,2567],[0,1]],[[1993,2568],[1,0]],[[3030,4096],[18,-26]],[[944,1710]],[[953,1703],[-1,1]],[[0,1158],[90,20],[107,79]],[[198,1258],[-1,-1]],[[197,1257],[0,1]],[[2812,3060],[79,104]],[[3237,3455],[-149,-143],[-31,-47]],[[3057,3265],[-43,-63]],[[3014,3202],[-2,-3],[-121,-35]],[[2891,3164],[33,20],[90,18]],[[3014,3202],[2,0],[41,63]],[[3057,3265],[31,47],[149,144]],[[2898,3170],[-3,-2]],[[1992,2565],[-16,-2]],[[1551,2615],[-1,0],[1,1],[0,-1]],[[1976,2683]],[[1894,3182],[-74,2],[-30,-23],[-8,-42],[25,-13]],[[1956,3135],[36,59],[-15,8]],[[3053,3754],[1,1]],[[1625,2588],[0,12]],[[1629,2623],[4,1]],[[1661,2414],[8,12]],[[1672,1948],[-3,-3]],[[1670,2644],[5,4]],[[1988,2707],[-9,-19]],[[2009,3173],[-9,26]],[[3711,2592],[23,-69],[123,-26],[-17,-44],[18,-13],[108,7],[32,-21],[98,50]],[[2690,2922],[0,1]],[[2690,2923],[0,-1]],[[2710,2840],[-20,82]],[[2708,2836],[2,4]],[[2710,2840],[0,-4]],[[1738,1727],[-51,4]],[[1747,1726],[31,-12]],[[3663,3655],[10,3]],[[0,1329],[63,-5]],[[1994,2672],[1,1],[1,-2],[-2,0],[0,1]],[[2546,2904],[-124,12],[-106,160]],[[1348,2011],[-1,0]],[[1347,2012],[1,-1]],[[1348,2011],[118,-66]],[[1473,1943],[-7,2]],[[1466,1945],[7,-1]],[[1474,1944],[46,-2]],[[1520,1941],[-7,-1],[-39,3]],[[1521,1942],[23,3]],[[1545,1944],[-24,-3]],[[1557,1942],[-11,2]],[[1546,1945],[11,-3]],[[1557,1942],[13,-4]],[[1571,1938],[-1,0]],[[1570,1938],[1,0]],[[1571,1938]],[[1571,1938]],[[1571,1938],[2,0]],[[1573,1938],[-1,-1]],[[1573,1938],[30,-7]],[[1619,1930],[-1,-1]],[[1618,1929],[1,1]],[[1618,1929],[0,1]],[[1632,1919],[-13,10]],[[1626,1927],[3,-3]],[[1655,1900],[-1,1]],[[1801,1976],[11,10]],[[1845,2015],[13,15]],[[1858,2030],[19,-2]],[[1986,2054],[5,15]],[[1991,2069],[-1,2]],[[1992,2072],[-1,-3]],[[1991,2073],[1,-1]],[[2473,2267],[2,1]],[[2475,2268],[-1,-1]],[[2475,2268],[2,1]],[[2488,2278],[-11,-9]],[[2488,2278],[1,1]],[[2489,2279],[-1,2]],[[2490,2280],[-1,-1]],[[2490,2283],[2,-1]],[[2492,2282],[-1,0]],[[2492,2282],[53,18]],[[2553,2304],[-8,-4]],[[2553,2304],[19,10]],[[2576,2316],[31,17]],[[2683,2432],[41,133]],[[2740,2569],[36,22]],[[2783,2602],[51,-5],[14,20]],[[3201,2828],[-109,-76],[-111,-1]],[[1473,1943],[0,1]],[[1473,1944],[1,0],[0,-1]],[[1474,1943],[-1,0]],[[1521,1941],[-1,0],[1,1],[0,-1]],[[1546,1945],[0,-1]],[[1546,1944],[-1,0],[-1,1],[2,0]],[[2473,2267],[1,0],[-1,-1],[-1,0],[1,1]],[[2489,2283],[2,-1]],[[2491,2282],[-1,-2]],[[2490,2280],[-2,1],[1,2]],[[3023,3209],[3,4]],[[3026,3213]],[[3027,3213],[-1,0]],[[1656,1900],[21,26]],[[1681,1936],[3,3]],[[2423,2263],[48,3]],[[2473,2266],[-2,0]],[[2471,2266],[1,1]],[[2007,3212],[30,10]],[[891,1725],[-1,2]],[[967,1718],[6,7]],[[1164,1866],[-1,1]],[[1707,2625],[11,14]],[[1137,1850],[3,2],[2,-4],[-3,-2],[-2,4]],[[1195,1750],[0,-1],[-1,1],[1,0]],[[1598,2589],[0,-1],[-1,0],[1,1]],[[1738,2576],[-1,0],[1,1],[0,-1]],[[2660,2877],[1,0],[0,-1],[-1,1]],[[2690,2924],[1,0],[0,-1],[-1,0],[0,1]],[[3801,2997],[0,1],[0,-1]],[[1443,1521],[1,2]],[[1443,1521],[1,0]],[[1444,1521],[-1,-1],[0,1]],[[1445,1523],[-1,-2]],[[1564,1482],[-7,6]],[[1445,1523],[-1,0]],[[1444,1523],[1,1],[0,-1]],[[1454,1488],[0,-1],[-1,1],[1,0]],[[2672,2334],[-2,-24],[-96,4]],[[2659,2368],[13,-34]],[[2672,2334],[7,3]],[[2680,2338],[-1,0]],[[2698,2341],[-2,1]],[[2696,2343],[2,-2]],[[2814,2294],[-116,47]],[[2419,2341],[-5,-37]],[[1677,1927],[4,9]],[[1685,1939],[-7,-12]],[[1686,1941],[20,18]],[[1706,1959],[-19,-18]],[[1719,1980],[-19,22]],[[1706,1959],[13,21]],[[1719,1980],[0,-1]],[[1677,1927],[1,0]],[[1678,1927],[1,-1],[-2,0],[0,1]],[[1685,1941],[2,-1],[-2,-1],[-1,1],[1,1]],[[2291,3103],[6,-9]],[[1945,2700],[23,-13]],[[0,79],[121,-79]],[[1603,1931],[12,-1]],[[1619,1930],[7,-3]],[[1629,1924],[3,-5]],[[1654,1901],[2,0]],[[1719,1979],[1,1]],[[1720,1979],[29,19],[52,-22]],[[1845,2015],[-33,-29]],[[1877,2028],[79,-2],[30,28]],[[1994,2073],[38,35],[109,-5],[277,161]],[[2607,2333],[39,53]],[[2644,2394],[39,38]],[[2724,2565],[16,4]],[[2776,2591],[2,1]],[[2781,2599],[2,3]],[[2848,2617],[33,97],[100,37]],[[2434,2286],[-4,1]],[[1634,2570],[10,2]],[[1669,1945],[-1,0]],[[3652,2619],[-192,93],[-37,67]],[[3708,2594],[-1,2]],[[3713,2596],[-2,-2]],[[4009,2631],[-2,0]],[[1195,1750],[12,117]],[[1457,1580],[-130,128],[-132,41]],[[1457,1579],[0,1]],[[1457,1580]],[[2434,1974],[-10,15]],[[2434,1974],[3,2]],[[2440,1971],[-6,3]],[[258,1128],[-4,-4]],[[543,1289],[345,-87]],[[1010,1191],[1,-1]],[[1034,1180],[17,-22]],[[1051,1189],[-1,-3]],[[1050,1186],[1,3]],[[1055,1162],[-5,24]],[[1051,1189],[0,1],[0,-1]],[[1054,1160],[-2,-2]],[[1054,1161],[1,1]],[[1055,1162],[0,-1]],[[1065,1232],[1,1]],[[1066,1233],[-1,-2]],[[1066,1233],[140,180],[91,72],[145,36]],[[1442,1521],[1,0]],[[1443,1520],[-1,1]],[[507,1302],[-1,1],[1,0],[0,-1]],[[1051,1157],[0,1],[1,0],[-1,-1]],[[1054,1161],[1,0]],[[1055,1161],[0,-1],[-1,0],[0,1]],[[1064,1231],[0,1],[1,-1],[0,-1],[-1,1]],[[220,1312],[1,0]],[[221,1312],[0,-1]],[[221,1312],[19,16]],[[241,1329],[-1,-1]],[[240,1328],[1,1]],[[241,1330],[3,-1]],[[244,1329],[-2,0]],[[290,1316],[-46,13]],[[290,1316],[1,0]],[[292,1316],[-2,0]],[[219,1310],[1,1],[1,0],[0,-1],[-2,0]],[[241,1328],[0,1],[0,1],[1,-1],[-1,-1]],[[292,1316],[0,1],[1,0],[0,-1],[-1,0]],[[3702,3650],[-5,3]],[[420,1702],[6,-2]],[[256,1142],[2,-14]],[[1695,2638],[36,8]],[[1728,2657],[181,61],[36,-18]],[[1968,2687],[8,-4]],[[1976,2683],[16,-12]],[[1647,2566],[10,4]],[[1646,2565],[0,1],[1,-1],[-1,0]],[[274,1290],[-2,4]],[[221,1231],[24,21]],[[1557,1488],[-1,1],[0,1],[1,0],[0,-2]],[[1564,1481],[0,1],[1,0],[-1,-1]],[[1925,1664],[24,18]],[[2007,3212],[30,10]],[[1995,2674],[53,158]],[[2051,2835],[74,168],[102,94]],[[2463,3224],[-124,-101]],[[2735,3536],[-41,-60],[-77,-33]],[[2765,3582],[-12,-15]],[[2228,3097],[-1,0],[0,1],[1,-1]],[[2424,2285],[-2,7]],[[2425,2282],[-1,3]],[[2424,2285],[3,-2]],[[2428,2281],[-3,1]],[[2427,2283],[3,4]],[[2427,2283],[2,-1]],[[2511,2422],[9,-14]],[[2584,2364],[60,30]],[[2659,2368],[-12,18]],[[2087,2575],[70,67],[126,6],[121,50]],[[2404,2697],[-121,-50],[-126,-6],[-68,-65]],[[2712,2817],[-43,-59],[-92,-13]],[[3385,3472],[92,77]],[[2641,2884],[28,-64]],[[2682,2755],[1,-1],[-1,0],[0,1]],[[3053,3755],[0,-1]],[[3411,2792],[-1,1]],[[3411,2838],[-1,1]],[[3411,2794],[8,-1]],[[3412,2789],[-1,3]],[[3414,2782],[-2,6]],[[3420,2794],[1,0]],[[3655,3601],[1,1]],[[3656,3602],[17,56]],[[3656,3602],[0,-2]],[[3673,3658],[77,75],[47,145],[-28,111],[22,107]],[[3677,3653],[-3,-2]],[[3694,3643],[21,-5]],[[3716,3638],[57,18]],[[3858,3681],[-5,-4]],[[3655,3599],[0,2]],[[3655,3601],[2,-1],[-1,-1],[-1,0]],[[3715,3637],[0,1],[1,0]],[[3716,3638],[-1,-1]],[[3678,3659],[18,-7]],[[3696,3652],[1,0],[0,1],[-1,0],[0,-1]],[[591,1579],[2,-1]],[[3207,2271],[55,75],[76,-18],[16,20]],[[3385,2489],[12,-65]],[[3403,2362]],[[3404,2385],[3,-22]],[[2660,2368],[1,0]],[[2680,2368],[3,-4]],[[1403,1819],[-94,-19]],[[1411,1810],[-1,0]],[[1447,1793],[-25,14]],[[1446,1792],[57,-24]],[[3543,2536],[-68,23],[-90,-70]],[[1629,2623],[-4,-23]],[[1637,2579],[-3,-9]],[[1642,2631],[6,2]],[[1689,2654],[-14,-6]],[[1976,2683],[-1,-1]],[[2009,3173],[17,-21],[206,-2],[59,-46]],[[4096,2741],[-11,-6],[-36,2],[0,-28],[43,-29],[4,-17],[0,-65],[-3,-13],[-25,-35],[-38,-12],[-141,12],[49,-70],[158,25],[0,-69],[-28,-8],[0,-31],[24,7],[4,0],[0,-173],[-20,37],[-28,64],[-50,31],[-249,65],[-133,-14],[-212,-134],[-114,-44],[-479,-28],[1,-8],[-9,-13],[-15,-11],[-16,1],[-40,124],[-21,3],[-17,-11],[-16,-16],[-17,-7],[-59,-6],[-60,-20],[-32,-37],[23,-59],[0,-34],[-20,-17],[-27,-29],[-24,-33],[-11,-29],[5,-28],[15,-31],[0,-19],[-34,-86],[-5,-25],[-29,-32],[-145,23],[-55,-23],[-54,-66],[-51,-30],[-124,-42],[-39,-40],[-122,-211],[-35,56],[-17,162],[-37,33],[-58,-16],[-2,-40],[5,-52],[-37,-50],[0,-28],[18,-14],[44,-51],[-25,2],[-19,-9],[-36,-25],[-27,-20],[-4,-34],[2,-37],[-12,-33],[-26,-20],[-93,-42],[32,1],[25,-7],[42,-25],[14,-2],[34,6],[13,-4],[7,-20],[10,-61],[12,-13],[13,-38],[-38,-84],[-83,-127],[-27,-6],[-59,11],[-35,-5],[-20,-17],[-87,-103],[-33,-107],[-10,-25],[-26,11],[-30,24],[-88,98],[-14,22],[-12,32],[-11,57],[3,37],[-2,32],[-20,45],[-84,137],[-46,58],[-57,42],[-176,84],[-118,22],[-97,59],[-49,21],[-60,-3],[-77,-27],[-55,-47],[1,-63],[17,-79],[-32,-61],[-52,-43],[-43,-22],[-120,-39],[-16,-1],[0,613],[121,71],[99,34],[112,73],[64,2],[90,-87],[59,-30],[60,38],[42,67],[20,46],[9,42],[16,17],[103,0],[108,61],[334,351],[107,76],[40,13],[10,23],[2,53],[-4,57],[-19,92],[33,23],[44,3],[22,-2],[202,109],[6,26],[28,62],[26,177],[3,92],[10,79],[28,62],[58,47],[60,0],[21,15],[38,44],[22,6],[17,-25],[13,-53],[7,-63],[3,-52],[19,12],[8,8],[11,14],[53,-32],[120,-6],[47,-24],[-32,61],[-50,30],[-96,36],[-46,59],[5,43],[14,38],[-15,47],[0,29],[72,-15],[217,15],[84,27],[46,67],[34,83],[46,74],[-18,69],[10,48],[29,22],[40,-11],[207,177],[34,56],[16,59],[1227,0],[0,-1355]],[[0,1007],[116,33],[23,48],[128,59],[-49,-126],[-37,2],[-42,-49],[-139,-14],[0,47]],[[0,1515],[74,104],[26,-20],[153,123],[117,18],[15,-14],[-25,-60],[-43,-52],[64,-14],[90,-74],[-129,8],[-52,-176],[-45,-8],[-67,64],[-4,-55],[-44,-52],[-39,56],[-18,-40],[-40,4],[-13,-70],[35,-34],[-55,-31],[0,323]],[[2703,3143],[40,3],[60,114],[-9,27],[-66,23],[-3,31],[74,78],[68,4],[30,84],[89,96],[203,-47],[51,-46],[-4,-75],[99,-40],[22,26],[34,-20],[24,-31],[-13,-47],[74,-88],[-13,-73],[27,-38],[-284,-210],[-53,25],[-254,9],[-104,134],[-92,61]],[[2008,3413],[49,36],[30,-46],[68,-10],[51,31],[-7,29],[29,-10],[31,26],[50,-31],[101,29],[78,109],[31,135],[-19,13],[7,69],[51,5],[7,25],[42,-13],[11,47],[61,8],[20,39],[50,11],[2,41],[69,47],[12,93],[246,0],[-107,-180],[-26,-102],[-203,-70],[-52,-92],[-90,-37],[-65,-127],[-107,-101],[-81,-32],[-119,-7],[-220,65]],[[1073,1754],[-65,0],[65,304],[23,1],[42,-52],[-37,-117],[24,-65],[-52,-71]],[[1684,3008],[42,54],[31,-2],[-25,58],[21,62],[-49,44],[10,20],[35,9],[15,-29],[46,6],[21,-28],[35,12],[82,112],[32,8],[-8,-42],[37,-7],[-1,-70],[-126,-37],[-72,-67],[-47,-75],[28,-45],[-12,-54],[-58,-1],[-3,56],[-34,16]],[[1197,840],[35,32],[11,69],[73,19],[-18,35],[58,-29],[-27,-68],[22,-37],[69,-23],[-95,-102],[-105,66],[15,42],[-38,-4]],[[2081,2555],[19,28],[70,30],[60,-24],[16,23],[-23,12],[54,5],[-17,-57],[-70,-1],[29,-33],[-61,15],[-32,-23],[-31,39],[4,-19],[-18,5]]]}