{"objects":{"water":{"type":"GeometryCollection","geometries":[{"type":"MultiPolygon","properties":{"source":"naturalearthdata.com","kind":"ocean","area":1576712559132672,"sort_rank":200,"min_zoom":0.0,"id":1},"arcs":[[[2]]]},{"type":"LineString","properties":{"source":"naturalearthdata.com","kind":"ocean","sort_rank":205,"boundary":true,"min_zoom":0.0,"id":19},"arcs":[3]}]},"buildings":{"type":"GeometryCollection","geometries":[]},"places":{"type":"GeometryCollection","geometries":[]},"transit":{"type":"GeometryCollection","geometries":[]},"pois":{"type":"GeometryCollection","geometries":[]},"boundaries":{"type":"GeometryCollection","geometries":[{"type":"LineString","properties":{"name:kg":"Fwalansa","name:ty":"Far\u0101ni","name:ka":"\u10e1\u10d0\u10e4\u10e0\u10d0\u10dc\u10d2\u10d4\u10d7\u10d8","name:ko":"\ud504\ub791\uc2a4","name:cv":"\u0424\u0440\u0430\u043d\u0446\u0438","name:cu":"\u0424\u0440\u0430\u043d\u043a\u0457\ua657","name:kl":"Frankrigi","name:cs":"Francie","name:ki":"Ubaranja","name:co":"Francia","name:kv":"\u0424\u0440\u0430\u043d\u0446\u0438\u044f","name:ku":"Fransa","name:ti":"\u1348\u1228\u1295\u1233\u12ed","name:ks":"\u0641\u0631\u065b\u0627\u0646\u0633","name:to":"Falanis\u0113","name:tl":"Pransiya","name:ce":"\u0424\u0440\u0430\u043d\u0446\u0438","name:ta":"\u0baa\u0bbf\u0bb0\u0bbe\u0ba9\u0bcd\u0b9a\u0bc1","name:tg":"\u0424\u0430\u0440\u043e\u043d\u0441\u0430","name:ca":"Fran\u00e7a","name:te":"\u0c2b\u0c4d\u0c30\u0c3e\u0c28\u0c4d\u0c38\u0c4d","name:cy":"Ffrainc","name:qu":"Ransiya","name:da":"Frankrig","name:de":"Frankreich","name:dz":"\u0f55\u0f62\u0f71\u0f53\u0f66\u0f72\u0f0b","source":"openstreetmap.org","name:kn":"\u0cab\u0ccd\u0cb0\u0cbe\u0ca8\u0ccd\u0cb8\u0ccd","name:dv":"\u078a\u07a6\u0783\u07a6\u0782\u07b0\u0790\u07ad\u0790\u07a8\u0788\u07a8\u078d\u07a7\u078c\u07b0","name:km":"\u1794\u17b6\u179a\u17b6\u17c6\u1784","name:lv":"Francija","name:lt":"Pranc\u016bzija","name:uz":"Fransiya","name:kk":"\u0424\u0440\u0430\u043d\u0446\u0438\u044f","name:ur":"\u0641\u0631\u0627\u0646\u0633","name:lb":"Frankr\u00e4ich","name:la":"Francia","name:lg":"Bufalansa","name:uk":"\u0424\u0440\u0430\u043d\u0446\u0456\u044f","name:ug":"\u0641\u0631\u0627\u0646\u0633\u0649\u064a\u06d5","name:li":"Frankriek","name:ln":"Falansia","name:lo":"\u0e9b\u0eb0\u0ec0\u0e97\u0e94\u0e9d\u0eb0\u0ea5\u0eb1\u0ec8\u0e87","name:el":"\u0393\u03b1\u03bb\u03bb\u03af\u03b1","name:eo":"Francujo","name":"France","name:tk":"Fransi\u00fda","name:th":"\u0e1b\u0e23\u0e30\u0e40\u0e17\u0e28\u0e1d\u0e23\u0e31\u0e48\u0e07\u0e40\u0e28\u0e2a","name:eu":"Frantzia","name:et":"Prantsusmaa","name:es":"Francia","name:ay":"Phransiya","name:rm":"Frantscha","name:rn":"Francia","name:az":"Fransa","name:ie":"Francia","name:id":"Perancis","name:ii":"\ua0d4\ua1e9","name:as":"\u09ab\u09cd\u09f0\u09be\u09a8\u09cd\u09b8","name:ar":"\u0641\u0631\u0646\u0633\u0627","name:io":"Francia","name:ak":"Fr\u025bnkyeman","name:am":"\u1348\u1228\u1295\u1223\u12ed","name:it":"Francia","name:an":"Francia","name:ru":"\u0424\u0440\u0430\u043d\u0446\u0438\u044f","name:rw":"Ubufaransa","name:af":"Frankryk","name:zu":"IFulansi","kind_detail":"2","name:za":"Fazgoz","name:zh-yue":"\u6cd5\u570b","name:zh":"\u6cd5\u570b","name:so":"Faransiiska","name:sm":"Farani","name:sl":"Francija","name:sk":"Franc\u00fazsko","name:ja":"\u30d5\u30e9\u30f3\u30b9","name:si":"\u0db4\u0dca\u200d\u0dbb\u0d82\u0dc1\u0dba","name:sh":"Francuska","name:sg":"Far\u00e2nzi","name:se":"Frankriika","name:sc":"Frantza","name:br":"Bro-C'hall","name:bs":"Francuska","name:bn":"\u09ab\u09cd\u09b0\u09be\u09a8\u09cd\u09b8","name:bo":"\u0f67\u0fa5\u0f0b\u0f62\u0f53\u0f0b\u0f66\u0f72\u0f0d","name:bi":"Franis","name:sw":"Ufaransa","name:be":"\u0424\u0440\u0430\u043d\u0446\u044b\u044f","name:su":"Perancis","name:bg":"\u0424\u0440\u0430\u043d\u0446\u0438\u044f","name:ss":"IFulansi","name:ba":"\u0424\u0440\u0430\u043d\u0446\u0438\u044f","name:sq":"Franca","name:jv":"Prancis","name:sa":"\u092b\u094d\u0930\u093e\u0928\u094d\u0938\u0926\u0947\u0936\u0903","name:ia":"Francia","name:pt":"Fran\u00e7a","name:ps":"\u0641\u0631\u0627\u0646\u0633\u0647","name:oc":"Fran\u00e7a","min_zoom":8.0,"name:ro":"Fran\u021ba","name:zh-min-nan":"Hoat-kok","name:os":"\u0424\u0440\u0430\u043d\u0446","name:or":"\u0b2b\u0b4d\u0b30\u0b3e\u0b28\u0b4d\u0b38","name:pl":"Francja","name:st":"Fora","sort_rank":262,"name:sr":"\u0424\u0440\u0430\u043d\u0446\u0443\u0441\u043a\u0430","osm_relation":true,"name:pa":"\u0a2b\u0a4d\u0a30\u0a3e\u0a02\u0a38","name:tr":"Fransa","name:hi":"\u092b\u093c\u094d\u0930\u093e\u0928\u094d\u0938","name:sv":"Frankrike","name:he":"\u05e6\u05e8\u05e4\u05ea","name:ha":"Faransa","name:hy":"\u0556\u0580\u0561\u0576\u057d\u056b\u0561","name:ht":"Frans","name:hu":"Franciaorsz\u00e1g","name:hr":"Francuska","kind":"country","name:is":"Frakkland","name:yi":"\u05e4\u05e8\u05d0\u05e0\u05e7\u05e8\u05d9\u05d9\u05da","name:yo":"Fr\u00e1ns\u00ec","name:mt":"Franza","alt_name:eo":"Francio","name:ms":"Perancis","name:mr":"\u092b\u094d\u0930\u093e\u0928\u094d\u0938","name:my":"\u1015\u103c\u1004\u103a\u101e\u1005\u103a\u1014\u102d\u102f\u1004\u103a\u1004\u1036","official_name":"R\u00e9publique fran\u00e7aise","name:kw":"Pow Frynk","name:mg":"Frantsa","name:vi":"Ph\u00e1p","name:ml":"\u0d2b\u0d4d\u0d30\u0d3e\u0d7b\u0d38\u0d4d","name:mn":"\u0424\u0440\u0430\u043d\u0446","name:mi":"W\u012bw\u012b","id":-2202162,"name:mk":"\u0424\u0440\u0430\u043d\u0446\u0438\u0458\u0430","name:vo":"Frans\u00e4n","name:fa":"\u0641\u0631\u0627\u0646\u0633\u0647","name:ff":"Faransi","name:fi":"Ranska","name:ky":"\u0424\u0440\u0430\u043d\u0446\u0438\u044f","name:fo":"Frakland","name:fy":"Frankryk","name:nl":"Frankrijk","name:nn":"Frankrike","name:no":"Frankrike","name:na":"Prant","name:ne":"\u092b\u094d\u0930\u093e\u0928\u094d\u0938","name:wo":"Faraas","name:nv":"D\u00e1\u00e1ghahii Din\u00e9\u02bci\u02bc Bik\u00e9yah","name:ga":"An Fhrainc","name:gd":"An Fhraing","name:gn":"Hy\u00e3sia","name:gl":"Francia","maritime_boundary":true,"name:gv":"Yn Rank","name:gu":"\u0aab\u0acd\u0ab0\u0abe\u0aa8\u0acd\u0ab8","name:tt":"\u0424\u0440\u0430\u043d\u0446\u0438\u044f"},"arcs":[0]},{"type":"LineString","properties":{"name:pt":"Bretanha","name:ro":"Bretania","name:sk":"Bret\u00f3nsko","name:lt":"Bretan\u0117","name:oc":"Bretanha","name:ar":"\u0628\u0631\u064a\u062a\u0627\u0646\u064a","name:cs":"Breta\u0148","kind":"region","name:br":"Breizh","min_zoom":8.0,"name:la":"Britannia Minor","name:it":"Bretagna","name:uk":"\u0411\u0440\u0435\u0442\u0430\u043d\u044c","name:ru":"\u0411\u0440\u0435\u0442\u0430\u043d\u044c","name:be":"\u0411\u0440\u044d\u0442\u0430\u043d\u044c","old_name:de":"Kleinbritannien","name:ca":"Bretanya","name":"Bretagne","name:ga":"An Bhriot\u00e1in","name:en":"Brittany","name:eo":"Bretonio","sort_rank":256,"kind_detail":"4","id":-102740,"source":"openstreetmap.org","maritime_boundary":true,"osm_relation":true,"name:eu":"Bretainia","name:es":"Breta\u00f1a"},"arcs":[1]}]},"roads":{"type":"GeometryCollection","geometries":[{"type":"LineString","properties":{"source":"openstreetmap.org","kind":"ferry","name":"Portsmouth - Santander","sort_rank":355,"landuse_kind":"protected_area","min_zoom":8.0},"arcs":[4]},{"type":"LineString","properties":{"kind":"major_road","sort_rank":377,"kind_detail":"tertiary","is_bicycle_related":true,"bicycle_shield_text":"V45","bicycle_network":"ncn","source":"openstreetmap.org","min_zoom":8.0,"ref":"D 53","id":79138182},"arcs":[5]},{"type":"LineString","properties":{"source":"openstreetmap.org","kind":"ferry","name":"Portsmouth - Bilbao","sort_rank":355,"landuse_kind":"protected_area","min_zoom":8.0},"arcs":[6]},{"type":"MultiLineString","properties":{"kind":"major_road","network":null,"sort_rank":380,"kind_detail":"primary","source":"openstreetmap.org","min_zoom":8.0,"shield_text":"2","ref":"D 2"},"arcs":[[7],[8],[9]]},{"type":"MultiLineString","properties":{"kind":"major_road","sort_rank":379,"kind_detail":"secondary","is_bicycle_related":true,"bicycle_shield_text":"V45","bicycle_network":"ncn","source":"openstreetmap.org","min_zoom":8.0,"ref":"D 153"},"arcs":[[10],[11]]},{"type":"LineString","properties":{"kind":"ferry","name":"Portsmouth - Bilbao","sort_rank":355,"landuse_kind":"protected_area","is_bicycle_related":true,"source":"openstreetmap.org","min_zoom":8.0,"ref":"Portsmouth - Bilbao","osm_relation":true},"arcs":[12]},{"type":"MultiLineString","properties":{"kind":"path","sort_rank":354,"kind_detail":"cycleway","is_bicycle_related":true,"bicycle_shield_text":"V45","bicycle_network":"ncn","source":"openstreetmap.org","min_zoom":8.0},"arcs":[[13],[14]]},{"type":"MultiLineString","properties":{"sort_rank":380,"kind_detail":"primary","min_zoom":8.0,"kind":"major_road","source":"openstreetmap.org"},"arcs":[[15],[16],[17],[18],[19],[20],[21],[22],[23],[24],[25],[26],[27]]},{"type":"LineString","properties":{"kind":"minor_road","sort_rank":360,"kind_detail":"residential","is_bicycle_related":true,"name:br":"Hent an Aod","bicycle_network":"ncn","source":"openstreetmap.org","min_zoom":8.0,"bicycle_shield_text":"V45","id":365610802},"arcs":[28]},{"type":"LineString","properties":{"kind":"major_road","sort_rank":379,"kind_detail":"secondary","is_bicycle_related":true,"bicycle_shield_text":"V45","bicycle_network":"ncn","source":"openstreetmap.org","min_zoom":8.0},"arcs":[29]},{"type":"MultiLineString","properties":{"source":"openstreetmap.org","kind":"major_road","sort_rank":380,"kind_detail":"primary","ref":"D 57","min_zoom":8.0},"arcs":[[30],[31],[32]]},{"type":"LineString","properties":{"source":"openstreetmap.org","kind":"ferry","name":"Plymouth - Santander","sort_rank":355,"min_zoom":8.0,"osm_relation":true},"arcs":[33]},{"type":"LineString","properties":{"sort_rank":355,"source":"openstreetmap.org","min_zoom":8.0,"name":"Portsmouth - Bilbao","kind":"ferry"},"arcs":[34]},{"type":"MultiLineString","properties":{"kind":"major_road","sort_rank":377,"landuse_kind":"residential","is_bicycle_related":true,"bicycle_shield_text":"V45","bicycle_network":"ncn","source":"openstreetmap.org","min_zoom":8.0,"kind_detail":"tertiary"},"arcs":[[35],[36],[37]]},{"type":"LineString","properties":{"kind":"ferry","name":"Portsmouth - Santander","sort_rank":355,"landuse_kind":"protected_area","source":"openstreetmap.org","min_zoom":8.0,"ref":"Portsmouth - Santander","id":-2705260,"osm_relation":true},"arcs":[38]},{"type":"LineString","properties":{"kind":"major_road","cycleway_left":"lane","sort_rank":380,"kind_detail":"primary","is_bicycle_related":true,"source":"openstreetmap.org","min_zoom":8.0,"ref":"D 785","id":23992366},"arcs":[39]},{"type":"MultiLineString","properties":{"kind":"path","sort_rank":354,"kind_detail":"footway","is_bicycle_related":true,"bicycle_shield_text":"V45","bicycle_network":"ncn","source":"openstreetmap.org","min_zoom":8.0},"arcs":[[40],[41],[42],[43],[44],[45],[46],[47],[48]]},{"type":"LineString","properties":{"kind":"minor_road","sort_rank":360,"kind_detail":"residential","is_bicycle_related":true,"name:br":"Straed Porzh Poulc'han","bicycle_network":"ncn","source":"openstreetmap.org","min_zoom":8.0,"bicycle_shield_text":"V45","id":47441011},"arcs":[49]},{"type":"LineString","properties":{"kind":"minor_road","sort_rank":360,"kind_detail":"residential","is_bicycle_related":true,"name:br":"Hent ar Mor","bicycle_network":"ncn","source":"openstreetmap.org","min_zoom":8.0,"bicycle_shield_text":"V45","id":73558083},"arcs":[50]},{"type":"LineString","properties":{"kind":"minor_road","sort_rank":360,"kind_detail":"unclassified","is_bicycle_related":true,"bicycle_shield_text":"V45","cycleway":"lane","source":"openstreetmap.org","min_zoom":8.0,"bicycle_network":"ncn"},"arcs":[51]},{"type":"LineString","properties":{"kind":"major_road","sort_rank":379,"kind_detail":"secondary","is_bicycle_related":true,"bicycle_shield_text":"V45","bicycle_network":"ncn","source":"openstreetmap.org","min_zoom":8.0,"ref":"D 53"},"arcs":[52]},{"type":"LineString","properties":{"kind":"minor_road","sort_rank":360,"kind_detail":"unclassified","is_bicycle_related":true,"name:br":"Straed Porzh Poulc'han","bicycle_network":"ncn","source":"openstreetmap.org","min_zoom":8.0,"bicycle_shield_text":"V45","id":502751287},"arcs":[53]},{"type":"LineString","properties":{"kind":"major_road","sort_rank":379,"kind_detail":"secondary","is_bicycle_related":true,"name:br":"Straed ar Porzh","bicycle_network":"ncn","source":"openstreetmap.org","min_zoom":8.0,"bicycle_shield_text":"V45","ref":"D 40","id":26433324},"arcs":[54]},{"type":"LineString","properties":{"source":"openstreetmap.org","kind":"major_road","sort_rank":380,"kind_detail":"primary","ref":"D 53","min_zoom":8.0},"arcs":[55]},{"type":"LineString","properties":{"kind":"minor_road","sort_rank":360,"kind_detail":"residential","is_bicycle_related":true,"bicycle_shield_text":"V45","bicycle_network":"ncn","source":"openstreetmap.org","min_zoom":8.0,"name:br":"Hent Kreisk\u00ear","id":356622203},"arcs":[56]},{"type":"LineString","properties":{"kind":"ferry","name":"Plymouth - Santander","sort_rank":355,"landuse_kind":"protected_area","source":"openstreetmap.org","min_zoom":8.0,"id":-2705258,"osm_relation":true},"arcs":[57]},{"type":"LineString","properties":{"kind":"minor_road","sort_rank":360,"kind_detail":"residential","is_bicycle_related":true,"name:br":"Hentan Aod","bicycle_network":"ncn","source":"openstreetmap.org","min_zoom":8.0,"bicycle_shield_text":"V45","id":28320455},"arcs":[58]},{"type":"LineString","properties":{"kind":"path","sort_rank":354,"kind_detail":"track","is_bicycle_related":true,"bicycle_shield_text":"V45","bicycle_network":"ncn","source":"openstreetmap.org","min_zoom":8.0},"arcs":[59]},{"type":"LineString","properties":{"kind":"minor_road","sort_rank":360,"kind_detail":"residential","is_bicycle_related":true,"bicycle_shield_text":"V45","bicycle_network":"ncn","source":"openstreetmap.org","min_zoom":8.0,"name:br":"Straed ar Meurvor"},"arcs":[60]},{"type":"MultiLineString","properties":{"kind":"minor_road","sort_rank":360,"kind_detail":"residential","is_bicycle_related":true,"bicycle_shield_text":"V45","bicycle_network":"ncn","source":"openstreetmap.org","min_zoom":8.0},"arcs":[[61],[62],[63],[64],[65],[66],[67],[68],[69],[70],[71],[72],[73],[74],[75],[76],[77]]},{"type":"LineString","properties":{"sort_rank":355,"source":"openstreetmap.org","min_zoom":8.0,"kind":"ferry"},"arcs":[78]},{"type":"LineString","properties":{"kind":"minor_road","sort_rank":360,"landuse_kind":"residential","is_bicycle_related":true,"bicycle_shield_text":"V45","bicycle_network":"ncn","source":"openstreetmap.org","min_zoom":8.0,"kind_detail":"unclassified"},"arcs":[79]},{"type":"LineString","properties":{"source":"openstreetmap.org","kind":"ferry","name":"Portsmouth - Santander","sort_rank":355,"ref":"Portsmouth - Santander","min_zoom":8.0,"osm_relation":true},"arcs":[80]},{"type":"LineString","properties":{"source":"openstreetmap.org","kind":"ferry","name":"Plymouth - Santander","sort_rank":355,"landuse_kind":"protected_area","min_zoom":8.0},"arcs":[81]},{"type":"LineString","properties":{"kind":"major_road","sort_rank":377,"kind_detail":"tertiary","is_bicycle_related":true,"name:br":"Hent Sant Vio","bicycle_network":"ncn","source":"openstreetmap.org","min_zoom":8.0,"bicycle_shield_text":"V45","ref":"C 3"},"arcs":[82]},{"type":"MultiLineString","properties":{"source":"openstreetmap.org","kind":"major_road","sort_rank":380,"kind_detail":"primary","ref":"D 2","min_zoom":8.0},"arcs":[[83],[84],[85],[86],[87],[88],[89],[90],[91],[92],[93],[94],[95],[96],[97],[98],[99],[100]]},{"type":"LineString","properties":{"sort_rank":355,"source":"openstreetmap.org","min_zoom":8.0,"name":"Plymouth - Santander","kind":"ferry"},"arcs":[101]},{"type":"LineString","properties":{"kind":"major_road","sort_rank":379,"kind_detail":"secondary","is_bicycle_related":true,"bicycle_shield_text":"V45","bicycle_network":"ncn","source":"openstreetmap.org","min_zoom":8.0,"ref":"D 40"},"arcs":[102]},{"type":"MultiLineString","properties":{"kind":"minor_road","sort_rank":360,"landuse_kind":"residential","is_bicycle_related":true,"bicycle_shield_text":"V45","bicycle_network":"ncn","source":"openstreetmap.org","min_zoom":8.0,"kind_detail":"residential"},"arcs":[[103],[104]]},{"type":"LineString","properties":{"kind":"major_road","sort_rank":380,"kind_detail":"primary","is_bicycle_related":true,"bicycle_shield_text":"V45","bicycle_network":"ncn","source":"openstreetmap.org","min_zoom":8.0},"arcs":[105]},{"type":"MultiLineString","properties":{"source":"openstreetmap.org","kind":"major_road","sort_rank":380,"kind_detail":"primary","ref":"D 2","min_zoom":8.0,"name:br":"Straed Ren\u00e9 Le Berre"},"arcs":[[106],[107]]},{"type":"MultiLineString","properties":{"kind":"major_road","sort_rank":377,"kind_detail":"tertiary","is_bicycle_related":true,"bicycle_shield_text":"V45","bicycle_network":"ncn","source":"openstreetmap.org","min_zoom":8.0},"arcs":[[108],[109],[110],[111],[112],[113],[114],[115],[116],[117]]},{"type":"LineString","properties":{"kind":"minor_road","sort_rank":360,"kind_detail":"unclassified","is_bicycle_related":true,"name:br":"Hent Prad ar C'hastell","bicycle_network":"ncn","source":"openstreetmap.org","min_zoom":8.0,"bicycle_shield_text":"V45"},"arcs":[118]},{"type":"MultiLineString","properties":{"kind":"minor_road","sort_rank":360,"kind_detail":"unclassified","is_bicycle_related":true,"bicycle_shield_text":"V45","bicycle_network":"ncn","source":"openstreetmap.org","min_zoom":8.0},"arcs":[[119],[120],[121],[122],[123],[124],[125],[126],[127],[128],[129],[130],[131],[132],[133],[134],[135]]},{"type":"MultiLineString","properties":{"kind":"major_road","network":null,"sort_rank":380,"kind_detail":"primary","source":"openstreetmap.org","min_zoom":8.0,"shield_text":"57","ref":"D 57"},"arcs":[[136],[137],[138],[139],[140],[141],[142],[143]]},{"type":"MultiLineString","properties":{"kind":"path","sort_rank":354,"kind_detail":"path","is_bicycle_related":true,"bicycle_shield_text":"V45","bicycle_network":"ncn","source":"openstreetmap.org","min_zoom":8.0},"arcs":[[144],[145],[146],[147]]},{"type":"LineString","properties":{"kind":"major_road","sort_rank":379,"kind_detail":"secondary","is_bicycle_related":true,"bicycle_shield_text":"V45","bicycle_network":"ncn","source":"openstreetmap.org","min_zoom":8.0,"ref":"D 80","id":30055361},"arcs":[148]},{"type":"MultiLineString","properties":{"source":"openstreetmap.org","kind":"major_road","sort_rank":380,"kind_detail":"primary","ref":"D 785","min_zoom":8.0},"arcs":[[149],[150],[151],[152],[153],[154],[155],[156],[157],[158],[159],[160],[161],[162],[163],[164],[165]]},{"type":"LineString","properties":{"cycleway_right":"lane","sort_rank":380,"kind_detail":"primary","is_bicycle_related":true,"kind":"major_road","source":"openstreetmap.org","min_zoom":8.0,"ref":"D 785"},"arcs":[166]},{"type":"LineString","properties":{"kind":"major_road","sort_rank":380,"kind_detail":"primary","name:br":"Strad Plozeved","source":"openstreetmap.org","min_zoom":8.0,"ref":"D 2","id":35218531},"arcs":[167]},{"type":"LineString","properties":{"sort_rank":355,"source":"openstreetmap.org","min_zoom":8.0,"name":"Portsmouth - Santander","kind":"ferry"},"arcs":[168]},{"type":"LineString","properties":{"kind":"major_road","sort_rank":377,"kind_detail":"tertiary","is_bicycle_related":true,"bicycle_shield_text":"V45","bicycle_network":"ncn","source":"openstreetmap.org","min_zoom":8.0,"ref":"C 304","id":262771775},"arcs":[169]},{"type":"LineString","properties":{"kind":"major_road","network":null,"sort_rank":380,"kind_detail":"primary","source":"openstreetmap.org","min_zoom":8.0,"shield_text":"57","id":24356837},"arcs":[170]},{"type":"LineString","properties":{"kind":"major_road","sort_rank":379,"kind_detail":"secondary","is_bicycle_related":true,"name:br":"Hent ar Mor","bicycle_network":"ncn","source":"openstreetmap.org","min_zoom":8.0,"bicycle_shield_text":"V45","ref":"D 156","id":356622321},"arcs":[171]},{"type":"MultiLineString","properties":{"kind":"major_road","sort_rank":377,"kind_detail":"tertiary","is_bicycle_related":true,"bicycle_shield_text":"V45","cycleway":"track","source":"openstreetmap.org","min_zoom":8.0,"bicycle_network":"ncn"},"arcs":[[172],[173],[174]]},{"type":"LineString","properties":{"kind":"ferry","name":"Portsmouth - Bilbao","sort_rank":355,"is_bicycle_related":true,"source":"openstreetmap.org","min_zoom":8.0,"ref":"Portsmouth - Bilbao","osm_relation":true},"arcs":[175]},{"type":"LineString","properties":{"source":"openstreetmap.org","kind":"major_road","sort_rank":380,"kind_detail":"primary","ref":"D 784","min_zoom":8.0},"arcs":[176]},{"type":"LineString","properties":{"kind":"major_road","sort_rank":380,"landuse_kind":"residential","source":"openstreetmap.org","min_zoom":8.0,"kind_detail":"primary","ref":"D 785","id":92742825},"arcs":[177]},{"type":"MultiLineString","properties":{"kind":"major_road","sort_rank":380,"kind_detail":"primary","is_bicycle_related":true,"cycleway":"lane","source":"openstreetmap.org","min_zoom":8.0,"ref":"D 785"},"arcs":[[178],[179],[180],[181],[182],[183],[184],[185],[186],[187],[188]]}]},"earth":{"type":"GeometryCollection","geometries":[{"type":"MultiPolygon","properties":{"sort_rank":10,"source":"naturalearthdata.com","min_zoom":0.0,"kind":"earth","area":31614314789},"arcs":[[[189]]]}]},"landuse":{"type":"GeometryCollection","geometries":[{"type":"MultiPolygon","properties":{"kind":"protected_area","protect_class":"98","area":63631063,"sort_rank":17,"source":"openstreetmap.org","min_zoom":8.0,"tier":2,"osm_relation":true},"arcs":[[[190]]]},{"type":"MultiPolygon","properties":{"source":"openstreetmap.org","kind":"residential","tier":2,"area":116783513,"sort_rank":20,"min_zoom":8.0},"arcs":[[[191]]]},{"type":"MultiPolygon","properties":{"kind":"protected_area","protect_class":"98","area":1218498890,"sort_rank":17,"source":"openstreetmap.org","min_zoom":6.0,"tier":2,"osm_relation":true},"arcs":[[[192]]]},{"type":"MultiPolygon","properties":{"kind":"protected_area","protect_class":"5","area":10858947847,"sort_rank":17,"source":"openstreetmap.org","min_zoom":4.0,"tier":2,"osm_relation":true},"arcs":[[[193]]]}]}},"type":"Topology","transform":{"translate":[-5.625,47.0401821448],"scale":[0.0003433228,0.00023187]},"arcs":[[[886,4096],[47,-125],[135,-184],[179,-143],[2024,-1197],[162,-56],[223,-27],[440,-198]],[[3347,4096],[71,-37],[187,-237],[70,-162],[51,-206],[-25,-18],[22,-17],[-19,-23],[-40,4],[-42,-36],[2,-11],[-8,-5],[0,-15],[17,19],[17,-33],[-13,-58],[75,7],[2,-17],[13,23],[123,4],[37,-41],[43,26],[-21,-25],[171,3],[16,6]],[[4096,3293],[0,-3293],[-4096,0],[0,4096],[3389,0],[78,-62],[139,-179],[44,-79],[28,-117],[44,-111],[10,-76],[-11,-30],[-25,-5],[-27,0],[-19,-11],[-5,-25],[7,-60],[-2,-33],[427,-21],[19,6]],[[4096,3293],[-19,-6],[-427,21],[2,33],[-7,60],[5,25],[19,11],[27,0],[25,5],[11,30],[-10,76],[-44,111],[-28,117],[-44,79],[-139,179],[-78,62]],[[1191,4096],[7,-25]],[[3632,3356],[-5,-3]],[[1229,4071],[-7,25]],[[4077,3497],[2,-1]],[[4079,3496],[-1,1]],[[4079,3496],[17,-3]],[[3937,3260],[-14,-11]],[[3923,3249],[-3,0],[1,-1],[2,1]],[[1229,4071],[-7,25]],[[3758,3467],[21,11]],[[3865,3286],[2,-1]],[[3702,3923],[0,-1],[1,0],[0,1],[-1,0]],[[3755,3336],[0,1],[-1,-1],[1,0]],[[3803,3358],[-1,0],[1,-1],[0,1]],[[3886,3441],[1,0],[-1,0]],[[3911,3460],[0,-1],[0,1]],[[3921,3466],[-1,0],[1,0]],[[3923,3294],[0,-1],[0,1]],[[3927,3276],[0,-1],[1,-1],[0,1],[-1,1]],[[4018,3548],[-1,0],[0,-1],[1,0],[0,1]],[[4026,3517],[0,-1],[1,0],[0,1],[-1,0]],[[4036,3585],[0,1],[-1,0],[0,-1],[1,0]],[[4049,3502],[-1,-1],[1,0],[1,1],[-1,0]],[[4077,3497],[1,1],[-2,0],[0,-1],[1,0]],[[3354,4087],[-2,1]],[[3650,3270],[-1,0],[1,0]],[[3914,3316],[9,-22]],[[3923,3293],[4,-17]],[[3928,3274],[1,-10]],[[1167,4071],[1045,-4071]],[[2279,0],[-1050,4071]],[[4074,3565],[6,27]],[[4083,3566],[4,1]],[[4080,3592]],[[1191,4096],[7,-25]],[[4026,3516],[-1,-3]],[[3641,3342],[10,-27]],[[3644,3286],[1,-16]],[[3647,3268],[9,-4]],[[3707,3267],[5,2]],[[3770,3311],[54,-13]],[[3830,3297],[36,-9]],[[3883,3268],[-6,11]],[[3963,3241],[1,0]],[[3973,3244],[3,1]],[[3399,4069],[-12,7]],[[3676,3780],[-7,2]],[[3767,3439],[-3,18]],[[3641,3349],[-9,7]],[[3387,4076],[0,3]],[[3557,3896],[3,-15]],[[3698,3346],[56,-10]],[[3676,3780],[3,-3]],[[1160,4096],[7,-25]],[[3378,4084],[-24,3]],[[3706,3644],[0,-25]],[[3426,4048],[-27,21]],[[3382,4079],[-4,5]],[[3627,3353],[46,37]],[[3649,3270],[-1,2]],[[3656,3264],[21,1]],[[3668,3783],[-1,4]],[[3668,3783],[1,0],[0,-1],[-1,1]],[[3692,3377],[-2,5]],[[3693,3377],[20,4]],[[3726,3303],[-15,-32]],[[3744,3317],[-19,-8]],[[3739,3311],[5,6]],[[3744,3317],[26,-6]],[[3824,3298],[6,-1]],[[3921,3248],[42,-7]],[[3968,3242],[5,2]],[[3976,3245]],[[4091,3605],[5,6]],[[3121,4096],[-9,-16],[-135,-2],[-57,18]],[[4087,3567],[9,-2]],[[1198,4071],[1047,-4071]],[[1160,4096],[7,-25]],[[3748,3613],[-6,-45]],[[3495,4078],[62,-8],[101,-84]],[[3685,3945],[17,-22]],[[3911,3720],[-98,42],[-110,160]],[[3930,3716],[10,-10]],[[3941,3705],[6,-10]],[[3947,3695],[9,-11]],[[3956,3684],[78,-96]],[[4027,3516],[3,-1]],[[4030,3515],[-3,1]],[[4030,3515],[17,-13]],[[4034,3588],[1,-2]],[[4035,3586],[-1,2]],[[4049,3502],[-1,0]],[[4050,3501],[1,0]],[[4051,3501],[-1,1]],[[4051,3501],[24,-3]],[[4075,3498],[1,-1]],[[4076,3498],[-1,0]],[[1167,4071],[1045,-4071]],[[3560,3881],[13,-12]],[[4074,3565],[9,1]],[[4080,3592],[11,13]],[[3929,3264]],[[3918,3719],[-7,1]],[[3930,3716],[-11,2]],[[3483,4001],[30,-20]],[[3699,3265],[-22,0]],[[3725,3309],[1,-6]],[[3742,3568],[50,2]],[[3867,3285]],[[3879,3251],[26,0]],[[3879,3251],[4,17]],[[3929,3264],[-24,-13]],[[3929,3264],[8,-4]],[[4072,3258],[24,-2]],[[3706,3619],[4,-21],[38,15]],[[3352,4088],[-6,8]],[[3387,4079],[-5,0]],[[3483,4001],[-57,47]],[[3573,3869],[94,-82]],[[3690,3382],[-17,8]],[[3729,3657],[17,95],[-67,25]],[[3693,3377],[-1,0]],[[3699,3265],[8,2]],[[3712,3269],[-1,2]],[[3713,3381],[8,2]],[[3722,3383],[16,55],[29,1]],[[3726,3303],[13,8]],[[3764,3457],[-6,10]],[[3792,3570],[-13,-92]],[[3964,3241],[4,1]],[[3722,3383],[-1,0]],[[3721,3383],[1,-1],[0,1]],[[3901,3448],[-7,-83]],[[3894,3365],[0,-1]],[[3895,3365],[-1,0]],[[3895,3363],[1,-1]],[[3896,3362],[0,1]],[[3914,3316],[-18,46]],[[3900,3449],[1,-1]],[[3901,3448],[0,1]],[[3641,3342],[0,7]],[[3651,3315],[-7,-29]],[[3865,3286],[1,2]],[[3976,3245],[96,13]],[[3648,3272],[1,-2]],[[3911,3459],[-11,-10]],[[3920,3466],[-9,-6]],[[4000,3486],[-79,-20]],[[4016,3541],[2,5]],[[4017,3547],[-1,-6]],[[4016,3541],[8,-23]],[[4020,3552],[-2,-4]],[[4018,3548],[2,4]],[[4034,3583],[-14,-31]],[[4024,3518],[2,-1]],[[4026,3517],[-2,1]],[[4034,3583],[2,2]],[[4035,3585],[-1,-2]],[[4036,3589],[0,-3]],[[4036,3586],[0,3]],[[4059,3607],[-23,-18]],[[4096,3624],[-31,-12]],[[4025,3513],[-25,-27],[27,30]],[[3658,3986],[27,-41]],[[1198,4071],[1047,-4071]],[[3513,3981],[44,-85]],[[3895,3365],[-1,-2],[1,0],[1,1],[-1,1]],[[3729,3657],[-23,-13]],[[3868,3284],[9,-5]],[[3868,3285],[-1,0],[0,-1],[1,0]],[[3868,3284],[0,1]],[[2279,0],[-1050,4071]],[[3506,4096],[-15,-19],[-19,19]],[[4065,3612],[-6,-5]],[[3802,3357],[-47,-20]],[[3802,3357],[1,0]],[[3802,3358],[0,-1]],[[3804,3359],[-1,-1]],[[3803,3358],[1,1]],[[3885,3440],[-81,-81]],[[3885,3440],[1,1]],[[3886,3441],[-1,-1]],[[3888,3442],[-2,-1]],[[3887,3441],[1,1]],[[3900,3449],[-12,-7]],[[3389,4096],[707,0],[0,-803],[-19,-6],[-427,21],[2,33],[-7,60],[5,25],[19,11],[27,0],[25,5],[11,30],[-10,76],[-44,111],[-28,117],[-44,79],[-139,179],[-78,62]],[[2557,4096],[104,0],[0,-24],[-104,0],[0,24]],[[4096,3604],[0,-104],[-73,27],[32,27],[-8,25],[27,-5],[-19,40],[41,-10]],[[2052,4096],[505,0],[0,-23],[-468,1],[-37,22]],[[887,4096],[1670,0],[0,-23],[-1665,-2],[-5,25]]]}