{"objects":{"water":{"type":"GeometryCollection","geometries":[{"type":"Polygon","properties":{"source":"naturalearthdata.com","kind":"ocean","area":1576712559132672,"sort_rank":200,"min_zoom":0.0,"id":1},"arcs":[[18]]},{"type":"LineString","properties":{"source":"naturalearthdata.com","kind":"ocean","sort_rank":205,"boundary":true,"min_zoom":0.0,"id":19},"arcs":[19]},{"type":"Point","properties":{"label_placement":true,"kind":"sea","name":"Kantabra Maro","source":"openstreetmap.org","sort_rank":200,"min_zoom":3.0,"id":4866348438},"coordinates":[1696,3842]}]},"buildings":{"type":"GeometryCollection","geometries":[]},"places":{"type":"GeometryCollection","geometries":[{"type":"Point","properties":{"admin_level":"8","kind":"locality","name":"San Mart\u00edn del Rey Aurelio\/Samart\u00edn del Rei Aurelio","kind_detail":"town","source":"openstreetmap.org","min_zoom":8.0,"name:ru":"\u0421\u0430\u043d-\u041c\u0430\u0440\u0442\u0438\u043d-\u0434\u0435\u043b\u044c-\u0420\u0435\u0439-\u0410\u0443\u0440\u0435\u043b\u0438\u043e","id":84585917,"name:es":"San Mart\u00edn","population":18549},"coordinates":[59,830]},{"type":"Point","properties":{"admin_level":"8","kind":"locality","name":"Pola de Laviana\/La Pola Llaviana","kind_detail":"town","official_name":"La Pola Llaviana\/Pola de Laviana","source":"openstreetmap.org","min_zoom":8.0,"old_name":"Pola de Laviana","id":31514811,"name:es":"Pola de Laviana","population":8874},"coordinates":[180,714]},{"type":"Point","properties":{"admin_level":"8","kind":"locality","name":"Villaviciosa","kind_detail":"town","source":"openstreetmap.org","min_zoom":8.0,"id":29539081,"population":6132},"coordinates":[558,1658]},{"type":"Point","properties":{"admin_level":"8","kind":"locality","name":"Llanes","kind_detail":"town","source":"openstreetmap.org","min_zoom":8.0,"id":30157832,"population":4620},"coordinates":[2540,1416]},{"type":"Point","properties":{"admin_level":"8","kind":"locality","name":"Cangas de On\u00eds \/ Cangues d'On\u00eds","kind_detail":"town","official_name":"Cangues d'On\u00eds\/Cangas de On\u00eds","source":"openstreetmap.org","min_zoom":8.0,"id":496068719,"name:es":"Cangas de On\u00eds","population":3945},"coordinates":[1446,1135]},{"type":"Point","properties":{"admin_level":"8","kind":"locality","name":"Ribadesella\/Ribeseya","kind_detail":"town","source":"openstreetmap.org","min_zoom":8.0,"old_name":"Ribadesella","id":29847633,"name:es":"Ribadesella","population":3094},"coordinates":[1649,1579]},{"type":"Point","properties":{"admin_level":"8","kind":"locality","name":"Arriondas \/ Les Arriondes","kind_detail":"town","source":"openstreetmap.org","min_zoom":8.0,"old_name":"Arriondas","id":30788996,"name:es":"Arriondas","population":2611},"coordinates":[1282,1288]}]},"transit":{"type":"GeometryCollection","geometries":[{"type":"LineString","properties":{"kind":"train","network":"regional","sort_rank":275,"colour":"#FFCC00","name":"L\u00ednea F6 Infiesto-Oviedo","source":"openstreetmap.org","min_zoom":6.0,"operator":"RENFE","ref":"F6","id":-4840483,"osm_relation":true,"colour_name":"gold"},"arcs":[8]},{"type":"LineString","properties":{"kind":"train","name":"Regional Oviedo - Santander","sort_rank":275,"source":"openstreetmap.org","min_zoom":6.0,"operator":"RENFE","ref":"R2","osm_relation":true,"network":"Feve Regional"},"arcs":[9]},{"type":"LineString","properties":{"kind":"train","network":"Feve Regional","sort_rank":275,"source":"openstreetmap.org","min_zoom":6.0,"operator":"RENFE","ref":"R2","osm_relation":true,"name":"Regional Santander - Oviedo"},"arcs":[10]},{"type":"LineString","properties":{"kind":"train","network":"Feve","sort_rank":275,"source":"openstreetmap.org","min_zoom":6.0,"operator":"Renfe Feve","ref":"S1","id":-7393460,"osm_relation":true,"name":"S-1 Cabez\u00f3n de la Sal - Santander"},"arcs":[11]},{"type":"LineString","properties":{"kind":"train","network":"regional","sort_rank":275,"colour":"#5599FF","name":"L\u00ednea F8 Caudal - Aller","source":"openstreetmap.org","min_zoom":6.0,"operator":"Ferrocarriles Espa\u00f1oles de V\u00eda Estrecha (FEVE)","ref":"F8","id":-207192,"osm_relation":true,"colour_name":"dodgerblue"},"arcs":[12]},{"type":"LineString","properties":{"kind":"train","name":"L\u00ednea F8 Aller - Caudal","sort_rank":275,"colour":"#5599FF","source":"openstreetmap.org","min_zoom":6.0,"operator":"Ferrocarriles Espa\u00f1oles de V\u00eda Estrecha (FEVE)","ref":"F8","id":-7387222,"osm_relation":true,"colour_name":"dodgerblue"},"arcs":[13]},{"type":"LineString","properties":{"kind":"train","network":"regional","sort_rank":275,"colour":"#FFCC00","name":"L\u00ednea F5 Laviana - Gijon","source":"openstreetmap.org","min_zoom":6.0,"operator":"Ferrocarriles Espa\u00f1oles de V\u00eda Estrecha (FEVE)","ref":"F5","id":-3903004,"osm_relation":true,"colour_name":"gold"},"arcs":[14]},{"type":"LineString","properties":{"kind":"train","network":"regional","sort_rank":275,"colour":"#FFCC00","name":"L\u00ednea F5 Gijon-Laviana","source":"openstreetmap.org","min_zoom":6.0,"operator":"Ferrocarriles Espa\u00f1oles de V\u00eda Estrecha (FEVE)","ref":"F5","id":-207191,"osm_relation":true,"colour_name":"gold"},"arcs":[15]},{"type":"LineString","properties":{"kind":"train","network":"regional","sort_rank":275,"colour":"#FFCC00","name":"L\u00ednea F6 Oviedo-Infiesto","source":"openstreetmap.org","min_zoom":6.0,"operator":"RENFE","ref":"F6","id":-4840309,"osm_relation":true,"colour_name":"gold"},"arcs":[16]},{"type":"LineString","properties":{"kind":"train","network":"Feve","sort_rank":275,"source":"openstreetmap.org","min_zoom":6.0,"operator":"Renfe Feve","ref":"S1","id":-4130196,"osm_relation":true,"name":"S-1 Santander-Cabez\u00f3n de la Sal"},"arcs":[17]}]},"pois":{"type":"GeometryCollection","geometries":[{"type":"Point","properties":{"kind":"nature_reserve","protect_class":"3","area":110506000,"source":"openstreetmap.org","min_zoom":8.9,"tier":2,"id":-7498568,"osm_relation":true,"name":"Parque Natural de Oyambre"},"coordinates":[3555,1205]},{"type":"Point","properties":{"kind":"nature_reserve","protect_class":"4","area":709540000,"source":"openstreetmap.org","min_zoom":7.55,"tier":2,"id":-2640874,"osm_relation":true,"name":"Parque Natural de Redes"},"coordinates":[740,437]},{"type":"Point","properties":{"kind":"nature_reserve","protect_class":"4","area":389276000,"source":"openstreetmap.org","min_zoom":7.99,"tier":2,"id":-2640873,"osm_relation":true,"name":"Parque Natural de Ponga"},"coordinates":[1373,476]},{"type":"Point","properties":{"kind":"nature_reserve","name:en":"Picos de Europa National Park","protect_class":"2","area":1199820000,"min_zoom":7.18,"source":"openstreetmap.org","name:fr":"Parc national des pics d'Europe","tier":2,"id":-2401595,"osm_relation":true,"name":"Parque Nacional de Picos de Europa"},"coordinates":[2249,509]}]},"boundaries":{"type":"GeometryCollection","geometries":[{"type":"LineString","properties":{"name:kg":"Espania","name:ty":"Paniora","name:ka":"\u10d4\u10e1\u10de\u10d0\u10dc\u10d4\u10d7\u10d8","name:ko":"\uc2a4\ud398\uc778","name:cv":"\u0418\u0441\u043f\u0430\u043d\u0438","name:cu":"\u0407\u0441\u043f\u0430\u043d\u0457\ua657","name:kl":"Spania","name:cs":"\u0160pan\u011blsko","name:tt":"\u0418\u0441\u043f\u0430\u043d\u0438\u044f","name:co":"Spagna","name:kv":"\u0418\u0441\u043f\u0430\u043d\u0438\u044f","name:ku":"Spanya","name:to":"Sepeni","name:tl":"Espanya","name:ce":"\u0418\u0441\u043f\u0430\u043d\u0438","name:ta":"\u0b8e\u0b9a\u0bc1\u0baa\u0bcd\u0baa\u0bbe\u0ba9\u0bbf\u0baf\u0bbe","name:tg":"\u0418\u0441\u043f\u043e\u043d\u0438\u0451","name:ca":"Espanya","name:te":"\u0c38\u0c4d\u0c2a\u0c46\u0c2f\u0c3f\u0c28\u0c4d","name:cy":"Sbaen","name:qu":"Ispa\u00f1a","name:da":"Spanien","name:de":"Spanien","name:dz":"\u0f66\u0f72\u0f54\u0f71\u0f7a\u0f53\u0f0b","source":"openstreetmap.org","name:kn":"\u0cb8\u0ccd\u0caa\u0cc7\u0ca8\u0ccd","name:dv":"\u0787\u07a8\u0790\u07b0\u0795\u07ac\u0787\u07a8\u0782\u07b0","name:km":"\u17a2\u17c1\u179f\u17d2\u1794\u17c9\u17b6\u1789","name:lv":"Sp\u0101nija","name:lt":"Ispanija","name:uz":"Ispaniya","name:kk":"\u0418\u0441\u043f\u0430\u043d\u0438\u044f","name:ur":"\u06c1\u0633\u067e\u0627\u0646\u06cc\u06c1","name:lb":"Spuenien","name:la":"Hispania","name:uk":"\u0406\u0441\u043f\u0430\u043d\u0456\u044f","name:ug":"Ispaniye","name:li":"Spanje","name:ln":"Espania","name:el":"\u0399\u03c3\u03c0\u03b1\u03bd\u03af\u03b1","name:eo":"Hispanujo","name:en":"Spain","name":"Espa\u00f1a","name:tk":"Ispani\u00fda","name:ee":"Spain","name:th":"\u0e1b\u0e23\u0e30\u0e40\u0e17\u0e28\u0e2a\u0e40\u0e1b\u0e19","name:eu":"Espainia","name:et":"Hispaania","name:ay":"Ispa\u00f1a","name:rm":"Spagna","name:rn":"Esipanye","name:az":"\u0130spaniya","name:ie":"Hispania","name:id":"Spanyol","name:ig":"Spain","name:ik":"Spa\u00f1a","name:ar":"\u0625\u0633\u0628\u0627\u0646\u064a\u0627","name:io":"Hispania","name:is":"Sp\u00e1nn","name:am":"\u12a5\u1235\u1353\u1295\u12eb","name:it":"Spagna","name:an":"Espanya","name:ru":"\u0418\u0441\u043f\u0430\u043d\u0438\u044f","name:rw":"Esipanye","name:af":"Spanje","name:zu":"ISpeyini","kind_detail":"2","name:za":"Sihbanhyaz","name:zh-yue":"\u897f\u73ed\u7259","name:zh":"\u897f\u73ed\u7259","name:so":"Isbania","name:sm":"Spania","name:sl":"\u0160panija","name:sk":"\u0160panielsko","name:ja":"\u30b9\u30da\u30a4\u30f3","name:sh":"\u0160panija","name:se":"Sp\u00e1nia","name:sc":"Ispagna","name:br":"Spagn","name:bs":"\u0160panija","name:bn":"\u09b8\u09cd\u09aa\u09c7\u09a8","name:bo":"\u0f5e\u0f72\u0f0b\u0f54\u0f53\u0f0b\u0f61\u0f0d","name:bi":"Spain","name:sw":"Hispania","name:be":"\u0406\u0441\u043f\u0430\u043d\u0456\u044f","name:su":"Spanyol","name:bg":"\u0418\u0441\u043f\u0430\u043d\u0438\u044f","name:ss":"Sipeyini","name:ba":"\u0418\u0441\u043f\u0430\u043d\u0438\u044f","name:sq":"Spanja","name:jv":"Spanyol","name:sa":"\u0938\u094d\u092a\u0947\u0928\u094d","name:ia":"Espania","name:pt":"Espanha","name:ps":"\u0627\u0633\u067e\u0627\u0646\u06cc\u0627","name:oc":"Espanha","min_zoom":8.0,"name:ro":"Spania","name:zh-min-nan":"Se-pan-g\u00e2","name:os":"\u0418\u0441\u043f\u0430\u043d\u0438","name:or":"\u0b38\u0b4d\u0b2a\u0b47\u0b28","name:pl":"Hiszpania","name:st":"Spain","sort_rank":262,"name:sr":"\u0428\u043f\u0430\u043d\u0438\u0458\u0430","osm_relation":true,"name:pa":"\u0a38\u0a2a\u0a47\u0a28","name:tr":"\u0130spanya","name:hi":"\u0938\u094d\u092a\u0947\u0928","name:sv":"Spanien","name:he":"\u05e1\u05e4\u05e8\u05d3","name:hy":"\u053b\u057d\u057a\u0561\u0576\u056b\u0561","name:ht":"Espay","name:hu":"Spanyolorsz\u00e1g","name:hr":"\u0160panjolska","kind":"country","name:ts":"Spaniya","name:yi":"\u05e9\u05e4\u05d0\u05e0\u05d9\u05e2","name:iu":"\u14ef\u1438\u1403\u14d0","name:yo":"Sp\u00e9\u00ecn","name:mt":"Spanja","alt_name:eo":"Hispanio","name:ms":"Sepanyol","name:mr":"\u0938\u094d\u092a\u0947\u0928","name:my":"\u1005\u1015\u102d\u1014\u103a\u1014\u102d\u102f\u1004\u103a\u1004\u1036","official_name":"Reino de Espa\u00f1a","name:kw":"Spayn","name:mg":"Espaina","name:vi":"T\u00e2y Ban Nha","name:ml":"\u0d38\u0d4d\u0d2a\u0d46\u0d2f\u0d3f\u0d7b","name:mn":"\u0418\u0441\u043f\u0430\u043d\u0438","name:mi":"P\u0101niora","id":-1311341,"name:mk":"\u0428\u043f\u0430\u043d\u0438\u0458\u0430","name:vo":"Spany\u00e4n","name:fa":"\u0627\u0633\u067e\u0627\u0646\u06cc\u0627","name:fi":"Espanja","name:ky":"\u0418\u0441\u043f\u0430\u043d\u0438\u044f","name:fo":"Spania","name:fr":"Espagne","name:fy":"Spanje","int_name":"Spain","name:nl":"Spanje","name:nn":"Spania","name:no":"Spania","name:na":"Pain","name:ne":"\u0938\u094d\u092a\u0947\u0928","name:wa":"Espagne","name:wo":"Ispaa\u00f1","name:nv":"Dib\u00e9 Din\u00ed\u00ed Bik\u00e9yah","name:ga":"An Sp\u00e1inn","name:gd":"An Sp\u00e0inn","maritime_boundary":true,"name:gv":"Yn Spaainey","name:gu":"\u0ab8\u0acd\u0aaa\u0ac7\u0aa8"},"arcs":[0]},{"type":"LineString","properties":{"name:right:fr":"Asturies","id:right":-349033,"min_zoom":8.0,"name:left:lt":"Kastilija ir Leonas","name:left:be":"\u041a\u0430\u0441\u0442\u044b\u043b\u0456\u044f \u0456 \u041b\u0435\u043e\u043d","id":-349041,"name:right":"Asturias","name:left:en":"Castile and Le\u00f3n","name:right:ca":"Ast\u00faries","kind_detail":"4","name:left:ca":"Castella i Lle\u00f3","source":"openstreetmap.org","name:right:ar":"\u0623\u0633\u062a\u0648\u0631\u064a\u0627\u0633","id:left":-349041,"name:right:cs":"Asturie","name:left:cs":"Kastilie a Le\u00f3n","name:left":"Castilla y Le\u00f3n","name:right:pt":"Ast\u00farias","name:left:ar":"\u0642\u0634\u062a\u0627\u0644\u0629 \u0648\u0644\u064a\u0648\u0646","name:left:pl":"Kastylia i Le\u00f3n","name:left:pt":"Castela e Le\u00e3o","name:left:de":"Kastilien und Le\u00f3n","name:left:ru":"\u041a\u0430\u0441\u0442\u0438\u043b\u0438\u044f \u0438 \u041b\u0435\u043e\u043d","osm_relation":true,"kind":"region","name":"Castilla y Le\u00f3n - Asturias","name:right:de":"Asturien","name:left:nl":"Castili\u00eb en Le\u00f3n","alt_name:left:cs":"Kastilie-Le\u00f3n","name:right:be":"\u0410\u0441\u0442\u0443\u0440\u044b\u044f","sort_rank":256,"name:left:fr":"Castille-et-Le\u00f3n","name:left:eu":"Gaztela eta Leon"},"arcs":[1]},{"type":"LineString","properties":{"name:right:fr":"Cantabrie","id:right":-349013,"min_zoom":8.0,"name:left:lt":"Kastilija ir Leonas","name:left:be":"\u041a\u0430\u0441\u0442\u044b\u043b\u0456\u044f \u0456 \u041b\u0435\u043e\u043d","id":-349041,"name:right":"Cantabria","name:left:en":"Castile and Le\u00f3n","name:right:ca":"Cant\u00e0bria","kind_detail":"4","name:left:ca":"Castella i Lle\u00f3","source":"openstreetmap.org","name:right:ar":"\u0643\u0627\u0646\u062a\u0627\u0628\u0631\u064a\u0627","id:left":-349041,"name:left:cs":"Kastilie a Le\u00f3n","name:left":"Castilla y Le\u00f3n","name:left:ar":"\u0642\u0634\u062a\u0627\u0644\u0629 \u0648\u0644\u064a\u0648\u0646","name:left:pl":"Kastylia i Le\u00f3n","name:right:ru":"\u041a\u0430\u043d\u0442\u0430\u0431\u0440\u0438\u044f","name:left:pt":"Castela e Le\u00e3o","name:left:de":"Kastilien und Le\u00f3n","name:left:ru":"\u041a\u0430\u0441\u0442\u0438\u043b\u0438\u044f \u0438 \u041b\u0435\u043e\u043d","name:right:pl":"Kantabria","osm_relation":true,"kind":"region","name":"Castilla y Le\u00f3n - Cantabria","name:left:nl":"Castili\u00eb en Le\u00f3n","alt_name:left:cs":"Kastilie-Le\u00f3n","name:right:be":"\u041a\u0430\u043d\u0442\u0430\u0431\u0440\u044b\u044f","sort_rank":256,"name:left:fr":"Castille-et-Le\u00f3n","name:left:eu":"Gaztela eta Leon"},"arcs":[2]},{"type":"LineString","properties":{"name:right:fr":"Cantabrie","name:left:ar":"\u0623\u0633\u062a\u0648\u0631\u064a\u0627\u0633","id:right":-349013,"name:left:pt":"Ast\u00farias","min_zoom":8.0,"name:left:be":"\u0410\u0441\u0442\u0443\u0440\u044b\u044f","name:right:ru":"\u041a\u0430\u043d\u0442\u0430\u0431\u0440\u0438\u044f","name:right:pl":"Kantabria","id":-349033,"osm_relation":true,"name:right":"Cantabria","kind":"region","name":"Asturias - Cantabria","source":"openstreetmap.org","name:right:ca":"Cant\u00e0bria","kind_detail":"4","name:left:ca":"Ast\u00faries","name:left:de":"Asturien","name:right:be":"\u041a\u0430\u043d\u0442\u0430\u0431\u0440\u044b\u044f","sort_rank":256,"name:left:fr":"Asturies","name:right:ar":"\u0643\u0627\u0646\u062a\u0627\u0628\u0631\u064a\u0627","id:left":-349033,"name:left:cs":"Asturie","name:left":"Asturias"},"arcs":[3]},{"type":"LineString","properties":{"kind":"region","name":"Asturias","sort_rank":256,"kind_detail":"4","name:ar":"\u0623\u0633\u062a\u0648\u0631\u064a\u0627\u0633","name:cs":"Asturie","name:pt":"Ast\u00farias","name:de":"Asturien","source":"openstreetmap.org","min_zoom":8.0,"name:fr":"Asturies","name:ca":"Ast\u00faries","name:be":"\u0410\u0441\u0442\u0443\u0440\u044b\u044f","id":-349033,"osm_relation":true},"arcs":[4]},{"type":"LineString","properties":{"name:pt":"Ast\u00farias","name:ar":"\u0623\u0633\u062a\u0648\u0631\u064a\u0627\u0633","name:cs":"Asturie","min_zoom":8.0,"name:be":"\u0410\u0441\u0442\u0443\u0440\u044b\u044f","id":-349033,"name:ca":"Ast\u00faries","kind":"region","name":"Asturias","sort_rank":256,"kind_detail":"4","name:fr":"Asturies","name:de":"Asturien","source":"openstreetmap.org","maritime_boundary":true,"osm_relation":true},"arcs":[5]},{"type":"LineString","properties":{"kind":"region","name":"Cantabria","sort_rank":256,"kind_detail":"4","name:ar":"\u0643\u0627\u0646\u062a\u0627\u0628\u0631\u064a\u0627","min_zoom":8.0,"source":"openstreetmap.org","name:fr":"Cantabrie","name:ca":"Cant\u00e0bria","name:be":"\u041a\u0430\u043d\u0442\u0430\u0431\u0440\u044b\u044f","name:ru":"\u041a\u0430\u043d\u0442\u0430\u0431\u0440\u0438\u044f","name:pl":"Kantabria","id":-349013,"osm_relation":true},"arcs":[6]},{"type":"LineString","properties":{"kind":"region","name":"Cantabria","sort_rank":256,"kind_detail":"4","name:ar":"\u0643\u0627\u0646\u062a\u0627\u0628\u0631\u064a\u0627","min_zoom":8.0,"name:fr":"Cantabrie","source":"openstreetmap.org","maritime_boundary":true,"osm_relation":true,"name:ru":"\u041a\u0430\u043d\u0442\u0430\u0431\u0440\u0438\u044f","name:be":"\u041a\u0430\u043d\u0442\u0430\u0431\u0440\u044b\u044f","name:pl":"Kantabria","id":-349013,"name:ca":"Cant\u00e0bria"},"arcs":[7]}]},"roads":{"type":"GeometryCollection","geometries":[{"type":"LineString","properties":{"source":"openstreetmap.org","kind":"major_road","sort_rank":380,"kind_detail":"primary","ref":"AS-112","min_zoom":8.0},"arcs":[20]},{"type":"LineString","properties":{"source":"openstreetmap.org","kind":"major_road","old_name":"Avenida General Vig\u00f3n","sort_rank":380,"kind_detail":"primary","ref":"CA-180","min_zoom":8.0},"arcs":[21]},{"type":"MultiLineString","properties":{"sort_rank":380,"kind_detail":"primary","min_zoom":8.0,"kind":"major_road","source":"openstreetmap.org"},"arcs":[[22],[23],[24]]},{"type":"MultiLineString","properties":{"source":"openstreetmap.org","kind":"major_road","sort_rank":380,"kind_detail":"primary","ref":"CA-184","min_zoom":8.0},"arcs":[[25],[26],[27]]},{"type":"MultiLineString","properties":{"source":"openstreetmap.org","kind":"major_road","sort_rank":381,"kind_detail":"trunk","ref":"N-634","min_zoom":8.0},"arcs":[[28],[29],[30],[31],[32],[33],[34],[35],[36],[37],[38],[39],[40],[41],[42],[43],[44],[45],[46],[47],[48],[49],[50],[51],[52],[53],[54],[55],[56],[57],[58],[59],[60],[61],[62],[63],[64],[65],[66],[67],[68],[69],[70],[71],[72],[73],[74],[75],[76],[77],[78],[79],[80],[81],[82],[83],[84],[85],[86],[87],[88],[89],[90],[91],[92],[93],[94],[95],[96],[97],[98],[99],[100],[101],[102],[103],[104],[105],[106],[107],[108],[109],[110],[111],[112]]},{"type":"MultiLineString","properties":{"kind":"highway","network":"e-road","sort_rank":383,"kind_detail":"motorway","source":"openstreetmap.org","min_zoom":8.0,"all_networks":["e-road","ES:A-road"],"shield_text":"70","ref":"A-8","all_shield_texts":["70","8"]},"arcs":[[113],[114],[115],[116],[117],[118],[119],[120],[121],[122],[123],[124],[125],[126],[127],[128],[129],[130],[131],[132],[133],[134],[135],[136],[137],[138],[139],[140],[141],[142],[143],[144],[145],[146],[147],[148],[149],[150],[151]]},{"type":"LineString","properties":{"source":"openstreetmap.org","kind":"major_road","sort_rank":380,"kind_detail":"primary","ref":"CA-185","min_zoom":8.0},"arcs":[152]},{"type":"MultiLineString","properties":{"bus_network":null,"sort_rank":381,"kind_detail":"trunk","kind":"major_road","source":"openstreetmap.org","min_zoom":8.0,"bus_shield_text":"L1","ref":"N-632"},"arcs":[[153],[154]]},{"type":"MultiLineString","properties":{"source":"openstreetmap.org","kind":"major_road","sort_rank":380,"kind_detail":"primary","ref":"AS-115","min_zoom":8.0},"arcs":[[155],[156],[157]]},{"type":"MultiLineString","properties":{"source":"openstreetmap.org","kind":"major_road","landuse_kind":"nature_reserve","sort_rank":381,"kind_detail":"trunk","ref":"N-632","min_zoom":8.0},"arcs":[[158],[159],[160],[161],[162],[163]]},{"type":"MultiLineString","properties":{"source":"openstreetmap.org","kind":"major_road","sort_rank":380,"kind_detail":"primary","ref":"CA-180","min_zoom":8.0},"arcs":[[164],[165]]},{"type":"LineString","properties":{"source":"openstreetmap.org","kind":"major_road","sort_rank":380,"kind_detail":"primary","ref":"CL-635","min_zoom":8.0,"id":458437424},"arcs":[166]},{"type":"LineString","properties":{"source":"openstreetmap.org","kind":"major_road","sort_rank":380,"kind_detail":"primary","ref":"AS-117a","min_zoom":8.0,"id":161921588},"arcs":[167]},{"type":"MultiLineString","properties":{"source":"openstreetmap.org","kind":"major_road","sort_rank":380,"kind_detail":"primary","ref":"AS-117","min_zoom":8.0},"arcs":[[168],[169],[170],[171],[172],[173],[174],[175],[176],[177],[178],[179],[180],[181],[182],[183],[184],[185],[186]]},{"type":"MultiLineString","properties":{"source":"openstreetmap.org","kind":"major_road","sort_rank":380,"kind_detail":"primary","ref":"CA-131","min_zoom":8.0},"arcs":[[187],[188],[189],[190],[191],[192],[193],[194],[195],[196]]},{"type":"LineString","properties":{"source":"openstreetmap.org","kind":"ferry","name":"Gij\u00f3n - Saint Nazaire","sort_rank":355,"min_zoom":8.0,"name:es":"Autov\u00eda mar\u00edtima (Gijon - Saint-Nazaire)","name:fr":"Autoroute de la mer (Gijon - Saint-Nazaire)"},"arcs":[197]},{"type":"MultiLineString","properties":{"source":"openstreetmap.org","kind":"major_road","sort_rank":380,"kind_detail":"primary","ref":"AS-119","min_zoom":8.0},"arcs":[[198],[199],[200]]},{"type":"MultiLineString","properties":{"kind":"major_road","network":null,"sort_rank":381,"kind_detail":"trunk","source":"openstreetmap.org","min_zoom":8.0,"landuse_kind":"nature_reserve","shield_text":"625","ref":"N-625"},"arcs":[[201],[202]]},{"type":"LineString","properties":{"kind":"major_road","sort_rank":381,"kind_detail":"trunk","is_bicycle_related":true,"source":"openstreetmap.org","min_zoom":8.0,"ref":"N-632","id":28817529},"arcs":[203]},{"type":"LineString","properties":{"source":"openstreetmap.org","kind":"major_road","sort_rank":380,"kind_detail":"primary","ref":"CA-182","min_zoom":8.0},"arcs":[204]},{"type":"MultiLineString","properties":{"kind":"highway","network":"ES:A-road","sort_rank":383,"kind_detail":"motorway","source":"openstreetmap.org","min_zoom":8.0,"all_networks":["ES:A-road"],"shield_text":"64","ref":"A-64","all_shield_texts":["64"]},"arcs":[[205],[206],[207],[208],[209],[210]]},{"type":"MultiLineString","properties":{"bus_network":null,"sort_rank":381,"kind_detail":"trunk","kind":"major_road","source":"openstreetmap.org","min_zoom":8.0,"bus_shield_text":"L25","ref":"N-632"},"arcs":[[211],[212],[213]]},{"type":"LineString","properties":{"source":"openstreetmap.org","kind":"major_road","landuse_kind":"nature_reserve","sort_rank":380,"kind_detail":"primary","ref":"CL-635","min_zoom":8.0},"arcs":[214]},{"type":"MultiLineString","properties":{"sort_rank":381,"source":"openstreetmap.org","min_zoom":8.0,"kind":"major_road","kind_detail":"trunk"},"arcs":[[215],[216],[217],[218],[219],[220],[221],[222],[223]]},{"type":"MultiLineString","properties":{"source":"openstreetmap.org","kind":"major_road","landuse_kind":"nature_reserve","sort_rank":380,"kind_detail":"primary","ref":"CA-185","min_zoom":8.0},"arcs":[[224],[225]]},{"type":"MultiLineString","properties":{"kind":"highway","network":"e-road","sort_rank":383,"landuse_kind":"nature_reserve","source":"openstreetmap.org","min_zoom":8.0,"all_networks":["e-road","ES:A-road"],"kind_detail":"motorway","shield_text":"70","ref":"A-8","all_shield_texts":["70","8"]},"arcs":[[226],[227],[228],[229]]},{"type":"MultiLineString","properties":{"source":"openstreetmap.org","kind":"major_road","sort_rank":381,"kind_detail":"trunk","ref":"N-632","min_zoom":8.0},"arcs":[[230],[231],[232],[233],[234],[235],[236],[237],[238],[239],[240],[241],[242],[243],[244],[245],[246],[247],[248],[249],[250],[251],[252],[253],[254],[255],[256],[257],[258],[259],[260],[261],[262],[263],[264],[265],[266],[267],[268],[269],[270],[271],[272],[273],[274],[275],[276],[277],[278],[279],[280],[281],[282],[283],[284],[285],[286],[287],[288],[289],[290],[291],[292],[293],[294],[295],[296],[297],[298],[299]]},{"type":"MultiLineString","properties":{"source":"openstreetmap.org","bus_network":null,"bus_shield_text":"L1","sort_rank":381,"kind_detail":"trunk","min_zoom":8.0,"kind":"major_road"},"arcs":[[300],[301]]},{"type":"MultiLineString","properties":{"source":"openstreetmap.org","kind":"major_road","landuse_kind":"nature_reserve","sort_rank":380,"kind_detail":"primary","ref":"CA-131","min_zoom":8.0},"arcs":[[302],[303],[304],[305],[306],[307],[308],[309],[310],[311]]},{"type":"MultiLineString","properties":{"source":"openstreetmap.org","kind":"major_road","landuse_kind":"nature_reserve","sort_rank":380,"kind_detail":"primary","ref":"AS-117","min_zoom":8.0},"arcs":[[312],[313],[314],[315],[316],[317],[318],[319]]},{"type":"LineString","properties":{"kind":"major_road","sort_rank":381,"kind_detail":"trunk","bicycle_shield_text":"CdN","bicycle_network":"nwn","source":"openstreetmap.org","min_zoom":8.0,"ref":"N-634","id":166364245},"arcs":[320]},{"type":"MultiLineString","properties":{"source":"openstreetmap.org","kind":"major_road","sort_rank":380,"kind_detail":"primary","ref":"CA-181","min_zoom":8.0},"arcs":[[321],[322],[323],[324]]},{"type":"MultiLineString","properties":{"source":"openstreetmap.org","kind":"major_road","sort_rank":380,"kind_detail":"primary","ref":"CA-135","min_zoom":8.0},"arcs":[[325],[326],[327],[328],[329],[330],[331],[332],[333]]},{"type":"MultiLineString","properties":{"kind":"major_road","network":null,"sort_rank":381,"kind_detail":"trunk","source":"openstreetmap.org","min_zoom":8.0,"shield_text":"625","ref":"N-625"},"arcs":[[334],[335],[336],[337],[338],[339],[340],[341],[342],[343],[344]]},{"type":"MultiLineString","properties":{"source":"openstreetmap.org","kind":"major_road","landuse_kind":"nature_reserve","sort_rank":381,"kind_detail":"trunk","ref":"N-634","min_zoom":8.0},"arcs":[[345],[346],[347],[348],[349],[350],[351],[352],[353],[354],[355],[356],[357],[358],[359],[360],[361],[362],[363],[364]]},{"type":"MultiLineString","properties":{"source":"openstreetmap.org","kind":"major_road","sort_rank":381,"kind_detail":"trunk","ref":"N-621","min_zoom":8.0},"arcs":[[365],[366],[367],[368],[369],[370],[371],[372],[373],[374],[375],[376],[377],[378]]},{"type":"MultiLineString","properties":{"kind":"major_road","network":null,"sort_rank":380,"kind_detail":"primary","source":"openstreetmap.org","min_zoom":8.0,"shield_text":"114","ref":"AS-114"},"arcs":[[379],[380],[381],[382],[383],[384],[385],[386],[387],[388],[389],[390],[391],[392],[393],[394],[395],[396],[397],[398],[399],[400],[401],[402],[403],[404],[405],[406],[407],[408]]},{"type":"LineString","properties":{"source":"openstreetmap.org","kind":"major_road","sort_rank":381,"kind_detail":"trunk","ref":"N-625","min_zoom":8.0},"arcs":[409]},{"type":"LineString","properties":{"kind":"major_road","sort_rank":381,"landuse_kind":"nature_reserve","source":"openstreetmap.org","min_zoom":8.0,"kind_detail":"trunk","ref":"N-621","id":307181166},"arcs":[410]},{"type":"LineString","properties":{"source":"openstreetmap.org","kind":"major_road","sort_rank":381,"kind_detail":"trunk","ref":"N-634R","min_zoom":8.0},"arcs":[411]}]},"earth":{"type":"GeometryCollection","geometries":[{"type":"Polygon","properties":{"sort_rank":10,"source":"naturalearthdata.com","kind":"earth","min_zoom":0.0,"id":4739},"arcs":[[412]]}]},"landuse":{"type":"GeometryCollection","geometries":[{"type":"MultiPolygon","properties":{"kind":"nature_reserve","protect_class":"3","area":142541418,"sort_rank":23,"source":"openstreetmap.org","min_zoom":8.0,"tier":2,"osm_relation":true},"arcs":[[[413]]]},{"type":"Polygon","properties":{"kind":"nature_reserve","protect_class":"2","area":1199820032,"sort_rank":23,"source":"openstreetmap.org","min_zoom":4.0,"tier":2,"id":-2401595,"osm_relation":true},"arcs":[[414]]},{"type":"MultiPolygon","properties":{"source":"naturalearthdata.com","kind":"urban_area","name":"","area":596526536,"sort_rank":11,"min_zoom":4.0},"arcs":[[[415]]]},{"type":"Polygon","properties":{"kind":"nature_reserve","protect_class":"3","area":110506000,"sort_rank":23,"source":"openstreetmap.org","min_zoom":7.0,"tier":2,"id":-7498568,"osm_relation":true},"arcs":[[416]]},{"type":"MultiPolygon","properties":{"kind":"nature_reserve","protect_class":"3","area":456264992,"sort_rank":23,"source":"openstreetmap.org","min_zoom":6.0,"tier":2,"id":345887231},"arcs":[[[417]],[[418]]]},{"type":"Polygon","properties":{"kind":"nature_reserve","protect_class":"6","area":1890179968,"sort_rank":23,"source":"openstreetmap.org","min_zoom":4.0,"tier":2,"id":-1274532,"osm_relation":true},"arcs":[[419]]},{"type":"Polygon","properties":{"kind":"nature_reserve","protect_class":"4","area":1086430307,"sort_rank":23,"source":"openstreetmap.org","min_zoom":6.0,"tier":2,"osm_relation":true},"arcs":[[420],[421]]}]}},"type":"Topology","transform":{"translate":[-5.625,43.0688877742],"scale":[0.0003433228,0.0002487054]},"arcs":[[[4096,2272],[-402,-92],[-1501,201],[-1350,353],[-843,288]],[[2284,450],[5,36],[-66,64],[5,51],[-33,39],[-65,42],[-52,-5],[-23,-41],[-70,-10],[-61,-51],[-93,-105],[-1,-51],[-76,50],[-89,-11],[-18,-34],[-50,18],[-73,-309],[-113,4],[-21,49],[-193,-119],[-159,8],[-39,-41],[-86,27],[-43,-21],[-43,22],[-8,39],[-76,3],[-38,-31],[-9,-73]],[[2500,0],[-19,41],[-174,95],[-8,55],[-46,38],[49,127],[-50,62],[32,32]],[[2284,450],[64,-7],[4,20],[35,-8],[78,40],[117,-23],[19,139],[36,63],[-33,84],[73,38],[216,3],[-14,33],[87,99],[77,-44],[73,-6],[22,-78],[70,38],[4,232],[-50,33],[2,48],[23,12],[-12,36],[41,-7],[28,53],[-3,57]],[[3241,1305],[-12,3]],[[3229,1308],[-65,22],[-81,-32],[-45,31],[-109,-17],[-167,53],[-63,-7],[0,24],[-40,-5],[-36,29],[-46,-13],[-75,56],[-124,9],[-13,32],[-28,-15],[-30,16],[2,-24],[-14,-2],[-6,53],[-103,-19],[-150,83],[-29,-18],[-294,11],[-58,35],[-47,-9],[-38,39],[-86,1],[-24,32],[-140,-40],[-56,15],[-72,-17],[-34,52],[-123,79],[12,46],[-99,68],[-158,-19],[-56,36],[-6,-23],[-33,2],[27,-97],[-33,17],[-29,-11],[15,-20],[-16,20],[-18,-27],[-6,20],[-31,-11],[-21,-58],[-26,-2],[3,-13],[-11,-6],[-8,4],[0,-16],[-5,-4],[4,20],[5,1],[5,-4],[7,19],[24,8],[12,53],[98,76],[-34,99],[-211,2],[-65,-32],[-66,33],[-38,-29],[-44,23],[-152,-11],[-58,39],[-23,-23]],[[3253,1307],[-12,-2]],[[4096,1311],[-2,0],[-35,22],[-72,-12],[-72,-41],[-36,29],[-82,-16],[8,-8],[-1,-15],[-54,40],[-9,45],[-95,-63],[-126,34],[-161,-38],[-15,25],[-91,-6]],[[0,1276],[67,-38],[48,20],[100,-18],[106,-39],[22,-34],[45,18],[48,-35],[106,-6],[138,39],[90,-77]],[[0,1276],[67,-38],[48,20],[100,-18],[106,-39],[22,-34],[45,18],[48,-35],[106,-6],[138,39],[96,-78],[189,99],[124,-34],[45,16],[17,-26],[69,34],[25,-20],[41,36],[-14,75],[17,30],[111,19],[92,55],[48,-7],[35,57],[67,24],[32,58],[-22,45],[19,7],[91,-47],[97,-13],[22,-27],[101,14],[12,-24],[23,30],[145,1],[33,-19],[-13,-55],[91,-19],[66,21],[148,-6],[40,-18],[-24,-62],[112,-44],[177,26],[117,-31],[108,13],[30,-33],[125,-12],[153,-59],[226,-4],[121,-163],[33,15],[132,-55],[43,-51],[7,44],[34,7],[122,-60],[53,31]],[[0,1276],[67,-38],[48,20],[100,-18],[106,-39],[22,-34],[45,18],[48,-35],[106,-6],[138,39],[96,-78],[189,99],[124,-34],[45,16],[17,-26],[69,34],[25,-20],[41,36],[-14,75],[17,30],[111,19],[92,55],[48,-7],[35,57],[67,24],[32,58],[-22,45],[19,7],[91,-47],[97,-13],[22,-27],[101,14],[12,-24],[23,30],[145,1],[33,-19],[-13,-55],[91,-19],[66,21],[148,-6],[40,-18],[-24,-62],[112,-44],[177,26],[117,-31],[108,13],[30,-33],[125,-12],[153,-59],[226,-4],[121,-163],[33,15],[132,-55],[43,-51],[7,44],[34,7],[122,-60],[53,31]],[[4096,980],[-38,-19]],[[171,220],[-51,89],[-120,60]],[[171,220],[-51,89],[-120,60]],[[0,878],[34,-44],[63,-6],[79,-98]],[[0,878],[34,-44],[63,-6],[79,-98]],[[0,1276],[67,-38],[48,20],[100,-18],[106,-39],[22,-34],[45,18],[48,-35],[106,-6],[138,39],[90,-77]],[[4096,980],[-38,-19]],[[4096,1344],[-274,-30],[-136,16],[-27,-14],[-31,-51],[-18,0],[-56,54],[-81,23],[-82,-16],[-61,-61],[-77,76],[-12,1],[-648,58],[-59,18],[-237,113],[-207,44],[-66,36],[-32,9],[-33,-7],[-43,-37],[-23,-8],[-204,62],[-35,-23],[-31,52],[-70,19],[-251,13],[-99,36],[-210,141],[-46,17],[-123,12],[-43,-8],[-16,-21],[-8,-27],[-21,-26],[-30,-16],[-61,-21],[-30,-18],[-20,27],[50,49],[37,64],[-9,56],[-88,23],[-585,-25],[0,2142],[4096,0],[0,-2752]],[[0,1954],[585,25],[88,-23],[9,-56],[-37,-64],[-50,-49],[20,-27],[30,18],[61,21],[30,16],[21,26],[8,27],[16,21],[43,8],[123,-12],[46,-17],[210,-141],[99,-36],[251,-13],[70,-19],[31,-52],[35,23],[204,-62],[23,8],[43,37],[33,7],[32,-9],[66,-36],[207,-44],[237,-113],[59,-18],[648,-58],[12,-1],[77,-76],[61,61],[82,16],[81,-23],[56,-54],[18,0],[31,51],[27,14],[136,-16],[274,30]],[[0,366],[32,-10]],[[4041,942],[-2,-27]],[[121,1108],[4,-9]],[[131,1099],[8,-15]],[[2159,1386],[8,3]],[[2953,370],[0,-1]],[[2953,369],[0,1]],[[2953,369],[106,-111],[23,-52],[-17,-46],[43,-106],[76,-32],[169,12],[-5,-34]],[[0,1300],[64,-10]],[[64,1290],[11,2]],[[75,1292],[60,-45]],[[135,1247]],[[135,1247]],[[135,1246],[1,0]],[[136,1246],[0,1]],[[136,1246],[297,-104],[68,17]],[[501,1159],[12,1]],[[513,1160],[33,-14]],[[560,1156],[-14,-10]],[[560,1156],[106,17]],[[704,1169],[-38,4]],[[704,1169],[76,-57],[30,11]],[[810,1123],[22,2]],[[832,1125],[27,5]],[[859,1130],[20,10]],[[879,1140],[67,41],[93,11],[62,-24],[38,19],[9,-26],[110,30],[36,41],[1,62],[120,29],[15,36],[108,10],[78,80],[27,-13],[15,56]],[[1658,1492],[1,0]],[[1659,1494],[-1,-2]],[[2519,1349],[1,-1]],[[2520,1348],[0,1]],[[2520,1348],[52,-5]],[[2572,1343],[2,-1]],[[2574,1343],[-2,0]],[[2575,1342],[70,-22]],[[2645,1320],[1,0],[-1,1],[0,-1]],[[2646,1320],[174,-6]],[[2821,1314],[-1,0]],[[2820,1314],[1,-1]],[[2823,1315],[-1,0]],[[2822,1314],[1,1]],[[2823,1315],[7,1]],[[2830,1316],[2,0]],[[2831,1316],[-1,0]],[[2833,1317],[-1,0],[-1,-1],[1,0],[1,1]],[[2834,1317],[-1,0]],[[2833,1316],[1,1]],[[2834,1317],[145,-13]],[[3014,1311],[69,-45]],[[3083,1266],[0,-1]],[[3084,1266],[-1,0]],[[3084,1264],[1,-1]],[[3085,1263],[0,1]],[[3085,1263],[1,-2]],[[3086,1261],[0,-1]],[[3086,1260],[0,1]],[[3088,1260],[-1,0]],[[3087,1259],[1,1]],[[3088,1260],[175,-27]],[[3266,1233],[113,-11]],[[3381,1223],[-2,-1]],[[3379,1222],[2,0]],[[3385,1224],[70,25]],[[3551,1276],[22,1]],[[3582,1257],[3,1]],[[3673,1202],[74,-82]],[[3747,1120],[0,-1]],[[3748,1119],[-1,1]],[[3747,1118],[1,-2]],[[3748,1116],[0,2]],[[3748,1116],[7,-47]],[[3755,1069],[6,-7]],[[3761,1062],[103,-64],[146,-21]],[[4011,978],[-1,-1]],[[4010,977]],[[4011,977],[1,0]],[[4012,977],[-1,0]],[[4012,977],[6,-2]],[[4022,972],[18,-6]],[[4042,966],[54,25]],[[135,1247],[0,-1],[1,1],[-1,0]],[[1660,1495],[-1,-1],[1,-2],[1,1],[-1,2]],[[2521,1353],[0,1],[-1,0],[0,-1],[1,0]],[[2574,1342],[1,0],[-1,1],[0,-1]],[[2822,1314],[0,1]],[[2822,1315],[-1,-1],[0,-1]],[[2821,1313],[1,1]],[[3085,1264],[0,1],[-1,1],[-1,-2],[2,0]],[[3086,1260],[0,-1],[1,-1],[0,2],[-1,0]],[[3264,1234],[-1,-1],[2,-1],[0,1],[-1,1]],[[3381,1223],[1,-1],[1,0],[-1,1],[-1,0]],[[3749,1118],[-1,1],[-1,-1],[1,0],[1,0]],[[4020,975],[-1,-1],[1,-1],[1,1],[-1,1]],[[4041,966],[0,-1],[0,1]],[[0,1793],[100,-45],[61,36],[75,-31],[87,-170],[81,10],[134,89]],[[409,1599],[-26,2],[-24,-4],[-35,-12],[-54,125],[-8,13],[-17,15],[-8,15],[-72,32],[-4,0],[-61,-36],[-20,26],[-36,5],[-15,9],[-29,5]],[[536,1682],[-23,1],[-88,-75]],[[578,1687],[4,1],[2,2]],[[584,1690],[42,49]],[[626,1739],[56,-3],[48,-18],[6,3]],[[736,1721],[32,16],[18,3]],[[786,1740],[45,9]],[[831,1749],[21,4],[8,-17]],[[860,1736],[1,-6],[39,-45],[119,-31],[57,0],[128,-46],[6,0],[35,7],[76,-7],[44,4],[198,-117],[72,-22],[48,4],[22,8]],[[1705,1485],[17,7],[1,-1]],[[1723,1491],[101,-20],[1,0],[301,39],[40,-7],[32,-27],[10,-3]],[[2208,1473],[32,-12],[21,-5]],[[2261,1456],[47,-10],[2,1],[120,-46],[24,-20],[23,-8],[27,-14],[34,-11],[15,0],[81,-15],[12,-7],[1,0],[7,-1]],[[2654,1325],[1,0]],[[2655,1325],[4,0],[131,8],[57,-27],[87,-9],[68,8],[35,-39],[19,-7],[277,-50],[102,-1]],[[3435,1208],[-86,4],[-16,-2],[-35,20],[-8,3],[-63,6],[-17,1],[-6,-3],[-83,19],[-72,6],[-30,35],[-5,5],[-12,4],[-154,1],[-47,24],[-10,3],[-91,2],[-34,-9],[-11,-2]],[[2655,1325],[-1,0]],[[2654,1325],[-7,1],[-1,1],[-11,6],[-128,25],[-76,44],[-120,46],[-2,1],[-48,7]],[[2261,1456],[-30,5],[-23,12]],[[2208,1473],[-10,4],[-5,11],[-26,16],[-11,4],[-31,2],[-129,-3],[-171,-35],[-100,20],[-2,-1]],[[1723,1491],[-18,-6]],[[1705,1485],[-22,-7],[-48,-5],[-72,23],[-20,19],[-30,17],[-14,14],[-38,26],[-95,41],[-45,-4],[-33,7],[-43,-1],[-35,-7],[-30,14],[-104,33],[-57,-1],[-119,32],[-39,50],[-1,0]],[[860,1736],[-29,13]],[[831,1749],[-10,5],[-35,-14]],[[786,1740],[-50,-19]],[[736,1721],[-6,-2],[-43,16],[-5,1],[-55,4],[-1,-1]],[[626,1739],[-20,-31],[-22,-18]],[[584,1690],[-1,-1],[-4,-1]],[[4096,1024],[-24,-4],[-6,-2],[-43,-21]],[[4023,997],[-5,-2],[-12,3],[-23,0]],[[3983,998],[-2,0],[-14,0],[-148,64],[-14,3],[-8,-1],[-3,1]],[[3794,1065],[-31,10],[-5,8]],[[3758,1083],[0,1],[-5,7],[-8,7],[-85,36]],[[3660,1133],[33,-33],[16,-4],[30,3],[18,-15],[1,-1]],[[3758,1083],[36,-18]],[[3794,1065],[3,-2],[9,1],[59,-33],[102,-34],[14,0],[2,1]],[[3983,998],[6,1],[11,0],[23,-2]],[[4023,997],[13,0],[60,16]],[[2926,347],[-75,14],[-164,-41],[-82,-95],[1,-61],[-121,19],[-43,56],[-50,14]],[[0,1835],[32,-14]],[[30,1821],[3,-1]],[[2069,1085],[-1,-2]],[[2226,1436],[-94,-94],[-53,-20],[-15,-170],[25,-47],[-20,-20]],[[2069,1083],[0,2]],[[584,1695],[13,32]],[[597,1727],[1,0],[1,0],[-1,1],[-1,-1]],[[598,1728],[15,6]],[[645,1747],[38,16]],[[683,1763],[9,1]],[[692,1764],[7,-3]],[[4039,915],[6,-59],[-189,-219]],[[4041,965],[0,-23]],[[1407,0],[-14,5]],[[135,776],[1,-2]],[[0,878],[35,-59],[62,-1],[38,-42]],[[136,774],[62,-104]],[[202,670],[42,0]],[[247,669],[1,0]],[[248,669],[-1,1]],[[248,669],[47,0]],[[297,669],[-2,0]],[[295,669],[1,-1]],[[297,668],[2,0]],[[299,668],[-2,1]],[[299,668],[51,-2]],[[350,666],[2,-1]],[[353,666],[-3,0]],[[353,665],[2,0]],[[355,665],[-2,1]],[[355,665],[81,-7]],[[245,669],[1,0],[1,1]],[[247,670],[-1,0],[-1,-1]],[[297,669],[-1,0],[1,-1],[1,1],[-1,0]],[[3686,1237],[2,0]],[[3854,1264],[12,4]],[[3878,1294],[-9,-23]],[[3948,1284],[-67,10]],[[3954,1285],[-6,-1]],[[3954,1285],[52,5]],[[4006,1290],[5,0]],[[4011,1290],[40,-12]],[[4051,1278],[9,3]],[[4060,1281],[36,6]],[[0,2194],[1254,1902]],[[6,870],[65,76],[62,143],[-23,62],[24,76],[-40,12]],[[92,1238],[2,1]],[[94,1239],[-2,0]],[[1553,619],[41,-189]],[[1596,426],[8,-81],[79,-61],[32,13],[-6,-40],[87,-37],[-43,-20],[22,-51],[-52,2],[58,-29],[-22,-114]],[[522,1688],[8,-4]],[[3856,637],[-13,41],[-8,-20],[-37,6],[-9,41],[-72,22],[23,42],[-40,-23],[-151,1]],[[0,1274],[66,-37],[50,20],[25,47],[30,71],[37,21],[43,63],[11,31],[3,6],[23,42]],[[288,1538],[8,14],[1,1]],[[297,1553],[64,13],[2,1],[54,36]],[[416,1604],[-118,-50],[-1,-1]],[[297,1553],[-9,-15]],[[288,1538],[-17,-30],[-10,-18],[-11,-30],[-43,-62],[-37,-22],[-55,-119],[-49,-19],[-66,37]],[[104,1819],[2,-1]],[[106,1818],[-1,1]],[[106,1818],[0,-1]],[[1186,63],[52,-56],[155,-2]],[[32,1821],[0,-1]],[[33,1821],[-1,0]],[[115,1246],[1,0]],[[199,1811],[-11,5]],[[1438,1133],[1,-1]],[[2520,1353],[-1,-2]],[[2519,1350],[1,3]],[[2519,1350],[-1,0],[1,-1],[1,0],[-1,1]],[[4011,977],[0,1],[-1,-1],[1,0]],[[2392,253],[-26,46]],[[2366,299],[0,-1]],[[579,1688],[-43,-6]],[[538,1682],[40,5]],[[3435,1208],[12,0],[56,5],[38,0],[27,-18],[20,-33],[11,-9],[17,-7],[44,-13]],[[3660,1134],[-70,28],[-22,34],[-27,18],[-38,-1],[-68,-5]],[[29,1821],[1,0]],[[33,1820],[1,1]],[[34,1821],[-1,0]],[[34,1821],[42,-30],[26,29]],[[102,1820],[2,-1]],[[105,1819],[-3,1]],[[106,1817],[20,-23]],[[127,1794],[61,22]],[[199,1811],[42,-39],[98,17],[9,-35],[50,-21],[-4,-64],[126,22]],[[520,1691],[0,-1]],[[520,1690],[0,1]],[[521,1689]],[[530,1684],[10,-19]],[[541,1664],[10,0]],[[553,1660],[-2,4]],[[553,1660],[3,-2]],[[558,1659],[-2,-1]],[[558,1659],[26,36]],[[613,1734],[32,13]],[[699,1761],[60,-34],[91,18]],[[850,1745],[2,1]],[[851,1746],[-1,-1]],[[852,1746],[1,0],[0,1]],[[853,1747],[-1,0],[0,-1]],[[854,1747],[-1,0]],[[853,1746],[1,1]],[[854,1747],[4,1]],[[858,1748],[1,1]],[[858,1749],[0,-1]],[[859,1748],[1,-1]],[[860,1747],[0,1]],[[860,1747],[25,-47],[149,-26]],[[1034,1674]],[[1034,1674],[39,-5]],[[1074,1669],[-1,0]],[[1073,1669],[1,-1]],[[1076,1668],[1,0]],[[1077,1668],[-1,1]],[[1077,1668],[81,-22],[76,-64],[39,-4],[44,36]],[[1318,1615],[111,9],[44,-32]],[[1474,1592],[-1,0]],[[1473,1592],[1,-1]],[[1475,1591],[2,0]],[[1477,1591],[-1,1]],[[1477,1591],[81,-1]],[[1559,1591],[46,-4]],[[1613,1585],[-8,2]],[[1613,1585],[30,-6]],[[1644,1579],[-1,0]],[[1643,1579],[1,-1]],[[1644,1578],[0,-1]],[[1644,1577],[1,1]],[[1644,1577],[16,-80]],[[1660,1497],[-1,-2]],[[1660,1495],[0,2]],[[126,1794],[0,-1],[1,1],[-1,0]],[[520,1689],[1,0],[-1,1]],[[520,1690],[0,-1]],[[540,1665],[0,-1],[1,1],[-1,0]],[[860,1749],[0,1],[-2,-1]],[[858,1749],[1,-1],[1,1]],[[1075,1669],[-1,0]],[[1074,1669],[1,-1],[1,0],[-1,1]],[[1318,1614],[1,0],[-1,1]],[[1318,1615],[0,-1]],[[1475,1591],[0,1],[-1,0]],[[1474,1592],[0,-1],[1,0]],[[1559,1592],[-1,0],[0,-1],[1,0],[0,1]],[[1644,1580],[0,-1],[0,-1]],[[1644,1578],[1,1],[-1,1]],[[32,1821]],[[33,1820],[0,1]],[[3659,1227],[-4,0]],[[3658,1226],[1,0]],[[3659,1226]],[[3659,1227],[0,-1]],[[3659,1226]],[[3660,1227],[-1,0]],[[3659,1226],[1,1]],[[3661,1223],[-2,3]],[[3660,1227],[26,10]],[[3688,1237],[83,32],[38,-20],[45,15]],[[436,658],[56,-44],[47,18],[38,-19],[37,-44],[91,-31],[5,-48],[30,0],[30,-46],[30,2]],[[800,446]],[[800,446]],[[802,447],[-1,0]],[[801,446],[1,1]],[[802,447],[17,4]],[[819,451],[7,0]],[[826,451],[123,-105],[113,-33],[40,-48],[-20,-64],[101,-31],[3,-107]],[[2979,1304],[35,7]],[[3337,1224],[0,-2]],[[3337,1222],[1,0]],[[3337,1222],[0,1]],[[3549,747],[-55,112],[-68,24],[-130,168],[41,171]],[[3868,1269],[2,0]],[[3870,1269],[-1,0]],[[3870,1269],[32,-30]],[[3903,1239],[52,-66],[8,-42],[-24,-37],[63,-92]],[[4002,1002],[0,-2]],[[4004,1000],[-2,2]],[[4004,994],[17,-17]],[[3903,1240],[-1,-1],[1,-1],[0,1],[0,1]],[[4001,998],[4,-1],[0,2],[-4,1],[0,-2]],[[1299,1284],[87,-56],[-10,-38],[42,-30]],[[1418,1160],[0,-1]],[[1419,1160],[-1,0]],[[1420,1158],[1,-1]],[[1421,1157],[0,1]],[[1421,1157],[14,-25]],[[1440,1131],[0,-174],[-36,-138],[78,-52],[65,-82],[6,-66]],[[1594,430],[2,-4]],[[1759,8],[0,-8]],[[1420,1160],[-2,-1]],[[1418,1159],[2,-1],[1,1],[-1,1]],[[3455,1249],[51,18]],[[3514,1266],[-8,1]],[[3514,1266],[37,10]],[[3573,1277],[3,-19]],[[3576,1258],[0,-2]],[[3577,1257],[-1,1]],[[3577,1257],[-1,-1]],[[3576,1256],[1,0]],[[3577,1256],[0,1]],[[3578,1256],[-1,0]],[[3577,1256],[1,0]],[[3578,1256],[4,1]],[[3585,1258],[12,2]],[[3597,1260],[1,1]],[[3597,1261],[0,-1]],[[3598,1261],[1,1]],[[3598,1261],[0,1],[-1,0],[1,-1]],[[3598,1261]],[[3599,1262],[-1,0]],[[3599,1262],[74,-60]],[[2952,370],[-35,-38],[-16,-122],[-55,-91],[-74,-29],[15,6],[-44,26],[-47,-24],[-11,22],[-94,-102],[-70,-18]],[[3234,1229],[-47,-53],[-16,-107],[-65,-34],[-68,6],[-73,-44],[-1,-75],[-76,-82],[5,-42]],[[2893,797],[136,-88],[19,-39],[-46,-92],[14,-52],[-41,-26],[10,-67],[-32,-61]],[[2952,370],[1,0]],[[2953,370],[-1,0]],[[2953,370]],[[2953,372],[0,-1]],[[2953,371],[0,1]],[[3234,1229]],[[3234,1229]],[[3235,1229],[-1,0]],[[3238,1230],[-3,-1]],[[3235,1229],[3,1]],[[3262,1231],[-24,-1]],[[1422,1159],[-1,0]],[[1421,1159],[1,0]],[[1422,1159],[34,-14]],[[1456,1145]],[[1456,1145]],[[1456,1143],[1,0]],[[1457,1143],[0,1]],[[1457,1143],[43,-9]],[[1501,1134],[-1,0]],[[1500,1134],[1,-1]],[[1503,1133],[1,-1]],[[1503,1133],[-2,0]],[[1504,1132],[-1,1]],[[1504,1132],[64,-14]],[[1569,1119],[-1,-1]],[[1568,1118],[1,0]],[[1571,1119],[-1,0]],[[1571,1118],[0,1]],[[1571,1119],[165,0],[175,-50],[156,12]],[[2067,1081],[1,1]],[[2068,1082],[-1,-1]],[[2069,1082],[2,0]],[[2070,1083],[-1,0],[-1,-1]],[[2068,1082],[1,0],[1,1]],[[2071,1082],[-1,1]],[[2071,1082],[38,-74],[160,-16],[146,-70],[122,-6],[117,85],[94,-9],[8,32],[57,25],[125,-49],[92,35]],[[3030,1035],[1,0],[-1,0]],[[1455,1144],[1,-1],[1,1]],[[1457,1144],[-1,1],[-1,-1]],[[1569,1118],[0,-1],[2,0],[-1,1],[-1,0]],[[1435,1132],[5,-1]],[[2893,798],[0,-1]],[[145,1243],[-52,5]],[[0,1954],[585,25],[88,-23],[9,-56],[-37,-64],[-50,-49],[20,-27],[30,18],[61,21],[30,16],[21,26],[8,27],[16,21],[43,8],[123,-12],[46,-17],[210,-141],[99,-36],[251,-13],[70,-19],[31,-52],[35,23],[204,-62],[23,8],[43,37],[33,7],[32,-9],[66,-36],[207,-44],[237,-113],[59,-18],[648,-58],[12,-1],[77,-76],[61,61],[82,16],[81,-23],[56,-54],[18,0],[31,51],[27,14],[136,-16],[274,30],[0,-1344],[-4096,0],[0,1954]],[[532,1683],[153,157],[2,57],[49,-5],[17,-99],[-59,-17],[14,-41],[-83,15],[-56,-75],[-37,8]],[[1468,871],[217,122],[85,-80],[117,-32],[64,-48],[83,-26],[0,26],[128,-50],[40,27],[130,-34],[52,36],[76,4],[148,-65],[122,66],[158,23],[1,-40],[-29,2],[34,-4],[-24,-33],[12,-20],[-53,-52],[44,-81],[44,29],[22,-55],[-210,-142],[-41,0],[5,-52],[-58,-4],[-50,-71],[-72,-41],[-132,-25],[103,-70],[139,-38],[2,-48],[-72,-65],[-52,-7],[-147,73],[-85,95],[-24,-62],[-64,-43],[-30,39],[-24,-17],[-101,21],[-81,-36],[-63,2],[-67,61],[-112,-71],[-66,40],[-42,-27],[-81,36],[28,22],[5,140],[45,72],[5,74],[50,-18],[17,23],[-11,45],[40,106],[-31,39],[15,44],[-28,52],[-144,67],[-37,71]],[[0,1954],[22,1],[16,-42],[-38,-54],[0,95]],[[3428,1195],[34,69],[-6,53],[156,-5],[-68,-36],[35,1],[3,-22],[20,17],[-3,19],[13,15],[134,48],[27,-56],[76,-2],[19,-112],[30,-9],[-8,-100],[-60,-17],[-143,181],[-33,-91],[21,-54],[-15,-17],[-65,23],[-69,66],[-78,2],[-20,27]],[[3704,0],[-1,70],[77,70],[4,94],[-31,50],[82,25],[35,-93],[103,39],[41,-58],[42,39],[4,113],[36,18],[0,-367],[-66,0],[-65,29],[-58,-5],[-11,-24],[-192,0]],[[4096,394],[-82,249],[82,84],[0,-333]],[[769,0],[-12,47],[38,58],[75,-65],[43,21],[87,-27],[38,41],[159,-8],[193,119],[21,-49],[103,-3],[81,-36],[42,27],[66,-40],[112,71],[67,-61],[63,-2],[81,36],[101,-21],[24,17],[30,-39],[64,43],[24,62],[85,-95],[147,-83],[-1732,-13]],[[305,358],[40,25],[8,121],[46,34],[24,70],[27,102],[-16,43],[133,-11],[41,24],[-10,42],[94,28],[48,-93],[99,-22],[65,34],[68,-28],[7,-93],[42,158],[69,10],[39,61],[88,-28],[117,-160],[90,-54],[168,-3],[-2,-65],[75,-102],[-18,-27],[-50,18],[-73,-309],[-113,4],[-21,49],[-167,-95],[9,41],[-45,-69],[-98,20],[-64,-13],[-25,-36],[-87,27],[-43,-21],[-43,22],[-8,39],[-54,5],[-136,-67],[-38,89],[-48,34],[-6,47],[-67,53],[-43,-21],[-56,19],[-66,98]],[[1067,518],[19,-50],[3,-1],[-22,51]]]}