{"objects":{"water":{"type":"GeometryCollection","geometries":[{"type":"Polygon","properties":{"kind":"lake","name":"Lagoa Minim","area":5388715008,"sort_rank":200,"alkaline":true,"source":"naturalearthdata.com","min_zoom":0.0,"id":19},"arcs":[[18]]},{"type":"Polygon","properties":{"source":"naturalearthdata.com","kind":"lake","reservoir":true,"area":2055442304,"sort_rank":200,"min_zoom":0.0,"id":336},"arcs":[[19]]},{"type":"Polygon","properties":{"source":"naturalearthdata.com","kind":"lake","name":"Lago Llanquihue","area":1339700992,"sort_rank":200,"min_zoom":0.0,"id":63},"arcs":[[20]]},{"type":"Polygon","properties":{"kind":"lake","name":"Laguna Mar Chiquita","area":2732360448,"sort_rank":200,"alkaline":true,"source":"naturalearthdata.com","min_zoom":0.0,"id":102},"arcs":[[21]]},{"type":"MultiPolygon","properties":{"source":"naturalearthdata.com","kind":"ocean","area":1444195503964160,"sort_rank":200,"min_zoom":0.0,"id":1},"arcs":[[[22],[23],[24],[25],[26]],[[27],[28],[29],[30]],[[31],[32],[33],[34]],[[35]]]},{"type":"Polygon","properties":{"kind":"lake","name":"Itaip\u00fa Reservoir","reservoir":true,"area":3202253824,"sort_rank":200,"source":"naturalearthdata.com","min_zoom":0.0,"id":285},"arcs":[[36]]},{"type":"Polygon","properties":{"kind":"lake","name":"Represa de Tucur\u00ed","reservoir":true,"area":4062445824,"sort_rank":200,"source":"naturalearthdata.com","min_zoom":0.0,"id":334},"arcs":[[37]]},{"type":"Polygon","properties":{"source":"naturalearthdata.com","kind":"lake","name":"Lago Titicaca","area":8616878080,"sort_rank":200,"min_zoom":0.0,"id":23},"arcs":[[38]]},{"type":"Polygon","properties":{"kind":"lake","name":"Tr\u00eas Marias Reservoir","reservoir":true,"area":1710084992,"sort_rank":200,"source":"naturalearthdata.com","min_zoom":0.0,"id":335},"arcs":[[39]]},{"type":"Polygon","properties":{"source":"naturalearthdata.com","kind":"lake","name":"Lago Ranco","area":670192512,"sort_rank":200,"min_zoom":0.0,"id":191},"arcs":[[40]]},{"type":"Point","properties":{"label_placement":true,"kind":"lake","name":"Lago Titicaca","area":8616878080,"sort_rank":200,"source":"naturalearthdata.com","min_zoom":0.0,"id":23},"coordinates":[1883,2503]},{"type":"Point","properties":{"label_placement":true,"kind":"lake","name":"Lagoa Minim","area":5388715008,"sort_rank":200,"alkaline":true,"source":"naturalearthdata.com","min_zoom":0.0,"id":19},"coordinates":[3347,810]},{"type":"Point","properties":{"label_placement":true,"kind":"lake","name":"Represa de Tucur\u00ed","reservoir":true,"area":4062445824,"sort_rank":200,"source":"naturalearthdata.com","min_zoom":0.0,"id":334},"coordinates":[3685,3635]},{"type":"Point","properties":{"label_placement":true,"kind":"lake","name":"Itaip\u00fa Reservoir","reservoir":true,"area":3202253824,"sort_rank":200,"source":"naturalearthdata.com","min_zoom":0.0,"id":285},"coordinates":[3240,1620]},{"type":"Point","properties":{"label_placement":true,"kind":"lake","name":"Laguna Mar Chiquita","area":2732360448,"sort_rank":200,"alkaline":true,"source":"naturalearthdata.com","min_zoom":0.0,"id":102},"coordinates":[2495,1025]},{"type":"Point","properties":{"label_placement":true,"kind":"lake","name":"Tr\u00eas Marias Reservoir","reservoir":true,"area":1710084992,"sort_rank":200,"source":"naturalearthdata.com","min_zoom":0.0,"id":335},"coordinates":[4078,2234]},{"type":"Point","properties":{"label_placement":true,"kind":"lake","name":"Lago Ranco","area":670192512,"sort_rank":200,"source":"naturalearthdata.com","min_zoom":0.0,"id":191},"coordinates":[1601,77]},{"type":"LineString","properties":{"source":"naturalearthdata.com","kind":"lake","sort_rank":367,"alkaline":true,"boundary":true,"min_zoom":0.0,"id":19},"arcs":[41]},{"type":"LineString","properties":{"source":"naturalearthdata.com","kind":"lake","sort_rank":367,"boundary":true,"min_zoom":0.0,"id":23},"arcs":[42]},{"type":"LineString","properties":{"source":"naturalearthdata.com","kind":"lake","sort_rank":367,"boundary":true,"min_zoom":0.0,"id":63},"arcs":[43]},{"type":"LineString","properties":{"source":"naturalearthdata.com","kind":"lake","sort_rank":367,"alkaline":true,"boundary":true,"min_zoom":0.0,"id":102},"arcs":[44]},{"type":"LineString","properties":{"source":"naturalearthdata.com","kind":"ocean","sort_rank":205,"boundary":true,"min_zoom":0.0,"id":135},"arcs":[45]},{"type":"LineString","properties":{"source":"naturalearthdata.com","kind":"lake","sort_rank":367,"boundary":true,"min_zoom":0.0,"id":191},"arcs":[46]},{"type":"LineString","properties":{"source":"naturalearthdata.com","kind":"lake","reservoir":true,"sort_rank":367,"boundary":true,"min_zoom":0.0,"id":285},"arcs":[47]},{"type":"LineString","properties":{"source":"naturalearthdata.com","kind":"lake","reservoir":true,"sort_rank":367,"boundary":true,"min_zoom":0.0,"id":334},"arcs":[48]},{"type":"LineString","properties":{"source":"naturalearthdata.com","kind":"lake","reservoir":true,"sort_rank":367,"boundary":true,"min_zoom":0.0,"id":335},"arcs":[49]},{"type":"LineString","properties":{"source":"naturalearthdata.com","kind":"lake","reservoir":true,"sort_rank":367,"boundary":true,"min_zoom":0.0,"id":336},"arcs":[50]},{"type":"LineString","properties":{"source":"naturalearthdata.com","kind":"lake","sort_rank":367,"boundary":true,"min_zoom":0.0,"id":337},"arcs":[51]},{"type":"LineString","properties":{"source":"naturalearthdata.com","kind":"ocean","sort_rank":205,"boundary":true,"min_zoom":0.0,"id":352},"arcs":[52]},{"type":"LineString","properties":{"source":"naturalearthdata.com","kind":"ocean","sort_rank":205,"boundary":true,"min_zoom":0.0,"id":916},"arcs":[53]},{"type":"LineString","properties":{"source":"naturalearthdata.com","kind":"ocean","sort_rank":205,"boundary":true,"min_zoom":0.0,"id":917},"arcs":[54]},{"type":"LineString","properties":{"source":"naturalearthdata.com","kind":"ocean","sort_rank":205,"boundary":true,"min_zoom":0.0,"id":918},"arcs":[55]},{"type":"LineString","properties":{"source":"naturalearthdata.com","kind":"ocean","sort_rank":205,"boundary":true,"min_zoom":0.0,"id":1130},"arcs":[56]},{"type":"LineString","properties":{"source":"naturalearthdata.com","kind":"ocean","sort_rank":205,"boundary":true,"min_zoom":0.0,"id":1131},"arcs":[57]},{"type":"LineString","properties":{"source":"naturalearthdata.com","kind":"ocean","sort_rank":205,"boundary":true,"min_zoom":0.0,"id":1139},"arcs":[58]},{"type":"LineString","properties":{"source":"naturalearthdata.com","kind":"ocean","sort_rank":205,"boundary":true,"min_zoom":0.0,"id":1140},"arcs":[59]},{"type":"LineString","properties":{"source":"naturalearthdata.com","kind":"ocean","sort_rank":205,"boundary":true,"min_zoom":0.0,"id":1142},"arcs":[60]},{"type":"MultiLineString","properties":{"source":"naturalearthdata.com","kind":"ocean","sort_rank":205,"boundary":true,"min_zoom":0.0,"id":1143},"arcs":[[61],[62]]},{"type":"LineString","properties":{"source":"naturalearthdata.com","kind":"ocean","sort_rank":205,"boundary":true,"min_zoom":0.0,"id":1144},"arcs":[63]},{"type":"LineString","properties":{"source":"naturalearthdata.com","kind":"ocean","sort_rank":205,"boundary":true,"min_zoom":0.0,"id":1147},"arcs":[64]},{"type":"MultiLineString","properties":{"source":"naturalearthdata.com","kind":"ocean","sort_rank":205,"boundary":true,"min_zoom":0.0,"id":1201},"arcs":[[65],[66],[67],[68]]},{"type":"LineString","properties":{"source":"naturalearthdata.com","kind":"ocean","sort_rank":205,"boundary":true,"min_zoom":0.0,"id":1406},"arcs":[69]},{"type":"Point","properties":{"label_placement":true,"kind":"sea","name":"R\u00edo de la Plata","source":"openstreetmap.org","sort_rank":200,"min_zoom":3.0,"id":5261455417},"coordinates":[3041,571]}]},"buildings":{"type":"GeometryCollection","geometries":[]},"places":{"type":"GeometryCollection","geometries":[{"type":"Point","properties":{"name:kg":"Brazil","name:ty":"Brazil","name:ka":"\u10d1\u10e0\u10d0\u10d6\u10d8\u10da\u10d8\u10d0","name:ko":"\ube0c\ub77c\uc9c8","name:cv":"\u0411\u0440\u0430\u0437\u0438\u043b\u0438","name:cu":"\u0411\u0440\u0430\ua641\u0457\u043b\u0457\ua657","name:kl":"Brazil","name:cs":"Braz\u00edlie","name:ki":"Brazili","name:co":"Brasile","name:kv":"\u0411\u0440\u0430\u0437\u0438\u043b\u0438\u044f","name:ku":"Braz\u00eel","name:ti":"\u1265\u122b\u12da\u120d","name:ks":"\u0628\u0631\u065b\u0627\u0632\u0650\u0644","name:to":"Pal\u0101sili","name:ce":"\u0411\u0440\u0430\u0437\u0438\u043b\u0438\u044f","name:ta":"\u0baa\u0bbf\u0bb0\u0bc7\u0bb8\u0bbf\u0bb2\u0bcd","name:tg":"\u0411\u0440\u0430\u0437\u0438\u043b\u0438\u044f","name:ky":"\u0411\u0440\u0430\u0437\u0438\u043b\u0438\u044f","name:te":"\u0c2c\u0c4d\u0c30\u0c1c\u0c3f\u0c32\u0c4d","name:da":"Brasilien","name:de":"Brasilien","name:dz":"\u0f56\u0fb2\u0f0b\u0f5b\u0f72\u0f63","source":"openstreetmap.org","name:kn":"\u0cac\u0ccd\u0cb0\u0cc6\u0c9c\u0cbf\u0cb2\u0ccd","name:dv":"\u0784\u07aa\u0783\u07ac\u0792\u07a8\u078d\u07b0","name:km":"\u1794\u17d2\u179a\u17c1\u179f\u17ca\u17b8\u179b","name:lv":"Braz\u012blija","name:lt":"Brazilija","name:uz":"Braziliya","name:kk":"\u0411\u0440\u0430\u0437\u0438\u043b\u0438\u044f","name:ur":"\u0628\u0631\u0627\u0632\u06cc\u0644\u06cc","name:lb":"Brasilien","name:la":"Brasilia","name:lg":"Buraziiri","name:uk":"\u0411\u0440\u0430\u0437\u0438\u043b\u0456\u044f","name:ug":"\u0628\u0631\u0627\u0632\u0649\u0644\u0649\u064a\u06d5","name:li":"'t Braziel","name:ln":"Brez\u00edl\u025b","name:lo":"\u0e9a\u0ebc\u0eb2\u0e8a\u0eb4\u0ea7","name:el":"\u0392\u03c1\u03b1\u03b6\u03b9\u03bb\u03af\u03b1","name:eo":"Brazilo","name:en":"Brazil","name":"Brasil","name:tk":"Brazili\u00fda","name:ee":"Brazil nutome","name:th":"\u0e1a\u0e23\u0e32\u0e0b\u0e34\u0e25","name:et":"Brasiilia","name:ay":"Wrasil","name:rm":"Brasila","name:rn":"Burezili","name:az":"Braziliya","name:ig":"Brazil","name:ii":"\ua020\ua46d","name:as":"\u09ac\u09cd\u09f0\u09be\u099c\u09bf\u09b2","name:ar":"\u0627\u0644\u0628\u0631\u0627\u0632\u064a\u0644","name:io":"Brazilia","name:ak":"Brazil","name:am":"\u1265\u122b\u12da\u120d","name:it":"Brasile","name:aa":"Brazil","name:ru":"\u0411\u0440\u0430\u0437\u0438\u043b\u0438\u044f","name:rw":"Burezile","name:af":"Brasili\u00eb","name:zu":"i-Brazil","name:za":"Bahsih","name:zh-yue":"\u5df4\u897f","name:zh":"\u5df4\u897f","name:so":"Braasiil","name:sn":"Brazil","name:sl":"Brazilija","name:sk":"Braz\u00edlia","name:ja":"\u30d6\u30e9\u30b8\u30eb","name:si":"\u0db6\u0dca\u200d\u0dbb\u0dc3\u0dd3\u0dbd\u0dba","name:sh":"Brazil","name:sg":"Brez\u00eeli","name:se":"Brasilia","name:sc":"Brasile","name:br":"Brazil","name:bs":"Brazil","name:bm":"Berezili","name:bn":"\u09ac\u09cd\u09b0\u09be\u099c\u09bf\u09b2","name:bo":"\u0f56\u0f0b\u0f62\u0f71\u0f0b\u0f5b\u0f72\u0f63\u0f0d","name:bi":"Brazil","name:sw":"Brazili","name:be":"\u0411\u0440\u0430\u0437\u0456\u043b\u0456\u044f","name:bg":"\u0411\u0440\u0430\u0437\u0438\u043b\u0438\u044f","name:ba":"\u0411\u0440\u0430\u0437\u0438\u043b\u0438\u044f","name:sq":"Brazili","name:sa":"\u0938\u0902\u0938\u094d\u0915\u0943\u0924\u092e\u094d","name:ps":"\u0628\u0631\u0627\u0632\u06cc\u0644","name:om":"Brazil","min_zoom":2.0,"name:ro":"Brazilia","name:zh-min-nan":"Pa-se","name:os":"\u0411\u0440\u0430\u0437\u0438\u043b\u0438","name:or":"\u0b2c\u0b4d\u0b30\u0b3e\u0b1c\u0b3f\u0b32\u0b4d","name:pl":"Brazylia","name:st":"Brazil","name:sr":"\u0411\u0440\u0430\u0437\u0438\u043b","name:pa":"\u0a2c\u0a4d\u0a30\u0a3e\u0a1c\u0a3c\u0a40\u0a32","name:tr":"Brezilya","name:hi":"\u092c\u094d\u0930\u093e\u091c\u0940\u0932","name:sv":"Brasilien","name:he":"\u05d1\u05e8\u05d6\u05d9\u05dc","name:ha":"Birazil","name:hy":"\u0532\u0580\u0561\u0566\u056b\u056c\u056b\u0561","name:ht":"Brezil","name:hu":"Braz\u00edlia","name:hr":"Brazil","population":204450649,"kind":"country","name:is":"Brasil\u00eda","name:yi":"\u05d1\u05e8\u05d0\u05d6\u05d9\u05dc","name:yo":"Or\u00edl\u1eb9\u0301\u00e8de B\u00e0r\u00e0s\u00edl\u00ec","name:mt":"Bra\u017cil","name:ms":"Brazil","name:mr":"\u092c\u094d\u0930\u093e\u091d\u093f\u0932","name:my":"\u1018\u101b\u102c\u1007\u102e\u1038","official_name":"Rep\u00fablica Federativa do Brasil","int_name":"Brazil","name:mg":"Brezila","name:ml":"\u0d2c\u0d4d\u0d30\u0d38\u0d40\u0d7d","name:vi":"Brazil","name:mn":"\u0411\u0440\u0430\u0437\u0438\u043b","name:mi":"Par\u012bhi","id":424313734,"name:mk":"\u0411\u0440\u0430\u0437\u0438\u043b","name:vo":"Brasil\u00e4n","name:fa":"\u0628\u0631\u0632\u06cc\u0644","name:ff":"Beresiil","name:fi":"Brasilia","old_name:vi":"Ba T\u00e2y","name:fo":"Brasilia","alt_name:vi":"Brazil; Bra-xin","name:fr":"Br\u00e9sil","name:fy":"Brazylje","name:nl":"Brazili\u00eb","name:na":"Bradir","name:ne":"\u092c\u094d\u0930\u093e\u091c\u093f\u0932","name:wa":"Braezi","name:wo":"Breesil","name:nv":"Bwaz\u00ed\u00edl","name:ga":"An Bhrasa\u00edl","name:gd":"Braisil","name:gn":"Pindorama","name:gv":"Yn Vrasseel","name:gu":"\u0aac\u0acd\u0ab0\u0abe\u0a9d\u0abf\u0ab2","name:tt":"\u0411\u0440\u0430\u0437\u0438\u043b\u0438\u044f"},"coordinates":[3350,3063]},{"type":"Point","properties":{"name:cy":"Yr Ariannin","name:mt":"Ar\u0121entina","name:ko":"\uc544\ub974\ud5e8\ud2f0\ub098","name:kn":"\u0c85\u0cb0\u0ccd\u0c9c\u0cc6\u0c82\u0c9f\u0cc8\u0ca8\u0cbe","name:km":"\u17a2\u17b6\u17a0\u17d2\u179f\u1784\u17cb\u1791\u17b8\u1793","name:kk":"\u0410\u0440\u0433\u0435\u043d\u0442\u0438\u043d\u0430","name:ki":"Ajentina","name:ku":"Arjent\u00een","name:ti":"\u12a0\u122d\u1300\u1295\u1272\u1293","name:ks":"\u0623\u0631\u062c\u064e\u0646\u0679\u06cc\u0646\u0627","name:to":"\u02bbAsenitina","name:tl":"Arhentina","name:or":"\u0b06\u0b30\u0b4d\u0b1c\u0b47\u0b23\u0b4d\u0b1f\u0b3f\u0b28\u0b3e","name:pl":"Argentyna","name:ta":"\u0b85\u0bb0\u0bcd\u0b9c\u0bc6\u0ba9\u0bcd\u0b9f\u0bbf\u0ba9\u0bbe","name:tg":"\u0410\u0440\u0433\u0435\u043d\u0442\u0438\u043d\u0430","name:te":"\u0c06\u0c30\u0c4d\u0c1c\u0c46\u0c02\u0c1f\u0c3f\u0c28\u0c3e","name:hu":"Argent\u00edna","name:ka":"\u10d0\u10e0\u10d2\u10d4\u10dc\u10e2\u10d8\u10dc\u10d0","name:de":"Argentinien","name:dz":"\u0f68\u0f62\u0f0b\u0f47\u0f7a\u0f53\u0f0b\u0f4a\u0f72\u0f0b\u0f53","source":"openstreetmap.org","name:lv":"Argent\u012bna","name:tr":"Arjantin","name:hi":"\u0905\u0930\u094d\u091c\u0947\u0928\u094d\u091f\u0940\u0928\u093e","name:he":"\u05d0\u05e8\u05d2\u05e0\u05d8\u05d9\u05e0\u05d4","kind":"country","name:ur":"\u0627\u0631\u062c\u0646\u0679\u06cc\u0646\u0627","name:lb":"Argentinien","name:lg":"Arigentina","name:uk":"\u0410\u0440\u0433\u0435\u043d\u0442\u0438\u043d\u0430","name:hy":"\u0531\u0580\u0563\u0565\u0576\u057f\u056b\u0576\u0561","min_zoom":2.0,"name:li":"Argentini\u00eb","name:ln":"Arizantin\u025b","name:lo":"\u0ead\u0eb2\u0ec0\u0e88\u0e99\u0e95\u0eb4\u0e99\u0eb2\u0ec8","population":40117096,"name:el":"\u0391\u03c1\u03b3\u03b5\u03bd\u03c4\u03b9\u03bd\u03ae","name:eo":"Argentino","name":"Argentina","official_name":"Rep\u00fablica Argentina","name:ee":"Argentina nutome","name:th":"\u0e1b\u0e23\u0e30\u0e40\u0e17\u0e28\u0e2d\u0e32\u0e23\u0e4c\u0e40\u0e08\u0e19\u0e15\u0e34\u0e19\u0e32","name:gu":"\u0a86\u0ab0\u0acd\u0a9c\u0ac7\u0aa8\u0acd\u0a9f\u0ac0\u0aa8\u0abe","name:et":"Argentiina","name:nl":"Argentini\u00eb","name:yo":"Or\u00edl\u1eb9\u0301\u00e8de Agent\u00edn\u00e0","name:rm":"Argentinia","name:rn":"Arijantine","name:az":"Arqentina","name:mr":"\u0905\u0930\u094d\u091c\u0947\u0902\u091f\u093f\u0928\u093e","name:ar":"\u0627\u0644\u0623\u0631\u062c\u0646\u062a\u064a\u0646","name:my":"\u1021\u102c\u1002\u103b\u1004\u103a\u1010\u102e\u1038\u1014\u102c\u1038","name:io":"Arjentinia","name:is":"Argent\u00edna","name:am":"\u12a0\u122d\u1300\u1295\u1272\u1293","name:ml":"\u0d05\u0d7c\u0d1c\u0d7b\u0d31\u0d40\u0d28","name:ru":"\u0410\u0440\u0433\u0435\u043d\u0442\u0438\u043d\u0430","name:mn":"\u0410\u0440\u0433\u0435\u043d\u0442\u0438\u043d","name:mi":"\u0100ketina","id":249399280,"name:mk":"\u0410\u0440\u0433\u0435\u043d\u0442\u0438\u043d\u0430","name:af":"Argentini\u00eb","name:zu":"i-Argentina","name:ha":"Arjantiniya","name:ff":"Arjantiin","name:fi":"Argentiina","old_name:vi":"\u00c1 C\u0103n \u0110\u00ecnh","name:mg":"Arzantina","name:fr":"Argentine","name:fy":"Argentynje","name:vo":"Larg\u00e4nt\u00e4n","name:zh":"\u963f\u6839\u5ef7","name:so":"Arjantiin","name:sn":"Ajentina","name:sk":"Argent\u00edna","name:ja":"\u30a2\u30eb\u30bc\u30f3\u30c1\u30f3","name:si":"\u0d86\u0dbb\u0dca\u0da2\u0dd9\u0db1\u0dca\u0da7\u0dd2\u0db1\u0dcf\u0dc0","name:fa":"\u0622\u0631\u0698\u0627\u0646\u062a\u06cc\u0646","name:sg":"Arzant\u00eena","name:ne":"\u0905\u0930\u094d\u091c\u0947\u0923\u094d\u091f\u093f\u0928\u093e","name:br":"Arc\u02bchantina","name:bm":"Arizantin","name:bn":"\u0986\u09b0\u09cd\u099c\u09c7\u09a3\u09cd\u099f\u09be\u0987\u09a8\u09be","name:bo":"\u0f68\u0f62\u0f0b\u0f47\u0f7a\u0f53\u0f0b\u0f4a\u0f72\u0f0b\u0f53\u0f0d","name:sw":"Ajentina","name:be":"\u0410\u0440\u0433\u0435\u043d\u0446\u0456\u043d\u0430","name:bg":"\u0410\u0440\u0436\u0435\u043d\u0442\u0438\u043d\u0430","name:sr":"\u0410\u0440\u0433\u0435\u043d\u0442\u0438\u043d\u0430","name:sq":"Argjentina","name:ga":"An Airgint\u00edn","name:gd":"An Argantain","name:gl":"Arxentina","name:gv":"Yn Argenteen","name:ak":"Agy\u025bntina"},"coordinates":[2279,598]},{"type":"Point","properties":{"name:ka":"\u10de\u10d4\u10e0\u10e3","name:ko":"\ud398\ub8e8","name:cv":"\u041f\u0435\u0440\u0443","name:km":"\u1794\u17c9\u17c1\u179a\u17bc","name:kl":"Peru","name:cs":"Peru","name:ki":"Peru","name:co":"Per\u00f9","name:kv":"\u041f\u0435\u0440\u0443","name:ku":"Per\u00fb","name:ti":"\u1354\u1229","name:ks":"\u067e\u06cc\u0656\u0631\u0648\u0657","name:to":"Pel\u016b","name:tl":"Peru","name:ce":"\u041f\u0435\u0440\u0443","name:ta":"\u0baa\u0bc6\u0bb0\u0bc1","name:tg":"\u041f\u0435\u0440\u0443","name:ky":"\u041f\u0435\u0440\u0443","name:te":"\u0c2a\u0c46\u0c30\u0c42","name:cy":"Periw","name:hr":"Peru","name:da":"Peru","name:de":"Peru","name:dz":"\u0f54\u0f7a\u0f0b\u0f62\u0f74","source":"openstreetmap.org","name:kn":"\u0caa\u0cc6\u0cb0\u0cc1","name:dv":"\u0795\u07ac\u0783\u07ab","name:lv":"Peru","name:lt":"Peru","name:uz":"Peru","name:kk":"\u041f\u0435\u0440\u0443","name:ur":"\u067e\u06cc\u0631\u0648","name:lb":"Peru","name:la":"Peruvia","name:lg":"Peru","name:uk":"\u041f\u0435\u0440\u0443","name:ug":"\u067e\u06d0\u0631\u06c7","name:li":"Peru","name:ln":"Peru","name:lo":"\u0ec0\u0e9b\u0ea5\u0eb9","name:el":"\u03a0\u03b5\u03c1\u03bf\u03cd","name:eo":"Peruo","name:en":"Peru","name":"Per\u00fa","name:tk":"Peru","name:ee":"Peru","name:th":"\u0e1b\u0e23\u0e30\u0e40\u0e17\u0e28\u0e40\u0e1b\u0e23\u0e39","name:eu":"Peru","name:et":"Peruu","name:ay":"Piruw","name:rm":"Peru","name:rn":"Peru","name:az":"Peru","name:id":"Peru","name:ar":"\u0628\u064a\u0631\u0648","name:io":"Peru","name:ak":"Peru","name:am":"\u1354\u1229","name:it":"Per\u00f9","name:ru":"\u041f\u0435\u0440\u0443","name:ab":"\u041f\u0435\u0440\u0443","name:af":"Peru","name:zu":"Peru","name:zh-yue":"\u79d8\u9b6f","name:zh":"\u79d8\u9c81","name:so":"Peru","name:sn":"Peru","name:sl":"Peru","name:sk":"Peru","name:ja":"\u30da\u30eb\u30fc","name:si":"\u0db4\u0dda\u0dbb\u0dd6","name:sh":"Peru","name:sg":"Per\u00fcu","name:se":"Peru","name:sa":"\u092a\u0947\u0930\u0941","name:bs":"Peru","name:bm":"Peru","name:bn":"\u09aa\u09c7\u09b0\u09c1","name:bo":"\u0f54\u0f7a\u0f0b\u0f62\u0f74\u0f0d","name:bi":"Peru","name:sw":"Peru","name:be":"\u041f\u0435\u0440\u0443","name:su":"P\u00e9ru","name:bg":"\u041f\u0435\u0440\u0443","name:ss":"IPheru","name:ba":"\u041f\u0435\u0440\u0443","name:sq":"Peruja","name:jv":"Peru","name:br":"Perou","name:ia":"Peru","name:pt":"Peru","name:ps":"\u067e\u064a\u0631\u0648","name:oc":"Per\u00f3","min_zoom":2.0,"name:ro":"Peru","name:pa":"\u0a2a\u0a47\u0a30\u0a42","name:os":"\u041f\u0435\u0440\u0443","name:or":"\u0b2a\u0b47\u0b30\u0b41","name:pl":"Peru","name:sr":"\u041f\u0435\u0440\u0443","name:tr":"Peru","name:hi":"\u092a\u0947\u0930\u0942","name:sv":"Peru","name:he":"\u05e4\u05e8\u05d5","name:ha":"Peru","name:hy":"\u054a\u0565\u0580\u0578\u0582","name:ht":"Pewou","name:hu":"Peru","name:qu":"Piruw","population":29180899,"kind":"country","name:yi":"\u05e4\u05e2\u05e8\u05d5","name:iu":"\u1431\u1549","name:mt":"Per\u00f9","name:ms":"Peru","name:mr":"\u092a\u0947\u0930\u0942","name:my":"\u1015\u102e\u101b\u1030\u1038\u1014\u102d\u102f\u1004\u103a\u1004\u1036","official_name":"Rep\u00fablica del Per\u00fa","name:kw":"Perou","name:mg":"Peroa","name:ml":"\u0d2a\u0d46\u0d31\u0d41","name:vi":"Peru","name:mn":"\u041f\u0435\u0440\u0443","name:mi":"Per\u016b","id":249399406,"name:mk":"\u041f\u0435\u0440\u0443","name:vo":"Peruv\u00e4n","name:fa":"\u067e\u0631\u0648","name:rw":"Peru","name:ff":"Peru","name:fi":"Peru","name:fo":"Peru","name:fr":"P\u00e9rou","name:fy":"Per\u00fb","int_name":"Peru","name:nl":"Peru","name:nn":"Peru","name:no":"Peru","name:na":"Peru","name:ne":"\u092a\u0947\u0930\u0942","name:wo":"Peru","name:ga":"Peiri\u00fa","name:gd":"Pear\u00f9","name:gn":"Per\u0169","name:gv":"Yn Pheroo","name:gu":"\u0aaa\u0ac7\u0ab0\u0ac1","name:tt":"\u041f\u0435\u0440\u0443"},"coordinates":[1361,3409]},{"type":"Point","properties":{"source":"naturalearthdata.com","kind":"locality","name":"Sao Paulo","population":18845000,"region_capital":true,"min_zoom":2.0,"id":7286},"coordinates":[3948,1741]},{"type":"Point","properties":{"name:wa":"Tchili","old_name:vi":"Ch\u00ed L\u1ee3i","name:ps":"\u0686\u06d0\u0644\u064a","name:ka":"\u10e9\u10d8\u10da\u10d4","name:mt":"\u010aili","name:tr":"\u015eili","name:cv":"\u0427\u0438\u043b\u0438","name:km":"\u179f\u17ca\u17b8\u179b\u17b8","name:kk":"\u0427\u0438\u043b\u0438","name:tt":"\u0427\u0438\u043b\u0438","name:co":"Cile","name:kv":"\u0427\u0438\u043b\u0438","name:ku":"\u015e\u00eele","name:ti":"\u127a\u120a","name:ks":"\u0686\u0650\u0644\u06cc","name:to":"Sili","name:tl":"Tsile","name:pa":"\u0a1a\u0a3f\u0a32\u0a47","name:os":"\u0427\u0438\u043b\u0438","name:or":"\u0b1a\u0b3f\u0b32\u0b4d\u0b32\u0b40","name:ce":"\u0427\u0438\u043b\u0438","name:ta":"\u0b9a\u0bbf\u0bb2\u0bbf","name:tg":"\u0427\u0438\u043b\u0438","name:ca":"Xile","name:te":"\u0c1a\u0c3f\u0c32\u0c3f","name:hr":"\u010cile","name:ln":"S\u00edli","name:sr":"\u0427\u0438\u043b\u0435","name:dz":"\u0f45\u0f72\u0f0b\u0f63\u0f72","source":"openstreetmap.org","name:rw":"Shili","name:nv":"Ch\u00edilii","name:kn":"\u0c9a\u0cbf\u0cb2\u0cbf","name:dv":"\u0797\u07a8\u078d\u07a9","name:lv":"\u010c\u012ble","name:lt":"\u010cil\u0117","name:uz":"Chili","name:he":"\u05e6'\u05d9\u05dc\u05d4","min_zoom":2.0,"kind":"country","name:ur":"\u0686\u0644\u06cc","name:la":"Chilia","name:lg":"Cile","name:uk":"\u0427\u0456\u043b\u0456","name:hy":"\u0549\u056b\u056c\u056b","name:ug":"\u0686\u0649\u0644\u0649","name:li":"Chili","name:qu":"Chili","name:lo":"\u0e8a\u0eb4\u0eaa\u0eb4","population":16634603,"name:el":"\u03a7\u03b9\u03bb\u03ae","name:eo":"\u0108ilio","name":"Chile","official_name":"Rep\u00fablica de Chile","name:tk":"\u00c7ili","name:ee":"Tsile nutome","name:th":"\u0e1b\u0e23\u0e30\u0e40\u0e17\u0e28\u0e0a\u0e34\u0e25\u0e35","name:eu":"Txile","name:et":"T\u0161iili","name:nl":"Chili","name:yo":"Or\u00edl\u1eb9\u0301\u00e8de \u1e63\u00edl\u00e8","name:ay":"Chili","name:yi":"\u05d8\u05e9\u05d9\u05dc\u05e2","name:rn":"Shili","name:az":"\u00c7ile","name:id":"Chili","name:ms":"Cile","name:mr":"\u091a\u093f\u0932\u0940","name:ar":"\u0634\u064a\u0644\u064a","name:my":"\u1001\u103b\u102e\u101c\u102e","name:io":"Chili","name:ak":"Kyili","name:am":"\u127a\u120a","name:it":"Cile","name:ml":"\u0d1a\u0d3f\u0d32\u0d3f","name:ru":"\u0427\u0438\u043b\u0438","name:ab":"\u0427\u0438\u043b\u0438","name:mi":"Hiri","id":424311104,"name:mk":"\u0427\u0438\u043b\u0435","name:af":"Chili","name:zu":"i-Chile","name:ha":"Cayile","name:mn":"\u0427\u0438\u043b\u0438","name:ff":"Cilii","name:hi":"\u091a\u093f\u0932\u0940","name:mg":"Shili","name:fo":"Kili","alt_name:vi":"Chi-l\u00ea","name:fr":"Chili","name:wo":"Sili","name:ky":"\u0427\u0438\u043b\u0438","name:zh-yue":"\u667a\u5229","name:fy":"Sily","name:vo":"Cil\u00e4n","name:zh":"\u667a\u5229","name:so":"Jili","name:sl":"\u010cile","name:sk":"\u010cile","name:ja":"\u30c1\u30ea","name:si":"\u0da0\u0dd2\u0dbd\u0dd3","name:sh":"\u010cile","name:sg":"Shil\u00efi","name:na":"Tsire","name:se":"\u010ciile","name:sc":"Cile","name:ne":"\u091a\u093f\u0932\u0940","name:sa":"\u091a\u093f\u0932\u0947","name:bs":"\u010cile","name:bm":"Sili","name:bn":"\u099a\u09bf\u09b2\u09bf","name:bo":"\u0f45\u0f72\u0f0b\u0f63\u0f72\u0f0d","name:be":"\u0427\u044b\u043b\u0456","name:su":"Chili","name:bg":"\u0427\u0438\u043b\u0438","name:ss":"IShile","name:ba":"\u0427\u0438\u043b\u0438","name:sq":"Kili","name:ko":"\uce60\ub808","name:ga":"An tSile","name:gd":"An t-Sile","name:ht":"Chili","name:jv":"Chili","name:fa":"\u0634\u06cc\u0644\u06cc","name:gv":"Yn \u00c7hillee","name:gu":"\u0a9a\u0abf\u0ab2\u0ac0"},"coordinates":[1700,921]},{"type":"Point","properties":{"name:pt":"Equador","name:ps":"\u0627\u06d0\u06a9\u0648\u0627\u062f\u0648\u0631","name:ka":"\u10d4\u10d9\u10d5\u10d0\u10d3\u10dd\u10e0\u10d8","name:mt":"Ekwador","name:ko":"\uc5d0\ucf70\ub3c4\ub974","name:cv":"\u042d\u043a\u0432\u0430\u0434\u043e\u0440","name:km":"\u17a2\u17c1\u1780\u17d2\u179c\u17b6\u178c\u17d0\u179a","name:cs":"Ekv\u00e1dor","name:ki":"Ekwado","name:kw":"Pow Ekwadorel","name:tr":"Ekvador","name:ku":"Ekuador","name:ti":"\u12a2\u12b3\u12f6\u122d","name:ks":"\u0627\u0650\u06a9\u0648\u0627\u0691\u0648\u0631","name:to":"\u02bbEkuetoa","name:tl":"Ekwador","name:pa":"\u0a0f\u0a15\u0a41\u0a06\u0a26\u0a4b\u0a30","name:os":"\u042d\u043a\u0432\u0430\u0434\u043e\u0440","name:or":"\u0b07\u0b15\u0b4d\u0b71\u0b3e\u0b21\u0b4b\u0b30\u0b4d","name:ce":"\u042d\u043a\u0432\u0430\u0434\u043e\u0440","name:ta":"\u0b88\u0b95\u0bcd\u0bb5\u0b9f\u0bbe\u0bb0\u0bcd","name:tg":"\u042d\u043a\u0443\u0430\u0434\u043e\u0440","name:ca":"Equador","name:te":"\u0c08\u0c15\u0c4d\u0c35\u0c21\u0c4b\u0c30\u0c4d","name:cy":"Ecwador","name:ln":"Ekwat\u025b\u0301l\u025b","name:sr":"\u0415\u043a\u0432\u0430\u0434\u043e\u0440","name:dz":"\u0f68\u0f7a\u0f0b\u0f41\u0fad\u0f0b\u0f4c\u0f7c\u0f62","source":"openstreetmap.org","name:nv":"K\u00e9yah Nahasdz\u00e1\u00e1n A\u0142n\u00edi\u02bcgi Si\u02bc\u00e1n\u00edg\u00ed\u00ed","name:kn":"\u0c88\u0c95\u0ccd\u0cb5\u0cc6\u0ca1\u0cbe\u0cb0\u0ccd","name:yi":"\u05e2\u05e7\u05d5\u05d5\u05d0\u05d3\u05d0\u05e8","name:dv":"\u0787\u07a8\u0786\u07aa\u0787\u07ac\u0791\u07af\u0783\u07aa","name:lv":"Ekvadora","name:lt":"Ekvadoras","name:uz":"Ekvador","name:kk":"\u042d\u043a\u0432\u0430\u0434\u043e\u0440","name:he":"\u05d0\u05e7\u05d5\u05d0\u05d3\u05d5\u05e8","min_zoom":2.0,"kind":"country","name:ur":"\u0627\u06cc\u06a9\u0648\u0627\u0688\u0648\u0631","name:la":"Aequatoria","name:lg":"Ekwado","name:uk":"\u0415\u043a\u0432\u0430\u0434\u043e\u0440","name:hy":"\u0537\u056f\u057e\u0561\u0564\u0578\u0580","name:ug":"\u0626\u06d0\u0643\u06cb\u0627\u062f\u0648\u0631","name:hr":"Ekvador","name:lo":"\u0ec0\u0ead\u0e81\u0ea7\u0eb2\u0e94\u0ecd","name:oc":"Eq\u00fcator","population":13755680,"name:el":"\u0399\u03c3\u03b7\u03bc\u03b5\u03c1\u03b9\u03bd\u03cc\u03c2","name:eo":"Ekvadoro","name":"Ecuador","name:is":"Ekvador","name:ee":"Ekuad\u0254 nutome","name:th":"\u0e1b\u0e23\u0e30\u0e40\u0e17\u0e28\u0e40\u0e2d\u0e01\u0e27\u0e32\u0e14\u0e2d\u0e23\u0e4c","name:eu":"Ekuador","name:yo":"Or\u00edl\u1eb9\u0301\u00e8de Eku\u00e1d\u00f2","name:ay":"Ikwadur","alt_name:el":"\u0395\u03ba\u03bf\u03c5\u03b1\u03b4\u03cc\u03c1","name:rn":"Ekwateri","name:az":"Ekvador","name:id":"Ekuador","name:mr":"\u0907\u0915\u094d\u0935\u093e\u0921\u094b\u0930","name:qu":"Ikwadur","name:ar":"\u0625\u0643\u0648\u0627\u062f\u0648\u0631","name:my":"\u1021\u102e\u1000\u103d\u1031\u1012\u1031\u102b","name:io":"Equador","name:gn":"Ekuator","name:ak":"Ikuwad\u0254","name:am":"\u12a2\u12b3\u12f6\u122d","name:fo":"Ekvador","name:ml":"\u0d07\u0d15\u0d4d\u0d35\u0d21\u0d4b\u0d7c","name:ru":"\u042d\u043a\u0432\u0430\u0434\u043e\u0440","name:rw":"Ekwadoro","name:mi":"Ekuatoa","name:pl":"Ekwador","name:mk":"\u0415\u043a\u0432\u0430\u0434\u043e\u0440","name:vo":"Lekvador\u00e4n","name:zu":"i-Ecuador","name:ha":"Ekwador","name:mn":"\u042d\u043a\u0432\u0430\u0434\u043e\u0440","name:ff":"Ekuwatoor","name:hi":"\u0907\u0915\u094d\u0935\u093e\u0921\u094b\u0930","name:mg":"Ekoatera","id":424298227,"official_name":"Rep\u00fablica del Ecuador","name:fr":"\u00c9quateur","name:zh-yue":"\u5384\u74dc\u591a\u723e","name:fy":"Ekwador","name:zh":"\u5384\u74dc\u591a\u5c14","name:so":"Ikuwadoor","name:sl":"Ekvador","name:sk":"Ekv\u00e1dor","name:ja":"\u30a8\u30af\u30a2\u30c9\u30eb","name:si":"\u0d89\u0d9a\u0dca\u0dc0\u0daf\u0ddd\u0dbb\u0dba","name:sh":"Ekvador","name:sg":"Ekuat\u00ebre","name:na":"Ekwador","name:ne":"\u0907\u0915\u094d\u0935\u0921\u0947\u0930","name:sa":"\u090f\u0915\u094d\u0935\u093e\u0921\u094b\u0930","name:bs":"Ekvador","name:bm":"Ekwat\u0254r","name:bn":"\u0987\u0995\u09c1\u09af\u09bc\u09c7\u09a1\u09b0","name:bo":"\u0f68\u0f72\u0f0b\u0f41\u0fad\u0f0b\u0f4c\u0f7c\u0f62\u0f0d","name:sw":"Ekwado","name:be":"\u042d\u043a\u0432\u0430\u0434\u043e\u0440","name:su":"\u00c9kuador","name:bg":"\u0415\u043a\u0432\u0430\u0434\u043e\u0440","name:wo":"Ekwadoor","name:ba":"\u042d\u043a\u0432\u0430\u0434\u043e\u0440","name:sq":"Ekuator","name:ga":"Eacuad\u00f3r","name:gd":"Eacuador","name:ht":"Ekwat\u00e8","name:jv":"Ekuador","name:fa":"\u0627\u06a9\u0648\u0627\u062f\u0648\u0631","name:gu":"\u0a8f\u0a95\u0acd\u0ab5\u0abe\u0aa1\u0acb\u0ab0","name:tt":"\u042d\u043a\u0432\u0430\u0434\u043e\u0440"},"coordinates":[968,3962]},{"type":"Point","properties":{"name:pt":"Bol\u00edvia","name:ps":"\u0628\u0648\u0644\u06d0\u0648\u06cc\u0627","name:ka":"\u10d1\u10dd\u10da\u10d8\u10d5\u10d8\u10d0","name:mt":"Bolivja","name:ko":"\ubcfc\ub9ac\ube44\uc544","name:cv":"\u0411\u043e\u043b\u0438\u0432\u0438","name:km":"\u1794\u17bc\u179b\u17b8\u179c\u17b8","name:cs":"Bol\u00edvie","name:tt":"\u0411\u043e\u043b\u0438\u0432\u0438\u044f","name:kw":"Bolivi","name:tr":"Bolivya","name:ku":"Bol\u00eevya","name:ti":"\u1266\u120a\u126a\u12eb","name:ks":"\u0628\u0648\u0644\u0650\u0648\u0650\u06cc\u0627","name:to":"Pol\u012bvia","name:tl":"Bulibya","name:pa":"\u0a2c\u0a4b\u0a32\u0a40\u0a35\u0a40\u0a06","name:os":"\u0411\u043e\u043b\u0438\u0432\u0438","name:or":"\u0b2c\u0b4b\u0b32\u0b2d\u0b3f\u0b06","name:ce":"\u0411\u043e\u043b\u0438\u0432\u0438","name:ta":"\u0baa\u0bca\u0bb2\u0bbf\u0bb5\u0bbf\u0baf\u0bbe","name:tg":"\u0411\u043e\u043b\u0438\u0432\u0438\u044f","name:ca":"Bol\u00edvia","name:te":"\u0c2c\u0c4a\u0c32\u0c40\u0c35\u0c3f\u0c2f\u0c3e","name:cy":"Bolifia","name:ln":"Bolivi","name:de":"Bolivien","name:dz":"\u0f56\u0fb7\u0f7a\u0f0b\u0f63\u0f72\u0f0b\u0f56\u0f72\u0f0b\u0f61","source":"openstreetmap.org","name:rw":"Boliviya","name:nv":"Bol\u00edbiya","name:kn":"\u0cac\u0cc6\u0cc2\u0cb2\u0cbf\u0cb5\u0cbf\u0caf\u0cbe","name:dv":"\u0784\u07ae\u078d\u07a9\u0788\u07a8\u0787\u07a7","name:lv":"Bol\u012bvija","name:lt":"Bolivija","name:uz":"Boliviya","name:kk":"\u0411\u043e\u043b\u0438\u0432\u0438\u044f","name:he":"\u05d1\u05d5\u05dc\u05d9\u05d5\u05d5\u05d9\u05d4","min_zoom":2.0,"kind":"country","name:ur":"\u0628\u0648\u0644\u06cc\u0648\u06cc\u0627","name:lb":"Bolivien","name:lg":"Boliviya","name:uk":"\u0411\u043e\u043b\u0456\u0432\u0456\u044f","name:hy":"\u0532\u0578\u056c\u056b\u057e\u056b\u0561","name:ug":"\u0628\u0648\u0644\u0649\u06cb\u0649\u064a\u06d5","name:hu":"Bol\u00edvia","name:hr":"Bolivija","name:lo":"\u0ec2\u0e9a\u0ea5\u0eb4\u0ec0\u0ea7\u0e8d","name:oc":"Bol\u00edvia","population":10027254,"name:el":"\u0392\u03bf\u03bb\u03b9\u03b2\u03af\u03b1","name:eo":"Bolivio","name":"Bolivia","name:ee":"Bolivia nutome","name:th":"\u0e1b\u0e23\u0e30\u0e40\u0e17\u0e28\u0e42\u0e1a\u0e25\u0e34\u0e40\u0e27\u0e35\u0e22","name:eu":"Bolibia","name:et":"Boliivia","name:yo":"Or\u00edl\u1eb9\u0301\u00e8de B\u1ecd\u0300l\u00edf\u00edy\u00e0","name:ay":"Wuliwya","name:yi":"\u05d1\u05d0\u05dc\u05d9\u05d5\u05d5\u05d9\u05e2","name:rn":"Boliviya","name:az":"Boliviya","name:mr":"\u092c\u094b\u0932\u093f\u0935\u094d\u0939\u093f\u092f\u093e","name:qu":"Buliwya","name:ar":"\u0628\u0648\u0644\u064a\u0641\u064a\u0627","name:my":"\u1018\u102d\u102f\u101c\u102e\u1038\u1018\u102e\u1038\u101a\u102c\u1038","official_name":"Estado Plurinacional de Bolivia","name:gn":"Vol\u00edvia","name:is":"B\u00f3liv\u00eda","name:am":"\u1266\u120a\u126a\u12eb","name:ml":"\u0d2c\u0d4a\u0d33\u0d40\u0d35\u0d3f\u0d2f","name:ru":"\u0411\u043e\u043b\u0438\u0432\u0438\u044f","name:ab":"\u0411\u043e\u043b\u0438\u0432\u0438\u0430","name:mi":"Poriwia","name:pl":"Boliwia","name:mk":"\u0411\u043e\u043b\u0438\u0432\u0438\u0458\u0430","name:af":"Bolivi\u00eb","name:zu":"i-Bolivia","name:ha":"Bolibiya","name:mn":"\u0411\u043e\u043b\u0438\u0432","name:ff":"Boliwii","name:hi":"\u092c\u094b\u0932\u093f\u0935\u093f\u092f\u093e","id":424313730,"name:fr":"Bolivie","name:wo":"Boliibi","name:ky":"\u0411\u043e\u043b\u0438\u0432\u0438\u044f","name:zh-yue":"\u73bb\u5229\u7dad\u4e9e","name:vo":"Boliv\u00e4n","name:zh":"\u73bb\u5229\u7ef4\u4e9a","name:so":"Boliifiya","name:sr":"\u0411\u043e\u043b\u0438\u0432\u0438\u0458\u0430","name:sl":"Bolivija","name:sk":"Bol\u00edvia","name:ja":"\u30dc\u30ea\u30d3\u30a2","name:si":"\u0db6\u0ddc\u0dbd\u0dd3\u0dc0\u0dd2\u0dba\u0dcf\u0dc0","name:sh":"Bolivija","name:sg":"Boliv\u00efi","name:na":"Boribiya","name:ne":"\u092c\u094b\u0932\u093f\u092d\u093f\u092f\u093e","name:sa":"\u092c\u094b\u0932\u093f\u0935\u093f\u092f\u093e","name:bs":"Bolivija","name:bm":"Bolivi","name:bn":"\u09ac\u09cb\u09b2\u09bf\u09ad\u09bf\u09af\u09bc\u09be","name:bo":"\u0f56\u0f7c\u0f0b\u0f63\u0f72\u0f0b\u0f5d\u0f72\u0f61\u0f0d","name:be":"\u0411\u0430\u043b\u0456\u0432\u0456\u044f","name:bg":"\u0411\u043e\u043b\u0438\u0432\u0438\u044f","name:ss":"IBholiviya","name:ba":"\u0411\u043e\u043b\u0438\u0432\u0438\u044f","name:sq":"Bolivi","name:ga":"An Bholaiv","name:gd":"Boilibhia","name:ht":"Bolivi","name:wa":"Boliveye","name:fa":"\u0628\u0648\u0644\u06cc\u0648\u06cc","name:gv":"Yn Volivia","name:gu":"\u0aac\u0acb\u0ab2\u0abf\u0ab5\u0abf\u0aaf\u0abe"},"coordinates":[2276,2391]},{"type":"Point","properties":{"name:pt":"Paraguai","name:ka":"\u10de\u10d0\u10e0\u10d0\u10d2\u10d5\u10d0\u10d8","name:ko":"\ud30c\ub77c\uacfc\uc774","name:cv":"\u041f\u0430\u0440\u0430\u0433\u0432\u0430\u0439","name:kk":"\u041f\u0430\u0440\u0430\u0433\u0432\u0430\u0439","name:tt":"\u041f\u0430\u0440\u0430\u0433\u0432\u0430\u0439","name:kw":"Paragway","min_zoom":2.0,"name:pa":"\u0a2a\u0a48\u0a30\u0a3e\u0a17\u0a41\u0a0f","name:os":"\u041f\u0430\u0440\u0430\u0433\u0432\u0430\u0439","name:or":"\u0b2a\u0b3e\u0b30\u0b3e\u0b17\u0b41\u0b0f","name:ce":"\u041f\u0430\u0440\u0430\u0433\u0432\u0430\u0439","name:ta":"\u0baa\u0bb0\u0b95\u0bc1\u0bb5\u0bc8","name:tg":"\u041f\u0430\u0440\u0430\u0433\u0432\u0430\u0439","name:ca":"Paraguai","name:hr":"Paragvaj","name:sr":"\u041f\u0430\u0440\u0430\u0433\u0432\u0430\u0458","source":"openstreetmap.org","name:kn":"\u0caa\u0cc6\u0cb0\u0c97\u0ccd\u0cb5\u0cc6","name:dv":"\u0795\u07ac\u0783\u07a6\u078e\u07aa\u0787\u07ad","name:lv":"Paragvaja","name:lt":"Paragvajus","name:hi":"\u092a\u0948\u0930\u093e\u0917\u094d\u0935\u0947","name:he":"\u05e4\u05e8\u05d2\u05d5\u05d5\u05d0\u05d9","kind":"country","name:ur":"\u067e\u06cc\u0631\u0627\u06af\u0648\u0626\u06d2","name:la":"Paraquaria","name:uk":"\u041f\u0430\u0440\u0430\u0433\u0432\u0430\u0439","name:hy":"\u054a\u0561\u0580\u0561\u0563\u057e\u0561\u0575","name:ug":"\u067e\u0627\u0631\u0627\u06af\u06cb\u0627\u064a","name:qu":"Parawayi","name:oc":"Paraguai","population":7012433,"name:el":"\u03a0\u03b1\u03c1\u03b1\u03b3\u03bf\u03c5\u03ac\u03b7","name:eo":"Paragvajo","name":"Paraguay","name:th":"\u0e1b\u0e23\u0e30\u0e40\u0e17\u0e28\u0e1b\u0e32\u0e23\u0e32\u0e01\u0e27\u0e31\u0e22","name:ln":"Palagway","name:eu":"Paraguai","name:yo":"Parag\u00fa\u00e1\u00ec","name:ay":"Parawayi","name:mt":"Paragwaj","name:az":"Paraqvay","name:mr":"\u092a\u0947\u0930\u093e\u0917\u094d\u0935\u0947","name:ar":"\u0628\u0627\u0631\u0627\u063a\u0648\u0627\u064a","name:my":"\u1015\u102b\u101b\u102c\u1002\u103d\u1031\u1038\u1014\u102d\u102f\u1004\u103a\u1004\u1036","name:is":"Paragv\u00e6","name:am":"\u1353\u122b\u1313\u12ed","name:an":"Paraguai","name:ru":"\u041f\u0430\u0440\u0430\u0433\u0432\u0430\u0439","name:rw":"Paragwe","id":1644764586,"name:mk":"\u041f\u0430\u0440\u0430\u0433\u0432\u0430\u0458","name:vo":"Paragv\u00e4n","name:fa":"\u067e\u0627\u0631\u0627\u06af\u0648\u0626\u0647","name:mn":"\u041f\u0430\u0440\u0430\u0433\u0432\u0430\u0439","name:uz":"Paragvay","name:fo":"Paraguei","name:zh-yue":"\u5df4\u62c9\u572d","name:zh":"\u5df4\u62c9\u572d","name:sl":"Paragvaj","name:sk":"Paraguaj","name:ja":"\u30d1\u30e9\u30b0\u30a2\u30a4","name:sh":"Paragvaj","name:ne":"\u092a\u093e\u0930\u093e\u0917\u094d\u0935\u0947","name:sa":"\u092a\u0947\u0930\u0947\u0917\u094d\u0935\u093e\u092f","name:bs":"Paragvaj","name:yi":"\u05e4\u05d0\u05e8\u05d0\u05d2\u05d5\u05d5\u05d9\u05d9","name:bn":"\u09aa\u09cd\u09af\u09be\u09b0\u09be\u0997\u09c1\u09af\u09bc\u09c7","name:bo":"\u0f54\u0f0b\u0f62\u0f0b\u0f42\u0f74\u0f0b\u0f61\u0f7a\u0f0d","name:ml":"\u0d2a\u0d30\u0d17\u0d4d\u0d35\u0d46","name:be":"\u041f\u0430\u0440\u0430\u0433\u0432\u0430\u0439","name:bg":"\u041f\u0430\u0440\u0430\u0433\u0432\u0430\u0439","name:wo":"Paraguwaay","name:ba":"\u041f\u0430\u0440\u0430\u0433\u0432\u0430\u0439","name:sq":"Paraguaji","name:ga":"Paragua","name:gd":"Paraguaidh","name:ht":"Paragwe","name:gn":"Paragu\u00e1i","name:gl":"Paraguai - Paraguay","name:pl":"Paragwaj","name:gv":"Yn Pharaguay"},"coordinates":[2897,1765]},{"type":"Point","properties":{"source":"naturalearthdata.com","kind":"locality","name":"Santiago","country_capital":true,"population":5720000,"min_zoom":2.0,"id":7283},"coordinates":[1760,753]},{"type":"Point","properties":{"name:pt":"Uruguai","name:ps":"\u06cc\u0648\u0631\u0648\u06ab\u0648\u0627\u06cc","name:ka":"\u10e3\u10e0\u10e3\u10d2\u10d5\u10d0\u10d8","name:mt":"Urugwaj","name:ko":"\uc6b0\ub8e8\uacfc\uc774","name:cv":"\u0423\u0440\u0443\u0433\u0432\u0430\u0439","name:cu":"\u041e\u0443\u0440\u043e\u0443\u0433\u0432\u0430\u0438","name:kk":"\u0423\u0440\u0443\u0433\u0432\u0430\u0439","name:ki":"Urugwai","name:kw":"Urugway","name:ku":"\u00dbr\u00fbguay","name:ti":"\u12a1\u122b\u1313\u12ed","name:ks":"\u06cc\u0648\u0657\u0631\u0648\u06af\u06d2","name:to":"\u02bbUlukuei","name:tl":"Urugway","name:pa":"\u0a09\u0a30\u0a42\u0a17\u0a41\u0a0f","name:os":"\u0423\u0440\u0443\u0433\u0432\u0430\u0439","name:or":"\u0b09\u0b30\u0b41\u0b17\u0b41\u0b0f","name:ce":"\u0423\u0440\u0443\u0433\u0432\u0430\u0439","name:ta":"\u0b89\u0bb0\u0bc1\u0b95\u0bc1\u0bb5\u0bc7","name:tg":"\u0423\u0440\u0443\u0433\u0432\u0430\u0439","name:ca":"Uruguai","name:te":"\u0c09\u0c30\u0c41\u0c17\u0c41\u0c35\u0c47","name:ln":"Irigwei","name:sr":"\u0423\u0440\u0443\u0433\u0432\u0430\u0458","name:dz":"\u0f61\u0f74\u0f0b\u0f62\u0f74\u0f0b\u0f42\u0f74\u0f0b\u0f5d\u0f60\u0f72","source":"openstreetmap.org","name:nv":"T\u00e1\u0142t\u0142\u02bc\u00e1\u00e1h Ch\u02bcosh Bitooh (K\u00e9yah Dah Si\u02bc\u00e1n\u00edg\u00ed\u00ed)","name:kn":"\u0c89\u0cb0\u0cc1\u0c97\u0ccd\u0cb5\u0cc7","name:dv":"\u0787\u07aa\u0783\u07aa\u078e\u07aa\u0787\u07ad","name:km":"\u17a2\u17ca\u17bb\u1799\u179a\u17bb\u1799\u17a0\u17d2\u1782\u17b6\u1799","name:lv":"Urugvaja","name:lt":"Urugvajus","name:uz":"Urugvay","name:he":"\u05d0\u05d5\u05e8\u05d5\u05d2\u05d5\u05d0\u05d9","min_zoom":2.0,"kind":"country","name:ur":"\u06cc\u0648\u0631\u0648\u06af\u0648\u0626\u06d2","name:la":"Uruguaia","name:lg":"Wurugwayi","name:uk":"\u0423\u0440\u0443\u0491\u0432\u0430\u0439","name:hy":"\u0548\u0582\u0580\u0578\u0582\u0563\u057e\u0561\u0575","name:ug":"\u0626\u06c7\u0631\u06c7\u06af\u06cb\u0627\u064a","name:li":"Urugay","name:hr":"Urugvaj","name:lo":"\u0ead\u0eb8\u0ea5\u0eb8\u0e81\u0ea7\u0e8d","name:oc":"Uruguai","population":3286314,"name:el":"\u039f\u03c5\u03c1\u03bf\u03c5\u03b3\u03bf\u03c5\u03ac\u03b7","name:eo":"Urugvajo","name":"Uruguay","name:ee":"uruguayduk\u0254","name:th":"\u0e1b\u0e23\u0e30\u0e40\u0e17\u0e28\u0e2d\u0e38\u0e23\u0e38\u0e01\u0e27\u0e31\u0e22","name:gu":"\u0a89\u0ab0\u0ac1\u0a97\u0acd\u0ab5\u0ac7","name:eu":"Uruguai","name:yo":"Or\u00edl\u1eb9\u0301\u00e8de Nruguayi","name:ay":"Uruwayi","name:yi":"\u05d0\u05d5\u05e8\u05d5\u05d2\u05d5\u05d5\u05d9\u05d9","name:rn":"Irigwe","name:az":"Uruqvay","name:mr":"\u0909\u0930\u0941\u0917\u094d\u0935\u0947","name:qu":"Uruwayi","name:ar":"\u0623\u0648\u0631\u0648\u063a\u0648\u0627\u064a","name:my":"\u1025\u101b\u102f\u1002\u103d\u1031\u1038","official_name":"Rep\u00fablica Oriental del Uruguay","name:gn":"Urugu\u00e1i","name:is":"\u00dar\u00fagv\u00e6","name:am":"\u12a1\u122b\u1313\u12ed","name:fo":"Uruguei","name:an":"Uruguai","name:ru":"\u0423\u0440\u0443\u0433\u0432\u0430\u0439","name:rw":"Irigwe","name:pl":"Urugwaj","name:mk":"\u0423\u0440\u0443\u0433\u0432\u0430\u0458","name:vo":"Luruguy\u00e4n","name:zu":"i-Uruguay","name:ha":"Yurugai","name:mn":"\u0423\u0440\u0443\u0433\u0432\u0430\u0439","name:ff":"Uruguwaay","name:hi":"\u092f\u0941\u0930\u0942\u0917\u0941\u090f","name:mg":"Orogoay","id":432425116,"name:zh-yue":"\u70cf\u62c9\u572d","name:fy":"Ur\u00fbguay","name:zh":"\u4e4c\u62c9\u572d","name:so":"Uruguwaay","name:sl":"Urugvaj","name:sk":"Uruguaj","name:ja":"\u30a6\u30eb\u30b0\u30a2\u30a4","name:si":"\u0d8b\u0dbb\u0dd4\u0d9c\u0dd4\u0dc0\u0dda","name:sh":"Urugvaj","name:sg":"Urugu\u00ebe","name:ne":"\u092f\u0941\u0930\u0942\u0917\u0941\u090f","name:sa":"\u0909\u0930\u0941\u0917\u094d\u0935\u093e\u092f","name:bs":"Urugvaj","name:bm":"Urugwayi","name:bn":"\u0989\u09b0\u09c1\u0997\u09cb\u09af\u09bc\u09c7","name:bo":"\u0f68\u0f74\u0f0b\u0f62\u0f74\u0f0b\u0f42\u0fb7\u0f7a\u0f0d","name:ml":"\u0d09\u0d31\u0d41\u0d17\u0d4d\u0d35\u0d47","name:sw":"Urugwai","name:be":"\u0423\u0440\u0443\u0433\u0432\u0430\u0439","name:bg":"\u0423\u0440\u0443\u0433\u0432\u0430\u0439","name:wo":"Uruguwaay","name:ba":"\u0423\u0440\u0443\u0433\u0432\u0430\u0439","name:sq":"Uruguaj","name:ga":"Uragua","name:gd":"Uruguaidh","name:ht":"Irigwe","name:wa":"Ourougway","name:gl":"Uruguai","name:fa":"\u0627\u0631\u0648\u06af\u0648\u0626\u0647","name:gv":"Yn Ooraguay","name:ak":"Yurugwae","name:tt":"\u0423\u0440\u0443\u0433\u0432\u0430\u0439"},"coordinates":[3093,810]},{"type":"Point","properties":{"source":"naturalearthdata.com","kind":"locality","name":"Buenos Aires","country_capital":true,"population":12795000,"min_zoom":3.0,"id":7258},"coordinates":[2876,638]},{"type":"Point","properties":{"source":"naturalearthdata.com","kind":"locality","name":"Lima","country_capital":true,"population":8012000,"min_zoom":3.0,"id":7237},"coordinates":[1179,2892]}]},"transit":{"type":"GeometryCollection","geometries":[]},"pois":{"type":"GeometryCollection","geometries":[]},"boundaries":{"type":"GeometryCollection","geometries":[{"type":"LineString","properties":{"source":"naturalearthdata.com","kind":"country","sort_rank":262,"kind_detail":"2","min_zoom":0.0,"id":33},"arcs":[0]},{"type":"LineString","properties":{"source":"naturalearthdata.com","kind":"country","sort_rank":262,"kind_detail":"2","min_zoom":0.0,"id":260},"arcs":[1]},{"type":"LineString","properties":{"source":"naturalearthdata.com","kind":"country","sort_rank":262,"kind_detail":"2","min_zoom":0.0,"id":23},"arcs":[2]},{"type":"LineString","properties":{"source":"naturalearthdata.com","kind":"country","sort_rank":262,"kind_detail":"2","min_zoom":0.0,"id":32},"arcs":[3]},{"type":"LineString","properties":{"source":"naturalearthdata.com","kind":"country","sort_rank":262,"kind_detail":"2","min_zoom":0.0,"id":132},"arcs":[4]},{"type":"LineString","properties":{"source":"naturalearthdata.com","kind":"country","sort_rank":262,"kind_detail":"2","min_zoom":0.0,"id":135},"arcs":[5]},{"type":"LineString","properties":{"source":"naturalearthdata.com","kind":"country","sort_rank":262,"kind_detail":"2","min_zoom":0.0,"id":136},"arcs":[6]},{"type":"LineString","properties":{"source":"naturalearthdata.com","kind":"country","sort_rank":262,"kind_detail":"2","min_zoom":0.0,"id":137},"arcs":[7]},{"type":"LineString","properties":{"source":"naturalearthdata.com","kind":"country","sort_rank":262,"kind_detail":"2","min_zoom":0.0,"id":241},"arcs":[8]},{"type":"LineString","properties":{"source":"naturalearthdata.com","kind":"country","sort_rank":262,"kind_detail":"2","min_zoom":0.0,"id":257},"arcs":[9]},{"type":"LineString","properties":{"source":"naturalearthdata.com","kind":"country","sort_rank":262,"kind_detail":"2","min_zoom":0.0,"id":258},"arcs":[10]},{"type":"LineString","properties":{"source":"naturalearthdata.com","kind":"country","sort_rank":262,"kind_detail":"2","min_zoom":0.0,"id":259},"arcs":[11]},{"type":"LineString","properties":{"source":"naturalearthdata.com","kind":"country","sort_rank":262,"kind_detail":"2","min_zoom":0.0,"id":261},"arcs":[12]},{"type":"LineString","properties":{"source":"naturalearthdata.com","kind":"country","sort_rank":262,"kind_detail":"2","min_zoom":0.0,"id":262},"arcs":[13]},{"type":"LineString","properties":{"source":"naturalearthdata.com","kind":"country","sort_rank":262,"kind_detail":"2","min_zoom":0.0,"id":263},"arcs":[14]},{"type":"LineString","properties":{"source":"naturalearthdata.com","kind":"country","sort_rank":262,"kind_detail":"2","min_zoom":0.0,"id":325},"arcs":[15]},{"type":"LineString","properties":{"source":"naturalearthdata.com","kind":"country","sort_rank":262,"kind_detail":"2","min_zoom":0.0,"id":323},"arcs":[16]},{"type":"LineString","properties":{"source":"naturalearthdata.com","kind":"country","sort_rank":262,"kind_detail":"2","min_zoom":0.0,"id":324},"arcs":[17]}]},"roads":{"type":"GeometryCollection","geometries":[]},"earth":{"type":"GeometryCollection","geometries":[{"type":"MultiPolygon","properties":{"sort_rank":10,"source":"naturalearthdata.com","min_zoom":0.0,"kind":"earth","area":17895369106064},"arcs":[[[70]],[[71]],[[72]],[[73]],[[74]],[[75]],[[76]],[[77]]]},{"type":"Point","properties":{"name:ia":"America del Sud","label_placement":true,"name:pt":"Am\u00e9rica do Sul","name:ms":"Amerika Selatan","name:tr":"G\u00fcney Amerika","name:kn":"\u0ca6\u0c95\u0ccd\u0cb7\u0cbf\u0ca3 \u0c85\u0cae\u0cc7\u0cb0\u0cbf\u0c95","name:ar":"\u0623\u0645\u0631\u064a\u0643\u0627 \u0627\u0644\u062c\u0646\u0648\u0628\u064a\u0629","name:cs":"Ji\u017en\u00ed Amerika","name:io":"Sud-Amerika","min_zoom":0.0,"name:it":"America meridionale","name:tl":"Timog Amerika","name:ru":"\u042e\u0436\u043d\u0430\u044f \u0410\u043c\u0435\u0440\u0438\u043a\u0430","name:vi":"Nam M\u1ef9","name:pl":"Ameryka Po\u0142udniowa","name:mi":"Amerika ki te Tonga","id":36966069,"name:ca":"Am\u00e8rica del Sud","name:vo":"Sol\u00fcda-Merop","name:fa":"\u0622\u0645\u0631\u06cc\u06a9\u0627\u06cc \u062c\u0646\u0648\u0628\u06cc","name:hu":"D\u00e9l-Amerika","name:lt":"Piet\u0173 Amerika","name:fi":"Etel\u00e4-Amerikka","name:da":"Sydamerika","kind":"continent","name:de":"S\u00fcdamerika","source":"openstreetmap.org","name:fr":"Am\u00e9rique du Sud","name:zh":"\u5357\u7f8e\u6d32","name:sl":"Ju\u017ena Amerika","name:nl":"Zuid-Amerika","name:nn":"S\u00f8r-Amerika","name:hi":"\u0926\u0915\u094d\u0937\u093f\u0923 \u0905\u092e\u0947\u0930\u093f\u0915\u093e","name:nb":"S\u00f8r-Amerika","name:eo":"Sudameriko","name:la":"America Australis","name:sk":"Ju\u017en\u00e1 Amerika","name:uk":"\u041f\u0456\u0432\u0434\u0435\u043d\u043d\u0430 \u0410\u043c\u0435\u0440\u0438\u043a\u0430","name:be":"\u041f\u0430\u045e\u0434\u043d\u0451\u0432\u0430\u044f \u0410\u043c\u0435\u0440\u044b\u043a\u0430","name:li":"Zuud-Amerika","name:hr":"Ju\u017ena Amerika","name:sr":"\u0408\u0443\u0436\u043d\u0430 \u0410\u043c\u0435\u0440\u0438\u043a\u0430","name:el":"\u039d\u03cc\u03c4\u03b9\u03b1 \u0391\u03bc\u03b5\u03c1\u03b9\u03ba\u03ae","name:ga":"Meirice\u00e1 Theas","name":"South America","name:is":"Su\u00f0ur-Amer\u00edka","name:ku":"Amer\u00eekaya Ba\u015f\u00fbr","name:sv":"Sydamerika","name:eu":"Am\u00e9rica del Sur","name:no":"S\u00f8r-Amerika","name:es":"Am\u00e9rica del Sur"},"coordinates":[2640,1997]}]},"landuse":{"type":"GeometryCollection","geometries":[]}},"type":"Topology","transform":{"translate":[-90.0,-40.9798980696],"scale":[0.0109863281,0.0100048579]},"arcs":[[[1865,2346],[-7,-6],[-9,-8],[-11,-2],[-4,-4],[1,-8],[3,-11],[0,-9],[-3,-10],[-8,-12],[-12,-7],[-11,-5],[-9,0],[-9,0],[-4,-2]],[[1859,3001],[11,-21],[9,-16],[9,-18],[8,-15],[11,-22],[10,-19],[11,-20],[12,-24],[-4,-5],[-3,-5],[0,-8],[-4,-4],[-5,-3],[-7,-7],[-4,-5],[0,-9],[1,-42],[-1,-11],[-3,-10],[-3,-5],[-2,-4],[4,-9],[5,-20],[3,-4],[4,-8],[2,-7],[-1,-3],[-8,-4],[-3,-3],[-1,-11],[-3,-4],[-6,-5],[-4,-6],[-4,-5],[-3,-2],[-2,-7],[-2,-8],[-7,-5],[-2,-9],[0,-8],[4,-7],[13,-16],[2,-4],[-8,-10],[-4,-6],[-11,-21],[0,-3],[3,-10],[16,-41],[2,-3],[5,-4],[8,0],[12,-4],[6,-5],[1,-3],[-2,-2],[-6,-3],[-7,-5],[-3,-4],[0,-6],[2,-10],[-3,-4],[-8,-3],[-6,-6],[-6,-9],[-10,-14],[-4,-4],[-1,-5],[-6,-2],[-11,-9],[-2,-5],[1,-5],[6,-3],[4,-6],[1,-7],[0,-5]],[[3334,723],[-2,1],[-6,3],[-5,3],[-2,2],[0,3],[1,13],[-1,33],[2,6],[3,4],[8,6],[8,8],[8,10],[8,9],[-2,6],[-7,5],[-12,4],[-12,8],[-10,10],[-5,11],[-4,11],[-4,9],[-2,4],[-4,2],[-6,4],[-4,4],[-6,3],[-10,2],[-11,5],[-14,11],[-10,12],[-5,8],[-5,6],[-28,9],[-13,12],[-5,-4],[-7,4],[-7,5],[-3,4],[-3,4],[-3,5],[-2,5],[-7,8],[-10,9],[-4,2],[-2,0],[-2,-4],[-2,-3],[-3,-2],[-5,-4],[-5,-5],[-6,-3],[-7,-2],[-5,1],[-1,2],[0,6],[2,16],[-4,6],[-6,6],[-6,9],[-21,18],[-29,26],[-10,8],[-10,0],[-8,-1],[-8,-3],[-6,-12],[-3,-2],[-15,0],[-16,2],[-5,8]],[[1865,2346],[1,-11],[13,-15],[4,-17],[3,-3],[17,-8],[0,-2],[-2,-3],[-3,-5],[2,-5],[3,-8],[1,-8],[2,-7],[2,-12],[1,-11],[4,-15],[1,-10],[0,-6],[4,-6],[6,-6],[9,-7],[8,-8],[5,-6],[7,-4],[5,-4],[2,-3],[0,-2],[-2,-2],[-8,-11],[-11,-16],[0,-2],[11,-12],[2,-4],[-1,-7],[-3,-8],[-12,-2],[-2,-2],[-1,-3],[3,-3],[0,-8],[4,-8],[-2,-3],[-5,-4],[0,-4],[2,-4],[4,-3],[18,-12],[1,-2],[0,-1],[-7,-8],[0,-5],[0,-8],[1,-5],[2,-2],[9,-3],[11,-18],[11,-17],[-1,-15],[2,-17],[6,-13],[1,-11],[3,-12],[8,-8],[3,-14],[1,-8],[-1,-5],[6,-16],[1,-14],[-1,-10],[0,-5],[0,-4],[6,-4],[2,-2],[8,-1],[12,0],[20,4],[15,3]],[[1339,4085],[-16,7],[-5,4]],[[2875,703],[-3,10],[-3,10],[0,9],[1,14],[4,16],[3,12],[1,9],[2,3],[11,1],[7,8],[2,5],[1,7],[-1,8],[-4,19],[-2,16]],[[2948,1079],[-3,-4],[-1,-7],[-5,-9],[-11,-11],[-4,-10],[5,-12],[1,-14],[-2,-6],[-5,-2],[-1,-4],[3,-6],[0,-7],[-3,-9],[-5,-10],[-7,-12],[-2,-8],[4,-4],[2,-4],[0,-5],[-2,-6],[-3,-8],[-5,-7],[-7,-4],[-1,-5],[2,-6],[0,-7],[-1,-6],[1,-7],[4,-6],[0,-8],[-8,-15]],[[3221,1540],[7,0],[3,-4],[5,-1],[6,3],[5,2],[7,0],[4,4],[5,1],[3,-2],[3,-3],[7,-1],[5,-7],[6,-2],[2,-8],[4,-21],[7,-12],[7,-14],[0,-7],[-4,-6],[-1,-9],[-2,-22],[-1,-9],[3,-5],[1,-8],[-4,-10],[-7,-14],[-8,-4],[-1,0],[-10,-8],[-7,-3],[-3,2],[-5,-4],[-5,-9],[-6,-4],[-11,-2],[-3,-1],[-7,0],[-5,-2],[-5,-5],[-5,-2],[-5,1],[-5,-2],[-4,-5],[-2,-5],[-1,-6],[-4,-3],[-8,-2],[-3,-3],[1,-4],[-3,-3],[-13,-4],[-10,-5],[-6,-8],[-6,-6],[-9,-3],[-13,-8],[-2,-5],[5,-5],[2,-4],[-2,-4],[-4,0],[-7,2],[-4,1],[-3,-2],[-2,-3],[1,-4],[-3,-3],[-5,-1],[-3,-4],[-1,-6],[-7,-7],[-11,-8],[-9,-12],[-6,-14],[-8,-10],[-8,-4],[-6,-7],[-3,-8],[-10,-13],[-15,-18],[-13,-12],[-13,-7],[-7,-7],[-1,-8],[-8,-10],[-15,-11],[-4,-4]],[[1649,0],[1,9],[-6,10],[1,10],[4,7],[4,10],[3,8],[3,4],[6,2],[1,4],[-2,4],[-7,6],[-2,6],[1,5],[4,3],[5,0],[4,8],[2,9],[0,4],[-3,6],[-2,12],[-2,7],[2,3],[4,1],[6,-1],[4,1],[1,4],[1,4],[1,2],[4,10],[4,11],[1,8],[-1,22],[2,5],[4,5],[6,4],[8,4],[10,5],[13,2],[5,6],[3,7],[1,7],[-4,4],[-7,5],[-3,13],[-1,12],[-1,16],[-6,13],[-7,15],[-2,13],[3,7],[2,11],[-3,5],[-3,10],[4,7],[4,11],[-1,6],[-3,14],[-3,7],[3,9],[5,7],[3,4],[0,7],[1,5],[7,4],[7,7],[5,1],[6,0],[3,2],[2,5],[1,5],[9,8],[5,6],[10,1],[5,8],[0,9],[-1,9],[3,11],[-4,16],[1,8],[-4,8],[1,7],[-2,5],[-6,2],[-2,6],[3,3],[5,2],[7,5],[5,23],[2,6],[2,8],[0,4],[3,6],[4,10],[7,8],[3,6],[4,9],[1,5],[4,2],[5,1],[6,1],[3,3],[-1,5],[0,9],[-2,16],[-1,20],[1,13],[4,13],[4,7],[-1,5],[-1,6],[-7,4],[-7,-3],[-4,0],[-6,7],[-2,8],[1,10],[5,6],[1,8],[-2,3],[-6,5],[-6,18],[1,15],[-5,5],[-3,12],[-6,4],[-2,9],[-2,9],[1,4],[6,1],[3,8],[-2,4],[-5,3],[-5,0],[-6,4],[-6,18],[-6,10],[2,14],[1,11],[2,9],[1,8],[4,3],[4,-1],[4,0],[4,6],[3,4],[0,3],[-2,4],[-1,5],[2,7],[5,16],[7,17],[3,6],[-1,6],[1,2],[5,-2],[13,3],[5,7],[2,7],[4,4],[-2,5],[-6,2],[-3,3],[1,6],[2,14],[0,11],[-5,22],[-4,22],[3,7],[9,11],[6,4],[1,6],[7,26],[1,14],[4,8],[3,15],[11,13],[4,8],[5,1],[2,3],[6,9],[9,10],[7,5],[1,8],[4,10],[7,17],[4,12],[5,5],[6,16],[2,9],[7,4],[6,1],[5,-5],[6,1],[5,6],[12,4],[5,2],[2,5],[0,10],[-4,7],[-11,13],[-8,15],[-1,5],[0,5],[1,7],[4,8],[11,12],[-1,9],[-8,32],[-3,9],[-5,17],[1,6],[4,19],[4,7],[6,1],[4,3],[1,3],[-4,4],[-2,5],[-2,8],[-5,2],[-4,6],[0,9],[5,12],[6,3],[2,6],[6,4],[5,4],[5,7],[18,8],[15,7],[28,12],[20,9],[2,6],[1,4],[10,30],[11,39],[8,24],[-17,18]],[[1339,4085],[-5,-3],[-5,-1],[-7,-1],[-10,4],[-4,0],[0,-4],[6,-4],[7,-5],[2,-7],[4,-9],[9,-10],[5,-5],[1,-3],[-2,-6],[0,-6],[3,-24],[-2,-2],[-4,0],[-3,0],[-3,3],[-3,2],[-1,-4],[-3,-11],[-5,-25],[-6,-21],[-6,-8],[-9,-12],[-13,-16],[-19,-24],[-14,-11],[-10,-9],[-13,-10],[-17,-13],[-18,-7],[-25,-11],[-18,-7],[-14,-5],[-14,-5],[-18,-7],[-7,-7],[-12,-16],[-5,-7],[-5,-7],[-1,-3],[0,-2],[3,-3],[0,-3],[-3,-2],[-3,-1],[-2,2],[-1,4],[-3,3],[-3,1],[-2,-1],[0,-3],[-5,-16],[0,-8],[-2,-3],[0,-8],[-5,-6],[-2,-6],[-1,-5],[-4,-3],[-1,-6],[-4,-12],[-4,-9],[-3,-7],[0,-6],[2,-4],[1,-4],[-2,-6],[-1,-4],[-5,-3],[-11,-7],[-4,-5],[-2,-6],[1,-5],[0,-4],[-6,-1],[-1,-4],[-4,-6],[-4,-2],[-10,3],[-7,0],[-6,3],[-6,9],[-5,8],[-4,9],[-2,13],[-5,4],[-6,5],[-6,-2],[-8,0],[-5,3],[-10,5],[-10,6],[-6,4],[-6,-2],[-3,-4],[-5,-6],[-9,-5],[-3,0],[-5,3],[-1,4],[4,6],[8,12],[-9,1],[-3,4],[-1,4],[-1,5],[2,6],[4,3],[8,-2],[5,0],[3,5],[3,3],[4,2],[1,2],[-4,9],[-1,5],[1,3],[0,6],[0,4],[-2,3],[0,6],[-2,3],[-1,3],[0,4],[-2,2],[-2,1]],[[1824,3673],[-5,7],[-7,7],[-7,4],[-3,6],[-3,11],[-6,4],[-3,3],[-4,-1],[-4,-3],[-6,-2],[-4,1],[-16,7],[-2,1],[10,18],[18,31],[12,20],[13,23],[7,11],[1,2],[0,3],[-3,4],[-7,2],[-7,3],[-4,6],[-7,2],[-5,4],[-9,4],[-5,3],[-7,2],[-5,6],[-19,12],[-5,1],[-5,-1],[-8,-2],[-7,-7],[-10,-2],[-9,0],[-4,4],[-5,1],[-6,6],[-10,4],[-7,3],[-5,-2],[-6,-6],[-5,-6],[-5,-4],[-6,1],[-8,-6],[-7,-2],[-8,-1],[-9,-2],[-9,4],[-8,3],[-4,1],[-3,-1],[-5,-3],[-8,-1],[-7,-1],[-5,2],[-5,5],[-7,3],[-8,3],[-1,7],[1,5],[3,8],[-2,8],[-3,12],[-2,5],[-2,4],[-4,2],[-7,-1],[-9,4],[-5,5],[-2,5],[2,10],[-2,9],[-5,5],[-3,8],[-5,7],[-7,4],[-6,-1],[-5,2],[-6,8],[-5,2],[-7,7],[-11,3],[-6,3],[-3,4],[-5,8],[0,4],[-2,4],[-2,8],[-4,11],[-4,6],[-4,5],[-4,4],[-6,6],[-7,3],[-5,4],[-3,6],[-2,4],[-3,0],[-5,0],[-5,1],[-5,3],[-5,4],[-7,7],[-4,1],[-4,0],[-6,-7]],[[1814,4096],[0,-14],[2,-6],[11,-12],[9,-6],[7,-7],[8,-3],[3,-3],[2,-4],[1,-5],[1,-4],[-1,-4],[-2,-4],[1,-4],[2,-4],[1,-4],[2,-4],[1,-4],[2,-3],[3,-2],[4,-3],[0,-3],[0,-3],[0,-3],[3,-6],[1,-4],[-2,-6],[-1,-17],[-4,-20],[-3,-15],[-4,-25],[-5,-29],[-5,-36],[-6,-35],[-6,-33],[-5,-31],[-5,-33],[-4,-21],[-1,-3]],[[1859,3001],[10,1],[22,-1],[20,-4],[14,-2],[6,-3],[1,-5],[4,-3],[5,1],[5,1],[11,5],[9,4],[8,4],[4,4],[10,15],[8,8],[7,3],[15,1],[4,-2],[6,0],[5,9],[7,9],[16,12],[7,3],[5,4],[8,0],[7,5],[35,29],[14,7],[9,2],[7,2],[13,4],[30,4],[20,2],[7,-4],[7,1],[6,6],[5,2],[3,0],[6,-8],[2,-8],[-1,-6],[0,-9],[2,-12],[-1,-11],[-7,-14],[-4,-5],[-1,-6],[1,-8],[3,-13],[6,-18],[1,-13],[-4,-8],[-2,-8],[0,-6],[2,-4],[2,-3],[2,-5],[0,-7],[4,-8],[7,-6],[3,-7],[-2,-6],[1,-4],[2,-2],[2,1],[2,2],[2,-1],[5,-8],[1,-2],[2,-7],[1,-6],[7,-3],[8,-2],[4,-3],[9,-9],[7,-6],[9,-5],[3,-7],[5,-11],[15,-5],[18,-2],[11,-2],[14,6],[9,-1],[9,-4],[4,-3],[7,-6],[11,-7],[9,-3],[6,4],[6,1],[4,-1],[3,-8],[2,-6],[5,-4],[12,-11],[6,-4],[7,0],[15,-7],[16,-7],[8,-1],[8,1],[5,-2],[2,-9],[14,-16],[6,-6],[8,-6],[19,0],[6,-1],[9,1],[26,3],[5,1],[14,-7],[18,-11],[11,-8],[9,-4],[4,-8],[3,-7],[2,-8],[-2,-8],[-3,-4],[-2,-5],[2,-8],[6,-7],[2,-8],[3,-15],[3,-5],[3,-47],[-12,-1],[-16,0],[4,-5],[14,-17],[13,-16],[2,-26],[1,-16],[2,-23],[1,-14],[31,-1],[36,-2],[44,-2],[38,-1],[4,0],[6,2],[5,2],[2,0],[1,-5],[-1,-7],[0,-8],[-11,-16],[-1,-5],[2,-21],[4,-17],[2,-16],[4,-4],[13,-8],[20,-15],[7,-2],[7,2],[4,-6],[1,-10],[11,-28],[6,-17],[3,-6],[6,-4],[-1,-2],[-5,-1],[-2,-3],[-5,-20],[-8,-25],[-6,-19],[5,0],[0,-5],[1,-7],[-5,-1],[-2,-3],[-7,-15],[-9,-19],[-9,-21],[-5,-11],[9,-9],[15,-15],[-2,-4],[-7,-2],[-5,-2],[-4,-5],[-3,-4],[-6,-1]],[[1824,3673],[-1,-7],[-3,-3],[-4,0],[-7,5],[-5,-2],[-5,0],[-7,6],[-3,5],[-5,4],[-12,-2],[-9,0],[-8,1],[-7,-1],[-6,-6],[-5,-6],[-5,-6],[-16,-4],[-8,0],[-7,-3],[-11,-2],[-8,-3],[-13,-2],[-16,-1],[-9,-5],[-4,-2],[-9,-7],[-16,-11],[-9,-3],[-10,-12],[-13,-11],[-8,-5],[-12,-3],[-5,-3],[-2,-4],[1,-4],[-2,-10],[-4,-19],[-1,-10],[-1,-4],[-8,-16],[-8,-14],[-5,-10],[-2,-7],[3,-5],[3,-11],[3,-8],[1,-6],[-1,-6],[-4,-6],[-5,-4],[-8,-1],[-16,-11],[-18,-15],[-6,-7],[-1,-7],[-3,-11],[1,-5],[3,-4],[4,-9],[0,-5],[-3,-2],[-5,-1],[-4,-1],[-4,-2],[-3,1],[-3,-2],[0,-3],[1,-5],[-1,-4],[-2,-3],[-2,-2],[2,-3],[3,-3],[5,-4],[7,-9],[5,-1],[4,-3],[0,-5],[-1,-4],[-4,-2],[0,-4],[5,-5],[3,-4],[4,-5],[3,-7],[0,-5],[3,-6],[2,-5],[0,-4],[6,-5],[5,-3],[3,-3],[4,-3],[0,-3],[0,-5],[5,-9],[9,-7],[7,-9],[5,-7],[9,-11],[0,-13],[-11,-14],[-11,-15],[18,1],[18,-1],[19,-4],[13,-4],[8,-2],[5,-4],[3,-7],[2,-6],[1,-9],[8,-7],[-1,-7],[0,-9],[3,0],[24,0],[25,0],[25,2],[9,2],[11,11],[7,4],[6,5],[8,10],[6,4],[5,5],[8,6],[3,4],[3,1],[6,3],[-2,-6],[-2,-5],[-1,-8],[3,-8],[-3,-6],[-4,-6],[0,-15],[0,-21],[0,-18],[0,-22],[0,-26],[0,-16],[4,3],[6,3],[7,-8],[6,-3],[4,-1],[5,0],[6,2],[14,6],[10,6],[11,-1],[15,-2],[9,0]],[[2489,1874],[2,5],[6,19],[8,29],[9,29],[9,34],[0,25],[0,26],[15,21],[10,15],[8,14],[9,25],[6,16],[22,4],[38,9],[19,4],[40,9],[40,9],[42,1],[41,0],[32,-20],[25,-16],[26,-17],[2,-4],[2,-14],[-2,-16]],[[2489,1874],[-1,1],[-7,6],[-7,11],[-1,5],[-1,0],[-39,0],[-37,0],[-4,-3],[-5,0],[-4,3],[-4,-1],[-5,-2],[-5,-4],[-14,-29],[-7,-13],[-6,-11],[-3,-19],[-2,-4],[-4,7],[-7,18],[-3,10],[-4,11],[-8,14],[-8,5],[-5,1],[-8,3],[-14,3],[-6,1],[-39,0],[-3,1],[-15,-2],[-8,1],[-8,8],[-18,14],[-3,5],[-7,2],[-5,1],[-2,-3],[-3,-12],[-4,-10],[-4,-6],[-13,-5],[-12,-4],[-6,-2],[-4,-5],[-1,-7],[-3,-7],[-18,-10],[-4,-4],[-2,-10],[-9,-12],[-3,-5]],[[3221,1540],[0,14],[13,21],[3,10],[-2,6],[4,19],[9,34],[3,23],[-3,10],[0,7],[5,7],[2,1],[-12,8],[-6,7],[-8,5],[-9,4],[-4,-2],[-5,-2],[-9,-4],[-10,-6],[-5,-2],[-9,-3],[-10,-2],[-8,2],[-8,1],[-4,4],[-2,9],[0,7],[-2,10],[-5,6],[-2,5],[-1,6],[1,6],[2,5],[-1,5],[-3,4],[1,7],[-1,10],[-4,6],[-2,7],[0,7],[-2,6],[-1,8],[3,7],[1,7],[-3,5],[-5,3],[-4,8],[-1,10],[-4,6],[-5,4],[-5,0],[-7,3],[-7,0],[-12,0],[-5,2],[-2,3],[-7,5],[-4,9],[-5,1],[-7,-2],[-2,-3],[-3,-5],[-5,-5],[-6,0],[-7,-3],[-6,0],[-9,-1],[-8,3],[-10,3],[-9,2],[-8,-2],[-6,1],[-8,1],[-8,1],[-7,5],[-7,3],[-4,-1],[-5,-3],[-5,1],[-7,2],[-3,6],[1,4],[1,4],[3,6],[-2,6],[1,5],[1,5],[1,5],[-1,5],[0,5],[0,5],[-1,6],[3,7],[3,7],[-2,5],[1,3],[2,6],[3,8],[0,13],[-3,8],[-2,2],[-1,3],[1,3],[-1,3],[-1,3],[2,3],[-3,6],[-4,2],[-1,1],[-2,7],[-1,7],[1,5],[-3,5],[-3,3],[-3,6],[-3,4],[-1,5],[-2,8]],[[2489,1874],[3,-3],[0,-3],[7,-6],[16,-9],[14,-17],[14,-26],[12,-19],[12,-12],[11,-9],[10,-5],[5,-4],[1,-3],[9,-7],[18,-10],[11,-10],[5,-9],[17,-11],[31,-10],[22,-5],[14,0],[19,-8],[26,-18],[16,-12],[6,-6],[17,-11],[42,-22],[18,-6],[9,-5],[5,-7],[6,-2],[5,3],[10,-3],[16,-7],[13,-8],[16,-20],[5,-7],[2,-7],[0,-6],[-5,-7],[-9,-6],[-3,-3],[0,-3],[-2,-6],[-8,-12],[-2,-6],[0,-4],[-5,-5],[-13,-9],[-2,-4],[-1,-4],[-2,-3],[-1,-1],[-3,-4],[-2,-8],[0,-9],[2,-12],[-1,-4],[-3,-2],[-1,-2],[-1,-6],[-2,-4],[-4,-2],[-2,-3],[1,-3],[-3,-4],[-7,-3],[-4,-5],[-2,-6],[-4,-5],[-7,-5],[-2,-6],[4,-12],[39,4],[33,-4],[38,-12],[26,-4],[12,4],[9,-1],[6,-4],[9,-1],[10,3],[8,-2],[7,-7],[6,2],[5,9],[7,8],[7,4],[9,2],[10,-2],[9,-4],[6,-5],[7,0],[7,6],[4,7],[-1,8],[3,5],[7,4],[4,4],[2,6],[7,4],[13,1],[6,3],[1,5],[4,4],[7,4],[4,4],[3,6],[4,4],[6,1],[6,12],[7,22],[4,31],[2,43]],[[3404,839],[-1,-5],[-4,-6],[-3,-6],[-4,-6],[-3,-6],[-4,-3],[-3,-1],[-5,1],[-4,4],[-3,4],[-4,3],[-4,-1],[-6,-4],[-4,-11],[-5,-10],[-6,-3],[-3,0],[-2,-1],[-2,-2],[-3,-4],[-3,-8],[-1,-11],[1,-13],[-1,-6],[-4,-1],[-1,-1],[-2,0],[-2,2],[-1,2],[-1,3],[0,5],[-1,7],[-1,7],[-1,5],[-2,5],[0,6],[2,6],[5,5],[7,7],[6,0],[5,3],[2,4],[1,5],[0,4],[1,4],[4,2],[4,3],[4,3],[3,3],[4,3],[6,2],[4,6],[3,7],[7,3],[6,5],[1,4],[1,3],[1,5],[3,5],[2,2],[2,-1],[1,-3],[0,-11],[3,-5],[3,-6],[3,-4],[0,-4],[-1,-5]],[[3512,2054],[-1,3],[1,3],[2,2],[-4,7],[1,2],[4,-2],[6,0],[4,2],[8,0],[3,2],[-2,6],[2,3],[4,-3],[3,1],[2,7],[0,9],[0,23],[2,6],[3,5],[3,-6],[1,-18],[1,-7],[12,5],[13,9],[8,2],[-8,-13],[-11,-5],[-5,-3],[-8,-6],[-5,-8],[1,-6],[4,-3],[2,-6],[-7,1],[-4,-2],[-5,-1],[-2,0],[-4,-1],[-5,-2],[-3,-2],[6,-7],[10,-5],[0,-2],[-12,3],[-10,6],[-5,-1],[-3,1],[-2,1]],[[1560,0],[1,1],[3,-1],[-4,0]],[[2528,1020],[-17,-7],[-14,-2],[-15,-5],[-7,7],[-5,4],[-6,5],[-5,6],[5,5],[9,2],[10,4],[3,4],[4,2],[20,-3],[1,1],[4,0],[7,-4],[5,-9],[1,-10]],[[4096,1755],[0,-1755],[-1604,0],[21,9],[8,8],[5,14],[-13,21],[-3,10],[2,16],[7,25],[4,5],[3,2],[11,5],[4,26],[1,11],[-5,3],[-5,5],[12,1],[-7,6],[-7,5],[-8,2],[-4,9],[3,16],[-6,14],[3,5],[13,-1],[12,-11],[19,-4],[23,-4],[20,2],[24,-1],[19,1],[98,14],[14,4],[61,13],[75,23],[49,27],[9,8],[4,18],[10,16],[28,30],[33,49],[5,11],[0,11],[-3,31],[-2,4],[-2,4],[-18,0],[-12,5],[-17,15],[-7,12],[-3,13],[2,18],[17,21],[-1,14],[-12,18],[-22,17],[-20,12],[-47,21],[-12,16],[-5,7],[-5,16],[4,3],[4,1],[4,6],[-2,14],[-1,7],[-3,9],[-7,14],[-1,9],[8,38],[3,17],[4,4],[7,-1],[5,1],[4,6],[3,6],[-4,39],[1,9],[4,-9],[3,-19],[4,-14],[-1,-7],[-5,-10],[-6,-6],[-7,-1],[-6,-5],[1,-7],[-6,-25],[-2,-21],[3,-20],[18,-19],[22,-20],[6,-8],[2,-6],[4,-3],[26,3],[34,-1],[29,-22],[36,-10],[6,-8],[13,-4],[5,-1],[7,0],[23,10],[18,3],[27,-3],[12,-9],[13,0],[18,-4],[49,20],[8,7],[9,0],[15,15],[20,14],[4,13],[19,23],[6,17],[5,7],[4,3],[41,34],[14,14],[10,13],[14,26],[15,44],[6,11],[8,10],[5,6],[-3,8],[-3,12],[0,8],[7,19],[8,10],[3,11],[2,10],[5,5],[19,9],[19,14],[4,5],[-2,8],[2,6],[8,7],[1,17],[4,-3],[3,-5],[0,16],[3,13],[6,5],[3,5],[-12,12],[-1,10],[0,11],[4,-3],[2,-6],[5,-9],[12,-5],[2,-10],[8,-1],[26,14],[8,-2],[1,-6],[-3,-12],[-3,-2],[-6,4],[-3,-1],[2,-28],[-7,-11],[-16,-9],[-2,-10],[1,-5],[-2,-4],[-12,1],[-5,-3],[1,-15],[-2,-7],[-9,-14],[-16,-8],[-21,-22],[-11,-2],[-4,-4],[-4,-3],[-10,5],[-6,-1],[0,-9],[2,-6],[-2,-9],[2,-5],[11,13],[11,9],[31,19],[28,22],[21,23],[16,19],[11,17],[30,47],[24,62],[26,44],[22,29],[21,20],[23,18],[20,12],[0,13],[10,13],[4,11],[2,13],[2,25],[-4,27],[7,18],[-2,11],[3,7],[-1,7],[-2,7],[-2,17],[-6,18],[0,9],[2,9],[1,12],[-5,5],[-4,8],[3,5],[3,0],[6,4],[3,25],[-3,6],[-6,0],[1,3],[11,3],[13,22],[-2,4],[-7,3],[-17,3],[-4,12],[8,-6],[8,-2],[8,1],[4,4],[-3,9],[5,4],[12,-3],[8,-1],[-5,-9],[3,-1],[17,18],[8,6],[2,10],[-4,1],[-3,3],[7,3],[3,0],[4,5],[22,17],[41,29],[25,26],[22,12],[60,32],[11,3],[17,0],[12,-4],[6,0],[3,4],[0,8],[9,8],[10,3],[20,15]],[[4068,1724],[-13,-16],[3,-4],[10,2],[4,-3],[0,5],[1,4],[2,3],[-2,4],[-2,3],[-3,2]],[[3762,1468],[6,-12],[2,1],[1,2],[4,7],[3,9],[-4,5],[-12,-12]],[[3774,1340],[-2,-24],[7,5],[-1,6],[8,14],[3,11],[-4,5],[-4,-3],[-4,-6],[-3,-8]],[[2560,181],[-3,3],[-5,3],[-12,2],[1,-2],[4,-6],[11,-6],[5,-1],[-1,7]],[[4096,3958],[0,-15],[-2,2],[-5,4],[-10,-4],[-5,-12],[-4,-7],[-4,-2],[-2,15],[-10,21],[-9,3],[-8,-2],[-12,10],[-17,6],[-7,9],[-9,-2],[-7,2],[0,7],[-9,-1],[-9,1],[-9,3],[-9,3],[-3,5],[-11,8],[-4,6],[-7,0],[-5,4],[-7,-1],[-10,0],[-6,7],[-6,3],[-12,2],[-4,-2],[-2,-3],[3,-4],[1,-5],[-5,2],[-8,8],[-8,-5],[-4,0],[-4,1],[-3,3],[-4,2],[-6,-3],[-8,-8],[-6,7],[-3,-1],[-5,-3],[-1,-5],[-6,-4],[-6,-6],[-5,-7],[1,-8],[-13,-10],[4,-9],[-7,-9],[1,-7],[2,-5],[9,-4],[-9,-4],[-1,-9],[-6,4],[-7,8],[-10,0],[-25,-34],[-15,-5],[-5,-4],[-18,-42],[-5,-16],[-6,-10],[-5,-3],[-5,-3],[3,8],[5,6],[4,24],[4,9],[6,22],[7,24],[-24,-14],[-13,-6],[-16,6],[-9,4],[-11,-3],[-5,-4],[-8,-2],[-13,-9],[-16,16],[-5,3],[-5,6],[1,7],[0,5],[-10,15],[-3,11],[0,7],[-2,8],[-5,7],[-2,5],[8,7],[-1,4],[-5,6],[-8,-5],[-4,-4],[-16,-11],[-8,-8],[-21,-13],[-11,-4],[-27,-20],[-23,-5],[-10,8],[-33,1],[10,4],[30,15],[19,-4],[4,3],[4,5],[1,14],[9,6],[9,10],[0,16],[2,10],[13,21],[6,4],[8,12],[10,21],[1,9],[17,6],[2,3],[55,0],[2,-1],[1,1],[35,0],[5,-3],[7,1],[6,2],[11,0],[-6,-5],[-3,-4],[11,-5],[25,3],[5,5],[1,6],[398,0],[0,-135],[-1,1],[-1,-3],[2,-1]],[[3675,4073],[-57,11],[-19,-4],[-17,-11],[-4,-9],[-2,-11],[1,-6],[-2,-5],[-4,-7],[-1,-4],[-2,-22],[2,-10],[6,-7],[11,1],[1,-3],[0,-4],[-1,-1],[-7,2],[-6,0],[-2,-11],[3,-13],[5,-15],[5,-12],[1,-6],[9,-9],[6,-1],[9,4],[21,1],[4,5],[5,-1],[9,-5],[10,-3],[5,4],[9,1],[5,3],[6,8],[2,12],[9,-4],[6,-4],[10,-1],[2,4],[2,8],[1,7],[8,-9],[4,-1],[5,1],[5,2],[9,9],[3,6],[-3,5],[0,5],[4,6],[6,4],[2,2],[7,12],[5,10],[2,4],[1,5],[-3,12],[4,-1],[3,3],[3,13],[3,9],[4,9],[-1,5],[-5,3],[-6,2],[-7,2],[-18,1],[-30,6],[-9,0],[-9,-1],[-8,-4],[-12,-2],[-8,0]],[[3535,4029],[-8,13],[-16,-3],[-11,-8],[-12,-20],[0,-24],[-11,-11],[-13,-25],[10,2],[18,9],[16,13],[14,19],[3,0],[10,35]],[[3581,4083],[1,2],[-2,5],[-9,2],[-7,-1],[-14,-6],[-2,-6],[0,-2],[-2,-4],[2,-3],[9,-7],[24,20]],[[0,4096],[898,0],[0,-1],[-9,-10],[-8,-6],[-15,-20],[2,-7],[7,-14],[10,-4],[-7,0],[-9,3],[-5,-9],[-4,-17],[-7,-5],[-19,-7],[-6,-11],[8,-21],[1,-9],[-3,-25],[7,-19],[0,-11],[-1,-15],[-9,-6],[-8,-5],[1,-4],[1,-4],[9,-8],[14,-5],[21,-22],[7,-5],[8,-4],[3,5],[1,3],[11,10],[6,14],[5,4],[-3,-21],[4,-2],[6,3],[4,13],[-1,28],[5,7],[0,-4],[0,-6],[1,-19],[7,-12],[2,-10],[-9,-20],[-9,-31],[-3,-7],[-6,-7],[-7,-4],[-5,-5],[-13,-5],[-2,-2],[-17,-10],[-13,-15],[-13,-9],[-9,-15],[-31,-35],[-5,-9],[-4,-35],[4,-9],[8,-12],[8,-15],[-4,-7],[-1,-6],[20,-31],[6,-16],[0,-13],[-4,-8],[-6,-2],[-9,5],[-7,-6],[-1,-7],[3,-11],[8,-8],[22,-15],[64,-37],[11,-12],[8,-13],[13,-16],[13,-23],[3,-13],[19,-41],[6,-9],[13,-12],[14,-17],[8,-19],[15,-21],[1,-13],[8,-23],[7,-18],[13,-22],[8,-28],[7,-16],[8,-27],[9,-18],[32,-57],[7,-19],[2,-17],[1,-9],[29,-25],[8,-13],[6,-26],[0,-13],[9,-5],[2,-7],[4,-4],[15,-13],[6,-18],[11,-20],[8,-10],[5,-16],[6,-12],[19,-26],[4,-15],[-7,-29],[-6,-1],[-5,-5],[7,-8],[1,-19],[10,-9],[4,-9],[12,-18],[6,-14],[18,-15],[19,-11],[12,-20],[11,-8],[8,-14],[8,-9],[50,-29],[16,-14],[21,-7],[29,-24],[9,-5],[30,-11],[12,-8],[28,-13],[15,-10],[30,-9],[9,-7],[9,-10],[14,-12],[13,-7],[9,-8],[9,-5],[22,-10],[9,-7],[3,-5],[3,-20],[3,-6],[25,-20],[11,-5],[11,-12],[30,-23],[6,-7],[6,-5],[2,-20],[0,-23],[5,-44],[6,-22],[1,-12],[4,-10],[1,-10],[0,-42],[-4,-30],[0,-20],[9,-52],[1,-11],[-1,-13],[-3,-15],[-3,-23],[-2,-10],[-4,-22],[-3,-37],[-7,-29],[-5,-12],[-5,-6],[-11,-3],[0,-11],[-3,-8],[1,-12],[7,-11],[8,-5],[3,-3],[-2,-9],[-7,-13],[-2,-10],[-1,-9],[1,-16],[-3,-20],[-3,-31],[2,-14],[10,-39],[-1,-8],[-3,-12],[-8,-12],[-5,-5],[-8,-24],[2,-8],[6,-13],[-3,-23],[2,-11],[-4,-9],[-2,-17],[-9,-25],[-1,-11],[-7,-23],[-2,-12],[1,-20],[-2,-9],[-2,-2],[-9,-11],[-3,-9],[-7,-25],[-3,-31],[-7,-13],[-3,-17],[-8,-10],[-10,-8],[-2,-7],[3,-27],[12,-16],[3,-9],[1,-21],[-3,-28],[-5,-21],[-25,-19],[-3,-29],[0,-13],[5,-23],[-1,-18],[8,-33],[5,-31],[1,-40],[8,-18],[-4,-15],[1,-12],[-12,-31],[-4,-6],[-10,-7],[4,-19],[0,-14],[6,-9],[-3,-14],[-15,-16],[-2,-7],[-7,-13],[-7,-15],[1,-12],[-3,-13],[-3,-20],[-11,-30],[-4,-18],[-15,-14],[-6,-10],[-5,-11],[-5,-6],[-5,-8],[3,-17],[-9,-12],[-8,-10],[-9,-41],[-9,-15],[-3,-11],[-10,-4],[-2,-11],[-1,-8],[-2,-18],[-4,-11],[-5,-4],[-10,-2],[-20,4],[-3,-7],[-3,-8],[5,-14],[-5,-11],[0,-11],[13,-21],[5,-13],[-1,-9],[-5,-24],[1,-14],[4,-12],[23,-60],[-2,-19],[-15,-37],[-7,-6],[-17,-11],[0,-12],[-6,-18],[-4,-21],[-12,-40],[-6,-10],[0,-1],[-1458,0],[0,4096]],[[1014,740],[-2,0],[-1,0],[-4,-4],[-4,-3],[-1,-2],[1,0],[16,2],[3,0],[0,2],[-1,2],[-5,2],[-2,1]],[[910,3829],[-7,0],[-6,-2],[-7,-6],[-3,-6],[-2,-14],[0,-4],[3,-2],[9,0],[1,4],[4,13],[2,1],[5,1],[10,10],[-9,5]],[[53,4024],[-6,-7],[-5,-4],[-6,-6],[0,-2],[2,-2],[4,-2],[11,4],[5,8],[6,4],[3,6],[0,3],[-2,1],[-3,1],[-9,-4]],[[2348,0],[-86,0],[0,3],[1,7],[6,7],[14,8],[4,-1],[6,-2],[-1,-3],[-3,-2],[21,-4],[22,-7],[16,-6]],[[3260,1626],[-4,-1],[-6,-3],[-2,-3],[1,-4],[4,-6],[4,-4],[-3,1],[-6,2],[-4,0],[-1,-3],[-2,-2],[1,-4],[4,-5],[2,-5],[-1,-3],[-2,-3],[-2,-1],[-1,-3],[9,-3],[8,-3],[-7,-2],[-6,-3],[-4,-1],[-5,-1],[1,-2],[2,-4],[-2,-2],[-6,1],[-3,-1],[-3,-3],[-2,-2],[-3,1],[-2,2],[0,11],[2,4],[6,3],[3,4],[-1,4],[-3,1],[-2,1],[0,2],[-4,1],[-9,1],[-3,3],[4,2],[9,0],[8,-1],[1,4],[1,5],[-2,3],[-13,3],[-12,2],[3,1],[6,0],[8,-1],[7,0],[6,3],[0,5],[-5,5],[3,4],[8,2],[2,3],[0,4],[-3,4],[0,4],[2,3],[-1,6],[2,4],[5,1],[1,3],[0,5],[-3,6],[-2,5],[1,5],[1,4],[2,3],[6,3],[-2,-8],[1,-8],[2,-6],[-1,-19],[0,-17],[4,-4],[3,-3]],[[3667,3654],[-9,1],[-1,2],[-4,7],[1,2],[4,4],[0,7],[0,2],[5,6],[1,5],[2,3],[1,7],[0,11],[2,2],[6,-2],[3,-11],[4,-16],[2,-10],[0,-3],[3,-3],[4,-8],[2,-9],[-1,-4],[8,-11],[5,-8],[-2,-4],[3,-8],[0,-3],[-6,-5],[1,-6],[5,-22],[10,-11],[19,0],[3,-3],[-3,-3],[-19,-6],[-10,9],[-6,12],[-6,14],[-10,20],[-2,10],[-4,9],[-8,3],[-3,3],[3,5],[3,6],[-3,4],[-3,2]],[[1878,2474],[-3,3],[-3,1],[-5,1],[0,2],[4,5],[1,5],[-1,3],[-4,2],[-6,2],[-7,2],[-3,3],[-2,2],[-3,1],[-3,2],[-3,3],[-2,3],[-2,1],[-2,-1],[0,-1],[0,-2],[1,-3],[1,-2],[-1,-1],[-2,0],[-1,0],[-2,2],[-3,2],[-3,2],[-3,2],[-2,1],[0,2],[0,4],[0,3],[1,3],[2,3],[2,3],[4,1],[5,-2],[4,-3],[2,-1],[-2,6],[-5,10],[-5,11],[-1,3],[2,2],[6,3],[1,2],[1,2],[3,1],[3,1],[2,2],[5,0],[6,-8],[7,-2],[9,-11],[4,-1],[4,-2],[5,-11],[3,-1],[4,-3],[3,-2],[2,-2],[2,-3],[4,-4],[6,-3],[2,-5],[0,-6],[2,-2],[8,-2],[7,0],[3,-2],[-1,-3],[-2,-2],[-2,-3],[-3,-4],[1,-5],[4,-5],[6,-1],[6,-2],[6,0],[3,-2],[0,-3],[1,-2],[0,-1],[-2,-1],[-4,-1],[-4,-1],[-1,-1],[0,-2],[-3,-2],[-4,-3],[-7,-1],[-4,-1],[-2,-2],[3,-2],[2,-3],[1,-3],[1,-2],[-1,-2],[-1,-2],[-3,0],[-3,1],[-6,3],[-4,2],[-2,1],[-2,3],[4,7],[1,5],[0,5],[-1,4],[4,3],[5,2],[4,-1],[2,0],[-1,3],[-5,3],[-6,7],[-6,3],[-2,-1],[0,-4],[-2,-5],[-1,-5],[-4,-2],[-4,-1],[-4,1],[-5,0],[-4,2]],[[4096,2213],[-4,1],[-7,0],[-1,-2],[1,-4],[4,-12],[-1,-4],[-2,2],[-4,8],[-4,-1],[-2,0],[-8,-1],[-8,-4],[0,7],[1,2],[12,1],[4,3],[1,5],[-1,8],[-3,-1],[-1,-8],[-3,-1],[-5,2],[0,3],[5,3],[3,9],[0,6],[-3,-1],[-7,-3],[-1,2],[2,2],[2,2],[3,6],[-2,4],[-4,1],[-3,-3],[-3,-4],[-4,-1],[-4,-2],[1,4],[2,8],[4,4],[8,3],[0,4],[2,6],[0,3],[-4,0],[1,3],[7,4],[2,-1],[3,-2],[-2,-7],[-3,-12],[2,-5],[5,-2],[2,-3],[0,-5],[1,-4],[3,1],[1,-1],[0,-3],[-2,-5],[0,-5],[5,-4],[6,2],[1,4],[2,-2],[0,-10]],[[1614,72],[0,-3],[0,-1],[-6,0],[-11,1],[-8,2],[-1,3],[0,4],[2,3],[10,3],[8,1],[3,-2],[3,-2],[0,-2],[0,-3],[0,-4]],[[3404,839],[-1,-5],[-4,-6],[-3,-6],[-4,-6],[-3,-6],[-4,-3],[-3,-1],[-5,1],[-4,4],[-3,4],[-4,3],[-4,-1],[-6,-4],[-4,-11],[-5,-10],[-6,-3],[-3,0],[-2,-1],[-2,-2],[-3,-4],[-3,-8],[-1,-11],[1,-13],[-1,-6],[-4,-1],[-1,-1],[-2,0],[-2,2],[-1,2],[-1,3],[0,5],[-1,7],[-1,7],[-1,5],[-2,5],[0,6],[2,6],[5,5],[7,7],[6,0],[5,3],[2,4],[1,5],[0,4],[1,4],[4,2],[4,3],[4,3],[3,3],[4,3],[6,2],[4,6],[3,7],[7,3],[6,5],[1,4],[1,3],[1,5],[3,5],[2,2],[2,-1],[1,-3],[0,-11],[3,-5],[3,-6],[3,-4],[0,-4],[-1,-5]],[[1878,2474],[-3,3],[-3,1],[-5,1],[0,2],[4,5],[1,5],[-1,3],[-4,2],[-6,2],[-7,2],[-3,3],[-2,2],[-3,1],[-3,2],[-3,3],[-2,3],[-2,1],[-2,-1],[0,-1],[0,-2],[1,-3],[1,-2],[-1,-1],[-2,0],[-1,0],[-2,2],[-3,2],[-3,2],[-3,2],[-2,1],[0,2],[0,4],[0,3],[1,3],[2,3],[2,3],[4,1],[5,-2],[4,-3],[2,-1],[-2,6],[-5,10],[-5,11],[-1,3],[2,2],[6,3],[1,2],[1,2],[3,1],[3,1],[2,2],[5,0],[6,-8],[7,-2],[9,-11],[4,-1],[4,-2],[5,-11],[3,-1],[4,-3],[3,-2],[2,-2],[2,-3],[4,-4],[6,-3],[2,-5],[0,-6],[2,-2],[8,-2],[7,0],[3,-2],[-1,-3],[-2,-2],[-2,-3],[-3,-4],[1,-5],[4,-5],[6,-1],[6,-2],[6,0],[3,-2],[0,-3],[1,-2],[0,-1],[-2,-1],[-4,-1],[-4,-1],[-1,-1],[0,-2],[-3,-2],[-4,-3],[-7,-1],[-4,-1],[-2,-2],[3,-2],[2,-3],[1,-3],[1,-2],[-1,-2],[-1,-2],[-3,0],[-3,1],[-6,3],[-4,2],[-2,1],[-2,3],[4,7],[1,5],[0,5],[-1,4],[4,3],[5,2],[4,-1],[2,0],[-1,3],[-5,3],[-6,7],[-6,3],[-2,-1],[0,-4],[-2,-5],[-1,-5],[-4,-2],[-4,-1],[-4,1],[-5,0],[-4,2]],[[1560,0],[1,1],[3,-1]],[[2528,1020],[-17,-7],[-14,-2],[-15,-5],[-7,7],[-5,4],[-6,5],[-5,6],[5,5],[9,2],[10,4],[3,4],[4,2],[20,-3],[1,1],[4,0],[7,-4],[5,-9],[1,-10]],[[3788,4061],[-1,5],[-5,3],[-6,2],[-7,2],[-18,1],[-30,6],[-9,0],[-9,-1],[-8,-4],[-12,-2],[-8,0],[-57,11],[-19,-4],[-17,-11],[-4,-9],[-2,-11],[1,-6],[-2,-5],[-4,-7],[-1,-4],[-2,-22],[2,-10],[6,-7],[11,1],[1,-3],[0,-4],[-1,-1],[-7,2],[-6,0],[-2,-11],[3,-13],[5,-15],[5,-12],[1,-6],[9,-9],[6,-1],[9,4],[21,1],[4,5],[5,-1],[9,-5],[10,-3],[5,4],[9,1],[5,3],[6,8],[2,12],[9,-4],[6,-4],[10,-1],[2,4],[2,8],[1,7],[8,-9],[4,-1],[5,1],[5,2],[9,9],[3,6],[-3,5],[0,5],[4,6],[6,4],[2,2],[7,12],[5,10],[2,4],[1,5],[-3,12],[4,-1],[3,3],[3,13],[3,9],[4,9]],[[1614,72],[0,-3],[0,-1],[-6,0],[-11,1],[-8,2],[-1,3],[0,4],[2,3],[10,3],[8,1],[3,-2],[3,-2],[0,-2],[0,-3],[0,-4]],[[3260,1626],[-4,-1],[-6,-3],[-2,-3],[1,-4],[4,-6],[4,-4],[-3,1],[-6,2],[-4,0],[-1,-3],[-2,-2],[1,-4],[4,-5],[2,-5],[-1,-3],[-2,-3],[-2,-1],[-1,-3],[9,-3],[8,-3],[-7,-2],[-6,-3],[-4,-1],[-5,-1],[1,-2],[2,-4],[-2,-2],[-6,1],[-3,-1],[-3,-3],[-2,-2],[-3,1],[-2,2],[0,11],[2,4],[6,3],[3,4],[-1,4],[-3,1],[-2,1],[0,2],[-4,1],[-9,1],[-3,3],[4,2],[9,0],[8,-1],[1,4],[1,5],[-2,3],[-13,3],[-12,2],[3,1],[6,0],[8,-1],[7,0],[6,3],[0,5],[-5,5],[3,4],[8,2],[2,3],[0,4],[-3,4],[0,4],[2,3],[-1,6],[2,4],[5,1],[1,3],[0,5],[-3,6],[-2,5],[1,5],[1,4],[2,3],[6,3],[-2,-8],[1,-8],[2,-6],[-1,-19],[0,-17],[4,-4],[3,-3]],[[3667,3654],[-9,1],[-1,2],[-4,7],[1,2],[4,4],[0,7],[0,2],[5,6],[1,5],[2,3],[1,7],[0,11],[2,2],[6,-2],[3,-11],[4,-16],[2,-10],[0,-3],[3,-3],[4,-8],[2,-9],[-1,-4],[8,-11],[5,-8],[-2,-4],[3,-8],[0,-3],[-6,-5],[1,-6],[5,-22],[10,-11],[19,0],[3,-3],[-3,-3],[-19,-6],[-10,9],[-6,12],[-6,14],[-10,20],[-2,10],[-4,9],[-8,3],[-3,3],[3,5],[3,6],[-3,4],[-3,2]],[[4096,2213],[-4,1],[-7,0],[-1,-2],[1,-4],[4,-12],[-1,-4],[-2,2],[-4,8],[-4,-1],[-2,0],[-8,-1],[-8,-4],[0,7],[1,2],[12,1],[4,3],[1,5],[-1,8],[-3,-1],[-1,-8],[-3,-1],[-5,2],[0,3],[5,3],[3,9],[0,6],[-3,-1],[-7,-3],[-1,2],[2,2],[2,2],[3,6],[-2,4],[-4,1],[-3,-3],[-3,-4],[-4,-1],[-4,-2],[1,4],[2,8],[4,4],[8,3],[0,4],[2,6],[0,3],[-4,0],[1,3],[7,4],[2,-1],[3,-2],[-2,-7],[-3,-12],[2,-5],[5,-2],[2,-3],[0,-5],[1,-4],[3,1],[1,-1],[0,-3],[-2,-5],[0,-5],[5,-4],[6,2],[1,4],[2,-2]],[[3512,2054],[-1,3],[1,3],[2,2],[-4,7],[1,2],[4,-2],[6,0],[4,2],[8,0],[3,2],[-2,6],[2,3],[4,-3],[3,1],[2,7],[0,9],[0,23],[2,6],[3,5],[3,-6],[1,-18],[1,-7],[12,5],[13,9],[8,2],[-8,-13],[-11,-5],[-5,-3],[-8,-6],[-5,-8],[1,-6],[4,-3],[2,-6],[-7,1],[-4,-2],[-5,-1],[-2,0],[-4,-1],[-5,-2],[-3,-2],[6,-7],[10,-5],[0,-2],[-12,3],[-10,6],[-5,-1],[-3,1],[-2,1]],[[1583,32],[6,4],[14,0],[2,-2],[0,-2],[-9,-4],[-10,1],[-3,3]],[[2552,187],[-12,2],[1,-2],[4,-6],[11,-6],[5,-1],[-1,7],[-3,3],[-5,3]],[[3778,1475],[-4,5],[-12,-12],[6,-12],[2,1],[1,2],[4,7],[3,9]],[[3774,1340],[-2,-24],[7,5],[-1,6],[8,14],[3,11],[-4,5],[-4,-3],[-4,-6],[-3,-8]],[[4075,1715],[-2,4],[-2,3],[-3,2],[-13,-16],[3,-4],[10,2],[4,-3],[0,5],[1,4],[2,3]],[[890,3821],[-3,-6],[-2,-14],[0,-4],[3,-2],[9,0],[1,4],[4,13],[2,1],[5,1],[10,10],[-9,5],[-7,0],[-6,-2],[-7,-6]],[[3527,4042],[-16,-3],[-11,-8],[-12,-20],[0,-24],[-11,-11],[-13,-25],[10,2],[18,9],[16,13],[14,19],[3,0],[10,35],[-8,13]],[[4096,3961],[-1,1],[-1,-3],[2,-1]],[[3636,4096],[5,-3],[7,1],[6,2]],[[3581,4083],[1,2],[-2,5],[-9,2],[-7,-1],[-14,-6],[-2,-6],[0,-2],[-2,-4],[2,-3],[9,-7],[24,20]],[[3667,4082],[25,3],[5,5],[1,6]],[[3665,4096],[-6,-5],[-3,-4],[11,-5]],[[3598,4096],[2,-1],[1,1]],[[53,4024],[-6,-7],[-5,-4],[-6,-6],[0,-2],[2,-2],[4,-2],[11,4],[5,8],[6,4],[3,6],[0,3],[-2,1],[-3,1],[-9,-4]],[[898,4096],[0,-1],[-9,-10],[-8,-6],[-15,-20],[2,-7],[7,-14],[10,-4],[-7,0],[-9,3],[-5,-9],[-4,-17],[-7,-5],[-19,-7],[-6,-11],[8,-21],[1,-9],[-3,-25],[7,-19],[0,-11],[-1,-15],[-9,-6],[-8,-5],[1,-4],[1,-4],[9,-8],[14,-5],[21,-22],[7,-5],[8,-4],[3,5],[1,3],[11,10],[6,14],[5,4],[-3,-21],[4,-2],[6,3],[4,13],[-1,28],[5,7],[0,-4],[0,-6],[1,-19],[7,-12],[2,-10],[-9,-20],[-9,-31],[-3,-7],[-6,-7],[-7,-4],[-5,-5],[-13,-5],[-2,-2],[-17,-10],[-13,-15],[-13,-9],[-9,-15],[-31,-35],[-5,-9],[-4,-35],[4,-9],[8,-12],[8,-15],[-4,-7],[-1,-6],[20,-31],[6,-16],[0,-13],[-4,-8],[-6,-2],[-9,5],[-7,-6],[-1,-7],[3,-11],[8,-8],[22,-15],[64,-37],[11,-12],[8,-13],[13,-16],[13,-23],[3,-13],[19,-41],[6,-9],[13,-12],[14,-17],[8,-19],[15,-21],[1,-13],[8,-23],[7,-18],[13,-22],[8,-28],[7,-16],[8,-27],[9,-18],[32,-57],[7,-19],[2,-17],[1,-9],[29,-25],[8,-13],[6,-26],[0,-13],[9,-5],[2,-7],[4,-4],[15,-13],[6,-18],[11,-20],[8,-10],[5,-16],[6,-12],[19,-26],[4,-15],[-7,-29],[-6,-1],[-5,-5],[7,-8],[1,-19],[10,-9],[4,-9],[12,-18],[6,-14],[18,-15],[19,-11],[12,-20],[11,-8],[8,-14],[8,-9],[50,-29],[16,-14],[21,-7],[29,-24],[9,-5],[30,-11],[12,-8],[28,-13],[15,-10],[30,-9],[9,-7],[9,-10],[14,-12],[13,-7],[9,-8],[9,-5],[22,-10],[9,-7],[3,-5],[3,-20],[3,-6],[25,-20],[11,-5],[11,-12],[30,-23],[6,-7],[6,-5],[2,-20],[0,-23],[5,-44],[6,-22],[1,-12],[4,-10],[1,-10],[0,-42],[-4,-30],[0,-20],[9,-52],[1,-11],[-1,-13],[-3,-15],[-3,-23],[-2,-10],[-4,-22],[-3,-37],[-7,-29],[-5,-12],[-5,-6],[-11,-3],[0,-11],[-3,-8],[1,-12],[7,-11],[8,-5],[3,-3],[-2,-9],[-7,-13],[-2,-10],[-1,-9],[1,-16],[-3,-20],[-3,-31],[2,-14],[10,-39],[-1,-8],[-3,-12],[-8,-12],[-5,-5],[-8,-24],[2,-8],[6,-13],[-3,-23],[2,-11],[-4,-9],[-2,-17],[-9,-25],[-1,-11],[-7,-23],[-2,-12],[1,-20],[-2,-9],[-2,-2],[-9,-11],[-3,-9],[-7,-25],[-3,-31],[-7,-13],[-3,-17],[-8,-10],[-10,-8],[-2,-7],[3,-27],[12,-16],[3,-9],[1,-21],[-3,-28],[-5,-21],[-25,-19],[-3,-29],[0,-13],[5,-23],[-1,-18],[8,-33],[5,-31],[1,-40],[8,-18],[-4,-15],[1,-12],[-12,-31],[-4,-6],[-10,-7],[4,-19],[0,-14],[6,-9],[-3,-14],[-15,-16],[-2,-7],[-7,-13],[-7,-15],[1,-12],[-3,-13],[-3,-20],[-11,-30],[-4,-18],[-15,-14],[-6,-10],[-5,-11],[-5,-6],[-5,-8],[3,-17],[-9,-12],[-8,-10],[-9,-41],[-9,-15],[-3,-11],[-10,-4],[-2,-11],[-1,-8],[-2,-18],[-4,-11],[-5,-4],[-10,-2],[-20,4],[-3,-7],[-3,-8],[5,-14],[-5,-11],[0,-11],[13,-21],[5,-13],[-1,-9],[-5,-24],[1,-14],[4,-12],[23,-60],[-2,-19],[-15,-37],[-7,-6],[-17,-11],[0,-12],[-6,-18],[-4,-21],[-12,-40],[-6,-10],[0,-1]],[[2262,0],[0,3],[1,7],[6,7],[14,8],[4,-1],[6,-2],[-1,-3],[-3,-2],[21,-4],[22,-7],[16,-6]],[[2492,0],[21,9],[8,8],[5,14],[-13,21],[-3,10],[2,16],[7,25],[4,5],[3,2],[11,5],[4,26],[1,11],[-5,3],[-5,5],[12,1],[-7,6],[-7,5],[-8,2],[-4,9],[3,16],[-6,14],[3,5],[13,-1],[12,-11],[19,-4],[23,-4],[20,2],[24,-1],[19,1],[98,14],[14,4],[61,13],[75,23],[49,27],[9,8],[4,18],[10,16],[28,30],[33,49],[5,11],[0,11],[-3,31],[-2,4],[-2,4],[-18,0],[-12,5],[-17,15],[-7,12],[-3,13],[2,18],[17,21],[-1,14],[-12,18],[-22,17],[-20,12],[-47,21],[-12,16],[-5,7],[-5,16],[4,3],[4,1],[4,6],[-2,14],[-1,7],[-3,9],[-7,14],[-1,9],[8,38],[3,17],[4,4],[7,-1],[5,1],[4,6],[3,6],[-4,39],[1,9],[4,-9],[3,-19],[4,-14],[-1,-7],[-5,-10],[-6,-6],[-7,-1],[-6,-5],[1,-7],[-6,-25],[-2,-21],[3,-20],[18,-19],[22,-20],[6,-8],[2,-6],[4,-3],[26,3],[34,-1],[29,-22],[36,-10],[6,-8],[13,-4],[5,-1],[7,0],[23,10],[18,3],[27,-3],[12,-9],[13,0],[18,-4],[49,20],[8,7],[9,0],[15,15],[20,14],[4,13],[19,23],[6,17],[5,7],[4,3],[41,34],[14,14],[10,13],[14,26],[15,44],[6,11],[8,10],[5,6],[-3,8],[-3,12],[0,8],[7,19],[8,10],[3,11],[2,10],[5,5],[19,9],[19,14],[4,5],[-2,8],[2,6],[8,7],[1,17],[4,-3],[3,-5],[0,16],[3,13],[6,5],[3,5],[-12,12],[-1,10],[0,11],[4,-3],[2,-6],[5,-9],[12,-5],[2,-10],[8,-1],[26,14],[8,-2],[1,-6],[-3,-12],[-3,-2],[-6,4],[-3,-1],[2,-28],[-7,-11],[-16,-9],[-2,-10],[1,-5],[-2,-4],[-12,1],[-5,-3],[1,-15],[-2,-7],[-9,-14],[-16,-8],[-21,-22],[-11,-2],[-4,-4],[-4,-3],[-10,5],[-6,-1],[0,-9],[2,-6],[-2,-9],[2,-5],[11,13],[11,9],[31,19],[28,22],[21,23],[16,19],[11,17],[30,47],[24,62],[26,44],[22,29],[21,20],[23,18],[20,12],[0,13],[10,13],[4,11],[2,13],[2,25],[-4,27],[7,18],[-2,11],[3,7],[-1,7],[-2,7],[-2,17],[-6,18],[0,9],[2,9],[1,12],[-5,5],[-4,8],[3,5],[3,0],[6,4],[3,25],[-3,6],[-6,0],[1,3],[11,3],[13,22],[-2,4],[-7,3],[-17,3],[-4,12],[8,-6],[8,-2],[8,1],[4,4],[-3,9],[5,4],[12,-3],[8,-1],[-5,-9],[3,-1],[17,18],[8,6],[2,10],[-4,1],[-3,3],[7,3],[3,0],[4,5],[22,17],[41,29],[25,26],[22,12],[60,32],[11,3],[17,0],[12,-4],[6,0],[3,4],[0,8],[9,8],[10,3],[20,15]],[[4096,3943],[-2,2],[-5,4],[-10,-4],[-5,-12],[-4,-7],[-4,-2],[-2,15],[-10,21],[-9,3],[-8,-2],[-12,10],[-17,6],[-7,9],[-9,-2],[-7,2],[0,7],[-9,-1],[-9,1],[-9,3],[-9,3],[-3,5],[-11,8],[-4,6],[-7,0],[-5,4],[-7,-1],[-10,0],[-6,7],[-6,3],[-12,2],[-4,-2],[-2,-3],[3,-4],[1,-5],[-5,2],[-8,8],[-8,-5],[-4,0],[-4,1],[-3,3],[-4,2],[-6,-3],[-8,-8],[-6,7],[-3,-1],[-5,-3],[-1,-5],[-6,-4],[-6,-6],[-5,-7],[1,-8],[-13,-10],[4,-9],[-7,-9],[1,-7],[2,-5],[9,-4],[-9,-4],[-1,-9],[-6,4],[-7,8],[-10,0],[-25,-34],[-15,-5],[-5,-4],[-18,-42],[-5,-16],[-6,-10],[-5,-3],[-5,-3],[3,8],[5,6],[4,24],[4,9],[6,22],[7,24],[-24,-14],[-13,-6],[-16,6],[-9,4],[-11,-3],[-5,-4],[-8,-2],[-13,-9],[-16,16],[-5,3],[-5,6],[1,7],[0,5],[-10,15],[-3,11],[0,7],[-2,8],[-5,7],[-2,5],[8,7],[-1,4],[-5,6],[-8,-5],[-4,-4],[-16,-11],[-8,-8],[-21,-13],[-11,-4],[-27,-20],[-23,-5],[-10,8],[-33,1],[10,4],[30,15],[19,-4],[4,3],[4,5],[1,14],[9,6],[9,10],[0,16],[2,10],[13,21],[6,4],[8,12],[10,21],[1,9],[17,6],[2,3]],[[1016,739],[-2,1],[-2,0],[-1,0],[-4,-4],[-4,-3],[-1,-2],[1,0],[16,2],[3,0],[0,2],[-1,2],[-5,2]],[[3779,1321],[-7,-5],[2,24],[3,8],[4,6],[4,3],[4,-5],[-3,-11],[-8,-14],[1,-6]],[[53,4005],[-11,-4],[-4,2],[-2,2],[0,2],[6,6],[5,4],[6,7],[9,4],[3,-1],[2,-1],[0,-3],[-3,-6],[-6,-4],[-5,-8]],[[898,3799],[-1,-4],[-9,0],[-3,2],[0,4],[2,14],[3,6],[7,6],[6,2],[7,0],[9,-5],[-10,-10],[-5,-1],[-2,-1],[-4,-13]],[[3474,3953],[-10,-2],[13,25],[11,11],[0,24],[12,20],[11,8],[16,3],[8,-13],[-10,-35],[-3,0],[-14,-19],[-16,-13],[-18,-9]],[[3675,4073],[8,0],[12,2],[8,4],[9,1],[9,0],[30,-6],[18,-1],[7,-2],[6,-2],[5,-3],[1,-5],[-4,-9],[-3,-9],[-3,-13],[-3,-3],[-4,1],[3,-12],[-1,-5],[-2,-4],[-5,-10],[-7,-12],[-2,-2],[-6,-4],[-4,-6],[0,-5],[3,-5],[-3,-6],[-9,-9],[-5,-2],[-5,-1],[-4,1],[-8,9],[-1,-7],[-2,-8],[-2,-4],[-10,1],[-6,4],[-9,4],[-2,-12],[-6,-8],[-5,-3],[-9,-1],[-5,-4],[-10,3],[-9,5],[-5,1],[-4,-5],[-21,-1],[-9,-4],[-6,1],[-9,9],[-1,6],[-5,12],[-5,15],[-3,13],[2,11],[6,0],[7,-2],[1,1],[0,4],[-1,3],[-11,-1],[-6,7],[-2,10],[2,22],[1,4],[4,7],[2,5],[-1,6],[2,11],[4,9],[17,11],[19,4],[57,-11]],[[3581,4083],[-24,-20],[-9,7],[-2,3],[2,4],[0,2],[2,6],[14,6],[7,1],[9,-2],[2,-5],[-1,-2]],[[3692,4085],[-25,-3],[-11,5],[3,4],[6,5],[33,0],[-1,-6],[-5,-5]],[[4096,3943],[0,-2188],[-20,-15],[-10,-3],[-9,-8],[0,-8],[-3,-4],[-6,0],[-12,4],[-17,0],[-11,-3],[-60,-32],[-22,-12],[-25,-26],[-41,-29],[-22,-17],[-4,-5],[-3,0],[-7,-3],[3,-3],[4,-1],[-2,-10],[-8,-6],[-17,-18],[-3,1],[5,9],[-8,1],[-12,3],[-5,-4],[3,-9],[-4,-4],[-8,-1],[-8,2],[-8,6],[4,-12],[17,-3],[7,-3],[2,-4],[-13,-22],[-11,-3],[-1,-3],[6,0],[3,-6],[-3,-25],[-6,-4],[-3,0],[-3,-5],[4,-8],[5,-5],[-1,-12],[-2,-9],[0,-9],[6,-18],[2,-17],[2,-7],[1,-7],[-3,-7],[2,-11],[-7,-18],[4,-27],[-2,-25],[-2,-13],[-4,-11],[-10,-13],[0,-13],[-20,-12],[-23,-18],[-21,-20],[-22,-29],[-26,-44],[-24,-62],[-30,-47],[-11,-17],[-16,-19],[-21,-23],[-28,-22],[-31,-19],[-11,-9],[-11,-13],[-2,5],[2,9],[-2,6],[0,9],[6,1],[10,-5],[4,3],[4,4],[11,2],[21,22],[16,8],[9,14],[2,7],[-1,15],[5,3],[12,-1],[2,4],[-1,5],[2,10],[16,9],[7,11],[-2,28],[3,1],[6,-4],[3,2],[3,12],[-1,6],[-8,2],[-26,-14],[-8,1],[-2,10],[-12,5],[-5,9],[-2,6],[-4,3],[0,-11],[1,-10],[12,-12],[-3,-5],[-6,-5],[-3,-13],[0,-16],[-3,5],[-4,3],[-1,-17],[-8,-7],[-2,-6],[2,-8],[-4,-5],[-19,-14],[-19,-9],[-5,-5],[-2,-10],[-3,-11],[-8,-10],[-7,-19],[0,-8],[3,-12],[3,-8],[-5,-6],[-8,-10],[-6,-11],[-15,-44],[-14,-26],[-10,-13],[-14,-14],[-41,-34],[-4,-3],[-5,-7],[-6,-17],[-19,-23],[-4,-13],[-20,-14],[-15,-15],[-9,0],[-8,-7],[-49,-20],[-18,4],[-13,0],[-12,9],[-27,3],[-18,-3],[-23,-10],[-7,0],[-5,1],[-13,4],[-6,8],[-36,10],[-29,22],[-34,1],[-26,-3],[-4,3],[-2,6],[-6,8],[-22,20],[-18,19],[-3,20],[2,21],[6,25],[-1,7],[6,5],[7,1],[6,6],[5,10],[1,7],[-4,14],[-3,19],[-4,9],[-1,-9],[4,-39],[-3,-6],[-4,-6],[-5,-1],[-7,1],[-4,-4],[-3,-17],[-8,-38],[1,-9],[7,-14],[3,-9],[1,-7],[2,-14],[-4,-6],[-4,-1],[-4,-3],[5,-16],[5,-7],[12,-16],[47,-21],[20,-12],[22,-17],[12,-18],[1,-14],[-17,-21],[-2,-18],[3,-13],[7,-12],[17,-15],[12,-5],[18,0],[2,-4],[2,-4],[3,-31],[0,-11],[-5,-11],[-33,-49],[-28,-30],[-10,-16],[-4,-18],[-9,-8],[-49,-27],[-75,-23],[-61,-13],[-14,-4],[-98,-14],[-19,-1],[-24,1],[-20,-2],[-23,4],[-19,4],[-12,11],[-13,1],[-3,-5],[6,-14],[-3,-16],[4,-9],[8,-2],[7,-5],[7,-6],[-12,-1],[5,-5],[5,-3],[-1,-11],[-4,-26],[-11,-5],[-3,-2],[-4,-5],[-7,-25],[-2,-16],[3,-10],[13,-21],[-5,-14],[-8,-8],[-21,-9],[-144,0],[-16,6],[-22,7],[-21,4],[3,2],[1,3],[-6,2],[-4,1],[-14,-8],[-6,-7],[-1,-7],[0,-3],[-804,0],[0,1],[6,10],[12,40],[4,21],[6,18],[0,12],[17,11],[7,6],[15,37],[2,19],[-23,60],[-4,12],[-1,14],[5,24],[1,9],[-5,13],[-13,21],[0,11],[5,11],[-5,14],[3,8],[3,7],[20,-4],[10,2],[5,4],[4,11],[2,18],[1,8],[2,11],[10,4],[3,11],[9,15],[9,41],[8,10],[9,12],[-3,17],[5,8],[5,6],[5,11],[6,10],[15,14],[4,18],[11,30],[3,20],[3,13],[-1,12],[7,15],[7,13],[2,7],[15,16],[3,14],[-6,9],[0,14],[-4,19],[10,7],[4,6],[12,31],[-1,12],[4,15],[-8,18],[-1,40],[-5,31],[-8,33],[1,18],[-5,23],[0,13],[3,29],[25,19],[5,21],[3,28],[-1,21],[-3,9],[-12,16],[-3,27],[2,7],[10,8],[8,10],[3,17],[7,13],[3,31],[7,25],[3,9],[9,11],[2,2],[2,9],[-1,20],[2,12],[7,23],[1,11],[9,25],[2,17],[4,9],[-2,11],[3,23],[-6,13],[-2,8],[8,24],[5,5],[8,12],[3,12],[1,8],[-10,39],[-2,14],[3,31],[3,20],[-1,16],[1,9],[2,10],[7,13],[2,9],[-3,3],[-8,5],[-7,11],[-1,12],[3,8],[0,11],[11,3],[5,6],[5,12],[7,29],[3,37],[4,22],[2,10],[3,23],[3,15],[1,13],[-1,11],[-9,52],[0,20],[4,30],[0,42],[-1,10],[-4,10],[-1,12],[-6,22],[-5,44],[0,23],[-2,20],[-6,5],[-6,7],[-30,23],[-11,12],[-11,5],[-25,20],[-3,6],[-3,20],[-3,5],[-9,7],[-22,10],[-9,5],[-9,8],[-13,7],[-14,12],[-9,10],[-9,7],[-30,9],[-15,10],[-28,13],[-12,8],[-30,11],[-9,5],[-29,24],[-21,7],[-16,14],[-50,29],[-8,9],[-8,14],[-11,8],[-12,20],[-19,11],[-18,15],[-6,14],[-12,18],[-4,9],[-10,9],[-1,19],[-7,8],[5,5],[6,1],[7,29],[-4,15],[-19,26],[-6,12],[-5,16],[-8,10],[-11,20],[-6,18],[-15,13],[-4,4],[-2,7],[-9,5],[0,13],[-6,26],[-8,13],[-29,25],[-1,9],[-2,17],[-7,19],[-32,57],[-9,18],[-8,27],[-7,16],[-8,28],[-13,22],[-7,18],[-8,23],[-1,13],[-15,21],[-8,19],[-14,17],[-13,12],[-6,9],[-19,41],[-3,13],[-13,23],[-13,16],[-8,13],[-11,12],[-64,37],[-22,15],[-8,8],[-3,11],[1,7],[7,6],[9,-5],[6,2],[4,8],[0,13],[-6,16],[-20,31],[1,6],[4,7],[-8,15],[-8,12],[-4,9],[4,35],[5,9],[31,35],[9,15],[13,9],[13,15],[17,10],[2,2],[13,5],[5,5],[7,4],[6,7],[3,7],[9,31],[9,20],[-2,10],[-7,12],[-1,19],[0,6],[0,4],[-5,-7],[1,-28],[-4,-13],[-6,-3],[-4,2],[3,21],[-5,-4],[-6,-14],[-11,-10],[-1,-3],[-3,-5],[-8,4],[-7,5],[-21,22],[-14,5],[-9,8],[-1,4],[-1,4],[8,5],[9,6],[1,15],[0,11],[-7,19],[3,25],[-1,9],[-8,21],[6,11],[19,7],[7,5],[4,17],[5,9],[9,-3],[7,0],[-10,4],[-7,14],[-2,7],[15,20],[8,6],[9,10],[0,1],[2645,0],[-2,-3],[-17,-6],[-1,-9],[-10,-21],[-8,-12],[-6,-4],[-13,-21],[-2,-10],[0,-16],[-9,-10],[-9,-6],[-1,-14],[-4,-5],[-4,-3],[-19,4],[-30,-15],[-10,-4],[33,-1],[10,-8],[23,5],[27,20],[11,4],[21,13],[8,8],[16,11],[4,4],[8,5],[5,-6],[1,-4],[-8,-7],[2,-5],[5,-7],[2,-8],[0,-7],[3,-11],[10,-15],[0,-5],[-1,-7],[5,-6],[5,-3],[16,-16],[13,9],[8,2],[5,4],[11,3],[9,-4],[16,-6],[13,6],[24,14],[-7,-24],[-6,-22],[-4,-9],[-4,-24],[-5,-6],[-3,-8],[5,3],[5,3],[6,10],[5,16],[18,42],[5,4],[15,5],[25,34],[10,0],[7,-8],[6,-4],[1,9],[9,4],[-9,4],[-2,5],[-1,7],[7,9],[-4,9],[13,10],[-1,8],[5,7],[6,6],[6,4],[1,5],[5,3],[3,1],[6,-7],[8,8],[6,3],[4,-2],[3,-3],[4,-1],[4,0],[8,5],[8,-8],[5,-2],[-1,5],[-3,4],[2,3],[4,2],[12,-2],[6,-3],[6,-7],[10,0],[7,1],[5,-4],[7,0],[4,-6],[11,-8],[3,-5],[9,-3],[9,-3],[9,-1],[9,1],[0,-7],[7,-2],[9,2],[7,-9],[17,-6],[12,-10],[8,2],[9,-3],[10,-21],[2,-15],[4,2],[4,7],[5,12],[10,4],[5,-4],[2,-2]]]}