{"objects":{"water":{"type":"GeometryCollection","geometries":[{"type":"MultiPolygon","properties":{"source":"naturalearthdata.com","kind":"ocean","area":1576712559132672,"sort_rank":200,"min_zoom":0.0,"id":1},"arcs":[[[6],[7],[8],[9]],[[10]]]},{"type":"LineString","properties":{"source":"naturalearthdata.com","kind":"ocean","sort_rank":205,"boundary":true,"min_zoom":0.0,"id":339},"arcs":[11]},{"type":"MultiLineString","properties":{"source":"naturalearthdata.com","kind":"ocean","sort_rank":205,"boundary":true,"min_zoom":0.0,"id":459},"arcs":[[12],[13],[14],[15]]},{"type":"LineString","properties":{"source":"naturalearthdata.com","kind":"ocean","sort_rank":205,"boundary":true,"min_zoom":0.0,"id":466},"arcs":[16]},{"type":"MultiLineString","properties":{"source":"naturalearthdata.com","kind":"ocean","sort_rank":205,"boundary":true,"min_zoom":0.0,"id":469},"arcs":[[17],[18]]},{"type":"LineString","properties":{"source":"naturalearthdata.com","kind":"ocean","sort_rank":205,"boundary":true,"min_zoom":0.0,"id":826},"arcs":[19]},{"type":"LineString","properties":{"source":"naturalearthdata.com","kind":"ocean","sort_rank":205,"boundary":true,"min_zoom":0.0,"id":3987},"arcs":[20]}]},"buildings":{"type":"GeometryCollection","geometries":[]},"places":{"type":"GeometryCollection","geometries":[]},"transit":{"type":"GeometryCollection","geometries":[]},"pois":{"type":"GeometryCollection","geometries":[]},"boundaries":{"type":"GeometryCollection","geometries":[{"type":"LineString","properties":{"name:ty":"Tanata","name:ka":"\u10d9\u10d0\u10dc\u10d0\u10d3\u10d0","name:ko":"\uce90\ub098\ub2e4","name:cv":"\u041a\u0430\u043d\u0430\u0434\u0430","name:cu":"\u041a\u0430\u043d\u0430\u0434\u0430","name:cs":"Kanada","name:cr":"\u1473\u14c7\u1456","name:tt":"\u041a\u0430\u043d\u0430\u0434\u0430","name:co":"Canad\u00e0","name:kv":"\u041a\u0430\u043d\u0430\u0434\u0430","name:ku":"Kanada","name:tl":"Kanada","name:ce":"\u041a\u0430\u043d\u0430\u0434\u0430","name:ta":"\u0b95\u0ba9\u0b9f\u0bbe","name:tg":"\u041a\u0430\u043d\u0430\u0434\u0430","name:ca":"Canad\u00e0","name:te":"\u0c15\u0c46\u0c28\u0c21\u0c3e","name:qu":"Kanada","name:de":"Kanada","name:dz":"\u0f40\u0f7a\u0f0b\u0f53\u0f0b\u0f4c\u0f0b","source":"openstreetmap.org","name:kn":"\u0c95\u0cc6\u0ca8\u0ca1\u0cbe","name:dv":"\u0786\u07ac\u0782\u07ac\u0791\u07a7","name:km":"\u1780\u17b6\u178e\u17b6\u178a\u17b6","name:lv":"Kan\u0101da","name:lt":"Kanada","name:uz":"Kanada","name:kk":"\u041a\u0430\u043d\u0430\u0434\u0430","name:tw":"Kanada","name:lb":"Kanada","name:uk":"\u041a\u0430\u043d\u0430\u0434\u0430","name:ug":"\u0643\u0627\u0646\u0627\u062f\u0627","name:ln":"Kanad\u00e1","name:kw":"Kanada","name:eo":"Kanado","name":"Canada","name:tk":"Kanada","name:th":"\u0e1b\u0e23\u0e30\u0e40\u0e17\u0e28\u0e41\u0e04\u0e19\u0e32\u0e14\u0e32","name:eu":"Kanada","name:et":"Kanada","name:es":"Canad\u00e1","name:ay":"Kanada","name:rn":"Kanada","name:az":"Kanada","name:id":"Kanada","name:ig":"K\u00e1nada","name:el":"\u039a\u03b1\u03bd\u03b1\u03b4\u03ac\u03c2","name:as":"\u0995\u09be\u09a8\u09be\u09a1\u09be","name:ar":"\u0643\u0646\u062f\u0627","name:io":"Kanada","name:av":"\u041a\u0430\u043d\u0430\u0434\u0430","name:is":"Kanada","name:am":"\u12ab\u1293\u12f3","name:an":"Canad\u00e1","name:ru":"\u041a\u0430\u043d\u0430\u0434\u0430","name:ab":"\u041a\u0430\u043d\u0430\u0434\u0430","name:af":"Kanada","name:zu":"IKhanada","kind_detail":"2","name:ky":"\u041a\u0430\u043d\u0430\u0434\u0430","name:zh-yue":"\u52a0\u62ff\u5927","name:zh":"\u52a0\u62ff\u5927","name:so":"Kanada","name:sl":"Kanada","name:sk":"Kanada","name:ja":"\u30ab\u30ca\u30c0","name:sh":"Kanada","name:sg":"Kanad\u00e4a","name:se":"Kan\u00e1da","name:sa":"\u0915\u0947\u0928\u0921\u093e","name:bs":"Kanada","name:bm":"Kanada","name:bn":"\u0995\u09be\u09a8\u09be\u09a1\u09be","name:bo":"\u0f41\u0f0b\u0f53\u0f0b\u0f4c\u0f0d","name:br":"Kanada","name:sw":"Kanada","name:be":"\u041a\u0430\u043d\u0430\u0434\u0430","name:su":"Kanada","name:bg":"\u041a\u0430\u043d\u0430\u0434\u0430","name:ss":"IKhanada","name:ba":"\u041a\u0430\u043d\u0430\u0434\u0430","name:sq":"Kanadaja","name:jv":"Kanada","name:bi":"Kanada","name:pt":"Canad\u00e1","name:ps":"\u06a9\u0627\u0646\u0627\u0689\u0627","name:oc":"Canad\u00e0","min_zoom":8.0,"name:pa":"\u0a15\u0a48\u0a28\u0a47\u0a21\u0a3e","name:os":"\u041a\u0430\u043d\u0430\u0434\u00e6","name:or":"\u0b15\u0b3e\u0b28\u0b3e\u0b21\u0b3c\u0b3e","name:pl":"Kanada","sort_rank":262,"name:sr":"\u041a\u0430\u043d\u0430\u0434\u0430","osm_relation":true,"name:ik":"Kanada","name:tr":"Kanada","name:hi":"\u0915\u0928\u093e\u0921\u093e","name:sv":"Kanada","name:he":"\u05e7\u05e0\u05d3\u05d4","name:ha":"Kanada","name:hy":"\u053f\u0561\u0576\u0561\u0564\u0561","name:ht":"Kanada","name:hu":"Kanada","name:hr":"Kanada","kind":"country","name:yi":"\u05e7\u05d0\u05e0\u05d0\u05d3\u05e2","name:iu":"\u1472\u14c7\u1455 \/ kanata","name:yo":"K\u00e1n\u00e1d\u00e0","name:mt":"Kanada","name:ms":"Kanada","name:mr":"\u0915\u0945\u0928\u0921\u093e","name:my":"\u1000\u1014\u1031\u1012\u102b\u1014\u102d\u102f\u1004\u103a\u1004\u1036","name:mg":"Kanada","name:ml":"\u0d15\u0d3e\u0d28\u0d21","name:mn":"\u041a\u0430\u043d\u0430\u0434","name:mi":"K\u0101nata","id":-1428125,"name:mk":"\u041a\u0430\u043d\u0430\u0434\u0430","name:vo":"Kanad\u00e4n","name:fa":"\u06a9\u0627\u0646\u0627\u062f\u0627","name:rw":"Kanada","name:fi":"Kanada","old_name:vi":"Gia N\u00e3 \u0110\u1ea1i","name:fo":"Kanada","alt_name:vi":"Ca-na-\u0111a","name:fy":"Kanada","name:na":"Kanada","name:ne":"\u0915\u094d\u092f\u093e\u0928\u093e\u0921\u093e","name:ur":"\u06a9\u06cc\u0646\u06cc\u0688\u0627","name:wo":"Kanadaa","name:nv":"Deeteel Bik\u00e9yah","name:ga":"Ceanada","name:gn":"Kanat\u00e3","name:gl":"Canad\u00e1","maritime_boundary":true,"name:gv":"Yn Chanadey","name:gu":"\u0a95\u0ac7\u0aa8\u0ac7\u0aa1\u0abe"},"arcs":[0]},{"type":"LineString","properties":{"name:ty":"Fenua Marite","name:cy":"Unol Daleithiau America","name:ko":"\ubbf8\uad6d","name:cv":"\u0410\u043c\u0435\u0440\u0438\u043a\u0103\u0440\u0438 \u041f\u0115\u0440\u043b\u0435\u0448\u04f3\u043b\u043b\u0115 \u0428\u0442\u0430\u0442\u0441\u0435\u043c","name:cu":"\u0410\u043c\u0454\u0440\u0438\u043a\u0430\u0301\u043d\u044c\u0441\u043a\ua651 \u0464\u0434\u044c\u043d\u0465\u043d\ua651\u0301 \u0414\u0440\u044c\u0436\u0430\u0301\u0432\ua651","name:kl":"Naalagaaffeqatigiit","name:cs":"Spojen\u00e9 st\u00e1ty americk\u00e9","name:tw":"USA","name:ki":"United States","name:co":"Stati Uniti d'America","name:kv":"\u0410\u043c\u0435\u0440\u0438\u043a\u0430\u0441\u0430 \u04e6\u0442\u0443\u0432\u0442\u04e7\u043c \u0428\u0442\u0430\u0442\u044a\u044f\u0441","name:th":"\u0e2a\u0e2b\u0e23\u0e31\u0e10\u0e2d\u0e40\u0e21\u0e23\u0e34\u0e01\u0e32","name:ks":"\u0938\u0902\u092f\u0941\u0915\u094d\u0924 \u0930\u093e\u091c\u094d\u200d\u092f \u0905\u092e\u0947\u0930\u093f\u0915\u093e","name:to":"Pule\u02bbanga Fakataha 'o 'Amelika","name:tl":"Estados Unidos","name:ce":"I\u0430\u043c\u0435\u0440\u043a\u0430 \u043f\u0430\u0447\u0445\u044c\u0430\u043b\u043a","name:ta":"\u0b85\u0bae\u0bc6\u0bb0\u0bbf\u0b95\u0bcd\u0b95 \u0b90\u0b95\u0bcd\u0b95\u0bbf\u0baf \u0ba8\u0bbe\u0b9f\u0bc1","name:tg":"\u0418\u0451\u043b\u043e\u0442\u0438 \u041c\u0443\u0442\u0442\u0430\u04b3\u0438\u0434\u0430\u0438 \u0410\u043c\u0440\u0438\u043a\u043e","name:ca":"Estats Units d'Am\u00e8rica","name:te":"\u0c05\u0c2e\u0c46\u0c30\u0c3f\u0c15\u0c3e \u0c38\u0c02\u0c2f\u0c41\u0c15\u0c4d\u0c24 \u0c30\u0c3e\u0c37\u0c4d\u0c1f\u0c4d\u0c30\u0c3e\u0c32\u0c41","name:ka":"\u10d0\u10db\u10d4\u10e0\u10d8\u10d9\u10d8\u10e1 \u10e8\u10d4\u10d4\u10e0\u10d7\u10d4\u10d1\u10e3\u10da\u10d8 \u10e8\u10e2\u10d0\u10e2\u10d4\u10d1\u10d8","name:hr":"Sjedinjene Ameri\u010dke Dr\u017eave","name:da":"Amerikas Forenede Stater","name:de":"Vereinigte Staaten von Amerika","name:dz":"\u0f61\u0f74\u0f0b\u0f53\u0f60\u0f72\u0f4a\u0f7a\u0f4a\u0f0b\u0f66\u0f72\u0f0b\u0f4a\u0f7a\u0f66","source":"openstreetmap.org","name:kn":"\u0c85\u0cae\u0cc7\u0cb0\u0cbf\u0c95 \u0cb8\u0c82\u0caf\u0cc1\u0c95\u0ccd\u0ca4 \u0cb8\u0c82\u0cb8\u0ccd\u0ca5\u0cbe\u0ca8","name:dv":"\u0787\u07ac\u0789\u07ac\u0783\u07a8\u0786\u07a7","name:km":"\u179f\u17a0\u179a\u178a\u17d2\u178b\u17a2\u17b6\u1798\u17c1\u179a\u17b7\u1780","name:lv":"Amerikas Savienot\u0101s Valstis","name:lt":"Jungtin\u0117s Amerikos Valstijos","name:uz":"Amerika Qo\u02bbshma Shtatlari","name:kk":"\u0410\u043c\u0435\u0440\u0438\u043a\u0430 \u049a\u04b1\u0440\u0430\u043c\u0430 \u0428\u0442\u0430\u0442\u0442\u0430\u0440\u044b","name:ur":"\u0631\u06cc\u0627\u0633\u062a\u06c1\u0627\u0626\u06d2 \u0645\u062a\u062d\u062f\u06c1 \u0627\u0645\u0631\u06cc\u06a9\u06c1","name:lb":"Vereenegt Staate vun Amerika","name:la":"Civitates Foederatae Americae","name:lg":"Amereka","name:uk":"\u0421\u043f\u043e\u043b\u0443\u0447\u0435\u043d\u0456 \u0428\u0442\u0430\u0442\u0438 \u0410\u043c\u0435\u0440\u0438\u043a\u0438","name:ug":"\u0626\u0627\u0645\u06d0\u0631\u0649\u0643\u0627 \u0642\u0648\u0634\u0645\u0627 \u0634\u062a\u0627\u062a\u0644\u0649\u0631\u0649","name:li":"Vereinegde State van Amerika","name:ln":"Lisang\u00e1 lya Amer\u00edka","name:lo":"\u0eaa\u0eb0\u0eab\u0eb0\u0ea5\u0eb1\u0e94\u0ead\u0eb2\u0ec0\u0ea1\u0ea5\u0eb4\u0e81\u0eb2","name:kw":"Statys Unys Amerika","name:eo":"Usono","name":"United States of America","name:tk":"Amerikany\u0148 Birle\u015fen \u015etatlary","name:ee":"United States","name:ku":"Dewlet\u00ean Yekb\u00fby\u00ee y\u00ean Amer\u00eekay\u00ea","name:eu":"Ameriketako Estatu Batuak","name:tn":"USA","name:es":"Estados Unidos de Am\u00e9rica","name:ay":"Istadus Unidus","name:rm":"Stadis Unids da l'America","name:rn":"Leta Zunze Ubumwe za Amerika","name:az":"Amerika Birl\u0259\u015fmi\u015f \u015etatlar\u0131","name:ie":"Unit States de America","name:id":"Amerika Serikat","name:ig":"Njikota Obodo Amerika","name:el":"\u0397\u03bd\u03c9\u03bc\u03ad\u03bd\u03b5\u03c2 \u03a0\u03bf\u03bb\u03b9\u03c4\u03b5\u03af\u03b5\u03c2 \u03c4\u03b7\u03c2 \u0391\u03bc\u03b5\u03c1\u03b9\u03ba\u03ae\u03c2","name:as":"\u09ae\u09be\u09f0\u09cd\u0995\u09bf\u09a8 \u09af\u09c1\u0995\u09cd\u09a4\u09f0\u09be\u09b7\u09cd\u099f\u09cd\u09f0","name:ar":"\u0627\u0644\u0648\u0644\u0627\u064a\u0627\u062a \u0627\u0644\u0645\u062a\u0651\u062d\u062f\u0629 \u0627\u0644\u0623\u0645\u0631\u064a\u0643\u064a\u0651\u0629","name:io":"Unionita Stati di Amerika","name:av":"\u0410\u043c\u0435\u0440\u0438\u043a\u0430\u043b\u044a\u0443\u043b \u0426\u043e\u043b\u044a\u0430\u0440\u0430\u043b \u0428\u0442\u0430\u0442\u0430\u043b","name:is":"Bandar\u00edki Nor\u00f0ur-Amer\u00edku","name:am":"\u12e8\u1270\u1263\u1260\u1229\u1275 \u12e8\u12a0\u121c\u122a\u12ab \u130d\u12db\u1276\u127d","name:it":"Stati Uniti d'America","name:an":"Estatos Unitos d'America","name:ru":"\u0421\u043e\u0435\u0434\u0438\u043d\u0451\u043d\u043d\u044b\u0435 \u0428\u0442\u0430\u0442\u044b \u0410\u043c\u0435\u0440\u0438\u043a\u0438","name:ab":"\u0410\u043c\u0435\u0440\u0438\u043a\u0430 \u0415\u0438\u0434\u0443 \u0410\u0448\u0442\u0430\u0442\u049b\u04d9\u0430","name:af":"Verenigde State van Amerika","name:zu":"IMelika","kind_detail":"2","old_name:ru":"\u0421\u0435\u0432\u0435\u0440\u043e-\u0410\u043c\u0435\u0440\u0438\u043a\u0430\u043d\u0441\u043a\u0438\u0435 \u0421\u043e\u0435\u0434\u0438\u043d\u0451\u043d\u043d\u044b\u0435 \u0428\u0442\u0430\u0442\u044b","name:za":"Meijgoz","name:zh-yue":"\u5373\u7f8e\u5229\u5805\u5408\u773e\u570b","name:zh":"\u7f8e\u5229\u575a\u5408\u4f17\u56fd","name:so":"Mareykanka","name:sm":"Iunaite Sitete o Amerika","name:sl":"Zdru\u017eene dr\u017eave Amerike","name:sk":"Spojen\u00e9 \u0161t\u00e1ty americk\u00e9","name:ja":"\u30a2\u30e1\u30ea\u30ab\u5408\u8846\u56fd","name:si":"\u0d85'\u0db8\u0dd9\u0dbb\u0dd2\u0d9a\u0dcf\u200d\u0dc0\u0dda \u0d91\u0d9a\u0dca\u0dc3\u0dad\u0dca \u0dbb\u0dcf\u0da2\u0dca\u200d\u0dba\u0dba\u0db1\u0dca","name:sh":"Sjedinjene Ameri\u010dke Dr\u017eave","name:sg":"\u00c2K\u00f6d\u00f6r\u00f6-\u00f4ko t\u00ee Amer\u00eeka","name:se":"Amerihk\u00e1 ovttastuvvan st\u00e1htat","name:sd":"\u0622\u0645\u0631\u064a\u06aa\u0627","name:sc":"Istados Unidos de America","name:sa":"\u0938\u0902\u092f\u0941\u0915\u094d\u0924\u093e\u0928\u093f \u0930\u093e\u091c\u094d\u092f\u093e\u0928\u093f","name:bs":"Sjedinjene Ameri\u010dke Dr\u017eave","name:bm":"Amerika ka Kelenyalen Jamanaw","name:bn":"\u09ae\u09be\u09b0\u09cd\u0995\u09bf\u09a8 \u09af\u09c1\u0995\u09cd\u09a4\u09b0\u09be\u09b7\u09cd\u099f\u09cd\u09b0","name:bo":"\u0f68\u0f0b\u0f58\u0f7a\u0f0b\u0f62\u0f72\u0f0b\u0f41\u0f0b\u0f62\u0f92\u0fb1\u0f63\u0f0b\u0f55\u0fb2\u0f53\u0f0b\u0f58\u0f49\u0f58\u0f0b\u0f60\u0f56\u0fb2\u0f7a\u0f63\u0f0b\u0f62\u0f92\u0fb1\u0f63\u0f0b\u0f41\u0f56\u0f0d","name:br":"Stado\u00f9-Unanet Amerika","name:et":"Ameerika \u00dchendriigid","name:sw":"Muungano wa Madola ya Amerika","name:be":"\u0417\u043b\u0443\u0447\u0430\u043d\u044b\u044f \u0428\u0442\u0430\u0442\u044b \u0410\u043c\u0435\u0440\u044b\u043a\u0456","name:su":"Am\u00e9rika Sarikat","name:bg":"\u0421\u044a\u0435\u0434\u0438\u043d\u0435\u043d\u0438 \u0430\u043c\u0435\u0440\u0438\u043a\u0430\u043d\u0441\u043a\u0438 \u0449\u0430\u0442\u0438","name:ss":"IMelika","name:ba":"\u0410\u043c\u0435\u0440\u0438\u043a\u0430 \u04a0\u0443\u0448\u043c\u0430 \u0428\u0442\u0430\u0442\u0442\u0430\u0440\u044b","name:sq":"Shtetet e Bashkuara t\u00eb Amerik\u00ebs","name:jv":"Am\u00e9rika Sar\u00e9kat","name:bi":"Yunaeted Stet blong Amerika","name:ia":"Statos Unite de America","name:pt":"Estados Unidos da Am\u00e9rica","name:ps":"\u062f \u0627\u0645\u0631\u064a\u06a9\u0627 \u0645\u062a\u062d\u062f\u0647 \u0627\u064a\u0627\u0644\u0627\u062a","name:om":"USA","name:oc":"Estats Units d'America","min_zoom":8.0,"name:ro":"Statele Unite ale Americii","name:zh-min-nan":"America Ha\u030dp-chi\u00f2ng-kok","name:os":"\u0410\u043c\u0435\u0440\u0438\u043a\u00e6\u0439\u044b \u0418\u0443\u0433\u043e\u043d\u0434 \u0428\u0442\u0430\u0442\u0442\u00e6","name:or":"\u0b2f\u0b41\u0b15\u0b4d\u0b24\u0b30\u0b3e\u0b37\u0b4d\u0b1f\u0b4d\u0b30 \u0b06\u0b2e\u0b47\u0b30\u0b3f\u0b15\u0b3e","name:pl":"Stany Zjednoczone Ameryki","sort_rank":262,"name:sr":"\u0421\u0458\u0435\u0434\u0438\u045a\u0435\u043d\u0435 \u0410\u043c\u0435\u0440\u0438\u0447\u043a\u0435 \u0414\u0440\u0436\u0430\u0432\u0435","osm_relation":true,"name:xh":"IYunayithedi Steyitsi","name:pa":"\u0a38\u0a70\u0a2f\u0a41\u0a15\u0a24 \u0a30\u0a3e\u0a1c \u0a05\u0a2e\u0a30\u0a40\u0a15\u0a3e","name:tr":"Amerika Birle\u015fik Devletleri","name:hi":"\u0938\u0902\u092f\u0941\u0915\u094d\u0924 \u0930\u093e\u091c\u094d\u092f \u0905\u092e\u0947\u0930\u093f\u0915\u093e","name:sv":"Amerikas F\u00f6renta Stater","name:he":"\u05d0\u05e8\u05e6\u05d5\u05ea \u05d4\u05d1\u05e8\u05d9\u05ea","name:ha":"kunkiyar taraiyar Amurika","name:hy":"\u0531\u0574\u0565\u0580\u056b\u056f\u0561\u0575\u056b \u0544\u056b\u0561\u0581\u0575\u0561\u056c \u0546\u0561\u0570\u0561\u0576\u0563\u0576\u0565\u0580","name:ht":"Etazini","name:hu":"Amerikai Egyes\u00fclt \u00c1llamok","name:qu":"Hukllachasqa Amirika Suyukuna","kind":"country","name:ts":"United States","name:yi":"\u05e4\u05d0\u05e8\u05d0\u05d9\u05d9\u05e0\u05d9\u05e7\u05d8\u05e2 \u05e9\u05d8\u05d0\u05d8\u05df \u05e4\u05d5\u05df \u05d0\u05de\u05e2\u05e8\u05d9\u05e7\u05e2","name:iu":"\u140a\u14a5\u140a\u14d5\u1472","name:yo":"\u00c0w\u1ecdn \u00ccp\u00ednl\u1eb9\u0300 A\u1e63\u1ecd\u0300kan Am\u1eb9\u0301r\u00edk\u00e0","name:mt":"Stati Uniti tal-Amerika","name:ms":"Amerika Syarikat","name:mr":"\u0905\u092e\u0947\u0930\u093f\u0915\u0947\u091a\u0940 \u0938\u0902\u092f\u0941\u0915\u094d\u0924 \u0938\u0902\u0938\u094d\u0925\u093e\u0928\u0947","name:my":"\u1021\u1019\u1031\u101b\u102d\u1000\u1014\u103a\u1015\u103c\u100a\u103a\u1011\u1031\u102c\u1004\u103a\u1005\u102f","name:mg":"Etazonia","name:ml":"\u0d05\u0d2e\u0d47\u0d30\u0d3f\u0d15\u0d4d\u0d15\u0d28\u0d4d\u200d \u0d10\u0d15\u0d4d\u0d2f\u0d28\u0d3e\u0d1f\u0d41\u0d15\u0d33\u0d4d\u200d","name:vi":"Hoa K\u1ef3","name:mn":"\u0410\u043c\u0435\u0440\u0438\u043a\u0438\u0439\u043d \u041d\u044d\u0433\u0434\u0441\u044d\u043d \u0423\u043b\u0441","name:mi":"Hononga-o-Amerika","id":-148838,"name:mk":"\u0421\u043e\u0435\u0434\u0438\u043d\u0435\u0442\u0438 \u0410\u043c\u0435\u0440\u0438\u043a\u0430\u043d\u0441\u043a\u0438 \u0414\u0440\u0436\u0430\u0432\u0438","name:vo":"Lamerik\u00e4n","name:fa":"\u0627\u06cc\u0627\u0644\u0627\u062a \u0645\u062a\u062d\u062f\u0647 \u0622\u0645\u0631\u06cc\u06a9\u0627","name:rw":"Leta Zunze Ubumwe z\u2019Amerika","name:ff":"Dowlaaji Dentu\u0257i","name:fi":"Amerikan yhdysvallat","name:ky":"\u0410\u043c\u0435\u0440\u0438\u043a\u0430 \u041a\u043e\u0448\u043c\u043e \u0428\u0442\u0430\u0442\u0442\u0430\u0440\u044b","old_name:vi":"M\u1ef9 L\u1ee3i Ki\u00ean;Ma Ly C\u0103n;Nh\u00e3 Di L\u00fd","name:fo":"Sambandsr\u00edki\u00f0 Amerika","alt_name:vi":"Hoa K\u00ec;M\u1ef9;M\u0129","name:fr":"\u00c9tats-Unis d'Am\u00e9rique","name:fy":"Feriene Steaten fan Amearika","name:nl":"Verenigde Staten van Amerika","name:nn":"USA","name:no":"Amerikas forente stater","name:na":"Eben Merika","name:ne":"\u0938\u0902\u092f\u0941\u0915\u094d\u0924 \u0930\u093e\u091c\u094d\u092f \u0905\u092e\u0947\u0930\u093f\u0915\u093e","name:wa":"Estats Unis d' Amerike","name:wo":"Diwaan-yu-Bennoo yu Aamerig","name:nv":"W\u00e1\u00e1shindoon Bik\u00e9yah A\u0142hidadiidzoo\u00edg\u00ed\u00ed","name:ga":"St\u00e1it Aontaithe Mheirice\u00e1","name:gd":"Na St\u00e0itean Aonaichte","name:gn":"Tet\u00e3 pete\u0129 reko Am\u00e9rikagua","name:gl":"Estados Unidos de Am\u00e9rica","name:gv":"Steatyn Unnaneysit America","name:gu":"\u0ab8\u0a82\u0aaf\u0ac1\u0a95\u0acd\u0aa4 \u0ab0\u0abe\u0a9c\u0acd\u0aaf \u0a85\u0aae\u0ac7\u0ab0\u0abf\u0a95\u0abe","name:tt":"\u0410\u043c\u0435\u0440\u0438\u043a\u0430 \u041a\u0443\u0448\u043c\u0430 \u0428\u0442\u0430\u0442\u043b\u0430\u0440\u044b"},"arcs":[1]},{"type":"LineString","properties":{"name:ty":"Fenua Marite","name:cy":"Unol Daleithiau America","name:ko":"\ubbf8\uad6d","name:cv":"\u0410\u043c\u0435\u0440\u0438\u043a\u0103\u0440\u0438 \u041f\u0115\u0440\u043b\u0435\u0448\u04f3\u043b\u043b\u0115 \u0428\u0442\u0430\u0442\u0441\u0435\u043c","name:cu":"\u0410\u043c\u0454\u0440\u0438\u043a\u0430\u0301\u043d\u044c\u0441\u043a\ua651 \u0464\u0434\u044c\u043d\u0465\u043d\ua651\u0301 \u0414\u0440\u044c\u0436\u0430\u0301\u0432\ua651","name:kl":"Naalagaaffeqatigiit","name:cs":"Spojen\u00e9 st\u00e1ty americk\u00e9","name:tw":"USA","name:ki":"United States","name:co":"Stati Uniti d'America","name:kv":"\u0410\u043c\u0435\u0440\u0438\u043a\u0430\u0441\u0430 \u04e6\u0442\u0443\u0432\u0442\u04e7\u043c \u0428\u0442\u0430\u0442\u044a\u044f\u0441","name:th":"\u0e2a\u0e2b\u0e23\u0e31\u0e10\u0e2d\u0e40\u0e21\u0e23\u0e34\u0e01\u0e32","name:ks":"\u0938\u0902\u092f\u0941\u0915\u094d\u0924 \u0930\u093e\u091c\u094d\u200d\u092f \u0905\u092e\u0947\u0930\u093f\u0915\u093e","name:to":"Pule\u02bbanga Fakataha 'o 'Amelika","name:tl":"Estados Unidos","name:ce":"I\u0430\u043c\u0435\u0440\u043a\u0430 \u043f\u0430\u0447\u0445\u044c\u0430\u043b\u043a","name:ta":"\u0b85\u0bae\u0bc6\u0bb0\u0bbf\u0b95\u0bcd\u0b95 \u0b90\u0b95\u0bcd\u0b95\u0bbf\u0baf \u0ba8\u0bbe\u0b9f\u0bc1","name:tg":"\u0418\u0451\u043b\u043e\u0442\u0438 \u041c\u0443\u0442\u0442\u0430\u04b3\u0438\u0434\u0430\u0438 \u0410\u043c\u0440\u0438\u043a\u043e","name:ca":"Estats Units d'Am\u00e8rica","name:te":"\u0c05\u0c2e\u0c46\u0c30\u0c3f\u0c15\u0c3e \u0c38\u0c02\u0c2f\u0c41\u0c15\u0c4d\u0c24 \u0c30\u0c3e\u0c37\u0c4d\u0c1f\u0c4d\u0c30\u0c3e\u0c32\u0c41","name:ka":"\u10d0\u10db\u10d4\u10e0\u10d8\u10d9\u10d8\u10e1 \u10e8\u10d4\u10d4\u10e0\u10d7\u10d4\u10d1\u10e3\u10da\u10d8 \u10e8\u10e2\u10d0\u10e2\u10d4\u10d1\u10d8","name:qu":"Hukllachasqa Amirika Suyukuna","name:da":"Amerikas Forenede Stater","name:de":"Vereinigte Staaten von Amerika","name:dz":"\u0f61\u0f74\u0f0b\u0f53\u0f60\u0f72\u0f4a\u0f7a\u0f4a\u0f0b\u0f66\u0f72\u0f0b\u0f4a\u0f7a\u0f66","source":"openstreetmap.org","name:kn":"\u0c85\u0cae\u0cc7\u0cb0\u0cbf\u0c95 \u0cb8\u0c82\u0caf\u0cc1\u0c95\u0ccd\u0ca4 \u0cb8\u0c82\u0cb8\u0ccd\u0ca5\u0cbe\u0ca8","name:dv":"\u0787\u07ac\u0789\u07ac\u0783\u07a8\u0786\u07a7","name:km":"\u179f\u17a0\u179a\u178a\u17d2\u178b\u17a2\u17b6\u1798\u17c1\u179a\u17b7\u1780","name:lv":"Amerikas Savienot\u0101s Valstis","name:lt":"Jungtin\u0117s Amerikos Valstijos","name:uz":"Amerika Qo\u02bbshma Shtatlari","name:kk":"\u0410\u043c\u0435\u0440\u0438\u043a\u0430 \u049a\u04b1\u0440\u0430\u043c\u0430 \u0428\u0442\u0430\u0442\u0442\u0430\u0440\u044b","name:ur":"\u0631\u06cc\u0627\u0633\u062a\u06c1\u0627\u0626\u06d2 \u0645\u062a\u062d\u062f\u06c1 \u0627\u0645\u0631\u06cc\u06a9\u06c1","name:lb":"Vereenegt Staate vun Amerika","name:la":"Civitates Foederatae Americae","name:lg":"Amereka","name:uk":"\u0421\u043f\u043e\u043b\u0443\u0447\u0435\u043d\u0456 \u0428\u0442\u0430\u0442\u0438 \u0410\u043c\u0435\u0440\u0438\u043a\u0438","name:ug":"\u0626\u0627\u0645\u06d0\u0631\u0649\u0643\u0627 \u0642\u0648\u0634\u0645\u0627 \u0634\u062a\u0627\u062a\u0644\u0649\u0631\u0649","name:li":"Vereinegde State van Amerika","name:ln":"Lisang\u00e1 lya Amer\u00edka","name:lo":"\u0eaa\u0eb0\u0eab\u0eb0\u0ea5\u0eb1\u0e94\u0ead\u0eb2\u0ec0\u0ea1\u0ea5\u0eb4\u0e81\u0eb2","name:kw":"Statys Unys Amerika","name:eo":"Usono","name":"United States of America","name:tk":"Amerikany\u0148 Birle\u015fen \u015etatlary","name:ee":"United States","name:ku":"Dewlet\u00ean Yekb\u00fby\u00ee y\u00ean Amer\u00eekay\u00ea","name:eu":"Ameriketako Estatu Batuak","name:tn":"USA","name:es":"Estados Unidos de Am\u00e9rica","name:ay":"Istadus Unidus","name:rm":"Stadis Unids da l'America","name:rn":"Leta Zunze Ubumwe za Amerika","name:az":"Amerika Birl\u0259\u015fmi\u015f \u015etatlar\u0131","name:ie":"Unit States de America","name:id":"Amerika Serikat","name:ig":"Njikota Obodo Amerika","name:el":"\u0397\u03bd\u03c9\u03bc\u03ad\u03bd\u03b5\u03c2 \u03a0\u03bf\u03bb\u03b9\u03c4\u03b5\u03af\u03b5\u03c2 \u03c4\u03b7\u03c2 \u0391\u03bc\u03b5\u03c1\u03b9\u03ba\u03ae\u03c2","name:as":"\u09ae\u09be\u09f0\u09cd\u0995\u09bf\u09a8 \u09af\u09c1\u0995\u09cd\u09a4\u09f0\u09be\u09b7\u09cd\u099f\u09cd\u09f0","name:ar":"\u0627\u0644\u0648\u0644\u0627\u064a\u0627\u062a \u0627\u0644\u0645\u062a\u0651\u062d\u062f\u0629 \u0627\u0644\u0623\u0645\u0631\u064a\u0643\u064a\u0651\u0629","name:io":"Unionita Stati di Amerika","name:av":"\u0410\u043c\u0435\u0440\u0438\u043a\u0430\u043b\u044a\u0443\u043b \u0426\u043e\u043b\u044a\u0430\u0440\u0430\u043b \u0428\u0442\u0430\u0442\u0430\u043b","name:is":"Bandar\u00edki Nor\u00f0ur-Amer\u00edku","name:am":"\u12e8\u1270\u1263\u1260\u1229\u1275 \u12e8\u12a0\u121c\u122a\u12ab \u130d\u12db\u1276\u127d","name:it":"Stati Uniti d'America","name:an":"Estatos Unitos d'America","name:ru":"\u0421\u043e\u0435\u0434\u0438\u043d\u0451\u043d\u043d\u044b\u0435 \u0428\u0442\u0430\u0442\u044b \u0410\u043c\u0435\u0440\u0438\u043a\u0438","name:ab":"\u0410\u043c\u0435\u0440\u0438\u043a\u0430 \u0415\u0438\u0434\u0443 \u0410\u0448\u0442\u0430\u0442\u049b\u04d9\u0430","name:af":"Verenigde State van Amerika","name:zu":"IMelika","kind_detail":"2","old_name:ru":"\u0421\u0435\u0432\u0435\u0440\u043e-\u0410\u043c\u0435\u0440\u0438\u043a\u0430\u043d\u0441\u043a\u0438\u0435 \u0421\u043e\u0435\u0434\u0438\u043d\u0451\u043d\u043d\u044b\u0435 \u0428\u0442\u0430\u0442\u044b","name:za":"Meijgoz","name:zh-yue":"\u5373\u7f8e\u5229\u5805\u5408\u773e\u570b","name:zh":"\u7f8e\u5229\u575a\u5408\u4f17\u56fd","name:so":"Mareykanka","name:sm":"Iunaite Sitete o Amerika","name:sl":"Zdru\u017eene dr\u017eave Amerike","name:sk":"Spojen\u00e9 \u0161t\u00e1ty americk\u00e9","name:ja":"\u30a2\u30e1\u30ea\u30ab\u5408\u8846\u56fd","name:si":"\u0d85'\u0db8\u0dd9\u0dbb\u0dd2\u0d9a\u0dcf\u200d\u0dc0\u0dda \u0d91\u0d9a\u0dca\u0dc3\u0dad\u0dca \u0dbb\u0dcf\u0da2\u0dca\u200d\u0dba\u0dba\u0db1\u0dca","name:sh":"Sjedinjene Ameri\u010dke Dr\u017eave","name:sg":"\u00c2K\u00f6d\u00f6r\u00f6-\u00f4ko t\u00ee Amer\u00eeka","name:se":"Amerihk\u00e1 ovttastuvvan st\u00e1htat","name:sd":"\u0622\u0645\u0631\u064a\u06aa\u0627","name:sc":"Istados Unidos de America","name:sa":"\u0938\u0902\u092f\u0941\u0915\u094d\u0924\u093e\u0928\u093f \u0930\u093e\u091c\u094d\u092f\u093e\u0928\u093f","name:bs":"Sjedinjene Ameri\u010dke Dr\u017eave","name:bm":"Amerika ka Kelenyalen Jamanaw","name:bn":"\u09ae\u09be\u09b0\u09cd\u0995\u09bf\u09a8 \u09af\u09c1\u0995\u09cd\u09a4\u09b0\u09be\u09b7\u09cd\u099f\u09cd\u09b0","name:bo":"\u0f68\u0f0b\u0f58\u0f7a\u0f0b\u0f62\u0f72\u0f0b\u0f41\u0f0b\u0f62\u0f92\u0fb1\u0f63\u0f0b\u0f55\u0fb2\u0f53\u0f0b\u0f58\u0f49\u0f58\u0f0b\u0f60\u0f56\u0fb2\u0f7a\u0f63\u0f0b\u0f62\u0f92\u0fb1\u0f63\u0f0b\u0f41\u0f56\u0f0d","name:br":"Stado\u00f9-Unanet Amerika","name:et":"Ameerika \u00dchendriigid","name:sw":"Muungano wa Madola ya Amerika","name:be":"\u0417\u043b\u0443\u0447\u0430\u043d\u044b\u044f \u0428\u0442\u0430\u0442\u044b \u0410\u043c\u0435\u0440\u044b\u043a\u0456","name:su":"Am\u00e9rika Sarikat","name:bg":"\u0421\u044a\u0435\u0434\u0438\u043d\u0435\u043d\u0438 \u0430\u043c\u0435\u0440\u0438\u043a\u0430\u043d\u0441\u043a\u0438 \u0449\u0430\u0442\u0438","name:ss":"IMelika","name:ba":"\u0410\u043c\u0435\u0440\u0438\u043a\u0430 \u04a0\u0443\u0448\u043c\u0430 \u0428\u0442\u0430\u0442\u0442\u0430\u0440\u044b","name:sq":"Shtetet e Bashkuara t\u00eb Amerik\u00ebs","name:jv":"Am\u00e9rika Sar\u00e9kat","name:bi":"Yunaeted Stet blong Amerika","name:ia":"Statos Unite de America","name:pt":"Estados Unidos da Am\u00e9rica","name:ps":"\u062f \u0627\u0645\u0631\u064a\u06a9\u0627 \u0645\u062a\u062d\u062f\u0647 \u0627\u064a\u0627\u0644\u0627\u062a","name:om":"USA","name:oc":"Estats Units d'America","min_zoom":8.0,"name:ro":"Statele Unite ale Americii","name:zh-min-nan":"America Ha\u030dp-chi\u00f2ng-kok","name:os":"\u0410\u043c\u0435\u0440\u0438\u043a\u00e6\u0439\u044b \u0418\u0443\u0433\u043e\u043d\u0434 \u0428\u0442\u0430\u0442\u0442\u00e6","name:or":"\u0b2f\u0b41\u0b15\u0b4d\u0b24\u0b30\u0b3e\u0b37\u0b4d\u0b1f\u0b4d\u0b30 \u0b06\u0b2e\u0b47\u0b30\u0b3f\u0b15\u0b3e","name:pl":"Stany Zjednoczone Ameryki","sort_rank":262,"name:sr":"\u0421\u0458\u0435\u0434\u0438\u045a\u0435\u043d\u0435 \u0410\u043c\u0435\u0440\u0438\u0447\u043a\u0435 \u0414\u0440\u0436\u0430\u0432\u0435","osm_relation":true,"name:xh":"IYunayithedi Steyitsi","name:pa":"\u0a38\u0a70\u0a2f\u0a41\u0a15\u0a24 \u0a30\u0a3e\u0a1c \u0a05\u0a2e\u0a30\u0a40\u0a15\u0a3e","name:tr":"Amerika Birle\u015fik Devletleri","name:hi":"\u0938\u0902\u092f\u0941\u0915\u094d\u0924 \u0930\u093e\u091c\u094d\u092f \u0905\u092e\u0947\u0930\u093f\u0915\u093e","name:sv":"Amerikas F\u00f6renta Stater","name:he":"\u05d0\u05e8\u05e6\u05d5\u05ea \u05d4\u05d1\u05e8\u05d9\u05ea","name:ha":"kunkiyar taraiyar Amurika","name:hy":"\u0531\u0574\u0565\u0580\u056b\u056f\u0561\u0575\u056b \u0544\u056b\u0561\u0581\u0575\u0561\u056c \u0546\u0561\u0570\u0561\u0576\u0563\u0576\u0565\u0580","name:ht":"Etazini","name:hu":"Amerikai Egyes\u00fclt \u00c1llamok","name:hr":"Sjedinjene Ameri\u010dke Dr\u017eave","kind":"country","name:ts":"United States","name:yi":"\u05e4\u05d0\u05e8\u05d0\u05d9\u05d9\u05e0\u05d9\u05e7\u05d8\u05e2 \u05e9\u05d8\u05d0\u05d8\u05df \u05e4\u05d5\u05df \u05d0\u05de\u05e2\u05e8\u05d9\u05e7\u05e2","name:iu":"\u140a\u14a5\u140a\u14d5\u1472","name:yo":"\u00c0w\u1ecdn \u00ccp\u00ednl\u1eb9\u0300 A\u1e63\u1ecd\u0300kan Am\u1eb9\u0301r\u00edk\u00e0","name:mt":"Stati Uniti tal-Amerika","name:ms":"Amerika Syarikat","name:mr":"\u0905\u092e\u0947\u0930\u093f\u0915\u0947\u091a\u0940 \u0938\u0902\u092f\u0941\u0915\u094d\u0924 \u0938\u0902\u0938\u094d\u0925\u093e\u0928\u0947","name:my":"\u1021\u1019\u1031\u101b\u102d\u1000\u1014\u103a\u1015\u103c\u100a\u103a\u1011\u1031\u102c\u1004\u103a\u1005\u102f","name:mg":"Etazonia","name:vi":"Hoa K\u1ef3","name:ml":"\u0d05\u0d2e\u0d47\u0d30\u0d3f\u0d15\u0d4d\u0d15\u0d28\u0d4d\u200d \u0d10\u0d15\u0d4d\u0d2f\u0d28\u0d3e\u0d1f\u0d41\u0d15\u0d33\u0d4d\u200d","name:mn":"\u0410\u043c\u0435\u0440\u0438\u043a\u0438\u0439\u043d \u041d\u044d\u0433\u0434\u0441\u044d\u043d \u0423\u043b\u0441","name:mi":"Hononga-o-Amerika","id":-148838,"name:mk":"\u0421\u043e\u0435\u0434\u0438\u043d\u0435\u0442\u0438 \u0410\u043c\u0435\u0440\u0438\u043a\u0430\u043d\u0441\u043a\u0438 \u0414\u0440\u0436\u0430\u0432\u0438","name:vo":"Lamerik\u00e4n","name:fa":"\u0627\u06cc\u0627\u0644\u0627\u062a \u0645\u062a\u062d\u062f\u0647 \u0622\u0645\u0631\u06cc\u06a9\u0627","name:rw":"Leta Zunze Ubumwe z\u2019Amerika","name:ff":"Dowlaaji Dentu\u0257i","name:fi":"Amerikan yhdysvallat","name:ky":"\u0410\u043c\u0435\u0440\u0438\u043a\u0430 \u041a\u043e\u0448\u043c\u043e \u0428\u0442\u0430\u0442\u0442\u0430\u0440\u044b","old_name:vi":"M\u1ef9 L\u1ee3i Ki\u00ean;Ma Ly C\u0103n;Nh\u00e3 Di L\u00fd","name:fo":"Sambandsr\u00edki\u00f0 Amerika","alt_name:vi":"Hoa K\u00ec;M\u1ef9;M\u0129","name:fr":"\u00c9tats-Unis d'Am\u00e9rique","name:fy":"Feriene Steaten fan Amearika","name:nl":"Verenigde Staten van Amerika","name:nn":"USA","name:no":"Amerikas forente stater","name:na":"Eben Merika","name:ne":"\u0938\u0902\u092f\u0941\u0915\u094d\u0924 \u0930\u093e\u091c\u094d\u092f \u0905\u092e\u0947\u0930\u093f\u0915\u093e","name:wa":"Estats Unis d' Amerike","name:wo":"Diwaan-yu-Bennoo yu Aamerig","name:nv":"W\u00e1\u00e1shindoon Bik\u00e9yah A\u0142hidadiidzoo\u00edg\u00ed\u00ed","name:ga":"St\u00e1it Aontaithe Mheirice\u00e1","name:gd":"Na St\u00e0itean Aonaichte","name:gn":"Tet\u00e3 pete\u0129 reko Am\u00e9rikagua","name:gl":"Estados Unidos de Am\u00e9rica","maritime_boundary":true,"name:gv":"Steatyn Unnaneysit America","name:gu":"\u0ab8\u0a82\u0aaf\u0ac1\u0a95\u0acd\u0aa4 \u0ab0\u0abe\u0a9c\u0acd\u0aaf \u0a85\u0aae\u0ac7\u0ab0\u0abf\u0a95\u0abe","name:tt":"\u0410\u043c\u0435\u0440\u0438\u043a\u0430 \u041a\u0443\u0448\u043c\u0430 \u0428\u0442\u0430\u0442\u043b\u0430\u0440\u044b"},"arcs":[2]},{"type":"LineString","properties":{"kind":"region","name":"Alaska","name:lt":"Aliaska","sort_rank":256,"kind_detail":"4","name:cs":"Alja\u0161ka","name:pt":"Alasca","source":"openstreetmap.org","min_zoom":8.0,"name:uk":"\u0410\u043b\u044f\u0441\u043a\u0430","name:kn":"\u0c85\u0cb2\u0cbe\u0cb8\u0ccd\u0c95\u0cbe","name:ru":"\u0410\u043b\u044f\u0441\u043a\u0430","name:ta":"\u0b85\u0bb2\u0bbe\u0bb8\u0bcd\u0b95\u0bbe","id":-1116270,"osm_relation":true},"arcs":[3]},{"type":"LineString","properties":{"name:pt":"Alasca","name:lt":"Aliaska","name:kn":"\u0c85\u0cb2\u0cbe\u0cb8\u0ccd\u0c95\u0cbe","name:cs":"Alja\u0161ka","min_zoom":8.0,"name:uk":"\u0410\u043b\u044f\u0441\u043a\u0430","name:ru":"\u0410\u043b\u044f\u0441\u043a\u0430","name:ta":"\u0b85\u0bb2\u0bbe\u0bb8\u0bcd\u0b95\u0bbe","id":-1116270,"osm_relation":true,"kind":"region","name":"Alaska","sort_rank":256,"kind_detail":"4","source":"openstreetmap.org","maritime_boundary":true},"arcs":[4]},{"type":"LineString","properties":{"name:pt":"Col\u00fambia Brit\u00e2nica","name:ka":"\u10d1\u10e0\u10d8\u10e2\u10d0\u10dc\u10d4\u10d7\u10d8\u10e1 \u10d9\u10dd\u10da\u10e3\u10db\u10d1\u10d8\u10d0","name:ko":"\ube0c\ub9ac\ud2f0\uc2dc\uceec\ub7fc\ube44\uc544 \uc8fc","name:kn":"\u0cac\u0ccd\u0cb0\u0cbf\u0c9f\u0cbf\u0cb7\u0ccd\u200c\u200c \u0c95\u0cca\u0cb2\u0c82\u0cac\u0cbf\u0caf\u0cbe","name:kl":"Britisk Columbia","name:cs":"Britsk\u00e1 Kolumbie","name:kw":"Kolombi Bredennek","min_zoom":8.0,"name:az":"Britaniya Kolumbiyas\u0131","alt_name:cs":"Provincie Britsk\u00e1 Kolumbie","name:pa":"\u0a2c\u0a4d\u0a30\u0a3f\u0a1f\u0a3f\u0a38\u0a3c \u0a15\u0a4b\u0a32\u0a70\u0a2c\u0a40\u0a06","name:os":"\u0411\u0440\u0438\u0442\u0430\u043d\u0438\u0439\u044b \u041a\u043e\u043b\u0443\u043c\u0431\u0438","name:pl":"Kolumbia Brytyjska","name:ta":"\u0baa\u0bbf\u0bb0\u0bbf\u0b9f\u0bcd\u0b9f\u0bbf\u0b9a\u0bc1 \u0b95\u0bca\u0bb2\u0bae\u0bcd\u0baa\u0bbf\u0baf\u0bbe","name:ca":"Col\u00fambia Brit\u00e0nica","sort_rank":256,"name:hr":"Britanska Kolumbija","name:da":"Britisk Columbia","name:de":"Britisch-Kolumbien","source":"openstreetmap.org","osm_relation":true,"name:lv":"Britu Kolumbija","name:tr":"Britanya Kolumbiyas\u0131","name:uz":"Britaniya Kolumbiyasi","name:he":"\u05e7\u05d5\u05dc\u05d5\u05de\u05d1\u05d9\u05d4 \u05d4\u05d1\u05e8\u05d9\u05d8\u05d9\u05ea","name:eo":"Brita Kolumbio","name:ur":"\u0628\u0631\u0679\u0634 \u06a9\u0648\u0644\u0645\u0628\u06cc\u0627","name:la":"Columbia Britannica","name:uk":"\u0411\u0440\u0438\u0442\u0430\u043d\u0441\u044c\u043a\u0430 \u041a\u043e\u043b\u0443\u043c\u0431\u0456\u044f","name:hy":"\u0532\u0580\u056b\u057f\u0561\u0576\u0561\u056f\u0561\u0576 \u053f\u0578\u056c\u0578\u0582\u0574\u0562\u056b\u0561","name:ug":"Britani Kolumbiye","name:hu":"Brit Columbia","name:qu":"British Columbia pruwinsya","name:oc":"Col\u00f3mbia Britanica","name:el":"\u0392\u03c1\u03b5\u03c4\u03b1\u03bd\u03b9\u03ba\u03ae \u039a\u03bf\u03bb\u03bf\u03bc\u03b2\u03af\u03b1","kind":"region","name":"British Columbia","name:th":"\u0e23\u0e31\u0e10\u0e1a\u0e23\u0e34\u0e15\u0e34\u0e0a\u0e42\u0e04\u0e25\u0e31\u0e21\u0e40\u0e1a\u0e35\u0e22","name:eu":"Columbia Britainiarra","name:et":"Briti Columbia","name:es":"Columbia Brit\u00e1nica","name:ia":"Columbia Britannic","name:ro":"Columbia Britanic\u0103","name:ie":"British Colombia","name:mr":"\u092c\u094d\u0930\u093f\u091f\u093f\u0936 \u0915\u094b\u0932\u0902\u092c\u093f\u092f\u093e","name:ar":"\u0643\u0648\u0644\u0648\u0645\u0628\u064a\u0627 \u0627\u0644\u0628\u0631\u064a\u0637\u0627\u0646\u064a\u0629","name:is":"Breska K\u00f3lumb\u00eda","name:am":"\u1265\u122a\u1272\u123d \u12ae\u1208\u121d\u1262\u12eb","name:it":"Columbia Britannica","name:ru":"\u0411\u0440\u0438\u0442\u0430\u043d\u0441\u043a\u0430\u044f \u041a\u043e\u043b\u0443\u043c\u0431\u0438\u044f","name:mn":"\u0411\u0440\u0438\u0442\u0438\u0448 \u041a\u043e\u043b\u0430\u043c\u0431\u0438\u0430","id":-390867,"name:mk":"\u0411\u0440\u0438\u0442\u0430\u043d\u0441\u043a\u0430 \u041a\u043e\u043b\u0443\u043c\u0431\u0438\u0458\u0430","name:af":"Brits-Columbi\u00eb","name:fa":"\u0628\u0631\u06cc\u062a\u06cc\u0634 \u06a9\u0644\u0645\u0628\u06cc\u0627","name:lt":"Brit\u0173 Kolumbija","kind_detail":"4","name:hi":"\u092c\u094d\u0930\u093f\u091f\u093f\u0936 \u0915\u094b\u0932\u092e\u094d\u092c\u093f\u092f\u093e","alt_name:vi":"Columbia thu\u1ed9c Anh","name:fr":"Colombie-Britannique","name:fy":"Britsk-Kolumbia","name:zh":"\u4e0d\u5217\u98a0\u54e5\u4f26\u6bd4\u4e9a\u7701","name:sl":"Britanska Kolumbija","name:nl":"Brits-Columbia","name:ja":"\u30d6\u30ea\u30c6\u30a3\u30c3\u30b7\u30e5\u30b3\u30ed\u30f3\u30d3\u30a2\u5dde","name:nn":"Britisk Columbia","name:no":"Britisk Columbia","name:sc":"Col\u00f9mbia Brit\u00e0nnica","name:bs":"Britanska Kolumbija","name:yi":"\u05d1\u05e8\u05d9\u05d8\u05d9\u05e9\u05e2 \u05e7\u05d0\u05dc\u05d5\u05de\u05d1\u05d9\u05e2","name:sk":"Britsk\u00e1 Kolumbia","name:sw":"British Kolumbia","name:be":"\u041f\u0440\u0430\u0432\u0456\u043d\u0446\u044b\u044f \u0411\u0440\u044b\u0442\u0430\u043d\u0441\u043a\u0430\u044f \u041a\u0430\u043b\u0443\u043c\u0431\u0456\u044f","name:bg":"\u0411\u0440\u0438\u0442\u0430\u043d\u0441\u043a\u0430 \u041a\u043e\u043b\u0443\u043c\u0431\u0438\u044f","name:sr":"\u0411\u0440\u0438\u0442\u0430\u043d\u0441\u043a\u0430 \u041a\u043e\u043b\u0443\u043c\u0431\u0438\u0458\u0430","name:sq":"Kolumbia Britanike","name:ga":"An Chol\u00f3im Bhriotanach","name:gd":"Columbia Bhreatannach","name:gn":"Kolumbia Vyreta\u00f1agua","name:gl":"Columbia Brit\u00e1nica","maritime_boundary":true,"name:gv":"Yn Cholombey Ghoaldagh","name:fi":"Brittil\u00e4inen Kolumbia"},"arcs":[5]}]},"roads":{"type":"GeometryCollection","geometries":[]},"earth":{"type":"GeometryCollection","geometries":[{"type":"MultiPolygon","properties":{"sort_rank":10,"source":"naturalearthdata.com","min_zoom":0.0,"kind":"earth","area":17878288434},"arcs":[[[21]],[[22]],[[23]],[[24]],[[25]],[[26]],[[27]],[[28]]]},{"type":"Point","properties":{"label_placement":true,"kind":"island","name":"Dall Island","area":2049120000,"source":"openstreetmap.org","min_zoom":8.0,"id":-3957053,"osm_relation":true},"coordinates":[1585,4026]}]},"landuse":{"type":"GeometryCollection","geometries":[{"type":"Polygon","properties":{"kind":"nature_reserve","area":3978769920,"sort_rank":23,"source":"openstreetmap.org","min_zoom":4.0,"tier":2,"id":-2236879,"osm_relation":true},"arcs":[[29]]},{"type":"Polygon","properties":{"kind":"nature_reserve","area":88130896,"sort_rank":23,"source":"openstreetmap.org","min_zoom":8.0,"tier":2,"id":-2236879,"osm_relation":true},"arcs":[[30]]}]}},"type":"Topology","transform":{"translate":[-133.59375,54.1624339681],"scale":[0.0003433228,0.0001990185]},"arcs":[[[4096,682],[-166,49],[-186,21],[-349,-51],[-165,116],[-171,75],[-170,40],[-215,10],[-281,287],[-271,156],[-386,85],[-307,-10],[-230,-70],[-215,-126],[-159,-131],[-137,-170],[-83,-161],[-56,-191],[-55,-611]],[[2168,2504],[1928,62]],[[0,2370],[2168,134]],[[2168,2504],[1928,62]],[[0,2370],[2168,134]],[[3028,0],[-109,75],[-175,69],[-528,-86],[-97,64],[-79,373],[-193,144],[-261,19],[-123,-5],[-128,-102],[-46,-180],[-23,-371]],[[4096,2793],[0,-2793],[-2180,0],[-3,2],[-46,25],[-47,4],[-33,-28],[-51,3],[-80,63],[-82,35],[-57,-82],[94,-11],[-1,-11],[-1610,0],[0,4096],[1294,0],[18,-23],[6,-50],[-9,-38],[-10,-6],[25,-46],[19,-9],[75,24],[83,6],[40,-11],[18,-32],[-15,-25],[-35,-18],[-73,-23],[0,-37],[93,-3],[45,-10],[45,-21],[-40,-55],[7,-69],[35,-58],[46,-24],[42,-32],[24,-142],[54,-32],[111,53],[59,16],[39,-35],[-7,-60],[-43,-55],[-52,-42],[-37,-17],[53,-80],[287,-229],[-49,13],[-22,-16],[1,-35],[31,-78],[27,-104],[2,-23],[143,21],[75,-25],[31,-96],[97,18],[108,-18],[46,17],[-92,120],[42,84],[-50,55],[-151,67],[10,16],[8,8],[21,10],[-20,38],[75,55],[8,46],[-83,136],[-15,40],[-8,33],[-11,31],[-25,36],[-39,27],[-82,16],[-40,22],[35,55],[-2,61],[-28,38],[-43,-13],[-13,83],[-48,57],[-120,66],[27,80],[15,26],[-11,15],[-9,8],[-22,8],[22,37],[-37,16],[-76,-29],[-28,13],[2,31],[-1,117],[1001,0],[1,-8],[14,-39],[40,-70],[86,-71],[91,20],[68,106],[5,62],[125,0],[19,-73],[-36,-112],[-33,-19],[-46,-6],[-40,-14],[-18,-45],[7,-52],[18,-24],[28,-8],[37,0],[107,46],[22,19],[17,50],[15,69],[6,60],[-7,27],[9,51],[2,31],[59,0],[0,-10],[19,-56],[56,-68],[24,-51],[-28,4],[-25,-7],[-46,-28],[21,-31],[23,-23],[26,-13],[29,-5],[29,-11],[0,-29],[-6,-39],[6,-41],[41,-43],[58,-24],[111,-19],[0,-34],[-73,-1],[-33,-8],[-33,-22],[44,-32],[101,-32],[32,-46],[-53,-68],[-156,-81],[-68,-56],[68,-1],[107,-46],[64,16],[19,24],[15,34],[20,31],[36,13],[32,-3],[29,-13],[21,-22],[7,-33],[-24,-60],[-120,-36],[-53,-38],[-30,-75],[-10,-89],[15,-85],[43,-63],[89,143],[135,-91],[39,-35]],[[1713,466],[-99,18],[-63,-13],[-42,-53],[-18,-70],[14,-39],[73,-7],[22,-16],[30,-13],[39,-9],[16,-45],[7,-58],[36,-22],[45,16],[20,18],[-4,39],[7,68],[32,81],[-7,29],[-29,30],[-46,33],[-33,13]],[[188,3044],[22,-8],[19,79],[-2,73],[-13,57],[0,29],[0,1],[-1,30],[-27,55],[-23,19],[-20,-16],[3,-47],[-4,-32],[0,-53],[-2,-18],[6,-12],[0,-27],[-7,-46],[6,-28],[43,-56]],[[2843,3171],[-25,56],[-32,47],[-30,19],[-44,16],[-19,38],[-19,44],[-40,36],[42,27],[34,-3],[34,-14],[41,-10],[26,17],[-6,42],[-14,57],[3,59],[31,-22],[20,6],[5,32],[-15,53],[-26,55],[-40,4],[-37,-13],[-16,7],[-11,42],[-27,25],[-33,21],[-29,33],[-27,-39],[-30,-23],[-31,-2],[-31,27],[26,12],[23,21],[17,31],[12,39],[-40,-18],[-43,-9],[-36,-22],[-20,-54],[-45,50],[-15,22],[-20,-35],[7,-44],[-18,-40],[-16,-45],[17,-62],[25,-57],[8,-41],[15,-40],[42,-51],[22,-14],[39,-10],[18,-14],[8,-20],[15,-70],[8,-27],[18,-21],[44,-27],[17,-22],[9,-27],[14,-66],[8,-25],[59,-80],[74,-52],[58,14],[10,118],[-14,49]],[[2964,4096],[36,0],[-6,-10],[-28,8],[-2,2]],[[1916,0],[-3,2],[-46,25],[-47,4],[-33,-28],[-51,3],[-80,63],[-82,35],[-57,-82],[94,-11],[-1,-11]],[[3000,4096],[-6,-10],[-28,8],[-2,2]],[[2899,4096],[1,-8],[14,-39],[40,-70],[86,-71],[91,20],[68,106],[5,62]],[[3329,4096],[19,-73],[-36,-112],[-33,-19],[-46,-6],[-40,-14],[-18,-45],[7,-52],[18,-24],[28,-8],[37,0],[107,46],[22,19],[17,50],[15,69],[6,60],[-7,27],[9,51],[2,31]],[[3495,4096],[0,-10],[19,-56],[56,-68],[24,-51],[-28,4],[-25,-7],[-46,-28],[21,-31],[23,-23],[26,-13],[29,-5],[29,-11],[0,-29],[-6,-39],[6,-41],[41,-43],[58,-24],[111,-19],[0,-34],[-73,-1],[-33,-8],[-33,-22],[44,-32],[101,-32],[32,-46],[-53,-68],[-156,-81],[-68,-56],[68,-1],[107,-46],[64,16],[19,24],[15,34],[20,31],[36,13],[32,-3],[29,-13],[21,-22],[7,-33],[-24,-60],[-120,-36],[-53,-38],[-30,-75],[-10,-89],[15,-85],[43,-63],[89,143],[135,-91],[39,-35]],[[2756,3293],[-44,16],[-19,38],[-19,44],[-40,36],[42,27],[34,-3],[34,-14],[41,-10],[26,17],[-6,42],[-14,57],[3,59],[31,-22],[20,6],[5,32],[-15,53],[-26,55],[-40,4],[-37,-13],[-16,7],[-11,42],[-27,25],[-33,21],[-29,33],[-27,-39],[-30,-23],[-31,-2],[-31,27],[26,12],[23,21],[17,31],[12,39],[-40,-18],[-43,-9],[-36,-22],[-20,-54],[-45,50],[-15,22],[-20,-35],[7,-44],[-18,-40],[-16,-45],[17,-62],[25,-57],[8,-41],[15,-40],[42,-51],[22,-14],[39,-10],[18,-14],[8,-20],[15,-70],[8,-27],[18,-21],[44,-27],[17,-22],[9,-27],[14,-66],[8,-25],[59,-80],[74,-52],[58,14],[10,118],[-14,49],[-25,56],[-32,47],[-30,19]],[[2595,2707],[42,84],[-50,55],[-151,67],[10,16],[8,8],[21,10],[-20,38],[75,55],[8,46],[-83,136],[-15,40],[-8,33],[-11,31],[-25,36],[-39,27],[-82,16],[-40,22],[35,55],[-2,61],[-28,38],[-43,-13],[-13,83],[-48,57],[-120,66],[27,80],[15,26],[-11,15],[-9,8],[-22,8],[22,37],[-37,16],[-76,-29],[-28,13],[2,31],[-1,117]],[[1294,4096],[18,-23],[6,-50],[-9,-38],[-10,-6],[25,-46],[19,-9],[75,24],[83,6],[40,-11],[18,-32],[-15,-25],[-35,-18],[-73,-23],[0,-37],[93,-3],[45,-10],[45,-21],[-40,-55],[7,-69],[35,-58],[46,-24],[42,-32],[24,-142],[54,-32],[111,53],[59,16],[39,-35],[-7,-60],[-43,-55],[-52,-42],[-37,-17],[53,-80],[287,-229],[-49,13],[-22,-16],[1,-35],[31,-78],[27,-104],[2,-23],[143,21],[75,-25],[31,-96],[97,18],[108,-18],[46,17],[-92,120]],[[1792,420],[-46,33],[-33,13],[-99,18],[-63,-13],[-42,-53],[-18,-70],[14,-39],[73,-7],[22,-16],[30,-13],[39,-9],[16,-45],[7,-58],[36,-22],[45,16],[20,18],[-4,39],[7,68],[32,81],[-7,29],[-29,30]],[[214,3274],[0,-29],[13,-57],[2,-73],[-19,-79],[-22,8],[-43,56],[-6,28],[7,46],[0,27],[-6,12],[2,18],[0,53],[4,32],[-3,47],[20,16],[23,-19],[27,-55],[1,-30],[0,-1]],[[1736,6],[51,-3],[33,28],[47,-4],[46,-25],[3,-2],[-306,0],[1,11],[-94,11],[57,82],[82,-35],[80,-63]],[[1773,155],[-45,-16],[-36,22],[-7,58],[-16,45],[-39,9],[-30,13],[-22,16],[-73,7],[-14,39],[18,70],[42,53],[63,13],[99,-18],[33,-13],[46,-33],[29,-30],[7,-29],[-32,-81],[-7,-68],[4,-39],[-20,-18]],[[229,3115],[-19,-79],[-22,8],[-43,56],[-6,28],[7,46],[0,27],[-6,12],[2,18],[0,53],[4,32],[-3,47],[20,16],[23,-19],[27,-55],[1,-30],[0,-1],[0,-29],[13,-57],[2,-73]],[[2497,3808],[31,-27],[31,2],[30,23],[27,39],[29,-33],[33,-21],[27,-25],[11,-42],[16,-7],[37,13],[40,-4],[26,-55],[15,-53],[-5,-32],[-20,-6],[-31,22],[-3,-59],[14,-57],[6,-42],[-26,-17],[-41,10],[-34,14],[-34,3],[-42,-27],[40,-36],[19,-44],[19,-38],[44,-16],[30,-19],[32,-47],[25,-56],[14,-49],[-10,-118],[-58,-14],[-74,52],[-59,80],[-8,25],[-14,66],[-9,27],[-17,22],[-44,27],[-18,21],[-8,27],[-15,70],[-8,20],[-18,14],[-39,10],[-22,14],[-42,51],[-15,40],[-8,41],[-25,57],[-17,62],[16,45],[18,40],[-7,44],[20,35],[15,-22],[45,-50],[20,54],[36,22],[43,9],[40,18],[-12,-39],[-17,-31],[-23,-21],[-26,-12]],[[1294,4096],[604,0],[1,-117],[-2,-31],[28,-13],[76,29],[37,-16],[-22,-37],[22,-8],[9,-8],[11,-15],[-15,-26],[-27,-80],[120,-66],[48,-57],[13,-83],[43,13],[28,-38],[2,-61],[-35,-55],[40,-22],[82,-16],[39,-27],[25,-36],[11,-31],[8,-33],[15,-40],[83,-136],[-8,-46],[-75,-55],[20,-38],[-21,-10],[-8,-8],[-10,-16],[151,-67],[50,-55],[-42,-84],[92,-120],[-46,-17],[-108,18],[-97,-18],[-31,96],[-75,25],[-143,-21],[-2,23],[-27,104],[-31,78],[-1,35],[22,16],[49,-13],[-287,229],[-53,80],[37,17],[52,42],[43,55],[7,60],[-39,35],[-59,-16],[-111,-53],[-54,32],[-24,142],[-42,32],[-46,24],[-35,58],[-7,69],[40,55],[-45,21],[-45,10],[-93,3],[0,37],[73,23],[35,18],[15,25],[-18,32],[-40,11],[-83,-6],[-75,-24],[-19,9],[-25,46],[10,6],[9,38],[-6,50],[-18,23]],[[4096,4096],[0,-1303],[-39,35],[-135,91],[-89,-143],[-43,63],[-15,85],[10,89],[30,75],[53,38],[120,36],[24,60],[-7,33],[-21,22],[-29,13],[-32,3],[-36,-13],[-20,-31],[-15,-34],[-19,-24],[-64,-16],[-107,46],[-68,1],[68,56],[156,81],[53,68],[-32,46],[-101,32],[-44,32],[33,22],[33,8],[73,1],[0,34],[-111,19],[-58,24],[-41,43],[-6,41],[6,39],[0,29],[-29,11],[-29,5],[-26,13],[-23,23],[-21,31],[46,28],[25,7],[28,-4],[-24,51],[-56,68],[-19,56],[0,10],[601,0]],[[3329,4096],[107,0],[-2,-31],[-9,-51],[7,-27],[-6,-60],[-15,-69],[-17,-50],[-22,-19],[-107,-46],[-37,0],[-28,8],[-18,24],[-7,52],[18,45],[40,14],[46,6],[33,19],[36,112],[-19,73]],[[3000,4096],[204,0],[-5,-62],[-68,-106],[-91,-20],[-86,71],[-40,70],[-14,39],[-1,8],[65,0],[2,-2],[28,-8],[6,10]],[[1621,0],[25,54],[-71,15],[-95,-28],[-4,61],[74,-14],[95,22],[0,-45],[99,-12],[25,-34],[57,14],[18,-22],[49,30],[36,-41],[-308,0]],[[1488,320],[38,42],[-9,79],[57,2],[53,40],[162,-43],[-1,-52],[47,-11],[-36,-36],[37,-15],[-81,-37],[49,-79],[-13,-84],[-56,13],[-9,23],[-23,-27],[-22,17],[34,37],[7,61],[-25,39],[-24,-28],[-69,52],[-90,-12],[-26,19]]]}