{"objects":{"water":{"type":"GeometryCollection","geometries":[{"type":"Polygon","properties":{"source":"naturalearthdata.com","kind":"ocean","area":1576712559132672,"sort_rank":200,"min_zoom":0.0,"id":1},"arcs":[[4]]},{"type":"LineString","properties":{"source":"naturalearthdata.com","kind":"ocean","sort_rank":205,"boundary":true,"min_zoom":0.0,"id":44},"arcs":[5]}]},"buildings":{"type":"GeometryCollection","geometries":[]},"places":{"type":"GeometryCollection","geometries":[]},"transit":{"type":"GeometryCollection","geometries":[]},"pois":{"type":"GeometryCollection","geometries":[{"type":"Point","properties":{"kind":"nature_reserve","name":"Garden Route National Park","area":1413950000,"source":"openstreetmap.org","min_zoom":7.06,"tier":2,"id":-3158347,"osm_relation":true},"coordinates":[3932,1295]},{"type":"Point","properties":{"kind":"nature_reserve","name":"Kammanassie Nature Reserve","area":729562000,"source":"openstreetmap.org","min_zoom":7.53,"tier":2,"id":-2928532,"osm_relation":true},"coordinates":[768,2404]}]},"boundaries":{"type":"GeometryCollection","geometries":[{"type":"LineString","properties":{"name:kg":"Afelika ya Sudi","name:ka":"\u10e1\u10d0\u10db\u10ee\u10e0\u10d4\u10d7 \u10d0\u10e4\u10e0\u10d8\u10d9\u10d0","name:tr":"G\u00fcney Afrika","name:ts":"Afrika-Dzonga","name:km":"\u17a2\u17b6\u1796\u17d2\u179a\u17b7\u1780\u200b\u1797\u17b6\u1782\u200b\u1781\u17b6\u1784\u200b\u178f\u17d2\u1794\u17bc\u1784","name:kk":"\u041e\u04a3\u0442\u04af\u0441\u0442\u0456\u043a \u0410\u0444\u0440\u0438\u043a\u0430","name:tt":"\u041a\u04e9\u043d\u044c\u044f\u043a \u0410\u0444\u0440\u0438\u043a\u0430","name:kw":"Afrika Dhyhow","name:tk":"G\u00fcnorta Afrika","name:th":"\u0e41\u0e2d\u0e1f\u0e23\u0e34\u0e01\u0e32\u0e43\u0e15\u0e49","name:ti":"\u12f0\u1261\u1265 \u12a0\u134d\u122a\u12ab","name:tn":"Aferika Borwa","name:to":"\u02bbAfilika tonga","name:tl":"Timog Aprika","name:ce":"\u041a\u044a\u0438\u043b\u0431\u0430-\u0410\u0444\u0440\u0438\u043a\u0438\u043d \u0420\u0435\u0441\u043f\u0443\u0431\u043b\u0438\u043a\u0430","name:ta":"\u0ba4\u0bc6\u0ba9\u0bcd \u0b86\u0baa\u0bcd\u0baa\u0bbf\u0bb0\u0bbf\u0b95\u0bcd\u0b95\u0bbe","name:tg":"\u0410\u0444\u0440\u0438\u049b\u043e\u0438 \u04b6\u0430\u043d\u0443\u0431\u04e3","name:ky":"\u0410\u0444\u0440\u0438\u043a\u0430\u0430\u043d\u0441 \u0442\u0438\u043b\u0438","name:te":"\u0c26\u0c15\u0c4d\u0c37\u0c3f\u0c23 \u0c06\u0c2b\u0c4d\u0c30\u0c3f\u0c15\u0c3e \u0c30\u0c3e\u0c1c\u0c4d\u0c2f\u0c02","alt_name:ln":"Afr\u00edka ya S\u00fadi","name:cy":"De Affrica","name:hr":"Ju\u017ena Afrika","name:da":"Sydafrika","name:de":"S\u00fcdafrika","name:dz":"\u0f66\u0f71\u0f60\u0f74\u0f50\u0f0b \u0f68\u0f55\u0f0b\u0f62\u0f72\u0f0b\u0f40","source":"openstreetmap.org","name:kn":"\u0ca6\u0c95\u0ccd\u0cb7\u0cbf\u0ca3 \u0c86\u0cab\u0ccd\u0cb0\u0cbf\u0c95\u0cbe","name:dv":"\u078b\u07ac\u0786\u07aa\u0782\u07aa \u0787\u07ac\u078a\u07b0\u0783\u07a8\u0786\u07a7","name:lv":"Dienvid\u0101frika","name:lt":"Piet\u0173 Afrika","name:uz":"Janubiy Afrika","name:cs":"Jihoafrick\u00e1 republika","name:ur":"\u062c\u0646\u0648\u0628\u06cc \u0627\u0641\u0631\u06cc\u0642\u06c1","name:lb":"S\u00fcdafrika","name:la":"Africa Australis","name:ki":"Ab\u0129rika Kusini","name:uk":"\u041f\u0456\u0432\u0434\u0435\u043d\u043d\u0430 \u0410\u0444\u0440\u0438\u043a\u0430","name:ug":"\u062c\u06d5\u0646\u06c7\u0628\u0649\u064a \u0626\u0627\u0641\u0631\u0649\u0642\u0627","name:li":"Zuud-Afrika","name:ln":"Sidafr\u00edka","name:lo":"\u0ead\u0eb2\u0e9f\u0eb0\u0ea5\u0eb4\u0e81\u0eb2\u0ec3\u0e95\u0ec9","name:el":"\u039d\u03cc\u03c4\u03b9\u03b1 \u0391\u03c6\u03c1\u03b9\u03ba\u03ae","name:eo":"Sud-Afriko","name":"South Africa","name:kv":"\u041b\u0443\u043d\u0432\u044b\u0432 \u0410\u0444\u0440\u0438\u043a\u0430\u0441\u0430 \u0420\u0435\u0441\u043f\u0443\u0431\u043b\u0438\u043a\u0430","name:ee":"Anyiehe Afrika nutome","name:ku":"Afr\u00eekaya Ba\u015f\u00fbr","name:eu":"Hegoafrika","name:ks":"\u062c\u064e\u0646\u0648\u0657\u0628\u06cc \u0627\u064e\u0641\u0631\u06cc\u0656\u06a9\u0627","name:es":"Sud\u00e1frica","name:ia":"Africa del Sud","name:rm":"Africa dal Sid","name:rn":"Afurika y'Epfo","name:az":"C\u0259nub Afrika","name:ie":"Sudafrica","name:id":"Afrika Selatan","name:ar":"\u062c\u0646\u0648\u0628 \u0623\u0641\u0631\u064a\u0642\u064a\u0627","name:io":"Sud-Afrika","name:is":"Su\u00f0ur-Afr\u00edka","name:am":"\u12f0\u1261\u1265 \u12a0\u134d\u122a\u12ab","name:it":"Sudafrica","name:an":"Sudafrica","name:ru":"\u042e\u0436\u043d\u0430\u044f \u0410\u0444\u0440\u0438\u043a\u0430","name:rw":"Afurika y\u2019Epfo","name:af":"Suid-Afrika","name:zu":"iNingizimu Afrika","kind_detail":"2","name:ca":"Sud-\u00e0frica","name:zh-yue":"\u5357\u975e\u5171\u548c\u570b","name:zh":"\u5357\u975e","name:so":"Koonfur Afrika","name:sl":"Ju\u017ena Afrika","name:sk":"Ju\u017en\u00e1 Afrika","name:ja":"\u5357\u30a2\u30d5\u30ea\u30ab","name:si":"\u0daf\u0d9a\u0dd4\u0dab\u0dd4 \u0d85\u0db4\u0dca\u200d\u0dbb\u0dd2\u0d9a\u0dcf\u0dc0","name:sh":"Ju\u017ena Afrika","name:sg":"Afr\u00eeka-Mbongo","name:se":"Lulli-Afrihk\u00e1","name:sc":"Sud\u00e0frica","name:br":"Suafrika","name:bs":"Ju\u017ena Afrika","name:bm":"Worodugu Afriki","name:bn":"\u09a6\u0995\u09cd\u09b7\u09bf\u09a3 \u0986\u09ab\u09cd\u09b0\u09bf\u0995\u09be","name:bo":"\u0f63\u0fb7\u0f7c\u0f0b \u0f68\u0f55\u0fb2\u0f72\u0f0b\u0f40\u0f0d","name:sa":"\u0926\u0915\u094d\u0937\u093f\u0923-\u0906\u092b\u094d\u0930\u093f\u0915\u093e","name:et":"L\u00f5una-Aafrika","name:sw":"Afrika Kusini","name:be":"\u041f\u0430\u045e\u0434\u043d\u0451\u0432\u0430-\u0410\u0444\u0440\u044b\u043a\u0430\u043d\u0441\u043a\u0430\u044f \u0420\u044d\u0441\u043f\u0443\u0431\u043b\u0456\u043a\u0430","name:su":"Afrika Kidul","name:st":"Afrika Borwa","name:ss":"INingizimu Afrika","name:sr":"\u0408\u0443\u0436\u043d\u0430 \u0410\u0444\u0440\u0438\u043a\u0430","name:sq":"Afrika e Jugut","name:jv":"Afrika Kidul","name:pt":"\u00c1frica do Sul","name:ps":"\u0633\u0648\u06cc\u0644\u064a \u0627\u0641\u0631\u06cc\u0642\u0627","alt_name:gl":"\u00c1frica do Sur","name:oc":"Sud-Africa","alt_name:oc":"Africa del Sud","min_zoom":8.0,"name:ro":"Africa de Sud","name:ko":"\ub0a8\uc544\ud504\ub9ac\uce74","name:zh-min-nan":"L\u00e2m-hui-kok","name:os":"\u0425\u0443\u0441\u0441\u0430\u0440 \u0410\u0444\u0440\u0438\u043a\u00e6\u0439\u044b","name:or":"\u0b26\u0b15\u0b4d\u0b37\u0b3f\u0b23 \u0b06\u0b2b\u0b4d\u0b30\u0b3f\u0b15\u0b3e","name:pl":"Republika Po\u0142udniowej Afryki","name:bg":"\u042e\u0436\u043d\u0430 \u0410\u0444\u0440\u0438\u043a\u0430","sort_rank":262,"osm_relation":true,"name:xh":"uMzantsi Afrika","name:pa":"\u0a26\u0a71\u0a16\u0a23\u0a40 \u0a05\u0a2b\u0a3c\u0a30\u0a40\u0a15\u0a3e","name:cv":"\u041a\u0103\u043d\u0442\u0103\u0440 \u0410\u0444\u0440\u0438\u043a\u0430","name:hi":"\u0926\u0915\u094d\u0937\u093f\u0923 \u0905\u092b\u093c\u094d\u0930\u0940\u0915\u093e","name:sv":"Sydafrika","name:he":"\u05d3\u05e8\u05d5\u05dd \u05d0\u05e4\u05e8\u05d9\u05e7\u05d4","name:ha":"Afirka ta Kudu","name:hy":"\u0540\u0561\u0580\u0561\u057e\u0561\u0575\u056b\u0576 \u0531\u0586\u0580\u056b\u056f\u0561","name:ht":"Afrik disid","name:hu":"D\u00e9l-Afrika","name:qu":"Urin Aphrika","kind":"country","name:ak":"Afrika Anaafo","name:yi":"\u05d3\u05e8\u05d5\u05dd \u05d0\u05e4\u05e8\u05d9\u05e7\u05e2","name:yo":"G\u00fa\u00fas\u00f9 \u00c1fr\u00edk\u00e0","name:mt":"Afrika t\u2019Isfel","alt_name:eo":"Sudafriko","name:ms":"Afrika Selatan","name:mr":"\u0926\u0915\u094d\u0937\u093f\u0923 \u0905\u092b\u094d\u0930\u093f\u0915\u093e","name:my":"\u1010\u1031\u102c\u1004\u103a\u1021\u102c\u1016\u101b\u102d\u1000","official_name":"Republic of South Africa","name:mg":"Afrika Atsimo","name:ve":"Afurika Tshipembe","name:ml":"\u0d26\u0d15\u0d4d\u0d37\u0d3f\u0d23\u0d3e\u0d2b\u0d4d\u0d30\u0d3f\u0d15\u0d4d\u0d15","name:vi":"Nam Phi","name:mn":"\u04e8\u043c\u043d\u04e9\u0434 \u0410\u0444\u0440\u0438\u043a","name:mi":"\u0100wherika-ki-te-tonga","id":-87565,"name:mk":"\u0408\u0443\u0436\u043d\u0430 \u0410\u0444\u0440\u0438\u043a\u0430","name:vo":"Sul\u00fcdafrik\u00e4n","name:fa":"\u0622\u0641\u0631\u06cc\u0642\u0627\u06cc \u062c\u0646\u0648\u0628\u06cc","name:ff":"Afrik b\u014b Worgo","name:fi":"Etel\u00e4-Afrikka","name:fo":"Su\u00f0urafrika","name:fr":"Afrique du Sud","name:fy":"S\u00fad-Afrika","name:nl":"Zuid-Afrika","name:nn":"S\u00f8r-Afrika","name:no":"S\u00f8r-Afrika","name:ne":"\u0926\u0915\u094d\u0937\u093f\u0923 \u0905\u092b\u094d\u0930\u093f\u0915\u093e","name:wa":"Nonne-Afrike","name:wo":"Afrig gu B\u00ebj-saalum","name:nv":"K\u00e9yah Naakai \u0141izhinii Bik\u00e9yah Sh\u00e1di\u02bc\u00e1\u00e1hj\u00ed Si\u02bc\u00e1n\u00edg\u00ed\u00ed","name:ga":"An Afraic Theas","name:gd":"Afraga a Deas","name:gn":"Yvyafrika","name:gl":"Sud\u00e1frica","maritime_boundary":true,"alt_name:wo":"Afrig gu B\u00ebj-g\u00e0nnaar","name:gv":"Yn Affrick Yiass","name:gu":"\u0aa6\u0a95\u0acd\u0ab7\u0abf\u0aa3 \u0a86\u0aab\u0acd\u0ab0\u0abf\u0a95\u0abe","name:lg":"Sawusafirika"},"arcs":[0]},{"type":"LineString","properties":{"id:left":-88574,"name:right:ru":"\u0417\u0430\u043f\u0430\u0434\u043d\u0430\u044f \u041a\u0430\u043f\u0441\u043a\u0430\u044f \u043f\u0440\u043e\u0432\u0438\u043d\u0446\u0438\u044f","min_zoom":8.0,"name:left:ru":"\u0412\u043e\u0441\u0442\u043e\u0447\u043d\u043e-\u041a\u0430\u043f\u0441\u043a\u0430\u044f \u043f\u0440\u043e\u0432\u0438\u043d\u0446\u0438\u044f","id:right":-80501,"id":-88574,"osm_relation":true,"name:right":"Western Cape","kind":"region","name":"Eastern Cape - Western Cape","sort_rank":256,"kind_detail":"4","name:left:de":"Ostkap","source":"openstreetmap.org","name:right:de":"Westkap","name:left":"Eastern Cape"},"arcs":[1]},{"type":"LineString","properties":{"name:right:ru":"\u0417\u0430\u043f\u0430\u0434\u043d\u0430\u044f \u041a\u0430\u043f\u0441\u043a\u0430\u044f \u043f\u0440\u043e\u0432\u0438\u043d\u0446\u0438\u044f","min_zoom":8.0,"name:left:ru":"\u0412\u043e\u0441\u0442\u043e\u0447\u043d\u043e-\u041a\u0430\u043f\u0441\u043a\u0430\u044f \u043f\u0440\u043e\u0432\u0438\u043d\u0446\u0438\u044f","id:right":-80501,"id":-88574,"osm_relation":true,"name:right":"Western Cape","kind":"region","name":"Eastern Cape - Western Cape","sort_rank":256,"kind_detail":"4","name:left:de":"Ostkap","source":"openstreetmap.org","maritime_boundary":true,"name:right:de":"Westkap","id:left":-88574,"name:left":"Eastern Cape"},"arcs":[2]},{"type":"LineString","properties":{"kind":"region","name":"Western Cape","sort_rank":256,"kind_detail":"4","min_zoom":8.0,"name:de":"Westkap","source":"openstreetmap.org","maritime_boundary":true,"name:ru":"\u0417\u0430\u043f\u0430\u0434\u043d\u0430\u044f \u041a\u0430\u043f\u0441\u043a\u0430\u044f \u043f\u0440\u043e\u0432\u0438\u043d\u0446\u0438\u044f","id":-80501,"osm_relation":true},"arcs":[3]}]},"roads":{"type":"GeometryCollection","geometries":[{"type":"MultiLineString","properties":{"sort_rank":380,"kind_detail":"primary","min_zoom":8.0,"kind":"major_road","source":"openstreetmap.org"},"arcs":[[6],[7],[8]]},{"type":"MultiLineString","properties":{"kind":"highway","network":"za:national","sort_rank":383,"landuse_kind":"urban_area","source":"openstreetmap.org","min_zoom":8.0,"all_networks":["za:national"],"kind_detail":"motorway","shield_text":"2","ref":"N2","all_shield_texts":["2"]},"arcs":[[9],[10]]},{"type":"LineString","properties":{"kind":"major_road","network":"za:regional","sort_rank":380,"kind_detail":"primary","source":"openstreetmap.org","min_zoom":8.0,"shield_text":"62","ref":"R62"},"arcs":[11]},{"type":"MultiLineString","properties":{"kind":"major_road","network":"za:national","sort_rank":381,"kind_detail":"trunk","source":"openstreetmap.org","min_zoom":8.0,"shield_text":"9","ref":"N9"},"arcs":[[12],[13]]},{"type":"LineString","properties":{"kind":"major_road","network":"za:national","sort_rank":381,"kind_detail":"trunk","source":"openstreetmap.org","min_zoom":8.0,"shield_text":"9","ref":"N9;R62"},"arcs":[14]},{"type":"MultiLineString","properties":{"kind":"major_road","network":"za:national","sort_rank":381,"kind_detail":"trunk","source":"openstreetmap.org","min_zoom":8.0,"landuse_kind":"nature_reserve","shield_text":"2","ref":"N2"},"arcs":[[15],[16],[17],[18],[19],[20],[21],[22],[23],[24],[25],[26],[27],[28],[29],[30],[31],[32],[33],[34],[35]]},{"type":"MultiLineString","properties":{"kind":"highway","network":"za:national","sort_rank":383,"kind_detail":"motorway","source":"openstreetmap.org","min_zoom":8.0,"all_networks":["za:national"],"shield_text":"2","ref":"N2","all_shield_texts":["2"]},"arcs":[[36],[37]]},{"type":"LineString","properties":{"kind":"major_road","network":"za:national","sort_rank":381,"kind_detail":"trunk","source":"openstreetmap.org","min_zoom":8.0,"shield_text":"9","ref":"N9;R339","id":56685957},"arcs":[38]},{"type":"MultiLineString","properties":{"kind":"major_road","network":"za:national","sort_rank":381,"landuse_kind":"urban_area","source":"openstreetmap.org","min_zoom":8.0,"kind_detail":"trunk","shield_text":"9","ref":"N9;N12"},"arcs":[[39],[40]]},{"type":"MultiLineString","properties":{"source":"openstreetmap.org","kind":"major_road","sort_rank":381,"kind_detail":"trunk","ref":"N2","min_zoom":8.0},"arcs":[[41],[42],[43],[44],[45],[46]]},{"type":"MultiLineString","properties":{"kind":"major_road","network":"za:national","sort_rank":381,"kind_detail":"trunk","source":"openstreetmap.org","min_zoom":8.0,"shield_text":"9","ref":"N9;N12"},"arcs":[[47],[48]]},{"type":"MultiLineString","properties":{"kind":"major_road","network":"za:national","sort_rank":381,"kind_detail":"trunk","source":"openstreetmap.org","min_zoom":8.0,"shield_text":"2","ref":"N2"},"arcs":[[49],[50],[51],[52],[53],[54],[55],[56],[57],[58],[59],[60],[61],[62],[63],[64],[65],[66],[67],[68],[69],[70],[71],[72],[73],[74],[75],[76],[77],[78],[79],[80],[81],[82],[83],[84],[85],[86],[87]]},{"type":"MultiLineString","properties":{"kind":"major_road","network":"za:national","sort_rank":381,"kind_detail":"trunk","source":"openstreetmap.org","min_zoom":8.0,"shield_text":"12","ref":"N12"},"arcs":[[88],[89],[90]]},{"type":"LineString","properties":{"kind":"major_road","network":"za:national","sort_rank":381,"kind_detail":"trunk","source":"openstreetmap.org","min_zoom":8.0,"landuse_kind":"nature_reserve","shield_text":"12","ref":"N12"},"arcs":[91]}]},"earth":{"type":"GeometryCollection","geometries":[{"type":"Polygon","properties":{"sort_rank":10,"source":"naturalearthdata.com","kind":"earth","min_zoom":0.0,"id":4683},"arcs":[[92]]}]},"landuse":{"type":"GeometryCollection","geometries":[{"type":"MultiPolygon","properties":{"source":"openstreetmap.org","kind":"nature_reserve","tier":2,"area":1527205562,"sort_rank":23,"min_zoom":6.0,"osm_relation":true},"arcs":[[[93],[94],[95],[96],[97],[98],[99],[100],[101]],[[102]]]},{"type":"MultiPolygon","properties":{"source":"naturalearthdata.com","kind":"urban_area","name":"","area":81975706,"sort_rank":11,"min_zoom":4.0},"arcs":[[[103]]]},{"type":"MultiPolygon","properties":{"source":"openstreetmap.org","kind":"nature_reserve","tier":2,"area":1765187943,"sort_rank":23,"min_zoom":4.0,"osm_relation":true},"arcs":[[[104],[105],[106],[107],[108],[109],[110],[111],[112],[113],[114],[115]],[[116]]]},{"type":"MultiPolygon","properties":{"source":"openstreetmap.org","kind":"nature_reserve","tier":2,"area":185181249,"sort_rank":23,"min_zoom":8.0,"osm_relation":true},"arcs":[[[117]],[[118]],[[119],[120]],[[121],[122],[123]],[[124]],[[125]]]}]}},"type":"Topology","transform":{"translate":[22.5,-34.3071438563],"scale":[0.0003433228,0.0002855451]},"arcs":[[[1104,0],[323,45],[858,-45]],[[1154,4096],[-11,-14],[-44,-159],[-108,-116],[-146,-306],[-47,-6],[-2,-60],[-99,8],[-10,-248],[142,-73],[-30,-14],[467,-33],[384,101],[135,-2],[64,46],[473,-3],[195,-256],[-27,72],[328,-25],[82,17],[54,-68],[262,-118],[-23,-266],[60,10],[9,-77],[160,-120],[-13,-164],[-246,0],[-86,74],[-3,-75],[-40,-35],[-1,-58],[-192,-64],[-103,1],[-29,-155],[-102,-108],[274,-52],[-3,56],[90,33],[112,-40],[13,-124],[134,-14],[36,-36],[242,-73],[-59,-70],[-104,-31],[28,-49],[-58,-23],[22,-61],[-29,-74],[33,-37],[6,-192]],[[3344,1015],[-34,-581],[169,-434]],[[1104,0],[323,45],[858,-45]],[[0,948],[139,115],[47,22],[58,11],[76,3],[58,-9],[328,-116],[71,-14],[54,19],[-48,22],[-46,41],[-38,52],[-28,53],[129,-14],[64,-21],[46,-39],[-44,1],[-20,-14],[-2,-24],[7,-33],[23,-52],[33,-22],[37,-12],[94,-58],[232,-73],[45,-4],[31,9],[28,12],[37,9],[81,-7],[41,-13],[17,-18],[20,22],[-1,26],[-29,49],[-29,24],[-28,11],[-22,21],[-10,52],[24,-26],[36,-14],[88,-7],[7,-23],[18,-100],[15,-23],[1007,-96],[0,24],[-67,10],[-51,48],[-20,70],[29,77],[46,47],[56,38],[63,28],[469,109],[136,6],[517,-122],[272,-28],[0,-997],[-4096,0],[0,948]],[[0,948],[139,115],[47,22],[58,11],[76,3],[58,-9],[328,-116],[71,-14],[54,19],[-48,22],[-46,41],[-38,52],[-28,53],[129,-14],[64,-21],[46,-39],[-44,1],[-20,-14],[-2,-24],[7,-33],[23,-52],[33,-22],[37,-12],[94,-58],[232,-73],[45,-4],[31,9],[28,12],[37,9],[81,-7],[41,-13],[17,-18],[20,22],[-1,26],[-29,49],[-29,24],[-28,11],[-22,21],[-10,52],[24,-26],[36,-14],[88,-7],[7,-23],[18,-100],[15,-23],[1007,-96],[0,24],[-67,10],[-51,48],[-20,70],[29,77],[46,47],[56,38],[63,28],[469,109],[136,6],[517,-122],[272,-28]],[[1614,939],[-45,8]],[[1617,944],[-3,-5]],[[1617,944],[6,1]],[[1,1109],[-1,-1]],[[0,1109],[1,1]],[[1572,2000],[364,36],[600,-1],[309,-65],[81,-66],[214,-28],[212,-97],[204,-45],[351,-21],[167,-44],[22,-8]],[[1572,2000],[47,45],[-37,47],[7,57],[191,114],[67,66]],[[1836,2380],[104,158],[73,191],[84,75],[177,49],[91,132],[-18,115],[46,39],[348,144],[-12,76],[144,226],[-15,206],[-155,94],[12,211]],[[0,1709],[640,162],[409,44],[64,-5],[70,-46],[147,2],[19,41],[-53,30],[276,63]],[[251,1093],[-26,0]],[[226,1093],[13,1],[12,-1]],[[251,1093],[5,0]],[[282,1089],[-26,4]],[[282,1089],[2,-1]],[[301,1086],[2,1]],[[303,1087],[-2,-1]],[[303,1087],[6,0]],[[326,1085],[-17,2]],[[309,1087],[8,0],[11,-2]],[[774,1043],[16,0]],[[1041,984],[114,-23]],[[1429,960],[4,8]],[[1483,950],[-31,21]],[[1963,982],[88,-19]],[[2969,1307],[117,-17]],[[3148,1286],[104,-6],[13,-21]],[[3286,1235],[8,-8]],[[3304,1216],[38,-24]],[[3913,1184],[61,12]],[[4062,1193],[34,-2]],[[30,1123],[-29,-14]],[[1,1110],[15,9],[16,8]],[[1847,2329],[-11,51]],[[3,1133],[-3,2]],[[0,1136],[3,-2]],[[56,1104],[1,1]],[[57,1104]],[[334,1083],[0,1]],[[335,1084],[0,-1]],[[2496,900],[-1,0]],[[2496,901],[0,-1]],[[45,1117],[-42,16]],[[3,1134],[40,-15]],[[40,1121],[-10,2]],[[32,1127],[6,-3],[18,-19],[1,0],[1,-1],[7,-7]],[[65,1097],[0,-1],[2,0]],[[67,1096],[2,-1],[4,-1],[48,26],[31,-2],[1,-3],[-2,-8],[11,-10]],[[162,1097],[13,-13],[23,10],[1,0]],[[199,1094],[1,0],[8,1],[4,1],[5,-1],[9,-2]],[[225,1093],[-10,2],[-15,-1],[-1,0]],[[199,1094],[-37,3]],[[162,1097],[-8,0],[-22,21],[-59,-25],[-4,1],[-2,2]],[[67,1096],[-2,1]],[[65,1097],[-4,2],[-16,18]],[[284,1088],[5,-3]],[[301,1086],[-6,-1],[-6,0]],[[289,1085],[12,1]],[[345,1082],[-19,3]],[[328,1085],[17,-3]],[[345,1082],[429,-39]],[[790,1043],[62,-4]],[[930,1007],[-78,32]],[[930,1007],[111,-23]],[[1155,961],[83,-21],[89,35],[102,-15]],[[1433,968],[19,3]],[[1483,950],[258,-24],[169,23],[21,40],[32,-7]],[[2051,963],[325,-43],[66,-29]],[[2457,885],[-15,6]],[[2457,885],[6,1]],[[2504,905],[-41,-19]],[[2504,905],[27,25]],[[2536,939],[-5,-9]],[[2536,939],[3,7]],[[2546,958],[-7,-12]],[[2546,958],[12,22]],[[2563,988],[-5,-8]],[[2563,988],[55,79],[46,-17],[68,59],[-20,61],[115,41],[57,83],[85,13]],[[3086,1290],[62,-4]],[[3265,1259],[21,-24]],[[3294,1227],[10,-11]],[[3342,1192],[388,-36],[183,28]],[[3974,1196],[88,-3]],[[0,2812],[123,63],[72,153],[-36,33]],[[171,3223],[-52,180],[-119,75]],[[0,3615],[34,-3],[103,62],[-1,396],[-7,26]],[[159,3061],[-18,36],[30,126]],[[4096,997],[-272,28],[-517,122],[-136,-6],[-469,-109],[-63,-28],[-56,-38],[-46,-47],[-29,-77],[20,-70],[51,-48],[67,-10],[0,-24],[-1007,96],[-15,23],[-18,100],[-7,23],[-88,7],[-36,14],[-24,26],[10,-52],[22,-21],[28,-11],[29,-24],[29,-49],[1,-26],[-20,-22],[-17,18],[-41,13],[-81,7],[-37,-9],[-28,-12],[-31,-9],[-45,4],[-232,73],[-94,58],[-37,12],[-33,22],[-23,52],[-7,33],[2,24],[20,14],[44,-1],[-46,39],[-64,21],[-129,14],[28,-53],[38,-52],[46,-41],[48,-22],[-54,-19],[-71,14],[-328,116],[-58,9],[-76,-3],[-58,-11],[-47,-22],[-139,-115],[0,3148],[4096,0],[0,-3099]],[[645,1379],[43,62],[-29,70],[-6,201],[204,15],[18,-95],[149,39],[73,49],[284,5],[39,-128],[170,-21],[161,55],[106,8],[153,-89],[-55,-110],[-88,69],[-64,-48],[-107,12],[4,-44],[74,-17],[30,-37],[90,14],[160,-49],[-103,-56],[119,-9],[89,-105],[120,-15],[1,-71],[-92,-12],[21,24],[-45,-11],[-10,11],[45,13],[-96,0],[-3,-5],[18,-10],[1,-11],[-24,-15],[43,-7],[-96,-109],[56,-8],[-3,-19],[108,-80],[-82,-44],[3,-26],[82,3],[-40,-33],[-55,26],[-29,-15],[-46,24],[-196,4],[-11,20],[44,46],[-30,3],[-12,73],[15,14],[42,-37],[43,2],[45,10],[-9,49],[34,5],[25,-6],[-63,18],[-16,74],[47,85],[-125,29],[-8,33],[-71,-34],[3,75],[-95,-26],[-19,-54],[-84,-28],[15,-14],[-27,-18],[-16,13],[43,32],[8,60],[-26,-11],[-10,25],[-109,-53],[64,36],[-10,38],[-147,85],[-134,-14],[-43,88],[-45,-2],[-61,48],[-24,-37],[-42,35],[-20,-12],[18,-84],[-27,11],[-6,36],[22,-5],[-26,27],[-115,-52],[-67,37],[-11,-31],[31,-25],[-16,-22],[-169,53]],[[2187,857],[0,-10],[8,2],[-7,8],[-1,0]],[[2108,1093],[3,-5],[5,1],[0,4],[-8,0]],[[2109,1040],[4,-1],[3,10],[-5,1],[-2,-10]],[[1991,797],[91,2],[1,-28],[25,33],[-17,24],[-46,-12],[-16,37],[-32,-14],[14,-23],[-20,-19]],[[2089,1084],[1,-5],[13,7],[-1,3],[-13,-5]],[[2078,1080],[10,0],[1,4],[-10,1],[-1,-5]],[[2004,967],[21,-8],[1,1],[0,2],[-22,5]],[[2002,966],[4,-10],[18,1],[-15,6],[-5,3],[-2,0]],[[0,2629],[97,-8],[172,-73],[309,-24],[85,10],[-12,35],[78,-40],[38,41],[67,3],[-3,-22],[68,-13],[351,79],[242,-26],[-20,-93],[76,-87],[-177,-114],[-43,16],[-3,-24],[-199,-76],[-45,-1],[-10,29],[-341,-58],[-391,7],[-85,51],[6,53],[-57,-11],[-203,112],[0,234]],[[0,1273],[15,-8],[-15,-164],[0,172]],[[4096,1065],[0,-228],[-753,132],[0,146],[-248,-14],[-81,-48],[-149,-12],[37,135],[67,5],[-16,59],[64,21],[-13,46],[-40,-5],[31,32],[-6,41],[-71,-32],[-39,68],[-54,-36],[-68,3],[22,49],[-116,80],[-44,-85],[-54,-30],[-27,-73],[-117,48],[114,44],[-7,42],[94,92],[-73,-20],[-423,173],[-137,204],[165,-116],[452,14],[274,-51],[190,39],[113,-82],[32,27],[36,-17],[-24,-56],[36,-36],[242,-73],[-60,-72],[411,-35],[225,-143],[15,0],[0,-234],[-105,53],[-13,41],[50,-14],[20,28],[-36,0],[4,19],[46,-2],[-1,36],[-82,13],[-9,-79],[-30,-19],[-61,90],[-89,58],[-79,-22],[38,-26],[7,-57],[-23,-3],[-65,17],[-66,85],[39,3],[-9,16],[-75,34],[-11,-16],[45,-22],[-60,8],[2,-22],[38,-1],[-13,-20],[44,-40],[-56,-30],[-76,48],[-104,-11],[4,-19],[38,5],[-10,-30],[-57,10],[10,-41],[330,-84],[201,-17],[43,-38],[62,20],[13,-19],[87,-1],[9,47]],[[3312,1265],[62,4],[4,32],[29,3],[-62,17],[-33,-56]],[[3450,1381],[33,-18],[28,11],[-26,20],[-35,-13]],[[3046,1129],[56,14],[-3,35],[-9,-22],[-44,-27]],[[3085,1281],[6,-62],[78,26],[-34,69],[-47,-7],[-3,-26]],[[3544,1373],[28,-6],[16,-19],[-15,31],[-29,-6]],[[3405,1376],[16,4],[20,-12],[11,1],[-11,26],[-36,-19]],[[3129,1167],[6,-29],[121,24],[-2,50],[23,0],[-1,-44],[32,-15],[24,21],[-32,41],[23,6],[-35,7],[-10,34],[-26,-5],[2,-45],[-37,36],[-8,-39],[-80,-42]],[[3506,1395],[20,-24],[-4,23],[-5,2],[-5,1],[-6,-2]],[[3408,1304],[9,-4],[21,1],[-16,3],[-14,0]],[[3664,1293],[12,-5],[5,12],[-9,1],[-8,-8]],[[3645,1290],[8,0],[7,-2],[-1,4],[-14,-2]],[[0,3214],[193,10],[220,-35],[179,7],[-6,46],[55,-4],[155,-99],[426,-60],[37,5],[19,52],[752,134],[-4,-44],[-176,-3],[-67,-52],[-140,6],[-13,-77],[-351,-121],[-174,4],[-135,-46],[-44,72],[-173,-60],[-14,72],[-76,-33],[-138,16],[18,81],[-425,-26],[-77,78],[-41,6],[0,71]],[[971,989],[148,-10],[36,-18],[-68,-10],[31,-46],[159,-15],[2,-31],[104,-34],[9,-28],[-58,-10],[-127,62],[-221,61],[41,36],[-56,43]],[[1413,984],[34,46],[12,-10],[34,20],[18,-2],[-32,22],[-2,19],[35,-41],[-72,-34],[-8,-36],[38,6],[27,-51],[74,21],[46,-54],[23,36],[-33,-13],[-9,15],[52,6],[-11,-60],[19,13],[6,-42],[-64,12],[43,-35],[20,21],[-25,-55],[-95,87],[8,50],[-39,-50],[-49,9],[6,53],[-54,31],[-2,16]],[[327,1263],[16,50],[114,29],[-2,30],[134,1],[9,-49],[-28,-25],[-67,43],[-176,-79]],[[552,1343],[9,-7],[3,7],[-6,3],[-6,-3]],[[222,1092],[30,12],[29,-2],[15,-10],[6,73],[-28,18],[-6,14],[10,3],[40,-11],[1,-72],[64,-16],[53,42],[-42,20],[1,21],[70,-25],[-30,-41],[69,27],[58,-10],[34,-37],[13,44],[29,9],[14,-23],[30,21],[47,-32],[104,0],[31,-51],[31,25],[49,-12],[-22,-21],[-31,23],[-26,-18],[-51,22],[-25,-27],[4,-45],[29,-12],[21,23],[30,-3],[11,-36],[-18,-24],[43,-17],[-108,36],[-29,-36],[-277,99],[-209,39],[209,-34],[273,-81],[18,16],[89,-3],[-17,41],[-28,-23],[-35,-6],[-27,64],[-49,-2],[-28,55],[-47,3],[35,-27],[-54,-10],[-43,26],[-140,6],[14,-30],[-234,15]],[[428,1108],[1,-2],[11,6],[25,0],[-25,2],[-12,-6]],[[481,1112],[12,-3],[2,0],[-7,4],[-7,-1]],[[2524,1271],[14,48],[21,-13],[14,24],[4,-33],[6,21],[32,-24],[-12,23],[32,16],[9,-45],[-6,67],[50,-19],[-10,-71],[83,-21],[-51,-69],[-68,6],[14,-27],[-24,-41],[-1,50],[22,51],[-129,57]],[[36,1286],[103,19],[101,-46],[-90,-59],[-9,-32],[-42,5],[21,20],[-35,75],[-49,18]]]}