{"objects":{"water":{"type":"GeometryCollection","geometries":[]},"buildings":{"type":"GeometryCollection","geometries":[]},"places":{"type":"GeometryCollection","geometries":[]},"transit":{"type":"GeometryCollection","geometries":[]},"pois":{"type":"GeometryCollection","geometries":[{"type":"Point","properties":{"kind":"nature_reserve","name:en":"Northeast Svalbard Nature Reserve","protect_class":"1","area":1396160000000,"name:de":"Nordost-Svalbard-Naturreservat","source":"openstreetmap.org","min_zoom":4.0,"name:it":"Riserva naturale delle Svalbard nord-orientali","tier":2,"id":230390216,"name":"Nordaust-Svalbard naturreservat"},"coordinates":[1257,3970]}]},"boundaries":{"type":"GeometryCollection","geometries":[]},"roads":{"type":"GeometryCollection","geometries":[]},"earth":{"type":"GeometryCollection","geometries":[{"type":"Polygon","properties":{"sort_rank":10,"source":"naturalearthdata.com","kind":"earth","min_zoom":0.0,"id":4906},"arcs":[[0]]},{"type":"Point","properties":{"label_placement":true,"name:nl":"Noord-Oostland","name:cs":"Severov\u00fdchodn\u00ed zem\u011b","min_zoom":7.0,"name:uk":"\u041f\u0456\u0432\u043d\u0456\u0447\u043d\u043e-\u0421\u0445\u0456\u0434\u043d\u0430 \u0417\u0435\u043c\u043b\u044f","name:ru":"\u0421\u0435\u0432\u0435\u0440\u043e-\u0412\u043e\u0441\u0442\u043e\u0447\u043d\u0430\u044f \u0437\u0435\u043c\u043b\u044f","name:be":"\u041f\u0430\u045e\u043d\u043e\u0447\u043d\u0430-\u0423\u0441\u0445\u043e\u0434\u043d\u044f\u044f \u0437\u044f\u043c\u043b\u044f","name:pl":"Ziemia P\u00f3\u0142nocno-Wschodnia","id":-5856703,"osm_relation":true,"kind":"island","name:en":"North East Land","name":"Nordaustlandet","area":460647989248,"name:de":"Nordostland","source":"openstreetmap.org","name:es":"Tierra del Nordeste"},"coordinates":[536,3147]}]},"landuse":{"type":"GeometryCollection","geometries":[{"type":"Polygon","properties":{"kind":"glacier","natural":"glacier","name":"S\u00f8rfonna","area":130769002496,"sort_rank":29,"name:de":"S\u00fcdferner","source":"openstreetmap.org","min_zoom":8.0,"tier":3,"id":413013520},"arcs":[[1]]},{"type":"Polygon","properties":{"source":"openstreetmap.org","kind":"nature_reserve","tier":2,"protect_class":"1","area":98022885885,"sort_rank":23,"min_zoom":4.0},"arcs":[[2]]}]}},"type":"Topology","transform":{"translate":[22.5,79.6871841545],"scale":[0.0003433228,0.0000607261]},"arcs":[[[4096,0],[-4096,0],[0,4096],[4096,0],[0,-4096]],[[0,2510],[346,183],[140,135],[116,56],[678,-534],[2816,-1348],[0,-1002],[-4096,0],[0,2510]],[[0,0],[0,4096],[4096,0],[0,-4096],[-4096,0]]]}