{"objects":{"water":{"type":"GeometryCollection","geometries":[{"type":"Polygon","properties":{"source":"naturalearthdata.com","kind":"ocean","area":1576712559132672,"sort_rank":200,"min_zoom":0.0,"id":1},"arcs":[[38]]},{"type":"LineString","properties":{"source":"naturalearthdata.com","kind":"ocean","sort_rank":205,"boundary":true,"min_zoom":0.0,"id":49},"arcs":[39]}]},"buildings":{"type":"GeometryCollection","geometries":[]},"places":{"type":"GeometryCollection","geometries":[{"type":"Point","properties":{"kind":"locality","name":"Jelgava","old_name:pl":"Mitawa","kind_detail":"city","name:de":"Mitau","source":"openstreetmap.org","min_zoom":8.0,"name:uk":"\u0404\u043b\u0433\u0430\u0432\u0430","name:be":"\u0415\u043b\u0433\u0430\u0432\u0430","name:ru":"\u0415\u043b\u0433\u0430\u0432\u0430","name:pl":"Je\u0142gawa","id":26707263,"population":63534},"coordinates":[3594,491]},{"type":"Point","properties":{"kind":"locality","name":"J\u016brmala","kind_detail":"city","name:de":"Rigaer Strand","source":"openstreetmap.org","min_zoom":8.0,"name:uk":"\u042e\u0440\u043c\u0430\u043b\u0430","name:ru":"\u042e\u0440\u043c\u0430\u043b\u0430","name:pl":"Jurma\u0142a","id":1262375112,"population":57671},"coordinates":[3754,2207]},{"type":"Point","properties":{"kind":"locality","name":"Tukums","name:lt":"Tukumas","kind_detail":"town","name:de":"Tuckum","source":"openstreetmap.org","min_zoom":8.0,"name:uk":"\u0422\u0443\u043a\u0443\u043c\u0441","name:ru":"\u0422\u0443\u043a\u0443\u043c\u0441","name:pl":"Tukum","id":27193473,"population":19729},"coordinates":[1951,2175]},{"type":"Point","properties":{"kind":"locality","name":"Talsi","name:lt":"Talsai","kind_detail":"town","name:de":"Talsen","source":"openstreetmap.org","min_zoom":8.0,"name:uk":"\u0422\u0430\u043b\u0441\u0456","name:ru":"\u0422\u0430\u043b\u0441\u0438","id":29488825,"population":10962},"coordinates":[263,3662]},{"type":"Point","properties":{"kind":"locality","name":"Dobele","name:lt":"Duobel\u0117","kind_detail":"town","name:he":"\u05d3\u05d5\u05d1\u05dc\u05d4","name:de":"Doblen","source":"openstreetmap.org","min_zoom":8.0,"name:uk":"\u0414\u043e\u0431\u0435\u043b\u0435","name:ru":"\u0414\u043e\u0431\u0435\u043b\u0435","id":29488309,"population":10895},"coordinates":[2264,354]},{"type":"Point","properties":{"kind":"locality","name":"Kandava","kind_detail":"town","name:de":"Kandau","source":"openstreetmap.org","min_zoom":8.0,"name:uk":"\u041a\u0430\u043d\u0434\u0430\u0432\u0430","name:ru":"\u041a\u0430\u043d\u0434\u0430\u0432\u0430","name:pl":"Kandawa","id":29488827,"population":4202},"coordinates":[799,2571]},{"type":"Point","properties":{"kind":"locality","name":"Broc\u0113ni","name:lt":"Bruoc\u0117nai","kind_detail":"town","name:de":"Berghof","source":"openstreetmap.org","min_zoom":8.0,"name:uk":"\u0411\u0440\u043e\u0446\u0435\u043d\u0438","name:ru":"\u0411\u0440\u043e\u0446\u0435\u043d\u044b","id":457015340,"population":3376},"coordinates":[194,668]},{"type":"Point","properties":{"kind":"locality","name":"Stende","name:lt":"Stend\u0117","kind_detail":"town","name:de":"Stenden","source":"openstreetmap.org","min_zoom":8.0,"name:uk":"\u0421\u0442\u0435\u043d\u0434\u0435","name:ru":"\u0421\u0442\u0435\u043d\u0434\u0435","id":29488826,"population":1871},"coordinates":[82,3124]},{"type":"Point","properties":{"kind":"locality","name":"Sabile","name:lt":"Sabil\u0117","kind_detail":"town","name:de":"Zabeln","source":"openstreetmap.org","min_zoom":8.0,"name:uk":"\u0421\u0430\u0431\u0456\u043b\u0435","name:ru":"\u0421\u0430\u0431\u0438\u043b\u0435","id":29488828,"population":1402},"coordinates":[207,2610]}]},"transit":{"type":"GeometryCollection","geometries":[{"type":"MultiLineString","properties":{"kind":"train","name":"R\u012bga - Liep\u0101ja","sort_rank":275,"name:de":"Riga - Libau","source":"openstreetmap.org","min_zoom":6.0,"operator":"AS \u201ePasa\u017eieru vilciens\u201c","ref":"R\u012bga - Liep\u0101ja","osm_relation":true},"arcs":[[8],[9],[10],[11],[12],[13]]},{"type":"MultiLineString","properties":{"kind":"train","name":"R\u012bga - Tukums","sort_rank":275,"name:de":"Riga - Tuckum","source":"openstreetmap.org","min_zoom":6.0,"operator":"AS \u201ePasa\u017eieru vilciens\u201c","ref":"R\u012bga-Tukums Elektrovilciens","osm_relation":true},"arcs":[[14],[15],[16],[17],[18],[19],[20],[21],[22],[23],[24],[25],[26],[27],[28],[29],[30],[31],[32]]},{"type":"MultiLineString","properties":{"kind":"train","name":"R\u012bga - Jelgava","sort_rank":275,"name:de":"Riga - Mitau","source":"openstreetmap.org","min_zoom":6.0,"operator":"AS \u201ePasa\u017eieru vilciens\u201c","ref":"R\u012bga-Jelgava Elektrovilciens","osm_relation":true},"arcs":[[33],[34],[35],[36],[37]]}]},"pois":{"type":"GeometryCollection","geometries":[{"type":"Point","properties":{"kind":"protected_area","name":"Lust\u016b\u017ekalna liegums","area":24682800,"source":"openstreetmap.org","min_zoom":8.0,"tier":2,"id":-3482064,"osm_relation":true},"coordinates":[2316,2345]},{"type":"Point","properties":{"kind":"protected_area","protect_class":"4","area":499196000,"source":"openstreetmap.org","min_zoom":7.0,"tier":2,"id":132054100,"name":"Abavas senleja"},"coordinates":[812,2580]},{"type":"Point","properties":{"kind":"protected_area","protect_class":"4","area":100104000,"name:de":"Babbit-See","source":"openstreetmap.org","min_zoom":7.0,"tier":2,"id":132054167,"name":"Bab\u012btes ezers"},"coordinates":[3579,1902]},{"type":"Point","properties":{"kind":"protected_area","protect_class":"4","area":71220400,"source":"openstreetmap.org","min_zoom":8.0,"tier":2,"id":132054169,"name":"Cenas t\u012brelis"},"coordinates":[3921,1605]},{"type":"Point","properties":{"kind":"protected_area","protect_class":"4","area":19390200,"source":"openstreetmap.org","min_zoom":8.0,"tier":2,"id":132054275,"name":"Kaigu purvs"},"coordinates":[3139,1163]},{"type":"Point","properties":{"kind":"protected_area","protect_class":"4","area":11634200,"source":"openstreetmap.org","min_zoom":8.0,"tier":2,"id":132054794,"name":"RIESTA -DZUKSTENES PURVS"},"coordinates":[1975,954]},{"type":"Point","properties":{"kind":"protected_area","protect_class":"4","area":30860600,"source":"openstreetmap.org","min_zoom":8.0,"tier":2,"id":132055018,"name":"Sv\u0113tes paliene"},"coordinates":[3360,831]},{"type":"Point","properties":{"kind":"protected_area","protect_class":"4","area":29886800,"source":"openstreetmap.org","min_zoom":8.0,"tier":2,"id":132055125,"name":"Zebrus un sv\u0113tes ezers"},"coordinates":[1414,387]},{"type":"Point","properties":{"kind":"national_park","name:en":"\u0136emeri National Park","protect_class":"2","area":1277180000,"name:de":"Nationalpark \u0136emeri","source":"openstreetmap.org","min_zoom":5.63,"tier":1,"name:ru":"\u041d\u0430\u0446\u0438\u043e\u043d\u0430\u043b\u044c\u043d\u044b\u0439 \u043f\u0430\u0440\u043a \u041a\u0435\u043c\u0435\u0440\u0438","id":206559717,"name":"\u0136emeru nacion\u0101lais parks"},"coordinates":[2891,1939]}]},"boundaries":{"type":"GeometryCollection","geometries":[{"type":"LineString","properties":{"name:right:es":"Curlandia","name:right:nl":"Koerland","name:right:ja":"\u30af\u30fc\u30eb\u30e9\u30f3\u30c8","id:right":-1775676,"name:right:lt":"Kur\u0161as","min_zoom":8.0,"name:left:lt":"Vid\u017eem\u0117","name:left:be":"\u0412\u0456\u0434\u0437\u044d\u043c\u044d","id":-1775823,"name:right":"Kurzeme","name:right:ca":"Curl\u00e0ndia","kind_detail":"4","name:right:sk":"Kur\u00f3nsko","source":"openstreetmap.org","name:right:ar":"\u0643\u0648\u0631\u0644\u0627\u0646\u062f","id:left":-1775823,"name:right:cs":"Kuronsko","name:right:fi":"Kuurinmaa","name:left":"Vidzeme","name:right:ka":"\u10d9\u10e3\u10e0\u10da\u10d0\u10dc\u10d3\u10d8\u10d0","name:right:pt":"Curl\u00e2ndia","name:right:et":"Kuramaa","name:right:it":"Curlandia","name:right:ko":"\ucfe0\ub97c\ub780\ud2b8","name:right:ru":"\u041a\u0443\u0440\u0437\u0435\u043c\u0435","name:right:tr":"Kurlandiya","name:left:ru":"\u0412\u0438\u0434\u0437\u0435\u043c\u0435","name:right:bg":"\u041a\u0443\u0440\u043b\u0430\u043d\u0434\u0438\u044f","name:right:en":"Courland","osm_relation":true,"kind":"region","name":"Vidzeme - Kurzeme","name:right:de":"Kurland","name:left:de":"Livland","name:right:be":"\u041a\u0443\u0440\u043b\u044f\u043d\u0434\u044b\u044f","sort_rank":256,"name:right:zh":"\u5eab\u723e\u862d"},"arcs":[0]},{"type":"LineString","properties":{"name:right:es":"Semigalia","name:right:ja":"\u30bc\u30e0\u30ac\u30ec","name:right:pt":"Semigola","name:right:uk":"\u0417\u0435\u043c\u0433\u0430\u043b\u0435","name:right:it":"Semgallia","id:right":-1775647,"name:right:lt":"\u017diemgala","min_zoom":8.0,"name:left:lt":"Vid\u017eem\u0117","id:left":-1775823,"name:left:be":"\u0412\u0456\u0434\u0437\u044d\u043c\u044d","name:right:sv":"Semgallen","name:right:pl":"Semigalia","id":-1775823,"osm_relation":true,"name:right":"Zemgale","kind":"region","name":"Vidzeme - Zemgale","sort_rank":256,"kind_detail":"4","name:right:ru":"\u0417\u0435\u043c\u0433\u0430\u043b\u0435","name:left:de":"Livland","alt_name:right:ru":"\u0417\u0435\u043c\u0433\u0430\u043b\u0438\u044f","name:right:be":"\u0417\u044d\u043c\u0433\u0430\u043b\u044d","source":"openstreetmap.org","name:right:de":"Semgallen","name:left:ru":"\u0412\u0438\u0434\u0437\u0435\u043c\u0435","name:left":"Vidzeme"},"arcs":[1]},{"type":"LineString","properties":{"kind":"region","name":"Vidzeme","name:lt":"Vid\u017eem\u0117","sort_rank":256,"kind_detail":"4","name:de":"Livland","source":"openstreetmap.org","min_zoom":8.0,"name:ru":"\u0412\u0438\u0434\u0437\u0435\u043c\u0435","name:be":"\u0412\u0456\u0434\u0437\u044d\u043c\u044d","id":-1775823,"osm_relation":true},"arcs":[2]},{"type":"LineString","properties":{"kind":"region","name":"Vidzeme","name:lt":"Vid\u017eem\u0117","sort_rank":256,"kind_detail":"4","min_zoom":8.0,"name:de":"Livland","source":"openstreetmap.org","maritime_boundary":true,"name:be":"\u0412\u0456\u0434\u0437\u044d\u043c\u044d","name:ru":"\u0412\u0438\u0434\u0437\u0435\u043c\u0435","id":-1775823,"osm_relation":true},"arcs":[3]},{"type":"MultiLineString","properties":{"name:right:ja":"\u30bc\u30e0\u30ac\u30ec","name:right:uk":"\u0417\u0435\u043c\u0433\u0430\u043b\u0435","name:left:ja":"\u30af\u30fc\u30eb\u30e9\u30f3\u30c8","id:right":-1775647,"name:right:lt":"\u017diemgala","min_zoom":8.0,"name:left:lt":"Kur\u0161as","name:left:bg":"\u041a\u0443\u0440\u043b\u0430\u043d\u0434\u0438\u044f","name:left:sk":"Kur\u00f3nsko","name:left:be":"\u041a\u0443\u0440\u043b\u044f\u043d\u0434\u044b\u044f","name:right:pt":"Semigola","name:left:fi":"Kuurinmaa","id":-1775676,"name:right":"Zemgale","name:left:en":"Courland","sort_rank":256,"kind_detail":"4","name:left:ca":"Curl\u00e0ndia","alt_name:right:ru":"\u0417\u0435\u043c\u0433\u0430\u043b\u0438\u044f","source":"openstreetmap.org","name:left:nl":"Koerland","id:left":-1775676,"name:left:es":"Curlandia","name:left:tr":"Kurlandiya","name:left:cs":"Kuronsko","name:left":"Kurzeme","name:right:es":"Semigalia","name:left:ka":"\u10d9\u10e3\u10e0\u10da\u10d0\u10dc\u10d3\u10d8\u10d0","name:left:ar":"\u0643\u0648\u0631\u0644\u0627\u0646\u062f","name:left:ko":"\ucfe0\ub97c\ub780\ud2b8","name:right:it":"Semgallia","name:right:ru":"\u0417\u0435\u043c\u0433\u0430\u043b\u0435","name:left:pt":"Curl\u00e2ndia","name:right:sv":"Semgallen","name:left:ru":"\u041a\u0443\u0440\u0437\u0435\u043c\u0435","name:left:it":"Curlandia","name:right:pl":"Semigalia","osm_relation":true,"kind":"region","name":"Kurzeme - Zemgale","name:right:de":"Semgallen","name:left:de":"Kurland","name:right:be":"\u0417\u044d\u043c\u0433\u0430\u043b\u044d","name:left:zh":"\u5eab\u723e\u862d","name:left:et":"Kuramaa"},"arcs":[[4],[5]]},{"type":"LineString","properties":{"name:pt":"Curl\u00e2ndia","name:sk":"Kur\u00f3nsko","name:ja":"\u30af\u30fc\u30eb\u30e9\u30f3\u30c8","name:ka":"\u10d9\u10e3\u10e0\u10da\u10d0\u10dc\u10d3\u10d8\u10d0","name:ko":"\ucfe0\ub97c\ub780\ud2b8","name:ar":"\u0643\u0648\u0631\u0644\u0627\u0646\u062f","name:cs":"Kuronsko","name:tr":"Kurlandiya","min_zoom":8.0,"name:it":"Curlandia","name:be":"\u041a\u0443\u0440\u043b\u044f\u043d\u0434\u044b\u044f","name:ru":"\u041a\u0443\u0440\u0437\u0435\u043c\u0435","name:bg":"\u041a\u0443\u0440\u043b\u0430\u043d\u0434\u0438\u044f","id":-1775676,"name:ca":"Curl\u00e0ndia","name":"Kurzeme","kind":"region","name:en":"Courland","name:lt":"Kur\u0161as","sort_rank":256,"kind_detail":"4","name:de":"Kurland","name:nl":"Koerland","source":"openstreetmap.org","osm_relation":true,"name:fi":"Kuurinmaa","name:et":"Kuramaa","name:zh":"\u5eab\u723e\u862d","name:es":"Curlandia"},"arcs":[6]},{"type":"LineString","properties":{"name:pt":"Curl\u00e2ndia","name:sk":"Kur\u00f3nsko","name:ja":"\u30af\u30fc\u30eb\u30e9\u30f3\u30c8","name:ka":"\u10d9\u10e3\u10e0\u10da\u10d0\u10dc\u10d3\u10d8\u10d0","name:ko":"\ucfe0\ub97c\ub780\ud2b8","name:ar":"\u0643\u0648\u0631\u0644\u0627\u0646\u062f","name:cs":"Kuronsko","min_zoom":8.0,"name:it":"Curlandia","name:ru":"\u041a\u0443\u0440\u0437\u0435\u043c\u0435","name:be":"\u041a\u0443\u0440\u043b\u044f\u043d\u0434\u044b\u044f","name:bg":"\u041a\u0443\u0440\u043b\u0430\u043d\u0434\u0438\u044f","name:lt":"Kur\u0161as","id":-1775676,"name:ca":"Curl\u00e0ndia","kind":"region","name:en":"Courland","name":"Kurzeme","source":"openstreetmap.org","sort_rank":256,"kind_detail":"4","name:de":"Kurland","name:tr":"Kurlandiya","maritime_boundary":true,"osm_relation":true,"name:fi":"Kuurinmaa","name:et":"Kuramaa","name:zh":"\u5eab\u723e\u862d","name:nl":"Koerland","name:es":"Curlandia"},"arcs":[7]}]},"roads":{"type":"GeometryCollection","geometries":[{"type":"MultiLineString","properties":{"kind":"major_road","sort_rank":377,"landuse_kind":"protected_area","is_bicycle_related":true,"bicycle_shield_text":"LV1","bicycle_network":"ncn","source":"openstreetmap.org","min_zoom":8.0,"kind_detail":"tertiary"},"arcs":[[40],[41]]},{"type":"LineString","properties":{"source":"openstreetmap.org","bus_network":null,"bus_shield_text":"8","sort_rank":380,"kind_detail":"primary","min_zoom":8.0,"kind":"major_road"},"arcs":[42]},{"type":"MultiLineString","properties":{"kind":"major_road","network":"lv:national","sort_rank":380,"kind_detail":"primary","source":"openstreetmap.org","min_zoom":8.0,"shield_text":"94","osm_relation":true},"arcs":[[43],[44],[45]]},{"type":"LineString","properties":{"bus_network":null,"network":"lv:national","sort_rank":380,"kind_detail":"primary","kind":"major_road","source":"openstreetmap.org","min_zoom":8.0,"bus_shield_text":"7933","shield_text":"100","landuse_kind":"urban_area","ref":"P100"},"arcs":[46]},{"type":"LineString","properties":{"kind":"path","sort_rank":354,"kind_detail":"footway","is_bicycle_related":true,"bicycle_shield_text":"R1","bicycle_network":"icn","source":"openstreetmap.org","min_zoom":8.0,"landuse_kind":"park","id":106333741},"arcs":[47]},{"type":"MultiLineString","properties":{"kind":"major_road","network":"lv:regional","sort_rank":379,"landuse_kind":"park","is_bicycle_related":true,"bicycle_shield_text":null,"bicycle_network":"icn","source":"openstreetmap.org","min_zoom":8.0,"kind_detail":"secondary","shield_text":"1449","ref":"V1449"},"arcs":[[48],[49]]},{"type":"LineString","properties":{"kind":"minor_road","sort_rank":360,"kind_detail":"residential","is_bicycle_related":true,"bicycle_shield_text":"R1","bicycle_network":"icn","source":"openstreetmap.org","min_zoom":8.0,"name:ru":"\u0443\u043b\u0438\u0446\u0430 \u041a\u0430\u043b\u0435\u044e","id":97771249},"arcs":[50]},{"type":"LineString","properties":{"bus_network":null,"network":"lv:national","sort_rank":380,"kind_detail":"primary","kind":"major_road","source":"openstreetmap.org","min_zoom":8.0,"bus_shield_text":"7933","shield_text":"96","ref":"P96"},"arcs":[51]},{"type":"LineString","properties":{"kind":"major_road","network":"lv:national","sort_rank":380,"kind_detail":"primary","source":"openstreetmap.org","min_zoom":8.0,"shield_text":"97","id":44168041},"arcs":[52]},{"type":"LineString","properties":{"kind":"major_road","network":"lv:national","sort_rank":380,"kind_detail":"primary","source":"openstreetmap.org","min_zoom":8.0,"landuse_kind":"national_park","shield_text":"128","ref":"P128","id":23194826},"arcs":[53]},{"type":"LineString","properties":{"source":"openstreetmap.org","kind":"major_road","ref":"P120","sort_rank":380,"kind_detail":"primary","is_bicycle_related":true,"min_zoom":8.0},"arcs":[54]},{"type":"MultiLineString","properties":{"kind":"major_road","network":"lv:national","sort_rank":381,"kind_detail":"trunk","source":"openstreetmap.org","min_zoom":8.0,"shield_text":"9","ref":"A9;P109"},"arcs":[[55],[56]]},{"type":"MultiLineString","properties":{"bus_network":null,"sort_rank":380,"kind_detail":"primary","kind":"major_road","source":"openstreetmap.org","min_zoom":8.0,"bus_shield_text":"5","landuse_kind":"urban_area"},"arcs":[[57],[58]]},{"type":"MultiLineString","properties":{"kind":"major_road","network":"lv:national","sort_rank":380,"kind_detail":"primary","is_bicycle_related":true,"bicycle_shield_text":"R1","bicycle_network":"icn","source":"openstreetmap.org","min_zoom":8.0,"shield_text":"130","ref":"P130"},"arcs":[[59],[60]]},{"type":"LineString","properties":{"kind":"major_road","sort_rank":380,"kind_detail":"primary","bus_network":null,"source":"openstreetmap.org","min_zoom":8.0,"bus_shield_text":"14","ref":"P128","id":118178438},"arcs":[61]},{"type":"LineString","properties":{"kind":"major_road","network":"lv:national","sort_rank":380,"kind_detail":"primary","is_bicycle_related":true,"bicycle_shield_text":null,"bicycle_network":"icn","source":"openstreetmap.org","min_zoom":8.0,"shield_text":"126","ref":"P126","id":34337224},"arcs":[62]},{"type":"LineString","properties":{"kind":"major_road","network":"lv:regional","sort_rank":379,"kind_detail":"secondary","is_bicycle_related":true,"bicycle_shield_text":"R1","bicycle_network":"icn","source":"openstreetmap.org","min_zoom":8.0,"landuse_kind":"park","shield_text":"1472","ref":"V1472"},"arcs":[63]},{"type":"LineString","properties":{"kind":"major_road","network":"lv:national","sort_rank":380,"kind_detail":"primary","is_bicycle_related":true,"bicycle_shield_text":"LV1","bicycle_network":"ncn","source":"openstreetmap.org","min_zoom":8.0,"shield_text":"128","ref":"P128"},"arcs":[64]},{"type":"LineString","properties":{"kind":"major_road","sort_rank":380,"kind_detail":"primary","is_bicycle_related":true,"bicycle_shield_text":"R1","bicycle_network":"icn","source":"openstreetmap.org","min_zoom":8.0,"id":38959003},"arcs":[65]},{"type":"LineString","properties":{"kind":"major_road","network":"lv:national","sort_rank":380,"kind_detail":"primary","source":"openstreetmap.org","min_zoom":8.0,"shield_text":"121;V1452","id":43021940},"arcs":[66]},{"type":"MultiLineString","properties":{"kind":"major_road","network":"lv:national","sort_rank":381,"kind_detail":"trunk","source":"openstreetmap.org","min_zoom":8.0,"shield_text":"10","name:ru":"\u0420\u0438\u0433\u0430 \u2014 \u0412\u0435\u043d\u0442\u0441\u043f\u0438\u043b\u0441","ref":"A10"},"arcs":[[67],[68],[69],[70],[71],[72]]},{"type":"LineString","properties":{"kind":"major_road","sort_rank":377,"kind_detail":"tertiary","is_bicycle_related":true,"bicycle_shield_text":"LV1","bicycle_network":"ncn","source":"openstreetmap.org","min_zoom":8.0,"ref":"C004","id":24662698},"arcs":[73]},{"type":"LineString","properties":{"kind":"major_road","network":"lv:national","sort_rank":380,"kind_detail":"primary","is_bicycle_related":true,"source":"openstreetmap.org","min_zoom":8.0,"shield_text":"120","ref":"P120","id":19786388},"arcs":[74]},{"type":"MultiLineString","properties":{"kind":"major_road","network":"lv:national","sort_rank":380,"kind_detail":"primary","source":"openstreetmap.org","min_zoom":8.0,"shield_text":"98","ref":"P98"},"arcs":[[75],[76],[77],[78]]},{"type":"MultiLineString","properties":{"sort_rank":380,"kind_detail":"primary","min_zoom":8.0,"kind":"major_road","source":"openstreetmap.org"},"arcs":[[79],[80],[81],[82],[83],[84],[85],[86],[87],[88],[89],[90],[91],[92],[93],[94],[95],[96],[97],[98],[99],[100],[101],[102]]},{"type":"MultiLineString","properties":{"bus_network":null,"sort_rank":380,"kind_detail":"primary","kind":"major_road","source":"openstreetmap.org","min_zoom":8.0,"bus_shield_text":"6","landuse_kind":"urban_area"},"arcs":[[103],[104],[105],[106]]},{"type":"LineString","properties":{"kind":"major_road","network":"lv:national","sort_rank":381,"kind_detail":"trunk","bus_network":null,"source":"openstreetmap.org","min_zoom":8.0,"bus_shield_text":"14","shield_text":"10","name:ru":"\u0420\u0438\u0433\u0430 \u2014 \u0412\u0435\u043d\u0442\u0441\u043f\u0438\u043b\u0441","ref":"A10","id":118178440},"arcs":[107]},{"type":"MultiLineString","properties":{"kind":"major_road","network":"lv:national","sort_rank":381,"kind_detail":"trunk","source":"openstreetmap.org","min_zoom":8.0,"shield_text":"10","ref":"A10"},"arcs":[[108],[109],[110],[111],[112],[113],[114],[115],[116],[117],[118]]},{"type":"LineString","properties":{"kind":"major_road","sort_rank":380,"kind_detail":"primary","bus_network":null,"source":"openstreetmap.org","min_zoom":8.0,"bus_shield_text":"7933","id":222572291},"arcs":[119]},{"type":"LineString","properties":{"kind":"major_road","network":"lv:national","sort_rank":380,"kind_detail":"primary","is_bicycle_related":true,"bicycle_shield_text":null,"bicycle_network":"icn","source":"openstreetmap.org","min_zoom":8.0,"shield_text":"128","ref":"P128"},"arcs":[120]},{"type":"LineString","properties":{"kind":"major_road","network":"lv:national","sort_rank":380,"kind_detail":"primary","is_bicycle_related":true,"bicycle_shield_text":null,"bicycle_network":"icn","source":"openstreetmap.org","min_zoom":8.0,"shield_text":"98","ref":"P98"},"arcs":[121]},{"type":"LineString","properties":{"kind":"minor_road","sort_rank":360,"kind_detail":"residential","is_bicycle_related":true,"bicycle_shield_text":null,"bicycle_network":"icn","source":"openstreetmap.org","min_zoom":8.0},"arcs":[122]},{"type":"MultiLineString","properties":{"kind":"major_road","sort_rank":355,"kind_detail":"secondary_link","is_bicycle_related":true,"bicycle_shield_text":null,"bicycle_network":"icn","source":"openstreetmap.org","min_zoom":8.0,"is_link":true,"ref":"P125"},"arcs":[[123],[124]]},{"type":"LineString","properties":{"bus_network":null,"network":"lv:national","sort_rank":381,"kind_detail":"trunk","kind":"major_road","source":"openstreetmap.org","min_zoom":8.0,"bus_shield_text":"5","shield_text":"8","landuse_kind":"urban_area","ref":"A8"},"arcs":[125]},{"type":"MultiLineString","properties":{"kind":"major_road","network":"lv:national","sort_rank":380,"kind_detail":"primary","source":"openstreetmap.org","min_zoom":8.0,"shield_text":"131","ref":"P131"},"arcs":[[126],[127],[128]]},{"type":"MultiLineString","properties":{"kind":"major_road","network":"lv:national","sort_rank":380,"kind_detail":"primary","source":"openstreetmap.org","min_zoom":8.0,"shield_text":"93","osm_relation":true},"arcs":[[129],[130],[131],[132],[133],[134]]},{"type":"LineString","properties":{"kind":"minor_road","sort_rank":360,"kind_detail":"residential","is_bicycle_related":true,"bicycle_shield_text":"R1","cycleway":"designated","source":"openstreetmap.org","min_zoom":8.0,"bicycle_network":"icn","id":191142418},"arcs":[135]},{"type":"LineString","properties":{"kind":"major_road","network":"lv:national","sort_rank":355,"kind_detail":"primary_link","is_bicycle_related":true,"bicycle_shield_text":"R1","bicycle_network":"icn","source":"openstreetmap.org","min_zoom":8.0,"is_link":true,"shield_text":"130","ref":"P130","id":5150599},"arcs":[136]},{"type":"LineString","properties":{"kind":"major_road","sort_rank":377,"kind_detail":"tertiary","is_bicycle_related":true,"bicycle_shield_text":null,"bicycle_network":"icn","source":"openstreetmap.org","min_zoom":8.0},"arcs":[137]},{"type":"MultiLineString","properties":{"kind":"minor_road","sort_rank":360,"kind_detail":"residential","is_bicycle_related":true,"bicycle_shield_text":"R1","bicycle_network":"icn","source":"openstreetmap.org","min_zoom":8.0},"arcs":[[138],[139],[140],[141],[142],[143]]},{"type":"LineString","properties":{"kind":"path","sort_rank":354,"kind_detail":"footway","is_bicycle_related":true,"bicycle_shield_text":null,"bicycle_network":"icn","source":"openstreetmap.org","min_zoom":8.0},"arcs":[144]},{"type":"MultiLineString","properties":{"source":"openstreetmap.org","kind":"major_road","landuse_kind":"protected_area","sort_rank":380,"kind_detail":"primary","min_zoom":8.0},"arcs":[[145],[146],[147]]},{"type":"LineString","properties":{"kind":"major_road","network":"lv:national","sort_rank":380,"kind_detail":"primary","source":"openstreetmap.org","min_zoom":8.0,"shield_text":"93","ref":"P93"},"arcs":[148]},{"type":"LineString","properties":{"kind":"major_road","sort_rank":380,"landuse_kind":"national_park","source":"openstreetmap.org","min_zoom":8.0,"kind_detail":"primary","ref":"P128","id":346152990},"arcs":[149]},{"type":"LineString","properties":{"kind":"major_road","network":"lv:regional","sort_rank":379,"kind_detail":"secondary","is_bicycle_related":true,"bicycle_shield_text":"LV1","bicycle_network":"ncn","source":"openstreetmap.org","min_zoom":8.0,"shield_text":"1464","ref":"V1464"},"arcs":[150]},{"type":"MultiLineString","properties":{"source":"openstreetmap.org","kind":"major_road","network":"lv:national","sort_rank":380,"kind_detail":"primary","min_zoom":8.0,"shield_text":"121"},"arcs":[[151],[152],[153]]},{"type":"LineString","properties":{"kind":"major_road","network":"lv:national","sort_rank":380,"kind_detail":"primary","bus_network":null,"source":"openstreetmap.org","min_zoom":8.0,"bus_shield_text":"7933","shield_text":"97","ref":"P97","id":428943914},"arcs":[154]},{"type":"LineString","properties":{"kind":"major_road","network":"lv:regional","sort_rank":379,"landuse_kind":"park","is_bicycle_related":true,"bicycle_shield_text":null,"bicycle_network":"icn","source":"openstreetmap.org","min_zoom":8.0,"kind_detail":"secondary","shield_text":"1446","ref":"V1446"},"arcs":[155]},{"type":"MultiLineString","properties":{"kind":"major_road","network":"lv:regional","sort_rank":379,"kind_detail":"secondary","is_bicycle_related":true,"bicycle_shield_text":"R1","bicycle_network":"icn","source":"openstreetmap.org","min_zoom":8.0,"shield_text":"1442","ref":"V1442"},"arcs":[[156],[157]]},{"type":"MultiLineString","properties":{"kind":"major_road","network":"lv:national","sort_rank":380,"kind_detail":"primary","is_bicycle_related":true,"source":"openstreetmap.org","min_zoom":8.0,"shield_text":"129","ref":"P129"},"arcs":[[158],[159]]},{"type":"MultiLineString","properties":{"bus_network":null,"sort_rank":380,"kind_detail":"primary","kind":"major_road","source":"openstreetmap.org","min_zoom":8.0,"bus_shield_text":"11","ref":"P128"},"arcs":[[160],[161]]},{"type":"LineString","properties":{"kind":"major_road","network":"lv:national","sort_rank":380,"kind_detail":"primary","is_bicycle_related":true,"bicycle_shield_text":null,"bicycle_network":"icn","source":"openstreetmap.org","min_zoom":8.0,"shield_text":"128","ref":"P128;P131","id":38437050},"arcs":[162]},{"type":"LineString","properties":{"kind":"major_road","network":"lv:national","sort_rank":380,"kind_detail":"primary","source":"openstreetmap.org","min_zoom":8.0,"shield_text":"95","ref":"P95"},"arcs":[163]},{"type":"MultiLineString","properties":{"kind":"major_road","network":"lv:national","sort_rank":380,"kind_detail":"primary","source":"openstreetmap.org","min_zoom":8.0,"landuse_kind":"national_park","shield_text":"101","ref":"P101"},"arcs":[[164],[165],[166]]},{"type":"MultiLineString","properties":{"source":"openstreetmap.org","kind":"major_road","sort_rank":380,"kind_detail":"primary","ref":"P104","min_zoom":8.0},"arcs":[[167],[168]]},{"type":"LineString","properties":{"kind":"major_road","network":"lv:national","sort_rank":380,"kind_detail":"primary","is_bicycle_related":true,"bicycle_shield_text":"R1","bicycle_network":"icn","source":"openstreetmap.org","min_zoom":8.0,"landuse_kind":"protected_area","shield_text":"130","name:ru":"\u0420\u0438\u0436\u0441\u043a\u0430\u044f \u0443\u043b\u0438\u0446\u0430","ref":"P130;V1402","id":44498405},"arcs":[169]},{"type":"LineString","properties":{"kind":"major_road","network":"lv:national","sort_rank":380,"kind_detail":"primary","is_bicycle_related":true,"bicycle_shield_text":"R1","bicycle_network":"icn","source":"openstreetmap.org","min_zoom":8.0,"landuse_kind":"park","shield_text":"128","ref":"P128","id":44288554},"arcs":[170]},{"type":"MultiLineString","properties":{"bus_network":null,"sort_rank":380,"kind_detail":"primary","kind":"major_road","source":"openstreetmap.org","min_zoom":8.0,"bus_shield_text":"12a","landuse_kind":"urban_area"},"arcs":[[171],[172],[173],[174]]},{"type":"MultiLineString","properties":{"kind":"major_road","sort_rank":379,"kind_detail":"secondary","is_bicycle_related":true,"bicycle_shield_text":"R1","bicycle_network":"icn","source":"openstreetmap.org","min_zoom":8.0,"landuse_kind":"park","ref":"V1483"},"arcs":[[175],[176]]},{"type":"MultiLineString","properties":{"kind":"major_road","network":"lv:national","sort_rank":380,"kind_detail":"primary","is_bicycle_related":true,"bicycle_shield_text":null,"bicycle_network":"icn","source":"openstreetmap.org","min_zoom":8.0,"shield_text":"120","ref":"P120"},"arcs":[[177],[178],[179]]},{"type":"LineString","properties":{"bus_network":null,"network":"lv:national","sort_rank":380,"kind_detail":"primary","kind":"major_road","source":"openstreetmap.org","min_zoom":8.0,"bus_shield_text":"2","shield_text":"93","ref":"P93"},"arcs":[180]},{"type":"MultiLineString","properties":{"kind":"major_road","network":"lv:national","sort_rank":380,"kind_detail":"primary","source":"openstreetmap.org","min_zoom":8.0,"shield_text":"104","ref":"P104"},"arcs":[[181],[182],[183],[184]]},{"type":"LineString","properties":{"kind":"major_road","network":"lv:national","sort_rank":380,"kind_detail":"primary","is_bicycle_related":true,"source":"openstreetmap.org","min_zoom":8.0,"shield_text":"125","ref":"P125","id":210661517},"arcs":[185]},{"type":"LineString","properties":{"kind":"path","sort_rank":354,"kind_detail":"footway","is_bicycle_related":true,"bicycle_shield_text":"R1","bicycle_network":"icn","source":"openstreetmap.org","min_zoom":8.0,"landuse_kind":"national_park","id":106333741},"arcs":[186]},{"type":"MultiLineString","properties":{"bus_network":null,"network":"lv:national","sort_rank":380,"kind_detail":"primary","kind":"major_road","source":"openstreetmap.org","min_zoom":8.0,"bus_shield_text":"6","shield_text":"128","ref":"P128"},"arcs":[[187],[188]]},{"type":"LineString","properties":{"kind":"major_road","network":"lv:national","sort_rank":380,"kind_detail":"primary","is_bicycle_related":true,"bicycle_shield_text":null,"bicycle_network":"icn","source":"openstreetmap.org","min_zoom":8.0,"shield_text":"125","ref":"P125","id":36955868},"arcs":[189]},{"type":"LineString","properties":{"kind":"major_road","network":"lv:national","sort_rank":380,"kind_detail":"primary","source":"openstreetmap.org","min_zoom":8.0,"shield_text":"103","ref":"P103"},"arcs":[190]},{"type":"LineString","properties":{"kind":"minor_road","sort_rank":360,"kind_detail":"residential","is_bicycle_related":true,"bicycle_shield_text":"LV1","bicycle_network":"ncn","source":"openstreetmap.org","min_zoom":8.0,"landuse_kind":"protected_area","id":41247062},"arcs":[191]},{"type":"MultiLineString","properties":{"source":"openstreetmap.org","bus_network":null,"bus_shield_text":"6","sort_rank":380,"kind_detail":"primary","min_zoom":8.0,"kind":"major_road"},"arcs":[[192],[193]]},{"type":"LineString","properties":{"kind":"major_road","network":"lv:regional","sort_rank":379,"kind_detail":"secondary","is_bicycle_related":true,"bicycle_shield_text":null,"bicycle_network":"icn","source":"openstreetmap.org","min_zoom":8.0,"shield_text":"1449","ref":"V1449","id":217659356},"arcs":[194]},{"type":"MultiLineString","properties":{"bus_network":null,"network":"lv:national","sort_rank":381,"kind_detail":"trunk","kind":"major_road","source":"openstreetmap.org","min_zoom":8.0,"bus_shield_text":"5","shield_text":"8","ref":"A8"},"arcs":[[195],[196],[197],[198]]},{"type":"LineString","properties":{"kind":"major_road","network":"lv:national","sort_rank":380,"kind_detail":"primary","source":"openstreetmap.org","min_zoom":8.0,"landuse_kind":"urban_area","shield_text":"95","id":-183894,"osm_relation":true},"arcs":[199]},{"type":"LineString","properties":{"kind":"major_road","network":"lv:regional","sort_rank":379,"kind_detail":"secondary","is_bicycle_related":true,"bicycle_shield_text":null,"bicycle_network":"icn","source":"openstreetmap.org","min_zoom":8.0,"shield_text":"1402","ref":"V1402"},"arcs":[200]},{"type":"LineString","properties":{"kind":"major_road","network":"lv:regional","sort_rank":379,"landuse_kind":"national_park","is_bicycle_related":true,"bicycle_shield_text":"R1","bicycle_network":"icn","source":"openstreetmap.org","min_zoom":8.0,"kind_detail":"secondary","shield_text":"1472","ref":"V1472"},"arcs":[201]},{"type":"LineString","properties":{"kind":"major_road","network":"lv:regional","sort_rank":379,"kind_detail":"secondary","is_bicycle_related":true,"bicycle_shield_text":"R1","bicycle_network":"icn","source":"openstreetmap.org","min_zoom":8.0,"landuse_kind":"park","shield_text":"1446","ref":"V1446"},"arcs":[202]},{"type":"LineString","properties":{"source":"openstreetmap.org","bus_network":null,"bus_shield_text":"10a","sort_rank":380,"kind_detail":"primary","min_zoom":8.0,"kind":"major_road"},"arcs":[203]},{"type":"LineString","properties":{"kind":"major_road","network":"lv:national","sort_rank":380,"kind_detail":"primary","source":"openstreetmap.org","min_zoom":8.0,"shield_text":"127","ref":"P127;P129","id":22936321},"arcs":[204]},{"type":"LineString","properties":{"kind":"major_road","network":"lv:regional","sort_rank":379,"kind_detail":"secondary","is_bicycle_related":true,"bicycle_shield_text":"LV1","bicycle_network":"ncn","source":"openstreetmap.org","min_zoom":8.0,"shield_text":"1433","ref":"V1433"},"arcs":[205]},{"type":"LineString","properties":{"bus_network":null,"network":"lv:national","sort_rank":380,"kind_detail":"primary","kind":"major_road","source":"openstreetmap.org","min_zoom":8.0,"bus_shield_text":"1","shield_text":"100","landuse_kind":"urban_area","ref":"P100"},"arcs":[206]},{"type":"MultiLineString","properties":{"kind":"path","sort_rank":354,"kind_detail":"cycleway","is_bicycle_related":true,"bicycle_shield_text":"R1","bicycle_network":"icn","source":"openstreetmap.org","min_zoom":8.0},"arcs":[[207],[208],[209]]},{"type":"LineString","properties":{"kind":"major_road","network":"lv:national","sort_rank":380,"kind_detail":"primary","is_bicycle_related":true,"bicycle_shield_text":"R1","bicycle_network":"icn","source":"openstreetmap.org","min_zoom":8.0,"landuse_kind":"protected_area","shield_text":"130","name:ru":"\u0420\u0438\u0436\u0441\u043a\u0430\u044f \u0443\u043b\u0438\u0446\u0430","ref":"P130","id":159918288},"arcs":[210]},{"type":"LineString","properties":{"kind":"major_road","network":"lv:national","sort_rank":380,"kind_detail":"primary","source":"openstreetmap.org","min_zoom":8.0,"shield_text":"97","ref":"P97"},"arcs":[211]},{"type":"LineString","properties":{"kind":"major_road","network":"lv:national","sort_rank":380,"kind_detail":"primary","is_bicycle_related":true,"bicycle_shield_text":null,"bicycle_network":"icn","source":"openstreetmap.org","min_zoom":8.0,"landuse_kind":"park","shield_text":"128","ref":"P128"},"arcs":[212]},{"type":"LineString","properties":{"kind":"major_road","network":"lv:national","sort_rank":380,"kind_detail":"primary","is_bicycle_related":true,"source":"openstreetmap.org","min_zoom":8.0,"shield_text":"109","ref":"P109","id":13252878},"arcs":[213]},{"type":"LineString","properties":{"kind":"major_road","network":"lv:national","sort_rank":380,"kind_detail":"primary","is_bicycle_related":true,"bicycle_shield_text":"LV1","bicycle_network":"ncn","source":"openstreetmap.org","min_zoom":8.0,"shield_text":"131","ref":"P131","id":7990133},"arcs":[214]},{"type":"LineString","properties":{"kind":"path","sort_rank":354,"kind_detail":"cycleway","is_bicycle_related":true,"bicycle_shield_text":null,"bicycle_network":"icn","source":"openstreetmap.org","min_zoom":8.0},"arcs":[215]},{"type":"MultiLineString","properties":{"kind":"major_road","network":"lv:national","sort_rank":380,"kind_detail":"primary","is_bicycle_related":true,"bicycle_shield_text":"R1","bicycle_network":"icn","source":"openstreetmap.org","min_zoom":8.0,"landuse_kind":"national_park","shield_text":"128","ref":"P128"},"arcs":[[216],[217]]},{"type":"MultiLineString","properties":{"source":"openstreetmap.org","bus_network":null,"bus_shield_text":"14","sort_rank":380,"kind_detail":"primary","min_zoom":8.0,"kind":"major_road"},"arcs":[[218],[219]]},{"type":"LineString","properties":{"kind":"major_road","network":"lv:national","sort_rank":381,"kind_detail":"trunk","is_bicycle_related":true,"source":"openstreetmap.org","min_zoom":8.0,"shield_text":"10","name:ru":"\u0420\u0438\u0433\u0430 \u2014 \u0412\u0435\u043d\u0442\u0441\u043f\u0438\u043b\u0441","ref":"A10"},"arcs":[220]},{"type":"LineString","properties":{"bus_network":null,"network":"lv:national","sort_rank":380,"kind_detail":"primary","kind":"major_road","source":"openstreetmap.org","min_zoom":8.0,"bus_shield_text":"2","shield_text":"95","landuse_kind":"urban_area","ref":"P95"},"arcs":[221]},{"type":"LineString","properties":{"bus_network":null,"network":"lv:national","sort_rank":381,"kind_detail":"trunk","kind":"major_road","source":"openstreetmap.org","min_zoom":8.0,"bus_shield_text":"14","shield_text":"10","ref":"A10"},"arcs":[222]},{"type":"LineString","properties":{"kind":"major_road","network":"lv:national","sort_rank":380,"kind_detail":"primary","is_bicycle_related":true,"bicycle_shield_text":null,"bicycle_network":"icn","source":"openstreetmap.org","min_zoom":8.0,"landuse_kind":"national_park","shield_text":"128","ref":"P128"},"arcs":[223]},{"type":"LineString","properties":{"bus_network":null,"network":"lv:national","sort_rank":380,"kind_detail":"primary","kind":"major_road","source":"openstreetmap.org","min_zoom":8.0,"bus_shield_text":"1","shield_text":"97","landuse_kind":"urban_area","ref":"P97"},"arcs":[224]},{"type":"LineString","properties":{"kind":"major_road","network":"lv:national","sort_rank":379,"kind_detail":"secondary","is_bicycle_related":true,"bicycle_shield_text":null,"bicycle_network":"icn","source":"openstreetmap.org","min_zoom":8.0,"shield_text":"125","ref":"P125","id":28960343},"arcs":[225]},{"type":"MultiLineString","properties":{"source":"openstreetmap.org","kind":"major_road","sort_rank":380,"kind_detail":"primary","is_bicycle_related":true,"min_zoom":8.0},"arcs":[[226],[227],[228],[229]]},{"type":"MultiLineString","properties":{"bus_network":null,"sort_rank":379,"kind_detail":"secondary","is_bicycle_related":true,"kind":"major_road","bicycle_shield_text":"R1","bicycle_network":"icn","source":"openstreetmap.org","min_zoom":8.0,"bus_shield_text":"10a"},"arcs":[[230],[231],[232],[233],[234],[235]]},{"type":"LineString","properties":{"kind":"major_road","sort_rank":381,"kind_detail":"trunk","bus_network":null,"source":"openstreetmap.org","min_zoom":8.0,"bus_shield_text":"5","id":202403337},"arcs":[236]},{"type":"LineString","properties":{"kind":"minor_road","sort_rank":360,"kind_detail":"residential","is_bicycle_related":true,"bicycle_shield_text":"R1","cycleway":"shared","source":"openstreetmap.org","min_zoom":8.0,"bicycle_network":"icn","id":31976912},"arcs":[237]},{"type":"MultiLineString","properties":{"kind":"major_road","network":"lv:national","sort_rank":380,"kind_detail":"primary","source":"openstreetmap.org","min_zoom":8.0,"landuse_kind":"protected_area","shield_text":"109","ref":"P109"},"arcs":[[238],[239]]},{"type":"LineString","properties":{"bus_network":null,"network":"lv:national","sort_rank":380,"kind_detail":"primary","kind":"major_road","source":"openstreetmap.org","min_zoom":8.0,"bus_shield_text":"12a","shield_text":"99","landuse_kind":"urban_area","ref":"P99"},"arcs":[240]},{"type":"MultiLineString","properties":{"kind":"major_road","network":"lv:national","sort_rank":380,"kind_detail":"primary","is_bicycle_related":true,"source":"openstreetmap.org","min_zoom":8.0,"shield_text":"131","ref":"P131"},"arcs":[[241],[242]]},{"type":"LineString","properties":{"kind":"major_road","network":"lv:national","sort_rank":381,"kind_detail":"trunk","bus_network":null,"source":"openstreetmap.org","min_zoom":8.0,"bus_shield_text":"14","shield_text":"10","name:ru":"\u0420\u0438\u0433\u0430 \u2014 \u0412\u0435\u043d\u0442\u0441\u043f\u0438\u043b\u0441","landuse_kind":"national_park","ref":"A10","id":118178440},"arcs":[243]},{"type":"LineString","properties":{"bus_network":null,"network":"lv:national","sort_rank":380,"kind_detail":"primary","kind":"major_road","source":"openstreetmap.org","min_zoom":8.0,"bus_shield_text":"5","shield_text":"94","ref":"P94"},"arcs":[244]},{"type":"LineString","properties":{"kind":"major_road","network":"lv:national","sort_rank":381,"kind_detail":"trunk","is_bicycle_related":true,"source":"openstreetmap.org","min_zoom":8.0,"shield_text":"10","ref":"A10","id":122189313},"arcs":[245]},{"type":"MultiLineString","properties":{"kind":"major_road","network":"lv:national","sort_rank":381,"kind_detail":"trunk","source":"openstreetmap.org","min_zoom":8.0,"landuse_kind":"park","shield_text":"9","ref":"A9"},"arcs":[[246],[247],[248],[249]]},{"type":"LineString","properties":{"bus_network":null,"network":"lv:national","sort_rank":381,"landuse_kind":"national_park","kind":"major_road","source":"openstreetmap.org","min_zoom":8.0,"bus_shield_text":"14","shield_text":"10","kind_detail":"trunk","ref":"A10"},"arcs":[250]},{"type":"MultiLineString","properties":{"kind":"major_road","sort_rank":379,"kind_detail":"secondary","is_bicycle_related":true,"bicycle_shield_text":"R1","bicycle_network":"icn","source":"openstreetmap.org","min_zoom":8.0},"arcs":[[251],[252],[253],[254]]},{"type":"MultiLineString","properties":{"sort_rank":381,"source":"openstreetmap.org","min_zoom":8.0,"kind":"major_road","kind_detail":"trunk"},"arcs":[[255],[256]]},{"type":"LineString","properties":{"kind":"major_road","network":"lv:national","sort_rank":380,"kind_detail":"primary","source":"openstreetmap.org","min_zoom":8.0,"landuse_kind":"urban_area","shield_text":"93","id":-175193,"osm_relation":true},"arcs":[257]},{"type":"LineString","properties":{"kind":"major_road","network":"lv:regional","sort_rank":379,"kind_detail":"secondary","is_bicycle_related":true,"bicycle_shield_text":"LV1","bicycle_network":"ncn","source":"openstreetmap.org","min_zoom":8.0,"landuse_kind":"park","shield_text":"1446","ref":"V1446","id":235529084},"arcs":[258]},{"type":"LineString","properties":{"bus_network":null,"network":"lv:national","sort_rank":380,"kind_detail":"primary","kind":"major_road","source":"openstreetmap.org","min_zoom":8.0,"bus_shield_text":"6","shield_text":"128","landuse_kind":"national_park","ref":"P128"},"arcs":[259]},{"type":"MultiLineString","properties":{"kind":"major_road","network":"lv:national","sort_rank":380,"kind_detail":"primary","source":"openstreetmap.org","min_zoom":8.0,"shield_text":"121","ref":"P121"},"arcs":[[260],[261]]},{"type":"MultiLineString","properties":{"bus_network":null,"network":"lv:national","sort_rank":381,"kind_detail":"trunk","kind":"major_road","source":"openstreetmap.org","min_zoom":8.0,"bus_shield_text":"231","shield_text":"8","ref":"A8"},"arcs":[[262],[263],[264],[265],[266],[267],[268],[269],[270],[271]]},{"type":"LineString","properties":{"kind":"major_road","sort_rank":380,"kind_detail":"primary","is_bicycle_related":true,"bicycle_shield_text":null,"bicycle_network":"icn","source":"openstreetmap.org","min_zoom":8.0,"id":516600335},"arcs":[272]},{"type":"LineString","properties":{"kind":"major_road","network":"lv:national","sort_rank":381,"kind_detail":"trunk","source":"openstreetmap.org","min_zoom":8.0,"shield_text":"9","ref":"A9;P104","id":156541941},"arcs":[273]},{"type":"LineString","properties":{"kind":"major_road","sort_rank":377,"kind_detail":"tertiary","is_bicycle_related":true,"bicycle_shield_text":"LV1","bicycle_network":"ncn","source":"openstreetmap.org","min_zoom":8.0},"arcs":[274]},{"type":"LineString","properties":{"kind":"major_road","sort_rank":380,"kind_detail":"primary","bus_network":null,"source":"openstreetmap.org","min_zoom":8.0,"bus_shield_text":"6","ref":"P128","id":234423842},"arcs":[275]},{"type":"LineString","properties":{"kind":"path","sort_rank":354,"kind_detail":"footway","is_bicycle_related":true,"bicycle_shield_text":"R1","cycleway":"track","source":"openstreetmap.org","min_zoom":8.0,"bicycle_network":"icn"},"arcs":[276]},{"type":"LineString","properties":{"bus_network":null,"network":"lv:national","sort_rank":381,"landuse_kind":"urban_area","kind":"major_road","source":"openstreetmap.org","min_zoom":8.0,"bus_shield_text":"231","shield_text":"8","kind_detail":"trunk","ref":"A8"},"arcs":[277]},{"type":"LineString","properties":{"kind":"major_road","network":"lv:national","sort_rank":380,"kind_detail":"primary","is_bicycle_related":true,"bicycle_shield_text":"R1","bicycle_network":"icn","source":"openstreetmap.org","min_zoom":8.0,"shield_text":"131","ref":"P131","id":38836209},"arcs":[278]},{"type":"LineString","properties":{"kind":"major_road","network":"lv:regional","sort_rank":379,"kind_detail":"secondary","is_bicycle_related":true,"bicycle_shield_text":"LV1","bicycle_network":"ncn","source":"openstreetmap.org","min_zoom":8.0,"shield_text":"1380","ref":"V1380","id":38443870},"arcs":[279]},{"type":"LineString","properties":{"source":"openstreetmap.org","kind":"major_road","network":"lv:national","sort_rank":380,"kind_detail":"primary","min_zoom":8.0,"shield_text":"109"},"arcs":[280]},{"type":"LineString","properties":{"bus_network":null,"network":"lv:national","sort_rank":380,"kind_detail":"primary","kind":"major_road","source":"openstreetmap.org","min_zoom":8.0,"bus_shield_text":"2","shield_text":"95","ref":"P95"},"arcs":[281]},{"type":"MultiLineString","properties":{"kind":"major_road","network":"lv:national","sort_rank":380,"kind_detail":"primary","source":"openstreetmap.org","min_zoom":8.0,"shield_text":"129","ref":"P129"},"arcs":[[282],[283],[284]]},{"type":"LineString","properties":{"kind":"major_road","network":"lv:regional","sort_rank":379,"kind_detail":"secondary","is_bicycle_related":true,"bicycle_shield_text":"LV1","bicycle_network":"ncn","source":"openstreetmap.org","min_zoom":8.0,"shield_text":"1401","ref":"V1401"},"arcs":[285]},{"type":"MultiLineString","properties":{"kind":"minor_road","sort_rank":360,"kind_detail":"residential","is_bicycle_related":true,"bicycle_shield_text":"LV1","bicycle_network":"ncn","source":"openstreetmap.org","min_zoom":8.0},"arcs":[[286],[287]]},{"type":"LineString","properties":{"bus_network":null,"network":"lv:national","sort_rank":381,"landuse_kind":"urban_area","kind":"major_road","source":"openstreetmap.org","min_zoom":8.0,"bus_shield_text":"12a","shield_text":"8","kind_detail":"trunk","ref":"A8"},"arcs":[288]},{"type":"LineString","properties":{"bus_network":null,"sort_rank":379,"kind_detail":"secondary","is_bicycle_related":true,"kind":"major_road","bicycle_shield_text":null,"bicycle_network":"icn","source":"openstreetmap.org","min_zoom":8.0,"bus_shield_text":"10a"},"arcs":[289]},{"type":"LineString","properties":{"kind":"major_road","network":"lv:national","sort_rank":380,"kind_detail":"primary","bus_network":null,"source":"openstreetmap.org","min_zoom":8.0,"bus_shield_text":"12a","shield_text":"99","ref":"P99","id":434632984},"arcs":[290]},{"type":"LineString","properties":{"bus_network":null,"network":"lv:national","sort_rank":380,"kind_detail":"primary","kind":"major_road","source":"openstreetmap.org","min_zoom":8.0,"bus_shield_text":"12a","shield_text":"97","name:ru":"\u0420\u0438\u0436\u0441\u043a\u0430\u044f \u0443\u043b\u0438\u0446\u0430","landuse_kind":"urban_area","ref":"P97"},"arcs":[291]},{"type":"LineString","properties":{"kind":"major_road","sort_rank":379,"kind_detail":"secondary","is_bicycle_related":true,"bicycle_shield_text":null,"bicycle_network":"icn","source":"openstreetmap.org","min_zoom":8.0,"ref":"V1442","id":522527630},"arcs":[292]},{"type":"MultiLineString","properties":{"kind":"major_road","network":"lv:national","sort_rank":380,"kind_detail":"primary","source":"openstreetmap.org","min_zoom":8.0,"shield_text":"109","ref":"P109"},"arcs":[[293],[294],[295]]},{"type":"LineString","properties":{"kind":"major_road","network":"lv:regional","sort_rank":379,"kind_detail":"secondary","is_bicycle_related":true,"bicycle_shield_text":"LV1","bicycle_network":"ncn","source":"openstreetmap.org","min_zoom":8.0,"landuse_kind":"protected_area","shield_text":"1433","ref":"V1433","id":241133683},"arcs":[296]},{"type":"LineString","properties":{"bus_network":null,"network":"lv:national","sort_rank":380,"kind_detail":"primary","kind":"major_road","source":"openstreetmap.org","min_zoom":8.0,"bus_shield_text":"1","shield_text":"97","ref":"P97"},"arcs":[297]},{"type":"LineString","properties":{"bus_network":null,"network":"lv:national","sort_rank":380,"kind_detail":"primary","kind":"major_road","source":"openstreetmap.org","min_zoom":8.0,"bus_shield_text":"12a","shield_text":"97","landuse_kind":"urban_area","ref":"P97"},"arcs":[298]},{"type":"MultiLineString","properties":{"kind":"major_road","network":"lv:national","sort_rank":381,"kind_detail":"trunk","source":"openstreetmap.org","min_zoom":8.0,"shield_text":"9","ref":"A9"},"arcs":[[299],[300],[301],[302],[303],[304],[305],[306],[307]]},{"type":"MultiLineString","properties":{"kind":"major_road","network":"lv:national","sort_rank":380,"kind_detail":"primary","source":"openstreetmap.org","min_zoom":8.0,"shield_text":"127","ref":"P127"},"arcs":[[308],[309]]},{"type":"LineString","properties":{"kind":"major_road","network":"lv:national","sort_rank":355,"kind_detail":"primary_link","is_bicycle_related":true,"bicycle_shield_text":null,"bicycle_network":"icn","source":"openstreetmap.org","min_zoom":8.0,"is_link":true,"shield_text":"131","ref":"P131","id":38437051},"arcs":[310]},{"type":"LineString","properties":{"kind":"minor_road","sort_rank":360,"kind_detail":"residential","is_bicycle_related":true,"bicycle_shield_text":"R1","bicycle_network":"icn","source":"openstreetmap.org","min_zoom":8.0,"name:ru":"\u0420\u0438\u0436\u0441\u043a\u0430\u044f \u0443\u043b\u0438\u0446\u0430"},"arcs":[311]},{"type":"MultiLineString","properties":{"kind":"major_road","sort_rank":379,"kind_detail":"secondary","is_bicycle_related":true,"bicycle_shield_text":null,"bicycle_network":"icn","source":"openstreetmap.org","min_zoom":8.0,"ref":"P125"},"arcs":[[312],[313],[314],[315],[316],[317],[318],[319]]},{"type":"LineString","properties":{"kind":"major_road","network":"lv:national","sort_rank":380,"kind_detail":"primary","is_bicycle_related":true,"bicycle_shield_text":"LV1","bicycle_network":"ncn","source":"openstreetmap.org","min_zoom":8.0,"landuse_kind":"protected_area","shield_text":"109","ref":"P109","id":39017728},"arcs":[320]},{"type":"MultiLineString","properties":{"kind":"major_road","network":"lv:national","sort_rank":381,"kind_detail":"trunk","source":"openstreetmap.org","min_zoom":8.0,"landuse_kind":"park","shield_text":"10","name:ru":"\u0420\u0438\u0433\u0430 \u2014 \u0412\u0435\u043d\u0442\u0441\u043f\u0438\u043b\u0441","ref":"A10"},"arcs":[[321],[322]]},{"type":"LineString","properties":{"bus_network":null,"network":"lv:national","sort_rank":381,"landuse_kind":"urban_area","kind":"major_road","source":"openstreetmap.org","min_zoom":8.0,"bus_shield_text":"8","shield_text":"8","kind_detail":"trunk","ref":"A8"},"arcs":[323]},{"type":"MultiLineString","properties":{"kind":"major_road","network":"lv:national","sort_rank":381,"landuse_kind":"national_park","source":"openstreetmap.org","min_zoom":8.0,"kind_detail":"trunk","shield_text":"9","ref":"A9"},"arcs":[[324],[325]]},{"type":"LineString","properties":{"bus_network":null,"network":"lv:national","sort_rank":381,"kind_detail":"trunk","kind":"major_road","source":"openstreetmap.org","min_zoom":8.0,"bus_shield_text":"8","shield_text":"8","ref":"A8"},"arcs":[326]},{"type":"MultiLineString","properties":{"bus_network":null,"network":"lv:national","sort_rank":381,"kind_detail":"trunk","kind":"major_road","source":"openstreetmap.org","min_zoom":8.0,"bus_shield_text":"14","shield_text":"10","name:ru":"\u0420\u0438\u0433\u0430 \u2014 \u0412\u0435\u043d\u0442\u0441\u043f\u0438\u043b\u0441","landuse_kind":"park","ref":"A10"},"arcs":[[327],[328]]},{"type":"LineString","properties":{"kind":"major_road","network":"lv:regional","sort_rank":379,"kind_detail":"secondary","is_bicycle_related":true,"bicycle_shield_text":"R1","bicycle_network":"icn","source":"openstreetmap.org","min_zoom":8.0,"shield_text":"1446","ref":"V1446"},"arcs":[329]},{"type":"LineString","properties":{"kind":"major_road","network":"lv:national","sort_rank":380,"kind_detail":"primary","source":"openstreetmap.org","min_zoom":8.0,"shield_text":"99","ref":"P99","id":156784968},"arcs":[330]},{"type":"LineString","properties":{"kind":"major_road","network":"lv:regional","sort_rank":379,"landuse_kind":"protected_area","is_bicycle_related":true,"bicycle_shield_text":null,"bicycle_network":"icn","source":"openstreetmap.org","min_zoom":8.0,"kind_detail":"secondary","shield_text":"1402","ref":"V1402"},"arcs":[331]},{"type":"LineString","properties":{"bus_network":null,"network":"lv:national","sort_rank":380,"kind_detail":"primary","kind":"major_road","source":"openstreetmap.org","min_zoom":8.0,"bus_shield_text":"1","shield_text":"100","name:ru":"\u0420\u0438\u0436\u0441\u043a\u0430\u044f \u0443\u043b\u0438\u0446\u0430","landuse_kind":"urban_area","ref":"P100"},"arcs":[332]},{"type":"LineString","properties":{"bus_network":null,"network":"lv:national","sort_rank":380,"kind_detail":"primary","kind":"major_road","source":"openstreetmap.org","min_zoom":8.0,"bus_shield_text":"7933","shield_text":"100","ref":"P100"},"arcs":[333]},{"type":"LineString","properties":{"kind":"minor_road","sort_rank":360,"kind_detail":"residential","is_bicycle_related":true,"bicycle_shield_text":"R1","bicycle_network":"icn","source":"openstreetmap.org","min_zoom":8.0,"landuse_kind":"national_park","id":106650691},"arcs":[334]},{"type":"MultiLineString","properties":{"source":"openstreetmap.org","kind":"major_road","landuse_kind":"urban_area","sort_rank":380,"kind_detail":"primary","min_zoom":8.0},"arcs":[[335],[336],[337]]},{"type":"LineString","properties":{"kind":"major_road","sort_rank":379,"kind_detail":"secondary","is_bicycle_related":true,"bicycle_shield_text":"R1","bicycle_network":"icn","source":"openstreetmap.org","min_zoom":8.0,"ref":"V1483","id":26246088},"arcs":[338]},{"type":"MultiLineString","properties":{"kind":"major_road","network":"lv:national","sort_rank":380,"kind_detail":"primary","source":"openstreetmap.org","min_zoom":8.0,"shield_text":"94","ref":"P94"},"arcs":[[339],[340],[341],[342]]},{"type":"MultiLineString","properties":{"kind":"major_road","network":"lv:national","sort_rank":380,"kind_detail":"primary","is_bicycle_related":true,"bicycle_shield_text":null,"bicycle_network":"icn","source":"openstreetmap.org","min_zoom":8.0,"shield_text":"131","ref":"P131"},"arcs":[[343],[344]]},{"type":"LineString","properties":{"kind":"major_road","network":"e-road","sort_rank":381,"kind_detail":"trunk","source":"openstreetmap.org","min_zoom":8.0,"shield_text":"22","name:ru":"\u0420\u0438\u0433\u0430 \u2014 \u0412\u0435\u043d\u0442\u0441\u043f\u0438\u043b\u0441","ref":"A10","id":492940428},"arcs":[345]},{"type":"LineString","properties":{"kind":"major_road","network":"lv:national","sort_rank":381,"kind_detail":"trunk","bus_network":null,"source":"openstreetmap.org","min_zoom":8.0,"bus_shield_text":"14","shield_text":"10","landuse_kind":"park","ref":"A10","id":118178463},"arcs":[346]},{"type":"MultiLineString","properties":{"bus_network":null,"sort_rank":380,"kind_detail":"primary","kind":"major_road","source":"openstreetmap.org","min_zoom":8.0,"bus_shield_text":"10a","ref":"P128"},"arcs":[[347],[348]]},{"type":"LineString","properties":{"kind":"major_road","network":"lv:national","sort_rank":380,"kind_detail":"primary","source":"openstreetmap.org","min_zoom":8.0,"shield_text":"102","ref":"P102"},"arcs":[349]},{"type":"LineString","properties":{"kind":"major_road","network":"lv:national","sort_rank":380,"kind_detail":"primary","source":"openstreetmap.org","min_zoom":8.0,"landuse_kind":"park","shield_text":"101","ref":"P101"},"arcs":[350]},{"type":"MultiLineString","properties":{"kind":"major_road","sort_rank":380,"kind_detail":"primary","is_bicycle_related":true,"bicycle_shield_text":null,"bicycle_network":"icn","source":"openstreetmap.org","min_zoom":8.0,"ref":"P120"},"arcs":[[351],[352]]},{"type":"LineString","properties":{"kind":"ferry","name:lv":"R\u012bga-Stokholma","name":"Stockholm-Riga","sort_rank":355,"is_bicycle_related":true,"name:de":"F\u00e4hre Riga-Stockholm","source":"openstreetmap.org","min_zoom":8.0},"arcs":[353]},{"type":"LineString","properties":{"bus_network":null,"network":"lv:national","sort_rank":380,"kind_detail":"primary","kind":"major_road","source":"openstreetmap.org","min_zoom":8.0,"bus_shield_text":"12a","shield_text":"95","landuse_kind":"urban_area","ref":"P95"},"arcs":[354]},{"type":"MultiLineString","properties":{"bus_network":null,"sort_rank":380,"kind_detail":"primary","kind":"major_road","source":"openstreetmap.org","min_zoom":8.0,"bus_shield_text":"4","landuse_kind":"urban_area"},"arcs":[[355],[356]]},{"type":"LineString","properties":{"kind":"major_road","network":"lv:national","sort_rank":381,"kind_detail":"trunk","source":"openstreetmap.org","min_zoom":8.0,"landuse_kind":"park","shield_text":"10","ref":"A10","id":119760397},"arcs":[357]},{"type":"LineString","properties":{"kind":"major_road","network":"lv:national","sort_rank":380,"kind_detail":"primary","bus_network":null,"source":"openstreetmap.org","min_zoom":8.0,"bus_shield_text":"1","shield_text":"98","ref":"P98","id":428061710},"arcs":[358]},{"type":"LineString","properties":{"kind":"major_road","network":"lv:national","sort_rank":380,"kind_detail":"primary","source":"openstreetmap.org","min_zoom":8.0,"shield_text":"95","id":-183894,"osm_relation":true},"arcs":[359]},{"type":"MultiLineString","properties":{"kind":"major_road","network":"lv:national","sort_rank":380,"kind_detail":"primary","is_bicycle_related":true,"source":"openstreetmap.org","min_zoom":8.0,"shield_text":"127","ref":"P127"},"arcs":[[360],[361]]},{"type":"LineString","properties":{"bus_network":null,"network":"lv:national","sort_rank":380,"kind_detail":"primary","kind":"major_road","source":"openstreetmap.org","min_zoom":8.0,"bus_shield_text":"6","shield_text":"128","landuse_kind":"park","ref":"P128"},"arcs":[362]},{"type":"LineString","properties":{"kind":"major_road","network":"lv:national","sort_rank":381,"kind_detail":"trunk","is_bicycle_related":true,"bicycle_shield_text":"R1","bicycle_network":"icn","source":"openstreetmap.org","min_zoom":8.0,"shield_text":"10","name:ru":"\u0420\u0438\u0433\u0430 \u2014 \u0412\u0435\u043d\u0442\u0441\u043f\u0438\u043b\u0441","ref":"A10"},"arcs":[363]},{"type":"LineString","properties":{"kind":"path","sort_rank":354,"kind_detail":"footway","is_bicycle_related":true,"bicycle_shield_text":null,"cycleway":"track","source":"openstreetmap.org","min_zoom":8.0,"bicycle_network":"icn","id":366802820},"arcs":[364]},{"type":"LineString","properties":{"kind":"major_road","sort_rank":379,"kind_detail":"secondary","is_bicycle_related":true,"bicycle_shield_text":null,"bicycle_network":"icn","source":"openstreetmap.org","min_zoom":8.0,"name:ru":"\u0420\u0438\u0436\u0441\u043a\u0430\u044f \u0443\u043b\u0438\u0446\u0430","id":522527632},"arcs":[365]},{"type":"MultiLineString","properties":{"kind":"major_road","network":"lv:national","sort_rank":380,"landuse_kind":"protected_area","is_bicycle_related":true,"bicycle_shield_text":"R1","bicycle_network":"icn","source":"openstreetmap.org","min_zoom":8.0,"kind_detail":"primary","shield_text":"130","ref":"P130"},"arcs":[[366],[367],[368]]},{"type":"MultiLineString","properties":{"kind":"major_road","network":"lv:national","sort_rank":380,"kind_detail":"primary","is_bicycle_related":true,"source":"openstreetmap.org","min_zoom":8.0,"shield_text":"98","ref":"P98"},"arcs":[[369],[370],[371],[372]]},{"type":"LineString","properties":{"kind":"major_road","sort_rank":380,"kind_detail":"primary","bus_network":null,"source":"openstreetmap.org","min_zoom":8.0,"bus_shield_text":"4","ref":"P128","id":346152994},"arcs":[373]},{"type":"LineString","properties":{"kind":"major_road","sort_rank":379,"kind_detail":"secondary","is_bicycle_related":true,"bicycle_shield_text":"R1","bicycle_network":"icn","source":"openstreetmap.org","min_zoom":8.0,"name:ru":"\u0420\u0438\u0436\u0441\u043a\u0430\u044f \u0443\u043b\u0438\u0446\u0430","id":226977754},"arcs":[374]},{"type":"LineString","properties":{"kind":"path","sort_rank":354,"kind_detail":"footway","is_bicycle_related":true,"bicycle_shield_text":"R1","bicycle_network":"icn","source":"openstreetmap.org","min_zoom":8.0},"arcs":[375]}]},"earth":{"type":"GeometryCollection","geometries":[{"type":"Polygon","properties":{"sort_rank":10,"source":"naturalearthdata.com","kind":"earth","min_zoom":0.0,"id":4768},"arcs":[[376]]}]},"landuse":{"type":"GeometryCollection","geometries":[{"type":"MultiPolygon","properties":{"source":"openstreetmap.org","kind":"protected_area","tier":2,"protect_class":"4","area":794786343,"sort_rank":17,"min_zoom":8.0},"arcs":[[[377]],[[378]],[[379]],[[380]],[[381]],[[382]]]},{"type":"Polygon","properties":{"kind":"national_park","protect_class":"2","area":1277180032,"sort_rank":18,"source":"openstreetmap.org","min_zoom":3.0,"tier":1,"id":206559717},"arcs":[[383]]},{"type":"MultiPolygon","properties":{"source":"naturalearthdata.com","kind":"urban_area","name":"","area":1316556784,"sort_rank":11,"min_zoom":4.0},"arcs":[[[384]]]},{"type":"MultiPolygon","properties":{"source":"openstreetmap.org","kind":"protected_area","tier":2,"protect_class":"4","area":216016816,"sort_rank":17,"min_zoom":7.0},"arcs":[[[385]]]},{"type":"MultiPolygon","properties":{"source":"openstreetmap.org","kind":"protected_area","tier":2,"protect_class":"4","area":834688057,"sort_rank":17,"min_zoom":6.0},"arcs":[[[386]]]},{"type":"Polygon","properties":{"kind":"protected_area","area":24682800,"sort_rank":17,"source":"openstreetmap.org","min_zoom":8.0,"tier":2,"id":-3482064,"osm_relation":true},"arcs":[[387]]},{"type":"MultiPolygon","properties":{"source":"openstreetmap.org","kind":"nature_reserve","tier":2,"area":96549068,"sort_rank":23,"min_zoom":8.0},"arcs":[[[388]],[[389]]]},{"type":"Polygon","properties":{"kind":"nature_reserve","area":51497900,"sort_rank":23,"source":"openstreetmap.org","min_zoom":8.0,"tier":2,"id":-107314,"osm_relation":true},"arcs":[[390],[391]]},{"type":"MultiPolygon","properties":{"source":"openstreetmap.org","kind":"park","tier":2,"area":2997570583,"sort_rank":24,"min_zoom":4.0,"osm_relation":true},"arcs":[[[392],[393],[394],[395],[396],[397],[398]]]}]}},"type":"Topology","transform":{"translate":[22.5,56.5594824838],"scale":[0.0003433228,0.0001872653]},"arcs":[[[3067,2245],[-211,-81],[6,-80],[-27,-18],[23,-72],[-20,-30],[58,28],[35,-213]],[[2931,1779],[265,6],[-1,-39],[37,-11],[51,48],[52,-82],[195,-118],[56,-186],[32,2],[1,-34],[37,5],[10,-49],[29,6],[-12,-38],[26,4],[-73,-324],[67,-9],[13,-36],[40,1],[34,-50],[37,19],[31,74],[-17,-50],[38,27],[-4,-47],[23,-8],[17,38],[-20,21],[65,38],[126,-10],[10,7]],[[3077,2236],[-10,9]],[[4096,2358],[-145,-69],[-277,-92],[-261,-43],[-146,11],[-190,71]],[[689,0],[1,39],[45,-39]],[[773,0],[35,28],[31,-4],[-21,47],[28,-26],[53,4],[-5,32],[-45,5],[-9,68],[-38,5],[24,49],[-16,70],[113,-36],[4,22],[13,-22],[46,6],[33,106],[-13,55],[60,33],[-32,57],[-29,7],[-35,140],[-121,-11],[-7,20],[46,7],[-6,56],[130,-9],[5,59],[60,-20],[16,67],[43,-20],[31,23],[248,-3],[15,31],[82,-18],[37,-113],[94,14],[77,-40],[30,27],[41,-27],[-5,37],[51,25],[133,-47],[41,21],[-19,69],[61,82],[46,-34],[68,16],[91,-69],[152,130],[60,111],[-118,117],[22,25],[51,3],[134,153],[44,-83],[196,35],[83,78],[-65,384],[114,37]],[[3067,2245],[-9,10]],[[3058,2255],[-71,68],[-111,216],[-192,12],[-192,57],[-191,125],[-154,195],[-21,168],[3,102],[22,30],[-176,378],[5,154],[-34,59],[-20,146],[-83,131]],[[2927,223],[-97,-31],[-19,-2],[-422,104],[-184,164],[-489,272],[-248,-7],[-126,-32],[-308,15],[-149,12],[-94,45],[-116,18],[-190,-61],[-88,30],[-397,-60]],[[3671,504],[-112,-94],[-632,-187]],[[2927,223],[-48,-15]],[[3575,420],[-11,-8],[-4,-2],[-109,-41],[-7,-2],[-6,-1]],[[3671,504],[-53,-46]],[[4096,1079],[-154,-182],[-271,-393]],[[1793,2137],[55,-2],[187,69],[166,-8],[138,-26],[156,-91],[183,-57],[194,4]],[[2903,2016],[-31,10]],[[2903,2016],[135,-44],[82,3],[124,92]],[[3244,2067],[186,52],[87,11],[161,15],[7,1],[4,2],[5,2],[4,3],[3,4],[3,3],[3,4],[9,22],[16,12],[27,3],[34,-6],[7,0],[7,1],[24,7],[7,3],[134,58],[22,-10],[24,-28],[19,-21],[8,-7],[10,-6],[6,-2],[35,-14]],[[4096,2177],[-41,16],[-61,61],[-22,10],[-164,-68],[-14,-1],[-6,1],[-13,4],[-18,2],[-17,-2],[-11,-2],[-14,-12],[-13,-28],[-17,-11],[-7,-2],[-162,-14],[-85,-12],[-187,-52]],[[2878,2025],[3,-1],[8,-3],[-11,4]],[[3041,1972],[11,-1],[-5,0],[-6,1]],[[3261,2073],[-9,-3],[3,2],[6,1]],[[3415,2115],[-10,-3],[-2,0],[2,0],[10,3]],[[3464,2124],[-5,-1],[16,2],[-9,-1],[-2,0]],[[3546,2133],[-4,0],[-9,-1],[5,1],[8,0]],[[3602,2139],[-5,-1],[16,2],[-9,-1],[-2,0]],[[3672,2145],[-11,-1],[-1,0],[12,1]],[[3714,2184],[2,4],[3,3],[2,2],[4,2],[-6,-4],[-4,-3],[-1,-4]],[[3786,2197],[-8,2],[-2,1],[-5,1],[7,-1],[8,-3]],[[3850,2211],[21,10],[-6,-3],[-15,-7]],[[3933,2249],[8,4],[6,3],[-8,-3],[-6,-4]],[[3991,2257],[4,-3],[4,-4],[-4,4],[-4,3]],[[4047,2197],[-4,3],[-7,6],[7,-6],[4,-3]],[[3595,439],[7,6],[3,2]],[[3631,469],[-26,-22]],[[3605,447],[-10,-9]],[[3671,504],[-40,-35]],[[4096,1079],[-154,-182],[-271,-393]],[[4096,2357],[-117,-57],[-498,-122],[-184,19],[-136,44],[-19,16],[-26,22],[-143,210],[-35,30],[-250,48],[-241,98],[-138,162],[-52,20],[-41,34],[-30,83],[-82,494],[-26,49],[-43,43],[-25,97],[-22,188],[-23,105],[-29,87],[-13,27],[-21,42],[2194,0],[0,-1739]],[[1902,4096],[21,-42],[13,-27],[29,-87],[23,-105],[22,-188],[25,-97],[43,-43],[26,-49],[82,-494],[30,-83],[41,-34],[52,-20],[138,-162],[241,-98],[250,-48],[35,-30],[143,-210],[26,-22],[19,-16],[136,-44],[184,-19],[498,122],[117,57]],[[784,2613],[32,-79]],[[853,2527],[32,37]],[[3269,2072],[24,3]],[[3652,370],[3,0]],[[3655,370],[-1,2]],[[4096,50],[-122,-18],[-105,59],[-134,210],[-80,69]],[[3801,732],[-8,-9]],[[3074,2224],[90,-42]],[[2271,2267],[147,95],[66,138]],[[2557,2573],[2,2]],[[3567,2152],[0,-3]],[[2600,0],[442,343]],[[2251,342],[-6,-7]],[[3072,2217],[-10,12]],[[234,3387],[-24,35],[-30,-18]],[[159,692],[8,5]],[[165,699],[-5,-4]],[[3578,435],[0,-1]],[[3619,593],[84,-20]],[[161,2665],[-65,99]],[[923,2714],[-48,-57]],[[3216,2040],[1,0]],[[213,3887],[55,149],[-3,60]],[[2908,2357],[-78,-29],[-33,-92]],[[320,3612],[65,-29],[250,19],[127,-44],[108,-86],[187,-38],[91,-89],[156,-70],[436,-94],[61,-84],[270,-198]],[[1961,2179],[1,0]],[[1358,1868],[6,3]],[[143,3417],[-10,4]],[[1774,2084],[-95,50],[-293,327]],[[2511,1891],[-355,57],[-206,82]],[[3887,2128],[-423,-156],[-248,18]],[[4004,2167],[92,-40]],[[4096,2129],[-92,39]],[[1237,2536],[-14,-15]],[[114,3019],[-114,-77]],[[1952,2153],[86,-157]],[[1952,2154],[9,24]],[[2038,1995],[447,-627],[70,-176]],[[2556,1188],[45,-135],[-10,-158],[25,-33],[460,-297],[221,-71]],[[213,3883],[3,6]],[[316,3609],[5,2]],[[324,3609],[-1,5]],[[1359,555],[2,-1]],[[1361,554]],[[1361,555],[0,-1]],[[1361,554],[-1,-2]],[[1792,2083],[-2,2]],[[1939,2196],[-26,10]],[[1938,2193]],[[1939,2196],[-1,-2]],[[1939,2194],[0,2]],[[2556,1191],[-1,0]],[[2555,1191],[-1,-1],[2,-2],[0,1]],[[2555,1191],[1,-1]],[[2556,1190],[0,1]],[[2556,1189],[0,2]],[[2556,1190],[0,-1]],[[2556,1189],[0,1]],[[3168,1978],[-1,0]],[[3203,2024],[12,-40]],[[3218,2042],[1,1]],[[3293,2075],[25,44]],[[3770,518],[22,-5]],[[3470,476],[13,-36]],[[3486,436],[35,-23]],[[3619,593],[-33,-6]],[[3739,543],[-36,30]],[[3146,1971],[-40,-4]],[[252,3386],[-109,31]],[[1782,2082],[-8,2]],[[1786,2083],[-4,-1]],[[1782,2082],[3,-2]],[[1785,2080],[5,-3],[3,5],[-5,3],[-3,-5]],[[1792,2078],[4,1]],[[1796,2079],[-3,2]],[[1950,2030],[-154,49]],[[3216,1990],[-50,-13]],[[3979,2184],[-92,-56]],[[4004,2168],[-18,17]],[[3949,895],[-2,0]],[[2557,2576],[-215,96],[-96,94],[-99,39],[-74,92]],[[1912,2198],[49,-19]],[[3225,2155],[14,-4]],[[244,3622]],[[244,3621],[1,0]],[[3593,377],[-21,0]],[[1855,2195],[2,-47],[-65,-61]],[[1912,2198],[-6,91]],[[2082,3026],[-1,0]],[[3715,488],[84,7]],[[3799,495],[38,-11]],[[3837,484],[104,-50]],[[3941,434],[3,-2]],[[3944,432],[151,-85]],[[4095,347],[1,0]],[[3869,2211],[-2,4]],[[927,2714],[-4,0]],[[2101,2932],[20,183]],[[1906,2177],[23,-5]],[[3397,2127],[-1,1]],[[3406,2128],[44,18]],[[3455,2146],[-5,0]],[[3566,2152],[-111,-6]],[[3828,2201],[-30,-7]],[[3239,2151],[0,-1]],[[842,2530],[-2,1],[2,-2]],[[843,2527],[0,1]],[[842,2529],[0,-1],[1,1],[0,1],[-1,-1]],[[4096,347],[-1,0],[-151,85]],[[3072,2216],[1,-1],[1,0],[0,2],[-2,-1]],[[1162,2568],[-28,-33]],[[203,1992],[88,56],[48,93],[128,-126],[173,23],[77,-55],[125,-41]],[[869,1952],[57,-9],[105,-139],[41,-9],[158,68],[128,5]],[[1364,1871],[171,31],[141,64],[111,109]],[[3042,343],[122,59]],[[2269,2267],[2,0]],[[1386,2461],[197,-22],[116,-80],[137,-155]],[[1855,2195],[-17,8]],[[309,3736],[-85,33]],[[255,3599],[79,29],[20,56],[-35,46]],[[3214,2157],[2,1]],[[3263,2141],[0,-1]],[[2071,2897],[1,-1],[1,2],[-1,1],[-1,-2]],[[3352,167],[-75,-43],[-104,-124]],[[3035,1496],[38,-39]],[[3073,1457],[-2,-3]],[[3073,1457],[2,-1]],[[1348,553],[-1,1]],[[1362,554],[-1,1]],[[216,2592],[-4,4]],[[3030,2266],[-2,2]],[[3521,413],[55,20]],[[3572,377],[8,54]],[[3579,437],[-1,-2]],[[3581,434],[0,1]],[[2370,2229]],[[2379,2244],[38,58],[234,51],[105,-112],[41,-5]],[[251,3596],[-71,-267],[-57,-65],[-22,-137],[13,-108]],[[249,3602],[-1,-7]],[[253,3600],[-1,2]],[[3779,495],[165,-63]],[[1128,0],[23,29],[32,125],[10,46],[-46,56],[13,53],[130,184],[73,63]],[[1787,2069],[11,-40],[-99,-182],[-18,-140],[-165,-276],[6,-317],[-23,-181],[-156,-285],[3,-96]],[[1785,2070],[2,-1]],[[1787,2069],[-1,3]],[[213,3887],[-149,209]],[[3063,2229],[11,-5]],[[3204,2163],[-39,13]],[[3214,2159],[-2,1]],[[224,3769],[-11,118]],[[2357,0],[-117,348]],[[857,2500],[-4,27]],[[3219,2043],[50,29]],[[3770,518],[-31,25]],[[2484,2500],[73,73]],[[3640,376],[-47,1]],[[3652,378],[-12,-2]],[[3640,376],[5,-5]],[[3647,369],[7,6]],[[3477,372],[44,41]],[[114,3019],[116,-360]],[[2957,2358],[-49,-1]],[[2247,2262],[123,-33]],[[3318,2120],[1,-1]],[[316,3736],[-5,0],[0,-5],[5,0],[0,5]],[[350,3174],[23,-34],[-13,-71],[50,-46],[187,-312],[144,-112]],[[3772,699],[21,24]],[[3798,2194],[-1,1]],[[3828,2201],[39,14]],[[4096,2182],[-69,35],[-53,-20],[-22,22],[-83,-8]],[[261,2548],[-45,44]],[[1716,601],[205,-33],[287,-152],[43,-74],[105,42],[275,-64],[411,23]],[[2858,2509],[-301,67]],[[713,1457],[3,39]],[[1906,2289],[-40,134],[23,55],[128,125],[55,192],[-1,102]],[[1836,2204],[127,-24],[40,26]],[[3028,2268],[-71,90]],[[3062,2229],[-32,37]],[[3166,1977],[50,63]],[[3217,2040],[1,2]],[[927,2714],[-80,159],[-112,95],[-64,140],[-118,59],[-157,153],[-253,97]],[[3479,371],[21,11]],[[3166,1977],[-20,-6]],[[2957,2358],[-99,151]],[[3447,498],[113,-6]],[[228,3686],[-4,83]],[[180,3403],[12,-31]],[[191,3370],[36,17]],[[205,3394],[-7,2]],[[199,3397],[6,-2]],[[3397,2127],[9,1]],[[3705,2182],[-139,-30]],[[3567,2149],[112,24],[26,9]],[[3705,2182],[13,11]],[[3748,2206],[-30,-13]],[[3748,2206],[48,-8]],[[3654,375],[-2,3]],[[3797,2195],[-1,3]],[[794,2301],[62,180],[-14,47]],[[840,2531],[-12,2]],[[3497,755],[52,-43],[37,-125]],[[2081,3026],[2,48],[38,41]],[[2101,2932],[-19,94]],[[3055,1961],[-3,0]],[[3753,272],[-81,83]],[[133,3421],[-133,71]],[[2867,1349],[-68,-69]],[[3053,1446],[-175,-91]],[[3059,1448],[-4,-2]],[[3125,1473],[-16,-5]],[[3052,1961],[-49,4]],[[1906,2177],[3,2]],[[1909,2180],[3,18]],[[1909,2179],[1,0],[0,1],[-1,0]],[[1909,2180],[0,-1]],[[3644,377],[-1,-4]],[[3984,2186],[20,-19]],[[3620,525],[95,-37]],[[2270,2267]],[[3088,2207],[-14,8]],[[0,2017],[175,-74],[28,49]],[[1787,2077],[2,0]],[[3561,295],[-31,-295]],[[3645,371],[2,-2]],[[3655,378],[-3,0]],[[3654,375],[1,3]],[[3772,469],[-117,-91]],[[3814,526],[-42,-57]],[[3772,469],[16,23],[10,16],[16,18]],[[3948,894],[-96,-194],[3,-113],[-41,-61]],[[3948,894],[148,158]],[[4096,1066],[-100,-113],[-40,-47],[-8,-12]],[[248,3595],[1,-4]],[[1372,557],[-26,-5]],[[885,2564],[216,23],[33,-52]],[[3212,2160],[-8,3]],[[3396,2128],[-67,-7],[-111,37]],[[3572,376],[2,1]],[[1912,2198],[-57,-3]],[[570,3590],[18,-89],[-77,-209]],[[761,1643],[77,135],[4,164],[27,10]],[[3352,167],[80,30],[47,174]],[[253,3600],[2,-1]],[[312,3736],[-2,-3]],[[315,3731],[2,2]],[[101,3127],[56,-28],[149,49],[205,144]],[[1223,2521],[-41,26]],[[1289,2520],[-52,16]],[[3572,377],[-4,-25]],[[3406,2128],[161,21]],[[3485,765],[12,-10]],[[3611,515],[9,10]],[[1838,2203],[-2,1]],[[713,1457],[-26,-97],[-75,-88],[41,-150],[-85,-114],[-20,-105],[-79,-27],[-96,-94],[-210,-85]],[[716,1496],[45,147]],[[872,1953],[-78,348]],[[741,2599],[13,-10]],[[3164,402],[133,90],[150,6]],[[3560,492],[51,23]],[[148,692],[-88,13],[-60,-21]],[[160,695],[-12,-3]],[[148,692],[11,0]],[[171,701],[-6,-2]],[[167,697],[4,4]],[[1346,552],[-150,4],[-157,-86],[-488,-21],[-246,98],[-134,154]],[[2799,1280],[-32,-32],[-227,-65],[-441,-253],[-123,-147],[-191,-104],[-76,-83],[-175,-39],[-162,0]],[[2878,1355],[-11,-6]],[[4096,1935],[-99,4],[-195,-36],[-208,-97],[-280,-86],[-189,-247]],[[316,3736],[-2,1]],[[811,4016],[-5,-6]],[[2073,2898],[1,4]],[[1929,2172],[32,7]],[[228,3684],[11,-35]],[[239,3648],[5,-25]],[[245,3620],[4,-16]],[[249,3604],[0,-2]],[[251,3602],[-2,2]],[[228,3686],[0,-1],[1,-1],[0,1],[-1,1]],[[240,3648],[0,1],[-1,0],[-1,-1],[2,0]],[[244,3622],[0,-1],[1,0],[0,1],[-1,0]],[[828,2533],[-12,1]],[[2777,1972],[-266,-81]],[[2857,1993],[-46,-12]],[[3568,352],[-1,-10]],[[3055,1446],[-2,0]],[[3109,1468],[-50,-20]],[[3567,342],[-6,-47]],[[2990,1968],[-133,25]],[[3106,1967],[-51,-6]],[[2023,2222],[224,40]],[[3485,765],[-32,35],[-26,163],[-77,132],[-20,123],[-164,290]],[[230,2659],[-18,-63]],[[3620,525],[152,174]],[[3948,894],[-147,-162]],[[3062,2229],[1,0]],[[3469,497],[1,-21]],[[3518,413],[2,-3]],[[3581,435],[-2,2]],[[2370,2229],[9,15]],[[3652,370],[3,0]],[[3655,370],[-1,2]],[[3672,355],[-17,15]],[[4096,50],[-122,-18],[-105,59],[-116,181]],[[2121,3115],[5,96],[-163,403],[-52,312],[-82,170]],[[2074,2902],[27,30]],[[2038,1995],[1,0]],[[3003,1965],[-13,3]],[[3263,2141],[-49,16]],[[3263,2140],[55,-20]],[[2332,376],[-42,34],[5,36],[107,79],[129,166],[60,204]],[[2992,1964],[50,-325],[-26,-46],[19,-97]],[[252,3602],[-3,0]],[[251,3596],[2,4]],[[4096,2998],[-1018,1098]],[[3500,382],[21,31]],[[3486,436],[-3,4]],[[3578,434],[3,0]],[[2811,1981],[-34,-9]],[[3301,492],[-4,2]],[[3173,0],[148,164],[60,-3],[48,32],[48,179]],[[806,4010],[-140,-73],[-57,-6],[-72,-58],[-100,-2],[-121,-132]],[[877,4096],[-66,-80]],[[3165,2176],[-77,31]],[[1386,2461],[-459,253]],[[3238,2150],[1,1]],[[2003,2206],[20,16]],[[96,2764],[-28,44],[-68,7]],[[212,2596],[-51,69]],[[875,2657],[-86,-178],[-276,9],[-143,-39],[-109,99]],[[1938,2194],[-2,0]],[[1939,2193],[-1,0]],[[1941,2193],[-2,1]],[[1952,2153],[0,1]],[[3264,2140],[-1,1]],[[1962,2179],[41,27]],[[3164,2182],[54,-24]],[[1902,4096],[21,-42],[13,-27],[29,-87],[23,-105],[22,-188],[25,-97],[43,-43],[26,-49],[82,-494],[30,-83],[41,-34],[52,-20],[138,-162],[241,-98],[250,-48],[35,-30],[143,-210],[26,-22],[19,-16],[136,-44],[184,-19],[498,122],[117,57],[0,-2357],[-4096,0],[0,4096],[1902,0]],[[1300,449],[18,29],[27,-12],[1,-38],[104,-6],[50,-32],[23,-67],[-41,-26],[-90,2],[-26,27],[8,36],[-53,28],[-21,59]],[[475,0],[-39,0],[-20,45],[21,4],[-6,73],[70,-29],[11,34],[-35,1],[5,51],[90,0],[8,34],[57,7],[15,49],[73,-79],[-45,-24],[33,-48],[-8,-89],[-25,-29],[-97,0],[27,27],[-86,1],[26,19],[-2,12],[-30,9],[-43,-68]],[[3080,1101],[5,52],[65,117],[27,-50],[-33,-22],[60,-91],[-104,-51],[-20,45]],[[3777,1562],[140,199],[84,-54],[23,-41],[-23,-30],[23,-8],[24,-92],[-58,-96],[-19,36],[-78,31],[-15,-22],[-101,77]],[[3297,725],[28,35],[-6,80],[93,86],[-41,55],[18,-5],[25,-18],[20,-88],[-36,-43],[15,-31],[132,-107],[-50,-4],[-72,71],[-62,-45],[-64,14]],[[1887,943],[53,56],[45,-10],[7,-27],[40,17],[10,-18],[0,-28],[-74,-21],[-43,17],[-17,-21],[-21,35]],[[2187,2361],[47,21],[42,-12],[35,53],[74,4],[-46,144],[110,37],[64,-27],[-50,-8],[25,-84],[70,46],[-3,96],[171,-40],[94,2],[13,20],[68,-23],[87,-146],[47,-15],[47,-61],[14,-69],[58,-9],[18,-193],[27,-6],[16,-48],[-43,12],[-20,-83],[-46,-5],[3,-17],[119,0],[55,-52],[9,-102],[-80,-77],[8,-81],[-94,-108],[2,-55],[-261,-125],[-67,-70],[-212,-32],[-17,84],[29,22],[-8,58],[-61,56],[16,59],[-35,6],[-3,116],[-44,13],[50,96],[-13,127],[54,35],[-12,41],[-51,16],[27,14],[-25,90],[-48,28],[27,52],[-67,48],[31,30],[-11,20],[-49,-19],[11,28],[-19,-39],[26,-35],[-9,-50],[-155,46],[16,75],[-61,96]],[[3723,802],[48,-51],[30,3],[0,-73],[-113,-252],[-16,-32],[-65,0],[-41,-56],[-55,5],[-66,51],[2,130],[63,286],[82,-70],[15,-49],[80,37],[17,82],[19,-11]],[[3216,1708],[81,87],[27,-4],[24,85],[566,213],[16,-50],[-128,-62],[-52,-74],[-128,-12],[-27,-43],[-23,24],[-8,-51],[-102,0],[-81,-64],[-165,-49]],[[0,2828],[47,11],[30,-1],[10,-8],[-23,-8],[40,-12],[11,-41],[-25,-7],[23,-46],[47,-51],[76,-6],[-9,-36],[115,-61],[-5,-63],[24,-33],[65,3],[9,41],[64,33],[9,38],[22,4],[56,-74],[45,2],[86,45],[25,43],[133,56],[28,-20],[-23,-47],[24,-3],[-51,-60],[32,-3],[11,-50],[-49,-32],[-54,-143],[-164,42],[-83,97],[2,-52],[-87,-42],[-36,-103],[-81,-40],[-17,-50],[-41,57],[50,64],[-58,4],[-43,74],[24,38],[-8,95],[-71,12],[-40,49],[-17,23],[32,23],[-73,56],[-48,117],[-34,3],[0,62]],[[2215,2318],[25,31],[-9,27],[45,-6],[35,53],[74,4],[15,-83],[-34,-32],[-27,31],[-23,-52],[-21,-14],[-28,21],[6,-28],[-36,-3],[-22,51]],[[2702,1718],[214,58],[48,-260],[-102,-19],[10,-56],[-95,13],[-16,86],[-29,-5],[-30,183]],[[2712,2426],[73,45],[27,-62],[-87,-70],[-13,87]],[[3080,1613],[105,138],[-48,31],[-11,60],[61,15],[-5,48],[94,-29],[1,-91],[-72,-46],[0,-119],[-92,-117],[-31,12],[-2,98]],[[3190,1823],[23,-11],[4,16],[-18,3],[-9,-8]],[[2187,2361],[47,21],[42,-12],[35,53],[74,4],[-46,144],[110,37],[64,-27],[-50,-8],[25,-84],[70,46],[-3,96],[171,-40],[94,2],[13,20],[68,-23],[87,-146],[47,-15],[47,-61],[14,-69],[58,-9],[18,-193],[27,-6],[16,-48],[-43,12],[-20,-83],[-46,-5],[3,-17],[119,0],[55,-52],[9,-102],[-80,-77],[8,-81],[-94,-108],[2,-55],[-261,-125],[-67,-70],[-212,-32],[-17,84],[29,22],[-8,58],[-61,56],[16,59],[-35,6],[-3,116],[-44,13],[50,96],[-13,127],[54,35],[-12,41],[-51,16],[27,14],[-25,90],[-48,28],[27,52],[-67,48],[31,30],[-11,20],[-49,-19],[11,28],[-19,-39],[26,-35],[-9,-50],[-155,46],[16,75],[-61,96]],[[2858,2506],[71,-107],[-30,-57],[61,-65],[70,-9],[19,-61],[57,-20],[-119,136],[-96,203],[-32,-1],[-1,-19]],[[3182,1905],[61,-26],[31,-2],[-71,57],[-21,-29]],[[3034,1496],[19,-51],[70,29],[-40,44],[-49,-22]],[[2835,2066],[10,-38],[39,-5],[67,55],[-67,15],[-49,-27]],[[2999,1982],[8,-43],[25,19],[25,-22],[-5,60],[-53,-14]],[[2492,2186],[3,-15],[11,-12],[-7,34],[-7,-7]]]}