{"objects":{"water":{"type":"GeometryCollection","geometries":[]},"buildings":{"type":"GeometryCollection","geometries":[]},"places":{"type":"GeometryCollection","geometries":[{"type":"Point","properties":{"name:ka":"\u10da\u10d8\u10e2\u10d5\u10d0","name:ko":"\ub9ac\ud22c\uc544\ub2c8\uc544","name:cv":"\u041b\u0438\u0442\u0432\u0430","name:cu":"\u041b\u0438\u0442\u044a\u0432\u0430","name:kl":"Litaueni","name:cs":"Litva","name:ki":"Litwania","name:co":"Lituania","name:kv":"\u041b\u0438\u0442\u0432\u0430","name:ku":"L\u00eetvanya","name:ti":"\u120a\u1271\u12cc\u1292\u12eb","name:ks":"\u0644\u0650\u062a\u06be\u064f\u0648\u0627\u0646\u0650\u06cc\u0627","name:to":"Lifiuenia","name:tl":"Litwaniya","name:ch":"Lituania","name:ce":"\u041b\u0438\u0442\u0432\u0430","name:ta":"\u0bb2\u0bbf\u0ba4\u0bc1\u0bb5\u0bc7\u0ba9\u0bbf\u0baf\u0bbe","name:tg":"\u041b\u0438\u0442\u0432\u0430","name:ca":"Litu\u00e0nia","name:te":"\u0c32\u0c3f\u0c25\u0c41\u0c2f\u0c47\u0c28\u0c3f\u0c2f\u0c3e","name:cy":"Lithwania","name:hr":"Litva","name:da":"Litauen","name:de":"Litauen","name:dz":"\u0f63\u0f72\u0f0b\u0f50\u0f74\u0f0b\u0f5d\u0f7a\u0f0b\u0f53\u0f72\u0f0b\u0f61","source":"openstreetmap.org","name:kn":"\u0cb2\u0cbf\u0ca5\u0cc1\u0cb5\u0cc7\u0ca8\u0cbf\u0caf\u0cbe","name:dv":"\u078d\u07a8\u078c\u07aa\u0787\u07ad\u0782\u07a8\u0787\u07a7","name:km":"\u179b\u17b8\u1791\u17bb\u1799\u17a2\u17b6\u1793\u17b8","name:uz":"Litva","name:kk":"\u041b\u0438\u0442\u0432\u0430","name:ur":"\u0644\u062a\u06be\u0648\u0627\u0646\u06cc\u0627","name:lb":"Litauen","name:la":"Lituania","name:lg":"Lisuwenya","name:uk":"\u041b\u0438\u0442\u0432\u0430","name:ug":"\u0644\u0649\u062a\u06cb\u0627","name:li":"Litauwe","name:ln":"Litwani","name:lo":"\u0ea5\u0eb4\u0ec0\u0e97\u0eb5\u0ec0\u0e99\u0e8d","name:el":"\u039b\u03b9\u03b8\u03bf\u03c5\u03b1\u03bd\u03af\u03b1","name:eo":"Litovujo","name:en":"Lithuania","name":"Lietuva","name:tk":"Litwa","name:ee":"Lituania nutome","name:th":"\u0e1b\u0e23\u0e30\u0e40\u0e17\u0e28\u0e25\u0e34\u0e17\u0e31\u0e27\u0e40\u0e19\u0e35\u0e22","name:eu":"Lituania","name:et":"Leedu","name:es":"Lituania","name:ay":"Litua\u00f1a","name:rm":"Lituania","name:rn":"Lituwaniya","name:az":"Litva","name:ie":"Lituania","name:id":"Lituania","name:ar":"\u0644\u064a\u062a\u0648\u0627\u0646\u064a\u0627","name:io":"Lituania","name:ak":"Lituwenia","name:am":"\u120a\u1271\u12cc\u1292\u12eb","name:it":"Lituania","name:an":"Lituania","name:ru":"\u041b\u0438\u0442\u0432\u0430","name:ab":"\u041b\u0438\u0442\u0432\u0430","name:af":"Litaue","name:zu":"i-Lithuania","name:ky":"\u041b\u0438\u0442\u0432\u0430","name:zh-yue":"\u7acb\u9676\u5b9b","name:zh":"\u7acb\u9676\u5b9b","name:so":"Lituweeniya","name:sn":"Lithuania","name:sl":"Litva","name:sk":"Litva","name:ja":"\u30ea\u30c8\u30a2\u30cb\u30a2","name:si":"\u0dbd\u0dd2\u0dad\u0dd4\u0dc0\u0dda\u0db1\u0dd2\u0dba\u0dcf\u0dc0","name:sh":"Litvanija","name:sg":"Lituan\u00efi","name:sc":"Litu\u00e0nia","name:sa":"\u0932\u0947\u0924\u0941\u0935\u093e","name:bs":"Litvanija","name:bm":"Lituyani","name:bn":"\u09b2\u09bf\u09a4\u09cd\u09ad\u09be","name:bo":"\u0f63\u0f72\u0f0b\u0f50\u0f74\u0f0b\u0f68\u0f7a\u0f0b\u0f53\u0f72\u0f0b\u0f61\u0f0d","name:br":"Lituania","name:sw":"Litwania","name:be":"\u041b\u0456\u0442\u0432\u0430","name:su":"Lituania","name:bg":"\u041b\u0438\u0442\u0432\u0430","name:ss":"Lithuwani","name:ba":"\u041b\u0438\u0442\u0432\u0430","name:sq":"Lituani","name:jv":"Lituania","name:bi":"Litwania","name:ia":"Lituania","name:pt":"Litu\u00e2nia","name:ps":"\u0644\u06d0\u062a\u0648\u0627\u0646\u064a\u0627","name:oc":"Litu\u00e0nia","min_zoom":2.0,"name:ro":"Lituania","name:sv":"Litauen","name:os":"\u041b\u0438\u0442\u0432\u0430","name:or":"\u0b32\u0b3f\u0b25\u0b3e\u0b06\u0b28\u0b3f\u0b06","name:pl":"Litwa","name:st":"Lituania","name:sr":"\u041b\u0438\u0442\u0432\u0430\u043d\u0438\u0458\u0430","name:tr":"Litvanya","name:hi":"\u0932\u093f\u0925\u0941\u0906\u0928\u093f\u092f\u093e","name:he":"\u05dc\u05d8\u05d1\u05d9\u05d4","name:ha":"Lituweniya","name:hy":"\u053c\u056b\u057f\u057e\u0561","name:ht":"Lityani","name:hu":"Litv\u00e1nia","name:qu":"Lituwa","population":3565205,"kind":"country","name:ts":"Lithuania","name:is":"Lith\u00e1en","name:yi":"\u05dc\u05d9\u05d8\u05e2","name:iu":"\u14d5\u140b\u1450\u1559","name:yo":"Or\u00edl\u1eb9\u0301\u00e8de Lituania","name:mt":"Litwanja","alt_name:eo":"Litovio","name:ms":"Lithuania","name:mr":"\u0932\u093f\u0925\u0941\u0906\u0928\u093f\u092f\u093e","name:my":"\u101c\u1005\u103a\u101e\u1030\u101a\u1031\u1038\u1014\u102e\u1038\u101a\u102c\u1038","official_name":"Lietuvos Respublika","name:kw":"Lithouani","name:mg":"Litoania","name:ve":"Lituania","name:ml":"\u0d32\u0d3f\u0d24\u0d4d\u0d35\u0d3e\u0d28\u0d3f\u0d2f","name:vi":"Litva","name:mn":"\u041b\u0438\u0442\u0432\u0430","name:mi":"Ritu\u0101nia","id":424297773,"name:mk":"\u041b\u0438\u0442\u0432\u0430\u043d\u0438\u0458\u0430","name:vo":"Lietuv\u00e4n","name:fa":"\u0644\u06cc\u062a\u0648\u0627\u0646\u06cc","name:rw":"Lituwaniya","name:ff":"Lituaanii","name:fi":"Liettua","name:fj":"Lituani","name:fo":"Litava","name:fr":"Lituanie","name:fy":"Litouwen","int_name":"Lithuania","name:nl":"Litouwen","name:nn":"Litauen","name:no":"Litauen","name:na":"Rituainiya","name:ne":"\u0932\u093f\u0925\u0941\u0905\u0928\u093f\u092f\u093e","name:ny":"Lithuania","name:wa":"Litwaneye","name:wo":"Lituwaani","name:nv":"\u0141it\u02bcoow\u0119\u0301\u0119ya","name:ga":"An Liotu\u00e1in","name:gd":"Liotu\u00e0inia","name:gn":"Litua\u00f1a","name:gl":"Lituania","name:gv":"Yn Litaan","name:gu":"\u0ab2\u0abf\u0aa5\u0ac1\u0a86\u0aa8\u0abf\u0aaf\u0abe","name:tt":"\u041b\u0438\u0442\u0432\u0430"},"coordinates":[3641,1909]},{"type":"Point","properties":{"kind":"region","name:en":"Kaunas County","name":"Kauno apskritis","kind_detail":"state","min_zoom":4.0,"name:de":"Bezirk Kauen","source":"openstreetmap.org","name:fr":"Apskritis de Kaunas","int_name":"Kaunas County","name:uk":"\u041a\u0430\u0443\u043d\u0430\u0441\u044c\u043a\u0438\u0439 \u043f\u043e\u0432\u0456\u0442","name:be":"\u041a\u0430\u045e\u043d\u0430\u0441\u043a\u0456 \u043f\u0430\u0432\u0435\u0442","name:ru":"\u041a\u0430\u0443\u043d\u0430\u0441\u0441\u043a\u0438\u0439 \u0443\u0435\u0437\u0434","name:pl":"okr\u0119g kowie\u0144ski","id":816425956},"coordinates":[3988,637]},{"type":"Point","properties":{"name:lv":"Jurbarka","alt_name:de":"Jurgenburg","name:he":"\u05d9\u05d5\u05e8\u05d1\u05d5\u05e8\u05d2","min_zoom":8.0,"name:uk":"\u042e\u0440\u0431\u0430\u0440\u043a\u0430\u0441","name:be":"\u042e\u0440\u0431\u0430\u0440\u043a\u0430\u0441","id":175661956,"name:ru":"\u042e\u0440\u0431\u0430\u0440\u043a\u0430\u0441","name:pl":"Jurbork","name:bg":"\u042e\u0440\u0431\u0430\u0440\u043a\u0430\u0441","name:sr":"\u0408\u0443\u0440\u0431\u0430\u0440\u043a\u0430\u0441","population":11232,"name:el":"\u0393\u03b9\u03bf\u03c5\u03c1\u03bc\u03c0\u03ac\u03c1\u03ba\u03b1\u03c2","kind":"locality","name":"Jurbarkas","kind_detail":"town","old_name:ru":"\u042e\u0440\u0431\u0443\u0440\u0433","name:de":"Georgenburg","source":"openstreetmap.org","name:zh":"\u5c24\u723e\u5df4\u723e\u5361\u65af"},"coordinates":[771,513]},{"type":"Point","properties":{"kind":"locality","name:lv":"Rasei\u0146i","name":"Raseiniai","name:ka":"\u10e0\u10d0\u10e1\u10d4\u10d8\u10dc\u10d8\u10d0\u10d8","kind_detail":"town","name:de":"Raseinen","source":"openstreetmap.org","min_zoom":8.0,"name:uk":"\u0420\u0430\u0441\u0435\u0439\u043d\u044f\u0439","name:ru":"\u0420\u0430\u0441\u0435\u0439\u043d\u044f\u0439","name:pl":"Rosienie","id":175655725,"population":11203},"coordinates":[1798,2053]},{"type":"Point","properties":{"name:sr":"\u041a\u0435\u043b\u043c\u0435","name:lv":"\u0136elme","name:ja":"\u30b1\u30eb\u30e1","name:ka":"\u10d9\u10d4\u10da\u10db\u10d4","name:ko":"\ucf08\uba54","min_zoom":8.0,"name:uk":"\u041a\u0435\u043b\u044c\u043c\u0435","name:be":"\u041a\u044f\u043b\u044c\u043c\u0435","name:ru":"\u041a\u0435\u043b\u044c\u043c\u0435","name:pl":"Kielmy","id":130189064,"population":9150,"kind":"locality","name":"Kelm\u0117","kind_detail":"town","name:de":"Kelm","source":"openstreetmap.org","name:zh":"\u51f1\u723e\u6885"},"coordinates":[1256,3342]},{"type":"Point","properties":{"kind":"locality","name:lv":"Arjogala","name":"Ariogala","kind_detail":"town","name:he":"\u05d0\u05d9\u05e8\u05d2\u05d5\u05dc\u05d4","source":"openstreetmap.org","min_zoom":8.0,"name:ru":"\u0410\u0440\u0451\u0433\u0430\u043b\u0430","name:pl":"Ejrago\u0142a","id":1874890686,"population":3208},"coordinates":[2863,1461]},{"type":"Point","properties":{"kind":"locality","name":"\u0160eduva","kind_detail":"town","name:de":"Scheddau","source":"openstreetmap.org","min_zoom":8.0,"name:ru":"\u0428\u0435\u0434\u0443\u0432\u0430","name:pl":"Szad\u00f3w","id":310059332,"population":2895},"coordinates":[3662,3996]},{"type":"Point","properties":{"kind":"locality","name:lv":"T\u012btuv\u0113ni","name":"Tytuv\u0117nai","kind_detail":"town","name:de":"Titowenen","source":"openstreetmap.org","min_zoom":8.0,"name:ru":"\u0422\u0438\u0442\u0443\u0432\u0435\u043d\u0430\u0439","name:pl":"Cytowiany","id":280784273,"population":2302},"coordinates":[2031,3175]},{"type":"Point","properties":{"kind":"locality","name":"Vilkija","kind_detail":"town","name:de":"Memelburg","source":"openstreetmap.org","min_zoom":8.0,"name:uk":"\u0412\u0456\u043b\u044c\u043a\u0456\u044f","name:ru":"\u0412\u0438\u043b\u044c\u043a\u0438\u044f","name:pl":"Wilki","id":307434132,"population":2131},"coordinates":[3154,318]},{"type":"Point","properties":{"kind":"locality","name":"Baisogala","kind_detail":"town","name:de":"Gallehnen","source":"openstreetmap.org","min_zoom":8.0,"name:pl":"Bejsago\u0142a","id":863077307,"population":2034},"coordinates":[3563,3390]},{"type":"Point","properties":{"kind":"locality","name:lv":"\u0122elgaudi\u0161\u0137i","name":"Gelgaudi\u0161kis","kind_detail":"town","name:de":"Gelgudischken","source":"openstreetmap.org","min_zoom":8.0,"name:be":"\u0413\u0435\u043b\u0433\u0430\u045e\u0434\u0437\u0456\u0448\u043a\u0456\u0441","name:ru":"\u0413\u0435\u043b\u0433\u0430\u0443\u0434\u0438\u0448\u043a\u0438\u0441","name:pl":"Gie\u0142gudyszki","name:zh":"\u84cb\u723e\u9ad8\u8fea\u4ec0\u57fa\u65af","id":436948807,"population":1761},"coordinates":[1385,509]},{"type":"Point","properties":{"kind":"locality","name:lv":"Skaudvile","name":"Skaudvil\u0117","kind_detail":"town","name:de":"Skaudwill","source":"openstreetmap.org","min_zoom":8.0,"name:ru":"\u0421\u043a\u0430\u0443\u0434\u0432\u0438\u043b\u0435","name:pl":"Skaudwile","population":1720,"name:zh":"\u65af\u8003\u5fb7\u7dad\u840a","id":299690501,"name:ja":"\u30b9\u30ab\u30a6\u30c9\u30f4\u30a3\u30ec"},"coordinates":[226,2209]},{"type":"Point","properties":{"kind":"locality","name":"Vidukl\u0117","kind_detail":"town","name:de":"Widulken","source":"openstreetmap.org","min_zoom":8.0,"name:pl":"Widukle","id":929226577,"population":1678},"coordinates":[1152,2184]},{"type":"Point","properties":{"kind":"locality","name":"Babtai","kind_detail":"town","source":"openstreetmap.org","min_zoom":8.0,"name:pl":"Bopty","id":262948763,"population":1563},"coordinates":[3786,572]},{"type":"Point","properties":{"kind":"locality","name":"Josvainiai","kind_detail":"town","name:de":"Josweide","source":"openstreetmap.org","min_zoom":8.0,"name:ru":"\u0419\u043e\u0441\u0432\u0430\u0439\u043d\u044f\u0439","name:pl":"Jaswojnie","id":444351793,"population":1057},"coordinates":[3890,1374]},{"type":"Point","properties":{"kind":"locality","name":"Girkalnis","kind_detail":"town","name:de":"Girtagollen","source":"openstreetmap.org","min_zoom":8.0,"name:pl":"Girtakol","id":779327116,"population":877},"coordinates":[2045,1711]},{"type":"Point","properties":{"kind":"locality","name":"Lek\u0117\u010diai","kind_detail":"town","name:de":"Zitzey","source":"openstreetmap.org","min_zoom":8.0,"name:pl":"Lokajcie","id":332085715,"population":848},"coordinates":[2903,28]},{"type":"Point","properties":{"kind":"locality","name":"Krak\u0117s","kind_detail":"town","source":"openstreetmap.org","min_zoom":8.0,"name:pl":"Kroki","id":291209862,"population":841},"coordinates":[3582,2219]},{"type":"Point","properties":{"kind":"locality","name":"Akademija","kind_detail":"town","source":"openstreetmap.org","min_zoom":8.0,"name:pl":"Akademia","id":1827991145,"population":752},"coordinates":[3954,2153]},{"type":"Point","properties":{"kind":"locality","name":"\u0160iaul\u0117nai","kind_detail":"town","old_name:ru":"\u0428\u0430\u0432\u043b\u0430\u043d\u044b","source":"openstreetmap.org","min_zoom":8.0,"name:ru":"\u0428\u044f\u0443\u043b\u0435\u043d\u0430\u0439","name:pl":"Szawlany","id":981428177,"population":751},"coordinates":[2624,3587]},{"type":"Point","properties":{"kind":"locality","name":"Nemak\u0161\u010diai","kind_detail":"town","name:de":"Niemexen","source":"openstreetmap.org","min_zoom":8.0,"name:pl":"Niemokszty","id":447032005,"population":748},"coordinates":[798,2316]},{"type":"Point","properties":{"kind":"locality","name":"Veliuona","kind_detail":"town","name:de":"Welohnen","source":"openstreetmap.org","min_zoom":8.0,"name:pl":"Wielona","id":303719292,"population":726},"coordinates":[2254,515]},{"type":"Point","properties":{"kind":"locality","name":"Dotnuva","kind_detail":"town","name:de":"Dotnau","source":"openstreetmap.org","min_zoom":8.0,"name:ru":"\u0414\u043e\u0442\u043d\u0443\u0432\u0430","name:pl":"Datn\u00f3w","id":1827991148,"population":687},"coordinates":[4043,1990]},{"type":"Point","properties":{"kind":"locality","name":"\u010ceki\u0161k\u0117","name:ka":"\u10e9\u10d4\u10d9\u10d8\u10e8\u10d9\u10d4","kind_detail":"town","source":"openstreetmap.org","min_zoom":8.0,"name:pl":"Czekiszki","id":973881842,"population":682},"coordinates":[2973,921]},{"type":"Point","properties":{"kind":"locality","name":"Grinki\u0161kis","kind_detail":"town","source":"openstreetmap.org","min_zoom":8.0,"name:pl":"Grynkiszki","id":863090905,"population":678},"coordinates":[3283,2958]},{"type":"Point","properties":{"kind":"locality","name":"\u0160iluva","kind_detail":"town","name:de":"Schidlau","source":"openstreetmap.org","min_zoom":8.0,"name:pl":"Szyd\u0142owo","id":272239566,"population":635},"coordinates":[2105,2834]},{"type":"Point","properties":{"kind":"locality","name":"Kra\u017eiai","kind_detail":"town","name:de":"Kraschien","source":"openstreetmap.org","min_zoom":8.0,"name:pl":"Kro\u017ce","id":773684669,"population":603},"coordinates":[548,3206]},{"type":"Point","properties":{"kind":"locality","name":"Sered\u017eius","kind_detail":"town","name:de":"Schr\u00f6dnick","source":"openstreetmap.org","min_zoom":8.0,"name:pl":"\u015aredniki","id":430706048,"population":590},"coordinates":[2666,539]},{"type":"Point","properties":{"kind":"locality","name:lv":"Smalininki","name":"Smalininkai","kind_detail":"town","name:de":"Schmalleningken","source":"openstreetmap.org","min_zoom":8.0,"name:ru":"\u0421\u043c\u0430\u043b\u0438\u043d\u0438\u043d\u043a\u0430\u0439","name:pl":"Smolniki","name:zh":"\u65af\u99ac\u5229\u5be7\u51f1","id":2083020320,"population":515},"coordinates":[231,492]},{"type":"Point","properties":{"kind":"locality","old_name:de":"Raudonn","name":"Raudon\u0117","kind_detail":"town","old_name:be":"\u0420\u0430\u045e\u0434\u0430\u043d\u044b","name:de":"Pistenwerder","source":"openstreetmap.org","min_zoom":8.0,"name:ru":"\u0420\u0430\u0443\u0434\u043e\u043d\u0435","name:pl":"Rauda\u0144","id":430709000,"population":510},"coordinates":[1817,628]},{"type":"Point","properties":{"kind":"locality","name":"Gud\u017ei\u016bnai","kind_detail":"town","source":"openstreetmap.org","min_zoom":8.0,"name:pl":"Gudziuny","id":2179992058,"population":491},"coordinates":[3704,2732]},{"type":"Point","properties":{"kind":"locality","name":"Betygala","kind_detail":"town","source":"openstreetmap.org","min_zoom":8.0,"name:pl":"Betygo\u0142a","id":444372788,"population":488},"coordinates":[2525,1971]},{"type":"Point","properties":{"kind":"locality","name":"Lioliai","kind_detail":"town","source":"openstreetmap.org","min_zoom":8.0,"name:pl":"Lale","id":902437699,"population":485},"coordinates":[1310,2980]},{"type":"Point","properties":{"kind":"locality","name":"Poci\u016bn\u0117liai","kind_detail":"town","source":"openstreetmap.org","min_zoom":8.0,"name:pl":"Pacunele","id":863154136,"population":475},"coordinates":[3986,3049]},{"type":"Point","properties":{"kind":"locality","name":"\u0160aukotas","kind_detail":"town","source":"openstreetmap.org","min_zoom":8.0,"name:pl":"Szawkoty","id":981428128,"population":445},"coordinates":[2666,3085]},{"type":"Point","properties":{"kind":"locality","name":"Vad\u017egirys","kind_detail":"town","source":"openstreetmap.org","min_zoom":8.0,"name:pl":"Wod\u017cgiry","id":918911263,"population":440},"coordinates":[1226,1419]},{"type":"Point","properties":{"kind":"locality","name":"Er\u017evilkas","kind_detail":"town","name:de":"Erschwilken","source":"openstreetmap.org","min_zoom":8.0,"name:pl":"Erzwi\u0142ki","id":889244642,"population":429},"coordinates":[601,1461]},{"type":"Point","properties":{"kind":"locality","name":"Vidukl\u0117","kind_detail":"town","name:de":"Widulken","source":"openstreetmap.org","min_zoom":8.0,"name:pl":"Widukle","id":2231126220,"population":352},"coordinates":[1063,2252]},{"type":"Point","properties":{"kind":"locality","name":"Palonai","kind_detail":"town","source":"openstreetmap.org","min_zoom":8.0,"name:pl":"Po\u0142any","id":1014462743,"population":345},"coordinates":[3839,3415]},{"type":"Point","properties":{"kind":"locality","name":"\u017daiginys","kind_detail":"town","source":"openstreetmap.org","min_zoom":8.0,"name:pl":"\u017boginie","id":444372789,"population":335},"coordinates":[2428,2639]},{"type":"Point","properties":{"kind":"locality","name":"Pa\u0161u\u0161vys","kind_detail":"town","source":"openstreetmap.org","min_zoom":8.0,"name:pl":"Poszuszwie","id":981428225,"population":331},"coordinates":[3197,3097]},{"type":"Point","properties":{"kind":"locality","name":"Kri\u016bkai","kind_detail":"town","name:de":"Kricken","source":"openstreetmap.org","min_zoom":8.0,"name:pl":"Kruki","id":2213473303,"population":291},"coordinates":[2657,470]},{"type":"Point","properties":{"kind":"locality","name":"Karkl\u0117nai","kind_detail":"town","name:de":"Karckellen","source":"openstreetmap.org","min_zoom":8.0,"name:pl":"Korklany","id":1406174727,"population":285},"coordinates":[200,3503]},{"type":"Point","properties":{"kind":"locality","name":"Tyruliai","kind_detail":"town","source":"openstreetmap.org","min_zoom":8.0,"name:pl":"Tyrolki","id":2248043459,"population":275},"coordinates":[2461,4076]},{"type":"Point","properties":{"kind":"locality","name":"Batakiai","kind_detail":"town","name:de":"Pottangen","source":"openstreetmap.org","min_zoom":8.0,"name:pl":"Botoki","id":766719259,"population":246},"coordinates":[43,1915]},{"type":"Point","properties":{"kind":"locality","name":"Pernarava","kind_detail":"town","source":"openstreetmap.org","min_zoom":8.0,"name:pl":"Pernarowo","id":2205572507,"population":232},"coordinates":[3327,1491]},{"type":"Point","properties":{"kind":"locality","name":"\u0160imkai\u010diai","kind_detail":"town","source":"openstreetmap.org","min_zoom":8.0,"name:pl":"Szymkajcie","id":918931399,"population":204},"coordinates":[1447,1297]},{"type":"Point","properties":{"kind":"locality","name":"Stakiai","kind_detail":"town","source":"openstreetmap.org","min_zoom":8.0,"name:pl":"Staki","id":918958688,"population":170},"coordinates":[1714,1038]},{"type":"Point","properties":{"kind":"locality","name":"Pa\u0161il\u0117","kind_detail":"town","name:de":"Starpeikendorf","source":"openstreetmap.org","min_zoom":8.0,"name:pl":"Poszyle","id":1946133632,"population":160},"coordinates":[108,3239]},{"type":"Point","properties":{"kind":"locality","name":"\u017dalpiai","kind_detail":"town","source":"openstreetmap.org","min_zoom":8.0,"name:pl":"\u017bo\u0142pie","id":902437605,"population":106},"coordinates":[1059,2567]},{"type":"Point","properties":{"kind":"locality","name":"Lyduv\u0117nai","kind_detail":"town","name:de":"Lydowan","source":"openstreetmap.org","min_zoom":8.0,"name:pl":"Lidowiany","id":365168915,"population":99},"coordinates":[1698,2716]},{"type":"Point","properties":{"kind":"locality","name":"Dotnuva","kind_detail":"town","source":"openstreetmap.org","min_zoom":8.0,"name:pl":"Datn\u00f3w","id":2365462680,"population":65},"coordinates":[4006,2197]},{"type":"Point","properties":{"kind":"locality","name":"\u017demoji Panemun\u0117","kind_detail":"town","alt_name:pl":"Poniemu\u0144","source":"openstreetmap.org","min_zoom":8.0,"name:pl":"Dolny Poniemu\u0144","id":1758161725,"population":64},"coordinates":[2818,349]},{"type":"Point","properties":{"kind":"locality","name":"Gud\u017ei\u016bnai","kind_detail":"town","source":"openstreetmap.org","min_zoom":8.0,"name:pl":"Gudziuny","id":1105577261,"population":34},"coordinates":[3765,2811]},{"type":"Point","properties":{"source":"openstreetmap.org","kind":"locality","name":"Linkai\u010diai","kind_detail":"town","population":15,"min_zoom":8.0,"id":2388817226},"coordinates":[3206,4061]},{"type":"Point","properties":{"kind":"locality","name":"\u0160ienlaukis","kind_detail":"town","source":"openstreetmap.org","min_zoom":8.0,"name:pl":"Szyno\u0142awki","id":2356327566,"population":4},"coordinates":[1491,2547]},{"type":"Point","properties":{"source":"openstreetmap.org","kind":"locality","name":"U\u017epelkiai","kind_detail":"town","population":4,"min_zoom":8.0,"id":2477386119},"coordinates":[2164,3627]}]},"transit":{"type":"GeometryCollection","geometries":[{"type":"MultiLineString","properties":{"kind":"train","name":"Klaip\u0117da - Vilnius","sort_rank":275,"name:de":"Memel - Wilna","source":"openstreetmap.org","min_zoom":6.0,"ref":"Klaip\u0117da - Vilnius","osm_relation":true},"arcs":[[11],[12]]}]},"pois":{"type":"GeometryCollection","geometries":[]},"boundaries":{"type":"GeometryCollection","geometries":[{"type":"MultiLineString","properties":{"name:right:yo":"R\u1ecd\u0301s\u00ed\u00e0","name:left:ch":"Lituania","name:right:yi":"\u05e8\u05d5\u05e1\u05dc\u05d0\u05e0\u05d3","name:left:la":"Lituania","name:right:qu":"Rusiya","old_name:right:ru":"\u0420\u0443\u0441\u044c;\u0417\u043e\u043b\u043e\u0442\u0430\u044f \u041e\u0440\u0434\u0430;\u0420\u0443\u0441\u0441\u043a\u043e\u0435 \u0426\u0430\u0440\u0441\u0442\u0432\u043e;\u0420\u043e\u0441\u0441\u0438\u0439\u0441\u043a\u0430\u044f \u0418\u043c\u043f\u0435\u0440\u0438\u044f;\u0421\u043e\u044e\u0437 \u0421\u043e\u0432\u0435\u0442\u0441\u043a\u0438\u0445 \u0421\u043e\u0446\u0438\u0430\u043b\u0438\u0441\u0442\u0438\u0447\u0435\u0441\u043a\u0438\u0445 \u0420\u0435\u0441\u043f\u0443\u0431\u043b\u0438\u043a","name:left:li":"Litauwe","name:left:vi":"Litva","name:left:sw":"Lituanya","name:left:ka":"\u10da\u10d8\u10e2\u10d5\u10d0","name:left:kl":"Litaueni","name:left:ko":"\ub9ac\ud22c\uc544\ub2c8\uc544","name:right:it":"Russia","name:left:ki":"Lithuania","name:left:ro":"Lituania","name:left:kk":"\u041b\u0438\u0442\u0432\u0430","name:left:rm":"Lituania","name:left:ku":"L\u00eetvanya","name:left:kw":"Lithouani","name:left:kv":"\u041b\u0438\u0442\u0432\u0430","name:right:rn":"Uburusiya","name:right:ro":"Rusia","name:left:ru":"\u041b\u0438\u0442\u0432\u0430","name:right:ig":"Mpaghara Russia","name:right:ie":"Russia","name:right:id":"Rusia","name:left:ky":"\u041b\u0438\u0442\u0432\u0430","name:right:ia":"Russia","name:right:bi":"Rusia","name:right:bn":"\u09b0\u09be\u09b6\u09bf\u09af\u09bc\u09be","name:right:bo":"\u0f68\u0f74\u0f0b\u0f62\u0f74\u0f0b\u0f66\u0f74\u0f0d","name:right:bm":"Risila","name:right:ba":"\u0420\u04d9\u0441\u04d9\u0439","name:right:bg":"\u0420\u0443\u0441\u0438\u044f","name:right:be":"\u0420\u0430\u0441\u0456\u0439\u0441\u043a\u0430\u044f \u0424\u0435\u0434\u044d\u0440\u0430\u0446\u044b\u044f","name:right:br":"Rusia","name:right:bs":"Rusija","name:right:nn":"Russland","name:right:xh":"IRashiya","name:right:nl":"Russische Federatie","name:right:wa":"Feder\u00e5cion d' R\u00fbsseye","name:right:wo":"Federaasio\u014b bu Riisi","name:right:ne":"\u0930\u0941\u0938","name:right:na":"Ratsiya","name:right:ps":"\u0631\u0648\u0633\u06cc\u0647","name:right:ny":"Russia","name:right:nv":"Bi\u02bc\u00e9\u00e9\u02bc \u0141ich\u00ed\u00ed\u02bc\u00ed Bik\u00e9yah","name:left:mg":"Litoania","kind_detail":"2","name:left:tr":"Litvanya","name:right:gu":"\u0ab0\u0ab6\u0abf\u0aaf\u0abe","name:right:gv":"Yn Roosh","name:right:pt":"R\u00fassia","name:left:mk":"\u041b\u0438\u0442\u0432\u0430\u043d\u0438\u0458\u0430","name:left:mi":"Ritu\u0101nia","name:left:ts":"Lithuania","name:left:tt":"\u041b\u0438\u0442\u0432\u0430","name:left:mn":"\u041b\u0438\u0442\u0432\u0430","name:left:ml":"\u0d32\u0d3f\u0d24\u0d4d\u0d35\u0d3e\u0d28\u0d3f\u0d2f","name:left:th":"\u0e1b\u0e23\u0e30\u0e40\u0e17\u0e28\u0e25\u0e34\u0e17\u0e31\u0e27\u0e40\u0e19\u0e35\u0e22","name:right:pa":"\u0a30\u0a42\u0a38","name:left:tk":"Litwa","name:left:tl":"Litwaniya","name:left:mt":"Litwanja","name:right:gl":"Rusia","name:left:my":"\u101c\u1005\u103a\u101e\u1030\u101a\u1031\u1038\u1014\u102e\u1038\u101a\u102c\u1038\u1014\u102d\u102f\u1004\u103a\u1004\u1036","name:right:gn":"Rrusia","name:right:pl":"Rosja","name:left:te":"\u0c32\u0c3f\u0c25\u0c41\u0c35\u0c47\u0c28\u0c3f\u0c2f\u0c3e","name:left:tg":"\u041b\u0438\u0442\u0432\u0430","name:left:ms":"Lithuania","name:left:mr":"\u0932\u093f\u0925\u0941\u090f\u0928\u093f\u092f\u093e","name:right:tr":"Rusya Federasyonu","name:left:da":"Litauen","name:left:de":"Litauen","name:left:dz":"\u0f63\u0f72\u0f0b\u0f50\u0f74\u0f0b\u0f53\u0f72\u0f0b\u0f61\u0f0d","name:right:ga":"An R\u00fais","name:left:dv":"\u078d\u07a8\u078c\u07aa\u0787\u07ad\u0782\u07a8\u0787\u07a7","name:right:lg":"Rwasha","name:right:ug":"\u0631\u0648\u0633\u0649\u064a\u06d5","name:left:hi":"\u0932\u093f\u0925\u0941\u0906\u0928\u093f\u092f\u093e","name:right:lb":"Russland","name:right:uk":"\u0420\u043e\u0441\u0456\u044f","name:left:he":"\u05dc\u05d9\u05d8\u05d0","name:right:ln":"Rus\u00ed","name:right:lo":"\u0ea5\u0eb1\u0e94\u0ec0\u0e8a\u0eb1\u0ebd","name:right:li":"Rusland","name:right:lt":"Rusija","name:right:ur":"\u0631\u0648\u0633","name:right:lv":"Krievija","name:left:hy":"\u053c\u056b\u057f\u057e\u0561","name:left:ta":"\u0bb2\u0bbf\u0ba4\u0bcd\u0ba4\u0bc1\u0bb5\u0bc7\u0ba9\u0bbf\u0baf\u0bbe","name:left:ht":"Lityani","name:left:hu":"Litv\u00e1nia","name:left:hr":"Litva","source":"openstreetmap.org","sort_rank":262,"name:right:gd":"An Ruis","name:right:os":"\u0423\u00e6\u0440\u00e6\u0441\u0435","name:left:cy":"Lithwania","name:right:es":"Rusia","name:right:sr":"\u0420\u0443\u0441\u0438\u0458\u0430","name:right:eu":"Errusia","name:right:et":"Venemaa","name:left:os":"\u041b\u0438\u0442\u0432\u0430","name:left:or":"\u0b32\u0b3f\u0b25\u0b41\u0b06\u0b28\u0b3f\u0b06","name:left:ve":"Lituania","name:right:ee":"Russia","name:left:vo":"Lietuv\u00e4n","name:left:oc":"Litu\u00e0nia","name:right:eo":"Rusujo","name:right:en":"Russia","name:right:el":"\u03a1\u03c9\u03c3\u03af\u03b1","name:left:ff":"Lituwaniya","name:left:fa":"\u0644\u06cc\u062a\u0648\u0627\u0646\u06cc","name:left:fo":"Litava","name:left:fj":"Lituani","name:right:sk":"Rusko","name:left:fi":"Liettua","name:left:fr":"Lituanie","name:left:cs":"Litva","name:right:jv":"Rusia","name:left:fy":"Litouwen","name:right:ja":"\u30ed\u30b7\u30a2","name:right:sq":"Rusia","name:right:ss":"IRashiya","name:left:ja":"\u30ea\u30c8\u30a2\u30cb\u30a2","name:right:su":"Rusia","name:right:st":"Russia","name:right:sw":"Shirikisho la Urusi","name:right:sv":"Ryssland","name:right:si":"\u0dbb\u0dd4\u0dc3\u0dd2\u0dba\u0dcf\u0dc0","name:right:sh":"Rusija","name:left:qu":"Lituwa","name:right:sm":"Lusia","name:right:sl":"Rusija","name:right:so":"Ruushka","name:right:sn":"Russia","name:right:sc":"R\u00f9ssia","name:left:jv":"Lituania","id":-72596,"name:right:sg":"Rus\u00efi","name:right:ch":"Russia","name:right:co":"Russia","name:right:ca":"R\u00fassia","name:right:se":"Ruo\u0161\u0161a","name:right:ce":"\u0420\u043e\u0441\u0441\u0438","name:right:sd":"\u0631\u0648\u0633","name:right:cy":"Rwsia","name:right:zh-yue":"\u4fc4\u7f85\u65af","name:right:cs":"Rusko","name:left:pl":"Litwa","name:right:cu":"\u0420\u0461\u0441\u0457\ua657","name:right:iu":"\u1405\u14db\u14f4","name:right:cv":"\u0420\u0430\u00e7\u00e7\u0435\u0439 \u041f\u0430\u0442\u0448\u0430\u043b\u0103\u0445\u0115","name:left:ar":"\u0644\u064a\u062a\u0648\u0627\u0646\u064a\u0627","name:right:is":"R\u00fassland","name:left:az":"Litva","name:left:ay":"Litua\u00f1a","name:right:rw":"Uburusiya","name:left:af":"Litaue","name:left:ab":"\u041b\u0438\u0442\u0432\u0430","name:left:an":"Lituania","name:left:am":"\u120a\u1275\u12cc\u1292\u12eb","name:left:ak":"Lituania","name:right:io":"Rusia","name:left:zh-yue":"\u7acb\u9676\u5b9b","name:right:ik":"Russia","name:left:rw":"Lituwaniya","name:right:hy":"\u054c\u0578\u0582\u057d\u0561\u057d\u057f\u0561\u0576","name:left:lb":"Litauen","alt_name:left:eo":"Litovio","name:left:lg":"Lithueenia","name:left:su":"Lituania","name:left:st":"Lituania","name:right:hr":"Ruska Federacija","name:left:sv":"Litauen","name:left:sq":"Lituania","name:right:hu":"Oroszorsz\u00e1g","name:left:ss":"Lithuwani","name:left:sr":"\u041b\u0438\u0442\u0432\u0430\u043d\u0438\u0458\u0430","name:right:hi":"\u0930\u0942\u0938","name:left:so":"Lithuaniya","name:left:sh":"Litvanija","name:left:sk":"Litva","name:right:ha":"Rasha","name:left:sg":"Lituan\u00efi","name:left:sa":"\u0932\u0947\u0924\u0941\u0935\u093e","name:right:he":"\u05e8\u05d5\u05e1\u05d9\u05d4","name:left:sc":"Litu\u00e0nia","name:right:la":"Russia","name:right:af":"Rusland","name:left:co":"Lituania","name:right:ab":"\u0423\u0440\u044b\u0441\u0442\u04d9\u044b\u043b\u0430","name:left:ce":"\u041b\u0438\u0442\u0432\u0430","name:right:an":"Rusia","name:right:am":"\u1229\u1232\u12eb","name:left:ca":"Litu\u00e0nia","name:right:av":"\u0420\u043e\u0441\u0441\u0438\u044f\u043b\u044a\u0443\u043b \u0424\u0435\u0434\u0435\u0440\u0430\u0446\u0438\u044f","name:right:as":"\u09f0\u09c1\u09b6\u09bf\u09af\u09be","name:right:ar":"\u0631\u0648\u0633\u064a\u0627","name:left:cu":"\u041b\u0438\u0442\u044a\u0432\u0430","name:left:cv":"\u041b\u0438\u0442\u0432\u0430","name:right:az":"Rusiya","name:right:ay":"Rusiya","name:right:ak":"Russia","name:right:rm":"Russia","name":"Lietuva - \u0420\u043e\u0441\u0441\u0438\u044f","name:right:zu":"IRashiya","name:left:zu":"ILithuwaniya","name:left:zh":"\u7acb\u9676\u5b9b","name:right:za":"Ezlozswh Lienzbangh","name:right:zh":"\u4fc4\u7f57\u65af","official_name:left":"Lietuvos Respublika","name:left:uz":"Litva","name:right:fr":"F\u00e9d\u00e9ration de Russie","name:left:ps":"\u0644\u06d0\u062a\u0648\u0627\u0646\u064a\u0627","name:left:ny":"Lithuania","name:left:nv":"\u0141it\u02bcoow\u0119\u0301\u0119ya","name:left:ur":"\u0644\u062a\u06be\u0648\u0648\u06cc\u0646\u06cc\u0627","id:right":-60189,"name:left:uk":"\u041b\u0438\u0442\u0432\u0430","name:left:no":"Litauen","name:left:nl":"Litouwen","alt_name:right:eo":"Rusio;Ruslando","name:right:fa":"\u0631\u0648\u0633\u06cc\u0647","name:right:fo":"Russland","name:left:ne":"\u0932\u093f\u0925\u0941\u0906\u0928\u093f\u092f\u093e","name:left:ug":"\u0644\u0649\u062a\u06cb\u0627","name:right:fi":"Ven\u00e4j\u00e4","name:left:eo":"Litovujo","name:left:en":"Lithuania","name:left:el":"\u039b\u03b9\u03b8\u03bf\u03c5\u03b1\u03bd\u03af\u03b1","name:left:ee":"Lithuania","name:right:tt":"\u0420\u0443\u0441\u0438\u044f","name:left:es":"Lituania","name:left:ie":"Lituania","name:left:eu":"Lituania","name:left:et":"Leedu","name:right:om":"Raashiyaa","name:right:zh-min-nan":"L\u014d\u0358-se-a","name:left:id":"Lituania","old_name:right":"\u0420\u0443\u0441\u044c;\u0417\u043e\u043b\u043e\u0442\u0430\u044f \u041e\u0440\u0434\u0430;\u0420\u0443\u0441\u0441\u043a\u043e\u0435 \u0426\u0430\u0440\u0441\u0442\u0432\u043e;\u0420\u043e\u0441\u0441\u0438\u0439\u0441\u043a\u0430\u044f \u0418\u043c\u043f\u0435\u0440\u0438\u044f;\u0421\u043e\u044e\u0437 \u0421\u043e\u0432\u0435\u0442\u0441\u043a\u0438\u0445 \u0421\u043e\u0446\u0438\u0430\u043b\u0438\u0441\u0442\u0438\u0447\u0435\u0441\u043a\u0438\u0445 \u0420\u0435\u0441\u043f\u0443\u0431\u043b\u0438\u043a","name:right:oc":"Russia","name:left:ia":"Lituania","short_name:right":"\u0420\u0424","name:right:kn":"\u0cb0\u0cb7\u0ccd\u0caf\u0cbe","name:right:uz":"Rossiya Federatsiyasi","osm_relation":true,"name:right:or":"\u0b0b\u0b37\u0b3f\u0b06","name:left:pt":"Litu\u00e2nia","name:right:th":"\u0e1b\u0e23\u0e30\u0e40\u0e17\u0e28\u0e23\u0e31\u0e2a\u0e40\u0e0b\u0e35\u0e22","name:right:no":"Rusland","name:right:kv":"\u0420\u043e\u0447\u043c\u0443","name:left:gl":"Lituania - Lietuva","name:left:wa":"Litwaneye","min_zoom":8.0,"name:left:sl":"Litva","name:left:ln":"Litwani","name:left:wo":"Lituwaani","name:left:ga":"An Liotu\u00e1in","name:left:it":"Lituania","name:left:gd":"Liotu\u00e0inia","int_name:right":"Russia","name:left:gn":"Litua\u00f1a","name:left:gu":"\u0ab2\u0abf\u0aa5\u0ac1\u0a86\u0aa8\u0abf\u0aaf\u0abe","name:left:gv":"Yn Litaan","official_name:right":"\u0420\u043e\u0441\u0441\u0438\u0439\u0441\u043a\u0430\u044f \u0424\u0435\u0434\u0435\u0440\u0430\u0446\u0438\u044f","name:left":"Lietuva","name:right:mk":"\u0420\u0443\u0441\u0438\u0458\u0430","name:right:mi":"R\u016bhia","name:right:ve":"Rashia","name:right:mn":"\u041e\u0440\u043e\u0441\u044b\u043d \u0425\u043e\u043b\u0431\u043e\u043e\u043d\u044b \u0423\u043b\u0441","name:right:ml":"\u0d31\u0d37\u0d4d\u0d2f","name:right:vo":"Rus\u00e4n","name:right:mg":"Rosia","name:right:vi":"Li\u00ean bang Nga","name:right:my":"\u101b\u102f\u101b\u103e\u102c\u1038\u1014\u102d\u102f\u1004\u103a\u1004\u1036","name:right:ms":"Rusia","name:right:mr":"\u0930\u0936\u093f\u092f\u093e","name:right:fy":"Rusl\u00e2n","name:right:mt":"Russja","name:left:nn":"Litauen","kind":"country","name:left:br":"Lituania","name:left:bs":"Litvanija","int_name:left":"Lithuania","old_name:right:pl":"Zwi\u0105zek Socjalistycznych Republik Radzieckich","name:left:ba":"\u041b\u0438\u0442\u0432\u0430","name:left:bg":"\u041b\u0438\u0442\u0432\u0430","name:left:be":"\u041b\u0456\u0442\u0432\u0430","name:right:ff":"Roosiya","name:left:bi":"Litwania","name:left:bn":"\u09b2\u09bf\u09a5\u09c1\u09af\u09bc\u09be\u09a8\u09bf\u09af\u09bc\u09be","name:left:bo":"\u0f63\u0f72\u0f0b\u0f50\u0f74\u0f0b\u0f68\u0f7a\u0f0b\u0f53\u0f72\u0f0b\u0f61\u0f0d","name:right":"\u0420\u043e\u0441\u0441\u0438\u044f","name:left:yo":"Litu\u00e9n\u00ed\u00e0","name:left:yi":"\u05dc\u05d9\u05d8\u05e2","id:left":-72596,"name:left:na":"Rituainiya","name:right:ka":"\u10e0\u10e3\u10e1\u10d4\u10d7\u10d8","name:left:io":"Lituania","name:right:ty":"R\u016btia","name:right:kg":"Rusia","name:right:ki":"Russia","name:right:kk":"\u0420\u0435\u0441\u0435\u0439","name:right:tw":"Russia","name:right:km":"\u179a\u17bb\u179f\u17d2\u179f\u17ca\u17b8","name:right:kl":"Ruslandi","name:right:ko":"\ub7ec\uc2dc\uc544","name:right:ts":"Russia","name:right:tl":"Pederasyong Ruso","name:right:ks":"\u0631\u0648\u0657\u0633","name:right:to":"L\u016bsia","name:right:ku":"R\u00fbsya","name:right:ti":"\u122b\u123b","name:right:kw":"Russi","name:right:tk":"Russi\u00fda","name:right:ky":"\u041e\u0440\u0443\u0441\u0438\u044f","name:right:te":"\u0c30\u0c37\u0c4d\u0c2f\u0c3e","name:left:iu":"\u14d5\u140b\u1450\u1559","name:right:tg":"\u0420\u0443\u0441\u0438\u044f","name:left:is":"Lith\u00e1en","name:right:ta":"\u0b89\u0bb0\u0bc1\u0b9a\u0bbf\u0baf\u0bbe","name:right:de":"Russland","name:right:da":"Rusland","name:left:rn":"Lituania","name:right:dz":"\u0f62\u0f0b\u0f64\u0f72\u0f0b\u0f61\u0f71\u0f53\u0f0b\u0f55\u0f7a\u0f0b\u0f4c\u0f72\u0f0b\u0f62\u0f7a\u0f0b\u0f64\u0f71\u0f53","name:right:dv":"\u0783\u07ab\u0790\u07a9\u0788\u07a8\u078d\u07a7\u078c\u07b0","name:right:ht":"Risi"},"arcs":[[0],[1]]},{"type":"LineString","properties":{"name:right:uk":"\u0428\u044f\u0443\u043b\u044f\u0439\u0441\u044c\u043a\u0438\u0439 \u043f\u043e\u0432\u0456\u0442","name:left:be":"\u0422\u0430\u045e\u0440\u0430\u0433\u0441\u043a\u0456 \u043f\u0430\u0432\u0435\u0442","id:right":-1256237,"name:left:uk":"\u0422\u0430\u0443\u0440\u0430\u0433\u0441\u044c\u043a\u0438\u0439 \u043f\u043e\u0432\u0456\u0442","min_zoom":8.0,"id:left":-1307305,"name:left:en":"Taurage County","name:left:ru":"\u0422\u0430\u0443\u0440\u0430\u0433\u0441\u043a\u0438\u0439 \u0443\u0435\u0437\u0434","name:right:ru":"\u0428\u044f\u0443\u043b\u044f\u0439\u0441\u043a\u0438\u0439 \u0443\u0435\u0437\u0434","name:right:pl":"Okr\u0119g szawelski","id":-1307305,"osm_relation":true,"name:right":"\u0160iauli\u0173 apskritis","kind":"region","name":"Taurag\u0117s apskritis - \u0160iauli\u0173 apskritis","source":"openstreetmap.org","sort_rank":256,"kind_detail":"4","name:left:de":"Bezirk Tauroggen","name:right:en":"Siauliai County","name:right:be":"\u0428\u0430\u045e\u043b\u044f\u0439\u0441\u043a\u0456 \u043f\u0430\u0432\u0435\u0442","name:left:pl":"Okr\u0119g tauroski","name:right:de":"Bezirk Schaulen","name:left":"Taurag\u0117s apskritis"},"arcs":[2]},{"type":"LineString","properties":{"name:right:hy":"\u053f\u0561\u056c\u056b\u0576\u056b\u0576\u0563\u0580\u0561\u0564\u056b \u0574\u0561\u0580\u0566","name:right:nl":"Oblast Kaliningrad","name:right:ja":"\u30ab\u30ea\u30fc\u30cb\u30f3\u30b0\u30e9\u30fc\u30c9\u5dde","name:right:yi":"\u05e7\u05d0\u05dc\u05d9\u05e0\u05d9\u05e0\u05d2\u05e8\u05d0\u05d3 \u05d0\u05d1\u05dc\u05d0\u05e1\u05d8","name:right:uk":"\u041a\u0430\u043b\u0456\u043d\u0456\u043d\u0433\u0440\u0430\u0434\u0441\u044c\u043a\u0430 \u043e\u0431\u043b\u0430\u0441\u0442\u044c","name:right:sr":"\u041a\u0430\u043b\u0438\u045a\u0438\u043d\u0433\u0440\u0430\u0434\u0441\u043a\u0430 \u043e\u0431\u043b\u0430\u0441\u0442","name:right:hu":"Kalinyingr\u00e1di ter\u00fclet","id:right":-103906,"name:right:lt":"Kaliningrado sritis","name:right:sh":"Kalinjingradska oblast","min_zoom":8.0,"name:right:sl":"Kaliningrajska oblast","name:left:be":"\u0422\u0430\u045e\u0440\u0430\u0433\u0441\u043a\u0456 \u043f\u0430\u0432\u0435\u0442","name:right:eo":"Kaliningrada provinco","name:right:uz":"Kaliningrad viloyati","name:right:he":"\u05de\u05d7\u05d5\u05d6 \u05e7\u05dc\u05d9\u05e0\u05d9\u05e0\u05d2\u05e8\u05d3","name:right":"\u041a\u0430\u043b\u0438\u043d\u0438\u043d\u0433\u0440\u0430\u0434\u0441\u043a\u0430\u044f \u043e\u0431\u043b\u0430\u0441\u0442\u044c","name:left:en":"Taurage County","name:right:ca":"Prov\u00edncia de Kaliningrad","kind_detail":"4","name:right:ce":"\u041a\u0430\u043b\u0438\u043d\u0438\u043d\u0433\u0440\u0430\u0434\u0430\u043d \u043e\u0431\u043b\u0430\u0441\u0442\u044c","name:right:sk":"Kaliningradsk\u00e1 oblas\u0165","id":-1307305,"source":"openstreetmap.org","osm_relation":true,"id:left":-1307305,"name:right:cs":"Kaliningradsk\u00e1 oblast","name:right:az":"Kalininqrad Vilay\u0259ti","name:right:cv":"\u041a\u0430\u043b\u0438\u043d\u0438\u043d\u0433\u0440\u0430\u0434 \u043e\u0431\u043b\u0430\u00e7\u0115","name:right:ka":"\u10d9\u10d0\u10da\u10d8\u10dc\u10d8\u10dc\u10d2\u10e0\u10d0\u10d3\u10d8\u10e1 \u10dd\u10da\u10e5\u10d8","name:right:pt":"Oblast de Kaliningrado","name:right:mn":"\u041a\u0430\u043b\u0438\u043d\u0438\u043d\u0433\u0440\u0430\u0434 \u043c\u0443\u0436","name:right:et":"Kaliningradi oblast","name:left:pl":"Okr\u0119g tauroski","name:right:it":"Oblast' di Kaliningrad","name:right:ko":"\uce7c\ub9ac\ub2cc\uadf8\ub77c\ub4dc \uc8fc","name:right:ga":"C\u00faige Kaliningrad","name:right:ro":"Regiunea Kaliningrad","name:right:kv":"\u041a\u0430\u043b\u0438\u043d\u0438\u043d\u0433\u0440\u0430\u0434 \u043e\u0431\u043b\u0430\u0441\u044c\u0442","name:right:ms":"Wilayah Kaliningrad","alt_name:right:de":"Kaliningrader Gebiet","name:left:ru":"\u0422\u0430\u0443\u0440\u0430\u0433\u0441\u043a\u0438\u0439 \u0443\u0435\u0437\u0434","name:right:pl":"Obw\u00f3d kaliningradzki","name:right:en":"Kaliningrad","name:right:os":"\u041a\u0430\u043b\u0438\u043d\u0438\u043d\u0433\u0440\u0430\u0434\u044b \u043e\u0431\u043b\u00e6\u0441\u0442","name:right:el":"\u03a0\u03b5\u03c1\u03b9\u03c6\u03ad\u03c1\u03b5\u03b9\u03b1 \u039a\u03b1\u03bb\u03af\u03bd\u03b9\u03bd\u03b3\u03ba\u03c1\u03b1\u03bd\u03c4","name:left:uk":"\u0422\u0430\u0443\u0440\u0430\u0433\u0441\u044c\u043a\u0438\u0439 \u043f\u043e\u0432\u0456\u0442","kind":"region","name":"Taurag\u0117s apskritis - \u041a\u0430\u043b\u0438\u043d\u0438\u043d\u0433\u0440\u0430\u0434\u0441\u043a\u0430\u044f \u043e\u0431\u043b\u0430\u0441\u0442\u044c","name:right:de":"Oblast Kaliningrad","name:right:lv":"Ka\u013ci\u0146ingradas apgabals","name:left:de":"Bezirk Tauroggen","name:right:be":"\u041a\u0430\u043b\u0456\u043d\u0456\u043d\u0433\u0440\u0430\u0434\u0441\u043a\u0430\u044f \u0432\u043e\u0431\u043b\u0430\u0441\u0446\u044c","sort_rank":256,"name:right:tt":"\u041a\u0430\u043b\u0438\u043d\u0438\u043d\u0433\u0440\u0430\u0434 \u04e9\u043b\u043a\u04d9\u0441\u0435","name:right:ku":"Oblasta Kaliningrad\u00ea","name:right:zh":"\u52a0\u91cc\u5b81\u683c\u52d2\u5dde","name:left":"Taurag\u0117s apskritis"},"arcs":[3]},{"type":"LineString","properties":{"kind":"region","name:en":"Taurage County","name":"Taurag\u0117s apskritis","sort_rank":256,"kind_detail":"4","name:de":"Bezirk Tauroggen","source":"openstreetmap.org","min_zoom":8.0,"name:uk":"\u0422\u0430\u0443\u0440\u0430\u0433\u0441\u044c\u043a\u0438\u0439 \u043f\u043e\u0432\u0456\u0442","name:be":"\u0422\u0430\u045e\u0440\u0430\u0433\u0441\u043a\u0456 \u043f\u0430\u0432\u0435\u0442","name:ru":"\u0422\u0430\u0443\u0440\u0430\u0433\u0441\u043a\u0438\u0439 \u0443\u0435\u0437\u0434","name:pl":"Okr\u0119g tauroski","id":-1307305,"osm_relation":true},"arcs":[4]},{"type":"LineString","properties":{"name:right:uk":"\u0422\u0435\u043b\u044c\u0448\u044f\u0439\u0441\u044c\u043a\u0438\u0439 \u043f\u043e\u0432\u0456\u0442","name:left:be":"\u0428\u0430\u045e\u043b\u044f\u0439\u0441\u043a\u0456 \u043f\u0430\u0432\u0435\u0442","id:right":-1211025,"name:left:uk":"\u0428\u044f\u0443\u043b\u044f\u0439\u0441\u044c\u043a\u0438\u0439 \u043f\u043e\u0432\u0456\u0442","min_zoom":8.0,"id:left":-1256237,"name:left:en":"Siauliai County","name:left:ru":"\u0428\u044f\u0443\u043b\u044f\u0439\u0441\u043a\u0438\u0439 \u0443\u0435\u0437\u0434","name:right:ru":"\u0422\u0435\u043b\u044c\u0448\u044f\u0439\u0441\u043a\u0438\u0439 \u0443\u0435\u0437\u0434","name:right:pl":"Okr\u0119g telsza\u0144ski","id":-1256237,"osm_relation":true,"name:right":"Tel\u0161i\u0173 apskritis","kind":"region","name":"\u0160iauli\u0173 apskritis - Tel\u0161i\u0173 apskritis","source":"openstreetmap.org","sort_rank":256,"kind_detail":"4","name:left:de":"Bezirk Schaulen","name:right:en":"Telsiai County","name:right:be":"\u0426\u044f\u043b\u044c\u0448\u044d\u0439\u0441\u043a\u0456 \u043f\u0430\u0432\u0435\u0442","name:left:pl":"Okr\u0119g szawelski","name:right:de":"Bezirk Telsche","name:left":"\u0160iauli\u0173 apskritis"},"arcs":[5]},{"type":"LineString","properties":{"name:right:no":"Panev\u0117\u017eys fylke","name:right:ja":"\u30d1\u30cd\u30f4\u30a7\u30b8\u30fc\u30b9\u90e1","name:right:uk":"\u041f\u0430\u043d\u0435\u0432\u0435\u0436\u0438\u0441\u044c\u043a\u0438\u0439 \u043f\u043e\u0432\u0456\u0442","name:right:hr":"Okrug Panev\u0117\u017eis","name:left:be":"\u0428\u0430\u045e\u043b\u044f\u0439\u0441\u043a\u0456 \u043f\u0430\u0432\u0435\u0442","name:right:sw":"Wilaya ya Panev\u0117\u017eys","name:right:sv":"Panev\u0117\u017eys l\u00e4n","name:left:uk":"\u0428\u044f\u0443\u043b\u044f\u0439\u0441\u044c\u043a\u0438\u0439 \u043f\u043e\u0432\u0456\u0442","name:right:sh":"Okrug Panev\u0117\u017eis","min_zoom":8.0,"name:right:fa":"\u0634\u0647\u0631\u0633\u062a\u0627\u0646 \u067e\u0627\u0646\u0647\u200c\u0648\u0698\u06cc\u0633","name:right:sa":"\u092a\u0928\u0947\u0935\u0947\u091c\u093f\u092e\u0923\u094d\u0921\u0932\u092e\u094d","name:right:he":"\u05de\u05d7\u05d5\u05d6 \u05e4\u05d5\u05e0\u05d9\u05d1\u05d6'","name:right":"Panev\u0117\u017eio apskritis","name:right:tg":"\u0412\u0438\u043b\u043e\u044f\u0442\u0438 \u041f\u0430\u043d\u0435\u0432\u0435\u0436\u0438\u0441","name:left:en":"Siauliai County","sort_rank":256,"kind_detail":"4","id":-1256237,"source":"openstreetmap.org","name:right:ar":"\u0645\u0642\u0627\u0637\u0639\u0629 \u0628\u0627\u0646\u064a\u0641\u064a\u0632\u064a\u0633","id:left":-1256237,"name:right:cs":"Panev\u0117\u017eysk\u00fd kraj","name:right:fi":"Panev\u0117\u017eysin l\u00e4\u00e4ni","name:left":"\u0160iauli\u0173 apskritis","name:right:ka":"\u10de\u10d0\u10dc\u10d4\u10d5\u10d4\u10df\u10d8\u10e1\u10d8\u10e1 \u10db\u10d0\u10d6\u10e0\u10d0","name:right:sr":"\u041f\u0430\u043d\u0435\u0432\u0435\u0436\u0438\u0441\u043a\u0438 \u043e\u043a\u0440\u0443\u0433","name:right:bg":"\u041f\u0430\u043d\u0435\u0432\u0435\u0436\u0438\u0441\u043a\u0438 \u043e\u043a\u0440\u044a\u0433","name:right:eu":"Panev\u0117\u017eysko konderria","name:right:et":"Panev\u0117\u017eysi maakond","name:left:pl":"Okr\u0119g szawelski","name:right:it":"Contea di Panev\u0117\u017eys","name:right:ko":"\ud30c\ub124\ubca0\uc9c0\uc2a4 \uc8fc","name:right:ru":"\u041f\u0430\u043d\u0435\u0432\u0435\u0436\u0441\u043a\u0438\u0439 \u0443\u0435\u0437\u0434","name:right:es":"Provincia de Panev\u0117\u017eys","name:right:ga":"Contae Panev\u0117\u017eys","name:right:ro":"Jude\u021bul Panev\u0117\u017eys","name:right:kw":"Konteth Panev\u0117\u017eys","name:left:ru":"\u0428\u044f\u0443\u043b\u044f\u0439\u0441\u043a\u0438\u0439 \u0443\u0435\u0437\u0434","id:right":-1028503,"name:right:pl":"Okr\u0119g poniewieski","name:right:en":"Panevezys County","osm_relation":true,"name:right:el":"\u0395\u03c0\u03b1\u03c1\u03c7\u03af\u03b1 \u03a0\u03b1\u03bd\u03b5\u03b2\u03b5\u03b6\u03af\u03c2","kind":"region","name":"\u0160iauli\u0173 apskritis - Panev\u0117\u017eio apskritis","name:right:eo":"Distrikto Panev\u0117\u017eys","name:right:ur":"\u067e\u0627\u0646\u06cc\u0648\u06cc\u0698\u06cc\u0633 \u06a9\u0627\u0624\u0646\u0679\u06cc","name:right:de":"Bezirk Ponewiesch","name:right:lv":"Panev\u0113\u017eas apri\u0146\u0137is","name:left:de":"Bezirk Schaulen","name:right:be":"\u041f\u0430\u043d\u044f\u0432\u0435\u0436\u044b\u0441\u043a\u0456 \u043f\u0430\u0432\u0435\u0442","name:right:ca":"Comtat de Panev\u0117\u017eys","name:right:zh":"\u5e15\u6d85\u97cb\u65e5\u65af\u7e23"},"arcs":[6]},{"type":"LineString","properties":{"kind":"region","name:en":"Siauliai County","name":"\u0160iauli\u0173 apskritis","sort_rank":256,"kind_detail":"4","name:de":"Bezirk Schaulen","source":"openstreetmap.org","min_zoom":8.0,"name:uk":"\u0428\u044f\u0443\u043b\u044f\u0439\u0441\u044c\u043a\u0438\u0439 \u043f\u043e\u0432\u0456\u0442","name:be":"\u0428\u0430\u045e\u043b\u044f\u0439\u0441\u043a\u0456 \u043f\u0430\u0432\u0435\u0442","name:ru":"\u0428\u044f\u0443\u043b\u044f\u0439\u0441\u043a\u0438\u0439 \u0443\u0435\u0437\u0434","name:pl":"Okr\u0119g szawelski","id":-1256237,"osm_relation":true},"arcs":[7]},{"type":"LineString","properties":{"name:ro":"Jude\u021bul Panev\u0117\u017eys","name:ka":"\u10de\u10d0\u10dc\u10d4\u10d5\u10d4\u10df\u10d8\u10e1\u10d8\u10e1 \u10db\u10d0\u10d6\u10e0\u10d0","name:ko":"\ud30c\ub124\ubca0\uc9c0\uc2a4 \uc8fc","name:ar":"\u0645\u0642\u0627\u0637\u0639\u0629 \u0628\u0627\u0646\u064a\u0641\u064a\u0632\u064a\u0633","name:cs":"Panev\u0117\u017eysk\u00fd kraj","name:kw":"Konteth Panev\u0117\u017eys","min_zoom":8.0,"name:it":"Contea di Panev\u0117\u017eys","name:be":"\u041f\u0430\u043d\u044f\u0432\u0435\u0436\u044b\u0441\u043a\u0456 \u043f\u0430\u0432\u0435\u0442","name:ru":"\u041f\u0430\u043d\u0435\u0432\u0435\u0436\u0441\u043a\u0438\u0439 \u0443\u0435\u0437\u0434","name:pl":"Okr\u0119g poniewieski","id":-1028503,"name:ca":"Comtat de Panev\u0117\u017eys","name:fa":"\u0634\u0647\u0631\u0633\u062a\u0627\u0646 \u067e\u0627\u0646\u0647\u200c\u0648\u0698\u06cc\u0633","sort_rank":256,"kind_detail":"4","name:sh":"Okrug Panev\u0117\u017eis","kind":"region","name:de":"Bezirk Ponewiesch","source":"openstreetmap.org","name:tg":"\u0412\u0438\u043b\u043e\u044f\u0442\u0438 \u041f\u0430\u043d\u0435\u0432\u0435\u0436\u0438\u0441","name:lv":"Panev\u0113\u017eas apri\u0146\u0137is","name:ja":"\u30d1\u30cd\u30f4\u30a7\u30b8\u30fc\u30b9\u90e1","name:no":"Panev\u0117\u017eys fylke","name:he":"\u05de\u05d7\u05d5\u05d6 \u05e4\u05d5\u05e0\u05d9\u05d1\u05d6'","name:eo":"Distrikto Panev\u0117\u017eys","name:sa":"\u092a\u0928\u0947\u0935\u0947\u091c\u093f\u092e\u0923\u094d\u0921\u0932\u092e\u094d","name:ur":"\u067e\u0627\u0646\u06cc\u0648\u06cc\u0698\u06cc\u0633 \u06a9\u0627\u0624\u0646\u0679\u06cc","name:uk":"\u041f\u0430\u043d\u0435\u0432\u0435\u0436\u0438\u0441\u044c\u043a\u0438\u0439 \u043f\u043e\u0432\u0456\u0442","name:sw":"Wilaya ya Panev\u0117\u017eys","name:sv":"Panev\u0117\u017eys l\u00e4n","name:bg":"\u041f\u0430\u043d\u0435\u0432\u0435\u0436\u0438\u0441\u043a\u0438 \u043e\u043a\u0440\u044a\u0433","name:hr":"Okrug Panev\u0117\u017eis","name:sr":"\u041f\u0430\u043d\u0435\u0432\u0435\u0436\u0438\u0441\u043a\u0438 \u043e\u043a\u0440\u0443\u0433","osm_relation":true,"name:el":"\u0395\u03c0\u03b1\u03c1\u03c7\u03af\u03b1 \u03a0\u03b1\u03bd\u03b5\u03b2\u03b5\u03b6\u03af\u03c2","name:ga":"Contae Panev\u0117\u017eys","name:en":"Panevezys County","name":"Panev\u0117\u017eio apskritis","name:zh":"\u5e15\u6d85\u97cb\u65e5\u65af\u7e23","name:fi":"Panev\u0117\u017eysin l\u00e4\u00e4ni","name:eu":"Panev\u0117\u017eysko konderria","name:et":"Panev\u0117\u017eysi maakond","name:es":"Provincia de Panev\u0117\u017eys"},"arcs":[8]},{"type":"MultiLineString","properties":{"name:pt":"Oblast de Kaliningrado","name:az":"Kalininqrad Vilay\u0259ti","name:ms":"Wilayah Kaliningrad","name:ko":"\uce7c\ub9ac\ub2cc\uadf8\ub77c\ub4dc \uc8fc","name:cv":"\u041a\u0430\u043b\u0438\u043d\u0438\u043d\u0433\u0440\u0430\u0434 \u043e\u0431\u043b\u0430\u00e7\u0115","name:cs":"Kaliningradsk\u00e1 oblast","name:tt":"\u041a\u0430\u043b\u0438\u043d\u0438\u043d\u0433\u0440\u0430\u0434 \u04e9\u043b\u043a\u04d9\u0441\u0435","name:kv":"\u041a\u0430\u043b\u0438\u043d\u0438\u043d\u0433\u0440\u0430\u0434 \u043e\u0431\u043b\u0430\u0441\u044c\u0442","min_zoom":8.0,"name:ro":"Regiunea Kaliningrad","name:it":"Oblast' di Kaliningrad","name:os":"\u041a\u0430\u043b\u0438\u043d\u0438\u043d\u0433\u0440\u0430\u0434\u044b \u043e\u0431\u043b\u00e6\u0441\u0442","name:lv":"Ka\u013ci\u0146ingradas apgabals","name:ce":"\u041a\u0430\u043b\u0438\u043d\u0438\u043d\u0433\u0440\u0430\u0434\u0430\u043d \u043e\u0431\u043b\u0430\u0441\u0442\u044c","name:mn":"\u041a\u0430\u043b\u0438\u043d\u0438\u043d\u0433\u0440\u0430\u0434 \u043c\u0443\u0436","name:pl":"Obw\u00f3d kaliningradzki","name:ca":"Prov\u00edncia de Kaliningrad","name:ka":"\u10d9\u10d0\u10da\u10d8\u10dc\u10d8\u10dc\u10d2\u10e0\u10d0\u10d3\u10d8\u10e1 \u10dd\u10da\u10e5\u10d8","sort_rank":256,"kind_detail":"4","name:sh":"Kalinjingradska oblast","kind":"region","id":-103906,"source":"openstreetmap.org","name:de":"Oblast Kaliningrad","name:zh":"\u52a0\u91cc\u5b81\u683c\u52d2\u5dde","name:sl":"Kaliningrajska oblast","name:nl":"Oblast Kaliningrad","name:ja":"\u30ab\u30ea\u30fc\u30cb\u30f3\u30b0\u30e9\u30fc\u30c9\u5dde","name:lt":"Kaliningrado sritis","alt_name:de":"Kaliningrader Gebiet","name:he":"\u05de\u05d7\u05d5\u05d6 \u05e7\u05dc\u05d9\u05e0\u05d9\u05e0\u05d2\u05e8\u05d3","name:eo":"Kaliningrada provinco","name:sk":"Kaliningradsk\u00e1 oblas\u0165","name:uk":"\u041a\u0430\u043b\u0456\u043d\u0456\u043d\u0433\u0440\u0430\u0434\u0441\u044c\u043a\u0430 \u043e\u0431\u043b\u0430\u0441\u0442\u044c","name:hy":"\u053f\u0561\u056c\u056b\u0576\u056b\u0576\u0563\u0580\u0561\u0564\u056b \u0574\u0561\u0580\u0566","name:be":"\u041a\u0430\u043b\u0456\u043d\u0456\u043d\u0433\u0440\u0430\u0434\u0441\u043a\u0430\u044f \u0432\u043e\u0431\u043b\u0430\u0441\u0446\u044c","name:hu":"Kalinyingr\u00e1di ter\u00fclet","name:sr":"\u041a\u0430\u043b\u0438\u045a\u0438\u043d\u0433\u0440\u0430\u0434\u0441\u043a\u0430 \u043e\u0431\u043b\u0430\u0441\u0442","osm_relation":true,"name":"\u041a\u0430\u043b\u0438\u043d\u0438\u043d\u0433\u0440\u0430\u0434\u0441\u043a\u0430\u044f \u043e\u0431\u043b\u0430\u0441\u0442\u044c","name:el":"\u03a0\u03b5\u03c1\u03b9\u03c6\u03ad\u03c1\u03b5\u03b9\u03b1 \u039a\u03b1\u03bb\u03af\u03bd\u03b9\u03bd\u03b3\u03ba\u03c1\u03b1\u03bd\u03c4","name:ga":"C\u00faige Kaliningrad","name:en":"Kaliningrad","name:uz":"Kaliningrad viloyati","name:ku":"Oblasta Kaliningrad\u00ea","name:yi":"\u05e7\u05d0\u05dc\u05d9\u05e0\u05d9\u05e0\u05d2\u05e8\u05d0\u05d3 \u05d0\u05d1\u05dc\u05d0\u05e1\u05d8","name:et":"Kaliningradi oblast"},"arcs":[[9],[10]]}]},"roads":{"type":"GeometryCollection","geometries":[{"type":"MultiLineString","properties":{"bus_network":null,"network":"e-road","sort_rank":381,"kind_detail":"trunk","kind":"major_road","source":"openstreetmap.org","min_zoom":8.0,"bus_shield_text":"231","shield_text":"77"},"arcs":[[13],[14]]},{"type":"MultiLineString","properties":{"kind":"highway","network":"lt:national","sort_rank":383,"kind_detail":"motorway","source":"openstreetmap.org","min_zoom":8.0,"all_networks":["lt:national","e-road","e-road"],"shield_text":"1","ref":"A1","all_shield_texts":["1","67","85"]},"arcs":[[15],[16]]},{"type":"LineString","properties":{"kind":"major_road","network":"lt:national","sort_rank":380,"kind_detail":"primary","is_bicycle_related":true,"source":"openstreetmap.org","min_zoom":8.0,"shield_text":"157","name:ru":"\u0443\u043b\u0438\u0446\u0430 \u0422\u0438\u0442\u0443\u0432\u0435\u043d\u0443","ref":"157","id":230597016},"arcs":[17]},{"type":"LineString","properties":{"kind":"major_road","network":"lt:national","sort_rank":380,"kind_detail":"primary","source":"openstreetmap.org","min_zoom":8.0,"shield_text":"158","name:ru":"\u0443\u043b\u0438\u0446\u0430 \u0412\u0438\u043a\u0440\u0430\u0438\u0447\u044e","ref":"158","id":258248774},"arcs":[18]},{"type":"LineString","properties":{"kind":"major_road","network":"lt:regional","sort_rank":377,"kind_detail":"tertiary","is_bicycle_related":true,"bicycle_shield_text":"LT4","bicycle_network":"ncn","source":"openstreetmap.org","min_zoom":8.0,"shield_text":"3807","ref":"3807"},"arcs":[19]},{"type":"MultiLineString","properties":{"kind":"major_road","network":"lt:national","sort_rank":380,"kind_detail":"primary","source":"openstreetmap.org","min_zoom":8.0,"shield_text":"196","ref":"196"},"arcs":[[20],[21],[22],[23],[24],[25],[26]]},{"type":"LineString","properties":{"kind":"major_road","network":"lt:national","sort_rank":381,"kind_detail":"trunk","bus_network":null,"source":"openstreetmap.org","min_zoom":8.0,"bus_shield_text":"231","shield_text":"12","name:ru":"\u0443\u043b\u0438\u0446\u0430 \u041f\u043b\u0435\u043d\u0442\u043e","ref":"A12","id":412923514},"arcs":[27]},{"type":"LineString","properties":{"kind":"major_road","network":"lt:national","sort_rank":380,"kind_detail":"primary","source":"openstreetmap.org","min_zoom":8.0,"shield_text":"223","name:ru":"\u0443\u043b\u0438\u0446\u0430 \u0412\u0430\u0440\u043d\u044e","ref":"223","id":230528585},"arcs":[28]},{"type":"MultiLineString","properties":{"kind":"major_road","network":"lt:national","sort_rank":380,"kind_detail":"primary","source":"openstreetmap.org","min_zoom":8.0,"shield_text":"225","ref":"225"},"arcs":[[29],[30]]},{"type":"MultiLineString","properties":{"source":"openstreetmap.org","kind":"major_road","sort_rank":380,"kind_detail":"primary","ref":"147","min_zoom":8.0},"arcs":[[31],[32],[33]]},{"type":"MultiLineString","properties":{"kind":"major_road","network":"lt:national","sort_rank":380,"kind_detail":"primary","is_bicycle_related":true,"source":"openstreetmap.org","min_zoom":8.0,"shield_text":"157","ref":"157"},"arcs":[[34],[35]]},{"type":"LineString","properties":{"source":"openstreetmap.org","kind":"major_road","sort_rank":380,"kind_detail":"primary","ref":"141","min_zoom":8.0,"id":448345756},"arcs":[36]},{"type":"LineString","properties":{"kind":"major_road","network":"lt:national","sort_rank":380,"kind_detail":"primary","source":"openstreetmap.org","min_zoom":8.0,"shield_text":"148","name:ru":"\u0443\u043b\u0438\u0446\u0430 \u041a\u0435\u0441\u0442\u0443\u0447\u0438\u043e","ref":"148","id":126980608},"arcs":[37]},{"type":"LineString","properties":{"sort_rank":380,"kind_detail":"primary","min_zoom":8.0,"kind":"major_road","source":"openstreetmap.org"},"arcs":[38]},{"type":"LineString","properties":{"kind":"major_road","network":"lt:regional","sort_rank":379,"kind_detail":"secondary","is_bicycle_related":true,"bicycle_shield_text":"LT4","bicycle_network":"ncn","source":"openstreetmap.org","min_zoom":8.0,"shield_text":"3803","ref":"3803"},"arcs":[39]},{"type":"LineString","properties":{"kind":"major_road","network":"lt:regional","sort_rank":380,"kind_detail":"primary","source":"openstreetmap.org","min_zoom":8.0,"shield_text":"4501","ref":"4501","id":106301106},"arcs":[40]},{"type":"MultiLineString","properties":{"kind":"major_road","network":"lt:national","sort_rank":380,"kind_detail":"primary","source":"openstreetmap.org","min_zoom":8.0,"landuse_kind":"park","shield_text":"148","ref":"148"},"arcs":[[41],[42],[43],[44],[45],[46]]},{"type":"LineString","properties":{"kind":"major_road","network":"lt:national","sort_rank":380,"kind_detail":"primary","source":"openstreetmap.org","min_zoom":8.0,"shield_text":"197","ref":"197"},"arcs":[47]},{"type":"LineString","properties":{"source":"openstreetmap.org","bus_network":"KenigAuto","bus_shield_text":"217","sort_rank":380,"kind_detail":"primary","min_zoom":8.0,"kind":"major_road"},"arcs":[48]},{"type":"LineString","properties":{"kind":"major_road","network":"lt:national","sort_rank":380,"kind_detail":"primary","source":"openstreetmap.org","min_zoom":8.0,"shield_text":"148","name:ru":"\u0443\u043b\u0438\u0446\u0430 \u0412\u0438\u0442\u0430\u0443\u0442\u043e \u0414\u0438\u0434\u0436\u0438\u043e\u0439\u043e","ref":"148","id":42083875},"arcs":[49]},{"type":"MultiLineString","properties":{"kind":"major_road","network":"lt:national","sort_rank":380,"kind_detail":"primary","is_bicycle_related":true,"bicycle_shield_text":null,"bicycle_network":"lcn","source":"openstreetmap.org","min_zoom":8.0,"landuse_kind":"park","shield_text":"148","ref":"148"},"arcs":[[50],[51]]},{"type":"MultiLineString","properties":{"bus_network":null,"network":"lt:national","sort_rank":381,"kind_detail":"trunk","kind":"major_road","source":"openstreetmap.org","min_zoom":8.0,"bus_shield_text":"231","shield_text":"12","ref":"A12"},"arcs":[[52],[53],[54],[55],[56],[57],[58],[59],[60],[61],[62]]},{"type":"MultiLineString","properties":{"kind":"major_road","network":"lt:national","sort_rank":380,"kind_detail":"primary","source":"openstreetmap.org","min_zoom":8.0,"shield_text":"184","ref":"184"},"arcs":[[63],[64],[65]]},{"type":"LineString","properties":{"bus_network":"KenigAuto","network":"lt:national","sort_rank":380,"kind_detail":"primary","kind":"major_road","source":"openstreetmap.org","min_zoom":8.0,"bus_shield_text":"217","shield_text":"141","ref":"141"},"arcs":[66]},{"type":"LineString","properties":{"kind":"major_road","network":"lt:national","sort_rank":380,"kind_detail":"primary","is_bicycle_related":true,"bicycle_shield_text":null,"bicycle_network":"lcn","source":"openstreetmap.org","min_zoom":8.0,"official_name":"Jono Basanavi\u010diaus gatv\u0117","landuse_kind":"park","shield_text":"157","ref":"157","id":39098515},"arcs":[67]},{"type":"LineString","properties":{"source":"openstreetmap.org","kind":"major_road","sort_rank":380,"kind_detail":"primary","ref":"144","min_zoom":8.0},"arcs":[68]},{"type":"LineString","properties":{"kind":"major_road","network":"lt:national","sort_rank":380,"kind_detail":"primary","source":"openstreetmap.org","min_zoom":8.0,"shield_text":"147","ref":"147"},"arcs":[69]},{"type":"LineString","properties":{"kind":"major_road","network":"lt:national","sort_rank":380,"kind_detail":"primary","is_bicycle_related":true,"bicycle_shield_text":"LT4","bicycle_network":"ncn","source":"openstreetmap.org","min_zoom":8.0,"shield_text":"184","ref":"184"},"arcs":[70]},{"type":"LineString","properties":{"bus_network":"KenigAuto","network":"lt:national","sort_rank":380,"kind_detail":"primary","is_bicycle_related":true,"kind":"major_road","bicycle_shield_text":"LT2","bicycle_network":"rcn","source":"openstreetmap.org","min_zoom":8.0,"bus_shield_text":"217","shield_text":"141","name:ru":"\u0443\u043b\u0438\u0446\u0430 \u0414\u0430\u0440\u0438\u0430\u0443\u0441 \u0438 \u0413\u0438\u0440\u0435\u043d\u043e","ref":"141"},"arcs":[71]},{"type":"LineString","properties":{"kind":"major_road","network":"lt:national","sort_rank":380,"kind_detail":"primary","source":"openstreetmap.org","min_zoom":8.0,"landuse_kind":"park","shield_text":"196","ref":"196","id":39129501},"arcs":[72]},{"type":"LineString","properties":{"kind":"major_road","network":"lt:national","sort_rank":380,"kind_detail":"primary","source":"openstreetmap.org","min_zoom":8.0,"shield_text":"198","name:ru":"\u0443\u043b\u0438\u0446\u0430 \u0423\u043f\u0438\u043d\u043e\u0441","ref":"198","id":126978248},"arcs":[73]},{"type":"MultiLineString","properties":{"kind":"major_road","network":"lt:regional","sort_rank":377,"kind_detail":"tertiary","is_bicycle_related":true,"bicycle_shield_text":"LT4","bicycle_network":"ncn","source":"openstreetmap.org","min_zoom":8.0,"shield_text":"3808","ref":"3808"},"arcs":[[74],[75]]},{"type":"LineString","properties":{"kind":"major_road","network":"e-road","sort_rank":381,"kind_detail":"trunk","source":"openstreetmap.org","min_zoom":8.0,"shield_text":"77","ref":"A12","id":355331163},"arcs":[76]},{"type":"LineString","properties":{"source":"openstreetmap.org","bus_network":null,"bus_shield_text":"231","sort_rank":381,"kind_detail":"trunk","min_zoom":8.0,"kind":"major_road"},"arcs":[77]},{"type":"MultiLineString","properties":{"bus_network":"KenigAuto","network":"lt:national","sort_rank":380,"kind_detail":"primary","is_bicycle_related":true,"kind":"major_road","bicycle_shield_text":"LT2","bicycle_network":"rcn","source":"openstreetmap.org","min_zoom":8.0,"bus_shield_text":"217","shield_text":"141","name:ru":"\u0443\u043b\u0438\u0446\u0430 \u041f\u043b\u0435\u043d\u0442\u043e","ref":"141"},"arcs":[[78],[79],[80]]},{"type":"LineString","properties":{"kind":"major_road","network":"lt:regional","sort_rank":380,"kind_detail":"primary","official_name":"Simono Daukanto gatv\u0117","source":"openstreetmap.org","min_zoom":8.0,"shield_text":"1704","ref":"1704","id":37036307},"arcs":[81]},{"type":"MultiLineString","properties":{"kind":"major_road","network":"lt:national","sort_rank":380,"kind_detail":"primary","source":"openstreetmap.org","min_zoom":8.0,"shield_text":"158","ref":"158"},"arcs":[[82],[83]]},{"type":"LineString","properties":{"kind":"major_road","network":"lt:national","sort_rank":381,"kind_detail":"trunk","source":"openstreetmap.org","min_zoom":8.0,"shield_text":"8","ref":"A8"},"arcs":[84]},{"type":"LineString","properties":{"source":"openstreetmap.org","kind":"major_road","sort_rank":380,"kind_detail":"primary","ref":"2103","min_zoom":8.0},"arcs":[85]},{"type":"LineString","properties":{"kind":"major_road","network":"lt:national","sort_rank":380,"kind_detail":"primary","source":"openstreetmap.org","min_zoom":8.0,"shield_text":"144","name:ru":"\u0443\u043b\u0438\u0446\u0430 \u041f\u0430\u0440\u043a\u043e","ref":"144","id":95282043},"arcs":[86]},{"type":"LineString","properties":{"kind":"major_road","network":"lt:national","sort_rank":380,"kind_detail":"primary","source":"openstreetmap.org","min_zoom":8.0,"shield_text":"144","name:ru":"\u0443\u043b\u0438\u0446\u0430 \u0422\u0438\u043b\u0442\u043e","ref":"144","id":54619654},"arcs":[87]},{"type":"MultiLineString","properties":{"kind":"major_road","network":"lt:national","sort_rank":380,"kind_detail":"primary","source":"openstreetmap.org","min_zoom":8.0,"shield_text":"144","ref":"144"},"arcs":[[88],[89],[90],[91],[92]]},{"type":"MultiLineString","properties":{"kind":"major_road","network":"lt:national","sort_rank":380,"kind_detail":"primary","source":"openstreetmap.org","min_zoom":8.0,"shield_text":"157","name:ru":"\u0443\u043b\u0438\u0446\u0430 \u0422\u0438\u0442\u0443\u0432\u0435\u043d\u0443","ref":"157"},"arcs":[[93],[94]]},{"type":"MultiLineString","properties":{"bus_network":"KenigAuto","network":"lt:national","sort_rank":380,"kind_detail":"primary","is_bicycle_related":true,"kind":"major_road","bicycle_shield_text":"LT2","bicycle_network":"rcn","source":"openstreetmap.org","min_zoom":8.0,"bus_shield_text":"217","shield_text":"141","ref":"141"},"arcs":[[95],[96],[97],[98],[99]]},{"type":"LineString","properties":{"kind":"major_road","network":"lt:national","sort_rank":380,"kind_detail":"primary","source":"openstreetmap.org","min_zoom":8.0,"shield_text":"140","ref":"140"},"arcs":[100]},{"type":"LineString","properties":{"kind":"major_road","network":"lt:national","sort_rank":380,"kind_detail":"primary","official_name":"Jono Basanavi\u010diaus gatv\u0117","source":"openstreetmap.org","min_zoom":8.0,"landuse_kind":"park","shield_text":"157","ref":"157","id":518218373},"arcs":[101]},{"type":"MultiLineString","properties":{"kind":"highway","network":"e-road","sort_rank":383,"kind_detail":"motorway","source":"openstreetmap.org","min_zoom":8.0,"all_networks":["e-road"],"shield_text":"85","ref":"A1","all_shield_texts":["85"]},"arcs":[[102],[103]]},{"type":"MultiLineString","properties":{"kind":"major_road","network":"lt:national","sort_rank":380,"kind_detail":"primary","source":"openstreetmap.org","min_zoom":8.0,"shield_text":"198","ref":"198"},"arcs":[[104],[105],[106]]},{"type":"MultiLineString","properties":{"kind":"major_road","network":"lt:national","sort_rank":380,"kind_detail":"primary","source":"openstreetmap.org","min_zoom":8.0,"landuse_kind":"park","shield_text":"225","ref":"225"},"arcs":[[107],[108]]},{"type":"LineString","properties":{"kind":"major_road","network":"lt:national","sort_rank":380,"kind_detail":"primary","source":"openstreetmap.org","min_zoom":8.0,"shield_text":"196","ref":"197","id":475611210},"arcs":[109]},{"type":"LineString","properties":{"kind":"major_road","network":"lt:regional","sort_rank":380,"kind_detail":"primary","source":"openstreetmap.org","min_zoom":8.0,"shield_text":"1701","name:ru":"\u0443\u043b\u0438\u0446\u0430 \u0421\u043e\u0434\u044e","ref":"1701","id":82245530},"arcs":[110]},{"type":"LineString","properties":{"kind":"major_road","network":"lt:national","sort_rank":380,"kind_detail":"primary","source":"openstreetmap.org","min_zoom":8.0,"shield_text":"148","name:ru":"\u0443\u043b\u0438\u0446\u0430 \u041c\u0430\u0438\u0440\u043e\u043d\u0438\u043e","ref":"148"},"arcs":[111]},{"type":"LineString","properties":{"sort_rank":381,"source":"openstreetmap.org","min_zoom":8.0,"kind":"major_road","kind_detail":"trunk"},"arcs":[112]},{"type":"LineString","properties":{"kind":"major_road","network":"lt:national","sort_rank":380,"kind_detail":"primary","source":"openstreetmap.org","min_zoom":8.0,"shield_text":"157","name:ru":"\u0443\u043b\u0438\u0446\u0430 \u0420\u0430\u0441\u0435\u0439\u043d\u044e","ref":"157"},"arcs":[113]},{"type":"MultiLineString","properties":{"kind":"highway","network":"lt:national","sort_rank":383,"kind_detail":"motorway","source":"openstreetmap.org","min_zoom":8.0,"all_networks":["lt:national","lt:national","e-road","e-road"],"shield_text":"1","ref":"A1","all_shield_texts":["1","8","67","85"]},"arcs":[[114],[115]]},{"type":"MultiLineString","properties":{"kind":"highway","network":"lt:national","sort_rank":383,"kind_detail":"motorway","source":"openstreetmap.org","min_zoom":8.0,"all_networks":["lt:national","e-road"],"shield_text":"1","ref":"A1","all_shield_texts":["1","85"]},"arcs":[[116],[117],[118],[119],[120],[121]]},{"type":"LineString","properties":{"kind":"major_road","network":"lt:national","sort_rank":380,"kind_detail":"primary","source":"openstreetmap.org","min_zoom":8.0,"shield_text":"148","name:ru":"\u0443\u043b\u0438\u0446\u0430 \u0414\u0440\u0430\u0443\u0433\u0438\u0441\u0442\u0435\u0441","ref":"148","id":230535140},"arcs":[122]},{"type":"LineString","properties":{"kind":"major_road","network":"lt:national","sort_rank":380,"kind_detail":"primary","source":"openstreetmap.org","min_zoom":8.0,"landuse_kind":"park","shield_text":"223","ref":"223","id":60141197},"arcs":[123]},{"type":"LineString","properties":{"kind":"major_road","network":"lt:national","sort_rank":380,"kind_detail":"primary","source":"openstreetmap.org","min_zoom":8.0,"shield_text":"196","name:ru":"\u0443\u043b\u0438\u0446\u0430 \u0416\u0435\u043c\u0430\u0438\u0447\u044e","ref":"196"},"arcs":[124]},{"type":"LineString","properties":{"kind":"minor_road","sort_rank":360,"kind_detail":"unclassified","is_bicycle_related":true,"bicycle_shield_text":"LT4","bicycle_network":"ncn","source":"openstreetmap.org","min_zoom":8.0},"arcs":[125]},{"type":"LineString","properties":{"kind":"major_road","network":"lt:national","sort_rank":380,"kind_detail":"primary","is_bicycle_related":true,"source":"openstreetmap.org","min_zoom":8.0,"shield_text":"157","name:ru":"\u0443\u043b\u0438\u0446\u0430 \u041a\u0435\u043b\u043c\u0435\u0441","ref":"157","id":231009454},"arcs":[126]},{"type":"LineString","properties":{"kind":"major_road","network":"lt:regional","sort_rank":379,"kind_detail":"secondary","is_bicycle_related":true,"bicycle_shield_text":"LT4","bicycle_network":"ncn","source":"openstreetmap.org","min_zoom":8.0,"shield_text":"3807","ref":"3807"},"arcs":[127]},{"type":"LineString","properties":{"kind":"major_road","network":"ru:regional","sort_rank":380,"kind_detail":"primary","source":"openstreetmap.org","min_zoom":8.0,"shield_text":"27\u041a","ref":"27\u041a-104"},"arcs":[128]},{"type":"MultiLineString","properties":{"kind":"major_road","network":"lt:national","sort_rank":380,"kind_detail":"primary","source":"openstreetmap.org","min_zoom":8.0,"shield_text":"148","ref":"148"},"arcs":[[129],[130],[131],[132],[133],[134],[135],[136]]},{"type":"LineString","properties":{"kind":"major_road","network":"lt:national","sort_rank":380,"kind_detail":"primary","source":"openstreetmap.org","min_zoom":8.0,"old_name":"Auk\u0161tai\u010di\u0173 plentas","shield_text":"229","ref":"229","id":36257352},"arcs":[137]},{"type":"LineString","properties":{"kind":"major_road","network":"lt:national","sort_rank":380,"kind_detail":"primary","is_bicycle_related":true,"bicycle_shield_text":"LT4","bicycle_network":"ncn","source":"openstreetmap.org","min_zoom":8.0,"shield_text":"137","ref":"137"},"arcs":[138]},{"type":"MultiLineString","properties":{"kind":"major_road","network":"lt:national","sort_rank":381,"kind_detail":"trunk","source":"openstreetmap.org","min_zoom":8.0,"shield_text":"1","ref":"A1"},"arcs":[[139],[140]]},{"type":"LineString","properties":{"kind":"major_road","network":"lt:national","sort_rank":380,"kind_detail":"primary","source":"openstreetmap.org","min_zoom":8.0,"landuse_kind":"park","shield_text":"225","name:ru":"\u0443\u043b\u0438\u0446\u0430 \u041f\u0430\u043b\u0443\u043a\u043d\u0438\u043e","ref":"225","id":188498120},"arcs":[141]},{"type":"LineString","properties":{"kind":"major_road","network":"lt:national","sort_rank":381,"kind_detail":"trunk","source":"openstreetmap.org","min_zoom":8.0,"shield_text":"9","ref":"A9"},"arcs":[142]},{"type":"LineString","properties":{"kind":"major_road","network":"lt:national","sort_rank":380,"kind_detail":"primary","source":"openstreetmap.org","min_zoom":8.0,"shield_text":"146","ref":"146"},"arcs":[143]},{"type":"MultiLineString","properties":{"kind":"major_road","network":"lt:regional","sort_rank":379,"kind_detail":"secondary","is_bicycle_related":true,"bicycle_shield_text":"LT4","bicycle_network":"ncn","source":"openstreetmap.org","min_zoom":8.0,"shield_text":"3808","ref":"3808"},"arcs":[[144],[145]]},{"type":"LineString","properties":{"kind":"major_road","network":"lt:national","sort_rank":380,"kind_detail":"primary","source":"openstreetmap.org","min_zoom":8.0,"shield_text":"137","name:ru":"\u0443\u043b\u0438\u0446\u0430 \u0412\u044b\u0434\u0443\u043d\u043e","ref":"137"},"arcs":[146]},{"type":"LineString","properties":{"kind":"major_road","network":"lt:national","sort_rank":380,"kind_detail":"primary","source":"openstreetmap.org","min_zoom":8.0,"shield_text":"196","name:ru":"\u0443\u043b\u0438\u0446\u0430 \u0412\u0438\u043b\u044c\u043d\u044e\u0441","ref":"196"},"arcs":[147]},{"type":"MultiLineString","properties":{"kind":"major_road","network":"lt:national","sort_rank":380,"kind_detail":"primary","source":"openstreetmap.org","min_zoom":8.0,"shield_text":"196","name:ru":"\u0443\u043b\u0438\u0446\u0430 \u041f\u043b\u0435\u043d\u0442\u043e","ref":"196"},"arcs":[[148],[149],[150],[151]]},{"type":"LineString","properties":{"kind":"major_road","sort_rank":380,"kind_detail":"primary","source":"openstreetmap.org","min_zoom":8.0,"name:ru":"\u0443\u043b\u0438\u0446\u0430 \u0420\u0430\u0441\u0435\u0439\u043d\u044e","ref":"157","id":197488391},"arcs":[152]},{"type":"MultiLineString","properties":{"kind":"major_road","network":"lt:national","sort_rank":380,"kind_detail":"primary","source":"openstreetmap.org","min_zoom":8.0,"shield_text":"229","ref":"229"},"arcs":[[153],[154]]},{"type":"LineString","properties":{"kind":"major_road","network":"lt:regional","sort_rank":380,"kind_detail":"primary","source":"openstreetmap.org","min_zoom":8.0,"shield_text":"1704","name:ru":"\u0443\u043b\u0438\u0446\u0430 \u041b\u0430\u0443\u043a\u043e","ref":"1704","id":174839744},"arcs":[155]},{"type":"MultiLineString","properties":{"kind":"major_road","network":"lt:national","sort_rank":380,"kind_detail":"primary","source":"openstreetmap.org","min_zoom":8.0,"shield_text":"157","ref":"157"},"arcs":[[156],[157],[158],[159],[160]]},{"type":"LineString","properties":{"kind":"major_road","network":"lt:regional","sort_rank":380,"kind_detail":"primary","source":"openstreetmap.org","min_zoom":8.0,"shield_text":"1704","ref":"1704","id":82237607},"arcs":[161]},{"type":"MultiLineString","properties":{"kind":"major_road","network":"lt:national","sort_rank":380,"kind_detail":"primary","source":"openstreetmap.org","min_zoom":8.0,"landuse_kind":"park","shield_text":"157","ref":"157"},"arcs":[[162],[163]]},{"type":"LineString","properties":{"kind":"major_road","network":"lt:national","sort_rank":380,"kind_detail":"primary","source":"openstreetmap.org","min_zoom":8.0,"shield_text":"137","ref":"137"},"arcs":[164]},{"type":"LineString","properties":{"kind":"major_road","sort_rank":380,"kind_detail":"primary","source":"openstreetmap.org","min_zoom":8.0,"name:ru":"\u0443\u043b\u0438\u0446\u0430 \u0414\u0430\u0440\u0438\u0430\u0443\u0441 \u0438 \u0413\u0438\u0440\u0435\u043d\u043e","ref":"158","id":182570796},"arcs":[165]},{"type":"LineString","properties":{"kind":"major_road","network":"lt:national","sort_rank":381,"kind_detail":"trunk","bus_network":null,"source":"openstreetmap.org","min_zoom":8.0,"bus_shield_text":"231","shield_text":"12","landuse_kind":"park","ref":"A12","id":60441895},"arcs":[166]},{"type":"MultiLineString","properties":{"kind":"major_road","network":"lt:national","sort_rank":380,"kind_detail":"primary","source":"openstreetmap.org","min_zoom":8.0,"shield_text":"223","ref":"223"},"arcs":[[167],[168],[169]]}]},"earth":{"type":"GeometryCollection","geometries":[{"type":"Polygon","properties":{"sort_rank":10,"source":"naturalearthdata.com","kind":"earth","min_zoom":0.0,"id":4768},"arcs":[[170]]}]},"landuse":{"type":"GeometryCollection","geometries":[{"type":"MultiPolygon","properties":{"kind":"park","protect_class":"4","area":2164832049,"sort_rank":24,"source":"openstreetmap.org","min_zoom":6.0,"tier":2,"osm_relation":true},"arcs":[[[171]],[[172]],[[173]],[[174]]]},{"type":"MultiPolygon","properties":{"kind":"park","protect_class":"4","area":73407444,"sort_rank":24,"source":"openstreetmap.org","min_zoom":8.0,"tier":2,"osm_relation":true},"arcs":[[[175]],[[176]]]}]}},"type":"Topology","transform":{"translate":[22.5,54.9776136707],"scale":[0.0003433228,0.0001950584]},"arcs":[[[0,373],[132,76],[128,26],[23,-239],[18,-53],[31,-2],[32,-45],[49,-136]],[[468,0],[-4,22],[56,28],[21,-50]],[[511,2530],[-153,41],[2,49],[68,21],[7,29],[-27,8],[7,33],[-44,25],[-16,50],[-50,14],[-27,74],[-51,44],[25,99],[-76,9],[-33,-25],[-65,115],[-71,20],[37,171],[-44,46]],[[0,373],[132,76],[128,26]],[[260,475],[153,-101],[69,-5],[220,49],[105,85],[99,-2],[120,66],[253,-28],[208,92],[131,23],[206,-75],[170,-9],[410,-112],[178,41],[75,-7],[81,51],[41,106],[52,46],[26,60],[4,225],[65,126],[-184,77],[-7,35],[-92,-52],[-37,50],[-54,-26],[-46,26],[-10,125],[-172,-5],[-11,-41],[-41,-3],[-123,23],[-77,-21],[-4,33],[-82,-20],[-6,187],[-32,-20],[-42,17],[-38,-38],[-113,-28],[-11,23],[-79,13],[-20,-66],[-199,19],[79,111],[-146,63],[22,137],[-105,-8],[-23,51],[-21,-10],[16,-46],[-97,-10],[-4,-51],[-62,-3],[-6,-53],[-39,-13],[26,81],[-23,-20],[-19,75],[-46,12],[-2,49],[-69,-14],[-23,41],[-59,4],[13,62],[53,29],[1,102],[-29,50],[-42,16],[-77,-26],[-26,71],[-58,-7],[-4,82],[28,31],[-1,59],[-25,18],[-108,-53],[-18,152],[-57,66],[41,49],[-25,19]],[[0,4087],[36,-74],[34,-19],[-42,-59],[36,-28],[-17,-44],[43,-110],[-9,-75],[-33,-27],[-48,4]],[[4018,2975],[78,157]],[[511,2530],[60,86],[57,0],[117,138],[52,-65],[231,7],[-14,-87],[-45,-63],[34,-48],[143,-2],[119,103],[192,27],[112,74],[74,-21],[-21,79],[62,-72],[22,51],[-33,147],[63,7],[-5,63],[24,4],[-15,51],[22,13],[41,7],[24,-63],[175,15],[83,33],[39,58],[-10,-69],[44,-146],[43,-10],[7,-34],[53,36],[-11,44],[26,4],[22,-36],[119,77],[178,-116],[31,-38],[-3,-47],[172,-75],[-13,-25],[35,-25],[29,2],[-8,40],[29,15],[-18,112],[172,15],[21,-50],[83,-25],[-35,-102],[32,-80],[113,15],[20,-24],[113,-10],[23,39],[-24,43],[89,90],[142,49],[-17,36],[302,146],[58,-1],[77,53]],[[4018,2975],[42,-8],[36,19]],[[540,0],[-21,51],[-55,-29],[9,-22]],[[418,0],[-1,33],[-137,213],[-20,229]],[[3214,4062],[-38,34]],[[4096,2014],[-16,14],[-229,449],[-173,675],[-37,314],[-120,145],[-56,180],[-130,76],[-78,155],[-82,74]],[[534,2509],[-1,-1]],[[533,2507],[1,1]],[[3853,322],[87,-322]],[[3947,0],[-89,307]],[[1539,3202],[41,-4]],[[895,3601],[-91,64]],[[1265,501],[-204,9],[-131,-42]],[[1740,2082],[-96,31],[-238,-63],[-157,82],[-95,86],[-380,120],[-238,173]],[[1897,1973],[-33,26]],[[1923,1946],[-8,9]],[[2460,1617],[-199,20],[-310,280]],[[2743,1564],[-17,22],[-205,21]],[[2767,1543],[-14,9]],[[3235,1175],[-138,153],[-186,109]],[[1226,3399],[6,11]],[[249,3964],[80,38]],[[1837,2118],[185,131],[73,20]],[[2470,2336],[150,40],[183,184],[171,123],[79,20],[33,64],[158,160],[61,28],[64,174],[118,168],[104,43]],[[315,539],[0,-1]],[[315,538],[1,3]],[[317,538],[-1,1]],[[1350,3298],[74,-44]],[[1483,3220],[56,-18]],[[315,538],[-1,0]],[[1837,2139],[-1,-21]],[[1837,2117],[0,1],[-1,0],[0,-1],[1,0]],[[1437,195],[-14,247],[-40,96]],[[560,1459],[1,-1],[1,0],[0,1],[-2,0]],[[1926,2557],[-31,-107]],[[1939,2576],[-2,-3]],[[2035,3175],[6,-181]],[[2035,3176],[24,41]],[[2052,2971],[54,-173],[-62,-73]],[[2078,3279],[2,5]],[[536,2512],[-169,46],[-367,313]],[[844,538],[1,1]],[[1823,2094],[-35,-31]],[[2035,3175],[0,1]],[[2059,3217],[19,62]],[[0,2034],[201,198],[253,193]],[[454,2425],[15,11]],[[469,2436],[62,69]],[[536,2511],[208,244]],[[744,2755],[7,8]],[[751,2763],[26,31]],[[777,2794],[10,12]],[[787,2806],[140,165]],[[927,2971],[7,7]],[[934,2978],[210,254],[82,167]],[[1232,3410],[77,234],[109,128],[83,184]],[[267,421],[2,-1]],[[269,420],[11,-12]],[[280,408],[57,-65],[72,-6]],[[3330,0],[-15,43],[10,92],[-106,181],[-52,-22],[-29,24]],[[2017,3197],[1,-2]],[[3607,3571],[0,-5]],[[315,538],[7,54],[-61,122],[-130,109],[-101,47],[-30,98]],[[409,337],[132,-18],[99,20],[99,83],[74,23]],[[1034,603],[-175,-60]],[[2753,1552],[-10,12]],[[212,2219],[-13,12]],[[419,297],[10,-48],[35,-10],[57,-79]],[[550,119],[40,-51],[-5,-56],[14,-12]],[[588,2571],[-6,-7]],[[533,2508],[0,-1]],[[1047,606],[-13,-3]],[[1211,576],[-107,14]],[[1777,633],[-126,28],[-116,-11]],[[844,539],[-29,3]],[[804,3665],[-82,53],[-79,14],[-62,72],[-74,33],[-56,259]],[[1257,3361],[-29,81],[-77,8],[-224,107],[-32,44]],[[3861,369],[113,52],[122,121]],[[1228,3442],[-30,178],[-87,235],[15,241]],[[3977,2100],[-11,38]],[[4026,2022],[-32,46]],[[3603,3517],[4,49]],[[3603,3517],[13,522]],[[3966,2138],[-193,387],[7,64],[-66,184],[-23,201],[-100,366],[12,177]],[[3994,2068],[-17,32]],[[4096,1906],[-70,116]],[[1580,3198],[30,-4]],[[1686,3200],[9,2]],[[844,538],[-82,-29],[-166,41],[-298,-13],[-298,-61]],[[859,543],[-14,-4]],[[1104,590],[-57,16]],[[1535,650],[-214,-81],[-110,7]],[[3138,318],[-64,35],[-191,15],[-204,145],[-76,5],[-110,-38],[-187,21],[-284,81],[-162,12],[-83,39]],[[2855,0],[-19,16],[-112,11],[-46,-27]],[[2018,3195],[14,-21]],[[3323,1072],[-3,3]],[[3323,1071],[3,-3]],[[199,2231],[-3,2]],[[561,1462],[-38,157],[4,121],[-59,166],[-49,32],[-118,164],[-15,63],[-74,54]],[[705,520],[6,93],[-113,259],[-37,583]],[[2095,2269],[96,30]],[[2233,2303],[237,33]],[[536,2511],[0,1]],[[799,595],[-78,-28]],[[1791,2060],[45,57]],[[534,2508],[0,1]],[[1261,3349],[22,-24]],[[3858,307],[-10,46]],[[3849,340],[4,-18]],[[0,2656],[247,-61],[130,-54],[152,-37],[248,-221],[176,-55],[110,-75],[243,-120]],[[1307,2034],[-353,195],[-176,55],[-249,221],[-282,91],[-247,61]],[[1320,2027],[422,-185],[341,-89],[265,-179],[349,-116],[520,-270],[106,-117]],[[3320,1075],[-103,114],[-520,270],[-236,84],[-114,33],[-263,178],[-341,89],[-311,144],[-111,40]],[[3848,353],[-24,178],[-52,96],[-449,445]],[[3326,1068],[399,-401],[46,-40],[52,-96],[26,-191]],[[2186,3456],[104,49]],[[54,3960],[43,1]],[[2911,1437],[-111,66]],[[1383,538],[-118,-37]],[[1424,3254],[59,-34]],[[930,468],[-117,-23]],[[294,0],[23,35],[4,93],[-93,280],[39,13]],[[1895,2450],[-58,-311]],[[1937,2573],[-11,-16]],[[2044,2725],[-105,-149]],[[2041,2994],[11,-23]],[[2080,3284],[38,101],[-12,33],[80,38]],[[2290,3505],[122,-9],[191,114]],[[2607,3612],[95,29],[250,344],[172,111]],[[2604,3611],[0,-1],[0,-1],[1,1],[-1,1]],[[3883,1358],[36,28]],[[1441,188],[61,-188]],[[1306,2033],[14,-6]],[[1321,2027],[-14,7]],[[2191,2299],[42,4]],[[4096,4086],[-323,-102],[-114,50],[-362,36],[-28,26]],[[1818,2036],[-80,-199],[-298,-440],[-21,-154],[-55,-108],[-27,-332],[24,-175],[-34,-57]],[[409,337],[10,-40]],[[521,160],[29,-41]],[[762,509],[2,-6]],[[1864,1999],[-124,83]],[[1915,1955],[-18,18]],[[1951,1917],[-28,29]],[[2521,1607],[-61,10]],[[2800,1503],[-33,40]],[[1303,3304],[19,-4]],[[3563,830],[220,397],[100,131]],[[3919,1386],[177,86]],[[814,542],[-15,53]],[[1283,3325],[19,-21]],[[1303,3304],[47,-6]],[[1610,3194],[76,6]],[[1695,3202],[20,2]],[[1720,3204],[119,-1],[67,-41]],[[815,542],[-1,0]],[[1715,3204],[5,0]],[[1906,3162],[77,-2],[34,37]],[[764,503],[63,-71],[261,-72],[353,-172]],[[1261,3349],[-4,12]],[[1501,3956],[49,140]],[[0,3959],[54,1]],[[97,3961],[152,3]],[[329,4002],[76,94]],[[0,0],[0,4096],[4096,0],[0,-4096],[-4096,0]],[[1520,2810],[25,8],[36,-2],[-18,31],[33,-34],[-6,35],[33,-64],[48,18],[-29,63],[20,113],[-23,-3],[24,16],[-20,25],[-17,-15],[2,40],[-35,1],[55,4],[-9,80],[-14,-9],[18,56],[79,34],[-39,-80],[26,-388],[70,-50],[16,66],[56,-2],[-52,-11],[29,-77],[-4,60],[53,-34],[36,32],[-3,-17],[28,0],[-32,-17],[23,-19],[-77,-35],[23,-18],[69,11],[-20,-6],[-5,-38],[22,-9],[-19,-10],[31,-71],[52,46],[-14,-67],[30,-10],[61,35],[18,94],[-3,-90],[-40,-50],[56,-89],[17,37],[21,1],[-15,-19],[34,-72],[167,14],[4,33],[76,37],[52,-36],[2,-53],[-117,-17],[-34,21],[-26,-31],[-49,-8],[-31,-62],[33,-30],[-20,-9],[29,-35],[41,39],[-30,-45],[80,-41],[10,17],[58,12],[-1,-19],[-57,-10],[56,-39],[-20,-42],[84,-53],[18,17],[-22,65],[10,12],[15,-57],[74,-12],[-83,-36],[28,-23],[38,17],[21,-39],[-15,-18],[30,-2],[-21,-8],[-20,12],[-17,-48],[-49,-20],[-11,-25],[46,-6],[-41,-6],[-4,-8],[42,-35],[87,-17],[-5,43],[51,33],[-39,-108],[33,-4],[-13,10],[26,26],[-13,-27],[28,0],[7,20],[13,12],[9,-40],[30,20],[9,-18],[29,24],[2,42],[28,-2],[-18,29],[-46,5],[51,62],[-30,-58],[47,9],[-3,-30],[22,15],[3,-4],[-74,-113],[3,-56],[28,-5],[-15,-28],[42,33],[-4,36],[21,8],[2,-29],[-42,-61],[-35,-9],[-42,78],[-39,-28],[-20,33],[-64,-6],[-13,22],[-28,-24],[12,26],[-25,18],[-56,-33],[33,55],[-33,20],[-23,-3],[-21,-57],[-18,24],[-37,-19],[-11,39],[53,28],[-12,38],[34,35],[2,33],[-47,-4],[6,34],[41,-12],[43,37],[-11,26],[-191,73],[-11,43],[-72,27],[62,-7],[-19,33],[-37,30],[-54,-5],[21,17],[-50,69],[3,44],[-22,-12],[9,30],[-61,55],[25,16],[-29,72],[-152,40],[-2,29],[-38,-61],[-52,34],[-93,0],[-23,34],[-24,-24],[-21,39],[35,129],[-57,121],[-28,-7],[21,51],[-61,-34],[47,40],[-32,28],[-48,-5]],[[1820,2971],[120,269],[32,21],[-45,164],[16,14],[10,-21],[65,118],[-44,40],[30,61],[-22,68],[31,-20],[41,23],[4,-26],[23,58],[17,-5],[-12,-22],[29,6],[64,-71],[-146,-261],[10,-106],[82,6],[43,-46],[47,9],[12,-27],[35,17],[42,72],[-29,18],[16,44],[-44,33],[4,40],[55,-41],[46,37],[-1,46],[37,-27],[21,-89],[77,31],[12,37],[-35,38],[21,30],[86,-86],[41,50],[123,-34],[-59,-125],[-46,-6],[21,-145],[-66,-18],[3,-49],[-49,-24],[-28,-109],[-65,-1],[-47,-82],[-34,22],[-56,-44],[-52,-91],[-32,10],[-14,41],[-90,-47],[0,-70],[-40,38],[-75,-29],[-23,59],[27,33],[-26,20],[25,-9],[68,79],[-32,103],[-77,-12],[1,-27],[-148,15]],[[1908,4096],[-14,-25],[-34,8],[-18,-34],[15,-11],[6,-8],[-39,19],[-30,-18],[-29,-108],[-23,5],[-53,-77],[12,70],[-16,83],[-31,10],[13,52],[-19,28],[-8,-24],[-36,10],[5,-76],[-44,8],[-27,-72],[-40,21],[-79,-9],[-2,-20],[-71,22],[12,62],[-50,-29],[-17,72],[-65,-24],[-22,27],[-42,-6],[-17,44],[763,0]],[[69,4096],[4,-40],[-27,10],[-46,-41],[0,71],[69,0]],[[0,3790],[50,-55],[86,-11],[2,-24],[-102,-71],[-36,13],[0,148]],[[0,3926],[58,37],[-33,30],[22,14],[82,-75],[-7,-26],[-25,5],[22,-48],[-119,-29],[0,92]]]}