{"objects":{"water":{"type":"GeometryCollection","geometries":[]},"buildings":{"type":"GeometryCollection","geometries":[]},"places":{"type":"GeometryCollection","geometries":[{"type":"Point","properties":{"kind":"region","name:en":"Marijampol\u0117 County","name":"Marijampol\u0117s apskritis","kind_detail":"state","min_zoom":4.0,"name:de":"Bezirk Marijampol\u0117","source":"openstreetmap.org","name:fr":"Apskritis de Marijampol\u0117","int_name":"Marijampol\u0117s county","name:uk":"\u041c\u0430\u0440\u0456\u044f\u043c\u043f\u043e\u043b\u044c\u0441\u044c\u043a\u0438\u0439 \u043f\u043e\u0432\u0456\u0442","name:be":"\u041c\u0430\u0440\u044b\u044f\u043c\u043f\u0430\u043b\u044c\u0441\u043a\u0456 \u043f\u0430\u0432\u0435\u0442","name:ru":"\u041c\u0430\u0440\u0438\u044f\u043c\u043f\u043e\u043b\u044c\u0441\u043a\u0438\u0439 \u0443\u0435\u0437\u0434","name:pl":"okr\u0119g mariampolski","id":783737730},"coordinates":[2076,2707]},{"type":"Point","properties":{"name:ay":"Kawnas","alt_name:eo":"Kovno","name:ka":"\u10d9\u10d0\u10e3\u10dc\u10d0\u10e1\u10d8","name:mr":"\u0915\u0949\u0928\u093e\u0938","name:ko":"\uce74\uc6b0\ub098\uc2a4","name:cv":"\u041a\u0430\u0443\u043d\u0430\u0441","name:ar":"\u0643\u0627\u0648\u0646\u0627\u0633","name:tt":"\u041a\u0430\u0443\u043d\u0430\u0441","name:th":"\u0e40\u0e04\u0e32\u0e19\u0e31\u0e2a","name:iu":"\u146f\u14c7\u1505\/kunas","name:os":"\u041a\u0430\u0443\u043d\u0430\u0441","name:ru":"\u041a\u0430\u0443\u043d\u0430\u0441","name:ce":"\u041a\u0430\u0443\u043d\u0430\u0441","name:mn":"\u041a\u0430\u0443\u043d\u0430\u0441","name:pl":"Kowno","name:mk":"\u041a\u0430\u0443\u043d\u0430\u0441","name:fa":"\u06a9\u0627\u0648\u0646\u0627\u0633","name:cy":"Cawnas","kind_detail":"city","old_name:ru":"\u041a\u043e\u0432\u043d\u043e","id":27193090,"source":"openstreetmap.org","name:ky":"\u041a\u0430\u0443\u043d\u0430\u0441","name:de":"Kauen","name:zh":"\u8003\u90a3\u65af","name:lv":"Kau\u0146a","name:ja":"\u30ab\u30a6\u30ca\u30b9","name:he":"\u05e7\u05d5\u05d1\u05e0\u05d4","kind":"locality","name:ur":"\u06a9\u0627\u0648\u0646\u0627\u0633","name:la":"Couna","name:uk":"\u041a\u0430\u0443\u043d\u0430\u0441","old_name":"Kovno","name:be":"\u041a\u0430\u045e\u043d\u0430\u0441","name:bg":"\u041a\u0430\u0443\u043d\u0430\u0441","name:sr":"\u041a\u0430\u0443\u043d\u0430\u0441","population":315993,"name:el":"\u039a\u03ac\u03bf\u03c5\u03bd\u03b1\u03c2","name:eo":"Ka\u016dno","name":"Kaunas","min_zoom":8.0,"name:yi":"\u05e7\u05d0\u05d5\u05d5\u05e0\u05e2"},"coordinates":[4091,3697]},{"type":"Point","properties":{"name:sr":"\u041c\u0430\u0440\u0438\u0458\u0430\u043c\u043f\u043e\u043b\u0435","name:az":"M\u0430riyamp\u043el\u0435","name:lv":"Marijampole","name:ja":"\u30de\u30ea\u30e4\u30fc\u30f3\u30dd\u30ec","name:ka":"\u10db\u10d0\u10e0\u10d8\u10d0\u10db\u10de\u10dd\u10da\u10d4","name:el":"\u039c\u03b1\u03c1\u03b9\u03b3\u03b9\u03b1\u03bc\u03c0\u03bf\u03bb\u03ad","name:ko":"\ub9c8\ub9ac\uc58c\ud3f4\ub808","name:ar":"\u0645\u064a\u0631\u064a\u0627\u0645\u0628\u0648\u0644\u064a","name:kk":"\u041c\u0430\u0440\u0438\u044f\u043c\u043f\u043e\u043b\u0435","min_zoom":8.0,"name:uk":"\u041c\u0430\u0440\u0456\u044f\u043c\u043f\u043e\u043b\u0435","old_name":"Kapsukas","name:ru":"\u041c\u0430\u0440\u0438\u044f\u043c\u043f\u043e\u043b\u0435","name:pl":"Mariampol","name:bg":"\u041c\u0430\u0440\u0438\u044f\u043c\u043f\u043e\u043b\u0435","id":32441977,"name:mk":"\u041c\u0430\u0440\u0438\u0458\u0430\u043c\u043f\u043e\u043b\u0435","population":41051,"name:fa":"\u0645\u0627\u0631\u06cc\u0627\u0645\u200c\u067e\u0648\u0644\u0647","kind":"locality","name":"Marijampol\u0117","kind_detail":"town","name:he":"\u05de\u05e8\u05d9\u05d0\u05de\u05e4\u05d5\u05dc","name:de":"Mariampol","source":"openstreetmap.org","name:be":"\u041c\u0430\u0440\u044b\u044f\u043c\u043f\u0430\u043b\u0435","name:zh":"\u99ac\u91cc\u63da\u6cca\u5217","name:hy":"\u0544\u0561\u0580\u056b\u0561\u0574\u057a\u0578\u056c\u0565"},"coordinates":[2477,1979]},{"type":"Point","properties":{"name:sr":"\u0412\u0438\u043b\u043a\u0430\u0432\u0438\u0448\u043a\u0438\u0441","name:az":"Vilk\u0430vi\u015fkis","name:lv":"Vilkavi\u0161\u0137i","name:ja":"\u30f4\u30a3\u30eb\u30ab\u30f4\u30a3\u30b7\u30e5\u30ad\u30b9","name:ka":"\u10d5\u10d8\u10da\u10d9\u10d0\u10d5\u10d8\u10e8\u10d9\u10d8\u10e1\u10d8","name:he":"\u05d5\u05d9\u05dc\u05e7\u05d5\u05d1\u05d9\u05e9\u05e7","name:kk":"\u0412\u0438\u043b\u043a\u0430\u0432\u0438\u0448\u043a\u0438\u0441","min_zoom":8.0,"name:uk":"\u0412\u0438\u043b\u043a\u0430\u0432\u0438\u0448\u043a\u0456\u0441","old_name":"Vilkauji\u0161kis","name:ru":"\u0412\u0438\u043b\u043a\u0430\u0432\u0438\u0448\u043a\u0438\u0441","name:pl":"Wy\u0142kowyszki","name:bg":"\u0412\u0438\u043b\u043a\u0430\u0432\u0438\u0448\u043a\u0438\u0441","id":445338311,"name:mk":"\u0412\u0438\u043b\u043a\u0430\u0432\u0438\u0448\u043a\u0438\u0441","population":11547,"name:el":"\u0392\u03b9\u03bb\u03ba\u03b1\u03b2\u03af\u03c3\u03ba\u03b9\u03c2","kind":"locality","name":"Vilkavi\u0161kis","kind_detail":"town","name:de":"Wilkowischken","source":"openstreetmap.org","name:zh":"\u7dad\u723e\u5361\u7dad\u4ec0\u57fa\u65af"},"coordinates":[1561,2451]},{"type":"Point","properties":{"name:sr":"\u0413\u0430\u0440\u0459\u0430\u0432\u0430","name:lv":"Gar\u013cava","name:ka":"\u10d2\u10d0\u10e0\u10da\u10d8\u10d0\u10d5\u10d0","min_zoom":8.0,"name:be":"\u0413\u0430\u0440\u043b\u044f\u0432\u0430","name:ru":"\u0413\u0430\u0440\u043b\u044f\u0432\u0430","name:pl":"Godlewo","id":32441785,"population":11264,"name:fa":"\u06af\u0627\u0631\u0644\u06cc\u0627\u0648\u0627","kind":"locality","name":"Garliava","kind_detail":"town","name:de":"Goddlau","source":"openstreetmap.org","name:zh":"\u52a0\u723e\u5229\u963f\u74e6"},"coordinates":[4004,3344]},{"type":"Point","properties":{"name:lv":"Kazlu R\u016bda","name:ja":"\u30ab\u30ba\u30eb\u30fc\u30fb\u30eb\u30fc\u30c0","name:ka":"\u10d9\u10d0\u10d6\u10da\u10e3-\u10e0\u10e3\u10d3\u10d0","name:ur":"\u06a9\u0627\u0632\u0644\u0648 \u0631\u0648\u062f\u0627","min_zoom":8.0,"name:uk":"\u041a\u0430\u0437\u043b\u0443-\u0420\u0443\u0434\u0430","name:be":"\u041a\u0430\u0437\u043b\u0443 \u0420\u0443\u0434\u0430","name:ru":"\u041a\u0430\u0437\u043b\u0443-\u0420\u0443\u0434\u0430","name:pl":"Koz\u0142owa Ruda","id":273461580,"population":6635,"name:fa":"\u06a9\u0627\u0632\u0644\u0648 \u0631\u0648\u062f\u0627","kind":"locality","name":"Kazl\u0173 R\u016bda","kind_detail":"town","name:de":"Koselrode","source":"openstreetmap.org","name:zh":"\u5361\u8332\u76e7\u9b6f\u9054"},"coordinates":[2889,2967]},{"type":"Point","properties":{"kind":"locality","name":"\u0160akiai","kind_detail":"town","name:de":"Schaki","source":"openstreetmap.org","min_zoom":8.0,"name:uk":"\u0428\u0430\u043a\u044f\u0439","name:ru":"\u0428\u0430\u043a\u044f\u0439","name:pl":"Szaki","population":6051,"name:zh":"\u6c99\u57fa\u827e","id":72605711,"name:ja":"\u30b7\u30e3\u30b1\u30a4"},"coordinates":[1572,3987]},{"type":"Point","properties":{"name:sr":"\u041a\u0438\u0431\u0435\u0440\u0442\u0430\u0458","name:az":"Kib\u0430rt\u0430y","name:lv":"\u0136\u012bbarti","name:ja":"\u30ad\u30fc\u30d0\u30eb\u30bf\u30a4","name:ka":"\u10d9\u10d8\u10d1\u10d0\u10e0\u10e2\u10d0\u10d8","name:kk":"\u041a\u0438\u0431\u0430\u0440\u0442\u0430\u0439","min_zoom":8.0,"name:be":"\u041a\u0456\u0431\u0430\u0440\u0442\u0430\u0439","name:ru":"\u041a\u0438\u0431\u0430\u0440\u0442\u0430\u0439","name:pl":"Kibarty","name:bg":"\u041a\u0438\u0431\u0430\u0440\u0442\u0430\u0439","id":484212963,"name:mk":"\u041a\u0438\u0431\u0435\u0440\u0442\u0430\u0458","population":5631,"name:el":"\u039a\u03cd\u03bc\u03c0\u03b1\u03c1\u03c4\u03b1\u03ca","kind":"locality","name":"Kybartai","kind_detail":"town","name:de":"Kibarten","source":"openstreetmap.org","name:zh":"\u57fa\u5df4\u723e\u6cf0"},"coordinates":[723,2407]},{"type":"Point","properties":{"name:sr":"\u041b\u0430\u0437\u0434\u0438\u0458\u0430\u0458","name:lv":"Lazdiji","name:ja":"\u30e9\u30ba\u30c7\u30a3\u30e4\u30a4","name:ka":"\u10da\u10d0\u10d6\u10d3\u10d8\u10d8\u10d0\u10d8","min_zoom":8.0,"name:uk":"\u041b\u0430\u0437\u0434\u0438\u044f\u0439","name:ru":"\u041b\u0430\u0437\u0434\u0438\u044f\u0439","name:pl":"\u0141o\u017adzieje","name:bg":"\u041b\u0430\u0437\u0434\u0438\u044f\u0439","name:hr":"Lazdijaj","id":261750678,"population":4531,"name:el":"\u039b\u03b1\u03b6\u03bd\u03c4\u03af\u03b3\u03b9\u03b1\u03b9","kind":"locality","name":"Lazdijai","kind_detail":"town","name:de":"Lasdien","source":"openstreetmap.org","name:zh":"\u62c9\u8332\u8fea\u4e9e\u4f0a"},"coordinates":[2946,364]},{"type":"Point","properties":{"name:sr":"\u041a\u0430\u043b\u0432\u0430\u0440\u0438\u0458\u0430","name:az":"K\u0430lv\u0430riya","name:ja":"\u30ab\u30eb\u30f4\u30a1\u30ea\u30e4","name:kk":"\u041a\u0430\u043b\u0432\u0430\u0440\u0438\u044f","min_zoom":8.0,"name:uk":"\u041a\u0430\u043b\u0432\u0430\u0440\u0456\u044f","name:be":"\u041a\u0430\u043b\u044c\u0432\u0430\u0440\u044b\u044f","name:ru":"\u041a\u0430\u043b\u0432\u0430\u0440\u0438\u044f","name:pl":"Kalwaria","name:bg":"\u041a\u0430\u043b\u0432\u0430\u0440\u0438\u044f","id":810457439,"name:mk":"\u041a\u0430\u043b\u0432\u0430\u0440\u0438\u0458\u0430","population":4457,"name:el":"\u039a\u03b1\u03bb\u03b2\u03ac\u03c1\u03b9\u03b3\u03b9\u03b1","kind":"locality","name":"Kalvarija","kind_detail":"town","name:de":"Kalvarien","source":"openstreetmap.org","name:zh":"\u5361\u723e\u74e6\u91cc\u4e9e"},"coordinates":[2119,1266]},{"type":"Point","properties":{"int_name":"Nesterov","name:lt":"Nesterovas","min_zoom":8.0,"old_name":"\u0428\u0442\u0430\u043b\u043b\u0443\u043f\u0451\u043d\u0435\u043d","name:pl":"Niestierow","id":914387646,"population":4333,"kind":"locality","name:en":"Nesterov","old_name:de":"Stallup\u00f6nen;Ebenrode","name":"\u041d\u0435\u0441\u0442\u0435\u0440\u043e\u0432","old_name:pl":"Sto\u0142upiany","kind_detail":"town","old_name:ru":"\u0428\u0442\u0430\u043b\u043b\u0443\u043f\u0451\u043d\u0435\u043d","name:de":"Nesterow","source":"openstreetmap.org","old_name:lt":"Stalup\u0117nai"},"coordinates":[210,2363]},{"type":"Point","properties":{"kind":"locality","name":"Akademija","kind_detail":"town","source":"openstreetmap.org","min_zoom":8.0,"name:ru":"\u0410\u043a\u0430\u0434\u0435\u043c\u0438\u044f","name:pl":"Akademia","id":504268995,"population":2807},"coordinates":[3856,3683]},{"type":"Point","properties":{"kind":"locality","name":"Pilvi\u0161kiai","name:ka":"\u10de\u10d8\u10da\u10d5\u10d8\u10e8\u10d9\u10d8\u10d0\u10d8","kind_detail":"town","name:he":"\u05e4\u05d9\u05dc\u05d5\u05d5\u05d9\u05e9\u05d5\u05e7","name:de":"Pilwischken","source":"openstreetmap.org","min_zoom":8.0,"name:ru":"\u041f\u0438\u043b\u0432\u0438\u0448\u043a\u044f\u0439","name:pl":"Pilwiszki","id":247595955,"population":2305},"coordinates":[2116,2791]},{"type":"Point","properties":{"kind":"locality","name":"E\u017eer\u0117lis","kind_detail":"town","name:de":"Kalanken","source":"openstreetmap.org","min_zoom":8.0,"name:ru":"\u042d\u0436\u044f\u0440\u0435\u043b\u0438\u0441","name:pl":"A\u017carele","id":338749216,"population":1820},"coordinates":[3202,3621]},{"type":"Point","properties":{"name:el":"\u039a\u03bf\u03c5\u03bd\u03c4\u03af\u03c1\u03ba\u03bf\u03c2 \u039d\u03b1\u03bf\u03c5\u03bc\u03b9\u03ad\u03c3\u03c4\u03b9\u03c2","kind":"locality","name:lv":"Kudirkas Naumieste","name":"Kudirkos Naumiestis","kind_detail":"town","source":"openstreetmap.org","min_zoom":8.0,"name:ru":"\u041a\u0443\u0434\u0438\u0440\u043a\u043e\u0441-\u041d\u0430\u0443\u043c\u0435\u0441\u0442\u0438\u0441","name:be":"\u041a\u0443\u0434\u0437\u0456\u0440\u043a\u0430\u0441 \u041d\u0430\u045e\u043c\u0435\u0441\u0446\u0456\u0441","name:pl":"W\u0142adys\u0142aw\u00f3w","population":1732,"name:zh":"\u5eab\u8fea\u723e\u79d1\u65af-\u7459\u6885\u65af\u8482\u65af","id":410606103,"name:ja":"\u30af\u30c7\u30a3\u30eb\u30b3\u30b9\u30fb\u30ca\u30a6\u30df\u30a8\u30b9\u30c6\u30a3\u30b9"},"coordinates":[1058,3073]},{"type":"Point","properties":{"kind":"locality","name:lv":"Simna","name":"Simnas","kind_detail":"town","name:de":"Simnen","source":"openstreetmap.org","min_zoom":8.0,"name:ru":"\u0421\u0438\u043c\u043d\u0430\u0441","name:pl":"Simno","id":249265887,"population":1514},"coordinates":[3338,1110]},{"type":"Point","properties":{"kind":"locality","name":"Luk\u0161iai","kind_detail":"town","name:de":"Lukseen","source":"openstreetmap.org","min_zoom":8.0,"name:pl":"\u0141uksze","id":649153508,"population":1485},"coordinates":[1957,3956]},{"type":"Point","properties":{"kind":"locality","name":"Kulautuva","kind_detail":"town","name:de":"Bastau","source":"openstreetmap.org","min_zoom":8.0,"name:ru":"\u041a\u0443\u043b\u0430\u0443\u0442\u0443\u0432\u0430","name:pl":"Ko\u0142otowo","id":448444333,"population":1425},"coordinates":[3336,3913]},{"type":"Point","properties":{"kind":"locality","name":"Veiveriai","name:ka":"\u10d5\u10d4\u10d8\u10d5\u10d4\u10e0\u10d8\u10d0\u10d8","kind_detail":"town","name:de":"Weiweren","source":"openstreetmap.org","min_zoom":8.0,"name:ru":"\u0412\u0435\u0439\u0432\u0435\u0440\u044f\u0439","name:be":"\u0412\u0435\u0439\u0432\u0435\u0440\u0430\u0439","name:pl":"Wejwery","id":1652186382,"population":1167},"coordinates":[3571,3030]},{"type":"Point","properties":{"kind":"locality","name:lv":"Virbale","name":"Virbalis","name:ka":"\u10d5\u10d8\u10e0\u10d1\u10d0\u10da\u10d8\u10e1\u10d8","old_name:pl":"Wierzbo\u0142owo","kind_detail":"town","name:de":"Wirballen","source":"openstreetmap.org","min_zoom":8.0,"name:ru":"\u0412\u0438\u0440\u0431\u0430\u043b\u0438\u0441","name:pl":"Wierzbo\u0142\u00f3w","population":1095,"name:zh":"\u7dad\u723e\u5df4\u5229\u65af","id":823301379,"name:ja":"\u30f4\u30a3\u30eb\u30d0\u30ea\u30b9"},"coordinates":[942,2330]},{"type":"Point","properties":{"kind":"locality","name":"Liudvinavas","kind_detail":"town","name:de":"Ludwinowen","source":"openstreetmap.org","min_zoom":8.0,"name:ru":"\u041b\u044e\u0434\u0432\u0438\u043d\u043e\u0432\u043e","name:pl":"Ludwin\u00f3w","id":1066077507,"population":966},"coordinates":[2494,1604]},{"type":"Point","properties":{"kind":"locality","name":"Balbieri\u0161kis","kind_detail":"town","name:de":"Hannusburg","source":"openstreetmap.org","min_zoom":8.0,"name:ru":"\u0411\u0430\u043b\u044c\u0431\u0435\u0440\u0438\u0448\u043a\u0438\u0441","name:pl":"Balwierzyszki","id":1154579904,"population":966},"coordinates":[4051,1771]},{"type":"Point","properties":{"kind":"locality","name":"Gri\u0161kab\u016bdis","kind_detail":"town","name:de":"Grischkaboden","source":"openstreetmap.org","min_zoom":8.0,"name:pl":"Gryszkabuda","id":332082018,"population":857},"coordinates":[1952,3460]},{"type":"Point","properties":{"kind":"locality","name":"Seirijai","kind_detail":"town","name:de":"Serrey","source":"openstreetmap.org","min_zoom":8.0,"name:ru":"\u0421\u0435\u0439\u0440\u0438\u044f\u0439","name:pl":"Sereje","id":249265819,"population":788},"coordinates":[3824,357]},{"type":"Point","properties":{"kind":"locality","name":"Ka\u010dergin\u0117","kind_detail":"town","name:de":"Waydensburg","source":"openstreetmap.org","min_zoom":8.0,"name:ru":"\u041a\u0430\u0447\u0435\u0440\u0433\u0438\u043d\u0435","name:pl":"Kaczerginie","id":442005236,"population":772},"coordinates":[3549,3871]},{"type":"Point","properties":{"kind":"locality","name":"\u0160e\u0161tokai","kind_detail":"town","name:de":"Schestoken","source":"openstreetmap.org","min_zoom":8.0,"name:pl":"Szostak\u00f3w","id":273460902,"population":686},"coordinates":[2758,984]},{"type":"Point","properties":{"kind":"locality","name":"Sasnava","kind_detail":"town","source":"openstreetmap.org","min_zoom":8.0,"name:pl":"Sosnowo","id":298332589,"population":546},"coordinates":[2803,2448]},{"type":"Point","properties":{"kind":"locality","name":"Sintautai","kind_detail":"town","name:de":"Sintauten","source":"openstreetmap.org","min_zoom":8.0,"name:pl":"Syntowty","id":332081986,"population":520},"coordinates":[1436,3599]},{"type":"Point","properties":{"kind":"locality","name":"\u0160unskai","kind_detail":"town","name:de":"Schumsken","source":"openstreetmap.org","min_zoom":8.0,"old_name":"\u0160umskai","name:pl":"Szumsk","id":1071178110,"population":468},"coordinates":[2407,2406]},{"type":"Point","properties":{"kind":"locality","name:lv":"Vi\u0161t\u012btis","name":"Vi\u0161tytis","name:ka":"\u10d5\u10d8\u10e8\u10e2\u10d8\u10e2\u10d8\u10e1\u10d8","alt_name:de":"Wyschtyten","kind_detail":"town","name:de":"Wystiten","source":"openstreetmap.org","min_zoom":8.0,"name:ru":"\u0412\u0438\u0448\u0442\u0438\u0442\u0438\u0441","name:pl":"Wisztyniec","id":821091354,"population":436},"coordinates":[618,1470]},{"type":"Point","properties":{"kind":"locality","name":"J\u016br\u0117","kind_detail":"town","source":"openstreetmap.org","min_zoom":8.0,"name:pl":"Jura","id":505062445,"population":401},"coordinates":[3187,2994]},{"type":"Point","properties":{"kind":"locality","name":"Bartninkai","name:ka":"\u10d1\u10d0\u10e0\u10e2\u10dc\u10d8\u10dc\u10d9\u10d0\u10d8","kind_detail":"town","source":"openstreetmap.org","min_zoom":8.0,"name:pl":"Bartniki","id":823452210,"population":390},"coordinates":[1536,1712]},{"type":"Point","properties":{"kind":"locality","name":"Barzdai","kind_detail":"town","name:de":"Bredsen","source":"openstreetmap.org","min_zoom":8.0,"name:ru":"\u0411\u0430\u0440\u0437\u0434\u0430\u0439","name:pl":"Barzdy","id":2137828662,"population":385},"coordinates":[2030,3110]},{"type":"Point","properties":{"kind":"locality","name":"Gra\u017ei\u0161kiai","name:ka":"\u10d2\u10e0\u10d0\u10df\u10d8\u10e8\u10d9\u10d8\u10d0\u10d8","kind_detail":"town","name:de":"Crasima","source":"openstreetmap.org","min_zoom":8.0,"name:pl":"Gra\u017cyszki","id":823547061,"population":349},"coordinates":[1230,1532]},{"type":"Point","properties":{"kind":"locality","name":"Gudeliai","kind_detail":"town","name:he":"\u05d2\u05d5\u05d3\u05dc\u05d9\u05d0\u05d9","name:de":"Gudellen","source":"openstreetmap.org","min_zoom":8.0,"name:ru":"\u0413\u0443\u0434\u044f\u043b\u044f\u0439","name:pl":"Gudele","id":1154579894,"population":340},"coordinates":[3459,1827]},{"type":"Point","properties":{"kind":"locality","name":"Krosna","kind_detail":"town","source":"openstreetmap.org","min_zoom":8.0,"name:pl":"Krasna","id":1423076602,"population":330},"coordinates":[3000,1089]},{"type":"Point","properties":{"kind":"locality","name":"\u0160vente\u017eeris","old_name:pl":"\u015awi\u0119to Jeziory","kind_detail":"town","source":"openstreetmap.org","min_zoom":8.0,"name:pl":"\u015awi\u0119tojeziory","id":1367635704,"population":295},"coordinates":[3323,395]},{"type":"Point","properties":{"kind":"locality","name":"Dauk\u0161iai","kind_detail":"town","name:de":"Wynterburg","source":"openstreetmap.org","min_zoom":8.0,"name:pl":"Dauksze","id":1839223792,"population":275},"coordinates":[3161,1699]},{"type":"Point","properties":{"kind":"locality","name":"Zapy\u0161kis","kind_detail":"town","name:de":"Sapischken","source":"openstreetmap.org","min_zoom":8.0,"name:pl":"Sapie\u017cyszki","id":338749953,"population":264},"coordinates":[3380,3839]},{"type":"Point","properties":{"kind":"locality","name":"Rudamina","kind_detail":"town","name:de":"K\u00f6nigshof","source":"openstreetmap.org","min_zoom":8.0,"name:pl":"Urdomin","id":1367612803,"population":256},"coordinates":[2768,636]},{"type":"Point","properties":{"kind":"locality","name":"\u017dvirg\u017edai\u010diai","kind_detail":"town","source":"openstreetmap.org","min_zoom":8.0,"name:ru":"\u0416\u0432\u0438\u0433\u0436\u0434\u0430\u0439\u0447\u044f\u0439","name:pl":"\u017bwirg\u017cdajcie","id":763280554,"population":242},"coordinates":[1540,3174]},{"type":"Point","properties":{"kind":"locality","name":"Igli\u0161k\u0117liai","kind_detail":"town","name:de":"Postelin","source":"openstreetmap.org","min_zoom":8.0,"name:pl":"Igliszkany","id":1666528367,"population":231},"coordinates":[3028,2028]},{"type":"Point","properties":{"kind":"locality","name":"Krokialaukis","kind_detail":"town","name:de":"Krackepil","source":"openstreetmap.org","min_zoom":8.0,"name:pl":"Krakopol","id":291342409,"population":218},"coordinates":[3678,1376]},{"type":"Point","properties":{"kind":"locality","name":"Keturvalakiai","name:ka":"\u10d9\u10d4\u10e2\u10e3\u10e0\u10d5\u10d0\u10da\u10d0\u10d9\u10d8\u10d0\u10d8","kind_detail":"town","source":"openstreetmap.org","min_zoom":8.0,"name:pl":"Kieturw\u0142oki","id":1881057289,"population":113},"coordinates":[1957,1985]},{"type":"Point","properties":{"kind":"locality","name":"Vin\u010dai","kind_detail":"town","source":"openstreetmap.org","min_zoom":8.0,"name:ru":"\u0412\u0438\u043d\u0447\u044f\u0439","id":1071180333,"population":12},"coordinates":[2741,2573]}]},"transit":{"type":"GeometryCollection","geometries":[{"type":"LineString","properties":{"kind":"train","name":"Warszawa - \u0160e\u0161tokai","name:lt":"Var\u0161uva - \u0160e\u0161tokai","sort_rank":275,"name:de":"Warschau - Schestoken","source":"openstreetmap.org","min_zoom":6.0,"name:pl":"Warszawa - Szostak\u00f3w","ref":"Warszawa - \u0160e\u0161tokai","id":-1223511,"osm_relation":true},"arcs":[13]},{"type":"LineString","properties":{"kind":"train","name":"\u041a\u0430\u043b\u0438\u043d\u0438\u043d\u0433\u0440\u0430\u0434 - \u0410\u0434\u043b\u0435\u0440","name:lt":"Karaliau\u010dius - Adleris","sort_rank":275,"name:de":"Kaliningrad - Adler","source":"openstreetmap.org","min_zoom":6.0,"ref":"\u041a\u0430\u043b\u0438\u043d\u0438\u043d\u0433\u0440\u0430\u0434 - \u0410\u0434\u043b\u0435\u0440","osm_relation":true},"arcs":[14]},{"type":"LineString","properties":{"kind":"train","name":"\u0421\u0430\u043d\u043a\u0442-\u041f\u0435\u0442\u0435\u0440\u0431\u0443\u0440\u0433 - \u041a\u0430\u043b\u0438\u043d\u0438\u043d\u0433\u0440\u0430\u0434","name:lt":"Sankt Peterburgas - Karaliau\u010dius","sort_rank":275,"name:de":"Sankt Petersburg - Kaliningrad","source":"openstreetmap.org","min_zoom":6.0,"ref":"\u0421\u0430\u043d\u043a\u0442-\u041f\u0435\u0442\u0435\u0440\u0431\u0443\u0440\u0433 - \u041a\u0430\u043b\u0438\u043d\u0438\u043d\u0433\u0440\u0430\u0434","osm_relation":true},"arcs":[15]},{"type":"LineString","properties":{"kind":"train","name":"\u041a\u0430\u043b\u0438\u043d\u0438\u043d\u0433\u0440\u0430\u0434 - \u0425\u0430\u0440\u044c\u043a\u043e\u0432","name:lt":"Karaliau\u010dius - Charkovas","sort_rank":275,"name:de":"Kaliningrad - Charkiw","source":"openstreetmap.org","min_zoom":6.0,"ref":"\u041a\u0430\u043b\u0438\u043d\u0438\u043d\u0433\u0440\u0430\u0434 - \u0425\u0430\u0440\u044c\u043a\u043e\u0432","osm_relation":true},"arcs":[16]},{"type":"MultiLineString","properties":{"kind":"train","name":"Vilnius - \u0160e\u0161tokai","sort_rank":275,"name:de":"Wilna - Schestoken","source":"openstreetmap.org","min_zoom":6.0,"ref":"Vilnius - \u0160e\u0161tokai","osm_relation":true},"arcs":[[17],[18]]},{"type":"LineString","properties":{"kind":"train","name:en":"Moscow - Kaliningrad","name":"\u041c\u043e\u0441\u043a\u0432\u0430 - \u041a\u0430\u043b\u0438\u043d\u0438\u043d\u0433\u0440\u0430\u0434","name:lt":"Maskva - Karaliau\u010dius","sort_rank":275,"name:de":"Moskau - Kaliningrad","source":"openstreetmap.org","min_zoom":6.0,"ref":"\u041c\u043e\u0441\u043a\u0432\u0430 - \u041a\u0430\u043b\u0438\u043d\u0438\u043d\u0433\u0440\u0430\u0434","osm_relation":true},"arcs":[19]}]},"pois":{"type":"GeometryCollection","geometries":[{"type":"Point","properties":{"kind":"nature_reserve","name:en":"Rominta Forest Landscape Park","protect_class":"5","name:lt":"Romintos girios kra\u0161tovaizd\u017eio parkas","area":434860000,"name:de":"Landschaftsschutzpark Rominter Heide","source":"openstreetmap.org","min_zoom":7.91,"tier":2,"name:ru":"\u041b\u0430\u043d\u0434\u0448\u0430\u0444\u0442\u043d\u044b\u0439 \u043f\u0430\u0440\u043a \"\u0420\u043e\u043c\u0438\u043d\u0442\u0435\u043d\u0441\u043a\u0430\u044f \u043f\u0443\u0449\u0430\"","id":-4515680,"osm_relation":true,"name":"Park Krajobrazowy Puszczy Rominckiej"},"coordinates":[123,802]},{"type":"Point","properties":{"kind":"protected_area","protect_class":"5","area":27613200,"source":"openstreetmap.org","min_zoom":8.0,"tier":2,"id":-3749352,"osm_relation":true,"name":"Kalni\u0161k\u0117s kra\u0161tovaizd\u017eio draustinis"},"coordinates":[3115,831]},{"type":"Point","properties":{"kind":"nature_reserve","name":"\u041f\u0440\u0438\u0440\u043e\u0434\u043d\u044b\u0439 \u043f\u0430\u0440\u043a \u00ab\u0412\u0438\u0448\u0442\u044b\u043d\u0435\u0446\u043a\u0438\u0439\u00bb","name:lt":"Vi\u0161ty\u010dio gamtos parkas","area":694343000,"name:de":"Wischtynezki-Naturpark","source":"openstreetmap.org","min_zoom":7.57,"tier":2,"name:pl":"Wisztyniecki park przyrody","id":-3735158,"osm_relation":true},"coordinates":[202,1192]},{"type":"Point","properties":{"kind":"protected_area","name":"\u017duvinto biosferos rezervatas","area":542609000,"source":"openstreetmap.org","min_zoom":7.0,"tier":2,"name:pl":"\u017buwincki Rezerwat Biosfery","id":-2888043,"osm_relation":true},"coordinates":[3178,1537]}]},"boundaries":{"type":"GeometryCollection","geometries":[{"type":"MultiLineString","properties":{"name:right:yo":"R\u1ecd\u0301s\u00ed\u00e0","name:left:ch":"Lituania","name:right:yi":"\u05e8\u05d5\u05e1\u05dc\u05d0\u05e0\u05d3","name:left:la":"Lituania","name:right:qu":"Rusiya","old_name:right:ru":"\u0420\u0443\u0441\u044c;\u0417\u043e\u043b\u043e\u0442\u0430\u044f \u041e\u0440\u0434\u0430;\u0420\u0443\u0441\u0441\u043a\u043e\u0435 \u0426\u0430\u0440\u0441\u0442\u0432\u043e;\u0420\u043e\u0441\u0441\u0438\u0439\u0441\u043a\u0430\u044f \u0418\u043c\u043f\u0435\u0440\u0438\u044f;\u0421\u043e\u044e\u0437 \u0421\u043e\u0432\u0435\u0442\u0441\u043a\u0438\u0445 \u0421\u043e\u0446\u0438\u0430\u043b\u0438\u0441\u0442\u0438\u0447\u0435\u0441\u043a\u0438\u0445 \u0420\u0435\u0441\u043f\u0443\u0431\u043b\u0438\u043a","name:left:li":"Litauwe","name:left:vi":"Litva","name:left:sw":"Lituanya","name:left:ka":"\u10da\u10d8\u10e2\u10d5\u10d0","name:left:kl":"Litaueni","name:left:ko":"\ub9ac\ud22c\uc544\ub2c8\uc544","name:right:it":"Russia","name:left:ki":"Lithuania","name:left:ro":"Lituania","name:left:kk":"\u041b\u0438\u0442\u0432\u0430","name:left:rm":"Lituania","name:left:ku":"L\u00eetvanya","name:left:kw":"Lithouani","name:left:kv":"\u041b\u0438\u0442\u0432\u0430","name:right:rn":"Uburusiya","name:right:ro":"Rusia","name:left:ru":"\u041b\u0438\u0442\u0432\u0430","name:right:ig":"Mpaghara Russia","name:right:ie":"Russia","name:right:id":"Rusia","name:left:ky":"\u041b\u0438\u0442\u0432\u0430","name:right:ia":"Russia","name:right:bi":"Rusia","name:right:bn":"\u09b0\u09be\u09b6\u09bf\u09af\u09bc\u09be","name:right:bo":"\u0f68\u0f74\u0f0b\u0f62\u0f74\u0f0b\u0f66\u0f74\u0f0d","name:right:bm":"Risila","name:right:ba":"\u0420\u04d9\u0441\u04d9\u0439","name:right:bg":"\u0420\u0443\u0441\u0438\u044f","name:right:be":"\u0420\u0430\u0441\u0456\u0439\u0441\u043a\u0430\u044f \u0424\u0435\u0434\u044d\u0440\u0430\u0446\u044b\u044f","name:right:br":"Rusia","name:right:bs":"Rusija","name:right:nn":"Russland","name:right:xh":"IRashiya","name:right:nl":"Russische Federatie","name:right:wa":"Feder\u00e5cion d' R\u00fbsseye","name:right:wo":"Federaasio\u014b bu Riisi","name:right:ne":"\u0930\u0941\u0938","name:right:na":"Ratsiya","name:right:ps":"\u0631\u0648\u0633\u06cc\u0647","name:right:ny":"Russia","name:right:nv":"Bi\u02bc\u00e9\u00e9\u02bc \u0141ich\u00ed\u00ed\u02bc\u00ed Bik\u00e9yah","name:left:mg":"Litoania","kind_detail":"2","name:left:tr":"Litvanya","name:right:gu":"\u0ab0\u0ab6\u0abf\u0aaf\u0abe","name:right:gv":"Yn Roosh","name:right:pt":"R\u00fassia","name:left:mk":"\u041b\u0438\u0442\u0432\u0430\u043d\u0438\u0458\u0430","name:left:mi":"Ritu\u0101nia","name:left:ts":"Lithuania","name:left:tt":"\u041b\u0438\u0442\u0432\u0430","name:left:mn":"\u041b\u0438\u0442\u0432\u0430","name:left:ml":"\u0d32\u0d3f\u0d24\u0d4d\u0d35\u0d3e\u0d28\u0d3f\u0d2f","name:left:th":"\u0e1b\u0e23\u0e30\u0e40\u0e17\u0e28\u0e25\u0e34\u0e17\u0e31\u0e27\u0e40\u0e19\u0e35\u0e22","name:right:pa":"\u0a30\u0a42\u0a38","name:left:tk":"Litwa","name:left:tl":"Litwaniya","name:left:mt":"Litwanja","name:right:gl":"Rusia","name:left:my":"\u101c\u1005\u103a\u101e\u1030\u101a\u1031\u1038\u1014\u102e\u1038\u101a\u102c\u1038\u1014\u102d\u102f\u1004\u103a\u1004\u1036","name:right:gn":"Rrusia","name:right:pl":"Rosja","name:left:te":"\u0c32\u0c3f\u0c25\u0c41\u0c35\u0c47\u0c28\u0c3f\u0c2f\u0c3e","name:left:tg":"\u041b\u0438\u0442\u0432\u0430","name:left:ms":"Lithuania","name:left:mr":"\u0932\u093f\u0925\u0941\u090f\u0928\u093f\u092f\u093e","name:right:tr":"Rusya Federasyonu","name:left:da":"Litauen","name:left:de":"Litauen","name:left:dz":"\u0f63\u0f72\u0f0b\u0f50\u0f74\u0f0b\u0f53\u0f72\u0f0b\u0f61\u0f0d","name:right:ga":"An R\u00fais","name:left:dv":"\u078d\u07a8\u078c\u07aa\u0787\u07ad\u0782\u07a8\u0787\u07a7","name:right:lg":"Rwasha","name:right:ug":"\u0631\u0648\u0633\u0649\u064a\u06d5","name:left:hi":"\u0932\u093f\u0925\u0941\u0906\u0928\u093f\u092f\u093e","name:right:lb":"Russland","name:right:uk":"\u0420\u043e\u0441\u0456\u044f","name:left:he":"\u05dc\u05d9\u05d8\u05d0","name:right:ln":"Rus\u00ed","name:right:lo":"\u0ea5\u0eb1\u0e94\u0ec0\u0e8a\u0eb1\u0ebd","name:right:li":"Rusland","name:right:lt":"Rusija","name:right:ur":"\u0631\u0648\u0633","name:right:lv":"Krievija","name:left:hy":"\u053c\u056b\u057f\u057e\u0561","name:left:ta":"\u0bb2\u0bbf\u0ba4\u0bcd\u0ba4\u0bc1\u0bb5\u0bc7\u0ba9\u0bbf\u0baf\u0bbe","name:left:ht":"Lityani","name:left:hu":"Litv\u00e1nia","name:left:hr":"Litva","source":"openstreetmap.org","sort_rank":262,"name:right:gd":"An Ruis","name:right:os":"\u0423\u00e6\u0440\u00e6\u0441\u0435","name:left:cy":"Lithwania","name:right:es":"Rusia","name:right:sr":"\u0420\u0443\u0441\u0438\u0458\u0430","name:right:eu":"Errusia","name:right:et":"Venemaa","name:left:os":"\u041b\u0438\u0442\u0432\u0430","name:left:or":"\u0b32\u0b3f\u0b25\u0b41\u0b06\u0b28\u0b3f\u0b06","name:left:ve":"Lituania","name:right:ee":"Russia","name:left:vo":"Lietuv\u00e4n","name:left:oc":"Litu\u00e0nia","name:right:eo":"Rusujo","name:right:en":"Russia","name:right:el":"\u03a1\u03c9\u03c3\u03af\u03b1","name:left:ff":"Lituwaniya","name:left:fa":"\u0644\u06cc\u062a\u0648\u0627\u0646\u06cc","name:left:fo":"Litava","name:left:fj":"Lituani","name:right:sk":"Rusko","name:left:fi":"Liettua","name:left:fr":"Lituanie","name:left:cs":"Litva","name:right:jv":"Rusia","name:left:fy":"Litouwen","name:right:ja":"\u30ed\u30b7\u30a2","name:right:sq":"Rusia","name:right:ss":"IRashiya","name:left:ja":"\u30ea\u30c8\u30a2\u30cb\u30a2","name:right:su":"Rusia","name:right:st":"Russia","name:right:sw":"Shirikisho la Urusi","name:right:sv":"Ryssland","name:right:si":"\u0dbb\u0dd4\u0dc3\u0dd2\u0dba\u0dcf\u0dc0","name:right:sh":"Rusija","name:left:qu":"Lituwa","name:right:sm":"Lusia","name:right:sl":"Rusija","name:right:so":"Ruushka","name:right:sn":"Russia","name:right:sc":"R\u00f9ssia","name:left:jv":"Lituania","id":-72596,"name:right:sg":"Rus\u00efi","name:right:ch":"Russia","name:right:co":"Russia","name:right:ca":"R\u00fassia","name:right:se":"Ruo\u0161\u0161a","name:right:ce":"\u0420\u043e\u0441\u0441\u0438","name:right:sd":"\u0631\u0648\u0633","name:right:cy":"Rwsia","name:right:zh-yue":"\u4fc4\u7f85\u65af","name:right:cs":"Rusko","name:left:pl":"Litwa","name:right:cu":"\u0420\u0461\u0441\u0457\ua657","name:right:iu":"\u1405\u14db\u14f4","name:right:cv":"\u0420\u0430\u00e7\u00e7\u0435\u0439 \u041f\u0430\u0442\u0448\u0430\u043b\u0103\u0445\u0115","name:left:ar":"\u0644\u064a\u062a\u0648\u0627\u0646\u064a\u0627","name:right:is":"R\u00fassland","name:left:az":"Litva","name:left:ay":"Litua\u00f1a","name:right:rw":"Uburusiya","name:left:af":"Litaue","name:left:ab":"\u041b\u0438\u0442\u0432\u0430","name:left:an":"Lituania","name:left:am":"\u120a\u1275\u12cc\u1292\u12eb","name:left:ak":"Lituania","name:right:io":"Rusia","name:left:zh-yue":"\u7acb\u9676\u5b9b","name:right:ik":"Russia","name:left:rw":"Lituwaniya","name:right:hy":"\u054c\u0578\u0582\u057d\u0561\u057d\u057f\u0561\u0576","name:left:lb":"Litauen","alt_name:left:eo":"Litovio","name:left:lg":"Lithueenia","name:left:su":"Lituania","name:left:st":"Lituania","name:right:hr":"Ruska Federacija","name:left:sv":"Litauen","name:left:sq":"Lituania","name:right:hu":"Oroszorsz\u00e1g","name:left:ss":"Lithuwani","name:left:sr":"\u041b\u0438\u0442\u0432\u0430\u043d\u0438\u0458\u0430","name:right:hi":"\u0930\u0942\u0938","name:left:so":"Lithuaniya","name:left:sh":"Litvanija","name:left:sk":"Litva","name:right:ha":"Rasha","name:left:sg":"Lituan\u00efi","name:left:sa":"\u0932\u0947\u0924\u0941\u0935\u093e","name:right:he":"\u05e8\u05d5\u05e1\u05d9\u05d4","name:left:sc":"Litu\u00e0nia","name:right:la":"Russia","name:right:af":"Rusland","name:left:co":"Lituania","name:right:ab":"\u0423\u0440\u044b\u0441\u0442\u04d9\u044b\u043b\u0430","name:left:ce":"\u041b\u0438\u0442\u0432\u0430","name:right:an":"Rusia","name:right:am":"\u1229\u1232\u12eb","name:left:ca":"Litu\u00e0nia","name:right:av":"\u0420\u043e\u0441\u0441\u0438\u044f\u043b\u044a\u0443\u043b \u0424\u0435\u0434\u0435\u0440\u0430\u0446\u0438\u044f","name:right:as":"\u09f0\u09c1\u09b6\u09bf\u09af\u09be","name:right:ar":"\u0631\u0648\u0633\u064a\u0627","name:left:cu":"\u041b\u0438\u0442\u044a\u0432\u0430","name:left:cv":"\u041b\u0438\u0442\u0432\u0430","name:right:az":"Rusiya","name:right:ay":"Rusiya","name:right:ak":"Russia","name:right:rm":"Russia","name":"Lietuva - \u0420\u043e\u0441\u0441\u0438\u044f","name:right:zu":"IRashiya","name:left:zu":"ILithuwaniya","name:left:zh":"\u7acb\u9676\u5b9b","name:right:za":"Ezlozswh Lienzbangh","name:right:zh":"\u4fc4\u7f57\u65af","official_name:left":"Lietuvos Respublika","name:left:uz":"Litva","name:right:fr":"F\u00e9d\u00e9ration de Russie","name:left:ps":"\u0644\u06d0\u062a\u0648\u0627\u0646\u064a\u0627","name:left:ny":"Lithuania","name:left:nv":"\u0141it\u02bcoow\u0119\u0301\u0119ya","name:left:ur":"\u0644\u062a\u06be\u0648\u0648\u06cc\u0646\u06cc\u0627","id:right":-60189,"name:left:uk":"\u041b\u0438\u0442\u0432\u0430","name:left:no":"Litauen","name:left:nl":"Litouwen","alt_name:right:eo":"Rusio;Ruslando","name:right:fa":"\u0631\u0648\u0633\u06cc\u0647","name:right:fo":"Russland","name:left:ne":"\u0932\u093f\u0925\u0941\u0906\u0928\u093f\u092f\u093e","name:left:ug":"\u0644\u0649\u062a\u06cb\u0627","name:right:fi":"Ven\u00e4j\u00e4","name:left:eo":"Litovujo","name:left:en":"Lithuania","name:left:el":"\u039b\u03b9\u03b8\u03bf\u03c5\u03b1\u03bd\u03af\u03b1","name:left:ee":"Lithuania","name:right:tt":"\u0420\u0443\u0441\u0438\u044f","name:left:es":"Lituania","name:left:ie":"Lituania","name:left:eu":"Lituania","name:left:et":"Leedu","name:right:om":"Raashiyaa","name:right:zh-min-nan":"L\u014d\u0358-se-a","name:left:id":"Lituania","old_name:right":"\u0420\u0443\u0441\u044c;\u0417\u043e\u043b\u043e\u0442\u0430\u044f \u041e\u0440\u0434\u0430;\u0420\u0443\u0441\u0441\u043a\u043e\u0435 \u0426\u0430\u0440\u0441\u0442\u0432\u043e;\u0420\u043e\u0441\u0441\u0438\u0439\u0441\u043a\u0430\u044f \u0418\u043c\u043f\u0435\u0440\u0438\u044f;\u0421\u043e\u044e\u0437 \u0421\u043e\u0432\u0435\u0442\u0441\u043a\u0438\u0445 \u0421\u043e\u0446\u0438\u0430\u043b\u0438\u0441\u0442\u0438\u0447\u0435\u0441\u043a\u0438\u0445 \u0420\u0435\u0441\u043f\u0443\u0431\u043b\u0438\u043a","name:right:oc":"Russia","name:left:ia":"Lituania","short_name:right":"\u0420\u0424","name:right:kn":"\u0cb0\u0cb7\u0ccd\u0caf\u0cbe","name:right:uz":"Rossiya Federatsiyasi","osm_relation":true,"name:right:or":"\u0b0b\u0b37\u0b3f\u0b06","name:left:pt":"Litu\u00e2nia","name:right:th":"\u0e1b\u0e23\u0e30\u0e40\u0e17\u0e28\u0e23\u0e31\u0e2a\u0e40\u0e0b\u0e35\u0e22","name:right:no":"Rusland","name:right:kv":"\u0420\u043e\u0447\u043c\u0443","name:left:gl":"Lituania - Lietuva","name:left:wa":"Litwaneye","min_zoom":8.0,"name:left:sl":"Litva","name:left:ln":"Litwani","name:left:wo":"Lituwaani","name:left:ga":"An Liotu\u00e1in","name:left:it":"Lituania","name:left:gd":"Liotu\u00e0inia","int_name:right":"Russia","name:left:gn":"Litua\u00f1a","name:left:gu":"\u0ab2\u0abf\u0aa5\u0ac1\u0a86\u0aa8\u0abf\u0aaf\u0abe","name:left:gv":"Yn Litaan","official_name:right":"\u0420\u043e\u0441\u0441\u0438\u0439\u0441\u043a\u0430\u044f \u0424\u0435\u0434\u0435\u0440\u0430\u0446\u0438\u044f","name:left":"Lietuva","name:right:mk":"\u0420\u0443\u0441\u0438\u0458\u0430","name:right:mi":"R\u016bhia","name:right:ve":"Rashia","name:right:mn":"\u041e\u0440\u043e\u0441\u044b\u043d \u0425\u043e\u043b\u0431\u043e\u043e\u043d\u044b \u0423\u043b\u0441","name:right:ml":"\u0d31\u0d37\u0d4d\u0d2f","name:right:vo":"Rus\u00e4n","name:right:mg":"Rosia","name:right:vi":"Li\u00ean bang Nga","name:right:my":"\u101b\u102f\u101b\u103e\u102c\u1038\u1014\u102d\u102f\u1004\u103a\u1004\u1036","name:right:ms":"Rusia","name:right:mr":"\u0930\u0936\u093f\u092f\u093e","name:right:fy":"Rusl\u00e2n","name:right:mt":"Russja","name:left:nn":"Litauen","kind":"country","name:left:br":"Lituania","name:left:bs":"Litvanija","int_name:left":"Lithuania","old_name:right:pl":"Zwi\u0105zek Socjalistycznych Republik Radzieckich","name:left:ba":"\u041b\u0438\u0442\u0432\u0430","name:left:bg":"\u041b\u0438\u0442\u0432\u0430","name:left:be":"\u041b\u0456\u0442\u0432\u0430","name:right:ff":"Roosiya","name:left:bi":"Litwania","name:left:bn":"\u09b2\u09bf\u09a5\u09c1\u09af\u09bc\u09be\u09a8\u09bf\u09af\u09bc\u09be","name:left:bo":"\u0f63\u0f72\u0f0b\u0f50\u0f74\u0f0b\u0f68\u0f7a\u0f0b\u0f53\u0f72\u0f0b\u0f61\u0f0d","name:right":"\u0420\u043e\u0441\u0441\u0438\u044f","name:left:yo":"Litu\u00e9n\u00ed\u00e0","name:left:yi":"\u05dc\u05d9\u05d8\u05e2","id:left":-72596,"name:left:na":"Rituainiya","name:right:ka":"\u10e0\u10e3\u10e1\u10d4\u10d7\u10d8","name:left:io":"Lituania","name:right:ty":"R\u016btia","name:right:kg":"Rusia","name:right:ki":"Russia","name:right:kk":"\u0420\u0435\u0441\u0435\u0439","name:right:tw":"Russia","name:right:km":"\u179a\u17bb\u179f\u17d2\u179f\u17ca\u17b8","name:right:kl":"Ruslandi","name:right:ko":"\ub7ec\uc2dc\uc544","name:right:ts":"Russia","name:right:tl":"Pederasyong Ruso","name:right:ks":"\u0631\u0648\u0657\u0633","name:right:to":"L\u016bsia","name:right:ku":"R\u00fbsya","name:right:ti":"\u122b\u123b","name:right:kw":"Russi","name:right:tk":"Russi\u00fda","name:right:ky":"\u041e\u0440\u0443\u0441\u0438\u044f","name:right:te":"\u0c30\u0c37\u0c4d\u0c2f\u0c3e","name:left:iu":"\u14d5\u140b\u1450\u1559","name:right:tg":"\u0420\u0443\u0441\u0438\u044f","name:left:is":"Lith\u00e1en","name:right:ta":"\u0b89\u0bb0\u0bc1\u0b9a\u0bbf\u0baf\u0bbe","name:right:de":"Russland","name:right:da":"Rusland","name:left:rn":"Lituania","name:right:dz":"\u0f62\u0f0b\u0f64\u0f72\u0f0b\u0f61\u0f71\u0f53\u0f0b\u0f55\u0f7a\u0f0b\u0f4c\u0f72\u0f0b\u0f62\u0f7a\u0f0b\u0f64\u0f71\u0f53","name:right:dv":"\u0783\u07ab\u0790\u07a9\u0788\u07a8\u078d\u07a7\u078c\u07b0","name:right:ht":"Risi"},"arcs":[[0],[1]]},{"type":"LineString","properties":{"name:right:yo":"Polandi","name:left:ch":"Lituania","name:right:yi":"\u05e4\u05d5\u05d9\u05dc\u05df","name:left:la":"Lituania","name:right:qu":"Pulunya","name:left:li":"Litauwe","name:left:vi":"Litva","name:left:sw":"Lituanya","name:left:ka":"\u10da\u10d8\u10e2\u10d5\u10d0","name:left:kl":"Litaueni","name:left:ko":"\ub9ac\ud22c\uc544\ub2c8\uc544","name:right:it":"Polonia","name:left:ki":"Lithuania","name:left:ro":"Lituania","name:left:kk":"\u041b\u0438\u0442\u0432\u0430","name:left:rm":"Lituania","name:left:ku":"L\u00eetvanya","name:left:kw":"Lithouani","name:left:kv":"\u041b\u0438\u0442\u0432\u0430","name:right:rn":"Polonia","name:right:ro":"Polonia","name:left:ru":"\u041b\u0438\u0442\u0432\u0430","name:right:ig":"Poland","name:right:ie":"Polonia","name:right:id":"Polandia","name:left:ky":"\u041b\u0438\u0442\u0432\u0430","name:right:ia":"Polonia","name:right:bi":"Poland","name:right:bn":"\u09aa\u09cb\u09b2\u09cd\u09af\u09be\u09a8\u09cd\u09a1","name:right:bo":"\u0f55\u0f7c\u0f0b\u0f63\u0f53\u0f0d","name:left:sl":"Litva","name:right:ba":"\u041f\u043e\u043b\u044c\u0448\u0430","name:right:bg":"\u041f\u043e\u043b\u0448\u0430","name:right:be":"\u041f\u043e\u043b\u044c\u0448\u0447\u0430","name:right:br":"Polonia","name:right:bs":"Poljska","name:right:nn":"Polen","name:right:no":"Polen","name:right:nl":"Polen","name:right:wa":"Pologne","name:right:wo":"Polo\u00f1","name:right:ne":"\u092a\u094b\u0932\u094d\u092f\u093e\u0923\u094d\u0921","name:right:na":"Poran","name:right:gv":"Yn Pholynn","name:right:nv":"P\u00f3olish Dine\u02bc\u00e9 Bik\u00e9yah","name:left:mg":"Litoania","kind_detail":"2","name:left:tr":"Litvanya","name:right:gu":"\u0aaa\u0acb\u0ab2\u0ac7\u0a82\u0aa1","name:right:ps":"\u067e\u0648\u0644\u0646\u0689","name:right:pt":"Pol\u00f3nia","name:left:mk":"\u041b\u0438\u0442\u0432\u0430\u043d\u0438\u0458\u0430","name:left:mi":"Ritu\u0101nia","name:left:ts":"Lithuania","name:left:tt":"\u041b\u0438\u0442\u0432\u0430","name:left:mn":"\u041b\u0438\u0442\u0432\u0430","name:left:ml":"\u0d32\u0d3f\u0d24\u0d4d\u0d35\u0d3e\u0d28\u0d3f\u0d2f","name:left:th":"\u0e1b\u0e23\u0e30\u0e40\u0e17\u0e28\u0e25\u0e34\u0e17\u0e31\u0e27\u0e40\u0e19\u0e35\u0e22","name:right:pa":"\u0a2a\u0a4b\u0a32\u0a48\u0a02\u0a21","name:left:tk":"Litwa","name:left:tl":"Litwaniya","name:left:mt":"Litwanja","name:right:gl":"Polonia","name:left:my":"\u101c\u1005\u103a\u101e\u1030\u101a\u1031\u1038\u1014\u102e\u1038\u101a\u102c\u1038\u1014\u102d\u102f\u1004\u103a\u1004\u1036","name:right:gn":"Polo\u00f1a","name:left:te":"\u0c32\u0c3f\u0c25\u0c41\u0c35\u0c47\u0c28\u0c3f\u0c2f\u0c3e","name:left:tg":"\u041b\u0438\u0442\u0432\u0430","name:left:ms":"Lithuania","name:left:mr":"\u0932\u093f\u0925\u0941\u090f\u0928\u093f\u092f\u093e","name:right:tr":"Polonya","name:left:da":"Litauen","name:left:de":"Litauen","name:left:dz":"\u0f63\u0f72\u0f0b\u0f50\u0f74\u0f0b\u0f53\u0f72\u0f0b\u0f61\u0f0d","name:right:ga":"An Pholainn","name:left:dv":"\u078d\u07a8\u078c\u07aa\u0787\u07ad\u0782\u07a8\u0787\u07a7","name:right:lg":"Bupoolo","name:right:ug":"\u067e\u0648\u0644\u0634\u0627","name:left:hi":"\u0932\u093f\u0925\u0941\u0906\u0928\u093f\u092f\u093e","name:right:lb":"Polen","name:right:uk":"\u041f\u043e\u043b\u044c\u0449\u0430","name:left:he":"\u05dc\u05d9\u05d8\u05d0","name:right:ln":"Poloni","name:right:li":"Pole","name:right:lt":"Lenkija","name:right:ur":"\u067e\u0648\u0644\u06cc\u0646\u0688","name:right:lv":"Polija","name:left:hy":"\u053c\u056b\u057f\u057e\u0561","name:left:ta":"\u0bb2\u0bbf\u0ba4\u0bcd\u0ba4\u0bc1\u0bb5\u0bc7\u0ba9\u0bbf\u0baf\u0bbe","name:left:ht":"Lityani","name:left:hu":"Litv\u00e1nia","name:left:hr":"Litva","sort_rank":262,"name:right:gd":"A' Ph\u00f2lainn","name:right:os":"\u041f\u043e\u043b\u044c\u0448\u00e6","name:right:es":"Polonia","name:right:sr":"\u041f\u043e\u0459\u0441\u043a\u0430","name:right:eu":"Polonia","name:right:et":"Poola","name:left:os":"\u041b\u0438\u0442\u0432\u0430","name:left:or":"\u0b32\u0b3f\u0b25\u0b41\u0b06\u0b28\u0b3f\u0b06","name:left:ve":"Lituania","name:right:ee":"Poland","name:left:vo":"Lietuv\u00e4n","name:left:oc":"Litu\u00e0nia","name:right:eo":"Polujo","name:right:en":"Poland","name:right:el":"\u03a0\u03bf\u03bb\u03c9\u03bd\u03af\u03b1","name:left:ff":"Lituwaniya","name:left:fa":"\u0644\u06cc\u062a\u0648\u0627\u0646\u06cc","name:left:fo":"Litava","name:left:fj":"Lituani","name:right:sk":"Po\u013esko","name:left:fi":"Liettua","name:left:fr":"Lituanie","name:left:cs":"Litva","name:right:jv":"Polandia","name:left:fy":"Litouwen","name:right:ja":"\u30dd\u30fc\u30e9\u30f3\u30c9","name:right:sq":"Polonia","name:right:ss":"IPholandi","name:left:ja":"\u30ea\u30c8\u30a2\u30cb\u30a2","name:right:su":"Polandia","name:right:st":"Poland","name:right:sw":"Poland","name:right:sv":"Polen","name:right:si":"\u0db4\u0ddd\u0dbd\u0db1\u0dca\u0dad\u0dba","name:right:sh":"Poljska","name:left:qu":"Lituwa","name:right:sm":"Polagi","name:right:sl":"Poljska","name:right:so":"Boland","name:right:sa":"\u092a\u094b\u0932\u0948\u0902\u0921","name:right:sc":"Polonia","name:left:jv":"Lituania","id":-72596,"name:right:sg":"P\u00f6l\u00f4ni","name:right:co":"Polonia","name:right:ca":"Pol\u00f2nia","name:right:ce":"\u041f\u043e\u043b\u044c\u0448\u0430","name:right:cy":"Gwlad Pwyl","name:right:zh-yue":"\u6ce2\u862d","name:right:cs":"Polsko","name:right:cu":"\u041f\u043e\u043b\u0484\u044c\u0441\u043a\u0430","name:right:iu":"\u1433\u14da\u14d0\u1466","name:right:cv":"\u041f\u043e\u043b\u044c\u0448\u0430","name:left:ar":"\u0644\u064a\u062a\u0648\u0627\u0646\u064a\u0627","name:right:is":"P\u00f3lland","name:left:az":"Litva","name:left:ay":"Litua\u00f1a","name:right:rw":"Polonye","name:left:af":"Litaue","name:left:ab":"\u041b\u0438\u0442\u0432\u0430","name:left:an":"Lituania","name:left:am":"\u120a\u1275\u12cc\u1292\u12eb","name:right:ru":"\u041f\u043e\u043b\u044c\u0448\u0430","name:left:ak":"Lituania","name:right:io":"Polonia","name:left:zh-yue":"\u7acb\u9676\u5b9b","name:left:rw":"Lituwaniya","name:right:hy":"\u053c\u0565\u0570\u0561\u057d\u057f\u0561\u0576","name:left:lb":"Litauen","alt_name:left:eo":"Litovio","name:left:lg":"Lithueenia","name:left:su":"Lituania","name:left:st":"Lituania","name:right:hr":"Poljska","name:left:sv":"Litauen","name:left:sq":"Lituania","name:right:hu":"Lengyelorsz\u00e1g","name:left:ss":"Lithuwani","name:left:sr":"\u041b\u0438\u0442\u0432\u0430\u043d\u0438\u0458\u0430","name:right:hi":"\u092a\u094b\u0932\u0948\u0902\u0921","name:left:so":"Lithuaniya","name:left:sh":"Litvanija","name:left:sk":"Litva","name:right:ha":"Poland","name:left:sg":"Lituan\u00efi","name:left:sa":"\u0932\u0947\u0924\u0941\u0935\u093e","name:right:he":"\u05e4\u05d5\u05dc\u05d9\u05df","name:left:sc":"Litu\u00e0nia","name:right:la":"Polonia","name:right:af":"Pole","name:left:co":"Lituania","name:right:ab":"\u041f\u043e\u043b\u0448\u0430","name:left:ce":"\u041b\u0438\u0442\u0432\u0430","name:right:an":"Polonia","name:right:am":"\u1356\u120b\u1295\u12f5","name:left:ca":"Litu\u00e0nia","source":"openstreetmap.org","name:left:cy":"Lithwania","name:right:ar":"\u0628\u0648\u0644\u0646\u062f\u0627","name:left:cu":"\u041b\u0438\u0442\u044a\u0432\u0430","name:left:cv":"\u041b\u0438\u0442\u0432\u0430","name:right:az":"Pol\u015fa","name:right:ay":"Pulu\u00f1a","name:right:ak":"Poland","name:right:rm":"Pologna","name":"Lietuva - Polska","name:right:zu":"IPolandi","name:left:zu":"ILithuwaniya","name:left:zh":"\u7acb\u9676\u5b9b","name:right:zh":"\u6ce2\u5170","official_name:left":"Lietuvos Respublika","name:left:uz":"Litva","name:right:fr":"Pologne","name:left:ps":"\u0644\u06d0\u062a\u0648\u0627\u0646\u064a\u0627","name:left:ny":"Lithuania","name:left:nv":"\u0141it\u02bcoow\u0119\u0301\u0119ya","name:left:ur":"\u0644\u062a\u06be\u0648\u0648\u06cc\u0646\u06cc\u0627","id:right":-49715,"name:left:uk":"\u041b\u0438\u0442\u0432\u0430","name:left:no":"Litauen","name:left:nl":"Litouwen","alt_name:right:eo":"Pollando;Polio","name:right:fa":"\u0644\u0647\u0633\u062a\u0627\u0646","name:right:fo":"P\u00f3lland","name:left:ne":"\u0932\u093f\u0925\u0941\u0906\u0928\u093f\u092f\u093e","name:left:ug":"\u0644\u0649\u062a\u06cb\u0627","name:right:fi":"Puola","name:left:eo":"Litovujo","name:left:en":"Lithuania","name:left:el":"\u039b\u03b9\u03b8\u03bf\u03c5\u03b1\u03bd\u03af\u03b1","name:left:ee":"Lithuania","name:right:tt":"\u041f\u043e\u043b\u044c\u0448\u0430","name:left:es":"Lituania","name:left:ie":"Lituania","name:left:eu":"Lituania","name:left:et":"Leedu","name:right:oc":"Polonha","name:left:ia":"Lituania","short_name:right":"RP","name:right:uz":"Polsha","osm_relation":true,"name:right:or":"\u0b2a\u0b4b\u0b32\u0b3e\u0b23\u0b4d\u0b21","name:left:pt":"Litu\u00e2nia","name:right:ku":"Polonya","name:right:tk":"Pol\u015fa","name:left:wa":"Litwaneye","min_zoom":8.0,"name:left:ln":"Litwani","name:left:wo":"Lituwaani","name:left:ga":"An Liotu\u00e1in","name:left:it":"Lituania","name:left:gd":"Liotu\u00e0inia","name:left:gl":"Lituania - Lietuva","name:left:gn":"Litua\u00f1a","name:left:gu":"\u0ab2\u0abf\u0aa5\u0ac1\u0a86\u0aa8\u0abf\u0aaf\u0abe","name:left:gv":"Yn Litaan","official_name:right":"Rzeczpospolita Polska","name:left":"Lietuva","name:right:mk":"\u041f\u043e\u043b\u0441\u043a\u0430","name:right:mi":"P\u014drana","name:right:mn":"\u041f\u043e\u043b\u044c\u0448","name:right:ml":"\u0d2a\u0d4b\u0d33\u0d23\u0d4d\u0d1f\u0d4d","name:right:vo":"Pol\u00e4n","name:right:mg":"Polonia","name:right:vi":"Ba Lan","name:right:my":"\u1015\u102d\u102f\u101c\u1014\u103a\u1014\u102d\u102f\u1004\u103a\u1004\u1036","name:right:ms":"Poland","name:right:mr":"\u092a\u094b\u0932\u0902\u0921","name:right:fy":"Poalen","name:right:mt":"Polonja","name:left:nn":"Litauen","kind":"country","name:left:br":"Lituania","name:left:bs":"Litvanija","int_name:left":"Lithuania","name:left:ba":"\u041b\u0438\u0442\u0432\u0430","name:left:bg":"\u041b\u0438\u0442\u0432\u0430","name:left:be":"\u041b\u0456\u0442\u0432\u0430","name:right:ff":"Poloonya","name:left:bi":"Litwania","name:left:bn":"\u09b2\u09bf\u09a5\u09c1\u09af\u09bc\u09be\u09a8\u09bf\u09af\u09bc\u09be","name:left:bo":"\u0f63\u0f72\u0f0b\u0f50\u0f74\u0f0b\u0f68\u0f7a\u0f0b\u0f53\u0f72\u0f0b\u0f61\u0f0d","name:right":"Polska","name:left:yo":"Litu\u00e9n\u00ed\u00e0","name:left:yi":"\u05dc\u05d9\u05d8\u05e2","id:left":-72596,"name:left:na":"Rituainiya","name:right:ka":"\u10de\u10dd\u10da\u10dd\u10dc\u10d4\u10d7\u10d8","name:left:io":"Lituania","name:right:kg":"Pologne","name:left:pl":"Litwa","name:right:kk":"\u041f\u043e\u043b\u044c\u0448\u0430","name:left:id":"Lituania","name:right:km":"\u1794\u17d2\u179a\u1791\u17c1\u179f\u1794\u17c9\u17bc\u17a1\u17bc\u1789","name:right:kl":"Poleni","name:right:ko":"\ud3f4\ub780\ub4dc","name:right:kn":"\u0caa\u0ccb\u0cb2\u0cc6\u0c82\u0ca1\u0ccd","name:right:tl":"Polonya","name:right:th":"\u0e1b\u0e23\u0e30\u0e40\u0e17\u0e28\u0e42\u0e1b\u0e41\u0e25\u0e19\u0e14\u0e4c","name:right:kw":"Poloni","name:right:kv":"\u041f\u043e\u043b\u044c\u0448\u0430","name:right:ky":"\u041f\u043e\u043b\u044c\u0448\u0430","name:right:te":"\u0c2a\u0c4b\u0c32\u0c3e\u0c02\u0c21\u0c4d","name:left:iu":"\u14d5\u140b\u1450\u1559","name:right:tg":"\u041b\u0430\u04b3\u0438\u0441\u0442\u043e\u043d","name:left:is":"Lith\u00e1en","name:right:ta":"\u0baa\u0bcb\u0bb2\u0ba8\u0bcd\u0ba4\u0bc1","name:right:de":"Polen","name:right:da":"Polen","name:left:rn":"Lituania","name:right:dv":"\u0795\u07ae\u078d\u07ac\u0782\u07b0\u0791\u07aa","name:right:ht":"Pol\u00f2y"},"arcs":[2]},{"type":"LineString","properties":{"name:right:yo":"Polandi","name:left:ch":"Russia","name:right:yi":"\u05e4\u05d5\u05d9\u05dc\u05df","name:left:la":"Russia","name:right:qu":"Pulunya","name:left:pl":"Rosja","name:left:li":"Rusland","name:left:vi":"Li\u00ean bang Nga","name:left:ik":"Russia","name:left:sw":"Shirikisho la Urusi","name:left:kg":"Rusia","name:left:ka":"\u10e0\u10e3\u10e1\u10d4\u10d7\u10d8","name:left:km":"\u179a\u17bb\u179f\u17d2\u179f\u17ca\u17b8","name:left:kl":"Ruslandi","name:left:ko":"\ub7ec\uc2dc\uc544","name:left:kn":"\u0cb0\u0cb7\u0ccd\u0caf\u0cbe","name:left:ki":"Russia","name:left:ro":"Rusia","name:left:kk":"\u0420\u0435\u0441\u0435\u0439","name:left:rm":"Russia","name:left:ku":"R\u00fbsya","name:left:kw":"Russi","name:left:kv":"\u0420\u043e\u0447\u043c\u0443","name:right:rn":"Polonia","name:right:ro":"Polonia","name:left:ks":"\u0631\u0648\u0657\u0633","name:right:rm":"Pologna","name:right:ig":"Poland","name:right:ie":"Polonia","name:right:id":"Polandia","name:left:ky":"\u041e\u0440\u0443\u0441\u0438\u044f","name:right:ia":"Polonia","name:right:bi":"Poland","name:right:bn":"\u09aa\u09cb\u09b2\u09cd\u09af\u09be\u09a8\u09cd\u09a1","name:right:bo":"\u0f55\u0f7c\u0f0b\u0f63\u0f53\u0f0d","name:left:sl":"Rusija","name:right:ba":"\u041f\u043e\u043b\u044c\u0448\u0430","name:right:bg":"\u041f\u043e\u043b\u0448\u0430","name:right:be":"\u041f\u043e\u043b\u044c\u0448\u0447\u0430","name:right:br":"Polonia","name:left:lt":"Rusija","name:right:nn":"Polen","name:right:no":"Polen","name:right:nl":"Polen","name:right:wa":"Pologne","name:left:lv":"Krievija","name:right:wo":"Polo\u00f1","name:right:ne":"\u092a\u094b\u0932\u094d\u092f\u093e\u0923\u094d\u0921","name:right:na":"Poran","name:right:gv":"Yn Pholynn","name:left:sd":"\u0631\u0648\u0633","name:right:nv":"P\u00f3olish Dine\u02bc\u00e9 Bik\u00e9yah","name:left:mg":"Rosia","kind_detail":"2","name:left:tr":"Rusya Federasyonu","name:right:gu":"\u0aaa\u0acb\u0ab2\u0ac7\u0a82\u0aa1","name:left:ty":"R\u016btia","name:right:ps":"\u067e\u0648\u0644\u0646\u0689","name:right:pt":"Pol\u00f3nia","name:left:mk":"\u0420\u0443\u0441\u0438\u0458\u0430","name:left:mi":"R\u016bhia","name:left:ts":"Russia","name:left:tt":"\u0420\u0443\u0441\u0438\u044f","name:left:mn":"\u041e\u0440\u043e\u0441\u044b\u043d \u0425\u043e\u043b\u0431\u043e\u043e\u043d\u044b \u0423\u043b\u0441","name:left:tw":"Russia","name:left:th":"\u0e1b\u0e23\u0e30\u0e40\u0e17\u0e28\u0e23\u0e31\u0e2a\u0e40\u0e0b\u0e35\u0e22","name:left:mr":"\u0930\u0936\u093f\u092f\u093e","name:left:tk":"Russi\u00fda","name:left:tl":"Pederasyong Ruso","name:left:to":"L\u016bsia","name:right:gl":"Polonia","name:left:my":"\u101b\u102f\u101b\u103e\u102c\u1038\u1014\u102d\u102f\u1004\u103a\u1004\u1036","name:right:gn":"Polo\u00f1a","name:left:te":"\u0c30\u0c37\u0c4d\u0c2f\u0c3e","name:left:tg":"\u0420\u0443\u0441\u0438\u044f","name:left:ms":"Rusia","name:left:ti":"\u122b\u123b","name:right:tr":"Polonya","name:left:da":"Rusland","name:left:de":"Russland","name:left:dz":"\u0f62\u0f0b\u0f64\u0f72\u0f0b\u0f61\u0f71\u0f53\u0f0b\u0f55\u0f7a\u0f0b\u0f4c\u0f72\u0f0b\u0f62\u0f7a\u0f0b\u0f64\u0f71\u0f53","name:right:ga":"An Pholainn","name:left:dv":"\u0783\u07ab\u0790\u07a9\u0788\u07a8\u078d\u07a7\u078c\u07b0","name:right:lg":"Bupoolo","name:right:ug":"\u067e\u0648\u0644\u0634\u0627","name:left:hi":"\u0930\u0942\u0938","name:right:lb":"Polen","name:left:nn":"Russland","name:right:uk":"\u041f\u043e\u043b\u044c\u0449\u0430","name:left:he":"\u05e8\u05d5\u05e1\u05d9\u05d4","name:right:ln":"Poloni","name:left:mt":"Russja","name:left:ha":"Rasha","name:right:lt":"Lenkija","name:right:ur":"\u067e\u0648\u0644\u06cc\u0646\u0688","name:right:lv":"Polija","name:left:hy":"\u054c\u0578\u0582\u057d\u0561\u057d\u057f\u0561\u0576","name:left:ta":"\u0b89\u0bb0\u0bc1\u0b9a\u0bbf\u0baf\u0bbe","name:left:ht":"Risi","name:left:hu":"Oroszorsz\u00e1g","name:left:hr":"Ruska Federacija","sort_rank":262,"name:right:gd":"A' Ph\u00f2lainn","name:right:os":"\u041f\u043e\u043b\u044c\u0448\u00e6","name:right:es":"Polonia","name:right:sr":"\u041f\u043e\u0459\u0441\u043a\u0430","name:right:eu":"Polonia","name:right:et":"Poola","name:left:os":"\u0423\u00e6\u0440\u00e6\u0441\u0435","name:left:or":"\u0b0b\u0b37\u0b3f\u0b06","name:left:ve":"Rashia","name:left:om":"Raashiyaa","name:right:pa":"\u0a2a\u0a4b\u0a32\u0a48\u0a02\u0a21","name:right:ee":"Poland","name:left:vo":"Rus\u00e4n","name:left:oc":"Russia","name:right:eo":"Polujo","name:right:en":"Poland","name:right:el":"\u03a0\u03bf\u03bb\u03c9\u03bd\u03af\u03b1","name:left:ff":"Roosiya","name:left:fa":"\u0631\u0648\u0633\u06cc\u0647","name:left:fo":"Russland","name:right:sk":"Po\u013esko","name:left:fi":"Ven\u00e4j\u00e4","name:left:fr":"F\u00e9d\u00e9ration de Russie","name:left:cs":"Rusko","name:right:jv":"Polandia","name:left:fy":"Rusl\u00e2n","name:right:ja":"\u30dd\u30fc\u30e9\u30f3\u30c9","name:right:sq":"Polonia","name:right:ss":"IPholandi","name:left:ja":"\u30ed\u30b7\u30a2","name:right:su":"Polandia","name:right:st":"Poland","name:right:sw":"Poland","name:right:sv":"Polen","name:right:si":"\u0db4\u0ddd\u0dbd\u0db1\u0dca\u0dad\u0dba","name:right:sh":"Poljska","name:left:qu":"Rusiya","name:right:sm":"Polagi","name:right:sl":"Poljska","name:right:so":"Boland","name:right:sa":"\u092a\u094b\u0932\u0948\u0902\u0921","name:right:sc":"Polonia","name:left:jv":"Rusia","id":-60189,"name:right:sg":"P\u00f6l\u00f4ni","name:right:co":"Polonia","name:right:ca":"Pol\u00f2nia","name:right:ce":"\u041f\u043e\u043b\u044c\u0448\u0430","name:right:cy":"Gwlad Pwyl","name:right:zh-yue":"\u6ce2\u862d","name:right:cs":"Polsko","name:right":"Polska","name:right:cu":"\u041f\u043e\u043b\u0484\u044c\u0441\u043a\u0430","name:right:iu":"\u1433\u14da\u14d0\u1466","name:right:cv":"\u041f\u043e\u043b\u044c\u0448\u0430","name:left:av":"\u0420\u043e\u0441\u0441\u0438\u044f\u043b\u044a\u0443\u043b \u0424\u0435\u0434\u0435\u0440\u0430\u0446\u0438\u044f","name:right:it":"Polonia","name:left:as":"\u09f0\u09c1\u09b6\u09bf\u09af\u09be","name:left:ar":"\u0631\u0648\u0633\u064a\u0627","name:right:is":"P\u00f3lland","name:left:az":"Rusiya","name:left:ay":"Rusiya","name:right:rw":"Polonye","name:left:af":"Rusland","name:left:ab":"\u0423\u0440\u044b\u0441\u0442\u04d9\u044b\u043b\u0430","name:left:an":"Rusia","name:left:am":"\u1229\u1232\u12eb","name:right:ru":"\u041f\u043e\u043b\u044c\u0448\u0430","name:left:ak":"Russia","name:right:io":"Polonia","name:left:xh":"IRashiya","name:left:zh-yue":"\u4fc4\u7f85\u65af","name:left:rw":"Uburusiya","name:right:hy":"\u053c\u0565\u0570\u0561\u057d\u057f\u0561\u0576","name:left:lb":"Russland","alt_name:left:eo":"Rusio;Ruslando","name:left:lg":"Rwasha","name:left:su":"Rusia","name:left:st":"Russia","name:right:hr":"Poljska","name:left:sv":"Ryssland","name:left:sq":"Rusia","name:right:hu":"Lengyelorsz\u00e1g","name:left:ss":"IRashiya","name:left:sr":"\u0420\u0443\u0441\u0438\u0458\u0430","name:left:sm":"Lusia","name:right:hi":"\u092a\u094b\u0932\u0948\u0902\u0921","name:left:so":"Ruushka","name:left:sn":"Russia","name:left:si":"\u0dbb\u0dd4\u0dc3\u0dd2\u0dba\u0dcf\u0dc0","name:left:sh":"Rusija","name:left:sk":"Rusko","name:left:se":"Ruo\u0161\u0161a","name:right:ha":"Poland","name:left:sg":"Rus\u00efi","name:right:he":"\u05e4\u05d5\u05dc\u05d9\u05df","name:left:sc":"R\u00f9ssia","name:right:la":"Polonia","name:right:af":"Pole","name:left:co":"Russia","name:right:ab":"\u041f\u043e\u043b\u0448\u0430","name:left:ce":"\u0420\u043e\u0441\u0441\u0438","name:right:an":"Polonia","name:right:am":"\u1356\u120b\u1295\u12f5","name:left:ca":"R\u00fassia","source":"openstreetmap.org","name:left:cy":"Rwsia","name:right:ar":"\u0628\u0648\u0644\u0646\u062f\u0627","name:left:cu":"\u0420\u0461\u0441\u0457\ua657","name:left:cv":"\u0420\u0430\u00e7\u00e7\u0435\u0439 \u041f\u0430\u0442\u0448\u0430\u043b\u0103\u0445\u0115","name:right:az":"Pol\u015fa","name:right:ay":"Pulu\u00f1a","name:right:ak":"Poland","name:right:li":"Pole","name":"\u0420\u043e\u0441\u0441\u0438\u044f - Polska","name:right:zu":"IPolandi","name:left:zu":"IRashiya","name:left:zh":"\u4fc4\u7f57\u65af","name:right:zh":"\u6ce2\u5170","name:left:za":"Ezlozswh Lienzbangh","official_name:left":"\u0420\u043e\u0441\u0441\u0438\u0439\u0441\u043a\u0430\u044f \u0424\u0435\u0434\u0435\u0440\u0430\u0446\u0438\u044f","name:left:uz":"Rossiya Federatsiyasi","name:right:fr":"Pologne","name:left:ps":"\u0631\u0648\u0633\u06cc\u0647","name:left:ny":"Russia","name:left:nv":"Bi\u02bc\u00e9\u00e9\u02bc \u0141ich\u00ed\u00ed\u02bc\u00ed Bik\u00e9yah","name:left:ur":"\u0631\u0648\u0633","id:right":-49715,"name:left:uk":"\u0420\u043e\u0441\u0456\u044f","name:left:no":"Rusland","name:left:nl":"Russische Federatie","alt_name:right:eo":"Pollando;Polio","name:right:fa":"\u0644\u0647\u0633\u062a\u0627\u0646","name:right:fo":"P\u00f3lland","name:left:ne":"\u0930\u0941\u0938","name:left:ug":"\u0631\u0648\u0633\u0649\u064a\u06d5","name:right:fi":"Puola","name:left:ml":"\u0d31\u0d37\u0d4d\u0d2f","name:left:eo":"Rusujo","name:left:en":"Russia","name:left:el":"\u03a1\u03c9\u03c3\u03af\u03b1","name:left:ee":"Russia","name:right:tt":"\u041f\u043e\u043b\u044c\u0448\u0430","name:left:es":"Rusia","name:left:ie":"Russia","name:left:eu":"Errusia","name:left:et":"Venemaa","name:right:oc":"Polonha","name:left:ia":"Russia","name:right:bs":"Poljska","short_name:right":"RP","name:right:uz":"Polsha","osm_relation":true,"name:right:or":"\u0b2a\u0b4b\u0b32\u0b3e\u0b23\u0b4d\u0b21","name:left:pt":"R\u00fassia","name:right:ku":"Polonya","old_name:left":"\u0420\u0443\u0441\u044c;\u0417\u043e\u043b\u043e\u0442\u0430\u044f \u041e\u0440\u0434\u0430;\u0420\u0443\u0441\u0441\u043a\u043e\u0435 \u0426\u0430\u0440\u0441\u0442\u0432\u043e;\u0420\u043e\u0441\u0441\u0438\u0439\u0441\u043a\u0430\u044f \u0418\u043c\u043f\u0435\u0440\u0438\u044f;\u0421\u043e\u044e\u0437 \u0421\u043e\u0432\u0435\u0442\u0441\u043a\u0438\u0445 \u0421\u043e\u0446\u0438\u0430\u043b\u0438\u0441\u0442\u0438\u0447\u0435\u0441\u043a\u0438\u0445 \u0420\u0435\u0441\u043f\u0443\u0431\u043b\u0438\u043a","old_name:left:ru":"\u0420\u0443\u0441\u044c;\u0417\u043e\u043b\u043e\u0442\u0430\u044f \u041e\u0440\u0434\u0430;\u0420\u0443\u0441\u0441\u043a\u043e\u0435 \u0426\u0430\u0440\u0441\u0442\u0432\u043e;\u0420\u043e\u0441\u0441\u0438\u0439\u0441\u043a\u0430\u044f \u0418\u043c\u043f\u0435\u0440\u0438\u044f;\u0421\u043e\u044e\u0437 \u0421\u043e\u0432\u0435\u0442\u0441\u043a\u0438\u0445 \u0421\u043e\u0446\u0438\u0430\u043b\u0438\u0441\u0442\u0438\u0447\u0435\u0441\u043a\u0438\u0445 \u0420\u0435\u0441\u043f\u0443\u0431\u043b\u0438\u043a","name:right:kv":"\u041f\u043e\u043b\u044c\u0448\u0430","name:left:wa":"Feder\u00e5cion d' R\u00fbsseye","min_zoom":8.0,"old_name:left:pl":"Zwi\u0105zek Socjalistycznych Republik Radzieckich","name:left:zh-min-nan":"L\u014d\u0358-se-a","name:left:ln":"Rus\u00ed","name:left:wo":"Federaasio\u014b bu Riisi","name:left:ga":"An R\u00fais","short_name:left":"\u0420\u0424","name:left:it":"Russia","name:left:gd":"An Ruis","name:left:gl":"Rusia","name:left:gn":"Rrusia","name:left:gu":"\u0ab0\u0ab6\u0abf\u0aaf\u0abe","name:left:gv":"Yn Roosh","name:left:lo":"\u0ea5\u0eb1\u0e94\u0ec0\u0e8a\u0eb1\u0ebd","name:left":"\u0420\u043e\u0441\u0441\u0438\u044f","name:right:mk":"\u041f\u043e\u043b\u0441\u043a\u0430","name:right:mi":"P\u014drana","name:right:mn":"\u041f\u043e\u043b\u044c\u0448","name:right:ml":"\u0d2a\u0d4b\u0d33\u0d23\u0d4d\u0d1f\u0d4d","name:right:vo":"Pol\u00e4n","name:right:mg":"Polonia","name:right:vi":"Ba Lan","official_name:right":"Rzeczpospolita Polska","name:right:my":"\u1015\u102d\u102f\u101c\u1014\u103a\u1014\u102d\u102f\u1004\u103a\u1004\u1036","name:right:ms":"Poland","name:right:mr":"\u092a\u094b\u0932\u0902\u0921","name:right:fy":"Poalen","name:right:mt":"Polonja","name:right:ff":"Poloonya","kind":"country","name:left:br":"Rusia","name:left:bs":"Rusija","int_name:left":"Russia","name:left:ba":"\u0420\u04d9\u0441\u04d9\u0439","name:left:bg":"\u0420\u0443\u0441\u0438\u044f","name:left:be":"\u0420\u0430\u0441\u0456\u0439\u0441\u043a\u0430\u044f \u0424\u0435\u0434\u044d\u0440\u0430\u0446\u044b\u044f","name:left:bi":"Rusia","name:left:bn":"\u09b0\u09be\u09b6\u09bf\u09af\u09bc\u09be","name:left:bo":"\u0f68\u0f74\u0f0b\u0f62\u0f74\u0f0b\u0f66\u0f74\u0f0d","name:left:bm":"Risila","name:left:yo":"R\u1ecd\u0301s\u00ed\u00e0","name:left:yi":"\u05e8\u05d5\u05e1\u05dc\u05d0\u05e0\u05d3","id:left":-60189,"name:left:na":"Ratsiya","name:right:ka":"\u10de\u10dd\u10da\u10dd\u10dc\u10d4\u10d7\u10d8","name:left:io":"Rusia","name:left:pa":"\u0a30\u0a42\u0a38","name:right:kg":"Pologne","name:left:ig":"Mpaghara Russia","name:right:kk":"\u041f\u043e\u043b\u044c\u0448\u0430","name:left:id":"Rusia","name:right:km":"\u1794\u17d2\u179a\u1791\u17c1\u179f\u1794\u17c9\u17bc\u17a1\u17bc\u1789","name:right:kl":"Poleni","name:right:ko":"\ud3f4\ub780\ub4dc","name:right:kn":"\u0caa\u0ccb\u0cb2\u0cc6\u0c82\u0ca1\u0ccd","name:right:tl":"Polonya","name:right:th":"\u0e1b\u0e23\u0e30\u0e40\u0e17\u0e28\u0e42\u0e1b\u0e41\u0e25\u0e19\u0e14\u0e4c","name:right:kw":"Poloni","name:right:tk":"Pol\u015fa","name:right:ky":"\u041f\u043e\u043b\u044c\u0448\u0430","name:right:te":"\u0c2a\u0c4b\u0c32\u0c3e\u0c02\u0c21\u0c4d","name:left:iu":"\u1405\u14db\u14f4","name:right:tg":"\u041b\u0430\u04b3\u0438\u0441\u0442\u043e\u043d","name:left:is":"R\u00fassland","name:right:ta":"\u0baa\u0bcb\u0bb2\u0ba8\u0bcd\u0ba4\u0bc1","name:right:de":"Polen","name:right:da":"Polen","name:left:rn":"Uburusiya","name:right:dv":"\u0795\u07ae\u078d\u07ac\u0782\u07b0\u0791\u07aa","name:right:ht":"Pol\u00f2y"},"arcs":[3]},{"type":"LineString","properties":{"name:left:la":"Alytus districtus","name:right:uk":"\u041f\u0456\u0434\u043b\u044f\u0441\u044c\u043a\u0435 \u0432\u043e\u0454\u0432\u043e\u0434\u0441\u0442\u0432\u043e","name:left:sw":"Wilaya ya Alytus","name:left:sv":"Alytus provins","name:left:sr":"\u0410\u043b\u0438\u0442\u0443\u0441 \u043e\u043a\u0440\u0443\u0433","name:right:lt":"Palenk\u0117s vaivadija","min_zoom":8.0,"name:left:lv":"Al\u012btas apri\u0146\u0137is","name:left:hr":"Okrug Alitus","sort_rank":256,"name:left:ca":"Comtat d'Alytus","source":"openstreetmap.org","name:left:cs":"Alytusk\u00fd kraj","name:left":"Alytaus apskritis","name:right:es":"Voivodato de Podlakia","name:left:ka":"\u10d0\u10da\u10d8\u10e2\u10e3\u10e1\u10d8\u10e1 \u10db\u10d0\u10d6\u10e0\u10d0","name:left:ko":"\uc54c\ub9ac\ud22c\uc2a4 \uc8fc","name:left:ro":"Jude\u021bul Alytus","name:right:ru":"\u041f\u043e\u0434\u043b\u044f\u0441\u043a\u043e\u0435 \u0432\u043e\u0435\u0432\u043e\u0434\u0441\u0442\u0432\u043e","name:left:kw":"Konteth Alytus","name:left:ru":"\u0410\u043b\u0438\u0442\u0443\u0441\u0441\u043a\u0438\u0439 \u0443\u0435\u0437\u0434","name:right:eo":"Podla\u0125ia Provinco","name:right:en":"Podlaskie Voivodeship","kind":"region","name":"Alytaus apskritis - wojew\u00f3dztwo podlaskie","name:left:fi":"Alytusin l\u00e4\u00e4ni","name:left:zh":"\u963f\u5229\u5716\u65af\u7e23","name:left:fr":"Apskritis d'Alytus","name:left:da":"Alytus amt","alt_name:right:en":"Podlasie Province","name:right:nl":"Woiwodschap Podlachi\u00eb","name:right:ja":"\u30dd\u30c9\u30e9\u30b7\u30a7\u770c","name:right:fr":"Podlachie","alt_name:right:es":"Voivodato de Podlaquia","name:left:ja":"\u30a2\u30ea\u30fc\u30c8\u30a5\u30b9\u770c","id:right":-224461,"name:left:uk":"\u0410\u043b\u0456\u0442\u0443\u0441\u044c\u043a\u0438\u0439 \u043f\u043e\u0432\u0456\u0442","name:left:no":"Alytus fylke","name:left:nl":"Alytus district","name:left:bg":"\u0410\u043b\u0438\u0442\u0443\u0441\u043a\u0438 \u043e\u043a\u0440\u044a\u0433","name:left:be":"\u0410\u043b\u0456\u0442\u0443\u0441\u043a\u0456 \u043f\u0430\u0432\u0435\u0442","name:right:sl":"Podla\u0161ko vojvodstvo","name:right:be":"\u041f\u0430\u0434\u043b\u044f\u0441\u043a\u0430\u0435 \u0432\u0430\u044f\u0432\u043e\u0434\u0441\u0442\u0432\u0430","id":-1076930,"name:right":"wojew\u00f3dztwo podlaskie","name:left:eo":"Distrikto Alytus","name:left:en":"Alytus County","name:left:el":"\u0395\u03c0\u03b1\u03c1\u03c7\u03af\u03b1 \u0391\u03bb\u03cd\u03c4\u03bf\u03c5\u03c2","kind_detail":"4","id:left":-1076930,"name:left:es":"Provincia de Alytus","name:right:cs":"Podlesk\u00e9 vojvodstv\u00ed","name:left:eu":"Alytusko konderria","name:left:et":"Alytuse maakond","name:left:ar":"\u0645\u0642\u0627\u0637\u0639\u0629 \u0623\u0644\u064a\u062a\u0633","name:left:pl":"Okr\u0119g olicki","name:left:id":"County Alytus","name:left:pt":"Alytus condado","short_name:right":"podlaskie","name:left:it":"Contea di Alytus","osm_relation":true,"loc_name:right":"Podlasie","name:right:de":"Woiwodschaft Podlachien","name:left:de":"Bezirk Alitten"},"arcs":[4]},{"type":"MultiLineString","properties":{"name:pt":"Alytus condado","name:ro":"Jude\u021bul Alytus","name:id":"County Alytus","name:ka":"\u10d0\u10da\u10d8\u10e2\u10e3\u10e1\u10d8\u10e1 \u10db\u10d0\u10d6\u10e0\u10d0","name:ko":"\uc54c\ub9ac\ud22c\uc2a4 \uc8fc","name:ar":"\u0645\u0642\u0627\u0637\u0639\u0629 \u0623\u0644\u064a\u062a\u0633","name:cs":"Alytusk\u00fd kraj","name:kw":"Konteth Alytus","min_zoom":8.0,"name:it":"Contea di Alytus","name:be":"\u0410\u043b\u0456\u0442\u0443\u0441\u043a\u0456 \u043f\u0430\u0432\u0435\u0442","name:ru":"\u0410\u043b\u0438\u0442\u0443\u0441\u0441\u043a\u0438\u0439 \u0443\u0435\u0437\u0434","name:pl":"Okr\u0119g olicki","id":-1076930,"name:ca":"Comtat d'Alytus","sort_rank":256,"kind_detail":"4","name:da":"Alytus amt","name:de":"Bezirk Alitten","source":"openstreetmap.org","name:fr":"Apskritis d'Alytus","name:zh":"\u963f\u5229\u5716\u65af\u7e23","name:lv":"Al\u012btas apri\u0146\u0137is","name:ja":"\u30a2\u30ea\u30fc\u30c8\u30a5\u30b9\u770c","name:no":"Alytus fylke","kind":"region","name:la":"Alytus districtus","name:uk":"\u0410\u043b\u0456\u0442\u0443\u0441\u044c\u043a\u0438\u0439 \u043f\u043e\u0432\u0456\u0442","name:sw":"Wilaya ya Alytus","name:sv":"Alytus provins","name:bg":"\u0410\u043b\u0438\u0442\u0443\u0441\u043a\u0438 \u043e\u043a\u0440\u044a\u0433","name:hr":"Okrug Alitus","name:sr":"\u0410\u043b\u0438\u0442\u0443\u0441 \u043e\u043a\u0440\u0443\u0433","osm_relation":true,"name:el":"\u0395\u03c0\u03b1\u03c1\u03c7\u03af\u03b1 \u0391\u03bb\u03cd\u03c4\u03bf\u03c5\u03c2","name:eo":"Distrikto Alytus","name:en":"Alytus County","name":"Alytaus apskritis","name:fi":"Alytusin l\u00e4\u00e4ni","name:eu":"Alytusko konderria","name:et":"Alytuse maakond","name:nl":"Alytus district","name:es":"Provincia de Alytus"},"arcs":[[5],[6]]},{"type":"MultiLineString","properties":{"name:right:nl":"Woiwodschap Ermland-Mazuri\u00eb","name:right:ja":"\u30f4\u30a1\u30eb\u30df\u30a2\uff1d\u30de\u30ba\u30fc\u30eb\u30a3\u770c","loc_name:left":"Podlasie","alt_name:left:en":"Podlasie Province","alt_name:right:es":"Voivodato de Warmia y Mazuria","name:right:hr":"Varminsko-mazursko vojvodstvo","name:left:ja":"\u30dd\u30c9\u30e9\u30b7\u30a7\u770c","name:right:hu":"Varmia-Maz\u00fariai vajdas\u00e1g","name:right:bg":"\u0412\u0430\u0440\u043c\u0438\u043d\u0441\u043a\u043e-\u041c\u0430\u0437\u0443\u0440\u0441\u043a\u043e \u0432\u043e\u0439\u0432\u043e\u0434\u0441\u0442\u0432\u043e","name:right:lt":"Varmijos Moz\u016br\u0173 vaivadija","name:left:sl":"Podla\u0161ko vojvodstvo","min_zoom":8.0,"name:left:lt":"Palenk\u0117s vaivadija","alt_name:right:en":"Warmian-Masurian Province","name:left:be":"\u041f\u0430\u0434\u043b\u044f\u0441\u043a\u0430\u0435 \u0432\u0430\u044f\u0432\u043e\u0434\u0441\u0442\u0432\u0430","alt_name:left:es":"Voivodato de Podlaquia","name:right:fr":"Varmie-Mazurie","id":-224461,"name:right":"wojew\u00f3dztwo warmi\u0144sko-mazurskie","short_name:left":"podlaskie","name:left:eo":"Podla\u0125ia Provinco","name:left:en":"Podlaskie Voivodeship","source":"openstreetmap.org","sort_rank":256,"kind_detail":"4","name:right:da":"Ermlandsk-Masuriske voivodskab","name:right:uk":"\u0412\u0430\u0440\u043c\u0456\u043d\u0441\u044c\u043a\u043e-\u041c\u0430\u0437\u0443\u0440\u0441\u044c\u043a\u0435 \u0432\u043e\u0454\u0432\u043e\u0434\u0441\u0442\u0432\u043e","name:left:nl":"Woiwodschap Podlachi\u00eb","id:left":-224461,"name:left:es":"Voivodato de Podlakia","name:right:cs":"Varmijsko-mazursk\u00e9 vojvodstv\u00ed","name:left:cs":"Podlesk\u00e9 vojvodstv\u00ed","name:left":"wojew\u00f3dztwo podlaskie","name:right:es":"Voivodato de Varmia y Masuria","name:right:pt":"Voivodia da V\u00e1rmia-Mas\u00faria","name:right:it":"Voivodato di Varmia-Masuria","kind":"region","name:right:ru":"\u0412\u0430\u0440\u043c\u0438\u043d\u0441\u043a\u043e-\u041c\u0430\u0437\u0443\u0440\u0441\u043a\u043e\u0435 \u0432\u043e\u0435\u0432\u043e\u0434\u0441\u0442\u0432\u043e","name:left:ru":"\u041f\u043e\u0434\u043b\u044f\u0441\u043a\u043e\u0435 \u0432\u043e\u0435\u0432\u043e\u0434\u0441\u0442\u0432\u043e","short_name:right":"warmi\u0144sko-mazurskie","id:right":-223408,"name:right:eo":"Varmia-Mazuria Provinco","name:right:en":"Warmian-Masurian Voivodeship","osm_relation":true,"name:left:uk":"\u041f\u0456\u0434\u043b\u044f\u0441\u044c\u043a\u0435 \u0432\u043e\u0454\u0432\u043e\u0434\u0441\u0442\u0432\u043e","loc_name:right":"Warmia i Mazury","name":"wojew\u00f3dztwo podlaskie - wojew\u00f3dztwo warmi\u0144sko-mazurskie","name:right:de":"Woiwodschaft Ermland-Masuren","name:left:de":"Woiwodschaft Podlachien","name:right:be":"\u0412\u0430\u0440\u043c\u0456\u043d\u0441\u043a\u0430-\u041c\u0430\u0437\u0443\u0440\u0441\u043a\u0430\u0435 \u0432\u0430\u044f\u0432\u043e\u0434\u0441\u0442\u0432\u0430","name:left:fr":"Podlachie","name:right:sl":"Varminsko-Mazursko vojvodstvo"},"arcs":[[7],[8]]},{"type":"LineString","properties":{"alt_name:en":"Podlasie Province","name:nl":"Woiwodschap Podlachi\u00eb","name:ja":"\u30dd\u30c9\u30e9\u30b7\u30a7\u770c","short_name":"podlaskie","name:cs":"Podlesk\u00e9 vojvodstv\u00ed","kind":"region","min_zoom":8.0,"name:sl":"Podla\u0161ko vojvodstvo","name:uk":"\u041f\u0456\u0434\u043b\u044f\u0441\u044c\u043a\u0435 \u0432\u043e\u0454\u0432\u043e\u0434\u0441\u0442\u0432\u043e","name:be":"\u041f\u0430\u0434\u043b\u044f\u0441\u043a\u0430\u0435 \u0432\u0430\u044f\u0432\u043e\u0434\u0441\u0442\u0432\u0430","loc_name":"Podlasie","name:ru":"\u041f\u043e\u0434\u043b\u044f\u0441\u043a\u043e\u0435 \u0432\u043e\u0435\u0432\u043e\u0434\u0441\u0442\u0432\u043e","id":-224461,"alt_name:es":"Voivodato de Podlaquia","name":"wojew\u00f3dztwo podlaskie","name:eo":"Podla\u0125ia Provinco","name:en":"Podlaskie Voivodeship","name:lt":"Palenk\u0117s vaivadija","sort_rank":256,"kind_detail":"4","name:de":"Woiwodschaft Podlachien","source":"openstreetmap.org","name:fr":"Podlachie","osm_relation":true,"name:es":"Voivodato de Podlakia"},"arcs":[9]},{"type":"LineString","properties":{"name:right:hy":"\u053f\u0561\u056c\u056b\u0576\u056b\u0576\u0563\u0580\u0561\u0564\u056b \u0574\u0561\u0580\u0566","alt_name:left:en":"Warmian-Masurian Province","name:right:yi":"\u05e7\u05d0\u05dc\u05d9\u05e0\u05d9\u05e0\u05d2\u05e8\u05d0\u05d3 \u05d0\u05d1\u05dc\u05d0\u05e1\u05d8","name:right:uk":"\u041a\u0430\u043b\u0456\u043d\u0456\u043d\u0433\u0440\u0430\u0434\u0441\u044c\u043a\u0430 \u043e\u0431\u043b\u0430\u0441\u0442\u044c","name:right:hu":"Kalinyingr\u00e1di ter\u00fclet","name:right:lt":"Kaliningrado sritis","name:left:sl":"Varminsko-Mazursko vojvodstvo","min_zoom":8.0,"name:left:lt":"Varmijos Moz\u016br\u0173 vaivadija","alt_name:left:es":"Voivodato de Warmia y Mazuria","name:right:uz":"Kaliningrad viloyati","name:right:he":"\u05de\u05d7\u05d5\u05d6 \u05e7\u05dc\u05d9\u05e0\u05d9\u05e0\u05d2\u05e8\u05d3","name:left:hr":"Varminsko-mazursko vojvodstvo","short_name:left":"warmi\u0144sko-mazurskie","sort_rank":256,"name:right:sk":"Kaliningradsk\u00e1 oblas\u0165","source":"openstreetmap.org","osm_relation":true,"name:right:az":"Kalininqrad Vilay\u0259ti","name:left:cs":"Varmijsko-mazursk\u00e9 vojvodstv\u00ed","name:left":"wojew\u00f3dztwo warmi\u0144sko-mazurskie","name:left:ja":"\u30f4\u30a1\u30eb\u30df\u30a2\uff1d\u30de\u30ba\u30fc\u30eb\u30a3\u770c","name:right:mn":"\u041a\u0430\u043b\u0438\u043d\u0438\u043d\u0433\u0440\u0430\u0434 \u043c\u0443\u0436","name:right:et":"Kaliningradi oblast","name:right:it":"Oblast' di Kaliningrad","name:right:ro":"Regiunea Kaliningrad","name:left:ru":"\u0412\u0430\u0440\u043c\u0438\u043d\u0441\u043a\u043e-\u041c\u0430\u0437\u0443\u0440\u0441\u043a\u043e\u0435 \u0432\u043e\u0435\u0432\u043e\u0434\u0441\u0442\u0432\u043e","name:right:ms":"Wilayah Kaliningrad","alt_name:right:de":"Kaliningrader Gebiet","name:right:eo":"Kaliningrada provinco","name:right:en":"Kaliningrad","name:right:el":"\u03a0\u03b5\u03c1\u03b9\u03c6\u03ad\u03c1\u03b5\u03b9\u03b1 \u039a\u03b1\u03bb\u03af\u03bd\u03b9\u03bd\u03b3\u03ba\u03c1\u03b1\u03bd\u03c4","kind":"region","name":"wojew\u00f3dztwo warmi\u0144sko-mazurskie - \u041a\u0430\u043b\u0438\u043d\u0438\u043d\u0433\u0440\u0430\u0434\u0441\u043a\u0430\u044f \u043e\u0431\u043b\u0430\u0441\u0442\u044c","name:right:lv":"Ka\u013ci\u0146ingradas apgabals","name:right:be":"\u041a\u0430\u043b\u0456\u043d\u0456\u043d\u0433\u0440\u0430\u0434\u0441\u043a\u0430\u044f \u0432\u043e\u0431\u043b\u0430\u0441\u0446\u044c","name:left:fr":"Varmie-Mazurie","name:left:da":"Ermlandsk-Masuriske voivodskab","name:right:zh":"\u52a0\u91cc\u5b81\u683c\u52d2\u5dde","name:right:sl":"Kaliningrajska oblast","name:right:nl":"Oblast Kaliningrad","name:right:ja":"\u30ab\u30ea\u30fc\u30cb\u30f3\u30b0\u30e9\u30fc\u30c9\u5dde","loc_name:left":"Warmia i Mazury","name:right:sr":"\u041a\u0430\u043b\u0438\u045a\u0438\u043d\u0433\u0440\u0430\u0434\u0441\u043a\u0430 \u043e\u0431\u043b\u0430\u0441\u0442","id:right":-103906,"name:left:uk":"\u0412\u0430\u0440\u043c\u0456\u043d\u0441\u044c\u043a\u043e-\u041c\u0430\u0437\u0443\u0440\u0441\u044c\u043a\u0435 \u0432\u043e\u0454\u0432\u043e\u0434\u0441\u0442\u0432\u043e","name:right:sh":"Kalinjingradska oblast","name:left:nl":"Woiwodschap Ermland-Mazuri\u00eb","name:left:be":"\u0412\u0430\u0440\u043c\u0456\u043d\u0441\u043a\u0430-\u041c\u0430\u0437\u0443\u0440\u0441\u043a\u0430\u0435 \u0432\u0430\u044f\u0432\u043e\u0434\u0441\u0442\u0432\u0430","name:left:bg":"\u0412\u0430\u0440\u043c\u0438\u043d\u0441\u043a\u043e-\u041c\u0430\u0437\u0443\u0440\u0441\u043a\u043e \u0432\u043e\u0439\u0432\u043e\u0434\u0441\u0442\u0432\u043e","name:left:hu":"Varmia-Maz\u00fariai vajdas\u00e1g","id":-223408,"name:right":"\u041a\u0430\u043b\u0438\u043d\u0438\u043d\u0433\u0440\u0430\u0434\u0441\u043a\u0430\u044f \u043e\u0431\u043b\u0430\u0441\u0442\u044c","name:left:eo":"Varmia-Mazuria Provinco","name:left:en":"Warmian-Masurian Voivodeship","name:right:ca":"Prov\u00edncia de Kaliningrad","kind_detail":"4","name:right:ce":"\u041a\u0430\u043b\u0438\u043d\u0438\u043d\u0433\u0440\u0430\u0434\u0430\u043d \u043e\u0431\u043b\u0430\u0441\u0442\u044c","id:left":-223408,"name:left:es":"Voivodato de Varmia y Masuria","name:right:cs":"Kaliningradsk\u00e1 oblast","name:right:cv":"\u041a\u0430\u043b\u0438\u043d\u0438\u043d\u0433\u0440\u0430\u0434 \u043e\u0431\u043b\u0430\u00e7\u0115","name:right:ka":"\u10d9\u10d0\u10da\u10d8\u10dc\u10d8\u10dc\u10d2\u10e0\u10d0\u10d3\u10d8\u10e1 \u10dd\u10da\u10e5\u10d8","name:right:pt":"Oblast de Kaliningrado","name:right:tt":"\u041a\u0430\u043b\u0438\u043d\u0438\u043d\u0433\u0440\u0430\u0434 \u04e9\u043b\u043a\u04d9\u0441\u0435","name:right:ko":"\uce7c\ub9ac\ub2cc\uadf8\ub77c\ub4dc \uc8fc","name:left:pt":"Voivodia da V\u00e1rmia-Mas\u00faria","name:right:ku":"Oblasta Kaliningrad\u00ea","name:right:kv":"\u041a\u0430\u043b\u0438\u043d\u0438\u043d\u0433\u0440\u0430\u0434 \u043e\u0431\u043b\u0430\u0441\u044c\u0442","name:left:it":"Voivodato di Varmia-Masuria","name:right:pl":"Obw\u00f3d kaliningradzki","name:right:os":"\u041a\u0430\u043b\u0438\u043d\u0438\u043d\u0433\u0440\u0430\u0434\u044b \u043e\u0431\u043b\u00e6\u0441\u0442","name:right:de":"Oblast Kaliningrad","name:left:de":"Woiwodschaft Ermland-Masuren","name:right:ga":"C\u00faige Kaliningrad"},"arcs":[10]},{"type":"MultiLineString","properties":{"name:pt":"Oblast de Kaliningrado","name:az":"Kalininqrad Vilay\u0259ti","name:ms":"Wilayah Kaliningrad","name:ko":"\uce7c\ub9ac\ub2cc\uadf8\ub77c\ub4dc \uc8fc","name:cv":"\u041a\u0430\u043b\u0438\u043d\u0438\u043d\u0433\u0440\u0430\u0434 \u043e\u0431\u043b\u0430\u00e7\u0115","name:cs":"Kaliningradsk\u00e1 oblast","name:tt":"\u041a\u0430\u043b\u0438\u043d\u0438\u043d\u0433\u0440\u0430\u0434 \u04e9\u043b\u043a\u04d9\u0441\u0435","name:kv":"\u041a\u0430\u043b\u0438\u043d\u0438\u043d\u0433\u0440\u0430\u0434 \u043e\u0431\u043b\u0430\u0441\u044c\u0442","min_zoom":8.0,"name:ro":"Regiunea Kaliningrad","name:it":"Oblast' di Kaliningrad","name:os":"\u041a\u0430\u043b\u0438\u043d\u0438\u043d\u0433\u0440\u0430\u0434\u044b \u043e\u0431\u043b\u00e6\u0441\u0442","name:lv":"Ka\u013ci\u0146ingradas apgabals","name:ce":"\u041a\u0430\u043b\u0438\u043d\u0438\u043d\u0433\u0440\u0430\u0434\u0430\u043d \u043e\u0431\u043b\u0430\u0441\u0442\u044c","name:mn":"\u041a\u0430\u043b\u0438\u043d\u0438\u043d\u0433\u0440\u0430\u0434 \u043c\u0443\u0436","name:pl":"Obw\u00f3d kaliningradzki","name:ca":"Prov\u00edncia de Kaliningrad","name:ka":"\u10d9\u10d0\u10da\u10d8\u10dc\u10d8\u10dc\u10d2\u10e0\u10d0\u10d3\u10d8\u10e1 \u10dd\u10da\u10e5\u10d8","sort_rank":256,"kind_detail":"4","name:sh":"Kalinjingradska oblast","kind":"region","id":-103906,"source":"openstreetmap.org","name:de":"Oblast Kaliningrad","name:zh":"\u52a0\u91cc\u5b81\u683c\u52d2\u5dde","name:sl":"Kaliningrajska oblast","name:nl":"Oblast Kaliningrad","name:ja":"\u30ab\u30ea\u30fc\u30cb\u30f3\u30b0\u30e9\u30fc\u30c9\u5dde","name:lt":"Kaliningrado sritis","alt_name:de":"Kaliningrader Gebiet","name:he":"\u05de\u05d7\u05d5\u05d6 \u05e7\u05dc\u05d9\u05e0\u05d9\u05e0\u05d2\u05e8\u05d3","name:eo":"Kaliningrada provinco","name:sk":"Kaliningradsk\u00e1 oblas\u0165","name:uk":"\u041a\u0430\u043b\u0456\u043d\u0456\u043d\u0433\u0440\u0430\u0434\u0441\u044c\u043a\u0430 \u043e\u0431\u043b\u0430\u0441\u0442\u044c","name:hy":"\u053f\u0561\u056c\u056b\u0576\u056b\u0576\u0563\u0580\u0561\u0564\u056b \u0574\u0561\u0580\u0566","name:be":"\u041a\u0430\u043b\u0456\u043d\u0456\u043d\u0433\u0440\u0430\u0434\u0441\u043a\u0430\u044f \u0432\u043e\u0431\u043b\u0430\u0441\u0446\u044c","name:hu":"Kalinyingr\u00e1di ter\u00fclet","name:sr":"\u041a\u0430\u043b\u0438\u045a\u0438\u043d\u0433\u0440\u0430\u0434\u0441\u043a\u0430 \u043e\u0431\u043b\u0430\u0441\u0442","osm_relation":true,"name":"\u041a\u0430\u043b\u0438\u043d\u0438\u043d\u0433\u0440\u0430\u0434\u0441\u043a\u0430\u044f \u043e\u0431\u043b\u0430\u0441\u0442\u044c","name:el":"\u03a0\u03b5\u03c1\u03b9\u03c6\u03ad\u03c1\u03b5\u03b9\u03b1 \u039a\u03b1\u03bb\u03af\u03bd\u03b9\u03bd\u03b3\u03ba\u03c1\u03b1\u03bd\u03c4","name:ga":"C\u00faige Kaliningrad","name:en":"Kaliningrad","name:uz":"Kaliningrad viloyati","name:ku":"Oblasta Kaliningrad\u00ea","name:yi":"\u05e7\u05d0\u05dc\u05d9\u05e0\u05d9\u05e0\u05d2\u05e8\u05d0\u05d3 \u05d0\u05d1\u05dc\u05d0\u05e1\u05d8","name:et":"Kaliningradi oblast"},"arcs":[[11],[12]]}]},"roads":{"type":"GeometryCollection","geometries":[{"type":"MultiLineString","properties":{"kind":"major_road","network":"lt:national","sort_rank":381,"kind_detail":"trunk","source":"openstreetmap.org","min_zoom":8.0,"shield_text":"16","ref":"A16"},"arcs":[[20],[21]]},{"type":"MultiLineString","properties":{"kind":"major_road","network":"lt:regional","sort_rank":379,"kind_detail":"secondary","is_bicycle_related":true,"bicycle_shield_text":"LT4","bicycle_network":"ncn","source":"openstreetmap.org","min_zoom":8.0,"landuse_kind":"park","shield_text":"5102","ref":"5102"},"arcs":[[22],[23]]},{"type":"LineString","properties":{"kind":"major_road","sort_rank":380,"kind_detail":"primary","bus_network":null,"source":"openstreetmap.org","min_zoom":8.0,"bus_shield_text":"17","name:ru":"\u043f\u0440\u043e\u0441\u043f\u0435\u043a\u0442 \u0411\u0430\u043b\u0442\u044e","landuse_kind":"urban_area","id":151402400},"arcs":[24]},{"type":"LineString","properties":{"kind":"major_road","network":"lt:regional","sort_rank":377,"kind_detail":"tertiary","is_bicycle_related":true,"bicycle_shield_text":"LT4","bicycle_network":"ncn","source":"openstreetmap.org","min_zoom":8.0,"shield_text":"2631","ref":"2631","id":43318106},"arcs":[25]},{"type":"LineString","properties":{"kind":"major_road","network":"lt:regional","sort_rank":379,"kind_detail":"secondary","is_bicycle_related":true,"bicycle_shield_text":"LT4","bicycle_network":"ncn","source":"openstreetmap.org","min_zoom":8.0,"shield_text":"2606","ref":"2606"},"arcs":[26]},{"type":"LineString","properties":{"kind":"path","sort_rank":354,"kind_detail":"cycleway","is_bicycle_related":true,"bicycle_shield_text":"GV","bicycle_network":"ncn","source":"openstreetmap.org","min_zoom":8.0,"landuse_kind":"nature_reserve","id":519841467},"arcs":[27]},{"type":"LineString","properties":{"kind":"major_road","sort_rank":380,"kind_detail":"primary","bus_network":null,"source":"openstreetmap.org","min_zoom":8.0,"bus_shield_text":"221","name:ru":"\u0443\u043b\u0438\u0446\u0430 \u0413\u0435\u043b\u0435\u0436\u0438\u043d\u043a\u0435\u043b\u0438\u043e","landuse_kind":"urban_area","id":119659144},"arcs":[28]},{"type":"MultiLineString","properties":{"kind":"major_road","network":"lt:national","sort_rank":380,"kind_detail":"primary","source":"openstreetmap.org","min_zoom":8.0,"shield_text":"135","name:ru":"\u0443\u043b\u0438\u0446\u0430 \u0422\u0443\u0440\u0438\u0441\u0442\u0443","ref":"135"},"arcs":[[29],[30],[31]]},{"type":"MultiLineString","properties":{"kind":"major_road","network":"e-road","sort_rank":381,"kind_detail":"trunk","source":"openstreetmap.org","min_zoom":8.0,"shield_text":"67","ref":"A5"},"arcs":[[32],[33]]},{"type":"MultiLineString","properties":{"kind":"major_road","network":"lt:national","sort_rank":380,"kind_detail":"primary","is_bicycle_related":true,"bicycle_shield_text":"LT4","bicycle_network":"ncn","source":"openstreetmap.org","min_zoom":8.0,"shield_text":"138","ref":"138"},"arcs":[[34],[35]]},{"type":"LineString","properties":{"kind":"major_road","sort_rank":380,"kind_detail":"primary","bus_network":null,"source":"openstreetmap.org","min_zoom":8.0,"bus_shield_text":"10","name:ru":"\u0443\u043b\u0438\u0446\u0430 \u0412\u0430\u0440\u043d\u044e","landuse_kind":"urban_area","id":68568361},"arcs":[36]},{"type":"LineString","properties":{"bus_network":null,"network":"lt:national","sort_rank":380,"kind_detail":"primary","kind":"major_road","source":"openstreetmap.org","min_zoom":8.0,"bus_shield_text":"6A","shield_text":"130","name:ru":"\u0443\u043b\u0438\u0446\u0430 \u0411\u0438\u0440\u0448\u0442\u043e\u043d\u043e","landuse_kind":"urban_area","ref":"130"},"arcs":[37]},{"type":"MultiLineString","properties":{"kind":"highway","network":"lt:national","sort_rank":383,"kind_detail":"motorway","source":"openstreetmap.org","min_zoom":8.0,"all_networks":["lt:national","e-road","e-road"],"shield_text":"1","ref":"A1","all_shield_texts":["1","67","85"]},"arcs":[[38],[39]]},{"type":"LineString","properties":{"kind":"major_road","network":"lt:national","sort_rank":380,"kind_detail":"primary","is_bicycle_related":true,"bicycle_shield_text":"LT4","bicycle_network":"ncn","source":"openstreetmap.org","min_zoom":8.0,"shield_text":"200","ref":"200"},"arcs":[40]},{"type":"LineString","properties":{"kind":"major_road","network":"lt:national","sort_rank":380,"kind_detail":"primary","source":"openstreetmap.org","min_zoom":8.0,"shield_text":"131","name:ru":"\u0443\u043b\u0438\u0446\u0430 \u0410\u043b\u0438\u0442\u0430\u0443\u0441","ref":"131"},"arcs":[41]},{"type":"LineString","properties":{"kind":"major_road","network":"lt:regional","sort_rank":377,"kind_detail":"tertiary","is_bicycle_related":true,"bicycle_shield_text":"LT4","bicycle_network":"ncn","source":"openstreetmap.org","min_zoom":8.0,"shield_text":"5115","ref":"5115","id":409801306},"arcs":[42]},{"type":"LineString","properties":{"kind":"major_road","network":"ru:regional","sort_rank":380,"kind_detail":"primary","source":"openstreetmap.org","min_zoom":8.0,"shield_text":"27\u0410","ref":"27\u0410-059"},"arcs":[43]},{"type":"LineString","properties":{"bus_network":null,"network":"lt:national","sort_rank":380,"kind_detail":"primary","kind":"major_road","source":"openstreetmap.org","min_zoom":8.0,"bus_shield_text":"M-672","shield_text":"138","name:ru":"\u0443\u043b\u0438\u0446\u0430 \u041a\u0435\u0441\u0442\u0443\u0447\u0438\u043e","ref":"138"},"arcs":[44]},{"type":"MultiLineString","properties":{"bus_network":null,"network":"lt:national","sort_rank":381,"kind_detail":"trunk","kind":"major_road","official_name":"Jono Basanavi\u010diaus gatv\u0117","source":"openstreetmap.org","min_zoom":8.0,"bus_shield_text":"221","shield_text":"7","ref":"A7"},"arcs":[[45],[46],[47]]},{"type":"LineString","properties":{"kind":"major_road","network":"lt:national","sort_rank":381,"kind_detail":"trunk","bus_network":null,"source":"openstreetmap.org","min_zoom":8.0,"bus_shield_text":"M-672","shield_text":"7","name:ru":"\u0443\u043b\u0438\u0446\u0430 \u0412\u0438\u043b\u043a\u0430\u0432\u0438\u0448\u043a\u0438\u043e","ref":"A7","id":201612542},"arcs":[48]},{"type":"LineString","properties":{"kind":"major_road","network":"lt:national","sort_rank":380,"kind_detail":"primary","is_bicycle_related":true,"bicycle_shield_text":"LT4","bicycle_network":"ncn","source":"openstreetmap.org","min_zoom":8.0,"official_name":"Salom\u0117jos N\u0117ries gatv\u0117","shield_text":"138","name:ru":"\u0443\u043b\u0438\u0446\u0430 \u0421. \u041d\u0435\u0440\u0438\u0435\u0441","ref":"138"},"arcs":[49]},{"type":"MultiLineString","properties":{"kind":"major_road","network":"lt:regional","sort_rank":379,"kind_detail":"secondary","is_bicycle_related":true,"bicycle_shield_text":"LT4","bicycle_network":"ncn","source":"openstreetmap.org","min_zoom":8.0,"shield_text":"2605","ref":"2605"},"arcs":[[50],[51]]},{"type":"LineString","properties":{"kind":"major_road","network":"pl:national","sort_rank":380,"kind_detail":"primary","source":"openstreetmap.org","min_zoom":8.0,"shield_text":"16","ref":"16"},"arcs":[52]},{"type":"LineString","properties":{"kind":"major_road","network":"lt:national","sort_rank":380,"kind_detail":"primary","source":"openstreetmap.org","min_zoom":8.0,"landuse_kind":"urban_area","shield_text":"141","ref":"141"},"arcs":[53]},{"type":"LineString","properties":{"kind":"major_road","network":"ru:regional","sort_rank":380,"kind_detail":"primary","source":"openstreetmap.org","min_zoom":8.0,"shield_text":"27\u0410","ref":"27\u0410-025"},"arcs":[54]},{"type":"LineString","properties":{"kind":"major_road","network":"lt:national","sort_rank":380,"kind_detail":"primary","bus_network":null,"source":"openstreetmap.org","min_zoom":8.0,"bus_shield_text":"221","shield_text":"7","id":309746544},"arcs":[55]},{"type":"LineString","properties":{"kind":"major_road","network":"lt:national","sort_rank":380,"kind_detail":"primary","source":"openstreetmap.org","min_zoom":8.0,"shield_text":"181","name:ru":"\u0443\u043b\u0438\u0446\u0430 \u0412\u0430\u043d\u0430\u0433\u0435\u043b\u0438\u043e","ref":"181","id":315073378},"arcs":[56]},{"type":"MultiLineString","properties":{"kind":"major_road","network":"lt:national","sort_rank":380,"kind_detail":"primary","source":"openstreetmap.org","min_zoom":8.0,"shield_text":"136","ref":"136"},"arcs":[[57],[58],[59],[60]]},{"type":"LineString","properties":{"kind":"minor_road","sort_rank":360,"kind_detail":"unclassified","is_bicycle_related":true,"bicycle_shield_text":"R11","bicycle_network":"icn","source":"openstreetmap.org","min_zoom":8.0},"arcs":[61]},{"type":"MultiLineString","properties":{"bus_network":null,"network":"lt:national","sort_rank":380,"kind_detail":"primary","kind":"major_road","source":"openstreetmap.org","min_zoom":8.0,"bus_shield_text":"10","shield_text":"222","landuse_kind":"urban_area","ref":"222"},"arcs":[[62],[63]]},{"type":"LineString","properties":{"kind":"major_road","network":"lt:national","sort_rank":380,"kind_detail":"primary","source":"openstreetmap.org","min_zoom":8.0,"shield_text":"130","name:ru":"\u0443\u043b\u0438\u0446\u0430 \u041a\u0430\u0443\u043d\u043e","ref":"130"},"arcs":[64]},{"type":"LineString","properties":{"source":"openstreetmap.org","kind":"major_road","sort_rank":380,"kind_detail":"primary","ref":"230","min_zoom":8.0,"id":360380516},"arcs":[65]},{"type":"LineString","properties":{"source":"openstreetmap.org","kind":"major_road","sort_rank":380,"kind_detail":"primary","ref":"131","min_zoom":8.0},"arcs":[66]},{"type":"LineString","properties":{"kind":"major_road","network":"lt:national","sort_rank":380,"kind_detail":"primary","source":"openstreetmap.org","min_zoom":8.0,"shield_text":"132","name:ru":"\u0443\u043b\u0438\u0446\u0430 \u0410\u043b\u0433\u0438\u0440\u0434\u043e","ref":"132"},"arcs":[67]},{"type":"MultiLineString","properties":{"bus_network":null,"network":"lt:national","sort_rank":380,"kind_detail":"primary","kind":"major_road","source":"openstreetmap.org","min_zoom":8.0,"bus_shield_text":"10","shield_text":"222","name:ru":"\u0443\u043b\u0438\u0446\u0430 \u041b\u0438\u043d\u043a\u0443\u0432\u043e\u0441","landuse_kind":"urban_area","ref":"222"},"arcs":[[68],[69]]},{"type":"MultiLineString","properties":{"bus_network":null,"network":"lt:national","sort_rank":381,"kind_detail":"trunk","kind":"major_road","source":"openstreetmap.org","min_zoom":8.0,"bus_shield_text":"221","shield_text":"7","ref":"A7"},"arcs":[[70],[71],[72],[73],[74],[75]]},{"type":"MultiLineString","properties":{"kind":"major_road","network":"e-road","sort_rank":381,"landuse_kind":"urban_area","source":"openstreetmap.org","min_zoom":8.0,"kind_detail":"trunk","shield_text":"28"},"arcs":[[76],[77],[78],[79],[80]]},{"type":"LineString","properties":{"kind":"major_road","network":"lt:national","sort_rank":380,"kind_detail":"primary","bus_network":null,"source":"openstreetmap.org","min_zoom":8.0,"bus_shield_text":"9","shield_text":"222","name:ru":"\u0448\u043e\u0441\u0441\u0435 \u0416\u0435\u043c\u0430\u0438\u0447\u044e","landuse_kind":"urban_area","ref":"222","id":4960967},"arcs":[81]},{"type":"LineString","properties":{"kind":"major_road","network":"lt:national","sort_rank":380,"kind_detail":"primary","is_bicycle_related":true,"bicycle_shield_text":"LT2","bicycle_network":"rcn","source":"openstreetmap.org","min_zoom":8.0,"shield_text":"140","ref":"140"},"arcs":[82]},{"type":"MultiLineString","properties":{"bus_network":null,"network":"lt:national","sort_rank":380,"kind_detail":"primary","kind":"major_road","source":"openstreetmap.org","min_zoom":8.0,"bus_shield_text":"221","shield_text":"134","ref":"134"},"arcs":[[83],[84]]},{"type":"MultiLineString","properties":{"sort_rank":380,"kind_detail":"primary","min_zoom":8.0,"kind":"major_road","source":"openstreetmap.org"},"arcs":[[85],[86],[87],[88],[89],[90],[91],[92],[93],[94],[95],[96],[97],[98],[99],[100]]},{"type":"MultiLineString","properties":{"kind":"major_road","network":"lt:national","sort_rank":380,"kind_detail":"primary","source":"openstreetmap.org","min_zoom":8.0,"landuse_kind":"urban_area","shield_text":"222","ref":"222"},"arcs":[[101],[102]]},{"type":"LineString","properties":{"kind":"major_road","sort_rank":380,"kind_detail":"primary","bus_network":null,"source":"openstreetmap.org","min_zoom":8.0,"bus_shield_text":"221","ref":"134","id":429597836},"arcs":[103]},{"type":"LineString","properties":{"kind":"major_road","network":"lt:regional","sort_rank":379,"kind_detail":"secondary","is_bicycle_related":true,"bicycle_shield_text":"LT4","bicycle_network":"ncn","source":"openstreetmap.org","min_zoom":8.0,"official_name":"Jono Jablonskio gatv\u0117","shield_text":"3811","ref":"3811","id":128877358},"arcs":[104]},{"type":"LineString","properties":{"kind":"major_road","network":"lt:regional","sort_rank":379,"kind_detail":"secondary","is_bicycle_related":true,"bicycle_shield_text":"LT4","bicycle_network":"ncn","source":"openstreetmap.org","min_zoom":8.0,"shield_text":"2602","name:ru":"\u0443\u043b\u0438\u0446\u0430 \u0412\u0438\u0442\u0430\u0443\u0442\u043e","ref":"2602","id":92418998},"arcs":[105]},{"type":"LineString","properties":{"kind":"major_road","network":"lt:national","sort_rank":380,"kind_detail":"primary","bus_network":null,"source":"openstreetmap.org","min_zoom":8.0,"bus_shield_text":"9","shield_text":"141","landuse_kind":"urban_area","ref":"141","id":168942896},"arcs":[106]},{"type":"LineString","properties":{"kind":"major_road","sort_rank":377,"kind_detail":"tertiary","is_bicycle_related":true,"bicycle_shield_text":"GV","bicycle_network":"ncn","source":"openstreetmap.org","min_zoom":8.0,"ref":"1138B"},"arcs":[107]},{"type":"LineString","properties":{"kind":"major_road","network":"lt:national","sort_rank":380,"kind_detail":"primary","source":"openstreetmap.org","min_zoom":8.0,"shield_text":"139","ref":"139"},"arcs":[108]},{"type":"LineString","properties":{"kind":"major_road","network":"ru:regional","sort_rank":381,"kind_detail":"trunk","source":"openstreetmap.org","min_zoom":8.0,"shield_text":"27\u0410","ref":"27\u0410-005"},"arcs":[109]},{"type":"MultiLineString","properties":{"bus_network":null,"sort_rank":380,"kind_detail":"primary","kind":"major_road","source":"openstreetmap.org","min_zoom":8.0,"bus_shield_text":"9","name:ru":"\u0443\u043b\u0438\u0446\u0430 \u0412\u0430\u0440\u043d\u044e","landuse_kind":"urban_area"},"arcs":[[110],[111]]},{"type":"LineString","properties":{"kind":"major_road","network":"lt:national","sort_rank":380,"kind_detail":"primary","source":"openstreetmap.org","min_zoom":8.0,"shield_text":"189","name:ru":"\u0443\u043b\u0438\u0446\u0430 \u041f\u043b\u0435\u043d\u0442\u043e","ref":"189"},"arcs":[112]},{"type":"MultiLineString","properties":{"bus_network":null,"network":"lt:national","sort_rank":381,"kind_detail":"trunk","kind":"major_road","official_name":"Jono Basanavi\u010diaus gatv\u0117","source":"openstreetmap.org","min_zoom":8.0,"bus_shield_text":"221","shield_text":"7","name:ru":"\u0443\u043b\u0438\u0446\u0430 \u042f. \u0411\u0430\u0441\u0430\u043d\u0430\u0432\u0438\u0447\u0438\u0430\u0443\u0441","ref":"A7"},"arcs":[[113],[114]]},{"type":"LineString","properties":{"kind":"major_road","network":"lt:national","sort_rank":380,"kind_detail":"primary","source":"openstreetmap.org","min_zoom":8.0,"shield_text":"140","name:ru":"\u0448\u043e\u0441\u0441\u0435 \u0428\u0430\u043a\u044e","ref":"140"},"arcs":[115]},{"type":"LineString","properties":{"bus_network":null,"network":"lt:national","sort_rank":381,"kind_detail":"trunk","kind":"major_road","source":"openstreetmap.org","min_zoom":8.0,"bus_shield_text":"221","shield_text":"7","name:ru":"\u0443\u043b\u0438\u0446\u0430 \u0410\u043b\u0432\u0438\u0442\u043e","ref":"A7"},"arcs":[116]},{"type":"LineString","properties":{"kind":"major_road","network":"lt:regional","sort_rank":379,"kind_detail":"secondary","is_bicycle_related":true,"bicycle_shield_text":"LT4","bicycle_network":"ncn","source":"openstreetmap.org","min_zoom":8.0,"shield_text":"5102","ref":"5102"},"arcs":[117]},{"type":"LineString","properties":{"bus_network":null,"network":"lt:national","sort_rank":380,"kind_detail":"primary","kind":"major_road","source":"openstreetmap.org","min_zoom":8.0,"bus_shield_text":"9","shield_text":"141","name:ru":"\u0448\u043e\u0441\u0441\u0435 \u0420\u0430\u0443\u0434\u043e\u043d\u0434\u0432\u0430\u0440\u0438\u043e","landuse_kind":"urban_area","ref":"141"},"arcs":[118]},{"type":"LineString","properties":{"kind":"major_road","network":"ru:regional","sort_rank":380,"kind_detail":"primary","source":"openstreetmap.org","min_zoom":8.0,"landuse_kind":"residential","shield_text":"27\u0410","ref":"27\u0410-025"},"arcs":[119]},{"type":"LineString","properties":{"kind":"major_road","network":"e-road","sort_rank":381,"kind_detail":"trunk","bus_network":null,"source":"openstreetmap.org","min_zoom":8.0,"bus_shield_text":"M-672","shield_text":"28","landuse_kind":"urban_area","id":294170878},"arcs":[120]},{"type":"MultiLineString","properties":{"kind":"minor_road","sort_rank":360,"landuse_kind":"nature_reserve","is_bicycle_related":true,"bicycle_shield_text":"GV","bicycle_network":"ncn","source":"openstreetmap.org","min_zoom":8.0,"kind_detail":"unclassified"},"arcs":[[121],[122],[123]]},{"type":"LineString","properties":{"bus_network":null,"network":"lt:national","sort_rank":380,"kind_detail":"primary","kind":"major_road","source":"openstreetmap.org","min_zoom":8.0,"bus_shield_text":"221","shield_text":"135","name:ru":"\u0443\u043b\u0438\u0446\u0430 \u0422\u0443\u0440\u0438\u0441\u0442\u0443","ref":"135"},"arcs":[124]},{"type":"LineString","properties":{"kind":"major_road","network":"lt:national","sort_rank":381,"kind_detail":"trunk","source":"openstreetmap.org","min_zoom":8.0,"shield_text":"5","ref":"130","id":128732239},"arcs":[125]},{"type":"MultiLineString","properties":{"kind":"major_road","network":"lt:national","sort_rank":380,"kind_detail":"primary","source":"openstreetmap.org","min_zoom":8.0,"shield_text":"132","ref":"132"},"arcs":[[126],[127],[128],[129]]},{"type":"MultiLineString","properties":{"bus_network":null,"sort_rank":380,"landuse_kind":"urban_area","kind":"major_road","source":"openstreetmap.org","min_zoom":8.0,"bus_shield_text":"6A","name:ru":"\u043f\u0440\u043e\u0441\u043f\u0435\u043a\u0442 \u041a\u0430\u0440\u0430\u043b\u0438\u0443\u0441 \u041c\u0438\u043d\u0434\u0430\u0443\u0433\u043e","kind_detail":"primary"},"arcs":[[130],[131]]},{"type":"LineString","properties":{"kind":"major_road","network":"lt:national","sort_rank":380,"kind_detail":"primary","source":"openstreetmap.org","min_zoom":8.0,"landuse_kind":"residential","shield_text":"130","ref":"130"},"arcs":[132]},{"type":"LineString","properties":{"kind":"major_road","network":"lt:national","sort_rank":380,"kind_detail":"primary","source":"openstreetmap.org","min_zoom":8.0,"landuse_kind":"park","shield_text":"200","name:ru":"\u0443\u043b\u0438\u0446\u0430 \u0422\u0430\u0438\u043a\u043e\u0441","ref":"200","id":258406303},"arcs":[133]},{"type":"LineString","properties":{"kind":"major_road","network":"lt:regional","sort_rank":377,"kind_detail":"tertiary","is_bicycle_related":true,"bicycle_shield_text":"LT4","bicycle_network":"ncn","source":"openstreetmap.org","min_zoom":8.0,"shield_text":"3819","ref":"3819"},"arcs":[134]},{"type":"MultiLineString","properties":{"bus_network":null,"network":"lt:national","sort_rank":381,"kind_detail":"trunk","kind":"major_road","source":"openstreetmap.org","min_zoom":8.0,"bus_shield_text":"221","shield_text":"7","name:ru":"\u0443\u043b\u0438\u0446\u0430 \u0412\u0438\u043b\u044c\u043d\u044e\u0441","ref":"A7"},"arcs":[[135],[136]]},{"type":"LineString","properties":{"bus_network":null,"network":"lt:national","sort_rank":381,"landuse_kind":"urban_area","is_bicycle_related":true,"kind":"major_road","cycleway":"lane","source":"openstreetmap.org","min_zoom":8.0,"bus_shield_text":"M-672","shield_text":"7","kind_detail":"trunk","ref":"A7"},"arcs":[137]},{"type":"LineString","properties":{"kind":"major_road","network":"lt:national","sort_rank":380,"kind_detail":"primary","source":"openstreetmap.org","min_zoom":8.0,"shield_text":"5","ref":"A5","id":36927580},"arcs":[138]},{"type":"LineString","properties":{"kind":"major_road","network":"lt:national","sort_rank":380,"kind_detail":"primary","is_bicycle_related":true,"bicycle_shield_text":"EV11","bicycle_network":"icn","source":"openstreetmap.org","min_zoom":8.0,"shield_text":"135","ref":"135","id":170132010},"arcs":[139]},{"type":"LineString","properties":{"bus_network":"KenigAuto","network":"lt:national","sort_rank":380,"kind_detail":"primary","kind":"major_road","source":"openstreetmap.org","min_zoom":8.0,"bus_shield_text":"217","shield_text":"141","ref":"141"},"arcs":[140]},{"type":"LineString","properties":{"kind":"major_road","sort_rank":380,"kind_detail":"primary","source":"openstreetmap.org","min_zoom":8.0,"landuse_kind":"urban_area","name:ru":"\u0443\u043b\u0438\u0446\u0430 \u0416. \u0415. \u0416\u0438\u043b\u0438\u0431\u0435\u0440\u043e","id":56660200},"arcs":[141]},{"type":"MultiLineString","properties":{"kind":"major_road","network":"lt:national","sort_rank":380,"kind_detail":"primary","source":"openstreetmap.org","min_zoom":8.0,"shield_text":"230","ref":"230"},"arcs":[[142],[143],[144],[145],[146],[147]]},{"type":"LineString","properties":{"bus_network":"KenigAuto","network":"lt:national","sort_rank":380,"kind_detail":"primary","kind":"major_road","source":"openstreetmap.org","min_zoom":8.0,"bus_shield_text":"217","shield_text":"140","landuse_kind":"urban_area"},"arcs":[148]},{"type":"MultiLineString","properties":{"kind":"major_road","network":"lt:national","sort_rank":381,"kind_detail":"trunk","source":"openstreetmap.org","min_zoom":8.0,"shield_text":"5","name:ru":"\u0443\u043b\u0438\u0446\u0430 \u0411\u0430\u043b\u0442\u0438\u0439\u043e\u0441","ref":"A5"},"arcs":[[149],[150],[151]]},{"type":"MultiLineString","properties":{"bus_network":"KenigAuto","network":"lt:national","sort_rank":381,"landuse_kind":"urban_area","kind":"major_road","source":"openstreetmap.org","min_zoom":8.0,"bus_shield_text":"217","shield_text":"5","kind_detail":"trunk","ref":"A5"},"arcs":[[152],[153]]},{"type":"MultiLineString","properties":{"kind":"major_road","network":"lt:national","sort_rank":381,"kind_detail":"trunk","source":"openstreetmap.org","min_zoom":8.0,"shield_text":"130","ref":"130"},"arcs":[[154],[155]]},{"type":"LineString","properties":{"source":"openstreetmap.org","kind":"major_road","sort_rank":380,"kind_detail":"primary","ref":"140","min_zoom":8.0,"id":145017276},"arcs":[156]},{"type":"LineString","properties":{"kind":"major_road","network":"lt:regional","sort_rank":379,"kind_detail":"secondary","is_bicycle_related":true,"bicycle_shield_text":"LT4","bicycle_network":"ncn","source":"openstreetmap.org","min_zoom":8.0,"shield_text":"2646","ref":"2646"},"arcs":[157]},{"type":"LineString","properties":{"kind":"major_road","network":"lt:regional","sort_rank":379,"kind_detail":"secondary","is_bicycle_related":true,"bicycle_shield_text":"LT4","bicycle_network":"ncn","source":"openstreetmap.org","min_zoom":8.0,"shield_text":"3811","ref":"3811"},"arcs":[158]},{"type":"LineString","properties":{"kind":"major_road","network":"lt:national","sort_rank":380,"kind_detail":"primary","source":"openstreetmap.org","min_zoom":8.0,"shield_text":"139","name:ru":"\u0443\u043b\u0438\u0446\u0430 \u0412\u0438\u0442\u0430\u0443\u0442\u043e","ref":"139","id":207920397},"arcs":[159]},{"type":"LineString","properties":{"kind":"path","sort_rank":354,"kind_detail":"track","is_bicycle_related":true,"bicycle_shield_text":"LT4","bicycle_network":"ncn","source":"openstreetmap.org","min_zoom":8.0},"arcs":[160]},{"type":"LineString","properties":{"kind":"major_road","sort_rank":380,"kind_detail":"primary","bus_network":null,"source":"openstreetmap.org","min_zoom":8.0,"bus_shield_text":"M-672","name:ru":"\u0443\u043b\u0438\u0446\u0430 \u041d\u0435\u043f\u0440\u0438\u043a\u043b\u0430\u0443\u0441\u043e\u043c\u0438\u0431\u0435\u0441","id":211162861},"arcs":[161]},{"type":"LineString","properties":{"kind":"major_road","network":"lt:national","name:ka":"\u10d5\u10d8\u10da\u10d9\u10d0\u10d5\u10d8\u10e8\u10d9\u10d8\u10e1\u10d8 \u2014 \u10d2\u10e0\u10d0\u10df\u10d8\u10e8\u10d9\u10d8\u10d0\u10d8","sort_rank":380,"kind_detail":"primary","source":"openstreetmap.org","min_zoom":8.0,"shield_text":"185","name:pl":"Wy\u0142kowyszki \u2014 Gra\u017cyszki","ref":"185","id":437777458},"arcs":[162]},{"type":"LineString","properties":{"kind":"major_road","network":"ru:regional","sort_rank":380,"kind_detail":"primary","source":"openstreetmap.org","min_zoom":8.0,"landuse_kind":"residential","shield_text":"27\u041a","ref":"27\u041a-104"},"arcs":[163]},{"type":"LineString","properties":{"kind":"major_road","network":"lt:national","sort_rank":380,"kind_detail":"primary","source":"openstreetmap.org","min_zoom":8.0,"shield_text":"189","name:ru":"\u0443\u043b\u0438\u0446\u0430 \u0422\u0432\u0435\u043d\u043a\u0438\u043d\u044e","ref":"189","id":314186538},"arcs":[164]},{"type":"LineString","properties":{"kind":"major_road","network":"lt:regional","sort_rank":380,"kind_detail":"primary","is_bicycle_related":true,"bicycle_shield_text":"LT4","bicycle_network":"ncn","source":"openstreetmap.org","min_zoom":8.0,"shield_text":"2602","ref":"183","id":475478641},"arcs":[165]},{"type":"LineString","properties":{"kind":"major_road","network":"pl:regional","sort_rank":380,"kind_detail":"primary","source":"openstreetmap.org","min_zoom":8.0,"shield_text":"651","ref":"8;651"},"arcs":[166]},{"type":"LineString","properties":{"kind":"major_road","network":"lt:national","sort_rank":381,"kind_detail":"trunk","source":"openstreetmap.org","min_zoom":8.0,"landuse_kind":"residential","shield_text":"5","name:ru":"\u0443\u043b\u0438\u0446\u0430 \u0411\u0430\u043b\u0442\u0438\u0439\u043e\u0441","ref":"A5","id":262743607},"arcs":[167]},{"type":"MultiLineString","properties":{"kind":"major_road","network":"lt:national","sort_rank":381,"landuse_kind":"urban_area","source":"openstreetmap.org","min_zoom":8.0,"kind_detail":"trunk","shield_text":"222","name:ru":"\u0448\u043e\u0441\u0441\u0435 \u0416\u0435\u043c\u0430\u0438\u0447\u044e","ref":"222"},"arcs":[[168],[169],[170],[171]]},{"type":"MultiLineString","properties":{"bus_network":null,"network":"lt:national","sort_rank":380,"kind_detail":"primary","kind":"major_road","source":"openstreetmap.org","min_zoom":8.0,"bus_shield_text":"221","shield_text":"182","ref":"182"},"arcs":[[172],[173],[174]]},{"type":"LineString","properties":{"kind":"major_road","network":"lt:national","sort_rank":380,"kind_detail":"primary","source":"openstreetmap.org","min_zoom":8.0,"shield_text":"201","name:ru":"\u0443\u043b\u0438\u0446\u0430 \u0412\u0438\u0442\u0430\u0443\u0442\u043e","ref":"201","id":32108089},"arcs":[175]},{"type":"LineString","properties":{"kind":"major_road","network":"lt:regional","sort_rank":377,"kind_detail":"tertiary","is_bicycle_related":true,"bicycle_shield_text":"LT4","bicycle_network":"ncn","source":"openstreetmap.org","min_zoom":8.0,"shield_text":"3808","ref":"3808"},"arcs":[176]},{"type":"LineString","properties":{"kind":"major_road","network":"lt:regional","sort_rank":379,"landuse_kind":"protected_area","is_bicycle_related":true,"bicycle_shield_text":"LT4","bicycle_network":"ncn","source":"openstreetmap.org","min_zoom":8.0,"kind_detail":"secondary","shield_text":"2605","ref":"2605"},"arcs":[177]},{"type":"LineString","properties":{"source":"openstreetmap.org","bus_network":null,"bus_shield_text":"M-672","sort_rank":380,"kind_detail":"primary","min_zoom":8.0,"kind":"major_road"},"arcs":[178]},{"type":"LineString","properties":{"kind":"path","sort_rank":354,"kind_detail":"path","is_bicycle_related":true,"bicycle_shield_text":"GV","bicycle_network":"ncn","source":"openstreetmap.org","min_zoom":8.0,"landuse_kind":"urban_area","id":385723160},"arcs":[179]},{"type":"MultiLineString","properties":{"kind":"major_road","network":"lt:national","sort_rank":381,"kind_detail":"trunk","source":"openstreetmap.org","min_zoom":8.0,"shield_text":"5","ref":"A5;130"},"arcs":[[180],[181]]},{"type":"LineString","properties":{"source":"openstreetmap.org","kind":"major_road","landuse_kind":"urban_area","sort_rank":380,"kind_detail":"primary","min_zoom":8.0,"name:ru":"\u0443\u043b\u0438\u0446\u0430 \u041a\u0430\u0443\u043d\u043e"},"arcs":[182]},{"type":"LineString","properties":{"kind":"major_road","sort_rank":380,"kind_detail":"primary","bus_network":null,"source":"openstreetmap.org","min_zoom":8.0,"bus_shield_text":"221","name:ru":"\u0443\u043b\u0438\u0446\u0430 \u0413\u0435\u043b\u0435\u0436\u0438\u043d\u043a\u0435\u043b\u0438\u043e","id":119659144},"arcs":[183]},{"type":"MultiLineString","properties":{"kind":"major_road","network":"lt:national","sort_rank":380,"kind_detail":"primary","source":"openstreetmap.org","min_zoom":8.0,"shield_text":"185","ref":"185"},"arcs":[[184],[185],[186]]},{"type":"LineString","properties":{"kind":"major_road","network":"lt:national","sort_rank":380,"kind_detail":"primary","source":"openstreetmap.org","min_zoom":8.0,"shield_text":"131","name:ru":"\u0443\u043b\u0438\u0446\u0430 \u0412\u0438\u0442\u0430\u0443\u0442\u043e","ref":"131"},"arcs":[187]},{"type":"LineString","properties":{"bus_network":null,"network":"ru:national","name:lt":"\u010cerniachovsko g.","sort_rank":381,"kind_detail":"trunk","kind":"major_road","source":"openstreetmap.org","min_zoom":8.0,"bus_shield_text":"221","shield_text":"229","ref":"\u0410-229"},"arcs":[188]},{"type":"LineString","properties":{"kind":"minor_road","sort_rank":360,"kind_detail":"living_street","is_bicycle_related":true,"bicycle_shield_text":"LT4","bicycle_network":"ncn","source":"openstreetmap.org","min_zoom":8.0,"id":486204461},"arcs":[189]},{"type":"LineString","properties":{"bus_network":null,"network":"lt:national","sort_rank":380,"kind_detail":"primary","kind":"major_road","source":"openstreetmap.org","min_zoom":8.0,"bus_shield_text":"9","shield_text":"222","name:ru":"\u0443\u043b\u0438\u0446\u0430 \u041f\u0430\u043d\u0435\u0440\u0438\u0443","landuse_kind":"urban_area","ref":"222"},"arcs":[190]},{"type":"LineString","properties":{"kind":"major_road","network":"lt:regional","sort_rank":377,"kind_detail":"tertiary","is_bicycle_related":true,"bicycle_shield_text":"LT4","bicycle_network":"ncn","source":"openstreetmap.org","min_zoom":8.0,"landuse_kind":"park","shield_text":"5102","ref":"5102"},"arcs":[191]},{"type":"LineString","properties":{"kind":"major_road","network":"lt:national","sort_rank":380,"kind_detail":"primary","bus_network":null,"source":"openstreetmap.org","min_zoom":8.0,"bus_shield_text":"6A","shield_text":"140","landuse_kind":"urban_area","id":415486192},"arcs":[192]},{"type":"LineString","properties":{"kind":"major_road","sort_rank":379,"kind_detail":"secondary","is_bicycle_related":true,"bicycle_shield_text":"LT4","bicycle_network":"ncn","source":"openstreetmap.org","min_zoom":8.0,"name:ru":"\u0443\u043b\u0438\u0446\u0430 \u0410\u0442\u0433\u0438\u043c\u0438\u043c\u043e","id":92418947},"arcs":[193]},{"type":"LineString","properties":{"kind":"major_road","network":"lt:national","sort_rank":380,"kind_detail":"primary","source":"openstreetmap.org","min_zoom":8.0,"shield_text":"135","ref":"135"},"arcs":[194]},{"type":"LineString","properties":{"kind":"major_road","network":"lt:national","sort_rank":381,"kind_detail":"trunk","source":"openstreetmap.org","min_zoom":8.0,"shield_text":"16","name:ru":"\u0443\u043b\u0438\u0446\u0430 \u0428\u0438\u043b\u043e","ref":"A16"},"arcs":[195]},{"type":"LineString","properties":{"kind":"major_road","network":"lt:national","sort_rank":380,"kind_detail":"primary","bus_network":null,"source":"openstreetmap.org","min_zoom":8.0,"bus_shield_text":"221","shield_text":"135","ref":"135","id":223013877},"arcs":[196]},{"type":"LineString","properties":{"kind":"major_road","network":"lt:national","sort_rank":381,"kind_detail":"trunk","source":"openstreetmap.org","min_zoom":8.0,"shield_text":"16","name:ru":"\u0443\u043b\u0438\u0446\u0430 \u0413\u0435\u0434\u0438\u043c\u0438\u043d\u043e","ref":"A16"},"arcs":[197]},{"type":"LineString","properties":{"kind":"major_road","network":"lt:national","sort_rank":380,"kind_detail":"primary","source":"openstreetmap.org","min_zoom":8.0,"shield_text":"189","name:ru":"\u0443\u043b\u0438\u0446\u0430 \u0410\u0442\u0435\u0439\u0442\u0435\u0441","ref":"189"},"arcs":[198]},{"type":"LineString","properties":{"kind":"major_road","sort_rank":380,"kind_detail":"primary","bus_network":"KenigAuto","source":"openstreetmap.org","min_zoom":8.0,"bus_shield_text":"217","landuse_kind":"urban_area","ref":"141","id":223696699},"arcs":[199]},{"type":"MultiLineString","properties":{"kind":"major_road","network":"lt:national","sort_rank":380,"kind_detail":"primary","source":"openstreetmap.org","min_zoom":8.0,"shield_text":"186","ref":"186"},"arcs":[[200],[201]]},{"type":"LineString","properties":{"kind":"major_road","network":"lt:regional","sort_rank":379,"kind_detail":"secondary","is_bicycle_related":true,"bicycle_shield_text":"LT4","bicycle_network":"ncn","source":"openstreetmap.org","min_zoom":8.0,"shield_text":"2605","name:ru":"\u0443\u043b\u0438\u0446\u0430 \u041f\u0430\u0434\u043e\u0432\u0438\u043d\u0438","ref":"2605","id":211924505},"arcs":[202]},{"type":"LineString","properties":{"kind":"major_road","network":"lt:national","sort_rank":380,"kind_detail":"primary","bus_network":null,"source":"openstreetmap.org","min_zoom":8.0,"bus_shield_text":"11","shield_text":"141","landuse_kind":"urban_area","ref":"141","id":90376012},"arcs":[203]},{"type":"LineString","properties":{"bus_network":null,"network":"lt:national","sort_rank":381,"landuse_kind":"urban_area","kind":"major_road","name:ru":"\u0448\u043e\u0441\u0441\u0435 \u0416\u0435\u043c\u0430\u0438\u0447\u044e","source":"openstreetmap.org","min_zoom":8.0,"bus_shield_text":"9","shield_text":"222","kind_detail":"trunk","ref":"222"},"arcs":[204]},{"type":"LineString","properties":{"bus_network":null,"network":"lt:national","sort_rank":380,"kind_detail":"primary","kind":"major_road","source":"openstreetmap.org","min_zoom":8.0,"bus_shield_text":"M-672","shield_text":"138","name:pl":"Wy\u0142kowyszki \u2014 W\u0142adys\u0142aw\u00f3w \u2014 Szaki","ref":"138"},"arcs":[205]},{"type":"LineString","properties":{"source":"openstreetmap.org","kind":"major_road","landuse_kind":"urban_area","sort_rank":380,"kind_detail":"primary","min_zoom":8.0,"official_name":"Vinco Kudirkos gatv\u0117"},"arcs":[206]},{"type":"LineString","properties":{"kind":"major_road","network":"lt:national","sort_rank":381,"kind_detail":"trunk","source":"openstreetmap.org","min_zoom":8.0,"shield_text":"5","name:ru":"\u0443\u043b\u0438\u0446\u0430 \u041d\u0430\u0443\u0436\u043e\u0436\u0438","ref":"A5","id":119659123},"arcs":[207]},{"type":"MultiLineString","properties":{"kind":"minor_road","sort_rank":360,"landuse_kind":"nature_reserve","is_bicycle_related":true,"bicycle_shield_text":"GV","bicycle_network":"ncn","source":"openstreetmap.org","min_zoom":8.0,"kind_detail":"residential"},"arcs":[[208],[209]]},{"type":"LineString","properties":{"kind":"major_road","network":"lt:national","sort_rank":380,"kind_detail":"primary","is_bicycle_related":true,"bicycle_shield_text":"LT2","bicycle_network":"rcn","source":"openstreetmap.org","min_zoom":8.0,"shield_text":"140","name:ru":"\u0448\u043e\u0441\u0441\u0435 \u0428\u0430\u043a\u044e","ref":"140","id":83250078},"arcs":[210]},{"type":"LineString","properties":{"kind":"major_road","network":"lt:national","sort_rank":380,"kind_detail":"primary","source":"openstreetmap.org","min_zoom":8.0,"landuse_kind":"park","shield_text":"132","ref":"132"},"arcs":[211]},{"type":"LineString","properties":{"kind":"major_road","network":"lt:regional","sort_rank":379,"kind_detail":"secondary","is_bicycle_related":true,"bicycle_shield_text":"LT4","bicycle_network":"ncn","source":"openstreetmap.org","min_zoom":8.0,"official_name":"Vinco Kudirkos gatv\u0117","shield_text":"3806","ref":"3806","id":39923382},"arcs":[212]},{"type":"LineString","properties":{"kind":"major_road","network":"lt:regional","sort_rank":379,"kind_detail":"secondary","is_bicycle_related":true,"bicycle_shield_text":"LT4","bicycle_network":"ncn","source":"openstreetmap.org","min_zoom":8.0,"shield_text":"1912","ref":"1912"},"arcs":[213]},{"type":"MultiLineString","properties":{"bus_network":null,"network":"lt:national","sort_rank":380,"landuse_kind":"urban_area","kind":"major_road","source":"openstreetmap.org","min_zoom":8.0,"bus_shield_text":"6","shield_text":"130","kind_detail":"primary","ref":"130"},"arcs":[[214],[215]]},{"type":"LineString","properties":{"kind":"major_road","sort_rank":377,"kind_detail":"tertiary","is_bicycle_related":true,"bicycle_shield_text":"GV","bicycle_network":"ncn","source":"openstreetmap.org","min_zoom":8.0,"ref":"1892N","id":350060148},"arcs":[216]},{"type":"LineString","properties":{"kind":"path","sort_rank":354,"kind_detail":"track","is_bicycle_related":true,"bicycle_shield_text":"R11","bicycle_network":"icn","source":"openstreetmap.org","min_zoom":8.0,"id":178797869},"arcs":[217]},{"type":"LineString","properties":{"kind":"major_road","network":"e-road","sort_rank":381,"kind_detail":"trunk","bus_network":null,"official_name":"Vinco Kudirkos gatv\u0117","source":"openstreetmap.org","min_zoom":8.0,"bus_shield_text":"221","shield_text":"28","landuse_kind":"urban_area","id":70552994},"arcs":[218]},{"type":"MultiLineString","properties":{"bus_network":null,"network":"lt:national","sort_rank":380,"kind_detail":"primary","kind":"major_road","source":"openstreetmap.org","min_zoom":8.0,"bus_shield_text":"9","shield_text":"222","name:ru":"\u0443\u043b\u0438\u0446\u0430 \u041b\u0438\u043d\u043a\u0443\u0432\u043e\u0441","landuse_kind":"urban_area","ref":"222"},"arcs":[[219],[220]]},{"type":"MultiLineString","properties":{"bus_network":null,"network":"lt:national","sort_rank":380,"kind_detail":"primary","kind":"major_road","source":"openstreetmap.org","min_zoom":8.0,"bus_shield_text":"10","shield_text":"141","landuse_kind":"urban_area","ref":"141;222"},"arcs":[[221],[222],[223],[224]]},{"type":"MultiLineString","properties":{"kind":"major_road","network":"lt:national","sort_rank":380,"kind_detail":"primary","source":"openstreetmap.org","min_zoom":8.0,"shield_text":"186","name:ru":"\u041a\u0438\u0431\u0430\u0440\u0442\u0430\u0439 \u2014 \u0412\u0438\u0448\u0442\u0438\u0442\u0438\u0441","ref":"186"},"arcs":[[225],[226]]},{"type":"LineString","properties":{"kind":"major_road","network":"pl:national","sort_rank":380,"kind_detail":"primary","is_bicycle_related":true,"bicycle_shield_text":"R11","bicycle_network":"icn","source":"openstreetmap.org","min_zoom":8.0,"shield_text":"16","ref":"16","id":119365321},"arcs":[227]},{"type":"LineString","properties":{"kind":"major_road","sort_rank":377,"kind_detail":"tertiary","is_bicycle_related":true,"bicycle_shield_text":"GV","bicycle_network":"ncn","source":"openstreetmap.org","min_zoom":8.0,"ref":"1141B"},"arcs":[228]},{"type":"LineString","properties":{"kind":"major_road","network":"lt:national","sort_rank":380,"kind_detail":"primary","source":"openstreetmap.org","min_zoom":8.0,"shield_text":"181","name:ru":"\u0443\u043b\u0438\u0446\u0430 \u0428\u0432\u0438\u0435\u0441\u043e\u0441","ref":"181","id":315073377},"arcs":[229]},{"type":"LineString","properties":{"kind":"major_road","network":"lt:national","sort_rank":380,"kind_detail":"primary","bus_network":null,"source":"openstreetmap.org","min_zoom":8.0,"bus_shield_text":"6A","shield_text":"139","landuse_kind":"residential","ref":"139","id":85137314},"arcs":[230]},{"type":"MultiLineString","properties":{"kind":"major_road","network":"lt:national","sort_rank":381,"kind_detail":"trunk","source":"openstreetmap.org","min_zoom":8.0,"shield_text":"5","name:ru":"\u0443\u043b\u0438\u0446\u0430 \u041c\u0430\u0440\u0438\u044f\u043c\u043f\u043e\u043b\u0435\u0441","ref":"A5"},"arcs":[[231],[232]]},{"type":"LineString","properties":{"kind":"major_road","network":"lt:national","sort_rank":380,"kind_detail":"primary","is_bicycle_related":true,"bicycle_shield_text":"LT4","bicycle_network":"ncn","source":"openstreetmap.org","min_zoom":8.0,"shield_text":"181","ref":"181"},"arcs":[233]},{"type":"LineString","properties":{"kind":"major_road","network":"lt:national","sort_rank":380,"kind_detail":"primary","is_bicycle_related":true,"bicycle_shield_text":"LT4","bicycle_network":"ncn","source":"openstreetmap.org","min_zoom":8.0,"shield_text":"183","ref":"183"},"arcs":[234]},{"type":"LineString","properties":{"kind":"major_road","network":"lt:national","sort_rank":380,"kind_detail":"primary","source":"openstreetmap.org","min_zoom":8.0,"shield_text":"222","ref":"222"},"arcs":[235]},{"type":"LineString","properties":{"bus_network":null,"network":"lt:national","sort_rank":380,"kind_detail":"primary","kind":"major_road","source":"openstreetmap.org","min_zoom":8.0,"bus_shield_text":"1","shield_text":"6","name:ru":"\u043f\u0440\u043e\u0441\u043f\u0435\u043a\u0442 \u0421\u0430\u0432\u0430\u043d\u043e\u0440\u044e","landuse_kind":"urban_area","ref":"A6"},"arcs":[236]},{"type":"LineString","properties":{"kind":"major_road","network":"lt:national","sort_rank":380,"kind_detail":"primary","source":"openstreetmap.org","min_zoom":8.0,"shield_text":"201","name:ru":"\u0443\u043b\u0438\u0446\u0430 \u0421\u0443\u0432\u0430\u043b\u043a\u044e","name:pl":"ulica Suwalska","ref":"201"},"arcs":[237]},{"type":"MultiLineString","properties":{"bus_network":null,"sort_rank":380,"kind_detail":"primary","kind":"major_road","source":"openstreetmap.org","min_zoom":8.0,"bus_shield_text":"13","landuse_kind":"urban_area"},"arcs":[[238],[239]]},{"type":"LineString","properties":{"bus_network":null,"network":"lt:national","sort_rank":380,"kind_detail":"primary","kind":"major_road","source":"openstreetmap.org","min_zoom":8.0,"bus_shield_text":"9","shield_text":"222","name:ru":"\u0443\u043b\u0438\u0446\u0430 \u0410. \u041a\u0440\u0438\u0449\u044e\u043a\u0430\u0438\u0447\u0438\u043e","landuse_kind":"urban_area","ref":"222"},"arcs":[240]},{"type":"LineString","properties":{"bus_network":null,"sort_rank":380,"kind_detail":"primary","kind":"major_road","official_name":"Hermano ir Oskaro Minkovski\u0173 gatv\u0117","source":"openstreetmap.org","min_zoom":8.0,"bus_shield_text":"13","name:ru":"\u0443\u043b\u0438\u0446\u0430 \u0425. \u0438\u0440 \u041e. \u041c\u0438\u043d\u043a\u043e\u0432\u0441\u043a\u044e","landuse_kind":"urban_area"},"arcs":[241]},{"type":"LineString","properties":{"kind":"major_road","network":"lt:national","sort_rank":380,"kind_detail":"primary","bus_network":null,"source":"openstreetmap.org","min_zoom":8.0,"bus_shield_text":"221","shield_text":"182","name:ru":"\u0443\u043b\u0438\u0446\u0430 \u041f. \u0410\u0440\u043c\u0438\u043d\u043e","ref":"182","id":497082479},"arcs":[242]},{"type":"LineString","properties":{"kind":"major_road","sort_rank":377,"kind_detail":"tertiary","is_bicycle_related":true,"bicycle_shield_text":"R11","bicycle_network":"icn","source":"openstreetmap.org","min_zoom":8.0},"arcs":[243]},{"type":"MultiLineString","properties":{"kind":"major_road","network":"lt:national","sort_rank":380,"kind_detail":"primary","source":"openstreetmap.org","min_zoom":8.0,"shield_text":"140","ref":"140"},"arcs":[[244],[245],[246],[247]]},{"type":"LineString","properties":{"bus_network":null,"network":"lt:national","sort_rank":380,"kind_detail":"primary","is_bicycle_related":true,"kind":"major_road","bicycle_shield_text":"LT4","bicycle_network":"ncn","source":"openstreetmap.org","min_zoom":8.0,"official_name":"Salom\u0117jos N\u0117ries gatv\u0117","bus_shield_text":"M-672","shield_text":"138","ref":"138","id":235394612},"arcs":[248]},{"type":"LineString","properties":{"kind":"major_road","sort_rank":380,"kind_detail":"primary","bus_network":null,"source":"openstreetmap.org","min_zoom":8.0,"bus_shield_text":"3","name:ru":"\u0443\u043b\u0438\u0446\u0430 \u0412\u0430\u0440\u043d\u044e","landuse_kind":"urban_area","id":171417768},"arcs":[249]},{"type":"MultiLineString","properties":{"kind":"path","sort_rank":354,"kind_detail":"track","is_bicycle_related":true,"bicycle_shield_text":"GV","bicycle_network":"ncn","source":"openstreetmap.org","min_zoom":8.0},"arcs":[[250],[251],[252],[253],[254],[255],[256],[257]]},{"type":"LineString","properties":{"bus_network":null,"network":"lt:national","sort_rank":381,"kind_detail":"trunk","kind":"major_road","official_name":"Jono Basanavi\u010diaus gatv\u0117","source":"openstreetmap.org","min_zoom":8.0,"bus_shield_text":"M-672","shield_text":"7","name:ru":"\u0443\u043b\u0438\u0446\u0430 \u042f. \u0411\u0430\u0441\u0430\u043d\u0430\u0432\u0438\u0447\u0438\u0430\u0443\u0441","ref":"A7"},"arcs":[258]},{"type":"LineString","properties":{"bus_network":null,"network":"lt:national","sort_rank":380,"kind_detail":"primary","kind":"major_road","source":"openstreetmap.org","min_zoom":8.0,"bus_shield_text":"1","shield_text":"6","landuse_kind":"urban_area","ref":"A6"},"arcs":[259]},{"type":"LineString","properties":{"kind":"major_road","network":"lt:national","sort_rank":380,"kind_detail":"primary","bus_network":null,"source":"openstreetmap.org","min_zoom":8.0,"bus_shield_text":"221","shield_text":"132","ref":"132","id":24166143},"arcs":[260]},{"type":"LineString","properties":{"bus_network":null,"network":"lt:national","sort_rank":381,"landuse_kind":"urban_area","bus_shield_text":"21","kind":"major_road","source":"openstreetmap.org","min_zoom":8.0,"kind_detail":"trunk","shield_text":"1","name:ru":"\u0448\u043e\u0441\u0441\u0435 \u0418\u0441\u043b\u0430\u043d\u0434\u0438\u0439\u043e\u0441","ref":"A1"},"arcs":[261]},{"type":"LineString","properties":{"kind":"major_road","network":"lt:national","sort_rank":380,"kind_detail":"primary","source":"openstreetmap.org","min_zoom":8.0,"landuse_kind":"park","shield_text":"186","name:ru":"\u041a\u0438\u0431\u0430\u0440\u0442\u0430\u0439 \u2014 \u0412\u0438\u0448\u0442\u0438\u0442\u0438\u0441","ref":"186","id":443610638},"arcs":[262]},{"type":"LineString","properties":{"kind":"major_road","network":"lt:national","sort_rank":380,"kind_detail":"primary","bus_network":null,"source":"openstreetmap.org","min_zoom":8.0,"bus_shield_text":"13","shield_text":"140","landuse_kind":"urban_area","id":10058934},"arcs":[263]},{"type":"MultiLineString","properties":{"bus_network":null,"network":"lt:national","sort_rank":380,"kind_detail":"primary","kind":"major_road","source":"openstreetmap.org","min_zoom":8.0,"bus_shield_text":"10","shield_text":"141","name:ru":"\u0443\u043b\u0438\u0446\u0430 \u0428\u0430\u0443\u043a\u043b\u044e","landuse_kind":"urban_area","ref":"141;222"},"arcs":[[264],[265]]},{"type":"LineString","properties":{"kind":"major_road","network":"lt:national","sort_rank":380,"kind_detail":"primary","source":"openstreetmap.org","min_zoom":8.0,"shield_text":"187","ref":"187","id":71953307},"arcs":[266]},{"type":"LineString","properties":{"kind":"major_road","network":"lt:national","sort_rank":380,"kind_detail":"primary","is_bicycle_related":true,"bicycle_shield_text":"LT4","bicycle_network":"ncn","source":"openstreetmap.org","min_zoom":8.0,"shield_text":"201","name:ru":"\u0443\u043b\u0438\u0446\u0430 \u0412\u0438\u0442\u0430\u0443\u0442\u043e","ref":"201","id":219868328},"arcs":[267]},{"type":"MultiLineString","properties":{"source":"openstreetmap.org","kind":"major_road","landuse_kind":"urban_area","sort_rank":380,"kind_detail":"primary","min_zoom":8.0,"name:ru":"\u043f\u0440\u043e\u0441\u043f\u0435\u043a\u0442 \u041a\u0430\u0440\u0430\u043b\u0438\u0443\u0441 \u041c\u0438\u043d\u0434\u0430\u0443\u0433\u043e"},"arcs":[[268],[269]]},{"type":"MultiLineString","properties":{"bus_network":"KenigAuto","network":"lt:national","sort_rank":380,"kind_detail":"primary","kind":"major_road","source":"openstreetmap.org","min_zoom":8.0,"bus_shield_text":"217","shield_text":"141","landuse_kind":"urban_area","ref":"141"},"arcs":[[270],[271],[272]]},{"type":"LineString","properties":{"kind":"major_road","network":"lt:national","sort_rank":380,"kind_detail":"primary","source":"openstreetmap.org","min_zoom":8.0,"landuse_kind":"park","shield_text":"186","name:ru":"\u0443\u043b\u0438\u0446\u0430 \u041c\u043e\u043a\u0438\u043a\u043b\u043e\u0441","ref":"186"},"arcs":[273]},{"type":"LineString","properties":{"kind":"major_road","network":"lt:national","sort_rank":381,"landuse_kind":"urban_area","source":"openstreetmap.org","min_zoom":8.0,"kind_detail":"trunk","shield_text":"16","ref":"A16"},"arcs":[274]},{"type":"MultiLineString","properties":{"bus_network":null,"network":"lt:national","sort_rank":380,"kind_detail":"primary","kind":"major_road","source":"openstreetmap.org","min_zoom":8.0,"bus_shield_text":"6A","shield_text":"130","landuse_kind":"residential","ref":"130"},"arcs":[[275],[276]]},{"type":"LineString","properties":{"kind":"major_road","network":"lt:national","sort_rank":380,"kind_detail":"primary","bus_network":null,"source":"openstreetmap.org","min_zoom":8.0,"bus_shield_text":"6","shield_text":"130","name:ru":"\u0443\u043b\u0438\u0446\u0430 \u0412\u0435\u0439\u0432\u0435\u0440\u044e","landuse_kind":"urban_area","ref":"130","id":15219150},"arcs":[277]},{"type":"MultiLineString","properties":{"bus_network":null,"network":"lt:national","sort_rank":380,"kind_detail":"primary","kind":"major_road","source":"openstreetmap.org","min_zoom":8.0,"bus_shield_text":"6A","shield_text":"130","landuse_kind":"urban_area","ref":"130"},"arcs":[[278],[279],[280],[281],[282],[283]]},{"type":"LineString","properties":{"kind":"minor_road","sort_rank":360,"landuse_kind":"urban_area","is_bicycle_related":true,"bicycle_shield_text":"GV","bicycle_network":"ncn","source":"openstreetmap.org","min_zoom":8.0,"kind_detail":"unclassified"},"arcs":[284]},{"type":"MultiLineString","properties":{"kind":"major_road","network":"e-road","sort_rank":380,"kind_detail":"primary","source":"openstreetmap.org","min_zoom":8.0,"shield_text":"67","ref":"8"},"arcs":[[285],[286],[287],[288]]},{"type":"LineString","properties":{"bus_network":null,"network":"ru:regional","sort_rank":381,"kind_detail":"trunk","kind":"major_road","source":"openstreetmap.org","min_zoom":8.0,"bus_shield_text":"221","shield_text":"27\u0410","ref":"27\u0410-005"},"arcs":[289]},{"type":"MultiLineString","properties":{"source":"openstreetmap.org","kind":"major_road","network":"e-road","sort_rank":381,"kind_detail":"trunk","min_zoom":8.0,"shield_text":"67"},"arcs":[[290],[291],[292]]},{"type":"LineString","properties":{"kind":"major_road","network":"lt:national","sort_rank":380,"kind_detail":"primary","is_bicycle_related":true,"bicycle_shield_text":"LT4","bicycle_network":"ncn","source":"openstreetmap.org","min_zoom":8.0,"shield_text":"230","ref":"230"},"arcs":[293]},{"type":"LineString","properties":{"source":"openstreetmap.org","kind":"major_road","sort_rank":380,"kind_detail":"primary","ref":"182","min_zoom":8.0,"id":496741916},"arcs":[294]},{"type":"MultiLineString","properties":{"bus_network":null,"sort_rank":380,"kind_detail":"primary","kind":"major_road","source":"openstreetmap.org","min_zoom":8.0,"bus_shield_text":"9","landuse_kind":"urban_area"},"arcs":[[295],[296],[297],[298]]},{"type":"LineString","properties":{"bus_network":null,"network":"lt:national","sort_rank":380,"kind_detail":"primary","kind":"major_road","official_name":"\u0160ventosios Gertr\u016bdos gatv\u0117","source":"openstreetmap.org","min_zoom":8.0,"bus_shield_text":"6A","shield_text":"141","landuse_kind":"urban_area","ref":"141;222"},"arcs":[299]},{"type":"MultiLineString","properties":{"bus_network":"KenigAuto","sort_rank":380,"kind_detail":"primary","kind":"major_road","source":"openstreetmap.org","min_zoom":8.0,"bus_shield_text":"217","landuse_kind":"urban_area"},"arcs":[[300],[301]]},{"type":"LineString","properties":{"kind":"major_road","network":"pl:regional","sort_rank":379,"kind_detail":"secondary","is_bicycle_related":true,"bicycle_shield_text":"GV","bicycle_network":"ncn","source":"openstreetmap.org","min_zoom":8.0,"shield_text":"651","ref":"651"},"arcs":[302]},{"type":"MultiLineString","properties":{"source":"openstreetmap.org","kind":"major_road","sort_rank":381,"kind_detail":"trunk","ref":"A5","min_zoom":8.0},"arcs":[[303],[304],[305]]},{"type":"LineString","properties":{"kind":"major_road","sort_rank":381,"kind_detail":"trunk","bus_network":null,"source":"openstreetmap.org","min_zoom":8.0,"bus_shield_text":"M-672","landuse_kind":"urban_area","id":70553003},"arcs":[306]},{"type":"MultiLineString","properties":{"bus_network":null,"network":"lt:national","sort_rank":380,"kind_detail":"primary","kind":"major_road","source":"openstreetmap.org","min_zoom":8.0,"bus_shield_text":"9","shield_text":"141","landuse_kind":"urban_area","ref":"141;222"},"arcs":[[307],[308]]},{"type":"MultiLineString","properties":{"sort_rank":381,"source":"openstreetmap.org","min_zoom":8.0,"kind":"major_road","kind_detail":"trunk"},"arcs":[[309],[310],[311],[312],[313]]},{"type":"LineString","properties":{"kind":"major_road","network":"lt:national","sort_rank":380,"kind_detail":"primary","source":"openstreetmap.org","min_zoom":8.0,"shield_text":"137","name:ru":"\u0443\u043b\u0438\u0446\u0430 \u0412\u0430\u0441\u0430\u0440\u0438\u043e 16-\u043e\u0441\u0438\u043e\u0441","ref":"137"},"arcs":[314]},{"type":"MultiLineString","properties":{"bus_network":null,"sort_rank":380,"kind_detail":"primary","kind":"major_road","source":"openstreetmap.org","min_zoom":8.0,"bus_shield_text":"221","landuse_kind":"urban_area"},"arcs":[[315],[316],[317]]},{"type":"LineString","properties":{"bus_network":null,"name:en":"Petras Vilei\u0161is bridge","network":"lt:national","sort_rank":380,"kind_detail":"primary","kind":"major_road","source":"openstreetmap.org","min_zoom":8.0,"bus_shield_text":"10","shield_text":"141","landuse_kind":"urban_area","ref":"141;222","id":218835528},"arcs":[318]},{"type":"MultiLineString","properties":{"kind":"major_road","network":"lt:regional","sort_rank":379,"kind_detail":"secondary","is_bicycle_related":true,"bicycle_shield_text":"LT4","bicycle_network":"ncn","source":"openstreetmap.org","min_zoom":8.0,"shield_text":"5115","ref":"5115"},"arcs":[[319],[320]]},{"type":"LineString","properties":{"kind":"major_road","network":"lt:national","sort_rank":380,"kind_detail":"primary","source":"openstreetmap.org","min_zoom":8.0,"landuse_kind":"park","shield_text":"200","ref":"200"},"arcs":[321]},{"type":"MultiLineString","properties":{"kind":"major_road","network":"lt:national","sort_rank":380,"kind_detail":"primary","is_bicycle_related":true,"bicycle_shield_text":"LT4","bicycle_network":"ncn","source":"openstreetmap.org","min_zoom":8.0,"shield_text":"185","ref":"185"},"arcs":[[322],[323]]},{"type":"MultiLineString","properties":{"kind":"major_road","network":"lt:national","sort_rank":380,"kind_detail":"primary","source":"openstreetmap.org","min_zoom":8.0,"landuse_kind":"urban_area","shield_text":"130","ref":"130"},"arcs":[[324],[325],[326]]},{"type":"LineString","properties":{"kind":"major_road","network":"lt:national","sort_rank":381,"landuse_kind":"urban_area","source":"openstreetmap.org","min_zoom":8.0,"kind_detail":"trunk","shield_text":"222","ref":"222"},"arcs":[327]},{"type":"LineString","properties":{"kind":"major_road","network":"lt:national","sort_rank":380,"kind_detail":"primary","bus_network":null,"source":"openstreetmap.org","min_zoom":8.0,"bus_shield_text":"11","shield_text":"141","name:ru":"\u0443\u043b\u0438\u0446\u0430 \u042e\u0440\u0431\u0430\u0440\u043a\u043e","landuse_kind":"urban_area","ref":"141","id":80801633},"arcs":[328]},{"type":"MultiLineString","properties":{"bus_network":null,"network":"lt:national","sort_rank":380,"kind_detail":"primary","kind":"major_road","source":"openstreetmap.org","min_zoom":8.0,"bus_shield_text":"221","shield_text":"131","ref":"131"},"arcs":[[329],[330]]},{"type":"MultiLineString","properties":{"kind":"major_road","network":"lt:national","sort_rank":380,"kind_detail":"primary","is_bicycle_related":true,"bicycle_shield_text":"LT4","bicycle_network":"ncn","source":"openstreetmap.org","min_zoom":8.0,"shield_text":"201","ref":"201"},"arcs":[[331],[332],[333],[334],[335]]},{"type":"MultiLineString","properties":{"bus_network":null,"network":"lt:national","sort_rank":380,"kind_detail":"primary","is_bicycle_related":true,"kind":"major_road","bicycle_shield_text":"LT4","bicycle_network":"ncn","source":"openstreetmap.org","min_zoom":8.0,"bus_shield_text":"M-672","shield_text":"138","name:pl":"Wy\u0142kowyszki \u2014 W\u0142adys\u0142aw\u00f3w \u2014 Szaki","ref":"138"},"arcs":[[336],[337],[338],[339],[340]]},{"type":"LineString","properties":{"kind":"major_road","network":"lt:national","sort_rank":380,"kind_detail":"primary","is_bicycle_related":true,"bicycle_shield_text":"LT4","bicycle_network":"ncn","source":"openstreetmap.org","min_zoom":8.0,"shield_text":"140","name:ru":"\u0443\u043b\u0438\u0446\u0430 \u041a\u0430\u0443\u043d\u043e","ref":"140","id":208569738},"arcs":[341]},{"type":"MultiLineString","properties":{"bus_network":null,"sort_rank":380,"kind_detail":"primary","kind":"major_road","source":"openstreetmap.org","min_zoom":8.0,"bus_shield_text":"M-672","landuse_kind":"urban_area"},"arcs":[[342],[343],[344]]},{"type":"LineString","properties":{"kind":"major_road","network":"lt:national","sort_rank":380,"kind_detail":"primary","source":"openstreetmap.org","min_zoom":8.0,"shield_text":"201","ref":"201","id":68269085},"arcs":[345]},{"type":"LineString","properties":{"kind":"major_road","network":"lt:national","sort_rank":380,"kind_detail":"primary","source":"openstreetmap.org","min_zoom":8.0,"landuse_kind":"urban_area","shield_text":"130","name:ru":"\u0443\u043b\u0438\u0446\u0430 \u0412\u0435\u0439\u0432\u0435\u0440\u044e","ref":"130","id":262765299},"arcs":[346]},{"type":"LineString","properties":{"source":"openstreetmap.org","kind":"major_road","kind_detail":"trunk","sort_rank":381,"landuse_kind":"urban_area","min_zoom":8.0},"arcs":[347]},{"type":"LineString","properties":{"kind":"major_road","network":"lt:national","sort_rank":380,"kind_detail":"primary","bus_network":null,"source":"openstreetmap.org","min_zoom":8.0,"bus_shield_text":"221","shield_text":"134","ref":"134; 135","id":223013878},"arcs":[348]},{"type":"LineString","properties":{"kind":"major_road","network":"lt:national","sort_rank":380,"kind_detail":"primary","is_bicycle_related":true,"bicycle_shield_text":"LT4","bicycle_network":"ncn","source":"openstreetmap.org","min_zoom":8.0,"landuse_kind":"park","shield_text":"200","ref":"200"},"arcs":[349]},{"type":"LineString","properties":{"kind":"major_road","network":"lt:national","sort_rank":380,"kind_detail":"primary","bus_network":null,"source":"openstreetmap.org","min_zoom":8.0,"bus_shield_text":"9","shield_text":"141","name:ru":"\u0443\u043b\u0438\u0446\u0430 \u042e\u0440\u0431\u0430\u0440\u043a\u043e","landuse_kind":"urban_area","ref":"141;222","id":32492589},"arcs":[350]},{"type":"LineString","properties":{"kind":"major_road","network":"lt:national","sort_rank":380,"kind_detail":"primary","source":"openstreetmap.org","min_zoom":8.0,"shield_text":"131","name:ru":"\u0443\u043b\u0438\u0446\u0430 \u042f\u0443\u043d\u0438\u043c\u043e","ref":"131","id":128887825},"arcs":[351]},{"type":"MultiLineString","properties":{"kind":"minor_road","sort_rank":360,"kind_detail":"unclassified","is_bicycle_related":true,"bicycle_shield_text":"LT4","bicycle_network":"ncn","source":"openstreetmap.org","min_zoom":8.0},"arcs":[[352],[353],[354],[355]]},{"type":"LineString","properties":{"kind":"major_road","sort_rank":381,"kind_detail":"trunk","bus_network":"KenigAuto","source":"openstreetmap.org","min_zoom":8.0,"bus_shield_text":"217","landuse_kind":"urban_area","id":200602332},"arcs":[356]},{"type":"MultiLineString","properties":{"kind":"major_road","network":"lt:national","sort_rank":381,"landuse_kind":"urban_area","source":"openstreetmap.org","min_zoom":8.0,"kind_detail":"trunk","shield_text":"1","ref":"A1"},"arcs":[[357],[358]]},{"type":"LineString","properties":{"bus_network":null,"network":"lt:national","sort_rank":381,"kind_detail":"trunk","kind":"major_road","official_name":"Jono Basanavi\u010diaus gatv\u0117","source":"openstreetmap.org","min_zoom":8.0,"bus_shield_text":"M-672","shield_text":"7","ref":"A7"},"arcs":[359]},{"type":"LineString","properties":{"kind":"major_road","network":"lt:national","sort_rank":380,"kind_detail":"primary","source":"openstreetmap.org","min_zoom":8.0,"shield_text":"189","name:ru":"\u0443\u043b\u0438\u0446\u0430 \u041f\u0438\u043b\u044f\u043a\u0430\u043b\u043d\u0438\u043e","ref":"189"},"arcs":[360]},{"type":"LineString","properties":{"kind":"major_road","network":"lt:national","sort_rank":380,"kind_detail":"primary","source":"openstreetmap.org","min_zoom":8.0,"landuse_kind":"urban_area","shield_text":"201","name:ru":"\u0443\u043b\u0438\u0446\u0430 \u0412\u0438\u0442\u0430\u0443\u0442\u043e","ref":"201","id":32108089},"arcs":[361]},{"type":"LineString","properties":{"kind":"major_road","sort_rank":379,"kind_detail":"secondary","is_bicycle_related":true,"bicycle_shield_text":"LT4","bicycle_network":"ncn","source":"openstreetmap.org","min_zoom":8.0,"name:ru":"\u0443\u043b\u0438\u0446\u0430 \u0413\u0435\u0434\u0438\u043c\u0438\u043d\u043e","id":208618645},"arcs":[362]},{"type":"MultiLineString","properties":{"kind":"major_road","network":"lt:national","sort_rank":381,"landuse_kind":"urban_area","source":"openstreetmap.org","min_zoom":8.0,"kind_detail":"trunk","shield_text":"5","ref":"A5"},"arcs":[[363],[364],[365],[366]]},{"type":"LineString","properties":{"kind":"major_road","network":"lt:national","sort_rank":380,"kind_detail":"primary","source":"openstreetmap.org","min_zoom":8.0,"landuse_kind":"urban_area","shield_text":"140","ref":"140"},"arcs":[367]},{"type":"LineString","properties":{"kind":"major_road","network":"lt:regional","sort_rank":377,"kind_detail":"tertiary","is_bicycle_related":true,"bicycle_shield_text":"LT4","bicycle_network":"ncn","source":"openstreetmap.org","min_zoom":8.0,"shield_text":"3811","ref":"3811","id":128877356},"arcs":[368]},{"type":"MultiLineString","properties":{"kind":"major_road","network":"lt:national","sort_rank":381,"kind_detail":"trunk","source":"openstreetmap.org","min_zoom":8.0,"shield_text":"7","ref":"A7"},"arcs":[[369],[370],[371],[372],[373],[374],[375]]},{"type":"MultiLineString","properties":{"bus_network":null,"network":"lt:national","sort_rank":380,"kind_detail":"primary","kind":"major_road","source":"openstreetmap.org","min_zoom":8.0,"bus_shield_text":"6A","shield_text":"130","name:ru":"\u043f\u0440\u043e\u0441\u043f\u0435\u043a\u0442 \u041a\u0430\u0440\u0430\u043b\u0438\u0443\u0441 \u041c\u0438\u043d\u0434\u0430\u0443\u0433\u043e","landuse_kind":"urban_area","ref":"130"},"arcs":[[376],[377]]},{"type":"MultiLineString","properties":{"bus_network":null,"network":"lt:national","sort_rank":380,"kind_detail":"primary","kind":"major_road","source":"openstreetmap.org","min_zoom":8.0,"bus_shield_text":"M-672","shield_text":"138","ref":"138"},"arcs":[[378],[379]]},{"type":"MultiLineString","properties":{"bus_network":null,"network":"lt:national","sort_rank":380,"kind_detail":"primary","is_bicycle_related":true,"kind":"major_road","bicycle_shield_text":"LT4","bicycle_network":"ncn","source":"openstreetmap.org","min_zoom":8.0,"bus_shield_text":"221","shield_text":"185","ref":"185"},"arcs":[[380],[381],[382]]},{"type":"MultiLineString","properties":{"bus_network":null,"network":"lt:national","sort_rank":380,"kind_detail":"primary","kind":"major_road","source":"openstreetmap.org","min_zoom":8.0,"bus_shield_text":"6A","shield_text":"130","name:ru":"\u0443\u043b\u0438\u0446\u0430 \u0412\u0435\u0439\u0432\u0435\u0440\u044e","landuse_kind":"urban_area","ref":"130"},"arcs":[[383],[384],[385],[386]]},{"type":"MultiLineString","properties":{"bus_network":null,"network":"lt:national","sort_rank":380,"kind_detail":"primary","kind":"major_road","source":"openstreetmap.org","min_zoom":8.0,"bus_shield_text":"10","shield_text":"141","name:ru":"\u0443\u043b\u0438\u0446\u0430 \u042e\u0440\u0431\u0430\u0440\u043a\u043e","landuse_kind":"urban_area","ref":"141;222"},"arcs":[[387],[388]]},{"type":"LineString","properties":{"bus_network":null,"network":"lt:national","sort_rank":381,"landuse_kind":"urban_area","kind":"major_road","source":"openstreetmap.org","min_zoom":8.0,"bus_shield_text":"M-672","shield_text":"7","kind_detail":"trunk","ref":"A7"},"arcs":[389]},{"type":"MultiLineString","properties":{"source":"openstreetmap.org","kind":"major_road","landuse_kind":"urban_area","sort_rank":380,"kind_detail":"primary","min_zoom":8.0,"name:ru":"\u0443\u043b\u0438\u0446\u0430 \u0412\u0430\u0440\u043d\u044e"},"arcs":[[390],[391]]},{"type":"LineString","properties":{"kind":"major_road","network":"ru:regional","sort_rank":380,"kind_detail":"primary","source":"openstreetmap.org","min_zoom":8.0,"shield_text":"27\u041a","ref":"27\u041a-104"},"arcs":[392]},{"type":"LineString","properties":{"kind":"major_road","sort_rank":377,"kind_detail":"tertiary","is_bicycle_related":true,"bicycle_shield_text":"GV","bicycle_network":"ncn","source":"openstreetmap.org","min_zoom":8.0,"landuse_kind":"urban_area","ref":"1141B","id":456076587},"arcs":[393]},{"type":"MultiLineString","properties":{"bus_network":null,"network":"lt:national","sort_rank":381,"landuse_kind":"urban_area","kind":"major_road","source":"openstreetmap.org","min_zoom":8.0,"bus_shield_text":"M-672","shield_text":"16","kind_detail":"trunk","ref":"A16"},"arcs":[[394],[395],[396]]},{"type":"LineString","properties":{"kind":"major_road","network":"lt:national","sort_rank":380,"kind_detail":"primary","is_bicycle_related":true,"bicycle_shield_text":"LT4","bicycle_network":"ncn","source":"openstreetmap.org","min_zoom":8.0,"shield_text":"201","name:ru":"\u0443\u043b\u0438\u0446\u0430 \u0414\u0430\u0440\u0438\u0430\u0443\u0441 \u0438 \u0413\u0438\u0440\u0435\u043d\u043e","ref":"201"},"arcs":[397]},{"type":"LineString","properties":{"kind":"major_road","sort_rank":380,"kind_detail":"primary","source":"openstreetmap.org","min_zoom":8.0,"landuse_kind":"urban_area","name:ru":"\u0443\u043b\u0438\u0446\u0430 \u0421\u0442\u043e\u0442\u0435\u0441","id":336718602},"arcs":[398]},{"type":"MultiLineString","properties":{"kind":"major_road","network":"lt:national","sort_rank":381,"kind_detail":"trunk","source":"openstreetmap.org","min_zoom":8.0,"shield_text":"5","ref":"A5"},"arcs":[[399],[400],[401],[402],[403],[404],[405],[406],[407],[408],[409],[410],[411]]},{"type":"LineString","properties":{"kind":"minor_road","sort_rank":360,"kind_detail":"unclassified","is_bicycle_related":true,"bicycle_shield_text":"EV11","bicycle_network":"icn","source":"openstreetmap.org","min_zoom":8.0},"arcs":[412]},{"type":"LineString","properties":{"kind":"major_road","network":"lt:national","sort_rank":380,"kind_detail":"primary","source":"openstreetmap.org","min_zoom":8.0,"landuse_kind":"urban_area","shield_text":"222","name:ru":"\u0443\u043b\u0438\u0446\u0430 \u0412\u0430\u043d\u0434\u0436\u0438\u043e\u0433\u0430\u043b\u043e\u0441","ref":"222"},"arcs":[413]},{"type":"LineString","properties":{"kind":"major_road","sort_rank":380,"kind_detail":"primary","bus_network":null,"source":"openstreetmap.org","min_zoom":8.0,"bus_shield_text":"6A","landuse_kind":"urban_area","ref":"130","id":4960737},"arcs":[414]},{"type":"MultiLineString","properties":{"bus_network":null,"sort_rank":380,"kind_detail":"primary","kind":"major_road","source":"openstreetmap.org","min_zoom":8.0,"bus_shield_text":"3","name:ru":"\u043f\u0440\u043e\u0441\u043f\u0435\u043a\u0442 \u0411\u0430\u043b\u0442\u044e","landuse_kind":"urban_area"},"arcs":[[415],[416],[417],[418],[419]]},{"type":"MultiLineString","properties":{"kind":"major_road","network":"lt:national","sort_rank":380,"kind_detail":"primary","source":"openstreetmap.org","min_zoom":8.0,"shield_text":"180","ref":"180"},"arcs":[[420],[421],[422],[423]]},{"type":"MultiLineString","properties":{"kind":"major_road","network":"lt:national","sort_rank":380,"kind_detail":"primary","is_bicycle_related":true,"bicycle_shield_text":"LT4","bicycle_network":"ncn","source":"openstreetmap.org","min_zoom":8.0,"shield_text":"137","ref":"137"},"arcs":[[424],[425]]},{"type":"LineString","properties":{"kind":"major_road","network":"lt:national","sort_rank":380,"kind_detail":"primary","bus_network":null,"source":"openstreetmap.org","min_zoom":8.0,"bus_shield_text":"221","shield_text":"182","landuse_kind":"protected_area","ref":"182","id":333584599},"arcs":[426]},{"type":"MultiLineString","properties":{"kind":"minor_road","sort_rank":360,"kind_detail":"unclassified","is_bicycle_related":true,"bicycle_shield_text":"GV","bicycle_network":"ncn","source":"openstreetmap.org","min_zoom":8.0},"arcs":[[427],[428],[429],[430],[431],[432]]},{"type":"MultiLineString","properties":{"kind":"major_road","network":"lt:national","sort_rank":381,"kind_detail":"trunk","source":"openstreetmap.org","min_zoom":8.0,"shield_text":"1","ref":"A1"},"arcs":[[433],[434]]},{"type":"LineString","properties":{"kind":"major_road","network":"lt:regional","sort_rank":379,"kind_detail":"secondary","is_bicycle_related":true,"bicycle_shield_text":"LT4","bicycle_network":"ncn","source":"openstreetmap.org","min_zoom":8.0,"shield_text":"3302","ref":"3302","id":16112276},"arcs":[435]},{"type":"LineString","properties":{"kind":"major_road","network":"ru:regional","sort_rank":380,"kind_detail":"primary","is_bicycle_related":true,"source":"openstreetmap.org","min_zoom":8.0,"landuse_kind":"residential","shield_text":"27\u0410","ref":"27\u0410-059"},"arcs":[436]},{"type":"MultiLineString","properties":{"source":"openstreetmap.org","kind":"major_road","landuse_kind":"urban_area","sort_rank":380,"kind_detail":"primary","min_zoom":8.0,"name:ru":"\u043f\u0440\u043e\u0441\u043f\u0435\u043a\u0442 \u0411\u0430\u043b\u0442\u044e"},"arcs":[[437],[438],[439],[440]]},{"type":"LineString","properties":{"bus_network":null,"sort_rank":380,"kind_detail":"primary","kind":"major_road","source":"openstreetmap.org","min_zoom":8.0,"bus_shield_text":"13","name:ru":"\u0443\u043b\u0438\u0446\u0430 \u0439\u043e\u043d\u0430\u0432\u043e\u0441","landuse_kind":"urban_area"},"arcs":[441]},{"type":"MultiLineString","properties":{"bus_network":null,"sort_rank":380,"kind_detail":"primary","kind":"major_road","source":"openstreetmap.org","min_zoom":8.0,"bus_shield_text":"3","landuse_kind":"urban_area"},"arcs":[[442],[443],[444]]},{"type":"MultiLineString","properties":{"bus_network":"KenigAuto","network":"lt:national","sort_rank":380,"kind_detail":"primary","kind":"major_road","source":"openstreetmap.org","min_zoom":8.0,"bus_shield_text":"217","shield_text":"141","name:ru":"\u0448\u043e\u0441\u0441\u0435 \u0420\u0430\u0443\u0434\u043e\u043d\u0434\u0432\u0430\u0440\u0438\u043e","landuse_kind":"urban_area","ref":"141"},"arcs":[[445],[446]]},{"type":"LineString","properties":{"kind":"major_road","network":"lt:national","sort_rank":381,"kind_detail":"trunk","source":"openstreetmap.org","min_zoom":8.0,"shield_text":"1","name:ru":"\u0448\u043e\u0441\u0441\u0435 \u0416\u0435\u043c\u0430\u0438\u0447\u044e","ref":"A1","id":164139598},"arcs":[447]},{"type":"LineString","properties":{"bus_network":null,"sort_rank":380,"kind_detail":"primary","kind":"major_road","source":"openstreetmap.org","min_zoom":8.0,"bus_shield_text":"3","name:ru":"\u0443\u043b\u0438\u0446\u0430 \u0411\u0430\u043b\u0442\u0438\u0439\u043e\u0441","landuse_kind":"urban_area"},"arcs":[448]},{"type":"LineString","properties":{"kind":"major_road","sort_rank":377,"kind_detail":"tertiary","is_bicycle_related":true,"bicycle_shield_text":"GV","bicycle_network":"ncn","source":"openstreetmap.org","min_zoom":8.0,"ref":"1139B"},"arcs":[449]},{"type":"LineString","properties":{"kind":"major_road","network":"lt:national","sort_rank":381,"kind_detail":"trunk","bus_network":null,"source":"openstreetmap.org","min_zoom":8.0,"bus_shield_text":"21","shield_text":"1","landuse_kind":"urban_area","ref":"A1","id":370328699},"arcs":[450]},{"type":"LineString","properties":{"kind":"major_road","network":"lt:national","sort_rank":380,"kind_detail":"primary","source":"openstreetmap.org","min_zoom":8.0,"shield_text":"137","ref":"137; 3801","id":226683013},"arcs":[451]},{"type":"LineString","properties":{"kind":"major_road","network":"lt:national","name:ka":"\u10d5\u10d8\u10da\u10d9\u10d0\u10d5\u10d8\u10e8\u10d9\u10d8\u10e1\u10d8 \u2014 \u10d2\u10e0\u10d0\u10df\u10d8\u10e8\u10d9\u10d8\u10d0\u10d8","sort_rank":380,"kind_detail":"primary","is_bicycle_related":true,"bicycle_shield_text":"LT4","bicycle_network":"ncn","source":"openstreetmap.org","min_zoom":8.0,"shield_text":"185","name:pl":"Wy\u0142kowyszki \u2014 Gra\u017cyszki","ref":"185"},"arcs":[452]},{"type":"LineString","properties":{"kind":"major_road","network":"lt:national","sort_rank":380,"kind_detail":"primary","source":"openstreetmap.org","min_zoom":8.0,"landuse_kind":"residential","shield_text":"139","name:ru":"\u0443\u043b\u0438\u0446\u0430 \u0412\u0438\u0442\u0430\u0443\u0442\u043e","ref":"139"},"arcs":[453]},{"type":"MultiLineString","properties":{"kind":"major_road","network":"ru:regional","sort_rank":380,"kind_detail":"primary","is_bicycle_related":true,"source":"openstreetmap.org","min_zoom":8.0,"shield_text":"27\u0410","ref":"27\u0410-059"},"arcs":[[454],[455]]},{"type":"LineString","properties":{"kind":"major_road","network":"lt:national","sort_rank":381,"kind_detail":"trunk","bus_network":null,"source":"openstreetmap.org","min_zoom":8.0,"bus_shield_text":"221","shield_text":"7","landuse_kind":"urban_area","ref":"A7","id":32107995},"arcs":[456]},{"type":"MultiLineString","properties":{"bus_network":null,"sort_rank":380,"kind_detail":"primary","kind":"major_road","source":"openstreetmap.org","min_zoom":8.0,"bus_shield_text":"9","name:ru":"\u043f\u0440\u043e\u0441\u043f\u0435\u043a\u0442 \u0411\u0430\u043b\u0442\u044e","landuse_kind":"urban_area"},"arcs":[[457],[458],[459],[460]]},{"type":"MultiLineString","properties":{"kind":"path","sort_rank":354,"kind_detail":"cycleway","is_bicycle_related":true,"bicycle_shield_text":"GV","bicycle_network":"ncn","source":"openstreetmap.org","min_zoom":8.0},"arcs":[[461],[462]]},{"type":"LineString","properties":{"source":"openstreetmap.org","kind":"major_road","sort_rank":380,"kind_detail":"primary","ref":"189","min_zoom":8.0},"arcs":[463]},{"type":"LineString","properties":{"kind":"major_road","network":"lt:national","sort_rank":380,"kind_detail":"primary","bus_network":null,"official_name":"\u0160ventosios Gertr\u016bdos gatv\u0117","source":"openstreetmap.org","min_zoom":8.0,"bus_shield_text":"10","shield_text":"141","name:ru":"\u0443\u043b\u0438\u0446\u0430 \u0428\u0432. \u0413\u0435\u0440\u0442\u0440\u0443\u0434\u043e\u0441","landuse_kind":"urban_area","ref":"141;222","id":268478216},"arcs":[464]},{"type":"LineString","properties":{"kind":"major_road","network":"lt:national","sort_rank":380,"kind_detail":"primary","source":"openstreetmap.org","min_zoom":8.0,"shield_text":"132","name:ru":"\u0443\u043b\u0438\u0446\u0430 \u041b\u0430\u0437\u0434\u0438\u044e","ref":"132","id":122367444},"arcs":[465]},{"type":"MultiLineString","properties":{"kind":"major_road","network":"lt:national","sort_rank":380,"kind_detail":"primary","source":"openstreetmap.org","min_zoom":8.0,"shield_text":"134","ref":"134"},"arcs":[[466],[467]]},{"type":"MultiLineString","properties":{"kind":"major_road","network":"lt:national","sort_rank":380,"kind_detail":"primary","source":"openstreetmap.org","min_zoom":8.0,"landuse_kind":"protected_area","shield_text":"181","ref":"181"},"arcs":[[468],[469],[470]]},{"type":"MultiLineString","properties":{"kind":"major_road","network":"lt:national","sort_rank":380,"kind_detail":"primary","source":"openstreetmap.org","min_zoom":8.0,"shield_text":"131","ref":"131"},"arcs":[[471],[472],[473],[474]]},{"type":"LineString","properties":{"kind":"major_road","network":"lt:national","sort_rank":380,"kind_detail":"primary","source":"openstreetmap.org","min_zoom":8.0,"shield_text":"137","ref":"137;1912","id":145017279},"arcs":[475]},{"type":"LineString","properties":{"kind":"major_road","network":"lt:regional","sort_rank":379,"kind_detail":"secondary","is_bicycle_related":true,"bicycle_shield_text":"LT4","bicycle_network":"ncn","source":"openstreetmap.org","min_zoom":8.0,"shield_text":"3838","ref":"3838"},"arcs":[476]},{"type":"LineString","properties":{"source":"openstreetmap.org","kind":"major_road","kind_detail":"primary","sort_rank":380,"name:ru":"\u0443\u043b\u0438\u0446\u0430 \u041c\u0435\u0434\u0436\u0438\u043e\u0442\u043e\u044e","min_zoom":8.0,"id":222552790},"arcs":[477]},{"type":"LineString","properties":{"kind":"major_road","network":"ru:regional","sort_rank":381,"kind_detail":"trunk","bus_network":null,"source":"openstreetmap.org","min_zoom":8.0,"bus_shield_text":"221","shield_text":"27\u0410","ref":"27\u0410-006","id":287110577},"arcs":[478]},{"type":"MultiLineString","properties":{"kind":"major_road","network":"lt:national","sort_rank":380,"kind_detail":"primary","source":"openstreetmap.org","min_zoom":8.0,"shield_text":"130","ref":"130"},"arcs":[[479],[480],[481],[482]]},{"type":"MultiLineString","properties":{"source":"openstreetmap.org","kind":"major_road","landuse_kind":"urban_area","sort_rank":380,"kind_detail":"primary","min_zoom":8.0},"arcs":[[483],[484],[485],[486],[487],[488],[489],[490],[491],[492],[493],[494],[495],[496],[497],[498],[499]]},{"type":"MultiLineString","properties":{"bus_network":null,"network":"lt:national","sort_rank":380,"kind_detail":"primary","kind":"major_road","official_name":"\u0160ventosios Gertr\u016bdos gatv\u0117","source":"openstreetmap.org","min_zoom":8.0,"bus_shield_text":"10","shield_text":"141","landuse_kind":"urban_area","ref":"141;222"},"arcs":[[500],[501]]},{"type":"LineString","properties":{"bus_network":null,"sort_rank":380,"kind_detail":"primary","kind":"major_road","source":"openstreetmap.org","min_zoom":8.0,"bus_shield_text":"17","landuse_kind":"urban_area"},"arcs":[502]},{"type":"LineString","properties":{"kind":"major_road","network":"lt:national","sort_rank":380,"kind_detail":"primary","bus_network":null,"source":"openstreetmap.org","min_zoom":8.0,"bus_shield_text":"6A","shield_text":"130","name:ru":"\u0443\u043b\u0438\u0446\u0430 \u0413\u0438\u043c\u043d\u0430\u0437\u0438\u0439\u043e\u0441","landuse_kind":"urban_area","ref":"130","id":75255457},"arcs":[503]},{"type":"LineString","properties":{"source":"openstreetmap.org","kind":"major_road","kind_detail":"primary","sort_rank":380,"name:ru":"\u0443\u043b\u0438\u0446\u0430 \u041d\u0435\u043f\u0440\u0438\u043a\u043b\u0430\u0443\u0441\u043e\u043c\u0438\u0431\u0435\u0441","min_zoom":8.0,"id":211162859},"arcs":[504]},{"type":"MultiLineString","properties":{"bus_network":null,"network":"lt:national","sort_rank":380,"kind_detail":"primary","is_bicycle_related":true,"kind":"major_road","bicycle_shield_text":"LT4","bicycle_network":"ncn","source":"openstreetmap.org","min_zoom":8.0,"bus_shield_text":"M-672","shield_text":"138","ref":"138"},"arcs":[[505],[506],[507],[508],[509]]},{"type":"MultiLineString","properties":{"kind":"major_road","network":"lt:regional","sort_rank":379,"kind_detail":"secondary","is_bicycle_related":true,"bicycle_shield_text":"LT4","bicycle_network":"ncn","source":"openstreetmap.org","min_zoom":8.0,"shield_text":"2602","ref":"2602"},"arcs":[[510],[511]]},{"type":"MultiLineString","properties":{"kind":"major_road","network":"lt:national","sort_rank":380,"kind_detail":"primary","source":"openstreetmap.org","min_zoom":8.0,"shield_text":"181","ref":"181"},"arcs":[[512],[513],[514],[515],[516],[517],[518]]},{"type":"MultiLineString","properties":{"kind":"major_road","network":"lt:national","sort_rank":381,"landuse_kind":"urban_area","source":"openstreetmap.org","min_zoom":8.0,"kind_detail":"trunk","shield_text":"1","name:ru":"\u0448\u043e\u0441\u0441\u0435 \u0418\u0441\u043b\u0430\u043d\u0434\u0438\u0439\u043e\u0441","ref":"A1"},"arcs":[[519],[520]]},{"type":"MultiLineString","properties":{"kind":"minor_road","sort_rank":360,"kind_detail":"residential","is_bicycle_related":true,"bicycle_shield_text":"GV","bicycle_network":"ncn","source":"openstreetmap.org","min_zoom":8.0},"arcs":[[521],[522],[523],[524],[525]]},{"type":"LineString","properties":{"kind":"major_road","network":"lt:regional","sort_rank":379,"kind_detail":"secondary","is_bicycle_related":true,"bicycle_shield_text":"LT4","bicycle_network":"ncn","source":"openstreetmap.org","min_zoom":8.0,"shield_text":"3808","ref":"3808"},"arcs":[526]},{"type":"LineString","properties":{"source":"openstreetmap.org","kind":"major_road","landuse_kind":"urban_area","sort_rank":380,"kind_detail":"primary","ref":"141","min_zoom":8.0},"arcs":[527]},{"type":"LineString","properties":{"kind":"major_road","network":"lt:national","sort_rank":380,"kind_detail":"primary","is_bicycle_related":true,"bicycle_shield_text":"LT4","bicycle_network":"ncn","source":"openstreetmap.org","min_zoom":8.0,"shield_text":"138","name:ru":"\u0443\u043b\u0438\u0446\u0430 \u0413\u0435\u0434\u0438\u043c\u0438\u043d\u043e","ref":"138","id":149221791},"arcs":[528]},{"type":"LineString","properties":{"kind":"major_road","network":"lt:national","sort_rank":380,"kind_detail":"primary","is_bicycle_related":true,"bicycle_shield_text":"LT4","bicycle_network":"ncn","source":"openstreetmap.org","min_zoom":8.0,"official_name":"Vinco Kudirkos gatv\u0117","shield_text":"140","name:ru":"\u0443\u043b\u0438\u0446\u0430 \u0412. \u041a\u0443\u0434\u0438\u0440\u043a\u043e\u0441","ref":"140","id":208570298},"arcs":[529]},{"type":"MultiLineString","properties":{"bus_network":null,"sort_rank":380,"kind_detail":"primary","kind":"major_road","source":"openstreetmap.org","min_zoom":8.0,"bus_shield_text":"36","name:ru":"\u043f\u0440\u043e\u0441\u043f\u0435\u043a\u0442 \u0411\u0430\u043b\u0442\u044e","landuse_kind":"urban_area"},"arcs":[[530],[531]]},{"type":"MultiLineString","properties":{"kind":"major_road","network":"lt:regional","sort_rank":379,"kind_detail":"secondary","is_bicycle_related":true,"bicycle_shield_text":"LT4","bicycle_network":"ncn","source":"openstreetmap.org","min_zoom":8.0,"shield_text":"3802","ref":"3802"},"arcs":[[532],[533],[534]]},{"type":"LineString","properties":{"kind":"major_road","network":"lt:national","sort_rank":380,"kind_detail":"primary","source":"openstreetmap.org","min_zoom":8.0,"landuse_kind":"urban_area","shield_text":"139","name:ru":"\u0448\u043e\u0441\u0441\u0435 \u0420\u043e\u043a\u0443","ref":"139","id":338664627},"arcs":[535]},{"type":"MultiLineString","properties":{"bus_network":null,"network":"lt:national","sort_rank":381,"landuse_kind":"urban_area","kind":"major_road","name:ru":"\u0448\u043e\u0441\u0441\u0435 \u0416\u0435\u043c\u0430\u0438\u0447\u044e","source":"openstreetmap.org","min_zoom":8.0,"bus_shield_text":"3","shield_text":"222","kind_detail":"trunk","ref":"222"},"arcs":[[536],[537]]},{"type":"MultiLineString","properties":{"kind":"major_road","sort_rank":377,"kind_detail":"tertiary","is_bicycle_related":true,"bicycle_shield_text":"GV","bicycle_network":"ncn","source":"openstreetmap.org","min_zoom":8.0},"arcs":[[538],[539]]},{"type":"LineString","properties":{"kind":"major_road","network":"lt:national","sort_rank":380,"kind_detail":"primary","is_bicycle_related":true,"bicycle_shield_text":"LT4","bicycle_network":"ncn","source":"openstreetmap.org","min_zoom":8.0,"official_name":"Vinco Kudirkos gatv\u0117","shield_text":"140","ref":"140","id":256183458},"arcs":[540]},{"type":"LineString","properties":{"kind":"minor_road","sort_rank":360,"kind_detail":"residential","is_bicycle_related":true,"bicycle_shield_text":"LT4","bicycle_network":"ncn","source":"openstreetmap.org","min_zoom":8.0,"name:ru":"\u0443\u043b\u0438\u0446\u0430 \u0410\u0442\u0433\u0438\u043c\u0438\u043c\u043e","id":215347263},"arcs":[541]},{"type":"LineString","properties":{"kind":"major_road","network":"e-road","sort_rank":381,"kind_detail":"trunk","source":"openstreetmap.org","min_zoom":8.0,"shield_text":"28","ref":"A7","id":287110564},"arcs":[542]},{"type":"MultiLineString","properties":{"kind":"major_road","network":"lt:national","sort_rank":380,"kind_detail":"primary","is_bicycle_related":true,"bicycle_shield_text":"LT4","bicycle_network":"ncn","source":"openstreetmap.org","min_zoom":8.0,"shield_text":"140","ref":"140"},"arcs":[[543],[544]]},{"type":"MultiLineString","properties":{"source":"openstreetmap.org","kind":"major_road","landuse_kind":"urban_area","sort_rank":380,"kind_detail":"primary","min_zoom":8.0,"name:ru":"\u043f\u0440\u043e\u0441\u043f\u0435\u043a\u0442 \u0415\u0443\u0440\u043e\u043f\u043e\u0441"},"arcs":[[545],[546]]},{"type":"MultiLineString","properties":{"kind":"major_road","network":"lt:regional","sort_rank":377,"kind_detail":"tertiary","is_bicycle_related":true,"bicycle_shield_text":"LT4","bicycle_network":"ncn","source":"openstreetmap.org","min_zoom":8.0,"shield_text":"3802","ref":"3802"},"arcs":[[547],[548],[549]]},{"type":"MultiLineString","properties":{"source":"openstreetmap.org","bus_network":null,"bus_shield_text":"221","sort_rank":380,"kind_detail":"primary","min_zoom":8.0,"kind":"major_road"},"arcs":[[550],[551]]},{"type":"MultiLineString","properties":{"bus_network":null,"network":"lt:national","sort_rank":381,"kind_detail":"trunk","kind":"major_road","source":"openstreetmap.org","min_zoom":8.0,"bus_shield_text":"M-672","shield_text":"7","ref":"A7"},"arcs":[[552],[553],[554]]},{"type":"LineString","properties":{"bus_network":null,"network":"lt:national","sort_rank":380,"kind_detail":"primary","is_bicycle_related":true,"kind":"major_road","bicycle_shield_text":"LT4","bicycle_network":"ncn","source":"openstreetmap.org","min_zoom":8.0,"bus_shield_text":"M-672","shield_text":"185","name:ru":"\u0443\u043b\u0438\u0446\u0430 \u0412\u0438\u0442\u0430\u0443\u0442\u043e","ref":"185"},"arcs":[555]},{"type":"LineString","properties":{"kind":"major_road","sort_rank":379,"kind_detail":"secondary","is_bicycle_related":true,"bicycle_shield_text":"LT4","bicycle_network":"ncn","source":"openstreetmap.org","min_zoom":8.0,"official_name":"Motiejaus Valan\u010diaus gatv\u0117","id":92418982},"arcs":[556]},{"type":"MultiLineString","properties":{"kind":"major_road","network":"lt:national","sort_rank":380,"kind_detail":"primary","source":"openstreetmap.org","min_zoom":8.0,"shield_text":"187","name:pl":"Gi\u017ce \u2013 Pilwiszki","ref":"187"},"arcs":[[557],[558],[559],[560]]},{"type":"MultiLineString","properties":{"bus_network":null,"network":"ru:national","sort_rank":381,"kind_detail":"trunk","kind":"major_road","source":"openstreetmap.org","min_zoom":8.0,"bus_shield_text":"221","shield_text":"229","ref":"\u0410-229"},"arcs":[[561],[562]]},{"type":"MultiLineString","properties":{"kind":"major_road","network":"lt:national","sort_rank":380,"kind_detail":"primary","source":"openstreetmap.org","min_zoom":8.0,"shield_text":"139","name:ru":"\u0448\u043e\u0441\u0441\u0435 \u0420\u043e\u043a\u0443","ref":"139"},"arcs":[[563],[564]]},{"type":"LineString","properties":{"kind":"major_road","network":"e-road","sort_rank":381,"kind_detail":"trunk","bus_network":"KenigAuto","source":"openstreetmap.org","min_zoom":8.0,"bus_shield_text":"217","shield_text":"67","landuse_kind":"urban_area","ref":"A5","id":516499218},"arcs":[565]},{"type":"MultiLineString","properties":{"bus_network":null,"network":"lt:national","sort_rank":380,"kind_detail":"primary","kind":"major_road","source":"openstreetmap.org","min_zoom":8.0,"bus_shield_text":"6A","shield_text":"130","name:ru":"\u0443\u043b\u0438\u0446\u0430 \u0412\u0438\u0442\u0430\u0443\u0442\u043e","landuse_kind":"residential","ref":"130"},"arcs":[[566],[567]]},{"type":"LineString","properties":{"kind":"major_road","network":"ru:regional","sort_rank":381,"kind_detail":"trunk","source":"openstreetmap.org","min_zoom":8.0,"shield_text":"27\u0410","ref":"27\u0410-006"},"arcs":[568]},{"type":"LineString","properties":{"kind":"major_road","network":"lt:national","sort_rank":380,"kind_detail":"primary","source":"openstreetmap.org","min_zoom":8.0,"landuse_kind":"residential","shield_text":"130","name:ru":"\u0443\u043b\u0438\u0446\u0430 \u041c\u0430\u0440\u0438\u044f\u043c\u043f\u043e\u043b\u0435\u0441","ref":"130","id":15219199},"arcs":[569]},{"type":"MultiLineString","properties":{"kind":"major_road","network":"lt:national","sort_rank":380,"kind_detail":"primary","source":"openstreetmap.org","min_zoom":8.0,"shield_text":"137","ref":"137"},"arcs":[[570],[571],[572],[573],[574]]},{"type":"LineString","properties":{"bus_network":"KenigAuto","network":"lt:national","sort_rank":380,"kind_detail":"primary","kind":"major_road","source":"openstreetmap.org","min_zoom":8.0,"bus_shield_text":"217","shield_text":"140","name:ru":"\u0443\u043b\u0438\u0446\u0430 \u0423\u0436\u043d\u0435\u043c\u0438\u043d\u0435\u0441","landuse_kind":"urban_area"},"arcs":[575]},{"type":"LineString","properties":{"kind":"major_road","network":"lt:national","sort_rank":380,"kind_detail":"primary","source":"openstreetmap.org","min_zoom":8.0,"landuse_kind":"park","shield_text":"180","ref":"180","id":290289499},"arcs":[576]},{"type":"LineString","properties":{"kind":"major_road","network":"lt:national","sort_rank":380,"kind_detail":"primary","source":"openstreetmap.org","min_zoom":8.0,"landuse_kind":"park","shield_text":"186","ref":"186"},"arcs":[577]},{"type":"MultiLineString","properties":{"kind":"major_road","network":"lt:national","sort_rank":380,"kind_detail":"primary","source":"openstreetmap.org","min_zoom":8.0,"shield_text":"230","name:ru":"\u0443\u043b\u0438\u0446\u0430 \u041a\u0430\u0443\u043d\u043e","ref":"230"},"arcs":[[578],[579],[580]]},{"type":"LineString","properties":{"bus_network":null,"sort_rank":380,"kind_detail":"primary","kind":"major_road","source":"openstreetmap.org","min_zoom":8.0,"bus_shield_text":"16","name:ru":"\u043f\u0440\u043e\u0441\u043f\u0435\u043a\u0442 \u0415\u0443\u0440\u043e\u043f\u043e\u0441","landuse_kind":"urban_area"},"arcs":[581]},{"type":"LineString","properties":{"kind":"major_road","network":"lt:national","sort_rank":380,"kind_detail":"primary","source":"openstreetmap.org","min_zoom":8.0,"landuse_kind":"park","shield_text":"181","ref":"181"},"arcs":[582]},{"type":"LineString","properties":{"kind":"path","sort_rank":354,"landuse_kind":"nature_reserve","is_bicycle_related":true,"bicycle_shield_text":"GV","bicycle_network":"ncn","source":"openstreetmap.org","min_zoom":8.0,"kind_detail":"track"},"arcs":[583]},{"type":"MultiLineString","properties":{"kind":"major_road","network":"lt:national","sort_rank":380,"kind_detail":"primary","source":"openstreetmap.org","min_zoom":8.0,"shield_text":"189","ref":"189"},"arcs":[[584],[585]]}]},"earth":{"type":"GeometryCollection","geometries":[{"type":"Polygon","properties":{"sort_rank":10,"source":"naturalearthdata.com","kind":"earth","min_zoom":0.0,"id":4768},"arcs":[[586]]}]},"landuse":{"type":"GeometryCollection","geometries":[{"type":"Polygon","properties":{"kind":"residential","name":"\u0414\u043e\u0431\u0440\u043e\u0432\u043e\u043b\u044c\u0441\u043a","name:lt":"Dobrovolskas (Pilkalnis)","area":19146100,"sort_rank":20,"name:de":"Dobrowolsk (Pillkalen)","source":"openstreetmap.org","min_zoom":8.0,"tier":2,"name:pl":"Dobrowolsk (Pilka\u0142y)","id":54690823},"arcs":[[587]]},{"type":"MultiPolygon","properties":{"kind":"park","protect_class":"4","area":2164832049,"sort_rank":24,"source":"openstreetmap.org","min_zoom":6.0,"tier":2,"osm_relation":true},"arcs":[[[588]],[[589]],[[590]]]},{"type":"Polygon","properties":{"kind":"national_park","protect_class":"2","area":436924000,"sort_rank":18,"source":"openstreetmap.org","min_zoom":3.0,"tier":1,"id":-271443,"osm_relation":true},"arcs":[[591]]},{"type":"Polygon","properties":{"kind":"nature_reserve","area":694342976,"sort_rank":23,"source":"openstreetmap.org","min_zoom":6.0,"tier":2,"id":-3735158,"osm_relation":true},"arcs":[[592]]},{"type":"MultiPolygon","properties":{"source":"openstreetmap.org","kind":"residential","tier":2,"area":22543404,"sort_rank":20,"min_zoom":8.0,"osm_relation":true},"arcs":[[[593],[594]],[[595]]]},{"type":"MultiPolygon","properties":{"source":"naturalearthdata.com","kind":"urban_area","name":"","area":1393575532,"sort_rank":11,"min_zoom":4.0},"arcs":[[[596]],[[597]],[[598]]]},{"type":"Polygon","properties":{"int_name":"Krasnoznamensk","name:lt":"Krasnoznamenskas","min_zoom":8.0,"old_name":"\u0425\u0430\u0437\u0435\u043b\u044c\u0431\u0435\u0440\u0433, \u041b\u0430\u0437\u0434\u0435\u043d\u0435\u043d, \u041b\u0430\u0437\u0434\u0438\u043d\u0430\u0439, \u0425\u0430\u0437\u0435\u043b\u044c\u043f\u0443\u0448","tier":2,"name:pl":"Krasnoznamiensk","name:de":"Krasnosnamensk","id":-2600052,"osm_relation":true,"kind":"residential","name:en":"Krasnoznamensk","name":"\u041a\u0440\u0430\u0441\u043d\u043e\u0437\u043d\u0430\u043c\u0435\u043d\u0441\u043a","area":10826700,"old_name:pl":"\u0141o\u017adzienie","old_name:de":"Haselberg, Lasdehnen","sort_rank":20,"old_name:lt":"Pr\u016bs\u0173 Lazdynai","source":"openstreetmap.org","name:et":"Krasnoznamensk"},"arcs":[[599]]},{"type":"Polygon","properties":{"kind":"nature_reserve","protect_class":"4","area":13867100,"sort_rank":23,"source":"openstreetmap.org","min_zoom":8.0,"tier":2,"id":203020116},"arcs":[[600]]},{"type":"MultiPolygon","properties":{"kind":"park","protect_class":"4","area":73407444,"sort_rank":24,"source":"openstreetmap.org","min_zoom":8.0,"tier":2,"osm_relation":true},"arcs":[[[601]]]},{"type":"Polygon","properties":{"kind":"protected_area","area":542609024,"sort_rank":17,"source":"openstreetmap.org","min_zoom":6.0,"tier":2,"id":-2888043,"osm_relation":true},"arcs":[[602]]},{"type":"Polygon","properties":{"kind":"nature_reserve","protect_class":"5","area":434860000,"sort_rank":23,"source":"openstreetmap.org","min_zoom":6.0,"tier":2,"id":-4515680,"osm_relation":true},"arcs":[[603]]},{"type":"Polygon","properties":{"kind":"protected_area","protect_class":"5","area":27613200,"sort_rank":17,"source":"openstreetmap.org","min_zoom":8.0,"tier":2,"id":-3749352,"osm_relation":true},"arcs":[[604]]}]}},"type":"Topology","transform":{"translate":[22.5,54.1624339681],"scale":[0.0003433228,0.0001990185]},"arcs":[[[413,4096],[20,-55],[45,-10],[-10,65]],[[541,4096],[12,-30],[50,10],[56,-53],[48,-121],[69,-18],[-50,-52],[15,-32],[85,30],[28,-105],[81,41],[100,-121],[-46,-119],[87,-58],[-32,-67],[53,-28],[10,-41],[-26,-27],[45,-31],[-39,-43],[16,-69],[-87,-29],[31,-42],[-46,-55],[-90,-1],[-23,-61],[32,6],[-25,-38],[-49,32],[-23,-26],[-25,10],[-21,-66],[-68,-33],[-14,-73],[30,-53],[-57,-42],[-17,-60],[49,-60],[-28,-39],[77,-69],[-45,-50],[25,-20],[-4,-39],[-65,-40],[-19,-82],[-42,-19],[-63,-85],[87,-112],[-97,-152],[11,-75],[43,-56],[6,-270],[103,-54],[89,-293],[72,-107]],[[850,1009],[57,39],[73,178],[53,20],[97,-7],[-1,-46],[357,-86],[-47,-105],[201,-105],[-61,-126],[146,-88],[140,88],[25,-8],[32,-24],[-17,-63],[141,-42],[92,-139],[43,-21],[96,20],[162,-45],[71,-104],[73,-31],[110,-238],[100,-10],[7,-39],[40,-27]],[[0,939],[850,70]],[[2393,457],[46,-8],[71,-104],[57,-11],[126,-258],[100,-10],[7,-39],[40,-27]],[[4096,1610],[-17,-32],[17,-34]],[[4096,1515],[-128,-43],[-4,32],[32,-2],[5,31],[-190,7],[-20,23],[-19,-70],[-27,24],[-22,-25],[-39,48],[-39,-16],[-69,36],[-29,54],[-89,-47],[-59,148],[-68,47],[-66,-61],[-20,-79],[-230,-101],[-73,2],[6,-251],[-61,-5],[-99,-69],[-72,2],[34,-177],[-131,6],[-99,-41],[10,-40],[-32,-31],[-29,9],[-5,-73],[-28,-28],[19,-93],[-91,-57],[58,-96],[-29,-122]],[[0,157],[30,-14],[-28,-22],[52,-121]],[[850,1009],[41,-72],[-8,-40],[-78,-65],[55,-16],[-33,-95],[18,-30],[-32,-32],[-32,-21],[-49,44],[-16,-35],[-150,-79],[-145,62],[-94,-139],[-106,35],[10,-44],[-31,0],[-8,-43],[-99,-3],[-12,-100],[-38,-25],[12,-32],[-55,-9]],[[2393,457],[-116,37],[-96,-20],[-43,21],[-92,139],[-141,42],[17,63],[-32,24],[-25,8],[-140,-88],[-146,88],[61,126],[-201,105],[47,105],[-74,9],[-3,25],[-280,52],[1,46],[-97,7],[-53,-20],[-73,-178],[-57,-39]],[[850,1009],[-850,-70]],[[850,1009],[-72,107],[-89,293],[-103,54],[-6,270],[-43,56],[-11,75],[97,152],[-87,112],[63,85],[42,19],[19,82],[65,40],[4,39],[-25,20],[45,50],[-77,69],[28,39],[-49,60],[17,60],[57,42],[-30,53],[14,73],[68,33],[21,66],[25,-10],[23,26],[49,-32],[25,38],[-32,-6],[24,61],[90,2],[45,54],[-32,41],[86,25],[-14,74],[39,43],[-45,31],[26,27],[-10,41],[-52,25],[30,73],[-86,55],[46,111],[-26,56],[-76,73],[-79,-41],[-30,106],[-83,-31],[-15,32],[50,52],[-69,18],[-48,121],[-56,53],[-50,-10],[-13,30]],[[473,4096],[17,-42],[-13,-24],[-57,27],[-2,39]],[[1594,0],[67,68],[91,21],[94,96],[145,90],[58,79],[51,143],[44,37],[20,227],[61,66],[51,18],[69,-47],[201,40],[153,69],[52,92]],[[4096,3259],[-53,-54],[-276,-83],[-278,-45],[-997,-237],[-407,13],[-986,-376],[-372,-74],[-134,-51],[-325,0],[-268,-47]],[[4096,3259],[-53,-54],[-276,-83],[-278,-45],[-997,-237],[-407,13],[-986,-376],[-372,-74],[-134,-51],[-325,0],[-268,-47]],[[4096,3259],[-53,-54],[-276,-83],[-278,-45],[-997,-237],[-407,13],[-986,-376],[-372,-74],[-134,-51],[-325,0],[-268,-47]],[[4096,3269],[-76,-73],[-259,-75],[-272,-44],[-231,-68],[-396,-72],[-365,-96],[-397,13],[-87,-31]],[[2751,998],[10,27],[-161,154],[-218,105],[-48,65],[-112,27],[-43,55],[-5,136],[201,241],[103,79],[57,135],[54,58],[77,162],[2,144],[192,540],[88,27]],[[4096,3259],[-53,-54],[-276,-83],[-278,-45],[-997,-237],[-407,13],[-986,-376],[-372,-74],[-134,-51],[-325,0],[-268,-47]],[[2584,1957],[-34,8]],[[4096,2284],[-481,-259],[-158,-27],[-451,14],[-133,-73]],[[703,1485],[-3,-2]],[[876,1712],[-5,-9]],[[3992,3820],[16,18]],[[3056,2185],[165,27]],[[3125,2435],[235,173],[-114,235]],[[389,695],[2,3]],[[2496,1930],[2,5]],[[2944,293],[43,33]],[[2987,326],[1,1]],[[2988,327],[-1,-1]],[[1835,764],[-29,-29]],[[1808,736],[33,32]],[[1560,2440],[2,5]],[[1562,2446],[3,21]],[[4045,3783],[-1,3]],[[4066,3685],[-2,-5]],[[3940,4096],[6,-24],[17,-37]],[[3969,4024],[-22,72]],[[2115,1265],[-127,-15],[-427,114],[-345,154],[-213,49],[-64,-21]],[[2189,1211],[-85,23]],[[1096,1877],[-131,-6]],[[110,2757],[43,-85],[14,-262],[25,-37]],[[1595,3956],[-21,-75]],[[771,2389],[-50,19]],[[795,2381],[-17,6]],[[826,2370],[-30,11]],[[1781,2331],[-56,28]],[[1565,2467],[-16,32]],[[2888,1653],[-27,5]],[[3360,1928],[-118,-115]],[[2840,0],[-1,0]],[[3917,3768],[-26,19]],[[16,3081],[43,266],[-59,108]],[[1474,2386],[-2,-1],[0,-1],[3,0],[-1,2]],[[3355,1129],[16,89]],[[1565,2467],[32,25]],[[1597,2492],[3,3]],[[1600,2495],[461,269]],[[2063,2765],[47,11],[151,-33],[556,-199]],[[2824,0],[-63,50]],[[4024,3737],[0,-1]],[[4058,3813],[1,8]],[[4008,3193],[0,-14]],[[3666,3088],[2,0]],[[3366,1112],[-23,-7]],[[3785,353],[70,32]],[[4043,3783],[15,30]],[[4059,3821],[-5,10]],[[711,2408],[10,0]],[[860,2358],[-34,12]],[[932,2330],[-27,11]],[[1248,2373],[-292,-50]],[[1465,2384],[-172,-9]],[[1725,2359],[-10,5]],[[2513,1973],[1,0]],[[2514,1973],[-1,1]],[[2519,1972],[-5,1]],[[2512,1973],[1,1]],[[2513,1974],[-1,1],[-1,-1],[1,-1]],[[4054,3831],[-3,8]],[[3465,3832],[-109,12],[-87,75]],[[2981,350],[7,-22]],[[2988,327],[181,-199],[40,-128]],[[1509,2424],[14,20]],[[1802,729]],[[2446,1885],[29,5]],[[2477,1893],[-9,39]],[[2475,1890],[1,0]],[[2475,1890],[3,-2],[3,6]],[[2476,1890],[1,0]],[[2477,1891],[-1,-1]],[[2477,1893],[0,-2]],[[2478,1892],[-1,1]],[[2481,1893],[-3,-2]],[[2556,2109],[-13,-19]],[[2544,2090],[11,16]],[[2061,2764],[2,-1],[0,2],[-1,0],[-1,-1]],[[2478,1891],[-1,0],[1,-1],[1,0],[-1,1]],[[3025,351],[-3,0],[0,-1],[3,0],[0,1]],[[4019,3926],[26,29]],[[4068,3976],[13,12]],[[2989,326],[0,1]],[[1949,3489],[4,-28]],[[2911,2972],[1,-9]],[[4000,3743],[-83,25]],[[1304,204],[-102,14]],[[4087,3330],[-50,-41]],[[698,2419],[-20,15]],[[4053,3782],[-8,1]],[[4096,3779],[-29,2]],[[3961,2496],[-60,38],[-179,6],[-28,22]],[[778,2387],[-7,2]],[[796,2381],[-1,0]],[[3696,3696],[-26,28]],[[1293,2375],[-45,-2]],[[964,1871],[-88,-159]],[[4022,3737],[-22,6]],[[0,3064],[16,17]],[[2489,1982],[0,-3]],[[391,698],[2,0]],[[405,696],[25,-11]],[[707,828],[-1,-1]],[[2989,327],[0,1]],[[3971,3260],[-1,2]],[[3025,350],[248,28]],[[3351,388],[98,-4],[177,-61]],[[3783,352],[2,1]],[[3855,385],[147,153],[94,171]],[[4063,3679],[3,-1]],[[4086,3679],[-23,1]],[[4000,3281],[-11,-6]],[[634,1467],[13,2]],[[1074,3519],[188,81],[83,-37]],[[905,2341],[-45,17]],[[956,2323],[-24,7]],[[2487,1985],[-24,8]],[[3976,3251],[-5,9]],[[2841,5],[6,25]],[[3719,3907],[-155,74],[-153,-15],[-46,36],[-35,94]],[[4089,3583],[0,-1]],[[2990,2727],[-63,-99],[-118,-97],[-115,-173]],[[3334,2894],[-88,-51]],[[3515,2999],[-89,-51]],[[3620,3061],[-90,-52]],[[3718,3112],[-78,-39]],[[3718,3112],[1,-1],[0,1],[-1,0]],[[3952,3713],[-42,9]],[[3951,3320],[-31,116]],[[3961,3280],[-4,14]],[[3969,3264],[-3,7]],[[3885,3758],[0,-37]],[[3886,3728],[3,43]],[[3968,3265],[4,-8]],[[3978,3268],[-8,-4]],[[1703,3973],[0,1],[-1,0],[0,-1],[1,0]],[[2838,1701],[-68,17]],[[2034,3937],[-35,-62]],[[4002,3278],[4,-70]],[[2861,1658],[2,40]],[[1549,2499],[-3,-5]],[[1219,1774],[-19,-85]],[[0,3962],[32,12]],[[3694,2562],[-105,76]],[[2900,2892],[3,-6]],[[1678,459],[-1,-4]],[[3957,3294],[-6,26]],[[4033,3877],[-3,9]],[[4031,3881],[2,-6]],[[4036,3868],[8,-17]],[[4051,3839],[-14,29]],[[2478,1889],[0,1]],[[2624,1386],[-108,188],[18,80],[-56,234]],[[2964,1097],[-142,127]],[[2470,1951],[-2,-19]],[[599,4096],[83,-67]],[[3242,1813],[-110,-141],[-101,-45],[-143,26]],[[1523,2444],[23,50]],[[1258,0],[-2,36]],[[3970,3264],[-3,-2]],[[3969,3263],[3,1]],[[2541,2086],[-5,-8]],[[2496,1928],[0,2]],[[1200,1689],[-3,-52],[43,-62],[-11,-60]],[[1247,1843],[-28,-69]],[[1472,2383],[1,1]],[[3330,1107],[-9,-2]],[[273,2362],[-124,7]],[[3325,2059],[5,1]],[[4045,3766],[-19,-29]],[[871,1703],[-55,-115],[-113,-103]],[[4040,3670],[9,0]],[[2905,2963],[7,0]],[[2847,30],[24,167],[73,96]],[[2873,1939],[-191,1]],[[2990,328],[32,21]],[[2682,1940],[-98,17]],[[3533,2704],[-82,125]],[[3885,3792],[4,-4]],[[645,1953],[-30,-283]],[[763,2393],[-113,-361]],[[2770,1718],[-110,56],[-111,105]],[[4027,3736],[-1,1]],[[4044,3851],[7,-12]],[[1530,3787],[-63,-129],[-122,-95]],[[2488,1970],[1,9]],[[2748,2372],[-36,-10]],[[706,827],[19,-64]],[[723,742],[0,2]],[[3499,3832],[-34,0]],[[3626,323],[68,-6],[89,35]],[[1536,3977],[58,-1]],[[1967,3466],[-17,-6]],[[4045,3668],[-4,0]],[[4053,3579],[1,7]],[[162,608],[-2,-75]],[[2740,0],[-11,16]],[[2489,1979],[1,4]],[[4043,3783],[2,-17]],[[4047,3737],[-2,30]],[[4057,3716],[-2,-5]],[[4056,3709],[1,-1]],[[4058,3699],[-2,3]],[[4058,3711],[-1,6]],[[615,1670],[-6,-110]],[[650,2032],[-5,-79]],[[2841,5]],[[1259,40],[79,53]],[[3349,1128],[6,1]],[[4030,3286],[-28,-4]],[[3938,3244],[19,11]],[[3954,3254],[-12,-6]],[[3360,1928],[-5,69]],[[2903,2886],[87,-159]],[[4081,3988],[15,13]],[[4087,3701],[-8,-5]],[[2107,1242],[-16,-46]],[[4059,3716],[-2,0]],[[4062,3717],[26,26]],[[4043,3727],[4,10]],[[4072,3660],[24,-16]],[[2478,1888],[0,1]],[[2744,2],[-6,39],[23,9]],[[3269,3920],[-207,14],[-207,162]],[[2678,4096],[-132,-77],[-249,-10],[-136,-63],[-127,-9]],[[3670,3724],[-76,72],[-95,36]],[[3829,3669],[-95,-4],[-38,31]],[[1549,2499],[-16,44]],[[4096,3779]],[[128,480],[-128,61]],[[162,608],[117,-17],[-21,34]],[[268,636],[0,-1]],[[565,645],[-43,-22]],[[567,645],[76,3],[77,86]],[[787,979],[-18,-103]],[[942,818],[-101,31],[66,74],[8,38],[-25,32]],[[1193,218],[0,11]],[[2381,2034],[-60,30]],[[4096,3708],[-9,-7]],[[2981,350],[40,0]],[[4096,3892],[-43,5]],[[609,1560],[-3,-56]],[[4051,3669],[21,-9]],[[4055,3711],[1,-2]],[[4056,3702],[0,3]],[[2063,2764],[44,-86]],[[2445,1884],[-2,-3]],[[4066,3678],[14,-1],[7,1],[9,0]],[[4096,3679],[-10,0]],[[3766,3847],[-47,60]],[[3855,3808],[-10,1]],[[3891,3788],[-19,14]],[[606,1504],[7,-16]],[[2550,1965],[-31,7]],[[4005,3361],[-4,-77]],[[4009,3379],[-2,-10]],[[4048,3668],[-3,0]],[[4041,3528],[-32,-149]],[[4041,3669],[0,12]],[[4061,3680],[-20,1]],[[4041,3681],[10,-1]],[[4048,3558],[-4,-16]],[[4066,3685],[1,10]],[[1256,36],[1,2]],[[1677,455],[-276,-455]],[[1790,676],[-33,-106],[-79,-111]],[[1790,676],[18,60]],[[1806,735],[-9,-18],[-7,-41]],[[581,2370],[86,63],[30,-14]],[[1841,768],[-6,-4]],[[3292,2744],[-165,-153],[-138,-34],[-42,-38]],[[3752,3137],[-35,-48]],[[3246,2843],[-256,-116]],[[2478,1890],[0,-1]],[[4045,3783],[-2,0]],[[4045,3767],[11,15]],[[4053,3782],[3,0]],[[4067,3781],[-11,1]],[[4067,3697],[12,-1]],[[4036,3671],[-3,0]],[[4049,3670],[2,-1]],[[268,635],[-10,-10]],[[1808,737],[0,-1]],[[1824,752],[15,15]],[[1831,753],[7,7]],[[2489,1985],[0,-3]],[[4024,3736],[2,-1]],[[4026,3737],[-2,0]],[[683,2429],[11,-8]],[[695,2421],[-11,9]],[[3301,2750],[-9,-6]],[[3961,3278],[7,-13]],[[3972,3264],[6,4]],[[2104,2787],[1,-4]],[[2498,1935],[13,37]],[[2511,1972],[1,1]],[[2511,1973],[0,-1]],[[4057,3717],[-11,9]],[[965,1871],[-1,0]],[[1247,1843],[-151,34]],[[614,1470],[20,-3]],[[1260,2032],[-13,-189]],[[1472,2384],[-76,-148]],[[4053,3665],[-5,3]],[[4051,3666],[2,-1]],[[4053,3665]],[[4029,3886],[2,-5]],[[4028,3735],[-1,1]],[[2965,1096],[-1,1]],[[2999,1087],[-34,9]],[[2313,1701],[-205,-455]],[[2313,1701],[1,0],[0,1]],[[2314,1702],[-1,0],[0,-1]],[[2443,1881],[-129,-179]],[[2468,1932],[-23,-48]],[[1080,3010],[3,1]],[[1125,3169],[-35,-44]],[[1131,3009],[139,-203]],[[1345,3563],[-47,-29],[-34,-120]],[[1310,2770],[122,-9],[29,-60]],[[1662,3974],[-32,1]],[[2512,1976],[0,-1]],[[2512,1975],[0,1]],[[2512,1976],[2,7]],[[2091,1196],[-25,-60]],[[4045,3668],[6,-2]],[[3892,3727],[0,1]],[[2989,327],[-1,1],[0,-1],[1,0]],[[939,1546],[-292,-77]],[[4043,3727],[-15,8]],[[3321,1105],[-16,-20]],[[2863,1698],[-25,3]],[[3125,2435],[37,-77],[-106,-173]],[[3221,2212],[30,-156],[74,3]],[[3330,2060],[23,5]],[[3892,3728],[0,-1]],[[4003,3945],[12,-27],[17,-16]],[[4032,3903],[-28,43]],[[2401,2024],[-20,10]],[[4096,2412],[-52,9],[-83,75]],[[2473,1973],[-3,-22]],[[2881,2943],[-7,12]],[[3885,3721],[-38,-68]],[[3852,3653],[25,41],[9,30]],[[4017,3906],[-10,-7],[-32,-35],[-47,-31],[-35,-53],[-6,-12],[-2,-10]],[[3889,3771],[120,129]],[[3866,3683],[-37,-14]],[[1999,3875],[-65,-207],[12,-175]],[[719,2408],[-8,0]],[[1516,2372],[-36,11]],[[1516,2372],[17,-6]],[[1583,2357],[-50,9]],[[1583,2357],[19,2]],[[1669,2379],[-67,-20]],[[1669,2379],[11,-1],[5,-1],[-6,1],[-10,1]],[[4051,3680],[12,-1]],[[4063,3680],[-2,0]],[[1574,3881],[-44,-94]],[[1594,3976],[1,-20]],[[1477,2387],[-2,-2]],[[1475,2385],[2,2]],[[1538,2438],[-61,-51]],[[4044,3542],[-3,-14]],[[4052,3576],[-4,-18]],[[4052,3576],[1,3]],[[4053,3665],[-1,-89]],[[4046,3726],[-3,1]],[[4057,3717],[0,-1]],[[2463,1993],[-15,8]],[[4070,3780],[20,-1]],[[4095,3779],[1,0]],[[32,3974],[60,11],[116,85],[78,13],[8,13]],[[1257,38],[2,2]],[[2510,1974],[-21,5]],[[2511,1974],[-1,0]],[[2510,1974],[1,0]],[[2108,1246],[-1,-4]],[[2532,2035],[4,38]],[[2526,2116],[-192,-38],[-116,-138],[-173,-451],[21,-353],[-223,-365]],[[2546,2116],[-20,0]],[[2606,2178],[-60,-62]],[[2581,2143],[25,35]],[[2712,2362],[-106,-184]],[[3938,3244],[-191,-112],[-279,-287],[-173,-100],[-172,-157],[-152,-42],[-128,-147],[-95,-27]],[[3942,3248],[-190,-111]],[[3847,3653],[-2,-44],[116,-331]],[[3920,3436],[-75,173],[7,44]],[[3967,3262],[-13,-8]],[[3957,3255],[12,8]],[[3966,3271],[-5,9]],[[3970,3262],[-1,2]],[[2847,30],[14,-30]],[[4045,3955],[23,21]],[[4041,3668],[0,1]],[[4039,3859],[-30,-20]],[[4009,3839],[33,21]],[[4043,3860],[53,-36]],[[4080,3843],[-20,14]],[[4096,3828],[-7,9]],[[3783,351],[4,-1]],[[3787,350],[-2,2]],[[3787,350],[1,4]],[[4010,0],[-50,201],[-173,149]],[[1502,4096],[2,-7]],[[1969,3465],[109,-101]],[[2822,1224],[-85,24],[-113,138]],[[128,480],[32,53]],[[393,698],[12,-2]],[[430,685],[14,-34],[8,15],[70,-43]],[[708,828],[-1,0]],[[726,760],[-2,-15]],[[1338,93],[5,110]],[[3963,4035],[40,-90]],[[4004,3946],[-32,70]],[[3353,2065],[2,-68]],[[12,3060],[-11,-94]],[[3967,3789],[12,19]],[[3979,3808],[13,12]],[[3988,3820],[-9,-12]],[[4007,3839],[-17,-17]],[[4085,3741],[11,26]],[[3967,3787],[3,-1]],[[4042,3860],[1,0]],[[3966,3788],[0,-1],[2,1],[-2,0]],[[3845,3809],[-70,9],[-9,29]],[[3872,3802],[-17,6]],[[3972,4016],[-3,8]],[[3968,3787],[86,44]],[[1343,203],[-39,1]],[[4081,3893],[15,-2]],[[1673,4026],[0,1],[-1,0],[0,-1],[1,0]],[[1396,2236],[-136,-204]],[[4002,3282],[0,-4]],[[0,2890],[110,-133]],[[1,2966],[-1,-6]],[[2490,1983],[-1,2]],[[3990,3822],[-2,-2]],[[4042,3861],[-3,-2]],[[4060,3857],[-16,5]],[[4089,3837],[-9,6]],[[268,636],[98,25],[23,34]],[[890,993],[-103,-14]],[[3448,2833],[3,-4]],[[4063,3698],[1,0]],[[3273,378],[78,10]],[[2981,350],[-23,12],[-51,163],[-190,145],[-91,118],[-189,80],[-47,97],[25,89],[-52,94]],[[2989,328],[-1,1]],[[3394,1737],[-18,21]],[[3405,1494],[59,-10],[13,59]],[[3475,1549],[-57,132]],[[2964,1097],[-256,-15],[-100,90],[-245,-24],[-174,63]],[[3305,1085],[-9,-44],[-93,44],[-203,2]],[[3343,1105],[-13,2]],[[4096,1178],[-95,-42],[-213,-17],[-201,17],[-221,-24]],[[1968,3465],[1,1],[-1,1],[-1,-1],[1,-1]],[[1504,4089],[66,-110]],[[1509,2424],[5,-6]],[[697,2419],[13,-12]],[[3972,3257],[36,-64]],[[3989,3275],[-7,-4]],[[4008,3179],[7,-86],[74,-43],[7,-15]],[[4096,2060],[-48,-122],[-13,-94],[61,-86]],[[2488,1971],[-15,2]],[[2514,1983],[18,52]],[[2536,2073],[8,17]],[[2543,2090],[-2,-4]],[[3891,3788],[0,-1]],[[3968,3788],[1,2]],[[3998,3828],[0,1]],[[4002,3833],[0,-1]],[[4026,3735],[1,1]],[[4046,3782],[0,1]],[[4051,3666],[0,3]],[[4054,3780],[1,2]],[[4055,3711],[3,0]],[[4056,3782],[14,-2]],[[4096,3587],[-38,-6]],[[4068,3581],[0,1]],[[4089,3582],[7,-1]],[[4058,3699],[5,-1]],[[4064,3698],[3,-1]],[[4007,3839],[1,-1],[1,0],[0,1],[-2,0]],[[4067,3695],[0,2]],[[1546,2494],[3,4]],[[1090,3125],[-39,-59],[29,-56]],[[1083,3011],[48,-2]],[[1264,3414],[-139,-245]],[[1270,2806],[40,-36]],[[1533,2543],[-72,158]],[[2078,3364],[131,-2],[199,-46],[199,16],[91,-27],[24,-36],[123,-37],[51,-64],[-27,-102],[42,-94]],[[2900,2892],[-19,51]],[[3343,1105],[56,-222],[78,-36]],[[3349,1111],[0,17]],[[3376,1758],[-15,19],[79,37],[-29,81],[-51,33]],[[3371,1218],[-8,44],[-35,11],[36,193],[41,28]],[[3418,1681],[-24,56]],[[3477,1543],[-2,6]],[[3812,363],[-35,59]],[[4053,3897],[-21,6]],[[4032,3902],[19,-6],[30,-3]],[[707,844],[62,32]],[[720,734],[3,8]],[[723,744],[1,1]],[[725,763],[1,-3]],[[1193,218],[9,0]],[[682,4029],[26,-20]],[[3889,3788],[12,-8]],[[1562,2445],[0,1]],[[1630,3975],[-33,0]],[[4039,3859]],[[4044,3862],[-2,-1]],[[697,3946],[11,63]],[[841,3822],[-26,36]],[[1022,3679],[-33,44]],[[4036,3289],[-6,-3]],[[4033,3875],[3,-7]],[[4037,3868],[-4,9]],[[708,828],[-1,16]],[[1193,229],[-49,50],[-170,21],[-69,-18],[-82,62],[-6,38],[37,27],[-32,72],[72,101],[48,236]],[[1597,3975],[-3,1]],[[2905,2963],[-2,1]],[[710,2408],[1,0]],[[1701,3973],[-39,1]],[[2034,3937],[-331,36]],[[4052,3579],[37,3]],[[4058,3581],[-6,-1]],[[815,3858],[-118,88]],[[989,3723],[-148,99]],[[1074,3519],[-52,160]],[[2481,1893],[15,35]],[[2999,1087],[0,-1]],[[1725,2359],[-40,18]],[[2321,2064],[-540,267]],[[2448,2001],[-47,23]],[[1560,2440],[-22,-2]],[[2874,2955],[26,10]],[[2023,2215],[-3,-2]],[[2025,2211],[-2,2]],[[2107,2678],[-22,-286],[-62,-177]],[[2023,2215],[-1,-3]],[[149,2369],[-149,-43]],[[581,2370],[-237,10],[-71,-18]],[[4037,3289],[-1,0]],[[4096,3338],[-9,-8]],[[3886,3724],[0,4]],[[4001,3284],[1,-2]],[[4007,3369],[-2,-8]],[[698,2419],[12,-11]],[[4002,3282],[-2,-1]],[[1504,4089],[167,-61]],[[1674,4025],[28,-51]],[[1702,3973],[-18,-141],[284,-365]],[[2078,3364],[-30,-339],[35,-103],[32,-25],[-11,-110]],[[2105,2783],[5,-7]],[[3952,3713],[84,-42]],[[3782,352],[1,-1]],[[613,1488],[1,-18]],[[3426,2948],[-92,-54]],[[3530,3009],[-15,-10]],[[3640,3073],[-20,-12]],[[4052,3580],[0,-1]],[[3777,422],[-145,199],[-26,71],[-78,52],[-51,103]],[[567,645],[-2,0]],[[3451,2829],[-64,96]],[[3589,2638],[-56,66]],[[0,0],[0,4096],[4096,0],[0,-4096],[-4096,0]],[[0,3096],[34,-33],[-2,70],[46,-71],[-24,-76],[-38,18],[-16,-40],[0,132]],[[3317,0],[-2,30],[-66,34],[19,45],[148,-20],[-37,-89],[-62,0]],[[3035,573],[120,125],[131,11],[-7,118],[96,27],[15,26],[115,-43],[16,-77],[40,12],[3,59],[43,29],[26,76],[98,-152],[62,-21],[82,76],[104,-128],[-11,-174],[-31,-9],[19,-25],[-54,-50],[-40,19],[-6,-38],[-81,5],[14,-150],[-80,-72],[-41,-2],[-8,98],[-105,31],[-14,87],[-44,-8],[-7,42],[-119,20],[-12,91],[-82,-15],[-8,-38],[-70,5],[18,-26],[-44,-42],[14,-79],[-55,47],[-76,-9],[-21,154]],[[586,1464],[3,100],[39,-7],[13,-41],[40,47],[56,-19],[2,57],[-33,1],[-1,49],[20,9],[-25,21],[9,59],[-33,46],[27,5],[-1,65],[113,72],[41,-61],[-42,-111],[67,-2],[-11,-95],[100,-14],[-34,-109],[27,-26],[-8,-50],[41,-17],[4,-49],[25,6],[-8,33],[23,-4],[8,-30],[85,-34],[-16,-123],[-137,-16],[-73,-178],[-57,-39],[-72,107],[-89,293],[-103,55]],[[1686,0],[15,41],[23,-8],[-12,-33],[-26,0]],[[0,1297],[93,64],[259,-68],[28,38],[-28,80],[-30,13],[-4,-24],[-17,20],[79,65],[90,-38],[39,24],[69,-7],[111,-55],[89,-293],[72,-107],[-850,-70],[0,358]],[[3948,3311],[11,25],[37,1],[9,21],[-26,-6],[-14,27],[51,37],[-7,-37],[34,1],[-19,-9],[6,-85],[-59,-16],[-23,41]],[[4005,3360],[4,-1],[1,10],[-3,0],[-2,-9]],[[3805,3852],[28,36],[-21,33],[28,3],[-6,22],[8,-21],[51,32],[21,-65],[22,15],[20,-6],[-39,-45],[-64,10],[8,-29],[-19,22],[-20,-22],[-17,15]],[[1155,0],[58,80],[65,-56],[-3,-24],[-120,0]],[[2507,1922],[-57,45],[-8,123],[162,0],[-5,-75],[-92,-93]],[[4096,4001],[0,-533],[-63,-6],[27,-88],[-32,-112],[-50,45],[17,290],[-35,59],[-126,-3],[-33,111],[-97,112],[39,82],[253,-26],[32,56],[64,0],[4,13]],[[0,3966],[25,12],[-7,24],[23,-8],[-28,-58],[27,4],[3,-30],[-31,14],[-12,-19],[0,61]],[[290,926],[0,35],[165,-3],[32,23],[8,-32],[-16,21],[-29,-24],[41,-22],[6,-26],[-47,37],[8,-93],[-17,-1],[-15,73],[-136,12]],[[3025,860],[1,80],[70,-2],[1,-46],[115,-1],[2,-27],[-30,1],[0,-69],[-33,0],[-1,-72],[-101,24],[-24,112]],[[2622,1389],[85,68],[-9,38],[81,23],[47,-20],[64,11],[-4,233],[82,-22],[5,72],[34,18],[-10,116],[54,41],[197,-28],[24,-58],[-36,-55],[23,-54],[77,17],[53,-41],[89,-208],[-14,-56],[-59,10],[-137,-59],[-96,-135],[-38,-106],[-142,-12],[-170,42],[-73,-26],[-13,-89],[-105,178],[47,29],[-56,73]],[[0,939],[437,24],[110,31],[-6,-83],[75,15],[68,-56],[43,-79],[-4,-48],[-28,-39],[-130,-60],[-48,45],[-50,-19],[-71,30],[-46,-34],[-126,4],[-127,-59],[-97,63],[0,265]],[[3038,889],[14,47],[44,2],[1,-46],[115,-1],[2,-27],[-30,1],[0,-69],[-33,0],[-1,-72],[-46,8],[9,38],[-64,45],[-11,74]]]}