{"objects":{"water":{"type":"GeometryCollection","geometries":[]},"buildings":{"type":"GeometryCollection","geometries":[]},"places":{"type":"GeometryCollection","geometries":[{"type":"Point","properties":{"name:ro":"Drohob\u00eeci","name:nl":"Drohobytsj","name:ja":"\u30c9\u30ed\u30db\u30d6\u30a3\u30c1","name:he":"\u05d3\u05e8\u05d5\u05d4\u05d5\u05d1\u05d9\u05e5'","name:cs":"Drohoby\u010d","kind":"locality","min_zoom":8.0,"name:en":"Drohobych","name:be":"\u0414\u0440\u0430\u0433\u043e\u0431\u044b\u0447","name:ru":"\u0414\u0440\u043e\u0433\u043e\u0431\u044b\u0447","name:pl":"Drohobycz","name:de":"Drohobytsch","id":313248206,"population":76795,"name:eo":"Drohobi\u0109o","name:hu":"Drohobics","name":"\u0414\u0440\u043e\u0433\u043e\u0431\u0438\u0447","kind_detail":"town","old_name:de":"Drogobitsch","source":"openstreetmap.org","name:fr":"Drohobytch","name:zh":"\u5fb7\u7f57\u970d\u8d1d\u5947","name:es":"Drog\u00f3bich"},"coordinates":[2931,1919]},{"type":"Point","properties":{"kind":"locality","name":"Przemy\u015bl","name:lt":"Peremy\u0161lis","alt_name:de":"Pr\u00f6msel","kind_detail":"city","name:de":"Premissel","source":"openstreetmap.org","min_zoom":8.0,"name:uk":"\u041f\u0435\u0440\u0435\u043c\u0438\u0448\u043b\u044c","name:ru":"\u041f\u0448\u0435\u043c\u044b\u0441\u043b\u044c","population":62720,"id":253546793,"name:ja":"\u30d7\u30b7\u30a7\u30e0\u30a3\u30b7\u30eb"},"coordinates":[784,3846]},{"type":"Point","properties":{"kind":"locality","name:en":"Stryi","name":"\u0421\u0442\u0440\u0438\u0439","kind_detail":"town","name:eo":"Strij","name:de":"Stryj","source":"openstreetmap.org","min_zoom":8.0,"name:ru":"\u0421\u0442\u0440\u044b\u0439","name:pl":"Stryj","name:hu":"Stryi","name:zh":"\u65af\u7279\u96f7","id":247880583,"population":60154},"coordinates":[3941,1492]},{"type":"Point","properties":{"name:cs":"Sambir","name:eo":"Sambir","min_zoom":8.0,"name:be":"\u0421\u0430\u043c\u0431\u0430\u0440","name:ru":"\u0421\u0430\u043c\u0431\u043e\u0440","name:pl":"Sambor","name:hu":"Sambir","id":337556659,"population":35054,"kind":"locality","name:en":"Sambir","old_name:de":"Sombor","name":"\u0421\u0430\u043c\u0431\u0456\u0440","kind_detail":"town","name:de":"Sambir","source":"openstreetmap.org"},"coordinates":[2030,2665]},{"type":"Point","properties":{"kind":"locality","name:en":"Boryslav","name":"\u0411\u043e\u0440\u0438\u0441\u043b\u0430\u0432","kind_detail":"town","name:eo":"Borislavo","name:de":"Boryslaw","source":"openstreetmap.org","min_zoom":8.0,"name:ro":"Bor\u00eeslav","name:be":"\u0411\u0430\u0440\u044b\u0441\u043b\u0430\u045e","name:pl":"Borys\u0142aw","name:hu":"Boriszlav","name:zh":"\u9c8d\u91cc\u65af\u62c9\u592b","id":313246159,"population":35040},"coordinates":[2673,1639]},{"type":"Point","properties":{"name:ro":"Truskave\u0163","name:cs":"Truskavec","name:eo":"Truskavec","min_zoom":8.0,"name:ru":"\u0422\u0440\u0443\u0441\u043a\u0430\u0432\u0435\u0446","name:pl":"Truskawiec","name:hu":"Truszkavec","id":254262743,"population":29220,"kind":"locality","name:en":"Truskavets","name":"\u0422\u0440\u0443\u0441\u043a\u0430\u0432\u0435\u0446\u044c","kind_detail":"town","name:de":"Truskawez","source":"openstreetmap.org","name:zh":"\u7279\u9c81\u65af\u5361\u97e6\u8328"},"coordinates":[2931,1592]},{"type":"Point","properties":{"kind":"locality","name:en":"Stebnyk","name":"\u0421\u0442\u0435\u0431\u043d\u0438\u043a","kind_detail":"town","name:eo":"Stebniko","source":"openstreetmap.org","min_zoom":8.0,"name:ro":"Stebn\u00eek","name:pl":"Stebnik","id":337563707,"population":21113},"coordinates":[3101,1663]},{"type":"Point","properties":{"kind":"locality","name:en":"Horodok","name":"\u0413\u043e\u0440\u043e\u0434\u043e\u043a","alt_name:de":"Grodeck","old_name:pl":"Gr\u00f3dek Jagiello\u0144ski","kind_detail":"town","name:eo":"Horodok","name:de":"Horodok","source":"openstreetmap.org","min_zoom":8.0,"name:be":"\u0413\u0430\u0440\u0430\u0434\u043e\u043a","name:pl":"Gr\u00f3dek","id":261709042,"population":15825},"coordinates":[3344,3851]},{"type":"Point","properties":{"kind":"locality","name:en":"Mostyska","name":"\u041c\u043e\u0441\u0442\u0438\u0441\u044c\u043a\u0430","kind_detail":"town","name:de":"Mostyska","source":"openstreetmap.org","min_zoom":8.0,"name:ro":"Most\u00eeska","name:ru":"\u041c\u043e\u0441\u0442\u0438\u0441\u043a\u0430","name:pl":"Mo\u015bciska","id":337544926,"population":11000},"coordinates":[1893,3904]},{"type":"Point","properties":{"kind":"locality","name:en":"Bolekhiv","name":"\u0411\u043e\u043b\u0435\u0445\u0456\u0432","name:lt":"Bolechivas","kind_detail":"town","min_zoom":8.0,"name:de":"Bolechiw","source":"openstreetmap.org","name:fr":"Bolekhiv","name:ru":"\u0411\u043e\u043b\u0435\u0445\u043e\u0432","name:pl":"Bolech\u00f3w","id":312262525,"population":10766},"coordinates":[3961,643]},{"type":"Point","properties":{"kind":"locality","name":"Ustrzyki Dolne","kind_detail":"town","source":"openstreetmap.org","min_zoom":8.0,"name:uk":"\u0423\u0441\u0442\u0440\u0438\u043a\u0438 \u0414\u043e\u043b\u0456\u0448\u043d\u0456","name:ru":"\u0423\u0441\u0442\u0448\u0438\u043a\u0438-\u0414\u043e\u043b\u044c\u043d\u0435","id":2498740002,"population":9349},"coordinates":[255,2271]},{"type":"Point","properties":{"kind":"locality","name:en":"Pustomyty","name":"\u041f\u0443\u0441\u0442\u043e\u043c\u0438\u0442\u0438","kind_detail":"town","name:de":"Pustomyty","source":"openstreetmap.org","min_zoom":8.0,"name:ru":"\u041f\u0443\u0441\u0442\u043e\u043c\u044b\u0442\u044b","name:pl":"Pustomyty","id":337547925,"population":9016},"coordinates":[4082,3562]},{"type":"Point","properties":{"kind":"locality","name:en":"Turka","name":"\u0422\u0443\u0440\u043a\u0430","kind_detail":"town","min_zoom":8.0,"name:de":"Turka","source":"openstreetmap.org","name:fr":"Tourka","name:pl":"Turka","name:hu":"Turka","id":337569553,"population":7114},"coordinates":[1552,1048]},{"type":"Point","properties":{"kind":"locality","name:en":"Sudova Vyshnia","name":"\u0421\u0443\u0434\u043e\u0432\u0430 \u0412\u0438\u0448\u043d\u044f","kind_detail":"town","name:de":"Sudowa Wyschnja","source":"openstreetmap.org","min_zoom":8.0,"name:ru":"\u0421\u0443\u0434\u043e\u0432\u0430\u044f \u0412\u0438\u0448\u043d\u044f","name:pl":"S\u0105dowa Wisznia","id":337545085,"population":6434},"coordinates":[2544,3873]},{"type":"Point","properties":{"kind":"locality","name:en":"Skole","name":"\u0421\u043a\u043e\u043b\u0435","kind_detail":"town","name:de":"Skole","source":"openstreetmap.org","min_zoom":8.0,"name:pl":"Skole","name:zh":"\u65af\u79d1\u5217","id":3726238865,"population":6269},"coordinates":[2954,517]},{"type":"Point","properties":{"kind":"locality","name:en":"Staryi Sambir","name":"\u0421\u0442\u0430\u0440\u0438\u0439 \u0421\u0430\u043c\u0431\u0456\u0440","kind_detail":"town","min_zoom":8.0,"name:de":"Staryj Sambir","source":"openstreetmap.org","name:fr":"Stary\u00ef Sambir","name:ru":"\u0421\u0442\u0430\u0440\u044b\u0439 \u0421\u0430\u043c\u0431\u043e\u0440","name:pl":"Stary Sambor","id":337558646,"population":6266},"coordinates":[1463,2334]},{"type":"Point","properties":{"kind":"locality","name:en":"Morshyn","name":"\u041c\u043e\u0440\u0448\u0438\u043d","kind_detail":"town","name:de":"Morschyn","source":"openstreetmap.org","min_zoom":8.0,"name:pl":"Morszyn","id":337569716,"population":6108},"coordinates":[3991,1034]},{"type":"Point","properties":{"kind":"locality","name:en":"Schyrets","name":"\u0429\u0438\u0440\u0435\u0446\u044c","kind_detail":"town","source":"openstreetmap.org","min_zoom":8.0,"name:ru":"\u0429\u0438\u0440\u0435\u0446","name:pl":"Szczerzec","id":337551033,"population":5733},"coordinates":[3949,3234]},{"type":"Point","properties":{"kind":"locality","name:en":"Rudky","name":"\u0420\u0443\u0434\u043a\u0438","kind_detail":"town","source":"openstreetmap.org","min_zoom":8.0,"name:pl":"Rudki","id":337550821,"population":5408},"coordinates":[2876,3275]},{"type":"Point","properties":{"kind":"locality","name:en":"Velykyi Liubin","name":"\u0412\u0435\u043b\u0438\u043a\u0438\u0439 \u041b\u044e\u0431\u0456\u043d\u044c","kind_detail":"town","source":"openstreetmap.org","min_zoom":8.0,"name:ru":"\u0412\u0435\u043b\u0438\u043a\u0438\u0439 \u041b\u044e\u0431\u0435\u043d\u044c","name:pl":"Lubie\u0144 Wielki","id":337547987,"population":4550},"coordinates":[3621,3568]},{"type":"Point","properties":{"kind":"locality","name:en":"Dobromyl","name":"\u0414\u043e\u0431\u0440\u043e\u043c\u0438\u043b\u044c","kind_detail":"town","name:de":"Dobromyl","source":"openstreetmap.org","min_zoom":8.0,"name:ru":"\u0414\u043e\u0431\u0440\u043e\u043c\u044b\u043b\u044c","name:pl":"Dobromil","id":324203591,"population":4537},"coordinates":[831,2902]},{"type":"Point","properties":{"name:ro":"H\u00eeriv","name:lv":"Hiriva","name:ka":"\u10ee\u10d8\u10e0\u10dd\u10d5\u10d8","name:he":"\u05d7\u05d9\u05e8\u05d5\u05d1","min_zoom":8.0,"name:ru":"\u0425\u044b\u0440\u043e\u0432","name:vi":"Khyriv","name:pl":"Chyr\u00f3w","name":"\u0425\u0438\u0440\u0456\u0432","id":337555734,"population":4106,"name:fa":"\u062e\u06cc\u0631\u06cc\u0641","kind":"locality","name:en":"Khyriv","name:nn":"Khyriv","kind_detail":"town","name:de":"Chyriw","source":"openstreetmap.org","name:fr":"Khyriv","name:zh":"\u9ed1\u7f85\u592b","name:hy":"\u053d\u056b\u0580\u0578\u057e"},"coordinates":[1024,2732]},{"type":"Point","properties":{"kind":"locality","name:en":"Novyi Kalyniv","name":"\u041d\u043e\u0432\u0438\u0439 \u041a\u0430\u043b\u0438\u043d\u0456\u0432","kind_detail":"town","source":"openstreetmap.org","min_zoom":8.0,"name:ru":"\u041d\u043e\u0432\u044b\u0439 \u041a\u0430\u043b\u0438\u043d\u043e\u0432","name:pl":"Kalin\u00f3w Nowy","id":337554746,"population":4070},"coordinates":[2337,2845]},{"type":"Point","properties":{"kind":"locality","name:en":"Komarno","name":"\u041a\u043e\u043c\u0430\u0440\u043d\u043e","kind_detail":"town","source":"openstreetmap.org","min_zoom":8.0,"name:pl":"Komarno","id":313249186,"population":3884},"coordinates":[3487,3148]},{"type":"Point","properties":{"kind":"locality","name:en":"Medenychi","name":"\u041c\u0435\u0434\u0435\u043d\u0438\u0447\u0456","kind_detail":"town","name:de":"Medenytschi","source":"openstreetmap.org","min_zoom":8.0,"name:ro":"Meden\u00eeci","name:it":"Medeny\u010di","name:ru":"\u041c\u0435\u0434\u0435\u043d\u0438\u0447\u0438","name:pl":"Medenice","name:hu":"Medenicsi","name:zh":"\u6885\u5091\u5c3c\u5947","id":337559571,"population":3391},"coordinates":[3640,2270]},{"type":"Point","properties":{"kind":"locality","name:en":"Verkhnie Synovydne","name":"\u0412\u0435\u0440\u0445\u043d\u0454 \u0421\u0438\u043d\u044c\u043e\u0432\u0438\u0434\u043d\u0435","kind_detail":"town","source":"openstreetmap.org","min_zoom":8.0,"name:ru":"\u0412\u0435\u0440\u0445\u043d\u0435\u0435 \u0421\u0438\u043d\u0435\u0432\u0438\u0434\u043d\u043e\u0435","name:pl":"Synow\u00f3dzko Wy\u017cne","id":337571838,"population":3348},"coordinates":[3175,819]},{"type":"Point","properties":{"kind":"locality","name:en":"Pidbuzh","name":"\u041f\u0456\u0434\u0431\u0443\u0436","kind_detail":"town","name:de":"Pidbusch","source":"openstreetmap.org","min_zoom":8.0,"name:ro":"Pidbuj","name:ru":"\u041f\u043e\u0434\u0431\u0443\u0436","name:pl":"Podbu\u017c","name:zh":"\u76ae\u5fb7\u5e03\u65e5","id":337562742,"population":3182},"coordinates":[2187,1830]},{"type":"Point","properties":{"kind":"locality","name:en":"Skhidnytsia","name":"\u0421\u0445\u0456\u0434\u043d\u0438\u0446\u044f","kind_detail":"town","name:de":"Schidnyzja","source":"openstreetmap.org","min_zoom":8.0,"name:ro":"Shidn\u00ee\u021bea","name:ru":"\u0421\u0445\u043e\u0434\u043d\u0438\u0446\u0430","name:pl":"Schodnica","name:hu":"Szhidnicja","name:zh":"\u65af\u5e0c\u5fb7\u5c3c\u9f4a\u4e9e","id":337566424,"population":2149},"coordinates":[2477,1365]},{"type":"Point","properties":{"kind":"locality","name:ro":"Dublean\u00ee","name:lv":"Dub\u013cani","name":"\u0414\u0443\u0431\u043b\u044f\u043d\u0438","kind_detail":"town","name:de":"Dubljany","source":"openstreetmap.org","min_zoom":8.0,"name:en":"Dubliany","name:be":"\u0414\u0443\u0431\u043b\u044f\u043d\u044b","name:ru":"\u0414\u0443\u0431\u043b\u044f\u043d\u044b","name:pl":"Dublany","id":337557104,"population":1848},"coordinates":[2571,2580]},{"type":"Point","properties":{"kind":"locality","name:en":"Borynia","name":"\u0411\u043e\u0440\u0438\u043d\u044f","kind_detail":"town","name:he":"\u05d1\u05d5\u05e8\u05d9\u05e0\u05d9\u05d4","name:de":"Borynja","source":"openstreetmap.org","min_zoom":8.0,"name:ro":"Bor\u00eenea","name:hy":"\u0532\u0578\u0580\u056b\u0576\u0575\u0561","name:ru":"\u0411\u043e\u0440\u044b\u043d\u044f","name:pl":"Borynia","name:zh":"\u535a\u91cc\u5c3c\u4e9e","id":337572642,"population":1462},"coordinates":[1463,667]},{"type":"Point","properties":{"kind":"locality","name:en":"Stara Sil","name":"\u0421\u0442\u0430\u0440\u0430 \u0421\u0456\u043b\u044c","kind_detail":"town","source":"openstreetmap.org","min_zoom":8.0,"name:ru":"\u0421\u0442\u0430\u0440\u0430\u044f \u0421\u043e\u043b\u044c","name:pl":"Stara S\u00f3l","id":337557373,"population":1158},"coordinates":[1359,2538]}]},"transit":{"type":"GeometryCollection","geometries":[{"type":"MultiLineString","properties":{"source":"openstreetmap.org","kind":"train","name":"Medyka - \u041b\u044c\u0432\u0456\u0432","sort_rank":275,"min_zoom":6.0,"osm_relation":true},"arcs":[[9],[10],[11],[12],[13],[14],[15],[16],[17],[18],[19],[20],[21],[22],[23],[24],[25]]},{"type":"MultiLineString","properties":{"kind":"train","name":"Linia kolejowa nr 91 Krak\u00f3w G\u0142\u00f3wny Osobowy - Medyka","sort_rank":275,"source":"openstreetmap.org","min_zoom":6.0,"operator":"PKP Polskie Linie Kolejowe S.A.","ref":"91","osm_relation":true,"network":"PKP"},"arcs":[[26],[27],[28]]}]},"pois":{"type":"GeometryCollection","geometries":[{"type":"Point","properties":{"kind":"nature_reserve","name:en":"Nadsiansky Regional Landscape Park","protect_class":"3","area":460808000,"source":"openstreetmap.org","min_zoom":7.87,"tier":2,"name:ru":"\u0420\u0435\u0433\u0438\u043e\u043d\u0430\u043b\u044c\u043d\u044b\u0439 \u043b\u0430\u043d\u0434\u0448\u0430\u0444\u0442\u043d\u044b\u0439 \u043f\u0430\u0440\u043a \"\u041d\u0430\u0434\u0441\u0430\u043d\u0441\u043a\u0438\u0439\"","name:pl":"Nadsa\u0144ski Regionalny Park Krajobrazowy","id":-6449022,"osm_relation":true,"name":"\u0420\u0435\u0433\u0456\u043e\u043d\u0430\u043b\u044c\u043d\u0438\u0439 \u043b\u0430\u043d\u0434\u0448\u0430\u0444\u0442\u043d\u0438\u0439 \u043f\u0430\u0440\u043a \"\u041d\u0430\u0434\u0441\u044f\u043d\u0441\u044c\u043a\u0438\u0439\""},"coordinates":[1199,902]},{"type":"Point","properties":{"kind":"national_park","name:en":"Uzhanskyi National Nature Park","protect_class":"2","area":887675000,"name:de":"Nationaler Naturpark Uzhanskyi","source":"openstreetmap.org","min_zoom":5.89,"tier":1,"id":-6446164,"osm_relation":true,"name":"\u0423\u0436\u0430\u043d\u0441\u044c\u043a\u0438\u0439 \u043d\u0430\u0446\u0456\u043e\u043d\u0430\u043b\u044c\u043d\u0438\u0439 \u043f\u0440\u0438\u0440\u043e\u0434\u043d\u0438\u0439 \u043f\u0430\u0440\u043a"},"coordinates":[581,331]},{"type":"Point","properties":{"kind":"national_park","name:en":"Bieszczady National Park","protect_class":"2","area":29619800,"name:de":"Beskiden-Nationalpark","source":"openstreetmap.org","min_zoom":8.35,"name:uk":"\u0411\u0435\u0449\u0430\u0434\u0441\u044c\u043a\u0438\u0439 \u043d\u0430\u0446\u0456\u043e\u043d\u0430\u043b\u044c\u043d\u0438\u0439 \u043f\u0430\u0440\u043a","tier":1,"id":-5497863,"osm_relation":true,"name":"Bieszczadzki Park Narodowy"},"coordinates":[899,900]},{"type":"Point","properties":{"kind":"nature_reserve","name:en":"San Valley Landscape Park","protect_class":"5","area":648294000,"name:de":"Landschaftsschutzpark Saantal","source":"openstreetmap.org","min_zoom":7.62,"tier":2,"id":-4520012,"osm_relation":true,"name":"Park Krajobrazowy Doliny Sanu"},"coordinates":[401,1197]},{"type":"Point","properties":{"kind":"nature_reserve","protect_class":"5","area":1447450000,"source":"openstreetmap.org","min_zoom":7.04,"tier":2,"id":-4517600,"osm_relation":true,"name":"Park Krajobrazowy Pog\u00f3rza Przemyskiego"},"coordinates":[309,3504]},{"type":"Point","properties":{"kind":"national_park","name:en":"National Nature Park Skolivski Beskydy","protect_class":"2","area":643922000,"name:de":"Nationalpark Skoler Beskiden","source":"openstreetmap.org","min_zoom":6.12,"tier":1,"name:ru":"\u041d\u0430\u0446\u0438\u043e\u043d\u0430\u043b\u044c\u043d\u044b\u0439 \u043f\u0440\u0438\u0440\u043e\u0434\u043d\u044b\u0439 \u043f\u0430\u0440\u043a \u00ab\u0421\u043a\u043e\u043b\u0435\u0432\u0441\u043a\u0438\u0435 \u0411\u0435\u0441\u043a\u0438\u0434\u044b\u00bb","name:pl":"Park Narodowy Beskidy Skolskie","id":-2434313,"osm_relation":true,"name":"\u041d\u0430\u0446\u0456\u043e\u043d\u0430\u043b\u044c\u043d\u0438\u0439 \u043f\u0440\u0438\u0440\u043e\u0434\u043d\u0438\u0439 \u043f\u0430\u0440\u043a \u00ab\u0421\u043a\u043e\u043b\u0456\u0432\u0441\u044c\u043a\u0456 \u0411\u0435\u0441\u043a\u0438\u0434\u0438\u00bb"},"coordinates":[2593,642]}]},"boundaries":{"type":"GeometryCollection","geometries":[{"type":"LineString","properties":{"name:right:yo":"Polandi","name:right:yi":"\u05e4\u05d5\u05d9\u05dc\u05df","name:left:la":"Ucraina","name:right:qu":"Pulunya","name:left:li":"Oekra\u00efne","name:left:vi":"Ukraina","name:left:sw":"Ukraine","name:left:kg":"Ukrayina","name:left:ka":"\u10e3\u10d9\u10e0\u10d0\u10d8\u10dc\u10d0","name:left:km":"\u17a2\u17ca\u17bb\u1799\u1780\u17d2\u179a\u17c2\u1793","name:left:kl":"Ukraine","name:left:ko":"\uc6b0\ud06c\ub77c\uc774\ub098","name:left:kn":"\u0caf\u0cc1\u0c95\u0ccd\u0cb0\u0cc7\u0ca8\u0ccd","name:right:is":"P\u00f3lland","name:left:ro":"Ucraina","name:left:kk":"\u0423\u043a\u0440\u0430\u0438\u043d\u0430","name:left:rm":"Ucraina","name:left:ku":"\u00dbkrayna","name:left:kw":"Ukrayn","name:left:kv":"\u0423\u043a\u0440\u0430\u0438\u043d\u0430","name:right:rn":"Polonia","name:right:ro":"Polonia","name:left:ru":"\u0423\u043a\u0440\u0430\u0438\u043d\u0430","name:right:ig":"Poland","name:right:ie":"Polonia","name:right:id":"Polandia","name:left:ky":"\u0423\u043a\u0440\u0430\u0438\u043d\u0430","name:right:ia":"Polonia","name:right:bi":"Poland","name:right:bn":"\u09aa\u09cb\u09b2\u09cd\u09af\u09be\u09a8\u09cd\u09a1","name:right:bo":"\u0f55\u0f7c\u0f0b\u0f63\u0f53\u0f0d","name:left:sl":"Ukrajina","name:right:ba":"\u041f\u043e\u043b\u044c\u0448\u0430","name:right:bg":"\u041f\u043e\u043b\u0448\u0430","name:right:be":"\u041f\u043e\u043b\u044c\u0448\u0447\u0430","name:right:br":"Polonia","name:right:bs":"Poljska","name:right:nn":"Polen","name:right:no":"Polen","name:right:nl":"Polen","name:right:wa":"Pologne","name:left:lv":"Ukraina","name:right:wo":"Polo\u00f1","name:right:ne":"\u092a\u094b\u0932\u094d\u092f\u093e\u0923\u094d\u0921","name:right:na":"Poran","name:right:gv":"Yn Pholynn","alt_name:left:vi":"Uy Ki\u00ean","name:right:nv":"P\u00f3olish Dine\u02bc\u00e9 Bik\u00e9yah","name:left:mg":"Okraina","kind_detail":"2","name:left:ig":"Yukrain","name:left:tr":"Ukrayna","name:right:gu":"\u0aaa\u0acb\u0ab2\u0ac7\u0a82\u0aa1","name:right:ps":"\u067e\u0648\u0644\u0646\u0689","name:right:pt":"Pol\u00f3nia","name:left:mk":"\u0423\u043a\u0440\u0430\u0438\u043d\u0430","name:left:mi":"\u016akareinga","name:left:ts":"Ukraine","name:left:tt":"\u0423\u043a\u0440\u0430\u0438\u043d\u0430","name:left:mn":"\u0423\u043a\u0440\u0430\u0439\u043d","name:left:tw":"Ukraine","name:left:th":"\u0e1b\u0e23\u0e30\u0e40\u0e17\u0e28\u0e22\u0e39\u0e40\u0e04\u0e23\u0e19","name:right:pa":"\u0a2a\u0a4b\u0a32\u0a48\u0a02\u0a21","name:left:tk":"Ukraina","name:left:tl":"Ukranya","name:left:mt":"Ukrajna","name:right:gl":"Polonia","name:left:my":"\u101a\u1030\u1000\u101b\u102d\u1014\u103a\u1038\u1014\u102d\u102f\u1004\u103a\u1004\u1036","name:right:gn":"Polo\u00f1a","name:left:te":"\u0c09\u0c15\u0c4d\u0c30\u0c46\u0c2f\u0c3f\u0c28\u0c4d","name:left:tg":"\u0423\u043a\u0440\u0430\u0439\u0438\u043d\u0430","name:left:ms":"Ukraine","name:left:mr":"\u092f\u0941\u0915\u094d\u0930\u0947\u0928","name:left:da":"Ukraine","name:left:de":"Ukraine","name:right:ga":"An Pholainn","name:left:dv":"\u0794\u07aa\u0786\u07b0\u0783\u07ac\u0787\u07a8\u0782\u07b0","name:right:lg":"Bupoolo","name:right:ug":"\u067e\u0648\u0644\u0634\u0627","name:left:hi":"\u092f\u0941\u0915\u094d\u0930\u0947\u0928","name:right:lb":"Polen","name:right:uk":"\u041f\u043e\u043b\u044c\u0449\u0430","name:left:ca":"Ucra\u00efna","name:right:ln":"Poloni","name:right:li":"Pole","name:right:lt":"Lenkija","name:right:ur":"\u067e\u0648\u0644\u06cc\u0646\u0688","name:right:lv":"Polija","name:left:hy":"\u0548\u0582\u056f\u0580\u0561\u056b\u0576\u0561","name:left:ta":"\u0b89\u0b95\u0bcd\u0bb0\u0bc8\u0ba9\u0bcd","name:left:ht":"Ikr\u00e8n","name:left:hu":"Ukrajna","name:left:hr":"Ukrajina","sort_rank":262,"name:right:gd":"A' Ph\u00f2lainn","name:right:os":"\u041f\u043e\u043b\u044c\u0448\u00e6","name:right:es":"Polonia","name:right:sr":"\u041f\u043e\u0459\u0441\u043a\u0430","name:right:eu":"Polonia","name:right:et":"Poola","name:left:os":"\u0423\u043a\u0440\u0430\u0438\u043d\u00e6","name:left:or":"\u0b5f\u0b41\u0b15\u0b4d\u0b30\u0b47\u0b28","name:right:ee":"Poland","name:left:vo":"Lukray\u00e4n","name:left:oc":"Ucra\u00efna","name:right:eo":"Polujo","name:right:en":"Poland","name:right:el":"\u03a0\u03bf\u03bb\u03c9\u03bd\u03af\u03b1","name:left:fa":"\u0627\u0648\u06a9\u0631\u0627\u06cc\u0646","name:left:ia":"Ukraina","name:left:fo":"Ukraina","name:right:sk":"Po\u013esko","name:left:fi":"Ukraina","name:left:fr":"Ukraine","name:left:cs":"Ukrajina","name:right:jv":"Polandia","name:left:fy":"Oekra\u00efne","name:right:ja":"\u30dd\u30fc\u30e9\u30f3\u30c9","name:right:sq":"Polonia","name:right:ss":"IPholandi","name:left:ja":"\u30a6\u30af\u30e9\u30a4\u30ca","name:right:su":"Polandia","name:right:st":"Poland","name:right:sw":"Poland","name:right:sv":"Polen","name:right:si":"\u0db4\u0ddd\u0dbd\u0db1\u0dca\u0dad\u0dba","name:right:sh":"Poljska","name:left:qu":"Ukranya","name:right:sm":"Polagi","name:right:sl":"Poljska","name:right:so":"Boland","name:right:sa":"\u092a\u094b\u0932\u0948\u0902\u0921","name:right:sc":"Polonia","name:left:jv":"Ukraina","id":-60199,"name:right:sg":"P\u00f6l\u00f4ni","old_name:left:vi":"\u00d4 Kh\u1eafc Lan","name:right:co":"Polonia","name:right:ca":"Pol\u00f2nia","name:right:ce":"\u041f\u043e\u043b\u044c\u0448\u0430","name:right:cy":"Gwlad Pwyl","name:right:zh-yue":"\u6ce2\u862d","name:right:cs":"Polsko","name:right:cu":"\u041f\u043e\u043b\u0484\u044c\u0441\u043a\u0430","name:right:iu":"\u1433\u14da\u14d0\u1466","name:right:cv":"\u041f\u043e\u043b\u044c\u0448\u0430","name:right:it":"Polonia","name:left:ar":"\u0623\u0648\u0643\u0631\u0627\u0646\u064a\u0627","name:left:az":"Ukrayna","name:right:rw":"Polonye","name:left:af":"Oekra\u00efne","name:left:ab":"\u0423\u043a\u0440\u0430\u0438\u043d\u0430","name:left:an":"Ucra\u00edna","name:left:am":"\u12e9\u12ad\u122c\u1295","name:right:ru":"\u041f\u043e\u043b\u044c\u0448\u0430","name:right:io":"Polonia","name:left:zh-yue":"\u70cf\u514b\u862d","name:left:rw":"Ikerene","name:right:hy":"\u053c\u0565\u0570\u0561\u057d\u057f\u0561\u0576","name:left:lb":"Ukrain","alt_name:left:eo":"Ukrainio","name:left:su":"Ukraina","int_name:left":"Ukraine","name:right:hr":"Poljska","name:left:sv":"Ukraina","name:left:sq":"Ukraina","name:right:hu":"Lengyelorsz\u00e1g","name:left:ss":"IYukhureni","name:left:sr":"\u0423\u043a\u0440\u0430\u0458\u0438\u043d\u0430","name:left:sm":"Ukraine","name:right:hi":"\u092a\u094b\u0932\u0948\u0902\u0921","name:left:so":"Ukrain","name:left:sn":"Ukraine","name:left:lt":"Ukraina","name:left:sh":"Ukrajina","name:left:sk":"Ukrajina","name:left:se":"Ukraina","name:right:ha":"Poland","name:right:he":"\u05e4\u05d5\u05dc\u05d9\u05df","name:left:sc":"Ucraina","name:right:la":"Polonia","name:right:af":"Pole","name:right:ab":"\u041f\u043e\u043b\u0448\u0430","name:left:ce":"\u0423\u043a\u0440\u0430\u0438\u043d\u0430","name:right:an":"Polonia","name:right:am":"\u1356\u120b\u1295\u12f5","name:right:ak":"Poland","source":"openstreetmap.org","name:left:cy":"Wcr\u00e1in","name:right:ar":"\u0628\u0648\u0644\u0646\u062f\u0627","name:left:he":"\u05d0\u05d5\u05e7\u05e8\u05d0\u05d9\u05e0\u05d4","name:left:cu":"\u041e\u0443\u043a\u0440\u0430\u0438\u043d\u0430","name:left:cv":"\u0423\u043a\u0440\u0430\u0438\u043d\u0430","name:right:az":"Pol\u015fa","name:right:ay":"Pulu\u00f1a","name:right:rm":"Pologna","name":"\u0423\u043a\u0440\u0430\u0457\u043d\u0430 - Polska","name:right:zu":"IPolandi","name:left:zh":"\u4e4c\u514b\u5170","name:right:zh":"\u6ce2\u5170","name:left:uz":"Ukraina","name:right:fr":"Pologne","name:left:ps":"\u0627\u0648\u06a9\u0631\u0627\u06cc\u0646","name:left:nv":"Y\u00f3\u00f3kwein","name:left:ur":"\u06cc\u0648\u06a9\u0631\u06cc\u0646","id:right":-49715,"name:right:ff":"Poloonya","name:left:no":"Ukraina","name:left:nl":"Oekra\u00efne","alt_name:right:eo":"Pollando;Polio","name:right:fa":"\u0644\u0647\u0633\u062a\u0627\u0646","name:right:fo":"P\u00f3lland","name:left:ne":"\u092f\u0941\u0915\u094d\u0930\u0947\u0928","name:left:ug":"\u0626\u06c7\u0643\u0631\u0627\u0626\u0649\u0646\u0627","name:left:na":"Ukraine","name:left:ml":"\u0d09\u0d15\u0d4d\u0d30\u0d48\u0d7b","name:left:eo":"Ukrainujo","name:left:en":"Ukraine","name:left:el":"\u039f\u03c5\u03ba\u03c1\u03b1\u03bd\u03af\u03b1","name:left:ee":"Ukraine","name:left:pl":"Ukraina","name:left:es":"Ucrania","name:left:ie":"Ucraina","name:left:eu":"Ukraina","name:left:et":"Ukraina","name:right:oc":"Polonha","name:right:tr":"Polonya","short_name:right":"RP","name:right:uz":"Polsha","osm_relation":true,"name:right:or":"\u0b2a\u0b4b\u0b32\u0b3e\u0b23\u0b4d\u0b21","name:left:pt":"Ucr\u00e2nia","name:right:ku":"Polonya","name:right:tk":"Pol\u015fa","name:left:wa":"Oucrinne","min_zoom":8.0,"name:left:zh-min-nan":"Ukrayina","name:left:ln":"Ukraine","name:left:wo":"Ukreen","name:left:ga":"An \u00dacr\u00e1in","name:left:it":"Ucraina","name:left:gd":"An Ucr\u00e0in","name:left:gl":"Ucra\u00edna","name:left:gn":"Ukya\u00f1a","name:left:gu":"\u0aaf\u0ac1\u0a95\u0acd\u0ab0\u0ac7\u0aa8","name:left:gv":"Yn Ookraan","official_name:right":"Rzeczpospolita Polska","name:left":"\u0423\u043a\u0440\u0430\u0457\u043d\u0430","name:right:mk":"\u041f\u043e\u043b\u0441\u043a\u0430","name:right:mi":"P\u014drana","name:right:mn":"\u041f\u043e\u043b\u044c\u0448","name:right:ml":"\u0d2a\u0d4b\u0d33\u0d23\u0d4d\u0d1f\u0d4d","name:right:vo":"Pol\u00e4n","name:right:mg":"Polonia","name:right:vi":"Ba Lan","name:right:my":"\u1015\u102d\u102f\u101c\u1014\u103a\u1014\u102d\u102f\u1004\u103a\u1004\u1036","name:right:ms":"Poland","name:right:mr":"\u092a\u094b\u0932\u0902\u0921","name:right:fy":"Poalen","name:right:mt":"Polonja","name:left:nn":"Ukraina","kind":"country","name:left:br":"Ukraina","name:left:bs":"Ukrajina","name:left:ba":"\u0423\u043a\u0440\u0430\u0438\u043d\u0430","name:left:bg":"\u0423\u043a\u0440\u0430\u0439\u043d\u0430","name:left:be":"\u0423\u043a\u0440\u0430\u0456\u043d\u0430","name:left:bi":"Ukraine","name:left:bn":"\u0987\u0989\u0995\u09cd\u09b0\u09c7\u09a8","name:left:bo":"\u0f68\u0f74\u0f40\u0f0b\u0f62\u0f61\u0f72\u0f0b\u0f53\u0f72\u0f0d","name:right":"Polska","name:left:yo":"Ukr\u00e9\u00ecn","name:left:yi":"\u05d0\u05d5\u05e7\u05e8\u05d0\u05d9\u05e0\u05e2","id:left":-60199,"name:right:fi":"Puola","name:right:ka":"\u10de\u10dd\u10da\u10dd\u10dc\u10d4\u10d7\u10d8","name:left:io":"Ukrainia","name:left:pa":"\u0a2f\u0a42\u0a15\u0a4d\u0a30\u0a47\u0a28","name:right:kg":"Pologne","name:right:tt":"\u041f\u043e\u043b\u044c\u0448\u0430","name:right:kk":"\u041f\u043e\u043b\u044c\u0448\u0430","name:left:id":"Ukraina","name:right:km":"\u1794\u17d2\u179a\u1791\u17c1\u179f\u1794\u17c9\u17bc\u17a1\u17bc\u1789","name:right:kl":"Poleni","name:right:ko":"\ud3f4\ub780\ub4dc","name:right:kn":"\u0caa\u0ccb\u0cb2\u0cc6\u0c82\u0ca1\u0ccd","name:right:tl":"Polonya","name:right:th":"\u0e1b\u0e23\u0e30\u0e40\u0e17\u0e28\u0e42\u0e1b\u0e41\u0e25\u0e19\u0e14\u0e4c","name:right:kw":"Poloni","name:right:kv":"\u041f\u043e\u043b\u044c\u0448\u0430","name:right:ky":"\u041f\u043e\u043b\u044c\u0448\u0430","name:right:te":"\u0c2a\u0c4b\u0c32\u0c3e\u0c02\u0c21\u0c4d","name:right:tg":"\u041b\u0430\u04b3\u0438\u0441\u0442\u043e\u043d","name:left:is":"\u00dakra\u00edna","name:right:ta":"\u0baa\u0bcb\u0bb2\u0ba8\u0bcd\u0ba4\u0bc1","name:right:de":"Polen","name:right:da":"Polen","name:right:dv":"\u0795\u07ae\u078d\u07ac\u0782\u07b0\u0791\u07aa","name:right:ht":"Pol\u00f2y"},"arcs":[0]},{"type":"LineString","properties":{"name:right:yo":"Slof\u00e1k\u00ed\u00e0","name:right:yi":"\u05e1\u05dc\u05d0\u05d5\u05d5\u05d0\u05e7\u05d9\u05d9","name:left:la":"Ucraina","name:right:qu":"Isluwakya","name:left:li":"Oekra\u00efne","name:left:vi":"Ukraina","name:left:sw":"Ukraine","name:left:kg":"Ukrayina","name:left:ka":"\u10e3\u10d9\u10e0\u10d0\u10d8\u10dc\u10d0","name:left:km":"\u17a2\u17ca\u17bb\u1799\u1780\u17d2\u179a\u17c2\u1793","name:left:kl":"Ukraine","name:left:ko":"\uc6b0\ud06c\ub77c\uc774\ub098","name:left:kn":"\u0caf\u0cc1\u0c95\u0ccd\u0cb0\u0cc7\u0ca8\u0ccd","name:right:is":"Sl\u00f3vak\u00eda","name:left:ro":"Ucraina","name:left:kk":"\u0423\u043a\u0440\u0430\u0438\u043d\u0430","name:left:rm":"Ucraina","name:left:ku":"\u00dbkrayna","name:left:kw":"Ukrayn","name:left:kv":"\u0423\u043a\u0440\u0430\u0438\u043d\u0430","name:left:pl":"Ukraina","name:right:ro":"Slovacia","name:left:ru":"\u0423\u043a\u0440\u0430\u0438\u043d\u0430","name:right:ie":"Slovacia","name:right:id":"Slowakia","name:left:ky":"\u0423\u043a\u0440\u0430\u0438\u043d\u0430","name:right:ia":"Slovachia","name:right:bi":"Slovakia","name:right:bn":"\u09b8\u09cd\u09b2\u09cb\u09ad\u09be\u0995\u09bf\u09af\u09bc\u09be","name:right:bo":"\u0f66\u0f72\u0f0b\u0f63\u0f7c\u0f0b\u0f55\u0f0b\u0f41\u0f7a\u0f0d","name:left:sl":"Ukrajina","name:right:ba":"\u0421\u043b\u043e\u0432\u0430\u043a\u0438\u044f","name:right:bg":"\u0421\u043b\u043e\u0432\u0430\u043a\u0438\u044f","name:right:be":"\u0421\u043b\u0430\u0432\u0430\u043a\u0456\u044f","name:right:br":"Slovakia","name:right:bs":"Slova\u010dka","name:right:nn":"Slovakia","name:right:no":"Slovakia","name:right:nl":"Slowakije","name:left:lv":"Ukraina","name:right:wo":"Eslowaaki","name:right:ne":"\u0938\u094d\u0932\u094b\u092d\u093e\u0915\u093f\u092f\u093e","name:right:na":"Slowakia","name:right:gv":"Yn Clovack","alt_name:left:vi":"Uy Ki\u00ean","name:right:nv":"S\u0142\u00f3ba\u02bc Bik\u00e9yah","name:left:mg":"Okraina","kind_detail":"2","name:left:tr":"Ukrayna","name:right:gu":"\u0ab8\u0acd\u0ab2\u0acb\u0ab5\u0abe\u0a95\u0abf\u0aaf\u0abe","name:right:ps":"\u0633\u0644\u0648\u0627\u06a9\u064a\u0627","name:right:pt":"Eslov\u00e1quia","name:left:mk":"\u0423\u043a\u0440\u0430\u0438\u043d\u0430","name:left:mi":"\u016akareinga","name:left:ts":"Ukraine","name:left:tt":"\u0423\u043a\u0440\u0430\u0438\u043d\u0430","name:left:mn":"\u0423\u043a\u0440\u0430\u0439\u043d","name:left:tw":"Ukraine","name:left:th":"\u0e1b\u0e23\u0e30\u0e40\u0e17\u0e28\u0e22\u0e39\u0e40\u0e04\u0e23\u0e19","name:left:mr":"\u092f\u0941\u0915\u094d\u0930\u0947\u0928","name:left:tk":"Ukraina","name:left:tl":"Ukranya","name:left:mt":"Ukrajna","name:right:gl":"Eslovaquia","name:left:my":"\u101a\u1030\u1000\u101b\u102d\u1014\u103a\u1038\u1014\u102d\u102f\u1004\u103a\u1004\u1036","name:right:gn":"Elovakia","name:right:pl":"S\u0142owacja","name:left:te":"\u0c09\u0c15\u0c4d\u0c30\u0c46\u0c2f\u0c3f\u0c28\u0c4d","name:left:tg":"\u0423\u043a\u0440\u0430\u0439\u0438\u043d\u0430","name:left:ms":"Ukraine","name:right:gd":"An t-Sl\u00f2bhac","name:left:da":"Ukraine","name:left:de":"Ukraine","name:right:ga":"An tSl\u00f3vaic","name:left:dv":"\u0794\u07aa\u0786\u07b0\u0783\u07ac\u0787\u07a8\u0782\u07b0","name:right:ug":"\u0633\u0644\u0648\u06cb\u0627\u0643\u0649\u064a\u06d5","name:left:hi":"\u092f\u0941\u0915\u094d\u0930\u0947\u0928","name:right:lb":"Slowakei","name:right:uk":"\u0421\u043b\u043e\u0432\u0430\u0447\u0447\u0438\u043d\u0430","name:left:he":"\u05d0\u05d5\u05e7\u05e8\u05d0\u05d9\u05e0\u05d4","name:right:ln":"Slovakia","name:right:li":"Slowakie\u00eb","name:right:lt":"Slovakija","name:right:ur":"\u0633\u0644\u0648\u0648\u0627\u06a9\u06cc\u06c1","name:right:lv":"Slov\u0101kija","name:left:hy":"\u0548\u0582\u056f\u0580\u0561\u056b\u0576\u0561","name:left:ta":"\u0b89\u0b95\u0bcd\u0bb0\u0bc8\u0ba9\u0bcd","name:left:ht":"Ikr\u00e8n","name:left:hu":"Ukrajna","name:left:hr":"Ukrajina","sort_rank":262,"name:right:os":"\u0421\u043b\u043e\u0432\u0430\u043a\u0438","name:right:es":"Eslovaquia","name:right:sr":"\u0421\u043b\u043e\u0432\u0430\u0447\u043a\u0430","name:right:eu":"Eslovakia","name:right:et":"Slovakkia","name:left:os":"\u0423\u043a\u0440\u0430\u0438\u043d\u00e6","name:left:or":"\u0b5f\u0b41\u0b15\u0b4d\u0b30\u0b47\u0b28","name:right:ee":"Slovakia","name:left:vo":"Lukray\u00e4n","name:left:oc":"Ucra\u00efna","name:right:eo":"Slovakujo","name:right:en":"Slovakia","name:right:el":"\u03a3\u03bb\u03bf\u03b2\u03b1\u03ba\u03af\u03b1","name:left:fa":"\u0627\u0648\u06a9\u0631\u0627\u06cc\u0646","name:left:ia":"Ukraina","name:left:fo":"Ukraina","name:left:fi":"Ukraina","name:left:fr":"Ukraine","name:left:fy":"Oekra\u00efne","name:right:ja":"\u30b9\u30ed\u30d0\u30ad\u30a2","name:right:sq":"Sllovakia","name:right:ss":"Silovakhi","name:left:ja":"\u30a6\u30af\u30e9\u30a4\u30ca","name:right:su":"Slovakia","name:right:st":"Slovakia","name:right:sw":"Slovakia","name:right:sv":"Slovakien","name:right:sh":"Slova\u010dka","name:left:qu":"Ukranya","name:right:jv":"Slowakia","name:right:sl":"Slova\u0161ka","name:right:so":"Islofaakiya","name:right:sa":"\u0938\u094d\u0932\u094b\u0935\u093e\u0915\u093f\u092f\u093e","name:left:jv":"Ukraina","id":-60199,"old_name:left:vi":"\u00d4 Kh\u1eafc Lan","name:right:co":"Sluvacchia","name:right:ca":"Eslov\u00e0quia","name:right:se":"Slovakia","name:right:ce":"\u0421\u043b\u043e\u0432\u0430\u043a\u0438","name:right:cy":"Slofacia","name:right:zh-yue":"\u65af\u6d1b\u4f10\u514b","name:right:cu":"\u0421\u043b\u043e\u0432\u0463\u043d\u044c\u0441\u043a\u043e","name:right:cv":"\u0421\u043b\u043e\u0432\u0430\u043a\u0438","name:right:it":"Slovacchia","name:left:ar":"\u0623\u0648\u0643\u0631\u0627\u0646\u064a\u0627","name:left:az":"Ukrayna","name:right:rw":"Silovakiya","name:left:af":"Oekra\u00efne","name:left:ab":"\u0423\u043a\u0440\u0430\u0438\u043d\u0430","name:left:an":"Ucra\u00edna","name:left:am":"\u12e9\u12ad\u122c\u1295","name:right:ru":"\u0421\u043b\u043e\u0432\u0430\u043a\u0438\u044f","name:right:io":"Slovakia","name:left:zh-yue":"\u70cf\u514b\u862d","name:left:rw":"Ikerene","name:right:hy":"\u054d\u056c\u0578\u057e\u0561\u056f\u056b\u0561","name:left:lb":"Ukrain","alt_name:left:eo":"Ukrainio","name:left:su":"Ukraina","int_name:left":"Ukraine","name:right:hr":"Slova\u010dka","name:left:sv":"Ukraina","name:left:sq":"Ukraina","name:right:hu":"Szlov\u00e1kia","name:left:ss":"IYukhureni","name:left:sr":"\u0423\u043a\u0440\u0430\u0458\u0438\u043d\u0430","name:left:sm":"Ukraine","name:right:hi":"\u0938\u094d\u0932\u094b\u0935\u093e\u0915\u093f\u092f\u093e","name:left:so":"Ukrain","name:left:sn":"Ukraine","name:left:lt":"Ukraina","name:left:sh":"Ukrajina","name:left:sk":"Ukrajina","name:left:se":"Ukraina","name:right:he":"\u05e1\u05dc\u05d5\u05d1\u05e7\u05d9\u05d4","name:left:sc":"Ucraina","name:right:la":"Slovacia","name:right:af":"Slowakye","name:left:ce":"\u0423\u043a\u0440\u0430\u0438\u043d\u0430","name:right:an":"Eslovaquia","name:right:am":"\u1235\u120e\u126b\u12aa\u12eb","name:left:ca":"Ucra\u00efna","source":"openstreetmap.org","name:left:cy":"Wcr\u00e1in","name:right:ar":"\u0633\u0644\u0648\u0641\u0627\u0643\u064a\u0627","name:left:cu":"\u041e\u0443\u043a\u0440\u0430\u0438\u043d\u0430","name:left:cv":"\u0423\u043a\u0440\u0430\u0438\u043d\u0430","name:right:az":"Slovakiya","name:left:cs":"Ukrajina","name:right:rm":"Slovachia","name":"\u0423\u043a\u0440\u0430\u0457\u043d\u0430 - Slovensko","name:right:zu":"ISlovaki","name:left:zh":"\u4e4c\u514b\u5170","name:right:zh":"\u65af\u6d1b\u4f10\u514b","name:left:uz":"Ukraina","name:right:fr":"Slovaquie","name:left:ps":"\u0627\u0648\u06a9\u0631\u0627\u06cc\u0646","name:left:nv":"Y\u00f3\u00f3kwein","name:left:ur":"\u06cc\u0648\u06a9\u0631\u06cc\u0646","id:right":-14296,"name:left:nn":"Ukraina","name:left:no":"Ukraina","name:left:nl":"Oekra\u00efne","alt_name:right:eo":"Slovakio","name:right:fa":"\u0627\u0633\u0644\u0648\u0627\u06a9\u06cc","name:right:fo":"Slovakia","name:left:ne":"\u092f\u0941\u0915\u094d\u0930\u0947\u0928","name:left:ug":"\u0626\u06c7\u0643\u0631\u0627\u0626\u0649\u0646\u0627","name:left:na":"Ukraine","name:left:ml":"\u0d09\u0d15\u0d4d\u0d30\u0d48\u0d7b","name:left:eo":"Ukrainujo","name:left:en":"Ukraine","name:left:el":"\u039f\u03c5\u03ba\u03c1\u03b1\u03bd\u03af\u03b1","name:left:ee":"Ukraine","name:left:ig":"Yukrain","name:left:es":"Ucrania","name:left:ie":"Ucraina","name:left:eu":"Ukraina","name:left:et":"Ukraina","name:right:oc":"Eslovaquia","name:right:tr":"Slovakya","name:right:uz":"Slovakiya","osm_relation":true,"name:right:or":"\u0b38\u0b4d\u0b32\u0b4b\u0b2d\u0b3e\u0b15\u0b3f\u0b06","name:left:pt":"Ucr\u00e2nia","name:right:ku":"Slovakya","name:right:tk":"Slowaki\u00fda","name:left:wa":"Oucrinne","min_zoom":8.0,"name:left:ln":"Ukraine","name:left:wo":"Ukreen","name:left:ga":"An \u00dacr\u00e1in","name:left:it":"Ucraina","name:left:gd":"An Ucr\u00e0in","name:left:gl":"Ucra\u00edna","name:left:gn":"Ukya\u00f1a","name:left:gu":"\u0aaf\u0ac1\u0a95\u0acd\u0ab0\u0ac7\u0aa8","name:left:gv":"Yn Ookraan","official_name:right":"Slovensk\u00e1 republika","name:left":"\u0423\u043a\u0440\u0430\u0457\u043d\u0430","name:right:mk":"\u0421\u043b\u043e\u0432\u0430\u0447\u043a\u0430","name:right:mi":"Horow\u0101kia","name:right:mn":"\u0421\u043b\u043e\u0432\u0430\u043a","name:right:ml":"\u0d38\u0d4d\u0d32\u0d4b\u0d35\u0d3e\u0d15\u0d4d\u0d2f","name:right:vo":"Slovakiy\u00e4n","name:right:vi":"Slovakia","name:right:my":"\u1006\u101c\u102d\u102f\u1017\u102c\u1038\u1000\u102e\u1038\u101a\u102c\u1038\u1014\u102d\u102f\u1004\u103a\u1004\u1036","name:right:ms":"Slovakia","name:right:mr":"\u0938\u094d\u0932\u094b\u0935\u094d\u0939\u093e\u0915\u093f\u092f\u093e","name:right:fy":"Slowakije","name:right:mt":"Slovakkja","kind":"country","name:left:br":"Ukraina","name:left:bs":"Ukrajina","name:left:ba":"\u0423\u043a\u0440\u0430\u0438\u043d\u0430","name:left:bg":"\u0423\u043a\u0440\u0430\u0439\u043d\u0430","name:left:be":"\u0423\u043a\u0440\u0430\u0456\u043d\u0430","name:left:bi":"Ukraine","name:left:bn":"\u0987\u0989\u0995\u09cd\u09b0\u09c7\u09a8","name:left:bo":"\u0f68\u0f74\u0f40\u0f0b\u0f62\u0f61\u0f72\u0f0b\u0f53\u0f72\u0f0d","name:right":"Slovensko","name:left:yo":"Ukr\u00e9\u00ecn","name:left:yi":"\u05d0\u05d5\u05e7\u05e8\u05d0\u05d9\u05e0\u05e2","id:left":-60199,"name:right:fi":"Slovakia","name:right:ka":"\u10e1\u10da\u10dd\u10d5\u10d0\u10d9\u10d4\u10d7\u10d8","name:left:io":"Ukrainia","name:left:pa":"\u0a2f\u0a42\u0a15\u0a4d\u0a30\u0a47\u0a28","name:right:kg":"Slovakia","name:right:tt":"\u0421\u043b\u043e\u0432\u0430\u043a\u0438\u044f","name:right:kk":"\u0421\u043b\u043e\u0432\u0430\u043a\u0438\u044f","name:left:id":"Ukraina","name:right:kl":"Slovakia","name:right:ko":"\uc2ac\ub85c\ubc14\ud0a4\uc544","name:right:tl":"Eslobakya","name:right:th":"\u0e1b\u0e23\u0e30\u0e40\u0e17\u0e28\u0e2a\u0e42\u0e25\u0e27\u0e32\u0e40\u0e01\u0e35\u0e22","name:right:kw":"Slovaki","name:right:kv":"\u0421\u043b\u043e\u0432\u0430\u043a\u0438\u044f","name:right:ky":"\u0421\u043b\u043e\u0432\u0430\u043a\u0438\u044f","name:left:zh-min-nan":"Ukrayina","name:right:tg":"\u0421\u043b\u043e\u0432\u0430\u043a\u0438\u044f","name:left:is":"\u00dakra\u00edna","name:right:ta":"\u0b9a\u0bbf\u0bb2\u0bcb\u0bb5\u0bbe\u0b95\u0bcd\u0b95\u0bbf\u0baf\u0bbe","name:right:de":"Slowakei","name:right:da":"Slovakiet","name:right:dv":"\u0790\u07aa\u078d\u07ae\u0788\u07a7\u0786\u07a8\u0787\u07a7","name:right:ht":"Slovaki"},"arcs":[1]},{"type":"LineString","properties":{"name:right:yo":"Slof\u00e1k\u00ed\u00e0","name:right:yi":"\u05e1\u05dc\u05d0\u05d5\u05d5\u05d0\u05e7\u05d9\u05d9","name:left:la":"Polonia","name:right:qu":"Isluwakya","name:left:li":"Pole","name:left:vi":"Ba Lan","name:left:sw":"Poland","name:left:kg":"Pologne","name:left:ka":"\u10de\u10dd\u10da\u10dd\u10dc\u10d4\u10d7\u10d8","name:left:km":"\u1794\u17d2\u179a\u1791\u17c1\u179f\u1794\u17c9\u17bc\u17a1\u17bc\u1789","name:left:kl":"Poleni","name:left:ko":"\ud3f4\ub780\ub4dc","name:left:kn":"\u0caa\u0ccb\u0cb2\u0cc6\u0c82\u0ca1\u0ccd","name:left:rn":"Polonia","name:left:ro":"Polonia","name:left:kk":"\u041f\u043e\u043b\u044c\u0448\u0430","name:left:rm":"Pologna","name:left:ku":"Polonya","name:left:kw":"Poloni","name:left:kv":"\u041f\u043e\u043b\u044c\u0448\u0430","name:right:ro":"Slovacia","name:left:ru":"\u041f\u043e\u043b\u044c\u0448\u0430","name:right:ie":"Slovacia","name:right:id":"Slowakia","name:left:ky":"\u041f\u043e\u043b\u044c\u0448\u0430","name:right:ia":"Slovachia","name:right:bi":"Slovakia","name:right:bn":"\u09b8\u09cd\u09b2\u09cb\u09ad\u09be\u0995\u09bf\u09af\u09bc\u09be","name:right:bo":"\u0f66\u0f72\u0f0b\u0f63\u0f7c\u0f0b\u0f55\u0f0b\u0f41\u0f7a\u0f0d","name:left:sl":"Poljska","name:right:ba":"\u0421\u043b\u043e\u0432\u0430\u043a\u0438\u044f","name:right:bg":"\u0421\u043b\u043e\u0432\u0430\u043a\u0438\u044f","name:right:be":"\u0421\u043b\u0430\u0432\u0430\u043a\u0456\u044f","name:right:br":"Slovakia","name:left:lt":"Lenkija","name:right:nn":"Slovakia","name:right:no":"Slovakia","name:right:nl":"Slowakije","name:left:lv":"Polija","name:right:wo":"Eslowaaki","name:right:ne":"\u0938\u094d\u0932\u094b\u092d\u093e\u0915\u093f\u092f\u093e","name:right:na":"Slowakia","name:right:gv":"Yn Clovack","name:right:nv":"S\u0142\u00f3ba\u02bc Bik\u00e9yah","name:left:mg":"Polonia","kind_detail":"2","name:left:tr":"Polonya","name:right:gu":"\u0ab8\u0acd\u0ab2\u0acb\u0ab5\u0abe\u0a95\u0abf\u0aaf\u0abe","name:right:ps":"\u0633\u0644\u0648\u0627\u06a9\u064a\u0627","name:right:pt":"Eslov\u00e1quia","name:left:mk":"\u041f\u043e\u043b\u0441\u043a\u0430","name:left:mi":"P\u014drana","name:left:tt":"\u041f\u043e\u043b\u044c\u0448\u0430","name:left:mn":"\u041f\u043e\u043b\u044c\u0448","name:left:ml":"\u0d2a\u0d4b\u0d33\u0d23\u0d4d\u0d1f\u0d4d","name:left:th":"\u0e1b\u0e23\u0e30\u0e40\u0e17\u0e28\u0e42\u0e1b\u0e41\u0e25\u0e19\u0e14\u0e4c","name:left:mr":"\u092a\u094b\u0932\u0902\u0921","name:left:tk":"Pol\u015fa","name:left:tl":"Polonya","name:left:mt":"Polonja","name:left:ta":"\u0baa\u0bcb\u0bb2\u0ba8\u0bcd\u0ba4\u0bc1","name:left:my":"\u1015\u102d\u102f\u101c\u1014\u103a\u1014\u102d\u102f\u1004\u103a\u1004\u1036","name:right:gn":"Elovakia","name:right:pl":"S\u0142owacja","name:left:te":"\u0c2a\u0c4b\u0c32\u0c3e\u0c02\u0c21\u0c4d","name:left:tg":"\u041b\u0430\u04b3\u0438\u0441\u0442\u043e\u043d","name:left:ms":"Poland","name:right:gd":"An t-Sl\u00f2bhac","name:right:tr":"Slovakya","name:left:da":"Polen","name:left:de":"Polen","name:right:ga":"An tSl\u00f3vaic","name:left:dv":"\u0795\u07ae\u078d\u07ac\u0782\u07b0\u0791\u07aa","name:right:ug":"\u0633\u0644\u0648\u06cb\u0627\u0643\u0649\u064a\u06d5","name:left:hi":"\u092a\u094b\u0932\u0948\u0902\u0921","name:right:lb":"Slowakei","name:right:uk":"\u0421\u043b\u043e\u0432\u0430\u0447\u0447\u0438\u043d\u0430","name:left:he":"\u05e4\u05d5\u05dc\u05d9\u05df","name:right:ln":"Slovakia","name:left:ha":"Poland","name:right:lt":"Slovakija","name:right:ur":"\u0633\u0644\u0648\u0648\u0627\u06a9\u06cc\u06c1","name:right:lv":"Slov\u0101kija","name:left:hy":"\u053c\u0565\u0570\u0561\u057d\u057f\u0561\u0576","name:right:gl":"Eslovaquia","name:left:ht":"Pol\u00f2y","name:left:hu":"Lengyelorsz\u00e1g","name:left:hr":"Poljska","sort_rank":262,"name:right:os":"\u0421\u043b\u043e\u0432\u0430\u043a\u0438","name:right:es":"Eslovaquia","name:right:sr":"\u0421\u043b\u043e\u0432\u0430\u0447\u043a\u0430","name:right:eu":"Eslovakia","name:right:et":"Slovakkia","name:left:os":"\u041f\u043e\u043b\u044c\u0448\u00e6","name:left:or":"\u0b2a\u0b4b\u0b32\u0b3e\u0b23\u0b4d\u0b21","name:right:ee":"Slovakia","name:left:vo":"Pol\u00e4n","name:left:oc":"Polonha","name:right:eo":"Slovakujo","name:right:en":"Slovakia","name:right:el":"\u03a3\u03bb\u03bf\u03b2\u03b1\u03ba\u03af\u03b1","name:left:ff":"Poloonya","name:left:fa":"\u0644\u0647\u0633\u062a\u0627\u0646","name:left:fo":"P\u00f3lland","name:left:fi":"Puola","name:left:fr":"Pologne","name:left:fy":"Poalen","name:right:ja":"\u30b9\u30ed\u30d0\u30ad\u30a2","name:right:sq":"Sllovakia","name:right:ss":"Silovakhi","name:left:ja":"\u30dd\u30fc\u30e9\u30f3\u30c9","name:right:su":"Slovakia","name:right:st":"Slovakia","name:right:sw":"Slovakia","name:right:sv":"Slovakien","name:right:sh":"Slova\u010dka","name:left:qu":"Pulunya","name:right:jv":"Slowakia","name:right:sl":"Slova\u0161ka","name:right:so":"Islofaakiya","name:right:sa":"\u0938\u094d\u0932\u094b\u0935\u093e\u0915\u093f\u092f\u093e","name:left:jv":"Polandia","id":-49715,"name:right:co":"Sluvacchia","name:right:ca":"Eslov\u00e0quia","name:right:se":"Slovakia","name:right:ce":"\u0421\u043b\u043e\u0432\u0430\u043a\u0438","name:right:cy":"Slofacia","name:right:zh-yue":"\u65af\u6d1b\u4f10\u514b","name:right:cu":"\u0421\u043b\u043e\u0432\u0463\u043d\u044c\u0441\u043a\u043e","name:right:cv":"\u0421\u043b\u043e\u0432\u0430\u043a\u0438","name:right:it":"Slovacchia","name:left:ar":"\u0628\u0648\u0644\u0646\u062f\u0627","name:right:is":"Sl\u00f3vak\u00eda","name:left:az":"Pol\u015fa","name:left:ay":"Pulu\u00f1a","name:right:rw":"Silovakiya","name:left:af":"Pole","name:left:ab":"\u041f\u043e\u043b\u0448\u0430","name:left:an":"Polonia","name:left:am":"\u1356\u120b\u1295\u12f5","name:right:ru":"\u0421\u043b\u043e\u0432\u0430\u043a\u0438\u044f","name:left:ak":"Poland","name:right:io":"Slovakia","name:left:zh-yue":"\u6ce2\u862d","name:left:rw":"Polonye","name:right:hy":"\u054d\u056c\u0578\u057e\u0561\u056f\u056b\u0561","name:left:lb":"Polen","alt_name:left:eo":"Pollando;Polio","name:left:lg":"Bupoolo","name:left:su":"Polandia","name:left:st":"Poland","name:right:hr":"Slova\u010dka","name:left:sv":"Polen","name:left:sq":"Polonia","name:right:hu":"Szlov\u00e1kia","name:left:ss":"IPholandi","name:left:sr":"\u041f\u043e\u0459\u0441\u043a\u0430","name:left:sm":"Polagi","name:right:hi":"\u0938\u094d\u0932\u094b\u0935\u093e\u0915\u093f\u092f\u093e","name:left:so":"Boland","name:left:si":"\u0db4\u0ddd\u0dbd\u0db1\u0dca\u0dad\u0dba","name:left:sh":"Poljska","name:left:sk":"Po\u013esko","name:left:sg":"P\u00f6l\u00f4ni","name:left:sa":"\u092a\u094b\u0932\u0948\u0902\u0921","name:right:he":"\u05e1\u05dc\u05d5\u05d1\u05e7\u05d9\u05d4","name:left:sc":"Polonia","name:right:la":"Slovacia","name:right:af":"Slowakye","name:left:co":"Polonia","name:left:ce":"\u041f\u043e\u043b\u044c\u0448\u0430","name:right:an":"Eslovaquia","name:right:am":"\u1235\u120e\u126b\u12aa\u12eb","name:left:ca":"Pol\u00f2nia","source":"openstreetmap.org","name:left:cy":"Gwlad Pwyl","name:right:ar":"\u0633\u0644\u0648\u0641\u0627\u0643\u064a\u0627","name:left:cu":"\u041f\u043e\u043b\u0484\u044c\u0441\u043a\u0430","name:left:cv":"\u041f\u043e\u043b\u044c\u0448\u0430","name:right:az":"Slovakiya","name:left:cs":"Polsko","name:right:li":"Slowakie\u00eb","name:right:rm":"Slovachia","name":"Polska - Slovensko","name:right:zu":"ISlovaki","name:left:zu":"IPolandi","name:left:zh":"\u6ce2\u5170","name:right:zh":"\u65af\u6d1b\u4f10\u514b","official_name:left":"Rzeczpospolita Polska","name:left:uz":"Polsha","name:right:fr":"Slovaquie","name:left:ps":"\u067e\u0648\u0644\u0646\u0689","name:left:nv":"P\u00f3olish Dine\u02bc\u00e9 Bik\u00e9yah","name:left:ur":"\u067e\u0648\u0644\u06cc\u0646\u0688","id:right":-14296,"name:left:uk":"\u041f\u043e\u043b\u044c\u0449\u0430","name:left:no":"Polen","name:left:nl":"Polen","alt_name:right:eo":"Slovakio","name:right:fa":"\u0627\u0633\u0644\u0648\u0627\u06a9\u06cc","name:right:fo":"Slovakia","name:left:ne":"\u092a\u094b\u0932\u094d\u092f\u093e\u0923\u094d\u0921","name:left:ug":"\u067e\u0648\u0644\u0634\u0627","name:left:na":"Poran","name:left:eo":"Polujo","name:left:en":"Poland","name:left:el":"\u03a0\u03bf\u03bb\u03c9\u03bd\u03af\u03b1","name:left:ee":"Poland","name:left:ig":"Poland","name:left:es":"Polonia","name:left:ie":"Polonia","name:left:eu":"Polonia","name:left:et":"Poola","name:right:oc":"Eslovaquia","name:left:ia":"Polonia","name:right:bs":"Slova\u010dka","name:right:uz":"Slovakiya","osm_relation":true,"name:right:or":"\u0b38\u0b4d\u0b32\u0b4b\u0b2d\u0b3e\u0b15\u0b3f\u0b06","name:left:pt":"Pol\u00f3nia","name:right:ku":"Slovakya","name:right:tk":"Slowaki\u00fda","name:left:wa":"Pologne","min_zoom":8.0,"name:left:ln":"Poloni","name:left:wo":"Polo\u00f1","name:left:ga":"An Pholainn","short_name:left":"RP","name:left:it":"Polonia","name:left:gd":"A' Ph\u00f2lainn","name:left:gl":"Polonia","name:left:gn":"Polo\u00f1a","name:left:gu":"\u0aaa\u0acb\u0ab2\u0ac7\u0a82\u0aa1","name:left:gv":"Yn Pholynn","official_name:right":"Slovensk\u00e1 republika","name:left":"Polska","name:right:mk":"\u0421\u043b\u043e\u0432\u0430\u0447\u043a\u0430","name:right:mi":"Horow\u0101kia","name:right:mn":"\u0421\u043b\u043e\u0432\u0430\u043a","name:right:ml":"\u0d38\u0d4d\u0d32\u0d4b\u0d35\u0d3e\u0d15\u0d4d\u0d2f","name:right:vo":"Slovakiy\u00e4n","name:right:vi":"Slovakia","name:right:my":"\u1006\u101c\u102d\u102f\u1017\u102c\u1038\u1000\u102e\u1038\u101a\u102c\u1038\u1014\u102d\u102f\u1004\u103a\u1004\u1036","name:right:ms":"Slovakia","name:right:mr":"\u0938\u094d\u0932\u094b\u0935\u094d\u0939\u093e\u0915\u093f\u092f\u093e","name:right:fy":"Slowakije","name:right:mt":"Slovakkja","name:left:nn":"Polen","kind":"country","name:left:br":"Polonia","name:left:bs":"Poljska","name:left:ba":"\u041f\u043e\u043b\u044c\u0448\u0430","name:left:bg":"\u041f\u043e\u043b\u0448\u0430","name:left:be":"\u041f\u043e\u043b\u044c\u0448\u0447\u0430","name:left:bi":"Poland","name:left:bn":"\u09aa\u09cb\u09b2\u09cd\u09af\u09be\u09a8\u09cd\u09a1","name:left:bo":"\u0f55\u0f7c\u0f0b\u0f63\u0f53\u0f0d","name:right":"Slovensko","name:left:yo":"Polandi","name:left:yi":"\u05e4\u05d5\u05d9\u05dc\u05df","id:left":-49715,"name:right:fi":"Slovakia","name:right:ka":"\u10e1\u10da\u10dd\u10d5\u10d0\u10d9\u10d4\u10d7\u10d8","name:left:io":"Polonia","name:left:pa":"\u0a2a\u0a4b\u0a32\u0a48\u0a02\u0a21","name:right:kg":"Slovakia","name:right:tt":"\u0421\u043b\u043e\u0432\u0430\u043a\u0438\u044f","name:right:kk":"\u0421\u043b\u043e\u0432\u0430\u043a\u0438\u044f","name:left:id":"Polandia","name:right:kl":"Slovakia","name:right:ko":"\uc2ac\ub85c\ubc14\ud0a4\uc544","name:right:tl":"Eslobakya","name:right:th":"\u0e1b\u0e23\u0e30\u0e40\u0e17\u0e28\u0e2a\u0e42\u0e25\u0e27\u0e32\u0e40\u0e01\u0e35\u0e22","name:right:kw":"Slovaki","name:right:kv":"\u0421\u043b\u043e\u0432\u0430\u043a\u0438\u044f","name:right:ky":"\u0421\u043b\u043e\u0432\u0430\u043a\u0438\u044f","name:left:iu":"\u1433\u14da\u14d0\u1466","name:right:tg":"\u0421\u043b\u043e\u0432\u0430\u043a\u0438\u044f","name:left:is":"P\u00f3lland","name:right:ta":"\u0b9a\u0bbf\u0bb2\u0bcb\u0bb5\u0bbe\u0b95\u0bcd\u0b95\u0bbf\u0baf\u0bbe","name:right:de":"Slowakei","name:right:da":"Slovakiet","name:right:dv":"\u0790\u07aa\u078d\u07ae\u0788\u07a7\u0786\u07a8\u0787\u07a7","name:right:ht":"Slovaki"},"arcs":[2]},{"type":"LineString","properties":{"name:right:nl":"Woiwodschap Subkarpaten","name:right:ja":"\u30dd\u30c8\u30ab\u30eb\u30d1\u30c1\u30a7\u770c","name:right:fr":"Basses-Carpates","name:right:uk":"\u041f\u0456\u0434\u043a\u0430\u0440\u043f\u0430\u0442\u0441\u044c\u043a\u0435 \u0432\u043e\u0454\u0432\u043e\u0434\u0441\u0442\u0432\u043e","id:right":-130957,"name:right:lt":"Pakarpat\u0117s vaivadija","min_zoom":8.0,"name:right:sl":"Podkarpatsko vojvodstvo","name:left:hu":"Eperjesi ker\u00fclet","id":-388271,"name:right":"wojew\u00f3dztwo podkarpackie","name:left:en":"Region of Pre\u0161ov","sort_rank":256,"kind_detail":"4","source":"openstreetmap.org","id:left":-388271,"name:right:cs":"Podkarpatsk\u00e9 vojvodstv\u00ed","name:left":"Pre\u0161ovsk\u00fd kraj","name:right:es":"Voivodato de Subcarpacia","name:left:pl":"Kraj preszowski","kind":"region","name:right:ru":"\u041f\u043e\u0434\u043a\u0430\u0440\u043f\u0430\u0442\u0441\u043a\u043e\u0435 \u0432\u043e\u0435\u0432\u043e\u0434\u0441\u0442\u0432\u043e","name:left:ru":"\u041f\u0440\u0435\u0448\u043e\u0432\u0441\u043a\u0438\u0439 \u043a\u0440\u0430\u0439","short_name:right":"podkarpackie","name:right:eo":"\u0108ekarpata Provinco","name:right:en":"Subcarpathian Voivodeship","osm_relation":true,"loc_name:right":"Podkarpacie","name":"Pre\u0161ovsk\u00fd kraj - wojew\u00f3dztwo podkarpackie","name:right:de":"Woiwodschaft Karpatenvorland","name:left:de":"Eperieser Landschaftsverband","name:right:be":"\u041f\u0430\u0434\u043a\u0430\u0440\u043f\u0430\u0446\u043a\u0430\u0435 \u0432\u0430\u044f\u0432\u043e\u0434\u0441\u0442\u0432\u0430"},"arcs":[3]},{"type":"LineString","properties":{"name:right:nn":"Zakarpattja oblast","name:right:hy":"\u0531\u0576\u0564\u0580\u056f\u0561\u0580\u057a\u0561\u057f\u0575\u0561\u0576 \u0574\u0561\u0580\u0566","name:right:nl":"Oblast Transkarpati\u00eb","name:right:ja":"\u30b6\u30ab\u30eb\u30d1\u30c3\u30c1\u30e3\u5dde","name:right:fr":"Oblast de Transcarpatie","name:right:la":"Ruthenia Subcarpathanea","name:right:no":"Zakarpattja oblast","name:right:hr":"Zakarpatska oblast","name:right:sr":"\u0417\u0430\u043a\u0430\u0440\u043f\u0430\u0442\u0441\u043a\u0430 \u043e\u0431\u043b\u0430\u0441\u0442","name:right:hu":"K\u00e1rp\u00e1talja","name:right:sv":"Zakarpatska oblast","name:right:lt":"U\u017ekarpat\u0117s sritis","name:right:lv":"Aizkarpatu apgabals","name:left:hu":"Eperjesi ker\u00fclet","name:right:uz":"Zakarpatye viloyati","name:right:he":"\u05d6\u05e7\u05e8\u05e4\u05d8\u05d9\u05d4","name:right":"\u0417\u0430\u043a\u0430\u0440\u043f\u0430\u0442\u0441\u044c\u043a\u0430 \u043e\u0431\u043b\u0430\u0441\u0442\u044c","name:left:en":"Region of Pre\u0161ov","name:right:ca":"Transcarp\u00e0cia","name:right:pl":"Obw\u00f3d zakarpacki","name:right:sk":"Zakarpatsk\u00e1 oblas\u0165","id":-388271,"source":"openstreetmap.org","name:right:ar":"\u0632\u0627\u0643\u0627\u0631\u0628\u0627\u062a\u064a\u0627 \u0623\u0648\u0628\u0644\u0627\u0633\u062a","id:left":-388271,"name:right:cs":"Zakarpatsk\u00e1 oblast","name:right:fi":"Taka-Karpatian alue","id:right":-72489,"name:left":"Pre\u0161ovsk\u00fd kraj","name:right:ka":"\u10e2\u10e0\u10d0\u10dc\u10e1\u10d9\u10d0\u10e0\u10de\u10d0\u10e2\u10d8\u10d8\u10e1 \u10dd\u10da\u10e5\u10d8","name:right:zh-min-nan":"Zakarpattya s\u00e9ng","name:right:pt":"Oblast da Transcarp\u00e1tia","name:right:eu":"Transkarpatiako oblasta","name:right:et":"Taga-Karpaatia","name:left:pl":"Kraj preszowski","name:right:it":"Oblast' di Transcarpazia","name:right:tr":"Zakarpatya Oblast\u0131","name:right:ru":"\u0417\u0430\u043a\u0430\u0440\u043f\u0430\u0442\u0441\u043a\u0430\u044f \u043e\u0431\u043b\u0430\u0441\u0442\u044c","name:right:es":"\u00d3blast de Zakarpatia","name:right:ko":"\uc790\uce74\ub974\ud30c\ud0f8 \uc8fc","name:left:ru":"\u041f\u0440\u0435\u0448\u043e\u0432\u0441\u043a\u0438\u0439 \u043a\u0440\u0430\u0439","name:right:mr":"\u091d\u093e\u0915\u093e\u0930\u092a\u0924\u094d\u0924\u093f\u092f\u093e \u0913\u092c\u094d\u0932\u093e\u0938\u094d\u0924","min_zoom":8.0,"name:right:id":"Oblast Zakarpattia","name:right:eo":"Transkarpata provinco","name:right:en":"Zakarpattia Oblast","name:right:os":"\u0424\u00e6\u0441\u043a\u0430\u0440\u043f\u0430\u0442\u044b \u043e\u0431\u043b\u00e6\u0441\u0442","kind":"region","name":"Pre\u0161ovsk\u00fd kraj - \u0417\u0430\u043a\u0430\u0440\u043f\u0430\u0442\u0441\u044c\u043a\u0430 \u043e\u0431\u043b\u0430\u0441\u0442\u044c","name:right:de":"Oblast Transkarpatien","name:right:mk":"\u0417\u0430\u043a\u0430\u0440\u043f\u0430\u0442\u0441\u043a\u0430 \u043e\u0431\u043b\u0430\u0441\u0442","name:left:de":"Eperieser Landschaftsverband","osm_relation":true,"name:right:be":"\u0417\u0430\u043a\u0430\u0440\u043f\u0430\u0446\u043a\u0430\u044f \u0432\u043e\u0431\u043b\u0430\u0441\u0446\u044c","sort_rank":256,"name:right:bg":"\u0417\u0430\u043a\u0430\u0440\u043f\u0430\u0442\u0441\u043a\u0430 \u043e\u0431\u043b\u0430\u0441\u0442","kind_detail":"4","name:right:bs":"Zakarpatska oblast","name:right:zh":"\u5916\u5580\u723e\u5df4\u9621\u5dde","name:right:ro":"Regiunea Transcarpatia"},"arcs":[4]},{"type":"LineString","properties":{"name:right:hy":"\u0531\u0576\u0564\u0580\u056f\u0561\u0580\u057a\u0561\u057f\u0575\u0561\u0576 \u0574\u0561\u0580\u0566","name:right:la":"Ruthenia Subcarpathanea","name:right:no":"Zakarpattja oblast","name:right:hr":"Zakarpatska oblast","name:right:hu":"K\u00e1rp\u00e1talja","name:right:lt":"U\u017ekarpat\u0117s sritis","name:left:sl":"Podkarpatsko vojvodstvo","name:right:lv":"Aizkarpatu apgabals","name:left:lt":"Pakarpat\u0117s vaivadija","name:right:uz":"Zakarpatye viloyati","name:right:he":"\u05d6\u05e7\u05e8\u05e4\u05d8\u05d9\u05d4","name:right:os":"\u0424\u00e6\u0441\u043a\u0430\u0440\u043f\u0430\u0442\u044b \u043e\u0431\u043b\u00e6\u0441\u0442","short_name:left":"podkarpackie","sort_rank":256,"name:right:sk":"Zakarpatsk\u00e1 oblas\u0165","source":"openstreetmap.org","name:right:ar":"\u0632\u0627\u0643\u0627\u0631\u0628\u0627\u062a\u064a\u0627 \u0623\u0648\u0628\u0644\u0627\u0633\u062a","loc_name:left":"Podkarpacie","name:left:cs":"Podkarpatsk\u00e9 vojvodstv\u00ed","name:left":"wojew\u00f3dztwo podkarpackie","name:right:mk":"\u0417\u0430\u043a\u0430\u0440\u043f\u0430\u0442\u0441\u043a\u0430 \u043e\u0431\u043b\u0430\u0441\u0442","name:left:ja":"\u30dd\u30c8\u30ab\u30eb\u30d1\u30c1\u30a7\u770c","name:right:eu":"Transkarpatiako oblasta","name:right:et":"Taga-Karpaatia","name:right:it":"Oblast' di Transcarpazia","name:right:ru":"\u0417\u0430\u043a\u0430\u0440\u043f\u0430\u0442\u0441\u043a\u0430\u044f \u043e\u0431\u043b\u0430\u0441\u0442\u044c","name:right:ro":"Regiunea Transcarpatia","name:left:ru":"\u041f\u043e\u0434\u043a\u0430\u0440\u043f\u0430\u0442\u0441\u043a\u043e\u0435 \u0432\u043e\u0435\u0432\u043e\u0434\u0441\u0442\u0432\u043e","name:right:mr":"\u091d\u093e\u0915\u093e\u0930\u092a\u0924\u094d\u0924\u093f\u092f\u093e \u0913\u092c\u094d\u0932\u093e\u0938\u094d\u0924","name:right:id":"Oblast Zakarpattia","name:right:eo":"Transkarpata provinco","name:right:en":"Zakarpattia Oblast","kind":"region","name":"wojew\u00f3dztwo podkarpackie - \u0417\u0430\u043a\u0430\u0440\u043f\u0430\u0442\u0441\u044c\u043a\u0430 \u043e\u0431\u043b\u0430\u0441\u0442\u044c","min_zoom":8.0,"name:right:be":"\u0417\u0430\u043a\u0430\u0440\u043f\u0430\u0446\u043a\u0430\u044f \u0432\u043e\u0431\u043b\u0430\u0441\u0446\u044c","name:left:fr":"Basses-Carpates","name:right:bs":"Zakarpatska oblast","name:right:zh":"\u5916\u5580\u723e\u5df4\u9621\u5dde","name:right:nn":"Zakarpattja oblast","name:right:es":"\u00d3blast de Zakarpatia","name:right:nl":"Oblast Transkarpati\u00eb","name:right:ja":"\u30b6\u30ab\u30eb\u30d1\u30c3\u30c1\u30e3\u5dde","name:right:fr":"Oblast de Transcarpatie","name:right:sr":"\u0417\u0430\u043a\u0430\u0440\u043f\u0430\u0442\u0441\u043a\u0430 \u043e\u0431\u043b\u0430\u0441\u0442","id:right":-72489,"name:left:uk":"\u041f\u0456\u0434\u043a\u0430\u0440\u043f\u0430\u0442\u0441\u044c\u043a\u0435 \u0432\u043e\u0454\u0432\u043e\u0434\u0441\u0442\u0432\u043e","name:left:nl":"Woiwodschap Subkarpaten","name:left:be":"\u041f\u0430\u0434\u043a\u0430\u0440\u043f\u0430\u0446\u043a\u0430\u0435 \u0432\u0430\u044f\u0432\u043e\u0434\u0441\u0442\u0432\u0430","id":-130957,"name:right":"\u0417\u0430\u043a\u0430\u0440\u043f\u0430\u0442\u0441\u044c\u043a\u0430 \u043e\u0431\u043b\u0430\u0441\u0442\u044c","name:left:eo":"\u0108ekarpata Provinco","name:left:en":"Subcarpathian Voivodeship","name:right:ca":"Transcarp\u00e0cia","kind_detail":"4","id:left":-130957,"name:left:es":"Voivodato de Subcarpacia","name:right:cs":"Zakarpatsk\u00e1 oblast","name:right:fi":"Taka-Karpatian alue","name:right:ka":"\u10e2\u10e0\u10d0\u10dc\u10e1\u10d9\u10d0\u10e0\u10de\u10d0\u10e2\u10d8\u10d8\u10e1 \u10dd\u10da\u10e5\u10d8","name:right:zh-min-nan":"Zakarpattya s\u00e9ng","name:right:pt":"Oblast da Transcarp\u00e1tia","name:right:tr":"Zakarpatya Oblast\u0131","name:right:bg":"\u0417\u0430\u043a\u0430\u0440\u043f\u0430\u0442\u0441\u043a\u0430 \u043e\u0431\u043b\u0430\u0441\u0442","name:right:sv":"Zakarpatska oblast","name:right:ko":"\uc790\uce74\ub974\ud30c\ud0f8 \uc8fc","name:right:pl":"Obw\u00f3d zakarpacki","osm_relation":true,"name:right:de":"Oblast Transkarpatien","name:left:de":"Woiwodschaft Karpatenvorland"},"arcs":[5]},{"type":"LineString","properties":{"name:right:hy":"\u053c\u057e\u0578\u057e\u056b \u0574\u0561\u0580\u0566","name:right:no":"Lviv oblast","name:right:hr":"Ljvivska oblast","name:right:hu":"Lvivi ter\u00fclet","name:right:lt":"Lvovo sritis","name:left:sl":"Podkarpatsko vojvodstvo","name:right:lv":"\u013bvovas apgabals","name:left:lt":"Pakarpat\u0117s vaivadija","loc_name:left":"Podkarpacie","name:right:he":"\u05de\u05d7\u05d5\u05d6 \u05dc\u05d1\u05d5\u05d1","name:right:os":"\u041b\u044c\u0432\u043e\u0432\u044b \u043e\u0431\u043b\u00e6\u0441\u0442","short_name:left":"podkarpackie","sort_rank":256,"name:right:sk":"\u013dvovsk\u00e1 oblas\u0165","source":"openstreetmap.org","name:right:ar":"\u0644\u0641\u064a\u0641 \u0623\u0648\u0628\u0644\u0627\u0633\u062a","name:right:az":"Lvov vilay\u0259ti","name:left:cs":"Podkarpatsk\u00e9 vojvodstv\u00ed","name:left":"wojew\u00f3dztwo podkarpackie","name:right:mk":"\u041b\u0430\u0432\u043e\u0432\u0441\u043a\u0430 \u043e\u0431\u043b\u0430\u0441\u0442","name:left:ja":"\u30dd\u30c8\u30ab\u30eb\u30d1\u30c1\u30a7\u770c","name:right:eu":"Lviveko oblasta","name:right:et":"Lvivi oblast","name:right:it":"Oblast' di Leopoli","name:right:vi":"Lviv (t\u1ec9nh)","name:right:ro":"Regiunea Liov","name:left:ru":"\u041f\u043e\u0434\u043a\u0430\u0440\u043f\u0430\u0442\u0441\u043a\u043e\u0435 \u0432\u043e\u0435\u0432\u043e\u0434\u0441\u0442\u0432\u043e","name:right:ms":"Oblast Lviv","name:right:mr":"\u0932\u093f\u0935\u094d\u0939\u093f\u0935 \u0913\u092c\u094d\u0932\u093e\u0938\u094d\u0924","name:right:id":"Oblast Lviv","name:right:eo":"Lviva provinco","name:right:en":"Lviv Oblast","kind":"region","name":"wojew\u00f3dztwo podkarpackie - \u041b\u044c\u0432\u0456\u0432\u0441\u044c\u043a\u0430 \u043e\u0431\u043b\u0430\u0441\u0442\u044c","min_zoom":8.0,"name:right:be":"\u041b\u044c\u0432\u043e\u045e\u0441\u043a\u0430\u044f \u0432\u043e\u0431\u043b\u0430\u0441\u0446\u044c","name:left:fr":"Basses-Carpates","name:right:zh":"\u5229\u6c83\u592b\u5dde","name:right:nn":"Lviv oblast","name:right:es":"\u00d3blast de Le\u00f3polis","name:right:nl":"Oblast Lviv","name:right:ja":"\u30ea\u30f4\u30a3\u30a6\u5dde","name:right:fr":"Oblast de Lviv","name:right:sr":"\u041b\u0430\u0432\u043e\u0432\u0441\u043a\u0430 \u043e\u0431\u043b\u0430\u0441\u0442","id:right":-72380,"name:left:uk":"\u041f\u0456\u0434\u043a\u0430\u0440\u043f\u0430\u0442\u0441\u044c\u043a\u0435 \u0432\u043e\u0454\u0432\u043e\u0434\u0441\u0442\u0432\u043e","name:right:sh":"Lavovska oblast","name:left:nl":"Woiwodschap Subkarpaten","name:left:be":"\u041f\u0430\u0434\u043a\u0430\u0440\u043f\u0430\u0446\u043a\u0430\u0435 \u0432\u0430\u044f\u0432\u043e\u0434\u0441\u0442\u0432\u0430","name:right:fa":"\u0627\u0633\u062a\u0627\u0646 \u0644\u0648\u0648\u0641","id":-130957,"name:right":"\u041b\u044c\u0432\u0456\u0432\u0441\u044c\u043a\u0430 \u043e\u0431\u043b\u0430\u0441\u0442\u044c","name:left:eo":"\u0108ekarpata Provinco","name:left:en":"Subcarpathian Voivodeship","name:right:ca":"Prov\u00edncia de Lviv","kind_detail":"4","id:left":-130957,"name:left:es":"Voivodato de Subcarpacia","name:right:cs":"Lvovsk\u00e1 oblast","name:right:fi":"Lvivin alue","name:right:cv":"\u041b\u044c\u0432\u043e\u0432 \u043e\u0431\u043b\u0430\u00e7\u0115","name:right:ka":"\u10da\u10d5\u10dd\u10d5\u10d8\u10e1 \u10dd\u10da\u10e5\u10d8","name:right:zh-min-nan":"Lviv s\u00e9ng","name:right:pt":"Oblast de Lviv","name:right:ko":"\ub9ac\ube44\uc6b0 \uc8fc","name:right:bg":"\u041b\u0432\u043e\u0432\u0441\u043a\u0430 \u043e\u0431\u043b\u0430\u0441\u0442","name:right:sv":"Lviv oblast","name:right:tr":"Lviv Oblast\u0131","name:right:ru":"\u041b\u044c\u0432\u043e\u0432\u0441\u043a\u0430\u044f \u043e\u0431\u043b\u0430\u0441\u0442\u044c","name:right:pl":"Obw\u00f3d lwowski","osm_relation":true,"name:right:de":"Oblast Lemberg","name:left:de":"Woiwodschaft Karpatenvorland"},"arcs":[6]},{"type":"LineString","properties":{"name:left:la":"Ruthenia Subcarpathanea","name:right:hy":"\u053c\u057e\u0578\u057e\u056b \u0574\u0561\u0580\u0566","name:left:he":"\u05d6\u05e7\u05e8\u05e4\u05d8\u05d9\u05d4","name:right:hr":"Ljvivska oblast","name:left:sv":"Zakarpatska oblast","name:right:hu":"Lvivi ter\u00fclet","name:left:sr":"\u0417\u0430\u043a\u0430\u0440\u043f\u0430\u0442\u0441\u043a\u0430 \u043e\u0431\u043b\u0430\u0441\u0442","name:right:lt":"Lvovo sritis","name:right:lv":"\u013bvovas apgabals","name:left:lt":"U\u017ekarpat\u0117s sritis","name:left:hy":"\u0531\u0576\u0564\u0580\u056f\u0561\u0580\u057a\u0561\u057f\u0575\u0561\u0576 \u0574\u0561\u0580\u0566","name:left:sk":"Zakarpatsk\u00e1 oblas\u0165","name:left:hu":"K\u00e1rp\u00e1talja","name:right:he":"\u05de\u05d7\u05d5\u05d6 \u05dc\u05d1\u05d5\u05d1","name:left:hr":"Zakarpatska oblast","name:right:os":"\u041b\u044c\u0432\u043e\u0432\u044b \u043e\u0431\u043b\u00e6\u0441\u0442","name:right:vi":"Lviv (t\u1ec9nh)","sort_rank":256,"name:left:ca":"Transcarp\u00e0cia","source":"openstreetmap.org","name:right:ar":"\u0644\u0641\u064a\u0641 \u0623\u0648\u0628\u0644\u0627\u0633\u062a","name:right:az":"Lvov vilay\u0259ti","name:left:cs":"Zakarpatsk\u00e1 oblast","name:left":"\u0417\u0430\u043a\u0430\u0440\u043f\u0430\u0442\u0441\u044c\u043a\u0430 \u043e\u0431\u043b\u0430\u0441\u0442\u044c","name:right:es":"\u00d3blast de Le\u00f3polis","name:right:sr":"\u041b\u0430\u0432\u043e\u0432\u0441\u043a\u0430 \u043e\u0431\u043b\u0430\u0441\u0442","name:left:ka":"\u10e2\u10e0\u10d0\u10dc\u10e1\u10d9\u10d0\u10e0\u10de\u10d0\u10e2\u10d8\u10d8\u10e1 \u10dd\u10da\u10e5\u10d8","name:right:eu":"Lviveko oblasta","name:right:et":"Lvivi oblast","name:right:no":"Lviv oblast","name:left:ko":"\uc790\uce74\ub974\ud30c\ud0f8 \uc8fc","name:right:it":"Oblast' di Leopoli","name:left:ro":"Regiunea Transcarpatia","name:right:ru":"\u041b\u044c\u0432\u043e\u0432\u0441\u043a\u0430\u044f \u043e\u0431\u043b\u0430\u0441\u0442\u044c","name:right:ro":"Regiunea Liov","name:left:ru":"\u0417\u0430\u043a\u0430\u0440\u043f\u0430\u0442\u0441\u043a\u0430\u044f \u043e\u0431\u043b\u0430\u0441\u0442\u044c","name:right:ms":"Oblast Lviv","name:right:mr":"\u0932\u093f\u0935\u094d\u0939\u093f\u0935 \u0913\u092c\u094d\u0932\u093e\u0938\u094d\u0924","name:right:id":"Oblast Lviv","name:right:eo":"Lviva provinco","name:right:en":"Lviv Oblast","kind":"region","name":"\u0417\u0430\u043a\u0430\u0440\u043f\u0430\u0442\u0441\u044c\u043a\u0430 \u043e\u0431\u043b\u0430\u0441\u0442\u044c - \u041b\u044c\u0432\u0456\u0432\u0441\u044c\u043a\u0430 \u043e\u0431\u043b\u0430\u0441\u0442\u044c","name:left:no":"Zakarpattja oblast","name:right:fa":"\u0627\u0633\u062a\u0627\u0646 \u0644\u0648\u0648\u0641","min_zoom":8.0,"name:right:be":"\u041b\u044c\u0432\u043e\u045e\u0441\u043a\u0430\u044f \u0432\u043e\u0431\u043b\u0430\u0441\u0446\u044c","name:left:zh":"\u5916\u5580\u723e\u5df4\u9621\u5dde","name:left:fr":"Oblast de Transcarpatie","name:right:zh":"\u5229\u6c83\u592b\u5dde","name:left:et":"Taga-Karpaatia","name:right:nn":"Lviv oblast","name:left:bs":"Zakarpatska oblast","name:right:nl":"Oblast Lviv","name:right:ja":"\u30ea\u30f4\u30a3\u30a6\u5dde","name:right:fr":"Oblast de Lviv","name:left:lv":"Aizkarpatu apgabals","name:left:ja":"\u30b6\u30ab\u30eb\u30d1\u30c3\u30c1\u30e3\u5dde","id:right":-72380,"name:left:nn":"Zakarpattja oblast","name:right:sh":"Lavovska oblast","name:right:sk":"\u013dvovsk\u00e1 oblas\u0165","name:left:bg":"\u0417\u0430\u043a\u0430\u0440\u043f\u0430\u0442\u0441\u043a\u0430 \u043e\u0431\u043b\u0430\u0441\u0442","name:left:be":"\u0417\u0430\u043a\u0430\u0440\u043f\u0430\u0446\u043a\u0430\u044f \u0432\u043e\u0431\u043b\u0430\u0441\u0446\u044c","name:left:fi":"Taka-Karpatian alue","id":-72489,"name:right:fi":"Lvivin alue","name:left:eo":"Transkarpata provinco","name:left:en":"Zakarpattia Oblast","name:right:ca":"Prov\u00edncia de Lviv","kind_detail":"4","name:left:mk":"\u0417\u0430\u043a\u0430\u0440\u043f\u0430\u0442\u0441\u043a\u0430 \u043e\u0431\u043b\u0430\u0441\u0442","name:left:nl":"Oblast Transkarpati\u00eb","id:left":-72489,"name:left:es":"\u00d3blast de Zakarpatia","name:right:cs":"Lvovsk\u00e1 oblast","name:right":"\u041b\u044c\u0432\u0456\u0432\u0441\u044c\u043a\u0430 \u043e\u0431\u043b\u0430\u0441\u0442\u044c","name:left:os":"\u0424\u00e6\u0441\u043a\u0430\u0440\u043f\u0430\u0442\u044b \u043e\u0431\u043b\u00e6\u0441\u0442","name:left:eu":"Transkarpatiako oblasta","name:right:cv":"\u041b\u044c\u0432\u043e\u0432 \u043e\u0431\u043b\u0430\u00e7\u0115","name:right:mk":"\u041b\u0430\u0432\u043e\u0432\u0441\u043a\u0430 \u043e\u0431\u043b\u0430\u0441\u0442","name:right:zh-min-nan":"Lviv s\u00e9ng","name:right:pt":"Oblast de Lviv","name:left:ar":"\u0632\u0627\u0643\u0627\u0631\u0628\u0627\u062a\u064a\u0627 \u0623\u0648\u0628\u0644\u0627\u0633\u062a","name:left:pl":"Obw\u00f3d zakarpacki","name:left:tr":"Zakarpatya Oblast\u0131","name:left:id":"Oblast Zakarpattia","name:right:tr":"Lviv Oblast\u0131","name:right:bg":"\u041b\u0432\u043e\u0432\u0441\u043a\u0430 \u043e\u0431\u043b\u0430\u0441\u0442","name:left:pt":"Oblast da Transcarp\u00e1tia","name:left:mr":"\u091d\u093e\u0915\u093e\u0930\u092a\u0924\u094d\u0924\u093f\u092f\u093e \u0913\u092c\u094d\u0932\u093e\u0938\u094d\u0924","name:right:sv":"Lviv oblast","name:right:ko":"\ub9ac\ube44\uc6b0 \uc8fc","name:left:zh-min-nan":"Zakarpattya s\u00e9ng","name:left:it":"Oblast' di Transcarpazia","name:right:pl":"Obw\u00f3d lwowski","osm_relation":true,"name:left:uz":"Zakarpatye viloyati","name:right:ka":"\u10da\u10d5\u10dd\u10d5\u10d8\u10e1 \u10dd\u10da\u10e5\u10d8","name:right:de":"Oblast Lemberg","name:left:de":"Oblast Transkarpatien"},"arcs":[7]},{"type":"LineString","properties":{"name:right:hy":"\u053c\u057e\u0578\u057e\u056b \u0574\u0561\u0580\u0566","name:right:no":"Lviv oblast","name:right:hr":"Ljvivska oblast","name:left:sv":"Ivano-Frankivsk oblast","name:right:hu":"Lvivi ter\u00fclet","name:right:lt":"Lvovo sritis","name:right:lv":"\u013bvovas apgabals","name:left:lt":"Ivano Frankivsko sritis","name:left:sh":"Ivano-Frankivska oblast","name:left:sk":"Ivanofrankivsk\u00e1 oblas\u0165","name:left:hu":"Ivano-frankivszki ter\u00fclet","name:right:he":"\u05de\u05d7\u05d5\u05d6 \u05dc\u05d1\u05d5\u05d1","name:left:hr":"Ivano-Frankivska oblast","name:right:os":"\u041b\u044c\u0432\u043e\u0432\u044b \u043e\u0431\u043b\u00e6\u0441\u0442","name:right:vi":"Lviv (t\u1ec9nh)","sort_rank":256,"name:left:ca":"Prov\u00edncia d'Ivano-Frankivsk","source":"openstreetmap.org","name:right:ar":"\u0644\u0641\u064a\u0641 \u0623\u0648\u0628\u0644\u0627\u0633\u062a","name:right:az":"Lvov vilay\u0259ti","name:left:cs":"Ivanofrankivsk\u00e1 oblast","name:left":"\u0406\u0432\u0430\u043d\u043e-\u0424\u0440\u0430\u043d\u043a\u0456\u0432\u0441\u044c\u043a\u0430 \u043e\u0431\u043b\u0430\u0441\u0442\u044c","name:right:es":"\u00d3blast de Le\u00f3polis","name:right:sh":"Lavovska oblast","name:right:sr":"\u041b\u0430\u0432\u043e\u0432\u0441\u043a\u0430 \u043e\u0431\u043b\u0430\u0441\u0442","name:left:ka":"\u10d8\u10d5\u10d0\u10dc\u10dd-\u10e4\u10e0\u10d0\u10dc\u10d9\u10dd\u10d5\u10e1\u10d9\u10d8\u10e1 \u10dd\u10da\u10e5\u10d8","name:right:eu":"Lviveko oblasta","name:right:et":"Lvivi oblast","name:left:ko":"\uc774\ubc14\ub178\ud504\ub780\ud0a4\uc6b0\uc2dc\ud06c \uc8fc","name:right:it":"Oblast' di Leopoli","name:left:ro":"Regiunea Ivano-Frankivsk","name:right:ru":"\u041b\u044c\u0432\u043e\u0432\u0441\u043a\u0430\u044f \u043e\u0431\u043b\u0430\u0441\u0442\u044c","name:right:ro":"Regiunea Liov","name:left:ru":"\u0418\u0432\u0430\u043d\u043e-\u0424\u0440\u0430\u043d\u043a\u043e\u0432\u0441\u043a\u0430\u044f \u043e\u0431\u043b\u0430\u0441\u0442\u044c","name:right:ms":"Oblast Lviv","name:right:mr":"\u0932\u093f\u0935\u094d\u0939\u093f\u0935 \u0913\u092c\u094d\u0932\u093e\u0938\u094d\u0924","name:right:id":"Oblast Lviv","name:right:eo":"Lviva provinco","name:right:en":"Lviv Oblast","name:left:vi":"Ivano-Frankivsk (t\u1ec9nh)","kind":"region","name":"\u0406\u0432\u0430\u043d\u043e-\u0424\u0440\u0430\u043d\u043a\u0456\u0432\u0441\u044c\u043a\u0430 \u043e\u0431\u043b\u0430\u0441\u0442\u044c - \u041b\u044c\u0432\u0456\u0432\u0441\u044c\u043a\u0430 \u043e\u0431\u043b\u0430\u0441\u0442\u044c","name:left:fa":"\u0627\u0633\u062a\u0627\u0646 \u0627\u06cc\u0648\u0627\u0646\u0648 \u0641\u0631\u0627\u0646\u06a9\u06cc\u0633\u0648\u06a9","name:right:fa":"\u0627\u0633\u062a\u0627\u0646 \u0644\u0648\u0648\u0641","min_zoom":8.0,"name:right:be":"\u041b\u044c\u0432\u043e\u045e\u0441\u043a\u0430\u044f \u0432\u043e\u0431\u043b\u0430\u0441\u0446\u044c","name:left:zh":"\u4f0a\u4e07\u8bfa-\u5f17\u5170\u79d1\u592b\u65af\u514b\u5dde","name:left:fr":"Oblast d'Ivano-Frankivsk","name:right:zh":"\u5229\u6c83\u592b\u5dde","name:left:et":"Ivano-Frankivski oblast","name:left:hy":"\u053b\u057e\u0561\u0576\u0578-\u0556\u0580\u0561\u0576\u056f\u0578\u057e\u057d\u056f\u056b \u0574\u0561\u0580\u0566","name:right:nn":"Lviv oblast","name:right:mk":"\u041b\u0430\u0432\u043e\u0432\u0441\u043a\u0430 \u043e\u0431\u043b\u0430\u0441\u0442","name:right:nl":"Oblast Lviv","name:right:ja":"\u30ea\u30f4\u30a3\u30a6\u5dde","name:right:fr":"Oblast de Lviv","name:left:lv":"Ivanofrankivskas apgabals","name:left:ja":"\u30a4\u30f4\u30a1\u30fc\u30ce\uff1d\u30d5\u30e9\u30f3\u30ad\u30fc\u30a6\u30b7\u30af\u5dde","id:right":-72380,"name:left:nn":"Ivano-Frankivsk oblast","name:left:no":"Ivano-Frankivsk oblast","name:right:sk":"\u013dvovsk\u00e1 oblas\u0165","name:left:bg":"\u0418\u0432\u0430\u043d\u043e-\u0424\u0440\u0430\u043d\u043a\u043e\u0432\u0441\u043a\u0430 \u043e\u0431\u043b\u0430\u0441\u0442","name:left:be":"\u0406\u0432\u0430\u043d\u0430-\u0424\u0440\u0430\u043d\u043a\u043e\u045e\u0441\u043a\u0430\u044f \u0432\u043e\u0431\u043b\u0430\u0441\u0446\u044c","name:left:fi":"Ivano-Frankivskin alue","id":-72488,"name:right:fi":"Lvivin alue","name:left:eo":"Ivano-Frankivska provinco","name:left:en":"Ivano-Frankivsk Oblast","name:right:ca":"Prov\u00edncia de Lviv","kind_detail":"4","name:left:mk":"\u0418\u0432\u0430\u043d\u043e-\u0424\u0440\u0430\u043d\u043a\u043e\u0432\u0441\u043a\u0430 \u043e\u0431\u043b\u0430\u0441\u0442","name:left:nl":"Oblast Ivano-Frankivsk","id:left":-72488,"name:left:es":"\u00d3blast de Ivano-Frankivsk","name:right:cs":"Lvovsk\u00e1 oblast","name:right":"\u041b\u044c\u0432\u0456\u0432\u0441\u044c\u043a\u0430 \u043e\u0431\u043b\u0430\u0441\u0442\u044c","name:left:eu":"Ivano-Frankivskeko oblasta","name:right:cv":"\u041b\u044c\u0432\u043e\u0432 \u043e\u0431\u043b\u0430\u00e7\u0115","name:right:ka":"\u10da\u10d5\u10dd\u10d5\u10d8\u10e1 \u10dd\u10da\u10e5\u10d8","name:right:zh-min-nan":"Lviv s\u00e9ng","name:right:pt":"Oblast de Lviv","name:left:ar":"\u0625\u064a\u0641\u0627\u0646\u0648 \u0641\u0631\u0627\u0646\u0643\u064a\u0641\u0633\u0643 \u0623\u0648\u0628\u0644\u0627\u0633\u062a","name:left:pl":"Obw\u00f3d iwanofrankiwski","name:left:tr":"\u0130vano-Frankivsk Oblast\u0131","name:left:id":"Oblast Ivano-Frankivsk","name:right:tr":"Lviv Oblast\u0131","name:right:bg":"\u041b\u0432\u043e\u0432\u0441\u043a\u0430 \u043e\u0431\u043b\u0430\u0441\u0442","name:left:pt":"Oblast de Ivano-Frankivsk","name:left:mr":"\u0907\u0935\u094d\u0939\u093e\u0928\u094b-\u092b\u094d\u0930\u093e\u0902\u0915\u093f\u0935\u094d\u0939\u094d\u0938\u094d\u0915 \u0913\u092c\u094d\u0932\u093e\u0938\u094d\u0924","name:right:sv":"Lviv oblast","name:right:ko":"\ub9ac\ube44\uc6b0 \uc8fc","name:left:zh-min-nan":"Ivano-Frankivsk s\u00e9ng","name:left:it":"Oblast' di Ivano-Frankivs'k","name:right:pl":"Obw\u00f3d lwowski","osm_relation":true,"name:right:de":"Oblast Lemberg","name:left:de":"Oblast Iwano-Frankiwsk"},"arcs":[8]}]},"roads":{"type":"GeometryCollection","geometries":[{"type":"MultiLineString","properties":{"kind":"major_road","name:en":"Bolekhivska Street","network":"ua:national","sort_rank":380,"kind_detail":"primary","source":"openstreetmap.org","min_zoom":8.0,"shield_text":"10","name:ru":"\u0411\u043e\u043b\u0435\u0445\u043e\u0432\u0441\u043a\u0430\u044f \u0443\u043b\u0438\u0446\u0430","ref":"\u041d-10"},"arcs":[[29],[30]]},{"type":"LineString","properties":{"kind":"major_road","name:en":"Valova Street","network":"ua:territorial","sort_rank":380,"kind_detail":"primary","source":"openstreetmap.org","min_zoom":8.0,"name:be":"\u0412\u0430\u043b\u0430\u0432\u0430\u044f \u0432\u0443\u043b\u0456\u0446\u0430","shield_text":"\u04221415","name:ru":"\u0412\u0430\u043b\u043e\u0432\u0430\u044f \u0443\u043b\u0438\u0446\u0430","name:pl":"ulica Wa\u0142owa","ref":"\u041d-13","id":452846950},"arcs":[31]},{"type":"MultiLineString","properties":{"kind":"major_road","network":"ua:national","sort_rank":380,"kind_detail":"primary","source":"openstreetmap.org","min_zoom":8.0,"shield_text":"10","ref":"\u041d-10"},"arcs":[[32],[33],[34],[35],[36],[37],[38]]},{"type":"LineString","properties":{"kind":"major_road","sort_rank":377,"landuse_kind":"urban_area","is_bicycle_related":true,"bicycle_shield_text":"GV","bicycle_network":"ncn","source":"openstreetmap.org","min_zoom":8.0,"kind_detail":"tertiary"},"arcs":[39]},{"type":"LineString","properties":{"kind":"major_road","network":"ua:national","sort_rank":380,"kind_detail":"primary","source":"openstreetmap.org","min_zoom":8.0,"shield_text":"10","name:ru":"\u0418\u0432\u0430\u043d\u0430 \u0424\u0440\u0430\u043d\u043a\u043e \u0443\u043b\u0438\u0446\u0430","name:pl":"ulica \u0406vana Franki","ref":"\u041d-10","id":364674891},"arcs":[40]},{"type":"MultiLineString","properties":{"kind":"major_road","network":"pl:national","sort_rank":380,"kind_detail":"primary","source":"openstreetmap.org","min_zoom":8.0,"landuse_kind":"urban_area","shield_text":"77","ref":"77"},"arcs":[[41],[42]]},{"type":"LineString","properties":{"kind":"major_road","network":"ua:national","sort_rank":380,"kind_detail":"primary","source":"openstreetmap.org","min_zoom":8.0,"shield_text":"13","name:ru":"\u0421\u0435\u0447\u0435\u0432\u044b\u0445 \u0421\u0442\u0440\u0435\u043b\u044c\u0446\u043e\u0432 \u0443\u043b\u0438\u0446\u0430","ref":"\u041d-13","id":415010672},"arcs":[43]},{"type":"LineString","properties":{"kind":"major_road","name:en":"1-ho Lystopada Street","sort_rank":380,"kind_detail":"primary","source":"openstreetmap.org","min_zoom":8.0,"landuse_kind":"residential","name:ru":"1-\u0433\u043e \u041d\u043e\u044f\u0431\u0440\u044f \u0443\u043b\u0438\u0446\u0430"},"arcs":[44]},{"type":"LineString","properties":{"kind":"major_road","name:en":"Tsentralna Street","network":"ua:national","sort_rank":380,"kind_detail":"primary","is_bicycle_related":true,"source":"openstreetmap.org","min_zoom":8.0,"landuse_kind":"national_park","shield_text":"13","name:ru":"\u0426\u0435\u043d\u0442\u0440\u0430\u043b\u044c\u043d\u0430\u044f \u0443\u043b\u0438\u0446\u0430","ref":"\u041d-13","id":237976974},"arcs":[45]},{"type":"LineString","properties":{"kind":"major_road","name:en":"Viacheslava Chornovola Street","network":"ua:national","sort_rank":380,"kind_detail":"primary","source":"openstreetmap.org","min_zoom":8.0,"shield_text":"13","name:ru":"\u0412\u044f\u0447\u0435\u0441\u043b\u0430\u0432\u0430 \u0427\u0435\u0440\u043d\u043e\u0432\u043e\u043b\u0430 \u0443\u043b\u0438\u0446\u0430","name:pl":"ulica Wiaczes\u0142awa Czornowi\u0142a","ref":"\u041d-13"},"arcs":[46]},{"type":"MultiLineString","properties":{"kind":"major_road","name:en":"Bolekhivska Street","network":"e-road","sort_rank":381,"kind_detail":"trunk","source":"openstreetmap.org","min_zoom":8.0,"landuse_kind":"urban_area","shield_text":"50","name:ru":"\u0411\u043e\u043b\u0435\u0445\u043e\u0432\u0441\u043a\u0430\u044f \u0443\u043b\u0438\u0446\u0430","ref":"\u041c-06"},"arcs":[[47],[48],[49]]},{"type":"LineString","properties":{"kind":"major_road","name:en":"Torhova Street","network":"ua:national","sort_rank":380,"kind_detail":"primary","source":"openstreetmap.org","min_zoom":8.0,"shield_text":"13","name:ru":"\u0422\u043e\u0440\u0433\u043e\u0432\u0430\u044f \u0443\u043b\u0438\u0446\u0430","ref":"\u041d-13"},"arcs":[50]},{"type":"LineString","properties":{"bus_network":null,"network":"e-road","sort_rank":381,"kind_detail":"trunk","kind":"major_road","source":"openstreetmap.org","min_zoom":8.0,"bus_shield_text":"21","shield_text":"40","ref":"\u041c-10"},"arcs":[51]},{"type":"MultiLineString","properties":{"sort_rank":380,"kind_detail":"primary","min_zoom":8.0,"kind":"major_road","source":"openstreetmap.org"},"arcs":[[52],[53],[54],[55],[56]]},{"type":"LineString","properties":{"kind":"major_road","name:en":"Stepana Bandery Street","network":"ua:national","sort_rank":380,"kind_detail":"primary","source":"openstreetmap.org","min_zoom":8.0,"shield_text":"13","name:ru":"\u0421\u0442\u0435\u043f\u0430\u043d\u0430 \u0411\u0430\u043d\u0434\u0435\u0440\u044b \u0443\u043b\u0438\u0446\u0430","ref":"\u041d-13"},"arcs":[57]},{"type":"LineString","properties":{"kind":"major_road","network":"e-road","sort_rank":381,"kind_detail":"trunk","source":"openstreetmap.org","min_zoom":8.0,"shield_text":"50","name:ru":"\u0418\u0432\u0430\u043d\u0430 \u0424\u0440\u0430\u043d\u043a\u043e \u0443\u043b\u0438\u0446\u0430","name:pl":"ulica \u0406vana Franki","ref":"\u041c-06"},"arcs":[58]},{"type":"LineString","properties":{"kind":"major_road","name:en":"Shevchenka Street","network":"ua:national","sort_rank":380,"kind_detail":"primary","source":"openstreetmap.org","min_zoom":8.0,"shield_text":"10","name:ru":"\u0428\u0435\u0432\u0447\u0435\u043d\u043a\u043e \u0443\u043b\u0438\u0446\u0430","ref":"\u041d-10"},"arcs":[59]},{"type":"LineString","properties":{"kind":"major_road","network":"ua:national","sort_rank":380,"kind_detail":"primary","source":"openstreetmap.org","min_zoom":8.0,"shield_text":"13","name:ru":"\u041a\u0440\u0443\u0433 \u0413\u043e\u0440\u043e\u0434\u0438\u0449\u0435 \u0443\u043b\u0438\u0446\u0430","ref":"\u041d-13","id":366396225},"arcs":[60]},{"type":"LineString","properties":{"kind":"major_road","name:en":"Valova Street","network":"ua:territorial","sort_rank":380,"kind_detail":"primary","source":"openstreetmap.org","min_zoom":8.0,"name:be":"\u0412\u0430\u043b\u0430\u0432\u0430\u044f \u0432\u0443\u043b\u0456\u0446\u0430","shield_text":"\u04221418","name:ru":"\u0412\u0430\u043b\u043e\u0432\u0430\u044f \u0443\u043b\u0438\u0446\u0430","name:pl":"ulica Wa\u0142owa","ref":"\u041d-13","id":452846948},"arcs":[61]},{"type":"LineString","properties":{"bus_network":null,"network":"e-road","sort_rank":381,"kind_detail":"trunk","kind":"major_road","source":"openstreetmap.org","min_zoom":8.0,"bus_shield_text":"1001","shield_text":"40","ref":"\u041c-10"},"arcs":[62]},{"type":"LineString","properties":{"kind":"minor_road","sort_rank":360,"landuse_kind":"nature_reserve","is_bicycle_related":true,"bicycle_shield_text":"GV","bicycle_network":"ncn","source":"openstreetmap.org","min_zoom":8.0,"kind_detail":"unclassified"},"arcs":[63]},{"type":"LineString","properties":{"kind":"minor_road","cycleway_left":"lane","sort_rank":360,"kind_detail":"residential","is_bicycle_related":true,"bicycle_shield_text":"GV","bicycle_network":"ncn","source":"openstreetmap.org","min_zoom":8.0,"landuse_kind":"nature_reserve","id":362763884},"arcs":[64]},{"type":"LineString","properties":{"kind":"major_road","sort_rank":380,"landuse_kind":"urban_area","source":"openstreetmap.org","min_zoom":8.0,"kind_detail":"primary","ref":"28","id":82655734},"arcs":[65]},{"type":"MultiLineString","properties":{"kind":"major_road","network":"ua:national","sort_rank":380,"kind_detail":"primary","is_bicycle_related":true,"source":"openstreetmap.org","min_zoom":8.0,"landuse_kind":"national_park","shield_text":"13","ref":"\u041d-13"},"arcs":[[66],[67],[68]]},{"type":"LineString","properties":{"kind":"major_road","network":"e-road","sort_rank":381,"landuse_kind":"national_park","source":"openstreetmap.org","min_zoom":8.0,"kind_detail":"trunk","shield_text":"50","name:ru":"\u041a\u043d\u044f\u0437\u044f \u0421\u0432\u044f\u0442\u043e\u0441\u043b\u0430\u0432\u0430 \u0443\u043b\u0438\u0446\u0430","ref":"\u041c-06"},"arcs":[69]},{"type":"MultiLineString","properties":{"kind":"major_road","network":"pl:national","sort_rank":380,"kind_detail":"primary","is_bicycle_related":true,"bicycle_shield_text":"TP-S","bicycle_network":"lcn","source":"openstreetmap.org","min_zoom":8.0,"landuse_kind":"urban_area","shield_text":"28","ref":"28"},"arcs":[[70],[71],[72]]},{"type":"LineString","properties":{"kind":"major_road","network":"pl:national","sort_rank":380,"kind_detail":"primary","is_bicycle_related":true,"bicycle_shield_text":"GB-EC","bicycle_network":"rcn","source":"openstreetmap.org","min_zoom":8.0,"landuse_kind":"nature_reserve","shield_text":"84","ref":"84"},"arcs":[73]},{"type":"MultiLineString","properties":{"source":"openstreetmap.org","kind":"major_road","sort_rank":381,"kind_detail":"trunk","ref":"\u041c-11","min_zoom":8.0},"arcs":[[74],[75],[76]]},{"type":"LineString","properties":{"kind":"major_road","sort_rank":377,"landuse_kind":"urban_area","is_bicycle_related":true,"bicycle_shield_text":"GV","bicycle_network":"ncn","source":"openstreetmap.org","min_zoom":8.0,"kind_detail":"tertiary","ref":"1820R"},"arcs":[77]},{"type":"LineString","properties":{"kind":"major_road","network":"ua:international","sort_rank":381,"kind_detail":"trunk","source":"openstreetmap.org","min_zoom":8.0,"landuse_kind":"residential","shield_text":"11","name:ru":"\u0413\u0430\u043b\u0438\u0446\u043a\u0430\u044f \u0443\u043b\u0438\u0446\u0430","ref":"\u041c-11","id":453008721},"arcs":[78]},{"type":"LineString","properties":{"kind":"minor_road","service":"parking_aisle","sort_rank":356,"kind_detail":"service","is_bicycle_related":true,"bicycle_shield_text":"GV","bicycle_network":"ncn","source":"openstreetmap.org","min_zoom":8.0,"landuse_kind":"urban_area","id":359283780},"arcs":[79]},{"type":"MultiLineString","properties":{"kind":"major_road","network":"pl:national","sort_rank":380,"kind_detail":"primary","is_bicycle_related":true,"bicycle_shield_text":null,"bicycle_network":"rcn","source":"openstreetmap.org","min_zoom":8.0,"landuse_kind":"urban_area","shield_text":"28","ref":"28"},"arcs":[[80],[81],[82],[83],[84],[85],[86],[87],[88],[89],[90],[91],[92],[93]]},{"type":"LineString","properties":{"kind":"major_road","network":"ua:international","sort_rank":381,"kind_detail":"trunk","source":"openstreetmap.org","min_zoom":8.0,"landuse_kind":"residential","shield_text":"11","name:ru":"\u0420\u044b\u043d\u043e\u043a \u043f\u043b\u043e\u0449\u0430\u0434\u044c","ref":"\u041c-11","id":453008720},"arcs":[94]},{"type":"LineString","properties":{"source":"openstreetmap.org","kind":"major_road","network":"pl:national","sort_rank":380,"kind_detail":"primary","min_zoom":8.0,"shield_text":"77"},"arcs":[95]},{"type":"LineString","properties":{"kind":"major_road","network":"pl:national","sort_rank":380,"kind_detail":"primary","is_bicycle_related":true,"bicycle_shield_text":"TP-S","bicycle_network":"lcn","source":"openstreetmap.org","min_zoom":8.0,"landuse_kind":"urban_area","shield_text":"28","name:ru":"\u0443\u043b\u0438\u0446\u0430 \u0410\u0434\u0430\u043c\u0430 \u041c\u0438\u0446\u043a\u0435\u0432\u0438\u0447\u0430","ref":"28"},"arcs":[96]},{"type":"LineString","properties":{"kind":"major_road","name:en":"Stepana Bandery Street","sort_rank":380,"kind_detail":"primary","source":"openstreetmap.org","min_zoom":8.0,"name:ru":"\u0421\u0442\u0435\u043f\u0430\u043d\u0430 \u0411\u0430\u043d\u0434\u0435\u0440\u044b \u0443\u043b\u0438\u0446\u0430","ref":"\u041d-13","id":452846952},"arcs":[97]},{"type":"LineString","properties":{"kind":"major_road","network":"pl:national","sort_rank":380,"kind_detail":"primary","source":"openstreetmap.org","min_zoom":8.0,"landuse_kind":"nature_reserve","shield_text":"28","ref":"28"},"arcs":[98]},{"type":"MultiLineString","properties":{"kind":"path","sort_rank":354,"landuse_kind":"urban_area","is_bicycle_related":true,"bicycle_shield_text":"GV","bicycle_network":"ncn","source":"openstreetmap.org","min_zoom":8.0,"kind_detail":"path"},"arcs":[[99],[100],[101],[102],[103],[104],[105]]},{"type":"LineString","properties":{"kind":"major_road","network":"pl:national","sort_rank":380,"kind_detail":"primary","is_bicycle_related":true,"bicycle_shield_text":null,"bicycle_network":"rcn","source":"openstreetmap.org","min_zoom":8.0,"shield_text":"84","ref":"84"},"arcs":[106]},{"type":"LineString","properties":{"kind":"major_road","network":"pl:national","sort_rank":380,"kind_detail":"primary","is_bicycle_related":true,"source":"openstreetmap.org","min_zoom":8.0,"landuse_kind":"nature_reserve","shield_text":"84","ref":"84","id":126559083},"arcs":[107]},{"type":"LineString","properties":{"kind":"major_road","name:en":"Lvivska Street","network":"ua:national","sort_rank":380,"kind_detail":"primary","source":"openstreetmap.org","min_zoom":8.0,"shield_text":"13","name:ru":"\u041b\u044c\u0432\u043e\u0432\u0441\u043a\u0430\u044f \u0443\u043b\u0438\u0446\u0430","name:pl":"ulica Lwowska","ref":"\u041d-13"},"arcs":[108]},{"type":"LineString","properties":{"kind":"major_road","network":"ua:national","sort_rank":380,"kind_detail":"primary","source":"openstreetmap.org","min_zoom":8.0,"landuse_kind":"residential","shield_text":"10","ref":"\u041d-10"},"arcs":[109]},{"type":"MultiLineString","properties":{"kind":"major_road","sort_rank":377,"kind_detail":"tertiary","is_bicycle_related":true,"bicycle_shield_text":"GV","bicycle_network":"ncn","source":"openstreetmap.org","min_zoom":8.0,"ref":"2080R"},"arcs":[[110],[111]]},{"type":"LineString","properties":{"kind":"major_road","name:en":"Petra Sahaidachnoho Street","sort_rank":380,"kind_detail":"primary","source":"openstreetmap.org","min_zoom":8.0,"name:ru":"\u041f\u0435\u0442\u0440\u0430 \u0421\u0430\u0433\u0430\u0439\u0434\u0430\u0447\u043d\u043e\u0433\u043e \u0443\u043b\u0438\u0446\u0430","id":515668295},"arcs":[112]},{"type":"LineString","properties":{"kind":"path","sort_rank":354,"kind_detail":"track","is_bicycle_related":true,"bicycle_shield_text":"GV","bicycle_network":"ncn","source":"openstreetmap.org","min_zoom":8.0,"landuse_kind":"urban_area","id":359283782},"arcs":[113]},{"type":"LineString","properties":{"kind":"major_road","network":"ua:national","sort_rank":380,"kind_detail":"primary","is_bicycle_related":true,"source":"openstreetmap.org","min_zoom":8.0,"landuse_kind":"national_park","shield_text":"13","name:ru":"\u041f\u043e\u0433\u0440\u0430\u043d\u0438\u0447\u043d\u0430\u044f \u0443\u043b\u0438\u0446\u0430","name:be":"\u041f\u0430\u043c\u0435\u0436\u043d\u0430\u044f \u0432\u0443\u043b\u0456\u0446\u0430","ref":"\u041d-13"},"arcs":[114]},{"type":"MultiLineString","properties":{"kind":"major_road","network":"ua:international","sort_rank":381,"kind_detail":"trunk","source":"openstreetmap.org","min_zoom":8.0,"landuse_kind":"residential","shield_text":"11","ref":"\u041c-11"},"arcs":[[115],[116],[117]]},{"type":"LineString","properties":{"kind":"major_road","name:en":"Yevropeyska Street","network":"e-road","sort_rank":381,"kind_detail":"trunk","source":"openstreetmap.org","min_zoom":8.0,"shield_text":"50","name:ru":"\u0415\u0432\u0440\u043e\u043f\u0435\u0439\u0441\u043a\u0430\u044f \u0443\u043b\u0438\u0446\u0430","ref":"\u041c-06"},"arcs":[118]},{"type":"MultiLineString","properties":{"kind":"major_road","network":"pl:national","sort_rank":380,"kind_detail":"primary","is_bicycle_related":true,"bicycle_shield_text":null,"bicycle_network":"rcn","source":"openstreetmap.org","min_zoom":8.0,"shield_text":"28","ref":"28"},"arcs":[[119],[120],[121],[122],[123],[124],[125],[126],[127],[128]]},{"type":"LineString","properties":{"kind":"major_road","network":"ua:national","sort_rank":380,"kind_detail":"primary","is_bicycle_related":true,"source":"openstreetmap.org","min_zoom":8.0,"shield_text":"13","name:ru":"\u0420\u0430\u0432\u043d\u044b\u0445 \u043f\u0440\u0430\u0432 \u0438 \u0432\u043e\u0437\u043c\u043e\u0436\u043d\u043e\u0441\u0442\u0435\u0439 \u0443\u043b\u0438\u0446\u0430","ref":"\u041d-13","id":431090361},"arcs":[129]},{"type":"LineString","properties":{"kind":"major_road","network":"ua:national","sort_rank":380,"kind_detail":"primary","is_bicycle_related":true,"source":"openstreetmap.org","min_zoom":8.0,"landuse_kind":"residential","shield_text":"13","name:ru":"\u041b\u044c\u0432\u0430 \u0413\u0430\u043b\u0438\u0446\u043a\u043e\u0433\u043e \u0443\u043b\u0438\u0446\u0430","ref":"\u041d-13"},"arcs":[130]},{"type":"MultiLineString","properties":{"kind":"minor_road","sort_rank":360,"landuse_kind":"nature_reserve","is_bicycle_related":true,"bicycle_shield_text":"GV","bicycle_network":"ncn","source":"openstreetmap.org","min_zoom":8.0,"kind_detail":"residential"},"arcs":[[131],[132],[133],[134],[135]]},{"type":"LineString","properties":{"kind":"major_road","network":"e-road","sort_rank":381,"kind_detail":"trunk","source":"openstreetmap.org","min_zoom":8.0,"shield_text":"471","ref":"\u041c-06"},"arcs":[136]},{"type":"LineString","properties":{"kind":"major_road","sort_rank":377,"kind_detail":"tertiary","is_bicycle_related":true,"bicycle_shield_text":"GV","bicycle_network":"ncn","source":"openstreetmap.org","min_zoom":8.0,"ref":"1778R"},"arcs":[137]},{"type":"LineString","properties":{"kind":"major_road","network":"ua:national","sort_rank":380,"kind_detail":"primary","source":"openstreetmap.org","min_zoom":8.0,"shield_text":"13","name:ru":"\u0415\u0432\u0433\u0435\u043d\u0438\u044f \u041a\u043e\u043d\u043e\u0432\u0430\u043b\u044c\u0446\u0430 \u0443\u043b\u0438\u0446\u0430","ref":"\u041d-13","id":366315227},"arcs":[138]},{"type":"MultiLineString","properties":{"kind":"major_road","network":"ua:national","sort_rank":380,"kind_detail":"primary","is_bicycle_related":true,"source":"openstreetmap.org","min_zoom":8.0,"landuse_kind":"nature_reserve","shield_text":"13","ref":"\u041d-13"},"arcs":[[139],[140]]},{"type":"LineString","properties":{"kind":"major_road","network":"pl:regional","sort_rank":379,"kind_detail":"secondary","is_bicycle_related":true,"bicycle_shield_text":"GV","bicycle_network":"ncn","source":"openstreetmap.org","min_zoom":8.0,"shield_text":"884","ref":"884","id":359488072},"arcs":[141]},{"type":"LineString","properties":{"kind":"major_road","network":"e-road","sort_rank":381,"kind_detail":"trunk","source":"openstreetmap.org","min_zoom":8.0,"shield_text":"50","name:ru":"\u0421\u0435\u0447\u0435\u0432\u044b\u0445 \u0421\u0442\u0440\u0435\u043b\u044c\u0446\u043e\u0432 \u0443\u043b\u0438\u0446\u0430","ref":"\u041c-06"},"arcs":[142]},{"type":"MultiLineString","properties":{"kind":"major_road","name:en":"Danyla Halytskoho Street","network":"e-road","sort_rank":381,"kind_detail":"trunk","source":"openstreetmap.org","min_zoom":8.0,"shield_text":"50","name:ru":"\u0414\u0430\u043d\u0438\u0438\u043b\u0430 \u0413\u0430\u043b\u0438\u0446\u043a\u043e\u0433\u043e \u0443\u043b\u0438\u0446\u0430","ref":"\u041c-06"},"arcs":[[143],[144]]},{"type":"LineString","properties":{"kind":"major_road","network":"ua:national","sort_rank":380,"kind_detail":"primary","source":"openstreetmap.org","min_zoom":8.0,"landuse_kind":"nature_reserve","shield_text":"13","ref":"\u041d-13","id":467951718},"arcs":[145]},{"type":"MultiLineString","properties":{"kind":"major_road","network":"ua:national","sort_rank":380,"kind_detail":"primary","is_bicycle_related":true,"source":"openstreetmap.org","min_zoom":8.0,"shield_text":"13","ref":"\u041d-13"},"arcs":[[146],[147],[148],[149],[150],[151],[152],[153],[154]]},{"type":"MultiLineString","properties":{"kind":"major_road","network":"ua:territorial","sort_rank":381,"kind_detail":"trunk","source":"openstreetmap.org","min_zoom":8.0,"shield_text":"\u04221425","ref":"\u041c-11"},"arcs":[[155],[156]]},{"type":"LineString","properties":{"kind":"major_road","network":"e-road","sort_rank":381,"kind_detail":"trunk","source":"openstreetmap.org","min_zoom":8.0,"landuse_kind":"urban_area","shield_text":"50","name:ru":"\u0413\u0430\u043b\u0438\u0446\u043a\u0430\u044f \u0443\u043b\u0438\u0446\u0430","name:be":"\u0413\u0430\u043b\u0456\u0446\u043a\u0430\u044f \u0432\u0443\u043b\u0456\u0446\u0430","ref":"\u041c-06","name:pl":"ulica Galicka"},"arcs":[157]},{"type":"MultiLineString","properties":{"kind":"major_road","network":"pl:national","sort_rank":380,"kind_detail":"primary","is_bicycle_related":true,"bicycle_shield_text":null,"bicycle_network":"rcn","source":"openstreetmap.org","min_zoom":8.0,"landuse_kind":"nature_reserve","shield_text":"28","ref":"28"},"arcs":[[158],[159]]},{"type":"MultiLineString","properties":{"kind":"major_road","network":"ua:national","sort_rank":380,"kind_detail":"primary","is_bicycle_related":true,"source":"openstreetmap.org","min_zoom":8.0,"shield_text":"13","name:ru":"\u0426\u0435\u043d\u0442\u0440\u0430\u043b\u044c\u043d\u0430\u044f \u0443\u043b\u0438\u0446\u0430","ref":"\u041d-13"},"arcs":[[160],[161]]},{"type":"LineString","properties":{"source":"openstreetmap.org","kind":"major_road","sort_rank":380,"kind_detail":"primary","ref":"28","min_zoom":8.0},"arcs":[162]},{"type":"LineString","properties":{"kind":"major_road","network":"ua:international","sort_rank":381,"kind_detail":"trunk","source":"openstreetmap.org","min_zoom":8.0,"landuse_kind":"residential","shield_text":"11","name:ru":"\u041c\u0438\u0445\u0430\u0438\u043b\u0430 \u0413\u0440\u0443\u0448\u0435\u0432\u0441\u043a\u043e\u0433\u043e \u0443\u043b\u0438\u0446\u0430","ref":"\u041c-11","id":453008717},"arcs":[163]},{"type":"LineString","properties":{"kind":"major_road","network":"pl:national","sort_rank":380,"kind_detail":"primary","is_bicycle_related":true,"source":"openstreetmap.org","min_zoom":8.0,"landuse_kind":"urban_area","shield_text":"77","ref":"77","id":171790907},"arcs":[164]},{"type":"LineString","properties":{"kind":"major_road","network":"pl:national","sort_rank":380,"kind_detail":"primary","is_bicycle_related":true,"bicycle_shield_text":"GV","bicycle_network":"ncn","source":"openstreetmap.org","min_zoom":8.0,"shield_text":"28","ref":"28"},"arcs":[165]},{"type":"LineString","properties":{"kind":"path","sort_rank":354,"kind_detail":"cycleway","is_bicycle_related":true,"bicycle_shield_text":"GV","bicycle_network":"ncn","source":"openstreetmap.org","min_zoom":8.0,"landuse_kind":"urban_area","id":334172133},"arcs":[166]},{"type":"MultiLineString","properties":{"kind":"major_road","network":"ua:international","sort_rank":381,"kind_detail":"trunk","source":"openstreetmap.org","min_zoom":8.0,"shield_text":"11","ref":"\u041c-11"},"arcs":[[167],[168],[169],[170],[171],[172],[173],[174],[175],[176],[177],[178],[179]]},{"type":"MultiLineString","properties":{"kind":"path","sort_rank":354,"landuse_kind":"urban_area","is_bicycle_related":true,"bicycle_shield_text":"GV","bicycle_network":"ncn","source":"openstreetmap.org","min_zoom":8.0,"kind_detail":"footway"},"arcs":[[180],[181],[182]]},{"type":"LineString","properties":{"kind":"major_road","network":"ua:national","sort_rank":380,"kind_detail":"primary","source":"openstreetmap.org","min_zoom":8.0,"name:ru":"\u0414\u0440\u043e\u0433\u043e\u0431\u044b\u0447\u0441\u043a\u0430\u044f \u0443\u043b\u0438\u0446\u0430","shield_text":"13","name:be":"\u0414\u0440\u0430\u0433\u043e\u0431\u044b\u0446\u043a\u0430\u044f \u0432\u0443\u043b\u0456\u0446\u0430","name:pl":"ulica Drohobycka","landuse_kind":"residential","ref":"\u041d-13","id":366315226},"arcs":[183]},{"type":"LineString","properties":{"kind":"major_road","network":"ua:national","sort_rank":380,"kind_detail":"primary","source":"openstreetmap.org","min_zoom":8.0,"name:ru":"\u0412\u043b\u0430\u0434\u0438\u043c\u0438\u0440\u0430 \u0412\u0435\u043b\u0438\u043a\u043e\u0433\u043e \u0443\u043b\u0438\u0446\u0430","shield_text":"10","name:be":"\u0423\u043b\u0430\u0434\u0437\u0456\u043c\u0456\u0440\u0430 \u0412\u044f\u043b\u0456\u043a\u0430\u0433\u0430 \u0432\u0443\u043b\u0456\u0446\u0430","ref":"\u041d-10"},"arcs":[184]},{"type":"LineString","properties":{"kind":"major_road","network":"ua:national","sort_rank":380,"kind_detail":"primary","source":"openstreetmap.org","min_zoom":8.0,"shield_text":"13","name:ru":"\u0412\u044f\u0447\u0435\u0441\u043b\u0430\u0432\u0430 \u0427\u0435\u0440\u043d\u043e\u0432\u043e\u043b\u0430 \u0443\u043b\u0438\u0446\u0430","name:pl":"ulica Wiaczes\u0142awa Czornowi\u0142a","ref":"\u041d-13"},"arcs":[185]},{"type":"MultiLineString","properties":{"kind":"major_road","name:en":"Valova Street","sort_rank":380,"kind_detail":"primary","source":"openstreetmap.org","min_zoom":8.0,"name:be":"\u0412\u0430\u043b\u0430\u0432\u0430\u044f \u0432\u0443\u043b\u0456\u0446\u0430","name:ru":"\u0412\u0430\u043b\u043e\u0432\u0430\u044f \u0443\u043b\u0438\u0446\u0430","name:pl":"ulica Wa\u0142owa","ref":"\u041d-13"},"arcs":[[186],[187],[188]]},{"type":"LineString","properties":{"kind":"major_road","network":"e-road","sort_rank":381,"kind_detail":"trunk","source":"openstreetmap.org","min_zoom":8.0,"landuse_kind":"residential","shield_text":"50","ref":"\u041c-12"},"arcs":[189]},{"type":"LineString","properties":{"kind":"major_road","name:en":"Shevchenka Street","network":"ua:national","sort_rank":380,"kind_detail":"primary","source":"openstreetmap.org","min_zoom":8.0,"landuse_kind":"residential","shield_text":"10","name:ru":"\u0428\u0435\u0432\u0447\u0435\u043d\u043a\u043e \u0443\u043b\u0438\u0446\u0430","ref":"\u041d-10","id":179484710},"arcs":[190]},{"type":"LineString","properties":{"source":"openstreetmap.org","kind":"major_road","landuse_kind":"residential","sort_rank":380,"kind_detail":"primary","min_zoom":8.0},"arcs":[191]},{"type":"LineString","properties":{"kind":"major_road","name:en":"Lvivska Street","network":"e-road","sort_rank":381,"kind_detail":"trunk","source":"openstreetmap.org","min_zoom":8.0,"name:ru":"\u041b\u044c\u0432\u043e\u0432\u0441\u043a\u0430\u044f \u0443\u043b\u0438\u0446\u0430","shield_text":"50","name:be":"\u041b\u044c\u0432\u043e\u045e\u0441\u043a\u0430\u044f \u0432\u0443\u043b\u0456\u0446\u0430","name:pl":"ulica Lwowska","landuse_kind":"residential","ref":"\u041c-06","id":34782025},"arcs":[192]},{"type":"LineString","properties":{"kind":"major_road","network":"ua:international","sort_rank":381,"kind_detail":"trunk","source":"openstreetmap.org","min_zoom":8.0,"shield_text":"11","name:ru":"\u041c\u0438\u0445\u0430\u0438\u043b\u0430 \u0413\u0440\u0443\u0448\u0435\u0432\u0441\u043a\u043e\u0433\u043e \u0443\u043b\u0438\u0446\u0430","ref":"\u041c-11","id":453008717},"arcs":[193]},{"type":"LineString","properties":{"kind":"major_road","network":"ua:national","sort_rank":380,"kind_detail":"primary","is_bicycle_related":true,"source":"openstreetmap.org","min_zoom":8.0,"shield_text":"13","name:ru":"\u0422\u0430\u0440\u0430\u0441\u0430 \u0428\u0435\u0432\u0447\u0435\u043d\u043a\u043e \u0443\u043b\u0438\u0446\u0430","name:pl":"ulica Tarasa Szewczenki","ref":"\u041d-13"},"arcs":[194]},{"type":"LineString","properties":{"kind":"major_road","name:en":"Danyla Halytskoho Street","sort_rank":380,"kind_detail":"primary","source":"openstreetmap.org","min_zoom":8.0,"landuse_kind":"residential","name:ru":"\u0414\u0430\u043d\u0438\u0438\u043b\u0430 \u0413\u0430\u043b\u0438\u0446\u043a\u043e\u0433\u043e \u0443\u043b\u0438\u0446\u0430","id":315433757},"arcs":[195]},{"type":"MultiLineString","properties":{"kind":"major_road","network":"pl:national","sort_rank":380,"kind_detail":"primary","source":"openstreetmap.org","min_zoom":8.0,"shield_text":"84","ref":"84"},"arcs":[[196],[197],[198],[199]]},{"type":"LineString","properties":{"kind":"major_road","name:en":"Lesi Ukrainky Street","network":"ua:national","sort_rank":380,"kind_detail":"primary","source":"openstreetmap.org","min_zoom":8.0,"shield_text":"10","name:ru":"\u041b\u0435\u0441\u0438 \u0423\u043a\u0440\u0430\u0438\u043d\u043a\u0438 \u0443\u043b\u0438\u0446\u0430","ref":"\u041d-10","id":226131890},"arcs":[200]},{"type":"LineString","properties":{"kind":"major_road","network":"pl:national","sort_rank":380,"kind_detail":"primary","is_bicycle_related":true,"bicycle_shield_text":null,"bicycle_network":"rcn","source":"openstreetmap.org","min_zoom":8.0,"landuse_kind":"urban_area","shield_text":"28","name:ru":"\u0443\u043b\u0438\u0446\u0430 \u0410\u0434\u0430\u043c\u0430 \u041c\u0438\u0446\u043a\u0435\u0432\u0438\u0447\u0430","ref":"28","id":206272680},"arcs":[201]},{"type":"LineString","properties":{"kind":"major_road","name:en":"Lvivska Street","network":"e-road","sort_rank":381,"kind_detail":"trunk","source":"openstreetmap.org","min_zoom":8.0,"name:ru":"\u041b\u044c\u0432\u043e\u0432\u0441\u043a\u0430\u044f \u0443\u043b\u0438\u0446\u0430","shield_text":"50","name:be":"\u041b\u044c\u0432\u043e\u045e\u0441\u043a\u0430\u044f \u0432\u0443\u043b\u0456\u0446\u0430","name:pl":"ulica Lwowska","landuse_kind":"urban_area","ref":"\u041c-06","id":34782025},"arcs":[202]},{"type":"LineString","properties":{"kind":"major_road","network":"ua:national","sort_rank":380,"kind_detail":"primary","is_bicycle_related":true,"source":"openstreetmap.org","min_zoom":8.0,"landuse_kind":"nature_reserve","shield_text":"13","name:ru":"\u0420\u0430\u0432\u043d\u044b\u0445 \u043f\u0440\u0430\u0432 \u0438 \u0432\u043e\u0437\u043c\u043e\u0436\u043d\u043e\u0441\u0442\u0435\u0439 \u0443\u043b\u0438\u0446\u0430","ref":"\u041d-13","id":431090361},"arcs":[203]},{"type":"LineString","properties":{"kind":"major_road","name:en":"Danyla Halytskoho Street","network":"ua:national","sort_rank":380,"kind_detail":"primary","source":"openstreetmap.org","min_zoom":8.0,"shield_text":"10","name:ru":"\u0414\u0430\u043d\u0438\u0438\u043b\u0430 \u0413\u0430\u043b\u0438\u0446\u043a\u043e\u0433\u043e \u0443\u043b\u0438\u0446\u0430","ref":"\u041d-10"},"arcs":[204]},{"type":"MultiLineString","properties":{"kind":"major_road","name:en":"Valova Street","network":"ua:national","sort_rank":380,"kind_detail":"primary","source":"openstreetmap.org","min_zoom":8.0,"name:be":"\u0412\u0430\u043b\u0430\u0432\u0430\u044f \u0432\u0443\u043b\u0456\u0446\u0430","shield_text":"13","name:ru":"\u0412\u0430\u043b\u043e\u0432\u0430\u044f \u0443\u043b\u0438\u0446\u0430","name:pl":"ulica Wa\u0142owa","ref":"\u041d-13"},"arcs":[[205],[206],[207]]},{"type":"LineString","properties":{"kind":"major_road","network":"ua:regional","sort_rank":380,"kind_detail":"primary","source":"openstreetmap.org","min_zoom":8.0,"shield_text":"40","ref":"\u0420-40"},"arcs":[208]},{"type":"MultiLineString","properties":{"source":"openstreetmap.org","kind":"major_road","landuse_kind":"nature_reserve","sort_rank":380,"kind_detail":"primary","ref":"84","min_zoom":8.0},"arcs":[[209],[210]]},{"type":"MultiLineString","properties":{"kind":"major_road","network":"e-road","sort_rank":381,"kind_detail":"trunk","source":"openstreetmap.org","min_zoom":8.0,"shield_text":"50","ref":"\u041c-06"},"arcs":[[211],[212],[213],[214],[215],[216],[217],[218],[219],[220],[221],[222]]},{"type":"LineString","properties":{"kind":"major_road","network":"ua:national","sort_rank":380,"kind_detail":"primary","is_bicycle_related":true,"source":"openstreetmap.org","min_zoom":8.0,"shield_text":"13","name:ru":"\u0421\u0430\u0434\u043e\u0432\u0430\u044f \u0443\u043b\u0438\u0446\u0430","ref":"\u041d-13","id":366693811},"arcs":[223]},{"type":"LineString","properties":{"kind":"major_road","network":"ua:national","sort_rank":380,"kind_detail":"primary","source":"openstreetmap.org","min_zoom":8.0,"landuse_kind":"residential","shield_text":"13","name:ru":"\u0415\u0432\u0433\u0435\u043d\u0438\u044f \u041a\u043e\u043d\u043e\u0432\u0430\u043b\u044c\u0446\u0430 \u0443\u043b\u0438\u0446\u0430","ref":"\u041d-13","id":366315227},"arcs":[224]},{"type":"LineString","properties":{"kind":"major_road","sort_rank":377,"landuse_kind":"nature_reserve","is_bicycle_related":true,"bicycle_shield_text":"GV","bicycle_network":"ncn","source":"openstreetmap.org","min_zoom":8.0,"kind_detail":"tertiary"},"arcs":[225]},{"type":"MultiLineString","properties":{"kind":"major_road","network":"e-road","sort_rank":381,"landuse_kind":"urban_area","source":"openstreetmap.org","min_zoom":8.0,"kind_detail":"trunk","shield_text":"50","ref":"\u041c-06"},"arcs":[[226],[227],[228]]},{"type":"MultiLineString","properties":{"kind":"major_road","name:en":"Bolekhivska Street","network":"e-road","sort_rank":381,"kind_detail":"trunk","source":"openstreetmap.org","min_zoom":8.0,"shield_text":"50","name:ru":"\u0411\u043e\u043b\u0435\u0445\u043e\u0432\u0441\u043a\u0430\u044f \u0443\u043b\u0438\u0446\u0430","ref":"\u041c-06"},"arcs":[[229],[230],[231]]},{"type":"MultiLineString","properties":{"kind":"major_road","network":"ua:national","sort_rank":380,"kind_detail":"primary","source":"openstreetmap.org","min_zoom":8.0,"shield_text":"13","ref":"\u041d-13"},"arcs":[[232],[233],[234],[235],[236],[237],[238],[239],[240],[241],[242]]},{"type":"LineString","properties":{"kind":"path","sort_rank":354,"kind_detail":"cycleway","is_bicycle_related":true,"bicycle_shield_text":"GV","bicycle_network":"ncn","source":"openstreetmap.org","min_zoom":8.0},"arcs":[243]},{"type":"MultiLineString","properties":{"kind":"major_road","network":"e-road","sort_rank":381,"kind_detail":"trunk","source":"openstreetmap.org","min_zoom":8.0,"shield_text":"50","name:ru":"\u0413\u0435\u0440\u043e\u0435\u0432 \u041c\u0430\u043a\u043e\u0432\u043a\u0438 \u0443\u043b\u0438\u0446\u0430","ref":"\u041c-06","id":236258178},"arcs":[[244],[245]]},{"type":"LineString","properties":{"kind":"major_road","network":"ua:national","sort_rank":380,"kind_detail":"primary","is_bicycle_related":true,"source":"openstreetmap.org","min_zoom":8.0,"shield_text":"13","name:ru":"\u041f\u0435\u0442\u0440\u0430 \u0421\u0430\u0433\u0430\u0439\u0434\u0430\u0447\u043d\u043e\u0433\u043e \u0443\u043b\u0438\u0446\u0430","ref":"\u041d-13","id":355451253},"arcs":[246]},{"type":"LineString","properties":{"kind":"major_road","network":"e-road","sort_rank":381,"landuse_kind":"national_park","source":"openstreetmap.org","min_zoom":8.0,"kind_detail":"trunk","shield_text":"50","ref":"\u041c-06"},"arcs":[247]},{"type":"MultiLineString","properties":{"kind":"major_road","network":"e-road","sort_rank":381,"kind_detail":"trunk","source":"openstreetmap.org","min_zoom":8.0,"shield_text":"50","name:ru":"\u041a\u043d\u044f\u0437\u044f \u0421\u0432\u044f\u0442\u043e\u0441\u043b\u0430\u0432\u0430 \u0443\u043b\u0438\u0446\u0430","ref":"\u041c-06"},"arcs":[[248],[249]]},{"type":"MultiLineString","properties":{"source":"openstreetmap.org","kind":"major_road","landuse_kind":"urban_area","sort_rank":380,"kind_detail":"primary","min_zoom":8.0},"arcs":[[250],[251]]},{"type":"LineString","properties":{"kind":"major_road","network":"e-road","sort_rank":381,"kind_detail":"trunk","source":"openstreetmap.org","min_zoom":8.0,"landuse_kind":"residential","shield_text":"471","ref":"\u041c-06","id":453004917},"arcs":[252]},{"type":"LineString","properties":{"kind":"major_road","network":"ua:national","sort_rank":380,"kind_detail":"primary","source":"openstreetmap.org","min_zoom":8.0,"shield_text":"13","name:ru":"\u0412\u043e\u0437\u0440\u043e\u0436\u0434\u0435\u043d\u0438\u044f \u043f\u043b\u043e\u0449\u0430\u0434\u044c","ref":"\u041d-13","id":362626995},"arcs":[253]},{"type":"LineString","properties":{"kind":"major_road","network":"ua:national","sort_rank":380,"kind_detail":"primary","source":"openstreetmap.org","min_zoom":8.0,"landuse_kind":"residential","shield_text":"13","ref":"\u041d-13"},"arcs":[254]},{"type":"LineString","properties":{"kind":"major_road","network":"e-road","sort_rank":381,"kind_detail":"trunk","source":"openstreetmap.org","min_zoom":8.0,"landuse_kind":"residential","shield_text":"50","ref":"\u041c-06;\u041c-12"},"arcs":[255]},{"type":"MultiLineString","properties":{"kind":"minor_road","sort_rank":360,"kind_detail":"residential","is_bicycle_related":true,"bicycle_shield_text":"GV","bicycle_network":"ncn","source":"openstreetmap.org","min_zoom":8.0},"arcs":[[256],[257],[258],[259],[260]]},{"type":"MultiLineString","properties":{"kind":"major_road","network":"pl:national","sort_rank":380,"kind_detail":"primary","source":"openstreetmap.org","min_zoom":8.0,"landuse_kind":"nature_reserve","shield_text":"84","ref":"84"},"arcs":[[261],[262]]},{"type":"MultiLineString","properties":{"kind":"major_road","network":"pl:national","sort_rank":380,"kind_detail":"primary","is_bicycle_related":true,"source":"openstreetmap.org","min_zoom":8.0,"shield_text":"84","ref":"84"},"arcs":[[263],[264],[265]]},{"type":"LineString","properties":{"kind":"path","sort_rank":354,"kind_detail":"path","is_bicycle_related":true,"bicycle_shield_text":"GV","bicycle_network":"ncn","source":"openstreetmap.org","min_zoom":8.0},"arcs":[266]},{"type":"LineString","properties":{"kind":"major_road","network":"e-road","sort_rank":381,"kind_detail":"trunk","source":"openstreetmap.org","min_zoom":8.0,"landuse_kind":"national_park","shield_text":"50","name:ru":"\u0413\u0435\u0440\u043e\u0435\u0432 \u041c\u0430\u043a\u043e\u0432\u043a\u0438 \u0443\u043b\u0438\u0446\u0430","ref":"\u041c-06","id":236258178},"arcs":[267]},{"type":"LineString","properties":{"kind":"major_road","network":"ua:national","sort_rank":380,"kind_detail":"primary","is_bicycle_related":true,"source":"openstreetmap.org","min_zoom":8.0,"shield_text":"13","name:ru":"\u041b\u044c\u0432\u0430 \u0413\u0430\u043b\u0438\u0446\u043a\u043e\u0433\u043e \u0443\u043b\u0438\u0446\u0430","ref":"\u041d-13","id":236002567},"arcs":[268]},{"type":"LineString","properties":{"kind":"major_road","network":"ua:national","sort_rank":380,"kind_detail":"primary","is_bicycle_related":true,"source":"openstreetmap.org","min_zoom":8.0,"shield_text":"13","name:ru":"\u0418\u0432\u0430\u043d\u0430 \u0424\u0440\u0430\u043d\u043a\u043e \u0443\u043b\u0438\u0446\u0430","ref":"\u041d-13"},"arcs":[269]},{"type":"LineString","properties":{"kind":"major_road","name:en":"Petra Sahaidachnoho Street","sort_rank":380,"kind_detail":"primary","source":"openstreetmap.org","min_zoom":8.0,"landuse_kind":"residential","name:ru":"\u041f\u0435\u0442\u0440\u0430 \u0421\u0430\u0433\u0430\u0439\u0434\u0430\u0447\u043d\u043e\u0433\u043e \u0443\u043b\u0438\u0446\u0430"},"arcs":[270]},{"type":"LineString","properties":{"kind":"major_road","network":"e-road","sort_rank":381,"kind_detail":"trunk","source":"openstreetmap.org","min_zoom":8.0,"shield_text":"50","ref":"\u041c-12"},"arcs":[271]},{"type":"LineString","properties":{"kind":"major_road","network":"ua:national","sort_rank":380,"kind_detail":"primary","is_bicycle_related":true,"source":"openstreetmap.org","min_zoom":8.0,"shield_text":"13","name:ru":"\u0421\u0435\u0447\u0435\u0432\u044b\u0445 \u0421\u0442\u0440\u0435\u043b\u044c\u0446\u043e\u0432 \u0443\u043b\u0438\u0446\u0430","ref":"\u041d-13","id":431431396},"arcs":[272]},{"type":"MultiLineString","properties":{"kind":"major_road","sort_rank":377,"kind_detail":"tertiary","is_bicycle_related":true,"bicycle_shield_text":"GV","bicycle_network":"ncn","source":"openstreetmap.org","min_zoom":8.0},"arcs":[[273],[274]]},{"type":"LineString","properties":{"kind":"major_road","network":"ua:national","sort_rank":380,"kind_detail":"primary","source":"openstreetmap.org","min_zoom":8.0,"shield_text":"13","name:ru":"\u0418\u0432\u0430\u043d\u0430 \u0424\u0440\u0430\u043d\u043a\u043e \u0443\u043b\u0438\u0446\u0430","ref":"\u041d-13","id":358359090},"arcs":[275]},{"type":"MultiLineString","properties":{"kind":"major_road","network":"e-road","sort_rank":381,"kind_detail":"trunk","source":"openstreetmap.org","min_zoom":8.0,"name:be":"\u0421\u0442\u0440\u044b\u0439\u0441\u043a\u0430\u044f \u0432\u0443\u043b\u0456\u0446\u0430","shield_text":"50","name:ru":"\u0421\u0442\u0440\u044b\u0439\u0441\u043a\u0430\u044f \u0443\u043b\u0438\u0446\u0430","name:pl":"ulica Stryjska","ref":"\u041c-06"},"arcs":[[276],[277]]},{"type":"MultiLineString","properties":{"kind":"major_road","sort_rank":377,"kind_detail":"tertiary","is_bicycle_related":true,"bicycle_shield_text":"GV","bicycle_network":"ncn","source":"openstreetmap.org","min_zoom":8.0,"ref":"1820R"},"arcs":[[278],[279]]},{"type":"MultiLineString","properties":{"kind":"major_road","network":"pl:national","sort_rank":380,"kind_detail":"primary","source":"openstreetmap.org","min_zoom":8.0,"shield_text":"77","ref":"77"},"arcs":[[280],[281],[282]]},{"type":"LineString","properties":{"kind":"major_road","name:en":"Tarasa Shevchenka Street","network":"ua:national","sort_rank":380,"kind_detail":"primary","source":"openstreetmap.org","min_zoom":8.0,"shield_text":"13","name:ru":"\u0422\u0430\u0440\u0430\u0441\u0430 \u0428\u0435\u0432\u0447\u0435\u043d\u043a\u043e \u0443\u043b\u0438\u0446\u0430","name:pl":"ulica Tarasa Szewczenki","ref":"\u041d-13"},"arcs":[283]},{"type":"MultiLineString","properties":{"kind":"major_road","network":"pl:national","sort_rank":380,"kind_detail":"primary","is_bicycle_related":true,"bicycle_shield_text":null,"bicycle_network":"rcn","source":"openstreetmap.org","min_zoom":8.0,"landuse_kind":"nature_reserve","shield_text":"84","ref":"84"},"arcs":[[284],[285]]},{"type":"LineString","properties":{"kind":"path","sort_rank":354,"landuse_kind":"nature_reserve","is_bicycle_related":true,"bicycle_shield_text":"GV","bicycle_network":"ncn","source":"openstreetmap.org","min_zoom":8.0,"kind_detail":"path"},"arcs":[286]},{"type":"MultiLineString","properties":{"kind":"major_road","network":"pl:national","sort_rank":380,"kind_detail":"primary","source":"openstreetmap.org","min_zoom":8.0,"landuse_kind":"urban_area","shield_text":"28","ref":"28"},"arcs":[[287],[288],[289],[290],[291],[292]]},{"type":"LineString","properties":{"source":"openstreetmap.org","kind":"major_road","name:en":"1-ho Lystopada Street","name:ru":"1-\u0433\u043e \u041d\u043e\u044f\u0431\u0440\u044f \u0443\u043b\u0438\u0446\u0430","sort_rank":380,"kind_detail":"primary","min_zoom":8.0},"arcs":[293]},{"type":"LineString","properties":{"kind":"major_road","name:en":"Sichovykh Striltsiv Street","network":"e-road","sort_rank":381,"kind_detail":"trunk","source":"openstreetmap.org","min_zoom":8.0,"shield_text":"50","name:ru":"\u0421\u0435\u0447\u0435\u0432\u044b\u0445 \u0421\u0442\u0440\u0435\u043b\u044c\u0446\u043e\u0432 \u0443\u043b\u0438\u0446\u0430","ref":"\u041c-06"},"arcs":[294]},{"type":"MultiLineString","properties":{"kind":"major_road","network":"ua:national","sort_rank":380,"kind_detail":"primary","source":"openstreetmap.org","min_zoom":8.0,"shield_text":"13","name:ru":"\u0421\u0430\u043c\u0431\u043e\u0440\u0441\u043a\u0430\u044f \u0443\u043b\u0438\u0446\u0430","ref":"\u041d-13"},"arcs":[[295],[296]]},{"type":"LineString","properties":{"kind":"major_road","network":"ua:national","sort_rank":380,"kind_detail":"primary","source":"openstreetmap.org","min_zoom":8.0,"shield_text":"13","name:ru":"\u0418\u0432\u0430\u043d\u0430 \u0424\u0440\u0430\u043d\u043a\u043e \u0443\u043b\u0438\u0446\u0430","name:pl":"ulica \u0406vana Franki","ref":"\u041d-13","id":54690161},"arcs":[297]},{"type":"LineString","properties":{"kind":"major_road","network":"e-road","sort_rank":381,"kind_detail":"trunk","source":"openstreetmap.org","min_zoom":8.0,"landuse_kind":"residential","shield_text":"50","ref":"\u041c-06","id":200461947},"arcs":[298]},{"type":"LineString","properties":{"kind":"major_road","name:en":"Sambirska Street","network":"ua:national","sort_rank":380,"kind_detail":"primary","source":"openstreetmap.org","min_zoom":8.0,"shield_text":"13","name:ru":"\u0421\u0430\u043c\u0431\u043e\u0440\u0441\u043a\u0430\u044f \u0443\u043b\u0438\u0446\u0430","name:pl":"ulica Samborska","ref":"\u041d-13","id":315445666},"arcs":[299]},{"type":"MultiLineString","properties":{"kind":"path","sort_rank":354,"landuse_kind":"nature_reserve","is_bicycle_related":true,"bicycle_shield_text":"GV","bicycle_network":"ncn","source":"openstreetmap.org","min_zoom":8.0,"kind_detail":"track"},"arcs":[[300],[301]]}]},"earth":{"type":"GeometryCollection","geometries":[{"type":"Polygon","properties":{"sort_rank":10,"source":"naturalearthdata.com","kind":"earth","min_zoom":0.0,"id":4754},"arcs":[[302]]}]},"landuse":{"type":"GeometryCollection","geometries":[{"type":"MultiPolygon","properties":{"kind":"national_park","protect_class":"2","area":2026205462,"sort_rank":18,"source":"openstreetmap.org","min_zoom":3.0,"tier":1,"osm_relation":true},"arcs":[[[303]],[[304],[305],[306],[307]]]},{"type":"Polygon","properties":{"kind":"residential","name":"\u041d\u0438\u0436\u043d\u044f \u042f\u0431\u043b\u0443\u043d\u044c\u043a\u0430","area":10332300,"sort_rank":20,"source":"openstreetmap.org","min_zoom":8.0,"tier":2,"id":-5361159,"osm_relation":true},"arcs":[[308]]},{"type":"MultiPolygon","properties":{"kind":"nature_reserve","protect_class":"5","area":2641590371,"sort_rank":23,"source":"openstreetmap.org","min_zoom":6.0,"tier":2,"osm_relation":true},"arcs":[[[309]]]},{"type":"Polygon","properties":{"kind":"nature_reserve","protect_class":"5","area":23265900,"sort_rank":23,"source":"openstreetmap.org","min_zoom":8.0,"tier":2,"id":-2657953,"osm_relation":true},"arcs":[[310]]},{"type":"MultiPolygon","properties":{"kind":"national_park","protect_class":"2","area":275954614,"sort_rank":18,"source":"openstreetmap.org","min_zoom":8.0,"tier":1,"osm_relation":true},"arcs":[[[311]],[[312]],[[313]],[[314]],[[315]],[[316]]]},{"type":"MultiPolygon","properties":{"source":"openstreetmap.org","kind":"nature_reserve","tier":2,"protect_class":"4","area":13075808,"sort_rank":23,"min_zoom":8.0},"arcs":[[[317]]]},{"type":"Polygon","properties":{"kind":"nature_reserve","protect_class":"3","area":460808000,"sort_rank":23,"source":"openstreetmap.org","min_zoom":6.0,"tier":2,"id":-6449022,"osm_relation":true},"arcs":[[318]]},{"type":"Polygon","properties":{"kind":"residential","name:en":"Rudnyky","name":"\u0420\u0443\u0434\u043d\u0438\u043a\u0438","area":14301200,"sort_rank":20,"source":"openstreetmap.org","min_zoom":8.0,"tier":2,"name:be":"\u0420\u0443\u0434\u043d\u0456\u043a\u0456","name:pl":"Rudniki","id":-5346705,"osm_relation":true},"arcs":[[319]]},{"type":"Polygon","properties":{"kind":"residential","name:en":"Mostyska","name":"\u041c\u043e\u0441\u0442\u0438\u0441\u044c\u043a\u0430","area":19424000,"sort_rank":20,"name:de":"Mostyska","source":"openstreetmap.org","min_zoom":8.0,"name:ro":"Most\u00eeska","tier":2,"name:ru":"\u041c\u043e\u0441\u0442\u0438\u0441\u043a\u0430","name:pl":"Mo\u015bciska","id":-3629228,"osm_relation":true},"arcs":[[320]]},{"type":"MultiPolygon","properties":{"kind":"nature_reserve","protect_class":"19","area":53774625,"sort_rank":23,"source":"openstreetmap.org","min_zoom":8.0,"tier":2,"osm_relation":true},"arcs":[[[321]],[[322]],[[323]]]},{"type":"MultiPolygon","properties":{"source":"naturalearthdata.com","kind":"urban_area","name":"","area":752405854,"sort_rank":11,"min_zoom":4.0},"arcs":[[[324]],[[325]],[[326]]]},{"type":"Polygon","properties":{"kind":"nature_reserve","protect_class":"1","area":17762900,"sort_rank":23,"source":"openstreetmap.org","min_zoom":8.0,"tier":2,"id":-6449177,"osm_relation":true},"arcs":[[327]]},{"type":"Polygon","properties":{"kind":"residential","name:en":"Staryi Sambir","name":"\u0421\u0442\u0430\u0440\u0438\u0439 \u0421\u0430\u043c\u0431\u0456\u0440","area":10020100,"sort_rank":20,"name:fr":"Stary\u00ef Sambir","name:de":"Staryj Sambir","source":"openstreetmap.org","min_zoom":8.0,"tier":2,"name:ru":"\u0421\u0442\u0430\u0440\u044b\u0439 \u0421\u0430\u043c\u0431\u043e\u0440","name:pl":"Stary Sambor","id":-6956616,"osm_relation":true},"arcs":[[328]]},{"type":"Polygon","properties":{"source":"openstreetmap.org","kind":"aerodrome","area":14048700,"tier":3,"id":361248115,"min_zoom":8.0,"sort_rank":60},"arcs":[[329]]},{"type":"MultiPolygon","properties":{"kind":"residential","name":"\u0412\u0435\u0440\u0445\u043d\u0454 \u0412\u0438\u0441\u043e\u0446\u044c\u043a\u0435","area":10990500,"sort_rank":20,"source":"openstreetmap.org","min_zoom":8.0,"tier":2,"id":-6334165,"osm_relation":true},"arcs":[[[330]]]},{"type":"Polygon","properties":{"kind":"residential","name":"\u0414\u043e\u0431\u0440\u044f\u043d\u0438","area":16171800,"sort_rank":20,"source":"openstreetmap.org","min_zoom":8.0,"tier":2,"id":-5376428,"osm_relation":true},"arcs":[[331]]},{"type":"Polygon","properties":{"kind":"nature_reserve","protect_class":"5","area":1523786589,"sort_rank":23,"source":"openstreetmap.org","min_zoom":4.0,"tier":2,"osm_relation":true},"arcs":[[332],[333]]},{"type":"MultiPolygon","properties":{"source":"openstreetmap.org","kind":"residential","tier":2,"area":187707337,"sort_rank":20,"min_zoom":8.0},"arcs":[[[334]],[[335]],[[336]],[[337]]]}]}},"type":"Topology","transform":{"translate":[22.5,48.9224992638],"scale":[0.0003433228,0.0002235066]},"arcs":[[[1370,4096],[-40,-120],[15,-29],[-84,-51],[-91,-112],[-14,-74],[-68,-50],[-75,-136],[-75,-70],[-48,-5],[-53,-76],[-12,-86],[-257,-336],[-59,-147],[-99,-86],[31,-97],[55,-48],[77,-11],[146,-605],[-11,-108],[23,-86],[-33,-310],[-53,-26],[-19,-67],[95,-49],[-40,-18],[-8,-58],[-69,-105],[34,-45],[40,77],[68,2],[-49,-110],[35,-24],[66,14],[-3,-15],[47,23],[12,-87],[41,-43],[27,5],[-13,-21],[50,-26],[7,-37],[57,17],[26,-11],[-15,-28],[22,-27],[80,-13],[-18,-69],[-46,-19],[11,-25],[-21,-22],[33,-70],[-27,-51],[43,-7],[-21,-34],[57,-56],[-7,-46],[-129,-25],[-39,106],[-60,-4],[-10,43],[-129,84],[-30,-47],[-108,44],[-105,-62],[-89,53],[-68,125],[-67,26],[-15,40],[-51,17],[-49,-42]],[[191,740],[-36,-38],[-6,-220],[-38,-40],[22,-65],[-72,-45],[-61,12]],[[0,732],[115,38],[76,-30]],[[191,740],[-76,30],[-115,-38]],[[0,344],[61,-12],[72,45],[-22,65],[38,40],[6,220],[36,38]],[[191,740],[49,42],[51,-17],[15,-40],[67,-26],[68,-125],[84,-51],[110,60],[108,-44],[30,47],[129,-84],[10,-43],[60,4],[39,-106],[122,20]],[[1133,377],[14,51],[-57,56],[21,34],[-43,7],[27,51],[-33,70],[21,22],[-11,25],[46,19],[18,69],[-80,13],[-22,27],[15,28],[-26,11],[-57,-17],[-7,37],[-50,26],[13,21],[-27,-5],[-41,43],[-12,87],[-47,-23],[3,15],[-66,-14],[-35,24],[49,110],[-68,-2],[-40,-77],[-34,45],[69,105],[8,58],[40,18],[-95,49],[19,67],[53,26],[33,310],[-23,86],[11,108],[-146,605],[-77,11],[-55,48],[-31,97],[99,86],[59,147],[257,336],[12,86],[53,76],[48,5],[75,70],[75,136],[68,50],[14,74],[91,112],[84,51],[-15,29],[40,120]],[[1128,0],[-44,86],[3,67],[75,57],[37,-17],[21,21],[-14,85],[-73,78]],[[4096,793],[-5,-7],[-148,60],[-79,8],[-83,-27],[-40,55],[-25,-14],[-68,35],[3,-31],[-64,-77],[-35,-27],[-25,33],[-34,-7],[-48,-60],[-16,-52],[26,-39],[-65,-170],[-43,-26],[-38,38],[-41,-25],[5,-53],[-169,-173],[59,-90],[-51,-144]],[[1344,3949],[69,-10],[61,25]],[[1474,3964],[54,26]],[[1528,3990],[15,7],[24,8],[7,1]],[[1574,4006],[3,1]],[[1474,3964],[-42,-20],[-10,-4],[-12,-2],[-65,11]],[[1577,4006],[-3,0]],[[1574,4006],[-46,-16]],[[1886,4033],[-139,-69],[-26,-7],[-27,5],[-88,43],[-29,1]],[[1577,4006],[-2,0]],[[1575,4006],[-1,0]],[[1574,4006],[1,0]],[[1575,4006],[2,1]],[[1577,4007],[18,1],[6,-1],[7,-2],[79,-40]],[[1846,4013],[45,23],[15,14],[5,3],[6,3],[41,9],[7,1],[9,1],[10,0],[11,-1],[13,-3],[11,-4],[7,-3],[103,-54],[124,-4],[17,-2],[7,-2],[7,-3],[44,-24],[8,-1],[52,-4],[88,-7],[6,-1],[215,-51],[65,-2],[51,-5],[134,0],[6,-1],[53,-4],[8,-1],[6,-1],[58,-15],[29,-11],[20,0],[18,-2],[4,-1],[86,-26],[56,18],[1,8],[-4,171],[0,28],[2,10],[2,4],[14,23]],[[3467,4096],[7,-2],[141,-46],[347,44],[5,0],[7,0],[4,0],[8,-1],[11,-4],[6,-2],[28,-12],[10,-2],[55,13]],[[1887,4034],[108,32],[134,-65],[141,-5],[58,-29],[369,-64],[116,-8],[204,-5],[90,-27],[42,-3],[86,-26],[43,3],[13,16],[1,7],[0,15],[-4,184],[24,37]],[[3417,4096],[199,-48],[348,44],[22,-1],[44,-18],[11,-2],[55,13]],[[994,4096],[-27,-62],[-4,-4],[-9,-8],[-11,-9],[-2,-1],[-8,-3],[-23,-9],[-6,-4],[-7,-39],[-1,-3],[-2,-3],[-2,-3],[-3,-2],[-3,-3],[-3,-1],[-41,-13],[-57,-42],[14,-33]],[[992,4096],[-26,-62],[-23,-21],[-32,-12],[-4,-2],[-3,-3],[-15,-50],[-6,-4],[-35,-10],[-7,-3],[-57,-42],[15,-33]],[[799,3854],[302,3],[244,92]],[[3955,1423],[-4,-6]],[[3955,1423],[-2,5],[-11,13],[11,-13],[2,-5]],[[2034,2657],[1,0]],[[3941,1169],[-26,-147],[92,-94],[-40,-192],[-35,-57]],[[3941,1169],[1,1]],[[3943,1171],[-1,3],[-1,-5]],[[3943,1171],[-1,0],[0,-1],[1,1]],[[3950,1349],[9,-79]],[[3998,575],[14,-33]],[[4045,453],[3,-4]],[[815,3907],[-11,-23]],[[3951,1417],[-1,-68]],[[811,3948],[53,-96]],[[862,3856],[-6,28],[-45,64]],[[1204,414],[5,32]],[[2546,3867],[18,50]],[[308,121],[-46,-39],[-47,9]],[[2893,3293],[-14,-16]],[[3945,1449],[-2,-3]],[[3946,1447],[1,2]],[[3946,1452],[-1,-2],[1,-1],[2,1],[-2,2]],[[2024,2654],[11,3]],[[4094,4062],[2,-4]],[[950,3852]],[[950,3852],[-1,1]],[[953,3853],[-3,-1]],[[950,3852]],[[2657,3878],[-10,-1]],[[2071,2670],[-29,-14]],[[2677,374],[112,-6]],[[4012,542],[4,-17]],[[1601,1057],[-6,7]],[[2035,2657]],[[4080,4096],[14,-34]],[[369,3710],[-38,-6],[-44,65],[-80,-12],[-12,65],[-84,47]],[[101,3881],[2,3]],[[845,3848],[-1,1]],[[215,91],[-76,46],[-139,-25]],[[1120,352],[2,-35],[-51,-4],[3,-23],[-43,-18],[-94,22],[-69,-63],[-127,91],[-68,16],[-179,-33],[-73,33],[-59,-164],[-54,-53]],[[1135,365],[18,4]],[[2837,402],[62,60]],[[787,3856],[-2,1]],[[803,3847],[-4,1]],[[844,3849],[19,0]],[[338,2327],[151,157],[98,15]],[[1304,3924],[2,0]],[[1313,3923],[-4,0]],[[4066,4003],[30,9]],[[845,3926],[-30,-19]],[[1948,3887],[-46,4]],[[799,3878],[2,-1]],[[741,3823],[39,31]],[[780,3854],[6,2]],[[785,3857],[-5,-3]],[[787,3856],[2,-1]],[[789,3855],[-2,1]],[[789,3855],[10,-7]],[[888,3850],[-19,0]],[[890,3851],[-2,-1]],[[888,3850],[2,0]],[[891,3850],[2,1]],[[891,3850],[0,1],[-1,0]],[[890,3851],[0,-1],[1,0]],[[893,3851],[-2,0]],[[910,3851],[-17,0]],[[1902,3891],[-4,0]],[[808,3966],[7,13]],[[844,3849],[-41,-2]],[[2043,2656],[0,1]],[[0,3457],[197,78],[97,3],[27,67],[72,65],[-3,37]],[[739,3844],[5,3],[19,0]],[[763,3847],[3,0]],[[763,3852],[0,-5]],[[763,3847],[0,-1],[2,1]],[[778,3859],[2,1]],[[786,3865],[13,13]],[[802,3877],[1,2]],[[296,2278],[16,25]],[[488,2484],[-1,-1]],[[3638,3594],[-112,-8]],[[4030,468],[15,-15]],[[204,4068],[25,-60],[-96,-90]],[[202,4074],[-5,22]],[[2495,3883],[-83,26]],[[804,3884],[-1,-5]],[[1120,352],[15,13]],[[1961,3887],[-13,0]],[[2417,3912],[9,4]],[[2577,3919],[2,0]],[[2432,98],[90,64]],[[554,3827],[39,-5]],[[610,3818],[32,-9]],[[741,3823],[-62,-16]],[[917,3852],[-7,-1]],[[919,3852],[-2,0]],[[917,3852],[2,-1]],[[920,3851],[59,3]],[[979,3854],[-59,-2]],[[979,3854],[121,-5],[138,70],[66,5]],[[920,3852],[-1,0],[1,-1],[0,1]],[[1221,474],[16,25]],[[1458,2370],[-29,-154]],[[111,3869],[-10,12]],[[125,3911],[-22,-27]],[[369,3710],[11,-17]],[[579,3751],[-157,-100]],[[622,3779],[-2,-2]],[[4096,1821],[-57,-143]],[[1,4050],[23,46]],[[1501,2373],[-8,-1]],[[1157,370],[17,4]],[[1300,622],[19,61]],[[132,3918],[1,0]],[[3113,687],[66,143]],[[3296,815],[34,14]],[[3358,841],[25,11]],[[1210,452],[2,7]],[[1153,369],[4,1]],[[1174,374],[3,0]],[[1237,499],[16,41]],[[1278,571],[22,51]],[[1319,683],[99,61],[111,181],[39,14],[33,117]],[[1363,1631],[6,44],[-26,42]],[[1404,1481],[2,1]],[[1429,2214],[-52,-84],[77,-113],[44,-18],[17,-80],[-39,-37]],[[1586,1137],[13,29],[-163,228]],[[3331,3765],[-5,-1]],[[3326,3762],[6,0]],[[4008,1541],[-13,30]],[[554,3827],[-23,-29],[-89,20],[-52,-111]],[[593,3822],[17,-4]],[[1343,1717],[0,30]],[[1419,1521],[10,27],[-66,83]],[[1304,3925],[-18,1]],[[1898,3891],[-34,6]],[[865,3852],[-3,4]],[[679,3807],[-37,2]],[[780,3860],[6,5]],[[1304,3924],[5,-3],[6,2]],[[1315,3923],[-11,2]],[[1315,3923],[3,1]],[[1318,3924],[1,0]],[[1857,3898],[-130,43],[-408,-17]],[[2417,3912],[-362,29],[-94,-54]],[[2426,3916],[68,26],[83,-23]],[[2579,3919],[102,-43],[339,11],[126,-29],[64,-64],[113,-32]],[[3326,3764],[-3,-2]],[[3323,3762],[3,0]],[[3341,3765],[-10,0]],[[3332,3762],[9,3]],[[4096,4014],[-596,-143],[-159,-106]],[[763,3852],[15,7]],[[765,3847],[1,0]],[[802,3877],[-1,0]],[[1487,2372],[-29,-2]],[[3959,1270],[-17,-96]],[[2163,2733],[-92,-63]],[[2024,2654]],[[2024,2654],[2,0]],[[2024,2654],[1,1]],[[4045,1681],[-7,-5]],[[4016,525],[14,-57]],[[2647,3877],[-66,-7]],[[3998,1577],[1,2]],[[1864,3897],[-7,1]],[[1428,1848],[48,34]],[[2581,3870],[-38,-3]],[[0,2303],[162,-65],[62,7]],[[224,2245],[16,20]],[[241,2266],[25,6]],[[268,2272],[28,6]],[[4048,449],[48,-43]],[[799,3848]],[[3995,1571],[3,6]],[[1212,459],[9,15]],[[3932,679],[66,-104]],[[2019,2660],[5,-5]],[[2024,2655],[0,-1]],[[2035,2657],[-11,-2]],[[2639,4096],[0,-54],[-62,-93],[-45,-15],[33,-15]],[[488,2484],[1,0]],[[489,2484],[0,1]],[[2358,0],[74,98]],[[2522,162],[45,17],[110,195]],[[2819,365],[15,31]],[[3031,599],[-24,-16]],[[3113,687],[-4,-6]],[[3179,830],[6,6]],[[3185,836],[8,2]],[[3193,838],[103,-23]],[[3330,829],[28,12]],[[3383,852],[94,126]],[[3516,1034],[31,47]],[[3937,1439],[-259,-207]],[[1253,540],[25,31]],[[1493,2372],[-6,0]],[[418,3655],[4,-4]],[[3952,1455],[-6,-3]],[[3947,1449],[5,6]],[[3952,1455],[56,86]],[[3942,1443],[-5,-4]],[[3942,1443],[4,4]],[[3943,1446],[-1,-3]],[[1209,446],[1,6]],[[1396,1471],[8,10]],[[1406,1482],[13,39]],[[1889,2583],[-342,-208],[-46,-2]],[[1595,1064],[12,48]],[[1601,1056],[0,1]],[[2847,3241],[-379,-229],[-134,-146],[-171,-133]],[[3526,3586],[-483,-158],[-150,-135]],[[3885,3791],[-200,-112],[-47,-85]],[[3996,3891],[-75,-98]],[[4057,4000],[-41,-99]],[[681,3823],[-2,-16]],[[2921,504],[-4,-29]],[[3007,583],[-77,-52]],[[1343,1747],[3,29],[82,72]],[[2834,396],[3,6]],[[2789,368],[30,-3]],[[2899,462],[18,13]],[[863,3849],[2,1]],[[865,3850],[2,-1]],[[4039,1678],[-1,-2]],[[2879,3277],[-4,-5]],[[3921,3793],[-36,-2]],[[4000,1583],[38,93]],[[1,4050],[-1,1]],[[125,3911],[7,7]],[[620,3777],[-41,-26]],[[642,3809],[-20,-30]],[[681,3823],[3,16]],[[489,2485],[-1,-1]],[[568,2502],[19,-3]],[[224,2245]],[[240,2265],[1,1]],[[266,2272],[2,0]],[[739,3844],[-55,-5]],[[2930,531],[-9,-27]],[[1429,2216],[0,-2]],[[1436,1394],[-25,24]],[[2543,3867],[-48,16]],[[4096,1724],[-51,-43]],[[1177,374],[27,40]],[[202,4074],[2,-6]],[[863,3935],[40,13]],[[1411,1418],[-15,53]],[[3477,978],[39,56]],[[3547,1081],[131,151]],[[863,3935],[-18,-9]],[[903,3948],[164,77],[41,71]],[[811,3948],[-3,18]],[[865,4096],[-57,-129],[-1,-8],[4,-11]],[[815,3979],[21,38],[32,79]],[[2019,2660],[-130,-77]],[[312,2303],[26,24]],[[490,2485],[-1,0]],[[389,3677],[-1,2]],[[786,3856],[1,0]],[[799,3848],[46,0]],[[863,3849]],[[863,3849],[3,2]],[[864,3851],[-1,-2]],[[864,3851],[1,-1],[1,1],[-1,1],[-1,-1]],[[2564,3917],[1,2]],[[3109,681],[-78,-82]],[[1607,1112],[-21,25]],[[2875,3272],[-28,-31]],[[2035,2657],[7,-1]],[[3999,1579],[1,4]],[[4016,3901],[-20,-10]],[[380,3693],[8,-14]],[[418,3655],[-29,22]],[[0,0],[0,4096],[4096,0],[0,-4096],[-4096,0]],[[1860,509],[46,57],[38,-29],[67,73],[86,-41],[46,40],[20,30],[-16,181],[48,34],[-4,39],[48,98],[-11,35],[29,21],[6,-82],[40,-12],[-40,146],[65,41],[9,-58],[-21,-39],[24,-66],[14,51],[34,-27],[44,7],[-2,-32],[69,56],[-45,-54],[64,-95],[80,20],[-18,58],[103,-50],[7,-44],[44,5],[44,-62],[5,61],[63,-46],[-60,-29],[-41,25],[-101,-42],[66,-21],[11,-58],[43,-20],[60,37],[16,-11],[40,51],[-26,32],[42,17],[36,-14],[-32,-59],[67,-62],[60,-6],[16,-54],[-108,-63],[-24,-74],[-77,-79],[-47,59],[-55,-6],[-58,18],[10,25],[-59,2],[6,-35],[-192,-127],[-2,-55],[-58,-64],[23,-67],[-74,43],[10,49],[-73,61],[-31,-46],[-20,11],[17,108],[-59,-28],[26,34],[-37,17],[68,3],[-34,9],[-5,75],[-97,-5],[23,47],[-18,1],[-38,-111],[-13,20],[23,49],[-29,23],[-30,8],[-6,-60],[-22,-12],[-31,40],[-48,-22],[-44,50]],[[112,444],[37,38],[6,220],[-6,-156],[-32,58],[-49,-10],[-38,47],[-30,-22],[0,113],[0,268],[0,332],[207,-184],[65,-28],[32,28],[29,-22],[93,-90],[12,-42],[62,-10],[101,-95],[60,25],[44,-87],[89,-84],[48,-1],[37,-77],[64,-28],[0,26],[65,39],[9,-42],[52,-7],[26,-77],[-27,-51],[43,-7],[-21,-34],[57,-56],[-7,-46],[-129,-25],[148,12],[61,-104],[0,-51],[-21,-21],[-37,17],[-68,-49],[-10,-56],[-40,22],[6,29],[-46,23],[-3,25],[-36,-26],[21,-59],[-35,0],[-33,26],[-1,56],[-71,21],[-57,-27],[26,-53],[-47,-69],[-26,22],[-1,45],[-19,-25],[-90,21],[-100,-136],[-532,0],[0,344],[0,38],[57,77],[50,5],[5,-20]],[[155,702],[91,80],[-57,-41],[2,-1],[-36,-38]],[[47,335],[14,-3],[63,40],[-77,-37]],[[130,375],[3,2],[-13,39],[10,-41]],[[1232,928],[18,26],[61,-87],[32,38],[41,6],[47,69],[14,-4],[-16,-54],[-25,13],[8,-18],[-74,-45],[36,-72],[-19,12],[-37,-31],[27,51],[-113,96]],[[0,1654],[37,2],[32,71],[36,7],[11,-36],[57,-27],[29,25],[7,-43],[33,1],[37,-48],[25,31],[93,-109],[8,18],[40,-28],[14,22],[60,-112],[106,-7],[16,-85],[80,-25],[-40,-18],[-75,-170],[32,-38],[40,77],[70,0],[-42,-60],[-5,-72],[93,-28],[23,-47],[28,2],[-18,-39],[35,11],[-19,-29],[63,-6],[-10,-31],[33,-27],[-26,-13],[27,3],[0,-24],[59,16],[28,-42],[52,-16],[21,20],[32,-22],[-4,-46],[-46,-19],[11,-25],[-7,-9],[-59,1],[-9,42],[-65,-39],[0,-26],[-64,28],[-37,77],[-48,1],[-89,84],[-44,87],[-60,-25],[-101,95],[-62,10],[-12,42],[-122,112],[-23,-29],[-61,21],[-168,164],[-35,0],[-17,28],[0,322]],[[3263,447],[46,38],[33,-38],[42,19],[42,103],[74,-13],[56,-54],[-72,-29],[-51,16],[-63,-97],[-77,43],[-23,-19],[-7,31]],[[977,0],[-21,53],[41,18],[36,-71],[-56,0]],[[701,1030],[23,17],[34,-18],[40,15],[-3,-15],[47,23],[12,-87],[41,-43],[27,5],[-13,-21],[50,-26],[7,-37],[83,6],[-13,-38],[100,-29],[-6,-36],[-40,34],[-21,-20],[-52,16],[-28,42],[-59,-16],[0,24],[-27,-3],[26,13],[-33,27],[10,31],[-63,6],[19,29],[-35,-11],[18,39],[-28,-2],[-23,47],[-93,28]],[[2713,235],[8,63],[75,12],[43,-106],[7,-97],[26,-24],[-48,18],[-111,134]],[[2819,300],[45,114],[119,91],[32,74],[42,-59],[55,13],[10,28],[41,-8],[-40,-117],[-23,4],[-38,-50],[36,-12],[-64,-26],[-8,-84],[-141,72],[-47,-46],[26,1],[13,-29],[23,35],[23,-82],[35,-9],[-28,-39],[-38,30],[-19,-12],[-54,111]],[[2684,1131],[56,65],[26,-8],[60,-118],[-30,18],[-20,-26],[-30,10],[-62,59]],[[2369,1243],[3,56],[35,-7],[23,61],[43,-43],[14,21],[42,-32],[34,19],[-24,104],[149,-71],[-64,-96],[67,10],[-24,45],[35,24],[47,-41],[51,-3],[-20,-39],[73,-48],[-91,-5],[-43,45],[-69,-49],[-48,26],[2,-39],[-28,-17],[-88,61],[42,53],[-39,5],[-12,-38],[-110,-2]],[[0,1550],[70,-67],[29,5],[7,-55],[-51,62],[-23,-5],[-32,60]],[[604,1132],[69,103],[8,58],[40,17],[-95,50],[19,67],[55,27],[10,-20],[-55,-34],[39,-31],[63,-11],[24,29],[89,-33],[73,41],[31,-20],[40,-57],[-27,-50],[-22,-8],[0,27],[-14,-17],[-14,25],[-23,-18],[57,-45],[34,-75],[64,11],[45,-49],[86,-11],[101,-98],[84,16],[40,-54],[24,6],[35,-103],[-52,-3],[24,-64],[-38,14],[-96,-78],[-5,-101],[-67,-78],[-59,43],[-26,-17],[18,-94],[42,-15],[-52,-110],[-102,-12],[69,21],[8,41],[-58,62],[21,34],[-43,7],[27,51],[-33,69],[21,23],[-11,25],[46,19],[18,69],[-80,13],[-22,27],[15,28],[-26,11],[-57,-17],[-7,37],[-50,26],[13,21],[-27,-5],[-41,43],[-12,87],[-47,-23],[3,15],[-66,-14],[-35,24],[49,110],[-68,-2],[-42,-78],[-32,48]],[[3992,2377],[35,-13],[0,28],[8,-16],[61,36],[0,-120],[-4,81],[-9,7],[-18,-14],[-3,6],[22,20],[-23,-8],[-19,-69],[-32,4],[16,37],[-34,21]],[[1817,3997],[30,16],[39,-29],[-20,70],[47,-42],[-3,-91],[52,-35],[-12,-22],[12,-6],[-4,-12],[-51,12],[15,-61],[-34,-4],[-18,33],[-7,89],[-38,10],[50,20],[-58,52]],[[0,1617],[49,-30],[-49,-82],[0,112]],[[730,953],[46,81],[66,19],[9,-82],[29,-29],[-61,-57],[-1,22],[-88,46]],[[573,912],[39,169],[44,20],[22,61],[68,2],[-52,-98],[20,-20],[-36,-43],[6,-59],[-17,11],[-48,-69],[-46,26]],[[3942,1446],[-57,1],[-51,45],[50,116],[43,40],[69,-7],[0,-49],[63,-48],[1,-52],[-118,-46]],[[2983,1543],[-88,-2],[-25,60],[57,139],[-17,35],[-112,15],[65,199],[226,0],[3,-59],[-67,-90],[-12,-222],[-30,-75]],[[810,3774],[-68,43],[-15,111],[49,42],[146,-92],[-36,-82],[-76,-22]],[[27,735],[12,24],[76,11],[76,-30],[0,-19],[-36,-19],[-5,-61],[-94,39],[-29,55]],[[1422,2292],[36,74],[-23,26],[-3,14],[69,-29],[-22,-14],[11,-24],[50,17],[-2,-35],[-76,-15],[-32,-92],[-8,78]],[[3622,1359],[23,75],[69,11],[91,56],[-1,-37],[19,17],[15,-20],[-104,-74],[-66,12],[-46,-40]],[[1527,63],[9,3],[22,-40],[63,30],[-19,14],[-8,22],[-20,-17],[-7,2],[15,25],[-32,18],[46,-12],[41,26],[-14,51],[11,21],[24,-9],[-16,-4],[25,-49],[62,32],[-13,-18],[57,10],[-51,-30],[-59,2],[-17,-15],[15,2],[-9,-17],[19,-1],[6,-9],[-27,8],[-6,10],[-42,-26],[52,-33],[36,21],[-32,-33],[15,-47],[-27,0],[-21,58],[-63,-56],[-35,61]],[[3967,1595],[41,97],[27,-16],[30,17],[31,-40],[0,-42],[-59,-57],[-70,41]],[[534,2921],[-25,-117],[-99,-86],[30,-97],[56,-48],[77,-11],[121,-496],[-47,-17],[-200,140],[-77,17],[-68,73],[27,63],[-39,56],[-80,43],[-81,27],[-32,-50],[47,-24],[-56,-123],[-88,33],[0,810],[0,860],[99,-27],[4,-37],[67,3],[38,-35],[-4,19],[45,9],[19,41],[-34,21],[16,16],[-31,4],[33,19],[-19,86],[292,-49],[39,-39],[-17,-26],[16,-10],[-95,45],[-33,-25],[-3,-38],[23,-15],[-26,-11],[10,-16],[14,11],[86,17],[7,-4],[2,-6],[-59,-11],[-34,-75],[155,-21],[13,-42],[-55,-9],[-5,-24],[65,24],[43,-32],[-6,-23],[32,32],[54,-31],[-21,-10],[21,-17],[-101,-37],[-23,-65],[47,-25],[-36,-65],[33,-96],[-30,-46],[49,-17],[-26,-10],[1,-7],[58,-61],[3,-88],[-184,-260],[-8,10]],[[407,2972],[71,29],[-71,-29]],[[3958,471],[34,30],[-10,37],[58,-22],[-7,42],[38,-5],[-42,-159],[-8,49],[-29,0],[16,23],[-50,5]],[[751,2954],[50,3],[-17,-7],[41,-34],[112,45],[-97,-64],[75,17],[-47,-20],[15,-35],[-37,18],[-9,-29],[-46,-30],[34,44],[-21,25],[-26,-38],[-11,23],[50,24],[-42,-11],[29,22],[-53,47]],[[3832,3755],[40,7],[17,37],[81,-16],[-20,-34],[-35,1],[31,-33],[-34,6],[18,-40],[-23,-10],[-33,11],[25,67],[-35,-16],[-32,20]],[[2396,3919],[23,3],[14,-12],[54,27],[39,-29],[54,12],[-14,-33],[87,-9],[-75,-19],[2,-72],[-27,8],[8,48],[-48,1],[-19,41],[-98,34]]]}