{"objects":{"water":{"type":"GeometryCollection","geometries":[]},"buildings":{"type":"GeometryCollection","geometries":[]},"places":{"type":"GeometryCollection","geometries":[{"type":"Point","properties":{"name:pt":"Oblast da Transcarp\u00e1tia","name:ro":"Regiunea Transcarpatia","name:cs":"Zakarpatsk\u00e1 oblast","name:eo":"Transkarpata Provinco","min_zoom":4.0,"name:be":"\u0417\u0430\u043a\u0430\u0440\u043f\u0430\u0446\u043a\u0430\u044f \u0432\u043e\u0431\u043b\u0430\u0441\u0446\u044c","name:ru":"\u0417\u0430\u043a\u0430\u0440\u043f\u0430\u0442\u0441\u043a\u0430\u044f \u043e\u0431\u043b\u0430\u0441\u0442\u044c","name:pl":"obw\u00f3d zakarpacki","id":683681593,"kind":"region","name:en":"Zakarpatska Oblast","name":"\u0417\u0430\u043a\u0430\u0440\u043f\u0430\u0442\u0441\u044c\u043a\u0430 \u043e\u0431\u043b\u0430\u0441\u0442\u044c","kind_detail":"state","name:de":"Oblast Transkarpatien","source":"openstreetmap.org","name:fr":"Oblast de Transcarpathie","name:es":"\u00d3blast de Transcarpatia"},"coordinates":[2757,1342]},{"type":"Point","properties":{"name:ro":"Muncaci","name:sk":"Muka\u010devo","alt_name:de":"Munkatsch","name:cs":"Muka\u010devo","name:eo":"Muka\u0109eve","min_zoom":8.0,"old_name":"\u041c\u0443\u043a\u0430\u0447\u0435\u0432\u0435","name:pl":"Mukaczewo","name:hu":"Munk\u00e1cs","id":337598436,"population":85963,"kind":"locality","name:en":"Mukachevo","old_name:de":"Mukatschewe","name":"\u041c\u0443\u043a\u0430\u0447\u0435\u0432\u043e","old_name:pl":"Munkacz","kind_detail":"town","name:de":"Mukatschewo","source":"openstreetmap.org","name:zh":"\u7a46\u5361\u5207\u6c83"},"coordinates":[635,1985]},{"type":"Point","properties":{"name:ro":"Hust","name:sk":"Chust","name:he":"\u05d7\u05d5\u05e1\u05d8","name:cs":"Chust","name:eo":"\u0124ust","min_zoom":8.0,"name:pl":"Chust","name:hu":"Huszt","id":337657274,"population":28438,"kind":"locality","name:en":"Khust","name":"\u0425\u0443\u0441\u0442","kind_detail":"town","name:de":"Chust","source":"openstreetmap.org","name:fr":"Khoust","name:yi":"\u05d7\u05d5\u05e1\u05d8"},"coordinates":[2304,819]},{"type":"Point","properties":{"kind":"locality","name:en":"Vynohradiv","name":"\u0412\u0438\u043d\u043e\u0433\u0440\u0430\u0434\u0456\u0432","old_name:pl":"Wielki Sewlusz","kind_detail":"town","name:eo":"Vinohradiv","name:de":"Wynohradiw","source":"openstreetmap.org","min_zoom":8.0,"name:ro":"Seleu\u0219u Mare","name:ru":"\u0412\u0438\u043d\u043e\u0433\u0440\u0430\u0434\u043e\u0432","name:pl":"Wynohradiw","name:hu":"Nagysz\u0151l\u0151s","id":337658507,"population":25481},"coordinates":[1561,661]},{"type":"Point","properties":{"name:ro":"Bereg","name:sk":"Berehovo","alt_name:de":"Bergsa\u00df","name:cs":"Berehovo","kind":"locality","min_zoom":8.0,"name:la":"Peregium","name:ru":"\u0411\u0435\u0440\u0435\u0433\u043e\u0432\u043e","name:pl":"Berehowo","name:de":"Berehowe","id":254275595,"population":24580,"name:eo":"Berehove","name:hu":"Beregsz\u00e1sz","name":"\u0411\u0435\u0440\u0435\u0433\u043e\u0432\u0435","kind_detail":"town","old_name:de":"Lampertshaus","name:nl":"Berehove","source":"openstreetmap.org","name:fr":"Berehove","alt_name:uk":"\u0411\u0435\u0301\u0440\u0435\u0433\u043e\u0432\u043e","name:zh":"\u522b\u5217\u6208\u6c83","name:en":"Berehove"},"coordinates":[423,945]},{"type":"Point","properties":{"kind":"locality","name:en":"Svalyava","name":"\u0421\u0432\u0430\u043b\u044f\u0432\u0430","kind_detail":"town","name:eo":"Svaljava","name:de":"Schwalbach","source":"openstreetmap.org","min_zoom":8.0,"name:ro":"Svaleava","name:pl":"Swalawa","name:hu":"Szolyva","id":337594479,"population":16871},"coordinates":[1426,2443]},{"type":"Point","properties":{"kind":"locality","name:en":"Dubove","name":"\u0414\u0443\u0431\u043e\u0432\u0435","kind_detail":"town","source":"openstreetmap.org","min_zoom":8.0,"name:pl":"Dubowe","name:hu":"Domb\u00f3","id":337657214,"population":9591},"coordinates":[4037,831]},{"type":"Point","properties":{"kind":"locality","name:en":"Mizhhiria","name":"\u041c\u0456\u0436\u0433\u0456\u0440\u2019\u044f","kind_detail":"town","name:de":"Mischhirja","source":"openstreetmap.org","min_zoom":8.0,"name:ro":"Boureni","old_name":"\u0412\u043e\u043b\u043e\u0432\u0435","name:ru":"\u041c\u0435\u0436\u0433\u043e\u0440\u044c\u0435","name:pl":"Mi\u017chirja","name:hu":"\u00d6k\u00f6rmez\u0151","id":337595407,"population":9549},"coordinates":[2915,2364]},{"type":"Point","properties":{"name:ro":"Teceu Mare","name:sk":"\u0164a\u010dov","name:cs":"\u0164a\u010div","name:eo":"Ta\u0109iv","min_zoom":8.0,"name:ru":"\u0422\u044f\u0447\u0435\u0432","name:pl":"Tiacziw","name:hu":"T\u00e9cs\u0151","id":337662678,"population":9184,"kind":"locality","name:en":"Tiachiv","old_name:de":"Gro\u00dfteutschenau","name":"\u0422\u044f\u0447\u0456\u0432","kind_detail":"town","name:de":"Tjatschiw","source":"openstreetmap.org","name:fr":"Tiatchiv","name:yi":"\u05d8\u05e2\u05d8\u05e9"},"coordinates":[3141,95]},{"type":"Point","properties":{"kind":"locality","name:en":"Irshava","name":"\u0406\u0440\u0448\u0430\u0432\u0430","kind_detail":"town","name:de":"Irschawa","source":"openstreetmap.org","min_zoom":8.0,"name:ro":"Ilo\u0219va","name:ru":"\u0418\u0440\u0448\u0430\u0432\u0430","name:pl":"Irszawa","name:hu":"Ilosva","id":337602677,"population":9166},"coordinates":[1578,1446]},{"type":"Point","properties":{"kind":"locality","name:en":"Korolevo","name":"\u041a\u043e\u0440\u043e\u043b\u0435\u0432\u043e","kind_detail":"town","source":"openstreetmap.org","min_zoom":8.0,"int_name":"Korolevo","name:ru":"\u041a\u043e\u0440\u043e\u043b\u0451\u0432\u043e","name:be":"\u041a\u0430\u0440\u0430\u043b\u0451\u0432\u0430","name:pl":"Koro\u0142ewo","name:hu":"Kir\u00e1lyh\u00e1za","id":337657992,"population":8993},"coordinates":[1842,721]},{"type":"Point","properties":{"kind":"locality","name:en":"Bushtyno","name":"\u0411\u0443\u0448\u0442\u0438\u043d\u043e","kind_detail":"town","name:de":"Buschtin an der Thei\u00df","source":"openstreetmap.org","min_zoom":8.0,"name:ru":"\u0411\u0443\u0448\u0442\u044b\u043d\u043e","name:pl":"Busztyno","name:hu":"Bustyah\u00e1za","id":941385448,"population":8634},"coordinates":[2870,253]},{"type":"Point","properties":{"kind":"locality","name:en":"Vyshkovo","name":"\u0412\u0438\u0448\u043a\u043e\u0432\u043e","kind_detail":"town","source":"openstreetmap.org","min_zoom":8.0,"name:ru":"\u0412\u044b\u0448\u043a\u043e\u0432\u043e","name:pl":"Wyszkowo","name:hu":"Visk","id":337661433,"population":8312},"coordinates":[2706,248]},{"type":"Point","properties":{"kind":"locality","name:en":"Teresva","name:sk":"Tere\u0161va","name":"\u0422\u0435\u0440\u0435\u0441\u0432\u0430","kind_detail":"town","name:cs":"Teresva","name:eo":"Teresva","name:de":"Tereswa","source":"openstreetmap.org","min_zoom":8.0,"name:pl":"Tereswa","name:hu":"Tarack\u00f6z","old_name:de":"Theresiental","id":337663241,"population":7518},"coordinates":[3494,35]},{"type":"Point","properties":{"name:ro":"Volov\u0103\u021b","name:sk":"Volovec","name:cs":"Volovec","name:eo":"Volovec","min_zoom":8.0,"name:ru":"\u0412\u043e\u043b\u043e\u0432\u0435\u0446","name:pl":"Wo\u0142owiec","name:hu":"Vol\u00f3c","id":337588084,"population":7104,"kind":"locality","name:en":"Volovets","name":"\u0412\u043e\u043b\u043e\u0432\u0435\u0446\u044c","kind_detail":"town","name:de":"Wolowez","source":"openstreetmap.org","name:zh":"\u6c83\u6d1b\u97e6\u9f50"},"coordinates":[2006,3183]},{"type":"Point","properties":{"kind":"locality","name:en":"Chynadiiovo","name":"\u0427\u0438\u043d\u0430\u0434\u0456\u0439\u043e\u0432\u043e","kind_detail":"town","name:de":"Tschynadijowo","source":"openstreetmap.org","min_zoom":8.0,"name:ru":"\u0427\u0438\u043d\u0430\u0434\u0438\u0435\u0432\u043e","name:pl":"Czynadijowo","name:hu":"Szentmikl\u00f3s","name:zh":"\u5947\u7eb3\u5b63\u5965\u6c83","id":337596375,"population":6822},"coordinates":[1003,2243]},{"type":"Point","properties":{"kind":"locality","name:en":"Kolchyno","name":"\u041a\u043e\u043b\u044c\u0447\u0438\u043d\u043e","kind_detail":"town","name:de":"Koltschyno","source":"openstreetmap.org","min_zoom":8.0,"name:pl":"Kolczyno","name:hu":"K\u00f6lcs\u00e9ny","name:zh":"\u79d1\u5229\u5947\u8bfa","id":337597363,"population":4319},"coordinates":[736,2111]},{"type":"Point","properties":{"kind":"locality","name:en":"Serednie","name:sk":"Seredn\u00e9","name":"\u0421\u0435\u0440\u0435\u0434\u043d\u0454","kind_detail":"town","name:eo":"Seredne","name:de":"Serednje","source":"openstreetmap.org","min_zoom":8.0,"name:ru":"\u0421\u0440\u0435\u0434\u043d\u0435\u0435","name:pl":"Serednie","name:hu":"Szerednye","id":337594685,"population":3733},"coordinates":[13,2422]},{"type":"Point","properties":{"kind":"locality","name:en":"Slavske","name":"\u0421\u043b\u0430\u0432\u0441\u044c\u043a\u0435","kind_detail":"town","name:de":"Slawske","source":"openstreetmap.org","min_zoom":8.0,"alt_name:uk":"\u0421\u043b\u0430\u0432\u0441\u044c\u043a\u043e","name:ru":"\u0421\u043b\u0430\u0432\u0441\u043a\u043e\u0435","name:pl":"S\u0142awsko","name:zh":"\u65af\u62c9\u592b\u897f\u514b","id":337583580,"population":3508},"coordinates":[2752,3755]},{"type":"Point","properties":{"kind":"locality","name:en":"Vilok","name":"\u0412\u0438\u043b\u043e\u043a","kind_detail":"town","source":"openstreetmap.org","min_zoom":8.0,"name:pl":"Wy\u0142ok","name:hu":"Tisza\u00fajlak","id":337659421,"population":3316},"coordinates":[984,533]},{"type":"Point","properties":{"kind":"locality","name:en":"Zhdeniievo","name":"\u0416\u0434\u0435\u043d\u0456\u0454\u0432\u043e","kind_detail":"town","name:eo":"\u0134denijevo","source":"openstreetmap.org","min_zoom":8.0,"name:ru":"\u0416\u0434\u0435\u043d\u0438\u0435\u0432\u043e","name:pl":"\u017bdenijewo","name:hu":"Szarvash\u00e1za","id":337586485,"population":1112},"coordinates":[1397,3437]}]},"transit":{"type":"GeometryCollection","geometries":[{"type":"MultiLineString","properties":{"source":"openstreetmap.org","kind":"train","name":"\u0411\u043e\u0440\u0436\u0430\u0432\u0441\u044c\u043a\u0430 \u0432\u0443\u0437\u044c\u043a\u043e\u043a\u043e\u043b\u0456\u0439\u043d\u0430 \u0437\u0430\u043b\u0456\u0437\u043d\u0438\u0446\u044f","sort_rank":275,"min_zoom":6.0,"osm_relation":true},"arcs":[[15],[16],[17]]}]},"pois":{"type":"GeometryCollection","geometries":[{"type":"Point","properties":{"kind":"national_park","protect_class":"2","area":1049210000,"source":"openstreetmap.org","min_zoom":5.77,"tier":1,"name:ru":"\u041d\u0430\u0446\u0438\u043e\u043d\u0430\u043b\u044c\u043d\u044b\u0439 \u043f\u0440\u0438\u0440\u043e\u0434\u043d\u044b\u0439 \u043f\u0430\u0440\u043a \u00ab\u0421\u0438\u043d\u0435\u0432\u0438\u0440\u00bb","id":225916132,"name":"\u041d\u0430\u0446\u0456\u043e\u043d\u0430\u043b\u044c\u043d\u0438\u0439 \u043f\u0440\u0438\u0440\u043e\u0434\u043d\u0438\u0439 \u043f\u0430\u0440\u043a \u00ab\u0421\u0438\u043d\u0435\u0432\u0438\u0440\u00bb"},"coordinates":[3555,2309]},{"type":"Point","properties":{"kind":"nature_reserve","name":"\u041f\u043e\u043b\u043e\u043d\u0438\u043d\u0430 \u0411\u043e\u0440\u0436\u0430\u0432\u0430","area":1830530000,"source":"openstreetmap.org","min_zoom":6.87,"tier":2,"name:ru":"\u0411\u043e\u0440\u0436\u0430\u0432\u0430 (\u043f\u043e\u043b\u043e\u043d\u0438\u043d\u0430)","name:pl":"Po\u0142onina Bor\u017cawska","id":362584617},"coordinates":[2479,2248]}]},"boundaries":{"type":"GeometryCollection","geometries":[{"type":"MultiLineString","properties":{"name:right:yo":"Ukr\u00e9\u00ecn","name:right:yi":"\u05d0\u05d5\u05e7\u05e8\u05d0\u05d9\u05e0\u05e2","name:left:la":"Romania","name:right:qu":"Ukranya","name:left:li":"Roemeni\u00eb","name:left:vi":"Romania","name:left:sw":"Romania","name:left:kg":"Romania","name:left:ka":"\u10e0\u10e3\u10db\u10d8\u10dc\u10d4\u10d7\u10d8","name:left:kl":"Rum\u00e6nia","name:left:ko":"\ub8e8\ub9c8\ub2c8\uc544","name:left:kn":"\u0cb0\u0cca\u0cae\u0cbe\u0ca8\u0cbf\u0caf","name:right:is":"\u00dakra\u00edna","name:right:rw":"Ikerene","name:left:kk":"\u0420\u0443\u043c\u044b\u043d\u0438\u044f","name:left:rm":"Rumenia","name:left:ku":"Romanya","name:left:kw":"Roumani","name:left:kv":"\u0420\u0443\u043c\u044b\u043d\u0438\u044f","name:left:rw":"Romaniya","name:left:ru":"\u0420\u0443\u043c\u044b\u043d\u0438\u044f","name:right:ig":"Yukrain","name:right:ie":"Ucraina","name:right:id":"Ukraina","name:left:ky":"\u0420\u0443\u043c\u044b\u043d\u0438\u044f","name:right:ia":"Ukraina","name:right:bi":"Ukraine","name:right:bn":"\u0987\u0989\u0995\u09cd\u09b0\u09c7\u09a8","name:right:bo":"\u0f68\u0f74\u0f40\u0f0b\u0f62\u0f61\u0f72\u0f0b\u0f53\u0f72\u0f0d","name:left:sl":"Romunija","name:right:ba":"\u0423\u043a\u0440\u0430\u0438\u043d\u0430","name:right:bg":"\u0423\u043a\u0440\u0430\u0439\u043d\u0430","name:right:be":"\u0423\u043a\u0440\u0430\u0456\u043d\u0430","name:right:br":"Ukraina","name:left:lt":"Rumunija","name:right:nn":"Ukraina","name:right:no":"Ukraina","name:right:nl":"Oekra\u00efne","name:right:wa":"Oucrinne","name:left:lv":"Rum\u0101nija","name:right:wo":"Ukreen","name:right:ne":"\u092f\u0941\u0915\u094d\u0930\u0947\u0928","name:right:na":"Ukraine","name:right:ps":"\u0627\u0648\u06a9\u0631\u0627\u06cc\u0646","name:right:nv":"Y\u00f3\u00f3kwein","kind_detail":"2","alt_name:right:vi":"Uy Ki\u00ean","name:left:tr":"Romanya","name:right:gu":"\u0aaf\u0ac1\u0a95\u0acd\u0ab0\u0ac7\u0aa8","name:right:gv":"Yn Ookraan","name:right:pt":"Ucr\u00e2nia","name:left:mk":"\u0420\u043e\u043c\u0430\u043d\u0438\u0458\u0430","name:left:mi":"Romeinia","name:left:tt":"\u0420\u0443\u043c\u044b\u043d\u0438\u044f","name:left:mn":"\u0420\u0443\u043c\u044b\u043d","name:left:ml":"\u0d31\u0d4a\u0d2e\u0d3e\u0d28\u0d3f\u0d2f","name:left:th":"\u0e1b\u0e23\u0e30\u0e40\u0e17\u0e28\u0e42\u0e23\u0e21\u0e32\u0e40\u0e19\u0e35\u0e22","name:right:pa":"\u0a2f\u0a42\u0a15\u0a4d\u0a30\u0a47\u0a28","name:left:tk":"Rumyni\u00fda","name:left:tl":"Rumanya","name:left:mt":"Rumanija","name:right:gl":"Ucra\u00edna","name:left:my":"\u101b\u102d\u102f\u1019\u1031\u1038\u1014\u102e\u1038\u101a\u102c\u1038\u1014\u102d\u102f\u1004\u103a\u1004\u1036","name:right:gn":"Ukya\u00f1a","name:right:pl":"Ukraina","name:left:te":"\u0c30\u0c4a\u0c2e\u0c47\u0c28\u0c3f\u0c2f\u0c3e","name:left:tg":"\u0420\u0443\u043c\u0438\u043d\u0438\u044f","name:left:ms":"Romania","name:left:mr":"\u0930\u094b\u092e\u0947\u0928\u093f\u092f\u093e","name:right:tr":"Ukrayna","name:left:da":"Rum\u00e6nien","name:left:de":"Rum\u00e4nien","name:right:ga":"An \u00dacr\u00e1in","name:left:dv":"\u0783\u07aa\u0789\u07ad\u0782\u07a8\u0787\u07a7","name:right:ug":"\u0626\u06c7\u0643\u0631\u0627\u0626\u0649\u0646\u0627","name:left:hi":"\u0930\u094b\u092e\u093e\u0928\u093f\u092f\u093e","name:right:lb":"Ukrain","name:left:he":"\u05e8\u05d5\u05de\u05e0\u05d9\u05d4","name:right:ln":"Ukraine","name:right:li":"Oekra\u00efne","name:right:lt":"Ukraina","name:right:ur":"\u06cc\u0648\u06a9\u0631\u06cc\u0646","name:right:lv":"Ukraina","name:left:hy":"\u054c\u0578\u0582\u0574\u056b\u0576\u056b\u0561","name:left:ta":"\u0b89\u0bb0\u0bc1\u0bae\u0bc7\u0ba9\u0bbf\u0baf\u0bbe","name:left:ht":"Woumani","name:left:hu":"Rom\u00e1nia","name:left:hr":"Rumunjska","sort_rank":262,"name:right:gd":"An Ucr\u00e0in","name:right:os":"\u0423\u043a\u0440\u0430\u0438\u043d\u00e6","name:right:es":"Ucrania","name:right:sr":"\u0423\u043a\u0440\u0430\u0458\u0438\u043d\u0430","name:right:eu":"Ukraina","name:right:et":"Ukraina","name:left:os":"\u0420\u0443\u043c\u044b\u043d\u0438","name:left:or":"\u0b30\u0b4b\u0b2e\u0b3e\u0b28\u0b3f\u0b06","name:right:ee":"Ukraine","name:left:vo":"Rum\u00e4n","name:left:oc":"Romania","name:right:eo":"Ukrainujo","name:right:en":"Ukraine","name:right:el":"\u039f\u03c5\u03ba\u03c1\u03b1\u03bd\u03af\u03b1","name:left:fa":"\u0631\u0648\u0645\u0627\u0646\u06cc","name:left:fo":"Rumenia","name:right:sk":"Ukrajina","name:left:fi":"Romania","name:left:fr":"Roumanie","name:right:jv":"Ukraina","name:left:fy":"Roemeenje","name:right:ja":"\u30a6\u30af\u30e9\u30a4\u30ca","name:right:sq":"Ukraina","name:right:ss":"IYukhureni","name:left:ja":"\u30eb\u30fc\u30de\u30cb\u30a2","name:right:su":"Ukraina","name:right:sw":"Ukraine","name:right:sv":"Ukraina","name:right:sh":"Ukrajina","name:left:qu":"Rumanya","name:right:sm":"Ukraine","name:right:sl":"Ukrajina","name:right:so":"Ukrain","name:right:sn":"Ukraine","name:right:sc":"Ucraina","name:left:jv":"Rumania","id":-90689,"name:right:ca":"Ucra\u00efna","name:right:se":"Ukraina","name:right:ce":"\u0423\u043a\u0440\u0430\u0438\u043d\u0430","name:right:cy":"Wcr\u00e1in","name:right:zh-yue":"\u70cf\u514b\u862d","name:right:cs":"Ukrajina","name:right:cu":"\u041e\u0443\u043a\u0440\u0430\u0438\u043d\u0430","name:right:cv":"\u0423\u043a\u0440\u0430\u0438\u043d\u0430","name:right:it":"Ucraina","name:left:ar":"\u0631\u0648\u0645\u0627\u0646\u064a\u0627","name:left:az":"Rum\u0131niya","name:left:ay":"Rumanya","name:left:af":"Roemeni\u00eb","name:left:an":"Ruman\u00eda","name:left:am":"\u122e\u121b\u1295\u12eb","name:right:ru":"\u0423\u043a\u0440\u0430\u0438\u043d\u0430","name:right:io":"Ukrainia","name:left:zh-yue":"\u7f85\u99ac\u5c3c\u4e9e","name:right:ro":"Ucraina","name:right:hy":"\u0548\u0582\u056f\u0580\u0561\u056b\u0576\u0561","name:left:lb":"Rum\u00e4nien","alt_name:left:eo":"Rumanio","name:left:su":"Romania","int_name:left":"Romania","name:right:hr":"Ukrajina","name:left:sv":"Rum\u00e4nien","name:left:sq":"Rumania","name:right:hu":"Ukrajna","name:left:ln":"Rumania","name:left:sr":"\u0420\u0443\u043c\u0443\u043d\u0438\u0458\u0430","name:left:sm":"Romania","name:right:hi":"\u092f\u0941\u0915\u094d\u0930\u0947\u0928","name:left:so":"Romania","name:left:si":"\u0dbb\u0dd4\u0db8\u0dda\u0db1\u0dd2\u0dba\u0dcf\u0dc0","name:left:sh":"Rumunija","name:left:sk":"Rumunsko","name:left:se":"Rom\u00e1nia","name:right:he":"\u05d0\u05d5\u05e7\u05e8\u05d0\u05d9\u05e0\u05d4","name:left:sc":"Romania","name:right:la":"Ucraina","name:right:af":"Oekra\u00efne","name:left:co":"Romania","name:right:ab":"\u0423\u043a\u0440\u0430\u0438\u043d\u0430","name:left:ce":"\u0420\u0443\u043c\u044b\u043d\u0438","name:right:an":"Ucra\u00edna","name:right:am":"\u12e9\u12ad\u122c\u1295","name:left:ca":"Romania","source":"openstreetmap.org","name:left:cy":"Rwmania","name:right:ar":"\u0623\u0648\u0643\u0631\u0627\u0646\u064a\u0627","name:left:cu":"\u0420\u043e\u0443\u043c\ua651\u043d\u0457\ua657","name:left:cv":"\u0420\u0443\u043c\u044b\u043d\u0438","name:right:az":"Ukrayna","name:left:cs":"Rumunsko","name:right:rm":"Ucraina","name":"Rom\u00e2nia - \u0423\u043a\u0440\u0430\u0457\u043d\u0430","name:left:zh":"\u7f85\u99ac\u5c3c\u4e9e","name:right:zh":"\u4e4c\u514b\u5170","name:left:uz":"Ruminiya","name:right:fr":"Ukraine","name:left:nv":"Woom\u00e9iniya","name:left:ur":"\u0631\u0648\u0645\u0627\u0646\u06cc\u06c1","id:right":-60199,"name:left:uk":"\u0420\u0443\u043c\u0443\u043d\u0456\u044f","name:left:no":"Romania","name:left:nl":"Roemeni\u00eb","alt_name:right:eo":"Ukrainio","name:right:fa":"\u0627\u0648\u06a9\u0631\u0627\u06cc\u0646","name:right:fo":"Ukraina","name:left:ne":"\u0930\u094b\u092e\u093e\u0928\u093f\u092f\u093e","name:left:ug":"Ruminiye","name:left:na":"Romania","name:left:eo":"Rumanujo","name:left:en":"Romania","name:left:el":"\u03a1\u03bf\u03c5\u03bc\u03b1\u03bd\u03af\u03b1","name:left:ee":"Romania","name:left:pl":"Rumunia","name:left:es":"Ruman\u00eda","name:left:ss":"IRomaniya","name:left:ie":"Rumania","name:left:eu":"Errumania","name:left:et":"Rumeenia","name:right:zh-min-nan":"Ukrayina","name:left:id":"Rumania","name:right:oc":"Ucra\u00efna","name:right:ko":"\uc6b0\ud06c\ub77c\uc774\ub098","name:right:bs":"Ukrajina","name:right:ts":"Ukraine","name:right:uz":"Ukraina","osm_relation":true,"name:right:or":"\u0b5f\u0b41\u0b15\u0b4d\u0b30\u0b47\u0b28","name:left:pt":"Rom\u00e9nia","name:right:th":"\u0e1b\u0e23\u0e30\u0e40\u0e17\u0e28\u0e22\u0e39\u0e40\u0e04\u0e23\u0e19","old_name:right:vi":"\u00d4 Kh\u1eafc Lan","name:right:tk":"Ukraina","name:left:gl":"Roman\u00eda","name:left:wa":"Roumaneye","min_zoom":8.0,"name:left:wo":"Romaani","name:left:ga":"An R\u00f3m\u00e1in","name:left:it":"Romania","name:left:gd":"Rom\u00e0inia","int_name:right":"Ukraine","name:left:gn":"Rruma\u00f1a","name:left:gu":"\u0ab0\u0acb\u0aae\u0abe\u0aa8\u0abf\u0aaf\u0abe","name:left:gv":"Yn Romaan","name:left":"Rom\u00e2nia","name:right:mk":"\u0423\u043a\u0440\u0430\u0438\u043d\u0430","name:right:mi":"\u016akareinga","name:right:mn":"\u0423\u043a\u0440\u0430\u0439\u043d","name:right:ml":"\u0d09\u0d15\u0d4d\u0d30\u0d48\u0d7b","name:right:vo":"Lukray\u00e4n","name:right:mg":"Okraina","name:right:vi":"Ukraina","name:right:my":"\u101a\u1030\u1000\u101b\u102d\u1014\u103a\u1038\u1014\u102d\u102f\u1004\u103a\u1004\u1036","name:right:ms":"Ukraine","name:right:mr":"\u092f\u0941\u0915\u094d\u0930\u0947\u0928","name:right:fy":"Oekra\u00efne","name:right:mt":"Ukrajna","name:left:nn":"Romania","kind":"country","name:left:br":"Roumania","name:left:bs":"Rumunija","name:left:ba":"\u0420\u0443\u043c\u044b\u043d\u0438\u044f","name:left:bg":"\u0420\u0443\u043c\u044a\u043d\u0438\u044f","name:right:kv":"\u0423\u043a\u0440\u0430\u0438\u043d\u0430","name:left:be":"\u0420\u0443\u043c\u044b\u043d\u0456\u044f","name:left:bi":"Romania","name:left:bn":"\u09b0\u09cb\u09ae\u09be\u09a8\u09bf\u09af\u09bc\u09be","name:left:bo":"\u0f62\u0f7c\u0f0b\u0f58\u0f0b\u0f53\u0f72\u0f0b\u0f61\u0f0d","name:right":"\u0423\u043a\u0440\u0430\u0457\u043d\u0430","name:left:yo":"Rom\u00e1n\u00ed\u00e0","name:left:yi":"\u05e8\u05d5\u05de\u05e2\u05e0\u05d9\u05e2","id:left":-90689,"name:right:fi":"Ukraina","name:right:ka":"\u10e3\u10d9\u10e0\u10d0\u10d8\u10dc\u10d0","name:left:io":"Rumania","name:left:pa":"\u0a30\u0a4b\u0a2e\u0a3e\u0a28\u0a40\u0a06","name:right:kg":"Ukrayina","name:right:tt":"\u0423\u043a\u0440\u0430\u0438\u043d\u0430","name:right:kk":"\u0423\u043a\u0440\u0430\u0438\u043d\u0430","name:right:tw":"Ukraine","name:right:km":"\u17a2\u17ca\u17bb\u1799\u1780\u17d2\u179a\u17c2\u1793","name:right:kl":"Ukraine","name:left:ia":"Romania","name:right:kn":"\u0caf\u0cc1\u0c95\u0ccd\u0cb0\u0cc7\u0ca8\u0ccd","name:right:tl":"Ukranya","name:right:ku":"\u00dbkrayna","name:right:kw":"Ukrayn","name:left:ps":"\u0631\u0648\u0645\u0627\u0646\u06cc\u0627","name:right:ky":"\u0423\u043a\u0440\u0430\u0438\u043d\u0430","name:right:te":"\u0c09\u0c15\u0c4d\u0c30\u0c46\u0c2f\u0c3f\u0c28\u0c4d","name:right:tg":"\u0423\u043a\u0440\u0430\u0439\u0438\u043d\u0430","name:left:is":"R\u00famen\u00eda","name:right:ta":"\u0b89\u0b95\u0bcd\u0bb0\u0bc8\u0ba9\u0bcd","name:right:de":"Ukraine","name:right:da":"Ukraine","name:right:dv":"\u0794\u07aa\u0786\u07b0\u0783\u07ac\u0787\u07a8\u0782\u07b0","name:right:ht":"Ikr\u00e8n"},"arcs":[[0],[1],[2]]},{"type":"MultiLineString","properties":{"name:right:yo":"H\u00fang\u00e1r\u00ec","name:right:yi":"\u05d0\u05d5\u05e0\u05d2\u05d0\u05e8\u05df","name:left:la":"Ucraina","name:right:qu":"Unriya","name:left:li":"Oekra\u00efne","name:left:vi":"Ukraina","name:left:sw":"Ukraine","name:left:kg":"Ukrayina","name:left:ka":"\u10e3\u10d9\u10e0\u10d0\u10d8\u10dc\u10d0","name:left:km":"\u17a2\u17ca\u17bb\u1799\u1780\u17d2\u179a\u17c2\u1793","name:left:kl":"Ukraine","name:left:ko":"\uc6b0\ud06c\ub77c\uc774\ub098","name:left:kn":"\u0caf\u0cc1\u0c95\u0ccd\u0cb0\u0cc7\u0ca8\u0ccd","name:right:is":"Ungverjaland","name:left:ro":"Ucraina","name:left:kk":"\u0423\u043a\u0440\u0430\u0438\u043d\u0430","name:left:rm":"Ucraina","name:left:ku":"\u00dbkrayna","name:left:kw":"Ukrayn","name:left:kv":"\u0423\u043a\u0440\u0430\u0438\u043d\u0430","name:left:pl":"Ukraina","name:right:ro":"Ungaria","name:left:ru":"\u0423\u043a\u0440\u0430\u0438\u043d\u0430","name:right:ie":"Hungaria","name:right:id":"Hongaria","name:left:ky":"\u0423\u043a\u0440\u0430\u0438\u043d\u0430","name:right:ia":"Hungaria","name:right:bi":"Hungary","name:right:bn":"\u09b9\u09be\u0999\u09cd\u0997\u09c7\u09b0\u09bf","name:right:bo":"\u0f67\u0f74\u0f44\u0f0b\u0f42\u0fb7\u0f0b\u0f62\u0f72\u0f0d","name:left:sl":"Ukrajina","name:right:ba":"\u0412\u0435\u043d\u0433\u0440\u0438\u044f","name:right:bg":"\u0423\u043d\u0433\u0430\u0440\u0438\u044f","name:right:be":"\u0412\u0435\u043d\u0433\u0440\u044b\u044f","name:right:br":"Hungaria","name:right:bs":"Ma\u0111arska","name:right:nn":"Ungarn","name:right:no":"Ungern","name:right:nl":"Hongarije","name:left:lv":"Ukraina","name:right:wo":"Ongiri","name:right:ne":"\u0939\u0902\u0917\u0947\u0930\u0940","name:right:na":"Ungari","name:right:ps":"\u0647\u0646\u06ab\u0631\u064a","alt_name:left:vi":"Uy Ki\u00ean","name:right:nv":"H\u00e1ngewii","name:left:mg":"Okraina","kind_detail":"2","name:left:tr":"Ukrayna","name:right:gu":"\u0ab9\u0a82\u0a97\u0ac7\u0ab0\u0ac0","name:right:gv":"Yn Ungaar","name:right:pt":"Hungria","name:left:mk":"\u0423\u043a\u0440\u0430\u0438\u043d\u0430","name:left:mi":"\u016akareinga","name:left:ts":"Ukraine","name:left:tt":"\u0423\u043a\u0440\u0430\u0438\u043d\u0430","name:left:mn":"\u0423\u043a\u0440\u0430\u0439\u043d","name:left:tw":"Ukraine","name:left:th":"\u0e1b\u0e23\u0e30\u0e40\u0e17\u0e28\u0e22\u0e39\u0e40\u0e04\u0e23\u0e19","name:right:pa":"\u0a39\u0a70\u0a17\u0a30\u0a40","name:left:tk":"Ukraina","name:left:tl":"Ukranya","name:left:mt":"Ukrajna","name:right:gl":"Hungr\u00eda - Magyarorsz\u00e1g","name:left:my":"\u101a\u1030\u1000\u101b\u102d\u1014\u103a\u1038\u1014\u102d\u102f\u1004\u103a\u1004\u1036","name:right:gn":"Hungyria","name:right:pl":"W\u0119gry","name:left:te":"\u0c09\u0c15\u0c4d\u0c30\u0c46\u0c2f\u0c3f\u0c28\u0c4d","name:left:tg":"\u0423\u043a\u0440\u0430\u0439\u0438\u043d\u0430","name:left:ms":"Ukraine","name:left:mr":"\u092f\u0941\u0915\u094d\u0930\u0947\u0928","name:left:da":"Ukraine","name:left:de":"Ukraine","name:right:ga":"An Ung\u00e1ir","name:left:dv":"\u0794\u07aa\u0786\u07b0\u0783\u07ac\u0787\u07a8\u0782\u07b0","name:right:ug":"\u06cb\u06d0\u0646\u06af\u0631\u0649\u064a\u06d5","name:left:hi":"\u092f\u0941\u0915\u094d\u0930\u0947\u0928","name:right:lb":"Ungarn","name:right:uk":"\u0423\u0433\u043e\u0440\u0449\u0438\u043d\u0430","name:left:he":"\u05d0\u05d5\u05e7\u05e8\u05d0\u05d9\u05e0\u05d4","name:right:ln":"Ungri","name:right:li":"Hongarie\u00eb","name:right:lt":"Vengrija","name:right:ur":"\u0645\u062c\u0627\u0631\u0633\u062a\u0627\u0646","name:right:lv":"Ung\u0101rija","name:left:hy":"\u0548\u0582\u056f\u0580\u0561\u056b\u0576\u0561","name:left:ta":"\u0b89\u0b95\u0bcd\u0bb0\u0bc8\u0ba9\u0bcd","name:left:ht":"Ikr\u00e8n","name:left:hu":"Ukrajna","name:left:hr":"Ukrajina","sort_rank":262,"name:right:gd":"An Ungair","name:right:os":"\u0412\u0435\u043d\u0433\u0440\u0438","name:right:es":"Hungr\u00eda","name:right:sr":"\u041c\u0430\u0452\u0430\u0440\u0441\u043a\u0430","name:right:eu":"Hungaria","name:right:et":"Ungari","name:left:os":"\u0423\u043a\u0440\u0430\u0438\u043d\u00e6","name:left:or":"\u0b5f\u0b41\u0b15\u0b4d\u0b30\u0b47\u0b28","name:right:ee":"Hungary","name:left:vo":"Lukray\u00e4n","name:left:oc":"Ucra\u00efna","name:right:eo":"Hungarujo","name:right:en":"Hungary","name:right:el":"\u039f\u03c5\u03b3\u03b3\u03b1\u03c1\u03af\u03b1","name:right:tt":"\u041c\u0430\u0497\u0430\u0440\u0441\u0442\u0430\u043d","name:left:fa":"\u0627\u0648\u06a9\u0631\u0627\u06cc\u0646","name:left:ia":"Ukraina","name:left:fo":"Ukraina","name:right:sk":"Ma\u010farsko","name:left:fi":"Ukraina","name:left:fr":"Ukraine","name:left:cs":"Ukrajina","name:right:jv":"Hongaria","name:left:fy":"Oekra\u00efne","name:right:ja":"\u30cf\u30f3\u30ac\u30ea\u30fc","name:right:sq":"Hungaria","name:right:ss":"IHangareyi","name:left:ja":"\u30a6\u30af\u30e9\u30a4\u30ca","name:right:su":"Hungaria","name:right:st":"Hungary","name:right:sw":"Hungaria","name:right:sv":"Ungern","name:right:si":"\u0dc4\u0db1\u0dca\u0d9c\u0dda\u0dbb\u0dd2\u0dba\u0dcf\u0db1\u0dd4 \u0dc3\u0db8\u0dd4\u0dc4\u0dcf\u0dab\u0dca\u0da9\u0dd4\u0dc0","name:right:sh":"Ma\u0111arska","name:left:qu":"Ukranya","name:right:sm":"Hungary","name:right:sl":"Mad\u017earska","name:right:so":"Hungaria","name:right:sn":"Hungary","name:right:sa":"\u0939\u0902\u0917\u0930\u0940","name:left:jv":"Ukraina","id":-60199,"old_name:left:vi":"\u00d4 Kh\u1eafc Lan","name:right:co":"Ungheria","name:right:ca":"Hongria","name:right:se":"U\u014bg\u00e1r","name:right:ce":"\u0412\u0435\u043d\u0433\u0440\u0438","name:right:cy":"Hwngari","name:right:zh-yue":"\u5308\u7259\u5229","name:right:cs":"Ma\u010farsko","name:right:cu":"\u046a\u0433\u0440\u0438","name:right:cv":"\u0412\u0435\u043d\u0433\u0440\u0438","name:right:it":"Ungheria","name:left:ar":"\u0623\u0648\u0643\u0631\u0627\u0646\u064a\u0627","name:left:az":"Ukrayna","name:right:rw":"Hongiriya","name:left:af":"Oekra\u00efne","name:left:ab":"\u0423\u043a\u0440\u0430\u0438\u043d\u0430","name:left:an":"Ucra\u00edna","name:left:am":"\u12e9\u12ad\u122c\u1295","name:right:ru":"\u0412\u0435\u043d\u0433\u0440\u0438\u044f","name:right:io":"Hungaria","name:right:zh_PY":"Xiongyali","name:left:zh-yue":"\u70cf\u514b\u862d","name:left:rw":"Ikerene","name:right:hy":"\u0540\u0578\u0582\u0576\u0563\u0561\u0580\u056b\u0561","name:left:lb":"Ukrain","alt_name:left:eo":"Ukrainio","name:left:su":"Ukraina","int_name:left":"Ukraine","name:right:hr":"Ma\u0111arska","name:left:sv":"Ukraina","name:left:sq":"Ukraina","name:left:ss":"IYukhureni","name:left:sr":"\u0423\u043a\u0440\u0430\u0458\u0438\u043d\u0430","name:left:sm":"Ukraine","name:right:hi":"\u0939\u0902\u0917\u0930\u0940","name:left:so":"Ukrain","name:left:sn":"Ukraine","name:left:lt":"Ukraina","name:left:sh":"Ukrajina","name:left:sk":"Ukrajina","name:left:se":"Ukraina","name:right:he":"\u05d4\u05d5\u05e0\u05d2\u05e8\u05d9\u05d4","name:left:sc":"Ucraina","name:right:la":"Hungaria","name:right:af":"Hongarye","name:right:ab":"\u041c\u0430\u0434\u0438\u0430\u0440\u0442\u04d9\u044b\u043b\u0430","name:left:ce":"\u0423\u043a\u0440\u0430\u0438\u043d\u0430","name:right:an":"Hongr\u00eda","name:right:am":"\u1200\u1295\u130b\u122a","name:left:ca":"Ucra\u00efna","source":"openstreetmap.org","name:left:cy":"Wcr\u00e1in","name:right:ar":"\u0627\u0644\u0645\u062c\u0631","name:left:cu":"\u041e\u0443\u043a\u0440\u0430\u0438\u043d\u0430","name:left:cv":"\u0423\u043a\u0440\u0430\u0438\u043d\u0430","name:right:az":"Macar\u0131stan","name:right:ay":"Hunkariya","name:right:rm":"Ungaria","name":"\u0423\u043a\u0440\u0430\u0457\u043d\u0430 - Magyarorsz\u00e1g","name:left:zh":"\u4e4c\u514b\u5170","name:right:zh":"\u5308\u7259\u5229","name:left:uz":"Ukraina","name:right:fr":"Hongrie","name:left:ps":"\u0627\u0648\u06a9\u0631\u0627\u06cc\u0646","name:left:nv":"Y\u00f3\u00f3kwein","name:left:ur":"\u06cc\u0648\u06a9\u0631\u06cc\u0646","id:right":-21335,"name:right:ff":"Hunngariya","name:left:no":"Ukraina","name:left:nl":"Oekra\u00efne","alt_name:right:eo":"Hungario","name:right:fa":"\u0645\u062c\u0627\u0631\u0633\u062a\u0627\u0646","name:right:fo":"Ungarn","name:left:ne":"\u092f\u0941\u0915\u094d\u0930\u0947\u0928","name:left:ug":"\u0626\u06c7\u0643\u0631\u0627\u0626\u0649\u0646\u0627","name:left:na":"Ukraine","name:left:ml":"\u0d09\u0d15\u0d4d\u0d30\u0d48\u0d7b","name:left:eo":"Ukrainujo","name:left:en":"Ukraine","name:left:el":"\u039f\u03c5\u03ba\u03c1\u03b1\u03bd\u03af\u03b1","name:left:ee":"Ukraine","name:right:ki":"Macartsa","name:left:es":"Ucrania","name:left:ie":"Ucraina","name:left:eu":"Ukraina","name:left:et":"Ukraina","name:right:zh-min-nan":"Magyar-kok","name:right:oc":"Ongria","name:right:tr":"Macaristan","name:right:uz":"Mojariston","osm_relation":true,"name:right:or":"\u0b39\u0b19\u0b4d\u0b17\u0b47\u0b30\u0b40","name:left:pt":"Ucr\u00e2nia","name:right:ku":"Macaristan","name:right:tk":"Wengri\u00fda","name:left:gl":"Ucra\u00edna","name:left:wa":"Oucrinne","min_zoom":8.0,"name:left:zh-min-nan":"Ukrayina","name:left:ln":"Ukraine","name:left:wo":"Ukreen","name:left:ga":"An \u00dacr\u00e1in","name:left:it":"Ucraina","name:left:gd":"An Ucr\u00e0in","int_name:right":"Hungary","name:left:gn":"Ukya\u00f1a","name:left:gu":"\u0aaf\u0ac1\u0a95\u0acd\u0ab0\u0ac7\u0aa8","name:left:gv":"Yn Ookraan","name:left":"\u0423\u043a\u0440\u0430\u0457\u043d\u0430","name:right:mk":"\u0423\u043d\u0433\u0430\u0440\u0438\u0458\u0430","name:right:mi":"Hanekeria","name:right:mn":"\u0423\u043d\u0433\u0430\u0440","name:right:ml":"\u0d39\u0d02\u0d17\u0d31\u0d3f","name:right:vo":"Macar\u00e4n","name:right:vi":"Hungary","name:right:my":"\u101f\u1014\u103a\u1002\u1031\u101b\u102e\u1014\u102d\u102f\u1004\u103a\u1004\u1036","name:right:ms":"Hungary","name:right:mr":"\u0939\u0902\u0917\u0947\u0930\u0940","name:right:fy":"Hongarije","name:right:mt":"Ungerija","name:left:nn":"Ukraina","kind":"country","name:left:br":"Ukraina","name:left:bs":"Ukrajina","name:left:ba":"\u0423\u043a\u0440\u0430\u0438\u043d\u0430","name:left:bg":"\u0423\u043a\u0440\u0430\u0439\u043d\u0430","name:left:be":"\u0423\u043a\u0440\u0430\u0456\u043d\u0430","name:left:bi":"Ukraine","name:left:bn":"\u0987\u0989\u0995\u09cd\u09b0\u09c7\u09a8","name:left:bo":"\u0f68\u0f74\u0f40\u0f0b\u0f62\u0f61\u0f72\u0f0b\u0f53\u0f72\u0f0d","name:right":"Magyarorsz\u00e1g","name:left:yo":"Ukr\u00e9\u00ecn","name:left:yi":"\u05d0\u05d5\u05e7\u05e8\u05d0\u05d9\u05e0\u05e2","id:left":-60199,"name:right:fi":"Unkari","name:right:ka":"\u10e3\u10dc\u10d2\u10e0\u10d4\u10d7\u10d8","name:left:io":"Ukrainia","name:left:pa":"\u0a2f\u0a42\u0a15\u0a4d\u0a30\u0a47\u0a28","name:right:kg":"Hongrie","name:left:ig":"Yukrain","name:right:kk":"\u041c\u0430\u0436\u0430\u0440\u0441\u0442\u0430\u043d","name:left:id":"Ukraina","name:right:km":"\u1794\u17d2\u179a\u1791\u17c1\u179f\u17a0\u17bb\u1784\u1782\u17d2\u179a\u17b8","name:right:kl":"Ungarni","name:right:ko":"\ud5dd\uac00\ub9ac","name:right:ts":"Hungary","name:right:tl":"Unggarya","name:right:th":"\u0e1b\u0e23\u0e30\u0e40\u0e17\u0e28\u0e2e\u0e31\u0e07\u0e01\u0e32\u0e23\u0e35","name:right:kw":"Hungari","name:right:kv":"\u041c\u0430\u0434\u044c\u044f\u0440 \u041c\u0443","name:right:ky":"\u041c\u0430\u0436\u0430\u0440\u0441\u0442\u0430\u043d","name:right:te":"\u0c39\u0c02\u0c17\u0c47\u0c30\u0c3f","name:right:tg":"\u041c\u0430\u04b7\u043e\u0440\u0438\u0441\u0442\u043e\u043d","name:left:is":"\u00dakra\u00edna","name:right:ta":"\u0b85\u0b99\u0bcd\u0b95\u0bc7\u0bb0\u0bbf","name:right:de":"Ungarn","name:right:da":"Ungarn","name:right:dv":"\u0780\u07a6\u0782\u07b0\u078e\u07ad\u0783\u07a9","name:right:ht":"Ongri"},"arcs":[[3],[4],[5]]},{"type":"LineString","properties":{"name:left:la":"Ruthenia Subcarpathanea","name:right:hy":"\u053b\u057e\u0561\u0576\u0578-\u0556\u0580\u0561\u0576\u056f\u0578\u057e\u057d\u056f\u056b \u0574\u0561\u0580\u0566","name:left:he":"\u05d6\u05e7\u05e8\u05e4\u05d8\u05d9\u05d4","name:right:hr":"Ivano-Frankivska oblast","name:left:sv":"Zakarpatska oblast","name:right:hu":"Ivano-frankivszki ter\u00fclet","name:left:sr":"\u0417\u0430\u043a\u0430\u0440\u043f\u0430\u0442\u0441\u043a\u0430 \u043e\u0431\u043b\u0430\u0441\u0442","name:right:lt":"Ivano Frankivsko sritis","name:right:lv":"Ivanofrankivskas apgabals","name:left:lt":"U\u017ekarpat\u0117s sritis","name:left:hy":"\u0531\u0576\u0564\u0580\u056f\u0561\u0580\u057a\u0561\u057f\u0575\u0561\u0576 \u0574\u0561\u0580\u0566","name:left:sk":"Zakarpatsk\u00e1 oblas\u0165","name:left:hu":"K\u00e1rp\u00e1talja","name:left:hr":"Zakarpatska oblast","name:right:vi":"Ivano-Frankivsk (t\u1ec9nh)","sort_rank":256,"name:left:ca":"Transcarp\u00e0cia","source":"openstreetmap.org","name:right:ar":"\u0625\u064a\u0641\u0627\u0646\u0648 \u0641\u0631\u0627\u0646\u0643\u064a\u0641\u0633\u0643 \u0623\u0648\u0628\u0644\u0627\u0633\u062a","name:left:cs":"Zakarpatsk\u00e1 oblast","name:left":"\u0417\u0430\u043a\u0430\u0440\u043f\u0430\u0442\u0441\u044c\u043a\u0430 \u043e\u0431\u043b\u0430\u0441\u0442\u044c","name:right:es":"\u00d3blast de Ivano-Frankivsk","name:left:ka":"\u10e2\u10e0\u10d0\u10dc\u10e1\u10d9\u10d0\u10e0\u10de\u10d0\u10e2\u10d8\u10d8\u10e1 \u10dd\u10da\u10e5\u10d8","name:right:eu":"Ivano-Frankivskeko oblasta","name:right:et":"Ivano-Frankivski oblast","name:right:no":"Ivano-Frankivsk oblast","name:left:ko":"\uc790\uce74\ub974\ud30c\ud0f8 \uc8fc","name:right:it":"Oblast' di Ivano-Frankivs'k","name:left:ro":"Regiunea Transcarpatia","name:right:ru":"\u0418\u0432\u0430\u043d\u043e-\u0424\u0440\u0430\u043d\u043a\u043e\u0432\u0441\u043a\u0430\u044f \u043e\u0431\u043b\u0430\u0441\u0442\u044c","name:right:ro":"Regiunea Ivano-Frankivsk","name:left:ru":"\u0417\u0430\u043a\u0430\u0440\u043f\u0430\u0442\u0441\u043a\u0430\u044f \u043e\u0431\u043b\u0430\u0441\u0442\u044c","name:left:uz":"Zakarpatye viloyati","name:right:mr":"\u0907\u0935\u094d\u0939\u093e\u0928\u094b-\u092b\u094d\u0930\u093e\u0902\u0915\u093f\u0935\u094d\u0939\u094d\u0938\u094d\u0915 \u0913\u092c\u094d\u0932\u093e\u0938\u094d\u0924","name:right:id":"Oblast Ivano-Frankivsk","name:right:eo":"Ivano-Frankivska provinco","name:right:en":"Ivano-Frankivsk Oblast","kind":"region","name":"\u0417\u0430\u043a\u0430\u0440\u043f\u0430\u0442\u0441\u044c\u043a\u0430 \u043e\u0431\u043b\u0430\u0441\u0442\u044c - \u0406\u0432\u0430\u043d\u043e-\u0424\u0440\u0430\u043d\u043a\u0456\u0432\u0441\u044c\u043a\u0430 \u043e\u0431\u043b\u0430\u0441\u0442\u044c","name:left:no":"Zakarpattja oblast","name:right:fa":"\u0627\u0633\u062a\u0627\u0646 \u0627\u06cc\u0648\u0627\u0646\u0648 \u0641\u0631\u0627\u0646\u06a9\u06cc\u0633\u0648\u06a9","min_zoom":8.0,"name:right:be":"\u0406\u0432\u0430\u043d\u0430-\u0424\u0440\u0430\u043d\u043a\u043e\u045e\u0441\u043a\u0430\u044f \u0432\u043e\u0431\u043b\u0430\u0441\u0446\u044c","name:left:zh":"\u5916\u5580\u723e\u5df4\u9621\u5dde","name:left:fr":"Oblast de Transcarpatie","name:right:zh":"\u4f0a\u4e07\u8bfa-\u5f17\u5170\u79d1\u592b\u65af\u514b\u5dde","name:right:nn":"Ivano-Frankivsk oblast","name:left:bs":"Zakarpatska oblast","name:right:nl":"Oblast Ivano-Frankivsk","name:right:ja":"\u30a4\u30f4\u30a1\u30fc\u30ce\uff1d\u30d5\u30e9\u30f3\u30ad\u30fc\u30a6\u30b7\u30af\u5dde","name:right:fr":"Oblast d'Ivano-Frankivsk","name:left:lv":"Aizkarpatu apgabals","name:left:ja":"\u30b6\u30ab\u30eb\u30d1\u30c3\u30c1\u30e3\u5dde","id:right":-72488,"name:left:nn":"Zakarpattja oblast","name:right:sh":"Ivano-Frankivska oblast","name:right:sk":"Ivanofrankivsk\u00e1 oblas\u0165","name:left:bg":"\u0417\u0430\u043a\u0430\u0440\u043f\u0430\u0442\u0441\u043a\u0430 \u043e\u0431\u043b\u0430\u0441\u0442","name:left:be":"\u0417\u0430\u043a\u0430\u0440\u043f\u0430\u0446\u043a\u0430\u044f \u0432\u043e\u0431\u043b\u0430\u0441\u0446\u044c","name:left:fi":"Taka-Karpatian alue","id":-72489,"name:right:fi":"Ivano-Frankivskin alue","name:left:eo":"Transkarpata provinco","name:left:en":"Zakarpattia Oblast","name:right:ca":"Prov\u00edncia d'Ivano-Frankivsk","kind_detail":"4","name:left:mk":"\u0417\u0430\u043a\u0430\u0440\u043f\u0430\u0442\u0441\u043a\u0430 \u043e\u0431\u043b\u0430\u0441\u0442","name:left:nl":"Oblast Transkarpati\u00eb","id:left":-72489,"name:left:es":"\u00d3blast de Zakarpatia","name:right:cs":"Ivanofrankivsk\u00e1 oblast","name:right":"\u0406\u0432\u0430\u043d\u043e-\u0424\u0440\u0430\u043d\u043a\u0456\u0432\u0441\u044c\u043a\u0430 \u043e\u0431\u043b\u0430\u0441\u0442\u044c","name:left:os":"\u0424\u00e6\u0441\u043a\u0430\u0440\u043f\u0430\u0442\u044b \u043e\u0431\u043b\u00e6\u0441\u0442","name:left:eu":"Transkarpatiako oblasta","name:left:et":"Taga-Karpaatia","name:right:mk":"\u0418\u0432\u0430\u043d\u043e-\u0424\u0440\u0430\u043d\u043a\u043e\u0432\u0441\u043a\u0430 \u043e\u0431\u043b\u0430\u0441\u0442","name:right:zh-min-nan":"Ivano-Frankivsk s\u00e9ng","name:right:pt":"Oblast de Ivano-Frankivsk","name:left:ar":"\u0632\u0627\u0643\u0627\u0631\u0628\u0627\u062a\u064a\u0627 \u0623\u0648\u0628\u0644\u0627\u0633\u062a","name:left:pl":"Obw\u00f3d zakarpacki","name:left:tr":"Zakarpatya Oblast\u0131","name:left:id":"Oblast Zakarpattia","name:right:tr":"\u0130vano-Frankivsk Oblast\u0131","name:right:bg":"\u0418\u0432\u0430\u043d\u043e-\u0424\u0440\u0430\u043d\u043a\u043e\u0432\u0441\u043a\u0430 \u043e\u0431\u043b\u0430\u0441\u0442","name:left:pt":"Oblast da Transcarp\u00e1tia","name:left:mr":"\u091d\u093e\u0915\u093e\u0930\u092a\u0924\u094d\u0924\u093f\u092f\u093e \u0913\u092c\u094d\u0932\u093e\u0938\u094d\u0924","name:right:sv":"Ivano-Frankivsk oblast","name:right:ko":"\uc774\ubc14\ub178\ud504\ub780\ud0a4\uc6b0\uc2dc\ud06c \uc8fc","name:left:zh-min-nan":"Zakarpattya s\u00e9ng","name:left:it":"Oblast' di Transcarpazia","name:right:pl":"Obw\u00f3d iwanofrankiwski","osm_relation":true,"name:right:ka":"\u10d8\u10d5\u10d0\u10dc\u10dd-\u10e4\u10e0\u10d0\u10dc\u10d9\u10dd\u10d5\u10e1\u10d9\u10d8\u10e1 \u10dd\u10da\u10e5\u10d8","name:right:de":"Oblast Iwano-Frankiwsk","name:left:de":"Oblast Transkarpatien"},"arcs":[6]},{"type":"LineString","properties":{"name:left:uz":"Zakarpatye viloyati","name:left:sk":"Zakarpatsk\u00e1 oblas\u0165","name:left:bs":"Zakarpatska oblast","name:left:he":"\u05d6\u05e7\u05e8\u05e4\u05d8\u05d9\u05d4","name:left:ja":"\u30b6\u30ab\u30eb\u30d1\u30c3\u30c1\u30e3\u5dde","name:right:hu":"Szatm\u00e1r megye","id:right":-72482,"name:left:nn":"Zakarpattja oblast","name:left:no":"Zakarpattja oblast","min_zoom":8.0,"name:left:lt":"U\u017ekarpat\u0117s sritis","name:left:hy":"\u0531\u0576\u0564\u0580\u056f\u0561\u0580\u057a\u0561\u057f\u0575\u0561\u0576 \u0574\u0561\u0580\u0566","name:left:lv":"Aizkarpatu apgabals","name:left:be":"\u0417\u0430\u043a\u0430\u0440\u043f\u0430\u0446\u043a\u0430\u044f \u0432\u043e\u0431\u043b\u0430\u0441\u0446\u044c","name:left:hu":"K\u00e1rp\u00e1talja","id":-72489,"name:left:hr":"Zakarpatska oblast","name:right":"Satu Mare","name:left:eo":"Transkarpata provinco","name:left:en":"Zakarpattia Oblast","sort_rank":256,"kind_detail":"4","name:left:ca":"Transcarp\u00e0cia","name:left:la":"Ruthenia Subcarpathanea","source":"openstreetmap.org","name:left:nl":"Oblast Transkarpati\u00eb","id:left":-72489,"name:left:es":"\u00d3blast de Zakarpatia","name:left:os":"\u0424\u00e6\u0441\u043a\u0430\u0440\u043f\u0430\u0442\u044b \u043e\u0431\u043b\u00e6\u0441\u0442","name:left:cs":"Zakarpatsk\u00e1 oblast","name:left":"\u0417\u0430\u043a\u0430\u0440\u043f\u0430\u0442\u0441\u044c\u043a\u0430 \u043e\u0431\u043b\u0430\u0441\u0442\u044c","name:left:sr":"\u0417\u0430\u043a\u0430\u0440\u043f\u0430\u0442\u0441\u043a\u0430 \u043e\u0431\u043b\u0430\u0441\u0442","name:left:sv":"Zakarpatska oblast","name:left:ka":"\u10e2\u10e0\u10d0\u10dc\u10e1\u10d9\u10d0\u10e0\u10de\u10d0\u10e2\u10d8\u10d8\u10e1 \u10dd\u10da\u10e5\u10d8","name:left:ar":"\u0632\u0627\u0643\u0627\u0631\u0628\u0627\u062a\u064a\u0627 \u0623\u0648\u0628\u0644\u0627\u0633\u062a","name:left:pl":"Obw\u00f3d zakarpacki","name:left:ko":"\uc790\uce74\ub974\ud30c\ud0f8 \uc8fc","name:left:id":"Oblast Zakarpattia","name:left:ro":"Regiunea Transcarpatia","name:right:ru":"\u0421\u0430\u0442\u0443-\u041c\u0430\u0440\u0435","name:left:pt":"Oblast da Transcarp\u00e1tia","name:left:mr":"\u091d\u093e\u0915\u093e\u0930\u092a\u0924\u094d\u0924\u093f\u092f\u093e \u0913\u092c\u094d\u0932\u093e\u0938\u094d\u0924","name:left:ru":"\u0417\u0430\u043a\u0430\u0440\u043f\u0430\u0442\u0441\u043a\u0430\u044f \u043e\u0431\u043b\u0430\u0441\u0442\u044c","name:left:tr":"Zakarpatya Oblast\u0131","name:left:zh-min-nan":"Zakarpattya s\u00e9ng","name:left:it":"Oblast' di Transcarpazia","osm_relation":true,"kind":"region","name":"\u0417\u0430\u043a\u0430\u0440\u043f\u0430\u0442\u0441\u044c\u043a\u0430 \u043e\u0431\u043b\u0430\u0441\u0442\u044c - Satu Mare","name:right:de":"Sathmar","name:left:de":"Oblast Transkarpatien","name:left:fi":"Taka-Karpatian alue","name:left:zh":"\u5916\u5580\u723e\u5df4\u9621\u5dde","name:left:fr":"Oblast de Transcarpatie","name:left:eu":"Transkarpatiako oblasta","name:left:et":"Taga-Karpaatia","name:left:mk":"\u0417\u0430\u043a\u0430\u0440\u043f\u0430\u0442\u0441\u043a\u0430 \u043e\u0431\u043b\u0430\u0441\u0442","name:left:bg":"\u0417\u0430\u043a\u0430\u0440\u043f\u0430\u0442\u0441\u043a\u0430 \u043e\u0431\u043b\u0430\u0441\u0442"},"arcs":[7]},{"type":"LineString","properties":{"name:left:la":"Ruthenia Subcarpathanea","name:right:hy":"\u053c\u057e\u0578\u057e\u056b \u0574\u0561\u0580\u0566","name:left:he":"\u05d6\u05e7\u05e8\u05e4\u05d8\u05d9\u05d4","name:right:hr":"Ljvivska oblast","name:left:sv":"Zakarpatska oblast","name:right:hu":"Lvivi ter\u00fclet","name:left:sr":"\u0417\u0430\u043a\u0430\u0440\u043f\u0430\u0442\u0441\u043a\u0430 \u043e\u0431\u043b\u0430\u0441\u0442","name:right:lt":"Lvovo sritis","name:right:lv":"\u013bvovas apgabals","name:left:lt":"U\u017ekarpat\u0117s sritis","name:left:hy":"\u0531\u0576\u0564\u0580\u056f\u0561\u0580\u057a\u0561\u057f\u0575\u0561\u0576 \u0574\u0561\u0580\u0566","name:left:sk":"Zakarpatsk\u00e1 oblas\u0165","name:left:hu":"K\u00e1rp\u00e1talja","name:right:he":"\u05de\u05d7\u05d5\u05d6 \u05dc\u05d1\u05d5\u05d1","name:left:hr":"Zakarpatska oblast","name:right:os":"\u041b\u044c\u0432\u043e\u0432\u044b \u043e\u0431\u043b\u00e6\u0441\u0442","name:right:vi":"Lviv (t\u1ec9nh)","sort_rank":256,"name:left:ca":"Transcarp\u00e0cia","source":"openstreetmap.org","name:right:ar":"\u0644\u0641\u064a\u0641 \u0623\u0648\u0628\u0644\u0627\u0633\u062a","name:right:az":"Lvov vilay\u0259ti","name:left:cs":"Zakarpatsk\u00e1 oblast","name:left":"\u0417\u0430\u043a\u0430\u0440\u043f\u0430\u0442\u0441\u044c\u043a\u0430 \u043e\u0431\u043b\u0430\u0441\u0442\u044c","name:right:es":"\u00d3blast de Le\u00f3polis","name:right:sr":"\u041b\u0430\u0432\u043e\u0432\u0441\u043a\u0430 \u043e\u0431\u043b\u0430\u0441\u0442","name:left:ka":"\u10e2\u10e0\u10d0\u10dc\u10e1\u10d9\u10d0\u10e0\u10de\u10d0\u10e2\u10d8\u10d8\u10e1 \u10dd\u10da\u10e5\u10d8","name:right:eu":"Lviveko oblasta","name:right:et":"Lvivi oblast","name:right:no":"Lviv oblast","name:left:ko":"\uc790\uce74\ub974\ud30c\ud0f8 \uc8fc","name:right:it":"Oblast' di Leopoli","name:left:ro":"Regiunea Transcarpatia","name:right:ru":"\u041b\u044c\u0432\u043e\u0432\u0441\u043a\u0430\u044f \u043e\u0431\u043b\u0430\u0441\u0442\u044c","name:right:ro":"Regiunea Liov","name:left:ru":"\u0417\u0430\u043a\u0430\u0440\u043f\u0430\u0442\u0441\u043a\u0430\u044f \u043e\u0431\u043b\u0430\u0441\u0442\u044c","name:right:ms":"Oblast Lviv","name:right:mr":"\u0932\u093f\u0935\u094d\u0939\u093f\u0935 \u0913\u092c\u094d\u0932\u093e\u0938\u094d\u0924","name:right:id":"Oblast Lviv","name:right:eo":"Lviva provinco","name:right:en":"Lviv Oblast","kind":"region","name":"\u0417\u0430\u043a\u0430\u0440\u043f\u0430\u0442\u0441\u044c\u043a\u0430 \u043e\u0431\u043b\u0430\u0441\u0442\u044c - \u041b\u044c\u0432\u0456\u0432\u0441\u044c\u043a\u0430 \u043e\u0431\u043b\u0430\u0441\u0442\u044c","name:left:no":"Zakarpattja oblast","name:right:fa":"\u0627\u0633\u062a\u0627\u0646 \u0644\u0648\u0648\u0641","min_zoom":8.0,"name:right:be":"\u041b\u044c\u0432\u043e\u045e\u0441\u043a\u0430\u044f \u0432\u043e\u0431\u043b\u0430\u0441\u0446\u044c","name:left:zh":"\u5916\u5580\u723e\u5df4\u9621\u5dde","name:left:fr":"Oblast de Transcarpatie","name:right:zh":"\u5229\u6c83\u592b\u5dde","name:left:et":"Taga-Karpaatia","name:right:nn":"Lviv oblast","name:left:bs":"Zakarpatska oblast","name:right:nl":"Oblast Lviv","name:right:ja":"\u30ea\u30f4\u30a3\u30a6\u5dde","name:right:fr":"Oblast de Lviv","name:left:lv":"Aizkarpatu apgabals","name:left:ja":"\u30b6\u30ab\u30eb\u30d1\u30c3\u30c1\u30e3\u5dde","id:right":-72380,"name:left:nn":"Zakarpattja oblast","name:right:sh":"Lavovska oblast","name:right:sk":"\u013dvovsk\u00e1 oblas\u0165","name:left:bg":"\u0417\u0430\u043a\u0430\u0440\u043f\u0430\u0442\u0441\u043a\u0430 \u043e\u0431\u043b\u0430\u0441\u0442","name:left:be":"\u0417\u0430\u043a\u0430\u0440\u043f\u0430\u0446\u043a\u0430\u044f \u0432\u043e\u0431\u043b\u0430\u0441\u0446\u044c","name:left:fi":"Taka-Karpatian alue","id":-72489,"name:right:fi":"Lvivin alue","name:left:eo":"Transkarpata provinco","name:left:en":"Zakarpattia Oblast","name:right:ca":"Prov\u00edncia de Lviv","kind_detail":"4","name:left:mk":"\u0417\u0430\u043a\u0430\u0440\u043f\u0430\u0442\u0441\u043a\u0430 \u043e\u0431\u043b\u0430\u0441\u0442","name:left:nl":"Oblast Transkarpati\u00eb","id:left":-72489,"name:left:es":"\u00d3blast de Zakarpatia","name:right:cs":"Lvovsk\u00e1 oblast","name:right":"\u041b\u044c\u0432\u0456\u0432\u0441\u044c\u043a\u0430 \u043e\u0431\u043b\u0430\u0441\u0442\u044c","name:left:os":"\u0424\u00e6\u0441\u043a\u0430\u0440\u043f\u0430\u0442\u044b \u043e\u0431\u043b\u00e6\u0441\u0442","name:left:eu":"Transkarpatiako oblasta","name:right:cv":"\u041b\u044c\u0432\u043e\u0432 \u043e\u0431\u043b\u0430\u00e7\u0115","name:right:mk":"\u041b\u0430\u0432\u043e\u0432\u0441\u043a\u0430 \u043e\u0431\u043b\u0430\u0441\u0442","name:right:zh-min-nan":"Lviv s\u00e9ng","name:right:pt":"Oblast de Lviv","name:left:ar":"\u0632\u0627\u0643\u0627\u0631\u0628\u0627\u062a\u064a\u0627 \u0623\u0648\u0628\u0644\u0627\u0633\u062a","name:left:pl":"Obw\u00f3d zakarpacki","name:left:tr":"Zakarpatya Oblast\u0131","name:left:id":"Oblast Zakarpattia","name:right:tr":"Lviv Oblast\u0131","name:right:bg":"\u041b\u0432\u043e\u0432\u0441\u043a\u0430 \u043e\u0431\u043b\u0430\u0441\u0442","name:left:pt":"Oblast da Transcarp\u00e1tia","name:left:mr":"\u091d\u093e\u0915\u093e\u0930\u092a\u0924\u094d\u0924\u093f\u092f\u093e \u0913\u092c\u094d\u0932\u093e\u0938\u094d\u0924","name:right:sv":"Lviv oblast","name:right:ko":"\ub9ac\ube44\uc6b0 \uc8fc","name:left:zh-min-nan":"Zakarpattya s\u00e9ng","name:left:it":"Oblast' di Transcarpazia","name:right:pl":"Obw\u00f3d lwowski","osm_relation":true,"name:left:uz":"Zakarpatye viloyati","name:right:ka":"\u10da\u10d5\u10dd\u10d5\u10d8\u10e1 \u10dd\u10da\u10e5\u10d8","name:right:de":"Oblast Lemberg","name:left:de":"Oblast Transkarpatien"},"arcs":[8]},{"type":"MultiLineString","properties":{"name:left:uz":"Zakarpatye viloyati","name:left:sk":"Zakarpatsk\u00e1 oblas\u0165","name:left:bs":"Zakarpatska oblast","name:right:uk":"\u041f\u0456\u0432\u043d\u0456\u0447\u043d\u0438\u0439 \u0412\u0435\u043b\u0438\u043a\u0438\u0439 \u0410\u043b\u044c\u0444\u0435\u043b\u044c\u0434","name:left:he":"\u05d6\u05e7\u05e8\u05e4\u05d8\u05d9\u05d4","name:right:hr":"Sjeverni Alf\u00f6ld","name:left:ja":"\u30b6\u30ab\u30eb\u30d1\u30c3\u30c1\u30e3\u5dde","id:right":-22793,"name:left:nn":"Zakarpattja oblast","name:left:no":"Zakarpattja oblast","min_zoom":8.0,"name:left:lt":"U\u017ekarpat\u0117s sritis","name:left:hy":"\u0531\u0576\u0564\u0580\u056f\u0561\u0580\u057a\u0561\u057f\u0575\u0561\u0576 \u0574\u0561\u0580\u0566","name:left:lv":"Aizkarpatu apgabals","name:left:be":"\u0417\u0430\u043a\u0430\u0440\u043f\u0430\u0446\u043a\u0430\u044f \u0432\u043e\u0431\u043b\u0430\u0441\u0446\u044c","name:left:hu":"K\u00e1rp\u00e1talja","id":-72489,"name:left:hr":"Zakarpatska oblast","name:right":"Alf\u00f6ld \u00e9s \u00c9szak","name:left:eo":"Transkarpata provinco","name:left:en":"Zakarpattia Oblast","sort_rank":256,"kind_detail":"4","name:left:ca":"Transcarp\u00e0cia","name:left:la":"Ruthenia Subcarpathanea","source":"openstreetmap.org","name:left:nl":"Oblast Transkarpati\u00eb","id:left":-72489,"name:left:es":"\u00d3blast de Zakarpatia","name:left:os":"\u0424\u00e6\u0441\u043a\u0430\u0440\u043f\u0430\u0442\u044b \u043e\u0431\u043b\u00e6\u0441\u0442","name:left:cs":"Zakarpatsk\u00e1 oblast","name:left":"\u0417\u0430\u043a\u0430\u0440\u043f\u0430\u0442\u0441\u044c\u043a\u0430 \u043e\u0431\u043b\u0430\u0441\u0442\u044c","name:left:sr":"\u0417\u0430\u043a\u0430\u0440\u043f\u0430\u0442\u0441\u043a\u0430 \u043e\u0431\u043b\u0430\u0441\u0442","name:left:sv":"Zakarpatska oblast","name:left:ka":"\u10e2\u10e0\u10d0\u10dc\u10e1\u10d9\u10d0\u10e0\u10de\u10d0\u10e2\u10d8\u10d8\u10e1 \u10dd\u10da\u10e5\u10d8","name:left:ar":"\u0632\u0627\u0643\u0627\u0631\u0628\u0627\u062a\u064a\u0627 \u0623\u0648\u0628\u0644\u0627\u0633\u062a","name:left:pl":"Obw\u00f3d zakarpacki","name:left:ko":"\uc790\uce74\ub974\ud30c\ud0f8 \uc8fc","name:left:id":"Oblast Zakarpattia","name:left:ro":"Regiunea Transcarpatia","name:right:ru":"\u0421\u0435\u0432\u0435\u0440\u043d\u044b\u0439 \u0410\u043b\u044c\u0444\u0451\u043b\u044c\u0434","name:left:pt":"Oblast da Transcarp\u00e1tia","name:left:mr":"\u091d\u093e\u0915\u093e\u0930\u092a\u0924\u094d\u0924\u093f\u092f\u093e \u0913\u092c\u094d\u0932\u093e\u0938\u094d\u0924","name:right:ro":"Marea C\u00e2mpie \u0219i Nordul","name:left:ru":"\u0417\u0430\u043a\u0430\u0440\u043f\u0430\u0442\u0441\u043a\u0430\u044f \u043e\u0431\u043b\u0430\u0441\u0442\u044c","name:left:tr":"Zakarpatya Oblast\u0131","name:left:zh-min-nan":"Zakarpattya s\u00e9ng","name:left:it":"Oblast' di Transcarpazia","name:right:sr":"\u0412\u0435\u043b\u0438\u043a\u0435 \u0440\u0430\u0432\u043d\u0438\u0446\u0435 \u0438 \u0441\u0435\u0432\u0435\u0440\u043d\u0430 \u041c\u0430\u0452\u0430\u0440\u0441\u043a\u0430","name:right:en":"Great Plain and North","osm_relation":true,"kind":"region","name":"\u0417\u0430\u043a\u0430\u0440\u043f\u0430\u0442\u0441\u044c\u043a\u0430 \u043e\u0431\u043b\u0430\u0441\u0442\u044c - Alf\u00f6ld \u00e9s \u00c9szak","name:right:de":"N\u00f6rdliche Gro\u00dfe Tiefebene","name:left:de":"Oblast Transkarpatien","name:left:fi":"Taka-Karpatian alue","name:left:zh":"\u5916\u5580\u723e\u5df4\u9621\u5dde","name:left:fr":"Oblast de Transcarpatie","name:left:eu":"Transkarpatiako oblasta","name:left:et":"Taga-Karpaatia","name:left:mk":"\u0417\u0430\u043a\u0430\u0440\u043f\u0430\u0442\u0441\u043a\u0430 \u043e\u0431\u043b\u0430\u0441\u0442","name:left:bg":"\u0417\u0430\u043a\u0430\u0440\u043f\u0430\u0442\u0441\u043a\u0430 \u043e\u0431\u043b\u0430\u0441\u0442"},"arcs":[[9],[10],[11]]},{"type":"MultiLineString","properties":{"name:pt":"Oblast da Transcarp\u00e1tia","name:ro":"Regiunea Transcarpatia","name:id":"Oblast Zakarpattia","name:ka":"\u10e2\u10e0\u10d0\u10dc\u10e1\u10d9\u10d0\u10e0\u10de\u10d0\u10e2\u10d8\u10d8\u10e1 \u10dd\u10da\u10e5\u10d8","name:mr":"\u091d\u093e\u0915\u093e\u0930\u092a\u0924\u094d\u0924\u093f\u092f\u093e \u0913\u092c\u094d\u0932\u093e\u0938\u094d\u0924","name:ko":"\uc790\uce74\ub974\ud30c\ud0f8 \uc8fc","name:ar":"\u0632\u0627\u0643\u0627\u0631\u0628\u0627\u062a\u064a\u0627 \u0623\u0648\u0628\u0644\u0627\u0633\u062a","name:cs":"Zakarpatsk\u00e1 oblast","min_zoom":8.0,"name:it":"Oblast' di Transcarpazia","name:zh-min-nan":"Zakarpattya s\u00e9ng","name:os":"\u0424\u00e6\u0441\u043a\u0430\u0440\u043f\u0430\u0442\u044b \u043e\u0431\u043b\u00e6\u0441\u0442","name:ru":"\u0417\u0430\u043a\u0430\u0440\u043f\u0430\u0442\u0441\u043a\u0430\u044f \u043e\u0431\u043b\u0430\u0441\u0442\u044c","name:pl":"Obw\u00f3d zakarpacki","id":-72489,"name:ca":"Transcarp\u00e0cia","name:bg":"\u0417\u0430\u043a\u0430\u0440\u043f\u0430\u0442\u0441\u043a\u0430 \u043e\u0431\u043b\u0430\u0441\u0442","name:lt":"U\u017ekarpat\u0117s sritis","source":"openstreetmap.org","sort_rank":256,"kind_detail":"4","name:uz":"Zakarpatye viloyati","name:de":"Oblast Transkarpatien","name:tr":"Zakarpatya Oblast\u0131","name:fr":"Oblast de Transcarpatie","name:mk":"\u0417\u0430\u043a\u0430\u0440\u043f\u0430\u0442\u0441\u043a\u0430 \u043e\u0431\u043b\u0430\u0441\u0442","name:be":"\u0417\u0430\u043a\u0430\u0440\u043f\u0430\u0446\u043a\u0430\u044f \u0432\u043e\u0431\u043b\u0430\u0441\u0446\u044c","name:zh":"\u5916\u5580\u723e\u5df4\u9621\u5dde","name:lv":"Aizkarpatu apgabals","name:ja":"\u30b6\u30ab\u30eb\u30d1\u30c3\u30c1\u30e3\u5dde","name:nn":"Zakarpattja oblast","name:no":"Zakarpattja oblast","name:he":"\u05d6\u05e7\u05e8\u05e4\u05d8\u05d9\u05d4","kind":"region","name:bs":"Zakarpatska oblast","name:la":"Ruthenia Subcarpathanea","name:sk":"Zakarpatsk\u00e1 oblas\u0165","name:hy":"\u0531\u0576\u0564\u0580\u056f\u0561\u0580\u057a\u0561\u057f\u0575\u0561\u0576 \u0574\u0561\u0580\u0566","name:sv":"Zakarpatska oblast","name:hu":"K\u00e1rp\u00e1talja","name:hr":"Zakarpatska oblast","name:sr":"\u0417\u0430\u043a\u0430\u0440\u043f\u0430\u0442\u0441\u043a\u0430 \u043e\u0431\u043b\u0430\u0441\u0442","osm_relation":true,"name:eo":"Transkarpata provinco","name:en":"Zakarpattia Oblast","name":"\u0417\u0430\u043a\u0430\u0440\u043f\u0430\u0442\u0441\u044c\u043a\u0430 \u043e\u0431\u043b\u0430\u0441\u0442\u044c","name:fi":"Taka-Karpatian alue","name:eu":"Transkarpatiako oblasta","name:et":"Taga-Karpaatia","name:nl":"Oblast Transkarpati\u00eb","name:es":"\u00d3blast de Zakarpatia"},"arcs":[[12],[13]]},{"type":"LineString","properties":{"name:right:hy":"\u053c\u057e\u0578\u057e\u056b \u0574\u0561\u0580\u0566","name:right:no":"Lviv oblast","name:right:hr":"Ljvivska oblast","name:left:sv":"Ivano-Frankivsk oblast","name:right:hu":"Lvivi ter\u00fclet","name:right:lt":"Lvovo sritis","name:right:lv":"\u013bvovas apgabals","name:left:lt":"Ivano Frankivsko sritis","name:left:sh":"Ivano-Frankivska oblast","name:left:sk":"Ivanofrankivsk\u00e1 oblas\u0165","name:left:hu":"Ivano-frankivszki ter\u00fclet","name:right:he":"\u05de\u05d7\u05d5\u05d6 \u05dc\u05d1\u05d5\u05d1","name:left:hr":"Ivano-Frankivska oblast","name:right:os":"\u041b\u044c\u0432\u043e\u0432\u044b \u043e\u0431\u043b\u00e6\u0441\u0442","name:right:vi":"Lviv (t\u1ec9nh)","sort_rank":256,"name:left:ca":"Prov\u00edncia d'Ivano-Frankivsk","source":"openstreetmap.org","name:right:ar":"\u0644\u0641\u064a\u0641 \u0623\u0648\u0628\u0644\u0627\u0633\u062a","name:right:az":"Lvov vilay\u0259ti","name:left:cs":"Ivanofrankivsk\u00e1 oblast","name:left":"\u0406\u0432\u0430\u043d\u043e-\u0424\u0440\u0430\u043d\u043a\u0456\u0432\u0441\u044c\u043a\u0430 \u043e\u0431\u043b\u0430\u0441\u0442\u044c","name:right:es":"\u00d3blast de Le\u00f3polis","name:right:sh":"Lavovska oblast","name:right:sr":"\u041b\u0430\u0432\u043e\u0432\u0441\u043a\u0430 \u043e\u0431\u043b\u0430\u0441\u0442","name:left:ka":"\u10d8\u10d5\u10d0\u10dc\u10dd-\u10e4\u10e0\u10d0\u10dc\u10d9\u10dd\u10d5\u10e1\u10d9\u10d8\u10e1 \u10dd\u10da\u10e5\u10d8","name:right:eu":"Lviveko oblasta","name:right:et":"Lvivi oblast","name:left:ko":"\uc774\ubc14\ub178\ud504\ub780\ud0a4\uc6b0\uc2dc\ud06c \uc8fc","name:right:it":"Oblast' di Leopoli","name:left:ro":"Regiunea Ivano-Frankivsk","name:right:ru":"\u041b\u044c\u0432\u043e\u0432\u0441\u043a\u0430\u044f \u043e\u0431\u043b\u0430\u0441\u0442\u044c","name:right:ro":"Regiunea Liov","name:left:ru":"\u0418\u0432\u0430\u043d\u043e-\u0424\u0440\u0430\u043d\u043a\u043e\u0432\u0441\u043a\u0430\u044f \u043e\u0431\u043b\u0430\u0441\u0442\u044c","name:right:ms":"Oblast Lviv","name:right:mr":"\u0932\u093f\u0935\u094d\u0939\u093f\u0935 \u0913\u092c\u094d\u0932\u093e\u0938\u094d\u0924","name:right:id":"Oblast Lviv","name:right:eo":"Lviva provinco","name:right:en":"Lviv Oblast","name:left:vi":"Ivano-Frankivsk (t\u1ec9nh)","kind":"region","name":"\u0406\u0432\u0430\u043d\u043e-\u0424\u0440\u0430\u043d\u043a\u0456\u0432\u0441\u044c\u043a\u0430 \u043e\u0431\u043b\u0430\u0441\u0442\u044c - \u041b\u044c\u0432\u0456\u0432\u0441\u044c\u043a\u0430 \u043e\u0431\u043b\u0430\u0441\u0442\u044c","name:left:fa":"\u0627\u0633\u062a\u0627\u0646 \u0627\u06cc\u0648\u0627\u0646\u0648 \u0641\u0631\u0627\u0646\u06a9\u06cc\u0633\u0648\u06a9","name:right:fa":"\u0627\u0633\u062a\u0627\u0646 \u0644\u0648\u0648\u0641","min_zoom":8.0,"name:right:be":"\u041b\u044c\u0432\u043e\u045e\u0441\u043a\u0430\u044f \u0432\u043e\u0431\u043b\u0430\u0441\u0446\u044c","name:left:zh":"\u4f0a\u4e07\u8bfa-\u5f17\u5170\u79d1\u592b\u65af\u514b\u5dde","name:left:fr":"Oblast d'Ivano-Frankivsk","name:right:zh":"\u5229\u6c83\u592b\u5dde","name:left:et":"Ivano-Frankivski oblast","name:left:hy":"\u053b\u057e\u0561\u0576\u0578-\u0556\u0580\u0561\u0576\u056f\u0578\u057e\u057d\u056f\u056b \u0574\u0561\u0580\u0566","name:right:nn":"Lviv oblast","name:right:mk":"\u041b\u0430\u0432\u043e\u0432\u0441\u043a\u0430 \u043e\u0431\u043b\u0430\u0441\u0442","name:right:nl":"Oblast Lviv","name:right:ja":"\u30ea\u30f4\u30a3\u30a6\u5dde","name:right:fr":"Oblast de Lviv","name:left:lv":"Ivanofrankivskas apgabals","name:left:ja":"\u30a4\u30f4\u30a1\u30fc\u30ce\uff1d\u30d5\u30e9\u30f3\u30ad\u30fc\u30a6\u30b7\u30af\u5dde","id:right":-72380,"name:left:nn":"Ivano-Frankivsk oblast","name:left:no":"Ivano-Frankivsk oblast","name:right:sk":"\u013dvovsk\u00e1 oblas\u0165","name:left:bg":"\u0418\u0432\u0430\u043d\u043e-\u0424\u0440\u0430\u043d\u043a\u043e\u0432\u0441\u043a\u0430 \u043e\u0431\u043b\u0430\u0441\u0442","name:left:be":"\u0406\u0432\u0430\u043d\u0430-\u0424\u0440\u0430\u043d\u043a\u043e\u045e\u0441\u043a\u0430\u044f \u0432\u043e\u0431\u043b\u0430\u0441\u0446\u044c","name:left:fi":"Ivano-Frankivskin alue","id":-72488,"name:right:fi":"Lvivin alue","name:left:eo":"Ivano-Frankivska provinco","name:left:en":"Ivano-Frankivsk Oblast","name:right:ca":"Prov\u00edncia de Lviv","kind_detail":"4","name:left:mk":"\u0418\u0432\u0430\u043d\u043e-\u0424\u0440\u0430\u043d\u043a\u043e\u0432\u0441\u043a\u0430 \u043e\u0431\u043b\u0430\u0441\u0442","name:left:nl":"Oblast Ivano-Frankivsk","id:left":-72488,"name:left:es":"\u00d3blast de Ivano-Frankivsk","name:right:cs":"Lvovsk\u00e1 oblast","name:right":"\u041b\u044c\u0432\u0456\u0432\u0441\u044c\u043a\u0430 \u043e\u0431\u043b\u0430\u0441\u0442\u044c","name:left:eu":"Ivano-Frankivskeko oblasta","name:right:cv":"\u041b\u044c\u0432\u043e\u0432 \u043e\u0431\u043b\u0430\u00e7\u0115","name:right:ka":"\u10da\u10d5\u10dd\u10d5\u10d8\u10e1 \u10dd\u10da\u10e5\u10d8","name:right:zh-min-nan":"Lviv s\u00e9ng","name:right:pt":"Oblast de Lviv","name:left:ar":"\u0625\u064a\u0641\u0627\u0646\u0648 \u0641\u0631\u0627\u0646\u0643\u064a\u0641\u0633\u0643 \u0623\u0648\u0628\u0644\u0627\u0633\u062a","name:left:pl":"Obw\u00f3d iwanofrankiwski","name:left:tr":"\u0130vano-Frankivsk Oblast\u0131","name:left:id":"Oblast Ivano-Frankivsk","name:right:tr":"Lviv Oblast\u0131","name:right:bg":"\u041b\u0432\u043e\u0432\u0441\u043a\u0430 \u043e\u0431\u043b\u0430\u0441\u0442","name:left:pt":"Oblast de Ivano-Frankivsk","name:left:mr":"\u0907\u0935\u094d\u0939\u093e\u0928\u094b-\u092b\u094d\u0930\u093e\u0902\u0915\u093f\u0935\u094d\u0939\u094d\u0938\u094d\u0915 \u0913\u092c\u094d\u0932\u093e\u0938\u094d\u0924","name:right:sv":"Lviv oblast","name:right:ko":"\ub9ac\ube44\uc6b0 \uc8fc","name:left:zh-min-nan":"Ivano-Frankivsk s\u00e9ng","name:left:it":"Oblast' di Ivano-Frankivs'k","name:right:pl":"Obw\u00f3d lwowski","osm_relation":true,"name:right:de":"Oblast Lemberg","name:left:de":"Oblast Iwano-Frankiwsk"},"arcs":[14]}]},"roads":{"type":"GeometryCollection","geometries":[{"type":"MultiLineString","properties":{"kind":"major_road","network":"ua:regional","sort_rank":380,"kind_detail":"primary","source":"openstreetmap.org","min_zoom":8.0,"shield_text":"21","ref":"\u0420-21"},"arcs":[[18],[19],[20],[21]]},{"type":"MultiLineString","properties":{"kind":"major_road","network":"e-road","sort_rank":381,"kind_detail":"trunk","source":"openstreetmap.org","min_zoom":8.0,"shield_text":"50","ref":"\u041c-06"},"arcs":[[22],[23],[24],[25],[26],[27],[28],[29],[30],[31]]},{"type":"MultiLineString","properties":{"kind":"major_road","network":"ua:national","sort_rank":380,"kind_detail":"primary","source":"openstreetmap.org","min_zoom":8.0,"landuse_kind":"urban_area","shield_text":"09"},"arcs":[[32],[33]]},{"type":"LineString","properties":{"kind":"major_road","name:en":"Kopanska Street","network":"ua:international","sort_rank":381,"kind_detail":"trunk","source":"openstreetmap.org","min_zoom":8.0,"shield_text":"23","name:ru":"\u041a\u043e\u043f\u0430\u043d\u0441\u043a\u0430\u044f \u0443\u043b\u0438\u0446\u0430","ref":"\u041c-23","id":86166353},"arcs":[34]},{"type":"MultiLineString","properties":{"kind":"major_road","network":"e-road","sort_rank":381,"landuse_kind":"urban_area","source":"openstreetmap.org","min_zoom":8.0,"kind_detail":"trunk","shield_text":"50","ref":"\u041c-06"},"arcs":[[35],[36],[37]]},{"type":"MultiLineString","properties":{"kind":"major_road","network":"e-road","sort_rank":381,"kind_detail":"trunk","source":"openstreetmap.org","min_zoom":8.0,"shield_text":"58","ref":"\u041c-23"},"arcs":[[38],[39],[40]]},{"type":"LineString","properties":{"kind":"major_road","network":"e-road","sort_rank":381,"kind_detail":"trunk","source":"openstreetmap.org","min_zoom":8.0,"landuse_kind":"urban_area","shield_text":"471","id":55609191},"arcs":[41]},{"type":"LineString","properties":{"kind":"major_road","sort_rank":379,"landuse_kind":"nature_reserve","is_bicycle_related":true,"bicycle_shield_text":"2A","bicycle_network":"ncn","source":"openstreetmap.org","min_zoom":8.0,"kind_detail":"secondary","ref":"4127"},"arcs":[42]},{"type":"LineString","properties":{"kind":"major_road","sort_rank":379,"kind_detail":"secondary","is_bicycle_related":true,"bicycle_shield_text":"2G","bicycle_network":"ncn","source":"openstreetmap.org","min_zoom":8.0,"landuse_kind":"nature_reserve","ref":"4127","id":267207612},"arcs":[43]},{"type":"MultiLineString","properties":{"kind":"major_road","network":"ua:national","sort_rank":380,"kind_detail":"primary","source":"openstreetmap.org","min_zoom":8.0,"shield_text":"09","ref":"\u041d-09"},"arcs":[[44],[45],[46],[47],[48],[49],[50],[51]]},{"type":"LineString","properties":{"kind":"major_road","network":"ua:national","sort_rank":380,"kind_detail":"primary","source":"openstreetmap.org","min_zoom":8.0,"shield_text":"13","ref":"\u041d-13","id":189530803},"arcs":[52]},{"type":"LineString","properties":{"kind":"major_road","network":"DN","sort_rank":380,"kind_detail":"primary","source":"openstreetmap.org","min_zoom":8.0,"shield_text":"1C","ref":"DN1C"},"arcs":[53]},{"type":"MultiLineString","properties":{"kind":"major_road","network":"ua:international","sort_rank":381,"kind_detail":"trunk","source":"openstreetmap.org","min_zoom":8.0,"shield_text":"23","ref":"\u041c-23"},"arcs":[[54],[55],[56]]},{"type":"MultiLineString","properties":{"kind":"major_road","network":"e-road","sort_rank":381,"kind_detail":"trunk","source":"openstreetmap.org","min_zoom":8.0,"shield_text":"58","ref":"\u041c-24"},"arcs":[[57],[58]]},{"type":"LineString","properties":{"kind":"major_road","name:en":"Bohdana Khmelnytskoho Street","network":"ua:international","sort_rank":381,"kind_detail":"trunk","source":"openstreetmap.org","min_zoom":8.0,"shield_text":"24","name:ru":"\u0411\u043e\u0433\u0434\u0430\u043d\u0430 \u0425\u043c\u0435\u043b\u044c\u043d\u0438\u0446\u043a\u043e\u0433\u043e \u0443\u043b\u0438\u0446\u0430","ref":"\u041c-24"},"arcs":[59]},{"type":"LineString","properties":{"kind":"major_road","network":null,"sort_rank":380,"kind_detail":"primary","is_bicycle_related":true,"bicycle_shield_text":"3A","bicycle_network":"ncn","source":"openstreetmap.org","min_zoom":8.0,"shield_text":"491","ref":"491","id":223241933},"arcs":[60]},{"type":"MultiLineString","properties":{"kind":"major_road","name:en":"Danyla Halytskoho Street","network":"ua:national","sort_rank":380,"kind_detail":"primary","source":"openstreetmap.org","min_zoom":8.0,"landuse_kind":"urban_area","shield_text":"09","name:ru":"\u0414\u0430\u043d\u0438\u0438\u043b\u0430 \u0413\u0430\u043b\u0438\u0446\u043a\u043e\u0433\u043e \u0443\u043b\u0438\u0446\u0430","ref":"\u041d-09"},"arcs":[[61],[62]]},{"type":"MultiLineString","properties":{"kind":"major_road","network":"ua:international","sort_rank":381,"kind_detail":"trunk","is_bicycle_related":true,"source":"openstreetmap.org","min_zoom":8.0,"shield_text":"24","ref":"\u041c-24"},"arcs":[[63],[64],[65]]},{"type":"LineString","properties":{"source":"openstreetmap.org","kind":"major_road","network":"e-road","sort_rank":381,"kind_detail":"trunk","min_zoom":8.0,"shield_text":"58"},"arcs":[66]},{"type":"LineString","properties":{"kind":"major_road","sort_rank":377,"kind_detail":"tertiary","is_bicycle_related":true,"bicycle_shield_text":"2A","bicycle_network":"ncn","source":"openstreetmap.org","min_zoom":8.0,"ref":"41125"},"arcs":[67]},{"type":"LineString","properties":{"kind":"major_road","network":"ua:national","sort_rank":380,"kind_detail":"primary","old_name:ru":"\u041a\u0440\u0430\u0441\u043d\u043e\u0430\u0440\u043c\u0435\u0439\u0441\u043a\u0430\u044f \u0443\u043b\u0438\u0446\u0430","source":"openstreetmap.org","min_zoom":8.0,"old_name":"\u0427\u0435\u0440\u0432\u043e\u043d\u043e\u0430\u0440\u043c\u0456\u0439\u0441\u044c\u043a\u0430 \u0432\u0443\u043b\u0438\u0446\u044f","shield_text":"13","name:ru":"\u0423\u0436\u0430\u043d\u0441\u043a\u0430\u044f \u0443\u043b\u0438\u0446\u0430","ref":"\u041d-13","id":166368788},"arcs":[68]},{"type":"LineString","properties":{"kind":"major_road","network":"ua:international","sort_rank":381,"kind_detail":"trunk","source":"openstreetmap.org","min_zoom":8.0,"shield_text":"26","ref":"\u041c-26"},"arcs":[69]},{"type":"LineString","properties":{"kind":"major_road","name:en":"Kopanska Street","network":"ua:international","sort_rank":381,"kind_detail":"trunk","source":"openstreetmap.org","min_zoom":8.0,"shield_text":"23","ref":"\u041c-23","id":291070640},"arcs":[70]},{"type":"MultiLineString","properties":{"kind":"minor_road","sort_rank":360,"landuse_kind":"nature_reserve","is_bicycle_related":true,"bicycle_shield_text":"2A","bicycle_network":"ncn","source":"openstreetmap.org","min_zoom":8.0,"kind_detail":"residential"},"arcs":[[71],[72],[73]]},{"type":"LineString","properties":{"kind":"major_road","name:en":"Ilony Zrini Street","network":"ua:international","sort_rank":381,"kind_detail":"trunk","source":"openstreetmap.org","min_zoom":8.0,"landuse_kind":"urban_area","shield_text":"24","name:ru":"\u0418\u043b\u043e\u043d\u044b \u0417\u0440\u0438\u043d\u0438 \u0443\u043b\u0438\u0446\u0430","ref":"\u041c-24","id":36886706},"arcs":[74]},{"type":"LineString","properties":{"kind":"major_road","sort_rank":379,"kind_detail":"secondary","is_bicycle_related":true,"bicycle_shield_text":"2G","bicycle_network":"ncn","source":"openstreetmap.org","min_zoom":8.0,"ref":"4127"},"arcs":[75]},{"type":"MultiLineString","properties":{"kind":"major_road","network":null,"sort_rank":380,"kind_detail":"primary","source":"openstreetmap.org","min_zoom":8.0,"shield_text":"491","ref":"491"},"arcs":[[76],[77]]},{"type":"MultiLineString","properties":{"kind":"major_road","sort_rank":379,"landuse_kind":"nature_reserve","is_bicycle_related":true,"bicycle_shield_text":"2A","bicycle_network":"ncn","source":"openstreetmap.org","min_zoom":8.0,"kind_detail":"secondary","ref":"4130"},"arcs":[[78],[79]]},{"type":"LineString","properties":{"kind":"major_road","name:en":"Ardovetska Street","network":"ua:international","sort_rank":381,"kind_detail":"trunk","source":"openstreetmap.org","min_zoom":8.0,"shield_text":"23","name:ru":"\u0410\u0440\u0434\u043e\u0432\u0435\u0446\u043a\u0430\u044f \u0443\u043b\u0438\u0446\u0430","ref":"\u041c-23","id":418418142},"arcs":[80]},{"type":"MultiLineString","properties":{"kind":"major_road","network":"e-road","sort_rank":380,"kind_detail":"primary","source":"openstreetmap.org","min_zoom":8.0,"shield_text":"579","ref":"41"},"arcs":[[81],[82],[83],[84],[85]]},{"type":"LineString","properties":{"kind":"major_road","network":"e-road","sort_rank":381,"kind_detail":"trunk","source":"openstreetmap.org","min_zoom":8.0,"landuse_kind":"urban_area","shield_text":"58","id":23211315},"arcs":[86]},{"type":"LineString","properties":{"kind":"minor_road","sort_rank":360,"kind_detail":"residential","is_bicycle_related":true,"bicycle_shield_text":"2G","bicycle_network":"ncn","source":"openstreetmap.org","min_zoom":8.0},"arcs":[87]},{"type":"MultiLineString","properties":{"kind":"major_road","network":null,"sort_rank":380,"kind_detail":"primary","is_bicycle_related":true,"bicycle_shield_text":"2A","bicycle_network":"ncn","source":"openstreetmap.org","min_zoom":8.0,"shield_text":"491","ref":"491"},"arcs":[[88],[89],[90]]},{"type":"LineString","properties":{"kind":"major_road","network":"DN","sort_rank":380,"kind_detail":"primary","source":"openstreetmap.org","min_zoom":8.0,"shield_text":"19","ref":"DN19"},"arcs":[91]},{"type":"LineString","properties":{"kind":"major_road","network":null,"sort_rank":380,"kind_detail":"primary","is_bicycle_related":true,"bicycle_shield_text":"2A","bicycle_network":"ncn","source":"openstreetmap.org","min_zoom":8.0,"landuse_kind":"nature_reserve","shield_text":"491","ref":"491"},"arcs":[92]},{"type":"LineString","properties":{"kind":"major_road","name:en":"Stusa Street","network":"ua:national","sort_rank":380,"kind_detail":"primary","source":"openstreetmap.org","min_zoom":8.0,"landuse_kind":"urban_area","shield_text":"09","name:ru":"\u0421\u0442\u0443\u0441\u0430 \u0443\u043b\u0438\u0446\u0430","ref":"\u041d-09","id":171672712},"arcs":[93]},{"type":"LineString","properties":{"kind":"path","sort_rank":354,"landuse_kind":"nature_reserve","is_bicycle_related":true,"bicycle_shield_text":"3A","bicycle_network":"ncn","source":"openstreetmap.org","min_zoom":8.0,"kind_detail":"cycleway"},"arcs":[94]},{"type":"MultiLineString","properties":{"kind":"major_road","sort_rank":379,"kind_detail":"secondary","is_bicycle_related":true,"bicycle_shield_text":"2A","bicycle_network":"ncn","source":"openstreetmap.org","min_zoom":8.0,"ref":"4130"},"arcs":[[95],[96]]},{"type":"LineString","properties":{"kind":"major_road","name:en":"Hrafa Fon Shenborna Street","network":"ua:international","sort_rank":381,"kind_detail":"trunk","source":"openstreetmap.org","min_zoom":8.0,"shield_text":"24","name:ru":"\u0413\u0440\u0430\u0444\u0430 \u0424\u043e\u043d \u0428\u0435\u043d\u0431\u043e\u0440\u043d\u0430 \u0443\u043b\u0438\u0446\u0430","ref":"\u041c-24","id":157903903},"arcs":[97]},{"type":"MultiLineString","properties":{"kind":"major_road","network":"ua:international","sort_rank":381,"kind_detail":"trunk","source":"openstreetmap.org","min_zoom":8.0,"shield_text":"25","ref":"\u041c-25"},"arcs":[[98],[99]]},{"type":"LineString","properties":{"kind":"major_road","name:en":"Mukachivska Street","network":"e-road","sort_rank":381,"kind_detail":"trunk","source":"openstreetmap.org","min_zoom":8.0,"shield_text":"58","name:ru":"\u041c\u0443\u043a\u0430\u0447\u0435\u0432\u0441\u043a\u0430\u044f \u0443\u043b\u0438\u0446\u0430","name:hu":"Munk\u00e1csi \u00fat","ref":"\u041c-24"},"arcs":[100]},{"type":"LineString","properties":{"kind":"major_road","network":"e-road","sort_rank":381,"kind_detail":"trunk","source":"openstreetmap.org","min_zoom":8.0,"shield_text":"50","name:ru":"\u0421\u0442\u0440\u044b\u0439\u0441\u043a\u0430\u044f \u0443\u043b\u0438\u0446\u0430","ref":"\u041c-06"},"arcs":[101]},{"type":"LineString","properties":{"kind":"major_road","sort_rank":379,"kind_detail":"secondary","is_bicycle_related":true,"bicycle_shield_text":"3A","bicycle_network":"ncn","source":"openstreetmap.org","min_zoom":8.0,"ref":"4143"},"arcs":[102]},{"type":"LineString","properties":{"kind":"major_road","network":"e-road","sort_rank":381,"landuse_kind":"urban_area","source":"openstreetmap.org","min_zoom":8.0,"kind_detail":"trunk","shield_text":"58","ref":"M-24"},"arcs":[103]},{"type":"LineString","properties":{"kind":"major_road","name:en":"Holovna Street","network":"ua:international","sort_rank":381,"kind_detail":"trunk","source":"openstreetmap.org","min_zoom":8.0,"shield_text":"25","name:ru":"\u0413\u043b\u0430\u0432\u043d\u0430\u044f \u0443\u043b\u0438\u0446\u0430","name:hu":"F\u0151 \u00fat","ref":"\u041c-25","id":457936258},"arcs":[104]},{"type":"MultiLineString","properties":{"sort_rank":380,"kind_detail":"primary","min_zoom":8.0,"kind":"major_road","source":"openstreetmap.org"},"arcs":[[105],[106],[107],[108],[109],[110],[111]]},{"type":"LineString","properties":{"kind":"major_road","name:en":"Hrafa Fon Shenborna Street","network":"ua:international","sort_rank":381,"kind_detail":"trunk","source":"openstreetmap.org","min_zoom":8.0,"landuse_kind":"urban_area","shield_text":"24","name:ru":"\u0413\u0440\u0430\u0444\u0430 \u0424\u043e\u043d \u0428\u0435\u043d\u0431\u043e\u0440\u043d\u0430 \u0443\u043b\u0438\u0446\u0430","ref":"\u041c-24","id":157903903},"arcs":[112]},{"type":"MultiLineString","properties":{"kind":"major_road","network":"ua:national","sort_rank":380,"kind_detail":"primary","source":"openstreetmap.org","min_zoom":8.0,"landuse_kind":"urban_area","shield_text":"09","ref":"\u041d-09"},"arcs":[[113],[114],[115],[116],[117],[118],[119],[120],[121],[122],[123],[124]]},{"type":"LineString","properties":{"source":"openstreetmap.org","kind":"major_road","sort_rank":380,"kind_detail":"primary","ref":"DN1C","min_zoom":8.0,"id":76733529},"arcs":[125]},{"type":"MultiLineString","properties":{"old_name:uk":"\u041c\u0430\u0442\u0440\u043e\u0441\u043e\u0432\u0430 \u0432\u0443\u043b\u0438\u0446\u044f","kind":"major_road","network":"ua:national","sort_rank":380,"kind_detail":"primary","old_name:ru":"\u041c\u0430\u0442\u0440\u043e\u0441\u043e\u0432\u0430 \u0443\u043b\u0438\u0446\u0430","source":"openstreetmap.org","min_zoom":8.0,"old_name:en":"Matrosova Street","old_name":"\u041c\u0430\u0442\u0440\u043e\u0441\u043e\u0432\u0430 \u0432\u0443\u043b\u0438\u0446\u044f","shield_text":"09","landuse_kind":"urban_area","ref":"\u041d-09"},"arcs":[[126],[127],[128],[129],[130],[131],[132],[133]]},{"type":"LineString","properties":{"kind":"major_road","sort_rank":379,"kind_detail":"secondary","is_bicycle_related":true,"bicycle_shield_text":"2G","bicycle_network":"ncn","source":"openstreetmap.org","min_zoom":8.0,"ref":"4113"},"arcs":[134]},{"type":"LineString","properties":{"kind":"major_road","network":"e-road","sort_rank":381,"kind_detail":"trunk","source":"openstreetmap.org","min_zoom":8.0,"shield_text":"58","ref":"\u041c-26"},"arcs":[135]},{"type":"LineString","properties":{"kind":"major_road","name:en":"Myru Street","network":"ua:international","sort_rank":381,"kind_detail":"trunk","source":"openstreetmap.org","min_zoom":8.0,"shield_text":"23","name:ru":"\u041c\u0438\u0440\u0430 \u0443\u043b\u0438\u0446\u0430","ref":"\u041c-23"},"arcs":[136]},{"type":"LineString","properties":{"kind":"major_road","network":"e-road","sort_rank":381,"kind_detail":"trunk","source":"openstreetmap.org","min_zoom":8.0,"shield_text":"50","name:ru":"\u0415\u0432\u0440\u043e\u043f\u0435\u0439\u0441\u043a\u0430\u044f \u0443\u043b\u0438\u0446\u0430","name:hu":"Eur\u00f3pai \u00fat","ref":"\u041c-06"},"arcs":[137]},{"type":"LineString","properties":{"kind":"major_road","name:en":"Holovna Street","network":"ua:national","sort_rank":380,"kind_detail":"primary","source":"openstreetmap.org","min_zoom":8.0,"shield_text":"09","name:ru":"\u0413\u043b\u0430\u0432\u043d\u0430\u044f \u0443\u043b\u0438\u0446\u0430","ref":"\u041d-09"},"arcs":[138]},{"type":"MultiLineString","properties":{"source":"openstreetmap.org","kind":"major_road","kind_detail":"trunk","sort_rank":381,"landuse_kind":"urban_area","min_zoom":8.0},"arcs":[[139],[140]]},{"type":"MultiLineString","properties":{"kind":"major_road","network":"ua:international","sort_rank":381,"kind_detail":"trunk","source":"openstreetmap.org","min_zoom":8.0,"shield_text":"24","ref":"\u041c-24"},"arcs":[[141],[142],[143]]},{"type":"LineString","properties":{"kind":"major_road","network":"ua:national","sort_rank":380,"kind_detail":"primary","source":"openstreetmap.org","min_zoom":8.0,"landuse_kind":"residential","shield_text":"09","ref":"\u041d-09"},"arcs":[144]},{"type":"LineString","properties":{"kind":"major_road","name:en":"Holovna Street","network":"e-road","sort_rank":381,"kind_detail":"trunk","source":"openstreetmap.org","min_zoom":8.0,"shield_text":"58","name:ru":"\u0413\u043b\u0430\u0432\u043d\u0430\u044f \u0443\u043b\u0438\u0446\u0430","ref":"\u041c-24","id":345321019},"arcs":[145]},{"type":"LineString","properties":{"old_name:uk":"\u0427\u0435\u0440\u0432\u043e\u043d\u043e\u0430\u0440\u043c\u0456\u0439\u0441\u044c\u043a\u0430 \u0432\u0443\u043b\u0438\u0446\u044f","kind":"major_road","network":"ua:national","sort_rank":380,"kind_detail":"primary","old_name:ru":"\u041a\u0440\u0430\u0441\u043d\u043e\u0430\u0440\u043c\u0435\u0439\u0441\u043a\u0430\u044f \u0443\u043b\u0438\u0446\u0430","source":"openstreetmap.org","min_zoom":8.0,"old_name:en":"Chervonoarmiiska Street","old_name":"\u0427\u0435\u0440\u0432\u043e\u043d\u043e\u0430\u0440\u043c\u0456\u0439\u0441\u044c\u043a\u0430 \u0432\u0443\u043b\u0438\u0446\u044f","shield_text":"09","landuse_kind":"urban_area","ref":"\u041d-09"},"arcs":[146]},{"type":"LineString","properties":{"kind":"major_road","name:en":"Sadova Street","network":"ua:national","sort_rank":380,"kind_detail":"primary","source":"openstreetmap.org","min_zoom":8.0,"landuse_kind":"urban_area","shield_text":"09","name:ru":"\u0421\u0430\u0434\u043e\u0432\u0430\u044f \u0443\u043b\u0438\u0446\u0430","ref":"\u041d-09"},"arcs":[147]},{"type":"LineString","properties":{"kind":"major_road","name:en":"Koshuta Street","network":"ua:national","sort_rank":380,"kind_detail":"primary","source":"openstreetmap.org","min_zoom":8.0,"shield_text":"09","name:ru":"\u041a\u043e\u0448\u0443\u0442\u0430 \u0443\u043b\u0438\u0446\u0430","ref":"\u041d-09","id":259581439},"arcs":[148]},{"type":"LineString","properties":{"kind":"path","sort_rank":354,"kind_detail":"path","is_bicycle_related":true,"bicycle_shield_text":"2A","bicycle_network":"ncn","source":"openstreetmap.org","min_zoom":8.0,"landuse_kind":"nature_reserve","id":100771665},"arcs":[149]},{"type":"LineString","properties":{"kind":"major_road","name:en":"Tsentralna Street","network":"ua:international","sort_rank":381,"kind_detail":"trunk","source":"openstreetmap.org","min_zoom":8.0,"shield_text":"24","ref":"\u041c-24","id":148957385},"arcs":[150]},{"type":"LineString","properties":{"kind":"major_road","sort_rank":379,"kind_detail":"secondary","is_bicycle_related":true,"bicycle_shield_text":"2A","bicycle_network":"ncn","source":"openstreetmap.org","min_zoom":8.0,"ref":"4129"},"arcs":[151]},{"type":"MultiLineString","properties":{"kind":"path","sort_rank":354,"landuse_kind":"nature_reserve","is_bicycle_related":true,"bicycle_shield_text":"2A","bicycle_network":"ncn","source":"openstreetmap.org","min_zoom":8.0,"kind_detail":"cycleway"},"arcs":[[152],[153],[154]]},{"type":"LineString","properties":{"kind":"major_road","network":"e-road","sort_rank":381,"kind_detail":"trunk","source":"openstreetmap.org","min_zoom":8.0,"shield_text":"58","name:ru":"\u0422\u043e\u043c\u0430\u0448\u0430 \u0415\u0441\u0435 \u0443\u043b\u0438\u0446\u0430","ref":"\u041c-23","id":127240896},"arcs":[155]},{"type":"LineString","properties":{"kind":"major_road","network":"ua:international","sort_rank":381,"kind_detail":"trunk","source":"openstreetmap.org","min_zoom":8.0,"shield_text":"23","name:ru":"\u0428\u0435\u0432\u0447\u0435\u043d\u043a\u043e \u0443\u043b\u0438\u0446\u0430","ref":"\u041c-23","id":343707197},"arcs":[156]},{"type":"MultiLineString","properties":{"kind":"major_road","sort_rank":379,"kind_detail":"secondary","is_bicycle_related":true,"bicycle_shield_text":"2A","bicycle_network":"ncn","source":"openstreetmap.org","min_zoom":8.0},"arcs":[[157],[158]]},{"type":"MultiLineString","properties":{"kind":"major_road","network":"ua:regional","sort_rank":380,"kind_detail":"primary","source":"openstreetmap.org","min_zoom":8.0,"landuse_kind":"nature_reserve","shield_text":"21","ref":"\u0420-21","id":150908316},"arcs":[[159],[160]]},{"type":"LineString","properties":{"kind":"major_road","network":"e-road","sort_rank":381,"landuse_kind":"urban_area","source":"openstreetmap.org","min_zoom":8.0,"kind_detail":"trunk","shield_text":"58","ref":"\u041c-24"},"arcs":[161]},{"type":"LineString","properties":{"kind":"minor_road","sort_rank":358,"kind_detail":"service","is_bicycle_related":true,"bicycle_shield_text":"2A","bicycle_network":"ncn","source":"openstreetmap.org","min_zoom":8.0,"landuse_kind":"nature_reserve","id":267207613},"arcs":[162]},{"type":"LineString","properties":{"kind":"major_road","network":"ua:international","sort_rank":381,"kind_detail":"trunk","source":"openstreetmap.org","min_zoom":8.0,"landuse_kind":"urban_area","shield_text":"24","ref":"\u041c-24","id":123213700},"arcs":[163]},{"type":"LineString","properties":{"kind":"major_road","name:en":"Ferentsa Rakotsi Street","network":"e-road","sort_rank":381,"kind_detail":"trunk","source":"openstreetmap.org","min_zoom":8.0,"shield_text":"58","name:ru":"\u0424\u0435\u0440\u0435\u043d\u0446\u0430 \u0420\u0430\u043a\u043e\u0446\u0438 II \u0443\u043b\u0438\u0446\u0430","name:hu":"II. R\u00e1k\u00f3czi Ferenc \u00fat","ref":"\u041c-23","id":35960368},"arcs":[164]},{"type":"LineString","properties":{"kind":"major_road","network":"e-road","sort_rank":381,"kind_detail":"trunk","source":"openstreetmap.org","min_zoom":8.0,"landuse_kind":"urban_area","shield_text":"471","ref":"M-24","id":23252997},"arcs":[165]},{"type":"MultiLineString","properties":{"kind":"path","sort_rank":354,"kind_detail":"cycleway","is_bicycle_related":true,"bicycle_shield_text":"2A","bicycle_network":"ncn","source":"openstreetmap.org","min_zoom":8.0},"arcs":[[166],[167],[168]]},{"type":"LineString","properties":{"kind":"path","sort_rank":354,"kind_detail":"cycleway","is_bicycle_related":true,"bicycle_shield_text":"3A","bicycle_network":"ncn","source":"openstreetmap.org","min_zoom":8.0},"arcs":[169]},{"type":"LineString","properties":{"kind":"minor_road","sort_rank":358,"kind_detail":"service","is_bicycle_related":true,"bicycle_shield_text":"2G","bicycle_network":"ncn","source":"openstreetmap.org","min_zoom":8.0,"landuse_kind":"nature_reserve","id":474561916},"arcs":[170]},{"type":"LineString","properties":{"kind":"minor_road","sort_rank":358,"kind_detail":"service","is_bicycle_related":true,"bicycle_shield_text":"2G","bicycle_network":"ncn","source":"openstreetmap.org","min_zoom":8.0,"id":474561916},"arcs":[171]},{"type":"LineString","properties":{"kind":"major_road","name:en":"Parkhomenka Street","network":"ua:national","sort_rank":380,"kind_detail":"primary","source":"openstreetmap.org","min_zoom":8.0,"landuse_kind":"urban_area","shield_text":"09","name:ru":"\u041f\u0430\u0440\u0445\u043e\u043c\u0435\u043d\u043a\u043e \u0443\u043b\u0438\u0446\u0430","ref":"\u041d-09","id":171672708},"arcs":[172]},{"type":"LineString","properties":{"kind":"major_road","network":"ua:regional","sort_rank":380,"kind_detail":"primary","source":"openstreetmap.org","min_zoom":8.0,"landuse_kind":"residential","shield_text":"21","ref":"\u0420-21","id":150908315},"arcs":[173]},{"type":"MultiLineString","properties":{"kind":"minor_road","sort_rank":360,"kind_detail":"residential","is_bicycle_related":true,"bicycle_shield_text":"2A","bicycle_network":"ncn","source":"openstreetmap.org","min_zoom":8.0},"arcs":[[174],[175],[176],[177]]},{"type":"LineString","properties":{"kind":"minor_road","sort_rank":358,"kind_detail":"service","is_bicycle_related":true,"bicycle_shield_text":"2A","bicycle_network":"ncn","source":"openstreetmap.org","min_zoom":8.0,"id":267207613},"arcs":[178]},{"type":"LineString","properties":{"kind":"major_road","name:en":"Myru Square","network":"ua:international","sort_rank":381,"kind_detail":"trunk","source":"openstreetmap.org","min_zoom":8.0,"shield_text":"23","name:ru":"\u041c\u0438\u0440\u0430 \u043f\u043b\u043e\u0449\u0430\u0434\u044c","ref":"\u041c-23"},"arcs":[179]},{"type":"LineString","properties":{"kind":"major_road","network":"ua:international","sort_rank":380,"kind_detail":"primary","source":"openstreetmap.org","min_zoom":8.0,"shield_text":"26","ref":"\u041c-26"},"arcs":[180]}]},"earth":{"type":"GeometryCollection","geometries":[{"type":"Polygon","properties":{"sort_rank":10,"source":"naturalearthdata.com","kind":"earth","min_zoom":0.0,"id":4754},"arcs":[[181]]}]},"landuse":{"type":"GeometryCollection","geometries":[{"type":"MultiPolygon","properties":{"kind":"national_park","protect_class":"2","area":980739078,"sort_rank":18,"source":"openstreetmap.org","min_zoom":3.0,"tier":1,"osm_relation":true},"arcs":[[[182]],[[183]],[[184]]]},{"type":"Polygon","properties":{"kind":"nature_reserve","area":625606016,"sort_rank":23,"source":"openstreetmap.org","min_zoom":6.0,"tier":2,"id":-271573,"osm_relation":true},"arcs":[[185]]},{"type":"Polygon","properties":{"kind":"residential","name":"\u0412\u0435\u0440\u0445\u043d\u0454 \u0412\u0438\u0441\u043e\u0446\u044c\u043a\u0435","area":10990500,"sort_rank":20,"source":"openstreetmap.org","min_zoom":8.0,"tier":2,"id":-6334165,"osm_relation":true},"arcs":[[186]]},{"type":"Polygon","properties":{"kind":"residential","name":"\u0414\u0443\u0431\u043e\u0432\u0435","area":23542900,"sort_rank":20,"name:eo":"Dubove","source":"openstreetmap.org","min_zoom":8.0,"tier":2,"name:pl":"Dubowe","id":30701944},"arcs":[[187]]},{"type":"MultiPolygon","properties":{"kind":"national_park","protect_class":"2","area":60751606,"sort_rank":18,"source":"openstreetmap.org","min_zoom":8.0,"tier":1,"osm_relation":true},"arcs":[[[188]],[[189]]]},{"type":"Polygon","properties":{"source":"openstreetmap.org","kind":"nature_reserve","area":1830530048,"tier":2,"id":362584617,"min_zoom":4.0,"sort_rank":23},"arcs":[[190]]},{"type":"Polygon","properties":{"kind":"national_park","protect_class":"2","area":1049209984,"sort_rank":18,"source":"openstreetmap.org","min_zoom":3.0,"tier":1,"id":225916132},"arcs":[[191]]},{"type":"MultiPolygon","properties":{"source":"naturalearthdata.com","kind":"urban_area","name":"","area":432711494,"sort_rank":11,"min_zoom":4.0},"arcs":[[[192]]]},{"type":"MultiPolygon","properties":{"source":"openstreetmap.org","kind":"residential","tier":2,"area":955853084,"sort_rank":20,"min_zoom":8.0},"arcs":[[[193]],[[194]],[[195]],[[196]],[[197]],[[198]],[[199]],[[200]],[[201]],[[202]],[[203]],[[204]]]},{"type":"Polygon","properties":{"kind":"residential","name":"\u0412\u0435\u043b\u044f\u0442\u0438\u043d\u043e","area":10052000,"sort_rank":20,"source":"openstreetmap.org","min_zoom":8.0,"tier":2,"id":-6502766,"osm_relation":true},"arcs":[[205],[206],[207],[208]]},{"type":"Polygon","properties":{"kind":"residential","name":"\u0412\u0438\u0448\u043a\u043e\u0432\u043e","area":15283500,"sort_rank":20,"name:eo":"Vi\u015dkove","source":"openstreetmap.org","min_zoom":8.0,"tier":2,"name:ru":"\u0412\u044b\u0448\u043a\u043e\u0432\u043e","name:pl":"Wyszkowo","id":30701605},"arcs":[[209]]}]}},"type":"Topology","transform":{"translate":[22.5,47.9899216674],"scale":[0.0003433228,0.0002276801]},"arcs":[[[3738,0],[-29,21],[-46,-13],[-19,29],[-142,-37]],[[3350,0],[-13,8],[-20,45],[-61,5],[-10,25],[-138,-26],[-79,35],[-30,48],[-23,-110],[-19,-30]],[[2662,0],[-39,49],[-70,10],[-85,76],[-41,2],[12,71],[-123,31],[-53,67],[41,54],[-63,61],[-5,63],[-46,2],[-16,-39],[-139,17],[-27,9],[-30,94],[-36,4],[-45,-32],[-35,-79],[-74,-33],[28,-43],[-53,-50],[20,-51],[-41,-44],[32,-40],[-57,-70],[22,-16],[-19,-43],[-72,9],[-104,-34],[-17,-37],[-31,-5],[-105,85],[-48,-10],[-99,50],[-20,-53],[51,-50],[6,-25]],[[0,1096],[47,-7],[-7,-53],[51,-72],[116,-58],[-27,-64],[39,-98],[67,-64],[-29,-23],[35,-100],[-29,-41],[245,-68],[176,123],[66,1],[38,-49],[22,16],[-17,41],[56,-22],[33,22],[7,-69],[29,52],[34,-11],[28,-155],[35,13],[37,-39],[0,-74],[25,-27],[12,21],[24,-13],[-48,-181],[-85,-95],[0,-2]],[[0,1126],[0,-20]],[[0,1141],[0,-8]],[[4096,2514],[-42,-35],[-99,-6],[-71,65],[8,51],[-94,8],[-34,48],[11,32],[-28,48],[32,91],[-22,40],[-130,32],[-32,-39],[-78,-2],[-55,36],[-37,80],[-110,88],[-12,80],[-104,11],[-23,60],[-125,27]],[[1281,0],[-6,25],[-51,50],[20,53],[99,-50],[48,10],[105,-85],[31,5],[17,37],[104,34],[72,-9],[19,43],[-22,16],[57,70],[-32,40],[41,44],[-20,51],[53,50],[-28,43],[74,33],[35,79],[45,32],[36,-4],[30,-94],[27,-9],[139,-17],[16,39],[46,-2],[5,-63],[63,-61],[-41,-54],[53,-67],[123,-31],[-12,-71],[41,-2],[85,-76],[70,-10],[39,-49]],[[3051,3229],[-104,42],[-57,-55],[-59,-17],[-15,24],[-105,11],[-60,42],[-38,-13],[-56,48],[-47,118],[-105,-76],[-116,99],[-52,-62],[-193,-6],[-93,239],[-59,79],[-46,8],[-7,77],[-103,47],[-111,-72],[-41,22],[-66,-18],[-59,-79],[-75,68],[-13,128],[-214,136],[-29,77]],[[0,1096],[47,-7],[-7,-53],[51,-72],[116,-58],[-27,-64],[39,-98],[67,-64],[-29,-23],[35,-100],[-29,-41],[245,-68],[176,123],[66,1],[38,-49],[22,16],[-17,41],[56,-22],[33,22],[7,-69],[29,52],[34,-11],[28,-155],[35,13],[37,-39],[0,-74],[25,-27],[12,21],[24,-13],[-48,-181],[-85,-95],[0,-2]],[[0,1126],[0,-20]],[[0,1141],[0,-8]],[[2960,0],[16,30],[23,110],[30,-48],[79,-35],[138,26],[10,-25],[61,-5],[20,-45],[13,-8]],[[3502,0],[142,37],[19,-29],[46,13],[29,-21]],[[3112,4096],[-20,-52],[46,-105],[85,-12],[3,-34],[-91,-39],[-26,-59],[21,-32],[-29,-78],[-38,-28],[79,-163],[-64,-118],[-27,-147]],[[385,927],[33,150],[22,16],[134,-45],[142,47],[36,0],[22,-30],[71,15],[54,86],[80,4],[75,41],[86,-20],[42,-50],[0,18]],[[1536,635],[-31,5],[-51,68],[-158,50],[-104,80],[-62,135],[55,152],[-3,34]],[[1182,1159],[15,101],[120,-23],[89,69],[94,0],[67,122],[28,6],[61,-42],[33,22]],[[2378,945],[-17,-26]],[[3143,1805],[26,-63],[-55,-107],[-63,-43],[-49,16],[-64,-64],[-10,-86],[-103,-164],[-367,-269]],[[3160,1854],[-10,-30]],[[4096,3868],[-43,-72],[-120,-120],[-93,-21],[-141,-135],[-59,12],[-77,-33],[-71,-75],[-51,-127],[-83,-62],[-52,-121],[-37,-1],[-80,-142],[-77,-14],[-26,-55],[-140,-100],[-27,-75],[-89,-49],[-18,-60],[33,-89],[38,-12],[53,-263],[-70,-49],[64,-38],[0,-97],[224,-148],[-13,-43],[18,-24]],[[0,2387],[54,-121]],[[54,2266],[-54,121]],[[115,2178],[-48,32],[-13,56]],[[185,2153],[-70,25]],[[185,2153],[28,-10]],[[324,2104],[210,-76]],[[661,2090],[229,80],[121,78],[118,135],[105,24],[41,76],[72,36],[181,-16],[87,216],[-22,98],[31,98],[-49,175],[23,155],[128,90],[4,27]],[[1730,3366],[0,-4]],[[1730,3366],[-20,160],[-58,184],[75,95],[56,-8],[54,53]],[[1843,3858],[-31,102],[27,84],[61,9],[63,-50],[147,4],[83,-65],[109,-28],[38,66],[-32,51],[50,65]],[[639,2042],[-1,-1]],[[639,2041],[-1,0],[1,0]],[[1591,659],[-11,94],[84,75]],[[607,2057],[-73,-29]],[[614,2059],[-7,-2]],[[661,2090],[-47,-31]],[[432,951],[-8,-1]],[[702,796],[-40,-5],[-72,47],[-127,-33],[-22,144]],[[789,760],[192,-229]],[[541,2026],[2,-1]],[[46,307],[0,14]],[[46,321],[0,1]],[[759,1955],[81,-20],[86,-239],[198,-124],[14,-97],[21,-31],[44,14],[91,-187],[153,37],[147,-52],[145,-152],[31,-60],[-16,-61],[46,-20],[29,15],[49,-76],[369,-65],[62,88],[46,-8]],[[2362,915],[51,-30],[-6,-196],[383,-353]],[[2911,208],[194,-101]],[[3139,94],[-1,-1]],[[3139,94],[0,-1],[1,0],[0,1],[-1,0]],[[3141,91],[-1,2]],[[3142,91],[287,-47],[166,-8],[92,28],[143,-63]],[[2358,917],[-1,-2],[2,-1],[1,3],[-2,0]],[[0,3395],[15,-57]],[[1469,0],[-8,25]],[[981,531],[343,97]],[[1531,660],[0,2]],[[1664,828],[43,-8],[27,34],[36,-8],[35,43],[66,14]],[[361,1204],[-8,55],[54,134],[-6,136],[171,339]],[[402,1082],[-9,18]],[[356,913],[68,37]],[[966,450],[8,3]],[[639,2042],[-10,23]],[[647,2020],[-8,20]],[[223,773],[-10,-4]],[[213,769],[10,4]],[[223,773],[1,0]],[[981,531],[2,-74]],[[520,367],[-139,54]],[[15,3338],[-15,-18]],[[1233,342],[-8,-82],[-140,-260]],[[1579,658],[12,1]],[[53,306],[-7,1]],[[610,523],[0,1]],[[953,458],[-5,19]],[[551,1960],[-4,-5]],[[47,323],[33,157]],[[104,0],[96,38],[215,18],[217,211]],[[633,268],[120,41],[130,128],[72,12]],[[77,295],[-23,10]],[[230,396],[-27,-39]],[[1324,628],[66,29],[117,2]],[[0,749],[123,-5]],[[124,743],[73,19]],[[124,743],[0,1],[-1,0],[0,-1],[1,0]],[[197,762],[16,7]],[[213,769],[-16,-7]],[[537,2027],[4,-1]],[[80,480],[-1,22]],[[955,449],[1,0]],[[956,449]],[[956,449]],[[3003,0],[12,14],[14,63],[148,-21],[141,-53],[3,-3]],[[956,449]],[[676,1987],[-8,11]],[[964,448],[11,-41]],[[203,357],[-29,-56],[-97,-6]],[[381,421],[-151,-25]],[[480,1928],[39,15]],[[174,1128],[-174,60]],[[368,1156],[-107,-29]],[[424,950],[-22,132]],[[1837,3850],[6,8]],[[1043,348],[11,-67],[-55,-40],[-6,-97],[-44,-40],[-16,-88],[6,-16]],[[541,2026],[3,2]],[[261,1127],[-87,1]],[[122,744],[1,-1]],[[125,743],[-1,1]],[[974,453],[1,2]],[[3138,93],[3,-2]],[[3141,91],[1,0]],[[3142,91],[-1,0]],[[632,267],[1,1],[-1,0],[0,-1]],[[519,1943],[28,11]],[[639,2041],[0,1]],[[639,2041]],[[648,2019],[-1,1],[0,-1]],[[649,2019],[-1,0]],[[691,1979],[-19,5]],[[735,1962],[-1,0]],[[736,1962],[-1,0]],[[735,1962],[1,0]],[[759,1955],[-23,7]],[[648,2019],[-1,0],[1,-1],[0,1]],[[672,1984],[0,1],[-1,-1],[1,0]],[[734,1962],[1,0],[-1,0]],[[1465,14],[3,-9]],[[711,1971],[-20,8]],[[711,1971]],[[711,1971]],[[712,1970],[1,0]],[[713,1970],[-1,1]],[[733,1963],[-20,7]],[[712,1971],[-1,0],[0,-1],[1,0]],[[712,1970],[0,1]],[[79,502],[-79,-17]],[[1461,25],[-7,84],[-155,108],[-25,109],[-75,46],[-77,-11],[-139,96]],[[1507,659],[50,1]],[[213,2143],[111,-39]],[[2790,336],[121,-128]],[[610,2058],[0,-2]],[[612,2057],[-1,1]],[[66,1747],[-66,21]],[[221,1792],[73,76],[186,60]],[[224,773],[84,21],[48,119]],[[3830,1],[1,-1]],[[393,1100],[-32,104]],[[648,2019],[10,4]],[[668,1998],[-10,25]],[[3138,93],[-33,14]],[[54,305],[-1,1]],[[221,1792],[-41,-40],[-114,-5]],[[520,367],[14,42]],[[0,318],[14,2]],[[613,524],[-3,0]],[[671,533],[121,-18]],[[441,949],[-9,2]],[[1558,662],[-27,0]],[[534,409],[95,20],[-16,90]],[[808,502],[100,-37]],[[3150,1824],[-7,-19]],[[3159,1855],[1,-1]],[[572,1868],[20,45],[-45,56],[-5,55]],[[46,321],[-4,1]],[[547,1955],[0,-1]],[[789,760],[-87,36]],[[541,2027],[0,-1]],[[14,320],[26,3]],[[671,533],[-58,-9]],[[792,515]],[[975,407],[63,-26],[5,-33]],[[46,322],[1,1]],[[47,323]],[[672,1985],[4,2]],[[2458,1025],[-80,-80]],[[613,519],[-3,4]],[[808,502],[-16,13]],[[948,477],[-40,-12]],[[955,449],[-2,9]],[[42,322],[-2,1]],[[1557,660],[22,-2],[-21,4]],[[975,455],[8,2]],[[0,0],[0,4096],[4096,0],[0,-4096],[-4096,0]],[[3150,1266],[50,-3],[31,41],[-51,34],[0,29],[77,14],[39,-16],[-18,-38],[18,15],[7,27],[-120,50],[41,42],[44,-34],[37,17],[65,-35],[74,8],[5,39],[-49,108],[46,34],[-26,43],[48,79],[21,-30],[101,-13],[14,-31],[1,30],[31,4],[30,47],[28,-41],[18,14],[16,-29],[-26,-24],[41,9],[10,-29],[-48,-36],[55,-15],[27,-47],[-53,-51],[-4,-97],[-53,-78],[-46,39],[-14,-25],[-41,56],[-58,-27],[51,-319],[-41,-61],[-32,24],[-32,-21],[-80,25],[48,44],[-12,33],[22,32],[-32,4],[-7,-60],[-41,26],[-60,-19],[-30,117],[-30,-55],[55,-76],[-105,-39],[-40,79],[21,82],[53,-78],[14,50],[-55,43],[4,57],[-39,32]],[[532,4096],[-73,-71],[-101,32],[-21,-19],[-57,9],[-37,-70],[-72,33],[-75,85],[436,1]],[[44,4096],[-19,-50],[-25,-8],[0,58],[44,0]],[[0,318],[50,5],[132,184],[167,2],[46,-44],[104,-17],[100,80],[89,43],[60,0],[37,-48],[24,14],[-18,40],[55,-21],[36,24],[7,-69],[51,52],[26,-41],[-12,-57],[34,-47],[-10,-17],[-31,71],[9,45],[-72,-11],[-50,42],[-51,-40],[-125,28],[-50,-13],[-90,-92],[-162,44],[-43,-57],[-50,37],[-53,-96],[-100,-23],[2,-40],[-112,-2],[0,24]],[[1673,4096],[8,-17],[17,-6],[-58,19],[33,4]],[[3999,978],[52,-54],[-10,48],[49,12],[6,-17],[0,-39],[-6,-3],[6,-6],[0,-41],[-37,-3],[-9,-25],[37,-29],[-38,1],[21,-37],[-10,-47],[-57,97],[-4,143]],[[899,4043],[35,12],[48,-51],[26,11],[19,42],[-50,39],[56,0],[22,-45],[-42,-113],[-46,-38],[-68,143]],[[1610,747],[68,57],[65,-60],[-65,-103],[-40,33],[5,36],[-33,37]],[[1697,2651],[103,-22],[-101,30],[4,54],[30,60],[-11,54],[28,12],[16,67],[7,136],[106,105],[73,22],[14,-27],[205,-51],[69,-74],[234,-93],[49,-41],[113,-249],[86,-53],[31,-73],[96,-92],[-10,-268],[23,-85],[79,-135],[97,-51],[123,-22],[-23,-64],[14,-54],[-109,-89],[-100,-28],[-106,-153],[-42,-117],[-69,-23],[-44,16],[-154,214],[-130,20],[-77,48],[-19,78],[15,34],[-69,107],[17,32],[-47,7],[41,201],[-76,113],[-107,80],[-120,24],[-219,153],[8,156],[-44,8],[-4,33]],[[3087,2181],[8,98],[99,52],[2,38],[-51,29],[-7,43],[74,132],[96,90],[8,84],[61,26],[13,92],[-40,48],[15,37],[62,14],[32,-70],[79,-48],[48,1],[43,42],[125,-32],[27,-36],[-32,-94],[28,-48],[-12,-26],[40,-55],[68,-12],[20,-54],[72,-61],[0,-60],[-23,-125],[-138,-326],[17,-56],[-75,-138],[-61,-25],[-22,19],[-40,-64],[-93,-15],[-118,83],[-70,3],[-80,91],[-75,-35],[52,176],[-17,56],[-82,50],[-53,76]],[[533,1851],[-21,57],[25,134],[-36,54],[12,27],[88,32],[29,-10],[0,-49],[88,-15],[35,-37],[7,-95],[-227,-98]],[[4096,5],[0,-5],[-2,0],[2,5]],[[1457,0],[-8,0],[6,26],[2,-26]],[[1780,321],[23,3],[86,-48],[11,92],[28,31],[-33,32],[-7,24],[20,38],[0,-67],[23,-19],[23,14],[9,-28],[-57,-34],[6,-109],[41,-54],[-45,27],[-18,-38],[97,6],[-76,-21],[5,-32],[-22,28],[-24,-17],[23,72],[-71,15],[75,-5],[7,20],[-124,70]],[[2543,566],[58,23],[56,67],[28,-40],[-13,-52],[-50,2],[18,-24],[-19,-21],[-78,45]],[[2023,0],[-29,0],[-11,63],[43,-50],[-3,-13]],[[2044,0],[-16,0],[25,41],[18,-3],[-20,-28],[54,23],[17,61],[11,-39],[-31,-51],[-5,-4],[-15,0],[12,10],[-50,-10]],[[3857,0],[-26,0],[-2,2],[35,44],[-27,11],[27,18],[-5,27],[47,-1],[0,-48],[61,1],[-1,-40],[-78,16],[36,-27],[-73,3],[6,-6]],[[2351,967],[95,66],[30,-21],[-34,-69],[-50,-9],[-41,33]],[[1988,1149],[34,2],[29,48],[-29,40],[46,-27],[14,17],[-45,46],[91,17],[-6,-33],[-29,12],[22,-30],[-25,3],[-10,-43],[27,-10],[-42,0],[24,-9],[-12,-31],[-10,28],[-23,-18],[45,-26],[-22,-11],[-32,34],[-36,-40],[-11,31]],[[2706,3083],[27,15],[52,-46],[26,44],[51,17],[21,80],[50,0],[-41,-37],[-9,-60],[-60,-35],[-39,-66],[-19,51],[-59,37]],[[3369,2020],[90,-30],[95,67],[-89,-81],[6,-23],[31,-34],[125,57],[-94,-59],[30,-24],[106,4],[-6,-37],[-89,2],[-51,42],[-44,-2],[-33,67],[-77,51]],[[1772,1407],[18,52],[20,-26],[-8,59],[19,-30],[46,165],[19,-18],[-17,-24],[50,-32],[-33,-61],[24,-40],[9,26],[20,-16],[-43,-40],[58,-8],[-70,-11],[-37,-47],[-27,4],[10,33],[-54,-9],[-4,23]],[[2316,545],[17,38],[54,-10],[35,-52],[-18,-7],[9,-32],[-86,-8],[17,21],[-28,50]],[[2372,547],[5,-9],[-2,21],[-2,-2],[-1,-10]],[[2366,541],[7,-5],[2,5],[-5,5],[-4,-5]],[[2382,550],[5,-6],[3,4],[-6,5],[-2,-3]],[[2616,129],[23,45],[-19,44],[34,3],[-22,30],[26,50],[-24,12],[108,-23],[-25,-18],[15,-77],[-35,43],[-25,-12],[7,-70],[-26,18],[-37,-45]]]}