{"objects":{"water":{"type":"GeometryCollection","geometries":[]},"buildings":{"type":"GeometryCollection","geometries":[]},"places":{"type":"GeometryCollection","geometries":[{"type":"Point","properties":{"name:pt":"S\u00f3fia","name:ka":"\u10e1\u10dd\u10e4\u10d8\u10d0","name:ko":"\uc18c\ud53c\uc544","name:cv":"\u0421\u043e\u0444\u0438\u0430","name:cu":"\u0421\u043e\u0444\u0457\ua657","old_name":"\u0421\u0435\u0440\u0434\u0438\u043a\u0430","name:cs":"Sofie","name:tk":"Sofi\u00fda","min_zoom":8.0,"int_name":"Sofia","name:be":"\u0421\u0430\u0444\u0456\u044f","name:pl":"Sofia","name:ta":"\u0b9a\u0bcb\u0b83\u0bb5\u0bbf\u0baf\u0bbe","name:vi":"Sofia","name:qu":"Sofiya","name:de":"Sofia","source":"openstreetmap.org","name:kn":"\u0cb8\u0ccb\u0cab\u0cbf\u0caf\u0cbe","admin_level":"2","name:ro":"Sofia","name:lt":"Sofija","name:hi":"\u0938\u094b\u092b\u093f\u092f\u093e","name:he":"\u05e1\u05d5\u05e4\u05d9\u05d4","kind":"locality","name:ur":"\u0635\u0648\u0641\u06cc\u06c1","name:la":"Serdica","name:uk":"\u0421\u043e\u0444\u0456\u044f","name:hy":"\u054d\u0578\u0586\u056b\u0561","country_capital":true,"name:ug":"\u0633\u0648\u0641\u0649\u064a\u06d5","name:hu":"Sz\u00f3fia","name:hr":"Sofija","name:oc":"S\u00f2fia","population":1286383,"name:el":"\u03a3\u03cc\u03c6\u03b9\u03b1","name:eo":"Sofio","name:en":"Sofia","name":"\u0421\u043e\u0444\u0438\u044f","name:ku":"Sofya","name:th":"\u0e42\u0e0b\u0e40\u0e1f\u0e35\u0e22","name:eu":"Sofia","name:et":"Sofia","name:nl":"Sofia","name:es":"Sof\u00eda","name:az":"Sofiya","name:mr":"\u0938\u094b\u092b\u093f\u092f\u093e","name:ar":"\u0635\u0648\u0641\u064a\u0627","name:io":"Sofiya","name:is":"S\u00f3f\u00eda","name:am":"\u1236\u134a\u12eb","name:it":"Sofia","name:an":"Sofiya","name:ml":"\u0d38\u0d4b\u0d2b\u0d3f\u0d2f","name:mn":"\u0421\u043e\u0444\u0438","id":1700083447,"name:mk":"\u0421\u043e\u0444\u0438\u0458\u0430","name:vo":"Sofiya","name:lv":"Sofija","name:fa":"\u0635\u0648\u0641\u06cc\u0647","name:rw":"Sofiya","kind_detail":"city","name:sh":"Sofija","name:fr":"Sofia","name:zh":"\u7d22\u975e\u4e9e","name:sl":"Sofija","name:sk":"Sofia","name:ja":"\u30bd\u30d5\u30a3\u30a2","name:no":"Sofia","name:bs":"Sofija","name:yi":"\u05e1\u05d0\u05e4\u05d9\u05e2","name:bn":"\u09b8\u09ab\u09bf\u09af\u09bc\u09be","name:bo":"\u0f66\u0f7c\u0f0b\u0f67\u0fa5\u0f72\u0f0b\u0f61\u0f0d","name:sv":"Sofia","name:wo":"Sofiya","name:sr":"\u0421\u043e\u0444\u0438\u0458\u0430","name:sq":"Sofja","name:ga":"S\u00f3ifia","name:gl":"Sof\u00eda - \u0421\u043e\u0444\u0438\u044f","name:tr":"Sofya","name:fi":"Sofia"},"coordinates":[2395,2629]},{"type":"Point","properties":{"admin_level":"6","kind":"locality","name:en":"Pernik","name":"\u041f\u0435\u0440\u043d\u0438\u043a","name:lt":"Pernikas","kind_detail":"town","min_zoom":8.0,"name:de":"Pernik","source":"openstreetmap.org","name:fr":"Pernik","int_name":"Pernik","name:pl":"Pernik","name:hr":"Pernik","id":31058182,"population":78342},"coordinates":[1546,2278]},{"type":"Point","properties":{"admin_level":"6","name:pt":"Kyustendil","name:ro":"Kiustendil","name:nl":"Kjoestendil","name:tr":"K\u00f6stendil","name:sr":"\u040b\u0443\u0441\u0442\u0435\u043d\u0434\u0438\u043b","min_zoom":8.0,"int_name":"Kyustendil","name:pl":"Kiustendi\u0142","name:hr":"Kjustendil","id":31058178,"population":47640,"name:el":"\u039a\u03b9\u03bf\u03c5\u03c3\u03c4\u03b5\u03bd\u03c4\u03af\u03bb","kind":"locality","name:en":"Kyustendil","name":"\u041a\u044e\u0441\u0442\u0435\u043d\u0434\u0438\u043b","kind_detail":"city","name:de":"Kjustendil","source":"openstreetmap.org","name:fr":"Kyoustendil","name:es":"Kyustendil"},"coordinates":[551,981]},{"type":"Point","properties":{"name:pt":"Dupnitsa","alt_name:en":"Dupnica","name:ro":"Dupni\u021ba","alt_name:de":"Dupnitsa","name:tr":"Dupnitsa","min_zoom":8.0,"int_name":"Dupnitsa","name:nl":"Doepnitsa","name:pl":"Dupnica","name:hr":"Dupnica","id":273488707,"population":37081,"name:el":"\u039d\u03c4\u03bf\u03cd\u03c0\u03bd\u03b9\u03c4\u03c3\u03b1","kind":"locality","name:en":"Dupnitsa","name":"\u0414\u0443\u043f\u043d\u0438\u0446\u0430","kind_detail":"city","name:de":"Dupniza","source":"openstreetmap.org","name:fr":"Doupnitsa","name:es":"Dupnitsa"},"coordinates":[1789,907]},{"type":"Point","properties":{"kind":"locality","int_name":"Samokov","name":"\u0421\u0430\u043c\u043e\u043a\u043e\u0432","name:lt":"Samokovas","kind_detail":"town","name:de":"Samokow","source":"openstreetmap.org","min_zoom":8.0,"name:pl":"Samokow","id":273488819,"population":27193},"coordinates":[3085,1205]},{"type":"Point","properties":{"kind":"locality","name:en":"Botevgrad","name":"\u0411\u043e\u0442\u0435\u0432\u0433\u0440\u0430\u0434","kind_detail":"town","name:de":"Botewgrad","source":"openstreetmap.org","min_zoom":8.0,"int_name":"Botevgrad","name:pl":"Botewgrad","id":273488848,"population":21241},"coordinates":[3766,3459]},{"type":"Point","properties":{"kind":"locality","name:en":"Radomir","name":"\u0420\u0430\u0434\u043e\u043c\u0438\u0440","kind_detail":"town","source":"openstreetmap.org","min_zoom":8.0,"int_name":"Radomir","id":273488732,"population":14232},"coordinates":[1348,2029]},{"type":"Point","properties":{"kind":"locality","name:en":"Novi Iskar","name":"\u041d\u043e\u0432\u0438 \u0418\u0441\u043a\u044a\u0440","kind_detail":"town","min_zoom":8.0,"source":"openstreetmap.org","name:fr":"Novi Iskar","int_name":"Novi Iskar","id":273351340,"population":13964},"coordinates":[2500,3090]},{"type":"Point","properties":{"kind":"locality","name:en":"Ihtiman","name:nl":"Ihtiman","name":"\u0418\u0445\u0442\u0438\u043c\u0430\u043d","kind_detail":"town","source":"openstreetmap.org","min_zoom":8.0,"int_name":"Ihtiman","id":273488980,"population":13568},"coordinates":[3828,1603]},{"type":"Point","properties":{"kind":"locality","int_name":"Kostinbrod","name":"\u041a\u043e\u0441\u0442\u0438\u043d\u0431\u0440\u043e\u0434","kind_detail":"town","source":"openstreetmap.org","min_zoom":8.0,"id":273488853,"population":11744},"coordinates":[2084,3085]},{"type":"Point","properties":{"kind":"locality","name:en":"Bankya","name":"\u0411\u0430\u043d\u043a\u044f","kind_detail":"town","min_zoom":8.0,"source":"openstreetmap.org","name:fr":"Bankya","int_name":"Bankya","id":273488684,"population":11667},"coordinates":[1883,2677]},{"type":"Point","properties":{"kind":"locality","name:en":"Svoge","name":"\u0421\u0432\u043e\u0433\u0435","kind_detail":"town","source":"openstreetmap.org","min_zoom":8.0,"int_name":"Svoge","id":273488796,"population":8258},"coordinates":[2463,3667]},{"type":"Point","properties":{"kind":"locality","name:en":"Slivnitsa","name":"\u0421\u043b\u0438\u0432\u043d\u0438\u0446\u0430","kind_detail":"town","name:de":"Sliwniza","source":"openstreetmap.org","min_zoom":8.0,"int_name":"Slivnitsa","id":273488851,"population":7186},"coordinates":[1567,3238]},{"type":"Point","properties":{"kind":"locality","name:en":"Dimitrovgrad","name:nl":"Dimitrovgrad","name":"\u0414\u0438\u043c\u0438\u0442\u0440\u043e\u0432\u0433\u0440\u0430\u0434","kind_detail":"town","source":"openstreetmap.org","min_zoom":8.0,"alt_name:en":"Tsaribrod","name:bg":"\u0426\u0430\u0440\u0438\u0431\u0440\u043e\u0434","id":470377833,"population":6968},"coordinates":[803,3881]},{"type":"Point","properties":{"kind":"locality","name:en":"Kostenets","name":"\u041a\u043e\u0441\u0442\u0435\u043d\u0435\u0446","kind_detail":"town","source":"openstreetmap.org","min_zoom":8.0,"int_name":"Kostenets","id":273488889,"population":6556},"coordinates":[3958,1086]},{"type":"Point","properties":{"kind":"locality","name:en":"Bobov Dol","name":"\u0411\u043e\u0431\u043e\u0432 \u0434\u043e\u043b","kind_detail":"town","source":"openstreetmap.org","min_zoom":8.0,"int_name":"Bobov dol","id":273488996,"population":5956},"coordinates":[1478,1318]},{"type":"Point","properties":{"kind":"locality","int_name":"Bozhurishte","name":"\u0411\u043e\u0436\u0443\u0440\u0438\u0449\u0435","kind_detail":"town","source":"openstreetmap.org","min_zoom":8.0,"id":273488943,"population":5425},"coordinates":[2032,2889]},{"type":"Point","properties":{"kind":"locality","name:en":"Buhovo","name":"\u0411\u0443\u0445\u043e\u0432\u043e","kind_detail":"town","min_zoom":8.0,"source":"openstreetmap.org","name:fr":"Bouhovo","int_name":"Buhovo","id":458871623,"population":2882},"coordinates":[3106,2894]},{"type":"Point","properties":{"kind":"locality","name:en":"Tran","name":"\u0422\u0440\u044a\u043d","kind_detail":"town","source":"openstreetmap.org","min_zoom":8.0,"int_name":"Tran","name:ru":"\u0422\u0440\u044b\u043d","name:hr":"Tran","id":30361231,"population":2443},"coordinates":[442,3173]},{"type":"Point","properties":{"kind":"locality","name:en":"Kocherinovo","name":"\u041a\u043e\u0447\u0435\u0440\u0438\u043d\u043e\u0432\u043e","kind_detail":"town","source":"openstreetmap.org","min_zoom":8.0,"int_name":"Kocherinovo","id":273488881,"population":2400},"coordinates":[1626,210]}]},"transit":{"type":"GeometryCollection","geometries":[{"type":"MultiLineString","properties":{"kind":"train","name:en":"Nis - Sofia","name":"\u041d\u0438\u0448 - \u0421\u043e\u0444\u0438\u044f","sort_rank":275,"name:de":"Nisch - Sofia","source":"openstreetmap.org","min_zoom":6.0,"operator":"\u0416\u0435\u043b\u0435\u0437\u043d\u0438\u0446\u0435 \u0421\u0440\u0431\u0438\u0458\u0435","osm_relation":true},"arcs":[[10],[11]]},{"type":"LineString","properties":{"kind":"subway","network":"\u0421\u043e\u0444\u0438\u0439\u0441\u043a\u043e \u043c\u0435\u0442\u0440\u043e","sort_rank":275,"colour":"red","name":"\u041f\u044a\u0440\u0432\u0438 \u0434\u0438\u0430\u043c\u0435\u0442\u044a\u0440: \u0411\u0438\u0437\u043d\u0435\u0441 \u043f\u0430\u0440\u043a \u0421\u043e\u0444\u0438\u044f \u2192\u00a0\u041e\u0431\u0435\u043b\u044f","source":"openstreetmap.org","min_zoom":8.0,"ref":"1","id":-406492,"osm_relation":true,"colour_name":"red"},"arcs":[12]},{"type":"MultiLineString","properties":{"source":"openstreetmap.org","kind":"train","name":"\u0416\u041f \u041b\u0438\u043d\u0438\u044f 3 \u0418\u043b\u0438\u044f\u043d\u0446\u0438 - \u0414\u044a\u0431\u043e\u0432\u043e - \u0417\u0438\u043c\u043d\u0438\u0446\u0430, \u041a\u0430\u0440\u043d\u043e\u0431\u0430\u0442 - \u0412\u0430\u0440\u043d\u0430-\u0444\u0435\u0440\u0438\u0431\u043e\u0442\u043d\u0430","sort_rank":275,"ref":"3","min_zoom":6.0,"osm_relation":true},"arcs":[[13],[14],[15],[16]]},{"type":"MultiLineString","properties":{"kind":"subway","network":"\u0421\u043e\u0444\u0438\u0439\u0441\u043a\u043e \u043c\u0435\u0442\u0440\u043e","sort_rank":275,"colour":"blue","name":"\u0412\u0442\u043e\u0440\u0438 \u0434\u0438\u0430\u043c\u0435\u0442\u044a\u0440: \u041b\u0435\u0442\u0438\u0449\u0435 \u0421\u043e\u0444\u0438\u044f \u2192 \u0412\u0438\u0442\u043e\u0448\u0430","source":"openstreetmap.org","min_zoom":8.0,"ref":"2","id":-3549690,"osm_relation":true,"colour_name":"blue"},"arcs":[[17],[18],[19]]},{"type":"LineString","properties":{"kind":"train","name":"\u0416\u041f \u041b\u0438\u043d\u0438\u044f 51 \u0414\u0443\u043f\u043d\u0438\u0446\u0430 - \u0411\u043e\u0431\u043e\u0432 \u0434\u043e\u043b","sort_rank":275,"source":"openstreetmap.org","min_zoom":6.0,"ref":"51","id":-3896986,"osm_relation":true},"arcs":[20]},{"type":"MultiLineString","properties":{"kind":"train","name:en":"Sofia - Gorna Oryahovitsa - Varna","name":"\u0416\u041f \u041b\u0438\u043d\u0438\u044f 2 \u0421\u043e\u0444\u0438\u044f - \u041c\u0435\u0437\u0434\u0440\u0430 - \u0413\u043e\u0440\u043d\u0430 \u041e\u0440\u044f\u0445\u043e\u0432\u0438\u0446\u0430 - \u0428\u0443\u043c\u0435\u043d - \u041a\u0430\u0441\u043f\u0438\u0447\u0430\u043d - \u0421\u0438\u043d\u0434\u0435\u043b - \u0412\u0430\u0440\u043d\u0430","sort_rank":275,"source":"openstreetmap.org","min_zoom":6.0,"operator":"\u041d\u041a\u0416\u0418","ref":"2","osm_relation":true},"arcs":[[21],[22],[23],[24],[25],[26],[27],[28]]},{"type":"MultiLineString","properties":{"source":"openstreetmap.org","kind":"train","name":"\u0416\u041f \u041b\u0438\u043d\u0438\u044f 6 \u0412\u043e\u043b\u0443\u044f\u043a - \u0411\u0430\u0442\u0430\u043d\u043e\u0432\u0446\u0438;\u0420\u0430\u0434\u043e\u043c\u0438\u0440 - \u0413\u044e\u0435\u0448\u0435\u0432\u043e","sort_rank":275,"ref":"6","min_zoom":6.0,"osm_relation":true},"arcs":[[29],[30],[31],[32]]},{"type":"MultiLineString","properties":{"kind":"subway","network":"\u0421\u043e\u0444\u0438\u0439\u0441\u043a\u043e \u043c\u0435\u0442\u0440\u043e","sort_rank":275,"colour":"blue","name":"\u0412\u0442\u043e\u0440\u0438 \u0434\u0438\u0430\u043c\u0435\u0442\u044a\u0440: \u0412\u0438\u0442\u043e\u0448\u0430 \u2192\u00a0\u041b\u0435\u0442\u0438\u0449\u0435 \u0421\u043e\u0444\u0438\u044f","source":"openstreetmap.org","min_zoom":8.0,"ref":"2","id":-7734091,"osm_relation":true,"colour_name":"blue"},"arcs":[[33],[34],[35]]},{"type":"MultiLineString","properties":{"source":"openstreetmap.org","kind":"train","name":"\u0416\u041f \u041b\u0438\u043d\u0438\u044f 5 \u0421\u043e\u0444\u0438\u044f - \u041f\u0435\u0440\u043d\u0438\u043a - \u0411\u0430\u0442\u0430\u043d\u043e\u0432\u0446\u0438 - \u0420\u0430\u0434\u043e\u043c\u0438\u0440 - \u0414\u0443\u043f\u043d\u0438\u0446\u0430 - \u041a\u0443\u043b\u0430\u0442\u0430","sort_rank":275,"ref":"5","min_zoom":6.0,"osm_relation":true},"arcs":[[36],[37],[38],[39],[40],[41],[42],[43],[44],[45]]},{"type":"MultiLineString","properties":{"source":"openstreetmap.org","kind":"train","name":"\u0421\u043e\u0444\u0438\u044f - \u0411\u0430\u043d\u043a\u044f","sort_rank":275,"ref":"\u0421\u043e\u0444\u0438\u044f - \u0411\u0430\u043d\u043a\u044f","min_zoom":6.0,"osm_relation":true},"arcs":[[46],[47],[48],[49],[50],[51],[52],[53],[54],[55],[56],[57],[58],[59],[60],[61],[62],[63],[64],[65]]},{"type":"LineString","properties":{"kind":"subway","network":"\u0421\u043e\u0444\u0438\u0439\u0441\u043a\u043e \u043c\u0435\u0442\u0440\u043e","sort_rank":275,"colour":"red","name":"\u041f\u044a\u0440\u0432\u0438 \u0434\u0438\u0430\u043c\u0435\u0442\u044a\u0440: \u041e\u0431\u0435\u043b\u044f \u2192\u00a0\u0411\u0438\u0437\u043d\u0435\u0441 \u043f\u0430\u0440\u043a \u0421\u043e\u0444\u0438\u044f","source":"openstreetmap.org","min_zoom":8.0,"ref":"1","id":-7734090,"osm_relation":true,"colour_name":"red"},"arcs":[66]}]},"pois":{"type":"GeometryCollection","geometries":[{"type":"Point","properties":{"kind":"protected_area","name:en":"Treskavetz","protect_class":"6","area":18474200,"source":"openstreetmap.org","min_zoom":8.0,"tier":2,"id":-4273809,"osm_relation":true,"name":"\u0422\u0440\u0435\u0441\u043a\u0430\u0432\u0435\u0446"},"coordinates":[2614,3875]},{"type":"Point","properties":{"kind":"nature_reserve","name:en":"Rila Monastery Natural Park","protect_class":"5","area":468747000,"source":"openstreetmap.org","min_zoom":7.85,"tier":2,"id":-4271939,"osm_relation":true,"name":"\u041f\u0440\u0438\u0440\u043e\u0434\u0435\u043d \u043f\u0430\u0440\u043a \u0420\u0438\u043b\u0441\u043a\u0438 \u043c\u0430\u043d\u0430\u0441\u0442\u0438\u0440"},"coordinates":[2670,346]},{"type":"Point","properties":{"kind":"nature_reserve","name:en":"Central Rila Reserve","protect_class":"1","area":155402000,"source":"openstreetmap.org","min_zoom":8.65,"tier":2,"id":-4264964,"osm_relation":true,"name":"\u0426\u0435\u043d\u0442\u0440\u0430\u043b\u0435\u043d \u0440\u0438\u043b\u0441\u043a\u0438 \u0440\u0435\u0437\u0435\u0440\u0432\u0430\u0442"},"coordinates":[2964,466]}]},"boundaries":{"type":"GeometryCollection","geometries":[{"type":"MultiLineString","properties":{"name:right:yo":"B\u00f9lg\u00e1r\u00ed\u00e0","name:right:yi":"\u05d1\u05d5\u05dc\u05d2\u05d0\u05e8\u05d9\u05e2","name:left:la":"Serbia","name:right:qu":"Bulgarya","name:left:li":"Servi\u00eb","name:left:vi":"Serbia","name:left:sw":"Serbia","name:left:kg":"Serbie","name:left:ka":"\u10e1\u10d4\u10e0\u10d1\u10d4\u10d7\u10d8","name:left:kl":"Serbia","name:left:ko":"\uc138\ub974\ube44\uc544","name:right:it":"Bulgaria","name:right:is":"B\u00falgar\u00eda","name:right:rw":"Bulugariya","name:left:kk":"\u0421\u0435\u0440\u0431\u0438\u044f","name:left:rm":"Serbia","name:left:ku":"Serbistan","name:left:kw":"Serbi","name:left:kv":"\u0421\u0435\u0440\u0431\u0438\u044f","name:right:rn":"Bulgaria","name:left:rw":"Seribiya","name:left:ru":"\u0421\u0435\u0440\u0431\u0438\u044f","name:right:ie":"Bulgaria","name:right:id":"Bulgaria","name:left:ky":"\u0421\u0435\u0440\u0431\u0438\u044f","name:right:ia":"Bulgaria","name:right:bi":"Bulgaria","name:right:bn":"\u09ac\u09c1\u09b2\u0997\u09c7\u09b0\u09bf\u09af\u09bc\u09be","name:right:bo":"\u0f54\u0f74\u0f0b\u0f62\u0f0b\u0f42\u0f0b\u0f62\u0f72\u0f0b\u0f61\u0f0d","name:left:sl":"Srbija","name:right:ba":"\u0411\u043e\u043b\u0433\u0430\u0440\u0438\u044f","name:right:be":"\u0411\u0430\u043b\u0433\u0430\u0440\u044b\u044f","name:right:br":"Bulgaria","name:right:bs":"Bugarska","name:right:nn":"Bulgaria","name:right:no":"Bulgaria","name:right:nl":"Bulgarije","name:right:wa":"Bulg\u00e5reye","name:left:lv":"Serbija","name:right:wo":"Bulgaari","name:right:ne":"\u092c\u0941\u0932\u094d\u0917\u0947\u0930\u093f\u092f\u093e","name:right:na":"Borgeriya","name:right:gv":"Yn Vulgeyr","name:right:nv":"B\u00e1lgaa Bik\u00e9yah","name:left:mg":"Serbia","kind_detail":"2","name:left:tr":"S\u0131rbistan","name:right:gu":"\u0aac\u0ab2\u0acd\u0a97\u0ac7\u0ab0\u0abf\u0aaf\u0abe","name:left:ty":"Terepia","name:right:ps":"\u0628\u0644\u063a\u0627\u0631\u06cc\u0627","name:right:pt":"Bulg\u00e1ria","name:left:mi":"Serbia","name:left:tt":"\u0421\u0435\u0440\u0431\u0438\u044f","name:left:mn":"\u0421\u0435\u0440\u0431\u0438","name:left:tw":"Serbia","name:left:th":"\u0e1b\u0e23\u0e30\u0e40\u0e17\u0e28\u0e40\u0e0b\u0e2d\u0e23\u0e4c\u0e40\u0e1a\u0e35\u0e22","name:right:pa":"\u0a2c\u0a41\u0a32\u0a17\u0a3e\u0a30\u0a40\u0a06","name:left:tk":"Serbi\u00fda","name:left:tl":"Serbiya","name:left:mt":"Serbja","name:right:gl":"Bulgaria - \u0411\u044a\u043b\u0433\u0430\u0440\u0438\u044f","name:left:my":"\u1006\u102c\u1038\u1018\u102e\u1038\u101a\u102c\u1038\u1014\u102d\u102f\u1004\u103a\u1004\u1036","name:right:gn":"Vugaria","name:right:pl":"Bu\u0142garia","name:left:te":"\u0c38\u0c46\u0c30\u0c4d\u0c2c\u0c3f\u0c2f\u0c3e","name:left:tg":"\u0421\u0435\u0440\u0431\u0438\u044f","name:left:ms":"Serbia","name:left:mr":"\u0938\u0930\u094d\u092c\u093f\u092f\u093e","name:right:tr":"Bulgaristan","name:left:da":"Serbien","name:left:de":"Serbien","name:right:ga":"An Bhulg\u00e1ir","name:left:dv":"\u0790\u07a7\u0784\u07a8\u0787\u07a7","name:right:ug":"\u0628\u06c7\u0644\u063a\u0627\u0631\u0649\u064a\u06d5","name:left:hi":"\u0938\u0930\u094d\u092c\u093f\u092f\u093e","name:right:lb":"Bulgarien","name:right:uk":"\u0411\u043e\u043b\u0433\u0430\u0440\u0456\u044f","name:left:he":"\u05e1\u05e8\u05d1\u05d9\u05d4","name:right:ln":"Bulgaria","name:right:li":"B\u00f6lgarije","name:right:lt":"Bulgarija","name:right:ur":"\u0628\u0644\u063a\u0627\u0631\u06cc\u06c1","name:right:lv":"Bulg\u0101rija","name:left:hy":"\u054d\u0565\u0580\u0562\u056b\u0561","name:left:ta":"\u0b9a\u0bc6\u0bb0\u0bcd\u0baa\u0bbf\u0baf\u0bbe","name:left:ht":"S\u00e8bi","name:left:hu":"Szerbia","name:left:hr":"Srbija","sort_rank":262,"name:right:gd":"Bulg\u00e0iria","name:right:os":"\u0411\u043e\u043b\u0433\u0430\u0440\u0438","name:right:es":"Bulgaria","name:right:sr":"\u0411\u0443\u0433\u0430\u0440\u0441\u043a\u0430","name:right:eu":"Bulgaria","name:right:et":"Bulgaaria","name:left:os":"\u0421\u0435\u0440\u0431\u0438","name:left:or":"\u0b38\u0b30\u0b4d\u0b2c\u0b3f\u0b06","name:right:ee":"Bulgaria","name:left:vo":"S\u00e4rb\u00e4n","name:left:oc":"Serbia","name:right:eo":"Bulgarujo","name:right:en":"Bulgaria","name:right:el":"\u0392\u03bf\u03c5\u03bb\u03b3\u03b1\u03c1\u03af\u03b1","name:left:fa":"\u0635\u0631\u0628\u0633\u062a\u0627\u0646","name:left:fo":"Serbia","name:right:sk":"Bulharsko","name:left:fi":"Serbia","name:left:fr":"Serbie","name:left:cs":"Srbsko","name:right:jv":"Bulgaria","name:left:fy":"Servje","name:right:ja":"\u30d6\u30eb\u30ac\u30ea\u30a2","name:right:sq":"Bullgaria","name:right:ss":"IBhulgariya","name:left:ja":"\u30bb\u30eb\u30d3\u30a2","name:right:su":"Bulgaria","name:right:sw":"Bulgaria","name:right:sv":"Bulgarien","name:right:sh":"Bugarska","name:left:qu":"Sirbya","name:right:sm":"Bultalia","name:right:sl":"Bolgarija","name:right:so":"Bulgaria","name:right:sa":"\u092c\u0941\u0932\u094d\u0917\u093e\u0930\u093f\u092f\u093e","name:right:sc":"Bulgaria","name:left:jv":"Serbia","id":-1741311,"name:right:co":"Bulgaria","name:right:ca":"Bulg\u00e0ria","name:right:se":"Bulg\u00e1ria","name:right:ce":"\u0411\u043e\u043b\u0433\u0430\u0440\u0438","name:right:cy":"Bwlgaria","name:right:zh-yue":"\u4fdd\u52a0\u5229\u4e9e","name:right:cs":"Bulharsko","name:right:cu":"\u0411\u043b\u044a\u0433\u0430\u0440\u0457\ua657","name:right:cv":"\u0422\u0103\u043d\u0430\u0439\u00e7\u0438 \u041f\u0103\u043b\u0445\u0430\u0440\u0115","name:left:ar":"\u0635\u0631\u0628\u064a\u0627","name:left:az":"Serbiya","name:left:ay":"Sirwiya","name:left:ro":"Serbia","name:left:af":"Serwi\u00eb","name:left:an":"Serbia","name:left:am":"\u1230\u122d\u1262\u12eb","name:right:ru":"\u0411\u043e\u043b\u0433\u0430\u0440\u0438\u044f","name:right:io":"Bulgaria","name:left:zh-yue":"\u585e\u723e\u7dad\u4e9e","name:right:ro":"Bulgaria","name:right:hy":"\u0532\u0578\u0582\u056c\u0572\u0561\u0580\u056b\u0561","name:left:lb":"Serbien","alt_name:left:eo":"Serbio","name:left:su":"S\u00e9rbia","name:left:st":"Serbia","name:right:hr":"Bugarska","name:left:sv":"Serbien","name:left:sq":"Serbia","name:right:hu":"Bulg\u00e1ria","name:left:ln":"Serbia","name:left:sm":"Serbia","name:right:hi":"\u092c\u0941\u0932\u094d\u0917\u093e\u0930\u093f\u092f\u093e","name:left:so":"Serbia","name:left:lt":"Serbija","name:left:sh":"Srbija","name:left:sk":"Srbsko","name:left:se":"Serbia","name:left:sa":"\u0938\u0930\u094d\u092c\u093f\u092f\u093e","name:right:he":"\u05d1\u05d5\u05dc\u05d2\u05e8\u05d9\u05d4","name:left:sc":"S\u00e8rbia","name:right:la":"Bulgaria","name:right:af":"Bulgarye","name:left:co":"Serbia","name:right:ab":"\u0411\u044b\u043b\u0433\u0430\u0440\u0438\u0430","name:left:ce":"\u0421\u0435\u0440\u0431\u0438","name:right:an":"Bulgaria","name:right:am":"\u1261\u120d\u130b\u122a\u12eb","name:left:ca":"S\u00e8rbia","source":"openstreetmap.org","name:left:cy":"Serbia","name:right:ar":"\u0628\u0644\u063a\u0627\u0631\u064a\u0627","name:left:cu":"\u0421\u0440\u044c\u0431\u0457\ua657","name:left:cv":"\u0421\u0435\u0440\u0431\u0438","name:right:az":"Bolqar\u0131stan","name:right:ay":"Bulkariya","name:right:rm":"Bulgaria","name":"\u0421\u0440\u0431\u0438\u0458\u0430 - \u0411\u044a\u043b\u0433\u0430\u0440\u0438\u044f","name:right:zu":"IBulgariya","name:left:zu":"ISerbiya","name:left:zh":"\u585e\u723e\u7dad\u4e9e","name:right:zh":"\u4fdd\u52a0\u5229\u4e9a","official_name:left":"\u0420\u0435\u043f\u0443\u0431\u043b\u0438\u043a\u0430 \u0421\u0440\u0431\u0438\u0458\u0430","name:left:uz":"Serbiya","name:right:fr":"Bulgarie","name:left:ur":"\u0633\u0631\u0628\u06cc\u0627","id:right":-186382,"name:left:uk":"\u0421\u0435\u0440\u0431\u0456\u044f","name:left:no":"Serbia","name:left:nl":"Servi\u00eb","alt_name:right:eo":"Bulgario","name:right:fa":"\u0628\u0644\u063a\u0627\u0631\u0633\u062a\u0627\u0646","name:right:fo":"Bulgaria","name:left:ne":"\u0938\u0930\u094d\u092c\u093f\u092f\u093e","name:left:ug":"S\u00e9rbiye","name:left:na":"Terbiya","name:left:ml":"\u0d38\u0d46\u0d7c\u0d2c\u0d3f\u0d2f","name:left:eo":"Serbujo","name:left:en":"Serbia","name:left:el":"\u03a3\u03b5\u03c1\u03b2\u03af\u03b1","name:left:ee":"Serbia","name:left:pl":"Serbia","name:left:es":"Serbia","name:left:ss":"ISebhiya","name:left:ie":"Serbia","name:left:eu":"Serbia","name:left:et":"Serbia","name:right:zh-min-nan":"Bulgariya","name:right:oc":"Bulgaria","name:right:ko":"\ubd88\uac00\ub9ac\uc544","name:right:uz":"Bolgariya","osm_relation":true,"name:right:or":"\u0b2c\u0b41\u0b32\u0b17\u0b3e\u0b30\u0b3f\u0b06","name:left:pt":"S\u00e9rvia","name:right:ku":"Bulgaristan","name:right:tk":"Bolgari\u00fda","name:left:gl":"Serbia","min_zoom":8.0,"name:left:zh-min-nan":"Srbija","name:left:wo":"Seerbi","name:left:ga":"An tSeirbia","name:left:it":"Serbia","name:left:gd":"An t-S\u00e8irb","int_name:right":"Bulgaria","name:left:gn":"Sevia","name:left:gv":"Yn Serb","official_name:right":"\u0420\u0435\u043f\u0443\u0431\u043b\u0438\u043a\u0430 \u0411\u044a\u043b\u0433\u0430\u0440\u0438\u044f","name:left":"\u0421\u0440\u0431\u0438\u0458\u0430","name:right:mk":"\u0411\u0443\u0433\u0430\u0440\u0438\u0458\u0430","name:right:mi":"Puruk\u0101ria","name:right:mn":"\u0411\u043e\u043b\u0433\u0430\u0440","name:right:ml":"\u0d2c\u0d7e\u0d17\u0d47\u0d31\u0d3f\u0d2f","name:right:vo":"Bulgar\u00e4n","name:right:vi":"Bulgaria","name:right:my":"\u1018\u1030\u101c\u103a\u1002\u1031\u1038\u101b\u102e\u1038\u101a\u102c\u1038\u1014\u102d\u102f\u1004\u103a\u1004\u1036","name:right:ms":"Bulgaria","name:right:mr":"\u092c\u0932\u094d\u0917\u0947\u0930\u093f\u092f\u093e","name:right:fy":"Bulgarije","name:right:mt":"Bulgarija","name:left:nn":"Serbia","kind":"country","name:left:br":"Serbia","name:left:bs":"Srbija","int_name:left":"Serbia","name:left:ba":"\u0421\u0435\u0440\u0431\u0438\u044f","name:left:bg":"\u0421\u044a\u0440\u0431\u0438\u044f","name:right:kv":"\u0411\u043e\u043b\u0433\u0430\u0440\u0438\u044f","name:left:be":"\u0421\u0435\u0440\u0431\u0456\u044f","name:right:ff":"Bulgariya","name:left:bi":"Serbia","name:left:bn":"\u09b8\u09be\u09b0\u09cd\u09ac\u09bf\u09af\u09bc\u09be","name:left:bo":"\u0f66\u0f7a\u0f62\u0f0b\u0f56\u0fb7\u0f72\u0f0b\u0f61\u0f0d","name:right":"\u0411\u044a\u043b\u0433\u0430\u0440\u0438\u044f","name:left:yo":"S\u00e9rb\u00ed\u00e0","name:left:yi":"\u05e1\u05e2\u05e8\u05d1\u05d9\u05e2","id:left":-1741311,"name:right:fi":"Bulgaria","name:right:ka":"\u10d1\u10e3\u10da\u10d2\u10d0\u10e0\u10d4\u10d7\u10d8","name:left:io":"Serbia","name:left:pa":"\u0a38\u0a30\u0a2c\u0a40\u0a06","name:right:kg":"Balgaria","name:right:tt":"\u0411\u043e\u043b\u0433\u0430\u0440\u0438\u044f","name:right:kk":"\u0411\u043e\u043b\u0433\u0430\u0440\u0438\u044f","name:left:id":"Serbia","name:right:kl":"Bulgaria","name:left:ia":"Serbia","name:right:kn":"\u0cac\u0cb2\u0ccd\u0c97\u0cc7\u0cb0\u0cbf\u0caf","name:right:tl":"Bulgarya","name:right:th":"\u0e1b\u0e23\u0e30\u0e40\u0e17\u0e28\u0e1a\u0e31\u0e25\u0e41\u0e01\u0e40\u0e23\u0e35\u0e22","name:right:kw":"Bulgari","name:left:ps":"\u0633\u0631\u0628\u064a\u0627","name:right:ky":"\u0411\u043e\u043b\u0433\u0430\u0440\u0438\u044f","name:right:te":"\u0c2c\u0c32\u0c4d\u0c17\u0c47\u0c30\u0c3f\u0c2f\u0c3e","name:right:tg":"\u0411\u0443\u043b\u0493\u043e\u0440\u0438\u0441\u0442\u043e\u043d","name:left:is":"Serb\u00eda","name:right:ta":"\u0baa\u0bb2\u0bcd\u0b95\u0bbe\u0bb0\u0bbf\u0baf\u0bbe","name:right:de":"Bulgarien","name:right:da":"Bulgarien","name:right:dv":"\u0784\u07a6\u078d\u07b0\u078e\u07ad\u0783\u07a8\u0787\u07a7","name:right:ht":"Bilgari"},"arcs":[[0],[1],[2]]},{"type":"LineString","properties":{"name:right:yo":"Or\u00edl\u1eb9\u0300-\u00e8d\u00e8 Ol\u00f3m\u00ecnira il\u1eb9\u0300 Mak\u1eb9d\u00f3n\u00ed\u00e0","name:right:yi":"\u05e8\u05e2\u05e4\u05d5\u05d1\u05dc\u05d9\u05e7 \u05e4\u05d5\u05df \u05de\u05d0\u05e7\u05e2\u05d3\u05d0\u05e0\u05d9\u05e2","name:left:la":"Bulgaria","name:right:qu":"Makidunya","name:left:li":"B\u00f6lgarije","name:left:vi":"Bulgaria","name:left:sw":"Bulgaria","name:left:kg":"Balgaria","name:left:ka":"\u10d1\u10e3\u10da\u10d2\u10d0\u10e0\u10d4\u10d7\u10d8","name:left:kl":"Bulgaria","name:left:ko":"\ubd88\uac00\ub9ac\uc544","name:left:kn":"\u0cac\u0cb2\u0ccd\u0c97\u0cc7\u0cb0\u0cbf\u0caf","name:left:rn":"Bulgaria","name:left:ro":"Bulgaria","name:left:kk":"\u0411\u043e\u043b\u0433\u0430\u0440\u0438\u044f","name:left:rm":"Bulgaria","name:left:ku":"Bulgaristan","name:left:kw":"Bulgari","name:left:kv":"\u0411\u043e\u043b\u0433\u0430\u0440\u0438\u044f","name:right:ro":"Macedonia","name:left:ru":"\u0411\u043e\u043b\u0433\u0430\u0440\u0438\u044f","name:right:ie":"Macedonia","name:right:id":"Republik Makedonia","name:left:ky":"\u0411\u043e\u043b\u0433\u0430\u0440\u0438\u044f","name:right:ia":"Republica de Macedonia","name:right:bi":"Macedonia","name:right:bn":"\u09ae\u09cd\u09af\u09be\u09b8\u09c7\u09a1\u09cb\u09a8\u09bf\u09af\u09bc\u09be \u09aa\u09cd\u09b0\u099c\u09be\u09a4\u09a8\u09cd\u09a4\u09cd\u09b0","name:right:bo":"\u0f58\u0f0b\u0f66\u0f7a\u0f0b\u0f4c\u0f7c\u0f0b\u0f53\u0f72\u0f61\u0f0d (\u0f62\u0f92\u0fb1\u0f63\u0f0b\u0f41\u0f56\u0f0d)","name:left:sl":"Bolgarija","name:right:ba":"\u041c\u0430\u043a\u0435\u0434\u043e\u043d\u0438\u044f \u0420\u0435\u0441\u043f\u0443\u0431\u043b\u0438\u043a\u0430\u04bb\u044b","name:right:bg":"\u0420\u0435\u043f\u0443\u0431\u043b\u0438\u043a\u0430 \u041c\u0430\u043a\u0435\u0434\u043e\u043d\u0438\u044f","name:right:be":"\u0420\u044d\u0441\u043f\u0443\u0431\u043b\u0456\u043a\u0430 \u041c\u0430\u043a\u0435\u0434\u043e\u043d\u0456\u044f","name:right:br":"Republik Makedonia","name:right:bs":"Makedonija","name:right:nn":"Republikken Makedonia","name:right:no":"Republikken Makedonia","name:right:nl":"Macedoni\u00eb (land)","name:left:lv":"Bulg\u0101rija","name:right:wo":"R\u00e9ewum Maseduwaan","name:right:ne":"\u092e\u094d\u092f\u093e\u0938\u0947\u0921\u094b\u0928\u093f\u092f\u093e","name:right:na":"Matedoniya","name:right:gv":"Pobblaght ny Massadoan","kind_detail":"2","name:left:tr":"Bulgaristan","name:right:gu":"\u0aae\u0ac7\u0ab8\u0ac7\u0aa1\u0acb\u0aa8\u0abf\u0aaf\u0abe","name:right:ps":"\u062f \u0645\u0642\u062f\u0648\u0646\u064a\u06d0 \u0648\u0644\u0633\u0645\u0634\u0631\u064a\u0632\u0647","name:right:pt":"Maced\u00f3nia","name:left:mk":"\u0411\u0443\u0433\u0430\u0440\u0438\u0458\u0430","name:left:mi":"Puruk\u0101ria","name:left:tt":"\u0411\u043e\u043b\u0433\u0430\u0440\u0438\u044f","name:left:mn":"\u0411\u043e\u043b\u0433\u0430\u0440","name:left:ml":"\u0d2c\u0d7e\u0d17\u0d47\u0d31\u0d3f\u0d2f","name:left:th":"\u0e1b\u0e23\u0e30\u0e40\u0e17\u0e28\u0e1a\u0e31\u0e25\u0e41\u0e01\u0e40\u0e23\u0e35\u0e22","name:right:pa":"\u0a2e\u0a15\u0a26\u0a42\u0a28\u0a40\u0a06 \u0a17\u0a23\u0a30\u0a3e\u0a1c","name:left:tk":"Bolgari\u00fda","name:left:tl":"Bulgarya","name:left:mt":"Bulgarija","name:right:gl":"Rep\u00fablica de Macedonia - \u0420\u0435\u043f\u0443\u0431\u043b\u0438\u043a\u0430 \u041c\u0430\u043a\u0435\u0434\u043e\u043d\u0438\u0458\u0430","name:left:my":"\u1018\u1030\u101c\u103a\u1002\u1031\u1038\u101b\u102e\u1038\u101a\u102c\u1038\u1014\u102d\u102f\u1004\u103a\u1004\u1036","name:right:gn":"Masendo\u00f1a","name:right:pl":"Macedonia","name:left:te":"\u0c2c\u0c32\u0c4d\u0c17\u0c47\u0c30\u0c3f\u0c2f\u0c3e","name:left:tg":"\u0411\u0443\u043b\u0493\u043e\u0440\u0438\u0441\u0442\u043e\u043d","name:left:ms":"Bulgaria","name:left:mr":"\u092c\u0932\u094d\u0917\u0947\u0930\u093f\u092f\u093e","name:right:tr":"Makedonya Cumhuriyeti","name:left:da":"Bulgarien","name:left:de":"Bulgarien","name:right:ga":"Poblacht na Macad\u00f3ine","name:left:dv":"\u0784\u07a6\u078d\u07b0\u078e\u07ad\u0783\u07a8\u0787\u07a7","name:right:ug":"\u0645\u0627\u0643\u06d0\u062f\u0648\u0646\u0649\u064a\u06d5","name:left:hi":"\u092c\u0941\u0932\u094d\u0917\u093e\u0930\u093f\u092f\u093e","name:right:lb":"Republik Mazedonien","name:right:uk":"\u041c\u0430\u043a\u0435\u0434\u043e\u043d\u0456\u044f","name:left:he":"\u05d1\u05d5\u05dc\u05d2\u05e8\u05d9\u05d4","name:right:li":"Macedoni\u00eb (land)","name:right:lt":"Makedonija","name:right:ur":"\u0645\u0642\u062f\u0648\u0646\u06cc\u06c1","name:right:lv":"Ma\u0137edonija","name:left:hy":"\u0532\u0578\u0582\u056c\u0572\u0561\u0580\u056b\u0561","name:left:ta":"\u0baa\u0bb2\u0bcd\u0b95\u0bbe\u0bb0\u0bbf\u0baf\u0bbe","name:left:ht":"Bilgari","name:left:hu":"Bulg\u00e1ria","name:left:hr":"Bugarska","sort_rank":262,"name:right:gd":"Masadoinia","name:right:os":"\u0420\u0435\u0441\u043f\u0443\u0431\u043b\u0438\u043a\u00e6 \u041c\u0430\u043a\u0435\u0434\u043e\u043d\u0438","alt_name:right:cs":"B\u00fdval\u00e1 jugosl\u00e1vsk\u00e1 republika Makedonie","name:right:es":"Rep\u00fablica de Macedonia","name:right:eu":"Former Yugoslav Republic Of Macedonia","name:right:et":"Makedoonia","name:left:os":"\u0411\u043e\u043b\u0433\u0430\u0440\u0438","name:left:or":"\u0b2c\u0b41\u0b32\u0b17\u0b3e\u0b30\u0b3f\u0b06","name:right:ee":"Republic of Macedonia","name:left:vo":"Bulgar\u00e4n","name:left:oc":"Bulgaria","name:right:eo":"Makedonujo","name:right:en":"Macedonia","name:right:el":"\u03a0\u03c1\u03ce\u03b7\u03bd \u0393\u03b9\u03bf\u03c5\u03b3\u03ba\u03bf\u03c3\u03bb\u03b1\u03b2\u03b9\u03ba\u03ae \u0394\u03b7\u03bc\u03bf\u03ba\u03c1\u03b1\u03c4\u03af\u03b1 \u03c4\u03b7\u03c2 \u039c\u03b1\u03ba\u03b5\u03b4\u03bf\u03bd\u03af\u03b1\u03c2","name:left:ff":"Bulgariya","name:left:fa":"\u0628\u0644\u063a\u0627\u0631\u0633\u062a\u0627\u0646","name:left:fo":"Bulgaria","name:right:sk":"Maced\u00f3nsko","name:left:fi":"Bulgaria","name:left:fr":"Bulgarie","name:left:fy":"Bulgarije","name:right:ja":"\u30de\u30b1\u30c9\u30cb\u30a2\u5171\u548c\u56fd","name:right:sq":"Maqedonia","name:right:ss":"IMakhedoniya","name:left:ja":"\u30d6\u30eb\u30ac\u30ea\u30a2","name:right:su":"Mak\u00e9donia","name:right:sw":"Jamhuri ya Masedonia","name:right:sv":"Makedonien","name:right:sh":"Makedonija","name:left:qu":"Bulgarya","name:right:jv":"R\u00e9publik Makedonia","name:right:sl":"Makedonija","name:right:so":"Makedonia","name:right:sa":"\u092e\u0947\u0938\u0947\u0921\u094b\u0928\u093f\u092f\u093e","name:right:sc":"Matzed\u00f2nia","name:left:jv":"Bulgaria","id":-186382,"name:right:ca":"Rep\u00fablica de Maced\u00f2nia","name:right:se":"Makedonia","name:right:ce":"\u041c\u0430\u043a\u0435\u0434\u043e\u043d\u0438","name:right:cy":"Gweriniaeth Macedonia","name:right:zh-yue":"\u99ac\u5176\u9813\u5171\u548c\u570b","name:right:cs":"Makedonie","name:right:cu":"\u041c\u0430\u043a\u0454\u0434\u043e\u043d\u0457\ua657","name:right:cv":"\u041c\u0430\u043a\u0435\u0434\u043e\u043d\u0438 \u0420\u0435\u0441\u043f\u0443\u0431\u043b\u0438\u043a\u0438","name:right:it":"Repubblica di Macedonia","name:left:ar":"\u0628\u0644\u063a\u0627\u0631\u064a\u0627","name:right:is":"L\u00fd\u00f0veldi\u00f0 Maked\u00f3n\u00eda","name:left:az":"Bolqar\u0131stan","name:left:ay":"Bulkariya","name:right:rw":"Masedoniya","name:left:af":"Bulgarye","name:left:ab":"\u0411\u044b\u043b\u0433\u0430\u0440\u0438\u0430","name:left:an":"Bulgaria","name:left:am":"\u1261\u120d\u130b\u122a\u12eb","name:right:ru":"\u041c\u0430\u043a\u0435\u0434\u043e\u043d\u0438\u044f","name:right:io":"Republiko Macedonia","name:left:zh-yue":"\u4fdd\u52a0\u5229\u4e9e","name:left:rw":"Bulugariya","name:right:hy":"\u0544\u0561\u056f\u0565\u0564\u0578\u0576\u056b\u0561\u0575\u056b \u0540\u0561\u0576\u0580\u0561\u057a\u0565\u057f\u0578\u0582\u0569\u0575\u0578\u0582\u0576","name:left:lb":"Bulgarien","alt_name:left:eo":"Bulgario","name:left:su":"Bulgaria","int_name:left":"Bulgaria","name:right:hr":"Makedonija","name:left:sv":"Bulgarien","name:left:sq":"Bullgaria","name:right:hu":"Maced\u00f3nia","name:left:ss":"IBhulgariya","name:left:sr":"\u0411\u0443\u0433\u0430\u0440\u0441\u043a\u0430","name:left:sm":"Bultalia","name:right:hi":"\u092e\u0948\u0938\u093f\u0921\u094b\u0928\u093f\u092f\u093e","name:left:so":"Bulgaria","name:left:lt":"Bulgarija","name:left:sh":"Bugarska","name:left:sk":"Bulharsko","name:left:se":"Bulg\u00e1ria","name:left:sa":"\u092c\u0941\u0932\u094d\u0917\u093e\u0930\u093f\u092f\u093e","name:right:he":"\u05de\u05e7\u05d3\u05d5\u05e0\u05d9\u05d4","name:left:sc":"Bulgaria","name:right:la":"Respublica Macedonica","name:right:af":"Masedoni\u00eb","name:left:co":"Bulgaria","name:left:ce":"\u0411\u043e\u043b\u0433\u0430\u0440\u0438","name:right:an":"Macedonia","name:right:am":"\u1218\u1244\u12f6\u1292\u12eb","name:left:ca":"Bulg\u00e0ria","source":"openstreetmap.org","name:left:cy":"Bwlgaria","name:right:ar":"\u0645\u0642\u062f\u0648\u0646\u064a\u0627","name:left:cu":"\u0411\u043b\u044a\u0433\u0430\u0440\u0457\ua657","name:left:cv":"\u0422\u0103\u043d\u0430\u0439\u00e7\u0438 \u041f\u0103\u043b\u0445\u0430\u0440\u0115","name:right:az":"Makedoniya","name:left:cs":"Bulharsko","name":"\u0411\u044a\u043b\u0433\u0430\u0440\u0438\u044f - \u041c\u0430\u043a\u0435\u0434\u043e\u043d\u0438\u0458\u0430","name:left:zu":"IBulgariya","name:left:zh":"\u4fdd\u52a0\u5229\u4e9a","name:right:zh":"\u99ac\u5176\u9813\u5171\u548c\u570b","official_name:left":"\u0420\u0435\u043f\u0443\u0431\u043b\u0438\u043a\u0430 \u0411\u044a\u043b\u0433\u0430\u0440\u0438\u044f","name:left:uz":"Bolgariya","name:right:fr":"Mac\u00e9doine (pays)","name:left:ps":"\u0628\u0644\u063a\u0627\u0631\u06cc\u0627","name:left:nv":"B\u00e1lgaa Bik\u00e9yah","name:left:ur":"\u0628\u0644\u063a\u0627\u0631\u06cc\u06c1","id:right":-53293,"name:left:uk":"\u0411\u043e\u043b\u0433\u0430\u0440\u0456\u044f","name:left:no":"Bulgaria","name:left:nl":"Bulgarije","alt_name:right:eo":"Makedonio","name:right:fa":"\u062c\u0645\u0647\u0648\u0631\u06cc \u0645\u0642\u062f\u0648\u0646\u06cc\u0647","name:right:fo":"L\u00fd\u00f0veldi\u00f0 Maked\u00f3nia","name:left:ne":"\u092c\u0941\u0932\u094d\u0917\u0947\u0930\u093f\u092f\u093e","name:left:ug":"\u0628\u06c7\u0644\u063a\u0627\u0631\u0649\u064a\u06d5","name:left:na":"Borgeriya","name:left:eo":"Bulgarujo","name:left:en":"Bulgaria","name:left:el":"\u0392\u03bf\u03c5\u03bb\u03b3\u03b1\u03c1\u03af\u03b1","name:left:ee":"Bulgaria","name:left:pl":"Bu\u0142garia","name:left:es":"Bulgaria","name:left:ie":"Bulgaria","name:left:eu":"Bulgaria","name:left:et":"Bulgaaria","name:right:zh-min-nan":"Makedonija Ki\u014dng-h\u00f4-kok","name:right:oc":"Republica de Maced\u00f2nia","name:left:ia":"Bulgaria","name:right:uz":"Makedoniya Respublikasi","osm_relation":true,"name:right:or":"\u0b2e\u0b3e\u0b38\u0b3f\u0b21\u0b4b\u0b28\u0b3f\u0b06","name:left:pt":"Bulg\u00e1ria","name:right:th":"\u0e1b\u0e23\u0e30\u0e40\u0e17\u0e28\u0e21\u0e32\u0e0b\u0e34\u0e42\u0e14\u0e40\u0e19\u0e35\u0e22","name:right:tk":"Makedoni\u00fda Respublikasy","name:left:gl":"Bulgaria - \u0411\u044a\u043b\u0433\u0430\u0440\u0438\u044f","name:left:wa":"Bulg\u00e5reye","min_zoom":8.0,"name:left:zh-min-nan":"Bulgariya","name:left:ln":"Bulgaria","name:left:wo":"Bulgaari","name:left:ga":"An Bhulg\u00e1ir","name:left:it":"Bulgaria","name:left:gd":"Bulg\u00e0iria","int_name:right":"Macedonia","name:left:gn":"Vugaria","name:left:gu":"\u0aac\u0ab2\u0acd\u0a97\u0ac7\u0ab0\u0abf\u0aaf\u0abe","name:left:gv":"Yn Vulgeyr","official_name:right":"\u0420\u0435\u043f\u0443\u0431\u043b\u0438\u043a\u0430 \u041c\u0430\u043a\u0435\u0434\u043e\u043d\u0438\u0458\u0430","name:left":"\u0411\u044a\u043b\u0433\u0430\u0440\u0438\u044f","name:right:mi":"Maker\u014dnia","name:right:mn":"\u0411\u04af\u0433\u0434 \u041d\u0430\u0439\u0440\u0430\u043c\u0434\u0430\u0445 \u041c\u0430\u043a\u0435\u0434\u043e\u043d \u0423\u043b\u0441","name:right:ml":"\u0d31\u0d3f\u0d2a\u0d4d\u0d2a\u0d2c\u0d4d\u0d32\u0d3f\u0d15\u0d4d \u0d13\u0d2b\u0d4d \u0d2e\u0d3e\u0d38\u0d3f\u0d21\u0d4b\u0d23\u0d3f\u0d2f","name:right:vo":"Makedoniy\u00e4n","name:right:vi":"C\u1ed9ng h\u00f2a Macedonia","name:right:my":"\u1019\u1000\u103a\u1005\u102e\u1012\u102d\u102f\u1038\u1014\u102e\u1038\u101a\u102c\u1038\u1014\u102d\u102f\u1004\u103a\u1004\u1036","name:right:ms":"Republik Macedonia","name:right:mr":"\u092e\u0945\u0938\u093f\u0921\u094b\u0928\u093f\u092f\u093e","name:right:fy":"Masedoanje (l\u00e2n)","name:right:mt":"Repubblika tal-Ma\u010bedonja","name:left:nn":"Bulgaria","kind":"country","name:left:br":"Bulgaria","name:left:bs":"Bugarska","name:left:ba":"\u0411\u043e\u043b\u0433\u0430\u0440\u0438\u044f","name:left:be":"\u0411\u0430\u043b\u0433\u0430\u0440\u044b\u044f","name:left:bi":"Bulgaria","name:left:bn":"\u09ac\u09c1\u09b2\u0997\u09c7\u09b0\u09bf\u09af\u09bc\u09be","name:left:bo":"\u0f54\u0f74\u0f0b\u0f62\u0f0b\u0f42\u0f0b\u0f62\u0f72\u0f0b\u0f61\u0f0d","name:right":"\u041c\u0430\u043a\u0435\u0434\u043e\u043d\u0438\u0458\u0430","name:left:yo":"B\u00f9lg\u00e1r\u00ed\u00e0","name:left:yi":"\u05d1\u05d5\u05dc\u05d2\u05d0\u05e8\u05d9\u05e2","id:left":-186382,"name:right:fi":"Makedonia","name:right:ka":"\u10db\u10d0\u10d9\u10d4\u10d3\u10dd\u10dc\u10d8\u10d0","name:left:io":"Bulgaria","name:left:pa":"\u0a2c\u0a41\u0a32\u0a17\u0a3e\u0a30\u0a40\u0a06","name:right:kg":"Makedonia","name:right:tt":"\u041c\u0430\u043a\u0435\u0434\u043e\u043d\u0438\u044f \u0496\u04e9\u043c\u04bb\u04af\u0440\u0438\u044f\u0442\u0435","name:right:kk":"\u041c\u0430\u043a\u0435\u0434\u043e\u043d\u0438\u044f \u0420\u0435\u0441\u043f\u0443\u0431\u043b\u0438\u043a\u0430\u0441\u044b","name:left:id":"Bulgaria","name:right:kl":"Makedonia","name:right:ko":"\ub9c8\ucf00\ub3c4\ub2c8\uc544 \uacf5\ud654\uad6d","name:right:kn":"\u0cae\u0ccd\u0caf\u0cbe\u0cb8\u0cc6\u0ca1\u0cca\u0ca8\u0cbf\u0caf \u0c97\u0ca3\u0cb0\u0cbe\u0c9c\u0ccd\u0caf","name:right:tl":"Republika ng Masedonya","name:right:ku":"Komara Makedonyay\u00ea","name:right:kw":"Repoblek Makedoni","name:right:kv":"\u041c\u0430\u043a\u0435\u0434\u043e\u043d\u0438\u044f \u0420\u0435\u0441\u043f\u0443\u0431\u043b\u0438\u043a\u0430","name:right:te":"\u0c2e\u0c47\u0c38\u0c3f\u0c21\u0c4b\u0c28\u0c3f\u0c2f\u0c3e","name:right:tg":"\u04b6\u0443\u043c\u04b3\u0443\u0440\u0438\u0438 \u041c\u0430\u049b\u0434\u0443\u043d\u0438\u044f","name:left:is":"B\u00falgar\u00eda","name:right:ta":"\u0bae\u0bbe\u0b95\u0bcd\u0b95\u0b9f\u0bcb\u0ba9\u0bbf\u0baf\u0b95\u0bcd \u0b95\u0bc1\u0b9f\u0bbf\u0baf\u0bb0\u0b9a\u0bc1","name:right:de":"Mazedonien","name:right:da":"Makedonien","name:right:dv":"\u0789\u07ac\u0790\u07ac\u0791\u07af\u0782\u07a8\u0787\u07a7","name:right:ht":"Repiblik d Masedoni"},"arcs":[3]},{"type":"LineString","properties":{"int_name:right":"Severoisto\u010den Region","int_name:left":"Isto\u010den Region","name:right:ru":"\u0421\u0435\u0432\u0435\u0440\u043e-\u0412\u043e\u0441\u0442\u043e\u0447\u043d\u044b\u0439 \u0440\u0435\u0433\u0438\u043e\u043d","min_zoom":8.0,"name:left:ru":"\u0412\u043e\u0441\u0442\u043e\u0447\u043d\u044b\u0439 \u0440\u0435\u0433\u0438\u043e\u043d","id:right":-2570958,"id":-2572069,"osm_relation":true,"name:right":"\u0421\u0435\u0432\u0435\u0440\u043e\u0438\u0441\u0442\u043e\u0447\u0435\u043d \u0420\u0435\u0433\u0438\u043e\u043d","kind":"region","name:left:en":"Eastern Region","sort_rank":256,"name:right:de":"Region Nordosten","name:left:de":"Region Osten","name":"\u0418\u0441\u0442\u043e\u0447\u0435\u043d \u0420\u0435\u0433\u0438\u043e\u043d - \u0421\u0435\u0432\u0435\u0440\u043e\u0438\u0441\u0442\u043e\u0447\u0435\u043d \u0420\u0435\u0433\u0438\u043e\u043d","source":"openstreetmap.org","name:right:en":"Northeastern Region","id:left":-2572069,"kind_detail":"4","name:left":"\u0418\u0441\u0442\u043e\u0447\u0435\u043d \u0420\u0435\u0433\u0438\u043e\u043d"},"arcs":[4]},{"type":"LineString","properties":{"kind":"region","name:en":"Eastern Region","name":"\u0418\u0441\u0442\u043e\u0447\u0435\u043d \u0420\u0435\u0433\u0438\u043e\u043d","sort_rank":256,"kind_detail":"4","name:de":"Region Osten","source":"openstreetmap.org","min_zoom":8.0,"int_name":"Isto\u010den Region","name:ru":"\u0412\u043e\u0441\u0442\u043e\u0447\u043d\u044b\u0439 \u0440\u0435\u0433\u0438\u043e\u043d","id":-2572069,"osm_relation":true},"arcs":[5]},{"type":"LineString","properties":{"kind":"region","name:en":"Northeastern Region","name":"\u0421\u0435\u0432\u0435\u0440\u043e\u0438\u0441\u0442\u043e\u0447\u0435\u043d \u0420\u0435\u0433\u0438\u043e\u043d","sort_rank":256,"kind_detail":"4","name:de":"Region Nordosten","source":"openstreetmap.org","min_zoom":8.0,"int_name":"Severoisto\u010den Region","name:ru":"\u0421\u0435\u0432\u0435\u0440\u043e-\u0412\u043e\u0441\u0442\u043e\u0447\u043d\u044b\u0439 \u0440\u0435\u0433\u0438\u043e\u043d","id":-2570958,"osm_relation":true},"arcs":[6]},{"type":"MultiLineString","properties":{"kind":"region","name:en":"Central Serbia","name":"\u0426\u0435\u043d\u0442\u0440\u0430\u043b\u043d\u0430 \u0421\u0440\u0431\u0438\u0458\u0430","sort_rank":256,"kind_detail":"4","name:sv":"Mellersta Serbien","name:de":"Zentralserbien","source":"openstreetmap.org","min_zoom":8.0,"name:ca":"S\u00e8rbia central","name:ru":"\u0426\u0435\u043d\u0442\u0440\u0430\u043b\u044c\u043d\u0430\u044f \u0421\u0435\u0440\u0431\u0438\u044f","name:vi":"Trung Serbia","name:hu":"K\u00f6z\u00e9p-Szerbia","id":-1658166,"osm_relation":true},"arcs":[[7],[8],[9]]}]},"roads":{"type":"GeometryCollection","geometries":[{"type":"LineString","properties":{"kind":"major_road","name:en":"bul. Knyaz Aleksandar Dondukov","sort_rank":380,"landuse_kind":"urban_area","source":"openstreetmap.org","min_zoom":8.0,"kind_detail":"primary","id":314726788},"arcs":[67]},{"type":"LineString","properties":{"bus_network":null,"sort_rank":380,"kind_detail":"primary","kind":"major_road","source":"openstreetmap.org","min_zoom":8.0,"bus_shield_text":"7","landuse_kind":"urban_area"},"arcs":[68]},{"type":"LineString","properties":{"bus_network":null,"int_name":"bul. Slivnitsa","sort_rank":380,"kind_detail":"primary","kind":"major_road","source":"openstreetmap.org","min_zoom":8.0,"name:en":"Slivnitsa Blvd.","bus_shield_text":"6","landuse_kind":"urban_area","ref":"8"},"arcs":[69]},{"type":"LineString","properties":{"bus_network":null,"int_name":"Okolovrasten pat","network":"bg:national","short_name":"\u0421\u041e\u041f","sort_rank":381,"kind_detail":"trunk","kind":"major_road","official_name":"\u0420\u0435\u043f\u0443\u0431\u043b\u0438\u043a\u0430\u043d\u0441\u043a\u0438 \u043f\u044a\u0442 II-18","source":"openstreetmap.org","min_zoom":8.0,"name:en":"Ring Road","bus_shield_text":"14","shield_text":"8","ref":"8;18"},"arcs":[70]},{"type":"LineString","properties":{"bus_network":null,"name:en":"Ring Road","network":"bg:national","short_name":"\u0421\u041e\u041f","sort_rank":380,"kind_detail":"primary","kind":"major_road","official_name":"\u0420\u0435\u043f\u0443\u0431\u043b\u0438\u043a\u0430\u043d\u0441\u043a\u0438 \u043f\u044a\u0442 II-18","source":"openstreetmap.org","min_zoom":8.0,"int_name":"Okolovrasten pat","bus_shield_text":"111","shield_text":"18","landuse_kind":"urban_area","ref":"18"},"arcs":[71]},{"type":"MultiLineString","properties":{"bus_network":null,"name:en":"Ivan Evstratiev Geshov Blvd.","sort_rank":380,"kind_detail":"primary","kind":"major_road","source":"openstreetmap.org","min_zoom":8.0,"bus_shield_text":"8","landuse_kind":"urban_area"},"arcs":[[72],[73]]},{"type":"MultiLineString","properties":{"bus_network":null,"int_name":"bul. Botevgradsko Shose","sort_rank":381,"landuse_kind":"urban_area","kind":"major_road","source":"openstreetmap.org","min_zoom":8.0,"name:en":"Botevgradsko Shose blvd.","bus_shield_text":"12","kind_detail":"trunk"},"arcs":[[74],[75]]},{"type":"MultiLineString","properties":{"bus_network":null,"name:en":"Slivnitsa Blvd.","sort_rank":380,"kind_detail":"primary","is_bicycle_related":true,"kind":"major_road","cycleway":"lane","source":"openstreetmap.org","min_zoom":8.0,"int_name":"bul. Slivnitsa","bus_shield_text":"6","landuse_kind":"urban_area"},"arcs":[[76],[77],[78]]},{"type":"MultiLineString","properties":{"bus_network":null,"int_name":"bul. Botevgradsko Shose","sort_rank":380,"kind_detail":"primary","kind":"major_road","source":"openstreetmap.org","min_zoom":8.0,"name:en":"Botevgradsko Shose blvd.","bus_shield_text":"79","landuse_kind":"urban_area"},"arcs":[[79],[80]]},{"type":"MultiLineString","properties":{"kind":"major_road","int_name":"Okolovrasten pat","network":"bg:national","short_name":"\u0421\u041e\u041f","sort_rank":381,"kind_detail":"trunk","official_name":"\u0420\u0435\u043f\u0443\u0431\u043b\u0438\u043a\u0430\u043d\u0441\u043a\u0438 \u043f\u044a\u0442 II-18","source":"openstreetmap.org","min_zoom":8.0,"name:en":"Ring Road","shield_text":"8","ref":"8;18"},"arcs":[[81],[82],[83]]},{"type":"MultiLineString","properties":{"bus_network":null,"int_name":"bul. Mihay Eminesku","sort_rank":380,"kind_detail":"primary","kind":"major_road","source":"openstreetmap.org","min_zoom":8.0,"name:en":"bul. Mihay Eminesku","bus_shield_text":"120","landuse_kind":"urban_area"},"arcs":[[84],[85]]},{"type":"LineString","properties":{"kind":"major_road","name:en":"bul. Knyaz Aleksandar Dondukov","sort_rank":380,"kind_detail":"primary","source":"openstreetmap.org","min_zoom":8.0,"int_name":"bul. Knyaz Aleksandar Dondukov","landuse_kind":"urban_area"},"arcs":[86]},{"type":"LineString","properties":{"kind":"major_road","name:en":"pl. Vasil Levski","sort_rank":380,"kind_detail":"primary","bus_network":null,"source":"openstreetmap.org","min_zoom":8.0,"int_name":"pl. Vasil Levski","bus_shield_text":"1","landuse_kind":"urban_area","id":480520074},"arcs":[87]},{"type":"LineString","properties":{"kind":"major_road","network":"bg:national","sort_rank":381,"landuse_kind":"urban_area","source":"openstreetmap.org","min_zoom":8.0,"kind_detail":"trunk","shield_text":"8","ref":"8"},"arcs":[88]},{"type":"LineString","properties":{"bus_network":null,"name:en":"bul. Rozhen","sort_rank":380,"kind_detail":"primary","kind":"major_road","source":"openstreetmap.org","min_zoom":8.0,"int_name":"bul. Rozhen","bus_shield_text":"27","landuse_kind":"urban_area"},"arcs":[89]},{"type":"LineString","properties":{"kind":"major_road","network":"bg:national","sort_rank":380,"kind_detail":"primary","source":"openstreetmap.org","min_zoom":8.0,"shield_text":"17","ref":"17","id":23936411},"arcs":[90]},{"type":"LineString","properties":{"source":"openstreetmap.org","kind":"major_road","name:en":"Nezavisimost Sq.","landuse_kind":"urban_area","sort_rank":380,"kind_detail":"primary","min_zoom":8.0},"arcs":[91]},{"type":"LineString","properties":{"bus_network":null,"network":"bg:national","sort_rank":381,"landuse_kind":"urban_area","kind":"major_road","source":"openstreetmap.org","min_zoom":8.0,"bus_shield_text":"44","shield_text":"8","kind_detail":"trunk"},"arcs":[92]},{"type":"LineString","properties":{"kind":"major_road","network":"bg:national","sort_rank":380,"kind_detail":"primary","source":"openstreetmap.org","min_zoom":8.0,"landuse_kind":"urban_area","shield_text":"18","ref":"18","id":288631108},"arcs":[93]},{"type":"MultiLineString","properties":{"bus_network":null,"name:en":"Ivan Evstratiev Geshov Blvd.","sort_rank":380,"landuse_kind":"urban_area","kind":"major_road","source":"openstreetmap.org","min_zoom":8.0,"bus_shield_text":"2","kind_detail":"primary"},"arcs":[[94],[95]]},{"type":"LineString","properties":{"kind":"major_road","sort_rank":380,"kind_detail":"primary","bus_network":null,"source":"openstreetmap.org","min_zoom":8.0,"bus_shield_text":"5","landuse_kind":"urban_area","id":469225040},"arcs":[96]},{"type":"LineString","properties":{"kind":"major_road","name:en":"Evropa Blvd.","sort_rank":381,"kind_detail":"trunk","bus_network":null,"source":"openstreetmap.org","min_zoom":8.0,"bus_shield_text":"44","landuse_kind":"urban_area","id":356526255},"arcs":[97]},{"type":"MultiLineString","properties":{"kind":"highway","network":"bg:national","sort_rank":383,"kind_detail":"motorway","source":"openstreetmap.org","min_zoom":8.0,"all_networks":["bg:national","e-road"],"shield_text":"1","ref":"A 1","all_shield_texts":["1","80"]},"arcs":[[98],[99]]},{"type":"LineString","properties":{"bus_network":null,"name:en":"Slivnitsa Blvd.","sort_rank":380,"kind_detail":"primary","kind":"major_road","source":"openstreetmap.org","min_zoom":8.0,"int_name":"bul. Slivnitsa","bus_shield_text":"44","landuse_kind":"urban_area","ref":"8"},"arcs":[100]},{"type":"LineString","properties":{"bus_network":null,"name:en":"Tsar Boris III Blvd.","sort_rank":380,"kind_detail":"primary","kind":"major_road","source":"openstreetmap.org","min_zoom":8.0,"bus_shield_text":"63","landuse_kind":"urban_area"},"arcs":[101]},{"type":"MultiLineString","properties":{"bus_network":null,"int_name":"bul. Tsar Osvoboditel","sort_rank":380,"kind_detail":"primary","old_name":"\u0431\u0443\u043b. \u0420\u0443\u0441\u043a\u0438","kind":"major_road","source":"openstreetmap.org","min_zoom":8.0,"name:en":"bul. Tsar Osvoboditel","bus_shield_text":"4","landuse_kind":"urban_area"},"arcs":[[102],[103],[104]]},{"type":"LineString","properties":{"bus_network":null,"sort_rank":380,"kind_detail":"primary","kind":"major_road","source":"openstreetmap.org","min_zoom":8.0,"bus_shield_text":"86","landuse_kind":"urban_area"},"arcs":[105]},{"type":"LineString","properties":{"kind":"major_road","network":"e-road","sort_rank":380,"kind_detail":"primary","source":"openstreetmap.org","min_zoom":8.0,"landuse_kind":"urban_area","shield_text":"80","id":287749631},"arcs":[106]},{"type":"LineString","properties":{"kind":"major_road","name:en":"bul. Simeonovsko shose","sort_rank":380,"kind_detail":"primary","bus_network":null,"source":"openstreetmap.org","min_zoom":8.0,"int_name":"bul. Simeonovsko shose","bus_shield_text":"88","landuse_kind":"urban_area","id":34603206},"arcs":[107]},{"type":"LineString","properties":{"kind":"major_road","network":"bg:national","sort_rank":381,"kind_detail":"trunk","source":"openstreetmap.org","min_zoom":8.0,"shield_text":"8","id":35396736},"arcs":[108]},{"type":"MultiLineString","properties":{"bus_network":null,"int_name":"bul. Botevgradsko Shose","network":"bg:national","sort_rank":381,"kind_detail":"trunk","kind":"major_road","source":"openstreetmap.org","min_zoom":8.0,"name:en":"Botevgradsko Shose blvd.","bus_shield_text":"12","shield_text":"1","ref":"1;6"},"arcs":[[109],[110],[111]]},{"type":"LineString","properties":{"bus_network":null,"name:en":"Slivnitsa Blvd.","sort_rank":380,"kind_detail":"primary","kind":"major_road","source":"openstreetmap.org","min_zoom":8.0,"int_name":"bul. Slivnitsa","bus_shield_text":"82","landuse_kind":"urban_area"},"arcs":[112]},{"type":"MultiLineString","properties":{"bus_network":null,"int_name":"Okolovrasten pat","network":"bg:national","short_name":"\u0421\u041e\u041f","sort_rank":381,"kind_detail":"trunk","kind":"major_road","official_name":"\u0420\u0435\u043f\u0443\u0431\u043b\u0438\u043a\u0430\u043d\u0441\u043a\u0438 \u043f\u044a\u0442 II-18","source":"openstreetmap.org","min_zoom":8.0,"name:en":"Ring Road","bus_shield_text":"111","shield_text":"1","landuse_kind":"urban_area","ref":"1;6;18"},"arcs":[[113],[114],[115],[116],[117]]},{"type":"LineString","properties":{"bus_network":null,"sort_rank":381,"landuse_kind":"urban_area","kind":"major_road","source":"openstreetmap.org","min_zoom":8.0,"bus_shield_text":"413","kind_detail":"trunk"},"arcs":[118]},{"type":"MultiLineString","properties":{"sort_rank":380,"kind_detail":"primary","min_zoom":8.0,"kind":"major_road","source":"openstreetmap.org"},"arcs":[[119],[120],[121],[122],[123],[124],[125],[126],[127],[128],[129]]},{"type":"MultiLineString","properties":{"bus_network":null,"name:en":"Evlogi and Hristo Georgiev blvd.","sort_rank":380,"kind_detail":"primary","kind":"major_road","source":"openstreetmap.org","min_zoom":8.0,"bus_shield_text":"75","landuse_kind":"urban_area"},"arcs":[[130],[131]]},{"type":"LineString","properties":{"bus_network":null,"int_name":"bul. Simeonovsko shose","sort_rank":380,"kind_detail":"primary","kind":"major_road","source":"openstreetmap.org","min_zoom":8.0,"name:en":"bul. Simeonovsko shose","bus_shield_text":"67"},"arcs":[132]},{"type":"MultiLineString","properties":{"kind":"major_road","network":"bg:national","sort_rank":381,"landuse_kind":"urban_area","source":"openstreetmap.org","min_zoom":8.0,"kind_detail":"trunk","shield_text":"8","ref":"8;18"},"arcs":[[133],[134]]},{"type":"MultiLineString","properties":{"bus_network":null,"int_name":"bul. Botevgradsko Shose","sort_rank":381,"kind_detail":"trunk","kind":"major_road","source":"openstreetmap.org","min_zoom":8.0,"name:en":"Botevgradsko Shose blvd.","bus_shield_text":"12"},"arcs":[[135],[136]]},{"type":"MultiLineString","properties":{"kind":"major_road","name:en":"Tsarigradsko Shose blvd.","sort_rank":381,"landuse_kind":"urban_area","source":"openstreetmap.org","min_zoom":8.0,"old_name":"\u0431\u0443\u043b. \u041b\u0435\u043d\u0438\u043d","kind_detail":"trunk"},"arcs":[[137],[138]]},{"type":"MultiLineString","properties":{"source":"openstreetmap.org","kind":"major_road","name:en":"Iliyentsi Blvd","kind_detail":"trunk","sort_rank":381,"landuse_kind":"urban_area","min_zoom":8.0},"arcs":[[139],[140]]},{"type":"MultiLineString","properties":{"kind":"major_road","network":"bg:national","sort_rank":380,"kind_detail":"primary","source":"openstreetmap.org","min_zoom":8.0,"shield_text":"1","ref":"1"},"arcs":[[141],[142],[143],[144],[145],[146],[147],[148],[149],[150],[151],[152],[153],[154],[155],[156]]},{"type":"MultiLineString","properties":{"bus_network":null,"int_name":"bul. Nikola Y. Vaptsarov","sort_rank":381,"landuse_kind":"urban_area","kind":"major_road","source":"openstreetmap.org","min_zoom":8.0,"name:en":"bul. Nikola Y. Vaptsarov","bus_shield_text":"88","kind_detail":"trunk"},"arcs":[[157],[158]]},{"type":"MultiLineString","properties":{"bus_network":null,"network":"bg:national","sort_rank":381,"kind_detail":"trunk","kind":"major_road","source":"openstreetmap.org","min_zoom":8.0,"bus_shield_text":"90","shield_text":"1","ref":"1;6"},"arcs":[[159],[160]]},{"type":"LineString","properties":{"kind":"major_road","name:en":"Evropa Blvd.","sort_rank":380,"kind_detail":"primary","source":"openstreetmap.org","min_zoom":8.0,"old_name":"bul. Slivnitsa","landuse_kind":"urban_area","id":305939259},"arcs":[161]},{"type":"LineString","properties":{"bus_network":null,"sort_rank":380,"kind_detail":"primary","kind":"major_road","source":"openstreetmap.org","min_zoom":8.0,"bus_shield_text":"6","landuse_kind":"urban_area"},"arcs":[162]},{"type":"LineString","properties":{"bus_network":null,"name:en":"bul. Lomsko shose","sort_rank":380,"landuse_kind":"urban_area","kind":"major_road","source":"openstreetmap.org","min_zoom":8.0,"int_name":"bul. Lomsko shose","bus_shield_text":"30","kind_detail":"primary"},"arcs":[163]},{"type":"MultiLineString","properties":{"kind":"major_road","name:en":"Slivnitsa Blvd.","sort_rank":380,"kind_detail":"primary","source":"openstreetmap.org","min_zoom":8.0,"int_name":"bul. Slivnitsa","landuse_kind":"urban_area"},"arcs":[[164],[165],[166]]},{"type":"MultiLineString","properties":{"bus_network":null,"int_name":"bul. Vladimir Vazov","sort_rank":380,"landuse_kind":"urban_area","kind":"major_road","source":"openstreetmap.org","min_zoom":8.0,"name:en":"bul. Vladimir Vazov","bus_shield_text":"1","kind_detail":"primary"},"arcs":[[167],[168]]},{"type":"LineString","properties":{"kind":"major_road","name:en":"Junction Daskalovo","network":"bg:national","sort_rank":381,"kind_detail":"trunk","source":"openstreetmap.org","min_zoom":8.0,"shield_text":"1","ref":"1","id":214104220},"arcs":[169]},{"type":"LineString","properties":{"bus_network":null,"int_name":"bul. Nikola Petkov","network":"bg:national","sort_rank":380,"kind_detail":"primary","kind":"major_road","source":"openstreetmap.org","min_zoom":8.0,"name:en":"Nikola Petkov blvd.","bus_shield_text":"103","shield_text":"18","landuse_kind":"urban_area","ref":"18"},"arcs":[170]},{"type":"MultiLineString","properties":{"kind":"highway","network":"e-road","sort_rank":383,"kind_detail":"motorway","source":"openstreetmap.org","min_zoom":8.0,"all_networks":["e-road"],"shield_text":"80","ref":"A4","all_shield_texts":["80"]},"arcs":[[171],[172]]},{"type":"MultiLineString","properties":{"bus_network":null,"name:en":"Peyo K, Yavorov Blvd.","sort_rank":381,"landuse_kind":"urban_area","kind":"major_road","source":"openstreetmap.org","min_zoom":8.0,"bus_shield_text":"120","kind_detail":"trunk"},"arcs":[[173],[174]]},{"type":"LineString","properties":{"kind":"major_road","name:en":"bul. Yanko Sakazov","sort_rank":380,"kind_detail":"primary","source":"openstreetmap.org","min_zoom":8.0,"int_name":"bul. Yanko Sakazov","landuse_kind":"urban_area","id":258205881},"arcs":[175]},{"type":"MultiLineString","properties":{"bus_network":null,"name:en":"bul. Lomsko shose","sort_rank":380,"kind_detail":"primary","kind":"major_road","source":"openstreetmap.org","min_zoom":8.0,"int_name":"bul. Lomsko shose","bus_shield_text":"86","landuse_kind":"urban_area"},"arcs":[[176],[177]]},{"type":"LineString","properties":{"kind":"major_road","network":"bg:national","sort_rank":381,"kind_detail":"trunk","source":"openstreetmap.org","min_zoom":8.0,"landuse_kind":"urban_area","shield_text":"8","ref":"18","id":377088407},"arcs":[178]},{"type":"LineString","properties":{"kind":"major_road","name:en":"Tsar Boris III Blvd.","sort_rank":380,"kind_detail":"primary","bus_network":null,"source":"openstreetmap.org","min_zoom":8.0,"bus_shield_text":"107","landuse_kind":"urban_area","id":25376778},"arcs":[179]},{"type":"MultiLineString","properties":{"bus_network":null,"sort_rank":380,"kind_detail":"primary","kind":"major_road","source":"openstreetmap.org","min_zoom":8.0,"bus_shield_text":"280","landuse_kind":"urban_area"},"arcs":[[180],[181]]},{"type":"MultiLineString","properties":{"kind":"highway","network":"bg:national","sort_rank":383,"kind_detail":"motorway","source":"openstreetmap.org","min_zoom":8.0,"all_networks":["bg:national","e-road"],"shield_text":"2","ref":"A 2","all_shield_texts":["2","83"]},"arcs":[[182],[183]]},{"type":"MultiLineString","properties":{"bus_network":null,"sort_rank":380,"kind_detail":"primary","kind":"major_road","source":"openstreetmap.org","min_zoom":8.0,"bus_shield_text":"101","landuse_kind":"urban_area"},"arcs":[[184],[185]]},{"type":"MultiLineString","properties":{"kind":"major_road","int_name":"Okolovrasten pat","network":"bg:national","short_name":"\u0421\u041e\u041f","sort_rank":381,"kind_detail":"trunk","official_name":"\u0420\u0435\u043f\u0443\u0431\u043b\u0438\u043a\u0430\u043d\u0441\u043a\u0438 \u043f\u044a\u0442 II-18","source":"openstreetmap.org","min_zoom":8.0,"name:en":"Ring Road","shield_text":"1","ref":"1;6;8;18"},"arcs":[[186],[187],[188],[189]]},{"type":"LineString","properties":{"kind":"major_road","network":"bg:national","sort_rank":380,"kind_detail":"primary","source":"openstreetmap.org","min_zoom":8.0,"shield_text":"1","ref":"1;627"},"arcs":[190]},{"type":"MultiLineString","properties":{"kind":"major_road","int_name":"bul. Todor Aleksandrov","sort_rank":380,"kind_detail":"primary","is_bicycle_related":true,"cycleway":"shared_lane","source":"openstreetmap.org","min_zoom":8.0,"name:en":"bul. Todor Aleksandrov","landuse_kind":"urban_area"},"arcs":[[191],[192]]},{"type":"LineString","properties":{"source":"openstreetmap.org","kind":"major_road","int_name":"bul. Simeonovsko shose","name:en":"bul. Simeonovsko shose","sort_rank":380,"kind_detail":"primary","min_zoom":8.0},"arcs":[193]},{"type":"MultiLineString","properties":{"kind":"major_road","network":"e-road","sort_rank":381,"kind_detail":"trunk","source":"openstreetmap.org","min_zoom":8.0,"shield_text":"871","ref":"6"},"arcs":[[194],[195],[196]]},{"type":"MultiLineString","properties":{"kind":"highway","network":"bg:national","sort_rank":383,"kind_detail":"motorway","source":"openstreetmap.org","min_zoom":8.0,"all_networks":["bg:national","bg:national","e-road"],"shield_text":"1","ref":"A 1","all_shield_texts":["1","8","80"]},"arcs":[[197],[198]]},{"type":"LineString","properties":{"kind":"major_road","name:en":"bul. Vasil Levski","sort_rank":380,"kind_detail":"primary","bus_shield_text":"11","bus_network":null,"source":"openstreetmap.org","min_zoom":8.0,"int_name":"bul. Vasil Levski","old_name":"\u0431\u0443\u043b. \u0424\u0435\u0440\u0434\u0438\u043d\u0430\u043d\u0434\u044a I","landuse_kind":"urban_area","id":96645536},"arcs":[199]},{"type":"LineString","properties":{"bus_network":null,"sort_rank":380,"kind_detail":"primary","kind":"major_road","source":"openstreetmap.org","min_zoom":8.0,"bus_shield_text":"1","landuse_kind":"urban_area"},"arcs":[200]},{"type":"MultiLineString","properties":{"kind":"major_road","network":"bg:national","sort_rank":381,"kind_detail":"trunk","source":"openstreetmap.org","min_zoom":8.0,"shield_text":"1","ref":"1;6"},"arcs":[[201],[202],[203],[204],[205],[206]]},{"type":"MultiLineString","properties":{"bus_network":null,"int_name":"Orlov most","sort_rank":380,"landuse_kind":"urban_area","kind":"major_road","name:de":"Adlerbr\u00fccke","source":"openstreetmap.org","name:fr":"Pont aux Aigles","name:en":"Eagles' Bridge","bus_shield_text":"4","kind_detail":"primary","min_zoom":8.0,"name:es":"Puente de las \u00c1guilas"},"arcs":[[207],[208]]},{"type":"MultiLineString","properties":{"kind":"major_road","name:en":"Brussels Blvd.","sort_rank":380,"kind_detail":"primary","source":"openstreetmap.org","min_zoom":8.0,"int_name":"bul. Bryuksel","landuse_kind":"urban_area"},"arcs":[[209],[210]]},{"type":"LineString","properties":{"bus_network":null,"name:en":"Evropa Blvd.","network":"bg:national","sort_rank":381,"kind_detail":"trunk","old_name":"bul. Slivnitsa","kind":"major_road","source":"openstreetmap.org","min_zoom":8.0,"bus_shield_text":"44","shield_text":"8","landuse_kind":"urban_area","id":286208847},"arcs":[211]},{"type":"MultiLineString","properties":{"bus_network":null,"name:en":"bul. Lomsko shose","sort_rank":380,"kind_detail":"primary","kind":"major_road","source":"openstreetmap.org","min_zoom":8.0,"int_name":"bul. Lomsko shose","bus_shield_text":"87","landuse_kind":"urban_area"},"arcs":[[212],[213],[214],[215]]},{"type":"MultiLineString","properties":{"kind":"major_road","network":"bg:national","sort_rank":381,"landuse_kind":"urban_area","source":"openstreetmap.org","min_zoom":8.0,"kind_detail":"trunk","shield_text":"1","ref":"1;62"},"arcs":[[216],[217],[218],[219]]},{"type":"MultiLineString","properties":{"bus_network":null,"name:en":"bul. Vasil Levski","sort_rank":380,"landuse_kind":"urban_area","kind":"major_road","source":"openstreetmap.org","min_zoom":8.0,"int_name":"bul. Vasil Levski","bus_shield_text":"1","kind_detail":"primary"},"arcs":[[220],[221],[222]]},{"type":"MultiLineString","properties":{"kind":"major_road","name:en":"Ring Road","network":"bg:national","short_name":"\u0421\u041e\u041f","sort_rank":380,"kind_detail":"primary","official_name":"\u0420\u0435\u043f\u0443\u0431\u043b\u0438\u043a\u0430\u043d\u0441\u043a\u0438 \u043f\u044a\u0442 II-18","source":"openstreetmap.org","min_zoom":8.0,"int_name":"Okolovrasten pat","landuse_kind":"urban_area","shield_text":"8","ref":"8;18"},"arcs":[[223],[224]]},{"type":"MultiLineString","properties":{"bus_network":null,"name:en":"Bulgaria Blvd.","sort_rank":380,"kind_detail":"primary","kind":"major_road","source":"openstreetmap.org","min_zoom":8.0,"bus_shield_text":"76","landuse_kind":"urban_area"},"arcs":[[225],[226]]},{"type":"MultiLineString","properties":{"bus_network":null,"name:en":"Christopher Columbus Blvd.","sort_rank":381,"landuse_kind":"urban_area","kind":"major_road","source":"openstreetmap.org","min_zoom":8.0,"int_name":"bul. Hristofor Kolumb","bus_shield_text":"84","kind_detail":"trunk"},"arcs":[[227],[228],[229]]},{"type":"LineString","properties":{"source":"openstreetmap.org","kind":"major_road","name:en":"Daskal Stoyan Popandreev","landuse_kind":"urban_area","sort_rank":380,"kind_detail":"primary","min_zoom":8.0},"arcs":[230]},{"type":"LineString","properties":{"kind":"major_road","name:en":"Tsarigradsko Shose blvd.","sort_rank":380,"kind_detail":"primary","old_name":"\u0431\u0443\u043b. \u041b\u0435\u043d\u0438\u043d","bus_network":null,"source":"openstreetmap.org","min_zoom":8.0,"bus_shield_text":"7","id":261150363},"arcs":[231]},{"type":"MultiLineString","properties":{"bus_network":null,"int_name":"bul. Aleksandar Malinov","sort_rank":380,"kind_detail":"primary","kind":"major_road","source":"openstreetmap.org","min_zoom":8.0,"name:en":"bul. Aleksandar Malinov","bus_shield_text":"76","landuse_kind":"urban_area"},"arcs":[[232],[233],[234],[235],[236],[237]]},{"type":"MultiLineString","properties":{"bus_network":null,"int_name":"bul. Vladimir Vazov","sort_rank":380,"kind_detail":"primary","kind":"major_road","source":"openstreetmap.org","min_zoom":8.0,"name:en":"bul. Vladimir Vazov","bus_shield_text":"12","landuse_kind":"urban_area"},"arcs":[[238],[239]]},{"type":"LineString","properties":{"kind":"major_road","network":"bg:national","sort_rank":380,"kind_detail":"primary","is_bicycle_related":true,"source":"openstreetmap.org","min_zoom":8.0,"shield_text":"1","ref":"1","id":89285595},"arcs":[240]},{"type":"LineString","properties":{"kind":"major_road","network":"bg:national","sort_rank":381,"kind_detail":"trunk","source":"openstreetmap.org","min_zoom":8.0,"shield_text":"17","ref":"17"},"arcs":[241]},{"type":"LineString","properties":{"kind":"major_road","name:en":"bul. Gen. Totleben","sort_rank":380,"kind_detail":"primary","bus_network":null,"source":"openstreetmap.org","min_zoom":8.0,"bus_shield_text":"63","landuse_kind":"urban_area","id":157694428},"arcs":[242]},{"type":"MultiLineString","properties":{"bus_network":null,"name:en":"Tsarigradsko Shose blvd.","sort_rank":380,"kind_detail":"primary","bus_shield_text":"5","kind":"major_road","source":"openstreetmap.org","min_zoom":8.0,"old_name":"\u0431\u0443\u043b. \u041b\u0435\u043d\u0438\u043d"},"arcs":[[243],[244]]},{"type":"LineString","properties":{"kind":"highway","network":"bg:national","sort_rank":383,"kind_detail":"motorway","source":"openstreetmap.org","min_zoom":8.0,"all_networks":["bg:national"],"shield_text":"1","ref":"A 1","all_shield_texts":["1"]},"arcs":[245]},{"type":"LineString","properties":{"kind":"major_road","name:en":"pl. Vasil Levski","sort_rank":380,"kind_detail":"primary","bus_network":null,"source":"openstreetmap.org","min_zoom":8.0,"int_name":"pl. Vasil Levski","bus_shield_text":"11","landuse_kind":"urban_area","id":34604547},"arcs":[246]},{"type":"LineString","properties":{"bus_network":null,"name:en":"Ring Road","network":"bg:national","short_name":"\u0421\u041e\u041f","sort_rank":380,"kind_detail":"primary","kind":"major_road","official_name":"\u0420\u0435\u043f\u0443\u0431\u043b\u0438\u043a\u0430\u043d\u0441\u043a\u0438 \u043f\u044a\u0442 II-18","source":"openstreetmap.org","min_zoom":8.0,"int_name":"Okolovrasten pat","bus_shield_text":"23","shield_text":"8","landuse_kind":"urban_area","ref":"8;18"},"arcs":[247]},{"type":"MultiLineString","properties":{"bus_network":null,"name:en":"Bulgaria Blvd.","sort_rank":380,"kind_detail":"primary","kind":"major_road","source":"openstreetmap.org","min_zoom":8.0,"bus_shield_text":"72","landuse_kind":"urban_area"},"arcs":[[248],[249]]},{"type":"LineString","properties":{"source":"openstreetmap.org","kind":"major_road","int_name":"Bulgaria blvd.","sort_rank":380,"kind_detail":"primary","min_zoom":8.0,"id":34370252},"arcs":[250]},{"type":"MultiLineString","properties":{"kind":"highway","network":"bg:national","sort_rank":383,"kind_detail":"motorway","source":"openstreetmap.org","min_zoom":8.0,"all_networks":["bg:national","e-road"],"shield_text":"2","ref":"A 2","all_shield_texts":["2","79"]},"arcs":[[251],[252],[253],[254],[255],[256],[257],[258],[259],[260],[261]]},{"type":"LineString","properties":{"kind":"path","sort_rank":354,"kind_detail":"track","is_bicycle_related":true,"bicycle_shield_text":null,"bicycle_network":"icn","source":"openstreetmap.org","min_zoom":8.0},"arcs":[262]},{"type":"LineString","properties":{"bus_network":null,"name:en":"Chavdar Bridge","sort_rank":380,"kind_detail":"primary","kind":"major_road","source":"openstreetmap.org","min_zoom":8.0,"bus_shield_text":"1","landuse_kind":"urban_area"},"arcs":[263]},{"type":"MultiLineString","properties":{"bus_network":null,"name:en":"Ivan Evstratiev Geshov Blvd.","sort_rank":380,"kind_detail":"primary","kind":"major_road","source":"openstreetmap.org","min_zoom":8.0,"bus_shield_text":"72","landuse_kind":"urban_area"},"arcs":[[264],[265],[266]]},{"type":"MultiLineString","properties":{"kind":"major_road","int_name":"bul. Istoriya Slavyanobalgarska","sort_rank":380,"kind_detail":"primary","source":"openstreetmap.org","min_zoom":8.0,"name:en":"bul. Istoriya Slavyanobalgarska","old_name":"\u0443\u043b. 202","landuse_kind":"urban_area"},"arcs":[[267],[268],[269],[270]]},{"type":"MultiLineString","properties":{"kind":"minor_road","sort_rank":360,"kind_detail":"unclassified","is_bicycle_related":true,"bicycle_shield_text":null,"bicycle_network":"icn","source":"openstreetmap.org","min_zoom":8.0},"arcs":[[271],[272]]},{"type":"LineString","properties":{"bus_network":null,"name:en":"Ring Road","network":"bg:national","short_name":"\u0421\u041e\u041f","sort_rank":380,"kind_detail":"primary","kind":"major_road","official_name":"\u0420\u0435\u043f\u0443\u0431\u043b\u0438\u043a\u0430\u043d\u0441\u043a\u0438 \u043f\u044a\u0442 II-18","source":"openstreetmap.org","min_zoom":8.0,"int_name":"Okolovrasten pat","bus_shield_text":"8","shield_text":"1","ref":"1;6;18"},"arcs":[273]},{"type":"LineString","properties":{"bus_network":null,"int_name":"Okolovrasten pat","short_name":"\u0421\u041e\u041f","official_name":"\u0420\u0435\u043f\u0443\u0431\u043b\u0438\u043a\u0430\u043d\u0441\u043a\u0438 \u043f\u044a\u0442 II-18","min_zoom":8.0,"bus_shield_text":"42","id":408590233,"kind":"major_road","name:en":"Ring Road","network":"bg:national","sort_rank":381,"kind_detail":"trunk","source":"openstreetmap.org","landuse_kind":"urban_area","shield_text":"18","ref":"18"},"arcs":[274]},{"type":"MultiLineString","properties":{"sort_rank":381,"source":"openstreetmap.org","min_zoom":8.0,"kind":"major_road","kind_detail":"trunk"},"arcs":[[275],[276],[277]]},{"type":"LineString","properties":{"kind":"major_road","name:en":"Ring Road","network":"e-road","short_name":"\u0421\u041e\u041f","sort_rank":381,"kind_detail":"trunk","official_name":"\u0420\u0435\u043f\u0443\u0431\u043b\u0438\u043a\u0430\u043d\u0441\u043a\u0438 \u043f\u044a\u0442 II-18","source":"openstreetmap.org","min_zoom":8.0,"int_name":"Okolovrasten pat","landuse_kind":"urban_area","shield_text":"79","id":120183400},"arcs":[278]},{"type":"MultiLineString","properties":{"bus_network":null,"name:en":"Evlogi and Hristo Georgiev blvd.","sort_rank":380,"kind_detail":"primary","kind":"major_road","source":"openstreetmap.org","min_zoom":8.0,"bus_shield_text":"72","landuse_kind":"urban_area"},"arcs":[[279],[280]]},{"type":"LineString","properties":{"kind":"major_road","name:en":"pl. Ruski Pametnik","sort_rank":380,"landuse_kind":"urban_area","source":"openstreetmap.org","min_zoom":8.0,"kind_detail":"primary","id":516952807},"arcs":[281]},{"type":"MultiLineString","properties":{"bus_network":null,"name:en":"Evlogi and Hristo Georgiev blvd.","sort_rank":380,"kind_detail":"primary","kind":"major_road","source":"openstreetmap.org","min_zoom":8.0,"bus_shield_text":"9","landuse_kind":"urban_area"},"arcs":[[282],[283]]},{"type":"MultiLineString","properties":{"kind":"major_road","int_name":"Okolovrasten pat","network":"bg:national","short_name":"\u0421\u041e\u041f","sort_rank":381,"landuse_kind":"urban_area","official_name":"\u0420\u0435\u043f\u0443\u0431\u043b\u0438\u043a\u0430\u043d\u0441\u043a\u0438 \u043f\u044a\u0442 II-18","source":"openstreetmap.org","min_zoom":8.0,"name:en":"Ring Road","kind_detail":"trunk","shield_text":"8","ref":"8;18"},"arcs":[[284],[285]]},{"type":"LineString","properties":{"bus_network":null,"int_name":"bul. Knyaz Aleksandar Dondukov","sort_rank":380,"kind_detail":"primary","is_bicycle_related":true,"cycleway_right":"lane","source":"openstreetmap.org","min_zoom":8.0,"name:en":"bul. Knyaz Aleksandar Dondukov","bus_shield_text":"1","landuse_kind":"urban_area","kind":"major_road"},"arcs":[286]},{"type":"MultiLineString","properties":{"kind":"major_road","network":"e-road","sort_rank":380,"kind_detail":"primary","source":"openstreetmap.org","min_zoom":8.0,"landuse_kind":"urban_area","shield_text":"871","ref":"6"},"arcs":[[287],[288],[289]]},{"type":"LineString","properties":{"kind":"major_road","name:en":"Tsar Boris III Blvd.","network":"bg:national","sort_rank":380,"kind_detail":"primary","source":"openstreetmap.org","min_zoom":8.0,"landuse_kind":"urban_area","shield_text":"1","ref":"1;6"},"arcs":[290]},{"type":"MultiLineString","properties":{"bus_network":null,"name:en":"Boytcho Boytchev","network":"bg:national","short_name":"\u0421\u041e\u041f","sort_rank":380,"kind_detail":"primary","kind":"major_road","official_name":"\u0420\u0435\u043f\u0443\u0431\u043b\u0438\u043a\u0430\u043d\u0441\u043a\u0438 \u043f\u044a\u0442 II-18","source":"openstreetmap.org","min_zoom":8.0,"int_name":"Boytcho Boytchev","bus_shield_text":"111","shield_text":"18","landuse_kind":"urban_area","ref":"18"},"arcs":[[291],[292]]},{"type":"LineString","properties":{"bus_network":null,"name:en":"Ring Road","network":"bg:national","short_name":"\u0421\u041e\u041f","sort_rank":380,"kind_detail":"primary","kind":"major_road","official_name":"\u0420\u0435\u043f\u0443\u0431\u043b\u0438\u043a\u0430\u043d\u0441\u043a\u0438 \u043f\u044a\u0442 II-18","source":"openstreetmap.org","min_zoom":8.0,"int_name":"Okolovrasten pat","bus_shield_text":"27","shield_text":"8","ref":"8;18"},"arcs":[293]},{"type":"MultiLineString","properties":{"bus_network":null,"network":"bg:national","sort_rank":381,"landuse_kind":"urban_area","kind":"major_road","source":"openstreetmap.org","min_zoom":8.0,"bus_shield_text":"44","shield_text":"8","kind_detail":"trunk","ref":"18"},"arcs":[[294],[295],[296]]},{"type":"MultiLineString","properties":{"bus_network":null,"int_name":"Orlov most","sort_rank":380,"landuse_kind":"urban_area","kind":"major_road","source":"openstreetmap.org","min_zoom":8.0,"name:en":"Eagles' Bridge","bus_shield_text":"4","kind_detail":"primary"},"arcs":[[297],[298],[299],[300]]},{"type":"LineString","properties":{"kind":"major_road","name:en":"Junction Daskalovo","network":"bg:national","sort_rank":381,"landuse_kind":"urban_area","source":"openstreetmap.org","min_zoom":8.0,"kind_detail":"trunk","shield_text":"1","ref":"1;6"},"arcs":[301]},{"type":"LineString","properties":{"kind":"major_road","sort_rank":380,"kind_detail":"primary","bus_network":null,"source":"openstreetmap.org","min_zoom":8.0,"bus_shield_text":"79","landuse_kind":"urban_area","id":253222342},"arcs":[302]},{"type":"MultiLineString","properties":{"kind":"major_road","network":"e-road","sort_rank":381,"landuse_kind":"urban_area","source":"openstreetmap.org","min_zoom":8.0,"kind_detail":"trunk","shield_text":"871","ref":"6"},"arcs":[[303],[304],[305],[306],[307],[308]]},{"type":"LineString","properties":{"bus_network":null,"int_name":"bul. Lomsko shose","sort_rank":380,"kind_detail":"primary","is_bicycle_related":true,"kind":"major_road","bicycle_shield_text":null,"cycleway":"opposite_track","source":"openstreetmap.org","min_zoom":8.0,"name:en":"bul. Lomsko shose","bus_shield_text":"86","landuse_kind":"urban_area","id":58080229,"bicycle_network":"lcn"},"arcs":[309]},{"type":"LineString","properties":{"kind":"major_road","name:en":"bul. Nikola Y. Vaptsarov","sort_rank":381,"kind_detail":"trunk","source":"openstreetmap.org","min_zoom":8.0,"int_name":"bul. Nikola Y. Vaptsarov","landuse_kind":"urban_area","id":171919146},"arcs":[310]},{"type":"MultiLineString","properties":{"source":"openstreetmap.org","bus_network":null,"bus_shield_text":"111","sort_rank":381,"kind_detail":"trunk","min_zoom":8.0,"kind":"major_road"},"arcs":[[311],[312]]},{"type":"MultiLineString","properties":{"bus_network":null,"int_name":"bul. Istoriya Slavyanobalgarska","sort_rank":380,"kind_detail":"primary","bus_shield_text":"79","kind":"major_road","source":"openstreetmap.org","min_zoom":8.0,"name:en":"bul. Istoriya Slavyanobalgarska","old_name":"\u0443\u043b. 202","landuse_kind":"urban_area"},"arcs":[[313],[314],[315],[316]]},{"type":"LineString","properties":{"kind":"major_road","network":"bg:national","sort_rank":380,"kind_detail":"primary","source":"openstreetmap.org","min_zoom":8.0,"shield_text":"1","ref":"17"},"arcs":[317]},{"type":"MultiLineString","properties":{"bus_network":null,"name:en":"Tsarigradsko Shose blvd.","sort_rank":381,"kind_detail":"trunk","old_name":"\u0431\u0443\u043b. \u041b\u0435\u043d\u0438\u043d","kind":"major_road","source":"openstreetmap.org","min_zoom":8.0,"bus_shield_text":"1","landuse_kind":"urban_area"},"arcs":[[318],[319],[320],[321]]},{"type":"LineString","properties":{"bus_network":null,"network":"bg:national","sort_rank":380,"kind_detail":"primary","kind":"major_road","source":"openstreetmap.org","min_zoom":8.0,"bus_shield_text":"90","shield_text":"1","ref":"1"},"arcs":[322]},{"type":"MultiLineString","properties":{"source":"openstreetmap.org","kind":"major_road","name:en":"Peyo K, Yavorov Blvd.","kind_detail":"trunk","sort_rank":381,"landuse_kind":"urban_area","min_zoom":8.0},"arcs":[[323],[324]]},{"type":"MultiLineString","properties":{"bus_network":null,"name:en":"pl. Ruski Pametnik","sort_rank":380,"kind_detail":"primary","kind":"major_road","source":"openstreetmap.org","min_zoom":8.0,"bus_shield_text":"1","landuse_kind":"urban_area"},"arcs":[[325],[326]]},{"type":"MultiLineString","properties":{"kind":"major_road","int_name":"bul. Tsaritsa Yoana","sort_rank":380,"kind_detail":"primary","source":"openstreetmap.org","min_zoom":8.0,"name:en":"bul. Tsaritsa Yoana","landuse_kind":"urban_area"},"arcs":[[327],[328],[329],[330]]},{"type":"LineString","properties":{"bus_network":null,"int_name":"bul. Nikola Petkov","network":"bg:national","sort_rank":380,"kind_detail":"primary","kind":"major_road","source":"openstreetmap.org","min_zoom":8.0,"name:en":"Nikola Petkov blvd.","bus_shield_text":"111","shield_text":"1","landuse_kind":"urban_area","ref":"1;6;18"},"arcs":[331]},{"type":"MultiLineString","properties":{"kind":"major_road","name:en":"bul. Sitnyakovo","sort_rank":380,"kind_detail":"primary","source":"openstreetmap.org","min_zoom":8.0,"int_name":"bul. Sitnyakovo","old_name":"\u0431\u0443\u043b. \u0425\u0440\u0438\u0441\u0442\u043e \u041a\u0430\u0431\u0430\u043a\u0447\u0438\u0435\u0432","landuse_kind":"urban_area"},"arcs":[[332],[333]]},{"type":"MultiLineString","properties":{"bus_network":null,"name:en":"Tsarigradsko Shose blvd.","sort_rank":381,"landuse_kind":"urban_area","bus_shield_text":"4","kind":"major_road","source":"openstreetmap.org","min_zoom":8.0,"old_name":"\u0431\u0443\u043b. \u041b\u0435\u043d\u0438\u043d","kind_detail":"trunk"},"arcs":[[334],[335]]},{"type":"LineString","properties":{"kind":"major_road","name:en":"bul. Lomsko shose","sort_rank":380,"kind_detail":"primary","bus_network":null,"source":"openstreetmap.org","min_zoom":8.0,"int_name":"bul. Lomsko shose","bus_shield_text":"150","landuse_kind":"urban_area","id":433554104},"arcs":[336]},{"type":"MultiLineString","properties":{"bus_network":null,"int_name":"bul. Botevgradsko Shose","sort_rank":380,"kind_detail":"primary","kind":"major_road","source":"openstreetmap.org","min_zoom":8.0,"name:en":"Botevgradsko Shose blvd.","bus_shield_text":"90","landuse_kind":"urban_area"},"arcs":[[337],[338],[339],[340]]},{"type":"MultiLineString","properties":{"kind":"highway","name:en":"Northern Speed Tangent","network":"e-road","sort_rank":383,"landuse_kind":"urban_area","source":"openstreetmap.org","min_zoom":8.0,"all_networks":["e-road","e-road"],"kind_detail":"motorway","shield_text":"79","all_shield_texts":["79","80"]},"arcs":[[341],[342]]},{"type":"MultiLineString","properties":{"kind":"major_road","int_name":"Okolovrasten pat","network":"bg:national","short_name":"\u0421\u041e\u041f","sort_rank":381,"landuse_kind":"urban_area","official_name":"\u0420\u0435\u043f\u0443\u0431\u043b\u0438\u043a\u0430\u043d\u0441\u043a\u0438 \u043f\u044a\u0442 II-18","source":"openstreetmap.org","min_zoom":8.0,"name:en":"Ring Road","kind_detail":"trunk","shield_text":"18","ref":"18"},"arcs":[[343],[344]]},{"type":"LineString","properties":{"kind":"major_road","name:en":"bul. Vladimir Vazov","sort_rank":380,"kind_detail":"primary","source":"openstreetmap.org","min_zoom":8.0,"int_name":"bul. Vladimir Vazov","landuse_kind":"urban_area","id":261606510},"arcs":[345]},{"type":"LineString","properties":{"kind":"major_road","sort_rank":380,"kind_detail":"primary","bus_network":null,"source":"openstreetmap.org","min_zoom":8.0,"bus_shield_text":"150","landuse_kind":"urban_area","id":430968981},"arcs":[346]},{"type":"LineString","properties":{"bus_network":null,"int_name":"bul. Knyaz Aleksandar Dondukov","sort_rank":380,"kind_detail":"primary","kind":"major_road","source":"openstreetmap.org","min_zoom":8.0,"name:en":"bul. Knyaz Aleksandar Dondukov","bus_shield_text":"78","landuse_kind":"urban_area"},"arcs":[347]},{"type":"MultiLineString","properties":{"kind":"major_road","int_name":"bul. Botevgradsko Shose","sort_rank":380,"kind_detail":"primary","source":"openstreetmap.org","min_zoom":8.0,"name:en":"Botevgradsko Shose blvd.","landuse_kind":"urban_area"},"arcs":[[348],[349]]},{"type":"LineString","properties":{"bus_network":null,"int_name":"Okolovrasten pat","network":"bg:national","short_name":"\u0421\u041e\u041f","sort_rank":380,"kind_detail":"primary","kind":"major_road","official_name":"\u0420\u0435\u043f\u0443\u0431\u043b\u0438\u043a\u0430\u043d\u0441\u043a\u0438 \u043f\u044a\u0442 II-18","source":"openstreetmap.org","min_zoom":8.0,"name:en":"Ring Road","bus_shield_text":"5","shield_text":"1","ref":"1;6;18","id":261150455},"arcs":[350]},{"type":"MultiLineString","properties":{"bus_network":null,"sort_rank":381,"landuse_kind":"urban_area","kind":"major_road","source":"openstreetmap.org","min_zoom":8.0,"bus_shield_text":"44","kind_detail":"trunk"},"arcs":[[351],[352],[353]]},{"type":"LineString","properties":{"bus_network":null,"sort_rank":380,"kind_detail":"primary","kind":"major_road","source":"openstreetmap.org","min_zoom":8.0,"bus_shield_text":"4","landuse_kind":"urban_area"},"arcs":[354]},{"type":"MultiLineString","properties":{"kind":"major_road","int_name":"Okolovrasten pat","network":"bg:national","short_name":"\u0421\u041e\u041f","sort_rank":380,"kind_detail":"primary","official_name":"\u0420\u0435\u043f\u0443\u0431\u043b\u0438\u043a\u0430\u043d\u0441\u043a\u0438 \u043f\u044a\u0442 II-18","source":"openstreetmap.org","min_zoom":8.0,"name:en":"Ring Road","shield_text":"8","ref":"8;18"},"arcs":[[355],[356],[357],[358]]},{"type":"LineString","properties":{"kind":"major_road","network":"bg:national","sort_rank":380,"kind_detail":"primary","bus_network":null,"source":"openstreetmap.org","min_zoom":8.0,"bus_shield_text":"54","shield_text":"8","landuse_kind":"urban_area","ref":"8","id":32399523},"arcs":[359]},{"type":"LineString","properties":{"bus_network":null,"name:en":"Slivnitsa Blvd.","sort_rank":381,"kind_detail":"trunk","kind":"major_road","source":"openstreetmap.org","min_zoom":8.0,"int_name":"bul. Slivnitsa","bus_shield_text":"44","landuse_kind":"urban_area"},"arcs":[360]},{"type":"LineString","properties":{"kind":"major_road","name:en":"bul. Tsaritsa Yoana","sort_rank":380,"kind_detail":"primary","bus_network":null,"source":"openstreetmap.org","min_zoom":8.0,"int_name":"bul. Tsaritsa Yoana","bus_shield_text":"45","landuse_kind":"urban_area","id":258383185},"arcs":[361]},{"type":"MultiLineString","properties":{"kind":"major_road","name:en":"pl. Vasil Levski","sort_rank":380,"kind_detail":"primary","source":"openstreetmap.org","min_zoom":8.0,"int_name":"pl. Vasil Levski","landuse_kind":"urban_area"},"arcs":[[362],[363]]},{"type":"MultiLineString","properties":{"bus_network":null,"int_name":"bul. Gen. Skobelev","sort_rank":380,"kind_detail":"primary","kind":"major_road","source":"openstreetmap.org","min_zoom":8.0,"name:en":"bul. Gen. Skobelev","bus_shield_text":"1","landuse_kind":"urban_area"},"arcs":[[364],[365],[366]]},{"type":"MultiLineString","properties":{"kind":"major_road","network":"bg:national","sort_rank":381,"landuse_kind":"urban_area","source":"openstreetmap.org","min_zoom":8.0,"kind_detail":"trunk","shield_text":"1","ref":"1"},"arcs":[[367],[368]]},{"type":"MultiLineString","properties":{"kind":"major_road","network":"bg:national","sort_rank":381,"kind_detail":"trunk","source":"openstreetmap.org","min_zoom":8.0,"shield_text":"8","ref":"8"},"arcs":[[369],[370]]},{"type":"MultiLineString","properties":{"bus_network":null,"int_name":"bul. Nikola Y. Vaptsarov","sort_rank":381,"landuse_kind":"urban_area","kind":"major_road","source":"openstreetmap.org","min_zoom":8.0,"name:en":"bul. Nikola Y. Vaptsarov","bus_shield_text":"67","kind_detail":"trunk"},"arcs":[[371],[372]]},{"type":"LineString","properties":{"bus_network":null,"name:en":"Daskal Stoyan Popandreev","sort_rank":380,"kind_detail":"primary","kind":"major_road","source":"openstreetmap.org","min_zoom":8.0,"bus_shield_text":"63","landuse_kind":"urban_area"},"arcs":[373]},{"type":"LineString","properties":{"kind":"major_road","name:en":"Ring Road","short_name":"\u0421\u041e\u041f","sort_rank":381,"kind_detail":"trunk","official_name":"\u0420\u0435\u043f\u0443\u0431\u043b\u0438\u043a\u0430\u043d\u0441\u043a\u0438 \u043f\u044a\u0442 II-18","source":"openstreetmap.org","min_zoom":8.0,"int_name":"Okolovrasten pat","landuse_kind":"urban_area","ref":"18","id":256822048},"arcs":[374]},{"type":"MultiLineString","properties":{"bus_network":null,"int_name":"bul. Madrid","sort_rank":380,"kind_detail":"primary","kind":"major_road","source":"openstreetmap.org","min_zoom":8.0,"name:en":"Madrid Blvd","bus_shield_text":"11","landuse_kind":"urban_area"},"arcs":[[375],[376]]},{"type":"LineString","properties":{"cycleway_right":"shared_lane","name:en":"bul. Todor Aleksandrov","sort_rank":380,"kind_detail":"primary","is_bicycle_related":true,"kind":"major_road","source":"openstreetmap.org","min_zoom":8.0,"int_name":"bul. Todor Aleksandrov","landuse_kind":"urban_area","id":17364799},"arcs":[377]},{"type":"LineString","properties":{"bus_network":null,"name:en":"Ring Road","network":"bg:national","short_name":"\u0421\u041e\u041f","sort_rank":380,"kind_detail":"primary","kind":"major_road","official_name":"\u0420\u0435\u043f\u0443\u0431\u043b\u0438\u043a\u0430\u043d\u0441\u043a\u0438 \u043f\u044a\u0442 II-18","source":"openstreetmap.org","min_zoom":8.0,"int_name":"Okolovrasten pat","bus_shield_text":"20","shield_text":"8","ref":"8;18"},"arcs":[378]},{"type":"MultiLineString","properties":{"bus_network":null,"network":"bg:national","sort_rank":380,"kind_detail":"primary","kind":"major_road","source":"openstreetmap.org","min_zoom":8.0,"bus_shield_text":"42","shield_text":"18","landuse_kind":"urban_area","ref":"18"},"arcs":[[379],[380],[381]]},{"type":"MultiLineString","properties":{"kind":"major_road","network":"bg:national","sort_rank":380,"kind_detail":"primary","source":"openstreetmap.org","min_zoom":8.0,"shield_text":"3","ref":"3"},"arcs":[[382],[383],[384],[385],[386]]},{"type":"MultiLineString","properties":{"kind":"major_road","network":"e-road","sort_rank":380,"kind_detail":"primary","source":"openstreetmap.org","min_zoom":8.0,"shield_text":"871","ref":"6"},"arcs":[[387],[388],[389],[390],[391],[392],[393],[394],[395],[396]]},{"type":"LineString","properties":{"kind":"major_road","int_name":"Kumata","sort_rank":380,"kind_detail":"primary","source":"openstreetmap.org","min_zoom":8.0,"name:en":"Kumata","landuse_kind":"urban_area"},"arcs":[397]},{"type":"MultiLineString","properties":{"kind":"highway","name:en":"Struma Motorway","network":"bg:national","sort_rank":383,"kind_detail":"motorway","source":"openstreetmap.org","min_zoom":8.0,"int_name":"Struma Motorway","all_networks":["bg:national","e-road"],"shield_text":"3","ref":"A 3","all_shield_texts":["3","79"]},"arcs":[[398],[399]]},{"type":"LineString","properties":{"kind":"major_road","sort_rank":380,"kind_detail":"primary","bus_network":null,"source":"openstreetmap.org","min_zoom":8.0,"bus_shield_text":"69","landuse_kind":"urban_area","id":260088599},"arcs":[400]},{"type":"MultiLineString","properties":{"bus_network":null,"name:en":"Bulgaria Blvd.","sort_rank":381,"landuse_kind":"urban_area","kind":"major_road","source":"openstreetmap.org","min_zoom":8.0,"bus_shield_text":"64","kind_detail":"trunk"},"arcs":[[401],[402]]},{"type":"MultiLineString","properties":{"bus_network":null,"name:en":"bul. Vasil Levski","sort_rank":380,"landuse_kind":"urban_area","old_name":"\u0431\u0443\u043b. \u0424\u0435\u0440\u0434\u0438\u043d\u0430\u043d\u0434\u044a I","kind":"major_road","source":"openstreetmap.org","min_zoom":8.0,"int_name":"bul. Vasil Levski","bus_shield_text":"1","kind_detail":"primary"},"arcs":[[403],[404]]},{"type":"LineString","properties":{"bus_network":null,"name:en":"Tsar Boris III Blvd.","network":"bg:national","sort_rank":380,"kind_detail":"primary","kind":"major_road","source":"openstreetmap.org","min_zoom":8.0,"bus_shield_text":"59","shield_text":"1","landuse_kind":"urban_area","ref":"1;6"},"arcs":[405]},{"type":"LineString","properties":{"bus_network":null,"int_name":"bul. Nikola Petkov","network":"bg:national","sort_rank":380,"kind_detail":"primary","kind":"major_road","source":"openstreetmap.org","min_zoom":8.0,"name:en":"Nikola Petkov blvd.","bus_shield_text":"111","shield_text":"18","landuse_kind":"urban_area","ref":"18"},"arcs":[406]},{"type":"MultiLineString","properties":{"bus_network":null,"name:en":"bul. Todor Aleksandrov","sort_rank":380,"kind_detail":"primary","is_bicycle_related":true,"kind":"major_road","cycleway":"lane","source":"openstreetmap.org","min_zoom":8.0,"int_name":"bul. Todor Aleksandrov","bus_shield_text":"60","landuse_kind":"urban_area"},"arcs":[[407],[408]]},{"type":"LineString","properties":{"bus_network":null,"int_name":"bul. Lomsko shose","bicycle_shield_text":null,"min_zoom":8.0,"bus_shield_text":"86","cycleway":"opposite_track","id":259352253,"kind":"major_road","name:en":"bul. Lomsko shose","cycleway_left":"lane","sort_rank":380,"kind_detail":"primary","is_bicycle_related":true,"bicycle_network":"lcn","source":"openstreetmap.org","landuse_kind":"urban_area"},"arcs":[409]},{"type":"LineString","properties":{"bus_network":null,"network":"bg:national","sort_rank":380,"kind_detail":"primary","kind":"major_road","source":"openstreetmap.org","min_zoom":8.0,"bus_shield_text":"118","shield_text":"1","ref":"1"},"arcs":[410]},{"type":"LineString","properties":{"bus_network":null,"name:en":"Vasil Levski blvd.","network":"bg:national","sort_rank":380,"kind_detail":"primary","kind":"major_road","source":"openstreetmap.org","min_zoom":8.0,"bus_shield_text":"90","shield_text":"1","ref":"1"},"arcs":[411]},{"type":"MultiLineString","properties":{"bus_network":null,"int_name":"bul. Tsaritsa Yoana","sort_rank":380,"kind_detail":"primary","kind":"major_road","source":"openstreetmap.org","min_zoom":8.0,"name:en":"bul. Tsaritsa Yoana","bus_shield_text":"42","landuse_kind":"urban_area"},"arcs":[[412],[413],[414]]},{"type":"LineString","properties":{"bus_network":null,"int_name":"bul. Slivnitsa","sort_rank":380,"kind_detail":"primary","kind":"major_road","source":"openstreetmap.org","min_zoom":8.0,"name:en":"Slivnitsa Blvd.","bus_shield_text":"82","landuse_kind":"urban_area","ref":"8"},"arcs":[415]},{"type":"MultiLineString","properties":{"source":"openstreetmap.org","kind":"highway","landuse_kind":"urban_area","sort_rank":383,"kind_detail":"motorway","min_zoom":8.0},"arcs":[[416],[417]]},{"type":"MultiLineString","properties":{"bus_network":null,"name:en":"bul. Vasil Levski","sort_rank":380,"kind_detail":"primary","kind":"major_road","source":"openstreetmap.org","min_zoom":8.0,"int_name":"bul. Vasil Levski","bus_shield_text":"11","landuse_kind":"urban_area"},"arcs":[[418],[419]]},{"type":"MultiLineString","properties":{"bus_network":null,"name:en":"Ivan Evstratiev Geshov Blvd.","sort_rank":380,"kind_detail":"primary","kind":"major_road","source":"openstreetmap.org","min_zoom":8.0,"bus_shield_text":"60","landuse_kind":"urban_area"},"arcs":[[420],[421]]},{"type":"LineString","properties":{"bus_network":null,"int_name":"bul. Nikola Petkov","network":"bg:national","sort_rank":380,"kind_detail":"primary","kind":"major_road","source":"openstreetmap.org","min_zoom":8.0,"name:en":"Nikola Petkov blvd.","bus_shield_text":"73","shield_text":"18","landuse_kind":"urban_area","ref":"18"},"arcs":[422]},{"type":"LineString","properties":{"bus_network":null,"network":"bg:national","sort_rank":380,"kind_detail":"primary","kind":"major_road","source":"openstreetmap.org","min_zoom":8.0,"bus_shield_text":"54","shield_text":"8","landuse_kind":"urban_area"},"arcs":[423]},{"type":"MultiLineString","properties":{"source":"openstreetmap.org","kind":"major_road","name:en":"Ivan Evstratiev Geshov Blvd.","landuse_kind":"urban_area","sort_rank":380,"kind_detail":"primary","min_zoom":8.0},"arcs":[[424],[425],[426],[427],[428]]},{"type":"LineString","properties":{"kind":"major_road","name:en":"bul. Aleksandar Malinov","sort_rank":381,"kind_detail":"trunk","bus_network":null,"source":"openstreetmap.org","min_zoom":8.0,"int_name":"bul. Aleksandar Malinov","bus_shield_text":"88","landuse_kind":"urban_area","id":14994197},"arcs":[429]},{"type":"MultiLineString","properties":{"kind":"major_road","int_name":"Okolovrasten pat","network":"bg:national","short_name":"\u0421\u041e\u041f","sort_rank":380,"kind_detail":"primary","official_name":"\u0420\u0435\u043f\u0443\u0431\u043b\u0438\u043a\u0430\u043d\u0441\u043a\u0438 \u043f\u044a\u0442 II-18","source":"openstreetmap.org","min_zoom":8.0,"name:en":"Ring Road","shield_text":"1","ref":"1;6;18"},"arcs":[[430],[431]]},{"type":"MultiLineString","properties":{"kind":"major_road","int_name":"bul. Todor Aleksandrov","sort_rank":380,"kind_detail":"primary","is_bicycle_related":true,"cycleway":"lane","source":"openstreetmap.org","min_zoom":8.0,"name:en":"bul. Todor Aleksandrov","landuse_kind":"urban_area"},"arcs":[[432],[433],[434]]},{"type":"MultiLineString","properties":{"bus_network":null,"name:en":"bul. Gen. Totleben","sort_rank":380,"kind_detail":"primary","kind":"major_road","source":"openstreetmap.org","min_zoom":8.0,"int_name":"bul. gen. Totleben","bus_shield_text":"74","landuse_kind":"urban_area"},"arcs":[[435],[436]]},{"type":"MultiLineString","properties":{"bus_network":null,"network":"bg:national","sort_rank":381,"kind_detail":"trunk","kind":"major_road","source":"openstreetmap.org","min_zoom":8.0,"bus_shield_text":"12","shield_text":"1","ref":"1;6"},"arcs":[[437],[438],[439]]},{"type":"MultiLineString","properties":{"kind":"highway","network":"bg:national","sort_rank":383,"kind_detail":"motorway","source":"openstreetmap.org","min_zoom":8.0,"all_networks":["bg:national","bg:national","e-road","e-road"],"shield_text":"1","ref":"A 2","all_shield_texts":["1","2","79","871"]},"arcs":[[440],[441],[442],[443]]},{"type":"MultiLineString","properties":{"bus_network":null,"name:en":"Tsarigradsko Shose blvd.","sort_rank":380,"kind_detail":"primary","bus_shield_text":"5","kind":"major_road","source":"openstreetmap.org","min_zoom":8.0,"old_name":"\u0431\u0443\u043b. \u041b\u0435\u043d\u0438\u043d","landuse_kind":"urban_area"},"arcs":[[444],[445]]},{"type":"MultiLineString","properties":{"bus_network":null,"int_name":"bul. General Danail Nikolaev","sort_rank":380,"landuse_kind":"urban_area","kind":"major_road","source":"openstreetmap.org","min_zoom":8.0,"name:en":"bul. General Danail Nikolaev","bus_shield_text":"305","kind_detail":"primary"},"arcs":[[446],[447]]},{"type":"MultiLineString","properties":{"kind":"major_road","network":"bg:national","sort_rank":380,"kind_detail":"primary","source":"openstreetmap.org","min_zoom":8.0,"shield_text":"8","ref":"8"},"arcs":[[448],[449],[450],[451],[452],[453],[454],[455],[456]]},{"type":"LineString","properties":{"bus_network":null,"name:en":"bul. Patriarh Evtimiy","sort_rank":380,"kind_detail":"primary","kind":"major_road","source":"openstreetmap.org","min_zoom":8.0,"int_name":"bul. Patriarh Evtimiy","bus_shield_text":"1","landuse_kind":"urban_area"},"arcs":[457]},{"type":"MultiLineString","properties":{"bus_network":null,"int_name":"bul. Botevgradsko Shose","sort_rank":380,"kind_detail":"primary","kind":"major_road","source":"openstreetmap.org","min_zoom":8.0,"name:en":"Botevgradsko Shose blvd.","bus_shield_text":"78","landuse_kind":"urban_area"},"arcs":[[458],[459]]},{"type":"LineString","properties":{"bus_network":null,"int_name":"bul. Lomsko shose","sort_rank":380,"kind_detail":"primary","is_bicycle_related":true,"kind":"major_road","bicycle_shield_text":null,"cycleway":"opposite_lane","source":"openstreetmap.org","min_zoom":8.0,"name:en":"bul. Lomsko shose","bus_shield_text":"86","landuse_kind":"urban_area","id":129917205,"bicycle_network":"lcn"},"arcs":[460]},{"type":"MultiLineString","properties":{"bus_network":null,"int_name":"bul. Botevgradsko Shose","sort_rank":380,"kind_detail":"primary","kind":"major_road","source":"openstreetmap.org","min_zoom":8.0,"name:en":"Botevgradsko Shose blvd.","bus_shield_text":"12","landuse_kind":"urban_area"},"arcs":[[461],[462]]},{"type":"MultiLineString","properties":{"bus_network":null,"name:en":"Tsarigradsko Shose blvd.","sort_rank":381,"kind_detail":"trunk","bus_shield_text":"5","kind":"major_road","source":"openstreetmap.org","min_zoom":8.0,"old_name":"\u0431\u0443\u043b. \u041b\u0435\u043d\u0438\u043d","landuse_kind":"urban_area"},"arcs":[[463],[464]]},{"type":"MultiLineString","properties":{"bus_network":null,"sort_rank":380,"kind_detail":"primary","kind":"major_road","source":"openstreetmap.org","min_zoom":8.0,"bus_shield_text":"11","landuse_kind":"urban_area"},"arcs":[[465],[466],[467]]},{"type":"LineString","properties":{"kind":"major_road","name:en":"Slivnitsa Blvd.","sort_rank":380,"kind_detail":"primary","bus_network":null,"source":"openstreetmap.org","min_zoom":8.0,"int_name":"bul. Slivnitsa","bus_shield_text":"83","landuse_kind":"urban_area","id":259900789},"arcs":[468]},{"type":"LineString","properties":{"bus_network":null,"name:en":"Tsar Boris III Blvd.","network":"bg:national","sort_rank":380,"kind_detail":"primary","kind":"major_road","source":"openstreetmap.org","min_zoom":8.0,"bus_shield_text":"59","shield_text":"1","ref":"1;6","id":263704104},"arcs":[469]},{"type":"MultiLineString","properties":{"kind":"highway","network":"bg:national","sort_rank":383,"kind_detail":"motorway","source":"openstreetmap.org","min_zoom":8.0,"all_networks":["bg:national","e-road"],"landuse_kind":"urban_area","shield_text":"6","ref":"A 6","all_shield_texts":["6","79"]},"arcs":[[470],[471],[472],[473]]},{"type":"LineString","properties":{"bus_network":null,"name:en":"Evropa Blvd.","network":"bg:national","sort_rank":380,"kind_detail":"primary","bus_shield_text":"54","kind":"major_road","source":"openstreetmap.org","min_zoom":8.0,"old_name":"bul. Slivnitsa","shield_text":"8","landuse_kind":"urban_area","ref":"8"},"arcs":[474]},{"type":"MultiLineString","properties":{"sort_rank":383,"kind_detail":"motorway","min_zoom":8.0,"kind":"highway","source":"openstreetmap.org"},"arcs":[[475],[476],[477],[478],[479],[480],[481],[482]]},{"type":"MultiLineString","properties":{"source":"openstreetmap.org","kind":"major_road","network":"bg:national","sort_rank":380,"kind_detail":"primary","min_zoom":8.0,"shield_text":"8"},"arcs":[[483],[484]]},{"type":"MultiLineString","properties":{"kind":"major_road","network":"bg:national","sort_rank":380,"kind_detail":"primary","source":"openstreetmap.org","min_zoom":8.0,"landuse_kind":"urban_area","shield_text":"1","ref":"1"},"arcs":[[485],[486],[487]]},{"type":"MultiLineString","properties":{"bus_network":null,"sort_rank":381,"landuse_kind":"urban_area","kind":"major_road","source":"openstreetmap.org","min_zoom":8.0,"bus_shield_text":"120","kind_detail":"trunk"},"arcs":[[488],[489],[490]]},{"type":"LineString","properties":{"bus_network":null,"name:en":"Tsarigradsko Shose blvd.","network":"bg:national","sort_rank":380,"kind_detail":"primary","bus_shield_text":"7","kind":"major_road","source":"openstreetmap.org","min_zoom":8.0,"old_name":"\u0431\u0443\u043b. \u041b\u0435\u043d\u0438\u043d","shield_text":"8","ref":"8","id":16361305},"arcs":[491]},{"type":"MultiLineString","properties":{"bus_network":null,"name:en":"Daskal Stoyan Popandreev","sort_rank":381,"landuse_kind":"urban_area","kind":"major_road","source":"openstreetmap.org","min_zoom":8.0,"bus_shield_text":"63","kind_detail":"trunk"},"arcs":[[492],[493]]},{"type":"MultiLineString","properties":{"kind":"major_road","int_name":"Okolovrasten pat","network":"bg:national","short_name":"\u0421\u041e\u041f","sort_rank":381,"landuse_kind":"urban_area","official_name":"\u0420\u0435\u043f\u0443\u0431\u043b\u0438\u043a\u0430\u043d\u0441\u043a\u0438 \u043f\u044a\u0442 II-18","source":"openstreetmap.org","min_zoom":8.0,"name:en":"Ring Road","kind_detail":"trunk","shield_text":"1","ref":"1;6;18"},"arcs":[[494],[495]]},{"type":"LineString","properties":{"kind":"major_road","name:en":"Evlogi and Hristo Georgiev blvd.","sort_rank":380,"kind_detail":"primary","bus_network":null,"source":"openstreetmap.org","min_zoom":8.0,"bus_shield_text":"11","landuse_kind":"urban_area","id":258880131},"arcs":[496]},{"type":"MultiLineString","properties":{"kind":"major_road","name:en":"Junction Daskalovo","network":"bg:national","sort_rank":381,"kind_detail":"trunk","source":"openstreetmap.org","min_zoom":8.0,"shield_text":"1","ref":"1;6"},"arcs":[[497],[498]]},{"type":"LineString","properties":{"bus_network":null,"int_name":"bul. Asen Yordanov","sort_rank":380,"kind_detail":"primary","kind":"major_road","source":"openstreetmap.org","min_zoom":8.0,"name:en":"bul. Asen Yordanov","bus_shield_text":"1","landuse_kind":"urban_area"},"arcs":[499]},{"type":"LineString","properties":{"kind":"major_road","sort_rank":380,"kind_detail":"primary","bus_network":null,"source":"openstreetmap.org","min_zoom":8.0,"bus_shield_text":"42","landuse_kind":"urban_area","id":338986694},"arcs":[500]},{"type":"MultiLineString","properties":{"kind":"major_road","name:en":"Brussels Blvd.","sort_rank":381,"landuse_kind":"urban_area","source":"openstreetmap.org","min_zoom":8.0,"int_name":"bul. Bryuksel","kind_detail":"trunk"},"arcs":[[501],[502],[503]]},{"type":"LineString","properties":{"kind":"major_road","name:en":"bul. Todor Aleksandrov","sort_rank":380,"landuse_kind":"urban_area","source":"openstreetmap.org","min_zoom":8.0,"kind_detail":"primary","id":157755993},"arcs":[504]},{"type":"MultiLineString","properties":{"source":"openstreetmap.org","kind":"major_road","sort_rank":380,"kind_detail":"primary","ref":"1","min_zoom":8.0},"arcs":[[505],[506]]},{"type":"LineString","properties":{"kind":"major_road","name:en":"Junction Daskalovo","sort_rank":381,"landuse_kind":"urban_area","source":"openstreetmap.org","min_zoom":8.0,"kind_detail":"trunk","id":231353050},"arcs":[507]},{"type":"MultiLineString","properties":{"kind":"major_road","network":"bg:national","sort_rank":381,"landuse_kind":"urban_area","source":"openstreetmap.org","min_zoom":8.0,"kind_detail":"trunk","shield_text":"1","ref":"1;6"},"arcs":[[508],[509],[510]]},{"type":"MultiLineString","properties":{"bus_network":null,"name:en":"Opalchenska","sort_rank":380,"landuse_kind":"urban_area","kind":"major_road","source":"openstreetmap.org","min_zoom":8.0,"int_name":"Opalchenska","bus_shield_text":"1","kind_detail":"primary"},"arcs":[[511],[512],[513],[514],[515]]},{"type":"MultiLineString","properties":{"bus_network":null,"int_name":"bul. Gen. Mihail D. Skobelev","sort_rank":380,"kind_detail":"primary","kind":"major_road","source":"openstreetmap.org","min_zoom":8.0,"name:en":"bul. Gen. Mihail D. Skobelev","bus_shield_text":"1","landuse_kind":"urban_area"},"arcs":[[516],[517]]},{"type":"MultiLineString","properties":{"bus_network":null,"int_name":"bul. Istoriya Slavyanobalgarska","sort_rank":380,"kind_detail":"primary","old_name":"\u0443\u043b. 202","kind":"major_road","source":"openstreetmap.org","min_zoom":8.0,"name:en":"bul. Istoriya Slavyanobalgarska","bus_shield_text":"101","landuse_kind":"urban_area"},"arcs":[[518],[519]]},{"type":"MultiLineString","properties":{"kind":"highway","name:en":"Northern Speed Tangent","network":"e-road","sort_rank":383,"kind_detail":"motorway","source":"openstreetmap.org","min_zoom":8.0,"all_networks":["e-road","e-road"],"shield_text":"79","all_shield_texts":["79","80"]},"arcs":[[520],[521]]},{"type":"MultiLineString","properties":{"bus_network":null,"int_name":"bul. Gen. Skobelev","sort_rank":380,"kind_detail":"primary","is_bicycle_related":true,"kind":"major_road","source":"openstreetmap.org","min_zoom":8.0,"name:en":"bul. Gen. Skobelev","bus_shield_text":"1","landuse_kind":"urban_area"},"arcs":[[522],[523],[524]]},{"type":"LineString","properties":{"kind":"major_road","name:en":"Slivnitsa Blvd.","sort_rank":380,"kind_detail":"primary","bus_network":null,"source":"openstreetmap.org","min_zoom":8.0,"int_name":"bul. Slivnitsa","bus_shield_text":"108","landuse_kind":"urban_area","ref":"8","id":34607338},"arcs":[525]},{"type":"LineString","properties":{"bus_network":null,"name:en":"Ring Road","network":"bg:national","short_name":"\u0421\u041e\u041f","sort_rank":380,"kind_detail":"primary","kind":"major_road","official_name":"\u0420\u0435\u043f\u0443\u0431\u043b\u0438\u043a\u0430\u043d\u0441\u043a\u0438 \u043f\u044a\u0442 II-18","source":"openstreetmap.org","min_zoom":8.0,"int_name":"Okolovrasten pat","bus_shield_text":"26","shield_text":"8","ref":"8;18"},"arcs":[526]},{"type":"LineString","properties":{"kind":"major_road","network":"bg:national","sort_rank":381,"kind_detail":"trunk","source":"openstreetmap.org","min_zoom":8.0,"landuse_kind":"urban_area","shield_text":"8","id":30691993},"arcs":[527]},{"type":"MultiLineString","properties":{"kind":"major_road","int_name":"bul. Tsaritsa Yoana","sort_rank":380,"kind_detail":"primary","source":"openstreetmap.org","min_zoom":8.0,"name:en":"bul. Tsaritsa Yoana","landuse_kind":"urban_area","ref":"Lulin tunnel"},"arcs":[[528],[529]]},{"type":"MultiLineString","properties":{"bus_network":null,"int_name":"bul. Slivnitsa","sort_rank":380,"kind_detail":"primary","kind":"major_road","source":"openstreetmap.org","min_zoom":8.0,"name:en":"Slivnitsa Blvd.","bus_shield_text":"6","landuse_kind":"urban_area"},"arcs":[[530],[531],[532],[533]]},{"type":"MultiLineString","properties":{"kind":"highway","network":"bg:national","sort_rank":383,"kind_detail":"motorway","source":"openstreetmap.org","min_zoom":8.0,"all_networks":["bg:national","e-road"],"shield_text":"6","ref":"A 6","all_shield_texts":["6","79"]},"arcs":[[534],[535],[536],[537]]},{"type":"LineString","properties":{"cycleway_right":"lane","int_name":"bul. Knyaz Aleksandar Dondukov","sort_rank":380,"kind_detail":"primary","is_bicycle_related":true,"kind":"major_road","source":"openstreetmap.org","min_zoom":8.0,"name:en":"bul. Knyaz Aleksandar Dondukov","landuse_kind":"urban_area"},"arcs":[538]},{"type":"MultiLineString","properties":{"bus_network":null,"sort_rank":381,"landuse_kind":"urban_area","kind":"major_road","source":"openstreetmap.org","min_zoom":8.0,"bus_shield_text":"67","kind_detail":"trunk"},"arcs":[[539],[540]]},{"type":"LineString","properties":{"bus_network":null,"name:en":"bul. Gen. Skobelev","sort_rank":380,"landuse_kind":"urban_area","kind":"major_road","source":"openstreetmap.org","min_zoom":8.0,"bus_shield_text":"1","kind_detail":"primary"},"arcs":[541]},{"type":"MultiLineString","properties":{"bus_network":null,"network":"bg:national","sort_rank":381,"landuse_kind":"urban_area","kind":"major_road","source":"openstreetmap.org","min_zoom":8.0,"bus_shield_text":"42","shield_text":"18","kind_detail":"trunk","ref":"18"},"arcs":[[542],[543]]},{"type":"MultiLineString","properties":{"bus_network":null,"name:en":"Tsar Boris III Blvd.","sort_rank":380,"kind_detail":"primary","kind":"major_road","source":"openstreetmap.org","min_zoom":8.0,"bus_shield_text":"260","landuse_kind":"urban_area"},"arcs":[[544],[545]]},{"type":"LineString","properties":{"kind":"major_road","network":"bg:national","sort_rank":381,"kind_detail":"trunk","bus_network":null,"source":"openstreetmap.org","min_zoom":8.0,"bus_shield_text":"44","shield_text":"18","landuse_kind":"urban_area","ref":"18","id":418300614},"arcs":[546]},{"type":"LineString","properties":{"kind":"highway","network":"bg:national","sort_rank":383,"kind_detail":"motorway","source":"openstreetmap.org","min_zoom":8.0,"all_networks":["bg:national","bg:national","e-road","e-road","e-road"],"shield_text":"1","ref":"A 2","id":261701145,"all_shield_texts":["1","2","79","80","871"]},"arcs":[547]},{"type":"MultiLineString","properties":{"kind":"highway","network":"RS:national","sort_rank":383,"kind_detail":"motorway","source":"openstreetmap.org","min_zoom":8.0,"all_networks":["RS:national","e-road"],"shield_text":"4","ref":"A4","all_shield_texts":["4","80"]},"arcs":[[548],[549],[550],[551],[552],[553],[554]]},{"type":"MultiLineString","properties":{"bus_network":null,"sort_rank":380,"kind_detail":"primary","kind":"major_road","source":"openstreetmap.org","min_zoom":8.0,"bus_shield_text":"67","landuse_kind":"urban_area"},"arcs":[[555],[556]]},{"type":"LineString","properties":{"bus_network":null,"network":"bg:national","sort_rank":380,"kind_detail":"primary","kind":"major_road","source":"openstreetmap.org","min_zoom":8.0,"bus_shield_text":"111","shield_text":"18","landuse_kind":"urban_area","ref":"18","id":17503678},"arcs":[557]},{"type":"LineString","properties":{"bus_network":null,"name:en":"Slivnitsa Blvd.","sort_rank":380,"kind_detail":"primary","is_bicycle_related":true,"kind":"major_road","cycleway":"lane","source":"openstreetmap.org","min_zoom":8.0,"int_name":"bul. Slivnitsa","bus_shield_text":"6","landuse_kind":"urban_area","ref":"8"},"arcs":[558]},{"type":"LineString","properties":{"kind":"major_road","network":"bg:national","sort_rank":380,"kind_detail":"primary","source":"openstreetmap.org","min_zoom":8.0,"landuse_kind":"urban_area","shield_text":"8","ref":"8"},"arcs":[559]},{"type":"MultiLineString","properties":{"kind":"major_road","int_name":"Okolovrasten pat","network":"bg:national","short_name":"\u0421\u041e\u041f","sort_rank":381,"landuse_kind":"urban_area","official_name":"\u0420\u0435\u043f\u0443\u0431\u043b\u0438\u043a\u0430\u043d\u0441\u043a\u0438 \u043f\u044a\u0442 II-18","source":"openstreetmap.org","min_zoom":8.0,"name:en":"Ring Road","kind_detail":"trunk","shield_text":"1","ref":"1;6;8;18"},"arcs":[[560],[561]]},{"type":"MultiLineString","properties":{"bus_network":null,"int_name":"Okolovrasten pat","network":"bg:national","short_name":"\u0421\u041e\u041f","sort_rank":381,"kind_detail":"trunk","kind":"major_road","official_name":"\u0420\u0435\u043f\u0443\u0431\u043b\u0438\u043a\u0430\u043d\u0441\u043a\u0438 \u043f\u044a\u0442 II-18","source":"openstreetmap.org","min_zoom":8.0,"name:en":"Ring Road","bus_shield_text":"5","shield_text":"1","ref":"1;6;18"},"arcs":[[562],[563],[564]]},{"type":"MultiLineString","properties":{"bus_network":null,"int_name":"bul. Simeonovsko shose","sort_rank":380,"kind_detail":"primary","kind":"major_road","source":"openstreetmap.org","min_zoom":8.0,"name:en":"bul. Simeonovsko shose","bus_shield_text":"67","landuse_kind":"urban_area"},"arcs":[[565],[566]]},{"type":"MultiLineString","properties":{"source":"openstreetmap.org","kind":"major_road","landuse_kind":"urban_area","sort_rank":380,"kind_detail":"primary","min_zoom":8.0},"arcs":[[567],[568],[569],[570],[571],[572],[573],[574],[575],[576],[577],[578],[579]]},{"type":"MultiLineString","properties":{"bus_network":null,"int_name":"Okolovrasten pat","network":"bg:national","short_name":"\u0421\u041e\u041f","sort_rank":381,"kind_detail":"trunk","kind":"major_road","official_name":"\u0420\u0435\u043f\u0443\u0431\u043b\u0438\u043a\u0430\u043d\u0441\u043a\u0438 \u043f\u044a\u0442 II-18","source":"openstreetmap.org","min_zoom":8.0,"name:en":"Ring Road","bus_shield_text":"63","shield_text":"1","landuse_kind":"urban_area","ref":"1;6;18"},"arcs":[[580],[581]]},{"type":"MultiLineString","properties":{"bus_network":null,"name:en":"bul. Sitnyakovo","sort_rank":380,"kind_detail":"primary","bus_shield_text":"9","kind":"major_road","source":"openstreetmap.org","min_zoom":8.0,"int_name":"bul. Sitnyakovo","old_name":"\u0431\u0443\u043b. \u0425\u0440\u0438\u0441\u0442\u043e \u041a\u0430\u0431\u0430\u043a\u0447\u0438\u0435\u0432","landuse_kind":"urban_area"},"arcs":[[582],[583]]},{"type":"LineString","properties":{"source":"openstreetmap.org","kind":"highway","name:en":"Northern Speed Tangent","sort_rank":383,"kind_detail":"motorway","min_zoom":8.0},"arcs":[584]},{"type":"MultiLineString","properties":{"bus_network":null,"int_name":"bul. Aleksandar Malinov","sort_rank":380,"kind_detail":"primary","kind":"major_road","source":"openstreetmap.org","min_zoom":8.0,"name:en":"bul. Aleksandar Malinov","bus_shield_text":"4","landuse_kind":"urban_area"},"arcs":[[585],[586]]},{"type":"MultiLineString","properties":{"bus_network":null,"name:en":"Evropa Blvd.","network":"bg:national","sort_rank":381,"landuse_kind":"urban_area","kind":"major_road","source":"openstreetmap.org","min_zoom":8.0,"bus_shield_text":"44","shield_text":"8","kind_detail":"trunk","ref":"8"},"arcs":[[587],[588]]},{"type":"LineString","properties":{"kind":"major_road","name:en":"bul. Mihay Eminesku","sort_rank":380,"kind_detail":"primary","bus_network":null,"source":"openstreetmap.org","min_zoom":8.0,"int_name":"bul. Mihay Eminesku","bus_shield_text":"305","landuse_kind":"urban_area","id":15215246},"arcs":[589]},{"type":"LineString","properties":{"kind":"major_road","name:en":"pl. Ruski Pametnik","sort_rank":380,"kind_detail":"primary","bus_network":null,"source":"openstreetmap.org","min_zoom":8.0,"bus_shield_text":"74","landuse_kind":"urban_area","id":259559439},"arcs":[590]},{"type":"LineString","properties":{"kind":"major_road","name:en":"Tsarigradsko shose","network":"bg:national","sort_rank":380,"kind_detail":"primary","source":"openstreetmap.org","min_zoom":8.0,"shield_text":"8","ref":"8"},"arcs":[591]},{"type":"MultiLineString","properties":{"bus_network":null,"int_name":"Okolovrasten pat","network":"bg:national","short_name":"\u0421\u041e\u041f","sort_rank":381,"kind_detail":"trunk","kind":"major_road","official_name":"\u0420\u0435\u043f\u0443\u0431\u043b\u0438\u043a\u0430\u043d\u0441\u043a\u0438 \u043f\u044a\u0442 II-18","source":"openstreetmap.org","min_zoom":8.0,"name:en":"Ring Road","bus_shield_text":"111","shield_text":"1","ref":"1;6;18"},"arcs":[[592],[593],[594],[595]]},{"type":"LineString","properties":{"source":"openstreetmap.org","kind":"major_road","network":"e-road","sort_rank":380,"kind_detail":"primary","min_zoom":8.0,"shield_text":"871"},"arcs":[596]},{"type":"MultiLineString","properties":{"bus_network":null,"int_name":"Todor Kableshkov","sort_rank":380,"kind_detail":"primary","kind":"major_road","source":"openstreetmap.org","min_zoom":8.0,"name:en":"Todor Kableshkov","bus_shield_text":"204","landuse_kind":"urban_area"},"arcs":[[597],[598]]},{"type":"MultiLineString","properties":{"bus_network":null,"int_name":"bul. Aleksandar Malinov","sort_rank":381,"kind_detail":"trunk","kind":"major_road","source":"openstreetmap.org","min_zoom":8.0,"name:en":"bul. Aleksandar Malinov","bus_shield_text":"76","landuse_kind":"urban_area"},"arcs":[[599],[600]]},{"type":"LineString","properties":{"bus_network":null,"int_name":"bul. Lomsko shose","cycleway_left":"lane","sort_rank":380,"kind_detail":"primary","is_bicycle_related":true,"kind":"major_road","bicycle_shield_text":null,"bicycle_network":"lcn","source":"openstreetmap.org","min_zoom":8.0,"name:en":"bul. Lomsko shose","bus_shield_text":"285","landuse_kind":"urban_area","id":259350678},"arcs":[601]},{"type":"LineString","properties":{"kind":"major_road","name:en":"Evropa Blvd.","network":"bg:national","sort_rank":380,"kind_detail":"primary","bus_shield_text":"54","bus_network":null,"source":"openstreetmap.org","min_zoom":8.0,"old_name":"bul. Slivnitsa","shield_text":"8","landuse_kind":"urban_area","id":287751464},"arcs":[602]},{"type":"LineString","properties":{"bus_network":null,"name:en":"Ring Road","network":"bg:national","short_name":"\u0421\u041e\u041f","sort_rank":380,"kind_detail":"primary","kind":"major_road","official_name":"\u0420\u0435\u043f\u0443\u0431\u043b\u0438\u043a\u0430\u043d\u0441\u043a\u0438 \u043f\u044a\u0442 II-18","source":"openstreetmap.org","min_zoom":8.0,"int_name":"Okolovrasten pat","bus_shield_text":"21-22","shield_text":"8","landuse_kind":"urban_area","ref":"8;18"},"arcs":[603]},{"type":"LineString","properties":{"kind":"major_road","name:en":"Junction Daskalovo","network":"e-road","sort_rank":381,"kind_detail":"trunk","source":"openstreetmap.org","min_zoom":8.0,"shield_text":"871","ref":"6"},"arcs":[604]},{"type":"MultiLineString","properties":{"bus_network":null,"network":"bg:national","sort_rank":381,"kind_detail":"trunk","kind":"major_road","source":"openstreetmap.org","min_zoom":8.0,"bus_shield_text":"90","shield_text":"1","ref":"1"},"arcs":[[605],[606]]},{"type":"LineString","properties":{"kind":"major_road","name:en":"Evropa Blvd.","network":"bg:national","sort_rank":381,"kind_detail":"trunk","source":"openstreetmap.org","min_zoom":8.0,"landuse_kind":"urban_area","shield_text":"18","ref":"18","id":356823917},"arcs":[607]},{"type":"LineString","properties":{"bus_network":null,"name:en":"Evropa Blvd.","network":"bg:national","sort_rank":381,"kind_detail":"trunk","old_name":"bul. Slivnitsa","kind":"major_road","source":"openstreetmap.org","min_zoom":8.0,"bus_shield_text":"44","shield_text":"8","landuse_kind":"urban_area","ref":"8","id":30692525},"arcs":[608]},{"type":"MultiLineString","properties":{"kind":"major_road","int_name":"bul. Simeonovsko shose","sort_rank":380,"kind_detail":"primary","source":"openstreetmap.org","min_zoom":8.0,"name:en":"bul. Simeonovsko shose","landuse_kind":"urban_area"},"arcs":[[609],[610],[611]]},{"type":"MultiLineString","properties":{"source":"openstreetmap.org","kind":"major_road","kind_detail":"trunk","sort_rank":381,"landuse_kind":"urban_area","min_zoom":8.0},"arcs":[[612],[613],[614],[615],[616],[617],[618],[619],[620]]},{"type":"LineString","properties":{"kind":"major_road","name:en":"bul. Yanko Sakazov","sort_rank":380,"kind_detail":"primary","bus_network":null,"source":"openstreetmap.org","min_zoom":8.0,"int_name":"bul. Yanko Sakazov","bus_shield_text":"75","landuse_kind":"urban_area","id":96657882},"arcs":[621]},{"type":"MultiLineString","properties":{"kind":"highway","name:en":"Struma Motorway","network":"bg:national","sort_rank":383,"kind_detail":"motorway","source":"openstreetmap.org","min_zoom":8.0,"int_name":"Struma Motorway","all_networks":["bg:national","bg:national","e-road"],"shield_text":"1","ref":"A 3","all_shield_texts":["1","3","79"]},"arcs":[[622],[623]]},{"type":"LineString","properties":{"kind":"major_road","sort_rank":380,"kind_detail":"primary","bus_network":null,"source":"openstreetmap.org","min_zoom":8.0,"bus_shield_text":"85","landuse_kind":"urban_area","id":96629899},"arcs":[624]},{"type":"LineString","properties":{"bus_network":null,"name:en":"Nikola Petkov blvd.","network":"bg:national","short_name":"\u0421\u041e\u041f","sort_rank":381,"kind_detail":"trunk","kind":"major_road","official_name":"\u0420\u0435\u043f\u0443\u0431\u043b\u0438\u043a\u0430\u043d\u0441\u043a\u0438 \u043f\u044a\u0442 II-18","source":"openstreetmap.org","min_zoom":8.0,"int_name":"Nikola Petkov blvd.","bus_shield_text":"111","shield_text":"1","landuse_kind":"urban_area","ref":"1;6;18"},"arcs":[625]},{"type":"MultiLineString","properties":{"bus_network":null,"name:en":"bul. gen. Totleben","sort_rank":380,"kind_detail":"primary","kind":"major_road","source":"openstreetmap.org","min_zoom":8.0,"int_name":"bul. gen. Totleben","bus_shield_text":"74","landuse_kind":"urban_area"},"arcs":[[626],[627]]},{"type":"LineString","properties":{"kind":"major_road","name:en":"Evropa Blvd.","network":"bg:national","sort_rank":380,"kind_detail":"primary","old_name":"bul. Slivnitsa","bus_network":null,"source":"openstreetmap.org","min_zoom":8.0,"bus_shield_text":"44","shield_text":"8","landuse_kind":"urban_area","ref":"8","id":323700592},"arcs":[628]},{"type":"MultiLineString","properties":{"kind":"major_road","network":"bg:national","sort_rank":381,"landuse_kind":"urban_area","source":"openstreetmap.org","min_zoom":8.0,"kind_detail":"trunk","shield_text":"18","ref":"18"},"arcs":[[629],[630],[631],[632],[633]]},{"type":"LineString","properties":{"bus_network":null,"name:en":"Ivan Evstratiev Geshov Blvd.","sort_rank":380,"landuse_kind":"urban_area","kind":"major_road","source":"openstreetmap.org","min_zoom":8.0,"bus_shield_text":"63","kind_detail":"primary"},"arcs":[634]},{"type":"MultiLineString","properties":{"source":"openstreetmap.org","kind":"major_road","name:en":"bul. Nikola Y. Vaptsarov","kind_detail":"trunk","sort_rank":381,"landuse_kind":"urban_area","min_zoom":8.0},"arcs":[[635],[636]]},{"type":"LineString","properties":{"kind":"major_road","name:en":"Junction Daskalovo","network":"bg:national","sort_rank":381,"kind_detail":"trunk","source":"openstreetmap.org","min_zoom":8.0,"landuse_kind":"urban_area","shield_text":"1","ref":"1","id":214104220},"arcs":[637]},{"type":"MultiLineString","properties":{"bus_network":null,"name:en":"Bulgaria Blvd.","sort_rank":380,"kind_detail":"primary","kind":"major_road","source":"openstreetmap.org","min_zoom":8.0,"bus_shield_text":"64","landuse_kind":"urban_area"},"arcs":[[638],[639]]},{"type":"MultiLineString","properties":{"kind":"major_road","int_name":"bul. General Danail Nikolaev","sort_rank":380,"kind_detail":"primary","source":"openstreetmap.org","min_zoom":8.0,"name:en":"bul. General Danail Nikolaev","landuse_kind":"urban_area"},"arcs":[[640],[641]]},{"type":"MultiLineString","properties":{"bus_network":null,"int_name":"bul. Vladimir Vazov","sort_rank":380,"landuse_kind":"urban_area","kind":"major_road","source":"openstreetmap.org","min_zoom":8.0,"name:en":"bul. Vladimir Vazov","bus_shield_text":"78","kind_detail":"primary"},"arcs":[[642],[643]]},{"type":"LineString","properties":{"bus_network":null,"name:en":"Tsar Boris III Blvd.","network":"bg:national","sort_rank":381,"kind_detail":"trunk","kind":"major_road","source":"openstreetmap.org","min_zoom":8.0,"bus_shield_text":"59","shield_text":"1","ref":"1;6"},"arcs":[644]},{"type":"MultiLineString","properties":{"bus_network":null,"name:en":"bul. Sitnyakovo","sort_rank":380,"kind_detail":"primary","bus_shield_text":"72","kind":"major_road","source":"openstreetmap.org","min_zoom":8.0,"int_name":"bul. Sitnyakovo","old_name":"\u0431\u0443\u043b. \u0425\u0440\u0438\u0441\u0442\u043e \u041a\u0430\u0431\u0430\u043a\u0447\u0438\u0435\u0432","landuse_kind":"urban_area"},"arcs":[[645],[646]]},{"type":"MultiLineString","properties":{"bus_network":null,"int_name":"bul. Mihay Eminesku","sort_rank":381,"landuse_kind":"urban_area","kind":"major_road","source":"openstreetmap.org","min_zoom":8.0,"name:en":"bul. Mihay Eminesku","bus_shield_text":"120","kind_detail":"trunk"},"arcs":[[647],[648]]},{"type":"MultiLineString","properties":{"kind":"major_road","name:en":"bul. Aleksandar Malinov","sort_rank":380,"kind_detail":"primary","source":"openstreetmap.org","min_zoom":8.0,"int_name":"bul. Aleksandar Malinov","landuse_kind":"urban_area"},"arcs":[[649],[650]]},{"type":"LineString","properties":{"bus_network":null,"int_name":"bul. Nikola Y. Vaptsarov","sort_rank":380,"kind_detail":"primary","kind":"major_road","source":"openstreetmap.org","min_zoom":8.0,"name:en":"bul. Nikola Y. Vaptsarov","bus_shield_text":"88","landuse_kind":"urban_area"},"arcs":[651]},{"type":"MultiLineString","properties":{"bus_network":null,"int_name":"bul. Knyaz Aleksandar Dondukov","sort_rank":380,"kind_detail":"primary","kind":"major_road","source":"openstreetmap.org","min_zoom":8.0,"name:en":"bul. Knyaz Aleksandar Dondukov","bus_shield_text":"1","landuse_kind":"urban_area"},"arcs":[[652],[653],[654]]},{"type":"LineString","properties":{"kind":"major_road","name:en":"bul. Aleksandar Malinov","sort_rank":381,"kind_detail":"trunk","bus_network":null,"source":"openstreetmap.org","min_zoom":8.0,"int_name":"bul. Aleksandar Malinov","bus_shield_text":"84","landuse_kind":"urban_area","id":282470116},"arcs":[655]},{"type":"LineString","properties":{"kind":"major_road","name:en":"Christopher Columbus Blvd.","sort_rank":381,"kind_detail":"trunk","bus_network":null,"source":"openstreetmap.org","min_zoom":8.0,"int_name":"bul. Hristofor Kolumb","bus_shield_text":"76","landuse_kind":"urban_area","id":282470119},"arcs":[656]},{"type":"MultiLineString","properties":{"bus_network":null,"int_name":"bul. Botevgradsko Shose","network":"e-road","sort_rank":381,"kind_detail":"trunk","kind":"major_road","source":"openstreetmap.org","min_zoom":8.0,"name:en":"Botevgradsko Shose blvd.","bus_shield_text":"12","shield_text":"79"},"arcs":[[657],[658]]},{"type":"LineString","properties":{"bus_network":null,"name:en":"Evropa Blvd.","network":"bg:national","sort_rank":381,"landuse_kind":"urban_area","bus_shield_text":"44","kind":"major_road","source":"openstreetmap.org","min_zoom":8.0,"old_name":"Bul. Slivnitsa","shield_text":"8","kind_detail":"trunk","ref":"8"},"arcs":[659]},{"type":"MultiLineString","properties":{"kind":"major_road","int_name":"Okolovrasten pat","network":"bg:national","short_name":"\u0421\u041e\u041f","sort_rank":381,"kind_detail":"trunk","official_name":"\u0420\u0435\u043f\u0443\u0431\u043b\u0438\u043a\u0430\u043d\u0441\u043a\u0438 \u043f\u044a\u0442 II-18","source":"openstreetmap.org","min_zoom":8.0,"name:en":"Ring Road","shield_text":"1","ref":"1;6;18"},"arcs":[[660],[661],[662],[663],[664]]},{"type":"MultiLineString","properties":{"bus_network":null,"name:en":"Tsarigradsko Shose blvd.","sort_rank":381,"kind_detail":"trunk","old_name":"\u0431\u0443\u043b. \u041b\u0435\u043d\u0438\u043d","kind":"major_road","source":"openstreetmap.org","min_zoom":8.0,"bus_shield_text":"76","landuse_kind":"urban_area"},"arcs":[[665],[666]]},{"type":"MultiLineString","properties":{"bus_network":null,"network":"bg:national","sort_rank":381,"kind_detail":"trunk","kind":"major_road","source":"openstreetmap.org","min_zoom":8.0,"bus_shield_text":"59","shield_text":"1","ref":"1;6"},"arcs":[[667],[668],[669]]},{"type":"MultiLineString","properties":{"bus_network":null,"int_name":"bul. Aleksandar Malinov","sort_rank":380,"kind_detail":"primary","kind":"major_road","source":"openstreetmap.org","min_zoom":8.0,"name:en":"bul. Aleksandar Malinov","bus_shield_text":"76"},"arcs":[[670],[671]]},{"type":"MultiLineString","properties":{"bus_network":null,"int_name":"bul. Tsaritsa Yoana","sort_rank":380,"kind_detail":"primary","kind":"major_road","source":"openstreetmap.org","min_zoom":8.0,"name:en":"bul. Tsaritsa Yoana","bus_shield_text":"108","landuse_kind":"urban_area"},"arcs":[[672],[673],[674]]},{"type":"LineString","properties":{"source":"openstreetmap.org","kind":"major_road","name:en":"Junction Daskalovo","sort_rank":381,"kind_detail":"trunk","min_zoom":8.0,"id":231353050},"arcs":[675]},{"type":"MultiLineString","properties":{"bus_network":null,"int_name":"bul. General Danail Nikolaev","sort_rank":380,"kind_detail":"primary","kind":"major_road","source":"openstreetmap.org","min_zoom":8.0,"name:en":"bul. General Danail Nikolaev","bus_shield_text":"11","landuse_kind":"urban_area"},"arcs":[[676],[677]]}]},"earth":{"type":"GeometryCollection","geometries":[{"type":"Polygon","properties":{"sort_rank":10,"source":"naturalearthdata.com","kind":"earth","min_zoom":0.0,"id":4741},"arcs":[[678]]}]},"landuse":{"type":"GeometryCollection","geometries":[{"type":"MultiPolygon","properties":{"source":"naturalearthdata.com","kind":"urban_area","name":"","area":1959797502,"sort_rank":11,"min_zoom":4.0},"arcs":[[[679]],[[680]],[[681]],[[682]],[[683]],[[684]]]},{"type":"MultiPolygon","properties":{"kind":"protected_area","protect_class":"6","area":77458528,"sort_rank":17,"source":"openstreetmap.org","min_zoom":8.0,"tier":2,"osm_relation":true},"arcs":[[[685]]]},{"type":"MultiPolygon","properties":{"kind":"nature_reserve","protect_class":"1","area":916838671,"sort_rank":23,"source":"openstreetmap.org","min_zoom":8.0,"tier":2,"osm_relation":true},"arcs":[[[686]],[[687]],[[688]],[[689]],[[690]],[[691]],[[692]]]},{"type":"MultiPolygon","properties":{"source":"openstreetmap.org","kind":"residential","tier":2,"area":91371064,"sort_rank":20,"min_zoom":8.0},"arcs":[[[693]],[[694]]]},{"type":"Polygon","properties":{"kind":"nature_reserve","protect_class":"1","area":155402000,"sort_rank":23,"source":"openstreetmap.org","min_zoom":6.0,"tier":2,"id":-4264964,"osm_relation":true},"arcs":[[695]]},{"type":"Polygon","properties":{"kind":"nature_reserve","protect_class":"5","area":468747008,"sort_rank":23,"source":"openstreetmap.org","min_zoom":6.0,"tier":2,"id":-4271939,"osm_relation":true},"arcs":[[696]]},{"type":"MultiPolygon","properties":{"source":"openstreetmap.org","kind":"park","tier":2,"area":4721915508,"sort_rank":24,"min_zoom":4.0,"osm_relation":true},"arcs":[[[697]]]}]}},"type":"Topology","transform":{"translate":[22.5,42.0329743324],"scale":[0.0003433228,0.0002529086]},"arcs":[[[0,1437],[61,5],[6,60],[36,33],[25,167],[45,67],[-35,107],[-138,109]],[[0,2789],[0,18]],[[0,3229],[46,28],[14,75],[43,26],[117,-77],[-8,54],[33,62],[36,9],[67,7],[61,-72],[59,16],[51,-65],[56,74],[23,-19],[25,29],[90,-3],[101,171],[-32,72],[40,10],[4,124],[192,93],[38,65],[104,59],[50,129]],[[0,645],[48,-151],[-15,-17],[163,-145],[66,-26],[28,-49],[89,-17],[143,-119],[110,18],[65,-92],[119,-31],[53,35],[44,-51]],[[30,484],[-30,-24]],[[913,0],[-44,51],[-53,-35],[-119,31],[-66,92],[-117,-15],[-135,116],[-89,17],[-28,49],[-66,26],[-166,152]],[[30,484],[18,10],[-48,151]],[[0,1437],[61,5],[6,60],[36,33],[25,167],[45,67],[-35,107],[-138,109]],[[0,2789],[0,18]],[[0,3229],[46,28],[14,75],[43,26],[117,-77],[-8,54],[33,62],[36,9],[67,7],[61,-72],[59,16],[51,-65],[56,74],[23,-19],[25,29],[90,-3],[101,171],[-32,72],[40,10],[4,124],[192,93],[38,65],[104,59],[50,129]],[[779,3871],[-100,15],[-114,162],[-65,48]],[[977,3817],[-128,68],[-60,-11]],[[2543,2356],[11,85],[-127,135],[2,34],[-169,60],[-59,46],[62,85]],[[2852,2859],[-176,52],[-78,66],[-88,-35],[-105,-115]],[[3652,2703],[-67,-13],[-48,19],[-150,-84],[-111,46],[-173,26],[-38,42]],[[3764,2611],[0,1]],[[4096,2716],[-73,1],[-58,-31],[-30,-90],[-127,-3]],[[2668,2592],[-81,-170],[-86,66],[-75,91],[3,31],[-35,19]],[[2394,2629],[-134,41],[-58,45],[61,86],[26,2],[107,-127],[-2,-47]],[[2394,2629],[-16,-156]],[[1458,1355],[-1,-46],[27,-11],[60,-118],[17,-162],[31,-55],[117,-89],[40,5],[15,38]],[[2385,2758],[-7,-18],[-16,-26],[-1,-3],[0,-1],[0,-3],[2,-3],[3,-3],[4,-2]],[[2371,2699],[14,59]],[[2533,4096],[-22,-87],[-6,-9],[-10,-4],[-3,-2],[-3,-3],[-9,-35],[-2,-26],[3,-10],[-3,-16],[0,-3],[6,-9],[15,-7],[2,-10],[-23,-15],[-5,-11],[17,-68],[21,-41],[-50,-55],[-3,-9],[7,-8],[21,-6],[8,-20],[2,-3],[2,-2],[3,-2],[41,-8],[8,-23],[11,-9],[-6,-54],[10,-17],[13,-13],[-9,-23],[18,-59],[-7,-55],[1,-4],[4,-8],[0,-4],[-4,-7],[-3,-2],[-7,-1],[-3,-1],[-2,-1],[-1,-1],[-3,-4],[-34,-90],[13,-37],[-6,-7],[-11,-5],[-3,-2],[-6,-8],[-7,-15],[-14,-8],[-2,-1],[-1,-1],[-2,-3],[0,-2],[0,-3],[1,-2],[2,-3],[3,-2],[5,-2],[4,-3],[4,-9],[2,-3],[5,-6],[1,-1],[0,-7],[-3,-6],[-24,-15],[-4,-3],[-1,-2],[-1,-3],[-5,-21],[-11,-18],[-12,-12],[-2,-4],[-2,-3],[-66,-276]],[[2408,2838],[43,196],[18,21],[9,16],[13,30]],[[2516,3119],[1,2],[0,3],[-1,4],[-13,20],[-3,2],[-7,3],[-2,3],[-2,8],[20,13],[12,23],[14,7],[4,4],[3,5],[-11,37],[54,102],[1,7],[-6,12],[6,30]],[[2586,3404],[1,6],[1,6],[-1,13],[-1,4]],[[2586,3433],[-8,80],[-3,4],[-9,8],[-11,16],[1,7],[4,6],[1,4],[1,9],[0,2],[-2,9],[2,12],[-1,5],[-2,2],[-8,7],[-5,17],[-2,4],[-2,2],[-2,1],[-3,1],[-38,7],[-4,5],[-2,12],[-2,4],[-4,5],[-4,3],[-3,1],[-14,1],[-8,9],[3,9],[6,5],[8,9],[10,7],[24,28],[1,4],[1,2],[0,14],[0,3],[-1,1],[0,1],[-2,3],[-13,11],[-5,9],[3,14],[0,7],[-1,4],[-19,42],[5,11],[13,5],[8,5],[2,4],[0,1],[1,3],[0,3],[-1,3],[-2,2],[-2,2],[-2,1],[-11,3],[-6,9],[0,3],[2,8],[1,8],[-2,12],[3,10],[-2,14],[1,3],[8,12],[2,3],[0,3],[0,2],[-2,7],[2,7],[4,3],[7,2],[3,2],[1,1],[3,4],[2,4],[25,74],[0,3],[0,2],[-3,8]],[[2586,3404],[2,14],[-1,10],[-1,5]],[[0,921],[0,37]],[[0,1082],[0,34]],[[0,1137],[97,87],[209,43],[107,-53],[52,-108],[53,-50],[-9,-60],[93,45],[88,122],[-87,145],[-6,122],[-41,92],[61,119],[-8,58],[93,35],[27,49],[53,-33],[103,71],[90,-8],[201,-141],[109,168],[30,169]],[[1669,2260],[-47,0],[-37,36],[-71,283],[24,53],[-11,250],[48,17],[36,84],[32,18],[2,92],[26,1],[19,-48],[51,43],[49,6],[370,-230]],[[2668,2592],[-81,-170],[-86,66],[-75,91],[3,31],[-35,19]],[[2394,2629],[-134,41],[-58,45],[61,86],[26,2],[107,-127],[-2,-47]],[[2394,2629],[-16,-156]],[[1319,1974],[-25,118],[-17,40],[-1,8],[3,8],[6,6],[3,2],[21,4],[8,7],[-15,42],[26,17]],[[1328,2226],[100,20]],[[1328,2226],[-26,-17],[16,-31],[1,-3],[0,-3],[-1,-3],[-1,-3],[-4,-4],[-4,-2],[-9,-3],[-11,-1],[-5,-3],[-8,-13],[2,-8],[13,-30],[3,-10],[26,-106],[1,-5],[-2,-7]],[[1319,1974],[-23,-126],[285,-253]],[[1529,2227],[-47,2]],[[2294,2685],[-44,-20],[-28,-51],[-70,-11],[-1,-111],[-95,-68],[-47,-84],[-89,-82],[-350,5],[-33,-28]],[[1562,173],[-24,-51],[33,-121],[2,-1]],[[1572,261],[-8,255],[201,403],[66,35],[2,78],[-83,97],[55,209],[-36,57]],[[2387,2688],[-38,18],[-55,-21]],[[2294,2685],[55,21],[38,-18]],[[1889,2661],[144,90],[49,106],[44,6]],[[2126,2863],[24,4]],[[2150,2867],[1,0]],[[2151,2867],[2,0]],[[2153,2867],[1,0]],[[2154,2867],[1,0]],[[2155,2867],[1,0]],[[2156,2867],[1,-1]],[[2157,2866],[1,0]],[[2158,2866],[1,-1]],[[2159,2865],[1,0]],[[2160,2865],[1,-1]],[[2161,2864],[1,-2]],[[2371,2698],[-7,4]],[[2364,2702],[-20,13],[-102,55],[-39,47],[-42,47]],[[2162,2862],[43,-47],[31,-39],[2,-3],[4,-3],[5,-3],[27,-16],[30,-18],[14,-6],[8,-3],[18,-9],[11,-8],[9,-5]],[[2364,2702],[27,-14]],[[1896,2661],[0,-1],[2,1],[-2,0]],[[2168,2855],[1,-1],[-1,0],[0,1]],[[2225,2789],[0,-1],[0,1]],[[2543,2356],[11,85],[-127,135],[2,34],[-169,60],[-59,46],[62,85]],[[2400,2628],[1,0]],[[2414,2590],[-1,1]],[[2270,2707],[-1,0]],[[2767,2665],[-1,5]],[[2127,2676],[6,-88]],[[2337,2556],[0,-1]],[[2338,2555],[0,2]],[[2728,2671],[6,0]],[[2734,2671],[-6,1]],[[2269,2706],[21,-15]],[[2328,2666],[-58,41]],[[2303,2683],[25,-17]],[[2542,2640],[-32,-8]],[[2511,2632],[38,9]],[[2275,2900],[54,32],[-54,-32]],[[2766,2670],[-11,86],[11,-86]],[[2768,2656],[-1,9]],[[2481,2586],[-7,-8]],[[2474,2578],[8,8]],[[2431,2632],[-30,-4]],[[2433,2623],[0,2]],[[2114,2833],[-54,65]],[[2366,2744],[-7,-36]],[[3748,3529],[-25,9]],[[2401,2626],[-7,2]],[[2177,2774],[1,-1]],[[2161,2742],[1,0]],[[2332,2576],[5,-20]],[[2338,2557],[-4,19]],[[2531,2515],[-3,3]],[[2178,2777],[-3,1]],[[2953,2339],[103,-73],[51,-26],[239,-68],[54,-83],[181,-103],[183,-209],[112,-75],[156,-363],[64,-47]],[[4096,1293],[-64,46],[-101,271],[-54,92],[-113,75],[-183,210],[-11,7],[-29,24],[-52,39],[-3,2],[-86,31],[-54,82],[-78,38],[-160,30],[-5,5],[-29,16],[-18,5],[-88,68],[-12,5]],[[2220,2743],[-34,26]],[[2329,2585],[-59,-44]],[[2438,2601],[-8,9]],[[2438,2601],[1,0]],[[2439,2601],[-1,0]],[[2357,2721],[-9,9]],[[2121,2822],[-4,6]],[[2439,2505],[-4,24]],[[1945,2966],[-4,3]],[[2766,2668],[-2,1]],[[2824,2664],[39,-4]],[[2863,2660],[-39,4]],[[2267,2708],[2,-1]],[[2253,2468],[-3,2]],[[2276,2457],[29,-16]],[[2305,2441],[-18,10]],[[2378,2400],[34,-19]],[[2413,2381],[-35,20]],[[2451,2548],[1,0]],[[450,949],[110,27]],[[560,976],[2,1]],[[562,977],[21,14]],[[583,991],[2,1]],[[584,992],[-1,-1]],[[636,1035],[-51,-42]],[[585,992],[51,42]],[[2970,2336],[0,1]],[[585,993],[-1,-1]],[[584,992],[1,0]],[[585,992],[0,1]],[[2466,2623],[-1,-9]],[[2466,2614],[1,8]],[[2428,2372],[1,9]],[[2185,2789],[-6,-11]],[[2180,2776],[7,13]],[[2740,2671],[-6,0]],[[2734,2671],[22,-2]],[[2612,2428],[-14,16]],[[2600,2441],[11,-13]],[[2468,2870],[-31,-33]],[[2437,2836],[31,33]],[[1585,521],[-19,-386],[34,-56]],[[1600,79],[1,-1]],[[1601,78],[-1,1]],[[1601,76],[0,-1]],[[1601,75],[0,1]],[[1601,75],[1,-29]],[[1602,46],[20,-46]],[[1628,1],[-26,45]],[[1613,588],[118,278]],[[1804,1642],[34,-154],[-101,-284],[4,-75],[67,-118]],[[3079,2744],[-6,-2]],[[3218,2769],[49,20],[29,57],[70,-22],[136,31],[82,93],[200,4],[-17,42],[60,42],[-75,115],[-78,251],[58,58]],[[3719,3544],[-71,164],[-185,185],[-65,32],[48,171]],[[3735,3470],[-13,66]],[[3732,3460],[3,10]],[[1601,77],[-1,0],[0,-1],[1,0],[0,1]],[[2435,2529],[-28,-19]],[[2407,2509],[8,4],[15,10],[5,6]],[[2876,2659],[89,2]],[[2967,2662],[-62,4],[-8,0],[-21,-6]],[[2176,2776],[-2,2]],[[2425,2656],[0,2]],[[2259,2840],[25,-32]],[[2184,2771],[-4,2]],[[2391,2657],[16,-2]],[[2407,2657],[-16,2]],[[2564,2679],[-43,-7],[-45,-27]],[[2477,2645],[110,32]],[[1814,2243],[-1,-1]],[[2186,2530],[3,-4]],[[719,3899],[1,-1]],[[720,3899],[-1,0]],[[2469,2572],[-11,-17]],[[2458,2555],[5,5],[6,12]],[[2466,2622],[1,0]],[[2348,2730],[-2,2]],[[2347,2730],[10,-9]],[[2179,2774],[1,1]],[[2250,2526],[-18,-14]],[[2525,2514],[-27,-21]],[[2498,2492],[14,8],[13,11],[3,1]],[[3847,3390],[97,26],[42,37],[110,26]],[[4096,3480],[-110,-26],[-43,-38],[-95,-25]],[[2360,2720],[0,-4]],[[2361,2716],[3,2]],[[2774,2429],[-13,-57]],[[2765,2388],[10,43]],[[2766,2670],[10,-83]],[[2777,2586],[-9,70]],[[1779,1659],[25,-17]],[[2386,2630],[-27,7]],[[2386,2630],[7,-2]],[[2429,2381],[-1,-9]],[[1473,2222],[-73,-5],[-61,-36],[-5,-51]],[[1334,2130],[6,50],[61,37],[72,5]],[[1813,2243],[0,-1]],[[2761,2373],[192,-34]],[[2956,2339],[-180,32]],[[2432,2624],[1,-2]],[[2528,2518],[0,-6]],[[1821,2241],[4,2]],[[1862,2249],[14,1]],[[1975,2317],[-56,-63],[-43,-4]],[[1876,2250],[43,3],[56,64]],[[2027,2384],[-52,-67]],[[2803,2669],[21,-5]],[[2439,2600],[1,-1]],[[2440,2600],[-1,1]],[[2624,2583],[-2,-9]],[[2622,2574],[3,9]],[[2170,2780],[2,-1]],[[2284,2808],[4,-4]],[[2288,2804],[4,-6]],[[2293,2798],[-5,6]],[[2294,2796],[16,-19],[-16,20]],[[1818,994],[0,-61],[-35,-3],[-16,-16]],[[1767,914],[-32,-31]],[[1736,885],[31,29]],[[1767,914],[16,16],[15,-1],[20,3],[6,8],[-1,43]],[[2393,2582],[4,1]],[[2414,2590],[5,6]],[[2433,2625],[-2,7]],[[2573,3015],[-53,28],[-69,-38]],[[2663,2961],[-37,22]],[[2389,2571],[-52,-15]],[[2338,2555],[49,12]],[[2587,2477],[-10,-9]],[[2579,2469],[5,4]],[[2595,2485],[0,1]],[[2243,2435],[-12,3]],[[2750,2375],[9,-2]],[[2543,2406],[-1,-3]],[[2543,2382],[0,-4]],[[2543,2389],[0,16]],[[2543,2378],[0,4]],[[2564,2454],[-8,-17]],[[2558,2439],[7,15]],[[2619,2672],[-43,7]],[[2587,2677],[31,-5]],[[1613,588],[-28,-67]],[[3863,3402],[-37,104],[-78,23],[77,-23],[38,-104]],[[2331,2586],[-2,-1]],[[2701,2384],[49,-9]],[[2761,2374],[-60,10]],[[2776,2371],[-15,3]],[[2432,2625],[0,-1]],[[2594,3003],[-21,12]],[[2387,2567],[4,2]],[[2391,2572],[-2,-1]],[[3716,3434],[48,21]],[[2766,2668],[12,-1]],[[3848,3391],[-54,-49],[-1,-2]],[[3793,3340],[-6,-16]],[[3787,3324],[-20,-53],[-11,-26],[26,-154],[38,-60],[-42,-37],[-5,-49],[-6,-5]],[[3767,2940],[-2,-2],[-40,1]],[[3725,2939],[-8,1],[-1,0],[-149,3],[-66,-90],[-110,-21],[-26,-48],[-102,4],[-171,-64],[-40,7],[-95,4],[-161,-67]],[[2803,2669],[155,65],[97,-4],[21,-6],[16,-1],[127,44],[44,21],[22,-9],[80,4],[27,49],[55,-2],[54,23],[66,90],[150,-4],[8,0]],[[3725,2939],[42,1]],[[3767,2940],[2,0],[5,5],[6,50],[26,13],[10,9],[5,14],[-1,9],[-6,12],[-31,39],[-5,107],[-21,47],[11,24],[19,55]],[[3787,3324],[6,15],[0,1]],[[3793,3340],[54,50]],[[1461,111],[62,31],[-3,35]],[[2476,2645],[-22,-10],[23,10]],[[2317,2606],[5,-9]],[[2322,2598],[-4,6]],[[2332,2578],[0,-2]],[[2362,2718],[2,0]],[[2373,2713],[-7,4]],[[2369,2715],[5,-3]],[[2425,2683],[5,-5]],[[1520,177],[-19,59],[39,81],[-72,151]],[[1504,71],[52,-59],[0,-12]],[[2636,2331],[46,-2]],[[2132,2697],[-4,-3]],[[2487,2340],[4,0]],[[2490,2340],[-2,1]],[[2557,2335],[0,-1]],[[2134,2698],[3,6]],[[2429,2592],[-38,-20]],[[2391,2569],[69,39]],[[2361,2608],[-1,0]],[[2465,2614],[-36,-22]],[[2460,2608],[6,6]],[[2275,2900],[-30,-17],[-9,-8],[-6,-10],[-43,-74]],[[2188,2792],[87,108]],[[2431,2632],[10,1]],[[1334,1998],[-6,-43]],[[1334,1998],[10,102]],[[1344,2099],[-10,-101]],[[2213,2500],[-57,-26]],[[2133,2588],[9,-7]],[[2186,2530],[-42,50]],[[2391,2969],[-24,-15]],[[2177,2775],[0,-1]],[[2178,2773],[1,1]],[[2180,2775],[0,1]],[[2439,2601],[0,-1]],[[2439,2601]],[[2440,2599]],[[2440,2600]],[[1820,2244],[-5,1]],[[2543,2639],[-1,1]],[[1473,2222],[57,3],[0,1],[1,1]],[[1531,2227],[25,28],[4,4],[23,-4]],[[1583,2255],[1,0],[11,-1],[168,-2],[50,-9]],[[1815,2245],[-52,7],[-179,4],[-1,-1]],[[1583,2255],[-52,-28]],[[1531,2227],[-1,-1],[-1,-1],[-56,-3]],[[2346,2732],[0,-1]],[[2444,2540],[-4,-5]],[[2483,2342],[3,-1]],[[2486,2342],[-3,1]],[[2430,2678],[-11,8]],[[2419,2686],[-18,13],[-28,14]],[[2374,2712],[8,-4],[37,-22]],[[2419,2686],[6,-3]],[[3723,3538],[-4,6]],[[2540,2503],[60,-62]],[[2598,2444],[-58,59]],[[2611,2428],[3,-3]],[[2614,2425],[-2,3]],[[3042,2730],[31,12]],[[2458,2555],[-13,-15]],[[2445,2540],[13,15]],[[2360,2608],[1,-2]],[[2362,2606],[-1,2]],[[2215,2703],[40,-30]],[[2256,2674],[-41,30]],[[2270,2666],[10,-3]],[[2286,2661],[-16,6]],[[2213,2500],[32,-29]],[[2489,2626],[2,-10]],[[2491,2615],[-2,11]],[[2440,2599],[79,-76]],[[2519,2524],[-79,76]],[[2241,2865],[18,-25]],[[2583,2650],[-41,-10]],[[2549,2641],[34,8]],[[2684,2675],[-59,-14]],[[2640,2663],[46,11]],[[2353,2881],[12,-5],[69,-21],[66,-26],[64,-81],[35,-28],[82,-6],[48,-35]],[[2730,2678],[-49,37],[-82,6],[-98,109],[-67,26],[-81,26]],[[2187,2791],[-53,-92]],[[2137,2704],[51,88]],[[2576,2679],[-12,0]],[[2234,2875],[-2,-2],[3,-2],[1,2],[-2,2]],[[2441,2634],[-10,-2]],[[2493,2624],[18,8]],[[2510,2632],[-16,-7]],[[2755,2349],[0,-2]],[[2180,2776],[-2,1]],[[2182,2772],[2,-2]],[[2185,2771],[-2,1]],[[2528,2512],[3,3]],[[2347,2943],[-18,-11]],[[2451,3005],[-60,-36]],[[2734,2915],[-71,46]],[[2755,2756],[-18,142]],[[2124,2817],[5,-5]],[[2184,2770],[1,1]],[[2280,2663],[6,-2]],[[2432,2624],[1,-1]],[[2433,2625],[-1,0]],[[2358,2632],[2,-24]],[[2361,2608],[-2,23]],[[2371,2596],[8,-9]],[[1735,883],[1,2]],[[1823,983],[-15,27],[10,-16]],[[1941,2969],[-264,260],[-103,37]],[[2060,2898],[-115,68]],[[2444,2540],[-9,-11]],[[2435,2529],[10,11]],[[2230,2438],[12,-4]],[[2324,2430],[-7,5]],[[2467,2622],[25,2]],[[2489,2626],[-22,-3]],[[2393,2628],[-7,2]],[[2737,2898],[-3,17]],[[2159,2745],[-1,-3]],[[2160,2742],[1,0]],[[2162,2742],[-1,2]],[[3739,3482],[3,-2]],[[3742,3480],[-3,6]],[[3742,3480],[31,-20],[108,25],[155,-10]],[[4059,3471],[-23,4]],[[4096,3467],[-37,4]],[[0,797],[233,127],[16,-15],[197,39],[46,73],[121,38],[22,-16],[2,-2],[1,-3],[1,-2]],[[639,1036],[0,-2]],[[636,1034],[3,2]],[[639,1036],[42,36],[15,12]],[[696,1084],[-53,-44]],[[1169,1670],[-127,-230],[-49,-8],[-61,-56],[-18,18],[-23,-40],[21,-36],[-43,3],[-2,-77],[-33,-15],[-15,-47],[-75,-31],[-48,-67]],[[1328,1955],[-158,-283]],[[1334,2130],[10,-31]],[[1344,2100],[-10,30]],[[2975,2660],[418,-36],[339,102],[68,45],[156,-80],[56,14],[35,-33],[49,-11]],[[2242,2434],[-1,1]],[[1782,1661],[26,-208],[-73,-204],[-4,-177],[-74,-149],[37,-48],[7,-73],[-90,-151],[-58,-199],[-1,-287],[34,-56],[-6,-109]],[[1580,0],[6,110],[-34,55],[2,287],[58,199],[41,56],[27,39],[22,56],[-8,74],[-37,47],[49,76],[25,73],[2,13],[3,164],[49,105],[23,99],[-24,217]],[[2498,2493],[-1,0]],[[2294,2500],[-25,-56]],[[2270,2444],[16,21],[9,34]],[[2397,2583],[17,7]],[[2419,2596],[14,27]],[[2108,2450],[48,24]],[[2199,2515],[14,-15]],[[2341,2641],[19,-4]],[[2359,2637],[-16,4]],[[2346,2732],[-26,33]],[[3218,2769],[-139,-25]],[[3019,2720],[-34,-25]],[[2161,2742],[1,0]],[[2215,2704],[-17,12]],[[2199,2715],[16,-12]],[[2268,2708],[-48,35]],[[2263,2923],[9,-4]],[[2272,2919],[-7,4]],[[2425,2658],[6,-26],[-4,24]],[[2432,2629],[0,-4]],[[2315,2612],[2,-6]],[[2318,2604],[-3,8]],[[2189,2526],[10,-11]],[[2129,2812],[-8,10]],[[2316,2616],[-1,-4]],[[2315,2612],[1,4]],[[2322,2597],[12,-30]],[[2335,2567],[-13,31]],[[2331,2584],[1,-6]],[[2576,2467],[-7,-5]],[[2585,2333],[51,-2]],[[2682,2329],[73,18]],[[2343,2641],[-57,20]],[[2286,2661],[34,-15],[21,-5]],[[2360,2637],[26,-7]],[[2349,2599],[-15,-10]],[[2359,2607],[0,-2]],[[2824,2664],[-28,4]],[[2863,2660],[13,-1]],[[2876,2660],[-13,0]],[[2796,2668],[-13,-1],[-2,0]],[[2781,2667],[-13,1]],[[2778,2667],[3,0]],[[2781,2667],[22,2]],[[2656,2395],[45,-11]],[[2701,2384],[-45,12]],[[2481,2632],[-13,3]],[[2468,2634],[13,-3]],[[971,3814],[27,-15]],[[998,3799],[-25,16]],[[998,3799],[24,-34]],[[1021,3764],[-4,-29],[162,-79],[1,-69],[77,-41]],[[1259,3545],[49,-104],[132,-81],[61,-8],[73,-86]],[[2953,2339],[20,-3]],[[2973,2336],[-17,3]],[[3965,1134],[53,65],[17,121],[-60,146],[-107,93],[2,39],[-346,483],[-42,98],[-509,157]],[[4096,894],[-11,11],[4,26],[-103,133]],[[2414,2590],[-43,6]],[[2625,2661],[-42,-11]],[[2583,2649],[57,14]],[[2346,2731],[1,-1]],[[2728,2672],[-44,3]],[[2686,2674],[42,-3]],[[2614,2425],[42,-30]],[[2656,2396],[-42,29]],[[2428,2657],[-1,2]],[[2494,2625],[-5,1]],[[2492,2624],[1,0]],[[2269,2707],[0,-1]],[[2106,2449],[2,1]],[[1837,2440],[0,-26],[-14,-31],[-3,-14],[4,-14],[39,-38],[-35,-52],[-5,-9],[-6,-13]],[[1817,2243],[46,74],[-42,52],[16,45],[0,26]],[[2134,2699],[-42,-25],[-70,-63],[-80,-5],[-21,-10]],[[1921,2596],[21,10],[71,3],[9,2],[30,19],[40,44],[31,11],[7,7],[4,6]],[[2129,2812],[37,-28]],[[684,3911],[11,-3]],[[695,3908],[-11,3]],[[774,3893],[1,2]],[[858,3914],[1,-2]],[[882,3868],[1,2]],[[919,3830],[-3,0]],[[2290,2911],[-18,8]],[[2272,2919],[18,-9]],[[1022,3765],[-1,-1]],[[1257,3546],[2,-1]],[[1629,0],[-1,1]],[[1734,877],[-3,-11]],[[1808,1011],[0,-1]],[[2458,2555],[-6,-6]],[[2452,2548],[1,0]],[[2453,2549],[5,6]],[[2759,2373],[2,0]],[[2242,2434],[28,10]],[[2269,2444],[-26,-9]],[[2305,2441],[73,-41]],[[2378,2401],[-73,40]],[[2467,2622],[0,1]],[[1813,2242],[0,-2]],[[1818,2238],[3,3]],[[2531,2515],[15,18],[-18,-15]],[[2161,2744],[-2,1]],[[2584,2473],[34,82]],[[2587,2477],[-1,-1]],[[2622,2574]],[[2393,2628],[1,0]],[[3250,2780],[5,5]],[[3257,2784],[-4,-1]],[[1820,2243],[0,1]],[[1833,2247],[-13,-3]],[[1825,2243],[8,4]],[[1833,2247],[29,2]],[[2360,2640],[-2,-8]],[[2359,2632],[1,8]],[[2364,2656],[-4,-16]],[[2364,2656],[2,5]],[[2365,2661],[-1,-5]],[[2358,2632]],[[2359,2631],[0,1]],[[2366,2717],[-3,2]],[[2364,2718],[5,-3]],[[2353,2882],[-63,29]],[[2312,2900],[41,-19]],[[2361,2606],[2,-1]],[[2363,2605],[-1,1]],[[2363,2605],[8,-9]],[[2269,2707],[-1,1]],[[2367,2954],[-20,-11]],[[2115,2831],[-1,2]],[[2255,2673],[15,-7]],[[2270,2667],[-14,7]],[[2328,2666],[63,-9]],[[2391,2659],[-63,7]],[[2407,2655],[18,1]],[[2425,2658],[-18,-1]],[[1817,2243],[-10,-24]],[[1808,2221],[9,22]],[[1921,2596],[-30,-88],[-54,-68]],[[1837,2440],[55,68],[29,88]],[[2401,2628],[30,4]],[[2453,2548],[-1,1],[-8,-9]],[[2445,2540],[7,8]],[[2379,2587],[14,-5]],[[2158,2742],[-26,-45]],[[2136,2701],[24,41]],[[2232,2512],[-19,-12]],[[2270,2541],[-20,-15]],[[2178,2777]],[[2768,2668],[-2,0]],[[518,4096],[135,-168],[66,-29]],[[719,3899],[-7,5],[-59,25],[-17,34],[-118,133]],[[720,3898],[3,-3],[36,-10],[15,8]],[[883,3870],[-5,15],[-23,32],[-33,9],[-63,-40],[-39,13]],[[859,3912],[23,-44]],[[883,3856],[19,-23],[63,-16]],[[965,3819],[-46,11]],[[2436,2469],[15,2],[13,4],[34,17]],[[2497,2493],[-61,-23]],[[2142,2581],[2,-1]],[[2290,2691],[13,-8]],[[2115,2831],[9,-14]],[[2776,2587],[-2,-158]],[[2775,2431],[10,43],[2,37],[-10,75]],[[2755,2349],[1,1]],[[2756,2350],[6,25]],[[2758,2361],[-2,-11]],[[2429,2381],[7,89]],[[2435,2529]],[[2158,2742],[2,0]],[[2180,2773],[-4,3]],[[2243,2435],[-1,-1]],[[2256,2923],[7,0]],[[2358,2721],[2,-2]],[[2361,2722],[-2,-1]],[[2360,2719],[2,-1]],[[2363,2720],[-2,1]],[[2364,2718],[-1,3]],[[2436,2469]],[[2436,2470]],[[2509,2631],[1,1]],[[2511,2633],[0,-1]],[[2249,2469],[27,-12]],[[2287,2451],[-34,17]],[[2491,2610],[-9,-23]],[[2482,2586],[9,24]],[[2290,2910],[22,-10]],[[2556,2437],[-13,-31]],[[2543,2405],[15,34]],[[2172,2779],[5,-4]],[[2175,2778],[-3,2]],[[2482,2587],[-1,-1]],[[2361,2606],[1,0]],[[3986,1064],[-30,35],[9,35]],[[2412,2381],[1,-1]],[[2414,2381],[-1,0]],[[2444,2364],[39,-22]],[[2483,2343],[-39,21]],[[1170,1672],[-1,-2]],[[2270,2512],[24,-12]],[[2294,2500],[1,-1],[9,-5],[-9,6],[-1,0]],[[2569,2462],[-5,-8]],[[2565,2454],[12,13]],[[2320,2765],[-10,12]],[[2135,2808],[-6,4]],[[2626,2983],[-32,20]],[[1813,2240],[5,-2]],[[2965,2661],[3,1],[2,3],[13,27],[59,38],[-23,-10]],[[2985,2695],[-3,-3],[-12,-26],[-3,-4]],[[2178,2777],[-1,-2]],[[2172,2780],[-1,1]],[[2435,2529],[-6,-148]],[[2435,2529]],[[2436,2470],[3,35]],[[2145,2719],[1,1]],[[2285,2460],[1,5]],[[2432,2526],[-2,-3]],[[2430,2523],[2,3]],[[2445,2540],[-5,-5]],[[2440,2535],[3,3]],[[2441,2535],[2,3]],[[2443,2538],[2,2]],[[2443,2538],[2,2]],[[2467,2623],[-1,0]],[[1807,2219],[-14,-126],[50,-114],[19,-132],[-64,-69],[-18,-40],[2,-77]],[[1784,1670],[14,108],[1,0],[63,68],[0,1],[-18,132],[-51,114],[15,128]],[[2427,2657],[1,0]],[[2250,2470],[-1,-1]],[[2334,2589],[-3,-3]],[[2349,2599],[11,7]],[[2167,2783],[-1,1]],[[2177,2774],[-18,-29]],[[2161,2744],[17,29]],[[2179,2778],[-1,-1]],[[2196,2808],[-11,-19]],[[2187,2789],[6,12]],[[2334,2576],[-3,10]],[[2440,2535],[-8,-9]],[[2432,2526],[8,9]],[[1815,2245],[-1,-2]],[[2337,2556],[-43,-56]],[[2295,2499],[43,56]],[[2489,2626],[-8,6]],[[2481,2631],[8,-5]],[[2618,2672],[6,-4]],[[2624,2669],[-5,3]],[[2081,2438],[25,11]],[[2491,2616],[0,-6]],[[2491,2610],[0,5]],[[2474,2578],[-5,-6]],[[2469,2572],[5,6]],[[2542,2403],[1,-21]],[[2543,2382],[0,7]],[[2407,2510],[-26,-11],[26,10]],[[2441,2633],[1,1]],[[2442,2634],[-1,0]],[[2454,2635],[-12,-1]],[[2577,2468],[-1,-1]],[[2577,2467],[2,2]],[[2764,2669],[-24,2]],[[2756,2669],[10,-1]],[[2171,2781],[-1,-1]],[[2413,2380],[31,-16]],[[2444,2364],[-30,17]],[[2483,2342],[11,-3],[15,-3],[76,-3],[-102,10]],[[2761,2372],[-3,-11]],[[2762,2375],[3,13]],[[2519,2523],[21,-20]],[[2540,2503],[-21,21]],[[2029,2387],[-2,-3]],[[2029,2387],[43,47]],[[2081,2438],[-9,-4]],[[2543,2378],[0,-18]],[[2544,2360],[-1,18]],[[2168,2738],[26,-19]],[[2194,2719],[5,-4]],[[2198,2716],[-4,3]],[[1821,2241],[-1,2]],[[2427,2656],[41,-22]],[[2468,2635],[-40,22]],[[0,0],[0,4096],[4096,0],[0,-4096],[-4096,0]],[[1795,837],[-97,44],[48,74],[68,61],[75,27],[68,-30],[-15,-46],[-147,-130]],[[1871,0],[-245,0],[7,2],[33,88],[56,12],[170,-56],[-21,-46]],[[3122,1145],[-53,5],[-31,34],[-13,137],[103,-61],[16,-57],[-22,-58]],[[1310,1935],[-27,67],[124,197],[32,-20],[-10,-114],[-119,-130]],[[1763,2463],[11,-48],[118,48],[-2,-125],[-30,-95],[-65,0],[-65,-88],[-191,52],[-68,-8],[7,81],[155,139],[33,132],[65,-22],[32,-66]],[[2572,3210],[65,0],[32,-88],[65,0],[32,-88],[39,0],[58,88],[65,-88],[97,44],[32,-44],[147,-10],[47,-34],[-64,-132],[-65,0],[0,-88],[-57,-11],[-126,28],[-173,159],[-65,0],[-11,83],[-51,-12],[35,-81],[-5,-78],[-32,-44],[17,-31],[80,-13],[0,-132],[103,-124],[-6,-51],[-27,5],[-38,-49],[-65,0],[0,-44],[-322,7],[-66,37],[-183,8],[-76,79],[-65,0],[-87,114],[-43,18],[34,74],[193,-30],[-32,264],[70,-18],[92,106],[43,-21],[22,-155],[65,15],[129,161],[64,44],[-64,87],[32,176],[32,-10],[33,-121]],[[2507,3901],[118,16],[3,-17],[61,24],[24,-23],[-13,-54],[-60,-19],[-62,13],[-71,60]],[[2695,0],[-143,0],[-14,32],[199,22],[7,-28],[-49,-15],[0,-11]],[[3524,787],[44,69],[45,-71],[-37,-30],[-8,-115],[22,108],[65,3],[-17,-77],[19,-4],[-3,-36],[12,133],[103,-15],[-45,-57],[-40,3],[44,-108],[-109,20],[-6,29],[21,10],[-21,37],[-17,-89],[-20,-5],[-2,49],[-1,-17],[-7,-21],[-6,-2],[-19,36],[19,38],[-18,5],[22,56],[-40,51]],[[2287,2078],[36,77],[89,12],[-32,-17],[6,-38],[46,-10],[-27,-71],[-20,17],[-53,-27],[-45,57]],[[2186,2123],[29,102],[-27,-7],[-2,3],[81,40],[4,-117],[-25,-1],[22,-43],[-59,-2],[-23,25]],[[2391,316],[80,94],[72,20],[21,35],[92,1],[91,-46],[-21,-58],[-2,29],[-33,-31],[-24,58],[-40,2],[-50,-66],[-21,15],[-23,-31],[-35,17],[-45,-20],[51,-23],[-6,-38],[-107,42]],[[2367,398],[27,8],[-16,14],[24,2],[18,55],[36,-11],[2,-29],[31,11],[-1,94],[121,23],[46,-60],[59,36],[23,-13],[-11,-25],[-41,0],[63,-67],[-109,51],[-18,34],[-171,-117],[-35,4],[8,-27],[-41,-54],[-15,71]],[[3065,687],[69,-4],[31,-107],[36,35],[-19,41],[26,145],[41,-31],[-1,-39],[66,-14],[4,-93],[-28,-22],[16,8],[3,-25],[-37,-71],[-56,-1],[-30,-29],[-8,-61],[-61,24],[15,30],[-37,40],[-30,174]],[[2298,2366],[7,27],[61,12],[-12,-22],[35,-10],[2,-39],[46,31],[29,-26],[-10,-48],[-60,1],[-98,74]],[[1797,2597],[18,83],[29,0],[-13,54],[59,-34],[123,13],[-77,-33],[-39,-61],[-19,41],[-30,-17],[-16,21],[-17,-90],[-18,23]],[[2757,606],[151,133],[23,-22],[20,20],[58,-100],[54,16],[44,-263],[-60,-101],[56,51],[40,-33],[-17,-97],[-60,12],[-27,-30],[-86,36],[-41,-14],[-7,71],[31,36],[47,3],[16,48],[-78,76],[-134,20],[-30,138]],[[2012,533],[4,57],[33,15],[41,-22],[94,13],[68,-35],[34,42],[94,-2],[14,-45],[43,-28],[97,7],[193,79],[41,-25],[19,-121],[169,-36],[41,-73],[-27,-45],[-34,7],[-24,-23],[-131,-176],[-131,-43],[-52,31],[-210,24],[-32,51],[-84,6],[-52,38],[-98,6],[14,118],[54,13],[95,-49],[86,5],[-26,2],[5,48],[-26,10],[-75,-35],[15,42],[-27,22],[-65,-16],[-45,58],[-27,-17],[5,23],[-17,-3],[-15,-36],[-48,36],[-13,77]],[[2976,0],[-456,0],[-14,47],[-80,40],[10,42],[162,-19],[67,-32],[116,44],[152,197],[50,5],[16,48],[-78,76],[-134,20],[-30,138],[-114,-18],[-109,-53],[-97,-7],[-43,28],[-14,45],[-94,2],[-34,-42],[-102,42],[-137,-9],[-87,91],[18,63],[87,16],[38,-26],[13,36],[33,-11],[12,90],[51,15],[-8,44],[62,-29],[31,34],[21,-13],[13,-69],[42,20],[41,-36],[-1,-64],[29,-7],[77,66],[37,-23],[-6,29],[58,-27],[-16,-53],[21,-61],[45,12],[-7,-31],[25,21],[20,-20],[4,34],[37,13],[-10,56],[39,27],[27,-39],[13,12],[-2,-56],[114,94],[17,-67],[30,-18],[57,29],[-3,54],[36,53],[42,-41],[35,3],[41,-144],[71,168],[19,-44],[52,-16],[28,47],[15,-36],[21,22],[15,-13],[55,57],[88,-73],[-8,60],[69,39],[64,-57],[11,-54],[91,-4],[54,41],[19,-42],[-30,-43],[34,-36],[32,74],[30,7],[-4,-62],[44,9],[28,-46],[-68,-46],[66,6],[23,-59],[-51,-35],[59,0],[-83,-51],[76,-28],[47,25],[39,-43],[-8,-41],[-55,-30],[-137,-6],[-78,40],[-32,38],[15,25],[51,-1],[11,39],[19,-11],[32,31],[-3,44],[-25,2],[-18,45],[-16,-59],[-132,-114],[24,-71],[-46,-52],[-40,29],[-87,7],[-28,-22],[-8,40],[-44,3],[-2,-57],[-44,11],[-16,-27],[-43,19],[-8,-35],[-73,-24],[5,-26],[-34,27],[16,-40],[-27,-9],[31,-30],[-84,-91],[-156,-1],[-6,74],[-31,-66],[-28,9],[-25,-29],[61,-75],[0,-4]]]}