{"objects":{"water":{"type":"GeometryCollection","geometries":[]},"buildings":{"type":"GeometryCollection","geometries":[]},"places":{"type":"GeometryCollection","geometries":[{"type":"Point","properties":{"admin_level":"6","name:ro":"Blagoevgrad","name:nl":"Blago\u00ebvgrad","min_zoom":8.0,"int_name":"Blagoevgrad","name:pl":"B\u0142agojewgrad","name:hr":"Blagoevgrad","id":31058171,"population":75079,"name:el":"\u039c\u03c0\u03bb\u03b1\u03b3\u03ba\u03cc\u03b5\u03b2\u03b3\u03ba\u03c1\u03b1\u03bd\u03c4","kind":"locality","name:en":"Blagoevgrad","name":"\u0411\u043b\u0430\u0433\u043e\u0435\u0432\u0433\u0440\u0430\u0434","kind_detail":"city","name:de":"Blagoewgrad","source":"openstreetmap.org","name:fr":"Blagoevgrad"},"coordinates":[1720,4011]},{"type":"Point","properties":{"name:sr":"\u0421\u0435\u0440","name:ro":"Serres","name:lt":"Ser\u0117s","name:tr":"Serez","name:sv":"Serrai","min_zoom":8.0,"int_name":"Serres","old_name":"Serez","name:ru":"\u0421\u0435\u0440\u0435","name:bg":"\u0421\u044f\u0440","id":136904436,"name:ca":"Serres","population":56000,"kind":"locality","name:en":"Serres","name":"\u03a3\u03ad\u03c1\u03c1\u03b5\u03c2","kind_detail":"city","name:de":"Serres","source":"openstreetmap.org","name:fr":"Serr\u00e8s"},"coordinates":[3058,432]},{"type":"Point","properties":{"name:pt":"Strumica","int_name":"Strumica","name:lt":"Strumica","name:he":"\u05e1\u05d8\u05e8\u05d5\u05de\u05d9\u05e6\u05d4","min_zoom":8.0,"name:uk":"\u0421\u0442\u0440\u0443\u043c\u0438\u0446\u044f","id":185561545,"population":36000,"name:el":"\u03a3\u03c4\u03c1\u03ce\u03bc\u03bd\u03b9\u03c4\u03c3\u03b1","kind":"locality","name:en":"Strumica","name":"\u0421\u0442\u0440\u0443\u043c\u0438\u0446\u0430","kind_detail":"city","name:de":"Strumica","source":"openstreetmap.org","name:fr":"Stroumitsa"},"coordinates":[407,1786]},{"type":"Point","properties":{"name:ro":"Petrici","name:sk":"Petri\u010d","name:ja":"\u30da\u30c8\u30ea\u30c1","name:cy":"Petrich","name:el":"\u03a0\u03b5\u03c4\u03c1\u03af\u03c4\u03c3\u03b9","name:tr":"Petri\u00e7","min_zoom":8.0,"int_name":"Petrich","name:nl":"Petritsj","name:pl":"Petricz","id":457720110,"population":30772,"name:fa":"\u067e\u062a\u0631\u06cc\u0686","kind":"locality","name:en":"Petrich","name":"\u041f\u0435\u0442\u0440\u0438\u0447","kind_detail":"town","name:de":"Petritsch","source":"openstreetmap.org","name:fr":"P\u00e9tritch"},"coordinates":[2059,1616]},{"type":"Point","properties":{"kind":"locality","name:en":"Sandanski","name":"\u0421\u0430\u043d\u0434\u0430\u043d\u0441\u043a\u0438","kind_detail":"town","min_zoom":8.0,"name:de":"Sandanski","source":"openstreetmap.org","name:fr":"Sandanski","int_name":"Sandanski","id":273488812,"population":28058},"coordinates":[2268,2277]},{"type":"Point","properties":{"int_name":"Gevgelija","min_zoom":8.0,"name:ro":"Gevgelija","name:ru":"\u0413\u0435\u0432\u0433\u0435\u043b\u0438\u044f","name:pl":"Gewgelija","id":155946734,"population":20664,"name:el":"\u0393\u03b5\u03c5\u03b3\u03b5\u03bb\u03ae","kind":"locality","name:en":"Gevgelija","name":"\u0413\u0435\u0432\u0433\u0435\u043b\u0438\u0458\u0430","kind_detail":"city","name:de":"Gevgelija","source":"openstreetmap.org","name:fr":"Guevgueliya","name:es":"Gevgelija"},"coordinates":[14,628]},{"type":"Point","properties":{"name:el":"\u0386\u03bd\u03c9 \u039d\u03b5\u03c5\u03c1\u03bf\u03ba\u03cc\u03c0\u03b9","kind":"locality","name:en":"Goce Delcev","name":"\u0413\u043e\u0446\u0435 \u0414\u0435\u043b\u0447\u0435\u0432","kind_detail":"town","min_zoom":8.0,"name:de":"Goze Deltschew","source":"openstreetmap.org","name:fr":"Gots\u00e9 Deltchev","int_name":"Gotse Delchev","id":273488803,"population":20306},"coordinates":[3569,2308]},{"type":"Point","properties":{"kind":"locality","name:en":"Delchevo","name":"\u0414\u0435\u043b\u0447\u0435\u0432\u043e","name:lt":"Del\u010devas","kind_detail":"town","source":"openstreetmap.org","min_zoom":8.0,"int_name":"Del\u010devo","id":417730489,"name:sq":"Dell\u00e7eva","population":17505},"coordinates":[806,3839]},{"type":"Point","properties":{"int_name":"Kilkis","name:ro":"Kilkis","min_zoom":8.0,"name:la":"Cilcis","name:it":"Kilkis","name:ru":"\u041a\u0438\u043b\u043a\u0438\u0441","name:pl":"Kilkis","id":134237444,"population":17430,"kind":"locality","name:en":"Kilkis","name":"\u039a\u03b9\u03bb\u03ba\u03af\u03c2","kind_detail":"city","name:de":"Kilkis","source":"openstreetmap.org","name:fr":"Kilk\u00eds"},"coordinates":[1090,53]},{"type":"Point","properties":{"kind":"locality","name:en":"Razlog","name":"\u0420\u0430\u0437\u043b\u043e\u0433","kind_detail":"town","min_zoom":8.0,"name:de":"Raslog","source":"openstreetmap.org","name:fr":"Razlog","int_name":"Razlog","id":273488988,"population":12789},"coordinates":[2814,3525]},{"type":"Point","properties":{"kind":"locality","name:en":"Vinica","name":"\u0412\u0438\u043d\u0438\u0446\u0430","name:tr":"Vinica","kind_detail":"town","source":"openstreetmap.org","min_zoom":8.0,"int_name":"Vinica","id":418352424,"name:sq":"Vinica","population":10590},"coordinates":[14,3518]},{"type":"Point","properties":{"name:el":"\u0392\u03bf\u03b3\u03b4\u03ac\u03bd\u03c4\u03c3\u03b1","kind":"locality","name:en":"Bogdanci","name":"\u0411\u043e\u0433\u0434\u0430\u043d\u0446\u0438","kind_detail":"town","source":"openstreetmap.org","min_zoom":8.0,"int_name":"Bogdanci","id":417730262,"population":8707},"coordinates":[226,862]},{"type":"Point","properties":{"kind":"locality","int_name":"Bansko","name":"\u0411\u0430\u043d\u0441\u043a\u043e","kind_detail":"town","min_zoom":8.0,"source":"openstreetmap.org","name:fr":"Bansko","id":273488750,"population":8207},"coordinates":[2877,3338]},{"type":"Point","properties":{"kind":"locality","name:en":"Simitli","name:ro":"Simitli","name":"\u0421\u0438\u043c\u0438\u0442\u043b\u0438","kind_detail":"town","min_zoom":8.0,"source":"openstreetmap.org","name:fr":"Simitli","int_name":"Simitli","id":273488945,"population":7243},"coordinates":[1771,3553]},{"type":"Point","properties":{"kind":"locality","name:en":"Berovo","name":"\u0411\u0435\u0440\u043e\u0432\u043e","name:tr":"Berova","kind_detail":"town","min_zoom":8.0,"name:de":"Berovo","source":"openstreetmap.org","name:fr":"Berovo","int_name":"Berovo","name:pl":"Berowo","id":417729806,"name:sq":"Berova","population":6490},"coordinates":[1030,2827]},{"type":"Point","properties":{"kind":"locality","name:en":"Polykastro","name":"\u03a0\u03bf\u03bb\u03cd\u03ba\u03b1\u03c3\u03c4\u03c1\u03bf","kind_detail":"town","name:sr":"\u041f\u043e\u043b\u0438\u043a\u0430\u0441\u0442\u0440\u043e","source":"openstreetmap.org","min_zoom":8.0,"name:ru":"\u041f\u043e\u043b\u0438\u043a\u0430\u0441\u0442\u0440\u043e\u043d","id":134416657,"name:mk":"\u0420\u0443\u0433\u0443\u043d\u043e\u0432\u0435\u0446","population":6485},"coordinates":[209,61]},{"type":"Point","properties":{"kind":"locality","name:en":"Sidirokastro","name":"\u03a3\u03b9\u03b4\u03b7\u03c1\u03cc\u03ba\u03b1\u03c3\u03c4\u03c1\u03bf","kind_detail":"town","min_zoom":8.0,"source":"openstreetmap.org","name:fr":"Sidirokastro","name:ru":"\u0421\u0438\u0434\u0438\u0440\u043e\u043a\u0430\u0441\u0442\u0440\u043e\u043d","name:bg":"\u0412\u0430\u043b\u043e\u0432\u0438\u0449\u0430","id":246628829,"population":5711},"coordinates":[2591,993]},{"type":"Point","properties":{"kind":"locality","int_name":"Yakoruda","name":"\u042f\u043a\u043e\u0440\u0443\u0434\u0430","kind_detail":"town","min_zoom":8.0,"source":"openstreetmap.org","name:fr":"Yakorouda","id":273488942,"population":5480},"coordinates":[3401,4035]},{"type":"Point","properties":{"kind":"locality","name:en":"Kresna","name":"\u041a\u0440\u0435\u0441\u043d\u0430","kind_detail":"town","min_zoom":8.0,"name:de":"Kresna","source":"openstreetmap.org","name:fr":"Kresna","int_name":"Kresna","id":273488977,"population":3628},"coordinates":[1932,2889]},{"type":"Point","properties":{"kind":"locality","name:en":"Iraklia","name":"\u0397\u03c1\u03ac\u03ba\u03bb\u03b5\u03b9\u03b1","kind_detail":"town","min_zoom":8.0,"name:de":"Iraklia","source":"openstreetmap.org","name:fr":"Iraklia","name:ru":"\u0418\u0440\u0430\u043a\u043b\u0438\u044f","id":246628828,"population":3551},"coordinates":[2280,794]},{"type":"Point","properties":{"kind":"locality","name:en":"Axioupoli","name":"\u0391\u03be\u03b9\u03bf\u03cd\u03c0\u03bf\u03bb\u03b7","kind_detail":"town","source":"openstreetmap.org","min_zoom":8.0,"name:ru":"\u0410\u043a\u0441\u044c\u044e\u043f\u043e\u043b\u0438\u0441","id":240471712,"population":3275},"coordinates":[123,22]},{"type":"Point","properties":{"kind":"locality","int_name":"Belitsa","name":"\u0411\u0435\u043b\u0438\u0446\u0430","kind_detail":"town","min_zoom":8.0,"source":"openstreetmap.org","name:fr":"Belitsa","id":273488691,"population":3163},"coordinates":[3085,3777]},{"type":"Point","properties":{"kind":"locality","int_name":"Hadzhidimovo","name":"\u0425\u0430\u0434\u0436\u0438\u0434\u0438\u043c\u043e\u0432\u043e","kind_detail":"town","min_zoom":8.0,"source":"openstreetmap.org","name:fr":"Khadjidimovo","id":273488749,"population":2689},"coordinates":[3943,2088]},{"type":"Point","properties":{"kind":"locality","name:en":"Dobrinishte","name":"\u0414\u043e\u0431\u0440\u0438\u043d\u0438\u0449\u0435","kind_detail":"town","min_zoom":8.0,"source":"openstreetmap.org","name:fr":"Dobrinichte","int_name":"Dobrinishte","id":273874316,"population":2661},"coordinates":[3096,3272]},{"type":"Point","properties":{"kind":"locality","name:en":"Skoutari","name":"\u03a3\u03ba\u03bf\u03cd\u03c4\u03b1\u03c1\u03b9","kind_detail":"town","min_zoom":8.0,"name:de":"Skoutari","source":"openstreetmap.org","name:fr":"Skoutari","id":296699703,"population":2641},"coordinates":[2963,147]},{"type":"Point","properties":{"kind":"locality","name:en":"Neo Souli","name":"\u039d\u03ad\u03bf \u03a3\u03bf\u03cd\u03bb\u03b9","kind_detail":"town","min_zoom":8.0,"name:de":"Neo Souli","source":"openstreetmap.org","name:fr":"Neo Souli","id":585213378,"population":2540},"coordinates":[3328,441]},{"type":"Point","properties":{"kind":"locality","name:en":"Neos Skopos","name":"\u039d\u03ad\u03bf\u03c2 \u03a3\u03ba\u03bf\u03c0\u03cc\u03c2","kind_detail":"town","min_zoom":8.0,"name:de":"Neos Skopos","source":"openstreetmap.org","name:fr":"Neos Skopos","name:ru":"\u041d\u0435\u043e\u0441-\u0421\u043a\u043e\u043f\u043e\u0441","id":296699827,"population":2529},"coordinates":[3233,173]},{"type":"Point","properties":{"kind":"locality","name:en":"Neo Petritsi","name":"\u039d\u03ad\u03bf \u03a0\u03b5\u03c4\u03c1\u03af\u03c4\u03c3\u03b9","kind_detail":"town","source":"openstreetmap.org","min_zoom":8.0,"name:ru":"\u041d\u0435\u043e\u043d-\u041f\u0435\u0442\u0440\u0438\u0446\u0438\u043e\u043d","id":246628777,"population":2372},"coordinates":[2314,1148]},{"type":"Point","properties":{"kind":"locality","name:en":"Lefkonas","name":"\u039b\u03b5\u03c5\u03ba\u03ce\u03bd\u03b1\u03c2","kind_detail":"town","min_zoom":8.0,"name:de":"Lefkonas","source":"openstreetmap.org","name:fr":"Lefkonas","id":303670621,"population":2136},"coordinates":[2902,463]},{"type":"Point","properties":{"kind":"locality","name:en":"Kato Nevrokopi","name":"\u039a\u03ac\u03c4\u03c9 \u039d\u03b5\u03c5\u03c1\u03bf\u03ba\u03cc\u03c0\u03b9","kind_detail":"town","min_zoom":8.0,"name:de":"Kato Nevrokopi","source":"openstreetmap.org","name:fr":"Kato Nevrokopi","name:ru":"\u041a\u0430\u0442\u043e-\u041d\u0435\u0432\u0440\u043e\u043a\u043e\u043f\u0438\u043e\u043d","id":299149783,"population":2072},"coordinates":[3983,1415]},{"type":"Point","properties":{"kind":"locality","name:en":"Melnik","name":"\u041c\u0435\u043b\u043d\u0438\u043a","kind_detail":"town","min_zoom":8.0,"source":"openstreetmap.org","name:fr":"Melnik","int_name":"Melnik","name:pl":"Melnik","id":331855323,"population":325},"coordinates":[2602,2112]}]},"transit":{"type":"GeometryCollection","geometries":[{"type":"LineString","properties":{"name:el":"\u0392\u03b5\u03bb\u03b9\u03b3\u03c1\u03ac\u03b4\u03b9 - \u0398\u03b5\u03c3\u03c3\u03b1\u03bb\u03bf\u03bd\u03af\u03ba\u03b7","kind":"train","name:en":"Belgrade - Thessaloniki","name":"Beograd - Salonica","sort_rank":275,"source":"openstreetmap.org","min_zoom":6.0,"name:hu":"Belgr\u00e1d\u2013Szaloniki","ref":"Beograd - Thessaloniki","name:sr":"\u0411\u0435\u043e\u0433\u0440\u0430\u0434 - \u0421\u043e\u043b\u0443\u043d","osm_relation":true},"arcs":[8]},{"type":"LineString","properties":{"source":"openstreetmap.org","kind":"train","name":"Sofia - Thessaloniki","sort_rank":275,"ref":"360;361","min_zoom":6.0,"osm_relation":true},"arcs":[9]},{"type":"MultiLineString","properties":{"source":"openstreetmap.org","kind":"train","name":"\u0416\u041f \u041b\u0438\u043d\u0438\u044f 52 \u0413\u0435\u043d. \u0422\u043e\u0434\u043e\u0440\u043e\u0432 - \u041f\u0435\u0442\u0440\u0438\u0447","sort_rank":275,"ref":"52","min_zoom":6.0,"osm_relation":true},"arcs":[[10],[11],[12]]},{"type":"MultiLineString","properties":{"source":"openstreetmap.org","kind":"train","name":"\u0416\u041f \u041b\u0438\u043d\u0438\u044f 5 \u0421\u043e\u0444\u0438\u044f - \u041f\u0435\u0440\u043d\u0438\u043a - \u0411\u0430\u0442\u0430\u043d\u043e\u0432\u0446\u0438 - \u0420\u0430\u0434\u043e\u043c\u0438\u0440 - \u0414\u0443\u043f\u043d\u0438\u0446\u0430 - \u041a\u0443\u043b\u0430\u0442\u0430","sort_rank":275,"ref":"5","min_zoom":6.0,"osm_relation":true},"arcs":[[13],[14],[15],[16],[17],[18]]}]},"pois":{"type":"GeometryCollection","geometries":[{"type":"Point","properties":{"kind":"protected_area","name:en":"Melnishki piramidi","protect_class":"3","area":31704900,"min_zoom":8.0,"source":"openstreetmap.org","name:fr":"Pyramides de Melnik","tier":2,"id":-4423962,"osm_relation":true,"name":"\u041c\u0435\u043b\u043d\u0438\u0448\u043a\u0438 \u043f\u0438\u0440\u0430\u043c\u0438\u0434\u0438"},"coordinates":[2651,2147]},{"type":"Point","properties":{"kind":"protected_area","name:en":"Belasitsa Natural Park","protect_class":"5","area":210836000,"source":"openstreetmap.org","min_zoom":7.0,"tier":2,"id":-4271814,"osm_relation":true,"name":"\u041f\u0440\u0438\u0440\u043e\u0434\u0435\u043d \u043f\u0430\u0440\u043a \u0411\u0435\u043b\u0430\u0441\u0438\u0446\u0430"},"coordinates":[1980,1489]},{"type":"Point","properties":{"kind":"nature_reserve","name":"\u039b\u03af\u03bc\u03bd\u03b7 \u039a\u03b5\u03c1\u03ba\u03af\u03bd\u03b7, \u0397\u03c1\u03ac\u03ba\u03bb\u03b5\u03b9\u03b1\u03c2, \u03a0\u03b5\u03c4\u03c1\u03b9\u03c4\u03c3\u03af\u03bf\u03c5 \u03a3\u03b9\u03b4\u03b7\u03c1\u03bf\u03ba\u03ac\u03c3\u03c4\u03c1\u03bf\u03c5","area":345849000,"source":"openstreetmap.org","min_zoom":8.07,"tier":2,"id":-2515285,"osm_relation":true},"coordinates":[1907,1044]}]},"boundaries":{"type":"GeometryCollection","geometries":[{"type":"LineString","properties":{"name:right:yo":"B\u00f9lg\u00e1r\u00ed\u00e0","name:right:yi":"\u05d1\u05d5\u05dc\u05d2\u05d0\u05e8\u05d9\u05e2","name:left:la":"Graecia","name:right:qu":"Bulgarya","name:left:li":"Griekeland","name:left:vi":"Hy L\u1ea1p","name:left:sw":"Ugiriki","name:left:kg":"Gelesi","name:left:ka":"\u10e1\u10d0\u10d1\u10d4\u10e0\u10eb\u10dc\u10d4\u10d7\u10d8","name:left:kl":"Gr\u00e6kerit Nunaat","name:left:ko":"\uadf8\ub9ac\uc2a4","name:left:kn":"\u0c97\u0ccd\u0cb0\u0cc0\u0cb8\u0ccd","name:left:ki":"Ngiriki","name:left:ro":"Grecia","name:left:kk":"\u0413\u0440\u0435\u043a\u0438\u044f","name:left:rm":"Grezia","name:left:ku":"Yewnanistan","name:left:kw":"Pow Grek","name:left:kv":"\u042d\u043b\u043b\u0430\u0434\u0430","name:right:rn":"Bulgaria","name:right:ro":"Bulgaria","name:left:ru":"\u0413\u0440\u0435\u0446\u0438\u044f","name:right:ie":"Bulgaria","name:right:id":"Bulgaria","name:left:ky":"\u0413\u0440\u0435\u0446\u0438\u044f","name:right:ia":"Bulgaria","name:right:bi":"Bulgaria","name:right:bn":"\u09ac\u09c1\u09b2\u0997\u09c7\u09b0\u09bf\u09af\u09bc\u09be","name:right:bo":"\u0f54\u0f74\u0f0b\u0f62\u0f0b\u0f42\u0f0b\u0f62\u0f72\u0f0b\u0f61\u0f0d","name:left:sl":"Gr\u010dija","name:right:ba":"\u0411\u043e\u043b\u0433\u0430\u0440\u0438\u044f","name:right:be":"\u0411\u0430\u043b\u0433\u0430\u0440\u044b\u044f","name:right:br":"Bulgaria","name:left:lt":"Graikija","name:right:nn":"Bulgaria","name:right:no":"Bulgaria","name:right:nl":"Bulgarije","name:right:wa":"Bulg\u00e5reye","name:left:lv":"Grie\u0137ija","name:right:wo":"Bulgaari","name:right:ne":"\u092c\u0941\u0932\u094d\u0917\u0947\u0930\u093f\u092f\u093e","name:right:na":"Borgeriya","name:right:gv":"Yn Vulgeyr","name:right:nv":"B\u00e1lgaa Bik\u00e9yah","name:left:mg":"Grisy","kind_detail":"2","name:left:tr":"Yunanistan","name:right:gu":"\u0aac\u0ab2\u0acd\u0a97\u0ac7\u0ab0\u0abf\u0aaf\u0abe","name:right:ps":"\u0628\u0644\u063a\u0627\u0631\u06cc\u0627","name:right:pt":"Bulg\u00e1ria","name:left:mk":"\u0413\u0440\u0446\u0438\u0458\u0430","name:left:mi":"Kirihi","name:left:tt":"\u0413\u0440\u0435\u0446\u0438\u044f","name:left:mn":"\u0413\u0440\u0435\u043a","name:left:ml":"\u0d17\u0d4d\u0d30\u0d40\u0d38\u0d4d","name:left:th":"\u0e1b\u0e23\u0e30\u0e40\u0e17\u0e28\u0e01\u0e23\u0e35\u0e0b","name:right:pa":"\u0a2c\u0a41\u0a32\u0a17\u0a3e\u0a30\u0a40\u0a06","name:left:tk":"Gresi\u00fda","name:left:tl":"Gresya","name:left:mt":"Gre\u010bja","name:right:gl":"Bulgaria - \u0411\u044a\u043b\u0433\u0430\u0440\u0438\u044f","name:left:my":"\u1002\u101b\u102d\u1014\u102d\u102f\u1004\u103a\u1004\u1036","name:right:gn":"Vugaria","name:right:pl":"Bu\u0142garia","name:left:te":"\u0c17\u0c4d\u0c30\u0c40\u0c38\u0c4d","name:left:tg":"\u042e\u043d\u043e\u043d","name:left:ms":"Greece","name:left:mr":"\u0917\u094d\u0930\u0940\u0938","name:right:tr":"Bulgaristan","name:left:da":"Gr\u00e6kenland","name:left:de":"Griechenland","name:left:dz":"\u0f42\u0fb2\u0f80\u0f66","name:right:ga":"An Bhulg\u00e1ir","name:left:dv":"\u0794\u07ab\u0782\u07a7\u0782\u07b0","name:right:ug":"\u0628\u06c7\u0644\u063a\u0627\u0631\u0649\u064a\u06d5","name:left:hi":"\u092f\u0942\u0928\u093e\u0928","name:right:lb":"Bulgarien","name:right:uk":"\u0411\u043e\u043b\u0433\u0430\u0440\u0456\u044f","name:left:he":"\u05d9\u05d5\u05d5\u05df","name:right:ln":"Bulgaria","name:right:li":"B\u00f6lgarije","name:right:lt":"Bulgarija","name:right:ur":"\u0628\u0644\u063a\u0627\u0631\u06cc\u06c1","name:right:lv":"Bulg\u0101rija","name:left:hy":"\u0540\u0578\u0582\u0576\u0561\u057d\u057f\u0561\u0576","name:left:ta":"\u0b95\u0bbf\u0bb0\u0bc7\u0b95\u0bcd\u0b95 \u0ba8\u0bbe\u0b9f\u0bc1","name:left:ht":"Gr\u00e8s","name:left:hu":"G\u00f6r\u00f6gorsz\u00e1g","name:left:hr":"Gr\u010dka","sort_rank":262,"name:right:gd":"Bulg\u00e0iria","name:right:os":"\u0411\u043e\u043b\u0433\u0430\u0440\u0438","name:right:es":"Bulgaria","name:right:sr":"\u0411\u0443\u0433\u0430\u0440\u0441\u043a\u0430","name:right:eu":"Bulgaria","name:right:et":"Bulgaaria","name:left:os":"\u0413\u0440\u0435\u043a\u044a","name:left:or":"\u0b17\u0b4d\u0b30\u0b40\u0b38","name:right:ee":"Bulgaria","name:left:vo":"Grik\u00e4n","name:left:oc":"Gr\u00e8cia","name:right:eo":"Bulgarujo","name:right:en":"Bulgaria","name:right:el":"\u0392\u03bf\u03c5\u03bb\u03b3\u03b1\u03c1\u03af\u03b1","name:left:fa":"\u06cc\u0648\u0646\u0627\u0646","name:left:fo":"Grikkaland","name:right:sk":"Bulharsko","name:left:fi":"Kreikka","name:left:fr":"Gr\u00e8ce","name:left:cs":"\u0158ecko","name:right:jv":"Bulgaria","name:left:fy":"Grikel\u00e2n","name:right:ja":"\u30d6\u30eb\u30ac\u30ea\u30a2","name:right:sq":"Bullgaria","name:right:ss":"IBhulgariya","name:left:ja":"\u30ae\u30ea\u30b7\u30e3","name:right:su":"Bulgaria","name:right:sw":"Bulgaria","name:right:sv":"Bulgarien","name:right:sh":"Bugarska","name:left:qu":"Grisya","name:right:sm":"Bultalia","name:right:sl":"Bolgarija","name:right:so":"Bulgaria","name:right:sa":"\u092c\u0941\u0932\u094d\u0917\u093e\u0930\u093f\u092f\u093e","name:right:sc":"Bulgaria","name:left:jv":"Yunani","id":-192307,"name:right:co":"Bulgaria","name:right:ca":"Bulg\u00e0ria","name:right:se":"Bulg\u00e1ria","name:right:ce":"\u0411\u043e\u043b\u0433\u0430\u0440\u0438","name:right:cy":"Bwlgaria","name:right:zh-yue":"\u4fdd\u52a0\u5229\u4e9e","name:right:cs":"Bulharsko","name:right:cu":"\u0411\u043b\u044a\u0433\u0430\u0440\u0457\ua657","name:right:cv":"\u0422\u0103\u043d\u0430\u0439\u00e7\u0438 \u041f\u0103\u043b\u0445\u0430\u0440\u0115","name:right:it":"Bulgaria","name:left:ar":"\u0627\u0644\u064a\u0648\u0646\u0627\u0646","name:right:is":"B\u00falgar\u00eda","name:left:az":"Yunan\u0131stan","name:left:ay":"Grisya","name:right:rw":"Bulugariya","name:left:af":"Griekeland","name:left:ab":"\u0411\u0430\u0440\u0437\u0435\u043d\u0442\u04d9\u044b\u043b\u0430","name:left:an":"Grecia","name:left:am":"\u130d\u122a\u12ad","name:right:ru":"\u0411\u043e\u043b\u0433\u0430\u0440\u0438\u044f","name:right:io":"Bulgaria","name:left:zh-yue":"\u5e0c\u81d8","name:left:rw":"Ubugereki","name:right:hy":"\u0532\u0578\u0582\u056c\u0572\u0561\u0580\u056b\u0561","name:left:lb":"Griicheland","alt_name:left:eo":"Grekio","name:left:lg":"Buyonaani","name:left:su":"Yunani","int_name:left":"Greece","name:right:hr":"Bugarska","name:left:sv":"Grekland","name:left:sq":"Greqia","name:right:hu":"Bulg\u00e1ria","name:left:ss":"IGrikhi","name:left:sr":"\u0413\u0440\u0447\u043a\u0430","name:left:sm":"Kuliti","name:right:hi":"\u092c\u0941\u0932\u094d\u0917\u093e\u0930\u093f\u092f\u093e","name:left:so":"Giriig","name:left:si":"\u0d9c\u0dca\u200d\u0dbb\u0dd3\u0dc3\u0dd2\u0dba","name:left:sh":"Gr\u010dka","name:left:sk":"Gr\u00e9cko","name:left:se":"Greika","name:left:sa":"\u092f\u0935\u0928\u0926\u0947\u0936\u0903","name:right:he":"\u05d1\u05d5\u05dc\u05d2\u05e8\u05d9\u05d4","name:left:sc":"Gr\u00e8ghia","name:right:la":"Bulgaria","name:right:af":"Bulgarye","name:left:co":"Grecia","name:right:ab":"\u0411\u044b\u043b\u0433\u0430\u0440\u0438\u0430","name:left:ce":"\u0413\u0440\u0435\u0446\u0438","name:right:an":"Bulgaria","name:right:am":"\u1261\u120d\u130b\u122a\u12eb","name:left:ca":"Gr\u00e8cia","source":"openstreetmap.org","name:left:cy":"Gwlad Groeg","name:right:ar":"\u0628\u0644\u063a\u0627\u0631\u064a\u0627","name:left:cu":"\u0413\u0440\u044c\u0446\u0438","name:left:cv":"\u0413\u0440\u0435\u0446\u0438","name:right:az":"Bolqar\u0131stan","name:right:ay":"Bulkariya","name:right:rm":"Bulgaria","name":"\u0395\u03bb\u03bb\u03ac\u03b4\u03b1 - \u0411\u044a\u043b\u0433\u0430\u0440\u0438\u044f","name:right:zu":"IBulgariya","name:left:zu":"IGreki","name:left:zh":"\u5e0c\u814a","name:right:zh":"\u4fdd\u52a0\u5229\u4e9a","official_name:left":"\u0395\u03bb\u03bb\u03b7\u03bd\u03b9\u03ba\u03ae \u0394\u03b7\u03bc\u03bf\u03ba\u03c1\u03b1\u03c4\u03af\u03b1","name:left:uz":"Yunoniston","name:right:fr":"Bulgarie","name:left:ps":"\u064a\u0648\u0646\u0627\u0646","name:left:nv":"Gw\u00ed\u00edk Dine\u02bc\u00e9 Bik\u00e9yah","name:left:ur":"\u06cc\u0648\u0646\u0627\u0646","id:right":-186382,"name:left:uk":"\u0413\u0440\u0435\u0446\u0456\u044f","name:left:no":"Hellas","name:left:nl":"Griekenland","alt_name:right:eo":"Bulgario","name:right:fa":"\u0628\u0644\u063a\u0627\u0631\u0633\u062a\u0627\u0646","name:right:fo":"Bulgaria","name:left:ne":"\u0917\u094d\u0930\u0940\u0938","name:left:ug":"Gr\u00e9tsiye","name:left:na":"Grit","name:left:eo":"Grekujo","name:left:en":"Greece","name:left:ee":"Greece","name:right:tt":"\u0411\u043e\u043b\u0433\u0430\u0440\u0438\u044f","name:left:es":"Grecia","name:left:ie":"Grecia","name:left:eu":"Grezia","name:left:et":"Kreeka","name:right:zh-min-nan":"Bulgariya","name:right:oc":"Bulgaria","name:left:ia":"Grecia","name:right:bs":"Bugarska","name:right:uz":"Bolgariya","osm_relation":true,"name:right:or":"\u0b2c\u0b41\u0b32\u0b17\u0b3e\u0b30\u0b3f\u0b06","name:left:pt":"Gr\u00e9cia","name:right:ku":"Bulgaristan","name:right:tk":"Bolgari\u00fda","name:left:gl":"Grecia","min_zoom":8.0,"name:left:zh-min-nan":"Hi-lia\u030dp","name:left:ln":"Gresi","name:left:wo":"Girees","name:left:ga":"An Ghr\u00e9ig","name:left:it":"Grecia","name:left:gd":"A' Ghr\u00e8ig","int_name:right":"Bulgaria","name:left:gn":"Gyresia","name:left:gu":"\u0a97\u0acd\u0ab0\u0ac0\u0ab8","name:left:gv":"Yn Ghreag","official_name:right":"\u0420\u0435\u043f\u0443\u0431\u043b\u0438\u043a\u0430 \u0411\u044a\u043b\u0433\u0430\u0440\u0438\u044f","name:left":"\u0395\u03bb\u03bb\u03ac\u03b4\u03b1","name:right:mk":"\u0411\u0443\u0433\u0430\u0440\u0438\u0458\u0430","name:right:mi":"Puruk\u0101ria","name:right:mn":"\u0411\u043e\u043b\u0433\u0430\u0440","name:right:ml":"\u0d2c\u0d7e\u0d17\u0d47\u0d31\u0d3f\u0d2f","name:right:vo":"Bulgar\u00e4n","name:right:vi":"Bulgaria","name:right:my":"\u1018\u1030\u101c\u103a\u1002\u1031\u1038\u101b\u102e\u1038\u101a\u102c\u1038\u1014\u102d\u102f\u1004\u103a\u1004\u1036","name:right:ms":"Bulgaria","name:right:mr":"\u092c\u0932\u094d\u0917\u0947\u0930\u093f\u092f\u093e","name:right:fy":"Bulgarije","name:right:mt":"Bulgarija","name:left:nn":"Hellas","kind":"country","name:left:br":"Gres","name:left:bs":"Gr\u010dka","name:left:ba":"\u0413\u0440\u0435\u0446\u0438\u044f","name:left:bg":"\u0413\u044a\u0440\u0446\u0438\u044f","name:left:be":"\u0413\u0440\u044d\u0446\u044b\u044f","name:right:ff":"Bulgariya","name:left:bi":"Greece","name:left:bn":"\u0997\u09cd\u09b0\u09bf\u09b8","name:left:bo":"\u0f40\u0f7a\u0f0b\u0f62\u0f72\u0f0b\u0f66\u0f72\u0f0d","name:right":"\u0411\u044a\u043b\u0433\u0430\u0440\u0438\u044f","name:left:yo":"Gr\u00ed\u00ecs\u00ec","name:left:yi":"\u05d2\u05e8\u05d9\u05db\u05e0\u05dc\u05d0\u05e0\u05d3","id:left":-192307,"name:right:fi":"Bulgaria","name:right:ka":"\u10d1\u10e3\u10da\u10d2\u10d0\u10e0\u10d4\u10d7\u10d8","name:left:io":"Grekia","name:left:pa":"\u0a2f\u0a42\u0a28\u0a3e\u0a28","name:right:kg":"Balgaria","name:left:pl":"Grecja","name:right:kk":"\u0411\u043e\u043b\u0433\u0430\u0440\u0438\u044f","name:left:id":"Yunani","name:right:kl":"Bulgaria","name:right:ko":"\ubd88\uac00\ub9ac\uc544","name:right:kn":"\u0cac\u0cb2\u0ccd\u0c97\u0cc7\u0cb0\u0cbf\u0caf","name:right:tl":"Bulgarya","name:right:th":"\u0e1b\u0e23\u0e30\u0e40\u0e17\u0e28\u0e1a\u0e31\u0e25\u0e41\u0e01\u0e40\u0e23\u0e35\u0e22","name:right:kw":"Bulgari","name:right:kv":"\u0411\u043e\u043b\u0433\u0430\u0440\u0438\u044f","name:right:ky":"\u0411\u043e\u043b\u0433\u0430\u0440\u0438\u044f","name:right:te":"\u0c2c\u0c32\u0c4d\u0c17\u0c47\u0c30\u0c3f\u0c2f\u0c3e","name:right:tg":"\u0411\u0443\u043b\u0493\u043e\u0440\u0438\u0441\u0442\u043e\u043d","name:left:is":"Grikkland","name:right:ta":"\u0baa\u0bb2\u0bcd\u0b95\u0bbe\u0bb0\u0bbf\u0baf\u0bbe","name:right:de":"Bulgarien","name:right:da":"Bulgarien","name:left:rn":"Grecia","name:right:dv":"\u0784\u07a6\u078d\u07b0\u078e\u07ad\u0783\u07a8\u0787\u07a7","name:right:ht":"Bilgari"},"arcs":[0]},{"type":"LineString","properties":{"name:right:yo":"Or\u00edl\u1eb9\u0300-\u00e8d\u00e8 Ol\u00f3m\u00ecnira il\u1eb9\u0300 Mak\u1eb9d\u00f3n\u00ed\u00e0","name:right:yi":"\u05e8\u05e2\u05e4\u05d5\u05d1\u05dc\u05d9\u05e7 \u05e4\u05d5\u05df \u05de\u05d0\u05e7\u05e2\u05d3\u05d0\u05e0\u05d9\u05e2","name:left:la":"Graecia","name:right:qu":"Makidunya","name:left:li":"Griekeland","name:left:vi":"Hy L\u1ea1p","name:left:sw":"Ugiriki","name:left:kg":"Gelesi","name:left:ka":"\u10e1\u10d0\u10d1\u10d4\u10e0\u10eb\u10dc\u10d4\u10d7\u10d8","name:left:kl":"Gr\u00e6kerit Nunaat","name:left:ko":"\uadf8\ub9ac\uc2a4","name:left:kn":"\u0c97\u0ccd\u0cb0\u0cc0\u0cb8\u0ccd","name:left:ki":"Ngiriki","name:left:ro":"Grecia","name:left:kk":"\u0413\u0440\u0435\u043a\u0438\u044f","name:left:rm":"Grezia","name:left:ku":"Yewnanistan","name:left:kw":"Pow Grek","name:left:kv":"\u042d\u043b\u043b\u0430\u0434\u0430","name:right:ro":"Macedonia","name:left:ru":"\u0413\u0440\u0435\u0446\u0438\u044f","name:right:ie":"Macedonia","name:right:id":"Republik Makedonia","name:left:ky":"\u0413\u0440\u0435\u0446\u0438\u044f","name:right:ia":"Republica de Macedonia","name:right:bi":"Macedonia","name:right:bn":"\u09ae\u09cd\u09af\u09be\u09b8\u09c7\u09a1\u09cb\u09a8\u09bf\u09af\u09bc\u09be \u09aa\u09cd\u09b0\u099c\u09be\u09a4\u09a8\u09cd\u09a4\u09cd\u09b0","name:right:bo":"\u0f58\u0f0b\u0f66\u0f7a\u0f0b\u0f4c\u0f7c\u0f0b\u0f53\u0f72\u0f61\u0f0d (\u0f62\u0f92\u0fb1\u0f63\u0f0b\u0f41\u0f56\u0f0d)","name:left:sl":"Gr\u010dija","name:right:ba":"\u041c\u0430\u043a\u0435\u0434\u043e\u043d\u0438\u044f \u0420\u0435\u0441\u043f\u0443\u0431\u043b\u0438\u043a\u0430\u04bb\u044b","name:right:bg":"\u0420\u0435\u043f\u0443\u0431\u043b\u0438\u043a\u0430 \u041c\u0430\u043a\u0435\u0434\u043e\u043d\u0438\u044f","name:right:be":"\u0420\u044d\u0441\u043f\u0443\u0431\u043b\u0456\u043a\u0430 \u041c\u0430\u043a\u0435\u0434\u043e\u043d\u0456\u044f","name:right:br":"Republik Makedonia","name:left:lt":"Graikija","name:right:nn":"Republikken Makedonia","name:right:no":"Republikken Makedonia","name:right:nl":"Macedoni\u00eb (land)","name:left:lv":"Grie\u0137ija","name:right:wo":"R\u00e9ewum Maseduwaan","name:right:ne":"\u092e\u094d\u092f\u093e\u0938\u0947\u0921\u094b\u0928\u093f\u092f\u093e","name:right:na":"Matedoniya","name:right:gv":"Pobblaght ny Massadoan","name:left:mg":"Grisy","kind_detail":"2","name:left:tr":"Yunanistan","name:right:gu":"\u0aae\u0ac7\u0ab8\u0ac7\u0aa1\u0acb\u0aa8\u0abf\u0aaf\u0abe","name:right:ps":"\u062f \u0645\u0642\u062f\u0648\u0646\u064a\u06d0 \u0648\u0644\u0633\u0645\u0634\u0631\u064a\u0632\u0647","name:right:pt":"Maced\u00f3nia","name:left:mk":"\u0413\u0440\u0446\u0438\u0458\u0430","name:left:mi":"Kirihi","name:left:tt":"\u0413\u0440\u0435\u0446\u0438\u044f","name:left:mn":"\u0413\u0440\u0435\u043a","name:left:ml":"\u0d17\u0d4d\u0d30\u0d40\u0d38\u0d4d","name:left:th":"\u0e1b\u0e23\u0e30\u0e40\u0e17\u0e28\u0e01\u0e23\u0e35\u0e0b","name:right:pa":"\u0a2e\u0a15\u0a26\u0a42\u0a28\u0a40\u0a06 \u0a17\u0a23\u0a30\u0a3e\u0a1c","name:left:tk":"Gresi\u00fda","name:left:tl":"Gresya","name:left:mt":"Gre\u010bja","name:right:gl":"Rep\u00fablica de Macedonia - \u0420\u0435\u043f\u0443\u0431\u043b\u0438\u043a\u0430 \u041c\u0430\u043a\u0435\u0434\u043e\u043d\u0438\u0458\u0430","name:left:my":"\u1002\u101b\u102d\u1014\u102d\u102f\u1004\u103a\u1004\u1036","name:right:gn":"Masendo\u00f1a","name:right:pl":"Macedonia","name:left:te":"\u0c17\u0c4d\u0c30\u0c40\u0c38\u0c4d","name:left:tg":"\u042e\u043d\u043e\u043d","name:left:ms":"Greece","name:left:mr":"\u0917\u094d\u0930\u0940\u0938","name:right:tr":"Makedonya Cumhuriyeti","name:left:da":"Gr\u00e6kenland","name:left:de":"Griechenland","name:left:dz":"\u0f42\u0fb2\u0f80\u0f66","name:right:ga":"Poblacht na Macad\u00f3ine","name:left:dv":"\u0794\u07ab\u0782\u07a7\u0782\u07b0","name:right:ug":"\u0645\u0627\u0643\u06d0\u062f\u0648\u0646\u0649\u064a\u06d5","name:left:hi":"\u092f\u0942\u0928\u093e\u0928","name:right:lb":"Republik Mazedonien","name:right:uk":"\u041c\u0430\u043a\u0435\u0434\u043e\u043d\u0456\u044f","name:left:he":"\u05d9\u05d5\u05d5\u05df","name:right:li":"Macedoni\u00eb (land)","name:right:lt":"Makedonija","name:right:ur":"\u0645\u0642\u062f\u0648\u0646\u06cc\u06c1","name:right:lv":"Ma\u0137edonija","name:left:hy":"\u0540\u0578\u0582\u0576\u0561\u057d\u057f\u0561\u0576","name:left:ta":"\u0b95\u0bbf\u0bb0\u0bc7\u0b95\u0bcd\u0b95 \u0ba8\u0bbe\u0b9f\u0bc1","name:left:ht":"Gr\u00e8s","name:left:hu":"G\u00f6r\u00f6gorsz\u00e1g","name:left:hr":"Gr\u010dka","sort_rank":262,"name:right:gd":"Masadoinia","name:right:os":"\u0420\u0435\u0441\u043f\u0443\u0431\u043b\u0438\u043a\u00e6 \u041c\u0430\u043a\u0435\u0434\u043e\u043d\u0438","alt_name:right:cs":"B\u00fdval\u00e1 jugosl\u00e1vsk\u00e1 republika Makedonie","name:right:es":"Rep\u00fablica de Macedonia","name:right:eu":"Former Yugoslav Republic Of Macedonia","name:right:et":"Makedoonia","name:left:os":"\u0413\u0440\u0435\u043a\u044a","name:left:or":"\u0b17\u0b4d\u0b30\u0b40\u0b38","name:right:ee":"Republic of Macedonia","name:left:vo":"Grik\u00e4n","name:left:oc":"Gr\u00e8cia","name:right:eo":"Makedonujo","name:right:en":"Macedonia","name:right:el":"\u03a0\u03c1\u03ce\u03b7\u03bd \u0393\u03b9\u03bf\u03c5\u03b3\u03ba\u03bf\u03c3\u03bb\u03b1\u03b2\u03b9\u03ba\u03ae \u0394\u03b7\u03bc\u03bf\u03ba\u03c1\u03b1\u03c4\u03af\u03b1 \u03c4\u03b7\u03c2 \u039c\u03b1\u03ba\u03b5\u03b4\u03bf\u03bd\u03af\u03b1\u03c2","name:left:fa":"\u06cc\u0648\u0646\u0627\u0646","name:left:fo":"Grikkaland","name:right:sk":"Maced\u00f3nsko","name:left:fi":"Kreikka","name:left:fr":"Gr\u00e8ce","name:left:fy":"Grikel\u00e2n","name:right:ja":"\u30de\u30b1\u30c9\u30cb\u30a2\u5171\u548c\u56fd","name:right:sq":"Maqedonia","name:right:ss":"IMakhedoniya","name:left:ja":"\u30ae\u30ea\u30b7\u30e3","name:right:su":"Mak\u00e9donia","name:right:sw":"Jamhuri ya Masedonia","name:right:sv":"Makedonien","name:right:sh":"Makedonija","name:left:qu":"Grisya","name:right:jv":"R\u00e9publik Makedonia","name:right:sl":"Makedonija","name:right:so":"Makedonia","name:right:sa":"\u092e\u0947\u0938\u0947\u0921\u094b\u0928\u093f\u092f\u093e","name:right:sc":"Matzed\u00f2nia","name:left:jv":"Yunani","id":-192307,"name:right:ca":"Rep\u00fablica de Maced\u00f2nia","name:right:se":"Makedonia","name:right:ce":"\u041c\u0430\u043a\u0435\u0434\u043e\u043d\u0438","name:right:cy":"Gweriniaeth Macedonia","name:right:zh-yue":"\u99ac\u5176\u9813\u5171\u548c\u570b","name:right:cs":"Makedonie","name:right:cu":"\u041c\u0430\u043a\u0454\u0434\u043e\u043d\u0457\ua657","name:right:cv":"\u041c\u0430\u043a\u0435\u0434\u043e\u043d\u0438 \u0420\u0435\u0441\u043f\u0443\u0431\u043b\u0438\u043a\u0438","name:right:it":"Repubblica di Macedonia","name:left:ar":"\u0627\u0644\u064a\u0648\u0646\u0627\u0646","name:right:is":"L\u00fd\u00f0veldi\u00f0 Maked\u00f3n\u00eda","name:left:az":"Yunan\u0131stan","name:left:ay":"Grisya","name:right:rw":"Masedoniya","name:left:af":"Griekeland","name:left:ab":"\u0411\u0430\u0440\u0437\u0435\u043d\u0442\u04d9\u044b\u043b\u0430","name:left:an":"Grecia","name:left:am":"\u130d\u122a\u12ad","name:right:ru":"\u041c\u0430\u043a\u0435\u0434\u043e\u043d\u0438\u044f","name:right:io":"Republiko Macedonia","name:left:zh-yue":"\u5e0c\u81d8","name:left:rw":"Ubugereki","name:right:hy":"\u0544\u0561\u056f\u0565\u0564\u0578\u0576\u056b\u0561\u0575\u056b \u0540\u0561\u0576\u0580\u0561\u057a\u0565\u057f\u0578\u0582\u0569\u0575\u0578\u0582\u0576","name:left:lb":"Griicheland","alt_name:left:eo":"Grekio","name:left:lg":"Buyonaani","name:left:su":"Yunani","int_name:left":"Greece","name:right:hr":"Makedonija","name:left:sv":"Grekland","name:left:sq":"Greqia","name:right:hu":"Maced\u00f3nia","name:left:ss":"IGrikhi","name:left:sr":"\u0413\u0440\u0447\u043a\u0430","name:left:sm":"Kuliti","name:right:hi":"\u092e\u0948\u0938\u093f\u0921\u094b\u0928\u093f\u092f\u093e","name:left:so":"Giriig","name:left:si":"\u0d9c\u0dca\u200d\u0dbb\u0dd3\u0dc3\u0dd2\u0dba","name:left:sh":"Gr\u010dka","name:left:sk":"Gr\u00e9cko","name:left:se":"Greika","name:left:sa":"\u092f\u0935\u0928\u0926\u0947\u0936\u0903","name:right:he":"\u05de\u05e7\u05d3\u05d5\u05e0\u05d9\u05d4","name:left:sc":"Gr\u00e8ghia","name:right:la":"Respublica Macedonica","name:right:af":"Masedoni\u00eb","name:left:co":"Grecia","name:left:ce":"\u0413\u0440\u0435\u0446\u0438","name:right:an":"Macedonia","name:right:am":"\u1218\u1244\u12f6\u1292\u12eb","name:left:ca":"Gr\u00e8cia","source":"openstreetmap.org","name:left:cy":"Gwlad Groeg","name:right:ar":"\u0645\u0642\u062f\u0648\u0646\u064a\u0627","name:left:cu":"\u0413\u0440\u044c\u0446\u0438","name:left:cv":"\u0413\u0440\u0435\u0446\u0438","name:right:az":"Makedoniya","name:left:cs":"\u0158ecko","name":"\u0395\u03bb\u03bb\u03ac\u03b4\u03b1 - \u041c\u0430\u043a\u0435\u0434\u043e\u043d\u0438\u0458\u0430","name:left:zu":"IGreki","name:left:zh":"\u5e0c\u814a","name:right:zh":"\u99ac\u5176\u9813\u5171\u548c\u570b","official_name:left":"\u0395\u03bb\u03bb\u03b7\u03bd\u03b9\u03ba\u03ae \u0394\u03b7\u03bc\u03bf\u03ba\u03c1\u03b1\u03c4\u03af\u03b1","name:left:uz":"Yunoniston","name:right:fr":"Mac\u00e9doine (pays)","name:left:ps":"\u064a\u0648\u0646\u0627\u0646","name:left:nv":"Gw\u00ed\u00edk Dine\u02bc\u00e9 Bik\u00e9yah","name:left:ur":"\u06cc\u0648\u0646\u0627\u0646","id:right":-53293,"name:left:uk":"\u0413\u0440\u0435\u0446\u0456\u044f","name:left:no":"Hellas","name:left:nl":"Griekenland","alt_name:right:eo":"Makedonio","name:right:fa":"\u062c\u0645\u0647\u0648\u0631\u06cc \u0645\u0642\u062f\u0648\u0646\u06cc\u0647","name:right:fo":"L\u00fd\u00f0veldi\u00f0 Maked\u00f3nia","name:left:ne":"\u0917\u094d\u0930\u0940\u0938","name:left:ug":"Gr\u00e9tsiye","name:left:na":"Grit","name:left:eo":"Grekujo","name:left:en":"Greece","name:left:ee":"Greece","name:right:tt":"\u041c\u0430\u043a\u0435\u0434\u043e\u043d\u0438\u044f \u0496\u04e9\u043c\u04bb\u04af\u0440\u0438\u044f\u0442\u0435","name:left:es":"Grecia","name:left:ie":"Grecia","name:left:eu":"Grezia","name:left:et":"Kreeka","name:right:zh-min-nan":"Makedonija Ki\u014dng-h\u00f4-kok","name:right:oc":"Republica de Maced\u00f2nia","name:left:ia":"Grecia","name:right:bs":"Makedonija","name:right:uz":"Makedoniya Respublikasi","osm_relation":true,"name:right:or":"\u0b2e\u0b3e\u0b38\u0b3f\u0b21\u0b4b\u0b28\u0b3f\u0b06","name:left:pt":"Gr\u00e9cia","name:right:ku":"Komara Makedonyay\u00ea","name:right:tk":"Makedoni\u00fda Respublikasy","name:left:gl":"Grecia","min_zoom":8.0,"name:left:zh-min-nan":"Hi-lia\u030dp","name:left:ln":"Gresi","name:left:wo":"Girees","name:left:ga":"An Ghr\u00e9ig","name:left:it":"Grecia","name:left:gd":"A' Ghr\u00e8ig","int_name:right":"Macedonia","name:left:gn":"Gyresia","name:left:gu":"\u0a97\u0acd\u0ab0\u0ac0\u0ab8","name:left:gv":"Yn Ghreag","official_name:right":"\u0420\u0435\u043f\u0443\u0431\u043b\u0438\u043a\u0430 \u041c\u0430\u043a\u0435\u0434\u043e\u043d\u0438\u0458\u0430","name:left":"\u0395\u03bb\u03bb\u03ac\u03b4\u03b1","name:right:mi":"Maker\u014dnia","name:right:mn":"\u0411\u04af\u0433\u0434 \u041d\u0430\u0439\u0440\u0430\u043c\u0434\u0430\u0445 \u041c\u0430\u043a\u0435\u0434\u043e\u043d \u0423\u043b\u0441","name:right:ml":"\u0d31\u0d3f\u0d2a\u0d4d\u0d2a\u0d2c\u0d4d\u0d32\u0d3f\u0d15\u0d4d \u0d13\u0d2b\u0d4d \u0d2e\u0d3e\u0d38\u0d3f\u0d21\u0d4b\u0d23\u0d3f\u0d2f","name:right:vo":"Makedoniy\u00e4n","name:right:vi":"C\u1ed9ng h\u00f2a Macedonia","name:right:my":"\u1019\u1000\u103a\u1005\u102e\u1012\u102d\u102f\u1038\u1014\u102e\u1038\u101a\u102c\u1038\u1014\u102d\u102f\u1004\u103a\u1004\u1036","name:right:ms":"Republik Macedonia","name:right:mr":"\u092e\u0945\u0938\u093f\u0921\u094b\u0928\u093f\u092f\u093e","name:right:fy":"Masedoanje (l\u00e2n)","name:right:mt":"Repubblika tal-Ma\u010bedonja","name:left:nn":"Hellas","kind":"country","name:left:br":"Gres","name:left:bs":"Gr\u010dka","name:left:ba":"\u0413\u0440\u0435\u0446\u0438\u044f","name:left:bg":"\u0413\u044a\u0440\u0446\u0438\u044f","name:left:be":"\u0413\u0440\u044d\u0446\u044b\u044f","name:left:bi":"Greece","name:left:bn":"\u0997\u09cd\u09b0\u09bf\u09b8","name:left:bo":"\u0f40\u0f7a\u0f0b\u0f62\u0f72\u0f0b\u0f66\u0f72\u0f0d","name:right":"\u041c\u0430\u043a\u0435\u0434\u043e\u043d\u0438\u0458\u0430","name:left:yo":"Gr\u00ed\u00ecs\u00ec","name:left:yi":"\u05d2\u05e8\u05d9\u05db\u05e0\u05dc\u05d0\u05e0\u05d3","id:left":-192307,"name:right:fi":"Makedonia","name:right:ka":"\u10db\u10d0\u10d9\u10d4\u10d3\u10dd\u10dc\u10d8\u10d0","name:left:io":"Grekia","name:left:pa":"\u0a2f\u0a42\u0a28\u0a3e\u0a28","name:right:kg":"Makedonia","name:left:pl":"Grecja","name:right:kk":"\u041c\u0430\u043a\u0435\u0434\u043e\u043d\u0438\u044f \u0420\u0435\u0441\u043f\u0443\u0431\u043b\u0438\u043a\u0430\u0441\u044b","name:left:id":"Yunani","name:right:kl":"Makedonia","name:right:ko":"\ub9c8\ucf00\ub3c4\ub2c8\uc544 \uacf5\ud654\uad6d","name:right:kn":"\u0cae\u0ccd\u0caf\u0cbe\u0cb8\u0cc6\u0ca1\u0cca\u0ca8\u0cbf\u0caf \u0c97\u0ca3\u0cb0\u0cbe\u0c9c\u0ccd\u0caf","name:right:tl":"Republika ng Masedonya","name:right:th":"\u0e1b\u0e23\u0e30\u0e40\u0e17\u0e28\u0e21\u0e32\u0e0b\u0e34\u0e42\u0e14\u0e40\u0e19\u0e35\u0e22","name:right:kw":"Repoblek Makedoni","name:right:kv":"\u041c\u0430\u043a\u0435\u0434\u043e\u043d\u0438\u044f \u0420\u0435\u0441\u043f\u0443\u0431\u043b\u0438\u043a\u0430","name:right:te":"\u0c2e\u0c47\u0c38\u0c3f\u0c21\u0c4b\u0c28\u0c3f\u0c2f\u0c3e","name:right:tg":"\u04b6\u0443\u043c\u04b3\u0443\u0440\u0438\u0438 \u041c\u0430\u049b\u0434\u0443\u043d\u0438\u044f","name:left:is":"Grikkland","name:right:ta":"\u0bae\u0bbe\u0b95\u0bcd\u0b95\u0b9f\u0bcb\u0ba9\u0bbf\u0baf\u0b95\u0bcd \u0b95\u0bc1\u0b9f\u0bbf\u0baf\u0bb0\u0b9a\u0bc1","name:right:de":"Mazedonien","name:right:da":"Makedonien","name:left:rn":"Grecia","name:right:dv":"\u0789\u07ac\u0790\u07ac\u0791\u07af\u0782\u07a8\u0787\u07a7","name:right:ht":"Repiblik d Masedoni"},"arcs":[1]},{"type":"LineString","properties":{"name:right:yo":"Or\u00edl\u1eb9\u0300-\u00e8d\u00e8 Ol\u00f3m\u00ecnira il\u1eb9\u0300 Mak\u1eb9d\u00f3n\u00ed\u00e0","name:right:yi":"\u05e8\u05e2\u05e4\u05d5\u05d1\u05dc\u05d9\u05e7 \u05e4\u05d5\u05df \u05de\u05d0\u05e7\u05e2\u05d3\u05d0\u05e0\u05d9\u05e2","name:left:la":"Bulgaria","name:right:qu":"Makidunya","name:left:li":"B\u00f6lgarije","name:left:vi":"Bulgaria","name:left:sw":"Bulgaria","name:left:kg":"Balgaria","name:left:ka":"\u10d1\u10e3\u10da\u10d2\u10d0\u10e0\u10d4\u10d7\u10d8","name:left:kl":"Bulgaria","name:left:ko":"\ubd88\uac00\ub9ac\uc544","name:left:kn":"\u0cac\u0cb2\u0ccd\u0c97\u0cc7\u0cb0\u0cbf\u0caf","name:left:rn":"Bulgaria","name:left:ro":"Bulgaria","name:left:kk":"\u0411\u043e\u043b\u0433\u0430\u0440\u0438\u044f","name:left:rm":"Bulgaria","name:left:ku":"Bulgaristan","name:left:kw":"Bulgari","name:left:kv":"\u0411\u043e\u043b\u0433\u0430\u0440\u0438\u044f","name:right:ro":"Macedonia","name:left:ru":"\u0411\u043e\u043b\u0433\u0430\u0440\u0438\u044f","name:right:ie":"Macedonia","name:right:id":"Republik Makedonia","name:left:ky":"\u0411\u043e\u043b\u0433\u0430\u0440\u0438\u044f","name:right:ia":"Republica de Macedonia","name:right:bi":"Macedonia","name:right:bn":"\u09ae\u09cd\u09af\u09be\u09b8\u09c7\u09a1\u09cb\u09a8\u09bf\u09af\u09bc\u09be \u09aa\u09cd\u09b0\u099c\u09be\u09a4\u09a8\u09cd\u09a4\u09cd\u09b0","name:right:bo":"\u0f58\u0f0b\u0f66\u0f7a\u0f0b\u0f4c\u0f7c\u0f0b\u0f53\u0f72\u0f61\u0f0d (\u0f62\u0f92\u0fb1\u0f63\u0f0b\u0f41\u0f56\u0f0d)","name:left:sl":"Bolgarija","name:right:ba":"\u041c\u0430\u043a\u0435\u0434\u043e\u043d\u0438\u044f \u0420\u0435\u0441\u043f\u0443\u0431\u043b\u0438\u043a\u0430\u04bb\u044b","name:right:bg":"\u0420\u0435\u043f\u0443\u0431\u043b\u0438\u043a\u0430 \u041c\u0430\u043a\u0435\u0434\u043e\u043d\u0438\u044f","name:right:be":"\u0420\u044d\u0441\u043f\u0443\u0431\u043b\u0456\u043a\u0430 \u041c\u0430\u043a\u0435\u0434\u043e\u043d\u0456\u044f","name:right:br":"Republik Makedonia","name:right:bs":"Makedonija","name:right:nn":"Republikken Makedonia","name:right:no":"Republikken Makedonia","name:right:nl":"Macedoni\u00eb (land)","name:left:lv":"Bulg\u0101rija","name:right:wo":"R\u00e9ewum Maseduwaan","name:right:ne":"\u092e\u094d\u092f\u093e\u0938\u0947\u0921\u094b\u0928\u093f\u092f\u093e","name:right:na":"Matedoniya","name:right:gv":"Pobblaght ny Massadoan","kind_detail":"2","name:left:tr":"Bulgaristan","name:right:gu":"\u0aae\u0ac7\u0ab8\u0ac7\u0aa1\u0acb\u0aa8\u0abf\u0aaf\u0abe","name:right:ps":"\u062f \u0645\u0642\u062f\u0648\u0646\u064a\u06d0 \u0648\u0644\u0633\u0645\u0634\u0631\u064a\u0632\u0647","name:right:pt":"Maced\u00f3nia","name:left:mk":"\u0411\u0443\u0433\u0430\u0440\u0438\u0458\u0430","name:left:mi":"Puruk\u0101ria","name:left:tt":"\u0411\u043e\u043b\u0433\u0430\u0440\u0438\u044f","name:left:mn":"\u0411\u043e\u043b\u0433\u0430\u0440","name:left:ml":"\u0d2c\u0d7e\u0d17\u0d47\u0d31\u0d3f\u0d2f","name:left:th":"\u0e1b\u0e23\u0e30\u0e40\u0e17\u0e28\u0e1a\u0e31\u0e25\u0e41\u0e01\u0e40\u0e23\u0e35\u0e22","name:right:pa":"\u0a2e\u0a15\u0a26\u0a42\u0a28\u0a40\u0a06 \u0a17\u0a23\u0a30\u0a3e\u0a1c","name:left:tk":"Bolgari\u00fda","name:left:tl":"Bulgarya","name:left:mt":"Bulgarija","name:right:gl":"Rep\u00fablica de Macedonia - \u0420\u0435\u043f\u0443\u0431\u043b\u0438\u043a\u0430 \u041c\u0430\u043a\u0435\u0434\u043e\u043d\u0438\u0458\u0430","name:left:my":"\u1018\u1030\u101c\u103a\u1002\u1031\u1038\u101b\u102e\u1038\u101a\u102c\u1038\u1014\u102d\u102f\u1004\u103a\u1004\u1036","name:right:gn":"Masendo\u00f1a","name:right:pl":"Macedonia","name:left:te":"\u0c2c\u0c32\u0c4d\u0c17\u0c47\u0c30\u0c3f\u0c2f\u0c3e","name:left:tg":"\u0411\u0443\u043b\u0493\u043e\u0440\u0438\u0441\u0442\u043e\u043d","name:left:ms":"Bulgaria","name:left:mr":"\u092c\u0932\u094d\u0917\u0947\u0930\u093f\u092f\u093e","name:right:tr":"Makedonya Cumhuriyeti","name:left:da":"Bulgarien","name:left:de":"Bulgarien","name:right:ga":"Poblacht na Macad\u00f3ine","name:left:dv":"\u0784\u07a6\u078d\u07b0\u078e\u07ad\u0783\u07a8\u0787\u07a7","name:right:ug":"\u0645\u0627\u0643\u06d0\u062f\u0648\u0646\u0649\u064a\u06d5","name:left:hi":"\u092c\u0941\u0932\u094d\u0917\u093e\u0930\u093f\u092f\u093e","name:right:lb":"Republik Mazedonien","name:right:uk":"\u041c\u0430\u043a\u0435\u0434\u043e\u043d\u0456\u044f","name:left:he":"\u05d1\u05d5\u05dc\u05d2\u05e8\u05d9\u05d4","name:right:li":"Macedoni\u00eb (land)","name:right:lt":"Makedonija","name:right:ur":"\u0645\u0642\u062f\u0648\u0646\u06cc\u06c1","name:right:lv":"Ma\u0137edonija","name:left:hy":"\u0532\u0578\u0582\u056c\u0572\u0561\u0580\u056b\u0561","name:left:ta":"\u0baa\u0bb2\u0bcd\u0b95\u0bbe\u0bb0\u0bbf\u0baf\u0bbe","name:left:ht":"Bilgari","name:left:hu":"Bulg\u00e1ria","name:left:hr":"Bugarska","sort_rank":262,"name:right:gd":"Masadoinia","name:right:os":"\u0420\u0435\u0441\u043f\u0443\u0431\u043b\u0438\u043a\u00e6 \u041c\u0430\u043a\u0435\u0434\u043e\u043d\u0438","alt_name:right:cs":"B\u00fdval\u00e1 jugosl\u00e1vsk\u00e1 republika Makedonie","name:right:es":"Rep\u00fablica de Macedonia","name:right:eu":"Former Yugoslav Republic Of Macedonia","name:right:et":"Makedoonia","name:left:os":"\u0411\u043e\u043b\u0433\u0430\u0440\u0438","name:left:or":"\u0b2c\u0b41\u0b32\u0b17\u0b3e\u0b30\u0b3f\u0b06","name:right:ee":"Republic of Macedonia","name:left:vo":"Bulgar\u00e4n","name:left:oc":"Bulgaria","name:right:eo":"Makedonujo","name:right:en":"Macedonia","name:right:el":"\u03a0\u03c1\u03ce\u03b7\u03bd \u0393\u03b9\u03bf\u03c5\u03b3\u03ba\u03bf\u03c3\u03bb\u03b1\u03b2\u03b9\u03ba\u03ae \u0394\u03b7\u03bc\u03bf\u03ba\u03c1\u03b1\u03c4\u03af\u03b1 \u03c4\u03b7\u03c2 \u039c\u03b1\u03ba\u03b5\u03b4\u03bf\u03bd\u03af\u03b1\u03c2","name:left:ff":"Bulgariya","name:left:fa":"\u0628\u0644\u063a\u0627\u0631\u0633\u062a\u0627\u0646","name:left:fo":"Bulgaria","name:right:sk":"Maced\u00f3nsko","name:left:fi":"Bulgaria","name:left:fr":"Bulgarie","name:left:fy":"Bulgarije","name:right:ja":"\u30de\u30b1\u30c9\u30cb\u30a2\u5171\u548c\u56fd","name:right:sq":"Maqedonia","name:right:ss":"IMakhedoniya","name:left:ja":"\u30d6\u30eb\u30ac\u30ea\u30a2","name:right:su":"Mak\u00e9donia","name:right:sw":"Jamhuri ya Masedonia","name:right:sv":"Makedonien","name:right:sh":"Makedonija","name:left:qu":"Bulgarya","name:right:jv":"R\u00e9publik Makedonia","name:right:sl":"Makedonija","name:right:so":"Makedonia","name:right:sa":"\u092e\u0947\u0938\u0947\u0921\u094b\u0928\u093f\u092f\u093e","name:right:sc":"Matzed\u00f2nia","name:left:jv":"Bulgaria","id":-186382,"name:right:ca":"Rep\u00fablica de Maced\u00f2nia","name:right:se":"Makedonia","name:right:ce":"\u041c\u0430\u043a\u0435\u0434\u043e\u043d\u0438","name:right:cy":"Gweriniaeth Macedonia","name:right:zh-yue":"\u99ac\u5176\u9813\u5171\u548c\u570b","name:right:cs":"Makedonie","name:right:cu":"\u041c\u0430\u043a\u0454\u0434\u043e\u043d\u0457\ua657","name:right:cv":"\u041c\u0430\u043a\u0435\u0434\u043e\u043d\u0438 \u0420\u0435\u0441\u043f\u0443\u0431\u043b\u0438\u043a\u0438","name:right:it":"Repubblica di Macedonia","name:left:ar":"\u0628\u0644\u063a\u0627\u0631\u064a\u0627","name:right:is":"L\u00fd\u00f0veldi\u00f0 Maked\u00f3n\u00eda","name:left:az":"Bolqar\u0131stan","name:left:ay":"Bulkariya","name:right:rw":"Masedoniya","name:left:af":"Bulgarye","name:left:ab":"\u0411\u044b\u043b\u0433\u0430\u0440\u0438\u0430","name:left:an":"Bulgaria","name:left:am":"\u1261\u120d\u130b\u122a\u12eb","name:right:ru":"\u041c\u0430\u043a\u0435\u0434\u043e\u043d\u0438\u044f","name:right:io":"Republiko Macedonia","name:left:zh-yue":"\u4fdd\u52a0\u5229\u4e9e","name:left:rw":"Bulugariya","name:right:hy":"\u0544\u0561\u056f\u0565\u0564\u0578\u0576\u056b\u0561\u0575\u056b \u0540\u0561\u0576\u0580\u0561\u057a\u0565\u057f\u0578\u0582\u0569\u0575\u0578\u0582\u0576","name:left:lb":"Bulgarien","alt_name:left:eo":"Bulgario","name:left:su":"Bulgaria","int_name:left":"Bulgaria","name:right:hr":"Makedonija","name:left:sv":"Bulgarien","name:left:sq":"Bullgaria","name:right:hu":"Maced\u00f3nia","name:left:ss":"IBhulgariya","name:left:sr":"\u0411\u0443\u0433\u0430\u0440\u0441\u043a\u0430","name:left:sm":"Bultalia","name:right:hi":"\u092e\u0948\u0938\u093f\u0921\u094b\u0928\u093f\u092f\u093e","name:left:so":"Bulgaria","name:left:lt":"Bulgarija","name:left:sh":"Bugarska","name:left:sk":"Bulharsko","name:left:se":"Bulg\u00e1ria","name:left:sa":"\u092c\u0941\u0932\u094d\u0917\u093e\u0930\u093f\u092f\u093e","name:right:he":"\u05de\u05e7\u05d3\u05d5\u05e0\u05d9\u05d4","name:left:sc":"Bulgaria","name:right:la":"Respublica Macedonica","name:right:af":"Masedoni\u00eb","name:left:co":"Bulgaria","name:left:ce":"\u0411\u043e\u043b\u0433\u0430\u0440\u0438","name:right:an":"Macedonia","name:right:am":"\u1218\u1244\u12f6\u1292\u12eb","name:left:ca":"Bulg\u00e0ria","source":"openstreetmap.org","name:left:cy":"Bwlgaria","name:right:ar":"\u0645\u0642\u062f\u0648\u0646\u064a\u0627","name:left:cu":"\u0411\u043b\u044a\u0433\u0430\u0440\u0457\ua657","name:left:cv":"\u0422\u0103\u043d\u0430\u0439\u00e7\u0438 \u041f\u0103\u043b\u0445\u0430\u0440\u0115","name:right:az":"Makedoniya","name:left:cs":"Bulharsko","name":"\u0411\u044a\u043b\u0433\u0430\u0440\u0438\u044f - \u041c\u0430\u043a\u0435\u0434\u043e\u043d\u0438\u0458\u0430","name:left:zu":"IBulgariya","name:left:zh":"\u4fdd\u52a0\u5229\u4e9a","name:right:zh":"\u99ac\u5176\u9813\u5171\u548c\u570b","official_name:left":"\u0420\u0435\u043f\u0443\u0431\u043b\u0438\u043a\u0430 \u0411\u044a\u043b\u0433\u0430\u0440\u0438\u044f","name:left:uz":"Bolgariya","name:right:fr":"Mac\u00e9doine (pays)","name:left:ps":"\u0628\u0644\u063a\u0627\u0631\u06cc\u0627","name:left:nv":"B\u00e1lgaa Bik\u00e9yah","name:left:ur":"\u0628\u0644\u063a\u0627\u0631\u06cc\u06c1","id:right":-53293,"name:left:uk":"\u0411\u043e\u043b\u0433\u0430\u0440\u0456\u044f","name:left:no":"Bulgaria","name:left:nl":"Bulgarije","alt_name:right:eo":"Makedonio","name:right:fa":"\u062c\u0645\u0647\u0648\u0631\u06cc \u0645\u0642\u062f\u0648\u0646\u06cc\u0647","name:right:fo":"L\u00fd\u00f0veldi\u00f0 Maked\u00f3nia","name:left:ne":"\u092c\u0941\u0932\u094d\u0917\u0947\u0930\u093f\u092f\u093e","name:left:ug":"\u0628\u06c7\u0644\u063a\u0627\u0631\u0649\u064a\u06d5","name:left:na":"Borgeriya","name:left:eo":"Bulgarujo","name:left:en":"Bulgaria","name:left:el":"\u0392\u03bf\u03c5\u03bb\u03b3\u03b1\u03c1\u03af\u03b1","name:left:ee":"Bulgaria","name:left:pl":"Bu\u0142garia","name:left:es":"Bulgaria","name:left:ie":"Bulgaria","name:left:eu":"Bulgaria","name:left:et":"Bulgaaria","name:right:zh-min-nan":"Makedonija Ki\u014dng-h\u00f4-kok","name:right:oc":"Republica de Maced\u00f2nia","name:left:ia":"Bulgaria","name:right:uz":"Makedoniya Respublikasi","osm_relation":true,"name:right:or":"\u0b2e\u0b3e\u0b38\u0b3f\u0b21\u0b4b\u0b28\u0b3f\u0b06","name:left:pt":"Bulg\u00e1ria","name:right:th":"\u0e1b\u0e23\u0e30\u0e40\u0e17\u0e28\u0e21\u0e32\u0e0b\u0e34\u0e42\u0e14\u0e40\u0e19\u0e35\u0e22","name:right:tk":"Makedoni\u00fda Respublikasy","name:left:gl":"Bulgaria - \u0411\u044a\u043b\u0433\u0430\u0440\u0438\u044f","name:left:wa":"Bulg\u00e5reye","min_zoom":8.0,"name:left:zh-min-nan":"Bulgariya","name:left:ln":"Bulgaria","name:left:wo":"Bulgaari","name:left:ga":"An Bhulg\u00e1ir","name:left:it":"Bulgaria","name:left:gd":"Bulg\u00e0iria","int_name:right":"Macedonia","name:left:gn":"Vugaria","name:left:gu":"\u0aac\u0ab2\u0acd\u0a97\u0ac7\u0ab0\u0abf\u0aaf\u0abe","name:left:gv":"Yn Vulgeyr","official_name:right":"\u0420\u0435\u043f\u0443\u0431\u043b\u0438\u043a\u0430 \u041c\u0430\u043a\u0435\u0434\u043e\u043d\u0438\u0458\u0430","name:left":"\u0411\u044a\u043b\u0433\u0430\u0440\u0438\u044f","name:right:mi":"Maker\u014dnia","name:right:mn":"\u0411\u04af\u0433\u0434 \u041d\u0430\u0439\u0440\u0430\u043c\u0434\u0430\u0445 \u041c\u0430\u043a\u0435\u0434\u043e\u043d \u0423\u043b\u0441","name:right:ml":"\u0d31\u0d3f\u0d2a\u0d4d\u0d2a\u0d2c\u0d4d\u0d32\u0d3f\u0d15\u0d4d \u0d13\u0d2b\u0d4d \u0d2e\u0d3e\u0d38\u0d3f\u0d21\u0d4b\u0d23\u0d3f\u0d2f","name:right:vo":"Makedoniy\u00e4n","name:right:vi":"C\u1ed9ng h\u00f2a Macedonia","name:right:my":"\u1019\u1000\u103a\u1005\u102e\u1012\u102d\u102f\u1038\u1014\u102e\u1038\u101a\u102c\u1038\u1014\u102d\u102f\u1004\u103a\u1004\u1036","name:right:ms":"Republik Macedonia","name:right:mr":"\u092e\u0945\u0938\u093f\u0921\u094b\u0928\u093f\u092f\u093e","name:right:fy":"Masedoanje (l\u00e2n)","name:right:mt":"Repubblika tal-Ma\u010bedonja","name:left:nn":"Bulgaria","kind":"country","name:left:br":"Bulgaria","name:left:bs":"Bugarska","name:left:ba":"\u0411\u043e\u043b\u0433\u0430\u0440\u0438\u044f","name:left:be":"\u0411\u0430\u043b\u0433\u0430\u0440\u044b\u044f","name:left:bi":"Bulgaria","name:left:bn":"\u09ac\u09c1\u09b2\u0997\u09c7\u09b0\u09bf\u09af\u09bc\u09be","name:left:bo":"\u0f54\u0f74\u0f0b\u0f62\u0f0b\u0f42\u0f0b\u0f62\u0f72\u0f0b\u0f61\u0f0d","name:right":"\u041c\u0430\u043a\u0435\u0434\u043e\u043d\u0438\u0458\u0430","name:left:yo":"B\u00f9lg\u00e1r\u00ed\u00e0","name:left:yi":"\u05d1\u05d5\u05dc\u05d2\u05d0\u05e8\u05d9\u05e2","id:left":-186382,"name:right:fi":"Makedonia","name:right:ka":"\u10db\u10d0\u10d9\u10d4\u10d3\u10dd\u10dc\u10d8\u10d0","name:left:io":"Bulgaria","name:left:pa":"\u0a2c\u0a41\u0a32\u0a17\u0a3e\u0a30\u0a40\u0a06","name:right:kg":"Makedonia","name:right:tt":"\u041c\u0430\u043a\u0435\u0434\u043e\u043d\u0438\u044f \u0496\u04e9\u043c\u04bb\u04af\u0440\u0438\u044f\u0442\u0435","name:right:kk":"\u041c\u0430\u043a\u0435\u0434\u043e\u043d\u0438\u044f \u0420\u0435\u0441\u043f\u0443\u0431\u043b\u0438\u043a\u0430\u0441\u044b","name:left:id":"Bulgaria","name:right:kl":"Makedonia","name:right:ko":"\ub9c8\ucf00\ub3c4\ub2c8\uc544 \uacf5\ud654\uad6d","name:right:kn":"\u0cae\u0ccd\u0caf\u0cbe\u0cb8\u0cc6\u0ca1\u0cca\u0ca8\u0cbf\u0caf \u0c97\u0ca3\u0cb0\u0cbe\u0c9c\u0ccd\u0caf","name:right:tl":"Republika ng Masedonya","name:right:ku":"Komara Makedonyay\u00ea","name:right:kw":"Repoblek Makedoni","name:right:kv":"\u041c\u0430\u043a\u0435\u0434\u043e\u043d\u0438\u044f \u0420\u0435\u0441\u043f\u0443\u0431\u043b\u0438\u043a\u0430","name:right:te":"\u0c2e\u0c47\u0c38\u0c3f\u0c21\u0c4b\u0c28\u0c3f\u0c2f\u0c3e","name:right:tg":"\u04b6\u0443\u043c\u04b3\u0443\u0440\u0438\u0438 \u041c\u0430\u049b\u0434\u0443\u043d\u0438\u044f","name:left:is":"B\u00falgar\u00eda","name:right:ta":"\u0bae\u0bbe\u0b95\u0bcd\u0b95\u0b9f\u0bcb\u0ba9\u0bbf\u0baf\u0b95\u0bcd \u0b95\u0bc1\u0b9f\u0bbf\u0baf\u0bb0\u0b9a\u0bc1","name:right:de":"Mazedonien","name:right:da":"Makedonien","name:right:dv":"\u0789\u07ac\u0790\u07ac\u0791\u07af\u0782\u07a8\u0787\u07a7","name:right:ht":"Repiblik d Masedoni"},"arcs":[2]},{"type":"LineString","properties":{"int_name:right":"Jugoisto\u010den Region","name:right:ru":"\u042e\u0433\u043e-\u0412\u043e\u0441\u0442\u043e\u0447\u043d\u044b\u0439 \u0440\u0435\u0433\u0438\u043e\u043d","min_zoom":8.0,"name:left:ru":"\u041c\u0430\u043a\u0435\u0434\u043e\u043d\u0438\u0438 \u0438 \u0424\u0440\u0430\u043a\u0438\u0438","id:right":-2572240,"id":-5208399,"osm_relation":true,"name:right":"\u0408\u0443\u0433\u043e\u0438\u0441\u0442\u043e\u0447\u0435\u043d \u0420\u0435\u0433\u0438\u043e\u043d","kind":"region","name:left:en":"Macedonia - Thrace","sort_rank":256,"kind_detail":"4","name:left:de":"Makedonien - Thrakien","name":"\u039c\u03b1\u03ba\u03b5\u03b4\u03bf\u03bd\u03af\u03b1 - \u0398\u03c1\u03ac\u03ba\u03b7 - \u0408\u0443\u0433\u043e\u0438\u0441\u0442\u043e\u0447\u0435\u043d \u0420\u0435\u0433\u0438\u043e\u043d","source":"openstreetmap.org","name:right:de":"Region S\u00fcdosten","name:left:fr":"Mac\u00e9doine - Thrace","name:right:en":"Southeastern Region","id:left":-5208399,"official_name:left":"\u0391\u03c0\u03bf\u03ba\u03b5\u03bd\u03c4\u03c1\u03c9\u03bc\u03ad\u03bd\u03b7 \u0394\u03b9\u03bf\u03af\u03ba\u03b7\u03c3\u03b7 \u039c\u03b1\u03ba\u03b5\u03b4\u03bf\u03bd\u03af\u03b1\u03c2 - \u0398\u03c1\u03ac\u03ba\u03b7\u03c2","name:left":"\u039c\u03b1\u03ba\u03b5\u03b4\u03bf\u03bd\u03af\u03b1 - \u0398\u03c1\u03ac\u03ba\u03b7"},"arcs":[3]},{"type":"LineString","properties":{"kind":"region","name:en":"Macedonia - Thrace","name":"\u039c\u03b1\u03ba\u03b5\u03b4\u03bf\u03bd\u03af\u03b1 - \u0398\u03c1\u03ac\u03ba\u03b7","sort_rank":256,"kind_detail":"4","min_zoom":8.0,"official_name":"\u0391\u03c0\u03bf\u03ba\u03b5\u03bd\u03c4\u03c1\u03c9\u03bc\u03ad\u03bd\u03b7 \u0394\u03b9\u03bf\u03af\u03ba\u03b7\u03c3\u03b7 \u039c\u03b1\u03ba\u03b5\u03b4\u03bf\u03bd\u03af\u03b1\u03c2 - \u0398\u03c1\u03ac\u03ba\u03b7\u03c2","name:de":"Makedonien - Thrakien","source":"openstreetmap.org","name:fr":"Mac\u00e9doine - Thrace","name:ru":"\u041c\u0430\u043a\u0435\u0434\u043e\u043d\u0438\u0438 \u0438 \u0424\u0440\u0430\u043a\u0438\u0438","id":-5208399,"osm_relation":true},"arcs":[4]},{"type":"LineString","properties":{"int_name:right":"Isto\u010den Region","int_name:left":"Jugoisto\u010den Region","name:right:ru":"\u0412\u043e\u0441\u0442\u043e\u0447\u043d\u044b\u0439 \u0440\u0435\u0433\u0438\u043e\u043d","min_zoom":8.0,"name:left:ru":"\u042e\u0433\u043e-\u0412\u043e\u0441\u0442\u043e\u0447\u043d\u044b\u0439 \u0440\u0435\u0433\u0438\u043e\u043d","id:right":-2572069,"id":-2572240,"osm_relation":true,"name:right":"\u0418\u0441\u0442\u043e\u0447\u0435\u043d \u0420\u0435\u0433\u0438\u043e\u043d","kind":"region","name:left:en":"Southeastern Region","sort_rank":256,"name:right:de":"Region Osten","name:left:de":"Region S\u00fcdosten","name":"\u0408\u0443\u0433\u043e\u0438\u0441\u0442\u043e\u0447\u0435\u043d \u0420\u0435\u0433\u0438\u043e\u043d - \u0418\u0441\u0442\u043e\u0447\u0435\u043d \u0420\u0435\u0433\u0438\u043e\u043d","source":"openstreetmap.org","name:right:en":"Eastern Region","id:left":-2572240,"kind_detail":"4","name:left":"\u0408\u0443\u0433\u043e\u0438\u0441\u0442\u043e\u0447\u0435\u043d \u0420\u0435\u0433\u0438\u043e\u043d"},"arcs":[5]},{"type":"LineString","properties":{"kind":"region","name:en":"Southeastern Region","name":"\u0408\u0443\u0433\u043e\u0438\u0441\u0442\u043e\u0447\u0435\u043d \u0420\u0435\u0433\u0438\u043e\u043d","sort_rank":256,"kind_detail":"4","name:de":"Region S\u00fcdosten","source":"openstreetmap.org","min_zoom":8.0,"int_name":"Jugoisto\u010den Region","name:ru":"\u042e\u0433\u043e-\u0412\u043e\u0441\u0442\u043e\u0447\u043d\u044b\u0439 \u0440\u0435\u0433\u0438\u043e\u043d","id":-2572240,"osm_relation":true},"arcs":[6]},{"type":"LineString","properties":{"kind":"region","name:en":"Eastern Region","name":"\u0418\u0441\u0442\u043e\u0447\u0435\u043d \u0420\u0435\u0433\u0438\u043e\u043d","sort_rank":256,"kind_detail":"4","name:de":"Region Osten","source":"openstreetmap.org","min_zoom":8.0,"int_name":"Isto\u010den Region","name:ru":"\u0412\u043e\u0441\u0442\u043e\u0447\u043d\u044b\u0439 \u0440\u0435\u0433\u0438\u043e\u043d","id":-2572069,"osm_relation":true},"arcs":[7]}]},"roads":{"type":"GeometryCollection","geometries":[{"type":"LineString","properties":{"kind":"major_road","name:en":"Kliment Ohridski","network":"mk:national","sort_rank":380,"kind_detail":"primary","is_bicycle_related":true,"source":"openstreetmap.org","min_zoom":8.0,"int_name":"Kliment Ohridski","landuse_kind":"residential","shield_text":"4","ref":"A4","id":206780033},"arcs":[19]},{"type":"MultiLineString","properties":{"kind":"major_road","network":"mk:national","sort_rank":380,"kind_detail":"primary","source":"openstreetmap.org","min_zoom":8.0,"shield_text":"3","ref":"A3"},"arcs":[[20],[21],[22],[23]]},{"type":"MultiLineString","properties":{"kind":"major_road","int_name":"Kilkis - Promachonas","network":"GR:national","sort_rank":380,"kind_detail":"primary","source":"openstreetmap.org","min_zoom":8.0,"landuse_kind":"park","shield_text":"\u0395\u039f65","ref":"\u0395\u039f65"},"arcs":[[24],[25]]},{"type":"MultiLineString","properties":{"source":"openstreetmap.org","kind":"major_road","int_name":"Leninova","landuse_kind":"residential","sort_rank":380,"kind_detail":"primary","min_zoom":8.0},"arcs":[[26],[27],[28],[29]]},{"type":"LineString","properties":{"kind":"major_road","network":"mk:national","sort_rank":380,"kind_detail":"primary","source":"openstreetmap.org","min_zoom":8.0,"shield_text":"4","ref":"A4e"},"arcs":[30]},{"type":"LineString","properties":{"source":"openstreetmap.org","kind":"major_road","name:en":"Iane Sandanski","sort_rank":380,"kind_detail":"primary","min_zoom":8.0,"id":38960990},"arcs":[31]},{"type":"MultiLineString","properties":{"kind":"major_road","int_name":"Serres - Drama","network":"GR:national","sort_rank":380,"kind_detail":"primary","source":"openstreetmap.org","min_zoom":8.0,"landuse_kind":"urban_area","shield_text":"\u0395\u039f12","ref":"\u0395\u039f12"},"arcs":[[32],[33]]},{"type":"MultiLineString","properties":{"kind":"major_road","network":"mk:national","sort_rank":380,"kind_detail":"primary","source":"openstreetmap.org","min_zoom":8.0,"landuse_kind":"residential","shield_text":"2432","ref":"R2432"},"arcs":[[34],[35],[36],[37]]},{"type":"LineString","properties":{"kind":"major_road","network":"GR:national","sort_rank":380,"kind_detail":"primary","source":"openstreetmap.org","min_zoom":8.0,"landuse_kind":"urban_area","shield_text":"\u0395\u039f12","ref":"\u0395\u039f12","id":399227088},"arcs":[38]},{"type":"MultiLineString","properties":{"kind":"major_road","network":"bg:national","sort_rank":381,"kind_detail":"trunk","source":"openstreetmap.org","min_zoom":8.0,"landuse_kind":"residential","shield_text":"1","ref":"1"},"arcs":[[39],[40]]},{"type":"LineString","properties":{"kind":"major_road","name:en":"Kliment Ohridski","network":"mk:national","sort_rank":380,"kind_detail":"primary","source":"openstreetmap.org","min_zoom":8.0,"int_name":"Kliment Ohridski","landuse_kind":"residential","shield_text":"4","ref":"A4","id":226919117},"arcs":[41]},{"type":"LineString","properties":{"kind":"major_road","network":"bg:national","sort_rank":379,"kind_detail":"secondary","is_bicycle_related":true,"bicycle_shield_text":null,"bicycle_network":"icn","source":"openstreetmap.org","min_zoom":8.0,"shield_text":"198","ref":"198"},"arcs":[42]},{"type":"MultiLineString","properties":{"source":"openstreetmap.org","kind":"major_road","network":"gr:provincial:52","sort_rank":380,"kind_detail":"primary","min_zoom":8.0,"shield_text":"5212"},"arcs":[[43],[44],[45]]},{"type":"MultiLineString","properties":{"sort_rank":380,"kind_detail":"primary","min_zoom":8.0,"kind":"major_road","source":"openstreetmap.org"},"arcs":[[46],[47],[48],[49],[50],[51],[52],[53],[54],[55],[56],[57],[58],[59],[60],[61],[62],[63],[64],[65],[66]]},{"type":"LineString","properties":{"kind":"major_road","network":"mk:national","sort_rank":380,"kind_detail":"primary","is_bicycle_related":true,"source":"openstreetmap.org","min_zoom":8.0,"landuse_kind":"residential","shield_text":"2432","ref":"R2432","id":232229976},"arcs":[67]},{"type":"MultiLineString","properties":{"source":"openstreetmap.org","kind":"major_road","name:en":"Vlado Chernozemski","landuse_kind":"residential","sort_rank":380,"kind_detail":"primary","min_zoom":8.0},"arcs":[[68],[69],[70]]},{"type":"MultiLineString","properties":{"kind":"major_road","network":"bg:national","sort_rank":380,"kind_detail":"primary","source":"openstreetmap.org","min_zoom":8.0,"shield_text":"1","ref":"1"},"arcs":[[71],[72],[73]]},{"type":"MultiLineString","properties":{"kind":"major_road","network":"GR:national","sort_rank":380,"kind_detail":"primary","source":"openstreetmap.org","min_zoom":8.0,"shield_text":"\u0395\u039f63","ref":"\u0395\u039f63"},"arcs":[[74],[75]]},{"type":"LineString","properties":{"kind":"major_road","network":"bg:national","sort_rank":381,"kind_detail":"trunk","source":"openstreetmap.org","min_zoom":8.0,"shield_text":"1","ref":"1"},"arcs":[76]},{"type":"MultiLineString","properties":{"kind":"major_road","name:en":"Thessaloniki - Promachonas","network":"e-road","sort_rank":381,"kind_detail":"trunk","source":"openstreetmap.org","min_zoom":8.0,"landuse_kind":"park","shield_text":"79","ref":"\u039125"},"arcs":[[77],[78]]},{"type":"MultiLineString","properties":{"kind":"major_road","sort_rank":377,"kind_detail":"tertiary","is_bicycle_related":true,"bicycle_shield_text":null,"bicycle_network":"icn","source":"openstreetmap.org","min_zoom":8.0},"arcs":[[79],[80],[81]]},{"type":"MultiLineString","properties":{"kind":"highway","int_name":"Thessaloniki - Promachonas","network":"e-road","sort_rank":383,"kind_detail":"motorway","source":"openstreetmap.org","min_zoom":8.0,"all_networks":["e-road",null],"shield_text":"79","ref":"\u039125","all_shield_texts":["79","25"]},"arcs":[[82],[83],[84],[85],[86],[87],[88],[89],[90],[91],[92],[93]]},{"type":"MultiLineString","properties":{"kind":"major_road","name:en":"Serres Ring Road","network":"GR:national","sort_rank":380,"kind_detail":"primary","source":"openstreetmap.org","min_zoom":8.0,"shield_text":"\u0395\u039f12","ref":"\u0395\u039f12"},"arcs":[[94],[95],[96],[97],[98],[99],[100]]},{"type":"LineString","properties":{"kind":"major_road","name:en":"Mitropolit Boris","sort_rank":380,"landuse_kind":"residential","source":"openstreetmap.org","min_zoom":8.0,"kind_detail":"primary","id":46673816},"arcs":[101]},{"type":"MultiLineString","properties":{"kind":"major_road","network":"bg:national","sort_rank":377,"kind_detail":"tertiary","is_bicycle_related":true,"bicycle_shield_text":null,"bicycle_network":"icn","source":"openstreetmap.org","min_zoom":8.0,"shield_text":"1907","ref":"1907"},"arcs":[[102],[103],[104],[105],[106]]},{"type":"MultiLineString","properties":{"kind":"major_road","sort_rank":377,"kind_detail":"tertiary","is_bicycle_related":true,"bicycle_shield_text":null,"bicycle_network":"icn","source":"openstreetmap.org","min_zoom":8.0,"ref":"1906"},"arcs":[[107],[108]]},{"type":"LineString","properties":{"source":"openstreetmap.org","kind":"major_road","sort_rank":380,"kind_detail":"primary","ref":"19","min_zoom":8.0},"arcs":[109]},{"type":"MultiLineString","properties":{"name:el":"Gefyra Bistritsas","kind":"major_road","name:en":"Bistrica Bridge","network":"e-road","sort_rank":381,"kind_detail":"trunk","name:fr":"Pont Bistrica","name:de":"Bistrica Br\u00fccke","source":"openstreetmap.org","min_zoom":8.0,"shield_text":"79"},"arcs":[[110],[111]]},{"type":"MultiLineString","properties":{"kind":"major_road","int_name":"Drama - Kato Nevrokopi","network":"gr:national","sort_rank":380,"kind_detail":"primary","source":"openstreetmap.org","min_zoom":8.0,"shield_text":"\u0395\u039f57","ref":"\u0395\u039f57"},"arcs":[[112],[113],[114]]},{"type":"LineString","properties":{"kind":"major_road","name:en":"Kameni\u010dka","network":"mk:national","sort_rank":380,"kind_detail":"primary","source":"openstreetmap.org","min_zoom":8.0,"shield_text":"3","ref":"A3","id":34966570},"arcs":[115]},{"type":"MultiLineString","properties":{"name:el":"Gefyra Bistritsas","kind":"major_road","name:en":"Bistrica Bridge","network":"e-road","sort_rank":381,"kind_detail":"trunk","name:de":"Bistrica Br\u00fccke","source":"openstreetmap.org","min_zoom":8.0,"landuse_kind":"park","shield_text":"79","name:bg":"\u041c\u043e\u0441\u0442 \u043d\u0430\u0434 \u0440\u0435\u043a\u0430 \u0411\u0438\u0441\u0442\u0440\u0438\u0446\u0430"},"arcs":[[116],[117]]},{"type":"MultiLineString","properties":{"kind":"major_road","name:en":"Sveti Dimitar Soluncki","sort_rank":380,"landuse_kind":"residential","is_bicycle_related":true,"bicycle_shield_text":null,"bicycle_network":"icn","source":"openstreetmap.org","min_zoom":8.0,"kind_detail":"primary"},"arcs":[[118],[119]]},{"type":"MultiLineString","properties":{"source":"openstreetmap.org","kind":"major_road","name:en":"Ivan Mihailov","landuse_kind":"residential","sort_rank":380,"kind_detail":"primary","min_zoom":8.0},"arcs":[[120],[121],[122],[123],[124]]},{"type":"LineString","properties":{"kind":"minor_road","sort_rank":360,"kind_detail":"unclassified","is_bicycle_related":true,"bicycle_shield_text":null,"bicycle_network":"icn","source":"openstreetmap.org","min_zoom":8.0,"landuse_kind":"nature_reserve","id":30102131},"arcs":[125]},{"type":"MultiLineString","properties":{"source":"openstreetmap.org","kind":"major_road","name:en":"Sveti Dimitar Soluncki","landuse_kind":"residential","sort_rank":380,"kind_detail":"primary","min_zoom":8.0},"arcs":[[126],[127]]},{"type":"LineString","properties":{"kind":"major_road","network":"bg:national","sort_rank":377,"kind_detail":"tertiary","is_bicycle_related":true,"bicycle_shield_text":null,"bicycle_network":"icn","source":"openstreetmap.org","min_zoom":8.0,"shield_text":"106","ref":"106"},"arcs":[128]},{"type":"LineString","properties":{"kind":"minor_road","sort_rank":360,"kind_detail":"residential","is_bicycle_related":true,"bicycle_shield_text":null,"bicycle_network":"icn","source":"openstreetmap.org","min_zoom":8.0,"landuse_kind":"urban_area","id":216504926},"arcs":[129]},{"type":"MultiLineString","properties":{"kind":"major_road","name:en":"Serres Ring Road","network":"GR:national","sort_rank":380,"kind_detail":"primary","source":"openstreetmap.org","min_zoom":8.0,"landuse_kind":"residential","shield_text":"\u0395\u039f12","ref":"\u0395\u039f12"},"arcs":[[130],[131],[132],[133],[134]]},{"type":"MultiLineString","properties":{"kind":"major_road","int_name":"Athina - Thessaloniki - Evzoni","network":"e-road","sort_rank":381,"kind_detail":"trunk","name:fr":"Ath\u00e8nes - Thessalonique - Evzoni","source":"openstreetmap.org","min_zoom":8.0,"name:en":"Athens - Thessaloniki - Evzonoi","old_name":"\u0395\u03b8\u03bd\u03b9\u03ba\u03ae \u039f\u03b4\u03cc\u03c2 \u03a0\u0391\u0398\u0395","shield_text":"75","ref":"\u03911","name:mk":"\u0410\u0442\u0438\u043d\u0430 - \u0421\u043e\u043b\u0443\u043d - \u041c\u0430\u0447\u0443\u043a\u043e\u0432\u043e"},"arcs":[[135],[136],[137],[138],[139]]},{"type":"MultiLineString","properties":{"kind":"major_road","network":"mk:national","sort_rank":380,"kind_detail":"primary","source":"openstreetmap.org","min_zoom":8.0,"landuse_kind":"residential","shield_text":"4","ref":"A4"},"arcs":[[140],[141],[142],[143]]},{"type":"LineString","properties":{"kind":"major_road","network":"mk:national","sort_rank":380,"kind_detail":"primary","source":"openstreetmap.org","min_zoom":8.0,"landuse_kind":"urban_area","shield_text":"4","ref":"A4"},"arcs":[144]},{"type":"MultiLineString","properties":{"kind":"highway","name:en":"Struma Motorway","network":"bg:national","sort_rank":383,"landuse_kind":"urban_area","source":"openstreetmap.org","min_zoom":8.0,"int_name":"Struma Motorway","all_networks":["bg:national","e-road"],"kind_detail":"motorway","shield_text":"3","ref":"A 3","all_shield_texts":["3","79"]},"arcs":[[145],[146]]},{"type":"MultiLineString","properties":{"kind":"minor_road","sort_rank":360,"kind_detail":"unclassified","is_bicycle_related":true,"bicycle_shield_text":null,"bicycle_network":"icn","source":"openstreetmap.org","min_zoom":8.0},"arcs":[[147],[148],[149],[150],[151],[152],[153],[154],[155]]},{"type":"MultiLineString","properties":{"kind":"highway","int_name":"Aleksandar Makedonski","network":"mk:national","sort_rank":383,"kind_detail":"motorway","source":"openstreetmap.org","min_zoom":8.0,"name:en":"Alexander of Macedonia","all_networks":["mk:national","e-road"],"shield_text":"1","ref":"A1","all_shield_texts":["1","75"]},"arcs":[[156],[157]]},{"type":"MultiLineString","properties":{"kind":"major_road","network":"mk:national","sort_rank":380,"landuse_kind":"residential","is_bicycle_related":true,"bicycle_shield_text":null,"bicycle_network":"icn","source":"openstreetmap.org","min_zoom":8.0,"kind_detail":"primary","shield_text":"4","ref":"A4"},"arcs":[[158],[159],[160]]},{"type":"MultiLineString","properties":{"kind":"major_road","network":"mk:national","sort_rank":380,"kind_detail":"primary","is_bicycle_related":true,"bicycle_shield_text":null,"bicycle_network":"icn","source":"openstreetmap.org","min_zoom":8.0,"shield_text":"4","ref":"A4"},"arcs":[[161],[162],[163],[164]]},{"type":"MultiLineString","properties":{"kind":"major_road","network":"mk:national","sort_rank":380,"kind_detail":"primary","is_bicycle_related":true,"bicycle_shield_text":null,"bicycle_network":"icn","source":"openstreetmap.org","min_zoom":8.0,"shield_text":"3","ref":"A3"},"arcs":[[165],[166],[167],[168],[169]]},{"type":"MultiLineString","properties":{"kind":"major_road","network":"mk:national","sort_rank":379,"kind_detail":"secondary","is_bicycle_related":true,"bicycle_shield_text":null,"bicycle_network":"icn","source":"openstreetmap.org","min_zoom":8.0,"shield_text":"1402","ref":"R1402"},"arcs":[[170],[171],[172],[173]]},{"type":"LineString","properties":{"kind":"major_road","name:en":"Kliment Ohridski","sort_rank":380,"kind_detail":"primary","source":"openstreetmap.org","min_zoom":8.0,"int_name":"Kliment Ohridski","landuse_kind":"residential","id":174986113},"arcs":[174]},{"type":"LineString","properties":{"kind":"major_road","network":"bg:national","sort_rank":379,"kind_detail":"secondary","is_bicycle_related":true,"bicycle_shield_text":null,"bicycle_network":"icn","source":"openstreetmap.org","min_zoom":8.0,"shield_text":"19","ref":"19","id":206776983},"arcs":[175]},{"type":"MultiLineString","properties":{"kind":"major_road","network":"bg:national","sort_rank":377,"landuse_kind":"urban_area","is_bicycle_related":true,"bicycle_shield_text":null,"bicycle_network":"icn","source":"openstreetmap.org","min_zoom":8.0,"kind_detail":"tertiary","shield_text":"106","ref":"106"},"arcs":[[176],[177],[178]]},{"type":"LineString","properties":{"kind":"minor_road","name:en":"ul. 22-ri oktomvri","sort_rank":360,"kind_detail":"residential","is_bicycle_related":true,"bicycle_shield_text":null,"bicycle_network":"icn","source":"openstreetmap.org","min_zoom":8.0,"id":38738470},"arcs":[179]},{"type":"LineString","properties":{"kind":"major_road","name:en":"Sveti Dimitar Soluncki","sort_rank":380,"landuse_kind":"urban_area","source":"openstreetmap.org","min_zoom":8.0,"kind_detail":"primary","id":38905876},"arcs":[180]},{"type":"LineString","properties":{"kind":"major_road","int_name":"Kilkis - Promachonas","network":"GR:national","sort_rank":380,"kind_detail":"primary","source":"openstreetmap.org","min_zoom":8.0,"shield_text":"\u0395\u039f65","ref":"\u0395\u039f65"},"arcs":[181]},{"type":"MultiLineString","properties":{"kind":"major_road","int_name":"Provatas - Serres","network":"GR:national","sort_rank":380,"kind_detail":"primary","source":"openstreetmap.org","min_zoom":8.0,"shield_text":"\u0395\u039f12","ref":"\u0395\u039f12"},"arcs":[[182],[183],[184],[185],[186]]},{"type":"LineString","properties":{"kind":"major_road","name:en":"Bulgaria st.","sort_rank":377,"kind_detail":"tertiary","is_bicycle_related":true,"bicycle_shield_text":null,"bicycle_network":"icn","source":"openstreetmap.org","min_zoom":8.0,"id":320883138},"arcs":[187]},{"type":"MultiLineString","properties":{"kind":"major_road","network":"mk:national","sort_rank":380,"kind_detail":"primary","source":"openstreetmap.org","min_zoom":8.0,"shield_text":"4","ref":"A4"},"arcs":[[188],[189],[190],[191],[192]]},{"type":"LineString","properties":{"kind":"major_road","network":"gr:national","sort_rank":380,"kind_detail":"primary","source":"openstreetmap.org","min_zoom":8.0,"shield_text":"\u0395\u039f57","ref":"EO57","id":435805359},"arcs":[193]},{"type":"MultiLineString","properties":{"source":"openstreetmap.org","kind":"major_road","name:en":"James Bourchier","landuse_kind":"residential","sort_rank":380,"kind_detail":"primary","min_zoom":8.0},"arcs":[[194],[195]]},{"type":"MultiLineString","properties":{"kind":"major_road","network":"bg:national","sort_rank":381,"landuse_kind":"urban_area","source":"openstreetmap.org","min_zoom":8.0,"kind_detail":"trunk","shield_text":"1","ref":"1"},"arcs":[[196],[197],[198],[199],[200],[201],[202],[203]]},{"type":"MultiLineString","properties":{"kind":"major_road","int_name":"Kilkis - Promachonas","network":"GR:national","sort_rank":380,"kind_detail":"primary","source":"openstreetmap.org","min_zoom":8.0,"name:en":"Kilkis - Promachonas","landuse_kind":"park","shield_text":"\u0395\u039f65","ref":"\u0395\u039f65"},"arcs":[[204],[205],[206]]},{"type":"MultiLineString","properties":{"kind":"major_road","name:en":"Serres Ring Road","network":"GR:national","sort_rank":380,"kind_detail":"primary","source":"openstreetmap.org","min_zoom":8.0,"landuse_kind":"urban_area","shield_text":"\u0395\u039f12","ref":"\u0395\u039f12"},"arcs":[[207],[208],[209],[210],[211],[212]]},{"type":"MultiLineString","properties":{"kind":"major_road","int_name":"Thessaloniki - Serres","network":"GR:national","sort_rank":380,"kind_detail":"primary","source":"openstreetmap.org","min_zoom":8.0,"shield_text":"\u0395\u039f12","ref":"\u0395\u039f12"},"arcs":[[213],[214]]},{"type":"LineString","properties":{"kind":"major_road","network":"mk:national","sort_rank":355,"kind_detail":"secondary_link","is_bicycle_related":true,"bicycle_shield_text":null,"bicycle_network":"icn","source":"openstreetmap.org","min_zoom":8.0,"is_link":true,"shield_text":"1302","ref":"R1302","id":180024960},"arcs":[215]},{"type":"MultiLineString","properties":{"kind":"major_road","int_name":"Kato Nevrokopi - Exochi","network":"gr:national","sort_rank":380,"kind_detail":"primary","source":"openstreetmap.org","min_zoom":8.0,"shield_text":"\u0395\u039f57","ref":"\u0395\u039f57"},"arcs":[[216],[217],[218]]},{"type":"MultiLineString","properties":{"kind":"major_road","sort_rank":380,"kind_detail":"primary","is_bicycle_related":true,"bicycle_shield_text":null,"bicycle_network":"icn","source":"openstreetmap.org","min_zoom":8.0,"landuse_kind":"residential"},"arcs":[[219],[220]]},{"type":"LineString","properties":{"kind":"major_road","sort_rank":380,"landuse_kind":"residential","source":"openstreetmap.org","min_zoom":8.0,"kind_detail":"primary","ref":"A4","id":185806915},"arcs":[221]},{"type":"MultiLineString","properties":{"kind":"highway","name:en":"Struma Motorway","network":"bg:national","sort_rank":383,"kind_detail":"motorway","source":"openstreetmap.org","min_zoom":8.0,"int_name":"Struma Motorway","all_networks":["bg:national","e-road"],"shield_text":"3","ref":"A 3","all_shield_texts":["3","79"]},"arcs":[[222],[223],[224],[225]]},{"type":"MultiLineString","properties":{"kind":"major_road","name:en":"Kilkis - Promachonas","network":"GR:national","sort_rank":380,"kind_detail":"primary","source":"openstreetmap.org","min_zoom":8.0,"landuse_kind":"park","shield_text":"\u0395\u039f65","ref":"\u0395\u039f65"},"arcs":[[226],[227],[228]]},{"type":"LineString","properties":{"kind":"major_road","name:en":"Kilkis bypass","network":"GR:national","sort_rank":380,"kind_detail":"primary","source":"openstreetmap.org","min_zoom":8.0,"shield_text":"\u0395\u039f65","ref":"EO65"},"arcs":[229]},{"type":"LineString","properties":{"source":"openstreetmap.org","kind":"major_road","name:en":"Iane sandanski","sort_rank":380,"kind_detail":"primary","min_zoom":8.0},"arcs":[230]},{"type":"LineString","properties":{"kind":"major_road","name:en":"Sveti Dimityr soluncki","sort_rank":380,"landuse_kind":"urban_area","source":"openstreetmap.org","min_zoom":8.0,"kind_detail":"primary","id":39268560},"arcs":[231]},{"type":"LineString","properties":{"kind":"major_road","name:en":"ul. Polk Drangov","sort_rank":377,"kind_detail":"tertiary","is_bicycle_related":true,"bicycle_shield_text":null,"bicycle_network":"icn","source":"openstreetmap.org","min_zoom":8.0,"id":38898947},"arcs":[232]},{"type":"MultiLineString","properties":{"source":"openstreetmap.org","kind":"major_road","network":"bg:national","sort_rank":381,"kind_detail":"trunk","min_zoom":8.0,"shield_text":"3"},"arcs":[[233],[234],[235]]},{"type":"LineString","properties":{"kind":"major_road","name:en":"Rockefeller blvd.","network":"bg:national","sort_rank":379,"kind_detail":"secondary","is_bicycle_related":true,"bicycle_shield_text":null,"bicycle_network":"icn","source":"openstreetmap.org","min_zoom":8.0,"shield_text":"198","ref":"198"},"arcs":[236]},{"type":"LineString","properties":{"kind":"major_road","network":"bg:national","sort_rank":355,"kind_detail":"tertiary_link","is_bicycle_related":true,"bicycle_shield_text":null,"bicycle_network":"icn","source":"openstreetmap.org","min_zoom":8.0,"is_link":true,"shield_text":"1907","id":229790078},"arcs":[237]},{"type":"MultiLineString","properties":{"kind":"major_road","name:en":"Sidirokastro - Promachonas","network":"GR:national","sort_rank":380,"kind_detail":"primary","source":"openstreetmap.org","min_zoom":8.0,"shield_text":"\u0395\u039f63","ref":"\u0395\u039f63"},"arcs":[[238],[239],[240],[241],[242]]},{"type":"MultiLineString","properties":{"source":"openstreetmap.org","kind":"major_road","name:en":"Sveti Dimityr soluncki","landuse_kind":"residential","sort_rank":380,"kind_detail":"primary","min_zoom":8.0},"arcs":[[243],[244],[245]]},{"type":"MultiLineString","properties":{"kind":"highway","int_name":"Thessaloniki - Promachonas","network":"GR:national","sort_rank":383,"kind_detail":"motorway","source":"openstreetmap.org","min_zoom":8.0,"all_networks":["GR:national","e-road",null],"shield_text":"\u0395\u039f63","ref":"\u039125","all_shield_texts":["\u0395\u039f63","79","25"]},"arcs":[[246],[247]]},{"type":"LineString","properties":{"kind":"major_road","name:en":"Rockefeller st.","network":"bg:national","sort_rank":379,"kind_detail":"secondary","is_bicycle_related":true,"bicycle_shield_text":null,"bicycle_network":"icn","source":"openstreetmap.org","min_zoom":8.0,"shield_text":"198","ref":"198"},"arcs":[248]},{"type":"MultiLineString","properties":{"source":"openstreetmap.org","kind":"major_road","landuse_kind":"residential","sort_rank":380,"kind_detail":"primary","min_zoom":8.0},"arcs":[[249],[250],[251],[252],[253],[254],[255],[256],[257],[258],[259],[260],[261],[262],[263],[264],[265],[266],[267],[268],[269],[270],[271],[272]]},{"type":"LineString","properties":{"sort_rank":383,"kind_detail":"motorway","min_zoom":8.0,"kind":"highway","source":"openstreetmap.org"},"arcs":[273]},{"type":"MultiLineString","properties":{"kind":"major_road","network":"bg:national","sort_rank":380,"kind_detail":"primary","source":"openstreetmap.org","min_zoom":8.0,"landuse_kind":"urban_area","shield_text":"1","ref":"1"},"arcs":[[274],[275],[276],[277]]},{"type":"LineString","properties":{"source":"openstreetmap.org","kind":"major_road","name:en":"Sveti Dimitar Soluncki","sort_rank":380,"kind_detail":"primary","min_zoom":8.0,"id":38905876},"arcs":[278]},{"type":"MultiLineString","properties":{"kind":"highway","name:en":"Thessaloniki - Promachonas","network":"e-road","sort_rank":383,"kind_detail":"motorway","source":"openstreetmap.org","min_zoom":8.0,"all_networks":["e-road",null],"landuse_kind":"park","shield_text":"79","ref":"\u039125","all_shield_texts":["79","25"]},"arcs":[[279],[280]]},{"type":"MultiLineString","properties":{"kind":"major_road","network":"e-road","sort_rank":381,"kind_detail":"trunk","source":"openstreetmap.org","min_zoom":8.0,"landuse_kind":"park","shield_text":"79"},"arcs":[[281],[282]]},{"type":"MultiLineString","properties":{"kind":"major_road","int_name":"Thessaloniki - Promachonas","network":"e-road","sort_rank":381,"kind_detail":"trunk","source":"openstreetmap.org","min_zoom":8.0,"landuse_kind":"park","shield_text":"79","ref":"\u039125"},"arcs":[[283],[284]]},{"type":"MultiLineString","properties":{"name:el":"Gefyra Bistritsas","kind":"major_road","name:en":"Bistrica Bridge","network":"e-road","sort_rank":381,"kind_detail":"trunk","name:fr":"Pont Bistrica","name:de":"Bistrica Br\u00fccke","source":"openstreetmap.org","min_zoom":8.0,"landuse_kind":"park","shield_text":"79"},"arcs":[[285],[286]]},{"type":"MultiLineString","properties":{"kind":"major_road","int_name":"Serres - Drama","network":"GR:national","sort_rank":380,"kind_detail":"primary","source":"openstreetmap.org","min_zoom":8.0,"landuse_kind":"nature_reserve","shield_text":"\u0395\u039f12","ref":"\u0395\u039f12"},"arcs":[[287],[288],[289],[290]]},{"type":"MultiLineString","properties":{"source":"openstreetmap.org","kind":"major_road","name:en":"Aleksandar Stamboliyski","landuse_kind":"residential","sort_rank":380,"kind_detail":"primary","min_zoom":8.0},"arcs":[[291],[292],[293]]},{"type":"MultiLineString","properties":{"kind":"major_road","network":"bg:national","sort_rank":380,"kind_detail":"primary","is_bicycle_related":true,"bicycle_shield_text":null,"bicycle_network":"icn","source":"openstreetmap.org","min_zoom":8.0,"landuse_kind":"urban_area","shield_text":"106","ref":"106"},"arcs":[[294],[295],[296]]},{"type":"MultiLineString","properties":{"kind":"major_road","int_name":"Goce Del\u010dev","network":"mk:national","sort_rank":380,"kind_detail":"primary","source":"openstreetmap.org","min_zoom":8.0,"name:en":"Goce Delchev","landuse_kind":"residential","shield_text":"2432","ref":"R2432"},"arcs":[[297],[298],[299],[300]]},{"type":"MultiLineString","properties":{"kind":"major_road","name:en":"Kliment Ohridski","network":"mk:national","sort_rank":380,"landuse_kind":"residential","is_bicycle_related":true,"bicycle_shield_text":null,"bicycle_network":"icn","source":"openstreetmap.org","min_zoom":8.0,"int_name":"Kliment Ohridski","kind_detail":"primary","shield_text":"4","ref":"A4"},"arcs":[[301],[302]]},{"type":"LineString","properties":{"kind":"major_road","network":"GR:national","sort_rank":380,"kind_detail":"primary","source":"openstreetmap.org","min_zoom":8.0,"shield_text":"\u0395\u039f12","ref":"\u0395\u039f12"},"arcs":[303]},{"type":"MultiLineString","properties":{"kind":"major_road","int_name":"Lefkonas - Sidirokastro","network":"GR:national","sort_rank":380,"kind_detail":"primary","source":"openstreetmap.org","min_zoom":8.0,"shield_text":"\u0395\u039f63","ref":"\u0395\u039f63"},"arcs":[[304],[305],[306],[307],[308],[309],[310],[311],[312],[313],[314],[315]]},{"type":"MultiLineString","properties":{"kind":"major_road","int_name":"Serres - Drama","network":"GR:national","sort_rank":380,"kind_detail":"primary","source":"openstreetmap.org","min_zoom":8.0,"shield_text":"\u0395\u039f12","ref":"\u0395\u039f12"},"arcs":[[316],[317],[318],[319],[320],[321],[322],[323],[324],[325],[326],[327],[328],[329],[330]]},{"type":"LineString","properties":{"kind":"major_road","int_name":"Kilkis - Promachonas","network":"GR:national","sort_rank":380,"kind_detail":"primary","source":"openstreetmap.org","min_zoom":8.0,"landuse_kind":"park","shield_text":"\u0395\u039f65","ref":"\u0395\u039f65\u03b4"},"arcs":[331]},{"type":"MultiLineString","properties":{"source":"openstreetmap.org","kind":"major_road","landuse_kind":"urban_area","sort_rank":380,"kind_detail":"primary","min_zoom":8.0},"arcs":[[332],[333],[334],[335],[336],[337],[338]]},{"type":"MultiLineString","properties":{"kind":"minor_road","sort_rank":360,"kind_detail":"residential","is_bicycle_related":true,"bicycle_shield_text":null,"bicycle_network":"icn","source":"openstreetmap.org","min_zoom":8.0},"arcs":[[339],[340],[341],[342],[343],[344],[345]]},{"type":"MultiLineString","properties":{"kind":"major_road","name:en":"Sidirokastro bypass","network":"GR:national","sort_rank":380,"kind_detail":"primary","source":"openstreetmap.org","min_zoom":8.0,"shield_text":"\u0395\u039f63","ref":"\u0395\u039f63"},"arcs":[[346],[347],[348],[349],[350]]},{"type":"LineString","properties":{"kind":"minor_road","name:en":"Bulgaria st.","sort_rank":360,"kind_detail":"residential","is_bicycle_related":true,"bicycle_shield_text":null,"bicycle_network":"icn","source":"openstreetmap.org","min_zoom":8.0,"id":38731736},"arcs":[351]},{"type":"MultiLineString","properties":{"name:el":"\u0391\u03bb\u03ad\u03be\u03b1\u03bd\u03b4\u03c1\u03bf\u03c2 \u03c4\u03b7\u03c2 \u039c\u03b1\u03ba\u03b5\u03b4\u03bf\u03bd\u03af\u03b1\u03c2","kind":"highway","int_name":"Aleksandar Makedonski","network":"mk:national","sort_rank":383,"kind_detail":"motorway","min_zoom":8.0,"source":"openstreetmap.org","name:fr":"Alexandre de Mac\u00e9doine","name:en":"Alexander of Macedonia","all_networks":["mk:national","e-road"],"shield_text":"1","ref":"A1","all_shield_texts":["1","75"]},"arcs":[[352],[353],[354],[355]]},{"type":"MultiLineString","properties":{"kind":"highway","name:en":"Thessaloniki - Promachonas","network":"e-road","sort_rank":383,"kind_detail":"motorway","source":"openstreetmap.org","min_zoom":8.0,"all_networks":["e-road",null],"shield_text":"79","ref":"\u039125","all_shield_texts":["79","25"]},"arcs":[[356],[357],[358],[359],[360],[361],[362],[363],[364],[365],[366],[367],[368],[369],[370],[371]]},{"type":"LineString","properties":{"kind":"major_road","sort_rank":377,"kind_detail":"tertiary","is_bicycle_related":true,"bicycle_shield_text":null,"bicycle_network":"icn","source":"openstreetmap.org","min_zoom":8.0,"ref":"198","id":28078130},"arcs":[372]},{"type":"MultiLineString","properties":{"kind":"major_road","network":"bg:national","sort_rank":377,"kind_detail":"tertiary","is_bicycle_related":true,"bicycle_shield_text":null,"bicycle_network":"icn","source":"openstreetmap.org","min_zoom":8.0,"shield_text":"198","ref":"198"},"arcs":[[373],[374],[375],[376],[377]]},{"type":"MultiLineString","properties":{"kind":"major_road","int_name":"Amfipoli - Nea Zichni","network":"GR:national","sort_rank":380,"kind_detail":"primary","source":"openstreetmap.org","min_zoom":8.0,"shield_text":"\u0395\u039f59","ref":"\u0395\u039f59"},"arcs":[[378],[379]]},{"type":"LineString","properties":{"kind":"highway","network":"e-road","sort_rank":383,"kind_detail":"motorway","source":"openstreetmap.org","min_zoom":8.0,"all_networks":["e-road",null],"shield_text":"79","ref":"\u039125","id":378299101,"all_shield_texts":["79","25"]},"arcs":[380]},{"type":"MultiLineString","properties":{"kind":"minor_road","sort_rank":360,"landuse_kind":"residential","is_bicycle_related":true,"bicycle_shield_text":null,"bicycle_network":"icn","source":"openstreetmap.org","min_zoom":8.0,"kind_detail":"residential"},"arcs":[[381],[382],[383],[384],[385],[386],[387],[388]]},{"type":"LineString","properties":{"kind":"major_road","sort_rank":379,"kind_detail":"secondary","is_bicycle_related":true,"bicycle_shield_text":null,"bicycle_network":"icn","source":"openstreetmap.org","min_zoom":8.0,"ref":"1906","id":253033396},"arcs":[389]},{"type":"LineString","properties":{"kind":"major_road","name:en":"Vasil Levski","sort_rank":380,"landuse_kind":"residential","source":"openstreetmap.org","min_zoom":8.0,"kind_detail":"primary","id":38982190},"arcs":[390]},{"type":"LineString","properties":{"kind":"major_road","network":"bg:national","sort_rank":381,"kind_detail":"trunk","source":"openstreetmap.org","min_zoom":8.0,"shield_text":"3","ref":"A 3"},"arcs":[391]},{"type":"MultiLineString","properties":{"kind":"highway","name:en":"Athens - Thessaloniki - Evzonoi","network":"e-road","sort_rank":383,"kind_detail":"motorway","all_shield_texts":["75","\u03911"],"name:fr":"Ath\u00e8nes - Thessalonique - Evzoni","source":"openstreetmap.org","min_zoom":8.0,"int_name":"Athina - Thessaloniki - Evzoni","all_networks":["e-road","GR:motorway"],"old_name":"\u0391\u03c5\u03c4\u03bf\u03ba\u03b9\u03bd\u03b7\u03c4\u03cc\u03b4\u03c1\u03bf\u03bc\u03bf\u03c2 \u03a0\u0391\u0398\u0395","shield_text":"75","ref":"\u03911","name:mk":"\u0410\u0442\u0438\u043d\u0430 - \u0421\u043e\u043b\u0443\u043d - \u041c\u0430\u0447\u0443\u043a\u043e\u0432\u043e"},"arcs":[[392],[393]]},{"type":"MultiLineString","properties":{"kind":"major_road","network":"mk:national","sort_rank":379,"kind_detail":"secondary","is_bicycle_related":true,"bicycle_shield_text":null,"bicycle_network":"icn","source":"openstreetmap.org","min_zoom":8.0,"shield_text":"1302","ref":"R1302"},"arcs":[[394],[395]]},{"type":"LineString","properties":{"kind":"major_road","network":"mk:national","sort_rank":380,"landuse_kind":"urban_area","is_bicycle_related":true,"bicycle_shield_text":null,"bicycle_network":"icn","source":"openstreetmap.org","min_zoom":8.0,"kind_detail":"primary","shield_text":"4","ref":"A4"},"arcs":[396]},{"type":"LineString","properties":{"kind":"major_road","name:en":"Sidirokastro - Promachonas","network":"GR:national","sort_rank":380,"kind_detail":"primary","source":"openstreetmap.org","min_zoom":8.0,"landuse_kind":"park","shield_text":"\u0395\u039f63","ref":"\u0395\u039f63"},"arcs":[397]},{"type":"LineString","properties":{"kind":"major_road","sort_rank":377,"kind_detail":"tertiary","is_bicycle_related":true,"bicycle_shield_text":null,"bicycle_network":"icn","source":"openstreetmap.org","min_zoom":8.0,"ref":"1972"},"arcs":[398]},{"type":"MultiLineString","properties":{"kind":"major_road","network":"bg:national","sort_rank":380,"kind_detail":"primary","source":"openstreetmap.org","min_zoom":8.0,"landuse_kind":"urban_area","shield_text":"106","ref":"106"},"arcs":[[399],[400],[401],[402],[403],[404],[405],[406]]}]},"earth":{"type":"GeometryCollection","geometries":[{"type":"Polygon","properties":{"sort_rank":10,"source":"naturalearthdata.com","kind":"earth","min_zoom":0.0,"id":4741},"arcs":[[407]]}]},"landuse":{"type":"GeometryCollection","geometries":[{"type":"MultiPolygon","properties":{"source":"openstreetmap.org","kind":"nature_reserve","tier":2,"area":715520052,"sort_rank":23,"min_zoom":6.0,"osm_relation":true},"arcs":[[[408]]]},{"type":"Polygon","properties":{"kind":"park","area":726646976,"sort_rank":24,"source":"openstreetmap.org","min_zoom":6.0,"tier":2,"id":-1420104,"osm_relation":true},"arcs":[[409]]},{"type":"MultiPolygon","properties":{"source":"openstreetmap.org","kind":"residential","tier":2,"area":68394018,"sort_rank":20,"min_zoom":8.0,"osm_relation":true},"arcs":[[[410]]]},{"type":"MultiPolygon","properties":{"source":"openstreetmap.org","kind":"nature_reserve","tier":2,"area":1217835821,"sort_rank":23,"min_zoom":8.0},"arcs":[[[411]],[[412]],[[413]],[[414]],[[415]],[[416]],[[417]],[[418]],[[419]],[[420]],[[421]],[[422]],[[423]],[[424]],[[425]],[[426]]]},{"type":"MultiPolygon","properties":{"kind":"protected_area","protect_class":"5","area":361236866,"sort_rank":17,"source":"openstreetmap.org","min_zoom":6.0,"tier":2,"osm_relation":true},"arcs":[[[427]]]},{"type":"MultiPolygon","properties":{"source":"naturalearthdata.com","kind":"urban_area","name":"","area":1959797502,"sort_rank":11,"min_zoom":4.0},"arcs":[[[428]],[[429]],[[430]]]},{"type":"Polygon","properties":{"kind":"residential","name":"\u0411\u043b\u0430\u0433\u043e\u0435\u0432\u0433\u0440\u0430\u0434","area":12440500,"sort_rank":20,"source":"openstreetmap.org","min_zoom":8.0,"tier":2,"id":-6539024,"osm_relation":true},"arcs":[[431]]},{"type":"MultiPolygon","properties":{"kind":"nature_reserve","protect_class":"1","area":916838671,"sort_rank":23,"source":"openstreetmap.org","min_zoom":8.0,"tier":2,"osm_relation":true},"arcs":[[[432]],[[433]],[[434]],[[435]],[[436]],[[437]]]},{"type":"MultiPolygon","properties":{"kind":"protected_area","protect_class":"3","area":96127412,"sort_rank":17,"source":"openstreetmap.org","min_zoom":8.0,"tier":2,"osm_relation":true},"arcs":[[[438]]]},{"type":"MultiPolygon","properties":{"source":"openstreetmap.org","kind":"residential","tier":2,"area":91371064,"sort_rank":20,"min_zoom":8.0},"arcs":[[[439]]]},{"type":"Polygon","properties":{"source":"openstreetmap.org","kind":"nature_reserve","area":190594000,"tier":2,"id":140415622,"min_zoom":6.0,"sort_rank":23},"arcs":[[440]]},{"type":"MultiPolygon","properties":{"source":"openstreetmap.org","kind":"park","tier":2,"area":4721915508,"sort_rank":24,"min_zoom":4.0,"osm_relation":true},"arcs":[[[441]],[[442]],[[443]]]},{"type":"Polygon","properties":{"kind":"nature_reserve","area":24795000,"sort_rank":23,"source":"openstreetmap.org","min_zoom":8.0,"tier":2,"id":-2913209,"osm_relation":true},"arcs":[[444]]}]}},"type":"Topology","transform":{"translate":[22.5,40.9798980696],"scale":[0.0003433228,0.0002570987]},"arcs":[[[4096,1860],[-47,-31],[-26,16],[-72,-17],[-15,-39],[-147,-9],[-97,-161],[-108,46],[-111,-14],[-53,25],[-76,-63],[-1,-49],[-31,-25],[-114,8],[-58,51],[-81,-16],[-73,72],[-115,-24],[-137,30],[-55,-32],[-52,10],[-179,-146],[-53,140],[-61,9],[-54,-6],[-71,-69],[-76,-25],[-21,-151],[-130,-72],[-249,-6],[-195,65],[-68,-17],[-225,35]],[[1245,1395],[-169,10],[-137,-24],[-33,36],[-52,-54],[-84,-32],[-26,-66],[31,-48],[-30,-66],[15,-41],[-36,-378],[-51,-87],[-62,-20],[-126,178],[-50,-22],[-30,-107],[-145,-139],[-44,6],[-36,47],[-180,-27]],[[913,4096],[36,-42],[120,0],[-10,-79],[35,-20],[9,-82],[-14,-154],[59,-82],[24,-150],[40,-1],[61,-113],[11,-120],[70,-110],[-1,-58],[128,-16],[66,-153],[9,-79],[-117,-140],[-37,-68],[8,-33],[-72,1],[-32,-59],[10,-168],[62,-103],[-8,-74],[-34,-33],[32,-118],[-34,-44],[29,-76],[-11,-36],[45,-70],[-80,-114],[41,-82],[-2,-167],[-48,-7],[-63,-51]],[[1245,1395],[-169,10],[-137,-24],[-33,36],[-52,-54],[-84,-32],[-26,-66],[31,-48],[-30,-66],[15,-41],[-36,-378],[-51,-87],[-62,-20],[-126,178],[-50,-22],[-30,-107],[-145,-139],[-44,6],[-36,47],[-180,-27]],[[4096,1860],[-47,-31],[-26,16],[-72,-17],[-15,-39],[-147,-9],[-97,-161],[-108,46],[-111,-14],[-53,25],[-76,-63],[-1,-49],[-31,-25],[-114,8],[-58,51],[-81,-16],[-73,72],[-115,-24],[-137,30],[-55,-32],[-52,10],[-179,-146],[-53,140],[-61,9],[-54,-6],[-71,-69],[-76,-25],[-21,-151],[-130,-72],[-249,-6],[-195,65],[-68,-17],[-225,35]],[[1364,2100],[-65,30],[-120,-26],[-49,40],[-36,-30],[-58,78],[-121,-61],[-17,42],[-126,79],[-9,63],[-132,49],[-83,-29],[51,104],[-2,43],[26,16],[-50,14],[-61,82],[-78,-43],[-14,-43],[-19,19],[16,179],[13,27],[28,14],[12,15],[0,4],[-46,36],[-56,192],[-41,-8],[-51,56],[-89,36],[-107,-29],[-80,10]],[[1245,1395],[63,51],[48,7],[2,167],[-41,82],[80,114],[-45,70],[11,36],[-29,76],[33,41],[-3,61]],[[1364,2100],[-28,60],[34,33],[8,74],[-62,103],[-10,168],[32,59],[72,-1],[-8,33],[37,68],[117,140],[-2,51],[-73,181],[-131,20],[4,54],[-70,110],[-11,120],[-61,113],[-40,1],[-24,150],[-59,82],[14,154],[-9,82],[-35,20],[10,79],[-120,0],[-36,42]],[[279,0],[-130,100],[26,110],[-110,82],[53,109],[-60,115],[-58,408]],[[954,0],[-70,153],[-58,267],[2,146],[-39,210],[190,311],[212,86],[223,-50],[100,-92],[274,59],[386,4],[206,45],[69,-24],[-21,129],[51,87],[-17,46],[56,176]],[[2036,1668],[60,8],[105,95],[34,69]],[[2265,1855],[-31,-13]],[[2234,1842],[1,-2]],[[1573,4096],[122,-70]],[[1721,4007],[-17,-92],[56,-106],[-24,-91],[52,-67],[7,-85],[-28,-37],[34,-61]],[[1839,3414],[72,-85],[-9,-35],[35,-69],[-7,-69],[-24,-16],[-5,-125],[33,-36],[-37,-73],[31,-27]],[[2265,1855],[-22,26],[22,65],[-27,39],[-5,134],[-46,42],[-38,197],[-74,166],[-100,109],[20,69],[-29,124]],[[2286,1845],[101,-94],[22,-53],[50,-11],[40,-45]],[[2510,1586],[8,-33]],[[428,1799],[-13,20]],[[0,3693],[115,66],[-3,39],[95,10],[52,253]],[[270,4038],[1,-28],[29,33],[64,-88],[131,-39],[45,38],[103,-82],[101,22],[47,-30]],[[791,3864],[20,-31],[20,-21]],[[831,3812],[-40,52]],[[1110,1141],[143,62],[219,-35]],[[1530,1122],[7,-51],[29,-11],[344,52],[259,-2]],[[411,1807],[-7,-22]],[[404,1785],[7,22]],[[414,1819],[-3,-12]],[[412,1807],[3,12]],[[234,2190],[13,-13]],[[1715,3944],[-3,-20]],[[3154,433],[11,-2]],[[3165,431],[-11,2]],[[404,1785],[12,-5]],[[416,1781],[-12,4]],[[416,1780],[1,0],[-1,1]],[[416,1781],[0,-1]],[[3148,435]],[[1675,4007],[7,-9]],[[1679,3998],[-3,4]],[[415,1819],[13,-21]],[[2422,1723],[-43,-25],[-99,3],[-173,-69]],[[3990,1389],[2,34]],[[3992,1423],[2,2]],[[3994,1425],[-2,-2]],[[803,3846],[-1,0]],[[1719,3959],[-4,-15]],[[1725,3954],[1,1]],[[1727,3960],[26,7]],[[1754,3967],[0,-4]],[[1755,3963],[0,4]],[[1793,3979],[1,0]],[[2396,274],[0,1]],[[2396,275],[2,1]],[[2398,276],[-2,-1]],[[2408,267],[-1,-1]],[[2407,265],[1,2]],[[2408,267],[1,0]],[[2465,1106],[-4,3]],[[2590,933]],[[2590,931],[1,1]],[[3192,426],[5,-2]],[[3197,424],[-4,2]],[[3987,1450],[7,-24]],[[3994,1424],[0,1]],[[3994,1426],[0,-1]],[[426,1783],[0,-1],[0,1]],[[1725,4042],[-4,6]],[[1726,4042],[-1,0]],[[1731,4033],[-5,8]],[[1622,4096],[0,-1]],[[1711,3907],[48,-98],[-16,-60],[52,-97],[3,-134],[108,-194],[25,-98],[-30,-187],[3,-44],[29,-16],[-31,-85],[48,-28],[15,-45],[34,-122],[-16,-70],[128,-189],[50,-165],[84,-72]],[[2245,2201],[11,-147]],[[2590,933],[0,-2]],[[2591,932],[-1,1]],[[1712,3970],[-1,-63],[2,63]],[[2503,1513],[-17,-37]],[[2487,1477],[15,31],[2,8]],[[736,1583],[-131,207]],[[2059,1615],[-6,-6]],[[2060,1615],[-1,1],[0,-1],[1,0]],[[2587,910],[-1,-39],[-6,-12],[0,-1]],[[2580,858],[-2,-17]],[[2578,841],[0,-1],[14,-82],[45,-75],[2,0]],[[2639,683],[50,-32]],[[2689,651],[37,-23]],[[2727,628],[-4,4],[-34,19]],[[2689,651],[-49,28],[-1,4]],[[2639,683],[-4,7],[-5,14],[-30,48],[-7,6],[2,45],[-16,31],[-1,7]],[[2578,841],[0,1],[0,9],[2,7]],[[2580,858],[1,2],[5,11],[2,39]],[[2754,577],[16,-140],[-134,-71]],[[2647,367],[64,28],[32,15],[15,10],[9,11],[4,6],[8,48],[-18,77],[-7,15]],[[2919,410],[-51,54]],[[2983,378],[-13,8]],[[2983,378],[1,0]],[[2984,378],[-1,0]],[[3072,357],[-1,0]],[[3072,357],[15,6]],[[3128,403],[-41,-40]],[[1747,4059],[-8,-3]],[[3813,2077],[-2,-1]],[[3811,2076],[2,1]],[[3898,2078],[-85,-1]],[[3900,2078],[-2,0]],[[3974,2156],[-21,-11],[-4,-61],[-49,-6]],[[2947,1780],[1,0]],[[3775,2099],[-28,-120],[-163,-151],[1,-84],[-21,-16],[-94,50],[-29,-11]],[[1799,3540],[-5,5]],[[2514,1554],[0,-1]],[[2514,1553],[0,1]],[[3990,1389],[6,-78]],[[3996,1311],[3,-13]],[[3999,1298],[97,-40]],[[259,4061],[11,-23]],[[2514,1552],[0,-1]],[[2514,1551],[0,1]],[[1725,4041],[-28,-12]],[[1725,4042],[0,-1],[1,0],[-1,1]],[[1713,4048],[-26,-12]],[[1687,4036],[26,12]],[[1713,4048],[6,1]],[[1720,4049],[-1,0]],[[1719,4049],[1,-1]],[[3398,1712],[-5,-2]],[[1697,4029],[-10,7]],[[1706,4023],[24,-18],[-6,-29]],[[1093,3915],[174,-90],[-33,114],[127,24],[84,-11],[127,48]],[[1670,4025],[1,0]],[[2996,375],[-12,3]],[[2984,378],[6,-2],[6,-1]],[[3016,374],[-20,1]],[[3016,374],[22,-2]],[[3071,357],[-33,15]],[[150,587],[3,-26],[3,-17],[5,-17]],[[159,532],[-9,55]],[[311,8],[1,-2]],[[312,6],[0,2]],[[312,6],[5,-6]],[[408,1830],[0,-1]],[[408,1829],[6,-10]],[[415,1820],[-7,9]],[[415,1819],[0,1],[-1,0],[0,-1],[1,0]],[[397,1917],[11,-87]],[[1579,4069],[12,-64]],[[1592,4006],[-13,65]],[[1175,1542],[-91,12]],[[1330,1516],[-30,74]],[[1375,1610],[0,13]],[[1556,4096],[-2,-91]],[[1522,1493],[174,33],[73,-24]],[[2505,1650],[1,-3]],[[2731,1800],[174,-19]],[[3393,1710],[-135,80],[-77,-14],[-22,-126],[-212,130]],[[3441,1767],[-36,-16],[-7,-39]],[[0,832],[24,-144],[7,-8],[90,-61],[22,-20]],[[137,606],[-15,14],[-49,34],[-42,27],[-7,8],[-2,30],[-22,115]],[[436,1785],[3,1]],[[439,1786],[-3,0]],[[469,1792],[-30,-6]],[[605,1790],[-101,2]],[[1344,1620],[-56,-3]],[[1357,1621],[-13,-1]],[[1344,1620],[13,1]],[[831,3812],[11,4]],[[842,3816],[-11,-4]],[[842,3816],[112,83],[108,34],[-4,-16],[31,3]],[[1091,3917],[-2,3]],[[1091,3917],[2,-2]],[[964,1549],[-228,34]],[[1084,1554],[-71,-5]],[[1175,1542],[155,-26]],[[1288,1617],[12,-27]],[[436,1785],[0,1]],[[3789,2084],[22,-8]],[[1572,4000],[21,-5]],[[1593,3995],[0,-1]],[[1594,3994],[-1,1]],[[2045,1610],[12,3]],[[1724,3976],[-1,-3]],[[892,201],[-29,110],[-2,433],[54,214],[83,122],[112,61]],[[2761,418],[16,7]],[[2777,425],[20,9]],[[2797,434],[59,26]],[[2856,460],[10,5]],[[2867,465],[-11,-5]],[[2043,1603],[2,1]],[[0,2368],[234,-178]],[[247,2177],[109,-126],[41,-134]],[[1288,1617],[-175,29],[-10,43],[-259,94],[-239,7]],[[1346,1621]],[[1346,1620],[5,0]],[[3863,1779],[2,-10]],[[1737,4029],[-6,4]],[[1742,4025],[-1,-1]],[[1670,4018],[2,-7],[0,-1]],[[1672,4010],[3,-3]],[[1676,4002],[-3,2],[-1,6]],[[1672,4010],[-1,7]],[[1713,3970],[-21,16],[-2,2]],[[1690,3988],[-11,10]],[[1682,3998],[8,-10]],[[1690,3988],[2,-3],[20,-15]],[[2169,1110],[189,40]],[[2358,1150],[10,6]],[[2368,1156],[28,13]],[[2921,409],[-2,1]],[[2921,409],[11,-2]],[[2970,386],[-38,21]],[[3138,418],[-10,-15]],[[3138,418],[9,15]],[[3148,435],[-10,-17]],[[2120,0],[87,64],[54,-2],[61,-62]],[[2329,0],[115,95],[-20,149],[-26,32]],[[832,3812],[-1,-2]],[[3865,1769],[1,-1]],[[3866,1768],[0,-14]],[[3866,1754],[68,-225],[53,-79]],[[1725,4041],[1,0]],[[1726,4042],[6,13]],[[437,1786],[-1,-1]],[[1580,4096],[-1,-27]],[[1579,4071],[1,25]],[[2491,1623],[-51,72],[-41,135],[-50,118],[-93,106]],[[2256,2052],[4,-9],[14,-24],[75,-71],[50,-117],[17,-76],[23,-60],[51,-73]],[[2396,1169],[30,4]],[[2426,1173]],[[2426,1173]],[[928,0],[-37,115],[1,86]],[[1721,3965],[-2,-6]],[[1666,4031],[3,0]],[[2059,1627],[0,-11]],[[2508,1584],[3,-15]],[[2511,1569],[3,-15]],[[2514,1554],[-3,15]],[[2083,1624],[-24,3]],[[3975,2156],[-1,0]],[[2458,1118],[2,-3]],[[2460,1115],[8,-12]],[[2468,1103],[87,-59]],[[2555,1044],[6,-9]],[[2561,1036],[-6,8]],[[1669,4031],[3,0]],[[1672,4031],[15,5]],[[1687,4036],[-15,-5]],[[2726,628],[28,-51]],[[2754,577],[-27,51]],[[2107,1632],[-24,-8]],[[1687,4036],[1,-2],[3,-1]],[[1688,4036],[0,-1]],[[1720,4048],[5,-7]],[[1725,4041],[-3,-2]],[[1726,4041],[2,3]],[[1728,4038],[-2,3]],[[1739,4056],[-7,-1]],[[1734,3997],[7,26]],[[1741,4023],[12,-33]],[[1741,4024],[0,-1]],[[1755,3991],[-13,33]],[[1761,4055],[-14,4]],[[1753,3990],[1,0],[-1,1],[0,-1]],[[1753,3990],[1,-13],[0,-9]],[[1754,3968],[0,-1]],[[1753,3967],[1,1]],[[1754,3968]],[[1754,3968],[39,11]],[[1755,3967],[-1,1]],[[1754,3968],[0,9],[0,13],[1,1]],[[1755,3991],[4,2]],[[412,1807],[-1,0],[1,0]],[[1721,4049],[-1,0],[1,-1],[0,1]],[[1741,4024],[1,0],[0,1],[-1,-1]],[[148,593],[1,-3]],[[1622,4095],[46,-69]],[[1671,4017],[-4,15],[-38,64]],[[1668,4026],[1,-2]],[[1669,4024],[1,-6]],[[1723,3973],[-2,-8]],[[2486,1476],[-3,-22],[-9,-40],[1,-85],[-50,-88],[4,-67],[5,-22],[6,-11],[20,-23]],[[2460,1118],[-34,122],[50,89],[11,148]],[[2514,1551],[-7,-24]],[[2507,1527],[7,24]],[[2507,1527],[-4,-14]],[[2504,1516],[3,11]],[[2514,1553],[0,-1]],[[2514,1552],[0,1]],[[3212,420],[7,-2]],[[3366,336],[-23,14]],[[3479,298],[14,-15]],[[3754,190],[-48,16]],[[1743,4025],[-1,0]],[[1742,4025],[1,0]],[[1761,4055],[-18,-30]],[[1602,3996],[-1,0]],[[1601,3995],[1,1]],[[1602,3996],[68,29]],[[426,1783],[-9,-2]],[[417,1780],[9,2]],[[436,1785],[-10,-2]],[[426,1783],[10,2]],[[428,1798],[8,-13]],[[436,1786],[-8,13]],[[2868,464],[-1,1]],[[2590,931],[1,-3]],[[2591,928],[0,4]],[[2591,928],[-12,-91],[23,-47]],[[2602,790],[7,-29]],[[2632,698],[-23,63]],[[2632,698],[12,-7]],[[2724,632],[-80,59]],[[2859,474],[-43,42],[-9,6],[-8,6],[-3,3],[-26,27]],[[2774,554],[22,-23],[63,-57]],[[2863,467],[-4,7]],[[2863,467],[1,-3]],[[2865,464],[-2,3]],[[3165,431],[27,-5]],[[3193,426],[-28,5]],[[3197,424],[7,-3]],[[3204,421],[-7,3]],[[3204,421],[8,-1]],[[3219,418],[26,-6]],[[3245,412],[13,-5]],[[3343,350],[-85,57]],[[3366,336],[4,-2]],[[3370,334],[12,-8]],[[3382,326],[97,-28]],[[3493,283],[45,-29]],[[3554,247],[-16,7]],[[3554,247],[152,-41]],[[3754,190],[31,-69],[107,45],[96,-83],[108,-2]],[[1472,1168],[58,-46]],[[3147,433],[1,1]],[[3148,434],[1,1]],[[3149,435]],[[3148,435],[0,-1]],[[3148,434],[6,-1]],[[3154,433],[-5,2]],[[3149,435],[-1,0]],[[1522,1493],[-137,11],[-26,34],[16,72]],[[2045,1617],[0,-18]],[[2464,1688],[19,-8]],[[2627,1824],[10,-6]],[[2690,1789],[40,11]],[[2948,1780],[-43,1]],[[3789,2084],[-14,15]],[[2561,1035],[0,-5]],[[2561,1030],[0,6]],[[2561,1030],[28,-95]],[[2589,935],[1,-2]],[[2590,933],[-1,2]],[[2036,1596],[7,7]],[[150,587],[-2,3]],[[148,590],[-11,16]],[[143,599],[5,-9]],[[148,590],[2,-3]],[[2636,366],[-71,0],[-77,-32],[-39,-46],[-62,-18],[-4,-2]],[[2383,268],[-132,-62]],[[2251,206],[-2,-1],[-41,-10],[-1,-2]],[[2207,193],[-26,-67],[-27,-23]],[[2154,103],[-36,-31]],[[2118,72],[-16,-13],[-31,-10]],[[2071,49],[-6,-2],[-49,-23],[-22,-24]],[[1996,0],[21,24],[22,9],[32,16]],[[2071,49],[47,23]],[[2118,72],[25,13],[11,18]],[[2154,103],[53,90]],[[2207,193],[2,2],[40,10],[2,1]],[[2251,206],[62,41],[70,21]],[[2383,268],[4,1],[2,0],[61,19],[38,45],[133,32]],[[2460,1118],[127,-208]],[[2588,910],[-128,208]],[[1375,1623],[-18,-2]],[[1357,1621],[18,2]],[[2422,1723],[42,-35]],[[2483,1680],[22,-30]],[[2506,1647],[121,177]],[[2637,1818],[53,-29]],[[3930,139],[1,1],[-1,-1]],[[3930,139],[40,-139]],[[2621,365],[26,2]],[[428,1799],[-18,-17]],[[1671,4025],[7,3]],[[1678,4028],[7,2]],[[1672,4020],[15,6]],[[1687,4026],[10,3]],[[1691,4025],[-4,1]],[[1687,4026],[-9,2]],[[1678,4028],[-2,0]],[[2730,1800],[1,0]],[[1731,4033],[-13,-19]],[[2490,1622],[18,-38],[-17,39]],[[312,8],[6,217],[-36,132],[-123,175]],[[161,527],[3,-12],[15,-25],[103,-133],[35,-132],[-19,-138],[6,-61],[7,-18]],[[1022,2859],[-44,-33],[-22,-149],[8,-33],[47,-12],[35,-50],[2,-31],[-45,-34],[24,-86],[76,-54],[-125,-112],[-66,-10],[-75,23],[-42,-150],[-27,-4],[19,-40],[-47,-18],[-82,-168],[-100,-95]],[[831,3810],[79,-101],[20,-163],[112,-189],[-1,-165],[79,-112],[-29,-43],[-81,-17],[-26,-101],[39,-59]],[[504,1792],[-35,0]],[[2428,1182],[30,-64]],[[4096,2187],[-115,-33]],[[1596,3994],[-1,0]],[[1596,3993],[0,1]],[[1596,3994],[3,1]],[[1599,3995]],[[1599,3995],[1,0]],[[1600,3995],[1,0],[0,1],[-2,0],[1,-1]],[[1593,3992],[2,0],[0,2]],[[1595,3994],[-1,0],[-1,-2]],[[4096,0],[-4096,0],[0,4096],[4096,0],[0,-4096]],[[1574,710],[22,51],[124,69],[-36,31],[45,59],[-24,29],[-11,137],[218,23],[376,-14],[112,62],[15,95],[52,80],[-19,48],[14,42],[-22,44],[72,86],[-54,-175],[17,-48],[-46,-74],[24,-129],[-99,-91],[-227,12],[-42,-47],[-21,-140],[-37,-6],[-4,-25],[82,-97],[17,-160],[-135,25],[-35,-54],[-78,-9],[-78,75],[-113,57],[-57,-10],[-52,54]],[[2255,3373],[19,65],[70,57],[-5,-36],[59,11],[86,-63],[68,-19],[-5,-23],[71,-15],[21,-38],[69,21],[-8,-31],[16,15],[5,-21],[4,27],[51,7],[1,-97],[67,60],[3,-62],[21,44],[2,-31],[37,21],[-5,32],[26,-6],[-6,-32],[8,22],[2,-18],[18,17],[62,-22],[-51,-55],[42,-76],[-14,-58],[54,-54],[76,-25],[-66,-73],[1,-33],[104,-61],[-66,-45],[32,-26],[-35,-7],[24,-38],[-30,-26],[13,-68],[60,-19],[-42,0],[-31,-37],[-44,12],[-22,-36],[-41,44],[-32,-16],[-6,-43],[-120,23],[-26,-66],[-26,57],[-32,-33],[-13,64],[-46,8],[-17,48],[26,2],[-29,24],[16,31],[-47,28],[-20,49],[-80,-20],[-5,48],[-31,7],[-64,-55],[3,41],[-32,33],[12,54],[-50,-19],[-50,46],[34,52],[30,-2],[-19,33],[57,119],[-4,78],[-37,9],[14,36],[-31,18],[-10,87],[-71,16],[-15,39]],[[2973,409],[74,45],[-4,20],[66,-15],[11,-42],[-49,-61],[-84,14],[-14,39]],[[891,143],[47,17],[102,36],[59,-113],[-47,-5],[15,-11],[-16,-67],[-114,0],[-46,143]],[[1295,78],[25,89],[-12,67],[79,11],[60,-46],[56,-2],[-51,-116],[5,-42],[-90,26],[-48,-20],[-24,33]],[[3167,335],[102,63],[107,-69],[-72,-27],[-137,33]],[[3703,207],[4,29],[83,62],[23,47],[37,-115],[-75,-47],[-72,24]],[[2091,306],[110,101],[77,-24],[-6,-79],[-64,-97],[-59,-14],[-4,97],[-54,16]],[[3477,292],[30,94],[61,13],[44,-54],[-21,-69],[-36,-27],[-78,43]],[[724,744],[34,349],[13,3],[89,-30],[53,-99],[-104,-148],[-85,-75]],[[967,902],[35,82],[81,28],[12,-208],[-58,3],[-70,95]],[[1176,925],[138,-19],[-5,-26],[18,-1],[-19,-9],[29,-8],[-19,-28],[108,1],[17,-19],[14,25],[35,-6],[29,-59],[-23,-20],[-108,25],[-73,-37],[-45,88],[-43,-6],[-49,30],[-4,69]],[[2504,1331],[12,62],[58,49],[111,-39],[-32,-23],[-14,-74],[-40,0],[-13,-30],[-5,23],[-54,-28],[23,42],[-46,18]],[[3196,1364],[78,72],[-7,24],[32,-55],[-3,-68],[-57,-30],[-43,57]],[[2047,1320],[105,96],[4,45],[22,-10],[12,-89],[95,-58],[70,-91],[-45,-20],[-5,-46],[-95,27],[-112,-19],[-17,38],[35,28],[-44,61],[18,19],[-43,19]],[[4096,810],[0,-137],[-133,65],[124,93],[9,-21]],[[3115,455],[104,108],[20,-2],[-21,-144],[-103,38]],[[1993,513],[78,62],[63,9],[51,-18],[12,-40],[-19,-46],[-86,-56],[-38,2],[27,50],[-88,37]],[[3781,530],[60,74],[138,-38],[-108,-128],[0,46],[-90,46]],[[1244,1396],[3,10],[28,0],[33,40],[48,7],[-2,38],[34,8],[34,-30],[51,23],[36,-27],[95,7],[25,34],[40,-34],[10,49],[46,-8],[24,-34],[86,-4],[89,82],[21,-17],[-4,27],[26,-26],[3,28],[37,12],[6,-24],[-1,25],[35,9],[15,-44],[1,48],[85,13],[41,31],[-8,17],[43,-33],[33,45],[16,-44],[-64,-58],[-76,-26],[-18,-37],[15,-64],[-32,-66],[-116,-55],[-249,-6],[-195,65],[-68,-17],[-226,36]],[[3137,404],[-210,-23],[-19,63],[54,245],[30,-5],[0,-43],[185,-11],[42,-32],[-16,-130],[-66,-64]],[[346,1947],[90,-53],[70,25],[27,-25],[-32,-110],[-75,-51],[-95,-2],[-89,33],[32,130],[72,53]],[[1626,4096],[245,0],[-22,-48],[-69,-59],[-94,-26],[-117,6],[11,112],[46,15]],[[1669,4033],[61,48],[65,5],[-42,-62],[19,-42],[31,-5],[0,-7],[-77,-4],[-5,24],[-45,9],[-7,34]],[[1975,1367],[45,100],[43,9],[8,29],[49,-21],[10,-45],[-32,-66],[-83,-42],[-35,9],[-5,27]],[[3152,1606],[34,-2],[15,74],[26,8],[-3,-75],[51,107],[78,-27],[86,41],[40,-62],[-11,-18],[-48,24],[-77,-66],[-72,31],[-22,-42],[16,-21],[-29,-5],[6,38],[-54,-46],[-36,41]],[[3232,2403],[45,46],[78,-12],[-42,-104],[-35,20],[-19,-15],[15,18],[-18,-7],[-4,11],[22,6],[-32,4],[-10,33]],[[2797,3088],[5,53],[56,-17],[10,35],[24,-19],[54,29],[-35,-55],[26,-18],[-17,-37],[21,-46],[-24,-30],[31,-63],[-32,-27],[2,-42],[-94,11],[-27,226]],[[2309,3373],[48,59],[42,-1],[70,-85],[40,47],[48,-33],[0,-81],[42,68],[22,-2],[31,-21],[-21,-54],[12,-73],[-68,-59],[-73,47],[25,1],[10,45],[-51,38],[2,36],[-50,-4],[0,21],[-129,51]],[[2552,4096],[143,0],[0,-46],[-110,-91],[2,63],[-35,74]],[[2565,2125],[41,93],[27,-29],[48,46],[73,-40],[-43,-119],[-47,-17],[-22,34],[-65,-5],[-12,37]],[[357,1795],[35,36],[48,-1],[40,-53],[-35,-11],[4,-44],[-20,-2],[-72,75]],[[4009,1461],[55,88],[32,19],[0,-282],[-71,38],[11,135],[-27,2]],[[1794,0],[20,80],[82,-80],[-102,0]],[[2520,4096],[456,0],[-12,-113],[-36,-1],[-9,83],[-53,-45],[-68,-7],[-81,-63],[19,-34],[-33,5],[-4,-58],[-60,-20],[-16,-34],[-98,71],[-19,-91],[-56,-58],[-67,47],[24,33],[36,-2],[-52,24],[19,25],[-100,118],[11,34],[68,40],[103,-11],[33,43],[-5,14]],[[1074,1010],[67,74],[-31,54],[-7,267],[157,-2],[210,-43],[68,17],[195,-65],[249,6],[116,55],[32,66],[-15,64],[18,37],[76,26],[71,69],[115,-3],[53,-140],[63,60],[90,34],[131,-52],[-92,-47],[18,-59],[-43,-11],[24,-135],[-63,-151],[-138,-15],[-153,-145],[-111,-49],[-62,-161],[6,-139],[-130,-73],[-119,-11],[-142,111],[-140,37],[-13,77],[-31,16],[-51,-22],[-36,20],[-132,-14],[-60,73],[-126,7],[-42,40],[-22,127]],[[99,354],[40,63],[-32,166],[40,2],[11,-114],[41,-7],[33,-63],[-37,-53],[-96,6]]]}