{"objects":{"water":{"type":"GeometryCollection","geometries":[{"type":"MultiPolygon","properties":{"source":"naturalearthdata.com","kind":"ocean","area":1576712559132672,"sort_rank":200,"min_zoom":0.0,"id":1},"arcs":[[[10]],[[11]],[[12]],[[13]]]},{"type":"MultiLineString","properties":{"source":"naturalearthdata.com","kind":"ocean","sort_rank":205,"boundary":true,"min_zoom":0.0,"id":19},"arcs":[[14],[15],[16],[17]]}]},"buildings":{"type":"GeometryCollection","geometries":[]},"places":{"type":"GeometryCollection","geometries":[{"type":"Point","properties":{"name:pt":"Sal\u00f3nica","name:ro":"Salonic","alt_name:ca":"Sal\u00f2nica","name:tr":"Selanik","name:kn":"\u0ca4\u0cc6\u0cb8\u0cb2\u0ccb\u0ca8\u0cbf\u0c95\u0cbf","name:ar":"\u0633\u0627\u0644\u0648\u0646\u064a\u0643","name:cs":"Solu\u0148","alt_name:eo":"Saloniko","min_zoom":8.0,"int_name":"Thessaloniki","name:it":"Salonicco","name:ru":"\u0421\u0430\u043b\u043e\u043d\u0438\u043a\u0438","name:pl":"Saloniki","id":57554537,"alt_name:es":"Tesal\u00f3nica","alt_name:ru":"\u0424\u0435\u0441\u0441\u0430\u043b\u043e\u043d\u0438\u043a\u0438;\u0421\u043e\u043b\u0443\u043d\u044c","name:hu":"Theszalon\u00edki","kind_detail":"city","name:de":"Thessaloniki","source":"openstreetmap.org","name:fr":"Thessalonique","name:ca":"Tessal\u00f2nica","name:zh":"\u585e\u85a9\u6d1b\u5c3c\u57fa","name:sl":"Solun","name:lv":"Saloniki","name:lt":"Salonikai","kind":"locality","name:bs":"Solun","name:la":"Thessalonika","name:sk":"Sol\u00fan","name:bg":"\u0421\u043e\u043b\u0443\u043d","name:hr":"Solun","name:sr":"\u0421\u043e\u043b\u0443\u043d","population":790824,"name:eo":"Tesaloniko","name:en":"Thessaloniki","name":"\u0398\u03b5\u03c3\u03c3\u03b1\u03bb\u03bf\u03bd\u03af\u03ba\u03b7","name:is":"\u00deessaloniki","name:fi":"Thessaloniki","name:nl":"Thessalonike","name:es":"Sal\u00f3nica"},"coordinates":[1268,2796]},{"type":"Point","properties":{"name:sr":"\u041a\u0430\u0442\u0435\u0440\u0438\u043d\u0438","name:ro":"Katerini","name:lt":"Katerin\u0117","min_zoom":8.0,"int_name":"Katerini","name:ru":"\u041a\u0430\u0442\u0435\u0440\u0438\u043d\u0438","name:bg":"\u041a\u0430\u0442\u0435\u0440\u0438\u043d\u0438","name:hr":"Katerini","id":57553013,"population":56000,"kind":"locality","name:en":"Katerini","name":"\u039a\u03b1\u03c4\u03b5\u03c1\u03af\u03bd\u03b7","kind_detail":"city","name:de":"Katerini","source":"openstreetmap.org","name:fr":"Kater\u00edni"},"coordinates":[26,1384]},{"type":"Point","properties":{"kind":"locality","name:en":"Peraia","name":"\u03a0\u03b5\u03c1\u03b1\u03af\u03b1","kind_detail":"town","name:de":"Perea","source":"openstreetmap.org","min_zoom":8.0,"name:ru":"\u041f\u0435\u0440\u0435\u044f","id":1833523007,"population":18546},"coordinates":[1239,2266]},{"type":"Point","properties":{"kind":"locality","name:en":"Koufalia","name":"\u039a\u03bf\u03c5\u03c6\u03ac\u03bb\u03b9\u03b1","kind_detail":"town","source":"openstreetmap.org","min_zoom":8.0,"name:ru":"\u041a\u0443\u0444\u0430\u043b\u0438\u044f","id":1833817685,"population":7850},"coordinates":[226,3326]},{"type":"Point","properties":{"kind":"locality","name:en":"Epanomi","name":"\u0395\u03c0\u03b1\u03bd\u03bf\u03bc\u03ae","kind_detail":"town","min_zoom":8.0,"name:de":"Epanomi","source":"openstreetmap.org","name:fr":"Epanomi","name:ru":"\u042d\u043f\u0430\u043d\u043e\u043c\u0438","id":146494736,"population":7333},"coordinates":[1248,1984]},{"type":"Point","properties":{"kind":"locality","name:en":"Nea Michaniona","name":"\u039d\u03ad\u03b1 \u039c\u03b7\u03c7\u03b1\u03bd\u03b9\u03ce\u03bd\u03b1","kind_detail":"town","min_zoom":8.0,"name:de":"Nea Michaniona","source":"openstreetmap.org","name:fr":"Nea Michaniona","name:ru":"\u041d\u0435\u0430-\u041c\u0438\u0445\u0430\u043d\u044c\u043e\u043d\u0430","id":130167158,"population":7303},"coordinates":[1050,2124]},{"type":"Point","properties":{"kind":"locality","name:en":"Langadas","name":"\u039b\u03b1\u03b3\u03ba\u03b1\u03b4\u03ac\u03c2","kind_detail":"town","source":"openstreetmap.org","min_zoom":8.0,"name:ru":"\u041b\u0430\u043d\u0433\u0430\u0434\u0430\u0441","id":137701473,"population":7215},"coordinates":[1651,3216]},{"type":"Point","properties":{"kind":"locality","name:en":"Litochoro","name":"\u039b\u03b9\u03c4\u03cc\u03c7\u03c9\u03c1\u03bf","kind_detail":"town","name:cs":"Litochoro","min_zoom":8.0,"name:de":"Litochoro","source":"openstreetmap.org","name:fr":"Litochoro","name:ru":"\u041b\u0438\u0442\u043e\u0445\u043e\u0440\u043e\u043d","id":144868317,"population":6697},"coordinates":[2,732]},{"type":"Point","properties":{"kind":"locality","name:en":"Nea Moudania","name":"\u039d\u03ad\u03b1 \u039c\u03bf\u03c5\u03b4\u03b1\u03bd\u03b9\u03ac","kind_detail":"town","min_zoom":8.0,"name:de":"Nea Moudania","source":"openstreetmap.org","name:fr":"Nea Moudania","name:ro":"Nea Moudania","name:sr":"\u041d\u0435\u0430 \u041c\u043e\u0443\u0434\u0430\u043d\u0438\u0458\u0430","name:ru":"\u041d\u0435\u0430-\u041c\u0443\u0434\u0430\u043d\u044c\u044f","id":130167162,"population":6475},"coordinates":[2280,1258]},{"type":"Point","properties":{"kind":"locality","name:en":"Nea Kallikratia","name":"\u039d\u03ad\u03b1 \u039a\u03b1\u03bb\u03bb\u03b9\u03ba\u03c1\u03ac\u03c4\u03b5\u03b9\u03b1","kind_detail":"town","min_zoom":8.0,"name:de":"Nea Kallikratia","source":"openstreetmap.org","name:fr":"Nea Kallikratia","name:ru":"\u041d\u0435\u0430-\u041a\u0430\u043b\u0438\u043a\u0440\u0430\u0442\u0438\u044f","id":130199825,"population":6204},"coordinates":[1640,1535]},{"type":"Point","properties":{"kind":"locality","name:en":"Nigrita","name":"\u039d\u03b9\u03b3\u03c1\u03af\u03c4\u03b1","kind_detail":"town","source":"openstreetmap.org","min_zoom":8.0,"name:ru":"\u041d\u0438\u0433\u0440\u0438\u0442\u0430","id":296699424,"population":5566},"coordinates":[2915,3820]},{"type":"Point","properties":{"kind":"locality","name:en":"Polygyros","name":"\u03a0\u03bf\u03bb\u03cd\u03b3\u03c5\u03c1\u03bf\u03c2","kind_detail":"town","min_zoom":8.0,"name:de":"Polygyros","source":"openstreetmap.org","name:fr":"Polygyros","name:sr":"\u041f\u043e\u043b\u0438\u0433\u0438\u0440\u043e\u0441","name:ru":"\u041f\u043e\u043b\u0438\u0439\u0438\u0440\u043e\u0441","id":135818727,"population":5040},"coordinates":[2745,1792]},{"type":"Point","properties":{"kind":"locality","name:en":"Asvestochori","name":"\u0391\u03c3\u03b2\u03b5\u03c3\u03c4\u03bf\u03c7\u03ce\u03c1\u03b9","kind_detail":"town","min_zoom":8.0,"name:de":"Asvestochori","source":"openstreetmap.org","name:fr":"Asvestochori","id":303652903,"population":4702},"coordinates":[1532,2800]},{"type":"Point","properties":{"kind":"locality","name:en":"Leptokarya","name":"\u039b\u03b5\u03c0\u03c4\u03bf\u03ba\u03b1\u03c1\u03c5\u03ac","kind_detail":"town","min_zoom":8.0,"name:de":"Leptokarya","source":"openstreetmap.org","name:fr":"Leptokarya","name:sr":"\u041b\u0435\u043f\u0442\u043e\u043a\u0430\u0440\u0438\u0458\u0430","name:ru":"\u041b\u0435\u043f\u0442\u043e\u043a\u0430\u0440\u044c\u044f","id":296754056,"population":4225},"coordinates":[186,572]},{"type":"Point","properties":{"kind":"locality","name:en":"Eginio","name":"\u0391\u03b9\u03b3\u03af\u03bd\u03b9\u03bf","kind_detail":"town","min_zoom":8.0,"name:de":"Eginio","source":"openstreetmap.org","name:fr":"Eginio","name:ru":"\u042d\u0439\u0438\u043d\u0438\u043e\u043d","id":139718561,"population":4208},"coordinates":[120,2270]},{"type":"Point","properties":{"kind":"locality","name:en":"Vasilika","name":"\u0392\u03b1\u03c3\u03b9\u03bb\u03b9\u03ba\u03ac","kind_detail":"town","min_zoom":8.0,"name:de":"Vasilika","source":"openstreetmap.org","name:fr":"Vasilika","name:ru":"\u0412\u0430\u0441\u0438\u043b\u0438\u043a\u0430","id":300886205,"population":4163},"coordinates":[1853,2182]},{"type":"Point","properties":{"kind":"locality","name:en":"Korinos","name":"\u039a\u03bf\u03c1\u03b9\u03bd\u03cc\u03c2","kind_detail":"town","min_zoom":8.0,"name:de":"Korinos","source":"openstreetmap.org","name:fr":"Korinos","name:ru":"\u041a\u043e\u0440\u0438\u043d\u043e\u0441","id":139717663,"population":4054},"coordinates":[256,1553]},{"type":"Point","properties":{"kind":"locality","name:en":"Plagiari","name":"\u03a0\u03bb\u03b1\u03b3\u03b9\u03ac\u03c1\u03b9","kind_detail":"town","min_zoom":8.0,"name:de":"Plagiari","source":"openstreetmap.org","name:fr":"Plagiari","id":146303534,"population":3770},"coordinates":[1337,2153]},{"type":"Point","properties":{"kind":"locality","name:en":"Filyro","name":"\u03a6\u03af\u03bb\u03c5\u03c1\u03bf","kind_detail":"town","source":"openstreetmap.org","min_zoom":8.0,"id":251627950,"population":3620},"coordinates":[1466,2995]},{"type":"Point","properties":{"kind":"locality","name:en":"Trilofos","name":"\u03a4\u03c1\u03af\u03bb\u03bf\u03c6\u03bf\u03c2","kind_detail":"town","min_zoom":8.0,"name:de":"Trilofos","source":"openstreetmap.org","name:fr":"Trilofos","id":146304012,"population":3517},"coordinates":[1373,2138]},{"type":"Point","properties":{"name:el":"Promahonas","kind":"locality","name:en":"Stavros","name":"\u03a3\u03c4\u03b1\u03c5\u03c1\u03cc\u03c2","kind_detail":"town","min_zoom":8.0,"name:de":"Stavros","source":"openstreetmap.org","name:fr":"Stavros","name:ru":"\u0421\u0442\u0430\u0432\u0440\u043e\u0441","name:bg":"Stavros","id":1827636456,"population":3285},"coordinates":[3496,2887]},{"type":"Point","properties":{"kind":"locality","name:en":"Ormylia","name":"\u039f\u03c1\u03bc\u03cd\u03bb\u03b9\u03b1","kind_detail":"town","min_zoom":8.0,"name:de":"Ormylia","source":"openstreetmap.org","name:fr":"Ormylia","int_name":"Ormilia","name:ru":"\u041e\u0440\u043c\u0438\u043b\u0438\u044f","id":138793432,"population":3272},"coordinates":[3042,1467]},{"type":"Point","properties":{"kind":"locality","name:en":"Ierissos","name":"\u0399\u03b5\u03c1\u03b9\u03c3\u03c3\u03cc\u03c2","kind_detail":"town","min_zoom":8.0,"name:de":"Ierissos","source":"openstreetmap.org","name:fr":"Ierissos","name:ro":"Ieriso","name:sr":"\u0418\u0435\u0440\u0438\u0441\u043e\u0441","name:ru":"\u0418\u0435\u0440\u0438\u0441\u043e\u0441","id":130167618,"population":3046},"coordinates":[4013,1868]},{"type":"Point","properties":{"kind":"locality","name:en":"Asprovalta","name":"\u0391\u03c3\u03c0\u03c1\u03bf\u03b2\u03ac\u03bb\u03c4\u03b1","kind_detail":"town","min_zoom":8.0,"name:de":"Asprovalta","source":"openstreetmap.org","name:fr":"Asprovalta","name:ru":"\u0410\u0441\u043f\u0440\u043e\u0432\u0430\u043b\u0442\u0430","id":1827636446,"population":3039},"coordinates":[3519,3109]},{"type":"Point","properties":{"kind":"locality","name:en":"Hortiatis","name":"\u03a7\u03bf\u03c1\u03c4\u03b9\u03ac\u03c4\u03b7\u03c2","kind_detail":"town","min_zoom":8.0,"name:de":"Chortiatis","source":"openstreetmap.org","name:fr":"Chortiatis","name:ru":"\u0425\u043e\u0440\u0442\u0438\u0430\u0442\u0438\u0441","id":303652752,"population":2946},"coordinates":[1746,2681]},{"type":"Point","properties":{"kind":"locality","name:en":"Sochos","name":"\u03a3\u03bf\u03c7\u03cc\u03c2","kind_detail":"town","source":"openstreetmap.org","min_zoom":8.0,"name:ru":"\u0421\u043e\u0445\u043e\u0441","id":1827636455,"population":2920},"coordinates":[2494,3478]},{"type":"Point","properties":{"kind":"locality","name:en":"Nea Triglia","name":"\u039d\u03ad\u03b1 \u03a4\u03c1\u03af\u03b3\u03bb\u03b9\u03b1","kind_detail":"town","min_zoom":8.0,"name:de":"Nea Triglia","source":"openstreetmap.org","name:fr":"Nea Triglia","name:ru":"\u041d\u0435\u0430-\u0422\u0440\u0438\u0433\u043b\u0438\u044f","id":146265776,"population":2905},"coordinates":[2061,1516]},{"type":"Point","properties":{"kind":"locality","name:en":"Liti","name":"\u039b\u03b7\u03c4\u03ae","kind_detail":"town","source":"openstreetmap.org","min_zoom":8.0,"id":146288083,"population":2841},"coordinates":[1396,3195]},{"type":"Point","properties":{"name:el":"\u0391\u03b3\u03af\u03b1 \u03a4\u03c1\u03b9\u03ac\u03c2","kind":"locality","name:en":"Agia Triada","name":"\u0391\u03b3\u03af\u03b1 \u03a4\u03c1\u03b9\u03ac\u03b4\u03b1","kind_detail":"town","min_zoom":8.0,"name:de":"Agia Triada","source":"openstreetmap.org","name:fr":"Agia Triada","int_name":"Agia Trias","id":146247228,"population":2829},"coordinates":[1093,2259]},{"type":"Point","properties":{"kind":"locality","name:en":"Nikiti","name":"\u039d\u03b9\u03ba\u03ae\u03c4\u03b7","kind_detail":"town","min_zoom":8.0,"name:de":"Nikiti","source":"openstreetmap.org","name:fr":"Nikiti","name:ro":"Nikiti","name:sr":"\u041d\u0438\u043a\u0438\u0442\u0438","old_name":"\u039d\u03b9\u03ba\u03ae\u03c4\u03b1\u03c2","name:ru":"\u041d\u0438\u043a\u0438\u0442\u0438","name:bg":"\u041d\u0438\u043a\u0438\u0442\u0438","id":57529944,"population":2769},"coordinates":[3404,1200]},{"type":"Point","properties":{"kind":"locality","name:en":"Kallithea","name":"\u039a\u03b1\u03bb\u03bb\u03b9\u03b8\u03ad\u03b1","kind_detail":"town","min_zoom":8.0,"name:de":"Kallithea","source":"openstreetmap.org","name:fr":"Kallithea","name:ro":"Kallithea","id":296754814,"population":2741},"coordinates":[226,1396]},{"type":"Point","properties":{"kind":"locality","name:en":"Megali Panagia","name":"\u039c\u03b5\u03b3\u03ac\u03bb\u03b7 \u03a0\u03b1\u03bd\u03b1\u03b3\u03af\u03b1","kind_detail":"town","min_zoom":8.0,"name:de":"Megali Panagia","source":"openstreetmap.org","name:fr":"Megali Panagia","name:ru":"\u041c\u0435\u0433\u0430\u043b\u0438-\u041f\u0430\u043d\u0430\u0439\u0438\u044f","id":135546755,"population":2727},"coordinates":[3439,2046]},{"type":"Point","properties":{"kind":"locality","name:en":"Galatista","name":"\u0393\u03b1\u03bb\u03ac\u03c4\u03b9\u03c3\u03c4\u03b1","kind_detail":"town","min_zoom":8.0,"name:de":"Galatista","source":"openstreetmap.org","name:fr":"Galatista","name:ru":"\u0413\u0430\u043b\u0430\u0442\u0438\u0441\u0442\u0430","id":296382831,"population":2662},"coordinates":[2267,2136]},{"type":"Point","properties":{"kind":"locality","name:en":"Simantra","name":"\u03a3\u03ae\u03bc\u03b1\u03bd\u03c4\u03c1\u03b1","kind_detail":"town","min_zoom":8.0,"name:de":"Simandra","source":"openstreetmap.org","name:fr":"Simandra","id":296385123,"population":2503},"coordinates":[2363,1671]},{"type":"Point","properties":{"kind":"locality","name:en":"Lagyna","name":"\u039b\u03b1\u03b3\u03c5\u03bd\u03ac","kind_detail":"town","source":"openstreetmap.org","min_zoom":8.0,"name:ru":"\u041b\u0430\u0439\u0438\u043d\u0430","id":146288583,"population":2490},"coordinates":[1471,3113]},{"type":"Point","properties":{"kind":"locality","name:en":"Drymos","name":"\u0394\u03c1\u03c5\u03bc\u03cc\u03c2","kind_detail":"town","source":"openstreetmap.org","min_zoom":8.0,"id":303654623,"population":2487},"coordinates":[1336,3335]},{"type":"Point","properties":{"kind":"locality","name:en":"Peristasi","name":"\u03a0\u03b5\u03c1\u03af\u03c3\u03c4\u03b1\u03c3\u03b7","kind_detail":"town","min_zoom":8.0,"name:de":"Peristasi","source":"openstreetmap.org","name:fr":"Peristasi","id":296754855,"population":2454},"coordinates":[122,1398]},{"type":"Point","properties":{"kind":"locality","name:en":"Pella","name":"\u03a0\u03ad\u03bb\u03bb\u03b1","kind_detail":"town","min_zoom":8.0,"name:de":"Pella","source":"openstreetmap.org","name:fr":"Pella","int_name":"Pella","name:ru":"\u041f\u0435\u043b\u0430","id":296269474,"population":2450},"coordinates":[80,3255]},{"type":"Point","properties":{"kind":"locality","name:en":"Evropos","name":"\u0395\u03c5\u03c1\u03c9\u03c0\u03cc\u03c2","kind_detail":"town","min_zoom":8.0,"name:de":"Evropos","source":"openstreetmap.org","name:fr":"Evropos","id":240471826,"population":2425},"coordinates":[156,3774]},{"type":"Point","properties":{"kind":"locality","name:en":"Nea Mesimvria","name":"\u039d\u03ad\u03b1 \u039c\u03b5\u03c3\u03ae\u03bc\u03b2\u03c1\u03b9\u03b1","kind_detail":"town","min_zoom":8.0,"name:de":"Nea Mesimvria","source":"openstreetmap.org","name:fr":"Nea Mesimvria","id":4810833192,"population":2343},"coordinates":[788,3222]},{"type":"Point","properties":{"kind":"locality","name:en":"Adendro","name":"\u0386\u03b4\u03b5\u03bd\u03b4\u03c1\u03bf","kind_detail":"town","source":"openstreetmap.org","min_zoom":8.0,"name:ru":"\u0410\u0434\u0435\u043d\u0434\u0440\u043e\u043d","id":154102829,"population":2283},"coordinates":[295,2918]},{"type":"Point","properties":{"kind":"locality","name:en":"Assiros","name":"\u0386\u03c3\u03c3\u03b7\u03c1\u03bf\u03c2","kind_detail":"town","source":"openstreetmap.org","min_zoom":8.0,"name:ru":"\u0410\u0441\u0438\u0440\u043e\u0441","id":303656186,"population":2264},"coordinates":[1548,3488]},{"type":"Point","properties":{"kind":"locality","name:en":"Arnea","name":"\u0391\u03c1\u03bd\u03b1\u03af\u03b1","kind_detail":"town","min_zoom":8.0,"name:de":"Arnea","source":"openstreetmap.org","name:fr":"Arnea","name:ru":"\u0410\u0440\u043d\u0435\u044f","id":135548698,"population":2253},"coordinates":[3191,2206]},{"type":"Point","properties":{"kind":"locality","name:en":"Vathylakkos","name":"\u0392\u03b1\u03b8\u03cd\u03bb\u03b1\u03ba\u03ba\u03bf\u03c2","kind_detail":"town","min_zoom":8.0,"name:de":"Vathylakojs","source":"openstreetmap.org","name:fr":"Vathylakkos","name:sr":"\u0412\u0430\u0442\u0438\u043b\u0430\u043a\u043e\u0441","id":146295217,"population":2198},"coordinates":[609,3290]},{"type":"Point","properties":{"kind":"locality","name:en":"Terpni","name":"\u03a4\u03b5\u03c1\u03c0\u03bd\u03ae","kind_detail":"town","source":"openstreetmap.org","min_zoom":8.0,"name:ru":"\u0422\u0435\u0440\u043f\u043d\u0438","id":303700155,"population":2189},"coordinates":[2859,3858]}]},"transit":{"type":"GeometryCollection","geometries":[{"type":"LineString","properties":{"name:el":"\u0392\u03b5\u03bb\u03b9\u03b3\u03c1\u03ac\u03b4\u03b9 - \u0398\u03b5\u03c3\u03c3\u03b1\u03bb\u03bf\u03bd\u03af\u03ba\u03b7","kind":"train","name:en":"Belgrade - Thessaloniki","name":"Beograd - Salonica","sort_rank":275,"id":-1182390,"source":"openstreetmap.org","min_zoom":6.0,"name:hu":"Belgr\u00e1d\u2013Szaloniki","ref":"Beograd - Thessaloniki","name:sr":"\u0411\u0435\u043e\u0433\u0440\u0430\u0434 - \u0421\u043e\u043b\u0443\u043d","osm_relation":true},"arcs":[5]},{"type":"LineString","properties":{"kind":"train","name":"Sofia - Thessaloniki","sort_rank":275,"source":"openstreetmap.org","min_zoom":6.0,"ref":"360;361","id":-6720512,"osm_relation":true},"arcs":[6]},{"type":"LineString","properties":{"kind":"train","network":"Intercity","sort_rank":275,"source":"openstreetmap.org","min_zoom":6.0,"operator":"\u03a4\u03c1\u03b1\u03b9\u03bd\u039f\u03a3\u0395","ref":"IC","osm_relation":true,"name":"Train IC : \u0398\u03b5\u03c3\u03c3\u03b1\u03bb\u03bf\u03bd\u03af\u03ba\u03b7 \u2192 \u0391\u03b8\u03ae\u03bd\u03b1"},"arcs":[7]},{"type":"LineString","properties":{"source":"openstreetmap.org","kind":"train","name":"\u0392\u03b1\u03c3\u03b9\u03ba\u03ae \u0393\u03c1\u03b1\u03bc\u03bc\u03ae \u039c\u03b5\u03c4\u03c1\u03cc (\u039d.\u03a3.\u03a3 - \u039d\u03ad\u03b1 \u0395\u03bb\u03b2\u03b5\u03c4\u03af\u03b1)","sort_rank":275,"min_zoom":6.0,"osm_relation":true,"id":-6152448},"arcs":[8]},{"type":"LineString","properties":{"kind":"train","network":"Intercity","sort_rank":275,"source":"openstreetmap.org","min_zoom":6.0,"operator":"\u03a4\u03c1\u03b1\u03b9\u03bd\u039f\u03a3\u0395","ref":"IC","osm_relation":true,"name":"Train IC : \u0391\u03b8\u03ae\u03bd\u03b1 \u2192 \u0398\u03b5\u03c3\u03c3\u03b1\u03bb\u03bf\u03bd\u03af\u03ba\u03b7"},"arcs":[9]}]},"pois":{"type":"GeometryCollection","geometries":[{"type":"Point","properties":{"kind":"nature_reserve","name:en":"Dragoudeliou - Karra","name":"\u0394\u03c1\u03b1\u03b3\u03bf\u03c5\u03b4\u03b5\u03bb\u03af\u03bf\u03c5 \u03ba\u03b1\u03b9 \u039a\u03b1\u03c1\u03c1\u03ac \u0394\u03ae\u03bc\u03c9\u03bd \u03a3\u03b9\u03b8\u03c9\u03bd\u03af\u03b1\u03c2 \u03ba\u03b1\u03b9 \u03a4\u03bf\u03c1\u03ce\u03bd\u03b7\u03c2","area":227634000,"source":"openstreetmap.org","min_zoom":8.37,"tier":2,"id":138271628},"coordinates":[3985,720]},{"type":"Point","properties":{"source":"openstreetmap.org","kind":"nature_reserve","name":"\u039c\u03b1\u03b4\u03cd\u03c4\u03bf\u03c5, \u0391\u03c0\u03bf\u03bb\u03bb\u03c9\u03bd\u03af\u03b1\u03c2, \u039b\u03af\u03bc\u03bd\u03b7\u03c2 \u0392\u03cc\u03bb\u03b2\u03b7\u03c2, \u0395\u03ba\u03b2\u03bf\u03bb\u03ad\u03c2 \u03a1\u03cd\u03c7\u03b5\u03b9\u03bf\u03c5 \u03a0\u03bf\u03c4\u03b1\u03bc\u03bf\u03cd \u0394\u03ae\u03bc\u03c9\u03bd \u0391\u03c0\u03bf\u03bb\u03bb\u03c9\u03bd\u03af\u03b1\u03c2, \u0391\u03b3. \u0393\u03b5\u03c9\u03c1\u03b3\u03af\u03bf\u03c5 \u03ba\u03b1\u03b9 \u03a1\u03b5\u03bd\u03c4\u03af\u03bd\u03b1\u03c2","area":202167000,"tier":2,"min_zoom":8.46,"id":139889210},"coordinates":[2833,2881]}]},"boundaries":{"type":"GeometryCollection","geometries":[{"type":"LineString","properties":{"name:right:fr":"Thessalie - Gr\u00e8ce centrale","id:left":-5208399,"id:right":-4495677,"min_zoom":8.0,"name:left:ru":"\u041c\u0430\u043a\u0435\u0434\u043e\u043d\u0438\u0438 \u0438 \u0424\u0440\u0430\u043a\u0438\u0438","name:right:ru":"\u0424\u0435\u0441\u0441\u0430\u043b\u0438\u0438 \u0438 \u0426\u0435\u043d\u0442\u0440\u0430\u043b\u044c\u043d\u043e\u0439 \u0413\u0440\u0435\u0446\u0438\u0438","id":-5208399,"osm_relation":true,"name:right":"\u0398\u03b5\u03c3\u03c3\u03b1\u03bb\u03af\u03b1 - \u03a3\u03c4\u03b5\u03c1\u03b5\u03ac \u0395\u03bb\u03bb\u03ac\u03b4\u03b1","kind":"region","name":"\u039c\u03b1\u03ba\u03b5\u03b4\u03bf\u03bd\u03af\u03b1 - \u0398\u03c1\u03ac\u03ba\u03b7 - \u0398\u03b5\u03c3\u03c3\u03b1\u03bb\u03af\u03b1 - \u03a3\u03c4\u03b5\u03c1\u03b5\u03ac \u0395\u03bb\u03bb\u03ac\u03b4\u03b1","source":"openstreetmap.org","sort_rank":256,"kind_detail":"4","name:left:de":"Makedonien - Thrakien","name:right:en":"Thessaly - Central Greece","name:left:en":"Macedonia - Thrace","name:left:fr":"Mac\u00e9doine - Thrace","name:right:de":"Thessalien - Mittelgriechenland","official_name:right":"\u0391\u03c0\u03bf\u03ba\u03b5\u03bd\u03c4\u03c1\u03c9\u03bc\u03ad\u03bd\u03b7 \u0394\u03b9\u03bf\u03af\u03ba\u03b7\u03c3\u03b7 \u0398\u03b5\u03c3\u03c3\u03b1\u03bb\u03af\u03b1\u03c2 - \u03a3\u03c4\u03b5\u03c1\u03b5\u03ac\u03c2 \u0395\u03bb\u03bb\u03ac\u03b4\u03b1\u03c2","official_name:left":"\u0391\u03c0\u03bf\u03ba\u03b5\u03bd\u03c4\u03c1\u03c9\u03bc\u03ad\u03bd\u03b7 \u0394\u03b9\u03bf\u03af\u03ba\u03b7\u03c3\u03b7 \u039c\u03b1\u03ba\u03b5\u03b4\u03bf\u03bd\u03af\u03b1\u03c2 - \u0398\u03c1\u03ac\u03ba\u03b7\u03c2","name:left":"\u039c\u03b1\u03ba\u03b5\u03b4\u03bf\u03bd\u03af\u03b1 - \u0398\u03c1\u03ac\u03ba\u03b7"},"arcs":[0]},{"type":"LineString","properties":{"name:right:fr":"Thessalie - Gr\u00e8ce centrale","name":"\u039c\u03b1\u03ba\u03b5\u03b4\u03bf\u03bd\u03af\u03b1 - \u0398\u03c1\u03ac\u03ba\u03b7 - \u0398\u03b5\u03c3\u03c3\u03b1\u03bb\u03af\u03b1 - \u03a3\u03c4\u03b5\u03c1\u03b5\u03ac \u0395\u03bb\u03bb\u03ac\u03b4\u03b1","id:right":-4495677,"min_zoom":8.0,"name:left:ru":"\u041c\u0430\u043a\u0435\u0434\u043e\u043d\u0438\u0438 \u0438 \u0424\u0440\u0430\u043a\u0438\u0438","name:right:ru":"\u0424\u0435\u0441\u0441\u0430\u043b\u0438\u0438 \u0438 \u0426\u0435\u043d\u0442\u0440\u0430\u043b\u044c\u043d\u043e\u0439 \u0413\u0440\u0435\u0446\u0438\u0438","id":-5208399,"osm_relation":true,"name:right":"\u0398\u03b5\u03c3\u03c3\u03b1\u03bb\u03af\u03b1 - \u03a3\u03c4\u03b5\u03c1\u03b5\u03ac \u0395\u03bb\u03bb\u03ac\u03b4\u03b1","kind":"region","name:left:en":"Macedonia - Thrace","sort_rank":256,"kind_detail":"4","name:left:de":"Makedonien - Thrakien","name:right:en":"Thessaly - Central Greece","source":"openstreetmap.org","maritime_boundary":true,"name:right:de":"Thessalien - Mittelgriechenland","name:left:fr":"Mac\u00e9doine - Thrace","id:left":-5208399,"official_name:right":"\u0391\u03c0\u03bf\u03ba\u03b5\u03bd\u03c4\u03c1\u03c9\u03bc\u03ad\u03bd\u03b7 \u0394\u03b9\u03bf\u03af\u03ba\u03b7\u03c3\u03b7 \u0398\u03b5\u03c3\u03c3\u03b1\u03bb\u03af\u03b1\u03c2 - \u03a3\u03c4\u03b5\u03c1\u03b5\u03ac\u03c2 \u0395\u03bb\u03bb\u03ac\u03b4\u03b1\u03c2","official_name:left":"\u0391\u03c0\u03bf\u03ba\u03b5\u03bd\u03c4\u03c1\u03c9\u03bc\u03ad\u03bd\u03b7 \u0394\u03b9\u03bf\u03af\u03ba\u03b7\u03c3\u03b7 \u039c\u03b1\u03ba\u03b5\u03b4\u03bf\u03bd\u03af\u03b1\u03c2 - \u0398\u03c1\u03ac\u03ba\u03b7\u03c2","name:left":"\u039c\u03b1\u03ba\u03b5\u03b4\u03bf\u03bd\u03af\u03b1 - \u0398\u03c1\u03ac\u03ba\u03b7"},"arcs":[1]},{"type":"MultiLineString","properties":{"kind":"region","name:en":"Macedonia - Thrace","name":"\u039c\u03b1\u03ba\u03b5\u03b4\u03bf\u03bd\u03af\u03b1 - \u0398\u03c1\u03ac\u03ba\u03b7","sort_rank":256,"kind_detail":"4","min_zoom":8.0,"official_name":"\u0391\u03c0\u03bf\u03ba\u03b5\u03bd\u03c4\u03c1\u03c9\u03bc\u03ad\u03bd\u03b7 \u0394\u03b9\u03bf\u03af\u03ba\u03b7\u03c3\u03b7 \u039c\u03b1\u03ba\u03b5\u03b4\u03bf\u03bd\u03af\u03b1\u03c2 - \u0398\u03c1\u03ac\u03ba\u03b7\u03c2","name:de":"Makedonien - Thrakien","source":"openstreetmap.org","maritime_boundary":true,"name:fr":"Mac\u00e9doine - Thrace","name:ru":"\u041c\u0430\u043a\u0435\u0434\u043e\u043d\u0438\u0438 \u0438 \u0424\u0440\u0430\u043a\u0438\u0438","id":-5208399,"osm_relation":true},"arcs":[[2],[3]]},{"type":"LineString","properties":{"kind":"region","name:en":"Thessaly - Central Greece","name":"\u0398\u03b5\u03c3\u03c3\u03b1\u03bb\u03af\u03b1 - \u03a3\u03c4\u03b5\u03c1\u03b5\u03ac \u0395\u03bb\u03bb\u03ac\u03b4\u03b1","sort_rank":256,"kind_detail":"4","min_zoom":8.0,"official_name":"\u0391\u03c0\u03bf\u03ba\u03b5\u03bd\u03c4\u03c1\u03c9\u03bc\u03ad\u03bd\u03b7 \u0394\u03b9\u03bf\u03af\u03ba\u03b7\u03c3\u03b7 \u0398\u03b5\u03c3\u03c3\u03b1\u03bb\u03af\u03b1\u03c2 - \u03a3\u03c4\u03b5\u03c1\u03b5\u03ac\u03c2 \u0395\u03bb\u03bb\u03ac\u03b4\u03b1\u03c2","name:de":"Thessalien - Mittelgriechenland","source":"openstreetmap.org","maritime_boundary":true,"name:fr":"Thessalie - Gr\u00e8ce centrale","name:ru":"\u0424\u0435\u0441\u0441\u0430\u043b\u0438\u0438 \u0438 \u0426\u0435\u043d\u0442\u0440\u0430\u043b\u044c\u043d\u043e\u0439 \u0413\u0440\u0435\u0446\u0438\u0438","id":-4495677,"osm_relation":true},"arcs":[4]}]},"roads":{"type":"GeometryCollection","geometries":[{"type":"MultiLineString","properties":{"source":"openstreetmap.org","kind":"major_road","int_name":"Thessaloniki - Nea Moudania","kind_detail":"trunk","sort_rank":381,"landuse_kind":"urban_area","min_zoom":8.0},"arcs":[[18],[19]]},{"type":"MultiLineString","properties":{"kind":"highway","name:ro":"Egnatia Odos","int_name":"Egnatia Odos","network":"e-road","sort_rank":383,"landuse_kind":"urban_area","source":"openstreetmap.org","min_zoom":8.0,"name:en":"Egnatia Motorway","all_networks":["e-road","e-road","GR:motorway"],"kind_detail":"motorway","shield_text":"79","ref":"\u03912","all_shield_texts":["79","90","\u03912"]},"arcs":[[20],[21]]},{"type":"LineString","properties":{"kind":"major_road","int_name":"Stratoni - Ierissos","network":"GR:national","sort_rank":380,"kind_detail":"primary","source":"openstreetmap.org","min_zoom":8.0,"shield_text":"\u0395\u039f16"},"arcs":[22]},{"type":"MultiLineString","properties":{"kind":"highway","int_name":"Egnatia Odos","network":"e-road","sort_rank":383,"landuse_kind":"urban_area","name:fr":"Autoroute \u00c9gnatia","source":"openstreetmap.org","min_zoom":8.0,"name:en":"Egnatia Motorway","all_networks":["e-road","GR:motorway"],"kind_detail":"motorway","shield_text":"90","ref":"\u03912","all_shield_texts":["90","\u03912"]},"arcs":[[23],[24],[25],[26],[27],[28],[29],[30]]},{"type":"MultiLineString","properties":{"kind":"major_road","int_name":"Katerini - Alexandreia","network":"GR:national","sort_rank":380,"kind_detail":"primary","source":"openstreetmap.org","min_zoom":8.0,"landuse_kind":"urban_area","shield_text":"\u0395\u039f1","ref":"\u0395\u039f1"},"arcs":[[31],[32],[33]]},{"type":"LineString","properties":{"kind":"major_road","int_name":"Konstantinou Karamanli","sort_rank":380,"kind_detail":"primary","bus_shield_text":"2","bus_network":null,"source":"openstreetmap.org","min_zoom":8.0,"old_name":"\u039d\u03ad\u03b1 \u0395\u03b3\u03bd\u03b1\u03c4\u03af\u03b1","landuse_kind":"urban_area","id":197295215},"arcs":[34]},{"type":"MultiLineString","properties":{"kind":"highway","int_name":"Thessaloniki - Nea Moudania","sort_rank":383,"kind_detail":"motorway","source":"openstreetmap.org","min_zoom":8.0,"landuse_kind":"urban_area","ref":"\u039124"},"arcs":[[35],[36],[37],[38],[39],[40],[41],[42],[43],[44],[45],[46]]},{"type":"LineString","properties":{"bus_network":null,"int_name":"Georgikis Scholis","network":"GR:national","sort_rank":380,"kind_detail":"primary","kind":"major_road","source":"openstreetmap.org","min_zoom":8.0,"bus_shield_text":"2","shield_text":"\u0395\u039f16","landuse_kind":"urban_area","ref":"\u0395\u039f16"},"arcs":[47]},{"type":"MultiLineString","properties":{"kind":"major_road","network":"GR:national","sort_rank":380,"kind_detail":"primary","source":"openstreetmap.org","min_zoom":8.0,"landuse_kind":"urban_area","shield_text":"\u0395\u039f1","ref":"\u0395\u039f1"},"arcs":[[48],[49],[50],[51]]},{"type":"MultiLineString","properties":{"kind":"highway","int_name":"Egnatia Odos","network":"e-road","sort_rank":383,"landuse_kind":"nature_reserve","source":"openstreetmap.org","min_zoom":8.0,"name:en":"Egnatia Motorway","all_networks":["e-road","GR:motorway"],"kind_detail":"motorway","shield_text":"90","ref":"\u03912","all_shield_texts":["90","\u03912"]},"arcs":[[52],[53],[54]]},{"type":"LineString","properties":{"kind":"major_road","int_name":"Ethnikis Antistaseos","network":"GR:national","sort_rank":380,"kind_detail":"primary","bus_network":null,"source":"openstreetmap.org","min_zoom":8.0,"bus_shield_text":"2","shield_text":"\u0395\u039f16","ref":"\u0395\u039f16","id":19803639},"arcs":[55]},{"type":"LineString","properties":{"bus_network":null,"network":"GR:national","sort_rank":380,"kind_detail":"primary","kind":"major_road","source":"openstreetmap.org","min_zoom":8.0,"bus_shield_text":"14","shield_text":"\u0395\u039f2","landuse_kind":"urban_area","ref":"\u0395\u039f2"},"arcs":[56]},{"type":"MultiLineString","properties":{"kind":"major_road","int_name":"Edessa - Thessaloniki","network":"GR:national","sort_rank":381,"kind_detail":"trunk","source":"openstreetmap.org","min_zoom":8.0,"landuse_kind":"urban_area","shield_text":"\u0395\u039f2","ref":"\u0395\u039f2"},"arcs":[[57],[58]]},{"type":"LineString","properties":{"kind":"major_road","int_name":"Katerini - Alexandreia","network":"GR:national","sort_rank":380,"kind_detail":"primary","source":"openstreetmap.org","min_zoom":8.0,"landuse_kind":"battlefield","shield_text":"\u0395\u039f1","ref":"\u0395\u039f1","id":83162206},"arcs":[59]},{"type":"MultiLineString","properties":{"kind":"major_road","int_name":"Monastiriou","network":"GR:national","sort_rank":380,"kind_detail":"primary","source":"openstreetmap.org","min_zoom":8.0,"landuse_kind":"urban_area","shield_text":"\u0395\u039f2","ref":"\u0395\u039f2"},"arcs":[[60],[61]]},{"type":"LineString","properties":{"kind":"major_road","name:en":"25th Martiou","sort_rank":380,"landuse_kind":"urban_area","source":"openstreetmap.org","min_zoom":8.0,"kind_detail":"primary","id":207094503},"arcs":[62]},{"type":"MultiLineString","properties":{"kind":"highway","int_name":"Egnatia Odos","network":"e-road","sort_rank":383,"landuse_kind":"urban_area","source":"openstreetmap.org","min_zoom":8.0,"name:en":"Egnatia Motorway","all_networks":["e-road","GR:motorway"],"kind_detail":"motorway","shield_text":"90","ref":"\u03912","all_shield_texts":["90","\u03912"]},"arcs":[[63],[64],[65],[66]]},{"type":"LineString","properties":{"kind":"major_road","name:en":"Konstantinou Karamanli avenue","sort_rank":380,"kind_detail":"primary","bus_shield_text":"14","bus_network":null,"source":"openstreetmap.org","min_zoom":8.0,"old_name":"\u039f\u03b4\u03cc\u03c2 \u039d\u03ad\u03b1 \u0395\u03b3\u03bd\u03b1\u03c4\u03af\u03b1","landuse_kind":"urban_area","id":15090602},"arcs":[67]},{"type":"MultiLineString","properties":{"bus_network":null,"int_name":"Langada","network":"GR:national","sort_rank":381,"kind_detail":"trunk","kind":"major_road","source":"openstreetmap.org","min_zoom":8.0,"bus_shield_text":"27","shield_text":"\u0395\u039f2","landuse_kind":"urban_area","ref":"\u0395\u039f2"},"arcs":[[68],[69]]},{"type":"MultiLineString","properties":{"kind":"major_road","int_name":"Thessaloniki - Serres","network":"GR:national","sort_rank":380,"kind_detail":"primary","source":"openstreetmap.org","min_zoom":8.0,"shield_text":"\u0395\u039f12","ref":"\u0395\u039f12"},"arcs":[[70],[71],[72],[73]]},{"type":"LineString","properties":{"kind":"major_road","name:en":"Egnatias","sort_rank":380,"kind_detail":"primary","name:ar":"\u0634\u0627\u0631\u0639 \u0627\u063a\u0646\u0627\u062a\u064a\u0627","alt_name:en":"Egnatias","bus_network":null,"name:de":"Egnatias","source":"openstreetmap.org","min_zoom":8.0,"int_name":"Egnatias","bus_shield_text":"2","landuse_kind":"urban_area","id":446270256},"arcs":[74]},{"type":"MultiLineString","properties":{"alt_name:el":"\u0391\u03c5\u03c4\u03bf\u03ba\u03b9\u03bd\u03b7\u03c4\u03cc\u03b4\u03c1\u03bf\u03bc\u03bf\u03c2 1","int_name":"Athina - Thessaloniki - Evzonoi","min_zoom":8.0,"alt_name:en":"Motorway 1","old_name":"\u0391\u03c5\u03c4\u03bf\u03ba\u03b9\u03bd\u03b7\u03c4\u03cc\u03b4\u03c1\u03bf\u03bc\u03bf\u03c2 \u03a0\u0391\u0398\u0395","kind":"highway","name:en":"Motorway 1 (Athens - Thessaloniki - Evzonoi)","network":"e-road","sort_rank":383,"kind_detail":"motorway","source":"openstreetmap.org","all_networks":["e-road","GR:motorway"],"landuse_kind":"battlefield","shield_text":"75","ref":"\u03911","all_shield_texts":["75","\u03911"]},"arcs":[[75],[76]]},{"type":"LineString","properties":{"kind":"major_road","network":"GR:national","sort_rank":381,"landuse_kind":"urban_area","source":"openstreetmap.org","min_zoom":8.0,"kind_detail":"trunk","shield_text":"\u0395\u039f2","ref":"EO2"},"arcs":[77]},{"type":"MultiLineString","properties":{"kind":"major_road","name:en":"Thessaloniki - Kilkis","network":"GR:national","sort_rank":380,"kind_detail":"primary","source":"openstreetmap.org","min_zoom":8.0,"landuse_kind":"park","shield_text":"\u0395\u039f65","ref":"\u0395\u039f65"},"arcs":[[78],[79],[80],[81]]},{"type":"MultiLineString","properties":{"source":"openstreetmap.org","kind":"highway","int_name":"Thessaloniki - Nea Moudania","sort_rank":383,"kind_detail":"motorway","ref":"\u039124","min_zoom":8.0},"arcs":[[82],[83]]},{"type":"LineString","properties":{"kind":"major_road","name:en":"Thessaloniki - Polygyros","network":"GR:national","sort_rank":380,"kind_detail":"primary","source":"openstreetmap.org","min_zoom":8.0,"shield_text":"\u0395\u039f16","ref":"\u0395\u039f16"},"arcs":[84]},{"type":"LineString","properties":{"kind":"major_road","name:en":"Arnea - Ierissos Highway","network":"GR:national","sort_rank":380,"kind_detail":"primary","source":"openstreetmap.org","min_zoom":8.0,"shield_text":"\u0395\u039f16","ref":"\u0395\u039f16"},"arcs":[85]},{"type":"MultiLineString","properties":{"kind":"major_road","int_name":"Konstantinou Karamanli","network":"GR:national","sort_rank":380,"kind_detail":"primary","source":"openstreetmap.org","min_zoom":8.0,"landuse_kind":"urban_area","shield_text":"\u0395\u039f2","ref":"\u0395\u039f2"},"arcs":[[86],[87]]},{"type":"MultiLineString","properties":{"kind":"major_road","int_name":"Larisa - Leptokarya","network":"GR:national","sort_rank":380,"kind_detail":"primary","source":"openstreetmap.org","min_zoom":8.0,"shield_text":"\u0395\u039f1","ref":"\u0395\u039f1"},"arcs":[[88],[89]]},{"type":"LineString","properties":{"kind":"major_road","int_name":"Langada","network":"GR:national","sort_rank":380,"kind_detail":"primary","source":"openstreetmap.org","min_zoom":8.0,"landuse_kind":"urban_area","shield_text":"\u0395\u039f2","ref":"\u0395\u039f2"},"arcs":[90]},{"type":"LineString","properties":{"kind":"major_road","name:en":"Konstantinou Karamanli avenue","sort_rank":380,"kind_detail":"primary","bus_shield_text":"11","bus_network":null,"source":"openstreetmap.org","min_zoom":8.0,"old_name":"\u039f\u03b4\u03cc\u03c2 \u039d\u03ad\u03b1 \u0395\u03b3\u03bd\u03b1\u03c4\u03af\u03b1","landuse_kind":"urban_area","id":15090601},"arcs":[91]},{"type":"MultiLineString","properties":{"kind":"highway","name:en":"Thessaloniki Ring Road","sort_rank":383,"landuse_kind":"urban_area","source":"openstreetmap.org","min_zoom":8.0,"int_name":"Perifereiaki Odos","kind_detail":"motorway","ref":"\u039124"},"arcs":[[92],[93],[94],[95],[96],[97]]},{"type":"LineString","properties":{"kind":"major_road","network":"GR:national","sort_rank":380,"kind_detail":"primary","source":"openstreetmap.org","min_zoom":8.0,"shield_text":"\u0395\u039f65","ref":"\u0395\u039f65","id":375157031},"arcs":[98]},{"type":"LineString","properties":{"kind":"major_road","int_name":"Arnaia - Stratoni","network":"GR:national","sort_rank":380,"kind_detail":"primary","source":"openstreetmap.org","min_zoom":8.0,"shield_text":"\u0395\u039f16","ref":"\u0395\u039f16","id":27218450},"arcs":[99]},{"type":"MultiLineString","properties":{"bus_network":null,"name:en":"Egnatia Street","sort_rank":380,"kind_detail":"primary","name:ar":"\u0634\u0627\u0631\u0639 \u0627\u063a\u0646\u0627\u062a\u064a\u0627","alt_name:en":"Egnatias Street","kind":"major_road","name:de":"Egnatia Strasse","source":"openstreetmap.org","min_zoom":8.0,"int_name":"Egnatia","bus_shield_text":"2","landuse_kind":"urban_area"},"arcs":[[100],[101],[102]]},{"type":"MultiLineString","properties":{"int_name":"Athina - Thessaloniki - Evzonoi","min_zoom":8.0,"alt_name:en":"Athens - Thessaloniki - Evzoni","old_name":"\u0391\u03c5\u03c4\u03bf\u03ba\u03b9\u03bd\u03b7\u03c4\u03cc\u03b4\u03c1\u03bf\u03bc\u03bf\u03c2 \u03a0\u0391\u0398\u0395","alt_name:fr":"Ath\u00e8nes - Thessalonique - Evzoni","kind":"highway","name:en":"Tempe Tunnel T3","network":"e-road","sort_rank":383,"kind_detail":"motorway","source":"openstreetmap.org","name:fr":"Tunnel Temp\u00e9 T3","all_networks":["e-road","GR:motorway"],"shield_text":"75","ref":"\u03911","all_shield_texts":["75","\u03911"]},"arcs":[[103],[104]]},{"type":"MultiLineString","properties":{"source":"openstreetmap.org","kind":"major_road","name:en":"Thessaloniki - Polygyros Highway","sort_rank":380,"kind_detail":"primary","min_zoom":8.0},"arcs":[[105],[106],[107]]},{"type":"MultiLineString","properties":{"kind":"major_road","int_name":"Alexandreia - Chalkidona","network":"GR:national","sort_rank":380,"kind_detail":"primary","source":"openstreetmap.org","min_zoom":8.0,"shield_text":"\u0395\u039f1","ref":"\u0395\u039f1"},"arcs":[[108],[109],[110]]},{"type":"LineString","properties":{"int_name":"Siragga Alexandros","min_zoom":8.0,"alt_name:en":"Athens - Thessaloniki - Evzoni","alt_name:fr":"Ath\u00e8nes - Thessalonique - Evzoni","id":26731960,"kind":"highway","name:en":"Alexandros Tunnel","network":"e-road","sort_rank":383,"kind_detail":"motorway","source":"openstreetmap.org","name:fr":"Tunnel Alexandros","all_networks":["e-road","GR:motorway"],"landuse_kind":"urban_area","shield_text":"75","ref":"\u03911","all_shield_texts":["75","\u03911"]},"arcs":[111]},{"type":"MultiLineString","properties":{"kind":"highway","int_name":"Egnatia Odos","network":"e-road","sort_rank":383,"kind_detail":"motorway","source":"openstreetmap.org","min_zoom":8.0,"name:en":"Egnatia Motorway","all_networks":["e-road","GR:motorway"],"landuse_kind":"park","shield_text":"90","ref":"\u03912","all_shield_texts":["90","\u03912"]},"arcs":[[112],[113],[114],[115],[116],[117],[118],[119],[120],[121]]},{"type":"MultiLineString","properties":{"kind":"major_road","network":"GR:national","sort_rank":380,"kind_detail":"primary","source":"openstreetmap.org","min_zoom":8.0,"landuse_kind":"nature_reserve","shield_text":"\u0395\u039f59","ref":"\u0395\u039f59"},"arcs":[[122],[123],[124],[125],[126]]},{"type":"MultiLineString","properties":{"kind":"major_road","int_name":"Thessaloniki - Kavala","network":"GR:national","sort_rank":380,"kind_detail":"primary","source":"openstreetmap.org","min_zoom":8.0,"shield_text":"\u0395\u039f2","ref":"\u0395\u039f2"},"arcs":[[127],[128],[129],[130],[131],[132],[133],[134],[135]]},{"type":"MultiLineString","properties":{"kind":"highway","network":"e-road","sort_rank":383,"kind_detail":"motorway","source":"openstreetmap.org","min_zoom":8.0,"all_networks":["e-road",null],"landuse_kind":"park","shield_text":"79","all_shield_texts":["79","25"]},"arcs":[[136],[137]]},{"type":"MultiLineString","properties":{"kind":"major_road","int_name":"Athina - Thessaloniki - Evzoni","network":"e-road","sort_rank":381,"kind_detail":"trunk","name:fr":"Ath\u00e8nes - Thessalonique - Evzoni","source":"openstreetmap.org","min_zoom":8.0,"name:en":"Athens - Thessaloniki - Evzonoi","old_name":"\u0395\u03b8\u03bd\u03b9\u03ba\u03ae \u039f\u03b4\u03cc\u03c2 \u03a0\u0391\u0398\u0395","shield_text":"75","ref":"\u03911"},"arcs":[[138],[139],[140]]},{"type":"LineString","properties":{"int_name":"Athina - Thessaloniki - Evzoni","min_zoom":8.0,"old_name":"\u0391\u03c5\u03c4\u03bf\u03ba\u03b9\u03bd\u03b7\u03c4\u03cc\u03b4\u03c1\u03bf\u03bc\u03bf\u03c2 \u03a0\u0391\u0398\u0395","id":160453815,"name:mk":"\u0410\u0442\u0438\u043d\u0430 - \u0421\u043e\u043b\u0443\u043d - \u041c\u0430\u0447\u0443\u043a\u043e\u0432\u043e","kind":"highway","name:en":"Athens - Thessaloniki - Evzonoi","network":"e-road","sort_rank":383,"kind_detail":"motorway","source":"openstreetmap.org","name:fr":"Ath\u00e8nes - Thessalonique - Evzoni","all_networks":["e-road","e-road","GR:motorway","GR:motorway"],"landuse_kind":"urban_area","shield_text":"75","ref":"\u03911;\u03912","all_shield_texts":["75","90","\u03911","\u03912"]},"arcs":[141]},{"type":"LineString","properties":{"kind":"major_road","int_name":"Monastiriou","sort_rank":380,"kind_detail":"primary","bus_network":"\u039f\u0391\u03a3\u0398","source":"openstreetmap.org","min_zoom":8.0,"bus_shield_text":"19","landuse_kind":"urban_area","ref":"\u0395\u039f2","id":200820981},"arcs":[142]},{"type":"MultiLineString","properties":{"alt_name:el":"\u0391\u03c5\u03c4\u03bf\u03ba\u03b9\u03bd\u03b7\u03c4\u03cc\u03b4\u03c1\u03bf\u03bc\u03bf\u03c2 1","int_name":"Athina - Thessaloniki - Evzonoi","min_zoom":8.0,"alt_name:en":"Motorway 1","old_name":"\u0391\u03c5\u03c4\u03bf\u03ba\u03b9\u03bd\u03b7\u03c4\u03cc\u03b4\u03c1\u03bf\u03bc\u03bf\u03c2 \u03a0\u0391\u0398\u0395","kind":"highway","name:en":"Motorway 1 (Athens - Thessaloniki - Evzonoi)","network":"e-road","sort_rank":383,"landuse_kind":"urban_area","source":"openstreetmap.org","all_networks":["e-road","e-road","GR:motorway","GR:motorway"],"kind_detail":"motorway","shield_text":"75","ref":"\u03911;\u03912","all_shield_texts":["75","90","\u03911","\u03912"]},"arcs":[[143],[144]]},{"type":"MultiLineString","properties":{"bus_network":null,"int_name":"Konstantinou Karamanli","sort_rank":380,"landuse_kind":"urban_area","old_name":"\u039d\u03ad\u03b1 \u0395\u03b3\u03bd\u03b1\u03c4\u03af\u03b1","kind":"major_road","source":"openstreetmap.org","min_zoom":8.0,"bus_shield_text":"31","kind_detail":"primary"},"arcs":[[145],[146]]},{"type":"LineString","properties":{"kind":"ferry","name":"Thessaloniki-Lesvos-Chios-Samos-Kalymnos-Kos-Rhodos","sort_rank":355,"landuse_kind":"urban_area","source":"openstreetmap.org","min_zoom":8.0,"id":-452429,"osm_relation":true},"arcs":[147]},{"type":"LineString","properties":{"kind":"major_road","int_name":"Thessaloniki - Serres","sort_rank":380,"kind_detail":"primary","source":"openstreetmap.org","min_zoom":8.0,"landuse_kind":"park","ref":"\u0395\u039f12","id":379082186},"arcs":[148]},{"type":"MultiLineString","properties":{"kind":"major_road","int_name":"Palaiou Stathmou","network":"GR:national","sort_rank":381,"landuse_kind":"urban_area","source":"openstreetmap.org","min_zoom":8.0,"kind_detail":"trunk","shield_text":"\u0395\u039f1\u03b2"},"arcs":[[149],[150]]},{"type":"LineString","properties":{"kind":"major_road","int_name":"Thessaloniki - Peraia","network":"GR:provincial:54","sort_rank":380,"landuse_kind":"urban_area","source":"openstreetmap.org","min_zoom":8.0,"kind_detail":"primary","shield_text":"5427"},"arcs":[151]},{"type":"MultiLineString","properties":{"kind":"highway","int_name":"Egnatia Odos","network":"e-road","sort_rank":383,"kind_detail":"motorway","source":"openstreetmap.org","min_zoom":8.0,"name:en":"Egnatia Motorway","all_networks":["e-road","GR:motorway"],"shield_text":"90","ref":"\u03912","all_shield_texts":["90","\u03912"]},"arcs":[[152],[153],[154],[155],[156],[157],[158],[159],[160],[161],[162],[163],[164],[165],[166],[167],[168],[169],[170],[171]]},{"type":"LineString","properties":{"kind":"major_road","network":"GR:national","sort_rank":380,"kind_detail":"primary","bus_network":null,"source":"openstreetmap.org","min_zoom":8.0,"bus_shield_text":"78","shield_text":"\u0395\u039f16","landuse_kind":"urban_area","ref":"\u0395\u039f16","id":163255795},"arcs":[172]},{"type":"MultiLineString","properties":{"alt_name:el":"\u0391\u03c5\u03c4\u03bf\u03ba\u03b9\u03bd\u03b7\u03c4\u03cc\u03b4\u03c1\u03bf\u03bc\u03bf\u03c2 1","int_name":"Athina - Thessaloniki - Evzonoi","min_zoom":8.0,"alt_name:en":"Motorway 1","old_name":"\u0391\u03c5\u03c4\u03bf\u03ba\u03b9\u03bd\u03b7\u03c4\u03cc\u03b4\u03c1\u03bf\u03bc\u03bf\u03c2 \u03a0\u0391\u0398\u0395","kind":"highway","name:en":"Motorway 1 (Athens - Thessaloniki - Evzonoi)","network":"e-road","sort_rank":383,"landuse_kind":"nature_reserve","source":"openstreetmap.org","all_networks":["e-road","GR:motorway"],"kind_detail":"motorway","shield_text":"75","ref":"\u03911","all_shield_texts":["75","\u03911"]},"arcs":[[173],[174],[175],[176]]},{"type":"MultiLineString","properties":{"kind":"major_road","name:en":"Thessaloniki - Polygyros Highway","network":"GR:national","sort_rank":380,"kind_detail":"primary","source":"openstreetmap.org","min_zoom":8.0,"shield_text":"\u0395\u039f16","ref":"\u0395\u039f16"},"arcs":[[177],[178],[179]]},{"type":"MultiLineString","properties":{"bus_network":null,"int_name":"Langada","network":"GR:national","sort_rank":380,"kind_detail":"primary","kind":"major_road","source":"openstreetmap.org","min_zoom":8.0,"bus_shield_text":"27","shield_text":"\u0395\u039f2","landuse_kind":"urban_area","ref":"\u0395\u039f2"},"arcs":[[180],[181]]},{"type":"MultiLineString","properties":{"kind":"major_road","name:en":"Kilkis bypass","network":"GR:national","sort_rank":380,"kind_detail":"primary","source":"openstreetmap.org","min_zoom":8.0,"shield_text":"\u0395\u039f65","ref":"EO65"},"arcs":[[182],[183],[184]]},{"type":"MultiLineString","properties":{"bus_network":null,"int_name":"Thessaloniki - Peraia","network":"GR:national","sort_rank":380,"kind_detail":"primary","kind":"major_road","source":"openstreetmap.org","min_zoom":8.0,"bus_shield_text":"78","shield_text":"\u0395\u039f67","landuse_kind":"urban_area","ref":"\u0395\u039f67"},"arcs":[[185],[186],[187]]},{"type":"MultiLineString","properties":{"kind":"major_road","name:en":"Konstantinou Karamanli avenue","sort_rank":380,"kind_detail":"primary","source":"openstreetmap.org","min_zoom":8.0,"old_name":"\u039f\u03b4\u03cc\u03c2 \u039d\u03ad\u03b1 \u0395\u03b3\u03bd\u03b1\u03c4\u03af\u03b1","landuse_kind":"urban_area"},"arcs":[[188],[189]]},{"type":"MultiLineString","properties":{"kind":"major_road","int_name":"Edessa - Thessaloniki","network":"GR:national","sort_rank":381,"kind_detail":"trunk","source":"openstreetmap.org","min_zoom":8.0,"shield_text":"\u0395\u039f2","ref":"\u0395\u039f1;\u0395\u039f2"},"arcs":[[190],[191],[192]]},{"type":"LineString","properties":{"bus_network":null,"int_name":"Eikostis Ektis Oktovriou","sort_rank":380,"kind_detail":"primary","kind":"major_road","source":"openstreetmap.org","min_zoom":8.0,"bus_shield_text":"12","landuse_kind":"urban_area"},"arcs":[193]},{"type":"MultiLineString","properties":{"kind":"highway","network":"GR:motorway","sort_rank":383,"kind_detail":"motorway","source":"openstreetmap.org","min_zoom":8.0,"all_networks":["GR:motorway"],"shield_text":"\u03911","all_shield_texts":["\u03911"]},"arcs":[[194],[195],[196],[197]]},{"type":"LineString","properties":{"kind":"major_road","int_name":"Thessaloniki - Arnaia","network":"GR:national","sort_rank":380,"kind_detail":"primary","source":"openstreetmap.org","min_zoom":8.0,"landuse_kind":"park","shield_text":"\u0395\u039f16","ref":"\u0395\u039f16"},"arcs":[198]},{"type":"MultiLineString","properties":{"kind":"major_road","int_name":"Stratoni - Ierissos","network":"GR:national","sort_rank":380,"kind_detail":"primary","source":"openstreetmap.org","min_zoom":8.0,"shield_text":"\u0395\u039f16","ref":"\u0395\u039f16"},"arcs":[[199],[200]]},{"type":"MultiLineString","properties":{"sort_rank":355,"source":"openstreetmap.org","min_zoom":8.0,"name":"Mounth Athos Cruises","kind":"ferry"},"arcs":[[201],[202]]},{"type":"LineString","properties":{"kind":"major_road","network":"GR:provincial:54","sort_rank":380,"kind_detail":"primary","source":"openstreetmap.org","min_zoom":8.0,"landuse_kind":"urban_area","shield_text":"5404","id":91077095},"arcs":[203]},{"type":"LineString","properties":{"kind":"major_road","int_name":"Eleftheriou Venizelou","network":"GR:national","sort_rank":380,"kind_detail":"primary","bus_network":null,"source":"openstreetmap.org","min_zoom":8.0,"bus_shield_text":"78","shield_text":"\u0395\u039f16","landuse_kind":"urban_area","ref":"\u0395\u039f16","id":164448434},"arcs":[204]},{"type":"LineString","properties":{"kind":"major_road","name:en":"Thessaloniki branch","network":"GR:national","sort_rank":381,"kind_detail":"trunk","bus_network":null,"source":"openstreetmap.org","min_zoom":8.0,"bus_shield_text":"12","shield_text":"\u0395\u039f1\u03b2","landuse_kind":"urban_area","ref":"\u0395\u039f1\u03b2","id":176721957},"arcs":[205]},{"type":"MultiLineString","properties":{"kind":"highway","name:en":"Athens - Thessaloniki - Evzoni","network":"e-road","sort_rank":383,"kind_detail":"motorway","name:fr":"Ath\u00e8nes - Thessalonique - Evzoni","source":"openstreetmap.org","min_zoom":8.0,"int_name":"Athina - Thessaloniki - Evzonoi","all_networks":["e-road","GR:motorway"],"shield_text":"75","ref":"\u03911","all_shield_texts":["75","\u03911"]},"arcs":[[206],[207],[208],[209],[210],[211],[212],[213],[214],[215],[216],[217]]},{"type":"MultiLineString","properties":{"kind":"major_road","int_name":"Athina - Thessaloniki - Evzoni","network":"e-road","sort_rank":381,"kind_detail":"trunk","name:fr":"Ath\u00e8nes - Thessalonique - Evzoni","source":"openstreetmap.org","min_zoom":8.0,"name:en":"Athens - Thessaloniki - Evzonoi","old_name":"\u0395\u03b8\u03bd\u03b9\u03ba\u03ae \u039f\u03b4\u03cc\u03c2 \u03a0\u0391\u0398\u0395","shield_text":"75","ref":"\u03911","name:sr":"\u0410\u0442\u0438\u043d\u0430 - \u0421\u043e\u043b\u0443\u043d - \u041c\u0430\u0447\u0443\u043a\u043e\u0432\u043e"},"arcs":[[218],[219]]},{"type":"MultiLineString","properties":{"bus_network":null,"network":null,"sort_rank":381,"landuse_kind":"urban_area","kind":"major_road","source":"openstreetmap.org","min_zoom":8.0,"bus_shield_text":"78","shield_text":"242","kind_detail":"trunk","ref":"\u0391242"},"arcs":[[220],[221],[222],[223]]},{"type":"MultiLineString","properties":{"kind":"major_road","int_name":"Amfipoli - Nea Zichni","network":"GR:national","sort_rank":380,"kind_detail":"primary","source":"openstreetmap.org","min_zoom":8.0,"shield_text":"\u0395\u039f59","ref":"\u0395\u039f59"},"arcs":[[224],[225]]},{"type":"LineString","properties":{"source":"openstreetmap.org","kind":"ferry","name":"Thessaloniki-Lesvos-Chios-Samos-Kalymnos-Kos-Rhodos","sort_rank":355,"min_zoom":8.0,"osm_relation":true},"arcs":[226]},{"type":"MultiLineString","properties":{"kind":"highway","name:en":"Athens - Thessaloniki - Evzoni","network":"e-road","sort_rank":383,"kind_detail":"motorway","name:fr":"Ath\u00e8nes - Thessalonique - Evzoni","source":"openstreetmap.org","min_zoom":8.0,"int_name":"Athina - Thessaloniki - Evzonoi","all_networks":["e-road","GR:motorway"],"old_name":"\u0391\u03c5\u03c4\u03bf\u03ba\u03b9\u03bd\u03b7\u03c4\u03cc\u03b4\u03c1\u03bf\u03bc\u03bf\u03c2 \u03a0\u0391\u0398\u0395","shield_text":"75","ref":"\u03911","all_shield_texts":["75","\u03911"]},"arcs":[[227],[228],[229],[230],[231],[232],[233],[234],[235],[236],[237],[238],[239],[240]]},{"type":"MultiLineString","properties":{"kind":"highway","name:en":"Athens - Thessaloniki - Evzoni","network":"e-road","sort_rank":383,"landuse_kind":"urban_area","name:fr":"Ath\u00e8nes - Thessalonique - Evzoni","source":"openstreetmap.org","min_zoom":8.0,"int_name":"Athina - Thessaloniki - Evzonoi","all_networks":["e-road","GR:motorway"],"old_name":"\u0391\u03c5\u03c4\u03bf\u03ba\u03b9\u03bd\u03b7\u03c4\u03cc\u03b4\u03c1\u03bf\u03bc\u03bf\u03c2 \u03a0\u0391\u0398\u0395","shield_text":"75","kind_detail":"motorway","ref":"\u03911","all_shield_texts":["75","\u03911"]},"arcs":[[241],[242],[243],[244]]},{"type":"MultiLineString","properties":{"source":"openstreetmap.org","kind":"ferry","name":"Karavakia - Thessaloniki Waterbus","sort_rank":355,"landuse_kind":"urban_area","min_zoom":8.0},"arcs":[[245],[246],[247]]},{"type":"MultiLineString","properties":{"alt_name:en":"Egnatia Motorway","min_zoom":8.0,"int_name":"Athina - Thessaloniki - Evzonoi","alt_name:fr":"Autoroute Egnatia","kind":"highway","name:en":"Athens - Thessaloniki - Evzoni","network":"e-road","sort_rank":383,"landuse_kind":"nature_reserve","source":"openstreetmap.org","name:fr":"Ath\u00e8nes - Thessalonique - Evzoni","all_networks":["e-road","e-road","GR:motorway","GR:motorway"],"kind_detail":"motorway","shield_text":"75","ref":"\u03911;\u03912","all_shield_texts":["75","90","\u03911","\u03912"]},"arcs":[[248],[249]]},{"type":"MultiLineString","properties":{"kind":"major_road","name:en":"Konstantinou Karamanli avenue","sort_rank":380,"kind_detail":"primary","source":"openstreetmap.org","min_zoom":8.0,"old_name":"\u039f\u03b4\u03cc\u03c2 \u039d\u03ad\u03b1 \u0395\u03b3\u03bd\u03b1\u03c4\u03af\u03b1","landuse_kind":"urban_area","ref":"EO67"},"arcs":[[250],[251],[252]]},{"type":"LineString","properties":{"bus_network":null,"int_name":"Vasilissis Olgas","network":"GR:national","sort_rank":380,"kind_detail":"primary","kind":"major_road","source":"openstreetmap.org","min_zoom":8.0,"name:en":"Vasilissis Olgas","bus_shield_text":"3","shield_text":"\u0395\u039f16","landuse_kind":"urban_area","ref":"\u0395\u039f16","id":207094492},"arcs":[253]},{"type":"MultiLineString","properties":{"source":"openstreetmap.org","kind":"highway","landuse_kind":"urban_area","sort_rank":383,"kind_detail":"motorway","min_zoom":8.0},"arcs":[[254],[255],[256],[257],[258],[259]]},{"type":"MultiLineString","properties":{"kind":"highway","name:en":"Motorway 242","network":null,"sort_rank":383,"landuse_kind":"urban_area","source":"openstreetmap.org","min_zoom":8.0,"all_networks":[null],"kind_detail":"motorway","shield_text":"242","ref":"\u0391242","all_shield_texts":["242"]},"arcs":[[260],[261]]},{"type":"MultiLineString","properties":{"kind":"highway","int_name":"Egnatia Odos","network":"e-road","sort_rank":383,"landuse_kind":"urban_area","source":"openstreetmap.org","min_zoom":8.0,"name:en":"Egnatia Motorway","all_networks":["e-road","e-road","GR:motorway"],"kind_detail":"motorway","shield_text":"79","ref":"\u03912","all_shield_texts":["79","90","\u03912"]},"arcs":[[262],[263]]},{"type":"MultiLineString","properties":{"kind":"major_road","int_name":"Thessaloniki - Kavala","network":"GR:national","sort_rank":380,"kind_detail":"primary","source":"openstreetmap.org","min_zoom":8.0,"landuse_kind":"park","shield_text":"\u0395\u039f2","ref":"\u0395\u039f2"},"arcs":[[264],[265],[266],[267],[268],[269],[270],[271],[272],[273],[274],[275],[276]]},{"type":"LineString","properties":{"bus_network":null,"int_name":"Ioanni Tsimiski","network":"GR:national","sort_rank":380,"kind_detail":"primary","kind":"major_road","source":"openstreetmap.org","min_zoom":8.0,"bus_shield_text":"3","shield_text":"\u0395\u039f16","landuse_kind":"urban_area","ref":"\u0395\u039f16"},"arcs":[277]},{"type":"LineString","properties":{"kind":"major_road","network":"GR:national","sort_rank":380,"kind_detail":"primary","source":"openstreetmap.org","min_zoom":8.0,"shield_text":"\u0395\u039f16\u03b1","ref":"\u0395\u039f16\u03b1"},"arcs":[278]},{"type":"MultiLineString","properties":{"source":"openstreetmap.org","kind":"major_road","name:en":"Thessaloniki Ring Road","kind_detail":"trunk","sort_rank":381,"landuse_kind":"urban_area","min_zoom":8.0},"arcs":[[279],[280]]},{"type":"MultiLineString","properties":{"kind":"highway","network":"GR:motorway","sort_rank":383,"kind_detail":"motorway","source":"openstreetmap.org","min_zoom":8.0,"all_networks":["GR:motorway"],"landuse_kind":"park","shield_text":"\u03912","all_shield_texts":["\u03912"]},"arcs":[[281],[282],[283]]},{"type":"MultiLineString","properties":{"kind":"major_road","int_name":"Thessaloniki - Serres","network":"GR:national","sort_rank":380,"kind_detail":"primary","source":"openstreetmap.org","min_zoom":8.0,"landuse_kind":"park","shield_text":"\u0395\u039f12","ref":"\u0395\u039f12"},"arcs":[[284],[285],[286],[287],[288],[289],[290],[291],[292],[293],[294],[295],[296],[297],[298]]},{"type":"MultiLineString","properties":{"source":"openstreetmap.org","kind":"major_road","int_name":"Thessaloniki - Nea Moudania","landuse_kind":"urban_area","sort_rank":380,"kind_detail":"primary","min_zoom":8.0},"arcs":[[299],[300]]},{"type":"MultiLineString","properties":{"bus_network":null,"int_name":"Vasilissis Olgas","network":"GR:national","sort_rank":380,"kind_detail":"primary","kind":"major_road","source":"openstreetmap.org","min_zoom":8.0,"bus_shield_text":"3","shield_text":"\u0395\u039f16","landuse_kind":"urban_area","ref":"\u0395\u039f16"},"arcs":[[301],[302],[303]]},{"type":"MultiLineString","properties":{"kind":"major_road","network":"GR:national","sort_rank":381,"landuse_kind":"urban_area","source":"openstreetmap.org","min_zoom":8.0,"kind_detail":"trunk","shield_text":"\u0395\u039f1\u03b2"},"arcs":[[304],[305]]},{"type":"LineString","properties":{"kind":"major_road","int_name":"Ethnikis Antistaseos","network":"GR:national","sort_rank":381,"kind_detail":"trunk","source":"openstreetmap.org","min_zoom":8.0,"shield_text":"\u0395\u039f2","ref":"\u0395\u039f2","id":333817329},"arcs":[306]},{"type":"MultiLineString","properties":{"kind":"major_road","name:en":"Thessaloniki - Kilkis","network":"GR:national","sort_rank":380,"kind_detail":"primary","source":"openstreetmap.org","min_zoom":8.0,"shield_text":"\u0395\u039f65","ref":"\u0395\u039f65"},"arcs":[[307],[308],[309],[310]]},{"type":"MultiLineString","properties":{"source":"openstreetmap.org","kind":"major_road","name:en":"Connecting road","sort_rank":380,"kind_detail":"primary","min_zoom":8.0},"arcs":[[311],[312]]},{"type":"LineString","properties":{"kind":"major_road","int_name":"Megalou Alexandrou","network":"GR:national","sort_rank":380,"kind_detail":"primary","bus_network":null,"source":"openstreetmap.org","min_zoom":8.0,"bus_shield_text":"5","shield_text":"\u0395\u039f16","landuse_kind":"urban_area","ref":"\u0395\u039f16","id":412046206},"arcs":[313]},{"type":"MultiLineString","properties":{"alt_name:el":"\u0391\u03c5\u03c4\u03bf\u03ba\u03b9\u03bd\u03b7\u03c4\u03cc\u03b4\u03c1\u03bf\u03bc\u03bf\u03c2 1","kind":"highway","int_name":"Athina - Thessaloniki - Evzonoi","network":"e-road","sort_rank":383,"kind_detail":"motorway","alt_name:en":"Motorway 1","source":"openstreetmap.org","min_zoom":8.0,"name:en":"Motorway 1 (Athens - Thessaloniki - Evzonoi)","all_networks":["e-road","e-road","GR:motorway","GR:motorway"],"old_name":"\u0391\u03c5\u03c4\u03bf\u03ba\u03b9\u03bd\u03b7\u03c4\u03cc\u03b4\u03c1\u03bf\u03bc\u03bf\u03c2 \u03a0\u0391\u0398\u0395","shield_text":"75","ref":"\u03911;\u03912","all_shield_texts":["75","90","\u03911","\u03912"]},"arcs":[[314],[315]]},{"type":"MultiLineString","properties":{"alt_name:el":"\u0391\u03c5\u03c4\u03bf\u03ba\u03b9\u03bd\u03b7\u03c4\u03cc\u03b4\u03c1\u03bf\u03bc\u03bf\u03c2 1","int_name":"Athina - Thessaloniki - Evzonoi","min_zoom":8.0,"alt_name:en":"Motorway 1","old_name":"\u0391\u03c5\u03c4\u03bf\u03ba\u03b9\u03bd\u03b7\u03c4\u03cc\u03b4\u03c1\u03bf\u03bc\u03bf\u03c2 \u03a0\u0391\u0398\u0395","kind":"highway","name:en":"Motorway 1 (Athens - Thessaloniki - Evzonoi)","network":"e-road","sort_rank":383,"landuse_kind":"nature_reserve","name:de":"Aliakmonas Br\u00fccke","source":"openstreetmap.org","name:fr":"Pont Aliakmonas","all_networks":["e-road","GR:motorway"],"kind_detail":"motorway","shield_text":"75","ref":"\u03911","all_shield_texts":["75","\u03911"]},"arcs":[[316],[317],[318]]},{"type":"MultiLineString","properties":{"kind":"major_road","name:en":"Athens - Thessaloniki - Evzonoi","network":"e-road","sort_rank":381,"kind_detail":"trunk","name:fr":"Ath\u00e8nes - Thessalonique - Evzoni","source":"openstreetmap.org","min_zoom":8.0,"int_name":"Athina - Thessaloniki - Evzoni","old_name":"\u0395\u03b8\u03bd\u03b9\u03ba\u03ae \u039f\u03b4\u03cc\u03c2 \u03a0\u0391\u0398\u0395","shield_text":"75","ref":"\u03911","name:mk":"\u0410\u0442\u0438\u043d\u0430 - \u0421\u043e\u043b\u0443\u043d - \u041c\u0430\u0447\u0443\u043a\u043e\u0432\u043e"},"arcs":[[319],[320],[321],[322],[323],[324]]},{"type":"MultiLineString","properties":{"bus_network":null,"network":"GR:provincial:54","sort_rank":380,"kind_detail":"primary","kind":"major_road","source":"openstreetmap.org","min_zoom":8.0,"bus_shield_text":"27","shield_text":"5404","landuse_kind":"urban_area"},"arcs":[[325],[326]]},{"type":"LineString","properties":{"kind":"major_road","network":"GR:provincial:64","sort_rank":381,"kind_detail":"trunk","source":"openstreetmap.org","min_zoom":8.0,"shield_text":"6401","id":497769195},"arcs":[327]},{"type":"LineString","properties":{"kind":"major_road","name:en":"Thessaloniki - Polygyros Highway","network":"GR:national","sort_rank":380,"kind_detail":"primary","source":"openstreetmap.org","min_zoom":8.0,"landuse_kind":"urban_area","shield_text":"\u0395\u039f16","ref":"\u0395\u039f16","id":49170339},"arcs":[328]},{"type":"MultiLineString","properties":{"kind":"highway","name:en":"Thessaloniki - Promachonas","network":"e-road","sort_rank":383,"kind_detail":"motorway","source":"openstreetmap.org","min_zoom":8.0,"all_networks":["e-road",null],"shield_text":"79","ref":"\u039125","all_shield_texts":["79","25"]},"arcs":[[329],[330],[331],[332]]},{"type":"MultiLineString","properties":{"source":"openstreetmap.org","kind":"major_road","landuse_kind":"park","sort_rank":380,"kind_detail":"primary","min_zoom":8.0},"arcs":[[333],[334],[335],[336],[337],[338]]},{"type":"MultiLineString","properties":{"kind":"highway","int_name":"Thessaloniki - Promachonas","network":"e-road","sort_rank":383,"kind_detail":"motorway","source":"openstreetmap.org","min_zoom":8.0,"all_networks":["e-road",null],"landuse_kind":"park","shield_text":"79","ref":"\u039125","all_shield_texts":["79","25"]},"arcs":[[339],[340],[341]]},{"type":"LineString","properties":{"kind":"major_road","int_name":"Aristotelous","network":"GR:national","sort_rank":380,"kind_detail":"primary","source":"openstreetmap.org","min_zoom":8.0,"landuse_kind":"park","shield_text":"\u0395\u039f16","ref":"\u0395\u039f16"},"arcs":[342]},{"type":"MultiLineString","properties":{"bus_network":null,"name:en":"Egnatias","sort_rank":380,"kind_detail":"primary","name:ar":"\u0634\u0627\u0631\u0639 \u0627\u063a\u0646\u0627\u062a\u064a\u0627","kind":"major_road","name:de":"Egnatias","source":"openstreetmap.org","min_zoom":8.0,"int_name":"Egnatias","bus_shield_text":"2","landuse_kind":"urban_area"},"arcs":[[343],[344]]},{"type":"LineString","properties":{"int_name":"Siragga Filippos","min_zoom":8.0,"alt_name:en":"Athens - Thessaloniki - Evzoni","alt_name:fr":"Ath\u00e8nes - Thessalonique - Evzoni","id":26731968,"kind":"highway","name:en":"Filippos Tunnel","network":"e-road","sort_rank":383,"kind_detail":"motorway","source":"openstreetmap.org","name:fr":"Tunnel Filippos","all_networks":["e-road","GR:motorway"],"landuse_kind":"urban_area","shield_text":"75","ref":"\u03911","all_shield_texts":["75","\u03911"]},"arcs":[345]},{"type":"MultiLineString","properties":{"bus_network":null,"name:en":"Konstantinou Karamanli avenue","sort_rank":380,"kind_detail":"primary","bus_shield_text":"2","kind":"major_road","source":"openstreetmap.org","min_zoom":8.0,"old_name":"\u039f\u03b4\u03cc\u03c2 \u039d\u03ad\u03b1 \u0395\u03b3\u03bd\u03b1\u03c4\u03af\u03b1","landuse_kind":"urban_area"},"arcs":[[346],[347],[348]]},{"type":"MultiLineString","properties":{"kind":"major_road","int_name":"Katerini - Alexandreia","network":"GR:national","sort_rank":380,"kind_detail":"primary","source":"openstreetmap.org","min_zoom":8.0,"shield_text":"\u0395\u039f1","ref":"\u0395\u039f1"},"arcs":[[349],[350],[351],[352],[353]]},{"type":"LineString","properties":{"kind":"major_road","int_name":"Mouson","network":"GR:national","sort_rank":380,"kind_detail":"primary","source":"openstreetmap.org","min_zoom":8.0,"landuse_kind":"urban_area","shield_text":"\u0395\u039f1","ref":"\u0395\u039f1"},"arcs":[354]},{"type":"LineString","properties":{"alt_name:el":"\u0391\u03c5\u03c4\u03bf\u03ba\u03b9\u03bd\u03b7\u03c4\u03cc\u03b4\u03c1\u03bf\u03bc\u03bf\u03c2 1","int_name":"Athina - Thessaloniki - Evzonoi","min_zoom":8.0,"alt_name:en":"Motorway 1","old_name":"\u0391\u03c5\u03c4\u03bf\u03ba\u03b9\u03bd\u03b7\u03c4\u03cc\u03b4\u03c1\u03bf\u03bc\u03bf\u03c2 \u03a0\u0391\u0398\u0395","id":338075808,"kind":"highway","name:en":"Motorway 1 (Athens - Thessaloniki - Evzonoi)","network":"e-road","sort_rank":383,"kind_detail":"motorway","source":"openstreetmap.org","all_networks":["e-road","e-road","GR:motorway","GR:motorway"],"landuse_kind":"nature_reserve","shield_text":"75","ref":"\u03911;\u03912","all_shield_texts":["75","90","\u03911","\u03912"]},"arcs":[355]},{"type":"MultiLineString","properties":{"source":"openstreetmap.org","kind":"major_road","name:en":"Katerini Ring Road","sort_rank":380,"kind_detail":"primary","min_zoom":8.0,"name:fr":"P\u00e9riph\u00e9rique de Kater\u00edni"},"arcs":[[356],[357]]},{"type":"LineString","properties":{"kind":"major_road","int_name":"30nd Oktovriou","network":"GR:national","sort_rank":380,"kind_detail":"primary","bus_network":null,"source":"openstreetmap.org","min_zoom":8.0,"bus_shield_text":"3","shield_text":"\u0395\u039f16","landuse_kind":"urban_area","ref":"\u0395\u039f16","id":62233772},"arcs":[358]},{"type":"MultiLineString","properties":{"kind":"major_road","int_name":"Athina - Thessaloniki - Evzoni","network":"e-road","sort_rank":381,"kind_detail":"trunk","name:fr":"Ath\u00e8nes - Thessalonique - Evzoni","source":"openstreetmap.org","min_zoom":8.0,"name:en":"Athens - Thessaloniki - Evzonoi","old_name":"\u0395\u03b8\u03bd\u03b9\u03ba\u03ae \u039f\u03b4\u03cc\u03c2 \u03a0\u0391\u0398\u0395","shield_text":"75","landuse_kind":"urban_area","ref":"\u03911","name:mk":"\u0410\u0442\u0438\u043d\u0430 - \u0421\u043e\u043b\u0443\u043d - \u041c\u0430\u0447\u0443\u043a\u043e\u0432\u043e"},"arcs":[[359],[360],[361]]},{"type":"MultiLineString","properties":{"bus_network":"\u039f\u0391\u03a3\u0398","int_name":"Monastiriou","network":"GR:national","sort_rank":380,"kind_detail":"primary","kind":"major_road","source":"openstreetmap.org","min_zoom":8.0,"bus_shield_text":"19","shield_text":"\u0395\u039f2","landuse_kind":"urban_area","ref":"\u0395\u039f2"},"arcs":[[362],[363],[364],[365],[366]]},{"type":"MultiLineString","properties":{"sort_rank":380,"kind_detail":"primary","min_zoom":8.0,"kind":"major_road","source":"openstreetmap.org"},"arcs":[[367],[368],[369],[370]]},{"type":"MultiLineString","properties":{"kind":"highway","int_name":"Egnatia Odos","network":"e-road","sort_rank":383,"landuse_kind":"urban_area","name:fr":"Autoroute \u00c9gnatia","source":"openstreetmap.org","min_zoom":8.0,"name:en":"Egnatia Motorway","all_networks":["e-road","e-road","GR:motorway"],"kind_detail":"motorway","shield_text":"79","ref":"\u03912","all_shield_texts":["79","90","\u03912"]},"arcs":[[371],[372]]},{"type":"MultiLineString","properties":{"kind":"major_road","int_name":"Georgikis Scholis","network":"GR:national","sort_rank":380,"kind_detail":"primary","source":"openstreetmap.org","min_zoom":8.0,"landuse_kind":"urban_area","shield_text":"\u0395\u039f16","ref":"\u0395\u039f16"},"arcs":[[373],[374]]},{"type":"LineString","properties":{"kind":"highway","network":"e-road","sort_rank":383,"kind_detail":"motorway","source":"openstreetmap.org","min_zoom":8.0,"all_networks":["e-road",null],"landuse_kind":"park","shield_text":"79","ref":"\u039125","id":85047505,"all_shield_texts":["79","25"]},"arcs":[375]},{"type":"MultiLineString","properties":{"bus_network":null,"name:en":"Georgiou Papandreou","network":"GR:national","sort_rank":380,"kind_detail":"primary","bus_shield_text":"5","kind":"major_road","source":"openstreetmap.org","min_zoom":8.0,"old_name":"\u0391\u03bd\u03b8\u03ad\u03c9\u03bd","shield_text":"\u0395\u039f16","landuse_kind":"urban_area","ref":"\u0395\u039f16"},"arcs":[[376],[377]]},{"type":"MultiLineString","properties":{"bus_network":null,"int_name":"Monastiriou","network":"GR:national","sort_rank":380,"kind_detail":"primary","kind":"major_road","source":"openstreetmap.org","min_zoom":8.0,"bus_shield_text":"12","shield_text":"\u0395\u039f2","landuse_kind":"urban_area","ref":"\u0395\u039f2"},"arcs":[[378],[379]]},{"type":"MultiLineString","properties":{"alt_name:el":"\u0391\u03c5\u03c4\u03bf\u03ba\u03b9\u03bd\u03b7\u03c4\u03cc\u03b4\u03c1\u03bf\u03bc\u03bf\u03c2 1","int_name":"Athina - Thessaloniki - Evzonoi","min_zoom":8.0,"alt_name:en":"Motorway 1","old_name":"\u0391\u03c5\u03c4\u03bf\u03ba\u03b9\u03bd\u03b7\u03c4\u03cc\u03b4\u03c1\u03bf\u03bc\u03bf\u03c2 \u03a0\u0391\u0398\u0395","kind":"highway","name:en":"Motorway 1 (Athens - Thessaloniki - Evzonoi)","network":"e-road","sort_rank":383,"kind_detail":"motorway","name:de":"Aliakmonas Br\u00fccke","source":"openstreetmap.org","name:fr":"Pont Aliakmonas","all_networks":["e-road","GR:motorway"],"shield_text":"75","ref":"\u03911","all_shield_texts":["75","\u03911"]},"arcs":[[380],[381],[382]]},{"type":"MultiLineString","properties":{"kind":"highway","int_name":"Egnatia Odos","network":"e-road","sort_rank":383,"kind_detail":"motorway","min_zoom":8.0,"name:de":"Egnatia Autobahn","source":"openstreetmap.org","name:fr":"Autoroute Egnatia","name:en":"Egnatia Motorway","all_networks":["e-road","GR:motorway"],"landuse_kind":"park","shield_text":"90","ref":"\u03912","all_shield_texts":["90","\u03912"]},"arcs":[[383],[384]]},{"type":"LineString","properties":{"bus_network":null,"name:en":"Egnatia Street","sort_rank":380,"kind_detail":"primary","name:ar":"\u0634\u0627\u0631\u0639 \u0627\u063a\u0646\u0627\u062a\u064a\u0627","alt_name:en":"Egnatias Street","kind":"major_road","old_name":"\u039f\u03b4\u03cc\u03c2 \u039d\u03ad\u03b1 \u0395\u03b3\u03bd\u03b1\u03c4\u03af\u03b1","name:de":"Egnatia Strasse","source":"openstreetmap.org","min_zoom":8.0,"int_name":"Egnatia","bus_shield_text":"14","landuse_kind":"urban_area"},"arcs":[385]},{"type":"MultiLineString","properties":{"kind":"major_road","network":"GR:national","sort_rank":380,"kind_detail":"primary","source":"openstreetmap.org","min_zoom":8.0,"shield_text":"\u0395\u039f2","ref":"\u0395\u039f2"},"arcs":[[386],[387]]},{"type":"MultiLineString","properties":{"alt_name:el":"\u0391\u03c5\u03c4\u03bf\u03ba\u03b9\u03bd\u03b7\u03c4\u03cc\u03b4\u03c1\u03bf\u03bc\u03bf\u03c2 1","int_name":"Athina - Thessaloniki - Evzonoi","short_name":"\u0391\/\u03b4 \u0391\u0398\u0395","min_zoom":8.0,"alt_name:en":"Motorway 1","old_name":"\u0391\u03c5\u03c4\u03bf\u03ba\u03b9\u03bd\u03b7\u03c4\u03cc\u03b4\u03c1\u03bf\u03bc\u03bf\u03c2 \u03a0\u0391\u0398\u0395","kind":"highway","name:en":"Motorway 1 (Athens - Thessaloniki - Evzonoi)","network":"e-road","sort_rank":383,"kind_detail":"motorway","source":"openstreetmap.org","all_networks":["e-road","GR:motorway"],"shield_text":"75","ref":"\u03911","all_shield_texts":["75","\u03911"]},"arcs":[[388],[389]]},{"type":"LineString","properties":{"kind":"major_road","int_name":"Thessaloniki - Arnaia","network":"GR:national","sort_rank":380,"kind_detail":"primary","source":"openstreetmap.org","min_zoom":8.0,"landuse_kind":"nature_reserve","shield_text":"\u0395\u039f16","ref":"\u0395\u039f16","id":305819596},"arcs":[390]},{"type":"LineString","properties":{"kind":"major_road","int_name":"Thessalonikis","sort_rank":380,"kind_detail":"primary","source":"openstreetmap.org","min_zoom":8.0,"landuse_kind":"urban_area","ref":"\u0395\u039f1"},"arcs":[391]},{"type":"LineString","properties":{"kind":"major_road","int_name":"Palaiou Stathmou","network":"GR:national","sort_rank":381,"kind_detail":"trunk","bus_network":null,"source":"openstreetmap.org","min_zoom":8.0,"bus_shield_text":"12","shield_text":"\u0395\u039f1\u03b2","landuse_kind":"urban_area","id":207024082},"arcs":[392]},{"type":"MultiLineString","properties":{"bus_network":null,"int_name":"Ethnikis Antistaseos","network":"GR:national","sort_rank":380,"kind_detail":"primary","kind":"major_road","source":"openstreetmap.org","min_zoom":8.0,"bus_shield_text":"78","shield_text":"\u0395\u039f16","landuse_kind":"urban_area","ref":"\u0395\u039f16"},"arcs":[[393],[394],[395],[396]]},{"type":"MultiLineString","properties":{"kind":"major_road","int_name":"Ethnikis Antistaseos","network":"GR:national","sort_rank":381,"kind_detail":"trunk","source":"openstreetmap.org","min_zoom":8.0,"shield_text":"\u0395\u039f2","ref":"\u0395\u039f1;\u0395\u039f2"},"arcs":[[397],[398],[399]]},{"type":"LineString","properties":{"kind":"highway","network":"e-road","sort_rank":383,"kind_detail":"motorway","source":"openstreetmap.org","min_zoom":8.0,"all_networks":["e-road","GR:motorway"],"landuse_kind":"park","shield_text":"79","ref":"\u03912","id":14427954,"all_shield_texts":["79","\u03912"]},"arcs":[400]},{"type":"LineString","properties":{"kind":"major_road","int_name":"Vasileos Konstantinou","network":"GR:national","sort_rank":380,"kind_detail":"primary","source":"openstreetmap.org","min_zoom":8.0,"shield_text":"\u0395\u039f1","ref":"\u0395\u039f1","id":161748290},"arcs":[401]},{"type":"MultiLineString","properties":{"kind":"major_road","int_name":"Larisa - Leptokarya","network":"GR:national","sort_rank":380,"kind_detail":"primary","source":"openstreetmap.org","min_zoom":8.0,"shield_text":"\u0395\u039f1"},"arcs":[[402],[403],[404]]},{"type":"MultiLineString","properties":{"source":"openstreetmap.org","kind":"major_road","kind_detail":"trunk","sort_rank":381,"landuse_kind":"urban_area","min_zoom":8.0},"arcs":[[405],[406],[407],[408],[409]]},{"type":"LineString","properties":{"kind":"major_road","int_name":"Amfipoli - Drama","sort_rank":380,"kind_detail":"primary","source":"openstreetmap.org","min_zoom":8.0,"ref":"\u0395\u039f59","id":452818756},"arcs":[410]},{"type":"LineString","properties":{"kind":"major_road","network":"GR:national","sort_rank":381,"kind_detail":"trunk","bus_network":null,"source":"openstreetmap.org","min_zoom":8.0,"bus_shield_text":"27","shield_text":"\u0395\u039f2","landuse_kind":"urban_area","ref":"\u0395\u039f2","id":358126247},"arcs":[411]},{"type":"MultiLineString","properties":{"bus_network":null,"int_name":"Monastiriou","network":"GR:national","sort_rank":380,"kind_detail":"primary","kind":"major_road","source":"openstreetmap.org","min_zoom":8.0,"bus_shield_text":"2","shield_text":"\u0395\u039f2","landuse_kind":"urban_area","ref":"\u0395\u039f2"},"arcs":[[412],[413],[414],[415],[416]]},{"type":"LineString","properties":{"kind":"major_road","int_name":"Thessaloniki - Nea Moudania","sort_rank":380,"kind_detail":"primary","bus_network":null,"source":"openstreetmap.org","min_zoom":8.0,"bus_shield_text":"31","landuse_kind":"urban_area","ref":"\u0395\u039f105\u03b3","id":131815883},"arcs":[417]},{"type":"MultiLineString","properties":{"kind":"major_road","int_name":"Edessa - Thessaloniki","network":"GR:national","sort_rank":381,"kind_detail":"trunk","source":"openstreetmap.org","min_zoom":8.0,"shield_text":"\u0395\u039f2","ref":"\u0395\u039f2"},"arcs":[[418],[419],[420],[421],[422],[423],[424],[425],[426],[427],[428]]},{"type":"LineString","properties":{"kind":"major_road","sort_rank":380,"kind_detail":"primary","bus_network":null,"source":"openstreetmap.org","min_zoom":8.0,"bus_shield_text":"31","landuse_kind":"urban_area","id":380304403},"arcs":[429]},{"type":"LineString","properties":{"kind":"major_road","int_name":"Monastiriou","network":"GR:national","sort_rank":380,"kind_detail":"primary","bus_network":null,"source":"openstreetmap.org","min_zoom":8.0,"bus_shield_text":"14","shield_text":"\u0395\u039f2","landuse_kind":"urban_area","ref":"\u0395\u039f2","id":37047940},"arcs":[430]},{"type":"LineString","properties":{"bus_network":null,"int_name":"Monastiriou","network":"GR:national","sort_rank":380,"kind_detail":"primary","kind":"major_road","source":"openstreetmap.org","min_zoom":8.0,"bus_shield_text":"81","shield_text":"\u0395\u039f2","landuse_kind":"urban_area","ref":"\u0395\u039f2"},"arcs":[431]},{"type":"LineString","properties":{"bus_network":null,"name:en":"Georgiou Papandreou","network":"GR:national","sort_rank":380,"kind_detail":"primary","old_name":"\u0391\u03bd\u03b8\u03ad\u03c9\u03bd","kind":"major_road","source":"openstreetmap.org","min_zoom":8.0,"bus_shield_text":"5","loc_name":"\u0391\u03bd\u03b8\u03ad\u03c9\u03bd","landuse_kind":"urban_area","ref":"\u0395\u039f16","id":382110359,"shield_text":"\u0395\u039f16"},"arcs":[432]},{"type":"LineString","properties":{"kind":"major_road","int_name":"Navarhou Kountouriotou","network":"GR:national","sort_rank":380,"kind_detail":"primary","source":"openstreetmap.org","min_zoom":8.0,"landuse_kind":"urban_area","shield_text":"\u0395\u039f16","ref":"\u0395\u039f16","id":176721958},"arcs":[433]},{"type":"MultiLineString","properties":{"kind":"highway","name:en":"Pylea Tunnel","sort_rank":383,"landuse_kind":"urban_area","source":"openstreetmap.org","min_zoom":8.0,"int_name":"Pylea Tunnel","kind_detail":"motorway","ref":"A24"},"arcs":[[434],[435]]},{"type":"LineString","properties":{"bus_network":null,"int_name":"Ethnikis Antistaseos","network":"GR:national","sort_rank":380,"kind_detail":"primary","kind":"major_road","source":"openstreetmap.org","min_zoom":8.0,"bus_shield_text":"2","shield_text":"\u0395\u039f16","landuse_kind":"urban_area","ref":"\u0395\u039f16"},"arcs":[436]},{"type":"LineString","properties":{"kind":"major_road","int_name":"Katerini - Alexandreia","network":"GR:national","sort_rank":380,"kind_detail":"primary","source":"openstreetmap.org","min_zoom":8.0,"landuse_kind":"nature_reserve","shield_text":"\u0395\u039f1","ref":"\u0395\u039f1"},"arcs":[437]},{"type":"MultiLineString","properties":{"kind":"highway","network":"GR:provincial:64","sort_rank":383,"landuse_kind":"urban_area","source":"openstreetmap.org","min_zoom":8.0,"all_networks":["GR:provincial:64"],"kind_detail":"motorway","shield_text":"6401","all_shield_texts":["6401"]},"arcs":[[438],[439],[440],[441]]},{"type":"LineString","properties":{"name:ro":"Egnatia Odos","min_zoom":8.0,"int_name":"Egnatia Odos","id":268917755,"kind":"highway","name:en":"Egnatia Motorway","network":"e-road","sort_rank":383,"kind_detail":"motorway","name:de":"Egnatia Odos","source":"openstreetmap.org","all_networks":["e-road","e-road","GR:motorway"],"landuse_kind":"urban_area","shield_text":"79","ref":"\u03912","all_shield_texts":["79","90","\u03912"]},"arcs":[442]},{"type":"LineString","properties":{"bus_network":null,"int_name":"Georgikis Scholis","network":"GR:national","sort_rank":380,"kind_detail":"primary","kind":"major_road","source":"openstreetmap.org","min_zoom":8.0,"bus_shield_text":"78","shield_text":"\u0395\u039f16","ref":"\u0395\u039f16"},"arcs":[443]},{"type":"LineString","properties":{"kind":"major_road","int_name":"Thessaloniki - Polygyros","network":"GR:national","sort_rank":380,"kind_detail":"primary","source":"openstreetmap.org","min_zoom":8.0,"landuse_kind":"nature_reserve","shield_text":"\u0395\u039f16\u03b1","ref":"\u0395\u039f16\u03b1"},"arcs":[444]},{"type":"MultiLineString","properties":{"kind":"highway","network":"GR:provincial:64","sort_rank":383,"landuse_kind":"nature_reserve","source":"openstreetmap.org","min_zoom":8.0,"all_networks":["GR:provincial:64"],"kind_detail":"motorway","shield_text":"6401","all_shield_texts":["6401"]},"arcs":[[445],[446]]},{"type":"LineString","properties":{"kind":"major_road","int_name":"Thessalonikis","network":"GR:national","sort_rank":380,"kind_detail":"primary","source":"openstreetmap.org","min_zoom":8.0,"landuse_kind":"urban_area","shield_text":"\u0395\u039f1","ref":"\u0395\u039f1"},"arcs":[447]},{"type":"MultiLineString","properties":{"source":"openstreetmap.org","kind":"major_road","name:en":"Thessaloniki Inner Ring Road","kind_detail":"trunk","sort_rank":381,"landuse_kind":"urban_area","min_zoom":8.0},"arcs":[[448],[449],[450],[451],[452],[453],[454],[455],[456]]},{"type":"LineString","properties":{"bus_network":null,"int_name":"Navarhou Kountouriotou","network":"GR:national","sort_rank":380,"kind_detail":"primary","kind":"major_road","source":"openstreetmap.org","min_zoom":8.0,"bus_shield_text":"3","shield_text":"\u0395\u039f16","landuse_kind":"urban_area","ref":"\u0395\u039f16"},"arcs":[457]},{"type":"LineString","properties":{"alt_name:en":"Egnatia Motorway","min_zoom":8.0,"int_name":"Athina - Thessaloniki - Evzonoi","alt_name:fr":"Autoroute Egnatia","kind":"highway","name:en":"Athens - Thessaloniki - Evzoni","network":"e-road","sort_rank":383,"landuse_kind":"urban_area","source":"openstreetmap.org","name:fr":"Ath\u00e8nes - Thessalonique - Evzoni","all_networks":["e-road","e-road","GR:motorway","GR:motorway"],"kind_detail":"motorway","shield_text":"75","ref":"\u03911;\u03912","all_shield_texts":["75","90","\u03911","\u03912"]},"arcs":[458]},{"type":"LineString","properties":{"kind":"major_road","network":"GR:national","sort_rank":380,"kind_detail":"primary","source":"openstreetmap.org","min_zoom":8.0,"shield_text":"\u0395\u039f16","id":426547767},"arcs":[459]},{"type":"LineString","properties":{"kind":"major_road","int_name":"Palaiou Stathmou","network":"GR:national","sort_rank":381,"kind_detail":"trunk","bus_network":null,"source":"openstreetmap.org","min_zoom":8.0,"bus_shield_text":"3","shield_text":"\u0395\u039f1\u03b2","landuse_kind":"urban_area","id":176721960},"arcs":[460]},{"type":"LineString","properties":{"kind":"major_road","name:en":"Agios Prodromos - Arnea Highway","network":"GR:national","sort_rank":380,"kind_detail":"primary","source":"openstreetmap.org","min_zoom":8.0,"landuse_kind":"park","shield_text":"\u0395\u039f16","ref":"\u0395\u039f16","id":92696166},"arcs":[461]},{"type":"MultiLineString","properties":{"bus_network":null,"int_name":"Georgikis Scholis","network":"GR:national","sort_rank":380,"kind_detail":"primary","kind":"major_road","source":"openstreetmap.org","min_zoom":8.0,"bus_shield_text":"78","shield_text":"\u0395\u039f16","landuse_kind":"urban_area","ref":"\u0395\u039f16"},"arcs":[[462],[463],[464],[465]]},{"type":"LineString","properties":{"kind":"major_road","name:en":"25th Martiou Street","sort_rank":380,"landuse_kind":"urban_area","source":"openstreetmap.org","min_zoom":8.0,"kind_detail":"primary","id":14157039},"arcs":[466]},{"type":"LineString","properties":{"kind":"major_road","int_name":"Georgikis Scholis","network":"GR:national","sort_rank":380,"kind_detail":"primary","source":"openstreetmap.org","min_zoom":8.0,"shield_text":"\u0395\u039f16","ref":"\u0395\u039f16"},"arcs":[467]},{"type":"MultiLineString","properties":{"kind":"major_road","network":null,"sort_rank":381,"landuse_kind":"urban_area","source":"openstreetmap.org","min_zoom":8.0,"kind_detail":"trunk","shield_text":"242","ref":"\u0391242"},"arcs":[[468],[469],[470],[471]]},{"type":"MultiLineString","properties":{"kind":"major_road","name:en":"Katerini Ring Road","sort_rank":380,"kind_detail":"primary","name:fr":"P\u00e9riph\u00e9rique de Kater\u00edni","source":"openstreetmap.org","min_zoom":8.0,"landuse_kind":"urban_area"},"arcs":[[472],[473]]},{"type":"LineString","properties":{"source":"openstreetmap.org","kind":"major_road","landuse_kind":"urban_area","sort_rank":380,"kind_detail":"primary","ref":"\u0395\u039f1","min_zoom":8.0},"arcs":[474]},{"type":"MultiLineString","properties":{"kind":"major_road","network":null,"sort_rank":381,"kind_detail":"trunk","source":"openstreetmap.org","min_zoom":8.0,"landuse_kind":"park","shield_text":"25","ref":"\u039125"},"arcs":[[475],[476],[477]]},{"type":"LineString","properties":{"source":"openstreetmap.org","kind":"major_road","kind_detail":"trunk","sort_rank":381,"landuse_kind":"aerodrome","min_zoom":8.0},"arcs":[478]},{"type":"LineString","properties":{"kind":"major_road","int_name":"Vasilissis Olgas","network":"GR:national","sort_rank":380,"kind_detail":"primary","source":"openstreetmap.org","min_zoom":8.0,"landuse_kind":"urban_area","shield_text":"\u0395\u039f16","ref":"\u0395\u039f16","id":131793031},"arcs":[479]},{"type":"MultiLineString","properties":{"alt_name:el":"\u0391\u03c5\u03c4\u03bf\u03ba\u03b9\u03bd\u03b7\u03c4\u03cc\u03b4\u03c1\u03bf\u03bc\u03bf\u03c2 1","kind":"highway","int_name":"Athina - Thessaloniki - Evzonoi","network":"e-road","sort_rank":383,"kind_detail":"motorway","alt_name:en":"Motorway 1","source":"openstreetmap.org","min_zoom":8.0,"name:en":"Motorway 1 (Athens - Thessaloniki - Evzonoi)","all_networks":["e-road","GR:motorway"],"old_name":"\u0391\u03c5\u03c4\u03bf\u03ba\u03b9\u03bd\u03b7\u03c4\u03cc\u03b4\u03c1\u03bf\u03bc\u03bf\u03c2 \u03a0\u0391\u0398\u0395","shield_text":"75","ref":"\u03911","all_shield_texts":["75","\u03911"]},"arcs":[[480],[481],[482],[483],[484],[485],[486],[487],[488],[489],[490]]},{"type":"MultiLineString","properties":{"bus_network":null,"int_name":"Langada","network":"GR:national","sort_rank":380,"kind_detail":"primary","kind":"major_road","source":"openstreetmap.org","min_zoom":8.0,"bus_shield_text":"26","shield_text":"\u0395\u039f2","landuse_kind":"urban_area","ref":"\u0395\u039f2"},"arcs":[[491],[492]]},{"type":"MultiLineString","properties":{"kind":"highway","int_name":"Egnatia Odos","network":"e-road","sort_rank":383,"kind_detail":"motorway","name:fr":"Autoroute \u00c9gnatia","source":"openstreetmap.org","min_zoom":8.0,"name:en":"Egnatia Motorway","all_networks":["e-road","GR:motorway"],"shield_text":"90","ref":"\u03912","all_shield_texts":["90","\u03912"]},"arcs":[[493],[494],[495],[496]]},{"type":"LineString","properties":{"kind":"major_road","int_name":"Aristotelous","network":"GR:national","sort_rank":380,"kind_detail":"primary","source":"openstreetmap.org","min_zoom":8.0,"shield_text":"\u0395\u039f16","ref":"\u0395\u039f16","id":306105284},"arcs":[497]},{"type":"LineString","properties":{"kind":"major_road","name:en":"Thessaloniki - Kilkis","sort_rank":380,"kind_detail":"primary","source":"openstreetmap.org","min_zoom":8.0,"ref":"\u0395\u039f65","id":338358660},"arcs":[498]},{"type":"MultiLineString","properties":{"kind":"highway","name:en":"Thessaloniki - Promachonas","network":"e-road","sort_rank":383,"kind_detail":"motorway","source":"openstreetmap.org","min_zoom":8.0,"all_networks":["e-road",null],"landuse_kind":"park","shield_text":"79","ref":"\u039125","all_shield_texts":["79","25"]},"arcs":[[499],[500],[501],[502],[503]]},{"type":"LineString","properties":{"bus_network":null,"int_name":"Ethnikis Antistaseos","network":"GR:national","sort_rank":380,"kind_detail":"primary","kind":"major_road","source":"openstreetmap.org","min_zoom":8.0,"bus_shield_text":"78","shield_text":"\u0395\u039f16","ref":"\u0395\u039f16"},"arcs":[504]},{"type":"MultiLineString","properties":{"kind":"major_road","network":"GR:national","sort_rank":380,"kind_detail":"primary","source":"openstreetmap.org","min_zoom":8.0,"shield_text":"\u0395\u039f1","ref":"\u0395\u039f1"},"arcs":[[505],[506],[507]]},{"type":"LineString","properties":{"bus_network":null,"name:en":"Georgiou Papandreou","network":"GR:national","sort_rank":380,"kind_detail":"primary","bus_shield_text":"78","kind":"major_road","source":"openstreetmap.org","min_zoom":8.0,"old_name":"\u0391\u03bd\u03b8\u03ad\u03c9\u03bd","shield_text":"\u0395\u039f16","landuse_kind":"urban_area","ref":"\u0395\u039f16"},"arcs":[508]},{"type":"LineString","properties":{"source":"openstreetmap.org","kind":"ferry","name":"Thessaloniki - Lesvos","sort_rank":355,"landuse_kind":"urban_area","min_zoom":8.0,"id":52520120},"arcs":[509]},{"type":"MultiLineString","properties":{"kind":"major_road","network":null,"sort_rank":381,"landuse_kind":"aerodrome","source":"openstreetmap.org","min_zoom":8.0,"kind_detail":"trunk","shield_text":"242","ref":"\u0391242"},"arcs":[[510],[511]]},{"type":"MultiLineString","properties":{"bus_network":null,"name:en":"Egnatia Street","sort_rank":380,"kind_detail":"primary","name:ar":"\u0634\u0627\u0631\u0639 \u0627\u063a\u0646\u0627\u062a\u064a\u0627","alt_name:en":"Egnatias Street","kind":"major_road","name:de":"Egnatia Strasse","source":"openstreetmap.org","min_zoom":8.0,"int_name":"Egnatia","old_name":"\u039f\u03b4\u03cc\u03c2 \u039d\u03ad\u03b1 \u0395\u03b3\u03bd\u03b1\u03c4\u03af\u03b1","landuse_kind":"urban_area","bus_shield_text":"2"},"arcs":[[512],[513]]},{"type":"MultiLineString","properties":{"kind":"major_road","int_name":"Thessaloniki - Peraia","network":"GR:national","sort_rank":380,"kind_detail":"primary","source":"openstreetmap.org","min_zoom":8.0,"landuse_kind":"urban_area","shield_text":"\u0395\u039f67","ref":"\u0395\u039f67"},"arcs":[[514],[515],[516]]},{"type":"LineString","properties":{"kind":"major_road","int_name":"Ethnikis Antistaseos","network":"GR:national","sort_rank":380,"kind_detail":"primary","bus_network":null,"source":"openstreetmap.org","min_zoom":8.0,"bus_shield_text":"78","shield_text":"\u0395\u039f16","landuse_kind":"urban_area","id":195625780},"arcs":[517]},{"type":"LineString","properties":{"bus_network":null,"int_name":"Polytechneiou","network":"GR:national","sort_rank":380,"kind_detail":"primary","kind":"major_road","source":"openstreetmap.org","min_zoom":8.0,"bus_shield_text":"3","shield_text":"\u0395\u039f16","landuse_kind":"urban_area","ref":"\u0395\u039f16"},"arcs":[518]},{"type":"MultiLineString","properties":{"kind":"major_road","network":"GR:national","sort_rank":381,"landuse_kind":"urban_area","source":"openstreetmap.org","min_zoom":8.0,"kind_detail":"trunk","shield_text":"\u0395\u039f2","ref":"\u0395\u039f2"},"arcs":[[519],[520],[521],[522],[523]]},{"type":"LineString","properties":{"kind":"major_road","name:en":"Modio Bridge","network":"GR:national","sort_rank":380,"kind_detail":"primary","min_zoom":8.0,"name:de":"Modio Br\u00fccke","source":"openstreetmap.org","name:fr":"Pont Modio","landuse_kind":"park","shield_text":"\u0395\u039f2","ref":"\u0395\u039f2","id":27242863},"arcs":[524]},{"type":"LineString","properties":{"bus_network":null,"name:en":"Konstantinou Karamanli avenue","sort_rank":380,"kind_detail":"primary","bus_shield_text":"31","kind":"major_road","source":"openstreetmap.org","min_zoom":8.0,"old_name":"\u039f\u03b4\u03cc\u03c2 \u039d\u03ad\u03b1 \u0395\u03b3\u03bd\u03b1\u03c4\u03af\u03b1","landuse_kind":"urban_area"},"arcs":[525]},{"type":"LineString","properties":{"bus_network":null,"int_name":"Edessa - Thessaloniki","network":"GR:national","sort_rank":380,"kind_detail":"primary","kind":"major_road","source":"openstreetmap.org","min_zoom":8.0,"bus_shield_text":"81","shield_text":"\u0395\u039f2","landuse_kind":"urban_area","ref":"\u0395\u039f2"},"arcs":[526]},{"type":"LineString","properties":{"bus_network":null,"int_name":"Vasilissis Olgas","network":"GR:national","sort_rank":380,"kind_detail":"primary","kind":"major_road","source":"openstreetmap.org","min_zoom":8.0,"bus_shield_text":"2","shield_text":"\u0395\u039f16","landuse_kind":"urban_area","ref":"\u0395\u039f16"},"arcs":[527]},{"type":"LineString","properties":{"bus_network":null,"int_name":"Konstantinou Karamanli","network":"GR:national","sort_rank":380,"kind_detail":"primary","kind":"major_road","source":"openstreetmap.org","min_zoom":8.0,"bus_shield_text":"81","shield_text":"\u0395\u039f2","landuse_kind":"urban_area","ref":"\u0395\u039f2"},"arcs":[528]},{"type":"LineString","properties":{"bus_network":null,"int_name":"Georgikis Scholis","network":"GR:national","sort_rank":380,"kind_detail":"primary","kind":"major_road","source":"openstreetmap.org","min_zoom":8.0,"bus_shield_text":"2","shield_text":"\u0395\u039f16","ref":"\u0395\u039f16"},"arcs":[529]},{"type":"LineString","properties":{"kind":"major_road","int_name":"Thessaloniki - Kavala","network":"GR:national","sort_rank":380,"kind_detail":"primary","is_bicycle_related":true,"source":"openstreetmap.org","min_zoom":8.0,"shield_text":"\u0395\u039f2","ref":"\u0395\u039f2","id":86575252},"arcs":[530]},{"type":"MultiLineString","properties":{"bus_network":null,"network":null,"sort_rank":381,"kind_detail":"trunk","kind":"major_road","source":"openstreetmap.org","min_zoom":8.0,"bus_shield_text":"78","shield_text":"242","landuse_kind":"aerodrome","ref":"\u0391242"},"arcs":[[531],[532],[533]]},{"type":"LineString","properties":{"kind":"major_road","name:en":"Apollonia Bridge","network":"GR:national","sort_rank":380,"kind_detail":"primary","name:fr":"Pont d'Apollonia","name:de":"Apollonia Br\u00fccke","source":"openstreetmap.org","min_zoom":8.0,"landuse_kind":"park","shield_text":"\u0395\u039f2","ref":"\u0395\u039f2","id":27242940},"arcs":[534]},{"type":"LineString","properties":{"source":"openstreetmap.org","kind":"major_road","int_name":"Thesssloniki - Nea Moudania","kind_detail":"trunk","sort_rank":381,"landuse_kind":"urban_area","min_zoom":8.0},"arcs":[535]},{"type":"LineString","properties":{"kind":"major_road","int_name":"Stratoni - Ierissos","network":"GR:national","sort_rank":380,"kind_detail":"primary","source":"openstreetmap.org","min_zoom":8.0,"landuse_kind":"nature_reserve","shield_text":"\u0395\u039f16","ref":"\u0395\u039f16"},"arcs":[536]},{"type":"LineString","properties":{"bus_network":null,"name:en":"Konstantinou Karamanli avenue","sort_rank":380,"kind_detail":"primary","old_name":"\u039f\u03b4\u03cc\u03c2 \u039d\u03ad\u03b1 \u0395\u03b3\u03bd\u03b1\u03c4\u03af\u03b1","kind":"major_road","source":"openstreetmap.org","min_zoom":8.0,"bus_shield_text":"12","landuse_kind":"urban_area"},"arcs":[537]},{"type":"MultiLineString","properties":{"kind":"major_road","int_name":"Thessaloniki - Polygyros","network":"GR:national","sort_rank":380,"kind_detail":"primary","source":"openstreetmap.org","min_zoom":8.0,"shield_text":"\u0395\u039f16\u03b1","ref":"\u0395\u039f16\u03b1"},"arcs":[[538],[539]]},{"type":"MultiLineString","properties":{"kind":"highway","int_name":"Egnatia Odos","network":"e-road","sort_rank":383,"kind_detail":"motorway","source":"openstreetmap.org","min_zoom":8.0,"name:en":"Egnatia Motorway","all_networks":["e-road","e-road","GR:motorway"],"landuse_kind":"park","shield_text":"79","ref":"\u03912","all_shield_texts":["79","90","\u03912"]},"arcs":[[540],[541],[542]]},{"type":"MultiLineString","properties":{"kind":"highway","network":"GR:provincial:64","sort_rank":383,"kind_detail":"motorway","source":"openstreetmap.org","min_zoom":8.0,"all_networks":["GR:provincial:64"],"shield_text":"6401","all_shield_texts":["6401"]},"arcs":[[543],[544],[545],[546]]},{"type":"LineString","properties":{"bus_network":null,"network":"GR:national","sort_rank":380,"kind_detail":"primary","kind":"major_road","source":"openstreetmap.org","min_zoom":8.0,"bus_shield_text":"2","shield_text":"\u0395\u039f2","landuse_kind":"urban_area","ref":"\u0395\u039f2"},"arcs":[547]},{"type":"LineString","properties":{"kind":"major_road","int_name":"Edessa - Thessaloniki","network":"GR:national","sort_rank":380,"kind_detail":"primary","source":"openstreetmap.org","min_zoom":8.0,"landuse_kind":"urban_area","shield_text":"\u0395\u039f2","ref":"\u0395\u039f2"},"arcs":[548]},{"type":"MultiLineString","properties":{"kind":"major_road","int_name":"Langada","network":"GR:national","sort_rank":381,"kind_detail":"trunk","source":"openstreetmap.org","min_zoom":8.0,"landuse_kind":"urban_area","shield_text":"\u0395\u039f2","ref":"\u0395\u039f2"},"arcs":[[549],[550]]},{"type":"MultiLineString","properties":{"kind":"major_road","int_name":"Nikis","network":"GR:national","sort_rank":380,"kind_detail":"primary","source":"openstreetmap.org","min_zoom":8.0,"landuse_kind":"urban_area","shield_text":"\u0395\u039f16","ref":"\u0395\u039f16"},"arcs":[[551],[552]]},{"type":"LineString","properties":{"kind":"major_road","network":"GR:provincial:54","sort_rank":380,"kind_detail":"primary","source":"openstreetmap.org","min_zoom":8.0,"landuse_kind":"urban_area","shield_text":"5427"},"arcs":[553]},{"type":"LineString","properties":{"bus_network":null,"name:en":"Manoli Andronikou","network":"GR:national","sort_rank":380,"kind_detail":"primary","kind":"major_road","source":"openstreetmap.org","min_zoom":8.0,"bus_shield_text":"3","shield_text":"\u0395\u039f16","landuse_kind":"urban_area","ref":"\u0395\u039f16"},"arcs":[554]},{"type":"LineString","properties":{"kind":"highway","int_name":"Thessaloniki - Promachonas","network":"e-road","sort_rank":383,"kind_detail":"motorway","source":"openstreetmap.org","min_zoom":8.0,"all_networks":["e-road"],"landuse_kind":"park","shield_text":"79","ref":"\u039125","id":164867025,"all_shield_texts":["79"]},"arcs":[555]},{"type":"LineString","properties":{"bus_network":null,"int_name":"Ethnikis Antistaseos","network":"GR:national","sort_rank":380,"kind_detail":"primary","kind":"major_road","source":"openstreetmap.org","min_zoom":8.0,"bus_shield_text":"2","shield_text":"\u0395\u039f16","landuse_kind":"urban_area","ref":"EO16","id":195625785},"arcs":[556]},{"type":"MultiLineString","properties":{"kind":"highway","int_name":"Egnatia Odos","network":"e-road","sort_rank":383,"kind_detail":"motorway","name:fr":"Pont d'Evangelismos","name:de":"Evangelismos Br\u00fccke","source":"openstreetmap.org","min_zoom":8.0,"name:en":"Egnatia Motorway","all_networks":["e-road","GR:motorway"],"landuse_kind":"park","shield_text":"90","ref":"\u03912","all_shield_texts":["90","\u03912"]},"arcs":[[557],[558]]},{"type":"LineString","properties":{"kind":"major_road","sort_rank":381,"landuse_kind":"urban_area","source":"openstreetmap.org","min_zoom":8.0,"kind_detail":"trunk","ref":"2","id":539506075},"arcs":[559]},{"type":"LineString","properties":{"source":"openstreetmap.org","kind":"major_road","kind_detail":"trunk","sort_rank":381,"landuse_kind":"urban_area","ref":"\u0395\u039f11","min_zoom":8.0},"arcs":[560]},{"type":"LineString","properties":{"kind":"major_road","int_name":"Amfipoli - Nea Zichni","network":"GR:national_old","sort_rank":380,"kind_detail":"primary","source":"openstreetmap.org","min_zoom":8.0,"shield_text":null,"ref":"\u0395\u039f59","id":465469304},"arcs":[561]},{"type":"MultiLineString","properties":{"kind":"highway","name:ro":"Egnatia Odos","int_name":"Egnatia Odos","network":"e-road","sort_rank":383,"kind_detail":"motorway","source":"openstreetmap.org","min_zoom":8.0,"name:en":"Egnatia Motorway","all_networks":["e-road","e-road","GR:motorway"],"landuse_kind":"park","shield_text":"79","ref":"\u03912","all_shield_texts":["79","90","\u03912"]},"arcs":[[562],[563],[564],[565]]},{"type":"MultiLineString","properties":{"kind":"highway","name:en":"Motorway 24 (Thessaloniki Ring Road)","sort_rank":383,"kind_detail":"motorway","source":"openstreetmap.org","min_zoom":8.0,"landuse_kind":"urban_area","ref":"\u039124"},"arcs":[[566],[567],[568],[569]]},{"type":"LineString","properties":{"kind":"major_road","int_name":"Fanis Mitsaki","network":"GR:national","sort_rank":380,"kind_detail":"primary","source":"openstreetmap.org","min_zoom":8.0,"shield_text":"\u0395\u039f1","ref":"\u0395\u039f1","id":355203209},"arcs":[570]},{"type":"LineString","properties":{"kind":"major_road","int_name":"Amfipoli - Drama","network":"GR:national","sort_rank":380,"kind_detail":"primary","source":"openstreetmap.org","min_zoom":8.0,"shield_text":"\u0395\u039f59","ref":"\u0395\u039f59"},"arcs":[571]},{"type":"MultiLineString","properties":{"kind":"major_road","network":"GR:national","sort_rank":380,"kind_detail":"primary","source":"openstreetmap.org","min_zoom":8.0,"shield_text":"\u0395\u039f59","ref":"\u0395\u039f59"},"arcs":[[572],[573],[574],[575],[576],[577],[578],[579],[580],[581],[582],[583]]},{"type":"LineString","properties":{"kind":"highway","int_name":"Thessaloniki - Promachonas","network":null,"sort_rank":383,"kind_detail":"motorway","source":"openstreetmap.org","min_zoom":8.0,"all_networks":[null],"landuse_kind":"park","shield_text":"25","ref":"\u039125","all_shield_texts":["25"]},"arcs":[584]},{"type":"MultiLineString","properties":{"int_name":"Athina - Thessaloniki - Evzoni","min_zoom":8.0,"old_name":"\u0391\u03c5\u03c4\u03bf\u03ba\u03b9\u03bd\u03b7\u03c4\u03cc\u03b4\u03c1\u03bf\u03bc\u03bf\u03c2 \u03a0\u0391\u0398\u0395","name:mk":"\u0410\u0442\u0438\u043d\u0430 - \u0421\u043e\u043b\u0443\u043d - \u041c\u0430\u0447\u0443\u043a\u043e\u0432\u043e","kind":"highway","name:en":"Athens - Thessaloniki - Evzonoi","network":"e-road","sort_rank":383,"landuse_kind":"nature_reserve","source":"openstreetmap.org","name:fr":"Ath\u00e8nes - Thessalonique - Evzoni","all_networks":["e-road","e-road","GR:motorway","GR:motorway"],"kind_detail":"motorway","shield_text":"75","ref":"\u03911;\u03912","all_shield_texts":["75","90","\u03911","\u03912"]},"arcs":[[585],[586]]},{"type":"LineString","properties":{"kind":"major_road","sort_rank":381,"kind_detail":"trunk","bus_network":null,"source":"openstreetmap.org","min_zoom":8.0,"bus_shield_text":"78","landuse_kind":"aerodrome","id":162380390},"arcs":[587]},{"type":"LineString","properties":{"sort_rank":355,"source":"openstreetmap.org","min_zoom":8.0,"name":"Thessaloniki - Lesvos","kind":"ferry"},"arcs":[588]},{"type":"LineString","properties":{"bus_network":null,"int_name":"Vasileos Georgiou","network":"GR:national","sort_rank":380,"kind_detail":"primary","kind":"major_road","source":"openstreetmap.org","min_zoom":8.0,"bus_shield_text":"3","shield_text":"\u0395\u039f16","landuse_kind":"urban_area","ref":"\u0395\u039f16"},"arcs":[589]},{"type":"MultiLineString","properties":{"kind":"major_road","network":"GR:national","sort_rank":380,"kind_detail":"primary","source":"openstreetmap.org","min_zoom":8.0,"landuse_kind":"park","shield_text":"\u0395\u039f2","ref":"EO2"},"arcs":[[590],[591],[592]]},{"type":"LineString","properties":{"bus_network":null,"int_name":"Adrianoupoleos","network":"GR:national","sort_rank":380,"kind_detail":"primary","kind":"major_road","source":"openstreetmap.org","min_zoom":8.0,"bus_shield_text":"78","shield_text":"\u0395\u039f16","landuse_kind":"urban_area","ref":"\u0395\u039f16"},"arcs":[593]},{"type":"LineString","properties":{"kind":"major_road","int_name":"Arnaia - Stratoni","network":"GR:national","sort_rank":380,"kind_detail":"primary","source":"openstreetmap.org","min_zoom":8.0,"shield_text":"\u0395\u039f16"},"arcs":[594]},{"type":"LineString","properties":{"kind":"major_road","int_name":"Nikis","network":"GR:national","sort_rank":380,"kind_detail":"primary","bus_network":null,"source":"openstreetmap.org","min_zoom":8.0,"bus_shield_text":"3","shield_text":"\u0395\u039f16","landuse_kind":"urban_area","ref":"\u0395\u039f16","id":145891769},"arcs":[595]},{"type":"MultiLineString","properties":{"kind":"major_road","int_name":"Thessaloniki - Polygyros","network":"GR:national","sort_rank":380,"kind_detail":"primary","source":"openstreetmap.org","min_zoom":8.0,"landuse_kind":"urban_area","shield_text":"\u0395\u039f16","ref":"\u0395\u039f16"},"arcs":[[596],[597],[598],[599],[600],[601],[602],[603],[604],[605]]},{"type":"LineString","properties":{"kind":"highway","int_name":"Perifereiaki Odos","network":"GR:motorway","sort_rank":383,"landuse_kind":"urban_area","source":"openstreetmap.org","min_zoom":8.0,"name:en":"Thessaloniki Ring Road","all_networks":["GR:motorway"],"kind_detail":"motorway","shield_text":"\u03912","ref":"\u03912","all_shield_texts":["\u03912"]},"arcs":[606]},{"type":"MultiLineString","properties":{"kind":"highway","int_name":"Egnatia Odos","network":"e-road","sort_rank":383,"kind_detail":"motorway","min_zoom":8.0,"name:de":"Strymonas Br\u00fccke","source":"openstreetmap.org","name:fr":"Pont de Strymonas","name:en":"Egnatia Motorway","all_networks":["e-road","GR:motorway"],"shield_text":"90","ref":"\u03912","all_shield_texts":["90","\u03912"]},"arcs":[[607],[608]]},{"type":"LineString","properties":{"kind":"major_road","int_name":"Adrianoupoleos","network":"GR:national","sort_rank":380,"kind_detail":"primary","source":"openstreetmap.org","min_zoom":8.0,"landuse_kind":"urban_area","shield_text":"\u0395\u039f16","ref":"EO16","id":200375674},"arcs":[609]},{"type":"MultiLineString","properties":{"kind":"major_road","int_name":"Thessaloniki - Arnaia","network":"GR:national","sort_rank":380,"kind_detail":"primary","source":"openstreetmap.org","min_zoom":8.0,"shield_text":"\u0395\u039f16","ref":"\u0395\u039f16"},"arcs":[[610],[611],[612],[613]]},{"type":"LineString","properties":{"source":"openstreetmap.org","kind":"ferry","name":"Karavakia - Thessaloniki Waterbus","sort_rank":355,"min_zoom":8.0,"id":506288805},"arcs":[614]},{"type":"LineString","properties":{"kind":"major_road","name:en":"Egnatia Street","sort_rank":380,"kind_detail":"primary","name:ar":"\u0634\u0627\u0631\u0639 \u0627\u063a\u0646\u0627\u062a\u064a\u0627","alt_name:en":"Egnatias Street","bus_network":null,"name:de":"Egnatia Strasse","source":"openstreetmap.org","min_zoom":8.0,"int_name":"Egnatia","bus_shield_text":"2","landuse_kind":"urban_area","ref":"EO67","id":207312702},"arcs":[615]}]},"earth":{"type":"GeometryCollection","geometries":[{"type":"MultiPolygon","properties":{"sort_rank":10,"source":"naturalearthdata.com","min_zoom":0.0,"kind":"earth","area":29947616112},"arcs":[[[616]]]}]},"landuse":{"type":"GeometryCollection","geometries":[{"type":"Polygon","properties":{"source":"openstreetmap.org","kind":"battlefield","area":13983500,"tier":1,"id":160913006,"min_zoom":8.0,"sort_rank":25},"arcs":[[617]]},{"type":"MultiPolygon","properties":{"source":"openstreetmap.org","kind":"park","tier":2,"area":4162565490,"sort_rank":24,"min_zoom":4.0,"osm_relation":true},"arcs":[[[618]]]},{"type":"MultiPolygon","properties":{"source":"naturalearthdata.com","kind":"urban_area","name":"","area":1211848036,"sort_rank":11,"min_zoom":4.0},"arcs":[[[619]],[[620]],[[621]],[[622]],[[623]]]},{"type":"MultiPolygon","properties":{"source":"openstreetmap.org","kind":"aerodrome","tier":3,"area":24037176,"sort_rank":60,"min_zoom":8.0},"arcs":[[[624]]]},{"type":"MultiPolygon","properties":{"source":"openstreetmap.org","kind":"nature_reserve","tier":2,"area":2038655083,"sort_rank":23,"min_zoom":8.0},"arcs":[[[625]],[[626]],[[627]],[[628]],[[629]],[[630]],[[631]],[[632]],[[633]],[[634]],[[635]],[[636]],[[637]],[[638]],[[639]],[[640]],[[641]],[[642]],[[643]],[[644],[645],[646]],[[647]],[[648]],[[649]],[[650]],[[651]],[[652]],[[653]],[[654]],[[655]],[[656]],[[657]],[[658]],[[659]],[[660]],[[661]],[[662],[663]],[[664]]]},{"type":"MultiPolygon","properties":{"source":"openstreetmap.org","kind":"nature_reserve","tier":2,"area":823415329,"sort_rank":23,"min_zoom":6.0},"arcs":[[[665]],[[666]],[[667]]]}]}},"type":"Topology","transform":{"translate":[22.5,39.9097362345],"scale":[0.0003433228,0.00026127]},"arcs":[[[0,219],[97,-77],[194,34],[77,62],[81,-31],[28,-69],[43,37],[-46,76],[47,72]],[[521,323],[49,75]],[[570,398],[-99,73],[-97,411],[119,226],[-24,164],[24,138],[155,339],[2,76],[-127,96],[-42,77],[165,144],[114,14],[125,-95],[115,-195],[21,-174],[270,-35],[25,-168],[378,-802],[647,-603],[203,-84]],[[4096,2671],[-55,18],[-112,142],[-210,168],[44,101],[159,55],[174,-87]],[[944,0],[-194,262],[-180,136]],[[1258,2809],[-285,204],[-266,32],[-234,151],[-29,249],[40,141],[-7,105],[-67,272],[-131,133]],[[1258,2809],[-272,206],[-38,316],[71,67],[40,172],[89,104],[-10,98],[-106,276],[-78,48]],[[394,0],[75,138],[-23,80],[-212,215],[-110,468],[27,158],[-58,323],[224,313],[20,68],[-65,158],[-9,98],[-55,80],[-11,90],[-94,159],[-30,420],[148,123],[268,110],[121,-1],[399,-107],[72,41],[174,-124]],[[1247,2811],[99,-77],[-10,-90],[38,-31],[-3,-38]],[[394,0],[75,138],[-23,80],[-212,215],[-110,468],[27,158],[-58,322],[227,320],[17,62],[-65,158],[-9,98],[-55,80],[-11,90],[-94,159],[-30,420],[148,123],[268,110],[124,-1],[396,-107],[71,40],[175,-123]],[[637,0],[-25,92],[-1,5],[-2,15],[3,70],[-7,16],[-27,-2],[-6,14],[-16,14],[-69,23],[-16,15],[-27,15],[-152,131],[-37,109],[-13,19],[-34,17],[-7,41],[11,87],[-15,87],[-30,64],[-22,64],[8,87],[112,243],[-2,44],[88,264],[79,135],[39,89],[-8,40],[-53,16],[-34,38],[-29,44],[-35,32],[7,56],[-15,61],[-30,54],[-42,39],[34,35],[36,15],[69,2],[43,-28],[27,-7],[12,20],[3,37],[11,20],[19,9],[27,4],[-56,32],[4,46],[46,39],[44,2],[1,-18],[34,-19],[30,-23],[24,-3],[12,45],[21,0],[0,-28],[18,0],[0,55],[22,-27],[18,0],[-23,68],[10,57],[37,48],[58,39],[25,-20],[25,-8],[59,0],[-2,8],[27,20],[46,24],[30,35],[24,45],[7,59],[-21,72],[85,30],[80,-10],[67,-53],[46,-97],[-17,-43],[-5,-26],[12,-12],[19,-7],[71,-45],[18,-69],[-23,-39],[-36,-28],[-19,-34],[-43,-35],[-99,-20],[-186,-11],[-64,-27],[27,-62],[106,-122],[0,-17],[-4,-4],[-8,0],[-9,-3],[86,-112],[23,-63],[-27,-60],[114,8],[51,-8],[55,-26],[137,-108],[53,-98],[69,-27],[68,-16],[31,-28],[30,-4],[151,-113],[50,13],[48,-22],[50,-30],[108,-26],[64,-25],[117,-67],[57,-96],[18,-136],[-15,-146],[-40,-124],[31,-59],[55,-56],[51,-66],[23,-93],[9,-24],[43,-60],[9,-31],[-8,-45],[-38,-72],[-15,-42],[33,15],[217,37],[71,-12],[424,-185],[252,-41],[54,13],[54,28],[23,27],[-41,13],[-61,6],[-46,20],[-34,32],[-28,47],[-9,38],[0,34],[-7,23],[-197,48],[-303,167],[-86,95],[-156,226],[-27,49],[-17,20],[-26,8],[-59,5],[-23,11],[-8,24],[-15,70],[-30,64],[-22,64],[7,75],[72,129],[97,62],[118,5],[133,-37],[163,-95],[240,-19],[56,-16],[98,-67],[259,-352],[12,-28],[11,-35],[17,-31],[31,-12],[13,-17],[-5,-39],[-19,-63],[14,-43],[107,-181],[-10,33],[3,17],[20,18],[40,-9],[33,-28],[14,-42],[18,-7],[103,-60],[-14,-40],[9,-26],[16,-4],[0,-231],[-3459,0]],[[4096,979],[-28,22],[-48,19],[-36,-13],[-199,95],[-19,-6],[-42,25],[-41,49],[-20,62],[-99,67],[-21,24],[-14,22],[-46,122],[-6,62],[17,66],[50,72],[12,-2],[19,33],[9,21],[85,-37],[66,13],[149,74],[43,3],[107,-29],[62,9],[0,-96],[-48,-20],[-18,-23],[11,-17],[53,-22],[2,0],[0,-595]],[[4096,1859],[-82,41],[-29,28],[-121,183],[-22,101],[12,74],[44,45],[198,25],[0,-497]],[[4096,2432],[-32,30],[-19,41],[-32,-13],[-44,-4],[-46,4],[-39,13],[-100,88],[-19,5],[-17,69],[-42,83],[-49,69],[-42,28],[-67,22],[-52,57],[-25,83],[16,100],[39,62],[62,54],[65,43],[160,67],[96,11],[36,-9],[57,-13],[94,-50],[0,-840]],[[4096,3272],[-94,50],[-57,13],[-36,9],[-96,-11],[-160,-67],[-65,-43],[-62,-54],[-39,-62],[-16,-100],[25,-83],[52,-57],[67,-22],[42,-28],[49,-69],[42,-83],[17,-69],[19,-5],[100,-88],[39,-13],[46,-4],[44,4],[32,13],[19,-41],[32,-30]],[[4096,2356],[-198,-25],[-44,-45],[-12,-74],[22,-101],[121,-183],[29,-28],[82,-41]],[[4096,1752],[-62,-9],[-107,29],[-43,-3],[-149,-74],[-66,-13],[-85,37],[-9,-21],[-19,-33],[-12,2],[-50,-72],[-17,-66],[6,-62],[46,-122],[14,-22],[21,-24],[99,-67],[20,-62],[41,-49],[42,-25],[19,6],[199,-95],[36,13],[48,-19],[28,-22]],[[4096,231],[-16,4],[-9,26],[14,40],[-103,60],[-18,7],[-14,42],[-33,28],[-40,9],[-20,-18],[-3,-17],[10,-33],[-107,181],[-14,43],[19,63],[5,39],[-13,17],[-31,12],[-17,31],[-11,35],[-12,28],[-259,352],[-98,67],[-56,16],[-240,19],[-163,95],[-133,37],[-118,-5],[-97,-62],[-72,-129],[-7,-75],[22,-64],[30,-64],[15,-70],[8,-24],[23,-11],[59,-5],[26,-8],[17,-20],[27,-49],[156,-226],[86,-95],[303,-167],[197,-48],[7,-23],[0,-34],[9,-38],[28,-47],[34,-32],[46,-20],[61,-6],[41,-13],[-23,-27],[-54,-28],[-54,-13],[-252,41],[-424,185],[-71,12],[-217,-37],[-33,-15],[15,42],[38,72],[8,45],[-9,31],[-43,60],[-9,24],[-23,93],[-51,66],[-55,56],[-31,59],[40,124],[15,146],[-18,136],[-57,96],[-117,67],[-64,25],[-108,26],[-50,30],[-48,22],[-50,-13],[-151,113],[-30,4],[-31,28],[-68,16],[-69,27],[-53,98],[-137,108],[-55,26],[-51,8],[-114,-8],[27,60],[-23,63],[-86,112],[9,3],[8,0],[4,4],[0,17],[-106,122],[-27,62],[64,27],[186,11],[99,20],[43,35],[19,34],[36,28],[23,39],[-18,69],[-71,45],[-19,7],[-12,12],[5,26],[17,43],[-46,97],[-67,53],[-80,10],[-85,-30],[21,-72],[-7,-59],[-24,-45],[-30,-35],[-46,-24],[-27,-20],[2,-8],[-59,0],[-25,8],[-25,20],[-58,-39],[-37,-48],[-10,-57],[23,-68],[-18,0],[-22,27],[0,-55],[-18,0],[0,28],[-21,0],[-12,-45],[-24,3],[-30,23],[-34,19],[-1,18],[-44,-2],[-46,-39],[-4,-46],[56,-32],[-27,-4],[-19,-9],[-11,-20],[-3,-37],[-12,-20],[-27,7],[-43,28],[-69,-2],[-36,-15],[-34,-35],[42,-39],[30,-54],[15,-61],[-7,-56],[35,-32],[29,-44],[34,-38],[53,-16],[8,-40],[-39,-89],[-79,-135],[-88,-264],[2,-44],[-112,-243],[-8,-87],[22,-64],[30,-64],[15,-87],[-11,-87],[7,-41],[34,-17],[13,-19],[37,-109],[152,-131],[27,-15],[16,-15],[69,-23],[16,-14],[6,-14],[27,2],[7,-16],[-3,-70],[2,-15],[1,-5],[25,-92]],[[1354,2629],[1,-10],[1,-6],[4,-8],[37,-44]],[[1396,2563],[-42,64]],[[1347,3083],[48,33]],[[1394,3117],[-6,-5]],[[3843,2269],[8,26]],[[990,2845],[-26,-2],[-26,-6]],[[938,2837],[-31,-6]],[[916,2833],[22,4]],[[938,2837],[26,5],[20,2]],[[1092,3004],[-83,-1],[-16,-10],[-23,-23],[1,-55],[21,-54]],[[996,2856],[-25,114],[39,32],[82,2]],[[1165,3005],[112,1],[20,2],[10,6],[5,14]],[[1308,3019],[-142,-14]],[[70,1463],[-13,-29]],[[70,1463],[4,10]],[[89,1501],[-15,-28]],[[1354,2632],[-3,32]],[[1474,2283],[14,50],[3,12],[2,26]],[[1493,2371],[0,8]],[[1493,2379],[1,1],[-2,7],[-7,17],[-19,39],[-70,120]],[[1399,2557],[66,-115],[18,-34],[10,-29]],[[1493,2379],[1,-1],[-1,-7]],[[1493,2371],[-2,-26],[-20,-64]],[[2174,1355],[90,-13],[7,-3]],[[2271,1339],[16,-8],[1,-1]],[[2288,1330],[6,-8],[35,-51]],[[2332,1267],[-43,63],[-1,0]],[[2288,1330],[-17,9]],[[2271,1339],[-8,3],[-89,14]],[[1408,2445],[-5,11]],[[66,1385],[4,-8]],[[66,1385],[0,1],[-1,0],[0,-1],[1,0]],[[70,1377],[-4,8]],[[69,1376],[1,-1]],[[647,2666],[-2,0]],[[3604,3254],[-8,1],[-12,-6]],[[3588,3250],[11,3]],[[1382,2521],[-1,1]],[[1254,2806],[-9,6]],[[741,3072],[26,-11],[38,-12],[36,-2],[39,0],[70,-21],[11,-1],[25,-1],[28,-36]],[[1015,2988],[-29,36],[-106,23],[-74,3],[-65,23]],[[224,1607],[37,94]],[[1129,2906],[20,-15]],[[1239,2816],[6,-4]],[[1316,2637],[8,3]],[[720,2705],[-73,-39]],[[649,2664],[24,8],[47,30]],[[907,2831],[-27,-18]],[[884,2813],[32,20]],[[1346,2732]],[[1278,2929],[-12,-69]],[[1266,2860],[12,56],[0,18]],[[1564,3657],[-4,-6]],[[1655,3713],[-51,-27]],[[2048,3991],[18,65],[54,40]],[[2322,4096],[7,0]],[[1268,2797],[-1,0]],[[302,1763],[-70,-161]],[[234,1601],[30,54],[38,108]],[[1302,3003],[2,4]],[[1301,3386],[-5,-59]],[[1296,3327],[4,-17]],[[1300,3310],[119,-83]],[[1419,3227],[5,-4],[1,-1],[-6,5]],[[1471,2281],[-36,-90],[10,-53],[118,-306],[152,-266],[23,-20],[94,-29],[56,-73],[119,-16],[167,-73]],[[2174,1356],[-166,73],[-120,15],[-56,73],[-11,7],[-34,13],[-49,9],[-22,20],[-152,266],[-79,236],[-40,70],[-10,53],[29,57],[10,35]],[[2531,2124],[-127,-10],[-34,-29],[-134,36]],[[3213,2214],[116,2],[193,151],[70,-21],[36,27],[54,-16],[62,-56]],[[1014,2988],[22,-17],[37,-26]],[[1040,2968],[-25,20]],[[226,432],[87,-126],[83,-53],[27,-50],[15,-69],[-71,-130]],[[364,0],[3,4]],[[1267,2797],[1,1]],[[1348,2698],[1,-10]],[[1277,3006],[31,1],[8,-2],[12,1],[17,-6]],[[1345,3000],[8,-3],[-1,-1]],[[1352,2996],[-13,-18],[-5,-9],[-2,-11],[3,-14],[7,-23]],[[1343,2921],[-11,37],[22,37],[-2,1]],[[1352,2996],[-7,4]],[[1345,3000],[-11,6],[-31,2]],[[1182,3568],[1,-2]],[[3744,2301],[18,-20],[11,22],[3,-31],[32,8]],[[1294,2779],[25,-17]],[[1320,2761],[19,-19]],[[1340,2742],[-20,19]],[[238,387],[64,-68]],[[302,319],[-63,68]],[[2083,2137],[-1,1]],[[2111,2130],[-1,0]],[[2236,2121],[-1,0]],[[0,2810],[73,59]],[[73,2869],[15,10]],[[88,2879],[185,243]],[[76,1366],[-13,35]],[[1488,3174],[-6,-2],[-21,-11],[-6,-5]],[[1457,3157],[31,16]],[[2105,3008],[-104,51],[-4,1],[-49,9],[-71,34],[-57,18],[-133,3],[-165,49],[-4,1],[-21,1],[-9,-1]],[[1488,3173],[199,-49],[133,-4],[128,-51],[53,-11],[104,-50]],[[2108,3006],[33,-23],[38,-17],[1,-1],[10,0]],[[2190,2965],[17,0]],[[2207,2965],[2,0],[10,5],[39,25],[114,11],[146,26],[403,-33],[285,-68],[87,61]],[[3292,2997],[-86,-66],[-195,53],[-90,16],[-407,34],[-33,-2],[-70,-12],[-39,-13],[-86,-7],[-28,-4],[-39,-26],[-9,-4],[-1,-1],[-2,0]],[[2207,2965],[-1,-1],[-16,1]],[[2190,2965],[-10,1],[-5,2],[-67,38]],[[3945,3613],[0,-3]],[[3945,3610],[1,4]],[[3980,3658],[10,7]],[[3990,3665],[0,1]],[[3990,3666],[0,-1]],[[3427,2962],[-21,-29]],[[3471,3033],[-43,-70]],[[3471,3033],[1,6]],[[3471,3040],[0,-7]],[[3473,3041],[-1,0]],[[3473,3040],[0,1]],[[3473,3041],[127,193],[83,12],[224,128]],[[3906,3430],[32,-20],[-17,-21]],[[3907,3374],[14,15]],[[1488,3195],[-4,-14]],[[1489,3183],[1,15]],[[621,3137],[15,-75]],[[636,3062],[-13,70]],[[636,3062],[4,-68]],[[647,2664],[2,0]],[[1201,2842]],[[593,2655],[-32,-6]],[[562,2647],[31,6]],[[1351,2664],[2,-32]],[[1354,2631],[0,1]],[[1261,2777],[-14,-4]],[[1471,3360],[0,1]],[[1251,2797],[-12,5],[-19,14],[-11,7],[-39,20]],[[1171,2842],[48,-27]],[[1420,2309],[-41,-30],[-16,-15],[-90,1],[82,-6],[8,4],[19,18],[38,27]],[[0,2540],[37,-61],[42,-13]],[[79,2466],[-41,13],[-38,62]],[[277,2478],[-164,-9]],[[113,2469],[165,8]],[[720,2702],[164,111]],[[880,2813],[-160,-108]],[[3584,3249],[-29,-8],[-52,-56],[-78,-139],[-87,-19],[-46,-30]],[[3293,2992],[132,54],[78,139],[85,65]],[[3599,3253],[11,-2],[17,0],[9,2],[39,8],[25,13],[72,57],[48,8],[9,2],[10,5],[5,3],[5,3],[16,17],[9,13],[0,1]],[[3874,3383],[3,4],[4,5],[1,0]],[[3882,3392],[9,5],[20,8],[26,1],[8,3]],[[3945,3410],[-34,-5],[-16,-6],[-12,-5],[-1,-2]],[[3882,3392],[-8,-9]],[[3874,3383],[-2,-2],[-9,-13],[-19,-19],[-72,-17],[-97,-71],[-71,-7]],[[4096,3344],[-47,-1],[-1,2],[-6,5]],[[4042,3350],[-65,68]],[[3977,3418],[-1,2],[-11,0],[-13,-6]],[[3953,3413],[16,7],[4,0],[4,-2]],[[3977,3418],[8,-2],[41,-47],[3,-3],[13,-16]],[[4042,3350],[6,-6],[1,-1],[47,0]],[[1427,2412],[2,-3]],[[215,2146],[-9,20]],[[207,2163],[5,-14]],[[267,2444],[-11,-16]],[[257,2427],[12,17]],[[2082,2138],[-56,-4],[-211,77],[-226,157]],[[2110,2130],[-27,7]],[[2235,2121],[-124,9]],[[1266,2860],[2,-47]],[[1268,2811],[-2,49]],[[981,3962],[-53,134]],[[981,3962],[8,-14]],[[999,3930],[-18,32]],[[1430,2409],[-1,1]],[[1429,2409],[8,-19]],[[1439,2385],[-9,23]],[[1347,2721],[1,-23]],[[1349,2688],[1,-6]],[[327,3149],[241,-41]],[[398,3139],[-71,11]],[[568,3108],[-169,30]],[[1255,2793],[12,4]],[[361,268],[3,-5]],[[368,267],[-4,-3]],[[368,265],[1,1]],[[369,268]],[[3164,2207],[-19,51],[-89,23],[-118,-21],[-132,26],[-176,-74]],[[3843,2269],[-11,-167]],[[3847,2074],[161,-209]],[[3590,1244],[31,28],[100,-17],[375,-79]],[[4096,1451],[-468,-172],[-38,-35]],[[1284,3006],[2,-22]],[[1335,2581],[20,-8]],[[1255,2794],[0,-1]],[[222,429],[16,-42]],[[239,387],[-3,10],[-13,32]],[[302,319],[32,-35],[17,-11],[50,-28],[23,-34],[4,-17],[-4,-20],[0,-4]],[[424,170],[1,-3]],[[425,167],[0,-3],[4,-7],[8,-29]],[[437,128],[1,-3],[-27,-47]],[[411,78],[-5,-9],[-34,-57],[-5,-10],[-1,-2]],[[367,0],[5,12],[34,57],[5,9]],[[411,78],[26,50]],[[437,128],[2,5],[-1,7],[-13,25],[0,2]],[[425,167],[-1,2],[0,1]],[[424,170],[2,10],[3,14],[-4,16],[-23,36],[-100,73]],[[640,2989],[0,-41]],[[640,2991],[0,-1]],[[1411,2366],[-4,-2]],[[1407,2363],[4,3]],[[1438,2384],[-26,-17]],[[1412,2366],[26,18]],[[3965,3799],[-7,106],[44,17],[30,64],[-62,110]],[[3965,3799],[25,-132]],[[1247,2773],[-79,-164],[-266,-300],[-25,-140],[148,-454],[1019,-1518],[242,-197]],[[92,1324],[52,-245],[3,-17]],[[147,1062],[1,0],[0,-9],[-8,-45]],[[140,1008],[-2,-12],[-18,-75],[0,-10],[41,-181],[1,-147],[3,-15],[11,-25],[18,-35],[3,-5]],[[197,503],[3,-5],[1,-4],[1,-3]],[[202,491],[0,-4],[4,-21],[1,-4],[15,-33]],[[223,429],[-16,36],[-3,19],[-1,3],[-1,4]],[[202,491],[-5,12]],[[197,503],[-2,4],[-29,61],[-3,15],[-2,147],[-11,72],[-28,101],[3,38],[14,55],[1,12]],[[140,1008],[7,54]],[[147,1062],[1,3],[-56,259]],[[148,1502],[-27,-27]],[[122,1474],[28,27]],[[213,2343],[-4,-17]],[[210,2326],[5,16]],[[121,1475],[-30,-29],[-28,-36],[-1,-9]],[[63,1401],[59,73]],[[75,1366],[17,-42]],[[92,1324],[-2,10],[-2,7],[-12,25]],[[1185,2285],[51,16]],[[1236,2301],[2,19]],[[1294,2695],[13,41],[-42,27]],[[593,2653],[38,8]],[[631,2663],[-35,-7]],[[1348,2716],[-1,1]],[[1348,2698]],[[1349,2697],[0,1]],[[1324,2640],[-4,32]],[[1298,2996],[18,9]],[[1382,2765],[-3,2]],[[1447,2636],[-3,-7]],[[1445,2629],[3,8]],[[1451,2649],[-2,-9]],[[1449,2639],[3,11]],[[1476,2392],[-33,-4],[-4,-3]],[[1439,2385],[42,7]],[[1319,3046],[28,37]],[[1338,3074],[-14,-18]],[[1782,2892],[-83,44],[-185,169]],[[1782,2892],[28,-14]],[[1810,2878],[93,-21],[168,-97],[115,10],[265,106],[279,-48]],[[2730,2828],[13,-4]],[[2883,2788],[-140,36]],[[3088,2760],[-201,28]],[[3088,2760],[18,8]],[[3159,2793],[-53,-25]],[[3166,2796],[80,61]],[[3246,2857],[6,5]],[[3383,2917],[-131,-55]],[[3383,2917],[12,4]],[[3406,2933],[-11,-12]],[[1319,2744],[-48,37]],[[2739,1828],[1,-26]],[[1370,2552],[28,27]],[[1399,2581],[-22,-21],[-7,-7]],[[1426,3145],[-16,-16]],[[3156,2942],[35,-11]],[[3173,2928],[26,2]],[[1427,3233],[-3,-10]],[[1425,3222],[2,11]],[[1427,3233],[42,123]],[[1469,3356],[2,4]],[[1473,3366],[-4,-10]],[[1471,3361],[2,5]],[[1473,3366],[27,31]],[[1512,3408],[-12,-11]],[[1512,3408],[10,48]],[[1524,3473],[-2,-17]],[[1524,3473],[2,17]],[[1526,3490],[1,11]],[[1527,3501],[33,150]],[[1604,3686],[-40,-29]],[[2048,3991],[-94,-113],[-85,-17],[-28,-86],[-186,-62]],[[1353,2630],[1,-1]],[[1354,2627],[0,4]],[[1320,2672],[4,38]],[[1333,2611],[-9,29]],[[1333,2611]],[[984,2844],[187,-2]],[[1170,2843],[-8,5],[-11,3],[-20,4],[-31,0],[-74,-6],[-36,-4]],[[299,3148],[-30,8]],[[989,3948],[137,-280],[43,-65]],[[1174,3573],[-5,31],[-170,326]],[[1170,3596],[4,-23]],[[1174,3573],[130,-146],[-3,-41]],[[3449,3058],[22,-18]],[[3472,3039],[-5,8],[-17,12]],[[1317,2732],[-5,-78]],[[561,2649],[-44,-9],[-141,-89],[-67,-52],[-15,-17]],[[305,2493],[210,144],[47,10]],[[248,2414],[3,4]],[[251,2419],[6,8]],[[256,2428],[-4,-5]],[[317,4096],[91,-127],[71,-279],[26,-249],[92,-180],[22,-115]],[[619,3146],[2,-9]],[[623,3132],[-4,14]],[[640,2948],[-3,-177]],[[640,2994],[0,-3]],[[640,2990],[0,-1]],[[1287,2984],[-3,22]],[[1292,2979],[-3,1]],[[2397,1139],[12,-23]],[[1507,2407],[48,1],[34,-40]],[[1713,3764],[-83,-64]],[[1634,3702],[79,61]],[[1994,4096],[-41,-65]],[[1953,4031],[8,7],[4,6],[31,52]],[[1471,3361],[45,-18],[25,-2],[-70,20]],[[3144,2245],[6,-25]],[[3145,2247],[5,-9],[59,19]],[[3209,2257]],[[3219,2256],[-10,1]],[[3209,2257],[-3,0]],[[1493,3207],[-5,-12]],[[1490,3198],[74,239]],[[1564,3437],[-17,-28],[-8,-16],[-46,-184]],[[3176,2204],[34,10]],[[1267,2797],[20,-14],[7,-4]],[[1294,2779],[-26,18]],[[62,1401],[13,-35]],[[1347,2717],[-1,15]],[[1349,2698],[-1,18]],[[1351,2664],[-2,33]],[[0,2463],[83,-78],[28,-101],[113,-171]],[[89,1501],[110,62],[25,44]],[[221,2097],[3,16]],[[221,2097],[13,-102]],[[261,1701],[27,107],[-32,129]],[[52,1419],[13,-32]],[[593,2653]],[[153,1391],[0,4],[-10,17],[-6,6]],[[137,1418],[15,-28]],[[1308,2742],[9,-10]],[[637,2771],[27,-70]],[[664,2701],[2,-4]],[[669,2693],[-5,8]],[[1149,2891],[27,-34]],[[1174,2859],[-21,28]],[[1199,2843],[2,-1]],[[1201,2842],[38,-26]],[[1239,2816],[-38,26]],[[3219,2256],[66,-6],[53,-74]],[[3953,3420],[-2,-1]],[[3952,3419],[1,1]],[[3953,3420],[4,2]],[[1324,3056],[-16,-37]],[[1312,3028],[7,18]],[[1411,2435]],[[1412,2435],[0,1]],[[1945,4026],[-12,-3]],[[1312,2654],[1,-7]],[[1316,2637],[5,-13]],[[1201,2842],[-27,17]],[[1176,2857],[23,-14]],[[252,2423],[-7,-11]],[[246,2411],[2,3]],[[251,2418],[0,1]],[[1488,3174]],[[1488,3173]],[[1339,2742],[7,-10]],[[4096,3291],[-26,9],[-106,142],[-58,-12]],[[3906,3430],[-1,0],[1,0]],[[294,2482],[-25,-35]],[[271,2446],[20,29]],[[2562,2125],[1,-1]],[[53,1426],[0,-11]],[[1219,2815],[36,-21]],[[1355,2573],[14,-22]],[[1369,2551],[2,-5]],[[1371,2546],[-2,5]],[[1371,2546],[3,-7]],[[307,3149],[-8,-1]],[[307,3149],[20,0]],[[327,3150],[-20,-1]],[[1484,3181],[-23,-19]],[[185,569],[4,-19]],[[196,524],[1,-5]],[[197,519],[-1,5]],[[197,519],[29,-87]],[[1109,2852],[3,-16]],[[1112,2836],[2,19]],[[1262,2937],[1,0]],[[1280,2939],[-18,-2]],[[1113,2863],[-1,-1],[1,0],[0,1]],[[3956,3412],[1,0]],[[1280,2949],[5,15]],[[1245,2812],[-5,3]],[[1248,2811],[6,-5]],[[1254,2806],[2,-2],[11,-7]],[[1267,2797],[-1,1],[-12,8]],[[1254,2806]],[[1353,2631],[0,-1]],[[55,3166],[-55,21]],[[55,3166],[21,-1]],[[218,3155],[-142,10]],[[218,3155],[6,-3],[4,7]],[[234,3159],[-5,0],[-5,-6],[-6,2]],[[229,3159],[5,0]],[[234,3159],[25,-3]],[[259,3156],[10,0]],[[399,3138],[-1,1]],[[741,3073],[-32,13],[-69,24],[-31,5],[-20,-2],[-21,-5]],[[568,3108],[72,2],[101,-38]],[[1353,2632],[0,-1]],[[1240,2815],[-1,1]],[[1153,2887],[-24,19]],[[1313,2647],[3,-10]],[[1255,2793],[12,-16]],[[1448,2692],[4,-2]],[[1453,2690],[-4,3]],[[1369,2552],[-29,49]],[[234,1995],[22,-58]],[[2329,1271],[3,-4],[9,-13]],[[2341,1254],[3,-4]],[[2344,1249],[-3,5]],[[2341,1254],[-9,13]],[[1388,3112],[-50,-38]],[[1382,2519],[21,-63]],[[2565,2111],[-30,12]],[[2604,751],[-28,27]],[[2577,777],[26,-26]],[[52,1419],[5,15]],[[1112,2861],[-3,-9]],[[1172,2941],[-25,-7],[-18,-16],[-11,-13],[-6,-33],[0,-9]],[[1113,2863],[5,42],[54,35]],[[1114,2855],[-1,7]],[[1194,2939],[68,-2]],[[1262,2937],[-68,3]],[[1272,2937],[5,1]],[[1278,2938],[55,5]],[[1330,2945],[-41,-1]],[[1267,2777],[7,-6]],[[596,2656],[-3,-1]],[[3849,2297],[2,-2]],[[1255,2793],[-4,4]],[[3164,2207],[12,-3]],[[1403,2456],[6,-15]],[[1410,2441],[-2,4]],[[1411,2435],[16,-23]],[[1429,2410],[-17,25]],[[1312,2636],[4,1]],[[1381,2521],[1,-2]],[[1412,2367],[-1,-1]],[[1411,2366],[1,0]],[[1439,2385],[-1,-1]],[[1438,2384],[1,1]],[[137,1418],[-65,49]],[[72,1467],[65,-49]],[[70,1375],[-1,1]],[[1496,3142],[-9,33]],[[1496,3142],[2,-8]],[[1498,3134],[-2,8]],[[1397,2358],[-2,-9]],[[1333,2611]],[[232,1602],[-84,-100]],[[150,1501],[84,100]],[[206,2166],[-18,74],[22,86]],[[209,2326],[-22,-87],[4,-26],[16,-50]],[[212,2149],[90,-386]],[[245,2412],[-21,-35],[-11,-34]],[[215,2342],[31,69]],[[302,1763],[-87,383]],[[269,2447],[-2,-3]],[[269,2444],[2,2]],[[291,2475],[14,18]],[[1268,2813],[-1,-16]],[[1268,2798],[0,13]],[[113,2469],[-34,-3]],[[79,2466],[34,3]],[[1166,3005],[-74,-1]],[[1092,3004],[73,1]],[[3210,2214],[3,0]],[[1169,3603],[1,-7]],[[1630,3700],[-66,-263]],[[1564,3437],[70,265]],[[1933,4023],[-11,-3],[-8,-4],[-62,-66],[-27,-54],[-94,-95],[-18,-37]],[[1713,3763],[18,37],[94,96],[89,120],[28,9],[9,4],[2,2]],[[1953,4031],[-8,-5]],[[1374,2539],[7,-18]],[[196,526],[-7,24]],[[196,526],[0,-2]],[[196,524],[0,2]],[[1321,2624],[3,-21]],[[1261,2777],[-14,-4]],[[1397,2358]],[[1403,2362],[-2,-2]],[[1320,2761],[-26,18]],[[1346,2732],[-6,10]],[[1437,2390],[-17,-81]],[[1420,2308],[18,25],[1,1],[1,8],[2,19],[-2,22],[-1,2]],[[1430,2408],[0,1]],[[1369,2551]],[[1271,2781],[-16,12]],[[1308,3019],[-16,-33],[-9,-25],[-5,-16]],[[1278,2934],[0,4]],[[1279,2945],[1,4]],[[1285,2964],[17,39]],[[1304,3007],[8,21]],[[3166,2796],[-7,-3]],[[1350,2682],[1,-18]],[[1129,2906],[-56,40]],[[1340,2601],[-7,10]],[[1073,2946],[-33,22]],[[1403,2456],[-21,65]],[[3428,2963],[-1,-1]],[[1401,2360],[-4,-2]],[[1397,2358],[10,5]],[[1407,2364],[-4,-2]],[[2887,2788],[-4,0]],[[1397,2561],[2,-4]],[[3832,2102],[15,-28]],[[1346,2732],[1,-11]],[[2535,2123],[-4,1]],[[2739,1828],[-43,44],[-27,127],[18,36],[-42,53],[-80,23]],[[1442,3146],[-43,-25]],[[1442,3145],[1,0]],[[1455,3156],[-1,-1]],[[2344,1250],[4,-6],[18,-30],[8,-12],[16,-29],[7,-34],[-53,110]],[[2576,778],[-64,99],[-94,225],[-9,14],[103,-239],[65,-100]],[[2603,751],[113,-175]],[[2716,576],[-112,175]],[[1245,2812],[3,-1]],[[1073,2945],[56,-39]],[[1278,2945],[0,-16]],[[1278,2938],[1,7]],[[1274,2771]],[[1276,2770],[32,-28]],[[1240,2263],[33,2]],[[1319,2734],[0,10]],[[1493,3209],[0,-2]],[[1369,2551],[0,1]],[[2105,3008],[3,-2]],[[2108,3006],[-3,2]],[[1289,2944],[-9,-5]],[[1263,2937],[28,8]],[[3965,3799]],[[1399,3121],[-5,-4]],[[1395,3116],[47,29]],[[1454,3155],[-12,-9]],[[1443,3145],[14,12]],[[1342,2921],[22,-46],[-4,-18],[13,-75],[9,-21],[66,-69]],[[1449,2693],[-75,88],[-10,95],[-21,45]],[[1398,2579],[25,24],[21,25],[9,62]],[[1452,2690],[-8,-61],[-45,-48]],[[273,3122],[26,26]],[[3948,3423],[-1,16]],[[3937,3526],[-1,-7]],[[3943,3498],[-7,21]],[[3937,3526],[7,79]],[[3944,3492],[-1,6]],[[3944,3605],[1,5]],[[3945,3610],[-1,-5]],[[3947,3439],[-3,53]],[[3947,3617],[-2,-4]],[[3946,3614],[1,3]],[[3947,3617],[33,41]],[[3963,3414],[-15,9]],[[3990,3666]],[[1488,3195],[-1,-8],[0,-12],[3,23]],[[645,2666],[-14,-3]],[[631,2661],[16,3]],[[1395,2349],[2,9]],[[1247,2773],[-79,-164],[-266,-300],[-25,-140],[148,-454],[1019,-1518],[242,-197]],[[1324,2710],[-5,24]],[[1498,3134],[4,-15]],[[1502,3119],[-4,15]],[[1502,3119],[12,-14]],[[1324,2603],[11,-22]],[[3808,2280],[41,17]],[[1274,2771],[2,-1]],[[1430,2408],[3,1]],[[1433,2409],[-1,0]],[[1471,2408],[-38,1]],[[1471,2408],[24,-1]],[[1495,2408],[-24,0]],[[1498,2408],[-2,0]],[[1496,2407],[2,1]],[[1498,2408],[6,0]],[[1504,2408],[2,-2],[1,1],[-1,0],[-2,1]],[[1495,2408],[0,-1],[1,1],[-1,0]],[[1303,3008],[-14,0]],[[3952,3414],[-7,-4]],[[3945,3409],[8,4]],[[1324,2603]],[[2532,2125],[-1,0]],[[2532,2125]],[[2532,2125],[30,0]],[[2563,2124],[40,18],[27,70]],[[1238,2320],[19,255],[37,120]],[[1319,2762],[1,-1]],[[4096,979],[0,-748],[-16,4],[-9,26],[14,40],[-103,60],[-18,7],[-14,42],[-33,28],[-40,9],[-20,-18],[-3,-17],[10,-33],[-107,181],[-14,43],[19,63],[5,39],[-13,17],[-31,12],[-17,31],[-11,35],[-12,28],[-259,352],[-98,67],[-56,16],[-240,19],[-163,95],[-133,37],[-118,-5],[-97,-62],[-72,-129],[-7,-75],[22,-64],[30,-64],[15,-70],[8,-24],[23,-11],[59,-5],[26,-8],[17,-20],[27,-49],[156,-226],[86,-95],[303,-167],[197,-48],[7,-23],[0,-34],[9,-38],[28,-47],[34,-32],[46,-20],[61,-6],[41,-13],[-23,-27],[-54,-28],[-54,-13],[-252,41],[-424,185],[-71,12],[-217,-37],[-33,-15],[15,42],[38,72],[8,45],[-9,31],[-43,60],[-9,24],[-23,93],[-51,66],[-55,56],[-31,59],[40,124],[15,146],[-18,136],[-57,96],[-117,67],[-64,25],[-108,26],[-50,30],[-48,22],[-50,-13],[-151,113],[-30,4],[-31,28],[-68,16],[-69,27],[-53,98],[-137,108],[-55,26],[-51,8],[-114,-8],[27,60],[-23,63],[-86,112],[9,3],[8,0],[4,4],[0,17],[-106,122],[-27,62],[64,27],[186,11],[99,20],[43,35],[19,34],[36,28],[23,39],[-18,69],[-71,45],[-19,7],[-12,12],[5,26],[17,43],[-46,97],[-67,53],[-80,10],[-85,-30],[21,-72],[-7,-59],[-24,-45],[-30,-35],[-46,-24],[-27,-20],[2,-8],[-59,0],[-25,8],[-25,20],[-58,-39],[-37,-48],[-10,-57],[23,-68],[-18,0],[-22,27],[0,-55],[-18,0],[0,28],[-21,0],[-12,-45],[-24,3],[-30,23],[-34,19],[-1,18],[-44,-2],[-46,-39],[-4,-46],[56,-32],[-27,-4],[-19,-9],[-11,-20],[-3,-37],[-12,-20],[-27,7],[-43,28],[-69,-2],[-36,-15],[-34,-35],[42,-39],[30,-54],[15,-61],[-7,-56],[35,-32],[29,-44],[34,-38],[53,-16],[8,-40],[-39,-89],[-79,-135],[-88,-264],[2,-44],[-112,-243],[-8,-87],[22,-64],[30,-64],[15,-87],[-11,-87],[7,-41],[34,-17],[13,-19],[37,-109],[152,-131],[27,-15],[16,-15],[69,-23],[16,-14],[6,-14],[27,2],[7,-16],[-3,-70],[2,-15],[1,-5],[25,-92],[-637,0],[0,4096],[4096,0],[0,-824],[-94,50],[-57,13],[-36,9],[-96,-11],[-160,-67],[-65,-43],[-62,-54],[-39,-62],[-16,-100],[25,-83],[52,-57],[67,-22],[42,-28],[49,-69],[42,-83],[17,-69],[19,-5],[100,-88],[39,-13],[46,-4],[44,4],[32,13],[19,-41],[32,-30],[0,-76],[-198,-25],[-44,-45],[-12,-74],[22,-101],[121,-183],[29,-28],[82,-41],[0,-107],[-62,-9],[-107,29],[-43,-3],[-149,-74],[-66,-13],[-85,37],[-9,-21],[-19,-33],[-12,2],[-50,-72],[-17,-66],[6,-62],[46,-122],[14,-22],[21,-24],[99,-67],[20,-62],[41,-49],[42,-25],[19,6],[199,-95],[36,13],[48,-19],[28,-22]],[[215,1612],[80,154],[58,-27],[-99,-150],[-39,23]],[[1164,3250],[72,86],[-2,32],[101,27],[28,84],[-17,36],[149,21],[75,133],[145,75],[-12,111],[24,27],[14,115],[60,31],[-7,68],[102,0],[70,-79],[88,11],[-21,-149],[26,-81],[41,-36],[-11,-35],[29,-59],[234,-145],[284,-11],[-34,-66],[38,-81],[4,-135],[126,-105],[80,-5],[63,44],[106,-105],[83,5],[81,65],[95,30],[9,-57],[-22,-23],[42,-128],[87,7],[14,-30],[71,14],[-4,-21],[-85,-10],[66,-37],[-20,-24],[-23,-32],[34,-85],[-45,-121],[137,-156],[-74,-24],[-68,-63],[-115,7],[-51,-70],[-27,-119],[-74,-13],[-36,-55],[-87,10],[-36,-29],[-197,101],[-45,-40],[-67,53],[-77,-5],[-114,45],[-80,-12],[-83,-98],[-113,124],[-106,-26],[8,58],[-90,120],[-9,82],[-214,109],[-31,142],[-50,22],[-49,-24],[-130,99],[-3,90],[-161,225],[-196,85]],[[145,1324],[-145,0],[0,119],[53,88],[80,-65],[12,-142]],[[628,2628],[-62,15],[-65,85],[32,43],[195,-1],[-9,-76],[-37,-48],[-54,-18]],[[1019,3323],[63,-28],[171,6],[154,-63],[32,-85],[65,0],[0,-85],[129,-213],[33,0],[32,-170],[58,13],[61,64],[43,-34],[0,-52],[-64,-76],[-33,-127],[-65,0],[-65,-86],[-97,-42],[-116,-115],[-304,-13],[-27,-46],[27,-39],[-53,-42],[-126,177],[64,27],[285,31],[121,136],[-18,69],[-102,64],[22,69],[-46,97],[-67,53],[-80,10],[-85,-30],[21,-72],[-20,-84],[-99,86],[-12,89],[-64,1],[-35,117],[-94,88],[64,263],[47,-44],[18,-84],[-32,-42],[32,-43],[162,0],[97,-85],[97,42],[-170,192],[-24,106]],[[2378,1495],[67,-8],[83,-135],[-51,-80],[-150,-25],[-170,88],[186,220],[35,-18],[0,-42]],[[344,1513],[-25,-77],[-82,59],[-60,-1],[65,86],[48,-1],[54,-66]],[[1296,2346],[84,45],[55,-57],[-56,-54],[-83,66]],[[2815,300],[6,61],[29,9],[133,-42],[7,-54],[-175,26]],[[0,739],[10,-25],[-9,-41],[-1,0],[0,66]],[[2543,832],[124,-7],[42,-89],[-117,16],[-49,80]],[[2515,439],[98,4],[21,51],[29,-3],[20,-105],[-37,-35],[-52,6],[-79,82]],[[3230,1902],[30,47],[-8,104],[29,42],[29,0],[29,-66],[-40,-22],[15,-56],[-48,-61],[53,-13],[-22,-76],[-35,32],[-23,-18],[16,70],[-25,17]],[[277,1630],[61,45],[36,115],[95,-43],[-2,-44],[-83,-122],[-107,49]],[[1114,1778],[52,113],[86,-78],[-7,-25],[-102,-28],[-29,18]],[[1917,1751],[15,135],[54,44],[68,-191],[-96,-105],[-33,26],[-8,91]],[[2696,1881],[7,72],[95,19],[40,-25],[9,30],[148,-120],[-41,-57],[-125,-58],[-59,39],[25,29],[-45,8],[-54,63]],[[0,154],[92,-78],[-92,-54],[8,41],[-8,91]],[[3184,56],[46,111],[127,8],[1,-154],[-174,35]],[[2,185],[40,120],[27,9],[29,-31],[28,20],[117,-15],[-21,-69],[-63,-46],[-67,-10],[-1,-20],[-79,15],[-10,27]],[[1696,2971],[0,64],[28,15],[162,9],[63,-40],[88,4],[42,-82],[-32,-68],[-85,-37],[-67,27],[-29,42],[-38,-14],[-107,31],[-25,49]],[[2326,3086],[76,72],[-29,-113],[16,-48],[-50,-10],[-13,99]],[[4096,2411],[0,-65],[-69,-17],[-145,1],[-12,44],[19,101],[48,16],[84,-31],[21,23],[28,-19],[-8,-33],[34,-20]],[[3489,2537],[74,28],[31,38],[128,-134],[35,10],[17,-47],[71,-26],[9,-32],[-17,-15],[-115,58],[-99,-16],[-107,75],[-27,61]],[[2075,2469],[60,61],[94,-46],[44,9],[16,-69],[42,3],[25,-35],[-4,-41],[-67,-17],[-47,48],[-114,36],[-49,51]],[[1739,2532],[22,62],[-20,30],[26,9],[108,-59],[-21,-47],[22,-6],[3,-45],[-140,56]],[[856,3592],[24,28],[42,-7],[49,-136],[-79,24],[-36,91]],[[3288,3267],[16,82],[95,-42],[-77,42],[46,121],[57,10],[30,-6],[60,-79],[84,10],[14,-45],[-20,-27],[15,0],[58,-63],[-106,-27],[-12,15],[-29,-47],[-68,-31],[-102,9],[-61,78]],[[3399,3307],[67,43],[-1,1],[-66,-44]],[[3472,3348],[33,-19],[20,1],[-53,18]],[[2707,3354],[28,29],[108,5],[36,-45],[-3,-60],[-12,-17],[-42,13],[5,77],[-101,-32],[-19,30]],[[2545,3334],[35,70],[34,-6],[33,29],[59,-60],[-47,-126],[-51,-12],[-40,0],[-18,28],[-5,77]],[[1714,3314],[27,98],[53,24],[1,41],[69,-1],[3,-22],[71,-29],[-125,-46],[-71,-87],[-28,22]],[[4096,3638],[0,-60],[-69,-4],[-84,36],[43,55],[60,14],[42,-20],[8,-21]],[[2779,3882],[10,85],[41,20],[237,-117],[3,-58],[-48,-11],[-100,47],[-35,-7],[-24,44],[-21,-40],[-63,37]],[[3765,3439],[27,51],[-5,61],[70,0],[-19,-52],[43,-68],[-116,8]],[[2746,3517],[53,42],[68,130],[32,-54],[47,-20],[37,26],[53,-14],[30,71],[49,5],[-8,-81],[-61,-72],[-37,16],[-62,-43],[-88,30],[-27,-27],[-86,-9]],[[2500,3785],[53,71],[14,-31],[-17,-20],[38,-61],[68,36],[-100,-95],[0,-73],[-46,53],[-10,120]],[[2229,3895],[8,50],[66,43],[86,-20],[14,-32],[34,27],[-11,-98],[67,-29],[7,-51],[-124,-189],[-67,81],[-38,-8],[-29,76],[25,140],[-38,10]],[[4096,4068],[0,-90],[-67,14],[-19,29],[67,53],[19,-6]],[[1051,4096],[-17,-45],[-50,45],[67,0]],[[84,2054],[30,70],[76,26],[25,-15],[-6,-119],[40,-34],[8,-59],[-173,131]],[[3503,2141],[63,55],[24,-27],[-27,88],[42,49],[103,-173],[132,-33],[13,-47],[-66,-73],[-94,-36],[-141,182],[-33,-8],[-16,23]],[[2996,2270],[59,11],[78,-25],[17,-79],[-36,-13],[-16,-41],[-93,3],[14,118],[-23,26]],[[2389,2049],[41,24],[-19,40],[152,12],[25,-160],[-147,50],[-26,-29],[-26,63]],[[194,2253],[130,26],[-67,40],[-15,48],[-20,-13],[28,64],[3,0],[-2,1],[12,26],[53,-8],[100,-102],[52,26],[34,4],[-58,-39],[9,-77],[58,-38],[-72,-27],[37,-39],[-25,8],[12,-22],[-52,64],[36,-57],[-44,25],[-26,-15],[-27,39],[-18,-38],[-55,12],[-36,-48],[-33,42],[-14,98]],[[277,2405],[65,-101],[-43,90],[-22,11]],[[529,2365],[63,36],[1,254],[54,13],[24,-261],[31,10],[7,82],[94,40],[54,-23],[189,102],[-64,-67],[-235,-114],[10,-155],[-114,-28],[-93,57],[-21,54]],[[0,653],[44,-78],[-1,-53],[73,-71],[-7,-19],[-109,-20],[0,241]],[[4096,946],[0,-263],[-33,-35],[16,-89],[-22,-150],[-105,-7],[-69,155],[-85,36],[-6,94],[62,25],[10,49],[-32,69],[53,87],[-147,46],[18,58],[-17,26],[94,-16],[13,17],[171,-98],[67,6],[12,-10]],[[2466,2874],[46,138],[481,-21],[254,-132],[4,24],[44,-10],[41,50],[142,11],[12,-43],[-96,18],[15,-42],[-61,10],[6,-46],[-87,-10],[-25,31],[-179,-103],[-105,8],[-322,106],[-170,11]]]}