{"objects":{"water":{"type":"GeometryCollection","geometries":[]},"buildings":{"type":"GeometryCollection","geometries":[]},"places":{"type":"GeometryCollection","geometries":[{"type":"Point","properties":{"name:ja":"\u30e9\u30b6\u30f4\u30a3\u30fc\u30fb\u30db\u30e9\u30fc\u30b5\u30fc\u30f3","min_zoom":4.0,"name:uk":"\u0425\u043e\u0440\u0430\u0441\u0430\u043d-\u0420\u0435\u0437\u0430\u0432\u0456","name:ru":"\u0425\u043e\u0440\u0430\u0441\u0430\u043d-\u0420\u0435\u0437\u0430\u0432\u0438","name:pl":"Chorasan-e Rezawi","name:hu":"Razavi Hor\u00e1sz\u00e1n","name:hr":"Razavi Horasan","id":475731866,"kind":"region","name:en":"Razavi Khorasan","name":"\u062e\u0631\u0627\u0633\u0627\u0646 \u0631\u0636\u0648\u06cc","kind_detail":"state","name:ku":"Xorasana Rezew\u00ee","name:de":"Razavi-Chorasan","source":"openstreetmap.org","name:fr":"Khorasan-e-Razavi"},"coordinates":[1900,1990]},{"type":"Point","properties":{"name:pt":"Meshed","int_name":"Mashhad","name:tr":"Me\u015fhed","name:cs":"Ma\u0161had","min_zoom":8.0,"name:ko":"\ub9c8\uc288\ud558\ub4dc","name:ru":"\u041c\u0435\u0448\u0445\u0435\u0434","name:pl":"Meszhed","id":26038568,"name:lv":"Me\u0161heda","kind_detail":"city","name:de":"Maschhad","source":"openstreetmap.org","name:fr":"Mashhad","name:zh":"\u99ac\u4ec0\u54c8\u5fb7","admin_level":"8","name:sk":"Ma\u0161had","name:ja":"\u30de\u30b7\u30e5\u30cf\u30c9","name:lt":"Me\u0161hedas","name:hi":"\u092e\u093e\u0936\u0939\u093e\u0926","name:he":"\u05de\u05e9\u05d4\u05d3","kind":"locality","name:uk":"\u041c\u0435\u0448\u0445\u0435\u0434","name:sv":"Mashhad","population":3312090,"name:eo":"Ma\u015dhado","name:en":"Mashhad","name":"\u0645\u0634\u0647\u062f","name:ku":"Me\u015fhed","name:fi":"Ma\u0161had","name:et":"Mashhad","name:es":"Mashhad"},"coordinates":[1583,3014]},{"type":"Point","properties":{"kind":"locality","name:en":"Fariman","name":"\u0641\u0631\u06cc\u0645\u0627\u0646","kind_detail":"town","source":"openstreetmap.org","min_zoom":8.0,"name:ru":"\u0424\u0435\u0440\u0438\u043c\u0430\u043d","population":37500,"id":301435357,"name:ja":"\u30d5\u30a1\u30ea\u30fc\u30de\u30fc\u30f3"},"coordinates":[2296,881]},{"type":"Point","properties":{"kind":"locality","name:en":"Torghabeh","name":"\u0637\u0631\u0642\u0628\u0647","kind_detail":"town","source":"openstreetmap.org","min_zoom":8.0,"alt_name:en":"Torghabeh","population":18000,"id":283421516,"name:ja":"\u30c8\u30eb\u30ac\u30d9"},"coordinates":[908,3058]},{"type":"Point","properties":{"kind":"locality","name:en":"Shandiz","name":"\u0634\u0627\u0646\u062f\u06cc\u0632","kind_detail":"town","source":"openstreetmap.org","min_zoom":8.0,"name:ru":"\u0428\u0430\u043d\u0434\u0438\u0437","population":11000,"id":668711965,"name:ja":"\u30b7\u30e3\u30fc\u30f3\u30c7\u30a3\u30fc\u30ba"},"coordinates":[688,3368]},{"type":"Point","properties":{"kind":"locality","name:en":"Golmakan","name":"\u06af\u0644\u0645\u06a9\u0627\u0646","kind_detail":"town","source":"openstreetmap.org","min_zoom":8.0,"id":1126902490,"population":10000},"coordinates":[283,3678]},{"type":"Point","properties":{"kind":"locality","name:en":"Farhad Gerd","name":"\u0641\u0631\u0647\u0627\u062f\u06af\u0631\u062f","kind_detail":"town","source":"openstreetmap.org","min_zoom":8.0,"population":8500,"id":835139205,"name:ja":"\u30d5\u30a1\u30eb\u30cf\u30fc\u30c9\u30b2\u30eb\u30c9"},"coordinates":[1954,1101]},{"type":"Point","properties":{"kind":"locality","name:en":"Darrud","name":"\u062f\u0631\u0631\u0648\u062f","kind_detail":"town","source":"openstreetmap.org","min_zoom":8.0,"name:ru":"\u0414\u0435\u0440\u0440\u0443\u0434","population":6000,"id":835139255,"name:ja":"\u30c0\u30eb\u30eb\u30fc\u30c9"},"coordinates":[158,2442]},{"type":"Point","properties":{"kind":"locality","name:en":"Qalandarabad","name":"\u0642\u0644\u0646\u062f\u0631 \u0622\u0628\u0627\u062f","kind_detail":"town","source":"openstreetmap.org","min_zoom":8.0,"name:ru":"\u041a\u0430\u043b\u0435\u043d\u0434\u0435\u0440\u0430\u0431\u0430\u0434","population":5500,"id":835139251,"name:ja":"\u30ac\u30e9\u30f3\u30c0\u30e9\u30fc\u30d0\u30fc\u30c9"},"coordinates":[2585,500]},{"type":"Point","properties":{"kind":"locality","name:en":"Razaviyeh","name":"\u0631\u0636\u0648\u06cc\u0647","kind_detail":"town","source":"openstreetmap.org","min_zoom":8.0,"population":5000,"id":835139172,"name:ja":"\u30e9\u30b6\u30f4\u30a3\u30fc\u30a4\u30a7"},"coordinates":[2060,2686]},{"type":"Point","properties":{"kind":"locality","name:en":"Robat Sang","name":"\u0631\u0628\u0627\u0637 \u0633\u0646\u06af","kind_detail":"town","source":"openstreetmap.org","min_zoom":8.0,"population":2000,"id":679220398,"name:ja":"\u30ed\u30d0\u30fc\u30c6\u30fb\u30b5\u30f3\u30b0"},"coordinates":[382,308]},{"type":"Point","properties":{"kind":"locality","name:en":"Molkabad","name":"\u0645\u0644\u06a9 \u0622\u0628\u0627\u062f","kind_detail":"town","source":"openstreetmap.org","min_zoom":8.0,"id":835139217,"population":1500},"coordinates":[1540,1940]}]},"transit":{"type":"GeometryCollection","geometries":[{"type":"MultiLineString","properties":{"kind":"train","name:en":"Tehran-Mashhad Railway","network":"\u0634\u0631\u0642","sort_rank":275,"source":"openstreetmap.org","min_zoom":6.0,"osm_relation":true,"name":"\u0631\u0627\u0647 \u0622\u0647\u0646 \u062a\u0647\u0631\u0627\u0646-\u0645\u0634\u0647\u062f"},"arcs":[[0],[1],[2],[3],[4],[5],[6],[7],[8],[9],[10],[11],[12],[13],[14],[15],[16],[17],[18],[19],[20],[21],[22],[23]]},{"type":"MultiLineString","properties":{"kind":"subway","colour_name":"olivedrab","sort_rank":275,"colour":"#66CC00","source":"openstreetmap.org","min_zoom":8.0,"ref":"2","osm_relation":true},"arcs":[[24],[25],[26],[27],[28],[29],[30],[31],[32],[33],[34],[35],[36],[37],[38],[39],[40],[41],[42]]},{"type":"LineString","properties":{"kind":"train","network":"\u0634\u0631\u0642","sort_rank":275,"source":"openstreetmap.org","min_zoom":6.0,"id":-7369740,"osm_relation":true,"name":"\u0631\u0627\u0647 \u0622\u0647\u0646 \u0645\u0634\u0647\u062f"},"arcs":[43]}]},"pois":{"type":"GeometryCollection","geometries":[]},"boundaries":{"type":"GeometryCollection","geometries":[]},"roads":{"type":"GeometryCollection","geometries":[{"type":"MultiLineString","properties":{"bus_network":null,"name:en":"Misagh Expressway","sort_rank":381,"landuse_kind":"urban_area","kind":"major_road","source":"openstreetmap.org","min_zoom":8.0,"bus_shield_text":"EXP-4","kind_detail":"trunk"},"arcs":[[44],[45]]},{"type":"LineString","properties":{"kind":"major_road","name:en":"Kooshesh Blvd.","sort_rank":380,"landuse_kind":"residential","source":"openstreetmap.org","min_zoom":8.0,"kind_detail":"primary","id":389581480},"arcs":[46]},{"type":"MultiLineString","properties":{"bus_network":null,"name:en":"Toos boulevard","sort_rank":380,"kind_detail":"primary","kind":"major_road","source":"openstreetmap.org","min_zoom":8.0,"bus_shield_text":"22","landuse_kind":"residential"},"arcs":[[47],[48]]},{"type":"MultiLineString","properties":{"bus_network":null,"name:en":"Malek Abad Blvd.","sort_rank":380,"kind_detail":"primary","kind":"major_road","source":"openstreetmap.org","min_zoom":8.0,"bus_shield_text":"38\/1","landuse_kind":"urban_area"},"arcs":[[49],[50]]},{"type":"MultiLineString","properties":{"kind":"major_road","network":"ir:national","sort_rank":381,"kind_detail":"trunk","source":"openstreetmap.org","min_zoom":8.0,"shield_text":"44","ref":"44"},"arcs":[[51],[52],[53],[54],[55],[56],[57],[58],[59],[60],[61],[62],[63]]},{"type":"LineString","properties":{"kind":"major_road","name:en":"Esteghlal Square","sort_rank":380,"landuse_kind":"residential","source":"openstreetmap.org","min_zoom":8.0,"kind_detail":"primary","id":381812635},"arcs":[64]},{"type":"LineString","properties":{"kind":"major_road","name:en":"Esteghlal Square","sort_rank":380,"kind_detail":"primary","bus_network":null,"source":"openstreetmap.org","min_zoom":8.0,"bus_shield_text":"202","landuse_kind":"residential","id":381812631},"arcs":[65]},{"type":"MultiLineString","properties":{"bus_network":null,"name:en":"Namayeshgah Expressway","sort_rank":381,"landuse_kind":"urban_area","kind":"major_road","source":"openstreetmap.org","min_zoom":8.0,"bus_shield_text":"EXP-4","kind_detail":"trunk"},"arcs":[[66],[67]]},{"type":"MultiLineString","properties":{"bus_network":null,"name:en":"Tabarsi","sort_rank":380,"kind_detail":"primary","kind":"major_road","source":"openstreetmap.org","min_zoom":8.0,"bus_shield_text":"BRT-1","landuse_kind":"residential"},"arcs":[[68],[69],[70],[71]]},{"type":"MultiLineString","properties":{"kind":"major_road","network":"ir:national","sort_rank":381,"kind_detail":"trunk","source":"openstreetmap.org","min_zoom":8.0,"shield_text":"97","ref":"97"},"arcs":[[72],[73],[74],[75],[76],[77],[78],[79],[80],[81],[82],[83],[84],[85],[86],[87],[88]]},{"type":"LineString","properties":{"kind":"major_road","name:en":"Vakil Abad Expressway","sort_rank":381,"kind_detail":"trunk","bus_network":null,"source":"openstreetmap.org","min_zoom":8.0,"bus_shield_text":"100","landuse_kind":"urban_area","id":386296780},"arcs":[89]},{"type":"MultiLineString","properties":{"bus_network":null,"name:en":"Tabarsi Square","sort_rank":380,"kind_detail":"primary","kind":"major_road","source":"openstreetmap.org","min_zoom":8.0,"bus_shield_text":"BRT-1","landuse_kind":"residential"},"arcs":[[90],[91]]},{"type":"LineString","properties":{"kind":"major_road","name:en":"Toos boulevard","sort_rank":380,"landuse_kind":"residential","source":"openstreetmap.org","min_zoom":8.0,"kind_detail":"primary","id":389504648},"arcs":[92]},{"type":"MultiLineString","properties":{"bus_network":null,"name:en":"Khayam Square","sort_rank":380,"landuse_kind":"urban_area","kind":"major_road","source":"openstreetmap.org","min_zoom":8.0,"bus_shield_text":"21","kind_detail":"primary"},"arcs":[[93],[94]]},{"type":"MultiLineString","properties":{"bus_network":null,"name:en":"Imam Khomeini Boulevard","sort_rank":380,"kind_detail":"primary","kind":"major_road","source":"openstreetmap.org","min_zoom":8.0,"bus_shield_text":"EXP-2","landuse_kind":"urban_area"},"arcs":[[95],[96]]},{"type":"MultiLineString","properties":{"bus_network":null,"name:en":"Shahid Babanazar Expressway","network":"ir:national","sort_rank":381,"landuse_kind":"urban_area","kind":"major_road","source":"openstreetmap.org","min_zoom":8.0,"bus_shield_text":"EXP-3","shield_text":"22","kind_detail":"trunk"},"arcs":[[97],[98]]},{"type":"MultiLineString","properties":{"source":"openstreetmap.org","kind":"major_road","name:en":"Daneshgah Street","landuse_kind":"residential","sort_rank":380,"kind_detail":"primary","min_zoom":8.0},"arcs":[[99],[100]]},{"type":"MultiLineString","properties":{"source":"openstreetmap.org","kind":"major_road","name:en":"Emam Reza boulevard","landuse_kind":"urban_area","sort_rank":380,"kind_detail":"primary","min_zoom":8.0},"arcs":[[101],[102]]},{"type":"LineString","properties":{"kind":"major_road","name:en":"Honarestan Square","sort_rank":380,"kind_detail":"primary","bus_network":null,"source":"openstreetmap.org","min_zoom":8.0,"bus_shield_text":"EXP-4","landuse_kind":"residential","id":24351147},"arcs":[103]},{"type":"MultiLineString","properties":{"bus_network":null,"name:en":"Mosalla Boulevard","sort_rank":380,"kind_detail":"primary","kind":"major_road","source":"openstreetmap.org","min_zoom":8.0,"bus_shield_text":"32","landuse_kind":"residential"},"arcs":[[104],[105]]},{"type":"LineString","properties":{"kind":"major_road","name:en":"Vakil Abad Expressway","sort_rank":381,"kind_detail":"trunk","bus_network":null,"source":"openstreetmap.org","min_zoom":8.0,"bus_shield_text":"98\/1","landuse_kind":"urban_area","id":386678091},"arcs":[106]},{"type":"MultiLineString","properties":{"bus_network":null,"name:en":"Imam Hosein Square","sort_rank":380,"kind_detail":"primary","kind":"major_road","source":"openstreetmap.org","min_zoom":8.0,"bus_shield_text":"EXP-3","landuse_kind":"urban_area"},"arcs":[[107],[108]]},{"type":"MultiLineString","properties":{"source":"openstreetmap.org","kind":"major_road","name:en":"Moallem Boulevard","landuse_kind":"urban_area","sort_rank":380,"kind_detail":"primary","min_zoom":8.0},"arcs":[[109],[110]]},{"type":"MultiLineString","properties":{"bus_network":null,"name:en":"Moallem Boulevard","sort_rank":380,"kind_detail":"primary","kind":"major_road","source":"openstreetmap.org","min_zoom":8.0,"bus_shield_text":"12\/1","landuse_kind":"residential"},"arcs":[[111],[112],[113],[114],[115]]},{"type":"LineString","properties":{"bus_network":null,"sort_rank":380,"kind_detail":"primary","kind":"major_road","source":"openstreetmap.org","min_zoom":8.0,"bus_shield_text":"32","landuse_kind":"residential"},"arcs":[116]},{"type":"MultiLineString","properties":{"bus_network":null,"name:en":"Azadi Expressway","network":"ir:national","sort_rank":381,"landuse_kind":"residential","is_bicycle_related":true,"kind":"major_road","source":"openstreetmap.org","min_zoom":8.0,"bus_shield_text":"202","shield_text":"22","kind_detail":"trunk","ref":"22"},"arcs":[[117],[118],[119],[120]]},{"type":"LineString","properties":{"bus_network":null,"name:en":"Azadi Square","sort_rank":381,"landuse_kind":"urban_area","kind":"major_road","source":"openstreetmap.org","min_zoom":8.0,"bus_shield_text":"38\/1","kind_detail":"trunk"},"arcs":[121]},{"type":"LineString","properties":{"kind":"major_road","name:en":"Ayatollah Ebadi Street","sort_rank":380,"kind_detail":"primary","bus_shield_text":"37","bus_network":null,"source":"openstreetmap.org","min_zoom":8.0,"old_name":"\u062e\u06cc\u0627\u0628\u0627\u0646 \u062e\u0648\u0627\u062c\u0647 \u0631\u0628\u06cc\u0639","landuse_kind":"residential","id":371495571},"arcs":[122]},{"type":"LineString","properties":{"kind":"major_road","name:en":"Shahid-e Javan Square","sort_rank":380,"landuse_kind":"urban_area","source":"openstreetmap.org","min_zoom":8.0,"kind_detail":"primary","id":52738464},"arcs":[123]},{"type":"LineString","properties":{"kind":"major_road","network":"ir:national","sort_rank":381,"landuse_kind":"urban_area","source":"openstreetmap.org","min_zoom":8.0,"kind_detail":"trunk","shield_text":"44"},"arcs":[124]},{"type":"MultiLineString","properties":{"bus_network":null,"name:en":"Fajr Square","sort_rank":380,"kind_detail":"primary","kind":"major_road","source":"openstreetmap.org","min_zoom":8.0,"bus_shield_text":"BRT-1","landuse_kind":"urban_area"},"arcs":[[125],[126]]},{"type":"MultiLineString","properties":{"source":"openstreetmap.org","kind":"major_road","name:en":"Abdol Mottaleb Boulevard","landuse_kind":"residential","sort_rank":380,"kind_detail":"primary","min_zoom":8.0},"arcs":[[127],[128],[129]]},{"type":"MultiLineString","properties":{"source":"openstreetmap.org","kind":"major_road","name:en":"Hashemieh bridge","landuse_kind":"residential","sort_rank":380,"kind_detail":"primary","min_zoom":8.0},"arcs":[[130],[131]]},{"type":"MultiLineString","properties":{"bus_network":null,"name:en":"Shahid Hasheminejad","sort_rank":380,"kind_detail":"primary","kind":"major_road","source":"openstreetmap.org","min_zoom":8.0,"bus_shield_text":"38\/1","landuse_kind":"residential"},"arcs":[[132],[133],[134]]},{"type":"MultiLineString","properties":{"kind":"highway","network":"ir:freeways","sort_rank":383,"landuse_kind":"urban_area","source":"openstreetmap.org","min_zoom":8.0,"all_networks":["ir:freeways"],"kind_detail":"motorway","shield_text":"2","ref":"2","all_shield_texts":["2"]},"arcs":[[135],[136]]},{"type":"LineString","properties":{"kind":"major_road","name:en":"Farhang Square","sort_rank":380,"kind_detail":"primary","bus_network":null,"source":"openstreetmap.org","min_zoom":8.0,"bus_shield_text":"98\/1","landuse_kind":"residential","id":23992803},"arcs":[137]},{"type":"LineString","properties":{"kind":"major_road","name:en":"Seyed Razi Boulevard","sort_rank":380,"kind_detail":"primary","bus_network":null,"source":"openstreetmap.org","min_zoom":8.0,"bus_shield_text":"98\/1","landuse_kind":"residential","id":23992766},"arcs":[138]},{"type":"MultiLineString","properties":{"source":"openstreetmap.org","kind":"major_road","name:en":"Shahid Kaveh boulevard","landuse_kind":"urban_area","sort_rank":380,"kind_detail":"primary","min_zoom":8.0},"arcs":[[139],[140],[141],[142],[143]]},{"type":"MultiLineString","properties":{"bus_network":null,"name:en":"Mosalla Boulevard","sort_rank":380,"kind_detail":"primary","kind":"major_road","source":"openstreetmap.org","min_zoom":8.0,"bus_shield_text":"100","landuse_kind":"urban_area"},"arcs":[[144],[145]]},{"type":"LineString","properties":{"kind":"major_road","name:en":"Sayad Shirazi Square","sort_rank":380,"landuse_kind":"residential","source":"openstreetmap.org","min_zoom":8.0,"kind_detail":"primary","id":35718741},"arcs":[146]},{"type":"MultiLineString","properties":{"kind":"major_road","name:en":"Bozorgrah-e-Mashad-Quchan","network":"ir:national","sort_rank":381,"kind_detail":"trunk","source":"openstreetmap.org","min_zoom":8.0,"shield_text":"22","ref":"22"},"arcs":[[147],[148]]},{"type":"MultiLineString","properties":{"source":"openstreetmap.org","kind":"major_road","name:en":"Vahdat Boulevard","landuse_kind":"residential","sort_rank":380,"kind_detail":"primary","min_zoom":8.0},"arcs":[[149],[150]]},{"type":"MultiLineString","properties":{"sort_rank":380,"kind_detail":"primary","min_zoom":8.0,"kind":"major_road","source":"openstreetmap.org"},"arcs":[[151],[152],[153],[154],[155],[156],[157],[158],[159],[160],[161],[162],[163],[164]]},{"type":"MultiLineString","properties":{"bus_network":null,"name:en":"Toos boulevard","sort_rank":380,"kind_detail":"primary","kind":"major_road","source":"openstreetmap.org","min_zoom":8.0,"bus_shield_text":"22","landuse_kind":"urban_area"},"arcs":[[165],[166],[167]]},{"type":"MultiLineString","properties":{"source":"openstreetmap.org","kind":"major_road","name:en":"Shahid Kamyab boulevard","landuse_kind":"residential","sort_rank":380,"kind_detail":"primary","min_zoom":8.0},"arcs":[[168],[169]]},{"type":"MultiLineString","properties":{"bus_network":null,"name:en":"Shahid Boronsi Boulevard","sort_rank":381,"landuse_kind":"urban_area","kind":"major_road","source":"openstreetmap.org","min_zoom":8.0,"bus_shield_text":"EXP-4","kind_detail":"trunk"},"arcs":[[170],[171]]},{"type":"MultiLineString","properties":{"kind":"major_road","network":"ir:national","sort_rank":381,"kind_detail":"trunk","source":"openstreetmap.org","min_zoom":8.0,"shield_text":"22","ref":"22"},"arcs":[[172],[173]]},{"type":"MultiLineString","properties":{"bus_network":null,"name:en":"Khaje Rabi Boulevard","sort_rank":380,"kind_detail":"primary","kind":"major_road","source":"openstreetmap.org","min_zoom":8.0,"bus_shield_text":"EXP-2","landuse_kind":"urban_area"},"arcs":[[174],[175]]},{"type":"LineString","properties":{"source":"openstreetmap.org","kind":"major_road","name:en":"Shahid Hasheminejad","landuse_kind":"residential","sort_rank":380,"kind_detail":"primary","min_zoom":8.0},"arcs":[176]},{"type":"MultiLineString","properties":{"kind":"highway","network":"AsianHighway","sort_rank":383,"kind_detail":"motorway","source":"openstreetmap.org","min_zoom":8.0,"all_networks":["AsianHighway","ir:freeways"],"shield_text":"75","ref":"2","all_shield_texts":["75","2"]},"arcs":[[177],[178]]},{"type":"LineString","properties":{"kind":"major_road","name:en":"Hor Square","sort_rank":380,"kind_detail":"primary","bus_network":null,"source":"openstreetmap.org","min_zoom":8.0,"bus_shield_text":"EXP-4","landuse_kind":"residential","id":24351062},"arcs":[179]},{"type":"MultiLineString","properties":{"kind":"major_road","name:en":"Beit-ol-Moqadas Square","sort_rank":380,"kind_detail":"primary","source":"openstreetmap.org","min_zoom":8.0,"old_name:fa":"\u0641\u0644\u06a9\u0647 \u0622\u0628","landuse_kind":"residential"},"arcs":[[180],[181]]},{"type":"MultiLineString","properties":{"bus_network":null,"name:en":"Shahid Hasheminejad","sort_rank":380,"kind_detail":"primary","kind":"major_road","source":"openstreetmap.org","min_zoom":8.0,"bus_shield_text":"38\/1","landuse_kind":"urban_area"},"arcs":[[182],[183]]},{"type":"MultiLineString","properties":{"kind":"major_road","name:en":"Hor Boulevard","sort_rank":380,"kind_detail":"primary","source":"openstreetmap.org","min_zoom":8.0,"landuse_kind":"urban_area","ref":"22"},"arcs":[[184],[185]]},{"type":"MultiLineString","properties":{"kind":"major_road","network":"ir:national","sort_rank":381,"landuse_kind":"urban_area","source":"openstreetmap.org","min_zoom":8.0,"kind_detail":"trunk","shield_text":"95","ref":"95"},"arcs":[[186],[187],[188],[189],[190],[191],[192],[193]]},{"type":"MultiLineString","properties":{"bus_network":null,"name:en":"Khayam Boulevard","sort_rank":380,"kind_detail":"primary","kind":"major_road","source":"openstreetmap.org","min_zoom":8.0,"bus_shield_text":"80","landuse_kind":"residential"},"arcs":[[194],[195]]},{"type":"MultiLineString","properties":{"source":"openstreetmap.org","kind":"major_road","name:en":"Sayad Shirazi Boulevard","landuse_kind":"residential","sort_rank":380,"kind_detail":"primary","min_zoom":8.0},"arcs":[[196],[197]]},{"type":"MultiLineString","properties":{"bus_network":null,"name:en":"Imam Hosein Square","sort_rank":380,"kind_detail":"primary","kind":"major_road","source":"openstreetmap.org","min_zoom":8.0,"bus_shield_text":"EXP-2","landuse_kind":"urban_area"},"arcs":[[198],[199]]},{"type":"MultiLineString","properties":{"bus_network":null,"name:en":"Misagh Expressway","sort_rank":381,"kind_detail":"trunk","kind":"major_road","source":"openstreetmap.org","min_zoom":8.0,"bus_shield_text":"17","landuse_kind":"residential"},"arcs":[[200],[201]]},{"type":"MultiLineString","properties":{"kind":"highway","network":"ir:freeways","sort_rank":383,"kind_detail":"motorway","source":"openstreetmap.org","min_zoom":8.0,"all_networks":["ir:freeways"],"shield_text":"2","ref":"2","all_shield_texts":["2"]},"arcs":[[202],[203]]},{"type":"MultiLineString","properties":{"kind":"major_road","name:en":"Mashhad-Quchan Expressway","network":"ir:national","sort_rank":381,"landuse_kind":"urban_area","source":"openstreetmap.org","min_zoom":8.0,"kind_detail":"trunk","shield_text":"22","ref":"22"},"arcs":[[204],[205],[206]]},{"type":"MultiLineString","properties":{"source":"openstreetmap.org","kind":"major_road","name:en":"Imam Ali Expressway","kind_detail":"trunk","sort_rank":381,"landuse_kind":"urban_area","min_zoom":8.0},"arcs":[[207],[208],[209],[210],[211],[212],[213]]},{"type":"MultiLineString","properties":{"source":"openstreetmap.org","kind":"major_road","name:en":"Jomhoori Eslami bridge","kind_detail":"trunk","sort_rank":381,"landuse_kind":"urban_area","min_zoom":8.0},"arcs":[[214],[215]]},{"type":"LineString","properties":{"kind":"major_road","name:en":"Shahid Ali Mahdavi square","sort_rank":380,"kind_detail":"primary","bus_network":null,"source":"openstreetmap.org","min_zoom":8.0,"bus_shield_text":"EXP-4","landuse_kind":"residential","id":24351028},"arcs":[216]},{"type":"MultiLineString","properties":{"bus_network":null,"sort_rank":381,"landuse_kind":"urban_area","kind":"major_road","source":"openstreetmap.org","min_zoom":8.0,"bus_shield_text":"EXP-4","kind_detail":"trunk"},"arcs":[[217],[218]]},{"type":"LineString","properties":{"kind":"major_road","name:en":"Khayam Boulevard","sort_rank":380,"landuse_kind":"urban_area","source":"openstreetmap.org","min_zoom":8.0,"kind_detail":"primary","id":388370055},"arcs":[219]},{"type":"MultiLineString","properties":{"source":"openstreetmap.org","kind":"major_road","name:en":"Shahed Boulevard","landuse_kind":"urban_area","sort_rank":380,"kind_detail":"primary","min_zoom":8.0},"arcs":[[220],[221]]},{"type":"LineString","properties":{"kind":"major_road","name:en":"Shahid Fallah Brothers Square","sort_rank":380,"landuse_kind":"residential","source":"openstreetmap.org","min_zoom":8.0,"kind_detail":"primary","id":52510917},"arcs":[222]},{"type":"LineString","properties":{"kind":"major_road","name:en":"Ladan Square","sort_rank":380,"kind_detail":"primary","bus_network":null,"source":"openstreetmap.org","min_zoom":8.0,"bus_shield_text":"EXP-4","landuse_kind":"residential","id":35683851},"arcs":[223]},{"type":"MultiLineString","properties":{"bus_network":null,"name:en":"Ferdowsi Square","sort_rank":380,"kind_detail":"primary","kind":"major_road","source":"openstreetmap.org","min_zoom":8.0,"bus_shield_text":"12\/1","landuse_kind":"urban_area"},"arcs":[[224],[225]]},{"type":"LineString","properties":{"kind":"major_road","name:en":"Ghadir Square","sort_rank":380,"landuse_kind":"urban_area","source":"openstreetmap.org","min_zoom":8.0,"kind_detail":"primary","id":24012557},"arcs":[226]},{"type":"MultiLineString","properties":{"source":"openstreetmap.org","kind":"major_road","name:en":"Sayad Shirazi Bridge","landuse_kind":"residential","sort_rank":380,"kind_detail":"primary","min_zoom":8.0},"arcs":[[227],[228]]},{"type":"MultiLineString","properties":{"bus_network":null,"name:en":"Shahid Fahmideh Square","sort_rank":380,"kind_detail":"primary","kind":"major_road","source":"openstreetmap.org","min_zoom":8.0,"bus_shield_text":"22","landuse_kind":"urban_area"},"arcs":[[229],[230]]},{"type":"MultiLineString","properties":{"source":"openstreetmap.org","kind":"major_road","name:en":"Resalat boulevard","landuse_kind":"urban_area","sort_rank":380,"kind_detail":"primary","min_zoom":8.0},"arcs":[[231],[232]]},{"type":"MultiLineString","properties":{"bus_network":null,"name:en":"Ferdowsi Square","sort_rank":380,"kind_detail":"primary","kind":"major_road","source":"openstreetmap.org","min_zoom":8.0,"bus_shield_text":"37\/1","landuse_kind":"urban_area"},"arcs":[[233],[234]]},{"type":"MultiLineString","properties":{"bus_network":null,"name:en":"Ayatollah Shirazi street","sort_rank":380,"kind_detail":"primary","bus_shield_text":"12\/1","kind":"major_road","source":"openstreetmap.org","min_zoom":8.0,"old_name":"\u0628\u0627\u0644\u0627 \u062e\u06cc\u0627\u0628\u0627\u0646","landuse_kind":"residential"},"arcs":[[235],[236]]},{"type":"MultiLineString","properties":{"source":"openstreetmap.org","kind":"major_road","name:en":"Mother Square","landuse_kind":"residential","sort_rank":380,"kind_detail":"primary","min_zoom":8.0},"arcs":[[237],[238]]},{"type":"LineString","properties":{"kind":"major_road","name:en":"7th Azar square","sort_rank":381,"landuse_kind":"residential","source":"openstreetmap.org","min_zoom":8.0,"kind_detail":"trunk","id":382629821},"arcs":[239]},{"type":"MultiLineString","properties":{"bus_network":null,"sort_rank":380,"kind_detail":"primary","kind":"major_road","source":"openstreetmap.org","min_zoom":8.0,"bus_shield_text":"202","landuse_kind":"urban_area"},"arcs":[[240],[241],[242]]},{"type":"LineString","properties":{"bus_network":null,"sort_rank":380,"kind_detail":"primary","kind":"major_road","source":"openstreetmap.org","min_zoom":8.0,"bus_shield_text":"BRT-1","landuse_kind":"residential"},"arcs":[243]},{"type":"LineString","properties":{"source":"openstreetmap.org","kind":"major_road","landuse_kind":"residential","sort_rank":381,"kind_detail":"trunk","min_zoom":8.0,"id":385028123},"arcs":[244]},{"type":"MultiLineString","properties":{"bus_network":null,"name:en":"Piroozi Boulevard","sort_rank":380,"kind_detail":"primary","kind":"major_road","source":"openstreetmap.org","min_zoom":8.0,"bus_shield_text":"EXP-4","landuse_kind":"residential"},"arcs":[[245],[246],[247],[248],[249],[250],[251],[252],[253],[254],[255],[256],[257],[258]]},{"type":"MultiLineString","properties":{"bus_network":null,"name:en":"Islamic Republic Boulevard","sort_rank":380,"kind_detail":"primary","kind":"major_road","source":"openstreetmap.org","min_zoom":8.0,"bus_shield_text":"37","landuse_kind":"urban_area"},"arcs":[[259],[260]]},{"type":"MultiLineString","properties":{"bus_network":null,"name:en":"Azadi Expressway","network":"ir:national","sort_rank":381,"kind_detail":"trunk","is_bicycle_related":true,"kind":"major_road","source":"openstreetmap.org","min_zoom":8.0,"bus_shield_text":"EXP-3","shield_text":"22","landuse_kind":"urban_area","ref":"22"},"arcs":[[261],[262],[263],[264]]},{"type":"LineString","properties":{"kind":"major_road","sort_rank":381,"kind_detail":"trunk","bus_network":null,"source":"openstreetmap.org","min_zoom":8.0,"bus_shield_text":"98\/1","landuse_kind":"urban_area","id":45839100},"arcs":[265]},{"type":"MultiLineString","properties":{"bus_network":null,"name:en":"Ferdowsi Boulevard","sort_rank":380,"kind_detail":"primary","kind":"major_road","source":"openstreetmap.org","min_zoom":8.0,"bus_shield_text":"12\/1","landuse_kind":"residential"},"arcs":[[266],[267],[268],[269]]},{"type":"LineString","properties":{"kind":"major_road","name:en":"Tohid Street","sort_rank":380,"landuse_kind":"residential","source":"openstreetmap.org","min_zoom":8.0,"kind_detail":"primary","id":392180155},"arcs":[270]},{"type":"MultiLineString","properties":{"source":"openstreetmap.org","kind":"major_road","name:en":"Azadi Expressway","kind_detail":"trunk","sort_rank":381,"landuse_kind":"urban_area","min_zoom":8.0},"arcs":[[271],[272]]},{"type":"MultiLineString","properties":{"source":"openstreetmap.org","kind":"major_road","name:en":"Basij Expressway","kind_detail":"trunk","sort_rank":381,"landuse_kind":"urban_area","min_zoom":8.0},"arcs":[[273],[274],[275],[276],[277],[278],[279],[280],[281]]},{"type":"LineString","properties":{"kind":"major_road","name:en":"Imam Khomeini Str.","sort_rank":380,"landuse_kind":"residential","source":"openstreetmap.org","min_zoom":8.0,"kind_detail":"primary","id":52142677},"arcs":[282]},{"type":"LineString","properties":{"kind":"major_road","name:en":"Shahid Kaveh boulevard","sort_rank":380,"kind_detail":"primary","bus_network":null,"source":"openstreetmap.org","min_zoom":8.0,"bus_shield_text":"EXP-4","landuse_kind":"urban_area","id":23997086},"arcs":[283]},{"type":"MultiLineString","properties":{"source":"openstreetmap.org","kind":"major_road","name:en":"Shahed Boulevard","landuse_kind":"residential","sort_rank":380,"kind_detail":"primary","min_zoom":8.0},"arcs":[[284],[285]]},{"type":"LineString","properties":{"kind":"major_road","name:en":"Jomhori Eslami Square","sort_rank":380,"kind_detail":"primary","bus_network":null,"source":"openstreetmap.org","min_zoom":8.0,"bus_shield_text":"100","loc_name":"\u0645\u06cc\u062f\u0627\u0646 \u062a\u0644\u0648\u06cc\u0632\u06cc\u0648\u0646","landuse_kind":"urban_area","id":383533317},"arcs":[286]},{"type":"LineString","properties":{"kind":"major_road","name:en":"Dr. Shariati Square","sort_rank":380,"kind_detail":"primary","old_name":"\u0641\u0644\u06a9\u0647 \u062a\u0642\u06cc \u0622\u0628\u0627\u062f","bus_network":null,"source":"openstreetmap.org","min_zoom":8.0,"bus_shield_text":"38","landuse_kind":"residential","id":383029428},"arcs":[287]},{"type":"LineString","properties":{"kind":"major_road","name:en":"Shahid Cheraghchi Expressway","network":"ir:national","sort_rank":381,"kind_detail":"trunk","source":"openstreetmap.org","min_zoom":8.0,"landuse_kind":"residential","shield_text":"22","id":382648781},"arcs":[288]},{"type":"MultiLineString","properties":{"kind":"major_road","network":"ir:national","sort_rank":380,"kind_detail":"primary","source":"openstreetmap.org","min_zoom":8.0,"landuse_kind":"urban_area","shield_text":"22","ref":"22"},"arcs":[[289],[290],[291]]},{"type":"MultiLineString","properties":{"kind":"major_road","network":"ir:national","sort_rank":381,"landuse_kind":"urban_area","source":"openstreetmap.org","min_zoom":8.0,"kind_detail":"trunk","shield_text":"22"},"arcs":[[292],[293],[294],[295]]},{"type":"LineString","properties":{"kind":"major_road","name:en":"Vosough Square","sort_rank":380,"landuse_kind":"residential","source":"openstreetmap.org","min_zoom":8.0,"kind_detail":"primary","id":511637156},"arcs":[296]},{"type":"LineString","properties":{"kind":"major_road","name:en":"Emamieh Square","sort_rank":380,"kind_detail":"primary","bus_network":null,"source":"openstreetmap.org","min_zoom":8.0,"bus_shield_text":"EXP-4","landuse_kind":"residential","id":25573654},"arcs":[297]},{"type":"LineString","properties":{"kind":"major_road","name:en":"Saadi Square","sort_rank":380,"landuse_kind":"residential","source":"openstreetmap.org","min_zoom":8.0,"kind_detail":"primary","id":382402458},"arcs":[298]},{"type":"LineString","properties":{"kind":"major_road","sort_rank":381,"kind_detail":"trunk","bus_network":null,"source":"openstreetmap.org","min_zoom":8.0,"bus_shield_text":"38\/1","landuse_kind":"urban_area","id":386678090},"arcs":[299]},{"type":"MultiLineString","properties":{"bus_network":null,"name:en":"Azadi Expressway","sort_rank":381,"landuse_kind":"urban_area","is_bicycle_related":true,"kind":"major_road","source":"openstreetmap.org","min_zoom":8.0,"bus_shield_text":"202","kind_detail":"trunk"},"arcs":[[300],[301]]},{"type":"LineString","properties":{"kind":"major_road","network":"ir:national","sort_rank":381,"kind_detail":"trunk","source":"openstreetmap.org","min_zoom":8.0,"shield_text":"44","id":52106744},"arcs":[302]},{"type":"LineString","properties":{"kind":"major_road","name:en":"Shahid Kaveh square","sort_rank":380,"kind_detail":"primary","bus_network":null,"source":"openstreetmap.org","min_zoom":8.0,"bus_shield_text":"EXP-4","landuse_kind":"urban_area","id":23997101},"arcs":[303]},{"type":"LineString","properties":{"kind":"major_road","name:en":"Emam Khomeini Square","sort_rank":380,"kind_detail":"primary","bus_network":null,"source":"openstreetmap.org","min_zoom":8.0,"bus_shield_text":"37","landuse_kind":"residential","id":24042819},"arcs":[304]},{"type":"LineString","properties":{"source":"openstreetmap.org","kind":"major_road","name:en":"Sayad Shirazi","landuse_kind":"residential","sort_rank":380,"kind_detail":"primary","min_zoom":8.0},"arcs":[305]},{"type":"LineString","properties":{"kind":"major_road","name:en":"Imam Khomeini street","sort_rank":380,"kind_detail":"primary","bus_network":null,"source":"openstreetmap.org","min_zoom":8.0,"bus_shield_text":"EXP-2","landuse_kind":"residential","id":26351532},"arcs":[306]},{"type":"MultiLineString","properties":{"source":"openstreetmap.org","kind":"major_road","name:en":"Shahid Cheraghchi Expressway","kind_detail":"trunk","sort_rank":381,"landuse_kind":"urban_area","min_zoom":8.0},"arcs":[[307],[308]]},{"type":"MultiLineString","properties":{"source":"openstreetmap.org","kind":"major_road","name:en":"Shahid Kamyab Boulevard","landuse_kind":"urban_area","sort_rank":380,"kind_detail":"primary","min_zoom":8.0},"arcs":[[309],[310]]},{"type":"LineString","properties":{"kind":"major_road","name:en":"Shohada Square","sort_rank":380,"kind_detail":"primary","bus_network":null,"source":"openstreetmap.org","min_zoom":8.0,"bus_shield_text":"38\/1","landuse_kind":"residential","ref":"\u0634\u0631\u0648\u0639 \u0637\u0631\u062d \u0632\u0648\u062c \u0648 \u0641\u0631\u062f","id":381812595},"arcs":[311]},{"type":"LineString","properties":{"kind":"major_road","sort_rank":380,"kind_detail":"primary","bus_network":null,"source":"openstreetmap.org","min_zoom":8.0,"bus_shield_text":"98\/1","landuse_kind":"residential","id":24009265},"arcs":[312]},{"type":"LineString","properties":{"kind":"major_road","name:en":"Piroozi Blvd.","sort_rank":380,"kind_detail":"primary","bus_network":null,"source":"openstreetmap.org","min_zoom":8.0,"bus_shield_text":"EXP-4","landuse_kind":"urban_area","id":24002382},"arcs":[313]},{"type":"MultiLineString","properties":{"source":"openstreetmap.org","kind":"major_road","name:en":"Shahid Ghane Boulevard","landuse_kind":"urban_area","sort_rank":380,"kind_detail":"primary","min_zoom":8.0},"arcs":[[314],[315]]},{"type":"LineString","properties":{"kind":"major_road","name:en":"Shahid Kamyab boulevard","sort_rank":380,"landuse_kind":"urban_area","source":"openstreetmap.org","min_zoom":8.0,"kind_detail":"primary","id":384958330},"arcs":[316]},{"type":"MultiLineString","properties":{"bus_network":null,"name:en":"Palestine Square","sort_rank":380,"kind_detail":"primary","kind":"major_road","source":"openstreetmap.org","min_zoom":8.0,"bus_shield_text":"38\/1","landuse_kind":"urban_area"},"arcs":[[317],[318]]},{"type":"MultiLineString","properties":{"source":"openstreetmap.org","kind":"major_road","name:en":"Shahid Kalantary Highway","kind_detail":"trunk","sort_rank":381,"landuse_kind":"urban_area","min_zoom":8.0},"arcs":[[319],[320],[321],[322],[323],[324],[325],[326],[327],[328],[329],[330],[331],[332],[333],[334],[335],[336],[337]]},{"type":"LineString","properties":{"kind":"major_road","name:en":"VakilAbad Expressway","sort_rank":381,"kind_detail":"trunk","bus_network":null,"source":"openstreetmap.org","min_zoom":8.0,"bus_shield_text":"98\/1","landuse_kind":"urban_area","id":45839094},"arcs":[338]},{"type":"MultiLineString","properties":{"bus_network":null,"name:en":"Shahed Boulevard","sort_rank":380,"kind_detail":"primary","kind":"major_road","source":"openstreetmap.org","min_zoom":8.0,"bus_shield_text":"EXP-3","landuse_kind":"urban_area"},"arcs":[[339],[340]]},{"type":"MultiLineString","properties":{"bus_network":null,"name:en":"Hashemieh bridge","sort_rank":380,"landuse_kind":"residential","kind":"major_road","source":"openstreetmap.org","min_zoom":8.0,"bus_shield_text":"98\/1","kind_detail":"primary"},"arcs":[[341],[342]]},{"type":"LineString","properties":{"kind":"major_road","name:en":"Hashemieh Square","sort_rank":380,"kind_detail":"primary","bus_network":null,"source":"openstreetmap.org","min_zoom":8.0,"bus_shield_text":"EXP-4","landuse_kind":"residential","id":24351087},"arcs":[343]},{"type":"MultiLineString","properties":{"bus_network":null,"name:en":"Khayam Boulevard","sort_rank":380,"kind_detail":"primary","kind":"major_road","source":"openstreetmap.org","min_zoom":8.0,"bus_shield_text":"22","landuse_kind":"urban_area"},"arcs":[[344],[345]]},{"type":"MultiLineString","properties":{"kind":"major_road","network":"ir:freeways","sort_rank":381,"landuse_kind":"urban_area","source":"openstreetmap.org","min_zoom":8.0,"kind_detail":"trunk","shield_text":"2","ref":"2"},"arcs":[[346],[347],[348],[349]]},{"type":"LineString","properties":{"kind":"major_road","name:en":"Vahdat Boulevard","sort_rank":380,"kind_detail":"primary","bus_network":null,"source":"openstreetmap.org","min_zoom":8.0,"bus_shield_text":"83","landuse_kind":"urban_area","id":389581450},"arcs":[350]},{"type":"LineString","properties":{"kind":"major_road","name:en":"Daneshgah st.","sort_rank":380,"landuse_kind":"residential","source":"openstreetmap.org","min_zoom":8.0,"kind_detail":"primary","id":49360394},"arcs":[351]},{"type":"MultiLineString","properties":{"bus_network":null,"name:en":"Emamieh Boulevard","sort_rank":380,"kind_detail":"primary","kind":"major_road","source":"openstreetmap.org","min_zoom":8.0,"bus_shield_text":"EXP-4","landuse_kind":"residential"},"arcs":[[352],[353],[354],[355]]},{"type":"LineString","properties":{"kind":"major_road","sort_rank":381,"landuse_kind":"urban_area","source":"openstreetmap.org","min_zoom":8.0,"kind_detail":"trunk","ref":"44","id":24415103},"arcs":[356]},{"type":"LineString","properties":{"kind":"major_road","name:en":"Shahid Kamyab Boulevard","sort_rank":380,"kind_detail":"primary","bus_network":null,"source":"openstreetmap.org","min_zoom":8.0,"bus_shield_text":"83","landuse_kind":"urban_area","id":384958333},"arcs":[357]},{"type":"MultiLineString","properties":{"kind":"major_road","name:en":"Shahid Babanazar Expressway","network":"ir:national","sort_rank":381,"landuse_kind":"urban_area","source":"openstreetmap.org","min_zoom":8.0,"kind_detail":"trunk","shield_text":"22"},"arcs":[[358],[359],[360],[361],[362],[363],[364],[365],[366]]},{"type":"MultiLineString","properties":{"bus_network":null,"name:en":"Misagh Expressway","sort_rank":381,"kind_detail":"trunk","kind":"major_road","source":"openstreetmap.org","min_zoom":8.0,"bus_shield_text":"EXP-4","landuse_kind":"residential"},"arcs":[[367],[368],[369]]},{"type":"MultiLineString","properties":{"source":"openstreetmap.org","kind":"major_road","name:en":"Islamic Republic Boulevard","landuse_kind":"urban_area","sort_rank":380,"kind_detail":"primary","min_zoom":8.0},"arcs":[[370],[371]]},{"type":"MultiLineString","properties":{"source":"openstreetmap.org","kind":"major_road","name:en":"Tabarsi","landuse_kind":"residential","sort_rank":380,"kind_detail":"primary","min_zoom":8.0},"arcs":[[372],[373],[374],[375],[376],[377]]},{"type":"LineString","properties":{"bus_network":null,"name:en":"Khayam Square","sort_rank":380,"kind_detail":"primary","kind":"major_road","source":"openstreetmap.org","min_zoom":8.0,"bus_shield_text":"EXP-3","landuse_kind":"urban_area"},"arcs":[378]},{"type":"MultiLineString","properties":{"bus_network":null,"name:en":"Imam Ali Expressway","sort_rank":381,"landuse_kind":"urban_area","kind":"major_road","source":"openstreetmap.org","min_zoom":8.0,"bus_shield_text":"EXP-4","kind_detail":"trunk"},"arcs":[[379],[380],[381],[382],[383],[384],[385],[386],[387]]},{"type":"MultiLineString","properties":{"bus_network":null,"name:en":"Esteghlal Square","sort_rank":380,"kind_detail":"primary","kind":"major_road","source":"openstreetmap.org","min_zoom":8.0,"bus_shield_text":"12\/1","landuse_kind":"urban_area"},"arcs":[[388],[389]]},{"type":"MultiLineString","properties":{"bus_network":null,"name:en":"Enghelab-e Eslami Square","sort_rank":380,"kind_detail":"primary","kind":"major_road","source":"openstreetmap.org","min_zoom":8.0,"bus_shield_text":"EXP-4","landuse_kind":"urban_area"},"arcs":[[390],[391]]},{"type":"MultiLineString","properties":{"source":"openstreetmap.org","kind":"major_road","name:en":"Vakil Abad Expressway","kind_detail":"trunk","sort_rank":381,"landuse_kind":"urban_area","min_zoom":8.0},"arcs":[[392],[393],[394],[395],[396],[397]]},{"type":"MultiLineString","properties":{"bus_network":null,"name:en":"Shahid Gharani Blvd.","sort_rank":380,"kind_detail":"primary","kind":"major_road","source":"openstreetmap.org","min_zoom":8.0,"bus_shield_text":"12\/1","landuse_kind":"residential"},"arcs":[[398],[399]]},{"type":"LineString","properties":{"name:fa":"\u0628\u0644\u0648\u0627\u0631 \u0627\u0645\u0627\u0645 \u0631\u0636\u0627","kind":"major_road","name:en":"Emam Reza Boulevard","sort_rank":380,"kind_detail":"primary","source":"openstreetmap.org","min_zoom":8.0,"landuse_kind":"urban_area"},"arcs":[400]},{"type":"MultiLineString","properties":{"source":"openstreetmap.org","kind":"major_road","name:en":"Mosalla Boulevard","landuse_kind":"residential","sort_rank":380,"kind_detail":"primary","min_zoom":8.0},"arcs":[[401],[402],[403]]},{"type":"MultiLineString","properties":{"bus_network":null,"name:en":"Azadi Expressway","network":"ir:national","sort_rank":381,"kind_detail":"trunk","is_bicycle_related":true,"kind":"major_road","source":"openstreetmap.org","min_zoom":8.0,"bus_shield_text":"202","shield_text":"22","landuse_kind":"urban_area","ref":"22"},"arcs":[[404],[405],[406],[407],[408],[409],[410],[411],[412],[413],[414]]},{"type":"MultiLineString","properties":{"source":"openstreetmap.org","kind":"major_road","name:en":"Emamieh Boulevard","landuse_kind":"urban_area","sort_rank":380,"kind_detail":"primary","min_zoom":8.0},"arcs":[[415],[416]]},{"type":"MultiLineString","properties":{"bus_network":null,"name:en":"Resalat Blvd.","sort_rank":380,"kind_detail":"primary","is_bicycle_related":true,"kind":"major_road","source":"openstreetmap.org","min_zoom":8.0,"bus_shield_text":"32","landuse_kind":"urban_area"},"arcs":[[417],[418],[419],[420]]},{"type":"MultiLineString","properties":{"bus_network":null,"name:en":"Emam Khomeini Square","sort_rank":380,"kind_detail":"primary","kind":"major_road","source":"openstreetmap.org","min_zoom":8.0,"bus_shield_text":"EXP-2","landuse_kind":"residential"},"arcs":[[421],[422]]},{"type":"LineString","properties":{"kind":"major_road","name:en":"Emamreza Boulevard","sort_rank":380,"kind_detail":"primary","bus_network":null,"source":"openstreetmap.org","min_zoom":8.0,"bus_shield_text":"BRT-1","landuse_kind":"residential","id":44641660},"arcs":[423]},{"type":"LineString","properties":{"bus_network":null,"name:en":"Tohid Square","sort_rank":380,"landuse_kind":"residential","old_name":"\u0641\u0644\u06a9\u0647 \u062f\u0631\u0648\u0627\u0632\u0647 \u0642\u0648\u0686\u0627\u0646","kind":"major_road","source":"openstreetmap.org","min_zoom":8.0,"bus_shield_text":"12\/1","kind_detail":"primary"},"arcs":[424]},{"type":"MultiLineString","properties":{"bus_network":null,"name:en":"Ayatollah Ebadi Boulevard","sort_rank":380,"kind_detail":"primary","old_name":"\u062e\u06cc\u0627\u0628\u0627\u0646 \u062e\u0648\u0627\u062c\u0647 \u0631\u0628\u06cc\u0639","kind":"major_road","source":"openstreetmap.org","min_zoom":8.0,"bus_shield_text":"EXP-2","landuse_kind":"urban_area"},"arcs":[[425],[426],[427],[428]]},{"type":"LineString","properties":{"kind":"major_road","network":"ir:national","sort_rank":381,"kind_detail":"trunk","source":"openstreetmap.org","min_zoom":8.0,"shield_text":"97","id":245368826},"arcs":[429]},{"type":"LineString","properties":{"kind":"major_road","name:en":"Shahid Mohammad Montazeri Boulevard","sort_rank":380,"kind_detail":"primary","source":"openstreetmap.org","min_zoom":8.0,"landuse_kind":"residential","loc_name":"\u0628\u0648\u0644\u0648\u0627\u0631 \u062a\u0644\u0648\u06cc\u0632\u06cc\u0648\u0646","id":24003313},"arcs":[430]},{"type":"LineString","properties":{"kind":"major_road","name:en":"southern 17th Shahrivar boulevard","sort_rank":380,"kind_detail":"primary","bus_network":null,"source":"openstreetmap.org","min_zoom":8.0,"bus_shield_text":"83","landuse_kind":"residential","id":24243259},"arcs":[431]},{"type":"LineString","properties":{"kind":"major_road","name:en":"Vesal Square","sort_rank":380,"kind_detail":"primary","bus_network":null,"source":"openstreetmap.org","min_zoom":8.0,"bus_shield_text":"98\/1","landuse_kind":"residential","id":52686257},"arcs":[432]},{"type":"MultiLineString","properties":{"bus_network":null,"name:en":"7th Azar square","sort_rank":381,"kind_detail":"trunk","kind":"major_road","source":"openstreetmap.org","min_zoom":8.0,"bus_shield_text":"EXP-3","landuse_kind":"residential"},"arcs":[[433],[434]]},{"type":"MultiLineString","properties":{"kind":"major_road","name:en":"Shahid Cheraghchi Expressway","network":"ir:national","sort_rank":381,"landuse_kind":"urban_area","source":"openstreetmap.org","min_zoom":8.0,"kind_detail":"trunk","shield_text":"22"},"arcs":[[435],[436],[437],[438],[439],[440]]},{"type":"MultiLineString","properties":{"bus_network":null,"name:en":"Moallem Boulevard","sort_rank":380,"kind_detail":"primary","kind":"major_road","source":"openstreetmap.org","min_zoom":8.0,"bus_shield_text":"12\/1","landuse_kind":"urban_area"},"arcs":[[441],[442],[443],[444]]},{"type":"MultiLineString","properties":{"bus_network":null,"name:en":"Ayatollah Ebadi Street","sort_rank":380,"kind_detail":"primary","bus_shield_text":"38\/1","kind":"major_road","source":"openstreetmap.org","min_zoom":8.0,"old_name":"\u062e\u06cc\u0627\u0628\u0627\u0646 \u062e\u0648\u0627\u062c\u0647 \u0631\u0628\u06cc\u0639","landuse_kind":"residential"},"arcs":[[445],[446]]},{"type":"LineString","properties":{"kind":"major_road","name:en":"Emam Khomeini Square","sort_rank":380,"landuse_kind":"residential","source":"openstreetmap.org","min_zoom":8.0,"kind_detail":"primary","id":383091841},"arcs":[447]},{"type":"LineString","properties":{"kind":"major_road","name:en":"southern 17th Shahrivar boulevard","sort_rank":380,"landuse_kind":"residential","source":"openstreetmap.org","min_zoom":8.0,"kind_detail":"primary","id":378260308},"arcs":[448]},{"type":"MultiLineString","properties":{"source":"openstreetmap.org","kind":"major_road","name:en":"8th Shahrivar Boulevard","landuse_kind":"residential","sort_rank":380,"kind_detail":"primary","min_zoom":8.0},"arcs":[[449],[450]]},{"type":"MultiLineString","properties":{"source":"openstreetmap.org","kind":"major_road","name:en":"Hashemieh Boulevard","landuse_kind":"residential","sort_rank":380,"kind_detail":"primary","min_zoom":8.0},"arcs":[[451],[452],[453],[454],[455]]},{"type":"LineString","properties":{"kind":"major_road","name:en":"Khayam Square","sort_rank":380,"kind_detail":"primary","bus_network":null,"source":"openstreetmap.org","min_zoom":8.0,"bus_shield_text":"80","landuse_kind":"residential","id":382629762},"arcs":[456]},{"type":"LineString","properties":{"kind":"major_road","name:en":"Bu'Ali Square","sort_rank":380,"kind_detail":"primary","bus_network":null,"source":"openstreetmap.org","min_zoom":8.0,"bus_shield_text":"37\/1","landuse_kind":"urban_area","id":24694519},"arcs":[457]},{"type":"LineString","properties":{"kind":"major_road","sort_rank":381,"kind_detail":"trunk","bus_network":null,"source":"openstreetmap.org","min_zoom":8.0,"bus_shield_text":"EXP-4","loc_name":"\u0645\u06cc\u062f\u0627\u0646 \u0646\u0645\u0627\u06cc\u0634\u06af\u0627\u0647","landuse_kind":"urban_area","id":35668367},"arcs":[458]},{"type":"LineString","properties":{"kind":"major_road","name:en":"Ayatollah Ebadi Street","sort_rank":380,"kind_detail":"primary","source":"openstreetmap.org","min_zoom":8.0,"old_name":"\u062e\u06cc\u0627\u0628\u0627\u0646 \u062e\u0648\u0627\u062c\u0647 \u0631\u0628\u06cc\u0639","landuse_kind":"residential"},"arcs":[459]},{"type":"LineString","properties":{"bus_network":null,"name:en":"Khayam Square","sort_rank":380,"kind_detail":"primary","kind":"major_road","source":"openstreetmap.org","min_zoom":8.0,"bus_shield_text":"EXP-3","landuse_kind":"residential"},"arcs":[460]},{"type":"MultiLineString","properties":{"bus_network":null,"name:en":"Resalat boulevard","sort_rank":380,"kind_detail":"primary","kind":"major_road","source":"openstreetmap.org","min_zoom":8.0,"bus_shield_text":"32","landuse_kind":"urban_area"},"arcs":[[461],[462],[463],[464]]},{"type":"LineString","properties":{"kind":"major_road","name:en":"Laleh Square","sort_rank":381,"kind_detail":"trunk","bus_network":null,"source":"openstreetmap.org","min_zoom":8.0,"bus_shield_text":"EXP-4","landuse_kind":"residential","id":35674840},"arcs":[465]},{"type":"MultiLineString","properties":{"bus_network":null,"name:en":"Tabarsi","sort_rank":380,"kind_detail":"primary","kind":"major_road","source":"openstreetmap.org","min_zoom":8.0,"bus_shield_text":"BRT-1","landuse_kind":"urban_area"},"arcs":[[466],[467]]},{"type":"LineString","properties":{"kind":"major_road","sort_rank":380,"kind_detail":"primary","bus_network":null,"source":"openstreetmap.org","min_zoom":8.0,"bus_shield_text":"83","landuse_kind":"urban_area","id":356316130},"arcs":[468]},{"type":"LineString","properties":{"kind":"major_road","name:en":"Haft Tanan square","sort_rank":380,"kind_detail":"primary","bus_network":null,"source":"openstreetmap.org","min_zoom":8.0,"bus_shield_text":"202","landuse_kind":"urban_area","id":300561156},"arcs":[469]},{"type":"MultiLineString","properties":{"bus_network":null,"sort_rank":380,"kind_detail":"primary","kind":"major_road","source":"openstreetmap.org","min_zoom":8.0,"bus_shield_text":"22","landuse_kind":"urban_area"},"arcs":[[470],[471]]},{"type":"LineString","properties":{"kind":"major_road","name:en":"VakilAbad Expressway","sort_rank":381,"kind_detail":"trunk","bus_network":null,"source":"openstreetmap.org","min_zoom":8.0,"bus_shield_text":"38\/1","landuse_kind":"urban_area","id":45839107},"arcs":[472]},{"type":"LineString","properties":{"kind":"major_road","name:en":"Emam Reza","sort_rank":380,"kind_detail":"primary","bus_network":null,"source":"openstreetmap.org","min_zoom":8.0,"bus_shield_text":"BRT-1","landuse_kind":"residential","id":26351779},"arcs":[473]},{"type":"MultiLineString","properties":{"source":"openstreetmap.org","kind":"major_road","name:en":"Fajr Square","landuse_kind":"urban_area","sort_rank":380,"kind_detail":"primary","min_zoom":8.0},"arcs":[[474],[475]]},{"type":"LineString","properties":{"kind":"major_road","name:en":"Vahdat Boulevard","sort_rank":380,"landuse_kind":"urban_area","source":"openstreetmap.org","min_zoom":8.0,"kind_detail":"primary","id":55423252},"arcs":[476]},{"type":"MultiLineString","properties":{"kind":"major_road","name:en":"Salam bridge","network":"ir:freeways","sort_rank":381,"landuse_kind":"urban_area","source":"openstreetmap.org","min_zoom":8.0,"old_name":"\u067e\u0644 \u0639\u0633\u06af\u0631\u06cc\u0647","shield_text":"2","kind_detail":"trunk","ref":"2"},"arcs":[[477],[478]]},{"type":"MultiLineString","properties":{"kind":"major_road","network":"ir:national","sort_rank":381,"kind_detail":"trunk","source":"openstreetmap.org","min_zoom":8.0,"shield_text":"95","ref":"95"},"arcs":[[479],[480],[481],[482],[483],[484],[485],[486],[487],[488],[489],[490],[491],[492],[493],[494],[495],[496]]},{"type":"MultiLineString","properties":{"source":"openstreetmap.org","kind":"major_road","name:en":"East Emam Reza boulevard","landuse_kind":"urban_area","sort_rank":380,"kind_detail":"primary","min_zoom":8.0},"arcs":[[497],[498]]},{"type":"LineString","properties":{"kind":"major_road","name:en":"Moallem Square","sort_rank":380,"kind_detail":"primary","bus_network":null,"source":"openstreetmap.org","min_zoom":8.0,"bus_shield_text":"12\/1","landuse_kind":"residential","id":52831275},"arcs":[499]},{"type":"LineString","properties":{"source":"openstreetmap.org","kind":"major_road","name:en":"Kushesh Boulevard","landuse_kind":"residential","sort_rank":380,"kind_detail":"primary","min_zoom":8.0},"arcs":[500]},{"type":"LineString","properties":{"kind":"major_road","network":"ir:national","sort_rank":381,"kind_detail":"trunk","bus_network":null,"source":"openstreetmap.org","min_zoom":8.0,"bus_shield_text":"EXP-3","shield_text":"22","landuse_kind":"urban_area","id":24161127},"arcs":[501]},{"type":"MultiLineString","properties":{"source":"openstreetmap.org","kind":"major_road","name:en":"Imam Hosein bridge","kind_detail":"primary","sort_rank":380,"landuse_kind":"urban_area","min_zoom":8.0},"arcs":[[502],[503]]},{"type":"LineString","properties":{"kind":"major_road","name:en":"Vahdat Boulevard","sort_rank":380,"kind_detail":"primary","bus_network":null,"source":"openstreetmap.org","min_zoom":8.0,"bus_shield_text":"83","landuse_kind":"residential","id":389581450},"arcs":[504]},{"type":"LineString","properties":{"kind":"major_road","name:en":"Resalat Bridge","sort_rank":380,"kind_detail":"primary","is_bicycle_related":true,"bus_network":null,"source":"openstreetmap.org","min_zoom":8.0,"bus_shield_text":"32","landuse_kind":"urban_area","id":52292362},"arcs":[505]},{"type":"MultiLineString","properties":{"source":"openstreetmap.org","kind":"major_road","name:en":"Misagh Expressway","landuse_kind":"residential","sort_rank":381,"kind_detail":"trunk","min_zoom":8.0},"arcs":[[506],[507]]},{"type":"MultiLineString","properties":{"bus_network":null,"sort_rank":380,"kind_detail":"primary","kind":"major_road","source":"openstreetmap.org","min_zoom":8.0,"bus_shield_text":"32","landuse_kind":"urban_area"},"arcs":[[508],[509]]},{"type":"LineString","properties":{"kind":"major_road","name:en":"Piroozi Blvd.","sort_rank":380,"landuse_kind":"urban_area","source":"openstreetmap.org","min_zoom":8.0,"kind_detail":"primary","id":51142408},"arcs":[510]},{"type":"MultiLineString","properties":{"source":"openstreetmap.org","kind":"major_road","name:en":"SelseletoZahab Highway","kind_detail":"trunk","sort_rank":381,"landuse_kind":"urban_area","min_zoom":8.0},"arcs":[[511],[512],[513],[514]]},{"type":"MultiLineString","properties":{"bus_network":null,"name:en":"Tabarsi","sort_rank":380,"kind_detail":"primary","kind":"major_road","source":"openstreetmap.org","min_zoom":8.0,"bus_shield_text":"EXP-3","landuse_kind":"residential"},"arcs":[[515],[516]]},{"type":"MultiLineString","properties":{"source":"openstreetmap.org","kind":"major_road","name:en":"17th Shahrivar boulevard","landuse_kind":"residential","sort_rank":380,"kind_detail":"primary","min_zoom":8.0},"arcs":[[517],[518]]},{"type":"MultiLineString","properties":{"source":"openstreetmap.org","kind":"major_road","name:en":"Tabarsi Square","landuse_kind":"residential","sort_rank":380,"kind_detail":"primary","min_zoom":8.0},"arcs":[[519],[520]]},{"type":"LineString","properties":{"kind":"major_road","name:en":"17th Shahrivar boulevard","sort_rank":380,"kind_detail":"primary","bus_network":null,"source":"openstreetmap.org","min_zoom":8.0,"bus_shield_text":"83","landuse_kind":"residential","id":389581460},"arcs":[521]},{"type":"MultiLineString","properties":{"bus_network":null,"name:en":"Esteghlal Square","sort_rank":380,"kind_detail":"primary","kind":"major_road","source":"openstreetmap.org","min_zoom":8.0,"bus_shield_text":"12\/1","landuse_kind":"residential"},"arcs":[[522],[523],[524],[525]]},{"type":"LineString","properties":{"kind":"major_road","name:en":"Basij Square","sort_rank":380,"kind_detail":"primary","source":"openstreetmap.org","min_zoom":8.0,"landuse_kind":"residential","loc_name":"\u0641\u0644\u06a9\u0647 \u0628\u0631\u0642","id":24378293},"arcs":[526]},{"type":"LineString","properties":{"kind":"major_road","name:en":"Shohada square","sort_rank":380,"landuse_kind":"urban_area","source":"openstreetmap.org","min_zoom":8.0,"kind_detail":"primary","id":51429632},"arcs":[527]},{"type":"LineString","properties":{"kind":"major_road","name:en":"Dr. Shariati Square","sort_rank":380,"kind_detail":"primary","source":"openstreetmap.org","min_zoom":8.0,"old_name":"\u0641\u0644\u06a9\u0647 \u062a\u0642\u06cc \u0622\u0628\u0627\u062f","landuse_kind":"residential","id":382402465},"arcs":[528]},{"type":"MultiLineString","properties":{"source":"openstreetmap.org","kind":"major_road","name:en":"Piroozi Boulevard","landuse_kind":"urban_area","sort_rank":380,"kind_detail":"primary","min_zoom":8.0},"arcs":[[529],[530]]},{"type":"MultiLineString","properties":{"bus_network":null,"name:en":"Shahid Boronsi Boulevard","sort_rank":381,"kind_detail":"trunk","kind":"major_road","source":"openstreetmap.org","min_zoom":8.0,"bus_shield_text":"EXP-4","landuse_kind":"residential"},"arcs":[[531],[532]]},{"type":"LineString","properties":{"source":"openstreetmap.org","kind":"major_road","sort_rank":381,"kind_detail":"trunk","ref":"97","min_zoom":8.0},"arcs":[533]},{"type":"MultiLineString","properties":{"kind":"major_road","name:en":"Emam Reza St.","sort_rank":380,"kind_detail":"primary","source":"openstreetmap.org","min_zoom":8.0,"old_name":"\u062e\u06cc\u0627\u0628\u0627\u0646 \u062a\u0647\u0631\u0627\u0646","landuse_kind":"residential"},"arcs":[[534],[535],[536],[537]]},{"type":"LineString","properties":{"kind":"major_road","name:en":"Imam Hasan Square","sort_rank":381,"landuse_kind":"urban_area","source":"openstreetmap.org","min_zoom":8.0,"kind_detail":"trunk","id":24034390},"arcs":[538]},{"type":"LineString","properties":{"kind":"major_road","name:en":"Kalantari Highway","sort_rank":381,"landuse_kind":"urban_area","source":"openstreetmap.org","min_zoom":8.0,"kind_detail":"trunk","id":24000313},"arcs":[539]},{"type":"MultiLineString","properties":{"bus_network":null,"name:en":"Mosalla Boulevard","sort_rank":380,"kind_detail":"primary","kind":"major_road","source":"openstreetmap.org","min_zoom":8.0,"bus_shield_text":"100","landuse_kind":"residential"},"arcs":[[540],[541]]},{"type":"MultiLineString","properties":{"bus_network":null,"name:en":"Misagh Expressway","sort_rank":381,"landuse_kind":"urban_area","kind":"major_road","source":"openstreetmap.org","min_zoom":8.0,"bus_shield_text":"17","kind_detail":"trunk"},"arcs":[[542],[543],[544]]},{"type":"MultiLineString","properties":{"bus_network":null,"name:en":"Ferdowsi Boulevard","sort_rank":380,"kind_detail":"primary","kind":"major_road","source":"openstreetmap.org","min_zoom":8.0,"bus_shield_text":"12\/1","landuse_kind":"urban_area"},"arcs":[[545],[546]]},{"type":"MultiLineString","properties":{"bus_network":null,"sort_rank":381,"landuse_kind":"urban_area","kind":"major_road","source":"openstreetmap.org","min_zoom":8.0,"bus_shield_text":"100","kind_detail":"trunk"},"arcs":[[547],[548],[549]]},{"type":"LineString","properties":{"kind":"major_road","sort_rank":380,"kind_detail":"primary","bus_network":null,"source":"openstreetmap.org","min_zoom":8.0,"bus_shield_text":"EXP-2","landuse_kind":"residential","id":383094725},"arcs":[550]},{"type":"MultiLineString","properties":{"source":"openstreetmap.org","kind":"major_road","kind_detail":"trunk","sort_rank":381,"landuse_kind":"urban_area","min_zoom":8.0},"arcs":[[551],[552],[553],[554],[555],[556],[557],[558],[559],[560],[561],[562],[563],[564],[565]]},{"type":"MultiLineString","properties":{"bus_network":null,"sort_rank":380,"kind_detail":"primary","kind":"major_road","source":"openstreetmap.org","min_zoom":8.0,"bus_shield_text":"12\/1","landuse_kind":"urban_area"},"arcs":[[566],[567],[568],[569]]},{"type":"MultiLineString","properties":{"kind":"major_road","network":"ir:national","sort_rank":381,"landuse_kind":"urban_area","source":"openstreetmap.org","min_zoom":8.0,"kind_detail":"trunk","shield_text":"97","ref":"97"},"arcs":[[570],[571],[572],[573],[574],[575]]},{"type":"MultiLineString","properties":{"bus_network":null,"name:en":"Enghelab-e Eslami Square","sort_rank":380,"kind_detail":"primary","kind":"major_road","source":"openstreetmap.org","min_zoom":8.0,"bus_shield_text":"EXP-2","landuse_kind":"urban_area"},"arcs":[[576],[577]]},{"type":"LineString","properties":{"kind":"major_road","name:en":"Shohada Square","sort_rank":380,"kind_detail":"primary","bus_network":null,"source":"openstreetmap.org","min_zoom":8.0,"bus_shield_text":"12\/1","landuse_kind":"residential","ref":"\u0637\u0631\u062d \u0632\u0648\u062c \u0648 \u0641\u0631\u062f \u0627\u0632 \u0633\u0645\u062a \u0634\u06cc\u0631\u0627\u0632\u06cc","id":381812600},"arcs":[578]},{"type":"LineString","properties":{"kind":"major_road","name:en":"Al-Qadir square","network":"ir:national","sort_rank":381,"kind_detail":"trunk","source":"openstreetmap.org","min_zoom":8.0,"landuse_kind":"urban_area","shield_text":"97","ref":"97","id":142298159},"arcs":[579]},{"type":"MultiLineString","properties":{"bus_network":null,"name:en":"Tabarsi Boulevard","sort_rank":380,"kind_detail":"primary","kind":"major_road","source":"openstreetmap.org","min_zoom":8.0,"bus_shield_text":"BRT-1","landuse_kind":"residential"},"arcs":[[580],[581]]},{"type":"LineString","properties":{"kind":"major_road","name:en":"Shahid Kamyab Boulevard","sort_rank":380,"kind_detail":"primary","bus_network":null,"source":"openstreetmap.org","min_zoom":8.0,"bus_shield_text":"37","landuse_kind":"residential","id":384958328},"arcs":[582]},{"type":"LineString","properties":{"kind":"major_road","name:en":"Kalantari Highway","sort_rank":381,"kind_detail":"trunk","bus_network":null,"source":"openstreetmap.org","min_zoom":8.0,"bus_shield_text":"EXP-4","landuse_kind":"urban_area","ref":"2","id":90706305},"arcs":[583]},{"type":"MultiLineString","properties":{"bus_network":null,"name:en":"15th Khordad square","sort_rank":380,"kind_detail":"primary","kind":"major_road","source":"openstreetmap.org","min_zoom":8.0,"bus_shield_text":"37","landuse_kind":"residential"},"arcs":[[584],[585]]},{"type":"MultiLineString","properties":{"source":"openstreetmap.org","kind":"major_road","landuse_kind":"residential","sort_rank":380,"kind_detail":"primary","min_zoom":8.0},"arcs":[[586],[587],[588],[589],[590],[591],[592],[593],[594],[595],[596],[597],[598],[599],[600],[601]]},{"type":"MultiLineString","properties":{"bus_network":null,"name:en":"Tohid Street","sort_rank":380,"kind_detail":"primary","kind":"major_road","source":"openstreetmap.org","min_zoom":8.0,"bus_shield_text":"12\/1","landuse_kind":"residential"},"arcs":[[602],[603]]},{"type":"MultiLineString","properties":{"bus_network":null,"name:en":"Shohada Square","sort_rank":380,"kind_detail":"primary","kind":"major_road","source":"openstreetmap.org","min_zoom":8.0,"bus_shield_text":"12\/1","landuse_kind":"residential"},"arcs":[[604],[605]]},{"type":"MultiLineString","properties":{"kind":"highway","network":"AH","sort_rank":383,"kind_detail":"motorway","source":"openstreetmap.org","min_zoom":8.0,"all_networks":["AH","AsianHighway","ir:freeways"],"shield_text":"1","ref":"2","all_shield_texts":["1","75","2"]},"arcs":[[606],[607]]},{"type":"MultiLineString","properties":{"bus_network":null,"name:en":"Shahid Kamyab Boulevard","sort_rank":380,"kind_detail":"primary","kind":"major_road","source":"openstreetmap.org","min_zoom":8.0,"bus_shield_text":"37","landuse_kind":"urban_area"},"arcs":[[608],[609]]},{"type":"LineString","properties":{"bus_network":null,"sort_rank":380,"kind_detail":"primary","kind":"major_road","source":"openstreetmap.org","min_zoom":8.0,"bus_shield_text":"37","landuse_kind":"residential"},"arcs":[610]},{"type":"MultiLineString","properties":{"source":"openstreetmap.org","kind":"major_road","name:en":"West Emam Reza boulevard","kind_detail":"primary","sort_rank":380,"landuse_kind":"urban_area","min_zoom":8.0},"arcs":[[611],[612]]},{"type":"MultiLineString","properties":{"bus_network":null,"name:en":"Mother Square","sort_rank":380,"kind_detail":"primary","kind":"major_road","source":"openstreetmap.org","min_zoom":8.0,"bus_shield_text":"EXP-3","landuse_kind":"residential"},"arcs":[[613],[614]]},{"type":"LineString","properties":{"kind":"major_road","name:en":"Eastern Tunnel","sort_rank":380,"landuse_kind":"residential","source":"openstreetmap.org","min_zoom":8.0,"kind_detail":"primary","id":49360385},"arcs":[615]},{"type":"LineString","properties":{"kind":"major_road","name:en":"Shahid Gharani Blvd.","sort_rank":380,"kind_detail":"primary","bus_network":null,"source":"openstreetmap.org","min_zoom":8.0,"bus_shield_text":"12\/1","landuse_kind":"urban_area","id":24392760},"arcs":[616]},{"type":"LineString","properties":{"kind":"major_road","name:en":"7th Azar square","sort_rank":381,"kind_detail":"trunk","bus_network":null,"source":"openstreetmap.org","min_zoom":8.0,"bus_shield_text":"17","landuse_kind":"residential","id":382629820},"arcs":[617]},{"type":"LineString","properties":{"kind":"major_road","sort_rank":380,"kind_detail":"primary","bus_network":null,"source":"openstreetmap.org","min_zoom":8.0,"bus_shield_text":"42","landuse_kind":"urban_area","id":52510920},"arcs":[618]},{"type":"LineString","properties":{"bus_network":null,"name:en":"Shahnameh boulevard","sort_rank":380,"kind_detail":"primary","kind":"major_road","source":"openstreetmap.org","min_zoom":8.0,"bus_shield_text":"202"},"arcs":[619]},{"type":"MultiLineString","properties":{"source":"openstreetmap.org","kind":"major_road","name:en":"Tabarsi","kind_detail":"primary","sort_rank":380,"landuse_kind":"urban_area","min_zoom":8.0},"arcs":[[620],[621]]},{"type":"LineString","properties":{"kind":"major_road","name:en":"Hafez Square","sort_rank":380,"kind_detail":"primary","bus_network":null,"source":"openstreetmap.org","min_zoom":8.0,"bus_shield_text":"100","loc_name":"\u0641\u0644\u06a9\u0647 \u06af\u0627\u0631\u0627\u0698\u062f\u0627\u0631\u0647\u0627","landuse_kind":"urban_area","id":24041335},"arcs":[622]},{"type":"LineString","properties":{"kind":"major_road","name:en":"Shahid Cheraghchi Expressway","network":"ir:national","sort_rank":381,"kind_detail":"trunk","bus_network":null,"source":"openstreetmap.org","min_zoom":8.0,"bus_shield_text":"EXP-3","shield_text":"22","landuse_kind":"urban_area","id":382648769},"arcs":[623]},{"type":"LineString","properties":{"kind":"major_road","name:en":"Ayatollah Ebadi Boulevard","sort_rank":380,"kind_detail":"primary","source":"openstreetmap.org","min_zoom":8.0,"old_name":"\u062e\u06cc\u0627\u0628\u0627\u0646 \u062e\u0648\u0627\u062c\u0647 \u0631\u0628\u06cc\u0639","landuse_kind":"residential","id":377576568},"arcs":[624]},{"type":"LineString","properties":{"kind":"major_road","name:en":"Tartib Square","sort_rank":380,"kind_detail":"primary","bus_network":null,"source":"openstreetmap.org","min_zoom":8.0,"bus_shield_text":"12\/1","landuse_kind":"residential","id":35683872},"arcs":[625]},{"type":"MultiLineString","properties":{"bus_network":null,"sort_rank":380,"kind_detail":"primary","kind":"major_road","source":"openstreetmap.org","min_zoom":8.0,"bus_shield_text":"12\/1","landuse_kind":"residential"},"arcs":[[626],[627]]},{"type":"MultiLineString","properties":{"kind":"highway","network":"AH","sort_rank":383,"kind_detail":"motorway","source":"openstreetmap.org","min_zoom":8.0,"all_networks":["AH","AsianHighway","ir:freeways"],"shield_text":"1","all_shield_texts":["1","75","2"]},"arcs":[[628],[629]]},{"type":"LineString","properties":{"kind":"major_road","name:en":"Western Tunnel","sort_rank":380,"landuse_kind":"residential","source":"openstreetmap.org","min_zoom":8.0,"kind_detail":"primary","id":49360374},"arcs":[630]},{"type":"MultiLineString","properties":{"bus_network":null,"name:en":"Piroozi Boulevard","sort_rank":380,"kind_detail":"primary","kind":"major_road","source":"openstreetmap.org","min_zoom":8.0,"bus_shield_text":"EXP-4","landuse_kind":"urban_area"},"arcs":[[631],[632],[633],[634]]},{"type":"MultiLineString","properties":{"bus_network":null,"name:en":"Palestine Square","sort_rank":380,"kind_detail":"primary","kind":"major_road","source":"openstreetmap.org","min_zoom":8.0,"bus_shield_text":"37\/1","landuse_kind":"urban_area"},"arcs":[[635],[636]]},{"type":"MultiLineString","properties":{"bus_network":null,"name:en":"Janbaz Square","sort_rank":380,"kind_detail":"primary","kind":"major_road","source":"openstreetmap.org","min_zoom":8.0,"bus_shield_text":"42","landuse_kind":"residential"},"arcs":[[637],[638]]},{"type":"MultiLineString","properties":{"bus_network":null,"name:en":"Azadi Square","sort_rank":381,"landuse_kind":"urban_area","kind":"major_road","source":"openstreetmap.org","min_zoom":8.0,"bus_shield_text":"98\/1","kind_detail":"trunk"},"arcs":[[639],[640]]},{"type":"LineString","properties":{"kind":"major_road","name:en":"Malek Abad Blvd.","sort_rank":380,"landuse_kind":"urban_area","source":"openstreetmap.org","min_zoom":8.0,"kind_detail":"primary","id":383029427},"arcs":[641]},{"type":"MultiLineString","properties":{"bus_network":null,"name:en":"Shahnameh boulevard","sort_rank":380,"kind_detail":"primary","kind":"major_road","source":"openstreetmap.org","min_zoom":8.0,"bus_shield_text":"202","landuse_kind":"urban_area"},"arcs":[[642],[643],[644],[645],[646],[647],[648],[649]]},{"type":"MultiLineString","properties":{"kind":"major_road","name:en":"Shahid Mirzaei Expressway","network":"ir:national","sort_rank":381,"landuse_kind":"urban_area","source":"openstreetmap.org","min_zoom":8.0,"kind_detail":"trunk","shield_text":"22"},"arcs":[[650],[651],[652],[653],[654]]},{"type":"MultiLineString","properties":{"kind":"highway","name:en":"Mashhad Northern Bypass Freeway","network":"AsianHighway","sort_rank":383,"kind_detail":"motorway","source":"openstreetmap.org","min_zoom":8.0,"all_networks":["AsianHighway","ir:freeways"],"shield_text":"75","all_shield_texts":["75",null]},"arcs":[[655],[656]]},{"type":"LineString","properties":{"kind":"major_road","name:en":"Me'raj Square","sort_rank":380,"kind_detail":"primary","bus_network":null,"source":"openstreetmap.org","min_zoom":8.0,"bus_shield_text":"22","landuse_kind":"urban_area","id":24433401},"arcs":[657]},{"type":"LineString","properties":{"kind":"major_road","name:en":"Danesh square","sort_rank":380,"kind_detail":"primary","bus_network":null,"source":"openstreetmap.org","min_zoom":8.0,"bus_shield_text":"12\/1","landuse_kind":"residential","id":24301656},"arcs":[658]},{"type":"MultiLineString","properties":{"kind":"major_road","alt_name:en":"MalekoShoarae Bahar Boulevard","sort_rank":380,"kind_detail":"primary","source":"openstreetmap.org","min_zoom":8.0,"name:en":"Bahar Boulevard","landuse_kind":"residential"},"arcs":[[659],[660]]},{"type":"LineString","properties":{"name:fa":"\u0628\u0632\u06af\u0631\u0627\u0647 \u0645\u06cc\u062b\u0627\u0642","kind":"major_road","sort_rank":381,"kind_detail":"trunk","bus_network":null,"source":"openstreetmap.org","min_zoom":8.0,"bus_shield_text":"EXP-4","landuse_kind":"residential","id":385028169},"arcs":[661]},{"type":"MultiLineString","properties":{"source":"openstreetmap.org","kind":"major_road","name:en":"Sayad Shirazi square","landuse_kind":"residential","sort_rank":380,"kind_detail":"primary","min_zoom":8.0},"arcs":[[662],[663]]},{"type":"LineString","properties":{"kind":"major_road","name:en":"Emam Reza Boulevard","network":"ir:national","sort_rank":380,"kind_detail":"primary","source":"openstreetmap.org","min_zoom":8.0,"landuse_kind":"urban_area","shield_text":"22","ref":"22"},"arcs":[664]},{"type":"LineString","properties":{"kind":"major_road","name:en":"Hafez Square","sort_rank":380,"kind_detail":"primary","bus_network":null,"source":"openstreetmap.org","min_zoom":8.0,"bus_shield_text":"EXP-4","landuse_kind":"residential","id":58527927},"arcs":[665]},{"type":"LineString","properties":{"kind":"major_road","name:en":"Imam Khomeini street","sort_rank":380,"kind_detail":"primary","bus_network":null,"source":"openstreetmap.org","min_zoom":8.0,"bus_shield_text":"38\/1","landuse_kind":"residential","id":325020178},"arcs":[666]},{"type":"LineString","properties":{"kind":"major_road","name:en":"Resalat boulevard","sort_rank":380,"landuse_kind":"residential","source":"openstreetmap.org","min_zoom":8.0,"kind_detail":"primary","id":24823370},"arcs":[667]},{"type":"LineString","properties":{"kind":"major_road","name:en":"Hashemieh bridge","sort_rank":380,"landuse_kind":"urban_area","source":"openstreetmap.org","min_zoom":8.0,"kind_detail":"primary","id":23992772},"arcs":[668]},{"type":"MultiLineString","properties":{"source":"openstreetmap.org","kind":"major_road","name:en":"Emamieh Boulevard","landuse_kind":"residential","sort_rank":380,"kind_detail":"primary","min_zoom":8.0},"arcs":[[669],[670]]},{"type":"MultiLineString","properties":{"bus_network":null,"name:en":"Khayam Boulevard","sort_rank":380,"kind_detail":"primary","kind":"major_road","source":"openstreetmap.org","min_zoom":8.0,"bus_shield_text":"88","landuse_kind":"residential"},"arcs":[[671],[672],[673],[674]]},{"type":"MultiLineString","properties":{"kind":"major_road","network":"ir:national","sort_rank":381,"landuse_kind":"urban_area","source":"openstreetmap.org","min_zoom":8.0,"kind_detail":"trunk","shield_text":"97"},"arcs":[[675],[676],[677],[678]]},{"type":"MultiLineString","properties":{"source":"openstreetmap.org","kind":"major_road","name:en":"Seyed Razi Boulevard","landuse_kind":"urban_area","sort_rank":380,"kind_detail":"primary","min_zoom":8.0},"arcs":[[679],[680],[681],[682]]},{"type":"MultiLineString","properties":{"bus_network":null,"name:en":"Shahid Fahmideh Square","sort_rank":380,"kind_detail":"primary","kind":"major_road","source":"openstreetmap.org","min_zoom":8.0,"bus_shield_text":"EXP-3","landuse_kind":"urban_area"},"arcs":[[683],[684]]},{"type":"MultiLineString","properties":{"source":"openstreetmap.org","kind":"major_road","name:en":"Imam Hosein bridge","landuse_kind":"residential","sort_rank":380,"kind_detail":"primary","min_zoom":8.0},"arcs":[[685],[686]]},{"type":"LineString","properties":{"bus_network":null,"name:en":"Jomhori Eslami Square","sort_rank":380,"kind_detail":"primary","kind":"major_road","source":"openstreetmap.org","min_zoom":8.0,"bus_shield_text":"EXP-4","loc_name":"\u0645\u06cc\u062f\u0627\u0646 \u062a\u0644\u0648\u06cc\u0632\u06cc\u0648\u0646","landuse_kind":"urban_area"},"arcs":[687]},{"type":"MultiLineString","properties":{"kind":"highway","name:en":"Mashhad Northern Bypass Freeway","network":"ir:freeways","sort_rank":383,"kind_detail":"motorway","source":"openstreetmap.org","min_zoom":8.0,"all_networks":["ir:freeways"],"shield_text":null,"all_shield_texts":[null]},"arcs":[[688],[689],[690],[691],[692],[693],[694],[695]]},{"type":"LineString","properties":{"kind":"major_road","name:en":"Kushesh Boulevard","sort_rank":380,"landuse_kind":"urban_area","source":"openstreetmap.org","min_zoom":8.0,"kind_detail":"primary","id":24041348},"arcs":[696]},{"type":"MultiLineString","properties":{"bus_network":null,"name:en":"Khayam Boulevard","sort_rank":380,"kind_detail":"primary","kind":"major_road","source":"openstreetmap.org","min_zoom":8.0,"bus_shield_text":"88","landuse_kind":"urban_area"},"arcs":[[697],[698],[699],[700],[701],[702]]},{"type":"MultiLineString","properties":{"bus_network":null,"name:en":"Imam Ali Expressway","sort_rank":381,"kind_detail":"trunk","kind":"major_road","source":"openstreetmap.org","min_zoom":8.0,"bus_shield_text":"EXP-4","landuse_kind":"residential"},"arcs":[[703],[704]]},{"type":"LineString","properties":{"source":"openstreetmap.org","kind":"major_road","sort_rank":380,"kind_detail":"primary","ref":"22","min_zoom":8.0},"arcs":[705]},{"type":"MultiLineString","properties":{"kind":"highway","name:en":"Mashhad Northern Bypass Freeway","network":"ir:freeways","sort_rank":383,"landuse_kind":"urban_area","source":"openstreetmap.org","min_zoom":8.0,"all_networks":["ir:freeways"],"kind_detail":"motorway","shield_text":null,"all_shield_texts":[null]},"arcs":[[706],[707],[708],[709],[710],[711],[712],[713]]},{"type":"MultiLineString","properties":{"bus_network":null,"name:en":"Shahid Kalantary Highway","sort_rank":381,"landuse_kind":"urban_area","kind":"major_road","source":"openstreetmap.org","min_zoom":8.0,"bus_shield_text":"EXP-4","kind_detail":"trunk"},"arcs":[[714],[715],[716],[717],[718],[719],[720]]},{"type":"MultiLineString","properties":{"source":"openstreetmap.org","kind":"major_road","landuse_kind":"urban_area","sort_rank":380,"kind_detail":"primary","min_zoom":8.0},"arcs":[[721],[722],[723],[724],[725],[726],[727],[728],[729],[730],[731],[732],[733],[734],[735],[736],[737],[738],[739],[740],[741],[742],[743],[744],[745],[746],[747],[748],[749],[750],[751],[752],[753],[754],[755],[756],[757],[758],[759],[760],[761],[762],[763],[764],[765],[766],[767],[768],[769],[770],[771],[772]]},{"type":"MultiLineString","properties":{"bus_network":null,"name:en":"Vakil Abad Expressway","sort_rank":381,"landuse_kind":"urban_area","kind":"major_road","source":"openstreetmap.org","min_zoom":8.0,"bus_shield_text":"12\/1","kind_detail":"trunk"},"arcs":[[773],[774],[775]]},{"type":"MultiLineString","properties":{"bus_network":null,"sort_rank":380,"kind_detail":"primary","kind":"major_road","source":"openstreetmap.org","min_zoom":8.0,"bus_shield_text":"38\/1","landuse_kind":"urban_area"},"arcs":[[776],[777]]},{"type":"MultiLineString","properties":{"bus_network":null,"name:en":"15th Khordad square","sort_rank":380,"landuse_kind":"residential","kind":"major_road","source":"openstreetmap.org","min_zoom":8.0,"bus_shield_text":"BRT-1","kind_detail":"primary"},"arcs":[[778],[779]]},{"type":"MultiLineString","properties":{"bus_network":null,"name:en":"Mashhad-Quchan Expressway","network":"ir:national","sort_rank":381,"landuse_kind":"urban_area","kind":"major_road","source":"openstreetmap.org","min_zoom":8.0,"bus_shield_text":"202","shield_text":"22","kind_detail":"trunk","ref":"22"},"arcs":[[780],[781],[782],[783],[784]]},{"type":"MultiLineString","properties":{"source":"openstreetmap.org","kind":"major_road","name:en":"22th. Bahman Blvd.","landuse_kind":"urban_area","sort_rank":380,"kind_detail":"primary","min_zoom":8.0},"arcs":[[785],[786]]},{"type":"LineString","properties":{"kind":"major_road","name:en":"Jomhori Eslami Square","sort_rank":380,"kind_detail":"primary","source":"openstreetmap.org","min_zoom":8.0,"landuse_kind":"urban_area","loc_name":"\u0645\u06cc\u062f\u0627\u0646 \u062a\u0644\u0648\u06cc\u0632\u06cc\u0648\u0646","id":383533241},"arcs":[787]},{"type":"MultiLineString","properties":{"kind":"major_road","name:en":"Shahid Babanazar Expressway","network":"ir:national","sort_rank":381,"kind_detail":"trunk","source":"openstreetmap.org","min_zoom":8.0,"landuse_kind":"residential","shield_text":"22"},"arcs":[[788],[789]]},{"type":"LineString","properties":{"kind":"major_road","name:en":"Khayam Square","sort_rank":380,"kind_detail":"primary","bus_network":null,"source":"openstreetmap.org","min_zoom":8.0,"bus_shield_text":"21","landuse_kind":"residential","id":46106483},"arcs":[790]},{"type":"MultiLineString","properties":{"bus_network":null,"name:en":"Shahid Gharani Blvd","sort_rank":380,"kind_detail":"primary","kind":"major_road","source":"openstreetmap.org","min_zoom":8.0,"bus_shield_text":"12\/1","landuse_kind":"residential"},"arcs":[[791],[792]]},{"type":"MultiLineString","properties":{"source":"openstreetmap.org","kind":"major_road","name:en":"Toos boulevard","landuse_kind":"urban_area","sort_rank":380,"kind_detail":"primary","min_zoom":8.0},"arcs":[[793],[794]]},{"type":"LineString","properties":{"kind":"major_road","name:en":"Shohada Square","sort_rank":380,"kind_detail":"primary","bus_network":null,"source":"openstreetmap.org","min_zoom":8.0,"bus_shield_text":"38\/1","landuse_kind":"residential","id":371495566},"arcs":[795]},{"type":"LineString","properties":{"kind":"major_road","name:en":"Vahdat Boulevard","sort_rank":380,"kind_detail":"primary","bus_network":null,"source":"openstreetmap.org","min_zoom":8.0,"bus_shield_text":"32","landuse_kind":"residential","id":382908573},"arcs":[796]},{"type":"MultiLineString","properties":{"bus_network":null,"name:en":"Islamic Republic Boulevard","sort_rank":380,"kind_detail":"primary","kind":"major_road","source":"openstreetmap.org","min_zoom":8.0,"bus_shield_text":"37","landuse_kind":"residential"},"arcs":[[797],[798]]},{"type":"LineString","properties":{"kind":"major_road","name:en":"Nowghan Bridge","sort_rank":380,"kind_detail":"primary","is_bicycle_related":true,"bus_network":null,"source":"openstreetmap.org","min_zoom":8.0,"bus_shield_text":"32","landuse_kind":"urban_area","id":52292361},"arcs":[799]},{"type":"LineString","properties":{"kind":"major_road","sort_rank":380,"kind_detail":"primary","bus_network":null,"source":"openstreetmap.org","min_zoom":8.0,"bus_shield_text":"21","landuse_kind":"urban_area","id":46106478},"arcs":[800]},{"type":"MultiLineString","properties":{"kind":"major_road","network":"ir:national","sort_rank":380,"kind_detail":"primary","source":"openstreetmap.org","min_zoom":8.0,"shield_text":"22","ref":"22"},"arcs":[[801],[802],[803],[804],[805],[806],[807],[808]]},{"type":"MultiLineString","properties":{"bus_network":null,"name:en":"Shahed Boulevard","sort_rank":380,"kind_detail":"primary","kind":"major_road","source":"openstreetmap.org","min_zoom":8.0,"bus_shield_text":"EXP-3","landuse_kind":"residential"},"arcs":[[809],[810],[811],[812]]},{"type":"LineString","properties":{"kind":"major_road","name:en":"Kooshesh Blvd.","sort_rank":380,"landuse_kind":"urban_area","source":"openstreetmap.org","min_zoom":8.0,"kind_detail":"primary","id":389581480},"arcs":[813]},{"type":"MultiLineString","properties":{"source":"openstreetmap.org","kind":"major_road","name:en":"Shahid Ghane Boulevard","landuse_kind":"residential","sort_rank":380,"kind_detail":"primary","min_zoom":8.0},"arcs":[[814],[815]]},{"type":"MultiLineString","properties":{"bus_network":null,"name:en":"Shahid Mirzaei Expressway","network":"ir:national","sort_rank":381,"kind_detail":"trunk","kind":"major_road","source":"openstreetmap.org","min_zoom":8.0,"bus_shield_text":"EXP-3","shield_text":"22","landuse_kind":"urban_area"},"arcs":[[816],[817],[818]]},{"type":"MultiLineString","properties":{"kind":"major_road","name:en":"Emam Reza","sort_rank":380,"kind_detail":"primary","source":"openstreetmap.org","min_zoom":8.0,"old_name":"\u062e\u06cc\u0627\u0628\u0627\u0646 \u062a\u0647\u0631\u0627\u0646","landuse_kind":"residential"},"arcs":[[819],[820]]},{"type":"LineString","properties":{"kind":"major_road","sort_rank":380,"kind_detail":"primary","bus_network":null,"source":"openstreetmap.org","min_zoom":8.0,"bus_shield_text":"80","landuse_kind":"urban_area","id":46106497},"arcs":[821]},{"type":"MultiLineString","properties":{"bus_network":null,"name:en":"Daneshgah Street","sort_rank":380,"kind_detail":"primary","kind":"major_road","source":"openstreetmap.org","min_zoom":8.0,"bus_shield_text":"38\/1","landuse_kind":"residential"},"arcs":[[822],[823],[824]]},{"type":"MultiLineString","properties":{"bus_network":null,"name:en":"Vakil Abad Expressway","sort_rank":381,"landuse_kind":"urban_area","kind":"major_road","source":"openstreetmap.org","min_zoom":8.0,"bus_shield_text":"38\/1","kind_detail":"trunk"},"arcs":[[825],[826],[827]]},{"type":"MultiLineString","properties":{"source":"openstreetmap.org","kind":"major_road","name:en":"Piroozi Boulevard","landuse_kind":"residential","sort_rank":380,"kind_detail":"primary","min_zoom":8.0},"arcs":[[828],[829],[830],[831]]},{"type":"MultiLineString","properties":{"bus_network":null,"name:en":"Resalat boulevard","sort_rank":380,"kind_detail":"primary","kind":"major_road","source":"openstreetmap.org","min_zoom":8.0,"bus_shield_text":"32","landuse_kind":"residential"},"arcs":[[832],[833]]},{"type":"MultiLineString","properties":{"kind":"major_road","name:en":"Ayatollah Shirazi street","sort_rank":380,"kind_detail":"primary","source":"openstreetmap.org","min_zoom":8.0,"old_name":"\u0628\u0627\u0644\u0627 \u062e\u06cc\u0627\u0628\u0627\u0646","landuse_kind":"residential"},"arcs":[[834],[835]]},{"type":"MultiLineString","properties":{"bus_network":null,"name:en":"Khayam Square","sort_rank":380,"kind_detail":"primary","kind":"major_road","source":"openstreetmap.org","min_zoom":8.0,"bus_shield_text":"80","landuse_kind":"urban_area"},"arcs":[[836],[837]]},{"type":"MultiLineString","properties":{"source":"openstreetmap.org","kind":"major_road","name:en":"Azadi Square Bridge","kind_detail":"trunk","sort_rank":381,"landuse_kind":"urban_area","min_zoom":8.0},"arcs":[[838],[839]]},{"type":"MultiLineString","properties":{"bus_network":null,"name:en":"Saadi Square","sort_rank":380,"kind_detail":"primary","kind":"major_road","source":"openstreetmap.org","min_zoom":8.0,"bus_shield_text":"38\/1","landuse_kind":"residential"},"arcs":[[840],[841]]},{"type":"MultiLineString","properties":{"bus_network":null,"name:en":"Ayatollah Ebadi Boulevard","sort_rank":380,"kind_detail":"primary","old_name":"\u062e\u06cc\u0627\u0628\u0627\u0646 \u062e\u0648\u0627\u062c\u0647 \u0631\u0628\u06cc\u0639","kind":"major_road","source":"openstreetmap.org","min_zoom":8.0,"bus_shield_text":"EXP-2","landuse_kind":"residential"},"arcs":[[842],[843],[844],[845]]},{"type":"MultiLineString","properties":{"bus_network":null,"name:en":"Misagh Expressway","sort_rank":381,"landuse_kind":"urban_area","kind":"major_road","source":"openstreetmap.org","min_zoom":8.0,"bus_shield_text":"42","kind_detail":"trunk"},"arcs":[[846],[847]]},{"type":"MultiLineString","properties":{"bus_network":null,"sort_rank":380,"kind_detail":"primary","kind":"major_road","source":"openstreetmap.org","min_zoom":8.0,"bus_shield_text":"38\/1","landuse_kind":"residential"},"arcs":[[848],[849],[850],[851]]},{"type":"MultiLineString","properties":{"source":"openstreetmap.org","kind":"major_road","name:en":"Sayad Shirazi Bridge","landuse_kind":"urban_area","sort_rank":380,"kind_detail":"primary","min_zoom":8.0},"arcs":[[852],[853]]},{"type":"MultiLineString","properties":{"source":"openstreetmap.org","kind":"major_road","name:en":"Misagh Expressway","kind_detail":"trunk","sort_rank":381,"landuse_kind":"urban_area","min_zoom":8.0},"arcs":[[854],[855],[856]]},{"type":"MultiLineString","properties":{"source":"openstreetmap.org","kind":"major_road","name:en":"Shahid Babanazar Expressway","kind_detail":"trunk","sort_rank":381,"landuse_kind":"urban_area","min_zoom":8.0},"arcs":[[857],[858]]},{"type":"MultiLineString","properties":{"source":"openstreetmap.org","kind":"major_road","name:en":"Seyed Razi Boulevard","landuse_kind":"residential","sort_rank":380,"kind_detail":"primary","min_zoom":8.0},"arcs":[[859],[860],[861],[862],[863]]},{"type":"MultiLineString","properties":{"kind":"major_road","name:en":"Shahid Mohammad Montazeri Boulevard","sort_rank":380,"kind_detail":"primary","source":"openstreetmap.org","min_zoom":8.0,"landuse_kind":"urban_area","loc_name":"\u0628\u0648\u0644\u0648\u0627\u0631 \u062a\u0644\u0648\u06cc\u0632\u06cc\u0648\u0646"},"arcs":[[864],[865],[866]]},{"type":"MultiLineString","properties":{"bus_network":null,"name:en":"Beit-ol-Moqadas Square","sort_rank":380,"kind_detail":"primary","kind":"major_road","source":"openstreetmap.org","min_zoom":8.0,"old_name:fa":"\u0641\u0644\u06a9\u0647 \u0622\u0628","bus_shield_text":"BRT-1","landuse_kind":"residential"},"arcs":[[867],[868]]},{"type":"MultiLineString","properties":{"bus_network":null,"name:en":"Janbaz Square","sort_rank":380,"kind_detail":"primary","kind":"major_road","source":"openstreetmap.org","min_zoom":8.0,"bus_shield_text":"12\/1","landuse_kind":"residential"},"arcs":[[869],[870]]},{"type":"MultiLineString","properties":{"kind":"major_road","name:en":"Bozorgrah-e-Mashad-Quchan","network":"ir:national","sort_rank":381,"landuse_kind":"urban_area","source":"openstreetmap.org","min_zoom":8.0,"kind_detail":"trunk","shield_text":"22","ref":"22"},"arcs":[[871],[872]]},{"type":"MultiLineString","properties":{"bus_network":null,"name:en":"Misagh Expressway","sort_rank":381,"kind_detail":"trunk","kind":"major_road","source":"openstreetmap.org","min_zoom":8.0,"bus_shield_text":"42","landuse_kind":"residential"},"arcs":[[873],[874]]},{"type":"MultiLineString","properties":{"bus_network":null,"name:en":"Toos boulevard","sort_rank":380,"kind_detail":"primary","kind":"major_road","source":"openstreetmap.org","min_zoom":8.0,"bus_shield_text":"37\/1","landuse_kind":"urban_area"},"arcs":[[875],[876]]},{"type":"LineString","properties":{"kind":"major_road","name:en":"17th Shahrivar square","sort_rank":380,"kind_detail":"primary","bus_network":null,"source":"openstreetmap.org","min_zoom":8.0,"bus_shield_text":"83","landuse_kind":"residential","ref":"\u0637\u0631\u062d \u062a\u0631\u0627\u0641\u06cc\u06a9 \u0648 \u0632\u0648\u062c \u0648 \u0641\u0631\u062f","id":24210594},"arcs":[877]},{"type":"MultiLineString","properties":{"bus_network":null,"name:en":"Dr. Shariati Square","sort_rank":380,"kind_detail":"primary","bus_shield_text":"38\/1","kind":"major_road","source":"openstreetmap.org","min_zoom":8.0,"old_name":"\u0641\u0644\u06a9\u0647 \u062a\u0642\u06cc \u0622\u0628\u0627\u062f","landuse_kind":"residential"},"arcs":[[878],[879]]},{"type":"MultiLineString","properties":{"bus_network":null,"name:en":"Resalat Blvd.","sort_rank":380,"kind_detail":"primary","is_bicycle_related":true,"kind":"major_road","source":"openstreetmap.org","min_zoom":8.0,"bus_shield_text":"32","landuse_kind":"residential"},"arcs":[[880],[881]]},{"type":"LineString","properties":{"source":"openstreetmap.org","kind":"major_road","name:en":"Emam Reza Boulevard","landuse_kind":"urban_area","sort_rank":380,"kind_detail":"primary","min_zoom":8.0},"arcs":[882]},{"type":"MultiLineString","properties":{"bus_network":null,"name:en":"Shahid Kalantary Highway","sort_rank":381,"landuse_kind":"urban_area","kind":"major_road","source":"openstreetmap.org","min_zoom":8.0,"bus_shield_text":"100","kind_detail":"trunk"},"arcs":[[883],[884],[885],[886],[887],[888],[889],[890],[891],[892],[893]]},{"type":"MultiLineString","properties":{"bus_network":null,"name:en":"Imam Khomeini Boulevard","sort_rank":380,"kind_detail":"primary","kind":"major_road","source":"openstreetmap.org","min_zoom":8.0,"bus_shield_text":"EXP-2","landuse_kind":"residential"},"arcs":[[894],[895],[896],[897],[898],[899]]},{"type":"MultiLineString","properties":{"kind":"major_road","name:en":"Hor Boulevard","network":"ir:national","sort_rank":380,"kind_detail":"primary","source":"openstreetmap.org","min_zoom":8.0,"landuse_kind":"urban_area","shield_text":"22","ref":"22"},"arcs":[[900],[901]]},{"type":"LineString","properties":{"bus_network":null,"name:en":"Holy Shrine Tunnel","sort_rank":380,"kind_detail":"primary","kind":"major_road","source":"openstreetmap.org","min_zoom":8.0,"bus_shield_text":"BRT-1","landuse_kind":"residential"},"arcs":[902]},{"type":"MultiLineString","properties":{"source":"openstreetmap.org","kind":"major_road","name:en":"Moallem Boulevard","landuse_kind":"residential","sort_rank":380,"kind_detail":"primary","min_zoom":8.0},"arcs":[[903],[904]]},{"type":"LineString","properties":{"kind":"major_road","name:en":"Emam Reza Boulevard","sort_rank":380,"kind_detail":"primary","bus_shield_text":"BRT-1","bus_network":null,"source":"openstreetmap.org","min_zoom":8.0,"old_name":"\u062e\u06cc\u0627\u0628\u0627\u0646 \u062a\u0647\u0631\u0627\u0646","landuse_kind":"residential","ref":"\u0637\u0631\u062d \u0632\u0648\u062c \u0648 \u0641\u0631\u062f \u0648 \u062a\u0630\u0627\u0641\u06cc\u06a9 ","id":26351791},"arcs":[905]},{"type":"MultiLineString","properties":{"bus_network":null,"name:en":"Basij Expressway","sort_rank":381,"landuse_kind":"urban_area","kind":"major_road","source":"openstreetmap.org","min_zoom":8.0,"bus_shield_text":"100","kind_detail":"trunk"},"arcs":[[906],[907],[908]]},{"type":"MultiLineString","properties":{"source":"openstreetmap.org","kind":"major_road","name:en":"Azadi Square","kind_detail":"trunk","sort_rank":381,"landuse_kind":"urban_area","min_zoom":8.0},"arcs":[[909],[910]]},{"type":"LineString","properties":{"kind":"major_road","name:en":"Emam Reza square","sort_rank":380,"landuse_kind":"urban_area","source":"openstreetmap.org","min_zoom":8.0,"kind_detail":"primary","id":142298169},"arcs":[911]},{"type":"LineString","properties":{"bus_network":null,"name:en":"Azadi Expressway","sort_rank":381,"landuse_kind":"urban_area","kind":"major_road","source":"openstreetmap.org","min_zoom":8.0,"bus_shield_text":"202","kind_detail":"trunk"},"arcs":[912]},{"type":"MultiLineString","properties":{"kind":"major_road","network":"ir:national","sort_rank":381,"landuse_kind":"urban_area","source":"openstreetmap.org","min_zoom":8.0,"kind_detail":"trunk","shield_text":"44","ref":"44"},"arcs":[[913],[914]]},{"type":"MultiLineString","properties":{"bus_network":null,"name:en":"Abdol Mottaleb Boulevard","sort_rank":380,"kind_detail":"primary","kind":"major_road","source":"openstreetmap.org","min_zoom":8.0,"bus_shield_text":"37\/1","landuse_kind":"residential"},"arcs":[[915],[916]]},{"type":"MultiLineString","properties":{"source":"openstreetmap.org","kind":"major_road","name:en":"Imam Khomeini street","landuse_kind":"residential","sort_rank":380,"kind_detail":"primary","min_zoom":8.0},"arcs":[[917],[918]]},{"type":"LineString","properties":{"kind":"major_road","name:en":"Hashemieh bridge","sort_rank":380,"kind_detail":"primary","bus_network":null,"source":"openstreetmap.org","min_zoom":8.0,"bus_shield_text":"98\/1","landuse_kind":"urban_area","id":23992776},"arcs":[919]},{"type":"LineString","properties":{"kind":"major_road","name:en":"Hafez Square","sort_rank":380,"kind_detail":"primary","source":"openstreetmap.org","min_zoom":8.0,"landuse_kind":"urban_area","loc_name":"\u0641\u0644\u06a9\u0647 \u06af\u0627\u0631\u0627\u0698\u062f\u0627\u0631\u0647\u0627"},"arcs":[920]},{"type":"LineString","properties":{"kind":"major_road","name:en":"Emam Reza Boulevard","sort_rank":380,"kind_detail":"primary","bus_shield_text":"BRT-1","bus_network":null,"source":"openstreetmap.org","min_zoom":8.0,"old_name":"\u062e\u06cc\u0627\u0628\u0627\u0646 \u062a\u0647\u0631\u0627\u0646","landuse_kind":"residential","id":26351762},"arcs":[921]},{"type":"LineString","properties":{"bus_network":null,"name:en":"Kushesh Boulevard","sort_rank":380,"kind_detail":"primary","kind":"major_road","source":"openstreetmap.org","min_zoom":8.0,"bus_shield_text":"83","landuse_kind":"residential"},"arcs":[922]},{"type":"MultiLineString","properties":{"bus_network":null,"name:en":"Shahid Kamyab Boulevard","sort_rank":380,"kind_detail":"primary","kind":"major_road","source":"openstreetmap.org","min_zoom":8.0,"bus_shield_text":"38\/1","landuse_kind":"urban_area"},"arcs":[[923],[924],[925]]},{"type":"MultiLineString","properties":{"source":"openstreetmap.org","kind":"major_road","name:en":"Shahid Kaveh","landuse_kind":"urban_area","sort_rank":380,"kind_detail":"primary","min_zoom":8.0},"arcs":[[926],[927]]},{"type":"MultiLineString","properties":{"bus_network":null,"name:en":"Hashemieh Boulevard","sort_rank":380,"kind_detail":"primary","kind":"major_road","source":"openstreetmap.org","min_zoom":8.0,"bus_shield_text":"98\/1","landuse_kind":"residential"},"arcs":[[928],[929],[930],[931]]}]},"earth":{"type":"GeometryCollection","geometries":[{"type":"Polygon","properties":{"sort_rank":10,"source":"naturalearthdata.com","min_zoom":0.0,"kind":"earth","area":98022885885},"arcs":[[932]]}]},"landuse":{"type":"GeometryCollection","geometries":[{"type":"MultiPolygon","properties":{"source":"openstreetmap.org","kind":"residential","tier":2,"area":233257213,"sort_rank":20,"min_zoom":8.0},"arcs":[[[933]],[[934]],[[935]],[[936]],[[937]]]},{"type":"MultiPolygon","properties":{"source":"naturalearthdata.com","kind":"urban_area","name":"","area":2685514491,"sort_rank":11,"min_zoom":4.0},"arcs":[[[938]],[[939]],[[940]],[[941]],[[942]],[[943]],[[944]],[[945]],[[946]]]}]}},"type":"Topology","transform":{"translate":[59.0625,35.4606699515],"scale":[0.0003433228,0.0002776414]},"arcs":[[[0,2128],[103,-48],[294,-220]],[[648,1734],[-45,8]],[[603,1742],[-3,1]],[[600,1743],[-188,106]],[[412,1849],[-309,231],[-5,4],[-7,4],[-91,41]],[[459,1813],[-47,36]],[[489,1791],[10,-8],[10,-5],[91,-35]],[[603,1742],[488,-11],[182,80],[23,-2],[49,-24],[10,-3],[35,-1],[113,9]],[[1503,1790],[150,-8],[7,0],[6,1],[62,13],[8,3],[4,2],[19,9],[5,2],[25,9],[6,2],[59,31],[25,4],[37,-6],[11,0],[9,1],[5,1],[7,2],[10,4],[8,4],[4,2],[5,4],[4,3],[39,44]],[[1244,1801],[19,8],[6,2],[4,0],[5,1],[7,0],[3,-1],[6,-1],[3,-2],[6,-2],[42,-21],[13,-3],[33,0],[79,7],[5,0],[28,1]],[[1503,1790],[160,-7],[71,15],[104,51],[9,3],[17,5],[15,1],[40,-6],[24,3],[118,116],[30,93],[-4,65],[0,90],[-43,53],[-106,231]],[[1938,2503],[-100,203]],[[1655,3012],[14,-26]],[[1656,3013],[10,-14],[4,-13]],[[1669,2990],[-3,10],[-10,12]],[[1669,2984],[9,-26],[-8,27]],[[1715,2892],[-36,65]],[[1719,2885],[-3,5]],[[1799,2765],[-79,119]],[[1938,2503],[22,-46],[84,-185],[32,-32],[6,-7],[3,-8],[3,-9],[1,-7],[-1,-81],[5,-43],[72,-24]],[[2255,2042],[-108,18],[-97,-105]],[[2256,2043],[67,39],[478,2],[296,-37]],[[3098,2047],[64,73],[186,53]],[[3351,2175],[104,83],[63,-34],[186,-36],[234,73],[158,-12]],[[1583,3016],[2,1]],[[1585,3017],[4,2]],[[1589,3019],[37,16]],[[1626,3035],[2,0]],[[1628,3035],[2,0]],[[1630,3035],[2,0]],[[1632,3035],[2,1]],[[1634,3036],[2,-1]],[[1636,3035],[2,0]],[[1638,3035],[14,-13]],[[1652,3022],[4,-2]],[[1656,3020],[5,0]],[[1661,3020],[2,0]],[[1663,3020],[2,2]],[[1665,3022],[11,8]],[[1676,3030],[20,15]],[[1696,3045],[31,24]],[[1727,3069],[20,15]],[[1747,3084],[38,29]],[[1836,2708],[-37,56]],[[1294,3299],[-5,-4]],[[1290,3294],[5,5]],[[1567,2872],[-4,-5]],[[1466,3194],[6,-8]],[[1473,3186],[-5,8]],[[1394,3076],[64,-52]],[[1458,3025],[-55,44]],[[0,2275],[307,-247],[113,-142],[7,1]],[[427,1887],[4,0]],[[431,1887],[60,3],[83,45],[204,-35],[68,7],[362,78],[96,-54],[10,-1]],[[1314,1930],[110,-4],[44,-21]],[[1468,1905],[19,-9],[2,-1],[78,25]],[[1567,1921],[-70,-21],[-29,5]],[[1468,1905],[-154,25]],[[1314,1930],[-9,2],[-100,55],[-359,-79],[-72,-6],[-118,34],[-87,-1],[-138,-48]],[[431,1887],[-3,-1],[-1,1]],[[427,1887],[-118,140],[-1,2],[-54,46],[-176,141],[-78,60]],[[1644,2558],[53,-218],[19,-322],[-147,-104]],[[1638,2695],[-4,-62],[10,-75]],[[1644,2558],[-5,136]],[[1403,3116],[1,2]],[[1399,3119],[-1,-2]],[[1172,3206],[-7,-18]],[[1166,3188],[9,17]],[[1623,2989],[-4,-3]],[[1619,2986],[4,3]],[[1717,3063],[0,-2]],[[1717,3061],[4,0]],[[1699,2658],[12,-38],[193,-147]],[[1904,2473],[-203,185]],[[1904,2473],[142,-256]],[[2031,1949],[-19,-83]],[[2012,1866],[-21,-42],[47,-356],[-65,-340],[1,0],[12,-23]],[[1986,1105],[26,-51]],[[2012,1054],[7,-13],[195,-130]],[[2213,914],[-42,56],[-159,84]],[[2012,1054],[-1,1],[-25,50]],[[1986,1105],[-12,23],[0,1],[65,339],[-43,360],[16,38]],[[2031,1949],[15,268]],[[2328,837],[219,-151],[18,-23],[58,-48],[198,-168]],[[2821,447],[25,-21]],[[2846,426],[4,-3],[326,-193],[96,-127],[125,-103]],[[3410,0],[-62,41],[-171,190],[-152,90],[-1,1],[-178,104]],[[2846,426],[-25,21]],[[2821,447],[-198,168]],[[1366,3089],[-12,4]],[[1630,2994],[-1,-1]],[[1629,2993],[1,1]],[[1472,3186],[1,-1]],[[1535,3180],[0,-1]],[[1537,3182],[-1,-1]],[[1523,2895],[-1,0]],[[1523,2894]],[[1738,3053],[-10,7]],[[1734,3055],[7,-5]],[[1558,3005],[-17,-7]],[[1572,3011],[-1,0]],[[944,3086],[-30,-12]],[[914,3073],[30,13]],[[1274,3074],[0,-1],[1,0],[0,1],[-1,0]],[[1635,2954],[3,-2]],[[1646,2942],[6,-7]],[[1321,3104],[8,-3]],[[1632,3122],[6,-4]],[[1639,3122],[-5,3]],[[1375,3118],[23,-14]],[[1399,3111]],[[1239,3159],[-22,11]],[[1240,3158],[29,0]],[[1270,3159],[-30,0]],[[1271,3158],[104,-40]],[[1357,3127],[-86,32]],[[1635,2957],[0,-3]],[[1296,3339],[-5,4]],[[1293,3342],[4,-3]],[[1339,3307],[-13,9]],[[1327,3317],[9,-6]],[[1394,3078],[-2,1]],[[1587,3023],[-2,-2]],[[1403,2963],[-1,0],[1,-2],[1,1],[-1,1]],[[1640,2735],[-1,-27]],[[1721,3068],[-3,-3]],[[1723,3061],[2,4]],[[1537,3133],[-27,15],[28,-16]],[[1591,3083],[-53,49]],[[1553,3118],[38,-35]],[[1317,3103],[1,1]],[[1321,3108],[2,2]],[[1594,3021],[14,6]],[[1608,3027],[18,7]],[[1625,3035],[-17,-8]],[[1640,2728],[60,-70]],[[1700,2658],[-59,70]],[[1326,3121],[1,-1],[1,0],[0,1],[-2,0]],[[1327,3120],[-4,-10]],[[1402,2962],[-18,-27]],[[1385,2933],[18,28]],[[1416,2966],[-13,-3]],[[1404,2962],[12,4]],[[1418,2966],[18,5]],[[1694,2887],[4,-5]],[[1699,2882],[-5,5]],[[1209,3081],[1,0],[0,1],[-1,-1]],[[868,3733],[15,-12]],[[883,3721],[-15,12]],[[1640,2963],[-5,-7]],[[1635,2955],[4,7],[11,32]],[[788,3389],[-58,-16]],[[730,3372],[59,15]],[[896,3405],[-43,26],[-63,-41]],[[791,3389],[62,41],[44,-26]],[[1830,3689],[-17,-9],[-29,-20],[-1,-1],[-1,-2]],[[1782,3657],[-52,-159]],[[1730,3498],[-2,-4],[0,-1],[-24,-102]],[[1704,3391],[25,102],[1,5]],[[1730,3498],[23,102],[29,57]],[[1782,3657],[1,2],[1,1],[46,29]],[[1830,3689],[228,239],[85,30],[27,57],[138,54],[55,-11],[65,38]],[[2542,4096],[32,0]],[[2580,4096],[114,-114],[81,66],[133,-84],[87,32],[-51,100]],[[791,3389],[-2,1],[-1,-2],[2,0],[1,1]],[[1465,3195],[1,-1]],[[1468,3194],[-1,2]],[[1474,3185],[-1,1]],[[1591,3083],[16,-18]],[[1608,3065],[-17,18]],[[1160,3165],[9,-48],[4,-6]],[[1173,3113],[-12,52]],[[387,4096],[190,-170],[291,-193]],[[868,3733],[-291,193],[-190,170]],[[1641,3156],[-7,-31]],[[1637,3124],[5,34]],[[1589,3017],[5,4]],[[1972,2215],[-80,246]],[[1895,2456],[46,-98],[27,-85],[9,-36]],[[1311,3041],[0,-1],[0,-1],[1,1],[-1,1]],[[1600,2964]],[[1602,2966],[-1,0]],[[1628,3036],[-3,-1]],[[1626,3034],[3,1]],[[1735,2914],[7,-3]],[[1742,2911],[-7,4]],[[940,1278],[39,20]],[[979,1298],[8,4],[1,1],[1,7]],[[989,1310],[7,31]],[[996,1341],[7,31]],[[997,1375],[-1,-34]],[[996,1341],[0,-23],[-7,-8]],[[989,1310],[-10,-12]],[[979,1298],[-24,-28],[-7,-2]],[[1536,3178],[-14,-16]],[[1524,3163],[13,14]],[[1228,3130],[-18,-48]],[[1210,3081],[19,48]],[[1634,3125],[-2,-3]],[[1638,3118],[1,4]],[[1217,3238],[21,12]],[[1285,3287],[4,6]],[[1700,2658],[195,-202]],[[1892,2461],[-192,197]],[[1002,3622],[126,-122]],[[1121,3509],[-118,113]],[[1144,3483],[-6,7]],[[1210,3192],[-6,0]],[[1273,3189],[-60,3]],[[1216,3191],[56,-4]],[[1283,3185],[123,0]],[[1406,3186],[-122,2]],[[1413,3186],[-6,0]],[[1407,3185],[6,1]],[[1434,2978],[4,-11]],[[1439,2967],[-4,11]],[[1360,3009],[-1,0],[1,-1],[0,1]],[[1165,3188],[-6,-17],[1,-6]],[[1161,3165],[5,23]],[[1428,3051],[-2,-2]],[[1276,3191],[0,-2]],[[1280,3189],[0,2]],[[1336,3152],[1,0],[1,1],[-1,0],[-1,-1]],[[1200,3129],[-1,1],[-1,-2],[1,0],[1,1]],[[1498,3107],[5,-2]],[[1504,3106],[-6,4]],[[1606,2854],[0,-3],[3,-1],[-1,3],[-2,1]],[[1231,3137]],[[1231,3137]],[[1462,3197],[1,-3]],[[1468,3196],[-2,3]],[[1699,3129],[-10,-13]],[[1689,3116],[11,13]],[[1498,3110],[0,-3]],[[1503,3105],[1,1]],[[1585,3013],[18,-20]],[[1603,2993],[-17,20]],[[1311,3237],[0,-1]],[[1314,3236],[0,1]],[[1215,3240],[-1,-2]],[[1277,3652],[-2,-2]],[[1276,3650],[1,1]],[[1213,3573],[0,1],[0,-1]],[[1616,2985],[-10,-10]],[[1238,3251],[-22,-11]],[[1199,3128],[42,-30]],[[1242,3098],[-42,31]],[[1242,3097],[32,-23]],[[1274,3074],[-31,24]],[[1275,3073],[12,-11]],[[1287,3063],[-12,10]],[[1287,3061],[23,-21]],[[1311,3041],[-23,21]],[[1312,3040],[20,-14]],[[1330,3028],[-18,12]],[[1342,3020],[17,-11]],[[1359,3009],[-16,11]],[[1360,3008],[4,-3]],[[1365,3005],[-5,4]],[[1591,2872],[0,-1]],[[1594,2869],[-3,3]],[[1408,3203],[-11,22]],[[1397,3225],[-32,62]],[[1370,3280],[4,-8],[23,-47]],[[1397,3225],[10,-21],[2,-5]],[[1394,3076],[0,1]],[[1403,3116],[54,-5]],[[1457,3112],[-53,6]],[[1461,3110],[3,0]],[[1465,3112],[-4,0]],[[1565,3035],[14,-16]],[[1403,3129],[-9,-42]],[[1395,3087],[9,42]],[[1711,2886],[-5,-1]],[[1706,2885],[-32,-9]],[[1674,2876],[-57,-16]],[[1643,2872],[31,4]],[[1674,2876],[28,3],[4,6]],[[1706,2885],[23,28]],[[1729,2913],[4,4]],[[1732,2918],[-3,-5]],[[1729,2913],[-10,-17]],[[1578,3005],[3,5]],[[1435,2973],[-18,-6]],[[1279,3212],[-3,-21]],[[1280,3191],[-1,19]],[[1435,2973],[2,-3]],[[1525,2992],[-1,-1]],[[1500,3199],[0,1]],[[1824,2870],[49,-25]],[[1873,2846],[-49,24]],[[1933,2804],[-16,19]],[[1715,3069],[13,-9]],[[1726,3062],[-11,8]],[[1741,2994],[-1,-1]],[[1741,2993],[0,1]],[[1291,3069],[0,-1],[1,0],[0,1],[-1,0]],[[1319,3248],[-2,-1],[1,-1],[1,1],[0,1]],[[1563,3006],[0,2]],[[1354,3093],[-14,6]],[[1404,3129],[4,74]],[[1411,3195],[2,-7]],[[1584,1930],[-21,-10]],[[1417,2967],[-1,0],[0,-1],[2,0],[-1,1]],[[1541,2932],[1,-1]],[[1231,3137]],[[1576,3000],[-4,-7]],[[1432,3190],[-17,-3]],[[1415,3186],[9,2]],[[1628,3036],[1,-1]],[[1644,3016],[-8,11]],[[1581,3019],[-1,-1]],[[1310,3092],[-1,0],[-1,0],[1,-1],[1,1]],[[1417,2966],[17,-15]],[[1234,3143],[-1,-1]],[[1233,3142],[1,1]],[[1609,3064],[-1,1]],[[1458,3024],[1,-1]],[[1460,3024],[-2,1]],[[1384,3037],[-1,-4]],[[1388,3057],[3,11]],[[1389,3065],[0,-5]],[[1390,3069],[0,-4]],[[1398,3014],[-4,4]],[[1398,3013],[3,-3]],[[1421,2991],[4,-3]],[[1428,2984],[6,-6]],[[1435,2978],[-6,7]],[[1437,2929],[-1,3]],[[1437,2957],[0,2]],[[1437,2959],[1,2],[1,6]],[[1438,2967],[-1,-6],[0,-2]],[[1437,2959],[1,-31],[48,-10]],[[1461,2925],[-3,0]],[[1500,2909],[0,-1]],[[1508,2901],[12,-16]],[[1522,2883],[-10,13]],[[1548,2868],[11,-3]],[[1380,3082],[11,-5]],[[1378,3263],[-7,-3]],[[1374,3256],[6,1]],[[1318,3105],[-1,-2]],[[1323,3110],[-2,-2]],[[1287,3063],[-1,-1],[1,-1],[1,1],[-1,1]],[[1476,3107],[-12,-13]],[[1465,3094],[14,16]],[[1633,2799],[4,-11]],[[1637,2789],[-4,10]],[[1638,2785],[2,-50]],[[1641,2735],[-1,36],[-1,14]],[[1652,3001],[2,-13]],[[1577,3014],[-5,-3]],[[1285,3287],[32,-39]],[[1318,3248],[-29,45]],[[1318,3246],[14,-30]],[[1333,3215],[-14,31]],[[1643,2718],[-4,-10]],[[1636,3027],[8,-11]],[[1740,2993],[-5,-22]],[[1735,2971],[-8,-27]],[[1728,3060],[6,-5]],[[1731,2958],[4,13]],[[1735,2971],[6,22]],[[1748,3043],[-10,10]],[[1741,3002],[0,-8]],[[1741,2994],[9,47]],[[1741,3050],[0,-3]],[[1247,3257],[-9,-6]],[[1289,3295],[-35,-32]],[[1289,3293],[1,1]],[[1591,2871],[15,-18]],[[1606,2854],[-12,15]],[[1629,2994],[-6,-5]],[[1623,2989],[6,4]],[[1643,3005],[-13,-11]],[[1630,2994],[13,10]],[[1695,3045],[-28,-22]],[[1667,3023],[29,22]],[[1540,3180],[-3,2]],[[1175,3205],[16,-6]],[[1191,3199],[2,0]],[[1193,3198],[-2,1]],[[1191,3199],[-14,8]],[[1204,3192],[-2,2]],[[1208,3193],[4,-1]],[[1212,3192],[4,-1]],[[1213,3192],[-1,0]],[[1212,3192],[-2,0]],[[1400,3116],[2,0]],[[1403,3119],[-3,1]],[[1523,2894],[-2,0]],[[1522,2892]],[[1106,3182],[8,0]],[[1156,3168],[12,-5]],[[1173,3162],[148,-58]],[[1329,3101],[11,-4]],[[1350,3093],[25,-9]],[[1390,3079],[-20,8]],[[1514,3093],[39,-44]],[[1554,3050],[-30,32]],[[946,3086],[95,39],[63,58]],[[1672,2913],[-36,43]],[[1638,2952],[8,-10]],[[1652,2935],[19,-21]],[[1248,3375],[22,-16]],[[1270,3359],[23,-17]],[[1291,3343],[-21,16]],[[1270,3359],[-22,16]],[[1326,3316],[-30,23]],[[1297,3339],[30,-22]],[[1336,3311],[20,-15],[6,-7]],[[1362,3289],[8,-9]],[[1365,3287],[-3,2]],[[1362,3289],[-23,18]],[[1409,3199],[2,-4]],[[1338,3189],[0,-1]],[[1342,3188],[0,1]],[[1681,3090],[-1,-2]],[[1681,3088],[0,2]],[[1684,3102],[-2,-8]],[[1682,3094],[2,7]],[[1542,2934],[-1,-2]],[[1542,2931],[2,3]],[[1604,2968],[5,5]],[[1563,3038],[0,-2],[3,0],[-1,2],[-2,0]],[[1607,3065],[0,-1]],[[1607,3064],[1,1]],[[1633,3121],[0,-1]],[[1636,3117],[1,2]],[[2328,837]],[[1443,2980]],[[1614,2938],[-22,-31]],[[1301,3080],[-1,1],[0,-1],[1,0]],[[1214,3238],[2,-1]],[[1217,3238],[-2,2]],[[1424,3188],[9,1]],[[1619,3133],[-118,68],[-52,-8]],[[1449,3193],[-17,-3]],[[1448,3193],[1,0]],[[1449,3193],[51,6]],[[1500,3200],[118,-68]],[[1192,3182],[9,-4]],[[1201,3179],[-9,3]],[[1217,3170],[-15,8]],[[1375,3118]],[[1585,3021],[-1,0]],[[1592,3034],[-5,-11]],[[1544,2934],[-2,0]],[[1592,2907],[21,26]],[[1191,3088],[18,-7]],[[1210,3082],[-19,7]],[[1291,3068],[-3,-5]],[[1288,3062],[4,6]],[[1300,3080],[-8,-11]],[[1292,3069],[8,11]],[[1315,3099],[2,4]],[[1538,3177],[0,1]],[[1505,3127],[3,1],[-3,3],[-1,0],[1,-4]],[[1176,3210],[-4,-1],[1,-4],[4,1],[-1,4]],[[1589,3027],[-4,-6]],[[1535,3179],[3,-2]],[[1689,3116],[-5,-14]],[[1684,3101],[5,15]],[[1699,3130],[0,-1]],[[1700,3129],[0,1]],[[1191,3090],[-1,-1],[0,-1],[1,1],[0,1]],[[1718,3065],[-1,-2]],[[1721,3061],[2,0]],[[1648,3008]],[[1171,3521],[1,0],[0,1],[-1,0],[0,-1]],[[1427,3233],[36,-36]],[[1465,3199],[-29,25]],[[1392,3079],[-3,1]],[[1606,2975],[-3,-7]],[[1718,3065],[5,-4]],[[1725,3065],[-4,3]],[[1650,2994],[2,7]],[[1637,2788],[1,-3]],[[1639,2785],[-2,4]],[[521,0],[-130,117]],[[391,117],[-51,47],[3,6]],[[343,170],[66,146],[22,87],[117,196],[32,104],[-60,106],[39,125],[15,191],[29,35],[7,7]],[[610,1167],[5,5],[0,1],[12,1]],[[627,1174],[53,8],[56,37],[101,-15],[30,37],[3,1]],[[870,1242],[70,36]],[[948,1268],[-78,-26]],[[870,1242],[-3,-1],[-31,-37],[-101,15],[-108,-45]],[[627,1174],[-17,-7]],[[610,1167],[-12,-5],[-29,-37],[-14,-199],[-35,-63],[-1,-60],[53,-90],[-25,-112],[-115,-189],[-93,-237],[4,-5]],[[343,170],[25,-26],[11,-9],[12,-18]],[[391,117],[79,-117]],[[1497,1900],[-192,-95],[-104,-74],[-139,-9],[-2,-5]],[[1060,1717],[-1,-3]],[[1059,1714],[-19,-47],[0,-107],[-40,-54],[-3,-131]],[[1003,1372],[41,188],[15,154]],[[1059,1714],[0,2],[1,1]],[[1060,1717],[138,12],[161,101],[96,-10],[50,78]],[[2284,866],[38,-25]],[[2328,837],[-44,29]],[[1359,3127],[-1,1],[-1,-1],[1,-1],[1,1]],[[1565,2866],[27,41]],[[1728,3060],[-2,2]],[[1637,3130],[-3,-11]],[[1634,3119],[3,11]],[[1654,2988],[0,-4]],[[1681,3090],[1,4]],[[1214,3238],[-2,-2]],[[1254,3263],[-7,-6]],[[1699,3131],[0,-1]],[[1700,3130],[0,1]],[[1435,2952],[-17,14]],[[1633,2799],[-4,4]],[[1629,2803],[-31,35]],[[1606,2834],[23,-31]],[[1629,2803],[4,-4]],[[1717,3061],[-22,-16]],[[1696,3045],[21,16]],[[1617,2938],[18,17]],[[1635,2956],[-8,-7]],[[1629,2993]],[[1630,2994]],[[1627,2949],[-9,-10]],[[1398,3117],[2,-1]],[[1400,3120],[-1,-1]],[[1402,3116],[1,0]],[[1404,3118],[-1,1]],[[1575,2927],[1,0],[0,2],[-1,-1],[0,-1]],[[887,3071],[1,-1],[2,1],[-1,1],[-2,-1]],[[1526,2991],[-1,1]],[[1166,3143],[-1,0]],[[1166,3140],[1,0]],[[1190,3090],[-17,23]],[[1173,3111],[16,-22]],[[2623,615],[-58,48]],[[1561,2907],[-15,-21]],[[1547,2886],[14,21]],[[1600,2964],[-24,-35]],[[1577,2928],[24,35]],[[1280,3185],[5,2],[-14,1],[2,-2],[7,-1]],[[1486,2918],[14,-9]],[[1671,2914],[23,-27]],[[1694,2887],[-22,26]],[[1324,3317],[-30,-18]],[[1295,3299],[21,12]],[[1320,3313],[12,8]],[[1464,3110],[34,-3]],[[1498,3110],[-33,2]],[[1391,3073],[-1,-8]],[[1608,2853],[-48,13]],[[1582,2852],[27,1]],[[1559,2965],[0,1]],[[1340,3099],[-166,64]],[[1389,3080],[-8,3]],[[1391,3079],[0,-1]],[[1391,3076],[0,-3]],[[1395,3090],[-3,-11]],[[1394,3079],[2,15]],[[1407,3186],[-1,0]],[[1406,3185],[1,0]],[[1415,3187],[-2,-1]],[[1413,3186],[2,0]],[[1559,2865],[23,-13]],[[1569,2860],[3,-2]],[[1598,2838],[-13,13]],[[1602,2848],[4,-14]],[[1630,2806],[0,2]],[[1202,3178],[14,-7]],[[1514,3094],[-10,12]],[[1201,3178],[1,0]],[[1202,3178],[0,1],[-1,0],[0,-1]],[[1640,2725],[59,-67]],[[1701,2658],[-51,56]],[[2254,887],[-41,27]],[[2214,911],[38,-26]],[[2328,837]],[[2278,843],[-1,1],[-1,-2],[2,-1],[0,2]],[[1521,2894],[1,-2]],[[1522,2892],[1,2]],[[1582,3010],[3,3]],[[2255,886],[-2,1],[0,-2],[2,-1],[0,2]],[[1619,2986],[-3,-1]],[[1618,2983],[1,3]],[[1607,3065]],[[1500,2909],[-14,10]],[[1561,2907]],[[1563,2909],[-1,1]],[[1358,3125],[0,1]],[[1558,2965],[1,0]],[[1606,2975],[3,-2]],[[1606,2989],[1,-4]],[[1610,2987],[-3,2]],[[1613,2936],[0,-3],[5,-2]],[[1618,2931],[3,-2]],[[1618,2983],[-2,2]],[[1618,2930],[0,1]],[[1618,2931],[-1,7]],[[1618,2974],[16,-18]],[[1636,2955],[-1,2],[-1,0],[-15,17]],[[1633,3115],[-3,-4]],[[1631,3111],[2,4]],[[1636,2956],[-1,1]],[[1185,3134],[-1,1],[0,-1],[1,0]],[[1581,3019],[-15,17]],[[1579,3019],[1,-1]],[[1580,3018],[2,-8]],[[1586,3013],[-5,6]],[[1977,2237],[-164,-173],[-17,-82],[-157,-64],[-66,4]],[[1573,1922],[66,-4],[157,63],[18,82],[158,152]],[[1607,3065],[11,-14]],[[1618,3052],[-9,12]],[[1559,2966],[-1,-1]],[[2254,884],[29,-18]],[[2283,867],[-28,19]],[[1311,3236],[3,0]],[[1314,3237],[-3,0]],[[1581,3010],[8,7]],[[1503,3105],[11,-12]],[[1216,3237],[1,1]],[[1341,3166],[0,1],[-2,0],[1,-1],[1,0]],[[1287,3659],[30,24],[-31,-24]],[[1667,3023],[-24,-18]],[[1643,3004],[24,19]],[[1560,2863],[2,-1]],[[1433,3189],[15,4]],[[1610,3068],[1,3]],[[1240,3158],[0,1],[-1,0],[1,-1]],[[1216,3171],[23,-12]],[[1524,3082],[-10,12]],[[1567,1920],[6,2]],[[1573,1922],[-6,-1]],[[1585,3021],[-8,-7]],[[1343,3020],[-13,8]],[[1332,3026],[10,-6]],[[1364,3005],[52,-38]],[[1417,2967],[-52,38]],[[1458,3025],[0,-1]],[[1459,3023],[1,1]],[[1457,3112],[0,-1]],[[1461,3110],[0,2]],[[1391,3077],[3,-1]],[[1394,3077],[0,1]],[[1403,3069],[-8,7]],[[1171,3522],[-33,-32]],[[1144,3483],[27,38]],[[1213,3573],[-42,-51]],[[1172,3522],[41,51]],[[1275,3650],[-62,-76]],[[1213,3573],[63,77]],[[1286,3659],[-9,-7]],[[1277,3651],[10,8]],[[1618,3132],[32,-19]],[[1651,3113],[-32,20]],[[1680,3092],[4,-2]],[[1715,3070],[-7,5]],[[1708,3074],[7,-5]],[[1890,2475],[158,170]],[[2067,2666],[-138,-145],[-37,-41]],[[1429,3236],[-4,1],[-1,-3],[3,-1],[2,3]],[[1270,3159],[0,-1],[1,0],[0,1],[-1,0]],[[1525,2990],[50,-61]],[[1575,2929],[-49,62]],[[1238,3250],[47,37]],[[1229,3131],[-1,-1]],[[1229,3129],[0,2]],[[1873,2845],[44,-22],[-44,23]],[[1243,3098],[-1,0],[0,-1],[1,0],[0,1]],[[1576,3000],[2,4]],[[1665,3043],[0,1]],[[1318,3104],[3,4]],[[1332,3216],[6,-27]],[[1342,3189],[-9,26]],[[1453,3081],[-22,-26]],[[1431,3055],[21,24]],[[1522,3162],[-13,-16]],[[1509,3146],[15,17]],[[2253,885],[23,-43]],[[2277,844],[-23,40]],[[2278,841],[50,-4]],[[2328,837],[-49,5]],[[1339,3166],[0,-1]],[[1340,3184],[0,-17]],[[1341,3165],[0,1]],[[1341,3167],[2,17]],[[1466,3199],[-4,-2]],[[1463,3194],[5,2]],[[1634,3119],[-1,-4]],[[1633,3115],[1,4]],[[1440,2971],[-5,2]],[[1180,3806],[-122,-44]],[[1061,3762],[119,43]],[[1980,3163],[-18,347],[-32,54],[-138,130],[-215,9],[-133,1],[-179,70]],[[1265,3773],[178,-70],[349,-10],[169,-183],[18,-346]],[[2023,2989],[6,-16]],[[2031,2971],[-8,19]],[[2048,2645],[19,19],[24,36],[-6,101],[-8,44],[-7,21]],[[2069,2867],[21,-166],[-23,-35]],[[1564,2865],[1,1]],[[1426,3049],[5,6]],[[1431,3055],[-3,-4]],[[1452,3079],[13,15]],[[1464,3094],[-11,-13]],[[1509,3146],[-33,-39]],[[1479,3110],[30,36]],[[1202,3194],[-9,4]],[[1193,3199],[15,-6]],[[3905,2214],[29,45],[116,4]],[[943,3676],[118,86]],[[1058,3762],[-60,-35],[-51,-45]],[[1180,3805],[85,-32]],[[1265,3774],[-85,32]],[[1979,3164],[6,-80],[38,-95]],[[2023,2990],[-43,173]],[[2029,2973],[40,-106]],[[2070,2866],[-6,19],[-33,86]],[[1436,2932],[1,25]],[[1458,2925],[-21,4]],[[1486,2919],[-25,6]],[[1512,2896],[-6,7]],[[1506,2903],[-6,6]],[[1500,2908],[6,-5]],[[1506,2903],[2,-2]],[[716,3369],[-41,-4]],[[675,3365],[-1,1],[-1,-1],[1,-1],[1,1]],[[717,3370],[-1,-1]],[[716,3369],[2,0]],[[730,3373],[-11,-3]],[[719,3369],[11,3]],[[913,3074],[-24,-3]],[[890,3071],[23,2]],[[1110,3192],[-71,57],[-8,26]],[[1031,3275],[-16,59]],[[1015,3334],[-1,2],[-118,69]],[[897,3404],[118,-70]],[[1015,3334],[2,-1],[14,-58]],[[1031,3275],[7,-25],[67,-58]],[[1037,3489],[10,-11]],[[1048,3479],[-9,11]],[[1047,3478],[1,0]],[[1048,3478],[0,1]],[[1048,3479],[-1,-1]],[[1048,3478],[37,-35],[1,1]],[[1086,3444],[1,0]],[[1087,3444],[53,39]],[[1138,3490],[-51,-46]],[[1087,3444],[-1,0]],[[1086,3444],[-38,34]],[[1236,3447],[-64,74]],[[1236,3447],[160,-149],[29,-61]],[[1426,3238],[-30,61],[-160,148]],[[1436,3224],[-8,10]],[[1443,2984],[-8,-12]],[[1435,2972],[9,11]],[[1638,3136],[-1,-6]],[[1637,3130],[1,6]],[[1644,3016],[8,-15]],[[1652,3001],[-8,15]],[[1704,3391],[-57,-193]],[[1648,3197],[25,61],[31,133]],[[1649,3008],[-1,1]],[[1687,2672],[0,-1]],[[1691,2673]],[[1700,3131],[-1,0]],[[1699,3130],[1,0]],[[1741,3205],[-41,-74]],[[1701,3131],[40,74]],[[1731,2917],[4,-3]],[[1735,2915],[-4,2]],[[1744,3210],[-3,-5]],[[1779,3320],[-35,-110]],[[1788,3354],[-9,-34]],[[719,3371],[-2,-1],[1,-1],[1,0],[0,2]],[[914,3073],[0,1],[-1,-1],[1,0]],[[944,3086],[1,0],[1,1],[-2,0],[0,-1]],[[1174,3163],[-68,19]],[[1114,3182],[42,-14]],[[1168,3163],[5,-1]],[[1459,3023],[9,-4]],[[1469,3020],[-9,4]],[[1562,2910],[-1,-3]],[[1561,2907],[2,2]],[[1138,3490],[-17,19]],[[1128,3500],[41,-43]],[[1169,3457],[78,-82],[1,0]],[[1248,3375],[-1,1],[-78,81]],[[1169,3457],[-25,26]],[[1647,3198],[-6,-42]],[[1642,3158],[6,39]],[[1437,2970],[3,1]],[[1741,3047],[0,-45]],[[1750,3041],[-2,2]],[[1535,3179]],[[1553,3049],[10,-11]],[[1564,3039],[-10,11]],[[1473,3185],[31,-54]],[[1506,3131],[-32,54]],[[1585,3013],[1,0]],[[1654,2984],[-14,-21]],[[1562,2907],[29,-35]],[[1591,2872],[-28,36]],[[1682,3094],[-1,-4]],[[1536,3181],[-1,-1]],[[2032,2701],[-99,103]],[[2069,2660],[-37,41]],[[2845,2151],[-114,42],[-209,22],[-169,103],[-284,342]],[[2845,2151],[205,-95]],[[3050,2056],[129,10]],[[3179,2066],[271,149],[320,-40],[25,0]],[[3795,2175],[-375,44],[-241,-153]],[[3795,2175],[225,57],[76,81]],[[1311,3237],[-32,-25]],[[1279,3210],[32,26]],[[1314,3236],[60,20]],[[1371,3260],[-57,-23]],[[1563,2867]],[[1239,3158],[-5,-15]],[[1234,3143],[6,15]],[[1650,3113],[30,-21]],[[1708,3075],[-57,38]],[[1684,3090],[24,-16]],[[1575,2928],[-13,-18]],[[1563,2909],[13,18]],[[1539,3178],[1,1]],[[1541,2998],[-16,-6]],[[1526,2991],[11,5]],[[1571,3011],[-8,-3]],[[1340,3097],[10,-4]],[[1370,3087],[-4,2]],[[1375,3084],[15,-6]],[[1184,3135],[-18,8]],[[1167,3140],[17,-6]],[[1185,3134],[13,-6]],[[1198,3129],[-13,5]],[[1680,3085],[-15,-42]],[[1665,3044],[10,25],[5,15]],[[1603,2993],[3,-4]],[[1607,2989],[-4,4]],[[1538,3178],[1,0]],[[1540,3179],[0,1]],[[1394,3087],[-4,-18]],[[1391,3068],[4,19]],[[1562,3006],[1,0]],[[1563,3008],[-1,0]],[[1607,3064],[-15,-30],[15,30]],[[1633,3120],[-26,-55]],[[1608,3065],[2,3]],[[1611,3071],[25,46]],[[1198,3226],[-23,-16]],[[1177,3208],[22,17]],[[1468,3019],[56,-28]],[[1525,2992],[-56,28]],[[1561,3005],[1,1]],[[1578,3004],[4,6]],[[1233,3142],[-2,-5]],[[1231,3137],[2,5]],[[1316,3311],[4,2]],[[1330,3328],[-6,-11]],[[1332,3321],[6,-3]],[[1727,2944],[5,-26]],[[1733,2917],[-2,41]],[[1323,3110],[4,10]],[[1336,3152],[-9,-31]],[[1328,3121],[9,31]],[[1339,3165],[-2,-12]],[[1338,3153],[3,12]],[[1458,3023],[-19,-46]],[[1441,2973],[2,7]],[[1443,2980],[16,43]],[[1601,2966],[-1,-2]],[[1600,2964],[2,2]],[[1457,3111],[4,-1]],[[1461,3112],[-4,0]],[[883,3721],[119,-99]],[[1003,3622],[-120,99]],[[1212,3236],[-14,-10]],[[1199,3225],[17,12]],[[1504,3128],[-3,-17]],[[1503,3111],[3,16]],[[1618,2938],[-2,2],[-2,-2],[2,-1],[2,1]],[[1524,2991],[2,0]],[[1525,2992]],[[1680,3088],[0,-3]],[[1680,3084],[1,4]],[[1102,3186],[-157,-99]],[[1383,3033],[11,-15]],[[1394,3018],[4,-5]],[[1389,3060],[-5,-23]],[[1394,3018]],[[1394,3018],[-6,39]],[[1390,3065],[-1,0]],[[1429,2985],[-31,29]],[[1401,3010],[20,-19]],[[1425,2988],[3,-4]],[[1520,2885],[28,-17]],[[1560,2866],[-38,17]],[[1541,2932],[-18,-37]],[[1523,2894],[19,37]],[[1558,2965],[-16,-31]],[[1544,2934],[15,31]],[[1572,2993],[-13,-27]],[[1559,2966],[13,27]],[[1742,2911],[82,-41]],[[1824,2870],[-82,41]],[[1609,2973],[9,10]],[[1357,3125],[-4,3]],[[1399,3111],[-41,14]],[[1603,2968],[-2,-2]],[[1617,2860],[-9,-7]],[[1609,2853],[34,19]],[[1719,2896],[-8,-10]],[[1391,3078],[0,-1]],[[1392,3079],[-1,0]],[[2284,867],[-1,0],[0,-1],[1,0],[0,1]],[[1413,3188],[-10,-59]],[[1639,2708],[-1,-13]],[[1639,2694],[4,23]],[[1538,3132],[-1,1]],[[1538,3132],[15,-14]],[[1572,2993],[4,8]],[[1578,3004],[0,1]],[[1321,3108],[-3,-3]],[[1562,2862],[-2,1]],[[1602,2966],[2,2]],[[1592,2907],[-25,-35]],[[1618,3051],[10,-15]],[[1636,3027],[-18,25]],[[1629,3035],[7,-8]],[[1435,2972],[-9,-2]],[[1426,2969],[9,3]],[[1308,3092],[-7,-11]],[[1301,3080],[8,11]],[[1317,3103],[-8,-11]],[[1310,3092],[5,7]],[[0,0],[0,4096],[4096,0],[0,-4096],[-4096,0]],[[256,4035],[89,52],[53,-62],[-69,-36],[10,-43],[76,32],[-110,-109],[-49,166]],[[1395,3082],[18,84],[56,-42],[-18,-49],[28,34],[11,-27],[21,7],[20,32],[-57,65],[-19,-19],[22,-34],[-25,5],[-7,39],[-31,-4],[13,14],[73,13],[87,-50],[163,-108],[-9,-40],[-49,-8],[27,-10],[-12,-42],[-30,25],[-12,69],[-37,36],[-21,-8],[105,-172],[-64,-16],[-15,20],[-25,-41],[-15,19],[-18,-15],[-62,43],[23,69],[-26,14],[-15,-6],[10,-9],[-10,-55],[-34,21],[-18,44],[28,44],[-76,58]],[[1162,3163],[192,-72],[-34,-49],[17,-23],[40,4],[-12,-18],[-52,-22],[-57,73],[-70,-5],[-24,112]],[[1161,3173],[180,-8],[9,19],[60,-20],[-12,-55],[-23,10],[-12,-28],[-202,82]],[[1142,3294],[76,82],[80,-36],[-52,-8],[45,-39],[39,26],[65,-93],[-54,-37],[-150,5],[13,24],[-62,76]],[[56,100],[-41,21],[0,100],[159,-14],[35,-26],[-23,-31],[-130,-50]],[[953,1261],[-28,36],[-36,164],[39,-1],[58,-79],[66,-37],[-1,-43],[-64,-1],[-34,-39]],[[169,2671],[-25,-49],[35,-58],[42,64],[53,-6],[32,-120],[128,49],[34,-9],[53,-103],[-40,-117],[52,-20],[0,-121],[-40,28],[-90,172],[-32,0],[-33,80],[-96,-40],[-1,-40],[-64,80],[-65,0],[0,40],[-112,19],[0,182],[123,24],[21,56],[60,-52],[5,-28],[-40,-31]],[[864,2711],[90,-169],[-33,0],[-32,-161],[-47,-11],[-50,131],[-162,41],[-4,33],[76,102],[122,25],[0,40],[40,-31]],[[1406,3542],[65,-120],[65,0],[0,-40],[122,-11],[58,25],[14,66],[32,-10],[65,-110],[129,-80],[0,-80],[98,-80],[-33,-120],[64,-73],[1,-47],[-89,27],[-41,-27],[-14,-53],[-147,-67],[-69,-86],[-61,6],[-32,39],[-227,40],[-32,121],[-97,40],[-65,120],[-92,-40],[-37,0],[-32,40],[-154,-29],[-73,69],[-194,0],[7,128],[-7,32],[-33,0],[32,120],[-64,40],[-12,75],[-20,5],[39,61],[220,59],[2,-47],[-67,-73],[6,-144],[-70,-16],[32,-120],[97,0],[32,80],[90,104],[-25,56],[-65,40],[7,26],[58,14],[0,57],[-53,101],[20,42],[83,58],[184,3],[57,19],[0,40],[82,-25],[15,-135],[129,-40],[0,-80]],[[11,3452],[37,-30],[27,15],[-21,70],[90,-5],[0,-40],[130,0],[60,-131],[69,11],[-12,-94],[-158,-26],[-56,-40],[-46,26],[-18,56],[31,118],[-38,-4],[-32,-57],[-74,-41],[11,172]],[[717,2328],[24,-47],[103,-35],[142,-104],[-92,-90],[-112,33],[-217,136],[5,24],[60,17],[0,40],[53,-4],[34,30]],[[1487,749],[-81,-8],[5,64],[77,45],[16,51],[51,-42],[-12,-61],[-56,-49]],[[2408,949],[33,-8],[-10,-40],[-86,-40],[-58,-80],[-39,0],[-45,170],[45,150],[102,-23],[58,-129]]]}