{"objects":{"water":{"type":"GeometryCollection","geometries":[]},"buildings":{"type":"GeometryCollection","geometries":[]},"places":{"type":"GeometryCollection","geometries":[{"type":"Point","properties":{"name:ja":"\u5357\u30db\u30e9\u30fc\u30b5\u30fc\u30f3","min_zoom":4.0,"name:uk":"\u041f\u0456\u0432\u0434\u0435\u043d\u043d\u0438\u0439 \u0425\u043e\u0440\u0430\u0441\u0430\u043d","name:ru":"\u042e\u0436\u043d\u044b\u0439 \u0425\u043e\u0440\u0430\u0441\u0430\u043d","name:pl":"Chorasan Po\u0142udniowy","name:hu":"D\u00e9l-Hor\u00e1sz\u00e1n","name:hr":"Ju\u017eni Horasan","id":480250680,"kind":"region","name:en":"South Khorasan","name":"\u062e\u0631\u0627\u0633\u0627\u0646 \u062c\u0646\u0648\u0628\u06cc","kind_detail":"state","name:ku":"Xorasana Ba\u015f\u00fbr","name:de":"S\u00fcd-Chorasan","source":"openstreetmap.org","name:fr":"Khorasan m\u00e9ridional"},"coordinates":[1596,1502]},{"type":"Point","properties":{"name:az":"Birc\u0259nd","name:tr":"Bircend","name:cs":"B\u00edrd\u017eand","name:ku":"B\u00eercend","name:ro":"Birjand","name:it":"Birjand","name:ko":"\ube44\ub974\uc794\ub4dc","name:sv":"Birjand","name:os":"\u0411\u0438\u0440\u0434\u0436\u0435\u043d\u0434","name:ru":"\u0411\u0438\u0440\u0434\u0436\u0435\u043d\u0434","name:pl":"Bird\u017cand","name:de":"Birdschand","name:tg":"\u0411\u04e3\u0440\u04b7\u0430\u043d\u0434","name:ca":"Birjand","kind_detail":"city","id":32677634,"source":"openstreetmap.org","name:fr":"Birjand","name:zh":"\u6bd4\u5c14\u8a79\u5fb7","admin_level":"8","name:nl":"Birjand","name:ja":"\u30d3\u30fc\u30eb\u30b8\u30e3\u30f3\u30c9","name:lt":"Bird\u017eendas","name:ur":"\u0628\u064a\u0631\u062c\u0646\u062f","name:uk":"\u0411\u0456\u0440\u0434\u0436\u0430\u043d\u0434","name:be":"\u0411\u0456\u0440\u0434\u0436\u044d\u043d\u0434","name:hr":"Bird\u017eand","population":180000,"kind":"locality","name:en":"Birjand","name":"\u0628\u06cc\u0631\u062c\u0646\u062f","min_zoom":8.0,"name:eu":"Birjand","name:es":"Biryand"},"coordinates":[452,3149]},{"type":"Point","properties":{"kind":"locality","name:en":"Sarbisheh","name":"\u0633\u0631\u0628\u06cc\u0634\u0647","kind_detail":"town","source":"openstreetmap.org","min_zoom":8.0,"name:ru":"\u0421\u0435\u0440\u0431\u0438\u0448\u0435","population":9000,"id":689524917,"name:ja":"\u30b5\u30eb\u30d3\u30fc\u30b7\u30a7"},"coordinates":[2139,2145]},{"type":"Point","properties":{"kind":"locality","name:en":"Asadiyeh","name":"\u0627\u0633\u062f\u06cc\u0647","kind_detail":"town","source":"openstreetmap.org","min_zoom":8.0,"population":6000,"id":820345120,"name:ja":"\u30a2\u30b5\u30c7\u30a3\u30fc\u30a4\u30a7"},"coordinates":[2792,3329]},{"type":"Point","properties":{"kind":"locality","name:en":"Tabas-e Masina","name":"\u0637\u0628\u0633 \u0645\u0633\u06cc\u0646\u0627","kind_detail":"town","source":"openstreetmap.org","min_zoom":8.0,"name:ru":"\u0422\u0435\u0431\u0435\u0441\u0435-\u041c\u0435\u0441\u0438\u043d\u0430","id":2513942916,"population":4500},"coordinates":[3377,2940]},{"type":"Point","properties":{"kind":"locality","name:en":"Mud","name":"\u0645\u0648\u062f","kind_detail":"town","source":"openstreetmap.org","min_zoom":8.0,"name:ru":"\u041c\u0443\u0434","population":3100,"id":820345099,"name:ja":"\u30e0\u30fc\u30c9"},"coordinates":[1345,2606]},{"type":"Point","properties":{"kind":"locality","name:en":"Gazik","name":"\u06af\u0632\u06cc\u06a9","kind_detail":"town","source":"openstreetmap.org","min_zoom":8.0,"name:ru":"\u0413\u0435\u0437\u0438\u043a","id":2513942889,"population":3100},"coordinates":[3391,3624]}]},"transit":{"type":"GeometryCollection","geometries":[]},"pois":{"type":"GeometryCollection","geometries":[]},"boundaries":{"type":"GeometryCollection","geometries":[]},"roads":{"type":"GeometryCollection","geometries":[{"type":"MultiLineString","properties":{"sort_rank":380,"kind_detail":"primary","min_zoom":8.0,"kind":"major_road","source":"openstreetmap.org"},"arcs":[[0],[1]]},{"type":"MultiLineString","properties":{"sort_rank":381,"source":"openstreetmap.org","min_zoom":8.0,"kind":"major_road","kind_detail":"trunk"},"arcs":[[2],[3],[4]]},{"type":"MultiLineString","properties":{"kind":"major_road","network":"ir:national","sort_rank":380,"kind_detail":"primary","source":"openstreetmap.org","min_zoom":8.0,"landuse_kind":"residential","shield_text":"68","ref":"68"},"arcs":[[5],[6]]},{"type":"MultiLineString","properties":{"kind":"major_road","network":"ir:national","sort_rank":381,"kind_detail":"trunk","source":"openstreetmap.org","min_zoom":8.0,"shield_text":"95","ref":"95"},"arcs":[[7],[8],[9],[10],[11],[12],[13],[14],[15],[16],[17],[18],[19]]},{"type":"MultiLineString","properties":{"kind":"major_road","network":"ir:national","sort_rank":380,"kind_detail":"primary","source":"openstreetmap.org","min_zoom":8.0,"landuse_kind":"urban_area","shield_text":"68","ref":"68"},"arcs":[[20],[21],[22],[23],[24],[25],[26]]},{"type":"MultiLineString","properties":{"source":"openstreetmap.org","kind":"major_road","landuse_kind":"residential","sort_rank":380,"kind_detail":"primary","min_zoom":8.0},"arcs":[[27],[28],[29],[30],[31]]},{"type":"MultiLineString","properties":{"source":"openstreetmap.org","kind":"major_road","landuse_kind":"urban_area","sort_rank":380,"kind_detail":"primary","min_zoom":8.0},"arcs":[[32],[33],[34],[35],[36],[37],[38],[39],[40]]},{"type":"LineString","properties":{"kind":"major_road","name:en":"Taleqani street","sort_rank":380,"landuse_kind":"residential","source":"openstreetmap.org","min_zoom":8.0,"kind_detail":"primary","id":112987793},"arcs":[41]},{"type":"LineString","properties":{"kind":"major_road","name:en":"Abouzar Square","sort_rank":380,"landuse_kind":"residential","source":"openstreetmap.org","min_zoom":8.0,"kind_detail":"primary","id":112987686},"arcs":[42]},{"type":"MultiLineString","properties":{"kind":"major_road","network":"ir:national","sort_rank":381,"landuse_kind":"urban_area","source":"openstreetmap.org","min_zoom":8.0,"kind_detail":"trunk","shield_text":"95","ref":"95"},"arcs":[[43],[44],[45],[46],[47],[48]]},{"type":"MultiLineString","properties":{"kind":"major_road","network":"ir:national","sort_rank":380,"kind_detail":"primary","source":"openstreetmap.org","min_zoom":8.0,"shield_text":"68","ref":"68"},"arcs":[[49],[50]]},{"type":"LineString","properties":{"kind":"major_road","name:en":"Artesh street","sort_rank":380,"landuse_kind":"residential","source":"openstreetmap.org","min_zoom":8.0,"kind_detail":"primary","id":188138821},"arcs":[51]}]},"earth":{"type":"GeometryCollection","geometries":[{"type":"Polygon","properties":{"sort_rank":10,"source":"naturalearthdata.com","min_zoom":0.0,"kind":"earth","area":98022885885},"arcs":[[52]]}]},"landuse":{"type":"GeometryCollection","geometries":[{"type":"MultiPolygon","properties":{"source":"openstreetmap.org","kind":"residential","tier":2,"area":38597749,"sort_rank":20,"min_zoom":8.0},"arcs":[[[53]]]},{"type":"MultiPolygon","properties":{"source":"naturalearthdata.com","kind":"urban_area","name":"","area":260670834,"sort_rank":11,"min_zoom":4.0},"arcs":[[[54]]]}]}},"type":"Topology","transform":{"translate":[59.0625,31.952162238],"scale":[0.0003433228,0.0002894016]},"arcs":[[[201,3178],[-3,1]],[[599,3132],[23,-10]],[[660,3442],[-1,-41]],[[659,3404],[1,38]],[[660,3442],[0,2]],[[406,3261],[-1,-1]],[[405,3260],[8,2]],[[660,3444],[37,168],[0,184],[-70,153],[29,147]],[[615,3126],[-5,17]],[[903,2917],[-137,121],[-151,88]],[[615,3126],[151,-89],[137,-120]],[[659,3401],[-2,-9]],[[657,3392],[-9,-44]],[[649,3346],[8,46]],[[657,3392],[2,12]],[[903,2917],[239,-112],[165,-116]],[[1307,2689],[35,-23]],[[2135,2203],[-36,107],[-44,47],[-106,52],[-261,60],[-346,197]],[[2170,2147],[-35,56]],[[2491,0],[-111,124],[-152,278],[21,377],[-49,192],[43,183],[-16,91],[21,57],[-65,496],[10,281],[-23,68]],[[274,3167],[29,-3]],[[303,3166],[-29,3]],[[304,3166],[2,-3],[4,2],[-2,2],[-4,-1]],[[405,3260],[-49,-15],[-29,-42],[-23,-37]],[[309,3167],[49,79],[47,14]],[[549,3289],[-37,3],[-106,-31]],[[413,3262],[136,24]],[[421,3187],[-26,-7]],[[396,3180],[25,6]],[[451,3182],[0,1]],[[524,3164],[-27,12],[27,-12]],[[421,3187],[0,-1],[1,0],[0,1],[-1,0]],[[368,3173],[-58,-7]],[[310,3164],[58,8]],[[395,3180],[-26,-7]],[[370,3173],[26,7]],[[595,3134],[-71,30]],[[524,3164],[75,-32]],[[370,3172],[-1,2],[-1,-1]],[[368,3173],[1,-1],[1,0]],[[514,3297],[-1,0],[1,-1],[0,1]],[[422,3186],[26,-3]],[[451,3183],[-2,0],[-1,0],[3,-1],[0,1]],[[648,3348],[-99,-59],[-12,-26]],[[539,3261],[82,-31]],[[539,3264],[110,82]],[[621,3230],[-81,31]],[[610,3143],[11,87]],[[538,3264],[0,-2],[2,-1],[0,1],[-2,2]],[[0,3198],[274,-31]],[[274,3169],[-274,30]],[[452,3182],[45,-6]],[[4096,0],[-4096,0],[0,4096],[4096,0],[0,-4096]],[[391,3106],[6,50],[22,10],[-24,15],[5,35],[27,9],[-22,35],[107,30],[-7,-44],[-45,-6],[-10,-50],[76,-20],[-9,-37],[-10,26],[-9,-10],[3,-30],[31,3],[-6,-35],[-105,-29],[-30,48]],[[508,3400],[12,-15],[77,43],[98,-153],[-8,-60],[-118,-111],[-213,-58],[-82,113],[0,77],[-33,0],[-16,49],[17,51],[110,126],[148,-34],[8,-28]]]}