{"objects":{"water":{"type":"GeometryCollection","geometries":[]},"buildings":{"type":"GeometryCollection","geometries":[]},"places":{"type":"GeometryCollection","geometries":[{"type":"Point","properties":{"name:ka":"\u10d7\u10e3\u10e0\u10e5\u10db\u10d4\u10dc\u10d4\u10d7\u10d8","name:ko":"\ud22c\ub974\ud06c\uba54\ub2c8\uc2a4\ud0c4","name:cv":"\u0422\u0443\u0440\u043a\u043c\u0435\u043d\u0438\u0441\u0442\u0430\u043d","name:km":"\u1791\u17bd\u1782\u1798\u17c1\u1793\u17b8\u179f\u17d2\u178f\u1784\u17cb","name:kl":"Turkmenistani","name:cs":"Turkmenist\u00e1n","name:ki":"Turukimenistani","name:co":"Turkmenistan","name:kv":"\u0422\u0443\u0440\u043a\u043c\u0435\u043d\u0438\u0441\u0442\u0430\u043d","name:ku":"Tirkmenistan","name:ti":"\u1271\u122d\u12ad\u121c\u1292\u1235\u1273\u1295","name:ks":"\u062a\u064f\u0631\u0645\u0650\u0646\u0650\u0633\u062a\u0627\u0646","name:to":"Tekimenisiteni","name:tl":"Turkmenistan","name:ta":"\u0ba4\u0bc1\u0bb0\u0bcd\u0b95\u0bcd\u0bae\u0bc6\u0ba9\u0bbf\u0bb8\u0bcd\u0ba4\u0bbe\u0ba9\u0bcd","name:tg":"\u0422\u0443\u0440\u043a\u043c\u0430\u043d\u0438\u0441\u0442\u043e\u043d","name:ca":"Turkmenistan","name:te":"\u0c24\u0c41\u0c30\u0c4d\u0c15\u0c2e\u0c46\u0c38\u0c4d\u0c24\u0c3e\u0c28\u0c4d","name:cy":"Tyrcmenistan","name:hr":"Turkmenistan","name:da":"Turkmenistan","name:de":"Turkmenistan","name:dz":"\u0f4a\u0f71\u0f62\u0f40\u0f0b\u0f58\u0f7a\u0f53\u0f60\u0f72\u0f0b\u0f66\u0f4f\u0f71\u0f53","source":"openstreetmap.org","name:kn":"\u0ca4\u0cc1\u0cb0\u0ccd\u0c95\u0cae\u0cc6\u0ca8\u0cbf\u0cb8\u0ccd\u0ca5\u0cbe\u0ca8\u0ccd","name:dv":"\u078c\u07aa\u0783\u07aa\u0786\u07aa\u0789\u07ac\u0782\u07a8\u0790\u07b0\u078c\u07a7\u0782\u07b0","name:lv":"Turkmenist\u0101na","name:lt":"Turkm\u0117nistanas","name:uz":"Turkmaniston","name:kk":"\u0422\u04af\u0440\u0456\u043a\u043c\u0435\u043d\u0441\u0442\u0430\u043d","name:ur":"\u062a\u0631\u06a9\u0645\u0627\u0646\u0633\u062a\u0627\u0646","name:la":"Turcomannia","name:lg":"Takimenesitaani","name:uk":"\u0422\u0443\u0440\u043a\u043c\u0435\u043d\u0456\u0441\u0442\u0430\u043d","name:ug":"\u062a\u06c8\u0631\u0643\u0645\u06d5\u0646\u0649\u0633\u062a\u0627\u0646","name:li":"Turkmenistan","name:ln":"Tik\u025bm\u00e9nisit\u00e1","name:lo":"\u0ec0\u0e95\u0ea3\u0eb5\u0e81\u0ec0\u0ea1\u0e99\u0eb4\u0eaa\u0eb0\u0e96\u0eb2\u0e99","name:el":"\u03a4\u03bf\u03c5\u03c1\u03ba\u03bc\u03b5\u03bd\u03b9\u03c3\u03c4\u03ac\u03bd","name:eo":"Turkmenujo","name:en":"Turkmenistan","name":"T\u00fcrkmenistan","name:ee":"T\u025bkmenistan nutome","name:th":"\u0e1b\u0e23\u0e30\u0e40\u0e17\u0e28\u0e40\u0e15\u0e34\u0e23\u0e4c\u0e01\u0e40\u0e21\u0e19\u0e34\u0e2a\u0e16\u0e32\u0e19","name:eu":"Turkmenistan","name:es":"Turkmenist\u00e1n","name:ia":"Turkmenistan","name:rm":"Turkmenistan","name:rn":"Turukumenisitani","name:az":"T\u00fcrkm\u0259nistan","name:ie":"Turkmenistan","name:id":"Turkmenistan","name:ar":"\u062a\u0631\u0643\u0645\u0627\u0646\u0633\u062a\u0627\u0646","name:io":"Turkmenistan","name:av":"\u0422\u0443\u0440\u043a\u043c\u0435\u043d\u0438\u0441\u0442\u0430\u043d","name:ak":"T\u025bkm\u025bnistan","name:am":"\u1271\u122d\u12ad\u121c\u1292\u1235\u1273\u1295","name:it":"Turkmenistan","name:an":"Turkmenist\u00e1n","name:ru":"\u0422\u0443\u0440\u043a\u043c\u0435\u043d\u0438\u044f","name:rw":"Turukimenisitani","name:pl":"Turkmenistan","name:af":"Turkmenistan","name:zu":"i-Turkmenistan","name:ky":"\u0422\u04af\u0440\u043a\u043c\u04e9\u043d\u0441\u0442\u0430\u043d","name:zh-yue":"\u571f\u5eab\u66fc","name:zh":"\u571f\u5e93\u66fc\u65af\u5766","name:so":"Turkmenistan","name:sn":"Turkmenistan","name:sl":"Turkmenistan","name:sk":"Turkm\u00e9nsko","name:ja":"\u30c8\u30eb\u30af\u30e1\u30cb\u30b9\u30bf\u30f3","name:si":"\u0dad\u0dd4\u0dbb\u0dca\u0d9a\u0dca\u0db8\u0dd9\u0db1\u0dd2\u0dc3\u0dca\u0dae\u0dcf\u0db1\u0dba","name:sh":"Turkmenistan","name:sg":"Turkumenist\u00e4an","name:se":"Turkmenistan","name:sa":"\u0924\u0941\u0930\u094d\u0915\u092e\u093f\u0928\u093f\u0938\u094d\u0925\u093e\u0928","name:bs":"Turkmenistan","name:bm":"Turikimenisitani","name:bn":"\u09a4\u09c1\u09b0\u09cd\u0995\u09ae\u09c7\u09a8\u09bf\u09af\u09bc\u09be","name:bo":"\u0f4f\u0f74\u0f62\u0f40\u0f0b\u0f58\u0f7a\u0f0b\u0f53\u0f72\u0f0b\u0f66\u0f74\u0f4f\u0f53\u0f0d","name:br":"Turkmenistan","name:sw":"Turukimenistani","name:be":"\u0422\u0443\u0440\u043a\u043c\u0435\u043d\u0456\u0441\u0442\u0430\u043d","name:su":"Turkm\u00e9nistan","name:bg":"\u0422\u0443\u0440\u043a\u043c\u0435\u043d\u0438\u0441\u0442\u0430\u043d","name:ss":"IThumekhi","name:ba":"\u0422\u04e9\u0440\u04e9\u043a\u043c\u04d9\u043d\u0441\u0442\u0430\u043d","name:sq":"Turkmenistani","name:jv":"Turkmenistan","name:pt":"Turcomenist\u00e3o","name:ps":"\u062a\u0631\u06a9\u0645\u0646\u0633\u062a\u0627\u0646","name:oc":"Turcmenistan","min_zoom":2.0,"name:ro":"Turkmenistan","name:zh-min-nan":"Turkmenistan","name:os":"\u0422\u0443\u0440\u043a\u043c\u0435\u043d\u0438","name:or":"\u0b24\u0b41\u0b30\u0b4d\u0b15\u0b2e\u0b47\u0b28\u0b3f\u0b38\u0b4d\u0b24\u0b3e\u0b28\u0b4d","alt_name:pt":"Turquemenist\u00e3o","name:sr":"\u0422\u0443\u0440\u043a\u043c\u0435\u043d\u0438\u0441\u0442\u0430\u043d","name:pa":"\u0a24\u0a41\u0a30\u0a15\u0a2e\u0a47\u0a28\u0a38\u0a24\u0a3e\u0a28","name:hi":"\u0924\u0941\u0930\u094d\u0915\u092e\u0947\u0928\u093f\u0938\u094d\u0924\u093e\u0928","name:sv":"Turkmenistan","name:he":"\u05d8\u05d5\u05e8\u05e7\u05de\u05e0\u05d9\u05e1\u05d8\u05df","name:ha":"Turkumenistan","name:hy":"\u0539\u0578\u0582\u0580\u0584\u0574\u0565\u0576\u057d\u057f\u0561\u0576","name:ht":"Tirkmenistan","name:hu":"T\u00fcrkmeniszt\u00e1n","name:qu":"Turkminsuyu","population":5110023,"kind":"country","name:is":"T\u00farkmenistan","name:yi":"\u05d8\u05d5\u05e8\u05e7\u05de\u05e2\u05e0\u05d9\u05e1\u05d8\u05d0\u05df","name:yo":"Or\u00edl\u1eb9\u0301\u00e8de T\u1ecd\u1ecdkimenisita","name:mt":"Turkmenistan","alt_name:eo":"Turkmenistano;Turkmenio","name:ms":"Turkmenistan","name:mr":"\u0924\u0941\u0930\u094d\u0915\u092e\u0947\u0928\u093f\u0938\u094d\u0924\u093e\u0928","name:my":"\u1010\u102c\u1037\u1001\u103a\u1019\u1004\u103a\u1014\u1005\u1039\u1005\u1010\u1014\u103a\u1014\u102d\u102f\u1004\u103a\u1004\u1036","name:kw":"Pow Turkmen","name:mg":"Torkmenistan","name:ml":"\u0d24\u0d41\u0d7c\u0d15\u0d4d\u0d15\u0d4d\u0d2e\u0d46\u0d28\u0d3f\u0d38\u0d4d\u0d25\u0d3e\u0d7b","name:vi":"Turkmenistan","name:mn":"\u0422\u0443\u0440\u043a\u043c\u0435\u043d\u0438\u0441\u0442\u0430\u043d","id":249399440,"name:mk":"\u0422\u0443\u0440\u043a\u043c\u0435\u043d\u0438\u0441\u0442\u0430\u043d","name:vo":"Turkmen\u00e4n","name:fa":"\u062a\u0631\u06a9\u0645\u0646\u0633\u062a\u0627\u0646","name:ff":"Turkmenistaan","name:fi":"Turkmenistan","name:fo":"Turkmenistan","name:fr":"Turkm\u00e9nistan","name:fy":"Turkmenistan","int_name":"Turkmenistan","name:nl":"Turkmenistan","name:nn":"Turkmenistan","name:no":"Turkmenistan","name:na":"Turkmenistan","name:ne":"\u0924\u0941\u0930\u094d\u0915\u092e\u0947\u0928\u093f\u0938\u094d\u0924\u093e\u0928","name:wo":"Turkumenistaan","name:nv":"T\u02bc\u00f3okmen Bik\u00e9yah","name:ga":"An Tuircm\u00e9anast\u00e1in","name:gd":"Turcmanast\u00e0n","name:gl":"Turkmenist\u00e1n","name:gv":"Yn Turkmenistaan","name:gu":"\u0aa4\u0ac1\u0ab0\u0acd\u0a95\u0acd\u0aae\u0aa8\u0abf\u0ab8\u0acd\u0aa4\u0abe\u0aa8","name:tt":"\u0422\u04e9\u0440\u0435\u043a\u043c\u04d9\u043d\u0441\u0442\u0430\u043d"},"coordinates":[961,2086]}]},"transit":{"type":"GeometryCollection","geometries":[]},"pois":{"type":"GeometryCollection","geometries":[]},"boundaries":{"type":"GeometryCollection","geometries":[{"type":"LineString","properties":{"name:right:ja":"\u30ec\u30d0\u30d7\u5dde","name:left:ja":"\u30a2\u30cf\u30eb\u5dde","name:right:ru":"\u041b\u0435\u0431\u0430\u043f\u0441\u043a\u0438\u0439 \u0432\u0435\u043b\u0430\u044f\u0442","name:right:lt":"Lebapo velajatas","min_zoom":8.0,"name:left:ru":"\u0410\u0445\u0430\u043b\u0441\u043a\u0438\u0439 \u0432\u0435\u043b\u0430\u044f\u0442","id:right":-223029,"id":-223031,"osm_relation":true,"name:right":"Lebap wela\u00fdaty","kind":"region","name:left:en":"Ahal Region","sort_rank":256,"kind_detail":"4","name:left:de":"Provinz Ahal","name":"Ahal wela\u00fdaty - Lebap wela\u00fdaty","source":"openstreetmap.org","name:right:de":"Provinz Lebap","name:right:en":"Lebap Region","id:left":-223031,"name:left":"Ahal wela\u00fdaty"},"arcs":[0]},{"type":"LineString","properties":{"name:right:ja":"\u30c0\u30b7\u30e7\u30b0\u30ba\u5dde","name:left:ja":"\u30a2\u30cf\u30eb\u5dde","name:right:ru":"\u0414\u0430\u0448\u043e\u0433\u0443\u0437\u0441\u043a\u0438\u0439 \u0432\u0435\u043b\u0430\u044f\u0442","min_zoom":8.0,"name:left:ru":"\u0410\u0445\u0430\u043b\u0441\u043a\u0438\u0439 \u0432\u0435\u043b\u0430\u044f\u0442","id:right":-223028,"id":-223031,"osm_relation":true,"name:right":"Da\u015foguz wela\u00fdaty","kind":"region","name:left:en":"Ahal Region","sort_rank":256,"kind_detail":"4","name:left:de":"Provinz Ahal","name":"Ahal wela\u00fdaty - Da\u015foguz wela\u00fdaty","source":"openstreetmap.org","name:right:de":"Provinz Da\u015foguz","name:right:en":"Da\u015foguz Region","id:left":-223031,"name:left":"Ahal wela\u00fdaty"},"arcs":[1]},{"type":"LineString","properties":{"name:right:ja":"\u30c0\u30b7\u30e7\u30b0\u30ba\u5dde","name:left:ja":"\u30ec\u30d0\u30d7\u5dde","name:right:ru":"\u0414\u0430\u0448\u043e\u0433\u0443\u0437\u0441\u043a\u0438\u0439 \u0432\u0435\u043b\u0430\u044f\u0442","min_zoom":8.0,"name:left:lt":"Lebapo velajatas","name:left:ru":"\u041b\u0435\u0431\u0430\u043f\u0441\u043a\u0438\u0439 \u0432\u0435\u043b\u0430\u044f\u0442","id:right":-223028,"id":-223029,"osm_relation":true,"name:right":"Da\u015foguz wela\u00fdaty","kind":"region","name:left:en":"Lebap Region","sort_rank":256,"kind_detail":"4","name:left:de":"Provinz Lebap","name":"Lebap wela\u00fdaty - Da\u015foguz wela\u00fdaty","source":"openstreetmap.org","name:right:de":"Provinz Da\u015foguz","name:right:en":"Da\u015foguz Region","id:left":-223029,"name:left":"Lebap wela\u00fdaty"},"arcs":[2]}]},"roads":{"type":"GeometryCollection","geometries":[]},"earth":{"type":"GeometryCollection","geometries":[{"type":"Polygon","properties":{"sort_rank":10,"source":"naturalearthdata.com","min_zoom":0.0,"kind":"earth","area":98022885885},"arcs":[[3]]}]},"landuse":{"type":"GeometryCollection","geometries":[{"type":"Polygon","properties":{"source":"naturalearthdata.com","kind":"urban_area","name":"","area":35786168,"sort_rank":11,"min_zoom":4.0,"id":389},"arcs":[[4]]}]}},"type":"Topology","transform":{"translate":[59.0625,38.8225909762],"scale":[0.0003433228,0.0002654163]},"arcs":[[[4096,2530],[-48,0]],[[4048,2530],[-499,-101],[-253,571],[-577,-118],[-181,279],[26,935]],[[3974,4096],[74,-1566]],[[4096,0],[-4096,0],[0,4096],[4096,0],[0,-4096]],[[3963,206],[-130,42],[-50,40],[-14,86],[62,34],[67,-34],[53,-56],[12,-112]]]}