{"objects":{"water":{"type":"GeometryCollection","geometries":[{"type":"MultiPolygon","properties":{"source":"naturalearthdata.com","kind":"ocean","area":1576712559132672,"sort_rank":200,"min_zoom":0.0,"id":1},"arcs":[[[26]],[[27]],[[28]]]},{"type":"MultiLineString","properties":{"source":"naturalearthdata.com","kind":"ocean","sort_rank":205,"boundary":true,"min_zoom":0.0,"id":66},"arcs":[[29],[30],[31]]}]},"buildings":{"type":"GeometryCollection","geometries":[]},"places":{"type":"GeometryCollection","geometries":[{"type":"Point","properties":{"name:lv":"Sietla","name:ja":"\u30b7\u30a2\u30c8\u30eb","name:lt":"Sietlas","name:uz":"Sietl","name:ko":"\uc2dc\uc560\ud2c0","name:kn":"\u0cb8\u0cbf\u0caf\u0cbe\u0c9f\u0cb2\u0ccd","name:ar":"\u0633\u064a\u0627\u062a\u064a\u0644\u060c \u0648\u0627\u0634\u0646\u0637\u0646","kind":"locality","name:tt":"\u0421\u0438\u044d\u0442\u043b","min_zoom":8.0,"name:la":"Seattlum","name:am":"\u1235\u12eb\u1275\u120d","name:uk":"\u0421\u0456\u0454\u0442\u043b","name:ru":"\u0421\u0438\u044d\u0442\u043b","name:ug":"S\u00e9atl","name:bg":"\u0421\u0438\u0430\u0442\u044a\u043b","id":29546940,"population":684451,"name:eo":"Seatlo","name":"Seattle","kind_detail":"city","source":"openstreetmap.org","name:zh":"\u897f\u96c5\u5716"},"coordinates":[40,2431]},{"type":"Point","properties":{"name:fa":"\u0628\u0644\u0648\u06cc\u0648","kind":"locality","name":"Bellevue","name:ko":"\ubca8\ubdf0","kind_detail":"city","name:ar":"\u0628\u0627\u0644\u0641\u064a\u0648","source":"openstreetmap.org","min_zoom":8.0,"name:uk":"\u0411\u0435\u043b\u0432'\u044e","population":126626,"name:bg":"\u0411\u0435\u043b\u0432\u044e","name:zh":"\u8c9d\u723e\u7dad\u5c24","id":48714460,"name:ja":"\u30d9\u30eb\u30d3\u30e5\u30fc"},"coordinates":[441,2477]},{"type":"Point","properties":{"name:fa":"\u0627\u0648\u0631\u062a","kind":"locality","name":"Everett","name:ko":"\uc5d0\ubc84\ub81b","kind_detail":"city","name:ar":"\u0625\u064a\u0641\u0631\u064a\u062a","source":"openstreetmap.org","min_zoom":8.0,"name:uk":"\u0415\u0432\u0435\u0440\u0435\u0442\u0442","population":103019,"name:ru":"\u042d\u0432\u0435\u0440\u0435\u0442\u0442","name:bg":"\u0415\u0432\u044a\u0440\u0435\u0442","name:zh":"\u57c3\u5f17\u91cc\u7279","id":48718610,"name:ja":"\u30a8\u30d0\u30ec\u30c3\u30c8"},"coordinates":[415,3998]},{"type":"Point","properties":{"name:fa":"\u06a9\u0646\u062a","kind":"locality","name":"Kent","name:ko":"\ucf04\ud2b8","kind_detail":"town","name:ar":"\u0643\u064a\u0646\u062a","source":"openstreetmap.org","min_zoom":8.0,"population":92411,"name:ru":"\u041a\u0435\u043d\u0442","name:bg":"\u041a\u0435\u043d\u0442","name:zh":"\u80af\u7279","id":48704719,"name:ja":"\u30b1\u30f3\u30c8"},"coordinates":[340,1477]},{"type":"Point","properties":{"name:fa":"\u0631\u0646\u062a\u0648\u0646","kind":"locality","name":"Renton","name:ko":"\ub80c\ud134","kind_detail":"town","name:ar":"\u0631\u064a\u0646\u062a\u0648\u0646","source":"openstreetmap.org","min_zoom":8.0,"population":90927,"name:ru":"\u0420\u0435\u043d\u0442\u043e\u043d","name:bg":"\u0420\u0435\u043d\u0442\u044a\u043d","name:zh":"\u502b\u9813","id":2384789783,"name:ja":"\u30ec\u30f3\u30c8\u30f3"},"coordinates":[409,1896]},{"type":"Point","properties":{"name:fa":"\u0641\u062f\u0631\u0627\u0644 \u0648\u06cc","kind":"locality","name":"Federal Way","name:ko":"\ud398\ub354\ub7f4\uc6e8\uc774","kind_detail":"town","name:ar":"\u0641\u064a\u062f\u0631\u0627\u0644 \u0648\u0627\u064a","source":"openstreetmap.org","min_zoom":8.0,"population":89306,"name:bg":"\u0424\u0435\u0434\u044a\u0440\u0430\u043b \u0423\u0435\u0439","name:zh":"\u8cbb\u5fb7\u52d2\u723e\u97cb","id":34746675,"name:ja":"\u30d5\u30a7\u30c7\u30e9\u30eb\u30a6\u30a7\u30a4"},"coordinates":[13,1179]},{"type":"Point","properties":{"name:fa":"\u0627\u0648\u0628\u0631\u0646","kind":"locality","name":"Auburn","name:ko":"\uc624\ubc88","kind_detail":"town","name:ar":"\u0623\u0648\u0628\u0648\u0631\u0646","name:ur":"\u0622\u0628\u0631\u0646","source":"openstreetmap.org","min_zoom":8.0,"population":70180,"name:zh":"\u5965\u672c","id":486223197,"name:ja":"\u30aa\u30fc\u30d0\u30fc\u30f3"},"coordinates":[331,1153]},{"type":"Point","properties":{"name:he":"\u05e8\u05d3\u05de\u05d5\u05e0\u05d3","name:ja":"\u30ec\u30c9\u30e2\u30f3\u30c9","name:ko":"\ub808\ub4dc\uba3c\ub4dc","name:ar":"\u0631\u064a\u062f\u0645\u0648\u0646\u062f","min_zoom":8.0,"name:uk":"\u0420\u0435\u0434\u043c\u043e\u043d\u0434","name:ru":"\u0420\u0435\u0434\u043c\u043e\u043d\u0434","name:ta":"\u0bb0\u0bc6\u0b9f\u0bcd\u0bae\u0bbe\u0ba3\u0bcd\u0b9f\u0bcd","id":48717784,"population":54144,"name:fa":"\u0631\u062f\u0645\u0648\u0646\u062f","kind":"locality","name:bg":"\u0420\u0435\u0434\u043c\u044a\u043d\u0434","name":"Redmond","kind_detail":"town","source":"openstreetmap.org","name:zh":"\u96f7\u5fb7\u8499\u5fb7"},"coordinates":[640,2714]},{"type":"Point","properties":{"source":"openstreetmap.org","kind":"locality","name":"South Hill","kind_detail":"town","population":52431,"min_zoom":8.0,"id":34739531},"coordinates":[155,349]},{"type":"Point","properties":{"name:fa":"\u06a9\u0631\u06a9\u0644\u0646\u062f","kind":"locality","name":"Kirkland","name:ko":"\ucee4\ud074\ub79c\ub4dc","kind_detail":"town","name:ar":"\u0643\u064a\u0631\u0643\u0644\u0627\u0646\u062f","source":"openstreetmap.org","min_zoom":8.0,"population":48787,"name:bg":"\u041a\u044a\u0440\u043a\u043b\u0430\u043d\u0434","name:zh":"\u67ef\u514b\u862d","id":48719862,"name:ja":"\u30ab\u30fc\u30af\u30e9\u30f3\u30c9"},"coordinates":[442,2785]},{"type":"Point","properties":{"source":"openstreetmap.org","kind":"locality","name":"Sammamish","kind_detail":"town","population":45780,"min_zoom":8.0,"id":48721198},"coordinates":[878,2453]},{"type":"Point","properties":{"source":"openstreetmap.org","kind":"locality","name":"Puyallup","kind_detail":"town","population":37620,"min_zoom":8.0,"id":34730631},"coordinates":[150,624]},{"type":"Point","properties":{"name:ja":"\u30ea\u30f3\u30a6\u30c3\u30c9","name:ko":"\ub9b0\uc6b0\ub4dc","name:ar":"\u0644\u064a\u0646\u0648\u0648\u062f","min_zoom":8.0,"name:uk":"\u041b\u0456\u043d\u0432\u0443\u0434","name:ru":"\u041b\u0438\u043d\u0432\u0443\u0434","name:be":"\u041b\u0456\u043d\u0432\u0443\u0434","name:bg":"\u041b\u0438\u043d\u0443\u0434","id":137918276,"population":35836,"name:fa":"\u0644\u06cc\u0646 \u0648\u0648\u062f","kind":"locality","name":"Lynnwood","kind_detail":"town","source":"openstreetmap.org","name:zh":"\u6797\u4f0d\u5fb7"},"coordinates":[112,3397]},{"type":"Point","properties":{"source":"openstreetmap.org","kind":"locality","name":"Bothell","kind_detail":"town","population":33505,"min_zoom":8.0,"id":137907145},"coordinates":[399,3104]},{"type":"Point","properties":{"name:fa":"\u0627\u06cc\u0633\u06a9\u0648\u0627","kind":"locality","name":"Issaquah","name:ko":"\uc774\uc0ac\ucf70","kind_detail":"town","name:ar":"\u0625\u0633\u0627\u0643\u0648\u0647","source":"openstreetmap.org","min_zoom":8.0,"population":30434,"name:bg":"\u0418\u0441\u0430\u043a\u0443\u0430","name:zh":"\u4f0a\u745f\u95ca","id":48638720,"name:ja":"\u30a4\u30b5\u30af\u30a2"},"coordinates":[875,2134]},{"type":"Point","properties":{"source":"openstreetmap.org","kind":"locality","name":"Des Moines","kind_detail":"town","population":28992,"min_zoom":8.0,"id":150946405},"coordinates":[99,1547]},{"type":"Point","properties":{"source":"openstreetmap.org","kind":"locality","name":"SeaTac","kind_detail":"town","population":26909,"min_zoom":8.0,"id":4948907398},"coordinates":[177,1745]},{"type":"Point","properties":{"source":"openstreetmap.org","kind":"locality","name":"Mercer Island","kind_detail":"town","population":22699,"min_zoom":8.0,"id":30422625},"coordinates":[338,2314]},{"type":"Point","properties":{"source":"openstreetmap.org","kind":"locality","name":"Maple Valley","kind_detail":"town","population":22684,"min_zoom":8.0,"id":48702465},"coordinates":[874,1407]},{"type":"Point","properties":{"source":"openstreetmap.org","kind":"locality","name":"Cottage Lake","kind_detail":"town","population":22494,"min_zoom":8.0,"id":5084465669},"coordinates":[772,3017]},{"type":"Point","properties":{"source":"openstreetmap.org","kind":"locality","name":"Silver Firs","kind_detail":"town","population":20891,"min_zoom":8.0,"id":141020067},"coordinates":[481,3626]},{"type":"Point","properties":{"source":"openstreetmap.org","kind":"locality","name":"Kenmore","kind_detail":"town","population":20460,"min_zoom":8.0,"id":150960215},"coordinates":[291,3093]},{"type":"Point","properties":{"source":"openstreetmap.org","kind":"locality","name":"Mukilteo","kind_detail":"town","population":20254,"min_zoom":8.0,"id":140372123},"coordinates":[117,3913]},{"type":"Point","properties":{"source":"openstreetmap.org","kind":"locality","name":"Mountlake Terrace","kind_detail":"town","population":19909,"min_zoom":8.0,"id":140369628},"coordinates":[108,3238]},{"type":"Point","properties":{"name:fa":"\u062a\u0627\u06a9\u0648\u06cc\u0644\u0627","kind":"locality","name":"Tukwila","kind_detail":"town","name:ar":"\u062a\u0648\u0643\u0648\u064a\u0644\u0627","source":"openstreetmap.org","min_zoom":8.0,"population":19107,"name:bg":"\u0422\u044a\u043a\u0443\u0438\u043b\u0430","name:zh":"\u5854\u514b\u7dad\u62c9","id":48709935,"name:ja":"\u30bf\u30c3\u30af\u30a6\u30a3\u30e9"},"coordinates":[256,1822]},{"type":"Point","properties":{"source":"openstreetmap.org","kind":"locality","name":"Mill Creek","kind_detail":"town","population":18244,"min_zoom":8.0,"id":302744209},"coordinates":[357,3526]},{"type":"Point","properties":{"source":"openstreetmap.org","kind":"locality","name":"Covington","kind_detail":"town","population":17575,"min_zoom":8.0,"id":48702375},"coordinates":[709,1404]},{"type":"Point","properties":{"source":"openstreetmap.org","kind":"locality","name":"Bonney Lake","kind_detail":"town","population":17374,"min_zoom":8.0,"id":34742225},"coordinates":[505,633]},{"type":"Point","properties":{"source":"openstreetmap.org","kind":"locality","name":"Lake Forest Park","kind_detail":"town","population":12598,"min_zoom":8.0,"id":150970659},"coordinates":[183,3090]},{"type":"Point","properties":{"source":"openstreetmap.org","kind":"locality","name":"Woodinville","kind_detail":"town","population":10938,"min_zoom":8.0,"id":696824105},"coordinates":[538,3081]},{"type":"Point","properties":{"source":"openstreetmap.org","kind":"locality","name":"Maltby","kind_detail":"town","population":10830,"min_zoom":8.0,"id":140352003},"coordinates":[668,3299]},{"type":"Point","properties":{"source":"openstreetmap.org","kind":"locality","name":"Enumclaw","kind_detail":"town","population":10669,"min_zoom":8.0,"id":150939994},"coordinates":[1026,710]},{"type":"Point","properties":{"source":"openstreetmap.org","kind":"locality","name":"Snohomish","kind_detail":"town","population":9098,"min_zoom":8.0,"id":140980889},"coordinates":[739,3786]},{"type":"Point","properties":{"source":"openstreetmap.org","kind":"locality","name":"Alderwood Manor","kind_detail":"town","population":8442,"min_zoom":8.0,"id":137898019},"coordinates":[248,3287]},{"type":"Point","properties":{"source":"openstreetmap.org","kind":"locality","name":"Duvall","kind_detail":"town","population":7183,"min_zoom":8.0,"id":150952726},"coordinates":[1043,3028]},{"type":"Point","properties":{"source":"openstreetmap.org","kind":"locality","name":"Hobart","kind_detail":"town","population":6221,"min_zoom":8.0,"id":48698281},"coordinates":[1082,1614]},{"type":"Point","properties":{"source":"openstreetmap.org","kind":"locality","name":"Sultan","kind_detail":"town","population":4651,"min_zoom":8.0,"id":140988379},"coordinates":[1541,3546]},{"type":"Point","properties":{"source":"openstreetmap.org","kind":"locality","name":"Buckley","kind_detail":"town","population":4354,"min_zoom":8.0,"id":111263832},"coordinates":[920,526]},{"type":"Point","properties":{"source":"openstreetmap.org","kind":"locality","name":"Gold Bar","kind_detail":"town","population":2075,"min_zoom":8.0,"id":137935064},"coordinates":[1895,3510]},{"type":"Point","properties":{"source":"openstreetmap.org","kind":"locality","name":"Carnation","kind_detail":"town","population":1786,"min_zoom":8.0,"id":150958882},"coordinates":[1255,2619]},{"type":"Point","properties":{"source":"openstreetmap.org","kind":"locality","name":"Carbonado","kind_detail":"town","population":610,"min_zoom":8.0,"id":111266204},"coordinates":[851,171]},{"type":"Point","properties":{"source":"openstreetmap.org","kind":"locality","name":"Skykomish","kind_detail":"town","population":198,"min_zoom":8.0,"id":150943340},"coordinates":[2864,2886]},{"type":"Point","properties":{"source":"openstreetmap.org","kind":"locality","name":"Index","kind_detail":"town","population":178,"min_zoom":8.0,"id":137966659},"coordinates":[2301,3367]}]},"transit":{"type":"GeometryCollection","geometries":[{"type":"LineString","properties":{"source":"openstreetmap.org","kind":"train","name":"Seattle Center Monorail: Westlake Center => Seattle Center","sort_rank":275,"min_zoom":6.0,"osm_relation":true,"id":-3237714},"arcs":[0]},{"type":"LineString","properties":{"source":"openstreetmap.org","kind":"train","name":"Seattle Center Monorail: Seattle Center => Westlake Center","sort_rank":275,"min_zoom":6.0,"osm_relation":true,"id":-3237713},"arcs":[1]},{"type":"LineString","properties":{"kind":"train","network":"Amtrak","service":"long_distance","sort_rank":275,"colour":"#191970","name":"Coast Starlight","source":"openstreetmap.org","min_zoom":5.0,"operator":"Amtrak","ref":"11-14","osm_relation":true,"colour_name":"navy"},"arcs":[2]},{"type":"LineString","properties":{"kind":"train","network":"Satellite Transit System","sort_rank":275,"source":"openstreetmap.org","min_zoom":6.0,"id":-6495673,"osm_relation":true,"name":"Terminal Shuttle"},"arcs":[3]},{"type":"MultiLineString","properties":{"kind":"train","name":"Sounder Everett-Seattle","sort_rank":275,"colour":"#88BE5F","source":"openstreetmap.org","min_zoom":6.0,"operator":"Sound Transit","ref":"Everett","osm_relation":true,"colour_name":"darkseagreen"},"arcs":[[4],[5],[6],[7]]},{"type":"MultiLineString","properties":{"kind":"train","network":"Amtrak Intercity","service":"long_distance","sort_rank":275,"colour":"#288067","name":"Cascades","source":"openstreetmap.org","min_zoom":5.0,"operator":"Amtrak","ref":"500-517","osm_relation":true,"colour_name":"teal"},"arcs":[[8],[9],[10],[11],[12],[13],[14],[15]]},{"type":"LineString","properties":{"kind":"train","name":"Sounder Lakewood-Seattle","sort_rank":275,"colour":"#5FB04F","source":"openstreetmap.org","min_zoom":6.0,"operator":"Sound Transit","ref":"Lakewood-Seattle","osm_relation":true,"colour_name":"mediumseagreen"},"arcs":[16]},{"type":"MultiLineString","properties":{"kind":"train","network":"Amtrak","service":"long_distance","sort_rank":275,"colour":"#005480","name":"Empire Builder","source":"openstreetmap.org","min_zoom":5.0,"operator":"Amtrak","ref":"7-8","osm_relation":true,"colour_name":"teal"},"arcs":[[17],[18],[19],[20],[21],[22],[23],[24],[25]]}]},"pois":{"type":"GeometryCollection","geometries":[{"type":"Point","properties":{"kind":"nature_reserve","tier":2,"protect_class":"1b","area":249153000,"source":"openstreetmap.org","min_zoom":8.31,"operator":"United States Forest Service","id":-6114550,"osm_relation":true,"name":"Wild Sky Wilderness Area"},"coordinates":[3252,3451]},{"type":"Point","properties":{"kind":"nature_reserve","tier":2,"protect_class":"1b","area":3691750000,"source":"openstreetmap.org","min_zoom":6.37,"operator":"United States Forest Service","id":-6112652,"osm_relation":true,"name":"Alpine Lakes Wilderness Area"},"coordinates":[3427,2281]},{"type":"Point","properties":{"kind":"protected_area","protect_class":"24","area":17174900,"source":"openstreetmap.org","min_zoom":8.0,"tier":2,"id":-3795318,"osm_relation":true,"name":"Muckleshoot Tribe Reservation"},"coordinates":[643,886]},{"type":"Point","properties":{"kind":"nature_reserve","tier":2,"protect_class":"1b","area":929712000,"source":"openstreetmap.org","min_zoom":7.36,"operator":"United States Forest Service","id":-3093637,"osm_relation":true,"name":"Henry M. Jackson Wilderness Area"},"coordinates":[3486,3799]},{"type":"Point","properties":{"kind":"nature_reserve","tier":2,"name":"Mount Si Natural Resources Conservation Area","area":111595000,"source":"openstreetmap.org","min_zoom":8.89,"operator":"Washington State Department of Natural Resources","id":-295846,"osm_relation":true},"coordinates":[1891,2056]},{"type":"Point","properties":{"source":"openstreetmap.org","kind":"nursing_home","name":"Rainier School","area":776573,"min_zoom":8.72,"id":380269992},"coordinates":[1007,513]}]},"boundaries":{"type":"GeometryCollection","geometries":[]},"roads":{"type":"GeometryCollection","geometries":[{"type":"MultiLineString","properties":{"kind":"highway","network":"US:I","sort_rank":383,"landuse_kind":"forest","is_bicycle_related":true,"source":"openstreetmap.org","min_zoom":8.0,"all_networks":["US:I"],"kind_detail":"motorway","shield_text":"90","ref":"I 90","all_shield_texts":["90"]},"arcs":[[32],[33],[34],[35],[36],[37],[38],[39],[40],[41],[42],[43],[44],[45],[46],[47],[48]]},{"type":"MultiLineString","properties":{"kind":"major_road","network":"US:WA","sort_rank":380,"kind_detail":"primary","source":"openstreetmap.org","min_zoom":8.0,"landuse_kind":"urban_area","shield_text":"516"},"arcs":[[49],[50],[51]]},{"type":"LineString","properties":{"kind":"major_road","network":"US:WA","sort_rank":380,"kind_detail":"primary","source":"openstreetmap.org","min_zoom":8.0,"shield_text":"99","ref":"WA 99"},"arcs":[52]},{"type":"MultiLineString","properties":{"bus_network":null,"network":"US:WA","sort_rank":380,"kind_detail":"primary","kind":"major_road","source":"openstreetmap.org","min_zoom":8.0,"bus_shield_text":"372","shield_text":"522","landuse_kind":"urban_area","ref":"WA 522"},"arcs":[[53],[54],[55],[56],[57],[58],[59],[60],[61],[62]]},{"type":"LineString","properties":{"source":"openstreetmap.org","kind":"highway","landuse_kind":"urban_area","sort_rank":383,"kind_detail":"motorway","ref":"I 405 HOV","min_zoom":8.0},"arcs":[63]},{"type":"MultiLineString","properties":{"bus_network":null,"network":"US:WA","sort_rank":380,"kind_detail":"primary","kind":"major_road","source":"openstreetmap.org","min_zoom":8.0,"bus_shield_text":"A Line","shield_text":"99","landuse_kind":"urban_area","ref":"WA 99;WA 509"},"arcs":[[64],[65]]},{"type":"MultiLineString","properties":{"kind":"major_road","network":"US:WA","sort_rank":380,"kind_detail":"primary","source":"openstreetmap.org","min_zoom":8.0,"landuse_kind":"urban_area","shield_text":"509","ref":"WA 509"},"arcs":[[66],[67],[68],[69],[70]]},{"type":"MultiLineString","properties":{"kind":"major_road","network":"US:WA","sort_rank":380,"kind_detail":"primary","source":"openstreetmap.org","min_zoom":8.0,"landuse_kind":"urban_area","shield_text":"96","ref":"WA 96"},"arcs":[[71],[72],[73],[74]]},{"type":"MultiLineString","properties":{"kind":"major_road","network":"US:WA","sort_rank":381,"landuse_kind":"urban_area","source":"openstreetmap.org","min_zoom":8.0,"kind_detail":"trunk","shield_text":"99","ref":"WA 99"},"arcs":[[75],[76],[77]]},{"type":"LineString","properties":{"kind":"major_road","network":"US:WA","sort_rank":380,"kind_detail":"primary","source":"openstreetmap.org","min_zoom":8.0,"landuse_kind":"urban_area","shield_text":"519"},"arcs":[78]},{"type":"MultiLineString","properties":{"kind":"highway","network":"US:I","sort_rank":383,"kind_detail":"motorway","source":"openstreetmap.org","min_zoom":8.0,"all_networks":["US:I"],"shield_text":"90","ref":"I 90","all_shield_texts":["90"]},"arcs":[[79],[80],[81],[82],[83],[84]]},{"type":"LineString","properties":{"source":"openstreetmap.org","bus_network":null,"bus_shield_text":"67","sort_rank":380,"kind_detail":"primary","min_zoom":8.0,"kind":"major_road"},"arcs":[85]},{"type":"LineString","properties":{"kind":"major_road","sort_rank":381,"landuse_kind":"urban_area","is_bicycle_related":true,"source":"openstreetmap.org","min_zoom":8.0,"kind_detail":"trunk","id":23741290},"arcs":[86]},{"type":"MultiLineString","properties":{"kind":"highway","network":"US:WA","sort_rank":383,"landuse_kind":"urban_area","is_bicycle_related":true,"source":"openstreetmap.org","min_zoom":8.0,"all_networks":["US:WA"],"kind_detail":"motorway","shield_text":"99","ref":"WA 99","all_shield_texts":["99"]},"arcs":[[87],[88],[89],[90]]},{"type":"LineString","properties":{"kind":"major_road","sort_rank":380,"landuse_kind":"urban_area","source":"openstreetmap.org","min_zoom":8.0,"kind_detail":"primary","ref":"WA 304","id":450944698},"arcs":[91]},{"type":"MultiLineString","properties":{"kind":"major_road","network":"US:WA","sort_rank":380,"kind_detail":"primary","source":"openstreetmap.org","min_zoom":8.0,"landuse_kind":"urban_area","shield_text":"516","ref":"WA 516"},"arcs":[[92],[93],[94],[95],[96],[97],[98],[99]]},{"type":"MultiLineString","properties":{"kind":"highway","network":"US:I","sort_rank":383,"landuse_kind":"urban_area","source":"openstreetmap.org","min_zoom":8.0,"all_networks":["US:I","US:WA"],"kind_detail":"motorway","shield_text":"405","ref":"I 405;WA 900","all_shield_texts":["405","900"]},"arcs":[[100],[101]]},{"type":"LineString","properties":{"kind":"highway","network":"US:WA","sort_rank":383,"kind_detail":"motorway","source":"openstreetmap.org","min_zoom":8.0,"all_networks":["US:WA"],"shield_text":"526","ref":"WA 526","id":220135554,"all_shield_texts":["526"]},"arcs":[102]},{"type":"LineString","properties":{"kind":"major_road","network":"US:WA","sort_rank":380,"kind_detail":"primary","source":"openstreetmap.org","min_zoom":8.0,"landuse_kind":"urban_area","shield_text":"305","ref":"WA 305","id":177039729},"arcs":[103]},{"type":"LineString","properties":{"kind":"major_road","sort_rank":380,"kind_detail":"primary","is_bicycle_related":true,"bicycle_shield_text":null,"bicycle_network":"rcn","source":"openstreetmap.org","min_zoom":8.0,"landuse_kind":"urban_area"},"arcs":[104]},{"type":"LineString","properties":{"kind":"major_road","network":"US:WA","sort_rank":380,"kind_detail":"primary","bus_network":"Everett Transit","source":"openstreetmap.org","min_zoom":8.0,"bus_shield_text":"70 West","shield_text":"526","landuse_kind":"urban_area","ref":"WA 526","id":56531075},"arcs":[105]},{"type":"LineString","properties":{"bus_network":null,"network":"US:WA","sort_rank":380,"kind_detail":"primary","reg_name":"State Route 167","kind":"major_road","source":"openstreetmap.org","min_zoom":8.0,"bus_shield_text":"F Line","shield_text":"167","landuse_kind":"urban_area","ref":"WA 167"},"arcs":[106]},{"type":"LineString","properties":{"kind":"ferry","name":"Seattle-Bainbridge Island Ferry","sort_rank":355,"is_bicycle_related":true,"source":"openstreetmap.org","min_zoom":8.0,"all_networks":["US:WA"],"shield_text":"305","ref":"WA 305","id":188300879,"all_shield_texts":["305"],"network":"US:WA"},"arcs":[107]},{"type":"LineString","properties":{"kind":"highway","network":"US:US","sort_rank":383,"kind_detail":"motorway","source":"openstreetmap.org","min_zoom":8.0,"all_networks":["US:US"],"shield_text":"2","ref":"US 2","all_shield_texts":["2"]},"arcs":[108]},{"type":"LineString","properties":{"kind":"major_road","network":"US:WA","sort_rank":380,"kind_detail":"primary","is_bicycle_related":true,"bus_network":"Everett Transit","source":"openstreetmap.org","min_zoom":8.0,"bus_shield_text":"70 West","shield_text":"526","landuse_kind":"urban_area","ref":"WA 526","id":238791992},"arcs":[109]},{"type":"LineString","properties":{"source":"openstreetmap.org","kind":"ferry","name":"Seattle-Bremerton","sort_rank":355,"min_zoom":8.0,"osm_relation":true,"id":-5516445},"arcs":[110]},{"type":"LineString","properties":{"osm_relation":true,"kind":"ferry","network":"US:WA","sort_rank":355,"landuse_kind":"urban_area","source":"openstreetmap.org","min_zoom":8.0,"all_networks":["US:WA"],"shield_text":"339","id":-2855411,"all_shield_texts":["339"],"name":"WA 339"},"arcs":[111]},{"type":"MultiLineString","properties":{"sort_rank":380,"kind_detail":"primary","min_zoom":8.0,"kind":"major_road","source":"openstreetmap.org"},"arcs":[[112],[113],[114],[115],[116],[117],[118],[119],[120],[121],[122],[123],[124],[125]]},{"type":"MultiLineString","properties":{"kind":"highway","network":"US:I","sort_rank":383,"kind_detail":"motorway","source":"openstreetmap.org","min_zoom":8.0,"all_networks":["US:I"],"landuse_kind":"urban_area","shield_text":"5","ref":"I 5 Express","all_shield_texts":["5"]},"arcs":[[126],[127],[128]]},{"type":"MultiLineString","properties":{"kind":"highway","network":"US:WA","sort_rank":383,"kind_detail":"motorway","is_bicycle_related":true,"source":"openstreetmap.org","min_zoom":8.0,"all_networks":["US:WA","US:WA"],"shield_text":"161","ref":"WA 161; WA 167","all_shield_texts":["161","167"]},"arcs":[[129],[130]]},{"type":"LineString","properties":{"source":"openstreetmap.org","kind":"ferry","name":"Hat Island Ferry","sort_rank":355,"min_zoom":8.0,"id":243997674},"arcs":[131]},{"type":"MultiLineString","properties":{"kind":"highway","network":"US:WA","sort_rank":383,"landuse_kind":"urban_area","is_bicycle_related":true,"source":"openstreetmap.org","min_zoom":8.0,"all_networks":["US:WA"],"kind_detail":"motorway","shield_text":"512","ref":"WA 512","all_shield_texts":["512"]},"arcs":[[132],[133]]},{"type":"LineString","properties":{"source":"openstreetmap.org","bus_network":null,"bus_shield_text":"40","sort_rank":380,"kind_detail":"primary","min_zoom":8.0,"kind":"major_road"},"arcs":[134]},{"type":"MultiLineString","properties":{"source":"openstreetmap.org","kind":"major_road","landuse_kind":"urban_area","sort_rank":380,"kind_detail":"primary","ref":"WA 516","min_zoom":8.0},"arcs":[[135],[136]]},{"type":"LineString","properties":{"bus_network":null,"network":"US:WA","sort_rank":380,"kind_detail":"primary","kind":"major_road","source":"openstreetmap.org","min_zoom":8.0,"bus_shield_text":"31","shield_text":"513","landuse_kind":"urban_area","ref":"WA 513"},"arcs":[137]},{"type":"LineString","properties":{"source":"openstreetmap.org","kind":"major_road","landuse_kind":"urban_area","sort_rank":380,"kind_detail":"primary","is_bicycle_related":true,"min_zoom":8.0},"arcs":[138]},{"type":"LineString","properties":{"kind":"major_road","network":"US:WA","sort_rank":380,"kind_detail":"primary","source":"openstreetmap.org","min_zoom":8.0,"landuse_kind":"urban_area","shield_text":"96"},"arcs":[139]},{"type":"LineString","properties":{"source":"openstreetmap.org","kind":"ferry","name":"West Seattle Water Taxi","sort_rank":355,"is_bicycle_related":true,"min_zoom":8.0,"id":12905453},"arcs":[140]},{"type":"MultiLineString","properties":{"kind":"highway","network":"US:WA","sort_rank":383,"landuse_kind":"urban_area","is_bicycle_related":true,"source":"openstreetmap.org","min_zoom":8.0,"all_networks":["US:WA"],"kind_detail":"motorway","shield_text":"599","ref":"WA 99","all_shield_texts":["599"]},"arcs":[[141],[142]]},{"type":"LineString","properties":{"bus_network":null,"sort_rank":380,"kind_detail":"primary","is_bicycle_related":true,"kind":"major_road","cycleway":"shared_lane","source":"openstreetmap.org","min_zoom":8.0,"bus_shield_text":"1","landuse_kind":"urban_area"},"arcs":[143]},{"type":"MultiLineString","properties":{"kind":"highway","network":"US:I","sort_rank":383,"kind_detail":"motorway","source":"openstreetmap.org","min_zoom":8.0,"all_networks":["US:I","US:WA"],"shield_text":"405","ref":"I 405;WA 900","all_shield_texts":["405","900"]},"arcs":[[144],[145]]},{"type":"MultiLineString","properties":{"kind":"major_road","network":"US:WA","sort_rank":380,"kind_detail":"primary","source":"openstreetmap.org","min_zoom":8.0,"landuse_kind":"urban_area","shield_text":"522","ref":"WA 522"},"arcs":[[146],[147]]},{"type":"MultiLineString","properties":{"kind":"highway","network":"US:WA","sort_rank":383,"kind_detail":"motorway","is_bicycle_related":true,"source":"openstreetmap.org","min_zoom":8.0,"all_networks":["US:WA"],"shield_text":"167","ref":"WA 167","all_shield_texts":["167"]},"arcs":[[148],[149]]},{"type":"LineString","properties":{"source":"openstreetmap.org","kind":"major_road","old_name":"Airport Way South","sort_rank":380,"kind_detail":"primary","landuse_kind":"urban_area","min_zoom":8.0},"arcs":[150]},{"type":"LineString","properties":{"kind":"ferry","name":"Seattle-Bremerton Ferry","sort_rank":355,"landuse_kind":"urban_area","is_bicycle_related":true,"source":"openstreetmap.org","min_zoom":8.0,"all_networks":["US:WA"],"shield_text":"304","ref":"WA 304","id":5919117,"all_shield_texts":["304"],"network":"US:WA"},"arcs":[151]},{"type":"MultiLineString","properties":{"kind":"highway","network":"US:WA","sort_rank":383,"landuse_kind":"urban_area","source":"openstreetmap.org","min_zoom":8.0,"all_networks":["US:WA"],"kind_detail":"motorway","shield_text":"599","ref":"WA 599","all_shield_texts":["599"]},"arcs":[[152],[153]]},{"type":"LineString","properties":{"kind":"major_road","network":"US:WA","sort_rank":380,"kind_detail":"primary","bus_network":"Everett Transit","source":"openstreetmap.org","min_zoom":8.0,"bus_shield_text":"70 West","shield_text":"526","landuse_kind":"aerodrome","ref":"WA 526","id":289490204},"arcs":[154]},{"type":"LineString","properties":{"kind":"major_road","sort_rank":380,"kind_detail":"primary","is_bicycle_related":true,"cycleway":"track","source":"openstreetmap.org","min_zoom":8.0,"id":61014551},"arcs":[155]},{"type":"MultiLineString","properties":{"kind":"major_road","network":"US:WA:Spur","sort_rank":380,"kind_detail":"primary","source":"openstreetmap.org","min_zoom":8.0,"landuse_kind":"aerodrome","shield_text":"525","ref":"WA 525 Spur"},"arcs":[[156],[157]]},{"type":"LineString","properties":{"kind":"highway","network":"US:I","sort_rank":383,"kind_detail":"motorway","source":"openstreetmap.org","min_zoom":8.0,"all_networks":["US:I"],"old_name":"Sunset Highway","shield_text":"90","ref":"I 90","id":160750886,"all_shield_texts":["90"]},"arcs":[158]},{"type":"LineString","properties":{"source":"openstreetmap.org","kind":"ferry","name":"Seattle to Blake Island","sort_rank":355,"landuse_kind":"urban_area","min_zoom":8.0,"id":246391408},"arcs":[159]},{"type":"MultiLineString","properties":{"kind":"major_road","network":"US:WA","sort_rank":381,"landuse_kind":"urban_area","source":"openstreetmap.org","min_zoom":8.0,"kind_detail":"trunk","shield_text":"518","ref":"WA 518"},"arcs":[[160],[161]]},{"type":"LineString","properties":{"kind":"major_road","network":"US:WA","sort_rank":380,"kind_detail":"primary","is_bicycle_related":true,"bicycle_shield_text":"Snoqualmie","bicycle_network":"rcn","source":"openstreetmap.org","min_zoom":8.0,"shield_text":"202","ref":"WA 202","id":420398595},"arcs":[162]},{"type":"MultiLineString","properties":{"bus_network":null,"network":"US:WA","sort_rank":380,"kind_detail":"primary","kind":"major_road","source":"openstreetmap.org","min_zoom":8.0,"bus_shield_text":"41","shield_text":"522","ref":"WA 522"},"arcs":[[163],[164],[165],[166],[167],[168],[169]]},{"type":"LineString","properties":{"kind":"major_road","sort_rank":380,"kind_detail":"primary","is_bicycle_related":true,"bus_network":null,"cycleway":"shared_lane","source":"openstreetmap.org","min_zoom":8.0,"bus_shield_text":"27","landuse_kind":"urban_area","id":540076527},"arcs":[170]},{"type":"MultiLineString","properties":{"kind":"highway","network":"US:WA","sort_rank":383,"kind_detail":"motorway","source":"openstreetmap.org","min_zoom":8.0,"all_networks":["US:WA"],"shield_text":"522","ref":"WA 522","all_shield_texts":["522"]},"arcs":[[171],[172],[173],[174],[175]]},{"type":"LineString","properties":{"bus_network":"Everett Transit","sort_rank":380,"kind_detail":"primary","kind":"major_road","source":"openstreetmap.org","min_zoom":8.0,"bus_shield_text":"8 North","landuse_kind":"urban_area"},"arcs":[176]},{"type":"LineString","properties":{"kind":"highway","network":"US:WA","sort_rank":383,"kind_detail":"motorway","is_bicycle_related":true,"source":"openstreetmap.org","min_zoom":8.0,"all_networks":["US:WA"],"landuse_kind":"urban_area","shield_text":"526","id":26996516,"all_shield_texts":["526"]},"arcs":[177]},{"type":"LineString","properties":{"bus_network":null,"cycleway_left":"lane","sort_rank":380,"kind_detail":"primary","is_bicycle_related":true,"kind":"major_road","source":"openstreetmap.org","min_zoom":8.0,"bus_shield_text":"29","landuse_kind":"urban_area"},"arcs":[178]},{"type":"MultiLineString","properties":{"kind":"major_road","network":"US:WA:Spur","sort_rank":380,"kind_detail":"primary","source":"openstreetmap.org","min_zoom":8.0,"shield_text":"525","ref":"WA 525 Spur"},"arcs":[[179],[180]]},{"type":"MultiLineString","properties":{"bus_network":null,"network":"US:WA","sort_rank":380,"kind_detail":"primary","kind":"major_road","source":"openstreetmap.org","min_zoom":8.0,"bus_shield_text":"75","shield_text":"522","ref":"WA 522"},"arcs":[[181],[182],[183],[184],[185],[186],[187],[188]]},{"type":"LineString","properties":{"kind":"highway","network":"US:WA","sort_rank":383,"kind_detail":"motorway","source":"openstreetmap.org","min_zoom":8.0,"all_networks":["US:WA"],"landuse_kind":"urban_area","shield_text":"526","ref":"WA 526","id":220135554,"all_shield_texts":["526"]},"arcs":[189]},{"type":"LineString","properties":{"kind":"major_road","sort_rank":381,"landuse_kind":"urban_area","is_bicycle_related":true,"cycleway":"shared_lane","source":"openstreetmap.org","min_zoom":8.0,"kind_detail":"trunk"},"arcs":[190]},{"type":"LineString","properties":{"bus_network":null,"sort_rank":380,"kind_detail":"primary","kind":"major_road","source":"openstreetmap.org","min_zoom":8.0,"bus_shield_text":"A Line","landuse_kind":"aerodrome","ref":"WA 99"},"arcs":[191]},{"type":"LineString","properties":{"kind":"major_road","network":"US:WA","sort_rank":381,"landuse_kind":"urban_area","is_bicycle_related":true,"source":"openstreetmap.org","min_zoom":8.0,"kind_detail":"trunk","shield_text":"520","ref":"WA 520"},"arcs":[192]},{"type":"MultiLineString","properties":{"source":"openstreetmap.org","kind":"major_road","landuse_kind":"urban_area","sort_rank":380,"kind_detail":"primary","ref":"WA 104","min_zoom":8.0},"arcs":[[193],[194]]},{"type":"LineString","properties":{"bus_network":null,"cycleway_left":"track","sort_rank":380,"kind_detail":"primary","is_bicycle_related":true,"kind":"major_road","source":"openstreetmap.org","min_zoom":8.0,"bus_shield_text":"29","landuse_kind":"urban_area"},"arcs":[195]},{"type":"MultiLineString","properties":{"source":"openstreetmap.org","bus_network":null,"bus_shield_text":"75","sort_rank":380,"kind_detail":"primary","min_zoom":8.0,"kind":"major_road"},"arcs":[[196],[197],[198],[199],[200]]},{"type":"LineString","properties":{"bus_network":null,"network":"US:WA","sort_rank":380,"kind_detail":"primary","reg_name":"State Route 181","kind":"major_road","source":"openstreetmap.org","min_zoom":8.0,"bus_shield_text":"F Line","shield_text":"181","landuse_kind":"urban_area","ref":"WA 181"},"arcs":[201]},{"type":"MultiLineString","properties":{"kind":"major_road","network":"US:WA","sort_rank":380,"kind_detail":"primary","source":"openstreetmap.org","min_zoom":8.0,"landuse_kind":"urban_area","shield_text":"181"},"arcs":[[202],[203]]},{"type":"LineString","properties":{"bus_network":null,"sort_rank":380,"kind_detail":"primary","is_bicycle_related":true,"kind":"major_road","cycleway":"shared_lane","source":"openstreetmap.org","min_zoom":8.0,"bus_shield_text":"373"},"arcs":[204]},{"type":"LineString","properties":{"cycleway_right":"lane","network":"US:WA","sort_rank":380,"kind_detail":"primary","is_bicycle_related":true,"kind":"major_road","source":"openstreetmap.org","min_zoom":8.0,"landuse_kind":"urban_area","shield_text":"304","ref":"WA 304"},"arcs":[205]},{"type":"MultiLineString","properties":{"kind":"major_road","network":"US:WA","sort_rank":380,"kind_detail":"primary","reg_name":"State Route 169","source":"openstreetmap.org","min_zoom":8.0,"shield_text":"169","ref":"WA 169"},"arcs":[[206],[207],[208],[209],[210],[211],[212]]},{"type":"MultiLineString","properties":{"kind":"major_road","network":"US:WA","sort_rank":380,"kind_detail":"primary","source":"openstreetmap.org","min_zoom":8.0,"shield_text":"516","ref":"WA 516"},"arcs":[[213],[214],[215],[216],[217],[218]]},{"type":"MultiLineString","properties":{"kind":"highway","network":"US:WA","sort_rank":383,"landuse_kind":"urban_area","is_bicycle_related":true,"source":"openstreetmap.org","min_zoom":8.0,"all_networks":["US:WA"],"kind_detail":"motorway","shield_text":"509","ref":"WA 509","all_shield_texts":["509"]},"arcs":[[219],[220],[221],[222]]},{"type":"LineString","properties":{"bus_network":null,"sort_rank":380,"kind_detail":"primary","is_bicycle_related":true,"kind":"major_road","source":"openstreetmap.org","min_zoom":8.0,"bus_shield_text":"62"},"arcs":[223]},{"type":"MultiLineString","properties":{"kind":"highway","network":"US:WA","sort_rank":383,"landuse_kind":"urban_area","is_bicycle_related":true,"source":"openstreetmap.org","min_zoom":8.0,"all_networks":["US:WA","US:WA"],"kind_detail":"motorway","shield_text":"161","ref":"WA 161;WA 512","all_shield_texts":["161","512"]},"arcs":[[224],[225]]},{"type":"MultiLineString","properties":{"kind":"major_road","network":"US:WA","sort_rank":380,"kind_detail":"primary","source":"openstreetmap.org","min_zoom":8.0,"landuse_kind":"urban_area","shield_text":"513","ref":"WA 513"},"arcs":[[226],[227],[228]]},{"type":"MultiLineString","properties":{"bus_network":null,"network":"US:WA","sort_rank":380,"kind_detail":"primary","is_bicycle_related":true,"kind":"major_road","source":"openstreetmap.org","min_zoom":8.0,"bus_shield_text":"Swift","shield_text":"99","landuse_kind":"urban_area","ref":"WA 99"},"arcs":[[229],[230],[231],[232],[233]]},{"type":"MultiLineString","properties":{"kind":"highway","network":"US:WA","sort_rank":383,"kind_detail":"motorway","source":"openstreetmap.org","min_zoom":8.0,"all_networks":["US:WA"],"shield_text":"18","ref":"WA 18","all_shield_texts":["18"]},"arcs":[[234],[235]]},{"type":"LineString","properties":{"bus_network":null,"network":"US:WA","sort_rank":380,"kind_detail":"primary","kind":"major_road","source":"openstreetmap.org","min_zoom":8.0,"bus_shield_text":"64","shield_text":"523","ref":"WA 523"},"arcs":[236]},{"type":"LineString","properties":{"kind":"major_road","network":"US:WA","sort_rank":380,"kind_detail":"primary","is_bicycle_related":true,"cycleway":"lane","source":"openstreetmap.org","min_zoom":8.0,"shield_text":"524","ref":"WA 524"},"arcs":[237]},{"type":"MultiLineString","properties":{"kind":"major_road","network":"US:WA","sort_rank":380,"kind_detail":"primary","is_bicycle_related":true,"cycleway":"lane","source":"openstreetmap.org","min_zoom":8.0,"shield_text":"202","ref":"WA 202"},"arcs":[[238],[239],[240],[241],[242],[243],[244]]},{"type":"MultiLineString","properties":{"kind":"highway","network":"US:WA","sort_rank":383,"landuse_kind":"urban_area","is_bicycle_related":true,"source":"openstreetmap.org","min_zoom":8.0,"all_networks":["US:WA"],"kind_detail":"motorway","shield_text":"167","ref":"WA 167","all_shield_texts":["167"]},"arcs":[[245],[246],[247],[248],[249],[250],[251],[252]]},{"type":"LineString","properties":{"source":"openstreetmap.org","bus_network":null,"bus_shield_text":"41","sort_rank":380,"kind_detail":"primary","min_zoom":8.0,"kind":"major_road"},"arcs":[253]},{"type":"LineString","properties":{"bus_network":null,"cycleway_left":"lane","sort_rank":380,"kind_detail":"primary","is_bicycle_related":true,"kind":"major_road","source":"openstreetmap.org","min_zoom":8.0,"bus_shield_text":"D Line","landuse_kind":"urban_area"},"arcs":[254]},{"type":"MultiLineString","properties":{"kind":"highway","network":"US:I","sort_rank":383,"kind_detail":"motorway","source":"openstreetmap.org","min_zoom":8.0,"all_networks":["US:I"],"shield_text":"405","ref":"I 405","all_shield_texts":["405"]},"arcs":[[255],[256],[257],[258],[259],[260]]},{"type":"MultiLineString","properties":{"kind":"highway","network":"US:I","sort_rank":383,"kind_detail":"motorway","source":"openstreetmap.org","min_zoom":8.0,"all_networks":["US:I"],"shield_text":"5","ref":"I 5","all_shield_texts":["5"]},"arcs":[[261],[262],[263],[264],[265],[266],[267],[268],[269],[270],[271],[272],[273],[274],[275],[276],[277],[278],[279],[280],[281],[282],[283],[284],[285],[286],[287],[288],[289]]},{"type":"LineString","properties":{"cycleway_right":"lane","cycleway_left":"shared_lane","sort_rank":380,"kind_detail":"primary","is_bicycle_related":true,"kind":"major_road","source":"openstreetmap.org","min_zoom":8.0,"id":428088704},"arcs":[290]},{"type":"MultiLineString","properties":{"kind":"highway","network":"US:WA","sort_rank":383,"landuse_kind":"urban_area","source":"openstreetmap.org","min_zoom":8.0,"all_networks":["US:WA"],"kind_detail":"motorway","shield_text":"99","ref":"WA 99","all_shield_texts":["99"]},"arcs":[[291],[292],[293],[294],[295],[296],[297],[298],[299]]},{"type":"MultiLineString","properties":{"kind":"highway","network":"US:WA","sort_rank":383,"landuse_kind":"urban_area","is_bicycle_related":true,"source":"openstreetmap.org","min_zoom":8.0,"all_networks":["US:WA"],"kind_detail":"motorway","shield_text":"525","ref":"WA 525","all_shield_texts":["525"]},"arcs":[[300],[301]]},{"type":"LineString","properties":{"bus_network":null,"network":"US:WA","sort_rank":380,"kind_detail":"primary","kind":"major_road","source":"openstreetmap.org","min_zoom":8.0,"bus_shield_text":"373","shield_text":"523","ref":"WA 523"},"arcs":[302]},{"type":"MultiLineString","properties":{"kind":"highway","network":"US:WA","sort_rank":383,"kind_detail":"motorway","source":"openstreetmap.org","min_zoom":8.0,"all_networks":["US:WA"],"landuse_kind":"urban_area","shield_text":"520","all_shield_texts":["520"]},"arcs":[[303],[304]]},{"type":"LineString","properties":{"bus_network":"Everett Transit","network":"US:WA","sort_rank":380,"kind_detail":"primary","kind":"major_road","source":"openstreetmap.org","min_zoom":8.0,"bus_shield_text":"70 West","shield_text":"525","ref":"WA 525"},"arcs":[305]},{"type":"MultiLineString","properties":{"kind":"major_road","network":"US:WA","sort_rank":380,"kind_detail":"primary","source":"openstreetmap.org","min_zoom":8.0,"landuse_kind":"urban_area","shield_text":"304","ref":"WA 304"},"arcs":[[306],[307]]},{"type":"LineString","properties":{"source":"openstreetmap.org","bus_network":null,"bus_shield_text":"9","sort_rank":380,"kind_detail":"primary","min_zoom":8.0,"kind":"major_road"},"arcs":[308]},{"type":"MultiLineString","properties":{"source":"openstreetmap.org","kind":"major_road","network":"US:WA","sort_rank":380,"kind_detail":"primary","min_zoom":8.0,"shield_text":"525"},"arcs":[[309],[310]]},{"type":"LineString","properties":{"kind":"major_road","network":"US:WA","sort_rank":380,"kind_detail":"primary","is_bicycle_related":true,"cycleway":"lane","source":"openstreetmap.org","min_zoom":8.0,"landuse_kind":"urban_area","shield_text":"516"},"arcs":[311]},{"type":"MultiLineString","properties":{"kind":"major_road","network":"US:WA","sort_rank":380,"kind_detail":"primary","source":"openstreetmap.org","min_zoom":8.0,"landuse_kind":"urban_area","shield_text":"99","ref":"WA 99"},"arcs":[[312],[313],[314],[315],[316],[317],[318],[319],[320],[321],[322]]},{"type":"LineString","properties":{"bus_network":null,"cycleway_left":"lane","sort_rank":380,"kind_detail":"primary","is_bicycle_related":true,"kind":"major_road","source":"openstreetmap.org","min_zoom":8.0,"bus_shield_text":"E Line","landuse_kind":"urban_area"},"arcs":[323]},{"type":"LineString","properties":{"kind":"major_road","cycleway_left":"lane","sort_rank":380,"kind_detail":"primary","is_bicycle_related":true,"bus_network":null,"source":"openstreetmap.org","min_zoom":8.0,"bus_shield_text":"41","landuse_kind":"urban_area","id":263673735},"arcs":[324]},{"type":"LineString","properties":{"kind":"highway","network":"US:WA","sort_rank":383,"kind_detail":"motorway","is_bicycle_related":true,"source":"openstreetmap.org","min_zoom":8.0,"all_networks":["US:WA","US:WA"],"landuse_kind":"urban_area","shield_text":"99","ref":"WA 509","id":214922553,"all_shield_texts":["99","509"]},"arcs":[325]},{"type":"MultiLineString","properties":{"kind":"major_road","sort_rank":380,"kind_detail":"primary","is_bicycle_related":true,"cycleway":"lane","source":"openstreetmap.org","min_zoom":8.0,"landuse_kind":"urban_area","name:zh":"\u5357\u8fea\u90a6\u8857"},"arcs":[[326],[327],[328]]},{"type":"MultiLineString","properties":{"kind":"major_road","network":"US:WA","sort_rank":380,"kind_detail":"primary","source":"openstreetmap.org","min_zoom":8.0,"shield_text":"525","ref":"WA 525"},"arcs":[[329],[330],[331]]},{"type":"LineString","properties":{"bus_network":null,"cycleway_left":"lane","sort_rank":380,"kind_detail":"primary","old_name":"4th Street","is_bicycle_related":true,"kind":"major_road","source":"openstreetmap.org","min_zoom":8.0,"bus_shield_text":"41","landuse_kind":"urban_area"},"arcs":[332]},{"type":"MultiLineString","properties":{"source":"openstreetmap.org","kind":"major_road","sort_rank":380,"kind_detail":"primary","is_bicycle_related":true,"min_zoom":8.0,"cycleway":"lane"},"arcs":[[333],[334],[335],[336],[337],[338],[339],[340],[341],[342],[343],[344]]},{"type":"LineString","properties":{"kind":"major_road","network":"US:WA","sort_rank":380,"kind_detail":"primary","source":"openstreetmap.org","min_zoom":8.0,"shield_text":"161","ref":"WA 167"},"arcs":[345]},{"type":"LineString","properties":{"source":"openstreetmap.org","kind":"highway","ref":"US 2","sort_rank":383,"kind_detail":"motorway","is_bicycle_related":true,"min_zoom":8.0},"arcs":[346]},{"type":"MultiLineString","properties":{"kind":"major_road","network":"US:WA","sort_rank":381,"landuse_kind":"urban_area","source":"openstreetmap.org","min_zoom":8.0,"kind_detail":"trunk","shield_text":"516","ref":"WA 516"},"arcs":[[347],[348],[349],[350],[351]]},{"type":"MultiLineString","properties":{"kind":"highway","network":"US:WA","sort_rank":383,"landuse_kind":"urban_area","source":"openstreetmap.org","min_zoom":8.0,"all_networks":["US:WA"],"kind_detail":"motorway","shield_text":"525","ref":"WA 525","all_shield_texts":["525"]},"arcs":[[352],[353],[354],[355]]},{"type":"MultiLineString","properties":{"kind":"major_road","network":"US:WA","sort_rank":381,"kind_detail":"trunk","is_bicycle_related":true,"cycleway":"lane","source":"openstreetmap.org","min_zoom":8.0,"shield_text":"9","ref":"WA 9"},"arcs":[[356],[357]]},{"type":"MultiLineString","properties":{"kind":"highway","network":"US:WA","sort_rank":383,"kind_detail":"motorway","source":"openstreetmap.org","min_zoom":8.0,"all_networks":["US:WA"],"shield_text":"520","ref":"WA 520","all_shield_texts":["520"]},"arcs":[[358],[359],[360]]},{"type":"MultiLineString","properties":{"bus_network":null,"sort_rank":380,"kind_detail":"primary","is_bicycle_related":true,"kind":"major_road","source":"openstreetmap.org","min_zoom":8.0,"bus_shield_text":"Swift","landuse_kind":"urban_area","ref":"WA 99"},"arcs":[[361],[362],[363],[364]]},{"type":"LineString","properties":{"kind":"major_road","network":"US:WA","sort_rank":380,"kind_detail":"primary","source":"openstreetmap.org","min_zoom":8.0,"shield_text":"202","ref":"WA 203","id":100332028},"arcs":[365]},{"type":"LineString","properties":{"source":"openstreetmap.org","kind":"ferry","name":"Winslow-Seattle","sort_rank":355,"min_zoom":8.0,"osm_relation":true,"id":-5516449},"arcs":[366]},{"type":"MultiLineString","properties":{"bus_network":null,"network":"US:WA","sort_rank":380,"kind_detail":"primary","kind":"major_road","source":"openstreetmap.org","min_zoom":8.0,"bus_shield_text":"A Line","shield_text":"99","landuse_kind":"aerodrome","ref":"WA 99"},"arcs":[[367],[368]]},{"type":"LineString","properties":{"kind":"major_road","network":"US:WA","sort_rank":380,"kind_detail":"primary","source":"openstreetmap.org","min_zoom":8.0,"landuse_kind":"urban_area","shield_text":"169","ref":"WA 169;WA 900"},"arcs":[369]},{"type":"LineString","properties":{"kind":"major_road","network":"US:WA","sort_rank":380,"kind_detail":"primary","bus_network":"Everett Transit","source":"openstreetmap.org","min_zoom":8.0,"bus_shield_text":"7 South","shield_text":"99","landuse_kind":"urban_area","ref":"WA 99","id":368212457},"arcs":[370]},{"type":"MultiLineString","properties":{"kind":"highway","network":"US:WA","sort_rank":383,"landuse_kind":"urban_area","source":"openstreetmap.org","min_zoom":8.0,"all_networks":["US:WA"],"kind_detail":"motorway","shield_text":"18","ref":"WA 18","all_shield_texts":["18"]},"arcs":[[371],[372],[373],[374],[375],[376],[377]]},{"type":"LineString","properties":{"kind":"highway","sort_rank":383,"kind_detail":"motorway","is_bicycle_related":true,"source":"openstreetmap.org","min_zoom":8.0,"landuse_kind":"urban_area","ref":"US 2"},"arcs":[378]},{"type":"MultiLineString","properties":{"cycleway_right":"lane","network":"US:WA","sort_rank":380,"kind_detail":"primary","is_bicycle_related":true,"kind":"major_road","source":"openstreetmap.org","min_zoom":8.0,"shield_text":"516","ref":"WA 516"},"arcs":[[379],[380]]},{"type":"MultiLineString","properties":{"bus_network":null,"network":"US:WA","sort_rank":380,"kind_detail":"primary","kind":"major_road","source":"openstreetmap.org","min_zoom":8.0,"bus_shield_text":"75","shield_text":"513","landuse_kind":"urban_area","ref":"WA 513"},"arcs":[[381],[382],[383],[384]]},{"type":"MultiLineString","properties":{"kind":"highway","network":"US:I","sort_rank":383,"landuse_kind":"urban_area","source":"openstreetmap.org","min_zoom":8.0,"all_networks":["US:I"],"kind_detail":"motorway","shield_text":"405","ref":"I 405","all_shield_texts":["405"]},"arcs":[[385],[386],[387],[388],[389],[390],[391],[392],[393],[394],[395],[396],[397],[398],[399],[400]]},{"type":"LineString","properties":{"kind":"major_road","network":"US:WA","sort_rank":380,"kind_detail":"primary","is_bicycle_related":true,"cycleway":"shared_lane","source":"openstreetmap.org","min_zoom":8.0,"landuse_kind":"urban_area","shield_text":"519","ref":"WA 519"},"arcs":[401]},{"type":"MultiLineString","properties":{"bus_network":null,"sort_rank":380,"kind_detail":"primary","kind":"major_road","source":"openstreetmap.org","min_zoom":8.0,"bus_shield_text":"D Line","landuse_kind":"urban_area"},"arcs":[[402],[403]]},{"type":"MultiLineString","properties":{"kind":"major_road","network":"US:WA","sort_rank":380,"kind_detail":"primary","source":"openstreetmap.org","min_zoom":8.0,"shield_text":"169","ref":"WA 169"},"arcs":[[404],[405]]},{"type":"MultiLineString","properties":{"kind":"major_road","network":"US:WA","sort_rank":380,"kind_detail":"primary","source":"openstreetmap.org","min_zoom":8.0,"shield_text":"523","ref":"WA 523"},"arcs":[[406],[407],[408]]},{"type":"LineString","properties":{"kind":"major_road","network":"US:WA","sort_rank":380,"kind_detail":"primary","bus_network":"Everett Transit","source":"openstreetmap.org","min_zoom":8.0,"bus_shield_text":"70 East","shield_text":"526","landuse_kind":"aerodrome","ref":"WA 526","id":175342008},"arcs":[409]},{"type":"MultiLineString","properties":{"kind":"highway","network":"US:I","sort_rank":383,"kind_detail":"motorway","source":"openstreetmap.org","min_zoom":8.0,"all_networks":["US:I"],"landuse_kind":"urban_area","shield_text":"5","ref":"I 5","all_shield_texts":["5"]},"arcs":[[410],[411],[412],[413],[414],[415],[416],[417],[418],[419],[420],[421],[422],[423],[424],[425],[426],[427],[428],[429],[430],[431],[432],[433],[434],[435],[436],[437],[438],[439],[440]]},{"type":"LineString","properties":{"bus_network":null,"sort_rank":380,"kind_detail":"primary","kind":"major_road","source":"openstreetmap.org","min_zoom":8.0,"bus_shield_text":"372","landuse_kind":"urban_area"},"arcs":[441]},{"type":"LineString","properties":{"cycleway_right":"lane","sort_rank":380,"kind_detail":"primary","is_bicycle_related":true,"kind":"major_road","cycleway":"lane","source":"openstreetmap.org","min_zoom":8.0,"landuse_kind":"urban_area"},"arcs":[442]},{"type":"MultiLineString","properties":{"kind":"major_road","network":"US:WA","sort_rank":380,"kind_detail":"primary","is_bicycle_related":true,"cycleway":"lane","source":"openstreetmap.org","min_zoom":8.0,"landuse_kind":"aerodrome","shield_text":"525","ref":"WA 525"},"arcs":[[443],[444]]},{"type":"MultiLineString","properties":{"source":"openstreetmap.org","kind":"major_road","network":"US:WA","sort_rank":380,"kind_detail":"primary","min_zoom":8.0,"shield_text":"169"},"arcs":[[445],[446]]},{"type":"LineString","properties":{"bus_network":null,"network":"US:WA","sort_rank":380,"kind_detail":"primary","kind":"major_road","source":"openstreetmap.org","min_zoom":8.0,"bus_shield_text":"62","shield_text":"513","ref":"WA 513"},"arcs":[447]},{"type":"MultiLineString","properties":{"kind":"major_road","network":"US:WA","sort_rank":380,"kind_detail":"primary","is_bicycle_related":true,"cycleway":"lane","source":"openstreetmap.org","min_zoom":8.0,"shield_text":"204","ref":"WA 204"},"arcs":[[448],[449],[450],[451],[452]]},{"type":"MultiLineString","properties":{"bus_network":null,"network":"US:WA","sort_rank":380,"kind_detail":"primary","kind":"major_road","source":"openstreetmap.org","min_zoom":8.0,"bus_shield_text":"43","shield_text":"513","landuse_kind":"urban_area","ref":"WA 513"},"arcs":[[453],[454],[455],[456]]},{"type":"MultiLineString","properties":{"kind":"highway","network":"US:I","sort_rank":383,"kind_detail":"motorway","is_bicycle_related":true,"source":"openstreetmap.org","min_zoom":8.0,"all_networks":["US:I"],"landuse_kind":"park","shield_text":"90","ref":"I 90","all_shield_texts":["90"]},"arcs":[[457],[458]]},{"type":"MultiLineString","properties":{"source":"openstreetmap.org","kind":"major_road","landuse_kind":"aerodrome","sort_rank":380,"kind_detail":"primary","min_zoom":8.0},"arcs":[[459],[460],[461],[462]]},{"type":"LineString","properties":{"source":"openstreetmap.org","kind":"ferry","name":"Seattle-Winslow","sort_rank":355,"min_zoom":8.0,"osm_relation":true,"id":-5516446},"arcs":[463]},{"type":"LineString","properties":{"kind":"major_road","network":"US:WA","sort_rank":380,"kind_detail":"primary","source":"openstreetmap.org","min_zoom":8.0,"landuse_kind":"urban_area","shield_text":"169","ref":"WA 169"},"arcs":[464]},{"type":"MultiLineString","properties":{"kind":"major_road","sort_rank":380,"kind_detail":"primary","is_bicycle_related":true,"bicycle_shield_text":null,"bicycle_network":"rcn","source":"openstreetmap.org","min_zoom":8.0},"arcs":[[465],[466]]},{"type":"LineString","properties":{"kind":"highway","network":"US:WA","sort_rank":383,"kind_detail":"motorway","is_bicycle_related":true,"source":"openstreetmap.org","min_zoom":8.0,"all_networks":["US:WA","US:WA"],"shield_text":"161","ref":"WA 167","id":23689386,"all_shield_texts":["161","167"]},"arcs":[467]},{"type":"LineString","properties":{"kind":"major_road","network":"US:WA","sort_rank":380,"kind_detail":"primary","bus_network":"Everett Transit","source":"openstreetmap.org","min_zoom":8.0,"bus_shield_text":"18 West","shield_text":"525","ref":"WA 525","id":340026717},"arcs":[468]},{"type":"MultiLineString","properties":{"kind":"highway","network":"US:WA","sort_rank":383,"landuse_kind":"urban_area","is_bicycle_related":true,"source":"openstreetmap.org","min_zoom":8.0,"all_networks":["US:WA"],"kind_detail":"motorway","shield_text":"18","ref":"WA 18","all_shield_texts":["18"]},"arcs":[[469],[470]]},{"type":"LineString","properties":{"source":"openstreetmap.org","bus_network":null,"bus_shield_text":"373","sort_rank":380,"kind_detail":"primary","min_zoom":8.0,"kind":"major_road"},"arcs":[471]},{"type":"LineString","properties":{"bus_network":null,"network":"US:WA","sort_rank":380,"kind_detail":"primary","kind":"major_road","source":"openstreetmap.org","min_zoom":8.0,"bus_shield_text":"F Line","shield_text":"900","landuse_kind":"urban_area","ref":"WA 900"},"arcs":[472]},{"type":"MultiLineString","properties":{"kind":"major_road","network":"US:WA","sort_rank":380,"kind_detail":"primary","source":"openstreetmap.org","min_zoom":8.0,"landuse_kind":"urban_area","shield_text":"519","ref":"WA 519"},"arcs":[[473],[474],[475],[476]]},{"type":"MultiLineString","properties":{"kind":"major_road","network":"US:WA","sort_rank":380,"kind_detail":"primary","source":"openstreetmap.org","min_zoom":8.0,"shield_text":"524","ref":"WA 524"},"arcs":[[477],[478],[479],[480]]},{"type":"MultiLineString","properties":{"kind":"major_road","network":"US:WA","sort_rank":380,"kind_detail":"primary","source":"openstreetmap.org","min_zoom":8.0,"shield_text":"900","ref":"WA 900"},"arcs":[[481],[482],[483]]},{"type":"LineString","properties":{"kind":"major_road","network":"US:WA","sort_rank":380,"kind_detail":"primary","bus_network":null,"source":"openstreetmap.org","min_zoom":8.0,"bus_shield_text":"A Line","shield_text":"509","landuse_kind":"urban_area","ref":"WA 99;WA 509","id":428273472},"arcs":[484]},{"type":"LineString","properties":{"bus_network":null,"network":"US:WA","sort_rank":380,"kind_detail":"primary","is_bicycle_related":true,"kind":"major_road","cycleway":"lane","source":"openstreetmap.org","min_zoom":8.0,"bus_shield_text":"221","shield_text":"202","ref":"WA 202"},"arcs":[485]},{"type":"LineString","properties":{"source":"openstreetmap.org","bus_network":"King County Metro","bus_shield_text":"106","sort_rank":380,"kind_detail":"primary","min_zoom":8.0,"kind":"major_road"},"arcs":[486]},{"type":"LineString","properties":{"source":"openstreetmap.org","kind":"highway","landuse_kind":"urban_area","sort_rank":383,"kind_detail":"motorway","ref":"I 405","min_zoom":8.0},"arcs":[487]},{"type":"MultiLineString","properties":{"kind":"major_road","network":"US:WA","sort_rank":380,"kind_detail":"primary","source":"openstreetmap.org","min_zoom":8.0,"landuse_kind":"urban_area","shield_text":"167","ref":"WA 167"},"arcs":[[488],[489],[490]]},{"type":"LineString","properties":{"kind":"ferry","name":"Bremerton-Seattle","sort_rank":355,"landuse_kind":"urban_area","source":"openstreetmap.org","min_zoom":8.0,"id":-5516442,"osm_relation":true},"arcs":[491]},{"type":"MultiLineString","properties":{"source":"openstreetmap.org","kind":"major_road","sort_rank":380,"kind_detail":"primary","is_bicycle_related":true,"min_zoom":8.0},"arcs":[[492],[493],[494]]},{"type":"MultiLineString","properties":{"kind":"highway","network":"US:I","sort_rank":383,"landuse_kind":"urban_area","source":"openstreetmap.org","min_zoom":8.0,"all_networks":["US:I"],"kind_detail":"motorway","shield_text":"90","ref":"I 90","all_shield_texts":["90"]},"arcs":[[495],[496],[497],[498],[499],[500]]},{"type":"MultiLineString","properties":{"kind":"major_road","sort_rank":380,"kind_detail":"primary","is_bicycle_related":true,"cycleway":"shared_lane","source":"openstreetmap.org","min_zoom":8.0,"landuse_kind":"urban_area"},"arcs":[[501],[502],[503]]},{"type":"LineString","properties":{"bus_network":null,"network":"US:WA","sort_rank":381,"kind_detail":"trunk","kind":"major_road","source":"openstreetmap.org","min_zoom":8.0,"bus_shield_text":"E Line","shield_text":"99","landuse_kind":"urban_area","ref":"WA 99"},"arcs":[504]},{"type":"MultiLineString","properties":{"source":"openstreetmap.org","kind":"major_road","landuse_kind":"urban_area","sort_rank":380,"kind_detail":"primary","ref":"WA 304;WA 305","min_zoom":8.0},"arcs":[[505],[506]]},{"type":"MultiLineString","properties":{"kind":"major_road","network":"US:WA","sort_rank":380,"kind_detail":"primary","source":"openstreetmap.org","min_zoom":8.0,"landuse_kind":"urban_area","shield_text":"104","ref":"WA 104"},"arcs":[[507],[508],[509],[510],[511],[512],[513],[514],[515],[516]]},{"type":"MultiLineString","properties":{"kind":"major_road","network":"US:WA","sort_rank":380,"kind_detail":"primary","reg_name":"State Route 181","source":"openstreetmap.org","min_zoom":8.0,"landuse_kind":"urban_area","shield_text":"181","ref":"WA 181"},"arcs":[[517],[518]]},{"type":"LineString","properties":{"bus_network":"Everett Transit","sort_rank":380,"kind_detail":"primary","kind":"major_road","source":"openstreetmap.org","min_zoom":8.0,"bus_shield_text":"7 North","landuse_kind":"urban_area"},"arcs":[519]},{"type":"MultiLineString","properties":{"kind":"highway","network":"US:WA","sort_rank":383,"kind_detail":"motorway","is_bicycle_related":true,"source":"openstreetmap.org","min_zoom":8.0,"all_networks":["US:WA"],"shield_text":"512","ref":"WA 512","all_shield_texts":["512"]},"arcs":[[520],[521]]},{"type":"LineString","properties":{"kind":"ferry","name":"West Seattle Water Taxi","sort_rank":355,"landuse_kind":"urban_area","source":"openstreetmap.org","min_zoom":8.0,"id":-4744203,"osm_relation":true},"arcs":[522]},{"type":"MultiLineString","properties":{"kind":"highway","network":"US:WA","sort_rank":383,"kind_detail":"motorway","is_bicycle_related":true,"source":"openstreetmap.org","min_zoom":8.0,"all_networks":["US:WA"],"shield_text":"18","ref":"WA 18","all_shield_texts":["18"]},"arcs":[[523],[524],[525],[526],[527],[528],[529],[530],[531],[532]]},{"type":"MultiLineString","properties":{"kind":"major_road","network":"US:WA","sort_rank":380,"kind_detail":"primary","source":"openstreetmap.org","min_zoom":8.0,"shield_text":"203","ref":"WA 203"},"arcs":[[533],[534],[535],[536],[537],[538],[539],[540],[541],[542]]},{"type":"MultiLineString","properties":{"kind":"major_road","network":"US:WA","sort_rank":381,"kind_detail":"trunk","source":"openstreetmap.org","min_zoom":8.0,"shield_text":"9","ref":"WA 9"},"arcs":[[543],[544]]},{"type":"MultiLineString","properties":{"kind":"major_road","network":"US:WA","sort_rank":380,"kind_detail":"primary","reg_name":"State Route 169","source":"openstreetmap.org","min_zoom":8.0,"landuse_kind":"urban_area","shield_text":"169","ref":"WA 169"},"arcs":[[545],[546],[547]]},{"type":"LineString","properties":{"cycleway_right":"shared_lane","sort_rank":380,"kind_detail":"primary","is_bicycle_related":true,"kind":"major_road","bus_network":null,"source":"openstreetmap.org","min_zoom":8.0,"bus_shield_text":"41","landuse_kind":"urban_area","id":500805371},"arcs":[548]},{"type":"MultiLineString","properties":{"bus_network":null,"sort_rank":380,"kind_detail":"primary","kind":"major_road","source":"openstreetmap.org","min_zoom":8.0,"bus_shield_text":"9","landuse_kind":"urban_area"},"arcs":[[549],[550],[551]]},{"type":"LineString","properties":{"kind":"major_road","network":"US:WA","sort_rank":380,"kind_detail":"primary","is_bicycle_related":true,"cycleway":"lane","source":"openstreetmap.org","min_zoom":8.0,"shield_text":"516","ref":"WA 516"},"arcs":[552]},{"type":"MultiLineString","properties":{"kind":"major_road","network":"US:WA","sort_rank":380,"kind_detail":"primary","is_bicycle_related":true,"cycleway":"lane","source":"openstreetmap.org","min_zoom":8.0,"landuse_kind":"urban_area","shield_text":"527","ref":"WA 527"},"arcs":[[553],[554],[555],[556],[557],[558],[559],[560],[561],[562],[563],[564],[565],[566],[567]]},{"type":"MultiLineString","properties":{"kind":"highway","network":"US:WA","sort_rank":383,"kind_detail":"motorway","source":"openstreetmap.org","min_zoom":8.0,"all_networks":["US:WA"],"landuse_kind":"urban_area","shield_text":"520","ref":"WA 520","all_shield_texts":["520"]},"arcs":[[568],[569],[570],[571],[572],[573]]},{"type":"MultiLineString","properties":{"kind":"major_road","network":"US:WA","sort_rank":380,"kind_detail":"primary","source":"openstreetmap.org","min_zoom":8.0,"shield_text":"9","ref":"WA 9"},"arcs":[[574],[575],[576],[577]]},{"type":"LineString","properties":{"bus_network":null,"sort_rank":380,"kind_detail":"primary","kind":"major_road","source":"openstreetmap.org","min_zoom":8.0,"bus_shield_text":"221","landuse_kind":"urban_area"},"arcs":[578]},{"type":"LineString","properties":{"kind":"ferry","name":"Seattle-Winslow","sort_rank":355,"landuse_kind":"urban_area","source":"openstreetmap.org","min_zoom":8.0,"id":-5516446,"osm_relation":true},"arcs":[579]},{"type":"MultiLineString","properties":{"kind":"highway","network":"US:WA","sort_rank":383,"landuse_kind":"urban_area","is_bicycle_related":true,"source":"openstreetmap.org","min_zoom":8.0,"all_networks":["US:WA"],"kind_detail":"motorway","shield_text":"410","ref":"WA 410","all_shield_texts":["410"]},"arcs":[[580],[581]]},{"type":"LineString","properties":{"bus_network":"Everett Transit","network":"US:WA","sort_rank":380,"kind_detail":"primary","kind":"major_road","source":"openstreetmap.org","min_zoom":8.0,"bus_shield_text":"29 South","shield_text":"527","landuse_kind":"urban_area","ref":"WA 527"},"arcs":[582]},{"type":"LineString","properties":{"kind":"major_road","sort_rank":380,"kind_detail":"primary","is_bicycle_related":true,"bicycle_shield_text":null,"cycleway":"lane","source":"openstreetmap.org","min_zoom":8.0,"landuse_kind":"urban_area","bicycle_network":"Kent Valley Loop Trails"},"arcs":[583]},{"type":"MultiLineString","properties":{"kind":"major_road","network":"US:WA","sort_rank":380,"kind_detail":"primary","is_bicycle_related":true,"cycleway":"lane","source":"openstreetmap.org","min_zoom":8.0,"landuse_kind":"urban_area","shield_text":"202","ref":"WA 202"},"arcs":[[584],[585],[586],[587],[588]]},{"type":"LineString","properties":{"kind":"major_road","network":"US:WA","sort_rank":380,"kind_detail":"primary","is_bicycle_related":true,"cycleway":"lane","source":"openstreetmap.org","min_zoom":8.0,"shield_text":"96","ref":"WA 96"},"arcs":[589]},{"type":"LineString","properties":{"kind":"major_road","sort_rank":380,"kind_detail":"primary","is_bicycle_related":true,"bicycle_shield_text":null,"bicycle_network":"rcn","source":"openstreetmap.org","min_zoom":8.0,"cycleway":"lane"},"arcs":[590]},{"type":"MultiLineString","properties":{"source":"openstreetmap.org","kind":"highway","landuse_kind":"urban_area","sort_rank":383,"kind_detail":"motorway","min_zoom":8.0},"arcs":[[591],[592],[593],[594],[595],[596],[597],[598],[599],[600]]},{"type":"LineString","properties":{"cycleway_right":"track","network":"US:WA","sort_rank":380,"kind_detail":"primary","is_bicycle_related":true,"kind":"major_road","source":"openstreetmap.org","min_zoom":8.0,"landuse_kind":"urban_area","shield_text":"96","ref":"WA 96"},"arcs":[601]},{"type":"MultiLineString","properties":{"bus_network":null,"sort_rank":380,"kind_detail":"primary","is_bicycle_related":true,"kind":"major_road","cycleway":"shared_lane","source":"openstreetmap.org","min_zoom":8.0,"bus_shield_text":"41","landuse_kind":"urban_area"},"arcs":[[602],[603],[604]]},{"type":"MultiLineString","properties":{"kind":"major_road","network":"US:WA","sort_rank":380,"kind_detail":"primary","source":"openstreetmap.org","min_zoom":8.0,"landuse_kind":"urban_area","shield_text":"525","ref":"WA 525"},"arcs":[[605],[606],[607]]},{"type":"LineString","properties":{"kind":"highway","network":"US:WA","sort_rank":383,"kind_detail":"motorway","source":"openstreetmap.org","min_zoom":8.0,"all_networks":["US:WA"],"shield_text":"520","id":540527769,"all_shield_texts":["520"]},"arcs":[608]},{"type":"MultiLineString","properties":{"kind":"highway","network":"US:WA","sort_rank":383,"landuse_kind":"urban_area","is_bicycle_related":true,"source":"openstreetmap.org","min_zoom":8.0,"all_networks":["US:WA"],"kind_detail":"motorway","shield_text":"520","ref":"WA 520","all_shield_texts":["520"]},"arcs":[[609],[610],[611],[612],[613],[614],[615],[616],[617],[618],[619],[620]]},{"type":"MultiLineString","properties":{"cycleway_right":"track","cycleway_left":"shared_lane","sort_rank":380,"kind_detail":"primary","is_bicycle_related":true,"kind":"major_road","source":"openstreetmap.org","min_zoom":8.0},"arcs":[[621],[622],[623],[624]]},{"type":"LineString","properties":{"bus_network":null,"sort_rank":380,"kind_detail":"primary","kind":"major_road","source":"openstreetmap.org","min_zoom":8.0,"bus_shield_text":"40","landuse_kind":"urban_area"},"arcs":[625]},{"type":"LineString","properties":{"bus_network":null,"sort_rank":380,"kind_detail":"primary","kind":"major_road","source":"openstreetmap.org","min_zoom":8.0,"bus_shield_text":"106","landuse_kind":"urban_area"},"arcs":[626]},{"type":"LineString","properties":{"bus_network":null,"network":"US:WA","sort_rank":380,"kind_detail":"primary","kind":"major_road","source":"openstreetmap.org","min_zoom":8.0,"bus_shield_text":"44","shield_text":"513","landuse_kind":"urban_area","ref":"WA 513"},"arcs":[627]},{"type":"LineString","properties":{"kind":"major_road","network":"US:US","sort_rank":381,"kind_detail":"trunk","source":"openstreetmap.org","min_zoom":8.0,"shield_text":"2","ref":"US 2"},"arcs":[628]},{"type":"MultiLineString","properties":{"kind":"major_road","network":"US:WA:Spur","sort_rank":380,"kind_detail":"primary","source":"openstreetmap.org","min_zoom":8.0,"landuse_kind":"urban_area","shield_text":"525","ref":"WA 525 Spur"},"arcs":[[629],[630],[631],[632]]},{"type":"MultiLineString","properties":{"bus_network":null,"network":"US:WA","sort_rank":380,"kind_detail":"primary","kind":"major_road","source":"openstreetmap.org","min_zoom":8.0,"bus_shield_text":"372","shield_text":"522","ref":"WA 522"},"arcs":[[633],[634],[635],[636],[637],[638],[639],[640],[641],[642],[643],[644],[645],[646],[647],[648],[649]]},{"type":"MultiLineString","properties":{"kind":"major_road","network":"US:WA","sort_rank":380,"kind_detail":"primary","is_bicycle_related":true,"cycleway":"lane","source":"openstreetmap.org","min_zoom":8.0,"landuse_kind":"urban_area","shield_text":"525","ref":"WA 525"},"arcs":[[650],[651],[652],[653]]},{"type":"LineString","properties":{"kind":"major_road","sort_rank":380,"kind_detail":"primary","is_bicycle_related":true,"cycleway":"lane","source":"openstreetmap.org","min_zoom":8.0,"landuse_kind":"aerodrome"},"arcs":[654]},{"type":"LineString","properties":{"bus_network":"Everett Transit","network":"US:WA","sort_rank":380,"kind_detail":"primary","kind":"major_road","source":"openstreetmap.org","min_zoom":8.0,"bus_shield_text":"29 North","shield_text":"527","landuse_kind":"urban_area","ref":"WA 527"},"arcs":[655]},{"type":"MultiLineString","properties":{"kind":"highway","network":"US:I","sort_rank":383,"kind_detail":"motorway","is_bicycle_related":true,"source":"openstreetmap.org","min_zoom":8.0,"all_networks":["US:I"],"shield_text":"90","ref":"I 90","all_shield_texts":["90"]},"arcs":[[656],[657],[658],[659],[660],[661],[662],[663],[664],[665],[666],[667],[668],[669],[670],[671],[672],[673],[674],[675]]},{"type":"LineString","properties":{"kind":"major_road","network":"US:WA","sort_rank":380,"kind_detail":"primary","source":"openstreetmap.org","min_zoom":8.0,"landuse_kind":"urban_area","shield_text":"524"},"arcs":[676]},{"type":"MultiLineString","properties":{"kind":"major_road","network":"US:WA","sort_rank":381,"kind_detail":"trunk","source":"openstreetmap.org","min_zoom":8.0,"shield_text":"18","ref":"WA 18"},"arcs":[[677],[678],[679],[680],[681],[682],[683],[684]]},{"type":"LineString","properties":{"kind":"major_road","sort_rank":380,"kind_detail":"primary","bus_network":null,"source":"openstreetmap.org","min_zoom":8.0,"bus_shield_text":"372","id":322176132},"arcs":[685]},{"type":"MultiLineString","properties":{"source":"openstreetmap.org","kind":"major_road","kind_detail":"trunk","sort_rank":381,"landuse_kind":"urban_area","min_zoom":8.0},"arcs":[[686],[687],[688],[689],[690],[691],[692],[693],[694],[695],[696],[697],[698],[699],[700]]},{"type":"MultiLineString","properties":{"kind":"highway","network":"US:WA","sort_rank":383,"kind_detail":"motorway","source":"openstreetmap.org","min_zoom":8.0,"all_networks":["US:WA"],"shield_text":"525","ref":"WA 525","all_shield_texts":["525"]},"arcs":[[701],[702]]},{"type":"LineString","properties":{"bus_network":null,"network":"US:WA","sort_rank":380,"kind_detail":"primary","kind":"major_road","source":"openstreetmap.org","min_zoom":8.0,"bus_shield_text":"45","shield_text":"513","landuse_kind":"urban_area","ref":"WA 513"},"arcs":[703]},{"type":"LineString","properties":{"kind":"highway","network":"US:US","sort_rank":383,"kind_detail":"motorway","is_bicycle_related":true,"source":"openstreetmap.org","min_zoom":8.0,"all_networks":["US:US"],"shield_text":"2","id":257006603,"all_shield_texts":["2"]},"arcs":[704]},{"type":"MultiLineString","properties":{"source":"openstreetmap.org","kind":"major_road","kind_detail":"trunk","sort_rank":381,"landuse_kind":"urban_area","ref":"WA 516","min_zoom":8.0},"arcs":[[705],[706]]},{"type":"LineString","properties":{"kind":"ferry","name":"Vashon Island Water Taxi","sort_rank":355,"is_bicycle_related":true,"source":"openstreetmap.org","min_zoom":8.0,"ref":"WA 339","id":242893990},"arcs":[707]},{"type":"MultiLineString","properties":{"kind":"highway","network":"US:WA","sort_rank":383,"landuse_kind":"urban_area","is_bicycle_related":true,"source":"openstreetmap.org","min_zoom":8.0,"all_networks":["US:WA"],"kind_detail":"motorway","shield_text":"526","ref":"WA 526","all_shield_texts":["526"]},"arcs":[[708],[709],[710],[711],[712],[713]]},{"type":"LineString","properties":{"source":"openstreetmap.org","kind":"ferry","name":"West Seattle Water Taxi","sort_rank":355,"min_zoom":8.0,"osm_relation":true,"id":-4744203},"arcs":[714]},{"type":"MultiLineString","properties":{"kind":"major_road","sort_rank":380,"kind_detail":"primary","is_bicycle_related":true,"cycleway":"lane","source":"openstreetmap.org","min_zoom":8.0,"landuse_kind":"urban_area"},"arcs":[[715],[716],[717],[718],[719],[720],[721]]},{"type":"MultiLineString","properties":{"kind":"highway","network":"US:WA","sort_rank":383,"kind_detail":"motorway","is_bicycle_related":true,"source":"openstreetmap.org","min_zoom":8.0,"all_networks":["US:WA"],"shield_text":"410","ref":"WA 410","all_shield_texts":["410"]},"arcs":[[722],[723],[724],[725],[726],[727]]},{"type":"LineString","properties":{"bus_network":"Everett Transit","network":"US:WA","sort_rank":380,"kind_detail":"primary","kind":"major_road","source":"openstreetmap.org","min_zoom":8.0,"bus_shield_text":"18 East","shield_text":"525","ref":"WA 525"},"arcs":[728]},{"type":"LineString","properties":{"kind":"major_road","network":"US:WA","sort_rank":380,"landuse_kind":"urban_area","is_bicycle_related":true,"cycleway":"lane","source":"openstreetmap.org","min_zoom":8.0,"kind_detail":"primary","shield_text":"96","ref":"WA 96"},"arcs":[729]},{"type":"LineString","properties":{"sort_rank":383,"kind_detail":"motorway","min_zoom":8.0,"kind":"highway","source":"openstreetmap.org"},"arcs":[730]},{"type":"LineString","properties":{"kind":"major_road","sort_rank":380,"landuse_kind":"urban_area","source":"openstreetmap.org","min_zoom":8.0,"kind_detail":"primary","ref":"WA 513","id":532912270},"arcs":[731]},{"type":"LineString","properties":{"kind":"major_road","sort_rank":380,"kind_detail":"primary","is_bicycle_related":true,"bus_network":null,"cycleway":"track","source":"openstreetmap.org","min_zoom":8.0,"bus_shield_text":"373","id":61014556},"arcs":[732]},{"type":"LineString","properties":{"kind":"highway","sort_rank":383,"landuse_kind":"urban_area","source":"openstreetmap.org","min_zoom":8.0,"kind_detail":"motorway","ref":"WA 526","id":323754146},"arcs":[733]},{"type":"LineString","properties":{"bus_network":null,"sort_rank":380,"kind_detail":"primary","is_bicycle_related":true,"kind":"major_road","cycleway":"shared_lane","source":"openstreetmap.org","min_zoom":8.0,"bus_shield_text":"1","landuse_kind":"urban_area","name:zh":"\u5357\u7a4d\u81e3\u8857"},"arcs":[734]},{"type":"LineString","properties":{"bus_network":null,"network":"US:WA","sort_rank":380,"kind_detail":"primary","kind":"major_road","source":"openstreetmap.org","min_zoom":8.0,"bus_shield_text":"F Line","shield_text":"167","landuse_kind":"urban_area","ref":"WA 167"},"arcs":[735]},{"type":"LineString","properties":{"kind":"ferry","name":"Winslow-Seattle","sort_rank":355,"landuse_kind":"urban_area","source":"openstreetmap.org","min_zoom":8.0,"id":-5516449,"osm_relation":true},"arcs":[736]},{"type":"MultiLineString","properties":{"source":"openstreetmap.org","kind":"major_road","network":"US:WA","sort_rank":380,"kind_detail":"primary","min_zoom":8.0,"shield_text":"202"},"arcs":[[737],[738],[739],[740]]},{"type":"LineString","properties":{"source":"openstreetmap.org","bus_network":null,"bus_shield_text":"64","sort_rank":380,"kind_detail":"primary","min_zoom":8.0,"kind":"major_road"},"arcs":[741]},{"type":"MultiLineString","properties":{"kind":"highway","network":"US:I","sort_rank":383,"kind_detail":"motorway","source":"openstreetmap.org","min_zoom":8.0,"all_networks":["US:I"],"shield_text":"5","ref":"I 5 Express","all_shield_texts":["5"]},"arcs":[[742],[743],[744]]},{"type":"LineString","properties":{"kind":"ferry","network":"US:WA","sort_rank":355,"source":"openstreetmap.org","min_zoom":8.0,"all_networks":["US:WA"],"all_shield_texts":["339"],"shield_text":"339","id":-2855411,"osm_relation":true,"name":"WA 339"},"arcs":[745]},{"type":"MultiLineString","properties":{"kind":"highway","network":"US:WA","sort_rank":383,"landuse_kind":"urban_area","is_bicycle_related":true,"source":"openstreetmap.org","min_zoom":8.0,"all_networks":["US:WA"],"kind_detail":"motorway","shield_text":"599","ref":"WA 599","all_shield_texts":["599"]},"arcs":[[746],[747],[748],[749],[750],[751]]},{"type":"MultiLineString","properties":{"bus_network":null,"network":"US:WA","sort_rank":380,"kind_detail":"primary","kind":"major_road","source":"openstreetmap.org","min_zoom":8.0,"bus_shield_text":"A Line","shield_text":"99","landuse_kind":"urban_area","ref":"WA 99"},"arcs":[[752],[753],[754],[755],[756],[757],[758],[759],[760],[761],[762],[763],[764],[765],[766],[767]]},{"type":"MultiLineString","properties":{"kind":"major_road","network":"US:WA","sort_rank":380,"kind_detail":"primary","is_bicycle_related":true,"cycleway":"lane","source":"openstreetmap.org","min_zoom":8.0,"shield_text":"527","ref":"WA 527"},"arcs":[[768],[769],[770],[771],[772],[773]]},{"type":"LineString","properties":{"kind":"major_road","network":"US:WA","sort_rank":380,"kind_detail":"primary","is_bicycle_related":true,"cycleway":"lane","source":"openstreetmap.org","min_zoom":8.0,"landuse_kind":"urban_area","shield_text":"527","id":170299118},"arcs":[774]},{"type":"LineString","properties":{"source":"openstreetmap.org","kind":"major_road","landuse_kind":"urban_area","sort_rank":380,"kind_detail":"primary","ref":"WA 99","min_zoom":8.0},"arcs":[775]},{"type":"LineString","properties":{"kind":"major_road","network":"US:WA","sort_rank":380,"kind_detail":"primary","source":"openstreetmap.org","min_zoom":8.0,"landuse_kind":"urban_area","shield_text":"524","ref":"WA 524"},"arcs":[776]},{"type":"MultiLineString","properties":{"kind":"major_road","network":"US:WA","sort_rank":381,"kind_detail":"trunk","source":"openstreetmap.org","min_zoom":8.0,"landuse_kind":"park","shield_text":"18","ref":"WA 18"},"arcs":[[777],[778],[779]]},{"type":"LineString","properties":{"kind":"major_road","network":"US:US","sort_rank":380,"kind_detail":"primary","is_bicycle_related":true,"source":"openstreetmap.org","min_zoom":8.0,"loc_name":"Stevens Avenue","ref":"US 2","shield_text":"2"},"arcs":[780]},{"type":"MultiLineString","properties":{"kind":"major_road","network":"US:US","sort_rank":380,"kind_detail":"primary","is_bicycle_related":true,"source":"openstreetmap.org","min_zoom":8.0,"landuse_kind":"forest","shield_text":"2","ref":"US 2"},"arcs":[[781],[782],[783],[784],[785],[786],[787],[788],[789],[790],[791],[792],[793],[794],[795],[796],[797],[798],[799]]},{"type":"MultiLineString","properties":{"bus_network":null,"sort_rank":380,"kind_detail":"primary","kind":"major_road","source":"openstreetmap.org","min_zoom":8.0,"bus_shield_text":"19","landuse_kind":"urban_area"},"arcs":[[800],[801]]},{"type":"LineString","properties":{"kind":"highway","network":"US:WA","sort_rank":383,"kind_detail":"motorway","is_bicycle_related":true,"source":"openstreetmap.org","min_zoom":8.0,"all_networks":["US:WA","US:WA"],"landuse_kind":"urban_area","shield_text":"161","ref":"WA 161; WA 167","id":124272528,"all_shield_texts":["161","167"]},"arcs":[802]},{"type":"LineString","properties":{"bus_network":"Everett Transit","sort_rank":380,"kind_detail":"primary","kind":"major_road","source":"openstreetmap.org","min_zoom":8.0,"bus_shield_text":"6 North","landuse_kind":"urban_area"},"arcs":[803]},{"type":"MultiLineString","properties":{"kind":"major_road","network":"US:WA","sort_rank":381,"kind_detail":"trunk","source":"openstreetmap.org","min_zoom":8.0,"shield_text":"522","ref":"WA 522"},"arcs":[[804],[805],[806],[807]]},{"type":"LineString","properties":{"source":"openstreetmap.org","kind":"ferry","name":"Bremerton-Seattle","sort_rank":355,"min_zoom":8.0,"osm_relation":true,"id":-5516442},"arcs":[808]},{"type":"MultiLineString","properties":{"bus_network":null,"sort_rank":380,"kind_detail":"primary","kind":"major_road","source":"openstreetmap.org","min_zoom":8.0,"bus_shield_text":"A Line","landuse_kind":"urban_area","ref":"WA 99"},"arcs":[[809],[810],[811],[812],[813]]},{"type":"LineString","properties":{"kind":"highway","network":"US:US","sort_rank":383,"landuse_kind":"urban_area","is_bicycle_related":true,"source":"openstreetmap.org","min_zoom":8.0,"all_networks":["US:US"],"kind_detail":"motorway","shield_text":"2","ref":"US 2","all_shield_texts":["2"]},"arcs":[814]},{"type":"LineString","properties":{"kind":"ferry","name":"Vashon Island Water Taxi","sort_rank":355,"landuse_kind":"urban_area","is_bicycle_related":true,"source":"openstreetmap.org","min_zoom":8.0,"ref":"WA 339","id":242893990},"arcs":[815]},{"type":"LineString","properties":{"kind":"major_road","network":"US:WA","sort_rank":380,"kind_detail":"primary","reg_name":"State Highway 96","source":"openstreetmap.org","min_zoom":8.0,"landuse_kind":"urban_area","shield_text":"96","ref":"WA 96","is_bicycle_related":true},"arcs":[816]},{"type":"MultiLineString","properties":{"kind":"major_road","network":"US:US","sort_rank":380,"kind_detail":"primary","is_bicycle_related":true,"source":"openstreetmap.org","min_zoom":8.0,"shield_text":"2","ref":"US 2"},"arcs":[[817],[818],[819],[820],[821],[822],[823],[824],[825],[826],[827],[828],[829],[830],[831],[832],[833]]},{"type":"MultiLineString","properties":{"source":"openstreetmap.org","kind":"major_road","sort_rank":380,"kind_detail":"primary","ref":"WA 516","min_zoom":8.0},"arcs":[[834],[835],[836],[837]]},{"type":"MultiLineString","properties":{"kind":"highway","network":"US:US","sort_rank":383,"kind_detail":"motorway","is_bicycle_related":true,"source":"openstreetmap.org","min_zoom":8.0,"all_networks":["US:US"],"shield_text":"2","ref":"US 2","all_shield_texts":["2"]},"arcs":[[838],[839],[840]]},{"type":"LineString","properties":{"bus_network":null,"network":"US:WA","sort_rank":380,"kind_detail":"primary","kind":"major_road","source":"openstreetmap.org","min_zoom":8.0,"bus_shield_text":"221","shield_text":"202","ref":"WA 202"},"arcs":[841]},{"type":"MultiLineString","properties":{"kind":"major_road","network":"US:WA","sort_rank":381,"kind_detail":"trunk","source":"openstreetmap.org","min_zoom":8.0,"shield_text":"410","ref":"WA 410"},"arcs":[[842],[843],[844]]},{"type":"LineString","properties":{"bus_network":"Everett Transit","network":"US:WA","sort_rank":380,"kind_detail":"primary","kind":"major_road","source":"openstreetmap.org","min_zoom":8.0,"bus_shield_text":"6 North","shield_text":"529","landuse_kind":"urban_area","ref":"WA 529"},"arcs":[845]},{"type":"MultiLineString","properties":{"bus_network":"Everett Transit","network":"US:WA","sort_rank":380,"kind_detail":"primary","is_bicycle_related":true,"kind":"major_road","cycleway":"lane","source":"openstreetmap.org","min_zoom":8.0,"bus_shield_text":"29 North LEV","shield_text":"527","landuse_kind":"urban_area","ref":"WA 527"},"arcs":[[846],[847],[848],[849],[850],[851],[852]]},{"type":"MultiLineString","properties":{"kind":"major_road","network":"US:WA","sort_rank":380,"kind_detail":"primary","source":"openstreetmap.org","min_zoom":8.0,"landuse_kind":"urban_area","shield_text":"181","ref":"WA 181"},"arcs":[[853],[854],[855],[856]]},{"type":"MultiLineString","properties":{"bus_network":"Everett Transit","network":"US:WA","sort_rank":380,"kind_detail":"primary","kind":"major_road","source":"openstreetmap.org","min_zoom":8.0,"bus_shield_text":"70 West","shield_text":"526","ref":"WA 526"},"arcs":[[857],[858]]},{"type":"LineString","properties":{"kind":"major_road","network":"US:WA","sort_rank":380,"kind_detail":"primary","source":"openstreetmap.org","min_zoom":8.0,"landuse_kind":"urban_area","shield_text":"515"},"arcs":[859]},{"type":"MultiLineString","properties":{"kind":"highway","network":"US:WA","sort_rank":383,"landuse_kind":"urban_area","is_bicycle_related":true,"source":"openstreetmap.org","min_zoom":8.0,"all_networks":["US:WA"],"kind_detail":"motorway","shield_text":"518","ref":"WA 518","all_shield_texts":["518"]},"arcs":[[860],[861]]},{"type":"LineString","properties":{"bus_network":null,"sort_rank":380,"kind_detail":"primary","is_bicycle_related":true,"cycleway_right":"track","source":"openstreetmap.org","min_zoom":8.0,"bus_shield_text":"373","kind":"major_road"},"arcs":[862]},{"type":"LineString","properties":{"source":"openstreetmap.org","kind":"major_road","sort_rank":380,"kind_detail":"primary","ref":"WA 523","min_zoom":8.0},"arcs":[863]},{"type":"MultiLineString","properties":{"source":"openstreetmap.org","kind":"major_road","sort_rank":381,"kind_detail":"trunk","ref":"WA 18","min_zoom":8.0},"arcs":[[864],[865]]},{"type":"MultiLineString","properties":{"kind":"major_road","network":"US:WA","sort_rank":380,"kind_detail":"primary","source":"openstreetmap.org","min_zoom":8.0,"shield_text":"167","ref":"WA 167"},"arcs":[[866],[867]]},{"type":"LineString","properties":{"kind":"major_road","network":"US:WA","sort_rank":380,"kind_detail":"primary","bus_network":null,"source":"openstreetmap.org","min_zoom":8.0,"bus_shield_text":"A Line","shield_text":"99","landuse_kind":"urban_area","id":402799843},"arcs":[868]},{"type":"MultiLineString","properties":{"source":"openstreetmap.org","kind":"major_road","landuse_kind":"urban_area","sort_rank":380,"kind_detail":"primary","min_zoom":8.0},"arcs":[[869],[870],[871],[872],[873],[874],[875],[876],[877],[878],[879],[880],[881],[882],[883],[884],[885],[886],[887],[888],[889],[890],[891],[892],[893],[894],[895],[896],[897],[898],[899],[900],[901],[902],[903],[904],[905],[906],[907],[908],[909],[910],[911],[912],[913],[914],[915],[916],[917],[918],[919],[920],[921],[922],[923],[924],[925],[926],[927],[928],[929],[930],[931],[932],[933],[934],[935],[936],[937],[938],[939],[940],[941],[942],[943],[944],[945],[946],[947],[948],[949],[950],[951],[952],[953],[954],[955],[956],[957],[958],[959],[960],[961],[962],[963],[964],[965],[966],[967],[968],[969]]},{"type":"LineString","properties":{"source":"openstreetmap.org","cycleway_right":"lane","sort_rank":380,"kind_detail":"primary","min_zoom":8.0,"is_bicycle_related":true,"kind":"major_road"},"arcs":[970]},{"type":"LineString","properties":{"kind":"highway","network":"US:WA","sort_rank":383,"landuse_kind":"urban_area","is_bicycle_related":true,"source":"openstreetmap.org","min_zoom":8.0,"all_networks":["US:WA","US:WA"],"kind_detail":"motorway","shield_text":"161","ref":"WA 167","all_shield_texts":["161","167"]},"arcs":[971]},{"type":"MultiLineString","properties":{"kind":"highway","network":"US:WA","sort_rank":383,"kind_detail":"motorway","source":"openstreetmap.org","min_zoom":8.0,"all_networks":["US:WA"],"landuse_kind":"urban_area","shield_text":"522","ref":"WA 522","all_shield_texts":["522"]},"arcs":[[972],[973],[974],[975]]},{"type":"LineString","properties":{"kind":"highway","network":"US:WA","sort_rank":383,"kind_detail":"motorway","is_bicycle_related":true,"source":"openstreetmap.org","min_zoom":8.0,"all_networks":["US:WA"],"landuse_kind":"urban_area","shield_text":"167","ref":"WA 161; WA 167","id":236501502,"all_shield_texts":["167"]},"arcs":[976]},{"type":"LineString","properties":{"kind":"major_road","network":"US:WA","sort_rank":380,"kind_detail":"primary","source":"openstreetmap.org","min_zoom":8.0,"landuse_kind":"urban_area","shield_text":"202","ref":"WA 202"},"arcs":[977]},{"type":"LineString","properties":{"bus_network":null,"network":"US:WA","sort_rank":380,"kind_detail":"primary","kind":"major_road","source":"openstreetmap.org","min_zoom":8.0,"bus_shield_text":"78","shield_text":"513","landuse_kind":"urban_area","ref":"WA 513"},"arcs":[978]},{"type":"LineString","properties":{"kind":"major_road","network":"US:WA","sort_rank":380,"kind_detail":"primary","is_bicycle_related":true,"cycleway":"lane","source":"openstreetmap.org","min_zoom":8.0,"shield_text":"9","ref":"WA 9"},"arcs":[979]},{"type":"MultiLineString","properties":{"kind":"highway","network":"US:WA","sort_rank":383,"landuse_kind":"urban_area","source":"openstreetmap.org","min_zoom":8.0,"all_networks":["US:WA"],"kind_detail":"motorway","shield_text":"518","ref":"WA 518","all_shield_texts":["518"]},"arcs":[[980],[981]]},{"type":"LineString","properties":{"kind":"ferry","name":"Seattle-Blake Island","sort_rank":355,"landuse_kind":"urban_area","source":"openstreetmap.org","min_zoom":8.0,"id":-4744221,"osm_relation":true},"arcs":[982]},{"type":"LineString","properties":{"kind":"ferry","name":"Seattle-Bremerton","sort_rank":355,"landuse_kind":"urban_area","source":"openstreetmap.org","min_zoom":8.0,"id":-5516445,"osm_relation":true},"arcs":[983]},{"type":"MultiLineString","properties":{"source":"openstreetmap.org","kind":"highway","sort_rank":383,"kind_detail":"motorway","ref":"I 5","min_zoom":8.0},"arcs":[[984],[985],[986],[987]]},{"type":"MultiLineString","properties":{"kind":"major_road","network":"US:WA","sort_rank":380,"kind_detail":"primary","source":"openstreetmap.org","min_zoom":8.0,"landuse_kind":"urban_area","shield_text":"304","ref":"WA 304;WA 305"},"arcs":[[988],[989]]},{"type":"MultiLineString","properties":{"kind":"highway","network":"US:WA","sort_rank":383,"landuse_kind":"urban_area","source":"openstreetmap.org","min_zoom":8.0,"all_networks":["US:WA"],"kind_detail":"motorway","shield_text":"167","ref":"WA 167","all_shield_texts":["167"]},"arcs":[[990],[991]]},{"type":"LineString","properties":{"kind":"ferry","name":"Seattle-Bremerton Ferry","sort_rank":355,"is_bicycle_related":true,"source":"openstreetmap.org","min_zoom":8.0,"all_networks":["US:WA"],"shield_text":"304","ref":"WA 304","id":5919117,"all_shield_texts":["304"],"network":"US:WA"},"arcs":[992]},{"type":"MultiLineString","properties":{"bus_network":null,"network":"US:WA","sort_rank":380,"kind_detail":"primary","kind":"major_road","source":"openstreetmap.org","min_zoom":8.0,"bus_shield_text":"75","shield_text":"513","ref":"WA 513"},"arcs":[[993],[994],[995],[996],[997],[998],[999],[1000],[1001],[1002],[1003]]},{"type":"LineString","properties":{"kind":"major_road","network":"US:US","sort_rank":380,"kind_detail":"primary","is_bicycle_related":true,"source":"openstreetmap.org","min_zoom":8.0,"loc_name":"Stevens Pass Highway","ref":"US 2","shield_text":"2"},"arcs":[1004]},{"type":"MultiLineString","properties":{"bus_network":"Everett Transit","network":"US:WA","sort_rank":380,"kind_detail":"primary","kind":"major_road","source":"openstreetmap.org","min_zoom":8.0,"bus_shield_text":"70 East","shield_text":"526","ref":"WA 526"},"arcs":[[1005],[1006],[1007]]},{"type":"MultiLineString","properties":{"kind":"major_road","network":"US:US","sort_rank":380,"kind_detail":"primary","source":"openstreetmap.org","min_zoom":8.0,"shield_text":"2","ref":"US 2"},"arcs":[[1008],[1009],[1010]]},{"type":"MultiLineString","properties":{"kind":"major_road","network":"US:WA","sort_rank":380,"kind_detail":"primary","source":"openstreetmap.org","min_zoom":8.0,"shield_text":"522","ref":"WA 522"},"arcs":[[1011],[1012],[1013],[1014]]},{"type":"LineString","properties":{"kind":"highway","network":"US:I","sort_rank":383,"kind_detail":"motorway","source":"openstreetmap.org","min_zoom":8.0,"all_networks":["US:I"],"old_name":"Sunset Highway","shield_text":"90","landuse_kind":"urban_area","ref":"I 90","id":160750886,"all_shield_texts":["90"]},"arcs":[1015]},{"type":"MultiLineString","properties":{"source":"openstreetmap.org","cycleway_right":"track","sort_rank":380,"kind_detail":"primary","min_zoom":8.0,"is_bicycle_related":true,"kind":"major_road"},"arcs":[[1016],[1017]]},{"type":"LineString","properties":{"kind":"ferry","name":"West Seattle Water Taxi","sort_rank":355,"landuse_kind":"urban_area","is_bicycle_related":true,"source":"openstreetmap.org","min_zoom":8.0,"id":12905453},"arcs":[1018]},{"type":"LineString","properties":{"kind":"ferry","name":"Mukilteo-Clinton Ferry","sort_rank":355,"is_bicycle_related":true,"source":"openstreetmap.org","min_zoom":8.0,"all_networks":["US:WA"],"shield_text":"525","ref":"WA 525","id":5901929,"all_shield_texts":["525"],"network":"US:WA"},"arcs":[1019]},{"type":"LineString","properties":{"bus_network":null,"sort_rank":380,"kind_detail":"primary","is_bicycle_related":true,"kind":"major_road","cycleway":"lane","source":"openstreetmap.org","min_zoom":8.0,"bus_shield_text":"373"},"arcs":[1020]},{"type":"LineString","properties":{"bus_network":null,"sort_rank":380,"kind_detail":"primary","kind":"major_road","source":"openstreetmap.org","min_zoom":8.0,"bus_shield_text":"4","landuse_kind":"urban_area"},"arcs":[1021]},{"type":"LineString","properties":{"bus_network":"Everett Transit","network":"US:WA","sort_rank":380,"kind_detail":"primary","kind":"major_road","source":"openstreetmap.org","min_zoom":8.0,"bus_shield_text":"7 North","shield_text":"99","landuse_kind":"urban_area","ref":"WA 99"},"arcs":[1022]},{"type":"MultiLineString","properties":{"source":"openstreetmap.org","kind":"major_road","landuse_kind":"aerodrome","sort_rank":380,"kind_detail":"primary","is_bicycle_related":true,"min_zoom":8.0},"arcs":[[1023],[1024],[1025],[1026],[1027],[1028],[1029],[1030],[1031]]},{"type":"LineString","properties":{"kind":"major_road","network":"US:WA","sort_rank":381,"kind_detail":"trunk","source":"openstreetmap.org","min_zoom":8.0,"shield_text":"9","id":40421254},"arcs":[1032]},{"type":"LineString","properties":{"kind":"major_road","network":"US:WA:Spur","sort_rank":380,"kind_detail":"primary","source":"openstreetmap.org","min_zoom":8.0,"landuse_kind":"urban_area","shield_text":"524"},"arcs":[1033]},{"type":"LineString","properties":{"kind":"major_road","network":"US:WA","sort_rank":380,"kind_detail":"primary","bus_network":"Everett Transit","source":"openstreetmap.org","min_zoom":8.0,"bus_shield_text":"29 South","shield_text":"99","landuse_kind":"urban_area","ref":"WA 99","id":156900971},"arcs":[1034]},{"type":"MultiLineString","properties":{"kind":"highway","network":"US:WA","sort_rank":383,"kind_detail":"motorway","is_bicycle_related":true,"source":"openstreetmap.org","min_zoom":8.0,"all_networks":["US:WA"],"shield_text":"522","ref":"WA 522","all_shield_texts":["522"]},"arcs":[[1035],[1036],[1037],[1038]]},{"type":"MultiLineString","properties":{"kind":"major_road","network":"US:WA","sort_rank":381,"landuse_kind":"urban_area","source":"openstreetmap.org","min_zoom":8.0,"kind_detail":"trunk","shield_text":"18","ref":"WA 18"},"arcs":[[1039],[1040]]},{"type":"LineString","properties":{"source":"openstreetmap.org","bus_network":null,"bus_shield_text":"62","sort_rank":380,"kind_detail":"primary","min_zoom":8.0,"kind":"major_road"},"arcs":[1041]},{"type":"LineString","properties":{"bus_network":null,"network":"US:WA","sort_rank":380,"kind_detail":"primary","kind":"major_road","source":"openstreetmap.org","min_zoom":8.0,"bus_shield_text":"Swift","shield_text":"99","landuse_kind":"urban_area","ref":"WA 99"},"arcs":[1042]},{"type":"MultiLineString","properties":{"kind":"major_road","network":"US:WA","sort_rank":380,"kind_detail":"primary","source":"openstreetmap.org","min_zoom":8.0,"landuse_kind":"urban_area","shield_text":"900","ref":"WA 900"},"arcs":[[1043],[1044]]},{"type":"MultiLineString","properties":{"source":"openstreetmap.org","kind":"major_road","landuse_kind":"urban_area","sort_rank":380,"kind_detail":"primary","ref":"WA 305","min_zoom":8.0},"arcs":[[1045],[1046],[1047]]},{"type":"MultiLineString","properties":{"source":"openstreetmap.org","kind":"highway","kind_detail":"motorway","sort_rank":383,"landuse_kind":"aerodrome","is_bicycle_related":true,"min_zoom":8.0},"arcs":[[1048],[1049]]},{"type":"LineString","properties":{"source":"openstreetmap.org","kind":"major_road","landuse_kind":"urban_area","sort_rank":380,"kind_detail":"primary","ref":"WA 96","min_zoom":8.0},"arcs":[1050]},{"type":"MultiLineString","properties":{"kind":"major_road","network":"US:WA","sort_rank":380,"kind_detail":"primary","source":"openstreetmap.org","min_zoom":8.0,"shield_text":"202","ref":"WA 202"},"arcs":[[1051],[1052],[1053],[1054],[1055],[1056],[1057],[1058],[1059],[1060],[1061],[1062],[1063],[1064],[1065],[1066],[1067],[1068],[1069],[1070],[1071],[1072],[1073],[1074],[1075],[1076],[1077],[1078],[1079],[1080],[1081],[1082],[1083],[1084],[1085],[1086]]},{"type":"MultiLineString","properties":{"bus_network":null,"sort_rank":380,"kind_detail":"primary","kind":"major_road","source":"openstreetmap.org","min_zoom":8.0,"bus_shield_text":"8","landuse_kind":"urban_area"},"arcs":[[1087],[1088]]},{"type":"LineString","properties":{"bus_network":"Everett Transit","sort_rank":380,"kind_detail":"primary","kind":"major_road","source":"openstreetmap.org","min_zoom":8.0,"bus_shield_text":"8 South","landuse_kind":"urban_area"},"arcs":[1089]},{"type":"MultiLineString","properties":{"kind":"major_road","network":"US:WA","sort_rank":380,"kind_detail":"primary","source":"openstreetmap.org","min_zoom":8.0,"landuse_kind":"urban_area","shield_text":"515","ref":"WA 515"},"arcs":[[1090],[1091]]},{"type":"LineString","properties":{"kind":"ferry","name":"Seattle-Bainbridge Island Ferry","sort_rank":355,"landuse_kind":"urban_area","is_bicycle_related":true,"source":"openstreetmap.org","min_zoom":8.0,"all_networks":["US:WA"],"shield_text":"305","ref":"WA 305","id":188300879,"all_shield_texts":["305"],"network":"US:WA"},"arcs":[1092]},{"type":"LineString","properties":{"kind":"major_road","network":"US:WA","sort_rank":380,"kind_detail":"primary","is_bicycle_related":true,"cycleway":"lane","source":"openstreetmap.org","min_zoom":8.0,"shield_text":"524","ref":"WA 524;WA 527","id":4729910},"arcs":[1093]},{"type":"LineString","properties":{"kind":"major_road","cycleway_left":"lane","sort_rank":380,"kind_detail":"primary","is_bicycle_related":true,"bus_network":null,"source":"openstreetmap.org","min_zoom":8.0,"bus_shield_text":"10","landuse_kind":"urban_area","id":6450457},"arcs":[1094]},{"type":"LineString","properties":{"kind":"major_road","network":"US:WA","sort_rank":380,"kind_detail":"primary","source":"openstreetmap.org","min_zoom":8.0,"landuse_kind":"urban_area","shield_text":"99"},"arcs":[1095]}]},"earth":{"type":"GeometryCollection","geometries":[{"type":"MultiPolygon","properties":{"sort_rank":10,"source":"naturalearthdata.com","min_zoom":0.0,"kind":"earth","area":80393671302},"arcs":[[[1096]]]}]},"landuse":{"type":"GeometryCollection","geometries":[{"type":"MultiPolygon","properties":{"kind":"nature_reserve","protect_class":"1b","area":2722582219,"sort_rank":23,"operator":"United States Forest Service","source":"openstreetmap.org","min_zoom":6.0,"tier":2,"osm_relation":true},"arcs":[[[1097]],[[1098],[1099],[1100],[1101],[1102],[1103],[1104]],[[1105]]]},{"type":"MultiPolygon","properties":{"kind":"forest","protect_class":"6","area":1017923048,"sort_rank":31,"operator":"United States Forest Service","source":"openstreetmap.org","min_zoom":6.0,"tier":2,"osm_relation":true},"arcs":[[[1106]]]},{"type":"Polygon","properties":{"kind":"protected_area","protect_class":"24","area":17174900,"sort_rank":17,"source":"openstreetmap.org","min_zoom":8.0,"tier":2,"id":-3795318,"osm_relation":true},"arcs":[[1107]]},{"type":"Polygon","properties":{"kind":"aerodrome","area":13451300,"sort_rank":60,"operator":"Port of Seattle","source":"openstreetmap.org","min_zoom":8.0,"tier":3,"id":50898115},"arcs":[[1108]]},{"type":"Polygon","properties":{"kind":"nature_reserve","area":12194100,"sort_rank":23,"operator":"Kittitas Conservation Trust","source":"openstreetmap.org","min_zoom":8.0,"tier":2,"id":436791241},"arcs":[[1109]]},{"type":"MultiPolygon","properties":{"kind":"forest","protect_class":"6","area":14373199253,"sort_rank":31,"operator":"United States Forest Service","source":"openstreetmap.org","min_zoom":4.0,"tier":2,"osm_relation":true},"arcs":[[[1110]],[[1111],[1112],[1113],[1114],[1115],[1116],[1117]],[[1118],[1119],[1120],[1121],[1122],[1123],[1124],[1125],[1126],[1127],[1128],[1129]],[[1130]],[[1131]],[[1132]],[[1133]]]},{"type":"MultiPolygon","properties":{"source":"openstreetmap.org","kind":"park","tier":2,"area":237853472,"sort_rank":24,"min_zoom":8.0,"osm_relation":true},"arcs":[[[1134]],[[1135]],[[1136],[1137]],[[1138]]]},{"type":"MultiPolygon","properties":{"source":"openstreetmap.org","kind":"park","tier":2,"area":96885685,"sort_rank":24,"min_zoom":8.0},"arcs":[[[1139]],[[1140]],[[1141]]]},{"type":"MultiPolygon","properties":{"kind":"nature_reserve","protect_class":"1b","area":617803271,"sort_rank":23,"operator":"United States Forest Service","source":"openstreetmap.org","min_zoom":7.0,"tier":2,"osm_relation":true},"arcs":[[[1142]]]},{"type":"MultiPolygon","properties":{"source":"naturalearthdata.com","kind":"urban_area","name":"","area":2763910944,"sort_rank":11,"min_zoom":4.0},"arcs":[[[1143]],[[1144]],[[1145]],[[1146]]]},{"type":"Polygon","properties":{"kind":"park","protect_class":"5","area":13793800,"sort_rank":24,"source":"openstreetmap.org","min_zoom":8.0,"tier":2,"id":-5960704,"osm_relation":true},"arcs":[[1147],[1148]]},{"type":"Polygon","properties":{"kind":"nature_reserve","area":80933504,"sort_rank":23,"operator":"Washington State Department of Natural Resources","source":"openstreetmap.org","min_zoom":8.0,"tier":2,"id":-2219448,"osm_relation":true},"arcs":[[1149],[1150],[1151]]},{"type":"Polygon","properties":{"kind":"park","protect_class":"6","area":117725000,"sort_rank":24,"operator":"Washington Department of Natural Resources","source":"openstreetmap.org","min_zoom":7.0,"tier":2,"id":-7168101,"osm_relation":true},"arcs":[[1152]]},{"type":"Polygon","properties":{"kind":"aerodrome","area":11618700,"sort_rank":60,"operator":"Snohomish County, Washington","source":"openstreetmap.org","min_zoom":8.0,"tier":3,"id":479200644},"arcs":[[1153]]},{"type":"Polygon","properties":{"kind":"national_park","protect_class":"5","area":431670016,"sort_rank":18,"source":"openstreetmap.org","min_zoom":3.0,"tier":1,"id":-6437099,"osm_relation":true},"arcs":[[1154],[1155]]},{"type":"Polygon","properties":{"kind":"nature_reserve","area":111595000,"sort_rank":23,"operator":"Washington State Department of Natural Resources","source":"openstreetmap.org","min_zoom":7.0,"tier":2,"id":-295846,"osm_relation":true},"arcs":[[1156],[1157]]},{"type":"MultiPolygon","properties":{"kind":"nature_reserve","protect_class":"1b","area":7199323185,"sort_rank":23,"operator":"United States Forest Service","source":"openstreetmap.org","min_zoom":4.0,"tier":2,"osm_relation":true},"arcs":[[[1158]],[[1159]]]},{"type":"Polygon","properties":{"kind":"nature_reserve","protect_class":"4","area":13096400,"sort_rank":23,"operator":"Washington Department of Fish & Wildlife","source":"openstreetmap.org","min_zoom":8.0,"tier":2,"id":-6437643,"osm_relation":true},"arcs":[[1160]]},{"type":"Polygon","properties":{"kind":"forest","protect_class":"6","area":118570000,"sort_rank":31,"operator":"United States Forest Service","source":"openstreetmap.org","min_zoom":7.0,"tier":2,"id":-1399218,"osm_relation":true},"arcs":[[1161],[1162],[1163],[1164]]}]}},"type":"Topology","transform":{"translate":[-122.34375,47.0401821448],"scale":[0.0003433228,0.00023187]},"arcs":[[[0,2487],[20,-22]],[[0,2487],[20,-22]],[[42,2404],[-6,-148],[98,-126],[40,-113],[127,-191],[35,-1068],[-103,-121],[-233,58]],[[125,1745],[0,-12]],[[42,2404],[0,13]],[[42,2404],[0,13]],[[42,2417],[-42,42]],[[0,3470],[23,29],[9,128],[77,281],[166,56],[96,88],[48,0],[9,-24]],[[0,2456],[28,-12],[13,-20],[-7,-91],[0,-18],[1,-11],[0,-42],[1,-6],[1,-2],[2,-3],[26,-30],[69,-91],[20,-63],[20,-50],[4,-7],[16,-23],[25,-31],[4,-6],[6,-15],[4,-7],[4,-4],[2,-3],[9,-7],[5,-6],[14,-28],[34,-54],[-2,-109],[23,-190],[3,-382],[11,-387],[-103,-121],[-233,58]],[[0,2456],[24,-10],[4,-2],[3,-2],[9,-15],[1,-3],[1,-3],[0,-25],[-3,-15]],[[39,2381],[0,-30],[-1,-4],[-3,-9],[-1,-5],[0,-18],[1,-8],[0,-12]],[[35,2295],[2,-41],[28,-33],[67,-88],[3,-6],[2,-5],[19,-61],[20,-47],[43,-58],[4,-6],[8,-18],[4,-6],[13,-12],[5,-6],[17,-32],[28,-41],[3,-6],[0,-5],[-1,-110],[22,-176],[0,-9],[3,-380],[14,-376],[0,-3],[-1,-5],[-2,-7],[-4,-6],[-79,-103],[-4,-4],[-5,-4],[-4,-2],[-7,-2],[-5,-1],[-3,0],[-7,1],[-218,58]],[[101,3886],[-1,-64],[-68,-195],[-9,-128],[-23,-28]],[[35,2295],[0,11],[0,27],[0,5],[3,8],[1,4],[0,31]],[[101,3886],[85,62],[77,12],[4,1],[4,1],[4,2],[4,2],[4,3],[27,23],[31,28],[28,32],[51,-1],[19,-35],[42,49],[-7,31]],[[298,3982],[-111,-34],[-86,-62]],[[42,2404],[-6,-148],[96,-123],[44,-119],[125,-185],[37,-1064],[-116,-129],[-222,59]],[[101,3886],[-1,-64],[-68,-195],[-9,-128],[-23,-28]],[[0,2456],[28,-12],[14,-31]],[[42,2404],[0,17],[-1,3],[-1,3],[-9,15],[-3,2],[-4,2],[-24,10]],[[101,3886],[85,62],[77,12],[4,1],[4,1],[8,4],[4,3],[27,23],[31,28],[28,32],[43,0]],[[298,3982],[-31,-21],[-30,-2],[-12,-4],[-28,-3],[-3,-1],[-7,-3],[-5,-2],[-23,-15],[-36,-14],[-7,-3],[-4,-3],[-3,-3],[-3,-3],[-1,-3],[-4,-16]],[[438,3920],[-5,24],[1,59],[0,3],[-1,7],[-11,36],[-1,1],[-2,2],[-3,0],[-4,0]],[[412,4052],[21,-39],[0,-69],[5,-24]],[[438,3920],[75,-100],[202,-79],[372,-216],[319,-30],[129,47],[276,20],[183,-135],[116,3],[52,-78],[131,14],[-26,-47],[142,-31],[200,-244],[222,-162],[150,11],[48,-43],[14,-58],[13,80],[48,23],[57,-19],[215,36],[83,-29],[459,265],[137,13],[41,25]],[[425,4035],[0,-3],[1,1],[0,2],[-1,0]],[[384,4096],[-3,-13],[-58,-37],[-25,-24],[-104,-23],[-25,-20],[-20,-24],[-58,-43],[-23,-22],[-12,-35],[0,-42],[-28,-60],[-8,-67],[-8,-95],[-12,-22],[0,527],[384,0]],[[0,2450],[11,-40],[-3,-69],[-8,-51],[0,160]],[[0,1611],[29,-41],[25,-57],[5,-80],[-15,-66],[-32,-46],[-12,-3],[0,293]],[[0,1318],[12,3],[32,46],[15,66],[-5,80],[-25,57],[-29,41]],[[0,2290],[8,51],[3,69],[-11,40]],[[0,3569],[12,22],[8,95],[8,67],[28,60],[0,42],[12,35],[23,22],[58,43],[20,24],[25,20],[104,23],[25,24],[58,37],[3,13]],[[1895,1749],[54,-11]],[[1926,1742],[-29,6]],[[1980,1731],[195,-75],[76,-80],[129,-46],[153,-6],[78,19],[47,115],[31,16],[16,-7],[1,-1]],[[2706,1666],[13,-14],[-1,-18]],[[2718,1634],[0,-1],[0,-3],[38,-93],[29,-26]],[[3291,954],[-53,37],[-36,-5],[-72,11]],[[3130,997],[-3,0],[-46,102]],[[3081,1099],[-4,9],[-158,142],[-63,53]],[[2856,1303],[-1,1],[-3,31]],[[2852,1335],[-3,21],[-41,144],[-27,22],[-25,16],[-37,92],[0,2],[-1,2]],[[2718,1634],[-12,32]],[[2706,1666],[-1,2],[-13,8],[-39,-12],[-36,-35],[-10,-67],[-75,-30],[-152,0],[-129,45],[-75,82],[-193,72]],[[2785,1511],[64,-156],[3,-20]],[[2852,1335],[4,-32]],[[2856,1303],[0,-1],[225,-203]],[[3081,1099],[0,-1],[49,-101]],[[3130,997],[2,-3],[124,-40]],[[142,1524],[1,0]],[[145,1522],[-2,3]],[[382,1447],[15,-13]],[[0,880],[21,4],[11,99]],[[185,3070],[-11,-12]],[[185,3070],[19,12]],[[204,3082],[11,12]],[[215,3094],[22,3]],[[257,3098],[-20,-1]],[[259,3099],[-2,-1]],[[257,3098],[2,0]],[[384,3066],[1,1]],[[398,3100],[21,1]],[[420,3101],[-22,0]],[[492,2311],[-6,36]],[[142,1524],[-48,-168],[-3,-44],[1,-37],[50,245]],[[143,1524],[0,1]],[[64,1719],[-35,38],[-4,-102]],[[25,1655],[0,-3]],[[25,1652],[33,-113],[40,-26],[42,15]],[[140,1528],[2,-4]],[[143,1525],[-3,3]],[[318,3630],[-2,0]],[[323,3630],[3,0]],[[337,3630],[24,-7]],[[387,3614],[11,0]],[[12,2268],[1,-16]],[[13,2252],[0,17]],[[13,2252],[16,-65]],[[21,2373],[7,-1]],[[141,2371],[26,0]],[[141,2372],[26,-1]],[[406,2321],[-103,55],[-162,-3]],[[167,2371],[95,-3],[41,7],[77,-52],[25,-5]],[[595,2322],[277,-148],[47,-51]],[[906,2144],[-11,15],[-23,16],[-256,146],[-21,2]],[[60,2883],[15,0]],[[329,1142],[-1,0]],[[28,2191],[-2,-47]],[[26,2145],[3,42]],[[140,1978],[-96,139]],[[55,2098],[85,-123]],[[13,2423]],[[143,1524],[20,-12]],[[163,1512],[-18,10]],[[167,1512],[-4,0]],[[313,1456],[-20,1]],[[293,1457],[20,-1]],[[351,1479],[-38,-23]],[[397,1434],[53,-21]],[[455,1411],[5,-3]],[[436,1968],[5,-11]],[[439,1963],[-2,6]],[[176,3814],[4,-3]],[[14,2427],[-3,0]],[[367,1921],[0,7]],[[182,3810],[-2,1]],[[372,1870],[2,12]],[[2,2427],[-2,0]],[[606,4023],[41,-57],[-39,57]],[[186,3806],[-4,4]],[[4,2423],[-4,-1]],[[14,2420],[-8,-1]],[[28,2883],[10,0]],[[46,2883],[-2,0]],[[46,2883],[5,0],[9,0],[-14,0]],[[88,3086],[2,22]],[[90,2992],[0,18]],[[116,3918],[-1,1]],[[145,708],[0,-2]],[[202,3357],[17,61]],[[215,2070],[21,0]],[[305,3382],[1,-1]],[[396,3120],[0,-18]],[[396,3100],[1,8]],[[647,2733],[-11,4]],[[796,2656],[-1,1]],[[48,2431],[11,344]],[[48,2431],[3,-4]],[[51,2428],[-3,3]],[[149,707],[14,-2]],[[173,704],[-22,6]],[[255,4096],[42,-28],[27,0],[12,28]],[[137,551],[-11,-36],[-81,-5]],[[45,509],[81,5],[12,37]],[[28,2883],[-15,-15]],[[450,1413],[5,-2]],[[460,1408],[31,-17]],[[171,2685],[-44,-10]],[[139,1726]],[[318,3630],[5,0]],[[7,2417],[-7,-4]],[[140,1975],[2,-1]],[[145,1974],[-5,4]],[[43,2411],[0,7]],[[437,1969],[-4,11]],[[436,1969],[0,-1]],[[419,3101],[16,-17]],[[435,3085],[-15,16]],[[254,892],[27,-126],[-2,-46],[-30,-21]],[[252,699],[20,9],[8,11],[2,47],[0,20],[-26,106]],[[43,2399],[4,-3]],[[11,2423],[-7,0]],[[188,1931],[22,-44]],[[214,1882],[-24,49]],[[163,3814]],[[77,2891],[12,14]],[[150,3778],[-2,-21]],[[148,3754],[3,28]],[[405,2318],[2,1]],[[8,2436],[-8,-1]],[[29,1856],[11,-2]],[[39,1855],[-10,1]],[[1488,2158],[0,1],[0,1],[-1,-1],[1,-1]],[[141,2929],[1,2]],[[142,2931],[1,1]],[[144,2935],[-2,-4]],[[144,2934],[0,1]],[[144,2935],[1,3]],[[145,2938],[1,3]],[[146,2941],[2,6]],[[11,2471],[-4,3]],[[83,2780],[-14,-12]],[[71,2767],[9,7],[3,8]],[[535,3105],[-36,-5]],[[500,3097],[31,4]],[[842,3409],[75,-2],[131,139],[-131,-138],[-75,1]],[[416,3986],[1,-6]],[[359,3806],[-4,0]],[[0,2469],[11,-10]],[[152,3803],[-2,-19]],[[151,3785],[2,18]],[[126,2891],[6,14]],[[132,2905],[-6,-14]],[[133,2909],[-1,-4]],[[133,2909],[1,2]],[[134,2911],[2,4]],[[136,2915],[0,1]],[[136,2916],[3,6]],[[139,2922],[2,7]],[[180,3811],[1,0]],[[164,2015],[-8,0]],[[138,1762],[1,-26]],[[693,2731],[0,5]],[[72,3180],[1,0]],[[107,3160],[-8,8]],[[14,2454],[23,-36]],[[75,2883],[41,2]],[[116,2885],[2,0]],[[118,2885],[7,5]],[[125,2890],[1,1]],[[126,2891],[-1,-1]],[[288,1815],[3,-18]],[[280,1833],[-3,2]],[[281,1495],[-2,5]],[[91,2922],[-1,7]],[[13,2423],[4,-1]],[[542,1848],[4,-1]],[[546,1847],[-4,2]],[[546,1847],[201,-30]],[[747,1817],[18,-6],[3,-6],[-21,12]],[[769,1802],[96,-169]],[[938,1397],[-25,76],[-45,39],[7,48]],[[938,1397],[2,-12]],[[628,1371],[-117,2]],[[702,1371],[-74,0]],[[877,1371],[-175,0]],[[897,1371],[29,10]],[[935,1385],[-9,-4]],[[935,1385],[5,0]],[[26,2144],[29,-148],[-23,-161],[6,-14]],[[38,1821],[11,-31],[11,-27],[8,-23]],[[68,1731],[-30,90]],[[38,1821],[12,111],[1,3],[4,59],[0,2],[-29,149]],[[233,2769],[0,-12]],[[180,679],[-43,-85],[0,-43]],[[138,551],[0,42],[10,10],[30,43],[4,35]],[[114,2626],[0,2]],[[121,2656],[-3,-17]],[[127,2675],[-4,-9]],[[2,3206],[0,2]],[[3,3209],[23,48]],[[61,3328],[2,5]],[[66,3337],[18,31]],[[83,3368],[204,355]],[[95,1076],[17,-1],[65,41]],[[177,1117],[-77,-41]],[[89,2992],[49,-1]],[[396,3318],[-44,0]],[[585,2987],[-2,0]],[[588,2985],[3,-4]],[[591,2982],[-2,3]],[[596,2974],[-3,4]],[[647,2733],[-31,104]],[[753,2660],[2,-1]],[[755,2660],[-1,0]],[[173,703],[41,-9],[38,5]],[[249,699],[-68,3]],[[366,1857],[-28,-310],[-39,-39],[-3,-3],[-6,-12],[-1,-8]],[[289,1485],[0,-2]],[[289,1483],[-1,-11],[0,-1],[-1,-276],[-49,-224],[16,-79]],[[256,892],[-17,79],[48,212],[3,241],[0,32],[-1,15],[0,4],[0,6],[0,1],[0,1]],[[289,1483],[0,1],[0,1]],[[289,1485],[2,8],[5,11],[56,57],[22,210],[-7,86]],[[38,2883],[6,0]],[[39,2414],[1,-1]],[[464,3106],[-45,118],[-62,46],[-45,78],[-76,67]],[[236,3414],[121,-145],[61,-46],[45,-117]],[[433,1980],[0,216],[8,17]],[[441,2213],[-5,-244]],[[457,2618],[-5,-72]],[[453,2547],[5,71]],[[5,874],[33,57]],[[38,931],[2,5],[10,16],[38,58],[25,82]],[[111,1091],[-22,-75],[-50,-80],[-1,-5]],[[38,931],[-14,-52],[-17,-7]],[[47,2532],[-1,-5]],[[48,2520],[2,14]],[[50,3112],[-10,-27],[1,-5]],[[41,3080],[0,-19]],[[41,3061],[1,-12],[-1,-23],[2,-4],[2,-8]],[[45,3014],[11,-43],[-3,-17]],[[53,2954],[-13,-69],[0,-28],[1,-33],[2,-5]],[[43,2819],[2,-7]],[[45,2812],[7,-25],[6,-7]],[[58,2780],[2,-3],[1,-3]],[[59,2775],[-1,5]],[[58,2780],[-2,3],[-11,29]],[[45,2812],[-2,5],[0,2]],[[43,2819],[-1,35],[-1,27],[16,45],[-4,28]],[[53,2954],[-8,60]],[[45,3014],[-1,8],[-2,4],[1,23],[-2,12]],[[41,3061],[-1,13],[1,6]],[[41,3080],[0,5],[1,4],[14,22]],[[166,2070],[-27,54]],[[143,2115],[0,-1]],[[150,2099],[9,-19]],[[209,3383],[28,27],[11,61],[1,2]],[[249,3473],[23,62]],[[276,3527],[-27,-54]],[[249,3473],[-3,-7],[-10,-51],[-25,-25]],[[75,2884],[0,1]],[[0,2454],[7,-9]],[[7,2445],[1,0]],[[16,2432],[-4,6],[-5,7]],[[7,2445],[-7,11]],[[0,2494],[1,1],[-1,9]],[[14,2434],[-2,-166]],[[13,2269],[15,127],[0,1],[-4,9],[0,6],[-8,19]],[[33,2130],[22,-32]],[[44,2117],[-10,13]],[[193,3577],[10,-117]],[[203,3474],[-2,81],[-7,22]],[[58,2992],[31,0]],[[122,2606],[-8,-1]],[[114,2605],[8,1]],[[127,3803],[-12,98]],[[18,2423],[-7,0]],[[17,2422],[4,0]],[[135,2317],[77,-162],[3,-71]],[[116,3916],[0,2]],[[116,3915],[0,1]],[[351,1479],[31,-32]],[[19,2151],[1,-18]],[[22,2153],[11,-23]],[[63,1046],[-31,-63]],[[83,3368],[-9,-15]],[[87,1108],[-11,-31]],[[84,3368],[3,7]],[[87,1108],[1,4],[1,11],[0,78]],[[88,1201],[-1,-93]],[[384,3767],[-14,-10]],[[384,3767],[3,7]],[[394,3792],[-7,-18]],[[37,2418],[2,-4]],[[43,2418],[0,4]],[[26,2145]],[[47,2396],[22,0]],[[77,2396],[-8,0]],[[94,2396],[-17,0]],[[111,3883],[5,32]],[[113,3921],[2,-3]],[[139,3774],[-12,29]],[[43,2422],[-13,22]],[[90,3010],[-2,76]],[[365,3232],[-1,-45]],[[364,3187],[2,-3]],[[365,3232],[9,15]],[[366,3184],[6,-21]],[[372,3163],[0,-3]],[[372,3160],[3,-5]],[[375,3251],[-1,-4]],[[518,2215],[5,-84]],[[518,3612],[76,-27],[21,-35],[66,6]],[[523,2131],[4,-11]],[[527,2120],[18,-112]],[[145,708],[0,4]],[[466,4056],[-2,0]],[[172,1512],[-5,0]],[[172,1512],[43,-62],[10,-4],[3,0],[65,11]],[[204,1462],[-32,50]],[[212,1454],[-1,1]],[[293,1457],[-79,-6]],[[195,3593],[-2,-16]],[[194,3577],[2,16]],[[222,3428],[-19,46]],[[203,3460],[19,-32]],[[683,3698],[1,52]],[[683,3698],[-1,-82]],[[178,2605],[9,-1]],[[461,2553],[-33,36],[-16,9],[-28,-1],[-18,-8],[-30,-19],[-17,3],[-133,32],[-8,1]],[[305,2575],[31,-6],[82,26],[42,-43]],[[0,3204],[2,2]],[[2,3208],[1,1]],[[26,3257],[35,71]],[[63,3333],[3,4]],[[1330,2282],[1,-1],[0,1],[-1,0]],[[2,2427],[-2,0]],[[138,1763],[0,-1]],[[139,1736],[0,-10]],[[426,1915],[1,-1]],[[291,3726],[-2,0]],[[92,1076],[3,0]],[[294,1133],[-39,0],[-2,0],[-6,2]],[[247,1135],[-10,2]],[[237,1137],[-3,1],[-27,0],[-4,-2],[-26,-19]],[[177,1116],[30,21],[30,0]],[[237,1137],[1,0],[2,0],[7,-2]],[[247,1135],[6,-2],[2,-1],[27,-1]],[[464,4056],[-19,-1]],[[887,1371],[-10,0]],[[897,1371],[-5,0]],[[128,2675],[2,2]],[[173,2688],[-2,-3]],[[173,2688],[2,3]],[[177,2694],[-2,-3]],[[421,1903],[-5,-5],[-22,-49],[-76,-8],[-13,-5],[-9,-4],[-18,-8],[-3,-1],[-1,-1]],[[274,1822],[-1,0],[-5,-3],[-15,3]],[[253,1822],[-3,0],[-1,1],[-17,1],[-7,-2]],[[239,1821],[10,1],[4,0]],[[253,1822],[21,0]],[[274,1822],[2,0],[43,18],[48,4],[27,5],[3,1],[46,94],[-2,7]],[[441,1951],[-2,12]],[[441,1957],[0,-6]],[[441,1951],[1,-7],[-21,-40]],[[441,2213],[15,35],[18,22]],[[474,2270],[3,4],[1,2],[16,46],[-41,225]],[[452,2546],[-1,-81],[24,-96],[17,-44],[-14,-48],[-1,-2],[-3,-5]],[[474,2270],[-33,-57]],[[456,3064],[-7,-100],[5,-38],[24,-65],[-22,-141],[1,-102]],[[458,2618],[21,244],[-28,102],[13,142]],[[463,3106],[-4,-26]],[[28,2372],[0,27]],[[40,2413],[0,-1]],[[40,2412],[3,-30]],[[768,1805],[1,-3]],[[888,1579],[-1,17]],[[0,2993],[53,0]],[[57,2993],[1,-1]],[[138,2991],[11,0]],[[163,3814]],[[7,872],[-4,-2]],[[3,870],[-3,-1]],[[0,866],[1,0],[2,4]],[[3,870],[2,4]],[[46,2527],[-10,-71],[1,-6],[11,-20],[18,-24],[2,-8],[-5,-151],[2,-6]],[[65,2241],[2,-4]],[[67,2237],[7,-22],[2,-6],[67,-94]],[[61,2774],[3,-12]],[[64,2762],[2,-10],[0,-1],[-4,-43],[-2,-134],[-13,-42]],[[139,2124],[-63,89],[-1,2],[-8,22]],[[67,2237],[-2,3],[0,1]],[[65,2241],[0,3],[1,11],[6,71],[-3,72],[-2,8],[-30,51],[11,63]],[[50,2534],[11,38],[7,175],[0,3],[-4,12]],[[64,2762],[-5,13]],[[211,3390],[-104,-86],[-28,-60],[-29,-132]],[[56,3111],[53,193],[100,79]],[[159,2080],[71,-144],[-18,-24],[-4,-20],[23,-101],[-21,-102],[-34,-35],[-2,-10]],[[174,1644],[-20,-79]],[[154,1565],[-4,-17],[-13,-179],[7,-132],[-33,-146]],[[113,1092],[32,137],[-7,140],[16,94],[-2,76],[2,26]],[[154,1565],[5,62],[15,17]],[[174,1644],[37,42],[1,3],[22,105],[-24,97],[21,45],[-65,134]],[[143,2114],[7,-15]],[[272,3535],[22,62],[37,44]],[[331,3641],[45,54],[55,152],[-10,89],[1,47]],[[422,3983],[1,13],[3,7]],[[426,4003],[1,2],[12,12],[36,79]],[[465,4096],[-38,-91],[-1,-2]],[[426,4003],[-4,-20]],[[422,3983],[-3,-16],[0,-3],[3,-46],[7,-70],[-20,-26],[-18,-59],[-60,-122]],[[331,3641],[-55,-114]],[[125,2675],[1,35]],[[476,2281],[1,-2]],[[152,3708],[-1,3]],[[151,3709]],[[865,1633],[22,-37]],[[875,1560],[13,19]],[[234,2741],[-36,-32]],[[600,4045],[1,18]],[[603,4069],[-2,-6]],[[603,4069],[8,12]],[[611,4081],[8,8]],[[619,4089],[8,7]],[[114,2626],[0,-10]],[[114,2616],[0,-8],[1,-4]],[[114,2609],[0,7]],[[116,2604],[-2,3]],[[3774,649],[14,-22],[3,0]],[[3791,627],[-11,14]],[[73,1711],[2,-1]],[[93,1701],[7,0]],[[123,1701],[-23,0]],[[123,1701],[4,0]],[[2,2427],[-2,0]],[[427,1914],[14,-14],[-15,15]],[[236,2070],[3,0]],[[353,1990],[14,-62]],[[173,704]],[[115,3917],[0,1]],[[282,1131],[139,0]],[[421,1131],[-28,5],[-70,0],[-29,-3]],[[90,2929],[0,55]],[[369,1903],[0,-7]],[[22,2422],[2,-13]],[[24,2409],[2,-6]],[[28,2399],[-2,4]],[[28,2372],[15,0]],[[24,3369],[-24,1]],[[352,3318],[-47,64],[-100,-15]],[[401,3318],[-3,0],[-1,0],[1,-1],[3,1]],[[401,3318],[276,-32]],[[463,1984],[-37,10]],[[484,1996],[7,4]],[[545,2008],[-47,-5]],[[142,1520],[1,4]],[[616,2837],[0,2]],[[215,2084],[0,-14]],[[459,3080],[-3,-16]],[[0,759],[77,-46]],[[84,710],[62,-26],[-1,22]],[[367,1857],[-1,0]],[[11,2423],[-7,0]],[[375,3155],[22,-47]],[[1648,3570]],[[1650,3570],[-1,0]],[[44,2372],[35,20],[26,-21],[31,1]],[[141,2373],[-56,20],[-7,-1],[-29,-11]],[[136,2372],[5,-1]],[[136,2372],[5,0]],[[595,2323],[-99,7],[-66,-2],[-24,-7]],[[418,2322],[177,0]],[[7,2474],[-7,6]],[[15,2467],[-4,4]],[[58,2158],[9,-8]],[[0,2504],[1,27],[-1,15]],[[13,2425],[-2,0]],[[18,2423]],[[9,3185],[-9,3]],[[9,3185],[16,-4]],[[56,3181],[-31,0]],[[91,3176],[-35,5]],[[56,3181],[16,-1]],[[73,3180],[18,-4]],[[99,3168],[-8,8]],[[140,3128],[-33,32]],[[142,3126],[-2,2]],[[196,3077],[-54,49]],[[280,1833],[8,-18]],[[291,1797],[-5,-67]],[[418,4096],[-4,-35]],[[0,509],[45,0]],[[45,510],[-45,0]],[[14,2420],[-7,-3]],[[421,1131],[55,-10],[11,14],[17,31],[42,92],[3,2],[47,66],[234,170],[58,91],[93,45],[55,46],[9,10],[20,14]],[[1065,1702],[1,0]],[[1066,1702],[4,3],[5,1],[17,1],[2,2]],[[1094,1709],[8,7]],[[1102,1716],[3,2]],[[1105,1718],[-3,-2]],[[1102,1716],[-7,-7],[-1,0]],[[1094,1709],[-19,-3],[-5,-1],[-4,-3]],[[1066,1702],[-1,0]],[[1065,1702],[-20,-14],[-65,-55],[-92,-45],[-7,-6],[-53,-86],[-232,-169],[-51,-69],[-70,-137],[-54,10]],[[1046,2879],[1,5]],[[1046,2884],[0,-5]],[[1329,2286],[-68,105],[-16,188],[23,176],[-185,67],[-37,57]],[[1047,2890],[-1,-5]],[[1047,2890],[-4,156],[83,87],[-74,193],[36,75],[0,132]],[[1047,2885],[0,5]],[[1329,2286],[1,-5]],[[1330,2282],[-1,4]],[[1047,2886],[-1,-1],[1,-1]],[[1047,2884],[0,1],[0,1]],[[684,3750],[11,92]],[[698,3844],[9,10]],[[441,1900],[88,-44]],[[529,1856],[13,-8]],[[542,1849],[-13,7]],[[12,2465],[-1,-2]],[[94,2396],[25,-48]],[[121,2344],[12,-23]],[[135,2318],[0,-1]],[[892,1371],[-5,0]],[[363,3542],[0,-3]],[[363,3536],[0,3]],[[363,3536],[1,-7]],[[363,3542],[1,5]],[[364,3529],[0,-4]],[[366,3564],[-2,-17]],[[364,3525],[1,-14]],[[366,3581],[-1,-8]],[[365,3573],[1,-3]],[[365,3511],[3,-22]],[[368,3489],[-3,22]],[[366,3570],[0,-6]],[[386,3610],[-20,-29]],[[386,3610],[2,0]],[[399,3655],[-11,-45]],[[76,2599],[25,2],[13,4]],[[114,2605],[-36,-6]],[[178,2606],[-31,3],[-10,0],[-15,-3]],[[122,2606],[56,-1]],[[460,2552],[45,-10],[47,0],[17,7],[31,26]],[[608,2590],[-53,-47],[-50,1],[-29,9],[-15,0]],[[577,3195],[4,11]],[[581,3206],[3,104],[50,113]],[[640,3439],[-56,-128],[-3,-105]],[[707,3854],[-11,242]],[[622,2734],[-11,-2]],[[11,2427],[-9,0]],[[257,697],[46,-35]],[[293,672],[-30,21]],[[400,3785],[-2,-17]],[[194,1651],[-13,-21]],[[710,2699],[-4,6],[-5,4],[-15,7],[24,-17]],[[712,2696],[-2,3]],[[712,2696],[32,-34]],[[744,2662],[9,-2]],[[754,2660],[-10,2]],[[456,3613],[62,-1]],[[239,2070],[114,-80]],[[0,2290],[64,1],[14,8],[6,-5]],[[84,2295],[-4,5],[-8,-2],[-7,-5],[-58,-1],[-7,-1]],[[8,2445],[6,-11]],[[16,2431],[0,1]],[[50,2382],[11,4]],[[61,2386],[11,4],[33,-18],[13,-1]],[[115,2374],[-43,16],[-11,-4]],[[61,2386],[-10,-4]],[[421,1904],[0,-1]],[[456,2720],[2,0]],[[361,3623],[26,-9]],[[11,2463],[-1,-1]],[[43,2499],[-31,-34]],[[30,2444],[-15,23]],[[145,3759],[-6,15]],[[145,3759],[2,-6]],[[147,3753],[-2,6]],[[187,2604],[118,-29]],[[600,2575],[6,9],[0,23]],[[606,2607],[0,59]],[[606,2666],[0,6],[9,22],[14,9]],[[629,2703],[1,0],[37,1],[3,1]],[[670,2705],[14,5]],[[684,2710],[2,1],[3,5],[4,15]],[[693,2736],[-4,-20],[-3,-5],[-2,-1]],[[684,2710],[-9,-5],[-5,0]],[[670,2705],[-24,0],[-11,0],[-5,-1],[-1,-1]],[[629,2703],[-23,-37]],[[606,2666],[-6,-9],[6,-50]],[[606,2607],[2,-17]],[[75,2885],[0,4]],[[75,2883],[0,1]],[[75,2889],[1,1]],[[76,2890],[-1,-1]],[[0,2865],[13,3]],[[368,1918],[1,-15]],[[114,2628],[1,4]],[[844,3754],[-62,38],[7,101],[-142,73]],[[148,3757],[-1,-4]],[[147,3753],[1,1]],[[150,3784],[0,-6]],[[151,3782],[0,3]],[[111,2828],[15,63]],[[149,2951],[0,44]],[[149,2951],[-1,-4]],[[149,2995],[0,4]],[[150,3003],[-1,-4]],[[150,3003],[14,25]],[[174,3058],[-10,-30]],[[331,3081],[-12,6],[-43,10],[-12,2],[-5,0]],[[259,3098],[72,-17]],[[370,3068],[-39,13]],[[384,3073],[-14,-5]],[[370,3068],[14,-2]],[[384,3073],[0,19]],[[385,3067],[-1,6]],[[384,3092],[7,7]],[[398,3101],[-7,-1],[-7,-8]],[[396,3100],[2,0]],[[147,3753],[1,-35],[3,-9]],[[151,3711],[-4,42]],[[151,3709],[44,-116]],[[196,3593],[-44,115]],[[75,1710],[18,-9]],[[399,3696],[2,90]],[[1897,1748],[-49,79],[-100,43],[-106,2],[-159,171],[-40,-1],[-104,-20],[-37,-5]],[[1302,2017],[-16,-2],[-55,41]],[[1231,2056],[-8,6],[-8,5],[-55,53],[-72,19],[-29,-20],[-6,0]],[[1053,2119],[-20,0],[-42,16],[-13,5]],[[978,2140],[-8,3],[-34,-22],[-30,23]],[[919,2123],[19,-3],[32,20],[8,0]],[[978,2140],[1,0],[74,-21]],[[1053,2119],[6,-2],[27,20],[33,-11],[104,-65],[8,-5]],[[1231,2056],[71,-39]],[[1302,2017],[10,-5],[172,28],[158,-170],[15,-3],[93,1],[79,-38],[66,-81]],[[1983,1731],[-57,11]],[[1949,1738],[31,-7]],[[3256,954],[40,-16],[34,-6],[105,-119],[21,-10]],[[3456,803],[72,-36]],[[3528,767],[6,-2],[77,-23],[163,-93]],[[3780,641],[-17,26],[-151,76],[-77,23],[-1,0],[-6,1]],[[3528,767],[-48,12],[-24,24]],[[3456,803],[-55,54],[-71,77],[-39,20]],[[4096,653],[-37,6],[-159,-37],[-109,5]],[[3791,627],[110,-6],[195,31]],[[68,3369],[35,0]],[[100,1076],[-4,0]],[[1170,1822],[-16,-11],[-49,-93]],[[1105,1718],[67,104]],[[1284,1868],[-70,-33],[-12,1]],[[1203,1837],[81,31]],[[1284,1868],[29,18]],[[1318,1900],[20,103]],[[1338,2008],[1,4]],[[396,3102],[0,-2]],[[84,2294],[0,1]],[[88,1076]],[[154,2014],[1,0]],[[154,2013],[1,1]],[[155,2014],[35,4]],[[322,1142],[0,-1]],[[322,1141],[0,-1],[1,-1],[0,-2],[1,-3]],[[326,1142],[-3,0],[-1,0]],[[322,1142],[0,-1]],[[322,1141],[-1,0],[1,-4]],[[324,1134],[-1,4],[-1,4]],[[322,1142]],[[328,1142],[-2,0]],[[326,1142],[6,-1]],[[332,1141],[-3,1]],[[222,3428],[14,-14]],[[236,3415],[-14,13]],[[115,2632],[1,3]],[[577,4045],[24,-9]],[[211,1455],[-7,7]],[[214,1451],[-2,3]],[[0,2419],[6,0]],[[181,3811],[13,-7]],[[194,3804],[2,-1],[32,1],[44,5],[50,0],[72,-17]],[[355,3806],[-30,3],[-25,1],[-41,-2],[-26,-4],[-38,0],[-1,0]],[[194,3804],[-8,2]],[[377,3803],[-18,3]],[[394,3793],[-14,10]],[[7,2417],[-7,-4]],[[19,2375],[-8,-19]],[[67,2150],[33,-29]],[[181,1630],[2,-23]],[[214,1685],[-20,-34]],[[210,3431],[1,62]],[[337,1604],[-62,0]],[[518,2215],[-26,54]],[[415,665],[-19,17],[-2,0],[-63,-24]],[[331,658],[-12,-5],[-2,2]],[[317,655],[-24,17]],[[303,662],[11,-8],[3,1]],[[317,655],[14,3]],[[331,658],[13,3],[51,20],[19,-16]],[[115,3901],[0,16]],[[398,3614],[58,-1]],[[418,3223],[1,1]],[[114,2615],[0,1]],[[91,2909],[0,5]],[[380,3803],[-3,0]],[[41,2411],[2,0]],[[369,1896]],[[11,2427],[-9,0]],[[1330,2280],[-191,83],[-19,87]],[[1330,2281],[0,-1]],[[1330,2280],[1,1]],[[1537,2060],[-34,61]],[[90,2984],[0,8]],[[40,2867],[0,-10]],[[40,2857],[1,11]],[[59,2775],[-19,82]],[[6,2419],[-6,0]],[[142,1974],[4,-1]],[[146,1973],[28,-6],[9,-29]],[[183,1938],[1,-2],[4,-5]],[[190,1931],[-6,6],[-1,1]],[[183,1938],[-37,35]],[[146,1973],[-1,1]],[[89,1233],[-1,-32]],[[89,1201],[0,23]],[[92,1275],[0,-8]],[[135,1619],[2,15]],[[135,1619],[7,-90]],[[143,1525],[-8,94]],[[137,1634],[2,100]],[[139,1726],[-2,-92]],[[144,1789],[-6,-24]],[[138,1765],[0,-2]],[[139,1747],[-1,3],[0,15]],[[138,1765]],[[142,1528],[0,-4]],[[152,1809],[4,15]],[[156,1824],[-3,-10]],[[159,1830],[-3,-6]],[[368,3489],[1,-3]],[[369,3486],[-1,3]],[[397,3322],[-28,164]],[[395,3298],[-20,-47]],[[395,3298],[1,5],[1,19]],[[397,3322],[-2,-24]],[[366,3560],[-1,-8]],[[76,1077],[-13,-31]],[[205,3367],[-181,2]],[[1202,1836],[-32,-14]],[[1172,1822],[31,15]],[[1313,1886],[5,14]],[[1482,3523],[115,36]],[[2231,3332],[-31,3]],[[2373,3305],[-44,14]],[[2438,3244],[-36,48]],[[2480,3181],[-15,23]],[[2576,3074],[-2,2]],[[2576,3074]],[[2776,2937],[-180,125]],[[2845,2893],[-46,28]],[[3015,2898],[82,18]],[[3165,2913],[57,5]],[[3283,2919],[153,-24],[112,22]],[[3548,2917],[0,14]],[[3548,2931],[-32,40],[45,74],[102,8]],[[3664,3053],[65,135],[56,9]],[[3912,3152],[-90,57],[-2,-1]],[[3820,3208],[-35,-11]],[[3785,3197],[34,12],[1,-1]],[[3820,3208],[77,-49],[15,-7]],[[3912,3152],[47,-9],[137,55]],[[43,2408]],[[43,2410],[0,1]],[[163,705],[7,-2]],[[414,4050],[1,-23]],[[700,3324],[-20,-23],[-4,-15]],[[677,3286],[23,38]],[[700,3324],[104,26],[38,59]],[[1048,3546],[7,-1]],[[4,2423],[-4,-1]],[[89,1224],[3,24],[0,19],[-3,-34]],[[138,1765],[14,44]],[[139,1734],[0,13]],[[142,1529],[0,-1]],[[153,1814],[-9,-25]],[[449,4049],[14,2]],[[6,2419],[8,1]],[[326,3630],[11,0]],[[1115,3523],[-90,39]],[[1482,3523],[-77,-26],[-288,26]],[[1597,3559],[14,4]],[[1656,3571],[192,-33]],[[1656,3571],[-8,-1],[-6,-1],[8,1],[6,1]],[[2200,3335],[-85,48],[-19,48],[-60,-7],[-126,68]],[[2329,3319],[-98,13]],[[2402,3292],[-29,13]],[[2465,3204],[-27,40]],[[2574,3076],[-94,105]],[[2576,3074]],[[2596,3062],[-20,12]],[[2799,2921],[-23,16]],[[3015,2898],[-170,-5]],[[3097,2916],[68,-3]],[[3222,2918],[61,1]],[[3663,3053],[1,0]],[[491,1391],[14,-14]],[[506,1376],[-1,1]],[[506,1376],[5,-3]],[[519,1371],[-7,2]],[[463,4051],[114,-6]],[[608,4023],[-6,18],[-15,5],[-121,10]],[[601,4036],[5,-13]],[[617,2863],[-1,-24]],[[414,665],[30,-63]],[[444,602],[-29,63]],[[444,602],[52,-41]],[[377,4062],[1,34]],[[401,3690],[-2,6]],[[399,3655],[0,9]],[[402,3671],[-3,-7]],[[401,3690],[6,-1]],[[402,3671],[3,3]],[[408,3677],[-3,-3]],[[408,3677],[-1,12]],[[279,1500],[7,230]],[[281,1478],[0,17]],[[281,1478],[0,-21]],[[281,1457],[0,21]],[[163,3814],[-36,-11]],[[180,3811],[-17,3]],[[412,1549],[14,15]],[[117,1841],[-78,14]],[[40,1854],[90,-22]],[[91,2908]],[[53,2993],[4,0]],[[1338,2003],[0,5]],[[1339,2012],[2,13]],[[77,713],[7,-3]],[[145,706],[0,2]],[[160,1833],[-1,-3]],[[16,2432],[-5,8],[-7,8],[-4,3]],[[0,2520],[27,0]],[[27,2521],[-27,-1]],[[9,3181],[-9,0]],[[1,2867],[-1,0]],[[0,2291],[3,-1],[8,1]],[[11,2291],[32,0]],[[11,2292],[-11,0]],[[7,2444],[7,-11]],[[16,3181],[-7,0]],[[9,3181],[6,0]],[[11,2286],[0,-4]],[[11,2286],[0,2],[0,3]],[[11,2291],[0,1]],[[13,2269],[-1,11]],[[12,2280],[-1,6]],[[43,2292],[-32,0]],[[12,2281],[0,-1]],[[12,2280],[0,-12]],[[13,2427],[0,-3]],[[14,2433],[2,-2]],[[16,2432],[-2,1]],[[16,2431],[0,1]],[[16,2431],[6,-9]],[[21,2383],[-2,-8]],[[19,2155],[0,-4]],[[19,2155],[3,-2]],[[27,2148],[-8,7]],[[21,2373],[0,10]],[[21,2422],[2,-15]],[[23,2389],[-2,-6]],[[29,2187],[12,-14]],[[34,2130],[-3,5]],[[43,2290],[-2,-117]],[[41,2173],[17,-15]],[[43,2299],[0,-7]],[[43,2292],[0,-1]],[[43,2292]],[[43,2291]],[[43,2291],[0,-1]],[[43,2372]],[[43,2372]],[[43,2364],[0,15],[0,3],[0,-10]],[[43,2372],[0,-7],[0,-1]],[[43,2299],[0,65]],[[43,2290],[0,1]],[[43,2292],[0,7]],[[43,2291],[0,1]],[[53,2292],[-10,0]],[[43,2291],[10,0]],[[64,1719],[9,-8]],[[80,1076],[-4,1]],[[90,3108],[-2,71]],[[88,1186],[45,0]],[[133,1186],[-45,0]],[[100,2121],[50,-95]],[[114,2607],[0,2]],[[125,2674],[-1,-4]],[[125,2669],[0,5]],[[125,2675],[0,-1]],[[127,1701],[72,-1]],[[141,1186],[-8,0]],[[145,706],[1,-22]],[[150,3305],[0,3]],[[150,3305],[4,-93]],[[150,3330],[0,-22]],[[153,2016],[-3,10]],[[150,2026],[2,-18]],[[152,2008],[1,4]],[[152,2008],[7,-81]],[[153,2014],[-1,-1]],[[163,1921],[-4,6]],[[163,1921],[-2,-84]],[[275,1604],[-92,3]],[[202,3357],[-9,10]],[[203,1698],[-4,2]],[[203,1698],[11,-13]],[[219,3418],[-9,13]],[[427,1620],[-90,-16]],[[376,1859],[-10,-2]],[[366,1857],[10,2]],[[368,1918],[-1,3]],[[369,1896],[-1,3]],[[370,1894],[-1,2]],[[376,1859],[6,2]],[[382,1861],[5,1]],[[388,1863],[-6,-2]],[[387,1862],[1,1]],[[388,1863],[2,1],[3,2]],[[387,1863],[0,-1]],[[393,1866],[-5,-3]],[[388,1863]],[[388,1863]],[[416,1434],[-3,0]],[[414,4061],[0,-11]],[[476,2756],[-15,0]],[[462,2756],[14,0]],[[611,2732],[-135,24]],[[492,2269],[-15,10]],[[636,2737],[-14,-3]],[[716,2690]],[[89,2905],[2,3]],[[181,702],[-8,2]],[[69,2768],[-1,0]],[[70,2766],[1,1]],[[435,3084],[65,13]],[[499,3100],[-47,-7],[-17,-8]],[[170,703],[3,0]],[[686,2716],[-36,16]],[[116,2635],[12,40]],[[634,3423],[48,193]],[[225,1822],[-17,8],[-25,0],[-39,-4],[-27,15]],[[130,1832],[14,-6],[22,-3],[73,-2]],[[8,2436],[-8,-1]],[[11,2423],[-7,0]],[[50,952],[21,29]],[[75,989],[-22,-31]],[[88,1010],[14,37]],[[101,1049],[-12,-33]],[[18,2423]],[[21,2422],[-3,1]],[[288,1367],[0,-72]],[[357,1655],[17,116]],[[4,2423],[-4,-1]],[[178,2695],[-1,-1]],[[178,2695],[5,7]],[[184,2703],[-1,-1]],[[184,2703],[9,6]],[[198,2709],[-5,0]],[[211,2716],[-6,-6]],[[215,2719],[-3,-2]],[[219,2724],[-4,-4]],[[220,2725],[-1,-1]],[[226,2732],[-5,-6]],[[232,2738],[-5,-5]],[[1910,3492],[-62,46]],[[152,3803],[3,4]],[[163,3814]],[[163,3814],[13,0]],[[1025,3562],[-181,192]],[[1117,3523],[-2,0]],[[1611,3563],[31,6]],[[89,2788],[-6,-8]],[[83,2782],[6,6]],[[89,2788],[22,40]],[[391,3099],[5,1]],[[407,2319],[11,3]],[[76,2890]],[[91,2908],[-2,-3]],[[14,2420],[-7,-3]],[[113,3921],[-113,96]],[[91,2914],[0,8]],[[119,2348],[2,-4]],[[370,3757],[-79,-31]],[[136,1753],[-5,-22]],[[131,1731],[1,-1]],[[132,1730],[4,-3]],[[131,1731],[1,-1]],[[132,1730],[2,-1],[2,-2]],[[134,1751],[-8,-6],[3,-13],[2,-2],[1,0]],[[132,1730]],[[132,1730],[3,0]],[[136,1727],[3,-1]],[[695,3842],[3,2]],[[150,3367],[0,-37]],[[394,3793],[0,-1]],[[531,3101],[12,32]],[[543,3133],[3,8],[1,3],[60,107],[55,3],[15,32]],[[676,3286],[-15,-31],[-53,-1],[-57,-80],[-5,-33],[-3,-8]],[[543,3133],[-8,-28]],[[88,1076],[4,0]],[[96,1076],[-8,0]],[[233,2757],[1,-16]],[[287,3723],[2,3]],[[463,1984],[21,12]],[[491,2000],[7,3]],[[14,2427],[2,0]],[[18,2423],[-2,4]],[[16,2427],[1,1]],[[134,1812],[-9,-22],[1,-21],[8,-11]],[[138,1735],[-3,75]],[[337,3630],[-11,0]],[[524,3099],[-5,-13]],[[519,3086],[1,-3]],[[580,2987],[-23,1],[-37,95]],[[581,2987],[-1,0]],[[580,2987],[1,0]],[[582,2987],[4,-1]],[[583,2987],[-1,0]],[[587,2987],[-2,0]],[[587,2986],[1,-1]],[[589,2985],[-1,1]],[[591,2981],[1,-1]],[[592,2980],[-1,2]],[[592,2979],[1,-1]],[[593,2978],[0,2]],[[593,2978]],[[617,2863],[-21,111]],[[650,2732],[-3,1]],[[755,2659],[16,-4],[20,-1],[28,4]],[[819,2658],[-64,2]],[[1120,2450],[-15,61],[-286,147]],[[1338,2281],[-7,1]],[[1331,2281],[7,0]],[[1338,2281],[143,-64],[2,-57]],[[1483,2160],[4,-1]],[[1487,2159],[-4,1]],[[1487,2158],[1,-2]],[[1488,2156],[0,2]],[[1488,2156],[15,-35]],[[1593,1932],[35,42],[-91,86]],[[1593,1932],[-1,0]],[[1592,1932],[-1,0],[0,-1],[1,0],[0,1]],[[1592,1931],[1,1]],[[581,2987],[1,0],[0,1],[-1,-1]],[[588,2987],[-2,0],[1,-1],[1,0]],[[588,2986],[0,1]],[[593,2980],[-1,0],[1,-1],[0,1]],[[0,2494],[38,0]],[[133,2321],[2,-3]],[[415,4027],[1,-41]],[[426,1564],[2,183],[-35,119]],[[412,1549],[0,-116]],[[11,2427],[-9,0]],[[397,3318],[-1,0]],[[11,2459],[3,-5]],[[161,1837],[-1,-4]],[[4096,4096],[0,-4096],[-4096,0],[0,1318],[12,3],[32,46],[15,66],[-5,80],[-25,57],[-29,41],[0,679],[8,51],[3,69],[-11,40],[0,1119],[12,22],[8,95],[8,67],[28,60],[0,42],[12,35],[23,22],[58,43],[20,24],[25,20],[104,23],[25,24],[58,37],[3,13],[3712,0]],[[2472,0],[72,90],[37,-1],[36,77],[-35,23],[218,-10],[68,-46],[15,-61],[43,-5],[9,-66],[-463,-1]],[[3270,4096],[80,0],[3,-58],[43,-2],[39,45],[50,-24],[50,29],[61,-14],[101,-88],[6,-65],[36,-45],[-6,-97],[-66,17],[-35,-54],[-35,29],[-79,7],[16,-128],[62,-36],[0,-110],[81,0],[36,40],[26,-35],[18,59],[77,-14],[10,-41],[21,22],[22,-13],[0,-104],[-64,22],[-26,-32],[-100,-33],[-25,-47],[18,-33],[-33,-38],[40,11],[18,-30],[-56,-26],[0,-48],[-37,12],[-30,-78],[-58,-16],[0,48],[-63,0],[0,63],[-63,0],[-2,-41],[-56,-16],[-18,63],[12,-156],[-41,-49],[-107,36],[-88,-34],[-101,25],[36,137],[53,-28],[0,-63],[63,0],[-14,149],[52,-27],[86,-1],[-4,28],[-77,23],[-23,86],[81,54],[90,20],[-74,8],[-117,-72],[-32,44],[-21,195],[-62,11],[5,28],[-70,22],[5,30],[-26,11],[58,114],[106,36],[-22,12],[-16,-21],[-7,6],[8,-7],[-79,-1],[-11,-63],[-60,-78],[-187,41],[-105,-11],[1,231],[-15,-174],[-140,22],[110,-109],[-30,0],[-3,-62],[-35,-47],[-72,-15],[-37,-60],[-149,-30],[0,47],[-114,-14],[19,30],[-51,0],[-10,64],[-30,0],[1,93],[18,0],[-18,63],[128,0],[0,31],[-63,-15],[40,15],[-40,32],[87,27],[0,31],[252,1],[0,62],[-65,16],[-16,31],[1,78],[49,-8],[12,-54],[63,0],[-2,-63],[65,0],[-16,78],[58,-13],[47,27],[53,68],[94,-51],[9,38],[-50,24],[281,0],[25,-21],[80,1],[18,20],[27,0],[33,-11],[12,11]],[[3150,3902],[8,6],[-3,2],[-5,-8]],[[3202,3886],[67,-130],[-67,129],[0,1]],[[2744,3990],[27,-108],[41,-65],[-68,173]],[[2857,3744],[6,-10],[43,1],[-49,9]],[[2952,3832],[102,11],[-102,-11]],[[2152,3672],[28,-7],[30,13],[-26,0],[-32,-6]],[[2428,3382],[29,42],[6,87],[40,24],[76,-26],[-45,42],[74,88],[42,10],[5,41],[73,9],[193,-46],[-7,-172],[48,-49],[6,-114],[64,12],[19,-114],[-14,-27],[-131,1],[0,-61],[-40,0],[-23,62],[-61,0],[-32,-124],[32,0],[-1,-53],[-56,-14],[-68,32],[0,46],[-62,64],[0,42],[-62,22],[-5,47],[166,-52],[-104,40],[-32,47],[-68,17],[-31,35],[21,6],[-52,36]],[[1084,0],[-2,186],[384,-2],[-36,-152],[-59,0],[-9,-32],[-278,0]],[[580,937],[125,0],[1,-125],[-65,1],[-1,63],[-59,0],[-1,61]],[[67,1800],[5,39],[65,-15],[2,-108],[-34,-43],[-34,41],[-4,86]],[[3712,841],[4,33],[23,-39],[12,23],[113,-92],[-11,-48],[47,-54],[-30,-25],[-45,68],[13,55],[-72,25],[-54,54]],[[4096,2443],[-55,27],[30,35],[25,-13],[0,-49]],[[2935,0],[-9,67],[-43,5],[-15,61],[-67,43],[15,40],[-16,-37],[-218,10],[35,-23],[-36,-77],[-37,1],[-72,-90],[-781,0],[32,58],[-14,28],[-50,27],[-24,53],[-71,-1],[10,22],[610,3],[-1,373],[-61,0],[-1,-62],[-61,0],[2,62],[-248,0],[2,151],[-62,1],[0,-32],[-61,2],[0,31],[-31,0],[0,31],[31,-1],[1,110],[107,-17],[15,-31],[183,-3],[0,-57],[62,1],[16,29],[47,-31],[60,0],[0,-56],[60,-2],[0,-65],[94,0],[0,33],[31,0],[0,-33],[61,-1],[1,61],[60,1],[31,31],[32,0],[0,-32],[59,1],[0,63],[62,-1],[0,63],[-108,0],[-13,-31],[1,31],[-61,0],[0,-63],[-125,-26],[0,31],[-62,1],[0,55],[-62,1],[1,61],[-340,-2],[0,-31],[-79,21],[0,451],[-381,0],[0,361],[441,-4],[0,84],[123,-25],[1,63],[31,-1],[14,187],[-40,61],[0,125],[-31,0],[1,125],[62,0],[-1,131],[-30,0],[3,185],[109,0],[-16,-47],[-78,-16],[-2,-62],[45,0],[-1,-60],[32,-1],[32,-69],[123,4],[31,25],[67,-26],[115,33],[123,-12],[39,-73],[-57,36],[-84,-3],[-29,-23],[11,-31],[-48,13],[-52,-69],[41,-41],[77,-13],[178,-167],[88,-5],[161,106],[23,-13],[-19,-43],[-118,-79],[-28,-38],[19,-27],[-89,2],[-104,53],[-29,100],[-149,60],[-86,70],[-112,-46],[-17,-38],[-44,-12],[-1,-54],[25,0],[0,-61],[-29,-1],[0,-31],[29,0],[0,-264],[142,-110],[82,10],[114,-25],[37,8],[55,134],[-39,106],[53,0],[55,-46],[41,23],[-33,-34],[24,-64],[101,33],[15,-55],[24,-7],[-1,-94],[0,-31],[62,0],[0,-68],[64,0],[-1,125],[94,-16],[43,35],[44,124],[41,32],[45,-5],[40,30],[-17,35],[72,24],[19,-61],[30,-4],[52,-80],[109,-66],[49,0],[-1,37],[62,54],[-2,80],[61,54],[-89,193],[55,17],[-75,92],[5,33],[105,-126],[173,4],[34,-38],[-10,-26],[75,0],[0,-72],[65,-67],[-18,-45],[44,-13],[0,-611],[-117,1],[-15,-93],[-16,32],[-92,0],[1,-187],[-127,1],[21,-117],[-35,40],[-50,-23],[3,46],[-49,54],[-31,-22],[30,-31],[-30,0],[-1,-110],[-50,-9],[-12,57],[-60,1],[1,116],[-248,2],[0,-56],[-121,0],[-2,-248],[61,-1],[-1,-62],[124,1],[32,60],[92,1],[0,62],[62,-1],[0,-31],[61,0],[-1,-32],[31,0],[30,-63],[61,0],[0,-63],[185,1],[0,-63],[263,-2],[0,-458],[-1161,0]],[[3023,636],[-8,66],[-1,1],[9,-67]],[[2921,1040],[-1,1],[-54,16],[55,-17]],[[2616,1162],[43,107],[-1,1],[-42,-108]],[[2563,1353],[1,3],[-2,-2],[1,-1]],[[2598,1405],[27,14],[-18,-2],[-9,-12]],[[3403,587],[62,0],[1,62],[-62,0],[-1,-62]],[[1836,3123],[0,243],[125,0],[1,61],[63,1],[-1,-125],[63,1],[0,31],[123,0],[-63,25],[1,36],[63,31],[0,78],[62,0],[0,-47],[64,0],[30,31],[55,-1],[37,60],[70,14],[37,48],[3,62],[31,4],[-111,105],[140,-22],[-1,155],[16,19],[-1,-231],[105,11],[187,-41],[60,78],[11,63],[117,19],[-107,-44],[-58,-114],[26,-11],[-15,-21],[79,-30],[-4,-30],[62,-10],[21,-195],[32,-44],[117,72],[74,-8],[-90,-20],[-81,-54],[23,-86],[77,-23],[4,-28],[-86,1],[-52,27],[14,-149],[-63,0],[0,63],[-53,28],[-36,-137],[101,-25],[88,34],[107,-36],[41,49],[0,102],[59,5],[5,43],[63,0],[0,-63],[63,0],[5,-49],[100,19],[-47,12],[30,64],[37,-12],[0,48],[57,28],[-19,28],[-40,-11],[33,38],[-14,51],[147,94],[63,-22],[5,91],[-25,26],[-22,-22],[-7,40],[-79,15],[-19,-59],[-26,35],[-36,-40],[-81,0],[0,110],[-62,36],[-16,128],[79,-7],[35,-29],[24,49],[54,-1],[94,-76],[115,-44],[78,1],[53,63],[8,96],[38,47],[0,-774],[-72,0],[-86,-75],[-101,-34],[-47,-54],[-52,10],[-8,24],[-11,-24],[-49,-3],[14,69],[-52,-119],[19,-37],[-23,-42],[-32,-1],[-1,63],[-126,0],[-59,-44],[-27,44],[-39,0],[9,-98],[39,-82],[-20,-101],[-26,0],[-10,77],[-59,3],[-60,54],[-57,-8],[0,-63],[-92,-112],[-95,53],[1,87],[-120,-12],[13,-45],[-71,-192],[-21,48],[48,131],[-51,68],[-164,-120],[23,68],[92,55],[0,121],[-272,0],[0,-115],[-51,39],[-35,-4],[-16,-115],[82,-42],[101,-98],[-40,1],[-67,28],[-65,67],[-108,29],[-46,48],[0,-48],[-62,1],[0,62],[62,0],[0,123],[-60,1],[0,62],[60,0],[2,123],[-121,0],[-2,-61],[-62,1],[0,61],[-59,2],[0,126],[-63,-1],[0,-61],[-65,3],[0,81]],[[3344,2878],[0,27],[-62,-8],[1,44],[-61,0],[-1,-55],[-46,-6],[15,-17],[154,15]],[[3283,2941],[31,0],[-1,15],[-30,0],[0,-15]],[[3640,3097],[44,-82],[-44,82]],[[2403,3212],[7,-154],[124,0],[-3,37],[35,-30],[24,-5],[-25,24],[44,-41],[16,-6],[-22,3],[-7,13],[5,-19],[31,-15],[5,-22],[-2,28],[52,-35],[-31,-4],[11,-15],[15,15],[21,-20],[16,10],[-16,0],[-8,11],[15,-8],[9,1],[-123,81],[-1,81],[62,-64],[0,-46],[77,-34],[47,16],[1,53],[-32,0],[32,124],[61,0],[23,-62],[40,0],[0,61],[131,-1],[18,79],[-23,0],[0,62],[-64,-12],[-6,114],[-48,49],[7,172],[-193,46],[-73,-9],[-5,-41],[-42,-10],[-74,-88],[41,-25],[4,-17],[-76,26],[-40,-24],[-6,-87],[-29,-42],[52,-36],[-21,-6],[31,-35],[68,-17],[32,-47],[54,-7],[50,-34],[-160,58],[-1,-52],[37,-23],[-105,-2],[0,47],[-16,16],[-37,-1],[45,-31],[10,-61],[-33,0],[0,45],[-31,16]],[[2719,2935],[2,-63],[253,8],[0,-62],[185,-2],[15,47],[-14,78],[-62,0],[-1,-48],[-47,-29],[0,-31],[-15,59],[-62,18],[-18,47],[-46,-24],[2,-24],[-64,-4],[-4,-25],[-61,57],[-63,-2]],[[2208,3242],[38,0],[-22,7],[18,40],[15,-31],[79,16],[66,-31],[-1,63],[-65,-1],[-16,31],[0,31],[81,-16],[-1,43],[-28,-11],[28,48],[-158,-4],[31,-30],[-47,0],[0,-31],[47,16],[0,-34],[-44,-13],[37,-31],[-56,0],[-2,-62]],[[2849,2844],[1,-31],[62,3],[-1,31],[-62,-3]],[[3191,2972],[15,0],[0,15],[-15,0],[0,-15]],[[3206,3003],[1,-16],[15,0],[0,16],[-16,0]],[[2688,2951],[0,-15],[15,-1],[0,16],[-15,0]],[[2194,3366],[16,0],[1,16],[-16,0],[-1,-16]],[[3225,4096],[45,0],[-12,-11],[-33,11]],[[3074,4096],[124,0],[-18,-20],[-80,-1],[-26,21]],[[2599,4096],[173,0],[29,-19],[33,5],[1,-48],[-94,51],[-53,-68],[-46,-27],[-39,11],[-4,95]],[[4096,3918],[-25,74],[25,43],[0,-117]],[[1665,1672],[16,24],[68,17],[14,0],[16,-11],[10,2],[6,5],[13,4],[31,4],[23,20],[81,-2],[117,-61],[13,-15],[54,-4],[20,-16],[19,6],[4,-1],[4,-8],[0,-14],[5,-10],[0,-8],[11,-5],[11,-32],[43,-19],[9,-14],[9,2],[28,-10],[10,-7],[3,0],[17,-22],[1,43],[69,-54],[17,12],[90,18],[27,-9],[5,-6],[6,0],[84,43],[145,-15],[13,-11],[2,-33],[-12,-74],[19,-21],[30,-47],[6,-17],[3,-24],[-3,-21],[15,-36],[15,-7],[7,-6],[18,-42],[77,-54],[100,-117],[21,-72],[158,-69],[51,16],[18,-2],[16,4],[11,-2],[16,-8],[135,-114],[113,-28],[15,-5],[160,-83],[35,-44],[144,-28],[106,38],[30,1],[13,-3],[-138,-37],[-18,-1],[-104,23],[-2,-21],[-34,1],[-27,11],[15,22],[-25,40],[-161,82],[-122,31],[-140,117],[-110,-11],[-156,68],[-48,105],[-151,139],[-41,57],[-14,35],[-5,62],[-51,68],[-2,115],[-142,5],[-84,-51],[-37,35],[-104,-33],[-76,9],[-122,77],[-21,33],[-6,42],[-21,-9],[-83,21],[-117,73],[-30,-6],[30,-56],[-131,19],[-74,-17],[-18,25],[43,8],[-20,10],[-84,-39]],[[584,2084],[46,23],[2,52],[46,-20],[16,37],[70,-15],[2,31],[36,-12],[-31,-5],[-2,-122],[19,0],[-45,-30],[-35,30],[-32,0],[0,-29],[-9,27],[-18,-17],[-65,50]],[[2119,3397],[48,-29],[36,34],[53,-22],[30,28],[136,21],[-25,-59],[-62,32],[-113,-56],[-63,9],[-40,42]],[[2194,3366],[16,0],[1,16],[-16,0],[-1,-16]],[[1902,3740],[6,63],[26,-59],[31,-3],[30,-125],[46,0],[-14,-38],[-95,-19],[0,41],[57,16],[-63,124],[-24,0]],[[1503,1872],[0,46],[30,32],[0,-31],[77,-76],[0,-65],[30,-47],[-61,0],[-11,86],[-65,55]],[[809,3483],[15,58],[47,6],[1,-33],[32,0],[13,-72],[-46,-4],[-7,-25],[-55,70]],[[1081,1678],[41,57],[115,1],[1,-60],[-40,0],[0,-38],[-65,1],[0,38],[-52,1]],[[1362,0],[9,32],[60,1],[34,152],[170,-19],[88,-108],[-32,-58],[-329,0]],[[0,2431],[0,553],[10,5],[29,-7],[-27,-116],[27,-77],[167,-114],[-21,-65],[-140,-79],[32,-96],[65,-48],[-3,-52],[-30,-140],[47,-111],[118,-158],[75,-9],[149,87],[64,-96],[-64,-192],[0,-96],[-33,0],[33,-287],[-98,-48],[29,-141],[-29,-50],[0,-97],[-32,0],[-32,-95],[-89,-11],[-8,-37],[-40,75],[-25,212],[-77,-61],[-34,-77],[-63,-40],[0,179],[12,0],[-7,177],[39,48],[10,146],[-54,98],[0,696],[11,103],[-11,21]],[[0,551],[0,328],[69,-78],[8,-91],[185,-12],[41,-36],[-17,-57],[-112,-87],[0,-95],[-90,-10],[-7,-38],[-23,16],[-10,128],[-44,32]],[[644,2726],[48,45],[40,-88],[25,-8],[-10,-48],[-88,-48],[-32,-96],[-32,0],[0,-192],[-97,-96],[-48,-9],[-50,153],[-103,73],[6,71],[64,1],[130,95],[-7,34],[-90,14],[-17,436],[17,43],[98,0],[64,-265],[82,-115]],[[374,4096],[113,0],[-22,-32],[-32,-239],[-32,-49],[69,-204],[-5,-83],[-170,-1],[-24,49],[-29,-34],[-50,-183],[14,-70],[33,0],[-33,-49],[67,-130],[-2,-61],[-65,0],[-32,48],[-65,0],[0,48],[-109,11],[0,203],[62,129],[-9,152],[40,132],[93,84],[85,25],[20,143],[67,34],[16,77]],[[822,1983],[9,69],[63,-2],[17,-120],[-79,-30],[-10,83]],[[855,2007],[8,-16],[15,0],[0,16],[-23,0]],[[1949,1820],[10,46],[72,61],[1,34],[61,21],[22,21],[-16,12],[49,23],[48,-3],[0,-61],[-29,-1],[0,-31],[29,0],[0,-93],[-61,-1],[-1,-60],[62,30],[0,-149],[-140,22],[-43,39],[14,58],[-78,32]],[[2086,1728],[48,0],[0,60],[-30,0],[15,-46],[-33,-14]],[[2042,1788],[30,-1],[1,29],[-30,1],[-1,-29]],[[928,2104],[53,7],[6,-30],[32,-1],[0,30],[112,-2],[40,-29],[1,-31],[40,13],[48,-53],[21,-86],[39,0],[-22,85],[26,3],[7,-47],[-16,-76],[-159,-72],[-74,-106],[-44,30],[45,0],[-1,124],[-57,1],[-15,63],[-67,19],[-6,42],[38,18],[-2,38],[-45,60]],[[147,3770],[16,44],[15,-57],[51,13],[0,-69],[-35,-38],[-43,46],[-4,61]],[[3856,1075],[0,62],[92,0],[16,-32],[15,93],[117,-1],[0,-217],[-54,1],[0,-30],[54,-1],[0,-148],[-15,29],[-61,0],[-1,62],[-63,0],[0,32],[-99,25],[-1,125]],[[3948,981],[32,-1],[0,32],[-32,0],[0,-31]],[[1689,2013],[7,48],[47,-15],[-38,27],[31,3],[2,32],[30,6],[34,55],[53,-5],[5,-63],[94,0],[30,124],[62,1],[0,-63],[-30,0],[0,-93],[31,0],[0,-32],[64,0],[4,-32],[-49,-41],[-40,10],[5,-48],[-49,2],[7,-48],[-62,0],[-36,47],[-47,-5],[-15,25],[-20,-22],[-27,18],[-16,-28],[0,22],[-16,-22],[-41,13],[-20,84]],[[1890,1972],[0,-29],[31,0],[0,29],[-31,0]],[[2033,2476],[2,62],[78,16],[16,47],[77,-1],[0,48],[46,-48],[120,-36],[55,-61],[105,-28],[-101,98],[-82,42],[24,125],[78,-45],[0,115],[272,0],[0,-121],[-92,-55],[-23,-68],[164,120],[51,-68],[-48,-131],[21,-48],[71,192],[-13,45],[120,12],[-1,-87],[95,-53],[92,112],[0,63],[57,8],[60,-54],[59,-3],[10,-77],[26,0],[20,101],[-39,82],[-9,98],[39,0],[27,-44],[59,44],[126,0],[1,-63],[32,1],[30,125],[61,7],[11,24],[8,-24],[52,-10],[47,54],[101,34],[86,75],[72,0],[0,-609],[-25,13],[-2,-6],[-8,-3],[-13,-19],[-6,-5],[-1,-2],[55,-27],[0,-635],[-44,13],[18,45],[-65,67],[0,72],[-75,0],[10,26],[-34,38],[-173,-4],[-105,126],[-5,-33],[75,-92],[-55,-17],[89,-193],[-61,-54],[2,-80],[-62,-54],[1,-37],[-49,0],[-109,66],[-52,80],[-30,4],[-19,61],[-72,-24],[17,-35],[-40,-30],[-45,5],[-41,-32],[-44,-124],[-43,-35],[-94,16],[1,-125],[-64,0],[0,68],[-62,0],[1,125],[-24,7],[-15,55],[-101,-33],[-24,64],[33,34],[-41,-23],[-89,53],[-22,-18],[19,1],[23,-96],[-58,-136],[-230,9],[-142,110],[0,264],[-29,0],[0,31],[29,1],[0,61],[-25,0],[3,56],[171,94],[86,-70],[149,-60],[0,-50],[56,-76],[164,-30],[-17,28],[28,38],[57,52],[36,2],[44,68],[-69,-3],[-115,-90],[-88,5],[-178,167],[-77,13],[-42,42],[53,68],[48,-13],[-11,31],[29,23],[84,3],[57,-36],[-39,73],[-123,12],[-115,-33],[-67,26],[-31,-25],[-123,-4],[-32,69],[-32,1],[1,60],[-45,0]],[[4096,4096],[0,-61],[-25,-43],[25,-117],[-38,-47],[-8,-96],[-53,-63],[-92,2],[-152,80],[-55,231],[-102,90],[-61,14],[-50,-29],[-48,24],[-41,-45],[-43,2],[0,58],[743,0]],[[3188,837],[32,41],[61,-41],[0,-125],[-61,0],[0,125],[-32,0]],[[1467,3957],[0,29],[63,0],[0,62],[63,0],[0,48],[65,0],[-1,-47],[79,15],[13,-30],[94,-15],[2,33],[61,15],[239,-1],[10,30],[39,0],[30,-15],[0,-58],[-126,13],[-2,-48],[-45,0],[46,-47],[-5,-28],[-71,29],[0,31],[-46,-31],[-1,47],[-54,15],[16,-78],[31,0],[-34,-61],[-33,0],[0,61],[-31,0],[34,62],[-156,15],[-15,31],[-44,0],[-1,-47],[-31,0],[31,-62],[-197,-2],[-23,34]],[[1530,3986],[0,-32],[48,1],[0,31],[-48,0]],[[1593,4048],[0,-16],[32,1],[0,15],[-32,0]],[[1656,3987],[0,31],[-31,-1],[0,-31],[31,1]]]}