{"objects":{"water":{"type":"GeometryCollection","geometries":[{"type":"Polygon","properties":{"source":"naturalearthdata.com","kind":"ocean","area":1576712559132672,"sort_rank":200,"min_zoom":0.0,"id":1},"arcs":[[4],[5],[6]]},{"type":"LineString","properties":{"source":"naturalearthdata.com","kind":"ocean","sort_rank":205,"boundary":true,"min_zoom":0.0,"id":568},"arcs":[7]},{"type":"LineString","properties":{"source":"naturalearthdata.com","kind":"ocean","sort_rank":205,"boundary":true,"min_zoom":0.0,"id":569},"arcs":[8]}]},"buildings":{"type":"GeometryCollection","geometries":[]},"places":{"type":"GeometryCollection","geometries":[]},"transit":{"type":"GeometryCollection","geometries":[]},"pois":{"type":"GeometryCollection","geometries":[]},"boundaries":{"type":"GeometryCollection","geometries":[{"type":"LineString","properties":{"name:ka":"\u10d9\u10e3\u10d1\u10d0","name:ko":"\ucfe0\ubc14","name:cv":"\u041a\u0443\u0431\u0430","name:km":"\u1782\u17bb\u1799\u1794\u17b6","name:cs":"Kuba","name:tt":"\u041a\u0443\u0431\u0430","name:kw":"Kuba","name:kv":"\u041a\u0443\u0431\u0430","name:ku":"K\u00fbba","name:tl":"Kuba","name:pa":"\u0a15\u0a3f\u0a0a\u0a2c\u0a3e","name:os":"\u041a\u0443\u0431\u00e6","name:or":"\u0b15\u0b4d\u0b5f\u0b41\u0b2c\u0b3e","name:ce":"\u041a\u0443\u0431\u0430","name:ta":"\u0b95\u0bc2\u0baa\u0bbe","name:tg":"\u041a\u0443\u0431\u043e","name:te":"\u0c15\u0c4d\u0c2f\u0c42\u0c2c\u0c3e","source":"openstreetmap.org","sort_rank":262,"name:qu":"Kuba","name:de":"Kuba","name:tr":"K\u00fcba","name:nv":"Ky\u00f3oba","name:kn":"\u0c95\u0ccd\u0caf\u0cc2\u0cac\u0cbe","name:be":"\u041a\u0443\u0431\u0430","name:dv":"\u0786\u07a8\u0787\u07aa\u0784\u07a7","name:lv":"Kuba","name:lt":"Kuba","name:uz":"Kuba","name:kk":"\u041a\u0443\u0431\u0430","name:he":"\u05e7\u05d5\u05d1\u05d4","name:eo":"Kubo","name:ur":"\u06a9\u06cc\u0648\u0628\u0627","name:lb":"Kuba","name:uk":"\u041a\u0443\u0431\u0430","name:hy":"\u053f\u0578\u0582\u0562\u0561","name:ug":"\u0643\u06c7\u0628\u0627","name:hu":"Kuba","name:ln":"Kuba","name:el":"\u039a\u03bf\u03cd\u03b2\u03b1","kind":"country","name":"Cuba","name:tk":"Kuba","name:bn":"\u0995\u09bf\u0989\u09ac\u09be","name:gd":"C\u00f9ba","min_zoom":8.0,"name:th":"\u0e1b\u0e23\u0e30\u0e40\u0e17\u0e28\u0e04\u0e34\u0e27\u0e1a\u0e32","name:eu":"Kuba","name:et":"Kuuba","name:jv":"Kuba","name:yo":"K\u00fab\u00e0","name:ay":"Kuba","name:mt":"Kuba","name:az":"Kuba","name:id":"Kuba","name:mr":"\u0915\u094d\u092f\u0941\u092c\u093e","name:ar":"\u0643\u0648\u0628\u0627","name:my":"\u1000\u103b\u1030\u1038\u1018\u102c\u1038\u1014\u102d\u102f\u1004\u103a\u1004\u1036","name:io":"Kuba","name:is":"K\u00faba","name:am":"\u12a9\u1263","name:ru":"\u041a\u0443\u0431\u0430","id":-307833,"name:ml":"\u0d15\u0d4d\u0d2f\u0d42\u0d2c","name:rw":"Kiba","name:pl":"Kuba","name:mk":"\u041a\u0443\u0431\u0430","name:af":"Kuba","name:fa":"\u06a9\u0648\u0628\u0627","name:iu":"\u1582\u1439\/quupaa","name:mn":"\u041a\u0443\u0431\u0430","name:ss":"IKhuyubha","kind_detail":"2","name:hi":"\u0915\u094d\u092f\u0942\u092c\u093e","name:fo":"Kuba","name:ba":"\u041a\u0443\u0431\u0430","name:za":"Gujbah","name:zh-yue":"\u53e4\u5df4","name:fy":"Kuba","name:vo":"Kube\u00e4n","name:zh":"\u53e4\u5df4","name:hr":"Kuba","name:so":"Kuuba","name:sl":"Kuba","name:sk":"Kuba","name:ja":"\u30ad\u30e5\u30fc\u30d0","name:si":"\u0d9a\u0dd2\u0dba\u0dd4\u0db6\u0dcf\u0dc0","name:sh":"Kuba","name:na":"Kiuba","name:ne":"\u0915\u094d\u092f\u0941\u092c\u093e","name:br":"Kuba","name:bs":"Kuba","name:yi":"\u05e7\u05d5\u05d1\u05d0","name:wa":"Couba","name:bo":"\u0f40\u0f74\u0f0b\u0f56\u0f0d","name:sa":"\u0915\u094d\u092f\u0942\u092c\u093e","name:sw":"Kuba","name:sv":"Kuba","name:su":"Kuba","name:bg":"\u041a\u0443\u0431\u0430","name:wo":"Kubaa","name:sr":"\u041a\u0443\u0431\u0430","osm_relation":true,"name:sq":"Kuba","name:ga":"C\u00faba","name:bm":"Kuba","name:ht":"Kiba","name:gn":"Kuva","maritime_boundary":true,"name:gv":"Yn Choobey","name:fi":"Kuuba"},"arcs":[0]},{"type":"LineString","properties":{"name:right:ru":"\u041a\u0430\u043c\u0430\u0433\u0443\u044d\u0439","min_zoom":8.0,"name:left:ru":"\u0421\u044c\u0435\u0433\u043e-\u0434\u0435-\u0410\u0432\u0438\u043b\u0430","id:right":-1854630,"id":-1854631,"osm_relation":true,"name":"Ciego de \u00c1vila - Camag\u00fcey","kind":"region","name:left:en":"Ciego de Avila","sort_rank":256,"kind_detail":"4","source":"openstreetmap.org","maritime_boundary":true,"id:left":-1854631,"name:right":"Camag\u00fcey","name:left":"Ciego de \u00c1vila"},"arcs":[1]},{"type":"LineString","properties":{"kind":"region","name:en":"Ciego de Avila","name":"Ciego de \u00c1vila","sort_rank":256,"kind_detail":"4","min_zoom":8.0,"source":"openstreetmap.org","maritime_boundary":true,"name:ru":"\u0421\u044c\u0435\u0433\u043e-\u0434\u0435-\u0410\u0432\u0438\u043b\u0430","id":-1854631,"osm_relation":true},"arcs":[2]},{"type":"LineString","properties":{"kind":"region","name":"Camag\u00fcey","sort_rank":256,"kind_detail":"4","min_zoom":8.0,"source":"openstreetmap.org","maritime_boundary":true,"name:ru":"\u041a\u0430\u043c\u0430\u0433\u0443\u044d\u0439","id":-1854630,"osm_relation":true},"arcs":[3]}]},"roads":{"type":"GeometryCollection","geometries":[{"type":"MultiLineString","properties":{"sort_rank":380,"kind_detail":"primary","min_zoom":8.0,"kind":"major_road","source":"openstreetmap.org"},"arcs":[[9],[10],[11],[12],[13],[14],[15]]},{"type":"LineString","properties":{"source":"openstreetmap.org","kind":"major_road","sort_rank":380,"kind_detail":"primary","ref":"A7","min_zoom":8.0},"arcs":[16]},{"type":"MultiLineString","properties":{"source":"openstreetmap.org","kind":"major_road","sort_rank":380,"kind_detail":"primary","ref":"A6","min_zoom":8.0},"arcs":[[17],[18]]}]},"earth":{"type":"GeometryCollection","geometries":[{"type":"MultiPolygon","properties":{"sort_rank":10,"source":"naturalearthdata.com","min_zoom":0.0,"kind":"earth","area":6126195225},"arcs":[[[19]],[[20]]]}]},"landuse":{"type":"GeometryCollection","geometries":[]}},"type":"Topology","transform":{"translate":[-80.15625,19.3111433551],"scale":[0.0003433228,0.0003226662]},"arcs":[[[3155,4096],[38,-26],[699,-449],[204,-91]],[[3248,4035],[24,61]],[[3160,4096],[88,-61]],[[3248,4035],[644,-414],[204,-91]],[[4096,4096],[0,-4096],[-4096,0],[0,4096],[4096,0]],[[228,1063],[216,112],[75,22],[29,18],[11,5],[-49,29],[-80,-32],[-85,1],[-71,-11],[-56,-45],[-50,-29],[-42,-56],[102,-14]],[[828,1220],[-63,-78],[112,35],[237,70],[137,73],[-14,47],[-42,17],[-67,-18],[-99,-59],[-201,-87]],[[345,1218],[-71,-11],[-56,-45],[-50,-29],[-42,-56],[102,-14],[216,112],[75,22],[29,18],[11,5],[-49,29],[-80,-32],[-85,1]],[[828,1220],[-63,-78],[112,35],[237,70],[137,73],[-14,47],[-42,17],[-67,-18],[-99,-59],[-201,-87]],[[766,1157],[76,7]],[[766,1157],[0,-1]],[[808,1180],[70,38]],[[878,1218],[23,6]],[[878,1218],[168,81]],[[902,1224],[41,17]],[[1090,1308],[2,4]],[[1044,1242],[-202,-78],[-34,16]],[[1046,1299],[168,78]],[[1214,1377],[1,0],[-1,0]],[[559,1220],[-11,-5],[-29,-18],[-75,-22],[-216,-112],[-102,14],[42,56],[50,29],[56,45],[71,11],[85,-1],[80,32],[49,-29]],[[877,1177],[-112,-35],[63,78],[201,87],[99,59],[67,18],[42,-17],[14,-47],[-137,-73],[-237,-70]]]}