{"objects":{"water":{"type":"GeometryCollection","geometries":[{"type":"Polygon","properties":{"kind":"lake","name":"Lago Gatun","reservoir":true,"area":435254272,"sort_rank":200,"source":"naturalearthdata.com","min_zoom":0.0,"id":1082},"arcs":[[203]]},{"type":"MultiPolygon","properties":{"source":"naturalearthdata.com","kind":"ocean","area":1576712559132672,"sort_rank":200,"min_zoom":0.0,"id":1},"arcs":[[[204],[205],[206],[207],[208],[209],[210],[211],[212]],[[213],[214]]]},{"type":"Point","properties":{"label_placement":true,"kind":"lake","name":"Lago Gatun","reservoir":true,"area":435254272,"sort_rank":200,"source":"naturalearthdata.com","min_zoom":0.0,"id":1082},"coordinates":[821,2238]},{"type":"LineString","properties":{"source":"naturalearthdata.com","kind":"ocean","sort_rank":205,"boundary":true,"min_zoom":0.0,"id":76},"arcs":[215]},{"type":"LineString","properties":{"source":"naturalearthdata.com","kind":"ocean","sort_rank":205,"boundary":true,"min_zoom":0.0,"id":77},"arcs":[216]},{"type":"MultiLineString","properties":{"source":"naturalearthdata.com","kind":"ocean","sort_rank":205,"boundary":true,"min_zoom":0.0,"id":773},"arcs":[[217],[218]]},{"type":"LineString","properties":{"source":"naturalearthdata.com","kind":"lake","reservoir":true,"sort_rank":367,"boundary":true,"min_zoom":0.0,"id":1082},"arcs":[219]},{"type":"MultiLineString","properties":{"source":"naturalearthdata.com","kind":"ocean","sort_rank":205,"boundary":true,"min_zoom":0.0,"id":2875},"arcs":[[220],[221]]},{"type":"LineString","properties":{"source":"naturalearthdata.com","kind":"ocean","sort_rank":205,"boundary":true,"min_zoom":0.0,"id":3939},"arcs":[222]},{"type":"LineString","properties":{"source":"naturalearthdata.com","kind":"ocean","sort_rank":205,"boundary":true,"min_zoom":0.0,"id":4063},"arcs":[223]}]},"buildings":{"type":"GeometryCollection","geometries":[]},"places":{"type":"GeometryCollection","geometries":[{"type":"Point","properties":{"name:pt":"Cidade do Panam\u00e1","name:ka":"\u10de\u10d0\u10dc\u10d0\u10db\u10d0","name:ko":"\ud30c\ub098\ub9c8\uc2dc\ud2f0","name:th":"\u0e1b\u0e32\u0e19\u0e32\u0e21\u0e32\u0e0b\u0e34\u0e15\u0e35","name:tl":"Lungsod ng Panama","name:zh-min-nan":"Panam\u00e1 Chh\u012b","name:pl":"Panama","name:ta":"\u0baa\u0ba9\u0bbe\u0bae\u0bbe \u0ba8\u0b95\u0bb0\u0bae\u0bcd","name:ca":"Ciutat de Panam\u00e0","name:vi":"Th\u00e0nh ph\u1ed1 Panama","name:cy":"Dinas Panama","name:qu":"Panama llaqta","name:da":"Panama City","name:de":"Panama-Stadt","source":"openstreetmap.org","name:yo":"\u00ccl\u00fa Panam\u00e1","name:be":"\u041f\u0430\u043d\u0430\u043c\u0430","admin_level":"2","name:lv":"Panama","name:tr":"Panama","name:he":"\u05e4\u05e0\u05de\u05d4 \u05e1\u05d9\u05d8\u05d9","min_zoom":8.0,"kind":"locality","name:ur":"\u067e\u0627\u0646\u0627\u0645\u0627 \u0634\u06c1\u0631","name:la":"Urbs Panamensis","name:uk":"\u041f\u0430\u043d\u0430\u043c\u0430","country_capital":true,"name:ht":"Panama","name:hu":"Panamav\u00e1ros","name:hr":"Panam\u00e1","name:oc":"Ciutat de Panam\u00e0","population":880691,"name:el":"\u03a0\u03cc\u03bb\u03b7 \u03c4\u03bf\u03c5 \u03a0\u03b1\u03bd\u03b1\u03bc\u03ac","name:eo":"Panamurbo","name:en":"Panama","name":"Ciudad de Panam\u00e1","name:ku":"Panama","name:eu":"Panama Hiria","name:et":"Panam\u00e1","name:nl":"Panama-Stad","name:es":"Panam\u00e1","name:az":"Panama","name:ie":"Panam\u00e1 Cit\u00e9","name:id":"Kota Panama","name:mr":"\u092a\u0928\u093e\u092e\u093e \u0938\u093f\u091f\u0940","name:ar":"\u0645\u062f\u064a\u0646\u0629 \u0628\u0646\u0645\u0627","name:io":"Panama-Urbo","name:is":"Panamaborg","name:am":"\u1353\u1293\u121b \u12a8\u1270\u121b","name:it":"Panam\u00e1","name:an":"Ciudat de Panam\u00e1","name:ru":"\u041f\u0430\u043d\u0430\u043c\u0430","id":1242998122,"name:mk":"\u041f\u0430\u043d\u0430\u043c\u0430","name:af":"Panama-stad","name:fa":"\u067e\u0627\u0646\u0627\u0645\u0627\u0633\u06cc\u062a\u06cc","name:lt":"Panama","kind_detail":"city","name:sh":"Panam\u00e1","name:fr":"Panama","name:fy":"Panama-St\u00ead","name:zh":"\u5df4\u62ff\u99ac\u57ce","name:sk":"Panama","name:ja":"\u30d1\u30ca\u30de\u5e02","name:nn":"Panama by","name:no":"Panama by","name:bs":"Panama City","name:bn":"\u09aa\u09be\u09a8\u09be\u09ae\u09be \u09b8\u09bf\u099f\u09bf","name:bo":"\u0f54\u0f0b\u0f53\u0f0b\u0f58\u0f0d","name:sw":"Panama City","name:sv":"Panama City","name:bg":"\u041f\u0430\u043d\u0430\u043c\u0430","name:sr":"\u041f\u0430\u043d\u0430\u043c\u0430","name:gd":"Panama","name:gl":"Cidade de Panam\u00e1 - Ciudad de Panam\u00e1","name:gv":"Caayr ny Panamaa","name:fi":"Panam\u00e1"},"coordinates":[1812,1665]},{"type":"Point","properties":{"kind":"locality","name":"Col\u00f3n","name:lt":"Kolonas","name:ko":"\ucf5c\ub860 (\ud30c\ub098\ub9c8)","kind_detail":"city","source":"openstreetmap.org","min_zoom":8.0,"name:ru":"\u041a\u043e\u043b\u043e\u043d (\u041f\u0430\u043d\u0430\u043c\u0430)","name:zh":"\u79d1\u9686 (\u5df4\u62ff\u9a6c)","id":339209702,"population":78000},"coordinates":[757,2799]},{"type":"Point","properties":{"kind":"locality","name":"Cativ\u00e1","kind_detail":"town","source":"openstreetmap.org","min_zoom":8.0,"name:ru":"\u041a\u0430\u0442\u0438\u0432\u0430","id":343043185,"population":34282},"coordinates":[936,2821]},{"type":"Point","properties":{"source":"openstreetmap.org","kind":"locality","name":"San Carlos","kind_detail":"town","population":15541,"min_zoom":8.0,"id":1126761918},"coordinates":[576,209]},{"type":"Point","properties":{"kind":"locality","name":"La Mitra","kind_detail":"town","name:ur":"\u0644\u0627 \u0645\u06cc\u0679\u0631\u0627","source":"openstreetmap.org","min_zoom":8.0,"id":4919132508,"population":5326},"coordinates":[1089,1284]}]},"transit":{"type":"GeometryCollection","geometries":[{"type":"LineString","properties":{"source":"openstreetmap.org","kind":"train","name":"SFSFF","sort_rank":275,"min_zoom":6.0,"osm_relation":true,"id":-6120046},"arcs":[13]},{"type":"LineString","properties":{"layer":2.0,"name:en":"Line 1","name":"L\u00ednea 1","sort_rank":275,"kind":"subway","source":"openstreetmap.org","min_zoom":8.0,"id":346387798},"arcs":[14]},{"type":"MultiLineString","properties":{"source":"openstreetmap.org","kind":"subway","name:en":"Line 1","name":"L\u00ednea 1","sort_rank":275,"min_zoom":8.0},"arcs":[[15],[16]]},{"type":"MultiLineString","properties":{"kind":"subway","name:en":"Line 1","name":"L\u00ednea 1","sort_rank":275,"colour":"red","source":"openstreetmap.org","min_zoom":8.0,"osm_relation":true,"colour_name":"red"},"arcs":[[17],[18],[19],[20],[21],[22],[23],[24],[25],[26],[27],[28],[29],[30],[31],[32],[33],[34],[35],[36],[37],[38],[39],[40],[41],[42],[43],[44],[45],[46],[47],[48],[49],[50],[51],[52],[53],[54],[55],[56],[57],[58],[59],[60],[61],[62],[63],[64],[65],[66],[67],[68],[69],[70],[71],[72],[73],[74],[75],[76],[77],[78],[79],[80],[81],[82],[83],[84],[85],[86],[87],[88],[89],[90],[91],[92],[93],[94],[95],[96],[97],[98],[99],[100],[101],[102],[103],[104],[105],[106],[107],[108],[109],[110],[111],[112],[113],[114],[115],[116],[117],[118],[119],[120],[121],[122],[123],[124],[125],[126],[127],[128],[129],[130],[131],[132],[133],[134],[135],[136],[137],[138],[139],[140],[141],[142],[143],[144],[145],[146],[147],[148],[149],[150],[151],[152],[153],[154],[155],[156],[157],[158],[159],[160],[161],[162],[163],[164],[165],[166],[167],[168],[169],[170],[171],[172],[173],[174],[175],[176],[177],[178],[179],[180],[181],[182],[183],[184],[185],[186],[187],[188],[189],[190],[191],[192],[193],[194]]},{"type":"MultiLineString","properties":{"source":"openstreetmap.org","kind":"train","name":"Panama Railway","name:uk":"\u041f\u0430\u043d\u0430\u043c\u0441\u044c\u043a\u0430 \u0437\u0430\u043b\u0456\u0437\u043d\u0438\u0446\u044f","sort_rank":275,"min_zoom":6.0,"osm_relation":true},"arcs":[[195],[196],[197],[198],[199],[200],[201],[202]]}]},"pois":{"type":"GeometryCollection","geometries":[]},"boundaries":{"type":"GeometryCollection","geometries":[{"type":"MultiLineString","properties":{"name:ay":"Panama","name:ps":"\u067e\u0627\u0646\u0627\u0645\u0627","name:ka":"\u10de\u10d0\u10dc\u10d0\u10db\u10d0","name:ko":"\ud30c\ub098\ub9c8","name:cv":"\u041f\u0430\u043d\u0430\u043c\u0430","name:cs":"Panama","name:ki":"Panama","name:kw":"Panama","name:ku":"Panama","name:az":"Panama","name:tl":"Panama","name:pa":"\u0a2a\u0a28\u0a3e\u0a2e\u0a3e","name:os":"\u041f\u0430\u043d\u0430\u043c\u00e6","name:or":"\u0b2a\u0b3e\u0b28\u0b3e\u0b2e\u0b3e","name:ce":"\u041f\u0430\u043d\u0430\u043c\u0430","name:ta":"\u0baa\u0ba9\u0bbe\u0bae\u0bbe","name:tg":"\u041f\u0430\u043d\u0430\u043c\u0430","name:ca":"Panam\u00e0","name:te":"\u0c2a\u0c28\u0c3e\u0c2e\u0c3e","name:li":"Panama","name:cy":"Panama","source":"openstreetmap.org","sort_rank":262,"name:qu":"Panama","name:da":"Panama","name:de":"Panama","name:tr":"Panama","name:sq":"Panamaja","name:kn":"\u0caa\u0ca8\u0cbe\u0cae\u0cbe","name:be":"\u041f\u0430\u043d\u0430\u043c\u0430","name:dv":"\u0795\u07ac\u0782\u07a6\u0789\u07a7","name:lv":"Panama","name:lt":"Panama","name:uz":"Panama","name:kk":"\u041f\u0430\u043d\u0430\u043c\u0430","name:he":"\u05e4\u05e0\u05de\u05d4","name:eo":"Panamo","name:ur":"\u067e\u0627\u0646\u0627\u0645\u0627","name:lb":"Panama","name:la":"Panama","name:tt":"\u041f\u0430\u043d\u0430\u043c\u0430","name:uk":"\u041f\u0430\u043d\u0430\u043c\u0430","name:hy":"\u054a\u0561\u0576\u0561\u0574\u0561","name:ug":"\u067e\u0627\u0646\u0627\u0645\u0627","name:hu":"Panama","name:ln":"Panama","name:oc":"Panam\u00e0","name:el":"\u03a0\u03b1\u03bd\u03b1\u03bc\u03ac\u03c2","kind":"country","name:en":"Panama","name":"Panam\u00e1","name:ee":"Panama","name:gd":"Panama","min_zoom":8.0,"name:th":"\u0e1b\u0e23\u0e30\u0e40\u0e17\u0e28\u0e1b\u0e32\u0e19\u0e32\u0e21\u0e32","name:eu":"Panama","name:et":"Panama","name:jv":"Panama","name:ia":"Panama","name:mt":"Panama","name:ro":"Panama","name:id":"Panama","name:ms":"Panama","name:mr":"\u092a\u0928\u093e\u092e\u093e","name:ar":"\u0628\u0646\u0645\u0627","name:my":"\u1015\u1014\u102c\u1038\u1019\u102c\u1038\u1014\u102d\u102f\u1004\u103a\u1004\u1036","name:io":"Panama","name:is":"Panama","name:am":"\u1353\u1293\u121b","name:ru":"\u041f\u0430\u043d\u0430\u043c\u0430","id":-287668,"name:vi":"Panama","name:rw":"Panama","name:pl":"Panama","name:mk":"\u041f\u0430\u043d\u0430\u043c\u0430","name:af":"Panama","name:zu":"Panama","name:mn":"\u041f\u0430\u043d\u0430\u043c","name:ss":"IPhanama","kind_detail":"2","name:hi":"\u092a\u0928\u093e\u092e\u093e","name:mg":"Panama","name:fo":"Panama","name:ba":"\u041f\u0430\u043d\u0430\u043c\u0430","name:zh-yue":"\u5df4\u62ff\u99ac","name:fy":"Panama","name:vo":"Panam\u00e4n","name:zh":"\u5df4\u62ff\u9a6c","name:hr":"Panama","name:so":"Banama","name:sl":"Panama","name:nl":"Panama","name:ja":"\u30d1\u30ca\u30de","name:nn":"Panama","name:sh":"Panama","name:se":"Panama","name:ne":"\u092a\u093e\u0928\u093e\u092e\u093e","name:sa":"\u092a\u093e\u0928\u093e\u092e\u093e","name:bs":"Panama","name:yi":"\u05e4\u05d0\u05e0\u05d0\u05de\u05d0","name:bn":"\u09aa\u09be\u09a8\u09be\u09ae\u09be","name:bo":"\u0f54\u0f0b\u0f53\u0f0b\u0f58\u0f0d","name:sk":"Panama","name:ml":"\u0d2a\u0d28\u0d3e\u0d2e","name:no":"Panama","name:sw":"Panama","name:sv":"Panama","name:su":"Panama","name:bg":"\u041f\u0430\u043d\u0430\u043c\u0430","name:wo":"Panamaa","name:sr":"\u041f\u0430\u043d\u0430\u043c\u0430","osm_relation":true,"name:ga":"Panama","name:bm":"Panama","name:ht":"Panama","name:gn":"Panama","name:fa":"\u067e\u0627\u0646\u0627\u0645\u0627","maritime_boundary":true,"name:gv":"Yn Phanamaa","name:gu":"\u0aaa\u0aa8\u0abe\u0aae\u0abe","name:fi":"Panama"},"arcs":[[0],[1]]},{"type":"MultiLineString","properties":{"kind":"region","name":"Provincia de Cocl\u00e9 - Provincia de Panam\u00e1 Oeste","sort_rank":256,"kind_detail":"4","id:right":-5740664,"source":"openstreetmap.org","min_zoom":8.0,"id:left":-5748368,"name:left":"Provincia de Cocl\u00e9","id":-5748368,"osm_relation":true,"name:right":"Provincia de Panam\u00e1 Oeste"},"arcs":[[2],[3]]},{"type":"LineString","properties":{"kind":"region","name":"Provincia de Cocl\u00e9","sort_rank":256,"kind_detail":"4","source":"openstreetmap.org","min_zoom":8.0,"id":-5748368,"osm_relation":true},"arcs":[4]},{"type":"LineString","properties":{"kind":"region","name":"Provincia de Panam\u00e1 - Provincia de Panam\u00e1 Oeste","sort_rank":256,"kind_detail":"4","id:right":-5740664,"source":"openstreetmap.org","min_zoom":8.0,"id:left":-5740665,"name:left":"Provincia de Panam\u00e1","id":-5740665,"osm_relation":true,"name:right":"Provincia de Panam\u00e1 Oeste"},"arcs":[5]},{"type":"LineString","properties":{"kind":"region","name":"Provincia de Panam\u00e1 - Provincia de Panam\u00e1 Oeste","sort_rank":256,"kind_detail":"4","min_zoom":8.0,"id:right":-5740664,"source":"openstreetmap.org","maritime_boundary":true,"id:left":-5740665,"name:right":"Provincia de Panam\u00e1 Oeste","id":-5740665,"osm_relation":true,"name:left":"Provincia de Panam\u00e1"},"arcs":[6]},{"type":"LineString","properties":{"kind":"region","name":"Provincia de Panam\u00e1 - Comarca Guna Yala","sort_rank":256,"kind_detail":"4","id:left":-5740665,"id:right":-5740658,"source":"openstreetmap.org","min_zoom":8.0,"old_name:right":"San Blas","name:left":"Provincia de Panam\u00e1","id":-5740665,"osm_relation":true,"name:right":"Comarca Guna Yala"},"arcs":[7]},{"type":"LineString","properties":{"kind":"region","name":"Provincia de Panam\u00e1","sort_rank":256,"kind_detail":"4","source":"openstreetmap.org","min_zoom":8.0,"id":-5740665,"osm_relation":true},"arcs":[8]},{"type":"LineString","properties":{"kind":"region","name":"Provincia de Panam\u00e1","sort_rank":256,"kind_detail":"4","min_zoom":8.0,"source":"openstreetmap.org","maritime_boundary":true,"id":-5740665,"osm_relation":true},"arcs":[9]},{"type":"LineString","properties":{"kind":"region","name":"Provincia de Panam\u00e1 Oeste","sort_rank":256,"kind_detail":"4","source":"openstreetmap.org","min_zoom":8.0,"id":-5740664,"osm_relation":true},"arcs":[10]},{"type":"LineString","properties":{"kind":"region","name":"Comarca Guna Yala","sort_rank":256,"kind_detail":"4","source":"openstreetmap.org","min_zoom":8.0,"old_name":"San Blas","id":-5740658,"osm_relation":true},"arcs":[11]},{"type":"LineString","properties":{"kind":"region","name":"Comarca Guna Yala","sort_rank":256,"kind_detail":"4","min_zoom":8.0,"source":"openstreetmap.org","maritime_boundary":true,"old_name":"San Blas","id":-5740658,"osm_relation":true},"arcs":[12]}]},"roads":{"type":"GeometryCollection","geometries":[{"type":"MultiLineString","properties":{"sort_rank":380,"kind_detail":"primary","min_zoom":8.0,"kind":"major_road","source":"openstreetmap.org"},"arcs":[[224],[225],[226],[227],[228],[229],[230],[231],[232],[233],[234],[235],[236],[237],[238],[239],[240],[241],[242],[243],[244],[245],[246],[247],[248],[249],[250],[251],[252],[253],[254],[255],[256],[257],[258],[259],[260],[261],[262],[263],[264],[265],[266],[267],[268],[269],[270],[271],[272],[273],[274],[275],[276],[277],[278],[279],[280],[281],[282],[283],[284],[285],[286],[287],[288]]},{"type":"MultiLineString","properties":{"sort_rank":381,"source":"openstreetmap.org","min_zoom":8.0,"kind":"major_road","kind_detail":"trunk"},"arcs":[[289],[290],[291],[292],[293],[294],[295],[296],[297],[298],[299],[300],[301],[302],[303],[304],[305],[306],[307],[308],[309],[310],[311]]},{"type":"LineString","properties":{"bus_network":"Metrobus","name:en":"Central Avenue","sort_rank":380,"kind_detail":"primary","kind":"major_road","source":"openstreetmap.org","min_zoom":8.0,"bus_shield_text":"Tocumen - Via Espa\u00f1a - Albrook","landuse_kind":"urban_area"},"arcs":[312]},{"type":"LineString","properties":{"kind":"major_road","name:en":"Pan American Highway","sort_rank":381,"kind_detail":"trunk","is_bicycle_related":true,"source":"openstreetmap.org","min_zoom":8.0,"ref":"1","id":29407306},"arcs":[313]},{"type":"LineString","properties":{"kind":"major_road","sort_rank":381,"kind_detail":"trunk","bus_network":"Metrobus","source":"openstreetmap.org","min_zoom":8.0,"bus_shield_text":"Panam\u00e1 Viejo - Ave. Balboa - Mercado de Mariscos","landuse_kind":"urban_area","id":265170931},"arcs":[314]},{"type":"LineString","properties":{"bus_network":"Metrobus","sort_rank":380,"kind_detail":"primary","kind":"major_road","source":"openstreetmap.org","min_zoom":8.0,"bus_shield_text":"Panam\u00e1 Viejo - Ave. Balboa - Mercado de Mariscos","landuse_kind":"urban_area"},"arcs":[315]},{"type":"MultiLineString","properties":{"bus_network":"Metrobus","sort_rank":381,"landuse_kind":"urban_area","kind":"major_road","source":"openstreetmap.org","min_zoom":8.0,"bus_shield_text":"Albrook - Amador","kind_detail":"trunk"},"arcs":[[316],[317]]},{"type":"MultiLineString","properties":{"bus_network":"Metrobus","sort_rank":380,"kind_detail":"primary","kind":"major_road","source":"openstreetmap.org","min_zoom":8.0,"bus_shield_text":"Gran Estacion - Via Espa\u00f1a - Albrook","landuse_kind":"urban_area"},"arcs":[[318],[319],[320],[321],[322]]},{"type":"MultiLineString","properties":{"source":"openstreetmap.org","bus_network":"Metrobus","bus_shield_text":"Albrook - Amador","sort_rank":380,"kind_detail":"primary","min_zoom":8.0,"kind":"major_road"},"arcs":[[323],[324],[325],[326],[327],[328]]},{"type":"LineString","properties":{"source":"openstreetmap.org","kind":"major_road","landuse_kind":"urban_area","sort_rank":380,"kind_detail":"primary","ref":"Calle Juan Rivera Reyes","min_zoom":8.0},"arcs":[329]},{"type":"LineString","properties":{"source":"openstreetmap.org","kind":"ferry","name":"Calypso ferry route","sort_rank":355,"landuse_kind":"urban_area","min_zoom":8.0,"id":30196573},"arcs":[330]},{"type":"MultiLineString","properties":{"source":"openstreetmap.org","kind":"highway","landuse_kind":"residential","sort_rank":383,"kind_detail":"motorway","min_zoom":8.0},"arcs":[[331],[332],[333],[334],[335],[336],[337],[338],[339],[340],[341],[342],[343],[344]]},{"type":"LineString","properties":{"source":"openstreetmap.org","kind":"major_road","name:en":"Randolph Avenue","sort_rank":380,"kind_detail":"primary","min_zoom":8.0,"id":248035775},"arcs":[345]},{"type":"MultiLineString","properties":{"source":"openstreetmap.org","kind":"major_road","landuse_kind":"urban_area","sort_rank":380,"kind_detail":"primary","min_zoom":8.0},"arcs":[[346],[347],[348],[349],[350],[351],[352],[353],[354],[355],[356],[357],[358],[359],[360],[361],[362],[363],[364],[365],[366],[367],[368],[369],[370],[371],[372],[373],[374],[375],[376],[377],[378],[379],[380],[381],[382],[383],[384],[385],[386],[387],[388],[389],[390],[391],[392],[393],[394],[395],[396],[397],[398],[399],[400],[401],[402],[403],[404],[405],[406],[407],[408],[409],[410],[411],[412],[413],[414],[415],[416],[417],[418],[419],[420],[421],[422],[423],[424],[425],[426],[427],[428],[429],[430],[431],[432],[433],[434],[435],[436],[437],[438],[439],[440],[441],[442],[443],[444],[445],[446],[447],[448],[449],[450],[451],[452],[453],[454],[455],[456],[457],[458],[459],[460],[461],[462],[463],[464],[465],[466],[467],[468],[469],[470],[471],[472],[473],[474],[475],[476],[477],[478],[479],[480],[481],[482],[483],[484],[485],[486],[487],[488],[489],[490],[491],[492],[493],[494],[495],[496],[497],[498],[499],[500],[501],[502],[503],[504],[505],[506],[507],[508],[509],[510],[511],[512],[513],[514],[515],[516],[517],[518],[519],[520],[521],[522],[523],[524],[525]]},{"type":"MultiLineString","properties":{"source":"openstreetmap.org","kind":"major_road","kind_detail":"trunk","sort_rank":381,"landuse_kind":"urban_area","min_zoom":8.0},"arcs":[[526],[527],[528],[529],[530],[531],[532],[533],[534],[535],[536],[537],[538],[539],[540],[541],[542],[543],[544],[545],[546],[547],[548],[549],[550],[551],[552],[553],[554],[555],[556],[557],[558],[559],[560],[561],[562],[563],[564],[565],[566],[567],[568],[569],[570],[571],[572],[573],[574],[575],[576],[577],[578],[579],[580],[581],[582]]},{"type":"MultiLineString","properties":{"source":"openstreetmap.org","kind":"major_road","old_name":"Paical","sort_rank":380,"kind_detail":"primary","landuse_kind":"urban_area","min_zoom":8.0},"arcs":[[583],[584]]},{"type":"LineString","properties":{"sort_rank":355,"source":"openstreetmap.org","kind":"ferry","min_zoom":8.0,"id":446428559},"arcs":[585]},{"type":"MultiLineString","properties":{"source":"openstreetmap.org","kind":"highway","landuse_kind":"urban_area","sort_rank":383,"kind_detail":"motorway","min_zoom":8.0},"arcs":[[586],[587],[588],[589],[590],[591],[592],[593],[594],[595],[596],[597],[598],[599],[600],[601],[602],[603],[604],[605],[606],[607],[608],[609],[610],[611],[612]]},{"type":"LineString","properties":{"source":"openstreetmap.org","kind":"ferry","name":"Puerto Lindo - Cartagena","sort_rank":355,"landuse_kind":"park","min_zoom":8.0,"id":494742694},"arcs":[613]},{"type":"MultiLineString","properties":{"source":"openstreetmap.org","kind":"highway","kind_detail":"motorway","sort_rank":383,"landuse_kind":"park","min_zoom":8.0},"arcs":[[614],[615],[616],[617],[618],[619],[620]]},{"type":"LineString","properties":{"source":"openstreetmap.org","kind":"ferry","sort_rank":355,"landuse_kind":"urban_area","min_zoom":8.0,"osm_relation":true,"id":-2020583},"arcs":[621]},{"type":"LineString","properties":{"sort_rank":355,"source":"openstreetmap.org","min_zoom":8.0,"name":"Puerto Lindo - Cartagena","kind":"ferry"},"arcs":[622]},{"type":"MultiLineString","properties":{"source":"openstreetmap.org","kind":"major_road","sort_rank":381,"kind_detail":"trunk","ref":"1","min_zoom":8.0},"arcs":[[623],[624],[625],[626],[627],[628]]},{"type":"MultiLineString","properties":{"source":"openstreetmap.org","kind":"highway","name:en":"Panama\u2013Col\u00f3n Expressway","sort_rank":383,"kind_detail":"motorway","min_zoom":8.0},"arcs":[[629],[630],[631],[632],[633],[634],[635],[636],[637],[638],[639],[640],[641],[642],[643],[644],[645],[646]]},{"type":"MultiLineString","properties":{"bus_network":"Metrobus","sort_rank":380,"kind_detail":"primary","kind":"major_road","source":"openstreetmap.org","min_zoom":8.0,"bus_shield_text":"Albrook - Amador","landuse_kind":"urban_area"},"arcs":[[647],[648],[649],[650],[651],[652]]},{"type":"MultiLineString","properties":{"bus_network":"Metrobus","sort_rank":380,"kind_detail":"primary","kind":"major_road","source":"openstreetmap.org","min_zoom":8.0,"bus_shield_text":"Alcalde D\u00edaz - Via Espa\u00f1a - Albrook - Directo","landuse_kind":"urban_area"},"arcs":[[653],[654],[655],[656],[657],[658],[659]]},{"type":"LineString","properties":{"source":"openstreetmap.org","kind":"major_road","ref":"1","sort_rank":381,"kind_detail":"trunk","is_bicycle_related":true,"min_zoom":8.0},"arcs":[660]},{"type":"MultiLineString","properties":{"name:pt":"Ponte Centen\u00e1ria","name:en":"Centennial Bridge","sort_rank":383,"kind_detail":"motorway","kind":"highway","name:de":"Jahrhundertbr\u00fccke","source":"openstreetmap.org","min_zoom":8.0,"name:fr":"Pont Centenaire","name:es":"Puente Centenario"},"arcs":[[661],[662]]},{"type":"LineString","properties":{"kind":"major_road","name:en":"Amador Causeway","sort_rank":380,"kind_detail":"primary","bus_network":"Metrobus","source":"openstreetmap.org","min_zoom":8.0,"bus_shield_text":"Albrook - Amador","landuse_kind":"urban_area","id":168306100},"arcs":[663]},{"type":"LineString","properties":{"source":"openstreetmap.org","bus_network":"Metrobus","bus_shield_text":"Albrook \u2013 Esclusas de Miraflores","sort_rank":381,"kind_detail":"trunk","min_zoom":8.0,"kind":"major_road"},"arcs":[664]},{"type":"MultiLineString","properties":{"bus_network":"Metrobus","sort_rank":381,"landuse_kind":"urban_area","kind":"major_road","source":"openstreetmap.org","min_zoom":8.0,"bus_shield_text":"Tocumen - Via Espa\u00f1a - Albrook","kind_detail":"trunk"},"arcs":[[665],[666]]},{"type":"LineString","properties":{"source":"openstreetmap.org","kind":"ferry","name":"Calypso ferry route","sort_rank":355,"min_zoom":8.0,"id":30196573},"arcs":[667]},{"type":"MultiLineString","properties":{"source":"openstreetmap.org","kind":"major_road","landuse_kind":"residential","sort_rank":380,"kind_detail":"primary","min_zoom":8.0},"arcs":[[668],[669]]},{"type":"MultiLineString","properties":{"source":"openstreetmap.org","kind":"major_road","landuse_kind":"park","sort_rank":380,"kind_detail":"primary","min_zoom":8.0},"arcs":[[670],[671],[672],[673],[674],[675],[676],[677]]},{"type":"MultiLineString","properties":{"sort_rank":383,"kind_detail":"motorway","min_zoom":8.0,"kind":"highway","source":"openstreetmap.org"},"arcs":[[678],[679],[680],[681],[682],[683],[684],[685],[686],[687],[688],[689],[690],[691],[692],[693],[694],[695],[696],[697],[698],[699],[700],[701],[702],[703],[704],[705],[706],[707],[708],[709],[710],[711],[712],[713],[714],[715],[716],[717],[718],[719]]},{"type":"MultiLineString","properties":{"kind":"highway","name:en":"Bridge of the Americas","sort_rank":383,"kind_detail":"motorway","name:de":"Br\u00fccke der Amerikas","source":"openstreetmap.org","min_zoom":8.0,"name:ru":"\u041c\u043e\u0441\u0442 \u0434\u0432\u0443\u0445 \u0410\u043c\u0435\u0440\u0438\u043a"},"arcs":[[720],[721]]},{"type":"LineString","properties":{"bus_network":"Metrobus","name:en":"Central Avenue","sort_rank":380,"landuse_kind":"urban_area","kind":"major_road","source":"openstreetmap.org","min_zoom":8.0,"bus_shield_text":"Gran Estacion - Via Espa\u00f1a - Albrook","kind_detail":"primary"},"arcs":[722]},{"type":"MultiLineString","properties":{"source":"openstreetmap.org","kind":"highway","name:en":"Panama\u2013Col\u00f3n Expressway","landuse_kind":"park","sort_rank":383,"kind_detail":"motorway","min_zoom":8.0},"arcs":[[723],[724],[725],[726]]},{"type":"LineString","properties":{"kind":"major_road","sort_rank":380,"kind_detail":"primary","bus_shield_text":"Alcalde D\u00edaz - Via Espa\u00f1a - Albrook - Directo","bus_network":"Metrobus","source":"openstreetmap.org","min_zoom":8.0,"old_name":"Paical","landuse_kind":"urban_area","id":41118614},"arcs":[727]},{"type":"MultiLineString","properties":{"bus_network":"Metrobus","sort_rank":381,"landuse_kind":"urban_area","kind":"major_road","source":"openstreetmap.org","min_zoom":8.0,"bus_shield_text":"Albrook \u2013 Esclusas de Miraflores","kind_detail":"trunk"},"arcs":[[728],[729]]},{"type":"MultiLineString","properties":{"bus_network":"Metrobus","sort_rank":381,"landuse_kind":"urban_area","kind":"major_road","source":"openstreetmap.org","min_zoom":8.0,"bus_shield_text":"Gran Estacion - Via Espa\u00f1a - Albrook","kind_detail":"trunk"},"arcs":[[730],[731],[732],[733],[734],[735]]},{"type":"LineString","properties":{"bus_network":"Metrobus","sort_rank":380,"kind_detail":"primary","kind":"major_road","source":"openstreetmap.org","min_zoom":8.0,"bus_shield_text":"Tocumen - Via Espa\u00f1a - Albrook","landuse_kind":"urban_area"},"arcs":[736]},{"type":"LineString","properties":{"source":"openstreetmap.org","kind":"ferry","sort_rank":355,"min_zoom":8.0,"osm_relation":true,"id":-2020583},"arcs":[737]},{"type":"MultiLineString","properties":{"source":"openstreetmap.org","kind":"major_road","landuse_kind":"urban_area","sort_rank":380,"kind_detail":"primary","is_bicycle_related":true,"min_zoom":8.0},"arcs":[[738],[739]]},{"type":"LineString","properties":{"source":"openstreetmap.org","kind":"major_road","sort_rank":380,"kind_detail":"primary","ref":"Calle Juan Rivera Reyes","min_zoom":8.0},"arcs":[740]}]},"earth":{"type":"GeometryCollection","geometries":[{"type":"MultiPolygon","properties":{"sort_rank":10,"source":"naturalearthdata.com","min_zoom":0.0,"kind":"earth","area":21266477195},"arcs":[[[741]],[[742]],[[743]],[[744]],[[745]],[[746]]]}]},"landuse":{"type":"GeometryCollection","geometries":[{"type":"MultiPolygon","properties":{"source":"openstreetmap.org","kind":"park","tier":2,"area":370312709,"sort_rank":24,"min_zoom":6.0,"osm_relation":true},"arcs":[[[747]]]},{"type":"Polygon","properties":{"kind":"park","area":1333760000,"sort_rank":24,"source":"openstreetmap.org","min_zoom":4.0,"tier":2,"id":-3262889,"osm_relation":true},"arcs":[[748]]},{"type":"Polygon","properties":{"source":"naturalearthdata.com","kind":"urban_area","name":"","area":164629440,"sort_rank":11,"min_zoom":4.0,"id":5447},"arcs":[[749]]},{"type":"Polygon","properties":{"kind":"park","natural":"wood","area":20272400,"sort_rank":24,"source":"openstreetmap.org","min_zoom":8.0,"tier":2,"id":225905011},"arcs":[[750]]},{"type":"Polygon","properties":{"source":"openstreetmap.org","kind":"residential","area":16364900,"tier":2,"id":42438724,"min_zoom":8.0,"sort_rank":20},"arcs":[[751]]},{"type":"Polygon","properties":{"source":"openstreetmap.org","kind":"park","area":115150000,"tier":2,"id":241827873,"min_zoom":7.0,"sort_rank":24},"arcs":[[752]]},{"type":"Polygon","properties":{"source":"openstreetmap.org","kind":"park","area":218903008,"tier":2,"id":241828441,"min_zoom":6.0,"sort_rank":24},"arcs":[[753]]}]}},"type":"Topology","transform":{"translate":[-80.15625,8.4071681636],"scale":[0.0003433228,0.0003389916]},"arcs":[[[1452,4096],[-716,-434],[-354,-412],[-382,-308]],[[1618,0],[96,60],[172,-60]],[[328,0],[-138,206],[0,164],[-40,141],[-40,424],[-110,137]],[[0,1460],[60,47],[-20,76]],[[40,1583],[-40,48]],[[1334,2089],[150,-216],[181,-155],[44,-128],[89,-115],[-234,-182]],[[1564,1293],[-106,-135],[45,-248],[-129,-415],[65,-495]],[[4096,2777],[-89,42],[-61,-1],[-152,-37],[0,-42],[-171,-70],[-192,-41],[-34,-48],[-211,-20],[-79,18],[-103,84],[-70,-1],[-87,-39],[-280,-1],[118,97]],[[2685,2718],[-35,99],[-130,170],[-95,17],[-45,-78],[-167,47],[-69,-95],[43,109],[-10,113],[40,66],[-115,0],[-40,-42],[-69,-19],[-9,61],[-152,-40],[-21,-167],[-35,-33],[-116,-371],[42,-213],[-115,-2],[-178,-132],[-44,-107],[-31,-12]],[[1618,0],[96,60],[172,-60]],[[1334,2089],[-97,-42],[-184,-5],[-76,215],[-234,40],[-110,-65],[-5,-132],[-78,-114],[47,-205],[-41,-104],[-60,-43],[-113,5],[-104,6],[-20,35],[-107,15],[-112,-112]],[[3092,3419],[0,-128],[42,-143],[-156,-144],[-54,-100],[-239,-186]],[[3093,4096],[-1,-677]],[[1903,1783],[16,12]],[[1884,1898],[11,-51],[-35,-63]],[[1860,1784],[-1,-5]],[[1863,1944],[21,-46]],[[1783,1685],[-12,-7]],[[1771,1678],[-1,0]],[[1770,1678],[0,-1]],[[1770,1677],[-2,-6]],[[1768,1671],[-1,0]],[[1767,1671],[0,-2]],[[1767,1669],[-1,-3]],[[1766,1666]],[[1766,1666],[0,-1]],[[1766,1665]],[[1766,1665],[0,-1]],[[1766,1664],[0,-1]],[[1766,1663]],[[1766,1663],[1,-1]],[[1767,1662]],[[1767,1662],[0,-1]],[[1767,1661]],[[1767,1661],[2,-1]],[[1769,1660],[14,-12]],[[1783,1648],[10,-10]],[[1793,1638],[1,0]],[[1794,1638],[1,0]],[[1795,1638]],[[1795,1638]],[[1795,1638],[1,0]],[[1796,1638],[4,4]],[[1800,1642],[1,0]],[[1801,1642]],[[1801,1642],[6,11]],[[1807,1653],[1,2]],[[1808,1655],[0,1]],[[1808,1656],[2,2]],[[1810,1658],[6,10]],[[1816,1668],[0,1]],[[1816,1669],[2,3]],[[1818,1672],[0,1]],[[1818,1673],[1,2]],[[1819,1675],[2,8]],[[1821,1683],[0,1]],[[1821,1684],[1,1]],[[1822,1685],[1,1]],[[1823,1686],[1,1]],[[1824,1687],[4,3]],[[1828,1690],[1,1]],[[1829,1691],[2,4]],[[1831,1695],[2,2]],[[1833,1697],[0,1]],[[1833,1698],[5,7]],[[1838,1705],[1,1]],[[1839,1706],[1,1]],[[1840,1707],[1,1]],[[1841,1708],[1,1]],[[1842,1709],[1,2]],[[1843,1711],[1,1]],[[1844,1712],[1,3]],[[1845,1715],[0,1]],[[1845,1716],[3,4]],[[1848,1720],[1,2]],[[1849,1722],[4,7]],[[1853,1729],[2,3]],[[1855,1732],[0,1]],[[1855,1733],[0,1]],[[1855,1734],[0,1]],[[1855,1735],[-1,3]],[[1854,1738],[0,1]],[[1854,1739],[0,1]],[[1854,1740],[0,1]],[[1854,1741],[-1,19]],[[1853,1760],[0,4]],[[1853,1764],[0,3]],[[1853,1767]],[[1853,1767],[1,2]],[[1854,1769],[0,1]],[[1854,1770],[2,2]],[[1856,1772],[1,2]],[[1857,1774],[1,2]],[[1858,1776],[1,1]],[[1859,1777],[0,2]],[[1859,1779],[1,2]],[[1860,1781],[0,2]],[[1860,1783],[0,1]],[[1860,1784],[0,7]],[[1860,1791],[1,7]],[[1861,1798]],[[1861,1798],[0,4]],[[1861,1802],[0,1]],[[1861,1803],[1,1]],[[1862,1804],[0,2]],[[1862,1806],[1,1]],[[1863,1807],[1,2]],[[1864,1809],[1,2]],[[1865,1811],[1,1]],[[1866,1812],[2,1]],[[1868,1813],[1,1]],[[1869,1814],[2,2]],[[1871,1816],[4,2]],[[1875,1818],[1,0]],[[1876,1818],[2,2]],[[1878,1820],[1,0]],[[1879,1820],[2,2]],[[1881,1822],[2,1]],[[1883,1823],[3,3]],[[1886,1826],[2,2]],[[1888,1828],[1,1]],[[1889,1829],[1,1]],[[1890,1830],[0,1]],[[1890,1831],[2,7]],[[1892,1838],[1,1]],[[1893,1839],[2,5]],[[1895,1844],[0,1]],[[1895,1845],[0,2]],[[1895,1847],[0,1]],[[1895,1848],[0,2]],[[1895,1850],[0,1]],[[1895,1851],[0,1]],[[1895,1852],[0,1]],[[1895,1853],[-1,1]],[[1894,1854],[-1,1]],[[1893,1855],[-2,3]],[[1891,1858],[-1,2]],[[1890,1860],[-1,1]],[[1889,1861],[0,1]],[[1889,1862],[-1,1]],[[1888,1863],[-1,2]],[[1887,1865],[0,2]],[[1887,1867],[0,1]],[[1887,1868],[0,2]],[[1887,1870],[0,1]],[[1887,1871],[0,1]],[[1887,1872],[1,2]],[[1888,1874],[2,7]],[[1890,1881],[1,2]],[[1891,1883],[0,1]],[[1891,1884],[0,1]],[[1891,1885],[0,1]],[[1891,1886],[0,1]],[[1891,1887],[-1,1]],[[1890,1888],[0,1]],[[1890,1889],[-2,3]],[[1888,1892],[-1,2]],[[1887,1894],[-2,3]],[[1885,1897],[-1,1]],[[1884,1898],[0,1]],[[1884,1899],[0,1]],[[1884,1900],[-1,1]],[[1883,1901],[0,1]],[[1883,1902],[1,2]],[[1884,1904],[0,4]],[[1884,1908],[0,4]],[[1884,1912],[0,1]],[[1884,1913],[0,1]],[[1884,1914],[0,3]],[[1884,1917],[0,1]],[[1884,1918],[-1,2]],[[1883,1920],[0,3]],[[1883,1923],[0,1]],[[1883,1924],[-1,2]],[[1882,1926],[0,1]],[[1882,1927],[0,2]],[[1882,1929],[0,1]],[[1882,1930],[0,2]],[[1882,1932]],[[1882,1932],[0,1]],[[1882,1933],[-1,1]],[[1881,1934]],[[1881,1934],[0,1]],[[1881,1935]],[[1881,1935],[-2,1]],[[1879,1936],[0,1]],[[1879,1937],[-1,0]],[[1878,1937],[-2,1]],[[1876,1938],[-3,1]],[[1873,1939],[-2,1]],[[1871,1940],[-1,1]],[[1870,1941],[-1,0]],[[1869,1941],[-4,1]],[[1865,1942],[-1,1]],[[1864,1943],[-1,1]],[[737,2790],[10,-8],[2,-3]],[[749,2779]],[[749,2779],[4,-43],[-49,-98],[11,-59],[103,9],[35,-31],[43,-105],[116,-102],[117,-250],[133,8],[101,-42],[129,-141],[71,-13],[1,-86],[144,-139]],[[1708,1687],[17,-27],[22,-23]],[[1715,1678],[-7,9]],[[746,2783],[3,-4]],[[749,2779],[-2,3],[-1,1]],[[1711,1684],[4,-1],[3,-4],[-2,-1],[-5,6]],[[1389,2168],[32,39],[37,29],[-11,-59],[-40,-67],[-56,-55],[-63,-22],[-91,2],[-57,-4],[-25,3],[-29,7],[-28,13],[-3,-24],[-5,-18],[-11,-12],[-21,-6],[0,-22],[9,-10],[3,-6],[10,-25],[-22,0],[0,23],[-20,0],[2,-21],[-6,-14],[-8,-11],[-9,-15],[21,0],[-7,-6],[-9,-4],[-7,-10],[2,-20],[-12,10],[-10,6],[-9,7],[-9,17],[-10,-9],[-6,-8],[-2,-11],[-2,-12],[-18,40],[-13,-3],[-3,-1],[0,-6],[-4,-12],[-22,40],[-18,0],[-5,-5],[-2,-3],[-4,-4],[-8,-6],[6,17],[8,14],[23,30],[6,-16],[10,-12],[6,-15],[14,14],[13,4],[14,0],[17,2],[28,23],[41,65],[23,14],[13,13],[-20,28],[-45,40],[-18,0],[-15,-16],[-15,-6],[-15,5],[-15,17],[-20,0],[0,-40],[-32,14],[-20,27],[-3,32],[15,30],[-12,16],[-15,16],[-16,14],[-18,13],[-5,-27],[-6,-12],[-29,-20],[-8,40],[-24,15],[-28,-7],[-19,-30],[19,0],[0,-18],[-14,-23],[12,-21],[23,-25],[21,-34],[-22,-20],[7,-26],[8,-20],[11,-18],[14,-18],[-84,22],[-23,-9],[28,-54],[-18,0],[-31,44],[-9,19],[-22,0],[10,-63],[19,-54],[9,-57],[-16,-69],[-37,65],[-5,27],[-9,14],[-18,-8],[-10,-26],[16,-33],[-11,1],[-7,-3],[-2,-7],[1,-10],[-21,47],[-47,78],[-11,58],[-22,0],[-13,-16],[-6,-4],[-5,4],[-14,16],[-16,-44],[18,-37],[58,-63],[0,-20],[-26,10],[-18,14],[-38,39],[21,-54],[-16,-19],[-27,17],[-15,56],[-25,-29],[-41,-24],[-16,-29],[-15,15],[-11,16],[-14,31],[51,30],[64,92],[44,17],[-7,14],[-3,1],[-9,7],[55,47],[24,9],[22,-17],[52,53],[31,22],[15,-4],[9,-16],[21,26],[33,63],[-17,62],[41,154],[-6,44],[0,19],[22,14],[18,17],[12,22],[7,28],[35,-24],[37,-10],[37,6],[33,28],[10,19],[6,20],[3,53],[13,16],[85,56],[9,3],[9,0],[5,3],[-1,15],[18,0],[44,-33],[19,-8],[-35,-55],[-2,-54],[6,-46],[-11,-29],[34,-6],[57,20],[29,-14],[0,-20],[-114,-27],[-54,-26],[-35,-3],[-34,4],[-24,12],[-18,0],[1,-39],[12,-27],[21,-20],[26,-13],[0,40],[16,19],[27,-1],[35,-18],[-15,-26],[-26,-21],[-57,-35],[0,-18],[109,39],[30,21],[-11,-18],[-20,-47],[-10,-17],[21,0],[34,20],[32,-48],[23,-72],[9,-52],[32,-25],[156,10],[54,-15],[51,94]],[[377,0],[165,109],[62,54],[6,11],[15,13],[28,55],[15,12],[27,6],[21,15],[44,42],[12,5],[33,7],[15,6],[9,10],[5,23],[-5,32],[22,28],[110,27],[95,32],[56,22],[117,106],[98,76],[11,22],[-1,25],[-14,0],[-11,-14],[-33,-19],[-88,-44],[-94,-38],[-99,23],[-37,36],[47,24],[50,13],[7,12],[-3,13],[2,11],[37,8],[36,18],[11,8],[18,21],[15,23],[12,25],[6,23],[9,16],[6,16],[3,18],[-6,9],[-14,6],[-13,9],[-7,17],[-12,176],[12,57],[25,43],[39,42],[47,24],[50,-9],[-7,15],[-4,16],[-9,10],[0,20],[20,-3],[7,-3],[3,-5],[8,-9],[29,12],[20,-6],[20,-14],[33,-11],[0,19],[-16,35],[42,22],[133,23],[66,-24],[42,30],[14,64],[-21,73],[18,0],[0,18],[-9,14],[-5,11],[-4,17],[18,0],[16,-51],[40,-55],[47,-48],[38,-27],[-11,35],[-50,86],[31,10],[5,19],[-2,25],[6,27],[81,50],[10,10],[9,6],[2,14],[6,14],[22,6],[22,4],[36,13],[51,10],[28,11],[27,3],[26,-20],[65,33],[165,-16],[71,23],[0,-20],[19,0],[76,15],[234,-42],[49,16],[7,35],[16,-8],[14,-23],[3,-13],[71,-20],[19,-10],[45,-10],[40,36],[30,50],[14,36],[-8,62],[-34,26],[-38,11],[-18,20],[5,22],[14,13],[22,6],[27,1],[28,6],[16,14],[10,14],[7,6],[16,12],[36,53],[18,16],[29,1],[9,-16],[7,-18],[24,-9],[12,8],[37,41],[19,15],[24,8],[39,3],[19,9],[-14,-26],[-27,-15],[-59,-21],[-47,-39],[-28,-1],[-26,40],[-18,0],[-18,-50],[-33,-41],[-48,-26],[-62,-4],[0,-22],[55,-5],[23,-33],[5,-51],[-2,-61],[-5,-28],[-12,-16],[-8,-17],[4,-29],[12,-16],[74,-53],[152,-34],[383,-201],[16,-48],[11,-57],[21,-47],[57,-67],[29,-11],[44,7],[48,23],[18,30],[-5,38],[-23,50],[30,-28],[22,-33],[28,-27],[43,-13],[0,-20],[-22,0],[0,-20],[44,-39],[0,-1166],[-263,0],[-6,11],[-36,7],[1,23],[-3,30],[-8,35],[-14,31],[-18,24],[-32,20],[-29,17],[-11,-15],[5,-33],[-10,-18],[-4,14],[-8,15],[-26,24],[-118,-50],[-26,17],[-37,-1],[-12,-41],[31,-79],[-4,-28],[0,-3],[-348,0],[8,26],[-16,11],[-7,-28],[-11,-9],[-4,0],[-28,34],[-39,31],[-31,-65],[-2615,0]],[[3439,149],[0,12],[-14,-3],[-15,6],[-13,15],[-9,5],[8,14],[19,8],[15,16],[12,17],[-22,-1],[-14,-14],[-22,-16],[-18,-5],[-17,-7],[-12,-5],[-18,-9],[7,-9],[12,-11],[12,-7],[11,9],[16,-3],[20,-4],[3,-10],[10,-20],[10,-4],[8,-10],[5,9],[-4,20],[10,7]],[[3209,237],[1,26],[-2,14],[-18,5],[-22,-22],[5,-41],[17,8],[19,10]],[[3303,547],[-13,14],[-7,-10],[-13,4],[-5,-22],[11,-13],[23,2],[18,16],[-14,9]],[[1644,546],[-5,10],[4,14],[-10,9],[-3,14],[-13,10],[-8,-1],[-5,6],[-2,-17],[-5,-14],[-10,0],[0,-29],[6,-2],[12,13],[9,2],[17,-11],[10,-7],[3,3]],[[3175,607],[5,-16],[11,1],[12,27],[10,21],[-16,3],[-4,24],[-16,7],[-15,-47],[13,-20]],[[1756,1160],[-1,9],[-9,-3],[-19,7],[-21,-18],[-3,-28],[7,-18],[19,-5],[21,4],[12,-11],[10,-15],[13,5],[6,17],[-1,16],[-18,6],[-14,9],[-8,18],[6,7]],[[1844,1170],[-1,-9],[10,2],[16,-1],[12,13],[1,16],[-3,16],[-25,-22],[-9,-9],[-1,-6]],[[2991,1626],[-3,3],[-6,-7],[-1,-5],[1,-10],[5,-4],[2,-7],[-7,-11],[3,-4],[13,1],[0,16],[11,8],[-16,10],[-2,10]],[[4096,4096],[0,-1034],[-8,-2],[-33,-6],[-50,10],[-24,-27],[-83,-17],[-53,13],[-32,-7],[-16,-27],[-36,-4],[-29,7],[-23,1],[-38,-2],[-22,-5],[-13,24],[-23,17],[-26,22],[-30,10],[-51,21],[-40,0],[-32,7],[-32,-5],[-37,-5],[-38,-7],[-30,14],[-47,-11],[-51,17],[-15,95],[-8,69],[32,54],[48,10],[89,10],[32,3],[29,22],[36,-7],[50,27],[0,33],[-38,24],[-124,-9],[-103,-18],[-92,-8],[-55,-16],[-50,-12],[-50,4],[-67,5],[-55,-16],[-55,-29],[-133,17],[-97,34],[-184,51],[-163,18],[-110,27],[-22,-14],[-21,-3],[-20,11],[-15,26],[-20,-55],[-2,-25],[-58,17],[-23,11],[-18,14],[-20,0],[-8,-18],[-9,-8],[-10,-6],[-14,-10],[-11,22],[-1,7],[-28,13],[0,18],[30,17],[0,22],[-16,29],[-14,35],[-53,14],[-74,-34],[-58,-18],[-46,6],[-53,-15],[-25,-30],[-33,-26],[-42,-18],[-15,-31],[-17,-13],[-19,-12],[16,-18],[26,7],[33,12],[14,-15],[-24,-22],[-51,-20],[-20,-71],[-19,-76],[-43,-30],[-27,-17],[-19,-31],[-10,-7],[-6,-10],[-8,-22],[-6,-9],[-49,-31],[-87,-32],[-43,-40],[-28,-52],[1,-41],[15,-45],[12,-65],[-21,34],[-54,89],[-64,29],[-55,-5],[-34,15],[-27,-28],[36,-51],[-19,-19],[-13,13],[-7,6],[6,-25],[7,-51],[7,-25],[-58,39],[-16,-28],[-4,-60],[-22,-53],[-29,-16],[-30,3],[-26,15],[-16,20],[-6,29],[6,111],[-11,28],[-18,1],[-74,-29],[-57,-93],[-6,-34],[-74,-70],[-114,-101],[-104,-118],[-84,-48],[-77,-31],[0,1770],[4096,0]],[[3867,3422],[14,-2],[15,12],[-7,3],[-23,-9],[1,-4]],[[0,2326],[77,31],[84,48],[104,118],[114,101],[74,70],[6,34],[57,93],[74,29],[18,-1],[11,-28],[-6,-111],[6,-29],[16,-20],[26,-15],[30,-3],[29,16],[22,53],[4,60],[16,28],[58,-39],[-7,25],[-7,51],[-6,25],[7,-6],[13,-13],[19,19],[-36,51],[27,28],[34,-15],[55,5],[64,-29],[54,-89],[21,-34],[-12,65],[-15,45],[-1,41],[28,52],[43,40],[87,32],[49,31],[6,9],[8,22],[6,10],[10,7],[19,31],[27,17],[43,30],[19,76],[20,71],[51,20],[24,22],[-14,15],[-33,-12],[-26,-7],[-16,18],[19,12],[17,13],[15,31],[42,18],[33,26],[25,30],[53,15],[46,-6],[58,18],[74,34],[53,-14],[14,-35],[16,-29],[0,-22],[-30,-17],[0,-18],[28,-13],[1,-7],[11,-22],[14,10],[10,6],[9,8],[8,18],[20,0],[18,-14],[23,-11],[58,-17],[2,25],[20,55],[15,-26],[20,-11],[21,3],[22,14],[110,-27],[163,-18],[184,-51],[97,-34],[133,-17],[55,29],[55,16],[67,-5],[50,-4],[50,12],[55,16],[92,8],[103,18],[124,9],[38,-24],[0,-33],[-50,-27],[-36,7],[-29,-22],[-32,-3],[-89,-10],[-48,-10],[-32,-54],[8,-69],[15,-95],[51,-17],[47,11],[30,-14],[38,7],[37,5],[32,5],[32,-7],[40,0],[51,-21],[30,-10],[26,-22],[23,-17],[13,-24],[22,5],[38,2],[23,-1],[29,-7],[36,4],[16,27],[32,7],[53,-13],[83,17],[24,27],[50,-10],[33,6],[8,2]],[[4096,1166],[-44,39],[0,20],[22,0],[0,20],[-43,13],[-28,27],[-22,33],[-30,28],[23,-50],[5,-38],[-18,-30],[-48,-23],[-44,-7],[-29,11],[-57,67],[-21,47],[-11,57],[-16,48],[-383,201],[-152,34],[-74,53],[-12,16],[-4,29],[8,17],[12,16],[5,28],[2,61],[-5,51],[-23,33],[-55,5],[0,22],[62,4],[48,26],[33,41],[18,50],[18,0],[26,-40],[28,1],[47,39],[59,21],[27,15],[14,26],[-19,-9],[-39,-3],[-24,-8],[-19,-15],[-37,-41],[-12,-8],[-24,9],[-7,18],[-9,16],[-29,-1],[-18,-16],[-36,-53],[-16,-12],[-7,-6],[-10,-14],[-16,-14],[-28,-6],[-27,-1],[-22,-6],[-14,-13],[-5,-22],[18,-20],[38,-11],[34,-26],[8,-62],[-14,-36],[-30,-50],[-40,-36],[-45,10],[-19,10],[-71,20],[-3,13],[-14,23],[-16,8],[-7,-35],[-49,-16],[-234,42],[-76,-15],[-19,0],[0,20],[-71,-23],[-165,16],[-65,-33],[-26,20],[-27,-3],[-28,-11],[-51,-10],[-36,-13],[-22,-4],[-22,-6],[-6,-14],[-2,-14],[-9,-6],[-10,-10],[-81,-50],[-6,-27],[2,-25],[-5,-19],[-31,-10],[50,-86],[11,-35],[-38,27],[-47,48],[-40,55],[-16,51],[-18,0],[4,-17],[5,-11],[9,-14],[0,-18],[-18,0],[21,-73],[-14,-64],[-42,-30],[-66,24],[-133,-23],[-42,-22],[16,-35],[0,-19],[-33,11],[-20,14],[-20,6],[-29,-12],[-8,9],[-3,5],[-7,3],[-20,3],[0,-20],[9,-10],[4,-16],[7,-15],[-50,9],[-47,-24],[-39,-42],[-25,-43],[-12,-57],[12,-176],[7,-17],[13,-9],[14,-6],[6,-9],[-3,-18],[-6,-16],[-9,-16],[-6,-23],[-12,-25],[-15,-23],[-18,-21],[-11,-8],[-36,-18],[-37,-8],[-2,-11],[3,-13],[-7,-12],[-50,-13],[-47,-24],[37,-36],[99,-23],[94,38],[88,44],[33,19],[11,14],[14,0],[1,-25],[-11,-22],[-98,-76],[-117,-106],[-56,-22],[-95,-32],[-110,-27],[-22,-28],[5,-32],[-5,-23],[-9,-10],[-15,-6],[-33,-7],[-12,-5],[-44,-42],[-21,-15],[-27,-6],[-15,-12],[-28,-55],[-15,-13],[-6,-11],[-62,-54],[-165,-109]],[[2992,0],[31,65],[39,-31],[28,-34]],[[3094,0],[11,9],[7,28],[16,-11],[-8,-26]],[[1389,2168],[32,39],[37,29],[-11,-59],[-40,-67],[-56,-55],[-63,-22],[-91,2],[-57,-4],[-25,3],[-29,7],[-28,13],[-3,-24],[-5,-18],[-11,-12],[-21,-6],[0,-22],[9,-10],[3,-6],[10,-25],[-22,0],[0,23],[-20,0],[2,-21],[-6,-14],[-8,-11],[-9,-15],[21,0],[-7,-6],[-9,-4],[-7,-10],[2,-20],[-12,10],[-10,6],[-9,7],[-9,17],[-10,-9],[-6,-8],[-2,-11],[-2,-12],[-18,40],[-13,-3],[-3,-1],[0,-6],[-4,-12],[-22,40],[-18,0],[-5,-5],[-2,-3],[-4,-4],[-8,-6],[6,17],[8,14],[23,30],[6,-16],[10,-12],[6,-15],[14,14],[13,4],[14,0],[17,2],[28,23],[41,65],[23,14],[13,13],[-20,28],[-45,40],[-18,0],[-15,-16],[-15,-6],[-15,5],[-15,17],[-20,0],[0,-40],[-32,14],[-20,27],[-3,32],[15,30],[-12,16],[-15,16],[-16,14],[-18,13],[-5,-27],[-6,-12],[-29,-20],[-8,40],[-24,15],[-28,-7],[-19,-30],[19,0],[0,-18],[-14,-23],[12,-21],[23,-25],[21,-34],[-22,-20],[7,-26],[8,-20],[11,-18],[14,-18],[-84,22],[-23,-9],[28,-54],[-18,0],[-31,44],[-9,19],[-22,0],[10,-63],[19,-54],[9,-57],[-16,-69],[-37,65],[-5,27],[-9,14],[-18,-8],[-10,-26],[16,-33],[-11,1],[-7,-3],[-2,-7],[1,-10],[-21,47],[-47,78],[-11,58],[-22,0],[-13,-16],[-6,-4],[-5,4],[-14,16],[-16,-44],[18,-37],[58,-63],[0,-20],[-26,10],[-18,14],[-38,39],[21,-54],[-16,-19],[-27,17],[-15,56],[-25,-29],[-41,-24],[-16,-29],[-15,15],[-11,16],[-14,31],[51,30],[64,92],[44,17],[-7,14],[-3,1],[-9,7],[55,47],[24,9],[22,-17],[52,53],[31,22],[15,-4],[9,-16],[21,26],[33,63],[-17,62],[41,154],[-6,44],[0,19],[22,14],[18,17],[12,22],[7,28],[35,-24],[37,-10],[37,6],[33,28],[10,19],[6,20],[3,53],[13,16],[85,56],[9,3],[9,0],[5,3],[-1,15],[18,0],[44,-33],[19,-8],[-35,-55],[-2,-54],[6,-46],[-11,-29],[34,-6],[57,20],[29,-14],[0,-20],[-114,-27],[-54,-26],[-35,-3],[-34,4],[-24,12],[-18,0],[1,-39],[12,-27],[21,-20],[26,-13],[0,40],[16,19],[27,-1],[35,-18],[-15,-26],[-26,-21],[-57,-35],[0,-18],[109,39],[30,21],[-11,-18],[-20,-47],[-10,-17],[21,0],[34,20],[32,-48],[23,-72],[9,-52],[32,-25],[156,10],[54,-15],[51,94]],[[3682,150],[-5,33],[11,15],[29,-17],[32,-20],[18,-24],[14,-31],[8,-35],[3,-30],[-1,-23],[36,-7],[6,-11]],[[3468,0],[0,3],[4,28],[-31,79],[12,41],[37,1],[26,-17],[118,50],[26,-24],[8,-15],[4,-14],[10,18]],[[1706,1155],[21,18],[19,-7],[9,3],[1,-9],[-6,-7],[8,-18],[14,-9],[18,-6],[1,-16],[-6,-17],[-13,-5],[-10,15],[-12,11],[-21,-4],[-19,5],[-7,18],[3,28]],[[2982,1622],[6,7],[3,-3],[2,-10],[16,-10],[-11,-8],[0,-16],[-13,-1],[-3,4],[7,11],[-2,7],[-5,4],[-1,10],[1,5]],[[734,2828],[1,-1],[0,-1]],[[735,2826],[12,-42],[1,-2],[2,-2]],[[750,2780],[17,-15]],[[767,2765],[3,-3],[12,-9],[5,-3],[31,3]],[[736,2826],[-1,0]],[[735,2826]],[[829,2756],[-42,-6],[-7,4],[-13,11]],[[767,2765],[-8,6],[-7,5],[-2,4]],[[750,2780],[-2,3],[-13,45]],[[803,2750],[-3,-4]],[[800,2746],[-2,-2],[2,-1],[2,1],[-2,2]],[[829,2756],[122,57],[65,-40],[-73,45],[-114,-62]],[[1009,1320],[3,3],[1,6],[1,1]],[[1014,1330],[14,20],[25,22]],[[1053,1372],[6,5],[61,39],[8,3],[1,3]],[[1409,1592],[-117,-63],[-48,6],[-6,0],[-6,-1],[-11,-11],[-25,-37],[0,-2],[-3,-7]],[[1193,1477],[-2,-4],[-1,-1]],[[1190,1472],[-18,-22],[-114,-73],[-5,-5]],[[1053,1372],[-39,-42]],[[1014,1330],[-1,-1],[-1,-5]],[[1016,2773],[22,-62]],[[1038,2711],[8,-19]],[[1046,2692],[70,-83],[156,-14],[252,-144],[46,-147],[-12,-87],[21,-80],[35,-28],[69,13],[28,-31]],[[1067,1380],[0,-1]],[[1129,1421],[5,1],[38,28],[17,21],[1,1]],[[1190,1472],[3,5]],[[1193,1477],[4,7],[-1,2],[11,16],[31,33],[54,-6],[93,41],[25,22]],[[1375,2072],[-40,12]],[[1392,2023],[1,-1]],[[1424,1600],[6,4]],[[1430,1604],[3,2]],[[1433,1606],[4,2]],[[1440,1614],[-16,-13]],[[1429,1604],[1,0]],[[1430,1604],[4,0]],[[1434,1604],[-1,2]],[[1433,1606],[0,1]],[[1434,1604],[2,-1]],[[1520,1882],[23,-30]],[[1543,1852],[-15,9]],[[1545,1850],[100,-86]],[[1569,2122],[9,13]],[[1578,2135],[-1,3]],[[1646,1763],[52,-61]],[[1711,2091],[80,-19],[52,-103]],[[1848,1975],[-58,97],[-79,19]],[[1743,1616],[0,1]],[[1755,1592],[-2,-5]],[[1754,1587],[2,4]],[[1758,1575]],[[1777,1756],[-5,-9]],[[1796,1767],[-5,-1],[-9,-6]],[[1782,1760],[-2,-2]],[[1780,1758],[-3,-2]],[[1779,1762],[-2,-6]],[[1779,1762],[8,17]],[[1780,1760],[-1,2]],[[1779,1756],[1,2]],[[1780,1758],[0,2]],[[1783,1759],[-1,1]],[[1782,1760],[-2,0]],[[1780,1751],[16,16]],[[4096,2279],[-143,-29],[-15,78],[-101,65],[-360,-1],[-34,30],[-256,-66],[-159,-122],[-446,-175]],[[805,2751],[-2,0],[0,-1],[2,0],[0,1]],[[1579,2135],[0,1],[-1,-1],[1,0]],[[1012,1324],[-113,-53],[-84,-185]],[[978,1305],[0,-1]],[[1005,1317],[4,3]],[[1705,1694],[1,0]],[[1754,1595],[-9,-4]],[[1746,1591],[9,3]],[[1827,1825],[-18,19]],[[1810,1843],[16,-18]],[[2020,1974],[3,-42]],[[2024,1932],[-3,42]],[[2297,2053],[-3,0],[-46,-3],[-9,-4],[-34,-56],[-9,-24]],[[2196,1966],[49,82],[198,-6],[115,6],[24,11],[-285,-6]],[[2265,2054]],[[2280,2054]],[[2285,2054]],[[2297,2053]],[[2405,2045]],[[2410,2045]],[[2415,2045],[0,-1]],[[2417,2045],[0,-1]],[[2424,2044]],[[2432,2043]],[[2438,2043]],[[1811,1676],[-18,-37]],[[954,1287],[51,30]],[[1818,1656],[-16,-27]],[[1802,1629],[-3,-3]],[[1746,1639],[4,-1]],[[1766,1673],[-18,-31]],[[1787,1642],[4,-3]],[[1794,1637],[-2,1]],[[1821,1684],[53,28]],[[1855,1732],[-1,-2]],[[1875,1712],[1,-7]],[[1735,1623],[4,2]],[[1738,1626],[-3,-3]],[[1735,1623],[9,-9]],[[1748,1607],[4,-17]],[[1752,1590],[17,-23]],[[1768,1568],[-16,22]],[[1804,1780],[-8,-1]],[[1829,1493],[0,-3]],[[1519,1605],[-70,14]],[[1449,1619],[-1,0]],[[1448,1619],[-1,1],[-6,-5]],[[1442,1613],[5,6],[1,0]],[[1448,1619],[1,0]],[[1449,1619],[73,-15]],[[1442,1613],[6,6]],[[1448,1619]],[[1448,1619],[31,29]],[[1456,1626],[-7,-7]],[[1449,1619]],[[1449,1619],[-7,-7]],[[1458,1636],[-3,0]],[[1479,1647],[-17,-16]],[[802,2745],[2,4]],[[1748,1607],[-5,9]],[[1748,1607],[15,0]],[[1772,1747],[-15,-23]],[[1757,1724],[-1,-1]],[[1756,1723],[0,-1]],[[1756,1722],[0,-6]],[[1756,1716],[-1,-31]],[[1756,1685],[0,31]],[[1756,1716],[0,6]],[[1756,1722],[0,1]],[[1756,1723],[1,1]],[[1757,1724],[1,0]],[[1756,1591],[3,1]],[[1757,1723],[1,-1]],[[1757,1723],[1,1]],[[1758,1722],[-1,1]],[[1758,1724],[22,27]],[[1774,1700],[-16,22]],[[1806,1622],[8,0],[2,-3]],[[1816,1619],[13,-25],[-1,0]],[[1828,1594],[-29,2],[-3,1]],[[1796,1597],[-5,2],[-28,-5]],[[1787,1634],[-24,-27]],[[1763,1607],[6,-5]],[[1764,1592],[24,4]],[[1771,1607],[12,16]],[[1775,1700],[-1,0]],[[1775,1698],[-1,2]],[[1786,1628],[-4,-6]],[[1783,1623],[4,5]],[[1783,1623],[3,4],[1,2],[0,4]],[[1787,1633],[0,1]],[[1784,1647],[2,2]],[[1784,1647],[2,2]],[[1786,1649],[14,21]],[[1786,1629],[0,-1]],[[1787,1633]],[[1787,1633],[-1,-4]],[[1787,1637],[1,7],[4,-6]],[[1788,1642],[-1,-5]],[[1787,1634],[0,3]],[[1787,1628],[0,5]],[[1795,1671],[-13,-21],[0,-3],[6,-4]],[[1788,1640],[14,-11]],[[1791,1639],[1,-1]],[[1802,1630],[-8,7]],[[1795,1598],[1,-1]],[[1796,1597],[3,-1],[14,-6],[16,2],[-1,2]],[[1828,1594],[-12,25]],[[1816,1619],[-2,3],[-5,0]],[[1796,1767],[16,3]],[[1812,1770]],[[1812,1770],[2,0],[-2,0]],[[1812,1770]],[[1812,1770],[-16,-3]],[[1799,1687],[-3,2]],[[1799,1687],[-2,2]],[[1799,1626],[-2,-1]],[[1797,1625],[3,2]],[[1799,1687],[1,0]],[[1800,1627]],[[1800,1627],[1,0]],[[1800,1627],[3,-1]],[[1801,1627],[0,1]],[[1803,1625],[2,0],[-4,2]],[[1802,1679],[-1,1]],[[1802,1739],[3,-1]],[[1803,1684],[7,21]],[[1810,1705],[-7,-19]],[[1803,1780],[1,0]],[[1804,1624],[1,-1]],[[1809,1622],[-4,3]],[[1806,1624],[-1,0]],[[1806,1624],[-1,-1]],[[1805,1623],[1,-1],[0,1]],[[1806,1623],[0,1]],[[1809,1622],[-3,1]],[[1808,1781],[3,1]],[[1811,1782]],[[1817,1717],[-7,-12]],[[2234,1958],[-278,-106],[-62,-12],[-2,0]],[[1892,1840],[-1,0]],[[1891,1840],[-22,3],[-2,-1],[-58,-41],[2,-19]],[[1811,1782],[1,-12]],[[1812,1770]],[[1812,1770],[2,-33],[0,-2],[1,-20],[-5,-10]],[[1810,1705],[6,8]],[[1810,1705],[20,31],[20,28],[2,3]],[[1852,1767],[1,0],[14,25]],[[1867,1792],[0,1]],[[1867,1793],[25,42],[-1,4]],[[1891,1839],[0,1]],[[1891,1840]],[[1891,1840],[-6,68]],[[1885,1908],[0,6],[-17,27]],[[1868,1941],[-20,34]],[[1815,1682],[-2,-3]],[[1815,1717],[-1,18],[0,2],[-2,33]],[[1812,1770]],[[1812,1770],[-2,30],[57,42],[2,1],[22,-3]],[[1891,1840],[1,0]],[[1892,1840],[2,-1],[62,13],[278,105]],[[1816,1714],[18,-38]],[[1834,1676],[-4,17],[-13,21]],[[1818,1685],[3,-1]],[[1824,1810]],[[1834,1816],[5,-5]],[[1839,1811],[-5,5]],[[1839,1811],[13,-44]],[[1843,1969],[41,-55],[1,-6]],[[1885,1908],[10,-62],[-3,-6]],[[1892,1840]],[[1892,1840],[-1,-1]],[[1891,1839],[-25,-46]],[[1866,1793]],[[1866,1793],[-14,-26]],[[1852,1767],[-2,-3]],[[1852,1767]],[[1852,1767],[1,-2]],[[1895,1818],[-22,-28]],[[1873,1790],[-1,-1]],[[1872,1789],[-19,-24]],[[1853,1765],[3,-30]],[[1854,1730],[-1,-1]],[[1856,1735],[-1,-3]],[[1890,1774],[-34,-39]],[[1861,1689],[-2,-13]],[[1861,1796],[5,-3]],[[1866,1793],[1,-1]],[[1867,1792],[5,-3]],[[1872,1789],[9,-6],[2,-2]],[[1883,1781],[6,-6],[1,-1]],[[1890,1774],[-11,12],[-6,4]],[[1873,1790],[-6,3]],[[1867,1793],[-1,0]],[[1866,1793],[-5,4]],[[1863,1688],[-1,-2]],[[1864,1682],[0,-2]],[[1864,1677],[0,3],[0,3]],[[1876,1705],[-2,-2]],[[1874,1703],[-1,-1]],[[1873,1702],[0,-1],[-8,-10],[-2,-4],[1,-7]],[[1865,1681],[52,39]],[[1868,1941]],[[1868,1941],[1,1]],[[1870,1941],[0,-1]],[[1874,1712],[40,19]],[[1917,1720],[-42,-8]],[[1880,1936],[-2,3]],[[1883,1781]],[[1883,1781]],[[1948,1818],[-28,-22],[-30,-22]],[[1890,1774],[15,-15]],[[1890,1774],[37,-12]],[[1898,1824],[-2,-6]],[[1926,1760],[-9,-40]],[[1926,1760],[2,0]],[[1927,1762],[-1,-2]],[[1931,1761],[-4,1]],[[1928,1762],[0,-2]],[[1928,1760],[2,1]],[[1930,1761],[1,0]],[[1930,1761]],[[1930,1761],[-1,1]],[[1932,1762],[-1,-1]],[[1932,1762],[18,11]],[[1949,1774],[-14,-8],[-3,-4]],[[1948,1820],[8,-18],[-5,-26]],[[1949,1818],[109,65],[-109,-64]],[[1951,1776],[-1,-2]],[[1951,1774],[0,2]],[[1757,1724],[-1,0],[0,-1]],[[1756,1723]],[[1756,1723],[1,0],[0,1]],[[1757,1724]],[[1757,1724]],[[1874,1702],[0,1]],[[1874,1703],[-1,-1]],[[1873,1702],[0,-1],[1,1]],[[1950,1774],[0,-1],[1,1],[-1,0]],[[1724,1664],[1,0]],[[1724,1665],[0,-1],[1,0]],[[1724,1665],[1,0]],[[1725,1665]],[[1725,1664]],[[1725,1664],[1,-1]],[[1725,1665],[0,-1]],[[1725,1664],[0,1]],[[1726,1664],[-1,0]],[[1725,1664]],[[1726,1665],[-1,-1]],[[1726,1663],[0,1]],[[1754,1649],[34,40]],[[1771,1607],[-17,-12]],[[1755,1594],[16,13]],[[1788,1690],[-5,-3],[-17,-14]],[[1767,1648],[0,1]],[[1767,1648],[3,0]],[[1768,1649],[0,-1]],[[1778,1649],[-4,0]],[[1775,1648],[2,0]],[[1805,1635],[0,-3]],[[1805,1632],[0,-1],[-2,-1]],[[1803,1630],[-1,0]],[[1802,1630],[-11,10],[-3,4]],[[1790,1640],[12,-10]],[[1802,1630],[1,0]],[[1803,1630],[0,-1],[2,2],[1,2]],[[1801,1628],[2,2]],[[1803,1630]],[[1803,1630],[2,2]],[[1805,1632],[1,1]],[[1865,1680],[-4,-4],[-2,0]],[[1859,1676],[-3,0]],[[1856,1676]],[[1856,1676],[-1,0],[-4,1],[-11,-10]],[[1840,1667],[-35,-32],[-3,-5]],[[1802,1630]],[[1802,1630],[0,-1]],[[1806,1633],[42,37]],[[1848,1670],[4,4],[4,2]],[[1856,1676],[2,2]],[[1858,1678],[7,3]],[[1816,1653],[-2,-2]],[[1859,1676]],[[1859,1676],[-11,-6]],[[1848,1670],[-8,-3]],[[1840,1667],[-22,-11]],[[1826,1825],[8,-9]],[[1834,1816],[-7,9]],[[1864,1680],[-6,-2]],[[1858,1678],[-2,-2]],[[1856,1676],[-1,0]],[[2023,1932],[4,-38]],[[2027,1894],[-3,38]],[[2196,1966],[-5,-14]],[[2191,1952],[5,14]],[[1777,1694],[25,45]],[[1805,1738],[5,-1]],[[3481,3135],[-50,-41]],[[1791,1757],[-3,-67]],[[1788,1689],[4,68]],[[1828,1875],[123,92]],[[1951,1968],[-123,-92]],[[2199,1893],[-2,-5]],[[2197,1888],[-9,-20],[-1,0]],[[2187,1868],[-111,-23],[-80,-31],[-132,-134]],[[1865,1681],[47,29],[1,0],[3,4]],[[1916,1714],[12,14],[44,44],[10,20],[14,22],[190,53],[1,1]],[[2187,1868],[10,20]],[[2197,1888],[2,5]],[[1881,1683],[-1,0]],[[1880,1683],[0,1]],[[1880,1683]],[[1880,1683],[0,3]],[[1907,1948],[-2,-4]],[[1909,1712],[-1,-5]],[[1910,1712]],[[1917,1714],[-1,0]],[[1916,1714],[-3,0]],[[1974,1775],[7,3]],[[1981,1778],[-5,2]],[[2002,1826],[0,-1]],[[2184,1952],[8,-6]],[[2191,1952],[-2,1]],[[2193,1954],[-2,-2]],[[2192,1946],[8,8]],[[1657,3530],[-17,49],[53,87],[85,23]],[[1539,1855]],[[1696,1857],[37,11]],[[1732,1868],[-36,-11]],[[1746,1867],[41,-13]],[[1786,1854],[-39,13]],[[1800,1839],[-2,-3],[-3,-34]],[[1795,1803],[6,36]],[[1829,1493],[0,-3]],[[1778,3689],[102,28],[747,-36],[493,9],[208,-66],[250,-133],[141,-24],[-194,-78],[166,11],[52,-33],[144,40],[135,101],[74,-64]],[[815,1086],[-26,-160],[48,-96],[-57,-259],[12,-86],[-194,-160],[-37,-144],[-159,-63],[-51,5],[-3,-2]],[[348,121],[-77,-51]],[[271,70],[-29,-19],[-15,-51]],[[227,0],[44,70]],[[271,70],[9,15],[68,36]],[[348,121],[4,2],[51,-6]],[[800,2743],[40,-27],[0,1]],[[840,2717],[2,2]],[[842,2719],[30,31]],[[872,2750],[1,1],[5,1]],[[878,2752],[94,11]],[[972,2763],[13,2],[16,-30]],[[1001,2735],[32,-59],[74,-91],[114,1],[85,-37],[92,-102],[111,-189],[26,-82],[4,-5],[3,-6]],[[1542,2165],[5,-12]],[[1546,2155],[-4,10]],[[1542,2165],[-2,6],[-4,5],[-27,81],[-111,190],[-92,102],[-85,38],[-114,-2],[-88,133],[-18,17]],[[1001,2735],[-29,28]],[[972,2763],[-7,7],[-87,-18]],[[878,2752],[-6,-2]],[[872,2750],[-3,0],[-27,-31]],[[842,2719],[-2,-3],[0,1]],[[840,2717],[-38,27]],[[1620,2011],[7,-15],[185,-128]],[[1812,1868],[-102,83],[-83,46],[-7,14]],[[1750,1638],[-12,-12]],[[1739,1625],[11,9]],[[1744,1614],[4,-7]],[[1754,1647],[-1,3]],[[1769,1567],[12,-15],[-13,16]],[[1847,1484],[1,0],[-1,0]],[[1753,1650],[0,12]],[[1753,1662],[0,-15]],[[1753,1662],[24,32]],[[1784,1688],[-6,6]],[[1803,1686],[-8,-15]],[[1800,1670],[3,14]],[[1813,1679],[-1,-4]],[[403,117],[158,64],[37,144],[194,160],[-12,86],[57,259],[-48,96],[27,160],[92,195],[46,6]],[[1527,1851],[-19,-21]],[[1509,1829],[18,21]],[[1781,1552],[66,-68]],[[1716,1677],[-18,25],[18,-25]],[[1774,1649],[-21,-5]],[[1788,1644],[-10,5]],[[1829,1490],[-76,-337]],[[1424,1601],[-15,-9]],[[1410,1592],[14,8]],[[1375,2072],[17,-49]],[[1393,2022],[127,-140]],[[1507,1920],[0,-2]],[[1543,1852],[1,-1]],[[1544,1851],[-1,1]],[[1544,1851],[1,-1]],[[1569,2109],[0,13]],[[1645,1764],[1,-1]],[[1009,1320],[110,36],[1,2]],[[1120,1358],[23,25]],[[1143,1383],[16,18],[64,69],[163,88],[36,30],[8,10]],[[1430,1598],[11,14]],[[1441,1612],[0,1]],[[1440,1611],[-10,-13]],[[1430,1598],[-8,-10],[-37,-30],[-163,-87],[-63,-70],[-16,-18]],[[1143,1383],[-22,-25],[-1,0]],[[1120,1358],[-60,-6],[-1,0],[-47,-28]],[[1442,1612],[-2,-1]],[[1441,1615],[0,-3]],[[1441,1612],[-1,-1]],[[1441,1613],[1,0]],[[1441,1613],[1,0]],[[1462,1631],[-6,-5]],[[1479,1648],[2,2]],[[1481,1650],[12,11],[-26,81],[38,70],[4,17]],[[1508,1830],[-41,-88],[26,-81],[-12,-11]],[[1481,1650],[-2,-3]],[[1706,1575],[-105,50],[-82,-20]],[[1522,1604],[78,21],[106,-51]],[[1696,1857],[-72,-27],[-63,28],[-30,-3],[-4,-4]],[[1527,1850],[12,5]],[[1539,1855],[84,-26],[73,28]],[[1747,1867],[-9,3],[-6,-2]],[[1733,1868],[13,-1]],[[1809,1844],[-3,3]],[[1806,1847],[-1,0]],[[1805,1847],[0,1],[-19,6]],[[1787,1854],[18,-7]],[[1805,1847],[1,0]],[[1806,1847],[4,-4]],[[1795,1802],[-4,-36],[0,-9]],[[1792,1757],[3,46]],[[1828,1876],[-12,-11],[0,-2],[-11,-16]],[[1805,1847]],[[1805,1847],[-5,-8]],[[1801,1839],[5,8]],[[1806,1847]],[[1806,1847],[10,16],[1,2],[11,10]],[[2233,2042],[-49,31],[-146,-90],[-87,-15]],[[1951,1967],[87,16],[21,10],[126,79],[43,-33]],[[1745,1591],[-39,-16]],[[1706,1574],[40,17]],[[1792,1635],[1,4]],[[1620,2011],[-47,92],[-8,12],[0,1],[-1,1]],[[1564,2117],[-5,7],[-13,31]],[[1547,2153],[17,-36]],[[1564,2117],[0,-1],[56,-105]],[[1778,1694],[-1,0]],[[1716,1677],[30,-38]],[[1748,1642],[-32,35]],[[1750,1638],[17,10]],[[1770,1648],[5,0]],[[1777,1648],[2,0]],[[1779,1648],[4,-1]],[[1778,1648],[1,0]],[[1779,1648],[9,-5]],[[1853,1729],[-42,-53]],[[1829,1490],[-76,-337]],[[1803,1626],[0,-1]],[[1850,1764],[-33,-47]],[[1787,1779],[9,0]],[[2998,1582],[-13,-1],[-3,4],[7,11],[-2,7],[-5,4],[-1,10],[1,5],[6,7],[3,-3],[2,-10],[16,-10],[-11,-8],[0,-16]],[[3767,137],[14,-31],[8,-35],[3,-30],[-1,-23],[36,-7],[6,-11],[-365,0],[0,3],[4,28],[-31,79],[12,41],[37,1],[26,-17],[118,50],[26,-24],[8,-15],[4,-14],[10,18],[-5,33],[11,15],[29,-17],[32,-20],[18,-24]],[[1727,1173],[19,-7],[9,3],[1,-9],[-6,-7],[8,-18],[14,-9],[18,-6],[1,-16],[-6,-17],[-13,-5],[-10,15],[-12,11],[-21,-4],[-19,5],[-7,18],[3,28],[21,18]],[[3094,0],[11,9],[7,28],[16,-11],[-8,-26],[-26,0]],[[3062,34],[28,-34],[-98,0],[31,65],[39,-31]],[[4096,3062],[0,-1896],[-44,39],[0,20],[22,0],[0,20],[-43,13],[-28,27],[-22,33],[-30,28],[23,-50],[5,-38],[-18,-30],[-48,-23],[-44,-7],[-29,11],[-57,67],[-21,47],[-11,57],[-16,48],[-383,201],[-152,34],[-74,53],[-12,16],[-4,29],[8,17],[12,16],[5,28],[2,61],[-5,51],[-23,33],[-55,5],[0,22],[62,4],[48,26],[33,41],[18,50],[18,0],[26,-40],[28,1],[47,39],[59,21],[27,15],[14,26],[-19,-9],[-39,-3],[-24,-8],[-19,-15],[-37,-41],[-12,-8],[-24,9],[-7,18],[-9,16],[-29,-1],[-18,-16],[-36,-53],[-16,-12],[-7,-6],[-10,-14],[-16,-14],[-28,-6],[-27,-1],[-22,-6],[-14,-13],[-5,-22],[18,-20],[38,-11],[34,-26],[8,-62],[-14,-36],[-30,-50],[-40,-36],[-45,10],[-19,10],[-71,20],[-3,13],[-14,23],[-16,8],[-7,-35],[-49,-16],[-234,42],[-76,-15],[-19,0],[0,20],[-71,-23],[-165,16],[-65,-33],[-26,20],[-27,-3],[-28,-11],[-51,-10],[-36,-13],[-22,-4],[-22,-6],[-6,-14],[-2,-14],[-9,-6],[-10,-10],[-81,-50],[-6,-27],[2,-25],[-5,-19],[-31,-10],[50,-86],[11,-35],[-38,27],[-47,48],[-40,55],[-16,51],[-18,0],[4,-17],[5,-11],[9,-14],[0,-18],[-18,0],[21,-73],[-14,-64],[-42,-30],[-66,24],[-133,-23],[-42,-22],[16,-35],[0,-19],[-33,11],[-20,14],[-20,6],[-29,-12],[-8,9],[-3,5],[-7,3],[-20,3],[0,-20],[9,-10],[4,-16],[7,-15],[-50,9],[-47,-24],[-39,-42],[-25,-43],[-12,-57],[12,-176],[7,-17],[13,-9],[14,-6],[6,-9],[-3,-18],[-6,-16],[-9,-16],[-6,-23],[-12,-25],[-15,-23],[-18,-21],[-11,-8],[-36,-18],[-37,-8],[-2,-11],[3,-13],[-7,-12],[-50,-13],[-47,-24],[37,-36],[99,-23],[94,38],[88,44],[33,19],[11,14],[14,0],[1,-25],[-11,-22],[-98,-76],[-117,-106],[-56,-22],[-95,-32],[-110,-27],[-22,-28],[5,-32],[-5,-23],[-9,-10],[-15,-6],[-33,-7],[-12,-5],[-44,-42],[-21,-15],[-27,-6],[-15,-12],[-28,-55],[-15,-13],[-6,-11],[-62,-54],[-165,-109],[-377,0],[0,2326],[77,31],[84,48],[104,118],[114,101],[74,70],[6,34],[57,93],[74,29],[18,-1],[11,-28],[-6,-111],[6,-29],[16,-20],[26,-15],[30,-3],[29,16],[22,53],[4,60],[16,28],[58,-39],[-7,25],[-7,51],[-6,25],[7,-6],[13,-13],[19,19],[-36,51],[27,28],[34,-15],[55,5],[64,-29],[54,-89],[21,-34],[-12,65],[-15,45],[-1,41],[28,52],[43,40],[87,32],[49,31],[6,9],[8,22],[6,10],[10,7],[19,31],[27,17],[43,30],[19,76],[20,71],[51,20],[24,22],[-14,15],[-33,-12],[-26,-7],[-16,18],[19,12],[17,13],[15,31],[42,18],[33,26],[25,30],[53,15],[46,-6],[58,18],[74,34],[53,-14],[14,-35],[16,-29],[0,-22],[-30,-17],[0,-18],[28,-13],[1,-7],[11,-22],[14,10],[10,6],[9,8],[8,18],[20,0],[18,-14],[23,-11],[58,-17],[2,25],[20,55],[15,-26],[20,-11],[21,3],[22,14],[110,-27],[163,-18],[184,-51],[97,-34],[133,-17],[55,29],[55,16],[67,-5],[50,-4],[50,12],[55,16],[92,8],[103,18],[124,9],[38,-24],[0,-33],[-50,-27],[-36,7],[-29,-22],[-32,-3],[-89,-10],[-48,-10],[-32,-54],[8,-69],[15,-95],[51,-17],[47,11],[30,-14],[38,7],[37,5],[32,5],[32,-7],[40,0],[51,-21],[30,-10],[26,-22],[23,-17],[13,-24],[22,5],[38,2],[23,-1],[29,-7],[36,4],[16,27],[32,7],[53,-13],[83,17],[24,27],[50,-10],[33,6],[8,2]],[[1325,3422],[70,142],[67,2],[47,50],[136,27],[83,62],[95,-29],[64,-105],[-34,-120],[-92,-58],[-30,14],[-67,-37],[173,-45],[-20,-19],[7,-76],[90,-45],[-110,-32],[0,-39],[-53,36],[-5,-52],[-37,-6],[-16,-46],[-2,31],[-43,-1],[30,58],[-25,-11],[-17,22],[-60,-82],[-50,20],[-20,-19],[-27,28],[-8,-34],[25,-17],[-70,-20],[14,179],[-17,14],[32,7],[-9,47],[-26,-12],[-80,62],[-15,104]],[[1417,2828],[44,196],[35,17],[-25,17],[8,34],[27,-28],[20,19],[50,-20],[60,82],[17,-22],[25,11],[-30,-58],[43,1],[-6,-19],[8,-12],[16,46],[37,6],[5,52],[53,-36],[0,39],[110,32],[-90,45],[-7,76],[25,21],[632,-132],[468,-176],[5,-30],[-40,-99],[-28,-21],[-70,6],[-167,-80],[-129,-171],[-144,-62],[-69,-83],[-70,-14],[-75,-205],[-123,35],[-76,-19],[-54,-52],[-154,98],[-54,14],[-24,-38],[-37,85],[-52,23],[28,-46],[-36,-13],[8,40],[-18,-9],[-7,22],[42,24],[54,-25],[-3,51],[-33,24],[41,22],[-4,20],[-54,-38],[-13,14],[30,10],[2,36],[5,-24],[15,10],[4,69],[34,54],[-6,73],[-33,-1],[4,28],[48,-42],[57,68],[0,31],[-329,24]],[[1933,1997],[25,-41],[63,-25],[233,47],[-71,-204],[-60,14],[-159,-44],[-108,-94],[-9,-71],[-31,-10],[61,-121],[-85,75],[-56,106],[-34,4],[29,94],[65,32],[0,66],[32,0],[0,129],[65,68],[40,-25]],[[1539,1855],[64,-40],[62,15],[17,-30],[2,49],[29,20],[62,-3],[34,-36],[-52,-103],[-14,42],[-33,-1],[8,26],[-48,4],[-24,-35],[-107,92]],[[1368,1608],[28,45],[-27,36],[93,-19],[17,-23],[-23,-21],[68,-23],[17,-83],[-25,-1],[6,12],[-20,35],[12,-33],[-48,-10],[9,47],[-22,3],[-19,65],[-14,-50],[-52,20]],[[726,2173],[52,120],[177,86],[111,-134],[-13,-102],[-80,-102],[-44,-12],[-54,-1],[-75,49],[-74,96]],[[872,2500],[89,40],[49,-79],[30,1],[135,-140],[234,-38],[120,-105],[106,-149],[-120,-153],[-130,154],[-21,83],[-260,8],[-47,141],[-154,169],[-31,68]]]}