{"objects":{"water":{"type":"GeometryCollection","geometries":[{"type":"Polygon","properties":{"source":"naturalearthdata.com","kind":"ocean","area":1576712559132672,"sort_rank":200,"min_zoom":0.0,"id":1},"arcs":[[10]]},{"type":"LineString","properties":{"source":"naturalearthdata.com","kind":"ocean","sort_rank":205,"boundary":true,"min_zoom":0.0,"id":77},"arcs":[11]}]},"buildings":{"type":"GeometryCollection","geometries":[]},"places":{"type":"GeometryCollection","geometries":[{"type":"Point","properties":{"name:pt":"Equador","name:ps":"\u0627\u06d0\u06a9\u0648\u0627\u062f\u0648\u0631","name:ka":"\u10d4\u10d9\u10d5\u10d0\u10d3\u10dd\u10e0\u10d8","name:mt":"Ekwador","name:ko":"\uc5d0\ucf70\ub3c4\ub974","name:cv":"\u042d\u043a\u0432\u0430\u0434\u043e\u0440","name:km":"\u17a2\u17c1\u1780\u17d2\u179c\u17b6\u178c\u17d0\u179a","name:cs":"Ekv\u00e1dor","name:ki":"Ekwado","name:kw":"Pow Ekwadorel","name:tr":"Ekvador","name:ku":"Ekuador","name:ti":"\u12a2\u12b3\u12f6\u122d","name:ks":"\u0627\u0650\u06a9\u0648\u0627\u0691\u0648\u0631","name:to":"\u02bbEkuetoa","name:tl":"Ekwador","name:pa":"\u0a0f\u0a15\u0a41\u0a06\u0a26\u0a4b\u0a30","name:os":"\u042d\u043a\u0432\u0430\u0434\u043e\u0440","name:or":"\u0b07\u0b15\u0b4d\u0b71\u0b3e\u0b21\u0b4b\u0b30\u0b4d","name:ce":"\u042d\u043a\u0432\u0430\u0434\u043e\u0440","name:ta":"\u0b88\u0b95\u0bcd\u0bb5\u0b9f\u0bbe\u0bb0\u0bcd","name:tg":"\u042d\u043a\u0443\u0430\u0434\u043e\u0440","name:ca":"Equador","name:te":"\u0c08\u0c15\u0c4d\u0c35\u0c21\u0c4b\u0c30\u0c4d","name:cy":"Ecwador","name:ln":"Ekwat\u025b\u0301l\u025b","name:sr":"\u0415\u043a\u0432\u0430\u0434\u043e\u0440","name:dz":"\u0f68\u0f7a\u0f0b\u0f41\u0fad\u0f0b\u0f4c\u0f7c\u0f62","source":"openstreetmap.org","name:nv":"K\u00e9yah Nahasdz\u00e1\u00e1n A\u0142n\u00edi\u02bcgi Si\u02bc\u00e1n\u00edg\u00ed\u00ed","name:kn":"\u0c88\u0c95\u0ccd\u0cb5\u0cc6\u0ca1\u0cbe\u0cb0\u0ccd","name:yi":"\u05e2\u05e7\u05d5\u05d5\u05d0\u05d3\u05d0\u05e8","name:dv":"\u0787\u07a8\u0786\u07aa\u0787\u07ac\u0791\u07af\u0783\u07aa","name:lv":"Ekvadora","name:lt":"Ekvadoras","name:uz":"Ekvador","name:kk":"\u042d\u043a\u0432\u0430\u0434\u043e\u0440","name:he":"\u05d0\u05e7\u05d5\u05d0\u05d3\u05d5\u05e8","min_zoom":2.0,"kind":"country","name:ur":"\u0627\u06cc\u06a9\u0648\u0627\u0688\u0648\u0631","name:la":"Aequatoria","name:lg":"Ekwado","name:uk":"\u0415\u043a\u0432\u0430\u0434\u043e\u0440","name:hy":"\u0537\u056f\u057e\u0561\u0564\u0578\u0580","name:ug":"\u0626\u06d0\u0643\u06cb\u0627\u062f\u0648\u0631","name:hr":"Ekvador","name:lo":"\u0ec0\u0ead\u0e81\u0ea7\u0eb2\u0e94\u0ecd","name:oc":"Eq\u00fcator","population":13755680,"name:el":"\u0399\u03c3\u03b7\u03bc\u03b5\u03c1\u03b9\u03bd\u03cc\u03c2","name:eo":"Ekvadoro","name":"Ecuador","name:is":"Ekvador","name:ee":"Ekuad\u0254 nutome","name:th":"\u0e1b\u0e23\u0e30\u0e40\u0e17\u0e28\u0e40\u0e2d\u0e01\u0e27\u0e32\u0e14\u0e2d\u0e23\u0e4c","name:eu":"Ekuador","name:yo":"Or\u00edl\u1eb9\u0301\u00e8de Eku\u00e1d\u00f2","name:ay":"Ikwadur","alt_name:el":"\u0395\u03ba\u03bf\u03c5\u03b1\u03b4\u03cc\u03c1","name:rn":"Ekwateri","name:az":"Ekvador","name:id":"Ekuador","name:mr":"\u0907\u0915\u094d\u0935\u093e\u0921\u094b\u0930","name:qu":"Ikwadur","name:ar":"\u0625\u0643\u0648\u0627\u062f\u0648\u0631","name:my":"\u1021\u102e\u1000\u103d\u1031\u1012\u1031\u102b","name:io":"Equador","name:gn":"Ekuator","name:ak":"Ikuwad\u0254","name:am":"\u12a2\u12b3\u12f6\u122d","name:fo":"Ekvador","name:ml":"\u0d07\u0d15\u0d4d\u0d35\u0d21\u0d4b\u0d7c","name:ru":"\u042d\u043a\u0432\u0430\u0434\u043e\u0440","name:rw":"Ekwadoro","name:mi":"Ekuatoa","name:pl":"Ekwador","name:mk":"\u0415\u043a\u0432\u0430\u0434\u043e\u0440","name:vo":"Lekvador\u00e4n","name:zu":"i-Ecuador","name:ha":"Ekwador","name:mn":"\u042d\u043a\u0432\u0430\u0434\u043e\u0440","name:ff":"Ekuwatoor","name:hi":"\u0907\u0915\u094d\u0935\u093e\u0921\u094b\u0930","name:mg":"Ekoatera","id":424298227,"official_name":"Rep\u00fablica del Ecuador","name:fr":"\u00c9quateur","name:zh-yue":"\u5384\u74dc\u591a\u723e","name:fy":"Ekwador","name:zh":"\u5384\u74dc\u591a\u5c14","name:so":"Ikuwadoor","name:sl":"Ekvador","name:sk":"Ekv\u00e1dor","name:ja":"\u30a8\u30af\u30a2\u30c9\u30eb","name:si":"\u0d89\u0d9a\u0dca\u0dc0\u0daf\u0ddd\u0dbb\u0dba","name:sh":"Ekvador","name:sg":"Ekuat\u00ebre","name:na":"Ekwador","name:ne":"\u0907\u0915\u094d\u0935\u0921\u0947\u0930","name:sa":"\u090f\u0915\u094d\u0935\u093e\u0921\u094b\u0930","name:bs":"Ekvador","name:bm":"Ekwat\u0254r","name:bn":"\u0987\u0995\u09c1\u09af\u09bc\u09c7\u09a1\u09b0","name:bo":"\u0f68\u0f72\u0f0b\u0f41\u0fad\u0f0b\u0f4c\u0f7c\u0f62\u0f0d","name:sw":"Ekwado","name:be":"\u042d\u043a\u0432\u0430\u0434\u043e\u0440","name:su":"\u00c9kuador","name:bg":"\u0415\u043a\u0432\u0430\u0434\u043e\u0440","name:wo":"Ekwadoor","name:ba":"\u042d\u043a\u0432\u0430\u0434\u043e\u0440","name:sq":"Ekuator","name:ga":"Eacuad\u00f3r","name:gd":"Eacuador","name:ht":"Ekwat\u00e8","name:jv":"Ekuador","name:fa":"\u0627\u06a9\u0648\u0627\u062f\u0648\u0631","name:gu":"\u0a8f\u0a95\u0acd\u0ab5\u0abe\u0aa1\u0acb\u0ab0","name:tt":"\u042d\u043a\u0432\u0430\u0434\u043e\u0440"},"coordinates":[2300,193]},{"type":"Point","properties":{"source":"openstreetmap.org","kind":"region","name":"Manab\u00ed","name:ru":"\u041c\u0430\u043d\u0430\u0431\u0438","kind_detail":"state","min_zoom":4.0,"id":470298798},"coordinates":[277,1886]},{"type":"Point","properties":{"source":"openstreetmap.org","kind":"region","name":"Cotopaxi","name:ru":"\u041a\u043e\u0442\u043e\u043f\u0430\u043a\u0441\u0438","kind_detail":"state","min_zoom":4.0,"id":470287322},"coordinates":[3677,1687]},{"type":"Point","properties":{"source":"naturalearthdata.com","kind":"locality","name":"Chone","population":44751,"min_zoom":7.0,"id":3469},"coordinates":[193,2087]},{"type":"Point","properties":{"source":"openstreetmap.org","kind":"locality","name":"Quevedo","kind_detail":"city","population":300000,"min_zoom":8.0,"id":249597057},"coordinates":[2010,1112]},{"type":"Point","properties":{"kind":"locality","name:en":"Cant\u00f3n Santo Domingo de los Colorados","name":"Santo Domingo de los Colorados","kind_detail":"city","source":"openstreetmap.org","min_zoom":8.0,"id":249599781,"population":270875},"coordinates":[2874,3424]},{"type":"Point","properties":{"source":"openstreetmap.org","kind":"locality","name":"Alluriqu\u00edn","kind_detail":"town","population":19000,"min_zoom":8.0,"id":249420687},"coordinates":[3378,3157]},{"type":"Point","properties":{"source":"openstreetmap.org","kind":"locality","name":"San Jacinto de Buena Fe","kind_detail":"town","population":17248,"min_zoom":8.0,"id":249421944},"coordinates":[1937,1484]},{"type":"Point","properties":{"source":"openstreetmap.org","kind":"locality","name":"San Jacinto del B\u00faa","kind_detail":"town","population":11000,"min_zoom":8.0,"id":3227033884},"coordinates":[2215,3667]},{"type":"Point","properties":{"source":"openstreetmap.org","kind":"locality","name":"Valle Hermoso","kind_detail":"town","population":10000,"min_zoom":8.0,"id":370221289},"coordinates":[2551,3842]},{"type":"Point","properties":{"source":"openstreetmap.org","kind":"locality","name":"El Esfuerzo","kind_detail":"town","population":9000,"min_zoom":8.0,"id":249423416},"coordinates":[2569,2881]}]},"transit":{"type":"GeometryCollection","geometries":[]},"pois":{"type":"GeometryCollection","geometries":[]},"boundaries":{"type":"GeometryCollection","geometries":[{"type":"LineString","properties":{"kind":"region","name":"Cotopaxi - Pichincha","sort_rank":256,"kind_detail":"4","id:right":-113722,"source":"openstreetmap.org","min_zoom":8.0,"id:left":-963072,"name:left":"Cotopaxi","id":-963072,"osm_relation":true,"name:right":"Pichincha"},"arcs":[0]},{"type":"LineString","properties":{"kind":"region","name":"Cotopaxi - Tungurahua","sort_rank":256,"kind_detail":"4","id:right":-113442,"source":"openstreetmap.org","min_zoom":8.0,"id:left":-963072,"name:left":"Cotopaxi","id":-963072,"osm_relation":true,"name:right":"Tungurahua"},"arcs":[1]},{"type":"LineString","properties":{"kind":"region","name":"Cotopaxi","sort_rank":256,"kind_detail":"4","source":"openstreetmap.org","min_zoom":8.0,"id":-963072,"osm_relation":true},"arcs":[2]},{"type":"MultiLineString","properties":{"kind":"region","name":"Pichincha","sort_rank":256,"kind_detail":"4","source":"openstreetmap.org","min_zoom":8.0,"id":-113722,"osm_relation":true},"arcs":[[3],[4]]},{"type":"LineString","properties":{"kind":"region","name":"Tungurahua","sort_rank":256,"kind_detail":"4","source":"openstreetmap.org","min_zoom":8.0,"id":-113442,"osm_relation":true},"arcs":[5]},{"type":"MultiLineString","properties":{"kind":"region","name":"Manab\u00ed - Guayas","sort_rank":256,"kind_detail":"4","id:left":-112910,"id:right":-109468,"source":"openstreetmap.org","min_zoom":8.0,"name:left:pl":"Prowincja Manab\u00ed","name:left:ru":"\u041c\u0430\u043d\u0430\u0431\u0438","name:left":"Manab\u00ed","id":-112910,"osm_relation":true,"name:right":"Guayas"},"arcs":[[6],[7]]},{"type":"LineString","properties":{"kind":"region","name":"Manab\u00ed","sort_rank":256,"kind_detail":"4","source":"openstreetmap.org","min_zoom":8.0,"name:ru":"\u041c\u0430\u043d\u0430\u0431\u0438","name:pl":"Prowincja Manab\u00ed","id":-112910,"osm_relation":true},"arcs":[8]},{"type":"LineString","properties":{"kind":"region","name":"Guayas","sort_rank":256,"kind_detail":"4","source":"openstreetmap.org","min_zoom":8.0,"id":-109468,"osm_relation":true},"arcs":[9]}]},"roads":{"type":"GeometryCollection","geometries":[{"type":"LineString","properties":{"kind":"major_road","network":"EC:national","sort_rank":380,"kind_detail":"primary","source":"openstreetmap.org","min_zoom":8.0,"landuse_kind":"urban_area","shield_text":"20","ref":"E20"},"arcs":[12]},{"type":"MultiLineString","properties":{"source":"openstreetmap.org","kind":"major_road","network":"EC:provincial","sort_rank":380,"kind_detail":"primary","min_zoom":8.0,"shield_text":"48"},"arcs":[[13],[14],[15],[16]]},{"type":"LineString","properties":{"kind":"major_road","network":"EC:national","sort_rank":381,"kind_detail":"trunk","source":"openstreetmap.org","min_zoom":8.0,"shield_text":"20","id":158064444},"arcs":[17]},{"type":"MultiLineString","properties":{"kind":"major_road","network":"EC:provincial","sort_rank":380,"kind_detail":"primary","source":"openstreetmap.org","min_zoom":8.0,"shield_text":"48","ref":"E48"},"arcs":[[18],[19],[20],[21]]},{"type":"LineString","properties":{"kind":"major_road","network":"EC:national","sort_rank":380,"kind_detail":"primary","source":"openstreetmap.org","min_zoom":8.0,"landuse_kind":"residential","shield_text":"30","id":167645972},"arcs":[22]},{"type":"LineString","properties":{"kind":"major_road","network":"EC:national","sort_rank":381,"kind_detail":"trunk","source":"openstreetmap.org","min_zoom":8.0,"landuse_kind":"urban_area","shield_text":"20","ref":"GPS","id":408694818},"arcs":[23]},{"type":"LineString","properties":{"kind":"major_road","network":"EC:provincial","sort_rank":381,"kind_detail":"trunk","source":"openstreetmap.org","min_zoom":8.0,"shield_text":"48","ref":"E48"},"arcs":[24]},{"type":"MultiLineString","properties":{"source":"openstreetmap.org","kind":"major_road","sort_rank":380,"kind_detail":"primary","ref":"E25","min_zoom":8.0},"arcs":[[25],[26],[27]]},{"type":"MultiLineString","properties":{"source":"openstreetmap.org","kind":"major_road","sort_rank":381,"kind_detail":"trunk","ref":"E38","min_zoom":8.0},"arcs":[[28],[29]]},{"type":"MultiLineString","properties":{"kind":"major_road","network":"EC:national","sort_rank":381,"kind_detail":"trunk","source":"openstreetmap.org","min_zoom":8.0,"shield_text":"20","ref":"E20"},"arcs":[[30],[31],[32],[33],[34],[35],[36],[37],[38],[39],[40]]},{"type":"MultiLineString","properties":{"kind":"major_road","network":"EC:national","sort_rank":380,"kind_detail":"primary","source":"openstreetmap.org","min_zoom":8.0,"landuse_kind":"urban_area","shield_text":"25","ref":"E25"},"arcs":[[41],[42],[43]]},{"type":"MultiLineString","properties":{"kind":"major_road","network":"EC:national","sort_rank":380,"kind_detail":"primary","source":"openstreetmap.org","min_zoom":8.0,"shield_text":"25","ref":"E28"},"arcs":[[44],[45]]},{"type":"MultiLineString","properties":{"sort_rank":381,"source":"openstreetmap.org","min_zoom":8.0,"kind":"major_road","kind_detail":"trunk"},"arcs":[[46],[47],[48],[49],[50],[51],[52]]},{"type":"MultiLineString","properties":{"source":"openstreetmap.org","kind":"major_road","network":"EC:national","sort_rank":380,"kind_detail":"primary","min_zoom":8.0,"shield_text":"25"},"arcs":[[53],[54]]},{"type":"LineString","properties":{"source":"openstreetmap.org","kind":"major_road","landuse_kind":"nature_reserve","sort_rank":380,"kind_detail":"primary","ref":"E385","min_zoom":8.0},"arcs":[55]},{"type":"MultiLineString","properties":{"source":"openstreetmap.org","kind":"major_road","network":"EC:provincial","sort_rank":381,"kind_detail":"trunk","min_zoom":8.0,"shield_text":"38"},"arcs":[[56],[57]]},{"type":"MultiLineString","properties":{"kind":"major_road","network":"EC:national","sort_rank":380,"kind_detail":"primary","source":"openstreetmap.org","min_zoom":8.0,"shield_text":"25","ref":"E25"},"arcs":[[58],[59],[60],[61],[62],[63],[64],[65],[66],[67]]},{"type":"LineString","properties":{"kind":"major_road","network":"EC:provincial","sort_rank":380,"kind_detail":"primary","source":"openstreetmap.org","min_zoom":8.0,"shield_text":"38","ref":"E38;E384","id":413365619},"arcs":[68]},{"type":"MultiLineString","properties":{"kind":"major_road","network":"EC:national","sort_rank":380,"kind_detail":"primary","source":"openstreetmap.org","min_zoom":8.0,"landuse_kind":"urban_area","shield_text":"20"},"arcs":[[69],[70],[71]]},{"type":"LineString","properties":{"source":"openstreetmap.org","kind":"major_road","sort_rank":380,"kind_detail":"primary","ref":"E20","min_zoom":8.0,"id":410332701},"arcs":[72]},{"type":"LineString","properties":{"kind":"major_road","network":"EC:provincial","sort_rank":380,"kind_detail":"primary","source":"openstreetmap.org","min_zoom":8.0,"shield_text":"28","ref":"E28","id":522076647},"arcs":[73]},{"type":"MultiLineString","properties":{"source":"openstreetmap.org","kind":"major_road","landuse_kind":"urban_area","sort_rank":380,"kind_detail":"primary","min_zoom":8.0},"arcs":[[74],[75],[76],[77],[78],[79],[80],[81],[82],[83],[84],[85],[86],[87],[88],[89],[90],[91],[92],[93],[94],[95],[96],[97],[98],[99],[100],[101],[102],[103],[104],[105],[106],[107],[108],[109],[110],[111],[112],[113],[114],[115],[116],[117],[118],[119],[120],[121],[122],[123],[124],[125],[126],[127],[128],[129],[130],[131],[132],[133],[134],[135],[136],[137],[138],[139],[140],[141],[142],[143],[144],[145],[146],[147],[148],[149],[150],[151]]},{"type":"LineString","properties":{"kind":"major_road","network":"EC:national","sort_rank":380,"kind_detail":"primary","source":"openstreetmap.org","min_zoom":8.0,"shield_text":"15","ref":"E15"},"arcs":[152]},{"type":"LineString","properties":{"kind":"major_road","network":"EC:national","sort_rank":381,"kind_detail":"trunk","source":"openstreetmap.org","min_zoom":8.0,"shield_text":"25","ref":"E20"},"arcs":[153]},{"type":"MultiLineString","properties":{"kind":"major_road","network":"EC:national","sort_rank":380,"kind_detail":"primary","source":"openstreetmap.org","min_zoom":8.0,"landuse_kind":"residential","shield_text":"25","ref":"E25"},"arcs":[[154],[155],[156],[157],[158],[159],[160],[161],[162]]},{"type":"MultiLineString","properties":{"kind":"major_road","network":"EC:national","sort_rank":380,"kind_detail":"primary","source":"openstreetmap.org","min_zoom":8.0,"shield_text":"20","ref":"E20"},"arcs":[[163],[164]]},{"type":"LineString","properties":{"source":"openstreetmap.org","kind":"major_road","network":"EC:national","sort_rank":380,"kind_detail":"primary","min_zoom":8.0,"shield_text":"20"},"arcs":[165]},{"type":"LineString","properties":{"source":"openstreetmap.org","kind":"major_road","sort_rank":380,"kind_detail":"primary","ref":"E28","min_zoom":8.0,"id":88719456},"arcs":[166]},{"type":"MultiLineString","properties":{"kind":"major_road","network":"EC:provincial","sort_rank":380,"kind_detail":"primary","source":"openstreetmap.org","min_zoom":8.0,"landuse_kind":"nature_reserve","shield_text":"491","ref":"E491"},"arcs":[[167],[168],[169]]},{"type":"MultiLineString","properties":{"sort_rank":380,"kind_detail":"primary","min_zoom":8.0,"kind":"major_road","source":"openstreetmap.org"},"arcs":[[170],[171],[172],[173],[174],[175],[176],[177],[178],[179],[180],[181],[182],[183],[184],[185],[186],[187],[188],[189],[190],[191],[192],[193],[194],[195],[196],[197],[198],[199],[200],[201],[202],[203],[204]]},{"type":"MultiLineString","properties":{"kind":"major_road","network":"EC:national","sort_rank":381,"kind_detail":"trunk","source":"openstreetmap.org","min_zoom":8.0,"shield_text":"25","ref":"E25"},"arcs":[[205],[206],[207],[208],[209]]},{"type":"MultiLineString","properties":{"source":"openstreetmap.org","kind":"major_road","landuse_kind":"urban_area","sort_rank":380,"kind_detail":"primary","is_bicycle_related":true,"min_zoom":8.0},"arcs":[[210],[211]]},{"type":"MultiLineString","properties":{"kind":"major_road","network":"EC:national","sort_rank":380,"kind_detail":"primary","source":"openstreetmap.org","min_zoom":8.0,"landuse_kind":"residential","shield_text":"25"},"arcs":[[212],[213],[214],[215]]},{"type":"MultiLineString","properties":{"source":"openstreetmap.org","kind":"major_road","network":"EC:provincial","sort_rank":380,"kind_detail":"primary","min_zoom":8.0,"shield_text":"38"},"arcs":[[216],[217],[218],[219],[220],[221]]},{"type":"MultiLineString","properties":{"kind":"major_road","network":"EC:provincial","sort_rank":380,"kind_detail":"primary","source":"openstreetmap.org","min_zoom":8.0,"shield_text":"38","ref":"E38"},"arcs":[[222],[223],[224],[225],[226],[227],[228],[229]]},{"type":"MultiLineString","properties":{"source":"openstreetmap.org","kind":"major_road","sort_rank":380,"kind_detail":"primary","ref":"E385","min_zoom":8.0},"arcs":[[230],[231],[232],[233]]},{"type":"MultiLineString","properties":{"kind":"major_road","network":"EC:national","sort_rank":380,"kind_detail":"primary","source":"openstreetmap.org","min_zoom":8.0,"landuse_kind":"residential","shield_text":"30","ref":"E30"},"arcs":[[234],[235]]},{"type":"LineString","properties":{"kind":"major_road","network":"EC:national","sort_rank":381,"landuse_kind":"urban_area","source":"openstreetmap.org","min_zoom":8.0,"kind_detail":"trunk","shield_text":"25","ref":"E25A"},"arcs":[236]},{"type":"LineString","properties":{"source":"openstreetmap.org","kind":"major_road","sort_rank":381,"kind_detail":"trunk","ref":"E25","min_zoom":8.0},"arcs":[237]},{"type":"MultiLineString","properties":{"source":"openstreetmap.org","kind":"major_road","landuse_kind":"residential","sort_rank":380,"kind_detail":"primary","min_zoom":8.0},"arcs":[[238],[239]]},{"type":"MultiLineString","properties":{"sort_rank":383,"kind_detail":"motorway","min_zoom":8.0,"kind":"highway","source":"openstreetmap.org"},"arcs":[[240],[241],[242],[243],[244]]},{"type":"MultiLineString","properties":{"source":"openstreetmap.org","kind":"major_road","network":"EC:national","sort_rank":381,"kind_detail":"trunk","min_zoom":8.0,"shield_text":"25"},"arcs":[[245],[246],[247]]},{"type":"LineString","properties":{"kind":"major_road","network":"EC:national","sort_rank":380,"kind_detail":"primary","source":"openstreetmap.org","min_zoom":8.0,"landuse_kind":"nature_reserve","shield_text":"30","ref":"E30","id":49655292},"arcs":[248]},{"type":"LineString","properties":{"kind":"major_road","network":"EC:national","sort_rank":380,"kind_detail":"primary","source":"openstreetmap.org","min_zoom":8.0,"landuse_kind":"residential","shield_text":"25","ref":"E25;E30"},"arcs":[249]},{"type":"MultiLineString","properties":{"kind":"major_road","network":"EC:national","sort_rank":381,"kind_detail":"trunk","source":"openstreetmap.org","min_zoom":8.0,"shield_text":"25","ref":"E25A"},"arcs":[[250],[251]]},{"type":"MultiLineString","properties":{"kind":"major_road","network":"EC:provincial","sort_rank":380,"kind_detail":"primary","source":"openstreetmap.org","min_zoom":8.0,"shield_text":"38","ref":"E382"},"arcs":[[252],[253],[254],[255],[256],[257]]},{"type":"MultiLineString","properties":{"kind":"major_road","network":"EC:provincial","sort_rank":380,"kind_detail":"primary","source":"openstreetmap.org","min_zoom":8.0,"shield_text":"491","ref":"E491"},"arcs":[[258],[259],[260]]},{"type":"MultiLineString","properties":{"source":"openstreetmap.org","kind":"major_road","sort_rank":380,"kind_detail":"primary","ref":"E30","min_zoom":8.0},"arcs":[[261],[262]]},{"type":"LineString","properties":{"kind":"major_road","network":"EC:national","sort_rank":381,"kind_detail":"trunk","source":"openstreetmap.org","min_zoom":8.0,"shield_text":"30","ref":"E30"},"arcs":[263]},{"type":"MultiLineString","properties":{"kind":"major_road","network":"EC:provincial","sort_rank":380,"kind_detail":"primary","source":"openstreetmap.org","min_zoom":8.0,"shield_text":"382","ref":"E382"},"arcs":[[264],[265],[266]]},{"type":"MultiLineString","properties":{"kind":"major_road","network":"EC:national","sort_rank":381,"landuse_kind":"urban_area","source":"openstreetmap.org","min_zoom":8.0,"kind_detail":"trunk","shield_text":"20","ref":"E20"},"arcs":[[267],[268],[269]]},{"type":"MultiLineString","properties":{"kind":"major_road","network":"EC:national","sort_rank":380,"kind_detail":"primary","source":"openstreetmap.org","min_zoom":8.0,"shield_text":"30","ref":"E30"},"arcs":[[270],[271],[272],[273],[274],[275],[276],[277]]},{"type":"MultiLineString","properties":{"kind":"major_road","network":"EC:provincial","sort_rank":381,"kind_detail":"trunk","source":"openstreetmap.org","min_zoom":8.0,"shield_text":"38","ref":"E38"},"arcs":[[278],[279],[280],[281],[282]]},{"type":"MultiLineString","properties":{"kind":"major_road","network":"EC:national","sort_rank":381,"kind_detail":"trunk","source":"openstreetmap.org","min_zoom":8.0,"landuse_kind":"nature_reserve","shield_text":"20","ref":"E20"},"arcs":[[283],[284]]},{"type":"MultiLineString","properties":{"source":"openstreetmap.org","kind":"major_road","network":"EC:national","sort_rank":380,"kind_detail":"primary","min_zoom":8.0,"shield_text":"30"},"arcs":[[285],[286],[287],[288],[289]]}]},"earth":{"type":"GeometryCollection","geometries":[{"type":"MultiPolygon","properties":{"sort_rank":10,"source":"naturalearthdata.com","min_zoom":0.0,"kind":"earth","area":63988758640},"arcs":[[[290]]]}]},"landuse":{"type":"GeometryCollection","geometries":[{"type":"MultiPolygon","properties":{"source":"openstreetmap.org","kind":"nature_reserve","tier":2,"area":1921185300,"sort_rank":23,"min_zoom":6.0,"osm_relation":true},"arcs":[[[291]],[[292]],[[293]],[[294]]]},{"type":"MultiPolygon","properties":{"source":"openstreetmap.org","kind":"nature_reserve","tier":2,"area":271150734,"sort_rank":23,"min_zoom":8.0,"osm_relation":true},"arcs":[[[295]]]},{"type":"MultiPolygon","properties":{"source":"naturalearthdata.com","kind":"urban_area","name":"","area":530448040,"sort_rank":11,"min_zoom":4.0},"arcs":[[[296]]]},{"type":"Polygon","properties":{"source":"openstreetmap.org","kind":"residential","area":32401400,"tier":2,"id":225057432,"min_zoom":8.0,"sort_rank":20},"arcs":[[297]]},{"type":"Polygon","properties":{"kind":"nature_reserve","protect_class":"4","area":73656800,"sort_rank":23,"source":"openstreetmap.org","min_zoom":8.0,"tier":2,"id":-909167,"osm_relation":true},"arcs":[[298]]},{"type":"MultiPolygon","properties":{"source":"openstreetmap.org","kind":"nature_reserve","tier":2,"area":128813547,"sort_rank":23,"min_zoom":8.0},"arcs":[[[299]]]},{"type":"Polygon","properties":{"kind":"nature_reserve","area":1371360000,"sort_rank":23,"source":"openstreetmap.org","min_zoom":4.0,"tier":2,"id":-225647,"osm_relation":true},"arcs":[[300]]}]}},"type":"Topology","transform":{"translate":[-80.15625,-1.4061088354],"scale":[0.0003433228,0.0003432883]},"arcs":[[[4096,2488],[-84,39],[-50,-14],[-106,55],[-18,136],[-44,31],[-19,109],[-35,52],[-13,-16],[-43,21],[1,35],[-72,77],[26,34],[-23,55],[-78,30]],[[3769,626],[90,58],[29,75],[113,-5],[95,35]],[[3538,3132],[22,-96],[-45,-28],[-55,-95],[-125,-35],[-23,-55],[112,-40],[-25,-273],[-88,-94],[-181,35],[-139,-251],[-29,-177],[-50,-90],[-88,-62],[3,-100],[-96,-32],[-17,-75],[-33,-6],[-23,-121],[-127,-38],[1,-58],[-54,-49],[-30,-91],[20,-86],[-32,-22],[80,26],[2,-48],[-60,-95],[13,-72],[-40,-45],[0,-61],[-51,-77],[153,-134],[-1,-107],[67,-6],[64,28],[64,73],[109,7],[111,49],[32,-22],[78,38],[53,-18],[57,-69],[121,-83],[115,-34],[119,25],[62,81],[141,-41],[24,31],[20,-13]],[[2788,4096],[47,-40],[120,3],[110,-46],[-69,-62],[-62,-122],[34,-8],[45,28],[13,-22],[43,28],[24,-27],[140,-27],[57,-48],[168,45],[113,-54],[65,38],[73,-7],[79,-72],[48,9],[18,-82],[-28,-20],[38,-34],[-14,-22],[114,-81],[33,6],[80,-80],[19,-76]],[[4096,3292],[-66,-10],[-6,-57],[-124,-103],[-7,-33],[-113,-9],[-38,53],[-80,-16],[-90,66],[-65,-2],[31,-49]],[[3769,626],[-90,-90],[5,-82],[28,-25],[-163,-280],[32,-58],[-14,-78],[24,-13]],[[0,3],[21,-3]],[[34,0],[-19,45],[17,32],[-27,37],[23,109],[42,37],[95,-9],[17,-22],[157,149],[46,-2],[-33,48],[100,62],[-2,122],[40,56],[-46,99],[57,40],[12,-30],[97,-7],[19,-38],[92,49],[15,37],[157,110],[48,112],[50,1],[14,53],[23,4],[24,144],[64,5],[8,96],[79,75],[39,113],[79,-1],[9,-56],[52,-1],[35,32],[40,-25],[45,63],[59,18],[-3,47],[42,3]],[[1600,1607],[-6,57],[28,41],[-17,70],[25,44],[-10,105],[66,68],[3,64],[40,-59],[78,17],[-17,151],[98,78],[20,81],[47,-1],[-36,118],[112,168],[-7,40],[35,50],[-43,31],[102,89],[79,136],[-28,597],[-53,33],[-58,-14],[-204,48],[-20,76],[-41,17],[-23,95],[-179,141],[-18,39],[39,51],[-30,58]],[[878,0],[29,73],[118,104],[58,141],[-15,7],[43,12],[-15,42],[47,20],[-19,35],[54,36],[-20,28],[38,47],[-9,78],[47,42],[7,-12],[35,3],[8,81],[81,3],[12,85],[40,28],[29,-24],[54,35],[3,49],[64,81],[56,-24],[100,9],[76,38],[19,57],[-17,52],[43,47],[-5,66],[50,33],[7,86],[-68,64],[68,202],[-57,-37],[-30,39],[18,26],[-27,7],[-11,-38],[-17,29],[-146,-54],[-26,11]],[[124,4096],[-32,-40],[-92,-118],[0,158],[124,0]],[[0,3938],[92,118],[32,40]],[[2920,3399],[-38,17]],[[720,42],[1,18]],[[1501,996],[49,26]],[[722,62],[1,0],[-1,1],[-1,0],[1,-1]],[[785,171],[1,1],[-1,1],[-1,-1],[1,-1]],[[3758,3097],[14,-16]],[[715,0],[5,42]],[[786,174],[190,255],[88,47],[41,-3],[57,67],[9,113],[41,51],[40,4]],[[1255,712],[-3,-4]],[[1255,712],[28,61],[79,71],[99,36],[40,116]],[[2032,1118],[0,1]],[[2879,3420],[0,-2]],[[724,63],[63,107]],[[2788,3301],[-3,-3]],[[2786,3305],[2,-4]],[[2786,3298],[2,3]],[[2121,3325],[-23,-39],[-90,-38],[-43,21],[-56,106]],[[1909,3373],[56,-104],[43,-21],[91,39],[24,38]],[[2229,4085],[131,-148]],[[2360,3937],[-130,149]],[[2879,3425],[-8,36],[-81,62],[-156,222],[-63,29]],[[2571,3774],[-63,28],[-110,92]],[[2398,3894],[-2,2],[-18,21]],[[2379,3915],[17,-19],[2,-2]],[[2398,3894],[173,-120]],[[2571,3774],[70,-49],[149,-202],[80,-61],[8,-37]],[[3022,3336],[35,-34],[81,-6],[114,-99],[112,-39],[213,13],[128,-58],[37,17],[30,-49],[44,-1],[155,-206]],[[3971,2874],[97,-117],[2,-1],[26,27]],[[4096,2783],[-28,-26],[-97,117]],[[2868,3407],[-4,-1]],[[2868,3407],[11,7]],[[2879,3415],[-11,-8]],[[3632,4096],[-133,-93],[-126,-162],[-35,-86],[40,-60],[-31,-96],[-51,-31],[-72,41],[-106,14],[-26,-58],[31,-45],[-88,-40],[-68,-96],[-40,12]],[[3608,4096],[23,0]],[[1893,950],[34,-31],[61,-17],[27,-56],[71,-59]],[[2088,784],[-19,38],[-54,25],[-27,55],[-95,48]],[[1909,3375],[0,-2]],[[1930,1422],[-1,-2]],[[1930,1419],[0,1]],[[2785,3292],[-4,2]],[[3010,3339],[12,-3]],[[2779,3371],[-1,-2]],[[2779,3369],[1,1]],[[2185,4041],[-6,-4]],[[2123,3325],[0,1]],[[2778,3371],[-15,19],[-376,-4]],[[2008,1235],[-1,-63]],[[2091,1062],[19,-94],[-18,-174]],[[2777,3367],[2,2]],[[2778,3369],[-1,-2]],[[2777,3367],[11,-66]],[[2781,3372],[-2,-1]],[[2780,3370],[1,2]],[[2864,3406],[-83,-34]],[[2785,3298],[-4,-4]],[[2781,3294],[5,4]],[[170,2032],[0,1],[-1,0],[1,-1]],[[2882,3416],[-1,0]],[[2881,3416],[0,-1]],[[2881,3415],[3,2]],[[2230,4086],[0,1]],[[4096,4031],[-3,-20],[-58,8],[-130,77]],[[2812,3355],[5,-2],[17,0]],[[2834,3353],[1,0]],[[2835,3353],[5,0],[3,0]],[[2843,3353],[1,0]],[[2844,3353],[6,1]],[[2853,3356],[-9,-3]],[[2844,3353],[-1,0]],[[2843,3353],[-8,0]],[[2835,3353],[-1,0]],[[2834,3353],[-16,0],[-5,2]],[[2853,3350],[-10,-6],[-2,-1]],[[2841,3343],[-1,0]],[[2840,3343],[-25,-18]],[[2816,3323],[25,19]],[[2841,3342],[0,1]],[[2841,3343],[2,1],[10,6]],[[2898,3345],[-3,-1]],[[2895,3344],[-21,-7],[-25,-9]],[[2849,3328],[-8,15]],[[2841,3343]],[[2841,3343],[-3,4],[-3,6]],[[2835,3353]],[[2835,3353],[-1,3]],[[2834,3356],[-1,10],[0,6]],[[2833,3373],[1,-17]],[[2834,3356],[0,-3]],[[2834,3353]],[[2834,3353],[6,-10]],[[2840,3343],[1,-1]],[[2841,3342],[5,-8],[3,-6]],[[2849,3327],[9,-7],[28,9],[13,15],[-1,5]],[[2850,3354]],[[2850,3354],[4,1]],[[2854,3355],[-1,-4]],[[2853,3351],[0,-1],[1,1],[-1,0]],[[2853,3351],[1,5]],[[2854,3357],[0,-1]],[[2854,3358],[0,-1],[1,0],[0,1]],[[2855,3358],[-1,0]],[[2874,3398],[-20,-40]],[[2854,3356],[1,1]],[[2855,3358],[20,39]],[[2855,3354]],[[2861,3396],[13,2]],[[2874,3399],[-12,-2]],[[2874,3398],[1,-1],[0,1],[-1,1]],[[2874,3399],[0,-1]],[[2876,3400],[-1,-1]],[[2875,3397],[2,2]],[[2880,3414],[-2,-13]],[[2878,3401],[3,13]],[[2878,3399],[14,-1]],[[2892,3399],[-14,1]],[[2892,3398],[0,-10],[0,-4]],[[2892,3384],[2,-16]],[[2893,3369],[-1,8],[0,7]],[[2892,3384],[1,14]],[[2930,3376],[-18,-3],[-17,-5]],[[2898,3349],[-3,18]],[[2895,3368],[35,6]],[[2898,3349],[-3,-5]],[[2895,3344],[-1,-1]],[[2894,3343],[-8,-13],[-36,-2]],[[2850,3328],[24,9],[20,6]],[[2894,3343],[5,1]],[[2935,3345],[-37,4]],[[2898,3349],[36,-6]],[[2849,3328],[0,-1]],[[2849,3327],[1,1]],[[2850,3328],[-1,0]],[[2849,3328]],[[2854,3356],[-1,0],[1,-1],[0,1]],[[2854,3356]],[[2878,3400],[0,1],[-1,-1],[0,-1],[1,1]],[[2892,3399],[0,-1]],[[2892,3398],[1,0]],[[2893,3398],[0,1],[-1,0]],[[2895,3367],[0,1],[-1,0],[0,-1],[1,0]],[[193,4096],[-147,-149],[1,-57],[-47,-29]],[[3019,3341],[-5,-1]],[[2007,1172],[0,-7]],[[2008,1165],[-1,-20]],[[2031,1118],[-19,1]],[[2028,1117],[3,0]],[[2032,1117],[1,-1]],[[2033,1116],[-1,1]],[[2033,1116],[50,-23],[8,-31]],[[2031,1118],[0,-1]],[[2031,1117],[1,0],[0,1],[-1,0]],[[3022,3336],[-102,63]],[[2230,4085],[-1,2],[-1,-1],[0,-1],[2,0]],[[2938,3381],[13,-7]],[[2230,4087],[8,9]],[[3801,0],[38,25],[-20,20],[53,55],[21,12],[12,-29],[9,84]],[[3914,167],[30,-22]],[[3947,144],[14,40]],[[34,2046],[-34,-1]],[[146,2037]],[[156,2035]],[[158,2035]],[[722,65],[9,70],[53,35]],[[1603,3763],[0,-3]],[[1616,3774],[-1,-1]],[[1767,3935],[-1,1]],[[1941,1491],[-12,-26]],[[1929,1465],[1,-43]],[[1930,1422],[-1,43]],[[1941,1491],[5,53]],[[1946,1543],[-5,-52]],[[2228,4086],[0,-1]],[[2230,4087],[-1,0]],[[3227,4096],[-17,-34],[-173,-12],[-26,-30],[-181,-66],[-107,-15],[-53,-69],[-36,17],[-87,-27],[-36,-59]],[[2551,3840],[-1,4]],[[2778,3369],[34,-14]],[[2813,3355],[-34,16]],[[2815,3325],[-27,-24]],[[2788,3301],[28,22]],[[2832,3393],[1,-11]],[[2833,3382],[0,-9]],[[2833,3372],[0,10]],[[2833,3382],[0,11]],[[2862,3397],[-29,-3]],[[2833,3393],[28,3]],[[2946,3377],[-16,-1]],[[2930,3374],[17,2]],[[2934,3343],[37,-14]],[[2972,3329],[-37,16]],[[3533,4096],[-58,-28],[-203,28]],[[2832,3394],[0,-1]],[[2832,3393],[1,0]],[[2833,3393],[0,1],[-1,0]],[[2781,3294],[-37,-45],[-36,-60],[-31,-78],[-229,-219],[-18,-123],[-144,-209],[4,-154],[-84,-88],[-67,-23],[-98,-166],[-40,-183],[14,-59],[-41,-104],[25,-65],[-52,-70],[-5,-111],[-30,-32],[16,-83]],[[1928,1422],[3,-4]],[[1931,1418],[77,-183]],[[2095,770],[48,-174],[-29,-149],[50,-222],[-26,-153],[-32,4],[-28,-36],[7,-40]],[[2780,3292],[1,2]],[[2854,3356],[2,0]],[[2894,3367],[4,-18]],[[2008,1165],[-1,4]],[[2007,1165],[1,-3]],[[2007,1145],[1,10]],[[2019,1119],[9,-2]],[[231,2061],[-2,-1]],[[235,2062],[-4,0]],[[231,2062],[0,-1],[1,0],[-1,1]],[[2120,3326],[-56,-23]],[[2121,3326],[-1,0]],[[2120,3326],[1,-1]],[[73,2050],[-73,-28]],[[73,2050],[40,-16],[56,-2]],[[170,2033],[-97,17]],[[170,2032],[52,24]],[[222,2056],[9,4],[0,1]],[[229,2060],[-7,-4]],[[222,2056],[-52,-23]],[[232,2061],[25,4],[79,120],[19,94],[-4,166],[-24,33],[28,204],[94,63],[27,56],[114,6],[130,155],[41,-3],[25,78],[35,0],[25,37],[50,-9],[41,67],[120,-13],[53,-36],[48,34],[146,-56],[38,90],[203,115],[75,-12],[52,53],[130,-1],[107,69]],[[1615,3773],[-14,-10]],[[1766,3936],[-30,8],[-18,-45],[-99,-57],[-3,-68]],[[2179,4037],[-122,-59],[-290,-43]],[[2185,4041],[44,44]],[[1958,1031],[3,4]],[[2070,1195],[-39,-77]],[[2920,3310],[-91,-34]],[[2095,770],[-7,14]],[[2008,1165],[-1,0]],[[2007,1165],[1,0]],[[1893,950],[0,3],[-2,183]],[[1891,1136],[0,30],[0,1]],[[1891,1167],[44,71],[68,10],[9,5],[-77,-15],[-44,-69],[0,-2]],[[1891,1167],[0,-31]],[[1891,1136],[-1,-170],[3,-16]],[[2086,787],[16,-31]],[[2778,3290],[2,2]],[[2781,3293],[4,-1]],[[3198,1505],[-10,17]],[[2007,1145],[-46,-110]],[[2829,3276],[-44,16]],[[3014,3340],[-94,-30]],[[1909,3375],[44,-12]],[[1953,3363],[4,-3]],[[1957,3361],[-4,2]],[[1957,3361]],[[1957,3361],[0,-1]],[[1957,3360],[0,1]],[[3914,167]],[[3944,145],[3,-1]],[[3961,184],[15,63],[35,1],[3,23],[50,-84],[26,16],[6,57]],[[1876,949],[28,5]],[[3386,1342],[7,-3]],[[1904,954],[-23,-4]],[[1958,3362],[-15,95],[-58,99],[-134,46],[-46,92],[-196,127],[-303,45],[-63,-42],[-229,207],[-2,61],[-99,4]],[[1958,3362],[-1,-1]],[[1957,3361],[1,1]],[[2878,3425],[1,-5]],[[2881,3416],[-2,9]],[[2879,3418],[0,-3]],[[1466,1066],[-29,19],[-22,-22],[-75,12],[-5,30],[-152,-29],[-38,-41],[-152,-1],[-57,45],[-52,-13],[-18,-34],[-167,38],[-184,-95],[-46,17],[0,31],[-42,-11],[-13,100],[-173,9],[-49,-81],[-103,-62],[-89,-4]],[[1551,1021],[1,1],[-1,1],[-1,-1],[1,-1]],[[1551,1021],[63,-63],[144,-29]],[[1908,955],[50,76]],[[2303,1320],[-146,-21],[-75,-60],[-12,-44]],[[2631,1348],[-328,-28]],[[3188,1522],[-36,-14],[-50,49],[-182,32],[-26,-151],[-85,-81],[-78,1]],[[4096,1448],[-91,33],[-7,28],[-29,-32],[-65,6],[-52,-55],[13,-19],[-63,-44],[12,-32],[-30,-32],[-28,25],[-23,-31],[-17,16],[-15,-62],[-77,46],[-7,53],[-86,-130],[-38,-8],[-63,13],[10,60],[-34,30],[-16,-31],[-18,32],[21,25],[-74,5],[-120,63],[-1,98]],[[2195,3339],[-70,-13]],[[2345,3383],[418,7],[15,-20]],[[2345,3383],[-90,-37],[-60,-7]],[[2195,3339],[60,7],[90,37]],[[2123,3326],[-1,1],[-1,-2],[1,0],[1,1]],[[2360,3937],[19,-22]],[[2378,3917],[-18,20]],[[2300,1320],[3,0]],[[2303,1320],[2,0]],[[2724,1356],[7,2]],[[2724,1356],[-1,0],[-92,-8],[92,8],[1,0]],[[2303,1320]],[[4096,4096],[0,-4096],[-4096,0],[0,3938],[92,118],[32,40],[3972,0]],[[2028,0],[-528,0],[31,43],[46,9],[43,57],[93,32],[27,35],[44,3],[21,67],[30,3],[49,74],[36,2],[21,-47],[-11,-80],[66,-68],[5,-79],[27,-51]],[[4095,0],[-679,0],[-1,8],[45,14],[-48,9],[-31,110],[82,71],[19,-10],[-11,-33],[78,-20],[46,50],[88,10],[33,-32],[213,-10],[17,-26],[5,50],[24,-16],[24,32],[42,-17],[35,-104],[-4,70],[24,17],[-1,-173]],[[2900,1043],[45,96],[14,-33],[22,38],[50,-6],[13,15],[-69,23],[-38,64],[9,35],[24,-17],[26,26],[-17,45],[42,33],[-39,9],[5,26],[29,-2],[3,44],[29,8],[-45,101],[175,-216],[131,-28],[22,-73],[163,-27],[69,-78],[-84,-73],[-217,-73],[-119,-7],[-32,42],[-32,-32],[-132,2],[-45,26],[-2,32]],[[3612,3023],[28,60],[51,-94],[85,69],[49,-22],[6,-112],[86,-64],[64,-87],[51,5],[64,-39],[0,-251],[-84,39],[-50,-14],[-106,54],[-18,137],[-44,31],[-19,109],[-35,52],[-13,-16],[-43,21],[1,35],[-73,87]],[[3588,1590],[41,51],[42,-5],[16,-30],[-24,-64],[-59,11],[-16,37]],[[2831,3269],[-24,82],[57,48],[0,32],[53,-23],[22,-55],[-25,-57],[-83,-27]],[[1934,1068],[47,22],[-15,74],[27,79],[13,-71],[54,2],[11,24],[35,-21],[-18,-137],[-114,-33],[-40,61]],[[216,4047],[13,20],[13,-22],[31,9],[32,42],[28,-35],[76,31],[-30,4],[201,0],[-110,-70],[-59,12],[0,26],[-33,-6],[5,-38],[-29,17],[-14,-45],[-45,-42],[-20,14],[-35,-47],[0,49],[92,75],[-39,-17],[10,27],[-37,-2],[-31,-24],[9,15],[-28,7]],[[2070,3973],[151,89],[106,-126],[38,1],[24,-38],[-250,-3],[-48,19],[-21,58]],[[3029,1810],[19,75],[146,66],[-19,41],[53,67],[-49,20],[-58,-16],[0,64],[149,160],[-40,68],[-133,73],[-23,79],[108,91],[128,202],[154,-12],[145,212],[67,-113],[80,17],[59,-37],[23,-92],[110,-58],[32,-73],[79,-69],[37,1],[0,-587],[-29,4],[-29,113],[-54,21],[-24,161],[-43,73],[-78,10],[-62,-64],[-57,0],[-44,112],[-123,61],[-50,-52],[24,-81],[-41,-95],[20,-118],[65,-127],[-11,-102],[21,-43],[-38,-97],[-43,-39],[1,-151],[-91,-61],[43,-89],[-175,-27],[-36,18],[-51,104],[-93,57],[-13,135],[-56,98]]]}