{"objects":{"water":{"type":"GeometryCollection","geometries":[{"type":"Polygon","properties":{"source":"naturalearthdata.com","kind":"lake","name":"Grand L.","area":1633521792,"sort_rank":200,"min_zoom":0.0,"id":236},"arcs":[[5]]},{"type":"Polygon","properties":{"source":"naturalearthdata.com","kind":"lake","name":"Lake Rossignol","area":315323296,"sort_rank":200,"min_zoom":0.0,"id":222},"arcs":[[6]]},{"type":"Polygon","properties":{"source":"naturalearthdata.com","kind":"lake","name":"Chiputneticook Lakes","area":388986336,"sort_rank":200,"min_zoom":0.0,"id":333},"arcs":[[7]]},{"type":"Polygon","properties":{"source":"naturalearthdata.com","kind":"lake","name":"Grand Lake","area":377904416,"sort_rank":200,"min_zoom":0.0,"id":223},"arcs":[[8]]},{"type":"Polygon","properties":{"kind":"lake","name":"Smallwood Res.","reservoir":true,"area":18299058176,"sort_rank":200,"source":"naturalearthdata.com","min_zoom":0.0,"id":156},"arcs":[[9]]},{"type":"MultiPolygon","properties":{"sort_rank":200,"source":"naturalearthdata.com","min_zoom":0.0,"kind":"lake","area":10481202396},"arcs":[[[10]],[[11]]]},{"type":"MultiPolygon","properties":{"source":"naturalearthdata.com","kind":"ocean","area":1444195503964160,"sort_rank":200,"min_zoom":0.0,"id":1},"arcs":[[[12],[13],[14],[15],[16],[17],[18],[19],[20],[21],[22],[23],[24],[25],[26],[27],[28],[29],[30]],[[31]]]},{"type":"Point","properties":{"label_placement":true,"kind":"lake","name":"Smallwood Res.","reservoir":true,"area":18299058176,"sort_rank":200,"source":"naturalearthdata.com","min_zoom":0.0,"id":156},"coordinates":[610,3678]},{"type":"Point","properties":{"label_placement":true,"kind":"lake","name":"Grand L.","area":1633521792,"sort_rank":200,"source":"naturalearthdata.com","min_zoom":0.0,"id":236},"coordinates":[1836,2209]},{"type":"Point","properties":{"label_placement":true,"kind":"lake","name":"Grand Lake","area":377904416,"sort_rank":200,"source":"naturalearthdata.com","min_zoom":0.0,"id":223},"coordinates":[271,1386]},{"type":"Point","properties":{"label_placement":true,"kind":"lake","name":"Lake Rossignol","area":315323296,"sort_rank":200,"source":"naturalearthdata.com","min_zoom":0.0,"id":222},"coordinates":[439,896]},{"type":"LineString","properties":{"source":"naturalearthdata.com","kind":"ocean","sort_rank":205,"boundary":true,"min_zoom":0.0,"id":68},"arcs":[32]},{"type":"LineString","properties":{"source":"naturalearthdata.com","kind":"ocean","sort_rank":205,"boundary":true,"min_zoom":0.0,"id":69},"arcs":[33]},{"type":"LineString","properties":{"source":"naturalearthdata.com","kind":"ocean","sort_rank":205,"boundary":true,"min_zoom":0.0,"id":86},"arcs":[34]},{"type":"LineString","properties":{"source":"naturalearthdata.com","kind":"lake","reservoir":true,"sort_rank":367,"boundary":true,"min_zoom":0.0,"id":156},"arcs":[35]},{"type":"LineString","properties":{"source":"naturalearthdata.com","kind":"ocean","sort_rank":205,"boundary":true,"min_zoom":0.0,"id":169},"arcs":[36]},{"type":"LineString","properties":{"source":"naturalearthdata.com","kind":"lake","sort_rank":367,"boundary":true,"min_zoom":0.0,"id":222},"arcs":[37]},{"type":"LineString","properties":{"source":"naturalearthdata.com","kind":"lake","sort_rank":367,"boundary":true,"min_zoom":0.0,"id":223},"arcs":[38]},{"type":"LineString","properties":{"source":"naturalearthdata.com","kind":"lake","sort_rank":367,"boundary":true,"min_zoom":0.0,"id":236},"arcs":[39]},{"type":"LineString","properties":{"source":"naturalearthdata.com","kind":"lake","sort_rank":367,"boundary":true,"min_zoom":0.0,"id":253},"arcs":[40]},{"type":"LineString","properties":{"source":"naturalearthdata.com","kind":"lake","sort_rank":367,"boundary":true,"min_zoom":0.0,"id":333},"arcs":[41]},{"type":"LineString","properties":{"source":"naturalearthdata.com","kind":"ocean","sort_rank":205,"boundary":true,"min_zoom":0.0,"id":369},"arcs":[42]},{"type":"LineString","properties":{"source":"naturalearthdata.com","kind":"ocean","sort_rank":205,"boundary":true,"min_zoom":0.0,"id":370},"arcs":[43]},{"type":"LineString","properties":{"source":"naturalearthdata.com","kind":"ocean","sort_rank":205,"boundary":true,"min_zoom":0.0,"id":371},"arcs":[44]},{"type":"LineString","properties":{"source":"naturalearthdata.com","kind":"ocean","sort_rank":205,"boundary":true,"min_zoom":0.0,"id":372},"arcs":[45]},{"type":"LineString","properties":{"source":"naturalearthdata.com","kind":"ocean","sort_rank":205,"boundary":true,"min_zoom":0.0,"id":374},"arcs":[46]},{"type":"LineString","properties":{"source":"naturalearthdata.com","kind":"ocean","sort_rank":205,"boundary":true,"min_zoom":0.0,"id":376},"arcs":[47]},{"type":"LineString","properties":{"source":"naturalearthdata.com","kind":"lake","sort_rank":367,"boundary":true,"min_zoom":0.0,"id":388},"arcs":[48]},{"type":"MultiLineString","properties":{"source":"naturalearthdata.com","kind":"ocean","sort_rank":205,"boundary":true,"min_zoom":0.0,"id":1201},"arcs":[[49],[50],[51]]},{"type":"LineString","properties":{"source":"naturalearthdata.com","kind":"ocean","sort_rank":205,"boundary":true,"min_zoom":0.0,"id":1237},"arcs":[52]},{"type":"LineString","properties":{"source":"naturalearthdata.com","kind":"ocean","sort_rank":205,"boundary":true,"min_zoom":0.0,"id":1289},"arcs":[53]},{"type":"LineString","properties":{"source":"naturalearthdata.com","kind":"ocean","sort_rank":205,"boundary":true,"min_zoom":0.0,"id":1290},"arcs":[54]},{"type":"LineString","properties":{"source":"naturalearthdata.com","kind":"ocean","sort_rank":205,"boundary":true,"min_zoom":0.0,"id":1291},"arcs":[55]},{"type":"LineString","properties":{"source":"naturalearthdata.com","kind":"ocean","sort_rank":205,"boundary":true,"min_zoom":0.0,"id":1292},"arcs":[56]},{"type":"LineString","properties":{"source":"naturalearthdata.com","kind":"ocean","sort_rank":205,"boundary":true,"min_zoom":0.0,"id":1293},"arcs":[57]},{"type":"LineString","properties":{"source":"naturalearthdata.com","kind":"ocean","sort_rank":205,"boundary":true,"min_zoom":0.0,"id":1294},"arcs":[58]},{"type":"LineString","properties":{"source":"naturalearthdata.com","kind":"ocean","sort_rank":205,"boundary":true,"min_zoom":0.0,"id":1295},"arcs":[59]},{"type":"Point","properties":{"label_placement":true,"kind":"sea","name":"Golfe du Saint-Laurent","source":"openstreetmap.org","sort_rank":200,"min_zoom":3.0,"id":5261424127},"coordinates":[1022,1978]}]},"buildings":{"type":"GeometryCollection","geometries":[]},"places":{"type":"GeometryCollection","geometries":[{"type":"Point","properties":{"name:pt":"Nova Esc\u00f3cia","name:ro":"Noua Sco\u021bie","name:sk":"Nov\u00e9 \u0160k\u00f3tsko","name:ar":"\u0646\u0648\u0641\u0627 \u0633\u0643\u0648\u062a\u064a\u0627","kind":"region","min_zoom":4.0,"name:it":"Nuova Scozia","name:uk":"\u041d\u043e\u0432\u0430 \u0428\u043e\u0442\u043b\u0430\u043d\u0434\u0456\u044f","name:be":"\u041d\u043e\u0432\u0430\u044f \u0428\u0430\u0442\u043b\u0430\u043d\u0434\u044b\u044f","name:ru":"\u041d\u043e\u0432\u0430\u044f \u0428\u043e\u0442\u043b\u0430\u043d\u0434\u0438\u044f","name:hu":"\u00daj-Sk\u00f3cia","id":305700704,"population":921727,"name:eo":"Nov-Skotio","name":"Nova Scotia","kind_detail":"state","name:de":"Neuschottland","source":"openstreetmap.org","name:fr":"Nouvelle-\u00c9cosse","name:zh":"\u65b0\u65af\u79d1\u820d\u7701","name:es":"Nueva Escocia"},"coordinates":[789,1167]},{"type":"Point","properties":{"name:pt":"Novo Brunsvique","name:ro":"Noul Brunswick","name:ar":"\u0646\u064a\u0648 \u0628\u0631\u0627\u0646\u0633\u0648\u064a\u0643","kind":"region","min_zoom":4.0,"name:la":"Novum Brunsvicum","name:it":"Nuovo Brunswick","name:uk":"\u041d\u044c\u044e-\u0411\u0440\u0430\u043d\u0441\u0432\u0456\u043a","name:be":"\u041d\u044c\u044e-\u0411\u0440\u0430\u043d\u0441\u0443\u0456\u043a","name:ru":"\u041d\u043e\u0432\u044b\u0439 \u0411\u0440\u0430\u043d\u0441\u0443\u0438\u043a","name:hu":"\u00daj-Brunswick","id":1639542076,"population":751171,"name:eo":"Nov-Brunsviko","name":"New Brunswick","kind_detail":"state","name:de":"Neubraunschweig","source":"openstreetmap.org","name:fr":"Nouveau-Brunswick","name:zh":"\u65b0\u4e0d\u4f26\u745e\u514b\u7701","name:es":"Nuevo Brunswick"},"coordinates":[137,1528]},{"type":"Point","properties":{"name:pt":"Terra Nova e Labrador","name:ro":"Terranova \u015fi Labrador","name:ko":"\ub274\ud380\ub4e4\ub79c\ub4dc \ub798\ube0c\ub77c\ub3c4","name:ar":"\u0646\u064a\u0648 \u0641\u0648\u0646\u062f\u0644\u0627\u0646\u062f \u0648 \u0644\u0627\u0628\u0631\u0627\u062f\u0648\u0631","name:is":"N\u00fdfundnaland og Labrador","name:it":"Terranova e Labrador","name:ru":"\u041d\u044c\u044e\u0444\u0430\u0443\u043d\u0434\u043b\u0435\u043d\u0434 \u0438 \u041b\u0430\u0431\u0440\u0430\u0434\u043e\u0440","name:vi":"Newfoundland v\u00e0 Labrador","name:pl":"Nowa Fundlandia i Labrador","id":305700706,"name:ca":"Terranova i Labrador","kind_detail":"state","kind":"region","name:de":"Neufundland und Labrador","source":"openstreetmap.org","name:fr":"Terre-Neuve-et-Labrador","name:zh":"\u7d10\u82ac\u5170\u4e0e\u62c9\u5e03\u62c9\u591a\u7701","name:sk":"Newfoundland a Labrador","name:ja":"\u30cb\u30e5\u30fc\u30d5\u30a1\u30f3\u30c9\u30e9\u30f3\u30c9\u30fb\u30e9\u30d6\u30e9\u30c9\u30fc\u30eb\u5dde","name:lt":"Niufaundlandas ir Labradoras","name:eo":"Novlando kaj Labradoro","name:br":"Douar-Nevez ha Labrador","name:la":"Terra Nova et Labrador","name:uk":"\u041d\u044c\u044e\u0444\u0430\u0443\u043d\u0434\u043b\u0435\u043d\u0434 \u0456 \u041b\u0430\u0431\u0440\u0430\u0434\u043e\u0440","name:be":"\u041d\u044c\u044e\u0444\u0430\u045e\u043d\u0434\u043b\u0435\u043d\u0434 \u0456 \u041b\u0430\u0431\u0440\u0430\u0434\u043e\u0440","name:hu":"\u00dajfundland \u00e9s Labrador","name:sr":"\u040a\u0443\u0444\u0430\u0443\u043d\u0434\u043b\u0435\u043d\u0434 \u0438 \u041b\u0430\u0431\u0440\u0430\u0434\u043e\u0440","population":514536,"name:el":"\u039d\u03ad\u03b1 \u0393\u03b7 \u03ba\u03b1\u03b9 \u039b\u03b1\u03bc\u03c0\u03c1\u03b1\u03bd\u03c4\u03cc\u03c1","name:ga":"Talamh an \u00c9isc agus Labradar","name":"Newfoundland and Labrador","name:gd":"An Talamh \u00d9r is Labrador","min_zoom":4.0,"name:gl":"Terra Nova e Labrador","name:eu":"Ternua eta Labrador","name:es":"Terranova y Labrador"},"coordinates":[1142,3555]},{"type":"Point","properties":{"name:pt":"Ilha do Pr\u00edncipe Eduardo","name:ro":"Insula Prin\u021bului Edward","name:sk":"Ostrov princa Eduarda","name:ar":"\u062c\u0632\u064a\u0631\u0629 \u0627\u0644\u0623\u0645\u064a\u0631 \u0625\u062f\u0648\u0627\u0631\u062f","name:cs":"Ostrov prince Edvarda","kind":"region","min_zoom":4.0,"alt_name:cs":"Provincie Ostrov prince Edvarda","name:it":"Isola del Principe Edoardo","name:uk":"\u041e\u0441\u0442\u0440\u0456\u0432 \u041f\u0440\u0438\u043d\u0446\u0430 \u0415\u0434\u0432\u0430\u0440\u0434\u0430","name:vi":"\u0110\u1ea3o Ho\u00e0ng t\u1eed Edward","name:ru":"\u041e\u0441\u0442\u0440\u043e\u0432 \u041f\u0440\u0438\u043d\u0446\u0430 \u042d\u0434\u0443\u0430\u0440\u0434\u0430","name:hu":"Prince Edward-sziget","id":1756225709,"population":140204,"name:eo":"Insulo de Princo Eduardo","name":"Prince Edward Island","kind_detail":"state","name:de":"Prinz-Edward-Insel","source":"openstreetmap.org","name:fr":"\u00cele-du-Prince-\u00c9douard","name:eu":"Eduardo Printzearen uhartea","name:be":"\u0412\u043e\u0441\u0442\u0440\u0430\u045e \u041f\u0440\u044b\u043d\u0446\u0430 \u042d\u0434\u0443\u0430\u0440\u0434\u0430","name:zh":"\u7231\u5fb7\u534e\u738b\u5b50\u5c9b\u7701","name:es":"Isla del Pr\u00edncipe Eduardo"},"coordinates":[792,1483]},{"type":"Point","properties":{"name:pt":"Saint-Pierre e Miquelon","name:ka":"\u10e1\u10d4\u10dc\u10e2-\u10de\u10d8\u10d4\u10e0\u10d8 \u10d3\u10d0 \u10db\u10d8\u10e5\u10d4\u10da\u10dd\u10dc\u10d8","name:mt":"Saint Pierre and Miquelon","name:ko":"\uc138\uc778\ud2b8\ud53c\uc5d0\ub974-\ubbf8\ucf00\ub871","name:kn":"\u0cb8\u0cc7\u0c82\u0c9f\u0ccd \u0caa\u0cbf\u0caf\u0cb0\u0cc6 \u0cae\u0ca4\u0ccd\u0ca4\u0cc1 \u0cae\u0cbf\u0c95\u0cc6\u0cb2\u0ca8\u0ccd","name:km":"\u179f\u1784\u17cb\u1796\u17d2\u1799\u17c2\u179a \u1793\u17b7\u1784\u200b\u1798\u17b8\u1782\u17b8\u17a1\u17bb\u1784","name:kl":"Saint Pierre aamma Miquelon","name:cs":"Saint-Pierre a Miquelon","name:ki":"Santapieri na Mikeloni","name:tr":"Saint-Pierre ve Miquelon","name:th":"\u0e41\u0e0b\u0e07\u0e1b\u0e35\u0e41\u0e22\u0e23\u0e4c\u0e41\u0e25\u0e30\u0e21\u0e35\u0e40\u0e01\u0e2d\u0e25\u0e07","name:ti":"\u1245\u12f1\u1235 \u1352\u12ec\u122d \u12a5\u1293 \u121a\u12a9\u12a4\u120e\u1295","name:ks":"\u0633\u06cc\u0646\u065b\u0679 \u067e\u06cc\u0656\u0631\u06cc \u062a\u06c1\u0655 \u0645\u0648\u06a9\u06cc\u0644\u0650\u06cc\u064e\u0646","name:to":"Seini Piea mo Mikaloni","name:tl":"Santa Pierre at Miquelon","name:sv":"Saint-Pierre och Miquelon","name:or":"\u0b38\u0b47\u0b23\u0b4d\u0b1f \u0b2a\u0b3f\u0b0f\u0b30\u0b47 \u0b0f\u0b2c\u0b02 \u0b2e\u0b3f\u0b15\u0b4d\u0b2c\u0b3e\u0b32\u0b4b\u0b28\u0b4d","name:pl":"Saint-Pierre i Miquelon","name:ta":"\u0b9a\u0bc6\u0baf\u0bbf\u0ba9\u0bcd\u0b9f\u0bcd \u0baa\u0bbf\u0baf\u0bb0\u0bcd \u0bae\u0bb1\u0bcd\u0bb1\u0bc1\u0bae\u0bcd \u0bae\u0bbf\u0b95\u0bcd\u0bb5\u0bc7\u0bb2\u0bbe\u0ba9\u0bcd","name:ca":"Saint-Pierre i Miquelon","name:te":"\u0c38\u0c46\u0c02\u0c1f\u0c4d \u0c2a\u0c3f\u0c2f\u0c46\u0c30\u0c4d \u0c2e\u0c30\u0c3f\u0c2f\u0c41 \u0c2e\u0c3f\u0c15\u0c46\u0c32\u0c3e\u0c28\u0c4d","name:vi":"Saint-Pierre v\u00e0 Miquelon","name:ro":"Sf\u00e2ntul Pierre \u0219i Miquelon","name:cy":"Saint Pierre a Miquelon","name:hr":"Sveti Petar i Mikelon","name:da":"Saint Pierre og Miquelon","name:de":"Saint-Pierre und Miquelon","name:dz":"\u0f66\u0f72\u0f53\u0f4a\u0f0b\u0f54\u0f72\u0f0b\u0f61\u0f7a\u0f62\u0f0b \u0f68\u0f7a\u0f53\u0f4c\u0f0b \u0f58\u0f72\u0f40\u0f7c\u0f0b\u0f63\u0f7a\u0f53","source":"openstreetmap.org","name:lv":"Senpj\u0113ra un Mikelona","name:lt":"Sen Pjeras ir Mikelonas","name:hi":"\u0938\u0947\u0902\u091f \u092a\u093f\u090f\u0930\u0947 \u0914\u0930 \u092e\u093f\u0915\u094d\u0935\u0947\u0932\u0928","name:he":"\u05e1\u05e0\u05d8 \u05e4\u05d9\u05d9\u05e8 \u05d5\u05de\u05d9\u05e7\u05dc\u05d5\u05df","kind":"region","name:ur":"\u0633\u06cc\u0646\u0679 \u067e\u06cc\u0626\u0631 \u0627\u0648\u0631 \u0645\u06cc\u06a9\u0644\u06cc\u0626\u0648\u0646","name:lg":"Senti Piyere ne Mikeloni","name:uk":"\u0421\u0435\u043d-\u041f\u2019\u0454\u0440 \u0456 \u041c\u0456\u043a\u0435\u043b\u043e\u043d","name:hu":"Saint-Pierre \u00e9s Miquelon","name:ln":"S\u00e1ntu p\u00e9t\u00e9to mp\u00e9 Mikel\u0254","name:lo":"\u0ec0\u0e8a\u0eb1\u0ec9\u0e99 \u0e9b\u0eb5\u0ec1\u0ead \u0ec1\u0ea5\u0eb0 \u0ea1\u0eb4\u0ec0\u0e81\u0ea7\u0ea5\u0ead\u0e99","population":6080,"name:el":"\u0386\u03b3\u03b9\u03bf\u03c2 \u03a0\u03ad\u03c4\u03c1\u03bf\u03c2 \u03ba\u03b1\u03b9 \u039c\u03b9\u03ba\u03b5\u03bb\u03cc\u03bd","name:eo":"Sankta-Piero kaj Mikelono","name:en":"Saint Pierre and Miquelon","name":"Saint-Pierre-et-Miquelon","name:ee":"Saint Pierre kple Mikel\u0254n nutome","min_zoom":4.0,"name:gu":"\u0ab8\u0ac7\u0a82\u0a9f \u0aaa\u0ac0\u0a8f\u0ab0\u0ac7 \u0a8f\u0aa8\u0acd\u0aa1 \u0aae\u0abf\u0a95\u0ac0\u0ab2\u0acb\u0aa8","name:eu":"Saint-Pierre eta Mikelune","name:et":"Saint Pierre ja Miquelon","name:nl":"Saint-Pierre en Miquelon","name:es":"San Pedro y Miguel\u00f3n","name:rm":"Saint Pierre e Miquelon","name:rn":"Sempiyeri na Mikeloni","name:az":"Seynt Piyer v\u0259 Mikelon","name:id":"Saint Pierre dan Miquelon","name:ms":"Saint Pierre and Miquelon","name:mr":"\u0938\u0947\u0902\u091f \u092a\u093f\u092f\u0930\u0947 \u0906\u0923\u093f \u092e\u093f\u0915\u094d\u0935\u0947\u0932\u094b\u0928","name:ar":"\u0633\u0627\u0646 \u0628\u064a\u0627\u0631 \u0648\u0645\u064a\u0643\u0644\u0648\u0646","int_name":"Saint Pierre and Miquelon","name:is":"Sankti Pierre og Miquelon","name:am":"\u1245\u12f1\u1235 \u1352\u12ec\u122d \u12a5\u1293 \u121a\u12a9\u12a4\u120e\u1295","name:it":"Saint-Pierre e Miquelon","name:ml":"\u0d38\u0d46\u0d7b\u0d31\u0d4d \u0d2a\u0d3f\u0d31\u0d47\u0d2f\u0d41\u0d02 \u0d2e\u0d3f\u0d15\u0d4d\u0d35\u0d32\u0d23\u0d41\u0d02","name:ru":"\u0421\u0435\u043d-\u041f\u044c\u0435\u0440 \u0438 \u041c\u0438\u043a\u0435\u043b\u043e\u043d","name:mn":"\u0421\u0435\u043d\u0442 \u041f\u044c\u0435\u0440 \u0431\u0430 \u041c\u0438\u043a\u0435\u043b\u043e\u043d","id":249399410,"name:mk":"\u0421\u0435\u043d\u0442 \u041f\u0458\u0435\u0440 \u0438 \u041c\u0438\u043a\u0435\u043b\u0430\u043d","name:af":"Saint-Pierre et Miquelon","name:zu":"i-Saint Pierre kanye ne-Miquelon","name:ha":"San Piyar Da Mikelan","name:nn":"St. Pierre og Miquelon","name:ff":"See Piyeer e Mikeloo","kind_detail":"state","name:no":"Saint-Pierre og Miquelon","name:fo":"Saint Pierre og Miquelon","name:zh":"\u5723\u76ae\u57c3\u5c14\u548c\u5bc6\u514b\u9686\u7fa4\u5c9b","name:so":"Saint Pierre and Miquelon","name:sn":"Saint Pierre and Miquelon","name:sl":"Saint Pierre in Miquelon","name:sk":"Saint Pierre a Miquelon","name:ja":"\u30b5\u30f3\u30d4\u30a8\u30fc\u30eb\u5cf6\u30fb\u30df\u30af\u30ed\u30f3\u5cf6","name:si":"\u0dc1\u0dcf\u0db1\u0dca\u0dad \u0db4\u0dd2\u0dba\u0dbb\u0dda \u0dc3\u0dc4 \u0db8\u0dd0\u0d9a\u0ddd\u0dbd\u0db1\u0dca","name:fa":"\u0633\u0646\u062a \u067e\u06cc\u0631 \u0648 \u0645\u06cc\u06a9\u0644\u0648\u0646","name:sg":"S\u00ean-Py\u00eare na Mikel\u00f6on","name:se":"Saint Pierre ja Miquelon","name:ne":"\u0938\u0947\u0928\u094d\u091f \u092a\u093f\u0930\u094d\u0930\u0947 \u0930 \u092e\u093f\u0915\u094d\u0915\u0947\u0932\u094b\u0928","name:br":"Sant-P\u00ear-ha-Mikelon","name:bs":"Sen Pjer i Mikelon","name:bm":"Piy\u025bri-Senu-ni-Mikel\u0254\u014b","name:bn":"\u09b8\u09c7\u09a8\u09cd\u099f \u09aa\u09bf\u09af\u09bc\u09c7\u09b0 \u0993 \u09ae\u09bf\u0995\u09c1\u09af\u09bc\u09c7\u09b2\u09a8","name:sw":"Santapieri na Mikeloni","name:be":"\u0421\u0432\u044f\u0442\u044b \u041f\u2019\u0435\u0440 \u0456 \u041c\u0456\u043a\u0432\u0435\u043b\u043e\u043d","name:bg":"\u0421\u0435\u043d \u041f\u0438\u0435\u0440 \u0438 \u041c\u0438\u0433\u0435\u043b\u043e\u043d","name:sr":"\u0421\u0435\u043d \u041f\u0458\u0435\u0440 \u0438 \u041c\u0438\u043a\u0435\u043b\u043e\u043d","name:ga":"Saint Pierre agus Miquelon","name:gd":"Saint Pierre is Miquelon","name:gl":"San Pedro e Miguel\u00f3n","name:yo":"Or\u00edl\u1eb9\u0301\u00e8de P\u1eb9\u1eb9ri ati mikuloni","name:ak":"Saint Pierre ne Miquelon","name:fi":"Saint-Pierre ja Miquelon"},"coordinates":[2055,1621]}]},"transit":{"type":"GeometryCollection","geometries":[]},"pois":{"type":"GeometryCollection","geometries":[]},"boundaries":{"type":"GeometryCollection","geometries":[{"type":"LineString","properties":{"source":"naturalearthdata.com","kind":"country","sort_rank":262,"kind_detail":"2","min_zoom":0.0,"id":344},"arcs":[0]},{"type":"LineString","properties":{"source":"naturalearthdata.com","kind":"region","sort_rank":256,"kind_detail":"4","min_zoom":2.0,"id":17},"arcs":[1]},{"type":"LineString","properties":{"source":"naturalearthdata.com","kind":"region","sort_rank":256,"kind_detail":"4","min_zoom":2.0,"id":96},"arcs":[2]},{"type":"MultiLineString","properties":{"source":"naturalearthdata.com","kind":"region","sort_rank":256,"kind_detail":"4","min_zoom":2.0,"id":97},"arcs":[[3],[4]]}]},"roads":{"type":"GeometryCollection","geometries":[]},"earth":{"type":"GeometryCollection","geometries":[{"type":"MultiPolygon","properties":{"sort_rank":10,"source":"naturalearthdata.com","min_zoom":0.0,"kind":"earth","area":11747126736323},"arcs":[[[60]],[[61]],[[62]],[[63]],[[64]],[[65]],[[66]],[[67]],[[68]],[[69]],[[70]],[[71]],[[72]],[[73]],[[74]],[[75]],[[76]],[[77]]]}]},"landuse":{"type":"GeometryCollection","geometries":[{"type":"Polygon","properties":{"kind":"park","name":"Parc national d'Anticosti","area":1462400000,"sort_rank":24,"source":"openstreetmap.org","min_zoom":4.0,"tier":2,"id":-7745542,"osm_relation":true},"arcs":[[78]]},{"type":"Polygon","properties":{"kind":"nature_reserve","name":"R\u00e9serve faunique de Duni\u00e8re","area":1320089984,"sort_rank":23,"operator":"Corporation de gestion des rivi\u00e8res Matap\u00e9dia et Patap\u00e9dia","source":"openstreetmap.org","min_zoom":4.0,"tier":2,"id":-7485831,"osm_relation":true,"protect_class":"4"},"arcs":[[79]]},{"type":"Polygon","properties":{"kind":"nature_reserve","name":"R\u00e9serve faunique des Chic-Chocs","area":2429949952,"sort_rank":23,"source":"openstreetmap.org","min_zoom":4.0,"tier":2,"id":-7062309,"osm_relation":true,"protect_class":"4"},"arcs":[[80]]},{"type":"Polygon","properties":{"kind":"nature_reserve","name":"R\u00e9serve faunique de Matane","area":2881179904,"sort_rank":23,"source":"openstreetmap.org","min_zoom":4.0,"tier":2,"id":-7485828,"osm_relation":true,"protect_class":"4"},"arcs":[[81]]},{"type":"Polygon","properties":{"kind":"nature_reserve","name":"Avalon Wilderness Reserve","area":2307000064,"sort_rank":23,"source":"openstreetmap.org","min_zoom":4.0,"tier":2,"id":-2054180,"osm_relation":true},"arcs":[[82]]},{"type":"Polygon","properties":{"kind":"nature_reserve","name":"Little Grand Lake Provisional Ecological Reserve","area":1592450048,"sort_rank":23,"source":"openstreetmap.org","min_zoom":4.0,"tier":2,"id":-2064864,"osm_relation":true},"arcs":[[83]]},{"type":"Polygon","properties":{"kind":"nature_reserve","name":"Gully Marine Protected Area","area":4545059840,"sort_rank":23,"source":"openstreetmap.org","min_zoom":4.0,"tier":2,"id":268507821,"protect_class":"1"},"arcs":[[84]]},{"type":"Polygon","properties":{"kind":"nature_reserve","name":"ZEC Casault","area":1888380032,"sort_rank":23,"source":"openstreetmap.org","min_zoom":4.0,"tier":2,"id":-7485822,"osm_relation":true,"protect_class":"7"},"arcs":[[85]]},{"type":"MultiPolygon","properties":{"kind":"nature_reserve","name":"S\u00c9PAQ Anticosti","area":10750982061,"sort_rank":23,"source":"openstreetmap.org","min_zoom":4.0,"tier":2,"osm_relation":true,"protect_class":"7"},"arcs":[[[86]],[[87]]]},{"type":"Polygon","properties":{"kind":"nature_reserve","name":"Parc national de la Gasp\u00e9sie","area":1864710016,"sort_rank":23,"source":"openstreetmap.org","min_zoom":4.0,"tier":2,"id":-7485827,"osm_relation":true,"protect_class":"2"},"arcs":[[88]]},{"type":"MultiPolygon","properties":{"source":"naturalearthdata.com","kind":"urban_area","name":"","area":60832828053,"sort_rank":11,"min_zoom":4.0},"arcs":[[[89]],[[90]],[[91]]]},{"type":"Polygon","properties":{"kind":"nature_reserve","name":"Tobeatic Wilderness Area","area":2032800000,"sort_rank":23,"source":"openstreetmap.org","min_zoom":4.0,"tier":2,"id":-4855361,"osm_relation":true,"protect_class":"1"},"arcs":[[92]]},{"type":"Polygon","properties":{"kind":"park","name":"Cape Breton Highlands National Park of Canada","area":2024480000,"sort_rank":24,"source":"openstreetmap.org","min_zoom":4.0,"tier":2,"id":-4855583,"osm_relation":true,"protect_class":"1"},"arcs":[[93]]},{"type":"Polygon","properties":{"kind":"park","name":"Gros Morne National Park","area":4303170048,"sort_rank":24,"source":"openstreetmap.org","min_zoom":4.0,"tier":2,"id":-6236296,"osm_relation":true},"arcs":[[94]]}]}},"type":"Topology","transform":{"translate":[-67.5,40.9798980696],"scale":[0.0054931641,0.0036124695]},"arcs":[[[0,1284],[2,0],[10,-4],[4,-11],[-2,-9],[-6,-5],[-6,-3],[-1,-8],[3,-8],[4,-7],[5,-12],[-2,-10],[-4,-9],[-2,-9],[4,-8],[9,-10],[6,-10],[10,-6],[4,4],[4,6],[4,3],[6,-2],[8,-3],[8,-3]],[[0,1918],[25,-15],[10,9],[22,2],[24,7],[19,-6],[5,18],[15,10],[25,7]],[[632,1393],[-4,-9],[-20,-4],[-10,-18],[-11,-14],[-7,-4]],[[709,4096],[15,-20],[20,-30],[9,-9],[11,-6],[27,-8],[1,-8],[-2,-12],[2,-10],[7,-18],[-9,-9],[-49,-27],[-15,-12],[-4,-7],[-3,-15],[13,-28],[1,-7],[-3,-12],[-15,-39],[-16,-36],[-7,-8],[-10,-1],[-28,6],[-79,25],[-86,2],[-56,-4],[-101,7],[-12,7],[-10,10],[-13,26],[-3,2],[-36,10],[-13,7],[-16,11],[-68,69],[-21,17],[-8,3],[-4,-5],[0,-5],[13,-22],[1,-6],[-5,-17],[10,-37],[-3,-13],[10,-28],[1,-14],[-14,-14],[-26,9],[-54,44],[-25,35],[-7,3],[-12,-1],[-4,-4],[-2,-6],[4,-14],[8,-19],[15,-25],[16,-35],[1,-5],[9,-8],[0,-10],[-16,-9],[-9,-18],[-5,-1],[-34,13]],[[0,3554],[5,-6],[3,-18],[-4,-27],[1,-6],[3,-3],[53,-16],[7,-11],[9,-24],[9,-7],[9,-2],[6,-8],[1,-8],[-5,-40],[-1,-30],[-10,-26],[-5,-17],[-3,-24],[1,-21],[7,-10],[14,-6],[10,-1],[7,1],[8,-3],[23,11],[3,6],[7,45],[3,5],[17,8],[6,13],[4,4],[7,-3],[7,-5],[11,-16],[5,-10],[-1,-10],[-6,-6],[-3,-9],[-2,-18],[-9,-15],[-2,-7],[6,-68],[-1,-5],[-11,-16],[0,-13],[4,-18],[6,-13],[5,-5],[6,-3],[4,10],[5,29],[3,2],[24,-20],[9,-5],[12,-28],[10,-8],[17,-7],[11,-1],[3,3],[5,11],[16,-3],[11,-5],[8,0],[7,6],[14,28],[4,2],[10,0],[23,-5],[24,-9],[19,-11],[18,-16],[31,-42],[19,-15],[6,-7],[-2,-9],[-10,-8],[-2,-5],[1,-7],[18,-33],[17,2],[39,33],[0,12],[-6,11],[-2,9],[3,24],[9,43],[2,4],[18,14],[5,10],[5,53],[-14,49],[-1,20],[2,52],[7,11],[24,7],[6,4],[10,48],[2,3],[20,7],[14,2],[9,-3],[12,-18],[9,-19],[1,-7],[-3,-32],[1,-8],[2,-6],[26,-24],[-3,-5],[-18,-6],[-52,-10],[-16,-6],[-11,-7],[-11,-11],[-8,-11],[-1,-5],[1,-3],[20,-8],[2,-3],[1,-10],[9,-10],[22,-13],[15,-44],[3,-12],[0,-10],[-7,-3],[-15,1],[-1,-2],[2,-7],[4,-3],[28,-2],[74,0],[74,0],[74,0],[74,0],[74,0],[74,0],[74,0],[74,0],[74,0],[74,0],[74,0],[74,0],[74,0],[74,0],[74,0],[74,0],[0,-81],[0,-74]],[[1905,2293],[5,9],[3,10],[5,1],[4,-9],[3,-11],[-8,-10],[-10,-4],[-5,1],[-14,-14],[-20,-30],[-36,-42],[-14,-13],[-12,-20],[-33,-32],[-18,-8],[-16,5],[-12,1],[9,6],[33,25],[21,23],[19,10],[35,32],[18,24],[2,14],[0,9],[7,3],[20,13],[14,7]],[[461,906],[1,-4],[-7,-16],[-4,-5],[-14,-4],[-14,2],[-4,7],[0,8],[2,7],[4,6],[6,4],[5,0],[2,-7],[3,-5],[5,-1],[7,2],[8,6]],[[0,1298],[4,4],[3,-12],[2,-9],[-9,-4],[0,21]],[[254,1354],[-8,-4],[-7,7],[10,8],[10,12],[5,15],[4,11],[5,5],[6,4],[2,3],[3,2],[4,-2],[0,-8],[-2,-8],[-4,-8],[-5,-10],[-2,-7],[-9,-11],[-12,-9]],[[787,3640],[-1,-5],[-4,-10],[18,-20],[-6,-8],[-11,-5],[-9,3],[-10,7],[-21,4],[-13,2],[-12,-2],[-2,-7],[7,-7],[0,-7],[-22,-2],[-10,-2],[-12,-4],[1,-6],[-11,-6],[-34,1],[-20,10],[-3,17],[-7,15],[-58,18],[-5,9],[-8,4],[-16,-3],[-6,-9],[8,-14],[-3,-10],[-6,-10],[-11,-7],[-15,-1],[-16,-4],[-16,-8],[-20,-13],[-10,-6],[-16,-6],[-6,-10],[0,-10],[19,-14],[1,-10],[7,-20],[-3,-7],[7,-11],[28,-13],[-9,-9],[-38,9],[-54,10],[-10,15],[19,1],[16,3],[10,8],[3,5],[-1,8],[-7,11],[-3,11],[3,12],[6,18],[-1,16],[-13,7],[-8,2],[-10,10],[-2,13],[-12,18],[-26,7],[-18,14],[-52,58],[-26,22],[-4,15],[-16,17],[-14,6],[2,-15],[14,-24],[-5,-13],[-5,-10],[4,-21],[10,-23],[1,-7],[-10,3],[-20,30],[-10,25],[-6,16],[-6,18],[-1,9],[0,17],[-1,12],[16,1],[5,7],[-4,32],[3,9],[-8,23],[-8,11],[1,7],[5,3],[-1,8],[-5,11],[3,6],[5,1],[3,5],[-3,8],[4,0],[15,-13],[19,-21],[0,-7],[-1,-4],[0,-7],[-5,-2],[-7,-1],[-3,-3],[1,-3],[5,-8],[-2,-4],[-2,-1],[-1,-6],[13,-27],[1,-8],[28,-30],[1,-14],[0,-14],[31,-36],[5,-2],[10,-19],[6,4],[6,-1],[15,-22],[14,-11],[6,4],[32,-33],[19,-14],[10,10],[28,-14],[16,6],[-13,17],[8,2],[49,-8],[9,6],[-23,21],[-13,20],[-11,32],[-17,27],[-25,6],[0,5],[4,13],[2,23],[8,12],[13,2],[3,-5],[-15,-23],[6,-8],[9,-4],[6,-11],[8,-21],[18,-26],[-3,-4],[2,-14],[9,-19],[6,-6],[1,4],[4,2],[17,-7],[15,0],[12,9],[6,3],[13,1],[15,-1],[18,-6],[20,4],[-2,9],[-8,5],[-2,7],[-7,5],[-15,-5],[-10,-1],[-3,6],[10,16],[4,50],[6,29],[-2,17],[-7,16],[4,2],[14,-13],[4,-10],[-6,-26],[2,-14],[21,-30],[12,-16],[20,-18],[15,-11],[14,-21],[22,-20],[30,-5],[21,5],[17,12],[10,1],[17,-2],[9,-2]],[[2006,2026],[-19,-18],[-23,-14],[4,10],[9,13],[7,9],[3,6],[5,9],[6,3],[6,-5],[5,-5],[-3,-8]],[[1201,3203],[33,-30],[2,-9],[10,-14],[9,-8],[1,-3],[-9,-1],[-16,17],[-9,13],[-24,15],[-9,10],[-33,21],[-27,4],[29,4],[43,-19]],[[4096,4096],[0,-4096],[-4096,0],[0,1016],[8,2],[17,11],[31,-6],[37,42],[0,6],[-5,5],[-16,5],[-2,16],[6,13],[-4,27],[-5,14],[1,9],[8,-7],[19,3],[11,-3],[2,-13],[6,-9],[30,5],[36,17],[13,-14],[16,11],[18,15],[20,11],[7,8],[-14,22],[17,11],[4,7],[7,4],[-7,-16],[-8,-12],[28,-26],[13,1],[62,31],[48,38],[41,19],[29,23],[21,4],[34,48],[-9,28],[2,9],[18,-22],[9,-17],[15,6],[16,2],[-7,-14],[-8,-8],[-30,-36],[-48,-42],[-16,-27],[7,-6],[8,-1],[15,-7],[12,16],[15,7],[48,-5],[45,6],[33,-9],[53,4],[45,-8],[-17,-12],[-52,-3],[-63,-26],[-16,-19],[8,-35],[-18,25],[-21,7],[-2,14],[1,14],[3,8],[2,11],[-21,8],[7,-9],[-8,-13],[-55,-21],[-27,-17],[-137,-100],[-7,-6],[-6,-11],[25,9],[16,9],[-4,-8],[-17,-15],[-12,-8],[-17,-1],[-26,-9],[-19,-14],[-12,-16],[-7,-10],[-4,-9],[38,38],[13,-2],[-42,-55],[-17,-62],[0,-18],[12,-74],[16,-19],[7,10],[4,10],[17,-6],[9,-17],[18,-48],[14,-7],[17,5],[15,-9],[6,1],[4,11],[8,1],[7,-5],[3,33],[17,16],[12,2],[15,-1],[41,38],[7,17],[24,26],[21,33],[20,12],[16,33],[8,-3],[11,12],[-7,22],[-4,8],[9,29],[22,10],[12,-27],[10,16],[0,12],[8,16],[14,-12],[6,-16],[13,-10],[11,-6],[27,-2],[8,9],[4,9],[-2,18],[-9,20],[11,-8],[16,-4],[14,3],[13,-2],[28,19],[12,-1],[10,2],[48,19],[47,17],[45,25],[43,16],[43,25],[13,3],[13,10],[15,6],[13,1],[20,8],[19,14],[21,6],[12,-7],[6,6],[7,11],[-8,10],[-6,5],[-65,5],[16,13],[17,8],[1,10],[-14,27],[-14,20],[-11,11],[-30,-12],[-22,3],[-18,17],[-7,23],[-2,14],[-6,5],[-47,-38],[-38,-18],[-4,-7],[-7,-5],[-18,11],[-30,-4],[5,11],[4,15],[-39,10],[-35,1],[-20,-6],[-14,-2],[-4,8],[-8,8],[-28,18],[-10,1],[-25,-6],[-31,28],[-33,18],[41,23],[-8,11],[-8,6],[-41,7],[-12,8],[-60,5],[-3,20],[-17,12],[1,19],[-8,24],[-7,45],[-17,7],[-12,34],[-4,18],[8,20],[6,28],[-20,7],[-19,1],[-27,-11],[-12,6],[-11,8],[42,37],[32,38],[11,55],[16,29],[11,14],[-31,20],[-31,-1],[8,15],[-41,-10],[-22,-12],[-25,-22],[-22,-5],[-11,7],[-16,45],[-18,15],[-65,21],[-27,20],[-13,2],[-37,-16],[-13,4],[46,26],[23,-6],[14,6],[30,-4],[13,12],[15,12],[32,-22],[50,-22],[22,-6],[18,3],[41,24],[13,15],[26,10],[10,8],[11,23],[13,14],[52,17],[17,36],[1,39],[-30,31],[-18,10],[26,0],[29,-10],[-1,19],[-9,13],[-55,51],[-49,24],[-102,20],[-23,1],[-66,-11],[-53,-4],[-77,-24],[-94,-45],[-70,-26],[0,128],[6,1],[17,4],[20,28],[5,42],[54,108],[36,20],[22,25],[13,2],[10,14],[15,3],[8,-5],[23,4],[21,-5],[31,25],[35,-9],[90,17],[16,-7],[57,-6],[66,9],[61,-10],[28,9],[30,3],[22,-3],[26,-13],[64,-4],[19,14],[33,0],[22,2],[21,0],[32,-4],[32,-2],[36,-11],[45,-2],[15,-10],[20,-25],[80,27],[19,-3],[41,4],[27,12],[37,-8],[31,5],[65,4],[35,18],[13,28],[37,20],[43,51],[38,29],[20,27],[76,81],[5,18],[3,6],[16,10],[12,3],[31,-3],[33,5],[12,3],[31,21],[15,8],[56,12],[30,2],[37,-10],[14,1],[8,3],[78,62],[48,32],[48,37],[59,58],[4,14],[-3,14],[-17,11],[-9,8],[-31,17],[-2,7],[21,-7],[22,-2],[11,8],[2,10],[-7,13],[-17,9],[-39,8],[-32,0],[-18,2],[6,8],[23,1],[58,13],[8,6],[-2,9],[-10,16],[2,25],[5,15],[-11,34],[15,37],[2,21],[-3,9],[-7,12],[-2,7],[1,9],[-9,13],[-10,22],[-27,32],[-29,4],[-15,6],[-16,26],[-4,13],[-11,1],[-31,-3],[-27,-5],[-31,-18],[-38,-40],[-20,-17],[-10,26],[-6,6],[-20,4],[1,4],[6,6],[45,22],[16,12],[4,10],[-3,15],[-9,21],[-39,66],[-36,8],[-106,10],[-21,-7],[-8,-8],[-1,-5],[8,-11],[25,5],[21,-2],[24,-6],[-1,-4],[-28,0],[-43,-10],[-59,-21],[-49,-28],[-38,-37],[-35,-27],[-32,-20],[-23,-10],[-38,-9],[-9,-7],[-19,-24],[-30,-24],[-33,-11],[-1,3],[-2,3],[14,8],[4,7],[-10,5],[2,9],[25,16],[10,10],[-11,12],[-38,22],[-5,12],[24,-12],[22,-4],[5,4],[3,7],[4,18],[4,9],[8,8],[25,13],[10,7],[13,3],[18,-4],[28,1],[54,27],[29,9],[5,4],[6,9],[11,6],[14,4],[22,-2],[16,3],[14,15],[22,34],[14,7],[25,10],[11,9],[2,8],[48,10],[34,0],[25,15],[14,21],[15,15],[0,6],[-14,13],[-27,3],[-17,7],[-19,12],[-19,15],[-6,29],[-17,1],[-25,-4],[-5,-15],[-32,-10],[-19,2],[-51,15],[-19,32],[-13,28],[-7,26],[-16,10],[-32,4],[-12,-13],[-12,-20],[-7,-7],[-58,-46],[-16,-20],[4,14],[13,21],[47,52],[9,13],[-15,6],[-16,-7],[-15,6],[-1,21],[-12,11],[-19,-4],[-12,-10],[-51,-7],[-24,-11],[-39,-35],[-11,-2],[18,19],[12,19],[3,12],[14,34],[25,22],[5,10],[-21,21],[-8,16],[-10,10],[8,16],[4,19],[2793,0]],[[2070,2501],[1,13],[-5,11],[-5,4],[-12,-7],[-14,-21],[-10,-22],[-9,-10],[-14,-8],[-20,-23],[-26,-38],[-12,-10],[3,17],[-1,10],[-3,4],[-4,11],[2,6],[9,13],[6,14],[1,7],[0,16],[3,11],[7,14],[28,41],[10,18],[6,22],[0,8],[13,10],[34,47],[11,18],[2,23],[3,7],[5,6],[21,16],[17,19],[13,35],[3,15],[0,12],[-2,10],[-4,7],[-5,4],[-5,0],[-16,-4],[-7,2],[-6,8],[-2,9],[2,19],[16,4],[39,4],[18,4],[8,4],[10,14],[13,27],[1,7],[-8,8],[-4,2],[-27,-5],[-6,-5],[7,-14],[-5,-11],[-32,10],[-7,16],[-22,1],[-33,-22],[-57,-25],[-18,-10],[-12,-8],[-12,-16],[-10,-36],[-4,-5],[-27,-28],[-11,-4],[0,-4],[4,-8],[1,-8],[-8,-23],[-14,-19],[-21,-12],[-6,-5],[-4,-8],[1,-7],[5,-6],[16,-10],[-11,-2],[-17,-1],[-5,-5],[-13,-22],[-6,-12],[-26,-73],[-19,-48],[-39,-90],[-1,-9],[6,-19],[18,-25],[1,-5],[-11,-5],[-20,16],[-9,3],[-17,-12],[-14,-17],[-5,-14],[-1,-22],[5,-13],[17,-8],[21,0],[-2,-6],[-11,-8],[-9,-28],[4,-10],[7,-9],[9,-6],[-3,-2],[-8,2],[-24,20],[-25,6],[-7,4],[-8,-4],[-16,-22],[-10,-29],[-17,-41],[-9,-36],[-5,-6],[-23,2],[-6,5],[-6,7],[4,12],[12,15],[-4,0],[-40,-33],[-19,-19],[0,-10],[41,0],[40,5],[21,-2],[21,-6],[29,3],[-1,-3],[-30,-19],[-19,-9],[-19,-24],[-45,-46],[-57,-45],[-13,-17],[-4,-12],[0,-7],[8,-36],[11,-28],[7,-9],[19,-9],[32,3],[60,13],[19,7],[15,9],[16,13],[2,-3],[-1,-12],[17,-2],[57,1],[8,-4],[40,-9],[34,1],[95,-15],[33,-3],[9,7],[48,7],[24,11],[12,1],[7,3],[13,29],[5,4],[6,-5],[13,-2],[18,8],[11,7],[3,-8],[-4,-55],[-40,-18],[-8,-6],[9,-1],[40,8],[9,-4],[7,-5],[36,-9],[14,3],[7,3],[4,4],[4,14],[4,25],[5,5],[31,-3],[22,3],[7,-7],[16,-4],[10,3],[20,9],[-2,-6],[-14,-19],[-19,-16],[-39,-18],[-31,-53],[-7,-10],[-17,-17],[-22,-11],[-29,-8],[-12,-6],[-15,-15],[-6,-12],[-1,-5],[2,-8],[12,-11],[7,-3],[10,-2],[25,4],[22,9],[9,1],[15,-5],[15,1],[11,10],[21,29],[7,16],[2,20],[43,58],[10,4],[10,-1],[17,3],[14,14],[18,25],[2,-3],[-14,-31],[-4,-14],[14,8],[6,7],[4,9],[5,26],[31,60],[3,21],[5,3],[26,-15],[11,-13],[9,-31],[7,-38],[4,-12],[5,-7],[-4,-14],[-18,-35],[-22,-49],[-12,-33],[-3,-13],[0,-11],[7,-11],[6,-4],[5,-1],[12,5],[27,28],[16,20],[14,22],[11,13],[7,2],[3,-4],[0,-9],[-6,-25],[6,-14],[-3,-19],[-4,-58],[5,-11],[4,-3],[6,1],[28,22],[11,2],[6,-1],[6,-5],[8,-11],[8,-3],[10,2],[8,7],[7,12],[13,26],[13,43],[1,11],[-1,9],[-4,16],[41,89],[3,13],[3,22],[-4,20],[-5,19],[-2,15],[-6,6],[-7,0],[-6,-11],[-10,-30],[-13,-18],[-21,-20],[-12,-8],[-6,10],[-2,6],[-1,39],[4,23],[7,21],[21,46],[8,14],[15,18],[1,6],[-3,5],[-7,4],[-30,-22],[-36,-19],[-40,-71],[-18,-22],[-13,-4],[-17,0],[-7,9],[-6,13],[-5,16],[1,4],[30,33],[7,14],[3,12],[-2,3],[-26,-4],[-14,3],[21,6],[8,4],[1,3],[25,6],[5,5],[-3,18],[-9,10],[14,6],[23,18],[13,17],[6,3],[14,-1],[7,3],[9,8],[14,21],[4,10],[3,16],[-1,17],[-3,6],[-3,1],[-13,-8],[-16,-15],[-10,-4],[-16,3],[-9,-3],[-26,-22],[-17,8],[-17,-4],[-11,-13],[-10,0],[-15,-4],[-30,-13],[-2,1],[8,7],[33,18],[17,12],[4,14],[12,22],[2,6],[-16,5],[-19,-3],[-14,6],[-1,5],[2,4],[13,8],[7,8],[-1,4],[-17,-1],[-28,-6],[-11,0],[47,28],[11,10],[3,8],[3,11],[10,12],[15,12],[18,17],[3,14],[-2,20],[-9,16],[-25,18],[-19,11],[-18,4],[-57,-6],[-8,2],[-7,-3],[-6,-6],[-11,-18],[-3,4],[0,16],[-3,19],[2,17],[-6,-1],[-14,-10],[-13,-13],[-12,-15],[-12,-9],[-11,-3],[-12,-8],[-13,-14],[-6,-2],[1,9],[-3,4],[-7,-3],[-21,-14],[-12,-13],[-2,-5],[2,-12],[-1,-4],[-15,-12],[-4,0],[4,13],[-2,12],[15,27],[7,19],[4,20],[-1,21],[-4,7],[-7,4],[-3,-3],[1,-28],[-2,-5],[-10,-6],[-2,3],[0,15],[-4,10],[0,5],[-21,-8],[-34,-8],[-25,23],[-41,-16],[-8,-2],[35,36],[2,18],[2,7],[-6,3],[-14,-1],[-13,-6],[-13,-10],[-3,0],[18,23],[59,35],[24,17],[11,12],[4,13],[-5,4],[-26,-8],[-17,-2],[-19,15],[-10,1],[-27,-10],[-16,-12],[0,5],[6,16]],[[2433,2428],[-12,-17],[-11,8],[-3,-2],[-2,-14],[1,-18],[3,-2],[5,1],[47,19],[-7,5],[-13,18],[-8,2]],[[2360,2392],[-4,3],[-11,-3],[-21,-16],[-5,0],[-4,2],[-1,6],[-4,2],[-8,-1],[-2,-5],[9,-17],[5,-6],[8,4],[7,6],[28,16],[3,9]],[[1305,1594],[0,8],[-17,43],[-1,11],[4,11],[-15,2],[-15,-3],[-8,-6],[-26,-31],[-20,-19],[-11,-18],[-10,-22],[-46,-97],[-12,-16],[-19,-20],[-13,-31],[-3,-33],[8,-62],[8,-13],[15,-19],[8,-7],[8,-1],[9,4],[19,-1],[19,7],[20,1],[19,-6],[17,0],[52,18],[33,25],[16,21],[18,17],[32,16],[3,7],[-20,15],[10,12],[6,14],[0,8],[-3,5],[-18,9],[-24,4],[-24,-3],[-3,20],[-10,12],[-14,-8],[-10,-8],[-14,-14],[-14,-24],[2,-15],[-29,-29],[5,-7],[44,10],[-2,-6],[-41,-48],[-7,-6],[-12,-4],[-13,3],[-10,0],[-23,-12],[-6,12],[7,13],[14,12],[1,5],[-13,7],[10,8],[21,10],[1,10],[-13,1],[-25,-14],[-6,2],[35,28],[15,8],[16,5],[30,22],[8,12],[7,15],[-2,10],[5,30],[17,55],[10,35]],[[1179,1273],[-11,-6],[1,-5],[12,-12],[2,-4],[7,2],[2,8],[7,14],[-20,3]],[[988,1519],[-17,6],[-47,-3],[-47,-5],[-5,-3],[-46,-6],[-30,-1],[-29,10],[-15,13],[-8,1],[-8,-2],[-14,10],[-27,6],[-10,-22],[-9,-7],[-4,3],[-5,7],[-13,5],[6,8],[2,9],[-3,10],[-4,9],[-34,37],[20,38],[-3,19],[0,23],[-29,-30],[-12,-15],[-11,-18],[-13,-18],[-9,-22],[3,-14],[27,-3],[18,-8],[6,-11],[-1,-38],[17,-5],[29,1],[18,-3],[2,-4],[-3,-4],[-7,-1],[13,-21],[17,-17],[13,-5],[53,-16],[11,2],[11,8],[-21,3],[14,10],[14,5],[11,11],[14,6],[-3,-6],[-10,-7],[-1,-12],[7,-10],[12,2],[10,-20],[-23,-16],[5,-2],[17,3],[4,-19],[14,-8],[11,-2],[39,3],[9,7],[-4,6],[-8,2],[1,19],[-2,19],[4,10],[38,21],[27,21],[27,18],[-3,7],[-6,6]],[[2023,1685],[10,-36],[0,-6],[-8,-19],[-2,-8],[6,-6],[16,12],[2,6],[-6,11],[-5,15],[7,22],[-2,10],[-14,8],[-2,-3],[-2,-6]],[[2055,1611],[-6,-9],[13,-4],[4,3],[2,4],[1,7],[-3,2],[-6,-1],[-5,-2]],[[2431,1825],[3,21],[-7,-11],[-9,-7],[-2,-5],[0,-7],[-5,-12],[-12,-16],[-1,-9],[9,0],[9,10],[15,36]],[[1043,1738],[-8,3],[-12,-1],[-6,5],[5,17],[10,13],[15,11],[12,19],[18,16],[20,2],[14,20],[-14,3],[-13,-5],[-15,-10],[-36,-35],[-18,-12],[-15,-53],[10,-4],[22,1],[11,10]],[[540,1892],[5,20],[-11,-6],[-4,2],[-14,-3],[1,-19],[-4,-11],[3,-2],[8,2],[16,17]],[[550,1945],[-4,2],[-3,-2],[-4,-6],[-9,-21],[20,14],[0,13]],[[1037,2246],[11,3],[9,10],[-8,18],[-14,22],[-42,29],[-16,5],[-91,60],[-41,22],[-42,19],[-37,12],[-85,16],[-68,19],[-20,1],[-24,-6],[-20,-10],[8,-17],[101,-47],[20,-15],[18,-19],[9,-21],[11,-16],[96,-49],[44,-15],[45,-8],[60,-17],[76,4]],[[2222,3031],[4,18],[-14,-3],[-9,-12],[-4,-11],[2,-3],[9,0],[12,11]],[[2166,2693],[6,0],[6,3],[6,6],[5,10],[1,5],[-10,2],[-14,-6],[-6,-11],[1,-6],[5,-3]],[[1415,837],[-25,-16],[-13,-2],[-33,4],[1,-4],[13,-9],[21,-1],[25,10],[11,18]],[[227,941],[-11,-24],[-2,-10],[9,10],[12,28],[-8,-4]],[[134,1025],[2,8],[1,22],[-10,4],[-8,-12],[-9,-37],[24,15]],[[1260,4096],[13,0],[-10,-14],[-3,14]],[[658,2402],[20,-15],[18,-19],[9,-21],[11,-16],[96,-49],[44,-15],[45,-8],[60,-17],[76,4],[11,3],[9,10],[-8,18],[-14,22],[-42,29],[-16,5],[-91,60],[-41,22],[-42,19],[-37,12],[-85,16],[-68,19],[-20,1],[-24,-6],[-20,-10],[8,-17],[101,-47]],[[1394,1373],[3,7],[-20,15],[10,12],[6,14],[0,8],[-3,5],[-18,9],[-24,4],[-24,-3],[-3,20],[-10,12],[-14,-8],[-10,-8],[-14,-14],[-14,-24],[2,-15],[-29,-29],[5,-7],[44,10],[-2,-6],[-41,-48],[-7,-6],[-12,-4],[-13,3],[-10,0],[-23,-12],[-6,12],[7,13],[14,12],[1,5],[-13,7],[10,8],[21,10],[1,10],[-13,1],[-25,-14],[-6,2],[35,28],[15,8],[16,5],[30,22],[8,12],[7,15],[-2,10],[5,30],[17,55],[10,35],[0,8],[-17,43],[-1,11],[4,11],[-15,2],[-15,-3],[-8,-6],[-26,-31],[-20,-19],[-11,-18],[-10,-22],[-46,-97],[-12,-16],[-19,-20],[-13,-31],[-3,-33],[8,-62],[8,-13],[15,-19],[8,-7],[8,-1],[9,4],[19,-1],[19,7],[20,1],[19,-6],[17,0],[52,18],[33,25],[16,21],[18,17],[32,16]],[[971,1525],[-47,-3],[-47,-5],[-5,-3],[-46,-6],[-30,-1],[-29,10],[-15,13],[-8,1],[-8,-2],[-14,10],[-27,6],[-10,-22],[-9,-7],[-4,3],[-5,7],[-13,5],[6,8],[2,9],[-3,10],[-4,9],[-34,37],[20,38],[-3,19],[0,23],[-29,-30],[-12,-15],[-11,-18],[-13,-18],[-9,-22],[3,-14],[27,-3],[18,-8],[6,-11],[-1,-38],[17,-5],[29,1],[18,-3],[2,-4],[-3,-4],[-7,-1],[13,-21],[17,-17],[13,-5],[53,-16],[11,2],[11,8],[-21,3],[14,10],[14,5],[11,11],[14,6],[-3,-6],[-10,-7],[-1,-12],[7,-10],[12,2],[10,-20],[-23,-16],[5,-2],[17,3],[4,-19],[14,-8],[11,-2],[39,3],[9,7],[-4,6],[-8,2],[1,19],[-2,19],[4,10],[38,21],[27,21],[27,18],[-3,7],[-6,6],[-17,6]],[[787,3640],[-1,-5],[-4,-10],[18,-20],[-6,-8],[-11,-5],[-9,3],[-10,7],[-21,4],[-13,2],[-12,-2],[-2,-7],[7,-7],[0,-7],[-22,-2],[-10,-2],[-12,-4],[1,-6],[-11,-6],[-34,1],[-20,10],[-3,17],[-7,15],[-58,18],[-5,9],[-8,4],[-16,-3],[-6,-9],[8,-14],[-3,-10],[-6,-10],[-11,-7],[-15,-1],[-16,-4],[-16,-8],[-20,-13],[-10,-6],[-16,-6],[-6,-10],[0,-10],[19,-14],[1,-10],[7,-20],[-3,-7],[7,-11],[28,-13],[-9,-9],[-38,9],[-54,10],[-10,15],[19,1],[16,3],[10,8],[3,5],[-1,8],[-7,11],[-3,11],[3,12],[6,18],[-1,16],[-13,7],[-8,2],[-10,10],[-2,13],[-12,18],[-26,7],[-18,14],[-52,58],[-26,22],[-4,15],[-16,17],[-14,6],[2,-15],[14,-24],[-5,-13],[-5,-10],[4,-21],[10,-23],[1,-7],[-10,3],[-20,30],[-10,25],[-6,16],[-6,18],[-1,9],[0,17],[-1,12],[16,1],[5,7],[-4,32],[3,9],[-8,23],[-8,11],[1,7],[5,3],[-1,8],[-5,11],[3,6],[5,1],[3,5],[-3,8],[4,0],[15,-13],[19,-21],[0,-7],[-1,-4],[0,-7],[-5,-2],[-7,-1],[-3,-3],[1,-3],[5,-8],[-2,-4],[-2,-1],[-1,-6],[13,-27],[1,-8],[28,-30],[1,-14],[0,-14],[31,-36],[5,-2],[10,-19],[6,4],[6,-1],[15,-22],[14,-11],[6,4],[32,-33],[19,-14],[10,10],[28,-14],[16,6],[-13,17],[8,2],[49,-8],[9,6],[-23,21],[-13,20],[-11,32],[-17,27],[-25,6],[0,5],[4,13],[2,23],[8,12],[13,2],[3,-5],[-15,-23],[6,-8],[9,-4],[6,-11],[8,-21],[18,-26],[-3,-4],[2,-14],[9,-19],[6,-6],[1,4],[4,2],[17,-7],[15,0],[12,9],[6,3],[13,1],[15,-1],[18,-6],[20,4],[-2,9],[-8,5],[-2,7],[-7,5],[-15,-5],[-10,-1],[-3,6],[10,16],[4,50],[6,29],[-2,17],[-7,16],[4,2],[14,-13],[4,-10],[-6,-26],[2,-14],[21,-30],[12,-16],[20,-18],[15,-11],[14,-21],[22,-20],[30,-5],[21,5],[17,12],[10,1],[17,-2],[9,-2]],[[1390,821],[-13,-2],[-33,4],[1,-4],[13,-9],[21,-1],[25,10],[11,18],[-25,-16]],[[461,906],[1,-4],[-7,-16],[-4,-5],[-14,-4],[-14,2],[-4,7],[0,8],[2,7],[4,6],[6,4],[5,0],[2,-7],[3,-5],[5,-1],[7,2],[8,6]],[[254,1354],[-8,-4],[-7,7],[10,8],[10,12],[5,15],[4,11],[5,5],[6,4],[2,3],[3,2],[4,-2],[0,-8],[-2,-8],[-4,-8],[-5,-10],[-2,-7],[-9,-11],[-12,-9]],[[1905,2293],[5,9],[3,10],[5,1],[4,-9],[3,-11],[-8,-10],[-10,-4],[-5,1],[-14,-14],[-20,-30],[-36,-42],[-14,-13],[-12,-20],[-33,-32],[-18,-8],[-16,5],[-12,1],[9,6],[33,25],[21,23],[19,10],[35,32],[18,24],[2,14],[0,9],[7,3],[20,13],[14,7]],[[2006,2026],[-19,-18],[-23,-14],[4,10],[9,13],[7,9],[3,6],[5,9],[6,3],[6,-5],[5,-5],[-3,-8]],[[0,1298],[4,4],[3,-12],[2,-9],[-9,-4]],[[1179,1273],[-11,-6],[1,-5],[12,-12],[2,-4],[7,2],[2,8],[7,14],[-20,3]],[[1097,1823],[14,20],[-14,3],[-13,-5],[-15,-10],[-36,-35],[-18,-12],[-15,-53],[10,-4],[22,1],[11,10],[-8,3],[-12,-1],[-6,5],[5,17],[10,13],[15,11],[12,19],[18,16],[20,2]],[[534,1906],[-4,2],[-14,-3],[1,-19],[-4,-11],[3,-2],[8,2],[16,17],[5,20],[-11,-6]],[[530,1918],[20,14],[0,13],[-4,2],[-3,-2],[-4,-6],[-9,-21]],[[214,907],[9,10],[12,28],[-8,-4],[-11,-24],[-2,-10]],[[110,1010],[24,15],[2,8],[1,22],[-10,4],[-8,-12],[-9,-37]],[[1201,3203],[33,-30],[2,-9],[10,-14],[9,-8],[1,-3],[-9,-1],[-16,17],[-9,13],[-24,15],[-9,10],[-33,21],[-27,4],[29,4],[43,-19]],[[0,1016],[8,2],[17,11],[31,-6],[37,42],[0,6],[-5,5],[-16,5],[-2,16],[6,13],[-4,27],[-5,14],[1,9],[8,-7],[19,3],[11,-3],[2,-13],[6,-9],[30,5],[36,17],[13,-14],[16,11],[18,15],[20,11],[7,8],[-14,22],[17,11],[4,7],[7,4],[-7,-16],[-8,-12],[28,-26],[13,1],[62,31],[48,38],[41,19],[29,23],[21,4],[34,48],[-9,28],[2,9],[18,-22],[9,-17],[15,6],[16,2],[-7,-14],[-8,-8],[-30,-36],[-48,-42],[-16,-27],[7,-6],[8,-1],[15,-7],[12,16],[15,7],[48,-5],[45,6],[33,-9],[53,4],[45,-8],[-17,-12],[-52,-3],[-63,-26],[-16,-19],[8,-35],[-18,25],[-21,7],[-2,14],[1,14],[3,8],[2,11],[-21,8],[7,-9],[-8,-13],[-55,-21],[-27,-17],[-137,-100],[-7,-6],[-6,-11],[25,9],[16,9],[-4,-8],[-17,-15],[-12,-8],[-17,-1],[-26,-9],[-19,-14],[-12,-16],[-7,-10],[-4,-9],[38,38],[13,-2],[-42,-55],[-17,-62],[0,-18],[12,-74],[16,-19],[7,10],[4,10],[17,-6],[9,-17],[18,-48],[14,-7],[17,5],[15,-9],[6,1],[4,11],[8,1],[7,-5],[3,33],[17,16],[12,2],[15,-1],[41,38],[7,17],[24,26],[21,33],[20,12],[16,33],[8,-3],[11,12],[-7,22],[-4,8],[9,29],[22,10],[12,-27],[10,16],[0,12],[8,16],[14,-12],[6,-16],[13,-10],[11,-6],[27,-2],[8,9],[4,9],[-2,18],[-9,20],[11,-8],[16,-4],[14,3],[13,-2],[28,19],[12,-1],[10,2],[48,19],[47,17],[45,25],[43,16],[43,25],[13,3],[13,10],[15,6],[13,1],[20,8],[19,14],[21,6],[12,-7],[6,6],[7,11],[-8,10],[-6,5],[-65,5],[16,13],[17,8],[1,10],[-14,27],[-14,20],[-11,11],[-30,-12],[-22,3],[-18,17],[-7,23],[-2,14],[-6,5],[-47,-38],[-38,-18],[-4,-7],[-7,-5],[-18,11],[-30,-4],[5,11],[4,15],[-39,10],[-35,1],[-20,-6],[-14,-2],[-4,8],[-8,8],[-28,18],[-10,1],[-25,-6],[-31,28],[-28,15],[-5,3],[41,23],[-8,11],[-8,6],[-41,7],[-12,8],[-60,5],[-3,20],[-17,12],[1,19],[-8,24],[-7,45],[-17,7],[-12,34],[-4,18],[8,20],[6,28],[-20,7],[-19,1],[-27,-11],[-12,6],[-11,8],[42,37],[32,38],[11,55],[16,29],[11,14],[-31,20],[-31,-1],[8,15],[-41,-10],[-22,-12],[-25,-22],[-22,-5],[-11,7],[-16,45],[-18,15],[-65,21],[-27,20],[-13,2],[-37,-16],[-13,4],[46,26],[23,-6],[14,6],[30,-4],[13,12],[15,12],[32,-22],[50,-22],[22,-6],[18,3],[41,24],[13,15],[26,10],[10,8],[11,23],[13,14],[52,17],[17,36],[1,39],[-30,31],[-18,10],[26,0],[29,-10],[-1,19],[-9,13],[-55,51],[-49,24],[-102,20],[-23,1],[-66,-11],[-53,-4],[-77,-24],[-94,-45],[-70,-26]],[[0,2312],[6,1],[17,4],[20,28],[5,42],[54,108],[36,20],[22,25],[13,2],[10,14],[15,3],[8,-5],[23,4],[21,-5],[31,25],[35,-9],[90,17],[16,-7],[57,-6],[66,9],[61,-10],[28,9],[30,3],[22,-3],[26,-13],[64,-4],[19,14],[33,0],[22,2],[21,0],[32,-4],[32,-2],[36,-11],[45,-2],[15,-10],[20,-25],[80,27],[19,-3],[41,4],[27,12],[37,-8],[31,5],[65,4],[35,18],[13,28],[37,20],[43,51],[38,29],[20,27],[76,81],[5,18],[3,6],[16,10],[12,3],[31,-3],[33,5],[12,3],[31,21],[15,8],[56,12],[30,2],[36,-10],[1,0],[14,1],[8,3],[78,62],[48,32],[48,37],[59,58],[4,14],[-3,14],[-17,11],[-9,8],[-31,17],[-2,7],[21,-7],[22,-2],[11,8],[2,10],[-7,13],[-17,9],[-39,8],[-32,0],[-18,2],[6,8],[23,1],[58,13],[8,6],[-2,9],[-10,16],[2,25],[5,15],[-11,34],[15,37],[2,21],[-3,9],[-7,12],[-2,7],[1,9],[-9,13],[-10,22],[-27,32],[-29,4],[-15,6],[-16,26],[-4,13],[-11,1],[-31,-3],[-27,-5],[-31,-18],[-38,-40],[-20,-17],[-10,26],[-6,6],[-20,4],[1,4],[6,6],[45,22],[16,12],[4,10],[-3,15],[-9,21],[-39,66],[-36,8],[-106,10],[-21,-7],[-8,-8],[-1,-5],[8,-11],[25,5],[21,-2],[24,-6],[-1,-4],[-28,0],[-43,-10],[-59,-21],[-49,-28],[-38,-37],[-35,-27],[-32,-20],[-23,-10],[-38,-9],[-9,-7],[-19,-24],[-30,-24],[-33,-11],[-1,3],[-2,3],[14,8],[4,7],[-10,5],[2,9],[25,16],[10,10],[-11,12],[-38,22],[-5,12],[24,-12],[22,-4],[5,4],[3,7],[4,18],[4,9],[8,8],[25,13],[10,7],[13,3],[18,-4],[28,1],[54,27],[29,9],[5,4],[6,9],[11,6],[14,4],[22,-2],[16,3],[14,15],[22,34],[14,7],[25,10],[11,9],[2,8],[48,10],[34,0],[25,15],[14,21],[15,15],[0,6],[-14,13],[-27,3],[-17,7],[-19,12],[-19,15],[-6,29],[-17,1],[-25,-4],[-5,-15],[-32,-10],[-19,2],[-51,15],[-19,32],[-13,28],[-7,26],[-16,10],[-32,4],[-12,-13],[-12,-20],[-7,-7],[-58,-46],[-16,-20],[4,14],[13,21],[47,52],[9,13],[-15,6],[-16,-7],[-15,6],[-1,21],[-12,11],[-19,-4],[-12,-10],[-51,-7],[-24,-11],[-39,-35],[-11,-2],[18,19],[12,19],[3,12],[14,34],[25,22],[5,10],[-21,21],[-8,16],[-10,10],[8,16],[4,19]],[[1273,4096],[-10,-14],[-3,14]],[[2049,1602],[13,-4],[4,3],[2,4],[1,7],[-3,2],[-6,-1],[-5,-2],[-6,-9]],[[2699,1839],[-5,19],[-2,15],[-6,6],[-7,0],[-6,-11],[-10,-30],[-13,-18],[-21,-20],[-12,-8],[-6,10],[-2,6],[-1,39],[4,23],[7,21],[21,46],[8,14],[15,18],[1,6],[-3,5],[-7,4],[-30,-22],[-36,-19],[-40,-71],[-18,-22],[-13,-4],[-17,0],[-7,9],[-6,13],[-5,16],[1,4],[30,33],[7,14],[3,12],[-2,3],[-26,-4],[-14,3],[21,6],[8,4],[1,3],[25,6],[5,5],[-3,18],[-9,10],[14,6],[23,18],[13,17],[6,3],[14,-1],[7,3],[9,8],[14,21],[4,10],[3,16],[-1,17],[-3,6],[-3,1],[-13,-8],[-16,-15],[-10,-4],[-16,3],[-9,-3],[-26,-22],[-17,8],[-17,-4],[-11,-13],[-10,0],[-15,-4],[-30,-13],[-2,1],[8,7],[33,18],[17,12],[4,14],[12,22],[2,6],[-16,5],[-19,-3],[-14,6],[-1,5],[2,4],[13,8],[7,8],[-1,4],[-17,-1],[-28,-6],[-11,0],[47,28],[11,10],[3,8],[3,11],[10,12],[15,12],[18,17],[3,14],[-2,20],[-9,16],[-25,18],[-19,11],[-18,4],[-57,-6],[-8,2],[-7,-3],[-6,-6],[-11,-18],[-3,4],[0,16],[-3,19],[2,17],[-6,-1],[-14,-10],[-13,-13],[-12,-15],[-12,-9],[-11,-3],[-12,-8],[-13,-14],[-6,-2],[1,9],[-3,4],[-7,-3],[-21,-14],[-12,-13],[-2,-5],[2,-12],[-1,-4],[-15,-12],[-4,0],[4,13],[-2,12],[15,27],[7,19],[4,20],[-1,21],[-4,7],[-7,4],[-3,-3],[1,-28],[-2,-5],[-10,-6],[-2,3],[0,15],[-4,10],[0,5],[-21,-8],[-34,-8],[-25,23],[-41,-16],[-8,-2],[35,36],[2,18],[2,7],[-6,3],[-14,-1],[-13,-6],[-13,-10],[-3,0],[18,23],[59,35],[24,17],[11,12],[4,13],[-5,4],[-26,-8],[-17,-2],[-19,15],[-10,1],[-27,-10],[-16,-12],[0,5],[6,16],[1,13],[-5,11],[-5,4],[-12,-7],[-14,-21],[-10,-22],[-9,-10],[-14,-8],[-20,-23],[-26,-38],[-12,-10],[3,17],[-1,10],[-3,4],[-4,11],[2,6],[9,13],[6,14],[1,7],[0,16],[3,11],[7,14],[28,41],[10,18],[6,22],[0,8],[13,10],[34,47],[11,18],[2,23],[3,7],[5,6],[21,16],[17,19],[13,35],[3,15],[0,12],[-2,10],[-4,7],[-5,4],[-5,0],[-16,-4],[-7,2],[-6,8],[-2,9],[2,19],[16,4],[39,4],[18,4],[8,4],[10,14],[13,27],[1,7],[-8,8],[-4,2],[-27,-5],[-6,-5],[7,-14],[-5,-11],[-32,10],[-7,16],[-22,1],[-33,-22],[-57,-25],[-18,-10],[-12,-8],[-12,-16],[-10,-36],[-4,-5],[-27,-28],[-11,-4],[0,-4],[4,-8],[1,-8],[-8,-23],[-14,-19],[-21,-12],[-6,-5],[-4,-8],[1,-7],[5,-6],[16,-10],[-11,-2],[-17,-1],[-5,-5],[-13,-22],[-6,-12],[-26,-73],[-19,-48],[-39,-90],[-1,-9],[6,-19],[18,-25],[1,-5],[-11,-5],[-20,16],[-9,3],[-17,-12],[-14,-17],[-5,-14],[-1,-22],[5,-13],[17,-8],[21,0],[-2,-6],[-11,-8],[-9,-28],[4,-10],[7,-9],[9,-6],[-3,-2],[-8,2],[-24,20],[-25,6],[-7,4],[-8,-4],[-16,-22],[-10,-29],[-17,-41],[-9,-36],[-5,-6],[-23,2],[-6,5],[-6,7],[4,12],[12,15],[-4,0],[-40,-33],[-19,-19],[0,-10],[41,0],[40,5],[21,-2],[21,-6],[29,3],[-1,-3],[-30,-19],[-19,-9],[-19,-24],[-45,-46],[-57,-45],[-13,-17],[-4,-12],[0,-7],[8,-36],[11,-28],[7,-9],[19,-9],[32,3],[60,13],[19,7],[15,9],[16,13],[2,-3],[-1,-12],[17,-2],[57,1],[8,-4],[40,-9],[34,1],[95,-15],[33,-3],[9,7],[48,7],[24,11],[12,1],[7,3],[13,29],[5,4],[6,-5],[13,-2],[18,8],[11,7],[3,-8],[-4,-55],[-40,-18],[-8,-6],[9,-1],[40,8],[9,-4],[7,-5],[36,-9],[14,3],[7,3],[4,4],[4,14],[4,25],[5,5],[31,-3],[22,3],[7,-7],[16,-4],[10,3],[20,9],[-2,-6],[-14,-19],[-19,-16],[-39,-18],[-31,-53],[-7,-10],[-17,-17],[-22,-11],[-29,-8],[-12,-6],[-15,-15],[-6,-12],[-1,-5],[2,-8],[12,-11],[7,-3],[10,-2],[25,4],[22,9],[9,1],[15,-5],[15,1],[11,10],[21,29],[7,16],[2,20],[43,58],[10,4],[10,-1],[17,3],[14,14],[18,25],[2,-3],[-14,-31],[-4,-14],[14,8],[6,7],[4,9],[5,26],[31,60],[3,21],[5,3],[26,-15],[11,-13],[9,-31],[7,-38],[4,-12],[5,-7],[-4,-14],[-18,-35],[-22,-49],[-12,-33],[-3,-13],[0,-11],[7,-11],[6,-4],[5,-1],[12,5],[27,28],[16,20],[14,22],[11,13],[7,2],[3,-4],[0,-9],[-6,-25],[6,-14],[-3,-19],[-4,-58],[5,-11],[4,-3],[6,1],[28,22],[11,2],[6,-1],[6,-5],[8,-11],[8,-3],[10,2],[8,7],[7,12],[13,26],[13,43],[1,11],[-1,9],[-4,16],[41,89],[3,13],[3,22],[-4,20]],[[2166,2713],[-6,-11],[1,-6],[5,-3],[6,0],[6,3],[6,6],[5,10],[1,5],[-10,2],[-14,-6]],[[2309,2363],[5,-6],[8,4],[7,6],[28,16],[3,9],[-4,3],[-11,-3],[-21,-16],[-5,0],[-4,2],[-1,6],[-4,2],[-8,-1],[-2,-5],[9,-17]],[[2226,3049],[-14,-3],[-9,-12],[-4,-11],[2,-3],[9,0],[12,11],[4,18]],[[2461,2403],[-7,5],[-13,18],[-8,2],[-12,-17],[-11,8],[-3,-2],[-2,-14],[1,-18],[3,-2],[5,1],[47,19]],[[2036,1654],[7,22],[-2,10],[-14,8],[-2,-3],[-2,-6],[10,-36],[0,-6],[-8,-19],[-2,-8],[6,-6],[16,12],[2,6],[-6,11],[-5,15]],[[2427,1835],[-9,-7],[-2,-5],[0,-7],[-5,-12],[-12,-16],[-1,-9],[9,0],[9,10],[15,36],[3,21],[-7,-11]],[[2357,2383],[-28,-16],[-7,-6],[-8,-4],[-5,6],[-9,17],[2,5],[8,1],[4,-2],[1,-6],[4,-2],[5,0],[21,16],[11,3],[4,-3],[-3,-9]],[[2441,2426],[13,-18],[7,-5],[-47,-19],[-5,-1],[-3,2],[-1,18],[2,14],[3,2],[11,-8],[12,17],[8,-2]],[[2416,1789],[-9,-10],[-9,0],[1,9],[12,16],[5,12],[0,7],[2,5],[9,7],[7,11],[-3,-21],[-15,-36]],[[2210,3020],[-9,0],[-2,3],[4,11],[9,12],[14,3],[-4,-18],[-12,-11]],[[545,1912],[-5,-20],[-16,-17],[-8,-2],[-3,2],[4,11],[-1,19],[14,3],[4,-2],[11,6]],[[1037,2246],[-76,-4],[-60,17],[-45,8],[-44,15],[-96,49],[-11,16],[-9,21],[-18,19],[-20,15],[-101,47],[-8,17],[20,10],[24,6],[20,-1],[68,-19],[85,-16],[37,-12],[42,-19],[41,-22],[91,-60],[16,-5],[42,-29],[14,-22],[8,-18],[-9,-10],[-11,-3]],[[1017,1745],[6,-5],[12,1],[8,-3],[-11,-10],[-22,-1],[-10,4],[15,53],[18,12],[36,35],[15,10],[13,5],[14,-3],[-14,-20],[-20,-2],[-18,-16],[-12,-19],[-15,-11],[-10,-13],[-5,-17]],[[550,1932],[-20,-14],[9,21],[4,6],[3,2],[4,-2],[0,-13]],[[2045,1622],[-16,-12],[-6,6],[2,8],[8,19],[0,6],[-10,36],[2,6],[2,3],[14,-8],[2,-10],[-7,-22],[5,-15],[6,-11],[-2,-6]],[[2192,2922],[-13,-27],[-10,-14],[-8,-4],[-18,-4],[-39,-4],[-16,-4],[-2,-19],[2,-9],[6,-8],[7,-2],[16,4],[5,0],[5,-4],[4,-7],[2,-10],[0,-12],[-3,-15],[-13,-35],[-17,-19],[-21,-16],[-5,-6],[-3,-7],[-2,-23],[-11,-18],[-34,-47],[-13,-10],[0,-8],[-6,-22],[-10,-18],[-28,-41],[-7,-14],[-3,-11],[0,-16],[-1,-7],[-6,-14],[-9,-13],[-2,-6],[4,-11],[3,-4],[1,-10],[-3,-17],[12,10],[26,38],[20,23],[14,8],[9,10],[10,22],[14,21],[12,7],[5,-4],[5,-11],[-1,-13],[-6,-16],[0,-5],[16,12],[27,10],[10,-1],[19,-15],[17,2],[26,8],[5,-4],[-4,-13],[-11,-12],[-24,-17],[-59,-35],[-18,-23],[3,0],[13,10],[13,6],[14,1],[6,-3],[-2,-7],[-2,-18],[-35,-36],[8,2],[41,16],[25,-23],[34,8],[21,8],[0,-5],[4,-10],[0,-15],[2,-3],[10,6],[2,5],[-1,28],[3,3],[7,-4],[4,-7],[1,-21],[-4,-20],[-7,-19],[-15,-27],[2,-12],[-4,-13],[4,0],[15,12],[1,4],[-2,12],[2,5],[12,13],[21,14],[7,3],[3,-4],[-1,-9],[6,2],[13,14],[12,8],[11,3],[12,9],[12,15],[13,13],[14,10],[6,1],[-2,-17],[3,-19],[0,-16],[3,-4],[11,18],[6,6],[7,3],[8,-2],[57,6],[18,-4],[19,-11],[25,-18],[9,-16],[2,-20],[-3,-14],[-18,-17],[-15,-12],[-10,-12],[-3,-11],[-3,-8],[-11,-10],[-47,-28],[11,0],[28,6],[17,1],[1,-4],[-7,-8],[-13,-8],[-2,-4],[1,-5],[14,-6],[19,3],[16,-5],[-2,-6],[-12,-22],[-4,-14],[-17,-12],[-33,-18],[-8,-7],[2,-1],[30,13],[15,4],[10,0],[11,13],[17,4],[17,-8],[26,22],[9,3],[16,-3],[10,4],[16,15],[13,8],[3,-1],[3,-6],[1,-17],[-3,-16],[-4,-10],[-14,-21],[-9,-8],[-7,-3],[-14,1],[-6,-3],[-13,-17],[-23,-18],[-14,-6],[9,-10],[3,-18],[-5,-5],[-25,-6],[-1,-3],[-8,-4],[-21,-6],[14,-3],[26,4],[2,-3],[-3,-12],[-7,-14],[-30,-33],[-1,-4],[5,-16],[6,-13],[7,-9],[17,0],[13,4],[18,22],[40,71],[36,19],[30,22],[7,-4],[3,-5],[-1,-6],[-15,-18],[-8,-14],[-21,-46],[-7,-21],[-4,-23],[1,-39],[2,-6],[6,-10],[12,8],[21,20],[13,18],[10,30],[6,11],[7,0],[6,-6],[2,-15],[5,-19],[4,-20],[-3,-22],[-3,-13],[-41,-89],[4,-16],[1,-9],[-1,-11],[-13,-43],[-13,-26],[-7,-12],[-8,-7],[-10,-2],[-8,3],[-8,11],[-6,5],[-6,1],[-11,-2],[-28,-22],[-6,-1],[-4,3],[-5,11],[4,58],[3,19],[-6,14],[6,25],[0,9],[-3,4],[-7,-2],[-11,-13],[-14,-22],[-16,-20],[-27,-28],[-12,-5],[-5,1],[-6,4],[-7,11],[0,11],[3,13],[12,33],[22,49],[18,35],[4,14],[-5,7],[-4,12],[-7,38],[-9,31],[-11,13],[-26,15],[-5,-3],[-3,-21],[-31,-60],[-5,-26],[-4,-9],[-6,-7],[-14,-8],[4,14],[14,31],[-2,3],[-18,-25],[-14,-14],[-17,-3],[-10,1],[-10,-4],[-43,-58],[-2,-20],[-7,-16],[-21,-29],[-11,-10],[-15,-1],[-15,5],[-9,-1],[-22,-9],[-25,-4],[-10,2],[-7,3],[-12,11],[-2,8],[1,5],[6,12],[15,15],[12,6],[29,8],[22,11],[17,17],[7,10],[31,53],[39,18],[19,16],[14,19],[2,6],[-20,-9],[-10,-3],[-16,4],[-7,7],[-22,-3],[-31,3],[-5,-5],[-4,-25],[-4,-14],[-4,-4],[-7,-3],[-14,-3],[-36,9],[-7,5],[-9,4],[-40,-8],[-9,1],[8,6],[40,18],[4,55],[-3,8],[-11,-7],[-18,-8],[-13,2],[-6,5],[-5,-4],[-13,-29],[-7,-3],[-12,-1],[-24,-11],[-48,-7],[-9,-7],[-33,3],[-95,15],[-34,-1],[-40,9],[-8,4],[-57,-1],[-17,2],[1,12],[-2,3],[-16,-13],[-15,-9],[-19,-7],[-60,-13],[-32,-3],[-19,9],[-7,9],[-11,28],[-8,36],[0,7],[4,12],[13,17],[57,45],[45,46],[19,24],[19,9],[30,19],[1,3],[-29,-3],[-21,6],[-21,2],[-40,-5],[-41,0],[0,10],[19,19],[40,33],[4,0],[-12,-15],[-4,-12],[6,-7],[6,-5],[23,-2],[5,6],[9,36],[17,41],[10,29],[16,22],[8,4],[7,-4],[25,-6],[24,-20],[8,-2],[3,2],[-9,6],[-7,9],[-4,10],[9,28],[11,8],[2,6],[-21,0],[-17,8],[-5,13],[1,22],[5,14],[14,17],[17,12],[9,-3],[20,-16],[11,5],[-1,5],[-18,25],[-6,19],[1,9],[39,90],[19,48],[26,73],[6,12],[13,22],[5,5],[17,1],[11,2],[-16,10],[-5,6],[-1,7],[4,8],[6,5],[21,12],[14,19],[8,23],[-1,8],[-4,8],[0,4],[11,4],[27,28],[4,5],[10,36],[12,16],[12,8],[18,10],[57,25],[33,22],[22,-1],[7,-16],[32,-10],[5,11],[-7,14],[6,5],[27,5],[4,-2],[8,-8],[-1,-7]],[[2178,2696],[-6,-3],[-6,0],[-5,3],[-1,6],[6,11],[14,6],[10,-2],[-1,-5],[-5,-10],[-6,-6]],[[1404,819],[-25,-10],[-21,1],[-13,9],[-1,4],[33,-4],[13,2],[25,16],[-11,-18]],[[134,1025],[-24,-15],[9,37],[8,12],[10,-4],[-1,-22],[-2,-8]],[[1190,1248],[-7,-2],[-2,4],[-12,12],[-1,5],[11,6],[20,-3],[-7,-14],[-2,-8]],[[1164,1374],[6,-2],[25,14],[13,-1],[-1,-10],[-21,-10],[-10,-8],[13,-7],[-1,-5],[-14,-12],[-7,-13],[6,-12],[23,12],[10,0],[13,-3],[12,4],[7,6],[41,48],[2,6],[-44,-10],[-5,7],[29,29],[-2,15],[14,24],[14,14],[10,8],[14,8],[10,-12],[3,-20],[24,3],[24,-4],[18,-9],[3,-5],[0,-8],[-6,-14],[-10,-12],[20,-15],[-3,-7],[-32,-16],[-18,-17],[-16,-21],[-33,-25],[-52,-18],[-17,0],[-19,6],[-20,-1],[-19,-7],[-19,1],[-9,-4],[-8,1],[-8,7],[-15,19],[-8,13],[-8,62],[3,33],[13,31],[19,20],[12,16],[46,97],[10,22],[11,18],[20,19],[26,31],[8,6],[15,3],[15,-2],[-4,-11],[1,-11],[17,-43],[0,-8],[-10,-35],[-17,-55],[-5,-30],[2,-10],[-7,-15],[-8,-12],[-30,-22],[-16,-5],[-15,-8],[-35,-28]],[[672,1519],[4,-3],[9,7],[10,22],[27,-6],[14,-10],[8,2],[8,-1],[15,-13],[29,-10],[30,1],[46,6],[5,3],[47,5],[47,3],[17,-6],[6,-6],[3,-7],[-27,-18],[-27,-21],[-38,-21],[-4,-10],[2,-19],[-1,-19],[8,-2],[4,-6],[-9,-7],[-39,-3],[-11,2],[-14,8],[-4,19],[-17,-3],[-5,2],[23,16],[-10,20],[-12,-2],[-7,10],[1,12],[10,7],[3,6],[-14,-6],[-11,-11],[-14,-5],[-14,-10],[21,-3],[-11,-8],[-11,-2],[-53,16],[-13,5],[-17,17],[-13,21],[7,1],[3,4],[-2,4],[-18,3],[-29,-1],[-17,5],[1,38],[-6,11],[-18,8],[-27,3],[-3,14],[9,22],[13,18],[11,18],[12,15],[29,30],[0,-23],[3,-19],[-20,-38],[34,-37],[4,-9],[3,-10],[-2,-9],[-6,-8],[13,-5],[5,-7]],[[1273,4096],[30,0],[-4,-19],[-8,-16],[10,-10],[8,-16],[21,-21],[-5,-10],[-25,-22],[-14,-34],[-3,-12],[-12,-19],[-18,-19],[11,2],[39,35],[24,11],[51,7],[12,10],[19,4],[12,-11],[1,-21],[15,-6],[16,7],[15,-6],[-9,-13],[-47,-52],[-13,-21],[-4,-14],[16,20],[58,46],[7,7],[12,20],[12,13],[32,-4],[16,-10],[7,-26],[13,-28],[19,-32],[51,-15],[19,-2],[32,10],[5,15],[25,4],[17,-1],[6,-29],[19,-15],[19,-12],[17,-7],[27,-3],[14,-13],[0,-6],[-15,-15],[-14,-21],[-25,-15],[-34,0],[-48,-10],[-2,-8],[-11,-9],[-25,-10],[-14,-7],[-22,-34],[-14,-15],[-16,-3],[-22,2],[-14,-4],[-11,-6],[-6,-9],[-5,-4],[-29,-9],[-54,-27],[-28,-1],[-18,4],[-13,-3],[-10,-7],[-25,-13],[-8,-8],[-4,-9],[-4,-18],[-3,-7],[-5,-4],[-22,4],[-24,12],[5,-12],[38,-22],[11,-12],[-10,-10],[-25,-16],[-2,-9],[10,-5],[-4,-7],[-14,-8],[2,-3],[1,-3],[33,11],[30,24],[19,24],[9,7],[38,9],[23,10],[32,20],[35,27],[38,37],[49,28],[59,21],[43,10],[28,0],[1,4],[-24,6],[-21,2],[-25,-5],[-8,11],[1,5],[8,8],[21,7],[106,-10],[36,-8],[39,-66],[9,-21],[3,-15],[-4,-10],[-16,-12],[-45,-22],[-6,-6],[-1,-4],[20,-4],[6,-6],[10,-26],[20,17],[38,40],[31,18],[27,5],[31,3],[11,-1],[4,-13],[16,-26],[15,-6],[29,-4],[27,-32],[10,-22],[9,-13],[-1,-9],[2,-7],[7,-12],[3,-9],[-2,-21],[-15,-37],[11,-34],[-5,-15],[-2,-25],[10,-16],[2,-9],[-8,-6],[-58,-13],[-23,-1],[-6,-8],[18,-2],[32,0],[39,-8],[17,-9],[7,-13],[-2,-10],[-11,-8],[-22,2],[-21,7],[2,-7],[31,-17],[9,-8],[17,-11],[3,-14],[-4,-14],[-59,-58],[-48,-37],[-48,-32],[-78,-62],[-8,-3],[-14,-1],[-37,10],[-30,-2],[-56,-12],[-15,-8],[-31,-21],[-12,-3],[-33,-5],[-31,3],[-12,-3],[-16,-10],[-3,-6],[-5,-18],[-76,-81],[-20,-27],[-38,-29],[-43,-51],[-37,-20],[-13,-28],[-35,-18],[-65,-4],[-31,-5],[-37,8],[-27,-12],[-41,-4],[-19,3],[-80,-27],[-20,25],[-15,10],[-45,2],[-36,11],[-32,2],[-32,4],[-21,0],[-22,-2],[-33,0],[-19,-14],[-64,4],[-26,13],[-22,3],[-30,-3],[-28,-9],[-61,10],[-66,-9],[-57,6],[-16,7],[-90,-17],[-35,9],[-31,-25],[-21,5],[-23,-4],[-8,5],[-15,-3],[-10,-14],[-13,-2],[-22,-25],[-36,-20],[-54,-108],[-5,-42],[-20,-28],[-17,-4],[-6,-1],[0,1784],[1260,0],[3,-14],[10,14]],[[0,1016],[0,1168],[70,26],[94,45],[77,24],[53,4],[66,11],[23,-1],[102,-20],[49,-24],[55,-51],[9,-13],[1,-19],[-29,10],[-26,0],[18,-10],[30,-31],[-1,-39],[-17,-36],[-52,-17],[-13,-14],[-11,-23],[-10,-8],[-26,-10],[-13,-15],[-41,-24],[-18,-3],[-22,6],[-50,22],[-32,22],[-15,-12],[-13,-12],[-30,4],[-14,-6],[-23,6],[-46,-26],[13,-4],[37,16],[13,-2],[27,-20],[65,-21],[18,-15],[16,-45],[11,-7],[22,5],[25,22],[22,12],[41,10],[-8,-15],[31,1],[31,-20],[-11,-14],[-16,-29],[-11,-55],[-32,-38],[-42,-37],[11,-8],[12,-6],[27,11],[19,-1],[20,-7],[-6,-28],[-8,-20],[4,-18],[12,-34],[17,-7],[7,-45],[8,-24],[-1,-19],[17,-12],[3,-20],[60,-5],[12,-8],[41,-7],[8,-6],[8,-11],[-41,-23],[33,-18],[31,-28],[25,6],[10,-1],[28,-18],[8,-8],[4,-8],[14,2],[20,6],[35,-1],[39,-10],[-4,-15],[-5,-11],[30,4],[18,-11],[7,5],[4,7],[38,18],[47,38],[6,-5],[2,-14],[7,-23],[18,-17],[22,-3],[30,12],[11,-11],[14,-20],[14,-27],[-1,-10],[-17,-8],[-16,-13],[65,-5],[6,-5],[8,-10],[-7,-11],[-6,-6],[-12,7],[-21,-6],[-19,-14],[-20,-8],[-13,-1],[-15,-6],[-13,-10],[-13,-3],[-43,-25],[-43,-16],[-45,-25],[-47,-17],[-48,-19],[-10,-2],[-12,1],[-28,-19],[-13,2],[-14,-3],[-16,4],[-11,8],[9,-20],[2,-18],[-4,-9],[-8,-9],[-27,2],[-11,6],[-13,10],[-6,16],[-14,12],[-8,-16],[0,-12],[-10,-16],[-12,27],[-22,-10],[-9,-29],[4,-8],[7,-22],[-11,-12],[-8,3],[-16,-33],[-20,-12],[-21,-33],[-24,-26],[-7,-17],[-41,-38],[-15,1],[-12,-2],[-17,-16],[-3,-33],[-7,5],[-8,-1],[-4,-11],[-6,-1],[-15,9],[-17,-5],[-14,7],[-18,48],[-9,17],[-17,6],[-4,-10],[-7,-10],[-16,19],[-12,74],[0,18],[17,62],[42,55],[-13,2],[-38,-38],[4,9],[7,10],[12,16],[19,14],[26,9],[17,1],[12,8],[17,15],[4,8],[-16,-9],[-25,-9],[6,11],[7,6],[137,100],[27,17],[55,21],[8,13],[-7,9],[21,-8],[-2,-11],[-3,-8],[-1,-14],[2,-14],[21,-7],[18,-25],[-8,35],[16,19],[63,26],[52,3],[17,12],[-45,8],[-53,-4],[-33,9],[-45,-6],[-48,5],[-15,-7],[-12,-16],[-15,7],[-8,1],[-7,6],[16,27],[48,42],[30,36],[8,8],[7,14],[-16,-2],[-15,-6],[-9,17],[-18,22],[-2,-9],[9,-28],[-34,-48],[-21,-4],[-29,-23],[-41,-19],[-48,-38],[-62,-31],[-13,-1],[-28,26],[8,12],[7,16],[-7,-4],[-4,-7],[-17,-11],[14,-22],[-7,-8],[-20,-11],[-18,-15],[-16,-11],[-13,14],[-36,-17],[-30,-5],[-6,9],[-2,13],[-11,3],[-19,-3],[-8,7],[-1,-9],[5,-14],[4,-27],[-6,-13],[2,-16],[16,-5],[5,-5],[0,-6],[-37,-42],[-31,6],[-17,-11],[-8,-2]],[[799,2336],[40,15],[-18,26],[44,-10],[24,33],[52,-36],[-47,22],[-32,-29],[33,-28],[-18,-10],[-53,13],[-11,-19],[-14,23]],[[93,2103],[78,59],[30,-29],[-62,-24],[12,-39],[-16,-17],[-42,50]],[[240,2185],[62,17],[-12,44],[71,11],[-3,-85],[-88,-18],[-30,31]],[[34,2118],[61,66],[21,-14],[32,30],[42,-20],[-78,-70],[-45,-17],[-33,25]],[[2550,1624],[16,81],[64,38],[-2,-95],[-78,-24]],[[1730,2125],[68,-8],[13,39],[39,-30],[-34,-44],[-80,10],[-6,33]],[[1487,864],[42,32],[94,-120],[0,-55],[-100,0],[0,92],[-36,51]],[[46,2076],[47,27],[32,-32],[-7,-61],[-43,-35],[-16,38],[40,31],[-53,32]],[[1000,2241],[4,54],[37,7],[19,-62],[-60,1]],[[639,2416],[28,18],[19,-31],[34,57],[143,-47],[-20,-23],[22,22],[24,-12],[-24,-33],[-44,10],[18,-26],[-40,-15],[14,-23],[11,19],[49,-13],[-3,-62],[-164,67],[-67,92]],[[147,2194],[55,27],[69,-10],[17,41],[14,-49],[-91,-31],[-64,22]],[[733,1028],[-37,-18],[-5,50],[21,-21],[21,-11]],[[492,1404],[-18,11],[14,20],[18,-10],[-14,-21]],[[2687,1841],[15,-20],[-36,-15],[2,12],[19,23]],[[306,867],[41,76],[41,35],[-15,-48],[12,-36],[20,6],[-2,-10],[-14,1],[-6,-5],[-2,-7],[24,-46],[-30,5],[-1,38],[-3,-26],[-38,28],[-27,-11]],[[1190,1570],[23,48],[68,11],[26,-20],[-14,-42],[-103,3]],[[1703,2344],[28,31],[14,-39],[7,26],[31,-14],[-47,61],[49,61],[-13,20],[43,-12],[22,-87],[-39,-12],[27,-24],[-10,-25],[-57,8],[-26,-36],[-29,42]]]}