{"objects":{"water":{"type":"GeometryCollection","geometries":[{"type":"Polygon","properties":{"source":"naturalearthdata.com","kind":"lake","reservoir":true,"area":2055442304,"sort_rank":200,"min_zoom":0.0,"id":336},"arcs":[[4]]},{"type":"MultiPolygon","properties":{"source":"naturalearthdata.com","kind":"ocean","area":1444195503964160,"sort_rank":200,"min_zoom":0.0,"id":1},"arcs":[[[5],[6],[7],[8]]]},{"type":"Polygon","properties":{"kind":"lake","name":"Represa de Tucur\u00ed","reservoir":true,"area":4062445824,"sort_rank":200,"source":"naturalearthdata.com","min_zoom":0.0,"id":334},"arcs":[[9]]},{"type":"Polygon","properties":{"source":"naturalearthdata.com","kind":"playa","name":"Salar de Uyuni","area":9690357760,"sort_rank":200,"min_zoom":0.0,"id":31},"arcs":[[10]]},{"type":"Polygon","properties":{"kind":"lake","name":"Tr\u00eas Marias Reservoir","reservoir":true,"area":1710084992,"sort_rank":200,"source":"naturalearthdata.com","min_zoom":0.0,"id":335},"arcs":[[11]]},{"type":"Point","properties":{"label_placement":true,"kind":"lake","name":"Represa de Tucur\u00ed","reservoir":true,"area":4062445824,"sort_rank":200,"source":"naturalearthdata.com","min_zoom":0.0,"id":334},"coordinates":[3274,3236]},{"type":"Point","properties":{"label_placement":true,"kind":"lake","name":"Tr\u00eas Marias Reservoir","reservoir":true,"area":1710084992,"sort_rank":200,"source":"naturalearthdata.com","min_zoom":0.0,"id":335},"coordinates":[4060,618]},{"type":"MultiLineString","properties":{"source":"naturalearthdata.com","kind":"playa","sort_rank":367,"boundary":true,"min_zoom":0.0,"id":31},"arcs":[[12],[13]]},{"type":"LineString","properties":{"source":"naturalearthdata.com","kind":"ocean","sort_rank":205,"boundary":true,"min_zoom":0.0,"id":135},"arcs":[14]},{"type":"LineString","properties":{"source":"naturalearthdata.com","kind":"lake","reservoir":true,"sort_rank":367,"boundary":true,"min_zoom":0.0,"id":334},"arcs":[15]},{"type":"LineString","properties":{"source":"naturalearthdata.com","kind":"lake","reservoir":true,"sort_rank":367,"boundary":true,"min_zoom":0.0,"id":335},"arcs":[16]},{"type":"LineString","properties":{"source":"naturalearthdata.com","kind":"lake","reservoir":true,"sort_rank":367,"boundary":true,"min_zoom":0.0,"id":336},"arcs":[17]},{"type":"LineString","properties":{"source":"naturalearthdata.com","kind":"ocean","sort_rank":205,"boundary":true,"min_zoom":0.0,"id":1131},"arcs":[18]},{"type":"LineString","properties":{"source":"naturalearthdata.com","kind":"ocean","sort_rank":205,"boundary":true,"min_zoom":0.0,"id":1139},"arcs":[19]},{"type":"LineString","properties":{"source":"naturalearthdata.com","kind":"ocean","sort_rank":205,"boundary":true,"min_zoom":0.0,"id":1140},"arcs":[20]},{"type":"LineString","properties":{"source":"naturalearthdata.com","kind":"ocean","sort_rank":205,"boundary":true,"min_zoom":0.0,"id":1142},"arcs":[21]},{"type":"MultiLineString","properties":{"source":"naturalearthdata.com","kind":"ocean","sort_rank":205,"boundary":true,"min_zoom":0.0,"id":1143},"arcs":[[22],[23]]},{"type":"LineString","properties":{"source":"naturalearthdata.com","kind":"ocean","sort_rank":205,"boundary":true,"min_zoom":0.0,"id":1144},"arcs":[24]},{"type":"LineString","properties":{"source":"naturalearthdata.com","kind":"ocean","sort_rank":205,"boundary":true,"min_zoom":0.0,"id":1201},"arcs":[25]}]},"buildings":{"type":"GeometryCollection","geometries":[]},"places":{"type":"GeometryCollection","geometries":[{"type":"Point","properties":{"name:kg":"Brazil","name:ty":"Brazil","name:ka":"\u10d1\u10e0\u10d0\u10d6\u10d8\u10da\u10d8\u10d0","name:ko":"\ube0c\ub77c\uc9c8","name:cv":"\u0411\u0440\u0430\u0437\u0438\u043b\u0438","name:cu":"\u0411\u0440\u0430\ua641\u0457\u043b\u0457\ua657","name:kl":"Brazil","name:cs":"Braz\u00edlie","name:ki":"Brazili","name:co":"Brasile","name:kv":"\u0411\u0440\u0430\u0437\u0438\u043b\u0438\u044f","name:ku":"Braz\u00eel","name:ti":"\u1265\u122b\u12da\u120d","name:ks":"\u0628\u0631\u065b\u0627\u0632\u0650\u0644","name:to":"Pal\u0101sili","name:ce":"\u0411\u0440\u0430\u0437\u0438\u043b\u0438\u044f","name:ta":"\u0baa\u0bbf\u0bb0\u0bc7\u0bb8\u0bbf\u0bb2\u0bcd","name:tg":"\u0411\u0440\u0430\u0437\u0438\u043b\u0438\u044f","name:ky":"\u0411\u0440\u0430\u0437\u0438\u043b\u0438\u044f","name:te":"\u0c2c\u0c4d\u0c30\u0c1c\u0c3f\u0c32\u0c4d","name:da":"Brasilien","name:de":"Brasilien","name:dz":"\u0f56\u0fb2\u0f0b\u0f5b\u0f72\u0f63","source":"openstreetmap.org","name:kn":"\u0cac\u0ccd\u0cb0\u0cc6\u0c9c\u0cbf\u0cb2\u0ccd","name:dv":"\u0784\u07aa\u0783\u07ac\u0792\u07a8\u078d\u07b0","name:km":"\u1794\u17d2\u179a\u17c1\u179f\u17ca\u17b8\u179b","name:lv":"Braz\u012blija","name:lt":"Brazilija","name:uz":"Braziliya","name:kk":"\u0411\u0440\u0430\u0437\u0438\u043b\u0438\u044f","name:ur":"\u0628\u0631\u0627\u0632\u06cc\u0644\u06cc","name:lb":"Brasilien","name:la":"Brasilia","name:lg":"Buraziiri","name:uk":"\u0411\u0440\u0430\u0437\u0438\u043b\u0456\u044f","name:ug":"\u0628\u0631\u0627\u0632\u0649\u0644\u0649\u064a\u06d5","name:li":"'t Braziel","name:ln":"Brez\u00edl\u025b","name:lo":"\u0e9a\u0ebc\u0eb2\u0e8a\u0eb4\u0ea7","name:el":"\u0392\u03c1\u03b1\u03b6\u03b9\u03bb\u03af\u03b1","name:eo":"Brazilo","name:en":"Brazil","name":"Brasil","name:tk":"Brazili\u00fda","name:ee":"Brazil nutome","name:th":"\u0e1a\u0e23\u0e32\u0e0b\u0e34\u0e25","name:et":"Brasiilia","name:ay":"Wrasil","name:rm":"Brasila","name:rn":"Burezili","name:az":"Braziliya","name:ig":"Brazil","name:ii":"\ua020\ua46d","name:as":"\u09ac\u09cd\u09f0\u09be\u099c\u09bf\u09b2","name:ar":"\u0627\u0644\u0628\u0631\u0627\u0632\u064a\u0644","name:io":"Brazilia","name:ak":"Brazil","name:am":"\u1265\u122b\u12da\u120d","name:it":"Brasile","name:aa":"Brazil","name:ru":"\u0411\u0440\u0430\u0437\u0438\u043b\u0438\u044f","name:rw":"Burezile","name:af":"Brasili\u00eb","name:zu":"i-Brazil","name:za":"Bahsih","name:zh-yue":"\u5df4\u897f","name:zh":"\u5df4\u897f","name:so":"Braasiil","name:sn":"Brazil","name:sl":"Brazilija","name:sk":"Braz\u00edlia","name:ja":"\u30d6\u30e9\u30b8\u30eb","name:si":"\u0db6\u0dca\u200d\u0dbb\u0dc3\u0dd3\u0dbd\u0dba","name:sh":"Brazil","name:sg":"Brez\u00eeli","name:se":"Brasilia","name:sc":"Brasile","name:br":"Brazil","name:bs":"Brazil","name:bm":"Berezili","name:bn":"\u09ac\u09cd\u09b0\u09be\u099c\u09bf\u09b2","name:bo":"\u0f56\u0f0b\u0f62\u0f71\u0f0b\u0f5b\u0f72\u0f63\u0f0d","name:bi":"Brazil","name:sw":"Brazili","name:be":"\u0411\u0440\u0430\u0437\u0456\u043b\u0456\u044f","name:bg":"\u0411\u0440\u0430\u0437\u0438\u043b\u0438\u044f","name:ba":"\u0411\u0440\u0430\u0437\u0438\u043b\u0438\u044f","name:sq":"Brazili","name:sa":"\u0938\u0902\u0938\u094d\u0915\u0943\u0924\u092e\u094d","name:ps":"\u0628\u0631\u0627\u0632\u06cc\u0644","name:om":"Brazil","min_zoom":2.0,"name:ro":"Brazilia","name:zh-min-nan":"Pa-se","name:os":"\u0411\u0440\u0430\u0437\u0438\u043b\u0438","name:or":"\u0b2c\u0b4d\u0b30\u0b3e\u0b1c\u0b3f\u0b32\u0b4d","name:pl":"Brazylia","name:st":"Brazil","name:sr":"\u0411\u0440\u0430\u0437\u0438\u043b","name:pa":"\u0a2c\u0a4d\u0a30\u0a3e\u0a1c\u0a3c\u0a40\u0a32","name:tr":"Brezilya","name:hi":"\u092c\u094d\u0930\u093e\u091c\u0940\u0932","name:sv":"Brasilien","name:he":"\u05d1\u05e8\u05d6\u05d9\u05dc","name:ha":"Birazil","name:hy":"\u0532\u0580\u0561\u0566\u056b\u056c\u056b\u0561","name:ht":"Brezil","name:hu":"Braz\u00edlia","name:hr":"Brazil","population":204450649,"kind":"country","name:is":"Brasil\u00eda","name:yi":"\u05d1\u05e8\u05d0\u05d6\u05d9\u05dc","name:yo":"Or\u00edl\u1eb9\u0301\u00e8de B\u00e0r\u00e0s\u00edl\u00ec","name:mt":"Bra\u017cil","name:ms":"Brazil","name:mr":"\u092c\u094d\u0930\u093e\u091d\u093f\u0932","name:my":"\u1018\u101b\u102c\u1007\u102e\u1038","official_name":"Rep\u00fablica Federativa do Brasil","int_name":"Brazil","name:mg":"Brezila","name:ml":"\u0d2c\u0d4d\u0d30\u0d38\u0d40\u0d7d","name:vi":"Brazil","name:mn":"\u0411\u0440\u0430\u0437\u0438\u043b","name:mi":"Par\u012bhi","id":424313734,"name:mk":"\u0411\u0440\u0430\u0437\u0438\u043b","name:vo":"Brasil\u00e4n","name:fa":"\u0628\u0631\u0632\u06cc\u0644","name:ff":"Beresiil","name:fi":"Brasilia","old_name:vi":"Ba T\u00e2y","name:fo":"Brasilia","alt_name:vi":"Brazil; Bra-xin","name:fr":"Br\u00e9sil","name:fy":"Brazylje","name:nl":"Brazili\u00eb","name:na":"Bradir","name:ne":"\u092c\u094d\u0930\u093e\u091c\u093f\u0932","name:wa":"Braezi","name:wo":"Breesil","name:nv":"Bwaz\u00ed\u00edl","name:ga":"An Bhrasa\u00edl","name:gd":"Braisil","name:gn":"Pindorama","name:gv":"Yn Vrasseel","name:gu":"\u0aac\u0acd\u0ab0\u0abe\u0a9d\u0abf\u0ab2","name:tt":"\u0411\u0440\u0430\u0437\u0438\u043b\u0438\u044f"},"coordinates":[2603,2167]},{"type":"Point","properties":{"name:pt":"Bol\u00edvia","name:ps":"\u0628\u0648\u0644\u06d0\u0648\u06cc\u0627","name:ka":"\u10d1\u10dd\u10da\u10d8\u10d5\u10d8\u10d0","name:mt":"Bolivja","name:ko":"\ubcfc\ub9ac\ube44\uc544","name:cv":"\u0411\u043e\u043b\u0438\u0432\u0438","name:km":"\u1794\u17bc\u179b\u17b8\u179c\u17b8","name:cs":"Bol\u00edvie","name:tt":"\u0411\u043e\u043b\u0438\u0432\u0438\u044f","name:kw":"Bolivi","name:tr":"Bolivya","name:ku":"Bol\u00eevya","name:ti":"\u1266\u120a\u126a\u12eb","name:ks":"\u0628\u0648\u0644\u0650\u0648\u0650\u06cc\u0627","name:to":"Pol\u012bvia","name:tl":"Bulibya","name:pa":"\u0a2c\u0a4b\u0a32\u0a40\u0a35\u0a40\u0a06","name:os":"\u0411\u043e\u043b\u0438\u0432\u0438","name:or":"\u0b2c\u0b4b\u0b32\u0b2d\u0b3f\u0b06","name:ce":"\u0411\u043e\u043b\u0438\u0432\u0438","name:ta":"\u0baa\u0bca\u0bb2\u0bbf\u0bb5\u0bbf\u0baf\u0bbe","name:tg":"\u0411\u043e\u043b\u0438\u0432\u0438\u044f","name:ca":"Bol\u00edvia","name:te":"\u0c2c\u0c4a\u0c32\u0c40\u0c35\u0c3f\u0c2f\u0c3e","name:cy":"Bolifia","name:ln":"Bolivi","name:de":"Bolivien","name:dz":"\u0f56\u0fb7\u0f7a\u0f0b\u0f63\u0f72\u0f0b\u0f56\u0f72\u0f0b\u0f61","source":"openstreetmap.org","name:rw":"Boliviya","name:nv":"Bol\u00edbiya","name:kn":"\u0cac\u0cc6\u0cc2\u0cb2\u0cbf\u0cb5\u0cbf\u0caf\u0cbe","name:dv":"\u0784\u07ae\u078d\u07a9\u0788\u07a8\u0787\u07a7","name:lv":"Bol\u012bvija","name:lt":"Bolivija","name:uz":"Boliviya","name:kk":"\u0411\u043e\u043b\u0438\u0432\u0438\u044f","name:he":"\u05d1\u05d5\u05dc\u05d9\u05d5\u05d5\u05d9\u05d4","min_zoom":2.0,"kind":"country","name:ur":"\u0628\u0648\u0644\u06cc\u0648\u06cc\u0627","name:lb":"Bolivien","name:lg":"Boliviya","name:uk":"\u0411\u043e\u043b\u0456\u0432\u0456\u044f","name:hy":"\u0532\u0578\u056c\u056b\u057e\u056b\u0561","name:ug":"\u0628\u0648\u0644\u0649\u06cb\u0649\u064a\u06d5","name:hu":"Bol\u00edvia","name:hr":"Bolivija","name:lo":"\u0ec2\u0e9a\u0ea5\u0eb4\u0ec0\u0ea7\u0e8d","name:oc":"Bol\u00edvia","population":10027254,"name:el":"\u0392\u03bf\u03bb\u03b9\u03b2\u03af\u03b1","name:eo":"Bolivio","name":"Bolivia","name:ee":"Bolivia nutome","name:th":"\u0e1b\u0e23\u0e30\u0e40\u0e17\u0e28\u0e42\u0e1a\u0e25\u0e34\u0e40\u0e27\u0e35\u0e22","name:eu":"Bolibia","name:et":"Boliivia","name:yo":"Or\u00edl\u1eb9\u0301\u00e8de B\u1ecd\u0300l\u00edf\u00edy\u00e0","name:ay":"Wuliwya","name:yi":"\u05d1\u05d0\u05dc\u05d9\u05d5\u05d5\u05d9\u05e2","name:rn":"Boliviya","name:az":"Boliviya","name:mr":"\u092c\u094b\u0932\u093f\u0935\u094d\u0939\u093f\u092f\u093e","name:qu":"Buliwya","name:ar":"\u0628\u0648\u0644\u064a\u0641\u064a\u0627","name:my":"\u1018\u102d\u102f\u101c\u102e\u1038\u1018\u102e\u1038\u101a\u102c\u1038","official_name":"Estado Plurinacional de Bolivia","name:gn":"Vol\u00edvia","name:is":"B\u00f3liv\u00eda","name:am":"\u1266\u120a\u126a\u12eb","name:ml":"\u0d2c\u0d4a\u0d33\u0d40\u0d35\u0d3f\u0d2f","name:ru":"\u0411\u043e\u043b\u0438\u0432\u0438\u044f","name:ab":"\u0411\u043e\u043b\u0438\u0432\u0438\u0430","name:mi":"Poriwia","name:pl":"Boliwia","name:mk":"\u0411\u043e\u043b\u0438\u0432\u0438\u0458\u0430","name:af":"Bolivi\u00eb","name:zu":"i-Bolivia","name:ha":"Bolibiya","name:mn":"\u0411\u043e\u043b\u0438\u0432","name:ff":"Boliwii","name:hi":"\u092c\u094b\u0932\u093f\u0935\u093f\u092f\u093e","id":424313730,"name:fr":"Bolivie","name:wo":"Boliibi","name:ky":"\u0411\u043e\u043b\u0438\u0432\u0438\u044f","name:zh-yue":"\u73bb\u5229\u7dad\u4e9e","name:vo":"Boliv\u00e4n","name:zh":"\u73bb\u5229\u7ef4\u4e9a","name:so":"Boliifiya","name:sr":"\u0411\u043e\u043b\u0438\u0432\u0438\u0458\u0430","name:sl":"Bolivija","name:sk":"Bol\u00edvia","name:ja":"\u30dc\u30ea\u30d3\u30a2","name:si":"\u0db6\u0ddc\u0dbd\u0dd3\u0dc0\u0dd2\u0dba\u0dcf\u0dc0","name:sh":"Bolivija","name:sg":"Boliv\u00efi","name:na":"Boribiya","name:ne":"\u092c\u094b\u0932\u093f\u092d\u093f\u092f\u093e","name:sa":"\u092c\u094b\u0932\u093f\u0935\u093f\u092f\u093e","name:bs":"Bolivija","name:bm":"Bolivi","name:bn":"\u09ac\u09cb\u09b2\u09bf\u09ad\u09bf\u09af\u09bc\u09be","name:bo":"\u0f56\u0f7c\u0f0b\u0f63\u0f72\u0f0b\u0f5d\u0f72\u0f61\u0f0d","name:be":"\u0411\u0430\u043b\u0456\u0432\u0456\u044f","name:bg":"\u0411\u043e\u043b\u0438\u0432\u0438\u044f","name:ss":"IBholiviya","name:ba":"\u0411\u043e\u043b\u0438\u0432\u0438\u044f","name:sq":"Bolivi","name:ga":"An Bholaiv","name:gd":"Boilibhia","name:ht":"Bolivi","name:wa":"Boliveye","name:fa":"\u0628\u0648\u0644\u06cc\u0648\u06cc","name:gv":"Yn Volivia","name:gu":"\u0aac\u0acb\u0ab2\u0abf\u0ab5\u0abf\u0aaf\u0abe"},"coordinates":[457,912]},{"type":"Point","properties":{"source":"naturalearthdata.com","kind":"locality","name":"Brasilia","country_capital":true,"population":3716996,"min_zoom":4.0,"id":7207},"coordinates":[3565,1150]},{"type":"Point","properties":{"name:ia":"Districto Federal","name:ro":"Districtul Federal","name:id":"Distrik Federal","name:ka":"\u10e4\u10d4\u10d3\u10d4\u10e0\u10d0\u10da\u10e3\u10e0\u10d8 \u10dd\u10da\u10e5\u10d8","name:mr":"\u0936\u093e\u0938\u0915\u0940\u092f \u091c\u093f\u0932\u094d\u0939\u093e","name:ko":"\uc5f0\ubc29\uad6c","name:ar":"\u0627\u0644\u0642\u0637\u0627\u0639 \u0627\u0644\u0641\u062f\u0631\u0627\u0644\u064a","name:kw":"Ranndir an Kesunyans","name:th":"\u0e40\u0e1f\u0e40\u0e14\u0e2d\u0e23\u0e31\u0e25\u0e14\u0e34\u0e2a\u0e15\u0e23\u0e34\u0e01\u0e15\u0e4c","name:it":"Distretto Federale","name:vi":"Qu\u1eadn li\u00ean bang","name:os":"\u0424\u0435\u0434\u0435\u0440\u0430\u043b\u043e\u043d \u0437\u044b\u043b\u0434","name:ru":"\u0424\u0435\u0434\u0435\u0440\u0430\u043b\u044c\u043d\u044b\u0439 \u043e\u043a\u0440\u0443\u0433","name:pl":"Dystrykt Federalny","name:de":"Bundesdistrikt","name:tg":"\u0421\u0430\u0432\u0435\u0437\u043d\u0438 \u0434\u0438\u0441\u0442\u0440\u0438\u043a\u0442","name:ca":"Districte Federal","name:fa":"\u0645\u0646\u0637\u0642\u0647 \u0641\u062f\u0631\u0627\u0644","name:ms":"Wilayah Persekutuan","name:hr":"Federalni distrikt","kind_detail":"state","name:uz":"Federal okrugi","id":2614275264,"source":"openstreetmap.org","name:fr":"District f\u00e9d\u00e9ral","name:mk":"\u0424\u0435\u0434\u0435\u0440\u0430\u043b\u0435\u043d \u043e\u043a\u0440\u0443\u0433","name:be":"\u0424\u0435\u0434\u044d\u0440\u0430\u043b\u044c\u043d\u0430\u044f \u0430\u043a\u0440\u0443\u0433\u0430","name:zh":"\u806f\u90a6\u5340","name:lv":"Feder\u0101lais distrikts","name:ja":"\u9023\u90a6\u76f4\u8f44\u533a","name:tr":"Federal B\u00f6lge","name:sh":"Federalni distrikt","name:he":"\u05d4\u05de\u05d7\u05d5\u05d6 \u05d4\u05e4\u05d3\u05e8\u05dc\u05d9","kind":"region","name:br":"Distrig kevreadel","name:la":"Pagus Foederalis","name:uk":"\u0424\u0435\u0434\u0435\u0440\u0430\u043b\u044c\u043d\u0438\u0439 \u043e\u043a\u0440\u0443\u0433","name:hy":"\u0534\u0561\u0577\u0576\u0561\u0575\u056b\u0576 \u0577\u0580\u057b\u0561\u0576","name:sv":"Federala distrikt","name:bg":"\u0424\u0435\u0434\u0435\u0440\u0430\u043b\u0435\u043d \u043e\u043a\u0440\u044a\u0433","name:qu":"Tantasqap","name:sr":"\u0421\u0430\u0432\u0435\u0437\u043d\u0438 \u0434\u0438\u0441\u0442\u0440\u0438\u043a\u0442","name:oc":"Districte federal","population":2789761,"name:sq":"Distrikti Federal","name:eo":"Federacia Distrikto","name:en":"Federal District","name":"Distrito Federal","min_zoom":4.0,"name:lt":"Federalin\u0117 teritorija","name:eu":"Barruti Federala","name:et":"Liiduringkond","name:nl":"Federaal District"},"coordinates":[3587,1151]},{"type":"Point","properties":{"source":"naturalearthdata.com","kind":"locality","name":"Belem","population":2167000,"region_capital":true,"min_zoom":4.0,"id":7206},"coordinates":[3462,3826]},{"type":"Point","properties":{"source":"naturalearthdata.com","kind":"locality","name":"Goiania","population":2022000,"region_capital":true,"min_zoom":4.0,"id":7214},"coordinates":[3313,975]},{"type":"Point","properties":{"kind":"region","name":"Goi\u00e1s","kind_detail":"state","name:eo":"Gojaso","source":"openstreetmap.org","min_zoom":4.0,"name:uk":"\u0413\u043e\u044f\u0441","population":24605,"id":415522239,"name:ja":"\u30b4\u30a4\u30a2\u30b9"},"coordinates":[3160,1122]},{"type":"Point","properties":{"kind":"region","name":"Departamento de Alto Paraguay","kind_detail":"state","name:eo":"Alta Paragvajo","source":"openstreetmap.org","name:fr":"Alto Paraguay","old_name":"Olimpo","name:ru":"\u0410\u043b\u044c\u0442\u043e-\u041f\u0430\u0440\u0430\u0433\u0432\u0430\u0439","min_zoom":4.0,"id":313928977,"population":15008},"coordinates":[1517,269]},{"type":"Point","properties":{"source":"openstreetmap.org","kind":"region","name":"Pando","kind_detail":"state","min_zoom":4.0,"id":2854906391},"coordinates":[58,2008]},{"type":"Point","properties":{"source":"openstreetmap.org","kind":"region","name":"Potos\u00ed","kind_detail":"state","min_zoom":4.0,"name:eo":"Potosiio","id":2890584086},"coordinates":[152,238]},{"type":"Point","properties":{"source":"openstreetmap.org","kind":"region","name":"Chuquisaca","kind_detail":"state","min_zoom":4.0,"name:eo":"\u0108ukisakio","id":2854906388},"coordinates":[561,363]},{"type":"Point","properties":{"source":"openstreetmap.org","kind":"region","name":"Tarija","kind_detail":"state","min_zoom":4.0,"name:eo":"Tari\u015dio","id":2854906393},"coordinates":[667,67]},{"type":"Point","properties":{"source":"openstreetmap.org","kind":"region","name":"Cochabamba","kind_detail":"state","min_zoom":4.0,"name:eo":"Ko\u0109apampio","id":2854906389},"coordinates":[364,860]},{"type":"Point","properties":{"source":"openstreetmap.org","kind":"region","name":"Santa Cruz","kind_detail":"state","min_zoom":4.0,"name:eo":"Santa-Kruzio","id":2854906392},"coordinates":[1092,860]},{"type":"Point","properties":{"source":"openstreetmap.org","kind":"region","name":"Beni","kind_detail":"state","min_zoom":4.0,"name:eo":"Beniio","id":2854906387},"coordinates":[455,1483]},{"type":"Point","properties":{"name:gl":"Mato Groso do Sur","name:he":"\u05de\u05d0\u05d8\u05d5 \u05d2\u05e8\u05d5\u05e1\u05d5 \u05d3\u05d5 \u05e1\u05d5\u05dc","name:lv":"Matugrosu du Sula","name:ja":"\u30de\u30c3\u30c8\u30b0\u30ed\u30c3\u30bd\u30fb\u30c9\u30fb\u30b9\u30eb\u5dde","name:ka":"\u10db\u10d0\u10e2\u10e3-\u10d2\u10e0\u10dd\u10e1\u10e3-\u10d3\u10e3-\u10e1\u10e3\u10da\u10d8","name:mr":"\u092e\u093e\u0924\u094b \u0917\u094d\u0930\u094b\u0938\u094b \u0926\u094b \u0938\u0941\u0932","name:ko":"\ub9c8\ud22c\uadf8\ub85c\uc218\ub450\uc220 \uc8fc","name:ar":"\u0645\u0627\u062a\u0648 \u063a\u0631\u0648\u0633\u0648 \u062f\u0648 \u0633\u0648\u0644","kind":"region","name:th":"\u0e23\u0e31\u0e10\u0e21\u0e32\u0e15\u0e39\u0e42\u0e01\u0e23\u0e2a\u0e0b\u0e39\u0e42\u0e14\u0e0b\u0e39","name:uk":"\u041c\u0430\u0442\u0443-\u0413\u0440\u043e\u0441\u0443-\u0434\u0443-\u0421\u0443\u043b","name:pa":"\u0645\u0627\u062a\u0648 \u06af\u0631\u0648\u0633\u0648 \u062f\u0648 \u0633\u0648\u0644","name:ru":"\u041c\u0430\u0442\u0443-\u0413\u0440\u043e\u0441\u0443-\u0434\u0443-\u0421\u0443\u043b","name:bg":"\u041c\u0430\u0442\u0443-\u0413\u0440\u043e\u0441\u0443-\u0434\u0443-\u0421\u0443\u043b","name:qu":"Urin Mato Grosso suyu","id":539693378,"name":"Mato Grosso do Sul","name:fa":"\u0645\u0627\u062a\u0648\u06af\u0631\u0648\u0633\u0648 \u062c\u0646\u0648\u0628\u06cc","name:eo":"Suda Mato-Groso","name:lt":"Piet\u0173 Mato Grosas","kind_detail":"state","name:hi":"\u092e\u093e\u0924\u094b \u0917\u094d\u0930\u094b\u0938\u094b \u0926\u094b \u0938\u0941\u0932","min_zoom":4.0,"name:sr":"\u041c\u0430\u0442\u043e \u0413\u0440\u043e\u0441\u043e \u0434\u043e \u0421\u0443\u043b","source":"openstreetmap.org","name:eu":"Hegoaldeko Mato Grosso","name:be":"\u041c\u0430\u0442\u0443-\u0413\u0440\u043e\u0441\u0443-\u0434\u0443-\u0421\u0443\u043b","name:zh":"\u5357\u9a6c\u6258\u683c\u7f57\u7d22\u5dde","name:hy":"\u0544\u0561\u057f\u0578\u0582 \u0533\u0580\u0578\u057d\u0578\u0582 \u0564\u0578\u0582 \u054d\u0578\u0582\u056c","name:es":"Mato Grosso del Sur"},"coordinates":[2370,440]},{"type":"Point","properties":{"kind":"region","name":"Mato Grosso","kind_detail":"state","name:eo":"Mato-Groso","source":"openstreetmap.org","min_zoom":4.0,"name:uk":"\u041c\u0430\u0442\u0443-\u0413\u0440\u043e\u0441\u0443","name:ru":"\u041c\u0430\u0442\u0443-\u0413\u0440\u043e\u0441\u0443","id":565543876,"name:ja":"\u30de\u30c3\u30c8 \u30b0\u30ed\u30c3\u30bd"},"coordinates":[2171,1817]},{"type":"Point","properties":{"kind":"region","name":"Rond\u00f4nia","kind_detail":"state","name:eo":"Rondonio","source":"openstreetmap.org","min_zoom":4.0,"name:uk":"\u0420\u043e\u043d\u0434\u043e\u043d\u0456\u044f","name:ru":"\u0420\u043e\u043d\u0434\u043e\u043d\u0438\u044f","id":565543192,"name:ja":"\u30ed\u30f3\u30c9\u30cb\u30a2"},"coordinates":[851,2053]},{"type":"Point","properties":{"kind":"region","name":"Tocantins","kind_detail":"state","name:eo":"Tokantinso","source":"openstreetmap.org","min_zoom":4.0,"name:uk":"\u0422\u043e\u043a\u0430\u043d\u0442\u0456\u043d\u0441","name:ru":"\u0422\u043e\u043a\u0430\u043d\u0442\u0438\u043d\u0441","id":565545457,"name:ja":"\u30c8\u30ab\u30f3\u30c6\u30a3\u30f3\u30b9"},"coordinates":[3482,2064]},{"type":"Point","properties":{"kind":"region","name":"Par\u00e1","kind_detail":"state","name:eo":"Parao","source":"openstreetmap.org","min_zoom":4.0,"name:uk":"\u041f\u0430\u0440\u0430","name:ru":"\u041f\u0430\u0440\u0430","id":539676406,"name:ja":"\u30d1\u30e9\u30fc"},"coordinates":[2658,3209]},{"type":"Point","properties":{"kind":"region","name":"Maranh\u00e3o","kind_detail":"state","name:eo":"Maranjo","source":"openstreetmap.org","min_zoom":4.0,"name:uk":"\u041c\u0430\u0440\u0430\u043d\u044c\u044f\u043d","name:ru":"\u041c\u0430\u0440\u0430\u043d\u044c\u044f\u043d","id":541426952,"name:ja":"\u30de\u30e9\u30cb\u30e7\u30f3"},"coordinates":[4024,3124]},{"type":"Point","properties":{"kind":"region","name":"Amazonas","kind_detail":"state","name:eo":"Amazonio","source":"openstreetmap.org","min_zoom":4.0,"name:uk":"\u0410\u043c\u0430\u0437\u043e\u043d\u0430\u0441","name:ru":"\u0410\u043c\u0430\u0437\u043e\u043d\u0430\u0441","id":2614266154,"name:ja":"\u30a2\u30de\u30be\u30ca\u30b9"},"coordinates":[725,3260]}]},"transit":{"type":"GeometryCollection","geometries":[]},"pois":{"type":"GeometryCollection","geometries":[{"type":"Point","properties":{"kind":"national_park","tier":1,"protect_class":"2","short_name":"PN Kaa Iya del Gran Chaco","area":21744200000,"official_name":"Parque Nacional y \u00c1rea Natural de Manejo Integrado Kaa-Iya del Gran Chaco","source":"openstreetmap.org","min_zoom":3.59,"operator":"SERNAP","id":-7728779,"osm_relation":true,"name":"Parque Nacional Kaa-Iya del Gran Chaco"},"coordinates":[1118,480]},{"type":"Point","properties":{"kind":"nature_reserve","tier":2,"protect_class":"24","area":26084500000,"source":"openstreetmap.org","min_zoom":4.95,"operator":"Funda\u00e7\u00e3o Nacional do \u00cdndio","id":-3811378,"osm_relation":true,"name":"Terra Ind\u00edgena Waimiri-Atroari"},"coordinates":[1228,3955]},{"type":"Point","properties":{"kind":"nature_reserve","tier":2,"protect_class":"24","area":40043700000,"source":"openstreetmap.org","min_zoom":4.65,"operator":"Funda\u00e7\u00e3o Nacional do \u00cdndio","id":-3811140,"osm_relation":true,"name":"Terra Ind\u00edgena Trombetas\/Mapuera"},"coordinates":[1544,4056]},{"type":"Point","properties":{"kind":"nature_reserve","tier":2,"protect_class":"24","area":27802700000,"source":"openstreetmap.org","min_zoom":4.91,"operator":"Funda\u00e7\u00e3o Nacional do \u00cdndio","id":-3542572,"osm_relation":true,"name":"Terra Ind\u00edgena Parque do Xingu"},"coordinates":[2528,1895]},{"type":"Point","properties":{"kind":"nature_reserve","tier":2,"protect_class":"24","area":50765900000,"source":"openstreetmap.org","min_zoom":4.47,"operator":"Funda\u00e7\u00e3o Nacional do \u00cdndio","id":-3542570,"osm_relation":true,"name":"Terra Ind\u00edgena Menkragnoti"},"coordinates":[2533,2508]},{"type":"Point","properties":{"kind":"nature_reserve","tier":2,"protect_class":"24","area":33679000000,"source":"openstreetmap.org","min_zoom":4.77,"operator":"Funda\u00e7\u00e3o Nacional do \u00cdndio","id":-3542567,"osm_relation":true,"name":"Terra Ind\u00edgena Kayap\u00f3"},"coordinates":[2857,2643]},{"type":"Point","properties":{"kind":"nature_reserve","tier":2,"protect_class":"1","area":34310800000,"source":"openstreetmap.org","min_zoom":4.76,"operator":"Instituto Chico Mendes de Conserva\u00e7\u00e3o da Biodiversidade","id":-3542533,"osm_relation":true,"name":"Esta\u00e7\u00e3o Ecol\u00f3gica da Terra do Meio"},"coordinates":[2437,3025]},{"type":"Point","properties":{"kind":"national_park","name:en":"Ambor\u00f3 National Park","tier":1,"name":"Parque Nacional Ambor\u00f3","area":4891360000,"source":"openstreetmap.org","min_zoom":4.66,"operator":"SERNAP","id":-443981,"osm_relation":true},"coordinates":[617,781]},{"type":"Point","properties":{"kind":"national_park","name:en":"Tunari National Park","tier":1,"name":"Parque Nacional Tunari","area":3627640000,"name:de":"Nationalpark Tunari","source":"openstreetmap.org","min_zoom":4.88,"operator":"SERNAP","id":-443850,"osm_relation":true},"coordinates":[211,879]}]},"boundaries":{"type":"GeometryCollection","geometries":[{"type":"LineString","properties":{"source":"naturalearthdata.com","kind":"country","sort_rank":262,"kind_detail":"2","min_zoom":0.0,"id":261},"arcs":[0]},{"type":"LineString","properties":{"source":"naturalearthdata.com","kind":"country","sort_rank":262,"kind_detail":"2","min_zoom":0.0,"id":263},"arcs":[1]},{"type":"LineString","properties":{"source":"naturalearthdata.com","kind":"country","sort_rank":262,"kind_detail":"2","min_zoom":0.0,"id":325},"arcs":[2]},{"type":"LineString","properties":{"source":"naturalearthdata.com","kind":"country","sort_rank":262,"kind_detail":"2","min_zoom":0.0,"id":323},"arcs":[3]}]},"roads":{"type":"GeometryCollection","geometries":[]},"earth":{"type":"GeometryCollection","geometries":[{"type":"MultiPolygon","properties":{"sort_rank":10,"source":"naturalearthdata.com","min_zoom":0.0,"kind":"earth","area":14028125193060},"arcs":[[[26]],[[27]],[[28]],[[29]],[[30]]]},{"type":"Point","properties":{"name:ia":"America del Sud","label_placement":true,"name:pt":"Am\u00e9rica do Sul","name:ms":"Amerika Selatan","name:tr":"G\u00fcney Amerika","name:kn":"\u0ca6\u0c95\u0ccd\u0cb7\u0cbf\u0ca3 \u0c85\u0cae\u0cc7\u0cb0\u0cbf\u0c95","name:ar":"\u0623\u0645\u0631\u064a\u0643\u0627 \u0627\u0644\u062c\u0646\u0648\u0628\u064a\u0629","name:cs":"Ji\u017en\u00ed Amerika","name:io":"Sud-Amerika","min_zoom":0.0,"name:it":"America meridionale","name:tl":"Timog Amerika","name:ru":"\u042e\u0436\u043d\u0430\u044f \u0410\u043c\u0435\u0440\u0438\u043a\u0430","name:vi":"Nam M\u1ef9","name:pl":"Ameryka Po\u0142udniowa","name:mi":"Amerika ki te Tonga","id":36966069,"name:ca":"Am\u00e8rica del Sud","name:vo":"Sol\u00fcda-Merop","name:fa":"\u0622\u0645\u0631\u06cc\u06a9\u0627\u06cc \u062c\u0646\u0648\u0628\u06cc","name:hu":"D\u00e9l-Amerika","name:lt":"Piet\u0173 Amerika","name:fi":"Etel\u00e4-Amerikka","name:da":"Sydamerika","kind":"continent","name:de":"S\u00fcdamerika","source":"openstreetmap.org","name:fr":"Am\u00e9rique du Sud","name:zh":"\u5357\u7f8e\u6d32","name:sl":"Ju\u017ena Amerika","name:nl":"Zuid-Amerika","name:nn":"S\u00f8r-Amerika","name:hi":"\u0926\u0915\u094d\u0937\u093f\u0923 \u0905\u092e\u0947\u0930\u093f\u0915\u093e","name:nb":"S\u00f8r-Amerika","name:eo":"Sudameriko","name:la":"America Australis","name:sk":"Ju\u017en\u00e1 Amerika","name:uk":"\u041f\u0456\u0432\u0434\u0435\u043d\u043d\u0430 \u0410\u043c\u0435\u0440\u0438\u043a\u0430","name:be":"\u041f\u0430\u045e\u0434\u043d\u0451\u0432\u0430\u044f \u0410\u043c\u0435\u0440\u044b\u043a\u0430","name:li":"Zuud-Amerika","name:hr":"Ju\u017ena Amerika","name:sr":"\u0408\u0443\u0436\u043d\u0430 \u0410\u043c\u0435\u0440\u0438\u043a\u0430","name:el":"\u039d\u03cc\u03c4\u03b9\u03b1 \u0391\u03bc\u03b5\u03c1\u03b9\u03ba\u03ae","name:ga":"Meirice\u00e1 Theas","name":"South America","name:is":"Su\u00f0ur-Amer\u00edka","name:ku":"Amer\u00eekaya Ba\u015f\u00fbr","name:sv":"Sydamerika","name:eu":"Am\u00e9rica del Sur","name:no":"S\u00f8r-Amerika","name:es":"Am\u00e9rica del Sur"},"coordinates":[1183,176]}]},"landuse":{"type":"GeometryCollection","geometries":[{"type":"Polygon","properties":{"kind":"nature_reserve","name":"Terra Ind\u00edgena Arara","area":2776229888,"sort_rank":23,"operator":"Funda\u00e7\u00e3o Nacional do \u00cdndio","source":"openstreetmap.org","min_zoom":4.0,"tier":2,"id":-3542561,"osm_relation":true,"protect_class":"24"},"arcs":[[31]]},{"type":"Polygon","properties":{"kind":"nature_reserve","name":"Terra Ind\u00edgena Apyterewa","area":7871300096,"sort_rank":23,"operator":"Funda\u00e7\u00e3o Nacional do \u00cdndio","source":"openstreetmap.org","min_zoom":4.0,"tier":2,"id":-3542560,"osm_relation":true,"protect_class":"24"},"arcs":[[32]]},{"type":"Polygon","properties":{"kind":"nature_reserve","name":"Terra Ind\u00edgena Alto Rio Negro","area":79933997056,"sort_rank":23,"operator":"Funda\u00e7\u00e3o Nacional do \u00cdndio","source":"openstreetmap.org","min_zoom":4.0,"tier":2,"id":-3910734,"osm_relation":true,"protect_class":"24"},"arcs":[[33]]},{"type":"Polygon","properties":{"kind":"nature_reserve","name":"Terra Ind\u00edgena Rio Guapor\u00e9","area":1220080000,"sort_rank":23,"operator":"Funda\u00e7\u00e3o Nacional do \u00cdndio","source":"openstreetmap.org","min_zoom":4.0,"tier":2,"id":-3614770,"osm_relation":true,"protect_class":"24"},"arcs":[[34]]},{"type":"Polygon","properties":{"kind":"nature_reserve","name":"Terra Ind\u00edgena Trincheira Bacaja","area":16775300096,"sort_rank":23,"operator":"Funda\u00e7\u00e3o Nacional do \u00cdndio","source":"openstreetmap.org","min_zoom":4.0,"tier":2,"id":-3542573,"osm_relation":true,"protect_class":"24"},"arcs":[[35]]},{"type":"Polygon","properties":{"kind":"nature_reserve","name":"Terra Ind\u00edgena Tumi\u00e3","area":1269980032,"sort_rank":23,"operator":"Funda\u00e7\u00e3o Nacional do \u00cdndio","source":"openstreetmap.org","min_zoom":4.0,"tier":2,"id":-4286660,"osm_relation":true,"protect_class":"24"},"arcs":[[36]]},{"type":"Polygon","properties":{"kind":"nature_reserve","name":"Terra Ind\u00edgena Uneiuxi","area":5584990208,"sort_rank":23,"operator":"Funda\u00e7\u00e3o Nacional do \u00cdndio","source":"openstreetmap.org","min_zoom":4.0,"tier":2,"id":-2670421,"osm_relation":true,"protect_class":"24"},"arcs":[[37]]},{"type":"Polygon","properties":{"kind":"nature_reserve","name":"Terra Ind\u00edgena Parque do Aripuan\u00e3","area":16812499968,"sort_rank":23,"operator":"Funda\u00e7\u00e3o Nacional do \u00cdndio","source":"openstreetmap.org","min_zoom":4.0,"tier":2,"id":-3662509,"osm_relation":true,"protect_class":"24"},"arcs":[[38]]},{"type":"Polygon","properties":{"kind":"nature_reserve","name":"Reserva Extrativista Rio Xingu","area":3073840128,"sort_rank":23,"operator":"Instituto Chico Mendes de Conserva\u00e7\u00e3o da Biodiversidade","source":"openstreetmap.org","min_zoom":4.0,"tier":2,"id":255845120,"protect_class":"6"},"arcs":[[39]]},{"type":"Polygon","properties":{"kind":"nature_reserve","name":"Terra Ind\u00edgena Rio Branco","area":2488009984,"sort_rank":23,"operator":"Funda\u00e7\u00e3o Nacional do \u00cdndio","source":"openstreetmap.org","min_zoom":4.0,"tier":2,"id":-3614769,"osm_relation":true,"protect_class":"24"},"arcs":[[40]]},{"type":"Polygon","properties":{"kind":"nature_reserve","name":"Reserva Biol\u00f3gica do Gurupi","area":2934640128,"sort_rank":23,"operator":"Instituto Chico Mendes de Conserva\u00e7\u00e3o da Biodiversidade","source":"openstreetmap.org","min_zoom":4.0,"tier":2,"id":-4287113,"osm_relation":true,"protect_class":"1"},"arcs":[[41]]},{"type":"Polygon","properties":{"kind":"nature_reserve","name":"Parque Nacional da Serra da Canastra","area":2261090048,"sort_rank":23,"operator":"Instituto Chico Mendes de Conserva\u00e7\u00e3o da Biodiversidade","source":"openstreetmap.org","min_zoom":4.0,"tier":2,"id":-2624304,"osm_relation":true,"protect_class":"2"},"arcs":[[42]]},{"type":"Polygon","properties":{"kind":"nature_reserve","name":"Terra Ind\u00edgena Zoe","area":6685570048,"sort_rank":23,"operator":"Funda\u00e7\u00e3o Nacional do \u00cdndio","source":"openstreetmap.org","min_zoom":4.0,"tier":2,"id":-3810655,"osm_relation":true,"protect_class":"24"},"arcs":[[43]]},{"type":"Polygon","properties":{"kind":"nature_reserve","name":"Terra Ind\u00edgena Cana Brava\/Guajajara","area":1376880000,"sort_rank":23,"operator":"Funda\u00e7\u00e3o Nacional do \u00cdndio","source":"openstreetmap.org","min_zoom":4.0,"tier":2,"id":-4287233,"osm_relation":true,"protect_class":"24"},"arcs":[[44]]},{"type":"Polygon","properties":{"kind":"nature_reserve","name":"Reserva Extrativista Rio Iriri","area":4022020096,"sort_rank":23,"operator":"Instituto Chico Mendes de Conserva\u00e7\u00e3o da Biodiversidade","source":"openstreetmap.org","min_zoom":4.0,"tier":2,"id":-3542536,"osm_relation":true,"protect_class":"6"},"arcs":[[45]]},{"type":"Polygon","properties":{"kind":"protected_area","name":"Bacurizinho","area":1363970048,"sort_rank":17,"source":"openstreetmap.org","min_zoom":4.0,"tier":2,"id":-2670409,"osm_relation":true},"arcs":[[46]]},{"type":"Polygon","properties":{"kind":"protected_area","name":"\u00c1rea Indigena Irantxe","area":2672049920,"sort_rank":17,"source":"openstreetmap.org","min_zoom":4.0,"tier":2,"id":-3350522,"osm_relation":true},"arcs":[[47]]},{"type":"Polygon","properties":{"kind":"nature_reserve","name":"Reserva Cient\u00edfica Ecol\u00f3gica Arqueol\u00f3gica Kenneth Lee","area":4706469888,"sort_rank":23,"source":"openstreetmap.org","min_zoom":4.0,"tier":2,"id":-447061,"osm_relation":true},"arcs":[[48]]},{"type":"Polygon","properties":{"kind":"nature_reserve","name":"Terra Ind\u00edgena Kayabi","area":10850899968,"sort_rank":23,"operator":"Funda\u00e7\u00e3o Nacional do \u00cdndio","source":"openstreetmap.org","min_zoom":4.0,"tier":2,"id":-2670412,"osm_relation":true,"protect_class":"24"},"arcs":[[49]]},{"type":"MultiPolygon","properties":{"kind":"nature_reserve","name":"Parque Nacional do Pico da Neblina","area":22734200832,"sort_rank":23,"operator":"Instituto Chico Mendes de Conserva\u00e7\u00e3o da Biodiversidade","source":"openstreetmap.org","min_zoom":4.0,"tier":2,"id":-3424547,"osm_relation":true,"protect_class":"2"},"arcs":[[[50]]]},{"type":"Polygon","properties":{"kind":"nature_reserve","name":"Terra Ind\u00edgena Apiaka\/Kayabi","area":1144310016,"sort_rank":23,"operator":"Funda\u00e7\u00e3o Nacional do \u00cdndio","source":"openstreetmap.org","min_zoom":4.0,"tier":2,"id":-3662502,"osm_relation":true,"protect_class":"24"},"arcs":[[51]]},{"type":"Polygon","properties":{"kind":"nature_reserve","name":"Parque Nacional do Ja\u00fa","area":23869999104,"sort_rank":23,"operator":"Instituto Chico Mendes de Conserva\u00e7\u00e3o da Biodiversidade","source":"openstreetmap.org","min_zoom":4.0,"tier":2,"id":-3425638,"osm_relation":true,"protect_class":"2"},"arcs":[[52]]},{"type":"Polygon","properties":{"kind":"nature_reserve","name":"Reserva Extrativista Tapaj\u00f3s-Arapiuns","area":6837929984,"sort_rank":23,"operator":"Instituto Chico Mendes de Conserva\u00e7\u00e3o da Biodiversidade","source":"openstreetmap.org","min_zoom":4.0,"tier":2,"id":-4722292,"osm_relation":true,"protect_class":"6"},"arcs":[[53]]},{"type":"Polygon","properties":{"kind":"protected_area","name":"Lagos Poop\u00f3 y Uru Uru","area":9900739584,"sort_rank":17,"source":"openstreetmap.org","min_zoom":4.0,"tier":2,"id":-557214,"osm_relation":true},"arcs":[[54]]},{"type":"Polygon","properties":{"kind":"nature_reserve","name":"Floresta Nacional de Pau-Rosa","area":9980130304,"sort_rank":23,"operator":"Instituto Chico Mendes de Conserva\u00e7\u00e3o da Biodiversidade","source":"openstreetmap.org","min_zoom":4.0,"tier":2,"id":255739408,"protect_class":"6"},"arcs":[[55]]},{"type":"Polygon","properties":{"kind":"protected_area","name":"\u00c1rea de Prote\u00e7\u00e3o Ambiental das Nascentes do Rio Vermelho","area":1890860032,"sort_rank":17,"operator":"Instituto Chico Mendes de Conserva\u00e7\u00e3o da Biodiversidade","source":"openstreetmap.org","min_zoom":4.0,"tier":2,"id":-3425880,"osm_relation":true,"protect_class":"5"},"arcs":[[56]]},{"type":"Polygon","properties":{"kind":"nature_reserve","name":"Terra Ind\u00edgena Japuira","area":1606759936,"sort_rank":23,"operator":"Funda\u00e7\u00e3o Nacional do \u00cdndio","source":"openstreetmap.org","min_zoom":4.0,"tier":2,"id":-3662507,"osm_relation":true,"protect_class":"24"},"arcs":[[57]]},{"type":"Polygon","properties":{"kind":"nature_reserve","name":"Terra Ind\u00edgena Parakan\u00e3","area":3560839936,"sort_rank":23,"operator":"Funda\u00e7\u00e3o Nacional do \u00cdndio","source":"openstreetmap.org","min_zoom":4.0,"tier":2,"id":-4287117,"osm_relation":true,"protect_class":"24"},"arcs":[[58]]},{"type":"Polygon","properties":{"kind":"nature_reserve","name":"Terra Ind\u00edgena Utiariti","area":4361619968,"sort_rank":23,"operator":"Funda\u00e7\u00e3o Nacional do \u00cdndio","source":"openstreetmap.org","min_zoom":4.0,"tier":2,"id":-3979561,"osm_relation":true,"protect_class":"24"},"arcs":[[59]]},{"type":"MultiPolygon","properties":{"kind":"protected_area","name":"\u00c1rea Natural de Manejo Integrado Madidi","area":11676103541,"sort_rank":17,"operator":"SERNAP","source":"openstreetmap.org","min_zoom":4.0,"tier":2,"osm_relation":true,"protect_class":"6"},"arcs":[[[60]]]},{"type":"Polygon","properties":{"kind":"nature_reserve","name":"Terra Ind\u00edgena Rio Bi\u00e1","area":12020799488,"sort_rank":23,"operator":"Funda\u00e7\u00e3o Nacional do \u00cdndio","source":"openstreetmap.org","min_zoom":4.0,"tier":2,"id":-3817091,"osm_relation":true,"protect_class":"24"},"arcs":[[61]]},{"type":"Polygon","properties":{"kind":"nature_reserve","name":"Reserva Biol\u00f3gica do Uatum\u00e3","area":9453660160,"sort_rank":23,"operator":"Instituto Chico Mendes de Conserva\u00e7\u00e3o da Biodiversidade","source":"openstreetmap.org","min_zoom":4.0,"tier":2,"id":255726789,"protect_class":"1"},"arcs":[[62]]},{"type":"Polygon","properties":{"kind":"nature_reserve","name":"Esta\u00e7\u00e3o Ecol\u00f3gica de Cuni\u00e3","area":1830470016,"sort_rank":23,"operator":"Instituto Chico Mendes de Conserva\u00e7\u00e3o da Biodiversidade","source":"openstreetmap.org","min_zoom":4.0,"tier":2,"id":-3426336,"osm_relation":true,"protect_class":"1"},"arcs":[[63]]},{"type":"Polygon","properties":{"kind":"nature_reserve","name":"Reserva Nacional Amaz\u00f3nica Manuripi-Heath","area":7893459968,"sort_rank":23,"source":"openstreetmap.org","min_zoom":4.0,"tier":2,"id":-447057,"osm_relation":true},"arcs":[[64]]},{"type":"MultiPolygon","properties":{"kind":"nature_reserve","name":"Reserva Nacional Lagunas de Beni y Pando","area":10148001126,"sort_rank":23,"source":"openstreetmap.org","min_zoom":4.0,"tier":2,"osm_relation":true},"arcs":[[[65]],[[66]],[[67]],[[68]]]},{"type":"Polygon","properties":{"kind":"nature_reserve","name":"Terra Ind\u00edgena Enawen\u00ea-Naw\u00ea","area":7882950144,"sort_rank":23,"operator":"Funda\u00e7\u00e3o Nacional do \u00cdndio","source":"openstreetmap.org","min_zoom":4.0,"tier":2,"id":-3979603,"osm_relation":true,"protect_class":"24"},"arcs":[[69]]},{"type":"Polygon","properties":{"kind":"park","name":"Mapari","area":1586669952,"sort_rank":24,"source":"openstreetmap.org","min_zoom":4.0,"tier":2,"id":-2670413,"osm_relation":true},"arcs":[[70]]},{"type":"Polygon","properties":{"kind":"nature_reserve","name":"Terra Ind\u00edgena Badjonkore","area":2285669888,"sort_rank":23,"operator":"Funda\u00e7\u00e3o Nacional do \u00cdndio","source":"openstreetmap.org","min_zoom":4.0,"tier":2,"id":-3542563,"osm_relation":true,"protect_class":"24"},"arcs":[[71]]},{"type":"Polygon","properties":{"kind":"nature_reserve","name":"Parque Estadual Serra de Ricardo Franco","area":1701820032,"sort_rank":23,"source":"openstreetmap.org","min_zoom":4.0,"tier":2,"id":475439680,"protect_class":"2"},"arcs":[[72]]},{"type":"Polygon","properties":{"kind":"nature_reserve","name":"Terra Ind\u00edgena Rio Mequens","area":1138720000,"sort_rank":23,"operator":"Funda\u00e7\u00e3o Nacional do \u00cdndio","source":"openstreetmap.org","min_zoom":4.0,"tier":2,"id":-3614771,"osm_relation":true,"protect_class":"24"},"arcs":[[73]]},{"type":"Polygon","properties":{"kind":"nature_reserve","name":"Reserva Extrativista Renascer","area":2113980032,"sort_rank":23,"operator":"Instituto Chico Mendes de Conserva\u00e7\u00e3o da Biodiversidade","source":"openstreetmap.org","min_zoom":4.0,"tier":2,"id":-3426366,"osm_relation":true,"protect_class":"6"},"arcs":[[74],[75]]},{"type":"Polygon","properties":{"kind":"nature_reserve","name":"Reserva Biol\u00f3gica do Rio Trombetas","area":4106690048,"sort_rank":23,"operator":"Instituto Chico Mendes de Conserva\u00e7\u00e3o da Biodiversidade","source":"openstreetmap.org","min_zoom":4.0,"tier":2,"id":255797440,"protect_class":"1"},"arcs":[[76]]},{"type":"Polygon","properties":{"kind":"nature_reserve","name":"Terra Ind\u00edgena M\u00e9dio Rio Negro I","area":1477129984,"sort_rank":23,"operator":"Funda\u00e7\u00e3o Nacional do \u00cdndio","source":"openstreetmap.org","min_zoom":4.0,"tier":2,"id":-3910794,"osm_relation":true,"protect_class":"24"},"arcs":[[77]]},{"type":"Polygon","properties":{"kind":"nature_reserve","name":"Terra Ind\u00edgena Waimiri-Atroari","area":26084499456,"sort_rank":23,"operator":"Funda\u00e7\u00e3o Nacional do \u00cdndio","source":"openstreetmap.org","min_zoom":4.0,"tier":2,"id":-3811378,"osm_relation":true,"protect_class":"24"},"arcs":[[78]]},{"type":"Polygon","properties":{"kind":"nature_reserve","name":"Parque Nacional de Anavilhanas","area":3437129984,"sort_rank":23,"operator":"Instituto Chico Mendes de Conserva\u00e7\u00e3o da Biodiversidade","source":"openstreetmap.org","min_zoom":4.0,"tier":2,"id":-3425635,"osm_relation":true,"protect_class":"2"},"arcs":[[79]]},{"type":"Polygon","properties":{"kind":"nature_reserve","name":"Floresta Nacional do Itacaiunas","area":1390759936,"sort_rank":23,"operator":"Instituto Chico Mendes de Conserva\u00e7\u00e3o da Biodiversidade","source":"openstreetmap.org","min_zoom":4.0,"tier":2,"id":-4722282,"osm_relation":true,"protect_class":"6"},"arcs":[[80]]},{"type":"Polygon","properties":{"kind":"nature_reserve","name":"Terra Ind\u00edgena Parabubure","area":2364950016,"sort_rank":23,"operator":"Funda\u00e7\u00e3o Nacional do \u00cdndio","source":"openstreetmap.org","min_zoom":4.0,"tier":2,"id":-3979545,"osm_relation":true,"protect_class":"24"},"arcs":[[81]]},{"type":"Polygon","properties":{"kind":"nature_reserve","name":"Terra Ind\u00edgena Aripuan\u00e3","area":7812899840,"sort_rank":23,"operator":"Funda\u00e7\u00e3o Nacional do \u00cdndio","source":"openstreetmap.org","min_zoom":4.0,"tier":2,"id":-3662504,"osm_relation":true,"protect_class":"24"},"arcs":[[82]]},{"type":"Polygon","properties":{"kind":"nature_reserve","name":"Terra Ind\u00edgena Kayap\u00f3","area":33678999552,"sort_rank":23,"operator":"Funda\u00e7\u00e3o Nacional do \u00cdndio","source":"openstreetmap.org","min_zoom":4.0,"tier":2,"id":-3542567,"osm_relation":true,"protect_class":"24"},"arcs":[[83]]},{"type":"Polygon","properties":{"kind":"nature_reserve","name":"Floresta Nacional do Amana","area":5478130176,"sort_rank":23,"operator":"Instituto Chico Mendes de Conserva\u00e7\u00e3o da Biodiversidade","source":"openstreetmap.org","min_zoom":4.0,"tier":2,"id":-3426345,"osm_relation":true,"protect_class":"6"},"arcs":[[84]]},{"type":"Polygon","properties":{"kind":"nature_reserve","name":"Terra Ind\u00edgena Rio Negro Ocaia","area":1097170048,"sort_rank":23,"operator":"Funda\u00e7\u00e3o Nacional do \u00cdndio","source":"openstreetmap.org","min_zoom":4.0,"tier":2,"id":-3614772,"osm_relation":true,"protect_class":"24"},"arcs":[[85]]},{"type":"Polygon","properties":{"kind":"park","name":"Parque Departamental Altamachi","area":4481619968,"sort_rank":24,"source":"openstreetmap.org","min_zoom":4.0,"tier":2,"id":-446358,"osm_relation":true},"arcs":[[86]]},{"type":"Polygon","properties":{"kind":"nature_reserve","name":"Terra Ind\u00edgena Krikati","area":1475840000,"sort_rank":23,"operator":"Funda\u00e7\u00e3o Nacional do \u00cdndio","source":"openstreetmap.org","min_zoom":4.0,"tier":2,"id":-4287073,"osm_relation":true,"protect_class":"24"},"arcs":[[87]]},{"type":"Polygon","properties":{"kind":"nature_reserve","name":"Reserva Extrativista Verde para Sempre","area":12999100416,"sort_rank":23,"operator":"Instituto Chico Mendes de Conserva\u00e7\u00e3o da Biodiversidade","source":"openstreetmap.org","min_zoom":4.0,"tier":2,"id":-4722293,"osm_relation":true,"protect_class":"6"},"arcs":[[88]]},{"type":"Polygon","properties":{"kind":"nature_reserve","name":"Terra Ind\u00edgena Serra Morena","area":1538080000,"sort_rank":23,"operator":"Funda\u00e7\u00e3o Nacional do \u00cdndio","source":"openstreetmap.org","min_zoom":4.0,"tier":2,"id":-3662513,"osm_relation":true,"protect_class":"24"},"arcs":[[89]]},{"type":"Polygon","properties":{"kind":"nature_reserve","name":"Reserva Extrativista Ituxi","area":7982830080,"sort_rank":23,"operator":"Instituto Chico Mendes de Conserva\u00e7\u00e3o da Biodiversidade","source":"openstreetmap.org","min_zoom":4.0,"tier":2,"id":-4286865,"osm_relation":true,"protect_class":"6"},"arcs":[[90]]},{"type":"Polygon","properties":{"kind":"nature_reserve","name":"Esta\u00e7\u00e3o Ecol\u00f3gica do Jari","area":2326850048,"sort_rank":23,"operator":"Instituto Chico Mendes de Conserva\u00e7\u00e3o da Biodiversidade","source":"openstreetmap.org","min_zoom":4.0,"tier":2,"id":255726272,"protect_class":"1"},"arcs":[[91]]},{"type":"Polygon","properties":{"kind":"nature_reserve","name":"Terra Ind\u00edgena Arawet\u00e9 Igarap\u00e9 Ipixuna","area":9540259840,"sort_rank":23,"operator":"Funda\u00e7\u00e3o Nacional do \u00cdndio","source":"openstreetmap.org","min_zoom":4.0,"tier":2,"id":-3542562,"osm_relation":true,"protect_class":"24"},"arcs":[[92]]},{"type":"Polygon","properties":{"kind":"nature_reserve","name":"Terra Ind\u00edgena Zuruah\u00e3","area":2438370048,"sort_rank":23,"operator":"Funda\u00e7\u00e3o Nacional do \u00cdndio","source":"openstreetmap.org","min_zoom":4.0,"tier":2,"id":-4286510,"osm_relation":true,"protect_class":"24"},"arcs":[[93]]},{"type":"Polygon","properties":{"kind":"nature_reserve","name":"Floresta Nacional de Tef\u00e9","area":8731599872,"sort_rank":23,"operator":"Instituto Chico Mendes de Conserva\u00e7\u00e3o da Biodiversidade","source":"openstreetmap.org","min_zoom":4.0,"tier":2,"id":-3424877,"osm_relation":true,"protect_class":"6"},"arcs":[[94]]},{"type":"MultiPolygon","properties":{"kind":"protected_area","protect_class":"5","area":20730812936,"sort_rank":17,"operator":"Instituto Chico Mendes de Conserva\u00e7\u00e3o da Biodiversidade","source":"openstreetmap.org","min_zoom":4.0,"tier":2,"osm_relation":true,"name":"\u00c1rea de Prote\u00e7\u00e3o Ambiental do Tapaj\u00f3s"},"arcs":[[[95]],[[96]]]},{"type":"Polygon","properties":{"kind":"nature_reserve","name":"Terra Ind\u00edgena Uru-Eu-Wau-Wau","area":19547899904,"sort_rank":23,"operator":"Funda\u00e7\u00e3o Nacional do \u00cdndio","source":"openstreetmap.org","min_zoom":4.0,"tier":2,"id":-3614774,"osm_relation":true,"protect_class":"24"},"arcs":[[97]]},{"type":"Polygon","properties":{"kind":"nature_reserve","name":"Terra Ind\u00edgena Sangradouro\/Volta Grande","area":1109200000,"sort_rank":23,"operator":"Funda\u00e7\u00e3o Nacional do \u00cdndio","source":"openstreetmap.org","min_zoom":4.0,"tier":2,"id":-3979652,"osm_relation":true,"protect_class":"24"},"arcs":[[98]]},{"type":"Polygon","properties":{"kind":"nature_reserve","name":"Terra Ind\u00edgena Xerente","area":1777280000,"sort_rank":23,"operator":"Funda\u00e7\u00e3o Nacional do \u00cdndio","source":"openstreetmap.org","min_zoom":4.0,"tier":2,"id":-4287105,"osm_relation":true,"protect_class":"24"},"arcs":[[99]]},{"type":"Polygon","properties":{"kind":"protected_area","name":"Porquinhos","area":3068300032,"sort_rank":17,"source":"openstreetmap.org","min_zoom":4.0,"tier":2,"id":-2670417,"osm_relation":true},"arcs":[[100]]},{"type":"Polygon","properties":{"kind":"nature_reserve","name":"Floresta Nacional de Altamira","area":7381289984,"sort_rank":23,"operator":"Instituto Chico Mendes de Conserva\u00e7\u00e3o da Biodiversidade","source":"openstreetmap.org","min_zoom":4.0,"tier":2,"id":-3542534,"osm_relation":true,"protect_class":"6"},"arcs":[[101]]},{"type":"Polygon","properties":{"kind":"nature_reserve","name":"Terra Ind\u00edgena Yanomami","area":96186195968,"sort_rank":23,"operator":"Funda\u00e7\u00e3o Nacional do \u00cdndio","source":"openstreetmap.org","min_zoom":4.0,"tier":2,"id":-3910901,"osm_relation":true,"protect_class":"24"},"arcs":[[102]]},{"type":"Polygon","properties":{"kind":"nature_reserve","name":"Reserva Extrativista Terra Grande - Pracu\u00faba","area":1957810048,"sort_rank":23,"operator":"Instituto Chico Mendes de Conserva\u00e7\u00e3o da Biodiversidade","source":"openstreetmap.org","min_zoom":4.0,"tier":2,"id":-5587855,"osm_relation":true,"protect_class":"6"},"arcs":[[103]]},{"type":"Polygon","properties":{"kind":"nature_reserve","name":"Esta\u00e7\u00e3o Ecol\u00f3gica de Uru\u00e7ui-Una","area":1392999936,"sort_rank":23,"operator":"Instituto Chico Mendes de Conserva\u00e7\u00e3o da Biodiversidade","source":"openstreetmap.org","min_zoom":4.0,"tier":2,"id":255739399,"protect_class":"1"},"arcs":[[104]]},{"type":"Polygon","properties":{"kind":"nature_reserve","name":"Terra Ind\u00edgena Itixi Mitari","area":1851539968,"sort_rank":23,"operator":"Funda\u00e7\u00e3o Nacional do \u00cdndio","source":"openstreetmap.org","min_zoom":4.0,"tier":2,"id":-4286473,"osm_relation":true,"protect_class":"24"},"arcs":[[105]]},{"type":"Polygon","properties":{"kind":"nature_reserve","name":"Terra Ind\u00edgena Nove de Janeiro","area":2348150016,"sort_rank":23,"operator":"Funda\u00e7\u00e3o Nacional do \u00cdndio","source":"openstreetmap.org","min_zoom":4.0,"tier":2,"id":-4287014,"osm_relation":true,"protect_class":"24"},"arcs":[[106]]},{"type":"Polygon","properties":{"kind":"nature_reserve","name":"Esta\u00e7\u00e3o Ecol\u00f3gica de Juta\u00ed-Solim\u00f5es","area":2919650048,"sort_rank":23,"operator":"Instituto Chico Mendes de Conserva\u00e7\u00e3o da Biodiversidade","source":"openstreetmap.org","min_zoom":4.0,"tier":2,"id":-3817069,"osm_relation":true,"protect_class":"1"},"arcs":[[107]]},{"type":"Polygon","properties":{"kind":"nature_reserve","name":"Terra Ind\u00edgena Hi Merim\u00e3","area":6917080064,"sort_rank":23,"operator":"Funda\u00e7\u00e3o Nacional do \u00cdndio","source":"openstreetmap.org","min_zoom":4.0,"tier":2,"id":-4286454,"osm_relation":true,"protect_class":"24"},"arcs":[[108]]},{"type":"Polygon","properties":{"kind":"nature_reserve","name":"Terra Ind\u00edgena Vale do Guapor\u00e9","area":2565690112,"sort_rank":23,"operator":"Funda\u00e7\u00e3o Nacional do \u00cdndio","source":"openstreetmap.org","min_zoom":4.0,"tier":2,"id":-3979550,"osm_relation":true,"protect_class":"24"},"arcs":[[109]]},{"type":"Polygon","properties":{"kind":"nature_reserve","name":"Terra Ind\u00edgena Sai-Cinza","area":1264610048,"sort_rank":23,"operator":"Funda\u00e7\u00e3o Nacional do \u00cdndio","source":"openstreetmap.org","min_zoom":4.0,"tier":2,"id":-3662512,"osm_relation":true,"protect_class":"24"},"arcs":[[110]]},{"type":"Polygon","properties":{"kind":"nature_reserve","name":"Terra Ind\u00edgena Tenharim Marmelos","area":5117420032,"sort_rank":23,"operator":"Funda\u00e7\u00e3o Nacional do \u00cdndio","source":"openstreetmap.org","min_zoom":4.0,"tier":2,"id":-4286940,"osm_relation":true,"protect_class":"24"},"arcs":[[111]]},{"type":"Polygon","properties":{"kind":"park","name":"Parque Nacional Noel Kempff Mercado","area":17003799552,"sort_rank":24,"source":"openstreetmap.org","min_zoom":4.0,"tier":2,"id":-421231,"osm_relation":true},"arcs":[[112]]},{"type":"Polygon","properties":{"kind":"nature_reserve","name":"Floresta Nacional de Itaituba II","area":4032979968,"sort_rank":23,"operator":"Instituto Chico Mendes de Conserva\u00e7\u00e3o da Biodiversidade","source":"openstreetmap.org","min_zoom":4.0,"tier":2,"id":-3426613,"osm_relation":true,"protect_class":"6"},"arcs":[[113]]},{"type":"Polygon","properties":{"kind":"nature_reserve","name":"Reserva Nacional de Vida Silvestre R\u00edos Blanco y Negro","area":15002500096,"sort_rank":23,"source":"openstreetmap.org","min_zoom":4.0,"tier":2,"id":-447060,"osm_relation":true},"arcs":[[114]]},{"type":"Polygon","properties":{"kind":"nature_reserve","name":"Reserva Extrativista do Rio Ouro Preto","area":2128029952,"sort_rank":23,"operator":"Instituto Chico Mendes de Conserva\u00e7\u00e3o da Biodiversidade","source":"openstreetmap.org","min_zoom":4.0,"tier":2,"id":-3426368,"osm_relation":true,"protect_class":"6"},"arcs":[[115]]},{"type":"Polygon","properties":{"kind":"nature_reserve","name":"Parque Nacional das Emas","area":1485100032,"sort_rank":23,"operator":"Instituto Chico Mendes de Conserva\u00e7\u00e3o da Biodiversidade","source":"openstreetmap.org","min_zoom":4.0,"tier":2,"id":-2525280,"osm_relation":true,"protect_class":"2"},"arcs":[[116]]},{"type":"Polygon","properties":{"kind":"nature_reserve","name":"Parque Nacional Nascentes do Lago Jari","area":8264090112,"sort_rank":23,"operator":"Instituto Chico Mendes de Conserva\u00e7\u00e3o da Biodiversidade","source":"openstreetmap.org","min_zoom":4.0,"tier":2,"id":-4286879,"osm_relation":true,"protect_class":"2"},"arcs":[[117]]},{"type":"Polygon","properties":{"kind":"nature_reserve","name":"Terra Ind\u00edgena Rio T\u00e9a","area":4138299904,"sort_rank":23,"operator":"Funda\u00e7\u00e3o Nacional do \u00cdndio","source":"openstreetmap.org","min_zoom":4.0,"tier":2,"id":-3817092,"osm_relation":true,"protect_class":"24"},"arcs":[[118]]},{"type":"Polygon","properties":{"kind":"nature_reserve","name":"Floresta Nacional de Jacund\u00e1","area":2284659968,"sort_rank":23,"operator":"Instituto Chico Mendes de Conserva\u00e7\u00e3o da Biodiversidade","source":"openstreetmap.org","min_zoom":4.0,"tier":2,"id":-3425633,"osm_relation":true,"protect_class":"6"},"arcs":[[119]]},{"type":"Polygon","properties":{"kind":"nature_reserve","name":"Terra Ind\u00edgena Paumari do Lago Marah\u00e3","area":1223619968,"sort_rank":23,"operator":"Funda\u00e7\u00e3o Nacional do \u00cdndio","source":"openstreetmap.org","min_zoom":4.0,"tier":2,"id":-4286569,"osm_relation":true,"protect_class":"24"},"arcs":[[120]]},{"type":"Polygon","properties":{"kind":"nature_reserve","name":"Parque Nacional das Nascentes do Rio Parnaiba","area":7515800064,"sort_rank":23,"operator":"Instituto Chico Mendes de Conserva\u00e7\u00e3o da Biodiversidade","source":"openstreetmap.org","min_zoom":4.0,"tier":2,"id":-2634124,"osm_relation":true,"protect_class":"2"},"arcs":[[121]]},{"type":"Polygon","properties":{"kind":"nature_reserve","name":"Terra Ind\u00edgena Alto Rio Guam\u00e1","area":2864090112,"sort_rank":23,"operator":"Funda\u00e7\u00e3o Nacional do \u00cdndio","source":"openstreetmap.org","min_zoom":4.0,"tier":2,"id":-4287100,"osm_relation":true,"protect_class":"24"},"arcs":[[122]]},{"type":"Polygon","properties":{"kind":"nature_reserve","name":"Terra Ind\u00edgena Tirecatinga","area":1390089984,"sort_rank":23,"operator":"Funda\u00e7\u00e3o Nacional do \u00cdndio","source":"openstreetmap.org","min_zoom":4.0,"tier":2,"id":-3979571,"osm_relation":true,"protect_class":"24"},"arcs":[[123]]},{"type":"Polygon","properties":{"kind":"nature_reserve","name":"Esta\u00e7\u00e3o Ecol\u00f3gica Juami-Japur\u00e1","area":8306930176,"sort_rank":23,"operator":"Instituto Chico Mendes de Conserva\u00e7\u00e3o da Biodiversidade","source":"openstreetmap.org","min_zoom":4.0,"tier":2,"id":-3817068,"osm_relation":true,"protect_class":"1"},"arcs":[[124]]},{"type":"Polygon","properties":{"kind":"nature_reserve","name":"Terra Ind\u00edgena Kuru\u00e1ya","area":1685110016,"sort_rank":23,"operator":"Funda\u00e7\u00e3o Nacional do \u00cdndio","source":"openstreetmap.org","min_zoom":4.0,"tier":2,"id":-3542569,"osm_relation":true,"protect_class":"24"},"arcs":[[125]]},{"type":"Polygon","properties":{"kind":"nature_reserve","name":"Terra Ind\u00edgena Munduruku","area":24452700160,"sort_rank":23,"operator":"Funda\u00e7\u00e3o Nacional do \u00cdndio","source":"openstreetmap.org","min_zoom":4.0,"tier":2,"id":-3662508,"osm_relation":true,"protect_class":"24"},"arcs":[[126]]},{"type":"Polygon","properties":{"kind":"nature_reserve","name":"Terra Ind\u00edgena Pimentel Barbosa","area":3494690048,"sort_rank":23,"operator":"Funda\u00e7\u00e3o Nacional do \u00cdndio","source":"openstreetmap.org","min_zoom":4.0,"tier":2,"id":-3914884,"osm_relation":true,"protect_class":"24"},"arcs":[[127]]},{"type":"Polygon","properties":{"kind":"nature_reserve","name":"Reserva Extrativista do Lago do Capan\u00e3 Grande","area":3095379968,"sort_rank":23,"operator":"Instituto Chico Mendes de Conserva\u00e7\u00e3o da Biodiversidade","source":"openstreetmap.org","min_zoom":4.0,"tier":2,"id":-3424890,"osm_relation":true,"protect_class":"6"},"arcs":[[128]]},{"type":"Polygon","properties":{"kind":"nature_reserve","name":"Terra Ind\u00edgena Nhamund\u00e1\/Mapuera","area":10563099648,"sort_rank":23,"operator":"Funda\u00e7\u00e3o Nacional do \u00cdndio","source":"openstreetmap.org","min_zoom":4.0,"tier":2,"id":-3810829,"osm_relation":true,"protect_class":"24"},"arcs":[[129]]},{"type":"Polygon","properties":{"kind":"nature_reserve","name":"Floresta Nacional do Crepori","area":7552399872,"sort_rank":23,"operator":"Instituto Chico Mendes de Conserva\u00e7\u00e3o da Biodiversidade","source":"openstreetmap.org","min_zoom":4.0,"tier":2,"id":-3426347,"osm_relation":true,"protect_class":"6"},"arcs":[[130]]},{"type":"Polygon","properties":{"kind":"nature_reserve","name":"Terra Ind\u00edgena Uati-Paran\u00e1","area":1301289984,"sort_rank":23,"operator":"Funda\u00e7\u00e3o Nacional do \u00cdndio","source":"openstreetmap.org","min_zoom":4.0,"tier":2,"id":-3817102,"osm_relation":true,"protect_class":"24"},"arcs":[[131]]},{"type":"Polygon","properties":{"kind":"nature_reserve","name":"Terra Ind\u00edgena Pacaas Novas","area":2942789888,"sort_rank":23,"operator":"Funda\u00e7\u00e3o Nacional do \u00cdndio","source":"openstreetmap.org","min_zoom":4.0,"tier":2,"id":-3614768,"osm_relation":true,"protect_class":"24"},"arcs":[[132]]},{"type":"Polygon","properties":{"kind":"nature_reserve","name":"Terra Ind\u00edgena Arara do Rio Branco","area":1192380032,"sort_rank":23,"operator":"Funda\u00e7\u00e3o Nacional do \u00cdndio","source":"openstreetmap.org","min_zoom":4.0,"tier":2,"id":-3662503,"osm_relation":true,"protect_class":"24"},"arcs":[[133]]},{"type":"Polygon","properties":{"kind":"nature_reserve","name":"Reserva Extrativista Auat\u00ed-Paran\u00e1","area":1481219968,"sort_rank":23,"operator":"Instituto Chico Mendes de Conserva\u00e7\u00e3o da Biodiversidade","source":"openstreetmap.org","min_zoom":4.0,"tier":2,"id":255726792,"protect_class":"6"},"arcs":[[134]]},{"type":"Polygon","properties":{"kind":"nature_reserve","name":"Parque Nacional do Juruena","area":20084400128,"sort_rank":23,"operator":"Instituto Chico Mendes de Conserva\u00e7\u00e3o da Biodiversidade","source":"openstreetmap.org","min_zoom":4.0,"tier":2,"id":-3424546,"osm_relation":true,"protect_class":"2"},"arcs":[[135]]},{"type":"Polygon","properties":{"kind":"nature_reserve","name":"Floresta Nacional do Amazonas","area":19476199424,"sort_rank":23,"operator":"Instituto Chico Mendes de Conserva\u00e7\u00e3o da Biodiversidade","source":"openstreetmap.org","min_zoom":4.0,"tier":2,"id":-3426346,"osm_relation":true,"protect_class":"6"},"arcs":[[136]]},{"type":"Polygon","properties":{"kind":"nature_reserve","name":"Terra Ind\u00edgena Inawebohona","area":3930500096,"sort_rank":23,"operator":"Funda\u00e7\u00e3o Nacional do \u00cdndio","source":"openstreetmap.org","min_zoom":4.0,"tier":2,"id":-3914880,"osm_relation":true,"protect_class":"24"},"arcs":[[137]]},{"type":"Polygon","properties":{"kind":"nature_reserve","name":"Floresta Nacional do Trair\u00e3o","area":2611059968,"sort_rank":23,"operator":"Instituto Chico Mendes de Conserva\u00e7\u00e3o da Biodiversidade","source":"openstreetmap.org","min_zoom":4.0,"tier":2,"id":255809565,"protect_class":"6"},"arcs":[[138]]},{"type":"MultiPolygon","properties":{"kind":"nature_reserve","name":"\u00c1rea Natural de Manejo Integrado Kaa-Iya del Gran Chaco","area":17136967618,"sort_rank":23,"operator":"SERNAP","source":"openstreetmap.org","min_zoom":4.0,"tier":2,"osm_relation":true,"protect_class":"6"},"arcs":[[[139]],[[140]]]},{"type":"Polygon","properties":{"kind":"nature_reserve","name":"Terra Ind\u00edgena S\u00e3o Domingos do Jacapari e Esta\u00e7\u00e3o","area":1345590016,"sort_rank":23,"operator":"Funda\u00e7\u00e3o Nacional do \u00cdndio","source":"openstreetmap.org","min_zoom":4.0,"tier":2,"id":-3817095,"osm_relation":true,"protect_class":"24"},"arcs":[[141]]},{"type":"Polygon","properties":{"kind":"nature_reserve","name":"Terra Ind\u00edgena Igarap\u00e9 Lage","area":1117280000,"sort_rank":23,"operator":"Funda\u00e7\u00e3o Nacional do \u00cdndio","source":"openstreetmap.org","min_zoom":4.0,"tier":2,"id":-3614764,"osm_relation":true,"protect_class":"24"},"arcs":[[142]]},{"type":"Polygon","properties":{"kind":"nature_reserve","name":"Terra Ind\u00edgena Ipixuna","area":2198520064,"sort_rank":23,"operator":"Funda\u00e7\u00e3o Nacional do \u00cdndio","source":"openstreetmap.org","min_zoom":4.0,"tier":2,"id":-4286981,"osm_relation":true,"protect_class":"24"},"arcs":[[143]]},{"type":"Polygon","properties":{"kind":"nature_reserve","name":"Terra Ind\u00edgena Awa","area":1187239936,"sort_rank":23,"operator":"Funda\u00e7\u00e3o Nacional do \u00cdndio","source":"openstreetmap.org","min_zoom":4.0,"tier":2,"id":-4287114,"osm_relation":true,"protect_class":"24"},"arcs":[[144]]},{"type":"Polygon","properties":{"kind":"nature_reserve","name":"Terra Ind\u00edgena Paresi","area":6030239744,"sort_rank":23,"operator":"Funda\u00e7\u00e3o Nacional do \u00cdndio","source":"openstreetmap.org","min_zoom":4.0,"tier":2,"id":-3979617,"osm_relation":true,"protect_class":"24"},"arcs":[[145]]},{"type":"Polygon","properties":{"kind":"nature_reserve","name":"Terra Ind\u00edgena Deni","area":15604100096,"sort_rank":23,"operator":"Funda\u00e7\u00e3o Nacional do \u00cdndio","source":"openstreetmap.org","min_zoom":4.0,"tier":2,"id":-4286492,"osm_relation":true,"protect_class":"24"},"arcs":[[146]]},{"type":"Polygon","properties":{"kind":"nature_reserve","name":"Terra Ind\u00edgena Kadiw\u00e9u","area":6224000000,"sort_rank":23,"operator":"Funda\u00e7\u00e3o Nacional do \u00cdndio","source":"openstreetmap.org","min_zoom":4.0,"tier":2,"id":-4218293,"osm_relation":true,"protect_class":"24"},"arcs":[[147]]},{"type":"Polygon","properties":{"kind":"nature_reserve","name":"Terra Ind\u00edgena Igarap\u00e9 Lourdes","area":2045769984,"sort_rank":23,"operator":"Funda\u00e7\u00e3o Nacional do \u00cdndio","source":"openstreetmap.org","min_zoom":4.0,"tier":2,"id":-3662506,"osm_relation":true,"protect_class":"24"},"arcs":[[148]]},{"type":"Polygon","properties":{"kind":"nature_reserve","name":"Ref\u00fagio de Vida Silvestre das Veredas do Oeste Baiano","area":1312450048,"sort_rank":23,"operator":"Instituto Chico Mendes de Conserva\u00e7\u00e3o da Biodiversidade","source":"openstreetmap.org","min_zoom":4.0,"tier":2,"id":-3424885,"osm_relation":true,"protect_class":"3"},"arcs":[[149]]},{"type":"Polygon","properties":{"kind":"nature_reserve","name":"Reserva Biol\u00f3gica do Guapor\u00e9","area":6495540224,"sort_rank":23,"operator":"Instituto Chico Mendes de Conserva\u00e7\u00e3o da Biodiversidade","source":"openstreetmap.org","min_zoom":4.0,"tier":2,"id":-3425639,"osm_relation":true,"protect_class":"1"},"arcs":[[150]]},{"type":"Polygon","properties":{"kind":"nature_reserve","name":"Terra Ind\u00edgena Maraiwatsede","area":1737010048,"sort_rank":23,"operator":"Funda\u00e7\u00e3o Nacional do \u00cdndio","source":"openstreetmap.org","min_zoom":4.0,"tier":2,"id":-3914887,"osm_relation":true,"protect_class":"24"},"arcs":[[151]]},{"type":"Polygon","properties":{"kind":"nature_reserve","name":"Terra Ind\u00edgena Apinay\u00e9","area":1441720064,"sort_rank":23,"operator":"Funda\u00e7\u00e3o Nacional do \u00cdndio","source":"openstreetmap.org","min_zoom":4.0,"tier":2,"id":-4287227,"osm_relation":true,"protect_class":"24"},"arcs":[[152]]},{"type":"Polygon","properties":{"kind":"nature_reserve","name":"APA Coch\u00e1 e Gib\u00e3o","area":3069499904,"sort_rank":23,"operator":"Instituto Estadual de Florestas","source":"openstreetmap.org","min_zoom":4.0,"tier":2,"id":-7233473,"osm_relation":true},"arcs":[[153]]},{"type":"Polygon","properties":{"kind":"nature_reserve","name":"Terra Ind\u00edgena Cachoeira Seca","area":7412539904,"sort_rank":23,"operator":"Funda\u00e7\u00e3o Nacional do \u00cdndio","source":"openstreetmap.org","min_zoom":4.0,"tier":2,"id":-6618922,"osm_relation":true,"protect_class":"24"},"arcs":[[154]]},{"type":"Polygon","properties":{"kind":"nature_reserve","name":"Terra Ind\u00edgena Catipari\/Mamoria","area":1177680000,"sort_rank":23,"operator":"Funda\u00e7\u00e3o Nacional do \u00cdndio","source":"openstreetmap.org","min_zoom":4.0,"tier":2,"id":-4286850,"osm_relation":true,"protect_class":"24"},"arcs":[[155]]},{"type":"Polygon","properties":{"kind":"nature_reserve","name":"Parque Estadual do Cant\u00e3o","area":1093760000,"sort_rank":23,"source":"openstreetmap.org","min_zoom":4.0,"tier":2,"id":379620247},"arcs":[[156]]},{"type":"Polygon","properties":{"kind":"nature_reserve","name":"Terra Ind\u00edgena Menkragnoti","area":50765901824,"sort_rank":23,"operator":"Funda\u00e7\u00e3o Nacional do \u00cdndio","source":"openstreetmap.org","min_zoom":4.0,"tier":2,"id":-3542570,"osm_relation":true,"protect_class":"24"},"arcs":[[157]]},{"type":"MultiPolygon","properties":{"kind":"nature_reserve","name":"Floresta Nacional de Balata-Tufari","area":10699427366,"sort_rank":23,"operator":"Instituto Chico Mendes de Conserva\u00e7\u00e3o da Biodiversidade","source":"openstreetmap.org","min_zoom":4.0,"tier":2,"osm_relation":true,"protect_class":"6"},"arcs":[[[158]],[[159],[160],[161],[162],[163]]]},{"type":"Polygon","properties":{"kind":"nature_reserve","name":"Parque Nacional do Jamanxim","area":8740649984,"sort_rank":23,"operator":"Instituto Chico Mendes de Conserva\u00e7\u00e3o da Biodiversidade","source":"openstreetmap.org","min_zoom":4.0,"tier":2,"id":-3426357,"osm_relation":true,"protect_class":"2"},"arcs":[[164],[165]]},{"type":"Polygon","properties":{"kind":"national_park","name":"Parque Nacional Kaa-Iya del Gran Chaco","area":21744199680,"sort_rank":18,"operator":"SERNAP","source":"openstreetmap.org","min_zoom":3.0,"tier":1,"id":-7728779,"osm_relation":true,"protect_class":"2"},"arcs":[[166]]},{"type":"Polygon","properties":{"kind":"nature_reserve","name":"Parque Nacional Defensores del Chaco","area":8112110080,"sort_rank":23,"source":"openstreetmap.org","min_zoom":4.0,"tier":2,"id":166129126,"protect_class":"2"},"arcs":[[167]]},{"type":"Polygon","properties":{"kind":"nature_reserve","name":"Parque Nacional Serra da Cutia","area":2974010112,"sort_rank":23,"operator":"Instituto Chico Mendes de Conserva\u00e7\u00e3o da Biodiversidade","source":"openstreetmap.org","min_zoom":4.0,"tier":2,"id":-3424881,"osm_relation":true,"protect_class":"2"},"arcs":[[168]]},{"type":"Polygon","properties":{"kind":"nature_reserve","name":"Parque Nacional da Chapada das Mesas","area":1438880000,"sort_rank":23,"operator":"Instituto Chico Mendes de Conserva\u00e7\u00e3o da Biodiversidade","source":"openstreetmap.org","min_zoom":4.0,"tier":2,"id":-2653525,"osm_relation":true,"protect_class":"2"},"arcs":[[169]]},{"type":"Polygon","properties":{"kind":"nature_reserve","name":"Floresta Nacional do Jamanxim","area":13324499968,"sort_rank":23,"operator":"Instituto Chico Mendes de Conserva\u00e7\u00e3o da Biodiversidade","source":"openstreetmap.org","min_zoom":4.0,"tier":2,"id":-3426614,"osm_relation":true,"protect_class":"6"},"arcs":[[170]]},{"type":"Polygon","properties":{"kind":"nature_reserve","name":"Terra Ind\u00edgena Camadeni","area":1543100032,"sort_rank":23,"operator":"Funda\u00e7\u00e3o Nacional do \u00cdndio","source":"openstreetmap.org","min_zoom":4.0,"tier":2,"id":-4286825,"osm_relation":true,"protect_class":"24"},"arcs":[[171]]},{"type":"Polygon","properties":{"kind":"nature_reserve","name":"Terra Ind\u00edgena Wawi","area":1576349952,"sort_rank":23,"operator":"Funda\u00e7\u00e3o Nacional do \u00cdndio","source":"openstreetmap.org","min_zoom":4.0,"tier":2,"id":-3542574,"osm_relation":true,"protect_class":"24"},"arcs":[[172]]},{"type":"Polygon","properties":{"kind":"nature_reserve","name":"Terra Ind\u00edgena \u00c1gua Preta\/Inari","area":1431539968,"sort_rank":23,"operator":"Funda\u00e7\u00e3o Nacional do \u00cdndio","source":"openstreetmap.org","min_zoom":4.0,"tier":2,"id":-4286587,"osm_relation":true,"protect_class":"24"},"arcs":[[173]]},{"type":"Polygon","properties":{"kind":"nature_reserve","name":"Parque Nacional do Pantanal Matogrossense","area":1535910016,"sort_rank":23,"operator":"Instituto Chico Mendes de Conserva\u00e7\u00e3o da Biodiversidade","source":"openstreetmap.org","min_zoom":4.0,"tier":2,"id":-2525338,"osm_relation":true,"protect_class":"2"},"arcs":[[174]]},{"type":"Polygon","properties":{"kind":"nature_reserve","name":"Terra Ind\u00edgena Coata-Laranjal","area":11683200000,"sort_rank":23,"operator":"Funda\u00e7\u00e3o Nacional do \u00cdndio","source":"openstreetmap.org","min_zoom":4.0,"tier":2,"id":-4286975,"osm_relation":true,"protect_class":"24"},"arcs":[[175]]},{"type":"Polygon","properties":{"kind":"nature_reserve","name":"Terra Ind\u00edgena Karara\u00f4","area":3349029888,"sort_rank":23,"operator":"Funda\u00e7\u00e3o Nacional do \u00cdndio","source":"openstreetmap.org","min_zoom":4.0,"tier":2,"id":-3542566,"osm_relation":true,"protect_class":"24"},"arcs":[[176]]},{"type":"Polygon","properties":{"kind":"nature_reserve","name":"Parque Nacional Mapinguari","area":17959000064,"sort_rank":23,"operator":"Instituto Chico Mendes de Conserva\u00e7\u00e3o da Biodiversidade","source":"openstreetmap.org","min_zoom":4.0,"tier":2,"id":-3426351,"osm_relation":true,"protect_class":"2"},"arcs":[[177],[178]]},{"type":"Polygon","properties":{"kind":"nature_reserve","name":"Terra Ind\u00edgena Trombetas\/Mapuera","area":40043700224,"sort_rank":23,"operator":"Funda\u00e7\u00e3o Nacional do \u00cdndio","source":"openstreetmap.org","min_zoom":4.0,"tier":2,"id":-3811140,"osm_relation":true,"protect_class":"24"},"arcs":[[179]]},{"type":"Polygon","properties":{"kind":"nature_reserve","name":"Terra Ind\u00edgena Peneri\/Tacaquiri","area":1963040000,"sort_rank":23,"operator":"Funda\u00e7\u00e3o Nacional do \u00cdndio","source":"openstreetmap.org","min_zoom":4.0,"tier":2,"id":-4286875,"osm_relation":true,"protect_class":"24"},"arcs":[[180]]},{"type":"Polygon","properties":{"kind":"nature_reserve","name":"Terra Ind\u00edgena Sete de Setembro","area":2599579904,"sort_rank":23,"operator":"Funda\u00e7\u00e3o Nacional do \u00cdndio","source":"openstreetmap.org","min_zoom":4.0,"tier":2,"id":-3662514,"osm_relation":true,"protect_class":"24"},"arcs":[[181]]},{"type":"Polygon","properties":{"kind":"nature_reserve","name":"Floresta Nacional de Sarac\u00e1-Taquera","area":4446260224,"sort_rank":23,"operator":"Instituto Chico Mendes de Conserva\u00e7\u00e3o da Biodiversidade","source":"openstreetmap.org","min_zoom":4.0,"tier":2,"id":-3424876,"osm_relation":true,"protect_class":"6"},"arcs":[[182]]},{"type":"Polygon","properties":{"kind":"nature_reserve","name":"Terra Ind\u00edgena Kraolandia","area":3144839936,"sort_rank":23,"operator":"Funda\u00e7\u00e3o Nacional do \u00cdndio","source":"openstreetmap.org","min_zoom":4.0,"tier":2,"id":-4287072,"osm_relation":true,"protect_class":"24"},"arcs":[[183]]},{"type":"Polygon","properties":{"kind":"nature_reserve","name":"Floresta Nacional do Jamari","area":2304090112,"sort_rank":23,"operator":"Instituto Chico Mendes de Conserva\u00e7\u00e3o da Biodiversidade","source":"openstreetmap.org","min_zoom":4.0,"tier":2,"id":-3662823,"osm_relation":true,"protect_class":"6"},"arcs":[[184]]},{"type":"Polygon","properties":{"kind":"nature_reserve","name":"Floresta Nacional de Caraj\u00e1s","area":4001900032,"sort_rank":23,"operator":"Instituto Chico Mendes de Conserva\u00e7\u00e3o da Biodiversidade","source":"openstreetmap.org","min_zoom":4.0,"tier":2,"id":-3424874,"osm_relation":true,"protect_class":"6"},"arcs":[[185]]},{"type":"Polygon","properties":{"kind":"nature_reserve","name":"Terra Ind\u00edgena Marechal Rondon","area":1071240000,"sort_rank":23,"operator":"Funda\u00e7\u00e3o Nacional do \u00cdndio","source":"openstreetmap.org","min_zoom":4.0,"tier":2,"id":-3979651,"osm_relation":true,"protect_class":"24"},"arcs":[[186]]},{"type":"Polygon","properties":{"kind":"nature_reserve","name":"Reserva Extrativista do Rio Cajari","area":5360629760,"sort_rank":23,"operator":"Instituto Chico Mendes de Conserva\u00e7\u00e3o da Biodiversidade","source":"openstreetmap.org","min_zoom":4.0,"tier":2,"id":255739512,"protect_class":"6"},"arcs":[[187]]},{"type":"Polygon","properties":{"kind":"nature_reserve","name":"Reserva Extrativista Riozinho do Anfr\u00edsio","area":7466129920,"sort_rank":23,"operator":"Instituto Chico Mendes de Conserva\u00e7\u00e3o da Biodiversidade","source":"openstreetmap.org","min_zoom":4.0,"tier":2,"id":-3542537,"osm_relation":true,"protect_class":"6"},"arcs":[[188]]},{"type":"Polygon","properties":{"kind":"nature_reserve","name":"Terra Ind\u00edgena Nambikwara","area":10693799936,"sort_rank":23,"operator":"Funda\u00e7\u00e3o Nacional do \u00cdndio","source":"openstreetmap.org","min_zoom":4.0,"tier":2,"id":-3979640,"osm_relation":true,"protect_class":"24"},"arcs":[[189]]},{"type":"Polygon","properties":{"kind":"nature_reserve","name":"Terra Ind\u00edgena Urubu Branco","area":1747440000,"sort_rank":23,"operator":"Funda\u00e7\u00e3o Nacional do \u00cdndio","source":"openstreetmap.org","min_zoom":4.0,"tier":2,"id":-3914933,"osm_relation":true,"protect_class":"24"},"arcs":[[190]]},{"type":"Polygon","properties":{"kind":"national_park","name":"Parque Nacional Tunari","area":3627640064,"sort_rank":18,"operator":"SERNAP","source":"openstreetmap.org","min_zoom":3.0,"tier":1,"id":-443850,"osm_relation":true},"arcs":[[191]]},{"type":"Polygon","properties":{"kind":"nature_reserve","name":"Reserva Extrativista do Baixo Juru\u00e1","area":1797209984,"sort_rank":23,"operator":"Instituto Chico Mendes de Conserva\u00e7\u00e3o da Biodiversidade","source":"openstreetmap.org","min_zoom":4.0,"tier":2,"id":-3817071,"osm_relation":true,"protect_class":"6"},"arcs":[[192]]},{"type":"Polygon","properties":{"kind":"nature_reserve","name":"Terra Ind\u00edgena Xikrin do Rio Catete","area":4447439872,"sort_rank":23,"operator":"Funda\u00e7\u00e3o Nacional do \u00cdndio","source":"openstreetmap.org","min_zoom":4.0,"tier":2,"id":-3542575,"osm_relation":true,"protect_class":"24"},"arcs":[[193]]},{"type":"Polygon","properties":{"kind":"national_park","name":"Parque Nacional Ambor\u00f3","area":4891360256,"sort_rank":18,"operator":"SERNAP","source":"openstreetmap.org","min_zoom":3.0,"tier":1,"id":-443981,"osm_relation":true},"arcs":[[194]]},{"type":"Polygon","properties":{"kind":"nature_reserve","name":"Reserva Extrativista Rio Unini","area":8560979968,"sort_rank":23,"operator":"Instituto Chico Mendes de Conserva\u00e7\u00e3o da Biodiversidade","source":"openstreetmap.org","min_zoom":4.0,"tier":2,"id":-3424888,"osm_relation":true,"protect_class":"6"},"arcs":[[195]]},{"type":"Polygon","properties":{"kind":"nature_reserve","name":"Floresta Nacional do Jatuarana","area":5834860032,"sort_rank":23,"operator":"Instituto Chico Mendes de Conserva\u00e7\u00e3o da Biodiversidade","source":"openstreetmap.org","min_zoom":4.0,"tier":2,"id":255739472,"protect_class":"6"},"arcs":[[196]]},{"type":"Polygon","properties":{"kind":"nature_reserve","name":"Terra Ind\u00edgena Tubar\u00e3o Latunde","area":1233670016,"sort_rank":23,"operator":"Funda\u00e7\u00e3o Nacional do \u00cdndio","source":"openstreetmap.org","min_zoom":4.0,"tier":2,"id":-3979566,"osm_relation":true,"protect_class":"24"},"arcs":[[197]]},{"type":"MultiPolygon","properties":{"kind":"nature_reserve","name":"Reserva Extrativista de Cururupu","area":1874380032,"sort_rank":23,"operator":"Instituto Chico Mendes de Conserva\u00e7\u00e3o da Biodiversidade","source":"openstreetmap.org","min_zoom":4.0,"tier":2,"id":-3424551,"osm_relation":true,"protect_class":"6"},"arcs":[[[198]]]},{"type":"Polygon","properties":{"kind":"nature_reserve","name":"Terra Ind\u00edgena Kanela","area":1278589952,"sort_rank":23,"operator":"Funda\u00e7\u00e3o Nacional do \u00cdndio","source":"openstreetmap.org","min_zoom":4.0,"tier":2,"id":-4287187,"osm_relation":true,"protect_class":"24"},"arcs":[[199]]},{"type":"Polygon","properties":{"kind":"nature_reserve","name":"Terra Ind\u00edgena Are\u00f5es","area":1932780032,"sort_rank":23,"operator":"Funda\u00e7\u00e3o Nacional do \u00cdndio","source":"openstreetmap.org","min_zoom":4.0,"tier":2,"id":-3914914,"osm_relation":true,"protect_class":"24"},"arcs":[[200]]},{"type":"Polygon","properties":{"kind":"nature_reserve","name":"Terra Ind\u00edgena Capoto\/Jarina","area":6599280128,"sort_rank":23,"operator":"Funda\u00e7\u00e3o Nacional do \u00cdndio","source":"openstreetmap.org","min_zoom":4.0,"tier":2,"id":-3542565,"osm_relation":true,"protect_class":"24"},"arcs":[[201]]},{"type":"Polygon","properties":{"kind":"nature_reserve","name":"Reserva Extrativista do M\u00e9dio Juru\u00e1","area":2553979904,"sort_rank":23,"operator":"Instituto Chico Mendes de Conserva\u00e7\u00e3o da Biodiversidade","source":"openstreetmap.org","min_zoom":4.0,"tier":2,"id":255726867,"protect_class":"6"},"arcs":[[202]]},{"type":"Polygon","properties":{"kind":"nature_reserve","name":"Terra Ind\u00edgena Caititu","area":3171180032,"sort_rank":23,"operator":"Funda\u00e7\u00e3o Nacional do \u00cdndio","source":"openstreetmap.org","min_zoom":4.0,"tier":2,"id":-4286866,"osm_relation":true,"protect_class":"24"},"arcs":[[203]]},{"type":"Polygon","properties":{"kind":"nature_reserve","name":"Esta\u00e7\u00e3o Ecol\u00f3gica da Terra do Meio","area":34310799360,"sort_rank":23,"operator":"Instituto Chico Mendes de Conserva\u00e7\u00e3o da Biodiversidade","source":"openstreetmap.org","min_zoom":4.0,"tier":2,"id":-3542533,"osm_relation":true,"protect_class":"1"},"arcs":[[204]]},{"type":"Polygon","properties":{"kind":"nature_reserve","name":"Terra Ind\u00edgena Arariboia","area":4198309888,"sort_rank":23,"operator":"Funda\u00e7\u00e3o Nacional do \u00cdndio","source":"openstreetmap.org","min_zoom":4.0,"tier":2,"id":-4287230,"osm_relation":true,"protect_class":"24"},"arcs":[[205]]},{"type":"Polygon","properties":{"kind":"nature_reserve","name":"Parque Nacional da Serra do Pardo","area":4530010112,"sort_rank":23,"operator":"Instituto Chico Mendes de Conserva\u00e7\u00e3o da Biodiversidade","source":"openstreetmap.org","min_zoom":4.0,"tier":2,"id":255809568,"protect_class":"2"},"arcs":[[206]]},{"type":"Polygon","properties":{"kind":"nature_reserve","name":"Reserva Extrativista do Rio Juta\u00ed","area":2791920128,"sort_rank":23,"operator":"Instituto Chico Mendes de Conserva\u00e7\u00e3o da Biodiversidade","source":"openstreetmap.org","min_zoom":4.0,"tier":2,"id":-3424552,"osm_relation":true,"protect_class":"6"},"arcs":[[207]]},{"type":"Polygon","properties":{"kind":"nature_reserve","name":"Floresta Nacional do Tapirap\u00e9-Aquiri","area":1998419968,"sort_rank":23,"operator":"Instituto Chico Mendes de Conserva\u00e7\u00e3o da Biodiversidade","source":"openstreetmap.org","min_zoom":4.0,"tier":2,"id":-3425867,"osm_relation":true,"protect_class":"6"},"arcs":[[208]]},{"type":"Polygon","properties":{"kind":"nature_reserve","name":"Terra Ind\u00edgena Caru","area":1732300032,"sort_rank":23,"operator":"Funda\u00e7\u00e3o Nacional do \u00cdndio","source":"openstreetmap.org","min_zoom":4.0,"tier":2,"id":-4287200,"osm_relation":true,"protect_class":"24"},"arcs":[[209]]},{"type":"Polygon","properties":{"kind":"nature_reserve","name":"Parque Nacional dos Campos Amaz\u00f4nicos","area":9886589952,"sort_rank":23,"operator":"Instituto Chico Mendes de Conserva\u00e7\u00e3o da Biodiversidade","source":"openstreetmap.org","min_zoom":4.0,"tier":2,"id":-3424883,"osm_relation":true,"protect_class":"2"},"arcs":[[210]]},{"type":"Polygon","properties":{"kind":"nature_reserve","name":"Terra Ind\u00edgena Parana do Boa Boa","area":2469580032,"sort_rank":23,"operator":"Funda\u00e7\u00e3o Nacional do \u00cdndio","source":"openstreetmap.org","min_zoom":4.0,"tier":2,"id":-3817086,"osm_relation":true,"protect_class":"24"},"arcs":[[211]]},{"type":"Polygon","properties":{"kind":"nature_reserve","name":"Reserva Extrativista do M\u00e9dio Purus","area":6188890112,"sort_rank":23,"operator":"Instituto Chico Mendes de Conserva\u00e7\u00e3o da Biodiversidade","source":"openstreetmap.org","min_zoom":4.0,"tier":2,"id":-3425873,"osm_relation":true,"protect_class":"6"},"arcs":[[212]]},{"type":"MultiPolygon","properties":{"source":"naturalearthdata.com","kind":"urban_area","name":"","area":35746977038,"sort_rank":11,"min_zoom":4.0},"arcs":[[[213]],[[214]],[[215]],[[216]],[[217]],[[218]],[[219]],[[220]],[[221]],[[222]],[[223]],[[224]],[[225]],[[226]]]},{"type":"Polygon","properties":{"kind":"nature_reserve","name":"Parque Nacional da Amaz\u00f4nia","area":10797500416,"sort_rank":23,"operator":"Instituto Chico Mendes de Conserva\u00e7\u00e3o da Biodiversidade","source":"openstreetmap.org","min_zoom":4.0,"tier":2,"id":-3426353,"osm_relation":true,"protect_class":"2"},"arcs":[[227]]},{"type":"Polygon","properties":{"kind":"nature_reserve","name":"Terra Ind\u00edgena Parque do Xingu","area":27802699776,"sort_rank":23,"operator":"Funda\u00e7\u00e3o Nacional do \u00cdndio","source":"openstreetmap.org","min_zoom":4.0,"tier":2,"id":-3542572,"osm_relation":true,"protect_class":"24"},"arcs":[[228]]},{"type":"Polygon","properties":{"kind":"nature_reserve","name":"Floresta Nacional de Caxiuan\u00e3","area":3204620032,"sort_rank":23,"operator":"Instituto Chico Mendes de Conserva\u00e7\u00e3o da Biodiversidade","source":"openstreetmap.org","min_zoom":4.0,"tier":2,"id":255739405,"protect_class":"6"},"arcs":[[229]]},{"type":"Polygon","properties":{"kind":"nature_reserve","name":"Terra Ind\u00edgena M\u00e9dio Rio Negro II","area":3196659968,"sort_rank":23,"operator":"Funda\u00e7\u00e3o Nacional do \u00cdndio","source":"openstreetmap.org","min_zoom":4.0,"tier":2,"id":-3910799,"osm_relation":true,"protect_class":"24"},"arcs":[[230]]},{"type":"Polygon","properties":{"kind":"nature_reserve","name":"Esta\u00e7\u00e3o Ecol\u00f3gica de Iqu\u00ea","area":2272300032,"sort_rank":23,"operator":"Instituto Chico Mendes de Conserva\u00e7\u00e3o da Biodiversidade","source":"openstreetmap.org","min_zoom":4.0,"tier":2,"id":255739394,"protect_class":"1"},"arcs":[[231]]},{"type":"Polygon","properties":{"kind":"nature_reserve","name":"Reserva Biol\u00f3gica do Abufari","area":2272480000,"sort_rank":23,"operator":"Instituto Chico Mendes de Conserva\u00e7\u00e3o da Biodiversidade","source":"openstreetmap.org","min_zoom":4.0,"tier":2,"id":-4286915,"osm_relation":true,"protect_class":"1"},"arcs":[[232]]},{"type":"Polygon","properties":{"kind":"nature_reserve","name":"Reserva Extrativista Gurup\u00e1-Melga\u00e7o","area":1466240000,"sort_rank":23,"operator":"Instituto Chico Mendes de Conserva\u00e7\u00e3o da Biodiversidade","source":"openstreetmap.org","min_zoom":4.0,"tier":2,"id":255739497,"protect_class":"6"},"arcs":[[233]]},{"type":"Polygon","properties":{"kind":"nature_reserve","name":"Parque Estadual do Jalap\u00e3o","area":4369920000,"sort_rank":23,"operator":"Instituto Natureza do Tocantins","source":"openstreetmap.org","min_zoom":4.0,"tier":2,"id":354606074},"arcs":[[234]]},{"type":"Polygon","properties":{"kind":"nature_reserve","name":"Floresta Nacional do Iquiri","area":15156100096,"sort_rank":23,"operator":"Instituto Chico Mendes de Conserva\u00e7\u00e3o da Biodiversidade","source":"openstreetmap.org","min_zoom":4.0,"tier":2,"id":-3426348,"osm_relation":true,"protect_class":"6"},"arcs":[[235]]},{"type":"Polygon","properties":{"kind":"nature_reserve","name":"Parque Nacional de Paca\u00e1s Novos","area":7407249920,"sort_rank":23,"operator":"Instituto Chico Mendes de Conserva\u00e7\u00e3o da Biodiversidade","source":"openstreetmap.org","min_zoom":4.0,"tier":2,"id":-3425636,"osm_relation":true,"protect_class":"2"},"arcs":[[236]]},{"type":"Polygon","properties":{"kind":"protected_area","name":"\u00c1rea de Prote\u00e7\u00e3o Ambiental do Planalto Central","area":5369119744,"sort_rank":17,"operator":"Instituto Chico Mendes de Conserva\u00e7\u00e3o da Biodiversidade","source":"openstreetmap.org","min_zoom":4.0,"tier":2,"id":-3426617,"osm_relation":true,"protect_class":"5"},"arcs":[[237]]},{"type":"Polygon","properties":{"kind":"nature_reserve","name":"Reserva Extrativista Barreiro das Antas","area":1112600064,"sort_rank":23,"operator":"Instituto Chico Mendes de Conserva\u00e7\u00e3o da Biodiversidade","source":"openstreetmap.org","min_zoom":4.0,"tier":2,"id":-3614761,"osm_relation":true,"protect_class":"6"},"arcs":[[238]]},{"type":"Polygon","properties":{"kind":"nature_reserve","name":"Esta\u00e7\u00e3o Ecol\u00f3gica Serra Geral do Tocantins","area":7356049920,"sort_rank":23,"operator":"Instituto Chico Mendes de Conserva\u00e7\u00e3o da Biodiversidade","source":"openstreetmap.org","min_zoom":4.0,"tier":2,"id":-3424871,"osm_relation":true,"protect_class":"1"},"arcs":[[239]]},{"type":"Polygon","properties":{"kind":"nature_reserve","name":"Terra Ind\u00edgena Parque do Araguaia","area":14284199936,"sort_rank":23,"operator":"Funda\u00e7\u00e3o Nacional do \u00cdndio","source":"openstreetmap.org","min_zoom":4.0,"tier":2,"id":-3914875,"osm_relation":true,"protect_class":"24"},"arcs":[[240]]},{"type":"Polygon","properties":{"kind":"nature_reserve","name":"Terra Ind\u00edgena Karipuna","area":1589730048,"sort_rank":23,"operator":"Funda\u00e7\u00e3o Nacional do \u00cdndio","source":"openstreetmap.org","min_zoom":4.0,"tier":2,"id":-3614765,"osm_relation":true,"protect_class":"24"},"arcs":[[241]]},{"type":"Polygon","properties":{"kind":"protected_area","name":"Utaria Wyhyna\/Ir\u00f2du Ir\u00e0na","area":1844450048,"sort_rank":17,"source":"openstreetmap.org","min_zoom":4.0,"tier":2,"id":-2670422,"osm_relation":true},"arcs":[[242]]},{"type":"Polygon","properties":{"kind":"protected_area","name":"Rio Negro Ocaia","area":2456120064,"sort_rank":17,"source":"openstreetmap.org","min_zoom":4.0,"tier":2,"id":-2670418,"osm_relation":true},"arcs":[[243]]},{"type":"Polygon","properties":{"kind":"nature_reserve","name":"Parque Nacional do Rio Novo","area":5516499968,"sort_rank":23,"operator":"Instituto Chico Mendes de Conserva\u00e7\u00e3o da Biodiversidade","source":"openstreetmap.org","min_zoom":4.0,"tier":2,"id":-3424548,"osm_relation":true,"protect_class":"2"},"arcs":[[244]]},{"type":"Polygon","properties":{"kind":"nature_reserve","name":"Reserva Biol\u00f3gica do Jaru","area":3598810112,"sort_rank":23,"operator":"Instituto Chico Mendes de Conserva\u00e7\u00e3o da Biodiversidade","source":"openstreetmap.org","min_zoom":4.0,"tier":2,"id":-3662501,"osm_relation":true,"protect_class":"1"},"arcs":[[245]]},{"type":"Polygon","properties":{"kind":"nature_reserve","name":"Reserva Biol\u00f3gica Nascentes da Serra do Cachimbo","area":3531770112,"sort_rank":23,"operator":"Instituto Chico Mendes de Conserva\u00e7\u00e3o da Biodiversidade","source":"openstreetmap.org","min_zoom":4.0,"tier":2,"id":-3542535,"osm_relation":true,"protect_class":"1"},"arcs":[[246]]},{"type":"Polygon","properties":{"kind":"nature_reserve","name":"Terra Ind\u00edgena Alto Turia\u00e7u","area":5344309760,"sort_rank":23,"operator":"Funda\u00e7\u00e3o Nacional do \u00cdndio","source":"openstreetmap.org","min_zoom":4.0,"tier":2,"id":-4287112,"osm_relation":true,"protect_class":"24"},"arcs":[[247]]},{"type":"Polygon","properties":{"kind":"nature_reserve","name":"Terra Ind\u00edgena Zor\u00f3","area":3699670016,"sort_rank":23,"operator":"Funda\u00e7\u00e3o Nacional do \u00cdndio","source":"openstreetmap.org","min_zoom":4.0,"tier":2,"id":-3662515,"osm_relation":true,"protect_class":"24"},"arcs":[[248]]},{"type":"Polygon","properties":{"kind":"nature_reserve","name":"Terra Ind\u00edgena Ba\u00fa","area":15745800192,"sort_rank":23,"operator":"Funda\u00e7\u00e3o Nacional do \u00cdndio","source":"openstreetmap.org","min_zoom":4.0,"tier":2,"id":-3542564,"osm_relation":true,"protect_class":"24"},"arcs":[[249]]},{"type":"Polygon","properties":{"kind":"nature_reserve","name":"Terra Ind\u00edgena Tenharim Marmelos (Gleba B)","area":7431280128,"sort_rank":23,"operator":"Funda\u00e7\u00e3o Nacional do \u00cdndio","source":"openstreetmap.org","min_zoom":4.0,"tier":2,"id":-4287012,"osm_relation":true,"protect_class":"24"},"arcs":[[250]]},{"type":"Polygon","properties":{"kind":"nature_reserve","name":"Floresta Nacional do Purus","area":2632270080,"sort_rank":23,"operator":"Instituto Chico Mendes de Conserva\u00e7\u00e3o da Biodiversidade","source":"openstreetmap.org","min_zoom":4.0,"tier":2,"id":-3424878,"osm_relation":true,"protect_class":"6"},"arcs":[[251]]},{"type":"Polygon","properties":{"kind":"nature_reserve","name":"Floresta Nacional de Humait\u00e1","area":4890650112,"sort_rank":23,"operator":"Instituto Chico Mendes de Conserva\u00e7\u00e3o da Biodiversidade","source":"openstreetmap.org","min_zoom":4.0,"tier":2,"id":-4286939,"osm_relation":true,"protect_class":"6"},"arcs":[[252]]},{"type":"MultiPolygon","properties":{"kind":"nature_reserve","name":"Floresta Nacional de Mulata","area":1900866034,"sort_rank":23,"operator":"Instituto Chico Mendes de Conserva\u00e7\u00e3o da Biodiversidade","source":"openstreetmap.org","min_zoom":4.0,"tier":2,"osm_relation":true,"protect_class":"6"},"arcs":[[[253]],[[254]]]},{"type":"Polygon","properties":{"kind":"nature_reserve","name":"Parque Nacional do Araguaia","area":5783249920,"sort_rank":23,"operator":"Instituto Chico Mendes de Conserva\u00e7\u00e3o da Biodiversidade","source":"openstreetmap.org","min_zoom":4.0,"tier":2,"id":-3424545,"osm_relation":true,"protect_class":"2"},"arcs":[[255]]},{"type":"Polygon","properties":{"kind":"nature_reserve","name":"Terra Ind\u00edgena Massaco","area":4441529856,"sort_rank":23,"operator":"Funda\u00e7\u00e3o Nacional do \u00cdndio","source":"openstreetmap.org","min_zoom":4.0,"tier":2,"id":-3614767,"osm_relation":true,"protect_class":"24"},"arcs":[[256]]},{"type":"Polygon","properties":{"kind":"nature_reserve","name":"Parque Nacional Grande Sert\u00e3o Veredas","area":2490279936,"sort_rank":23,"operator":"Instituto Chico Mendes de Conserva\u00e7\u00e3o da Biodiversidade","source":"openstreetmap.org","min_zoom":4.0,"tier":2,"id":-2634122,"osm_relation":true,"protect_class":"2"},"arcs":[[257]]},{"type":"Polygon","properties":{"kind":"nature_reserve","name":"Terra Ind\u00edgena Xipaya","area":1807110016,"sort_rank":23,"operator":"Funda\u00e7\u00e3o Nacional do \u00cdndio","source":"openstreetmap.org","min_zoom":4.0,"tier":2,"id":-3542576,"osm_relation":true,"protect_class":"24"},"arcs":[[258]]},{"type":"Polygon","properties":{"kind":"nature_reserve","name":"Terra Ind\u00edgena Kaxarari","area":1512060032,"sort_rank":23,"operator":"Funda\u00e7\u00e3o Nacional do \u00cdndio","source":"openstreetmap.org","min_zoom":4.0,"tier":2,"id":-4286643,"osm_relation":true,"protect_class":"24"},"arcs":[[259]]},{"type":"Polygon","properties":{"kind":"nature_reserve","name":"Terra Ind\u00edgena Pirah\u00e3","area":3550149888,"sort_rank":23,"operator":"Funda\u00e7\u00e3o Nacional do \u00cdndio","source":"openstreetmap.org","min_zoom":4.0,"tier":2,"id":-4286933,"osm_relation":true,"protect_class":"24"},"arcs":[[260]]},{"type":"Polygon","properties":{"kind":"nature_reserve","name":"Terra Ind\u00edgena Andir\u00e1-Marau","area":7983699968,"sort_rank":23,"operator":"Funda\u00e7\u00e3o Nacional do \u00cdndio","source":"openstreetmap.org","min_zoom":4.0,"tier":2,"id":-4286930,"osm_relation":true,"protect_class":"24"},"arcs":[[261]]},{"type":"Polygon","properties":{"kind":"nature_reserve","name":"Reserva Ind\u00edgena S\u00e3o Marcos","area":1881859968,"sort_rank":23,"operator":"Funda\u00e7\u00e3o Nacional do \u00cdndio","source":"openstreetmap.org","min_zoom":4.0,"tier":2,"id":-3979548,"osm_relation":true,"protect_class":"24"},"arcs":[[262]]},{"type":"Polygon","properties":{"kind":"nature_reserve","name":"Reserva Biol\u00f3gica do Tapirap\u00e9","area":1008990016,"sort_rank":23,"operator":"Instituto Chico Mendes de Conserva\u00e7\u00e3o da Biodiversidade","source":"openstreetmap.org","min_zoom":4.0,"tier":2,"id":-3424886,"osm_relation":true,"protect_class":"1"},"arcs":[[263]]},{"type":"Polygon","properties":{"kind":"nature_reserve","name":"Floresta Nacional do Bom Futuro","area":1007729984,"sort_rank":23,"operator":"Instituto Chico Mendes de Conserva\u00e7\u00e3o da Biodiversidade","source":"openstreetmap.org","min_zoom":4.0,"tier":2,"id":-3614760,"osm_relation":true,"protect_class":"6"},"arcs":[[264]]},{"type":"Polygon","properties":{"kind":"nature_reserve","name":"Terra Ind\u00edgena Seruini\/Mariene","area":1487320064,"sort_rank":23,"operator":"Funda\u00e7\u00e3o Nacional do \u00cdndio","source":"openstreetmap.org","min_zoom":4.0,"tier":2,"id":-4286758,"osm_relation":true,"protect_class":"24"},"arcs":[[265]]},{"type":"Polygon","properties":{"kind":"nature_reserve","name":"Terra Ind\u00edgena Koatinemo","area":3928389888,"sort_rank":23,"operator":"Funda\u00e7\u00e3o Nacional do \u00cdndio","source":"openstreetmap.org","min_zoom":4.0,"tier":2,"id":-3542568,"osm_relation":true,"protect_class":"24"},"arcs":[[266]]},{"type":"Polygon","properties":{"kind":"nature_reserve","name":"Terra Ind\u00edgena Escondido","area":1746720000,"sort_rank":23,"operator":"Funda\u00e7\u00e3o Nacional do \u00cdndio","source":"openstreetmap.org","min_zoom":4.0,"tier":2,"id":-3662505,"osm_relation":true,"protect_class":"24"},"arcs":[[267]]},{"type":"Polygon","properties":{"kind":"nature_reserve","name":"Terra Ind\u00edgena Roosevelt","area":2411869952,"sort_rank":23,"operator":"Funda\u00e7\u00e3o Nacional do \u00cdndio","source":"openstreetmap.org","min_zoom":4.0,"tier":2,"id":-3662510,"osm_relation":true,"protect_class":"24"},"arcs":[[268]]},{"type":"Polygon","properties":{"kind":"nature_reserve","name":"Terra Ind\u00edgena Cunh\u00e3-Sapucaia","area":4769460224,"sort_rank":23,"operator":"Funda\u00e7\u00e3o Nacional do \u00cdndio","source":"openstreetmap.org","min_zoom":4.0,"tier":2,"id":-4286977,"osm_relation":true,"protect_class":"24"},"arcs":[[269]]},{"type":"Polygon","properties":{"kind":"nature_reserve","name":"Parque Nacional da Chapada dos Veadeiros","area":2372480000,"sort_rank":23,"operator":"Instituto Chico Mendes de Conserva\u00e7\u00e3o da Biodiversidade","source":"openstreetmap.org","min_zoom":4.0,"tier":2,"id":-7681461,"osm_relation":true,"protect_class":"2"},"arcs":[[270],[271],[272]]},{"type":"Polygon","properties":{"kind":"nature_reserve","name":"Floresta Nacional do Tapaj\u00f3s","area":5280119808,"sort_rank":23,"operator":"Instituto Chico Mendes de Conserva\u00e7\u00e3o da Biodiversidade","source":"openstreetmap.org","min_zoom":4.0,"tier":2,"id":-3426349,"osm_relation":true,"protect_class":"6"},"arcs":[[273]]},{"type":"Polygon","properties":{"kind":"protected_area","name":"\u00c1rea de Prote\u00e7\u00e3o Ambiental Meandros do Rio Araguaia","area":3807579904,"sort_rank":17,"operator":"Instituto Chico Mendes de Conserva\u00e7\u00e3o da Biodiversidade","source":"openstreetmap.org","min_zoom":4.0,"tier":2,"id":-3425876,"osm_relation":true,"protect_class":"5"},"arcs":[[274]]},{"type":"Polygon","properties":{"kind":"nature_reserve","name":"Floresta Nacional de Itaituba I","area":2162010112,"sort_rank":23,"operator":"Instituto Chico Mendes de Conserva\u00e7\u00e3o da Biodiversidade","source":"openstreetmap.org","min_zoom":4.0,"tier":2,"id":-3426342,"osm_relation":true,"protect_class":"6"},"arcs":[[275]]},{"type":"Polygon","properties":{"kind":"nature_reserve","name":"Terra Ind\u00edgena Panar\u00e1","area":5156639744,"sort_rank":23,"operator":"Funda\u00e7\u00e3o Nacional do \u00cdndio","source":"openstreetmap.org","min_zoom":4.0,"tier":2,"id":-3542571,"osm_relation":true,"protect_class":"24"},"arcs":[[276]]}]}},"type":"Topology","transform":{"translate":[-67.5,-21.9430455334],"scale":[0.0054931641,0.0053571889]},"arcs":[[[0,2146],[15,11],[15,6],[10,7],[16,1],[15,8],[69,55],[28,14],[18,3],[14,3],[25,8],[62,7],[39,4],[13,-8],[14,2],[13,12],[10,4],[7,0],[11,-14],[5,-16],[-4,-12],[1,-17],[5,-22],[-3,-20],[-15,-26],[-7,-10],[-2,-11],[1,-15],[7,-24],[12,-33],[2,-25],[-9,-16],[-4,-14],[1,-11],[3,-8],[6,-5],[3,-9],[0,-14],[8,-14],[14,-13],[5,-12],[-2,-12],[0,-7],[4,-3],[4,2],[5,3],[5,-1],[9,-16],[2,-3],[5,-14],[1,-10],[15,-6],[15,-5],[9,-5],[17,-16],[14,-11],[18,-9],[6,-14],[11,-21],[30,-8],[35,-4],[22,-5],[28,11],[18,-1],[19,-8],[8,-5],[14,-11],[21,-14],[18,-5],[12,8],[12,2],[9,-3],[5,-15],[4,-10],[11,-8],[22,-20],[13,-8],[14,0],[30,-13],[31,-12],[16,-2],[16,1],[11,-4],[4,-16],[27,-30],[13,-12],[15,-11],[39,0],[12,-3],[18,3],[52,5],[9,2],[30,-13],[35,-20],[23,-15],[16,-8],[9,-14],[6,-14],[4,-15],[-5,-15],[-6,-6],[-2,-10],[3,-14],[11,-13],[4,-16],[7,-29],[7,-9],[5,-88],[-24,0],[-33,-1],[10,-9],[27,-32],[25,-30],[4,-49],[3,-30],[3,-43],[2,-26],[63,-2],[72,-3],[87,-3],[76,-3],[8,0],[13,4],[9,4],[6,0],[0,-10],[-1,-13],[0,-15],[-22,-30],[-2,-9],[4,-40],[7,-31],[4,-29],[9,-9],[26,-15],[39,-28],[16,-4],[13,4],[8,-11],[1,-19],[22,-51],[14,-33],[6,-11],[10,-6],[-2,-4],[-8,-2],[-4,-6],[-12,-37],[-16,-48],[-10,-34],[9,0],[1,-10],[2,-14],[-12,-2],[-3,-5],[-14,-27],[-17,-37],[-19,-37],[-11,-23],[19,-16],[31,-27],[-5,-8],[-13,-4],[-11,-3],[-9,-10],[-5,-8],[-12,-2]],[[901,0],[13,44],[17,55],[20,65],[0,45],[0,49],[28,39],[20,29],[17,26],[18,46],[12,31],[44,7],[76,16],[38,8],[79,17],[81,17],[85,1],[82,1],[64,-38],[48,-29],[54,-32],[3,-7],[4,-27],[-4,-31]],[[279,0],[-17,12],[-7,8],[-14,6],[-8,0],[-5,-5],[-6,-21]],[[1739,0],[3,6],[-3,11],[1,10],[2,9],[3,10],[-2,9],[-1,10],[-1,9],[-2,10],[7,14],[6,12],[-3,10],[1,6],[5,12],[6,13],[-1,25],[-5,15],[-6,4],[-1,5],[2,6],[-3,6],[-1,6],[3,5],[-4,11],[-9,3],[-3,3],[-3,12],[-2,13],[1,11],[-4,9],[-6,6],[-6,10],[-6,7],[-3,10],[-4,14]],[[2928,283],[-1,6],[2,4],[3,3],[-8,14],[2,5],[8,-4],[13,-1],[7,5],[17,0],[4,3],[-3,10],[4,7],[9,-6],[5,1],[5,14],[0,16],[-1,44],[4,11],[6,10],[5,-11],[3,-35],[1,-13],[26,9],[25,17],[16,4],[-16,-23],[-22,-9],[-10,-7],[-17,-11],[-9,-15],[2,-12],[8,-6],[4,-10],[-13,2],[-10,-4],[-10,-1],[-4,0],[-6,-3],[-11,-3],[-7,-4],[12,-13],[21,-10],[0,-3],[-24,6],[-20,10],[-10,-2],[-6,2],[-4,3]],[[4096,3810],[-5,3],[-9,9],[-19,-7],[-10,-23],[-8,-13],[-9,-4],[-4,28],[-19,40],[-18,5],[-16,-4],[-25,19],[-35,11],[-13,16],[-18,-3],[-13,4],[-1,13],[-18,-2],[-19,2],[-17,6],[-18,5],[-5,10],[-23,15],[-8,10],[-15,0],[-9,7],[-15,-1],[-18,1],[-14,12],[-12,7],[-24,3],[-7,-4],[-4,-6],[5,-8],[3,-8],[-10,3],[-16,15],[-17,-9],[-6,-1],[-8,2],[-8,7],[-6,2],[-14,-5],[-14,-15],[-13,12],[-7,-1],[-8,-5],[-3,-10],[-13,-7],[-12,-12],[-9,-12],[2,-15],[-26,-20],[7,-15],[-12,-18],[2,-13],[3,-8],[18,-9],[-17,-7],[-3,-17],[-13,8],[-12,15],[-20,0],[-52,-64],[-29,-9],[-11,-7],[-35,-80],[-9,-30],[-13,-17],[-9,-6],[-11,-5],[7,14],[8,12],[9,44],[8,17],[11,41],[16,45],[-50,-26],[-24,-11],[-34,11],[-17,7],[-21,-5],[-11,-7],[-16,-5],[-26,-17],[-33,31],[-10,6],[-9,10],[3,13],[-1,9],[-19,29],[-6,21],[-2,12],[-3,16],[-10,12],[-3,9],[14,14],[-1,7],[-9,12],[-18,-9],[-7,-9],[-31,-19],[-17,-16],[-43,-25],[-21,-7],[-55,-36],[-45,-10],[-21,15],[-64,1],[20,7],[59,29],[38,-7],[7,6],[9,9],[2,26],[19,11],[18,19],[-1,30],[4,18],[27,39],[10,8],[17,22],[19,40],[3,17],[33,10],[5,6],[111,0],[4,-1],[0,1],[71,0],[9,-5],[16,1],[11,4],[22,0],[-12,-10],[-5,-8],[22,-9],[48,6],[11,11],[2,10],[796,0],[0,-251],[-2,0],[-2,-5],[4,-2],[0,-28]],[[3253,4053],[-112,21],[-39,-7],[-34,-22],[-9,-17],[-4,-20],[3,-11],[-3,-10],[-10,-11],[-1,-9],[-3,-40],[2,-20],[14,-12],[21,1],[3,-6],[-1,-7],[-3,-1],[-13,3],[-11,1],[-6,-22],[7,-24],[9,-27],[10,-23],[3,-11],[17,-17],[12,-2],[19,8],[42,2],[8,8],[10,-1],[18,-10],[19,-5],[11,6],[17,4],[12,4],[11,16],[4,22],[18,-8],[11,-8],[20,-1],[6,8],[4,14],[1,13],[16,-17],[9,-2],[9,2],[11,4],[17,18],[5,11],[-4,10],[-2,9],[9,10],[11,8],[5,4],[14,23],[10,17],[4,9],[2,8],[-5,22],[8,-1],[4,5],[6,24],[7,18],[9,16],[-3,10],[-9,5],[-13,5],[-13,3],[-36,3],[-60,9],[-18,1],[-18,-1],[-17,-9],[-24,-4],[-17,1]],[[2974,3972],[-17,23],[-31,-5],[-22,-15],[-24,-39],[0,-43],[-22,-21],[-25,-47],[19,3],[36,18],[31,24],[28,35],[6,0],[21,67]],[[3067,4071],[0,5],[-3,9],[-18,3],[-14,-1],[-27,-11],[-6,-12],[1,-3],[-3,-7],[3,-7],[17,-12],[50,36]],[[3239,3271],[-19,2],[-3,3],[-7,13],[1,5],[8,7],[0,12],[2,4],[10,11],[1,10],[5,6],[0,13],[1,19],[5,4],[11,-2],[6,-21],[9,-31],[3,-19],[0,-6],[5,-4],[9,-15],[4,-17],[-1,-7],[15,-21],[10,-14],[-4,-9],[6,-14],[-1,-7],[-10,-8],[1,-12],[11,-41],[19,-21],[39,0],[4,-5],[-6,-6],[-36,-10],[-20,16],[-13,22],[-12,26],[-21,37],[-3,20],[-8,17],[-15,6],[-7,5],[7,8],[4,12],[-4,9],[-6,3]],[[95,296],[-8,-14],[-34,-34],[-14,-9],[-6,-8],[-16,5],[-17,15],[0,160],[14,5],[30,-9],[8,-16],[7,-38],[18,-36],[18,-21]],[[4096,579],[-8,3],[-13,-1],[-2,-3],[1,-7],[8,-23],[-2,-8],[-4,4],[-8,15],[-8,-2],[-3,-1],[-17,-2],[-16,-6],[0,13],[2,3],[24,2],[8,5],[3,10],[-4,14],[-4,0],[-2,-15],[-6,-3],[-11,4],[0,6],[9,6],[6,16],[1,11],[-5,-1],[-14,-6],[-3,4],[4,3],[4,4],[6,11],[-4,8],[-9,2],[-6,-7],[-5,-6],[-9,-1],[-7,-4],[2,7],[5,14],[8,7],[14,7],[1,7],[4,11],[0,5],[-9,1],[4,5],[13,7],[4,0],[6,-5],[-4,-12],[-6,-22],[5,-11],[8,-3],[4,-5],[1,-10],[1,-7],[6,1],[3,-2],[-1,-5],[-3,-9],[0,-9],[10,-8],[11,3],[4,7],[3,-3],[0,-19]],[[95,296],[-8,-14],[-34,-34],[-14,-9],[-6,-8],[-16,5],[-17,15]],[[0,411],[14,5],[30,-9],[8,-16],[7,-38],[18,-36],[18,-21]],[[3481,4030],[-3,10],[-9,5],[-13,5],[-13,3],[-36,3],[-60,9],[-18,1],[-18,-1],[-17,-9],[-24,-4],[-17,1],[-112,21],[-39,-7],[-34,-22],[-9,-17],[-4,-20],[3,-11],[-3,-10],[-10,-11],[-1,-9],[-3,-40],[2,-20],[14,-12],[21,1],[3,-6],[-1,-7],[-3,-1],[-13,3],[-11,1],[-6,-22],[7,-24],[9,-27],[10,-23],[3,-11],[17,-17],[12,-2],[19,8],[42,2],[8,8],[10,-1],[18,-10],[19,-5],[11,6],[17,4],[12,4],[11,16],[4,22],[18,-8],[11,-8],[20,-1],[6,8],[4,14],[1,13],[16,-17],[9,-2],[9,2],[11,4],[17,18],[5,11],[-4,10],[-2,9],[9,10],[11,8],[5,4],[14,23],[10,17],[4,9],[2,8],[-5,22],[8,-1],[4,5],[6,24],[7,18],[9,16]],[[3239,3271],[-19,2],[-3,3],[-7,13],[1,5],[8,7],[0,12],[2,4],[10,11],[1,10],[5,6],[0,13],[1,19],[5,4],[11,-2],[6,-21],[9,-31],[3,-19],[0,-6],[5,-4],[9,-15],[4,-17],[-1,-7],[15,-21],[10,-14],[-4,-9],[6,-14],[-1,-7],[-10,-8],[1,-12],[11,-41],[19,-21],[39,0],[4,-5],[-6,-6],[-36,-10],[-20,16],[-13,22],[-12,26],[-21,37],[-3,20],[-8,17],[-15,6],[-7,5],[7,8],[4,12],[-4,9],[-6,3]],[[4096,579],[-8,3],[-13,-1],[-2,-3],[1,-7],[8,-23],[-2,-8],[-4,4],[-8,15],[-8,-2],[-3,-1],[-17,-2],[-16,-6],[0,13],[2,3],[24,2],[8,5],[3,10],[-4,14],[-4,0],[-2,-15],[-6,-3],[-11,4],[0,6],[9,6],[6,16],[1,11],[-5,-1],[-14,-6],[-3,4],[4,3],[4,4],[6,11],[-4,8],[-9,2],[-6,-7],[-5,-6],[-9,-1],[-7,-4],[2,7],[5,14],[8,7],[14,7],[1,7],[4,11],[0,5],[-9,1],[4,5],[13,7],[4,0],[6,-5],[-4,-12],[-6,-22],[5,-11],[8,-3],[4,-5],[1,-10],[1,-7],[6,1],[3,-2],[-1,-5],[-3,-9],[0,-9],[10,-8],[11,3],[4,7],[3,-3]],[[2928,283],[-1,6],[2,4],[3,3],[-8,14],[2,5],[8,-4],[13,-1],[7,5],[17,0],[4,3],[-3,10],[4,7],[9,-6],[5,1],[5,14],[0,16],[-1,44],[4,11],[6,10],[5,-11],[3,-35],[1,-13],[26,9],[25,17],[16,4],[-16,-23],[-22,-9],[-10,-7],[-17,-11],[-9,-15],[2,-12],[8,-6],[4,-10],[-13,2],[-10,-4],[-10,-1],[-4,0],[-6,-3],[-11,-3],[-7,-4],[12,-13],[21,-10],[0,-3],[-24,6],[-20,10],[-10,-2],[-6,2],[-4,3]],[[2957,3995],[-31,-5],[-22,-15],[-24,-39],[0,-43],[-22,-21],[-25,-47],[19,3],[36,18],[31,24],[28,35],[6,0],[21,67],[-17,23]],[[4096,3845],[-2,0],[-2,-5],[4,-2]],[[3176,4096],[9,-5],[16,1],[11,4]],[[3067,4071],[0,5],[-3,9],[-18,3],[-14,-1],[-27,-11],[-6,-12],[1,-3],[-3,-7],[3,-7],[17,-12],[50,36]],[[3239,4069],[48,6],[11,11],[2,10]],[[3234,4096],[-12,-10],[-5,-8],[22,-9]],[[3101,4096],[4,-1],[0,1]],[[4096,3810],[-5,3],[-9,9],[-19,-7],[-10,-23],[-8,-13],[-9,-4],[-4,28],[-19,40],[-18,5],[-16,-4],[-25,19],[-35,11],[-13,16],[-18,-3],[-13,4],[-1,13],[-18,-2],[-19,2],[-17,6],[-18,5],[-5,10],[-23,15],[-8,10],[-15,0],[-9,7],[-15,-1],[-18,1],[-14,12],[-12,7],[-24,3],[-7,-4],[-4,-6],[5,-8],[3,-8],[-10,3],[-16,15],[-17,-9],[-6,-1],[-8,2],[-8,7],[-6,2],[-14,-5],[-14,-15],[-13,12],[-7,-1],[-8,-5],[-3,-10],[-13,-7],[-12,-12],[-9,-12],[2,-15],[-26,-20],[7,-15],[-12,-18],[2,-13],[3,-8],[18,-9],[-17,-7],[-3,-17],[-13,8],[-12,15],[-20,0],[-52,-64],[-29,-9],[-11,-7],[-35,-80],[-9,-30],[-13,-17],[-9,-6],[-11,-5],[7,14],[8,12],[9,44],[8,17],[11,41],[16,45],[-50,-26],[-24,-11],[-34,11],[-17,7],[-21,-5],[-11,-7],[-16,-5],[-26,-17],[-33,31],[-10,6],[-9,10],[3,13],[-1,9],[-19,29],[-6,21],[-2,12],[-3,16],[-10,12],[-3,9],[14,14],[-1,7],[-9,12],[-18,-9],[-7,-9],[-31,-19],[-17,-16],[-43,-25],[-21,-7],[-55,-36],[-45,-10],[-21,15],[-64,1],[20,7],[59,29],[38,-7],[7,6],[9,9],[2,26],[19,11],[18,19],[-1,30],[4,18],[27,39],[10,8],[17,22],[19,40],[3,17],[33,10],[5,6]],[[4096,3810],[0,-3810],[-4096,0],[0,4096],[2990,0],[-5,-6],[-33,-10],[-3,-17],[-19,-40],[-17,-22],[-10,-8],[-27,-39],[-4,-18],[1,-30],[-18,-19],[-19,-11],[-2,-26],[-9,-9],[-7,-6],[-38,7],[-59,-29],[-20,-7],[64,-1],[21,-15],[45,10],[55,36],[21,7],[43,25],[17,16],[31,19],[7,9],[18,9],[9,-12],[1,-7],[-14,-14],[3,-9],[10,-12],[3,-16],[2,-12],[6,-21],[19,-29],[1,-9],[-3,-13],[9,-10],[10,-6],[33,-31],[26,17],[16,5],[11,7],[21,5],[17,-7],[34,-11],[24,11],[50,26],[-16,-45],[-11,-41],[-8,-17],[-9,-44],[-8,-12],[-7,-14],[11,5],[9,6],[13,17],[9,30],[35,80],[11,7],[29,9],[52,64],[20,0],[12,-15],[13,-8],[3,17],[17,7],[-18,9],[-3,8],[-2,13],[12,18],[-7,15],[26,20],[-2,15],[9,12],[12,12],[13,7],[3,10],[8,5],[7,1],[13,-12],[14,15],[14,5],[6,-2],[8,-7],[8,-2],[6,1],[17,9],[16,-15],[10,-3],[-3,8],[-5,8],[4,6],[7,4],[24,-3],[12,-7],[14,-12],[18,-1],[15,1],[9,-7],[15,0],[8,-10],[23,-15],[5,-10],[18,-5],[17,-6],[19,-2],[18,2],[1,-13],[13,-4],[18,3],[13,-16],[35,-11],[25,-19],[16,4],[18,-5],[19,-40],[4,-28],[9,4],[8,13],[10,23],[19,7],[9,-9],[5,-3]],[[2852,3828],[-19,-3],[25,47],[22,21],[0,43],[24,39],[22,15],[31,5],[17,-23],[-21,-67],[-6,0],[-28,-35],[-31,-24],[-36,-18]],[[3067,4071],[-50,-36],[-17,12],[-3,7],[3,7],[-1,3],[6,12],[27,11],[14,1],[18,-3],[3,-9],[0,-5]],[[3253,4053],[17,-1],[24,4],[17,9],[18,1],[18,-1],[60,-9],[36,-3],[13,-3],[13,-5],[9,-5],[3,-10],[-9,-16],[-7,-18],[-6,-24],[-4,-5],[-8,1],[5,-22],[-2,-8],[-4,-9],[-10,-17],[-14,-23],[-5,-4],[-11,-8],[-9,-10],[2,-9],[4,-10],[-5,-11],[-17,-18],[-11,-4],[-9,-2],[-9,2],[-16,17],[-1,-13],[-4,-14],[-6,-8],[-20,1],[-11,8],[-18,8],[-4,-22],[-11,-16],[-12,-4],[-17,-4],[-11,-6],[-19,5],[-18,10],[-10,1],[-8,-8],[-42,-2],[-19,-8],[-12,2],[-17,17],[-3,11],[-10,23],[-9,27],[-7,24],[6,22],[11,-1],[13,-3],[3,1],[1,7],[-3,6],[-21,-1],[-14,12],[-2,20],[3,40],[1,9],[10,11],[3,10],[-3,11],[4,20],[9,17],[34,22],[39,7],[112,-21]],[[3287,4075],[-48,-6],[-22,9],[5,8],[12,10],[66,0],[-2,-10],[-11,-11]],[[2548,3384],[66,55],[1,-20],[74,19],[14,-55],[-110,-34],[-45,35]],[[2696,3050],[13,29],[109,-1],[60,41],[56,-18],[-54,-105],[-37,-21],[-83,1],[-64,74]],[[29,4096],[-1,-60],[-28,-18],[0,78],[29,0]],[[462,1871],[25,26],[34,-28],[31,10],[-52,-52],[-38,44]],[[2820,3233],[13,97],[36,38],[40,24],[-1,-18],[44,-5],[52,-77],[0,-212],[-55,-3],[-56,43],[-73,-22],[0,135]],[[131,2548],[27,41],[-15,50],[65,-5],[-25,-36],[26,-10],[-78,-40]],[[3,3800],[65,69],[119,3],[11,34],[62,-32],[-113,-109],[-46,58],[-98,-23]],[[1267,2003],[15,42],[85,-26],[28,56],[68,20],[-14,-69],[59,-35],[-41,-138],[-86,-15],[-37,-94],[-63,153],[-14,106]],[[2626,3156],[44,116],[30,11],[-45,-130],[34,-108],[-19,-9],[-28,37],[-16,83]],[[825,1816],[71,72],[47,-50],[-69,-70],[-49,48]],[[3739,3390],[50,80],[-18,18],[2,15],[8,3],[37,-88],[-32,-23],[59,-19],[-68,-50],[-38,64]],[[3732,327],[15,22],[93,-20],[3,-22],[-31,1],[1,-5],[61,-62],[-142,86]],[[2193,4096],[-39,-127],[16,-33],[-92,74],[2,86],[113,0]],[[3947,3076],[25,22],[74,-62],[-21,-45],[-78,85]],[[2306,3111],[51,51],[-17,50],[176,56],[9,-29],[-137,-37],[5,-128],[-31,62],[-56,-25]],[[3909,2968],[8,52],[68,-2],[-39,-66],[-37,16]],[[1716,1696],[6,22],[78,16],[-2,58],[33,-23],[11,-68],[-23,-27],[-95,1],[-8,21]],[[728,1533],[127,24],[64,-74],[-100,-62],[-22,85],[-34,-16],[-35,43]],[[1738,2588],[20,35],[31,-88],[55,-57],[77,74],[51,-14],[0,-128],[-99,-35],[-94,21],[-14,27],[25,14],[-43,23],[14,42],[-23,86]],[[443,4096],[-25,-75],[-153,29],[-17,32],[195,14]],[[1804,2053],[36,36],[30,-16],[-7,-53],[-59,33]],[[640,3620],[45,23],[-10,23],[36,14],[10,35],[120,59],[75,-30],[48,32],[127,8],[-2,23],[19,-16],[11,-47],[-32,-13],[-11,-58],[-217,-130],[-95,48],[-74,-22],[-15,51],[-35,0]],[[2093,3406],[34,131],[27,21],[-8,30],[87,27],[40,48],[-60,-200],[-120,-57]],[[0,676],[47,11],[-26,53],[49,-4],[57,-210],[-39,-40],[-6,24],[-82,34],[0,132]],[[1574,3067],[9,33],[68,50],[60,119],[-65,91],[34,9],[-3,29],[112,-180],[106,142],[-65,-144],[-256,-149]],[[3853,1397],[24,56],[53,-33],[-21,-65],[-56,42]],[[1654,2123],[15,28],[45,-38],[-1,-62],[-40,-9],[-19,81]],[[3106,3156],[13,76],[68,41],[40,-36],[-56,-104],[-65,23]],[[1610,1508],[55,73],[14,101],[51,-119],[-15,-80],[-104,0],[-1,25]],[[0,1380],[0,1],[0,-1]],[[0,3368],[9,8],[58,-115],[-19,-5],[-3,-75],[-45,-36],[0,223]],[[1330,3873],[28,29],[-5,34],[75,-24],[44,51],[113,-85],[-44,-50],[-21,-75],[-43,4],[-9,46],[-138,70]],[[658,2556],[94,52],[85,0],[-53,-40],[-42,19],[-26,-55],[-58,24]],[[0,1985],[57,-9],[-31,-34],[-26,3],[0,40]],[[476,1237],[12,27],[29,-6],[28,-47],[-38,-14],[-31,40]],[[14,1438],[85,111],[39,1],[-29,-91],[-62,-47],[-33,26]],[[561,1548],[29,39],[42,-33],[-34,-39],[-37,33]],[[194,1638],[19,70],[61,35],[41,-138],[-80,-39],[-33,19],[-8,53]],[[1377,1738],[46,55],[0,45],[47,15],[44,62],[3,-32],[44,-24],[58,-12],[29,23],[-13,-93],[-58,-47],[-18,7],[12,80],[-170,-89],[-24,10]],[[0,3688],[37,27],[64,27],[-24,-70],[-77,-5],[0,21]],[[2769,2485],[92,-11],[-15,-82],[-35,-10],[-42,103]],[[1276,1447],[19,14],[47,-100],[21,-54],[-14,-28],[-73,168]],[[1016,1741],[32,28],[36,-39],[-53,-28],[-15,39]],[[2520,3660],[19,64],[51,-17],[-4,-68],[-58,-15],[-8,36]],[[2534,3696],[8,-3],[4,4],[-2,3],[-10,-4]],[[1902,3893],[55,81],[71,-93],[10,-62],[-94,5],[-42,69]],[[196,4010],[107,38],[70,-16],[-4,-22],[-73,9],[-89,-32],[-11,23]],[[1089,3873],[80,163],[89,18],[21,40],[115,2],[3,-75],[-24,-30],[-36,2],[6,-95],[-12,-35],[-42,8],[-27,-127],[-128,-5],[-45,134]],[[1147,3700],[72,18],[24,-20],[-24,-76],[82,-92],[-40,0],[-60,65],[-54,105]],[[2931,2973],[40,9],[23,38],[99,-21],[-93,-34],[-69,8]],[[2555,1407],[17,50],[32,-26],[29,32],[32,-48],[-53,-48],[-57,40]],[[1281,2046],[3,52],[49,8],[15,123],[87,0],[-19,-66],[16,-34],[29,4],[-4,-39],[-62,-19],[-28,-56],[-65,3],[-21,24]],[[2617,2750],[13,24],[83,-24],[156,45],[72,-16],[45,33],[47,-35],[-22,-73],[23,-48],[-85,-96],[-58,5],[9,-34],[-39,-57],[-92,11],[-64,38],[-17,142],[-40,-22],[-31,107]],[[1724,2981],[101,225],[55,-34],[36,13],[-68,-116],[-63,-40],[-28,-51],[-33,3]],[[482,2009],[3,36],[44,7],[41,-34],[-88,-9]],[[105,1108],[46,2],[118,-114],[14,-29],[-20,-42],[-27,34],[28,-12],[-19,60],[-30,-37],[-49,16],[-61,122]],[[3700,2970],[40,67],[28,-9],[13,-61],[-81,3]],[[2570,3628],[29,27],[-22,66],[35,8],[45,58],[120,24],[-11,-82],[36,-85],[-22,-49],[-108,-15],[-102,48]],[[1447,2034],[24,57],[37,-10],[0,-90],[-61,43]],[[304,2423],[52,96],[-41,43],[43,52],[71,13],[109,-121],[-20,-22],[-41,41],[-1,-20],[-103,-31],[-8,-44],[-61,-7]],[[2565,4025],[39,23],[17,-33],[74,-3],[3,27],[-47,31],[75,-2],[-31,-68],[-62,-10],[-35,-54],[-15,30],[18,21],[-36,38]],[[2656,3151],[56,173],[54,-54],[22,-89],[32,52],[-2,-155],[-122,-10],[-36,27],[-4,56]],[[139,2775],[78,91],[41,-43],[-22,-10],[-4,-54],[-93,16]],[[223,3265],[35,102],[37,-38],[123,109],[40,8],[-7,-94],[-52,-79],[-153,-36],[-23,28]],[[1864,2741],[32,64],[79,-10],[92,47],[-16,-127],[-64,-98],[-31,12],[0,121],[-40,0],[-25,-61],[-4,53],[-23,-1]],[[1794,2978],[27,10],[0,16],[15,10],[-3,-2],[5,-5],[-1,-8],[-1,-2],[-1,-2],[-1,-2],[0,-1],[0,-1],[-1,0],[0,-3],[1,-1],[21,36],[31,-22],[-31,24],[33,31],[-2,-22],[14,-21],[31,8],[-40,22],[13,23],[5,-15],[1,9],[4,-10],[2,1],[-11,21],[12,32],[48,-65],[-1,9],[9,-9],[13,-4],[1,0],[-33,23],[60,0],[35,-27],[25,-49],[-11,-35],[59,15],[1,-17],[-128,-108],[-61,4],[23,110],[27,25],[-67,0],[-27,22],[-38,-86],[-48,29],[20,6],[-30,31]],[[552,2038],[16,48],[72,3],[0,43],[95,-34],[1,38],[44,20],[56,-81],[-17,-18],[19,-47],[36,9],[29,-74],[-56,-37],[-62,9],[-17,-31],[-109,1],[-20,43],[25,61],[-72,12],[-40,35]],[[2456,1180],[24,82],[17,0],[4,-99],[-45,17]],[[3482,2334],[5,28],[36,-26],[44,17],[2,-77],[-57,2],[-30,56]],[[3936,2927],[24,53],[83,4],[-30,-88],[-64,-32],[-13,63]],[[2166,3069],[15,19],[110,0],[46,-173],[-14,-20],[-136,31],[42,90],[-63,53]],[[455,4096],[7,-58],[-33,-1],[-25,59],[51,0]],[[3133,3829],[50,11],[18,54],[26,-34],[45,14],[-26,-41],[-97,-36],[-16,32]],[[4018,2435],[7,47],[71,-28],[-29,-50],[-49,31]],[[814,3219],[83,27],[75,-15],[-110,-43],[-39,2],[-9,29]],[[829,2703],[81,62],[29,-11],[-14,-106],[-96,55]],[[0,3551],[38,7],[-9,-24],[24,-19],[-43,-42],[-10,-3],[0,81]],[[223,2753],[13,60],[71,54],[145,4],[-35,-67],[-71,-4],[-48,-43],[51,-49],[-99,5],[-27,40]],[[1307,1629],[14,19],[45,-16],[-6,-94],[50,-30],[44,-84],[-26,0],[1,33],[-41,-19],[22,21],[-33,52],[-49,-3],[17,31],[-16,35],[28,22],[-50,33]],[[1678,2882],[83,54],[18,-15],[4,-26],[-29,19],[-25,-63],[-51,31]],[[971,2516],[0,122],[61,0],[-2,-59],[38,22],[8,-21],[-49,-137],[-48,9],[-8,64]],[[1030,1568],[48,10],[103,0],[99,-57],[16,-36],[-20,-37],[40,-81],[5,-89],[-61,0],[-53,62],[-47,10],[-71,161],[-59,57]],[[1941,3131],[5,1],[0,-1],[0,1],[1,-4],[2,-1],[12,4],[-18,3],[10,35],[4,0],[1,-12],[12,-7],[-2,55],[10,-15],[1,19],[21,2],[-10,-16],[10,7],[-2,-7],[3,4],[-1,-6],[7,0],[1,-5],[-13,1],[6,-4],[-8,-1],[4,-2],[-3,-2],[2,-1],[-2,-4],[1,-1],[0,-1],[2,9],[4,-2],[0,5],[3,-2],[-1,3],[5,1],[2,3],[-11,19],[13,-6],[-1,-15],[-12,-11],[11,-18],[-9,-13],[6,-2],[7,5],[3,8],[-11,11],[0,11],[12,-4],[-3,-3],[6,-14],[-2,-1],[1,-3],[-1,1],[-1,-1],[-1,0],[-1,0],[6,-1],[-1,5],[3,-2],[-5,10],[13,-7],[1,1],[-22,22],[17,1],[-13,9],[0,16],[16,-1],[-2,-13],[2,2],[-1,-7],[3,-1],[6,20],[-12,0],[-4,7],[21,3],[1,-5],[-3,0],[0,-2],[5,-17],[-1,24],[31,4],[-35,-62],[45,-67],[-67,22],[-14,-46],[-65,62]],[[643,1345],[275,127],[15,-39],[58,-34],[39,-103],[-379,1],[-8,48]],[[415,2044],[56,70],[80,2],[19,-28],[0,-27],[-95,11],[-48,-41],[-12,13]],[[2618,716],[47,42],[18,-87],[-50,11],[-15,34]],[[788,3016],[46,-21],[13,105],[30,7],[13,-36],[16,61],[19,-16],[45,18],[28,-28],[-145,-196],[-50,3],[-15,103]],[[107,3936],[90,77],[10,-26],[89,32],[73,-9],[12,24],[46,-19],[-4,-19],[-216,-31],[-32,-41],[-68,12]],[[743,2515],[17,44],[36,-14],[9,22],[73,-93],[-24,-28],[0,38],[-111,31]],[[368,2665],[54,52],[32,-53],[-63,-23],[-23,24]],[[3824,2252],[15,21],[89,-29],[9,25],[-46,5],[49,74],[47,-120],[36,4],[-5,-32],[45,-25],[-58,-22],[-7,37],[-85,-8],[-59,-33],[-30,103]],[[3729,3747],[16,19],[89,-131],[-42,-44],[5,-33],[-68,189]],[[1620,1619],[37,70],[0,18],[22,-30],[-6,-62],[-51,-13],[-2,17]],[[0,3760]],[[2313,3020],[12,25],[49,36],[14,-83],[-23,9],[-35,-38],[-17,51]],[[1643,2835],[35,49],[54,-31],[22,61],[28,-19],[-5,32],[19,25],[16,-14],[19,-114],[34,-86],[22,3],[-11,-44],[66,-53],[30,-106],[-51,14],[-62,-73],[-39,8],[-114,262],[-63,86]],[[2814,1528],[39,101],[114,9],[-51,-87],[-102,-23]],[[913,2983],[70,94],[27,-40],[33,0],[-16,-55],[25,-9],[-30,-18],[-65,24],[-31,-23],[-13,27]],[[1599,3957],[44,6],[56,123],[26,7],[71,-137],[-36,-40],[14,-51],[-25,-43],[-48,-4],[-102,139]],[[1816,2930],[41,-14],[33,82],[94,-22],[-27,-25],[-18,-138],[-43,-8],[-23,-58],[-42,77],[-15,106]],[[0,3675],[73,-7],[-18,-57],[-27,29],[-28,-8],[0,43]],[[390,2015],[11,23],[14,6],[56,-44],[12,-87],[-68,15],[-25,87]],[[1405,2253],[5,41],[51,19],[14,-42],[-39,-41],[-31,23]],[[131,3694],[40,9],[33,47],[68,-13],[-103,-46],[-18,-41],[-20,44]],[[1480,2614],[23,109],[56,24],[-5,37],[57,27],[58,-22],[88,-162],[-19,-39],[23,-86],[-14,-40],[43,-25],[-25,-14],[15,-33],[-126,-11],[-130,74],[145,15],[-21,2],[29,109],[-18,54],[34,78],[-213,-97]],[[454,4096],[-4,-24],[-13,-6],[2,28],[15,2]],[[3116,2011],[0,63],[32,12],[1,101],[45,5],[3,-169],[-81,-12]],[[2102,3143],[62,72],[-3,28],[72,19],[15,-17],[-20,-21],[-43,10],[26,-79],[-54,2],[-28,-46],[-27,32]],[[1239,638],[52,-5],[52,-146],[-88,-23],[-4,50],[43,47],[-53,46],[-2,31]],[[925,549],[0,36],[54,67],[17,-12],[99,114],[73,1],[71,-117],[-203,20],[64,-67],[-148,-145],[-1,67],[-26,36]],[[0,3590],[32,27],[27,-47],[-53,-46],[-6,15],[0,51]],[[400,2145],[93,5],[1,-35],[-82,-4],[-12,34]],[[912,2765],[59,126],[48,-2],[-37,-97],[-51,-42],[-19,15]],[[3803,3456],[29,33],[-11,38],[41,-22],[-33,-83],[-26,34]],[[1528,1360],[11,123],[175,0],[-27,-72],[-159,-51]],[[0,2897],[26,-29],[61,-7],[43,25],[79,-28],[-64,-89],[-47,-8],[-24,28],[-53,-53],[-21,9],[0,152]],[[1757,192],[73,63],[27,72],[65,-12],[9,-149],[-69,40],[-55,-28],[-50,14]],[[1026,2189],[57,3],[5,-120],[-52,38],[-10,79]],[[3919,1391],[128,109],[49,-1],[0,-36],[-80,-2],[-97,-70]],[[719,1761],[29,41],[58,18],[68,-52],[34,35],[56,-9],[6,-35],[-24,-58],[-38,-9],[-36,38],[-97,19],[-9,-21],[-47,33]],[[2825,1907],[50,0],[-36,20],[8,20],[80,-30],[5,-32],[-52,-23],[-55,45]],[[3567,2973],[41,16],[43,-16],[8,-39],[-23,-30],[-69,69]],[[3983,1292],[10,15],[103,51],[0,-73],[-113,7]],[[2307,3271],[53,63],[138,-8],[68,41],[27,-18],[-47,-68],[-157,-38],[-53,-37],[-27,20],[-2,45]],[[90,2699],[36,32],[58,-40],[-32,-34],[-62,42]],[[3148,2259],[29,98],[15,16],[-9,-141],[-35,27]],[[2333,2569],[114,19],[-4,71],[65,99],[109,-10],[31,-105],[37,22],[17,-141],[54,-32],[65,-128],[-38,-68],[-64,9],[-42,-46],[-194,35],[-4,60],[-50,40],[24,56],[-69,-18],[-51,137]],[[531,2764],[21,71],[49,-35],[-6,-44],[43,-69],[-43,0],[-6,41],[-49,-11],[-9,47]],[[571,2851],[93,33],[96,-88],[28,21],[6,-25],[-40,-22],[10,-73],[-158,50],[0,67],[-20,-3],[-15,40]],[[698,2802],[10,-8],[6,18],[-4,1],[-12,-11]],[[712,2821],[11,-1],[0,9],[-9,0],[-2,-8]],[[691,2780],[8,-1],[1,9],[-6,-1],[-3,-7]],[[693,2792],[1,-3],[7,2],[-5,3],[-3,-2]],[[2013,3051],[48,7],[12,35],[45,-5],[39,69],[54,-2],[-49,-39],[64,-98],[-32,-77],[-45,35],[-5,-20],[-81,-9],[11,35],[-61,69]],[[2122,3064],[2,-16],[17,-19],[-8,25],[-11,10]],[[923,361],[13,85],[164,145],[-64,67],[203,-20],[2,-31],[53,-46],[-43,-47],[4,-50],[-206,-33],[-54,-114],[-72,-1],[0,45]],[[1170,348],[36,33],[236,-15],[0,-56],[-33,0],[-30,-65],[-209,103]],[[477,1909],[92,13],[-18,39],[90,9],[-2,-40],[-65,-56],[-38,14],[-16,-19],[-43,40]],[[3655,2767],[27,10],[19,-10],[-4,14],[-34,5],[20,22],[48,-25],[-15,-20],[23,-2],[-4,-26],[-42,-7],[-38,39]],[[2047,2729],[20,113],[84,68],[29,-107],[-14,-33],[-42,-11],[43,8],[4,-81],[21,-12],[-10,-61],[42,-123],[-101,61],[21,66],[-73,33],[-24,79]],[[27,2756],[50,32],[46,-61],[-95,-3],[-1,32]],[[2597,1900],[10,36],[26,25],[28,-89],[-29,-19],[-35,47]],[[0,2728],[53,6],[77,-60],[-89,6],[-41,45],[0,3]],[[1785,806],[47,33],[-3,-26],[23,20],[30,-15],[-53,-64],[-44,52]],[[1427,3156],[6,64],[64,113],[83,29],[-6,-73],[46,-88],[-17,-43],[-35,-26],[-55,3],[-9,-29],[-58,10],[-19,40]],[[2574,3327],[38,34],[99,22],[-25,-95],[-53,-18],[-59,57]],[[331,2412],[34,18],[8,44],[103,31],[1,20],[52,-36],[-13,113],[32,80],[44,1],[32,32],[14,-37],[78,-2],[-11,-56],[-30,9],[-64,-45],[5,-62],[-46,-47],[17,-34],[-117,-34],[13,-91],[-48,-12],[-39,31],[-16,-32],[-7,53],[27,7],[5,37],[-30,24],[-33,-30],[-11,18]],[[416,2327],[34,-8],[-15,44],[-4,-29],[-15,-7]],[[1822,4096],[37,-31],[-19,-114],[44,-39],[-32,-20],[-60,35],[-23,100],[-59,68],[-41,-103],[-70,-35],[51,-88],[-9,-28],[-38,70],[-73,38],[-15,38],[-96,-18],[-28,43],[3,84],[428,0]],[[35,2569],[40,73],[39,-28],[-23,-100],[-31,1],[-25,54]],[[1105,2089],[92,3],[0,-41],[-41,-55],[-50,25],[-1,68]],[[1879,3809],[58,28],[20,-26],[57,23],[4,-29],[13,18],[55,-34],[-73,-48],[-68,1],[-66,67]],[[3593,2530],[51,31],[25,49],[12,6],[26,-71],[-30,-82],[-31,-2],[-53,69]],[[780,2423],[87,-7],[1,-83],[-64,-6],[-24,96]],[[3051,2976],[46,24],[106,-29],[2,-25],[-25,-45],[-71,-25],[-58,100]],[[2437,1481],[5,38],[43,18],[1,-62],[-31,-29],[-18,35]],[[2746,4018],[93,26],[1,-26],[63,-19],[-27,-98],[-70,-4],[-41,31],[-19,90]],[[2162,3116],[50,38],[-27,80],[98,6],[24,31],[2,-45],[48,-63],[-14,-24],[-52,-51],[-96,0],[-33,28]],[[1362,1676],[53,68],[156,72],[-12,-81],[-76,-89],[-14,-99],[-36,-33],[-71,162]],[[2935,2129],[0,18],[49,-4],[2,-79],[-40,-25],[-11,90]],[[139,877],[25,42],[58,21],[68,-73],[-15,-20],[-53,17],[-31,-46],[-52,59]],[[245,3414],[28,31],[-8,47],[37,7],[13,-37],[-45,-104],[-25,56]],[[2972,2953],[83,31],[45,-128],[-95,-4],[-33,101]],[[520,796],[75,51],[126,-72],[5,-47],[-59,-9],[-34,53],[-71,-15],[-42,39]],[[459,3757],[19,35],[86,33],[81,-17],[151,32],[55,-24],[48,11],[19,-26],[162,5],[9,-22],[-124,-8],[-50,-33],[-153,68],[-34,-25],[-196,-5],[-51,-60],[-22,36]],[[1370,2697],[53,14],[2,3],[128,84],[1,-1],[5,-49],[-56,-25],[-21,-104],[-73,-35],[-39,113]],[[1218,1772],[66,-16],[1,-57],[-66,16],[-1,57]],[[4080,3850],[16,13],[0,-42],[-4,2],[-12,27]],[[4046,2975],[50,21],[0,-64],[-45,3],[-5,40]],[[2760,1378],[52,22],[-3,35],[68,31],[-8,-64],[-41,1],[10,-25],[-26,-21],[-52,21]],[[2548,2280],[139,-27],[-35,-41],[17,-2],[-22,-127],[-86,34],[17,105],[-29,13],[-1,45]],[[0,3140],[33,37],[39,-27],[-31,-14],[-4,-52],[-37,-2],[0,58]],[[454,2639],[40,98],[14,-73],[29,-6],[-16,-124],[-46,29],[-21,76]],[[2378,3028],[22,64],[-12,110],[137,37],[-7,28],[56,60],[59,-57],[53,18],[-57,-115],[8,-110],[-47,8],[-31,-35],[-44,11],[-45,-47],[3,-46],[43,-14],[4,-94],[42,25],[68,-10],[32,-31],[1,-36],[-46,-46],[-109,10],[-26,-32],[-56,94],[4,59],[-35,12],[-17,137]],[[3768,3129],[30,74],[115,-12],[-38,-53],[2,-41],[-71,-7],[-38,39]],[[2558,3040],[32,31],[52,2],[75,-60],[-8,-41],[-34,-22],[-64,14],[-53,76]],[[0,3448],[19,50],[61,27],[-24,-142],[-56,-8],[0,73]],[[2988,3040],[79,3],[43,-34],[-90,-30],[-32,61]],[[3786,3395],[68,41],[65,-29],[-44,-45],[-89,33]],[[983,2449],[44,-6],[45,134],[52,-21],[-17,45],[32,-20],[-1,-29],[31,5],[32,102],[42,-16],[16,-58],[25,7],[-7,-70],[-89,-41],[7,35],[-21,-27],[-7,58],[-19,0],[-38,-52],[54,-24],[-46,-18],[-19,21],[-6,-43],[-29,-16],[-37,-5],[-44,39]],[[0,3772],[5,26],[63,26],[45,-6],[18,-42],[-60,-32],[-71,28]],[[112,2665],[5,13],[44,-16],[23,29],[-29,13],[14,25],[61,9],[34,-82],[30,11],[-4,38],[88,-2],[95,61],[21,-11],[-123,-84],[-57,-3],[0,-30],[-38,-18],[-27,32],[-66,-46],[25,30],[-46,19],[-39,-41],[-11,53]],[[3508,31],[8,10],[15,-1],[-9,-19],[-14,10]],[[3586,161],[14,-16],[-14,-15],[-12,16],[12,15]],[[3665,251],[-21,14],[14,12],[12,-7],[-5,-19]],[[2345,261],[-12,26],[28,-3],[-7,-23],[-9,0]],[[419,538],[-19,-5],[0,18],[19,-1],[0,-12]],[[3498,577],[17,-10],[-11,-12],[-17,4],[11,18]],[[780,789],[23,-7],[0,-16],[-33,0],[10,23]],[[236,865],[21,-5],[19,-9],[-31,-19],[-27,17],[18,16]],[[3318,953],[-17,21],[6,24],[30,-7],[-19,-38]],[[3556,1107],[5,-15],[0,-13],[-28,33],[23,-5]],[[3588,1144],[-4,-11],[-60,-9],[-2,26],[57,33],[9,-39]],[[2079,1197],[3,-26],[-22,2],[8,14],[11,10]],[[1360,3541],[23,-14],[-7,-21],[-25,7],[9,28]],[[3482,3836],[-14,-8],[-2,25],[21,-6],[-5,-11]],[[1825,3206],[22,88],[204,118],[42,-8],[0,-36],[-65,-34],[-15,-52],[35,-27],[-38,-19],[5,-20],[-9,23],[4,-20],[-33,1],[5,12],[-6,2],[1,5],[-1,0],[0,2],[-2,1],[1,0],[-1,1],[0,1],[-1,0],[3,-25],[-24,12],[9,-28],[-25,12],[26,-16],[-8,-26],[-82,-1],[-47,34]],[[2456,1671],[3,268],[71,81],[31,97],[56,-32],[54,5],[13,-18],[-36,-22],[13,-56],[-64,-94],[126,-163],[-84,-68],[-167,1],[2,20],[-18,-19]],[[2829,3756],[115,33],[-36,-75],[12,-38],[-87,0],[-4,80]],[[117,4068],[45,28],[94,-14],[9,-32],[38,19],[78,-13],[-192,-29],[-72,41]],[[1443,1798],[0,41],[70,76],[35,-76],[-45,-41],[-60,0]],[[762,3139],[78,48],[-4,-35],[24,-11],[-53,-68],[-45,66]],[[2898,3806],[33,55],[35,26],[37,0],[-10,-58],[-43,10],[-30,-50],[-22,17]],[[3670,2204],[157,-4],[25,-57],[-81,-36],[-56,47],[-23,-11],[-22,61]],[[81,2313],[33,92],[-20,0],[6,21],[30,10],[16,-20],[39,35],[1,39],[-76,9],[17,46],[111,47],[-17,20],[29,17],[53,11],[-21,-23],[24,-10],[54,27],[8,30],[43,-22],[-96,-80],[41,-43],[-49,-101],[-20,32],[-44,-2],[-95,-110],[-67,-25]],[[630,2040],[18,93],[78,-66],[34,5],[39,-66],[75,13],[29,-74],[-51,-31],[-11,50],[-103,2],[-27,60],[-81,14]],[[3498,1138],[115,-23],[17,24],[10,49],[-59,-11],[5,-28],[-37,39],[-35,-7],[25,81],[136,-77],[1,-85],[-177,0],[-1,38]],[[478,1946],[17,32],[81,-47],[-91,-18],[-7,33]],[[3690,2086],[12,55],[35,-12],[15,21],[19,-43],[172,2],[-42,-42],[-40,11],[-88,-101],[-47,12],[-36,97]],[[3051,1958],[25,148],[22,36],[43,0],[7,-56],[-32,-12],[0,-63],[69,1],[-4,-86],[26,-54],[-114,-176],[-35,47],[15,32],[-22,183]],[[502,2186],[17,10],[-7,25],[59,86],[-9,-103],[-20,-27],[-40,9]],[[3098,2142],[17,60],[38,56],[41,-66],[-41,0],[-13,-50],[-42,0]],[[446,2020],[38,42],[39,4],[66,-55],[-83,-16],[-60,25]],[[1890,2689],[26,61],[40,0],[0,-121],[23,-14],[72,100],[25,-69],[19,10],[8,-34],[41,-5],[-21,-66],[-30,52],[-142,-16],[-9,57],[-52,45]],[[1002,2227],[58,137],[12,-3],[25,-62],[-18,-116],[-53,8],[-24,36]],[[2277,2473],[84,6],[28,-44],[-16,-58],[-38,-31],[-28,6],[-30,121]],[[3790,3556],[35,66],[65,8],[54,-113],[-21,-24],[-63,9],[-70,54]],[[1156,2104],[43,86],[71,-48],[1,-52],[-49,-39],[-25,-1],[0,42],[-41,12]],[[2265,2774],[45,123],[65,-75],[55,2],[52,-95],[-39,-70],[4,-71],[-114,-19],[4,72],[-10,24],[-40,-4],[2,82],[-24,31]],[[959,2692],[11,59],[47,33],[43,87],[48,-130],[-24,-67],[-52,-36],[-61,0],[-12,54]],[[0,2579],[41,-10],[-41,-66],[0,76]],[[827,2686],[144,-70],[0,-139],[-89,83],[-55,126]],[[2363,3877],[53,16],[-28,-84],[-15,19],[-10,49]],[[2211,3909],[110,-8],[46,-21],[-138,0],[-18,29]],[[3098,2142],[55,116],[42,-65],[-6,-181],[-73,-1],[0,63],[32,12],[-7,56],[-43,0]],[[802,1750],[22,37],[50,-19],[38,39],[52,-13],[5,-24],[-23,-69],[-36,-9],[-108,58]],[[3899,1302],[62,40],[24,-89],[-52,-36],[-30,26],[31,19],[-35,40]],[[2291,3088],[71,48],[18,-63],[-74,-44],[-15,59]],[[175,2331],[20,36],[54,17],[6,-64],[-50,-12],[-30,23]],[[925,2648],[14,106],[43,38],[37,97],[34,-3],[-29,-93],[-54,-42],[-9,-122],[-36,19]],[[1849,3426],[40,61],[50,21],[63,-90],[-36,-115],[-23,-16],[-52,35],[-35,-13],[28,65],[-35,52]],[[2638,1227],[30,6],[-17,13],[55,73],[32,-88],[-71,-23],[-29,19]],[[3013,3042],[44,24],[78,-29],[-27,-25],[-28,27],[-67,3]],[[579,2332],[79,1],[9,63],[12,-60],[32,-10],[-12,-24],[-30,24],[-54,-22],[-36,28]],[[90,2525],[12,80],[51,11],[-37,-95],[-26,4]],[[2711,3324],[28,77],[8,-36],[49,-11],[-16,-37],[49,-57],[-37,-81],[-26,91],[-55,54]],[[1567,2302],[40,79],[53,-68],[-16,-23],[-77,12]],[[1216,2050],[53,52],[24,-14],[-25,-71],[17,-75],[-53,34],[-16,74]],[[1198,3203],[19,77],[66,11],[8,23],[57,-3],[28,-39],[-24,-45],[-50,5],[-74,-49],[-30,20]],[[3567,1453],[51,52],[49,10],[21,-21],[14,47],[33,3],[-14,-67],[-154,-24]],[[3709,1497],[11,-3],[4,23],[-14,-13],[-1,-7]],[[3635,1477],[4,-1],[3,9],[-5,-3],[-2,-5]],[[2201,3395],[27,19],[43,166],[23,2],[-25,-79],[43,-136],[-78,-38],[-33,66]],[[3019,1605],[36,135],[29,-40],[35,54],[41,28],[-85,-125],[10,-102],[-38,5],[-8,-23],[-17,-5],[-3,73]],[[1915,3106],[26,24],[65,-61],[10,44],[58,-30],[-13,-25],[-107,0],[8,15],[-47,33]],[[2367,2352],[22,83],[63,16],[-23,-57],[50,-40],[2,-65],[-81,-39],[10,56],[-43,46]]]}