{"objects":{"water":{"type":"GeometryCollection","geometries":[{"type":"Polygon","properties":{"kind":"lake","name":"Lagoa Minim","area":5388715008,"sort_rank":200,"alkaline":true,"source":"naturalearthdata.com","min_zoom":0.0,"id":19},"arcs":[[11]]},{"type":"Polygon","properties":{"source":"naturalearthdata.com","kind":"playa","name":"Salinas de Ambargasta","area":2631175680,"sort_rank":200,"min_zoom":0.0,"id":4},"arcs":[[12]]},{"type":"MultiPolygon","properties":{"sort_rank":200,"source":"naturalearthdata.com","min_zoom":0.0,"kind":"playa","area":2770677469},"arcs":[[[13]],[[14]]]},{"type":"Polygon","properties":{"kind":"lake","name":"Itaip\u00fa Reservoir","reservoir":true,"area":3202253824,"sort_rank":200,"source":"naturalearthdata.com","min_zoom":0.0,"id":285},"arcs":[[15]]},{"type":"Polygon","properties":{"kind":"lake","name":"Laguna Mar Chiquita","area":2732360448,"sort_rank":200,"alkaline":true,"source":"naturalearthdata.com","min_zoom":0.0,"id":102},"arcs":[[16]]},{"type":"MultiPolygon","properties":{"source":"naturalearthdata.com","kind":"ocean","area":1444195503964160,"sort_rank":200,"min_zoom":0.0,"id":1},"arcs":[[[17]],[[18],[19],[20],[21],[22]]]},{"type":"Polygon","properties":{"source":"naturalearthdata.com","kind":"playa","name":"Salar de Arizaro","area":2162472960,"sort_rank":200,"min_zoom":0.0,"id":16},"arcs":[[23]]},{"type":"Point","properties":{"label_placement":true,"kind":"lake","name":"Lagoa Minim","area":5388715008,"sort_rank":200,"alkaline":true,"source":"naturalearthdata.com","min_zoom":0.0,"id":19},"coordinates":[2597,1743]},{"type":"Point","properties":{"label_placement":true,"kind":"lake","name":"Itaip\u00fa Reservoir","reservoir":true,"area":3202253824,"sort_rank":200,"source":"naturalearthdata.com","min_zoom":0.0,"id":285},"coordinates":[2384,3488]},{"type":"Point","properties":{"label_placement":true,"kind":"lake","name":"Laguna Mar Chiquita","area":2732360448,"sort_rank":200,"alkaline":true,"source":"naturalearthdata.com","min_zoom":0.0,"id":102},"coordinates":[893,2207]},{"type":"Point","properties":{"label_placement":true,"kind":"playa","name":"Salinas de Ambargasta","area":2631175680,"sort_rank":200,"source":"naturalearthdata.com","min_zoom":0.0,"id":4},"coordinates":[551,2536]},{"type":"LineString","properties":{"source":"naturalearthdata.com","kind":"playa","sort_rank":367,"boundary":true,"min_zoom":0.0,"id":2},"arcs":[24]},{"type":"LineString","properties":{"source":"naturalearthdata.com","kind":"playa","sort_rank":367,"boundary":true,"min_zoom":0.0,"id":3},"arcs":[25]},{"type":"LineString","properties":{"source":"naturalearthdata.com","kind":"playa","sort_rank":367,"boundary":true,"min_zoom":0.0,"id":4},"arcs":[26]},{"type":"MultiLineString","properties":{"source":"naturalearthdata.com","kind":"playa","sort_rank":367,"boundary":true,"min_zoom":0.0,"id":16},"arcs":[[27],[28]]},{"type":"LineString","properties":{"source":"naturalearthdata.com","kind":"lake","sort_rank":367,"alkaline":true,"boundary":true,"min_zoom":0.0,"id":19},"arcs":[29]},{"type":"LineString","properties":{"source":"naturalearthdata.com","kind":"lake","sort_rank":367,"alkaline":true,"boundary":true,"min_zoom":0.0,"id":102},"arcs":[30]},{"type":"LineString","properties":{"source":"naturalearthdata.com","kind":"lake","reservoir":true,"sort_rank":367,"boundary":true,"min_zoom":0.0,"id":285},"arcs":[31]},{"type":"LineString","properties":{"source":"naturalearthdata.com","kind":"ocean","sort_rank":205,"boundary":true,"min_zoom":0.0,"id":352},"arcs":[32]},{"type":"LineString","properties":{"source":"naturalearthdata.com","kind":"ocean","sort_rank":205,"boundary":true,"min_zoom":0.0,"id":916},"arcs":[33]},{"type":"LineString","properties":{"source":"naturalearthdata.com","kind":"ocean","sort_rank":205,"boundary":true,"min_zoom":0.0,"id":917},"arcs":[34]},{"type":"LineString","properties":{"source":"naturalearthdata.com","kind":"ocean","sort_rank":205,"boundary":true,"min_zoom":0.0,"id":918},"arcs":[35]},{"type":"MultiLineString","properties":{"source":"naturalearthdata.com","kind":"ocean","sort_rank":205,"boundary":true,"min_zoom":0.0,"id":1201},"arcs":[[36],[37]]},{"type":"Point","properties":{"label_placement":true,"kind":"sea","name":"R\u00edo de la Plata","source":"openstreetmap.org","sort_rank":200,"min_zoom":3.0,"id":5261455417},"coordinates":[1986,1229]}]},"buildings":{"type":"GeometryCollection","geometries":[]},"places":{"type":"GeometryCollection","geometries":[{"type":"Point","properties":{"name:cy":"Yr Ariannin","name:mt":"Ar\u0121entina","name:ko":"\uc544\ub974\ud5e8\ud2f0\ub098","name:kn":"\u0c85\u0cb0\u0ccd\u0c9c\u0cc6\u0c82\u0c9f\u0cc8\u0ca8\u0cbe","name:km":"\u17a2\u17b6\u17a0\u17d2\u179f\u1784\u17cb\u1791\u17b8\u1793","name:kk":"\u0410\u0440\u0433\u0435\u043d\u0442\u0438\u043d\u0430","name:ki":"Ajentina","name:ku":"Arjent\u00een","name:ti":"\u12a0\u122d\u1300\u1295\u1272\u1293","name:ks":"\u0623\u0631\u062c\u064e\u0646\u0679\u06cc\u0646\u0627","name:to":"\u02bbAsenitina","name:tl":"Arhentina","name:or":"\u0b06\u0b30\u0b4d\u0b1c\u0b47\u0b23\u0b4d\u0b1f\u0b3f\u0b28\u0b3e","name:pl":"Argentyna","name:ta":"\u0b85\u0bb0\u0bcd\u0b9c\u0bc6\u0ba9\u0bcd\u0b9f\u0bbf\u0ba9\u0bbe","name:tg":"\u0410\u0440\u0433\u0435\u043d\u0442\u0438\u043d\u0430","name:te":"\u0c06\u0c30\u0c4d\u0c1c\u0c46\u0c02\u0c1f\u0c3f\u0c28\u0c3e","name:hu":"Argent\u00edna","name:ka":"\u10d0\u10e0\u10d2\u10d4\u10dc\u10e2\u10d8\u10dc\u10d0","name:de":"Argentinien","name:dz":"\u0f68\u0f62\u0f0b\u0f47\u0f7a\u0f53\u0f0b\u0f4a\u0f72\u0f0b\u0f53","source":"openstreetmap.org","name:lv":"Argent\u012bna","name:tr":"Arjantin","name:hi":"\u0905\u0930\u094d\u091c\u0947\u0928\u094d\u091f\u0940\u0928\u093e","name:he":"\u05d0\u05e8\u05d2\u05e0\u05d8\u05d9\u05e0\u05d4","kind":"country","name:ur":"\u0627\u0631\u062c\u0646\u0679\u06cc\u0646\u0627","name:lb":"Argentinien","name:lg":"Arigentina","name:uk":"\u0410\u0440\u0433\u0435\u043d\u0442\u0438\u043d\u0430","name:hy":"\u0531\u0580\u0563\u0565\u0576\u057f\u056b\u0576\u0561","min_zoom":2.0,"name:li":"Argentini\u00eb","name:ln":"Arizantin\u025b","name:lo":"\u0ead\u0eb2\u0ec0\u0e88\u0e99\u0e95\u0eb4\u0e99\u0eb2\u0ec8","population":40117096,"name:el":"\u0391\u03c1\u03b3\u03b5\u03bd\u03c4\u03b9\u03bd\u03ae","name:eo":"Argentino","name":"Argentina","official_name":"Rep\u00fablica Argentina","name:ee":"Argentina nutome","name:th":"\u0e1b\u0e23\u0e30\u0e40\u0e17\u0e28\u0e2d\u0e32\u0e23\u0e4c\u0e40\u0e08\u0e19\u0e15\u0e34\u0e19\u0e32","name:gu":"\u0a86\u0ab0\u0acd\u0a9c\u0ac7\u0aa8\u0acd\u0a9f\u0ac0\u0aa8\u0abe","name:et":"Argentiina","name:nl":"Argentini\u00eb","name:yo":"Or\u00edl\u1eb9\u0301\u00e8de Agent\u00edn\u00e0","name:rm":"Argentinia","name:rn":"Arijantine","name:az":"Arqentina","name:mr":"\u0905\u0930\u094d\u091c\u0947\u0902\u091f\u093f\u0928\u093e","name:ar":"\u0627\u0644\u0623\u0631\u062c\u0646\u062a\u064a\u0646","name:my":"\u1021\u102c\u1002\u103b\u1004\u103a\u1010\u102e\u1038\u1014\u102c\u1038","name:io":"Arjentinia","name:is":"Argent\u00edna","name:am":"\u12a0\u122d\u1300\u1295\u1272\u1293","name:ml":"\u0d05\u0d7c\u0d1c\u0d7b\u0d31\u0d40\u0d28","name:ru":"\u0410\u0440\u0433\u0435\u043d\u0442\u0438\u043d\u0430","name:mn":"\u0410\u0440\u0433\u0435\u043d\u0442\u0438\u043d","name:mi":"\u0100ketina","id":249399280,"name:mk":"\u0410\u0440\u0433\u0435\u043d\u0442\u0438\u043d\u0430","name:af":"Argentini\u00eb","name:zu":"i-Argentina","name:ha":"Arjantiniya","name:ff":"Arjantiin","name:fi":"Argentiina","old_name:vi":"\u00c1 C\u0103n \u0110\u00ecnh","name:mg":"Arzantina","name:fr":"Argentine","name:fy":"Argentynje","name:vo":"Larg\u00e4nt\u00e4n","name:zh":"\u963f\u6839\u5ef7","name:so":"Arjantiin","name:sn":"Ajentina","name:sk":"Argent\u00edna","name:ja":"\u30a2\u30eb\u30bc\u30f3\u30c1\u30f3","name:si":"\u0d86\u0dbb\u0dca\u0da2\u0dd9\u0db1\u0dca\u0da7\u0dd2\u0db1\u0dcf\u0dc0","name:fa":"\u0622\u0631\u0698\u0627\u0646\u062a\u06cc\u0646","name:sg":"Arzant\u00eena","name:ne":"\u0905\u0930\u094d\u091c\u0947\u0923\u094d\u091f\u093f\u0928\u093e","name:br":"Arc\u02bchantina","name:bm":"Arizantin","name:bn":"\u0986\u09b0\u09cd\u099c\u09c7\u09a3\u09cd\u099f\u09be\u0987\u09a8\u09be","name:bo":"\u0f68\u0f62\u0f0b\u0f47\u0f7a\u0f53\u0f0b\u0f4a\u0f72\u0f0b\u0f53\u0f0d","name:sw":"Ajentina","name:be":"\u0410\u0440\u0433\u0435\u043d\u0446\u0456\u043d\u0430","name:bg":"\u0410\u0440\u0436\u0435\u043d\u0442\u0438\u043d\u0430","name:sr":"\u0410\u0440\u0433\u0435\u043d\u0442\u0438\u043d\u0430","name:sq":"Argjentina","name:ga":"An Airgint\u00edn","name:gd":"An Argantain","name:gl":"Arxentina","name:gv":"Yn Argenteen","name:ak":"Agy\u025bntina"},"coordinates":[461,1287]},{"type":"Point","properties":{"source":"naturalearthdata.com","kind":"locality","name":"Sao Paulo","population":18845000,"region_capital":true,"min_zoom":2.0,"id":7286},"coordinates":[3800,3749]},{"type":"Point","properties":{"name:pt":"Paraguai","name:ka":"\u10de\u10d0\u10e0\u10d0\u10d2\u10d5\u10d0\u10d8","name:ko":"\ud30c\ub77c\uacfc\uc774","name:cv":"\u041f\u0430\u0440\u0430\u0433\u0432\u0430\u0439","name:kk":"\u041f\u0430\u0440\u0430\u0433\u0432\u0430\u0439","name:tt":"\u041f\u0430\u0440\u0430\u0433\u0432\u0430\u0439","name:kw":"Paragway","min_zoom":2.0,"name:pa":"\u0a2a\u0a48\u0a30\u0a3e\u0a17\u0a41\u0a0f","name:os":"\u041f\u0430\u0440\u0430\u0433\u0432\u0430\u0439","name:or":"\u0b2a\u0b3e\u0b30\u0b3e\u0b17\u0b41\u0b0f","name:ce":"\u041f\u0430\u0440\u0430\u0433\u0432\u0430\u0439","name:ta":"\u0baa\u0bb0\u0b95\u0bc1\u0bb5\u0bc8","name:tg":"\u041f\u0430\u0440\u0430\u0433\u0432\u0430\u0439","name:ca":"Paraguai","name:hr":"Paragvaj","name:sr":"\u041f\u0430\u0440\u0430\u0433\u0432\u0430\u0458","source":"openstreetmap.org","name:kn":"\u0caa\u0cc6\u0cb0\u0c97\u0ccd\u0cb5\u0cc6","name:dv":"\u0795\u07ac\u0783\u07a6\u078e\u07aa\u0787\u07ad","name:lv":"Paragvaja","name:lt":"Paragvajus","name:hi":"\u092a\u0948\u0930\u093e\u0917\u094d\u0935\u0947","name:he":"\u05e4\u05e8\u05d2\u05d5\u05d5\u05d0\u05d9","kind":"country","name:ur":"\u067e\u06cc\u0631\u0627\u06af\u0648\u0626\u06d2","name:la":"Paraquaria","name:uk":"\u041f\u0430\u0440\u0430\u0433\u0432\u0430\u0439","name:hy":"\u054a\u0561\u0580\u0561\u0563\u057e\u0561\u0575","name:ug":"\u067e\u0627\u0631\u0627\u06af\u06cb\u0627\u064a","name:qu":"Parawayi","name:oc":"Paraguai","population":7012433,"name:el":"\u03a0\u03b1\u03c1\u03b1\u03b3\u03bf\u03c5\u03ac\u03b7","name:eo":"Paragvajo","name":"Paraguay","name:th":"\u0e1b\u0e23\u0e30\u0e40\u0e17\u0e28\u0e1b\u0e32\u0e23\u0e32\u0e01\u0e27\u0e31\u0e22","name:ln":"Palagway","name:eu":"Paraguai","name:yo":"Parag\u00fa\u00e1\u00ec","name:ay":"Parawayi","name:mt":"Paragwaj","name:az":"Paraqvay","name:mr":"\u092a\u0947\u0930\u093e\u0917\u094d\u0935\u0947","name:ar":"\u0628\u0627\u0631\u0627\u063a\u0648\u0627\u064a","name:my":"\u1015\u102b\u101b\u102c\u1002\u103d\u1031\u1038\u1014\u102d\u102f\u1004\u103a\u1004\u1036","name:is":"Paragv\u00e6","name:am":"\u1353\u122b\u1313\u12ed","name:an":"Paraguai","name:ru":"\u041f\u0430\u0440\u0430\u0433\u0432\u0430\u0439","name:rw":"Paragwe","id":1644764586,"name:mk":"\u041f\u0430\u0440\u0430\u0433\u0432\u0430\u0458","name:vo":"Paragv\u00e4n","name:fa":"\u067e\u0627\u0631\u0627\u06af\u0648\u0626\u0647","name:mn":"\u041f\u0430\u0440\u0430\u0433\u0432\u0430\u0439","name:uz":"Paragvay","name:fo":"Paraguei","name:zh-yue":"\u5df4\u62c9\u572d","name:zh":"\u5df4\u62c9\u572d","name:sl":"Paragvaj","name:sk":"Paraguaj","name:ja":"\u30d1\u30e9\u30b0\u30a2\u30a4","name:sh":"Paragvaj","name:ne":"\u092a\u093e\u0930\u093e\u0917\u094d\u0935\u0947","name:sa":"\u092a\u0947\u0930\u0947\u0917\u094d\u0935\u093e\u092f","name:bs":"Paragvaj","name:yi":"\u05e4\u05d0\u05e8\u05d0\u05d2\u05d5\u05d5\u05d9\u05d9","name:bn":"\u09aa\u09cd\u09af\u09be\u09b0\u09be\u0997\u09c1\u09af\u09bc\u09c7","name:bo":"\u0f54\u0f0b\u0f62\u0f0b\u0f42\u0f74\u0f0b\u0f61\u0f7a\u0f0d","name:ml":"\u0d2a\u0d30\u0d17\u0d4d\u0d35\u0d46","name:be":"\u041f\u0430\u0440\u0430\u0433\u0432\u0430\u0439","name:bg":"\u041f\u0430\u0440\u0430\u0433\u0432\u0430\u0439","name:wo":"Paraguwaay","name:ba":"\u041f\u0430\u0440\u0430\u0433\u0432\u0430\u0439","name:sq":"Paraguaji","name:ga":"Paragua","name:gd":"Paraguaidh","name:ht":"Paragwe","name:gn":"Paragu\u00e1i","name:gl":"Paraguai - Paraguay","name:pl":"Paragwaj","name:gv":"Yn Pharaguay"},"coordinates":[1699,3800]},{"type":"Point","properties":{"name:pt":"Uruguai","name:ps":"\u06cc\u0648\u0631\u0648\u06ab\u0648\u0627\u06cc","name:ka":"\u10e3\u10e0\u10e3\u10d2\u10d5\u10d0\u10d8","name:mt":"Urugwaj","name:ko":"\uc6b0\ub8e8\uacfc\uc774","name:cv":"\u0423\u0440\u0443\u0433\u0432\u0430\u0439","name:cu":"\u041e\u0443\u0440\u043e\u0443\u0433\u0432\u0430\u0438","name:kk":"\u0423\u0440\u0443\u0433\u0432\u0430\u0439","name:ki":"Urugwai","name:kw":"Urugway","name:ku":"\u00dbr\u00fbguay","name:ti":"\u12a1\u122b\u1313\u12ed","name:ks":"\u06cc\u0648\u0657\u0631\u0648\u06af\u06d2","name:to":"\u02bbUlukuei","name:tl":"Urugway","name:pa":"\u0a09\u0a30\u0a42\u0a17\u0a41\u0a0f","name:os":"\u0423\u0440\u0443\u0433\u0432\u0430\u0439","name:or":"\u0b09\u0b30\u0b41\u0b17\u0b41\u0b0f","name:ce":"\u0423\u0440\u0443\u0433\u0432\u0430\u0439","name:ta":"\u0b89\u0bb0\u0bc1\u0b95\u0bc1\u0bb5\u0bc7","name:tg":"\u0423\u0440\u0443\u0433\u0432\u0430\u0439","name:ca":"Uruguai","name:te":"\u0c09\u0c30\u0c41\u0c17\u0c41\u0c35\u0c47","name:ln":"Irigwei","name:sr":"\u0423\u0440\u0443\u0433\u0432\u0430\u0458","name:dz":"\u0f61\u0f74\u0f0b\u0f62\u0f74\u0f0b\u0f42\u0f74\u0f0b\u0f5d\u0f60\u0f72","source":"openstreetmap.org","name:nv":"T\u00e1\u0142t\u0142\u02bc\u00e1\u00e1h Ch\u02bcosh Bitooh (K\u00e9yah Dah Si\u02bc\u00e1n\u00edg\u00ed\u00ed)","name:kn":"\u0c89\u0cb0\u0cc1\u0c97\u0ccd\u0cb5\u0cc7","name:dv":"\u0787\u07aa\u0783\u07aa\u078e\u07aa\u0787\u07ad","name:km":"\u17a2\u17ca\u17bb\u1799\u179a\u17bb\u1799\u17a0\u17d2\u1782\u17b6\u1799","name:lv":"Urugvaja","name:lt":"Urugvajus","name:uz":"Urugvay","name:he":"\u05d0\u05d5\u05e8\u05d5\u05d2\u05d5\u05d0\u05d9","min_zoom":2.0,"kind":"country","name:ur":"\u06cc\u0648\u0631\u0648\u06af\u0648\u0626\u06d2","name:la":"Uruguaia","name:lg":"Wurugwayi","name:uk":"\u0423\u0440\u0443\u0491\u0432\u0430\u0439","name:hy":"\u0548\u0582\u0580\u0578\u0582\u0563\u057e\u0561\u0575","name:ug":"\u0626\u06c7\u0631\u06c7\u06af\u06cb\u0627\u064a","name:li":"Urugay","name:hr":"Urugvaj","name:lo":"\u0ead\u0eb8\u0ea5\u0eb8\u0e81\u0ea7\u0e8d","name:oc":"Uruguai","population":3286314,"name:el":"\u039f\u03c5\u03c1\u03bf\u03c5\u03b3\u03bf\u03c5\u03ac\u03b7","name:eo":"Urugvajo","name":"Uruguay","name:ee":"uruguayduk\u0254","name:th":"\u0e1b\u0e23\u0e30\u0e40\u0e17\u0e28\u0e2d\u0e38\u0e23\u0e38\u0e01\u0e27\u0e31\u0e22","name:gu":"\u0a89\u0ab0\u0ac1\u0a97\u0acd\u0ab5\u0ac7","name:eu":"Uruguai","name:yo":"Or\u00edl\u1eb9\u0301\u00e8de Nruguayi","name:ay":"Uruwayi","name:yi":"\u05d0\u05d5\u05e8\u05d5\u05d2\u05d5\u05d5\u05d9\u05d9","name:rn":"Irigwe","name:az":"Uruqvay","name:mr":"\u0909\u0930\u0941\u0917\u094d\u0935\u0947","name:qu":"Uruwayi","name:ar":"\u0623\u0648\u0631\u0648\u063a\u0648\u0627\u064a","name:my":"\u1025\u101b\u102f\u1002\u103d\u1031\u1038","official_name":"Rep\u00fablica Oriental del Uruguay","name:gn":"Urugu\u00e1i","name:is":"\u00dar\u00fagv\u00e6","name:am":"\u12a1\u122b\u1313\u12ed","name:fo":"Uruguei","name:an":"Uruguai","name:ru":"\u0423\u0440\u0443\u0433\u0432\u0430\u0439","name:rw":"Irigwe","name:pl":"Urugwaj","name:mk":"\u0423\u0440\u0443\u0433\u0432\u0430\u0458","name:vo":"Luruguy\u00e4n","name:zu":"i-Uruguay","name:ha":"Yurugai","name:mn":"\u0423\u0440\u0443\u0433\u0432\u0430\u0439","name:ff":"Uruguwaay","name:hi":"\u092f\u0941\u0930\u0942\u0917\u0941\u090f","name:mg":"Orogoay","id":432425116,"name:zh-yue":"\u70cf\u62c9\u572d","name:fy":"Ur\u00fbguay","name:zh":"\u4e4c\u62c9\u572d","name:so":"Uruguwaay","name:sl":"Urugvaj","name:sk":"Uruguaj","name:ja":"\u30a6\u30eb\u30b0\u30a2\u30a4","name:si":"\u0d8b\u0dbb\u0dd4\u0d9c\u0dd4\u0dc0\u0dda","name:sh":"Urugvaj","name:sg":"Urugu\u00ebe","name:ne":"\u092f\u0941\u0930\u0942\u0917\u0941\u090f","name:sa":"\u0909\u0930\u0941\u0917\u094d\u0935\u093e\u092f","name:bs":"Urugvaj","name:bm":"Urugwayi","name:bn":"\u0989\u09b0\u09c1\u0997\u09cb\u09af\u09bc\u09c7","name:bo":"\u0f68\u0f74\u0f0b\u0f62\u0f74\u0f0b\u0f42\u0fb7\u0f7a\u0f0d","name:ml":"\u0d09\u0d31\u0d41\u0d17\u0d4d\u0d35\u0d47","name:sw":"Urugwai","name:be":"\u0423\u0440\u0443\u0433\u0432\u0430\u0439","name:bg":"\u0423\u0440\u0443\u0433\u0432\u0430\u0439","name:wo":"Uruguwaay","name:ba":"\u0423\u0440\u0443\u0433\u0432\u0430\u0439","name:sq":"Uruguaj","name:ga":"Uragua","name:gd":"Uruguaidh","name:ht":"Irigwe","name:wa":"Ourougway","name:gl":"Uruguai","name:fa":"\u0627\u0631\u0648\u06af\u0648\u0626\u0647","name:gv":"Yn Ooraguay","name:ak":"Yurugwae","name:tt":"\u0423\u0440\u0443\u0433\u0432\u0430\u0439"},"coordinates":[2090,1744]},{"type":"Point","properties":{"source":"naturalearthdata.com","kind":"locality","name":"Buenos Aires","country_capital":true,"population":12795000,"min_zoom":3.0,"id":7258},"coordinates":[1657,1373]},{"type":"Point","properties":{"source":"naturalearthdata.com","kind":"locality","name":"Porto Alegre","population":3917000,"region_capital":true,"min_zoom":4.0,"id":7208},"coordinates":[2967,2352]},{"type":"Point","properties":{"source":"naturalearthdata.com","kind":"locality","name":"Curitiba","population":3084000,"region_capital":true,"min_zoom":4.0,"id":7209},"coordinates":[3309,3348]},{"type":"Point","properties":{"kind":"region","name":"Departamento Central","kind_detail":"state","min_zoom":4.0,"source":"openstreetmap.org","name:fr":"Central","name:ru":"\u0426\u0435\u043d\u0442\u0440\u0430\u043b\u044c\u043d\u044b\u0439 \u0434\u0435\u043f\u0430\u0440\u0442\u0430\u043c\u0435\u043d\u0442","id":313928965,"population":1363399},"coordinates":[1820,3331]},{"type":"Point","properties":{"source":"openstreetmap.org","kind":"region","name":"Montevideo","kind_detail":"state","population":1319018,"min_zoom":4.0,"id":313943109},"coordinates":[2060,1316]},{"type":"Point","properties":{"kind":"region","name":"Departamento del Alto Paran\u00e1","kind_detail":"state","min_zoom":4.0,"source":"openstreetmap.org","name:fr":"Alto Paran\u00e1","name:ru":"\u0410\u043b\u044c\u0442\u043e-\u041f\u0430\u0440\u0430\u043d\u0430","id":313928972,"population":563042},"coordinates":[2306,3331]},{"type":"Point","properties":{"source":"openstreetmap.org","kind":"region","name":"Canelones","kind_detail":"state","population":485028,"min_zoom":4.0,"id":313943137},"coordinates":[2095,1368]},{"type":"Point","properties":{"kind":"region","name":"Departamento de Itap\u00faa","kind_detail":"state","min_zoom":4.0,"source":"openstreetmap.org","name:fr":"Itap\u00faa","name:ru":"\u0418\u0442\u0430\u043f\u0443\u0430","id":313928981,"population":463410},"coordinates":[2124,3044]},{"type":"Point","properties":{"kind":"region","name":"Departamento de Caaguaz\u00fa","kind_detail":"state","min_zoom":4.0,"source":"openstreetmap.org","name:fr":"Caaguaz\u00fa","name:ru":"\u041a\u0430\u0430\u0433\u0443\u0430\u0441\u0443","id":313928966,"population":448983},"coordinates":[2124,3367]},{"type":"Point","properties":{"kind":"region","name":"Departamento de San Pedro","kind_detail":"state","min_zoom":4.0,"source":"openstreetmap.org","name:fr":"San Pedro","name:ru":"\u0421\u0430\u043d-\u041f\u0435\u0434\u0440\u043e","id":313928978,"population":318787},"coordinates":[2002,3600]},{"type":"Point","properties":{"kind":"region","name":"Departamento de la Cordillera","kind_detail":"state","min_zoom":4.0,"source":"openstreetmap.org","name:fr":"Cordillera","name:ru":"\u041a\u043e\u0440\u0434\u0438\u043b\u044c\u0435\u0440\u0430","id":313928961,"population":234805},"coordinates":[1911,3384]},{"type":"Point","properties":{"kind":"region","name":"Departamento de Paraguar\u00ed","kind_detail":"state","min_zoom":4.0,"source":"openstreetmap.org","name:fr":"Paraguar\u00ed","name:ru":"\u041f\u0430\u0440\u0430\u0433\u0443\u0430\u0440\u0438","id":313928963,"population":226514},"coordinates":[1881,3223]},{"type":"Point","properties":{"kind":"region","name":"Departamento de Concepci\u00f3n","kind_detail":"state","min_zoom":4.0,"source":"openstreetmap.org","name:fr":"Concepci\u00f3n","name:ru":"\u041a\u043e\u043d\u0441\u0435\u043f\u0441\u044c\u043e\u043d","id":313928982,"population":180277},"coordinates":[1881,3830]},{"type":"Point","properties":{"kind":"region","name":"Departamento del Guair\u00e1","kind_detail":"state","min_zoom":4.0,"source":"openstreetmap.org","name:fr":"Guair\u00e1","name:ru":"\u0413\u0443\u0430\u0439\u0440\u0430","id":313928967,"population":178130},"coordinates":[2002,3277]},{"type":"Point","properties":{"kind":"region","name":"Maldonado","name:lt":"Maldonado departamentas","kind_detail":"state","source":"openstreetmap.org","min_zoom":4.0,"name:uk":"\u041c\u0430\u043b\u044c\u0434\u043e\u043d\u0430\u0434\u043e","name:ru":"\u041c\u0430\u043b\u044c\u0434\u043e\u043d\u0430\u0434\u043e","id":313943128,"population":164300},"coordinates":[2291,1358]},{"type":"Point","properties":{"kind":"region","name":"Departamento de Canindey\u00fa","kind_detail":"state","min_zoom":4.0,"source":"openstreetmap.org","name:fr":"Canindey\u00fa","name:ru":"\u041a\u0430\u043d\u0435\u043d\u0434\u0438\u044e","id":313928969,"population":140551},"coordinates":[2230,3600]},{"type":"Point","properties":{"kind":"region","name":"Departamento de Caazap\u00e1","kind_detail":"state","min_zoom":4.0,"source":"openstreetmap.org","name:fr":"Caazap\u00e1","name:ru":"\u041a\u0430\u0430\u0441\u0430\u043f\u0430","id":313928973,"population":139241},"coordinates":[2094,3187]},{"type":"Point","properties":{"source":"openstreetmap.org","kind":"region","name":"Salto","kind_detail":"state","population":123120,"min_zoom":4.0,"id":313943121},"coordinates":[1911,2070]},{"type":"Point","properties":{"source":"openstreetmap.org","kind":"region","name":"Colonia","kind_detail":"state","population":119266,"min_zoom":4.0,"id":1976165729},"coordinates":[1821,1466]},{"type":"Point","properties":{"kind":"region","name":"Departamento del Amambay","kind_detail":"state","min_zoom":4.0,"source":"openstreetmap.org","name:fr":"Amambay","name:ru":"\u0410\u043c\u0430\u043c\u0431\u0430\u0439","id":313928979,"population":113888},"coordinates":[2094,3869]},{"type":"Point","properties":{"source":"openstreetmap.org","kind":"region","name":"Paysand\u00fa","kind_detail":"state","population":113244,"min_zoom":4.0,"id":313943124},"coordinates":[1866,1932]},{"type":"Point","properties":{"kind":"region","name":"Departamento de Misiones","kind_detail":"state","min_zoom":4.0,"source":"openstreetmap.org","name:fr":"Misiones","old_name":"San Ignacio","name:ru":"\u041c\u0438\u0441\u044c\u043e\u043d\u0435\u0441","id":313928980,"population":103633},"coordinates":[1911,3008]},{"type":"Point","properties":{"source":"openstreetmap.org","kind":"region","name":"Rivera","kind_detail":"state","population":103493,"min_zoom":4.0,"id":313943141},"coordinates":[2230,2040]},{"type":"Point","properties":{"source":"openstreetmap.org","kind":"region","name":"San Jos\u00e9","kind_detail":"state","population":103104,"min_zoom":4.0,"id":313943119},"coordinates":[1981,1404]},{"type":"Point","properties":{"source":"openstreetmap.org","kind":"region","name":"Tacuaremb\u00f3","kind_detail":"state","population":90053,"min_zoom":4.0,"id":313943117},"coordinates":[2185,1896]},{"type":"Point","properties":{"source":"openstreetmap.org","kind":"region","name":"Cerro Largo","kind_detail":"state","population":86564,"min_zoom":4.0,"id":313943115},"coordinates":[2397,1860]},{"type":"Point","properties":{"source":"openstreetmap.org","kind":"region","name":"Soriano","kind_detail":"state","population":84563,"min_zoom":4.0,"id":313943105},"coordinates":[1775,1609]},{"type":"Point","properties":{"kind":"region","name":"Departamento de Presidente Hayes","kind_detail":"state","min_zoom":4.0,"source":"openstreetmap.org","name:fr":"Presidente Hayes","name:ru":"\u041f\u0440\u0435\u0441\u0438\u0434\u0435\u043d\u0442\u0435-\u0410\u0435\u0441","id":313928971,"population":81876},"coordinates":[1578,3761]},{"type":"Point","properties":{"source":"openstreetmap.org","kind":"region","name":"Artigas","kind_detail":"state","population":78019,"min_zoom":4.0,"id":1417530830},"coordinates":[1923,2230]},{"type":"Point","properties":{"kind":"region","name":"Departamento de \u00d1eembuc\u00fa","kind_detail":"state","min_zoom":4.0,"source":"openstreetmap.org","name:fr":"\u00d1eembuc\u00fa","name:ru":"\u041d\u044c\u0435\u044d\u043c\u0431\u0443\u043a\u0443","id":313928968,"population":76738},"coordinates":[1729,3008]},{"type":"Point","properties":{"source":"openstreetmap.org","kind":"region","name":"Florida","kind_detail":"state","population":68181,"min_zoom":4.0,"id":313943132},"coordinates":[2109,1538]},{"type":"Point","properties":{"source":"openstreetmap.org","kind":"region","name":"Rocha","kind_detail":"state","population":68088,"min_zoom":4.0,"id":313943138},"coordinates":[2458,1502]},{"type":"Point","properties":{"kind":"region","name":"Lavalleja","name:lt":"Lavaljechos departamentas","kind_detail":"state","source":"openstreetmap.org","min_zoom":4.0,"name:uk":"\u041b\u0430\u0432\u0430\u043b\u044c\u0454\u0445\u0430","name:ru":"\u041b\u0430\u0432\u0430\u043b\u044c\u0435\u0445\u0430","id":313943136,"population":60925},"coordinates":[2276,1502]},{"type":"Point","properties":{"source":"openstreetmap.org","kind":"region","name":"Durazno","kind_detail":"state","population":58859,"min_zoom":4.0,"id":313943140},"coordinates":[2078,1699]},{"type":"Point","properties":{"source":"openstreetmap.org","kind":"region","name":"R\u00edo Negro","kind_detail":"state","population":53989,"min_zoom":4.0,"id":313943111},"coordinates":[1851,1771]},{"type":"Point","properties":{"source":"openstreetmap.org","kind":"region","name":"Treinta y Tres","kind_detail":"state","population":49318,"min_zoom":4.0,"id":313943139},"coordinates":[2412,1717]},{"type":"Point","properties":{"kind":"region","name":"Departamento de Boquer\u00f3n","name:ko":"\ubcf4\ucf00\ub860 \uc8fc","kind_detail":"state","min_zoom":4.0,"source":"openstreetmap.org","name:fr":"Boquer\u00f3n","name:ru":"\u0411\u043e\u043a\u0435\u0440\u043e\u043d","name:zh":"\u535a\u514b\u9f99\u7701","id":530657872,"population":45617},"coordinates":[1183,3941]},{"type":"Point","properties":{"source":"openstreetmap.org","kind":"region","name":"Flores","kind_detail":"state","population":25104,"min_zoom":4.0,"id":313943113},"coordinates":[1942,1591]},{"type":"Point","properties":{"kind":"region","name":"La Pampa","kind_detail":"state","name:eo":"Pampa Provinco","source":"openstreetmap.org","min_zoom":4.0,"name:ru":"\u041b\u0430-\u041f\u0430\u043c\u043f\u0430","id":618278412},"coordinates":[383,807]},{"type":"Point","properties":{"kind":"region","name":"Buenos Aires","kind_detail":"state","name:eo":"Bonaera Provinco","official_name":"Provincia de Buenos Aires","source":"openstreetmap.org","min_zoom":4.0,"name:ru":"\u0411\u0443\u044d\u043d\u043e\u0441-\u0410\u0439\u0440\u0435\u0441","id":618279734},"coordinates":[1295,990]},{"type":"Point","properties":{"kind":"region","name":"San Luis","kind_detail":"state","name:eo":"San-Luisa Provinco","official_name":"Provincia de San Luis","source":"openstreetmap.org","min_zoom":4.0,"name:ru":"\u0421\u0430\u043d-\u041b\u0443\u0438\u0441","id":618289560},"coordinates":[282,1658]},{"type":"Point","properties":{"name:ka":"\u10d9\u10dd\u10e0\u10d3\u10dd\u10d5\u10d0","name:mr":"\u0915\u094b\u0930\u094d\u0926\u094b\u092c\u093e","name:ko":"\ucf54\ub974\ub3c4\ubc14","name:ar":"\u0643\u0648\u0631\u062f\u0648\u0628\u0627","name:th":"\u0e01\u0e2d\u0e23\u0e4c\u0e42\u0e14\u0e1a\u0e32","name:it":"Cordova","name:os":"\u041a\u043e\u0440\u0434\u043e\u0432\u00e6","name:ru":"\u041a\u043e\u0440\u0434\u043e\u0432\u0430","name:ce":"\u041a\u043e\u0440\u0434\u043e\u0432\u0430","name:mn":"\u041a\u043e\u0440\u0434\u043e\u0432\u0430","id":618290080,"name:fa":"\u06a9\u0648\u0631\u062f\u0648\u0628\u0627\u060c \u0622\u0631\u0698\u0627\u0646\u062a\u06cc\u0646","kind_detail":"state","source":"openstreetmap.org","name:zh":"\u79d1\u5c14\u591a\u74e6","name:lv":"Kordova","name:ja":"\u30b3\u30eb\u30c9\u30d0","name:lt":"Kordoba","name:he":"\u05e7\u05d5\u05e8\u05d3\u05d5\u05d1\u05d4","kind":"region","name:ur":"\u0642\u0631\u0637\u0628\u06c1","name:la":"Corduba","name:uk":"\u041a\u043e\u0440\u0434\u043e\u0432\u0430","name:hy":"\u053f\u0578\u0580\u0564\u0578\u057e\u0561","name:be":"\u041a\u043e\u0440\u0434\u0430\u0432\u0430","name:bg":"\u041a\u043e\u0440\u0434\u043e\u0431\u0430","name:sr":"\u041a\u043e\u0440\u0434\u043e\u0431\u0430","name:el":"\u039a\u03cc\u03c1\u03b4\u03bf\u03b2\u03b1","name:eo":"Kordoba Provinco","name":"C\u00f3rdoba","min_zoom":4.0,"name:yi":"\u05e7\u05d0\u05e8\u05d3\u05d0\u05d1\u05e2"},"coordinates":[675,1911]},{"type":"Point","properties":{"kind":"region","name":"La Rioja","kind_detail":"state","name:eo":"Rio\u0125a Provinco","source":"openstreetmap.org","min_zoom":4.0,"name:ru":"\u041b\u0430-\u0420\u0438\u043e\u0445\u0430","id":618300945},"coordinates":[82,2368]},{"type":"Point","properties":{"kind":"region","name":"Entre R\u00edos","kind_detail":"state","name:eo":"Interriveroj Provinco","source":"openstreetmap.org","min_zoom":4.0,"name:ru":"\u041c\u0435\u0436\u0434\u0443\u0440\u0435\u0447\u044c\u0435","id":618300946},"coordinates":[1483,2013]},{"type":"Point","properties":{"kind":"region","name":"Santa Fe","kind_detail":"state","name:he":"\u05e1\u05e0\u05d8\u05d4 \u05e4\u05d4","name:eo":"Sankta Fido","official_name":"Provincia de Santa Fe","source":"openstreetmap.org","min_zoom":4.0,"name:uk":"\u0421\u0430\u043d\u0442\u0430-\u0424\u0435","name:ru":"\u0421\u0430\u043d\u0442\u0430-\u0424\u0435","id":618300947},"coordinates":[1153,2295]},{"type":"Point","properties":{"source":"openstreetmap.org","kind":"region","name":"Corrientes","kind_detail":"state","min_zoom":4.0,"name:eo":"Provinco de Riveroj","id":618300948},"coordinates":[1740,2666]},{"type":"Point","properties":{"kind":"region","name":"Catamarca","kind_detail":"state","name:eo":"Katamarkio","source":"openstreetmap.org","min_zoom":4.0,"name:ru":"\u041a\u0430\u0442\u0430\u043c\u0430\u0440\u043a\u0430","id":618300949},"coordinates":[72,2967]},{"type":"Point","properties":{"source":"openstreetmap.org","kind":"region","name":"Tucum\u00e1n","kind_detail":"state","min_zoom":4.0,"name:eo":"Tukumano","id":1366269650},"coordinates":[477,3102]},{"type":"Point","properties":{"kind":"region","name":"Santiago del Estero","kind_detail":"state","name:eo":"Santiaga Provinco","source":"openstreetmap.org","min_zoom":4.0,"name:ru":"\u0421\u0430\u043d\u0442\u044c\u044f\u0433\u043e-\u0434\u0435\u043b\u044c-\u042d\u0441\u0442\u0435\u0440\u043e","id":618300951},"coordinates":[721,2870]},{"type":"Point","properties":{"source":"openstreetmap.org","kind":"region","name":"Jujuy","kind_detail":"state","min_zoom":4.0,"name:eo":"\u0124u\u0125ujo","id":3573560593},"coordinates":[317,3801]},{"type":"Point","properties":{"kind":"region","name":"Salta","kind_detail":"state","name:eo":"Salta Provinco","source":"openstreetmap.org","min_zoom":4.0,"name:ru":"\u0421\u0430\u043b\u044c\u0442\u0430","id":618300953},"coordinates":[574,3415]},{"type":"Point","properties":{"kind":"region","name":"Chaco","kind_detail":"state","name:eo":"\u0108ako","source":"openstreetmap.org","min_zoom":4.0,"name:ru":"\u0427\u0430\u043a\u043e","id":618300954},"coordinates":[1205,3141]},{"type":"Point","properties":{"kind":"region","name":"Formosa","kind_detail":"state","name:eo":"Formosa Provinco","source":"openstreetmap.org","min_zoom":4.0,"name:ru":"\u0424\u043e\u0440\u043c\u043e\u0441\u0430","id":618300955},"coordinates":[1287,3525]},{"type":"Point","properties":{"kind":"region","name":"Rio Grande do Sul","kind_detail":"state","name:eo":"Suda Rio-Grando","source":"openstreetmap.org","min_zoom":4.0,"name:uk":"\u0420\u0456\u0443-\u0413\u0440\u0430\u043d\u0434\u0456-\u0434\u0443-\u0421\u0443\u043b","name:ru":"\u042e\u0436\u043d\u044b\u0439 \u0420\u0438\u0443-\u0413\u0440\u0430\u043d\u0434\u0438","id":504800252,"name:ja":"\u30ea\u30aa\u30b0\u30e9\u30f3\u30c7\u30fb\u30c9\u30fb\u30b9\u30eb"},"coordinates":[2500,2396]},{"type":"Point","properties":{"kind":"region","name":"Misiones","kind_detail":"state","name:eo":"Provinco de Misioj","source":"openstreetmap.org","min_zoom":4.0,"name:ru":"\u041c\u0438\u0441\u044c\u043e\u043d\u0435\u0441","id":618300956},"coordinates":[2379,3064]},{"type":"Point","properties":{"kind":"region","name":"Santa Catarina","kind_detail":"state","name:eo":"Sankta Katarino","source":"openstreetmap.org","min_zoom":4.0,"name:uk":"\u0421\u0430\u043d\u0442\u0430-\u041a\u0430\u0442\u0430\u0440\u0456\u043d\u0430","name:ru":"\u0421\u0430\u043d\u0442\u0430-\u041a\u0430\u0442\u0430\u0440\u0438\u043d\u0430","id":539668890,"name:ja":"\u30b5\u30f3\u30bf \u30ab\u30bf\u30ea\u30fc\u30ca"},"coordinates":[2983,2994]},{"type":"Point","properties":{"kind":"region","name":"Paran\u00e1","kind_detail":"state","name:eo":"Paranao","source":"openstreetmap.org","min_zoom":4.0,"name:uk":"\u041f\u0430\u0440\u0430\u043d\u0430","name:ru":"\u041f\u0430\u0440\u0430\u043d\u0430","id":539672077,"name:ja":"\u30d1\u30e9\u30ca"},"coordinates":[2855,3549]},{"type":"Point","properties":{"kind":"region","name":"S\u00e3o Paulo","short_name":"SP","kind_detail":"state","name:eo":"San-Pa\u016dlo","source":"openstreetmap.org","min_zoom":4.0,"name:uk":"\u0421\u0430\u043d-\u041f\u0430\u0443\u043b\u0443","name:ru":"\u0421\u0430\u043d-\u041f\u0430\u0443\u043b\u0443","id":504798993,"name:ja":"\u30b5\u30f3\u30fb\u30d1\u30a6\u30ed"},"coordinates":[3364,4093]}]},"transit":{"type":"GeometryCollection","geometries":[]},"pois":{"type":"GeometryCollection","geometries":[]},"boundaries":{"type":"GeometryCollection","geometries":[{"type":"LineString","properties":{"source":"naturalearthdata.com","kind":"country","sort_rank":262,"kind_detail":"2","min_zoom":0.0,"id":23},"arcs":[0]},{"type":"LineString","properties":{"source":"naturalearthdata.com","kind":"country","sort_rank":262,"kind_detail":"2","min_zoom":0.0,"id":32},"arcs":[1]},{"type":"LineString","properties":{"source":"naturalearthdata.com","kind":"country","sort_rank":262,"kind_detail":"2","min_zoom":0.0,"id":135},"arcs":[2]},{"type":"LineString","properties":{"source":"naturalearthdata.com","kind":"country","sort_rank":262,"kind_detail":"2","min_zoom":0.0,"id":136},"arcs":[3]},{"type":"LineString","properties":{"source":"naturalearthdata.com","kind":"country","sort_rank":262,"kind_detail":"2","min_zoom":0.0,"id":137},"arcs":[4]},{"type":"LineString","properties":{"source":"naturalearthdata.com","kind":"country","sort_rank":262,"kind_detail":"2","min_zoom":0.0,"id":241},"arcs":[5]},{"type":"LineString","properties":{"source":"naturalearthdata.com","kind":"country","sort_rank":262,"kind_detail":"2","min_zoom":0.0,"id":263},"arcs":[6]},{"type":"MultiLineString","properties":{"source":"naturalearthdata.com","kind":"country","sort_rank":262,"kind_detail":"2","min_zoom":0.0,"id":325},"arcs":[[7],[8]]},{"type":"LineString","properties":{"source":"naturalearthdata.com","kind":"country","sort_rank":262,"kind_detail":"2","min_zoom":0.0,"id":323},"arcs":[9]},{"type":"LineString","properties":{"source":"naturalearthdata.com","kind":"country","sort_rank":262,"kind_detail":"2","min_zoom":0.0,"id":324},"arcs":[10]}]},"roads":{"type":"GeometryCollection","geometries":[]},"earth":{"type":"GeometryCollection","geometries":[{"type":"MultiPolygon","properties":{"sort_rank":10,"source":"naturalearthdata.com","min_zoom":0.0,"kind":"earth","area":14028125193060},"arcs":[[[38]],[[39]],[[40]],[[41]],[[42]]]}]},"landuse":{"type":"GeometryCollection","geometries":[{"type":"Polygon","properties":{"kind":"nature_reserve","name":"Reserva Nacional de Fauna Andina Eduardo Avaroa","area":8012539904,"sort_rank":23,"operator":"SERNAP","source":"openstreetmap.org","min_zoom":4.0,"tier":2,"id":-445306,"osm_relation":true},"arcs":[[43]]},{"type":"Polygon","properties":{"kind":"park","name":"Parque Nacional El Impenetrable","area":1453929984,"sort_rank":24,"source":"openstreetmap.org","min_zoom":4.0,"tier":2,"id":328092794},"arcs":[[44]]},{"type":"Polygon","properties":{"kind":"park","name":"Parque Provincial Los Andes","area":18410600448,"sort_rank":24,"source":"openstreetmap.org","min_zoom":4.0,"tier":2,"id":-2848225,"osm_relation":true},"arcs":[[45]]},{"type":"Polygon","properties":{"kind":"nature_reserve","name":"APA Marinha do Litoral Norte - Setor Cunhambebe","area":1471020032,"sort_rank":23,"source":"openstreetmap.org","min_zoom":4.0,"tier":2,"id":493746478,"protect_class":"5"},"arcs":[[46]]},{"type":"Polygon","properties":{"kind":"nature_reserve","name":"Parque Nacional do Igua\u00e7u","area":2087709952,"sort_rank":23,"operator":"Instituto Chico Mendes de Conserva\u00e7\u00e3o da Biodiversidade","source":"openstreetmap.org","min_zoom":4.0,"tier":2,"id":-2639206,"osm_relation":true,"protect_class":"2"},"arcs":[[47]]},{"type":"Polygon","properties":{"kind":"national_park","name":"Parque Estadual Caverna do Diabo","area":471903008,"sort_rank":18,"source":"openstreetmap.org","min_zoom":3.0,"tier":1,"id":-5712097,"osm_relation":true,"protect_class":"2"},"arcs":[[48]]},{"type":"Polygon","properties":{"kind":"nature_reserve","name":"Parque Estadual da Serra do Tabuleiro","area":1058960000,"sort_rank":23,"operator":"Funda\u00e7\u00e3o do Meio Ambiente de Santa Catarina","source":"openstreetmap.org","min_zoom":4.0,"tier":2,"id":-5441762,"osm_relation":true,"protect_class":"2"},"arcs":[[49]]},{"type":"Polygon","properties":{"kind":"national_park","name":"Parque Estadual Intervales","area":499563008,"sort_rank":18,"operator":"Funda\u00e7\u00e3o para Conserva\u00e7\u00e3o e a Produ\u00e7\u00e3o Florestal do Estado de S\u00e3o Paulo","source":"openstreetmap.org","min_zoom":3.0,"tier":1,"id":-5726551,"osm_relation":true,"protect_class":"2"},"arcs":[[50]]},{"type":"Polygon","properties":{"kind":"national_park","name":"Parque Estadual Tur\u00edstico do Alto Ribeira","area":435124992,"sort_rank":18,"operator":"Funda\u00e7\u00e3o para Conserva\u00e7\u00e3o e a Produ\u00e7\u00e3o Florestal do Estado de S\u00e3o Paulo","source":"openstreetmap.org","min_zoom":3.0,"tier":1,"id":-5706027,"osm_relation":true,"protect_class":"2"},"arcs":[[51]]},{"type":"Polygon","properties":{"kind":"national_park","name":"Parque Estadual Carlos Botelho","area":476409984,"sort_rank":18,"operator":"Funda\u00e7\u00e3o para Conserva\u00e7\u00e3o e a Produ\u00e7\u00e3o Florestal do Estado de S\u00e3o Paulo","source":"openstreetmap.org","min_zoom":3.0,"tier":1,"id":-5700279,"osm_relation":true,"protect_class":"2"},"arcs":[[52]]},{"type":"Polygon","properties":{"kind":"nature_reserve","name":"Reserva Natural Provincial Laguna Blanca","area":10813500416,"sort_rank":23,"source":"openstreetmap.org","min_zoom":4.0,"tier":2,"id":370668228},"arcs":[[53]]},{"type":"Polygon","properties":{"kind":"national_park","name":"Parque Estadual Rio Turvo","area":898883008,"sort_rank":18,"source":"openstreetmap.org","min_zoom":3.0,"tier":1,"id":-6273630,"osm_relation":true,"protect_class":"2"},"arcs":[[54],[55]]},{"type":"MultiPolygon","properties":{"kind":"nature_reserve","name":"\u00c1rea de Prote\u00e7\u00e3o Ambiental da Serra da Mantiqueira","area":4955840000,"sort_rank":23,"operator":"Instituto Chico Mendes de Conserva\u00e7\u00e3o da Biodiversidade","source":"openstreetmap.org","min_zoom":4.0,"tier":2,"id":-3425878,"osm_relation":true,"protect_class":"5"},"arcs":[[[56]]]},{"type":"Polygon","properties":{"kind":"protected_area","name":"\u00c1rea de Prote\u00e7\u00e3o Ambiental da Baleia Franca","area":2020460032,"sort_rank":17,"operator":"Instituto Chico Mendes de Conserva\u00e7\u00e3o da Biodiversidade","source":"openstreetmap.org","min_zoom":4.0,"tier":2,"id":-3426371,"osm_relation":true,"protect_class":"5"},"arcs":[[57]]},{"type":"Polygon","properties":{"kind":"protected_area","area":3469839872,"sort_rank":17,"source":"openstreetmap.org","min_zoom":4.0,"tier":2,"id":-5725311,"osm_relation":true},"arcs":[[58]]},{"type":"Polygon","properties":{"kind":"park","name":"Parque Nacional Sierra de las Quijadas","area":1362710016,"sort_rank":24,"operator":"Administracion de Parques Nacionales","source":"openstreetmap.org","min_zoom":4.0,"tier":2,"id":-2622221,"osm_relation":true},"arcs":[[59]]},{"type":"Polygon","properties":{"kind":"park","name":"Parque Natural Provincial Valle F\u00e9rtil","area":10443700224,"sort_rank":24,"source":"openstreetmap.org","min_zoom":4.0,"tier":2,"id":-3302078,"osm_relation":true},"arcs":[[60]]},{"type":"Polygon","properties":{"kind":"nature_reserve","name":"Sitio Ramsar Lagunas de Guanacache, Desaguadero y Del Bebedero","area":12871300096,"sort_rank":23,"source":"openstreetmap.org","min_zoom":4.0,"tier":2,"id":409596584},"arcs":[[61]]},{"type":"Polygon","properties":{"kind":"park","name":"Reserva Provincial Altoandina de La Chinchilla","area":4256719872,"sort_rank":24,"source":"openstreetmap.org","min_zoom":4.0,"tier":2,"id":-3518442,"osm_relation":true},"arcs":[[62]]},{"type":"Polygon","properties":{"kind":"nature_reserve","name":"Parque Provincial Urugua-\u00ed","area":1103260032,"sort_rank":23,"source":"openstreetmap.org","min_zoom":4.0,"tier":2,"id":-5122781,"osm_relation":true},"arcs":[[63]]},{"type":"Polygon","properties":{"kind":"park","name":"Reserva Natural Esteros del Iber\u00e1","area":14381599744,"sort_rank":24,"source":"openstreetmap.org","min_zoom":4.0,"tier":2,"id":126481848},"arcs":[[64]]},{"type":"Polygon","properties":{"kind":"nature_reserve","name":"Reserva de la Biosfera Yabot\u00ed","area":2930220032,"sort_rank":23,"source":"openstreetmap.org","min_zoom":4.0,"tier":2,"id":343325752},"arcs":[[65]]},{"type":"Polygon","properties":{"kind":"nature_reserve","name":"Reserva H\u00eddrica Provincial Pampa de Achala","area":2198569984,"sort_rank":23,"source":"openstreetmap.org","min_zoom":4.0,"tier":2,"id":-5380845,"osm_relation":true},"arcs":[[66]]},{"type":"Polygon","properties":{"kind":"protected_area","name":"\u00c1rea de Prote\u00e7\u00e3o Ambiental das Ilhas e V\u00e1rzeas do Rio Paran\u00e1","area":11927600128,"sort_rank":17,"operator":"Instituto Chico Mendes de Conserva\u00e7\u00e3o da Biodiversidade","source":"openstreetmap.org","min_zoom":4.0,"tier":2,"id":-3425879,"osm_relation":true,"protect_class":"5"},"arcs":[[67]]},{"type":"Polygon","properties":{"kind":"nature_reserve","name":"Reserva Provincial Copo","area":1736280064,"sort_rank":23,"source":"openstreetmap.org","min_zoom":4.0,"tier":2,"id":329240941},"arcs":[[68]]},{"type":"MultiPolygon","properties":{"source":"naturalearthdata.com","kind":"urban_area","name":"","area":35746977038,"sort_rank":11,"min_zoom":4.0},"arcs":[[[69]],[[70]],[[71]],[[72]],[[73]],[[74]],[[75]],[[76]],[[77]],[[78]],[[79]],[[80]],[[81]],[[82]],[[83]],[[84]],[[85]],[[86]],[[87]],[[88]],[[89]],[[90]],[[91]],[[92]],[[93]],[[94]],[[95]],[[96]],[[97]],[[98]],[[99]],[[100]],[[101]],[[102]],[[103]],[[104]],[[105]],[[106]],[[107]],[[108]],[[109]],[[110]],[[111]],[[112]],[[113]],[[114]],[[115]]]},{"type":"Polygon","properties":{"kind":"protected_area","name":"\u00c1rea de Prote\u00e7\u00e3o Ambiental Canan\u00e9ia-Iguape-Peru\u00edbe","area":1158310016,"sort_rank":17,"operator":"Instituto Chico Mendes de Conserva\u00e7\u00e3o da Biodiversidade","source":"openstreetmap.org","min_zoom":4.0,"tier":2,"id":-3424553,"osm_relation":true,"protect_class":"5"},"arcs":[[116],[117],[118]]},{"type":"Polygon","properties":{"kind":"nature_reserve","name":"Reserva Ba\u00f1ados del R\u00edo Dulce y Laguna Mar Chiquita","area":14508399616,"sort_rank":23,"source":"openstreetmap.org","min_zoom":4.0,"tier":2,"id":-5380907,"osm_relation":true},"arcs":[[119]]},{"type":"Polygon","properties":{"kind":"park","name":"Reserva de Fauna y Flora Olaroz - Cauchari","area":2392410112,"sort_rank":24,"source":"openstreetmap.org","min_zoom":4.0,"tier":2,"id":-3521342,"osm_relation":true},"arcs":[[120]]},{"type":"Polygon","properties":{"kind":"nature_reserve","name":"Parque Nacional Copo","area":1452540032,"sort_rank":23,"source":"openstreetmap.org","min_zoom":4.0,"tier":2,"id":313876873},"arcs":[[121]]},{"type":"Polygon","properties":{"kind":"nature_reserve","name":"Esta\u00e7\u00e3o Ecol\u00f3gica de Jur\u00e9ia-Itatins","area":1018150016,"sort_rank":23,"operator":"Funda\u00e7\u00e3o para Conserva\u00e7\u00e3o e a Produ\u00e7\u00e3o Florestal do Estado de S\u00e3o Paulo","source":"openstreetmap.org","min_zoom":4.0,"tier":2,"id":-3819566,"osm_relation":true,"protect_class":"1"},"arcs":[[122]]},{"type":"Polygon","properties":{"kind":"nature_reserve","name":"Corredor Biogeogr\u00e1fico del Cald\u00e9n","area":9892710400,"sort_rank":23,"source":"openstreetmap.org","min_zoom":4.0,"tier":2,"id":-5380844,"osm_relation":true},"arcs":[[123]]}]}},"type":"Topology","transform":{"translate":[-67.5,-40.9798980696],"scale":[0.0054931641,0.0046476691]},"arcs":[[[2572,1557],[-5,1],[-12,6],[-10,7],[-2,5],[-1,7],[1,26],[0,71],[3,14],[6,8],[16,13],[15,18],[18,22],[16,19],[-6,12],[-13,12],[-24,9],[-23,17],[-21,21],[-9,23],[-9,24],[-8,19],[-3,9],[-8,4],[-13,9],[-8,9],[-12,6],[-21,5],[-22,10],[-27,24],[-19,26],[-10,18],[-10,12],[-57,20],[-25,24],[-10,-7],[-15,7],[-15,12],[-4,9],[-6,9],[-6,10],[-4,10],[-15,18],[-20,19],[-8,5],[-5,-1],[-4,-7],[-3,-8],[-7,-4],[-9,-9],[-9,-11],[-12,-7],[-15,-2],[-9,0],[-2,4],[-1,15],[4,33],[-9,13],[-11,14],[-13,18],[-42,39],[-57,56],[-20,17],[-19,2],[-17,-2],[-16,-8],[-13,-26],[-5,-4],[-30,1],[-31,4],[-10,16]],[[0,3895],[25,5],[31,7]],[[1654,1514],[-6,20],[-6,22],[0,21],[3,30],[7,34],[5,26],[2,20],[5,4],[21,3],[16,18],[4,10],[1,14],[-2,18],[-8,41],[-3,36]],[[1801,2322],[-7,-8],[-1,-15],[-11,-19],[-22,-24],[-7,-21],[9,-26],[2,-31],[-4,-13],[-10,-4],[-2,-8],[5,-12],[0,-16],[-4,-20],[-10,-22],[-16,-25],[-3,-17],[8,-9],[4,-9],[-1,-9],[-3,-14],[-6,-18],[-10,-14],[-13,-8],[-4,-12],[5,-13],[1,-14],[-4,-14],[2,-15],[9,-13],[-1,-16],[-14,-32]],[[2345,3314],[15,0],[6,-7],[11,-3],[11,8],[9,3],[15,1],[8,8],[9,2],[7,-5],[6,-6],[13,-1],[11,-15],[11,-5],[5,-17],[8,-45],[14,-27],[13,-30],[1,-14],[-8,-14],[-1,-19],[-5,-48],[-1,-18],[4,-12],[2,-17],[-7,-20],[-15,-31],[-14,-8],[-4,-1],[-19,-18],[-13,-6],[-8,4],[-9,-7],[-10,-20],[-12,-9],[-22,-5],[-7,-2],[-12,0],[-11,-5],[-10,-10],[-9,-4],[-11,2],[-9,-4],[-9,-10],[-5,-11],[-1,-13],[-8,-8],[-16,-4],[-5,-6],[1,-9],[-7,-7],[-26,-6],[-19,-13],[-11,-17],[-12,-11],[-19,-7],[-27,-18],[-3,-11],[10,-10],[3,-9],[-3,-8],[-8,-1],[-13,5],[-10,2],[-6,-4],[-2,-6],[0,-10],[-5,-6],[-10,-3],[-6,-8],[-3,-12],[-12,-15],[-23,-19],[-17,-25],[-13,-31],[-15,-20],[-17,-10],[-12,-14],[-7,-18],[-18,-28],[-30,-38],[-28,-26],[-24,-15],[-14,-16],[-3,-18],[-16,-20],[-29,-23],[-8,-10]],[[0,3634],[26,12],[4,13],[3,8],[18,65],[24,84],[14,52],[-33,39]],[[883,4033],[4,11],[11,42],[3,10]],[[883,4033],[-3,4],[-14,12],[-13,24],[-4,11],[-1,0],[-77,0],[-75,-1],[-7,-5],[-11,0],[-8,5],[-8,-1],[-11,-4],[-10,-10],[-28,-63],[-14,-27],[-10,-24],[-8,-41],[-3,-7],[-9,14],[-13,38],[-6,21],[-8,25],[-15,31],[-17,9],[-11,3],[-15,6],[-28,7],[-11,2],[-78,1],[-6,0],[-31,-3],[-15,2],[-16,18],[-20,16]],[[222,4096],[0,-1],[-8,-23],[-7,-13],[-26,-9],[-24,-10],[-14,-3],[-7,-11],[-3,-16],[-6,-14],[-34,-22],[-8,-9],[-4,-21],[-19,-27],[-6,-10]],[[2345,3314],[1,31],[25,46],[7,21],[-3,12],[7,43],[19,73],[5,48],[-6,22],[0,16],[9,13],[5,4],[-24,17],[-13,15],[-16,10],[-17,9],[-9,-4],[-9,-5],[-17,-8],[-20,-13],[-10,-5],[-18,-5],[-21,-4],[-17,3],[-14,2],[-9,9],[-5,18],[0,16],[-3,23],[-11,13],[-3,10],[-1,12],[1,13],[3,10],[-2,12],[-4,9],[1,15],[-3,20],[-7,13],[-3,15],[0,15],[-6,15],[-1,16],[5,15],[2,15],[-5,11],[-11,6],[-7,17],[-2,22],[-8,13],[-9,10],[-10,0],[-16,5],[-14,0],[-22,0],[-10,4],[-6,8],[-14,10],[-7,19],[-10,3],[-14,-5],[-5,-7],[-5,-10],[-10,-12],[-12,1],[-14,-6],[-12,-1],[-17,-2],[-17,6],[-20,6],[-18,5],[-17,-5],[-11,4],[-15,2],[-17,2],[-13,11],[-15,6],[-8,-2],[-10,-7],[-11,2],[-14,5],[-5,14],[1,8],[3,9],[3,5]],[[883,4033],[4,-6],[0,-6],[16,-12],[30,-20],[29,-37],[27,-55],[25,-41],[24,-27],[22,-18],[19,-11],[11,-9],[1,-7],[19,-14],[35,-21],[23,-22],[9,-21],[35,-22],[61,-23],[45,-11],[27,1],[40,-18],[52,-37],[31,-26],[11,-14],[34,-24],[85,-48],[37,-12],[17,-11],[11,-14],[10,-4],[10,5],[22,-5],[32,-15],[25,-19],[32,-41],[11,-17],[4,-15],[-2,-13],[-9,-14],[-19,-14],[-5,-7],[0,-6],[-5,-12],[-15,-27],[-4,-12],[-1,-9],[-9,-10],[-26,-19],[-5,-9],[-1,-9],[-3,-6],[-4,-2],[-5,-10],[-4,-16],[0,-20],[3,-25],[0,-8],[-6,-5],[-3,-6],[-1,-11],[-5,-9],[-8,-5],[-3,-6],[2,-7],[-6,-7],[-15,-7],[-9,-10],[-3,-13],[-8,-12],[-13,-10],[-4,-14],[6,-26],[80,9],[65,-9],[76,-25],[51,-8],[25,7],[19,-1],[12,-9],[16,-2],[21,5],[17,-4],[13,-14],[12,3],[11,22],[13,15],[14,10],[17,3],[21,-4],[17,-8],[13,-12],[13,1],[15,12],[7,15],[0,17],[6,13],[12,7],[9,10],[4,13],[15,8],[25,3],[13,6],[1,9],[7,9],[14,9],[9,10],[5,12],[9,8],[11,3],[13,25],[14,49],[9,65],[2,92]],[[2713,1806],[-4,-11],[-7,-13],[-7,-13],[-6,-12],[-8,-13],[-6,-7],[-8,-2],[-8,1],[-8,11],[-7,8],[-7,5],[-10,-2],[-11,-8],[-8,-24],[-10,-21],[-11,-6],[-7,0],[-4,-2],[-5,-6],[-6,-8],[-5,-17],[-3,-24],[3,-27],[-3,-12],[-7,-4],[-3,-2],[-3,1],[-3,3],[-3,5],[-2,7],[-1,11],[0,14],[-2,15],[-3,12],[-3,11],[-1,12],[5,12],[9,12],[14,14],[12,1],[9,6],[6,9],[2,11],[0,8],[2,7],[6,6],[9,6],[7,6],[7,6],[9,7],[11,4],[7,14],[6,14],[15,8],[12,9],[1,9],[2,8],[3,10],[6,10],[5,4],[3,-1],[2,-7],[0,-24],[7,-10],[5,-12],[6,-10],[0,-9],[-1,-10]],[[633,2589],[-12,-23],[-20,-40],[-10,-2],[5,30],[-3,10],[-16,3],[-10,-8],[1,-13],[-1,-26],[5,-25],[8,-14],[-22,-23],[-12,0],[-11,-2],[-7,10],[9,46],[-4,39],[1,26],[17,12],[27,12],[21,-5],[21,0],[12,2],[1,-9]],[[434,2334],[-2,-7],[-30,4],[-16,-6],[-1,-8],[12,-27],[-5,-3],[-16,6],[-15,12],[-4,19],[-11,19],[-9,9],[11,9],[23,6],[30,-2],[18,-13],[15,-18]],[[513,2366],[-1,-13],[-7,-8],[-24,-7],[-21,-9],[-7,10],[2,22],[12,10],[10,9],[-4,41],[-9,36],[7,8],[13,0],[-2,-34],[6,-19],[12,-12],[9,-16],[4,-18]],[[2424,3501],[-8,-4],[-12,-5],[-3,-7],[1,-8],[9,-12],[6,-10],[-5,1],[-11,6],[-8,0],[-4,-6],[-3,-6],[1,-8],[9,-11],[4,-10],[-3,-8],[-3,-5],[-5,-2],[0,-6],[16,-8],[16,-5],[-12,-5],[-13,-6],[-8,-3],[-9,-1],[0,-6],[6,-8],[-5,-3],[-12,0],[-6,-2],[-5,-5],[-5,-4],[-6,1],[-4,4],[0,24],[5,8],[11,7],[5,9],[-1,8],[-6,4],[-4,2],[1,3],[-9,2],[-18,3],[-6,6],[8,4],[19,0],[15,-2],[3,8],[0,11],[-3,6],[-26,7],[-23,5],[4,3],[13,-1],[16,-3],[15,2],[10,6],[2,9],[-11,12],[6,8],[17,5],[2,7],[0,8],[-6,9],[0,8],[6,7],[-2,12],[3,8],[9,3],[4,7],[0,10],[-7,13],[-3,11],[2,10],[1,9],[5,7],[10,5],[-3,-17],[2,-17],[4,-13],[-1,-39],[-1,-38],[8,-9],[6,-5]],[[959,2195],[-32,-13],[-30,-5],[-28,-12],[-15,15],[-9,10],[-13,11],[-9,13],[9,9],[19,5],[19,9],[6,7],[8,6],[40,-8],[2,4],[7,-1],[16,-9],[10,-18],[0,-23]],[[427,0],[0,7],[4,14],[11,17],[28,15],[9,0],[12,-5],[-3,-8],[-6,-4],[42,-9],[43,-15],[32,-12],[-172,0]],[[888,0],[41,19],[17,17],[10,30],[-26,46],[-6,22],[4,35],[14,52],[7,12],[6,4],[22,11],[9,56],[1,23],[-10,6],[-8,11],[22,2],[-13,13],[-15,11],[-15,4],[-8,20],[6,35],[-13,29],[7,11],[27,-3],[22,-23],[40,-9],[45,-8],[40,4],[49,-2],[38,4],[196,29],[27,9],[122,26],[151,51],[97,58],[18,18],[7,38],[20,35],[57,64],[65,105],[10,23],[1,25],[-6,67],[-3,8],[-6,9],[-34,-1],[-25,12],[-35,32],[-13,26],[-7,27],[4,39],[36,46],[-3,31],[-24,37],[-44,37],[-40,26],[-94,46],[-25,32],[-8,16],[-11,35],[9,7],[7,2],[8,13],[-3,29],[-4,15],[-5,20],[-13,31],[-3,19],[17,81],[5,38],[9,9],[12,-3],[11,1],[9,14],[5,12],[-9,85],[4,20],[7,-21],[6,-41],[8,-29],[-1,-16],[-12,-21],[-12,-14],[-13,-2],[-13,-9],[2,-17],[-10,-54],[-5,-45],[7,-41],[35,-43],[44,-42],[11,-18],[5,-13],[9,-6],[52,6],[67,-1],[58,-48],[71,-21],[14,-18],[25,-9],[10,-1],[14,-1],[46,21],[35,8],[55,-7],[24,-19],[26,0],[35,-8],[98,43],[17,14],[19,-1],[29,34],[41,29],[7,28],[38,50],[12,36],[9,15],[9,8],[82,73],[29,30],[20,27],[26,57],[30,94],[13,24],[15,23],[11,11],[-7,17],[-4,26],[-1,18],[14,41],[17,20],[6,24],[4,23],[8,9],[38,21],[39,30],[7,11],[-4,16],[5,14],[15,14],[3,37],[8,-6],[6,-10],[-1,34],[8,27],[11,12],[5,10],[-23,26],[-2,22],[-1,23],[9,-5],[3,-14],[10,-19],[25,-11],[3,-23],[17,-1],[52,29],[15,-3],[3,-14],[-6,-26],[-6,-4],[-13,9],[-6,-2],[5,-60],[-14,-24],[-31,-19],[-5,-22],[2,-10],[-5,-9],[-23,3],[-10,-8],[1,-32],[-3,-16],[-18,-29],[-31,-18],[-43,-46],[-23,-5],[-6,-8],[-10,-7],[-18,11],[-13,-3],[1,-18],[3,-14],[-5,-18],[6,-12],[21,27],[22,20],[62,42],[56,48],[42,48],[32,41],[23,36],[58,102],[49,134],[52,94],[45,62],[41,44],[46,37],[40,27],[1,29],[19,28],[8,22],[5,29],[3,53],[-7,58],[13,40],[-5,23],[8,15],[-3,15],[-4,14],[-4,39],[-12,38],[1,19],[3,20],[1,25],[-9,12],[-8,17],[6,9],[6,1],[11,10],[8,52],[-7,13],[-12,0],[3,7],[22,6],[26,47],[-5,10],[-14,6],[-34,7],[-7,26],[16,-15],[14,-2],[16,1],[9,8],[-6,20],[11,9],[23,-8],[16,0],[-10,-21],[7,-2],[32,38],[18,15],[4,22],[-10,0],[-5,7],[13,7],[7,1],[9,9],[43,37],[83,62],[49,56],[43,27],[120,67],[24,7],[32,0],[25,-9],[11,1],[6,9],[2,16],[18,19],[20,5],[39,34],[0,-3779],[-3208,0]],[[4041,3712],[-27,-36],[7,-9],[20,5],[8,-6],[0,11],[1,8],[4,6],[-3,9],[-5,7],[-5,5]],[[3429,3161],[11,-27],[3,3],[3,4],[7,15],[6,20],[-7,10],[-23,-25]],[[3451,2884],[-2,-51],[12,10],[-2,13],[16,30],[6,25],[-7,11],[-9,-8],[-7,-13],[-7,-17]],[[1024,389],[-6,8],[-11,5],[-23,5],[2,-5],[8,-12],[22,-13],[10,-2],[-2,14]],[[11,3568],[3,-1],[-6,-65],[-8,-19],[0,76],[11,9]],[[434,2334],[-2,-7],[-30,4],[-16,-6],[-1,-8],[12,-27],[-5,-3],[-16,6],[-15,12],[-4,19],[-11,19],[-9,9],[11,9],[23,6],[30,-2],[18,-13],[15,-18]],[[513,2366],[-1,-13],[-7,-8],[-24,-7],[-21,-9],[-7,10],[2,22],[12,10],[10,9],[-4,41],[-9,36],[7,8],[13,0],[-2,-34],[6,-19],[12,-12],[9,-16],[4,-18]],[[633,2589],[-12,-23],[-20,-40],[-10,-2],[5,30],[-3,10],[-16,3],[-10,-8],[1,-13],[-1,-26],[5,-25],[8,-14],[-22,-23],[-12,0],[-11,-2],[-7,10],[9,46],[-4,39],[1,26],[17,12],[27,12],[21,-5],[21,0],[12,2],[1,-9]],[[11,3568],[3,-1],[-6,-65],[-8,-19]],[[0,3559],[11,9]],[[2713,1806],[-4,-11],[-7,-13],[-7,-13],[-6,-12],[-8,-13],[-6,-7],[-8,-2],[-8,1],[-8,11],[-7,8],[-7,5],[-10,-2],[-11,-8],[-8,-24],[-10,-21],[-11,-6],[-7,0],[-4,-2],[-5,-6],[-6,-8],[-5,-17],[-3,-24],[3,-27],[-3,-12],[-7,-4],[-3,-2],[-3,1],[-3,3],[-3,5],[-2,7],[-1,11],[0,14],[-2,15],[-3,12],[-3,11],[-1,12],[5,12],[9,12],[14,14],[12,1],[9,6],[6,9],[2,11],[0,8],[2,7],[6,6],[9,6],[7,6],[7,6],[9,7],[11,4],[7,14],[6,14],[15,8],[12,9],[1,9],[2,8],[3,10],[6,10],[5,4],[3,-1],[2,-7],[0,-24],[7,-10],[5,-12],[6,-10],[0,-9],[-1,-10]],[[959,2195],[-32,-13],[-30,-5],[-28,-12],[-15,15],[-9,10],[-13,11],[-9,13],[9,9],[19,5],[19,9],[6,7],[8,6],[40,-8],[2,4],[7,-1],[16,-9],[10,-18],[0,-23]],[[2424,3501],[-8,-4],[-12,-5],[-3,-7],[1,-8],[9,-12],[6,-10],[-5,1],[-11,6],[-8,0],[-4,-6],[-3,-6],[1,-8],[9,-11],[4,-10],[-3,-8],[-3,-5],[-5,-2],[0,-6],[16,-8],[16,-5],[-12,-5],[-13,-6],[-8,-3],[-9,-1],[0,-6],[6,-8],[-5,-3],[-12,0],[-6,-2],[-5,-5],[-5,-4],[-6,1],[-4,4],[0,24],[5,8],[11,7],[5,9],[-1,8],[-6,4],[-4,2],[1,3],[-9,2],[-18,3],[-6,6],[8,4],[19,0],[15,-2],[3,8],[0,11],[-3,6],[-26,7],[-23,5],[4,3],[13,-1],[16,-3],[15,2],[10,6],[2,9],[-11,12],[6,8],[17,5],[2,7],[0,8],[-6,9],[0,8],[6,7],[-2,12],[3,8],[9,3],[4,7],[0,10],[-7,13],[-3,11],[2,10],[1,9],[5,7],[10,5],[-3,-17],[2,-17],[4,-13],[-1,-39],[-1,-38],[8,-9],[6,-5]],[[1007,402],[-23,5],[2,-5],[8,-12],[22,-13],[10,-2],[-2,14],[-6,8],[-11,5]],[[3459,3176],[-7,10],[-23,-25],[11,-27],[3,3],[3,4],[7,15],[6,20]],[[3451,2884],[-2,-51],[12,10],[-2,13],[16,30],[6,25],[-7,11],[-9,-8],[-7,-13],[-7,-17]],[[4054,3691],[-3,9],[-5,7],[-5,5],[-27,-36],[7,-9],[20,5],[8,-6],[0,11],[1,8],[4,6]],[[427,0],[0,7],[4,14],[11,17],[28,15],[9,0],[12,-5],[-3,-8],[-6,-4],[42,-9],[43,-15],[32,-12]],[[888,0],[41,19],[17,17],[10,30],[-26,46],[-6,22],[4,35],[14,52],[7,12],[6,4],[22,11],[9,56],[1,23],[-10,6],[-8,11],[22,2],[-13,13],[-15,11],[-15,4],[-8,20],[6,35],[-13,29],[7,11],[27,-3],[22,-23],[40,-9],[45,-8],[40,4],[49,-2],[38,4],[196,29],[27,9],[122,26],[151,51],[97,58],[18,18],[7,38],[20,35],[57,64],[65,105],[10,23],[1,25],[-6,67],[-3,8],[-6,9],[-34,-1],[-25,12],[-35,32],[-13,26],[-7,27],[4,39],[36,46],[-3,31],[-24,37],[-44,37],[-40,26],[-94,46],[-25,32],[-8,16],[-11,35],[9,7],[7,2],[8,13],[-3,29],[-4,15],[-5,20],[-13,31],[-3,19],[17,81],[5,38],[9,9],[12,-3],[11,1],[9,14],[5,12],[-9,85],[4,20],[7,-21],[6,-41],[8,-29],[-1,-16],[-12,-21],[-12,-14],[-13,-2],[-13,-9],[2,-17],[-10,-54],[-5,-45],[7,-41],[35,-43],[44,-42],[11,-18],[5,-13],[9,-6],[52,6],[67,-1],[58,-48],[71,-21],[14,-18],[25,-9],[10,-1],[14,-1],[46,21],[35,8],[55,-7],[24,-19],[26,0],[35,-8],[98,43],[17,14],[19,-1],[29,34],[41,29],[7,28],[38,50],[12,36],[9,15],[9,8],[82,73],[29,30],[20,27],[26,57],[30,94],[13,24],[15,23],[11,11],[-7,17],[-4,26],[-1,18],[14,41],[17,20],[6,24],[4,23],[8,9],[38,21],[39,30],[7,11],[-4,16],[5,14],[15,14],[3,37],[8,-6],[6,-10],[-1,34],[8,27],[11,12],[5,10],[-23,26],[-2,22],[-1,23],[9,-5],[3,-14],[10,-19],[25,-11],[3,-23],[17,-1],[52,29],[15,-3],[3,-14],[-6,-26],[-6,-4],[-13,9],[-6,-2],[5,-60],[-14,-24],[-31,-19],[-5,-22],[2,-10],[-5,-9],[-23,3],[-10,-8],[1,-32],[-3,-16],[-18,-29],[-31,-18],[-43,-46],[-23,-5],[-6,-8],[-10,-7],[-18,11],[-13,-3],[1,-18],[3,-14],[-5,-18],[6,-12],[21,27],[22,20],[62,42],[56,48],[42,48],[32,41],[23,36],[58,102],[49,134],[52,94],[45,62],[41,44],[46,37],[40,27],[1,29],[19,28],[8,22],[5,29],[3,53],[-7,58],[13,40],[-5,23],[8,15],[-3,15],[-4,14],[-4,39],[-12,38],[1,19],[3,20],[1,25],[-9,12],[-8,17],[6,9],[6,1],[11,10],[8,52],[-7,13],[-12,0],[3,7],[22,6],[26,47],[-5,10],[-14,6],[-34,7],[-7,26],[16,-15],[14,-2],[16,1],[9,8],[-6,20],[11,9],[23,-8],[16,0],[-10,-21],[7,-2],[32,38],[18,15],[4,22],[-10,0],[-5,7],[13,7],[7,1],[9,9],[43,37],[83,62],[49,56],[43,27],[120,67],[24,7],[32,0],[25,-9],[11,1],[6,9],[2,16],[18,19],[20,5],[39,34]],[[4049,3677],[0,-11],[-8,6],[-20,-5],[-7,9],[27,36],[5,-5],[5,-7],[3,-9],[-4,-6],[-1,-8]],[[1024,389],[2,-14],[-10,2],[-22,13],[-8,12],[-2,5],[23,-5],[11,-5],[6,-8]],[[3461,2843],[-12,-10],[2,51],[7,17],[7,13],[9,8],[7,-11],[-6,-25],[-16,-30],[2,-13]],[[3443,3137],[-3,-3],[-11,27],[23,25],[7,-10],[-6,-20],[-7,-15],[-3,-4]],[[4096,4096],[0,-317],[-39,-34],[-20,-5],[-18,-19],[-2,-16],[-6,-9],[-11,-1],[-25,9],[-32,0],[-24,-7],[-120,-67],[-43,-27],[-49,-56],[-83,-62],[-43,-37],[-9,-9],[-7,-1],[-13,-7],[5,-7],[10,0],[-4,-22],[-18,-15],[-32,-38],[-7,2],[10,21],[-16,0],[-23,8],[-11,-9],[6,-20],[-9,-8],[-16,-1],[-14,2],[-16,15],[7,-26],[34,-7],[14,-6],[5,-10],[-26,-47],[-22,-6],[-3,-7],[12,0],[7,-13],[-8,-52],[-11,-10],[-6,-1],[-6,-9],[8,-17],[9,-12],[-1,-25],[-3,-20],[-1,-19],[12,-38],[4,-39],[4,-14],[3,-15],[-8,-15],[5,-23],[-13,-40],[7,-58],[-3,-53],[-5,-29],[-8,-22],[-19,-28],[-1,-29],[-40,-27],[-46,-37],[-41,-44],[-45,-62],[-52,-94],[-49,-134],[-58,-102],[-23,-36],[-32,-41],[-42,-48],[-56,-48],[-62,-42],[-22,-20],[-21,-27],[-6,12],[5,18],[-3,14],[-1,18],[13,3],[18,-11],[10,7],[6,8],[23,5],[43,46],[31,18],[18,29],[3,16],[-1,32],[10,8],[23,-3],[5,9],[-2,10],[5,22],[31,19],[14,24],[-5,60],[6,2],[13,-9],[6,4],[6,26],[-3,14],[-15,3],[-52,-29],[-17,1],[-3,23],[-25,11],[-10,19],[-3,14],[-9,5],[1,-23],[2,-22],[23,-26],[-5,-10],[-11,-12],[-8,-27],[1,-34],[-6,10],[-8,6],[-3,-37],[-15,-14],[-5,-14],[4,-16],[-7,-11],[-39,-30],[-38,-21],[-8,-9],[-4,-23],[-6,-24],[-17,-20],[-14,-41],[1,-18],[4,-26],[7,-17],[-11,-11],[-15,-23],[-13,-24],[-30,-94],[-26,-57],[-20,-27],[-29,-30],[-82,-73],[-9,-8],[-9,-15],[-12,-36],[-38,-50],[-7,-28],[-41,-29],[-29,-34],[-19,1],[-17,-14],[-98,-43],[-35,8],[-26,0],[-24,19],[-55,7],[-35,-8],[-46,-21],[-14,1],[-10,1],[-25,9],[-14,18],[-71,21],[-58,48],[-67,1],[-52,-6],[-9,6],[-5,13],[-11,18],[-44,42],[-35,43],[-7,41],[5,45],[10,54],[-2,17],[13,9],[13,2],[12,14],[12,21],[1,16],[-8,29],[-6,41],[-7,21],[-4,-20],[9,-85],[-5,-12],[-9,-14],[-11,-1],[-12,3],[-9,-9],[-5,-38],[-17,-81],[3,-19],[13,-31],[5,-20],[4,-15],[3,-29],[-8,-13],[-7,-2],[-9,-7],[11,-35],[8,-16],[25,-32],[94,-46],[40,-26],[44,-37],[24,-37],[3,-31],[-36,-46],[-4,-39],[7,-27],[13,-26],[35,-32],[25,-12],[34,1],[6,-9],[3,-8],[6,-67],[-1,-25],[-10,-23],[-65,-105],[-57,-64],[-20,-35],[-7,-38],[-18,-18],[-97,-58],[-151,-51],[-122,-26],[-27,-9],[-196,-29],[-38,-4],[-49,2],[-40,-4],[-45,8],[-40,9],[-22,23],[-27,3],[-7,-11],[13,-29],[-6,-35],[8,-20],[15,-4],[15,-11],[13,-13],[-22,-2],[8,-11],[10,-6],[-1,-23],[-9,-56],[-22,-11],[-6,-4],[-7,-12],[-14,-52],[-4,-35],[6,-22],[26,-46],[-10,-30],[-17,-17],[-41,-19],[-289,0],[-32,12],[-43,15],[-42,9],[6,4],[3,8],[-12,5],[-9,0],[-28,-15],[-11,-17],[-4,-14],[0,-7],[-427,0],[0,4096],[4096,0]],[[0,4057],[22,-6],[82,-73],[-15,-35],[-89,-46],[0,160]],[[1114,3447],[41,47],[52,-63],[-37,-42],[-56,58]],[[0,3631],[32,15],[20,73],[122,-110],[30,19],[4,44],[37,-22],[-15,-91],[-49,40],[26,-61],[-8,-51],[-199,2],[0,142]],[[4031,3735],[50,21],[15,26],[0,-47],[-65,0]],[[2369,3304],[12,17],[92,24],[10,58],[42,24],[-15,-116],[-70,-6],[-2,27],[-59,-44],[-10,16]],[[3442,3522],[22,14],[-6,-26],[35,13],[-14,-21],[27,-7],[-27,-17],[-37,44]],[[3370,2837],[58,18],[17,-36],[-32,2],[-21,-75],[-22,91]],[[3455,3565],[13,35],[72,6],[-11,-27],[-44,6],[1,-30],[-17,-12],[10,21],[-24,1]],[[3415,3519],[25,63],[8,10],[17,0],[-50,-73]],[[3528,3629],[35,21],[26,-25],[-38,-24],[-23,28]],[[36,3029],[27,121],[32,149],[31,-17],[-4,-56],[70,-81],[-1,-81],[-19,-54],[-129,-37],[-7,56]],[[3441,3436],[32,12],[-7,31],[32,7],[11,-1],[3,-23],[17,25],[3,-43],[-57,-1],[-21,-26],[-13,19]],[[3484,3453],[11,-3],[2,8],[-11,0],[-2,-5]],[[3974,3934],[71,67],[49,-5],[-60,-82],[-59,-21],[33,45],[-34,-4]],[[3323,2620],[62,39],[5,30],[25,-3],[25,137],[23,19],[-50,-181],[-90,-41]],[[3408,3356],[8,61],[59,26],[29,0],[11,-48],[31,-6],[-48,-56],[-90,23]],[[34,1845],[54,3],[6,-71],[-44,8],[-16,60]],[[0,2231],[53,-111],[-13,-69],[-40,-23],[0,203]],[[0,1934],[44,0],[8,-73],[50,-32],[-8,-52],[-26,-10],[1,-140],[31,-51],[25,-1],[55,66],[-4,-143],[-31,-16],[8,28],[-80,91],[-16,39],[-3,134],[-39,68],[-15,5],[0,87]],[[52,3719],[41,149],[-35,41],[28,58],[45,23],[21,-40],[-31,-2],[-11,-245],[-22,-21],[-36,37]],[[2406,3244],[25,44],[68,-105],[-47,6],[0,35],[-46,20]],[[1634,2595],[167,133],[83,145],[120,7],[-7,-78],[-115,-133],[-193,-85],[-55,11]],[[2400,3027],[32,35],[54,-1],[-15,29],[35,-1],[11,-69],[-30,-49],[-35,-14],[-13,49],[-24,-10],[-15,31]],[[456,2033],[22,50],[31,-20],[6,-76],[-34,-73],[-20,4],[-5,115]],[[2389,3829],[45,27],[46,-18],[11,63],[-25,21],[41,45],[1,41],[101,16],[18,-53],[35,-3],[-122,-102],[35,-47],[-44,-14],[-92,-167],[-26,-1],[-22,40],[37,28],[24,105],[19,3],[-82,16]],[[945,3218],[1,80],[56,-1],[-15,-50],[21,-62],[-63,33]],[[968,478],[-24,-9],[-21,29],[32,3],[13,-23]],[[1607,534],[7,-15],[-30,-10],[1,21],[22,4]],[[1816,665],[5,-1],[-14,-47],[-26,22],[35,26]],[[1512,800],[16,-3],[14,1],[-27,-19],[-3,21]],[[576,932],[10,18],[16,-13],[-11,-8],[-15,3]],[[1960,968],[7,3],[5,-63],[-11,13],[-1,47]],[[2306,1311],[-13,-10],[-22,5],[11,14],[24,-9]],[[206,1664],[14,1],[14,2],[-22,-24],[-6,21]],[[2745,1986],[19,15],[18,-20],[-21,-5],[-16,10]],[[1260,1978],[13,20],[13,-20],[-12,-4],[-14,4]],[[1240,2000],[-26,-3],[12,36],[34,-17],[-20,-16]],[[1623,1724],[17,0],[11,-5],[-28,-11],[0,16]],[[1256,1724],[2,-16],[-39,11],[4,73],[33,-68]],[[2992,2330],[-23,-9],[-20,34],[-13,-38],[1,43],[24,3],[7,76],[45,9],[-23,-49],[30,-22],[-28,-47]],[[3189,2424],[1,0],[-32,-80],[16,69],[15,11]],[[2957,2536],[10,17],[18,-1],[-7,-19],[-21,3]],[[306,2683],[11,23],[16,-9],[-10,-14],[-17,0]],[[578,2831],[6,24],[20,6],[2,-33],[-28,3]],[[2111,2935],[14,5],[-7,-30],[-18,14],[11,11]],[[1559,2926],[7,-24],[-23,-1],[-7,23],[23,2]],[[3428,3042],[8,0],[5,-39],[-28,27],[15,12]],[[403,3071],[22,-8],[15,-16],[-44,-3],[7,27]],[[3385,3167],[17,5],[7,-23],[-19,2],[-5,16]],[[1684,3181],[6,18],[17,1],[-5,-18],[-18,-1]],[[1723,2082],[14,-8],[7,-17],[-35,0],[14,25]],[[597,2082],[35,-16],[-5,-22],[-37,-3],[-12,60],[19,-19]],[[2139,1348],[19,-14],[-86,-28],[-44,9],[-7,27],[28,27],[90,-21]],[[1652,1382],[52,-65],[53,0],[-3,-25],[-156,3],[7,30],[-60,47],[23,11],[-21,35],[35,22],[70,-58]],[[2342,3339],[26,-3],[-12,-30],[-32,28],[18,5]],[[3343,3351],[1,-34],[-51,-11],[20,69],[30,-24]],[[1822,3396],[14,-30],[-23,-21],[-39,32],[48,19]],[[3142,3429],[19,-1],[9,-12],[-14,-9],[-14,22]],[[387,3500],[4,-22],[-21,-8],[-2,19],[19,11]],[[424,3599],[-20,2],[-15,14],[20,2],[15,-18]],[[3786,3630],[13,0],[-43,-27],[3,11],[27,16]],[[3836,3681],[28,-15],[-52,-29],[19,44],[5,0]],[[3868,3763],[21,2],[-44,-27],[0,-27],[-67,-17],[-39,44],[32,52],[-34,48],[39,-13],[14,-49],[67,14],[11,-27]],[[2950,3812],[37,-6],[-6,-19],[-19,8],[-12,17]],[[3635,3754],[7,23],[21,2],[-12,-33],[-16,8]],[[2819,3774],[15,15],[12,-18],[-16,-1],[-11,4]],[[4002,3877],[17,14],[-21,-38],[-37,-8],[41,32]],[[3739,3870],[0,-20],[-30,14],[-58,68],[62,0],[26,-62]],[[3602,3935],[16,6],[8,-23],[-15,2],[-9,15]],[[3749,3999],[-10,-15],[-2,35],[11,0],[1,-20]],[[3344,4014],[11,13],[14,-10],[-12,-13],[-13,10]],[[3938,3836],[18,0],[-48,-35],[20,41],[10,-6]],[[3820,3839],[-23,0],[11,27],[7,-12],[5,-15]],[[3521,3429],[23,55],[13,-19],[4,24],[44,-9],[32,25],[17,4],[-108,-117],[-25,37]],[[3549,3430],[11,-3],[20,33],[-10,-5],[-10,-18],[-11,-7]],[[3551,3435],[13,13],[-4,5],[-4,-3],[-5,-15]],[[733,2270],[22,143],[97,-24],[48,-40],[7,-60],[63,-1],[-1,-103],[-43,-34],[-31,-6],[4,29],[-56,-23],[-15,40],[-45,3],[-2,31],[-44,11],[-4,34]],[[104,3670],[31,114],[25,0],[11,-171],[-67,57]],[[987,3247],[15,50],[52,0],[0,-68],[-67,18]],[[3641,3570],[20,14],[1,-24],[27,21],[43,-4],[-68,-59],[-23,52]],[[435,1511],[132,-55],[20,-172],[-151,-1],[-1,228]]]}