{"objects":{"water":{"type":"GeometryCollection","geometries":[{"type":"MultiPolygon","properties":{"source":"naturalearthdata.com","kind":"ocean","area":1576712559132672,"sort_rank":200,"min_zoom":0.0,"id":1},"arcs":[[[8]],[[9]],[[10]],[[11],[12],[13],[14]]]},{"type":"MultiLineString","properties":{"source":"naturalearthdata.com","kind":"ocean","sort_rank":205,"boundary":true,"min_zoom":0.0,"id":4118},"arcs":[[15],[16],[17],[18],[19],[20],[21]]},{"type":"LineString","properties":{"source":"naturalearthdata.com","kind":"ocean","sort_rank":205,"boundary":true,"min_zoom":0.0,"id":4120},"arcs":[22]},{"type":"LineString","properties":{"source":"naturalearthdata.com","kind":"ocean","sort_rank":205,"boundary":true,"min_zoom":0.0,"id":4121},"arcs":[23]},{"type":"LineString","properties":{"source":"naturalearthdata.com","kind":"ocean","sort_rank":205,"boundary":true,"min_zoom":0.0,"id":4122},"arcs":[24]},{"type":"LineString","properties":{"source":"naturalearthdata.com","kind":"ocean","sort_rank":205,"boundary":true,"min_zoom":0.0,"id":4126},"arcs":[25]}]},"buildings":{"type":"GeometryCollection","geometries":[]},"places":{"type":"GeometryCollection","geometries":[]},"transit":{"type":"GeometryCollection","geometries":[]},"pois":{"type":"GeometryCollection","geometries":[]},"boundaries":{"type":"GeometryCollection","geometries":[{"type":"LineString","properties":{"name:ty":"Aotearoa","name:ka":"\u10d0\u10ee\u10d0\u10da\u10d8 \u10d6\u10d4\u10da\u10d0\u10dc\u10d3\u10d8\u10d0","name:ko":"\ub274\uc9c8\ub79c\ub4dc","name:cv":"\u00c7\u0115\u043d\u0115 \u0417\u0435\u043b\u0430\u043d\u0434\u0438","name:km":"\u1793\u17bc\u179c\u17c2\u179b\u179f\u17c1\u17a1\u1784\u17cb","name:kl":"New Zealand","name:cs":"Nov\u00fd Z\u00e9land","name:tt":"\u042f\u04a3\u0430 \u0417\u0435\u043b\u0430\u043d\u0434\u0438\u044f","name:kw":"Mordir Nowydh","name:kv":"\u0412\u044b\u043b\u044c \u0417\u0435\u043b\u0430\u043d\u0434\u0438\u044f","name:ku":"N\u00fb Zelenda","name:tl":"New Zealand","name:ta":"\u0ba8\u0bbf\u0baf\u0bc2\u0b9a\u0bbf\u0bb2\u0bbe\u0ba8\u0bcd\u0ba4\u0bc1","name:tg":"\u0417\u0435\u043b\u0430\u043d\u0434\u0438\u044f\u0438 \u041d\u0430\u0432","name:ca":"Nova Zelanda","name:te":"\u0c28\u0c4d\u0c2f\u0c42\u0c1c\u0c40\u0c32\u0c3e\u0c02\u0c21\u0c4d","name:cy":"Seland Newydd","name:qu":"Musuq Silanda","name:da":"New Zealand","name:de":"Neuseeland","name:dz":"\u0f53\u0f72\u0f60\u0f74\u0f0b\u0f5b\u0f72\u0f0b\u0f63\u0f7a\u0f53\u0f4c\u0f0b","source":"openstreetmap.org","name:kn":"\u0ca8\u0ccd\u0caf\u0cc2 \u0c9c\u0cc0\u0cb2\u0ccd\u0caf\u0cbe\u0c82\u0ca1\u0ccd","name:dv":"\u0782\u07a8\u0787\u07aa\u0792\u07a8\u078d\u07ad\u0782\u07b0\u0791\u07aa","name:lv":"Jaunz\u0113lande","name:lt":"Naujoji Zelandija","name:uz":"Yangi Zelandiya","name:kk":"\u0416\u0430\u04a3\u0430 \u0417\u0435\u043b\u0430\u043d\u0434\u0438\u044f","name:ur":"\u0646\u06cc\u0648\u0632\u06cc \u0644\u06cc\u0646\u0688","name:lb":"Neis\u00e9iland","name:la":"Nova Zelandia","name:uk":"\u041d\u043e\u0432\u0430 \u0417\u0435\u043b\u0430\u043d\u0434\u0456\u044f","name:ug":"\u064a\u06d0\u06ad\u0649 \u0632\u06d0\u0644\u0627\u0646\u062f\u0649\u064a\u06d5","name:li":"Nui-Zieland","name:lo":"\u0e9b\u0eb0\u0ec0\u0e97\u0e94\u0e99\u0eb9\u0ec1\u0ea7\u0e99 \u0ec0\u0e8a\u0ea5\u0eb1\u0e87","name:el":"\u039d\u03ad\u03b1 \u0396\u03b7\u03bb\u03b1\u03bd\u03b4\u03af\u03b1","name:eo":"Nov-Zelando","name:en":"New Zealand","name":"New Zealand\/Aotearoa","name:tk":"T\u00e4ze Zelandi\u00fda","name:th":"\u0e1b\u0e23\u0e30\u0e40\u0e17\u0e28\u0e19\u0e34\u0e27\u0e0b\u0e35\u0e41\u0e25\u0e19\u0e14\u0e4c","name:eu":"Zeelanda Berria","name:et":"Uus-Meremaa","name:es":"Nueva Zelanda","name:ia":"Nove Zelanda","name:rm":"Nova Zelanda","name:az":"Yeni Zelandiya","name:ie":"Nov-Zeland","name:id":"Selandia Baru","name:ar":"\u0646\u064a\u0648\u0632\u064a\u0644\u0646\u062f\u0627","name:io":"Nova-Zelando","name:is":"N\u00fdja-Sj\u00e1land","name:am":"\u1292\u12cd \u12da\u120b\u1295\u12f5","name:it":"Nuova Zelanda","name:an":"Nueva Zelanda","name:ru":"\u041d\u043e\u0432\u0430\u044f \u0417\u0435\u043b\u0430\u043d\u0434\u0438\u044f","name:rw":"Nuveli Zelande","name:af":"Nieu-Seeland","name:zu":"INyuzilandi","kind_detail":"2","name:za":"Saen Saelanz","name:zh-yue":"\u7d10\u897f\u862d","name:zh":"\u65b0\u897f\u5170","name:so":"New Zealand","name:sm":"Niu Sila","name:sl":"Nova Zelandija","name:sk":"Nov\u00fd Z\u00e9land","name:ja":"\u30cb\u30e5\u30fc\u30b8\u30fc\u30e9\u30f3\u30c9","name:sh":"Novi Zeland","name:se":"O\u0111\u0111a-Sel\u00e1nda","name:sa":"\u0928\u094d\u092f\u0942-\u091c\u0940\u0932\u0948\u0902\u0921","name:bs":"Novi Zeland","name:bm":"New Zealand","name:bn":"\u09a8\u09bf\u0989\u099c\u09bf\u09b2\u09cd\u09af\u09be\u09a8\u09cd\u09a1","name:bo":"\u0f53\u0f72\u0f60\u0f74\u0f0b\u0f5b\u0f72\u0f0b\u0f63\u0f7a\u0f53\u0f0b\u0f4c\u0f72\u0f0d","name:br":"Zeland-Nevez","name:sw":"New Zealand","name:be":"\u041d\u043e\u0432\u0430\u044f \u0417\u0435\u043b\u0430\u043d\u0434\u044b\u044f","name:su":"Selandia Anyar","name:bg":"\u041d\u043e\u0432\u0430 \u0417\u0435\u043b\u0430\u043d\u0434\u0438\u044f","name:ba":"\u042f\u04a3\u044b \u0417\u0435\u043b\u0430\u043d\u0434\u0438\u044f","name:sq":"Zelanda e Re","name:jv":"S\u00e9landia Anyar","name:bi":"Niu Zilan","name:pt":"Nova Zel\u00e2ndia","name:oc":"N\u00f2va Zelanda","min_zoom":8.0,"name:ro":"Noua Zeeland\u0103","name:zh-min-nan":"Sin Jia\u030dt-l\u00e2n-jia","name:os":"\u041d\u043e\u0433 \u0417\u0435\u043b\u0430\u043d\u0434\u0438","name:or":"\u0b28\u0b3f\u0b09\u0b1c\u0b3f\u0b32\u0b4d\u0b5f\u0b3e\u0b23\u0b4d\u0b21","name:pl":"Nowa Zelandia","sort_rank":262,"name:sr":"\u041d\u043e\u0432\u0438 \u0417\u0435\u043b\u0430\u043d\u0434","osm_relation":true,"name:pa":"\u0a28\u0a3f\u0a0a\u0a1c\u0a3c\u0a40\u0a32\u0a48\u0a02\u0a21","name:tr":"Yeni Zelanda","name:hi":"\u0928\u094d\u092f\u0942\u091c\u093c\u0940\u0932\u0948\u0923\u094d\u0921","name:sv":"Nya Zeeland","name:he":"\u05e0\u05d9\u05d5 \u05d6\u05d9\u05dc\u05e0\u05d3","name:hy":"\u0546\u0578\u0580 \u0536\u0565\u056c\u0561\u0576\u0564\u056b\u0561","name:ht":"Nouv\u00e8l Zelann","name:hu":"\u00daj-Z\u00e9land","name:hr":"Novi Zeland","kind":"country","name:yi":"\u05e0\u05d9\u05d5 \u05d6\u05d9\u05dc\u05d0\u05e0\u05d3","name:yo":"New Zealand","name:mt":"New Zealand","name:ms":"New Zealand","name:mr":"\u0928\u094d\u092f\u0942 \u091d\u0940\u0932\u0901\u0921","name:my":"\u1014\u101a\u1030\u1038\u1007\u102e\u101c\u1014\u103a\u1014\u102d\u102f\u1004\u103a\u1004\u1036","name:vi":"New Zealand","name:ml":"\u0d28\u0d4d\u0d2f\u0d42\u0d38\u0d40\u0d32\u0d7b\u0d21\u0d4d","name:mn":"\u0428\u0438\u043d\u044d \u0417\u0435\u043b\u0430\u043d\u0434","name:mi":"Aotearoa","id":-556706,"name:mk":"\u041d\u043e\u0432 \u0417\u0435\u043b\u0430\u043d\u0434","name:vo":"Nula-Sele\u00e4ns","name:fa":"\u0646\u06cc\u0648\u0632\u06cc\u0644\u0646\u062f","name:fi":"Uusi-Seelanti","name:fo":"N\u00fds\u00e6land","name:fr":"Nouvelle-Z\u00e9lande","name:fy":"Nij-Seel\u00e2n","name:nl":"Nieuw-Zeeland","name:nn":"New Zealand","name:no":"New Zealand","name:na":"Niu Djiran","name:ne":"\u0928\u094d\u092f\u0942 \u091c\u0940\u0932\u094d\u092f\u093e\u0923\u094d\u0921","name:wa":"Nouve Zelande","name:wo":"Seland-Gu-Bees","name:ga":"An Nua-Sh\u00e9alainn","name:gd":"Sealainn Nuadh","name:gl":"Nova Zelandia","maritime_boundary":true,"name:gv":"Yn Teelynn Noa"},"arcs":[0]},{"type":"LineString","properties":{"kind":"region","name:right:ja":"\u30aa\u30fc\u30af\u30e9\u30f3\u30c9","name":"Northland - Auckland","sort_rank":256,"kind_detail":"4","name:left:ja":"\u30ce\u30fc\u30b9\u30e9\u30f3\u30c9","id:right":-2094141,"source":"openstreetmap.org","min_zoom":8.0,"id:left":-2133870,"name:left":"Northland","id":-2133870,"osm_relation":true,"name:right":"Auckland"},"arcs":[1]},{"type":"LineString","properties":{"kind":"region","name:right:ja":"\u30aa\u30fc\u30af\u30e9\u30f3\u30c9","name":"Northland - Auckland","sort_rank":256,"kind_detail":"4","name:left:ja":"\u30ce\u30fc\u30b9\u30e9\u30f3\u30c9","min_zoom":8.0,"id:right":-2094141,"source":"openstreetmap.org","maritime_boundary":true,"id:left":-2133870,"name:right":"Auckland","id":-2133870,"osm_relation":true,"name:left":"Northland"},"arcs":[2]},{"type":"LineString","properties":{"kind":"region","name":"Northland","sort_rank":256,"kind_detail":"4","min_zoom":8.0,"source":"openstreetmap.org","maritime_boundary":true,"id":-2133870,"osm_relation":true,"name:ja":"\u30ce\u30fc\u30b9\u30e9\u30f3\u30c9"},"arcs":[3]},{"type":"LineString","properties":{"kind":"region","name:right:ja":"\u30aa\u30fc\u30af\u30e9\u30f3\u30c9","name":"Waikato - Auckland","sort_rank":256,"kind_detail":"4","name:left:ja":"\u30ef\u30a4\u30ab\u30c8","id:right":-2094141,"source":"openstreetmap.org","min_zoom":8.0,"id:left":-2094142,"name:left":"Waikato","id":-2094142,"osm_relation":true,"name:right":"Auckland"},"arcs":[4]},{"type":"MultiLineString","properties":{"kind":"region","name:right:ja":"\u30aa\u30fc\u30af\u30e9\u30f3\u30c9","name":"Waikato - Auckland","sort_rank":256,"kind_detail":"4","name:left:ja":"\u30ef\u30a4\u30ab\u30c8","min_zoom":8.0,"id:right":-2094141,"source":"openstreetmap.org","maritime_boundary":true,"id:left":-2094142,"name:right":"Auckland","id":-2094142,"osm_relation":true,"name:left":"Waikato"},"arcs":[[5],[6]]},{"type":"LineString","properties":{"kind":"region","name":"Auckland","sort_rank":256,"kind_detail":"4","min_zoom":8.0,"source":"openstreetmap.org","maritime_boundary":true,"id":-2094141,"osm_relation":true,"name:ja":"\u30aa\u30fc\u30af\u30e9\u30f3\u30c9"},"arcs":[7]}]},"roads":{"type":"GeometryCollection","geometries":[{"type":"LineString","properties":{"source":"openstreetmap.org","kind":"major_road","sort_rank":381,"kind_detail":"trunk","min_zoom":8.0,"id":495568271},"arcs":[26]},{"type":"MultiLineString","properties":{"kind":"major_road","network":"NZ:SH","sort_rank":380,"kind_detail":"primary","source":"openstreetmap.org","min_zoom":8.0,"shield_text":"16","ref":"SH 16"},"arcs":[[27],[28]]},{"type":"LineString","properties":{"kind":"major_road","network":"NZ:SH","sort_rank":381,"kind_detail":"trunk","source":"openstreetmap.org","min_zoom":8.0,"shield_text":"15","id":495568270},"arcs":[29]},{"type":"MultiLineString","properties":{"kind":"highway","network":"NZ:SH","sort_rank":383,"kind_detail":"motorway","source":"openstreetmap.org","min_zoom":8.0,"all_networks":["NZ:SH"],"shield_text":"1","ref":"SH 1","all_shield_texts":["1"]},"arcs":[[30],[31],[32],[33]]},{"type":"LineString","properties":{"source":"openstreetmap.org","kind":"ferry","name":"Chartered Boat crossing only","sort_rank":355,"min_zoom":8.0,"id":373534349},"arcs":[34]},{"type":"LineString","properties":{"kind":"major_road","network":null,"sort_rank":380,"kind_detail":"primary","source":"openstreetmap.org","min_zoom":8.0,"shield_text":"12","ref":"SH 12","id":535558492},"arcs":[35]},{"type":"LineString","properties":{"source":"openstreetmap.org","kind":"major_road","sort_rank":381,"kind_detail":"trunk","is_bicycle_related":true,"min_zoom":8.0,"id":232187590},"arcs":[36]},{"type":"MultiLineString","properties":{"kind":"major_road","network":"NZ:SH","sort_rank":381,"kind_detail":"trunk","source":"openstreetmap.org","min_zoom":8.0,"shield_text":"15","ref":"SH 15"},"arcs":[[37],[38],[39]]},{"type":"LineString","properties":{"source":"openstreetmap.org","kind":"ferry","name":"Auckland - Great Barrier Island (Tryphena)","sort_rank":355,"min_zoom":8.0,"osm_relation":true},"arcs":[40]},{"type":"LineString","properties":{"source":"openstreetmap.org","kind":"major_road","sort_rank":380,"kind_detail":"primary","ref":"SH16","min_zoom":8.0,"id":349499356},"arcs":[41]},{"type":"LineString","properties":{"sort_rank":355,"source":"openstreetmap.org","kind":"ferry","min_zoom":8.0,"id":55679489},"arcs":[42]},{"type":"LineString","properties":{"source":"openstreetmap.org","kind":"ferry","name":"Kawau Ferry","sort_rank":355,"min_zoom":8.0,"id":152313931},"arcs":[43]},{"type":"LineString","properties":{"kind":"major_road","network":null,"sort_rank":380,"kind_detail":"primary","source":"openstreetmap.org","min_zoom":8.0,"shield_text":"12","ref":"12","id":166455635},"arcs":[44]},{"type":"MultiLineString","properties":{"source":"openstreetmap.org","kind":"major_road","network":"NZ:SH","sort_rank":381,"kind_detail":"trunk","min_zoom":8.0,"shield_text":"1"},"arcs":[[45],[46]]},{"type":"LineString","properties":{"source":"openstreetmap.org","kind":"major_road","sort_rank":381,"kind_detail":"trunk","ref":"SH 1","min_zoom":8.0,"id":494793115},"arcs":[47]},{"type":"LineString","properties":{"source":"openstreetmap.org","kind":"major_road","sort_rank":380,"kind_detail":"primary","ref":"SH 16","min_zoom":8.0,"id":515416088},"arcs":[48]},{"type":"MultiLineString","properties":{"kind":"major_road","network":"NZ:SH","sort_rank":381,"kind_detail":"trunk","source":"openstreetmap.org","min_zoom":8.0,"shield_text":"1","ref":"SH 1"},"arcs":[[49],[50],[51],[52],[53],[54],[55],[56],[57],[58],[59],[60]]}]},"earth":{"type":"GeometryCollection","geometries":[{"type":"MultiPolygon","properties":{"sort_rank":10,"source":"naturalearthdata.com","min_zoom":0.0,"kind":"earth","area":4731607980},"arcs":[[[61]],[[62]],[[63]],[[64]],[[65]],[[66]],[[67]],[[68]]]}]},"landuse":{"type":"GeometryCollection","geometries":[{"type":"Polygon","properties":{"source":"openstreetmap.org","kind":"nature_reserve","area":47382900,"tier":2,"id":190173123,"min_zoom":8.0,"sort_rank":23},"arcs":[[69]]},{"type":"Polygon","properties":{"kind":"nature_reserve","area":20653900,"sort_rank":23,"source":"openstreetmap.org","min_zoom":8.0,"tier":2,"id":-2885075,"osm_relation":true},"arcs":[[70],[71],[72],[73]]}]}},"type":"Topology","transform":{"translate":[174.375,-36.5978891331],"scale":[0.0003433228,0.0002776414]},"arcs":[[[4096,1331],[-7,1],[-70,152],[23,293],[-65,245],[-101,158],[-195,162],[-101,162],[-102,109],[-260,144],[-295,26],[-184,214],[-362,206],[-158,31],[-293,4],[-157,-30],[-146,-63],[-136,81],[103,106],[84,137],[117,414],[-7,213]],[[0,1081],[70,19],[160,141],[41,-23],[30,109],[130,70],[-2,46],[36,49],[82,16],[24,47],[29,-1],[7,76],[68,45],[-2,40],[162,123]],[[835,1838],[415,352],[179,258],[121,358],[12,380]],[[1562,3186],[-75,40],[111,117],[82,139],[118,455],[-11,159]],[[4054,997],[-404,-230],[-615,18],[-483,-71],[-72,-127]],[[2480,587],[-185,-321],[124,-266]],[[4096,1021],[-42,-24]],[[4096,1331],[-7,1],[-70,152],[22,306],[-76,256],[-107,154],[-177,142],[-118,184],[-150,137],[-234,104],[-256,16],[-195,222],[-227,146],[-150,60],[-439,26],[-156,-33],[-133,-59],[-61,41]],[[0,1431],[31,43],[38,122],[-14,110],[110,-32],[29,-19],[35,-57],[-9,-33],[-37,-5],[-48,23],[-13,-53],[-3,-31],[-6,-26],[-18,-39],[-68,-89],[-27,-70],[0,156]],[[0,1127],[46,44],[48,32],[23,-42],[32,21],[69,65],[28,14],[30,3],[11,2],[41,12],[38,23],[31,32],[10,-23],[5,-7],[8,-3],[17,-16],[-10,-47],[-18,-13],[-25,-1],[-29,-13],[-79,-74],[-87,-39],[-37,-24],[-46,-47],[-47,-35],[-59,-18],[0,154]],[[0,749],[44,4],[26,16],[36,34],[48,62],[20,1],[91,-57],[5,-21],[-64,-58],[-13,-41],[25,-40],[35,-39],[23,-40],[-49,-55],[-11,-18],[2,-12],[0,-188],[12,-26],[26,54],[22,-42],[-27,-161],[25,-70],[16,8],[45,17],[-16,-35],[-46,-40],[-2,-2],[-273,0],[0,18],[19,7],[29,19],[-3,8],[-31,5],[-14,6],[0,686]],[[4096,29],[0,-29],[-704,0],[-3,3],[63,71],[5,92],[-33,91],[-53,68],[-76,-86],[-30,4],[-60,57],[-23,14],[-12,11],[-6,11],[-12,28],[-17,33],[-13,29],[-19,18],[-96,-21],[-72,13],[-59,0],[-24,-51],[9,-139],[14,-59],[25,-48],[48,-44],[109,-41],[52,-29],[18,-25],[-2095,0],[-5,5],[-14,10],[2,74],[-9,48],[-31,64],[0,47],[18,26],[61,38],[21,37],[-23,27],[-23,20],[-25,16],[-29,9],[0,27],[67,3],[6,61],[-53,159],[76,-30],[46,-72],[59,-170],[13,57],[6,65],[-6,61],[-46,96],[-41,149],[-8,50],[50,9],[241,-13],[88,15],[-70,22],[-81,11],[-65,26],[-23,66],[6,40],[9,3],[11,-6],[16,12],[1,-6],[7,-8],[9,-3],[10,5],[8,16],[-6,7],[-10,4],[-1,10],[17,48],[-2,21],[-75,32],[-121,83],[-94,106],[-163,253],[-51,58],[-43,35],[-30,44],[-15,85],[8,39],[17,31],[3,33],[-28,46],[-32,18],[-73,0],[-36,7],[-55,30],[-130,97],[-36,45],[-4,66],[3,92],[-10,88],[-48,51],[65,66],[50,71],[12,71],[-48,63],[-63,22],[-193,25],[-53,-9],[-22,-40],[-18,-47],[-25,-30],[-1,0],[0,441],[11,-19],[15,-44],[9,-51],[-1,-65],[-9,-30],[6,-7],[46,1],[13,12],[16,51],[20,11],[18,-8],[30,-33],[20,-6],[43,12],[74,32],[44,3],[-3,-58],[83,-24],[-20,-68],[65,-44],[55,-60],[60,-38],[80,22],[-69,134],[-7,33],[19,86],[-2,44],[-30,39],[-171,106],[32,9],[32,16],[25,25],[10,38],[-12,30],[-31,15],[-74,17],[42,22],[15,5],[-110,61],[-48,41],[30,19],[53,-2],[131,-22],[44,-25],[38,122],[-25,85],[-141,150],[-152,126],[-14,43],[115,16],[-16,44],[-55,102],[3792,0],[0,-4011],[-27,-8],[14,-40],[13,-8]],[[2917,1692],[-38,-14],[-86,1],[33,-61],[59,-29],[40,-31],[-25,-63],[-10,-39],[7,-49],[0,-45],[-27,-29],[-22,9],[-75,92],[20,-86],[66,-73],[83,-36],[67,22],[21,-26],[10,-20],[1,-22],[-10,-32],[70,17],[24,1],[23,-18],[10,-32],[7,-91],[15,-37],[31,1],[44,25],[38,13],[17,-39],[1,-46],[10,-43],[22,-27],[41,5],[27,27],[58,121],[-24,19],[-56,79],[-3,14],[4,17],[0,15],[-10,6],[-16,3],[-17,7],[-15,11],[-13,13],[-37,62],[1,43],[16,39],[11,54],[14,29],[28,37],[14,32],[-26,14],[-28,6],[-75,31],[-76,47],[-42,44],[-6,41],[57,28],[-87,65],[-12,21],[-8,46],[-18,33],[-26,22],[-29,12],[-76,-12],[-33,-55],[11,-73],[58,-59],[-33,-37]],[[2272,1430],[-22,37],[-26,30],[-12,23],[-40,2],[-74,-41],[-42,-68],[57,-80],[39,-2],[50,6],[44,17],[26,30],[0,46]],[[1399,524],[104,-3],[44,15],[5,35],[-20,87],[-16,49],[-38,43],[-46,18],[-39,-25],[-7,-44],[28,-89],[-1,-40],[-43,-32],[29,-14]],[[0,63],[14,-6],[31,-5],[3,-8],[-29,-19],[-19,-7]],[[273,0],[2,2],[46,40],[16,35],[-45,-17],[-16,-8],[-25,70],[27,161],[-22,42],[-26,-54],[-12,26],[0,188],[-2,12],[11,18],[49,55],[-23,40],[-35,39],[-25,40],[13,41],[64,58],[-5,21],[-91,57],[-20,-1],[-48,-62],[-36,-34],[-26,-16],[-44,-4]],[[0,973],[59,18],[47,35],[46,47],[37,24],[87,39],[79,74],[29,13],[25,1],[18,13],[10,47],[-17,16],[-8,3],[-5,7],[-10,23],[-31,-32],[-38,-23],[-41,-12],[-11,-2],[-30,-3],[-28,-14],[-69,-65],[-32,-21],[-23,42],[-48,-32],[-46,-44]],[[0,1275],[27,70],[68,89],[18,39],[6,26],[3,31],[13,53],[48,-23],[37,5],[9,33],[-35,57],[-29,19],[-110,32],[14,-110],[-38,-122],[-31,-43]],[[304,4096],[55,-102],[16,-44],[-115,-16],[14,-43],[152,-126],[141,-150],[25,-85],[-38,-122],[-44,25],[-131,22],[-53,2],[-30,-19],[48,-41],[110,-61],[-15,-5],[-42,-22],[74,-17],[31,-15],[12,-30],[-10,-38],[-25,-25],[-32,-16],[-32,-9],[171,-106],[30,-39],[2,-44],[-19,-86],[7,-33],[69,-134],[-80,-22],[-60,38],[-55,60],[-65,44],[20,68],[-83,24],[3,58],[-44,-3],[-74,-32],[-43,-12],[-20,6],[-30,33],[-18,8],[-20,-11],[-16,-51],[-13,-12],[-46,-1],[-6,7],[9,30],[1,65],[-9,51],[-15,44],[-11,19]],[[0,2687],[1,0],[25,30],[18,47],[22,40],[53,9],[193,-25],[63,-22],[48,-63],[-12,-71],[-50,-71],[-65,-66],[48,-51],[10,-88],[-3,-92],[4,-66],[36,-45],[130,-97],[55,-30],[36,-7],[73,0],[32,-18],[28,-46],[-3,-33],[-17,-31],[-8,-39],[15,-85],[30,-44],[43,-35],[51,-58],[163,-253],[94,-106],[121,-83],[75,-32],[2,-21],[-17,-48],[1,-10],[10,-4],[6,-7],[-8,-16],[-10,-5],[-9,3],[-7,8],[-1,6],[-16,-12],[-11,6],[-9,-3],[-6,-40],[23,-66],[65,-26],[81,-11],[70,-22],[-88,-15],[-241,13],[-50,-9],[8,-50],[41,-149],[46,-96],[6,-61],[-6,-65],[-13,-57],[-59,170],[-46,72],[-76,30],[53,-159],[-6,-61],[-67,-3],[0,-27],[29,-9],[25,-16],[23,-20],[23,-27],[-21,-37],[-61,-38],[-18,-26],[0,-47],[31,-64],[9,-48],[-2,-74],[14,-10],[5,-5]],[[3127,0],[-18,25],[-52,29],[-109,41],[-48,44],[-25,48],[-14,59],[-9,139],[24,51],[59,0],[72,-13],[96,21],[19,-18],[13,-29],[17,-33],[12,-28],[6,-11],[12,-11],[23,-14],[60,-57],[30,-4],[76,86],[53,-68],[33,-91],[-5,-92],[-63,-71],[3,-3]],[[1393,743],[-7,-44],[28,-89],[-1,-40],[-43,-32],[29,-14],[104,-3],[44,15],[5,35],[-20,87],[-16,49],[-38,43],[-46,18],[-39,-25]],[[2212,1520],[-40,2],[-74,-41],[-42,-68],[57,-80],[39,-2],[50,6],[44,17],[26,30],[0,46],[-22,37],[-26,30],[-12,23]],[[4096,85],[-27,-8],[14,-40],[13,-8]],[[3389,1136],[-3,14],[4,17],[0,15],[-10,6],[-16,3],[-17,7],[-15,11],[-13,13],[-37,62],[1,43],[16,39],[11,54],[14,29],[28,37],[14,32],[-26,14],[-28,6],[-75,31],[-76,47],[-42,44],[-6,41],[57,28],[-87,65],[-12,21],[-8,46],[-18,33],[-26,22],[-29,12],[-76,-12],[-33,-55],[11,-73],[58,-59],[-33,-37],[-38,-14],[-86,1],[33,-61],[59,-29],[40,-31],[-25,-63],[-10,-39],[7,-49],[0,-45],[-27,-29],[-22,9],[-75,92],[20,-86],[66,-73],[83,-36],[67,22],[21,-26],[10,-20],[1,-22],[-10,-32],[70,17],[24,1],[23,-18],[10,-32],[7,-91],[15,-37],[31,1],[44,25],[38,13],[17,-39],[1,-46],[10,-43],[22,-27],[41,5],[27,27],[58,121],[-24,19],[-56,79]],[[167,2545],[1,1]],[[262,180],[-47,95],[24,52],[-25,42],[4,86],[-51,104],[44,60],[7,213],[51,26],[28,61],[-23,41],[103,114],[55,13]],[[310,0],[20,46],[-66,134]],[[169,2545],[-1,-1]],[[837,0],[3,25],[51,176],[-1,20],[-4,11],[-1,4]],[[885,236],[-4,9]],[[882,243],[2,-6],[1,-1]],[[885,236],[2,-4],[4,-11],[1,-20],[-54,-201]],[[337,2746],[-1,54],[21,14]],[[159,1804],[-145,-18]],[[891,233],[-1,-2]],[[168,2546],[3,2]],[[171,2548],[-2,-3]],[[171,2548],[9,49],[144,138]],[[2258,0],[947,1017],[31,-17]],[[432,1086],[-1,0]],[[2258,0],[947,1017],[31,-17]],[[1035,753],[187,-141],[70,-6]],[[14,1786],[-14,-4]],[[168,2544],[-1,1]],[[168,2546],[1,-1]],[[823,691],[4,-15]],[[262,180],[2,0]],[[0,2678],[163,-129]],[[174,2539],[54,-102],[4,-95],[-99,-168],[-15,-130]],[[118,2044],[10,-75]],[[128,1969],[20,-38],[-17,-50],[31,-36],[3,-195],[58,-186],[108,-127],[63,-26],[-2,-90],[47,-158],[54,-87]],[[167,2545],[-4,4]],[[163,2549],[5,-3]],[[174,2539],[-6,5]],[[169,2545],[5,-6]],[[505,960],[-12,16]],[[505,960],[33,-41],[200,-105],[93,-99],[-41,-98],[37,-238],[52,-114]],[[881,245],[-2,20]],[[879,265],[3,-22]],[[4096,85],[0,-56],[-13,8],[-14,40],[27,8]],[[3113,1701],[6,-41],[42,-44],[76,-47],[75,-31],[28,-6],[26,-14],[-14,-32],[-28,-37],[-14,-29],[-11,-54],[-16,-39],[-1,-43],[37,-62],[13,-13],[15,-11],[17,-7],[16,-3],[10,-6],[0,-15],[-4,-17],[3,-14],[56,-79],[24,-19],[-58,-121],[-27,-27],[-41,-5],[-22,27],[-10,43],[-1,46],[-17,39],[-38,-13],[-44,-25],[-31,-1],[-15,37],[-7,91],[-10,32],[-23,18],[-24,-1],[-70,-17],[10,32],[-1,22],[-10,20],[-21,26],[-67,-22],[-83,36],[-66,73],[-20,86],[75,-92],[22,-9],[27,29],[0,45],[-7,49],[10,39],[25,63],[-40,31],[-59,29],[-33,61],[86,-1],[38,14],[33,37],[-58,59],[-11,73],[33,55],[76,12],[29,-12],[26,-22],[18,-33],[8,-46],[12,-21],[87,-65],[-57,-28]],[[2202,1337],[-50,-6],[-39,2],[-57,80],[42,68],[74,41],[40,-2],[12,-23],[26,-30],[22,-37],[0,-46],[-26,-30],[-44,-17]],[[0,4096],[304,0],[55,-102],[16,-44],[-115,-16],[14,-43],[152,-126],[141,-150],[25,-85],[-38,-122],[-44,25],[-131,22],[-53,2],[-30,-19],[48,-41],[110,-61],[-15,-5],[-42,-22],[74,-17],[31,-15],[12,-30],[-10,-38],[-25,-25],[-32,-16],[-32,-9],[171,-106],[30,-39],[2,-44],[-19,-86],[7,-33],[69,-134],[-80,-22],[-60,38],[-55,60],[-65,44],[20,68],[-83,24],[3,58],[-44,-3],[-74,-32],[-43,-12],[-20,6],[-30,33],[-18,8],[-20,-11],[-16,-51],[-13,-12],[-46,-1],[-6,7],[9,30],[1,65],[-9,51],[-15,44],[-11,19],[0,968]],[[0,63],[14,-6],[31,-5],[3,-8],[-29,-19],[-19,-7],[0,45]],[[1547,536],[-44,-15],[-104,3],[-29,14],[43,32],[1,40],[-28,89],[7,44],[39,25],[46,-18],[38,-43],[16,-49],[20,-87],[-5,-35]],[[3127,0],[-18,25],[-52,29],[-109,41],[-48,44],[-25,48],[-14,59],[-9,139],[24,51],[59,0],[72,-13],[96,21],[19,-18],[13,-29],[17,-33],[12,-28],[6,-11],[12,-11],[23,-14],[60,-57],[30,-4],[76,86],[53,-68],[33,-91],[-5,-92],[-63,-71],[3,-3],[-265,0]],[[0,2687],[1,0],[25,30],[18,47],[22,40],[53,9],[193,-25],[63,-22],[48,-63],[-12,-71],[-50,-71],[-65,-66],[48,-51],[10,-88],[-3,-92],[4,-66],[36,-45],[130,-97],[55,-30],[36,-7],[73,0],[32,-18],[28,-46],[-3,-33],[-17,-31],[-8,-39],[15,-85],[30,-44],[43,-35],[51,-58],[163,-253],[94,-106],[121,-83],[75,-32],[2,-21],[-17,-48],[1,-10],[10,-4],[6,-7],[-8,-16],[-10,-5],[-9,3],[-7,8],[-1,6],[-16,-12],[-11,6],[-9,-3],[-6,-40],[23,-66],[65,-26],[81,-11],[70,-22],[-88,-15],[-241,13],[-50,-9],[8,-50],[41,-149],[46,-96],[6,-61],[-6,-65],[-13,-57],[-59,170],[-46,72],[-76,30],[53,-159],[-6,-61],[-67,-3],[0,-27],[29,-9],[25,-16],[23,-20],[23,-27],[-21,-37],[-61,-38],[-18,-26],[0,-47],[31,-64],[9,-48],[-2,-74],[14,-10],[5,-5],[-759,0],[2,2],[46,40],[16,35],[-45,-17],[-16,-8],[-25,70],[27,161],[-22,42],[-26,-54],[-12,26],[0,188],[-2,12],[11,18],[49,55],[-23,40],[-35,39],[-25,40],[13,41],[64,58],[-5,21],[-91,57],[-20,-1],[-48,-62],[-36,-34],[-26,-16],[-44,-4],[0,224],[59,18],[47,35],[46,47],[37,24],[87,39],[79,74],[29,13],[25,1],[18,13],[10,47],[-17,16],[-8,3],[-5,7],[-10,23],[-31,-32],[-38,-23],[-41,-12],[-11,-2],[-30,-3],[-28,-14],[-69,-65],[-32,-21],[-23,42],[-48,-32],[-46,-44],[0,148],[27,70],[68,89],[18,39],[6,26],[3,31],[13,53],[48,-23],[37,5],[9,33],[-35,57],[-29,19],[-110,32],[14,-110],[-38,-122],[-31,-43],[0,1256]],[[1960,1451],[9,38],[79,22],[36,46],[48,-21],[21,-38],[-25,-169],[-80,-5],[-82,34],[-6,93]],[[1009,4050],[2,46],[40,0],[4,-12],[-7,-16],[6,-7],[10,35],[35,0],[2,-114],[-53,-20],[-39,88]],[[1041,4006],[25,-6],[11,38],[-23,11],[-13,-43]],[[1060,3993],[1,-10],[9,3],[-4,9],[-6,-2]],[[1078,3999],[4,-2],[5,12],[-8,-1],[-1,-9]]]}