{"objects":{"water":{"type":"GeometryCollection","geometries":[{"type":"Polygon","properties":{"source":"naturalearthdata.com","kind":"ocean","area":1576712559132672,"sort_rank":200,"min_zoom":0.0,"id":1},"arcs":[[46]]},{"type":"Polygon","properties":{"source":"naturalearthdata.com","kind":"lake","name":"Lake Wairarapa","area":119518136,"sort_rank":200,"min_zoom":0.0,"id":1344},"arcs":[[47]]},{"type":"Point","properties":{"label_placement":true,"kind":"lake","name":"Lake Wairarapa","area":119518136,"sort_rank":200,"source":"naturalearthdata.com","min_zoom":0.0,"id":1344},"coordinates":[2472,3139]},{"type":"LineString","properties":{"source":"naturalearthdata.com","kind":"lake","sort_rank":367,"boundary":true,"min_zoom":0.0,"id":1344},"arcs":[48]},{"type":"LineString","properties":{"source":"naturalearthdata.com","kind":"ocean","sort_rank":205,"boundary":true,"min_zoom":0.0,"id":4118},"arcs":[49]},{"type":"MultiLineString","properties":{"source":"naturalearthdata.com","kind":"ocean","sort_rank":205,"boundary":true,"min_zoom":0.0,"id":4125},"arcs":[[50],[51]]}]},"buildings":{"type":"GeometryCollection","geometries":[]},"places":{"type":"GeometryCollection","geometries":[{"type":"Point","properties":{"source":"naturalearthdata.com","kind":"locality","name":"Upper Hutt","population":39200,"min_zoom":7.0,"id":7291},"coordinates":[1905,3491]},{"type":"Point","properties":{"name:az":"Vellinqton","name:ka":"\u10d5\u10d4\u10da\u10d8\u10dc\u10d2\u10e2\u10dd\u10dc\u10d8","name:mr":"\u0935\u0947\u0932\u093f\u0902\u0917\u094d\u091f\u0928","name:ko":"\uc6f0\ub9c1\ud134","name:cv":"\u0412\u0435\u043b\u043b\u0438\u043d\u0433\u0442\u043e\u043d","name:ar":"\u0648\u064a\u0644\u064a\u0646\u063a\u062a\u0648\u0646","name:my":"\u101d\u101a\u103a\u101c\u1004\u103a\u1010\u1014\u103a\u1019\u103c\u102d\u102f\u1037","name:th":"\u0e40\u0e27\u0e25\u0e25\u0e34\u0e07\u0e15\u0e31\u0e19","name:ty":"Whanga-nui-a-Tara","name:am":"\u12cc\u120a\u1295\u130d\u1270\u1295","name:os":"\u0412\u0435\u043b\u043b\u0438\u043d\u0433\u0442\u043e\u043d","name:ru":"\u0412\u0435\u043b\u043b\u0438\u043d\u0433\u0442\u043e\u043d","name:ta":"\u0bb5\u0bc6\u0bb2\u0bbf\u0b99\u0bcd\u0b9f\u0ba9\u0bcd, \u0ba8\u0bbf\u0baf\u0bc2\u0b9a\u0bbf\u0bb2\u0bbe\u0ba8\u0bcd\u0ba4\u0bc1","name:mi":"Te Whanganui-a-Tara","id":204648,"name:mk":"\u0412\u0435\u043b\u0438\u043d\u0433\u0442\u043e\u043d","name:fa":"\u0648\u0644\u06cc\u0646\u06af\u062a\u0648\u0646","name:mn":"\u0412\u0435\u043b\u043b\u0438\u043d\u0433\u0442\u043e\u043d","kind_detail":"city","source":"openstreetmap.org","name:kn":"\u0cb5\u0cc6\u0cb2\u0ccd\u0cb2\u0cbf\u0c82\u0c97\u0ccd\u0c9f\u0ca8\u0ccd","name:zh-yue":"\u5a01\u9748\u9813","name:zh":"\u60e0\u9748\u9813","admin_level":"2","name:sm":"Ueligitone","name:lv":"Velingtona","name:ja":"\u30a6\u30a7\u30ea\u30f3\u30c8\u30f3","name:lt":"Velingtonas","name:hi":"\u0935\u0947\u0932\u093f\u0902\u0917\u094d\u091f\u0928","name:he":"\u05d5\u05dc\u05d9\u05e0\u05d2\u05d8\u05d5\u05df","kind":"locality","name:ur":"\u0648\u06cc\u0644\u0646\u06af\u0679\u0646","name:bn":"\u0993\u09af\u09bc\u09c7\u09b2\u09bf\u0982\u099f\u09a8","name:bo":"\u0f5d\u0f7a\u0f0b\u0f63\u0f72\u0f44\u0f0b\u0f50\u0f7c\u0f53\u0f0d","name:uk":"\u0412\u0435\u043b\u043b\u0456\u043d\u0433\u0442\u043e\u043d","name:hy":"\u054e\u0565\u056c\u056b\u0576\u0563\u057f\u0578\u0576","country_capital":true,"name:be":"\u0412\u0435\u043b\u0456\u043d\u0433\u0442\u0430\u043d","name:ug":"\u06cb\u06d0\u0644\u0644\u0649\u0646\u06af\u062a\u0648\u0646","name:bg":"\u0423\u0435\u043b\u0438\u043d\u0433\u0442\u044a\u043d","name:sr":"\u0412\u0435\u043b\u0438\u043d\u0433\u0442\u043e\u043d","population":201900,"name:el":"\u039f\u03c5\u03ad\u03bb\u03bb\u03b9\u03bd\u03b3\u03ba\u03c4\u03bf\u03bd","name:eo":"Velingtono","name":"Wellington","name:ht":"Welint\u00f2n","min_zoom":8.0,"name:la":"Vellingtonia","name:gu":"\u0ab5\u0ac7\u0ab2\u0abf\u0a82\u0a97\u0acd\u0a9f\u0aa8","name:yi":"\u05f0\u05e2\u05dc\u05d9\u05e0\u05d2\u05d8\u05d0\u05df"},"coordinates":[1172,2895]},{"type":"Point","properties":{"kind":"locality","name":"Lower Hutt","kind_detail":"city","source":"openstreetmap.org","min_zoom":8.0,"population":102400,"name:mi":"Awakairangi","id":57871098,"name:ja":"\u30ed\u30ef\u30fc\u30cf\u30c3\u30c8"},"coordinates":[1546,3191]},{"type":"Point","properties":{"kind":"locality","name":"Porirua","kind_detail":"city","source":"openstreetmap.org","min_zoom":8.0,"name:ru":"\u041f\u043e\u0440\u0438\u0440\u0443\u0430","population":52900,"id":57805233,"name:ja":"\u30dd\u30ea\u30eb\u30a2"},"coordinates":[1354,3491]},{"type":"Point","properties":{"kind":"locality","name":"Upper Hutt","kind_detail":"city","source":"openstreetmap.org","min_zoom":8.0,"name:uk":"\u0410\u043f\u0435\u0440-\u0425\u0430\u0442","name:ru":"\u0410\u043f\u043f\u0435\u0440-\u0425\u0430\u0442\u0442","population":39200,"id":178326720,"name:ja":"\u30a2\u30c3\u30d1\u30fc\u30cf\u30c3\u30c8"},"coordinates":[2024,3535]},{"type":"Point","properties":{"source":"openstreetmap.org","kind":"locality","name":"Carterton","kind_detail":"town","population":5130,"min_zoom":8.0,"id":334885265},"coordinates":[3352,3923]},{"type":"Point","properties":{"kind":"locality","name":"Featherston","kind_detail":"town","source":"openstreetmap.org","min_zoom":8.0,"name:mi":"Kaiwaewae","id":334883618,"population":2390},"coordinates":[2768,3571]},{"type":"Point","properties":{"kind":"locality","name":"Greytown","kind_detail":"town","source":"openstreetmap.org","min_zoom":8.0,"name:mi":"H\u016bp\u0113nui","id":1581952506,"population":2310},"coordinates":[3162,3704]},{"type":"Point","properties":{"source":"openstreetmap.org","kind":"locality","name":"Martinborough","kind_detail":"town","population":1600,"min_zoom":8.0,"id":332305208},"coordinates":[3159,3169]}]},"transit":{"type":"GeometryCollection","geometries":[{"type":"MultiLineString","properties":{"kind":"train","name":"Kapiti line","sort_rank":275,"colour":"#d4d152","source":"openstreetmap.org","min_zoom":6.0,"network":"Metlink","operator":"Transdev","ref":"KPL","osm_relation":true,"colour_name":"sandybrown"},"arcs":[[8],[9],[10],[11],[12],[13],[14]]},{"type":"MultiLineString","properties":{"kind":"train","name":"Johnsonville Line","sort_rank":275,"colour":"#29C2CE","source":"openstreetmap.org","min_zoom":6.0,"network":"Metlink","ref":"JVL","osm_relation":true,"colour_name":"mediumturquoise"},"arcs":[[15],[16],[17],[18],[19],[20],[21],[22],[23],[24],[25],[26],[27],[28],[29],[30]]},{"type":"LineString","properties":{"kind":"train","name":"The Wellington Cable Car","sort_rank":275,"source":"openstreetmap.org","min_zoom":6.0,"operator":"Wellington Cable Car Ltd.","id":-7422278,"osm_relation":true},"arcs":[31]},{"type":"LineString","properties":{"kind":"train","network":"Metlink","sort_rank":275,"source":"openstreetmap.org","min_zoom":6.0,"operator":"Transdev Wellington","ref":"MEL","id":-1171726,"osm_relation":true,"name":"Melling Line: Wellington => Melling"},"arcs":[32]},{"type":"LineString","properties":{"kind":"train","network":"Metlink","service":"commuter","sort_rank":275,"colour":"#ff6600","name":"Hutt Valley Line: Wellington => Upper Hutt","source":"openstreetmap.org","min_zoom":6.0,"operator":"Transdev Wellington","ref":"HVL","id":-1171704,"osm_relation":true,"colour_name":"orangered"},"arcs":[33]},{"type":"MultiLineString","properties":{"kind":"train","name":"Northern Explorer","sort_rank":275,"source":"openstreetmap.org","min_zoom":6.0,"operator":"KiwiRail","ref":"NthEx","osm_relation":true,"network":"KiwiRail Scenic"},"arcs":[[34],[35],[36]]},{"type":"LineString","properties":{"kind":"train","network":"Metlink","service":"commuter","sort_rank":275,"colour":"#ff6600","name":"Hutt Valley Line: Upper Hutt => Wellington","source":"openstreetmap.org","min_zoom":6.0,"operator":"Transdev Wellington","ref":"HVL","id":-5793086,"osm_relation":true,"colour_name":"orangered"},"arcs":[37]},{"type":"LineString","properties":{"kind":"train","name":"Wairarapa Connection: Masterton => Wellington","sort_rank":275,"colour":"#ffcc00","source":"openstreetmap.org","min_zoom":6.0,"network":"Metlink","operator":"Transdev Wellington","ref":"WRL","osm_relation":true,"colour_name":"gold"},"arcs":[38]},{"type":"LineString","properties":{"kind":"train","network":"Metlink","sort_rank":275,"source":"openstreetmap.org","min_zoom":6.0,"operator":"Transdev Wellington","ref":"MEL","id":-6336541,"osm_relation":true,"name":"Melling Line: Melling => Wellington"},"arcs":[39]},{"type":"LineString","properties":{"kind":"train","name":"Wairarapa Connection: Wellington => Masterton","sort_rank":275,"colour":"#ce0808","source":"openstreetmap.org","min_zoom":6.0,"network":"Metlink","operator":"Transdev Wellington","ref":"WRL","osm_relation":true,"colour_name":"red"},"arcs":[40]},{"type":"MultiLineString","properties":{"kind":"train","network":"KiwiRail Scenic","sort_rank":275,"source":"openstreetmap.org","min_zoom":6.0,"operator":"Kiwirail","ref":"Capital Connection","osm_relation":true,"name":"Capital Connection"},"arcs":[[41],[42],[43],[44],[45]]}]},"pois":{"type":"GeometryCollection","geometries":[{"type":"Point","properties":{"source":"openstreetmap.org","kind":"nature_reserve","name":"Rimutaka Forest Park","area":185685000,"tier":2,"min_zoom":8.52,"id":30288874},"coordinates":[1858,2695]}]},"boundaries":{"type":"GeometryCollection","geometries":[{"type":"LineString","properties":{"name:ty":"Aotearoa","name:ka":"\u10d0\u10ee\u10d0\u10da\u10d8 \u10d6\u10d4\u10da\u10d0\u10dc\u10d3\u10d8\u10d0","name:ko":"\ub274\uc9c8\ub79c\ub4dc","name:cv":"\u00c7\u0115\u043d\u0115 \u0417\u0435\u043b\u0430\u043d\u0434\u0438","name:km":"\u1793\u17bc\u179c\u17c2\u179b\u179f\u17c1\u17a1\u1784\u17cb","name:kl":"New Zealand","name:cs":"Nov\u00fd Z\u00e9land","name:tt":"\u042f\u04a3\u0430 \u0417\u0435\u043b\u0430\u043d\u0434\u0438\u044f","name:kw":"Mordir Nowydh","name:kv":"\u0412\u044b\u043b\u044c \u0417\u0435\u043b\u0430\u043d\u0434\u0438\u044f","name:ku":"N\u00fb Zelenda","name:tl":"New Zealand","name:ta":"\u0ba8\u0bbf\u0baf\u0bc2\u0b9a\u0bbf\u0bb2\u0bbe\u0ba8\u0bcd\u0ba4\u0bc1","name:tg":"\u0417\u0435\u043b\u0430\u043d\u0434\u0438\u044f\u0438 \u041d\u0430\u0432","name:ca":"Nova Zelanda","name:te":"\u0c28\u0c4d\u0c2f\u0c42\u0c1c\u0c40\u0c32\u0c3e\u0c02\u0c21\u0c4d","name:cy":"Seland Newydd","name:hr":"Novi Zeland","name:da":"New Zealand","name:de":"Neuseeland","name:dz":"\u0f53\u0f72\u0f60\u0f74\u0f0b\u0f5b\u0f72\u0f0b\u0f63\u0f7a\u0f53\u0f4c\u0f0b","source":"openstreetmap.org","name:kn":"\u0ca8\u0ccd\u0caf\u0cc2 \u0c9c\u0cc0\u0cb2\u0ccd\u0caf\u0cbe\u0c82\u0ca1\u0ccd","name:dv":"\u0782\u07a8\u0787\u07aa\u0792\u07a8\u078d\u07ad\u0782\u07b0\u0791\u07aa","name:lv":"Jaunz\u0113lande","name:lt":"Naujoji Zelandija","name:uz":"Yangi Zelandiya","name:kk":"\u0416\u0430\u04a3\u0430 \u0417\u0435\u043b\u0430\u043d\u0434\u0438\u044f","name:ur":"\u0646\u06cc\u0648\u0632\u06cc \u0644\u06cc\u0646\u0688","name:lb":"Neis\u00e9iland","name:la":"Nova Zelandia","name:uk":"\u041d\u043e\u0432\u0430 \u0417\u0435\u043b\u0430\u043d\u0434\u0456\u044f","name:ug":"\u064a\u06d0\u06ad\u0649 \u0632\u06d0\u0644\u0627\u0646\u062f\u0649\u064a\u06d5","name:li":"Nui-Zieland","name:lo":"\u0e9b\u0eb0\u0ec0\u0e97\u0e94\u0e99\u0eb9\u0ec1\u0ea7\u0e99 \u0ec0\u0e8a\u0ea5\u0eb1\u0e87","name:el":"\u039d\u03ad\u03b1 \u0396\u03b7\u03bb\u03b1\u03bd\u03b4\u03af\u03b1","name:eo":"Nov-Zelando","name:en":"New Zealand","name":"New Zealand\/Aotearoa","name:tk":"T\u00e4ze Zelandi\u00fda","name:th":"\u0e1b\u0e23\u0e30\u0e40\u0e17\u0e28\u0e19\u0e34\u0e27\u0e0b\u0e35\u0e41\u0e25\u0e19\u0e14\u0e4c","name:eu":"Zeelanda Berria","name:et":"Uus-Meremaa","name:es":"Nueva Zelanda","name:ia":"Nove Zelanda","name:rm":"Nova Zelanda","name:az":"Yeni Zelandiya","name:ie":"Nov-Zeland","name:id":"Selandia Baru","name:ar":"\u0646\u064a\u0648\u0632\u064a\u0644\u0646\u062f\u0627","name:io":"Nova-Zelando","name:is":"N\u00fdja-Sj\u00e1land","name:am":"\u1292\u12cd \u12da\u120b\u1295\u12f5","name:it":"Nuova Zelanda","name:an":"Nueva Zelanda","name:ru":"\u041d\u043e\u0432\u0430\u044f \u0417\u0435\u043b\u0430\u043d\u0434\u0438\u044f","name:rw":"Nuveli Zelande","name:af":"Nieu-Seeland","name:zu":"INyuzilandi","kind_detail":"2","name:za":"Saen Saelanz","name:zh-yue":"\u7d10\u897f\u862d","name:zh":"\u65b0\u897f\u5170","name:so":"New Zealand","name:sm":"Niu Sila","name:sl":"Nova Zelandija","name:sk":"Nov\u00fd Z\u00e9land","name:ja":"\u30cb\u30e5\u30fc\u30b8\u30fc\u30e9\u30f3\u30c9","name:sh":"Novi Zeland","name:se":"O\u0111\u0111a-Sel\u00e1nda","name:sa":"\u0928\u094d\u092f\u0942-\u091c\u0940\u0932\u0948\u0902\u0921","name:bs":"Novi Zeland","name:bm":"New Zealand","name:bn":"\u09a8\u09bf\u0989\u099c\u09bf\u09b2\u09cd\u09af\u09be\u09a8\u09cd\u09a1","name:bo":"\u0f53\u0f72\u0f60\u0f74\u0f0b\u0f5b\u0f72\u0f0b\u0f63\u0f7a\u0f53\u0f0b\u0f4c\u0f72\u0f0d","name:br":"Zeland-Nevez","name:sw":"New Zealand","name:be":"\u041d\u043e\u0432\u0430\u044f \u0417\u0435\u043b\u0430\u043d\u0434\u044b\u044f","name:su":"Selandia Anyar","name:bg":"\u041d\u043e\u0432\u0430 \u0417\u0435\u043b\u0430\u043d\u0434\u0438\u044f","name:ba":"\u042f\u04a3\u044b \u0417\u0435\u043b\u0430\u043d\u0434\u0438\u044f","name:sq":"Zelanda e Re","name:jv":"S\u00e9landia Anyar","name:bi":"Niu Zilan","name:pt":"Nova Zel\u00e2ndia","name:oc":"N\u00f2va Zelanda","min_zoom":8.0,"name:ro":"Noua Zeeland\u0103","name:zh-min-nan":"Sin Jia\u030dt-l\u00e2n-jia","name:os":"\u041d\u043e\u0433 \u0417\u0435\u043b\u0430\u043d\u0434\u0438","name:or":"\u0b28\u0b3f\u0b09\u0b1c\u0b3f\u0b32\u0b4d\u0b5f\u0b3e\u0b23\u0b4d\u0b21","name:pl":"Nowa Zelandia","sort_rank":262,"name:sr":"\u041d\u043e\u0432\u0438 \u0417\u0435\u043b\u0430\u043d\u0434","osm_relation":true,"name:pa":"\u0a28\u0a3f\u0a0a\u0a1c\u0a3c\u0a40\u0a32\u0a48\u0a02\u0a21","name:tr":"Yeni Zelanda","name:hi":"\u0928\u094d\u092f\u0942\u091c\u093c\u0940\u0932\u0948\u0923\u094d\u0921","name:sv":"Nya Zeeland","name:he":"\u05e0\u05d9\u05d5 \u05d6\u05d9\u05dc\u05e0\u05d3","name:hy":"\u0546\u0578\u0580 \u0536\u0565\u056c\u0561\u0576\u0564\u056b\u0561","name:ht":"Nouv\u00e8l Zelann","name:hu":"\u00daj-Z\u00e9land","name:qu":"Musuq Silanda","kind":"country","name:yi":"\u05e0\u05d9\u05d5 \u05d6\u05d9\u05dc\u05d0\u05e0\u05d3","name:yo":"New Zealand","name:mt":"New Zealand","name:ms":"New Zealand","name:mr":"\u0928\u094d\u092f\u0942 \u091d\u0940\u0932\u0901\u0921","name:my":"\u1014\u101a\u1030\u1038\u1007\u102e\u101c\u1014\u103a\u1014\u102d\u102f\u1004\u103a\u1004\u1036","name:ml":"\u0d28\u0d4d\u0d2f\u0d42\u0d38\u0d40\u0d32\u0d7b\u0d21\u0d4d","name:vi":"New Zealand","name:mn":"\u0428\u0438\u043d\u044d \u0417\u0435\u043b\u0430\u043d\u0434","name:mi":"Aotearoa","id":-556706,"name:mk":"\u041d\u043e\u0432 \u0417\u0435\u043b\u0430\u043d\u0434","name:vo":"Nula-Sele\u00e4ns","name:fa":"\u0646\u06cc\u0648\u0632\u06cc\u0644\u0646\u062f","name:fi":"Uusi-Seelanti","name:fo":"N\u00fds\u00e6land","name:fr":"Nouvelle-Z\u00e9lande","name:fy":"Nij-Seel\u00e2n","name:nl":"Nieuw-Zeeland","name:nn":"New Zealand","name:no":"New Zealand","name:na":"Niu Djiran","name:ne":"\u0928\u094d\u092f\u0942 \u091c\u0940\u0932\u094d\u092f\u093e\u0923\u094d\u0921","name:wa":"Nouve Zelande","name:wo":"Seland-Gu-Bees","name:ga":"An Nua-Sh\u00e9alainn","name:gd":"Sealainn Nuadh","name:gl":"Nova Zelandia","name:gv":"Yn Teelynn Noa"},"arcs":[0]},{"type":"MultiLineString","properties":{"name:ty":"Aotearoa","name:ka":"\u10d0\u10ee\u10d0\u10da\u10d8 \u10d6\u10d4\u10da\u10d0\u10dc\u10d3\u10d8\u10d0","name:ko":"\ub274\uc9c8\ub79c\ub4dc","name:cv":"\u00c7\u0115\u043d\u0115 \u0417\u0435\u043b\u0430\u043d\u0434\u0438","name:km":"\u1793\u17bc\u179c\u17c2\u179b\u179f\u17c1\u17a1\u1784\u17cb","name:kl":"New Zealand","name:cs":"Nov\u00fd Z\u00e9land","name:tt":"\u042f\u04a3\u0430 \u0417\u0435\u043b\u0430\u043d\u0434\u0438\u044f","name:kw":"Mordir Nowydh","name:kv":"\u0412\u044b\u043b\u044c \u0417\u0435\u043b\u0430\u043d\u0434\u0438\u044f","name:ku":"N\u00fb Zelenda","name:tl":"New Zealand","name:ta":"\u0ba8\u0bbf\u0baf\u0bc2\u0b9a\u0bbf\u0bb2\u0bbe\u0ba8\u0bcd\u0ba4\u0bc1","name:tg":"\u0417\u0435\u043b\u0430\u043d\u0434\u0438\u044f\u0438 \u041d\u0430\u0432","name:ca":"Nova Zelanda","name:te":"\u0c28\u0c4d\u0c2f\u0c42\u0c1c\u0c40\u0c32\u0c3e\u0c02\u0c21\u0c4d","name:cy":"Seland Newydd","name:qu":"Musuq Silanda","name:da":"New Zealand","name:de":"Neuseeland","name:dz":"\u0f53\u0f72\u0f60\u0f74\u0f0b\u0f5b\u0f72\u0f0b\u0f63\u0f7a\u0f53\u0f4c\u0f0b","source":"openstreetmap.org","name:kn":"\u0ca8\u0ccd\u0caf\u0cc2 \u0c9c\u0cc0\u0cb2\u0ccd\u0caf\u0cbe\u0c82\u0ca1\u0ccd","name:dv":"\u0782\u07a8\u0787\u07aa\u0792\u07a8\u078d\u07ad\u0782\u07b0\u0791\u07aa","name:lv":"Jaunz\u0113lande","name:lt":"Naujoji Zelandija","name:uz":"Yangi Zelandiya","name:kk":"\u0416\u0430\u04a3\u0430 \u0417\u0435\u043b\u0430\u043d\u0434\u0438\u044f","name:ur":"\u0646\u06cc\u0648\u0632\u06cc \u0644\u06cc\u0646\u0688","name:lb":"Neis\u00e9iland","name:la":"Nova Zelandia","name:uk":"\u041d\u043e\u0432\u0430 \u0417\u0435\u043b\u0430\u043d\u0434\u0456\u044f","name:ug":"\u064a\u06d0\u06ad\u0649 \u0632\u06d0\u0644\u0627\u0646\u062f\u0649\u064a\u06d5","name:li":"Nui-Zieland","name:lo":"\u0e9b\u0eb0\u0ec0\u0e97\u0e94\u0e99\u0eb9\u0ec1\u0ea7\u0e99 \u0ec0\u0e8a\u0ea5\u0eb1\u0e87","name:el":"\u039d\u03ad\u03b1 \u0396\u03b7\u03bb\u03b1\u03bd\u03b4\u03af\u03b1","name:eo":"Nov-Zelando","name:en":"New Zealand","name":"New Zealand\/Aotearoa","name:tk":"T\u00e4ze Zelandi\u00fda","name:th":"\u0e1b\u0e23\u0e30\u0e40\u0e17\u0e28\u0e19\u0e34\u0e27\u0e0b\u0e35\u0e41\u0e25\u0e19\u0e14\u0e4c","name:eu":"Zeelanda Berria","name:et":"Uus-Meremaa","name:es":"Nueva Zelanda","name:ia":"Nove Zelanda","name:rm":"Nova Zelanda","name:az":"Yeni Zelandiya","name:ie":"Nov-Zeland","name:id":"Selandia Baru","name:ar":"\u0646\u064a\u0648\u0632\u064a\u0644\u0646\u062f\u0627","name:io":"Nova-Zelando","name:is":"N\u00fdja-Sj\u00e1land","name:am":"\u1292\u12cd \u12da\u120b\u1295\u12f5","name:it":"Nuova Zelanda","name:an":"Nueva Zelanda","name:ru":"\u041d\u043e\u0432\u0430\u044f \u0417\u0435\u043b\u0430\u043d\u0434\u0438\u044f","name:rw":"Nuveli Zelande","name:af":"Nieu-Seeland","name:zu":"INyuzilandi","kind_detail":"2","name:za":"Saen Saelanz","name:zh-yue":"\u7d10\u897f\u862d","name:zh":"\u65b0\u897f\u5170","name:so":"New Zealand","name:sm":"Niu Sila","name:sl":"Nova Zelandija","name:sk":"Nov\u00fd Z\u00e9land","name:ja":"\u30cb\u30e5\u30fc\u30b8\u30fc\u30e9\u30f3\u30c9","name:sh":"Novi Zeland","name:se":"O\u0111\u0111a-Sel\u00e1nda","name:sa":"\u0928\u094d\u092f\u0942-\u091c\u0940\u0932\u0948\u0902\u0921","name:bs":"Novi Zeland","name:bm":"New Zealand","name:bn":"\u09a8\u09bf\u0989\u099c\u09bf\u09b2\u09cd\u09af\u09be\u09a8\u09cd\u09a1","name:bo":"\u0f53\u0f72\u0f60\u0f74\u0f0b\u0f5b\u0f72\u0f0b\u0f63\u0f7a\u0f53\u0f0b\u0f4c\u0f72\u0f0d","name:br":"Zeland-Nevez","name:sw":"New Zealand","name:be":"\u041d\u043e\u0432\u0430\u044f \u0417\u0435\u043b\u0430\u043d\u0434\u044b\u044f","name:su":"Selandia Anyar","name:bg":"\u041d\u043e\u0432\u0430 \u0417\u0435\u043b\u0430\u043d\u0434\u0438\u044f","name:ba":"\u042f\u04a3\u044b \u0417\u0435\u043b\u0430\u043d\u0434\u0438\u044f","name:sq":"Zelanda e Re","name:jv":"S\u00e9landia Anyar","name:bi":"Niu Zilan","name:pt":"Nova Zel\u00e2ndia","name:oc":"N\u00f2va Zelanda","min_zoom":8.0,"name:ro":"Noua Zeeland\u0103","name:zh-min-nan":"Sin Jia\u030dt-l\u00e2n-jia","name:os":"\u041d\u043e\u0433 \u0417\u0435\u043b\u0430\u043d\u0434\u0438","name:or":"\u0b28\u0b3f\u0b09\u0b1c\u0b3f\u0b32\u0b4d\u0b5f\u0b3e\u0b23\u0b4d\u0b21","name:pl":"Nowa Zelandia","sort_rank":262,"name:sr":"\u041d\u043e\u0432\u0438 \u0417\u0435\u043b\u0430\u043d\u0434","osm_relation":true,"name:pa":"\u0a28\u0a3f\u0a0a\u0a1c\u0a3c\u0a40\u0a32\u0a48\u0a02\u0a21","name:tr":"Yeni Zelanda","name:hi":"\u0928\u094d\u092f\u0942\u091c\u093c\u0940\u0932\u0948\u0923\u094d\u0921","name:sv":"Nya Zeeland","name:he":"\u05e0\u05d9\u05d5 \u05d6\u05d9\u05dc\u05e0\u05d3","name:hy":"\u0546\u0578\u0580 \u0536\u0565\u056c\u0561\u0576\u0564\u056b\u0561","name:ht":"Nouv\u00e8l Zelann","name:hu":"\u00daj-Z\u00e9land","name:hr":"Novi Zeland","kind":"country","name:yi":"\u05e0\u05d9\u05d5 \u05d6\u05d9\u05dc\u05d0\u05e0\u05d3","name:yo":"New Zealand","name:mt":"New Zealand","name:ms":"New Zealand","name:mr":"\u0928\u094d\u092f\u0942 \u091d\u0940\u0932\u0901\u0921","name:my":"\u1014\u101a\u1030\u1038\u1007\u102e\u101c\u1014\u103a\u1014\u102d\u102f\u1004\u103a\u1004\u1036","name:vi":"New Zealand","name:ml":"\u0d28\u0d4d\u0d2f\u0d42\u0d38\u0d40\u0d32\u0d7b\u0d21\u0d4d","name:mn":"\u0428\u0438\u043d\u044d \u0417\u0435\u043b\u0430\u043d\u0434","name:mi":"Aotearoa","id":-556706,"name:mk":"\u041d\u043e\u0432 \u0417\u0435\u043b\u0430\u043d\u0434","name:vo":"Nula-Sele\u00e4ns","name:fa":"\u0646\u06cc\u0648\u0632\u06cc\u0644\u0646\u062f","name:fi":"Uusi-Seelanti","name:fo":"N\u00fds\u00e6land","name:fr":"Nouvelle-Z\u00e9lande","name:fy":"Nij-Seel\u00e2n","name:nl":"Nieuw-Zeeland","name:nn":"New Zealand","name:no":"New Zealand","name:na":"Niu Djiran","name:ne":"\u0928\u094d\u092f\u0942 \u091c\u0940\u0932\u094d\u092f\u093e\u0923\u094d\u0921","name:wa":"Nouve Zelande","name:wo":"Seland-Gu-Bees","name:ga":"An Nua-Sh\u00e9alainn","name:gd":"Sealainn Nuadh","name:gl":"Nova Zelandia","maritime_boundary":true,"name:gv":"Yn Teelynn Noa"},"arcs":[[1],[2]]},{"type":"LineString","properties":{"kind":"region","name:right:ja":"\u30a6\u30a7\u30ea\u30f3\u30c8\u30f3","name":"Marlborough - Wellington","sort_rank":256,"kind_detail":"4","name:left:ja":"\u30de\u30fc\u30eb\u30dc\u30ed","id:right":-1638991,"name:right:lt":"Velingtonas","source":"openstreetmap.org","min_zoom":8.0,"id:left":-4266977,"name:left":"Marlborough","id":-4266977,"osm_relation":true,"name:right":"Wellington"},"arcs":[3]},{"type":"LineString","properties":{"kind":"region","name":"Marlborough","sort_rank":256,"kind_detail":"4","source":"openstreetmap.org","min_zoom":8.0,"id":-4266977,"osm_relation":true,"name:ja":"\u30de\u30fc\u30eb\u30dc\u30ed"},"arcs":[4]},{"type":"LineString","properties":{"kind":"region","name":"Marlborough","sort_rank":256,"kind_detail":"4","min_zoom":8.0,"source":"openstreetmap.org","maritime_boundary":true,"id":-4266977,"osm_relation":true,"name:ja":"\u30de\u30fc\u30eb\u30dc\u30ed"},"arcs":[5]},{"type":"LineString","properties":{"kind":"region","name":"Wellington","name:lt":"Velingtonas","sort_rank":256,"kind_detail":"4","source":"openstreetmap.org","min_zoom":8.0,"id":-1638991,"osm_relation":true,"name:ja":"\u30a6\u30a7\u30ea\u30f3\u30c8\u30f3"},"arcs":[6]},{"type":"LineString","properties":{"kind":"region","name":"Wellington","name:lt":"Velingtonas","sort_rank":256,"kind_detail":"4","min_zoom":8.0,"source":"openstreetmap.org","maritime_boundary":true,"id":-1638991,"osm_relation":true,"name:ja":"\u30a6\u30a7\u30ea\u30f3\u30c8\u30f3"},"arcs":[7]}]},"roads":{"type":"GeometryCollection","geometries":[{"type":"MultiLineString","properties":{"bus_network":"Metlink","network":"NZ:SH","sort_rank":381,"kind_detail":"trunk","kind":"major_road","source":"openstreetmap.org","min_zoom":8.0,"bus_shield_text":"30","shield_text":"1","landuse_kind":"urban_area","ref":"SH 1"},"arcs":[[52],[53]]},{"type":"MultiLineString","properties":{"sort_rank":381,"source":"openstreetmap.org","min_zoom":8.0,"kind":"major_road","kind_detail":"trunk"},"arcs":[[54],[55],[56],[57]]},{"type":"MultiLineString","properties":{"bus_network":"Metlink","network":"NZ:SH","sort_rank":381,"kind_detail":"trunk","kind":"major_road","source":"openstreetmap.org","min_zoom":8.0,"bus_shield_text":"289","shield_text":"1","ref":"SH 1"},"arcs":[[58],[59],[60],[61],[62],[63],[64],[65],[66],[67],[68],[69],[70]]},{"type":"LineString","properties":{"kind":"major_road","sort_rank":380,"kind_detail":"primary","is_bicycle_related":true,"bus_network":"Metlink","bicycle_shield_text":null,"bicycle_network":"ncn","source":"openstreetmap.org","min_zoom":8.0,"bus_shield_text":"80S","landuse_kind":"urban_area","id":244099570},"arcs":[71]},{"type":"LineString","properties":{"kind":"major_road","cycleway_left":"lane","sort_rank":380,"kind_detail":"primary","is_bicycle_related":true,"bus_network":"Metlink","source":"openstreetmap.org","min_zoom":8.0,"bus_shield_text":"80S","id":121043931},"arcs":[72]},{"type":"MultiLineString","properties":{"source":"openstreetmap.org","kind":"ferry","name":"Wellington - Picton (Bluebridge)","sort_rank":355,"min_zoom":8.0,"id":214806277},"arcs":[[73],[74]]},{"type":"LineString","properties":{"source":"openstreetmap.org","kind":"ferry","name":"The Interislander","sort_rank":355,"ref":"Interislander","min_zoom":8.0,"osm_relation":true},"arcs":[75]},{"type":"MultiLineString","properties":{"bus_network":"Metlink","network":"NZ:SH","sort_rank":381,"kind_detail":"trunk","kind":"major_road","source":"openstreetmap.org","min_zoom":8.0,"bus_shield_text":"112","shield_text":"2","ref":"SH 2"},"arcs":[[76],[77]]},{"type":"MultiLineString","properties":{"source":"openstreetmap.org","bus_network":"Metlink","bus_shield_text":"43","sort_rank":380,"kind_detail":"primary","min_zoom":8.0,"kind":"major_road"},"arcs":[[78],[79],[80]]},{"type":"MultiLineString","properties":{"kind":"minor_road","sort_rank":358,"kind_detail":"service","is_bicycle_related":true,"bicycle_shield_text":null,"bicycle_network":"ncn","source":"openstreetmap.org","min_zoom":8.0},"arcs":[[81],[82]]},{"type":"MultiLineString","properties":{"sort_rank":380,"kind_detail":"primary","min_zoom":8.0,"kind":"major_road","source":"openstreetmap.org"},"arcs":[[83],[84],[85]]},{"type":"MultiLineString","properties":{"kind":"path","sort_rank":354,"kind_detail":"path","is_bicycle_related":true,"bicycle_shield_text":null,"bicycle_network":"ncn","source":"openstreetmap.org","min_zoom":8.0},"arcs":[[86],[87],[88],[89],[90],[91],[92]]},{"type":"LineString","properties":{"bus_network":"Metlink","network":"NZ:SH","sort_rank":381,"kind_detail":"trunk","is_bicycle_related":true,"kind":"major_road","source":"openstreetmap.org","min_zoom":8.0,"bus_shield_text":"200","shield_text":"2","ref":"SH 2"},"arcs":[93]},{"type":"MultiLineString","properties":{"kind":"highway","network":"NZ:SH","sort_rank":383,"landuse_kind":"urban_area","is_bicycle_related":true,"source":"openstreetmap.org","min_zoom":8.0,"all_networks":["NZ:SH"],"kind_detail":"motorway","shield_text":"2","ref":"SH 2","all_shield_texts":["2"]},"arcs":[[94],[95]]},{"type":"LineString","properties":{"osm_relation":true,"kind":"ferry","network":"Metlink","sort_rank":355,"landuse_kind":"urban_area","source":"openstreetmap.org","min_zoom":8.0,"all_networks":["Metlink"],"shield_text":"F","id":-1941184,"all_shield_texts":["F"],"name":"Wellington Harbour Ferry"},"arcs":[96]},{"type":"MultiLineString","properties":{"bus_network":"Metlink","sort_rank":380,"kind_detail":"primary","kind":"major_road","source":"openstreetmap.org","min_zoom":8.0,"bus_shield_text":"24","landuse_kind":"urban_area"},"arcs":[[97],[98]]},{"type":"MultiLineString","properties":{"kind":"path","sort_rank":354,"kind_detail":"footway","is_bicycle_related":true,"bicycle_shield_text":null,"bicycle_network":"ncn","source":"openstreetmap.org","min_zoom":8.0},"arcs":[[99],[100],[101]]},{"type":"MultiLineString","properties":{"bus_network":"Metlink","network":"NZ:SH","sort_rank":381,"kind_detail":"trunk","kind":"major_road","source":"openstreetmap.org","min_zoom":8.0,"bus_shield_text":"236","shield_text":"1","ref":"SH 1"},"arcs":[[102],[103]]},{"type":"MultiLineString","properties":{"kind":"major_road","network":"NZ:SH","sort_rank":381,"kind_detail":"trunk","source":"openstreetmap.org","min_zoom":8.0,"shield_text":"2","ref":"SH 2"},"arcs":[[104],[105],[106],[107],[108],[109],[110],[111],[112],[113],[114]]},{"type":"MultiLineString","properties":{"bus_network":"Metlink","sort_rank":381,"landuse_kind":"urban_area","kind":"major_road","source":"openstreetmap.org","min_zoom":8.0,"bus_shield_text":"2","kind_detail":"trunk"},"arcs":[[115],[116],[117],[118]]},{"type":"MultiLineString","properties":{"bus_network":"Metlink","sort_rank":381,"kind_detail":"trunk","kind":"major_road","source":"openstreetmap.org","min_zoom":8.0,"bus_shield_text":"236","ref":"SH 1"},"arcs":[[119],[120]]},{"type":"LineString","properties":{"source":"openstreetmap.org","kind":"ferry","name":"Queen's Wharf - Seatoun","sort_rank":355,"landuse_kind":"urban_area","min_zoom":8.0,"id":86201646},"arcs":[121]},{"type":"LineString","properties":{"source":"openstreetmap.org","kind":"ferry","name":"Queen's Wharf - Days Bay","sort_rank":355,"landuse_kind":"urban_area","min_zoom":8.0,"id":319419557},"arcs":[122]},{"type":"MultiLineString","properties":{"bus_network":"Metlink","network":"NZ:SH","sort_rank":381,"kind_detail":"trunk","kind":"major_road","source":"openstreetmap.org","min_zoom":8.0,"bus_shield_text":"230","shield_text":"1","landuse_kind":"urban_area","ref":"SH 1"},"arcs":[[123],[124]]},{"type":"MultiLineString","properties":{"kind":"minor_road","service":"alley","sort_rank":356,"kind_detail":"service","is_bicycle_related":true,"bicycle_shield_text":null,"bicycle_network":"ncn","source":"openstreetmap.org","min_zoom":8.0},"arcs":[[125],[126]]},{"type":"MultiLineString","properties":{"kind":"highway","network":"NZ:SH","sort_rank":383,"kind_detail":"motorway","source":"openstreetmap.org","min_zoom":8.0,"all_networks":["NZ:SH"],"shield_text":"1","ref":"SH 1","all_shield_texts":["1"]},"arcs":[[127],[128],[129],[130],[131],[132],[133],[134],[135],[136]]},{"type":"MultiLineString","properties":{"bus_network":"Metlink","network":"NZ:SH","sort_rank":381,"kind_detail":"trunk","kind":"major_road","source":"openstreetmap.org","min_zoom":8.0,"bus_shield_text":"2","shield_text":"1","landuse_kind":"urban_area","ref":"SH 1"},"arcs":[[137],[138],[139],[140],[141]]},{"type":"MultiLineString","properties":{"kind":"major_road","network":"NZ:SH","sort_rank":381,"landuse_kind":"urban_area","source":"openstreetmap.org","min_zoom":8.0,"kind_detail":"trunk","shield_text":"2","ref":"SH 2"},"arcs":[[142],[143],[144],[145],[146],[147],[148],[149],[150],[151],[152]]},{"type":"LineString","properties":{"kind":"highway","cycleway_left":"lane","network":"NZ:SH","sort_rank":383,"kind_detail":"motorway","is_bicycle_related":true,"source":"openstreetmap.org","min_zoom":8.0,"all_networks":["NZ:SH"],"shield_text":"2","ref":"SH 2","id":79138850,"all_shield_texts":["2"]},"arcs":[153]},{"type":"MultiLineString","properties":{"source":"openstreetmap.org","kind":"major_road","landuse_kind":"urban_area","sort_rank":380,"kind_detail":"primary","min_zoom":8.0},"arcs":[[154],[155],[156],[157],[158],[159]]},{"type":"LineString","properties":{"kind":"minor_road","sort_rank":360,"kind_detail":"unclassified","is_bicycle_related":true,"bicycle_shield_text":null,"bicycle_network":"ncn","source":"openstreetmap.org","min_zoom":8.0,"old_name":"Main North Road","id":244095232},"arcs":[160]},{"type":"LineString","properties":{"sort_rank":355,"source":"openstreetmap.org","kind":"ferry","min_zoom":8.0,"id":44388486},"arcs":[161]},{"type":"MultiLineString","properties":{"kind":"highway","network":"NZ:SH","sort_rank":383,"landuse_kind":"urban_area","source":"openstreetmap.org","min_zoom":8.0,"all_networks":["NZ:SH"],"kind_detail":"motorway","shield_text":"2","ref":"SH 2","all_shield_texts":["2"]},"arcs":[[162],[163]]},{"type":"LineString","properties":{"kind":"ferry","network":"Metlink","sort_rank":355,"source":"openstreetmap.org","min_zoom":8.0,"all_networks":["Metlink"],"all_shield_texts":["F"],"shield_text":"F","id":-1941184,"osm_relation":true,"name":"Wellington Harbour Ferry"},"arcs":[164]},{"type":"LineString","properties":{"kind":"minor_road","sort_rank":360,"kind_detail":"residential","is_bicycle_related":true,"bicycle_shield_text":null,"bicycle_network":"ncn","source":"openstreetmap.org","min_zoom":8.0,"id":244095229},"arcs":[165]},{"type":"MultiLineString","properties":{"kind":"minor_road","sort_rank":358,"landuse_kind":"urban_area","is_bicycle_related":true,"bicycle_shield_text":null,"bicycle_network":"ncn","source":"openstreetmap.org","min_zoom":8.0,"kind_detail":"service"},"arcs":[[166],[167]]},{"type":"LineString","properties":{"kind":"major_road","network":"NZ:SH","sort_rank":381,"kind_detail":"trunk","is_bicycle_related":true,"cycleway":"opposite_track","source":"openstreetmap.org","min_zoom":8.0,"landuse_kind":"urban_area","shield_text":"1","ref":"SH 1"},"arcs":[168]},{"type":"MultiLineString","properties":{"kind":"highway","network":"NZ:SH","sort_rank":383,"landuse_kind":"urban_area","source":"openstreetmap.org","min_zoom":8.0,"all_networks":["NZ:SH"],"kind_detail":"motorway","shield_text":"1","ref":"SH 1","all_shield_texts":["1"]},"arcs":[[169],[170],[171],[172],[173],[174],[175],[176],[177]]},{"type":"LineString","properties":{"bus_network":"Metlink","network":"NZ:SH","sort_rank":381,"kind_detail":"trunk","is_bicycle_related":true,"kind":"major_road","bicycle_shield_text":null,"bicycle_network":"ncn","source":"openstreetmap.org","min_zoom":8.0,"bus_shield_text":"112","shield_text":"2","ref":"SH 2","id":244095228},"arcs":[178]},{"type":"MultiLineString","properties":{"kind":"major_road","network":"NZ:SH","sort_rank":381,"kind_detail":"trunk","source":"openstreetmap.org","min_zoom":8.0,"shield_text":"58","ref":"SH 58"},"arcs":[[179],[180],[181],[182],[183],[184],[185],[186],[187],[188],[189]]},{"type":"MultiLineString","properties":{"bus_network":"Metlink","network":"NZ:SH","sort_rank":381,"kind_detail":"trunk","kind":"major_road","source":"openstreetmap.org","min_zoom":8.0,"bus_shield_text":"110","shield_text":"2","ref":"SH 2"},"arcs":[[190],[191],[192]]},{"type":"MultiLineString","properties":{"kind":"path","sort_rank":354,"kind_detail":"track","is_bicycle_related":true,"bicycle_shield_text":null,"bicycle_network":"ncn","source":"openstreetmap.org","min_zoom":8.0},"arcs":[[193],[194],[195],[196]]},{"type":"LineString","properties":{"kind":"major_road","sort_rank":380,"kind_detail":"primary","bus_network":"Metlink","source":"openstreetmap.org","min_zoom":8.0,"bus_shield_text":"80N","id":78144552},"arcs":[197]},{"type":"LineString","properties":{"kind":"path","sort_rank":354,"kind_detail":"footway","is_bicycle_related":true,"bicycle_shield_text":null,"bicycle_network":"ncn","source":"openstreetmap.org","min_zoom":8.0,"landuse_kind":"urban_area","id":232200624},"arcs":[198]},{"type":"MultiLineString","properties":{"bus_network":"Metlink","network":"NZ:SH","sort_rank":381,"kind_detail":"trunk","kind":"major_road","source":"openstreetmap.org","min_zoom":8.0,"bus_shield_text":"289","shield_text":"1","landuse_kind":"urban_area","ref":"SH 1"},"arcs":[[199],[200]]},{"type":"MultiLineString","properties":{"bus_network":"Metlink","network":"NZ:SH","sort_rank":381,"landuse_kind":"urban_area","kind":"major_road","source":"openstreetmap.org","min_zoom":8.0,"bus_shield_text":"150","shield_text":"2","kind_detail":"trunk","ref":"SH 2"},"arcs":[[201],[202]]},{"type":"LineString","properties":{"kind":"minor_road","service":"driveway","sort_rank":356,"kind_detail":"service","is_bicycle_related":true,"bicycle_shield_text":null,"bicycle_network":"ncn","source":"openstreetmap.org","min_zoom":8.0,"landuse_kind":"urban_area","id":182509452},"arcs":[203]},{"type":"MultiLineString","properties":{"bus_network":"Metlink","network":"NZ:SH","sort_rank":381,"kind_detail":"trunk","kind":"major_road","source":"openstreetmap.org","min_zoom":8.0,"bus_shield_text":"2","shield_text":"1","landuse_kind":"urban_area"},"arcs":[[204],[205],[206],[207]]},{"type":"LineString","properties":{"kind":"major_road","sort_rank":377,"kind_detail":"tertiary","is_bicycle_related":true,"bus_network":"Metlink","bicycle_shield_text":null,"bicycle_network":"ncn","source":"openstreetmap.org","min_zoom":8.0,"bus_shield_text":"110","id":350484534},"arcs":[208]},{"type":"LineString","properties":{"source":"openstreetmap.org","kind":"ferry","name":"Seatoun - Days Bay","sort_rank":355,"min_zoom":8.0,"id":86201645},"arcs":[209]},{"type":"MultiLineString","properties":{"source":"openstreetmap.org","bus_network":"Metlink","bus_shield_text":"80S","sort_rank":380,"kind_detail":"primary","min_zoom":8.0,"kind":"major_road"},"arcs":[[210],[211],[212]]},{"type":"LineString","properties":{"source":"openstreetmap.org","kind":"ferry","name":"Queen's Wharf - Seatoun","sort_rank":355,"min_zoom":8.0,"id":86201646},"arcs":[213]},{"type":"LineString","properties":{"bus_network":"Metlink","network":null,"sort_rank":380,"kind_detail":"primary","kind":"major_road","source":"openstreetmap.org","min_zoom":8.0,"bus_shield_text":"205","shield_text":"53","ref":"SH 53"},"arcs":[214]},{"type":"MultiLineString","properties":{"source":"openstreetmap.org","bus_network":"Metlink","bus_shield_text":"52","sort_rank":380,"kind_detail":"primary","min_zoom":8.0,"kind":"major_road"},"arcs":[[215],[216],[217]]},{"type":"LineString","properties":{"source":"openstreetmap.org","kind":"ferry","name":"Wellington - Picton (Bluebridge)","sort_rank":355,"landuse_kind":"urban_area","min_zoom":8.0,"id":214806277},"arcs":[218]},{"type":"MultiLineString","properties":{"bus_network":"Metlink","sort_rank":380,"kind_detail":"primary","kind":"major_road","source":"openstreetmap.org","min_zoom":8.0,"bus_shield_text":"1","landuse_kind":"urban_area"},"arcs":[[219],[220]]},{"type":"MultiLineString","properties":{"bus_network":"Metlink","network":"NZ:SH","sort_rank":381,"kind_detail":"trunk","kind":"major_road","source":"openstreetmap.org","min_zoom":8.0,"bus_shield_text":"1","shield_text":"1","landuse_kind":"urban_area","ref":"SH 1"},"arcs":[[221],[222]]},{"type":"MultiLineString","properties":{"bus_network":"Metlink","sort_rank":380,"kind_detail":"primary","kind":"major_road","source":"openstreetmap.org","min_zoom":8.0,"bus_shield_text":"14","landuse_kind":"urban_area"},"arcs":[[223],[224],[225]]},{"type":"LineString","properties":{"bus_network":"Metlink","network":"NZ:SH","sort_rank":381,"kind_detail":"trunk","is_bicycle_related":true,"kind":"major_road","source":"openstreetmap.org","min_zoom":8.0,"bus_shield_text":"289","shield_text":"1","ref":"SH 1"},"arcs":[226]},{"type":"MultiLineString","properties":{"kind":"major_road","sort_rank":377,"kind_detail":"tertiary","is_bicycle_related":true,"bicycle_shield_text":null,"bicycle_network":"ncn","source":"openstreetmap.org","min_zoom":8.0},"arcs":[[227],[228]]},{"type":"LineString","properties":{"kind":"major_road","network":"NZ:SH","sort_rank":381,"kind_detail":"trunk","is_bicycle_related":true,"source":"openstreetmap.org","min_zoom":8.0,"shield_text":"2","ref":"SH 2"},"arcs":[229]},{"type":"MultiLineString","properties":{"bus_network":"Metlink","sort_rank":380,"kind_detail":"primary","kind":"major_road","source":"openstreetmap.org","min_zoom":8.0,"bus_shield_text":"80S","landuse_kind":"urban_area"},"arcs":[[230],[231]]},{"type":"MultiLineString","properties":{"kind":"minor_road","sort_rank":360,"kind_detail":"unclassified","is_bicycle_related":true,"bicycle_shield_text":null,"bicycle_network":"ncn","source":"openstreetmap.org","min_zoom":8.0},"arcs":[[232],[233],[234],[235],[236],[237],[238]]},{"type":"LineString","properties":{"kind":"major_road","network":null,"sort_rank":380,"kind_detail":"primary","source":"openstreetmap.org","min_zoom":8.0,"shield_text":"53","ref":"SH 53","id":30124755},"arcs":[239]},{"type":"MultiLineString","properties":{"source":"openstreetmap.org","bus_network":"Metlink","bus_shield_text":"85","sort_rank":380,"kind_detail":"primary","min_zoom":8.0,"kind":"major_road"},"arcs":[[240],[241]]},{"type":"MultiLineString","properties":{"kind":"path","sort_rank":354,"landuse_kind":"urban_area","is_bicycle_related":true,"bicycle_shield_text":null,"bicycle_network":"ncn","source":"openstreetmap.org","min_zoom":8.0,"kind_detail":"path"},"arcs":[[242],[243],[244],[245]]},{"type":"MultiLineString","properties":{"kind":"major_road","network":"NZ:SH","sort_rank":381,"landuse_kind":"urban_area","source":"openstreetmap.org","min_zoom":8.0,"kind_detail":"trunk","shield_text":"1","ref":"SH 1"},"arcs":[[246],[247],[248],[249],[250],[251]]},{"type":"MultiLineString","properties":{"kind":"path","sort_rank":354,"kind_detail":"cycleway","is_bicycle_related":true,"bicycle_shield_text":null,"bicycle_network":"ncn","source":"openstreetmap.org","min_zoom":8.0},"arcs":[[252],[253]]},{"type":"MultiLineString","properties":{"bus_network":"Metlink","network":"NZ:SH","sort_rank":381,"kind_detail":"trunk","kind":"major_road","source":"openstreetmap.org","min_zoom":8.0,"bus_shield_text":"236","shield_text":"58","ref":"SH 58"},"arcs":[[254],[255],[256],[257],[258],[259],[260],[261]]},{"type":"LineString","properties":{"kind":"path","sort_rank":354,"landuse_kind":"nature_reserve","is_bicycle_related":true,"bicycle_shield_text":null,"bicycle_network":"ncn","source":"openstreetmap.org","min_zoom":8.0,"kind_detail":"track"},"arcs":[262]},{"type":"LineString","properties":{"kind":"major_road","network":"Metlink","sort_rank":381,"kind_detail":"trunk","bus_network":"Metlink","source":"openstreetmap.org","min_zoom":8.0,"bus_shield_text":"91","shield_text":"1","landuse_kind":"urban_area","id":39164527},"arcs":[263]},{"type":"LineString","properties":{"kind":"major_road","sort_rank":381,"kind_detail":"trunk","bus_network":"Metlink","source":"openstreetmap.org","min_zoom":8.0,"bus_shield_text":"1","landuse_kind":"urban_area","id":199776523},"arcs":[264]},{"type":"LineString","properties":{"sort_rank":355,"source":"openstreetmap.org","min_zoom":8.0,"name":"Queen's Wharf - Days Bay","kind":"ferry"},"arcs":[265]},{"type":"LineString","properties":{"source":"openstreetmap.org","kind":"major_road","sort_rank":380,"kind_detail":"primary","is_bicycle_related":true,"min_zoom":8.0,"id":160567682},"arcs":[266]},{"type":"MultiLineString","properties":{"kind":"path","sort_rank":354,"landuse_kind":"urban_area","is_bicycle_related":true,"bicycle_shield_text":null,"bicycle_network":"ncn","source":"openstreetmap.org","min_zoom":8.0,"kind_detail":"cycleway"},"arcs":[[267],[268],[269],[270],[271],[272],[273]]},{"type":"LineString","properties":{"sort_rank":355,"source":"openstreetmap.org","min_zoom":8.0,"name":"Wellington - Picton (Interislander)","kind":"ferry"},"arcs":[274]},{"type":"LineString","properties":{"bus_network":"Metlink","network":"NZ:SH","sort_rank":381,"kind_detail":"trunk","kind":"major_road","source":"openstreetmap.org","min_zoom":8.0,"bus_shield_text":"91","shield_text":"1","landuse_kind":"urban_area","ref":"SH 1"},"arcs":[275]},{"type":"MultiLineString","properties":{"bus_network":"Metlink","network":"NZ:SH","sort_rank":381,"landuse_kind":"urban_area","kind":"major_road","source":"openstreetmap.org","min_zoom":8.0,"bus_shield_text":"145","shield_text":"2","kind_detail":"trunk","ref":"SH 2"},"arcs":[[276],[277]]},{"type":"MultiLineString","properties":{"bus_network":"Metlink","sort_rank":380,"kind_detail":"primary","kind":"major_road","source":"openstreetmap.org","min_zoom":8.0,"bus_shield_text":"80N","landuse_kind":"urban_area"},"arcs":[[278],[279]]},{"type":"LineString","properties":{"kind":"major_road","network":"NZ:SH","sort_rank":381,"landuse_kind":"urban_area","is_bicycle_related":true,"source":"openstreetmap.org","min_zoom":8.0,"kind_detail":"trunk","shield_text":"1","ref":"SH 1"},"arcs":[280]},{"type":"MultiLineString","properties":{"kind":"highway","network":"NZ:SH","sort_rank":383,"kind_detail":"motorway","source":"openstreetmap.org","min_zoom":8.0,"all_networks":["NZ:SH"],"shield_text":"2","ref":"SH 2","all_shield_texts":["2"]},"arcs":[[281],[282],[283]]}]},"earth":{"type":"GeometryCollection","geometries":[{"type":"MultiPolygon","properties":{"sort_rank":10,"source":"naturalearthdata.com","min_zoom":0.0,"kind":"earth","area":9504525866},"arcs":[[[284]],[[285]]]}]},"landuse":{"type":"GeometryCollection","geometries":[{"type":"MultiPolygon","properties":{"source":"openstreetmap.org","kind":"nature_reserve","tier":2,"area":67460449,"sort_rank":23,"min_zoom":8.0},"arcs":[[[286]],[[287]]]},{"type":"MultiPolygon","properties":{"source":"naturalearthdata.com","kind":"urban_area","name":"","area":256002646,"sort_rank":11,"min_zoom":4.0},"arcs":[[[288]],[[289]],[[290]],[[291]]]},{"type":"Polygon","properties":{"source":"openstreetmap.org","kind":"nature_reserve","area":185684992,"tier":2,"id":30288874,"min_zoom":6.0,"sort_rank":23},"arcs":[[292]]},{"type":"Polygon","properties":{"kind":"nature_reserve","area":15184400,"sort_rank":23,"source":"openstreetmap.org","min_zoom":8.0,"tier":2,"id":-2883352,"osm_relation":true},"arcs":[[293],[294]]}]}},"type":"Topology","transform":{"translate":[174.375,-42.0329743324],"scale":[0.0003433228,0.0002570987]},"arcs":[[[101,2183],[19,18]],[[0,135],[212,327],[128,113],[101,137],[84,184],[36,198],[-13,201],[-52,178],[-157,256],[-208,176],[-73,244],[43,34]],[[120,2201],[39,38],[121,-141],[152,-108],[617,-257],[188,-129],[532,-224],[68,-145],[96,-128],[246,-179],[180,-58],[245,-22],[173,7],[224,50],[486,220],[285,238],[252,135],[72,73]],[[110,2192],[-72,164],[369,823],[174,917]],[[101,2183],[9,9]],[[0,135],[212,327],[128,113],[101,137],[84,184],[36,198],[-13,201],[-52,178],[-157,256],[-208,176],[-73,244],[43,34]],[[110,2192],[10,9]],[[120,2201],[39,38],[121,-141],[152,-108],[617,-257],[188,-129],[532,-224],[68,-145],[96,-128],[246,-179],[180,-58],[245,-22],[173,7],[224,50],[486,220],[285,238],[252,135],[72,73]],[[1364,3493],[0,-45],[-5,-8],[-3,-2],[-8,-3],[-4,-1],[-3,-3],[-3,-4],[-2,-5],[-3,-17],[-10,-32],[1,-93],[-9,-17],[-15,-19],[-3,-5],[-23,-160],[-85,-98],[-8,-48]],[[1437,3612],[-29,-46],[-41,-48],[-2,-9],[0,-56],[0,-3],[-1,-3],[-1,-2],[-1,-2],[-3,-3],[-3,-2],[-10,-4],[-3,-2],[-6,-8],[-12,-144],[-1,-2],[-1,-3],[-7,-10],[-2,-3],[-14,-18],[-2,-5],[-23,-157],[-1,-3],[-1,-3],[-1,-2]],[[1364,3494],[0,16],[2,4],[2,5],[4,5],[36,43],[3,4],[5,16],[3,5],[3,4],[12,12],[4,7],[-6,52],[0,2],[0,2],[3,8],[0,4],[-4,16],[0,3],[0,3],[1,4],[0,3],[3,6],[2,3],[2,2],[1,1],[7,4],[3,4],[4,17],[1,9],[1,10],[-8,21],[0,2],[0,2],[0,2],[1,3],[8,13],[-1,11],[1,4],[42,61],[1,1],[2,1],[2,0],[14,-4],[4,13],[2,2],[2,1]],[[1439,3618],[-3,66],[-5,21],[19,26],[5,19],[1,18],[-8,27],[9,15],[1,16],[41,61],[19,-2],[8,16]],[[1602,3985],[-76,-84]],[[1720,4096],[-66,-72],[-52,-39]],[[1720,4096],[-14,-11],[-11,-11],[-12,-9],[-9,-9],[-5,-7],[-15,-24],[-44,-28],[-2,-3],[-6,-9]],[[1154,3039],[1,1]],[[1155,3040],[2,3]],[[1157,3043],[1,1]],[[1154,3039],[1,1]],[[1155,3040],[2,3]],[[1157,3043],[1,1]],[[1177,3012],[-32,-4],[9,31]],[[1158,3044],[59,26]],[[1182,3011],[-5,1]],[[1181,2934],[22,70],[-21,7]],[[1217,3070],[4,9]],[[1221,3079],[31,71]],[[1155,3040]],[[1155,3040]],[[1157,3043]],[[1157,3043],[-2,-3]],[[1144,2908],[21,4]],[[1181,2933],[42,84],[322,210]],[[1181,2933],[20,63],[165,132],[107,43],[81,-20],[121,108],[114,184],[71,4],[165,80]],[[1526,3901],[-27,-14],[-42,-62],[-1,-4],[1,-10],[-8,-13],[-1,-3],[0,-2],[6,-44],[-23,-44],[0,-6],[4,-16],[-3,-16],[6,-51],[-19,-24],[-11,-25],[-41,-49],[-3,-9],[0,-61],[-22,-17],[-5,-7],[-13,-144],[-9,-17],[-15,-19],[-3,-5],[-23,-160],[-85,-98],[-8,-48]],[[1526,3901],[-4,-4],[0,-2],[0,-4],[0,-2],[-2,-3],[-2,-1],[-2,-1],[-2,0],[-1,0],[-2,1],[-4,3],[-3,1],[-5,-2],[-1,-1],[-4,-11],[-3,-5],[-9,-9],[-1,-10],[-1,-3],[-2,-3],[-18,-15],[-2,-4],[-1,-4],[1,-8],[-1,-4],[-1,-2],[-7,-10],[-1,-3],[8,-27],[0,-4],[-1,-6],[0,-6],[0,-2],[-4,-16],[-1,-3],[-19,-26],[0,-6],[3,-9],[2,-6],[0,-3],[-1,-2],[-3,-12],[0,-4],[3,-6],[1,-4],[3,-31],[0,-3],[-1,-3],[-1,-4],[-4,-5],[-14,-15],[-8,-21],[-3,-5],[-41,-48],[-2,-9],[0,-56],[0,-3],[-1,-3],[-1,-2],[-1,-2],[-3,-3],[-3,-2],[-10,-4],[-3,-2],[-6,-8],[-12,-144],[-1,-2],[-1,-3],[-7,-10],[-2,-3],[-14,-18],[-2,-5],[-23,-157],[-1,-3],[-1,-3],[-1,-2]],[[1720,4096],[-194,-195]],[[2025,3527],[-167,-81],[-69,-3],[-114,-184],[-121,-108],[-82,20],[-106,-43],[-165,-133],[-19,-63]],[[1182,2932],[19,63],[165,133],[106,43],[82,-20],[121,108],[66,132],[58,58],[59,-3],[223,97],[57,56],[90,-1],[374,-133],[126,68],[147,146],[169,116],[263,102],[205,199]],[[1534,3219],[-315,-205],[-37,-82]],[[1181,2933],[20,63],[165,132],[107,43],[81,-20],[121,108],[65,132],[59,58],[60,-3],[222,97],[57,56],[90,-1],[374,-133],[126,68],[147,146],[169,116],[263,102],[205,199]],[[1364,3493],[0,-45],[-5,-8],[-3,-2],[-8,-3],[-4,-1],[-3,-3],[-3,-4],[-2,-5],[-3,-17],[-10,-32],[-5,-24],[-5,-35],[0,-3],[1,-3],[9,-18],[1,-10],[-9,-17],[-15,-19],[-2,-2],[-1,-3],[-23,-160],[-85,-98],[-8,-48]],[[1437,3612],[-29,-46],[-41,-48],[-3,-71],[-5,-7],[-3,-2],[-10,-4],[-3,-2],[-6,-8],[-12,-144],[-9,-15],[-2,-3],[-14,-18],[-2,-5],[-23,-157],[-1,-3],[-2,-5]],[[1364,3494],[0,16],[2,4],[2,5],[4,5],[36,43],[3,4],[5,16],[3,5],[3,4],[12,12],[4,7],[-6,52],[0,2],[0,2],[3,8],[0,4],[-4,16],[0,3],[0,3],[1,4],[0,3],[3,6],[2,3],[2,2],[1,1],[7,4],[3,4],[4,17],[1,9],[1,10],[-8,21],[0,2],[0,2],[0,2],[1,3],[8,13],[-1,11],[1,4],[42,61],[1,1],[2,1],[2,0],[14,-4],[4,13],[2,2],[2,1]],[[1439,3618],[-3,66],[-5,21],[19,26],[5,19],[1,18],[-8,27],[9,15],[1,16],[41,61],[19,-2],[8,16]],[[1720,4096],[-194,-195]],[[1637,4096],[-5,-12],[-25,-36],[-34,-35],[-37,-27],[-33,-10],[-35,-17],[-51,-71],[-34,-16],[-23,-24],[22,-51],[35,-48],[16,-10],[11,-52],[1,-40],[-15,-34],[-37,-36],[-38,102],[-30,-2],[-38,-45],[-63,-28],[-44,-38],[-72,-166],[-73,-68],[-113,-139],[-48,-43],[-132,-26],[-53,-30],[-34,-77],[28,-135],[106,-110],[143,-75],[133,-27],[38,18],[36,35],[34,25],[30,-11],[33,-24],[31,7],[27,25],[19,30],[19,90],[-41,38],[-137,34],[17,63],[24,48],[35,39],[46,37],[60,28],[86,15],[77,-23],[33,-87],[-13,-99],[-64,-153],[-22,-82],[3,-95],[20,-71],[5,-65],[-38,-74],[6,-32],[39,-40],[64,-48],[47,-11],[31,5],[28,22],[143,156],[67,48],[75,19],[79,-9],[348,-136],[32,-27],[14,-42],[-47,-289],[2,-55],[19,-48],[25,-39],[14,-43],[-16,-58],[46,-39],[27,-121],[46,-26],[223,21],[48,20],[96,109],[48,36],[200,80],[641,507],[171,88],[146,107],[11,12],[0,-2585],[-4096,0],[0,3248],[17,11],[20,45],[18,116],[22,51],[-10,52],[5,44],[-7,29],[-48,8],[-17,-8],[0,500],[1637,0]],[[2282,2926],[36,34],[21,61],[-21,0],[-9,25],[7,69],[17,37],[58,33],[26,21],[38,34],[52,44],[57,21],[19,23],[21,42],[41,25],[30,-4],[19,-19],[31,-25],[-2,-35],[0,-42],[-50,-67],[-33,-48],[-43,-30],[-43,-37],[-71,-28],[-49,5],[-40,-26],[-17,-51],[-28,-28],[4,-23],[10,-48],[-16,-3],[-31,-2],[-36,7],[2,35]],[[2282,2926],[36,34],[21,61],[-21,0],[-9,25],[7,69],[17,37],[58,33],[26,21],[38,34],[52,44],[57,21],[19,23],[21,42],[41,25],[30,-4],[19,-19],[31,-25],[-2,-35],[0,-42],[-50,-67],[-33,-48],[-43,-30],[-43,-37],[-71,-28],[-49,5],[-40,-26],[-17,-51],[-28,-28],[4,-23],[10,-48],[-16,-3],[-31,-2],[-36,7],[2,35]],[[4096,2585],[-11,-12],[-146,-107],[-171,-88],[-641,-507],[-200,-80],[-48,-36],[-96,-109],[-48,-20],[-223,-21],[-46,26],[-27,121],[-46,39],[16,58],[-14,43],[-25,39],[-19,48],[-2,55],[47,289],[-14,42],[-32,27],[-348,136],[-79,9],[-75,-19],[-67,-48],[-143,-156],[-28,-22],[-31,-5],[-47,11],[-64,48],[-39,40],[-6,32],[38,74],[-5,65],[-20,71],[-3,95],[22,82],[64,153],[13,99],[-33,87],[-77,23],[-86,-15],[-60,-28],[-46,-37],[-35,-39],[-24,-48],[-17,-63],[137,-34],[41,-38],[-19,-90],[-19,-30],[-27,-25],[-31,-7],[-33,24],[-30,11],[-34,-25],[-36,-35],[-38,-18],[-133,27],[-143,75],[-106,110],[-28,135],[34,77],[53,30],[132,26],[48,43],[113,139],[73,68],[72,166],[44,38],[63,28],[38,45],[30,2],[38,-102],[37,36],[15,34],[-1,40],[-11,52],[-16,10],[-35,48],[-22,51],[23,24],[34,16],[51,71],[35,17],[33,10],[37,27],[34,35],[25,36],[5,12]],[[17,3604],[-17,-8]],[[0,3248],[17,11],[20,45],[18,116],[22,51],[-10,52],[5,44],[-7,29],[-48,8]],[[1246,2784],[-27,20]],[[1219,2804],[10,-2],[18,-17]],[[1440,3695],[-1,1]],[[1440,3697],[1,0]],[[1474,3606],[0,-1],[0,1]],[[1746,3403],[2,0],[0,-1],[-1,0],[-1,1]],[[1422,3589],[13,17]],[[1436,3605],[-14,-18]],[[1436,3607],[6,18]],[[1442,3625],[-5,-19]],[[1482,3847],[-11,-12]],[[1471,3835],[-4,-3],[-20,-105]],[[1447,3727],[-5,-27],[-4,-8]],[[1438,3692],[4,8],[5,27]],[[1447,3727],[24,108]],[[1471,3835],[11,12]],[[1442,3625],[-4,67]],[[1482,3847],[4,19]],[[1682,4062],[68,34]],[[1526,3112],[-5,1]],[[1420,3143],[-1,1],[0,1],[1,-1],[0,-1]],[[1223,2920],[136,40],[46,-43],[-15,-178],[-68,-219],[-464,-6],[-120,52],[-738,516]],[[1189,2931],[4,-3]],[[0,3066],[232,-206],[428,-215],[376,-95],[152,6],[116,40],[62,73],[31,188],[-43,64],[-152,69]],[[2100,3581],[-1,0]],[[2124,3627],[70,26]],[[1210,3008],[-13,-14]],[[1199,2996],[11,12]],[[1210,3008],[29,20]],[[2089,3616],[2,-10]],[[2322,3693],[37,-6]],[[1182,2930],[18,29]],[[1197,2994],[4,-39],[-18,-25]],[[1195,2981],[-1,8],[2,5],[3,2]],[[1735,3372],[-75,-61]],[[1739,3373],[80,80]],[[2139,3658],[-33,4]],[[2188,3650],[-46,10]],[[2221,3599],[44,-6]],[[2274,3601],[23,65]],[[2359,3687],[13,-45],[-34,-75],[59,-29],[-33,-46],[44,-84],[-4,-49],[106,5]],[[2758,3565],[166,-7],[202,107],[404,431]],[[1447,3160],[99,68]],[[1547,3228],[-100,-68]],[[1208,2924],[-30,-9],[45,5]],[[1180,2888],[1,-1]],[[1183,2886],[8,-4]],[[2041,3576],[57,13]],[[2139,3658],[3,2]],[[2194,3653],[-1,-3]],[[1435,3606],[1,1]],[[1437,3606],[-1,-1]],[[1654,3315],[167,148]],[[1821,3462],[-165,-148]],[[2042,3568],[10,1]],[[2061,3571],[-9,-2]],[[2061,3571],[34,8]],[[2099,3581],[-4,-2]],[[2095,3579],[3,2]],[[2107,3610],[17,17]],[[2670,3603],[-213,-29],[-48,137],[-212,-57]],[[2674,3608],[-4,-5]],[[2750,3567],[-76,41]],[[1246,2784],[1,1]],[[1248,2785],[1,-2]],[[1264,2784],[-1,2]],[[1266,2785],[-1,-1]],[[1436,3605],[-1,1]],[[1436,3607],[1,-1]],[[1178,2915],[45,5]],[[1208,2924],[-30,-9]],[[1371,3521],[14,17]],[[1393,3545],[-22,-25]],[[2098,3589],[-7,17]],[[2221,3599],[-6,-2]],[[1160,2936],[60,77],[49,35]],[[1262,3042],[-102,-106]],[[1272,3075],[-18,18],[0,4]],[[1258,3100],[13,-24]],[[1276,3179],[28,54],[17,34]],[[1321,3267],[8,15],[0,1]],[[1329,3283],[15,111],[12,31]],[[1356,3425],[-26,-139],[-1,-3]],[[1329,3283],[-8,-16]],[[1321,3267],[-15,-33],[-30,-55]],[[1248,2785],[15,1]],[[1264,2784],[-15,-1]],[[1266,2782],[-1,2]],[[1265,2770],[1,12]],[[1266,2785],[0,-3]],[[1590,3260],[23,17]],[[1613,3277],[-23,-18]],[[1616,3279],[38,36]],[[1656,3314],[-40,-35]],[[1925,3540],[-104,-78]],[[1821,3463],[75,60],[29,17]],[[1931,3540],[-6,0]],[[1931,3540],[35,23]],[[1966,3563],[34,3]],[[2000,3566],[19,1]],[[2019,3567],[23,1]],[[1301,3075],[104,70]],[[1183,2930],[-3,-42]],[[1181,2887],[2,-1]],[[1189,2880],[-10,5],[-6,28],[4,9],[5,8]],[[1190,2873],[1,2]],[[1194,2878],[-2,0]],[[1194,2881],[1,-2]],[[2289,3682],[21,11]],[[1444,3126],[-11,-101]],[[1447,3160]],[[1447,3160]],[[1223,2920],[91,10],[38,-20],[15,-64],[-41,-68],[219,148],[-111,99],[-5,-38],[-221,-63]],[[2188,3650],[5,0]],[[1524,3183],[1,4]],[[1927,3537],[-27,-21]],[[1167,2859],[-13,10]],[[1154,2869],[2,15]],[[1160,2936],[-4,-35]],[[1156,2901],[4,35]],[[1156,2901],[0,-17]],[[1156,2884],[1,-9]],[[1254,3097],[11,60],[11,22]],[[1276,3179],[-18,-79]],[[1356,3425],[15,96]],[[1371,3520],[-4,-67],[-11,-28]],[[2194,3653],[3,1]],[[1474,3606],[103,-8]],[[1578,3596],[-1,2]],[[1577,3598],[2,-1]],[[1581,3594],[-2,2]],[[1580,3597],[1,-3]],[[1581,3594],[16,-32],[95,0],[60,-60],[-4,-94]],[[1746,3404],[2,4]],[[1748,3408],[-1,-4]],[[1579,3597],[1,0]],[[1580,3597],[-1,-1]],[[1579,3596],[-1,1],[1,0]],[[2098,3581],[2,1]],[[2100,3582],[0,-1]],[[2100,3582],[7,28]],[[1814,2492],[-223,-157],[-51,57]],[[1926,2557],[1,0]],[[2099,3650],[-10,-34]],[[2289,3682],[8,-16]],[[1497,3117],[11,-1]],[[1945,3554],[96,22]],[[1385,3538],[37,51]],[[1422,3587],[-29,-42]],[[1613,3277],[3,2]],[[1616,3279],[-3,-2]],[[1523,3103],[1,-1]],[[1249,2783],[-3,1]],[[1247,2785],[1,0]],[[1263,2786],[3,-1]],[[1265,2784],[-1,0]],[[2107,3663],[-8,-13]],[[1326,2778],[219,148]],[[1481,3123],[-62,20]],[[1420,3144],[61,-21]],[[1508,3115],[-11,2]],[[1223,2920],[91,10],[38,-20],[15,-64],[-41,-68]],[[2776,3551],[172,-188],[140,-45],[-15,-19],[85,-130]],[[1239,3028],[13,7]],[[1252,3035],[26,32]],[[1279,3070],[-27,-35]],[[1193,2928],[30,-8]],[[1178,2853],[12,20]],[[1191,2874],[-5,-12]],[[1184,2848],[-6,5]],[[1186,2862],[-1,-12]],[[1191,2875],[-2,5]],[[1191,2882],[3,-1]],[[1195,2879],[-4,-5]],[[1486,3866],[196,196]],[[3158,3167],[-303,-237],[-97,-21],[-140,-81],[-19,88]],[[3157,3168],[2,2],[2,-3],[-2,-1],[-2,2]],[[2750,3567],[8,-2]],[[1521,3113],[-13,2]],[[1540,3109],[-14,3]],[[2237,2806],[2,-91],[-67,-68],[-27,-47],[12,-23],[-230,-20]],[[2197,3654],[18,-57]],[[2237,2806],[2,152],[71,170],[229,221],[-29,15]],[[2237,2806],[149,-12],[85,65],[105,18],[23,39]],[[2265,3593],[9,8]],[[2310,3693],[12,0]],[[3160,3166],[164,-127],[81,47],[31,-9],[-9,21],[34,16],[232,566],[71,90],[-16,120],[29,108],[-5,98]],[[2760,3564],[16,-13]],[[1497,3117],[-16,6]],[[1481,3123],[16,-6]],[[1660,3311],[-109,-88]],[[1825,3459],[-6,-6]],[[1900,3516],[-76,-56]],[[1927,3537],[18,17]],[[1157,2875],[29,-13]],[[1178,2853],[-11,6]],[[1186,2848],[-2,0]],[[1185,2850],[1,-2]],[[1186,2848],[27,-13]],[[1219,2804]],[[1448,3134],[62,-26]],[[1739,3373],[-4,-1]],[[1439,3606],[-2,-1]],[[1437,3606],[2,1]],[[1439,3607],[1,2]],[[1440,3609],[-1,-2]],[[1474,3606],[-34,3]],[[1439,3606],[0,1]],[[1439,3607]],[[1439,3607],[0,-1]],[[1814,2492],[112,65]],[[1265,2770],[-1,-14]],[[1185,2850],[-1,-2]],[[1545,2926],[-112,99],[-4,-38],[-221,-63]],[[1200,2959],[-5,22]],[[1510,3108],[14,-6]],[[1523,3103],[-2,10]],[[1533,3110],[-8,75]],[[1525,3187],[23,31]],[[1533,3110],[-1,0],[-6,2]],[[1533,3110],[-1,1]],[[1551,3223],[-2,-4]],[[0,3066],[232,-206],[428,-215],[215,-69],[285,-21],[144,41],[62,73],[23,76],[-7,153],[-180,92]],[[1266,2751]],[[1546,3228],[44,32]],[[1590,3259],[-43,-31]],[[1508,3116],[10,-2]],[[1540,3107],[-1,1]],[[1213,2835],[4,-31]],[[1447,3160],[-185,-118]],[[1269,3048],[32,27]],[[1405,3145],[42,15]],[[4096,4096],[0,-1511],[-11,-12],[-146,-107],[-171,-88],[-641,-507],[-200,-80],[-48,-36],[-96,-109],[-48,-20],[-223,-21],[-46,26],[-27,121],[-46,39],[16,58],[-14,43],[-25,39],[-19,48],[-2,55],[47,289],[-14,42],[-32,27],[-348,136],[-79,9],[-75,-19],[-67,-48],[-143,-156],[-28,-22],[-31,-5],[-47,11],[-64,48],[-39,40],[-6,32],[38,74],[-5,65],[-20,71],[-3,95],[22,82],[64,153],[13,99],[-33,87],[-77,23],[-86,-15],[-60,-28],[-46,-37],[-35,-39],[-24,-48],[-17,-63],[137,-34],[41,-38],[-19,-90],[-19,-30],[-27,-25],[-31,-7],[-33,24],[-30,11],[-34,-25],[-36,-35],[-38,-18],[-133,27],[-143,75],[-106,110],[-28,135],[34,77],[53,30],[132,26],[48,43],[113,139],[73,68],[72,166],[44,38],[63,28],[38,45],[30,2],[38,-102],[37,36],[15,34],[-1,40],[-11,52],[-16,10],[-35,48],[-22,51],[23,24],[34,16],[51,71],[35,17],[33,10],[37,27],[34,35],[25,36],[5,12],[2459,0]],[[77,3471],[-22,-51],[-18,-116],[-20,-45],[-17,-11],[0,348],[17,8],[48,-8],[7,-29],[-5,-44],[10,-52]],[[1539,2849],[21,55],[30,-14],[15,123],[27,-5],[-6,-31],[42,14],[-31,-71],[26,-10],[-17,-48],[-31,1],[-24,-31],[-52,17]],[[1400,3254],[3,44],[36,-2],[20,35],[-25,15],[18,40],[-31,51],[52,50],[101,-17],[1,-24],[70,-17],[-36,-136],[-60,32],[20,-16],[-15,-14],[-50,24],[-22,-80],[-54,-10],[-8,-29],[3,50],[-23,4]],[[1313,2775],[-46,-55],[-94,28],[-26,-19],[-129,137],[5,74],[157,226],[46,22],[51,-10],[23,-43],[-105,-87],[-41,-111],[137,-34],[41,-38],[-19,-90]],[[1630,3329],[54,-31],[-9,-61],[-121,-26],[-5,-32],[37,-50],[-56,-88],[-31,103],[-77,23],[-87,-16],[-8,63],[190,46],[15,42],[98,27]],[[1813,3427],[20,92],[50,53],[157,28],[3,-58],[-100,-29],[-78,-77],[-52,-9]],[[1393,3578],[28,26],[8,-109],[-53,-76],[-150,39],[-64,67],[18,41],[145,111],[30,2],[38,-101]],[[1537,2599],[26,52],[113,64],[30,151],[32,-10],[8,24],[-11,62],[47,-55],[85,5],[7,-102],[245,-30],[-89,-96],[-26,11],[-91,-138],[-50,-36],[-106,-21],[-28,-37],[-127,81],[39,27],[-35,37],[40,36],[-1,3],[-61,-42],[-47,14]],[[1076,2592],[0,76],[125,15],[6,-91],[-131,0]],[[1156,2657],[3,-2],[4,6],[-5,0],[-2,-4]]]}