{"objects":{"water":{"type":"GeometryCollection","geometries":[{"type":"MultiPolygon","properties":{"source":"naturalearthdata.com","kind":"ocean","area":1576712559132672,"sort_rank":200,"min_zoom":0.0,"id":1},"arcs":[[[139],[140],[141],[142],[143],[144],[145],[146],[147],[148],[149],[150],[151],[152],[153],[154],[155],[156],[157]],[[158]],[[159]]]},{"type":"LineString","properties":{"source":"naturalearthdata.com","kind":"ocean","sort_rank":205,"boundary":true,"min_zoom":0.0,"id":515},"arcs":[160]},{"type":"LineString","properties":{"source":"naturalearthdata.com","kind":"ocean","sort_rank":205,"boundary":true,"min_zoom":0.0,"id":516},"arcs":[161]},{"type":"MultiLineString","properties":{"source":"naturalearthdata.com","kind":"ocean","sort_rank":205,"boundary":true,"min_zoom":0.0,"id":549},"arcs":[[162],[163]]},{"type":"MultiLineString","properties":{"source":"naturalearthdata.com","kind":"ocean","sort_rank":205,"boundary":true,"min_zoom":0.0,"id":551},"arcs":[[164],[165]]},{"type":"LineString","properties":{"source":"naturalearthdata.com","kind":"ocean","sort_rank":205,"boundary":true,"min_zoom":0.0,"id":584},"arcs":[166]},{"type":"LineString","properties":{"source":"naturalearthdata.com","kind":"ocean","sort_rank":205,"boundary":true,"min_zoom":0.0,"id":619},"arcs":[167]},{"type":"MultiLineString","properties":{"source":"naturalearthdata.com","kind":"ocean","sort_rank":205,"boundary":true,"min_zoom":0.0,"id":627},"arcs":[[168],[169]]},{"type":"LineString","properties":{"source":"naturalearthdata.com","kind":"ocean","sort_rank":205,"boundary":true,"min_zoom":0.0,"id":634},"arcs":[170]},{"type":"LineString","properties":{"source":"naturalearthdata.com","kind":"ocean","sort_rank":205,"boundary":true,"min_zoom":0.0,"id":642},"arcs":[171]},{"type":"MultiLineString","properties":{"source":"naturalearthdata.com","kind":"ocean","sort_rank":205,"boundary":true,"min_zoom":0.0,"id":644},"arcs":[[172],[173]]},{"type":"MultiLineString","properties":{"source":"naturalearthdata.com","kind":"ocean","sort_rank":205,"boundary":true,"min_zoom":0.0,"id":2907},"arcs":[[174],[175],[176],[177]]},{"type":"LineString","properties":{"source":"naturalearthdata.com","kind":"ocean","sort_rank":205,"boundary":true,"min_zoom":0.0,"id":3725},"arcs":[178]},{"type":"LineString","properties":{"source":"naturalearthdata.com","kind":"ocean","sort_rank":205,"boundary":true,"min_zoom":0.0,"id":3726},"arcs":[179]},{"type":"LineString","properties":{"source":"naturalearthdata.com","kind":"ocean","sort_rank":205,"boundary":true,"min_zoom":0.0,"id":3827},"arcs":[180]}]},"buildings":{"type":"GeometryCollection","geometries":[]},"places":{"type":"GeometryCollection","geometries":[{"type":"Point","properties":{"name:ps":"\u062c\u0645\u06cc\u06a9\u0627","name:ka":"\u10d8\u10d0\u10db\u10d0\u10d8\u10d9\u10d0","name:mt":"\u0120amajka","name:tr":"Jamaika","name:kn":"\u0c9c\u0cae\u0cc8\u0c95\u0cbe","name:km":"\u17a0\u17d2\u179f\u17b6\u1798\u17c9\u17b6\u17a2\u17c9\u17b7\u1782","name:cs":"Jamajka","name:ki":"Jamaika","name:ku":"Jama\u00eeka","name:ti":"\u1303\u121b\u12ed\u12ab","name:ks":"\u062c\u064e\u0645\u0627\u06cc\u06a9\u0627","name:to":"Samaika","name:tl":"Hamayka","name:or":"\u0b1c\u0b3e\u0b2e\u0b3e\u0b07\u0b15\u0b3e","name:pl":"Jamajka","name:ta":"\u0b9c\u0bae\u0bc8\u0b95\u0bbe","name:te":"\u0c1c\u0c2e\u0c48\u0c15\u0c3e","name:hr":"Jamajka","name:de":"Jamaika","name:dz":"\u0f47\u0f71\u0f0b\u0f58\u0f7b\u0f0b\u0f40","source":"openstreetmap.org","name:lv":"Jamaika","name:lt":"Jamaika","name:hi":"\u091c\u092e\u0948\u0915\u093e","name:he":"\u05d2'\u05de\u05d9\u05d9\u05e7\u05d4","kind":"country","name:ur":"\u062c\u0645\u0627\u0626\u06cc\u06a9\u0627","name:lb":"Jamaika","name:la":"Iamaica","name:lg":"Jamayika","name:uk":"\u042f\u043c\u0430\u0439\u043a\u0430","name:hy":"\u054b\u0561\u0574\u0561\u0575\u056f\u0561","min_zoom":2.0,"name:ln":"Zamaiki","name:lo":"\u0e88\u0eb2\u0ec4\u0ea1\u0e81\u0eb2","population":2804332,"name:el":"\u03a4\u03b6\u03b1\u03bc\u03ac\u03b9\u03ba\u03b1","name:eo":"Jamajko","name":"Jamaica","name:ee":"Dzamaika nutome","name:th":"\u0e1b\u0e23\u0e30\u0e40\u0e17\u0e28\u0e08\u0e32\u0e40\u0e21\u0e01\u0e32","name:gu":"\u0a9c\u0aae\u0ac8\u0a95\u0abe","name:eu":"Jamaika","name:yo":"Or\u00edl\u1eb9\u0301\u00e8de Jamaika","name:rm":"Giamaica","name:rn":"Jamayika","name:az":"Yamayka","name:id":"Jamaika","name:ms":"Jamaika","name:mr":"\u091c\u092e\u0948\u0915\u093e","name:ar":"\u062c\u0627\u0645\u0627\u064a\u0643\u0627","name:my":"\u1002\u103b\u1019\u1031\u1014\u102e\u1000\u102c","name:io":"Jamaika","name:is":"Jama\u00edka","name:am":"\u1303\u121b\u12ed\u12ab","name:it":"Giamaica","name:ml":"\u0d1c\u0d2e\u0d48\u0d15\u0d4d\u0d15","name:ru":"\u042f\u043c\u0430\u0439\u043a\u0430","name:mn":"\u042f\u043c\u0430\u0439\u043a\u0430","id":424313591,"name:mk":"\u0408\u0430\u043c\u0430\u0458\u043a\u0430","name:af":"Jamaika","name:zu":"i-Jamaica","name:ha":"Jamaika","name:ff":"Jamayka","name:fi":"Jamaika","name:mg":"Jama\u00efka","name:fo":"Jameika","name:fr":"Jama\u00efque","name:fy":"Jamaika","name:vo":"Cameke\u00e4n","name:zh":"\u7259\u4e70\u52a0","name:so":"Jameyka","name:sl":"Jamajka","name:sk":"Jamajka","name:ja":"\u30b8\u30e3\u30de\u30a4\u30ab","name:si":"\u0da2\u0dd0\u0db8\u0dd9\u0dba\u0dd2\u0d9a\u0dcf\u0dc0","name:fa":"\u062c\u0627\u0645\u0627\u0626\u06cc\u06a9\u0627","name:sg":"Zama\u00eeka","name:ne":"\u091c\u092e\u093e\u0907\u0915\u093e","name:br":"Jamaika","name:bs":"Jamajka","name:bm":"Zamayiki","name:bn":"\u099c\u09cd\u09af\u09be\u09ae\u09c7\u0995\u09be","name:bo":"\u0f5b\u0f0b\u0f58\u0f7a\u0f0b\u0f40\u0f0d","name:sw":"Jamaika","name:be":"\u042f\u043c\u0430\u0439\u043a\u0430","name:bg":"\u042f\u043c\u0430\u0439\u043a\u0430","name:sr":"\u0408\u0430\u043c\u0430\u0458\u043a\u0430","name:sq":"Xhamajk\u00eb","name:ko":"\uc790\uba54\uc774\uce74","name:ga":"Iam\u00e1ice","name:gd":"Iaimeuca","name:gl":"Xamaica","name:gv":"Yn Yamaicey","name:ak":"Gyameka","name:tt":"\u042f\u043c\u0430\u0439\u043a\u0430"},"coordinates":[987,1195]},{"type":"Point","properties":{"kind":"region","name":"Grand'Anse","kind_detail":"state","source":"openstreetmap.org","min_zoom":4.0,"name:pl":"Departament Grand'Anse","name:ru":"\u0413\u0440\u0430\u043d\u0434-\u0410\u043d\u0441","name:ht":"Grandans","id":618756414},"coordinates":[3349,1462]},{"type":"Point","properties":{"kind":"region","name":"Nippes","kind_detail":"state","source":"openstreetmap.org","min_zoom":4.0,"name:pl":"Departament Nippes","name:ru":"\u041d\u0438\u043f","name:ht":"Nip","id":618757391},"coordinates":[3902,1394]},{"type":"Point","properties":{"kind":"region","name:en":"South","name":"Sud","kind_detail":"state","name:de":"S\u00fcd","source":"openstreetmap.org","min_zoom":4.0,"name:pl":"Departament Po\u0142udniowy","name:ru":"\u042e\u0436\u043d\u044b\u0439 \u0434\u0435\u043f\u0430\u0440\u0442\u0430\u043c\u0435\u043d\u0442","name:ht":"Sid","id":618769994},"coordinates":[3572,1254]},{"type":"Point","properties":{"source":"naturalearthdata.com","kind":"locality","name":"Kingston","country_capital":true,"population":937700,"min_zoom":5.0,"id":6945},"coordinates":[1444,1035]},{"type":"Point","properties":{"source":"naturalearthdata.com","kind":"locality","name":"Santiago de Cuba","population":555865,"region_capital":true,"min_zoom":5.0,"id":6492},"coordinates":[2133,2616]},{"type":"Point","properties":{"source":"naturalearthdata.com","kind":"locality","name":"Camaguey","population":347562,"region_capital":true,"min_zoom":6.0,"id":5197},"coordinates":[607,3662]},{"type":"Point","properties":{"source":"naturalearthdata.com","kind":"locality","name":"Holguin","population":319102,"region_capital":true,"min_zoom":6.0,"id":5199},"coordinates":[1811,3281]},{"type":"Point","properties":{"source":"naturalearthdata.com","kind":"locality","name":"Guantanamo","population":272801,"region_capital":true,"min_zoom":6.0,"id":5198},"coordinates":[2581,2708]},{"type":"Point","properties":{"source":"naturalearthdata.com","kind":"locality","name":"Montego Bay","population":126008,"region_capital":true,"min_zoom":6.0,"id":5200},"coordinates":[607,1413]}]},"transit":{"type":"GeometryCollection","geometries":[{"type":"MultiLineString","properties":{"kind":"train","name":"Tren Habana-Bayamo-Manzanillo","service":"long distance","sort_rank":275,"source":"openstreetmap.org","min_zoom":6.0,"operator":"Ferrocarriles de Cuba (FC)","ref":"13\/14","osm_relation":true},"arcs":[[119],[120],[121],[122],[123],[124],[125],[126]]},{"type":"LineString","properties":{"kind":"train","name":"Tren Santiago Antilla","service":"local","sort_rank":275,"source":"openstreetmap.org","min_zoom":6.0,"operator":"Ferrocarriles de Cuba (FC)","ref":"658\/659","osm_relation":true},"arcs":[127]},{"type":"LineString","properties":{"kind":"train","name":"Tren Habana-Holgu\u00edn","service":"long distance","sort_rank":275,"source":"openstreetmap.org","min_zoom":6.0,"operator":"Ferrocarriles de Cuba (FC)","ref":"5\/6","osm_relation":true},"arcs":[128]},{"type":"LineString","properties":{"kind":"train","name":"Tren Camaguey - Nuevitas","service":"local","sort_rank":275,"source":"openstreetmap.org","min_zoom":6.0,"operator":"Ferrocarriles de Cuba (FC)","ref":"Nuevitas","id":-6532469,"osm_relation":true},"arcs":[129]},{"type":"MultiLineString","properties":{"kind":"train","name":"Tren Moron-Camaguey","service":"local","sort_rank":275,"source":"openstreetmap.org","min_zoom":6.0,"operator":"Ferrocarriles de Cuba (FC)","ref":"Mor\u00f3n-Camaguey","osm_relation":true},"arcs":[[130],[131]]},{"type":"LineString","properties":{"kind":"train","name":"Tren Habana-Santiago Nro 1\/2","service":"long distance","sort_rank":275,"source":"openstreetmap.org","min_zoom":6.0,"operator":"Ferrocarriles de Cuba (FC)","ref":"1\/2","osm_relation":true},"arcs":[132]},{"type":"LineString","properties":{"kind":"train","name":"Tren Habana-Santiago Nro3\/4","service":"long distance","sort_rank":275,"source":"openstreetmap.org","min_zoom":6.0,"operator":"Ferrocarriles de Cuba (FC)","ref":"3\/4","osm_relation":true},"arcs":[133]},{"type":"LineString","properties":{"kind":"train","name":"Tren Habana-Guant\u00e1namo","service":"long distance","sort_rank":275,"source":"openstreetmap.org","min_zoom":6.0,"operator":"Ferrocarriles de Cuba (FC)","ref":"15\/16","osm_relation":true},"arcs":[134]},{"type":"LineString","properties":{"kind":"train","name":"Tren Jucaro - Moron","service":"commuter","sort_rank":275,"source":"openstreetmap.org","min_zoom":6.0,"operator":"Ferrocarriles de Cuba (FC)","ref":"JM","id":-6520975,"osm_relation":true},"arcs":[135]},{"type":"LineString","properties":{"kind":"train","name":"Tren Mor\u00f3n Nuevitas (L\u00ednea Norte)","service":"local","sort_rank":275,"source":"openstreetmap.org","min_zoom":6.0,"operator":"Ferrocarriles de Cuba (FC)","ref":"Norte","osm_relation":true},"arcs":[136]},{"type":"LineString","properties":{"kind":"train","name":"Tren Santiago - Manzanillo","service":"long distance","sort_rank":275,"source":"openstreetmap.org","min_zoom":6.0,"operator":"Ferrocarriles de Cuba (FC)","ref":"Stgo-Mznillo","osm_relation":true},"arcs":[137]},{"type":"LineString","properties":{"kind":"train","name":"TrenCamaguey-Bayamo","service":"local","sort_rank":275,"source":"openstreetmap.org","min_zoom":6.0,"operator":"Ferrocarriles de Cuba (FC)","ref":"Camaguey-Bayamo","osm_relation":true},"arcs":[138]}]},"pois":{"type":"GeometryCollection","geometries":[{"type":"Point","properties":{"kind":"nature_reserve","tier":2,"protect_class":"4","area":1949420000,"source":"openstreetmap.org","min_zoom":6.83,"operator":"United States Fish & Wildlife Service","id":-6482899,"osm_relation":true,"name":"Navassa National Wildlife Refuge"},"coordinates":[2720,1368]},{"type":"Point","properties":{"kind":"national_park","name:en":"Granma Landing National Park","protect_class":"2","area":367728000,"name:de":"Nationalpark Landung der Granma","source":"openstreetmap.org","min_zoom":6.53,"tier":1,"id":361219689,"name":"Parque Nacional Desembarco del Granma"},"coordinates":[836,2503]},{"type":"Point","properties":{"kind":"national_park","name:en":"Turquino National Park","protect_class":"2","area":261711000,"name:de":"Nationalpark Turquino","source":"openstreetmap.org","min_zoom":6.77,"tier":1,"id":361219690,"name":"Parque Nacional Turquino"},"coordinates":[1366,2586]},{"type":"Point","properties":{"kind":"national_park","protect_class":"2","area":214024000,"source":"openstreetmap.org","min_zoom":6.92,"tier":1,"id":361220610,"name":"Parque Nacional Pico Cristal"},"coordinates":[2422,3020]},{"type":"Point","properties":{"kind":"national_park","protect_class":"2","area":264679000,"source":"openstreetmap.org","min_zoom":6.77,"tier":1,"id":371542552,"name":"Parque Nacional Pico La Bayamesa"},"coordinates":[1536,2633]}]},"boundaries":{"type":"GeometryCollection","geometries":[{"type":"MultiLineString","properties":{"source":"naturalearthdata.com","kind":"lease_limit","sort_rank":259,"kind_detail":"2","min_zoom":0.0,"id":186},"arcs":[[0],[1]]},{"type":"MultiLineString","properties":{"source":"naturalearthdata.com","kind":"lease_limit","sort_rank":259,"kind_detail":"2","min_zoom":0.0,"id":430},"arcs":[[2],[3]]},{"type":"MultiLineString","properties":{"source":"naturalearthdata.com","kind":"region","sort_rank":256,"kind_detail":"4","min_zoom":6.0,"id":4246},"arcs":[[4],[5],[6]]},{"type":"LineString","properties":{"source":"naturalearthdata.com","kind":"region","sort_rank":256,"kind_detail":"4","min_zoom":6.0,"id":282},"arcs":[7]},{"type":"LineString","properties":{"source":"naturalearthdata.com","kind":"region","sort_rank":256,"kind_detail":"4","min_zoom":6.0,"id":283},"arcs":[8]},{"type":"MultiLineString","properties":{"source":"naturalearthdata.com","kind":"region","sort_rank":256,"kind_detail":"4","min_zoom":6.0,"id":284},"arcs":[[9],[10]]},{"type":"LineString","properties":{"source":"naturalearthdata.com","kind":"region","sort_rank":256,"kind_detail":"4","min_zoom":6.7,"id":3798},"arcs":[11]},{"type":"MultiLineString","properties":{"source":"naturalearthdata.com","kind":"region","sort_rank":256,"kind_detail":"4","min_zoom":6.7,"id":3799},"arcs":[[12],[13],[14],[15],[16],[17],[18],[19],[20],[21],[22],[23],[24]]},{"type":"MultiLineString","properties":{"source":"naturalearthdata.com","kind":"region","sort_rank":256,"kind_detail":"4","min_zoom":6.7,"id":3801},"arcs":[[25],[26],[27],[28],[29]]},{"type":"MultiLineString","properties":{"source":"naturalearthdata.com","kind":"region","sort_rank":256,"kind_detail":"4","min_zoom":6.0,"id":4241},"arcs":[[30],[31],[32],[33],[34],[35],[36]]},{"type":"MultiLineString","properties":{"source":"naturalearthdata.com","kind":"region","sort_rank":256,"kind_detail":"4","min_zoom":6.0,"id":4242},"arcs":[[37],[38],[39],[40],[41],[42],[43]]},{"type":"MultiLineString","properties":{"source":"naturalearthdata.com","kind":"region","sort_rank":256,"kind_detail":"4","min_zoom":6.0,"id":4243},"arcs":[[44],[45],[46],[47],[48],[49],[50],[51],[52],[53],[54],[55],[56],[57],[58]]},{"type":"MultiLineString","properties":{"source":"naturalearthdata.com","kind":"region","sort_rank":256,"kind_detail":"4","min_zoom":6.0,"id":4244},"arcs":[[59],[60],[61],[62],[63],[64],[65],[66],[67],[68],[69],[70],[71],[72],[73],[74]]},{"type":"MultiLineString","properties":{"source":"naturalearthdata.com","kind":"region","sort_rank":256,"kind_detail":"4","min_zoom":6.0,"id":4245},"arcs":[[75],[76],[77],[78],[79],[80],[81],[82],[83],[84],[85],[86],[87]]},{"type":"MultiLineString","properties":{"source":"naturalearthdata.com","kind":"region","sort_rank":256,"kind_detail":"4","min_zoom":6.0,"id":4247},"arcs":[[88],[89],[90],[91],[92],[93],[94],[95],[96],[97],[98]]},{"type":"MultiLineString","properties":{"source":"naturalearthdata.com","kind":"region","sort_rank":256,"kind_detail":"4","min_zoom":6.0,"id":4248},"arcs":[[99],[100],[101],[102],[103],[104],[105],[106],[107],[108],[109],[110],[111],[112],[113]]},{"type":"MultiLineString","properties":{"source":"naturalearthdata.com","kind":"region","sort_rank":256,"kind_detail":"4","min_zoom":6.0,"id":4249},"arcs":[[114],[115],[116],[117],[118]]}]},"roads":{"type":"GeometryCollection","geometries":[{"type":"LineString","properties":{"source":"naturalearthdata.com","kind":"major_road","sort_rank":380,"kind_detail":"primary","min_zoom":3.0,"id":2841},"arcs":[181]},{"type":"LineString","properties":{"source":"naturalearthdata.com","kind":"major_road","sort_rank":380,"kind_detail":"primary","min_zoom":3.0,"id":2842},"arcs":[182]},{"type":"LineString","properties":{"source":"naturalearthdata.com","kind":"major_road","sort_rank":380,"kind_detail":"primary","min_zoom":3.0,"id":2861},"arcs":[183]},{"type":"LineString","properties":{"source":"naturalearthdata.com","kind":"major_road","sort_rank":380,"kind_detail":"primary","min_zoom":3.0,"id":2862},"arcs":[184]},{"type":"LineString","properties":{"source":"naturalearthdata.com","kind":"major_road","sort_rank":380,"kind_detail":"primary","min_zoom":4.0,"id":2865},"arcs":[185]},{"type":"LineString","properties":{"source":"naturalearthdata.com","kind":"major_road","sort_rank":380,"kind_detail":"primary","min_zoom":3.0,"id":2867},"arcs":[186]},{"type":"LineString","properties":{"source":"naturalearthdata.com","kind":"major_road","kind_detail":"primary","sort_rank":380,"landuse_kind":"nature_reserve","min_zoom":4.0,"id":2868},"arcs":[187]},{"type":"LineString","properties":{"source":"naturalearthdata.com","kind":"major_road","sort_rank":380,"kind_detail":"primary","min_zoom":4.0,"id":2868},"arcs":[188]},{"type":"LineString","properties":{"source":"naturalearthdata.com","kind":"major_road","kind_detail":"primary","sort_rank":380,"landuse_kind":"nature_reserve","min_zoom":3.0,"id":2869},"arcs":[189]},{"type":"LineString","properties":{"source":"naturalearthdata.com","kind":"major_road","sort_rank":380,"kind_detail":"primary","min_zoom":3.0,"id":2869},"arcs":[190]},{"type":"LineString","properties":{"source":"naturalearthdata.com","kind":"major_road","sort_rank":380,"kind_detail":"primary","min_zoom":4.0,"id":2906},"arcs":[191]},{"type":"LineString","properties":{"source":"naturalearthdata.com","kind":"major_road","sort_rank":380,"kind_detail":"primary","min_zoom":4.0,"id":2943},"arcs":[192]},{"type":"LineString","properties":{"source":"naturalearthdata.com","kind":"major_road","kind_detail":"primary","sort_rank":380,"landuse_kind":"urban_area","min_zoom":4.0,"id":2954},"arcs":[193]},{"type":"LineString","properties":{"source":"naturalearthdata.com","kind":"major_road","sort_rank":380,"kind_detail":"primary","min_zoom":4.0,"id":2954},"arcs":[194]},{"type":"LineString","properties":{"source":"naturalearthdata.com","kind":"highway","kind_detail":"motorway","sort_rank":383,"landuse_kind":"urban_area","min_zoom":4.0,"id":2957},"arcs":[195]},{"type":"LineString","properties":{"source":"naturalearthdata.com","kind":"highway","sort_rank":383,"kind_detail":"motorway","min_zoom":4.0,"id":2957},"arcs":[196]},{"type":"LineString","properties":{"source":"naturalearthdata.com","kind":"major_road","sort_rank":380,"kind_detail":"primary","min_zoom":4.0,"id":2970},"arcs":[197]},{"type":"LineString","properties":{"source":"naturalearthdata.com","kind":"highway","sort_rank":383,"kind_detail":"motorway","min_zoom":4.0,"id":4151},"arcs":[198]}]},"earth":{"type":"GeometryCollection","geometries":[{"type":"MultiPolygon","properties":{"sort_rank":10,"source":"naturalearthdata.com","min_zoom":0.0,"kind":"earth","area":188537003575},"arcs":[[[199]],[[200]],[[201]],[[202]],[[203]],[[204]],[[205]],[[206]],[[207]],[[208]],[[209]],[[210]]]}]},"landuse":{"type":"GeometryCollection","geometries":[{"type":"Polygon","properties":{"kind":"nature_reserve","protect_class":"4","area":1949420032,"sort_rank":23,"operator":"United States Fish & Wildlife Service","source":"openstreetmap.org","min_zoom":4.0,"tier":2,"id":-6482899,"osm_relation":true},"arcs":[[211]]},{"type":"MultiPolygon","properties":{"source":"openstreetmap.org","kind":"national_park","tier":1,"protect_class":"2","area":1574481144,"sort_rank":18,"min_zoom":3.0},"arcs":[[[212]],[[213]]]},{"type":"MultiPolygon","properties":{"source":"naturalearthdata.com","kind":"urban_area","name":"","area":1040919724,"sort_rank":11,"min_zoom":4.0},"arcs":[[[214]]]},{"type":"MultiPolygon","properties":{"source":"openstreetmap.org","kind":"national_park","tier":1,"protect_class":"2","area":768788003,"sort_rank":18,"min_zoom":5.0},"arcs":[[[215]],[[216]]]},{"type":"MultiPolygon","properties":{"source":"openstreetmap.org","kind":"nature_reserve","tier":2,"area":1898771657,"sort_rank":23,"min_zoom":6.0},"arcs":[[[217]],[[218]]]},{"type":"Polygon","properties":{"kind":"nature_reserve","protect_class":"2","area":901062976,"sort_rank":23,"source":"openstreetmap.org","min_zoom":6.0,"tier":2,"id":-6482575,"osm_relation":true},"arcs":[[219]]},{"type":"Polygon","properties":{"kind":"park","protect_class":"98","area":759112000,"sort_rank":24,"source":"openstreetmap.org","min_zoom":6.0,"tier":2,"id":-2822775,"osm_relation":true},"arcs":[[220]]}]}},"type":"Topology","transform":{"translate":[-78.75,16.6361918784],"scale":[0.001373291,0.0012956186]},"arcs":[[[2662,2574],[-1,-57]],[[2631,2574],[31,0]],[[2600,2574],[14,0]],[[2561,2519],[3,29],[36,26]],[[2457,2923],[-7,-6],[-3,-6],[-3,-3],[-3,0]],[[2441,2908],[-7,2],[-3,1],[-4,1]],[[2427,2912],[-2,-1],[-1,-2],[0,-3],[0,-4],[-1,-5],[-3,-6],[-8,-11],[-8,-7],[-8,-5],[-9,-4],[-4,-3],[-1,-2],[3,-7],[7,-16],[2,-12],[-1,-25],[-1,-4],[-2,-2],[-2,-2],[-2,-2],[-2,-3],[-3,-6],[-1,-3],[0,-5],[5,-19],[3,-11],[2,-3],[4,-10],[0,-2],[2,-1],[7,-5],[-1,-21],[2,-8],[2,-2],[2,-1],[3,0],[5,-2],[2,-4],[0,-7],[-1,-4],[-2,-3],[-17,-8],[-9,-11],[-3,-2],[-2,0],[-10,-4],[1,-29],[3,-11],[10,-16],[5,-6],[15,-14],[44,-62]],[[79,3780]],[[2452,2506]],[[1315,3721],[-1,0]],[[669,3156]],[[3616,1380],[13,30],[16,19],[-12,5],[-3,11],[13,15],[6,12]],[[3813,1310],[-37,10],[8,17],[6,13],[-16,8],[-11,13],[-12,11],[-20,2]],[[3731,1384],[-24,-3],[-16,-14]],[[3640,1377],[-24,3]],[[3691,1367],[-13,4],[-14,7]],[[3664,1378],[-24,-1]],[[3992,1330],[-38,6]],[[3954,1336],[-22,-10],[-26,-7]],[[4096,1329],[-11,3]],[[4085,1332],[-17,-5]],[[4068,1327],[-18,2],[-19,2]],[[4031,1331],[-39,-1]],[[3906,1319],[-23,1]],[[3883,1320],[-23,-2],[-47,-8]],[[3616,1380],[-23,-6],[-23,-7],[-17,0],[-17,0],[-10,-15],[1,-19]],[[3527,1333],[-35,3],[-34,10],[-31,11],[-30,7]],[[3397,1364],[-74,-6],[-73,-15],[-40,-8],[-40,-4]],[[3170,1331],[-21,3]],[[3149,1334],[-17,-1],[-3,-2]],[[1493,3140],[-6,1],[-4,3],[-3,4],[-3,6]],[[1552,3123],[-7,0],[-5,2],[-11,2],[-6,3],[-4,4],[-7,11],[-3,2]],[[1509,3147],[-2,0],[-7,-4],[-7,-3]],[[1714,3041],[-6,3],[-26,8],[-33,20],[-13,5],[-34,9],[-7,3],[-4,3],[0,3],[2,11],[-1,9],[-1,6],[-4,13],[-8,0]],[[1579,3134],[-19,-10],[-8,-1]],[[1872,2934],[-18,28],[-22,22],[-7,6],[-7,3],[-19,4],[-15,7],[-9,3],[-19,3],[-16,7],[-9,1],[4,16],[0,4],[-3,5],[-2,2],[-3,1],[-2,0]],[[1725,3046],[-3,-1],[-2,-1],[-2,-2],[-2,-1],[-2,0]],[[368,4096],[-5,-13],[4,-14],[3,-3],[35,-29],[13,-13],[14,-24],[-9,-7],[-10,-5],[-2,-3],[-1,-2],[-1,-3],[3,-16],[1,-2],[-4,-2],[-29,-3]],[[380,3957],[-10,0],[-7,3],[-11,16],[-3,4],[-4,4],[-2,4],[-1,4],[-1,4],[0,3],[-1,2],[-2,0],[-4,1]],[[334,4002],[-6,-2],[-7,-5],[-11,-11],[-5,-6],[-2,-4],[2,-15],[4,-12],[1,-5],[0,-6],[0,-5],[-2,-2],[-1,-2],[-4,0],[-3,-2],[-4,-7],[-4,-4],[-9,-13],[1,-6],[3,-3],[3,-2],[1,-2],[-1,-2],[-6,-1],[-13,0]],[[271,3885],[-10,2],[-17,1],[-4,0]],[[240,3888],[-7,-3],[-7,-19],[-8,-23],[-2,-3],[-4,-4]],[[212,3836],[-3,0],[-2,1],[-2,2],[-1,2],[-4,4],[-1,1],[-2,1]],[[197,3847],[-13,-4],[-16,-7],[-8,-5],[-9,-8],[-2,-3],[-5,-5],[-38,-23],[-27,-12]],[[1837,2900],[-3,3],[-3,10],[-4,8],[-1,4],[0,5],[1,4],[0,5],[-2,5],[-3,4],[-8,4]],[[1814,2952],[-5,0],[-3,-1],[-1,-4],[3,-14],[0,-7],[-1,-7],[-3,-5],[-3,-5],[-5,-4],[-2,-4],[-1,-3],[-1,-7],[-1,-4],[-2,-5],[-4,-1],[-7,0]],[[1872,2934],[-19,-26],[-10,-8],[-6,0]],[[1778,2881],[-16,3],[-7,0]],[[1755,2884],[-11,0],[-6,-5],[-5,-7],[-15,-62],[0,-4],[0,-2],[1,-8],[-11,-11],[-6,-8],[-5,-2],[-1,-4],[2,-6],[5,-22],[2,-65],[-7,-15],[-21,-20],[-11,-7],[-11,-6],[-8,-3],[-7,-2],[-6,0]],[[1634,2625],[-17,1],[-20,3]],[[1597,2629],[-5,-3],[0,-2],[1,-4],[6,-16],[-1,-3],[-5,-2]],[[1447,2605],[-3,2],[-1,2],[-2,1],[-2,1],[-3,1],[-2,1],[-3,1],[-3,3],[-1,2],[-8,7]],[[1419,2626],[-11,-8],[-12,-12],[-8,-3],[-11,-2],[-16,-1]],[[1519,2596],[-4,0],[-1,1],[-3,1],[-12,3],[-5,2],[-5,3],[-6,8],[-5,3]],[[1478,2617],[-4,0],[-14,-3],[-4,-2],[-2,-2],[-2,-2],[-3,-3],[-2,0]],[[1593,2599],[-20,5],[-6,2],[-5,1]],[[1562,2607],[-1,-1],[-3,-7],[-2,-1],[-17,0],[-13,-2],[-7,0]],[[1361,2600],[-10,1]],[[1351,2601],[-17,-1],[-6,-1],[-3,-2],[-28,-37],[-4,-3],[-5,-1],[-42,-5],[-6,-2],[-1,-2],[1,-3],[2,-3],[7,-14],[0,-17]],[[1969,3039],[9,-4],[35,-26],[7,-11],[-3,-8],[2,-3],[5,-3],[13,-1]],[[1921,2906],[14,13],[2,2],[4,16],[2,18],[-5,11],[-1,8],[-2,2],[-3,1],[0,2],[2,3],[11,7],[9,8],[4,3],[13,5],[2,4],[-1,5],[-5,13],[-2,6],[2,5],[2,1]],[[2361,3022],[4,-1],[12,-9],[13,-4]],[[2306,2982],[4,1],[5,3],[11,9],[15,15],[2,3],[3,2],[3,1],[4,2],[3,1],[2,2],[3,1]],[[2445,3019],[1,-3],[1,-5],[-3,-19],[-1,-3],[-1,-1],[-5,-2],[-3,-2],[-2,-2],[-1,-3],[-1,-3],[-1,-2],[-2,-3],[-2,-2],[-4,-2],[1,-3],[5,-6],[11,-10],[19,-25]],[[2390,3008],[32,6],[9,0],[3,0],[4,2],[7,3]],[[2287,2991],[5,-2],[5,-2],[9,-5]],[[2220,2934],[31,3],[31,22],[3,5],[2,7],[-4,9],[-1,2],[0,3],[1,3],[2,2],[2,1]],[[2046,2983],[5,0],[2,-2],[-1,-6],[-2,-3],[-1,-4],[-2,-2],[-1,-1],[2,-4],[6,-4],[21,-15],[12,-3],[3,-13],[1,-2],[1,-2],[3,-3],[12,-6],[23,-2]],[[2037,2983],[9,0]],[[2197,2937],[23,-3]],[[2130,2911],[53,24],[6,2],[8,0]],[[1889,2935],[7,0],[6,-1],[5,-3],[7,-3],[4,-1]],[[1872,2934],[17,1]],[[1925,2928],[0,-1],[-1,-3],[-5,-13],[2,-5]],[[1918,2927],[3,0],[4,1]],[[2938,3025],[-9,-4],[-7,-6],[-3,-1],[-2,-1]],[[2917,3013],[-6,0]],[[2911,3013],[-3,0],[-2,-1],[-6,-5],[-4,-5],[-5,-7],[-4,-8],[-4,-12],[-1,-15],[7,-20],[-30,-12],[-2,-2],[-2,-2],[-1,-2],[-1,-4],[-1,-4],[-1,-2],[-3,-2]],[[2744,2914],[-5,1],[-20,14],[-23,2],[-17,13],[-20,22],[-5,4],[-4,0]],[[2650,2970],[-4,-1],[-17,-6],[-14,-7],[-4,-1]],[[2611,2955],[-4,1],[-6,5],[-4,1]],[[2597,2962],[-4,-2],[-17,-9],[-10,-9],[-2,-4],[-2,-24],[-6,-11]],[[2848,2910],[-4,1],[-10,5],[-8,5],[-8,5],[-26,13],[-25,17],[-7,4],[-7,1]],[[2753,2961],[-19,-3],[-4,-1],[-2,-2],[3,-6],[1,-2],[0,-2],[-1,-6],[-1,-2],[0,-1],[1,-1],[6,0],[4,-4],[3,-3],[2,-4],[1,-2],[0,-2],[0,-2],[0,-3],[-3,-1]],[[2522,2908],[-3,1],[-7,4],[-5,4],[-1,2],[-2,4],[-4,4],[-7,4],[-3,3],[-5,2]],[[2485,2936],[-5,-1],[-14,-10],[-9,-2]],[[2556,2903],[-11,8],[-1,2],[-3,2]],[[2541,2915],[-3,-1],[-13,-6],[-3,0]],[[1240,3166],[-5,2],[-10,8],[-27,10],[-71,2],[-17,4],[-2,5],[-3,5]],[[1105,3202],[-4,0],[-6,-3],[-11,-8],[-5,-2],[-3,0]],[[1076,3189],[-3,7],[-4,4]],[[1069,3200],[-2,0],[-2,-4],[-1,-8],[-2,-5],[-2,-3],[-7,-9],[-2,-4],[-2,-5],[-1,-2],[-1,-2],[-3,-1],[-12,-6],[-3,-2]],[[1326,3172],[-31,6]],[[1295,3178],[-16,-6],[-11,-1],[-9,0],[-12,-4],[-7,-1]],[[1377,3170],[-31,4]],[[1346,3174],[-14,-1],[-6,-1]],[[1432,3130],[-7,3],[-14,29],[-7,5],[-10,3]],[[1394,3170],[-17,0]],[[1477,3154],[-30,-12],[-3,-2],[-12,-10]],[[1314,3721],[-1,-1],[-6,-6],[-12,-4],[-20,-16],[-10,-5],[-19,-5],[-14,0]],[[1232,3684],[-16,4],[-15,2]],[[1201,3690],[-11,-36],[-6,-7],[-5,-10],[-1,-7],[4,-13],[3,-4],[4,-3]],[[1216,3611],[5,-2],[1,-2],[-1,-3],[-41,-38],[-4,-9],[0,-5],[3,-50],[-27,-44],[-4,-5],[-10,-8],[-5,-2],[-21,-4],[-4,-2],[-6,-4],[-9,-4],[-10,-15],[-21,-50],[-6,-3]],[[1189,3610],[27,1]],[[1015,3353],[-8,8],[-2,5],[0,2],[1,3],[4,7],[1,2],[0,2],[-2,2],[-3,1],[-6,1],[-13,1],[-12,3],[-2,2],[-1,2],[1,4],[-1,4],[-1,3],[-7,10],[-2,2],[-3,4],[-1,2],[-1,2],[0,2]],[[957,3427],[-1,0],[-3,-2],[-5,-6],[-10,-5],[-3,-2],[-1,-2],[0,-5],[0,-3],[2,-6],[0,-1],[-3,-7],[-1,-5],[-2,-6],[-5,-6],[-13,-2],[-10,-1]],[[1056,3361],[-6,2],[-5,2],[-7,7],[-3,3],[-4,0]],[[1031,3375],[-4,-2],[-5,-4],[-7,-16]],[[902,3368],[-9,0]],[[893,3368],[-2,0],[-2,-2],[-2,-12],[-11,-1],[-15,-4],[-7,-4],[-4,-11],[0,-10],[-1,-2],[-2,-2]],[[847,3320],[-6,1],[-4,1],[-8,0],[-4,1],[-3,2],[-3,5],[-3,5],[-4,5],[-4,2]],[[808,3342],[-5,-1],[-6,-4],[0,-6],[1,-5],[1,-5],[0,-4],[-3,-13],[-1,-6],[0,-5],[0,-4],[-6,-5],[-11,-4],[-44,-9]],[[734,3271],[-17,2]],[[717,3273],[-38,-54],[-10,-63]],[[1618,3351],[5,0],[3,3],[2,11],[9,22],[13,14],[18,14],[5,2],[11,10],[33,21],[15,6],[20,13],[4,5],[1,4],[-2,14],[0,5],[4,5],[3,3],[3,2],[6,13],[3,44],[0,1]],[[1610,3353],[5,-2],[3,0]],[[1539,3330],[5,1],[12,3],[38,16],[10,3],[6,0]],[[1511,3345],[9,-4],[7,-6],[4,-3],[3,-1],[5,-1]],[[1477,3154],[7,2],[7,5],[2,4],[1,4],[-3,8],[-4,6],[-8,8],[-1,5],[-1,6],[1,10],[3,7],[5,10],[13,17],[3,8],[1,10],[-1,55],[9,26]],[[1521,2895],[-190,135],[-84,154],[-283,178],[-41,84],[20,34],[-543,287],[-168,123],[-232,121]],[[1521,2895],[-220,-85],[-113,58]],[[1521,2895]],[[1521,2895]],[[1521,2895],[1,0]],[[1522,2895]],[[1522,2895],[0,1]],[[1522,2896],[1,0]],[[2196,3244],[-34,-1],[-112,-133],[-31,-173],[56,-58],[25,-115],[50,-22],[37,-55],[-73,-51],[9,-16]],[[0,4011],[758,-445],[174,-82],[176,-23],[461,-280],[197,-13],[51,108]],[[611,3670],[445,133],[35,-19]],[[611,3670],[-211,97],[-168,123],[-232,121]],[[0,4080],[5,16]],[[0,4011],[758,-445],[174,-82],[176,-23],[404,-256],[250,-35],[231,-151],[38,-40],[-10,-51],[54,-49],[25,-115],[50,-22],[37,-55],[-73,-51],[9,-16]],[[0,4011],[758,-445],[174,-82],[176,-23],[404,-256],[250,-35],[231,-151],[38,-40],[-10,-51],[54,-49],[25,-115],[50,-22],[37,-55],[-73,-51],[9,-16]],[[0,4011],[758,-445],[174,-82],[176,-23],[404,-256],[251,-35],[253,-168],[4,-71],[55,-51],[49,-140],[78,16],[220,-22],[79,48],[88,-50],[-6,-22]],[[5,4096],[-5,-16]],[[241,4096],[513,-178],[90,-109],[247,-25]],[[2123,2620],[-9,16],[73,44],[-24,48],[-46,13],[-68,-21],[-110,113],[-199,5],[-47,39],[-41,-21],[-127,40],[-225,-86],[-112,58]],[[1523,2896],[-192,134],[-84,154],[-283,178],[-41,84],[20,34],[-199,94],[-137,95]],[[4096,1199],[0,-1199],[-4096,0],[0,3811],[3,-4],[9,-3],[38,-6],[12,-4],[12,-8],[15,-16],[15,-21],[11,-24],[4,-26],[3,-11],[14,-24],[3,-13],[2,-15],[6,-25],[2,-13],[5,-6],[24,-8],[5,-8],[-2,-11],[-7,-5],[-8,1],[-7,8],[-5,-22],[8,-22],[11,-22],[6,-21],[2,-51],[5,-26],[5,-7],[6,-1],[27,-20],[9,-9],[11,-21],[8,-11],[9,-6],[26,2],[10,-3],[51,-37],[5,-11],[2,-7],[5,-7],[9,-11],[1,-5],[0,-8],[3,-3],[8,4],[11,0],[15,-9],[14,-12],[7,-9],[13,-25],[9,-8],[16,-3],[8,-4],[24,-28],[5,11],[5,0],[8,-17],[25,-6],[47,1],[11,5],[10,9],[11,9],[15,3],[27,-3],[14,-4],[19,-13],[12,-4],[36,-2],[10,1],[2,1],[5,-2],[14,-5],[6,0],[22,1],[5,-1],[5,-3],[10,-8],[7,1],[28,15],[37,-14],[13,-2],[8,0],[5,2],[5,2],[7,2],[5,2],[4,2],[4,0],[7,-4],[10,10],[19,9],[23,5],[20,2],[21,-7],[14,-17],[13,-20],[14,-14],[6,14],[14,-3],[26,-16],[0,-6],[-15,-21],[-5,-3],[-7,-2],[-6,-3],[-2,-5],[3,-17],[7,-8],[11,-5],[14,-9],[5,5],[-5,8],[7,0],[26,-11],[20,-13],[7,-6],[22,-37],[-9,-27],[-6,-5],[-5,-5],[-2,-37],[-30,-19],[-6,-5],[-1,-12],[-5,-12],[-8,-9],[-10,-7],[-11,-2],[-9,0],[-4,4],[4,9],[-5,1],[-3,0],[-2,-1],[-10,-8],[-12,-28],[-11,-6],[-14,-2],[-73,-35],[-14,-10],[-12,-17],[-31,-17],[-13,-9],[-12,-19],[-3,-5],[-3,-3],[-14,-4],[-7,-7],[-19,6],[-7,1],[-1,-5],[10,-10],[1,-7],[-34,-31],[-3,-6],[-1,-4],[-16,-22],[-14,-13],[-4,-6],[3,-8],[-5,-3],[-5,-8],[-5,-5],[-6,-2],[-9,-1],[-5,-2],[-1,-7],[-14,-26],[-1,-14],[5,-8],[8,-7],[10,-5],[10,-2],[14,1],[45,12],[31,-2],[26,3],[46,11],[68,2],[13,2],[21,8],[13,0],[0,6],[-20,0],[11,13],[19,5],[21,-1],[19,-6],[5,7],[7,4],[7,-1],[6,-6],[5,0],[10,8],[18,-4],[37,-14],[18,-3],[94,4],[17,5],[16,7],[23,19],[12,5],[15,-1],[16,-4],[16,0],[15,8],[94,8],[93,-6],[16,3],[30,11],[16,2],[53,0],[28,4],[58,16],[33,1],[66,-7],[96,-23],[11,1],[9,6],[15,4],[28,4],[15,-2],[28,-8],[14,-2],[52,2],[16,-2],[25,-13],[31,-21],[29,-16],[24,4],[16,-9],[21,-5],[24,0],[19,3],[5,2],[6,7],[2,2],[5,-1],[7,-4],[25,-6],[8,0],[71,4],[38,9],[1,0],[18,5],[12,0],[-1,3],[-10,1],[-9,6],[0,4],[2,1],[5,3],[4,-1],[1,-4],[4,-1],[2,4],[7,5],[8,2],[12,2],[-5,9],[-6,6],[2,6],[6,4],[1,5],[9,5],[-3,8],[-2,4],[-2,-4],[-1,-2],[-3,-1],[-5,1],[-4,1],[-2,8],[1,8],[4,9],[11,4],[8,-4],[6,-3],[5,9],[5,8],[7,11],[14,3],[2,-20],[4,-8],[-4,-9],[-9,-16],[-9,-2],[-11,-7],[-4,-4],[-3,-9],[4,-5],[3,-2],[10,9],[8,-6],[3,-5],[-2,-8],[-10,1],[-4,-3],[-17,-13],[-8,-3],[-5,-4],[-1,-13],[3,-5],[18,1],[21,4],[12,0],[18,6],[0,7],[2,6],[4,1],[6,-3],[3,-9],[26,3],[24,9],[12,18],[4,16],[6,7],[10,1],[17,1],[16,4],[13,10],[11,12],[13,11],[18,8],[18,2],[55,9],[45,-7],[23,9],[28,-5],[60,14],[31,2],[46,10],[33,-1],[31,-8],[27,-1],[23,20],[4,28],[4,4],[5,2],[15,8],[10,11],[15,6],[15,9],[7,17],[-2,15],[-3,14],[-6,13],[-8,11],[-25,16],[-15,13],[-7,5],[-9,3],[-15,-1],[-14,-6],[-13,-8],[-12,-6],[-14,1],[-16,4],[-15,0],[-10,-11],[-5,0],[-6,16],[-16,16],[-20,12],[-16,5],[-10,1],[-7,3],[-35,38],[-3,5],[-5,3],[-23,32],[-8,16],[-6,7],[-33,21],[-14,12],[-3,10],[-26,9],[-4,2],[-5,4],[-5,3],[-3,0],[-1,2],[-1,9],[-10,18],[3,1],[7,5],[-11,8],[-15,4],[-58,7],[-13,9],[-11,10],[-12,9],[-17,-2],[-12,0],[-5,5],[-3,7],[-6,3],[-7,1],[-7,4],[-14,5],[-59,-7],[11,-11],[-6,-3],[-6,0],[-6,3],[-7,6],[-1,-6],[-3,-7],[-2,-4],[-6,18],[-12,1],[-13,-3],[-8,6],[-3,-2],[0,-1],[-1,-1],[-1,-1],[-20,5],[0,5],[12,3],[-3,6],[-9,5],[-34,7],[-11,1],[5,-6],[-13,4],[-20,-1],[-17,-4],[-10,-10],[15,-4],[27,-14],[13,-8],[-41,-5],[-18,4],[-6,17],[-4,-7],[-1,-4],[-5,0],[-4,11],[-6,10],[17,3],[-5,9],[-15,9],[-12,6],[-14,1],[-20,0],[-17,-5],[-9,-12],[7,0],[7,-1],[12,-4],[-6,-16],[-6,3],[-6,4],[-4,4],[-4,5],[-4,0],[-12,-14],[-43,10],[4,-17],[-16,5],[-7,5],[1,8],[3,8],[-7,2],[-18,-2],[5,13],[-2,14],[-7,12],[-11,9],[-8,-16],[-35,-29],[-8,-17],[-5,-8],[-11,4],[-28,16],[-8,17],[-7,6],[3,8],[2,10],[1,9],[-1,5],[8,19],[1,10],[-4,8],[47,-5],[15,5],[39,6],[3,-1],[5,-5],[3,-4],[2,-6],[2,-4],[6,-2],[10,-5],[11,-8],[11,0],[5,18],[-10,0],[-6,5],[-3,8],[-1,11],[-4,4],[-30,15],[-16,2],[-22,-1],[-19,-6],[-8,-12],[-5,0],[-6,14],[-10,13],[0,9],[21,2],[-2,5],[-3,3],[-4,2],[-6,1],[4,3],[5,1],[5,-1],[5,-3],[10,5],[4,-7],[3,-12],[3,-7],[12,-1],[12,7],[10,11],[7,8],[1,5],[2,12],[1,4],[3,5],[8,6],[5,6],[14,31],[-25,38],[-16,11],[-29,-6],[-7,27],[-14,12],[-21,3],[-25,0],[-12,-3],[-8,0],[-3,6],[-2,2],[-11,5],[-4,1],[-37,-27],[3,-7],[-3,-3],[-7,1],[-6,13],[-7,4],[-9,2],[-9,0],[-6,-2],[-11,-10],[-5,-3],[-9,-1],[-20,0],[-6,1],[1,-14],[-4,-6],[-7,3],[-5,12],[-1,-4],[-3,-3],[-1,-4],[-5,0],[0,10],[-2,7],[-6,5],[-7,5],[-10,2],[-9,-2],[-11,-6],[-8,-8],[-5,0],[-7,8],[-3,9],[1,17],[-3,6],[-3,18],[-23,16],[-77,29],[-11,7],[-17,14],[-2,1],[-23,9],[-11,9],[-18,6],[-87,2],[-13,-4],[-5,-11],[2,-12],[9,-10],[9,-4],[24,-3],[11,-4],[-8,-3],[-21,-13],[-4,0],[-5,1],[-4,0],[-2,-3],[-2,-4],[-4,-4],[-5,-4],[-4,-1],[-7,2],[-7,14],[-6,5],[-9,-1],[-8,-4],[-7,0],[-6,10],[3,1],[7,4],[-15,0],[0,5],[39,2],[8,10],[3,31],[-5,0],[0,-16],[-5,0],[-9,12],[-16,10],[-18,5],[-12,0],[-14,-6],[-1,-5],[5,-11],[4,-7],[5,-3],[16,-6],[0,-4],[-15,1],[-14,3],[-13,5],[-10,8],[-12,5],[-15,2],[-9,6],[3,12],[-1,8],[7,0],[7,-7],[-3,-12],[41,19],[12,2],[5,5],[-4,11],[-10,11],[-11,5],[-8,0],[-20,5],[-12,8],[-4,2],[-5,-4],[-4,0],[-45,15],[-1,-9],[-3,-8],[-11,-15],[5,0],[-2,-9],[-2,-9],[-4,-8],[-7,-5],[3,19],[-38,-20],[-10,19],[3,11],[7,8],[11,4],[25,1],[9,3],[6,8],[4,16],[-15,0],[5,11],[-9,7],[-40,8],[-27,13],[-11,7],[-1,1],[-11,11],[-79,95],[-13,8],[-14,-2],[-6,-8],[-18,-35],[-9,-41],[-7,-11],[-6,-1],[-7,-4],[-1,-1],[-18,-9],[-7,-2],[5,14],[-11,1],[-16,-3],[-9,2],[-3,5],[-6,13],[-5,14],[2,7],[13,5],[5,13],[-3,13],[-15,6],[-20,-2],[-7,2],[-7,4],[-6,5],[-6,5],[-8,2],[-9,4],[-2,8],[6,8],[17,1],[6,-2],[8,-7],[6,-3],[5,-3],[3,-1],[2,3],[1,1],[3,2],[1,3],[0,2],[14,-2],[11,-3],[47,-22],[4,-3],[12,-14],[7,-4],[5,14],[17,18],[3,16],[-5,6],[-7,7],[-4,9],[6,15],[-13,-3],[-11,0],[-10,3],[-11,5],[-43,32],[-10,4],[-24,20],[-11,10],[-10,8],[-37,11],[-15,7],[-77,56],[-3,4],[-5,19],[-2,7],[-26,21],[-11,2],[-13,-9],[-12,-14],[-6,-13],[10,4],[5,-1],[8,-12],[27,-23],[20,-24],[10,-7],[10,9],[10,-11],[13,7],[8,-6],[3,-10],[1,-9],[3,-2],[15,-6],[5,-3],[3,-5],[4,-18],[9,-23],[8,-10],[19,-8],[7,-10],[4,-9],[0,-4],[-2,-2],[-2,-3],[-3,-4],[-7,-2],[-5,2],[-18,9],[-22,3],[-9,3],[-4,8],[-2,12],[-11,24],[-2,14],[3,14],[4,-1],[8,-4],[10,1],[-15,16],[-9,8],[-11,3],[2,-3],[2,-5],[1,-3],[-8,-1],[-7,0],[-4,4],[-1,8],[-19,-5],[-6,-5],[0,-11],[-32,21],[-13,5],[-12,2],[-45,-7],[-6,3],[-6,5],[-6,3],[-11,-5],[-4,1],[-20,7],[-10,4],[-7,7],[-2,9],[-1,9],[-4,14],[-5,12],[-8,5],[-18,0],[-6,3],[-9,7],[-6,8],[-5,8],[-2,10],[-1,14],[0,1],[89,0],[2,-3],[9,-12],[2,-5],[3,-4],[4,-1],[6,3],[-1,6],[-3,5],[-2,2],[4,9],[15,0],[-4,-14],[16,12],[5,2],[3298,0],[0,-556],[-9,-19],[-17,-22],[-37,-9],[-16,-8],[-16,-10],[-45,15],[-19,9],[-15,19],[-12,14],[-4,16],[-3,3],[-6,-6],[-11,-16],[-7,-5],[-8,-4],[-7,0],[-21,0],[-15,-8],[-16,3],[-6,-14],[-16,-14],[-6,-15],[-22,-7],[-9,-7],[-12,-4],[-15,-6],[-25,12],[0,-8],[8,-8],[8,-11],[-1,-14],[-5,-17],[-12,-8],[-22,-2],[-2,-6],[2,-4],[13,-22],[1,-17],[2,-14],[2,-8],[9,-11],[9,-5],[4,-1],[3,6],[4,7],[3,5],[12,6],[11,2],[46,-4],[32,-13],[43,10],[26,-1],[37,21],[16,-2],[11,-8],[-5,-4],[0,-6],[5,0],[14,10],[7,3],[9,3],[32,-5],[54,23],[15,9],[4,10],[0,-837],[-14,-1],[-8,3],[-9,10],[-14,-20],[-26,-19],[-89,-41],[-15,-1],[-14,1],[-14,-1],[-12,-9],[40,0],[0,-6],[-38,-17],[-7,-1],[-4,-8],[-26,-42],[2,-9],[2,-16],[4,-16],[10,-7],[7,-3],[13,-14],[5,-4],[8,0],[14,-4],[69,-4],[31,5],[15,14],[10,-9],[16,-9],[16,-6],[10,-3],[8,2],[5,4],[3,3],[2,1],[0,-532],[-55,23],[-17,2],[-16,-2],[-15,-6],[-13,-8],[-9,-11],[-2,-8],[2,-9],[5,-7],[5,-7],[4,-4],[14,-9],[14,-21],[18,-12],[65,-17],[0,-1],[0,-267],[-5,3],[-26,10],[-28,2],[-58,-2],[-17,4],[-29,14],[-14,4],[-115,9],[-32,-4],[-25,-16],[-12,6],[-23,-3],[-13,5],[-3,6],[0,6],[0,5],[-12,3],[-13,6],[-4,4],[16,5],[14,2],[14,-2],[15,-5],[0,4],[20,-3],[14,10],[0,14],[-26,6],[-9,-1],[-33,-10],[-6,0],[-6,1],[-6,-1],[-5,-2],[-9,-12],[-1,-2],[-3,-1],[-9,-7],[-5,-2],[-6,0],[-9,4],[-8,2],[-3,-2],[-3,-3],[-3,-2],[-8,1],[-5,3],[-15,13],[-9,4],[-8,1],[-32,2],[-10,3],[-21,11],[-4,0],[-5,-3],[-5,0],[-1,6],[-1,1],[-5,6],[-1,1],[-42,2],[-96,42],[-29,7],[-41,2],[-8,-1],[-8,-2],[-4,-5],[-3,-7],[-7,0],[-17,4],[-14,-2],[-32,-13],[-25,-15],[-6,-7],[2,-8],[3,-6],[3,-10],[1,-9],[-2,-4],[-11,-8],[-8,-36],[-13,-9],[3,-8],[2,-3],[-25,-37],[19,-24],[4,-11],[2,-15],[6,-14],[28,-14],[6,-9],[6,-6],[14,-8],[16,-7],[14,-3],[16,5],[15,10],[15,6],[14,-5],[4,6],[7,-4],[18,-7],[8,-2],[6,0],[4,-3],[2,-8],[3,-8],[8,-5],[9,-4],[23,-4],[12,-6],[71,-53],[13,-12],[2,-4],[1,-2],[0,-3],[3,-2],[2,-2],[6,-2],[2,-2],[47,-68],[3,-11],[5,-6],[7,-3],[7,-1],[48,0],[10,2],[2,6],[-4,15],[-5,12],[-30,33],[12,21],[14,13],[52,25],[32,25],[0,3],[0,4],[-1,3],[3,1],[8,-2],[4,-1],[1,-2],[5,6],[9,11],[5,4],[-7,-17],[-2,-10],[-1,-10],[11,8],[9,20],[10,4],[-3,-13],[3,-10],[7,-4],[9,5],[4,0],[10,-5],[5,11],[6,15],[9,6],[6,-4],[6,-14],[6,-3],[9,2],[23,14],[17,4],[59,1],[49,-5],[0,-5],[-26,0],[-10,-4],[-4,-10],[7,-2],[43,5],[97,-16],[6,-2],[22,-14]],[[2309,3204],[1,-14],[7,-10],[12,-6],[13,-2],[24,-6],[14,0],[-3,9],[-6,9],[-10,19],[-7,6],[-9,2],[-36,-7]],[[2801,3116],[2,0],[-1,11],[-13,5],[3,-6],[9,-6],[-1,-2],[1,-2]],[[1054,891],[63,-57],[13,-7],[14,-3],[15,0],[18,5],[2,13],[-7,29],[-15,-4],[-14,-1],[-14,3],[-12,8],[7,6],[7,2],[8,0],[8,-4],[-2,5],[-1,8],[-2,4],[5,3],[10,5],[5,2],[-6,22],[3,7],[12,24],[17,10],[19,6],[21,-2],[8,-3],[8,-6],[10,-14],[8,-7],[-16,-5],[0,-6],[41,0],[8,-3],[6,-4],[6,-3],[9,0],[12,8],[10,14],[13,46],[3,18],[2,5],[10,-1],[3,6],[9,11],[3,8],[3,8],[9,-5],[13,-8],[15,-10],[15,1],[22,-1],[10,-2],[3,-3],[5,-5],[-80,-5],[0,-5],[38,-2],[12,2],[26,6],[15,1],[11,-5],[6,-3],[22,-5],[4,-4],[4,-5],[3,-5],[6,-1],[6,-4],[2,-7],[2,-9],[3,-7],[8,-6],[6,0],[5,1],[6,0],[40,-6],[57,5],[22,8],[14,-3],[13,-7],[11,-3],[13,4],[11,18],[14,5],[-3,-10],[-2,-3],[-5,-3],[13,-4],[15,5],[26,15],[38,9],[8,6],[-20,15],[-14,15],[-11,19],[-5,14],[-6,12],[-23,52],[-16,23],[-21,20],[-3,16],[-28,10],[-54,10],[-2,4],[-6,11],[-4,2],[-55,0],[-6,2],[-4,3],[-4,3],[-4,1],[-12,9],[-25,-1],[-12,4],[-11,7],[-13,14],[-11,6],[-13,2],[-37,3],[-14,4],[-7,4],[-4,7],[-7,20],[-3,8],[-23,13],[-26,17],[-8,7],[0,11],[2,8],[-5,7],[-9,1],[-10,1],[-12,-2],[-8,-4],[-43,-2],[-9,2],[-15,7],[-9,2],[-13,-2],[-25,-5],[-24,1],[-4,3],[-12,11],[-4,2],[-32,6],[0,-2],[-2,-2],[-4,-2],[-4,0],[-4,3],[-3,10],[-3,3],[-26,7],[-39,5],[-37,0],[-23,-6],[-15,9],[-19,5],[-50,3],[-32,8],[-71,1],[-51,12],[-59,13],[-33,1],[-30,-5],[-13,-6],[-7,-7],[-17,-21],[-4,-8],[0,-6],[-1,-5],[-7,-5],[-8,-2],[-8,2],[-6,2],[-8,3],[-16,0],[-47,-5],[-16,3],[-14,5],[-11,0],[-11,-13],[-19,14],[-26,-8],[-22,-21],[-8,-22],[-12,4],[-7,-6],[-6,-9],[-7,-5],[-12,-1],[-2,-3],[-1,-6],[-5,-9],[-2,-6],[1,-24],[-2,-10],[-5,-6],[-11,-8],[-4,-6],[4,-14],[9,-12],[12,-8],[13,-3],[12,-2],[23,-7],[10,-2],[2,-1],[18,-7],[5,-1],[5,3],[7,6],[12,0],[33,-6],[53,2],[19,-10],[13,-28],[5,-19],[3,-9],[5,-4],[5,-2],[8,-3],[6,-5],[6,-8],[17,-41],[12,-4],[50,0],[19,-7],[4,-17],[-1,-19],[1,-16],[4,-4],[13,-4],[3,-5],[1,-6],[8,-20],[3,-6],[6,-5],[26,-13],[15,-10],[5,-1],[99,5],[31,-5],[32,-9],[15,1],[16,11],[13,5],[17,-2],[16,-6],[55,-32],[13,-17]],[[2709,1375],[-1,-3],[4,-4],[1,-1],[0,-1],[3,-3],[0,-1],[1,-2],[1,-1],[1,0],[1,-1],[2,0],[1,0],[2,0],[1,0],[1,0],[1,2],[0,4],[1,1],[0,1],[0,3],[-1,1],[-2,3],[-3,0],[-8,0],[-2,2],[-4,0]],[[3741,1125],[-12,0],[-23,0],[-5,4],[-3,5],[-4,2],[-8,-6],[-5,5],[-4,1],[-3,-3],[-2,-8],[18,-17],[11,-7],[13,-2],[28,-2],[15,1],[9,6],[0,11],[-10,7],[-15,3]],[[3627,1507],[23,0],[17,10],[-1,17],[-18,10],[-24,2],[-17,-8],[2,-21],[18,-10]],[[286,3006],[13,-10],[8,3],[2,10],[-5,15],[-8,10],[-9,5],[-6,-3],[-2,-12],[-13,6],[-6,6],[-11,15],[-8,8],[-11,8],[-11,2],[-10,-8],[26,-13],[13,-9],[9,-21],[10,-4],[10,-4],[9,-4]],[[624,3041],[-9,-2],[3,-1],[7,-3],[1,-9],[2,1],[7,6],[-1,5],[-10,3]],[[272,3092],[3,6],[-5,1],[-2,4],[-2,6],[-3,1],[-2,-5],[-1,-4],[4,-3],[-4,-2],[0,-2],[5,-3],[7,1]],[[125,3104],[-2,3],[0,-2],[0,-1],[1,-3],[-18,3],[-3,2],[-4,-2],[2,-3],[4,-3],[4,-4],[5,-2],[6,1],[5,4],[0,7]],[[88,3105],[-11,3],[-5,2],[-3,-1],[-1,-4],[7,-5],[12,0],[1,5]],[[474,3113],[6,10],[-2,1],[-9,-3],[-1,-2],[3,-5],[3,-1]],[[173,3130],[12,8],[34,8],[10,11],[-15,4],[-7,0],[-8,-4],[-1,2],[0,1],[-4,1],[-11,-9],[-25,-6],[-9,-6],[13,-4],[11,-6]],[[75,3162],[4,-1],[3,3],[-1,1],[-3,2],[1,4],[5,10],[-1,6],[-3,1],[-3,-3],[-1,-1],[3,7],[-1,2],[-4,-2],[-3,-3],[-3,-1],[-3,-1],[-2,-3],[1,-3],[11,-18]],[[84,3245],[-1,-2],[3,-9],[4,-4],[4,1],[1,4],[-1,4],[-4,7],[-3,0],[-3,-1]],[[177,3196],[0,-4],[3,-10],[8,-13],[2,10],[-2,2],[-3,2],[-4,8],[-4,5]],[[7,3448],[3,-3],[2,1],[3,0],[4,-5],[5,-2],[3,1],[2,-6],[2,-3],[2,0],[-3,6],[-5,7],[-5,7],[-3,1],[-2,2],[-10,-3],[0,-1],[2,-2]],[[728,4056],[15,-8],[1,1],[3,2],[0,2],[0,5],[-3,-1],[-2,0],[-3,3],[-2,4],[-2,1],[-8,-3],[1,-6]],[[0,3861],[4,-2],[15,-8],[7,-5],[5,-5],[10,-12],[3,-8],[-3,-4],[-20,0],[-9,1],[-8,5],[-4,-9],[0,47]],[[643,4096],[-2,-47],[-5,-8],[-8,-1],[-5,5],[-13,22],[-2,7],[-22,22],[57,0]],[[3729,1125],[-23,0],[-5,4],[-3,5],[-4,2],[-8,-6],[-5,5],[-4,1],[-3,-3],[-2,-8],[18,-17],[11,-7],[13,-2],[28,-2],[15,1],[9,6],[0,11],[-10,7],[-15,3],[-12,0]],[[3607,1538],[2,-21],[18,-10],[23,0],[17,10],[-1,17],[-18,10],[-24,2],[-17,-8]],[[3999,1731],[14,-21],[18,-12],[65,-17],[0,-1]],[[4096,1777],[-55,23],[-17,2],[-16,-2],[-15,-6],[-13,-8],[-9,-11],[-2,-8],[2,-9],[5,-7],[5,-7],[4,-4],[14,-9]],[[4096,2536],[-14,-1],[-8,3],[-9,10],[-14,-20],[-26,-19],[-89,-41],[-15,-1],[-14,1],[-14,-1],[-12,-9],[40,0],[0,-6],[-38,-17],[-7,-1],[-4,-8],[-26,-42],[2,-9],[2,-16],[4,-16],[10,-7],[7,-3],[13,-14],[5,-4],[8,0],[14,-4],[69,-4],[31,5],[15,14],[10,-9],[16,-9],[16,-6],[10,-3],[8,2],[5,4],[3,3],[2,1]],[[4096,1413],[-5,3],[-26,10],[-28,2],[-58,-2],[-17,4],[-29,14],[-14,4],[-115,9],[-32,-4],[-25,-16],[-12,6],[-23,-3],[-13,5],[-3,6],[0,6],[0,5],[-12,3],[-13,6],[-4,4],[16,5],[14,2],[14,-2],[15,-5],[0,4],[20,-3],[14,10],[0,14],[-26,6],[-9,-1],[-33,-10],[-6,0],[-6,1],[-6,-1],[-5,-2],[-9,-12],[-1,-2],[-3,-1],[-9,-7],[-5,-2],[-6,0],[-9,4],[-8,2],[-3,-2],[-3,-3],[-3,-2],[-8,1],[-5,3],[-15,13],[-9,4],[-8,1],[-32,2],[-10,3],[-21,11],[-4,0],[-5,-3],[-5,0],[-1,6],[-1,1],[-5,6],[-1,1],[-42,2],[-96,42],[-29,7],[-41,2],[-8,-1],[-8,-2],[-4,-5],[-3,-7],[-7,0],[-17,4],[-14,-2],[-32,-13],[-25,-15],[-6,-7],[2,-8],[3,-6],[3,-10],[1,-9],[-2,-4],[-11,-8],[-8,-36],[-13,-9],[3,-8],[2,-3],[-25,-37],[19,-24],[4,-11],[2,-15],[6,-14],[28,-14],[6,-9],[6,-6],[14,-8],[16,-7],[14,-3],[16,5],[15,10],[15,6],[14,-5],[4,6],[7,-4],[18,-7],[8,-2],[6,0],[4,-3],[2,-8],[3,-8],[8,-5],[9,-4],[23,-4],[12,-6],[71,-53],[13,-12],[2,-4],[1,-2],[0,-3],[3,-2],[2,-2],[6,-2],[2,-2],[47,-68],[3,-11],[5,-6],[7,-3],[7,-1],[48,0],[10,2],[2,6],[-4,15],[-5,12],[-30,33],[12,21],[14,13],[52,25],[32,25],[0,3],[0,4],[-1,3],[3,1],[8,-2],[4,-1],[1,-2],[5,6],[9,11],[5,4],[-7,-17],[-2,-10],[-1,-10],[11,8],[9,20],[10,4],[-3,-13],[3,-10],[7,-4],[9,5],[4,0],[10,-5],[5,11],[6,15],[9,6],[6,-4],[6,-14],[6,-3],[9,2],[23,14],[17,4],[59,1],[49,-5],[0,-5],[-26,0],[-10,-4],[-4,-10],[7,-2],[43,5],[97,-16],[6,-2],[22,-14]],[[1810,1062],[-23,52],[-16,23],[-21,20],[-3,16],[-28,10],[-54,10],[-2,4],[-6,11],[-4,2],[-55,0],[-6,2],[-4,3],[-4,3],[-4,1],[-12,9],[-25,-1],[-12,4],[-11,7],[-13,14],[-11,6],[-13,2],[-37,3],[-14,4],[-7,4],[-4,7],[-7,20],[-3,8],[-23,13],[-26,17],[-8,7],[0,11],[2,8],[-5,7],[-9,1],[-10,1],[-12,-2],[-8,-4],[-43,-2],[-9,2],[-15,7],[-9,2],[-13,-2],[-25,-5],[-24,1],[-4,3],[-12,11],[-4,2],[-32,6],[0,-2],[-2,-2],[-4,-2],[-4,0],[-4,3],[-3,10],[-3,3],[-26,7],[-39,5],[-37,0],[-23,-6],[-15,9],[-19,5],[-50,3],[-32,8],[-71,1],[-51,12],[-59,13],[-33,1],[-30,-5],[-13,-6],[-7,-7],[-17,-21],[-4,-8],[0,-6],[-1,-5],[-7,-5],[-8,-2],[-8,2],[-6,2],[-8,3],[-16,0],[-47,-5],[-16,3],[-14,5],[-11,0],[-11,-13],[-19,14],[-26,-8],[-22,-21],[-8,-22],[-12,4],[-7,-6],[-6,-9],[-7,-5],[-12,-1],[-2,-3],[-1,-6],[-5,-9],[-2,-6],[1,-24],[-2,-10],[-5,-6],[-11,-8],[-4,-6],[4,-14],[9,-12],[12,-8],[13,-3],[12,-2],[23,-7],[10,-2],[2,-1],[18,-7],[5,-1],[5,3],[7,6],[12,0],[33,-6],[53,2],[19,-10],[13,-28],[5,-19],[3,-9],[5,-4],[5,-2],[8,-3],[6,-5],[6,-8],[17,-41],[12,-4],[50,0],[19,-7],[4,-17],[-1,-19],[1,-16],[4,-4],[13,-4],[3,-5],[1,-6],[8,-20],[3,-6],[6,-5],[26,-13],[15,-10],[5,-1],[99,5],[31,-5],[32,-9],[15,1],[16,11],[13,5],[17,-2],[16,-6],[55,-32],[13,-17],[63,-57],[13,-7],[14,-3],[15,0],[18,5],[2,13],[-7,29],[-15,-4],[-14,-1],[-14,3],[-12,8],[7,6],[7,2],[8,0],[8,-4],[-2,5],[-1,8],[-2,4],[5,3],[10,5],[5,2],[-6,22],[3,7],[12,24],[17,10],[19,6],[21,-2],[8,-3],[8,-6],[10,-14],[8,-7],[-16,-5],[0,-6],[41,0],[8,-3],[6,-4],[6,-3],[9,0],[12,8],[10,14],[13,46],[3,18],[2,5],[10,-1],[3,6],[9,11],[3,8],[3,8],[9,-5],[13,-8],[15,-10],[15,1],[22,-1],[10,-2],[3,-3],[5,-5],[-80,-5],[0,-5],[38,-2],[12,2],[26,6],[15,1],[11,-5],[6,-3],[22,-5],[4,-4],[4,-5],[3,-5],[6,-1],[6,-4],[2,-7],[2,-9],[3,-7],[8,-6],[6,0],[5,1],[6,0],[40,-6],[57,5],[22,8],[14,-3],[13,-7],[11,-3],[13,4],[11,18],[14,5],[-3,-10],[-2,-3],[-5,-3],[13,-4],[15,5],[26,15],[38,9],[8,6],[-20,15],[-14,15],[-11,19],[-5,14],[-6,12]],[[2354,3209],[-9,2],[-36,-7],[1,-14],[7,-10],[12,-6],[13,-2],[24,-6],[14,0],[-3,9],[-6,9],[-10,19],[-7,6]],[[3716,3416],[-5,-17],[-12,-8],[-22,-2],[-2,-6],[2,-4],[13,-22],[1,-17],[2,-14],[2,-8],[9,-11],[9,-5],[4,-1],[3,6],[4,7],[3,5],[12,6],[11,2],[46,-4],[32,-13],[43,10],[26,-1],[37,21],[16,-2],[11,-8],[-5,-4],[0,-6],[5,0],[14,10],[7,3],[9,3],[32,-5],[54,23],[15,9],[4,10]],[[4096,3540],[-9,-19],[-17,-22],[-37,-9],[-16,-8],[-16,-10],[-45,15],[-19,9],[-15,19],[-12,14],[-4,16],[-3,3],[-6,-6],[-11,-16],[-7,-5],[-8,-4],[-7,0],[-21,0],[-15,-8],[-16,3],[-6,-14],[-16,-14],[-6,-15],[-22,-7],[-9,-7],[-12,-4],[-15,-6],[-25,12],[0,-8],[8,-8],[8,-11],[-1,-14]],[[304,3024],[-8,10],[-9,5],[-6,-3],[-2,-12],[-13,6],[-6,6],[-11,15],[-8,8],[-11,8],[-11,2],[-10,-8],[26,-13],[13,-9],[9,-21],[10,-4],[10,-4],[9,-4],[13,-10],[8,3],[2,10],[-5,15]],[[229,3157],[-15,4],[-7,0],[-8,-4],[-1,2],[0,1],[-4,1],[-11,-9],[-25,-6],[-9,-6],[13,-4],[11,-6],[12,8],[34,8],[10,11]],[[742,4096],[2,-3],[9,-12],[2,-5],[3,-4],[4,-1],[6,3],[-1,6],[-3,5],[-2,2],[4,9]],[[781,4096],[-4,-14],[16,12],[5,2]],[[3343,2807],[-25,16],[-15,13],[-7,5],[-9,3],[-15,-1],[-14,-6],[-13,-8],[-12,-6],[-14,1],[-16,4],[-15,0],[-10,-11],[-5,0],[-6,16],[-16,16],[-20,12],[-16,5],[-10,1],[-7,3],[-35,38],[-3,5],[-5,3],[-23,32],[-8,16],[-6,7],[-33,21],[-14,12],[-3,10],[-26,9],[-4,2],[-5,4],[-5,3],[-3,0],[-1,2],[-1,9],[-10,18],[3,1],[7,5],[-11,8],[-15,4],[-58,7],[-13,9],[-11,10],[-12,9],[-17,-2],[-12,0],[-5,5],[-3,7],[-6,3],[-7,1],[-7,4],[-14,5],[-59,-7],[11,-11],[-6,-3],[-6,0],[-6,3],[-7,6],[-1,-6],[-3,-7],[-2,-4],[-6,18],[-12,1],[-13,-3],[-8,6],[-3,-2],[0,-1],[-1,-1],[-1,-1],[-20,5],[0,5],[12,3],[-3,6],[-9,5],[-34,7],[-11,1],[5,-6],[-13,4],[-20,-1],[-17,-4],[-10,-10],[15,-4],[27,-14],[13,-8],[-41,-5],[-18,4],[-6,17],[-4,-7],[-1,-4],[-5,0],[-4,11],[-6,10],[17,3],[-5,9],[-15,9],[-12,6],[-14,1],[-20,0],[-17,-5],[-9,-12],[7,0],[7,-1],[12,-4],[-6,-16],[-6,3],[-6,4],[-4,4],[-4,5],[-4,0],[-12,-14],[-43,10],[4,-17],[-16,5],[-7,5],[1,8],[3,8],[-7,2],[-18,-2],[5,13],[-2,14],[-7,12],[-11,9],[-8,-16],[-35,-29],[-8,-17],[-5,-8],[-11,4],[-28,16],[-8,17],[-7,6],[3,8],[2,10],[1,9],[-1,5],[8,19],[1,10],[-4,8],[47,-5],[15,5],[39,6],[3,-1],[5,-5],[3,-4],[2,-6],[2,-4],[6,-2],[10,-5],[11,-8],[11,0],[5,18],[-10,0],[-6,5],[-3,8],[-1,11],[-4,4],[-30,15],[-16,2],[-22,-1],[-19,-6],[-8,-12],[-5,0],[-6,14],[-10,13],[0,9],[21,2],[-2,5],[-3,3],[-4,2],[-6,1],[4,3],[5,1],[5,-1],[5,-3],[10,5],[4,-7],[3,-12],[3,-7],[12,-1],[12,7],[10,11],[7,8],[1,5],[2,12],[1,4],[3,5],[8,6],[5,6],[14,31],[-25,38],[-16,11],[-29,-6],[-7,27],[-14,12],[-21,3],[-25,0],[-12,-3],[-8,0],[-3,6],[-2,2],[-11,5],[-4,1],[-37,-27],[3,-7],[-3,-3],[-7,1],[-6,13],[-7,4],[-9,2],[-9,0],[-6,-2],[-11,-10],[-5,-3],[-9,-1],[-20,0],[-6,1],[1,-14],[-4,-6],[-7,3],[-5,12],[-1,-4],[-3,-3],[-1,-4],[-5,0],[0,10],[-2,7],[-6,5],[-7,5],[-10,2],[-9,-2],[-11,-6],[-8,-8],[-5,0],[-7,8],[-3,9],[1,17],[-3,6],[-3,18],[-23,16],[-77,29],[-11,7],[-17,14],[-2,1],[-23,9],[-11,9],[-18,6],[-87,2],[-13,-4],[-5,-11],[2,-12],[9,-10],[9,-4],[24,-3],[11,-4],[-8,-3],[-21,-13],[-4,0],[-5,1],[-4,0],[-2,-3],[-2,-4],[-4,-4],[-5,-4],[-4,-1],[-7,2],[-7,14],[-6,5],[-9,-1],[-8,-4],[-7,0],[-6,10],[3,1],[7,4],[-15,0],[0,5],[39,2],[8,10],[3,31],[-5,0],[0,-16],[-5,0],[-9,12],[-16,10],[-18,5],[-12,0],[-14,-6],[-1,-5],[5,-11],[4,-7],[5,-3],[16,-6],[0,-4],[-15,1],[-14,3],[-13,5],[-10,8],[-12,5],[-15,2],[-9,6],[3,12],[-1,8],[7,0],[7,-7],[-3,-12],[41,19],[12,2],[5,5],[-4,11],[-10,11],[-11,5],[-8,0],[-20,5],[-12,8],[-4,2],[-5,-4],[-4,0],[-45,15],[-1,-9],[-3,-8],[-11,-15],[5,0],[-2,-9],[-2,-9],[-4,-8],[-7,-5],[3,19],[-38,-20],[-10,19],[3,11],[7,8],[11,4],[25,1],[9,3],[6,8],[4,16],[-15,0],[5,11],[-9,7],[-40,8],[-27,13],[-11,7],[-1,1],[-11,11],[-79,95],[-13,8],[-14,-2],[-6,-8],[-18,-35],[-9,-41],[-7,-11],[-6,-1],[-7,-4],[-1,-1],[-18,-9],[-7,-2],[5,14],[-11,1],[-16,-3],[-9,2],[-3,5],[-6,13],[-5,14],[2,7],[13,5],[5,13],[-3,13],[-15,6],[-20,-2],[-7,2],[-7,4],[-6,5],[-6,5],[-8,2],[-9,4],[-2,8],[6,8],[17,1],[6,-2],[8,-7],[6,-3],[5,-3],[3,-1],[2,3],[1,1],[3,2],[1,3],[0,2],[14,-2],[11,-3],[47,-22],[4,-3],[12,-14],[7,-4],[5,14],[17,18],[3,16],[-5,6],[-7,7],[-4,9],[6,15],[-13,-3],[-11,0],[-10,3],[-11,5],[-43,32],[-10,4],[-24,20],[-11,10],[-10,8],[-37,11],[-15,7],[-77,56],[-3,4],[-5,19],[-2,7],[-26,21],[-11,2],[-13,-9],[-12,-14],[-6,-13],[10,4],[5,-1],[8,-12],[27,-23],[20,-24],[10,-7],[10,9],[10,-11],[13,7],[8,-6],[3,-10],[1,-9],[3,-2],[15,-6],[5,-3],[3,-5],[4,-18],[9,-23],[8,-10],[19,-8],[7,-10],[4,-9],[0,-4],[-2,-2],[-2,-3],[-3,-4],[-7,-2],[-5,2],[-18,9],[-22,3],[-9,3],[-4,8],[-2,12],[-11,24],[-2,14],[3,14],[4,-1],[8,-4],[10,1],[-15,16],[-9,8],[-11,3],[2,-3],[2,-5],[1,-3],[-8,-1],[-7,0],[-4,4],[-1,8],[-19,-5],[-6,-5],[0,-11],[-32,21],[-13,5],[-12,2],[-45,-7],[-6,3],[-6,5],[-6,3],[-11,-5],[-4,1],[-20,7],[-10,4],[-7,7],[-2,9],[-1,9],[-4,14],[-5,12],[-8,5],[-18,0],[-6,3],[-9,7],[-6,8],[-5,8],[-2,10],[-1,14],[0,1]],[[643,4096],[-2,-47],[-5,-8],[-8,-1],[-5,5],[-13,22],[-2,7],[-22,22]],[[0,3861],[4,-2],[15,-8],[7,-5],[5,-5],[10,-12],[3,-8],[-3,-4],[-20,0],[-9,1],[-8,5],[-4,-9]],[[0,3811],[3,-4],[9,-3],[38,-6],[12,-4],[12,-8],[15,-16],[15,-21],[11,-24],[4,-26],[3,-11],[14,-24],[3,-13],[2,-15],[6,-25],[2,-13],[5,-6],[24,-8],[5,-8],[-2,-11],[-7,-5],[-8,1],[-7,8],[-5,-22],[8,-22],[11,-22],[6,-21],[2,-51],[5,-26],[5,-7],[6,-1],[27,-20],[9,-9],[11,-21],[8,-11],[9,-6],[26,2],[10,-3],[51,-37],[5,-11],[2,-7],[5,-7],[9,-11],[1,-5],[0,-8],[3,-3],[8,4],[11,0],[15,-9],[14,-12],[7,-9],[13,-25],[9,-8],[16,-3],[8,-4],[24,-28],[5,11],[5,0],[8,-17],[25,-6],[47,1],[11,5],[10,9],[11,9],[15,3],[27,-3],[14,-4],[19,-13],[12,-4],[36,-2],[10,1],[2,1],[5,-2],[14,-5],[6,0],[22,1],[5,-1],[5,-3],[10,-8],[7,1],[28,15],[37,-14],[13,-2],[8,0],[5,2],[5,2],[7,2],[5,2],[4,2],[4,0],[7,-4],[10,10],[19,9],[23,5],[20,2],[21,-7],[14,-17],[13,-20],[14,-14],[6,14],[14,-3],[26,-16],[0,-6],[-15,-21],[-5,-3],[-7,-2],[-6,-3],[-2,-5],[3,-17],[7,-8],[11,-5],[14,-9],[5,5],[-5,8],[7,0],[26,-11],[20,-13],[7,-6],[22,-37],[-9,-27],[-6,-5],[-5,-5],[-2,-37],[-30,-19],[-6,-5],[-1,-12],[-5,-12],[-8,-9],[-10,-7],[-11,-2],[-9,0],[-4,4],[4,9],[-5,1],[-3,0],[-2,-1],[-10,-8],[-12,-28],[-11,-6],[-14,-2],[-73,-35],[-14,-10],[-12,-17],[-31,-17],[-13,-9],[-12,-19],[-3,-5],[-3,-3],[-14,-4],[-7,-7],[-19,6],[-7,1],[-1,-5],[10,-10],[1,-7],[-34,-31],[-3,-6],[-1,-4],[-16,-22],[-14,-13],[-4,-6],[3,-8],[-5,-3],[-5,-8],[-5,-5],[-6,-2],[-9,-1],[-5,-2],[-1,-7],[-14,-26],[-1,-14],[5,-8],[8,-7],[10,-5],[10,-2],[14,1],[45,12],[31,-2],[26,3],[46,11],[68,2],[13,2],[21,8],[13,0],[0,6],[-20,0],[11,13],[19,5],[21,-1],[19,-6],[5,7],[7,4],[7,-1],[6,-6],[5,0],[10,8],[18,-4],[37,-14],[18,-3],[94,4],[17,5],[16,7],[23,19],[12,5],[15,-1],[16,-4],[16,0],[15,8],[94,8],[93,-6],[16,3],[30,11],[16,2],[53,0],[28,4],[58,16],[33,1],[66,-7],[96,-23],[11,1],[9,6],[15,4],[28,4],[15,-2],[28,-8],[14,-2],[52,2],[16,-2],[25,-13],[31,-21],[29,-16],[24,4],[16,-9],[21,-5],[24,0],[19,3],[5,2],[6,7],[2,2],[5,-1],[7,-4],[25,-6],[8,0],[71,4],[38,9],[1,0],[18,5],[12,0],[-1,3],[-10,1],[-9,6],[0,4],[2,1],[5,3],[4,-1],[1,-4],[4,-1],[2,4],[7,5],[8,2],[12,2],[-5,9],[-6,6],[2,6],[6,4],[1,5],[9,5],[-3,8],[-2,4],[-2,-4],[-1,-2],[-3,-1],[-5,1],[-4,1],[-2,8],[1,8],[4,9],[11,4],[8,-4],[6,-3],[5,9],[5,8],[7,11],[14,3],[2,-20],[4,-8],[-4,-9],[-9,-16],[-9,-2],[-11,-7],[-4,-4],[-3,-9],[4,-5],[3,-2],[10,9],[8,-6],[3,-5],[-2,-8],[-10,1],[-4,-3],[-17,-13],[-8,-3],[-5,-4],[-1,-13],[3,-5],[18,1],[21,4],[12,0],[18,6],[0,7],[2,6],[4,1],[6,-3],[3,-9],[26,3],[24,9],[12,18],[4,16],[6,7],[10,1],[17,1],[16,4],[13,10],[11,12],[13,11],[18,8],[18,2],[55,9],[45,-7],[23,9],[28,-5],[60,14],[31,2],[46,10],[33,-1],[31,-8],[27,-1],[23,20],[4,28],[4,4],[5,2],[15,8],[10,11],[15,6],[15,9],[7,17],[-2,15],[-3,14],[-6,13],[-8,11]],[[72,3110],[-3,-1],[-1,-4],[7,-5],[12,0],[1,5],[-11,3],[-5,2]],[[123,3107],[0,-2],[0,-1],[1,-3],[-18,3],[-3,2],[-4,-2],[2,-3],[4,-3],[4,-4],[5,-2],[6,1],[5,4],[0,7],[-2,3]],[[2713,1375],[2,-2],[8,0],[3,0],[2,-3],[1,-1],[0,-3],[0,-1],[-1,-1],[0,-4],[-1,-2],[-1,0],[-1,0],[-2,0],[-1,0],[-2,0],[-1,1],[-1,0],[-1,1],[-1,2],[0,1],[-3,3],[0,1],[-1,1],[-4,4],[1,3],[4,0]],[[1777,3256],[-35,6],[-191,1],[-235,54]],[[1316,3317],[-165,48],[-98,33],[-48,21],[-68,96],[-16,16],[-20,12],[-31,11],[-70,11],[-48,2],[-32,-4],[-96,69],[-20,22],[-8,-5],[-34,5],[-51,0],[-38,7],[-19,8],[-19,14],[-16,16],[-46,77],[-27,37],[-64,55],[-118,81],[-79,46],[-85,38]],[[1962,2811],[-147,7]],[[1777,3256],[0,-32],[-10,-33],[-18,-36],[-140,-220],[-35,-51]],[[1939,2742],[23,69]],[[1574,2884],[-14,-36],[-2,-12],[3,-4],[72,-27],[23,-3],[14,4],[74,35],[50,-9],[17,-9],[4,-5]],[[2373,2633],[-13,-1],[-81,19],[-24,-14],[-21,-20],[-17,-5]],[[2605,2669],[-44,-28],[-11,-3],[-93,3],[-84,-8]],[[2217,2612],[-8,41]],[[2209,2653],[-8,47],[-18,26],[-25,22],[-31,19],[-68,30],[-40,9],[-57,5]],[[4096,1321],[-16,-5],[-54,-14],[-92,-15],[-126,-16],[-124,-6],[-34,4],[-24,9],[-17,15],[-10,16],[-7,19],[-14,60],[-12,23],[-185,111]],[[1120,1325],[8,7],[36,-2],[144,-32],[171,-75]],[[1430,1093],[-8,-23]],[[1479,1223],[-49,-130]],[[1422,1070],[-28,3],[-29,-2]],[[1365,1071],[-30,-2],[-26,3]],[[1139,1037],[-24,-2],[-26,-6],[-11,-15],[-15,-8],[-21,-4],[-43,1],[-55,8],[-55,-6],[-20,0],[-11,5],[-12,9],[-60,67],[-39,31],[-36,12],[-64,10],[-36,10],[-10,8],[-31,41],[-27,41],[-24,12],[-25,7],[-96,1],[-21,4],[-17,10],[-2,14],[2,14],[10,23],[24,24],[25,14],[33,4],[104,5],[68,22],[52,6],[127,-6],[205,-25],[91,-22],[21,-21]],[[1309,1072],[-21,-15],[-26,-10],[-27,-4],[-96,-6]],[[3667,1517],[-17,-10],[-23,0],[-18,10],[-2,21],[17,8],[24,-2],[18,-10],[1,-17]],[[4096,1777],[0,-97],[0,1],[-65,17],[-18,12],[-14,21],[-14,9],[-4,4],[-5,7],[-5,7],[-2,9],[2,8],[9,11],[13,8],[15,6],[16,2],[17,-2],[55,-23]],[[962,1415],[15,-9],[23,6],[37,0],[39,-5],[26,-7],[3,-3],[3,-10],[4,-3],[4,0],[4,2],[2,2],[0,2],[32,-6],[4,-2],[12,-11],[4,-3],[24,-1],[25,5],[13,2],[9,-2],[15,-7],[9,-2],[43,2],[8,4],[12,2],[10,-1],[9,-1],[5,-7],[-2,-8],[0,-11],[8,-7],[26,-17],[23,-13],[3,-8],[7,-20],[4,-7],[7,-4],[14,-4],[37,-3],[13,-2],[11,-6],[13,-14],[11,-7],[12,-4],[25,1],[12,-9],[4,-1],[4,-3],[4,-3],[6,-2],[55,0],[4,-2],[6,-11],[2,-4],[54,-10],[28,-10],[3,-16],[21,-20],[16,-23],[23,-52],[6,-12],[5,-14],[11,-19],[14,-15],[20,-15],[-8,-6],[-38,-9],[-26,-15],[-15,-5],[-13,4],[5,3],[2,3],[3,10],[-14,-5],[-11,-18],[-13,-4],[-11,3],[-13,7],[-14,3],[-22,-8],[-57,-5],[-40,6],[-6,0],[-5,-1],[-6,0],[-8,6],[-3,7],[-2,9],[-2,7],[-6,4],[-6,1],[-3,5],[-4,5],[-4,4],[-22,5],[-6,3],[-11,5],[-15,-1],[-26,-6],[-12,-2],[-38,2],[0,5],[80,5],[-5,5],[-3,3],[-10,2],[-22,1],[-15,-1],[-15,10],[-13,8],[-9,5],[-3,-8],[-3,-8],[-9,-11],[-3,-6],[-10,1],[-2,-5],[-3,-18],[-13,-46],[-10,-14],[-12,-8],[-9,0],[-6,3],[-6,4],[-8,3],[-41,0],[0,6],[16,5],[-8,7],[-10,14],[-8,6],[-8,3],[-21,2],[-19,-6],[-17,-10],[-12,-24],[-3,-7],[6,-22],[-5,-2],[-10,-5],[-5,-3],[2,-4],[1,-8],[2,-5],[-8,4],[-8,0],[-7,-2],[-7,-6],[12,-8],[14,-3],[14,1],[15,4],[7,-29],[-2,-13],[-18,-5],[-15,0],[-14,3],[-13,7],[-63,57],[-13,17],[-55,32],[-16,6],[-17,2],[-13,-5],[-16,-11],[-15,-1],[-32,9],[-31,5],[-99,-5],[-5,1],[-15,10],[-26,13],[-6,5],[-3,6],[-8,20],[-1,6],[-3,5],[-13,4],[-4,4],[-1,16],[1,19],[-4,17],[-19,7],[-50,0],[-12,4],[-17,41],[-6,8],[-6,5],[-8,3],[-5,2],[-5,4],[-3,9],[-5,19],[-13,28],[-19,10],[-53,-2],[-33,6],[-12,0],[-7,-6],[-5,-3],[-5,1],[-18,7],[-2,1],[-10,2],[-23,7],[-12,2],[-13,3],[-12,8],[-9,12],[-4,14],[4,6],[11,8],[5,6],[2,10],[-1,24],[2,6],[5,9],[1,6],[2,3],[12,1],[7,5],[6,9],[7,6],[12,-4],[8,22],[22,21],[26,8],[19,-14],[11,13],[11,0],[14,-5],[16,-3],[47,5],[16,0],[8,-3],[6,-2],[8,-2],[8,2],[7,5],[1,5],[0,6],[4,8],[17,21],[7,7],[13,6],[30,5],[33,-1],[59,-13],[51,-12],[71,-1],[32,-8],[50,-3],[19,-5]],[[3681,1135],[5,-5],[8,6],[4,-2],[3,-5],[5,-4],[23,0],[12,0],[15,-3],[10,-7],[0,-11],[-9,-6],[-15,-1],[-28,2],[-13,2],[-11,7],[-18,17],[2,8],[3,3],[4,-1]],[[198,3159],[1,-2],[8,4],[7,0],[15,-4],[-10,-11],[-34,-8],[-12,-8],[-11,6],[-13,4],[9,6],[25,6],[11,9],[4,-1],[0,-1]],[[2377,3175],[3,-9],[-14,0],[-24,6],[-13,2],[-12,6],[-7,10],[-1,14],[36,7],[9,-2],[7,-6],[10,-19],[6,-9]],[[4096,3540],[0,-167],[-4,-10],[-15,-9],[-54,-23],[-32,5],[-9,-3],[-7,-3],[-14,-10],[-5,0],[0,6],[5,4],[-11,8],[-16,2],[-37,-21],[-26,1],[-43,-10],[-32,13],[-46,4],[-11,-2],[-12,-6],[-3,-5],[-4,-7],[-3,-6],[-4,1],[-9,5],[-9,11],[-2,8],[-2,14],[-1,17],[-13,22],[-2,4],[2,6],[22,2],[12,8],[5,17],[1,14],[-8,11],[-8,8],[0,8],[25,-12],[15,6],[12,4],[9,7],[22,7],[6,15],[16,14],[6,14],[16,-3],[15,8],[21,0],[7,0],[8,4],[7,5],[11,16],[6,6],[3,-3],[4,-16],[12,-14],[15,-19],[19,-9],[45,-15],[16,10],[16,8],[37,9],[17,22],[9,19]],[[766,4096],[-4,-9],[2,-2],[3,-5],[1,-6],[-6,-3],[-4,1],[-3,4],[-2,5],[-9,12],[-2,3],[24,0]],[[266,3030],[13,-6],[2,12],[6,3],[9,-5],[8,-10],[5,-15],[-2,-10],[-8,-3],[-13,10],[-9,4],[-10,4],[-10,4],[-9,21],[-13,9],[-26,13],[10,8],[11,-2],[11,-8],[8,-8],[11,-15],[6,-6]],[[4096,1413],[0,-214],[-22,14],[-6,2],[-97,16],[-43,-5],[-7,2],[4,10],[10,4],[26,0],[0,5],[-49,5],[-59,-1],[-17,-4],[-23,-14],[-9,-2],[-6,3],[-6,14],[-6,4],[-9,-6],[-6,-15],[-5,-11],[-10,5],[-4,0],[-9,-5],[-7,4],[-3,10],[3,13],[-10,-4],[-9,-20],[-11,-8],[1,10],[2,10],[7,17],[-5,-4],[-9,-11],[-5,-6],[-1,2],[-4,1],[-8,2],[-3,-1],[1,-3],[0,-4],[0,-3],[-32,-25],[-52,-25],[-14,-13],[-12,-21],[30,-33],[5,-12],[4,-15],[-2,-6],[-10,-2],[-48,0],[-7,1],[-7,3],[-5,6],[-3,11],[-47,68],[-2,2],[-6,2],[-2,2],[-3,2],[0,3],[-1,2],[-2,4],[-13,12],[-71,53],[-12,6],[-23,4],[-9,4],[-8,5],[-3,8],[-2,8],[-4,3],[-6,0],[-8,2],[-18,7],[-7,4],[-4,-6],[-14,5],[-15,-6],[-15,-10],[-16,-5],[-14,3],[-16,7],[-14,8],[-6,6],[-6,9],[-28,14],[-6,14],[-2,15],[-4,11],[-19,24],[25,37],[-2,3],[-3,8],[13,9],[8,36],[11,8],[2,4],[-1,9],[-3,10],[-3,6],[-2,8],[6,7],[25,15],[32,13],[14,2],[17,-4],[7,0],[3,7],[4,5],[8,2],[8,1],[41,-2],[29,-7],[96,-42],[42,-2],[1,-1],[5,-6],[1,-1],[1,-6],[5,0],[5,3],[4,0],[21,-11],[10,-3],[32,-2],[8,-1],[9,-4],[15,-13],[5,-3],[8,-1],[3,2],[3,3],[3,2],[8,-2],[9,-4],[6,0],[5,2],[9,7],[3,1],[1,2],[9,12],[5,2],[6,1],[6,-1],[6,0],[33,10],[9,1],[26,-6],[0,-14],[-14,-10],[-20,3],[0,-4],[-15,5],[-14,2],[-14,-2],[-16,-5],[4,-4],[13,-6],[12,-3],[0,-5],[0,-6],[3,-6],[13,-5],[23,3],[12,-6],[25,16],[32,4],[115,-9],[14,-4],[29,-14],[17,-4],[58,2],[28,-2],[26,-10],[5,-3]],[[4096,2536],[0,-227],[-2,-1],[-3,-3],[-5,-4],[-8,-2],[-10,3],[-16,6],[-16,9],[-10,9],[-15,-14],[-31,-5],[-69,4],[-14,4],[-8,0],[-5,4],[-13,14],[-7,3],[-10,7],[-4,16],[-2,16],[-2,9],[26,42],[4,8],[7,1],[38,17],[0,6],[-40,0],[12,9],[14,1],[14,-1],[15,1],[89,41],[26,19],[14,20],[9,-10],[8,-3],[14,1]],[[586,4096],[22,-22],[2,-7],[13,-22],[5,-5],[8,1],[5,8],[2,47],[10,0],[0,-1],[1,-14],[2,-10],[5,-8],[6,-8],[9,-7],[6,-3],[18,0],[8,-5],[5,-12],[4,-14],[1,-9],[2,-9],[7,-7],[10,-4],[20,-7],[4,-1],[11,5],[6,-3],[6,-5],[6,-3],[45,7],[12,-2],[13,-5],[32,-21],[0,11],[6,5],[19,5],[1,-8],[4,-4],[7,0],[8,1],[-1,3],[-2,5],[-2,3],[11,-3],[9,-8],[15,-16],[-10,-1],[-8,4],[-4,1],[-3,-14],[2,-14],[11,-24],[2,-12],[4,-8],[9,-3],[22,-3],[18,-9],[5,-2],[7,2],[3,4],[2,3],[2,2],[0,4],[-4,9],[-7,10],[-19,8],[-8,10],[-9,23],[-4,18],[-3,5],[-5,3],[-15,6],[-3,2],[-1,9],[-3,10],[-8,6],[-13,-7],[-10,11],[-10,-9],[-10,7],[-20,24],[-27,23],[-8,12],[-5,1],[-10,-4],[6,13],[12,14],[13,9],[11,-2],[26,-21],[2,-7],[5,-19],[3,-4],[77,-56],[15,-7],[37,-11],[10,-8],[11,-10],[24,-20],[10,-4],[43,-32],[11,-5],[10,-3],[11,0],[13,3],[-6,-15],[4,-9],[7,-7],[5,-6],[-3,-16],[-17,-18],[-5,-14],[-7,4],[-12,14],[-4,3],[-47,22],[-11,3],[-14,2],[0,-2],[-1,-3],[-3,-2],[-1,-1],[-2,-3],[-3,1],[-5,3],[-6,3],[-8,7],[-6,2],[-17,-1],[-6,-8],[2,-8],[9,-4],[8,-2],[6,-5],[6,-5],[7,-4],[7,-2],[20,2],[15,-6],[3,-13],[-5,-13],[-13,-5],[-2,-7],[5,-14],[6,-13],[3,-5],[9,-2],[16,3],[11,-1],[-5,-14],[7,2],[18,9],[1,1],[7,4],[6,1],[7,11],[9,41],[18,35],[6,8],[14,2],[13,-8],[79,-95],[11,-11],[1,-1],[11,-7],[27,-13],[40,-8],[9,-7],[-5,-11],[15,0],[-4,-16],[-6,-8],[-9,-3],[-25,-1],[-11,-4],[-7,-8],[-3,-11],[10,-19],[38,20],[-3,-19],[7,5],[4,8],[2,9],[2,9],[-5,0],[11,15],[3,8],[1,9],[45,-15],[4,0],[5,4],[4,-2],[12,-8],[20,-5],[8,0],[11,-5],[10,-11],[4,-11],[-5,-5],[-12,-2],[-41,-19],[3,12],[-7,7],[-7,0],[1,-8],[-3,-12],[9,-6],[15,-2],[12,-5],[10,-8],[13,-5],[14,-3],[15,-1],[0,4],[-16,6],[-5,3],[-4,7],[-5,11],[1,5],[14,6],[12,0],[18,-5],[16,-10],[9,-12],[5,0],[0,16],[5,0],[-3,-31],[-8,-10],[-39,-2],[0,-5],[15,0],[-7,-4],[-3,-1],[6,-10],[7,0],[8,4],[9,1],[6,-5],[7,-14],[7,-2],[4,1],[5,4],[4,4],[2,4],[2,3],[4,0],[5,-1],[4,0],[21,13],[8,3],[-11,4],[-24,3],[-9,4],[-9,10],[-2,12],[5,11],[13,4],[87,-2],[18,-6],[11,-9],[23,-9],[2,-1],[17,-14],[11,-7],[77,-29],[23,-16],[3,-18],[3,-6],[-1,-17],[3,-9],[7,-8],[5,0],[8,8],[11,6],[9,2],[10,-2],[7,-5],[6,-5],[2,-7],[0,-10],[5,0],[1,4],[3,3],[1,4],[5,-12],[7,-3],[4,6],[-1,14],[6,-1],[20,0],[9,1],[5,3],[11,10],[6,2],[9,0],[9,-2],[7,-4],[6,-13],[7,-1],[3,3],[-3,7],[37,27],[4,-1],[11,-5],[2,-2],[3,-6],[8,0],[12,3],[25,0],[21,-3],[14,-12],[7,-27],[29,6],[16,-11],[25,-38],[-14,-31],[-5,-6],[-8,-6],[-3,-5],[-1,-4],[-2,-12],[-1,-5],[-7,-8],[-10,-11],[-12,-7],[-12,1],[-3,7],[-3,12],[-4,7],[-10,-5],[-5,3],[-5,1],[-5,-1],[-4,-3],[6,-1],[4,-2],[3,-3],[2,-5],[-21,-2],[0,-9],[10,-13],[6,-14],[5,0],[8,12],[19,6],[22,1],[16,-2],[30,-15],[4,-4],[1,-11],[3,-8],[6,-5],[10,0],[-5,-18],[-11,0],[-11,8],[-10,5],[-6,2],[-2,4],[-2,6],[-3,4],[-5,5],[-3,1],[-39,-6],[-15,-5],[-47,5],[4,-8],[-1,-10],[-8,-19],[1,-5],[-1,-9],[-2,-10],[-3,-8],[7,-6],[8,-17],[28,-16],[11,-4],[5,8],[8,17],[35,29],[8,16],[11,-9],[7,-12],[2,-14],[-5,-13],[18,2],[7,-2],[-3,-8],[-1,-8],[7,-5],[16,-5],[-4,17],[43,-10],[12,14],[4,0],[4,-5],[4,-4],[6,-4],[6,-3],[6,16],[-12,4],[-7,1],[-7,0],[9,12],[17,5],[20,0],[14,-1],[12,-6],[15,-9],[5,-9],[-17,-3],[6,-10],[4,-11],[5,0],[1,4],[4,7],[6,-17],[18,-4],[41,5],[-13,8],[-27,14],[-15,4],[10,10],[17,4],[20,1],[13,-4],[-5,6],[11,-1],[34,-7],[9,-5],[3,-6],[-12,-3],[0,-5],[20,-5],[1,1],[1,1],[0,1],[3,2],[8,-6],[13,3],[12,-1],[6,-18],[2,4],[3,7],[1,6],[7,-6],[6,-3],[6,0],[6,3],[-11,11],[59,7],[14,-5],[7,-4],[7,-1],[6,-3],[3,-7],[5,-5],[12,0],[17,2],[12,-9],[11,-10],[13,-9],[58,-7],[15,-4],[11,-8],[-7,-5],[-3,-1],[10,-18],[1,-9],[1,-2],[3,0],[5,-3],[5,-4],[4,-2],[26,-9],[3,-10],[14,-12],[33,-21],[6,-7],[8,-16],[23,-32],[5,-3],[3,-5],[35,-38],[7,-3],[10,-1],[16,-5],[20,-12],[16,-16],[6,-16],[5,0],[10,11],[15,0],[16,-4],[14,-1],[12,6],[13,8],[14,6],[15,1],[9,-3],[7,-5],[15,-13],[25,-16],[8,-11],[6,-13],[3,-14],[2,-15],[-7,-17],[-15,-9],[-15,-6],[-10,-11],[-15,-8],[-5,-2],[-4,-4],[-4,-28],[-23,-20],[-27,1],[-31,8],[-33,1],[-46,-10],[-31,-2],[-60,-14],[-28,5],[-23,-9],[-45,7],[-55,-9],[-18,-2],[-18,-8],[-13,-11],[-11,-12],[-13,-10],[-16,-4],[-17,-1],[-10,-1],[-6,-7],[-4,-16],[-12,-18],[-24,-9],[-26,-3],[-3,9],[-6,3],[-4,-1],[-2,-6],[0,-7],[-18,-6],[-12,0],[-21,-4],[-18,-1],[-3,5],[1,13],[5,4],[8,3],[17,13],[4,3],[10,-1],[2,8],[-3,5],[-8,6],[-10,-9],[-3,2],[-4,5],[3,9],[4,4],[11,7],[9,2],[9,16],[4,9],[-4,8],[-2,20],[-14,-3],[-7,-11],[-5,-8],[-5,-9],[-6,3],[-8,4],[-11,-4],[-4,-9],[-1,-8],[2,-8],[4,-1],[5,-1],[3,1],[1,2],[2,4],[2,-4],[3,-8],[-9,-5],[-1,-5],[-6,-4],[-2,-6],[6,-6],[5,-9],[-12,-2],[-8,-2],[-7,-5],[-2,-4],[-4,1],[-1,4],[-4,1],[-5,-3],[-2,-1],[0,-4],[9,-6],[10,-1],[1,-3],[-12,0],[-18,-5],[-1,0],[-38,-9],[-71,-4],[-8,0],[-25,6],[-7,4],[-5,1],[-2,-2],[-6,-7],[-5,-2],[-19,-3],[-24,0],[-21,5],[-16,9],[-24,-4],[-29,16],[-31,21],[-25,13],[-16,2],[-52,-2],[-14,2],[-28,8],[-15,2],[-28,-4],[-15,-4],[-9,-6],[-11,-1],[-96,23],[-66,7],[-33,-1],[-58,-16],[-28,-4],[-53,0],[-16,-2],[-30,-11],[-16,-3],[-93,6],[-94,-8],[-15,-8],[-16,0],[-16,4],[-15,1],[-12,-5],[-23,-19],[-16,-7],[-17,-5],[-94,-4],[-18,3],[-37,14],[-18,4],[-10,-8],[-5,0],[-6,6],[-7,1],[-7,-4],[-5,-7],[-19,6],[-21,1],[-19,-5],[-11,-13],[20,0],[0,-6],[-13,0],[-21,-8],[-13,-2],[-68,-2],[-46,-11],[-26,-3],[-31,2],[-45,-12],[-14,-1],[-10,2],[-10,5],[-8,7],[-5,8],[1,14],[14,26],[1,7],[5,2],[9,1],[6,2],[5,5],[5,8],[5,3],[-3,8],[4,6],[14,13],[16,22],[1,4],[3,6],[34,31],[-1,7],[-10,10],[1,5],[7,-1],[19,-6],[7,7],[14,4],[3,3],[3,5],[12,19],[13,9],[31,17],[12,17],[14,10],[73,35],[14,2],[11,6],[12,28],[10,8],[2,1],[3,0],[5,-1],[-4,-9],[4,-4],[9,0],[11,2],[10,7],[8,9],[5,12],[1,12],[6,5],[30,19],[2,37],[5,5],[6,5],[9,27],[-22,37],[-7,6],[-20,13],[-26,11],[-7,0],[5,-8],[-5,-5],[-14,9],[-11,5],[-7,8],[-3,17],[2,5],[6,3],[7,2],[5,3],[15,21],[0,6],[-26,16],[-14,3],[-6,-14],[-14,14],[-13,20],[-14,17],[-21,7],[-20,-2],[-23,-5],[-19,-9],[-10,-10],[-7,4],[-4,0],[-4,-2],[-5,-2],[-7,-2],[-5,-2],[-5,-2],[-8,0],[-13,2],[-37,14],[-28,-15],[-7,-1],[-10,8],[-5,3],[-5,1],[-22,-1],[-6,0],[-14,5],[-5,2],[-2,-1],[-10,-1],[-36,2],[-12,4],[-19,13],[-14,4],[-27,3],[-15,-3],[-11,-9],[-10,-9],[-11,-5],[-47,-1],[-25,6],[-8,17],[-5,0],[-5,-11],[-24,28],[-8,4],[-16,3],[-9,8],[-13,25],[-7,9],[-14,12],[-15,9],[-11,0],[-8,-4],[-3,3],[0,8],[-1,5],[-9,11],[-5,7],[-2,7],[-5,11],[-51,37],[-10,3],[-26,-2],[-9,6],[-8,11],[-11,21],[-9,9],[-27,20],[-6,1],[-5,7],[-5,26],[-2,51],[-6,21],[-11,22],[-8,22],[5,22],[7,-8],[8,-1],[7,5],[2,11],[-5,8],[-24,8],[-5,6],[-2,13],[-6,25],[-2,15],[-3,13],[-14,24],[-3,11],[-4,26],[-11,24],[-15,21],[-15,16],[-12,8],[-12,4],[-38,6],[-9,3],[-3,4],[0,3],[4,9],[8,-5],[9,-1],[20,0],[3,4],[-3,8],[-10,12],[-5,5],[-7,5],[-15,8],[-4,2],[0,235],[586,0]],[[2557,1360],[45,121],[114,45],[111,-39],[56,-112],[-42,-125],[-106,-51],[-112,37],[-66,124]],[[725,2497],[31,45],[108,-15],[32,25],[9,-42],[40,-7],[-10,-2],[-5,-9],[125,15],[-28,-29],[-242,-22],[-57,13],[-3,28]],[[0,3219],[55,-2],[0,52],[63,-1],[3,-64],[204,3],[26,-23],[1,-97],[-66,-3],[35,-81],[-103,71],[-18,-18],[-197,56],[-3,107]],[[1435,1093],[24,-19],[-6,-50],[-69,23],[-29,-24],[15,69],[65,1]],[[2340,3022],[50,47],[15,-29],[59,10],[41,-22],[3,-36],[-52,-20],[-63,30],[-29,-16],[-24,36]],[[1286,2594],[88,28],[19,33],[45,-30],[119,22],[34,44],[35,-57],[-15,-43],[-41,-16],[-106,3],[-23,36],[10,-40],[-127,-55],[-38,75]],[[2128,2569],[76,15],[-43,79],[28,11],[23,-24],[55,31],[80,-21],[96,-97],[78,-5],[-24,-26],[11,-33],[-180,2],[-200,68]],[[1016,3152],[70,-5],[12,32],[50,-17],[3,-32],[82,-7],[10,27],[10,-76],[33,-26],[-19,-21],[14,-37],[-84,-117],[3,94],[-25,30],[-86,18],[32,68],[-44,6],[-61,63]],[[3747,3453],[63,59],[64,5],[31,33],[56,-70],[102,15],[2,-121],[-233,-29],[-15,81],[-61,0],[-9,27]],[[2637,2972],[18,35],[138,-22],[43,38],[65,-38],[0,54],[32,17],[58,-59],[-21,-62],[27,-28],[-15,-28],[-48,40],[-55,-36],[-125,38],[-37,-27],[0,39],[-80,39]]]}