{"objects":{"water":{"type":"GeometryCollection","geometries":[{"type":"MultiPolygon","properties":{"source":"naturalearthdata.com","kind":"ocean","area":1576712559132672,"sort_rank":200,"min_zoom":0.0,"id":1},"arcs":[[[290]],[[291],[292],[293],[294],[295],[296]]]},{"type":"MultiLineString","properties":{"source":"naturalearthdata.com","kind":"ocean","sort_rank":205,"boundary":true,"min_zoom":0.0,"id":77},"arcs":[[297],[298]]},{"type":"LineString","properties":{"source":"naturalearthdata.com","kind":"ocean","sort_rank":205,"boundary":true,"min_zoom":0.0,"id":313},"arcs":[299]},{"type":"LineString","properties":{"source":"naturalearthdata.com","kind":"ocean","sort_rank":205,"boundary":true,"min_zoom":0.0,"id":315},"arcs":[300]},{"type":"LineString","properties":{"source":"naturalearthdata.com","kind":"ocean","sort_rank":205,"boundary":true,"min_zoom":0.0,"id":318},"arcs":[301]},{"type":"LineString","properties":{"source":"naturalearthdata.com","kind":"ocean","sort_rank":205,"boundary":true,"min_zoom":0.0,"id":319},"arcs":[302]},{"type":"LineString","properties":{"source":"naturalearthdata.com","kind":"ocean","sort_rank":205,"boundary":true,"min_zoom":0.0,"id":3858},"arcs":[303]}]},"buildings":{"type":"GeometryCollection","geometries":[]},"places":{"type":"GeometryCollection","geometries":[{"type":"Point","properties":{"name:pt":"Col\u00f4mbia","name:ps":"\u06a9\u0648\u0644\u0645\u0628\u06cc\u0627","name:ka":"\u10d9\u10dd\u10da\u10e3\u10db\u10d1\u10d8\u10d0","name:mt":"Kolumbja","name:ko":"\ucf5c\ub86c\ube44\uc544","name:cv":"\u041a\u043e\u043b\u0443\u043c\u0431\u0438","name:km":"\u1780\u17bc\u17a1\u17bb\u17c6\u1794\u17ca\u17b8","name:cs":"Kolumbie","name:ki":"Kolombia","name:kw":"Kolombi","name:tr":"Kolombiya","name:ku":"Kolombiya","name:ti":"\u12ae\u120e\u121d\u1262\u12eb","name:ks":"\u06a9\u0648\u0644\u064e\u0645\u0628\u0650\u06cc\u0627","name:to":"Kolomipia","name:tl":"Kolombiya","name:pa":"\u0a15\u0a4b\u0a32\u0a70\u0a2c\u0a40\u0a06","name:os":"\u041a\u043e\u043b\u0443\u043c\u0431\u0438","name:or":"\u0b15\u0b4b\u0b32\u0b2e\u0b4d\u0b2c\u0b3f\u0b06","name:ce":"\u041a\u043e\u043b\u0443\u043c\u0431\u0438","name:ta":"\u0b95\u0bca\u0bb2\u0bae\u0bcd\u0baa\u0bbf\u0baf\u0bbe","name:tg":"\u041a\u043e\u043b\u0443\u043c\u0431\u0438\u044f","name:ca":"Col\u00f2mbia","name:te":"\u0c15\u0c4a\u0c32\u0c02\u0c2c\u0c3f\u0c2f\u0c3e","name:ro":"Columbia","name:hr":"Kolumbija","name:ln":"Kolombi","name:de":"Kolumbien","name:dz":"\u0f40\u0f7c\u0f0b\u0f63\u0f7c\u0f58\u0f0b\u0f56\u0fb7\u0f72\u0f0b\u0f61","source":"openstreetmap.org","name:nv":"Kol\u00e1mbiya","name:xh":"IsiColombia","name:kn":"\u0c95\u0cca\u0cb2\u0c82\u0cac\u0cbf\u0caf\u0cbe","name:yi":"\u05e7\u05d0\u05dc\u05d0\u05de\u05d1\u05d9\u05e2","name:dv":"\u0786\u07ae\u078d\u07a6\u0782\u07b0\u0784\u07a8\u0787\u07a7","name:lv":"Kolumbija","name:lt":"Kolumbija","name:uz":"Kolumbiya","name:kk":"\u041a\u043e\u043b\u0443\u043c\u0431\u0438\u044f","name:he":"\u05e7\u05d5\u05dc\u05d5\u05de\u05d1\u05d9\u05d4","min_zoom":2.0,"kind":"country","name:ur":"\u06a9\u0648\u0644\u0645\u0628\u06cc\u0627","name:lb":"Kolumbien","name:la":"Columbia","name:lg":"Kolombya","name:uk":"\u041a\u043e\u043b\u0443\u043c\u0431\u0456\u044f","name:hy":"\u053f\u0578\u056c\u0578\u0582\u0574\u0562\u056b\u0561","name:ug":"\u0643\u0648\u0644\u0648\u0645\u0628\u0649\u064a\u06d5","name:hu":"Kolumbia","name:qu":"Kulumbya","name:lo":"\u0ec2\u0e84\u0ea5\u0eb3\u0ec0\u0e9a\u0e8d","name:oc":"Col\u00f3mbia","population":44050548,"name:el":"\u039a\u03bf\u03bb\u03bf\u03bc\u03b2\u03af\u03b1","name:eo":"Kolombio","name":"Colombia","name:is":"K\u00f3lumb\u00eda","name:ee":"Kolombia nutome","name:th":"\u0e1b\u0e23\u0e30\u0e40\u0e17\u0e28\u0e42\u0e04\u0e25\u0e2d\u0e21\u0e40\u0e1a\u0e35\u0e22","name:eu":"Kolonbia","name:yo":"Or\u00edl\u1eb9\u0301\u00e8de K\u00f2l\u00f3m\u00edb\u00eca","name:ay":"Kuluwya","name:rm":"Columbia","name:rn":"Kolombiya","name:az":"Kolumbiya","name:ie":"Columbia","name:id":"Kolombia","name:mr":"\u0915\u094b\u0932\u092e\u094d\u092c\u093f\u092f\u093e","name:ar":"\u0643\u0648\u0644\u0648\u0645\u0628\u064a\u0627","name:my":"\u1000\u102d\u102f\u101c\u1036\u1018\u102e\u101a\u102c","name:io":"Kolumbia","name:gn":"Kol\u00f3mbia","name:ak":"Kolombia","name:am":"\u12ae\u120e\u121d\u1262\u12eb","name:fo":"Kolombia","name:ml":"\u0d15\u0d4a\u0d33\u0d02\u0d2c\u0d3f\u0d2f","name:ru":"\u041a\u043e\u043b\u0443\u043c\u0431\u0438\u044f","name:rw":"Kolombiya","name:pl":"Kolumbia","name:mk":"\u041a\u043e\u043b\u0443\u043c\u0431\u0438\u0458\u0430","name:af":"Kolombi\u00eb","name:zu":"i-Colombia","name:ha":"Kolambiya","name:mn":"\u041a\u043e\u043b\u0443\u043c\u0431","name:ff":"Kolombiya","name:fi":"Kolumbia","name:hi":"\u0915\u094b\u0932\u092e\u094d\u092c\u093f\u092f\u093e","name:mg":"K\u00f4l\u00f4mbia","id":424314631,"official_name":"Rep\u00fablica de Colombia","name:fr":"Colombie","name:fy":"Kolombia","name:vo":"Kolumb\u00e4n","name:zh":"\u54e5\u4f26\u6bd4\u4e9a","name:so":"Kolombiya","name:sn":"Kolombia","name:sl":"Kolumbija","name:sk":"Kolumbia","name:ja":"\u30b3\u30ed\u30f3\u30d3\u30a2","name:si":"\u0d9a\u0ddc\u0dc5\u0ddc\u0db8\u0dca\u0db6\u0dd2\u0dba\u0dcf\u0dc0","name:fa":"\u06a9\u0644\u0645\u0628\u06cc\u0627","name:sg":"Kolomb\u00efi","name:na":"Korombiya","name:se":"Kolombia","name:ne":"\u0915\u094b\u0932\u094b\u092e\u094d\u092c\u093f\u092f\u093e","name:br":"Kolombia","name:bs":"Kolumbija","name:bm":"Kolombi","name:bn":"\u0995\u09cb\u09b2\u09cb\u09ae\u09cd\u09ac\u09bf\u09af\u09bc\u09be","name:bo":"\u0f40\u0f7c\u0f0b\u0f63\u0f7c\u0f58\u0f0b\u0f56\u0f72\u0f0b\u0f61\u0f0d","name:sa":"\u0915\u094b\u0932\u094b\u092e\u094d\u092c\u093f\u092f\u093e","name:sw":"Kolombia","name:be":"\u041a\u0430\u043b\u0443\u043c\u0431\u0456\u044f","name:su":"Kolombia","name:bg":"\u041a\u043e\u043b\u0443\u043c\u0431\u0438\u044f","name:wo":"Koloombi","name:sr":"\u041a\u043e\u043b\u0443\u043c\u0431\u0438\u0458\u0430","name:sq":"Kolumbi","name:ga":"An Chol\u00f3im","name:gd":"Coloimbia","name:ht":"Kolonbi","name:jv":"Kolombia","name:gv":"Yn Cholombey","name:gu":"\u0a95\u0acb\u0ab2\u0aae\u0acd\u0aac\u0abf\u0aaf\u0abe","name:tt":"\u041a\u043e\u043b\u0443\u043c\u0431\u0438\u044f"},"coordinates":[3616,2107]},{"type":"Point","properties":{"source":"naturalearthdata.com","kind":"locality","name":"Bogota","country_capital":true,"population":7772000,"min_zoom":2.0,"id":7277},"coordinates":[3397,3354]},{"type":"Point","properties":{"kind":"region","name":"Cundinamarca","kind_detail":"state","name:eo":"Kundinamarko","source":"openstreetmap.org","min_zoom":4.0,"name:ru":"\u041a\u0443\u043d\u0434\u0438\u043d\u0430\u043c\u0430\u0440\u043a\u0430","id":306394570,"population":9467562},"coordinates":[3337,3647]},{"type":"Point","properties":{"kind":"region","name":"Distrito Capital de Bogot\u00e1","kind_detail":"state","name:eo":"\u0108efurba Distrikto de Bogoto","name:de":"Hauptstadtdistrikt Bogot\u00e1","source":"openstreetmap.org","min_zoom":4.0,"name:ru":"\u0421\u0442\u043e\u043b\u0438\u0447\u043d\u044b\u0439 \u043e\u043a\u0440\u0443\u0433 \u0411\u043e\u0433\u043e\u0442\u0430","id":306394560,"population":7117984},"coordinates":[3325,3182]},{"type":"Point","properties":{"source":"naturalearthdata.com","kind":"locality","name":"Cali","population":2254000,"region_capital":true,"min_zoom":4.0,"id":7163},"coordinates":[1637,2481]},{"type":"Point","properties":{"kind":"region","name":"Nari\u00f1o","kind_detail":"state","name:eo":"Narino","source":"openstreetmap.org","min_zoom":4.0,"name:ru":"\u041d\u0430\u0440\u0438\u043d\u044c\u043e","id":306394524,"population":1775139},"coordinates":[546,1094]},{"type":"Point","properties":{"kind":"region","name":"Cauca","kind_detail":"state","name:eo":"Ka\u016dko","source":"openstreetmap.org","min_zoom":4.0,"name:ru":"\u041a\u0430\u0443\u043a\u0430","id":306394508,"population":1363054},"coordinates":[1520,1981]},{"type":"Point","properties":{"kind":"region","name":"Tolima","kind_detail":"state","name:eo":"Tolimo","source":"openstreetmap.org","min_zoom":4.0,"name:ru":"\u0422\u043e\u043b\u0438\u043c\u0430","id":306394523,"population":1312972},"coordinates":[2549,2735]},{"type":"Point","properties":{"name:ja":"\u30ab\u30eb\u30c0\u30b9","name:lt":"Kaldas","name:ko":"\uce7c\ub2e4\uc2a4","name:ar":"\u0643\u0627\u0644\u062f\u0627\u0633","name:eo":"Kaldaso","min_zoom":4.0,"name:uk":"\u041a\u0430\u043b\u044c\u0434\u0430\u0441","name:ru":"\u041a\u0430\u043b\u0434\u0430\u0441","id":306394562,"population":1170187,"name:el":"\u039a\u03b1\u03bb\u03b4\u03ac\u03c2","kind":"region","name":"Caldas","kind_detail":"state","source":"openstreetmap.org","name:zh":"\u5361\u5c14\u8fbe\u65af\u7701"},"coordinates":[2521,3888]},{"type":"Point","properties":{"kind":"region","name":"Risaralda","kind_detail":"state","name:eo":"Risaraldo","source":"openstreetmap.org","min_zoom":4.0,"name:ru":"\u0420\u0438\u0441\u0430\u0440\u0430\u043b\u044c\u0434\u0430","id":306394583,"population":1024362},"coordinates":[2014,3800]},{"type":"Point","properties":{"kind":"region","name":"Huila","kind_detail":"state","name:eo":"Ujlao","source":"openstreetmap.org","min_zoom":4.0,"name:ru":"\u0423\u0438\u043b\u0430","id":306394577,"population":994218},"coordinates":[2301,1804]},{"type":"Point","properties":{"kind":"region","name":"Quind\u00edo","kind_detail":"state","name:eo":"Kindio","source":"openstreetmap.org","min_zoom":4.0,"name:ru":"\u041a\u0438\u043d\u0434\u0438\u043e","id":306394556,"population":613375},"coordinates":[2204,3168]},{"type":"Point","properties":{"kind":"region","name":"Caquet\u00e1","kind_detail":"state","name:eo":"Kaketao","source":"openstreetmap.org","min_zoom":4.0,"name:ru":"\u041a\u0430\u043a\u044c\u0435\u0442\u0430","id":306394531,"population":463333},"coordinates":[3382,813]},{"type":"Point","properties":{"kind":"region","name":"Putumayo","kind_detail":"state","name:eo":"Putumajo","source":"openstreetmap.org","min_zoom":4.0,"name:ru":"\u041f\u0443\u0442\u0443\u043c\u0430\u0439\u043e","id":306394564,"population":378483},"coordinates":[2002,365]},{"type":"Point","properties":{"source":"openstreetmap.org","kind":"region","name":"Imbabura","name:ru":"\u0418\u043c\u0431\u0430\u0431\u0443\u0440\u0430","kind_detail":"state","min_zoom":4.0,"id":470293880},"coordinates":[287,274]},{"type":"Point","properties":{"source":"openstreetmap.org","kind":"region","name":"Carchi","name:ru":"\u041a\u0430\u0440\u0447\u0438","kind_detail":"state","min_zoom":4.0,"id":470295913},"coordinates":[395,611]},{"type":"Point","properties":{"source":"naturalearthdata.com","kind":"locality","name":"Pasto","population":382236,"region_capital":true,"min_zoom":5.0,"id":6495},"coordinates":[1070,885]},{"type":"Point","properties":{"source":"naturalearthdata.com","kind":"locality","name":"Manizales","population":375848,"region_capital":true,"min_zoom":5.0,"id":6494},"coordinates":[2352,3690]},{"type":"Point","properties":{"source":"naturalearthdata.com","kind":"locality","name":"Ibague","population":421685,"region_capital":true,"min_zoom":6.0,"id":5201},"coordinates":[2562,3238]},{"type":"Point","properties":{"source":"naturalearthdata.com","kind":"locality","name":"Villavicencio","population":374763,"region_capital":true,"min_zoom":6.0,"id":5205},"coordinates":[3725,3029]},{"type":"Point","properties":{"source":"naturalearthdata.com","kind":"locality","name":"Popayan","population":258750,"region_capital":true,"min_zoom":6.0,"id":5202},"coordinates":[1558,1765]}]},"transit":{"type":"GeometryCollection","geometries":[{"type":"LineString","properties":{"kind":"train","network":"FEEP","sort_rank":275,"state":"connection","source":"openstreetmap.org","min_zoom":6.0,"operator":"Ferrocarriles del Ecuador Empresa Publica","ref":"Tren de la Libertad","id":-2016134,"osm_relation":true,"name":"Salinas - Ibarra"},"arcs":[288]},{"type":"LineString","properties":{"kind":"train","network":"FEEP","sort_rank":275,"state":"connection","source":"openstreetmap.org","min_zoom":6.0,"operator":"Ferrocarriles del Ecuador Empresa Publica","ref":"Tren de la Libertad","id":-2016129,"osm_relation":true,"name":"Ibarra - Salinas"},"arcs":[289]}]},"pois":{"type":"GeometryCollection","geometries":[{"type":"Point","properties":{"kind":"national_park","protect_class":"2","area":2078280000,"source":"openstreetmap.org","min_zoom":5.28,"tier":1,"id":-912599,"osm_relation":true,"name":"Parque Nacional Natural Farallones de Cali"},"coordinates":[1372,2473]},{"type":"Point","properties":{"kind":"nature_reserve","protect_class":"4","area":2327860000,"source":"openstreetmap.org","min_zoom":6.7,"tier":2,"id":-225653,"osm_relation":true,"name":"Reserva Ecol\u00f3gica Cotacachi-Cayapas"},"coordinates":[55,433]},{"type":"Point","properties":{"kind":"nature_reserve","name":"Reserva Bioantropol\u00f3gica Aw\u00e1","area":1602640000,"source":"openstreetmap.org","min_zoom":6.97,"tier":2,"id":-180686,"osm_relation":true},"coordinates":[165,771]}]},"boundaries":{"type":"GeometryCollection","geometries":[{"type":"MultiLineString","properties":{"source":"naturalearthdata.com","kind":"country","sort_rank":262,"kind_detail":"2","min_zoom":0.0,"id":194},"arcs":[[0],[1],[2],[3],[4],[5],[6],[7],[8],[9],[10],[11],[12],[13],[14],[15],[16],[17],[18],[19],[20],[21],[22],[23],[24],[25],[26]]},{"type":"LineString","properties":{"source":"naturalearthdata.com","kind":"region","sort_rank":256,"kind_detail":"4","min_zoom":6.7,"id":4140},"arcs":[27]},{"type":"LineString","properties":{"source":"naturalearthdata.com","kind":"region","sort_rank":256,"kind_detail":"4","min_zoom":5.5,"id":4322},"arcs":[28]},{"type":"MultiLineString","properties":{"source":"naturalearthdata.com","kind":"region","sort_rank":256,"kind_detail":"4","min_zoom":5.5,"id":4324},"arcs":[[29],[30],[31]]},{"type":"LineString","properties":{"source":"naturalearthdata.com","kind":"region","sort_rank":256,"kind_detail":"4","min_zoom":5.5,"id":4332},"arcs":[32]},{"type":"LineString","properties":{"source":"naturalearthdata.com","kind":"region","sort_rank":256,"kind_detail":"4","min_zoom":5.5,"id":4333},"arcs":[33]},{"type":"LineString","properties":{"source":"naturalearthdata.com","kind":"region","sort_rank":256,"kind_detail":"4","min_zoom":5.5,"id":4340},"arcs":[34]},{"type":"MultiLineString","properties":{"source":"naturalearthdata.com","kind":"region","sort_rank":256,"kind_detail":"4","min_zoom":5.5,"id":4362},"arcs":[[35],[36],[37],[38]]},{"type":"MultiLineString","properties":{"source":"naturalearthdata.com","kind":"region","sort_rank":256,"kind_detail":"4","min_zoom":5.5,"id":4379},"arcs":[[39],[40]]},{"type":"LineString","properties":{"source":"naturalearthdata.com","kind":"region","sort_rank":256,"kind_detail":"4","min_zoom":6.7,"id":4139},"arcs":[41]},{"type":"LineString","properties":{"source":"naturalearthdata.com","kind":"region","sort_rank":256,"kind_detail":"4","min_zoom":6.7,"id":4146},"arcs":[42]},{"type":"MultiLineString","properties":{"source":"naturalearthdata.com","kind":"region","sort_rank":256,"kind_detail":"4","min_zoom":6.7,"id":4147},"arcs":[[43],[44],[45],[46],[47],[48],[49],[50],[51]]},{"type":"MultiLineString","properties":{"source":"naturalearthdata.com","kind":"region","sort_rank":256,"kind_detail":"4","min_zoom":6.7,"id":4148},"arcs":[[52],[53],[54]]},{"type":"LineString","properties":{"source":"naturalearthdata.com","kind":"region","sort_rank":256,"kind_detail":"4","min_zoom":6.7,"id":4163},"arcs":[55]},{"type":"MultiLineString","properties":{"source":"naturalearthdata.com","kind":"region","sort_rank":256,"kind_detail":"4","min_zoom":6.7,"id":4164},"arcs":[[56],[57],[58]]},{"type":"MultiLineString","properties":{"source":"naturalearthdata.com","kind":"region","sort_rank":256,"kind_detail":"4","min_zoom":6.7,"id":4170},"arcs":[[59],[60],[61],[62]]},{"type":"MultiLineString","properties":{"source":"naturalearthdata.com","kind":"region","sort_rank":256,"kind_detail":"4","min_zoom":6.7,"id":4173},"arcs":[[63],[64],[65]]},{"type":"LineString","properties":{"source":"naturalearthdata.com","kind":"region","sort_rank":256,"kind_detail":"4","min_zoom":5.5,"id":4368},"arcs":[66]},{"type":"MultiLineString","properties":{"source":"naturalearthdata.com","kind":"region","sort_rank":256,"kind_detail":"4","min_zoom":5.5,"id":4313},"arcs":[[67],[68],[69],[70]]},{"type":"LineString","properties":{"source":"naturalearthdata.com","kind":"region","sort_rank":256,"kind_detail":"4","min_zoom":5.5,"id":4314},"arcs":[71]},{"type":"MultiLineString","properties":{"source":"naturalearthdata.com","kind":"region","sort_rank":256,"kind_detail":"4","min_zoom":5.5,"id":4323},"arcs":[[72],[73],[74],[75],[76],[77],[78],[79],[80],[81],[82],[83],[84],[85],[86],[87],[88],[89],[90]]},{"type":"MultiLineString","properties":{"source":"naturalearthdata.com","kind":"region","sort_rank":256,"kind_detail":"4","min_zoom":5.5,"id":4326},"arcs":[[91],[92],[93]]},{"type":"MultiLineString","properties":{"source":"naturalearthdata.com","kind":"region","sort_rank":256,"kind_detail":"4","min_zoom":5.5,"id":4336},"arcs":[[94],[95],[96],[97],[98],[99],[100],[101],[102],[103]]},{"type":"MultiLineString","properties":{"source":"naturalearthdata.com","kind":"region","sort_rank":256,"kind_detail":"4","min_zoom":5.5,"id":4330},"arcs":[[104],[105],[106],[107],[108],[109],[110],[111],[112],[113],[114]]},{"type":"MultiLineString","properties":{"source":"naturalearthdata.com","kind":"region","sort_rank":256,"kind_detail":"4","min_zoom":5.5,"id":4331},"arcs":[[115],[116],[117],[118],[119],[120],[121],[122],[123]]},{"type":"MultiLineString","properties":{"source":"naturalearthdata.com","kind":"region","sort_rank":256,"kind_detail":"4","min_zoom":5.5,"id":4334},"arcs":[[124],[125],[126],[127],[128],[129],[130],[131],[132],[133],[134],[135],[136],[137]]},{"type":"LineString","properties":{"source":"naturalearthdata.com","kind":"region","sort_rank":256,"kind_detail":"4","min_zoom":5.5,"id":4335},"arcs":[138]},{"type":"MultiLineString","properties":{"source":"naturalearthdata.com","kind":"region","sort_rank":256,"kind_detail":"4","min_zoom":5.5,"id":4337},"arcs":[[139],[140],[141],[142],[143],[144],[145],[146],[147],[148],[149],[150]]},{"type":"MultiLineString","properties":{"source":"naturalearthdata.com","kind":"region","sort_rank":256,"kind_detail":"4","min_zoom":5.5,"id":4338},"arcs":[[151],[152],[153],[154],[155],[156],[157],[158],[159]]},{"type":"MultiLineString","properties":{"source":"naturalearthdata.com","kind":"region","sort_rank":256,"kind_detail":"4","min_zoom":5.5,"id":4339},"arcs":[[160],[161],[162],[163],[164],[165],[166],[167],[168],[169],[170],[171],[172],[173],[174],[175],[176]]},{"type":"MultiLineString","properties":{"source":"naturalearthdata.com","kind":"region","sort_rank":256,"kind_detail":"4","min_zoom":5.5,"id":4341},"arcs":[[177],[178],[179],[180],[181]]},{"type":"MultiLineString","properties":{"source":"naturalearthdata.com","kind":"region","sort_rank":256,"kind_detail":"4","min_zoom":5.5,"id":4346},"arcs":[[182],[183],[184],[185],[186],[187],[188],[189],[190],[191],[192],[193]]},{"type":"MultiLineString","properties":{"source":"naturalearthdata.com","kind":"region","sort_rank":256,"kind_detail":"4","min_zoom":5.5,"id":4347},"arcs":[[194],[195],[196],[197],[198]]},{"type":"MultiLineString","properties":{"source":"naturalearthdata.com","kind":"region","sort_rank":256,"kind_detail":"4","min_zoom":5.5,"id":4348},"arcs":[[199],[200],[201],[202],[203],[204],[205],[206],[207]]},{"type":"MultiLineString","properties":{"source":"naturalearthdata.com","kind":"region","sort_rank":256,"kind_detail":"4","min_zoom":5.5,"id":4349},"arcs":[[208],[209],[210]]},{"type":"LineString","properties":{"source":"naturalearthdata.com","kind":"region","sort_rank":256,"kind_detail":"4","min_zoom":5.5,"id":4350},"arcs":[211]},{"type":"MultiLineString","properties":{"source":"naturalearthdata.com","kind":"region","sort_rank":256,"kind_detail":"4","min_zoom":5.5,"id":4351},"arcs":[[212],[213],[214],[215],[216],[217],[218]]},{"type":"MultiLineString","properties":{"source":"naturalearthdata.com","kind":"region","sort_rank":256,"kind_detail":"4","min_zoom":5.5,"id":4352},"arcs":[[219],[220],[221],[222],[223],[224],[225],[226],[227],[228],[229]]},{"type":"LineString","properties":{"source":"naturalearthdata.com","kind":"region","sort_rank":256,"kind_detail":"4","min_zoom":5.5,"id":4353},"arcs":[230]},{"type":"MultiLineString","properties":{"source":"naturalearthdata.com","kind":"region","sort_rank":256,"kind_detail":"4","min_zoom":5.5,"id":4354},"arcs":[[231],[232],[233]]},{"type":"MultiLineString","properties":{"source":"naturalearthdata.com","kind":"region","sort_rank":256,"kind_detail":"4","min_zoom":5.5,"id":4355},"arcs":[[234],[235],[236],[237],[238],[239],[240]]},{"type":"MultiLineString","properties":{"source":"naturalearthdata.com","kind":"region","sort_rank":256,"kind_detail":"4","min_zoom":5.5,"id":4356},"arcs":[[241],[242],[243],[244],[245],[246],[247],[248],[249],[250],[251],[252],[253],[254],[255],[256],[257],[258],[259]]},{"type":"MultiLineString","properties":{"source":"naturalearthdata.com","kind":"region","sort_rank":256,"kind_detail":"4","min_zoom":5.5,"id":4369},"arcs":[[260],[261],[262],[263],[264],[265],[266],[267],[268],[269],[270],[271],[272],[273],[274],[275]]},{"type":"MultiLineString","properties":{"source":"naturalearthdata.com","kind":"region","sort_rank":256,"kind_detail":"4","min_zoom":5.5,"id":4377},"arcs":[[276],[277],[278],[279],[280],[281],[282],[283],[284],[285],[286]]},{"type":"LineString","properties":{"source":"naturalearthdata.com","kind":"region","sort_rank":256,"kind_detail":"4","min_zoom":5.5,"id":4381},"arcs":[287]}]},"roads":{"type":"GeometryCollection","geometries":[{"type":"LineString","properties":{"source":"naturalearthdata.com","kind":"major_road","sort_rank":379,"kind_detail":"secondary","min_zoom":3.0,"id":40112},"arcs":[304]},{"type":"LineString","properties":{"source":"naturalearthdata.com","kind":"major_road","sort_rank":379,"kind_detail":"secondary","min_zoom":3.0,"id":40135},"arcs":[305]},{"type":"LineString","properties":{"source":"naturalearthdata.com","kind":"major_road","sort_rank":379,"kind_detail":"secondary","min_zoom":3.0,"id":40186},"arcs":[306]},{"type":"LineString","properties":{"source":"naturalearthdata.com","kind":"major_road","sort_rank":379,"kind_detail":"secondary","min_zoom":3.0,"id":40245},"arcs":[307]},{"type":"LineString","properties":{"source":"naturalearthdata.com","kind":"major_road","sort_rank":379,"kind_detail":"secondary","min_zoom":4.0,"id":40290},"arcs":[308]},{"type":"LineString","properties":{"source":"naturalearthdata.com","kind":"major_road","sort_rank":379,"kind_detail":"secondary","min_zoom":3.0,"id":40299},"arcs":[309]},{"type":"LineString","properties":{"source":"naturalearthdata.com","kind":"major_road","sort_rank":379,"kind_detail":"secondary","min_zoom":4.0,"id":40348},"arcs":[310]},{"type":"LineString","properties":{"source":"naturalearthdata.com","kind":"major_road","sort_rank":379,"kind_detail":"secondary","min_zoom":3.0,"id":40352},"arcs":[311]},{"type":"LineString","properties":{"source":"naturalearthdata.com","kind":"major_road","sort_rank":379,"kind_detail":"secondary","min_zoom":4.0,"id":40355},"arcs":[312]},{"type":"MultiLineString","properties":{"source":"naturalearthdata.com","kind":"major_road","kind_detail":"secondary","sort_rank":379,"landuse_kind":"park","min_zoom":4.0,"id":40362},"arcs":[[313],[314]]},{"type":"LineString","properties":{"source":"naturalearthdata.com","kind":"major_road","kind_detail":"secondary","sort_rank":379,"landuse_kind":"urban_area","min_zoom":4.0,"id":40362},"arcs":[315]},{"type":"MultiLineString","properties":{"source":"naturalearthdata.com","kind":"major_road","sort_rank":379,"kind_detail":"secondary","min_zoom":4.0,"id":40362},"arcs":[[316],[317],[318],[319]]},{"type":"LineString","properties":{"source":"naturalearthdata.com","kind":"major_road","sort_rank":379,"kind_detail":"secondary","min_zoom":3.0,"id":40372},"arcs":[320]},{"type":"LineString","properties":{"source":"naturalearthdata.com","kind":"major_road","sort_rank":379,"kind_detail":"secondary","min_zoom":3.0,"id":40383},"arcs":[321]},{"type":"LineString","properties":{"source":"naturalearthdata.com","kind":"major_road","kind_detail":"secondary","sort_rank":379,"landuse_kind":"urban_area","min_zoom":4.0,"id":40384},"arcs":[322]},{"type":"LineString","properties":{"source":"naturalearthdata.com","kind":"major_road","sort_rank":379,"kind_detail":"secondary","min_zoom":4.0,"id":40384},"arcs":[323]},{"type":"LineString","properties":{"source":"naturalearthdata.com","kind":"major_road","kind_detail":"secondary","sort_rank":379,"landuse_kind":"urban_area","min_zoom":4.0,"id":40392},"arcs":[324]},{"type":"LineString","properties":{"source":"naturalearthdata.com","kind":"major_road","sort_rank":379,"kind_detail":"secondary","min_zoom":4.0,"id":40392},"arcs":[325]},{"type":"LineString","properties":{"source":"naturalearthdata.com","kind":"major_road","sort_rank":379,"kind_detail":"secondary","min_zoom":4.0,"id":40393},"arcs":[326]},{"type":"LineString","properties":{"source":"naturalearthdata.com","kind":"major_road","sort_rank":379,"kind_detail":"secondary","min_zoom":3.0,"id":40417},"arcs":[327]},{"type":"LineString","properties":{"source":"naturalearthdata.com","kind":"major_road","sort_rank":379,"kind_detail":"secondary","min_zoom":4.0,"id":40421},"arcs":[328]},{"type":"LineString","properties":{"source":"naturalearthdata.com","kind":"major_road","kind_detail":"secondary","sort_rank":379,"landuse_kind":"urban_area","min_zoom":3.0,"id":40431},"arcs":[329]},{"type":"LineString","properties":{"source":"naturalearthdata.com","kind":"major_road","sort_rank":379,"kind_detail":"secondary","min_zoom":3.0,"id":40431},"arcs":[330]},{"type":"LineString","properties":{"source":"naturalearthdata.com","kind":"major_road","kind_detail":"secondary","sort_rank":379,"landuse_kind":"urban_area","min_zoom":3.0,"id":40457},"arcs":[331]},{"type":"LineString","properties":{"source":"naturalearthdata.com","kind":"major_road","kind_detail":"secondary","sort_rank":379,"landuse_kind":"urban_area","min_zoom":4.0,"id":40458},"arcs":[332]},{"type":"LineString","properties":{"source":"naturalearthdata.com","kind":"major_road","sort_rank":379,"kind_detail":"secondary","min_zoom":4.0,"id":40458},"arcs":[333]},{"type":"LineString","properties":{"source":"naturalearthdata.com","kind":"major_road","sort_rank":379,"kind_detail":"secondary","min_zoom":3.0,"id":40479},"arcs":[334]},{"type":"LineString","properties":{"source":"naturalearthdata.com","kind":"major_road","kind_detail":"secondary","sort_rank":379,"landuse_kind":"urban_area","min_zoom":3.0,"id":40506},"arcs":[335]},{"type":"LineString","properties":{"source":"naturalearthdata.com","kind":"major_road","sort_rank":379,"kind_detail":"secondary","min_zoom":3.0,"id":40506},"arcs":[336]},{"type":"LineString","properties":{"source":"naturalearthdata.com","kind":"major_road","kind_detail":"secondary","sort_rank":379,"landuse_kind":"urban_area","min_zoom":3.0,"id":40508},"arcs":[337]},{"type":"LineString","properties":{"source":"naturalearthdata.com","kind":"major_road","sort_rank":379,"kind_detail":"secondary","min_zoom":3.0,"id":40508},"arcs":[338]},{"type":"LineString","properties":{"source":"naturalearthdata.com","kind":"minor_road","sort_rank":355,"kind_detail":"tertiary","min_zoom":6.0,"id":40533},"arcs":[339]},{"type":"LineString","properties":{"source":"naturalearthdata.com","kind":"major_road","sort_rank":379,"kind_detail":"secondary","min_zoom":3.0,"id":40538},"arcs":[340]},{"type":"LineString","properties":{"source":"naturalearthdata.com","kind":"major_road","sort_rank":379,"kind_detail":"secondary","min_zoom":3.0,"id":40539},"arcs":[341]},{"type":"LineString","properties":{"source":"naturalearthdata.com","kind":"major_road","kind_detail":"secondary","sort_rank":379,"landuse_kind":"urban_area","min_zoom":3.0,"id":40551},"arcs":[342]},{"type":"LineString","properties":{"source":"naturalearthdata.com","kind":"major_road","sort_rank":379,"kind_detail":"secondary","min_zoom":3.0,"id":40551},"arcs":[343]},{"type":"LineString","properties":{"source":"naturalearthdata.com","kind":"major_road","kind_detail":"secondary","sort_rank":379,"landuse_kind":"urban_area","min_zoom":4.0,"id":40564},"arcs":[344]},{"type":"LineString","properties":{"source":"naturalearthdata.com","kind":"major_road","sort_rank":379,"kind_detail":"secondary","min_zoom":4.0,"id":40564},"arcs":[345]},{"type":"LineString","properties":{"source":"naturalearthdata.com","kind":"minor_road","sort_rank":355,"kind_detail":"tertiary","min_zoom":6.0,"id":40565},"arcs":[346]},{"type":"LineString","properties":{"source":"naturalearthdata.com","kind":"major_road","sort_rank":379,"kind_detail":"secondary","min_zoom":3.0,"id":40570},"arcs":[347]},{"type":"LineString","properties":{"source":"naturalearthdata.com","kind":"major_road","sort_rank":379,"kind_detail":"secondary","min_zoom":3.0,"id":40571},"arcs":[348]},{"type":"LineString","properties":{"source":"naturalearthdata.com","kind":"major_road","sort_rank":379,"kind_detail":"secondary","min_zoom":4.0,"id":40595},"arcs":[349]},{"type":"LineString","properties":{"source":"naturalearthdata.com","kind":"major_road","sort_rank":379,"kind_detail":"secondary","min_zoom":3.0,"id":40629},"arcs":[350]},{"type":"LineString","properties":{"source":"naturalearthdata.com","kind":"minor_road","sort_rank":355,"kind_detail":"tertiary","min_zoom":6.0,"id":40633},"arcs":[351]},{"type":"LineString","properties":{"source":"naturalearthdata.com","kind":"minor_road","sort_rank":355,"kind_detail":"tertiary","min_zoom":6.0,"id":40710},"arcs":[352]},{"type":"LineString","properties":{"source":"naturalearthdata.com","kind":"major_road","sort_rank":379,"kind_detail":"secondary","min_zoom":3.0,"id":40729},"arcs":[353]},{"type":"LineString","properties":{"source":"naturalearthdata.com","kind":"minor_road","kind_detail":"tertiary","sort_rank":355,"landuse_kind":"urban_area","min_zoom":6.0,"id":40749},"arcs":[354]},{"type":"LineString","properties":{"source":"naturalearthdata.com","kind":"minor_road","sort_rank":355,"kind_detail":"tertiary","min_zoom":6.0,"id":40749},"arcs":[355]},{"type":"LineString","properties":{"source":"naturalearthdata.com","kind":"major_road","kind_detail":"secondary","sort_rank":379,"landuse_kind":"urban_area","min_zoom":3.0,"id":40750},"arcs":[356]},{"type":"LineString","properties":{"source":"naturalearthdata.com","kind":"major_road","sort_rank":379,"kind_detail":"secondary","min_zoom":3.0,"id":40750},"arcs":[357]},{"type":"LineString","properties":{"source":"naturalearthdata.com","kind":"major_road","kind_detail":"secondary","sort_rank":379,"landuse_kind":"urban_area","min_zoom":3.0,"id":40809},"arcs":[358]},{"type":"LineString","properties":{"source":"naturalearthdata.com","kind":"major_road","sort_rank":379,"kind_detail":"secondary","min_zoom":3.0,"id":40809},"arcs":[359]},{"type":"LineString","properties":{"source":"naturalearthdata.com","kind":"major_road","sort_rank":379,"kind_detail":"secondary","min_zoom":3.0,"id":40848},"arcs":[360]},{"type":"LineString","properties":{"source":"naturalearthdata.com","kind":"major_road","sort_rank":379,"kind_detail":"secondary","min_zoom":3.0,"id":40957},"arcs":[361]},{"type":"LineString","properties":{"source":"naturalearthdata.com","kind":"major_road","sort_rank":379,"kind_detail":"secondary","min_zoom":3.0,"id":40972},"arcs":[362]},{"type":"LineString","properties":{"source":"naturalearthdata.com","kind":"major_road","sort_rank":379,"kind_detail":"secondary","min_zoom":3.0,"id":41084},"arcs":[363]},{"type":"LineString","properties":{"source":"naturalearthdata.com","kind":"minor_road","sort_rank":355,"kind_detail":"tertiary","min_zoom":6.0,"id":41218},"arcs":[364]},{"type":"LineString","properties":{"source":"naturalearthdata.com","kind":"major_road","sort_rank":379,"kind_detail":"secondary","min_zoom":3.0,"id":41241},"arcs":[365]},{"type":"LineString","properties":{"source":"naturalearthdata.com","kind":"major_road","sort_rank":379,"kind_detail":"secondary","min_zoom":3.0,"id":41289},"arcs":[366]},{"type":"LineString","properties":{"source":"naturalearthdata.com","kind":"minor_road","sort_rank":355,"kind_detail":"tertiary","min_zoom":6.0,"id":41290},"arcs":[367]},{"type":"LineString","properties":{"source":"naturalearthdata.com","kind":"minor_road","sort_rank":355,"kind_detail":"tertiary","min_zoom":6.0,"id":41291},"arcs":[368]},{"type":"LineString","properties":{"source":"naturalearthdata.com","kind":"major_road","sort_rank":379,"kind_detail":"secondary","min_zoom":3.0,"id":41326},"arcs":[369]},{"type":"LineString","properties":{"source":"naturalearthdata.com","kind":"minor_road","sort_rank":355,"kind_detail":"tertiary","min_zoom":6.0,"id":41375},"arcs":[370]},{"type":"LineString","properties":{"source":"naturalearthdata.com","kind":"major_road","sort_rank":379,"kind_detail":"secondary","min_zoom":3.0,"id":41407},"arcs":[371]},{"type":"LineString","properties":{"source":"naturalearthdata.com","kind":"minor_road","sort_rank":355,"kind_detail":"tertiary","min_zoom":6.0,"id":41422},"arcs":[372]},{"type":"LineString","properties":{"source":"naturalearthdata.com","kind":"major_road","sort_rank":379,"kind_detail":"secondary","min_zoom":3.0,"id":41433},"arcs":[373]},{"type":"LineString","properties":{"source":"naturalearthdata.com","kind":"major_road","sort_rank":379,"kind_detail":"secondary","min_zoom":3.0,"id":41453},"arcs":[374]},{"type":"LineString","properties":{"source":"naturalearthdata.com","kind":"major_road","sort_rank":379,"kind_detail":"secondary","min_zoom":3.0,"id":41487},"arcs":[375]},{"type":"LineString","properties":{"source":"naturalearthdata.com","kind":"major_road","sort_rank":379,"kind_detail":"secondary","min_zoom":3.0,"id":41549},"arcs":[376]}]},"earth":{"type":"GeometryCollection","geometries":[{"type":"MultiPolygon","properties":{"sort_rank":10,"source":"naturalearthdata.com","min_zoom":0.0,"kind":"earth","area":1367660642592},"arcs":[[[377]],[[378]],[[379]],[[380]],[[381]],[[382]]]}]},"landuse":{"type":"GeometryCollection","geometries":[{"type":"MultiPolygon","properties":{"kind":"national_park","protect_class":"2","area":29673717228,"sort_rank":18,"source":"openstreetmap.org","min_zoom":3.0,"tier":1,"osm_relation":true},"arcs":[[[383]],[[384]]]},{"type":"MultiPolygon","properties":{"source":"openstreetmap.org","kind":"park","tier":2,"area":14096976965,"sort_rank":24,"min_zoom":6.0,"osm_relation":true},"arcs":[[[385]],[[386]],[[387],[388]],[[389]],[[390],[391]],[[392]],[[393]],[[394]]]},{"type":"MultiPolygon","properties":{"source":"openstreetmap.org","kind":"park","tier":2,"area":5519688028,"sort_rank":24,"min_zoom":6.0},"arcs":[[[395]],[[396]],[[397]]]},{"type":"MultiPolygon","properties":{"source":"naturalearthdata.com","kind":"urban_area","name":"","area":3422207656,"sort_rank":11,"min_zoom":4.0},"arcs":[[[398]],[[399]],[[400]],[[401]],[[402]],[[403]],[[404]]]},{"type":"Polygon","properties":{"kind":"nature_reserve","protect_class":"4","area":2327859968,"sort_rank":23,"source":"openstreetmap.org","min_zoom":4.0,"tier":2,"id":-225653,"osm_relation":true},"arcs":[[405]]},{"type":"MultiPolygon","properties":{"kind":"protected_area","protect_class":"24","area":450224447,"sort_rank":17,"source":"openstreetmap.org","min_zoom":6.0,"tier":2,"osm_relation":true},"arcs":[[[406]]]},{"type":"Polygon","properties":{"kind":"nature_reserve","area":1602640000,"sort_rank":23,"source":"openstreetmap.org","min_zoom":4.0,"tier":2,"id":-180686,"osm_relation":true},"arcs":[[407]]},{"type":"MultiPolygon","properties":{"source":"openstreetmap.org","kind":"park","tier":2,"area":83176777752,"sort_rank":24,"min_zoom":4.0,"osm_relation":true},"arcs":[[[408]],[[409]],[[410]],[[411]],[[412]],[[413]],[[414]],[[415],[416],[417],[418],[419],[420]],[[421]]]},{"type":"Polygon","properties":{"kind":"nature_reserve","area":160638000,"sort_rank":23,"source":"openstreetmap.org","min_zoom":6.0,"tier":2,"id":-225625,"osm_relation":true},"arcs":[[422]]}]}},"type":"Topology","transform":{"translate":[-78.75,-0.0],"scale":[0.001373291,0.0013710903]},"arcs":[[[0,996],[1,-1],[21,-17],[8,-12],[7,-16],[11,-15],[14,-11],[17,-5]],[[101,924],[7,-2],[1,-14],[3,-8],[15,-16],[4,-12]],[[79,919],[12,1],[10,4]],[[152,879],[41,-9],[5,-4],[8,-7],[69,-76],[17,-13],[14,-7],[43,-11],[15,-8],[95,-72],[30,-15],[52,-2],[50,-19],[7,0]],[[131,872],[11,6],[10,1]],[[602,638],[4,0],[7,-8],[2,-7],[0,-8],[2,-8],[7,-7],[17,-6],[16,-4],[15,0]],[[598,636],[4,2]],[[744,615],[18,0],[22,-17],[5,-53],[15,-23],[48,-33],[27,-10]],[[672,590],[14,3],[58,22]],[[903,482],[30,-7],[10,-36],[5,-76],[7,-25],[3,-22],[7,-18],[20,-15],[25,-10],[78,-15],[14,-5],[10,-6],[12,-3]],[[879,479],[21,3],[3,0]],[[1784,337],[7,-4],[20,-21],[14,-9],[15,-6],[15,-4],[18,-1]],[[1706,292],[16,1],[8,1],[6,3],[19,21],[4,4],[3,2],[14,10],[8,3]],[[1699,293],[7,-1]],[[1591,158],[10,1],[19,10],[73,8],[12,9],[-7,48],[2,54],[-1,5]],[[1889,293],[8,-1],[6,-3],[5,-7],[4,-20],[3,-5]],[[1873,292],[16,1]],[[1964,265],[7,-11],[3,-8],[49,-62],[3,-9],[3,-14],[8,-12],[19,-17],[44,-27],[6,-10],[29,-22],[21,-11],[12,-5],[14,-4],[16,-1]],[[1915,257],[14,0],[18,6],[17,2]],[[1189,261],[10,-3],[15,-4],[28,-31],[21,-7],[30,-1],[9,-1],[12,-5],[7,-5],[16,-16],[12,-9],[11,-4],[11,0]],[[1124,244],[15,1],[37,13],[13,3]],[[1475,202],[25,-6],[36,-4],[10,-3],[12,-9],[19,-18],[14,-4]],[[1457,170],[11,0],[-2,29],[9,3]],[[1422,182],[9,-1],[26,-11]],[[1371,175],[51,7]],[[2260,62],[14,-4],[12,-11],[9,-10],[8,-5],[13,-4],[31,-28]],[[2198,52],[17,1],[31,8],[14,1]],[[586,118],[25,27],[11,7],[3,1],[4,1],[3,2],[3,2],[3,4],[14,19],[9,10],[3,3],[2,2],[1,3],[-2,3],[-2,1],[-2,0],[-2,1],[-1,0],[-2,1],[-1,0],[0,2],[-1,1],[0,5],[4,10],[24,29]],[[3099,2702],[-3,-22],[-16,-39],[-16,-27],[-54,-72],[-8,-26],[-4,-30],[-3,-60],[-4,-25],[-7,-23],[-21,-37],[-13,-11],[-36,-23],[-18,-19],[-21,-10],[-17,-12],[-7,-10],[-25,-43],[-20,-56],[-1,-5]],[[2805,2152],[73,-23],[34,-5],[15,-4],[13,-7],[9,-9],[7,-11],[20,-54],[12,-16],[14,-14],[14,-10],[9,-14],[0,-26],[-41,-161],[-4,-37],[-1,-23],[3,-26],[7,-21],[11,-19],[44,-49],[12,-16],[7,-16],[1,-14],[-5,-14],[-11,-15],[-16,-17],[-14,-19],[-8,-22],[0,-25],[7,-34],[16,-34],[25,-32],[29,-20],[432,-153],[20,-2],[27,-1]],[[3635,1195],[60,-10]],[[3566,1189],[69,6]],[[2176,2975],[37,43],[12,20],[6,11],[15,20],[5,13],[16,13],[17,25],[9,14],[8,45],[6,50],[17,35],[21,27],[12,34],[6,8],[16,18],[35,18],[5,6],[4,7],[4,17],[20,36],[-1,5]],[[3048,2751],[25,-30],[26,-19]],[[2446,3440],[9,61]],[[1067,3071],[0,-5],[1,-5],[0,-3],[-3,-4],[-3,-3],[-5,-3],[-5,-2]],[[1052,3046],[-5,2],[-3,2],[-9,9],[-7,2]],[[1028,3061],[-9,-2],[-32,-25],[-29,-5],[-1,0]],[[957,3029]],[[1972,4068],[21,-11],[9,-17],[13,-13],[16,-10],[26,-10],[33,-5]],[[2090,4002],[16,2]],[[703,0],[1,2],[1,1],[1,1],[0,1],[1,2],[0,1],[0,2],[0,2],[-7,3],[-32,8]],[[648,0],[2,1],[9,6],[9,16]],[[280,122],[-1,3],[1,5],[4,13],[1,7],[-2,9],[-2,7],[-4,6],[-12,5],[-20,2]],[[245,179],[-39,-2],[-38,-8]],[[87,157],[-16,0],[-71,15]],[[168,169],[-10,1]],[[158,170],[-16,-4],[-38,-5],[-8,-2],[-9,-2]],[[586,118],[-84,26],[-12,0]],[[490,144],[-10,-5],[-16,-14],[-13,-7],[-32,-15],[-20,-5],[-18,-1]],[[381,97],[-20,7],[-13,6],[-12,8],[-15,14],[-8,5],[-8,2]],[[305,139],[-8,-4],[-13,-12],[-4,-1]],[[586,118],[-18,-31],[-1,-1],[0,-1],[1,-1],[1,-1],[3,-1],[8,-3],[8,-3],[2,0]],[[594,77],[2,0],[19,-10],[10,-4],[3,-1],[3,0],[4,-2],[10,-6],[4,-3],[2,-4],[2,-7],[1,-8],[1,-1],[1,-2],[3,-3],[9,-3]],[[590,76],[1,0],[3,1]],[[224,636],[10,-5],[15,-4],[26,-3],[9,-2],[6,-4],[13,-12],[33,-21],[22,-19],[18,-22],[19,-32],[28,-37],[16,-42],[0,-6],[-1,-21],[1,-14],[4,-12],[8,-11],[28,-5],[4,-5],[10,-6],[14,-4],[13,-1],[26,-6],[33,-19],[29,-21],[35,-19],[8,-6],[13,-16],[18,-9]],[[859,456],[12,3],[26,20],[3,3]],[[793,468],[4,0],[6,-1],[11,-4],[7,-1],[20,0],[4,0],[14,-6]],[[682,252],[16,19],[3,9],[-2,9],[-1,7],[2,12],[4,9],[6,10],[50,64],[6,6],[27,20],[5,5],[3,5],[0,2],[-1,4],[-2,3],[-4,4],[-8,6],[-2,4],[-1,5],[2,7],[2,4],[2,2],[4,0]],[[209,393],[10,2],[8,3],[5,4],[4,5],[2,10],[-1,11],[-6,12],[-19,24],[-4,7],[-4,8],[-5,22],[-3,7],[-22,40],[-2,6],[2,5],[7,4],[6,1],[14,1],[6,2],[5,3],[6,5],[4,9],[2,11],[-1,14],[1,27]],[[190,396],[12,-2],[7,-1]],[[54,271],[6,1],[5,2],[12,10],[12,13],[24,32],[25,26],[10,14],[5,7],[24,16],[7,3],[6,1]],[[0,297],[8,-2],[8,0],[6,-1],[6,-3],[5,-4],[11,-10],[6,-4],[4,-2]],[[176,666],[-8,9],[-3,2],[-6,13],[-2,13],[3,42],[4,14],[18,28],[4,16],[0,23],[-2,13],[0,10],[1,5],[13,12]],[[224,636],[-3,2],[-12,8],[-14,14],[-11,7]],[[184,667],[-8,-1]],[[1947,3673],[1,35],[-11,19],[1,21],[-7,26],[-60,98],[-2,31],[13,42],[15,12],[38,22],[8,40],[1,20],[28,29]],[[2617,1841],[25,7],[62,48],[24,28],[6,13],[-6,21],[-16,18],[-17,11],[-6,18],[3,14],[9,23],[15,26],[32,41],[28,26],[11,11],[6,3],[12,3]],[[2579,1857],[9,-1],[21,-12],[8,-3]],[[1998,1138],[19,3],[14,6],[14,13],[11,15],[14,14],[38,27],[10,10],[10,17],[14,17],[48,52],[35,49],[50,72],[54,50],[55,88],[23,38],[17,30],[15,13],[34,24],[8,4],[27,30],[10,16],[10,22],[23,82],[11,16],[9,9],[8,2]],[[1897,1149],[46,-7],[37,-2],[18,-2]],[[4096,684],[-7,3],[-17,9],[-13,10],[-8,11],[-4,10],[-5,9],[-8,6],[-27,8],[-20,25],[-73,65],[-37,42],[-3,18],[0,16],[-1,10],[-9,24],[-7,11],[-11,14],[-11,20],[-10,12],[-37,29],[-12,12],[-73,107],[-2,10],[-6,20]],[[4096,1746],[-4,-3],[0,-11],[-3,-6],[-7,-3],[-7,-1]],[[4042,1737],[-12,5]],[[4030,1742],[-23,-12],[-1,-4],[5,-6],[0,-6],[-6,-5],[-18,-1],[-13,-3]],[[3767,1722],[-6,1],[-5,5],[0,6],[-1,6],[-4,0]],[[3751,1740],[-6,-2],[-8,-6],[-6,-6],[0,-8],[1,-6],[0,-6],[-4,-5],[-6,-8],[-6,-14],[-6,-6],[-4,-29],[2,-94],[-2,-352],[-11,-13]],[[3876,1700],[-3,1],[-3,5],[0,10],[1,7],[-8,17]],[[3863,1740],[-4,-23],[-3,-5]],[[4075,1722],[-6,4],[-1,6],[-3,6],[-4,2]],[[4061,1740],[-19,-3]],[[3815,1716],[-4,4],[-7,14],[-3,4],[-5,0]],[[3796,1738],[-22,-13],[-7,-3]],[[3856,1712],[-6,1],[-4,4],[-7,2]],[[3839,1719],[-24,-3]],[[3936,1698],[-2,5],[1,10],[-4,4]],[[3931,1717],[-9,0],[-3,-6],[-3,-7],[-3,-5]],[[3974,1705],[-18,7]],[[3956,1712],[-6,-2],[-3,-5],[-5,-5],[-6,-2]],[[3913,1699],[-4,0],[-4,7],[-6,4]],[[3899,1710],[-12,-1],[-6,-5],[-5,-4]],[[3346,2923],[-39,9]],[[3307,2932],[-11,-8],[-14,-29],[-10,-16],[-18,-22],[-14,-13],[-7,-9],[0,-7],[1,-9],[-6,-16],[-15,-24],[-47,-58],[-9,-21],[-5,-6],[-1,-4],[-4,-6],[-5,-3]],[[3142,2681],[-21,1],[-22,20]],[[4096,3134],[-4,-24],[-2,-18],[-3,-7],[-5,-3]],[[3710,3275],[-7,6],[-3,5],[-5,5],[-8,4],[-8,3]],[[3679,3298],[-9,-3],[-7,-6],[-10,-17],[-5,-10],[-16,-8],[-18,-9],[-5,-3],[-8,-10],[-4,-8],[-2,-15],[10,-10],[8,-39],[-1,-14],[0,-7],[2,-8],[11,-11],[6,-12],[0,-11],[1,-8],[8,-24],[-21,-1]],[[3832,3126],[-10,2],[-8,4],[-11,4],[-8,5],[-7,6],[-3,4],[-1,9],[-16,35],[-4,20],[0,10],[-3,6],[-10,14],[-9,10],[-8,15],[-7,3],[-6,2]],[[3721,3275],[-11,0]],[[4082,3082],[-11,5],[-19,13],[-9,5],[-3,3],[-5,9],[-9,7],[-16,6],[-89,22]],[[3921,3152],[-46,-4],[-19,-15],[-12,-5],[-12,-2]],[[3619,3064],[-8,2]],[[3611,3066],[-17,0],[-7,-5],[-7,-6],[-49,-22],[-13,-3],[-16,-9],[-7,-14],[-7,-8],[-13,-4],[-10,0],[-11,-3],[-12,-6],[-11,-12],[-27,-18],[-35,-35]],[[3369,2921],[-23,2]],[[2755,2391],[42,8],[39,40],[27,40],[15,18],[15,13],[4,9],[-1,8],[-3,9],[-1,10],[3,17],[4,9],[7,5],[7,4],[9,10],[2,6],[0,7],[-2,6],[0,8],[2,7],[5,7],[3,3],[5,1],[5,3],[6,6],[7,16],[6,9],[9,10],[29,20],[46,41],[3,10]],[[2705,2505],[-4,-8],[-5,-17],[0,-7],[-3,-7],[-5,-8],[-2,-4],[-1,-13],[-2,-9],[-3,-9],[-2,-8],[3,-7],[6,-5],[34,-8],[34,-4]],[[2601,2472],[0,12],[7,8],[9,4],[4,5],[6,2],[6,1],[72,1]],[[2493,2489],[7,-1],[8,-4],[14,-10],[10,-5],[11,-8]],[[2406,2450],[6,0],[9,2],[7,6],[6,2],[15,4],[5,4],[4,5],[6,8],[4,4],[4,1],[21,3]],[[2575,2487],[7,-1],[3,-5],[2,-3],[14,-6]],[[2543,2461],[3,1],[6,6],[5,7],[10,10],[8,2]],[[2391,2453],[8,-1],[7,-2]],[[2129,2107],[10,2],[6,9],[17,32],[27,29],[71,59],[14,16],[5,24],[18,18],[3,29],[16,33],[20,33],[22,28],[14,22],[11,10],[8,2]],[[2010,2152],[11,-2],[6,-6],[9,-7],[15,-8],[57,-21],[21,-1]],[[1980,2137],[22,15],[8,0]],[[2906,3857],[-28,12],[-26,7]],[[2852,3876],[-6,0],[-16,-3],[-14,-6]],[[2816,3867],[-27,6]],[[2789,3873],[-15,-1],[-27,-9],[-15,-2],[-11,0],[-12,-5],[-6,-5],[-18,-8],[-4,-13],[-30,-45],[-5,-8],[-1,-5],[-2,-3],[-3,-3],[-7,-2]],[[2914,3859],[-8,-2]],[[2633,3764],[-11,2],[-16,7]],[[2606,3773],[-21,-9],[-6,-7],[-11,-6],[-13,-5],[-10,0]],[[2545,3746],[-9,3]],[[2536,3749],[-9,-1],[-11,-5],[-15,-14],[-17,-20],[-7,-18],[13,-7],[10,-17],[-23,-45],[-3,-10],[-1,-10],[11,-22],[7,-11],[-1,-11],[-5,-11],[-13,-18],[-17,-28]],[[3230,4096],[1,-2],[10,-20],[31,-30],[5,-15],[0,-5],[-1,-13],[1,-6],[4,-5]],[[3602,4058],[4,0],[5,-4],[0,-37],[38,-18]],[[3459,3920],[47,43],[21,6],[5,16],[0,13],[41,42],[16,14],[6,3],[7,1]],[[3664,4002],[17,-15],[11,-5],[9,0]],[[3649,3999],[15,3]],[[3290,4000],[17,0],[23,-13],[13,-7],[8,-3]],[[3281,4000],[9,0]],[[3706,3984],[5,-1],[1,-7],[8,-15],[30,-27],[7,-5],[0,-1],[0,-6],[6,-7],[-5,-9],[-3,-11],[0,-7],[2,-10],[4,-9],[19,-15],[12,-10],[4,-5],[11,-19],[-2,-19],[5,-20],[18,-31],[2,-8],[-3,-11],[2,-16],[11,-20],[-1,-10],[-29,-21],[3,-24],[-23,-43],[0,-9],[16,-23],[60,-1],[21,-6],[7,-5],[11,-18],[10,-11],[6,-9],[-3,-11],[1,-5],[28,-10],[15,-25],[3,-8],[6,-6],[9,-1]],[[3701,3982],[5,2]],[[3387,3979],[0,-15],[7,-11],[8,-7],[11,-6],[12,-1],[34,-19]],[[3351,3977],[36,2]],[[4075,3399],[21,2]],[[4000,3453],[7,-1],[7,-2],[7,-5],[3,-20],[4,-13],[17,-1],[30,-12]],[[3980,3449],[13,4],[7,0]],[[2990,4096],[-12,-30],[11,-4],[3,-5],[-5,-4],[-12,-2],[-10,-4],[-1,-7],[4,-7],[10,-3],[-5,-11],[-1,-13],[2,-14],[4,-11],[-11,-2],[-2,-5],[3,-16],[-2,-4],[-5,-3],[-5,-5],[-6,-19],[-14,-25],[-3,-14],[-2,-4],[-12,-11],[-3,-2],[-4,-4],[2,-8]],[[3410,3522],[-10,5]],[[3400,3527],[-3,-2],[2,-3],[1,-3],[-1,-8],[-2,-5],[-4,-6],[-10,-5],[-5,-6],[-15,-35],[-2,-4],[-12,-3],[-4,-11],[-14,-9],[2,-6],[0,-2],[-1,-3],[1,-1]],[[3448,3378],[-10,8],[-2,6],[1,5],[3,5],[7,5],[2,7],[-2,7],[-2,60],[1,13],[5,18],[-21,9],[-13,2]],[[3417,3523],[-7,-1]],[[3339,3416],[2,-2],[0,-4],[-3,-6],[-4,-4],[-20,-9],[-19,-15],[9,-16],[4,-5],[5,-2],[4,-4],[4,-7],[9,-30],[-2,-29],[-27,-74]],[[3333,3415],[3,0],[3,1]],[[3346,2923],[14,36],[2,23],[3,6],[5,5],[7,4],[6,6],[7,11],[0,7],[-7,15],[-8,14],[-18,20],[-10,29],[1,11],[2,9],[30,48],[4,22],[-3,5],[-7,19],[0,18],[3,10],[5,7],[12,10],[9,15],[9,13],[21,35],[5,4],[11,6],[13,48]],[[3462,3379],[-14,-1]],[[3316,3210],[3,-5],[0,-13],[-8,-26],[-6,-39],[0,-12],[-2,-11],[-4,-11],[-8,-15],[-15,-17],[1,-32],[-9,-32],[-3,-6],[-5,-2]],[[3301,3209],[15,1]],[[3260,2989],[-18,5],[-7,4],[-15,11]],[[3220,3009],[-6,-4],[-4,-6],[-22,-57],[1,-16],[0,-7],[1,-11],[5,-14],[1,-8],[0,-9],[-2,-12],[-5,-14],[-18,-42],[-19,-34],[-53,-73]],[[2818,3114],[-8,7],[3,22],[51,114],[8,28],[1,30],[-10,31],[10,3],[-1,4],[-9,8],[5,9],[13,15],[2,8],[-2,6],[-4,2],[-5,1],[-4,4],[-1,5],[1,4],[0,3],[0,3],[-10,15],[-2,8],[5,9],[8,5],[9,3],[7,4],[3,8],[3,8],[9,10],[3,10],[-5,35],[0,11],[1,9],[5,7],[9,3],[-3,6],[1,5],[2,6],[0,8],[-9,25],[-1,5],[5,4],[16,7],[4,4],[-2,5],[-10,17],[-3,8],[1,15],[9,45],[-5,117],[-4,16]],[[2913,3094],[-4,11],[-3,2],[-17,9],[-1,8]],[[2888,3124],[-18,-3],[-16,-1],[-21,-5],[-15,-1]],[[3048,2751],[9,54],[20,35],[6,18],[3,13],[0,10],[-14,25],[8,28],[-5,12],[2,9],[3,9],[4,10],[10,10],[4,3],[9,11],[2,17],[-4,18],[-2,8],[-4,11],[-5,7],[-17,35],[-13,10],[-6,6],[-4,4],[-7,3]],[[3047,3117],[-4,0],[-8,-1],[-19,-7],[-6,-4],[-4,-5],[-4,-11],[-3,-4],[-3,-3],[-6,-8],[-4,-3],[-4,-1]],[[2966,3072],[-8,2],[-8,3],[-24,21]],[[2926,3098],[-13,-4]],[[2982,3070],[-4,3],[-4,0]],[[2974,3073],[-8,-1]],[[2120,3910],[-13,10],[0,3],[-1,6],[1,9],[-1,66]],[[2226,3834],[13,5],[6,2],[14,20],[3,8],[-8,9],[-5,6],[-2,9],[0,5],[-4,6],[-21,22],[-8,6],[-7,4],[-4,0]],[[2203,3936],[-3,-2],[-8,-6],[-3,-1]],[[2189,3927],[-9,0]],[[2180,3927],[-28,-13],[-6,-1],[-26,-3]],[[2153,3857],[5,-1],[13,-6]],[[2121,3728],[5,27],[16,32],[2,6],[1,6],[0,14],[-2,4],[-5,4],[-3,3],[-2,5],[-1,8],[4,8],[14,12],[3,0]],[[2183,3854],[11,-11],[3,-1],[6,-3],[23,-5]],[[2171,3850],[12,4]],[[2090,3738],[13,0],[5,-2],[13,-8]],[[2134,3589],[-15,3],[-13,5],[-3,6],[-17,13],[-8,11],[-4,11],[-2,5],[-1,5],[0,12],[-6,10],[-9,8],[16,42],[9,15],[3,2],[6,1]],[[2230,3606],[-8,1],[-5,3],[-3,2],[-3,7],[-25,61]],[[2186,3680],[-5,-1],[-21,-32],[-2,-6],[-1,-25],[-2,-7],[-4,-7],[-11,-11],[-6,-2]],[[2305,3596],[-19,2],[-3,5],[0,4],[-1,4],[-7,12],[-6,3],[-3,1]],[[2266,3627],[-2,0],[0,-2],[0,-1],[-15,-13],[-4,-3],[-5,-1],[-10,-1]],[[2455,3501],[-18,18],[-22,17],[-12,13],[-10,12],[-14,22],[-7,5],[-8,2],[-15,1],[-19,5],[-8,1]],[[2322,3597],[-17,-1]],[[2219,3443],[5,-1],[5,-2],[15,-9],[6,-1]],[[2211,3437],[8,6]],[[2378,3407],[4,3],[6,2],[11,2],[6,1],[4,2],[5,4],[2,1],[7,2],[4,3],[3,3],[16,10]],[[2315,3431],[28,-4],[26,-19],[4,-1],[5,0]],[[2250,3430],[65,1]],[[2011,752],[-13,1],[-20,8],[-10,2]],[[1968,763],[-10,-2]],[[2211,618],[-14,1],[-12,4],[-14,9],[-14,7],[-29,2],[-13,8],[-39,47],[-9,17],[-2,12],[0,10],[-3,8],[-11,9],[-12,3]],[[2039,755],[-28,-3]],[[2458,543],[-62,4],[-28,10],[-45,47],[-29,14],[-33,4]],[[2261,622],[-50,-4]],[[2611,356],[-16,6],[-11,16],[-11,25],[-2,12],[5,25],[0,12],[-5,12],[-17,20],[-6,12],[-1,7],[1,14],[-2,7],[-7,8],[-8,5],[-18,8],[-14,3]],[[2499,548],[-41,-5]],[[2685,343],[-7,2],[-3,4],[-2,12],[-2,4],[-10,5]],[[2661,370],[-8,0],[-18,-8],[-24,-6]],[[2963,0],[-2,5],[1,5],[4,5],[10,19],[3,5],[-2,4],[-15,5],[-10,6],[2,8],[8,9],[4,9],[-4,30],[-18,22],[-26,14],[-82,16],[-47,25],[-31,11],[-6,7],[-3,25],[-10,33],[-2,11],[4,49],[-8,20],[-27,5]],[[2706,348],[-14,-4],[-7,-1]],[[1339,958],[-22,-19],[-14,-1]],[[1303,938],[-3,5],[-1,2]],[[1299,945],[-3,0],[-2,-3],[-1,-8],[2,-16],[-1,-8],[-3,-7],[-10,-9],[-8,-5],[-52,-21],[-11,-3],[-2,-11],[-1,-31],[4,-40],[2,-4],[3,-1]],[[1219,779],[5,-2],[14,-12],[10,-3],[3,-3],[2,-6],[0,-7],[-7,-19],[-2,-7],[-35,-75],[-21,-36],[-14,-10],[-14,-18],[-44,-56],[-15,-17],[28,-28],[34,-28],[13,-9],[12,-4],[5,-6],[2,-7],[-1,-12],[-2,-5],[-2,-2],[-4,-1],[-2,-5],[0,-7],[1,-8],[15,-34],[2,-11],[2,-22],[7,-15],[1,-15],[0,-4],[-3,-6],[-4,-3],[-3,-2],[-2,-11],[-1,-5]],[[1216,778],[3,1]],[[1980,2137],[5,-13],[76,-67],[20,-17],[19,-23],[9,-8],[12,-5],[13,-9],[10,-11],[8,-20],[10,-17],[-16,-51],[-13,-29],[-2,-21],[21,-41],[-18,-10],[-9,-9],[-9,-15],[-24,-1]],[[2092,1770],[-15,7],[-24,21],[-26,19]],[[2027,1817],[-9,-4],[-18,-20],[-17,-15],[-17,-13],[-52,-25],[-24,-9],[-58,-16]],[[1832,1715],[-18,1],[-14,3],[-40,30],[-11,11],[-22,5]],[[1727,1765],[-10,-39],[26,-58],[-1,-11],[-5,-9],[-3,-7],[-10,-28],[-10,-18],[-9,-4],[-9,-13],[-1,-5],[1,-8],[2,-6],[1,-4],[-2,-4],[-5,-4],[-10,-4],[-11,-2]],[[1644,1543],[-11,2],[-9,5],[-12,3]],[[1612,1553],[-11,-6],[-11,-15],[1,-34],[2,-22],[-2,-7],[-20,-18],[-5,-13],[-1,-9],[2,-31],[15,-27],[53,-41],[38,-49],[32,-52],[19,-19],[26,-15],[36,-10],[19,-6],[11,-7],[26,-9],[28,-1],[27,-13]],[[1671,1541],[-14,3]],[[1657,1544],[-13,-1]],[[1897,1149],[-14,-9],[-13,-20],[-33,-52],[-17,-36],[-4,-24],[-5,-12],[-14,-19],[-2,-9],[-9,-96],[1,-8],[9,-17],[8,-10],[13,-7],[34,-7]],[[1879,828],[7,-2],[72,-65]],[[1851,823],[28,5]],[[1980,2137],[0,48],[-10,29],[-16,14],[-9,14],[-11,4],[-14,11],[0,8],[1,9],[3,6],[7,7],[5,20],[-3,13],[3,16],[11,8]],[[1850,709],[-103,4],[-22,4],[-29,14],[-52,16],[-15,10],[-17,27],[-7,31],[3,64],[3,13],[13,25],[3,13],[-1,9],[-3,10],[-9,21],[-12,12],[-2,7],[-13,22],[-13,16],[-24,10],[-12,7],[-12,5]],[[1526,1049],[-12,-3],[-38,-58],[-17,-18],[-19,-12],[-20,-4]],[[1420,954],[-57,4]],[[1363,958],[-24,0]],[[1958,761],[-1,0],[-7,-7],[-4,-9],[-6,-7],[-13,-3]],[[1927,735],[-24,1]],[[1903,736],[-9,-2],[-11,-5],[-8,-6],[-7,-6],[-7,-5],[-11,-3]],[[749,1562],[-16,2],[-26,9],[-23,5],[-21,10],[-7,7],[-3,6],[-2,24],[-3,7],[-52,76],[-13,29],[-1,7],[1,7],[1,7],[9,25],[3,8],[0,8],[-1,8],[-9,26],[-4,17],[-1,14],[-23,23],[-66,43]],[[1081,1218],[-43,14],[18,43],[2,11],[1,11],[-4,11],[1,10],[1,7],[11,28],[26,23],[6,12],[1,5],[2,5],[3,4],[9,3],[4,0],[2,4],[8,21],[-10,19],[-14,8],[-8,3],[-10,5],[-44,32],[-6,7],[-3,6],[2,6],[2,5],[4,12],[10,17],[3,22],[-9,12],[-64,30],[-14,4],[-8,2],[-11,0]],[[949,1620],[-9,0],[-12,-3],[-4,-1],[-4,-2],[-7,-6],[-2,-2],[-13,-5],[-20,-2],[-20,-4],[-5,-3],[-12,-9],[-21,-9]],[[820,1574],[-23,1]],[[797,1575],[-34,-12],[-14,-1]],[[1339,958],[-2,28],[-7,35],[-4,62],[3,13],[35,22],[8,8],[9,10],[3,8],[3,15],[1,7],[-1,6],[-3,6],[-3,4],[-7,6],[-22,31],[-23,35],[-4,3],[-8,3]],[[1317,1260],[-23,-7],[-29,-4],[-23,-6],[-5,-2],[-9,-9],[-5,-5],[-8,-6],[-6,-3],[-7,-2]],[[1202,1216],[-8,1],[-13,4],[-6,4],[-3,4],[-3,1]],[[1169,1230],[-5,0],[-11,-4],[-12,0],[-36,-13]],[[1105,1213],[-1,0],[-8,4],[-6,4]],[[1090,1221],[-2,0],[-7,-3]],[[2176,2975],[12,-20],[0,-7],[-23,-11],[-8,-5],[-6,-9],[-10,-28],[-7,-11],[-11,-21],[-17,-41],[-48,-73],[-8,-18],[-3,-5],[-13,-15],[-4,-4],[-7,-25],[-6,-9],[-6,-13],[-6,-41],[1,-14],[-1,-9],[-6,-10],[-4,-10],[-8,-11],[-5,-10],[-3,-12],[-8,-18],[-4,-14],[-1,-24],[-2,-18],[-9,-20],[9,-18],[5,-6],[2,-8],[-3,-5],[-5,-3],[-5,-6],[-2,-9],[-2,-40],[-7,-10]],[[2180,3394],[8,3],[21,1],[4,3],[2,4],[-1,11],[-3,21]],[[2130,3402],[50,-8]],[[2176,2975],[-14,5],[-14,9],[-22,8],[-3,4],[-3,5],[0,12],[1,12],[4,9],[1,6],[1,6],[-1,13],[2,7],[3,8],[3,7],[10,14],[11,28],[1,4],[-1,10],[1,29],[1,2],[-15,34],[-33,13],[-14,1],[-13,5],[5,16],[2,2],[2,2],[8,6],[-6,13],[-1,55],[5,19],[1,6],[5,6],[1,4],[-1,9],[27,38]],[[2029,3548],[-7,2],[-6,4],[-4,7],[0,21],[-5,5],[-21,17],[-9,14],[-4,9],[-20,40],[-6,6]],[[2079,3472],[-10,2],[-8,5],[-3,4],[-1,3],[0,2],[1,3],[-1,5],[-5,10],[-6,11],[8,6],[4,9],[2,16],[-1,6]],[[2059,3554],[-2,0],[-10,-6],[-18,0]],[[2109,3451],[6,15],[0,6],[-2,9],[-3,3],[-3,1]],[[2107,3485],[-7,-1],[-3,-2],[-3,-3],[-3,-3],[-5,-3],[-7,-1]],[[2211,3437],[-51,8],[-27,8],[-8,1]],[[2125,3454],[-16,-3]],[[1947,2344],[-27,10],[-46,10],[-11,4],[-27,20],[-20,6],[-71,6],[-32,6],[-13,7],[-16,7]],[[1684,2420],[-16,-19],[-3,-5],[3,-6],[10,-10],[2,-6],[-1,-26],[-2,-11],[-7,-11],[-7,-8],[-8,-3],[-19,-4],[-9,-4],[-5,-5],[-6,-16],[-5,-6],[-11,-12]],[[1009,2309],[-6,3],[-9,15],[-2,5],[-1,5],[-1,5],[-3,8],[-8,8],[-10,19],[-3,2],[-30,29]],[[1369,2256],[-13,1],[-21,7],[-42,23],[-8,3],[-2,2],[-1,2],[-1,3],[-12,11],[-5,3],[-36,11],[-33,6]],[[1195,2328],[-14,-2],[-15,-6],[-12,-9],[-5,0]],[[1522,2265],[-9,2],[-14,6],[-16,14],[-38,26],[-9,9]],[[1436,2322],[-24,-43],[-13,-14],[-6,-4],[-4,-1],[-8,-3],[-12,-1]],[[1064,2293],[-5,4],[-1,3],[1,2],[2,2],[-1,4],[-18,8]],[[1042,2316],[-6,0],[-3,-1],[-2,-1],[-5,-2],[-6,-2],[-11,-1]],[[1149,2311],[-6,2]],[[1143,2313],[-4,-1],[-6,-6],[-3,-2],[-6,-7],[-7,-6],[-3,-2],[-6,-6],[-4,-3],[-8,-3]],[[1084,2279],[-11,13],[-6,1]],[[1067,2293],[-3,0]],[[1096,2277],[-5,2],[-3,3],[-2,0]],[[1086,2282],[-2,-3]],[[1559,2260],[-5,2],[-6,7],[-6,10]],[[1542,2279],[-5,0],[-2,-3],[-3,-4],[-4,-4],[-6,-3]],[[1600,2268],[-9,7],[-4,2],[-4,2]],[[1583,2279],[-6,-2],[-4,-2],[-2,-3],[-2,-2],[-1,-2],[-1,-1],[-2,-5],[-2,-2],[-4,0]],[[1947,3673],[-22,-21],[-7,-5],[-12,-13],[-6,-9],[-19,-53],[-2,-6],[-30,-34],[-59,-51],[-5,-6],[-6,-10],[-4,-10],[0,-8],[4,-8],[3,-11],[-10,-15],[-22,-23],[-20,-14],[-39,-34],[-6,-12],[-10,-37],[-1,-9],[5,-13],[1,-13],[-9,-34],[-10,-8],[-5,-3],[-6,-2],[-7,-2],[-7,-3],[-14,-3],[-6,0]],[[1616,3203],[-8,2]],[[1608,3205],[-3,0],[-1,-2],[1,-5],[13,-23],[7,-9],[7,-7],[5,-4],[4,-4],[2,-6],[-5,-36],[3,-18],[30,-16],[11,-11],[-2,-9],[-2,-5],[-20,-19],[-18,-5],[-17,-9],[-18,-19],[-17,-23],[-3,-7],[0,-6],[-1,-4],[-6,-3],[-8,-1]],[[1118,3039],[-5,1],[-7,4],[-6,7],[-4,6],[-2,7],[0,19],[-4,10],[-1,1]],[[1226,2993],[-3,2],[-8,12],[-32,32],[-9,2],[-13,10],[-7,1]],[[1154,3052],[-7,0],[-16,-5],[-4,-3],[-4,-3],[-5,-2]],[[1299,3006],[-10,2]],[[1289,3008],[-5,0],[-4,-2],[-6,-9],[-6,-4],[-7,-2],[-7,0]],[[1370,2939],[-18,9],[-29,46],[-9,9],[-8,4]],[[1306,3007],[-7,-1]],[[1254,2991],[-16,2]],[[1238,2993],[-12,0]],[[1570,2954],[-36,10]],[[1534,2964],[-8,0],[-8,-4],[-11,-11],[-12,-9],[-24,-24],[-10,-3]],[[1461,2913],[-13,1],[-23,11],[-10,2],[-7,5],[-2,2],[-1,3],[-2,2],[-9,3]],[[1394,2942],[-24,-3]],[[2663,4096],[0,-8],[1,-3],[0,-3],[-6,-12],[-25,-27],[0,-6],[-2,-2],[-4,-2],[-19,-1],[-2,-1],[-7,-3],[-10,-5],[-15,-9],[-8,-6],[-4,-4],[-7,-14],[-3,-4],[-3,-3],[-3,-4],[-8,-13],[-5,-2],[-3,-1]],[[2300,4096],[7,-24],[1,-15],[-1,-15],[-3,-17]],[[2499,3985],[3,26],[0,5],[-2,8],[-17,51],[-5,8],[-5,2],[-5,1],[-5,4],[-5,6]],[[2237,4031],[-7,2],[-8,8],[-8,5],[-11,8]],[[2203,4054],[-10,-1],[-48,-33],[-39,-16]],[[2268,4030],[-15,2]],[[2253,4032],[-16,-1]],[[2304,4025],[-11,3],[-8,3]],[[2285,4031],[-17,-1]],[[2530,3963],[-12,29]],[[2518,3992],[-19,-7]],[[1972,4068],[-28,28]],[[456,253],[-32,21],[30,39],[-4,47]],[[456,253],[-32,21],[30,39],[-4,47]],[[1000,4096],[32,0],[-17,-6],[-12,4],[-3,2]],[[0,4096],[960,0],[-5,-4],[-8,-6],[-7,-2],[-17,-1],[-6,-2],[-9,-12],[-17,-36],[-6,-7],[-10,-2],[-6,-4],[-2,-6],[5,-9],[6,0],[7,3],[9,0],[8,-8],[2,8],[5,5],[8,2],[10,0],[11,-3],[6,-6],[5,-8],[8,-7],[5,-2],[12,-2],[3,-1],[4,-6],[1,-3],[-1,-2],[5,-23],[3,-7],[8,-4],[-6,-5],[-3,0],[-3,1],[-3,4],[-5,0],[0,-13],[3,-8],[6,-3],[11,3],[2,-29],[4,-14],[7,-6],[3,-7],[-2,-17],[1,-15],[10,-7],[-9,-21],[-7,-24],[-3,-24],[4,-110],[5,-12],[8,-94],[7,-29],[3,1],[9,3],[3,1],[5,-24],[31,-38],[8,-23],[-4,0],[-6,12],[-10,12],[-13,9],[-16,2],[2,-10],[1,-11],[2,-10],[18,-9],[2,-11],[-2,-12],[-3,-7],[-6,4],[-4,4],[-3,5],[-2,7],[0,-100],[-8,-34],[-2,-21],[15,5],[0,-5],[-17,-7],[-7,-12],[-6,-31],[-4,-11],[-21,-29],[27,-45],[10,-13],[12,-1],[61,-1],[-21,-27],[-11,-11],[-13,-7],[-11,-4],[-5,2],[-12,14],[-8,3],[-9,-2],[-7,-6],[-3,-5],[-3,-9],[-7,-2],[-10,1],[-10,-2],[-8,-7],[-5,-8],[-2,-10],[1,-23],[2,-22],[6,-20],[3,-5],[8,-10],[-16,-2],[-4,-10],[4,-12],[4,-6],[37,-30],[-4,-10],[3,-10],[10,-6],[11,1],[2,5],[3,20],[2,5],[8,8],[5,18],[2,20],[-2,14],[6,-1],[3,0],[2,-1],[4,-3],[2,5],[1,1],[0,1],[-3,3],[0,5],[6,4],[6,1],[7,-1],[6,-4],[3,7],[1,8],[-1,8],[-3,7],[11,-7],[9,-9],[9,-6],[11,2],[2,-6],[1,-3],[4,-1],[8,0],[-12,-25],[-20,-23],[-5,-8],[-3,-9],[25,5],[0,-5],[-11,-4],[-35,-6],[9,8],[-1,6],[-7,2],[-10,-1],[-8,-5],[-3,-6],[-4,-19],[-3,-6],[-2,-5],[0,-7],[0,-7],[2,-2],[3,0],[9,-6],[13,-6],[2,-3],[-2,-6],[-11,-6],[-1,-6],[28,-15],[52,9],[43,24],[-3,32],[8,-4],[8,-2],[19,1],[-5,-3],[-5,-2],[0,-5],[44,10],[0,-5],[-10,-10],[-8,-13],[-9,-12],[-33,-11],[2,-14],[4,-15],[-10,-10],[0,7],[-1,5],[-4,4],[-5,4],[-12,-10],[-1,-9],[7,-9],[11,-7],[-5,-9],[-8,-5],[-10,-2],[-12,1],[4,-6],[4,-3],[6,-1],[8,0],[7,-1],[5,-4],[2,-3],[-3,-1],[-17,1],[-11,3],[-20,15],[-4,-11],[-1,-13],[3,-11],[9,-5],[31,9],[12,1],[-7,-9],[-12,-5],[-11,-2],[-5,-2],[3,-11],[7,-1],[10,4],[10,1],[11,-3],[-5,-4],[-11,-2],[-8,-3],[-8,-8],[-5,-2],[-6,1],[-8,6],[-7,-21],[-5,-9],[-13,-15],[-3,-7],[2,-5],[11,-2],[-22,-7],[-7,0],[4,7],[0,4],[-15,-1],[-15,-3],[3,-8],[2,-3],[-6,-1],[-3,-1],[-2,-2],[-4,-1],[4,-3],[7,-5],[4,-2],[-12,1],[-12,2],[-8,-1],[-3,-12],[12,4],[15,0],[10,-3],[-2,-11],[-6,3],[-4,1],[-2,-2],[-3,-7],[6,0],[13,-5],[-3,-1],[-3,-3],[-3,-1],[6,-3],[5,-4],[3,-6],[1,-7],[-4,3],[-6,6],[-4,2],[-12,1],[-7,-5],[-5,0],[-2,6],[0,5],[1,5],[1,4],[3,3],[-8,1],[-7,-1],[5,-15],[-4,-13],[-7,-12],[-4,-15],[2,-3],[6,-9],[2,-6],[-2,-3],[-5,4],[-5,6],[-3,7],[-7,-9],[-3,-12],[1,-12],[7,-10],[24,-29],[3,-9],[-18,7],[-11,12],[-16,31],[-14,-13],[-3,-2],[-11,-2],[-12,-3],[-7,2],[-9,-5],[-8,-9],[-6,-8],[-1,-15],[10,-8],[-17,-6],[-13,-8],[-17,-15],[-9,-11],[2,-7],[16,2],[12,4],[11,-6],[4,-7],[-4,-4],[-7,1],[-5,0],[-2,-7],[-1,-7],[-2,-7],[-12,5],[-11,-3],[-8,-16],[-15,-27],[-55,-47],[-11,-11],[-17,-24],[-26,-32],[-2,-9],[7,4],[19,16],[2,-8],[7,-3],[8,2],[8,5],[-2,3],[1,1],[1,5],[3,-6],[6,-1],[6,0],[4,-2],[4,-7],[-2,-2],[-4,-1],[-4,-10],[-4,-2],[0,-4],[3,-3],[10,-3],[2,-4],[1,-8],[-1,-3],[-3,-2],[-6,-7],[-4,-6],[-1,-5],[-2,-1],[-8,2],[-8,6],[-6,7],[-7,6],[-10,1],[-10,-8],[-4,-15],[1,-16],[4,-11],[15,9],[22,3],[16,-5],[-4,-17],[-2,5],[-5,4],[-5,3],[-7,3],[-9,-10],[-10,-2],[-10,-1],[-12,-7],[-8,-12],[27,-7],[7,-16],[-6,0],[-1,4],[-5,6],[-3,5],[-10,-2],[-14,0],[-11,3],[-5,2],[-5,-5],[-8,-5],[-3,-6],[11,-6],[6,0],[12,5],[6,-1],[3,-4],[-4,-3],[-7,-2],[-4,0],[-10,-4],[-9,-8],[-10,-4],[-13,5],[-1,-7],[1,-4],[3,-2],[7,-2],[-4,-7],[-2,-6],[3,-5],[7,-2],[-4,-6],[1,-7],[4,-5],[10,-1],[0,-6],[-15,0],[0,-4],[11,-4],[10,-10],[9,-13],[4,-9],[0,-13],[-6,-13],[-13,-10],[-18,-4],[-8,-1],[-19,-4],[-9,1],[-15,3],[-9,1],[-14,6],[-1,13],[6,15],[7,12],[-14,-4],[-8,2],[-6,8],[-7,14],[-10,9],[-14,1],[-17,-9],[-9,-7],[-12,0],[-14,1],[-17,-1],[-8,-6],[-16,4],[-7,-7],[4,-13],[8,-12],[3,-11],[3,-11],[0,-26],[-1,-3],[-3,-5],[1,-1],[0,-4],[0,-6],[-1,-4],[-14,-4],[-12,-8],[-7,-1],[-12,4],[-26,12],[-6,5],[-11,12],[-6,13],[-7,15],[-7,12],[5,17],[-6,22],[-8,13],[-10,-10],[-7,-11],[0,-22],[4,-21],[8,-25],[-17,0],[-15,21],[-11,19],[-8,20],[-7,17],[-9,0],[-19,-11],[-15,-15],[-13,-12],[-16,-6],[-17,-26],[-18,-21],[-19,-23],[-13,3],[-8,-15],[-7,-35],[-10,-33],[-3,12],[-2,13],[0,12],[5,12],[-11,-11],[-8,-22],[-16,-32],[-22,-39],[-6,-20],[-19,-8],[-6,-19],[-9,-20],[-8,-18],[2,-31],[6,-25],[7,-35],[9,-25],[2,-20],[1,-15],[6,-6],[8,5],[7,23],[6,9],[8,5],[7,-3],[8,-6],[6,-8],[2,-6],[-1,-9],[-3,-18],[-1,-11],[-3,-14],[0,-14],[5,-10],[14,0],[9,6],[5,9],[3,3],[2,-4],[0,-7],[-2,-5],[-2,-3],[-1,-3],[-1,-11],[5,-11],[-5,-19],[-10,-11],[-2,-11],[-1,-6],[0,-10],[-7,-2],[-7,3],[-7,5],[-5,6],[-4,2],[-21,2],[-16,4],[-25,2],[-15,3],[-14,7],[-9,2],[0,2762]],[[431,1837],[17,-10],[20,5],[8,21],[-1,23],[-6,16],[-18,21],[-1,3],[2,5],[-2,9],[-5,7],[-5,13],[-15,9],[-16,-6],[-12,7],[-7,-4],[-2,-9],[11,-19],[5,-8],[-3,-8],[-5,-3],[-5,-5],[-2,-10],[6,-16],[17,-22],[19,-19]],[[607,1967],[-3,-13],[5,-15],[11,-7],[13,-2],[10,-5],[0,-9],[-15,-14],[5,-6],[-5,-4],[13,-7],[22,-5],[23,1],[17,11],[-12,9],[-25,15],[-11,8],[-27,36],[-11,6],[-10,1]],[[690,1906],[19,-9],[13,2],[3,10],[-10,11],[-28,22],[-3,5],[-3,14],[-3,5],[-21,21],[-2,-3],[-3,-1],[-2,-2],[-2,-5],[-8,4],[-2,1],[-6,6],[-2,-3],[1,-9],[2,-9],[4,-8],[20,-26],[33,-26]],[[424,2159],[1,10],[0,10],[2,10],[-7,1],[-10,-9],[-6,-7],[-3,-15],[-4,-11],[-11,-1],[0,-7],[9,-3],[10,3],[9,6],[10,13]],[[913,3077],[4,6],[7,5],[11,3],[9,-1],[14,-3],[38,-1],[18,3],[18,7],[12,-16],[10,-4],[9,9],[13,21],[-14,3],[-15,-4],[-15,-2],[-15,8],[-10,14],[-6,12],[-8,10],[-11,9],[-19,10],[-4,-5],[-1,-2],[-1,-3],[6,-1],[3,-1],[2,-2],[4,-1],[-13,-6],[-12,-8],[-2,-7],[18,-4],[-26,0],[6,-7],[11,-7],[3,-6],[-10,0],[-18,4],[-9,1],[-10,-3],[-16,-14],[-9,-3],[-7,-5],[-4,-9],[0,-10],[3,-6],[3,2],[27,8],[6,6]],[[0,1334],[9,-2],[14,-7],[15,-3],[25,-2],[16,-4],[21,-2],[4,-2],[5,-6],[7,-5],[7,-3],[7,2],[0,10],[1,6],[2,11],[10,11],[5,19],[-5,11],[1,11],[1,3],[2,3],[2,5],[0,7],[-2,4],[-3,-3],[-5,-9],[-9,-6],[-14,0],[-5,10],[0,14],[3,14],[1,11],[3,18],[1,9],[-2,6],[-6,8],[-8,6],[-7,3],[-8,-5],[-6,-9],[-7,-23],[-8,-5],[-6,6],[-1,15],[-2,20],[-9,25],[-7,35],[-6,25],[-2,31],[8,18],[9,20],[6,19],[19,8],[6,20],[22,39],[16,32],[8,22],[11,11],[-5,-12],[0,-12],[2,-13],[3,-12],[10,33],[7,35],[8,15],[13,-3],[19,23],[18,21],[17,26],[16,6],[13,12],[15,15],[19,11],[9,0],[7,-17],[8,-20],[11,-19],[15,-21],[17,0],[-8,25],[-4,21],[0,22],[7,11],[10,10],[8,-13],[6,-22],[-5,-17],[7,-12],[7,-15],[6,-13],[11,-12],[6,-5],[26,-12],[12,-4],[7,1],[12,8],[14,4],[1,4],[0,6],[0,4],[-1,1],[3,5],[1,3],[0,26],[-3,11],[-3,11],[-8,12],[-4,13],[7,7],[16,-4],[8,6],[17,1],[14,-1],[12,0],[9,7],[17,9],[14,-1],[10,-9],[7,-14],[6,-8],[8,-2],[14,4],[-7,-12],[-6,-15],[1,-13],[14,-6],[9,-1],[15,-3],[9,-1],[19,4],[8,1],[18,4],[13,10],[6,13],[0,13],[-4,9],[-9,13],[-10,10],[-11,4],[0,4],[15,0],[0,6],[-10,1],[-4,5],[-1,7],[4,6],[-7,2],[-3,5],[2,6],[4,7],[-7,2],[-3,2],[-1,4],[1,7],[13,-5],[10,4],[9,8],[10,4],[4,0],[7,2],[4,3],[-3,4],[-6,1],[-12,-5],[-6,0],[-11,6],[3,6],[8,5],[5,5],[5,-2],[11,-3],[14,0],[10,2],[3,-5],[5,-6],[1,-4],[6,0],[-7,16],[-27,7],[8,12],[12,7],[10,1],[10,2],[9,10],[7,-3],[5,-3],[5,-4],[2,-5],[4,17],[-16,5],[-22,-3],[-15,-9],[-4,11],[-1,16],[4,15],[10,8],[10,-1],[7,-6],[6,-7],[8,-6],[8,-2],[2,1],[1,5],[4,6],[6,7],[3,2],[1,3],[-1,8],[-2,4],[-10,3],[-3,3],[0,4],[4,2],[4,10],[4,1],[2,2],[-4,7],[-4,2],[-6,0],[-6,1],[-3,6],[-1,-5],[-1,-1],[2,-3],[-8,-5],[-8,-2],[-7,3],[-2,8],[-19,-16],[-7,-4],[2,9],[26,32],[17,24],[11,11],[55,47],[15,27],[8,16],[11,3],[12,-5],[2,7],[1,7],[2,7],[5,0],[7,-1],[4,4],[-4,7],[-11,6],[-12,-4],[-16,-2],[-2,7],[9,11],[17,15],[13,8],[17,6],[-10,8],[1,15],[6,8],[8,9],[9,5],[7,-2],[12,3],[11,2],[3,2],[14,13],[16,-31],[11,-12],[18,-7],[-3,9],[-24,29],[-7,10],[-1,12],[3,12],[7,9],[3,-7],[5,-6],[5,-4],[2,3],[-2,6],[-6,9],[-2,3],[4,15],[7,12],[4,13],[-5,15],[7,1],[8,-1],[-3,-3],[-1,-4],[-1,-5],[0,-5],[2,-6],[5,0],[7,5],[12,-1],[4,-2],[6,-6],[4,-3],[-1,7],[-3,6],[-5,4],[-6,3],[3,1],[3,3],[3,1],[-13,5],[-6,0],[3,7],[2,2],[4,-1],[6,-3],[2,11],[-10,3],[-15,0],[-12,-4],[3,12],[8,1],[12,-2],[12,-1],[-4,2],[-7,5],[-4,3],[4,1],[2,2],[3,1],[6,1],[-2,3],[-3,8],[15,3],[15,1],[0,-4],[-4,-7],[7,0],[22,7],[-11,2],[-2,5],[3,7],[13,15],[5,9],[7,21],[8,-6],[6,-1],[5,2],[8,8],[8,3],[11,2],[5,4],[-11,3],[-10,-1],[-10,-4],[-7,1],[-3,11],[5,2],[11,2],[12,5],[7,9],[-12,-1],[-31,-9],[-9,5],[-3,11],[1,13],[4,11],[20,-15],[11,-3],[17,-1],[3,1],[-2,3],[-5,4],[-7,1],[-8,0],[-6,1],[-4,3],[-4,6],[12,-1],[10,2],[8,5],[5,9],[-11,7],[-7,9],[1,9],[12,10],[5,-4],[4,-4],[1,-5],[0,-7],[10,10],[-4,15],[-2,14],[33,11],[9,12],[8,13],[10,10],[0,5],[-44,-10],[0,5],[5,2],[5,3],[-19,-1],[-8,2],[-8,4],[3,-32],[-43,-24],[-52,-9],[-28,15],[1,6],[11,6],[2,6],[-2,3],[-13,6],[-9,6],[-3,0],[-2,2],[0,7],[0,7],[2,5],[3,6],[4,19],[3,6],[8,5],[10,1],[7,-2],[1,-6],[-9,-8],[35,6],[11,4],[0,5],[-25,-5],[3,9],[5,8],[20,23],[12,25],[-8,0],[-4,1],[-1,3],[-2,6],[-11,-2],[-9,6],[-9,9],[-11,7],[3,-7],[1,-8],[-1,-8],[-3,-7],[-6,4],[-7,1],[-6,-1],[-6,-4],[0,-5],[3,-3],[0,-1],[-1,-1],[-2,-5],[-4,3],[-2,1],[-3,0],[-6,1],[2,-14],[-2,-20],[-5,-18],[-8,-8],[-2,-5],[-3,-20],[-2,-5],[-11,-1],[-10,6],[-3,10],[4,10],[-37,30],[-4,6],[-4,12],[4,10],[16,2],[-8,10],[-3,5],[-6,20],[-2,22],[-1,23],[2,10],[5,8],[8,7],[10,2],[10,-1],[7,2],[3,9],[3,5],[7,6],[9,2],[8,-3],[12,-14],[5,-2],[11,4],[13,7],[11,11],[21,27],[-61,1],[-12,1],[-10,13],[-27,45],[21,29],[4,11],[6,31],[7,12],[17,7],[0,5],[-15,-5],[2,21],[8,34],[0,100],[2,-7],[3,-5],[4,-4],[6,-4],[3,7],[2,12],[-2,11],[-18,9],[-2,10],[-1,11],[-2,10],[16,-2],[13,-9],[10,-12],[6,-12],[4,0],[-8,23],[-31,38],[-5,24],[-3,-1],[-9,-3],[-3,-1],[-7,29],[-8,94],[-5,12],[-4,110],[3,24],[7,24],[9,21],[-10,7],[-1,15],[2,17],[-3,7],[-7,6],[-4,14],[-2,29],[-11,-3],[-6,3],[-3,8],[0,13],[5,0],[3,-4],[3,-1],[3,0],[6,5],[-8,4],[-3,7],[-5,23],[1,2],[-1,3],[-4,6],[-3,1],[-12,2],[-5,2],[-8,7],[-5,8],[-6,6],[-11,3],[-10,0],[-8,-2],[-5,-5],[-2,-8],[-8,8],[-9,0],[-7,-3],[-6,0],[-5,9],[2,6],[6,4],[10,2],[6,7],[17,36],[9,12],[6,2],[17,1],[7,2],[8,6],[5,4]],[[1000,4096],[3,-2],[12,-4],[17,6]],[[450,1916],[2,5],[-2,9],[-5,7],[-5,13],[-15,9],[-16,-6],[-12,7],[-7,-4],[-2,-9],[11,-19],[5,-8],[-3,-8],[-5,-3],[-5,-5],[-2,-10],[6,-16],[17,-22],[19,-19],[17,-10],[20,5],[8,21],[-1,23],[-6,16],[-18,21],[-1,3]],[[687,1942],[-3,5],[-3,14],[-3,5],[-21,21],[-2,-3],[-3,-1],[-2,-2],[-2,-5],[-8,4],[-2,1],[-6,6],[-2,-3],[1,-9],[2,-9],[4,-8],[20,-26],[33,-26],[19,-9],[13,2],[3,10],[-10,11],[-28,22]],[[1017,3111],[-10,14],[-6,12],[-8,10],[-11,9],[-19,10],[-4,-5],[-1,-2],[-1,-3],[6,-1],[3,-1],[2,-2],[4,-1],[-13,-6],[-12,-8],[-2,-7],[18,-4],[-26,0],[6,-7],[11,-7],[3,-6],[-10,0],[-18,4],[-9,1],[-10,-3],[-16,-14],[-9,-3],[-7,-5],[-4,-9],[0,-10],[3,-6],[3,2],[27,8],[6,6],[4,6],[7,5],[11,3],[9,-1],[14,-3],[38,-1],[18,3],[18,7],[12,-16],[10,-4],[9,9],[13,21],[-14,3],[-15,-4],[-15,-2],[-15,8]],[[617,1966],[-10,1],[-3,-13],[5,-15],[11,-7],[13,-2],[10,-5],[0,-9],[-15,-14],[5,-6],[-5,-4],[13,-7],[22,-5],[23,1],[17,11],[-12,9],[-25,15],[-11,8],[-27,36],[-11,6]],[[410,2181],[10,9],[7,-1],[-2,-10],[0,-10],[-1,-10],[-10,-13],[-9,-6],[-10,-3],[-9,3],[0,7],[11,1],[4,11],[3,15],[6,7]],[[3937,4096],[-2,-12]],[[3935,4084],[-15,-18],[-6,-12],[0,-21]],[[2280,4096],[1,-9],[-6,-72],[-3,-27],[-6,-36],[-6,-6],[-6,6],[-9,21],[-6,0],[-12,-6],[-6,-21],[-12,-10],[-12,-15]],[[2197,3921],[-19,-30],[-18,-54],[-6,-36],[-6,-6]],[[2148,3795],[33,-54],[10,-6],[27,-9],[15,-15],[9,-6],[21,-3],[45,6],[24,-3]],[[3914,4033],[0,-9],[-9,-12],[-15,-12],[-27,-27],[-21,-18],[-12,-16],[-3,-6],[-12,-15],[-33,-18],[-9,-12],[0,-15],[3,-39],[-3,-15],[-27,-45],[-6,-6],[-24,-6],[-15,-9],[-9,-21],[-15,-21],[-45,-21],[-21,-12]],[[2809,3618],[-27,-6],[-21,3],[-18,-3],[-30,-18],[-36,-18]],[[2148,3795],[-9,-3],[-9,-12],[-15,-36],[-6,-36],[-6,-51],[0,-36],[-9,-33],[-9,-22]],[[2950,3560],[-12,16],[-21,0],[-33,-4],[-15,4],[-21,18],[-15,21],[-9,6],[-15,-3]],[[2476,3611],[-21,13],[-7,5]],[[2537,3583],[-19,8],[-5,2]],[[2386,3675],[-28,17]],[[2358,3692],[-5,4]],[[2448,3629],[-26,19],[-30,24],[-6,3]],[[2513,3593],[-34,16],[-3,2]],[[2677,3576],[-12,-10],[-24,-9],[-12,-3],[-15,0],[-77,29]],[[3611,3678],[-18,-9],[-27,-30],[-15,-12],[-42,-21],[-12,-6],[-21,-15],[-6,-16],[-15,-36]],[[2085,3566],[0,-6],[21,-30],[6,-12],[-6,-6]],[[2240,3522],[-22,-10]],[[2332,3705],[0,-12],[-6,-27],[-21,-15],[-12,-15],[-12,-18],[-9,-24],[-12,-49],[-6,-18],[-14,-5]],[[2218,3512],[-21,-5]],[[2197,3507],[-25,-7],[-15,-3],[-27,3],[-24,12]],[[3149,3545],[-18,-18],[-30,-27],[-16,-9],[-12,3],[-3,15],[-6,6],[-15,-3],[-6,0],[0,27],[-6,15],[-12,3],[-18,-21],[-6,0],[-3,24],[-6,6],[-12,0],[-30,-6]],[[2106,3512],[-15,-12],[-12,-15],[-18,-27],[-3,-6]],[[3149,3545],[9,-12],[9,-15],[30,-12],[18,-3],[21,-9],[15,-12],[15,-24],[12,-15],[12,-9]],[[3444,3479],[-1,-3],[-18,-30],[-9,-30]],[[3455,3533],[-3,-15],[-8,-39]],[[3416,3416],[-6,-42],[-12,-18]],[[3311,3425],[21,-3],[21,-12],[18,-18],[27,-36]],[[3290,3434],[21,-9]],[[2058,3452],[-27,-102],[-6,-15],[-9,-6],[-30,-15],[-9,-6],[-12,-18]],[[2576,3231],[-4,2],[-12,6]],[[2614,3215],[-6,0],[-32,16]],[[2560,3239],[-3,-1]],[[2557,3238],[-6,-2],[-9,-12],[-15,-12],[-24,0],[-27,6],[-15,6],[-27,6],[-33,0],[-21,3],[-18,3],[-21,18],[-15,27],[-24,9],[-42,3],[-15,0],[-12,-6]],[[4096,3300],[-4,-1],[-48,-27],[-33,-21],[-40,-30],[-48,-46],[-12,-15],[-57,-36],[-27,-12]],[[2233,3287],[-18,-51],[-9,-12],[-9,-9],[-70,-55],[-15,-24],[-15,-12],[-36,-15],[-24,-3],[-24,3],[-15,0],[-24,-6],[-30,-6],[-27,-3]],[[1965,3290],[-6,-36],[-6,-30],[3,-34],[0,-24],[-3,-12],[-24,-33],[-12,-27]],[[3398,3356],[-18,-6],[-33,-9],[-21,-3],[-34,0]],[[3292,3338],[-2,0],[-21,-12],[-36,-15],[-21,-15],[-12,-12],[-6,-15],[-6,-21],[0,-36],[3,-25],[-3,-15],[-15,-15],[-57,-36],[-28,-18],[-39,-6],[-12,-6],[-15,-9],[-18,-18],[-21,-6],[0,9],[9,18],[-6,3],[-30,0],[-18,12]],[[3398,3356],[6,-24],[-6,-27],[0,-8]],[[3398,3297],[0,-10],[3,-12],[9,-15],[18,-9],[63,-24],[12,-15],[39,-70],[12,-18],[18,-15],[45,-21],[30,-6],[21,-9],[6,-6],[12,-21],[6,-6],[24,-3],[12,-3],[6,-6]],[[3827,3112],[-33,-6],[-12,-12],[-21,-36],[-24,-30]],[[2938,3100],[-39,27],[-21,6],[-9,-9],[-15,-33],[-18,-30],[-15,-30],[-6,-6]],[[2815,3025],[-24,9],[-36,18],[-12,12],[-6,18],[-12,36],[-45,48],[-18,21],[-18,9],[-30,19]],[[4096,2964],[-25,-5],[-15,6],[-24,15],[-21,9],[-28,6],[-39,-12],[-39,-21],[-18,-3],[-30,0],[-27,12],[-15,3],[-24,3],[-15,6],[-9,9],[-9,21],[-6,6],[-15,9]],[[1917,3094],[-9,-3],[-21,-45],[-6,-30],[-15,-30],[-9,-39],[-15,-30],[-21,-30],[-21,-27],[0,-9]],[[1929,3290],[6,-15],[-9,-21],[-18,-21],[-21,-18],[0,-9],[0,-25],[-3,-15],[-9,-18],[-12,-12],[-24,-39],[-12,-9],[-9,-15],[0,-24],[-18,-30],[-27,-33],[-6,-15],[3,-27],[-3,-15],[-12,-15],[0,-42],[-9,-18],[-12,-18]],[[1650,2622],[18,27],[21,36],[9,21],[12,36],[9,21],[3,36],[12,37]],[[1800,2851],[3,-15],[0,-22],[-15,-36],[-21,-24],[12,-45],[3,-36],[12,-27],[6,-30],[6,-33],[0,-6]],[[1645,2609],[-4,-8],[-6,-24],[-15,-21],[-3,-9],[6,-30]],[[1650,2622],[-5,-13]],[[1662,2536],[-6,-1],[-21,-15],[-6,-6]],[[1806,2577],[-39,-9],[-36,-6],[-27,-15],[-42,-11]],[[1629,2514],[-3,-6],[-6,-46],[0,-3]],[[1620,2459],[0,-9],[9,-21],[0,-15],[-3,-15],[-9,-36],[0,-9]],[[1617,2354],[15,-18],[30,-21],[0,-6],[-3,-33],[-3,-33],[6,-45]],[[1662,2198],[-6,-15],[-15,-9],[-12,-12],[-9,-24],[-9,-27],[-6,-22],[12,-27],[-12,-39],[0,-15],[9,-24],[9,-27],[12,-27],[-3,-21],[-21,-9],[-9,-18],[0,-15],[3,-30],[-6,-18]],[[1599,1819],[-24,-21],[-12,-24]],[[1563,1774],[-18,-15],[-18,-21],[-9,-16],[-3,-21],[-12,-24],[-12,-12],[-18,-15],[-15,-9],[-54,-30],[-39,-18],[-12,-3],[-18,-12],[-9,-9],[-18,-30],[-15,-9],[-12,-3],[-43,-12],[-12,-6],[-15,-30],[0,-24],[-6,-9],[-30,-21],[-42,-51]],[[0,1200],[4,-10],[24,-36],[21,-18],[18,-45],[36,-60],[33,-27],[12,-6],[30,-12],[21,-4],[21,4],[12,9],[21,30],[30,12],[30,0],[33,-6],[40,-21],[24,-18],[30,-25]],[[1133,1374],[-27,-28],[-21,-15],[-3,-9],[6,-15],[-3,-21],[-9,-24],[-36,-63],[-3,-15],[3,-30],[-3,-30],[6,-27],[15,-30],[9,-30],[6,-30],[3,-52],[3,-30],[-12,-33]],[[1067,892],[-3,-6],[6,-39],[-3,-6],[-12,-12],[-21,-12],[-27,-21],[-24,-24],[-12,-6],[-42,-12]],[[827,793],[33,-9],[60,-18],[9,-12]],[[440,967],[12,-12],[24,-27],[12,-21],[15,-9],[51,-12],[12,-15],[12,0],[24,-9],[21,-15],[12,-15],[24,-45],[12,-9],[6,-3],[21,9],[21,-6],[30,-24],[21,0],[24,30],[21,9],[12,0]],[[929,754],[-3,-39],[-9,-30],[-9,-21],[-21,-24],[-15,-15],[-15,-9],[-105,-37]],[[596,450],[21,21],[27,24],[48,24],[15,15],[15,30],[21,12],[9,3]],[[752,579],[-6,-6],[0,-33],[12,-60],[-3,-15],[-18,-21],[-15,-9],[-39,9],[-3,-9],[-3,-27],[-6,-6],[-30,-24],[-24,-18]],[[515,330],[-3,54],[3,6],[21,15],[18,18],[15,9],[12,6],[15,12]],[[617,360],[-24,-18],[-12,-27],[-6,-6],[-15,-3],[-45,24]],[[515,330],[-18,6],[-15,3],[-3,-9],[-6,-54],[-3,-12],[-24,-3]],[[446,261],[-36,-9],[-24,-10],[-15,-15],[-19,-30],[-3,-21]],[[349,176],[12,-9],[31,-6],[9,-6],[3,-21],[12,-27],[6,-6],[24,-12],[3,-6],[6,-30],[-9,-21],[-15,-9],[-39,6],[-21,-15],[-13,-14]],[[397,1960],[12,-7],[16,6],[15,-9],[5,-13],[5,-7],[2,-9],[-2,-5],[1,-3],[18,-21],[6,-16],[1,-23],[-8,-21],[-20,-5],[-17,10],[-19,19],[-17,22],[-6,16],[2,10],[5,5],[5,3],[3,8],[-5,8],[-11,19],[2,9],[7,4]],[[686,1881],[-23,-1],[-22,5],[-13,7],[5,4],[-5,6],[15,14],[0,9],[-10,5],[-13,2],[-11,7],[-5,15],[3,13],[10,-1],[11,-6],[27,-36],[11,-8],[25,-15],[12,-9],[-17,-11]],[[640,1980],[8,-4],[2,5],[2,2],[3,1],[2,3],[21,-21],[3,-5],[3,-14],[3,-5],[28,-22],[10,-11],[-3,-10],[-13,-2],[-19,9],[-33,26],[-20,26],[-4,8],[-2,9],[-1,9],[2,3],[6,-6],[2,-1]],[[405,2140],[-10,-3],[-9,3],[0,7],[11,1],[4,11],[3,15],[6,7],[10,9],[7,-1],[-2,-10],[0,-10],[-1,-10],[-10,-13],[-9,-6]],[[1017,3111],[15,-8],[15,2],[15,4],[14,-3],[-13,-21],[-9,-9],[-10,4],[-12,16],[-18,-7],[-18,-3],[-38,1],[-14,3],[-9,1],[-11,-3],[-7,-5],[-4,-6],[-6,-6],[-27,-8],[-3,-2],[-3,6],[0,10],[4,9],[7,5],[9,3],[16,14],[10,3],[9,-1],[18,-4],[10,0],[-3,6],[-11,7],[-6,7],[26,0],[-18,4],[2,7],[12,8],[13,6],[-4,1],[-2,2],[-3,1],[-6,1],[1,3],[1,2],[4,5],[19,-10],[11,-9],[8,-10],[6,-12],[10,-14]],[[1032,4096],[3064,0],[0,-4096],[-3650,0],[-446,0],[0,1334],[9,-2],[14,-7],[15,-3],[25,-2],[16,-4],[21,-2],[4,-2],[5,-6],[7,-5],[7,-3],[7,2],[0,10],[1,6],[2,11],[10,11],[5,19],[-5,11],[1,11],[1,3],[2,3],[2,5],[0,7],[-2,4],[-3,-3],[-5,-9],[-9,-6],[-14,0],[-5,10],[0,14],[3,14],[1,11],[3,18],[1,9],[-2,6],[-6,8],[-8,6],[-7,3],[-8,-5],[-6,-9],[-7,-23],[-8,-5],[-6,6],[-1,15],[-2,20],[-9,25],[-7,35],[-6,25],[-2,31],[8,18],[9,20],[6,19],[19,8],[6,20],[22,39],[16,32],[8,22],[11,11],[-5,-12],[0,-12],[2,-13],[3,-12],[10,33],[7,35],[8,15],[13,-3],[19,23],[18,21],[17,26],[16,6],[13,12],[15,15],[19,11],[9,0],[7,-17],[8,-20],[11,-19],[15,-21],[17,0],[-8,25],[-4,21],[0,22],[7,11],[10,10],[8,-13],[6,-22],[-5,-17],[7,-12],[7,-15],[6,-13],[11,-12],[6,-5],[26,-12],[8,-3],[4,-1],[7,1],[12,8],[14,4],[1,4],[0,6],[0,4],[-1,1],[3,5],[1,3],[0,26],[-3,11],[-3,11],[-8,12],[-4,13],[7,7],[16,-4],[8,6],[17,1],[14,-1],[12,0],[9,7],[17,9],[14,-1],[10,-9],[7,-14],[6,-8],[8,-2],[14,4],[-7,-12],[-6,-15],[1,-13],[14,-6],[9,-1],[15,-3],[9,-1],[19,4],[8,1],[18,4],[13,10],[6,13],[0,13],[-4,9],[-9,13],[-10,10],[-11,4],[0,4],[15,0],[0,6],[-10,1],[-4,5],[-1,7],[4,6],[-7,2],[-3,5],[2,6],[4,7],[-7,2],[-3,2],[-1,4],[1,7],[13,-5],[10,4],[9,8],[10,4],[4,0],[7,2],[4,3],[-3,4],[-6,1],[-12,-5],[-6,0],[-11,6],[3,6],[8,5],[5,5],[5,-2],[11,-3],[14,0],[10,2],[3,-5],[5,-6],[1,-4],[6,0],[-7,16],[-27,7],[8,12],[12,7],[10,1],[10,2],[9,10],[7,-3],[5,-3],[5,-4],[2,-5],[4,17],[-16,5],[-22,-3],[-15,-9],[-4,11],[-1,16],[4,15],[10,8],[10,-1],[7,-6],[6,-7],[8,-6],[8,-2],[2,1],[1,5],[4,6],[6,7],[3,2],[1,3],[-1,8],[-2,4],[-10,3],[-3,3],[0,4],[4,2],[4,10],[4,1],[2,2],[-4,7],[-4,2],[-6,0],[-6,1],[-3,6],[-1,-5],[-1,-1],[2,-3],[-8,-5],[-8,-2],[-7,3],[-2,8],[-19,-16],[-7,-4],[2,9],[26,32],[17,24],[11,11],[55,47],[15,27],[8,16],[11,3],[12,-5],[2,7],[1,7],[2,7],[5,0],[7,-1],[4,4],[-4,7],[-11,6],[-12,-4],[-16,-2],[-2,7],[9,11],[16,14],[1,1],[13,8],[17,6],[-10,8],[1,15],[6,8],[8,9],[9,5],[7,-2],[12,3],[11,2],[3,2],[14,13],[16,-31],[11,-12],[18,-7],[-3,9],[-24,29],[-7,10],[-1,12],[3,12],[7,9],[3,-7],[5,-6],[5,-4],[2,3],[-2,6],[-6,9],[-2,3],[4,15],[7,12],[4,13],[-5,15],[7,1],[8,-1],[-3,-3],[-1,-4],[-1,-5],[0,-5],[2,-6],[5,0],[7,5],[12,-1],[4,-2],[6,-6],[4,-3],[-1,7],[-3,6],[-5,4],[-6,3],[3,1],[3,3],[3,1],[-13,5],[-6,0],[3,7],[2,2],[4,-1],[6,-3],[2,11],[-10,3],[-15,0],[-12,-4],[3,12],[8,1],[12,-2],[12,-1],[-4,2],[-7,5],[-4,3],[4,1],[2,2],[3,1],[6,1],[-2,3],[-3,8],[15,3],[15,1],[0,-4],[-4,-7],[7,0],[22,7],[-11,2],[-2,5],[3,7],[13,15],[5,9],[7,21],[8,-6],[6,-1],[5,2],[8,8],[8,3],[11,2],[5,4],[-11,3],[-10,-1],[-10,-4],[-7,1],[-3,11],[5,2],[11,2],[12,5],[7,9],[-12,-1],[-31,-9],[-9,5],[-3,11],[1,13],[4,11],[20,-15],[11,-3],[17,-1],[3,1],[-2,3],[-5,4],[-7,1],[-8,0],[-6,1],[-4,3],[-4,6],[12,-1],[10,2],[8,5],[5,9],[-11,7],[-7,9],[1,9],[12,10],[5,-4],[4,-4],[1,-5],[0,-7],[10,10],[-4,15],[-2,14],[33,11],[9,12],[8,13],[10,10],[0,5],[-44,-10],[0,5],[5,2],[5,3],[-19,-1],[-8,2],[-8,4],[3,-32],[-43,-24],[-52,-9],[-28,15],[1,6],[11,6],[2,6],[-2,3],[-13,6],[-9,6],[-3,0],[-2,2],[0,7],[0,7],[2,5],[3,6],[4,19],[3,6],[8,5],[10,1],[7,-2],[1,-6],[-9,-8],[35,6],[11,4],[0,5],[-25,-5],[3,9],[5,8],[20,23],[12,25],[-8,0],[-4,1],[-1,3],[-2,6],[-11,-2],[-9,6],[-9,9],[-11,7],[3,-7],[1,-8],[-1,-8],[-3,-7],[-6,4],[-7,1],[-6,-1],[-6,-4],[0,-5],[3,-3],[0,-1],[-1,-1],[-2,-5],[-4,3],[-2,1],[-3,0],[-6,1],[2,-14],[-2,-20],[-5,-18],[-8,-8],[-2,-5],[-3,-20],[-2,-5],[-11,-1],[-10,6],[-3,10],[4,10],[-37,30],[-4,6],[-4,12],[4,10],[16,2],[-8,10],[-3,5],[-6,20],[-2,22],[-1,23],[2,10],[5,8],[8,7],[10,2],[10,-1],[7,2],[3,9],[3,5],[7,6],[9,2],[8,-3],[12,-14],[5,-2],[11,4],[13,7],[11,11],[21,27],[-61,1],[-12,1],[-10,13],[-27,45],[21,29],[4,11],[6,31],[7,12],[17,7],[0,5],[-15,-5],[2,21],[8,34],[0,100],[2,-7],[3,-5],[4,-4],[6,-4],[3,7],[2,12],[-2,11],[-18,9],[-2,10],[-1,11],[-2,10],[16,-2],[13,-9],[10,-12],[6,-12],[4,0],[-8,23],[-31,38],[-5,24],[-3,-1],[-9,-3],[-3,-1],[-7,29],[-8,94],[-5,12],[-4,110],[3,24],[7,24],[9,21],[-10,7],[-1,15],[2,17],[-3,7],[-7,6],[-4,14],[-2,29],[-11,-3],[-6,3],[-3,8],[0,13],[5,0],[3,-4],[3,-1],[3,0],[6,5],[-8,4],[-3,7],[-5,23],[1,2],[-1,3],[-4,6],[-3,1],[-12,2],[-5,2],[-8,7],[-5,8],[-6,6],[-11,3],[-10,0],[-8,-2],[-5,-5],[-2,-8],[-8,8],[-9,0],[-7,-3],[-6,0],[-5,9],[2,6],[6,4],[10,2],[6,7],[17,36],[9,12],[6,2],[17,1],[7,2],[8,6],[5,4],[40,0],[3,-2],[12,-4],[17,6]],[[4096,1164],[0,-1155],[-15,23],[-2,-32],[-258,0],[-17,19],[-38,-19],[-36,30],[-107,-30],[-17,25],[-64,-1],[-2,92],[-22,15],[57,86],[-92,116],[-33,102],[16,29],[41,-16],[24,15],[23,-44],[37,-10],[58,49],[68,-94],[79,-35],[2,-31],[65,81],[60,27],[54,114],[-39,71],[19,63],[-46,78],[7,34],[21,-1],[-58,103],[-5,74],[54,27],[-16,59],[61,78],[-13,36],[58,61],[38,-4],[24,-36],[14,1]],[[1200,2393],[8,39],[7,-24],[7,4],[20,-6],[12,2],[-39,7],[10,41],[-20,11],[30,16],[-19,-2],[5,27],[12,5],[14,-7],[3,4],[-22,6],[14,17],[-23,-10],[26,56],[-17,12],[36,-4],[-1,24],[7,1],[-7,14],[3,8],[8,-21],[-7,-21],[16,8],[-5,-17],[6,-2],[-2,58],[31,34],[19,-36],[112,-28],[45,-99],[78,4],[-38,-42],[36,-3],[-15,-40],[-26,2],[28,-20],[-33,-41],[0,22],[-11,-2],[-6,-31],[-23,9],[14,-26],[-27,-48],[-26,65],[-57,-76],[-87,-7],[-58,55],[12,20],[-34,-5],[11,44],[-27,3]],[[908,292],[55,15],[99,-42],[74,11],[49,-63],[-124,-49],[-30,22],[-24,-31],[-38,21],[-6,45],[-47,31],[-8,40]],[[1543,1384],[5,56],[37,35],[-8,64],[24,21],[57,-25],[61,100],[-31,53],[18,34],[11,-33],[26,19],[0,44],[48,-4],[-8,-28],[43,-15],[-35,-36],[26,-12],[-1,-50],[-27,4],[26,-22],[-48,16],[-1,-19],[37,-33],[-31,4],[-6,-36],[-167,-101],[28,-23],[-27,-29],[-49,-16],[-8,32]],[[1572,811],[23,72],[100,56],[12,50],[129,96],[10,89],[68,14],[-49,-46],[29,-21],[-47,-158],[52,164],[56,34],[45,-18],[83,15],[-14,-37],[-44,-11],[29,-25],[-46,-13],[17,-49],[-34,32],[5,-47],[-36,-10],[15,-49],[-29,19],[-28,-45],[-14,44],[-22,-66],[-41,-11],[3,30],[-24,-57],[-23,22],[5,-8],[-19,-19],[-17,20],[-20,-6],[-30,-58],[-45,5],[-42,-34],[-57,26]],[[1847,963],[-58,-65],[1,-1],[57,66]],[[1175,1938],[8,95],[42,28],[86,-41],[24,33],[24,-2],[23,-39],[-31,36],[-16,-38],[-18,6],[-14,-51],[30,-24],[2,28],[33,0],[-62,-132],[-75,102],[-56,-1]],[[331,2259],[146,0],[0,-121],[-97,-85],[-49,0],[0,206]],[[397,2142],[18,9],[10,40],[-16,-14],[-12,-35]],[[870,2945],[85,-1],[58,-80],[56,99],[72,-8],[-48,-46],[10,-14],[-22,-14],[-6,27],[-32,-26],[-2,-36],[33,-4],[-15,-17],[-189,2],[0,118]],[[3543,3453],[27,37],[37,-40],[13,14],[-5,-41],[103,-107],[55,9],[82,67],[23,-15],[-16,-72],[-34,-3],[11,-27],[-53,-21],[-10,-71],[-30,-8],[-20,45],[-18,-5],[38,96],[-41,-10],[0,-28],[-27,11],[-12,-61],[-54,5],[11,69],[-50,40],[33,108],[-63,8]],[[2320,3472],[5,32],[46,-15],[15,27],[43,-8],[33,29],[-24,23],[24,0],[-12,34],[18,8],[-26,28],[33,-6],[2,-24],[60,-12],[6,-40],[-37,-24],[15,-27],[-29,2],[24,-29],[-44,7],[-6,-33],[101,-25],[3,-21],[-43,5],[-44,-50],[-28,51],[-81,-8],[11,38],[-35,0],[0,39],[-30,-1]],[[1302,1088],[23,29],[24,-8],[19,11],[-21,14],[39,51],[-17,30],[36,19],[64,-18],[9,-36],[68,10],[10,-68],[-63,-14],[15,-41],[-53,-31],[-97,35],[-30,-27],[-16,2],[13,34],[-23,8]],[[180,1807],[60,0],[-39,34],[19,53],[82,43],[150,16],[28,-107],[-103,-1],[-10,-55],[-54,-56],[-82,8],[-51,65]],[[1775,3742],[112,33],[26,44],[0,-2],[-9,-25],[-2,-7],[0,-5],[21,39],[25,-7],[-24,-31],[82,-30],[-6,-35],[-40,-4],[-15,-126],[-26,-1],[-7,53],[-85,-27],[99,78],[-108,-2],[-43,55]],[[2539,2126],[-40,9],[21,33],[17,-19],[2,-23]],[[1651,2586],[23,-103],[-73,-32],[-24,24],[4,41],[61,105],[9,-35]],[[2558,3250],[27,-6],[19,1],[-48,-25],[2,30]],[[3446,3480],[0,-81],[-41,-98],[-42,-24],[-47,49],[-32,0],[48,73],[-32,40],[32,-8],[33,41],[81,8]],[[2184,3488],[25,36],[47,-4],[-10,-16],[-62,-16]],[[3421,3544],[3,43],[5,14],[17,-32],[-25,-25]],[[2376,3703],[18,-13],[-8,-16],[-32,16],[22,13]],[[0,590],[83,64],[190,-269],[68,-21],[6,-32],[-40,-14],[11,-68],[-27,-36],[-43,64],[28,20],[-41,26],[6,30],[-29,-30],[-21,12],[18,49],[-19,12],[-47,-20],[-76,-102],[-67,18],[0,297]],[[1723,1901],[43,57],[77,-40],[-24,-63],[-96,46]],[[0,878],[143,34],[27,-46],[62,1],[-5,-22],[12,-15],[81,39],[43,-67],[-22,-32],[37,-36],[-54,-58],[29,-2],[12,-43],[-74,26],[-21,42],[-40,-47],[-38,-6],[-77,41],[-43,63],[-70,4],[19,90],[-21,34]],[[2004,0],[53,16],[26,-16],[-79,0]],[[1824,0],[-14,74],[75,-9],[3,-40],[105,-1],[10,-24],[-179,0]],[[1593,81],[166,-11],[-1,-47],[-13,-23],[-98,0],[0,52],[-54,29]],[[528,0],[-8,29],[32,33],[-31,30],[45,17],[-27,54],[104,7],[30,68],[42,-13],[65,-95],[54,44],[68,1],[101,-119],[-24,-56],[-451,0]],[[2266,210],[6,97],[104,27],[15,59],[57,-35],[47,27],[1,-18],[30,7],[0,-92],[87,25],[79,-56],[41,-64],[186,-34],[15,-22],[-27,-30],[40,-83],[-639,-18],[-26,19],[23,72],[-11,40],[-28,4],[0,75]],[[1950,2524],[24,80],[22,-4],[-15,65],[45,48],[-2,55],[30,-21],[-11,42],[13,36],[27,1],[-9,23],[127,12],[8,-40],[-37,-33],[61,-33],[-13,-36],[-22,7],[17,-45],[-17,-17],[23,-1],[-65,-24],[-25,27],[1,-21],[-4,-4],[-15,57],[-33,-2],[29,-47],[-55,-1],[25,-11],[-14,-14],[51,-7],[5,-98],[-75,-23],[-15,23],[-30,2],[-4,-21],[-47,25]],[[3100,2729],[61,116],[-12,-86],[64,51],[39,114],[0,28],[-21,-2],[5,94],[58,37],[1,46],[37,-14],[5,-29],[-48,-104],[30,15],[4,-27],[23,44],[39,14],[20,-30],[-17,-64],[87,68],[41,-134],[-11,-92],[-36,24],[-37,-10],[0,3],[-11,3],[-3,-2],[70,-20],[-38,-35],[14,-11],[32,35],[35,-11],[-40,-28],[31,-15],[-21,-48],[-27,13],[12,-22],[-71,-33],[7,24],[-16,-18],[-14,32],[-27,-5],[-19,112],[-47,12],[-33,-38],[12,33],[-44,-31],[-16,24],[-25,-13],[25,-41],[-42,-1],[16,-22],[-17,-8],[-26,18],[-23,-27],[13,37],[-39,24]],[[4096,1737],[0,-2],[-24,-10],[-7,26],[-36,4],[-37,-19],[18,-24],[-64,10],[-19,-26],[-3,31],[-12,-30],[-27,22],[-12,-23],[-8,45],[-3,-33],[-39,13],[-10,-19],[-10,39],[-32,-23],[-13,26],[-68,-18],[-54,37],[-20,-168],[-17,24],[-35,-9],[-6,57],[-14,4],[-110,-74],[-30,53],[-70,21],[-46,56],[-154,82],[2,38],[33,12],[12,0],[-63,49],[-32,-18],[-56,43],[-99,-45],[-14,45],[-63,35],[-23,91],[-39,-19],[23,-19],[-11,-23],[-37,5],[13,62],[-21,26],[75,90],[98,5],[75,70],[88,-35],[6,21],[46,-59],[68,-198],[41,-26],[-8,-50],[42,192],[-14,20],[55,4],[1,25],[62,13],[-9,4],[-2,-4],[-10,-3],[-4,2],[30,40],[-73,85],[76,63],[0,31],[79,-30],[-5,88],[29,-2],[15,-45],[-43,-72],[18,-57],[-3,-3],[-12,19],[-13,5],[21,-51],[-23,12],[-9,-25],[13,-24],[35,10],[-18,-73],[44,-1],[-13,-28],[22,-2],[-38,-69],[26,-5],[-12,-43],[382,24],[9,69],[101,-84],[89,-7],[0,-238],[-7,8],[7,-20]],[[3278,1858],[-31,46],[0,-1],[31,-45]],[[3330,2063],[53,-22],[-53,22]],[[3421,1920],[87,-82],[1,9],[-88,73]],[[3507,1820],[-11,-16],[9,-12],[2,28]],[[3498,1684],[0,-1],[15,-4],[-15,5]],[[1859,2039],[37,85],[-30,25],[31,5],[4,-25],[12,0],[-10,25],[51,68],[-31,42],[26,14],[-12,57],[47,-24],[111,21],[-11,-29],[11,-5],[17,46],[24,10],[3,-67],[55,72],[-9,-49],[14,1],[3,-7],[-29,0],[-6,-35],[35,13],[-11,-41],[-21,17],[-30,-30],[4,33],[-9,6],[-19,-32],[-12,14],[-4,-11],[-22,17],[-17,-8],[57,-29],[-30,-18],[27,-2],[-23,-17],[-5,-16],[86,44],[-20,-70],[36,57],[35,-13],[-4,-43],[-17,7],[-11,-3],[56,-71],[-11,-36],[-22,-5],[0,50],[-18,-9],[5,31],[-19,3],[8,-16],[-18,7],[-9,-8],[26,-6],[-10,-48],[-34,-4],[19,38],[-49,12],[2,-44],[-41,-11],[-29,88],[-12,-21],[-17,44],[-3,-36],[-46,-27],[-25,71],[-28,-92],[-36,-29],[-22,14]],[[512,531],[62,21],[13,30],[64,-36],[-29,-57],[-69,34],[-35,-38],[-6,46]]]}