{"objects":{"water":{"type":"GeometryCollection","geometries":[]},"buildings":{"type":"GeometryCollection","geometries":[]},"places":{"type":"GeometryCollection","geometries":[{"type":"Point","properties":{"source":"openstreetmap.org","kind":"locality","name":"St. Johns","kind_detail":"town","population":3480,"min_zoom":8.0,"id":151684106},"coordinates":[951,706]}]},"transit":{"type":"GeometryCollection","geometries":[{"type":"MultiLineString","properties":{"kind":"train","network":"Amtrak","service":"long_distance","sort_rank":275,"colour":"#005480","name":"Southwest Chief (eastbound)","source":"openstreetmap.org","min_zoom":5.0,"operator":"Amtrak","ref":"4","osm_relation":true,"colour_name":"teal"},"arcs":[[2],[3],[4],[5]]},{"type":"MultiLineString","properties":{"kind":"train","network":"Amtrak","service":"long_distance","sort_rank":275,"colour":"#005480","name":"Southwest Chief (westbound)","source":"openstreetmap.org","min_zoom":5.0,"operator":"Amtrak","ref":"3","osm_relation":true,"colour_name":"teal"},"arcs":[[6],[7],[8],[9]]}]},"pois":{"type":"GeometryCollection","geometries":[{"type":"Point","properties":{"kind":"nature_reserve","tier":2,"protect_class":"1b","area":262338000,"source":"openstreetmap.org","min_zoom":8.27,"operator":"BLM","id":-5965698,"osm_relation":true,"name":"Eagle Peak Wilderness Study Area"},"coordinates":[2726,206]},{"type":"Point","properties":{"kind":"nature_reserve","tier":2,"protect_class":"1b","area":115919000,"source":"openstreetmap.org","min_zoom":8.86,"operator":"BLM","id":-5965680,"osm_relation":true,"name":"Mesita Blanca Wilderness Study Area"},"coordinates":[2364,127]}]},"boundaries":{"type":"GeometryCollection","geometries":[{"type":"LineString","properties":{"name:pt":"Novo M\u00e9xico","name:cy":"Mecsico Newydd","name:ko":"\ub274\uba55\uc2dc\ucf54","name:cv":"\u00c7\u0115\u043d\u0115 \u041c\u0435\u043a\u0441\u0438\u043a\u0430","name:cs":"Nov\u00e9 Mexiko","name:kw":"Meksiko Nowydh","name:ku":"N\u00fb Meks\u00eeko","name:tl":"Bagong Mehiko","name:pl":"Nowy Meksyk","name:ta":"\u0ba8\u0bbf\u0baf\u0bc2 \u0bae\u0bc6\u0b95\u0bcd\u0b9a\u0bbf\u0b95\u0bcb","name:ca":"Nou M\u00e8xic","name:ka":"\u10dc\u10d8\u10e3-\u10db\u10d4\u10e5\u10e1\u10d8\u10d9\u10dd","sort_rank":256,"name:de":"Neumexiko","source":"openstreetmap.org","osm_relation":true,"name:kn":"\u0ca8\u0ccd\u0caf\u0cc2 \u0cae\u0cc6\u0c95\u0ccd\u0cb8\u0cbf\u0c95\u0ccb","name:lv":"\u0145\u016bmeksika","name:tr":"Yeni Meksika","name:hi":"\u0928\u092f\u093e \u092e\u0947\u0915\u094d\u0938\u093f\u0915\u094b","name:he":"\u05e0\u05d9\u05d5 \u05de\u05e7\u05e1\u05d9\u05e7\u05d5","kind":"region","name:ur":"\u0646\u06cc\u0648 \u0645\u06cc\u06a9\u0633\u06cc\u06a9\u0648","name:la":"Novum Mexicum","name:uk":"\u041d\u044c\u044e-\u041c\u0435\u043a\u0441\u0438\u043a\u043e","name:hy":"\u0546\u0575\u0578\u0582 \u0544\u0565\u0584\u057d\u056b\u056f\u0578","name:ht":"Nou Meksiko","name:hu":"\u00daj-Mexik\u00f3","name:hr":"Novi Meksiko","name:oc":"N\u00f2u Mexic","name:el":"\u039d\u03ad\u03bf \u039c\u03b5\u03be\u03b9\u03ba\u03cc","name:eo":"Nov-Meksiko","name":"New Mexico","min_zoom":8.0,"name:th":"\u0e23\u0e31\u0e10\u0e19\u0e34\u0e27\u0e40\u0e21\u0e47\u0e01\u0e0b\u0e34\u0e42\u0e01","name:yi":"\u05e0\u05d9\u05d5 \u05de\u05e2\u05e7\u05e1\u05d9\u05e7\u05d0","name:es":"Nuevo M\u00e9xico","name:az":"Nyu-Meksiko","name:mr":"\u0928\u094d\u092f\u0942 \u092e\u0947\u0915\u094d\u0938\u093f\u0915\u094b","name:ik":"Tchiaq Mexiqo","name:ar":"\u0646\u064a\u0648\u0645\u0643\u0633\u064a\u0643\u0648","name:is":"N\u00fdja Mex\u00edk\u00f3","name:it":"Nuovo Messico","name:ru":"\u041d\u044c\u044e-\u041c\u0435\u043a\u0441\u0438\u043a\u043e","name:ml":"\u0d28\u0d4d\u0d2f\u0d42 \u0d2e\u0d46\u0d15\u0d4d\u0d38\u0d3f\u0d15\u0d4d\u0d15\u0d4b","id":-162014,"name:fa":"\u0646\u06cc\u0648\u0645\u06a9\u0632\u06cc\u06a9\u0648","name:lt":"Naujoji Meksika","kind_detail":"4","name:fr":"Nouveau-Mexique","name:zh":"\u65b0\u58a8\u897f\u54e5\u5dde","name:sl":"Nova Mehika","name:nl":"Nieuw-Mexico","name:ja":"\u30cb\u30e5\u30fc\u30e1\u30ad\u30b7\u30b3\u5dde","name:sh":"Novi Meksiko","name:bs":"Novi Meksiko","name:eu":"Mexiko Berria","name:sk":"Nov\u00e9 Mexiko","name:bg":"\u041d\u044e \u041c\u0435\u043a\u0441\u0438\u043a\u043e","name:sr":"\u041d\u043e\u0432\u0438 \u041c\u0435\u043a\u0441\u0438\u043a\u043e","name:nv":"Yoot\u00f3 Hahoodzo","name:sq":"Nju Meksiko","name:ga":"Nua-Mheicsiceo","name:gd":"Meagsago Nuadh","name:gn":"Pyahu M\u00e9jiko","name:gl":"Novo M\u00e9xico","name:gv":"Meksico Noa"},"arcs":[0]},{"type":"LineString","properties":{"name:pt":"Novo M\u00e9xico","name:cy":"Mecsico Newydd","name:ko":"\ub274\uba55\uc2dc\ucf54","name:cv":"\u00c7\u0115\u043d\u0115 \u041c\u0435\u043a\u0441\u0438\u043a\u0430","name:cs":"Nov\u00e9 Mexiko","name:kw":"Meksiko Nowydh","name:ku":"N\u00fb Meks\u00eeko","name:tl":"Bagong Mehiko","name:pl":"Nowy Meksyk","name:ta":"\u0ba8\u0bbf\u0baf\u0bc2 \u0bae\u0bc6\u0b95\u0bcd\u0b9a\u0bbf\u0b95\u0bcb","name:ca":"Nou M\u00e8xic","name:ka":"\u10dc\u10d8\u10e3-\u10db\u10d4\u10e5\u10e1\u10d8\u10d9\u10dd","sort_rank":256,"name:de":"Neumexiko","source":"openstreetmap.org","osm_relation":true,"name:kn":"\u0ca8\u0ccd\u0caf\u0cc2 \u0cae\u0cc6\u0c95\u0ccd\u0cb8\u0cbf\u0c95\u0ccb","name:lv":"\u0145\u016bmeksika","name:tr":"Yeni Meksika","name:hi":"\u0928\u092f\u093e \u092e\u0947\u0915\u094d\u0938\u093f\u0915\u094b","name:he":"\u05e0\u05d9\u05d5 \u05de\u05e7\u05e1\u05d9\u05e7\u05d5","kind":"region","name:ur":"\u0646\u06cc\u0648 \u0645\u06cc\u06a9\u0633\u06cc\u06a9\u0648","name:la":"Novum Mexicum","name:uk":"\u041d\u044c\u044e-\u041c\u0435\u043a\u0441\u0438\u043a\u043e","name:hy":"\u0546\u0575\u0578\u0582 \u0544\u0565\u0584\u057d\u056b\u056f\u0578","name:ht":"Nou Meksiko","name:hu":"\u00daj-Mexik\u00f3","name:hr":"Novi Meksiko","name:oc":"N\u00f2u Mexic","name:el":"\u039d\u03ad\u03bf \u039c\u03b5\u03be\u03b9\u03ba\u03cc","name:eo":"Nov-Meksiko","name":"New Mexico","min_zoom":8.0,"name:th":"\u0e23\u0e31\u0e10\u0e19\u0e34\u0e27\u0e40\u0e21\u0e47\u0e01\u0e0b\u0e34\u0e42\u0e01","name:yi":"\u05e0\u05d9\u05d5 \u05de\u05e2\u05e7\u05e1\u05d9\u05e7\u05d0","name:es":"Nuevo M\u00e9xico","name:az":"Nyu-Meksiko","name:mr":"\u0928\u094d\u092f\u0942 \u092e\u0947\u0915\u094d\u0938\u093f\u0915\u094b","name:ik":"Tchiaq Mexiqo","name:ar":"\u0646\u064a\u0648\u0645\u0643\u0633\u064a\u0643\u0648","name:is":"N\u00fdja Mex\u00edk\u00f3","name:it":"Nuovo Messico","name:ru":"\u041d\u044c\u044e-\u041c\u0435\u043a\u0441\u0438\u043a\u043e","name:ml":"\u0d28\u0d4d\u0d2f\u0d42 \u0d2e\u0d46\u0d15\u0d4d\u0d38\u0d3f\u0d15\u0d4d\u0d15\u0d4b","id":-162014,"name:fa":"\u0646\u06cc\u0648\u0645\u06a9\u0632\u06cc\u06a9\u0648","name:lt":"Naujoji Meksika","kind_detail":"4","name:fr":"Nouveau-Mexique","name:zh":"\u65b0\u58a8\u897f\u54e5\u5dde","name:sl":"Nova Mehika","name:nl":"Nieuw-Mexico","name:ja":"\u30cb\u30e5\u30fc\u30e1\u30ad\u30b7\u30b3\u5dde","name:sh":"Novi Meksiko","name:bs":"Novi Meksiko","name:eu":"Mexiko Berria","name:sk":"Nov\u00e9 Mexiko","name:bg":"\u041d\u044e \u041c\u0435\u043a\u0441\u0438\u043a\u043e","name:sr":"\u041d\u043e\u0432\u0438 \u041c\u0435\u043a\u0441\u0438\u043a\u043e","name:nv":"Yoot\u00f3 Hahoodzo","name:sq":"Nju Meksiko","name:ga":"Nua-Mheicsiceo","name:gd":"Meagsago Nuadh","name:gn":"Pyahu M\u00e9jiko","name:gl":"Novo M\u00e9xico","name:gv":"Meksico Noa"},"arcs":[1]}]},"roads":{"type":"GeometryCollection","geometries":[{"type":"LineString","properties":{"kind":"major_road","network":"US:NM","sort_rank":379,"kind_detail":"secondary","is_bicycle_related":true,"bicycle_shield_text":"66","bicycle_network":"ncn","source":"openstreetmap.org","min_zoom":8.0,"shield_text":"53","ref":"NM 53"},"arcs":[10]},{"type":"MultiLineString","properties":{"kind":"highway","network":"US:I","sort_rank":383,"kind_detail":"motorway","is_bicycle_related":true,"source":"openstreetmap.org","min_zoom":8.0,"all_networks":["US:I","US:US"],"shield_text":"40","ref":"I 40","all_shield_texts":["40","66"]},"arcs":[[11],[12],[13],[14],[15],[16],[17],[18],[19],[20],[21],[22],[23],[24]]},{"type":"LineString","properties":{"kind":"major_road","network":"US:US","sort_rank":380,"kind_detail":"primary","source":"openstreetmap.org","min_zoom":8.0,"shield_text":"191","ref":"US 191;SR 61"},"arcs":[25]},{"type":"LineString","properties":{"kind":"major_road","network":"US:US","sort_rank":380,"kind_detail":"primary","source":"openstreetmap.org","min_zoom":8.0,"shield_text":"180","ref":"US 180"},"arcs":[26]},{"type":"LineString","properties":{"kind":"major_road","network":"US:US","sort_rank":379,"kind_detail":"secondary","is_bicycle_related":true,"bicycle_shield_text":"66","bicycle_network":"ncn","source":"openstreetmap.org","min_zoom":8.0,"shield_text":"66","ref":"NM 118"},"arcs":[27]},{"type":"LineString","properties":{"kind":"major_road","network":"US:US","sort_rank":379,"kind_detail":"secondary","is_bicycle_related":true,"bicycle_shield_text":"66","bicycle_network":"ncn","source":"openstreetmap.org","min_zoom":8.0,"shield_text":"66","id":151272200},"arcs":[28]},{"type":"MultiLineString","properties":{"kind":"highway","network":"US:I","sort_rank":383,"kind_detail":"motorway","is_bicycle_related":true,"source":"openstreetmap.org","min_zoom":8.0,"all_networks":["US:I","US:US","US:US"],"shield_text":"40","ref":"I 40;US 191","all_shield_texts":["40","66","191"]},"arcs":[[29],[30],[31],[32]]},{"type":"MultiLineString","properties":{"kind":"major_road","network":"US:US","sort_rank":380,"kind_detail":"primary","source":"openstreetmap.org","min_zoom":8.0,"shield_text":"191","ref":"US 191"},"arcs":[[33],[34]]},{"type":"LineString","properties":{"kind":"major_road","network":"US:US","sort_rank":380,"kind_detail":"primary","source":"openstreetmap.org","min_zoom":8.0,"shield_text":"180","ref":"US 180;SR 61"},"arcs":[35]},{"type":"LineString","properties":{"kind":"major_road","network":"US:US","sort_rank":380,"kind_detail":"primary","source":"openstreetmap.org","min_zoom":8.0,"shield_text":"60","ref":"US 60"},"arcs":[36]},{"type":"LineString","properties":{"kind":"major_road","network":"US:NM","sort_rank":379,"kind_detail":"secondary","is_bicycle_related":true,"bicycle_shield_text":"66","bicycle_network":"ncn","source":"openstreetmap.org","min_zoom":8.0,"shield_text":"602","ref":"NM 602"},"arcs":[37]},{"type":"LineString","properties":{"kind":"highway","sort_rank":383,"kind_detail":"motorway","is_bicycle_related":true,"source":"openstreetmap.org","min_zoom":8.0,"ref":"I 40","id":47999165},"arcs":[38]},{"type":"MultiLineString","properties":{"kind":"highway","network":"US:I","sort_rank":383,"kind_detail":"motorway","is_bicycle_related":true,"source":"openstreetmap.org","min_zoom":8.0,"all_networks":["US:I"],"shield_text":"40","ref":"I 40","all_shield_texts":["40"]},"arcs":[[39],[40],[41],[42],[43]]},{"type":"LineString","properties":{"kind":"major_road","network":"US:AZ","sort_rank":380,"kind_detail":"primary","source":"openstreetmap.org","min_zoom":8.0,"shield_text":"61","ref":"AZ 61","id":181671874},"arcs":[44]},{"type":"LineString","properties":{"kind":"major_road","network":"US:US","sort_rank":380,"kind_detail":"primary","source":"openstreetmap.org","min_zoom":8.0,"shield_text":"180","ref":"US 180;US 191"},"arcs":[45]}]},"earth":{"type":"GeometryCollection","geometries":[{"type":"Polygon","properties":{"sort_rank":10,"source":"naturalearthdata.com","min_zoom":0.0,"kind":"earth","area":98022885885},"arcs":[[46]]}]},"landuse":{"type":"GeometryCollection","geometries":[{"type":"MultiPolygon","properties":{"kind":"nature_reserve","protect_class":"1b","area":215037820,"sort_rank":23,"operator":"BLM","source":"openstreetmap.org","min_zoom":7.0,"tier":2,"osm_relation":true},"arcs":[[[47],[48]]]},{"type":"MultiPolygon","properties":{"kind":"national_park","area":1348419968,"sort_rank":18,"operator":"United States National Park Service","source":"openstreetmap.org","min_zoom":3.0,"tier":1,"id":-4640162,"osm_relation":true},"arcs":[[[49]],[[50]]]},{"type":"MultiPolygon","properties":{"kind":"forest","protect_class":"6","area":5818751288,"sort_rank":31,"operator":"United States Forest Service","source":"openstreetmap.org","min_zoom":4.0,"tier":2,"osm_relation":true},"arcs":[[[51]]]},{"type":"MultiPolygon","properties":{"kind":"nature_reserve","protect_class":"1b","area":1620922958,"sort_rank":23,"operator":"BLM","source":"openstreetmap.org","min_zoom":6.0,"tier":2,"osm_relation":true},"arcs":[[[52],[53]]]}]}},"type":"Topology","transform":{"translate":[-109.6875,34.3071438563],"scale":[0.0003433228,0.0002816226]},"arcs":[[[1868,1293],[-1,-1293]],[[1869,4096],[-1,-2803]],[[0,2623],[169,131],[372,210],[165,148],[331,112],[174,152],[87,43],[210,22],[188,98],[98,90],[241,348],[86,68],[44,51]],[[3842,4096],[44,-50],[84,-57],[126,-60]],[[4096,3932],[-210,115],[-2,49]],[[2164,4096],[-44,-52],[-27,-19],[-52,-42],[-3,-3],[-3,-3],[-135,-176],[-106,-171]],[[0,2623],[169,131],[372,210],[165,148],[331,112],[174,152],[87,43],[210,22],[188,98],[98,90],[241,348],[58,48],[20,14],[4,3],[4,3],[3,3],[6,7],[35,41]],[[3842,4096],[44,-50],[84,-57],[126,-60]],[[4096,3932],[-210,115],[-2,49]],[[2160,4096],[-125,-119],[-241,-347]],[[2885,2866],[178,27],[191,-58],[136,92],[90,4],[288,-284],[103,-31],[225,-9]],[[0,2780],[286,76],[133,59],[107,81],[1,0],[10,8]],[[537,3004],[133,104],[64,25]],[[734,3133],[25,10]],[[745,3140],[-11,-7]],[[734,3133],[-197,-129]],[[537,3004],[-11,-7],[-108,-82],[-418,-133]],[[1843,3722],[-102,-127],[-256,-139],[-182,7],[-16,-10]],[[1287,3453],[-53,-33]],[[1234,3420],[-22,-13],[-196,-189]],[[1021,3219],[133,118],[80,83]],[[1234,3420],[18,19],[35,14]],[[1287,3453],[16,7],[1,0],[180,-5],[207,107],[51,33],[30,28],[32,37],[39,61]],[[3992,3972],[-213,124]],[[3765,4096],[231,-127]],[[951,706],[37,15],[19,178],[94,267],[139,290],[68,225],[1,432]],[[706,722],[-58,91],[-224,175],[-102,0],[-159,42],[-163,141]],[[1868,3755],[166,223],[131,118]],[[1850,3733],[18,22]],[[1016,3218],[-25,-7]],[[991,3211],[-246,-71]],[[759,3143],[232,68]],[[991,3211],[30,8]],[[465,4096],[15,-89],[81,-191],[179,-207],[-18,-135],[23,-335]],[[1309,2113],[30,357],[-241,301],[-80,285],[13,172]],[[706,722],[245,-16]],[[4096,15],[-280,42],[-147,-31],[-205,103],[-186,-30],[-91,-99]],[[2885,2866],[-29,73],[-112,107],[-61,216],[38,146],[0,486],[44,77],[-23,81],[4,44]],[[2019,3932],[0,1]],[[2168,4096],[-38,-53],[-108,-105],[-60,-110],[-119,-106]],[[1843,3721],[120,106],[56,105]],[[2019,3933],[166,163]],[[4096,3918],[-104,54]],[[3996,3969],[100,-52]],[[699,722],[-268,-88],[-126,1],[-99,-65],[-89,-203],[-117,-122]],[[899,0],[-25,88],[25,79],[-75,93],[-13,247],[140,199]],[[4096,0],[-4096,0],[0,1377],[0,2719],[4096,0],[0,-4096]],[[2200,83],[55,35],[0,-30],[52,0],[0,51],[25,0],[-1,78],[26,1],[0,26],[-26,0],[-1,38],[-25,13],[0,53],[294,-1],[20,-100],[-39,-42],[-172,0],[30,-14],[-3,-131],[-35,-50],[-38,-6],[-16,25],[11,-29],[-153,0],[13,75],[-17,8]],[[2369,308],[26,-14],[0,40],[-13,-26],[-13,0]],[[0,3064],[7,0],[5,-157],[-12,1],[0,156]],[[0,2703],[79,1],[27,50],[166,0],[0,-103],[51,0],[0,-51],[-52,0],[-3,-413],[-208,3],[0,-53],[-60,1],[0,565]],[[4096,3703],[0,-872],[-240,0],[-1,206],[-357,-1],[-26,-51],[-129,0],[2,565],[-280,0],[-2,103],[18,191],[150,0],[12,252],[518,0],[77,-44],[-1,-194],[69,-9],[-20,-8],[1,-137],[209,-1]],[[2426,89],[72,0],[0,50],[34,-10],[1,36],[41,13],[-14,16],[52,39],[39,-3],[0,26],[40,0],[-40,12],[-13,39],[-5,72],[48,1],[-48,2],[17,133],[0,-39],[54,0],[0,-26],[13,65],[51,-17],[0,-48],[39,1],[-2,-40],[43,13],[75,-76],[64,-13],[0,-51],[15,38],[26,0],[2,-25],[38,0],[-4,-38],[29,38],[82,-4],[27,-35],[-23,-60],[-52,-6],[13,78],[-24,0],[-2,-26],[-26,1],[0,-65],[-116,13],[0,-52],[-39,0],[-15,-76],[-101,-1],[-1,-26],[-24,0],[0,26],[-103,-1],[25,-51],[-253,-12],[-35,89]],[[2870,142],[25,-1],[1,77],[-25,1],[-1,-77]]]}