{"objects":{"water":{"type":"GeometryCollection","geometries":[{"type":"Polygon","properties":{"source":"naturalearthdata.com","kind":"lake","name":"Presa Miguel Hidalgo","area":100179152,"sort_rank":200,"min_zoom":0.0,"id":320},"arcs":[[8]]},{"type":"MultiPolygon","properties":{"source":"naturalearthdata.com","kind":"ocean","area":1576712559132672,"sort_rank":200,"min_zoom":0.0,"id":1},"arcs":[[[9]],[[10]]]},{"type":"Point","properties":{"label_placement":true,"kind":"lake","name":"Presa Miguel Hidalgo","area":100179152,"sort_rank":200,"source":"naturalearthdata.com","min_zoom":0.0,"id":320},"coordinates":[3377,2669]},{"type":"MultiLineString","properties":{"source":"naturalearthdata.com","kind":"ocean","sort_rank":205,"boundary":true,"min_zoom":0.0,"id":68},"arcs":[[11],[12]]},{"type":"LineString","properties":{"source":"naturalearthdata.com","kind":"lake","sort_rank":367,"boundary":true,"min_zoom":0.0,"id":320},"arcs":[13]}]},"buildings":{"type":"GeometryCollection","geometries":[]},"places":{"type":"GeometryCollection","geometries":[{"type":"Point","properties":{"source":"naturalearthdata.com","kind":"locality","name":"Huatabampo","population":30426,"min_zoom":7.0,"id":3125},"coordinates":[167,3352]},{"type":"Point","properties":{"source":"naturalearthdata.com","kind":"locality","name":"El Fuerte","population":11171,"min_zoom":7.0,"id":3116},"coordinates":[3109,2018]},{"type":"Point","properties":{"admin_level":"6","kind":"locality","name":"El Fuerte","kind_detail":"town","source":"openstreetmap.org","min_zoom":8.0,"name:ru":"\u042d\u043b\u044c-\u0424\u0443\u044d\u0440\u0442\u0435","id":1559366456,"population":30000},"coordinates":[3108,2015]}]},"transit":{"type":"GeometryCollection","geometries":[{"type":"LineString","properties":{"kind":"train","name":"Chihuahua al Pac\u00edfico","sort_rank":275,"source":"openstreetmap.org","min_zoom":6.0,"operator":"Ferromex","ref":"https:\/\/en.wikipedia.org\/wiki\/Ferrocarril_Chihuahua_al_Pac%C3%ADfico","osm_relation":true},"arcs":[7]}]},"pois":{"type":"GeometryCollection","geometries":[]},"boundaries":{"type":"GeometryCollection","geometries":[{"type":"LineString","properties":{"name:ka":"\u10db\u10d4\u10e5\u10e1\u10d8\u10d9\u10d0","name:ko":"\uba55\uc2dc\ucf54","name:cv":"\u041c\u0435\u043a\u0441\u0438\u043a\u0430","name:km":"\u1798\u17c9\u17b7\u1780\u179f\u17ca\u17b7\u1780","name:kl":"Mexico","name:cs":"Mexiko","name:tw":"Mexico","name:tt":"\u041c\u0435\u043a\u0441\u0438\u043a\u0430","name:co":"Messicu","name:kv":"\u041c\u0435\u043a\u0441\u0438\u043a\u0430","name:th":"\u0e1b\u0e23\u0e30\u0e40\u0e17\u0e28\u0e40\u0e21\u0e47\u0e01\u0e0b\u0e34\u0e42\u0e01","name:tl":"Mehiko","name:ce":"\u041c\u0435\u043a\u0441\u0438\u043a\u0430","name:ta":"\u0bae\u0bc6\u0b95\u0bcd\u0b9a\u0bbf\u0b95\u0bcd\u0b95\u0bcb","name:tg":"\u041c\u0435\u043a\u0441\u0438\u043a\u0430","name:ca":"M\u00e8xic","name:te":"\u0c2e\u0c46\u0c15\u0c4d\u0c38\u0c3f\u0c15\u0c4b","name:cy":"Mexico","name:qu":"Mishiku","name:da":"Mexico","name:de":"Mexiko","name:dz":"\u0f58\u0f7a\u0f40\u0f0b\u0f66\u0f72\u0f0b\u0f40\u0f7c","source":"openstreetmap.org","name:kn":"\u0cae\u0cc6\u0c95\u0ccd\u0cb8\u0cbf\u0c95\u0ccb","name:dv":"\u0789\u07ac\u0786\u07b0\u0790\u07a8\u0786\u07af","name:lv":"Meksika","name:lt":"Meksika","name:uz":"Meksika","name:kk":"\u041c\u0435\u043a\u0441\u0438\u043a\u0430","name:ur":"\u0645\u06cc\u06a9\u0633\u06cc\u06a9\u0648","name:lb":"Mexiko","name:la":"Mexicum","name:uk":"\u041c\u0435\u043a\u0441\u0438\u043a\u0430","name:ug":"\u0645\u06d0\u0643\u0633\u0649\u0643\u0627","name:li":"Mexico","name:ln":"Mexiko","name:el":"\u039c\u03b5\u03be\u03b9\u03ba\u03cc","name:eo":"Meksiko","name:en":"Mexico","name":"M\u00e9xico","name:tk":"Meksika","name:ee":"Mexico","name:ku":"Meks\u00eek","name:eu":"Mexiko","name:et":"Mehhiko","name:ay":"M\u00efxiku","name:rm":"Mexico","name:az":"Meksika","name:id":"Meksiko","name:ik":"Mexiqo","name:ar":"\u0627\u0644\u0645\u0643\u0633\u064a\u0643","name:io":"Mexikia","name:is":"Mex\u00edk\u00f3","name:am":"\u121c\u12ad\u1232\u12ae","name:it":"Messico","name:an":"Mexico","name:ru":"\u041c\u0435\u043a\u0441\u0438\u043a\u0430","name:rw":"Megizike","name:af":"Meksiko","name:zu":"IMekisiko","kind_detail":"2","name:ky":"\u041c\u0435\u043a\u0441\u0438\u043a\u0430","name:zh-yue":"\u58a8\u897f\u54e5","name:zh":"\u58a8\u897f\u54e5","name:so":"Meksiko","name:sn":"Mexico","name:sm":"Mexico","name:sl":"Mehika","name:sk":"Mexiko","name:ja":"\u30e1\u30ad\u30b7\u30b3","name:sh":"Meksiko","name:se":"Meksiko","name:sc":"M\u00e8ssico","name:br":"Mec'hiko","name:bs":"Meksiko","name:bm":"M\u025bkisiki","name:bn":"\u09ae\u09c7\u0995\u09cd\u09b8\u09bf\u0995\u09cb","name:bo":"\u0f58\u0f7a\u0f42\u0f0b\u0f66\u0f72\u0f0b\u0f40\u0f7c\u0f0d","name:bi":"Mexico","name:sw":"Mexiko","name:be":"\u041c\u0435\u043a\u0441\u0456\u043a\u0430","name:su":"M\u00e9ksiko","name:bg":"\u041c\u0435\u043a\u0441\u0438\u043a\u043e","name:ss":"IMekisikho","name:ba":"\u041c\u0435\u043a\u0441\u0438\u043a\u0430","name:sq":"Meksika","name:jv":"M\u00e8ksiko","name:ia":"Mexico","name:oc":"Mexic","min_zoom":8.0,"name:ro":"Mexic","name:zh-min-nan":"Be\u030dk-se-ko","name:os":"\u041c\u0435\u043a\u0441\u0438\u043a\u00e6","name:or":"\u0b2e\u0b47\u0b15\u0b4d\u0b38\u0b3f\u0b15\u0b4b","name:pl":"Meksyk","sort_rank":262,"name:sr":"\u041c\u0435\u043a\u0441\u0438\u043a\u043e","osm_relation":true,"name:pa":"\u0a2e\u0a48\u0a15\u0a38\u0a40\u0a15\u0a4b","name:tr":"Meksika","name:hi":"\u092e\u0947\u0915\u094d\u0938\u093f\u0915\u094b","name:sv":"Mexico","name:he":"\u05de\u05e7\u05e1\u05d9\u05e7\u05d5","name:hy":"\u0544\u0565\u0584\u057d\u056b\u056f\u0561","name:ht":"Meksik","name:hu":"Mexik\u00f3","name:hr":"Meksiko","kind":"country","name:yi":"\u05de\u05e2\u05e7\u05e1\u05d9\u05e7\u05d0","name:iu":"\u14a6\u1483\u14f0\u1582","name:yo":"M\u1eb9\u0301ks\u00edk\u00f2","name:mt":"Messiku","name:ms":"Mexico","name:mr":"\u092e\u0947\u0915\u094d\u0938\u093f\u0915\u094b","name:my":"\u1019\u1000\u1039\u1000\u1006\u102e\u1000\u102d\u102f\u1014\u102d\u102f\u1004\u103a\u1004\u1036","name:kw":"Meksiko","name:mg":"Meksika","name:ml":"\u0d2e\u0d46\u0d15\u0d4d\u0d38\u0d3f\u0d15\u0d4d\u0d15\u0d4b","name:mn":"\u041c\u0435\u043a\u0441\u0438\u043a","name:mi":"Mehiko","id":-114686,"name:mk":"\u041c\u0435\u043a\u0441\u0438\u043a\u043e","name:vo":"M\u00e4xik\u00e4n","name:fa":"\u0645\u06a9\u0632\u06cc\u06a9","name:fi":"Meksiko","name:fo":"Meksiko","alt_name:vi":"M\u00ea-hi-c\u00f4;M\u1ec5 T\u00e2y C\u01a1;M\u1ec5","name:fr":"Mexique","name:fy":"Meksiko","name:nl":"Mexico","name:nn":"Mexico","name:no":"Mexico","name:na":"Meketiko","name:ne":"\u092e\u0947\u0915\u094d\u0938\u093f\u0915\u094b","name:wo":"Meksik","name:nv":"M\u00e9higo","name:ga":"Meicsiceo","name:gd":"Meagsago","name:gn":"M\u00e9jiko","maritime_boundary":true,"name:gv":"Meksico","name:gu":"\u0aae\u0ac7\u0a95\u0acd\u0ab8\u0abf\u0a95\u0acb"},"arcs":[0]},{"type":"LineString","properties":{"name:right:uk":"\u0421\u043e\u043d\u043e\u0440\u0430","name:right:ru":"\u0421\u043e\u043d\u043e\u0440\u0430","name:left:uk":"\u0421\u0456\u043d\u0430\u043b\u043e\u0430","min_zoom":8.0,"name:left:ru":"\u0421\u0438\u043d\u0430\u043b\u043e\u0430","id:right":-1673426,"id":-2455086,"osm_relation":true,"name:right":"Sonora","kind":"region","name":"Sinaloa - Sonora","sort_rank":256,"kind_detail":"4","source":"openstreetmap.org","id:left":-2455086,"name:left":"Sinaloa"},"arcs":[1]},{"type":"LineString","properties":{"name:right:uk":"\u0427\u0456\u0443\u0430\u0443\u0430","name:right:ru":"\u0427\u0438\u0443\u0430\u0443\u0430","name:left:uk":"\u0421\u0456\u043d\u0430\u043b\u043e\u0430","min_zoom":8.0,"name:left:ru":"\u0421\u0438\u043d\u0430\u043b\u043e\u0430","id:right":-1673425,"id":-2455086,"osm_relation":true,"name:right":"Chihuahua","name:right:lt":"\u010cihuahua","kind":"region","name":"Sinaloa - Chihuahua","sort_rank":256,"kind_detail":"4","source":"openstreetmap.org","id:left":-2455086,"name:left":"Sinaloa"},"arcs":[2]},{"type":"LineString","properties":{"kind":"region","name":"Sinaloa","sort_rank":256,"kind_detail":"4","source":"openstreetmap.org","min_zoom":8.0,"name:uk":"\u0421\u0456\u043d\u0430\u043b\u043e\u0430","name:ru":"\u0421\u0438\u043d\u0430\u043b\u043e\u0430","id":-2455086,"osm_relation":true},"arcs":[3]},{"type":"LineString","properties":{"kind":"region","name":"Sinaloa","sort_rank":256,"kind_detail":"4","min_zoom":8.0,"source":"openstreetmap.org","maritime_boundary":true,"name:uk":"\u0421\u0456\u043d\u0430\u043b\u043e\u0430","name:ru":"\u0421\u0438\u043d\u0430\u043b\u043e\u0430","id":-2455086,"osm_relation":true},"arcs":[4]},{"type":"LineString","properties":{"name:right:uk":"\u0427\u0456\u0443\u0430\u0443\u0430","name:right:ru":"\u0427\u0438\u0443\u0430\u0443\u0430","name:left:uk":"\u0421\u043e\u043d\u043e\u0440\u0430","min_zoom":8.0,"name:left:ru":"\u0421\u043e\u043d\u043e\u0440\u0430","id:right":-1673425,"id":-1673426,"osm_relation":true,"name:right":"Chihuahua","name:right:lt":"\u010cihuahua","kind":"region","name":"Sonora - Chihuahua","sort_rank":256,"kind_detail":"4","source":"openstreetmap.org","id:left":-1673426,"name:left":"Sonora"},"arcs":[5]},{"type":"LineString","properties":{"kind":"region","name":"Sonora","sort_rank":256,"kind_detail":"4","min_zoom":8.0,"source":"openstreetmap.org","maritime_boundary":true,"name:uk":"\u0421\u043e\u043d\u043e\u0440\u0430","name:ru":"\u0421\u043e\u043d\u043e\u0440\u0430","id":-1673426,"osm_relation":true},"arcs":[6]}]},"roads":{"type":"GeometryCollection","geometries":[{"type":"MultiLineString","properties":{"sort_rank":380,"kind_detail":"primary","min_zoom":8.0,"kind":"major_road","source":"openstreetmap.org"},"arcs":[[14],[15],[16],[17],[18],[19],[20],[21],[22]]},{"type":"MultiLineString","properties":{"sort_rank":381,"source":"openstreetmap.org","min_zoom":8.0,"kind":"major_road","kind_detail":"trunk"},"arcs":[[23],[24],[25]]},{"type":"MultiLineString","properties":{"source":"openstreetmap.org","kind":"highway","sort_rank":383,"kind_detail":"motorway","ref":"MEX-15","min_zoom":8.0},"arcs":[[26],[27]]},{"type":"MultiLineString","properties":{"source":"openstreetmap.org","kind":"highway","landuse_kind":"urban_area","sort_rank":383,"kind_detail":"motorway","ref":"MEX 15","min_zoom":8.0},"arcs":[[28],[29]]},{"type":"LineString","properties":{"source":"openstreetmap.org","kind":"major_road","sort_rank":380,"kind_detail":"primary","ref":"SIN 102","min_zoom":8.0,"id":113581011},"arcs":[30]},{"type":"MultiLineString","properties":{"source":"openstreetmap.org","kind":"highway","sort_rank":383,"kind_detail":"motorway","ref":"MEX 15D","min_zoom":8.0},"arcs":[[31],[32]]},{"type":"MultiLineString","properties":{"source":"openstreetmap.org","kind":"major_road","sort_rank":380,"kind_detail":"primary","ref":"SIN 153","min_zoom":8.0},"arcs":[[33],[34],[35]]},{"type":"MultiLineString","properties":{"source":"openstreetmap.org","kind":"major_road","sort_rank":380,"kind_detail":"primary","ref":"SON 162","min_zoom":8.0},"arcs":[[36],[37],[38]]},{"type":"MultiLineString","properties":{"source":"openstreetmap.org","kind":"major_road","kind_detail":"trunk","sort_rank":381,"landuse_kind":"urban_area","ref":"SIN 124","min_zoom":8.0},"arcs":[[39],[40]]},{"type":"LineString","properties":{"source":"openstreetmap.org","kind":"major_road","sort_rank":380,"kind_detail":"primary","ref":"SON-162","min_zoom":8.0,"id":201713664},"arcs":[41]},{"type":"MultiLineString","properties":{"source":"openstreetmap.org","kind":"major_road","landuse_kind":"urban_area","sort_rank":380,"kind_detail":"primary","min_zoom":8.0},"arcs":[[42],[43],[44],[45],[46],[47],[48],[49],[50],[51],[52],[53],[54],[55],[56],[57],[58],[59],[60],[61],[62],[63],[64],[65],[66],[67]]},{"type":"MultiLineString","properties":{"source":"openstreetmap.org","kind":"major_road","kind_detail":"trunk","sort_rank":381,"landuse_kind":"urban_area","min_zoom":8.0},"arcs":[[68],[69],[70]]},{"type":"MultiLineString","properties":{"source":"openstreetmap.org","kind":"major_road","sort_rank":380,"kind_detail":"primary","ref":"SIN 112","min_zoom":8.0},"arcs":[[71],[72],[73],[74]]},{"type":"MultiLineString","properties":{"source":"openstreetmap.org","kind":"major_road","sort_rank":381,"kind_detail":"trunk","ref":"SIN 23","min_zoom":8.0},"arcs":[[75],[76],[77]]},{"type":"MultiLineString","properties":{"source":"openstreetmap.org","kind":"major_road","sort_rank":381,"kind_detail":"trunk","ref":"SIN 124","min_zoom":8.0},"arcs":[[78],[79],[80],[81]]},{"type":"LineString","properties":{"sort_rank":383,"kind_detail":"motorway","min_zoom":8.0,"kind":"highway","source":"openstreetmap.org"},"arcs":[82]},{"type":"MultiLineString","properties":{"source":"openstreetmap.org","kind":"highway","sort_rank":383,"kind_detail":"motorway","ref":"MEX 15","min_zoom":8.0},"arcs":[[83],[84],[85],[86],[87],[88],[89],[90],[91],[92],[93],[94]]}]},"earth":{"type":"GeometryCollection","geometries":[{"type":"MultiPolygon","properties":{"sort_rank":10,"source":"naturalearthdata.com","min_zoom":0.0,"kind":"earth","area":72174515475},"arcs":[[[95]]]}]},"landuse":{"type":"GeometryCollection","geometries":[{"type":"Polygon","properties":{"source":"openstreetmap.org","kind":"residential","area":12287000,"tier":2,"id":144845527,"min_zoom":8.0,"sort_rank":20},"arcs":[[96]]},{"type":"MultiPolygon","properties":{"source":"naturalearthdata.com","kind":"urban_area","name":"","area":351534169,"sort_rank":11,"min_zoom":4.0},"arcs":[[[97]]]}]}},"type":"Topology","transform":{"translate":[-109.6875,25.7998911821],"scale":[0.0003433228,0.0003074303]},"arcs":[[[0,2192],[288,41],[157,-42],[154,-145],[13,-82],[-108,-377],[-298,-501],[-163,-506],[4,-173],[60,-231],[-8,-176]],[[3452,3863],[227,-37],[-124,-18],[-160,-296],[-38,-126],[-64,-56],[5,-39],[53,-43],[-50,-60],[-31,-5],[-30,48],[-17,-12],[8,-87],[-47,-12],[-19,-104],[-80,-28],[-22,-91],[16,-45],[-79,-25],[-62,-85],[0,-182],[-162,22],[-123,-44],[-32,-48],[-55,17],[-194,-64],[-53,-200],[-68,-32],[169,3],[27,22],[28,-48],[-112,-81],[46,-48],[-61,-87],[-84,51],[-77,-103],[-203,40],[-198,-159],[-65,-135],[-83,-49],[-116,32],[-109,122],[-133,-92]],[[4096,3957],[-14,-13],[-8,47],[-42,32],[-39,-7],[-27,-46],[12,-37],[-34,-15],[-48,59],[-174,-30],[-98,53],[-33,-9],[-28,42],[-20,-30],[-25,29],[-35,-28],[23,-42],[-62,-39],[8,-60]],[[1280,1679],[-9,-10]],[[1271,1669],[-105,-111],[-78,-270],[-274,-454],[-115,-346],[80,-235],[-39,-220],[11,-33]],[[3452,3863],[-143,31],[-60,51],[28,108],[-116,-29],[-10,72]],[[0,2850],[66,-6],[7,45],[31,16],[148,5],[306,-79],[30,45],[241,-99],[130,-177],[136,-105],[110,-169],[63,-322],[-25,-302],[37,-23]],[[2164,0],[360,695],[100,21],[2,154],[64,39],[54,98],[34,234],[87,311],[133,145],[49,16],[3,24],[352,268],[1,147],[161,153],[-28,86],[42,30],[86,428],[-50,149],[56,74],[-26,112],[58,109],[18,134],[33,-12],[9,27],[-88,156],[97,133],[37,104],[-51,19],[9,36],[-41,68],[74,57],[-14,45],[41,36]],[[3412,2948],[24,-84],[11,-83],[-6,-71],[-13,-28],[-19,-27],[-17,-34],[-9,-46],[8,-120],[-8,-36],[-27,-38],[-51,-38],[-62,-16],[-58,26],[-35,64],[23,48],[58,30],[71,11],[-16,8],[-9,7],[-11,6],[-24,4],[64,33],[25,48],[11,118],[28,138],[13,153],[29,-73]],[[0,0],[0,2854],[68,-11],[7,33],[41,30],[125,11],[216,-40],[105,-49],[4,23],[-31,7],[-58,32],[6,24],[10,20],[-11,21],[-32,6],[-36,5],[-22,17],[9,36],[25,34],[36,42],[49,-13],[17,-60],[32,28],[34,17],[9,-46],[20,-36],[41,-5],[53,-5],[17,-35],[-17,-31],[22,-13],[15,-60],[-66,26],[-59,17],[-33,-9],[22,-24],[84,-10],[85,-32],[88,-78],[85,-132],[127,-93],[108,-153],[63,-77],[32,-128],[16,-128],[-40,-229],[9,-47],[28,3],[83,96],[30,3],[31,-5],[60,-18],[-9,22],[-10,17],[-11,14],[-12,11],[81,-46],[51,-106],[67,-139],[81,5],[16,-44],[-20,-17],[-33,-10],[-22,-20],[3,-43],[40,-78],[-3,-35],[-42,6],[-136,125],[-61,25],[0,20],[35,27],[23,51],[3,64],[-23,62],[-35,22],[-61,18],[-58,1],[-25,-31],[-5,-174],[-13,-60],[-88,-170],[-18,-99],[-14,-39],[-22,-24],[-30,9],[-14,30],[5,36],[13,36],[7,32],[-3,70],[12,46],[0,2],[11,22],[14,25],[18,24],[20,18],[31,69],[-9,41],[-22,7],[-12,-34],[-10,-53],[-56,-109],[-119,-223],[-37,-132],[-49,-67],[-109,-121],[-106,-180],[-13,-52],[-6,-144],[5,-60],[21,-73],[24,-50],[10,-30],[3,-45],[-1,-65],[-6,-3],[-15,-29],[-33,-125],[-7,-45],[-723,0]],[[2483,0],[-22,0],[13,15],[9,-15]],[[0,2854],[68,-11],[7,33],[41,30],[125,11],[216,-40],[105,-49],[4,23],[-31,7],[-58,32],[6,24],[10,20],[-11,21],[-32,6],[-36,5],[-22,17],[9,36],[25,34],[36,42],[49,-13],[17,-60],[32,28],[34,17],[9,-46],[20,-36],[41,-5],[53,-5],[17,-35],[-17,-31],[22,-13],[15,-60],[-66,26],[-59,17],[-33,-9],[22,-24],[84,-10],[85,-32],[88,-78],[85,-132],[127,-93],[108,-153],[63,-77],[32,-128],[16,-128],[-40,-229],[9,-47],[28,3],[83,96],[30,3],[31,-5],[60,-18],[-9,22],[-10,17],[-11,14],[-12,11],[81,-46],[51,-106],[67,-139],[81,5],[16,-44],[-20,-17],[-33,-10],[-22,-20],[3,-43],[40,-78],[-3,-35],[-42,6],[-136,125],[-61,25],[0,20],[35,27],[23,51],[3,64],[-23,62],[-35,22],[-61,18],[-58,1],[-25,-31],[-5,-174],[-13,-60],[-88,-170],[-18,-99],[-14,-39],[-22,-24],[-30,9],[-14,30],[5,36],[13,36],[7,32],[-3,70],[12,46],[0,2],[11,22],[14,25],[18,24],[20,18],[31,69],[-9,41],[-22,7],[-12,-34],[-10,-53],[-56,-109],[-119,-223],[-37,-132],[-49,-67],[-109,-121],[-106,-180],[-13,-52],[-6,-144],[5,-60],[21,-73],[24,-50],[10,-30],[3,-45],[-1,-65],[-6,-3],[-15,-29],[-33,-125],[-7,-45]],[[2461,0],[13,15],[9,-15]],[[3412,2948],[24,-84],[11,-83],[-6,-71],[-13,-28],[-19,-27],[-17,-34],[-9,-46],[8,-120],[-8,-36],[-27,-38],[-51,-38],[-62,-16],[-58,26],[-35,64],[23,48],[58,30],[71,11],[-16,8],[-9,7],[-11,6],[-24,4],[64,33],[25,48],[11,118],[28,138],[13,153],[29,-73]],[[1165,559],[-16,-29]],[[1186,477],[-4,3]],[[1220,469],[-1,-1]],[[1536,457],[-147,59]],[[1504,389],[-31,24]],[[1504,389],[90,-98],[258,-186]],[[1852,105],[-165,132],[-93,54],[-73,89],[-9,7],[-8,2]],[[1682,477],[1,0]],[[1733,500],[1,0]],[[1500,2391],[-22,-17]],[[2627,837],[-7,-2]],[[2620,834],[7,3]],[[1849,465],[1,-2]],[[1850,464],[0,1]],[[2021,192],[105,-161],[48,-30]],[[2174,1],[-48,31],[-7,13],[-51,82],[-46,65]],[[1473,413],[-193,55]],[[838,3569],[176,-359],[178,-230]],[[1193,2981],[-179,230],[-176,358]],[[1149,530],[33,-50]],[[1219,468],[-33,9]],[[1280,468],[-33,-22],[-27,23]],[[2097,4032],[-29,17]],[[2106,4027],[-9,5]],[[2125,4015],[-19,12]],[[2109,146],[-17,-52]],[[2098,93],[16,50]],[[1988,4096],[80,-47]],[[1852,105],[93,-90],[24,-15]],[[1969,0],[-24,15],[-29,41],[-64,49]],[[1968,52],[27,-17],[9,-5],[1,-1],[25,-15]],[[2030,14]],[[2030,14],[9,-6],[3,-2]],[[2042,6]],[[2042,6],[3,-2]],[[2045,4],[6,-4]],[[2052,0],[-9,6],[-1,0],[-12,8]],[[2030,14]],[[2030,14],[-35,22],[-2,1],[-25,15]],[[2087,88],[-40,-46],[-4,-7],[-13,-21]],[[2030,14]],[[2030,14],[-9,-14]],[[2022,0],[8,14]],[[2030,14]],[[2030,14],[17,28],[39,44]],[[2040,2],[-2,-2]],[[2119,43],[-14,-16],[-16,-27]],[[2043,0],[2,4]],[[2045,4]],[[2089,0],[17,27],[13,16]],[[2040,2],[2,4]],[[2042,6]],[[2042,6],[-2,-4]],[[2119,43],[1,1]],[[2092,94],[-50,-88]],[[2042,6],[56,87]],[[2063,50],[-13,-5]],[[1389,516],[-35,43],[-57,2],[-98,61],[-34,-63]],[[1536,457],[146,20]],[[1683,477],[50,23]],[[1734,500],[105,20]],[[2416,613],[-1,-1]],[[2415,612],[1,1]],[[2627,837],[86,55],[2,59],[-3,-59],[-85,-55]],[[2415,612],[-190,-118],[-116,-348]],[[2114,143],[111,350],[190,119]],[[2620,835],[-96,-72],[-41,-99],[-67,-51]],[[2416,613],[67,50],[41,100],[96,71]],[[1848,525],[-41,-14]],[[723,4096],[39,-327],[76,-200]],[[838,3569],[-75,200],[-39,327]],[[1192,2980],[786,-1046],[-156,-636],[121,-496],[-15,-31],[36,-59]],[[1964,712],[9,-16]],[[1973,696],[-11,-48],[-114,-123],[1,-60]],[[1850,465],[-1,60],[115,124],[10,45],[-1,2]],[[1973,696],[-9,16]],[[1964,712],[-35,59],[15,32],[-121,495],[156,635],[-409,559],[-100,132],[-277,357]],[[1850,463],[91,-157],[80,-114]],[[2022,192],[-172,272]],[[2174,1],[4,-1]],[[2179,0],[-5,1]],[[4096,4096],[0,-4096],[-1613,0],[-9,15],[-13,-15],[-1738,0],[7,45],[33,125],[15,29],[6,3],[1,65],[-3,45],[-10,30],[-24,50],[-21,73],[-5,60],[6,144],[13,52],[106,180],[109,121],[49,67],[37,132],[119,223],[56,109],[10,53],[12,34],[22,-7],[9,-41],[-31,-69],[-20,-18],[-18,-24],[-14,-25],[-11,-22],[0,-2],[-12,-46],[3,-70],[-7,-32],[-13,-36],[-5,-36],[14,-30],[30,-9],[22,24],[14,39],[18,99],[88,170],[13,60],[5,174],[25,31],[58,-1],[61,-18],[35,-22],[23,-62],[-3,-64],[-23,-51],[-35,-27],[0,-20],[61,-25],[136,-125],[42,-6],[3,35],[-40,78],[-3,43],[22,20],[33,10],[20,17],[-16,44],[-81,-5],[-67,139],[-51,106],[-81,46],[12,-11],[11,-14],[10,-17],[9,-22],[-60,18],[-31,5],[-30,-3],[-83,-96],[-28,-3],[-9,47],[40,229],[-16,128],[-32,128],[-63,77],[-108,153],[-127,93],[-85,132],[-88,78],[-85,32],[-84,10],[-22,24],[33,9],[59,-17],[66,-26],[-15,60],[-22,13],[17,31],[-17,35],[-53,5],[-41,5],[-20,36],[-9,46],[-34,-17],[-32,-28],[-17,60],[-49,13],[-36,-42],[-25,-34],[-9,-36],[22,-17],[36,-5],[32,-6],[11,-21],[-10,-20],[-6,-24],[58,-32],[31,-7],[-4,-23],[-105,49],[-216,40],[-125,-11],[-41,-30],[-7,-33],[-68,11],[0,1242],[4096,0]],[[73,3341],[91,69],[0,-67],[30,0],[4,-22],[-32,-29],[-23,14],[-37,-20],[-33,55]],[[2173,0],[-378,0],[73,136],[61,45],[83,16],[134,-71],[60,-1],[7,-64],[-40,-61]]]}