{"objects":{"water":{"type":"GeometryCollection","geometries":[{"type":"Polygon","properties":{"source":"naturalearthdata.com","kind":"ocean","area":1576712559132672,"sort_rank":200,"min_zoom":0.0,"id":1},"arcs":[[38]]},{"type":"LineString","properties":{"source":"naturalearthdata.com","kind":"ocean","sort_rank":205,"boundary":true,"min_zoom":0.0,"id":56},"arcs":[39]}]},"buildings":{"type":"GeometryCollection","geometries":[]},"places":{"type":"GeometryCollection","geometries":[{"type":"Point","properties":{"name:pt":"Sousse","name:ro":"Sousse","name:nl":"Sousse","name:ja":"\u30b9\u30fc\u30b9","name:lt":"Susas","name:ko":"\uc218\uc2a4","name:he":"\u05e1\u05d5\u05e1\u05d4","name:cs":"S\u00fas","kind":"locality","min_zoom":8.0,"int_name":"Sousse","alt_name:cs":"S\u00fasa","name:it":"Susa","name:uk":"\u0421\u0443\u0441","name:ru":"\u0421\u0443\u0441","name:pl":"Susa","name:hu":"Sz\u00fasza","name:hr":"Sousse","id":287543373,"name:ca":"Sussa","population":221530,"name:eo":"Sousse","name:en":"Sousse","name":"\u0633\u0648\u0633\u0629","kind_detail":"city","name:de":"Sousse","source":"openstreetmap.org","name:fr":"Sousse","name:zh":"\u82cf\u585e","name:es":"Susa"},"coordinates":[2321,1326]},{"type":"Point","properties":{"name:pt":"Cairu\u00e3o","int_name":"Kairouan","name:ja":"\u30b1\u30eb\u30a2\u30f3","name:tr":"Kayravan","name:cs":"Kairu\u00e1n","name:eo":"Kajruano","min_zoom":8.0,"name:ru":"\u041a\u0430\u0439\u0440\u0443\u0430\u043d","name:pl":"Kairuan","name:hr":"Kairuan","id":287543904,"population":139070,"kind":"locality","name:en":"Kairouan","name":"\u0627\u0644\u0642\u064a\u0631\u0648\u0627\u0646\u200e","kind_detail":"city","source":"openstreetmap.org","name:fr":"Kairouan","name:zh":"\u51ef\u9c81\u4e07","name:es":"Kairu\u00e1n"},"coordinates":[748,781]},{"type":"Point","properties":{"kind":"locality","name:en":"Monastir","name":"\u0627\u0644\u0645\u0646\u0633\u062a\u064a\u0631","kind_detail":"city","min_zoom":8.0,"name:de":"Monastir","source":"openstreetmap.org","name:fr":"Monastir","int_name":"Monastir","name:ru":"\u041c\u043e\u043d\u0430\u0441\u0442\u0438\u0440","id":287553320,"population":104535},"coordinates":[2865,1118]},{"type":"Point","properties":{"kind":"locality","name:en":"Hammamet","name":"\u0627\u0644\u062d\u0645\u0627\u0645\u0627\u062a","kind_detail":"town","min_zoom":8.0,"source":"openstreetmap.org","name:fr":"Hammamet","int_name":"Hammamet","name:ru":"\u0425\u0430\u043c\u043c\u0430\u043c\u0435\u0442","id":287583296,"population":97579},"coordinates":[2258,3376]},{"type":"Point","properties":{"kind":"locality","name:en":"Mahdia","name":"\u0627\u0644\u0645\u0647\u062f\u064a\u0629","kind_detail":"city","min_zoom":8.0,"name:de":"Mahdia","source":"openstreetmap.org","name:fr":"Mahdia","name:ru":"\u041c\u0430\u0445\u0434\u0438\u044f","id":287621836,"population":79545},"coordinates":[3531,156]},{"type":"Point","properties":{"kind":"locality","name:en":"Nabeul","name":"\u0646\u0627\u0628\u0644","kind_detail":"town","min_zoom":8.0,"name:de":"Nabeul","source":"openstreetmap.org","name:fr":"Nabeul","int_name":"Nabeul","name:ru":"\u041d\u0430\u0431\u0443\u043b\u044c","id":287534172,"population":73128},"coordinates":[2602,3577]},{"type":"Point","properties":{"kind":"locality","name:en":"Korba","name":"\u0642\u0631\u0628\u0629","kind_detail":"town","min_zoom":8.0,"source":"openstreetmap.org","name:fr":"Korba","name:ru":"\u041a\u043e\u0440\u0431\u0430","id":2187459836,"population":68966},"coordinates":[2950,4008]},{"type":"Point","properties":{"kind":"locality","name:en":"M'Saken","name":"\u0645\u0633\u0627\u0643\u0646","kind_detail":"town","min_zoom":8.0,"source":"openstreetmap.org","name:fr":"M'saken","int_name":"M'saken","name:ru":"\u041c\u0441\u0430\u043a\u0435\u043d","id":287612727,"population":56000},"coordinates":[2130,981]},{"type":"Point","properties":{"kind":"locality","name:en":"Enfidha","name":"\u0627\u0644\u0646\u0641\u064a\u0636\u0629","kind_detail":"town","min_zoom":8.0,"source":"openstreetmap.org","name:fr":"Enfida","id":1439531928,"population":10990},"coordinates":[1554,2428]},{"type":"Point","properties":{"kind":"locality","name:en":"Rejiche","name":"\u0631\u062c\u064a\u0634","kind_detail":"town","min_zoom":8.0,"source":"openstreetmap.org","name:fr":"Rejiche","name:ru":"\u0420\u0435\u0434\u0436\u0438\u0448","id":2402352381,"population":8925},"coordinates":[3486,21]}]},"transit":{"type":"GeometryCollection","geometries":[{"type":"LineString","properties":{"kind":"train","name":"Kalaa Khasba - Dahmani - Sers-Tunis","sort_rank":275,"colour":"blue","source":"openstreetmap.org","min_zoom":6.0,"operator":"SNCFT","osm_relation":true,"colour_name":"blue"},"arcs":[11]},{"type":"MultiLineString","properties":{"kind":"train","name":"\u062a\u0648\u0646\u0633 - \u0633\u0648\u0633\u0629 - \u0635\u0641\u0627\u0642\u0633 - \u0642\u0627\u0628\u0633","sort_rank":275,"colour":"blue","name:fr":"Tunis - Sousse - Sfax - Gab\u00e8s","source":"openstreetmap.org","min_zoom":6.0,"operator":"\u0627\u0644\u0634\u0631\u0643\u0629 \u0627\u0644\u0648\u0637\u0646\u064a\u0629 \u0644\u0644\u0633\u0643\u0643 \u0627\u0644\u062d\u062f\u064a\u062f\u064a\u0629 \u0627\u0644\u062a\u0648\u0646\u0633\u064a\u0629","ref":"Grandes lignes","osm_relation":true,"colour_name":"blue"},"arcs":[[12],[13],[14],[15],[16],[17],[18],[19],[20],[21],[22],[23],[24],[25],[26],[27],[28],[29],[30],[31],[32],[33],[34],[35],[36],[37]]}]},"pois":{"type":"GeometryCollection","geometries":[]},"boundaries":{"type":"GeometryCollection","geometries":[{"type":"LineString","properties":{"name:kg":"Tunisia","name:ka":"\u10e2\u10e3\u10dc\u10d8\u10e1\u10d8","name:ko":"\ud280\ub2c8\uc9c0","name:cv":"\u0422\u0443\u043d\u0438\u0441","name:cs":"Tunisko","name:tt":"\u0422\u0443\u043d\u0438\u0441","name:kw":"Tunisi","name:tk":"Tunis","name:ku":"T\u00fbnis","name:ti":"\u1271\u1292\u12e2\u12eb","name:tl":"Tunisya","name:ce":"\u0422\u0443\u043d\u0438\u0441","name:ta":"\u0ba4\u0bc1\u0ba9\u0bc0\u0b9a\u0bbf\u0baf\u0bbe","name:tg":"\u0422\u0443\u043d\u0438\u0441","name:ca":"Tun\u00edsia","name:te":"\u0c1f\u0c4d\u0c2f\u0c41\u0c28\u0c40\u0c37\u0c3f\u0c2f\u0c3e","name:cy":"Tunisia","name:hr":"Tunis","name:da":"Tunesien","name:de":"Tunesien","source":"openstreetmap.org","name:kn":"\u0c9f\u0cc1\u0ca8\u0cc0\u0cb6\u0cbf\u0caf","name:dv":"\u078c\u07ab\u0782\u07a8\u0790\u07b0","name:lv":"Tunisija","name:lt":"Tunisas","name:uz":"Tunis","name:kk":"\u0422\u0443\u043d\u0438\u0441","name:lb":"Tunesien","name:la":"Tunesia","name:uk":"\u0422\u0443\u043d\u0456\u0441","name:ug":"\u062a\u06c7\u0646\u0649\u0633","name:li":"Tunesi\u00eb","name:ln":"Tunisia","name:el":"\u03a4\u03c5\u03bd\u03b7\u03c3\u03af\u03b1","name:eo":"Tunizio","name:en":"Tunisia","name":"\u062a\u0648\u0646\u0633","name:ee":"Tunisia","name:th":"\u0e1b\u0e23\u0e30\u0e40\u0e17\u0e28\u0e15\u0e39\u0e19\u0e34\u0e40\u0e0b\u0e35\u0e22","name:eu":"Tunisia","name:et":"Tuneesia","name:es":"T\u00fanez","name:rm":"Tunesia","name:az":"Tunis","name:ie":"Tunisia","name:id":"Tunisia","name:zh-min-nan":"Tunisia","name:io":"Tunizia","name:is":"T\u00fanis","name:am":"\u1271\u1292\u12da\u12eb","name:it":"Tunisia","name:an":"Tunicia","name:ru":"\u0422\u0443\u043d\u0438\u0441","name:rw":"Tunisiya","name:af":"Tunisi\u00eb","name:zu":"ITunisia","kind_detail":"2","name:ky":"\u0422\u0443\u043d\u0438\u0441","name:zh-yue":"\u7a81\u5c3c\u897f\u4e9e","name:zh":"\u7a81\u5c3c\u897f\u4e9e","name:so":"Tunisiya","name:sn":"Tunisia","name:sl":"Tunizija","name:sk":"Tunisko","name:ja":"\u30c1\u30e5\u30cb\u30b8\u30a2","name:sh":"Tunis","name:sg":"Tuniz\u00efi","name:se":"Tunisia","name:sc":"Tunisia","name:br":"Tunizia","name:bs":"Republika Tunis","name:bm":"Tunizi","name:bn":"\u09a4\u09bf\u0989\u09a8\u09bf\u09b8\u09bf\u09af\u09bc\u09be","name:bo":"\u0f4f\u0f74\u0f0b\u0f53\u0f72\u0f0b\u0f64\u0f72\u0f0b\u0f61\u0f0d","name:sa":"\u091f\u0941\u0928\u093f\u0936\u093f\u092f\u093e","name:sw":"Tunisia","name:be":"\u0422\u0443\u043d\u0456\u0441","name:su":"Tunisia","name:bg":"\u0422\u0443\u043d\u0438\u0441","name:ss":"IThunisiya","name:ba":"\u0422\u0443\u043d\u0438\u0441","name:sq":"Tunizia","name:jv":"Tunisia","name:pt":"Tun\u00edsia","name:oc":"Tunisia","min_zoom":8.0,"name:ro":"Tunisia","name:pa":"\u0a24\u0a41\u0a28\u0a40\u0a38\u0a40\u0a06","name:os":"\u0422\u0443\u043d\u0438\u0441","name:or":"\u0b1f\u0b4d\u0b5f\u0b41\u0b28\u0b3f\u0b38\u0b3f\u0b06","name:pl":"Tunezja","sort_rank":262,"name:sr":"\u0422\u0443\u043d\u0438\u0441","osm_relation":true,"name:tr":"Tunus","name:hi":"\u091f\u094d\u092f\u0942\u0928\u093f\u0936\u093f\u092f\u093e","name:sv":"Tunisien","name:he":"\u05ea\u05d5\u05e0\u05d9\u05e1\u05d9\u05d4","name:hy":"\u0539\u0578\u0582\u0576\u056b\u057d","name:ht":"Tinizi","name:hu":"Tun\u00e9zia","name:qu":"Tunisya","kind":"country","name:ts":"Tunisia","name:yi":"\u05d8\u05d5\u05e0\u05d9\u05e1\u05d9\u05e2","name:yo":"T\u00f9n\u00eds\u00ed\u00e0","name:mt":"Tune\u017cija","name:ms":"Tunisia","name:mr":"\u091f\u094d\u092f\u0941\u0928\u093f\u0938\u093f\u092f\u093e","name:my":"\u1010\u1030\u1014\u102e\u1038\u101b\u103e\u102c\u1038\u1014\u102d\u102f\u1004\u103a\u1004\u1036","name:mg":"Tonizia","name:vi":"Tunisia","name:ml":"\u0d1f\u0d41\u0d23\u0d40\u0d37\u0d4d\u0d2f","name:mn":"\u0422\u0443\u043d\u0438\u0441","id":-192757,"name:mk":"\u0422\u0443\u043d\u0438\u0441","name:vo":"T\u00fcnis\u00e4n","name:fi":"Tunisia","name:fo":"Tunesia","alt_name:vi":"Tuy-ni-di","name:fr":"Tunisie","name:fy":"Tuneezje","name:nl":"Tunesi\u00eb","name:nn":"Tunisia","name:no":"Tunisia","name:wa":"Tunizeye","name:wo":"Tiniisi","name:ga":"An T\u00fain\u00e9is","name:gd":"Tuinisia","name:gl":"Tunisia","maritime_boundary":true,"name:gv":"Yn Tooneesh","name:gu":"\u0a9f\u0acd\u0aaf\u0ac1\u0aa8\u0abf\u0ab6\u0abf\u0aaf\u0abe"},"arcs":[0]},{"type":"MultiLineString","properties":{"name:right:fr":"Ben Arous","name:right:it":"Ben Arous","id:right":-1435836,"min_zoom":8.0,"name:left:it":"Zaghouan","id":-1435837,"osm_relation":true,"name:right":"\u0628\u0646 \u0639\u0631\u0648\u0633","kind":"region","name:left:en":"Zaghouan","sort_rank":256,"kind_detail":"4","name":"\u0632\u063a\u0648\u0627\u0646 - \u0628\u0646 \u0639\u0631\u0648\u0633","source":"openstreetmap.org","name:right:de":"Bin Arus","name:left:fr":"Zaghouan","name:right:en":"Ben Arous","id:left":-1435837,"name:left":"\u0632\u063a\u0648\u0627\u0646"},"arcs":[[1],[2]]},{"type":"LineString","properties":{"name:right:fr":"B\u00e9ja","name:right:it":"B\u00e9ja","id:right":-1435833,"min_zoom":8.0,"name:left:it":"Zaghouan","id":-1435837,"osm_relation":true,"name:right":"\u0628\u0627\u062c\u0629","kind":"region","name:left:en":"Zaghouan","sort_rank":256,"kind_detail":"4","name":"\u0632\u063a\u0648\u0627\u0646 - \u0628\u0627\u062c\u0629","source":"openstreetmap.org","name:left:fr":"Zaghouan","name:right:en":"B\u00e9ja","id:left":-1435837,"name:left":"\u0632\u063a\u0648\u0627\u0646"},"arcs":[3]},{"type":"LineString","properties":{"name:right:fr":"La Manouba","name:right:it":"Manouba","id:right":-1435828,"min_zoom":8.0,"name:left:it":"Zaghouan","id":-1435837,"osm_relation":true,"name:right":"\u0645\u0646\u0648\u0628\u0629","kind":"region","name:left:en":"Zaghouan","sort_rank":256,"kind_detail":"4","name":"\u0632\u063a\u0648\u0627\u0646 - \u0645\u0646\u0648\u0628\u0629","source":"openstreetmap.org","name:left:fr":"Zaghouan","name:right:ar":"\u0645\u0646\u0648\u0628\u0629\u200e","name:right:en":"Manouba","id:left":-1435837,"name:left":"\u0632\u063a\u0648\u0627\u0646"},"arcs":[4]},{"type":"LineString","properties":{"name:right:fr":"Nabeul","name:right:it":"Nabeul","id:right":-1435825,"min_zoom":8.0,"name:left:it":"Zaghouan","id":-1435837,"osm_relation":true,"name:right":"\u0646\u0627\u0628\u0644","kind":"region","name:left:en":"Zaghouan","sort_rank":256,"kind_detail":"4","name":"\u0632\u063a\u0648\u0627\u0646 - \u0646\u0627\u0628\u0644","source":"openstreetmap.org","name:left:fr":"Zaghouan","name:right:en":"Nabeul","id:left":-1435837,"name:left":"\u0632\u063a\u0648\u0627\u0646"},"arcs":[5]},{"type":"LineString","properties":{"kind":"region","name:en":"Zaghouan","name":"\u0632\u063a\u0648\u0627\u0646","sort_rank":256,"kind_detail":"4","min_zoom":8.0,"source":"openstreetmap.org","name:fr":"Zaghouan","name:it":"Zaghouan","id":-1435837,"osm_relation":true},"arcs":[6]},{"type":"LineString","properties":{"name:right:fr":"Nabeul","name:right:it":"Nabeul","id:right":-1435825,"min_zoom":8.0,"name:left:it":"Ben Arous","id":-1435836,"osm_relation":true,"name:right":"\u0646\u0627\u0628\u0644","kind":"region","name:left:en":"Ben Arous","sort_rank":256,"kind_detail":"4","name:left:de":"Bin Arus","name":"\u0628\u0646 \u0639\u0631\u0648\u0633 - \u0646\u0627\u0628\u0644","source":"openstreetmap.org","name:left:fr":"Ben Arous","name:right:en":"Nabeul","id:left":-1435836,"name:left":"\u0628\u0646 \u0639\u0631\u0648\u0633"},"arcs":[7]},{"type":"LineString","properties":{"name:right:fr":"La Manouba","name:right:it":"Manouba","id:right":-1435828,"min_zoom":8.0,"name:left:it":"B\u00e9ja","id":-1435833,"osm_relation":true,"name:right":"\u0645\u0646\u0648\u0628\u0629","kind":"region","name:left:en":"B\u00e9ja","sort_rank":256,"kind_detail":"4","name":"\u0628\u0627\u062c\u0629 - \u0645\u0646\u0648\u0628\u0629","source":"openstreetmap.org","name:left:fr":"B\u00e9ja","name:right:ar":"\u0645\u0646\u0648\u0628\u0629\u200e","name:right:en":"Manouba","id:left":-1435833,"name:left":"\u0628\u0627\u062c\u0629"},"arcs":[8]},{"type":"LineString","properties":{"kind":"region","name:en":"Nabeul","name":"\u0646\u0627\u0628\u0644","sort_rank":256,"kind_detail":"4","min_zoom":8.0,"source":"openstreetmap.org","name:fr":"Nabeul","name:it":"Nabeul","id":-1435825,"osm_relation":true},"arcs":[9]},{"type":"LineString","properties":{"kind":"region","name:en":"Nabeul","name":"\u0646\u0627\u0628\u0644","sort_rank":256,"kind_detail":"4","min_zoom":8.0,"name:fr":"Nabeul","source":"openstreetmap.org","maritime_boundary":true,"name:it":"Nabeul","id":-1435825,"osm_relation":true},"arcs":[10]}]},"roads":{"type":"GeometryCollection","geometries":[{"type":"MultiLineString","properties":{"source":"openstreetmap.org","kind":"major_road","landuse_kind":"urban_area","sort_rank":380,"kind_detail":"primary","ref":"RR 82 \u0637\u062c","min_zoom":8.0},"arcs":[[40],[41],[42],[43],[44],[45],[46],[47],[48],[49],[50],[51],[52],[53],[54],[55],[56],[57],[58],[59],[60],[61],[62],[63],[64],[65],[66],[67],[68],[69],[70],[71],[72],[73],[74],[75],[76],[77],[78],[79],[80],[81],[82],[83],[84],[85],[86],[87],[88],[89],[90],[91],[92],[93],[94],[95],[96],[97],[98],[99],[100],[101],[102],[103]]},{"type":"MultiLineString","properties":{"source":"openstreetmap.org","kind":"major_road","landuse_kind":"urban_area","sort_rank":380,"kind_detail":"primary","ref":"RL 845 \u0637\u0645","min_zoom":8.0},"arcs":[[104],[105],[106],[107],[108],[109],[110],[111],[112],[113]]},{"type":"MultiLineString","properties":{"source":"openstreetmap.org","kind":"major_road","landuse_kind":"residential","sort_rank":380,"kind_detail":"primary","ref":"RR 82 \u0637\u062c","min_zoom":8.0},"arcs":[[114],[115],[116],[117],[118],[119],[120],[121],[122],[123],[124],[125],[126]]},{"type":"MultiLineString","properties":{"kind":"major_road","name:en":"Route Ceinture","sort_rank":381,"landuse_kind":"urban_area","name:fr":"Route Ceinture","source":"openstreetmap.org","min_zoom":8.0,"kind_detail":"trunk"},"arcs":[[127],[128],[129],[130],[131],[132],[133],[134],[135],[136],[137]]},{"type":"MultiLineString","properties":{"kind":"major_road","name:en":"National Road 1 Tunis - Ras Jedir - Libya","sort_rank":381,"landuse_kind":"urban_area","name:fr":"Route Nationale 1 Tunis - Ras Jedir - Libye","source":"openstreetmap.org","min_zoom":8.0,"kind_detail":"trunk","ref":"RN 1 \u0637\u0648"},"arcs":[[138],[139],[140],[141],[142],[143],[144],[145],[146],[147],[148],[149],[150],[151],[152],[153],[154],[155],[156],[157],[158],[159],[160]]},{"type":"MultiLineString","properties":{"kind":"major_road","sort_rank":380,"kind_detail":"primary","name:ar":"\u0634\u0627\u0631\u0639 \u0627\u0644\u062d\u0628\u064a\u0628 \u0628\u0648\u0631\u0642\u064a\u0628\u0629","source":"openstreetmap.org","min_zoom":8.0,"landuse_kind":"urban_area","ref":"RR 82 \u0637\u062c"},"arcs":[[161],[162]]},{"type":"MultiLineString","properties":{"source":"openstreetmap.org","kind":"major_road","landuse_kind":"residential","sort_rank":381,"kind_detail":"trunk","ref":"RR 28 \u0637\u062c","min_zoom":8.0},"arcs":[[163],[164],[165],[166]]},{"type":"MultiLineString","properties":{"source":"openstreetmap.org","kind":"major_road","landuse_kind":"residential","sort_rank":380,"kind_detail":"primary","ref":"RN 1 \u0637\u0648","min_zoom":8.0},"arcs":[[167],[168],[169],[170],[171],[172],[173],[174],[175],[176],[177],[178],[179],[180],[181],[182],[183],[184],[185],[186],[187],[188],[189],[190],[191],[192],[193],[194],[195]]},{"type":"MultiLineString","properties":{"kind":"highway","name:en":"Motorway Tunis - Sousse - Sfax","sort_rank":383,"kind_detail":"motorway","name:ar":"\u0627\u0644\u0637\u0631\u064a\u0642 \u0627\u0644\u0633\u0631\u064a\u0639\u0629 \u062a\u0648\u0646\u0633 - \u0633\u0648\u0633\u0629 - \u0635\u0641\u0627\u0642\u0633","source":"openstreetmap.org","min_zoom":8.0,"landuse_kind":"residential","ref":"A 1 \u0637\u0633"},"arcs":[[196],[197],[198],[199]]},{"type":"MultiLineString","properties":{"kind":"major_road","name:en":"National Road 1 Tunis - Ras Jedir - Libya","sort_rank":380,"kind_detail":"primary","name:fr":"Route Nationale 1 Tunis - Ras Jedir - Libye","source":"openstreetmap.org","min_zoom":8.0,"landuse_kind":"urban_area","ref":"RN 1 \u0637\u0648"},"arcs":[[200],[201],[202],[203],[204]]},{"type":"MultiLineString","properties":{"kind":"major_road","sort_rank":380,"kind_detail":"primary","min_zoom":8.0,"source":"openstreetmap.org","name:fr":"Avenue Mohamed V","landuse_kind":"residential","ref":"RR 28 \u0637\u062c"},"arcs":[[205],[206]]},{"type":"LineString","properties":{"kind":"major_road","name:en":"National Road 1","sort_rank":380,"kind_detail":"primary","name:ar":"\u0627\u0644\u0637\u0631\u064a\u0642 \u0627\u0644\u0648\u0637\u0646\u064a\u0629 1","name:fr":"Route Nationale 1 Tunis - Ras Jedir - Libye","source":"openstreetmap.org","min_zoom":8.0,"ref":"RN 1 \u0637\u0648","id":128395951},"arcs":[207]},{"type":"MultiLineString","properties":{"source":"openstreetmap.org","kind":"major_road","sort_rank":380,"kind_detail":"primary","ref":"RN 2 \u0637\u0648","min_zoom":8.0},"arcs":[[208],[209],[210],[211],[212],[213],[214],[215],[216],[217],[218],[219],[220],[221],[222],[223],[224],[225],[226],[227],[228],[229],[230],[231],[232]]},{"type":"MultiLineString","properties":{"kind":"major_road","name:en":"National Road 1","sort_rank":381,"kind_detail":"trunk","name:ar":"\u0627\u0644\u0637\u0631\u064a\u0642 \u0627\u0644\u0648\u0637\u0646\u064a\u0629 1","source":"openstreetmap.org","min_zoom":8.0,"ref":"RN 1 \u0637\u0648"},"arcs":[[233],[234],[235]]},{"type":"MultiLineString","properties":{"kind":"major_road","name:en":"Boulevard 14 Janvier 2011","sort_rank":380,"kind_detail":"primary","name:fr":"Boulevard 14 Janvier 2011","source":"openstreetmap.org","min_zoom":8.0,"landuse_kind":"residential"},"arcs":[[236],[237],[238],[239],[240],[241],[242],[243],[244],[245],[246],[247],[248],[249]]},{"type":"MultiLineString","properties":{"source":"openstreetmap.org","kind":"major_road","landuse_kind":"urban_area","sort_rank":380,"kind_detail":"primary","ref":"RN 2 \u0637\u0648","min_zoom":8.0},"arcs":[[250],[251],[252],[253],[254],[255],[256],[257],[258],[259],[260],[261],[262],[263]]},{"type":"MultiLineString","properties":{"kind":"major_road","name:en":"National Road 1 Tunis - Ras Jedir - Libya","sort_rank":381,"landuse_kind":"urban_area","name:ar":"\u0627\u0644\u0637\u0631\u064a\u0642 \u0627\u0644\u0648\u0637\u0646\u064a\u0629 \u062a\u0648\u0646\u0633 - \u0631\u0623\u0633 \u062c\u062f\u064a\u0631 - \u0644\u064a\u0628\u064a\u0627","name:fr":"Route Nationale 1 Tunis - Ras Jedir - Libye","source":"openstreetmap.org","min_zoom":8.0,"kind_detail":"trunk","ref":"RN 1 \u0637\u0648"},"arcs":[[264],[265]]},{"type":"MultiLineString","properties":{"source":"openstreetmap.org","kind":"major_road","kind_detail":"trunk","sort_rank":381,"landuse_kind":"urban_area","ref":"RR 100E \u0637\u062c","min_zoom":8.0},"arcs":[[266],[267]]},{"type":"LineString","properties":{"kind":"major_road","network":null,"sort_rank":380,"kind_detail":"primary","name:fr":"National Road 3 Tunis - Hazoua - Algeria","source":"openstreetmap.org","min_zoom":8.0,"shield_text":"3","ref":"RN 3 \u0637\u0648","id":179374784},"arcs":[268]},{"type":"MultiLineString","properties":{"source":"openstreetmap.org","kind":"major_road","kind_detail":"trunk","sort_rank":381,"landuse_kind":"urban_area","ref":"RR 130 \u0637\u062c","min_zoom":8.0},"arcs":[[269],[270],[271],[272],[273],[274],[275],[276],[277],[278]]},{"type":"MultiLineString","properties":{"source":"openstreetmap.org","kind":"major_road","landuse_kind":"residential","sort_rank":380,"kind_detail":"primary","ref":"RN 2 \u0637\u0648","min_zoom":8.0},"arcs":[[279],[280],[281],[282],[283],[284],[285]]},{"type":"MultiLineString","properties":{"kind":"major_road","sort_rank":380,"kind_detail":"primary","name:fr":"Avenue des Nations Unies","source":"openstreetmap.org","min_zoom":8.0,"landuse_kind":"residential","ref":"RR 28 \u0637\u062c"},"arcs":[[286],[287],[288]]},{"type":"LineString","properties":{"source":"openstreetmap.org","kind":"major_road","landuse_kind":"urban_area","sort_rank":380,"kind_detail":"primary","ref":"RR 92 \u0637\u062c","min_zoom":8.0},"arcs":[289]},{"type":"MultiLineString","properties":{"source":"openstreetmap.org","kind":"major_road","landuse_kind":"residential","sort_rank":380,"kind_detail":"primary","ref":"RR 28 \u0637\u062c","min_zoom":8.0},"arcs":[[290],[291],[292],[293],[294],[295]]},{"type":"MultiLineString","properties":{"source":"openstreetmap.org","kind":"major_road","kind_detail":"trunk","sort_rank":381,"landuse_kind":"urban_area","is_bicycle_related":true,"min_zoom":8.0},"arcs":[[296],[297],[298]]},{"type":"MultiLineString","properties":{"source":"openstreetmap.org","kind":"major_road","sort_rank":380,"kind_detail":"primary","name:ar":"\u0627\u0644\u0637\u0631\u064a\u0642 \u0627\u0644\u0648\u0637\u0646\u064a\u0629 1","ref":"RN 1 \u0637\u0648","min_zoom":8.0},"arcs":[[299],[300],[301],[302],[303],[304],[305],[306],[307],[308],[309],[310],[311],[312]]},{"type":"LineString","properties":{"source":"openstreetmap.org","kind":"major_road","sort_rank":380,"kind_detail":"primary","ref":"RR 82\/100e \u0637\u062c","min_zoom":8.0,"id":26450529},"arcs":[313]},{"type":"MultiLineString","properties":{"source":"openstreetmap.org","kind":"major_road","kind_detail":"trunk","sort_rank":381,"landuse_kind":"urban_area","ref":"RR 82 \u0637\u062c","min_zoom":8.0},"arcs":[[314],[315],[316],[317],[318],[319],[320],[321],[322],[323],[324],[325],[326],[327],[328],[329],[330],[331],[332],[333],[334],[335],[336],[337],[338]]},{"type":"MultiLineString","properties":{"source":"openstreetmap.org","kind":"highway","sort_rank":383,"kind_detail":"motorway","name:ar":"\u0627\u0644\u0637\u0631\u064a\u0642 \u0627\u0644\u0633\u0631\u064a\u0639\u0629 \u062a\u0648\u0646\u0633 - \u0633\u0648\u0633\u0629 - \u0635\u0641\u0627\u0642\u0633","ref":"A 1 \u0637\u0633","min_zoom":8.0},"arcs":[[339],[340],[341]]},{"type":"MultiLineString","properties":{"source":"openstreetmap.org","kind":"major_road","sort_rank":380,"kind_detail":"primary","ref":"RN 4 \u0637\u0648","min_zoom":8.0},"arcs":[[342],[343],[344]]},{"type":"MultiLineString","properties":{"source":"openstreetmap.org","kind":"major_road","sort_rank":380,"kind_detail":"primary","ref":"RN 1 \u0637\u0648","min_zoom":8.0,"name:fr":"Route Nationale 1 Tunis - Ras Jedir - Libye"},"arcs":[[345],[346],[347],[348],[349],[350],[351],[352]]},{"type":"MultiLineString","properties":{"source":"openstreetmap.org","kind":"major_road","sort_rank":380,"kind_detail":"primary","ref":"RR 82 \u0637\u062c","min_zoom":8.0},"arcs":[[353],[354],[355],[356],[357],[358]]},{"type":"MultiLineString","properties":{"kind":"major_road","name:en":"National Road 1","sort_rank":380,"kind_detail":"primary","name:ar":"\u0627\u0644\u0637\u0631\u064a\u0642 \u0627\u0644\u0648\u0637\u0646\u064a\u06291","source":"openstreetmap.org","min_zoom":8.0,"ref":"RN 1 \u0637\u0648"},"arcs":[[359],[360]]},{"type":"MultiLineString","properties":{"source":"openstreetmap.org","kind":"major_road","sort_rank":380,"kind_detail":"primary","ref":"RN 3\/12 \u0637\u0648","min_zoom":8.0},"arcs":[[361],[362],[363]]},{"type":"MultiLineString","properties":{"kind":"major_road","sort_rank":381,"landuse_kind":"urban_area","name:fr":"Route Ceinture","source":"openstreetmap.org","min_zoom":8.0,"kind_detail":"trunk","ref":"\u0637 \u062d\u0632\u0627\u0645\u064a\u0629"},"arcs":[[364],[365]]},{"type":"MultiLineString","properties":{"source":"openstreetmap.org","kind":"major_road","landuse_kind":"urban_area","sort_rank":380,"kind_detail":"primary","min_zoom":8.0},"arcs":[[366],[367],[368],[369],[370],[371],[372],[373],[374],[375],[376],[377],[378],[379],[380],[381],[382],[383],[384],[385],[386],[387],[388],[389],[390],[391],[392],[393],[394],[395],[396],[397],[398],[399],[400]]},{"type":"MultiLineString","properties":{"kind":"major_road","name:en":"National Road 1 Tunis - Ras Jedir - Libya","sort_rank":380,"kind_detail":"primary","name:ar":"\u0627\u0644\u0637\u0631\u064a\u0642 \u0627\u0644\u0648\u0637\u0646\u064a\u0629 \u062a\u0648\u0646\u0633 - \u0631\u0623\u0633 \u062c\u062f\u064a\u0631 - \u0644\u064a\u0628\u064a\u0627","name:fr":"Route Nationale 1 Tunis - Ras Jedir - Libye","source":"openstreetmap.org","min_zoom":8.0,"landuse_kind":"urban_area","ref":"RN 1 \u0637\u0648"},"arcs":[[401],[402],[403]]},{"type":"MultiLineString","properties":{"source":"openstreetmap.org","kind":"major_road","sort_rank":381,"kind_detail":"trunk","ref":"RN 3 \u0637\u0648","min_zoom":8.0},"arcs":[[404],[405],[406],[407]]},{"type":"MultiLineString","properties":{"kind":"major_road","name:en":"National Road 1 Tunis - Ras Jedir - Libya","sort_rank":381,"kind_detail":"trunk","name:fr":"Route Nationale 1 Tunis - Ras Jedir - Libye","source":"openstreetmap.org","min_zoom":8.0,"landuse_kind":"residential","ref":"RN 1 \u0637\u0648"},"arcs":[[408],[409],[410],[411],[412]]},{"type":"MultiLineString","properties":{"source":"openstreetmap.org","kind":"major_road","sort_rank":381,"kind_detail":"trunk","name:ar":"\u0627\u0644\u0637\u0631\u064a\u0642 \u0627\u0644\u0648\u0637\u0646\u064a\u0629 1","ref":"RN 1 \u0637\u0648","min_zoom":8.0},"arcs":[[413],[414],[415],[416],[417]]},{"type":"MultiLineString","properties":{"kind":"highway","name:en":"Motorway Tunis - Sousse - Sfax","sort_rank":383,"kind_detail":"motorway","name:fr":"Autoroute Tunis - Sousse - Sfax","source":"openstreetmap.org","min_zoom":8.0,"ref":"A 1 \u0637\u0633"},"arcs":[[418],[419],[420],[421],[422],[423],[424],[425],[426],[427],[428],[429],[430],[431]]},{"type":"MultiLineString","properties":{"source":"openstreetmap.org","kind":"major_road","sort_rank":380,"kind_detail":"primary","min_zoom":8.0,"ref":"RR 28 \u0637\u062c","name:fr":"Avenue Mohamed V"},"arcs":[[432],[433]]},{"type":"MultiLineString","properties":{"kind":"major_road","name:en":"National Road 3 Tunis - Hazoua - Algeria","network":null,"sort_rank":380,"kind_detail":"primary","source":"openstreetmap.org","min_zoom":8.0,"shield_text":"3","ref":"RN 3\/12 \u0637\u0648"},"arcs":[[434],[435]]},{"type":"MultiLineString","properties":{"kind":"major_road","network":null,"sort_rank":380,"kind_detail":"primary","source":"openstreetmap.org","min_zoom":8.0,"shield_text":"3","ref":"RN 12 \u0637\u0648"},"arcs":[[436],[437],[438]]},{"type":"MultiLineString","properties":{"kind":"highway","name:en":"Motorway Tunis - Sousse - Sfax","sort_rank":383,"kind_detail":"motorway","name:ar":"\u0627\u0644\u0637\u0631\u064a\u0642 \u0627\u0644\u0633\u0631\u064a\u0639\u0629 \u062a\u0648\u0646\u0633 - \u0633\u0648\u0633\u0629 - \u0635\u0641\u0627\u0642\u0633","source":"openstreetmap.org","min_zoom":8.0,"landuse_kind":"urban_area","ref":"A 1 \u0637\u0633"},"arcs":[[439],[440],[441],[442],[443]]},{"type":"LineString","properties":{"kind":"major_road","sort_rank":381,"landuse_kind":"urban_area","name:ar":"\u0627\u0644\u0637\u0631\u064a\u0642 \u0627\u0644\u0648\u0637\u0646\u064a\u0629 1","source":"openstreetmap.org","min_zoom":8.0,"kind_detail":"trunk","ref":"RN 1 \u0637\u0648"},"arcs":[444]},{"type":"MultiLineString","properties":{"kind":"highway","name:en":"Motorway Tunis - Sousse - Sfax","sort_rank":383,"kind_detail":"motorway","name:fr":"Autoroute Tunis - Sousse - Sfax","source":"openstreetmap.org","min_zoom":8.0,"landuse_kind":"residential","ref":"A 1 \u0637\u0633"},"arcs":[[445],[446],[447]]},{"type":"MultiLineString","properties":{"source":"openstreetmap.org","kind":"major_road","landuse_kind":"urban_area","sort_rank":380,"kind_detail":"primary","ref":"RN 12 \u0637\u0648","min_zoom":8.0},"arcs":[[448],[449],[450],[451],[452],[453],[454],[455],[456],[457],[458],[459],[460],[461],[462],[463],[464],[465],[466],[467],[468],[469],[470],[471],[472],[473],[474],[475],[476],[477],[478],[479],[480],[481],[482],[483],[484],[485],[486],[487],[488],[489],[490],[491]]},{"type":"MultiLineString","properties":{"kind":"major_road","name:en":"National Road 1","sort_rank":380,"kind_detail":"primary","name:ar":"\u0627\u0644\u0637\u0631\u064a\u0642 \u0627\u0644\u0648\u0637\u0646\u064a\u0629 1","source":"openstreetmap.org","min_zoom":8.0,"ref":"RN 1 \u0637\u0648"},"arcs":[[492],[493],[494],[495],[496],[497],[498],[499],[500],[501],[502],[503],[504],[505],[506],[507],[508],[509],[510],[511],[512],[513],[514]]},{"type":"MultiLineString","properties":{"kind":"highway","name:en":"Motorway Tunis - Sousse - Sfax","sort_rank":383,"kind_detail":"motorway","name:fr":"Autoroute Tunis - Sousse - Sfax","source":"openstreetmap.org","min_zoom":8.0,"landuse_kind":"urban_area","ref":"A 1 \u0637\u0633"},"arcs":[[515],[516],[517],[518]]},{"type":"MultiLineString","properties":{"sort_rank":380,"kind_detail":"primary","min_zoom":8.0,"kind":"major_road","source":"openstreetmap.org"},"arcs":[[519],[520],[521],[522],[523],[524],[525],[526],[527],[528],[529],[530],[531],[532],[533],[534],[535],[536],[537],[538],[539],[540],[541],[542],[543],[544],[545],[546],[547],[548],[549],[550],[551],[552],[553],[554],[555],[556],[557]]},{"type":"LineString","properties":{"source":"openstreetmap.org","kind":"major_road","sort_rank":380,"kind_detail":"primary","ref":"RL 812 \u0637\u0645","min_zoom":8.0},"arcs":[558]},{"type":"MultiLineString","properties":{"sort_rank":381,"source":"openstreetmap.org","min_zoom":8.0,"kind":"major_road","kind_detail":"trunk"},"arcs":[[559],[560],[561],[562],[563],[564],[565],[566],[567],[568]]},{"type":"LineString","properties":{"kind":"major_road","sort_rank":380,"landuse_kind":"urban_area","source":"openstreetmap.org","min_zoom":8.0,"kind_detail":"primary","ref":"RR 82 & 94 \u0637\u062c","id":26585256},"arcs":[569]},{"type":"MultiLineString","properties":{"kind":"major_road","sort_rank":380,"kind_detail":"primary","min_zoom":8.0,"source":"openstreetmap.org","name:fr":"Avenue Mohamed V","landuse_kind":"urban_area","ref":"RR 28 \u0637\u062c"},"arcs":[[570],[571]]},{"type":"MultiLineString","properties":{"kind":"major_road","name:en":"National Road 3 Tunis - Hazoua - Algeria","network":null,"sort_rank":380,"kind_detail":"primary","source":"openstreetmap.org","min_zoom":8.0,"shield_text":"3","ref":"RN 3 \u0637\u0648"},"arcs":[[572],[573]]},{"type":"MultiLineString","properties":{"source":"openstreetmap.org","kind":"major_road","sort_rank":380,"kind_detail":"primary","ref":"RN 1 \u0637\u0648","min_zoom":8.0},"arcs":[[574],[575],[576],[577],[578],[579],[580]]},{"type":"MultiLineString","properties":{"source":"openstreetmap.org","kind":"major_road","landuse_kind":"residential","sort_rank":380,"kind_detail":"primary","ref":"RN 12 \u0637\u0648","min_zoom":8.0},"arcs":[[581],[582],[583],[584],[585],[586],[587],[588],[589],[590],[591],[592],[593],[594],[595],[596],[597],[598],[599],[600],[601],[602],[603],[604],[605],[606],[607],[608],[609]]},{"type":"MultiLineString","properties":{"kind":"major_road","sort_rank":380,"kind_detail":"primary","name:ar":"\u0634\u0627\u0631\u0639 \u0627\u0644\u0647\u0627\u062f\u064a \u0648\u0627\u0644\u064a","source":"openstreetmap.org","min_zoom":8.0,"landuse_kind":"residential","ref":"RR 28 \u0637\u062c"},"arcs":[[610],[611]]},{"type":"MultiLineString","properties":{"kind":"major_road","name:en":"National Road 1 Tunis - Ras Jedir - Libya","sort_rank":380,"kind_detail":"primary","name:fr":"Route Nationale 1 Tunis - Ras Jedir - Libye","source":"openstreetmap.org","min_zoom":8.0,"ref":"RN 1 \u0637\u0648"},"arcs":[[612],[613],[614],[615],[616],[617],[618],[619],[620]]},{"type":"MultiLineString","properties":{"source":"openstreetmap.org","kind":"major_road","kind_detail":"trunk","sort_rank":381,"landuse_kind":"urban_area","min_zoom":8.0},"arcs":[[621],[622],[623],[624],[625],[626],[627],[628],[629],[630],[631],[632],[633],[634],[635],[636],[637],[638],[639],[640],[641],[642],[643],[644],[645],[646],[647],[648],[649],[650],[651],[652],[653],[654],[655],[656],[657],[658],[659],[660],[661],[662],[663],[664],[665],[666],[667],[668],[669],[670]]},{"type":"LineString","properties":{"kind":"major_road","sort_rank":380,"landuse_kind":"residential","name:ar":"\u0627\u0644\u0641\u0627\u0636\u0644\u064a\u0646","source":"openstreetmap.org","min_zoom":8.0,"kind_detail":"primary","id":527141142},"arcs":[671]},{"type":"MultiLineString","properties":{"kind":"major_road","name:en":"National Road 1","sort_rank":380,"kind_detail":"primary","name:ar":"\u0627\u0644\u0637\u0631\u064a\u0642 \u0627\u0644\u0648\u0637\u0646\u064a\u06291","source":"openstreetmap.org","min_zoom":8.0,"landuse_kind":"residential","ref":"RN 1 \u0637\u0648"},"arcs":[[672],[673]]},{"type":"LineString","properties":{"source":"openstreetmap.org","kind":"major_road","sort_rank":380,"kind_detail":"primary","ref":"RL 845 \u0637\u0645","min_zoom":8.0},"arcs":[674]},{"type":"MultiLineString","properties":{"source":"openstreetmap.org","kind":"major_road","sort_rank":380,"kind_detail":"primary","ref":"RN 2 & 12 \u0637\u0648","min_zoom":8.0},"arcs":[[675],[676],[677]]},{"type":"LineString","properties":{"kind":"major_road","name:en":"National Road 1 Tunis - Ras Jedir - Libya","sort_rank":381,"kind_detail":"trunk","name:ar":"\u0627\u0644\u0637\u0631\u064a\u0642 \u0627\u0644\u0648\u0637\u0646\u064a\u0629 \u062a\u0648\u0646\u0633 - \u0631\u0623\u0633 \u062c\u062f\u064a\u0631 - \u0644\u064a\u0628\u064a\u0627","source":"openstreetmap.org","min_zoom":8.0,"landuse_kind":"urban_area","ref":"RN 1 \u0637\u0648","id":94066113},"arcs":[678]},{"type":"MultiLineString","properties":{"source":"openstreetmap.org","kind":"major_road","kind_detail":"trunk","sort_rank":381,"landuse_kind":"urban_area","min_zoom":8.0,"name:fr":"Route de Ceinture"},"arcs":[[679],[680]]},{"type":"MultiLineString","properties":{"source":"openstreetmap.org","kind":"major_road","landuse_kind":"urban_area","sort_rank":380,"kind_detail":"primary","ref":"RL 814  \u0637\u0645","min_zoom":8.0},"arcs":[[681],[682]]},{"type":"MultiLineString","properties":{"source":"openstreetmap.org","kind":"major_road","sort_rank":380,"kind_detail":"primary","ref":"RN 3 \u0637\u0648","min_zoom":8.0},"arcs":[[683],[684],[685],[686],[687],[688],[689],[690],[691],[692],[693],[694],[695],[696],[697],[698],[699],[700],[701],[702],[703],[704],[705],[706],[707],[708],[709],[710],[711],[712],[713],[714],[715],[716],[717],[718],[719],[720],[721],[722],[723],[724],[725],[726],[727]]},{"type":"MultiLineString","properties":{"source":"openstreetmap.org","kind":"major_road","landuse_kind":"residential","sort_rank":380,"kind_detail":"primary","min_zoom":8.0},"arcs":[[728],[729],[730],[731],[732],[733],[734],[735],[736],[737],[738],[739],[740],[741],[742],[743],[744],[745],[746],[747],[748],[749],[750],[751],[752],[753],[754],[755],[756],[757],[758],[759],[760],[761],[762],[763],[764],[765],[766],[767],[768],[769],[770],[771],[772],[773],[774]]},{"type":"MultiLineString","properties":{"source":"openstreetmap.org","kind":"major_road","kind_detail":"trunk","sort_rank":381,"landuse_kind":"urban_area","ref":"RR 82E \u0637\u062c","min_zoom":8.0},"arcs":[[775],[776],[777],[778],[779],[780],[781],[782],[783],[784],[785],[786],[787],[788]]},{"type":"MultiLineString","properties":{"kind":"major_road","name:en":"National Road 1 Tunis - Ras Jedir - Libya","sort_rank":380,"kind_detail":"primary","name:ar":"\u0627\u0644\u0637\u0631\u064a\u0642 \u0627\u0644\u0648\u0637\u0646\u064a\u0629 \u062a\u0648\u0646\u0633 - \u0631\u0623\u0633 \u062c\u062f\u064a\u0631 - \u0644\u064a\u0628\u064a\u0627","name:fr":"Route Nationale 1 Tunis - Ras Jedir - Libye","source":"openstreetmap.org","min_zoom":8.0,"landuse_kind":"residential","ref":"RN 1 \u0637\u0648"},"arcs":[[789],[790]]},{"type":"LineString","properties":{"kind":"highway","sort_rank":383,"kind_detail":"motorway","name:ar":"\u0627\u0644\u0637\u0631\u064a\u0642 \u0627\u0644\u0633\u0631\u064a\u0639\u0629 \u062a\u0648\u0646\u0633 - \u0633\u0648\u0633\u0629 - \u0635\u0641\u0627\u0642\u0633","source":"openstreetmap.org","min_zoom":8.0,"landuse_kind":"urban_area","ref":"A 1 \u0637\u0633"},"arcs":[791]},{"type":"MultiLineString","properties":{"kind":"major_road","name:en":"National Road 1","sort_rank":380,"kind_detail":"primary","name:ar":"\u0627\u0644\u0637\u0631\u064a\u0642 \u0627\u0644\u0648\u0637\u0646\u064a\u0629 1","source":"openstreetmap.org","min_zoom":8.0,"landuse_kind":"residential","ref":"RN 1 \u0637\u0648"},"arcs":[[792],[793],[794],[795],[796],[797],[798],[799],[800],[801],[802],[803],[804],[805],[806],[807],[808],[809],[810],[811],[812],[813],[814],[815],[816],[817],[818],[819],[820]]},{"type":"MultiLineString","properties":{"source":"openstreetmap.org","kind":"major_road","name:en":"National Road 2 Enfidha - Skhira","sort_rank":380,"kind_detail":"primary","ref":"RN 2 \u0637\u0648","min_zoom":8.0},"arcs":[[821],[822],[823],[824],[825],[826],[827],[828],[829],[830],[831],[832],[833],[834],[835],[836],[837],[838],[839],[840],[841],[842],[843],[844],[845],[846],[847],[848],[849],[850],[851],[852]]},{"type":"MultiLineString","properties":{"source":"openstreetmap.org","kind":"major_road","landuse_kind":"residential","sort_rank":381,"kind_detail":"trunk","ref":"RR 130 \u0637\u062c","min_zoom":8.0},"arcs":[[853],[854]]},{"type":"MultiLineString","properties":{"kind":"major_road","name:en":"National Road 1","sort_rank":381,"landuse_kind":"urban_area","name:ar":"\u0627\u0644\u0637\u0631\u064a\u0642 \u0627\u0644\u0648\u0637\u0646\u064a\u0629 1","source":"openstreetmap.org","min_zoom":8.0,"kind_detail":"trunk","ref":"RN 1 \u0637\u0648"},"arcs":[[855],[856],[857],[858],[859],[860],[861],[862]]},{"type":"MultiLineString","properties":{"source":"openstreetmap.org","kind":"major_road","kind_detail":"trunk","sort_rank":381,"landuse_kind":"urban_area","ref":"RR 92 \u0637\u062c","min_zoom":8.0},"arcs":[[863],[864],[865],[866],[867],[868],[869],[870],[871],[872],[873],[874],[875],[876],[877],[878],[879],[880],[881],[882]]},{"type":"LineString","properties":{"kind":"major_road","sort_rank":381,"landuse_kind":"urban_area","source":"openstreetmap.org","min_zoom":8.0,"kind_detail":"trunk","ref":"RR 82E\/92 \u0637\u062c","id":96253137},"arcs":[883]},{"type":"LineString","properties":{"kind":"major_road","sort_rank":380,"kind_detail":"primary","name:ar":"\u0627\u0644\u0637\u0631\u064a\u0642 \u0627\u0644\u0648\u0637\u0646\u064a\u0629 1","source":"openstreetmap.org","min_zoom":8.0,"landuse_kind":"urban_area","ref":"RN 1 \u0637\u0648"},"arcs":[884]},{"type":"MultiLineString","properties":{"source":"openstreetmap.org","kind":"major_road","kind_detail":"trunk","sort_rank":381,"landuse_kind":"urban_area","ref":"RR 100 \u0637\u062c","min_zoom":8.0},"arcs":[[885],[886],[887]]},{"type":"MultiLineString","properties":{"kind":"major_road","name:en":"National Road 1","sort_rank":380,"kind_detail":"primary","name:ar":"\u0627\u0644\u0637\u0631\u064a\u0642 \u0627\u0644\u0648\u0637\u0646\u064a\u0629 1","source":"openstreetmap.org","min_zoom":8.0,"landuse_kind":"urban_area","ref":"RN 1 \u0637\u0648"},"arcs":[[888],[889],[890],[891],[892],[893],[894],[895],[896],[897],[898],[899],[900],[901],[902],[903]]},{"type":"MultiLineString","properties":{"source":"openstreetmap.org","kind":"major_road","name:en":"National Road 3 Tunis - Hazoua - Algeria","sort_rank":380,"kind_detail":"primary","ref":"RN 3 \u0637\u0648","min_zoom":8.0},"arcs":[[904],[905],[906],[907],[908],[909],[910],[911],[912]]},{"type":"MultiLineString","properties":{"kind":"major_road","name:en":"National Road 1 Tunis - Ras Jedir - Libya","sort_rank":380,"kind_detail":"primary","name:fr":"Route Nationale 1 Tunis - Ras Jedir - Libye","source":"openstreetmap.org","min_zoom":8.0,"landuse_kind":"residential","ref":"RN 1 \u0637\u0648"},"arcs":[[913],[914],[915],[916],[917],[918],[919],[920],[921],[922],[923],[924],[925],[926],[927],[928]]},{"type":"LineString","properties":{"kind":"major_road","name:en":"National Road 1","sort_rank":381,"kind_detail":"trunk","name:ar":"\u0627\u0644\u0637\u0631\u064a\u0642 \u0627\u0644\u0648\u0637\u0646\u064a\u06291","source":"openstreetmap.org","min_zoom":8.0,"ref":"RN 1 \u0637\u0648","id":117284886},"arcs":[929]},{"type":"MultiLineString","properties":{"source":"openstreetmap.org","kind":"major_road","sort_rank":380,"kind_detail":"primary","ref":"RN 12 \u0637\u0648","min_zoom":8.0},"arcs":[[930],[931],[932],[933],[934],[935],[936],[937],[938],[939],[940],[941],[942],[943],[944],[945],[946],[947],[948],[949],[950],[951],[952],[953],[954],[955],[956],[957],[958],[959],[960],[961],[962],[963]]},{"type":"MultiLineString","properties":{"kind":"highway","name:en":"Motorway Tunis - Sousse - Sfax","sort_rank":383,"kind_detail":"motorway","name:ar":"\u0627\u0644\u0637\u0631\u064a\u0642 \u0627\u0644\u0633\u0631\u064a\u0639\u0629 \u062a\u0648\u0646\u0633 - \u0633\u0648\u0633\u0629 - \u0635\u0641\u0627\u0642\u0633","source":"openstreetmap.org","min_zoom":8.0,"ref":"A 1 \u0637\u0633"},"arcs":[[964],[965],[966],[967],[968],[969],[970],[971],[972],[973]]},{"type":"MultiLineString","properties":{"source":"openstreetmap.org","kind":"major_road","sort_rank":380,"kind_detail":"primary","ref":"RN 2","min_zoom":8.0},"arcs":[[974],[975],[976]]},{"type":"MultiLineString","properties":{"source":"openstreetmap.org","kind":"major_road","sort_rank":380,"kind_detail":"primary","ref":"RN 2\/12 \u0637\u0648","min_zoom":8.0},"arcs":[[977],[978],[979],[980],[981],[982],[983],[984],[985]]},{"type":"MultiLineString","properties":{"source":"openstreetmap.org","kind":"major_road","sort_rank":381,"kind_detail":"trunk","min_zoom":8.0,"ref":"RN 1 \u0637\u0648","name:fr":"Boulevard Yasser Arafet"},"arcs":[[986],[987],[988]]},{"type":"MultiLineString","properties":{"source":"openstreetmap.org","kind":"major_road","name:en":"National Road 3 Tunis - Hazoua - Algeria","sort_rank":380,"kind_detail":"primary","ref":"RN 3\/12 \u0637\u0648","min_zoom":8.0},"arcs":[[989],[990],[991],[992]]},{"type":"MultiLineString","properties":{"source":"openstreetmap.org","kind":"major_road","sort_rank":381,"kind_detail":"trunk","ref":"RR 28 \u0637\u062c","min_zoom":8.0},"arcs":[[993],[994],[995],[996],[997],[998],[999],[1000],[1001],[1002],[1003]]},{"type":"MultiLineString","properties":{"source":"openstreetmap.org","kind":"major_road","sort_rank":381,"kind_detail":"trunk","ref":"RN 1 \u0637\u0648","min_zoom":8.0,"name:fr":"Route Nationale 1 Tunis - Ras Jedir - Libye"},"arcs":[[1004],[1005],[1006],[1007]]},{"type":"MultiLineString","properties":{"source":"openstreetmap.org","kind":"major_road","landuse_kind":"urban_area","sort_rank":380,"kind_detail":"primary","ref":"RN 1 \u0637\u0648","min_zoom":8.0},"arcs":[[1008],[1009],[1010]]},{"type":"MultiLineString","properties":{"source":"openstreetmap.org","kind":"highway","sort_rank":383,"kind_detail":"motorway","ref":"A 1 \u0637\u0633","min_zoom":8.0,"name:fr":"Autoroute Tunis - Sousse - Sfax"},"arcs":[[1011],[1012],[1013],[1014]]},{"type":"LineString","properties":{"kind":"highway","sort_rank":383,"kind_detail":"motorway","name:fr":"Autoroute Tunis - Sousse - Sfax","source":"openstreetmap.org","min_zoom":8.0,"landuse_kind":"urban_area","ref":"A 1 \u0637\u0633"},"arcs":[1015]},{"type":"LineString","properties":{"kind":"major_road","name:en":"National Road 1 Tunis - Ras Jedir - Libya","sort_rank":381,"kind_detail":"trunk","name:ar":"\u0627\u0644\u0637\u0631\u064a\u0642 \u0627\u0644\u0648\u0637\u0646\u064a\u0629 \u062a\u0648\u0646\u0633 - \u0631\u0623\u0633 \u062c\u062f\u064a\u0631 - \u0644\u064a\u0628\u064a\u0627","name:fr":"Route Nationale 1 Tunis - Ras Jedir - Libye","source":"openstreetmap.org","min_zoom":8.0,"ref":"RN 1 \u0637\u0648","id":117284898},"arcs":[1016]},{"type":"MultiLineString","properties":{"source":"openstreetmap.org","kind":"major_road","sort_rank":381,"kind_detail":"trunk","ref":"RR 100E \u0637\u062c","min_zoom":8.0},"arcs":[[1017],[1018],[1019],[1020],[1021],[1022],[1023],[1024],[1025],[1026]]}]},"earth":{"type":"GeometryCollection","geometries":[{"type":"MultiPolygon","properties":{"sort_rank":10,"source":"naturalearthdata.com","min_zoom":0.0,"kind":"earth","area":80955162101},"arcs":[[[1027]]]}]},"landuse":{"type":"GeometryCollection","geometries":[{"type":"Polygon","properties":{"kind":"residential","name:en":"Hammamet","name":"\u0627\u0644\u062d\u0645\u0627\u0645\u0627\u062a","area":15036500,"sort_rank":20,"name:fr":"Hammamet","source":"openstreetmap.org","min_zoom":8.0,"int_name":"Hammamet","tier":2,"id":234090258},"arcs":[[1028]]},{"type":"MultiPolygon","properties":{"source":"naturalearthdata.com","kind":"urban_area","name":"","area":1625565445,"sort_rank":11,"min_zoom":4.0},"arcs":[[[1029]],[[1030]],[[1031]],[[1032]],[[1033]],[[1034]]]},{"type":"MultiPolygon","properties":{"source":"openstreetmap.org","kind":"residential","tier":2,"area":210658004,"sort_rank":20,"min_zoom":8.0},"arcs":[[[1035]],[[1036]],[[1037]],[[1038]],[[1039]],[[1040]],[[1041]],[[1042]],[[1043]]]}]}},"type":"Topology","transform":{"translate":[9.84375,35.4606699515],"scale":[0.0003433228,0.0002776414]},"arcs":[[[4096,1622],[-181,197],[-239,117],[-266,25],[-150,-28],[-151,-66],[-274,36],[-160,233],[-43,170],[-96,170],[39,235],[229,124],[298,87],[115,69],[166,159],[105,176],[152,373],[220,397]],[[852,4096],[-84,-61],[-61,61]],[[1468,3700],[-168,-83],[-30,-66],[-31,31],[-46,-15],[-3,70],[54,119],[-210,32],[-98,73],[-3,53],[-34,-1],[-4,81],[-17,-11],[2,113]],[[59,4014],[-59,-25]],[[284,4096],[-113,-162],[-40,71],[-72,9]],[[1525,3322],[-67,146],[21,107],[-17,49],[21,40],[-15,36]],[[0,2209],[99,5],[54,-44],[14,-74],[102,16],[53,-30],[56,40],[5,-40],[61,-16],[44,-79],[26,13],[66,-55],[52,161],[-24,105],[17,114],[57,-111],[174,23],[-34,89],[70,86],[93,27],[4,71],[147,30],[31,-35],[58,35],[-27,115],[32,58],[-35,39],[74,34],[0,-59],[106,-17],[84,83],[53,-21],[44,20],[33,102],[-80,29],[-14,34],[46,-6],[53,84],[-28,15],[-40,115],[22,71],[-24,24],[1,62]],[[1468,3700],[-23,36],[13,56],[30,9],[-19,65],[89,36],[5,64],[-51,75],[-86,-31],[53,86]],[[59,4014],[-26,82]],[[1525,3322],[170,-22],[143,-84],[92,138],[74,-77],[-26,-50],[27,0]],[[2005,3227],[128,148],[69,20],[49,-40],[300,168],[256,62],[224,511]],[[782,4096],[-142,-150],[-131,-95],[34,-212],[-22,-61],[-214,-213],[-143,-73],[-144,-58],[-20,-1]],[[2200,962],[17,38],[-18,24],[-3,4],[-17,27],[-9,15],[-22,41],[-2,5],[-3,6],[-22,65],[-1,5],[0,3],[0,4],[1,3],[1,5],[7,20],[2,12],[0,10],[-6,29],[-1,10]],[[2124,1288],[-13,16]],[[2111,1304],[-11,13],[9,40],[-16,42],[-3,43],[-31,33],[-4,9],[-5,17],[-14,17],[-13,28],[-33,23],[-8,9],[-13,55],[-44,28],[-29,40],[-100,46],[-6,3],[-159,133],[-111,170],[43,333],[26,65],[86,92],[2,142],[40,189],[103,318],[116,170],[194,106],[-10,39],[-11,110],[2,153],[-209,326]],[[2111,1304],[-11,13],[9,29],[1,6],[0,5],[-1,4],[-2,6],[-14,32],[-1,35],[-1,5],[-1,3],[-2,5],[-2,2],[-3,4],[-24,22],[-4,9],[-3,12],[-2,5],[-2,4],[-1,2],[-11,12],[-9,22],[-3,5],[-4,4],[-2,2],[-28,17],[-8,9],[-6,42],[-1,3],[-2,3],[-1,3],[-3,4],[-3,3],[-4,3],[-37,22],[-23,34],[-5,5],[-1,1],[-4,2],[-7,4],[-89,40],[-6,3],[-3,3],[-29,33],[-2,3],[-2,2],[-123,92],[-111,170],[43,333],[26,65],[78,79],[3,3],[2,3],[2,3],[1,4],[1,5],[8,69],[0,4],[0,3],[-1,6],[-6,47],[0,8],[1,6],[16,41],[1,5],[21,114],[0,5],[0,10],[1,8],[104,318],[79,108],[36,62],[78,35],[105,55],[4,3],[3,3],[2,4],[1,1],[1,4],[0,3],[1,10],[-1,5],[0,3],[-8,16],[-1,3],[0,5],[1,9],[0,4],[-13,92],[1,10],[6,20],[1,8],[1,12],[2,26],[0,36],[0,4],[-1,4],[-8,33],[-2,4],[-1,3],[-18,28],[-38,67],[-150,224]],[[2408,0],[-56,63],[-16,274],[-41,94],[-7,147],[-30,49],[-58,335]],[[2111,1304]],[[2111,1304],[7,-4],[2,-1],[2,-2],[0,-1],[1,-2],[1,-2],[0,-4]],[[2124,1288]],[[2124,1288],[7,-41],[0,-8],[-9,-54],[26,-74],[26,-46],[22,-37],[19,-25],[2,-4],[-17,-37]],[[2111,1304]],[[2111,1304],[16,-4],[5,1]],[[2132,1301],[-2,-1],[-2,-2],[-2,-2],[-2,-3],[0,-5]],[[2132,1301],[1,0]],[[2133,1301],[133,47],[53,-20]],[[2119,1302],[-8,2]],[[2111,1304]],[[2111,1304]],[[2124,1288]],[[2124,1288],[9,13]],[[2133,1301],[-12,1]],[[2121,1302],[-1,0]],[[2120,1302]],[[2120,1302],[-1,0]],[[2119,1302]],[[2121,1302]],[[2119,1302],[2,0]],[[3516,0],[20,94],[80,72],[-134,42],[-44,55],[-27,77],[-3,28],[-5,58],[15,84],[110,44],[-41,84],[-84,72],[-117,-13],[-263,104],[-118,57],[-34,51],[-14,73],[17,72],[32,48],[-53,50],[-27,16],[-30,7],[-175,-62],[-89,34],[-56,31],[-7,7],[-202,191],[-39,47],[-77,238],[-35,35],[-40,23],[-46,54],[-64,97],[-11,33],[-17,80],[-13,35],[-14,23],[-22,65],[-37,122],[-14,120],[6,191],[7,185],[34,148],[41,149],[41,137],[93,143],[101,76],[101,-29],[282,160],[241,62],[75,101],[157,391],[18,34],[1061,0],[0,-4096],[-580,0]],[[3516,0],[20,94],[80,72],[-134,42],[-44,55],[-27,77],[-3,28],[-5,58],[15,84],[110,44],[-41,84],[-84,72],[-117,-13],[-263,104],[-118,57],[-34,51],[-14,73],[17,72],[32,48],[-53,50],[-27,16],[-30,7],[-175,-62],[-89,34],[-56,31],[-7,7],[-202,191],[-39,47],[-77,238],[-35,35],[-40,23],[-46,54],[-64,97],[-11,33],[-17,80],[-13,35],[-14,23],[-22,65],[-37,122],[-14,120],[6,191],[7,185],[34,148],[41,149],[41,137],[93,143],[101,76],[101,-29],[282,160],[241,62],[75,101],[157,391],[18,34]],[[2331,1264],[17,-16]],[[2348,1248],[1,-1]],[[2350,1248],[-2,0]],[[2498,1079],[0,1]],[[2500,1076],[27,-29]],[[2528,1046],[41,-61]],[[2615,888],[12,-26]],[[2627,862],[2,-2]],[[2629,861],[-2,1]],[[2629,860],[7,-2]],[[2636,858],[-6,2]],[[2636,858],[66,-3]],[[2702,855],[35,-1]],[[2737,855],[-35,0]],[[2737,854],[8,-6]],[[2745,848],[-8,6]],[[2745,848],[10,-10]],[[2755,838],[6,-5]],[[2762,834],[-7,4]],[[2762,833],[5,-4]],[[2767,829],[-4,4]],[[2767,829],[103,-49]],[[2926,768],[0,-1]],[[2926,767],[1,0]],[[2927,767],[-1,1]],[[2927,767]],[[2928,767],[41,-16]],[[2969,751],[2,0]],[[2971,751],[-2,0]],[[2971,751],[2,-1]],[[2973,750],[-2,1]],[[2973,750],[38,-47]],[[3011,703],[1,-1]],[[3012,702],[-1,1]],[[3012,701],[1,-1]],[[3013,700],[-1,1]],[[3013,700],[4,-5]],[[3017,695],[6,-6]],[[3023,689],[7,-10]],[[3030,679],[1,-1]],[[3031,678],[-1,1]],[[3031,678],[1,-1]],[[3031,678]],[[3031,678]],[[3031,678]],[[3032,677],[-1,1]],[[3032,677],[11,-15]],[[3043,662],[1,0]],[[3045,662],[-2,0]],[[3045,661],[1,-1]],[[3046,660],[-1,2]],[[3046,660],[4,-4]],[[3050,656],[1,-2]],[[3051,655],[-1,1]],[[3051,654],[2,-2]],[[3053,652],[-1,3]],[[3053,652],[24,-48]],[[2350,1248],[-1,-1],[1,0],[1,1],[-1,0]],[[2737,854],[0,1],[0,-1]],[[2971,751]],[[3012,702],[0,-1],[0,1]],[[3045,662],[-1,0],[1,-1],[0,1]],[[3045,662]],[[3051,655],[0,-1],[1,1],[-1,0]],[[2087,1701],[-26,37]],[[2087,1701],[46,-74]],[[2133,1628],[-46,73]],[[2133,1627],[12,-21]],[[2146,1606],[-13,21]],[[2146,1606],[3,-8],[7,-9]],[[2156,1589],[-10,17]],[[2072,1718],[0,1]],[[2133,1627],[0,1],[0,-1]],[[2146,1606],[-1,0],[1,0]],[[2303,1310],[0,-8]],[[2304,1310],[0,1],[-1,0],[0,-1],[1,0]],[[2304,1302],[0,8]],[[2304,1301],[1,0]],[[2305,1301],[-1,1]],[[2305,1301],[2,-7]],[[2319,1276],[-12,17]],[[2320,1276],[11,-12]],[[3279,640],[-11,12]],[[2304,1302],[-1,0],[1,-1]],[[2304,1301],[0,1]],[[2304,1302]],[[2320,1276],[-1,0],[1,0]],[[2241,1236],[21,-18]],[[2263,1219],[-21,17]],[[2263,1218],[20,-7]],[[2284,1212],[-20,7]],[[2284,1212],[-1,0],[1,-1]],[[2284,1211],[1,1],[-1,0]],[[2284,1211],[29,-2]],[[2313,1210],[-29,2]],[[2355,1209],[-41,1]],[[2314,1209],[41,-1]],[[2314,1210],[-1,-1],[1,0],[0,1]],[[2148,1495],[5,-25]],[[2154,1470],[-5,24]],[[2153,1469],[1,-48]],[[2156,1444],[1,9],[-3,17]],[[2154,1380],[0,-13]],[[2154,1367],[1,-1],[0,1]],[[2155,1367],[0,1]],[[2155,1368],[-1,-1]],[[2154,1366],[17,-23]],[[2155,1368],[0,10]],[[2172,1344],[-17,23]],[[2172,1342],[6,-28],[8,-16]],[[2172,1344],[-1,-1],[2,-1],[0,1],[-1,1]],[[2188,1298],[-15,44]],[[2186,1298],[1,-1]],[[2187,1297],[1,1],[-1,0],[-1,0]],[[2187,1297],[37,-33]],[[2224,1265],[-36,33]],[[2224,1265],[0,-1]],[[2224,1264],[0,-1],[1,1],[-1,1]],[[2134,1522],[-1,0],[1,0]],[[2148,1495],[0,-1],[1,0],[0,1],[-1,0]],[[2245,1234],[-1,-1],[1,-1],[0,1],[0,1]],[[2877,779],[-7,1]],[[2877,779],[42,-12]],[[2324,3418],[-33,-16]],[[2291,3401],[33,17]],[[2291,3402]],[[2291,3402],[0,-1],[0,1]],[[2176,1459],[8,-13]],[[2187,1443],[9,-8]],[[2200,1431],[9,-8]],[[2211,1420],[10,-13]],[[2222,1407],[10,-12]],[[2232,1394],[20,-17]],[[2255,1375],[4,-3]],[[2268,1367],[-1,-1]],[[2269,1364],[13,-16]],[[2282,1348],[1,-1]],[[2283,1347],[-1,1]],[[2283,1347],[1,-1]],[[2284,1346],[-1,1]],[[2284,1346],[8,-6]],[[2292,1340],[2,-2]],[[2294,1338],[-2,2]],[[2295,1336],[1,-2]],[[2296,1334],[-1,2]],[[2296,1334],[3,-6]],[[2299,1328],[4,-11]],[[2303,1317],[-1,-2]],[[2303,1315],[0,2]],[[2120,968],[1,-1],[0,1],[-1,0]],[[2164,1022]],[[2174,1039]],[[2283,1347],[0,-1],[0,1]],[[2294,1337],[0,1],[1,-2],[-1,1]],[[2298,1328],[1,0]],[[2299,1328],[-1,0]],[[1890,1787],[-61,37]],[[1937,1747],[0,-1]],[[2044,1282],[-11,33]],[[2080,927],[-4,16]],[[2142,873],[1,32]],[[2149,1494],[4,-3]],[[2262,1218],[2,-4]],[[2264,1214],[0,4]],[[2164,1474],[-1,0],[1,0]],[[2117,3402],[6,0]],[[2123,3402],[-5,0]],[[1567,2386],[12,-44]],[[661,760],[0,-18]],[[661,741],[22,-37]],[[662,742],[0,15]],[[681,709],[-19,32]],[[690,691],[9,-15]],[[700,676],[-9,16]],[[700,675],[4,-7]],[[704,668],[-4,8]],[[704,668],[36,-14],[45,37]],[[765,881],[-28,-15]],[[738,865],[28,14]],[[785,691],[8,6]],[[792,698],[-7,-7]],[[800,704],[-7,-5]],[[793,698],[7,6]],[[793,698],[0,1],[-1,-1],[1,0]],[[802,708],[-2,-4]],[[818,735],[-15,-25]],[[1504,2298],[-1,-6]],[[1504,2297]],[[1504,2297],[1,-2]],[[1560,2412],[-56,-114]],[[1504,2294],[0,3]],[[1504,2297],[0,1]],[[1329,1700],[0,-1],[1,1],[-1,0]],[[1936,1708],[70,-70]],[[2006,1637],[28,-25]],[[2035,1613],[-28,25]],[[2212,1472],[4,-5]],[[2216,1467],[-3,6]],[[2216,1466],[9,-10]],[[2226,1457],[-9,10]],[[2226,1456],[6,-9]],[[2233,1448],[-7,8]],[[2232,1447],[16,-23]],[[2248,1424],[-15,24]],[[2248,1424],[1,-16]],[[2250,1408],[-2,16]],[[2249,1407],[9,-17]],[[2259,1390],[-9,18]],[[2258,1389],[11,-7]],[[2269,1382],[-10,8]],[[661,807],[0,-38]],[[665,815],[-4,-7]],[[662,780],[0,27]],[[662,808],[3,5]],[[682,840],[-6,-4],[-9,-17]],[[667,819],[15,20]],[[737,866],[-55,-26]],[[682,840],[0,-1],[1,0],[-1,1]],[[683,839],[55,26]],[[842,776],[-24,-41]],[[841,777],[1,-1]],[[842,776],[0,1]],[[661,808],[0,-1],[1,0],[0,1]],[[662,808],[-1,0]],[[2113,1555],[0,-1],[1,0],[0,1],[-1,0]],[[2154,1470],[-1,0],[0,-1],[1,0],[0,1]],[[2757,1067],[-125,-64]],[[2635,1003],[123,64]],[[39,477],[0,-5]],[[2223,3430],[-45,69],[-2,3]],[[2176,3502],[-17,28]],[[2159,3530],[-3,5],[-7,0]],[[2149,3535],[-21,-2]],[[2128,3533],[-2,0],[-19,-5]],[[2107,3528],[13,3],[7,2],[1,0]],[[2128,3533],[16,4],[5,-2]],[[2149,3535],[10,-5]],[[2159,3530],[4,-2],[13,-26]],[[2176,3502],[2,-4],[45,-68]],[[661,769],[0,-9]],[[662,757],[0,23]],[[665,813],[2,6]],[[667,819],[-2,-4]],[[691,692],[-10,17]],[[683,704],[7,-13]],[[803,710],[-1,-2]],[[2239,3405],[-113,-3]],[[2239,3405],[0,-2]],[[2240,3404],[-1,1]],[[3052,655],[-1,0]],[[2125,3402],[-1,0]],[[2124,3401],[1,1]],[[2126,3402],[-1,0]],[[2240,3403],[2,1],[-2,0]],[[2123,3402],[0,-1],[1,0],[0,1],[-1,0]],[[2239,3403],[1,0],[0,1],[-1,-1]],[[2584,3628],[-1,-1],[1,0],[0,1]],[[2624,3647],[-1,0],[1,-1],[1,1],[-1,0]],[[2653,3653],[0,-1],[1,0],[-1,1]],[[1910,4096],[7,-14]],[[1918,4082],[-8,14]],[[1918,4082],[6,-13]],[[1925,4069],[-7,13]],[[1983,3238],[-59,-101]],[[1924,3137],[60,101]],[[1925,4068],[11,-22]],[[1936,4046],[-11,22]],[[1936,4046],[23,-35]],[[1963,4007],[9,-12]],[[1977,3989],[146,-245],[-1,-196]],[[1988,3248],[-5,-9]],[[1984,3239],[4,9]],[[1988,3248],[28,49]],[[2576,974],[0,-1],[1,0],[0,1],[-1,0]],[[2350,1247],[18,-19]],[[2369,1228],[-18,19]],[[2369,1227],[9,-8]],[[2378,1219],[-9,9]],[[2378,1218],[9,-11]],[[2388,1207],[-9,12]],[[2388,1206],[16,-18]],[[2405,1188],[-16,19]],[[2405,1187],[17,-18]],[[2405,1187],[0,1],[-1,0]],[[2404,1188],[1,-1]],[[2422,1170],[-17,17]],[[2422,1169],[42,-45]],[[2465,1125],[-42,44]],[[2465,1123],[14,-18]],[[2465,1125],[-1,-1],[1,-1],[1,1],[-1,1]],[[2480,1105],[-14,19]],[[2479,1104],[19,-25]],[[2498,1080],[-18,25]],[[2369,1227],[0,1],[-1,-1],[1,0]],[[2378,1218],[1,0],[0,1],[-1,0],[0,-1]],[[2388,1206],[1,1],[-1,0],[-1,0],[1,-1]],[[2423,1169],[-1,1],[0,-1],[1,0]],[[2498,1080],[0,-1]],[[2498,1079],[0,1]],[[2092,3534],[22,157],[-141,278],[-102,80]],[[1974,1435],[-1,1]],[[2069,3427],[4,27]],[[0,3133],[168,148]],[[168,3281],[2,0]],[[169,3281],[-1,0]],[[1961,4010],[-2,1],[2,-2]],[[1961,4009],[2,-2],[-1,2]],[[1983,3239],[0,-1]],[[1984,3238],[0,1]],[[1918,4082],[-1,0],[1,0]],[[1925,4069],[-1,0],[1,-1],[0,1]],[[1962,4010],[-1,0],[0,-1]],[[1961,4009],[1,1]],[[2569,985],[6,-9]],[[2575,976],[1,-2]],[[2577,974],[-2,2]],[[2577,973],[1,-2]],[[2578,971],[-1,2]],[[2578,971],[37,-83]],[[1579,2342],[-11,44]],[[1918,1724],[12,-8]],[[306,590],[-3,-2],[4,1]],[[43,489],[-2,0],[1,-1],[1,0],[0,1]],[[306,590],[1,-1],[1,1],[-1,1],[-1,-1]],[[2224,1264],[17,-28]],[[2242,1236],[-17,28]],[[2154,1588],[-21,-11]],[[2213,950],[-64,-82]],[[2150,868],[63,81]],[[2156,1589]],[[2156,1589],[0,-1]],[[2156,1588]],[[2156,1588],[12,-16]],[[2156,1589]],[[2156,1589],[0,-1]],[[2156,1588]],[[2156,1588],[0,1]],[[2169,1572],[-13,17]],[[2169,1572],[19,-25]],[[2169,1572],[-1,0],[1,0]],[[2187,1549],[-18,23]],[[2188,1547]],[[2201,1507],[8,-28]],[[2210,1479],[-2,5]],[[2250,1060],[-36,-110]],[[2214,950],[40,91],[0,4],[-3,15]],[[2229,1135],[8,-29]],[[2237,1105],[-8,31]],[[2236,1105],[14,-44]],[[2250,1061],[-13,43]],[[2351,1250],[-21,39]],[[2351,1250],[-1,-2]],[[2351,1248],[0,2]],[[3064,639],[10,-36]],[[2214,949],[0,1],[-1,0],[0,-1],[1,0]],[[2229,1136]],[[2236,1104],[1,1]],[[2237,1105],[0,1],[-1,-1],[0,-1]],[[2251,1061],[-1,0]],[[2250,1061],[0,-1],[1,1]],[[3021,692]],[[2195,1065],[-1,0],[1,-1],[0,1]],[[2212,1103],[0,-1],[1,0],[0,1],[-1,0]],[[2255,1166],[0,-1],[0,1]],[[799,4096],[-104,-119]],[[695,3977],[-1,-1],[1,0]],[[695,3976],[0,1]],[[695,3976],[104,120]],[[2154,1413],[0,-33]],[[2154,1421],[0,-8]],[[2155,1378],[0,35]],[[2155,1413],[1,31]],[[2154,1413],[0,-1],[1,1],[-1,0]],[[2055,3351],[-39,-54],[40,53]],[[2074,3373],[-18,-21]],[[2056,3351],[18,21]],[[2095,3426],[-8,-25]],[[2087,3401],[9,25]],[[1791,1849],[-67,107],[-8,24]],[[1716,1980],[-88,250],[1,27]],[[1629,2257],[2,47],[13,127]],[[2068,3427],[-2,-40],[-185,-210],[-101,-71],[-115,-310],[50,-160],[-72,-205],[-18,-161],[4,-13]],[[1629,2257],[87,-277]],[[1716,1980],[7,-25],[68,-107],[38,-24]],[[1893,1784],[46,-28]],[[1919,1671],[-33,-67],[87,-168]],[[1973,1435],[24,-46]],[[2049,1256],[30,-133],[-4,-182]],[[2079,928],[17,-98]],[[2096,830],[-2,-5]],[[2094,825],[-1,-108],[88,-124],[76,-259],[49,-334]],[[2308,0],[-2,2],[-48,332],[-77,259],[-88,124],[2,108]],[[2114,3402],[-27,-1]],[[2087,3400],[27,1]],[[46,490],[201,71]],[[303,588],[-56,-27]],[[658,740],[-351,-149]],[[658,740],[3,1]],[[661,742],[-3,-2]],[[2033,1315],[-36,76]],[[2045,1277],[-1,5]],[[2045,1274],[0,3]],[[2049,1256],[-4,18]],[[2075,947],[-2,5]],[[2096,3426],[21,62],[-22,-62]],[[1829,1824],[64,-40]],[[2032,1315],[11,-33]],[[2075,941],[4,-13]],[[809,775],[-34,0]],[[776,774],[33,1]],[[839,777],[-30,-2]],[[841,778],[-2,-1]],[[839,777],[3,0]],[[843,777],[-1,1]],[[842,777]],[[2122,1161],[-34,-20]],[[2122,1161],[4,1]],[[2125,1163],[-3,-2]],[[2163,1183],[-37,-20]],[[2126,1162],[37,21]],[[2126,1162],[0,1]],[[2126,1163],[-1,0]],[[2125,1163],[1,-1]],[[2190,1198],[-26,-15]],[[2164,1183],[26,14]],[[2199,1203],[-9,-5]],[[2190,1197],[9,6]],[[2190,1197],[0,1]],[[2190,1198]],[[2190,1198],[0,-1]],[[2190,1197]],[[2212,1210],[-12,-7]],[[2200,1203],[12,7]],[[2200,1203]],[[2200,1203],[-1,0]],[[2199,1203]],[[2199,1203],[1,0]],[[2223,1216],[-10,-6]],[[2213,1210],[10,6]],[[2213,1210]],[[2213,1210],[-1,0]],[[2212,1210]],[[2212,1210],[1,0]],[[2244,1233],[-20,-17]],[[2224,1216],[21,16]],[[841,777],[1,0]],[[842,777],[0,1]],[[842,778],[-1,-1]],[[2163,1183]],[[2163,1183],[1,0]],[[2164,1183],[-1,0]],[[2224,1216],[-1,0],[1,0]],[[1569,2389],[-2,-2]],[[1568,2386],[1,3]],[[1569,2389],[91,102],[44,138],[-17,70],[96,290]],[[1585,2318],[-5,21]],[[1585,2318],[2,-8]],[[1588,2310],[-3,8]],[[1587,2309],[1,-3]],[[1588,2306],[0,3]],[[1600,2259],[-12,47]],[[1807,1807],[-128,187],[-76,256]],[[1783,2989],[6,18]],[[1789,3007],[133,127]],[[2139,857],[10,-147]],[[2150,710],[-10,147]],[[2140,858],[2,8]],[[2142,873],[0,-7]],[[2149,710],[14,-37]],[[2164,673],[-14,37]],[[2165,669],[120,-372]],[[2292,264],[-7,33]],[[2292,264],[28,-238]],[[2320,22],[6,-22]],[[1588,2310],[-1,0],[0,-1],[1,0],[0,1]],[[1997,1389],[35,-74]],[[2043,1282],[1,-5]],[[2044,1277],[1,-3]],[[2045,1274],[4,-18]],[[1028,3247],[-1,11]],[[1054,3247],[-26,0]],[[1028,3247],[13,-15]],[[1899,2042],[2,0]],[[1901,2041],[-1,0]],[[1946,2016],[-45,24]],[[1935,2051],[15,-33]],[[1946,2016],[3,-2]],[[1950,2015],[-4,1]],[[1950,2013],[2,-4]],[[1950,2018],[0,-3]],[[1951,2015],[-1,3]],[[1952,2009],[-1,5]],[[1952,2009],[31,-166]],[[1974,3993],[-2,2],[1,-2]],[[1974,3991],[0,1]],[[1974,3992],[-1,1],[0,-1],[1,-1],[0,1]],[[1984,1840],[-1,3]],[[1983,1843],[34,-26]],[[1983,3238],[1,0]],[[1984,3239],[-1,0]],[[2087,3401],[-9,0]],[[2078,3401],[9,-1]],[[2140,857],[8,9]],[[2148,866],[-8,-8]],[[2149,868],[-1,-1]],[[2149,866],[1,2]],[[2188,1548],[-1,1]],[[2188,1547]],[[2188,1547],[13,-39]],[[2202,1508],[-13,39]],[[2208,1484],[-6,23]],[[189,3320],[0,-1],[1,0],[0,1],[-1,0]],[[1568,2387],[-1,0],[1,-1],[0,1]],[[1950,2015],[-1,-1]],[[1949,2014],[1,-1],[1,1],[-1,1]],[[2149,866],[0,1],[-1,0],[0,-1],[1,0]],[[2202,1507],[0,1]],[[2202,1508],[-2,0],[1,-2],[1,1]],[[1935,2051],[-138,-60],[-48,-54]],[[2140,858],[-53,41]],[[2408,3500],[-13,-31]],[[2395,3469],[14,31]],[[2428,3510],[10,-17]],[[2439,3493],[-10,17]],[[2520,3652],[-6,3]],[[2516,3653],[3,-1]],[[2613,997],[3,-3]],[[2616,995],[-2,2]],[[2417,3482],[-1,0],[1,0]],[[2762,834],[0,-1],[1,0],[-1,1]],[[2118,3402],[-4,0]],[[2114,3401],[3,1]],[[39,472],[-8,-23],[-31,-7]],[[41,486],[-2,-9]],[[1579,2341],[1,0]],[[1580,2341],[-1,1],[0,-1],[1,0]],[[1602,2255],[-2,4],[1,-4]],[[1601,2254],[2,-4],[-1,4]],[[1923,3137],[-1,-3],[2,2]],[[1602,2255],[-1,0],[0,-1],[1,1]],[[1924,3137],[-1,0],[1,0]],[[669,744],[-2,0]],[[668,743],[2,1]],[[681,749],[-11,-4]],[[670,745],[-1,-1],[1,0]],[[670,744],[0,1]],[[670,744],[11,4]],[[695,754],[-14,-5]],[[681,748],[14,6]],[[711,760],[-16,-6]],[[695,754],[-1,0],[1,0]],[[695,754],[16,6]],[[716,762],[-5,-1]],[[712,760],[4,2]],[[722,767],[-6,-4]],[[716,763],[0,-1],[0,1]],[[716,762],[6,4]],[[765,877],[-18,-59]],[[748,817],[10,-14]],[[748,818],[18,56]],[[758,803],[-10,15]],[[775,777],[-17,26]],[[775,775]],[[775,774],[1,0]],[[681,749],[0,-1],[0,1]],[[711,761],[0,-1],[1,0],[-1,1]],[[722,767],[1,-1],[0,1],[-1,0]],[[748,817],[0,1],[-1,0],[1,-1]],[[748,817]],[[775,775],[0,-1],[0,1]],[[2289,3402],[-47,2]],[[2291,3402]],[[2142,866],[-2,-8]],[[2142,866],[0,7]],[[2163,672],[2,-3],[-1,3]],[[2320,25],[0,1],[-1,-1]],[[2319,23],[1,-1],[0,1]],[[2140,858],[-1,0],[1,-1],[0,1]],[[2150,710],[-1,0],[0,-1],[1,1]],[[2164,673],[-1,0],[0,-1],[1,0],[0,1]],[[2320,23],[0,1],[-1,1],[0,-1],[1,-1]],[[2019,1364],[63,-14]],[[2082,1351],[-63,13]],[[2083,1350],[19,-7],[53,23]],[[2154,1367],[-71,-16]],[[2125,1572],[-12,-17]],[[2114,1555],[12,17]],[[2133,1577],[-7,-5]],[[2126,1572],[7,5]],[[2419,3525],[-11,-25]],[[2409,3500],[10,24]],[[2419,3524],[9,-14]],[[2440,3540],[-20,-15]],[[2429,3510],[-9,15]],[[2420,3525],[21,14]],[[2499,3636],[2,-65],[-60,-30]],[[2442,3540],[60,31],[-2,64]],[[2509,3656],[-9,-19]],[[2501,3636],[8,19]],[[2514,3655],[-4,1]],[[2510,3655],[6,-2]],[[2519,3652],[64,-25]],[[2583,3628],[-63,24]],[[2567,1054],[46,-57]],[[2614,997],[-46,57]],[[2623,3647],[-39,-19]],[[2584,3627],[40,19]],[[2653,3653],[-29,-6]],[[2625,3647],[28,5]],[[2653,3652],[21,-24]],[[2675,3629],[-21,23]],[[2741,1126],[10,-12]],[[2752,1114],[-11,14]],[[2751,1113],[2,-40]],[[2754,1073],[-2,40]],[[2757,1068],[-3,4]],[[2083,1350],[0,1],[-1,0],[0,-1],[1,0]],[[2126,1572]],[[2126,1572]],[[2126,1572],[-1,0],[1,0]],[[2262,1218],[1,0],[1,1],[-1,0],[-1,-1]],[[2420,3525],[-1,0],[1,-1],[0,1]],[[2442,3540],[-1,1],[-1,-1],[1,-1],[1,1]],[[2480,1105],[-1,0],[1,-1],[0,1]],[[2499,3636],[1,-1],[1,0],[0,1]],[[2501,3636],[-2,0]],[[2510,3655],[0,1],[-1,0],[0,-1],[1,0]],[[2752,1114],[-1,0]],[[2751,1114],[1,-1],[0,1]],[[2754,1072],[0,1],[-1,0],[0,-1],[1,0]],[[2792,1085],[-1,0],[0,-1],[1,1]],[[3348,658],[-71,-10]],[[1840,1775],[78,-51]],[[2198,1433]],[[2061,1738],[-77,102]],[[765,881],[0,-1]],[[925,1307]],[[1503,2292],[1,2]],[[2087,1565],[0,1],[-1,0],[1,-1]],[[2378,1219],[-23,-10]],[[2355,1208],[23,10]],[[2071,1720],[0,-2]],[[2072,1718],[1,-1]],[[169,3281],[1,-1]],[[170,3283],[-1,-1]],[[170,3283],[19,34]],[[170,3281],[0,2]],[[170,3280],[0,1]],[[170,3280],[156,-194],[177,-155],[29,-143],[-32,-94],[110,-94],[15,-274],[-17,-114],[24,-106],[-125,-404]],[[189,3319],[0,-2]],[[189,3317],[1,2]],[[196,3358],[-7,-38]],[[190,3320],[6,38]],[[195,3369],[1,41]],[[196,3358],[-1,11]],[[196,3410],[1,3]],[[197,3413],[20,22],[28,51],[-6,56]],[[239,3542],[6,-57],[-48,-72]],[[239,3542],[86,227]],[[308,590],[-2,1]],[[325,3769],[7,25]],[[332,3794],[-7,-25]],[[334,3796],[-2,-2]],[[333,3794],[1,2]],[[334,3796],[6,5]],[[379,3822],[-39,-21]],[[379,3822],[78,61]],[[470,3903],[-13,-20]],[[470,3903],[57,53],[41,4]],[[506,1700],[0,-2]],[[506,1698],[1,1]],[[506,1698],[0,-15]],[[507,1702],[-1,-1]],[[507,1701],[0,1]],[[568,3960],[2,0]],[[569,3961],[-1,-1]],[[570,3960],[2,0]],[[572,3960],[-2,1]],[[572,3960],[118,13]],[[690,3973],[4,3]],[[694,3977],[-4,-4]],[[169,3281],[1,0],[0,1],[-1,-1]],[[332,3794],[0,-1],[1,1]],[[333,3794],[-1,0]],[[332,3794]],[[506,1701],[0,-1],[1,0],[0,1],[-1,0]],[[570,3961],[-1,0],[1,-1]],[[570,3960],[0,1]],[[2209,1479],[3,-6]],[[2212,1473],[-2,6]],[[2216,1466]],[[2216,1466],[0,1]],[[2268,1368],[0,-1]],[[2275,1377],[-7,-9]],[[2268,1368],[1,-1]],[[2269,1367],[1,-1]],[[2269,1366],[1,0]],[[2269,1382],[6,-5]],[[2277,1377],[-8,5]],[[2270,1366],[16,1]],[[2277,1377],[-3,-1]],[[2275,1377],[0,1]],[[2320,1343],[-6,6],[-37,28]],[[2286,1367],[1,1]],[[2286,1367],[3,-1]],[[2290,1367],[-1,-1]],[[2289,1366],[31,-23]],[[2299,1328],[7,-1]],[[2306,1327],[-7,1]],[[2306,1327],[14,-1]],[[2320,1326],[-14,1]],[[2307,1293]],[[2307,1293],[2,-5]],[[2309,1288],[1,0]],[[2309,1288],[2,-1]],[[2318,1344],[3,-18]],[[2321,1326],[-1,17]],[[2321,1326],[2,-2]],[[2321,1326],[-1,0],[1,0]],[[2323,1324],[-2,2]],[[2323,1324],[0,-1],[1,1],[-1,0]],[[2323,1324]],[[2323,1324],[0,-23]],[[2323,1301],[1,23]],[[2323,1301],[7,-12]],[[3320,685],[-49,-30]],[[2212,1473],[0,-1],[1,1],[-1,0]],[[2225,1457],[0,-1],[1,0],[-1,1]],[[2232,1448],[1,-1],[0,1],[-1,0]],[[2248,1424]],[[2250,1407],[0,1],[-1,0],[1,-1]],[[2258,1390],[1,-1],[0,1],[-1,0]],[[2306,1327]],[[2307,1293]],[[2307,1293]],[[2492,1128],[-27,-3]],[[2466,1124],[26,3]],[[2493,1127],[46,-24]],[[2539,1104],[-46,24]],[[2540,1103],[23,-19]],[[2563,1084],[-23,19]],[[2563,1084],[10,-8]],[[2573,1077],[-9,7]],[[2573,1076],[27,-7]],[[2600,1070],[-26,7]],[[2493,1127],[0,1],[-1,0],[0,-1],[1,0]],[[2540,1103],[0,1],[-1,-1],[1,0]],[[2563,1084]],[[2574,1077],[-1,0],[0,-1],[1,1]],[[2150,990],[0,-1],[1,0],[-1,1]],[[2155,1001],[0,1],[0,-1]],[[2073,3454],[19,80]],[[1807,1807],[33,-31]],[[2120,968],[2,-26]],[[2127,977],[-7,-9]],[[2123,942],[-2,25]],[[2121,968],[6,9]],[[2123,941],[20,-36]],[[2143,908],[-20,34]],[[2130,980],[-2,-3]],[[2128,977],[2,3]],[[2150,990],[-19,-8]],[[2131,982],[19,7]],[[2155,1001],[-5,-11]],[[2151,989],[4,12]],[[2164,1022],[-9,-20]],[[2155,1001],[9,21]],[[2174,1039],[-10,-17]],[[2164,1022],[10,17]],[[2173,1461],[3,-2]],[[2178,1045],[-4,-6]],[[2174,1039],[5,5]],[[2186,1445],[-1,0]],[[2186,1444],[0,1]],[[2199,1432],[0,1]],[[2210,1422],[-1,0]],[[2210,1421]],[[2254,1376]],[[2254,1376]],[[2259,1372],[7,-4]],[[2130,981],[1,1]],[[623,465],[-65,-111],[36,-66]],[[594,288],[1,-2]],[[596,287],[-2,1]],[[596,286],[1,-2]],[[597,284],[-1,2]],[[597,284],[21,-24]],[[621,257],[34,-119],[-4,-138]],[[618,260],[1,-2]],[[620,259],[-2,1]],[[620,258],[1,-1]],[[621,257],[-1,2]],[[623,465],[2,3]],[[624,468],[-1,-3]],[[635,505],[-11,-37]],[[625,468],[11,36]],[[650,535],[-14,-29]],[[636,504],[0,2],[-1,-1],[1,-1]],[[636,506],[15,29]],[[699,675],[-49,-140]],[[651,535],[49,140]],[[925,1307],[-128,-227],[-7,-84]],[[1328,1698],[-403,-391]],[[1328,1698],[2,1]],[[1329,1700],[-1,-2]],[[1330,1702],[-1,-2]],[[1330,1700],[0,2]],[[1502,2290],[-121,-236],[-51,-352]],[[595,286],[1,0]],[[596,286],[-1,0]],[[619,258],[1,0],[0,1],[-1,0],[0,-1]],[[625,468],[-1,0],[1,0]],[[651,535],[-1,0],[1,0]],[[2223,3430],[88,-19]],[[2314,3412],[-91,18]],[[2034,1612],[52,-46]],[[2086,1566],[-51,47]],[[2087,1565],[26,-11]],[[2113,1555],[-26,11]],[[2113,1554],[20,-32]],[[2134,1522],[-20,33]],[[2133,1522],[15,-27]],[[2149,1495],[-15,27]],[[2547,1062],[-49,18]],[[2498,1079],[49,-17]],[[2547,1061],[20,-7]],[[2567,1055],[-20,7]],[[2663,1094],[-62,-24]],[[2601,1068],[62,25]],[[2718,1122],[-55,-28]],[[2664,1094],[54,28]],[[2740,1127],[-21,-4]],[[2719,1122],[22,4]],[[2547,1062]],[[2547,1062],[0,-1],[0,1]],[[2567,1054],[1,1],[-1,0],[0,-1]],[[2664,1094],[-1,0]],[[2663,1094],[0,-1]],[[2663,1093],[1,1]],[[2719,1122],[-1,1],[0,-1],[1,0]],[[2741,1128],[-1,-1]],[[2740,1127],[1,-1]],[[2741,1126],[0,1],[0,1]],[[2601,1070],[-1,-1],[0,-1],[1,1],[0,1]],[[2122,3548],[-5,-60]],[[2791,1085],[-34,-18]],[[2797,1088],[-6,-3]],[[2792,1085],[5,3]],[[2143,905],[-1,-32]],[[2164,1474],[-1,0]],[[2164,1474]],[[2172,1462],[1,-1]],[[2194,1065],[-16,-20]],[[2179,1044],[16,20]],[[2212,1102],[-17,-37]],[[2195,1065],[18,37]],[[2229,1136],[-17,-33]],[[2213,1103],[16,32]],[[2254,1165],[-25,-29]],[[2229,1136],[26,29]],[[2262,1189],[-7,-23]],[[2255,1165],[7,24]],[[2264,1214],[-2,-24]],[[2262,1190],[2,24]],[[41,488],[2,0]],[[457,901],[-149,-308]],[[457,905],[0,-2]],[[457,902],[0,-1]],[[506,1683],[-41,-302],[-78,-259],[70,-217]],[[458,903],[-1,2]],[[457,901],[1,1]],[[458,902],[0,1],[-1,0]],[[457,903],[0,-1],[1,0]],[[2143,905],[0,3]],[[2268,1365],[1,-1],[0,2]],[[2302,1314],[1,-3]],[[2304,1311],[-1,4]],[[1840,1775],[0,1],[0,-1]],[[2123,942],[-1,0],[1,-1],[0,1]],[[2127,977],[1,0],[-1,0]],[[2176,1459]],[[2186,1444],[0,1],[-1,0],[0,-1],[1,0]],[[2199,1433],[-1,0],[1,-1],[0,1]],[[2210,1421],[0,1],[-1,0],[1,-1]],[[2222,1407],[-1,0],[1,0]],[[2232,1395],[0,-1],[0,1]],[[2254,1376]],[[2268,1367],[-1,-1],[1,-1],[1,1],[-1,1]],[[2302,1315],[1,-1],[0,1],[-1,0]],[[2006,1638],[-70,70]],[[40,489],[-40,51]],[[42,489],[-1,-1]],[[307,589],[3,2]],[[667,744],[-5,-2]],[[662,741],[6,2]],[[765,879],[0,-2]],[[766,874],[1,5]],[[790,996],[63,33],[127,-86],[73,-144]],[[842,777],[1,0]],[[843,777]],[[843,777],[502,15]],[[1053,799],[0,-1]],[[1058,798],[-5,1]],[[1053,798],[1,1]],[[1345,792],[37,2]],[[1382,795],[-37,-3]],[[1382,795],[0,-1]],[[1382,794],[0,1]],[[1382,795]],[[1382,794],[0,1]],[[1382,795]],[[1384,795],[215,50],[128,-7],[48,70]],[[1512,2299],[-9,-7]],[[1507,2297],[-3,1]],[[1504,2294],[8,5]],[[1583,2308],[-71,-9]],[[1583,2308],[4,1]],[[1587,2310],[-4,-2]],[[1775,908],[6,7]],[[1779,916],[-4,-8]],[[1784,922],[-3,-5]],[[1781,917],[-2,-1],[1,-1],[2,1],[-1,1]],[[1781,917],[3,5]],[[1784,922],[151,105],[68,85],[85,29]],[[1644,2431],[71,205],[-50,159],[94,273],[307,319],[3,40]],[[1829,1824],[-38,25]],[[1973,1436],[-86,168],[14,44],[19,22],[12,27],[7,59],[-49,31]],[[1937,1746],[-18,-75]],[[1939,1756],[-2,-9]],[[1997,1391],[-23,44]],[[2073,952],[7,171],[-31,133]],[[2076,943],[-1,4]],[[2097,829],[-17,98]],[[2095,825],[2,4]],[[1560,2412],[1,0]],[[1561,2414],[-1,-2]],[[1560,2412],[1,0]],[[767,880]],[[767,880],[-2,0]],[[765,880]],[[790,996],[-23,-110]],[[661,742],[0,-1],[1,0],[0,1],[-1,0]],[[699,676],[0,-1],[1,0],[0,1],[-1,0]],[[765,880]],[[765,880],[0,-1],[2,0],[0,1]],[[767,880],[0,1],[-2,-1]],[[2087,3400],[-9,-21]],[[2079,3379],[8,21]],[[2079,3379],[-1,0],[0,-1],[1,0],[0,1]],[[43,488],[-1,1]],[[247,561],[-12,-6]],[[247,561],[7,3]],[[247,561]],[[2395,3469],[-71,-51]],[[2324,3418],[22,12],[49,38]],[[2416,3482],[-20,-13]],[[2396,3469],[20,13]],[[2438,3492],[-22,-10]],[[2417,3482],[21,10]],[[2471,3507],[-32,-14]],[[2439,3492],[32,15]],[[2472,3507],[14,6],[45,26],[9,7],[-68,-38]],[[2439,3493],[-1,0],[0,-1],[1,1]],[[2472,3507],[0,1],[-1,-1],[1,0]],[[2078,3378],[-4,-5]],[[2074,3372],[4,6]],[[2056,3352],[-1,-1],[0,-1],[1,1],[0,1]],[[2087,3401],[0,-1],[0,1]],[[2150,1495],[13,-20]],[[2165,1473],[7,-11]],[[2262,1190],[0,-1],[0,1]],[[1785,4096],[160,-99],[51,-64],[118,-242],[-22,-158]],[[1871,4049],[-86,47]],[[1973,1436],[0,-1]],[[2073,3455],[-5,-28]],[[2092,3533],[-19,-78]],[[2007,1637],[-1,1],[0,-1],[1,0]],[[2594,983],[-17,-9]],[[2577,973],[17,9]],[[2616,994],[-21,-11]],[[2595,983],[21,10]],[[2632,1003],[-16,-9]],[[2617,994],[18,9]],[[2617,994],[-1,1],[0,-1]],[[2616,994],[0,-1]],[[2616,993],[1,1]],[[2594,983],[0,-1],[1,0],[0,1],[-1,0]],[[0,4096],[3035,0],[-18,-34],[-157,-391],[-75,-101],[-241,-62],[-282,-160],[-101,29],[-101,-76],[-93,-143],[-41,-137],[-41,-149],[-34,-148],[-7,-185],[-6,-191],[14,-120],[37,-122],[22,-65],[14,-23],[13,-35],[17,-80],[11,-33],[64,-97],[46,-54],[40,-23],[35,-35],[77,-238],[39,-47],[202,-191],[7,-7],[56,-31],[89,-34],[175,62],[30,-7],[27,-16],[53,-50],[-32,-48],[-17,-72],[14,-73],[34,-51],[118,-57],[263,-104],[117,13],[84,-72],[41,-84],[-110,-44],[-15,-84],[5,-58],[3,-28],[27,-77],[44,-55],[134,-42],[-80,-72],[-20,-94],[-3516,0],[0,4096]],[[2068,3358],[70,62],[59,-8],[49,34],[11,-21],[67,-4],[2,-28],[-77,-37],[-48,40],[-118,-57],[-15,19]],[[765,707],[-64,17],[-63,58],[30,63],[68,21],[129,-43],[-42,-85],[-58,-31]],[[2267,1376],[209,-198],[145,-65],[175,62],[57,-23],[53,-50],[-49,-120],[48,-124],[381,-161],[78,9],[18,-120],[-314,-28],[-100,24],[-32,40],[-65,-40],[-129,0],[0,-40],[-33,0],[-56,-71],[-41,31],[-3,129],[55,178],[-72,74],[40,10],[13,-31],[32,20],[64,100],[-57,35],[-266,-75],[-8,111],[-57,49],[-65,-28],[-64,-252],[-129,80],[-22,48],[22,272],[-9,29],[-89,11],[0,161],[-59,70],[27,50],[64,40],[28,158],[94,-80],[77,-237],[39,-48]],[[2218,3960],[6,-96],[-112,-21],[-17,61],[32,40],[0,80],[70,-9],[21,-55]],[[2986,4096],[-60,-158],[-14,-8],[-22,83],[13,51],[25,32],[58,0]],[[2518,3652],[85,34],[194,-18],[-36,-46],[-252,-72],[-367,-184],[-89,114],[51,70],[258,-26],[80,150],[31,12],[45,-34]],[[3481,0],[-117,0],[29,75],[-4,27],[-32,0],[52,257],[29,-96],[44,-55],[73,-23],[-28,-58],[-45,-124],[-1,-3]],[[3428,172],[5,4],[22,-8],[3,62],[95,-66],[49,6],[-89,-43],[6,-33],[-38,-15],[2,57],[-55,36]],[[661,761],[4,59],[22,-14],[5,37],[52,-9],[-3,33],[24,10],[14,-142],[25,-26],[-35,-8],[-33,28],[5,-27],[-53,-11],[-27,70]],[[2592,579],[29,2],[-3,31],[103,12],[7,-25],[-55,-75],[-34,3],[-47,52]],[[3150,665],[26,65],[141,-37],[47,-43],[-142,-82],[-46,18],[-26,79]],[[2073,932],[23,81],[52,12],[21,45],[35,-93],[-43,-62],[-40,-22],[4,29],[-11,-17],[-41,27]],[[1947,1478],[55,88],[91,-116],[-78,-34],[-68,62]],[[2021,1306],[55,45],[58,-31],[12,-33],[-71,-39],[-54,58]],[[2151,1384],[6,69],[63,31],[106,-141],[5,-79],[-34,-10],[41,-11],[-87,-14],[-34,49],[39,65],[-67,-25],[-38,66]],[[1788,1792],[49,39],[101,-84],[-35,-41],[-115,86]]]}