{"objects":{"water":{"type":"GeometryCollection","geometries":[{"type":"Polygon","properties":{"source":"naturalearthdata.com","kind":"ocean","area":1576712559132672,"sort_rank":200,"min_zoom":0.0,"id":1},"arcs":[[6]]},{"type":"LineString","properties":{"source":"naturalearthdata.com","kind":"ocean","sort_rank":205,"boundary":true,"min_zoom":0.0,"id":47},"arcs":[7]}]},"buildings":{"type":"GeometryCollection","geometries":[]},"places":{"type":"GeometryCollection","geometries":[{"type":"Point","properties":{"name:ka":"\u10d4\u10d9\u10d5\u10d0\u10e2\u10dd\u10e0\u10e3\u10da\u10d8 \u10d2\u10d5\u10d8\u10dc\u10d4\u10d0","name:ko":"\uc801\ub3c4 \uae30\ub2c8","name:cv":"\u042d\u043a\u0432\u0430\u0442\u043e\u0440\u0438\u0430\u043b\u043b\u04d1 \u0413\u0432\u0438\u043d\u0435\u0439","name:km":"\u17a0\u17d2\u1782\u17b8\u178e\u17c1\u17a2\u17c1\u1780\u17d2\u179c\u17b6\u1791\u17d0\u179a","name:cs":"Rovn\u00edkov\u00e1 Guinea","name:ki":"Ginekweta","name:co":"Guinea Equatoriale","name:tk":"Ekwatorial Gwine\u00fda","name:ku":"G\u00een\u00eaya Rojbend\u00ee","name:ti":"\u12a2\u12b3\u1276\u122a\u12eb\u120d \u130a\u1292","name:ks":"\u0627\u0650\u06a9\u0648\u0650\u0679\u0648\u0631\u0650\u06cc\u064e\u0644 \u06af\u0650\u0646\u06cc","name:to":"\u02bbEkueta Kini","name:tl":"Gineang Ekwatoriyal","name:ce":"\u0414\u0443\u044c\u043d\u0435\u043d\u0430 \u0430\u0441\u0430\u043d\u0430\u043d \u0413\u0432\u0438\u043d\u0435","name:ta":"\u0b8e\u0b95\u0bcd\u0b95\u0bc1\u0bb5\u0b9f\u0bcb\u0bb0\u0bbf\u0baf\u0bb2\u0bcd \u0b95\u0bbf\u0ba9\u0bbf","name:tg":"\u0413\u0432\u0438\u043d\u0435\u044f\u0438 \u0418\u0441\u0442\u0438\u0432\u043e\u04e3","name:ca":"Guinea Equatorial","name:te":"\u0c0e\u0c15\u0c4d\u0c35\u0c47\u0c1f\u0c4b\u0c30\u0c3f\u0c2f\u0c3e\u0c32\u0c4d \u0c17\u0c3f\u0c28\u0c3f\u0c2f\u0c3e","name:cy":"Guinea Gyhydeddol","name:hr":"Ekvatorska Gvineja","name:da":"\u00c6kvatorialguinea","name:de":"\u00c4quatorialguinea","name:dz":"\u0f68\u0f7a\u0f0b\u0f40\u0f74\u0f0b\u0f4a\u0f7c\u0f0b\u0f62\u0f7a\u0f63\u0f0b \u0f42\u0f72\u0f0b\u0f53\u0f72","source":"openstreetmap.org","name:kn":"\u0cb5\u0cbf\u0cb7\u0cc1\u0cb5\u0ca6\u0ccd\u0cb0\u0cc7\u0c96\u0cc6\u0caf \u0c97\u0cbf\u0ca8\u0cbf","name:dv":"\u0787\u07a8\u0786\u07aa\u0787\u07ac\u0793\u07af\u0783\u07a8\u0787\u07a6\u078d\u07b0 \u078e\u07a8\u0782\u07a9","name:lv":"Ekvatori\u0101l\u0101 Gvineja","name:lt":"Pusiaujo Gvin\u0117ja","name:uz":"Ekvatorli Gvineya","name:kk":"\u0415\u043a\u0443\u0430\u0442\u043e\u0440 \u0413\u0438\u043d\u0438\u044f","name:ur":"\u0627\u0633\u062a\u0648\u0627\u0626\u06cc \u06af\u0646\u06cc","name:lb":"Equatorialguinea","name:la":"Guinea Aequatorensis","name:lg":"Gayana ey'oku ekweta","name:uk":"\u0415\u043a\u0432\u0430\u0442\u043e\u0440\u0456\u0430\u043b\u044c\u043d\u0430 \u0413\u0432\u0456\u043d\u0435\u044f","name:ug":"\u00c9kwator Gwin\u00e9yisi","name:li":"Equatoriaal Guinee","name:ln":"Gine-Ekwatorial","name:lo":"\u0ead\u0eb5\u0e84\u0ebb\u0ea7\u0ec2\u0e97\u0ec0\u0ea5\u0e8d\u0e81\u0eb5\u0ec0\u0e99\u0e8d","name:el":"\u0399\u03c3\u03b7\u03bc\u03b5\u03c1\u03b9\u03bd\u03ae \u0393\u03bf\u03c5\u03b9\u03bd\u03ad\u03b1","name:eo":"Ekvatora Gvineo","name:en":"Equatorial Guinea","name":"Guinea Ecuatorial","name:ee":"Ekuatorial Guini nutome","name:th":"\u0e1b\u0e23\u0e30\u0e40\u0e17\u0e28\u0e2d\u0e34\u0e40\u0e04\u0e27\u0e17\u0e2d\u0e40\u0e23\u0e35\u0e22\u0e25\u0e01\u0e34\u0e19\u0e35","name:eu":"Ekuatore Ginea","name:et":"Ekvatoriaal-Guinea","name:ia":"Guinea Equatorial","name:rm":"Guinea Equatoriala","name:rn":"Gineya Ekwatoriyali","name:az":"Ekvatorial Qvineya","name:ie":"Equatorial Guin\u00e9a","name:id":"Guinea Khatulistiwa","name:ar":"\u063a\u064a\u0646\u064a\u0627 \u0627\u0644\u0627\u0633\u062a\u0648\u0627\u0626\u064a\u0629","name:io":"Equatorala Guinea","name:ak":"Gini Ikuweta","name:am":"\u12a2\u12b3\u1276\u122a\u12eb\u120d \u130a\u1294","name:it":"Guinea Equatoriale","name:ru":"\u042d\u043a\u0432\u0430\u0442\u043e\u0440\u0438\u0430\u043b\u044c\u043d\u0430\u044f \u0413\u0432\u0438\u043d\u0435\u044f","name:rw":"Gineya Ekwatoriyale","name:af":"Ekwatoriaal-Guinee","name:zu":"i-Equatorial Guinea","name:zh-yue":"\u8d64\u9053\u757f\u5167\u4e9e","name:zh":"\u8d64\u9053\u51e0\u5185\u4e9a","name:so":"Equatorial Guinea","name:sn":"Equatorial Guinea","name:sl":"Ekvatorialna Gvineja","name:sk":"Rovn\u00edkov\u00e1 Guinea","name:ja":"\u8d64\u9053\u30ae\u30cb\u30a2","name:si":"\u0dc3\u0db8\u0d9a \u0d9c\u0dd2\u0db1\u0dd2\u0dba\u0dcf\u0dc0","name:sh":"Ekvatorijalna Gvineja","name:sg":"Gin\u00ebe t\u00ee Ekuat\u00ebre","name:se":"Beaivved\u00e1si Guinea","name:sc":"Guinea Ecuadoriale","name:br":"Ginea ar C\u2019heheder","name:bs":"Ekvatorijalna Gvineja","name:bm":"Cemajan Gine","name:bn":"\u09a8\u09bf\u09b0\u0995\u09cd\u09b7\u09c0\u09af\u09bc \u0997\u09bf\u09a8\u09bf","name:bo":"\u0f68\u0f72\u0f0b\u0f41\u0f74\u0f60\u0f0b\u0f4a\u0f7c\u0f0b\u0f62\u0f63\u0f0b\u0f42\u0f72\u0f0b\u0f53\u0f7a\u0f0d","name:sw":"Guinea ya Ikweta","name:be":"\u042d\u043a\u0432\u0430\u0442\u0430\u0440\u044b\u044f\u043b\u044c\u043d\u0430\u044f \u0413\u0432\u0456\u043d\u0435\u044f","name:su":"Guin\u00e9a Khatulistiwa","name:bg":"\u0415\u043a\u0432\u0430\u0442\u043e\u0440\u0438\u0430\u043b\u043d\u0430 \u0413\u0432\u0438\u043d\u0435\u044f","name:sr":"\u0415\u043a\u0432\u0430\u0442\u043e\u0440\u0438\u0458\u0430\u043b\u043d\u0430 \u0413\u0432\u0438\u043d\u0435\u0458\u0430","name:sq":"Guineja Ekuatoriale","name:jv":"Guinea Khatulistiwa","name:pt":"Guin\u00e9 Equatorial","name:ps":"\u0627\u06d0\u06a9\u0648\u0627\u067c\u0648\u0631\u064a\u0627\u0644 \u06ab\u0648\u064a\u0646\u0627","name:oc":"Guin\u00e8a Eq\u00fcatoriala","min_zoom":2.0,"name:ro":"Guineea Ecuatorial\u0103","name:zh-min-nan":"Chhiah-t\u014d Guinea","name:os":"\u042d\u043a\u0432\u0430\u0442\u043e\u0440\u0438\u0430\u043b\u043e\u043d \u0413\u0432\u0438\u043d\u0435\u0439","name:or":"\u0b07\u0b15\u0b4d\u0b2c\u0b3e\u0b1f\u0b47\u0b30\u0b3f\u0b06\u0b32\u0b4d \u0b17\u0b41\u0b07\u0b28\u0b3f\u0b06","name:pl":"Gwinea R\u00f3wnikowa","name:pa":"\u0a2d\u0a42-\u0a2e\u0a71\u0a27 \u0a30\u0a47\u0a16\u0a3e\u0a08 \u0a17\u0a3f\u0a28\u0a40","name:tr":"Ekvator Ginesi","name:hi":"\u0908\u0915\u094d\u0935\u0940\u091f\u094b\u0930\u093f\u092f\u0932 \u0917\u093f\u0928\u0940","name:sv":"Ekvatorialguinea","name:he":"\u05d2\u05d9\u05e0\u05d9\u05d0\u05d4 \u05d4\u05de\u05e9\u05d5\u05d5\u05e0\u05d9\u05ea","name:ha":"Gini Ta Ikwaita","name:hy":"\u0540\u0561\u057d\u0561\u0580\u0561\u056f\u0561\u056e\u0561\u0575\u056b\u0576 \u0533\u057e\u056b\u0576\u0565\u0561","name:ht":"Gine ekwateryal","name:hu":"Egyenl\u00edt\u0151i-Guinea","name:qu":"Chawpipacha Khiniya","population":1000000,"kind":"country","name:ts":"Equatorial Guinea","name:is":"Mi\u00f0baugs-G\u00ednea","name:yi":"\u05e2\u05e7\u05d5\u05d5\u05d0\u05d8\u05d0\u05e8\u05d9\u05e9\u05e2 \u05d2\u05d9\u05e0\u05e2","name:yo":"Or\u00edl\u1eb9\u0301\u00e8de Ekutoria Gini","name:mt":"Ginea Ekwatorjali","name:ms":"Guinea Khatulistiwa","name:mr":"\u0907\u0915\u094d\u0935\u0947\u091f\u094b\u0930\u0940\u092f\u0932 \u0917\u093f\u0928\u0940","name:my":"\u1021\u102e\u1000\u103d\u1031\u1010\u102c \u1002\u102e\u101b\u102c\u1014\u102c","official_name":"Rep\u00fablica de Guinea Ecuatorial;R\u00e9publique de Guin\u00e9e \u00e9quatoriale;Rep\u00fablica da Guin\u00e9 Equatorial","name:kw":"Gyni Ekwadoriel","name:mg":"Guinea Ekoatera","name:ml":"\u0d07\u0d15\u0d4d\u0d35\u0d31\u0d4d\u0d31\u0d4b\u0d31\u0d3f\u0d2f\u0d32\u0d4d\u200d \u0d17\u0d3f\u0d28\u0d3f","name:vi":"Guinea X\u00edch \u0110\u1ea1o","name:mn":"\u042d\u043a\u0432\u0430\u0442\u043e\u0440\u044b\u043d \u0413\u0432\u0438\u043d\u0435\u0439","name:mi":"Kini Ekuatoria","id":424313853,"name:mk":"\u0415\u043a\u0432\u0430\u0442\u043e\u0440\u0438\u0458\u0430\u043b\u043d\u0430 \u0413\u0432\u0438\u043d\u0435\u0458\u0430","name:vo":"Kveatora-Giney\u00e4n","name:fa":"\u06af\u06cc\u0646\u0647 \u0627\u0633\u062a\u0648\u0627\u06cc\u06cc","name:ff":"Ginee Ekuwaatoriyaal","name:fi":"P\u00e4iv\u00e4ntasaajan Guinea","name:fo":"Ekvatorguinea","name:fr":"Guin\u00e9e \u00e9quatoriale","name:fy":"Ekwatoriaal Guinee","int_name":"Equatorial Guinea","name:nl":"Equatoriaal-Guinea","name:nn":"Ekvatorial-Guinea","name:no":"Ekvatorial-Guinea","name:na":"Gini t Ekwador","name:nb":"Ekvatorial-Guinea","name:ne":"\u092d\u0942-\u092e\u0927\u094d\u092f\u0940\u092f \u0917\u093f\u0928\u0940","name:wo":"Gineg yamoo","name:nv":"G\u00edn\u00ed Nahasdz\u00e1\u00e1n A\u0142n\u00edi\u02bcgi Si\u02bc\u00e1n\u00edg\u00ed\u00ed","name:ga":"An Ghuine Mhe\u00e1nchriosach","name:gd":"Gini Mheadhan-Chriosach","name:gv":"Guinea Chryss ny Cruinney","name:gu":"\u0a87\u0a95\u0acd\u0ab5\u0ac7\u0a9f\u0acb\u0ab0\u0abf\u0aaf\u0ab2 \u0a97\u0abf\u0aa8\u0ac0","name:tt":"\u042d\u043a\u0432\u0430\u0442\u043e\u0440\u0438\u0430\u043b\u044c \u0413\u0432\u0438\u043d\u0435\u044f"},"coordinates":[1961,604]},{"type":"Point","properties":{"admin_level":"4","kind":"region","name:en":"Wele-Nzas Province","name":"Wele-Nzas","kind_detail":"state","source":"openstreetmap.org","min_zoom":4.0,"id":4353431092},"coordinates":[3751,171]},{"type":"Point","properties":{"admin_level":"4","kind":"region","name:en":"Ki\u00e9-Ntem Province","name":"Ki\u00e9-Ntem","kind_detail":"state","source":"openstreetmap.org","min_zoom":4.0,"id":4353431743},"coordinates":[3326,1900]},{"type":"Point","properties":{"kind":"locality","name":"A\u00f1isoc","kind_detail":"town","source":"openstreetmap.org","min_zoom":8.0,"id":667669560,"name:es":"Valladolid de los Bimbiles","population":16626},"coordinates":[2633,1277]}]},"transit":{"type":"GeometryCollection","geometries":[]},"pois":{"type":"GeometryCollection","geometries":[{"type":"Point","properties":{"kind":"nature_reserve","name:en":"Rio Campo Natural Reserve","name":"Reserva Natural de R\u00edo Campo","area":359457000,"source":"openstreetmap.org","min_zoom":8.05,"tier":2,"id":-2676863,"osm_relation":true},"coordinates":[19,2334]}]},"boundaries":{"type":"GeometryCollection","geometries":[{"type":"LineString","properties":{"name:right:yo":"Guinea Al\u00e1gedem\u00e9j\u00ec","name:right:yi":"\u05e2\u05e7\u05d5\u05d5\u05d0\u05d8\u05d0\u05e8\u05d9\u05e9\u05e2 \u05d2\u05d9\u05e0\u05e2","name:left:la":"Cameronia","name:right:qu":"Chawpipacha Khiniya","name:left:vi":"Cameroon","name:left:sw":"Kamerun","name:left:kg":"Kamerun","name:left:ka":"\u10d9\u10d0\u10db\u10d4\u10e0\u10e3\u10dc\u10d8","name:left:sq":"Kameruni","name:left:ko":"\uce74\uba54\ub8ec","name:left:kn":"\u0c95\u0ccd\u0caf\u0cbe\u0cae\u0cb0\u0cc2\u0ca8\u0ccd","name:left:ki":"Cameroon","name:right:rw":"Gineya Ekwatoriyale","name:left:kk":"\u041a\u0430\u043c\u0435\u0440\u0443\u043d","name:left:rm":"Camerun","name:left:ku":"Kamer\u00fbn","name:left:kw":"Kameroun","name:left:pl":"Kamerun","name:left:rw":"Kameruni","name:left:ru":"\u041a\u0430\u043c\u0435\u0440\u0443\u043d","name:right:ig":"Equatorial Guinea","name:right:ie":"Equatorial Guin\u00e9a","name:right:id":"Guinea Khatulistiwa","name:right:ia":"Guinea Equatorial","name:right:bn":"\u09ac\u09bf\u09b7\u09c1\u09ac\u09c0\u09af\u09bc \u0997\u09bf\u09a8\u09bf","name:right:bo":"\u0f68\u0f72\u0f0b\u0f41\u0f74\u0f60\u0f0b\u0f4a\u0f7c\u0f0b\u0f62\u0f63\u0f0b\u0f42\u0f72\u0f0b\u0f53\u0f7a\u0f0d","name:right:bm":"C\u025bmajan Gine","name:right:ba":"\u042d\u043a\u0432\u0430\u0442\u043e\u0440 \u0413\u0432\u0438\u043d\u0435\u044f\u04bb\u044b","name:right:bg":"\u0415\u043a\u0432\u0430\u0442\u043e\u0440\u0438\u0430\u043b\u043d\u0430 \u0413\u0432\u0438\u043d\u0435\u044f","name:right:be":"\u042d\u043a\u0432\u0430\u0442\u0430\u0440\u044b\u044f\u043b\u044c\u043d\u0430\u044f \u0413\u0432\u0456\u043d\u0435\u044f","name:right:br":"Ginea ar C'heheder","name:right:bs":"Ekvatorijalna Gvineja","name:right:nn":"Ekvatorial-Guinea","name:right:no":"Ekvatorial-Guinea","name:right:nl":"Equatoriaal Guinee","name:left:lv":"Kamer\u016bna","name:right:wo":"Gineg yamoo","name:right:ne":"\u0907\u0915\u094d\u0935\u0947\u091f\u094b\u0930\u093f\u092f\u0932 \u0917\u093f\u0928\u0940","name:right:nb":"Ekvatorial-Guinea","name:right:na":"Gini t Ekwador","name:right:ps":"\u0627\u06d0\u06a9\u0648\u0627\u067c\u0648\u0631\u064a\u0627\u0644 \u06ab\u0648\u064a\u0646\u0627","name:right:nv":"G\u00edn\u00ed Nahasdz\u00e1\u00e1n A\u0142n\u00edi\u02bcgi Si\u02bc\u00e1n\u00edg\u00ed\u00ed","name:right:pt":"Guin\u00e9 Equatorial","kind_detail":"2","name:right:gu":"\u0a87\u0a95\u0acd\u0ab5\u0ac7\u0a9f\u0acb\u0ab0\u0abf\u0aaf\u0ab2 \u0a97\u0abf\u0aa8\u0ac0","name:right:gv":"Guinea Chryss ny Cruinney","alt_name:right:fr":"Guin\u00e9e-\u00c9quatoriale","name:left:mk":"\u041a\u0430\u043c\u0435\u0440\u0443\u043d","name:left:tr":"Kamerun","name:left:ts":"Cameroon","name:left:tt":"\u041a\u0430\u043c\u0435\u0440\u0443\u043d","name:left:mn":"\u041a\u0430\u043c\u0435\u0440\u0443\u043d","name:left:ml":"\u0d15\u0d3e\u0d2e\u0d31\u0d42\u0d7a","name:left:th":"\u0e1b\u0e23\u0e30\u0e40\u0e17\u0e28\u0e41\u0e04\u0e40\u0e21\u0e2d\u0e23\u0e39\u0e19","name:right:pa":"\u0a2d\u0a42-\u0a2e\u0a71\u0a27 \u0a30\u0a47\u0a16\u0a3e\u0a08 \u0a17\u0a3f\u0a28\u0a40","name:left:tk":"Kamerun","name:left:tl":"Kamerun","name:left:mt":"Kamerun","name:left:ta":"\u0b95\u0bae\u0bb0\u0bc2\u0ba9\u0bcd","name:left:my":"\u1000\u1004\u103a\u1019\u101b\u103d\u1014\u103a\u1038\u1014\u102d\u102f\u1004\u103a\u1004\u1036","name:right:pl":"Gwinea R\u00f3wnikowa","name:left:te":"\u0c15\u0c3e\u0c2e\u0c46\u0c30\u0c42\u0c28\u0c4d","name:left:tg":"\u041a\u0430\u043c\u0435\u0440\u0443\u043d","name:left:ms":"Cameroon","name:left:mr":"\u0915\u093e\u092e\u0947\u0930\u0942\u0928","name:left:de":"Kamerun","name:right:ga":"an Ghuine Mhe\u00e1nchriosach","name:left:dv":"\u0786\u07ac\u0789\u07a6\u0783\u07ab\u0782\u07b0","name:right:lg":"Equatorial Guinea","name:right:ug":"\u0626\u06d0\u0643\u06cb\u0627\u062a\u0648\u0631 \u06af\u06cb\u0649\u0646\u06d0\u064a\u0649\u0633\u0649","name:left:hi":"\u0915\u0948\u092e\u0930\u0941\u0928","name:right:lb":"Equatorialguinea","name:right:uk":"\u0415\u043a\u0432\u0430\u0442\u043e\u0440\u0456\u0430\u0301\u043b\u044c\u043d\u0430 \u0490\u0432\u0456\u043d\u0435\u0301\u044f","name:left:ca":"Camerun","name:right:ln":"Gine-Ekwatorial","name:right:lo":"\u0ead\u0eb5\u0e84\u0ebb\u0ea7\u0ec2\u0e97\u0ec0\u0ea5\u0e8d\u0e81\u0eb5\u0ec0\u0e99\u0e8d","name:right:li":"Equatoriaal Guinee","name:right:lt":"Pusiaujo Gvin\u0117ja","name:right:ur":"\u0627\u0633\u062a\u0648\u0627\u0626\u06cc \u06af\u0646\u06cc","name:right:lv":"Ekvatori\u0101l\u0101 Gvineja","name:left:hy":"\u053f\u0561\u0574\u0565\u0580\u0578\u0582\u0576","name:left:ht":"Kamewoun","name:left:hu":"Kamerun","name:left:hr":"Kamerun","sort_rank":262,"name:right:gd":"Gini Mheadhan-Chriosach","name:right:os":"\u042d\u043a\u0432\u0430\u0442\u043e\u0440\u0438\u0430\u043b\u043e\u043d \u0413\u0432\u0438\u043d\u0435\u0439","name:right:sr":"\u0415\u043a\u0432\u0430\u0442\u043e\u0440\u0438\u0458\u0430\u043b\u043d\u0430 \u0413\u0432\u0438\u043d\u0435\u0458\u0430","name:right:eu":"Ekuatore Ginea","name:right:et":"Ekvatoriaal-Guinea","name:left:os":"\u041a\u0430\u043c\u0435\u0440\u0443\u043d","name:left:or":"\u0b15\u0b3e\u0b2e\u0b47\u0b30\u0b41\u0b28","name:right:ee":"Gini Ekwatoria","name:left:vo":"Kamerun\u00e4n","name:left:oc":"Cameron","name:right:eo":"Ekvatora Gvineo","name:right:en":"Equatorial Guinea","name:right:el":"\u0399\u03c3\u03b7\u03bc\u03b5\u03c1\u03b9\u03bd\u03ae \u0393\u03bf\u03c5\u03b9\u03bd\u03ad\u03b1","name:left:ff":"Kamerun","name:left:fa":"\u06a9\u0627\u0645\u0631\u0648\u0646","name:left:fo":"Kamerun","name:right:sk":"Rovn\u00edkov\u00e1 Guinea","name:left:fi":"Kamerun","name:right:tt":"\u042d\u043a\u0432\u0430\u0442\u043e\u0440\u0438\u0430\u0301\u043b\u044c \u0413\u0432\u0438\u043d\u0435\u0301\u044f","name:right:jv":"Guinea Khatulistiwa","name:left:fy":"Kameroen","name:right:ja":"\u8d64\u9053\u30ae\u30cb\u30a2","name:right:sq":"Guinea Ekuatoriale","name:left:ja":"\u30ab\u30e1\u30eb\u30fc\u30f3","name:right:su":"Guin\u00e9a Khatulistiwa","name:right:st":"Equatorial Guinea","name:right:sw":"Guinea ya Ikweta","name:right:sv":"Ekvatorialguinea","name:right:si":"\u0dc3\u0db8\u0d9a \u0d9c\u0dd2\u0db1\u0dd2\u0dba\u0dcf\u0dc0","name:right:sh":"Ekvatorijalna Gvineja","name:left:qu":"Kamirun","name:right:sm":"Kini Ekuatoria","name:right:sl":"Ekvatorialna Gvineja","name:right:so":"Ikweetiga Guinea","name:right:sn":"Equatorial Guinea","name:right:sc":"Guinea Ecuadoriale","name:left:jv":"Kamerun","id":-192830,"name:right:sg":"Gin\u00ebe t\u00ee Ekuat\u00ebre","name:right:co":"Guinea Equatoriale","name:right:ca":"Guinea Equatorial","name:right:se":"Beaivved\u00e1si Guinea","name:right:ce":"\u0414\u0443\u044c\u043d\u0435\u043d\u0430 \u0430\u0441\u0430\u043d\u0430\u043d \u0413\u0432\u0438\u043d\u0435","name:right:cy":"Gini Gyhydeddol","name:right:zh-yue":"\u8d64\u9053\u757f\u5167\u4e9e","name:right:cs":"Rovn\u00edkov\u00e1 Guinea","name:right":"Guinea Ecuatorial","name:right:cv":"\u042d\u043a\u0432\u0430\u0442\u043e\u0440\u0438\u0430\u043b\u043b\u0103 \u0413\u0432\u0438\u043d\u0435\u0439","name:right:it":"Guinea Equatoriale","name:left:ar":"\u0627\u0644\u0643\u0627\u0645\u064a\u0631\u0648\u0646","name:right:is":"Mi\u00f0baugs-G\u00ednea","name:left:az":"Kamerun","name:left:ro":"Camerun","name:left:af":"Kameroen","name:left:an":"Camer\u00fan","name:left:am":"\u12ab\u121c\u1229\u1295","name:right:ru":"\u042d\u043a\u0432\u0430\u0442\u043e\u0440\u0438\u0430\u0301\u043b\u044c\u043d\u0430\u044f \u0413\u0432\u0438\u043d\u0435\u0301\u044f","name:right:io":"Equatorala Guinea","alt_name:right:su":"Guin\u00e9a \u00c9kuator","alt_name:right:gd":"Guinea a\u2019 Chrios Mheadhain;Gini Mheadhan-chearcallach","name:left:zh-yue":"\u5580\u9ea5\u9686","alt_name:right:se":"Ekvatori\u00e1la Guinea","name:right:ro":"Guineea Ecuatorial\u0103","name:right:hy":"\u0540\u0561\u057d\u0561\u0580\u0561\u056f\u0561\u056e\u0561\u0575\u056b\u0576 \u0533\u057e\u056b\u0576\u0565\u0561","name:left:lb":"Kamerun","name:left:su":"Kamerun","name:left:li":"Kameroen","name:right:hr":"Ekvatorska Gvineja","name:left:sv":"Kamerun","name:right:ht":"Gine ekwateryal","name:right:hu":"Egyenl\u00edt\u0151i-Guinea","name:left:ln":"Kamerun","name:left:sr":"\u041a\u0430\u043c\u0435\u0440\u0443\u043d","name:right:hi":"\u092d\u0942\u092e\u0927\u094d\u092f\u0930\u0947\u0916\u0940\u092f \u0917\u093f\u0928\u0940","name:left:so":"Kamiruun","name:left:sn":"Cameroon","name:left:lt":"Kamer\u016bnas","name:left:sh":"Kamerun","name:left:sk":"Kamerun","name:left:se":"Kamerun","name:right:ha":"Gini Ikwatoriya","name:left:sg":"Kamer\u00fcn","name:left:sa":"\u0915\u0947\u092e\u0947\u0930\u0942\u0928","name:right:he":"\u05d2\u05d9\u05e0\u05d0\u05d4 \u05d4\u05de\u05e9\u05d5\u05d5\u05e0\u05d9\u05ea","name:left:sc":"Camer\u00f9n","name:right:la":"Guinea Aequatorensis","name:right:af":"Ekwatoriaal-Guinee","name:right:tr":"Ekvator Ginesi","name:right:an":"Guinea Equatorial","name:right:am":"\u12a2\u12b3\u1276\u122a\u12eb\u120d \u130a\u1294","name:right:ak":"Gini Ikuweta","source":"openstreetmap.org","name:left:cy":"Camer\u0175n","name:right:ar":"\u063a\u064a\u0646\u064a\u0627 \u0627\u0644\u0627\u0633\u062a\u0648\u0627\u0626\u064a\u0629","name:left:he":"\u05e7\u05de\u05e8\u05d5\u05df","name:left:cv":"\u041a\u0430\u043c\u0435\u0440\u0443\u043d","name:right:az":"Ekvatorial Qvineya","name:left:cs":"Kamerun","alt_name:right:ga":"an Ghuine Mhe\u00e1nchiorclach","name:left:ha":"Kameru","name:right:rm":"Guinea Equatoriala","name":"Cameroun - Guinea Ecuatorial","name:right:zu":"iGini Enkabazwe","alt_name:right:hr":"Ekvatorijalna Gvineja","name:left:zu":"IKamerooni","name:left:zh":"\u5580\u9ea6\u9686","alt_name:right:ha":"Ginen Ekweita","name:right:zh":"\u8d64\u9053\u51e0\u5185\u4e9a","name:left:uz":"Kamerun","name:right:fr":"Guin\u00e9e \u00e9quatoriale","name:left:nv":"T\u00e1\u0142t\u0142\u02bc\u00e1\u00e1h Ch\u02bcosh Daad\u00e1n\u00edg\u00ed\u00ed Bitooh","name:left:ur":"\u06a9\u06cc\u0645\u0631\u0648\u0646","id:right":-192791,"name:left:uk":"\u041a\u0430\u043c\u0435\u0440\u0443\u043d","name:left:no":"Kamerun","name:left:nl":"Kameroen","name:right:fa":"\u06af\u06cc\u0646\u0647 \u0627\u0633\u062a\u0648\u0627\u06cc\u06cc","name:right:fo":"Ekvatorguinea","name:left:ne":"\u0915\u094d\u092f\u093e\u092e\u0947\u0930\u0942\u0928","name:left:ug":"\u0643\u0627\u0645\u06d0\u0631\u06c7\u0646","name:left:na":"Kamerun","name:left:eo":"Kameruno","name:left:en":"Cameroon","name:left:el":"\u039a\u03b1\u03bc\u03b5\u03c1\u03bf\u03cd\u03bd","name:left:ee":"Cameroon","name:right:ki":"Ginekweta","name:left:es":"Camer\u00fan","name:left:ss":"IKhameruni","name:left:ie":"Cameroon","name:left:eu":"Kamerun","name:left:et":"Kamerun","name:right:om":"Iqu\u2019aatoriyaal Giinii","name:right:zh-min-nan":"Chhiah-t\u014d Guinea","name:right:oc":"Guin\u00e8a Eq\u00fcatoriala","name:right:ko":"\uc801\ub3c4 \uae30\ub2c8","name:right:ts":"Gineya ya le Nkaveni","name:right:uz":"Ekvatorli Gvineya","osm_relation":true,"name:right:or":"\u0b2c\u0b3f\u0b37\u0b41\u0b2c\u0b30\u0b47\u0b16\u0b40\u0b5f \u0b17\u0b3f\u0b28\u0b3f","name:left:pt":"Camar\u00f5es","name:right:th":"\u0e2d\u0e34\u0e40\u0e04\u0e27\u0e17\u0e2d\u0e40\u0e23\u0e35\u0e22\u0e25\u0e01\u0e34\u0e19\u0e35","name:right:tk":"Ekwatorial Gwine\u00fda","min_zoom":8.0,"name:left:sl":"Kamerun","name:left:zh-min-nan":"Cameroon","name:left:wo":"Kamerun","name:left:ga":"Camar\u00fan","name:left:it":"Camerun","name:left:gd":"Camarun","name:left:gl":"Camer\u00fan","name:left:gv":"Cameroon","official_name:right":"Rep\u00fablica de Guinea Ecuatorial","name:left":"Cameroun","name:right:mk":"\u0415\u043a\u0432\u0430\u0442\u043e\u0440\u0441\u043a\u0430 \u0413\u0432\u0438\u043d\u0435\u0458\u0430","name:right:mi":"Kini Ekuatoria","name:right:ml":"\u0d07\u0d15\u0d4d\u0d35\u0d31\u0d4d\u0d31\u0d4b\u0d31\u0d3f\u0d2f\u0d7d \u0d17\u0d3f\u0d28\u0d3f","name:right:vo":"Kveatora-Giney\u00e4n","name:right:mg":"Ginea Ekoatorialy","name:right:vi":"Guinea X\u00edch \u0110\u1ea1o","name:right:my":"\u1021\u102e\u1000\u103d\u1031\u1010\u102c\u1002\u102e\u1014\u102e\u1014\u102d\u102f\u1004\u103a\u1004\u1036","name:right:ms":"Guinea Khatulistiwa","name:right:mr":"\u0907\u0915\u094d\u0935\u0947\u091f\u094b\u0930\u0940\u092f\u0932 \u0917\u093f\u0928\u0940","name:right:fy":"Ekwatoriaal-Guinee","name:right:mt":"Gwinea Ekwatorjali","name:left:nn":"Kamerun","kind":"country","name:left:br":"Kameroun","name:left:bs":"Kamerun","name:left:ba":"\u041a\u0430\u043c\u0435\u0440\u0443\u043d","name:left:bg":"\u041a\u0430\u043c\u0435\u0440\u0443\u043d","name:left:be":"\u041a\u0430\u043c\u0435\u0440\u0443\u043d","name:right:ff":"Gine Ekwatoriyal","name:left:bn":"\u0995\u09cd\u09af\u09be\u09ae\u09c7\u09b0\u09c1\u09a8","name:left:bo":"\u0f41\u0f58\u0f0b\u0f58\u0f74\u0f0b\u0f62\u0f7c\u0f53\u0f0d","name:left:bm":"Kamerun","name:left:yo":"Kam\u1eb9r\u00fa\u00f9n","name:left:yi":"\u05e7\u05d0\u05de\u05e2\u05e8\u05d5\u05df","id:left":-192830,"name:right:fi":"P\u00e4iv\u00e4ntasaajan Guinea","name:right:ka":"\u10d4\u10d9\u10d5\u10d0\u10e2\u10dd\u10e0\u10e3\u10da\u10d8 \u10d2\u10d5\u10d8\u10dc\u10d4\u10d0","name:left:io":"Kamerun","name:left:pa":"\u0a15\u0a48\u0a2e\u0a30\u0a42\u0a28","name:right:kg":"Ginea ya Ekwatelo","name:left:ig":"Kameroon","name:right:kk":"\u042d\u043a\u0432\u0430\u0442\u043e\u0440\u043b\u044b\u049b \u0413\u0432\u0438\u043d\u0435\u044f","name:left:id":"Kamerun","name:right:km":"\u17a0\u17d2\u1782\u17b8\u178e\u17c1\u17a2\u17c1\u1780\u17d2\u179c\u17b6\u1791\u17d0\u179a","name:left:ia":"Camerun","name:right:kn":"\u0cb5\u0cbf\u0cb7\u0cc1\u0cb5\u0ca6\u0ccd\u0cb0\u0cc7\u0c96\u0cc6\u0caf \u0c97\u0cbf\u0ca8\u0cbf","name:right:tl":"Gineang Ekwatoriyal","name:right:ks":"\u0627\u0650\u06a9\u0648\u0650\u0679\u0648\u0631\u0650\u06cc\u064e\u0644 \u06af\u0650\u0646\u06cc","name:right:to":"\u02bbEkueta Kini","name:right:ku":"G\u00eeneya Rojbend\u00ee","name:right:ti":"\u12a2\u12b3\u1276\u122a\u12eb\u120d \u130a\u1292","name:right:kw":"Gyni Ekwadoriel","name:left:ps":"\u06a9\u0627\u0645\u0631\u0648\u0646","name:right:te":"\u0c0e\u0c15\u0c4d\u0c35\u0c47\u0c1f\u0c4b\u0c30\u0c3f\u0c2f\u0c3e\u0c32\u0c4d \u0c17\u0c3f\u0c28\u0c3f\u0c2f\u0c3e","name:right:tg":"\u0413\u0432\u0438\u043d\u0435\u044f\u0438 \u0418\u0441\u0442\u0438\u0432\u043e\u04e3","name:left:is":"Kamer\u00fan","name:right:ta":"\u0b8e\u0b95\u0bcd\u0b95\u0bc1\u0bb5\u0b9f\u0bcb\u0bb0\u0bbf\u0baf\u0bb2\u0bcd \u0b95\u0bbf\u0ba9\u0bbf","name:right:de":"\u00c4quatorialguinea","name:right:da":"\u00c6kvatorialguinea","name:right:dz":"\u0f68\u0f7a\u0f0b\u0f40\u0f74\u0f0b\u0f4a\u0f7c\u0f0b\u0f62\u0f7a\u0f63\u0f0b \u0f42\u0f72\u0f0b\u0f53\u0f72","name:right:dv":"\u0787\u07a8\u0786\u07aa\u0787\u07ac\u0793\u07af\u0783\u07a8\u0787\u07a6\u078d\u07b0 \u078e\u07a8\u0782\u07a9"},"arcs":[0]},{"type":"LineString","properties":{"kind":"region","name:left:en":"Wele-Nzas Province","name":"Wele-Nzas - Ki\u00e9-Ntem","sort_rank":256,"kind_detail":"4","id:right":-3728410,"source":"openstreetmap.org","min_zoom":8.0,"name:left:lt":"Vele Nzasas","id:left":-3728448,"id":-3728448,"name:right":"Ki\u00e9-Ntem","name:right:en":"Ki\u00e9-Ntem Province","osm_relation":true,"name:left":"Wele-Nzas"},"arcs":[1]},{"type":"LineString","properties":{"kind":"region","name:en":"Wele-Nzas Province","name":"Wele-Nzas","name:lt":"Vele Nzasas","sort_rank":256,"kind_detail":"4","source":"openstreetmap.org","min_zoom":8.0,"id":-3728448,"osm_relation":true},"arcs":[2]},{"type":"LineString","properties":{"id:left":-3728410,"id:right":-2750833,"min_zoom":8.0,"short_name:right":"SU","id":-3728410,"osm_relation":true,"name:left:en":"Ki\u00e9-Ntem Province","kind":"region","name":"Ki\u00e9-Ntem - Sud","sort_rank":256,"kind_detail":"4","name:right:en":"South","source":"openstreetmap.org","name:right:de":"S\u00fcd","name:right":"Sud","name:left":"Ki\u00e9-Ntem"},"arcs":[3]},{"type":"LineString","properties":{"kind":"region","name:en":"Ki\u00e9-Ntem Province","name":"Ki\u00e9-Ntem","sort_rank":256,"kind_detail":"4","source":"openstreetmap.org","min_zoom":8.0,"id":-3728410,"osm_relation":true},"arcs":[4]},{"type":"LineString","properties":{"kind":"region","name:en":"South","name":"Sud","short_name":"SU","sort_rank":256,"kind_detail":"4","name:de":"S\u00fcd","source":"openstreetmap.org","min_zoom":8.0,"id":-2750833,"osm_relation":true},"arcs":[5]}]},"roads":{"type":"GeometryCollection","geometries":[{"type":"MultiLineString","properties":{"sort_rank":380,"kind_detail":"primary","min_zoom":8.0,"kind":"major_road","source":"openstreetmap.org"},"arcs":[[8],[9],[10],[11]]},{"type":"MultiLineString","properties":{"sort_rank":383,"kind_detail":"motorway","min_zoom":8.0,"kind":"highway","source":"openstreetmap.org"},"arcs":[[12],[13],[14],[15],[16],[17],[18],[19],[20],[21],[22],[23],[24],[25],[26],[27],[28],[29],[30],[31],[32],[33],[34],[35],[36],[37],[38],[39],[40],[41],[42],[43],[44],[45],[46],[47],[48],[49],[50],[51],[52],[53],[54],[55],[56],[57]]},{"type":"MultiLineString","properties":{"source":"openstreetmap.org","kind":"major_road","sort_rank":380,"kind_detail":"primary","ref":"N 17","min_zoom":8.0},"arcs":[[58],[59],[60],[61],[62],[63],[64]]},{"type":"MultiLineString","properties":{"source":"openstreetmap.org","kind":"major_road","sort_rank":380,"kind_detail":"primary","ref":"N7","min_zoom":8.0},"arcs":[[65],[66],[67],[68]]},{"type":"MultiLineString","properties":{"source":"openstreetmap.org","kind":"major_road","landuse_kind":"nature_reserve","sort_rank":380,"kind_detail":"primary","min_zoom":8.0},"arcs":[[69],[70]]},{"type":"LineString","properties":{"kind":"major_road","network":"CM-roads","sort_rank":381,"kind_detail":"trunk","source":"openstreetmap.org","min_zoom":8.0,"shield_text":"2","ref":"N2"},"arcs":[71]},{"type":"LineString","properties":{"kind":"major_road","network":"CM-roads","sort_rank":381,"kind_detail":"trunk","source":"openstreetmap.org","min_zoom":8.0,"shield_text":"2","ref":"N 2","id":313721600},"arcs":[72]}]},"earth":{"type":"GeometryCollection","geometries":[{"type":"Polygon","properties":{"sort_rank":10,"source":"naturalearthdata.com","kind":"earth","min_zoom":0.0,"id":4695},"arcs":[[73]]}]},"landuse":{"type":"GeometryCollection","geometries":[{"type":"Polygon","properties":{"kind":"park","area":2557469952,"sort_rank":24,"source":"openstreetmap.org","min_zoom":4.0,"tier":2,"id":-2701927,"osm_relation":true},"arcs":[[74]]},{"type":"MultiPolygon","properties":{"source":"openstreetmap.org","kind":"nature_reserve","tier":2,"area":1036365292,"sort_rank":23,"min_zoom":6.0,"osm_relation":true},"arcs":[[[75]]]}]}},"type":"Topology","transform":{"translate":[9.84375,1.4061088354],"scale":[0.0003433228,0.0003430816]},"arcs":[[[0,2485],[13,-38],[113,-43],[57,-97],[48,25],[33,-34],[15,12],[278,-106],[31,34],[79,-34],[103,13],[39,-30],[104,55],[35,-41],[57,36],[3091,-5]],[[4096,1015],[-137,5],[-56,-61],[-68,-22],[-293,34],[-166,-26],[-51,44],[-31,85],[-14,295],[-35,109],[-13,183],[-87,0],[-81,-131],[-135,0],[-565,167],[-79,-23],[-109,-82],[-67,0],[-113,-106]],[[1996,1486],[56,-113],[40,-4],[3,-44],[79,-3],[-16,-54],[25,-42],[70,-7],[-50,-91],[10,-48],[29,-3],[-137,-272],[-1,-42],[66,-41],[-14,-23],[22,-29],[-24,-65],[-30,1],[-11,-82],[137,-19],[86,-57],[19,45],[85,-62],[85,2],[-4,43],[38,13],[5,-17],[47,41],[70,-2],[23,39],[110,-31],[12,37],[36,-26],[14,19],[18,-54],[65,-22],[3,-27],[-2,42],[-30,49],[52,-10],[10,46],[47,-11],[1,-52],[124,-18],[14,-24],[-2,47],[44,-19],[10,-56],[31,73],[51,-9],[11,-73],[-188,-46],[-205,-194],[-25,-85],[-80,-106]],[[4096,2232],[-2475,6]],[[1621,2238],[-3,-252],[96,-167],[-2,-72],[-69,-69],[-6,-170],[36,-39],[266,55],[57,-38]],[[0,2485],[13,-38],[113,-43],[57,-97],[48,25],[33,-34],[15,12],[278,-106],[31,34],[79,-34],[103,13],[39,-30],[104,55],[35,-41],[57,36],[616,1]],[[93,4096],[-4,-166],[-11,-48],[-50,-119],[-28,-122],[0,455],[93,0]],[[93,4096],[-4,-166],[-11,-48],[-50,-119],[-28,-122]],[[237,1996],[-4,-152],[-30,-68],[23,-150],[-58,-142],[16,-61],[-16,-55],[-89,-61],[-79,3]],[[137,2082],[101,-78]],[[3410,827],[16,-34]],[[3426,794],[-15,33]],[[4096,670],[-54,-18],[-86,32],[-27,-8]],[[3929,676],[-37,-12],[-1,0]],[[3891,664],[-80,37],[-113,-26],[-152,60],[-111,-8],[-64,53]],[[3371,780],[0,1]],[[3371,781],[-3,2],[-92,82],[-114,15],[-73,75],[-64,2],[-76,64],[-108,22],[-56,65],[-95,21],[-77,97],[-191,46],[-6,6]],[[2416,1278],[-74,79]],[[2342,1357],[-8,8],[-34,21]],[[2300,1386],[-132,78]],[[2168,1464],[-103,62],[-31,4]],[[2034,1530],[-148,18]],[[1886,1548],[-6,0],[-2,0]],[[1878,1548],[-45,-28]],[[1833,1520],[-20,-13],[-41,20],[-58,-30],[-49,12]],[[1665,1509],[-14,32]],[[1651,1541],[-11,25],[-165,33],[-134,-91],[-153,-164],[-93,-112],[-302,-174],[-263,10],[-117,-79],[-45,12],[-38,-31],[-112,-14],[-156,26],[-62,37]],[[0,1018],[62,-37],[156,-26],[111,14],[39,31],[45,-12],[117,80],[263,-11],[302,174],[246,276],[134,91],[165,-33],[11,-24]],[[1651,1541],[14,-32]],[[1665,1509],[1,-2],[48,-10],[58,29],[41,-19],[20,13]],[[1833,1520],[44,28],[1,0]],[[1878,1548],[8,0]],[[1886,1548],[108,2],[40,-20]],[[2034,1530],[134,-66]],[[2168,1464],[60,-29],[72,-49]],[[2300,1386],[42,-29]],[[2342,1357],[36,-25],[38,-54]],[[2416,1278],[4,-6],[193,-46],[77,-98],[95,-20],[56,-66],[108,-21],[76,-64],[64,-3],[74,-75],[113,-14],[92,-82],[3,-3]],[[3371,780]],[[3371,780],[63,-53],[111,8],[153,-60],[113,26],[78,-37],[2,0]],[[3891,664],[38,12]],[[3929,676],[27,8],[86,-32],[54,18]],[[2832,1046],[76,-214],[-3,-8],[13,-83],[-35,-51],[23,-56],[1,1]],[[2907,635],[115,64]],[[3022,699],[34,19],[87,-66],[101,-17],[110,140],[17,5]],[[3371,780]],[[3371,780],[2,4],[35,46]],[[3409,830],[-36,-46],[-2,-3]],[[3371,781],[0,-1]],[[3371,780],[-18,-5],[-109,-139],[-101,17],[-87,65],[-34,-19]],[[3022,699],[-114,-65],[-1,1]],[[2907,635],[-24,55],[35,51],[-10,91],[-76,214]],[[4096,1908],[-153,-74],[-59,-73],[-129,-90],[-71,-101],[-18,-237],[-39,-107],[-43,-46]],[[3584,1180],[-17,-18]],[[3567,1162],[-2,-2],[16,-64],[-46,-92],[-113,-98],[-12,-75]],[[3410,831],[12,75],[114,97],[45,93],[-14,66]],[[3567,1162],[17,18]],[[3584,1180],[43,46],[39,107],[18,236],[71,102],[130,89],[58,74],[153,74]],[[1040,4096],[110,-9],[88,-64],[232,73]],[[1622,4096],[112,-68],[63,-2],[129,15],[70,55]],[[2187,4096],[112,0]],[[2339,4096],[38,0]],[[2523,4096],[15,0]],[[2745,4096],[48,-35],[124,35]],[[2938,4096],[62,-95],[63,58],[71,3],[44,34]],[[77,3821],[-16,-16]],[[155,4096],[-52,-121],[-1,-104],[-25,-49]],[[61,3804],[0,1],[-1,0],[1,-1]],[[77,3821],[0,1],[-1,-1],[1,0]],[[137,2082],[-137,122]],[[238,2004],[-1,-8]],[[3569,3897],[-30,-98],[30,-122],[-39,-128],[-46,-43],[-24,-128],[120,-144],[269,-18],[44,-188],[121,-17],[53,-64],[29,2]],[[3753,4096],[-88,-130],[-96,-69]],[[0,3641],[28,122],[50,119],[11,48],[4,166],[4003,0],[0,-4096],[-4096,0],[0,3641]],[[0,2605],[175,-53],[27,-46],[57,3],[9,-35],[15,119],[71,-60],[139,-2],[135,81],[78,221],[83,59],[124,197],[2,112],[76,189],[-8,64],[-126,65],[30,171],[107,27],[66,-13],[0,-24],[73,-4],[13,53],[61,32],[5,101],[66,88],[123,14],[413,-44],[312,37],[166,-28],[93,-55],[72,8],[67,-42],[182,-20],[19,-69],[-39,-167],[-11,-29],[-45,-9],[-5,-109],[-94,-176],[-99,42],[-76,82],[-18,-75],[-104,-32],[-43,36],[-98,-22],[-46,21],[-143,-62],[-19,18],[-74,-88],[-211,100],[-26,-94],[-117,-62],[-116,-194],[19,-99],[-143,-125],[-53,-123],[-165,-134],[-77,-214],[-44,0],[-69,-49],[-39,30],[-103,-13],[-79,34],[-31,-34],[-278,106],[-15,-12],[-33,34],[-48,-25],[-57,97],[-113,43],[-13,38],[0,120]],[[0,2001],[0,484],[13,-38],[113,-43],[53,-95],[58,21],[27,-32],[15,12],[198,-74],[0,-35],[-24,-71],[-98,23],[-221,-42],[4,-40],[102,-68],[-28,-63],[-170,10],[-42,51]]]}