{"objects":{"water":{"type":"GeometryCollection","geometries":[{"type":"Polygon","properties":{"source":"naturalearthdata.com","kind":"ocean","area":1576712559132672,"sort_rank":200,"min_zoom":0.0,"id":1},"arcs":[[2]]}]},"buildings":{"type":"GeometryCollection","geometries":[]},"places":{"type":"GeometryCollection","geometries":[]},"transit":{"type":"GeometryCollection","geometries":[]},"pois":{"type":"GeometryCollection","geometries":[]},"boundaries":{"type":"GeometryCollection","geometries":[{"type":"LineString","properties":{"name:kg":"Repubilika ya K\u00f4ngo","name:ka":"\u10d9\u10dd\u10dc\u10d2\u10dd\u10e1 \u10e0\u10d4\u10e1\u10de\u10e3\u10d1\u10da\u10d8\u10d9\u10d0","name:ko":"\ucf69\uace0 \uacf5\ud654\uad6d","name:cv":"\u041a\u043e\u043d\u0433\u043e \u0420\u0435\u0441\u043f\u0443\u0431\u043b\u0438\u043a\u0438","name:cs":"Republika Kongo","name:tt":"\u041a\u043e\u043d\u0433\u043e \u0496\u04e9\u043c\u04bb\u04af\u0440\u0438\u044f\u0442\u0435","name:kw":"Repoblek Kongo","name:tk":"Kongo Respublikasy","name:ku":"Komara Kongoy\u00ea","name:tl":"Republika ng Konggo","name:ce":"\u0420\u0435\u0441\u043f\u0443\u0431\u043b\u0438\u043a\u0430 \u041a\u043e\u043d\u0433\u043e","name:ta":"\u0b95\u0bca\u0b99\u0bcd\u0b95\u0bcb \u0b95\u0bc1\u0b9f\u0bbf\u0baf\u0bb0\u0b9a\u0bc1","name:tg":"\u04b6\u0443\u043c\u04b3\u04ef\u0440\u0438\u0438 \u041a\u043e\u043d\u0433\u043e","name:ca":"Rep\u00fablica del Congo","name:te":"\u0c15\u0c3e\u0c02\u0c17\u0c4b \u0c30\u0c3f\u0c2a\u0c2c\u0c4d\u0c32\u0c3f\u0c15\u0c4d","name:cy":"Gweriniaeth y Congo","name:hr":"Republika Kongo","name:da":"Republikken Congo","name:de":"Republik Kongo","source":"openstreetmap.org","name:ts":"Riphabliki ya Congo","name:dv":"\u0786\u07ae\u0782\u07b0\u078e\u07af (\u0796\u07aa\u0789\u07b0\u0780\u07ab\u0783\u07a8\u0787\u07b0\u0794\u07a7)","name:lv":"Kongo Republika","name:lt":"Kongo Respublika","name:uz":"Kongo Respublikasi","name:kk":"\u041a\u043e\u043d\u0433\u043e \u0420\u0435\u0441\u043f\u0443\u0431\u043b\u0438\u043a\u0430\u0441\u044b","name:ur":"\u062c\u0645\u06c1\u0648\u0631\u06cc\u06c1 \u06a9\u0627\u0646\u06af\u0648","name:lb":"Republik Kongo","name:la":"Respublica Congensis","name:uk":"\u0420\u0435\u0441\u043f\u0443\u0431\u043b\u0456\u043a\u0430 \u041a\u043e\u043d\u0433\u043e","name:ug":"\u0643\u0648\u0646\u06af\u0648 \u062c\u06c7\u0645\u06be\u06c7\u0631\u0649\u064a\u0649\u062a\u0649","name:li":"Kongo-Brazzaville","name:ln":"Kong\u00f3-Brazzaville","name:el":"\u0394\u03b7\u03bc\u03bf\u03ba\u03c1\u03b1\u03c4\u03af\u03b1 \u03c4\u03bf\u03c5 \u039a\u03bf\u03bd\u03b3\u03ba\u03cc","name:eo":"Respubliko Kongo","name:en":"Congo-Brazzaville","name":"Congo","name:th":"\u0e2a\u0e32\u0e18\u0e32\u0e23\u0e13\u0e23\u0e31\u0e10\u0e04\u0e2d\u0e07\u0e42\u0e01","name:eu":"Kongoko Errepublika","name:et":"Kongo Vabariik","name:es":"Rep\u00fablica del Congo","name:ia":"Republica del Congo","name:az":"Konqo Respublikas\u0131","name:ie":"Republic de Congo","name:id":"Republik Kongo","name:ar":"\u062c\u0645\u0647\u0648\u0631\u064a\u0629 \u0627\u0644\u0643\u0648\u0646\u063a\u0648","name:io":"Republiko Kongo","name:is":"Vestur-Kong\u00f3","name:am":"\u12ae\u1295\u130e \u122a\u1350\u1265\u120a\u12ad","name:it":"Repubblica del Congo","name:an":"Republica d'o Congo","name:ru":"\u041a\u043e\u043d\u0433\u043e","name:rw":"Kongo","name:af":"Republiek van die Kongo","name:zu":"IKongo","kind_detail":"2","name:zh-yue":"\u525b\u679c","name:zh":"\u521a\u679c\u5171\u548c\u56fd","name:so":"Jamhuuriyadda Kongo","name:sn":"Republic of the Congo","name:sl":"Republika Kongo","name:sk":"Kongo (Brazzaville)","name:ja":"\u30b3\u30f3\u30b4\u5171\u548c\u56fd","name:si":"\u0d9a\u0ddc\u0d82\u0d9c\u0ddd \u0da2\u0db1\u0dbb\u0da2\u0dba","name:sh":"Republika Kongo","name:sg":"K\u00f6d\u00f6r\u00f6s\u00ease t\u00ee Kong\u00f6o","name:se":"Kongo d\u00e1ssev\u00e1ldi","name:sc":"Rep\u00f9brica de su Congo","name:br":"Republik Kongo","name:bs":"Republika Kongo","name:bm":"Kongo-Brazaville","name:bn":"\u0995\u0999\u09cd\u0997\u09cb \u09aa\u09cd\u09b0\u099c\u09be\u09a4\u09a8\u09cd\u09a4\u09cd\u09b0","name:bo":"\u0f40\u0f7c\u0f44\u0f0b\u0f42\u0f7c\u0f0b\u0f66\u0fa4\u0fb1\u0f72\u0f0b\u0f58\u0f50\u0f74\u0f53\u0f0b\u0f62\u0f92\u0fb1\u0f63\u0f0b\u0f41\u0f56\u0f0d","name:sw":"Jamhuri ya Kongo","name:be":"\u0420\u044d\u0441\u043f\u0443\u0431\u043b\u0456\u043a\u0430 \u041a\u043e\u043d\u0433\u0430","name:su":"R\u00e9publik Kongo","name:bg":"\u0420\u0435\u043f\u0443\u0431\u043b\u0438\u043a\u0430 \u041a\u043e\u043d\u0433\u043e","name:ss":"Tibuse weKhongo","name:ba":"\u0420\u0435\u0441\u043f\u0443\u0431\u043b\u0438\u043a\u0430 \u041a\u043e\u043d\u0433\u043e","name:sq":"Republika e Kongos","alt_name:sv":"Konto-Brazzaville","name:jv":"Republik Kongo","name:pt":"Rep\u00fablica do Congo","name:ps":"\u062f \u06a9\u0627\u0646\u06ab\u0648 \u062c\u0645\u0647\u0648\u0631\u064a\u062a","name:oc":"Republica de C\u00f2ngo","min_zoom":8.0,"name:ro":"Republica Congo","name:zh-min-nan":"Congo Ki\u014dng-h\u00f4-kok","name:os":"\u041a\u043e\u043d\u0433\u043e\u0439\u044b \u0420\u0435\u0441\u043f\u0443\u0431\u043b\u0438\u043a\u00e6","name:pl":"Kongo","sort_rank":262,"name:sr":"\u0420\u0435\u043f\u0443\u0431\u043b\u0438\u043a\u0430 \u041a\u043e\u043d\u0433\u043e","osm_relation":true,"name:pa":"\u0a15\u0a3e\u0a02\u0a17\u0a4b \u0a17\u0a23\u0a30\u0a3e\u0a1c","name:tr":"Kongo Cumhuriyeti","name:hi":"\u0915\u093e\u0902\u0917\u094b \u0917\u0923\u0930\u093e\u091c\u094d\u092f","name:sv":"Republiken Kongo","name:he":"\u05d4\u05e8\u05e4\u05d5\u05d1\u05dc\u05d9\u05e7\u05d4 \u05e9\u05dc \u05e7\u05d5\u05e0\u05d2\u05d5","name:hy":"\u053f\u0578\u0576\u0563\u0578\u0575\u056b \u0540\u0561\u0576\u0580\u0561\u057a\u0565\u057f\u0578\u0582\u0569\u0575\u0578\u0582\u0576","name:ht":"Kongo (Brazavil)","name:hu":"Kong\u00f3i K\u00f6zt\u00e1rsas\u00e1g","name:qu":"Kungu Republika","kind":"country","name:yi":"\u05e8\u05e2\u05e4\u05d5\u05d1\u05dc\u05d9\u05e7 \u05e4\u05d5\u05df \u05e7\u05d0\u05e0\u05d2\u05d0","name:yo":"Or\u00edl\u1eb9\u0300-\u00e8d\u00e8 Ol\u00f3m\u00ecnira il\u1eb9\u0300 K\u00f3ng\u00f2","alt_name:eo":"Kongo Brazavila","alt_name:en":"Congo (Brazzaville)","name:ms":"Republik Congo","name:mr":"\u0915\u093e\u0901\u0917\u094b\u091a\u0947 \u092a\u094d\u0930\u091c\u093e\u0938\u0924\u094d\u0924\u093e\u0915","name:my":"\u1000\u103d\u1014\u103a\u1002\u102d\u102f\u101e\u1019\u1039\u1019\u1010\u1014\u102d\u102f\u1004\u103a\u1004\u1036","official_name":"R\u00e9publique du Congo","name:vi":"C\u1ed9ng h\u00f2a Congo","name:ml":"\u0d31\u0d3f\u0d2a\u0d4d\u0d2a\u0d2c\u0d4d\u0d32\u0d3f\u0d15\u0d4d\u0d15\u0d4d \u0d13\u0d2b\u0d4d \u0d15\u0d4b\u0d02\u0d17\u0d4b","name:mn":"\u0411\u04af\u0433\u0434 \u041d\u0430\u0439\u0440\u0430\u043c\u0434\u0430\u0445 \u041a\u043e\u043d\u0433\u043e \u0423\u043b\u0441","id":-192794,"name:mk":"\u0420\u0435\u043f\u0443\u0431\u043b\u0438\u043a\u0430 \u041a\u043e\u043d\u0433\u043e","name:vo":"Kongo\u00e4n (Rep\u00fcblik\u00e4n)","name:fa":"\u062c\u0645\u0647\u0648\u0631\u06cc \u06a9\u0646\u06af\u0648","name:fi":"Kongon tasavalta","name:fr":"Congo-Brazzaville","name:fy":"Republyk Kongo","name:nl":"Congo-Brazzaville","name:nn":"Kongo-Brazzaville","name:no":"Republikken Kongo","name:na":"Ripubrikin Kongo","name:wo":"Kong\u00f3o-Brasaawiil","name:nv":"K\u00e9yah K\u00e1ango N\u00e1hook\u01ebsj\u00ed Si\u02bc\u00e1n\u00edg\u00ed\u00ed","name:ga":"Poblacht an Chong\u00f3","name:gd":"A' Chongo","maritime_boundary":true,"name:gv":"Pobblaght ny Congo"},"arcs":[0]},{"type":"LineString","properties":{"kind":"region","name":"Kouilou","sort_rank":256,"kind_detail":"4","min_zoom":8.0,"source":"openstreetmap.org","maritime_boundary":true,"id":-3220590,"osm_relation":true},"arcs":[1]}]},"roads":{"type":"GeometryCollection","geometries":[]},"earth":{"type":"GeometryCollection","geometries":[]},"landuse":{"type":"GeometryCollection","geometries":[]}},"type":"Topology","transform":{"translate":[9.84375,-5.6159858192],"scale":[0.0003433228,0.0003420514]},"arcs":[[[3834,4096],[58,-42],[113,-243],[91,-112]],[[3834,4096],[58,-42],[113,-243],[91,-112]],[[4096,4096],[0,-4096],[-4096,0],[0,4096],[4096,0]]]}