{"objects":{"water":{"type":"GeometryCollection","geometries":[{"type":"Polygon","properties":{"source":"naturalearthdata.com","kind":"ocean","area":1576712559132672,"sort_rank":200,"min_zoom":0.0,"id":1},"arcs":[[368]]},{"type":"LineString","properties":{"source":"naturalearthdata.com","kind":"ocean","sort_rank":205,"boundary":true,"min_zoom":0.0,"id":19},"arcs":[369]},{"type":"MultiLineString","properties":{"source":"naturalearthdata.com","kind":"ocean","sort_rank":205,"boundary":true,"min_zoom":0.0,"id":1235},"arcs":[[370],[371]]}]},"buildings":{"type":"GeometryCollection","geometries":[]},"places":{"type":"GeometryCollection","geometries":[{"type":"Point","properties":{"source":"naturalearthdata.com","kind":"locality","name":"Frederikshavn","population":24103,"min_zoom":7.0,"id":4139},"coordinates":[2008,584]},{"type":"Point","properties":{"kind":"locality","name:nl":"Hj\u00f8rring (stad)","name":"Hj\u00f8rring","name:ka":"\u10d8\u10d4\u10e0\u10d8\u10dc\u10d2\u10d8","kind_detail":"town","name:de":"Hj\u00f6rring","source":"openstreetmap.org","min_zoom":8.0,"name:sr":"\u0408\u0435\u0440\u0438\u043d\u0433","name:sv":"Hj\u00f6rring","name:ru":"\u0419\u0451\u0440\u0440\u0438\u043d\u0433","id":2222367820,"name:mk":"\u0425\u0458\u043e\u0440\u0438\u043d\u0433","population":24900},"coordinates":[413,712]},{"type":"Point","properties":{"name:nl":"Frederikshavn (stad)","name:ja":"\u30d5\u30ec\u30bc\u30ea\u30af\u30b9\u30cf\u30a6\u30f3","name:ka":"\u10e4\u10e0\u10d4\u10d3\u10d4\u10e0\u10d8\u10e5\u10e1\u10f0\u10d0\u10d5\u10dc\u10d8","name:ko":"\ud504\ub808\ub370\ub9ad\uc2a4\ud558\uc6b4","min_zoom":8.0,"name:ru":"\u0424\u0440\u0435\u0434\u0435\u0440\u0438\u043a\u0441\u0445\u0430\u0432\u043d","name:sv":"Fredrikshamn, Danmark","name:lt":"Frederikshaunas","id":2211312681,"name:mk":"\u0424\u0440\u0435\u0434\u0435\u0440\u0438\u043a\u0441\u0445\u0430\u0432\u043d","population":23309,"kind":"locality","name":"Frederikshavn","kind_detail":"town","name:sr":"\u0424\u0440\u0435\u0434\u0435\u0440\u0438\u043a\u0441\u0445\u0430\u0432\u043d","source":"openstreetmap.org","name:zh":"\u8153\u7279\u70c8\u6e2f"},"coordinates":[2009,625]},{"type":"Point","properties":{"source":"openstreetmap.org","kind":"locality","name":"S\u00e6by","kind_detail":"town","population":8850,"min_zoom":8.0,"id":2212804475},"coordinates":[1962,28]},{"type":"Point","properties":{"name:fa":"\u0627\u0633\u06a9\u0627\u06af\u0646","kind":"locality","name":"Skagen","name:lt":"Skagenas","kind_detail":"town","source":"openstreetmap.org","min_zoom":8.0,"name:uk":"\u0421\u043a\u0430\u0433\u0435\u043d","name:ru":"\u0421\u043a\u0430\u0433\u0435\u043d","name:os":"\u0421\u043a\u0430\u0433\u0435\u043d","name:be":"\u0421\u043a\u0430\u0433\u0435\u043d","name:bg":"\u0421\u043a\u0430\u0433\u0435\u043d","name:zh":"\u65af\u5361\u6069","id":2208554046,"population":8200},"coordinates":[2157,2178]},{"type":"Point","properties":{"kind":"locality","name":"Hirtshals","kind_detail":"town","source":"openstreetmap.org","min_zoom":8.0,"name:ru":"\u0425\u0438\u0440\u0442\u0441\u0445\u0430\u043b\u044c\u0441","name:zh":"\u5e0c\u8328\u6d77\u5c14\u65af","id":2221954471,"population":6150},"coordinates":[353,1441]}]},"transit":{"type":"GeometryCollection","geometries":[{"type":"LineString","properties":{"kind":"train","name":"Aarhus - Aalborg - Frederikshavn","sort_rank":275,"source":"openstreetmap.org","min_zoom":6.0,"operator":"DSB","ref":"70","osm_relation":true},"arcs":[5]},{"type":"MultiLineString","properties":{"source":"openstreetmap.org","kind":"train","name":"Frederikshavn - Skagen","sort_rank":275,"ref":"79","min_zoom":6.0,"osm_relation":true},"arcs":[[6],[7],[8],[9],[10],[11],[12],[13],[14],[15],[16],[17],[18]]},{"type":"MultiLineString","properties":{"source":"openstreetmap.org","kind":"train","name":"Skagen - Frederikshavn","sort_rank":275,"ref":"79","min_zoom":6.0,"osm_relation":true},"arcs":[[19],[20],[21],[22],[23],[24],[25],[26],[27],[28],[29],[30],[31],[32],[33],[34],[35],[36],[37],[38],[39],[40],[41],[42],[43],[44],[45],[46],[47],[48],[49],[50],[51],[52],[53],[54],[55],[56],[57],[58],[59],[60],[61],[62],[63],[64],[65],[66],[67],[68],[69],[70],[71],[72],[73],[74],[75],[76],[77],[78],[79],[80],[81],[82],[83],[84],[85],[86],[87],[88],[89],[90],[91],[92],[93],[94],[95],[96],[97],[98],[99],[100],[101],[102],[103],[104],[105],[106],[107],[108],[109],[110],[111],[112],[113],[114],[115],[116],[117],[118],[119],[120],[121],[122],[123],[124],[125],[126],[127],[128],[129],[130],[131],[132],[133],[134],[135],[136],[137],[138],[139],[140],[141],[142],[143],[144],[145],[146],[147],[148],[149],[150],[151],[152],[153],[154],[155],[156],[157],[158],[159],[160],[161],[162],[163],[164],[165],[166],[167],[168],[169],[170],[171],[172],[173],[174],[175],[176],[177],[178],[179],[180],[181],[182],[183],[184],[185],[186],[187],[188],[189],[190],[191],[192],[193],[194],[195],[196],[197],[198],[199],[200],[201],[202],[203],[204],[205],[206],[207],[208],[209],[210],[211],[212],[213],[214],[215],[216],[217],[218],[219],[220],[221],[222],[223],[224],[225],[226],[227],[228],[229],[230],[231],[232],[233],[234],[235],[236],[237],[238],[239],[240],[241],[242],[243],[244],[245],[246],[247],[248],[249],[250],[251],[252],[253],[254],[255],[256],[257],[258],[259],[260],[261],[262],[263],[264],[265],[266],[267],[268],[269],[270],[271],[272],[273],[274],[275],[276],[277],[278],[279],[280],[281],[282],[283],[284],[285],[286],[287],[288],[289],[290],[291],[292],[293],[294],[295],[296],[297],[298],[299],[300],[301],[302],[303],[304],[305],[306],[307],[308],[309],[310],[311],[312],[313],[314],[315],[316],[317],[318],[319],[320],[321],[322],[323],[324],[325],[326],[327],[328],[329],[330],[331],[332],[333],[334],[335],[336],[337],[338],[339],[340],[341],[342],[343],[344],[345],[346],[347],[348],[349],[350],[351],[352],[353],[354],[355],[356],[357],[358],[359],[360],[361],[362],[363],[364],[365],[366],[367]]}]},"pois":{"type":"GeometryCollection","geometries":[]},"boundaries":{"type":"GeometryCollection","geometries":[{"type":"LineString","properties":{"name:kg":"Suedi","name:ka":"\u10e8\u10d5\u10d4\u10d3\u10d4\u10d7\u10d8","name:ko":"\uc2a4\uc6e8\ub374","name:cv":"\u0428\u0432\u0435\u0446\u0438","name:cu":"\u0421\u0432\u0454\u043d\u044c\u0441\u043a\u043e","name:kl":"Svenskit Nunaat","name:cs":"\u0160v\u00e9dsko","name:tw":"Sweden","name:ki":"Sweden","name:co":"Svezia","name:kv":"\u0428\u0432\u0435\u0446\u0438\u044f","name:th":"\u0e1b\u0e23\u0e30\u0e40\u0e17\u0e28\u0e2a\u0e27\u0e35\u0e40\u0e14\u0e19","name:tl":"Suwesya","name:ce":"\u0428\u0432\u0435\u0446\u0438","name:ta":"\u0b9a\u0bc1\u0bb5\u0bc0\u0b9f\u0ba9\u0bcd","name:tg":"\u0428\u0432\u0435\u0442\u0441\u0438\u044f","name:ca":"Su\u00e8cia","name:te":"\u0c38\u0c4d\u0c35\u0c40\u0c21\u0c28\u0c4d","name:cy":"Sweden","name:qu":"Suwidsuyu","name:de":"Schweden","name:dz":"\u0f66\u0f74\u0f60\u0f72\u0f0b\u0f4c\u0f53\u0f0b","source":"openstreetmap.org","name:kn":"\u0cb8\u0ccd\u0cb5\u0cc0\u0ca1\u0ca8\u0ccd","name:dv":"\u0790\u07aa\u0788\u07a8\u0791\u07a6\u0782\u07b0","name:km":"\u179f\u17ca\u17bb\u1799\u17a2\u17c2\u178f","name:lv":"Zviedrija","name:lt":"\u0160vedija","name:uz":"Shvetsiya","name:kk":"\u0428\u0432\u0435\u0446\u0438\u044f","name:ur":"\u0633\u0648\u06cc\u0688\u0646","name:lb":"Schweden","name:la":"Suecia","name:lg":"Swiiden","name:uk":"\u0428\u0432\u0435\u0446\u0456\u044f","name:ug":"\u0634\u06cb\u06d0\u062a\u0633\u0649\u064a\u06d5","name:li":"Zwede","name:ln":"Sw\u00e9di","name:el":"\u03a3\u03bf\u03c5\u03b7\u03b4\u03af\u03b1","name:eo":"Svedujo","name:en":"Sweden","name":"Sverige","name:tk":"\u015ewesi\u00fda","name:ee":"Sweden","name:ku":"Sw\u00ead","name:eu":"Suedia","name:et":"Rootsi","name:es":"Suecia","name:ia":"Svedia","name:rm":"Svezia","name:az":"\u0130sve\u00e7","name:ie":"Svedia","name:id":"Swedia","name:ar":"\u0627\u0644\u0633\u0648\u064a\u062f","name:io":"Suedia","name:ak":"Sweden","name:am":"\u1235\u12ca\u12f5\u1295","name:it":"Svezia","name:an":"Suecia","name:ru":"\u0428\u0432\u0435\u0446\u0438\u044f","name:ab":"\u0428\u0432\u0435\u0446\u0438\u0430","name:af":"Swede","name:zu":"ISwidi","kind_detail":"2","name:ky":"\u0428\u0432\u0435\u0446\u0438\u044f","name:zh-yue":"\u745e\u5178","name:zh":"\u745e\u5178","name:so":"Iswiidhan","name:sm":"Sweden","name:sl":"\u0160vedska","name:sk":"\u0160v\u00e9dsko","name:ja":"\u30b9\u30a6\u30a7\u30fc\u30c7\u30f3","name:sh":"\u0160vedska","name:se":"Ruo\u0167\u0167a","name:sc":"Isvetzia","name:br":"Sveden","name:bs":"\u0160vedska","name:bm":"Swedi","name:bn":"\u09b8\u09c1\u0987\u09a1\u09c7\u09a8","name:bo":"\u0f66\u0f72\u0f0b\u0f5d\u0f7a\u0f0b\u0f51\u0f7a\u0f53\u0f0d","name:bi":"Sweden","name:sw":"Uswidi","name:be":"\u0428\u0432\u0435\u0446\u044b\u044f","name:su":"Sw\u00e9dia","name:bg":"\u0428\u0432\u0435\u0446\u0438\u044f","name:ss":"ISwideni","name:ba":"\u0428\u0432\u0435\u0446\u0438\u044f","name:sq":"Suedia","name:jv":"Sw\u00e9dia","name:sa":"\u0938\u094d\u0935\u0940\u0921\u0928","name:pt":"Su\u00e9cia","name:ps":"\u0633\u0648\u064a\u0689\u0646","name:oc":"Su\u00e8cia","min_zoom":8.0,"name:ro":"Suedia","name:zh-min-nan":"S\u016bi-ti\u00e1n","name:os":"\u0428\u0432\u0435\u0446\u0438","name:or":"\u0b38\u0b4d\u0b35\u0b3f\u0b21\u0b47\u0b28","name:pl":"Szwecja","sort_rank":262,"name:sr":"\u0428\u0432\u0435\u0434\u0441\u043a\u0430","osm_relation":true,"name:pa":"\u0a38\u0a35\u0a40\u0a21\u0a28","name:tr":"\u0130sve\u00e7","name:hi":"\u0938\u094d\u0935\u0940\u0921\u0928","name:he":"\u05e9\u05d1\u05d3\u05d9\u05d4","name:hy":"\u0547\u057e\u0565\u0564\u056b\u0561","name:ht":"Sy\u00e8d","name:hu":"Sv\u00e9dorsz\u00e1g","name:hr":"\u0160vedska","kind":"country","name:is":"Sv\u00ed\u00fej\u00f3\u00f0","name:yi":"\u05e9\u05d5\u05d5\u05e2\u05d3\u05df","name:iu":"\u1505\u1557\u1546\u146d","name:yo":"Sw\u00edd\u00ecn","name:mt":"\u017bvezja","alt_name:eo":"Svedio","name:ms":"Sweden","name:mr":"\u0938\u094d\u0935\u0940\u0921\u0928","name:my":"\u1006\u103d\u102e\u1012\u1004\u103a\u1014\u102d\u102f\u1004\u103a\u1004\u1036","official_name":"Konungariket Sverige","name:kw":"Swedherwyk","name:mg":"Soeda","name:vi":"Th\u1ee5y \u0110i\u1ec3n","name:ml":"\u0d38\u0d4d\u0d35\u0d40\u0d21\u0d7b","name:mn":"\u0428\u0432\u0435\u0434","name:mi":"Hu\u012btene","id":-52822,"name:mk":"\u0428\u0432\u0435\u0434\u0441\u043a\u0430","name:vo":"Sved\u00e4n","name:fa":"\u0633\u0648\u0626\u062f","name:rw":"Suwede","name:fi":"Ruotsi","name:fo":"Sv\u00f8r\u00edki","name:fr":"Su\u00e8de","name:fy":"Sweden","int_name":"Sweden","name:nl":"Zweden","name:na":"Widen","name:ne":"\u0938\u094d\u0935\u0940\u0921\u0947\u0928","name:wa":"Suwedwesse","name:wo":"Suweed","name:ga":"An tSualainn","name:gd":"An t-Suain","name:gn":"Suesia","name:gl":"Suecia","maritime_boundary":true,"name:gv":"Yn Toolynn","name:gu":"\u0ab8\u0acd\u0ab5\u0abf\u0aa1\u0aa8","name:tt":"\u0428\u0432\u0435\u0446\u0438\u044f"},"arcs":[0]},{"type":"LineString","properties":{"name:kg":"Danemark","name:ka":"\u10d3\u10d0\u10dc\u10d8\u10d0","name:ko":"\ub374\ub9c8\ud06c","name:cv":"\u0414\u0430\u043d\u0438","name:cu":"\u0414\u0430\u043d\u0457\ua657","name:kl":"Danmarki","name:cs":"D\u00e1nsko","name:ki":"Denmark","name:co":"Danimarca","name:kv":"\u0414\u0430\u043d\u0438\u044f","name:ku":"Dan\u00eemarka","name:tl":"Dinamarka","name:ce":"\u0414\u0430\u043d\u0438","name:ta":"\u0b9f\u0bc6\u0ba9\u0bcd\u0bae\u0bbe\u0bb0\u0bcd\u0b95\u0bcd","name:tg":"\u0414\u0430\u043d\u0438\u044f","name:ca":"Dinamarca","name:te":"\u0c21\u0c46\u0c28\u0c4d\u0c2e\u0c3e\u0c30\u0c4d\u0c15\u0c4d","name:cy":"Denmarc","name:qu":"Dansuyu","name:de":"D\u00e4nemark","name:dz":"\u0f4c\u0f7a\u0f53\u0f0b\u0f58\u0f71\u0f40\u0f0b","source":"openstreetmap.org","name:kn":"\u0ca1\u0cc6\u0ca8\u0ccd\u0cae\u0cbe\u0cb0\u0ccd\u0c95\u0ccd\u200c","name:dv":"\u0791\u07ac\u0782\u07b0\u0789\u07a7\u0786\u07aa","name:lv":"D\u0101nija","name:lt":"Danija","name:uz":"Daniya","name:kk":"\u0414\u0430\u043d\u0438\u044f","name:ur":"\u0688\u0646\u0645\u0627\u0631\u06a9","name:lb":"D\u00e4nemark","name:la":"Dania","name:lg":"Denimaaka","name:uk":"\u0414\u0430\u043d\u0456\u044f","name:ug":"\u062f\u0627\u0646\u0649\u064a\u06d5","name:li":"Denemarke","name:ln":"Danemark","name:el":"\u0394\u03b1\u03bd\u03af\u03b1","name:eo":"Danujo","name:en":"Denmark","name":"Danmark","name:tk":"Dani\u00fda","name:ee":"Denmark","name:th":"\u0e1b\u0e23\u0e30\u0e40\u0e17\u0e28\u0e40\u0e14\u0e19\u0e21\u0e32\u0e23\u0e4c\u0e01","name:eu":"Danimarka","name:et":"Taani","name:es":"Dinamarca","name:rm":"Danemarc","name:rn":"Danemarke","name:az":"Danimarka","name:ie":"Dania","name:id":"Denmark","name:ar":"\u0627\u0644\u062f\u0646\u0645\u0627\u0631\u0643","name:io":"Dania","name:is":"Danm\u00f6rk","name:am":"\u12f4\u1295\u121b\u122d\u12ad","name:it":"Danimarca","name:an":"Dinamarca","name:ru":"\u0414\u0430\u043d\u0438\u044f","name:rw":"Danimarike","name:af":"Denemarke","name:zu":"IDenimaki","kind_detail":"2","name:ky":"\u0414\u0430\u043d\u0438\u044f","name:zh-yue":"\u4e39\u9ea5","name:zh":"\u4e39\u9ea6","name:so":"Denmark","name:sl":"Danska","name:sk":"D\u00e1nsko","name:ja":"\u30c7\u30f3\u30de\u30fc\u30af","name:si":"\u0da9\u0dd9\u0db1\u0dca\u0db8\u0dcf\u0dbb\u0dca\u0d9a\u0dba","name:sh":"Danska","name:se":"D\u00e1nm\u00e1rku","name:sc":"Danimarca","name:sa":"\u0921\u0947\u0928\u092e\u093e\u0930\u094d\u0915","name:bs":"Danska","name:bn":"\u09a1\u09c7\u09a8\u09ae\u09be\u09b0\u09cd\u0995","name:bo":"\u0f51\u0f53\u0f0b\u0f58\u0fb2\u0f42","name:bi":"Denmark","name:sw":"Denmark","name:be":"\u0414\u0430\u043d\u0456\u044f","name:su":"D\u00e9nmark","name:bg":"\u0414\u0430\u043d\u0438\u044f","name:ss":"IDenimakhi","name:ba":"\u0414\u0430\u043d\u0438\u044f","name:sq":"Danimarka","name:jv":"Denmark","name:pt":"Dinamarca","name:ps":"\u0689\u06d0\u0646\u0645\u0627\u0631\u06a9","name:oc":"Danemarc","min_zoom":8.0,"name:ro":"Danemarca","name:zh-min-nan":"Tan-kok","name:os":"\u0414\u0430\u043d\u0438","name:or":"\u0b21\u0b47\u0b28\u0b2e\u0b3e\u0b30\u0b4d\u0b15","name:pl":"Dania","name:st":"Denmark","sort_rank":262,"name:sr":"\u0414\u0430\u043d\u0441\u043a\u0430","osm_relation":true,"name:tr":"Danimarka","name:hi":"\u0921\u0947\u0928\u092e\u093e\u0930\u094d\u0915","name:he":"\u05d3\u05e0\u05de\u05e8\u05e7","name:hy":"\u0534\u0561\u0576\u056b\u0561","name:ht":"Danmak","name:hu":"D\u00e1nia","name:hr":"Danska","kind":"country","name:yi":"\u05d3\u05e2\u05e0\u05de\u05d0\u05e8\u05e7","name:yo":"D\u1eb9\u0301nm\u00e1rk\u00ec","name:mt":"Danimarka","alt_name:eo":"Danio;Danlando","name:ms":"Denmark","name:mr":"\u0921\u0947\u0928\u094d\u092e\u093e\u0930\u094d\u0915","name:my":"\u1012\u102d\u1014\u103a\u1038\u1019\u1010\u103a\u1014\u102d\u102f\u1004\u103a\u1004\u1036","official_name":"Kongeriget Danmark","name:mg":"Danmarka","name:vi":"\u0110an M\u1ea1ch","name:ml":"\u0d21\u0d46\u0d28\u0d4d\u0d2e\u0d3e\u0d7c\u0d15\u0d4d\u0d15\u0d4d","name:mn":"\u0414\u0430\u043d\u0438","name:mi":"Tenem\u0101ka","id":-50046,"name:mk":"\u0414\u0430\u043d\u0441\u043a\u0430","name:vo":"Dan\u00e4n","name:fa":"\u062f\u0627\u0646\u0645\u0627\u0631\u06a9","name:fi":"Tanska","name:fr":"Danemark","name:fy":"Denemark","name:nl":"Denemarken","name:na":"Denemark","name:ne":"\u0921\u0947\u0928\u092e\u093e\u0930\u094d\u0915","name:wo":"Danmaark","name:nv":"D\u00e9inish Dine\u02bc\u00e9 Bik\u00e9yah","name:ga":"An Danmhairg","name:gd":"An Danmhairg","name:gn":"Ndinamayka","name:gl":"Dinamarca","maritime_boundary":true,"name:gv":"Yn Danvarg","name:tt":"\u0414\u0430\u043d\u0438\u044f"},"arcs":[1]},{"type":"LineString","properties":{"name:pt":"Jutl\u00e2ndia do Norte","name:ro":"Regiunea Nordjylland","name:ms":"Wilayah Nordjylland","name:ko":"\ubd81\uc70c\ub780 \uc9c0\uc5ed","name:ar":"\u0645\u0642\u0627\u0637\u0639\u0629 \u0646\u0648\u0631\u062f\u0644\u0627\u0646\u062f","name:kk":"\u0421\u043e\u043b\u0442\u04af\u0441\u0442\u0456\u043a \u042e\u0442\u043b\u0430\u043d\u0434\u0438\u044f","min_zoom":8.0,"name:it":"Jutland settentrionale","name:ru":"\u0421\u0435\u0432\u0435\u0440\u043d\u0430\u044f \u042e\u0442\u043b\u0430\u043d\u0434\u0438\u044f","name:os":"\u0426\u00e6\u0433\u0430\u0442 \u042e\u0442\u043b\u0430\u043d\u0434\u0438","name:vi":"B\u1eafc Jutland","name:ce":"\u041a\u044a\u0438\u043b\u0431\u0430\u0441\u0435\u0434\u0435\u0440\u0430 \u042e\u0442\u043b\u0430\u043d\u0434\u0438","name:pl":"Jutlandia P\u00f3\u0142nocna","name:mk":"\u0421\u0435\u0432\u0435\u0440\u043d\u0430 \u0414\u0430\u043d\u0441\u043a\u0430","name:fa":"\u0627\u0633\u062a\u0627\u0646 \u0646\u0648\u0631\u062f\u06cc\u0648\u0644\u0646\u062f","name:bg":"\u0421\u0435\u0432\u0435\u0440\u043d\u0430 \u042e\u0442\u043b\u0430\u043d\u0434\u0438\u044f","name:ka":"\u10e9\u10e0\u10d3\u10d8\u10da\u10dd\u10d4\u10d7 \u10d8\u10e3\u10e2\u10da\u10d0\u10dc\u10d3\u10d8\u10d8\u10e1 \u10e0\u10d4\u10d2\u10d8\u10dd\u10dc\u10d8","source":"openstreetmap.org","sort_rank":256,"kind_detail":"4","id":-1319936,"name:de":"Region Nordj\u00fctland","name:oc":"Jutl\u00e0ndia Septentrionala","name:fr":"Jutland du Nord","name:ca":"Jutl\u00e0ndia Septentrional","name:zh":"\u5317\u65e5\u5fb7\u5170\u5927\u533a","name:lv":"Zieme\u013cjitlandes re\u0123ions","name:ja":"\u5317\u30e6\u30e9\u30f3\u5730\u57df","name:lt":"\u0160iaur\u0117s Jutlandijos regionas","name:se":"Davvi-Jyll\u00e1ndda regiuvdna","name:eo":"Regiono Norda Jutlando","name:la":"Iutia Septentrionalis","name:sk":"Severn\u00e9 Jutsko","name:uk":"\u041f\u0456\u0432\u043d\u0456\u0447\u043d\u0430 \u042e\u0442\u043b\u0430\u043d\u0434\u0456\u044f","name:hy":"\u0540\u0575\u0578\u0582\u057d\u056b\u057d\u0561\u0575\u056b\u0576 \u0534\u0561\u0576\u056b\u0561 \u057f\u0561\u0580\u0561\u056e\u0561\u0577\u0580\u057b\u0561\u0576","name:hu":"Nordjylland r\u00e9gi\u00f3","name:hr":"Sjeverni Jutland","name:sr":"\u0421\u0435\u0432\u0435\u0440\u043d\u0430 \u0414\u0430\u043d\u0441\u043a\u0430","osm_relation":true,"kind":"region","name:en":"North Denmark Region","name":"Region Nordjylland","maritime_boundary":true,"name:fi":"Pohjois-Jyllannin alue","name:eu":"Ipar Jutlandia","name:et":"P\u00f5hja-J\u00fc\u00fctimaa piirkond","name:nl":"Noord-Jutland","name:es":"Jutlandia Septentrional"},"arcs":[2]},{"type":"LineString","properties":{"name:pt":"Jutl\u00e2ndia do Norte","name:ro":"Regiunea Nordjylland","name:ms":"Wilayah Nordjylland","name:ko":"\ubd81\uc70c\ub780 \uc9c0\uc5ed","name:ar":"\u0645\u0642\u0627\u0637\u0639\u0629 \u0646\u0648\u0631\u062f\u0644\u0627\u0646\u062f","name:kk":"\u0421\u043e\u043b\u0442\u04af\u0441\u0442\u0456\u043a \u042e\u0442\u043b\u0430\u043d\u0434\u0438\u044f","min_zoom":8.0,"name:it":"Jutland settentrionale","name:ru":"\u0421\u0435\u0432\u0435\u0440\u043d\u0430\u044f \u042e\u0442\u043b\u0430\u043d\u0434\u0438\u044f","name:os":"\u0426\u00e6\u0433\u0430\u0442 \u042e\u0442\u043b\u0430\u043d\u0434\u0438","name:vi":"B\u1eafc Jutland","name:ce":"\u041a\u044a\u0438\u043b\u0431\u0430\u0441\u0435\u0434\u0435\u0440\u0430 \u042e\u0442\u043b\u0430\u043d\u0434\u0438","name:pl":"Jutlandia P\u00f3\u0142nocna","name:mk":"\u0421\u0435\u0432\u0435\u0440\u043d\u0430 \u0414\u0430\u043d\u0441\u043a\u0430","name:fa":"\u0627\u0633\u062a\u0627\u0646 \u0646\u0648\u0631\u062f\u06cc\u0648\u0644\u0646\u062f","name:bg":"\u0421\u0435\u0432\u0435\u0440\u043d\u0430 \u042e\u0442\u043b\u0430\u043d\u0434\u0438\u044f","name:ka":"\u10e9\u10e0\u10d3\u10d8\u10da\u10dd\u10d4\u10d7 \u10d8\u10e3\u10e2\u10da\u10d0\u10dc\u10d3\u10d8\u10d8\u10e1 \u10e0\u10d4\u10d2\u10d8\u10dd\u10dc\u10d8","source":"openstreetmap.org","sort_rank":256,"kind_detail":"4","id":-1319936,"name:de":"Region Nordj\u00fctland","name:oc":"Jutl\u00e0ndia Septentrionala","name:fr":"Jutland du Nord","name:ca":"Jutl\u00e0ndia Septentrional","name:zh":"\u5317\u65e5\u5fb7\u5170\u5927\u533a","name:lv":"Zieme\u013cjitlandes re\u0123ions","name:ja":"\u5317\u30e6\u30e9\u30f3\u5730\u57df","name:lt":"\u0160iaur\u0117s Jutlandijos regionas","name:se":"Davvi-Jyll\u00e1ndda regiuvdna","name:eo":"Regiono Norda Jutlando","name:la":"Iutia Septentrionalis","name:sk":"Severn\u00e9 Jutsko","name:uk":"\u041f\u0456\u0432\u043d\u0456\u0447\u043d\u0430 \u042e\u0442\u043b\u0430\u043d\u0434\u0456\u044f","name:hy":"\u0540\u0575\u0578\u0582\u057d\u056b\u057d\u0561\u0575\u056b\u0576 \u0534\u0561\u0576\u056b\u0561 \u057f\u0561\u0580\u0561\u056e\u0561\u0577\u0580\u057b\u0561\u0576","name:hu":"Nordjylland r\u00e9gi\u00f3","name:hr":"Sjeverni Jutland","name:sr":"\u0421\u0435\u0432\u0435\u0440\u043d\u0430 \u0414\u0430\u043d\u0441\u043a\u0430","osm_relation":true,"kind":"region","name:en":"North Denmark Region","name":"Region Nordjylland","maritime_boundary":true,"name:fi":"Pohjois-Jyllannin alue","name:eu":"Ipar Jutlandia","name:et":"P\u00f5hja-J\u00fc\u00fctimaa piirkond","name:nl":"Noord-Jutland","name:es":"Jutlandia Septentrional"},"arcs":[3]},{"type":"LineString","properties":{"kind":"region","name":"V\u00e4stra G\u00f6talands l\u00e4n","sort_rank":256,"kind_detail":"4","min_zoom":8.0,"source":"openstreetmap.org","maritime_boundary":true,"name:fi":"L\u00e4nsi-G\u00f6tanmaan l\u00e4\u00e4ni","name:ru":"\u0412\u0435\u0441\u0442\u0440\u0430-\u0413\u0451\u0442\u0430\u043b\u0430\u043d\u0434","id":-54367,"osm_relation":true},"arcs":[4]}]},"roads":{"type":"GeometryCollection","geometries":[{"type":"LineString","properties":{"source":"openstreetmap.org","kind":"ferry","name":"Kiel - Oslo","sort_rank":355,"ref":"Kiel - Oslo","min_zoom":8.0,"osm_relation":true},"arcs":[372]},{"type":"LineString","properties":{"kind":"major_road","sort_rank":377,"kind_detail":"tertiary","is_bicycle_related":true,"bus_network":null,"bicycle_shield_text":"EV12","cycleway":"lane","source":"openstreetmap.org","min_zoom":8.0,"bus_shield_text":"3","landuse_kind":"urban_area","id":22753219,"bicycle_network":"icn"},"arcs":[373]},{"type":"LineString","properties":{"kind":"minor_road","sort_rank":360,"kind_detail":"unclassified","is_bicycle_related":true,"bicycle_shield_text":null,"bicycle_network":"icn","source":"openstreetmap.org","min_zoom":8.0,"landuse_kind":"urban_area"},"arcs":[374]},{"type":"MultiLineString","properties":{"source":"openstreetmap.org","kind":"major_road","sort_rank":380,"kind_detail":"primary","ref":"55","min_zoom":8.0},"arcs":[[375],[376],[377],[378],[379],[380],[381],[382]]},{"type":"LineString","properties":{"kind":"major_road","sort_rank":377,"kind_detail":"tertiary","is_bicycle_related":true,"bus_network":null,"bicycle_shield_text":"EV12","cycleway":"lane","source":"openstreetmap.org","min_zoom":8.0,"bus_shield_text":"973X","landuse_kind":"residential","id":128572665,"bicycle_network":"icn"},"arcs":[383]},{"type":"LineString","properties":{"kind":"major_road","sort_rank":377,"kind_detail":"tertiary","is_bicycle_related":true,"bicycle_shield_text":"5","cycleway":"lane","source":"openstreetmap.org","min_zoom":8.0,"bicycle_network":"ncn","id":28776977},"arcs":[384]},{"type":"MultiLineString","properties":{"kind":"major_road","network":"e-road","sort_rank":380,"kind_detail":"primary","source":"openstreetmap.org","min_zoom":8.0,"shield_text":"39","ref":"E 39"},"arcs":[[385],[386],[387],[388],[389],[390],[391],[392]]},{"type":"MultiLineString","properties":{"kind":"major_road","sort_rank":377,"landuse_kind":"residential","is_bicycle_related":true,"bicycle_shield_text":"EV12","bicycle_network":"icn","source":"openstreetmap.org","min_zoom":8.0,"kind_detail":"tertiary"},"arcs":[[393],[394]]},{"type":"LineString","properties":{"kind":"ferry","name":"Frederikshavn - Oslo","sort_rank":355,"landuse_kind":"urban_area","source":"openstreetmap.org","min_zoom":8.0,"ref":"Frederikshavn - Oslo","id":-949771,"osm_relation":true},"arcs":[395]},{"type":"LineString","properties":{"source":"openstreetmap.org","kind":"ferry","name":"Hirtshals-Langesund","sort_rank":355,"min_zoom":8.0,"osm_relation":true},"arcs":[396]},{"type":"MultiLineString","properties":{"source":"openstreetmap.org","kind":"ferry","name":"Frederikshavn - Hirsholmene","sort_rank":355,"landuse_kind":"nature_reserve","min_zoom":8.0,"id":81669609},"arcs":[[397],[398]]},{"type":"LineString","properties":{"bus_network":null,"cycleway_right":"lane","bicycle_shield_text":null,"min_zoom":8.0,"bus_shield_text":"973X","id":114732443,"kind":"major_road","network":"e-road","sort_rank":380,"kind_detail":"primary","is_bicycle_related":true,"bicycle_network":"icn","source":"openstreetmap.org","landuse_kind":"urban_area","shield_text":"45","ref":"E 45"},"arcs":[399]},{"type":"LineString","properties":{"kind":"path","sort_rank":354,"kind_detail":"pedestrian","is_bicycle_related":true,"bicycle_shield_text":"EV12","bicycle_network":"icn","source":"openstreetmap.org","min_zoom":8.0},"arcs":[400]},{"type":"LineString","properties":{"kind":"major_road","network":"e-road","sort_rank":377,"kind_detail":"tertiary","is_bicycle_related":true,"bicycle_shield_text":"EV12","bicycle_network":"icn","source":"openstreetmap.org","min_zoom":8.0,"shield_text":"39","id":384016521},"arcs":[401]},{"type":"MultiLineString","properties":{"bus_network":null,"sort_rank":380,"kind_detail":"primary","kind":"major_road","source":"openstreetmap.org","min_zoom":8.0,"bus_shield_text":"4","landuse_kind":"urban_area","ref":"35"},"arcs":[[402],[403]]},{"type":"LineString","properties":{"bus_network":null,"sort_rank":380,"kind_detail":"primary","kind":"major_road","source":"openstreetmap.org","min_zoom":8.0,"bus_shield_text":"4","ref":"35;40"},"arcs":[404]},{"type":"LineString","properties":{"kind":"major_road","sort_rank":379,"kind_detail":"secondary","is_bicycle_related":true,"bicycle_shield_text":null,"bicycle_network":"icn","source":"openstreetmap.org","min_zoom":8.0,"ref":"553"},"arcs":[405]},{"type":"MultiLineString","properties":{"source":"openstreetmap.org","kind":"major_road","sort_rank":380,"kind_detail":"primary","ref":"40","min_zoom":8.0},"arcs":[[406],[407],[408],[409],[410],[411],[412],[413],[414],[415],[416],[417],[418],[419],[420],[421],[422],[423],[424],[425],[426],[427],[428],[429],[430],[431],[432],[433],[434],[435],[436],[437],[438],[439],[440],[441],[442],[443],[444],[445],[446],[447],[448],[449],[450],[451],[452],[453],[454],[455],[456],[457]]},{"type":"LineString","properties":{"kind":"minor_road","sort_rank":358,"landuse_kind":"urban_area","is_bicycle_related":true,"bicycle_shield_text":null,"bicycle_network":"icn","source":"openstreetmap.org","min_zoom":8.0,"kind_detail":"service"},"arcs":[458]},{"type":"LineString","properties":{"sort_rank":355,"source":"openstreetmap.org","min_zoom":8.0,"name":"Hirtshals - Larvik","kind":"ferry"},"arcs":[459]},{"type":"LineString","properties":{"source":"openstreetmap.org","kind":"ferry","name":"Larvik(NO) - Hirtshals(DK)","sort_rank":355,"min_zoom":8.0,"osm_relation":true},"arcs":[460]},{"type":"MultiLineString","properties":{"cycleway_right":"track","sort_rank":380,"kind_detail":"primary","is_bicycle_related":true,"kind":"major_road","source":"openstreetmap.org","min_zoom":8.0,"ref":"35"},"arcs":[[461],[462],[463]]},{"type":"MultiLineString","properties":{"cycleway_right":"lane","sort_rank":380,"kind_detail":"primary","is_bicycle_related":true,"kind":"major_road","source":"openstreetmap.org","min_zoom":8.0,"landuse_kind":"urban_area","ref":"35"},"arcs":[[464],[465],[466],[467]]},{"type":"LineString","properties":{"kind":"minor_road","service":"driveway","sort_rank":356,"kind_detail":"service","is_bicycle_related":true,"bicycle_shield_text":"EV12","bicycle_network":"icn","source":"openstreetmap.org","min_zoom":8.0,"id":131410014},"arcs":[468]},{"type":"LineString","properties":{"kind":"ferry","name":"Frederikshavn - L\u00e6s\u00f8","sort_rank":355,"landuse_kind":"urban_area","is_bicycle_related":true,"source":"openstreetmap.org","min_zoom":8.0,"id":61113290},"arcs":[469]},{"type":"MultiLineString","properties":{"kind":"minor_road","sort_rank":360,"landuse_kind":"residential","is_bicycle_related":true,"bicycle_shield_text":"5","bicycle_network":"ncn","source":"openstreetmap.org","min_zoom":8.0,"kind_detail":"residential"},"arcs":[[470],[471]]},{"type":"MultiLineString","properties":{"bus_network":null,"sort_rank":380,"kind_detail":"primary","is_bicycle_related":true,"cycleway_right":"lane","source":"openstreetmap.org","min_zoom":8.0,"bus_shield_text":"1","landuse_kind":"urban_area","ref":"35","kind":"major_road"},"arcs":[[472],[473],[474]]},{"type":"LineString","properties":{"kind":"major_road","sort_rank":377,"kind_detail":"tertiary","is_bicycle_related":true,"bicycle_shield_text":"1","bicycle_network":"ncn","source":"openstreetmap.org","min_zoom":8.0,"id":28522471},"arcs":[475]},{"type":"LineString","properties":{"kind":"major_road","sort_rank":379,"kind_detail":"secondary","is_bicycle_related":true,"bicycle_shield_text":null,"bicycle_network":"icn","source":"openstreetmap.org","min_zoom":8.0,"ref":"585","id":146239746},"arcs":[476]},{"type":"LineString","properties":{"kind":"major_road","sort_rank":377,"kind_detail":"tertiary","is_bicycle_related":true,"bicycle_shield_text":"5","cycleway":"lane","source":"openstreetmap.org","min_zoom":8.0,"landuse_kind":"residential","bicycle_network":"ncn","id":28776977},"arcs":[477]},{"type":"MultiLineString","properties":{"kind":"major_road","sort_rank":377,"kind_detail":"tertiary","is_bicycle_related":true,"bicycle_shield_text":null,"bicycle_network":"icn","source":"openstreetmap.org","min_zoom":8.0,"landuse_kind":"urban_area"},"arcs":[[478],[479]]},{"type":"MultiLineString","properties":{"bus_network":null,"sort_rank":380,"kind_detail":"primary","is_bicycle_related":true,"kind":"major_road","bicycle_shield_text":null,"bicycle_network":"icn","cycleway_right":"lane","source":"openstreetmap.org","min_zoom":8.0,"bus_shield_text":"973X","landuse_kind":"urban_area","ref":"35;40"},"arcs":[[480],[481]]},{"type":"LineString","properties":{"kind":"major_road","sort_rank":380,"kind_detail":"primary","is_bicycle_related":true,"bicycle_shield_text":"414","cycleway":"lane","source":"openstreetmap.org","min_zoom":8.0,"bicycle_network":"lcn","ref":"55","id":254711623},"arcs":[482]},{"type":"MultiLineString","properties":{"source":"openstreetmap.org","kind":"ferry","name":"Frederikshavn - Hirsholmene","sort_rank":355,"min_zoom":8.0,"id":81669609},"arcs":[[483],[484]]},{"type":"LineString","properties":{"cycleway_right":"lane","sort_rank":380,"kind_detail":"primary","is_bicycle_related":true,"kind":"major_road","source":"openstreetmap.org","min_zoom":8.0,"landuse_kind":"urban_area","ref":"40"},"arcs":[485]},{"type":"MultiLineString","properties":{"kind":"path","sort_rank":354,"kind_detail":"track","is_bicycle_related":true,"bicycle_shield_text":"EV12","bicycle_network":"icn","source":"openstreetmap.org","min_zoom":8.0},"arcs":[[486],[487],[488],[489],[490],[491],[492],[493],[494],[495],[496]]},{"type":"LineString","properties":{"kind":"major_road","sort_rank":377,"kind_detail":"tertiary","is_bicycle_related":true,"bus_network":null,"bicycle_shield_text":"EV12","bicycle_network":"icn","source":"openstreetmap.org","min_zoom":8.0,"bus_shield_text":"3","landuse_kind":"urban_area","id":22753201},"arcs":[497]},{"type":"LineString","properties":{"kind":"major_road","sort_rank":380,"kind_detail":"primary","bus_network":null,"source":"openstreetmap.org","min_zoom":8.0,"bus_shield_text":"973X","landuse_kind":"urban_area","ref":"35;40","id":211321555},"arcs":[498]},{"type":"LineString","properties":{"kind":"major_road","sort_rank":377,"kind_detail":"tertiary","is_bicycle_related":true,"bus_network":null,"bicycle_shield_text":null,"bicycle_network":"icn","source":"openstreetmap.org","min_zoom":8.0,"bus_shield_text":"3","landuse_kind":"urban_area","id":22753196},"arcs":[499]},{"type":"LineString","properties":{"sort_rank":355,"source":"openstreetmap.org","min_zoom":8.0,"name":"Kiel - Oslo","kind":"ferry"},"arcs":[500]},{"type":"MultiLineString","properties":{"kind":"path","sort_rank":354,"kind_detail":"cycleway","is_bicycle_related":true,"bicycle_shield_text":"EV12","bicycle_network":"icn","source":"openstreetmap.org","min_zoom":8.0},"arcs":[[501],[502],[503],[504],[505],[506],[507],[508],[509],[510],[511],[512],[513],[514],[515],[516],[517],[518],[519],[520],[521],[522],[523]]},{"type":"MultiLineString","properties":{"source":"openstreetmap.org","kind":"major_road","landuse_kind":"urban_area","sort_rank":380,"kind_detail":"primary","ref":"40","min_zoom":8.0},"arcs":[[524],[525],[526],[527],[528],[529],[530],[531],[532],[533],[534],[535],[536],[537],[538],[539],[540],[541],[542],[543],[544],[545],[546],[547],[548],[549],[550],[551],[552],[553],[554],[555],[556],[557],[558],[559],[560],[561]]},{"type":"MultiLineString","properties":{"kind":"major_road","sort_rank":377,"kind_detail":"tertiary","is_bicycle_related":true,"bicycle_shield_text":"EV12","bicycle_network":"icn","source":"openstreetmap.org","min_zoom":8.0},"arcs":[[562],[563],[564],[565],[566],[567],[568],[569],[570],[571],[572],[573],[574],[575],[576],[577]]},{"type":"MultiLineString","properties":{"kind":"major_road","sort_rank":380,"kind_detail":"primary","is_bicycle_related":true,"cycleway":"lane","source":"openstreetmap.org","min_zoom":8.0,"landuse_kind":"urban_area","ref":"35"},"arcs":[[578],[579],[580]]},{"type":"LineString","properties":{"kind":"ferry","name:en":"Copenhagen - Oslo","name":"K\u00f8benhavn - Oslo","sort_rank":355,"name:de":"Kopenhagen - Oslo","source":"openstreetmap.org","min_zoom":8.0,"ref":"K\u00f8benhavn - Oslo"},"arcs":[581]},{"type":"LineString","properties":{"cycleway_right":"lane","sort_rank":380,"kind_detail":"primary","is_bicycle_related":true,"kind":"major_road","source":"openstreetmap.org","min_zoom":8.0,"ref":"35;40"},"arcs":[582]},{"type":"MultiLineString","properties":{"kind":"minor_road","sort_rank":360,"kind_detail":"residential","is_bicycle_related":true,"bicycle_shield_text":"EV12","bicycle_network":"icn","source":"openstreetmap.org","min_zoom":8.0},"arcs":[[583],[584],[585],[586],[587],[588],[589],[590]]},{"type":"MultiLineString","properties":{"cycleway_right":"lane","sort_rank":380,"kind_detail":"primary","is_bicycle_related":true,"kind":"major_road","source":"openstreetmap.org","min_zoom":8.0,"landuse_kind":"urban_area","ref":"35;40"},"arcs":[[591],[592],[593]]},{"type":"LineString","properties":{"source":"openstreetmap.org","kind":"ferry","name":"Frederikshavn - Oslo","sort_rank":355,"landuse_kind":"urban_area","min_zoom":8.0,"id":61113285},"arcs":[594]},{"type":"LineString","properties":{"kind":"major_road","sort_rank":380,"kind_detail":"primary","is_bicycle_related":true,"bus_network":null,"cycleway":"lane","source":"openstreetmap.org","min_zoom":8.0,"bus_shield_text":"4","ref":"35;40","id":22876700},"arcs":[595]},{"type":"MultiLineString","properties":{"kind":"minor_road","service":"rest_area","sort_rank":356,"kind_detail":"service","is_bicycle_related":true,"bicycle_shield_text":"EV12","bicycle_network":"icn","source":"openstreetmap.org","min_zoom":8.0},"arcs":[[596],[597]]},{"type":"LineString","properties":{"kind":"ferry","sort_rank":355,"is_bicycle_related":true,"source":"openstreetmap.org","min_zoom":8.0,"ref":"Fredrikshavn - L\u00e6s\u00f8","id":-452740,"osm_relation":true},"arcs":[598]},{"type":"LineString","properties":{"source":"openstreetmap.org","kind":"ferry","name":"Frederikshavn - L\u00e6s\u00f8","sort_rank":355,"is_bicycle_related":true,"min_zoom":8.0,"id":61113290},"arcs":[599]},{"type":"MultiLineString","properties":{"kind":"ferry","network":"e-road","sort_rank":355,"source":"openstreetmap.org","min_zoom":8.0,"all_networks":["e-road"],"shield_text":"39","all_shield_texts":["39"],"name":"Hirtshals-Kristiansand"},"arcs":[[600],[601],[602],[603],[604],[605]]},{"type":"MultiLineString","properties":{"kind":"major_road","network":"e-road","sort_rank":377,"landuse_kind":"urban_area","is_bicycle_related":true,"bicycle_shield_text":null,"bicycle_network":"icn","source":"openstreetmap.org","min_zoom":8.0,"kind_detail":"tertiary","shield_text":"45"},"arcs":[[606],[607]]},{"type":"LineString","properties":{"kind":"ferry","network":"e-road","sort_rank":355,"is_bicycle_related":true,"bicycle_shield_text":null,"bicycle_network":"icn","source":"openstreetmap.org","min_zoom":8.0,"all_networks":["e-road"],"shield_text":"45","all_shield_texts":["45"],"name":"Frederikshavn - G\u00f6teborg"},"arcs":[608]},{"type":"MultiLineString","properties":{"kind":"major_road","sort_rank":380,"kind_detail":"primary","is_bicycle_related":true,"cycleway":"lane","source":"openstreetmap.org","min_zoom":8.0,"landuse_kind":"urban_area","ref":"40"},"arcs":[[609],[610]]},{"type":"MultiLineString","properties":{"kind":"path","sort_rank":354,"landuse_kind":"urban_area","is_bicycle_related":true,"bicycle_shield_text":"EV12","bicycle_network":"icn","source":"openstreetmap.org","min_zoom":8.0,"kind_detail":"track"},"arcs":[[611],[612]]},{"type":"LineString","properties":{"kind":"major_road","sort_rank":380,"kind_detail":"primary","bus_network":null,"source":"openstreetmap.org","min_zoom":8.0,"bus_shield_text":"973X","id":30327137},"arcs":[613]},{"type":"LineString","properties":{"sort_rank":355,"source":"openstreetmap.org","min_zoom":8.0,"name":"Hirtshals - Stavanger","kind":"ferry"},"arcs":[614]},{"type":"MultiLineString","properties":{"bus_network":null,"network":"e-road","sort_rank":380,"kind_detail":"primary","kind":"major_road","source":"openstreetmap.org","min_zoom":8.0,"bus_shield_text":"973X","shield_text":"45","ref":"E 45"},"arcs":[[615],[616]]},{"type":"MultiLineString","properties":{"kind":"minor_road","sort_rank":360,"kind_detail":"unclassified","is_bicycle_related":true,"bicycle_shield_text":"EV12","bicycle_network":"icn","source":"openstreetmap.org","min_zoom":8.0},"arcs":[[617],[618],[619],[620],[621],[622],[623],[624],[625],[626],[627],[628],[629]]},{"type":"LineString","properties":{"bus_network":null,"sort_rank":380,"kind_detail":"primary","kind":"major_road","source":"openstreetmap.org","min_zoom":8.0,"bus_shield_text":"4","landuse_kind":"urban_area","ref":"40"},"arcs":[630]},{"type":"MultiLineString","properties":{"kind":"minor_road","sort_rank":360,"kind_detail":"unclassified","is_bicycle_related":true,"bicycle_shield_text":null,"bicycle_network":"icn","source":"openstreetmap.org","min_zoom":8.0},"arcs":[[631],[632],[633],[634],[635]]},{"type":"LineString","properties":{"source":"openstreetmap.org","kind":"major_road","sort_rank":380,"kind_detail":"primary","ref":"35;40","min_zoom":8.0,"id":113340461},"arcs":[636]},{"type":"LineString","properties":{"kind":"minor_road","sort_rank":360,"kind_detail":"residential","is_bicycle_related":true,"bicycle_shield_text":"1","bicycle_network":"ncn","source":"openstreetmap.org","min_zoom":8.0},"arcs":[637]},{"type":"LineString","properties":{"kind":"major_road","sort_rank":380,"kind_detail":"primary","bus_network":null,"source":"openstreetmap.org","min_zoom":8.0,"bus_shield_text":"973X","landuse_kind":"urban_area","id":30327137},"arcs":[638]},{"type":"MultiLineString","properties":{"sort_rank":380,"kind_detail":"primary","min_zoom":8.0,"kind":"major_road","source":"openstreetmap.org"},"arcs":[[639],[640],[641],[642],[643],[644],[645],[646],[647],[648]]},{"type":"MultiLineString","properties":{"sort_rank":355,"source":"openstreetmap.org","min_zoom":8.0,"name":"Frederikshavn - Oslo","kind":"ferry"},"arcs":[[649],[650]]},{"type":"LineString","properties":{"kind":"ferry","name":"Frederikshavn - G\u00f6teborg","sort_rank":355,"landuse_kind":"urban_area","source":"openstreetmap.org","min_zoom":8.0,"ref":"Frederikshavn - G\u00f6teborg","id":-945627,"osm_relation":true},"arcs":[651]},{"type":"MultiLineString","properties":{"kind":"major_road","sort_rank":380,"kind_detail":"primary","is_bicycle_related":true,"cycleway":"track","source":"openstreetmap.org","min_zoom":8.0,"ref":"35"},"arcs":[[652],[653],[654],[655],[656],[657],[658],[659],[660]]},{"type":"MultiLineString","properties":{"kind":"major_road","sort_rank":377,"kind_detail":"tertiary","is_bicycle_related":true,"bicycle_shield_text":"EV12","bicycle_network":"icn","source":"openstreetmap.org","min_zoom":8.0,"cycleway":"track"},"arcs":[[661],[662]]},{"type":"LineString","properties":{"kind":"path","sort_rank":354,"kind_detail":"footway","is_bicycle_related":true,"bicycle_shield_text":"EV12","bicycle_network":"icn","source":"openstreetmap.org","min_zoom":8.0,"id":75488638},"arcs":[663]},{"type":"MultiLineString","properties":{"kind":"path","sort_rank":354,"kind_detail":"path","is_bicycle_related":true,"bicycle_shield_text":"EV12","bicycle_network":"icn","source":"openstreetmap.org","min_zoom":8.0},"arcs":[[664],[665],[666]]},{"type":"MultiLineString","properties":{"kind":"path","sort_rank":354,"landuse_kind":"urban_area","is_bicycle_related":true,"bicycle_shield_text":null,"bicycle_network":"icn","source":"openstreetmap.org","min_zoom":8.0,"kind_detail":"cycleway"},"arcs":[[667],[668],[669]]},{"type":"MultiLineString","properties":{"kind":"path","sort_rank":354,"landuse_kind":"urban_area","is_bicycle_related":true,"bicycle_shield_text":"EV12","bicycle_network":"icn","source":"openstreetmap.org","min_zoom":8.0,"kind_detail":"cycleway"},"arcs":[[670],[671],[672]]},{"type":"MultiLineString","properties":{"kind":"minor_road","sort_rank":360,"kind_detail":"residential","is_bicycle_related":true,"bicycle_shield_text":"EV12","bicycle_network":"icn","source":"openstreetmap.org","min_zoom":8.0,"landuse_kind":"residential"},"arcs":[[673],[674],[675]]},{"type":"MultiLineString","properties":{"cycleway_right":"track","sort_rank":380,"kind_detail":"primary","is_bicycle_related":true,"kind":"major_road","source":"openstreetmap.org","min_zoom":8.0,"landuse_kind":"urban_area","ref":"35"},"arcs":[[676],[677]]},{"type":"MultiLineString","properties":{"bus_network":null,"sort_rank":380,"kind_detail":"primary","kind":"major_road","source":"openstreetmap.org","min_zoom":8.0,"bus_shield_text":"1","landuse_kind":"urban_area","ref":"35"},"arcs":[[678],[679],[680],[681],[682],[683],[684],[685]]},{"type":"LineString","properties":{"kind":"major_road","sort_rank":380,"kind_detail":"primary","is_bicycle_related":true,"bicycle_shield_text":"EV12","bicycle_network":"icn","source":"openstreetmap.org","min_zoom":8.0,"ref":"40","id":496974776},"arcs":[686]},{"type":"LineString","properties":{"kind":"major_road","sort_rank":380,"kind_detail":"primary","is_bicycle_related":true,"bicycle_shield_text":"62","cycleway":"track","source":"openstreetmap.org","min_zoom":8.0,"bicycle_network":"rcn","ref":"35","id":139894114},"arcs":[687]},{"type":"LineString","properties":{"kind":"major_road","sort_rank":380,"kind_detail":"primary","is_bicycle_related":true,"bicycle_shield_text":"EV12","cycleway":"track","source":"openstreetmap.org","min_zoom":8.0,"landuse_kind":"urban_area","bicycle_network":"icn","ref":"35","id":165307658},"arcs":[688]},{"type":"LineString","properties":{"source":"openstreetmap.org","kind":"ferry","name":"Stavanger - Hirtshals","sort_rank":355,"min_zoom":8.0,"osm_relation":true},"arcs":[689]},{"type":"LineString","properties":{"bus_network":null,"sort_rank":380,"kind_detail":"primary","is_bicycle_related":true,"kind":"major_road","cycleway":"lane","source":"openstreetmap.org","min_zoom":8.0,"bus_shield_text":"4","landuse_kind":"urban_area","ref":"35;40"},"arcs":[690]},{"type":"LineString","properties":{"kind":"minor_road","sort_rank":360,"kind_detail":"residential","is_bicycle_related":true,"bicycle_shield_text":"5","bicycle_network":"ncn","source":"openstreetmap.org","min_zoom":8.0},"arcs":[691]},{"type":"LineString","properties":{"kind":"major_road","sort_rank":380,"kind_detail":"primary","bus_network":null,"source":"openstreetmap.org","min_zoom":8.0,"bus_shield_text":"4","landuse_kind":"urban_area","id":22698726},"arcs":[692]},{"type":"LineString","properties":{"source":"openstreetmap.org","kind":"ferry","name":"K\u00f8benhavn - Oslo","sort_rank":355,"min_zoom":8.0,"osm_relation":true},"arcs":[693]},{"type":"MultiLineString","properties":{"bus_network":null,"sort_rank":380,"kind_detail":"primary","is_bicycle_related":true,"cycleway_right":"lane","source":"openstreetmap.org","min_zoom":8.0,"bus_shield_text":"4","landuse_kind":"urban_area","ref":"35;40","kind":"major_road"},"arcs":[[694],[695]]},{"type":"LineString","properties":{"cycleway_right":"lane","sort_rank":377,"kind_detail":"tertiary","is_bicycle_related":true,"kind":"major_road","bicycle_shield_text":"EV12","bicycle_network":"icn","source":"openstreetmap.org","min_zoom":8.0,"landuse_kind":"residential","id":23647057},"arcs":[696]},{"type":"MultiLineString","properties":{"source":"openstreetmap.org","kind":"major_road","landuse_kind":"urban_area","sort_rank":380,"kind_detail":"primary","ref":"35","min_zoom":8.0},"arcs":[[697],[698],[699],[700],[701],[702],[703],[704],[705],[706],[707],[708],[709],[710],[711],[712],[713],[714]]},{"type":"MultiLineString","properties":{"source":"openstreetmap.org","kind":"ferry","name":"Hirtshals(DK) - Kristiansand(NO)","sort_rank":355,"min_zoom":8.0,"osm_relation":true},"arcs":[[715],[716],[717]]},{"type":"LineString","properties":{"kind":"major_road","cycleway_left":"lane","sort_rank":380,"kind_detail":"primary","is_bicycle_related":true,"bicycle_shield_text":"EV12","bicycle_network":"icn","source":"openstreetmap.org","min_zoom":8.0,"ref":"40","id":496438725},"arcs":[718]},{"type":"LineString","properties":{"kind":"ferry","name":"Frederikshavn - G\u00f6teborg","sort_rank":355,"landuse_kind":"urban_area","is_bicycle_related":true,"bicycle_shield_text":null,"bicycle_network":"icn","source":"openstreetmap.org","min_zoom":8.0,"all_networks":["e-road"],"shield_text":"45","id":61109581,"all_shield_texts":["45"],"network":"e-road"},"arcs":[719]},{"type":"LineString","properties":{"kind":"minor_road","sort_rank":358,"landuse_kind":"urban_area","is_bicycle_related":true,"bicycle_shield_text":"EV12","bicycle_network":"icn","source":"openstreetmap.org","min_zoom":8.0,"kind_detail":"service"},"arcs":[720]},{"type":"MultiLineString","properties":{"source":"openstreetmap.org","kind":"ferry","name":"Frederikshavn - Oslo","sort_rank":355,"ref":"Frederikshavn - Oslo","min_zoom":8.0,"osm_relation":true},"arcs":[[721],[722]]},{"type":"MultiLineString","properties":{"kind":"major_road","sort_rank":377,"kind_detail":"tertiary","is_bicycle_related":true,"bicycle_shield_text":null,"bicycle_network":"icn","source":"openstreetmap.org","min_zoom":8.0},"arcs":[[723],[724],[725],[726],[727]]},{"type":"LineString","properties":{"sort_rank":355,"source":"openstreetmap.org","min_zoom":8.0,"name":"Hirtshals-T\u00f3rshavn","kind":"ferry"},"arcs":[728]},{"type":"LineString","properties":{"sort_rank":355,"source":"openstreetmap.org","min_zoom":8.0,"name":"Hirtshals-Langesund","kind":"ferry"},"arcs":[729]},{"type":"MultiLineString","properties":{"kind":"highway","network":"e-road","sort_rank":383,"kind_detail":"motorway","source":"openstreetmap.org","min_zoom":8.0,"all_networks":["e-road"],"shield_text":"45","ref":"E 45","all_shield_texts":["45"]},"arcs":[[730],[731],[732],[733],[734],[735],[736],[737]]},{"type":"LineString","properties":{"cycleway_right":"lane","sort_rank":380,"kind_detail":"primary","is_bicycle_related":true,"kind":"major_road","bus_network":null,"source":"openstreetmap.org","min_zoom":8.0,"bus_shield_text":"973X","landuse_kind":"urban_area","ref":"E 45","id":191115031},"arcs":[738]},{"type":"MultiLineString","properties":{"kind":"major_road","sort_rank":377,"kind_detail":"tertiary","is_bicycle_related":true,"bicycle_shield_text":"EV12","cycleway":"lane","source":"openstreetmap.org","min_zoom":8.0,"bicycle_network":"icn"},"arcs":[[739],[740],[741],[742],[743],[744]]},{"type":"MultiLineString","properties":{"kind":"major_road","sort_rank":380,"kind_detail":"primary","is_bicycle_related":true,"cycleway":"track","source":"openstreetmap.org","min_zoom":8.0,"landuse_kind":"urban_area","ref":"35"},"arcs":[[745],[746],[747],[748],[749],[750]]},{"type":"MultiLineString","properties":{"kind":"major_road","sort_rank":380,"kind_detail":"primary","is_bicycle_related":true,"cycleway":"track","source":"openstreetmap.org","min_zoom":8.0,"ref":"55"},"arcs":[[751],[752],[753],[754],[755],[756]]},{"type":"LineString","properties":{"kind":"major_road","sort_rank":380,"kind_detail":"primary","is_bicycle_related":true,"bicycle_shield_text":"EV12","bicycle_network":"icn","source":"openstreetmap.org","min_zoom":8.0,"cycleway":"track","ref":"55"},"arcs":[757]},{"type":"MultiLineString","properties":{"kind":"major_road","sort_rank":380,"kind_detail":"primary","is_bicycle_related":true,"cycleway_right":"lane","bicycle_shield_text":"EV12","bicycle_network":"icn","source":"openstreetmap.org","min_zoom":8.0,"ref":"40"},"arcs":[[758],[759],[760],[761],[762],[763],[764],[765],[766]]},{"type":"MultiLineString","properties":{"kind":"minor_road","sort_rank":360,"kind_detail":"unclassified","is_bicycle_related":true,"bicycle_shield_text":"EV12","bicycle_network":"icn","source":"openstreetmap.org","min_zoom":8.0,"landuse_kind":"urban_area"},"arcs":[[767],[768],[769],[770],[771]]},{"type":"LineString","properties":{"bus_network":null,"sort_rank":380,"kind_detail":"primary","kind":"major_road","source":"openstreetmap.org","min_zoom":8.0,"bus_shield_text":"4","ref":"40"},"arcs":[772]},{"type":"LineString","properties":{"kind":"major_road","sort_rank":380,"kind_detail":"primary","is_bicycle_related":true,"cycleway":"lane","source":"openstreetmap.org","min_zoom":8.0,"ref":"40","id":23182013},"arcs":[773]},{"type":"MultiLineString","properties":{"bus_network":null,"sort_rank":380,"kind_detail":"primary","is_bicycle_related":true,"cycleway_right":"lane","source":"openstreetmap.org","min_zoom":8.0,"bus_shield_text":"973X","landuse_kind":"urban_area","ref":"35;40","kind":"major_road"},"arcs":[[774],[775]]},{"type":"LineString","properties":{"kind":"path","sort_rank":354,"kind_detail":"cycleway","is_bicycle_related":true,"bicycle_shield_text":"EV12","bicycle_network":"icn","source":"openstreetmap.org","min_zoom":8.0,"landuse_kind":"residential","id":72880886},"arcs":[776]},{"type":"MultiLineString","properties":{"kind":"highway","network":"e-road","sort_rank":383,"landuse_kind":"urban_area","source":"openstreetmap.org","min_zoom":8.0,"all_networks":["e-road"],"kind_detail":"motorway","shield_text":"45","ref":"E 45","all_shield_texts":["45"]},"arcs":[[777],[778]]},{"type":"LineString","properties":{"kind":"major_road","sort_rank":380,"kind_detail":"primary","is_bicycle_related":true,"bicycle_shield_text":"60","bicycle_network":"rcn","source":"openstreetmap.org","min_zoom":8.0,"landuse_kind":"urban_area","ref":"35","id":141328338},"arcs":[779]},{"type":"LineString","properties":{"cycleway_right":"lane","cycleway_left":"track","sort_rank":380,"kind_detail":"primary","is_bicycle_related":true,"kind":"major_road","bus_network":null,"source":"openstreetmap.org","min_zoom":8.0,"bus_shield_text":"1","landuse_kind":"urban_area","ref":"35","id":107475037},"arcs":[780]},{"type":"MultiLineString","properties":{"kind":"major_road","sort_rank":380,"kind_detail":"primary","is_bicycle_related":true,"bicycle_shield_text":"EV12","cycleway":"lane","source":"openstreetmap.org","min_zoom":8.0,"bicycle_network":"icn","ref":"40"},"arcs":[[781],[782],[783],[784],[785]]},{"type":"LineString","properties":{"source":"openstreetmap.org","kind":"ferry","name":"Frederikshavn - G\u00f6teborg","sort_rank":355,"ref":"Frederikshavn - G\u00f6teborg","min_zoom":8.0,"osm_relation":true},"arcs":[786]},{"type":"MultiLineString","properties":{"kind":"major_road","sort_rank":380,"kind_detail":"primary","is_bicycle_related":true,"bicycle_shield_text":"414","cycleway":"track","source":"openstreetmap.org","min_zoom":8.0,"bicycle_network":"lcn","ref":"55"},"arcs":[[787],[788]]},{"type":"MultiLineString","properties":{"kind":"highway","network":"e-road","sort_rank":383,"kind_detail":"motorway","source":"openstreetmap.org","min_zoom":8.0,"all_networks":["e-road"],"shield_text":"39","ref":"E 39","all_shield_texts":["39"]},"arcs":[[789],[790]]},{"type":"MultiLineString","properties":{"kind":"major_road","network":"e-road","sort_rank":380,"kind_detail":"primary","source":"openstreetmap.org","min_zoom":8.0,"shield_text":"45","ref":"E 45"},"arcs":[[791],[792]]},{"type":"LineString","properties":{"kind":"ferry","name":"Frederikshavn - Oslo","sort_rank":355,"landuse_kind":"nature_reserve","source":"openstreetmap.org","min_zoom":8.0,"ref":"Frederikshavn - Oslo","id":-949771,"osm_relation":true},"arcs":[793]},{"type":"LineString","properties":{"bus_network":null,"sort_rank":380,"kind_detail":"primary","is_bicycle_related":true,"cycleway_right":"lane","source":"openstreetmap.org","min_zoom":8.0,"bus_shield_text":"4","ref":"35;40","kind":"major_road"},"arcs":[794]},{"type":"MultiLineString","properties":{"source":"openstreetmap.org","kind":"major_road","sort_rank":380,"kind_detail":"primary","ref":"35","min_zoom":8.0},"arcs":[[795],[796],[797],[798],[799],[800],[801],[802],[803],[804],[805],[806],[807],[808],[809],[810],[811],[812],[813],[814],[815],[816]]},{"type":"LineString","properties":{"kind":"major_road","sort_rank":377,"kind_detail":"tertiary","is_bicycle_related":true,"bicycle_shield_text":"5","bicycle_network":"ncn","source":"openstreetmap.org","min_zoom":8.0,"landuse_kind":"residential","id":542257673},"arcs":[817]},{"type":"MultiLineString","properties":{"bus_network":null,"network":"e-road","sort_rank":380,"kind_detail":"primary","kind":"major_road","source":"openstreetmap.org","min_zoom":8.0,"bus_shield_text":"973X","shield_text":"45","landuse_kind":"urban_area","ref":"E 45"},"arcs":[[818],[819]]},{"type":"MultiLineString","properties":{"kind":"minor_road","sort_rank":360,"landuse_kind":"urban_area","is_bicycle_related":true,"bicycle_shield_text":"EV12","bicycle_network":"icn","source":"openstreetmap.org","min_zoom":8.0,"kind_detail":"residential"},"arcs":[[820],[821],[822],[823],[824],[825]]},{"type":"LineString","properties":{"kind":"major_road","sort_rank":377,"kind_detail":"tertiary","is_bicycle_related":true,"bicycle_shield_text":"EV12","cycleway":"lane","source":"openstreetmap.org","min_zoom":8.0,"landuse_kind":"urban_area","bicycle_network":"icn","id":166515614},"arcs":[826]},{"type":"MultiLineString","properties":{"bus_network":null,"sort_rank":380,"kind_detail":"primary","is_bicycle_related":true,"kind":"major_road","cycleway":"track","source":"openstreetmap.org","min_zoom":8.0,"bus_shield_text":"1","landuse_kind":"urban_area","ref":"35"},"arcs":[[827],[828]]},{"type":"LineString","properties":{"kind":"ferry","sort_rank":355,"landuse_kind":"urban_area","is_bicycle_related":true,"source":"openstreetmap.org","min_zoom":8.0,"ref":"Fredrikshavn - L\u00e6s\u00f8","id":-452740,"osm_relation":true},"arcs":[829]},{"type":"LineString","properties":{"source":"openstreetmap.org","kind":"ferry","name":"Hirthals (DK) -T\u00f3rshavn (FO) - Sey\u00f0isfj\u00f6r\u00f0ur (IS)","sort_rank":355,"min_zoom":8.0,"osm_relation":true},"arcs":[830]},{"type":"LineString","properties":{"source":"openstreetmap.org","kind":"ferry","name":"Frederikshavn - Oslo","sort_rank":355,"landuse_kind":"nature_reserve","min_zoom":8.0,"id":61113285},"arcs":[831]},{"type":"MultiLineString","properties":{"kind":"major_road","sort_rank":377,"landuse_kind":"urban_area","is_bicycle_related":true,"bicycle_shield_text":"EV12","bicycle_network":"icn","source":"openstreetmap.org","min_zoom":8.0,"kind_detail":"tertiary"},"arcs":[[832],[833]]},{"type":"MultiLineString","properties":{"bus_network":null,"network":"e-road","sort_rank":380,"kind_detail":"primary","is_bicycle_related":true,"cycleway_right":"lane","source":"openstreetmap.org","min_zoom":8.0,"bus_shield_text":"973X","shield_text":"45","landuse_kind":"urban_area","ref":"E 45","kind":"major_road"},"arcs":[[834],[835]]},{"type":"MultiLineString","properties":{"kind":"minor_road","sort_rank":358,"kind_detail":"service","is_bicycle_related":true,"bicycle_shield_text":"EV12","bicycle_network":"icn","source":"openstreetmap.org","min_zoom":8.0},"arcs":[[836],[837]]},{"type":"MultiLineString","properties":{"kind":"major_road","sort_rank":377,"landuse_kind":"residential","is_bicycle_related":true,"bicycle_shield_text":"EV12","cycleway":"lane","source":"openstreetmap.org","min_zoom":8.0,"kind_detail":"tertiary","bicycle_network":"icn"},"arcs":[[838],[839]]}]},"earth":{"type":"GeometryCollection","geometries":[{"type":"MultiPolygon","properties":{"sort_rank":10,"source":"naturalearthdata.com","min_zoom":0.0,"kind":"earth","area":11621038120},"arcs":[[[840]],[[841]]]}]},"landuse":{"type":"GeometryCollection","geometries":[{"type":"MultiPolygon","properties":{"source":"naturalearthdata.com","kind":"urban_area","name":"","area":233576874,"sort_rank":11,"min_zoom":4.0},"arcs":[[[842]],[[843]],[[844]],[[845]]]},{"type":"MultiPolygon","properties":{"source":"openstreetmap.org","kind":"residential","tier":2,"area":11955869,"sort_rank":20,"min_zoom":8.0},"arcs":[[[846]]]},{"type":"Polygon","properties":{"kind":"nature_reserve","area":83747800,"sort_rank":23,"operator":"Naturstyrelsen","source":"openstreetmap.org","min_zoom":8.0,"tier":2,"id":357371213},"arcs":[[847]]}]}},"type":"Topology","transform":{"translate":[9.84375,57.3265212252],"scale":[0.0003433228,0.0001834363]},"arcs":[[[3195,4096],[63,-220],[577,-1839],[261,-498]],[[4096,923],[-76,150],[-613,208],[33,925],[-144,291],[-725,853],[-229,55],[-282,-4],[-270,-64],[-264,-118],[-243,-169],[-606,-508],[-368,19],[-215,-26],[-94,-30]],[[3836,0],[-56,0]],[[1993,0],[3,13],[21,19],[1,2],[-41,62],[-22,193],[55,254],[-22,10],[8,15],[35,-5],[27,13],[6,-7],[4,-5],[20,-13],[-27,27],[-29,-13],[-18,7],[33,13],[-22,10],[11,22],[27,-19],[-11,42],[21,-23],[-2,-2],[-2,-28],[-3,-4],[3,4],[5,29],[25,-43],[-9,87],[-45,17],[-11,81],[-15,-14],[-6,10],[21,7],[-110,119],[16,19],[-1,15],[-11,-13],[-14,24],[12,-8],[14,0],[-178,215],[-49,133],[-16,156],[67,217],[182,283],[151,169],[37,27],[46,-6],[-18,10],[17,13],[-24,-16],[-7,3],[39,30],[-9,-11],[12,-14],[15,32],[13,-13],[6,4],[130,141],[-90,29],[-120,-18],[-167,-100],[-578,-512],[-196,-122],[-388,-137],[-342,7],[-71,34],[-60,8],[43,-10],[24,-20],[-88,-5],[26,20],[-20,24],[-206,-372],[-121,-136]],[[3195,4096],[63,-220],[577,-1839],[261,-498]],[[240,0],[161,705],[429,-21],[209,97],[219,10],[97,74],[98,6],[111,-61],[443,-96],[25,-28],[-3,-60]],[[2179,2167],[-18,5],[-38,1],[-83,-10],[-151,-153],[-245,-547],[0,-264],[53,-152],[9,-16],[40,-53],[3,-4],[3,-2],[4,-3],[3,-2],[114,-68],[13,-11],[17,-58],[126,-135],[0,-69]],[[1645,1244],[-1,0],[0,-3],[1,3]],[[1645,1450],[0,-3],[-1,3],[1,0]],[[1672,1118],[-2,4],[2,-4]],[[1736,1658],[-1,-3],[1,3]],[[1754,971],[-3,2],[3,-2]],[[1805,1816],[1,3]],[[1806,1819],[-2,-3]],[[1804,1816],[1,0]],[[1884,890],[-3,3],[3,-3]],[[2029,626],[2,15],[1,0],[-3,-15]],[[2095,2170],[0,1],[4,0],[-4,-1]],[[2175,2168],[3,-1],[1,0],[-4,1]],[[1645,1450],[0,-1]],[[1645,1449],[0,-2]],[[1645,1447]],[[1645,1447]],[[1645,1447],[-1,3]],[[1644,1450],[1,0]],[[1645,1450]],[[1672,1118]],[[1672,1118],[-2,3]],[[1670,1121],[0,1]],[[1670,1122]],[[1670,1122],[0,-1]],[[1670,1121],[2,-3]],[[1884,890]],[[1884,890]],[[1884,890],[-1,1]],[[1883,891]],[[1883,891]],[[1883,891],[-2,2]],[[1881,893]],[[1881,893],[2,-2]],[[1883,891],[1,-1]],[[1884,890]],[[2029,626]],[[2029,626],[2,15]],[[2031,641],[1,0]],[[2032,641],[-3,-15]],[[2095,2170]],[[2095,2170],[0,1]],[[2095,2171]],[[2095,2171],[4,0]],[[2099,2171]],[[2099,2171]],[[2099,2171],[-1,0]],[[2098,2171],[-1,0]],[[2097,2171]],[[2097,2171],[-2,-1]],[[2175,2168]],[[2175,2168],[3,-1]],[[2178,2167],[1,0]],[[2179,2167]],[[2179,2167],[-4,1]],[[2175,2168]],[[1645,1244],[-1,0],[0,-3],[1,3]],[[1736,1658],[-1,-3],[1,3]],[[1754,971],[-3,2],[3,-2]],[[1805,1816],[1,3]],[[1806,1819],[-2,-3]],[[1804,1816],[1,0]],[[2029,626],[0,1]],[[2029,627],[0,2]],[[2029,629],[0,2]],[[2029,631],[1,4]],[[2030,635],[1,5]],[[2031,640],[1,2]],[[2032,642],[0,1]],[[2032,643],[0,2]],[[2032,645],[1,1]],[[2033,646],[0,4]],[[2033,650],[1,2]],[[2034,652],[0,2]],[[2034,654]],[[2034,654],[1,3]],[[2035,657],[0,2]],[[2035,659],[0,2]],[[2035,661],[0,1]],[[2035,662],[0,2]],[[2035,664],[0,1]],[[2035,665],[0,2]],[[2035,667],[0,2]],[[2035,669],[0,2]],[[2035,671],[0,2]],[[2035,673],[-1,4]],[[2034,677],[0,3]],[[2034,680],[-1,3]],[[2033,683],[0,2]],[[2033,685],[0,1]],[[2033,686],[-1,2]],[[2032,688],[0,1]],[[2032,689],[-1,1]],[[2031,690],[0,2]],[[2031,692],[-1,1]],[[2030,693],[0,1]],[[2030,694],[-1,1]],[[2029,695],[0,1]],[[2029,696],[-2,2]],[[2027,698],[-1,1]],[[2026,699],[-1,2]],[[2025,701],[0,1]],[[2025,702],[-1,1]],[[2024,703],[-2,2]],[[2022,705],[-3,1]],[[2019,706],[-1,1]],[[2018,707],[-1,1]],[[2017,708],[-3,2]],[[2014,710],[-5,3]],[[2009,713],[-4,2]],[[2005,715],[-2,2]],[[2003,717],[-2,2]],[[2001,719],[-3,3]],[[1998,722],[-15,17]],[[1983,739],[-4,4]],[[1979,743],[-22,25]],[[1957,768],[0,1]],[[1957,769],[-5,5]],[[1952,774],[-10,12]],[[1942,786],[-16,18]],[[1926,804],[-4,4]],[[1922,808],[0,1]],[[1922,809],[-17,18]],[[1905,827],[-2,3]],[[1903,830]],[[1903,830],[-2,4]],[[1901,834],[-2,4]],[[1899,838],[-1,4]],[[1898,842],[-1,3]],[[1897,845],[0,2]],[[1897,847],[-1,7]],[[1896,854],[0,1]],[[1896,855],[0,5]],[[1896,860],[0,3]],[[1896,863],[0,2]],[[1896,865],[-1,5]],[[1895,870],[-1,2]],[[1894,872],[-2,4]],[[1892,876],[0,1]],[[1892,877]],[[1892,877],[0,1]],[[1892,878],[-1,1]],[[1891,879],[-1,1]],[[1890,880],[-1,2]],[[1889,882],[0,2]],[[1889,884],[-2,2]],[[1887,886],[-1,2]],[[1886,888],[-2,1]],[[1884,889],[0,1]],[[1884,890],[-1,1]],[[1883,891],[-1,1]],[[1882,892],[-3,2]],[[1879,894],[-1,1]],[[1878,895],[-1,2]],[[1877,897],[-2,1]],[[1875,898],[-2,1]],[[1873,899],[-13,8]],[[1860,907],[-12,7]],[[1848,914],[-14,8]],[[1834,922],[-19,12]],[[1815,934],[-9,5]],[[1806,939],[-46,27]],[[1760,966],[-1,1]],[[1759,967],[-1,0]],[[1758,967],[-2,2]],[[1756,969],[-2,1]],[[1754,970],[-2,2]],[[1752,972],[-3,2]],[[1749,974],[-1,2]],[[1748,976],[-2,2]],[[1746,978],[-20,27]],[[1726,1005],[-14,18]],[[1712,1023],[-6,8]],[[1706,1031],[-2,4]],[[1704,1035],[-3,4]],[[1701,1039],[-1,3]],[[1700,1042],[-1,2]],[[1699,1044],[-2,3]],[[1697,1047],[0,2]],[[1697,1049],[-2,5]],[[1695,1054],[-2,5]],[[1693,1059],[-1,3]],[[1692,1062],[-9,23]],[[1683,1085],[0,1]],[[1683,1086],[-8,22]],[[1675,1108],[-5,13]],[[1670,1121]],[[1670,1121],[-1,3]],[[1669,1124],[0,1]],[[1669,1125],[-5,14]],[[1664,1139],[-15,42]],[[1649,1181],[-3,7]],[[1646,1188],[-1,4]],[[1645,1192],[-1,4]],[[1644,1196],[0,3]],[[1644,1199],[0,3]],[[1644,1202],[0,2]],[[1644,1204],[1,40]],[[1645,1244],[0,1]],[[1645,1245],[2,81]],[[1647,1326],[1,50]],[[1648,1376],[0,5]],[[1648,1381],[0,4]],[[1648,1385],[0,7]],[[1648,1392],[0,1]],[[1648,1393],[-2,21]],[[1646,1414],[-1,27]],[[1645,1441],[0,2]],[[1645,1443],[-1,6]],[[1644,1449],[0,2]],[[1644,1451],[0,2]],[[1644,1453],[0,1]],[[1644,1454],[0,3]],[[1644,1457],[0,1]],[[1644,1458],[0,2]],[[1644,1460],[0,1]],[[1644,1461],[0,2]],[[1644,1463],[0,1]],[[1644,1464],[1,1]],[[1645,1465],[0,2]],[[1645,1467],[0,1]],[[1645,1468],[0,1]],[[1645,1469],[1,2]],[[1646,1471],[0,1]],[[1646,1472],[1,1]],[[1647,1473],[0,1]],[[1647,1474],[1,2]],[[1648,1476],[0,1]],[[1648,1477],[1,1]],[[1649,1478],[1,4]],[[1650,1482],[22,42]],[[1672,1524],[44,88]],[[1716,1612],[4,7]],[[1720,1619],[0,1]],[[1720,1620],[1,1]],[[1721,1621],[0,1]],[[1721,1622],[1,1]],[[1722,1623],[12,30]],[[1734,1653],[1,0]],[[1735,1653],[0,1]],[[1735,1654]],[[1735,1654],[0,1]],[[1735,1655]],[[1735,1655],[24,55]],[[1759,1710],[17,39]],[[1776,1749],[15,36]],[[1791,1785],[1,2]],[[1792,1787],[8,19]],[[1800,1806],[2,4]],[[1802,1810]],[[1802,1810],[2,5]],[[1804,1815],[1,1]],[[1805,1816],[2,6]],[[1807,1822],[16,38]],[[1823,1860],[61,141]],[[1884,2001],[1,1]],[[1885,2002],[0,1]],[[1885,2003],[1,2]],[[1886,2005],[0,1]],[[1886,2006],[1,1]],[[1887,2007],[1,1]],[[1888,2008],[1,1]],[[1889,2009],[0,1]],[[1889,2010],[1,2]],[[1890,2012],[1,1]],[[1891,2013],[1,1]],[[1892,2014],[1,1]],[[1893,2015],[1,1]],[[1894,2016],[1,1]],[[1895,2017],[1,1]],[[1896,2018],[1,0]],[[1897,2018],[12,10]],[[1909,2028],[4,4]],[[1913,2032],[3,2]],[[1916,2034],[1,1]],[[1917,2035],[1,1]],[[1918,2036],[1,1]],[[1919,2037],[2,1]],[[1921,2038],[2,2]],[[1923,2040],[5,3]],[[1928,2043],[19,15]],[[1947,2058],[11,8]],[[1958,2066],[1,0]],[[1959,2066],[0,1]],[[1959,2067],[1,1]],[[1960,2068],[1,0]],[[1961,2068],[1,1]],[[1962,2069]],[[1962,2069],[1,1]],[[1963,2070],[1,1]],[[1964,2071]],[[1964,2071],[1,1]],[[1965,2072]],[[1965,2072],[1,1]],[[1966,2073],[1,1]],[[1967,2074],[0,1]],[[1967,2075],[1,0]],[[1968,2075],[0,1]],[[1968,2076],[18,22]],[[1986,2098],[37,47]],[[2023,2145]],[[2023,2145],[1,1]],[[2024,2146],[6,8]],[[2030,2154],[1,1]],[[2031,2155]],[[2031,2155],[1,1]],[[2032,2156],[1,1]],[[2033,2157],[1,1]],[[2034,2158],[1,1]],[[2035,2159],[1,1]],[[2036,2160],[1,1]],[[2037,2161],[1,0]],[[2038,2161],[1,1]],[[2039,2162],[1,1]],[[2040,2163],[1,0]],[[2041,2163],[1,1]],[[2042,2164],[2,0]],[[2044,2164],[1,1]],[[2045,2165],[1,0]],[[2046,2165],[2,1]],[[2048,2166],[1,0]],[[2049,2166],[2,0]],[[2051,2166],[1,0]],[[2052,2166],[40,4]],[[2092,2170]],[[2092,2170],[1,0]],[[2093,2170]],[[2093,2170],[1,1]],[[2094,2171]],[[2094,2171],[2,0]],[[2096,2171],[20,2]],[[2116,2173],[1,0]],[[2117,2173],[1,0]],[[2118,2173],[3,0]],[[2121,2173],[1,0]],[[2122,2173],[1,0]],[[2123,2173],[1,0]],[[2124,2173],[2,0]],[[2126,2173],[1,0]],[[2127,2173],[1,0]],[[2128,2173],[3,0]],[[2131,2173],[2,0]],[[2133,2173],[1,0]],[[2134,2173],[1,0]],[[2135,2173],[1,0]],[[2136,2173],[8,0]],[[2144,2173],[1,-1]],[[2145,2172],[15,0]],[[2160,2172],[1,0]],[[2161,2172],[1,0]],[[2162,2172],[1,-1]],[[2163,2171],[1,0]],[[2164,2171],[2,0]],[[2166,2171],[1,0]],[[2167,2171],[1,-1]],[[2168,2170],[2,0]],[[2170,2170],[1,-1]],[[2171,2169],[1,0]],[[2172,2169]],[[2172,2169],[6,-1]],[[2178,2168],[1,-1]],[[2179,2167]],[[4096,4096],[0,-4096],[-180,0],[-20,21],[-33,13],[-81,-2],[-57,-32],[-1754,0],[-7,69],[-2,284],[85,240],[-109,266],[-148,226],[-81,245],[87,327],[239,373],[151,147],[159,61],[-69,57],[-85,20],[-87,-9],[-79,-31],[-194,-146],[-355,-371],[-207,-153],[-238,-107],[-262,-45],[-269,19],[-141,-28],[-70,-103],[-38,-28],[-101,-195],[-150,-170],[0,3148],[4096,0]],[[0,948],[150,170],[101,195],[38,28],[70,103],[141,28],[269,-19],[262,45],[238,107],[207,153],[355,371],[194,146],[79,31],[87,9],[85,-20],[69,-57],[-159,-61],[-151,-147],[-239,-373],[-87,-327],[81,-245],[148,-226],[109,-266],[-85,-240],[2,-284],[7,-69]],[[3782,32],[-57,-32]],[[3916,0],[-20,21],[-33,13],[-81,-2]],[[3307,4096],[789,-2263]],[[1929,549],[-2,-8]],[[1918,515],[2,1]],[[286,1315],[69,-1]],[[296,773],[13,309]],[[296,773],[6,-16]],[[310,737],[-8,20]],[[310,737],[0,-1]],[[311,736],[-1,1]],[[413,1369],[0,-1]],[[312,735],[-1,1],[-1,-1],[1,-1],[1,1]],[[1972,57],[-4,8]],[[1996,28],[7,4]],[[369,1449],[1,0],[2,4],[-3,-4]],[[414,1371],[-45,78]],[[369,1449],[44,-79]],[[415,1368],[1,2],[-2,1],[-1,-2],[2,-1]],[[415,1368],[81,-65]],[[498,1303],[-82,66]],[[498,1303],[-2,-1],[1,-2],[2,1],[-1,2]],[[500,1275],[-2,25]],[[1972,48],[1,3]],[[1982,21],[-5,12]],[[2045,587],[-8,4]],[[118,4096],[183,-2380],[36,-241],[48,-7]],[[2153,554],[-20,0]],[[2269,860],[-82,-287]],[[2015,588],[-1,0]],[[2161,2150],[17,9]],[[393,1420],[-2,-3]],[[1894,650],[3,0]],[[1912,653],[2,0]],[[2026,661],[-3,4]],[[1144,85],[93,-3]],[[1658,1434],[0,7]],[[1658,1434],[11,-279]],[[1658,1443],[0,-2]],[[1689,1519],[-21,-41]],[[1669,1155]],[[1670,1155],[-1,0]],[[1683,1117]],[[1683,1117]],[[1683,1117],[73,-145]],[[1689,1519],[1,1]],[[1689,1520],[0,-1]],[[1691,1523],[-1,-1]],[[1691,1521],[0,2]],[[1691,1523],[67,126]],[[1756,972],[1,-2]],[[1757,970],[87,-117]],[[1759,1652],[-1,-3]],[[1759,1652],[3,4]],[[1764,1659],[-2,-3]],[[1764,1659],[34,69],[-9,69]],[[1782,1889],[2,3]],[[1782,1889],[5,-81]],[[1816,1958],[-32,-66]],[[1788,1806],[-1,-1]],[[1787,1808],[0,-3]],[[1787,1805],[0,-1]],[[1788,1806],[-1,2]],[[1787,1804],[2,-7]],[[1787,1804],[2,0]],[[1789,1804],[-1,2]],[[1789,1797],[0,7]],[[1816,1958],[6,13]],[[2014,2138],[-61,-74],[-110,-51],[-21,-42]],[[1877,820],[-31,32]],[[1877,820],[11,-9]],[[1948,754],[-60,57]],[[2007,695],[-3,2]],[[2005,696],[8,-7]],[[2014,2138],[11,16]],[[2021,669],[1,-4]],[[2050,2178],[-25,-24]],[[2050,2178],[36,-3]],[[2087,2175],[-5,3],[-15,3],[-8,0],[-9,-3]],[[2088,2175]],[[2300,2243],[-17,-14]],[[2300,2244],[1,0],[-1,2],[-1,-1],[1,-1]],[[2300,2244],[0,-1]],[[2300,2243],[0,1]],[[1690,1520],[1,0],[0,2],[-2,-1],[1,-1]],[[1846,852],[0,1],[-2,0],[0,-1],[2,0]],[[2088,2174],[0,1],[-2,0]],[[2086,2175],[1,-2],[1,1]],[[2020,586],[15,4]],[[449,4096],[-113,-2602],[23,-42]],[[449,4096],[-113,-2602],[23,-42]],[[1693,665],[2,1]],[[1698,667],[3,0]],[[1722,667],[3,0]],[[394,708],[6,0]],[[1966,660],[4,1]],[[1969,661],[-2,-1]],[[1981,662],[4,1],[-2,0],[-2,-1]],[[1144,1506],[2,0]],[[2024,605],[22,-15]],[[1954,63],[18,-15]],[[1980,42],[4,-2]],[[1967,660],[-1,0]],[[1924,654],[13,2],[10,1],[-23,-3]],[[1949,658],[5,0],[-3,0],[-2,0]],[[2184,2155],[-11,-6]],[[1233,128],[2,1]],[[1983,21],[13,7]],[[1943,517],[18,21]],[[2014,588],[1,-1]],[[2018,593],[-3,-5]],[[2015,588],[3,4]],[[309,1082],[-13,50]],[[2133,554],[-69,27],[-1,37]],[[2187,573],[-34,-19]],[[2114,2183],[0,1]],[[102,926],[17,21],[50,-6]],[[203,1186],[38,64]],[[216,1153],[-11,29]],[[613,1404],[143,-1],[128,36]],[[885,1437],[-15,-20]],[[1146,1506],[119,40]],[[1625,1638],[-3,73],[62,5]],[[1743,1717],[13,18]],[[1852,606],[-17,7]],[[1892,548]],[[2226,2190],[-1,2]],[[1941,515],[0,-1],[0,1]],[[2018,592],[1,3]],[[1941,515],[2,2]],[[3307,4096],[789,-2263]],[[388,1416],[-2,0]],[[391,1417],[8,-11]],[[423,1401],[10,0]],[[884,1439],[1,-2]],[[1658,1444],[0,-5]],[[1658,1439],[3,-109],[8,-175]],[[1670,1155],[-8,175],[-4,109]],[[1658,1439],[0,4]],[[1683,1117],[24,-71],[5,-6]],[[1712,1040],[130,-185],[1,-2]],[[1843,853],[-125,171],[-6,16]],[[1712,1040],[-29,77]],[[1691,1522],[99,181]],[[1691,1522],[-23,-44]],[[1756,1735],[43,72]],[[1795,1712],[3,11]],[[1798,1766],[2,-31]],[[1840,849],[3,4]],[[1895,548],[-3,0]],[[1892,548],[3,0]],[[1992,2098],[-68,-89],[-19,-116]],[[1941,291],[35,147]],[[2283,2229],[19,18]],[[1965,736],[-17,18]],[[1965,736],[2,-3]],[[1967,734],[-2,2]],[[1989,706],[-21,27]],[[1989,706],[6,-4]],[[1999,700],[-4,2]],[[1999,700],[6,-4]],[[2004,697],[-5,3]],[[2113,2199],[1,2]],[[2113,2201],[0,-2]],[[2113,2187],[0,12]],[[2114,2201],[1,1],[-1,1],[-1,-1],[1,-1]],[[2115,2205],[-1,-2]],[[2114,2203],[1,2]],[[2115,2205],[16,12]],[[2139,2223],[-8,-6]],[[2139,2223],[3,4]],[[2142,2227],[4,8]],[[2146,2235],[31,9]],[[2181,2244],[-4,0]],[[2184,2244],[-3,0]],[[2187,2244],[-3,0]],[[2187,2244],[3,0]],[[2194,2244],[-4,0]],[[2194,2244],[20,-14]],[[2215,2225],[-1,5]],[[2215,2225],[1,-3]],[[2216,2220],[0,2]],[[2217,2218],[-1,2]],[[2217,2218],[1,-5]],[[2218,2213],[10,-12]],[[2228,2201],[0,-1]],[[2228,2200],[0,1]],[[2228,2200],[0,-1],[1,0],[0,1]],[[2229,2200],[-1,0]],[[2230,2200],[-1,0]],[[2229,2199],[1,1]],[[2283,2229],[-53,-29]],[[169,941],[-21,88],[57,0]],[[276,1245],[-35,5]],[[303,1421],[-7,-46]],[[328,1443],[-25,-21]],[[350,1438],[3,-12]],[[371,1426],[22,-6]],[[539,1381],[-1,10]],[[993,1396],[9,22]],[[1625,1638],[-214,-7],[-132,-46]],[[1820,804],[25,6]],[[1976,438],[2,47]],[[2157,2145],[-7,-3]],[[2182,2158],[42,19]],[[302,1422],[1,-1]],[[303,1421],[1,0],[-1,1],[-1,0]],[[1864,806],[0,1],[0,-1]],[[1981,662],[-11,-1]],[[2000,665],[-15,-2]],[[394,708],[-1,1],[0,-1],[1,-1],[0,1]],[[4096,1985],[-744,2111]],[[2028,656],[0,-16]],[[328,1443],[21,-5]],[[954,1412],[-84,5]],[[1127,1442],[-125,-24]],[[1852,606],[1,0]],[[1892,548],[-3,7]],[[2157,2145],[4,5]],[[2182,2158],[-4,1]],[[2222,2181],[2,-4]],[[2024,626],[0,-2]],[[2028,619],[-4,5]],[[2028,640],[-1,-4]],[[2045,587],[-8,4]],[[2028,656],[-2,5]],[[1790,1703],[5,9]],[[1799,1730],[-1,-7]],[[2046,590],[868,-590]],[[2046,590],[868,-590]],[[0,1642],[326,-147]],[[326,1495],[6,-3]],[[332,1492],[40,-39]],[[0,1644],[326,-149]],[[326,1495],[6,-3]],[[332,1492],[64,-29]],[[2015,587],[1,-1],[4,0]],[[2037,591],[-22,-3]],[[4096,1136],[-1882,-616],[-88,15],[-81,51]],[[2111,2182],[-13,-4]],[[2113,2186],[0,1]],[[1870,602],[10,-1]],[[2225,2192],[-1,4]],[[1939,292],[2,33]],[[0,1539],[385,-71]],[[1975,486],[-41,-181]],[[1941,325],[37,160]],[[43,952],[59,-26]],[[205,1029],[72,47],[-61,77]],[[399,1406],[24,-5]],[[433,1401],[42,-26],[64,6]],[[538,1391],[75,13]],[[1127,1442],[17,64]],[[1265,1546],[14,39]],[[1801,1806],[-3,-40]],[[1801,1806],[-2,1]],[[1905,1893],[-85,-50],[-19,-37]],[[1832,717],[-39,13],[27,74]],[[1838,627],[-3,-14]],[[2095,2161],[-44,-3],[-59,-60]],[[1968,732],[19,-25]],[[1237,82],[-4,46]],[[1357,210],[-52,-47]],[[1454,205],[-97,6]],[[1536,168],[27,-18],[19,43]],[[1694,171],[79,152],[30,-1],[3,74],[112,119]],[[2022,665],[4,-4]],[[2158,2146],[15,3]],[[1939,285],[0,7]],[[363,1454],[-4,-2]],[[363,1454],[-4,-3]],[[364,1455],[-1,-1]],[[363,1454]],[[363,1454],[2,-3]],[[363,1454]],[[363,1454],[1,0]],[[365,1445],[-2,9]],[[1845,853],[-1,1]],[[1845,851],[1,-1]],[[2133,546],[-88,41]],[[2439,4096],[57,-1756],[-84,-1509],[-153,-270],[-93,-30],[-31,14]],[[2045,586],[-8,5]],[[314,735],[-3,0]],[[312,735],[2,0]],[[341,738],[-27,-3]],[[602,707],[228,-5],[194,83]],[[1062,789],[-18,-2]],[[1693,665],[-30,5]],[[1698,667],[-3,-1]],[[1722,667],[-21,0]],[[1824,646],[-99,21]],[[286,1315],[10,60]],[[1840,849],[24,-42]],[[2222,2181],[4,9]],[[43,952],[-43,-44]],[[205,1182],[-2,4]],[[954,1412],[39,-16]],[[1961,538],[44,67]],[[2018,592],[1,2],[-11,5],[-3,6]],[[2005,605],[2,-7],[6,-3],[5,-2]],[[1895,548],[34,1],[-34,-1]],[[1946,130],[-5,161]],[[2224,2196],[59,33]],[[1949,102],[3,1]],[[1952,63],[16,2]],[[1972,48],[5,-15]],[[1891,650],[0,-1]],[[1970,661],[-1,0]],[[1914,653],[-20,-3]],[[1917,653],[-2,0]],[[1915,653],[2,0]],[[1915,653],[0,1],[-1,-1]],[[1914,653],[1,-1],[0,1]],[[1923,654],[-6,-1]],[[1892,651],[0,-2],[1,0],[1,1]],[[1894,650],[-2,1]],[[1683,1117],[-1,3]],[[1698,667]],[[1852,644],[-11,-1]],[[0,1539],[385,-71]],[[2027,636],[-3,-10]],[[2003,32],[-19,8]],[[1968,733],[-1,1],[0,-1],[1,-1],[0,1]],[[4096,1985],[-744,2111]],[[2024,624],[0,2]],[[2027,636],[1,3]],[[1982,21],[1,-1],[0,1],[-1,0]],[[362,742],[-2,0]],[[362,742],[11,-2]],[[386,732],[-13,8]],[[386,732],[7,-9]],[[393,710],[0,13]],[[393,710],[0,-1]],[[393,709],[0,1]],[[395,708],[-1,0]],[[400,708],[21,2]],[[508,705],[8,0]],[[516,705],[-8,1]],[[535,706],[-19,-1]],[[1892,650],[-1,0]],[[1891,649],[1,0]],[[2014,665],[-3,0],[1,-1],[2,1]],[[2018,664],[-4,1]],[[506,705],[1,-1],[1,2]],[[508,706],[-1,1],[-1,-2]],[[0,1642],[332,-150],[40,-39]],[[333,1493],[-333,152]],[[333,1493],[63,-30]],[[1658,1444],[0,-1]],[[2045,586],[-8,5]],[[1832,655],[20,-11]],[[2133,546],[-88,41]],[[2426,4096],[70,-1756],[-84,-1509],[-153,-270],[-93,-30],[-31,14]],[[1085,0],[59,85]],[[1235,129],[4,78],[66,-44]],[[1357,211],[0,-1]],[[1536,168],[-82,37]],[[1694,171],[-112,22]],[[385,1468],[-385,63]],[[129,4096],[207,-2608],[49,-20]],[[1856,201],[-52,-65]],[[1804,136],[-12,-16]],[[1792,120],[-3,-4],[-28,-116]],[[1762,0],[30,120]],[[1792,120],[12,16]],[[1804,136],[52,64]],[[1932,296],[-2,-2]],[[1932,294],[3,11]],[[2015,587],[0,1]],[[353,1426]],[[370,1426],[-17,0]],[[1845,810],[19,-4]],[[1986,0]],[[350,1438],[0,1],[-1,0],[0,-2],[1,1]],[[370,1425],[1,0],[-1,1],[0,-1]],[[421,710],[80,-5]],[[506,706],[-5,-1]],[[501,705],[5,0]],[[1841,643],[-17,3]],[[1889,649],[-37,-5]],[[2011,665],[-11,0]],[[308,735],[-40,-7],[-268,-208]],[[291,1160],[-15,85]],[[310,735],[-2,0]],[[308,735],[2,-1]],[[379,1318],[-24,-4]],[[411,1368],[-4,-43]],[[276,1245],[10,70]],[[1656,1454],[1,1],[-1,0],[0,-1]],[[1656,1454],[1,0]],[[1657,1455],[0,1],[-1,-1]],[[1669,1155],[1,0]],[[1680,1128],[-1,4],[0,-4]],[[1680,1127],[1,-2],[-1,2]],[[1682,1120],[1,-3]],[[1673,1146],[3,-8]],[[1680,1127],[0,1],[-1,-1],[1,0]],[[1832,655],[0,62]],[[1841,643],[-3,-16]],[[1884,573],[-4,28]],[[1922,522],[19,-7]],[[2103,2162],[-8,-1]],[[2023,665],[-16,30]],[[2098,2178],[-8,-1]],[[2024,624],[-6,-31]],[[2019,595],[9,24]],[[1946,130],[6,-27]],[[1856,200],[76,94]],[[1930,294],[-74,-93]],[[400,708],[-5,0]],[[1924,654],[-1,0]],[[1657,1454],[1,-10]],[[1668,1478],[-11,-22]],[[1672,1148],[1,-2]],[[1676,1138],[3,-6]],[[1681,1125],[0,-1]],[[4096,1136],[-1882,-616],[-88,15],[-81,51]],[[296,1132],[-5,28]],[[407,1325],[-28,-7]],[[497,1300],[-25,-103],[19,-97],[-17,-88],[-2,-23],[13,-57],[46,-47],[59,-135],[-71,-447],[25,-160],[-16,-143]],[[528,0],[16,143],[-25,160],[71,447],[-59,136],[-45,46],[-13,56],[19,114],[-19,95],[27,78]],[[1934,305],[-2,-9]],[[1935,305],[6,20]],[[2135,545],[-2,1]],[[2028,639],[0,17]],[[360,742],[-19,-4]],[[535,706]],[[537,706],[-2,0]],[[535,706],[2,-1]],[[537,705],[1,0],[1,1]],[[539,706],[-2,1],[0,-2]],[[541,706],[-2,0]],[[539,705],[2,1]],[[566,706],[-25,0]],[[569,707],[-3,-1]],[[566,706],[3,0]],[[569,706],[2,-1],[0,2]],[[571,707],[-2,0],[0,-1]],[[571,706],[31,1],[-31,0]],[[1027,786],[-3,-1],[3,0]],[[1032,786],[-4,0]],[[1028,785],[4,1]],[[1044,787],[-12,-1]],[[1663,670],[-601,119]],[[2019,664],[-1,0]],[[2019,664],[3,1],[1,0],[-4,-1]],[[1027,785],[1,0],[1,1],[-2,0],[0,-1]],[[1972,48]],[[1984,547],[-9,-61]],[[1978,485],[20,88]],[[1853,606],[10,-1]],[[1863,605],[3,1]],[[1870,602],[-4,4]],[[1889,555],[-5,18]],[[1941,514],[35,-5]],[[1952,63],[-3,39]],[[1927,541],[-5,-19]],[[1949,658],[-2,-1]],[[1957,659],[-3,-1]],[[2024,605],[22,-15]],[[0,1531],[385,-63]],[[2135,545],[-2,1]],[[1978,485],[-2,24]],[[2103,2162],[18,-32],[29,12]],[[2014,588],[-18,-16],[-12,-25]],[[1998,573],[17,14]],[[1743,1717],[-59,-1]],[[1800,1735],[-1,-5]],[[1973,51],[-1,6]],[[1986,0],[-3,20]],[[0,0],[0,948],[150,170],[101,195],[38,28],[70,103],[141,28],[269,-19],[262,45],[238,107],[207,153],[355,371],[194,146],[79,31],[87,9],[85,-20],[69,-57],[-159,-61],[-151,-147],[-239,-373],[-87,-327],[81,-245],[148,-226],[109,-266],[-85,-240],[2,-284],[7,-69],[-1971,0]],[[3725,0],[57,32],[81,2],[33,-13],[20,-21],[-191,0]],[[1931,0],[-82,102],[12,162],[64,32],[38,-11],[8,-285],[-40,0]],[[2026,644],[21,-51],[-42,-119],[-81,33],[-124,173],[3,27],[174,56],[49,-119]],[[500,608],[-152,99],[35,101],[75,26],[68,-53],[16,-135],[-42,-38]],[[2186,2177],[-65,-63],[-26,46],[16,90],[124,55],[41,-10],[8,-81],[-98,-37]],[[1902,2],[50,58],[-7,81],[19,-1],[9,-90],[30,-29],[-14,-21],[-87,2]],[[2119,746],[17,242],[50,-2],[139,-80],[-112,-318],[-80,-44],[-14,202]]]}