{"objects":{"water":{"type":"GeometryCollection","geometries":[{"type":"MultiPolygon","properties":{"source":"naturalearthdata.com","kind":"ocean","area":1576712559132672,"sort_rank":200,"min_zoom":0.0,"id":1},"arcs":[[[80]],[[81]]]},{"type":"MultiLineString","properties":{"source":"naturalearthdata.com","kind":"ocean","sort_rank":205,"boundary":true,"min_zoom":0.0,"id":19},"arcs":[[82],[83]]},{"type":"MultiLineString","properties":{"source":"naturalearthdata.com","kind":"ocean","sort_rank":205,"boundary":true,"min_zoom":0.0,"id":1240},"arcs":[[84],[85]]}]},"buildings":{"type":"GeometryCollection","geometries":[]},"places":{"type":"GeometryCollection","geometries":[{"type":"Point","properties":{"name:ka":"\u10dd\u10e0\u10f0\u10e3\u10e1\u10d8","name:mr":"\u0906\u0930\u094d\u0939\u0941\u0938","name:ko":"\uc624\ub974\ud6c4\uc2a4","name:ar":"\u0622\u0631\u0647\u0648\u0633","name:is":"\u00c1r\u00f3sar","name:be":"\u041e\u0440\u0445\u0443\u0441","name:os":"\u041e\u0440\u0445\u0443\u0441","name:ru":"\u041e\u0440\u0445\u0443\u0441","name:mn":"\u041e\u0440\u0445\u0443\u0441","old_name:de":"Arenhusen","name:mk":"\u041e\u0440\u0445\u0443\u0441","name:fa":"\u0622\u0631\u0647\u0648\u0633","kind_detail":"city","id":26559213,"source":"openstreetmap.org","name:zh":"\u5965\u80e1\u65af","name:hy":"\u0555\u0580\u0570\u0578\u0582\u057d","name:lv":"Orh\u016bsa","name:ja":"\u30aa\u30fc\u30d5\u30b9","name:lt":"Orhusas","name:he":"\u05d0\u05d5\u05e8\u05d4\u05d5\u05e1","kind":"locality","name:la":"Aarhusium","name:uk":"\u041e\u0440\u0445\u0443\u0441","old_name":"\u00c5rhus;Aarhus;Aros","name:sv":"\u00c5rhus","name:bg":"\u041e\u0440\u0445\u0443\u0441","name:sr":"\u041e\u0440\u0445\u0443\u0441","population":256018,"name:el":"\u038f\u03c1\u03c7\u03bf\u03c5\u03c2","name:eo":"Arhuzo","name":"Aarhus","min_zoom":8.0,"name:th":"\u0e2d\u0e2d\u0e23\u0e4c\u0e2e\u0e39\u0e2a","name:et":"\u00c5rhus"},"coordinates":[1077,1952]},{"type":"Point","properties":{"kind":"locality","name:lv":"Ranersa","name":"Randers","name:lt":"Randersas","kind_detail":"city","source":"openstreetmap.org","min_zoom":8.0,"name:uk":"\u0420\u0430\u043d\u043d\u0435\u0440\u0441","name:ru":"\u0420\u0430\u043d\u043d\u0435\u0440\u0441","id":26559154,"population":61000},"coordinates":[563,3585]},{"type":"Point","properties":{"kind":"locality","name":"Horsens","name:lt":"Horsensas","kind_detail":"city","source":"openstreetmap.org","min_zoom":8.0,"name:uk":"\u0425\u043e\u0440\u0441\u0435\u043d\u0441","name:ru":"\u0425\u043e\u0440\u0441\u0435\u043d\u0441","id":1368129781,"population":52998},"coordinates":[2,443]},{"type":"Point","properties":{"kind":"locality","name":"Gren\u00e5","kind_detail":"town","name:de":"Grenaa","source":"openstreetmap.org","min_zoom":8.0,"name:ru":"\u0413\u0440\u0435\u043d\u0430","id":26559253,"population":14317},"coordinates":[3093,3276]},{"type":"Point","properties":{"kind":"locality","name:nl":"Skanderborg (plaats)","name":"Skanderborg","kind_detail":"town","source":"openstreetmap.org","min_zoom":8.0,"name:ru":"\u0421\u043a\u0430\u043d\u043d\u0435\u0440\u0431\u043e\u0440\u0433","name:zh":"\u65af\u574e\u8a25\u5821\u81ea\u6cbb\u5e02","id":26559266,"population":13543},"coordinates":[256,1353]},{"type":"Point","properties":{"kind":"locality","name:nl":"Odder (plaats)","name":"Odder","kind_detail":"town","name:sr":"\u041e\u0434\u0435\u0440","source":"openstreetmap.org","min_zoom":8.0,"name:pl":"Odder (Dania)","id":26559275,"name:es":"Odder (ciudad)","population":11009},"coordinates":[896,1042]},{"type":"Point","properties":{"source":"openstreetmap.org","kind":"locality","name":"Hadsten","kind_detail":"town","population":7020,"min_zoom":8.0,"id":26559218},"coordinates":[608,2891]},{"type":"Point","properties":{"kind":"locality","name":"Ebeltoft","name:no":"Ebeltoft kommune","kind_detail":"town","source":"openstreetmap.org","min_zoom":8.0,"id":26559015,"population":5888},"coordinates":[2442,2214]}]},"transit":{"type":"GeometryCollection","geometries":[{"type":"LineString","properties":{"kind":"train","name":"Aarhus - Aalborg - Frederikshavn","sort_rank":275,"source":"openstreetmap.org","min_zoom":6.0,"operator":"DSB","ref":"70","osm_relation":true},"arcs":[5]},{"type":"LineString","properties":{"kind":"train","name":"ARRIVA Aarhus - Skjern","sort_rank":275,"source":"openstreetmap.org","min_zoom":6.0,"operator":"ARRIVA","ref":"53","osm_relation":true},"arcs":[6]},{"type":"MultiLineString","properties":{"kind":"train","network":"DB InterCity","service":"long_distance","sort_rank":275,"source":"openstreetmap.org","min_zoom":5.0,"operator":"DB Fernverkehr AG","ref":"IC76","osm_relation":true,"name":"IC76 Aarhus - Hamburg"},"arcs":[[7],[8],[9]]},{"type":"LineString","properties":{"kind":"train","name":"Aarhus - Fredericia - Odense","sort_rank":275,"source":"openstreetmap.org","min_zoom":6.0,"operator":"DSB","ref":"60","osm_relation":true},"arcs":[10]},{"type":"MultiLineString","properties":{"kind":"train","name":"ARRIVA Struer - Aarhus","sort_rank":275,"source":"openstreetmap.org","min_zoom":6.0,"operator":"ARRIVA","ref":"54","osm_relation":true},"arcs":[[11],[12],[13],[14],[15],[16],[17],[18],[19],[20],[21],[22],[23],[24],[25],[26],[27],[28],[29],[30],[31],[32],[33],[34],[35],[36],[37],[38],[39],[40],[41],[42],[43],[44],[45],[46],[47],[48],[49],[50],[51],[52],[53],[54],[55],[56],[57],[58],[59],[60],[61],[62],[63],[64],[65],[66],[67],[68],[69],[70],[71],[72],[73],[74],[75],[76]]},{"type":"MultiLineString","properties":{"kind":"train","network":"DB InterCity","service":"long_distance","sort_rank":275,"source":"openstreetmap.org","min_zoom":5.0,"operator":"DB Fernverkehr AG","ref":"IC76","osm_relation":true,"name":"IC76 Hamburg - Aarhus"},"arcs":[[77],[78],[79]]}]},"pois":{"type":"GeometryCollection","geometries":[{"type":"Point","properties":{"source":"openstreetmap.org","kind":"military","name":"Hevring Skydeterr\u00e6n","area":11926400,"tier":3,"min_zoom":8.0,"id":169294633},"coordinates":[1679,3902]}]},"boundaries":{"type":"GeometryCollection","geometries":[{"type":"MultiLineString","properties":{"name:kg":"Danemark","name:ka":"\u10d3\u10d0\u10dc\u10d8\u10d0","name:ko":"\ub374\ub9c8\ud06c","name:cv":"\u0414\u0430\u043d\u0438","name:cu":"\u0414\u0430\u043d\u0457\ua657","name:kl":"Danmarki","name:cs":"D\u00e1nsko","name:ki":"Denmark","name:co":"Danimarca","name:kv":"\u0414\u0430\u043d\u0438\u044f","name:ku":"Dan\u00eemarka","name:tl":"Dinamarka","name:ce":"\u0414\u0430\u043d\u0438","name:ta":"\u0b9f\u0bc6\u0ba9\u0bcd\u0bae\u0bbe\u0bb0\u0bcd\u0b95\u0bcd","name:tg":"\u0414\u0430\u043d\u0438\u044f","name:ca":"Dinamarca","name:te":"\u0c21\u0c46\u0c28\u0c4d\u0c2e\u0c3e\u0c30\u0c4d\u0c15\u0c4d","name:cy":"Denmarc","name:qu":"Dansuyu","name:de":"D\u00e4nemark","name:dz":"\u0f4c\u0f7a\u0f53\u0f0b\u0f58\u0f71\u0f40\u0f0b","source":"openstreetmap.org","name:kn":"\u0ca1\u0cc6\u0ca8\u0ccd\u0cae\u0cbe\u0cb0\u0ccd\u0c95\u0ccd\u200c","name:dv":"\u0791\u07ac\u0782\u07b0\u0789\u07a7\u0786\u07aa","name:lv":"D\u0101nija","name:lt":"Danija","name:uz":"Daniya","name:kk":"\u0414\u0430\u043d\u0438\u044f","name:ur":"\u0688\u0646\u0645\u0627\u0631\u06a9","name:lb":"D\u00e4nemark","name:la":"Dania","name:lg":"Denimaaka","name:uk":"\u0414\u0430\u043d\u0456\u044f","name:ug":"\u062f\u0627\u0646\u0649\u064a\u06d5","name:li":"Denemarke","name:ln":"Danemark","name:el":"\u0394\u03b1\u03bd\u03af\u03b1","name:eo":"Danujo","name:en":"Denmark","name":"Danmark","name:tk":"Dani\u00fda","name:ee":"Denmark","name:th":"\u0e1b\u0e23\u0e30\u0e40\u0e17\u0e28\u0e40\u0e14\u0e19\u0e21\u0e32\u0e23\u0e4c\u0e01","name:eu":"Danimarka","name:et":"Taani","name:es":"Dinamarca","name:rm":"Danemarc","name:rn":"Danemarke","name:az":"Danimarka","name:ie":"Dania","name:id":"Denmark","name:ar":"\u0627\u0644\u062f\u0646\u0645\u0627\u0631\u0643","name:io":"Dania","name:is":"Danm\u00f6rk","name:am":"\u12f4\u1295\u121b\u122d\u12ad","name:it":"Danimarca","name:an":"Dinamarca","name:ru":"\u0414\u0430\u043d\u0438\u044f","name:rw":"Danimarike","name:af":"Denemarke","name:zu":"IDenimaki","kind_detail":"2","name:ky":"\u0414\u0430\u043d\u0438\u044f","name:zh-yue":"\u4e39\u9ea5","name:zh":"\u4e39\u9ea6","name:so":"Denmark","name:sl":"Danska","name:sk":"D\u00e1nsko","name:ja":"\u30c7\u30f3\u30de\u30fc\u30af","name:si":"\u0da9\u0dd9\u0db1\u0dca\u0db8\u0dcf\u0dbb\u0dca\u0d9a\u0dba","name:sh":"Danska","name:se":"D\u00e1nm\u00e1rku","name:sc":"Danimarca","name:sa":"\u0921\u0947\u0928\u092e\u093e\u0930\u094d\u0915","name:bs":"Danska","name:bn":"\u09a1\u09c7\u09a8\u09ae\u09be\u09b0\u09cd\u0995","name:bo":"\u0f51\u0f53\u0f0b\u0f58\u0fb2\u0f42","name:bi":"Denmark","name:sw":"Denmark","name:be":"\u0414\u0430\u043d\u0456\u044f","name:su":"D\u00e9nmark","name:bg":"\u0414\u0430\u043d\u0438\u044f","name:ss":"IDenimakhi","name:ba":"\u0414\u0430\u043d\u0438\u044f","name:sq":"Danimarka","name:jv":"Denmark","name:pt":"Dinamarca","name:ps":"\u0689\u06d0\u0646\u0645\u0627\u0631\u06a9","name:oc":"Danemarc","min_zoom":8.0,"name:ro":"Danemarca","name:zh-min-nan":"Tan-kok","name:os":"\u0414\u0430\u043d\u0438","name:or":"\u0b21\u0b47\u0b28\u0b2e\u0b3e\u0b30\u0b4d\u0b15","name:pl":"Dania","name:st":"Denmark","sort_rank":262,"name:sr":"\u0414\u0430\u043d\u0441\u043a\u0430","osm_relation":true,"name:tr":"Danimarka","name:hi":"\u0921\u0947\u0928\u092e\u093e\u0930\u094d\u0915","name:he":"\u05d3\u05e0\u05de\u05e8\u05e7","name:hy":"\u0534\u0561\u0576\u056b\u0561","name:ht":"Danmak","name:hu":"D\u00e1nia","name:hr":"Danska","kind":"country","name:yi":"\u05d3\u05e2\u05e0\u05de\u05d0\u05e8\u05e7","name:yo":"D\u1eb9\u0301nm\u00e1rk\u00ec","name:mt":"Danimarka","alt_name:eo":"Danio;Danlando","name:ms":"Denmark","name:mr":"\u0921\u0947\u0928\u094d\u092e\u093e\u0930\u094d\u0915","name:my":"\u1012\u102d\u1014\u103a\u1038\u1019\u1010\u103a\u1014\u102d\u102f\u1004\u103a\u1004\u1036","official_name":"Kongeriget Danmark","name:mg":"Danmarka","name:vi":"\u0110an M\u1ea1ch","name:ml":"\u0d21\u0d46\u0d28\u0d4d\u0d2e\u0d3e\u0d7c\u0d15\u0d4d\u0d15\u0d4d","name:mn":"\u0414\u0430\u043d\u0438","name:mi":"Tenem\u0101ka","id":-50046,"name:mk":"\u0414\u0430\u043d\u0441\u043a\u0430","name:vo":"Dan\u00e4n","name:fa":"\u062f\u0627\u0646\u0645\u0627\u0631\u06a9","name:fi":"Tanska","name:fr":"Danemark","name:fy":"Denemark","name:nl":"Denemarken","name:na":"Denemark","name:ne":"\u0921\u0947\u0928\u092e\u093e\u0930\u094d\u0915","name:wo":"Danmaark","name:nv":"D\u00e9inish Dine\u02bc\u00e9 Bik\u00e9yah","name:ga":"An Danmhairg","name:gd":"An Danmhairg","name:gn":"Ndinamayka","name:gl":"Dinamarca","maritime_boundary":true,"name:gv":"Yn Danvarg","name:tt":"\u0414\u0430\u043d\u0438\u044f"},"arcs":[[0],[1]]},{"type":"LineString","properties":{"name:pt":"Jutl\u00e2ndia Central","name:ro":"Regiunea Midtjylland","name:ms":"Wilayah Midtjylland","name:ko":"\uc911\uc559\uc70c\ub780 \uc9c0\uc5ed","name:kk":"\u041e\u0440\u0442\u0430\u043b\u044b\u049b \u042e\u0442\u043b\u0430\u043d\u0434\u0438\u044f","min_zoom":8.0,"name:it":"Jutland centrale","name:vi":"Trung Jutland","name:os":"\u0426\u0435\u043d\u0442\u0440\u0430\u043b\u043e\u043d \u042e\u0442\u043b\u0430\u043d\u0434\u0438","name:ru":"\u0426\u0435\u043d\u0442\u0440\u0430\u043b\u044c\u043d\u0430\u044f \u042e\u0442\u043b\u0430\u043d\u0434\u0438\u044f","name:ce":"\u042e\u043a\u043a\u044a\u0435\u0440\u0430 \u042e\u0442\u043b\u0430\u043d\u0434\u0438","name:de":"Region Mittelj\u00fctland","name:pl":"Jutlandia \u015arodkowa","name:mk":"\u0421\u0440\u0435\u0434\u043d\u0430 \u0414\u0430\u043d\u0441\u043a\u0430","name:fa":"\u0627\u0633\u062a\u0627\u0646 \u0645\u06cc\u062f\u06cc\u0648\u0644\u0646\u062f","name:bg":"\u0426\u0435\u043d\u0442\u0440\u0430\u043b\u043d\u0430 \u042e\u0442\u043b\u0430\u043d\u0434\u0438\u044f","name:ka":"\u10ea\u10d4\u10dc\u10e2\u10e0\u10d0\u10da\u10e3\u10e0\u10d8 \u10d8\u10e3\u10e2\u10da\u10d0\u10dc\u10d3\u10d8\u10d8\u10e1 \u10e0\u10d4\u10d2\u10d8\u10dd\u10dc\u10d8","source":"openstreetmap.org","sort_rank":256,"kind_detail":"4","id":-1319935,"name:fo":"Regi\u00f3n Mi\u00f0j\u00fatland","name:oc":"Jutl\u00e0ndia Centrala","name:fr":"Jutland central","name:ca":"Jutl\u00e0ndia Central","name:fy":"Midden-Jutl\u00e2n","name:zh":"\u4e2d\u65e5\u5fb7\u5170\u5927\u533a","name:lv":"Vidusjitlandes re\u0123ions","name:ja":"\u4e2d\u592e\u30e6\u30e9\u30f3\u5730\u57df","name:lt":"Vidurio Jutlandijos regionas","name:sh":"Sredi\u0161nji Jylland","name:se":"Gaska-Jyll\u00e1ndda regiuvdna","name:eo":"Regiono Meza Jutlando","name:br":"Kreizjutland","name:la":"Iutia Media","name:sk":"Stredn\u00e9 Jutsko","name:uk":"\u0426\u0435\u043d\u0442\u0440\u0430\u043b\u044c\u043d\u0430 \u042e\u0442\u043b\u0430\u043d\u0434\u0456\u044f","name:hy":"\u053f\u0565\u0576\u057f\u0580\u0578\u0576\u0561\u056f\u0561\u0576 \u0545\u0578\u0582\u057f\u056c\u0561\u0576\u0564\u056b\u0561 \u057f\u0561\u0580\u0561\u056e\u0561\u0577\u0580\u057b\u0561\u0576","name:sv":"Region Mittjylland","name:hu":"Midtjylland r\u00e9gi\u00f3","name:hr":"Sredi\u0161nji Jylland","name:sr":"\u0421\u0440\u0435\u0434\u0438\u0448\u045a\u0430 \u0414\u0430\u043d\u0441\u043a\u0430","osm_relation":true,"kind":"region","name:en":"Central Denmark Region","name":"Region Midtjylland","maritime_boundary":true,"name:fi":"Keski-Jyllannin alue","name:eu":"Erdialdeko Jutlandia","name:et":"Kesk-J\u00fc\u00fctimaa","name:es":"Jutlandia Central"},"arcs":[2]},{"type":"LineString","properties":{"name:pt":"Jutl\u00e2ndia Central","name:ro":"Regiunea Midtjylland","name:ms":"Wilayah Midtjylland","name:ko":"\uc911\uc559\uc70c\ub780 \uc9c0\uc5ed","name:kk":"\u041e\u0440\u0442\u0430\u043b\u044b\u049b \u042e\u0442\u043b\u0430\u043d\u0434\u0438\u044f","min_zoom":8.0,"name:it":"Jutland centrale","name:vi":"Trung Jutland","name:os":"\u0426\u0435\u043d\u0442\u0440\u0430\u043b\u043e\u043d \u042e\u0442\u043b\u0430\u043d\u0434\u0438","name:ru":"\u0426\u0435\u043d\u0442\u0440\u0430\u043b\u044c\u043d\u0430\u044f \u042e\u0442\u043b\u0430\u043d\u0434\u0438\u044f","name:ce":"\u042e\u043a\u043a\u044a\u0435\u0440\u0430 \u042e\u0442\u043b\u0430\u043d\u0434\u0438","name:de":"Region Mittelj\u00fctland","name:pl":"Jutlandia \u015arodkowa","name:mk":"\u0421\u0440\u0435\u0434\u043d\u0430 \u0414\u0430\u043d\u0441\u043a\u0430","name:fa":"\u0627\u0633\u062a\u0627\u0646 \u0645\u06cc\u062f\u06cc\u0648\u0644\u0646\u062f","name:bg":"\u0426\u0435\u043d\u0442\u0440\u0430\u043b\u043d\u0430 \u042e\u0442\u043b\u0430\u043d\u0434\u0438\u044f","name:ka":"\u10ea\u10d4\u10dc\u10e2\u10e0\u10d0\u10da\u10e3\u10e0\u10d8 \u10d8\u10e3\u10e2\u10da\u10d0\u10dc\u10d3\u10d8\u10d8\u10e1 \u10e0\u10d4\u10d2\u10d8\u10dd\u10dc\u10d8","source":"openstreetmap.org","sort_rank":256,"kind_detail":"4","id":-1319935,"name:fo":"Regi\u00f3n Mi\u00f0j\u00fatland","name:oc":"Jutl\u00e0ndia Centrala","name:fr":"Jutland central","name:ca":"Jutl\u00e0ndia Central","name:fy":"Midden-Jutl\u00e2n","name:zh":"\u4e2d\u65e5\u5fb7\u5170\u5927\u533a","name:lv":"Vidusjitlandes re\u0123ions","name:ja":"\u4e2d\u592e\u30e6\u30e9\u30f3\u5730\u57df","name:lt":"Vidurio Jutlandijos regionas","name:sh":"Sredi\u0161nji Jylland","name:se":"Gaska-Jyll\u00e1ndda regiuvdna","name:eo":"Regiono Meza Jutlando","name:br":"Kreizjutland","name:la":"Iutia Media","name:sk":"Stredn\u00e9 Jutsko","name:uk":"\u0426\u0435\u043d\u0442\u0440\u0430\u043b\u044c\u043d\u0430 \u042e\u0442\u043b\u0430\u043d\u0434\u0456\u044f","name:hy":"\u053f\u0565\u0576\u057f\u0580\u0578\u0576\u0561\u056f\u0561\u0576 \u0545\u0578\u0582\u057f\u056c\u0561\u0576\u0564\u056b\u0561 \u057f\u0561\u0580\u0561\u056e\u0561\u0577\u0580\u057b\u0561\u0576","name:sv":"Region Mittjylland","name:hu":"Midtjylland r\u00e9gi\u00f3","name:hr":"Sredi\u0161nji Jylland","name:sr":"\u0421\u0440\u0435\u0434\u0438\u0448\u045a\u0430 \u0414\u0430\u043d\u0441\u043a\u0430","osm_relation":true,"kind":"region","name:en":"Central Denmark Region","name":"Region Midtjylland","maritime_boundary":true,"name:fi":"Keski-Jyllannin alue","name:eu":"Erdialdeko Jutlandia","name:et":"Kesk-J\u00fc\u00fctimaa","name:es":"Jutlandia Central"},"arcs":[3]},{"type":"LineString","properties":{"name:pt":"Jutl\u00e2ndia Central","name:ro":"Regiunea Midtjylland","name:ms":"Wilayah Midtjylland","name:ko":"\uc911\uc559\uc70c\ub780 \uc9c0\uc5ed","name:kk":"\u041e\u0440\u0442\u0430\u043b\u044b\u049b \u042e\u0442\u043b\u0430\u043d\u0434\u0438\u044f","min_zoom":8.0,"name:it":"Jutland centrale","name:vi":"Trung Jutland","name:os":"\u0426\u0435\u043d\u0442\u0440\u0430\u043b\u043e\u043d \u042e\u0442\u043b\u0430\u043d\u0434\u0438","name:ru":"\u0426\u0435\u043d\u0442\u0440\u0430\u043b\u044c\u043d\u0430\u044f \u042e\u0442\u043b\u0430\u043d\u0434\u0438\u044f","name:ce":"\u042e\u043a\u043a\u044a\u0435\u0440\u0430 \u042e\u0442\u043b\u0430\u043d\u0434\u0438","name:de":"Region Mittelj\u00fctland","name:pl":"Jutlandia \u015arodkowa","name:mk":"\u0421\u0440\u0435\u0434\u043d\u0430 \u0414\u0430\u043d\u0441\u043a\u0430","name:fa":"\u0627\u0633\u062a\u0627\u0646 \u0645\u06cc\u062f\u06cc\u0648\u0644\u0646\u062f","name:bg":"\u0426\u0435\u043d\u0442\u0440\u0430\u043b\u043d\u0430 \u042e\u0442\u043b\u0430\u043d\u0434\u0438\u044f","name:ka":"\u10ea\u10d4\u10dc\u10e2\u10e0\u10d0\u10da\u10e3\u10e0\u10d8 \u10d8\u10e3\u10e2\u10da\u10d0\u10dc\u10d3\u10d8\u10d8\u10e1 \u10e0\u10d4\u10d2\u10d8\u10dd\u10dc\u10d8","source":"openstreetmap.org","sort_rank":256,"kind_detail":"4","id":-1319935,"name:fo":"Regi\u00f3n Mi\u00f0j\u00fatland","name:oc":"Jutl\u00e0ndia Centrala","name:fr":"Jutland central","name:ca":"Jutl\u00e0ndia Central","name:fy":"Midden-Jutl\u00e2n","name:zh":"\u4e2d\u65e5\u5fb7\u5170\u5927\u533a","name:lv":"Vidusjitlandes re\u0123ions","name:ja":"\u4e2d\u592e\u30e6\u30e9\u30f3\u5730\u57df","name:lt":"Vidurio Jutlandijos regionas","name:sh":"Sredi\u0161nji Jylland","name:se":"Gaska-Jyll\u00e1ndda regiuvdna","name:eo":"Regiono Meza Jutlando","name:br":"Kreizjutland","name:la":"Iutia Media","name:sk":"Stredn\u00e9 Jutsko","name:uk":"\u0426\u0435\u043d\u0442\u0440\u0430\u043b\u044c\u043d\u0430 \u042e\u0442\u043b\u0430\u043d\u0434\u0456\u044f","name:hy":"\u053f\u0565\u0576\u057f\u0580\u0578\u0576\u0561\u056f\u0561\u0576 \u0545\u0578\u0582\u057f\u056c\u0561\u0576\u0564\u056b\u0561 \u057f\u0561\u0580\u0561\u056e\u0561\u0577\u0580\u057b\u0561\u0576","name:sv":"Region Mittjylland","name:hu":"Midtjylland r\u00e9gi\u00f3","name:hr":"Sredi\u0161nji Jylland","name:sr":"\u0421\u0440\u0435\u0434\u0438\u0448\u045a\u0430 \u0414\u0430\u043d\u0441\u043a\u0430","osm_relation":true,"kind":"region","name:en":"Central Denmark Region","name":"Region Midtjylland","maritime_boundary":true,"name:fi":"Keski-Jyllannin alue","name:eu":"Erdialdeko Jutlandia","name:et":"Kesk-J\u00fc\u00fctimaa","name:es":"Jutlandia Central"},"arcs":[4]}]},"roads":{"type":"GeometryCollection","geometries":[{"type":"LineString","properties":{"source":"openstreetmap.org","kind":"major_road","sort_rank":380,"kind_detail":"primary","ref":"26","min_zoom":8.0},"arcs":[86]},{"type":"MultiLineString","properties":{"kind":"major_road","sort_rank":377,"landuse_kind":"urban_area","is_bicycle_related":true,"bicycle_shield_text":"5","bicycle_network":"ncn","source":"openstreetmap.org","min_zoom":8.0,"kind_detail":"tertiary","cycleway":"track"},"arcs":[[87],[88],[89],[90],[91],[92]]},{"type":"LineString","properties":{"kind":"major_road","sort_rank":380,"kind_detail":"primary","is_bicycle_related":true,"bicycle_shield_text":"2","bicycle_network":"ncn","source":"openstreetmap.org","min_zoom":8.0,"ref":"21","id":329705733},"arcs":[93]},{"type":"LineString","properties":{"bus_network":null,"sort_rank":377,"landuse_kind":"urban_area","is_bicycle_related":true,"kind":"major_road","bicycle_shield_text":"4","bicycle_network":"ncn","source":"openstreetmap.org","min_zoom":8.0,"bus_shield_text":"12","kind_detail":"tertiary"},"arcs":[94]},{"type":"LineString","properties":{"source":"openstreetmap.org","kind":"ferry","name":"M\/S Dagmar","sort_rank":355,"min_zoom":8.0,"id":47401154},"arcs":[95]},{"type":"LineString","properties":{"kind":"ferry","name":"Odden - \u00c5rhus","sort_rank":355,"landuse_kind":"urban_area","is_bicycle_related":true,"source":"openstreetmap.org","min_zoom":8.0,"id":12648578},"arcs":[96]},{"type":"MultiLineString","properties":{"kind":"minor_road","sort_rank":360,"landuse_kind":"residential","is_bicycle_related":true,"bicycle_shield_text":"5","bicycle_network":"ncn","source":"openstreetmap.org","min_zoom":8.0,"kind_detail":"residential"},"arcs":[[97],[98]]},{"type":"LineString","properties":{"kind":"ferry","name":"Snaptun - Hjarn\u00f8","sort_rank":355,"is_bicycle_related":true,"source":"openstreetmap.org","min_zoom":8.0,"id":-451291,"osm_relation":true},"arcs":[99]},{"type":"MultiLineString","properties":{"kind":"path","sort_rank":354,"kind_detail":"footway","is_bicycle_related":true,"bicycle_shield_text":"5","bicycle_network":"ncn","source":"openstreetmap.org","min_zoom":8.0},"arcs":[[100],[101]]},{"type":"MultiLineString","properties":{"source":"openstreetmap.org","kind":"major_road","landuse_kind":"park","sort_rank":381,"kind_detail":"trunk","ref":"15;21","min_zoom":8.0},"arcs":[[102],[103],[104]]},{"type":"MultiLineString","properties":{"kind":"path","sort_rank":354,"kind_detail":"cycleway","is_bicycle_related":true,"bicycle_shield_text":"2","bicycle_network":"ncn","source":"openstreetmap.org","min_zoom":8.0,"landuse_kind":"urban_area"},"arcs":[[105],[106]]},{"type":"MultiLineString","properties":{"kind":"minor_road","sort_rank":358,"landuse_kind":"urban_area","is_bicycle_related":true,"bicycle_shield_text":"5","bicycle_network":"ncn","source":"openstreetmap.org","min_zoom":8.0,"kind_detail":"service"},"arcs":[[107],[108]]},{"type":"LineString","properties":{"kind":"minor_road","cycleway_left":"opposite_lane","sort_rank":360,"kind_detail":"residential","is_bicycle_related":true,"bicycle_shield_text":"5","bicycle_network":"ncn","source":"openstreetmap.org","min_zoom":8.0,"landuse_kind":"urban_area","id":517427304},"arcs":[109]},{"type":"LineString","properties":{"kind":"major_road","sort_rank":380,"kind_detail":"primary","is_bicycle_related":true,"cycleway":"track","source":"openstreetmap.org","min_zoom":8.0,"landuse_kind":"urban_area","ref":"26"},"arcs":[110]},{"type":"LineString","properties":{"cycleway_right":"lane","sort_rank":379,"landuse_kind":"residential","is_bicycle_related":true,"kind":"major_road","bicycle_shield_text":"2","bicycle_network":"ncn","source":"openstreetmap.org","min_zoom":8.0,"kind_detail":"secondary","ref":"180"},"arcs":[111]},{"type":"MultiLineString","properties":{"kind":"minor_road","sort_rank":360,"landuse_kind":"urban_area","is_bicycle_related":true,"bicycle_shield_text":"4","bicycle_network":"ncn","source":"openstreetmap.org","min_zoom":8.0,"kind_detail":"unclassified"},"arcs":[[112],[113],[114],[115],[116],[117],[118]]},{"type":"MultiLineString","properties":{"kind":"major_road","sort_rank":379,"kind_detail":"secondary","is_bicycle_related":true,"bicycle_shield_text":"2","bicycle_network":"ncn","source":"openstreetmap.org","min_zoom":8.0,"ref":"531"},"arcs":[[119],[120]]},{"type":"MultiLineString","properties":{"bus_network":null,"sort_rank":377,"landuse_kind":"urban_area","is_bicycle_related":true,"kind":"major_road","bicycle_shield_text":"4","bicycle_network":"ncn","source":"openstreetmap.org","min_zoom":8.0,"bus_shield_text":"12","kind_detail":"tertiary","cycleway":"lane"},"arcs":[[121],[122],[123]]},{"type":"MultiLineString","properties":{"kind":"path","sort_rank":354,"landuse_kind":"urban_area","is_bicycle_related":true,"bicycle_shield_text":"5","bicycle_network":"ncn","source":"openstreetmap.org","min_zoom":8.0,"kind_detail":"track"},"arcs":[[124],[125]]},{"type":"LineString","properties":{"kind":"path","sort_rank":354,"kind_detail":"path","is_bicycle_related":true,"bicycle_shield_text":"2","bicycle_network":"ncn","source":"openstreetmap.org","min_zoom":8.0,"landuse_kind":"urban_area","id":128918447},"arcs":[126]},{"type":"MultiLineString","properties":{"kind":"path","sort_rank":354,"landuse_kind":"urban_area","is_bicycle_related":true,"bicycle_shield_text":"5","bicycle_network":"ncn","source":"openstreetmap.org","min_zoom":8.0,"kind_detail":"cycleway"},"arcs":[[127],[128],[129],[130],[131],[132],[133],[134],[135],[136],[137],[138],[139]]},{"type":"LineString","properties":{"kind":"major_road","sort_rank":380,"kind_detail":"primary","is_bicycle_related":true,"bicycle_shield_text":"2","bicycle_network":"ncn","source":"openstreetmap.org","min_zoom":8.0,"landuse_kind":"urban_area","ref":"46"},"arcs":[140]},{"type":"LineString","properties":{"kind":"path","sort_rank":354,"kind_detail":"path","is_bicycle_related":true,"bicycle_shield_text":"5","bicycle_network":"ncn","source":"openstreetmap.org","min_zoom":8.0},"arcs":[141]},{"type":"MultiLineString","properties":{"kind":"highway","network":"e-road","sort_rank":383,"landuse_kind":"urban_area","source":"openstreetmap.org","min_zoom":8.0,"all_networks":["e-road"],"kind_detail":"motorway","shield_text":"45","ref":"E 45","all_shield_texts":["45"]},"arcs":[[142],[143],[144],[145],[146],[147],[148],[149],[150],[151],[152],[153]]},{"type":"MultiLineString","properties":{"kind":"major_road","network":"dk:national","sort_rank":380,"kind_detail":"primary","is_bicycle_related":true,"bicycle_shield_text":"2","bicycle_network":"ncn","source":"openstreetmap.org","min_zoom":8.0,"landuse_kind":"park","shield_text":"21","ref":"21"},"arcs":[[154],[155],[156],[157]]},{"type":"LineString","properties":{"bus_network":null,"sort_rank":380,"kind_detail":"primary","is_bicycle_related":true,"kind":"major_road","cycleway":"track","source":"openstreetmap.org","min_zoom":8.0,"bus_shield_text":"105","ref":"52"},"arcs":[158]},{"type":"MultiLineString","properties":{"kind":"highway","network":"e-road","sort_rank":383,"kind_detail":"motorway","source":"openstreetmap.org","min_zoom":8.0,"all_networks":["e-road"],"shield_text":"45","ref":"E 45;16","all_shield_texts":["45"]},"arcs":[[159],[160],[161],[162]]},{"type":"LineString","properties":{"bus_network":null,"sort_rank":380,"kind_detail":"primary","is_bicycle_related":true,"cycleway_right":"track","source":"openstreetmap.org","min_zoom":8.0,"bus_shield_text":"6A","landuse_kind":"urban_area","ref":"O2","kind":"major_road"},"arcs":[163]},{"type":"LineString","properties":{"kind":"major_road","sort_rank":379,"kind_detail":"secondary","is_bicycle_related":true,"bicycle_shield_text":"2","bicycle_network":"ncn","source":"openstreetmap.org","min_zoom":8.0,"ref":"547","id":41253578},"arcs":[164]},{"type":"LineString","properties":{"kind":"major_road","sort_rank":377,"kind_detail":"tertiary","is_bicycle_related":true,"bus_network":"Midttrafik","bicycle_shield_text":"5","cycleway":"track","source":"openstreetmap.org","min_zoom":8.0,"bus_shield_text":"302","bicycle_network":"ncn","id":146074691},"arcs":[165]},{"type":"LineString","properties":{"kind":"ferry","name":"Anholt - Gren\u00e5","sort_rank":355,"landuse_kind":"urban_area","is_bicycle_related":true,"source":"openstreetmap.org","min_zoom":8.0,"id":57780910},"arcs":[166]},{"type":"LineString","properties":{"kind":"minor_road","sort_rank":360,"kind_detail":"residential","is_bicycle_related":true,"bicycle_shield_text":"2","bicycle_network":"ncn","source":"openstreetmap.org","min_zoom":8.0,"landuse_kind":"urban_area"},"arcs":[167]},{"type":"LineString","properties":{"kind":"major_road","sort_rank":377,"kind_detail":"tertiary","is_bicycle_related":true,"bus_network":"Midttrafik","bicycle_shield_text":"5","bicycle_network":"ncn","source":"openstreetmap.org","min_zoom":8.0,"bus_shield_text":"302","id":39258952},"arcs":[168]},{"type":"LineString","properties":{"bus_network":null,"sort_rank":379,"landuse_kind":"residential","is_bicycle_related":true,"kind":"major_road","bicycle_shield_text":"5","bicycle_network":"ncn","source":"openstreetmap.org","min_zoom":8.0,"bus_shield_text":"4 old","kind_detail":"secondary","cycleway":"track","ref":"451"},"arcs":[169]},{"type":"MultiLineString","properties":{"kind":"major_road","sort_rank":377,"kind_detail":"tertiary","is_bicycle_related":true,"bicycle_shield_text":"4","bicycle_network":"ncn","source":"openstreetmap.org","min_zoom":8.0},"arcs":[[170],[171],[172],[173]]},{"type":"LineString","properties":{"kind":"major_road","sort_rank":380,"kind_detail":"primary","is_bicycle_related":true,"bicycle_shield_text":"20","cycleway":"track","source":"openstreetmap.org","min_zoom":8.0,"landuse_kind":"residential","bicycle_network":"rcn","ref":"15; 16"},"arcs":[174]},{"type":"LineString","properties":{"cycleway_right":"track","sort_rank":377,"kind_detail":"tertiary","is_bicycle_related":true,"kind":"major_road","bicycle_shield_text":"4","bicycle_network":"ncn","bus_network":null,"source":"openstreetmap.org","min_zoom":8.0,"bus_shield_text":"12","landuse_kind":"urban_area","id":12978392},"arcs":[175]},{"type":"LineString","properties":{"source":"openstreetmap.org","kind":"major_road","sort_rank":380,"kind_detail":"primary","ref":"52","min_zoom":8.0},"arcs":[176]},{"type":"LineString","properties":{"kind":"ferry","name":"Gren\u00e5 - Varberg","sort_rank":355,"is_bicycle_related":true,"bicycle_shield_text":"EV12","bicycle_network":"icn","source":"openstreetmap.org","min_zoom":8.0},"arcs":[177]},{"type":"MultiLineString","properties":{"cycleway_right":"lane","sort_rank":377,"kind_detail":"tertiary","is_bicycle_related":true,"kind":"major_road","bicycle_shield_text":"5","bicycle_network":"ncn","source":"openstreetmap.org","min_zoom":8.0,"landuse_kind":"park"},"arcs":[[178],[179]]},{"type":"LineString","properties":{"kind":"major_road","sort_rank":377,"kind_detail":"tertiary","is_bicycle_related":true,"bicycle_shield_text":"2","cycleway":"lane","source":"openstreetmap.org","min_zoom":8.0,"landuse_kind":"park","bicycle_network":"ncn"},"arcs":[180]},{"type":"MultiLineString","properties":{"source":"openstreetmap.org","kind":"major_road","landuse_kind":"urban_area","sort_rank":380,"kind_detail":"primary","ref":"O2","min_zoom":8.0},"arcs":[[181],[182]]},{"type":"LineString","properties":{"source":"openstreetmap.org","kind":"major_road","sort_rank":380,"kind_detail":"primary","ref":"21;563","min_zoom":8.0,"id":319341821},"arcs":[183]},{"type":"LineString","properties":{"bus_network":"Horsens Bybusser","sort_rank":379,"landuse_kind":"urban_area","is_bicycle_related":true,"kind":"major_road","bicycle_shield_text":"5","bicycle_network":"ncn","source":"openstreetmap.org","min_zoom":8.0,"bus_shield_text":"5","kind_detail":"secondary","cycleway":"track"},"arcs":[184]},{"type":"LineString","properties":{"kind":"path","sort_rank":354,"kind_detail":"cycleway","is_bicycle_related":true,"bicycle_shield_text":"2","bicycle_network":"ncn","source":"openstreetmap.org","min_zoom":8.0,"landuse_kind":"park"},"arcs":[185]},{"type":"LineString","properties":{"cycleway_right":"lane","sort_rank":379,"kind_detail":"secondary","is_bicycle_related":true,"kind":"major_road","bicycle_shield_text":"2","bicycle_network":"ncn","source":"openstreetmap.org","min_zoom":8.0,"landuse_kind":"residential","ref":"180;507","id":25349852},"arcs":[186]},{"type":"MultiLineString","properties":{"bus_network":null,"sort_rank":377,"kind_detail":"tertiary","is_bicycle_related":true,"kind":"major_road","bicycle_shield_text":"5","bicycle_network":"ncn","source":"openstreetmap.org","min_zoom":8.0,"bus_shield_text":"104"},"arcs":[[187],[188]]},{"type":"LineString","properties":{"source":"openstreetmap.org","kind":"ferry","name":"Ballen - Kalundborg","sort_rank":355,"is_bicycle_related":true,"min_zoom":8.0,"id":392728788},"arcs":[189]},{"type":"LineString","properties":{"kind":"minor_road","service":"rest_area","sort_rank":356,"kind_detail":"service","is_bicycle_related":true,"bicycle_shield_text":"2","bicycle_network":"ncn","source":"openstreetmap.org","min_zoom":8.0,"id":111165631},"arcs":[190]},{"type":"MultiLineString","properties":{"kind":"major_road","sort_rank":377,"kind_detail":"tertiary","is_bicycle_related":true,"bicycle_shield_text":"5","bicycle_network":"ncn","source":"openstreetmap.org","min_zoom":8.0},"arcs":[[191],[192],[193],[194],[195],[196]]},{"type":"LineString","properties":{"source":"openstreetmap.org","kind":"ferry","name":"Odden - \u00c5rhus","sort_rank":355,"is_bicycle_related":true,"min_zoom":8.0},"arcs":[197]},{"type":"MultiLineString","properties":{"kind":"major_road","sort_rank":377,"kind_detail":"tertiary","is_bicycle_related":true,"bicycle_shield_text":"5","bicycle_network":"ncn","source":"openstreetmap.org","min_zoom":8.0,"landuse_kind":"park"},"arcs":[[198],[199],[200]]},{"type":"LineString","properties":{"kind":"major_road","sort_rank":380,"kind_detail":"primary","is_bicycle_related":true,"cycleway":"lane","source":"openstreetmap.org","min_zoom":8.0,"ref":"52"},"arcs":[201]},{"type":"LineString","properties":{"source":"openstreetmap.org","kind":"ferry","name":"Hov - Tun\u00f8","sort_rank":355,"min_zoom":8.0,"id":52448323},"arcs":[202]},{"type":"LineString","properties":{"kind":"path","sort_rank":354,"kind_detail":"cycleway","is_bicycle_related":true,"bicycle_shield_text":"2","bicycle_network":"ncn","source":"openstreetmap.org","min_zoom":8.0,"landuse_kind":"residential","id":490528697},"arcs":[203]},{"type":"MultiLineString","properties":{"source":"openstreetmap.org","kind":"highway","sort_rank":383,"kind_detail":"motorway","ref":"501","min_zoom":8.0},"arcs":[[204],[205]]},{"type":"MultiLineString","properties":{"source":"openstreetmap.org","kind":"major_road","landuse_kind":"urban_area","sort_rank":380,"kind_detail":"primary","ref":"O2;180","min_zoom":8.0},"arcs":[[206],[207],[208]]},{"type":"LineString","properties":{"source":"openstreetmap.org","kind":"major_road","kind_detail":"trunk","sort_rank":381,"landuse_kind":"urban_area","ref":"15","min_zoom":8.0},"arcs":[209]},{"type":"LineString","properties":{"kind":"ferry","name":"Aarhus - S\u00e6lvig","sort_rank":355,"landuse_kind":"urban_area","is_bicycle_related":true,"source":"openstreetmap.org","min_zoom":8.0,"id":436079268},"arcs":[210]},{"type":"LineString","properties":{"kind":"major_road","sort_rank":380,"kind_detail":"primary","is_bicycle_related":true,"cycleway":"track","source":"openstreetmap.org","min_zoom":8.0,"landuse_kind":"park","ref":"21","id":115512631},"arcs":[211]},{"type":"MultiLineString","properties":{"cycleway_right":"track","sort_rank":380,"kind_detail":"primary","is_bicycle_related":true,"bus_network":null,"source":"openstreetmap.org","min_zoom":8.0,"bus_shield_text":"200","landuse_kind":"urban_area","ref":"O2;170","kind":"major_road"},"arcs":[[212],[213]]},{"type":"LineString","properties":{"kind":"ferry","name":"Grenaa-Anholt F\u00e6rgefart","sort_rank":355,"landuse_kind":"urban_area","is_bicycle_related":true,"source":"openstreetmap.org","min_zoom":8.0,"id":-452739,"osm_relation":true},"arcs":[214]},{"type":"LineString","properties":{"source":"openstreetmap.org","kind":"ferry","name:en":"Gothenburg - Kiel","name":"Kiel - G\u00f6teborg","sort_rank":355,"is_bicycle_related":true,"min_zoom":8.0},"arcs":[215]},{"type":"LineString","properties":{"source":"openstreetmap.org","kind":"ferry","name":"M\/S Dagmar","sort_rank":355,"landuse_kind":"residential","min_zoom":8.0,"id":47401154},"arcs":[216]},{"type":"MultiLineString","properties":{"kind":"ferry","name":"M\/S Dagmar","sort_rank":355,"landuse_kind":"urban_area","source":"openstreetmap.org","min_zoom":8.0,"id":-375001,"osm_relation":true},"arcs":[[217],[218]]},{"type":"LineString","properties":{"kind":"major_road","sort_rank":380,"kind_detail":"primary","is_bicycle_related":true,"cycleway":"track","source":"openstreetmap.org","min_zoom":8.0,"ref":"21"},"arcs":[219]},{"type":"LineString","properties":{"kind":"major_road","sort_rank":380,"kind_detail":"primary","is_bicycle_related":true,"cycleway":"track","source":"openstreetmap.org","min_zoom":8.0,"ref":"15"},"arcs":[220]},{"type":"LineString","properties":{"kind":"major_road","sort_rank":380,"landuse_kind":"urban_area","source":"openstreetmap.org","min_zoom":8.0,"kind_detail":"primary","ref":"O2; 180","id":23701667},"arcs":[221]},{"type":"LineString","properties":{"kind":"major_road","sort_rank":377,"kind_detail":"tertiary","is_bicycle_related":true,"bicycle_shield_text":"5","cycleway":"track","source":"openstreetmap.org","min_zoom":8.0,"bicycle_network":"ncn"},"arcs":[222]},{"type":"MultiLineString","properties":{"kind":"highway","network":"e-road","sort_rank":383,"landuse_kind":"urban_area","source":"openstreetmap.org","min_zoom":8.0,"all_networks":["e-road"],"kind_detail":"motorway","shield_text":"45","ref":"E 45;16","all_shield_texts":["45"]},"arcs":[[223],[224]]},{"type":"MultiLineString","properties":{"bus_network":null,"sort_rank":379,"landuse_kind":"urban_area","is_bicycle_related":true,"kind":"major_road","bicycle_shield_text":"5","bicycle_network":"ncn","source":"openstreetmap.org","min_zoom":8.0,"bus_shield_text":"4 old","kind_detail":"secondary","cycleway":"track","ref":"451"},"arcs":[[225],[226]]},{"type":"MultiLineString","properties":{"kind":"minor_road","sort_rank":360,"kind_detail":"unclassified","is_bicycle_related":true,"bicycle_shield_text":"5","bicycle_network":"ncn","source":"openstreetmap.org","min_zoom":8.0},"arcs":[[227],[228],[229],[230],[231],[232],[233],[234],[235],[236]]},{"type":"LineString","properties":{"kind":"major_road","sort_rank":380,"landuse_kind":"urban_area","source":"openstreetmap.org","min_zoom":8.0,"kind_detail":"primary","ref":"O2; 180; 505","id":23254331},"arcs":[237]},{"type":"LineString","properties":{"kind":"major_road","network":"dk:national","sort_rank":380,"kind_detail":"primary","source":"openstreetmap.org","min_zoom":8.0,"shield_text":"21","ref":"21","id":52059591},"arcs":[238]},{"type":"LineString","properties":{"kind":"ferry","network":"dk:national","sort_rank":355,"is_bicycle_related":true,"bicycle_shield_text":"2","bicycle_network":"ncn","source":"openstreetmap.org","min_zoom":8.0,"all_networks":["dk:national"],"shield_text":"21","id":23180841,"all_shield_texts":["21"],"name":"Odden - Ebeltoft"},"arcs":[239]},{"type":"MultiLineString","properties":{"kind":"major_road","sort_rank":379,"landuse_kind":"urban_area","is_bicycle_related":true,"bicycle_shield_text":"5","bicycle_network":"ncn","source":"openstreetmap.org","min_zoom":8.0,"kind_detail":"secondary","cycleway":"track","ref":"451"},"arcs":[[240],[241],[242]]},{"type":"MultiLineString","properties":{"source":"openstreetmap.org","kind":"major_road","landuse_kind":"urban_area","sort_rank":380,"kind_detail":"primary","ref":"26","min_zoom":8.0},"arcs":[[243],[244],[245],[246],[247],[248],[249]]},{"type":"MultiLineString","properties":{"kind":"major_road","sort_rank":379,"landuse_kind":"residential","is_bicycle_related":true,"bicycle_shield_text":"2","bicycle_network":"ncn","source":"openstreetmap.org","min_zoom":8.0,"kind_detail":"secondary","cycleway":"track","ref":"180;507"},"arcs":[[250],[251],[252]]},{"type":"MultiLineString","properties":{"source":"openstreetmap.org","kind":"major_road","kind_detail":"trunk","sort_rank":381,"landuse_kind":"urban_area","ref":"46","min_zoom":8.0},"arcs":[[253],[254],[255]]},{"type":"LineString","properties":{"kind":"ferry","name":"Kiel - G\u00f6teborg","sort_rank":355,"is_bicycle_related":true,"source":"openstreetmap.org","min_zoom":8.0,"ref":"Kiel - G\u00f6teborg","osm_relation":true},"arcs":[256]},{"type":"MultiLineString","properties":{"cycleway_right":"track","sort_rank":380,"kind_detail":"primary","is_bicycle_related":true,"kind":"major_road","source":"openstreetmap.org","min_zoom":8.0,"ref":"16"},"arcs":[[257],[258],[259],[260]]},{"type":"MultiLineString","properties":{"source":"openstreetmap.org","kind":"ferry","name":"M\/S Dagmar","sort_rank":355,"landuse_kind":"urban_area","min_zoom":8.0,"id":47401154},"arcs":[[261],[262]]},{"type":"LineString","properties":{"cycleway_right":"track","sort_rank":377,"kind_detail":"tertiary","is_bicycle_related":true,"kind":"major_road","bicycle_shield_text":"5","bicycle_network":"ncn","source":"openstreetmap.org","min_zoom":8.0,"landuse_kind":"park","id":318054339},"arcs":[263]},{"type":"MultiLineString","properties":{"kind":"minor_road","sort_rank":360,"kind_detail":"unclassified","is_bicycle_related":true,"bicycle_shield_text":"EV12","bicycle_network":"icn","source":"openstreetmap.org","min_zoom":8.0},"arcs":[[264],[265]]},{"type":"LineString","properties":{"kind":"major_road","sort_rank":380,"kind_detail":"primary","is_bicycle_related":true,"cycleway":"track","source":"openstreetmap.org","min_zoom":8.0,"ref":"52"},"arcs":[266]},{"type":"MultiLineString","properties":{"kind":"minor_road","sort_rank":360,"kind_detail":"unclassified","is_bicycle_related":true,"bicycle_shield_text":"4","bicycle_network":"ncn","source":"openstreetmap.org","min_zoom":8.0},"arcs":[[267],[268]]},{"type":"MultiLineString","properties":{"bus_network":null,"sort_rank":377,"landuse_kind":"urban_area","is_bicycle_related":true,"kind":"major_road","bicycle_shield_text":"5","bicycle_network":"ncn","source":"openstreetmap.org","min_zoom":8.0,"bus_shield_text":"12","kind_detail":"tertiary","cycleway":"track"},"arcs":[[269],[270]]},{"type":"LineString","properties":{"kind":"ferry","name":"Gren\u00e5 - Varberg","sort_rank":355,"landuse_kind":"urban_area","is_bicycle_related":true,"bicycle_shield_text":"EV12","bicycle_network":"icn","source":"openstreetmap.org","min_zoom":8.0,"id":43324246},"arcs":[271]},{"type":"LineString","properties":{"kind":"path","sort_rank":354,"kind_detail":"cycleway","is_bicycle_related":true,"bicycle_shield_text":"2","bicycle_network":"ncn","source":"openstreetmap.org","min_zoom":8.0},"arcs":[272]},{"type":"LineString","properties":{"cycleway_right":"lane","sort_rank":380,"kind_detail":"primary","is_bicycle_related":true,"kind":"major_road","bus_network":null,"source":"openstreetmap.org","min_zoom":8.0,"bus_shield_text":"11","landuse_kind":"urban_area","ref":"O2;180","id":161227901},"arcs":[273]},{"type":"LineString","properties":{"source":"openstreetmap.org","kind":"ferry","name":"M\/S Dagmar","sort_rank":355,"min_zoom":8.0,"osm_relation":true,"id":-375001},"arcs":[274]},{"type":"LineString","properties":{"kind":"major_road","sort_rank":380,"kind_detail":"primary","is_bicycle_related":true,"cycleway":"track","source":"openstreetmap.org","min_zoom":8.0,"landuse_kind":"residential","ref":"15"},"arcs":[275]},{"type":"LineString","properties":{"kind":"major_road","sort_rank":377,"kind_detail":"tertiary","is_bicycle_related":true,"bus_network":null,"bicycle_shield_text":"5","cycleway":"lane","source":"openstreetmap.org","min_zoom":8.0,"bus_shield_text":"12","landuse_kind":"urban_area","id":39461687,"bicycle_network":"ncn"},"arcs":[276]},{"type":"MultiLineString","properties":{"kind":"major_road","sort_rank":377,"landuse_kind":"residential","is_bicycle_related":true,"bicycle_shield_text":"2","bicycle_network":"ncn","source":"openstreetmap.org","min_zoom":8.0,"kind_detail":"tertiary"},"arcs":[[277],[278],[279]]},{"type":"MultiLineString","properties":{"source":"openstreetmap.org","kind":"major_road","kind_detail":"trunk","sort_rank":381,"landuse_kind":"urban_area","ref":"26","min_zoom":8.0},"arcs":[[280],[281],[282],[283],[284]]},{"type":"LineString","properties":{"kind":"major_road","sort_rank":380,"kind_detail":"primary","is_bicycle_related":true,"bicycle_shield_text":"20","cycleway":"track","source":"openstreetmap.org","min_zoom":8.0,"landuse_kind":"urban_area","bicycle_network":"rcn","ref":"15; 16","id":47298421},"arcs":[285]},{"type":"MultiLineString","properties":{"bus_network":null,"sort_rank":380,"kind_detail":"primary","is_bicycle_related":true,"cycleway_right":"track","source":"openstreetmap.org","min_zoom":8.0,"bus_shield_text":"14","landuse_kind":"urban_area","ref":"O2;170","kind":"major_road"},"arcs":[[286],[287]]},{"type":"MultiLineString","properties":{"kind":"minor_road","sort_rank":358,"kind_detail":"service","is_bicycle_related":true,"bicycle_shield_text":"5","bicycle_network":"ncn","source":"openstreetmap.org","min_zoom":8.0},"arcs":[[288],[289]]},{"type":"MultiLineString","properties":{"bus_network":null,"sort_rank":380,"kind_detail":"primary","kind":"major_road","source":"openstreetmap.org","min_zoom":8.0,"bus_shield_text":"6A","landuse_kind":"urban_area","ref":"O2;180"},"arcs":[[290],[291],[292],[293],[294],[295],[296],[297],[298],[299]]},{"type":"MultiLineString","properties":{"kind":"major_road","sort_rank":377,"landuse_kind":"urban_area","is_bicycle_related":true,"bicycle_shield_text":"4","bicycle_network":"ncn","source":"openstreetmap.org","min_zoom":8.0,"kind_detail":"tertiary"},"arcs":[[300],[301],[302],[303]]},{"type":"LineString","properties":{"bus_network":null,"sort_rank":379,"landuse_kind":"urban_area","is_bicycle_related":true,"kind":"major_road","bicycle_shield_text":"5","bicycle_network":"ncn","source":"openstreetmap.org","min_zoom":8.0,"bus_shield_text":"2 old","kind_detail":"secondary","cycleway":"track"},"arcs":[304]},{"type":"MultiLineString","properties":{"source":"openstreetmap.org","kind":"major_road","sort_rank":380,"kind_detail":"primary","ref":"46","min_zoom":8.0},"arcs":[[305],[306]]},{"type":"MultiLineString","properties":{"kind":"path","sort_rank":354,"kind_detail":"cycleway","is_bicycle_related":true,"bicycle_shield_text":"5","bicycle_network":"ncn","source":"openstreetmap.org","min_zoom":8.0},"arcs":[[307],[308],[309],[310],[311],[312],[313],[314]]},{"type":"LineString","properties":{"kind":"minor_road","sort_rank":360,"kind_detail":"residential","is_bicycle_related":true,"bicycle_shield_text":"2","bicycle_network":"ncn","source":"openstreetmap.org","min_zoom":8.0,"landuse_kind":"residential","id":65372851},"arcs":[315]},{"type":"MultiLineString","properties":{"source":"openstreetmap.org","kind":"highway","landuse_kind":"urban_area","sort_rank":383,"kind_detail":"motorway","ref":"15","min_zoom":8.0},"arcs":[[316],[317],[318],[319],[320],[321],[322],[323],[324],[325]]},{"type":"MultiLineString","properties":{"source":"openstreetmap.org","kind":"highway","landuse_kind":"urban_area","sort_rank":383,"kind_detail":"motorway","ref":"501","min_zoom":8.0},"arcs":[[326],[327],[328],[329]]},{"type":"LineString","properties":{"source":"openstreetmap.org","kind":"ferry","name":"Hov - S\u00e6lvig","sort_rank":355,"min_zoom":8.0,"osm_relation":true,"id":-451365},"arcs":[330]},{"type":"MultiLineString","properties":{"kind":"minor_road","sort_rank":360,"landuse_kind":"urban_area","is_bicycle_related":true,"bicycle_shield_text":"4","bicycle_network":"ncn","source":"openstreetmap.org","min_zoom":8.0,"kind_detail":"residential"},"arcs":[[331],[332],[333]]},{"type":"MultiLineString","properties":{"source":"openstreetmap.org","kind":"major_road","sort_rank":380,"kind_detail":"primary","ref":"16","min_zoom":8.0},"arcs":[[334],[335],[336],[337],[338],[339],[340],[341],[342],[343],[344],[345],[346],[347],[348],[349]]},{"type":"LineString","properties":{"kind":"minor_road","sort_rank":360,"kind_detail":"unclassified","is_bicycle_related":true,"bicycle_shield_text":"2","bicycle_network":"ncn","source":"openstreetmap.org","min_zoom":8.0,"landuse_kind":"residential","id":99529546},"arcs":[350]},{"type":"MultiLineString","properties":{"kind":"path","sort_rank":354,"landuse_kind":"urban_area","is_bicycle_related":true,"bicycle_shield_text":"4","bicycle_network":"ncn","source":"openstreetmap.org","min_zoom":8.0,"kind_detail":"cycleway"},"arcs":[[351],[352],[353]]},{"type":"MultiLineString","properties":{"source":"openstreetmap.org","kind":"major_road","landuse_kind":"park","sort_rank":380,"kind_detail":"primary","ref":"15","min_zoom":8.0},"arcs":[[354],[355],[356]]},{"type":"LineString","properties":{"kind":"major_road","sort_rank":380,"kind_detail":"primary","is_bicycle_related":true,"bus_network":null,"cycleway":"track","source":"openstreetmap.org","min_zoom":8.0,"bus_shield_text":"6A","landuse_kind":"urban_area","ref":"O2","id":144781281},"arcs":[357]},{"type":"LineString","properties":{"kind":"major_road","sort_rank":379,"kind_detail":"secondary","is_bicycle_related":true,"bicycle_shield_text":"5","cycleway":"track","source":"openstreetmap.org","min_zoom":8.0,"landuse_kind":"urban_area","bicycle_network":"ncn","id":39085000},"arcs":[358]},{"type":"MultiLineString","properties":{"cycleway_right":"track","sort_rank":380,"kind_detail":"primary","is_bicycle_related":true,"kind":"major_road","source":"openstreetmap.org","min_zoom":8.0,"landuse_kind":"urban_area","ref":"O2"},"arcs":[[359],[360]]},{"type":"MultiLineString","properties":{"bus_network":null,"sort_rank":377,"landuse_kind":"urban_area","is_bicycle_related":true,"kind":"major_road","bicycle_shield_text":"5","bicycle_network":"ncn","source":"openstreetmap.org","min_zoom":8.0,"bus_shield_text":"12","kind_detail":"tertiary"},"arcs":[[361],[362]]},{"type":"LineString","properties":{"kind":"major_road","sort_rank":380,"kind_detail":"primary","is_bicycle_related":true,"bicycle_shield_text":"2","bicycle_network":"ncn","source":"openstreetmap.org","min_zoom":8.0,"ref":"15"},"arcs":[363]},{"type":"MultiLineString","properties":{"source":"openstreetmap.org","kind":"major_road","sort_rank":381,"kind_detail":"trunk","ref":"16;21","min_zoom":8.0},"arcs":[[364],[365],[366],[367],[368],[369],[370]]},{"type":"MultiLineString","properties":{"kind":"path","sort_rank":354,"kind_detail":"cycleway","is_bicycle_related":true,"bicycle_shield_text":"4","bicycle_network":"ncn","source":"openstreetmap.org","min_zoom":8.0},"arcs":[[371],[372]]},{"type":"LineString","properties":{"source":"openstreetmap.org","kind":"ferry","name":"Hov - S\u00e6lvig","sort_rank":355,"is_bicycle_related":true,"min_zoom":8.0,"id":38192155},"arcs":[373]},{"type":"MultiLineString","properties":{"kind":"minor_road","sort_rank":360,"landuse_kind":"urban_area","is_bicycle_related":true,"bicycle_shield_text":"5","bicycle_network":"ncn","source":"openstreetmap.org","min_zoom":8.0,"kind_detail":"residential"},"arcs":[[374],[375],[376],[377],[378],[379]]},{"type":"MultiLineString","properties":{"sort_rank":381,"source":"openstreetmap.org","min_zoom":8.0,"kind":"major_road","kind_detail":"trunk"},"arcs":[[380],[381],[382],[383],[384]]},{"type":"MultiLineString","properties":{"kind":"major_road","sort_rank":379,"kind_detail":"secondary","is_bicycle_related":true,"bicycle_shield_text":"EV12","bicycle_network":"icn","source":"openstreetmap.org","min_zoom":8.0,"ref":"547"},"arcs":[[385],[386]]},{"type":"LineString","properties":{"source":"openstreetmap.org","kind":"ferry","name":"Snaptun - Endelave","sort_rank":355,"is_bicycle_related":true,"min_zoom":8.0,"id":29243611},"arcs":[387]},{"type":"MultiLineString","properties":{"kind":"major_road","sort_rank":380,"kind_detail":"primary","is_bicycle_related":true,"bicycle_shield_text":"EV12","bicycle_network":"icn","source":"openstreetmap.org","min_zoom":8.0,"landuse_kind":"urban_area","ref":"15; 16"},"arcs":[[388],[389],[390]]},{"type":"MultiLineString","properties":{"kind":"major_road","sort_rank":377,"kind_detail":"tertiary","is_bicycle_related":true,"bicycle_shield_text":"EV12","bicycle_network":"icn","source":"openstreetmap.org","min_zoom":8.0},"arcs":[[391],[392],[393],[394]]},{"type":"LineString","properties":{"source":"openstreetmap.org","kind":"ferry","name":"Snaptun - Hjarn\u00f8","sort_rank":355,"is_bicycle_related":true,"min_zoom":8.0,"id":25836273},"arcs":[395]},{"type":"LineString","properties":{"kind":"major_road","sort_rank":377,"kind_detail":"tertiary","is_bicycle_related":true,"bus_network":"Midttrafik","bicycle_shield_text":"5","cycleway":"lane","source":"openstreetmap.org","min_zoom":8.0,"bus_shield_text":"302","bicycle_network":"ncn"},"arcs":[396]},{"type":"MultiLineString","properties":{"source":"openstreetmap.org","kind":"highway","landuse_kind":"urban_area","sort_rank":383,"kind_detail":"motorway","min_zoom":8.0},"arcs":[[397],[398]]},{"type":"MultiLineString","properties":{"cycleway_right":"track","sort_rank":380,"kind_detail":"primary","is_bicycle_related":true,"bus_network":null,"source":"openstreetmap.org","min_zoom":8.0,"bus_shield_text":"6A","landuse_kind":"urban_area","ref":"O2;170","kind":"major_road"},"arcs":[[399],[400]]},{"type":"MultiLineString","properties":{"kind":"highway","network":"e-road","sort_rank":383,"kind_detail":"motorway","source":"openstreetmap.org","min_zoom":8.0,"all_networks":["e-road"],"shield_text":"45","ref":"15;E 45","all_shield_texts":["45"]},"arcs":[[401],[402],[403],[404]]},{"type":"LineString","properties":{"kind":"ferry","name":"M\/S Dagmar","sort_rank":355,"landuse_kind":"residential","source":"openstreetmap.org","min_zoom":8.0,"id":-375001,"osm_relation":true},"arcs":[405]},{"type":"MultiLineString","properties":{"kind":"major_road","network":"dk:national","sort_rank":380,"kind_detail":"primary","is_bicycle_related":true,"bicycle_shield_text":"2","cycleway":"lane","source":"openstreetmap.org","min_zoom":8.0,"landuse_kind":"park","shield_text":"21","bicycle_network":"ncn","ref":"21"},"arcs":[[406],[407],[408]]},{"type":"LineString","properties":{"kind":"major_road","sort_rank":380,"kind_detail":"primary","is_bicycle_related":true,"cycleway":"track","source":"openstreetmap.org","min_zoom":8.0,"landuse_kind":"urban_area","ref":"16"},"arcs":[409]},{"type":"LineString","properties":{"kind":"major_road","sort_rank":377,"landuse_kind":"urban_area","is_bicycle_related":true,"bicycle_shield_text":"EV12","bicycle_network":"icn","source":"openstreetmap.org","min_zoom":8.0,"kind_detail":"tertiary"},"arcs":[410]},{"type":"MultiLineString","properties":{"cycleway_right":"track","sort_rank":377,"landuse_kind":"urban_area","is_bicycle_related":true,"kind":"major_road","bicycle_shield_text":"5","bicycle_network":"ncn","source":"openstreetmap.org","min_zoom":8.0,"kind_detail":"tertiary"},"arcs":[[411],[412],[413]]},{"type":"MultiLineString","properties":{"source":"openstreetmap.org","kind":"major_road","sort_rank":381,"kind_detail":"trunk","ref":"15;21","min_zoom":8.0},"arcs":[[414],[415],[416],[417],[418]]},{"type":"LineString","properties":{"kind":"major_road","sort_rank":380,"kind_detail":"primary","is_bicycle_related":true,"bicycle_shield_text":"20","cycleway":"track","source":"openstreetmap.org","min_zoom":8.0,"landuse_kind":"urban_area","bicycle_network":"rcn","ref":"16"},"arcs":[419]},{"type":"MultiLineString","properties":{"source":"openstreetmap.org","kind":"major_road","kind_detail":"trunk","sort_rank":381,"landuse_kind":"urban_area","min_zoom":8.0},"arcs":[[420],[421],[422],[423],[424],[425],[426]]},{"type":"LineString","properties":{"cycleway_right":"track","sort_rank":380,"kind_detail":"primary","is_bicycle_related":true,"kind":"major_road","bus_network":null,"source":"openstreetmap.org","min_zoom":8.0,"bus_shield_text":"6A","landuse_kind":"urban_area","id":142696809},"arcs":[427]},{"type":"LineString","properties":{"kind":"major_road","sort_rank":380,"kind_detail":"primary","is_bicycle_related":true,"cycleway":"lane","source":"openstreetmap.org","min_zoom":8.0,"landuse_kind":"park","ref":"21","id":402102402},"arcs":[428]},{"type":"MultiLineString","properties":{"source":"openstreetmap.org","kind":"major_road","sort_rank":380,"kind_detail":"primary","ref":"21","min_zoom":8.0},"arcs":[[429],[430],[431],[432],[433],[434],[435],[436],[437],[438],[439],[440],[441],[442],[443]]},{"type":"MultiLineString","properties":{"sort_rank":383,"kind_detail":"motorway","min_zoom":8.0,"kind":"highway","source":"openstreetmap.org"},"arcs":[[444],[445]]},{"type":"MultiLineString","properties":{"kind":"path","sort_rank":354,"kind_detail":"cycleway","is_bicycle_related":true,"bicycle_shield_text":"5","bicycle_network":"ncn","source":"openstreetmap.org","min_zoom":8.0,"landuse_kind":"park"},"arcs":[[446],[447],[448],[449]]},{"type":"LineString","properties":{"kind":"minor_road","sort_rank":360,"kind_detail":"residential","is_bicycle_related":true,"bicycle_shield_text":"5","bicycle_network":"ncn","source":"openstreetmap.org","min_zoom":8.0,"landuse_kind":"park","id":39231116},"arcs":[450]},{"type":"MultiLineString","properties":{"kind":"major_road","sort_rank":380,"kind_detail":"primary","is_bicycle_related":true,"cycleway":"track","source":"openstreetmap.org","min_zoom":8.0,"landuse_kind":"urban_area","ref":"46"},"arcs":[[451],[452],[453],[454]]},{"type":"MultiLineString","properties":{"kind":"path","sort_rank":354,"kind_detail":"track","is_bicycle_related":true,"bicycle_shield_text":"5","bicycle_network":"ncn","source":"openstreetmap.org","min_zoom":8.0},"arcs":[[455],[456],[457],[458]]},{"type":"MultiLineString","properties":{"kind":"major_road","sort_rank":380,"kind_detail":"primary","is_bicycle_related":true,"cycleway":"track","source":"openstreetmap.org","min_zoom":8.0,"ref":"26"},"arcs":[[459],[460],[461]]},{"type":"LineString","properties":{"kind":"major_road","network":"dk:national","sort_rank":380,"kind_detail":"primary","is_bicycle_related":true,"bicycle_shield_text":"2","bicycle_network":"ncn","source":"openstreetmap.org","min_zoom":8.0,"shield_text":"21","ref":"21"},"arcs":[462]},{"type":"MultiLineString","properties":{"kind":"major_road","sort_rank":380,"kind_detail":"primary","is_bicycle_related":true,"cycleway":"track","source":"openstreetmap.org","min_zoom":8.0,"ref":"16"},"arcs":[[463],[464],[465],[466]]},{"type":"MultiLineString","properties":{"source":"openstreetmap.org","kind":"major_road","sort_rank":381,"kind_detail":"trunk","ref":"15","min_zoom":8.0},"arcs":[[467],[468],[469]]},{"type":"LineString","properties":{"source":"openstreetmap.org","kind":"ferry","name":"Anholt - Gren\u00e5","sort_rank":355,"is_bicycle_related":true,"min_zoom":8.0,"id":57780910},"arcs":[470]},{"type":"LineString","properties":{"kind":"minor_road","sort_rank":360,"kind_detail":"unclassified","is_bicycle_related":true,"bicycle_shield_text":"EV12","bicycle_network":"icn","source":"openstreetmap.org","min_zoom":8.0,"landuse_kind":"urban_area","id":319683486},"arcs":[471]},{"type":"MultiLineString","properties":{"source":"openstreetmap.org","bus_network":null,"bus_shield_text":"12","sort_rank":381,"kind_detail":"trunk","min_zoom":8.0,"kind":"major_road"},"arcs":[[472],[473],[474]]},{"type":"LineString","properties":{"kind":"major_road","sort_rank":380,"kind_detail":"primary","is_bicycle_related":true,"bicycle_shield_text":"20","cycleway":"track","source":"openstreetmap.org","min_zoom":8.0,"landuse_kind":"residential","bicycle_network":"rcn","ref":"16"},"arcs":[475]},{"type":"MultiLineString","properties":{"source":"openstreetmap.org","kind":"major_road","landuse_kind":"urban_area","sort_rank":380,"kind_detail":"primary","ref":"46","min_zoom":8.0},"arcs":[[476],[477],[478]]},{"type":"MultiLineString","properties":{"kind":"major_road","sort_rank":377,"landuse_kind":"residential","is_bicycle_related":true,"bicycle_shield_text":"5","bicycle_network":"ncn","source":"openstreetmap.org","min_zoom":8.0,"kind_detail":"tertiary"},"arcs":[[479],[480]]},{"type":"LineString","properties":{"bus_network":"Middtrafik","sort_rank":377,"landuse_kind":"urban_area","is_bicycle_related":true,"kind":"major_road","bicycle_shield_text":"5","cycleway":"track","source":"openstreetmap.org","min_zoom":8.0,"bus_shield_text":"100","kind_detail":"tertiary","bicycle_network":"ncn"},"arcs":[481]},{"type":"MultiLineString","properties":{"source":"openstreetmap.org","kind":"major_road","sort_rank":381,"kind_detail":"trunk","ref":"46","min_zoom":8.0},"arcs":[[482],[483],[484],[485],[486]]},{"type":"MultiLineString","properties":{"source":"openstreetmap.org","kind":"highway","sort_rank":383,"kind_detail":"motorway","ref":"15","min_zoom":8.0},"arcs":[[487],[488],[489],[490],[491],[492],[493],[494],[495],[496],[497],[498],[499],[500],[501],[502],[503],[504]]},{"type":"LineString","properties":{"source":"openstreetmap.org","kind":"major_road","sort_rank":380,"kind_detail":"primary","ref":"16;21","min_zoom":8.0,"id":5081889},"arcs":[505]},{"type":"LineString","properties":{"kind":"major_road","sort_rank":380,"kind_detail":"primary","is_bicycle_related":true,"bicycle_shield_text":"2","bicycle_network":"ncn","source":"openstreetmap.org","min_zoom":8.0,"landuse_kind":"urban_area","ref":"15; 16"},"arcs":[506]},{"type":"MultiLineString","properties":{"kind":"minor_road","sort_rank":360,"kind_detail":"unclassified","is_bicycle_related":true,"bicycle_shield_text":"2","bicycle_network":"ncn","source":"openstreetmap.org","min_zoom":8.0,"landuse_kind":"park"},"arcs":[[507],[508]]},{"type":"LineString","properties":{"source":"openstreetmap.org","kind":"ferry","name":"Kiel - Oslo","sort_rank":355,"ref":"Kiel - Oslo","min_zoom":8.0,"osm_relation":true},"arcs":[509]},{"type":"MultiLineString","properties":{"kind":"major_road","sort_rank":377,"landuse_kind":"urban_area","is_bicycle_related":true,"bicycle_shield_text":"5","bicycle_network":"ncn","source":"openstreetmap.org","min_zoom":8.0,"kind_detail":"tertiary"},"arcs":[[510],[511],[512],[513],[514]]},{"type":"MultiLineString","properties":{"kind":"path","sort_rank":354,"landuse_kind":"urban_area","is_bicycle_related":true,"bicycle_shield_text":"5","bicycle_network":"ncn","source":"openstreetmap.org","min_zoom":8.0,"kind_detail":"path"},"arcs":[[515],[516]]},{"type":"MultiLineString","properties":{"kind":"path","sort_rank":354,"landuse_kind":"residential","is_bicycle_related":true,"bicycle_shield_text":"5","bicycle_network":"ncn","source":"openstreetmap.org","min_zoom":8.0,"kind_detail":"cycleway"},"arcs":[[517],[518]]},{"type":"MultiLineString","properties":{"kind":"major_road","sort_rank":379,"landuse_kind":"urban_area","is_bicycle_related":true,"bicycle_shield_text":"5","bicycle_network":"ncn","source":"openstreetmap.org","min_zoom":8.0,"kind_detail":"secondary"},"arcs":[[519],[520],[521]]},{"type":"MultiLineString","properties":{"source":"openstreetmap.org","kind":"major_road","landuse_kind":"park","sort_rank":380,"kind_detail":"primary","ref":"21","min_zoom":8.0},"arcs":[[522],[523],[524],[525]]},{"type":"MultiLineString","properties":{"kind":"major_road","sort_rank":377,"kind_detail":"tertiary","is_bicycle_related":true,"bicycle_shield_text":"2","bicycle_network":"ncn","source":"openstreetmap.org","min_zoom":8.0,"landuse_kind":"park"},"arcs":[[526],[527],[528],[529]]},{"type":"LineString","properties":{"kind":"major_road","sort_rank":380,"kind_detail":"primary","is_bicycle_related":true,"bicycle_shield_text":"22","bicycle_network":"rcn","source":"openstreetmap.org","min_zoom":8.0,"ref":"16","id":75484517},"arcs":[530]},{"type":"LineString","properties":{"kind":"major_road","sort_rank":380,"kind_detail":"primary","is_bicycle_related":true,"bicycle_shield_text":"2","bicycle_network":"ncn","source":"openstreetmap.org","min_zoom":8.0,"ref":"46"},"arcs":[531]},{"type":"LineString","properties":{"kind":"minor_road","sort_rank":360,"kind_detail":"unclassified","is_bicycle_related":true,"bicycle_shield_text":"5","bicycle_network":"ncn","source":"openstreetmap.org","min_zoom":8.0,"landuse_kind":"urban_area","id":38721897},"arcs":[532]},{"type":"LineString","properties":{"sort_rank":355,"source":"openstreetmap.org","min_zoom":8.0,"name":"Kiel - Oslo","kind":"ferry"},"arcs":[533]},{"type":"MultiLineString","properties":{"kind":"major_road","sort_rank":377,"landuse_kind":"urban_area","is_bicycle_related":true,"bicycle_shield_text":"2","bicycle_network":"ncn","source":"openstreetmap.org","min_zoom":8.0,"kind_detail":"tertiary"},"arcs":[[534],[535],[536],[537]]},{"type":"MultiLineString","properties":{"source":"openstreetmap.org","kind":"major_road","landuse_kind":"urban_area","sort_rank":380,"kind_detail":"primary","ref":"O2;505","min_zoom":8.0},"arcs":[[538],[539]]},{"type":"MultiLineString","properties":{"source":"openstreetmap.org","kind":"major_road","landuse_kind":"urban_area","sort_rank":380,"kind_detail":"primary","min_zoom":8.0},"arcs":[[540],[541],[542],[543],[544],[545]]},{"type":"LineString","properties":{"kind":"major_road","sort_rank":380,"kind_detail":"primary","is_bicycle_related":true,"cycleway_right":"lane","source":"openstreetmap.org","min_zoom":8.0,"id":23166611},"arcs":[546]},{"type":"LineString","properties":{"source":"openstreetmap.org","kind":"ferry","name":"Sejer\u00f8f\u00e6rgen","sort_rank":355,"min_zoom":8.0,"id":112655435},"arcs":[547]},{"type":"LineString","properties":{"kind":"path","sort_rank":354,"kind_detail":"path","is_bicycle_related":true,"bicycle_shield_text":"4","bicycle_network":"ncn","source":"openstreetmap.org","min_zoom":8.0,"landuse_kind":"urban_area","id":18929895},"arcs":[548]},{"type":"LineString","properties":{"bus_network":null,"sort_rank":379,"landuse_kind":"residential","is_bicycle_related":true,"kind":"major_road","bicycle_shield_text":"5","bicycle_network":"ncn","source":"openstreetmap.org","min_zoom":8.0,"bus_shield_text":"2 old","kind_detail":"secondary","cycleway":"track"},"arcs":[549]},{"type":"MultiLineString","properties":{"cycleway_right":"lane","sort_rank":380,"kind_detail":"primary","is_bicycle_related":true,"kind":"major_road","source":"openstreetmap.org","min_zoom":8.0,"ref":"16"},"arcs":[[550],[551],[552],[553]]},{"type":"MultiLineString","properties":{"kind":"major_road","sort_rank":377,"kind_detail":"tertiary","is_bicycle_related":true,"bicycle_shield_text":"5","bicycle_network":"ncn","source":"openstreetmap.org","min_zoom":8.0,"landuse_kind":"park","cycleway":"track"},"arcs":[[554],[555]]},{"type":"LineString","properties":{"kind":"major_road","sort_rank":380,"kind_detail":"primary","is_bicycle_related":true,"bicycle_shield_text":"3","bicycle_network":"rcn","source":"openstreetmap.org","min_zoom":8.0,"ref":"16","id":38880978},"arcs":[556]},{"type":"LineString","properties":{"kind":"ferry","name":"Snaptun - Endelave","sort_rank":355,"is_bicycle_related":true,"source":"openstreetmap.org","min_zoom":8.0,"id":-451290,"osm_relation":true},"arcs":[557]},{"type":"LineString","properties":{"kind":"path","sort_rank":354,"kind_detail":"track","is_bicycle_related":true,"bicycle_shield_text":"5","bicycle_network":"ncn","source":"openstreetmap.org","min_zoom":8.0,"landuse_kind":"park","id":37868310},"arcs":[558]},{"type":"MultiLineString","properties":{"kind":"minor_road","sort_rank":360,"kind_detail":"residential","is_bicycle_related":true,"bicycle_shield_text":"5","bicycle_network":"ncn","source":"openstreetmap.org","min_zoom":8.0},"arcs":[[559],[560],[561],[562],[563],[564]]},{"type":"LineString","properties":{"source":"openstreetmap.org","kind":"ferry","name":"Aarhus - S\u00e6lvig","sort_rank":355,"is_bicycle_related":true,"min_zoom":8.0,"id":436079268},"arcs":[565]},{"type":"MultiLineString","properties":{"cycleway_right":"lane","sort_rank":380,"kind_detail":"primary","is_bicycle_related":true,"bus_network":null,"source":"openstreetmap.org","min_zoom":8.0,"bus_shield_text":"6A","landuse_kind":"urban_area","ref":"O2;180","kind":"major_road"},"arcs":[[566],[567]]},{"type":"LineString","properties":{"kind":"ferry","name":"Grenaa-Anholt F\u00e6rgefart","sort_rank":355,"is_bicycle_related":true,"source":"openstreetmap.org","min_zoom":8.0,"id":-452739,"osm_relation":true},"arcs":[568]},{"type":"MultiLineString","properties":{"kind":"highway","network":"e-road","sort_rank":383,"kind_detail":"motorway","source":"openstreetmap.org","min_zoom":8.0,"all_networks":["e-road"],"shield_text":"45","ref":"E 45","all_shield_texts":["45"]},"arcs":[[569],[570],[571],[572],[573],[574],[575],[576],[577],[578],[579],[580],[581],[582],[583],[584],[585],[586],[587],[588],[589],[590]]},{"type":"MultiLineString","properties":{"bus_network":null,"sort_rank":379,"kind_detail":"secondary","is_bicycle_related":true,"kind":"major_road","bicycle_shield_text":"5","bicycle_network":"ncn","source":"openstreetmap.org","min_zoom":8.0,"bus_shield_text":"104","cycleway":"lane","ref":"459"},"arcs":[[591],[592]]},{"type":"LineString","properties":{"kind":"major_road","sort_rank":379,"kind_detail":"secondary","is_bicycle_related":true,"bus_network":"Midttrafik","bicycle_shield_text":"5","cycleway":"track","source":"openstreetmap.org","min_zoom":8.0,"bus_shield_text":"103","bicycle_network":"ncn","ref":"445"},"arcs":[593]},{"type":"LineString","properties":{"kind":"minor_road","sort_rank":360,"landuse_kind":"urban_area","is_bicycle_related":true,"bicycle_shield_text":"5","bicycle_network":"ncn","source":"openstreetmap.org","min_zoom":8.0,"kind_detail":"unclassified","cycleway":"track"},"arcs":[594]},{"type":"LineString","properties":{"kind":"path","sort_rank":354,"kind_detail":"path","is_bicycle_related":true,"bicycle_shield_text":"5","bicycle_network":"ncn","source":"openstreetmap.org","min_zoom":8.0,"landuse_kind":"park","id":158831554},"arcs":[595]},{"type":"MultiLineString","properties":{"kind":"minor_road","sort_rank":360,"kind_detail":"unclassified","is_bicycle_related":true,"bicycle_shield_text":"2","bicycle_network":"ncn","source":"openstreetmap.org","min_zoom":8.0},"arcs":[[596],[597],[598],[599],[600],[601],[602]]},{"type":"LineString","properties":{"kind":"major_road","sort_rank":380,"kind_detail":"primary","is_bicycle_related":true,"bicycle_shield_text":"2","bicycle_network":"ncn","source":"openstreetmap.org","min_zoom":8.0,"ref":"16","id":128929020},"arcs":[603]},{"type":"MultiLineString","properties":{"kind":"major_road","network":"dk:national","sort_rank":380,"kind_detail":"primary","source":"openstreetmap.org","min_zoom":8.0,"landuse_kind":"park","shield_text":"21","ref":"21"},"arcs":[[604],[605]]},{"type":"LineString","properties":{"kind":"minor_road","sort_rank":358,"landuse_kind":"urban_area","is_bicycle_related":true,"bicycle_shield_text":"EV12","bicycle_network":"icn","source":"openstreetmap.org","min_zoom":8.0,"kind_detail":"service"},"arcs":[606]},{"type":"MultiLineString","properties":{"kind":"major_road","sort_rank":379,"landuse_kind":"residential","is_bicycle_related":true,"bicycle_shield_text":"2","bicycle_network":"ncn","source":"openstreetmap.org","min_zoom":8.0,"kind_detail":"secondary","cycleway":"track","ref":"180"},"arcs":[[607],[608],[609]]},{"type":"LineString","properties":{"kind":"minor_road","sort_rank":360,"kind_detail":"residential","is_bicycle_related":true,"bicycle_shield_text":"2","bicycle_network":"ncn","source":"openstreetmap.org","min_zoom":8.0,"landuse_kind":"park","id":36876966},"arcs":[610]},{"type":"LineString","properties":{"kind":"major_road","sort_rank":380,"kind_detail":"primary","is_bicycle_related":true,"cycleway":"lane","source":"openstreetmap.org","min_zoom":8.0,"landuse_kind":"urban_area","ref":"46","id":23781347},"arcs":[611]},{"type":"MultiLineString","properties":{"source":"openstreetmap.org","kind":"major_road","sort_rank":380,"kind_detail":"primary","ref":"15","min_zoom":8.0},"arcs":[[612],[613],[614]]},{"type":"MultiLineString","properties":{"kind":"highway","network":"e-road","sort_rank":383,"landuse_kind":"urban_area","source":"openstreetmap.org","min_zoom":8.0,"all_networks":["e-road"],"kind_detail":"motorway","shield_text":"45","ref":"15;E 45","all_shield_texts":["45"]},"arcs":[[615],[616]]},{"type":"LineString","properties":{"kind":"major_road","sort_rank":380,"kind_detail":"primary","is_bicycle_related":true,"bus_network":null,"cycleway":"track","source":"openstreetmap.org","min_zoom":8.0,"bus_shield_text":"6A","landuse_kind":"residential","ref":"O2","id":144781281},"arcs":[617]},{"type":"MultiLineString","properties":{"kind":"major_road","sort_rank":377,"kind_detail":"tertiary","is_bicycle_related":true,"bicycle_shield_text":"2","bicycle_network":"ncn","source":"openstreetmap.org","min_zoom":8.0},"arcs":[[618],[619],[620],[621],[622],[623],[624],[625],[626],[627],[628],[629],[630],[631],[632]]}]},"earth":{"type":"GeometryCollection","geometries":[{"type":"MultiPolygon","properties":{"sort_rank":10,"source":"naturalearthdata.com","min_zoom":0.0,"kind":"earth","area":60283382479},"arcs":[[[633]],[[634]]]}]},"landuse":{"type":"GeometryCollection","geometries":[{"type":"Polygon","properties":{"kind":"residential","area":15120100,"sort_rank":20,"source":"openstreetmap.org","min_zoom":8.0,"tier":2,"id":-7519955,"osm_relation":true},"arcs":[[635],[636]]},{"type":"MultiPolygon","properties":{"kind":"residential","name":"Horsens","area":39172700,"sort_rank":20,"source":"openstreetmap.org","min_zoom":8.0,"tier":2,"id":-153358,"osm_relation":true},"arcs":[[[637]],[[638]]]},{"type":"MultiPolygon","properties":{"source":"openstreetmap.org","kind":"park","tier":2,"area":971186042,"sort_rank":24,"min_zoom":6.0,"osm_relation":true},"arcs":[[[639]]]},{"type":"MultiPolygon","properties":{"source":"openstreetmap.org","kind":"residential","tier":2,"area":266244272,"sort_rank":20,"min_zoom":8.0},"arcs":[[[640]],[[641]],[[642]],[[643]],[[644]],[[645]]]},{"type":"Polygon","properties":{"kind":"residential","name":"Hadsten","area":11976700,"sort_rank":20,"source":"openstreetmap.org","min_zoom":8.0,"tier":2,"id":46178903},"arcs":[[646]]},{"type":"MultiPolygon","properties":{"source":"openstreetmap.org","kind":"military","tier":3,"area":329268949,"sort_rank":45,"min_zoom":8.0},"arcs":[[[647]]]},{"type":"Polygon","properties":{"kind":"residential","name":"Hinnerup","area":13847200,"sort_rank":20,"source":"openstreetmap.org","min_zoom":8.0,"tier":2,"id":46249186},"arcs":[[648]]},{"type":"Polygon","properties":{"kind":"residential","name":"H\u00f8jbjerg","area":11517400,"sort_rank":20,"source":"openstreetmap.org","min_zoom":8.0,"tier":2,"id":169876295},"arcs":[[649]]},{"type":"MultiPolygon","properties":{"source":"naturalearthdata.com","kind":"urban_area","name":"","area":2882821394,"sort_rank":11,"min_zoom":4.0},"arcs":[[[650]],[[651]],[[652]],[[653]],[[654]],[[655]],[[656]],[[657],[658]]]},{"type":"Polygon","properties":{"kind":"residential","name":"Hammel","area":11944300,"sort_rank":20,"source":"openstreetmap.org","min_zoom":8.0,"tier":2,"id":38051662},"arcs":[[659]]},{"type":"Polygon","properties":{"kind":"residential","name":"Sk\u00e6ring","area":10803800,"sort_rank":20,"source":"openstreetmap.org","min_zoom":8.0,"tier":2,"id":93657340},"arcs":[[660]]},{"type":"Polygon","properties":{"kind":"residential","name":"Skanderborg","area":15736700,"sort_rank":20,"source":"openstreetmap.org","min_zoom":8.0,"tier":2,"id":117790994},"arcs":[[661]]}]}},"type":"Topology","transform":{"translate":[9.84375,55.7765730187],"scale":[0.0003433228,0.00019114]},"arcs":[[[2568,0],[13,184],[59,139],[369,392],[19,88],[1068,1903]],[[4096,1879],[-228,-126],[-68,-78],[-432,-811],[-587,-864]],[[2278,0],[66,164],[-32,43],[11,111],[50,116],[61,61],[-6,47],[33,74],[0,49],[-39,111],[-10,-28],[47,-134],[-76,-81],[-52,-22],[-32,19],[-21,39],[13,22],[-37,14],[-22,81],[22,28],[24,-11],[13,42],[30,-44],[34,31],[-127,59],[-77,96],[-59,294],[-116,-122],[15,-163],[26,-59],[60,9],[76,-53],[52,-124],[-51,-188],[-101,-15],[-54,-70],[-8,-297],[40,-99]],[[1405,0],[-41,92],[-20,-92]],[[1150,0],[-6,0]],[[1046,1952],[-108,-35],[-218,65],[-104,78],[-2,53],[72,42],[68,110],[-47,98],[-65,50],[-25,81],[40,98],[75,47],[5,52],[-51,47],[-50,105],[-147,131],[-267,44],[-80,116],[59,174],[93,51],[61,114],[171,43],[16,52],[-274,166],[-146,144],[-122,160]],[[1053,1953],[-81,-28],[-18,-84],[-56,-52],[-112,-7],[-45,-83],[-521,-305],[-220,51]],[[1050,1952],[-79,-29],[-16,-81],[-57,-53],[-109,-6],[-48,-84],[-264,-146],[-79,-69],[-222,-108],[-26,-170],[28,-35],[84,-19],[38,-50],[45,-104],[2,-153],[-62,-94],[-87,-74],[-198,-63]],[[232,1396],[8,2],[8,4],[-16,-6]],[[1051,1953],[-7,-2],[-5,-1],[5,0],[7,3]],[[1053,1953],[-81,-28],[-18,-84],[-56,-52],[-109,-6],[-48,-84],[-264,-146],[-79,-69],[-222,-108],[-26,-170],[28,-35],[84,-19],[38,-50],[45,-104],[2,-153],[-62,-94],[-87,-74],[-198,-63]],[[148,3177],[-27,-7],[-121,74]],[[148,3177],[1,2]],[[149,3179],[2,6]],[[151,3185],[3,6]],[[154,3191],[2,5]],[[156,3196],[7,15]],[[163,3211],[1,4]],[[164,3215],[1,2]],[[165,3217],[1,2]],[[166,3219],[1,4]],[[167,3223],[1,2]],[[168,3225],[1,3]],[[169,3228],[2,7]],[[171,3235],[11,36]],[[182,3271],[1,5]],[[183,3276],[1,4]],[[184,3280],[2,4]],[[186,3284],[2,5]],[[188,3289],[2,4]],[[190,3293],[3,4]],[[193,3297],[3,4]],[[196,3301],[3,4]],[[199,3305],[2,3]],[[201,3308],[4,4]],[[205,3312],[4,3]],[[209,3315],[3,3]],[[212,3318],[4,3]],[[216,3321],[5,3]],[[221,3324],[5,3]],[[226,3327],[3,1]],[[229,3328],[4,2]],[[233,3330],[40,15]],[[273,3345],[4,2]],[[277,3347],[3,2]],[[280,3349],[3,2]],[[283,3351],[4,2]],[[287,3353],[4,3]],[[291,3356],[2,3]],[[293,3359],[3,3]],[[296,3362],[2,2]],[[298,3364],[2,3]],[[300,3367],[2,4]],[[302,3371],[2,3]],[[304,3374],[4,9]],[[308,3383],[18,40]],[[326,3423],[2,5]],[[328,3428],[9,20]],[[337,3448],[3,8]],[[340,3456],[1,2]],[[341,3458],[2,3]],[[343,3461],[1,2]],[[344,3463],[2,1]],[[346,3464],[1,2]],[[347,3466],[3,3]],[[350,3469],[2,1]],[[352,3470],[1,2]],[[353,3472],[2,1]],[[355,3473],[3,2]],[[358,3475],[1,1]],[[359,3476],[2,1]],[[361,3477],[2,1]],[[363,3478],[2,1]],[[365,3479],[3,1]],[[368,3480],[4,1]],[[372,3481],[3,1]],[[1053,1954],[-120,-36],[-213,63],[-104,79],[-2,53],[72,43],[67,109],[-46,98],[-65,49],[-25,82],[38,96],[77,49],[5,52],[-51,47],[-50,104],[-151,134],[-279,52],[-63,103],[5,46]],[[0,614],[198,63],[87,74],[62,94],[-2,153],[-45,104],[-38,51],[-83,19],[-29,33],[24,168],[568,326],[44,82],[113,8],[56,53],[17,82],[78,28]],[[233,1396],[3,0],[3,2],[8,3],[-7,-4],[-7,-1]],[[1051,1953],[-7,-2],[-5,-1],[5,0],[7,3]],[[4096,4096],[0,-4096],[-1852,0],[1,1],[29,92],[-3,175],[14,94],[78,103],[42,76],[-9,35],[-21,-31],[-25,-56],[-35,-21],[-50,72],[-15,52],[-2,55],[11,56],[26,52],[-74,23],[-66,59],[-46,90],[-22,220],[-38,11],[-44,-46],[-29,-68],[-10,-130],[38,-56],[59,-25],[53,-39],[39,-88],[3,-89],[-24,-82],[-39,-66],[-51,-42],[-42,-22],[-30,-44],[-17,-106],[26,-192],[40,-63],[-618,0],[-1,8],[-25,54],[-20,-9],[-16,-53],[-810,0],[9,34],[48,106],[10,56],[-29,23],[-417,93],[-73,83],[71,17],[153,-9],[76,31],[20,26],[18,36],[24,31],[38,13],[283,14],[37,-14],[27,-34],[12,-39],[9,-39],[13,-33],[45,-73],[27,-25],[36,-10],[28,12],[15,26],[9,25],[26,38],[-11,55],[-21,52],[-15,13],[20,32],[34,32],[32,21],[14,0],[11,37],[70,92],[11,44],[4,41],[3,91],[-5,132],[7,67],[73,165],[-14,37],[-51,-6],[-70,-35],[53,104],[36,92],[12,101],[-19,132],[-46,108],[-48,71],[-19,77],[40,122],[71,99],[157,131],[71,92],[79,171],[21,28],[41,7],[25,23],[16,43],[11,70],[40,-33],[75,35],[32,-21],[30,-40],[38,-31],[42,-17],[39,0],[-85,-173],[-3,-65],[49,-83],[-39,-73],[-50,20],[-50,54],[-42,31],[-54,-21],[-98,-79],[-65,-7],[63,-80],[44,-74],[51,-41],[81,16],[65,43],[27,5],[120,-36],[26,-28],[20,-58],[-27,-11],[-49,-36],[-23,-25],[21,-51],[29,-100],[30,-44],[36,-13],[49,6],[47,22],[28,37],[-13,88],[-38,133],[-20,122],[93,110],[66,114],[72,87],[70,-25],[35,-27],[38,-7],[29,-21],[8,-70],[-15,-66],[-31,-29],[-75,-13],[68,-121],[102,-75],[91,19],[41,160],[-7,162],[15,70],[52,71],[135,94],[268,383],[32,116],[3,123],[14,140],[37,120],[67,66],[0,33],[-180,182],[-94,165],[-44,49],[-95,53],[-97,11],[-691,-109],[-238,28],[-219,124],[-86,72],[-4,6],[2581,0]],[[1093,4096],[90,0],[-36,-27],[-29,-69],[-9,-144],[3,-198],[-33,-28],[-90,-5],[36,43],[32,69],[14,76],[-22,59],[10,48],[20,170],[14,6]],[[1093,4096],[-14,-6],[-20,-170],[-10,-48],[22,-59],[-14,-76],[-32,-69],[-36,-43],[90,5],[33,28],[-3,198],[9,144],[29,69],[36,27]],[[1515,4096],[4,-6],[86,-72],[219,-124],[238,-28],[691,109],[97,-11],[95,-53],[44,-49],[94,-165],[180,-182],[0,-33],[-67,-66],[-37,-120],[-14,-140],[-3,-123],[-32,-116],[-268,-383],[-135,-94],[-52,-71],[-15,-70],[7,-162],[-41,-160],[-91,-19],[-102,75],[-68,121],[75,13],[31,29],[15,66],[-8,70],[-29,21],[-38,7],[-35,27],[-70,25],[-72,-87],[-66,-114],[-93,-110],[20,-122],[38,-133],[13,-88],[-28,-37],[-47,-22],[-49,-6],[-36,13],[-30,44],[-29,100],[-21,51],[23,25],[49,36],[27,11],[-20,58],[-26,28],[-120,36],[-27,-5],[-65,-43],[-81,-16],[-51,41],[-44,74],[-63,80],[65,7],[98,79],[54,21],[42,-31],[50,-54],[50,-20],[39,73],[-49,83],[3,65],[85,173],[-39,0],[-42,17],[-38,31],[-30,40],[-32,21],[-75,-35],[-40,33],[-11,-70],[-16,-43],[-25,-23],[-41,-7],[-21,-28],[-79,-171],[-71,-92],[-157,-131],[-71,-99],[-40,-122],[19,-77],[48,-71],[46,-108],[19,-132],[-12,-101],[-36,-92],[-53,-104],[70,35],[51,6],[14,-37],[-73,-165],[-7,-67],[5,-132],[-3,-91],[-4,-41],[-11,-44],[-70,-92],[-11,-37],[-14,0],[-32,-21],[-34,-32],[-20,-32],[15,-13],[21,-52],[11,-55],[-26,-38],[-9,-25],[-15,-26],[-28,-12],[-36,10],[-27,25],[-45,73],[-13,33],[-9,39],[-12,39],[-27,34],[-37,14],[-283,-14],[-38,-13],[-24,-31],[-18,-36],[-20,-26],[-76,-31],[-153,9],[-71,-17],[73,-83],[417,-93],[29,-23],[-10,-56],[-48,-106],[-9,-34]],[[2085,469],[-51,-42],[-42,-22],[-30,-44],[-17,-106],[26,-192],[40,-63]],[[2244,0],[1,1],[29,92],[-3,175],[14,94],[78,103],[42,76],[-9,35],[-21,-31],[-25,-56],[-35,-21],[-50,72],[-15,52],[-2,55],[11,56],[26,52],[-74,23],[-66,59],[-46,90],[-22,220],[-38,11],[-44,-46],[-29,-68],[-10,-130],[38,-56],[59,-25],[53,-39],[39,-88],[3,-89],[-24,-82],[-39,-66]],[[76,2395],[-5,0]],[[1058,1897],[1,14]],[[1062,1922],[3,21]],[[1089,2032],[-5,-9]],[[1085,2023],[5,10]],[[1150,2162],[-8,-31]],[[1278,2230],[-126,-66]],[[2399,1982],[-1,-1]],[[1009,1967],[17,20]],[[265,1389],[8,-98],[-45,-26],[-18,16],[2,-78],[32,66],[90,11],[-37,67]],[[1118,2008],[-11,0]],[[1308,2306],[36,49]],[[1345,2355],[1,2]],[[607,238],[35,3]],[[451,602],[1,0]],[[452,601]],[[2114,2714],[-34,0]],[[2114,2714],[7,-2]],[[2121,2713],[-7,1]],[[546,3566],[-1,1]],[[572,3538],[-26,28]],[[143,470],[2,-1]],[[1288,2265],[1,-3]],[[1078,2010],[-1,-1]],[[600,2234],[-78,35]],[[535,3579],[-22,11]],[[504,1726],[-1,0]],[[526,1847],[23,6]],[[569,1853],[5,0]],[[645,1876],[-70,-24]],[[975,1956],[11,15]],[[1045,1998],[9,2]],[[1073,1996],[-18,4]],[[1388,3626],[4,33]],[[1433,3795],[0,1]],[[985,1971],[7,-1]],[[992,1970],[-6,1]],[[992,1970],[15,-4]],[[1284,2259],[5,3]],[[1426,2557],[38,90]],[[573,3539],[-1,-1]],[[92,360],[-75,24]],[[32,434],[-2,-5]],[[30,428],[3,6]],[[33,434],[21,0],[-21,1]],[[145,469],[12,1]],[[1062,1922],[-2,-6]],[[1077,1831],[63,-127]],[[1084,2022],[-2,-4]],[[1095,2043],[-6,-11]],[[1090,2033],[5,10]],[[1095,2043],[42,70]],[[1278,2230],[1,2]],[[1284,2249],[0,10]],[[736,3481],[-32,3]],[[224,457],[129,-25],[-12,148]],[[397,1520],[-142,-80]],[[255,1438],[88,40],[55,42]],[[445,1555],[22,17],[57,92],[20,20],[14,23]],[[558,1707],[11,17]],[[569,1724],[3,5],[-16,104],[28,113]],[[583,1947],[-1,-6],[-21,-59],[-2,-9],[-3,-40],[6,-44],[7,-65]],[[569,1724],[0,-4],[-11,-13]],[[558,1707],[-27,-34],[-8,-8],[-12,-18],[-50,-80],[-16,-11]],[[784,2319],[23,34]],[[807,2353],[3,4],[8,25],[22,163]],[[839,2544],[-21,-157],[-2,-12],[-9,-22]],[[807,2353],[0,-2],[-8,-12]],[[2402,2036],[0,-50]],[[2403,2143],[6,18]],[[2410,2165],[-1,-4]],[[2410,2165],[2,4]],[[0,119],[17,117]],[[413,3601],[11,-36],[14,-20]],[[438,3546],[-24,53]],[[617,3385],[52,-37]],[[669,3349],[-50,35]],[[892,1776],[30,-27],[-26,22]],[[1388,3626],[-1,0],[0,-1],[1,1]],[[1136,1036],[48,36],[31,214]],[[3151,3307],[17,16]],[[575,3548],[-2,-9]],[[1215,1300],[-9,24]],[[65,436],[74,32]],[[0,1529],[33,-15]],[[43,1520],[21,38],[107,35],[54,54],[159,13]],[[496,1835],[18,-45]],[[716,1903],[1,1]],[[3103,3293],[-102,-3]],[[1009,1967],[-2,-1]],[[0,241],[17,-5]],[[4096,3954],[-925,-621]],[[2214,2371],[5,-4]],[[2220,2367],[-1,0]],[[2492,2322],[6,29]],[[896,1771],[-4,6]],[[1030,2124],[-1,0]],[[1464,3018],[0,1],[-1,0],[0,-1],[1,0]],[[30,428],[-8,-16]],[[2432,2229],[4,42]],[[486,3649],[-1,0],[0,-2],[1,1],[0,1]],[[476,165],[17,16]],[[581,224],[24,11]],[[2333,163],[18,13],[194,-176]],[[118,3682],[-8,0]],[[471,605],[112,-6],[33,-35],[40,68],[139,0],[16,-31],[197,-3],[129,124],[55,0]],[[605,235],[2,3]],[[1136,1036],[8,-236]],[[1407,2384],[-19,-10]],[[1425,2503],[-37,-19],[37,-45]],[[1956,2581],[29,-127]],[[4096,1013],[-1955,447],[-921,541],[-102,7]],[[1857,2652],[3,62]],[[1985,2454],[14,-27],[103,6],[90,-52]],[[2219,2367],[1,0]],[[37,36],[-37,56]],[[1209,707],[179,75],[373,43],[33,51],[-15,23]],[[545,3567],[-10,12]],[[798,1827],[-26,-6]],[[775,1820],[24,6]],[[901,1918],[1,0]],[[1029,2124],[-24,-12]],[[1006,2112],[23,11]],[[1425,2689],[2,7]],[[1117,2004],[-32,-35]],[[2275,2522],[104,-132]],[[898,1813],[-17,-13]],[[881,1799],[17,14]],[[3151,3307],[17,16]],[[4096,2152],[-701,-1163],[-578,-803],[-18,-186]],[[277,1377],[-12,12]],[[265,1389]],[[297,1347],[-20,30]],[[1466,3016],[109,-103]],[[3008,3251],[-9,-47]],[[882,1955],[-1,0]],[[1956,2581],[-19,29]],[[438,3545],[41,-54],[38,-33],[44,-34],[56,-39]],[[619,3384],[-181,162]],[[55,434],[10,2]],[[139,468],[4,2]],[[150,299],[-9,28]],[[207,236],[49,-22]],[[441,602],[-1,-40],[-99,18]],[[401,160],[4,25],[38,-12]],[[484,0],[-11,9]],[[488,78],[47,100],[31,-6],[22,56]],[[1137,1613],[-10,31],[34,14]],[[1223,1388],[-15,92]],[[1431,2537],[-6,-34]],[[1464,2647],[102,4],[6,38],[220,48]],[[1029,2123],[1,1]],[[2400,1984],[1,1]],[[4096,1041],[-1113,548],[-417,256],[-140,1],[-54,45],[-7,45],[33,45]],[[33,435],[-1,0]],[[33,434]],[[54,434],[1,0]],[[711,2146],[4,-1]],[[715,2145],[-4,2]],[[715,2145],[88,-25]],[[803,2120],[20,-7]],[[823,2113],[59,-26]],[[882,2087],[29,-24]],[[911,2064],[-17,16],[-12,7]],[[425,3711],[59,-61]],[[484,3650],[1,-1]],[[485,3649],[-1,1]],[[620,3440],[-10,-2]],[[610,3438],[10,2]],[[704,3484],[-84,-44]],[[4096,2152],[-782,-1297],[-497,-669],[-18,-186]],[[408,3617],[-8,1]],[[412,3616],[-3,1]],[[2917,3379]],[[2918,3377],[0,1]],[[265,1389]],[[297,1347],[-20,30]],[[2196,2380],[-4,1]],[[2040,3785],[216,-132],[65,24]],[[3073,3584],[-2,1]],[[55,0],[-18,36]],[[496,1835],[30,12]],[[716,1903],[-71,-27]],[[1073,1971],[-4,-7]],[[1069,1964],[4,6]],[[3171,3333],[-14,-25]],[[124,3683],[-6,-1]],[[928,1842]],[[265,1389],[8,-98],[-45,-26],[-18,16],[2,-78],[32,66],[90,11],[-37,67]],[[3001,3290],[7,-39]],[[1073,1970],[1,2]],[[669,3495],[-60,36]],[[669,3495],[16,-9]],[[688,3489],[-19,6]],[[651,2185],[-51,49]],[[651,2185],[31,-26]],[[682,2159],[25,-11]],[[707,2148],[4,-2]],[[711,2147],[-4,1]],[[3123,3292],[-20,1]],[[925,1837],[-27,-24]],[[898,1813],[27,24]],[[581,224]],[[1137,1613],[3,-4]],[[1005,2112],[-28,-18],[-39,-15],[-4,-2]],[[934,2077],[-20,-11]],[[914,2066],[-3,-1],[-1,-1],[-15,-18]],[[895,2046],[-12,-15]],[[883,2031],[-5,-7],[-2,-5],[-2,-47],[37,-100]],[[912,1872],[-14,63],[-24,38],[3,46],[6,12]],[[883,2031],[2,3],[4,4],[6,8]],[[895,2046],[5,5],[4,4],[7,9],[3,2]],[[914,2066],[3,3],[17,8]],[[934,2077],[4,1],[21,7],[18,8],[29,19]],[[384,1660],[55,30],[80,-9],[-16,45]],[[514,1790],[19,-50],[-43,9],[14,-23]],[[575,1852],[-1,1]],[[1071,1988],[4,-1]],[[15,397],[-1,-2]],[[0,2924],[85,42],[178,125],[291,317]],[[790,3474],[-11,2]],[[145,342],[-53,18]],[[452,602],[0,-1]],[[473,9],[15,69]],[[493,181],[88,43]],[[1140,1704],[22,-46]],[[1193,723],[-16,32],[15,-33]],[[1807,2730],[-15,7]],[[2284,2359],[88,-16]],[[425,3711],[-5,-6]],[[553,1974],[-5,-2],[-130,-13]],[[418,1959],[-36,-4],[-23,-13]],[[361,1936],[57,23]],[[418,1959],[27,10],[112,7]],[[843,2316],[-29,26]],[[834,2323],[9,-7]],[[1124,2338],[71,22],[55,46]],[[1249,2407],[-124,-67]],[[1419,2667],[-22,-126]],[[1398,2540],[22,127]],[[772,1821],[-80,-23],[-130,-92],[-31,-33]],[[544,1684],[150,114],[81,22]],[[909,1879],[-21,-5],[-47,-35],[-6,-3],[-37,-9]],[[799,1826],[40,11],[47,36]],[[1210,711],[178,48],[218,-14],[296,-141],[142,-110],[10,-35]],[[1026,1987],[3,2]],[[1030,1990],[15,8]],[[1071,1988],[2,8]],[[0,3750],[110,-68]],[[275,3648],[-163,33]],[[409,3617],[-1,0]],[[981,3471],[-2,-1]],[[979,3470],[2,1]],[[1285,3506],[-304,-35]],[[1287,3506],[63,-2]],[[1358,3504],[145,-69]],[[1506,3434],[-3,1]],[[1546,3422],[-40,12]],[[1554,3420],[-8,2]],[[1554,3420],[40,-11]],[[1597,3408],[-3,1]],[[2269,3443],[-229,-33],[-171,17],[-129,-33],[-143,14]],[[2275,3443],[327,39],[285,-86]],[[1285,3505],[1,0],[0,1],[-1,0],[0,-1]],[[403,3707],[17,-2]],[[549,1853],[20,0]],[[727,1912],[58,7],[69,-50],[22,39],[84,11],[15,37]],[[1029,1989],[1,1]],[[2129,2711],[1,0]],[[2130,2711],[-1,0]],[[2229,2702],[-99,9]],[[1025,1716],[-103,33]],[[22,412],[-7,-15]],[[881,1799],[11,-23]],[[892,1777],[-10,23]],[[1074,1978],[-1,-7]],[[1074,1972],[0,6]],[[2999,3204],[-10,-21]],[[687,3335],[-2,0]],[[685,3334],[2,1]],[[862,3428],[-175,-93]],[[862,3428],[18,6]],[[975,3469],[-95,-35]],[[975,3469],[2,0]],[[977,3470],[-2,-1]],[[43,1520],[-10,-5]],[[717,1904],[10,8]],[[1210,711],[178,48],[218,-14],[296,-141],[142,-110],[10,-35]],[[1072,1977],[-1,11]],[[1073,1996],[4,13]],[[1082,2018],[-4,-8]],[[1142,2131],[-5,-18]],[[1288,2265],[20,41]],[[1344,2355],[1,0]],[[671,1972],[-10,15]],[[662,1992],[16,11]],[[703,2018],[-24,-14]],[[848,3427],[27,5]],[[679,2004],[-1,0],[0,-2],[1,1],[0,1]],[[1748,3719],[1,1]],[[2340,3762],[-4,3]],[[607,238],[105,-96],[408,28],[35,-24],[40,-146]],[[3139,3301],[6,-3]],[[3144,3299],[4,0]],[[3145,3298],[3,1]],[[1748,3719],[-2,35],[-70,83],[-84,28],[-13,82],[-65,36],[1,46],[-52,67]],[[1749,3720],[3,-23],[114,2],[174,86]],[[2321,3677],[15,88]],[[2340,3762],[33,29],[85,7],[-3,73],[30,70],[41,3],[50,-79],[153,31],[55,-61],[58,-22],[52,-164],[29,7],[51,-63],[99,-9],[-5,-26],[112,13],[27,-77],[-77,-108]],[[607,238],[35,3]],[[1215,1286],[0,14]],[[558,1975],[-5,-1]],[[557,1976],[1,0]],[[928,1842],[-3,-5]],[[925,1837],[3,5]],[[650,2102],[0,-2],[-12,-16]],[[638,2084],[-46,-65]],[[597,2029],[41,55]],[[638,2084],[12,16],[1,2]],[[277,1377],[-12,12]],[[2412,2169],[13,41]],[[2425,2210],[7,19]],[[2431,2230],[-6,-20]],[[2937,3351],[17,-31]],[[3139,3301],[-9,85]],[[1060,1916],[-1,-5]],[[1069,1964],[-4,-21],[4,21]],[[1151,2163],[1,1]],[[1709,2818],[142,10],[69,-51]],[[1995,2712],[-75,65]],[[2080,2714],[-85,-2]],[[2122,2713],[-1,0]],[[2121,2712],[1,0]],[[2954,3320],[37,-31]],[[554,1807],[26,-1]],[[580,1806],[8,0]],[[675,1803],[-87,3]],[[675,1803],[37,-11]],[[703,2018],[26,13]],[[712,1792],[66,-17],[23,-35]],[[1424,2686],[1,3]],[[928,1842],[1,0]],[[2379,2390],[13,-50]],[[978,3469],[2,-2]],[[980,3467],[-1,2]],[[980,3467],[482,-446]],[[1462,3021],[1,-2]],[[1463,3019],[-1,2]],[[1464,3018]],[[1575,2913],[114,-87]],[[1689,2826],[1,-1]],[[1691,2826],[-2,0]],[[1690,2825],[1,-2],[2,1]],[[1693,2824],[-1,2],[-2,-1]],[[1692,2824],[2,-1]],[[1694,2823],[-1,1]],[[1694,2823],[13,-9]],[[2122,2713],[0,-1]],[[558,1976],[77,19]],[[638,1995],[-80,-20]],[[1832,2719],[-25,11]],[[1857,2652],[78,-40]],[[2220,2366],[64,-7]],[[2372,2343],[59,-69]],[[1853,2714],[7,0]],[[610,3438],[-4,-1]],[[606,3437],[-38,-16]],[[584,3432],[22,5]],[[606,3437],[4,1]],[[145,342],[-4,-15]],[[1208,1480],[-20,99],[-49,12]],[[1162,1658],[-1,0]],[[1464,2647]],[[59,2395],[-59,8]],[[71,2395],[-12,0]],[[522,2269],[-193,86],[-185,46],[-85,-6]],[[2402,1986],[-3,-4]],[[376,3624],[-101,24]],[[380,3623],[20,-5]],[[2887,3396],[25,-14]],[[2929,3366],[8,-15]],[[1427,2696],[58,69],[69,28]],[[1643,2814],[-89,-21]],[[1643,2814],[66,4]],[[3168,3323],[811,773]],[[3155,3301],[2,7]],[[659,1987],[14,-20]],[[674,1967],[-12,22]],[[662,1992],[-5,1],[-1,-5],[5,0],[1,4]],[[2991,3289],[10,1]],[[554,3408],[2,2]],[[556,3410],[8,6]],[[568,3421],[-12,-11]],[[1370,2367],[-22,-8]],[[1425,2439],[-18,-55]],[[1076,1849],[-18,48]],[[790,3474],[12,-2]],[[802,3472],[-12,2]],[[802,3472],[36,-30]],[[838,3442],[10,-15]],[[875,3432],[-37,10]],[[359,1942],[-49,-28]],[[310,1914],[-3,-1]],[[307,1913],[-72,9],[-235,11]],[[0,1931],[303,-19],[4,1]],[[307,1913],[3,1]],[[310,1914],[51,22]],[[843,2316],[34,-28],[16,-9],[12,2]],[[905,2281],[72,13]],[[977,2294],[2,0],[48,32]],[[1027,2326],[9,1]],[[1036,2327],[81,9],[7,2]],[[1125,2340],[-12,-4],[-77,-9]],[[1036,2327],[-9,-1]],[[1027,2326],[-3,-1],[-47,-31]],[[977,2294],[-18,-12],[-54,-1]],[[905,2281],[-15,0],[-47,35]],[[1397,2541],[-148,-134]],[[1250,2406],[146,125],[0,1],[2,8]],[[979,3470],[-1,1],[-1,-2],[1,0],[1,1]],[[3139,3301],[-16,-9]],[[2384,2039],[18,-3]],[[2389,2081],[-19,30],[33,32]],[[4096,2157],[-775,-1305],[-495,-669],[-18,-183]],[[32,435],[0,-1]],[[1074,1978],[-2,-1]],[[1085,2023],[-1,0]],[[1151,2163],[-1,-1]],[[1388,2374],[-18,-7]],[[157,470],[67,-13]],[[1279,2232],[5,17]],[[17,384],[-7,3]],[[1346,2357],[2,2]],[[30,429],[0,-1]],[[32,434]],[[33,434]],[[2122,2712],[153,-190]],[[2392,2340],[41,-102]],[[2433,2238],[-2,-8]],[[2432,2229],[1,9]],[[2436,2271],[56,51]],[[2498,2351],[50,61]],[[2710,2447],[15,8]],[[2794,2646],[10,36]],[[2275,3443],[-6,0]],[[736,3481],[54,-7]],[[1426,2557],[5,-20]],[[4096,2157],[-775,-1305],[-495,-669],[-18,-183]],[[609,3531],[-34,17]],[[685,3486],[7,-4],[18,2]],[[704,3484],[-16,5]],[[3128,3233],[-5,59]],[[1091,2158],[-61,-34]],[[1030,2124],[33,17],[22,12]],[[838,2106],[-8,3]],[[881,1800],[0,-1]],[[882,1800]],[[886,1803]],[[907,1821],[1,0]],[[922,1833],[0,-1]],[[377,3624],[1,-1],[1,0],[0,1],[-2,0]],[[4096,233],[-326,252],[0,57]],[[1054,2000],[1,0]],[[14,395],[-4,-8]],[[377,3624],[0,-1]],[[379,3623],[0,1]],[[400,3618],[12,-3]],[[2917,3379],[0,-2],[1,1],[0,1],[-1,0]],[[1937,2610],[-2,2]],[[2214,2371],[-18,9]],[[1350,3504],[8,0]],[[607,238],[105,-96],[408,28],[35,-24],[40,-146]],[[1853,2714],[-18,3]],[[451,602],[-10,0]],[[443,173],[33,-8]],[[452,601],[19,4]],[[1140,1609],[-1,-18]],[[1192,722],[1,1]],[[1223,1388],[18,-8],[-5,-45],[-30,-11]],[[2053,463],[-77,261],[-120,256],[-658,1025],[-81,-1]],[[911,1872],[4,-16],[13,-14]],[[929,1842],[-17,30]],[[3168,3323],[811,773]],[[0,957],[64,76],[1,3]],[[65,1036],[10,60]],[[75,1096],[39,243]],[[114,1339],[9,9]],[[123,1348],[47,51],[85,39]],[[255,1440],[-86,-41],[-46,-51]],[[123,1348],[-9,-9]],[[114,1339],[-1,-2],[-38,-241]],[[75,1096],[-10,-59],[0,-1]],[[65,1036],[-65,-77]],[[414,3599],[-21,175],[-59,110],[-215,151],[-49,61]],[[69,4096],[50,-61],[215,-151],[59,-110],[20,-173]],[[445,1556],[-48,-36]],[[398,1520],[47,35]],[[592,2019],[-6,-28],[-3,-44]],[[584,1946],[13,83]],[[669,3348],[128,-217],[6,-338],[1,-3]],[[804,2790],[28,-64]],[[832,2726],[24,-55],[-17,-127]],[[840,2545],[17,126],[-25,55]],[[832,2726],[-28,63],[0,1]],[[804,2790],[-6,341],[-45,81],[-84,137]],[[150,299],[57,-63]],[[256,214],[145,-54]],[[1144,800],[33,-45]],[[1076,1849],[1,-18]],[[1835,2717],[-3,2]],[[0,3647],[10,5]],[[44,3675],[1,0]],[[145,3692],[-21,-9]],[[189,3709],[51,5],[38,-30]],[[304,3718],[99,-11]],[[887,3472],[10,27]],[[2796,2800],[3,19]],[[112,3681],[-2,1]],[[2401,1985],[9,11]],[[2403,2143],[-1,-107]],[[3148,3299],[7,2]],[[485,3646],[0,1]],[[485,3648],[0,-2]],[[485,3646],[28,-56]],[[2384,2039],[5,42]],[[564,3416],[20,16]],[[2122,2712],[7,-1]],[[2129,2711],[-7,2]],[[2989,3183],[-447,-302],[-69,-117],[-244,-62]],[[799,2339],[-105,-96],[-44,-141]],[[651,2102],[43,140],[90,77]],[[1059,1705],[-34,11]],[[10,3652],[34,23]],[[45,3675],[67,6]],[[189,3709],[-44,-17]],[[304,3718],[-26,-34]],[[887,3472],[-97,2]],[[1387,3625],[-7,-28],[-79,8],[-139,-60],[-76,83],[-127,-65],[-62,-64]],[[1392,3659],[-88,90],[-1,72],[68,3],[62,-29]],[[1592,3865],[-159,-69]],[[2548,2412],[162,35]],[[2725,2455],[69,191]],[[2804,2682],[-8,118]],[[2799,2819],[49,-4]],[[2989,3183],[10,-93],[38,-48],[-61,-39],[-15,-85],[-51,-73],[-60,-30]],[[2999,3204],[48,-9],[81,38]],[[2849,2815],[-1,0],[0,-1],[1,0],[0,1]],[[2265,540],[50,-72],[35,21],[25,56],[21,31],[9,-35],[-42,-76],[-78,-103],[-14,-94],[3,-175],[-29,-92],[-1,-1],[-233,0],[-40,63],[-26,192],[17,106],[30,44],[42,22],[51,42],[39,66],[24,82],[-3,89],[-39,88],[-53,39],[-59,25],[-38,56],[10,130],[29,68],[44,46],[38,-11],[22,-220],[46,-90],[66,-59],[74,-23],[-26,-52],[-11,-56],[2,-55],[15,-52]],[[1183,4096],[332,0],[4,-6],[86,-72],[219,-124],[238,-28],[691,109],[97,-11],[95,-53],[44,-49],[94,-165],[180,-182],[0,-33],[-67,-66],[-37,-120],[-14,-140],[-3,-123],[-32,-116],[-268,-383],[-135,-94],[-52,-71],[-15,-70],[7,-162],[-41,-160],[-91,-19],[-102,75],[-68,121],[75,13],[31,29],[15,66],[-8,70],[-29,21],[-38,7],[-35,27],[-70,25],[-72,-87],[-66,-114],[-93,-110],[20,-122],[38,-133],[13,-88],[-28,-37],[-47,-22],[-49,-6],[-36,13],[-30,44],[-29,100],[-21,51],[23,25],[49,36],[27,11],[-20,58],[-26,28],[-120,36],[-27,-5],[-65,-43],[-81,-16],[-51,41],[-44,74],[-63,80],[65,7],[98,79],[54,21],[42,-31],[50,-54],[50,-20],[39,73],[-49,83],[3,65],[85,173],[-39,0],[-42,17],[-38,31],[-30,40],[-32,21],[-75,-35],[-40,33],[-11,-70],[-16,-43],[-25,-23],[-41,-7],[-21,-28],[-79,-171],[-71,-92],[-157,-131],[-71,-99],[-40,-122],[19,-77],[48,-71],[46,-108],[19,-132],[-12,-101],[-36,-92],[-53,-104],[70,35],[51,6],[14,-37],[-73,-165],[-7,-67],[5,-132],[-3,-91],[-4,-41],[-11,-44],[-70,-92],[-11,-37],[-14,0],[-32,-21],[-34,-32],[-20,-32],[15,-13],[21,-52],[11,-55],[-26,-38],[-9,-25],[-15,-26],[-28,-12],[-36,10],[-27,25],[-45,73],[-13,33],[-9,39],[-12,39],[-27,34],[-37,14],[-283,-14],[-38,-13],[-24,-31],[-18,-36],[-20,-26],[-76,-31],[-153,9],[-71,-17],[73,-83],[417,-93],[29,-23],[-10,-56],[-48,-106],[-9,-34],[-521,0],[0,4096],[1093,0],[-14,-6],[-20,-170],[-10,-48],[22,-59],[-14,-76],[-32,-69],[-36,-43],[90,5],[33,28],[-3,198],[9,144],[29,69],[36,27]],[[798,1055],[3,20],[67,11],[32,-14],[-6,-33],[-1,-9],[0,-4],[58,70],[7,-39],[-13,-48],[-52,-31],[-95,77]],[[891,1018],[3,-15],[3,0],[-3,22],[-3,-7]],[[0,519],[58,-30],[61,23],[26,-56],[-54,-24],[-91,16],[0,71]],[[0,435],[18,-51],[51,-26],[-31,-70],[39,-15],[-25,-26],[-52,10],[0,178]],[[1770,2693],[14,44],[77,-22],[46,67],[35,-46],[-10,-90],[75,-1],[20,36],[60,24],[-67,80],[32,59],[28,-1],[36,-54],[6,-77],[123,-11],[29,-32],[56,17],[13,-26],[94,-7],[12,-38],[122,-13],[16,-102],[81,-3],[59,-43],[58,127],[12,91],[-17,20],[55,-23],[18,53],[62,9],[-92,-213],[-62,-72],[-56,-11],[11,24],[-109,10],[-82,-80],[27,-32],[-44,-30],[-5,-65],[26,-26],[-55,-62],[7,-46],[33,-33],[-11,-51],[55,-16],[8,-49],[41,132],[-31,122],[42,9],[29,-149],[-20,-3],[18,-36],[-38,-179],[-145,34],[-38,77],[-15,-5],[-3,-11],[-14,-6],[14,31],[-66,52],[-32,89],[96,178],[-40,36],[-97,11],[-60,-8],[-52,-92],[-9,-70],[-57,-37],[12,-39],[-67,-4],[-72,-182],[-77,5],[-29,-34],[-1,191],[28,-14],[1,26],[83,1],[23,26],[-14,65],[-89,82],[9,23],[46,30],[43,124],[111,10],[26,151],[-73,-5],[-47,-40],[-59,49],[-19,-33],[13,-57],[-51,12],[-22,-19],[-89,118],[-5,53]],[[1071,2423],[25,-2],[27,43],[14,-17],[-4,25],[48,4],[20,-74],[-50,-8],[-20,-49],[-60,78]],[[1304,2551],[0,31],[31,-12],[27,90],[19,-27],[30,17],[-64,-152],[-12,35],[-19,-25],[-12,43]],[[2930,3370],[108,45],[0,-83],[39,34],[60,-53],[-14,-19],[-118,-4],[14,-33],[-21,-12],[-15,107],[-53,18]],[[501,3503],[68,35],[149,-26],[-70,-55],[-57,8],[7,-27],[-28,-12],[-9,51],[-60,26]],[[403,3707],[108,33],[6,-32],[65,6],[26,-62],[44,5],[-20,29],[26,-9],[-1,-28],[77,44],[-10,-49],[-75,-10],[-84,-75],[-126,49],[-19,-26],[-6,57],[42,-22],[-30,45],[27,19],[-41,-9],[-9,35]],[[2086,3848],[195,64],[15,-29],[-1,-33],[-117,-1],[-11,-18],[-81,17]],[[537,2855],[4,34],[59,-8],[-49,14],[6,33],[119,-6],[-46,-73],[-35,31],[12,-39],[-24,23],[-7,-25],[-39,16]],[[1589,3877],[59,78],[93,-48],[-1,-27],[-41,7],[-32,-46],[-78,36]],[[564,2602],[115,26],[3,-71],[28,-35],[-20,1],[7,-31],[-47,3],[-30,44],[7,34],[-63,29]],[[1002,1735],[51,-2],[-43,32],[4,29],[81,-19],[27,-45],[-39,-61],[-81,66]],[[0,252],[0,510],[40,-16],[81,-213],[98,-39],[11,-87],[-161,-12],[27,-31],[-96,-112]],[[879,993],[-69,22],[-41,72],[-1,143],[45,56],[30,-17],[22,-97],[101,-86],[-4,-89],[-83,-4]],[[1451,2536],[-49,1],[-117,88],[65,175],[130,-175],[-29,-89]],[[340,1340],[-68,12],[-22,111],[67,54],[95,4],[-8,-118],[-64,-63]],[[315,823],[-130,175],[36,103],[159,-103],[-65,-175]],[[3159,3296],[-6,-67],[-135,22],[-82,72],[2,48],[62,24],[186,-13],[-27,-86]],[[631,3379],[-115,43],[-79,109],[7,141],[61,49],[85,16],[86,-16],[60,-49],[0,-233],[-105,-60]],[[671,2800],[32,0],[5,-86],[-37,-205],[25,10],[40,-68],[129,116],[193,-10],[66,-48],[97,0],[32,-116],[104,21],[50,-66],[-199,-184],[-71,-99],[-40,-122],[89,-200],[-122,-104],[-37,56],[-79,-36],[-61,-104],[-221,34],[-27,-10],[0,-59],[-65,59],[-33,-59],[-97,0],[1,89],[-67,55],[2,89],[95,4],[66,54],[-25,61],[-136,-3],[-33,117],[-28,25],[-4,91],[150,-20],[198,-227],[137,-43],[-6,56],[-91,59],[0,175],[-64,0],[-130,116],[21,79],[141,96],[-16,73],[-37,35],[-109,8],[51,213],[13,111],[-32,83],[28,68],[37,-7],[38,-52],[27,-125]],[[833,2277],[85,-39],[94,4],[85,50],[59,101],[-40,49],[-89,-49],[-124,-6],[-50,-29],[-20,-81]],[[0,2525],[80,36],[23,-61],[-13,-53],[-31,22],[-1,-27],[-29,-4],[-22,26],[38,-9],[1,51],[-46,-7],[0,26]],[[1272,2383],[6,18],[37,-26],[27,40],[28,-43],[34,32],[-5,37],[40,-3],[-3,-40],[-92,-43],[-31,-52],[-26,17],[16,51],[-31,12]],[[166,1345],[8,28],[17,14],[36,-9],[-4,39],[41,12],[74,4],[33,-62],[-34,-39],[-6,28],[-16,-17],[-57,52],[9,-78],[-52,47],[-29,-4],[15,18],[-35,-33]]]}