{"objects":{"water":{"type":"GeometryCollection","geometries":[{"type":"MultiPolygon","properties":{"source":"naturalearthdata.com","kind":"ocean","area":1576712559132672,"sort_rank":200,"min_zoom":0.0,"id":1},"arcs":[[[47]]]},{"type":"MultiLineString","properties":{"source":"naturalearthdata.com","kind":"ocean","sort_rank":205,"boundary":true,"min_zoom":0.0,"id":19},"arcs":[[48],[49]]},{"type":"LineString","properties":{"source":"naturalearthdata.com","kind":"ocean","sort_rank":205,"boundary":true,"min_zoom":0.0,"id":1240},"arcs":[50]},{"type":"MultiLineString","properties":{"source":"naturalearthdata.com","kind":"ocean","sort_rank":205,"boundary":true,"min_zoom":0.0,"id":1241},"arcs":[[51],[52]]},{"type":"LineString","properties":{"source":"naturalearthdata.com","kind":"ocean","sort_rank":205,"boundary":true,"min_zoom":0.0,"id":1242},"arcs":[53]},{"type":"MultiLineString","properties":{"source":"naturalearthdata.com","kind":"ocean","sort_rank":205,"boundary":true,"min_zoom":0.0,"id":1248},"arcs":[[54],[55]]},{"type":"MultiLineString","properties":{"source":"naturalearthdata.com","kind":"ocean","sort_rank":205,"boundary":true,"min_zoom":0.0,"id":1249},"arcs":[[56],[57]]}]},"buildings":{"type":"GeometryCollection","geometries":[]},"places":{"type":"GeometryCollection","geometries":[{"type":"Point","properties":{"name:pt":"Dinamarca","name:ps":"\u0689\u0646\u0645\u0627\u0631\u06a9","name:ka":"\u10d3\u10d0\u10dc\u10d8\u10d0","name:mt":"Danimarka","name:ko":"\ub374\ub9c8\ud06c","name:kn":"\u0ca1\u0cc6\u0ca8\u0ccd\u0cae\u0cbe\u0cb0\u0ccd\u0c95\u0ccd","name:km":"\u178a\u17b6\u178e\u17ba\u1798\u17c9\u17b6\u1780","name:kl":"Danmarki","name:cs":"D\u00e1nsko","alt_name:eo":"Danio;Danlando","name:ki":"Denmaki","name:tr":"Danimarka","name:ku":"Dan\u00eemarka","name:ti":"\u12f4\u1295\u121b\u122d\u12ad","name:ks":"\u0688\u06cc\u0646\u065b\u0645\u0627\u0631\u0655\u06a9","name:to":"Tenima\u02bbake","name:tl":"Dinamarka","name:or":"\u0b21\u0b47\u0b28\u0b2e\u0b3e\u0b30\u0b4d\u0b15","name:pl":"Dania","name:ta":"\u0b9f\u0bc6\u0ba9\u0bcd\u0bae\u0bbe\u0bb0\u0bcd\u0b95\u0bcd","name:tg":"\u0414\u0430\u043d\u0438\u044f","name:ca":"Dinamarca","name:te":"\u0c21\u0c46\u0c28\u0c4d\u0c2e\u0c3e\u0c30\u0c4d\u0c15\u0c4d","name:hu":"D\u00e1nia","name:ro":"Danemarca","name:cy":"Denmarc","name:hr":"Danska","name:de":"D\u00e4nemark","name:dz":"\u0f4c\u0f7a\u0f53\u0f0b\u0f58\u0f71\u0f40","source":"openstreetmap.org","name:lv":"D\u0101nija","name:lt":"Danija","name:uz":"Daniya Qirolligi","name:kk":"\u0414\u0430\u043d\u0438\u044f","name:he":"\u05d3\u05e0\u05de\u05e8\u05e7","kind":"country","name:ur":"\u0688\u0646\u0645\u0627\u0631\u06a9","name:lb":"D\u00e4nemark","name:la":"Dania","name:lg":"Denimaaka","name:uk":"\u0414\u0430\u043d\u0456\u044f","name:hy":"\u0534\u0561\u0576\u056b\u0561","min_zoom":2.0,"name:li":"Daenemark","name:ln":"Dan\u025bmarike","name:lo":"\u0ec0\u0e94\u0e99\u0ea1\u0eb2\u0e81","population":5475791,"name:el":"\u0394\u03b1\u03bd\u03af\u03b1","name:eo":"Danujo","name:en":"Denmark","name":"Danmark","official_name":"Kingdom of Denmark","name:ee":"Denmark nutome","name:th":"\u0e1b\u0e23\u0e30\u0e40\u0e17\u0e28\u0e40\u0e14\u0e19\u0e21\u0e32\u0e23\u0e4c\u0e01","name:gu":"\u0aa1\u0ac7\u0aa8\u0aae\u0abe\u0ab0\u0acd\u0a95","name:eu":"Danimarka","name:et":"Taani","name:nl":"Denemarken","name:es":"Dinamarca","name:ml":"\u0d21\u0d46\u0d7b\u0d2e\u0d3e\u0d7c\u0d15\u0d4d\u0d15\u0d4d","name:rm":"Danemarc","name:rn":"Danimariki","name:az":"Danimarka","name:id":"Denmark","name:ms":"Denmark","name:mr":"\u0921\u0947\u0928\u094d\u092e\u093e\u0930\u094d\u0915","name:ar":"\u0627\u0644\u062f\u0627\u0646\u0645\u0631\u0643","name:my":"\u1012\u102d\u1014\u103a\u1038\u1019\u1010\u103a","name:io":"Dania","int_name":"Denmark","name:is":"Danm\u00f6rk","name:am":"\u12f4\u1295\u121b\u122d\u12ad","name:it":"Danimarca","name:vi":"\u0110an M\u1ea1ch","name:ru":"\u0414\u0430\u043d\u0438\u044f","name:mn":"\u0414\u0430\u043d\u0438","id":432424968,"name:mk":"\u0414\u0430\u043d\u0441\u043a\u0430","name:af":"Denemarke","name:zu":"i-Denmark","name:fi":"Tanska","name:hi":"\u0921\u0947\u0928\u092e\u093e\u0930\u094d\u0915","name:mg":"Danmarka","name:fo":"Danm\u00f8rk","name:fr":"Danemark","name:fy":"Denemark","name:vo":"Dan\u00e4n","name:zh":"\u4e39\u9ea6","name:gv":"Yn Danvarg","name:so":"Denmark","name:sn":"Denmark","name:sl":"Danska","name:sk":"D\u00e1nsko","name:ja":"\u30c7\u30f3\u30de\u30fc\u30af","name:si":"\u0da9\u0dd9\u0db1\u0dca\u0db8\u0dcf\u0dbb\u0dca\u0d9a\u0dba","name:fa":"\u062f\u0627\u0646\u0645\u0627\u0631\u06a9","name:sg":"Danem\u00earke","name:se":"D\u00e1nm\u00e1rku","name:ne":"\u0921\u0947\u0928\u094d\u092e\u093e\u0930\u094d\u0915","name:bs":"Danska","name:bm":"Danemarki","name:bn":"\u09a1\u09c7\u09a8\u09ae\u09be\u09b0\u09cd\u0995","name:bo":"\u0f4c\u0f7a\u0f53\u0f0b\u0f58\u0f71\u0f62\u0f90\u0f0d","name:sw":"Denmaki","name:be":"\u0414\u0430\u043d\u0456\u044f","name:bg":"\u0414\u0430\u043d\u0438\u044f","name:sr":"\u0414\u0430\u043d\u0441\u043a\u0430","name:sq":"Danimark\u00eb","name:ga":"An Danmhairg","name:gd":"An Danmhairg","name:gl":"Dinamarca","name:yo":"Or\u00edl\u1eb9\u0301\u00e8de D\u1eb9\u0301m\u00e1k\u00ec","name:ak":"D\u025bnmak"},"coordinates":[1426,3551]},{"type":"Point","properties":{"source":"naturalearthdata.com","kind":"locality","name":"Svendborg","population":29180,"min_zoom":7.0,"id":4136},"coordinates":[2251,476]},{"type":"Point","properties":{"name:sr":"\u041e\u0434\u0435\u043d\u0441\u0435","name:he":"\u05d0\u05d5\u05d3\u05e0\u05d6\u05d4","name:ja":"\u30aa\u30fc\u30c7\u30f3\u30bb","name:ka":"\u10dd\u10d3\u10d4\u10dc\u10e1\u10d4","name:el":"\u039f\u03bd\u03c4\u03ad\u03bd\u03c3\u03b5","name:ko":"\uc624\ub374\uc138","name:ar":"\u0623\u0648\u062f\u0646\u0633\u0647","min_zoom":8.0,"name:th":"\u0e42\u0e2d\u0e40\u0e14\u0e19\u0e40\u0e0b","name:la":"Othania","name:uk":"\u041e\u0434\u0435\u043d\u0441\u0435","name:hy":"\u0555\u0564\u0565\u0576\u057d\u0565","name:os":"\u041e\u0434\u0435\u043d\u0441\u0435","name:ru":"\u041e\u0434\u0435\u043d\u0441\u0435","name:ce":"\u041e\u0434\u0435\u043d\u0441\u0435","name:bg":"\u041e\u0434\u0435\u043d\u0441\u0435","name":"Odense","old_name:de":"Ottensee","name:mk":"\u041e\u0434\u0435\u043d\u0441\u0435","population":170327,"name:fa":"\u0627\u062f\u0646\u0633\u0647","kind":"locality","name:lt":"Odens\u0117","kind_detail":"city","name:is":"\u00d3\u00f0insv\u00e9","id":26559274,"source":"openstreetmap.org","name:be":"\u041e\u0434\u044d\u043d\u0441\u044d","name:zh":"\u6b27\u767b\u585e"},"coordinates":[1577,2164]},{"type":"Point","properties":{"kind":"locality","name":"Svendborg","name:ka":"\u10e1\u10d5\u10d4\u10dc\u10d1\u10dd\u10e0\u10d2\u10d8","kind_detail":"town","name:de":"Schwenburg","source":"openstreetmap.org","min_zoom":8.0,"name:sr":"\u0421\u0432\u0435\u043d\u0434\u0431\u043e\u0440\u0433","name:ru":"\u0421\u0432\u0435\u043d\u043d\u0431\u043e\u0440\u0433","id":26558993,"name:mk":"\u0421\u0432\u0435\u043d\u0434\u0431\u043e\u0440\u0433","population":26804},"coordinates":[2228,442]},{"type":"Point","properties":{"kind":"locality","name:nl":"Nyborg (stad)","name":"Nyborg","kind_detail":"town","name:de":"Nieburg","source":"openstreetmap.org","min_zoom":8.0,"name:ru":"\u041d\u044e\u0431\u043e\u0440\u0433","name:sv":"Nyborg, Danmark","old_name:de":"Nieburg","id":26559169,"population":16454},"coordinates":[2778,1703]},{"type":"Point","properties":{"kind":"locality","name:nl":"Kalundborg (plaats)","name":"Kalundborg","kind_detail":"town","source":"openstreetmap.org","min_zoom":8.0,"name:ru":"\u041a\u0430\u043b\u0443\u043d\u043d\u0431\u043e\u0440\u0433","id":26559290,"population":16319},"coordinates":[3657,3618]},{"type":"Point","properties":{"kind":"locality","name":"Kors\u00f8r","kind_detail":"town","name:de":"Kors\u00f6r","source":"openstreetmap.org","min_zoom":8.0,"name:sr":"\u041a\u043e\u0440\u0441\u0435\u0440","name:ru":"\u041a\u043e\u0440\u0441\u0451\u0440","id":26559203,"population":14501},"coordinates":[3783,1789]},{"type":"Point","properties":{"kind":"locality","name:id":"F\u00e5borg","kind_detail":"town","min_zoom":8.0,"name:de":"Foburg","source":"openstreetmap.org","name:fr":"F\u00e5borg","name:ru":"\u0424\u043e\u0431\u043e\u0440\u0433","name:sv":"F\u00e5borg","population":7249,"id":26559278,"name":"Faaborg"},"coordinates":[1162,613]},{"type":"Point","properties":{"source":"openstreetmap.org","kind":"locality","name":"Assens","kind_detail":"town","population":6017,"min_zoom":8.0,"id":2525151603},"coordinates":[164,1477]},{"type":"Point","properties":{"source":"openstreetmap.org","kind":"locality","name":"Kerteminde","kind_detail":"town","population":5880,"min_zoom":8.0,"id":282681344},"coordinates":[2362,2439]},{"type":"Point","properties":{"kind":"locality","name":"Ringe","kind_detail":"town","source":"openstreetmap.org","min_zoom":8.0,"name:zh":"\u6797\u683c","id":26559221,"population":5584},"coordinates":[1859,1320]},{"type":"Point","properties":{"source":"openstreetmap.org","kind":"locality","name":"Otterup","kind_detail":"town","population":4522,"min_zoom":8.0,"id":26559088},"coordinates":[1622,2757]},{"type":"Point","properties":{"source":"openstreetmap.org","kind":"locality","name":"Langeskov","kind_detail":"town","population":4002,"min_zoom":8.0,"id":26559006},"coordinates":[2154,1951]},{"type":"Point","properties":{"source":"openstreetmap.org","kind":"locality","name":"Bogense","kind_detail":"town","population":3410,"min_zoom":8.0,"id":26559140},"coordinates":[723,3006]},{"type":"Point","properties":{"source":"openstreetmap.org","kind":"locality","name":"\u00c5rslev","kind_detail":"town","population":3228,"min_zoom":8.0,"id":26559187},"coordinates":[1828,1680]},{"type":"Point","properties":{"source":"openstreetmap.org","kind":"locality","name":"Glamsbjerg","kind_detail":"town","population":3214,"min_zoom":8.0,"id":26559222},"coordinates":[772,1542]},{"type":"Point","properties":{"source":"openstreetmap.org","kind":"locality","name":"S\u00f8nders\u00f8","kind_detail":"town","population":3189,"min_zoom":8.0,"id":26559234},"coordinates":[1199,2596]},{"type":"Point","properties":{"source":"openstreetmap.org","kind":"locality","name":"Aarup","kind_detail":"town","population":3157,"min_zoom":8.0,"id":4916331946},"coordinates":[604,2044]},{"type":"Point","properties":{"source":"openstreetmap.org","kind":"locality","name":"Ullerslev","kind_detail":"town","population":2771,"min_zoom":8.0,"id":26559002},"coordinates":[2385,1969]},{"type":"Point","properties":{"source":"openstreetmap.org","kind":"locality","name":"Haarby","kind_detail":"town","population":2492,"min_zoom":8.0,"id":26559119},"coordinates":[822,1244]},{"type":"Point","properties":{"source":"openstreetmap.org","kind":"locality","name":"Tommerup Stationsby","kind_detail":"town","population":2460,"min_zoom":8.0,"id":122263130},"coordinates":[989,1903]},{"type":"Point","properties":{"source":"openstreetmap.org","kind":"locality","name":"N\u00f8rre Lyndelse","kind_detail":"town","population":1917,"min_zoom":8.0,"id":276588749},"coordinates":[1608,1667]},{"type":"Point","properties":{"source":"openstreetmap.org","kind":"locality","name":"Kv\u00e6rndrup","kind_detail":"town","population":1646,"min_zoom":8.0,"id":271897519},"coordinates":[1987,1014]}]},"transit":{"type":"GeometryCollection","geometries":[{"type":"LineString","properties":{"kind":"train","name":"Fredericia","sort_rank":275,"source":"openstreetmap.org","min_zoom":6.0,"operator":"DSB","ref":"RE","id":-2124664,"osm_relation":true},"arcs":[10]},{"type":"LineString","properties":{"kind":"train","name":"Odense","sort_rank":275,"source":"openstreetmap.org","min_zoom":6.0,"operator":"DSB","ref":"RE","id":-2124665,"osm_relation":true},"arcs":[11]},{"type":"LineString","properties":{"kind":"train","name":"Flensburg - Odense","sort_rank":275,"source":"openstreetmap.org","min_zoom":6.0,"operator":"DSB","ref":"81","osm_relation":true},"arcs":[12]},{"type":"MultiLineString","properties":{"kind":"train","name":"Esbjerg - K\u00f8benhavn CPH Lufthavn","sort_rank":275,"name:de":"Esbjerg - Kopenhagen Flughafen","source":"openstreetmap.org","min_zoom":6.0,"operator":"DSB","ref":"4","osm_relation":true},"arcs":[[13],[14],[15],[16],[17]]},{"type":"LineString","properties":{"kind":"train","name":"Fredericia - Odense","sort_rank":275,"source":"openstreetmap.org","min_zoom":6.0,"operator":"DSB","ref":"62","osm_relation":true},"arcs":[18]},{"type":"MultiLineString","properties":{"kind":"train","name":"Aarhus - Fredericia - Odense","sort_rank":275,"source":"openstreetmap.org","min_zoom":6.0,"operator":"DSB","ref":"60","osm_relation":true},"arcs":[[19],[20]]},{"type":"MultiLineString","properties":{"kind":"train","name":"Vejle - Odense - Nyborg","sort_rank":275,"source":"openstreetmap.org","min_zoom":6.0,"operator":"DSB","ref":"63","osm_relation":true},"arcs":[[21],[22],[23],[24],[25]]},{"type":"LineString","properties":{"kind":"train","name":"S\u00f8nderborg - Odense","sort_rank":275,"source":"openstreetmap.org","min_zoom":6.0,"operator":"DSB","ref":"81","osm_relation":true},"arcs":[26]},{"type":"LineString","properties":{"kind":"train","name":"Esbjerg - Odense","sort_rank":275,"source":"openstreetmap.org","min_zoom":6.0,"operator":"DSB","ref":"80","osm_relation":true},"arcs":[27]},{"type":"MultiLineString","properties":{"source":"openstreetmap.org","kind":"train","name":"K\u00f8benhavn - Kalundborg","sort_rank":275,"ref":"R","min_zoom":6.0,"osm_relation":true},"arcs":[[28],[29],[30],[31],[32],[33],[34]]},{"type":"LineString","properties":{"kind":"train","name":"Odense - Svendborg","sort_rank":275,"source":"openstreetmap.org","min_zoom":6.0,"operator":"DSB","ref":"61","id":-4088197,"osm_relation":true},"arcs":[35]},{"type":"LineString","properties":{"kind":"train","name":"DSB Struer-Odense","sort_rank":275,"source":"openstreetmap.org","min_zoom":6.0,"operator":"DSB","ref":"90","osm_relation":true},"arcs":[36]},{"type":"MultiLineString","properties":{"kind":"train","service":"long_distance","sort_rank":275,"source":"openstreetmap.org","min_zoom":5.0,"operator":"DSB","ref":"IC","osm_relation":true},"arcs":[[37],[38],[39],[40],[41]]},{"type":"MultiLineString","properties":{"kind":"train","name":"Esbjerg - K\u00f8benhavn \u00d8sterport","sort_rank":275,"name:de":"Esbjerg - Kopenhagen","source":"openstreetmap.org","min_zoom":6.0,"operator":"DSB","ref":"4","osm_relation":true},"arcs":[[42],[43],[44],[45],[46]]}]},"pois":{"type":"GeometryCollection","geometries":[]},"boundaries":{"type":"GeometryCollection","geometries":[{"type":"LineString","properties":{"name:kg":"Danemark","name:ka":"\u10d3\u10d0\u10dc\u10d8\u10d0","name:ko":"\ub374\ub9c8\ud06c","name:cv":"\u0414\u0430\u043d\u0438","name:cu":"\u0414\u0430\u043d\u0457\ua657","name:kl":"Danmarki","name:cs":"D\u00e1nsko","name:ki":"Denmark","name:co":"Danimarca","name:kv":"\u0414\u0430\u043d\u0438\u044f","name:ku":"Dan\u00eemarka","name:tl":"Dinamarka","name:ce":"\u0414\u0430\u043d\u0438","name:ta":"\u0b9f\u0bc6\u0ba9\u0bcd\u0bae\u0bbe\u0bb0\u0bcd\u0b95\u0bcd","name:tg":"\u0414\u0430\u043d\u0438\u044f","name:ca":"Dinamarca","name:te":"\u0c21\u0c46\u0c28\u0c4d\u0c2e\u0c3e\u0c30\u0c4d\u0c15\u0c4d","name:cy":"Denmarc","name:qu":"Dansuyu","name:de":"D\u00e4nemark","name:dz":"\u0f4c\u0f7a\u0f53\u0f0b\u0f58\u0f71\u0f40\u0f0b","source":"openstreetmap.org","name:kn":"\u0ca1\u0cc6\u0ca8\u0ccd\u0cae\u0cbe\u0cb0\u0ccd\u0c95\u0ccd\u200c","name:dv":"\u0791\u07ac\u0782\u07b0\u0789\u07a7\u0786\u07aa","name:lv":"D\u0101nija","name:lt":"Danija","name:uz":"Daniya","name:kk":"\u0414\u0430\u043d\u0438\u044f","name:ur":"\u0688\u0646\u0645\u0627\u0631\u06a9","name:lb":"D\u00e4nemark","name:la":"Dania","name:lg":"Denimaaka","name:uk":"\u0414\u0430\u043d\u0456\u044f","name:ug":"\u062f\u0627\u0646\u0649\u064a\u06d5","name:li":"Denemarke","name:ln":"Danemark","name:el":"\u0394\u03b1\u03bd\u03af\u03b1","name:eo":"Danujo","name:en":"Denmark","name":"Danmark","name:tk":"Dani\u00fda","name:ee":"Denmark","name:th":"\u0e1b\u0e23\u0e30\u0e40\u0e17\u0e28\u0e40\u0e14\u0e19\u0e21\u0e32\u0e23\u0e4c\u0e01","name:eu":"Danimarka","name:et":"Taani","name:es":"Dinamarca","name:rm":"Danemarc","name:rn":"Danemarke","name:az":"Danimarka","name:ie":"Dania","name:id":"Denmark","name:ar":"\u0627\u0644\u062f\u0646\u0645\u0627\u0631\u0643","name:io":"Dania","name:is":"Danm\u00f6rk","name:am":"\u12f4\u1295\u121b\u122d\u12ad","name:it":"Danimarca","name:an":"Dinamarca","name:ru":"\u0414\u0430\u043d\u0438\u044f","name:rw":"Danimarike","name:af":"Denemarke","name:zu":"IDenimaki","kind_detail":"2","name:ky":"\u0414\u0430\u043d\u0438\u044f","name:zh-yue":"\u4e39\u9ea5","name:zh":"\u4e39\u9ea6","name:so":"Denmark","name:sl":"Danska","name:sk":"D\u00e1nsko","name:ja":"\u30c7\u30f3\u30de\u30fc\u30af","name:si":"\u0da9\u0dd9\u0db1\u0dca\u0db8\u0dcf\u0dbb\u0dca\u0d9a\u0dba","name:sh":"Danska","name:se":"D\u00e1nm\u00e1rku","name:sc":"Danimarca","name:sa":"\u0921\u0947\u0928\u092e\u093e\u0930\u094d\u0915","name:bs":"Danska","name:bn":"\u09a1\u09c7\u09a8\u09ae\u09be\u09b0\u09cd\u0995","name:bo":"\u0f51\u0f53\u0f0b\u0f58\u0fb2\u0f42","name:bi":"Denmark","name:sw":"Denmark","name:be":"\u0414\u0430\u043d\u0456\u044f","name:su":"D\u00e9nmark","name:bg":"\u0414\u0430\u043d\u0438\u044f","name:ss":"IDenimakhi","name:ba":"\u0414\u0430\u043d\u0438\u044f","name:sq":"Danimarka","name:jv":"Denmark","name:pt":"Dinamarca","name:ps":"\u0689\u06d0\u0646\u0645\u0627\u0631\u06a9","name:oc":"Danemarc","min_zoom":8.0,"name:ro":"Danemarca","name:zh-min-nan":"Tan-kok","name:os":"\u0414\u0430\u043d\u0438","name:or":"\u0b21\u0b47\u0b28\u0b2e\u0b3e\u0b30\u0b4d\u0b15","name:pl":"Dania","name:st":"Denmark","sort_rank":262,"name:sr":"\u0414\u0430\u043d\u0441\u043a\u0430","osm_relation":true,"name:tr":"Danimarka","name:hi":"\u0921\u0947\u0928\u092e\u093e\u0930\u094d\u0915","name:he":"\u05d3\u05e0\u05de\u05e8\u05e7","name:hy":"\u0534\u0561\u0576\u056b\u0561","name:ht":"Danmak","name:hu":"D\u00e1nia","name:hr":"Danska","kind":"country","name:yi":"\u05d3\u05e2\u05e0\u05de\u05d0\u05e8\u05e7","name:yo":"D\u1eb9\u0301nm\u00e1rk\u00ec","name:mt":"Danimarka","alt_name:eo":"Danio;Danlando","name:ms":"Denmark","name:mr":"\u0921\u0947\u0928\u094d\u092e\u093e\u0930\u094d\u0915","name:my":"\u1012\u102d\u1014\u103a\u1038\u1019\u1010\u103a\u1014\u102d\u102f\u1004\u103a\u1004\u1036","official_name":"Kongeriget Danmark","name:mg":"Danmarka","name:vi":"\u0110an M\u1ea1ch","name:ml":"\u0d21\u0d46\u0d28\u0d4d\u0d2e\u0d3e\u0d7c\u0d15\u0d4d\u0d15\u0d4d","name:mn":"\u0414\u0430\u043d\u0438","name:mi":"Tenem\u0101ka","id":-50046,"name:mk":"\u0414\u0430\u043d\u0441\u043a\u0430","name:vo":"Dan\u00e4n","name:fa":"\u062f\u0627\u0646\u0645\u0627\u0631\u06a9","name:fi":"Tanska","name:fr":"Danemark","name:fy":"Denemark","name:nl":"Denemarken","name:na":"Denemark","name:ne":"\u0921\u0947\u0928\u092e\u093e\u0930\u094d\u0915","name:wo":"Danmaark","name:nv":"D\u00e9inish Dine\u02bc\u00e9 Bik\u00e9yah","name:ga":"An Danmhairg","name:gd":"An Danmhairg","name:gn":"Ndinamayka","name:gl":"Dinamarca","maritime_boundary":true,"name:gv":"Yn Danvarg","name:tt":"\u0414\u0430\u043d\u0438\u044f"},"arcs":[0]},{"type":"MultiLineString","properties":{"name:fy":"Seel\u00e2n","name:pt":"Zel\u00e2ndia","name:ro":"Regiunea Sj\u00e6lland","name:ja":"\u30b7\u30a7\u30e9\u30f3\u5730\u57df","name:ms":"Wilayah Sj\u00e6lland","name:se":"Sj\u00e6ll\u00e1ndda regiuvdna","name:eo":"Regiono Sj\u00e6lland","min_zoom":8.0,"name:la":"Regio Silandiae","name:hy":"\u0536\u0565\u056c\u0561\u0576\u0564\u056b\u0561 \u057f\u0561\u0580\u0561\u056e\u0561\u0577\u0580\u057b\u0561\u0576","name:sv":"Region Sj\u00e4lland","name:ka":"\u10d6\u10d4\u10da\u10d0\u10dc\u10d3\u10d8\u10d8\u10e1 \u10e0\u10d4\u10d2\u10d8\u10dd\u10dc\u10d8","name:hu":"Sj\u00e6lland r\u00e9gi\u00f3","id":-1320370,"name:ca":"Regi\u00f3 de Sj\u00e6lland","name":"Region Sj\u00e6lland","name:fa":"\u0627\u0633\u062a\u0627\u0646 \u0634\u06cc\u0644\u0646\u062f","kind":"region","name:en":"Region Zealand","name:lt":"Zelandijos regionas","sort_rank":256,"kind_detail":"4","name:de":"Region Seeland","source":"openstreetmap.org","maritime_boundary":true,"osm_relation":true,"name:fi":"Sj\u00e6llandin alue","name:eu":"Seelandia eskualdea","name:et":"Sj\u00e6llandi piirkond","name:es":"Regi\u00f3n de Selandia"},"arcs":[[1],[2],[3],[4],[5]]},{"type":"LineString","properties":{"name:pt":"Dinamarca do Sul","name:ro":"Regiunea Syddanmark","name:ms":"Wilayah Syddanmark","name:ko":"\ub0a8\ub374\ub9c8\ud06c \uc9c0\uc5ed","name:cs":"Syddanmark","min_zoom":8.0,"name:it":"Danimarca meridionale","name:ru":"\u042e\u0436\u043d\u0430\u044f \u0414\u0430\u043d\u0438\u044f","name:os":"\u0425\u0443\u0441\u0441\u0430\u0440 \u0414\u0430\u043d\u0438","name:vi":"Nam \u0110an M\u1ea1ch","name:ce":"\u041a\u044a\u0438\u043b\u0431\u0435\u0440\u0430 \u0414\u0430\u043d\u0438","name:pl":"Dania Po\u0142udniowa","name:mk":"\u0408\u0443\u0436\u043d\u0430 \u0414\u0430\u043d\u0441\u043a\u0430","name:fa":"\u0627\u0633\u062a\u0627\u0646 \u0633\u06cc\u062f\u062f\u0627\u0646\u0645\u0627\u0631\u06a9","name:bg":"\u042e\u0436\u043d\u0430 \u0414\u0430\u043d\u0438\u044f","name:ka":"\u10e1\u10d0\u10db\u10ee\u10e0\u10d4\u10d7 \u10d3\u10d0\u10dc\u10d8\u10d8\u10e1 \u10e0\u10d4\u10d2\u10d8\u10dd\u10dc\u10d8","source":"openstreetmap.org","sort_rank":256,"kind_detail":"4","id":-1319978,"name:de":"Region S\u00fcdd\u00e4nemark","name:oc":"Danemarc Meridional","name:fr":"Danemark-du-Sud","name:ca":"Dinamarca Meridional","name:fy":"S\u00fad-Denemark","name:zh":"\u5357\u4e39\u9ea6\u5927\u533a","name:lv":"Dienvidd\u0101nijas re\u0123ions","name:ja":"\u5357\u30c7\u30f3\u30de\u30fc\u30af\u5730\u57df","name:lt":"Piet\u0173 Danijos regionas","name:kk":"\u041e\u04a3\u0442\u04af\u0441\u0442\u0456\u043a \u0414\u0430\u043d\u0438\u044f","name:se":"Syddanmark regiuvdna","name:eo":"Regiono Suda Danio","name:br":"Danmark ar Su","name:la":"Dania Meridiana","name:sk":"Ju\u017en\u00e9 D\u00e1nsko","name:uk":"\u041f\u0456\u0432\u0434\u0435\u043d\u043d\u0430 \u0414\u0430\u043d\u0456\u044f","name:hy":"\u0540\u0561\u0580\u0561\u057e\u0561\u0575\u056b\u0576 \u0534\u0561\u0576\u056b\u0561 \u057f\u0561\u0580\u0561\u056e\u0561\u0577\u0580\u057b\u0561\u0576","name:hu":"Syddanmark r\u00e9gi\u00f3","name:hr":"Ju\u017ena Danska","name:sr":"\u0408\u0443\u0436\u043d\u0430 \u0414\u0430\u043d\u0441\u043a\u0430","osm_relation":true,"kind":"region","name:en":"Region of Southern Denmark","name":"Region Syddanmark","maritime_boundary":true,"name:fi":"Etel\u00e4-Tanskan alue","name:eu":"Hegoaldeko Danimarka","name:et":"L\u00f5una-Taani piirkond","name:nl":"Zuid-Denemarken","name:es":"Dinamarca Meridional"},"arcs":[6]},{"type":"LineString","properties":{"name:pt":"Jutl\u00e2ndia Central","name:ro":"Regiunea Midtjylland","name:ms":"Wilayah Midtjylland","name:ko":"\uc911\uc559\uc70c\ub780 \uc9c0\uc5ed","name:kk":"\u041e\u0440\u0442\u0430\u043b\u044b\u049b \u042e\u0442\u043b\u0430\u043d\u0434\u0438\u044f","min_zoom":8.0,"name:it":"Jutland centrale","name:vi":"Trung Jutland","name:os":"\u0426\u0435\u043d\u0442\u0440\u0430\u043b\u043e\u043d \u042e\u0442\u043b\u0430\u043d\u0434\u0438","name:ru":"\u0426\u0435\u043d\u0442\u0440\u0430\u043b\u044c\u043d\u0430\u044f \u042e\u0442\u043b\u0430\u043d\u0434\u0438\u044f","name:ce":"\u042e\u043a\u043a\u044a\u0435\u0440\u0430 \u042e\u0442\u043b\u0430\u043d\u0434\u0438","name:de":"Region Mittelj\u00fctland","name:pl":"Jutlandia \u015arodkowa","name:mk":"\u0421\u0440\u0435\u0434\u043d\u0430 \u0414\u0430\u043d\u0441\u043a\u0430","name:fa":"\u0627\u0633\u062a\u0627\u0646 \u0645\u06cc\u062f\u06cc\u0648\u0644\u0646\u062f","name:bg":"\u0426\u0435\u043d\u0442\u0440\u0430\u043b\u043d\u0430 \u042e\u0442\u043b\u0430\u043d\u0434\u0438\u044f","name:ka":"\u10ea\u10d4\u10dc\u10e2\u10e0\u10d0\u10da\u10e3\u10e0\u10d8 \u10d8\u10e3\u10e2\u10da\u10d0\u10dc\u10d3\u10d8\u10d8\u10e1 \u10e0\u10d4\u10d2\u10d8\u10dd\u10dc\u10d8","source":"openstreetmap.org","sort_rank":256,"kind_detail":"4","id":-1319935,"name:fo":"Regi\u00f3n Mi\u00f0j\u00fatland","name:oc":"Jutl\u00e0ndia Centrala","name:fr":"Jutland central","name:ca":"Jutl\u00e0ndia Central","name:fy":"Midden-Jutl\u00e2n","name:zh":"\u4e2d\u65e5\u5fb7\u5170\u5927\u533a","name:lv":"Vidusjitlandes re\u0123ions","name:ja":"\u4e2d\u592e\u30e6\u30e9\u30f3\u5730\u57df","name:lt":"Vidurio Jutlandijos regionas","name:sh":"Sredi\u0161nji Jylland","name:se":"Gaska-Jyll\u00e1ndda regiuvdna","name:eo":"Regiono Meza Jutlando","name:br":"Kreizjutland","name:la":"Iutia Media","name:sk":"Stredn\u00e9 Jutsko","name:uk":"\u0426\u0435\u043d\u0442\u0440\u0430\u043b\u044c\u043d\u0430 \u042e\u0442\u043b\u0430\u043d\u0434\u0456\u044f","name:hy":"\u053f\u0565\u0576\u057f\u0580\u0578\u0576\u0561\u056f\u0561\u0576 \u0545\u0578\u0582\u057f\u056c\u0561\u0576\u0564\u056b\u0561 \u057f\u0561\u0580\u0561\u056e\u0561\u0577\u0580\u057b\u0561\u0576","name:sv":"Region Mittjylland","name:hu":"Midtjylland r\u00e9gi\u00f3","name:hr":"Sredi\u0161nji Jylland","name:sr":"\u0421\u0440\u0435\u0434\u0438\u0448\u045a\u0430 \u0414\u0430\u043d\u0441\u043a\u0430","osm_relation":true,"kind":"region","name:en":"Central Denmark Region","name":"Region Midtjylland","maritime_boundary":true,"name:fi":"Keski-Jyllannin alue","name:eu":"Erdialdeko Jutlandia","name:et":"Kesk-J\u00fc\u00fctimaa","name:es":"Jutlandia Central"},"arcs":[7]},{"type":"LineString","properties":{"name:pt":"Jutl\u00e2ndia Central","name:ro":"Regiunea Midtjylland","name:ms":"Wilayah Midtjylland","name:ko":"\uc911\uc559\uc70c\ub780 \uc9c0\uc5ed","name:kk":"\u041e\u0440\u0442\u0430\u043b\u044b\u049b \u042e\u0442\u043b\u0430\u043d\u0434\u0438\u044f","min_zoom":8.0,"name:it":"Jutland centrale","name:vi":"Trung Jutland","name:os":"\u0426\u0435\u043d\u0442\u0440\u0430\u043b\u043e\u043d \u042e\u0442\u043b\u0430\u043d\u0434\u0438","name:ru":"\u0426\u0435\u043d\u0442\u0440\u0430\u043b\u044c\u043d\u0430\u044f \u042e\u0442\u043b\u0430\u043d\u0434\u0438\u044f","name:ce":"\u042e\u043a\u043a\u044a\u0435\u0440\u0430 \u042e\u0442\u043b\u0430\u043d\u0434\u0438","name:de":"Region Mittelj\u00fctland","name:pl":"Jutlandia \u015arodkowa","name:mk":"\u0421\u0440\u0435\u0434\u043d\u0430 \u0414\u0430\u043d\u0441\u043a\u0430","name:fa":"\u0627\u0633\u062a\u0627\u0646 \u0645\u06cc\u062f\u06cc\u0648\u0644\u0646\u062f","name:bg":"\u0426\u0435\u043d\u0442\u0440\u0430\u043b\u043d\u0430 \u042e\u0442\u043b\u0430\u043d\u0434\u0438\u044f","name:ka":"\u10ea\u10d4\u10dc\u10e2\u10e0\u10d0\u10da\u10e3\u10e0\u10d8 \u10d8\u10e3\u10e2\u10da\u10d0\u10dc\u10d3\u10d8\u10d8\u10e1 \u10e0\u10d4\u10d2\u10d8\u10dd\u10dc\u10d8","source":"openstreetmap.org","sort_rank":256,"kind_detail":"4","id":-1319935,"name:fo":"Regi\u00f3n Mi\u00f0j\u00fatland","name:oc":"Jutl\u00e0ndia Centrala","name:fr":"Jutland central","name:ca":"Jutl\u00e0ndia Central","name:fy":"Midden-Jutl\u00e2n","name:zh":"\u4e2d\u65e5\u5fb7\u5170\u5927\u533a","name:lv":"Vidusjitlandes re\u0123ions","name:ja":"\u4e2d\u592e\u30e6\u30e9\u30f3\u5730\u57df","name:lt":"Vidurio Jutlandijos regionas","name:sh":"Sredi\u0161nji Jylland","name:se":"Gaska-Jyll\u00e1ndda regiuvdna","name:eo":"Regiono Meza Jutlando","name:br":"Kreizjutland","name:la":"Iutia Media","name:sk":"Stredn\u00e9 Jutsko","name:uk":"\u0426\u0435\u043d\u0442\u0440\u0430\u043b\u044c\u043d\u0430 \u042e\u0442\u043b\u0430\u043d\u0434\u0456\u044f","name:hy":"\u053f\u0565\u0576\u057f\u0580\u0578\u0576\u0561\u056f\u0561\u0576 \u0545\u0578\u0582\u057f\u056c\u0561\u0576\u0564\u056b\u0561 \u057f\u0561\u0580\u0561\u056e\u0561\u0577\u0580\u057b\u0561\u0576","name:sv":"Region Mittjylland","name:hu":"Midtjylland r\u00e9gi\u00f3","name:hr":"Sredi\u0161nji Jylland","name:sr":"\u0421\u0440\u0435\u0434\u0438\u0448\u045a\u0430 \u0414\u0430\u043d\u0441\u043a\u0430","osm_relation":true,"kind":"region","name:en":"Central Denmark Region","name":"Region Midtjylland","maritime_boundary":true,"name:fi":"Keski-Jyllannin alue","name:eu":"Erdialdeko Jutlandia","name:et":"Kesk-J\u00fc\u00fctimaa","name:es":"Jutlandia Central"},"arcs":[8]},{"type":"LineString","properties":{"name:pt":"Jutl\u00e2ndia Central","name:ro":"Regiunea Midtjylland","name:ms":"Wilayah Midtjylland","name:ko":"\uc911\uc559\uc70c\ub780 \uc9c0\uc5ed","name:kk":"\u041e\u0440\u0442\u0430\u043b\u044b\u049b \u042e\u0442\u043b\u0430\u043d\u0434\u0438\u044f","min_zoom":8.0,"name:it":"Jutland centrale","name:vi":"Trung Jutland","name:os":"\u0426\u0435\u043d\u0442\u0440\u0430\u043b\u043e\u043d \u042e\u0442\u043b\u0430\u043d\u0434\u0438","name:ru":"\u0426\u0435\u043d\u0442\u0440\u0430\u043b\u044c\u043d\u0430\u044f \u042e\u0442\u043b\u0430\u043d\u0434\u0438\u044f","name:ce":"\u042e\u043a\u043a\u044a\u0435\u0440\u0430 \u042e\u0442\u043b\u0430\u043d\u0434\u0438","name:de":"Region Mittelj\u00fctland","name:pl":"Jutlandia \u015arodkowa","name:mk":"\u0421\u0440\u0435\u0434\u043d\u0430 \u0414\u0430\u043d\u0441\u043a\u0430","name:fa":"\u0627\u0633\u062a\u0627\u0646 \u0645\u06cc\u062f\u06cc\u0648\u0644\u0646\u062f","name:bg":"\u0426\u0435\u043d\u0442\u0440\u0430\u043b\u043d\u0430 \u042e\u0442\u043b\u0430\u043d\u0434\u0438\u044f","name:ka":"\u10ea\u10d4\u10dc\u10e2\u10e0\u10d0\u10da\u10e3\u10e0\u10d8 \u10d8\u10e3\u10e2\u10da\u10d0\u10dc\u10d3\u10d8\u10d8\u10e1 \u10e0\u10d4\u10d2\u10d8\u10dd\u10dc\u10d8","source":"openstreetmap.org","sort_rank":256,"kind_detail":"4","id":-1319935,"name:fo":"Regi\u00f3n Mi\u00f0j\u00fatland","name:oc":"Jutl\u00e0ndia Centrala","name:fr":"Jutland central","name:ca":"Jutl\u00e0ndia Central","name:fy":"Midden-Jutl\u00e2n","name:zh":"\u4e2d\u65e5\u5fb7\u5170\u5927\u533a","name:lv":"Vidusjitlandes re\u0123ions","name:ja":"\u4e2d\u592e\u30e6\u30e9\u30f3\u5730\u57df","name:lt":"Vidurio Jutlandijos regionas","name:sh":"Sredi\u0161nji Jylland","name:se":"Gaska-Jyll\u00e1ndda regiuvdna","name:eo":"Regiono Meza Jutlando","name:br":"Kreizjutland","name:la":"Iutia Media","name:sk":"Stredn\u00e9 Jutsko","name:uk":"\u0426\u0435\u043d\u0442\u0440\u0430\u043b\u044c\u043d\u0430 \u042e\u0442\u043b\u0430\u043d\u0434\u0456\u044f","name:hy":"\u053f\u0565\u0576\u057f\u0580\u0578\u0576\u0561\u056f\u0561\u0576 \u0545\u0578\u0582\u057f\u056c\u0561\u0576\u0564\u056b\u0561 \u057f\u0561\u0580\u0561\u056e\u0561\u0577\u0580\u057b\u0561\u0576","name:sv":"Region Mittjylland","name:hu":"Midtjylland r\u00e9gi\u00f3","name:hr":"Sredi\u0161nji Jylland","name:sr":"\u0421\u0440\u0435\u0434\u0438\u0448\u045a\u0430 \u0414\u0430\u043d\u0441\u043a\u0430","osm_relation":true,"kind":"region","name:en":"Central Denmark Region","name":"Region Midtjylland","maritime_boundary":true,"name:fi":"Keski-Jyllannin alue","name:eu":"Erdialdeko Jutlandia","name:et":"Kesk-J\u00fc\u00fctimaa","name:es":"Jutlandia Central"},"arcs":[9]}]},"roads":{"type":"GeometryCollection","geometries":[{"type":"MultiLineString","properties":{"source":"openstreetmap.org","kind":"major_road","sort_rank":380,"kind_detail":"primary","ref":"43","min_zoom":8.0},"arcs":[[58],[59],[60],[61]]},{"type":"LineString","properties":{"source":"openstreetmap.org","kind":"ferry","name":"F\u00e5borg - Bj\u00f8rn\u00f8","sort_rank":355,"is_bicycle_related":true,"min_zoom":8.0,"id":25844837},"arcs":[62]},{"type":"LineString","properties":{"kind":"major_road","sort_rank":377,"kind_detail":"tertiary","is_bicycle_related":true,"bus_network":"Rudk\u00f8bing - Svendborg - Odense","bicycle_shield_text":"EV10","cycleway":"lane","source":"openstreetmap.org","min_zoom":8.0,"bus_shield_text":"810U","landuse_kind":"residential","id":23257700,"bicycle_network":"icn"},"arcs":[63]},{"type":"MultiLineString","properties":{"kind":"path","sort_rank":354,"kind_detail":"track","is_bicycle_related":true,"bicycle_shield_text":"6","bicycle_network":"ncn","source":"openstreetmap.org","min_zoom":8.0},"arcs":[[64],[65]]},{"type":"LineString","properties":{"kind":"major_road","sort_rank":379,"kind_detail":"secondary","is_bicycle_related":true,"bus_network":"FynBus","bicycle_shield_text":"8","bicycle_network":"ncn","source":"openstreetmap.org","min_zoom":8.0,"bus_shield_text":"2a","landuse_kind":"residential","ref":"163","id":130420985},"arcs":[66]},{"type":"LineString","properties":{"kind":"major_road","sort_rank":380,"kind_detail":"primary","is_bicycle_related":true,"bus_network":"B\u00f8jden F\u00e6rgehavn - Horne - Faaborg - V. Aaby - Svendborg","bicycle_shield_text":"EV10","cycleway":"track","source":"openstreetmap.org","min_zoom":8.0,"bus_shield_text":"863U","landuse_kind":"residential","ref":"44","id":12334947,"bicycle_network":"icn"},"arcs":[67]},{"type":"LineString","properties":{"bus_network":"FynBus","sort_rank":377,"landuse_kind":"residential","is_bicycle_related":true,"kind":"major_road","bicycle_shield_text":"6","bicycle_network":"ncn","source":"openstreetmap.org","min_zoom":8.0,"bus_shield_text":"2a","kind_detail":"tertiary","cycleway":"track"},"arcs":[68]},{"type":"MultiLineString","properties":{"source":"openstreetmap.org","kind":"ferry","name":"Svendborg - Skar\u00f8 - Drej\u00f8","sort_rank":355,"min_zoom":8.0,"id":93308406},"arcs":[[69],[70]]},{"type":"MultiLineString","properties":{"bus_network":"Faaborg - Odense","sort_rank":380,"kind_detail":"primary","kind":"major_road","source":"openstreetmap.org","min_zoom":8.0,"bus_shield_text":"141","ref":"43"},"arcs":[[71],[72],[73],[74],[75]]},{"type":"MultiLineString","properties":{"kind":"major_road","sort_rank":379,"landuse_kind":"urban_area","is_bicycle_related":true,"bus_network":"Citybus\/Havnebus (free)","bicycle_shield_text":"6","cycleway":"lane","source":"openstreetmap.org","min_zoom":8.0,"bus_shield_text":"10C","kind_detail":"secondary","bicycle_network":"ncn","ref":"O1"},"arcs":[[76],[77]]},{"type":"LineString","properties":{"kind":"major_road","sort_rank":377,"kind_detail":"tertiary","is_bicycle_related":true,"bicycle_shield_text":"EV10","bicycle_network":"icn","source":"openstreetmap.org","min_zoom":8.0,"cycleway":"track"},"arcs":[78]},{"type":"MultiLineString","properties":{"kind":"major_road","sort_rank":377,"kind_detail":"tertiary","is_bicycle_related":true,"bicycle_shield_text":"8","bicycle_network":"ncn","source":"openstreetmap.org","min_zoom":8.0},"arcs":[[79],[80],[81],[82],[83],[84],[85],[86],[87],[88],[89],[90],[91],[92],[93],[94],[95],[96],[97]]},{"type":"MultiLineString","properties":{"kind":"major_road","sort_rank":380,"landuse_kind":"urban_area","is_bicycle_related":true,"cycleway":"lane","source":"openstreetmap.org","min_zoom":8.0,"kind_detail":"primary","ref":"44, 163, 167"},"arcs":[[98],[99]]},{"type":"MultiLineString","properties":{"kind":"path","sort_rank":354,"landuse_kind":"residential","is_bicycle_related":true,"bicycle_shield_text":"EV10","bicycle_network":"icn","source":"openstreetmap.org","min_zoom":8.0,"kind_detail":"cycleway"},"arcs":[[100],[101]]},{"type":"LineString","properties":{"kind":"major_road","sort_rank":379,"kind_detail":"secondary","is_bicycle_related":true,"bicycle_shield_text":"8","cycleway":"lane","source":"openstreetmap.org","min_zoom":8.0,"landuse_kind":"residential","bicycle_network":"ncn","ref":"163","id":130452449},"arcs":[102]},{"type":"LineString","properties":{"source":"openstreetmap.org","kind":"ferry","name":"Assens - Baag\u00f8","sort_rank":355,"min_zoom":8.0,"id":58369320},"arcs":[103]},{"type":"LineString","properties":{"source":"openstreetmap.org","kind":"ferry","name":"Svendborg - Skar\u00f8 - Drej\u00f8","sort_rank":355,"landuse_kind":"residential","min_zoom":8.0,"id":93308406},"arcs":[104]},{"type":"LineString","properties":{"kind":"major_road","sort_rank":379,"kind_detail":"secondary","is_bicycle_related":true,"bicycle_shield_text":"6","bicycle_network":"ncn","source":"openstreetmap.org","min_zoom":8.0,"ref":"277","id":46481086},"arcs":[105]},{"type":"MultiLineString","properties":{"kind":"minor_road","sort_rank":358,"landuse_kind":"urban_area","is_bicycle_related":true,"bicycle_shield_text":"6","bicycle_network":"ncn","source":"openstreetmap.org","min_zoom":8.0,"kind_detail":"service"},"arcs":[[106],[107]]},{"type":"LineString","properties":{"kind":"major_road","sort_rank":377,"kind_detail":"tertiary","is_bicycle_related":true,"bus_network":"FynBus","bicycle_shield_text":"8","cycleway":"track","source":"openstreetmap.org","min_zoom":8.0,"bus_shield_text":"1","landuse_kind":"residential","id":25711673,"bicycle_network":"ncn"},"arcs":[108]},{"type":"MultiLineString","properties":{"kind":"major_road","sort_rank":379,"kind_detail":"secondary","is_bicycle_related":true,"bicycle_shield_text":"8","cycleway":"lane","source":"openstreetmap.org","min_zoom":8.0,"bicycle_network":"ncn"},"arcs":[[109],[110]]},{"type":"MultiLineString","properties":{"kind":"minor_road","sort_rank":360,"landuse_kind":"urban_area","is_bicycle_related":true,"bicycle_shield_text":"8","bicycle_network":"ncn","source":"openstreetmap.org","min_zoom":8.0,"kind_detail":"unclassified"},"arcs":[[111],[112],[113]]},{"type":"MultiLineString","properties":{"kind":"major_road","network":"dk:national","sort_rank":380,"kind_detail":"primary","source":"openstreetmap.org","min_zoom":8.0,"landuse_kind":"urban_area","shield_text":"9","ref":"9"},"arcs":[[114],[115],[116],[117],[118]]},{"type":"LineString","properties":{"kind":"major_road","sort_rank":380,"landuse_kind":"residential","source":"openstreetmap.org","min_zoom":8.0,"kind_detail":"primary","ref":"9","id":499969095},"arcs":[119]},{"type":"LineString","properties":{"kind":"ferry","name":"Svendborg - \u00c6r\u00f8sk\u00f8bing","sort_rank":355,"landuse_kind":"residential","is_bicycle_related":true,"bicycle_shield_text":"8","bicycle_network":"ncn","source":"openstreetmap.org","min_zoom":8.0,"id":33847154},"arcs":[120]},{"type":"LineString","properties":{"kind":"major_road","sort_rank":379,"kind_detail":"secondary","is_bicycle_related":true,"bus_network":"Citybus\/Havnebus (free)","bicycle_shield_text":"6","cycleway":"track","source":"openstreetmap.org","min_zoom":8.0,"bus_shield_text":"10C","landuse_kind":"urban_area","ref":"O1","id":8032508,"bicycle_network":"ncn"},"arcs":[121]},{"type":"LineString","properties":{"kind":"path","sort_rank":354,"kind_detail":"cycleway","is_bicycle_related":true,"bicycle_shield_text":"8","bicycle_network":"ncn","source":"openstreetmap.org","min_zoom":8.0,"landuse_kind":"residential"},"arcs":[122]},{"type":"LineString","properties":{"kind":"ferry","name":"S\u00f8by - F\u00e5borg","sort_rank":355,"is_bicycle_related":true,"source":"openstreetmap.org","min_zoom":8.0,"id":-2294169,"osm_relation":true},"arcs":[123]},{"type":"LineString","properties":{"kind":"major_road","sort_rank":377,"kind_detail":"tertiary","is_bicycle_related":true,"bicycle_shield_text":"6","cycleway":"lane","source":"openstreetmap.org","min_zoom":8.0,"landuse_kind":"residential","bicycle_network":"ncn","id":522424824},"arcs":[124]},{"type":"LineString","properties":{"sort_rank":380,"kind_detail":"primary","min_zoom":8.0,"kind":"major_road","source":"openstreetmap.org"},"arcs":[125]},{"type":"LineString","properties":{"kind":"ferry","name":"S\u00f8by - Fynshav","sort_rank":355,"is_bicycle_related":true,"bicycle_shield_text":"8","bicycle_network":"ncn","source":"openstreetmap.org","min_zoom":8.0,"id":171896489},"arcs":[126]},{"type":"LineString","properties":{"bus_network":"FynBus","sort_rank":377,"kind_detail":"tertiary","is_bicycle_related":true,"kind":"major_road","bicycle_shield_text":"6","bicycle_network":"ncn","source":"openstreetmap.org","min_zoom":8.0,"bus_shield_text":"2a","cycleway":"lane"},"arcs":[127]},{"type":"MultiLineString","properties":{"kind":"major_road","sort_rank":377,"landuse_kind":"urban_area","is_bicycle_related":true,"bicycle_shield_text":"6","bicycle_network":"ncn","source":"openstreetmap.org","min_zoom":8.0,"kind_detail":"tertiary","cycleway":"track"},"arcs":[[128],[129],[130]]},{"type":"LineString","properties":{"kind":"major_road","network":"dk:national","sort_rank":380,"kind_detail":"primary","is_bicycle_related":true,"bicycle_shield_text":"4","cycleway":"track","source":"openstreetmap.org","min_zoom":8.0,"landuse_kind":"urban_area","shield_text":"23","bicycle_network":"ncn","ref":"23","id":4492203},"arcs":[131]},{"type":"MultiLineString","properties":{"kind":"minor_road","sort_rank":360,"kind_detail":"residential","is_bicycle_related":true,"bicycle_shield_text":"8","bicycle_network":"ncn","source":"openstreetmap.org","min_zoom":8.0,"landuse_kind":"urban_area"},"arcs":[[132],[133]]},{"type":"MultiLineString","properties":{"kind":"major_road","sort_rank":377,"kind_detail":"tertiary","is_bicycle_related":true,"bus_network":"B\u00f8jden F\u00e6rgehavn - Horne - Faaborg - V. Aaby - Svendborg","bicycle_shield_text":"8","bicycle_network":"ncn","source":"openstreetmap.org","min_zoom":8.0,"bus_shield_text":"863U","id":12334950},"arcs":[[134],[135]]},{"type":"LineString","properties":{"kind":"major_road","sort_rank":377,"kind_detail":"tertiary","is_bicycle_related":true,"bus_network":"B\u00f8jden F\u00e6rgehavn - Horne - Faaborg - V. Aaby - Svendborg","bicycle_shield_text":"8","cycleway":"lane","source":"openstreetmap.org","min_zoom":8.0,"bus_shield_text":"863U","landuse_kind":"residential","id":12334962,"bicycle_network":"ncn"},"arcs":[136]},{"type":"MultiLineString","properties":{"bus_network":"FynBus","sort_rank":377,"landuse_kind":"urban_area","is_bicycle_related":true,"kind":"major_road","bicycle_shield_text":"8","cycleway":"lane","source":"openstreetmap.org","min_zoom":8.0,"bus_shield_text":"2a","kind_detail":"tertiary","bicycle_network":"ncn"},"arcs":[[137],[138]]},{"type":"MultiLineString","properties":{"kind":"major_road","sort_rank":380,"kind_detail":"primary","is_bicycle_related":true,"cycleway":"lane","source":"openstreetmap.org","min_zoom":8.0,"ref":"8"},"arcs":[[139],[140],[141]]},{"type":"LineString","properties":{"bus_network":"FynBus","sort_rank":379,"landuse_kind":"residential","is_bicycle_related":true,"kind":"major_road","bicycle_shield_text":"6","bicycle_network":"ncn","source":"openstreetmap.org","min_zoom":8.0,"bus_shield_text":"2","kind_detail":"secondary","cycleway":"lane","ref":"163"},"arcs":[142]},{"type":"LineString","properties":{"kind":"major_road","sort_rank":377,"kind_detail":"tertiary","is_bicycle_related":true,"bicycle_shield_text":"4","bicycle_network":"ncn","source":"openstreetmap.org","min_zoom":8.0},"arcs":[143]},{"type":"LineString","properties":{"kind":"major_road","sort_rank":379,"kind_detail":"secondary","is_bicycle_related":true,"bus_network":"Citybus\/Havnebus (free)","bicycle_shield_text":"6","bicycle_network":"ncn","source":"openstreetmap.org","min_zoom":8.0,"bus_shield_text":"10C","landuse_kind":"urban_area","ref":"O1","id":26623319},"arcs":[144]},{"type":"LineString","properties":{"kind":"minor_road","service":"driveway","sort_rank":356,"landuse_kind":"urban_area","is_bicycle_related":true,"cycleway_right":"lane","bicycle_shield_text":"6","bicycle_network":"ncn","source":"openstreetmap.org","min_zoom":8.0,"kind_detail":"service"},"arcs":[145]},{"type":"LineString","properties":{"kind":"major_road","sort_rank":380,"kind_detail":"primary","is_bicycle_related":true,"source":"openstreetmap.org","min_zoom":8.0,"ref":"23","id":27044413},"arcs":[146]},{"type":"MultiLineString","properties":{"source":"openstreetmap.org","kind":"major_road","sort_rank":380,"kind_detail":"primary","ref":"52","min_zoom":8.0},"arcs":[[147],[148],[149],[150],[151],[152],[153]]},{"type":"MultiLineString","properties":{"kind":"ferry","name":"Svendborg - Skar\u00f8 - Drej\u00f8","sort_rank":355,"is_bicycle_related":true,"source":"openstreetmap.org","min_zoom":8.0,"id":-1356670,"osm_relation":true},"arcs":[[154],[155]]},{"type":"MultiLineString","properties":{"kind":"path","sort_rank":354,"kind_detail":"cycleway","is_bicycle_related":true,"bicycle_shield_text":"EV10","bicycle_network":"icn","source":"openstreetmap.org","min_zoom":8.0},"arcs":[[156],[157],[158],[159],[160],[161]]},{"type":"MultiLineString","properties":{"bus_network":"FynBus","sort_rank":377,"landuse_kind":"urban_area","is_bicycle_related":true,"kind":"major_road","bicycle_shield_text":"6","cycleway":"lane","source":"openstreetmap.org","min_zoom":8.0,"bus_shield_text":"1","kind_detail":"tertiary","bicycle_network":"ncn"},"arcs":[[162],[163]]},{"type":"LineString","properties":{"kind":"major_road","network":"dk:national","sort_rank":380,"kind_detail":"primary","is_bicycle_related":true,"bicycle_shield_text":"4","cycleway":"lane","source":"openstreetmap.org","min_zoom":8.0,"landuse_kind":"urban_area","shield_text":"22","bicycle_network":"ncn","ref":"22;23"},"arcs":[164]},{"type":"MultiLineString","properties":{"bus_network":"B\u00f8jden F\u00e6rgehavn - Horne - Faaborg - V. Aaby - Svendborg","sort_rank":380,"kind_detail":"primary","is_bicycle_related":true,"kind":"major_road","cycleway":"track","source":"openstreetmap.org","min_zoom":8.0,"bus_shield_text":"863U","ref":"44"},"arcs":[[165],[166],[167],[168]]},{"type":"LineString","properties":{"kind":"major_road","sort_rank":377,"kind_detail":"tertiary","is_bicycle_related":true,"bus_network":"B\u00f8jden F\u00e6rgehavn - Horne - Faaborg - V. Aaby - Svendborg","bicycle_shield_text":"EV10","bicycle_network":"icn","source":"openstreetmap.org","min_zoom":8.0,"bus_shield_text":"863U"},"arcs":[169]},{"type":"MultiLineString","properties":{"kind":"major_road","sort_rank":377,"landuse_kind":"residential","is_bicycle_related":true,"bicycle_shield_text":"EV10","bicycle_network":"icn","source":"openstreetmap.org","min_zoom":8.0,"kind_detail":"tertiary"},"arcs":[[170],[171]]},{"type":"LineString","properties":{"source":"openstreetmap.org","kind":"ferry","name":"Ballen - Kalundborg","sort_rank":355,"is_bicycle_related":true,"min_zoom":8.0,"id":392728788},"arcs":[172]},{"type":"MultiLineString","properties":{"kind":"major_road","sort_rank":377,"kind_detail":"tertiary","is_bicycle_related":true,"bicycle_shield_text":"5","bicycle_network":"ncn","source":"openstreetmap.org","min_zoom":8.0},"arcs":[[173],[174],[175],[176]]},{"type":"LineString","properties":{"kind":"major_road","sort_rank":379,"kind_detail":"secondary","is_bicycle_related":true,"bus_network":"FynBus","bicycle_shield_text":"8","bicycle_network":"ncn","source":"openstreetmap.org","min_zoom":8.0,"bus_shield_text":"2a","ref":"163","id":130420985},"arcs":[177]},{"type":"LineString","properties":{"bus_network":"B\u00f8jden F\u00e6rgehavn - Horne - Faaborg - V. Aaby - Svendborg","sort_rank":377,"kind_detail":"tertiary","is_bicycle_related":true,"kind":"major_road","bicycle_shield_text":"EV10","cycleway":"lane","source":"openstreetmap.org","min_zoom":8.0,"bus_shield_text":"863U","bicycle_network":"icn","id":448300940},"arcs":[178]},{"type":"MultiLineString","properties":{"bus_network":"Faaborg - Nyborg - Kerteminde","sort_rank":380,"kind_detail":"primary","is_bicycle_related":true,"kind":"major_road","cycleway":"lane","source":"openstreetmap.org","min_zoom":8.0,"bus_shield_text":"920","ref":"8"},"arcs":[[179],[180],[181]]},{"type":"LineString","properties":{"kind":"major_road","sort_rank":379,"kind_detail":"secondary","is_bicycle_related":true,"bus_network":"Rudk\u00f8bing - Svendborg - Nyborg","bicycle_shield_text":"8","bicycle_network":"ncn","source":"openstreetmap.org","min_zoom":8.0,"bus_shield_text":"930","ref":"163"},"arcs":[182]},{"type":"LineString","properties":{"kind":"major_road","sort_rank":380,"kind_detail":"primary","is_bicycle_related":true,"bus_network":"B\u00f8jden F\u00e6rgehavn - Horne - Faaborg - V. Aaby - Svendborg","cycleway":"track","source":"openstreetmap.org","min_zoom":8.0,"bus_shield_text":"863U","landuse_kind":"residential","ref":"44","id":25564092},"arcs":[183]},{"type":"LineString","properties":{"bus_network":"Rudk\u00f8bing - Svendborg - Odense","network":"dk:national","sort_rank":380,"kind_detail":"primary","is_bicycle_related":true,"kind":"major_road","source":"openstreetmap.org","min_zoom":8.0,"bus_shield_text":"810U","shield_text":"9","ref":"9","id":396027269},"arcs":[184]},{"type":"MultiLineString","properties":{"bus_network":"B\u00f8jden F\u00e6rgehavn - Horne - Faaborg - V. Aaby - Svendborg","sort_rank":377,"landuse_kind":"residential","is_bicycle_related":true,"kind":"major_road","bicycle_shield_text":"8","bicycle_network":"ncn","source":"openstreetmap.org","min_zoom":8.0,"bus_shield_text":"863U","kind_detail":"tertiary"},"arcs":[[185],[186]]},{"type":"LineString","properties":{"kind":"major_road","sort_rank":377,"kind_detail":"tertiary","is_bicycle_related":true,"bicycle_shield_text":"5","cycleway":"lane","source":"openstreetmap.org","min_zoom":8.0,"bicycle_network":"ncn"},"arcs":[187]},{"type":"LineString","properties":{"cycleway_right":"lane","sort_rank":377,"kind_detail":"tertiary","is_bicycle_related":true,"kind":"major_road","bicycle_shield_text":"6","bicycle_network":"ncn","bus_network":"Fraugde - Skibhusene","source":"openstreetmap.org","min_zoom":8.0,"bus_shield_text":"81","landuse_kind":"urban_area","id":12531834},"arcs":[188]},{"type":"LineString","properties":{"bus_network":"FynBus","sort_rank":377,"kind_detail":"tertiary","is_bicycle_related":true,"kind":"major_road","bicycle_shield_text":"8","bicycle_network":"ncn","source":"openstreetmap.org","min_zoom":8.0,"bus_shield_text":"2a","id":130457214},"arcs":[189]},{"type":"LineString","properties":{"kind":"major_road","sort_rank":377,"landuse_kind":"residential","is_bicycle_related":true,"bicycle_shield_text":"EV10","bicycle_network":"icn","source":"openstreetmap.org","min_zoom":8.0,"kind_detail":"tertiary","cycleway":"track"},"arcs":[190]},{"type":"LineString","properties":{"source":"openstreetmap.org","kind":"ferry","name:en":"Gothenburg - Kiel","name":"Kiel - G\u00f6teborg","sort_rank":355,"is_bicycle_related":true,"min_zoom":8.0},"arcs":[191]},{"type":"LineString","properties":{"bus_network":"Universitetet - Odense Baneg\u00e5rd - Bolbro\/Tarup","sort_rank":379,"kind_detail":"secondary","is_bicycle_related":true,"cycleway_right":"lane","bicycle_shield_text":"6","bicycle_network":"ncn","source":"openstreetmap.org","min_zoom":8.0,"bus_shield_text":"41","landuse_kind":"urban_area","ref":"O1","id":495933161,"kind":"major_road"},"arcs":[192]},{"type":"LineString","properties":{"kind":"major_road","sort_rank":380,"kind_detail":"primary","is_bicycle_related":true,"bus_network":"B\u00f8jden F\u00e6rgehavn - Horne - Faaborg - V. Aaby - Svendborg","bicycle_shield_text":"8","cycleway":"lane","source":"openstreetmap.org","min_zoom":8.0,"bus_shield_text":"863U","bicycle_network":"ncn","ref":"44","id":12334945},"arcs":[193]},{"type":"MultiLineString","properties":{"kind":"path","sort_rank":354,"kind_detail":"cycleway","is_bicycle_related":true,"bicycle_shield_text":"8","bicycle_network":"ncn","source":"openstreetmap.org","min_zoom":8.0,"landuse_kind":"urban_area"},"arcs":[[194],[195],[196],[197],[198],[199]]},{"type":"MultiLineString","properties":{"kind":"major_road","sort_rank":380,"kind_detail":"primary","is_bicycle_related":true,"bicycle_shield_text":"EV10","bicycle_network":"icn","source":"openstreetmap.org","min_zoom":8.0,"ref":"8"},"arcs":[[200],[201]]},{"type":"LineString","properties":{"cycleway_right":"lane","network":"dk:national","sort_rank":380,"kind_detail":"primary","is_bicycle_related":true,"kind":"major_road","bicycle_shield_text":"4","bicycle_network":"ncn","source":"openstreetmap.org","min_zoom":8.0,"landuse_kind":"urban_area","shield_text":"23","id":156813557},"arcs":[202]},{"type":"LineString","properties":{"bus_network":"Rudk\u00f8bing - Svendborg - Odense","network":"dk:national","sort_rank":380,"kind_detail":"primary","is_bicycle_related":true,"kind":"major_road","cycleway":"shared_lane","source":"openstreetmap.org","min_zoom":8.0,"bus_shield_text":"810U","shield_text":"9","landuse_kind":"urban_area","ref":"9"},"arcs":[203]},{"type":"LineString","properties":{"cycleway_right":"track","network":"dk:national","sort_rank":380,"kind_detail":"primary","is_bicycle_related":true,"kind":"major_road","bicycle_shield_text":"4","bicycle_network":"ncn","source":"openstreetmap.org","min_zoom":8.0,"landuse_kind":"urban_area","shield_text":"23","id":4492202},"arcs":[204]},{"type":"LineString","properties":{"kind":"minor_road","sort_rank":360,"kind_detail":"unclassified","is_bicycle_related":true,"bicycle_shield_text":"8","cycleway":"lane","source":"openstreetmap.org","min_zoom":8.0,"bicycle_network":"ncn"},"arcs":[205]},{"type":"LineString","properties":{"source":"openstreetmap.org","kind":"ferry","name":"Ly\u00f8 - Avernak\u00f8","sort_rank":355,"is_bicycle_related":true,"min_zoom":8.0,"id":141509964},"arcs":[206]},{"type":"LineString","properties":{"kind":"minor_road","sort_rank":360,"kind_detail":"unclassified","is_bicycle_related":true,"bicycle_shield_text":"4","bicycle_network":"ncn","source":"openstreetmap.org","min_zoom":8.0,"id":43646081},"arcs":[207]},{"type":"LineString","properties":{"kind":"major_road","network":"dk:national","sort_rank":380,"kind_detail":"primary","is_bicycle_related":true,"bicycle_shield_text":"4","cycleway":"lane","source":"openstreetmap.org","min_zoom":8.0,"shield_text":"23","bicycle_network":"ncn","ref":"23","id":4492204},"arcs":[208]},{"type":"MultiLineString","properties":{"kind":"minor_road","sort_rank":360,"kind_detail":"unclassified","is_bicycle_related":true,"bicycle_shield_text":"5","bicycle_network":"ncn","source":"openstreetmap.org","min_zoom":8.0},"arcs":[[209],[210],[211],[212]]},{"type":"MultiLineString","properties":{"kind":"highway","network":"e-road","sort_rank":383,"kind_detail":"motorway","source":"openstreetmap.org","min_zoom":8.0,"all_networks":["e-road"],"shield_text":"20","ref":"E 20","all_shield_texts":["20"]},"arcs":[[213],[214],[215],[216],[217],[218],[219],[220],[221],[222],[223],[224],[225],[226],[227],[228],[229],[230],[231],[232],[233],[234],[235],[236],[237],[238],[239],[240],[241],[242]]},{"type":"LineString","properties":{"kind":"major_road","network":"dk:national","sort_rank":380,"kind_detail":"primary","source":"openstreetmap.org","min_zoom":8.0,"shield_text":"22","id":222673502},"arcs":[243]},{"type":"MultiLineString","properties":{"bus_network":"FynBus","sort_rank":377,"landuse_kind":"urban_area","is_bicycle_related":true,"kind":"major_road","bicycle_shield_text":"6","bicycle_network":"ncn","source":"openstreetmap.org","min_zoom":8.0,"bus_shield_text":"2a","kind_detail":"tertiary","cycleway":"track"},"arcs":[[244],[245]]},{"type":"MultiLineString","properties":{"kind":"minor_road","sort_rank":358,"kind_detail":"service","is_bicycle_related":true,"bicycle_shield_text":"8","bicycle_network":"ncn","source":"openstreetmap.org","min_zoom":8.0},"arcs":[[246],[247],[248]]},{"type":"MultiLineString","properties":{"kind":"major_road","sort_rank":380,"kind_detail":"primary","is_bicycle_related":true,"bicycle_shield_text":"8","bicycle_network":"ncn","source":"openstreetmap.org","min_zoom":8.0,"ref":"8"},"arcs":[[249],[250]]},{"type":"LineString","properties":{"kind":"major_road","sort_rank":379,"kind_detail":"secondary","is_bicycle_related":true,"bus_network":"S\u00f8nders\u00f8 Glamsbjerg","bicycle_shield_text":"6","cycleway":"lane","source":"openstreetmap.org","min_zoom":8.0,"bus_shield_text":"268","bicycle_network":"ncn","ref":"335","id":25301641},"arcs":[251]},{"type":"LineString","properties":{"kind":"minor_road","service":"parking_aisle","sort_rank":356,"kind_detail":"service","is_bicycle_related":true,"bicycle_shield_text":"8","bicycle_network":"ncn","source":"openstreetmap.org","min_zoom":8.0,"id":24572199},"arcs":[252]},{"type":"MultiLineString","properties":{"kind":"path","sort_rank":354,"kind_detail":"cycleway","is_bicycle_related":true,"bicycle_shield_text":"8","bicycle_network":"ncn","source":"openstreetmap.org","min_zoom":8.0},"arcs":[[253],[254],[255],[256],[257],[258],[259],[260],[261]]},{"type":"LineString","properties":{"kind":"ferry","name":"Kiel - G\u00f6teborg","sort_rank":355,"is_bicycle_related":true,"source":"openstreetmap.org","min_zoom":8.0,"ref":"Kiel - G\u00f6teborg","osm_relation":true},"arcs":[262]},{"type":"MultiLineString","properties":{"bus_network":"Universitetet - Odense Baneg\u00e5rd - Bolbro\/Tarup","sort_rank":379,"landuse_kind":"urban_area","is_bicycle_related":true,"kind":"major_road","bicycle_shield_text":"6","bicycle_network":"ncn","source":"openstreetmap.org","min_zoom":8.0,"bus_shield_text":"41","kind_detail":"secondary","ref":"O1"},"arcs":[[263],[264]]},{"type":"MultiLineString","properties":{"bus_network":"Faaborg - Odense","sort_rank":380,"kind_detail":"primary","is_bicycle_related":true,"kind":"major_road","cycleway":"track","source":"openstreetmap.org","min_zoom":8.0,"bus_shield_text":"141","ref":"44"},"arcs":[[265],[266],[267]]},{"type":"LineString","properties":{"kind":"major_road","network":"dk:national","sort_rank":380,"kind_detail":"primary","is_bicycle_related":true,"cycleway":"lane","source":"openstreetmap.org","min_zoom":8.0,"landuse_kind":"urban_area","shield_text":"22","ref":"22;23","id":456077878},"arcs":[268]},{"type":"MultiLineString","properties":{"kind":"major_road","sort_rank":380,"kind_detail":"primary","is_bicycle_related":true,"cycleway":"track","source":"openstreetmap.org","min_zoom":8.0,"ref":"52"},"arcs":[[269],[270],[271]]},{"type":"MultiLineString","properties":{"kind":"minor_road","sort_rank":360,"landuse_kind":"urban_area","is_bicycle_related":true,"bicycle_shield_text":"6","bicycle_network":"ncn","source":"openstreetmap.org","min_zoom":8.0,"kind_detail":"residential"},"arcs":[[272],[273],[274],[275],[276]]},{"type":"MultiLineString","properties":{"kind":"minor_road","sort_rank":360,"kind_detail":"unclassified","is_bicycle_related":true,"bicycle_shield_text":"6","bicycle_network":"ncn","source":"openstreetmap.org","min_zoom":8.0},"arcs":[[277],[278],[279],[280],[281],[282],[283],[284],[285],[286]]},{"type":"LineString","properties":{"bus_network":"FynBus","sort_rank":377,"landuse_kind":"residential","is_bicycle_related":true,"kind":"major_road","bicycle_shield_text":"6","bicycle_network":"ncn","source":"openstreetmap.org","min_zoom":8.0,"bus_shield_text":"2a","kind_detail":"tertiary","cycleway":"lane"},"arcs":[287]},{"type":"MultiLineString","properties":{"bus_network":"Universitetet - Odense Baneg\u00e5rd - Bolbro\/Tarup","sort_rank":379,"landuse_kind":"urban_area","is_bicycle_related":true,"kind":"major_road","bicycle_shield_text":"6","bicycle_network":"ncn","source":"openstreetmap.org","min_zoom":8.0,"bus_shield_text":"41","kind_detail":"secondary","cycleway":"track","ref":"O1"},"arcs":[[288],[289],[290],[291]]},{"type":"LineString","properties":{"kind":"major_road","sort_rank":377,"kind_detail":"tertiary","is_bicycle_related":true,"bus_network":"Assens - Middelfart - Errits\u00f8","bicycle_shield_text":"8","bicycle_network":"ncn","source":"openstreetmap.org","min_zoom":8.0,"bus_shield_text":"825U","landuse_kind":"urban_area","id":33562296},"arcs":[292]},{"type":"MultiLineString","properties":{"kind":"minor_road","sort_rank":360,"kind_detail":"unclassified","is_bicycle_related":true,"bicycle_shield_text":"EV10","bicycle_network":"icn","source":"openstreetmap.org","min_zoom":8.0},"arcs":[[293],[294],[295],[296],[297],[298]]},{"type":"MultiLineString","properties":{"kind":"ferry","name":"Svendborg - \u00c6r\u00f8sk\u00f8bing","sort_rank":355,"is_bicycle_related":true,"bicycle_shield_text":"8","bicycle_network":"ncn","source":"openstreetmap.org","min_zoom":8.0,"id":33847154},"arcs":[[299],[300]]},{"type":"LineString","properties":{"kind":"ferry","name":"Snaptun - Endelave","sort_rank":355,"is_bicycle_related":true,"source":"openstreetmap.org","min_zoom":8.0,"id":-451290,"osm_relation":true},"arcs":[301]},{"type":"MultiLineString","properties":{"kind":"path","sort_rank":354,"kind_detail":"path","is_bicycle_related":true,"bicycle_shield_text":"8","bicycle_network":"ncn","source":"openstreetmap.org","min_zoom":8.0},"arcs":[[302],[303],[304]]},{"type":"MultiLineString","properties":{"source":"openstreetmap.org","kind":"major_road","sort_rank":380,"kind_detail":"primary","ref":"23;52","min_zoom":8.0},"arcs":[[305],[306],[307],[308],[309]]},{"type":"LineString","properties":{"cycleway_right":"track","sort_rank":377,"kind_detail":"tertiary","is_bicycle_related":true,"kind":"major_road","bicycle_shield_text":"6","cycleway":"lane","bus_network":"FynBus","source":"openstreetmap.org","min_zoom":8.0,"bus_shield_text":"1","landuse_kind":"residential","id":329369141,"bicycle_network":"ncn"},"arcs":[310]},{"type":"MultiLineString","properties":{"kind":"path","sort_rank":354,"kind_detail":"cycleway","is_bicycle_related":true,"bicycle_shield_text":"6","bicycle_network":"ncn","source":"openstreetmap.org","min_zoom":8.0},"arcs":[[311],[312],[313],[314],[315]]},{"type":"LineString","properties":{"kind":"major_road","network":"dk:national","sort_rank":380,"kind_detail":"primary","is_bicycle_related":true,"cycleway":"lane","source":"openstreetmap.org","min_zoom":8.0,"landuse_kind":"urban_area","shield_text":"23","ref":"23","id":4680513},"arcs":[316]},{"type":"MultiLineString","properties":{"kind":"highway","network":"e-road","sort_rank":383,"kind_detail":"motorway","name:de":"Gro\u00dfe-Belt-Br\u00fccke","source":"openstreetmap.org","min_zoom":8.0,"all_networks":["e-road"],"shield_text":"20","ref":"E 20","all_shield_texts":["20"]},"arcs":[[317],[318]]},{"type":"LineString","properties":{"kind":"major_road","sort_rank":377,"kind_detail":"tertiary","is_bicycle_related":true,"bicycle_shield_text":"4","bicycle_network":"ncn","source":"openstreetmap.org","min_zoom":8.0,"landuse_kind":"urban_area","id":24423723},"arcs":[319]},{"type":"MultiLineString","properties":{"kind":"minor_road","sort_rank":360,"kind_detail":"unclassified","is_bicycle_related":true,"bicycle_shield_text":"8","bicycle_network":"ncn","source":"openstreetmap.org","min_zoom":8.0},"arcs":[[320],[321],[322],[323],[324],[325],[326],[327],[328],[329],[330],[331],[332],[333],[334],[335],[336],[337],[338],[339],[340],[341],[342],[343],[344],[345]]},{"type":"MultiLineString","properties":{"kind":"major_road","sort_rank":380,"kind_detail":"primary","is_bicycle_related":true,"cycleway":"track","source":"openstreetmap.org","min_zoom":8.0,"landuse_kind":"urban_area","ref":"44"},"arcs":[[346],[347],[348],[349],[350],[351]]},{"type":"LineString","properties":{"kind":"major_road","sort_rank":377,"kind_detail":"tertiary","is_bicycle_related":true,"bicycle_shield_text":"8","bicycle_network":"ncn","source":"openstreetmap.org","min_zoom":8.0,"cycleway":"track"},"arcs":[352]},{"type":"LineString","properties":{"kind":"major_road","sort_rank":380,"kind_detail":"primary","is_bicycle_related":true,"bus_network":"B\u00f8jden F\u00e6rgehavn - Horne - Faaborg - V. Aaby - Svendborg","bicycle_shield_text":"8","bicycle_network":"ncn","source":"openstreetmap.org","min_zoom":8.0,"bus_shield_text":"863U","ref":"8","id":12334966},"arcs":[353]},{"type":"MultiLineString","properties":{"kind":"major_road","sort_rank":379,"kind_detail":"secondary","is_bicycle_related":true,"bicycle_shield_text":"8","cycleway":"lane","source":"openstreetmap.org","min_zoom":8.0,"bicycle_network":"ncn","ref":"150;265"},"arcs":[[354],[355]]},{"type":"LineString","properties":{"cycleway_right":"opposite_track","cycleway_left":"shared_lane","sort_rank":377,"kind_detail":"tertiary","is_bicycle_related":true,"kind":"major_road","bicycle_shield_text":"6","bicycle_network":"ncn","source":"openstreetmap.org","min_zoom":8.0,"landuse_kind":"urban_area","id":9789892},"arcs":[356]},{"type":"LineString","properties":{"kind":"major_road","sort_rank":380,"kind_detail":"primary","is_bicycle_related":true,"bicycle_shield_text":"8","bicycle_network":"ncn","source":"openstreetmap.org","min_zoom":8.0,"landuse_kind":"residential","ref":"8","id":12366320},"arcs":[357]},{"type":"MultiLineString","properties":{"bus_network":"Fraugde - Skibhusene","sort_rank":377,"landuse_kind":"urban_area","is_bicycle_related":true,"kind":"major_road","bicycle_shield_text":"6","bicycle_network":"ncn","source":"openstreetmap.org","min_zoom":8.0,"bus_shield_text":"81","kind_detail":"tertiary"},"arcs":[[358],[359]]},{"type":"MultiLineString","properties":{"kind":"major_road","sort_rank":377,"kind_detail":"tertiary","is_bicycle_related":true,"bicycle_shield_text":"EV10","bicycle_network":"icn","source":"openstreetmap.org","min_zoom":8.0},"arcs":[[360],[361],[362],[363],[364],[365],[366]]},{"type":"LineString","properties":{"source":"openstreetmap.org","kind":"ferry","name":"Baag\u00f8 - Assens","sort_rank":355,"min_zoom":8.0,"osm_relation":true,"id":-902470},"arcs":[367]},{"type":"LineString","properties":{"bus_network":"B\u00f8jden F\u00e6rgehavn - Horne - Faaborg - V. Aaby - Svendborg","sort_rank":380,"kind_detail":"primary","is_bicycle_related":true,"kind":"major_road","cycleway":"track","source":"openstreetmap.org","min_zoom":8.0,"bus_shield_text":"863U","landuse_kind":"urban_area","ref":"44"},"arcs":[368]},{"type":"MultiLineString","properties":{"bus_network":"Faaborg - Nyborg - Kerteminde","sort_rank":380,"kind_detail":"primary","kind":"major_road","source":"openstreetmap.org","min_zoom":8.0,"bus_shield_text":"920","ref":"8"},"arcs":[[369],[370],[371],[372],[373],[374],[375]]},{"type":"LineString","properties":{"kind":"major_road","sort_rank":380,"kind_detail":"primary","is_bicycle_related":true,"bus_network":"Faaborg - Nyborg - Kerteminde","bicycle_shield_text":"55","bicycle_network":"rcn","source":"openstreetmap.org","min_zoom":8.0,"bus_shield_text":"920","ref":"8","id":26349718},"arcs":[376]},{"type":"MultiLineString","properties":{"kind":"major_road","sort_rank":377,"kind_detail":"tertiary","is_bicycle_related":true,"bicycle_shield_text":"6","bicycle_network":"ncn","source":"openstreetmap.org","min_zoom":8.0},"arcs":[[377],[378],[379],[380],[381],[382],[383],[384],[385]]},{"type":"LineString","properties":{"kind":"major_road","sort_rank":380,"kind_detail":"primary","is_bicycle_related":true,"bus_network":"B\u00f8jden F\u00e6rgehavn - Horne - Faaborg - V. Aaby - Svendborg","bicycle_shield_text":"8","bicycle_network":"ncn","source":"openstreetmap.org","min_zoom":8.0,"bus_shield_text":"863U","landuse_kind":"residential","ref":"8","id":12334966},"arcs":[386]},{"type":"LineString","properties":{"source":"openstreetmap.org","kind":"ferry","name":"Sundfarten Helge","sort_rank":355,"min_zoom":8.0,"id":293690622},"arcs":[387]},{"type":"MultiLineString","properties":{"kind":"major_road","network":"dk:national","sort_rank":380,"kind_detail":"primary","source":"openstreetmap.org","min_zoom":8.0,"shield_text":"22","ref":"22"},"arcs":[[388],[389],[390],[391],[392],[393]]},{"type":"LineString","properties":{"kind":"major_road","sort_rank":377,"kind_detail":"tertiary","is_bicycle_related":true,"bus_network":"Faaborg - Nyborg - Kerteminde","bicycle_shield_text":"6","cycleway":"track","source":"openstreetmap.org","min_zoom":8.0,"bus_shield_text":"920","landuse_kind":"residential","id":389170891,"bicycle_network":"ncn"},"arcs":[394]},{"type":"LineString","properties":{"kind":"major_road","sort_rank":377,"landuse_kind":"residential","is_bicycle_related":true,"bicycle_shield_text":"8","cycleway":"lane","source":"openstreetmap.org","min_zoom":8.0,"kind_detail":"tertiary","bicycle_network":"ncn"},"arcs":[395]},{"type":"MultiLineString","properties":{"source":"openstreetmap.org","kind":"major_road","sort_rank":380,"kind_detail":"primary","ref":"8;167","min_zoom":8.0},"arcs":[[396],[397],[398],[399],[400],[401]]},{"type":"LineString","properties":{"kind":"major_road","sort_rank":380,"kind_detail":"primary","is_bicycle_related":true,"bus_network":"Faaborg - Nyborg - Kerteminde","bicycle_shield_text":"51","cycleway":"lane","source":"openstreetmap.org","min_zoom":8.0,"bus_shield_text":"920","bicycle_network":"rcn","ref":"8;301","id":56312938},"arcs":[402]},{"type":"MultiLineString","properties":{"bus_network":"B\u00f8jden F\u00e6rgehavn - Horne - Faaborg - V. Aaby - Svendborg","sort_rank":380,"kind_detail":"primary","kind":"major_road","source":"openstreetmap.org","min_zoom":8.0,"bus_shield_text":"863U","ref":"44"},"arcs":[[403],[404],[405],[406],[407],[408]]},{"type":"MultiLineString","properties":{"kind":"major_road","sort_rank":377,"kind_detail":"tertiary","is_bicycle_related":true,"bicycle_shield_text":"8","cycleway":"lane","source":"openstreetmap.org","min_zoom":8.0,"bicycle_network":"ncn"},"arcs":[[409],[410],[411],[412],[413],[414]]},{"type":"LineString","properties":{"source":"openstreetmap.org","kind":"ferry","name":"Bj\u00f8rn\u00f8-F\u00e5borg","sort_rank":355,"min_zoom":8.0,"osm_relation":true,"id":-451351},"arcs":[415]},{"type":"LineString","properties":{"bus_network":"B\u00f8jden F\u00e6rgehavn - Horne - Faaborg - V. Aaby - Svendborg","sort_rank":380,"kind_detail":"primary","is_bicycle_related":true,"kind":"major_road","bicycle_shield_text":"55","bicycle_network":"rcn","source":"openstreetmap.org","min_zoom":8.0,"bus_shield_text":"863U","ref":"44"},"arcs":[416]},{"type":"LineString","properties":{"kind":"major_road","network":"dk:national","sort_rank":380,"kind_detail":"primary","is_bicycle_related":true,"cycleway":"track","source":"openstreetmap.org","min_zoom":8.0,"landuse_kind":"residential","shield_text":"22","ref":"22;23"},"arcs":[417]},{"type":"MultiLineString","properties":{"kind":"major_road","network":"dk:national","sort_rank":380,"kind_detail":"primary","source":"openstreetmap.org","min_zoom":8.0,"landuse_kind":"urban_area","shield_text":"22","ref":"22"},"arcs":[[418],[419]]},{"type":"LineString","properties":{"source":"openstreetmap.org","kind":"ferry","name":"Snaptun - Endelave","sort_rank":355,"is_bicycle_related":true,"min_zoom":8.0,"id":29243611},"arcs":[420]},{"type":"LineString","properties":{"kind":"major_road","network":"dk:national","sort_rank":380,"kind_detail":"primary","is_bicycle_related":true,"cycleway":"track","source":"openstreetmap.org","min_zoom":8.0,"shield_text":"22","ref":"22","id":137531904},"arcs":[421]},{"type":"LineString","properties":{"kind":"major_road","sort_rank":379,"landuse_kind":"urban_area","is_bicycle_related":true,"bus_network":"Rudk\u00f8bing - Svendborg - Nyborg","bicycle_shield_text":"8","bicycle_network":"ncn","source":"openstreetmap.org","min_zoom":8.0,"bus_shield_text":"930","kind_detail":"secondary","ref":"163"},"arcs":[422]},{"type":"MultiLineString","properties":{"bus_network":"Faaborg - Nyborg - Kerteminde","sort_rank":377,"landuse_kind":"urban_area","is_bicycle_related":true,"kind":"major_road","bicycle_shield_text":"6","bicycle_network":"ncn","source":"openstreetmap.org","min_zoom":8.0,"bus_shield_text":"920","kind_detail":"tertiary","cycleway":"track"},"arcs":[[423],[424]]},{"type":"LineString","properties":{"kind":"major_road","network":"dk:national","sort_rank":380,"kind_detail":"primary","is_bicycle_related":true,"bicycle_shield_text":"4","cycleway":"lane","source":"openstreetmap.org","min_zoom":8.0,"landuse_kind":"urban_area","shield_text":"22","bicycle_network":"ncn","id":24423724},"arcs":[425]},{"type":"LineString","properties":{"source":"openstreetmap.org","kind":"ferry","name":"S\u00f8by - Fynshav","sort_rank":355,"min_zoom":8.0,"osm_relation":true,"id":-451310},"arcs":[426]},{"type":"LineString","properties":{"kind":"major_road","sort_rank":377,"kind_detail":"tertiary","is_bicycle_related":true,"bus_network":"FynBus","bicycle_shield_text":"8","cycleway":"track","source":"openstreetmap.org","min_zoom":8.0,"bus_shield_text":"1","landuse_kind":"urban_area","id":25711673,"bicycle_network":"ncn"},"arcs":[427]},{"type":"LineString","properties":{"kind":"major_road","sort_rank":380,"kind_detail":"primary","bus_network":"Faaborg - Odense","source":"openstreetmap.org","min_zoom":8.0,"bus_shield_text":"141","ref":"8;43","id":12366323},"arcs":[428]},{"type":"LineString","properties":{"kind":"major_road","network":"dk:national","sort_rank":380,"kind_detail":"primary","source":"openstreetmap.org","min_zoom":8.0,"shield_text":"9","ref":"9"},"arcs":[429]},{"type":"MultiLineString","properties":{"kind":"highway","network":"dk:national","sort_rank":383,"kind_detail":"motorway","source":"openstreetmap.org","min_zoom":8.0,"all_networks":["dk:national"],"shield_text":"9","ref":"9","all_shield_texts":["9"]},"arcs":[[430],[431],[432],[433],[434],[435]]},{"type":"LineString","properties":{"source":"openstreetmap.org","kind":"ferry","name":"Assens - Baag\u00f8","sort_rank":355,"landuse_kind":"urban_area","min_zoom":8.0,"id":58369320},"arcs":[436]},{"type":"LineString","properties":{"bus_network":"Faaborg - Nyborg - Kerteminde","sort_rank":379,"landuse_kind":"urban_area","is_bicycle_related":true,"kind":"major_road","bicycle_shield_text":"6","bicycle_network":"ncn","source":"openstreetmap.org","min_zoom":8.0,"bus_shield_text":"920","kind_detail":"secondary","cycleway":"track","ref":"163"},"arcs":[437]},{"type":"LineString","properties":{"source":"openstreetmap.org","kind":"ferry","name":"F\u00e5borg - Avernak\u00f8","sort_rank":355,"is_bicycle_related":true,"min_zoom":8.0,"id":141509969},"arcs":[438]},{"type":"LineString","properties":{"bus_network":"Faaborg - Nyborg - Kerteminde","sort_rank":380,"kind_detail":"primary","is_bicycle_related":true,"kind":"major_road","bicycle_shield_text":"51","cycleway":"lane","source":"openstreetmap.org","min_zoom":8.0,"bus_shield_text":"920","bicycle_network":"rcn","ref":"8"},"arcs":[439]},{"type":"MultiLineString","properties":{"kind":"minor_road","sort_rank":360,"kind_detail":"residential","is_bicycle_related":true,"bicycle_shield_text":"6","bicycle_network":"ncn","source":"openstreetmap.org","min_zoom":8.0},"arcs":[[440],[441],[442],[443]]},{"type":"LineString","properties":{"kind":"major_road","sort_rank":380,"kind_detail":"primary","is_bicycle_related":true,"bus_network":"Faaborg - Nyborg - Kerteminde","cycleway":"track","source":"openstreetmap.org","min_zoom":8.0,"bus_shield_text":"920","ref":"8","id":25828390},"arcs":[444]},{"type":"MultiLineString","properties":{"kind":"minor_road","sort_rank":360,"kind_detail":"residential","is_bicycle_related":true,"bicycle_shield_text":"EV10","bicycle_network":"icn","source":"openstreetmap.org","min_zoom":8.0},"arcs":[[445],[446],[447],[448]]},{"type":"LineString","properties":{"source":"openstreetmap.org","kind":"ferry","name":"Skar\u00f8 - Drej\u00f8","sort_rank":355,"min_zoom":8.0,"id":93308405},"arcs":[449]},{"type":"LineString","properties":{"kind":"major_road","sort_rank":377,"kind_detail":"tertiary","is_bicycle_related":true,"bus_network":"Harndrup - Fjellerup - Fjelsted","bicycle_shield_text":"6","bicycle_network":"ncn","source":"openstreetmap.org","min_zoom":8.0,"bus_shield_text":"372","id":25317275},"arcs":[450]},{"type":"MultiLineString","properties":{"kind":"major_road","network":"dk:national","sort_rank":380,"kind_detail":"primary","bus_network":"Rudk\u00f8bing - Svendborg - Nyborg","source":"openstreetmap.org","min_zoom":8.0,"bus_shield_text":"930","shield_text":"9","ref":"9"},"arcs":[[451],[452]]},{"type":"MultiLineString","properties":{"kind":"major_road","sort_rank":377,"landuse_kind":"urban_area","is_bicycle_related":true,"bicycle_shield_text":"4","bicycle_network":"ncn","source":"openstreetmap.org","min_zoom":8.0,"kind_detail":"tertiary","cycleway":"track"},"arcs":[[453],[454]]},{"type":"LineString","properties":{"kind":"path","sort_rank":354,"landuse_kind":"urban_area","is_bicycle_related":true,"bicycle_shield_text":"6","bicycle_network":"ncn","source":"openstreetmap.org","min_zoom":8.0,"kind_detail":"track"},"arcs":[455]},{"type":"MultiLineString","properties":{"bus_network":"Rudk\u00f8bing - Svendborg - Odense","sort_rank":380,"kind_detail":"primary","kind":"major_road","source":"openstreetmap.org","min_zoom":8.0,"bus_shield_text":"810U","ref":"8;167"},"arcs":[[456],[457],[458],[459],[460],[461],[462],[463],[464],[465],[466],[467],[468]]},{"type":"MultiLineString","properties":{"bus_network":"Rudk\u00f8bing - Svendborg - Odense","network":"dk:national","sort_rank":380,"kind_detail":"primary","kind":"major_road","source":"openstreetmap.org","min_zoom":8.0,"bus_shield_text":"810U","shield_text":"9","landuse_kind":"urban_area","ref":"9"},"arcs":[[469],[470],[471],[472],[473],[474]]},{"type":"MultiLineString","properties":{"kind":"minor_road","sort_rank":360,"kind_detail":"residential","is_bicycle_related":true,"bicycle_shield_text":"8","bicycle_network":"ncn","source":"openstreetmap.org","min_zoom":8.0},"arcs":[[475],[476],[477],[478],[479],[480],[481],[482]]},{"type":"LineString","properties":{"source":"openstreetmap.org","kind":"ferry","name":"F\u00e5borg-Ly\u00f8-Avernak\u00f8","sort_rank":355,"min_zoom":8.0,"osm_relation":true,"id":-451345},"arcs":[483]},{"type":"LineString","properties":{"kind":"major_road","sort_rank":380,"kind_detail":"primary","bus_network":"Faaborg - Svendborg - Nyborg","source":"openstreetmap.org","min_zoom":8.0,"bus_shield_text":"931","ref":"44","id":12334952},"arcs":[484]},{"type":"MultiLineString","properties":{"bus_network":"Universitetet - Odense Baneg\u00e5rd - Bolbro\/Tarup","sort_rank":379,"landuse_kind":"urban_area","is_bicycle_related":true,"kind":"major_road","bicycle_shield_text":"6","cycleway":"lane","source":"openstreetmap.org","min_zoom":8.0,"bus_shield_text":"41","kind_detail":"secondary","bicycle_network":"ncn","ref":"O1"},"arcs":[[485],[486],[487],[488]]},{"type":"LineString","properties":{"bus_network":"Universitetet - Odense Baneg\u00e5rd - Bolbro\/Tarup","cycleway_left":"lane","sort_rank":379,"kind_detail":"secondary","is_bicycle_related":true,"kind":"major_road","bicycle_shield_text":"6","bicycle_network":"ncn","source":"openstreetmap.org","min_zoom":8.0,"bus_shield_text":"41","landuse_kind":"urban_area","ref":"O1","id":528378943},"arcs":[489]},{"type":"MultiLineString","properties":{"source":"openstreetmap.org","kind":"ferry","name":"Svendborg - Hjort\u00f8","sort_rank":355,"min_zoom":8.0,"id":197575169},"arcs":[[490],[491]]},{"type":"MultiLineString","properties":{"kind":"path","sort_rank":354,"landuse_kind":"urban_area","is_bicycle_related":true,"bicycle_shield_text":"6","bicycle_network":"ncn","source":"openstreetmap.org","min_zoom":8.0,"kind_detail":"cycleway"},"arcs":[[492],[493],[494],[495],[496],[497],[498]]},{"type":"LineString","properties":{"kind":"ferry","name":"Svendborg - Skar\u00f8 - Drej\u00f8","sort_rank":355,"landuse_kind":"residential","is_bicycle_related":true,"source":"openstreetmap.org","min_zoom":8.0,"id":-1356670,"osm_relation":true},"arcs":[499]},{"type":"LineString","properties":{"kind":"ferry","name":"Ballen - Kalundborg","sort_rank":355,"landuse_kind":"urban_area","is_bicycle_related":true,"source":"openstreetmap.org","min_zoom":8.0,"id":392728788},"arcs":[500]},{"type":"LineString","properties":{"kind":"major_road","sort_rank":380,"kind_detail":"primary","is_bicycle_related":true,"bus_network":"B\u00f8jden F\u00e6rgehavn - Horne - Faaborg - V. Aaby - Svendborg","bicycle_shield_text":"EV10","bicycle_network":"icn","source":"openstreetmap.org","min_zoom":8.0,"bus_shield_text":"863U","id":228238420},"arcs":[501]},{"type":"MultiLineString","properties":{"bus_network":"Rudk\u00f8bing - Svendborg - Odense","sort_rank":380,"kind_detail":"primary","is_bicycle_related":true,"kind":"major_road","cycleway":"lane","source":"openstreetmap.org","min_zoom":8.0,"bus_shield_text":"810U","landuse_kind":"urban_area","ref":"44, 163, 167"},"arcs":[[502],[503],[504]]},{"type":"MultiLineString","properties":{"alt_name:sv":"V\u00e4stbron","kind":"highway","network":"e-road","sort_rank":383,"kind_detail":"motorway","name:de":"Gro\u00dfe-Belt-Br\u00fccke","source":"openstreetmap.org","min_zoom":8.0,"all_networks":["e-road"],"shield_text":"20","name:sv":"Stora B\u00e4ltbron","ref":"E 20","all_shield_texts":["20"]},"arcs":[[505],[506]]},{"type":"MultiLineString","properties":{"kind":"minor_road","sort_rank":360,"kind_detail":"residential","is_bicycle_related":true,"bicycle_shield_text":"8","bicycle_network":"ncn","source":"openstreetmap.org","min_zoom":8.0,"landuse_kind":"residential"},"arcs":[[507],[508]]},{"type":"LineString","properties":{"source":"openstreetmap.org","kind":"ferry","name":"Kiel - Oslo","sort_rank":355,"ref":"Kiel - Oslo","min_zoom":8.0,"osm_relation":true},"arcs":[509]},{"type":"MultiLineString","properties":{"bus_network":"Rudk\u00f8bing - Svendborg - Odense","network":"dk:national","sort_rank":380,"kind_detail":"primary","kind":"major_road","source":"openstreetmap.org","min_zoom":8.0,"bus_shield_text":"810U","shield_text":"9","ref":"9"},"arcs":[[510],[511],[512],[513]]},{"type":"MultiLineString","properties":{"kind":"highway","network":"dk:national","sort_rank":383,"landuse_kind":"urban_area","source":"openstreetmap.org","min_zoom":8.0,"all_networks":["dk:national"],"kind_detail":"motorway","shield_text":"9","ref":"9","all_shield_texts":["9"]},"arcs":[[514],[515],[516],[517]]},{"type":"MultiLineString","properties":{"cycleway_right":"lane","network":"dk:national","sort_rank":380,"kind_detail":"primary","is_bicycle_related":true,"kind":"major_road","source":"openstreetmap.org","min_zoom":8.0,"shield_text":"22"},"arcs":[[518],[519]]},{"type":"MultiLineString","properties":{"source":"openstreetmap.org","kind":"major_road","sort_rank":380,"kind_detail":"primary","ref":"44","min_zoom":8.0},"arcs":[[520],[521],[522]]},{"type":"LineString","properties":{"kind":"major_road","sort_rank":379,"kind_detail":"secondary","is_bicycle_related":true,"bicycle_shield_text":"8","cycleway":"track","source":"openstreetmap.org","min_zoom":8.0,"bicycle_network":"ncn","ref":"150;265","id":24455295},"arcs":[523]},{"type":"LineString","properties":{"kind":"ferry","name":"Baag\u00f8 - Assens","sort_rank":355,"landuse_kind":"urban_area","source":"openstreetmap.org","min_zoom":8.0,"id":-902470,"osm_relation":true},"arcs":[524]},{"type":"LineString","properties":{"kind":"minor_road","sort_rank":360,"landuse_kind":"residential","is_bicycle_related":true,"bicycle_shield_text":"8","bicycle_network":"ncn","source":"openstreetmap.org","min_zoom":8.0,"kind_detail":"unclassified"},"arcs":[525]},{"type":"LineString","properties":{"kind":"path","sort_rank":354,"landuse_kind":"urban_area","is_bicycle_related":true,"bicycle_shield_text":"8","bicycle_network":"ncn","source":"openstreetmap.org","min_zoom":8.0,"kind_detail":"footway"},"arcs":[526]},{"type":"MultiLineString","properties":{"kind":"major_road","sort_rank":377,"landuse_kind":"residential","is_bicycle_related":true,"bicycle_shield_text":"8","bicycle_network":"ncn","source":"openstreetmap.org","min_zoom":8.0,"kind_detail":"tertiary"},"arcs":[[527],[528],[529],[530],[531],[532],[533],[534]]},{"type":"MultiLineString","properties":{"kind":"major_road","network":"dk:national","sort_rank":380,"kind_detail":"primary","is_bicycle_related":true,"cycleway":"track","source":"openstreetmap.org","min_zoom":8.0,"landuse_kind":"urban_area","shield_text":"22","ref":"22;23"},"arcs":[[535],[536]]},{"type":"LineString","properties":{"kind":"major_road","sort_rank":379,"kind_detail":"secondary","is_bicycle_related":true,"bus_network":"Rudk\u00f8bing - Svendborg - Nyborg","bicycle_shield_text":"8","cycleway":"lane","source":"openstreetmap.org","min_zoom":8.0,"bus_shield_text":"930","landuse_kind":"residential","ref":"163","id":205374514,"bicycle_network":"ncn"},"arcs":[537]},{"type":"LineString","properties":{"kind":"major_road","sort_rank":379,"kind_detail":"secondary","is_bicycle_related":true,"bus_network":"N\u00f8rre Aaby - Middelfart - Strib","bicycle_shield_text":"6","cycleway":"track","source":"openstreetmap.org","min_zoom":8.0,"bus_shield_text":"402","bicycle_network":"ncn","ref":"161","id":242997297},"arcs":[538]},{"type":"MultiLineString","properties":{"kind":"major_road","sort_rank":380,"kind_detail":"primary","is_bicycle_related":true,"bus_network":"B\u00f8jden F\u00e6rgehavn - Horne - Faaborg - V. Aaby - Svendborg","bicycle_shield_text":"EV10","cycleway":"track","source":"openstreetmap.org","min_zoom":8.0,"bus_shield_text":"863U","bicycle_network":"icn","ref":"44","id":12334947},"arcs":[[539],[540]]},{"type":"LineString","properties":{"bus_network":"Rudk\u00f8bing - Svendborg - Odense","sort_rank":377,"landuse_kind":"residential","is_bicycle_related":true,"kind":"major_road","bicycle_shield_text":"EV10","bicycle_network":"icn","source":"openstreetmap.org","min_zoom":8.0,"bus_shield_text":"810U","kind_detail":"tertiary"},"arcs":[541]},{"type":"MultiLineString","properties":{"bus_network":"Rudk\u00f8bing - Svendborg - Odense","network":"dk:national","sort_rank":380,"kind_detail":"primary","kind":"major_road","source":"openstreetmap.org","min_zoom":8.0,"bus_shield_text":"810U","shield_text":"9","landuse_kind":"residential","ref":"9"},"arcs":[[542],[543],[544],[545],[546]]},{"type":"LineString","properties":{"kind":"ferry","name":"Svendborg - \u00c6r\u00f8sk\u00f8bing","sort_rank":355,"landuse_kind":"residential","source":"openstreetmap.org","min_zoom":8.0,"id":-451320,"osm_relation":true},"arcs":[547]},{"type":"LineString","properties":{"sort_rank":355,"source":"openstreetmap.org","min_zoom":8.0,"name":"Kiel - Oslo","kind":"ferry"},"arcs":[548]},{"type":"LineString","properties":{"kind":"major_road","sort_rank":380,"kind_detail":"primary","is_bicycle_related":true,"bus_network":"B\u00f8jden F\u00e6rgehavn - Horne - Faaborg - V. Aaby - Svendborg","bicycle_shield_text":"8","bicycle_network":"ncn","source":"openstreetmap.org","min_zoom":8.0,"bus_shield_text":"863U","ref":"44","id":532566010},"arcs":[549]},{"type":"MultiLineString","properties":{"kind":"path","sort_rank":354,"kind_detail":"cycleway","is_bicycle_related":true,"bicycle_shield_text":"5","bicycle_network":"ncn","source":"openstreetmap.org","min_zoom":8.0},"arcs":[[550],[551]]},{"type":"LineString","properties":{"kind":"major_road","sort_rank":380,"kind_detail":"primary","is_bicycle_related":true,"cycleway":"lane","source":"openstreetmap.org","min_zoom":8.0,"ref":"8;167","id":36887143},"arcs":[552]},{"type":"LineString","properties":{"kind":"major_road","sort_rank":377,"kind_detail":"tertiary","is_bicycle_related":true,"bicycle_shield_text":"6","bicycle_network":"ncn","source":"openstreetmap.org","min_zoom":8.0,"cycleway":"track"},"arcs":[553]},{"type":"LineString","properties":{"kind":"major_road","network":"dk:national","sort_rank":380,"kind_detail":"primary","is_bicycle_related":true,"cycleway":"lane","source":"openstreetmap.org","min_zoom":8.0,"shield_text":"23","ref":"23"},"arcs":[554]},{"type":"LineString","properties":{"kind":"major_road","sort_rank":377,"landuse_kind":"residential","is_bicycle_related":true,"bicycle_shield_text":"4","bicycle_network":"ncn","source":"openstreetmap.org","min_zoom":8.0,"kind_detail":"tertiary","cycleway":"track"},"arcs":[555]},{"type":"LineString","properties":{"kind":"path","sort_rank":354,"kind_detail":"footway","is_bicycle_related":true,"bicycle_shield_text":"8","bicycle_network":"ncn","source":"openstreetmap.org","min_zoom":8.0},"arcs":[556]},{"type":"MultiLineString","properties":{"kind":"major_road","sort_rank":377,"landuse_kind":"urban_area","is_bicycle_related":true,"bicycle_shield_text":"8","bicycle_network":"ncn","source":"openstreetmap.org","min_zoom":8.0,"kind_detail":"tertiary"},"arcs":[[557],[558]]},{"type":"LineString","properties":{"source":"openstreetmap.org","kind":"ferry","name":"Om\u00f8f\u00e6rgen","sort_rank":355,"is_bicycle_related":true,"min_zoom":8.0,"id":96622965},"arcs":[559]},{"type":"LineString","properties":{"cycleway_right":"lane","service":"driveway","sort_rank":356,"kind_detail":"service","is_bicycle_related":true,"kind":"minor_road","bicycle_shield_text":"8","bicycle_network":"ncn","source":"openstreetmap.org","min_zoom":8.0,"landuse_kind":"urban_area","id":132120975},"arcs":[560]},{"type":"MultiLineString","properties":{"source":"openstreetmap.org","kind":"ferry","name":"Svendborg - \u00c6r\u00f8sk\u00f8bing","sort_rank":355,"min_zoom":8.0,"osm_relation":true,"id":-451320},"arcs":[[561],[562]]},{"type":"LineString","properties":{"kind":"ferry","name":"Alsf\u00e6rgen","sort_rank":355,"is_bicycle_related":true,"bicycle_shield_text":"EV10","bicycle_network":"icn","source":"openstreetmap.org","min_zoom":8.0,"ref":"8","id":12334972},"arcs":[563]},{"type":"LineString","properties":{"kind":"major_road","sort_rank":379,"kind_detail":"secondary","is_bicycle_related":true,"bicycle_shield_text":"6","bicycle_network":"ncn","source":"openstreetmap.org","min_zoom":8.0,"ref":"315","id":25545335},"arcs":[564]},{"type":"MultiLineString","properties":{"kind":"highway","network":"e-road","sort_rank":383,"landuse_kind":"residential","source":"openstreetmap.org","min_zoom":8.0,"all_networks":["e-road"],"kind_detail":"motorway","shield_text":"20","ref":"E 20","all_shield_texts":["20"]},"arcs":[[565],[566]]},{"type":"LineString","properties":{"kind":"major_road","sort_rank":377,"kind_detail":"tertiary","is_bicycle_related":true,"bus_network":"FynBus","bicycle_shield_text":"6","cycleway":"track","source":"openstreetmap.org","min_zoom":8.0,"bus_shield_text":"2","landuse_kind":"residential","id":13799919,"bicycle_network":"ncn"},"arcs":[567]},{"type":"MultiLineString","properties":{"bus_network":"FynBus","sort_rank":379,"landuse_kind":"residential","is_bicycle_related":true,"kind":"major_road","bicycle_shield_text":"6","bicycle_network":"ncn","source":"openstreetmap.org","min_zoom":8.0,"bus_shield_text":"1","kind_detail":"secondary","cycleway":"lane","ref":"163"},"arcs":[[568],[569],[570]]},{"type":"LineString","properties":{"kind":"minor_road","sort_rank":358,"kind_detail":"service","is_bicycle_related":true,"bicycle_shield_text":"EV10","bicycle_network":"icn","source":"openstreetmap.org","min_zoom":8.0},"arcs":[571]},{"type":"LineString","properties":{"kind":"major_road","sort_rank":380,"kind_detail":"primary","is_bicycle_related":true,"bus_network":"Faaborg - Nyborg - Kerteminde","cycleway":"lane","source":"openstreetmap.org","min_zoom":8.0,"bus_shield_text":"920","ref":"8;301","id":19555457},"arcs":[572]},{"type":"LineString","properties":{"source":"openstreetmap.org","kind":"ferry","name":"F\u00e5borg - Ly\u00f8","sort_rank":355,"is_bicycle_related":true,"min_zoom":8.0,"id":36973884},"arcs":[573]},{"type":"LineString","properties":{"kind":"path","sort_rank":354,"kind_detail":"track","is_bicycle_related":true,"bicycle_shield_text":"8","bicycle_network":"ncn","source":"openstreetmap.org","min_zoom":8.0},"arcs":[574]},{"type":"LineString","properties":{"bus_network":"Morud - Odense","sort_rank":377,"landuse_kind":"urban_area","is_bicycle_related":true,"kind":"major_road","bicycle_shield_text":"6","bicycle_network":"ncn","source":"openstreetmap.org","min_zoom":8.0,"bus_shield_text":"23","kind_detail":"tertiary","cycleway":"track"},"arcs":[575]},{"type":"MultiLineString","properties":{"bus_network":"FynBus","sort_rank":377,"landuse_kind":"residential","is_bicycle_related":true,"kind":"major_road","bicycle_shield_text":"6","cycleway":"lane","source":"openstreetmap.org","min_zoom":8.0,"bus_shield_text":"1","kind_detail":"tertiary","bicycle_network":"ncn"},"arcs":[[576],[577]]},{"type":"MultiLineString","properties":{"kind":"major_road","sort_rank":377,"landuse_kind":"urban_area","is_bicycle_related":true,"bicycle_shield_text":"8","bicycle_network":"ncn","source":"openstreetmap.org","min_zoom":8.0,"kind_detail":"tertiary","cycleway":"track"},"arcs":[[578],[579]]},{"type":"LineString","properties":{"source":"openstreetmap.org","kind":"major_road","landuse_kind":"urban_area","sort_rank":380,"kind_detail":"primary","ref":"44","min_zoom":8.0},"arcs":[580]},{"type":"MultiLineString","properties":{"kind":"highway","network":"e-road","sort_rank":383,"landuse_kind":"urban_area","source":"openstreetmap.org","min_zoom":8.0,"all_networks":["e-road"],"kind_detail":"motorway","shield_text":"20","ref":"E 20","all_shield_texts":["20"]},"arcs":[[581],[582],[583],[584],[585],[586],[587],[588],[589],[590],[591],[592],[593],[594],[595],[596],[597],[598],[599],[600]]},{"type":"MultiLineString","properties":{"alt_name:sv":"\u00d6stbron","kind":"highway","network":"e-road","sort_rank":383,"kind_detail":"motorway","name:de":"Gro\u00dfe-Belt-Br\u00fccke","source":"openstreetmap.org","min_zoom":8.0,"all_networks":["e-road"],"shield_text":"20","name:sv":"Stora B\u00e4ltbron","ref":"E 20","all_shield_texts":["20"]},"arcs":[[601],[602]]},{"type":"MultiLineString","properties":{"kind":"major_road","sort_rank":377,"landuse_kind":"urban_area","is_bicycle_related":true,"bicycle_shield_text":"8","cycleway":"lane","source":"openstreetmap.org","min_zoom":8.0,"kind_detail":"tertiary","bicycle_network":"ncn"},"arcs":[[603],[604]]},{"type":"LineString","properties":{"source":"openstreetmap.org","kind":"ferry","name":"Agers\u00f8f\u00e6rgen","sort_rank":355,"is_bicycle_related":true,"min_zoom":8.0,"id":96542901},"arcs":[605]},{"type":"MultiLineString","properties":{"bus_network":"Faaborg - Nyborg - Kerteminde","sort_rank":380,"kind_detail":"primary","is_bicycle_related":true,"kind":"major_road","bicycle_shield_text":"51","bicycle_network":"rcn","source":"openstreetmap.org","min_zoom":8.0,"bus_shield_text":"920","ref":"8"},"arcs":[[606],[607],[608]]},{"type":"LineString","properties":{"bus_network":"Morud - Odense","sort_rank":379,"landuse_kind":"urban_area","is_bicycle_related":true,"kind":"major_road","bicycle_shield_text":"6","cycleway":"lane","source":"openstreetmap.org","min_zoom":8.0,"bus_shield_text":"23","kind_detail":"secondary","bicycle_network":"ncn","ref":"O1"},"arcs":[609]},{"type":"LineString","properties":{"kind":"major_road","sort_rank":379,"kind_detail":"secondary","is_bicycle_related":true,"bus_network":"Faaborg - Nyborg - Kerteminde","bicycle_shield_text":"6","cycleway":"track","source":"openstreetmap.org","min_zoom":8.0,"bus_shield_text":"920","landuse_kind":"residential","ref":"163","id":4360879,"bicycle_network":"ncn"},"arcs":[610]},{"type":"LineString","properties":{"cycleway_right":"track","sort_rank":379,"landuse_kind":"urban_area","is_bicycle_related":true,"bus_network":"Universitetet - Odense Baneg\u00e5rd - Bolbro\/Tarup","bicycle_shield_text":"6","bicycle_network":"ncn","source":"openstreetmap.org","min_zoom":8.0,"bus_shield_text":"41","kind_detail":"secondary","ref":"O1","kind":"major_road"},"arcs":[611]},{"type":"MultiLineString","properties":{"kind":"major_road","network":"dk:national","sort_rank":380,"kind_detail":"primary","source":"openstreetmap.org","min_zoom":8.0,"landuse_kind":"residential","shield_text":"9","ref":"9"},"arcs":[[612],[613]]},{"type":"LineString","properties":{"source":"openstreetmap.org","kind":"ferry","name":"S\u00f8by - Faaborg","sort_rank":355,"min_zoom":8.0,"id":172009892},"arcs":[614]},{"type":"LineString","properties":{"bus_network":"B\u00f8jden F\u00e6rgehavn - Horne - Faaborg - V. Aaby - Svendborg","sort_rank":380,"kind_detail":"primary","kind":"major_road","source":"openstreetmap.org","min_zoom":8.0,"bus_shield_text":"863U","ref":"8"},"arcs":[615]},{"type":"LineString","properties":{"kind":"major_road","network":"dk:national","sort_rank":380,"kind_detail":"primary","bus_network":"Fraugde - Skibhusene","source":"openstreetmap.org","min_zoom":8.0,"bus_shield_text":"81","shield_text":"9","landuse_kind":"urban_area","ref":"9","id":118493619},"arcs":[616]},{"type":"LineString","properties":{"bus_network":"B\u00f8jden F\u00e6rgehavn - Horne - Faaborg - V. Aaby - Svendborg","sort_rank":380,"kind_detail":"primary","is_bicycle_related":true,"kind":"major_road","bicycle_shield_text":"EV10","bicycle_network":"icn","source":"openstreetmap.org","min_zoom":8.0,"bus_shield_text":"863U","ref":"8"},"arcs":[617]},{"type":"LineString","properties":{"cycleway_right":"lane","network":"dk:national","sort_rank":380,"kind_detail":"primary","is_bicycle_related":true,"kind":"major_road","bicycle_shield_text":"4","bicycle_network":"ncn","source":"openstreetmap.org","min_zoom":8.0,"landuse_kind":"urban_area","shield_text":"23","ref":"23","id":45522489},"arcs":[618]},{"type":"MultiLineString","properties":{"kind":"major_road","sort_rank":377,"landuse_kind":"urban_area","is_bicycle_related":true,"bicycle_shield_text":"6","bicycle_network":"ncn","source":"openstreetmap.org","min_zoom":8.0,"kind_detail":"tertiary"},"arcs":[[619],[620],[621],[622]]},{"type":"LineString","properties":{"source":"openstreetmap.org","kind":"ferry","name":"Svendborg - Hjort\u00f8","sort_rank":355,"landuse_kind":"residential","min_zoom":8.0,"id":197575169},"arcs":[623]},{"type":"MultiLineString","properties":{"source":"openstreetmap.org","kind":"major_road","sort_rank":380,"kind_detail":"primary","ref":"8","min_zoom":8.0},"arcs":[[624],[625],[626],[627],[628],[629],[630],[631],[632],[633],[634],[635]]},{"type":"LineString","properties":{"source":"openstreetmap.org","kind":"major_road","sort_rank":380,"kind_detail":"primary","ref":"8, 165","min_zoom":8.0},"arcs":[636]},{"type":"MultiLineString","properties":{"kind":"major_road","network":"dk:national","sort_rank":380,"kind_detail":"primary","is_bicycle_related":true,"bicycle_shield_text":"4","cycleway":"lane","source":"openstreetmap.org","min_zoom":8.0,"landuse_kind":"urban_area","shield_text":"23","bicycle_network":"ncn","ref":"23"},"arcs":[[637],[638]]},{"type":"LineString","properties":{"source":"openstreetmap.org","kind":"major_road","sort_rank":380,"kind_detail":"primary","ref":"23","min_zoom":8.0},"arcs":[639]}]},"earth":{"type":"GeometryCollection","geometries":[{"type":"MultiPolygon","properties":{"sort_rank":10,"source":"naturalearthdata.com","min_zoom":0.0,"kind":"earth","area":59256026362},"arcs":[[[640]],[[641]],[[642]],[[643]],[[644]],[[645]],[[646]],[[647]]]},{"type":"Point","properties":{"label_placement":true,"kind":"island","name":"Fyn","area":9206530048,"name:de":"F\u00fcnen","source":"openstreetmap.org","min_zoom":7.0,"id":-5175917,"osm_relation":true},"coordinates":[1463,1786]}]},"landuse":{"type":"GeometryCollection","geometries":[{"type":"Polygon","properties":{"kind":"residential","name":"Svendborg","area":32727100,"sort_rank":20,"source":"openstreetmap.org","min_zoom":8.0,"tier":2,"id":-7333395,"osm_relation":true},"arcs":[[648]]},{"type":"MultiPolygon","properties":{"source":"naturalearthdata.com","kind":"urban_area","name":"","area":2660141503,"sort_rank":11,"min_zoom":4.0},"arcs":[[[649]],[[650]],[[651]],[[652]],[[653]],[[654]],[[655]],[[656]],[[657]],[[658]]]},{"type":"MultiPolygon","properties":{"source":"openstreetmap.org","kind":"residential","tier":2,"area":162883523,"sort_rank":20,"min_zoom":8.0},"arcs":[[[659]],[[660]],[[661]],[[662]]]}]}},"type":"Topology","transform":{"translate":[9.84375,54.9776136707],"scale":[0.0003433228,0.0001950584]},"arcs":[[[2781,4096],[-54,-136],[6,-86],[52,-128],[-272,-239],[7,495],[48,94]],[[4096,1180],[-17,1],[17,-14]],[[4096,1184],[-3,0],[-5,5],[-11,-5],[11,5],[5,-5],[3,0]],[[4096,1255],[-38,-17],[38,-51]],[[4096,1346],[-35,38],[-16,-17],[51,-105]],[[4096,3865],[-80,82],[-29,-78],[-47,-2],[-57,117],[-139,-12],[-135,-87],[-110,-19],[-262,93],[-253,-33],[145,-82],[193,-1],[270,-294],[-14,55],[86,-22],[-35,-31],[36,-19],[-43,-27],[-8,22],[-61,-22],[-188,40],[-101,-5],[-67,29],[-28,-26],[35,-50],[280,-50],[214,-135],[72,-105],[55,-176],[-11,-104],[-44,-61],[-142,-8],[-26,-99],[95,-13],[34,59],[-29,8],[5,20],[19,16],[143,-172],[16,-118],[74,-130],[-23,-166],[58,-113],[-36,-69],[-81,-20],[-72,-59],[-81,-14],[-25,29],[-62,-119],[49,7],[23,-39],[63,-26],[8,-22],[64,33],[-20,62],[25,23],[46,-2],[72,-50],[0,-41],[-64,-56],[-84,11],[-46,19],[-6,19],[-29,-6],[0,-24],[138,-119],[173,-96],[33,-132],[-17,-71],[31,1]],[[0,3279],[47,39],[-47,5]],[[1344,4096],[-22,-32],[13,-37],[-82,-21],[-4,20],[-65,-5],[-41,-55],[221,-48],[30,25],[11,153]],[[1144,4096],[-52,-19],[-22,-12],[80,31]],[[2031,4096],[29,-38],[198,-24],[20,62]],[[381,2146],[-16,20]],[[381,2146],[-16,20]],[[1593,2175],[-65,-6],[-38,-51],[-285,-181],[-110,-53],[-71,-5],[-94,81],[-232,107],[-215,17],[-73,29],[-230,298],[-180,93]],[[4096,2020],[-74,-43],[-180,-4],[-169,-59],[-334,-46],[-247,-156],[-173,-64],[-89,40],[-173,139],[-262,104]],[[2395,1931],[-43,8]],[[2352,1939],[-218,40],[-497,201],[-107,-10],[-40,-52],[-285,-181],[-163,-60],[-112,83],[-232,107],[-228,20],[-130,100],[-169,231],[-171,87]],[[2352,1939],[-5,1]],[[2398,1931],[-3,0]],[[1593,2175],[-63,-5],[-40,-52],[-285,-181],[-163,-60],[-112,83],[-232,107],[-215,17],[-67,26],[-245,308],[-171,87]],[[0,2505],[171,-87],[239,-305],[73,-29],[215,-17],[232,-107],[112,-83],[163,60],[285,181],[40,52],[63,5]],[[381,2146],[-16,20]],[[2795,1724],[-142,105],[-258,102]],[[2395,1931],[-43,8]],[[2352,1939],[-218,40],[-507,201],[-97,-10],[-40,-52],[-285,-181],[-170,-60],[-105,83],[-232,107],[-215,17],[-70,28],[-242,306],[-171,87]],[[2352,1939],[-5,1]],[[2398,1931],[-3,0]],[[1593,2175],[-65,-6],[-38,-51],[-285,-181],[-110,-53],[-71,-5],[-94,81],[-232,107],[-215,17],[-73,29],[-230,298],[-180,93]],[[1593,2175],[-63,-5],[-40,-52],[-285,-181],[-163,-60],[-112,83],[-232,107],[-228,20],[-130,100],[-169,231],[-171,87]],[[3628,3589],[46,-1]],[[3674,3588],[-24,1]],[[3650,3589],[-22,0]],[[3650,3589],[-22,1]],[[3674,3588],[202,-55],[61,13]],[[3937,3546],[61,-4]],[[3998,3542],[98,-25]],[[1578,2176],[-54,-9],[-31,-68],[212,-259],[54,-133],[110,-122],[-31,-307],[37,-147],[109,-141],[-48,-182],[36,-130],[166,-206],[20,-87],[32,-6],[48,38]],[[1593,2175],[-63,-5],[-40,-52],[-285,-181],[-163,-60],[-112,83],[-232,107],[-215,17],[-73,29],[-239,305],[-171,87]],[[4096,2020],[-74,-43],[-180,-4],[-169,-58],[-334,-47],[-226,-145],[-194,-75],[-87,38],[-185,146],[-234,96],[-285,53],[-488,199],[-98,-6],[-12,-4],[-40,-52],[-285,-181],[-177,-59],[-98,82],[-232,107],[-215,17],[-73,30],[-239,304],[-171,88]],[[1564,2174],[20,1],[-15,-1],[-5,0]],[[2166,1969],[-3,1],[-8,2],[5,-1],[6,-2]],[[2802,1717],[-11,11],[11,-11]],[[3751,1943],[15,5],[-15,-5]],[[4096,2020],[-74,-43],[-180,-4],[-169,-59],[-334,-46],[-247,-156],[-173,-64],[-89,40],[-173,139],[-262,104]],[[2395,1931],[-43,8]],[[2352,1939],[-218,40],[-507,201],[-97,-10],[-40,-52],[-285,-181],[-110,-53],[-71,-5],[-94,81],[-232,107],[-215,17],[-73,29],[-209,280],[-201,109]],[[2352,1939],[-5,1]],[[2398,1931],[-3,0]],[[4096,1194],[0,-1194],[-1099,0],[50,101],[56,169],[139,633],[-66,30],[-113,-195],[-97,-254],[-21,-144],[-165,-243],[-70,-51],[-39,-46],[-2189,0],[-66,103],[-75,89],[-93,57],[-129,21],[-92,50],[-27,33],[0,1572],[44,5],[46,-4],[29,-23],[-9,-176],[7,-29],[27,-90],[6,-56],[-6,-29],[-27,-47],[-7,-31],[7,-31],[27,-46],[6,-28],[14,-25],[33,-29],[37,-23],[117,-30],[44,-27],[4,-41],[-19,-49],[-6,-54],[6,-55],[42,-114],[3,-43],[-8,-21],[-8,4],[1,-28],[-5,-21],[8,-14],[102,-17],[15,6],[10,86],[-101,156],[-9,80],[36,45],[37,-15],[67,-68],[48,-7],[34,13],[33,19],[44,13],[55,-24],[39,-67],[36,-84],[51,-73],[-40,-73],[-223,-172],[51,-27],[110,28],[60,-1],[48,-29],[69,-81],[44,-34],[2,112],[22,39],[84,-7],[229,-147],[38,-4],[73,7],[34,-8],[26,-19],[22,-23],[29,-19],[63,-20],[195,-15],[115,-65],[62,-8],[53,53],[36,50],[50,40],[55,26],[48,8],[131,0],[114,-8],[36,8],[46,39],[26,51],[20,58],[27,63],[72,97],[9,26],[4,103],[8,38],[45,105],[19,87],[8,101],[-6,111],[-23,76],[-78,125],[-16,63],[21,91],[48,14],[53,-35],[35,-54],[21,0],[-17,84],[-74,221],[-19,45],[-287,419],[-44,39],[-195,46],[-58,14],[-22,-52],[3,-17],[14,-26],[-43,-27],[-47,2],[-27,33],[16,65],[34,30],[50,11],[201,-18],[136,58],[84,55],[27,29],[7,41],[-19,71],[-62,62],[-7,11],[-15,18],[-6,40],[-3,46],[-6,33],[-137,228],[-86,96],[-55,-3],[-1,-34],[19,-127],[-1,-87],[-45,47],[-14,23],[19,-87],[28,-90],[10,-81],[-37,-57],[-16,24],[-39,39],[-36,17],[-9,-45],[12,-25],[24,-24],[28,-17],[26,-7],[13,-16],[15,-35],[5,-35],[-12,-16],[-111,-35],[-187,-98],[-33,9],[-57,-114],[-104,-5],[-48,86],[109,157],[32,14],[29,2],[24,11],[15,43],[-6,31],[-43,34],[-11,23],[13,60],[34,27],[46,0],[47,-19],[-88,61],[-48,18],[-54,7],[-27,15],[-26,33],[-36,63],[-45,56],[-201,140],[-90,41],[-40,-11],[10,-105],[-11,-38],[-41,-16],[-1,17],[-18,73],[-2,15],[-23,6],[-79,-6],[-71,-25],[-129,-94],[-376,-126],[-289,-197],[-152,-54],[-129,70],[0,499],[29,35],[-29,0],[0,288],[82,43],[320,94],[68,-43],[27,30],[11,8],[-33,85],[35,57],[119,68],[0,36],[-76,-2],[-40,9],[-7,40],[15,56],[810,0],[-15,-51],[-2,-17],[-154,-28],[-12,-26],[22,-21],[197,-33],[21,16],[17,87],[-12,73],[618,0],[38,-58],[102,-28],[93,86],[1852,0],[0,-244],[-99,-1],[-48,12],[-27,28],[-40,-39],[121,-105],[-74,-42],[-85,26],[-76,70],[-45,90],[26,23],[30,11],[31,2],[32,-4],[0,34],[-101,-16],[-182,-72],[-95,-17],[-459,71],[0,-32],[47,-27],[152,-12],[48,-24],[23,-30],[18,-39],[30,-50],[70,-45],[182,-79],[48,-86],[-459,38],[0,-38],[318,-85],[142,-85],[129,-162],[39,-99],[8,-96],[-30,-74],[-77,-29],[-39,-3],[-28,-14],[-17,-38],[-6,-69],[15,-28],[33,10],[52,37],[60,-8],[45,-25],[37,-43],[37,-64],[58,-183],[24,-115],[-11,-52],[36,-28],[3,-61],[-29,-61],[-61,-28],[-34,-7],[-37,-19],[-33,-28],[-26,-34],[-29,-21],[-41,-4],[-79,8],[0,-38],[42,-114],[18,-23],[45,0],[21,34],[13,43],[20,28],[30,5],[45,-3],[42,-12],[23,-25],[-6,-52],[-34,-18],[-42,-5],[-27,-12],[27,-48],[160,-148],[53,-32],[18,-28],[-8,-125],[10,-28],[23,1],[0,-58],[-33,25],[20,-142],[13,-22]],[[521,4096],[-15,-56],[7,-40],[40,-9],[76,2],[0,-36],[-119,-68],[-35,-57],[33,-85],[-11,-8],[-27,-30],[-68,43],[-320,-94],[-82,-43]],[[0,3327],[29,0],[-29,-35]],[[2011,4096],[38,-58],[102,-28],[93,86]],[[2945,340],[-165,-243],[-70,-51],[-39,-46]],[[2997,0],[50,101],[56,169],[139,633],[-66,30],[-113,-195],[-97,-254],[-21,-144]],[[482,0],[-66,103],[-75,89],[-93,57],[-129,21],[-92,50],[-27,33]],[[2396,444],[114,-8],[36,8],[46,39],[26,51],[20,58],[27,63],[72,97],[9,26],[4,103],[8,38],[45,105],[19,87],[8,101],[-6,111],[-23,76],[-78,125],[-16,63],[21,91],[48,14],[53,-35],[35,-54],[21,0],[-17,84],[-74,221],[-19,45],[-287,419],[-44,39],[-195,46],[-58,14],[-22,-52],[3,-17],[14,-26],[-43,-27],[-47,2],[-27,33],[16,65],[34,30],[50,11],[201,-18],[136,58],[84,55],[27,29],[7,41],[-19,71],[-62,62],[-7,11],[-15,18],[-6,40],[-3,46],[-6,33],[-137,228],[-86,96],[-55,-3],[-1,-34],[19,-127],[-1,-87],[-45,47],[-14,23],[19,-87],[28,-90],[10,-81],[-37,-57],[-16,24],[-39,39],[-36,17],[-9,-45],[12,-25],[24,-24],[28,-17],[26,-7],[13,-16],[15,-35],[5,-35],[-12,-16],[-111,-35],[-187,-98],[-33,9],[-57,-114],[-104,-5],[-48,86],[109,157],[32,14],[29,2],[24,11],[15,43],[-6,31],[-43,34],[-11,23],[13,60],[34,27],[46,0],[47,-19],[-88,61],[-48,18],[-54,7],[-27,15],[-26,33],[-36,63],[-45,56],[-201,140],[-90,41],[-40,-11],[10,-105],[-11,-38],[-41,-16],[-1,17],[-18,73],[-2,15],[-23,6],[-79,-6],[-71,-25],[-129,-94],[-376,-126],[-289,-197],[-152,-54],[-129,70]],[[0,1925],[44,5],[46,-4],[29,-23],[-9,-176],[7,-29],[27,-90],[6,-56],[-6,-29],[-27,-47],[-7,-31],[7,-31],[27,-46],[6,-28],[14,-25],[33,-29],[37,-23],[117,-30],[44,-27],[4,-41],[-19,-49],[-6,-54],[6,-55],[42,-114],[3,-43],[-8,-21],[-8,4],[1,-28],[-5,-21],[8,-14],[102,-17],[15,6],[10,86],[-101,156],[-9,80],[36,45],[37,-15],[67,-68],[48,-7],[34,13],[33,19],[44,13],[55,-24],[39,-67],[36,-84],[51,-73],[-40,-73],[-223,-172],[51,-27],[110,28],[60,-1],[48,-29],[69,-81],[44,-34],[2,112],[22,39],[84,-7],[229,-147],[38,-4],[73,7],[34,-8],[26,-19],[22,-23],[29,-19],[63,-20],[195,-15],[115,-65],[62,-8],[53,53],[36,50],[50,40],[55,26],[48,8],[131,0]],[[4096,3852],[-99,-1],[-48,12],[-27,28],[-40,-39],[121,-105],[-74,-42],[-85,26],[-76,70],[-45,90],[26,23],[30,11],[31,2],[32,-4],[0,34],[-101,-16],[-182,-72],[-95,-17],[-459,71],[0,-32],[47,-27],[152,-12],[48,-24],[23,-30],[18,-39],[30,-50],[70,-45],[182,-79],[48,-86],[-459,38],[0,-38],[318,-85],[142,-85],[129,-162],[39,-99],[8,-96],[-30,-74],[-77,-29],[-39,-3],[-28,-14],[-17,-38],[-6,-69],[15,-28],[33,10],[52,37],[60,-8],[45,-25],[37,-43],[37,-64],[58,-183],[24,-115],[-11,-52],[36,-28],[3,-61],[-29,-61],[-61,-28],[-34,-7],[-37,-19],[-33,-28],[-26,-34],[-29,-21],[-41,-4],[-79,8],[0,-38],[42,-114],[18,-23],[45,0],[21,34],[13,43],[20,28],[30,5],[45,-3],[42,-12],[23,-25],[-6,-52],[-34,-18],[-42,-5],[-27,-12],[27,-48],[160,-148],[53,-32],[18,-28],[-8,-125],[10,-28],[23,1]],[[4096,1333],[-33,25],[20,-142],[13,-22]],[[1721,1679],[-136,-86]],[[1728,1680],[-5,0]],[[1722,1679],[1,1]],[[1723,1680],[-1,1],[-1,-1],[1,-1]],[[1189,461],[-35,137]],[[2188,379],[-6,5]],[[1090,2342],[-44,1]],[[1180,2274],[-25,20]],[[2730,1661],[4,9]],[[1290,529],[-54,28]],[[2735,1702],[-24,7]],[[1833,172],[13,20],[107,6],[286,191]],[[2244,410],[2,9]],[[1425,1194],[-188,-290],[-78,-209]],[[1584,1593],[-70,-130],[6,-70],[-63,-82],[-30,-115]],[[1584,1593],[1,0],[-1,1],[-1,0],[1,-1]],[[1425,1196],[0,-2]],[[1425,1194],[2,1],[-1,1],[-1,0]],[[1559,2160],[13,8]],[[1580,2170],[13,-1]],[[2135,356],[-142,-73]],[[142,1935],[-142,44]],[[0,2030],[58,139],[-58,32]],[[167,1917],[63,-121]],[[181,1375],[60,-2]],[[449,1257],[-6,-72]],[[1117,787],[9,-36]],[[1219,611],[82,43]],[[1537,563],[-16,15]],[[1560,462],[1,77]],[[2245,413],[0,3]],[[2434,430],[79,-1]],[[2596,608],[51,-21],[-27,-98]],[[2612,1510],[1,32]],[[2613,1569],[27,41],[64,-4]],[[2650,1079],[-21,-62],[38,-30],[17,-59],[-22,-83],[72,-14]],[[2703,1417],[-35,6]],[[2679,1084],[96,-6]],[[2728,1354],[-14,-19]],[[3755,1852],[8,-8]],[[2137,483],[-1,0]],[[2143,485],[-3,-1]],[[2182,384],[23,-20]],[[2206,364],[-12,29]],[[2734,1670],[1,2]],[[0,1591],[98,-24],[34,-64]],[[2239,389],[5,21]],[[4037,2042],[0,-7]],[[1385,2210],[-4,2]],[[3763,1941]],[[2780,1702],[0,5]],[[3782,1814],[1,-4]],[[3776,1838],[-1,0],[1,-1],[1,0],[-1,1]],[[170,1460],[-27,27]],[[150,1550],[-2,-28]],[[163,1631],[-13,-77]],[[1807,1972],[4,-6]],[[2133,495],[8,-16]],[[2141,479],[8,-15]],[[2144,474],[-3,5]],[[2141,479],[-1,3]],[[2190,384],[-4,5]],[[2241,390],[2,7]],[[1572,2168],[8,2]],[[2252,436],[5,-3]],[[1160,591],[13,-51],[-49,-71],[10,-124],[-27,-59],[64,-286]],[[2703,1708],[-2,-2]],[[406,81],[5,3]],[[413,85],[14,15],[626,-100]],[[2653,1704],[-47,11]],[[1241,2247],[1,0]],[[2707,1711],[-1,0]],[[3769,1964],[15,11]],[[3761,3553],[38,29]],[[141,1520],[2,-33]],[[159,1445],[11,15]],[[1178,597],[-3,-1]],[[1189,600],[-2,-1]],[[1110,671],[0,1],[-1,0],[1,-1]],[[2780,1707],[2,7]],[[2782,1715],[-1,0],[0,-1],[1,0],[0,1]],[[381,43],[-58,-43]],[[2182,1232],[14,5]],[[2593,1761],[0,1],[-1,0],[0,-1],[1,0]],[[2744,1699],[18,6]],[[4036,3418],[-21,59],[-95,-14],[-106,92],[2,28]],[[1593,2169],[2,0]],[[3763,1942],[0,-1]],[[0,3777],[11,3]],[[63,4064],[-1,2],[1,-2]],[[64,4062],[2,0]],[[66,4062],[-2,1]],[[280,3791],[-18,59],[13,65],[-209,147]],[[280,3791],[0,-1]],[[281,3790],[-1,1]],[[63,4064],[-1,-1],[2,-1],[0,1],[-1,1]],[[1833,172],[13,20],[107,6],[286,191]],[[2244,410],[2,9]],[[262,0],[-1,2]],[[385,47],[2,3]],[[409,83],[-23,-33]],[[2205,364],[33,-44]],[[2239,321],[-33,43]],[[2240,95],[64,-95]],[[2706,1711],[-2,-2]],[[2705,1709],[1,1]],[[3624,3588],[47,-3]],[[1192,596],[-2,4]],[[1200,575],[-3,9]],[[1948,481],[-73,3]],[[2100,482],[-34,14]],[[1175,596],[-31,21]],[[1138,624],[-16,15],[-27,-20]],[[2188,377],[0,2]],[[2545,4096],[264,-237],[420,-224],[336,-100],[47,10]],[[0,3625],[97,126]],[[98,3780],[6,-3]],[[186,3733],[15,-12],[80,68]],[[505,4001],[12,-36]],[[2720,1641],[10,20]],[[1143,619],[0,-1],[1,0],[0,1],[-1,0]],[[2404,1401],[5,12]],[[2410,1422],[4,16]],[[2569,1680],[2,0],[0,1],[-1,0],[-1,-1]],[[2718,1638],[2,3]],[[1197,584],[-5,12]],[[2225,229],[0,1]],[[1109,673],[-2,11]],[[1187,599],[-9,-2]],[[104,3777],[82,-44]],[[1667,2100],[-1,-2],[2,0],[0,1],[-1,1]],[[2613,1543],[0,26]],[[2188,377],[-53,-21]],[[2799,4096],[-100,-656],[443,-964],[336,-494],[5,-234],[167,-413],[6,-144],[-140,-236],[-79,-497],[-194,-458]],[[1602,2162],[-2,4]],[[1190,601],[-1,0],[0,-1],[2,0],[-1,1]],[[158,1446],[3,-4]],[[2792,1724],[-10,-9]],[[2782,1714],[11,9]],[[3723,1898],[-18,2],[19,-2]],[[3763,1942],[-1,0],[-37,-39],[38,38]],[[3763,1941],[0,1]],[[411,84],[-2,-1]],[[693,652],[2,-2]],[[3801,3583],[-1,1],[-1,-1],[1,-1],[1,1]],[[1702,2094],[-2,5]],[[3760,3553],[0,-1],[1,-1],[0,2],[-1,0]],[[2759,1268],[0,1],[0,-1]],[[917,383],[98,8],[170,-71]],[[4036,3418],[60,12]],[[3806,3583],[10,0]],[[97,3751],[1,29]],[[517,3965],[-42,-32]],[[482,4071],[2,25]],[[492,4034],[13,-33]],[[0,2614],[30,-11]],[[30,2603],[10,-4],[61,-30],[27,-25]],[[128,2544],[27,-24],[11,-13],[13,-9],[109,-52],[163,-140],[197,-88],[156,-7],[284,-114],[6,-1]],[[1094,2096],[62,-11]],[[1156,2085],[-61,10],[-1,1]],[[1094,2096],[-63,28],[-45,21],[-182,67],[-156,6],[-197,88],[-132,123],[-33,19],[-128,69],[-12,17],[-18,10]],[[128,2544],[-98,59]],[[30,2603],[-9,4],[-21,8]],[[1262,2067],[125,-69]],[[1386,1999],[-124,68]],[[1822,1923],[38,15]],[[1839,1933],[-14,-7]],[[1933,1968],[44,17]],[[1977,1985],[8,4],[5,-3]],[[1990,1986],[152,-74],[425,-83]],[[2567,1829],[72,-14]],[[2639,1815],[3,0],[103,6]],[[2746,1821],[-104,-6],[-3,0]],[[2639,1815],[-72,14]],[[2567,1829],[-425,84],[-143,74],[-9,-1]],[[1990,1986],[-13,-1]],[[1977,1985],[-40,-2],[-4,-2]],[[2938,1651],[-72,15]],[[2867,1665],[72,-14]],[[3652,1907],[-7,-1]],[[3645,1906],[7,0]],[[3779,1913],[14,8]],[[3792,1921],[-13,-7]],[[3863,1964],[233,20]],[[4096,1984],[-233,-19]],[[3832,3422],[0,-1],[1,0],[-1,1]],[[2711,1709],[-4,2]],[[2790,1722],[4,-5]],[[176,1779],[5,11]],[[411,84],[2,1]],[[2246,411],[-1,2]],[[409,83],[-3,-2]],[[1113,686],[10,1]],[[991,2334],[-3,30]],[[2317,423],[-3,0]],[[387,50],[19,31]],[[395,42],[18,-42]],[[1090,789],[-10,7]],[[1547,555],[-10,8]],[[2257,433],[12,-6]],[[2330,406],[-13,17]],[[2338,424],[57,30]],[[2339,420],[7,-14]],[[3932,1770],[91,-49]],[[2799,4096],[-100,-656],[443,-964],[336,-494],[5,-234],[167,-413],[6,-144],[-140,-236],[-79,-497],[-194,-458]],[[1596,2170],[-3,0]],[[1607,2150],[-2,5]],[[1159,693],[1,-28]],[[1159,664],[1,-1],[0,1],[0,1]],[[1160,665],[-1,-1]],[[3648,3587],[8,-1]],[[56,4091],[-1,5]],[[56,4091],[2,-13]],[[62,4066],[-4,12]],[[1228,2244],[-2,-8]],[[1253,2244],[-12,3]],[[1696,2043],[-9,16]],[[1847,1943],[-33,14]],[[1858,1939],[1,-1]],[[244,2578],[113,-50]],[[506,2489],[-100,-5],[-49,45]],[[546,2435],[-34,-2]],[[988,2364],[-102,-56],[-42,31],[-61,-28],[-55,40],[-134,5],[16,44],[-64,34]],[[991,2334],[55,9]],[[1864,1936],[15,-6]],[[1885,1918],[10,-7]],[[2373,1840],[-2,-37],[49,-29]],[[2426,1757],[95,18],[-4,-38]],[[2606,1715],[-29,6]],[[2679,1699],[-26,5]],[[1595,2169],[5,-3]],[[1605,2155],[-2,5]],[[1609,2149],[-2,1]],[[1622,2138],[-10,9]],[[148,1522],[-7,-2]],[[350,65],[-51,-14],[-38,-49]],[[1038,576],[-75,86]],[[1586,414],[-26,48],[-40,-42],[-121,5],[-18,81]],[[1993,283],[-57,-28],[-12,44],[-45,-1],[5,22],[-129,27],[-25,63],[-86,-35],[-42,18]],[[2337,260],[23,-5],[0,-30],[-41,-15],[-78,-115]],[[2333,263],[5,23]],[[1837,0],[87,109],[12,64],[305,217]],[[2243,397],[4,13]],[[1195,4096],[54,-74]],[[1501,582],[20,-4]],[[2314,423],[-42,-2]],[[3861,1759],[28,-17]],[[281,3790],[45,-12]],[[326,3778],[5,-1]],[[331,3777],[19,-6]],[[350,3771],[79,-2]],[[429,3769],[31,13]],[[2698,1704],[-19,-5]],[[1155,2294],[-65,48]],[[1334,2244],[-80,1]],[[1358,2223],[-21,18]],[[1895,1911],[27,-47]],[[2577,1721],[-1,0]],[[3702,3528],[7,16]],[[3341,1838],[-130,-55]],[[3211,1782],[130,56]],[[3672,3585],[6,1]],[[167,1917],[-25,18]],[[150,1554],[0,-4]],[[163,1631],[41,17],[-9,43],[-29,11],[2,47]],[[181,1790],[49,6]],[[241,1373],[-12,-80],[32,-27],[99,-13],[43,-36],[19,43],[27,-3]],[[793,1148],[-74,11],[-36,-67],[-87,-17],[1,42],[-46,38],[-108,30]],[[796,1146],[88,-54],[59,-92],[59,-10],[-4,-98],[74,-30],[8,-66]],[[1117,787],[-27,2]],[[1126,751],[-3,-64]],[[1325,651],[133,-50]],[[1474,601],[27,-19]],[[2269,427],[3,-6]],[[2395,454],[39,-24]],[[2727,807],[-37,-112],[10,-57],[-78,39],[-26,-69]],[[2668,1423],[-56,87]],[[2613,1542],[0,1]],[[2697,1305]],[[2703,1417],[53,-16],[-28,-47]],[[2759,1269],[-65,29],[20,37]],[[2775,1078],[35,85],[-14,42],[-46,25],[9,38]],[[3783,1809],[-7,-4]],[[3815,1769],[-37,17]],[[3815,1769],[4,-2]],[[3819,1767],[39,-26],[3,18]],[[3889,1742],[23,32]],[[4096,1613],[-47,-12],[-50,68],[24,52]],[[2107,479],[2,-1]],[[2120,479],[-6,-1]],[[2114,478],[6,1]],[[2120,479],[12,3]],[[2132,482],[2,0]],[[2134,483],[-2,-1]],[[2339,422]],[[1106,685],[0,-1]],[[3782,1814],[-6,23]],[[3783,1810],[0,-1]],[[1622,2137],[9,-8]],[[1107,685],[6,1]],[[1647,2122],[20,-22]],[[1668,2098],[5,-14]],[[385,47],[-35,18]],[[386,50],[1,0]],[[925,671],[2,5]],[[1038,576],[57,43]],[[1143,619],[-5,5]],[[2338,286],[-100,34]],[[2240,95],[1,0]],[[0,1591],[98,-24],[34,-64]],[[2114,478],[-14,4]],[[1395,816],[-90,-25],[-60,-63],[-85,-34]],[[1478,905],[119,22],[15,35],[234,16]],[[1870,986],[132,58]],[[2196,1237],[143,68],[65,96]],[[2422,1474],[39,83]],[[2468,1568],[102,112]],[[2414,1438],[0,1],[0,-1]],[[1846,978],[24,8]],[[185,2596],[-110,5],[-7,-25],[-42,-8]],[[244,2578],[-1,21],[-44,2]],[[357,2529],[0,-1]],[[546,2434],[0,1]],[[1337,2241]],[[1922,1864],[112,-14],[102,33],[172,-10],[65,-33]],[[2576,1721],[-59,16]],[[3866,1985],[39,22],[13,59],[119,-24]],[[4079,2042],[17,3]],[[1106,684],[0,1]],[[2246,420],[59,-3],[32,-125],[64,-15],[-34,-56]],[[3832,3422],[-59,73]],[[3943,3011],[-111,410]],[[3977,2917],[-34,90]],[[3978,2916],[36,-57]],[[4016,2858],[17,-22]],[[4068,2791],[28,-36]],[[2710,1709],[6,-1]],[[1202,599],[4,-1]],[[1994,1091],[-2,-1]],[[1993,1090],[1,1]],[[1994,1091],[68,25]],[[2062,1116],[0,-1],[2,0],[-1,1],[-1,0]],[[2064,1116],[70,97],[40,16]],[[2175,1229],[-1,0],[0,-1],[1,0],[0,1]],[[2410,1418],[0,4]],[[1537,560],[-156,-54]],[[1685,524],[-138,31]],[[1834,495],[-107,3]],[[1875,484],[-41,11]],[[1987,484],[-39,-3]],[[2066,496],[-39,-6]],[[395,42],[-8,8]],[[1191,601],[11,-2]],[[2513,429],[107,60]],[[3748,1856],[7,-4]],[[3763,1844],[12,-6]],[[2339,420],[1,2],[-1,0],[-1,-1],[1,-1]],[[1189,461],[-35,137]],[[2027,490],[-40,-6]],[[3680,3549],[14,-18]],[[3773,3495],[-71,33]],[[4033,2836],[35,-45]],[[1195,4096],[54,-74]],[[3943,3007],[0,4]],[[2710,1605],[8,33]],[[2706,1710],[4,-1]],[[2794,1717],[4,-17]],[[3671,3585],[1,-1],[0,1],[0,1],[-1,-1]],[[413,85],[14,15],[626,-100]],[[2780,1707]],[[1159,693],[1,1],[-1,1],[0,-1],[0,-1]],[[2240,317]],[[1778,1871],[-48,-228],[149,-294],[78,-205],[1,-1],[19,-36]],[[1977,1107],[0,-2],[6,-9],[72,-192]],[[2055,904],[26,-68],[34,-240]],[[2116,598],[-34,238],[-27,68]],[[2055,904],[-78,203]],[[1977,1107],[-2,4],[-17,33],[-78,206],[-150,293],[48,228]],[[132,1503],[2,-2]],[[2785,1701],[13,-1]],[[1185,320],[-63,146],[48,71],[-11,55]],[[1430,852],[-33,-34]],[[199,2601],[-14,-5]],[[1337,2241],[-3,3]],[[1859,1938],[5,-2]],[[1879,1930],[6,-12]],[[2414,1439],[8,35]],[[963,662],[-38,9]],[[1175,596],[25,-21]],[[1602,393],[-16,21]],[[2337,260],[-4,3]],[[1825,0],[99,112],[-47,78],[-44,-18]],[[512,2433],[-6,56]],[[2234,328],[2,-2]],[[2241,311],[-1,6]],[[3678,3586],[6,-15]],[[3708,3545],[1,-1]],[[1226,2236],[-46,38]],[[1980,1081],[1,-2]],[[1984,1085],[-3,-2]],[[1981,1083],[-3,0],[0,-2],[2,0]],[[1980,1081],[1,2]],[[1981,1079],[0,2]],[[1981,1079],[18,-28]],[[1986,1086],[5,3]],[[1991,1089],[1,-1],[1,2],[-2,0],[0,-1]],[[1999,1051],[2,-5]],[[2002,1046],[-3,5]],[[1984,1085],[1,-1],[1,1],[-2,1],[0,-1]],[[2003,1046],[-2,0]],[[2001,1046],[1,-2],[1,1],[0,1]],[[1699,2098],[102,-124]],[[1811,1966],[-109,128]],[[1798,1941],[3,9]],[[1799,1947],[-1,-3]],[[2153,460],[-9,14]],[[2149,464],[2,-3]],[[793,1148],[3,-2]],[[1301,654],[24,-3]],[[1458,601],[16,0]],[[1561,539],[-14,16]],[[2346,406],[-16,0]],[[2650,1079],[28,5]],[[2734,831],[-7,-24]],[[3776,1805],[2,-19]],[[917,383],[98,8],[170,-71],[-63,146],[48,71],[-11,55],[10,-55],[-48,-65],[-15,-62],[-189,-27]],[[1189,601],[-23,39]],[[1593,2170],[-13,1]],[[1603,2160],[-1,2]],[[1612,2147],[-3,1]],[[1622,2137],[0,1]],[[1609,2148],[0,1]],[[1858,0],[-8,17],[74,91],[12,63],[159,129],[140,65],[5,24]],[[2244,404],[1,7]],[[1228,2244],[14,3]],[[1254,2245],[-1,-1]],[[1358,2223],[23,-11]],[[1516,2159],[-131,51]],[[1696,2043],[22,4],[96,-90]],[[1847,1943],[11,-4]],[[3763,1941],[6,23],[-6,-22]],[[2239,389],[5,21]],[[3612,3545],[17,39]],[[702,650],[-7,0]],[[2136,482],[7,2]],[[2134,483],[0,-2],[2,1],[-1,1],[-1,0]],[[2143,485],[1,-2],[1,2],[-1,1],[-1,-1]],[[3211,1783],[-273,-132]],[[2939,1651],[272,131]],[[2171,371],[22,-1]],[[2218,392],[19,-1]],[[2808,4096],[-101,-657],[441,-958],[334,-499],[4,-233],[171,-412],[7,-148],[-142,-238],[-78,-497],[-192,-454]],[[2234,328],[-29,36]],[[2303,0],[-74,109],[-4,120]],[[2225,230],[11,96]],[[2240,317],[-2,6],[-3,4]],[[1798,1944],[-20,-73]],[[1778,1871],[20,70]],[[2115,596],[18,-101]],[[2140,482],[-24,116]],[[3978,2916],[0,1],[-1,0],[0,-1],[1,0]],[[4014,2858],[2,0],[-1,2],[-1,-1],[0,-1]],[[1166,640],[-6,23]],[[1727,498],[-42,26]],[[1834,495]],[[3932,1770],[-20,4]],[[132,1503],[2,-2]],[[2252,436],[-9,-6]],[[2793,1723],[-1,1]],[[1122,639],[-13,32]],[[1206,598],[13,13]],[[2190,375],[-2,2]],[[2190,375],[28,17]],[[2193,370],[-3,5]],[[2237,391],[8,22]],[[2244,419],[-1,11]],[[2245,416],[-1,3]],[[3672,3584],[8,-35]],[[3694,3531],[8,-3]],[[2735,1672],[9,27]],[[0,2578],[26,-10]],[[1236,557],[-36,18]],[[1381,506],[-91,23]],[[2194,393],[-6,-14]],[[2151,461],[16,-23]],[[2167,438],[-14,22]],[[2186,388],[5,-6]],[[2191,382],[-1,2]],[[2205,364],[-14,18]],[[2240,389],[4,13]],[[2808,4096],[-101,-657],[480,-1017],[295,-440],[4,-233],[153,-356],[27,-124],[-23,-125],[-121,-193],[-78,-497],[-192,-454]],[[1547,555],[-10,5]],[[475,3933],[-40,-86],[28,-65],[-71,-19],[-111,26]],[[492,4034],[-10,37]],[[2175,1229],[7,3]],[[4037,2035],[42,7]],[[3816,3583],[280,-61]],[[3684,3571],[24,-26]],[[2679,1084],[-1,0]],[[158,1446],[-7,-70],[30,-1]],[[2710,1605],[-6,1]],[[4080,1207],[-5,-186],[-73,-14],[-128,69],[-42,-29],[2,-55]],[[3763,1942]],[[1837,0],[87,109],[12,64],[304,216]],[[2244,402],[2,9]],[[693,652],[-55,-25],[-226,-542]],[[2420,1774],[6,-17]],[[2776,1808],[22,-59]],[[2797,1750],[-21,58]],[[2744,1699],[-9,3]],[[2762,1705],[17,-4]],[[2780,1701],[0,1],[-1,-1]],[[2779,1701],[1,-1],[0,1]],[[409,83]],[[2409,1413],[1,5]],[[1159,592],[10,-55],[-63,-127],[-189,-27]],[[168,1749],[8,30]],[[1516,2159],[43,1]],[[2698,1704],[6,3],[1,2]],[[2704,1709],[-1,-1]],[[3706,1900],[-2,-20]],[[3725,1898],[-1,1],[-1,-1],[1,0],[1,0]],[[2109,478],[5,0]],[[1262,2067],[-1,1]],[[1261,2068],[-105,17]],[[1156,2085],[104,-17],[1,0]],[[1261,2068],[1,-1]],[[1825,1926],[-7,-3],[-14,-7]],[[1804,1916],[-16,-8],[-3,0]],[[1785,1908],[-126,8],[-143,21],[-130,62]],[[1387,1998],[128,-62],[149,-22],[103,-13],[18,7]],[[1785,1908],[19,8]],[[1804,1916],[18,7]],[[1933,1981],[-94,-48]],[[1860,1938],[73,30]],[[2745,1821],[31,-13]],[[2776,1808],[-30,13]],[[2866,1666],[-69,84]],[[2798,1749],[69,-84]],[[3779,1914],[-127,-7]],[[3652,1906],[43,0],[84,7]],[[3863,1965],[-3,-1],[-68,-43]],[[3793,1921],[70,43]],[[3645,1906],[-304,-68]],[[3341,1838],[304,68]],[[3704,1880],[44,-24]],[[3724,1899],[1,4]],[[4080,1207],[-136,-7]],[[1397,818],[-2,-2]],[[1478,905],[-48,-53]],[[2461,1557],[7,11]],[[1580,2171],[-8,-3]],[[2780,1701],[5,0]],[[1600,2166],[-4,4]],[[2167,438],[19,-50]],[[2186,389],[-19,49]],[[1160,591],[13,-51],[-49,-71],[10,-124],[-27,-59],[64,-286]],[[1106,684],[-179,-8]],[[1801,1974],[5,-4]],[[927,676],[-232,-26]],[[3709,3544],[10,7]],[[1631,2129],[16,-7]],[[1673,2084],[14,-25]],[[3763,1942],[0,-1]],[[3784,1975],[82,10]],[[2240,389],[4,15]],[[406,81],[-25,-38]],[[1123,687],[36,7]],[[2001,1045],[-2,-2]],[[2570,1680],[-1,-3]],[[2572,1684],[-2,-3]],[[2571,1681],[1,3]],[[2572,1684],[19,74]],[[2591,1758],[1,2]],[[2592,1761],[-1,-3]],[[2594,1765],[-1,-3]],[[2593,1762],[1,3]],[[2594,1765],[19,47]],[[2613,1812],[1,6]],[[3719,3551],[41,1]],[[3801,3583],[5,0]],[[11,3780],[270,10]],[[4096,1194],[-13,22],[-20,142],[33,-25],[0,-139]],[[4096,1391],[-23,-1],[-10,28],[8,125],[-18,28],[-53,32],[-160,148],[-27,48],[27,12],[42,5],[34,18],[6,52],[-23,25],[-42,12],[-45,3],[-30,-5],[-20,-28],[-13,-43],[-21,-34],[-45,0],[-18,23],[-42,114],[0,38],[79,-8],[41,4],[29,21],[26,34],[33,28],[37,19],[34,7],[61,28],[29,61],[-3,61],[-36,28],[11,52],[-24,115],[-58,183],[-37,64],[-37,43],[-45,25],[-60,8],[-52,-37],[-33,-10],[-15,28],[6,69],[17,38],[28,14],[39,3],[77,29],[30,74],[-8,96],[-39,99],[-129,162],[-142,85],[-318,85],[0,38],[459,-38],[-48,86],[-182,79],[-70,45],[-30,50],[-18,39],[-23,30],[-48,24],[-152,12],[-47,27],[0,32],[459,-71],[95,17],[182,72],[101,16],[0,-34],[-32,4],[-31,-2],[-30,-11],[-26,-23],[45,-90],[76,-70],[85,-26],[74,42],[-121,105],[40,39],[27,-28],[48,-12],[99,1],[0,-2461]],[[2244,4096],[-93,-86],[-102,28],[-38,58],[233,0]],[[2997,0],[-326,0],[39,46],[70,51],[165,243],[21,144],[97,254],[113,195],[66,-30],[-139,-633],[-56,-169],[-50,-101]],[[482,0],[-482,0],[0,353],[27,-33],[92,-50],[129,-21],[93,-57],[75,-89],[66,-103]],[[0,4096],[521,0],[-15,-56],[7,-40],[40,-9],[76,2],[0,-36],[-119,-68],[-35,-57],[33,-85],[-11,-8],[-27,-30],[-68,43],[-320,-94],[-82,-43],[0,481]],[[0,3292],[0,35],[29,0],[-29,-35]],[[0,1925],[0,868],[129,-70],[152,54],[289,197],[376,126],[129,94],[71,25],[79,6],[23,-6],[2,-15],[18,-73],[1,-17],[41,16],[11,38],[-10,105],[40,11],[90,-41],[201,-140],[45,-56],[36,-63],[26,-33],[27,-15],[54,-7],[48,-18],[88,-61],[-47,19],[-46,0],[-34,-27],[-13,-60],[11,-23],[43,-34],[6,-31],[-15,-43],[-24,-11],[-29,-2],[-32,-14],[-109,-157],[48,-86],[104,5],[57,114],[33,-9],[187,98],[111,35],[12,16],[-5,35],[-15,35],[-13,16],[-26,7],[-28,17],[-24,24],[-12,25],[9,45],[36,-17],[39,-39],[16,-24],[37,57],[-10,81],[-28,90],[-19,87],[14,-23],[45,-47],[1,87],[-19,127],[1,34],[55,3],[86,-96],[137,-228],[6,-33],[3,-46],[6,-40],[15,-18],[7,-11],[62,-62],[19,-71],[-7,-41],[-27,-29],[-84,-55],[-136,-58],[-201,18],[-50,-11],[-34,-30],[-16,-65],[27,-33],[47,-2],[43,27],[-14,26],[-3,17],[22,52],[58,-14],[195,-46],[44,-39],[287,-419],[19,-45],[74,-221],[17,-84],[-21,0],[-35,54],[-53,35],[-48,-14],[-21,-91],[16,-63],[78,-125],[23,-76],[6,-111],[-8,-101],[-19,-87],[-45,-105],[-8,-38],[-4,-103],[-9,-26],[-72,-97],[-27,-63],[-20,-58],[-26,-51],[-46,-39],[-36,-8],[-114,8],[-131,0],[-48,-8],[-55,-26],[-50,-40],[-36,-50],[-53,-53],[-62,8],[-115,65],[-195,15],[-63,20],[-29,19],[-22,23],[-26,19],[-34,8],[-73,-7],[-38,4],[-229,147],[-84,7],[-22,-39],[-2,-112],[-44,34],[-69,81],[-48,29],[-60,1],[-110,-28],[-51,27],[223,172],[40,73],[-51,73],[-36,84],[-39,67],[-55,24],[-44,-13],[-33,-19],[-34,-13],[-48,7],[-67,68],[-37,15],[-36,-45],[9,-80],[101,-156],[-10,-86],[-15,-6],[-102,17],[-8,14],[5,21],[-1,28],[8,-4],[8,21],[-3,43],[-42,114],[-6,55],[6,54],[19,49],[-4,41],[-44,27],[-117,30],[-37,23],[-33,29],[-14,25],[-6,28],[-27,46],[-7,31],[7,31],[27,47],[6,29],[-6,56],[-27,90],[-7,29],[9,176],[-29,23],[-46,4],[-44,-5]],[[2114,387],[25,-7],[20,43],[-37,55],[31,-18],[-6,25],[24,7],[5,-32],[23,15],[-12,21],[46,22],[117,-11],[-16,-18],[25,-22],[-35,-6],[3,-36],[-81,9],[-3,-43],[-47,-33],[-74,-31],[16,36],[-24,24]],[[2288,582],[59,-31],[4,-107],[-134,-8],[-111,-73],[-11,211],[43,48],[118,-48],[20,62],[12,-54]],[[4096,1194],[-13,22],[-20,142],[33,-25],[0,-139]],[[131,1661],[69,-67],[38,-98],[-80,-169],[-48,118],[40,107],[-19,109]],[[4096,2788],[-60,7],[-6,90],[66,22],[0,-119]],[[3745,3421],[-77,51],[-182,234],[43,108],[22,6],[32,-114],[180,-70],[47,-44],[-65,-171]],[[1269,2450],[-65,14],[-48,46],[25,86],[57,31],[65,-14],[48,-46],[-25,-86],[-57,-31]],[[2794,1908],[91,-305],[-109,89],[-48,-14],[-21,-91],[-21,128],[108,193]],[[3878,2058],[-22,-135],[-74,-2],[-54,-105],[-45,0],[-60,175],[120,-4],[125,102],[10,-31]],[[1253,1997],[-75,29],[-22,55],[32,258],[47,17],[36,-209],[-18,-150]],[[1878,2911],[88,-61],[-93,19],[-34,-27],[-13,-60],[60,-88],[-15,-43],[-85,-27],[-109,-157],[48,-86],[104,5],[57,114],[33,-9],[298,133],[-8,86],[-91,64],[-3,70],[91,-80],[28,43],[91,-158],[8,-174],[-164,15],[-84,-41],[-16,-65],[27,-33],[47,-2],[43,27],[-17,43],[22,52],[122,-29],[-90,-56],[-96,-218],[-29,64],[-3,107],[-79,-47],[-54,-89],[-29,-135],[0,-185],[-65,57],[-39,-9],[-90,-105],[-248,-14],[-76,-43],[-69,557],[37,184],[60,-32],[24,-79],[45,-2],[83,232],[78,-5],[-98,398],[-5,126],[72,-45],[107,-152],[129,-40]],[[1061,650],[48,20],[-4,19],[54,-25],[2,-45],[35,-26],[23,20],[6,-29],[-21,-2],[73,-19],[19,-47],[-171,117],[-28,-15],[-36,32]],[[2627,1701],[123,12],[6,23],[-53,17],[51,-2],[5,64],[31,-12],[9,-65],[-26,-22],[35,-46],[-46,33],[-23,-46],[-33,13],[-7,-20],[-13,0],[-59,51]],[[1579,2227],[9,43],[47,12],[23,-10],[6,-49],[26,-3],[-69,-39],[-40,18],[-2,28]],[[3396,3756],[17,33],[41,-44],[-2,-35],[6,29],[57,-26],[27,30],[4,-39],[31,-14],[-24,-22],[47,-10],[9,18],[34,-28],[11,16],[-9,-24],[27,-7],[31,18],[-1,-36],[50,-16],[-55,6],[13,-58],[-39,-39],[17,79],[-126,18],[-72,48],[-12,45],[-38,-2],[-11,51],[-19,-14],[-14,23]]]}