{"objects":{"water":{"type":"GeometryCollection","geometries":[{"type":"Polygon","properties":{"source":"naturalearthdata.com","kind":"ocean","area":1576712559132672,"sort_rank":200,"min_zoom":0.0,"id":1},"arcs":[[43],[44],[45],[46],[47],[48]]},{"type":"LineString","properties":{"source":"naturalearthdata.com","kind":"ocean","sort_rank":205,"boundary":true,"min_zoom":0.0,"id":19},"arcs":[49]},{"type":"LineString","properties":{"source":"naturalearthdata.com","kind":"ocean","sort_rank":205,"boundary":true,"min_zoom":0.0,"id":1144},"arcs":[50]},{"type":"LineString","properties":{"source":"naturalearthdata.com","kind":"ocean","sort_rank":205,"boundary":true,"min_zoom":0.0,"id":1145},"arcs":[51]},{"type":"LineString","properties":{"source":"naturalearthdata.com","kind":"ocean","sort_rank":205,"boundary":true,"min_zoom":0.0,"id":1146},"arcs":[52]},{"type":"LineString","properties":{"source":"naturalearthdata.com","kind":"ocean","sort_rank":205,"boundary":true,"min_zoom":0.0,"id":3613},"arcs":[53]},{"type":"LineString","properties":{"source":"naturalearthdata.com","kind":"ocean","sort_rank":205,"boundary":true,"min_zoom":0.0,"id":3614},"arcs":[54]}]},"buildings":{"type":"GeometryCollection","geometries":[]},"places":{"type":"GeometryCollection","geometries":[{"type":"Point","properties":{"name:el":"\u0393\u03ba\u03c1\u03bf\u03c3\u03ad\u03c4\u03bf","kind":"locality","name":"Grosseto","kind_detail":"city","name:eo":"Groseto","source":"openstreetmap.org","min_zoom":8.0,"name:ru":"\u0413\u0440\u043e\u0441\u0441\u0435\u0442\u043e","name:zh":"\u683c\u7f57\u585e\u6258","id":61753364,"population":82087},"coordinates":[3699,2874]},{"type":"Point","properties":{"kind":"locality","name":"Piombino","kind_detail":"town","source":"openstreetmap.org","min_zoom":8.0,"name:ru":"\u041f\u044c\u043e\u043c\u0431\u0438\u043d\u043e","id":61753526,"population":34060},"coordinates":[1976,3566]},{"type":"Point","properties":{"kind":"locality","name":"Follonica","kind_detail":"town","source":"openstreetmap.org","min_zoom":8.0,"name:ru":"\u0424\u043e\u043b\u043b\u043e\u043d\u0438\u043a\u0430","id":61753503,"population":21605},"coordinates":[2674,3532]},{"type":"Point","properties":{"source":"openstreetmap.org","kind":"locality","name":"Orbetello","kind_detail":"town","population":14878,"min_zoom":8.0,"id":61753520},"coordinates":[3982,1602]},{"type":"Point","properties":{"source":"openstreetmap.org","kind":"locality","name":"Campiglia Marittima","kind_detail":"town","population":13218,"min_zoom":8.0,"id":2813475279},"coordinates":[2248,4063]},{"type":"Point","properties":{"kind":"locality","name":"Portoferraio","kind_detail":"town","source":"openstreetmap.org","min_zoom":8.0,"name:ru":"\u041f\u043e\u0440\u0442\u043e\u0444\u0435\u0440\u0440\u0430\u0439\u043e","id":61753525,"population":11992},"coordinates":[1367,3079]}]},"transit":{"type":"GeometryCollection","geometries":[{"type":"MultiLineString","properties":{"kind":"train","network":"regional","sort_rank":275,"source":"openstreetmap.org","min_zoom":6.0,"ref":"R","osm_relation":true,"name":"train: Campiglia Marittima => Piombino Marittima"},"arcs":[[5],[6],[7],[8],[9],[10],[11],[12]]},{"type":"MultiLineString","properties":{"kind":"train","network":"regional","sort_rank":275,"source":"openstreetmap.org","min_zoom":6.0,"ref":"R","osm_relation":true,"name":"train: Piombino Marittima => Campiglia Marittima"},"arcs":[[13],[14],[15],[16],[17],[18],[19],[20],[21],[22],[23],[24],[25],[26],[27]]},{"type":"MultiLineString","properties":{"kind":"train","name":"Frecciabianca (Genova Piazza Principe \u2192 Roma Termini)","sort_rank":275,"source":"openstreetmap.org","min_zoom":6.0,"operator":"Trenitalia","ref":"Frecciabianca","osm_relation":true,"network":"Trenitalia"},"arcs":[[28],[29],[30],[31],[32],[33],[34],[35],[36]]},{"type":"LineString","properties":{"kind":"train","name":"Siena - Grosseto","sort_rank":275,"source":"openstreetmap.org","min_zoom":6.0,"ref":"R","id":-6320852,"osm_relation":true},"arcs":[37]},{"type":"MultiLineString","properties":{"kind":"train","name":"Frecciabianca (Roma Termini \u2192 Genova Piazza Principe)","sort_rank":275,"source":"openstreetmap.org","min_zoom":6.0,"operator":"Trenitalia","ref":"Frecciabianca","osm_relation":true,"network":"Trenitalia"},"arcs":[[38],[39],[40],[41],[42]]}]},"pois":{"type":"GeometryCollection","geometries":[{"type":"Point","properties":{"kind":"nature_reserve","protect_class":"2","area":168185000,"source":"openstreetmap.org","min_zoom":8.59,"tier":2,"id":-4279861,"osm_relation":true,"name":"Parco Naturale della Maremma"},"coordinates":[3687,2362]},{"type":"Point","properties":{"kind":"nature_reserve","protect_class":"5","area":119681000,"source":"openstreetmap.org","min_zoom":8.84,"tier":2,"id":-3681342,"osm_relation":true,"name":"Parco Interprovinciale di Montioni"},"coordinates":[2604,3873]},{"type":"Point","properties":{"kind":"national_park","protect_class":"2","area":201363000,"min_zoom":6.96,"name:de":"Nationalpark Toskanischer Archipel","source":"openstreetmap.org","name:fr":"Parc national de l\u2019archipel toscan","name:es":"Parque nacional Archipi\u00e9lago Toscano","tier":1,"id":-1582395,"osm_relation":true,"name":"Parco Nazionale dell'Arcipelago Toscano"},"coordinates":[3552,852]}]},"boundaries":{"type":"GeometryCollection","geometries":[{"type":"LineString","properties":{"name:right:yo":"It\u00e1l\u00ed\u00e0","name:right:yi":"\u05d0\u05d9\u05d8\u05d0\u05dc\u05d9\u05e2","name:right:hy":"\u053b\u057f\u0561\u056c\u056b\u0561","name:right:dv":"\u0787\u07a8\u0793\u07a6\u078d\u07a9\u0788\u07a8\u078d\u07a7\u078c\u07b0","name:left:lb":"Frankr\u00e4ich","name:left:st":"Fora","name:right:el":"\u0399\u03c4\u03b1\u03bb\u03af\u03b1","name:right:hr":"Italija","name:left:kg":"Fwalansa","name:left:ka":"\u10e1\u10d0\u10e4\u10e0\u10d0\u10dc\u10d2\u10d4\u10d7\u10d8","name:left:km":"\u1794\u17b6\u179a\u17b6\u17c6\u1784","name:left:kl":"Frankrigi","name:left:ko":"\ud504\ub791\uc2a4","name:left:kn":"\u0cab\u0ccd\u0cb0\u0cbe\u0ca8\u0ccd\u0cb8\u0ccd","name:left:ki":"Ubaranja","name:right:rw":"Ubutaliyani","name:left:kk":"\u0424\u0440\u0430\u043d\u0446\u0438\u044f","name:left:rm":"Frantscha","name:left:ku":"Fransa","name:left:kw":"Pow Frynk","name:left:kv":"\u0424\u0440\u0430\u043d\u0446\u0438\u044f","name:left:rw":"Ubufaransa","name:left:ks":"\u0641\u0631\u065b\u0627\u0646\u0633","name:left:ru":"\u0424\u0440\u0430\u043d\u0446\u0438\u044f","name:left:sr":"\u0424\u0440\u0430\u043d\u0446\u0443\u0441\u043a\u0430","name:left:ky":"\u0424\u0440\u0430\u043d\u0446\u0438\u044f","name:right:bi":"Itali","name:right:bn":"\u0987\u09a4\u09be\u09b2\u09bf","name:right:bo":"\u0f68\u0f72\u0f0b\u0f4f\u0f0b\u0f63\u0f72\u0f0d","name:right:hi":"\u0907\u091f\u0932\u0940","name:right:ba":"\u0418\u0442\u0430\u043b\u0438\u044f","name:right:bg":"\u0418\u0442\u0430\u043b\u0438\u044f","name:right:be":"\u0406\u0442\u0430\u043b\u0456\u044f","name:left:si":"\u0db4\u0dca\u200d\u0dbb\u0d82\u0dc1\u0dba","name:right:nl":"Itali\u00eb","name:right:wa":"It\u00e5leye","name:left:sk":"Franc\u00fazsko","name:right:wo":"Itaali","name:right:ne":"\u0907\u091f\u093e\u0932\u0940","name:right:na":"Itari","name:right:gv":"Yn Iddaal","name:right:nv":"\u00cddelii","name:right:pt":"It\u00e1lia","kind_detail":"2","alt_name:right:vi":"I-ta-li-a","name:left:mi":"W\u012bw\u012b","name:left:mt":"Franza","name:right:gu":"\u0a88\u0a9f\u0ab2\u0ac0","name:left:ty":"Far\u0101ni","name:right:ps":"\u0627\u06d0\u067c\u0627\u0644\u064a\u0627","name:left:mg":"Frantsa","name:left:mk":"\u0424\u0440\u0430\u043d\u0446\u0438\u0458\u0430","name:left:tr":"Fransa","name:left:tt":"\u0424\u0440\u0430\u043d\u0446\u0438\u044f","name:left:mn":"\u0424\u0440\u0430\u043d\u0446","name:left:ml":"\u0d2b\u0d4d\u0d30\u0d3e\u0d7b\u0d38\u0d4d","name:left:th":"\u0e1b\u0e23\u0e30\u0e40\u0e17\u0e28\u0e1d\u0e23\u0e31\u0e48\u0e07\u0e40\u0e28\u0e2a","name:left:mr":"\u092b\u094d\u0930\u093e\u0928\u094d\u0938","name:left:tk":"Fransi\u00fda","name:left:tl":"Pransiya","name:left:to":"Falanis\u0113","name:left:ta":"\u0baa\u0bbf\u0bb0\u0bbe\u0ba9\u0bcd\u0b9a\u0bc1","name:left:my":"\u1015\u103c\u1004\u103a\u101e\u1005\u103a\u1014\u102d\u102f\u1004\u103a\u1004\u1036","name:right:gn":"It\u00e1lia","name:right:pl":"W\u0142ochy","name:left:te":"\u0c2b\u0c4d\u0c30\u0c3e\u0c28\u0c4d\u0c38\u0c4d","name:left:tg":"\u0424\u0430\u0440\u043e\u043d\u0441\u0430","name:left:ms":"Perancis","name:right:ka":"\u10d8\u10e2\u10d0\u10da\u10d8\u10d0","name:left:ti":"\u1348\u1228\u1295\u1233\u12ed","name:left:da":"Frankrig","name:left:de":"Frankreich","name:left:dz":"\u0f55\u0f62\u0f71\u0f53\u0f66\u0f72\u0f0b","name:right:ga":"An Iod\u00e1il","name:left:dv":"\u078a\u07a6\u0783\u07a6\u0782\u07b0\u0790\u07ad\u0790\u07a8\u0788\u07a8\u078d\u07a7\u078c\u07b0","name:right:lg":"Yitale","name:right:ug":"\u0626\u0649\u062a\u0627\u0644\u0649\u064a\u06d5","name:left:hi":"\u092b\u093c\u094d\u0930\u093e\u0928\u094d\u0938","name:right:lb":"Italien","name:right:uk":"\u0406\u0442\u0430\u043b\u0456\u044f","name:left:he":"\u05e6\u05e8\u05e4\u05ea","name:right:ln":"Italya","name:right:lo":"\u0ead\u0eb4\u0e95\u0eb2\u0ea5\u0eb5","name:left:ha":"Faransa","name:right:lt":"Italija","name:right:ur":"\u0627\u0637\u0627\u0644\u06cc\u06c1","name:right:lv":"It\u0101lija","name:left:hy":"\u0556\u0580\u0561\u0576\u057d\u056b\u0561","name:left:ht":"Frans","name:left:hu":"Franciaorsz\u00e1g","name:left:hr":"Francuska","sort_rank":262,"name:right:gd":"An Eadailt","osm_relation":true,"name:right:as":"\u0987\u099f\u09be\u09b2\u09c0","alt_name:right:cs":"\u0160v\u00fdcarsk\u00e1 konfederace","name:left:ja":"\u30d5\u30e9\u30f3\u30b9","name:right:et":"Itaalia","name:left:os":"\u0424\u0440\u0430\u043d\u0446","name:left:or":"\u0b2b\u0b4d\u0b30\u0b3e\u0b28\u0b4d\u0b38","name:right:pa":"\u0a07\u0a1f\u0a32\u0a40","name:right:ee":"Italy","name:left:vo":"Frans\u00e4n","name:left:oc":"Fran\u00e7a","name:right:eo":"Italujo","name:right:en":"Italy","name:left:vi":"Ph\u00e1p","name:left:ff":"Faransi","name:left:fa":"\u0641\u0631\u0627\u0646\u0633\u0647","name:left:fo":"Frakland","name:left:qu":"Ransiya","name:left:fi":"Ranska","name:right:ay":"Italiya","name:left:fy":"Frankryk","name:right:ja":"\u30a4\u30bf\u30ea\u30a2","name:right:ss":"INtaliyane","name:right:sr":"\u0418\u0442\u0430\u043b\u0438\u0458\u0430","name:right:sv":"Italien","name:right:sh":"Italija","name:right:sk":"Taliansko","name:right:sl":"Italija","name:right:so":"Talyaaniga","name:right:sa":"\u0907\u091f\u0932\u0940","name:right:sc":"It\u00e0lia","name:left:jv":"Prancis","id":-2202162,"name:right:sg":"Ital\u00f9ii","name:right:ca":"It\u00e0lia","name:right:se":"It\u00e1lia","name:right:ce":"\u0418\u0442\u0430\u043b\u0438","name:right:cy":"Yr Eidal","name:right:zh-yue":"\u610f\u5927\u5229","name:right:cs":"It\u00e1lie","name:right:cr":"\u1403\u1455\u14d6","name:right:cu":"\u0418\u0442\u0430\u043b\u0457\ua657","name:right:cv":"\u0418\u0442\u0430\u043b\u0438","name:left:as":"\u09ab\u09cd\u09f0\u09be\u09a8\u09cd\u09b8","name:left:ar":"\u0641\u0631\u0646\u0633\u0627","name:right:is":"\u00cdtal\u00eda","name:left:az":"Fransa","name:left:ay":"Phransiya","name:left:ro":"Fran\u021ba","name:left:af":"Frankryk","name:left:an":"Francia","name:left:am":"\u1348\u1228\u1295\u1223\u12ed","name:right:ru":"\u0418\u0442\u0430\u043b\u0438\u044f","name:left:ak":"Fr\u025bnkyeman","name:left:zh-yue":"\u6cd5\u570b","name:left:la":"Francia","name:right:qu":"Italya","alt_name:left:eo":"Francio","name:left:lg":"Bufalansa","name:left:su":"Perancis","name:left:li":"Frankriek","name:left:sw":"Ufaransa","name:left:sv":"Frankrike","name:left:sq":"Franca","name:right:hu":"Olaszorsz\u00e1g","name:left:ln":"Falansia","name:left:lo":"\u0e9b\u0eb0\u0ec0\u0e97\u0e94\u0e9d\u0eb0\u0ea5\u0eb1\u0ec8\u0e87","name:left:sm":"Farani","name:left:sl":"Francija","name:left:so":"Faransiiska","name:left:lt":"Pranc\u016bzija","name:left:sh":"Francuska","name:left:lv":"Francija","name:left:se":"Frankriika","name:left:sg":"Far\u00e2nzi","name:left:sa":"\u092b\u094d\u0930\u093e\u0928\u094d\u0938\u0926\u0947\u0936\u0903","name:right:he":"\u05d0\u05d9\u05d8\u05dc\u05d9\u05d4","name:left:sc":"Frantza","name:right:af":"Itali\u00eb","name:left:co":"Francia","name:right:ab":"\u0418\u0442\u0430\u043b\u0438\u0430","name:left:ce":"\u0424\u0440\u0430\u043d\u0446\u0438","name:right:am":"\u1323\u120d\u12eb\u1295","name:left:ca":"Fran\u00e7a","source":"openstreetmap.org","name:left:cy":"Ffrainc","name:right:ar":"\u0625\u064a\u0637\u0627\u0644\u064a\u0627","name:left:cu":"\u0424\u0440\u0430\u043d\u043a\u0457\ua657","name:left:cv":"\u0424\u0440\u0430\u043d\u0446\u0438","name:right:az":"\u0130taliya","name:left:cs":"Francie","name:right:ak":"Italy","name:right:li":"Itali\u00eb","name":"France - Italia","name:right:zu":"ITaliya","name:left:zu":"IFulansi","name:left:zh":"\u6cd5\u570b","name:right:zh":"\u610f\u5927\u5229","name:left:za":"Fazgoz","official_name:left":"R\u00e9publique fran\u00e7aise","name:left:uz":"Fransiya","name:right:fr":"Italie","name:left:ps":"\u0641\u0631\u0627\u0646\u0633\u0647","name:left:nv":"D\u00e1\u00e1ghahii Din\u00e9\u02bci\u02bc Bik\u00e9yah","name:left:ur":"\u0641\u0631\u0627\u0646\u0633","id:right":-365331,"name:left:uk":"\u0424\u0440\u0430\u043d\u0446\u0456\u044f","name:left:no":"Frankrike","name:left:nl":"Frankrijk","alt_name:right:eo":"Italio","name:right:fa":"\u0627\u06cc\u062a\u0627\u0644\u06cc\u0627","name:left:ne":"\u092b\u094d\u0930\u093e\u0928\u094d\u0938","name:left:ug":"\u0641\u0631\u0627\u0646\u0633\u0649\u064a\u06d5","name:left:na":"Prant","name:left:eo":"Francujo","name:left:el":"\u0393\u03b1\u03bb\u03bb\u03af\u03b1","name:left:pl":"Francja","name:left:es":"Francia","name:left:ss":"IFulansi","name:right:kk":"\u0418\u0442\u0430\u043b\u0438\u044f","name:left:eu":"Frantzia","name:left:et":"Prantsusmaa","name:right:tw":"Italy","name:right:oc":"It\u00e0lia","name:left:ia":"Francia","name:right:bs":"Italija","name:right:uz":"Italiya","name:right:os":"\u0418\u0442\u0430\u043b\u0438","name:right:or":"\u0b07\u0b1f\u0b3e\u0b32\u0b40","name:right:tl":"Italya","name:right:ku":"\u00cetalya","old_name:right:vi":"\u00dd \u0110\u1ea1i L\u1ee3i","name:right:ko":"\uc774\ud0c8\ub9ac\uc544","min_zoom":8.0,"name:right:te":"\u0c07\u0c1f\u0c32\u0c40","name:left:wo":"Faraas","name:left:ga":"An Fhrainc","name:right:tg":"\u0418\u0442\u043e\u043b\u0438\u0451","name:left:gd":"An Fhraing","name:left:gl":"Francia","name:left:gn":"Hy\u00e3sia","name:left:gu":"\u0aab\u0acd\u0ab0\u0abe\u0aa8\u0acd\u0ab8","name:left:gv":"Yn Rank","official_name:right":"Repubblica Italiana","name:left":"France","name:right:mk":"\u0418\u0442\u0430\u043b\u0438\u0458\u0430","name:right:mi":"It\u0101ria","name:right:ve":"Italy","name:right:mn":"\u0418\u0442\u0430\u043b\u0438","name:right:ml":"\u0d07\u0d31\u0d4d\u0d31\u0d32\u0d3f","name:right:vo":"Litaliy\u00e4n","name:right:vi":"\u00dd","name:right:my":"\u1021\u102e\u1010\u101c\u102e\u1014\u102d\u102f\u1004\u103a\u1004\u1036","name:right:ms":"Itali","name:right:mr":"\u0907\u091f\u0932\u0940","name:right:fy":"Itaalje","name:right:mt":"Italja","name:left:nn":"Frankrike","kind":"country","name:left:br":"Bro-C'hall","name:left:bs":"Francuska","name:left:ba":"\u0424\u0440\u0430\u043d\u0446\u0438\u044f","name:left:bg":"\u0424\u0440\u0430\u043d\u0446\u0438\u044f","name:right:kv":"\u0418\u0442\u0430\u043b\u0438\u044f","name:left:be":"\u0424\u0440\u0430\u043d\u0446\u044b\u044f","name:right:ff":"Italiya","name:left:bi":"Franis","name:left:bn":"\u09ab\u09cd\u09b0\u09be\u09a8\u09cd\u09b8","name:left:bo":"\u0f67\u0fa5\u0f0b\u0f62\u0f53\u0f0b\u0f66\u0f72\u0f0d","name:right":"Italia","name:left:yo":"Fr\u00e1ns\u00ec","name:left:yi":"\u05e4\u05e8\u05d0\u05e0\u05e7\u05e8\u05d9\u05d9\u05da","id:left":-2202162,"name:left:io":"Francia","name:right:ty":"\u2019It\u0101ria","name:left:ii":"\ua0d4\ua1e9","name:right:tt":"\u0418\u0442\u0430\u043b\u0438\u044f","name:left:ie":"Francia","name:left:id":"Perancis","name:right:km":"\u17a2\u17ca\u17b8\u178f\u17b6\u179b\u17b8","name:right:tr":"\u0130talya","name:right:kn":"\u0c87\u0c9f\u0cb2\u0cbf","name:left:pt":"Fran\u00e7a","name:right:th":"\u0e1b\u0e23\u0e30\u0e40\u0e17\u0e28\u0e2d\u0e34\u0e15\u0e32\u0e25\u0e35","name:right:kw":"Itali","name:right:tk":"Itali\u00fda","name:right:ky":"\u0418\u0442\u0430\u043b\u0438\u044f","name:left:zh-min-nan":"Hoat-kok","name:left:it":"Francia","name:left:is":"Frakkland","name:right:ta":"\u0b87\u0ba4\u0bcd\u0ba4\u0bbe\u0bb2\u0bbf","name:right:de":"Italien","name:right:da":"Italien","name:left:rn":"Francia","maritime_boundary":true,"name:right:dz":"\u0f68\u0f80\u0f4a\u0f0b\u0f63\u0f72\u0f0b","name:left:pa":"\u0a2b\u0a4d\u0a30\u0a3e\u0a02\u0a38","name:right:ht":"Itali"},"arcs":[0]},{"type":"LineString","properties":{"name:kg":"Fwalansa","name:ty":"Far\u0101ni","name:ka":"\u10e1\u10d0\u10e4\u10e0\u10d0\u10dc\u10d2\u10d4\u10d7\u10d8","name:ko":"\ud504\ub791\uc2a4","name:cv":"\u0424\u0440\u0430\u043d\u0446\u0438","name:cu":"\u0424\u0440\u0430\u043d\u043a\u0457\ua657","name:kl":"Frankrigi","name:cs":"Francie","name:ki":"Ubaranja","name:co":"Francia","name:kv":"\u0424\u0440\u0430\u043d\u0446\u0438\u044f","name:ku":"Fransa","name:ti":"\u1348\u1228\u1295\u1233\u12ed","name:ks":"\u0641\u0631\u065b\u0627\u0646\u0633","name:to":"Falanis\u0113","name:tl":"Pransiya","name:ce":"\u0424\u0440\u0430\u043d\u0446\u0438","name:ta":"\u0baa\u0bbf\u0bb0\u0bbe\u0ba9\u0bcd\u0b9a\u0bc1","name:tg":"\u0424\u0430\u0440\u043e\u043d\u0441\u0430","name:ca":"Fran\u00e7a","name:te":"\u0c2b\u0c4d\u0c30\u0c3e\u0c28\u0c4d\u0c38\u0c4d","name:cy":"Ffrainc","name:qu":"Ransiya","name:da":"Frankrig","name:de":"Frankreich","name:dz":"\u0f55\u0f62\u0f71\u0f53\u0f66\u0f72\u0f0b","source":"openstreetmap.org","name:kn":"\u0cab\u0ccd\u0cb0\u0cbe\u0ca8\u0ccd\u0cb8\u0ccd","name:dv":"\u078a\u07a6\u0783\u07a6\u0782\u07b0\u0790\u07ad\u0790\u07a8\u0788\u07a8\u078d\u07a7\u078c\u07b0","name:km":"\u1794\u17b6\u179a\u17b6\u17c6\u1784","name:lv":"Francija","name:lt":"Pranc\u016bzija","name:uz":"Fransiya","name:kk":"\u0424\u0440\u0430\u043d\u0446\u0438\u044f","name:ur":"\u0641\u0631\u0627\u0646\u0633","name:lb":"Frankr\u00e4ich","name:la":"Francia","name:lg":"Bufalansa","name:uk":"\u0424\u0440\u0430\u043d\u0446\u0456\u044f","name:ug":"\u0641\u0631\u0627\u0646\u0633\u0649\u064a\u06d5","name:li":"Frankriek","name:ln":"Falansia","name:lo":"\u0e9b\u0eb0\u0ec0\u0e97\u0e94\u0e9d\u0eb0\u0ea5\u0eb1\u0ec8\u0e87","name:el":"\u0393\u03b1\u03bb\u03bb\u03af\u03b1","name:eo":"Francujo","name":"France","name:tk":"Fransi\u00fda","name:th":"\u0e1b\u0e23\u0e30\u0e40\u0e17\u0e28\u0e1d\u0e23\u0e31\u0e48\u0e07\u0e40\u0e28\u0e2a","name:eu":"Frantzia","name:et":"Prantsusmaa","name:es":"Francia","name:ay":"Phransiya","name:rm":"Frantscha","name:rn":"Francia","name:az":"Fransa","name:ie":"Francia","name:id":"Perancis","name:ii":"\ua0d4\ua1e9","name:as":"\u09ab\u09cd\u09f0\u09be\u09a8\u09cd\u09b8","name:ar":"\u0641\u0631\u0646\u0633\u0627","name:io":"Francia","name:ak":"Fr\u025bnkyeman","name:am":"\u1348\u1228\u1295\u1223\u12ed","name:it":"Francia","name:an":"Francia","name:ru":"\u0424\u0440\u0430\u043d\u0446\u0438\u044f","name:rw":"Ubufaransa","name:af":"Frankryk","name:zu":"IFulansi","kind_detail":"2","name:za":"Fazgoz","name:zh-yue":"\u6cd5\u570b","name:zh":"\u6cd5\u570b","name:so":"Faransiiska","name:sm":"Farani","name:sl":"Francija","name:sk":"Franc\u00fazsko","name:ja":"\u30d5\u30e9\u30f3\u30b9","name:si":"\u0db4\u0dca\u200d\u0dbb\u0d82\u0dc1\u0dba","name:sh":"Francuska","name:sg":"Far\u00e2nzi","name:se":"Frankriika","name:sc":"Frantza","name:br":"Bro-C'hall","name:bs":"Francuska","name:bn":"\u09ab\u09cd\u09b0\u09be\u09a8\u09cd\u09b8","name:bo":"\u0f67\u0fa5\u0f0b\u0f62\u0f53\u0f0b\u0f66\u0f72\u0f0d","name:bi":"Franis","name:sw":"Ufaransa","name:be":"\u0424\u0440\u0430\u043d\u0446\u044b\u044f","name:su":"Perancis","name:bg":"\u0424\u0440\u0430\u043d\u0446\u0438\u044f","name:ss":"IFulansi","name:ba":"\u0424\u0440\u0430\u043d\u0446\u0438\u044f","name:sq":"Franca","name:jv":"Prancis","name:sa":"\u092b\u094d\u0930\u093e\u0928\u094d\u0938\u0926\u0947\u0936\u0903","name:ia":"Francia","name:pt":"Fran\u00e7a","name:ps":"\u0641\u0631\u0627\u0646\u0633\u0647","name:oc":"Fran\u00e7a","min_zoom":8.0,"name:ro":"Fran\u021ba","name:zh-min-nan":"Hoat-kok","name:os":"\u0424\u0440\u0430\u043d\u0446","name:or":"\u0b2b\u0b4d\u0b30\u0b3e\u0b28\u0b4d\u0b38","name:pl":"Francja","name:st":"Fora","sort_rank":262,"name:sr":"\u0424\u0440\u0430\u043d\u0446\u0443\u0441\u043a\u0430","osm_relation":true,"name:pa":"\u0a2b\u0a4d\u0a30\u0a3e\u0a02\u0a38","name:tr":"Fransa","name:hi":"\u092b\u093c\u094d\u0930\u093e\u0928\u094d\u0938","name:sv":"Frankrike","name:he":"\u05e6\u05e8\u05e4\u05ea","name:ha":"Faransa","name:hy":"\u0556\u0580\u0561\u0576\u057d\u056b\u0561","name:ht":"Frans","name:hu":"Franciaorsz\u00e1g","name:hr":"Francuska","kind":"country","name:is":"Frakkland","name:yi":"\u05e4\u05e8\u05d0\u05e0\u05e7\u05e8\u05d9\u05d9\u05da","name:yo":"Fr\u00e1ns\u00ec","name:mt":"Franza","alt_name:eo":"Francio","name:ms":"Perancis","name:mr":"\u092b\u094d\u0930\u093e\u0928\u094d\u0938","name:my":"\u1015\u103c\u1004\u103a\u101e\u1005\u103a\u1014\u102d\u102f\u1004\u103a\u1004\u1036","official_name":"R\u00e9publique fran\u00e7aise","name:kw":"Pow Frynk","name:mg":"Frantsa","name:vi":"Ph\u00e1p","name:ml":"\u0d2b\u0d4d\u0d30\u0d3e\u0d7b\u0d38\u0d4d","name:mn":"\u0424\u0440\u0430\u043d\u0446","name:mi":"W\u012bw\u012b","id":-2202162,"name:mk":"\u0424\u0440\u0430\u043d\u0446\u0438\u0458\u0430","name:vo":"Frans\u00e4n","name:fa":"\u0641\u0631\u0627\u0646\u0633\u0647","name:ff":"Faransi","name:fi":"Ranska","name:ky":"\u0424\u0440\u0430\u043d\u0446\u0438\u044f","name:fo":"Frakland","name:fy":"Frankryk","name:nl":"Frankrijk","name:nn":"Frankrike","name:no":"Frankrike","name:na":"Prant","name:ne":"\u092b\u094d\u0930\u093e\u0928\u094d\u0938","name:wo":"Faraas","name:nv":"D\u00e1\u00e1ghahii Din\u00e9\u02bci\u02bc Bik\u00e9yah","name:ga":"An Fhrainc","name:gd":"An Fhraing","name:gn":"Hy\u00e3sia","name:gl":"Francia","maritime_boundary":true,"name:gv":"Yn Rank","name:gu":"\u0aab\u0acd\u0ab0\u0abe\u0aa8\u0acd\u0ab8","name:tt":"\u0424\u0440\u0430\u043d\u0446\u0438\u044f"},"arcs":[1]},{"type":"LineString","properties":{"name:ty":"\u2019It\u0101ria","name:ka":"\u10d8\u10e2\u10d0\u10da\u10d8\u10d0","name:ko":"\uc774\ud0c8\ub9ac\uc544","name:cv":"\u0418\u0442\u0430\u043b\u0438","name:cu":"\u0418\u0442\u0430\u043b\u0457\ua657","name:cs":"It\u00e1lie","name:cr":"\u1403\u1455\u14d6","name:tt":"\u0418\u0442\u0430\u043b\u0438\u044f","name:kw":"Itali","name:kv":"\u0418\u0442\u0430\u043b\u0438\u044f","name:th":"\u0e1b\u0e23\u0e30\u0e40\u0e17\u0e28\u0e2d\u0e34\u0e15\u0e32\u0e25\u0e35","alt_name:cs":"\u0160v\u00fdcarsk\u00e1 konfederace","name:tl":"Italya","name:ce":"\u0418\u0442\u0430\u043b\u0438","name:ta":"\u0b87\u0ba4\u0bcd\u0ba4\u0bbe\u0bb2\u0bbf","name:tg":"\u0418\u0442\u043e\u043b\u0438\u0451","name:ca":"It\u00e0lia","name:te":"\u0c07\u0c1f\u0c32\u0c40","name:cy":"Yr Eidal","name:qu":"Italya","name:da":"Italien","name:de":"Italien","name:dz":"\u0f68\u0f80\u0f4a\u0f0b\u0f63\u0f72\u0f0b","source":"openstreetmap.org","name:kn":"\u0c87\u0c9f\u0cb2\u0cbf","name:dv":"\u0787\u07a8\u0793\u07a6\u078d\u07a9\u0788\u07a8\u078d\u07a7\u078c\u07b0","name:km":"\u17a2\u17ca\u17b8\u178f\u17b6\u179b\u17b8","name:lv":"It\u0101lija","name:lt":"Italija","name:uz":"Italiya","name:kk":"\u0418\u0442\u0430\u043b\u0438\u044f","name:tw":"Italy","name:lb":"Italien","name:lg":"Yitale","name:uk":"\u0406\u0442\u0430\u043b\u0456\u044f","name:ug":"\u0626\u0649\u062a\u0627\u0644\u0649\u064a\u06d5","name:li":"Itali\u00eb","name:ln":"Italya","name:lo":"\u0ead\u0eb4\u0e95\u0eb2\u0ea5\u0eb5","name:el":"\u0399\u03c4\u03b1\u03bb\u03af\u03b1","name:eo":"Italujo","name:en":"Italy","name":"Italia","name:tk":"Itali\u00fda","name:ee":"Italy","name:ku":"\u00cetalya","name:et":"Itaalia","name:ay":"Italiya","name:az":"\u0130taliya","name:as":"\u0987\u099f\u09be\u09b2\u09c0","name:ar":"\u0625\u064a\u0637\u0627\u0644\u064a\u0627","name:ak":"Italy","name:am":"\u1323\u120d\u12eb\u1295","name:ru":"\u0418\u0442\u0430\u043b\u0438\u044f","name:ab":"\u0418\u0442\u0430\u043b\u0438\u0430","name:af":"Itali\u00eb","name:zu":"ITaliya","kind_detail":"2","name:ky":"\u0418\u0442\u0430\u043b\u0438\u044f","name:zh-yue":"\u610f\u5927\u5229","name:zh":"\u610f\u5927\u5229","name:so":"Talyaaniga","name:sl":"Italija","name:sk":"Taliansko","name:ja":"\u30a4\u30bf\u30ea\u30a2","name:sh":"Italija","name:sg":"Ital\u00f9ii","name:se":"It\u00e1lia","name:sc":"It\u00e0lia","name:sa":"\u0907\u091f\u0932\u0940","name:bs":"Italija","name:bn":"\u0987\u09a4\u09be\u09b2\u09bf","name:bo":"\u0f68\u0f72\u0f0b\u0f4f\u0f0b\u0f63\u0f72\u0f0d","name:bi":"Itali","name:be":"\u0406\u0442\u0430\u043b\u0456\u044f","name:bg":"\u0418\u0442\u0430\u043b\u0438\u044f","name:ss":"INtaliyane","name:ba":"\u0418\u0442\u0430\u043b\u0438\u044f","osm_relation":true,"name:pt":"It\u00e1lia","name:ps":"\u0627\u06d0\u067c\u0627\u0644\u064a\u0627","name:oc":"It\u00e0lia","min_zoom":8.0,"name:pa":"\u0a07\u0a1f\u0a32\u0a40","name:os":"\u0418\u0442\u0430\u043b\u0438","name:or":"\u0b07\u0b1f\u0b3e\u0b32\u0b40","name:pl":"W\u0142ochy","sort_rank":262,"name:sr":"\u0418\u0442\u0430\u043b\u0438\u0458\u0430","name:tr":"\u0130talya","name:hi":"\u0907\u091f\u0932\u0940","name:sv":"Italien","name:he":"\u05d0\u05d9\u05d8\u05dc\u05d9\u05d4","name:hy":"\u053b\u057f\u0561\u056c\u056b\u0561","name:ht":"Itali","name:hu":"Olaszorsz\u00e1g","name:hr":"Italija","kind":"country","name:is":"\u00cdtal\u00eda","name:yi":"\u05d0\u05d9\u05d8\u05d0\u05dc\u05d9\u05e2","name:yo":"It\u00e1l\u00ed\u00e0","name:mt":"Italja","alt_name:eo":"Italio","name:ms":"Itali","name:mr":"\u0907\u091f\u0932\u0940","name:my":"\u1021\u102e\u1010\u101c\u102e\u1014\u102d\u102f\u1004\u103a\u1004\u1036","official_name":"Repubblica Italiana","name:ve":"Italy","name:vi":"\u00dd","name:ml":"\u0d07\u0d31\u0d4d\u0d31\u0d32\u0d3f","name:mn":"\u0418\u0442\u0430\u043b\u0438","name:mi":"It\u0101ria","id":-365331,"name:mk":"\u0418\u0442\u0430\u043b\u0438\u0458\u0430","name:vo":"Litaliy\u00e4n","name:fa":"\u0627\u06cc\u062a\u0627\u0644\u06cc\u0627","name:rw":"Ubutaliyani","name:ff":"Italiya","old_name:vi":"\u00dd \u0110\u1ea1i L\u1ee3i","alt_name:vi":"I-ta-li-a","name:fr":"Italie","name:fy":"Itaalje","name:nl":"Itali\u00eb","name:na":"Itari","name:ne":"\u0907\u091f\u093e\u0932\u0940","name:wa":"It\u00e5leye","name:ur":"\u0627\u0637\u0627\u0644\u06cc\u06c1","name:wo":"Itaali","name:nv":"\u00cddelii","name:ga":"An Iod\u00e1il","name:gd":"An Eadailt","name:gn":"It\u00e1lia","maritime_boundary":true,"name:gv":"Yn Iddaal","name:gu":"\u0a88\u0a9f\u0ab2\u0ac0"},"arcs":[2]},{"type":"LineString","properties":{"name:sl":"Toskana","name:sk":"Tosk\u00e1nsko","short_name":"TOS","name:cs":"Tosk\u00e1nsko","kind":"region","min_zoom":8.0,"name:la":"Tuscia","name:ru":"\u0422\u043e\u0441\u043a\u0430\u043d\u0430","name:pl":"Toskania","id":-41977,"osm_relation":true,"name:eo":"Toskanio","name:en":"Tuscany","name":"Toscana","sort_rank":256,"kind_detail":"4","name:fr":"Toscane","name:de":"Toskana","source":"openstreetmap.org","maritime_boundary":true},"arcs":[3]},{"type":"LineString","properties":{"name:sl":"Toskana","name:sk":"Tosk\u00e1nsko","short_name":"TOS","name:cs":"Tosk\u00e1nsko","kind":"region","min_zoom":8.0,"name:la":"Tuscia","name:ru":"\u0422\u043e\u0441\u043a\u0430\u043d\u0430","name:pl":"Toskania","id":-41977,"osm_relation":true,"name:eo":"Toskanio","name:en":"Tuscany","name":"Toscana","sort_rank":256,"kind_detail":"4","name:fr":"Toscane","name:de":"Toskana","source":"openstreetmap.org","maritime_boundary":true},"arcs":[4]}]},"roads":{"type":"GeometryCollection","geometries":[{"type":"LineString","properties":{"kind":"minor_road","sort_rank":360,"landuse_kind":"residential","is_bicycle_related":true,"bicycle_shield_text":"BI-16","bicycle_network":"ncn","source":"openstreetmap.org","min_zoom":8.0,"kind_detail":"unclassified"},"arcs":[55]},{"type":"MultiLineString","properties":{"kind":"major_road","network":"e-road","sort_rank":381,"kind_detail":"trunk","source":"openstreetmap.org","min_zoom":8.0,"shield_text":"80","ref":"SS1"},"arcs":[[56],[57],[58],[59],[60],[61],[62],[63],[64],[65],[66],[67],[68],[69],[70],[71],[72],[73],[74],[75],[76],[77],[78],[79],[80],[81],[82],[83],[84],[85],[86],[87],[88]]},{"type":"LineString","properties":{"kind":"major_road","sort_rank":379,"kind_detail":"secondary","is_bicycle_related":true,"bicycle_shield_text":"BI-16","bicycle_network":"ncn","source":"openstreetmap.org","min_zoom":8.0,"ref":"SP23"},"arcs":[89]},{"type":"LineString","properties":{"kind":"path","sort_rank":354,"landuse_kind":"urban_area","is_bicycle_related":true,"bicycle_shield_text":"BI-16","bicycle_network":"ncn","source":"openstreetmap.org","min_zoom":8.0,"kind_detail":"footway"},"arcs":[90]},{"type":"MultiLineString","properties":{"kind":"major_road","network":null,"sort_rank":380,"kind_detail":"primary","source":"openstreetmap.org","min_zoom":8.0,"shield_text":"398","ref":"SS398"},"arcs":[[91],[92],[93],[94],[95]]},{"type":"MultiLineString","properties":{"kind":"path","footway":"crossing","sort_rank":354,"landuse_kind":"residential","is_bicycle_related":true,"bicycle_shield_text":"BI 16","bicycle_network":"ncn","source":"openstreetmap.org","min_zoom":8.0,"kind_detail":"footway"},"arcs":[[96],[97],[98],[99]]},{"type":"LineString","properties":{"kind":"major_road","network":"IT:Toscana","sort_rank":380,"kind_detail":"primary","source":"openstreetmap.org","min_zoom":8.0,"landuse_kind":"urban_area","shield_text":"398","ref":"SR398"},"arcs":[100]},{"type":"LineString","properties":{"source":"openstreetmap.org","kind":"ferry","name":"Cavo - Piombino","sort_rank":355,"min_zoom":8.0,"id":112571816},"arcs":[101]},{"type":"LineString","properties":{"kind":"major_road","network":"IT:GR","sort_rank":380,"kind_detail":"primary","is_bicycle_related":true,"bicycle_shield_text":"BI 16","bicycle_network":"ncn","source":"openstreetmap.org","min_zoom":8.0,"shield_text":"154","ref":"SP154"},"arcs":[102]},{"type":"MultiLineString","properties":{"kind":"major_road","network":null,"sort_rank":381,"kind_detail":"trunk","source":"openstreetmap.org","min_zoom":8.0,"shield_text":"398","ref":"SS398"},"arcs":[[103],[104],[105],[106]]},{"type":"LineString","properties":{"source":"openstreetmap.org","kind":"ferry","name":"Pianosa - Rio Marina","sort_rank":355,"landuse_kind":"national_park","min_zoom":8.0,"id":121536908},"arcs":[107]},{"type":"MultiLineString","properties":{"source":"openstreetmap.org","kind":"major_road","sort_rank":380,"kind_detail":"primary","ref":"SP158","min_zoom":8.0},"arcs":[[108],[109],[110]]},{"type":"LineString","properties":{"kind":"path","sort_rank":354,"landuse_kind":"residential","is_bicycle_related":true,"bicycle_shield_text":"BI-16","bicycle_network":"ncn","source":"openstreetmap.org","min_zoom":8.0,"kind_detail":"cycleway"},"arcs":[111]},{"type":"MultiLineString","properties":{"kind":"major_road","network":"IT:Toscana","sort_rank":380,"kind_detail":"primary","source":"openstreetmap.org","min_zoom":8.0,"shield_text":"74","ref":"SR74"},"arcs":[[112],[113],[114],[115],[116],[117]]},{"type":"LineString","properties":{"kind":"major_road","sort_rank":377,"landuse_kind":"residential","is_bicycle_related":true,"bicycle_shield_text":"BI-16","bicycle_network":"ncn","source":"openstreetmap.org","min_zoom":8.0,"kind_detail":"tertiary"},"arcs":[118]},{"type":"LineString","properties":{"kind":"major_road","network":"IT:GR","sort_rank":380,"kind_detail":"primary","source":"openstreetmap.org","min_zoom":8.0,"shield_text":"160","ref":"SP160"},"arcs":[119]},{"type":"LineString","properties":{"kind":"major_road","network":"IT:LI","sort_rank":380,"kind_detail":"primary","source":"openstreetmap.org","min_zoom":8.0,"shield_text":"39","ref":"SP39","id":13873690},"arcs":[120]},{"type":"LineString","properties":{"kind":"minor_road","sort_rank":360,"kind_detail":"unclassified","is_bicycle_related":true,"cycleway_right":"lane","bicycle_shield_text":"BI-16","bicycle_network":"ncn","source":"openstreetmap.org","min_zoom":8.0},"arcs":[121]},{"type":"MultiLineString","properties":{"kind":"minor_road","sort_rank":360,"landuse_kind":"residential","is_bicycle_related":true,"cycleway_right":"lane","bicycle_shield_text":"BI-16","bicycle_network":"ncn","source":"openstreetmap.org","min_zoom":8.0,"kind_detail":"residential"},"arcs":[[122],[123]]},{"type":"LineString","properties":{"kind":"major_road","network":"IT:GR","sort_rank":380,"kind_detail":"primary","source":"openstreetmap.org","min_zoom":8.0,"landuse_kind":"urban_area","shield_text":"152","ref":"SP152","id":25643836},"arcs":[124]},{"type":"LineString","properties":{"kind":"major_road","network":"IT:GR","sort_rank":379,"kind_detail":"secondary","is_bicycle_related":true,"bicycle_shield_text":"BI 16","cycleway":"track","source":"openstreetmap.org","min_zoom":8.0,"shield_text":"158","bicycle_network":"ncn","id":507130682},"arcs":[125]},{"type":"LineString","properties":{"kind":"major_road","sort_rank":377,"kind_detail":"tertiary","is_bicycle_related":true,"bicycle_shield_text":"BI 16","bicycle_network":"ncn","source":"openstreetmap.org","min_zoom":8.0,"ref":"SP9"},"arcs":[126]},{"type":"LineString","properties":{"sort_rank":355,"source":"openstreetmap.org","min_zoom":8.0,"name":"Genova-Palermo","kind":"ferry"},"arcs":[127]},{"type":"LineString","properties":{"kind":"major_road","sort_rank":379,"kind_detail":"secondary","is_bicycle_related":true,"bicycle_shield_text":"BI-16","bicycle_network":"ncn","source":"openstreetmap.org","min_zoom":8.0,"landuse_kind":"urban_area","ref":"SP23ter","id":484824994},"arcs":[128]},{"type":"LineString","properties":{"source":"openstreetmap.org","kind":"major_road","sort_rank":380,"kind_detail":"primary","ref":"SP160","min_zoom":8.0,"id":505431506},"arcs":[129]},{"type":"LineString","properties":{"kind":"minor_road","sort_rank":360,"kind_detail":"unclassified","is_bicycle_related":true,"bicycle_shield_text":"BI 16","bicycle_network":"ncn","source":"openstreetmap.org","min_zoom":8.0,"landuse_kind":"urban_area","id":392691137},"arcs":[130]},{"type":"LineString","properties":{"sort_rank":355,"source":"openstreetmap.org","min_zoom":8.0,"name":"Golfo Aranci - Livorno","kind":"ferry"},"arcs":[131]},{"type":"LineString","properties":{"kind":"minor_road","sort_rank":360,"kind_detail":"residential","is_bicycle_related":true,"bicycle_shield_text":"BI 16","bicycle_network":"ncn","source":"openstreetmap.org","min_zoom":8.0,"id":507130702},"arcs":[132]},{"type":"LineString","properties":{"kind":"minor_road","sort_rank":360,"kind_detail":"unclassified","is_bicycle_related":true,"bicycle_shield_text":"BI-16","bicycle_network":"ncn","source":"openstreetmap.org","min_zoom":8.0,"old_name":"Ferrovia Carbonifera - Montebamboli"},"arcs":[133]},{"type":"LineString","properties":{"kind":"major_road","network":"IT:GR","sort_rank":380,"kind_detail":"primary","source":"openstreetmap.org","min_zoom":8.0,"landuse_kind":"nature_reserve","shield_text":"158","ref":"SP158","id":80320508},"arcs":[134]},{"type":"MultiLineString","properties":{"kind":"major_road","network":"IT:Toscana","sort_rank":380,"kind_detail":"primary","source":"openstreetmap.org","min_zoom":8.0,"landuse_kind":"urban_area","shield_text":"439","ref":"SR439"},"arcs":[[135],[136],[137]]},{"type":"LineString","properties":{"kind":"minor_road","cycleway_left":"lane","sort_rank":360,"kind_detail":"residential","is_bicycle_related":true,"bicycle_shield_text":"BI 16","bicycle_network":"ncn","source":"openstreetmap.org","min_zoom":8.0},"arcs":[138]},{"type":"LineString","properties":{"kind":"major_road","network":"IT:GR","sort_rank":377,"kind_detail":"tertiary","is_bicycle_related":true,"bicycle_shield_text":"BI 16","bicycle_network":"ncn","source":"openstreetmap.org","min_zoom":8.0,"shield_text":"30","ref":"SP30"},"arcs":[139]},{"type":"MultiLineString","properties":{"kind":"path","sort_rank":354,"kind_detail":"cycleway","is_bicycle_related":true,"bicycle_shield_text":"BI 16","bicycle_network":"ncn","source":"openstreetmap.org","min_zoom":8.0,"landuse_kind":"residential"},"arcs":[[140],[141],[142]]},{"type":"LineString","properties":{"kind":"path","sort_rank":354,"kind_detail":"track","is_bicycle_related":true,"bicycle_shield_text":"BI 16","bicycle_network":"ncn","source":"openstreetmap.org","min_zoom":8.0,"landuse_kind":"urban_area"},"arcs":[143]},{"type":"MultiLineString","properties":{"kind":"major_road","network":"IT:LI","sort_rank":379,"kind_detail":"secondary","is_bicycle_related":true,"bicycle_shield_text":"BI-16","bicycle_network":"ncn","source":"openstreetmap.org","min_zoom":8.0,"shield_text":"39"},"arcs":[[144],[145],[146],[147]]},{"type":"LineString","properties":{"kind":"major_road","network":"IT:GR","sort_rank":380,"kind_detail":"primary","source":"openstreetmap.org","min_zoom":8.0,"shield_text":"152","ref":"SP152"},"arcs":[148]},{"type":"MultiLineString","properties":{"kind":"minor_road","sort_rank":360,"kind_detail":"residential","is_bicycle_related":true,"cycleway_right":"track","bicycle_shield_text":"BI 16","bicycle_network":"ncn","source":"openstreetmap.org","min_zoom":8.0},"arcs":[[149],[150]]},{"type":"LineString","properties":{"kind":"path","sort_rank":354,"kind_detail":"footway","is_bicycle_related":true,"bicycle_shield_text":"BI 16","bicycle_network":"ncn","source":"openstreetmap.org","min_zoom":8.0,"landuse_kind":"residential","id":507130665},"arcs":[151]},{"type":"MultiLineString","properties":{"kind":"major_road","network":"IT:Toscana","sort_rank":379,"kind_detail":"secondary","is_bicycle_related":true,"bicycle_shield_text":"BI-16","bicycle_network":"ncn","source":"openstreetmap.org","min_zoom":8.0,"shield_text":"398"},"arcs":[[152],[153],[154],[155],[156]]},{"type":"MultiLineString","properties":{"source":"openstreetmap.org","kind":"major_road","landuse_kind":"urban_area","sort_rank":380,"kind_detail":"primary","min_zoom":8.0},"arcs":[[157],[158],[159],[160],[161]]},{"type":"MultiLineString","properties":{"sort_rank":355,"source":"openstreetmap.org","min_zoom":8.0,"kind":"ferry"},"arcs":[[162],[163],[164],[165],[166],[167],[168],[169],[170],[171],[172]]},{"type":"MultiLineString","properties":{"kind":"major_road","network":"IT:GR","sort_rank":380,"kind_detail":"primary","source":"openstreetmap.org","min_zoom":8.0,"landuse_kind":"residential","shield_text":"154"},"arcs":[[173],[174],[175],[176],[177]]},{"type":"MultiLineString","properties":{"kind":"major_road","sort_rank":379,"kind_detail":"secondary","is_bicycle_related":true,"bicycle_shield_text":"BI-16","bicycle_network":"ncn","source":"openstreetmap.org","min_zoom":8.0,"ref":"SP23ter"},"arcs":[[178],[179],[180]]},{"type":"LineString","properties":{"kind":"major_road","sort_rank":377,"kind_detail":"tertiary","is_bicycle_related":true,"bicycle_shield_text":"BI 16","bicycle_network":"ncn","source":"openstreetmap.org","min_zoom":8.0,"ref":"SP16"},"arcs":[181]},{"type":"MultiLineString","properties":{"kind":"minor_road","sort_rank":360,"landuse_kind":"urban_area","is_bicycle_related":true,"bicycle_shield_text":"BI-16","bicycle_network":"ncn","source":"openstreetmap.org","min_zoom":8.0,"kind_detail":"unclassified"},"arcs":[[182],[183],[184],[185]]},{"type":"MultiLineString","properties":{"source":"openstreetmap.org","kind":"major_road","network":"IT:GR","sort_rank":380,"kind_detail":"primary","min_zoom":8.0,"shield_text":"158"},"arcs":[[186],[187],[188],[189],[190],[191],[192]]},{"type":"MultiLineString","properties":{"kind":"major_road","sort_rank":377,"landuse_kind":"urban_area","is_bicycle_related":true,"bicycle_shield_text":"BI-16","bicycle_network":"ncn","source":"openstreetmap.org","min_zoom":8.0,"kind_detail":"tertiary"},"arcs":[[193],[194]]},{"type":"MultiLineString","properties":{"kind":"major_road","network":"e-road","sort_rank":381,"kind_detail":"trunk","source":"openstreetmap.org","min_zoom":8.0,"shield_text":"78","ref":"SS223"},"arcs":[[195],[196]]},{"type":"LineString","properties":{"kind":"major_road","network":"IT:LI","sort_rank":379,"kind_detail":"secondary","is_bicycle_related":true,"bicycle_shield_text":"BI-16","bicycle_network":"ncn","source":"openstreetmap.org","min_zoom":8.0,"shield_text":"39","ref":"SP39","id":172285574},"arcs":[197]},{"type":"MultiLineString","properties":{"kind":"major_road","network":"IT:Toscana","sort_rank":377,"kind_detail":"tertiary","is_bicycle_related":true,"bicycle_shield_text":"BI-16","bicycle_network":"ncn","source":"openstreetmap.org","min_zoom":8.0,"shield_text":"398"},"arcs":[[198],[199],[200]]},{"type":"MultiLineString","properties":{"kind":"major_road","network":"IT:Toscana","sort_rank":380,"kind_detail":"primary","source":"openstreetmap.org","min_zoom":8.0,"shield_text":"439","ref":"SR439"},"arcs":[[201],[202],[203],[204],[205],[206],[207],[208],[209],[210],[211],[212],[213],[214],[215],[216],[217],[218],[219],[220],[221],[222]]},{"type":"LineString","properties":{"kind":"major_road","network":"IT:GR","sort_rank":380,"kind_detail":"primary","source":"openstreetmap.org","min_zoom":8.0,"landuse_kind":"urban_area","shield_text":"158"},"arcs":[223]},{"type":"LineString","properties":{"kind":"major_road","network":"IT:Toscana","sort_rank":380,"kind_detail":"primary","is_bicycle_related":true,"bicycle_shield_text":"BI-16","bicycle_network":"ncn","source":"openstreetmap.org","min_zoom":8.0,"shield_text":"398","ref":"SR398","id":194193405},"arcs":[224]},{"type":"LineString","properties":{"source":"openstreetmap.org","kind":"major_road","landuse_kind":"residential","sort_rank":380,"kind_detail":"primary","ref":"SP158","min_zoom":8.0},"arcs":[225]},{"type":"LineString","properties":{"kind":"major_road","network":"IT:GR","sort_rank":380,"kind_detail":"primary","source":"openstreetmap.org","min_zoom":8.0,"landuse_kind":"urban_area","shield_text":"154","id":188922137},"arcs":[226]},{"type":"MultiLineString","properties":{"kind":"major_road","network":"e-road","sort_rank":381,"landuse_kind":"urban_area","source":"openstreetmap.org","min_zoom":8.0,"kind_detail":"trunk","shield_text":"80","ref":"SS1"},"arcs":[[227],[228],[229],[230]]},{"type":"MultiLineString","properties":{"kind":"major_road","network":"IT:GR","sort_rank":380,"kind_detail":"primary","source":"openstreetmap.org","min_zoom":8.0,"landuse_kind":"urban_area","shield_text":"158","ref":"SP158"},"arcs":[[231],[232],[233],[234]]},{"type":"MultiLineString","properties":{"kind":"major_road","network":"e-road","sort_rank":381,"kind_detail":"trunk","source":"openstreetmap.org","min_zoom":8.0,"landuse_kind":"nature_reserve","shield_text":"80","ref":"SS1"},"arcs":[[235],[236]]},{"type":"LineString","properties":{"kind":"major_road","network":"IT:LI","sort_rank":377,"kind_detail":"tertiary","is_bicycle_related":true,"bicycle_shield_text":"BI-16","bicycle_network":"ncn","source":"openstreetmap.org","min_zoom":8.0,"old_name":"Ferrovia Carbonifera - Montebamboli","shield_text":"21","ref":"SP21","id":417400658},"arcs":[237]},{"type":"MultiLineString","properties":{"sort_rank":380,"kind_detail":"primary","min_zoom":8.0,"kind":"major_road","source":"openstreetmap.org"},"arcs":[[238],[239],[240],[241],[242],[243],[244],[245],[246],[247],[248],[249],[250],[251],[252],[253],[254],[255],[256],[257],[258],[259],[260],[261]]},{"type":"MultiLineString","properties":{"kind":"major_road","network":"IT:GR","sort_rank":380,"kind_detail":"primary","source":"openstreetmap.org","min_zoom":8.0,"landuse_kind":"residential","shield_text":"158"},"arcs":[[262],[263],[264],[265],[266]]},{"type":"LineString","properties":{"kind":"minor_road","sort_rank":360,"kind_detail":"living_street","is_bicycle_related":true,"bicycle_shield_text":"BI-16","bicycle_network":"ncn","source":"openstreetmap.org","min_zoom":8.0,"landuse_kind":"residential","id":31190983},"arcs":[267]},{"type":"LineString","properties":{"kind":"major_road","network":"IT:GR","sort_rank":380,"kind_detail":"primary","source":"openstreetmap.org","min_zoom":8.0,"shield_text":"154","id":188922137},"arcs":[268]},{"type":"MultiLineString","properties":{"kind":"major_road","network":"IT:LI","sort_rank":377,"kind_detail":"tertiary","is_bicycle_related":true,"bicycle_shield_text":"BI-16","bicycle_network":"ncn","source":"openstreetmap.org","min_zoom":8.0,"shield_text":"21","ref":"SP21"},"arcs":[[269],[270]]},{"type":"LineString","properties":{"kind":"minor_road","sort_rank":360,"kind_detail":"unclassified","is_bicycle_related":true,"bicycle_shield_text":"BI 16","bicycle_network":"ncn","source":"openstreetmap.org","min_zoom":8.0,"landuse_kind":"residential","id":392691137},"arcs":[271]},{"type":"MultiLineString","properties":{"kind":"major_road","network":"IT:GR","sort_rank":380,"kind_detail":"primary","source":"openstreetmap.org","min_zoom":8.0,"landuse_kind":"residential","shield_text":"158","ref":"SP158"},"arcs":[[272],[273],[274],[275],[276],[277],[278],[279],[280],[281],[282],[283],[284],[285],[286],[287],[288],[289],[290],[291],[292],[293],[294],[295],[296],[297],[298],[299],[300],[301],[302],[303],[304],[305],[306],[307],[308],[309],[310],[311],[312],[313],[314],[315],[316],[317],[318],[319],[320],[321],[322],[323],[324],[325],[326],[327],[328],[329],[330],[331]]},{"type":"LineString","properties":{"kind":"major_road","network":"IT:GR","sort_rank":380,"kind_detail":"primary","source":"openstreetmap.org","min_zoom":8.0,"landuse_kind":"residential","shield_text":"158","ref":"SR439","id":57889300},"arcs":[332]},{"type":"MultiLineString","properties":{"kind":"path","sort_rank":354,"landuse_kind":"residential","is_bicycle_related":true,"bicycle_shield_text":"BI-16","bicycle_network":"ncn","source":"openstreetmap.org","min_zoom":8.0,"kind_detail":"pedestrian"},"arcs":[[333],[334]]},{"type":"MultiLineString","properties":{"kind":"major_road","network":"IT:GR","sort_rank":380,"kind_detail":"primary","source":"openstreetmap.org","min_zoom":8.0,"shield_text":"158","ref":"SP158"},"arcs":[[335],[336],[337],[338],[339],[340],[341],[342],[343],[344],[345],[346],[347],[348],[349]]},{"type":"MultiLineString","properties":{"cycleway_right":"track","network":"IT:GR","sort_rank":379,"kind_detail":"secondary","is_bicycle_related":true,"kind":"major_road","bicycle_shield_text":"BI 16","bicycle_network":"ncn","source":"openstreetmap.org","min_zoom":8.0,"shield_text":"158"},"arcs":[[350],[351],[352]]},{"type":"MultiLineString","properties":{"cycleway_right":"lane","network":"IT:GR","sort_rank":379,"kind_detail":"secondary","is_bicycle_related":true,"kind":"major_road","bicycle_shield_text":"BI 16","bicycle_network":"ncn","source":"openstreetmap.org","min_zoom":8.0,"shield_text":"158"},"arcs":[[353],[354],[355]]},{"type":"LineString","properties":{"kind":"major_road","network":"IT:GR","sort_rank":380,"kind_detail":"primary","is_bicycle_related":true,"bicycle_shield_text":"BI-16","bicycle_network":"ncn","source":"openstreetmap.org","min_zoom":8.0,"shield_text":"158","ref":"SP158"},"arcs":[356]},{"type":"MultiLineString","properties":{"kind":"major_road","network":null,"sort_rank":381,"landuse_kind":"urban_area","source":"openstreetmap.org","min_zoom":8.0,"kind_detail":"trunk","shield_text":"398","ref":"SS398"},"arcs":[[357],[358],[359],[360]]},{"type":"MultiLineString","properties":{"kind":"major_road","network":"IT:GR","sort_rank":380,"kind_detail":"primary","source":"openstreetmap.org","min_zoom":8.0,"shield_text":"159","ref":"SP159"},"arcs":[[361],[362],[363],[364],[365],[366],[367],[368],[369],[370]]},{"type":"LineString","properties":{"kind":"minor_road","service":"parking_aisle","sort_rank":356,"kind_detail":"service","is_bicycle_related":true,"bicycle_shield_text":"BI-16","bicycle_network":"ncn","source":"openstreetmap.org","min_zoom":8.0,"id":484789668},"arcs":[371]},{"type":"LineString","properties":{"kind":"path","sort_rank":354,"kind_detail":"track","is_bicycle_related":true,"bicycle_shield_text":"BI-16","bicycle_network":"ncn","source":"openstreetmap.org","min_zoom":8.0},"arcs":[372]},{"type":"MultiLineString","properties":{"kind":"major_road","network":"IT:LI","sort_rank":379,"kind_detail":"secondary","is_bicycle_related":true,"bicycle_shield_text":"BI-16","bicycle_network":"ncn","source":"openstreetmap.org","min_zoom":8.0,"shield_text":"21","ref":"SP21"},"arcs":[[373],[374],[375]]},{"type":"LineString","properties":{"kind":"minor_road","sort_rank":360,"kind_detail":"unclassified","is_bicycle_related":true,"bicycle_shield_text":"BI 16","bicycle_network":"ncn","source":"openstreetmap.org","min_zoom":8.0},"arcs":[376]},{"type":"LineString","properties":{"source":"openstreetmap.org","kind":"ferry","name":"Piombino - Portoferraio","sort_rank":355,"min_zoom":8.0,"id":80583873},"arcs":[377]},{"type":"LineString","properties":{"kind":"path","sort_rank":354,"kind_detail":"footway","is_bicycle_related":true,"bicycle_shield_text":"BI 16","bicycle_network":"ncn","source":"openstreetmap.org","min_zoom":8.0,"landuse_kind":"urban_area","id":507130665},"arcs":[378]},{"type":"MultiLineString","properties":{"kind":"major_road","network":"IT:GR","sort_rank":380,"kind_detail":"primary","source":"openstreetmap.org","min_zoom":8.0,"shield_text":"157","ref":"SP157"},"arcs":[[379],[380],[381]]},{"type":"MultiLineString","properties":{"kind":"minor_road","sort_rank":360,"landuse_kind":"residential","is_bicycle_related":true,"bicycle_shield_text":"BI-16","bicycle_network":"ncn","source":"openstreetmap.org","min_zoom":8.0,"kind_detail":"residential"},"arcs":[[382],[383],[384]]},{"type":"MultiLineString","properties":{"kind":"path","sort_rank":354,"kind_detail":"cycleway","is_bicycle_related":true,"bicycle_shield_text":"BI 16","bicycle_network":"ncn","source":"openstreetmap.org","min_zoom":8.0},"arcs":[[385],[386]]},{"type":"MultiLineString","properties":{"source":"openstreetmap.org","kind":"major_road","landuse_kind":"residential","sort_rank":380,"kind_detail":"primary","min_zoom":8.0},"arcs":[[387],[388],[389],[390],[391],[392],[393]]},{"type":"LineString","properties":{"kind":"minor_road","cycleway_left":"track","sort_rank":360,"kind_detail":"residential","is_bicycle_related":true,"bicycle_shield_text":"BI-16","bicycle_network":"ncn","source":"openstreetmap.org","min_zoom":8.0,"landuse_kind":"residential"},"arcs":[394]},{"type":"LineString","properties":{"cycleway_right":"lane","sort_rank":360,"kind_detail":"unclassified","is_bicycle_related":true,"kind":"minor_road","bicycle_shield_text":"BI-16","bicycle_network":"ncn","source":"openstreetmap.org","min_zoom":8.0,"landuse_kind":"urban_area","id":287651897},"arcs":[395]},{"type":"LineString","properties":{"source":"openstreetmap.org","kind":"ferry","name":"Piombino - Rio Marina","sort_rank":355,"min_zoom":8.0,"id":33273272},"arcs":[396]},{"type":"LineString","properties":{"sort_rank":355,"source":"openstreetmap.org","kind":"ferry","min_zoom":8.0,"name":"Piombino - Olbia"},"arcs":[397]},{"type":"LineString","properties":{"kind":"minor_road","sort_rank":360,"landuse_kind":"residential","is_bicycle_related":true,"cycleway_right":"track","bicycle_shield_text":"BI-16","bicycle_network":"ncn","source":"openstreetmap.org","min_zoom":8.0,"kind_detail":"unclassified"},"arcs":[398]},{"type":"MultiLineString","properties":{"kind":"path","sort_rank":354,"kind_detail":"cycleway","is_bicycle_related":true,"bicycle_shield_text":"BI 16","bicycle_network":"ncn","source":"openstreetmap.org","min_zoom":8.0,"landuse_kind":"urban_area"},"arcs":[[399],[400],[401],[402]]},{"type":"LineString","properties":{"cycleway_right":"lane","sort_rank":360,"kind_detail":"residential","is_bicycle_related":true,"kind":"minor_road","bicycle_shield_text":"BI 16","bicycle_network":"ncn","source":"openstreetmap.org","min_zoom":8.0,"id":507130671},"arcs":[403]},{"type":"MultiLineString","properties":{"kind":"major_road","network":"IT:GR","sort_rank":380,"kind_detail":"primary","source":"openstreetmap.org","min_zoom":8.0,"shield_text":"154","ref":"SP154"},"arcs":[[404],[405]]},{"type":"LineString","properties":{"source":"openstreetmap.org","kind":"major_road","sort_rank":380,"kind_detail":"primary","ref":"SR439","min_zoom":8.0},"arcs":[406]},{"type":"MultiLineString","properties":{"kind":"minor_road","service":"parking_aisle","sort_rank":356,"landuse_kind":"urban_area","is_bicycle_related":true,"cycleway_right":"lane","bicycle_shield_text":"BI 16","bicycle_network":"ncn","source":"openstreetmap.org","min_zoom":8.0,"kind_detail":"service"},"arcs":[[407],[408]]},{"type":"LineString","properties":{"kind":"major_road","network":"IT:GR","sort_rank":355,"kind_detail":"tertiary_link","is_bicycle_related":true,"bicycle_shield_text":"BI 16","bicycle_network":"ncn","source":"openstreetmap.org","min_zoom":8.0,"is_link":true,"shield_text":"30","ref":"SP30"},"arcs":[409]},{"type":"MultiLineString","properties":{"kind":"major_road","network":"IT:Toscana","sort_rank":380,"kind_detail":"primary","source":"openstreetmap.org","min_zoom":8.0,"shield_text":"398","ref":"SR398"},"arcs":[[410],[411]]},{"type":"MultiLineString","properties":{"kind":"major_road","network":"IT:LI","sort_rank":379,"kind_detail":"secondary","is_bicycle_related":true,"bicycle_shield_text":"BI-16","bicycle_network":"ncn","source":"openstreetmap.org","min_zoom":8.0,"shield_text":"40","ref":"SP40"},"arcs":[[412],[413],[414],[415],[416],[417],[418],[419],[420],[421],[422]]},{"type":"LineString","properties":{"source":"openstreetmap.org","kind":"ferry","name":"Genova - Palermo","sort_rank":355,"is_bicycle_related":true,"min_zoom":8.0,"osm_relation":true},"arcs":[423]},{"type":"LineString","properties":{"kind":"path","sort_rank":354,"kind_detail":"cycleway","is_bicycle_related":true,"bicycle_shield_text":"BI-16","bicycle_network":"ncn","source":"openstreetmap.org","min_zoom":8.0,"landuse_kind":"urban_area","id":484636369},"arcs":[424]},{"type":"LineString","properties":{"kind":"major_road","sort_rank":379,"kind_detail":"secondary","is_bicycle_related":true,"bicycle_shield_text":"BI-16","bicycle_network":"ncn","source":"openstreetmap.org","min_zoom":8.0,"landuse_kind":"urban_area","ref":"SP23","id":484824992},"arcs":[425]},{"type":"MultiLineString","properties":{"kind":"path","sort_rank":354,"kind_detail":"footway","is_bicycle_related":true,"bicycle_shield_text":"BI-16","bicycle_network":"ncn","source":"openstreetmap.org","min_zoom":8.0},"arcs":[[426],[427]]},{"type":"LineString","properties":{"source":"openstreetmap.org","kind":"ferry","name":"Rio Marina-Piombino","sort_rank":355,"min_zoom":8.0,"osm_relation":true,"id":-1209561},"arcs":[428]},{"type":"LineString","properties":{"source":"openstreetmap.org","kind":"ferry","name":"Piombino - Olbia","sort_rank":355,"min_zoom":8.0,"osm_relation":true},"arcs":[429]},{"type":"MultiLineString","properties":{"source":"openstreetmap.org","kind":"major_road","sort_rank":380,"kind_detail":"primary","ref":"SR74","min_zoom":8.0},"arcs":[[430],[431]]},{"type":"MultiLineString","properties":{"kind":"major_road","sort_rank":377,"kind_detail":"tertiary","is_bicycle_related":true,"bicycle_shield_text":"BI-16","bicycle_network":"ncn","source":"openstreetmap.org","min_zoom":8.0},"arcs":[[432],[433],[434]]},{"type":"MultiLineString","properties":{"kind":"major_road","network":"e-road","sort_rank":381,"landuse_kind":"urban_area","source":"openstreetmap.org","min_zoom":8.0,"kind_detail":"trunk","shield_text":"78","ref":"SS223"},"arcs":[[435],[436]]},{"type":"LineString","properties":{"kind":"major_road","network":"IT:GR","sort_rank":380,"kind_detail":"primary","source":"openstreetmap.org","min_zoom":8.0,"landuse_kind":"urban_area","shield_text":"158","ref":"SR439","id":57889300},"arcs":[437]},{"type":"LineString","properties":{"source":"openstreetmap.org","kind":"ferry","name":"Livorno - Palermo","sort_rank":355,"is_bicycle_related":true,"min_zoom":8.0},"arcs":[438]},{"type":"MultiLineString","properties":{"kind":"minor_road","service":"parking_aisle","sort_rank":356,"landuse_kind":"residential","is_bicycle_related":true,"cycleway_right":"lane","bicycle_shield_text":"BI 16","bicycle_network":"ncn","source":"openstreetmap.org","min_zoom":8.0,"kind_detail":"service"},"arcs":[[439],[440]]},{"type":"LineString","properties":{"source":"openstreetmap.org","kind":"ferry","name":"Livorno - Isola di Capraia","sort_rank":355,"min_zoom":8.0,"id":509632860},"arcs":[441]},{"type":"MultiLineString","properties":{"kind":"minor_road","sort_rank":360,"kind_detail":"unclassified","is_bicycle_related":true,"bicycle_shield_text":"BI-16","bicycle_network":"ncn","source":"openstreetmap.org","min_zoom":8.0},"arcs":[[442],[443],[444],[445],[446],[447],[448],[449],[450]]},{"type":"MultiLineString","properties":{"kind":"path","footway":"sidewalk","sort_rank":354,"landuse_kind":"residential","is_bicycle_related":true,"bicycle_shield_text":"BI 16","bicycle_network":"ncn","source":"openstreetmap.org","min_zoom":8.0,"kind_detail":"footway"},"arcs":[[451],[452]]},{"type":"LineString","properties":{"kind":"major_road","network":"IT:Toscana","sort_rank":380,"kind_detail":"primary","is_bicycle_related":true,"bicycle_shield_text":"BI-16","bicycle_network":"ncn","source":"openstreetmap.org","min_zoom":8.0,"shield_text":"398","id":194097812},"arcs":[453]},{"type":"LineString","properties":{"kind":"major_road","cycleway_left":"track","sort_rank":379,"kind_detail":"secondary","is_bicycle_related":true,"bicycle_shield_text":"BI-16","bicycle_network":"ncn","source":"openstreetmap.org","min_zoom":8.0,"ref":"SP23"},"arcs":[454]},{"type":"LineString","properties":{"sort_rank":355,"landuse_kind":"national_park","min_zoom":8.0,"kind":"ferry","source":"openstreetmap.org"},"arcs":[455]},{"type":"LineString","properties":{"source":"openstreetmap.org","kind":"ferry","name":"Pianosa - Rio Marina","sort_rank":355,"min_zoom":8.0,"id":121536908},"arcs":[456]},{"type":"MultiLineString","properties":{"kind":"path","sort_rank":354,"landuse_kind":"residential","is_bicycle_related":true,"bicycle_shield_text":"BI 16","bicycle_network":"ncn","source":"openstreetmap.org","min_zoom":8.0,"kind_detail":"path"},"arcs":[[457],[458]]},{"type":"MultiLineString","properties":{"source":"openstreetmap.org","kind":"ferry","name":"Piombino - Portoferraio","sort_rank":355,"min_zoom":8.0,"osm_relation":true},"arcs":[[459],[460],[461],[462],[463],[464],[465],[466],[467]]},{"type":"LineString","properties":{"kind":"path","sort_rank":354,"kind_detail":"track","is_bicycle_related":true,"bicycle_shield_text":"BI 16","bicycle_network":"ncn","source":"openstreetmap.org","min_zoom":8.0,"id":109884800},"arcs":[468]},{"type":"LineString","properties":{"source":"openstreetmap.org","kind":"ferry","name":"Golfo Aranci - Livorno","sort_rank":355,"min_zoom":8.0,"osm_relation":true},"arcs":[469]},{"type":"MultiLineString","properties":{"kind":"path","sort_rank":354,"kind_detail":"path","is_bicycle_related":true,"bicycle_shield_text":"BI-16","bicycle_network":"ncn","source":"openstreetmap.org","min_zoom":8.0},"arcs":[[470],[471]]},{"type":"MultiLineString","properties":{"kind":"minor_road","sort_rank":358,"landuse_kind":"residential","is_bicycle_related":true,"bicycle_shield_text":"BI-16","bicycle_network":"ncn","source":"openstreetmap.org","min_zoom":8.0,"kind_detail":"service"},"arcs":[[472],[473]]}]},"earth":{"type":"GeometryCollection","geometries":[{"type":"MultiPolygon","properties":{"sort_rank":10,"source":"naturalearthdata.com","min_zoom":0.0,"kind":"earth","area":22401633356},"arcs":[[[474]],[[475]],[[476]],[[477]],[[478]],[[479]]]}]},"landuse":{"type":"GeometryCollection","geometries":[{"type":"MultiPolygon","properties":{"kind":"national_park","protect_class":"2","area":553662625,"sort_rank":18,"source":"openstreetmap.org","min_zoom":3.0,"tier":1,"osm_relation":true},"arcs":[[[480]],[[481]]]},{"type":"Polygon","properties":{"kind":"national_park","protect_class":"2","area":101957000,"sort_rank":18,"source":"openstreetmap.org","min_zoom":7.0,"tier":1,"id":-1582395,"osm_relation":true},"arcs":[[482]]},{"type":"MultiPolygon","properties":{"source":"naturalearthdata.com","kind":"urban_area","name":"","area":1120910171,"sort_rank":11,"min_zoom":4.0},"arcs":[[[483]],[[484]],[[485]],[[486]],[[487]]]},{"type":"MultiPolygon","properties":{"source":"openstreetmap.org","kind":"residential","tier":2,"area":25579280,"sort_rank":20,"min_zoom":8.0,"osm_relation":true},"arcs":[[[488]],[[489]]]},{"type":"MultiPolygon","properties":{"kind":"national_park","protect_class":"2","area":133147971,"sort_rank":18,"source":"openstreetmap.org","min_zoom":8.0,"tier":1,"osm_relation":true},"arcs":[[[490]],[[491]]]},{"type":"Polygon","properties":{"kind":"nature_reserve","protect_class":"5","area":119681000,"sort_rank":23,"source":"openstreetmap.org","min_zoom":7.0,"tier":2,"id":-3681342,"osm_relation":true},"arcs":[[492],[493],[494]]},{"type":"MultiPolygon","properties":{"kind":"national_park","protect_class":"2","area":640763606,"sort_rank":18,"source":"openstreetmap.org","min_zoom":5.0,"tier":1,"osm_relation":true},"arcs":[[[495]],[[496]],[[497]]]},{"type":"Polygon","properties":{"kind":"nature_reserve","protect_class":"2","area":168184992,"sort_rank":23,"source":"openstreetmap.org","min_zoom":6.0,"tier":2,"id":-4279861,"osm_relation":true},"arcs":[[498]]},{"type":"MultiPolygon","properties":{"source":"openstreetmap.org","kind":"nature_reserve","tier":2,"area":60125852,"sort_rank":23,"min_zoom":8.0,"osm_relation":true},"arcs":[[[499]],[[500]]]}]}},"type":"Topology","transform":{"translate":[9.84375,42.0329743324],"scale":[0.0003433228,0.0002529086]},"arcs":[[[70,759],[-70,96]],[[0,629],[70,130]],[[70,759],[152,-137],[233,-105],[811,-206],[1662,4],[467,-257],[201,-58]],[[2012,4096],[-38,-197],[-31,-25],[13,-60],[-24,-28],[-36,18],[-33,-26],[35,-225],[46,4],[40,-51],[55,4],[36,44],[-28,-13],[-17,32],[24,-11],[37,68],[245,8],[182,-46],[166,-104],[60,-98],[-49,-84],[11,-148],[-39,-87],[-58,-1],[-18,-23],[8,22],[-19,-30],[178,-114],[32,13],[193,-45],[260,-122],[68,-85],[6,9],[16,2],[-21,-13],[97,-217],[207,-119],[-8,-53],[57,-46],[60,-177],[33,-23],[15,38],[51,8],[77,-123],[27,-125],[-43,-194],[-58,-71],[-74,24],[-28,-18],[6,19],[-62,29],[-20,-60],[-28,-7],[27,-146],[90,-27],[70,-61],[6,-38],[36,28],[59,-21],[19,68],[61,32],[-24,22],[21,15],[3,25],[-11,-13],[-12,4],[12,26],[118,44]],[[0,3951],[13,49],[-10,29],[-3,-1]],[[2163,3891],[-25,12],[-100,-80],[-5,-7],[-4,-8],[-2,-7],[0,-5],[1,-27],[16,-117],[-35,-125]],[[2009,3527],[-1,0]],[[2008,3527],[-1,0]],[[2007,3527],[-4,0]],[[2041,3541],[-32,-14]],[[2000,3526],[6,1],[1,0],[-6,-1],[-1,0]],[[2029,3807],[3,7],[-2,-5],[-1,-2]],[[2168,3888],[-14,11],[14,-11]],[[2015,3528]],[[2015,3528],[-1,0]],[[2014,3528],[-1,-1]],[[2013,3527]],[[2013,3527],[-1,0]],[[2012,3527]],[[2012,3527],[-2,0]],[[2010,3527],[-2,0]],[[2008,3527],[-3,0]],[[2005,3527],[-2,-1]],[[2041,3541],[-26,-13]],[[2163,3891],[-25,12],[-109,-95],[15,-156],[-29,-124]],[[2000,3526],[6,1],[1,0],[-6,-1],[-1,0]],[[2029,3808],[2,5],[1,2],[-1,-2],[-2,-5]],[[2168,3888],[-14,11],[14,-11]],[[2034,4072],[-2,24]],[[2197,3864],[-119,101],[-44,108]],[[3199,3595],[-42,27],[-116,-3],[-393,-84],[-152,79],[-301,251]],[[3338,3511],[-94,0],[-45,84]],[[3414,3473],[-77,38]],[[3414,3472],[0,1]],[[3694,2844],[-126,464],[-57,85],[-97,79]],[[3771,2552],[-78,294]],[[4096,1648],[-254,463],[-8,93],[-73,178],[10,169]],[[3678,2904],[-112,430],[226,320],[51,-41],[147,58],[106,-33]],[[4096,1648],[-254,463],[-8,93],[-73,178],[15,150],[-196,744],[-58,104],[-155,127],[-125,5],[-81,110],[-526,-82],[-139,74],[-411,342],[-53,140]],[[2035,4072],[-1,1]],[[2197,3864],[-2,1]],[[3201,3589],[-2,6]],[[3771,2552],[-78,294]],[[2013,4096],[-52,-178],[-42,-72],[-73,-62],[64,-196],[56,-60],[81,38],[-9,16],[-13,40],[129,42],[143,-5],[143,-37],[202,-94],[37,-28],[28,-40],[13,-53],[-9,-25],[-17,-17],[-9,-27],[2,-91],[-4,-75],[-28,-63],[-70,-59],[465,-160],[154,-83],[83,-90],[26,-15],[26,-24],[16,-56],[14,-64],[15,-47],[140,-83],[70,-59],[9,-77],[49,-23],[28,-63],[26,-75],[37,-55],[24,4],[34,16],[28,4],[22,-71],[61,-100],[6,-64],[-1,-96],[-26,-94],[-45,-66],[-65,-4],[-84,30],[-40,-14],[-36,-53],[0,-44],[22,-62],[35,-45],[82,-28],[38,-51],[24,-20],[4,6],[22,6],[29,0],[26,-12],[7,51],[43,64],[10,62],[20,31],[47,13],[53,0],[13,-1],[0,-1538],[-4096,0],[0,3932],[32,67],[-21,56],[-10,9],[-1,0],[0,32],[2013,0]],[[1566,3161],[-19,-21],[-26,-16],[-23,-22],[-10,-37],[-21,-9],[-43,0],[-31,23],[14,58],[-109,-3],[-50,7],[0,-4],[0,-30],[-38,-27],[10,-7],[5,1],[2,-4],[3,-20],[-69,-5],[-52,5],[-36,14],[-65,36],[-30,7],[-62,-6],[-74,-21],[-62,-42],[-30,-68],[16,-106],[53,-56],[65,-23],[240,-8],[16,2],[14,24],[16,61],[58,-50],[114,60],[27,-67],[33,87],[37,0],[39,-36],[38,-24],[9,-15],[29,-71],[12,-21],[35,-18],[29,3],[22,-4],[13,-35],[45,52],[-17,74],[-50,65],[-55,24],[52,22],[39,30],[29,44],[19,66],[-17,47],[1,46],[14,41],[22,29],[-15,39],[-22,36],[-26,25],[-28,10],[-36,-18],[-23,-43],[-31,-101]],[[686,2297],[-19,-53],[-29,-34],[-30,-11],[-6,-28],[24,-24],[38,-13],[41,-1],[28,18],[7,27],[0,16],[-5,11],[-13,20],[-12,33],[-9,42],[-15,-3]],[[2994,1270],[109,-114],[42,-26],[47,47],[-29,39],[-7,51],[-40,86],[-52,46],[-37,21],[-21,-21],[2,-49],[-43,-32],[29,-48]],[[1375,1217],[-27,43],[-28,-27],[-7,-66],[54,-17],[8,67]],[[3645,832],[33,-22],[-5,31],[-7,34],[7,5],[10,-1],[12,-10],[-5,33],[-17,9],[-14,-11],[-18,-2],[-5,-14],[-2,-19],[7,-23],[4,-10]],[[4096,1538],[-13,1],[-53,0],[-47,-13],[-20,-31],[-10,-62],[-43,-64],[-7,-51],[-26,12],[-29,0],[-22,-6],[-4,-6],[-24,20],[-38,51],[-82,28],[-35,45],[-22,62],[0,44],[36,53],[40,14],[84,-30],[65,4],[45,66],[26,94],[1,96],[-6,64],[-61,100],[-22,71],[-28,-4],[-34,-16],[-24,-4],[-37,55],[-26,75],[-28,63],[-49,23],[-9,77],[-70,59],[-140,83],[-15,47],[-14,64],[-16,56],[-26,24],[-26,15],[-83,90],[-154,83],[-465,160],[70,59],[28,63],[4,75],[-2,91],[9,27],[17,17],[9,25],[-13,53],[-28,40],[-37,28],[-202,94],[-143,37],[-143,5],[-129,-42],[13,-40],[9,-16],[-81,-38],[-56,60],[-64,196],[73,62],[42,72],[52,178]],[[1747,3213],[-15,39],[-22,36],[-26,25],[-28,10],[-36,-18],[-23,-43],[-31,-101],[-19,-21],[-26,-16],[-23,-22],[-10,-37],[-21,-9],[-43,0],[-31,23],[14,58],[-109,-3],[-50,7],[0,-4],[0,-30],[-38,-27],[10,-7],[5,1],[2,-4],[3,-20],[-69,-5],[-52,5],[-36,14],[-65,36],[-30,7],[-62,-6],[-74,-21],[-62,-42],[-30,-68],[16,-106],[53,-56],[65,-23],[240,-8],[16,2],[14,24],[16,61],[58,-50],[114,60],[27,-67],[33,87],[37,0],[39,-36],[38,-24],[9,-15],[29,-71],[12,-21],[35,-18],[29,3],[22,-4],[13,-35],[45,52],[-17,74],[-50,65],[-55,24],[52,22],[39,30],[29,44],[19,66],[-17,47],[1,46],[14,41],[22,29]],[[3064,1399],[-37,21],[-21,-21],[2,-49],[-43,-32],[29,-48],[109,-114],[42,-26],[47,47],[-29,39],[-7,51],[-40,86],[-52,46]],[[0,3932],[32,67],[-21,56],[-10,9],[-1,0]],[[722,2225],[-12,33],[-9,42],[-15,-3],[-19,-53],[-29,-34],[-30,-11],[-6,-28],[24,-24],[38,-13],[41,-1],[28,18],[7,27],[0,16],[-5,11],[-13,20]],[[1320,1233],[-7,-66],[54,-17],[8,67],[-27,43],[-28,-27]],[[2536,3587],[33,-24]],[[2087,4096],[28,-151],[408,-333]],[[2523,3612],[-407,333],[-29,151]],[[3635,3080],[-46,170],[4,70],[-6,43],[-109,83],[-124,72],[-108,-6],[-86,115],[-134,1],[-95,52],[-166,-31]],[[2765,3648],[166,32],[94,-52],[134,-1],[87,-115],[108,6],[93,-58],[31,-15],[109,-82],[6,-43],[-6,-47],[0,-6],[1,-18],[47,-169]],[[3771,2600],[18,87],[-23,57],[26,77],[-15,166]],[[3777,2986],[15,-165],[-21,-29],[-7,-39],[3,-16],[22,-50],[-18,-87]],[[3772,2591],[-1,9]],[[3772,2591],[5,-39],[-2,-76],[-1,-5],[-1,-5],[-11,-76]],[[3762,2390],[-1,-2],[13,-31]],[[3775,2357],[-13,33]],[[3762,2390],[-1,1],[11,200]],[[3788,2319],[14,-33],[2,-5],[1,-2]],[[3805,2279],[0,-1],[64,-167]],[[3869,2111],[1,-1],[0,-2],[-3,-35]],[[3867,2073],[-1,-3]],[[3866,2070],[0,-1],[10,-31],[9,-14]],[[3885,2024],[6,-10],[39,-90],[5,-24],[8,-17]],[[3943,1883],[1,-3],[13,-23],[24,-38],[1,-2]],[[3982,1817],[43,-47]],[[4025,1770],[6,-8],[4,-1],[4,-4]],[[4039,1757],[6,-7],[1,-1]],[[4046,1749],[1,-2],[10,-16],[39,-59]],[[4096,1673],[-49,74],[-1,2]],[[4046,1749],[-7,8]],[[4039,1757],[-4,4],[-3,1],[-7,8]],[[4025,1770],[-38,40],[-5,7]],[[3982,1817],[-1,2],[-4,7],[-28,46],[-5,9],[-1,2]],[[3943,1883],[-1,1],[-2,5],[-55,135]],[[3885,2024],[-1,2],[-7,11],[-3,13],[-8,20]],[[3866,2070],[1,3]],[[3867,2073],[4,35],[-1,2],[-1,1]],[[3869,2111],[-2,5],[-15,29],[-47,134]],[[3805,2279],[-1,3],[-15,38]],[[1978,3895],[13,-64]],[[2734,3428],[-27,44]],[[2208,3903],[0,-1]],[[2208,3902],[0,1]],[[2224,3918],[-16,-15]],[[2224,3918],[1,1]],[[2224,3920],[0,-2]],[[3695,2847],[-1,-1]],[[3697,2845],[-1,1]],[[3703,2852]],[[3708,2857]],[[2338,4012],[18,18]],[[1690,3271],[332,166],[79,99],[-18,34],[-29,-26]],[[3754,2768],[-16,10]],[[2165,3842],[18,21]],[[2183,3863],[2,2],[23,37]],[[2208,3902],[-13,-19],[-10,-18],[-2,-2]],[[2183,3863],[-16,-22]],[[799,2233],[-50,-30]],[[3358,2729],[1,-1]],[[3360,2727],[1,1]],[[3359,2728],[0,-1],[1,-1],[0,1],[-1,1]],[[2705,3475],[-26,23]],[[4000,1875],[-53,-18]],[[4000,1875]],[[4000,1875],[0,1],[0,-1]],[[4073,1906],[-73,-31]],[[4075,1906],[-2,0]],[[4075,1906],[21,-1]],[[2672,3504],[7,-6]],[[4096,1985],[-21,-78]],[[2222,3922],[3,-3]],[[2513,3597],[12,-4]],[[2618,3539],[9,-6]],[[2659,3510],[13,-6]],[[2717,3571],[-1,-1],[2,0],[0,1],[-1,0]],[[3658,2844],[2,2]],[[4096,2472],[-108,-14]],[[0,2596],[1546,-2596]],[[1991,3830]],[[4074,1908],[0,-1]],[[3713,2846],[7,-14]],[[0,69],[769,4027]],[[3652,2844],[-3,1]],[[2445,3633],[-4,13]],[[3262,2783],[-182,83]],[[2719,3572],[-2,0]],[[2718,3571],[1,1]],[[2765,3649],[-46,-77]],[[3658,2845],[0,-1]],[[3758,2770],[5,1]],[[3675,2847],[11,-2]],[[3687,2845],[-1,0]],[[3686,2845],[1,0]],[[3720,2832],[6,-18]],[[2185,3963],[11,-12]],[[2196,3951],[1,-1]],[[2197,3950],[-1,1]],[[2197,3950]],[[3582,3365],[-3,11]],[[3660,2846],[2,2]],[[3662,2848],[-1,-1]],[[3694,2846]],[[2218,3960],[-1,0]],[[2217,3960],[1,0]],[[2217,3960],[-1,0],[0,-1],[1,1]],[[2218,3960],[25,1]],[[2240,3961],[0,1]],[[3694,2833],[0,-1]],[[3695,2844],[-1,-2]],[[3694,2842],[1,2]],[[3694,2842],[0,-9]],[[3694,2832],[0,1]],[[1440,3071],[-48,4]],[[1441,3072],[-45,6]],[[1441,3073],[-45,9]],[[1397,3083],[45,-8],[-40,13]],[[1441,3073],[0,-1]],[[1441,3072],[0,1]],[[1442,3074],[-1,-1]],[[3137,1293],[535,362],[55,-29],[-1,-6]],[[3726,1620],[-4,-29],[8,27],[-4,2]],[[3726,1620],[-57,24],[-78,-132],[91,-415]],[[3723,879],[-13,-19],[-37,14]],[[3696,2844],[2,-10]],[[3696,2844],[0,1],[0,-1]],[[3696,2844]],[[3698,2834],[-2,10]],[[3699,2833],[-1,1]],[[2120,3900],[-129,-70]],[[2120,3900]],[[2171,3979],[-51,-79]],[[4096,2267],[-125,257],[-123,148],[-56,24]],[[2535,3589]],[[2535,3589],[1,-1]],[[2536,3588],[0,1]],[[2536,3588],[0,-1]],[[3643,2836],[-1,-1],[1,0]],[[3645,2835],[-1,1]],[[3644,2835],[1,0]],[[3652,2835],[-7,0]],[[3652,2835]],[[3652,2835]],[[3644,2835],[0,1],[-1,0],[1,-1]],[[2536,3589],[-1,0]],[[2535,3589]],[[4096,3467],[-48,-87],[-213,-145],[-82,-122],[0,-14]],[[3753,3099],[0,14],[53,71],[29,51],[50,18],[163,127],[48,87]],[[2415,3712],[-2,0],[0,-2],[2,0],[0,2]],[[2206,3962],[9,-2]],[[2216,3960],[-1,0]],[[2215,3960],[1,0]],[[2797,3700],[-32,-51]],[[2797,3701],[0,-1]],[[2797,3700],[1,1]],[[2812,3704],[-14,-2]],[[2799,3702],[8,0],[5,2]],[[2828,3723],[-16,-19]],[[2828,3723],[1,1]],[[2829,3724],[-1,-1]],[[2830,3725],[-1,0]],[[2829,3725],[0,-1]],[[2829,3724],[1,0],[-1,1]],[[2830,3725]],[[3033,3958],[-203,-233]],[[3033,3958],[2,2]],[[3034,3960],[-1,-2]],[[3035,3962],[0,-1]],[[3115,4096],[-106,-82],[26,-52]],[[3035,3961],[0,1]],[[2797,3702],[0,-1]],[[2797,3701],[1,0],[0,1],[-1,0]],[[3035,3961],[-1,-1],[1,0]],[[3035,3960],[1,0],[-1,1]],[[2717,3570]],[[2243,3961],[71,31]],[[2693,3490]],[[3704,2824],[-5,9]],[[2765,3649],[-104,-32],[-48,-21],[-14,3],[-16,11],[-8,5],[-5,2],[-10,0],[-37,-5]],[[2523,3612],[90,-17],[152,53]],[[3635,3080],[10,-39],[79,-20],[16,-2],[37,-33]],[[3777,2987],[-37,32],[-94,22],[-11,39]],[[2705,3475],[26,-34]],[[2705,3475],[2,4]],[[2731,3441],[2,-5]],[[2736,3429],[-3,7]],[[3774,2357],[14,-38]],[[3789,2320],[-14,37]],[[2412,3791],[0,4]],[[2223,3923],[-1,0]],[[2223,3921],[2,3]],[[2225,3924],[-2,-2]],[[2227,3926],[-2,-2]],[[2227,3926],[2,1]],[[2228,3927],[-1,-1]],[[2229,3928]],[[2229,3927],[0,1]],[[2229,3927],[0,1],[-1,0],[0,-1],[1,0]],[[2240,3961],[-11,-33]],[[3030,2890],[-3,1],[-1,-4]],[[3026,2888],[1,0]],[[3692,2831],[-4,0]],[[3692,2831],[1,-1]],[[3694,2832],[-2,-1]],[[3694,2830],[0,2]],[[3828,2901],[-1,-1]],[[3830,2901],[-1,0]],[[3947,1857]],[[3949,1856],[-2,1]],[[3951,1855],[6,1]],[[3694,2830],[0,1],[-1,-1],[1,0]],[[3829,2901],[-1,-1],[1,0],[0,1]],[[3963,1855],[-1,-1],[1,0],[0,1]],[[2712,3563],[1,0],[-1,0]],[[3653,2836],[-1,-1]],[[3652,2835],[1,0]],[[2712,3563],[0,-1],[0,1]],[[3654,2836],[-1,0],[0,-1],[1,1]],[[2641,3523],[0,1]],[[3712,2808],[-8,16]],[[2412,3795],[-53,78],[-8,81],[-37,38]],[[2441,3738],[-29,53]],[[3708,2857],[5,-11]],[[2681,3525],[0,1]],[[2681,3526],[0,-1]],[[2681,3525]],[[2682,3527],[-1,-1]],[[2681,3526]],[[2681,3526]],[[2681,3525],[0,1]],[[2683,3516],[-2,9]],[[2681,3526],[1,1]],[[2682,3528],[0,-1]],[[2682,3527]],[[2682,3527]],[[2683,3528],[-1,0]],[[2682,3527],[0,1]],[[2682,3527],[1,1]],[[2683,3516],[0,-2]],[[2683,3515],[0,1]],[[2683,3513],[1,-1]],[[2689,3533],[-6,-5]],[[2684,3512],[0,1]],[[2684,3512],[2,-6]],[[2686,3506],[1,-3]],[[2690,3500],[-3,3]],[[2689,3533]],[[2689,3533]],[[2690,3534],[-1,0]],[[2690,3534]],[[2697,3544],[-7,-10]],[[2690,3500],[6,-6]],[[2696,3495],[-6,5]],[[2694,3492],[2,1]],[[2695,3493],[-1,-1]],[[2694,3492],[11,-17]],[[2696,3494],[-1,-1]],[[2695,3493],[1,0]],[[2696,3493]],[[2696,3495],[0,-1]],[[2696,3493],[0,2]],[[2707,3479],[-11,14]],[[2697,3544],[1,0]],[[2698,3545],[-1,-1]],[[2698,3545]],[[2699,3546],[-1,-1]],[[2699,3545],[0,1]],[[2701,3549],[-2,-3]],[[2701,3549],[1,0]],[[2701,3549]],[[2702,3551],[0,-1]],[[2702,3550],[0,1]],[[2712,3562],[-10,-11]],[[2705,3475]],[[2705,3475]],[[2712,3562]],[[2712,3563],[0,-1]],[[2684,3514],[-1,1]],[[2683,3515],[-1,-1],[1,-1]],[[2683,3513],[1,1]],[[2689,3533],[1,1]],[[2690,3534],[-1,0],[0,-1]],[[2702,3549],[0,1],[-1,0],[0,-1],[1,0]],[[2713,3563]],[[2585,3554],[33,-15]],[[2641,3523],[17,-13]],[[2736,3429],[20,-38]],[[2761,3386],[73,-193],[44,-232],[79,-54],[74,-17]],[[3080,2866],[-49,24]],[[3269,2780],[-7,3]],[[3269,2780],[6,-3]],[[3359,2728],[-84,49]],[[3538,2794],[-178,-66]],[[3538,2794],[2,1]],[[3539,2795],[-1,-1]],[[3539,2795],[1,0]],[[3540,2795],[0,1],[-1,0],[0,-1]],[[3541,2796],[-1,0]],[[3540,2795],[1,1]],[[3642,2835],[-101,-39]],[[3031,2890],[-1,0],[1,0]],[[3659,2846],[-1,-1]],[[3660,2847],[-1,0]],[[3660,2846]],[[3659,2847],[0,-1]],[[3660,2846]],[[3660,2846]],[[2756,3391],[5,-5]],[[2167,3841],[-88,-123],[-3,-7],[-2,-3]],[[2074,3708],[-5,-11]],[[2070,3698],[4,10]],[[2074,3708],[21,56],[70,78]],[[3789,2903],[5,0]],[[3794,2903],[-4,2]],[[3810,2900],[-16,3]],[[3810,2900],[2,-2]],[[3815,2899],[-5,1]],[[3814,2898],[1,1]],[[3815,2899],[13,1]],[[4096,2882],[-91,68],[-128,-5],[-48,-45]],[[3783,2905],[1,-1],[6,0],[-3,2],[-4,-1]],[[3813,2899],[-1,0],[0,-1],[2,0],[-1,1]],[[2756,3391]],[[2721,3347],[-9,-91],[59,2],[14,28]],[[2416,3713],[-2,-1]],[[2415,3711],[1,2]],[[2416,3713],[25,25]],[[3763,2771],[53,-81]],[[2045,3544],[51,8],[-82,-88],[-410,-107],[-156,-272]],[[3694,2846]],[[3859,3864],[7,-77],[35,-53],[-98,-69],[-97,-169],[-124,-131]],[[3815,4096],[52,-109],[-60,-40],[39,-16],[11,-66]],[[3857,3865],[2,-1]],[[2651,3519],[9,-9]],[[2659,3510]],[[2679,3498]],[[3364,2731],[285,114]],[[3662,2848],[13,-1]],[[3654,2835]],[[3654,2835],[0,1]],[[3688,2831],[-34,4]],[[3695,2844]],[[3695,2844],[1,0]],[[3695,2844]],[[3695,2844]],[[2641,3524],[-14,9]],[[2525,3593],[9,-4]],[[2045,3544],[45,16],[9,-20],[-388,-446]],[[2045,3544],[46,18],[9,-22],[-61,-837],[-693,-2703]],[[2569,3563],[16,-9]],[[3675,2847]],[[3691,2845],[-1,1]],[[3690,2845],[1,0]],[[3694,2846],[-3,-1]],[[3661,2847],[-1,0]],[[3738,2778],[-26,30]],[[3758,2765],[-4,3]],[[2830,3724]],[[3690,2846],[-2,-1]],[[3688,2845],[2,0]],[[3758,2770],[2,0]],[[2314,3992],[24,20]],[[2356,4030],[56,66]],[[2381,3694],[26,12]],[[2407,3706],[1,0]],[[2408,3707],[-1,-1]],[[2411,3708],[-2,0]],[[2409,3708],[-1,-1],[0,-1]],[[2408,3706],[2,1]],[[2410,3707],[-1,1]],[[2410,3707],[1,1]],[[2412,3710],[-1,-2]],[[2412,3710],[2,0]],[[2413,3711],[-1,-1]],[[0,2596],[1546,-2596]],[[2705,3475],[2,-3]],[[1991,3831],[0,-1]],[[2171,3979]],[[2734,3428],[14,-30]],[[2045,3544],[45,16],[9,-20],[-388,-446]],[[2045,3544],[46,18],[9,-22],[-61,-837],[-693,-2703]],[[4072,1906],[2,-1]],[[4075,1905],[1,1]],[[2198,3951],[-1,-1]],[[2197,3950],[1,1]],[[2198,3951],[8,11]],[[3753,3099],[-5,-72]],[[3748,3027],[5,72]],[[2717,3569],[-4,-6]],[[744,4096],[-375,-1980],[23,-94],[1210,-2022]],[[3687,2845],[1,0]],[[3688,2845],[-1,0]],[[35,4096],[-35,-46]],[[2441,3646],[-43,14],[-17,34]],[[2478,3614],[-33,19]],[[2478,3614]],[[2478,3614],[35,-17]],[[2740,3366],[-19,-19]],[[2740,3366],[10,15]],[[2750,3381]],[[2761,3386],[-11,-5]],[[2750,3381],[8,8]],[[3696,2846],[-1,1]],[[3708,2857],[-1,0]],[[2240,3961],[3,0]],[[1978,3895],[42,201]],[[3682,1097],[41,-218]],[[1711,3094],[28,41],[42,-12],[34,-372],[-56,-109],[-219,-115],[-634,-230],[-107,-64]],[[3703,2852],[-6,-7]],[[3707,2857],[-4,-5]],[[1440,3071],[-48,4]],[[1441,3072],[-45,6]],[[1441,3073],[-45,9]],[[1442,3075],[-45,8]],[[1442,3075],[-40,13]],[[1441,3073],[0,-1]],[[1441,3072],[0,1]],[[1442,3074],[-1,-1]],[[2045,3544],[51,8],[-82,-88],[-410,-107],[-162,-282]],[[3726,2814],[11,-36]],[[0,69],[769,4027]],[[2171,3979],[14,-16]],[[2756,3391],[-8,7]],[[2658,3510],[1,0]],[[2660,3510],[-1,0]],[[1375,1217],[-8,-67],[-54,17],[7,66],[28,27],[27,-43]],[[3192,1177],[-47,-47],[-42,26],[-109,114],[-29,48],[43,32],[-2,49],[21,21],[37,-21],[52,-46],[40,-86],[7,-51],[29,-39]],[[733,2151],[-28,-18],[-41,1],[-38,13],[-24,24],[6,28],[30,11],[29,34],[19,53],[15,3],[9,-42],[12,-33],[13,-20],[5,-11],[0,-16],[-7,-27]],[[4096,1538],[-13,1],[-53,0],[-47,-13],[-20,-31],[-10,-62],[-43,-64],[-7,-51],[-26,12],[-29,0],[-22,-6],[-4,-6],[-24,20],[-38,51],[-82,28],[-35,45],[-22,62],[0,44],[36,53],[40,14],[84,-30],[65,4],[45,66],[26,94],[1,96],[-6,64],[-61,100],[-22,71],[-28,-4],[-34,-16],[-24,-4],[-37,55],[-26,75],[-28,63],[-49,23],[-9,77],[-70,59],[-140,83],[-15,47],[-14,64],[-16,56],[-26,24],[-26,15],[-83,90],[-154,83],[-465,160],[70,59],[28,63],[4,75],[-2,91],[9,27],[17,17],[9,25],[-13,53],[-28,40],[-37,28],[-202,94],[-143,37],[-143,5],[-129,-42],[13,-40],[9,-16],[-81,-38],[-56,60],[-64,196],[73,62],[42,72],[52,178],[2083,0],[0,-2558]],[[1710,3097],[17,-47],[-19,-66],[-29,-44],[-39,-30],[-52,-22],[55,-24],[50,-65],[17,-74],[-45,-52],[-13,35],[-22,4],[-29,-3],[-35,18],[-12,21],[-29,71],[-9,15],[-38,24],[-39,36],[-37,0],[-33,-87],[-27,67],[-114,-60],[-58,50],[-16,-61],[-14,-24],[-16,-2],[-240,8],[-65,23],[-53,56],[-16,106],[30,68],[62,42],[74,21],[62,6],[30,-7],[65,-36],[36,-14],[52,-5],[69,5],[-3,20],[-2,4],[-5,-1],[-10,7],[38,27],[0,30],[0,4],[50,-7],[109,3],[-14,-58],[31,-23],[43,0],[21,9],[10,37],[23,22],[26,16],[19,21],[31,101],[23,43],[36,18],[28,-10],[26,-25],[22,-36],[15,-39],[-22,-29],[-14,-41],[-1,-46]],[[0,3932],[0,132],[1,0],[10,-9],[21,-56],[-32,-67]],[[0,4096],[18,0],[-18,-27],[0,27]],[[0,3699],[0,284],[214,28],[-38,-172],[-176,-140]],[[522,2168],[22,65],[81,35],[14,96],[71,18],[61,-42],[50,-194],[-52,-78],[-56,-21],[-132,31],[-59,90]],[[3907,3034],[-13,-36],[-117,-8],[0,-176],[-61,0],[-109,87],[-89,1],[53,141],[105,61],[122,-7],[109,-63]],[[1573,2872],[-61,30],[39,77],[57,63],[67,26],[52,-19],[-48,-109],[-106,-68]],[[2546,3668],[2,-19],[131,-11],[30,11],[0,44],[47,-24],[83,-196],[-122,-52],[-38,79],[-153,82],[-11,111],[31,-25]],[[2183,3830],[79,-169],[-108,3],[-129,-42],[22,-56],[-81,-38],[-64,84],[63,37],[0,176],[23,10],[42,-54],[97,88],[56,-39]],[[2353,4000],[-41,32],[-42,64],[93,0],[-10,-96]],[[3608,2880],[13,9],[9,-19],[25,80],[33,-86],[-21,84],[62,-30],[17,-41],[-48,-44],[-10,30],[0,-38],[-40,11],[28,11],[-7,22],[-32,-10],[-29,21]],[[2512,3594],[132,-39],[126,15],[-46,-37],[-21,-64],[-191,125]],[[2973,1303],[9,27],[31,-19],[-22,-34],[53,-7],[12,-44],[11,52],[-29,15],[48,-21],[10,-66],[43,42],[-3,-27],[33,-22],[-33,-77],[-50,38],[-60,104],[-48,3],[-5,36]],[[1496,3069],[50,-7],[5,27],[-51,6],[50,50],[29,-28],[-20,26],[5,20],[41,3],[-34,11],[21,57],[69,86],[-8,-65],[69,-1],[23,-53],[-51,-105],[-35,-1],[4,42],[-34,-7],[-36,-61],[23,-17],[-2,-49],[90,6],[13,-33],[-45,-15],[36,-21],[12,26],[3,-20],[-53,-28],[-22,44],[-72,-80],[73,-28],[-5,-36],[75,-43],[3,-66],[-34,-41],[-36,34],[-44,-24],[-55,36],[33,31],[-22,41],[62,-9],[23,33],[-56,55],[-31,-1],[15,36],[-23,50],[27,56],[-85,63]],[[2412,3791],[17,60],[35,-22],[7,33],[70,-7],[22,57],[-38,22],[35,56],[-27,16],[81,-6],[5,17],[-47,15],[32,20],[9,-26],[16,70],[100,-19],[-2,-44],[38,-14],[-51,-55],[3,-46],[41,-41],[-32,-38],[-11,19],[-42,19],[15,-26],[-17,-18],[35,26],[29,-31],[24,4],[35,-79],[-78,-116],[-62,62],[-9,63],[-40,-14],[-5,-34],[-44,-34],[3,30],[-58,2],[-17,18],[84,5],[-6,46],[-150,10]],[[2546,3959],[8,-27],[34,31],[-17,11],[-10,-23],[-9,23],[-6,-15]],[[2676,3752],[14,-27],[29,3],[-13,38],[-30,-14]],[[3435,865],[213,10],[-174,111],[122,92],[78,23],[194,-108],[31,-99],[-228,-20],[-5,-31],[23,-9],[196,-6],[-3,-66],[-196,-158],[-141,46],[-68,76],[-42,139]],[[1098,1217],[146,210],[150,14],[160,-93],[44,-283],[-170,-158],[-218,33],[-112,277]],[[753,2899],[11,99],[11,14],[3,-2],[-2,-49],[32,83],[55,26],[-38,-40],[172,51],[20,-16],[-32,3],[-21,-75],[66,-3],[48,33],[33,-49],[94,-12],[3,44],[-36,3],[4,20],[73,4],[-29,44],[37,25],[-44,38],[9,12],[60,-25],[10,-34],[9,26],[16,-12],[-39,-59],[63,-111],[-67,-20],[11,-73],[42,39],[61,0],[15,-79],[-21,-23],[-17,85],[-37,7],[-34,-92],[-51,1],[-17,34],[-48,9],[73,33],[2,83],[-155,10],[-34,-110],[-56,-16],[-49,27],[-39,-22],[114,-28],[2,-19],[87,11],[34,-20],[-1,-28],[-191,46],[-39,-29],[-44,15],[33,-30],[0,-9],[-103,63],[-11,16],[39,30],[-30,-4],[-57,55]],[[3362,2596],[84,56],[145,-9],[18,-41],[49,-7],[-15,-37],[21,-44],[74,-80],[28,-75],[31,-10],[-10,-36],[58,-148],[-6,-50],[-72,-4],[-42,-39],[-60,176],[-58,47],[12,58],[-92,59],[-144,45],[-21,139]],[[3058,2901],[88,88],[36,6],[114,-48],[17,-99],[-19,-29],[-67,29],[-20,-34],[65,-36],[-14,-20],[-174,101],[-26,42]],[[4086,4096],[-5,-70],[-27,-12],[-57,19],[7,38],[-40,0],[2,25],[120,0]]]}