{"objects":{"water":{"type":"GeometryCollection","geometries":[{"type":"MultiPolygon","properties":{"source":"naturalearthdata.com","kind":"ocean","area":1576712559132672,"sort_rank":200,"min_zoom":0.0,"id":1},"arcs":[[[314],[315]],[[316]]]},{"type":"MultiLineString","properties":{"source":"naturalearthdata.com","kind":"ocean","sort_rank":205,"boundary":true,"min_zoom":0.0,"id":56},"arcs":[[317],[318],[319]]}]},"buildings":{"type":"GeometryCollection","geometries":[]},"places":{"type":"GeometryCollection","geometries":[{"type":"Point","properties":{"name:kg":"Tunisia","name:ka":"\u10e2\u10e3\u10dc\u10d8\u10e1\u10d8","name:ko":"\ud280\ub2c8\uc2a4","name:cv":"\u0422\u0443\u043d\u0438\u0441","name:cs":"Tunis","name:tt":"\u0422\u0443\u043d\u0438\u0441","name:kw":"Tunisi","name:tk":"Tunis","name:ku":"T\u00fbnis","name:ti":"\u1271\u1292\u12e2\u12eb","name:tl":"Tunisya","name:ce":"\u0422\u0443\u043d\u0438\u0441","name:ta":"\u0ba4\u0bc2\u0ba9\u0bbf\u0bb8\u0bcd","name:tg":"\u0422\u0443\u043d\u0438\u0441","name:ca":"Tun\u00edsia","name:te":"\u0c1f\u0c4d\u0c2f\u0c41\u0c28\u0c40\u0c37\u0c3f\u0c2f\u0c3e","name:cy":"Tunisia","name:hr":"Tunis","name:da":"Tunis","name:de":"Tunis","source":"openstreetmap.org","name:kn":"\u0c9f\u0cc1\u0ca8\u0cc0\u0cb6\u0cbf\u0caf","name:dv":"\u078c\u07ab\u0782\u07a8\u0790\u07b0","name:lv":"Tunisa","name:lt":"Tunisas","name:uz":"Tunis","name:kk":"\u0422\u0443\u043d\u0438\u0441","name:ur":"\u062a\u0648\u0646\u0633 \u0634\u06c1\u0631","name:lb":"Tunesien","name:la":"Tunes","name:uk":"\u0422\u0443\u043d\u0456\u0441","name:ug":"\u062a\u06c7\u0646\u0649\u0633 \u0634\u06d5\u06be\u0649\u0631\u0649","name:li":"Tunesi\u00eb","name:ln":"Tunisia","name:el":"\u03a4\u03cd\u03bd\u03b9\u03b4\u03b1","name:eo":"Tunizo","name:en":"Tunis","name":"\u062a\u0648\u0646\u0633","name:ee":"Tunisia","name:th":"\u0e15\u0e39\u0e19\u0e34\u0e2a","name:eu":"Tunisia","name:et":"Tuneesia","name:es":"T\u00fanez","name:rm":"Tunesia","name:az":"Tunis","name:ie":"Tunisia","name:id":"Tunisia","name:pa":"\u0a24\u0a41\u0a28\u0a40\u0a38\u0a40\u0a06","name:io":"Tunizia","name:is":"T\u00fanis","name:am":"\u1271\u1292\u1235","name:it":"Tunisi","name:an":"T\u00faniz","name:ru":"\u0422\u0443\u043d\u0438\u0441","name:rw":"Tunisiya","name:af":"Tunisi\u00eb","name:zu":"ITunisia","kind_detail":"city","name:ky":"\u0422\u0443\u043d\u0438\u0441 \u0448\u0430\u0430\u0440\u044b","name:zh-yue":"\u7a81\u5c3c\u897f\u4e9e","name:zh":"\u7a81\u5c3c\u65af\u5e02","name:so":"Tunisiya","name:sn":"Tunisia","name:sl":"Tunizija","name:sk":"Tunis","name:ja":"\u30c1\u30e5\u30cb\u30b9","name:sh":"Tunis","name:sg":"Tuniz\u00efi","name:se":"Tunisia","name:sc":"Tunisia","name:br":"Tuniz","name:bs":"Republika Tunis","name:bm":"Tunizi","name:bn":"\u09a4\u09bf\u0989\u09a8\u09bf\u09b8\u09bf\u09af\u09bc\u09be","name:bo":"\u0f4a\u0f74\u0f0b\u0f53\u0f72\u0f66\u0f72\u0f0d","name:sa":"\u091f\u0941\u0928\u093f\u0936\u093f\u092f\u093e","name:sw":"Tunisia","name:be":"\u0422\u0443\u043d\u0456\u0441","name:su":"Tunisia","name:bg":"\u0422\u0443\u043d\u0438\u0441","name:ss":"IThunisiya","name:ba":"\u0422\u0443\u043d\u0438\u0441","name:sq":"Tunizia","name:jv":"Tunisia","name:pt":"Tunes","name:oc":"Tunisia","min_zoom":8.0,"name:ro":"Tunisia","name:zh-min-nan":"Tunisia","name:os":"\u0422\u0443\u043d\u0438\u0441","name:or":"\u0b1f\u0b4d\u0b5f\u0b41\u0b28\u0b3f\u0b38\u0b3f\u0b06","name:pl":"Tunis","name:sr":"\u0422\u0443\u043d\u0438\u0441","admin_level":"2","name:tr":"Tunus","name:hi":"\u091f\u094d\u092f\u0942\u0928\u093f\u0938","name:sv":"Tunis","name:he":"\u05ea\u05d5\u05e0\u05d9\u05e1","name:hy":"\u0539\u0578\u0582\u0576\u056b\u057d","country_capital":true,"name:ht":"Tinis","name:hu":"Tunisz","name:qu":"Tunisya","population":728453,"kind":"locality","name:ts":"Tunisia","name:yi":"\u05d8\u05d5\u05e0\u05d9\u05e1\u05d9\u05e2","name:yo":"T\u00f9n\u00eds\u00ed\u00e0","name:mt":"Tune\u017cija","name:ms":"Tunisia","name:mr":"\u091f\u094d\u092f\u0941\u0928\u093f\u0938","name:my":"\u1010\u1030\u1014\u102e\u1038\u101b\u103e\u102c\u1038\u1014\u102d\u102f\u1004\u103a\u1004\u1036","int_name":"Tunis","name:mg":"Tonizia","name:ml":"\u0d1f\u0d42\u0d23\u0d3f\u0d38\u0d4d\u0d38\u0d4d","name:vi":"Tunis","name:mn":"\u0422\u0443\u043d\u0438\u0441","id":27564968,"name:mk":"\u0422\u0443\u043d\u0438\u0441","name:vo":"Tunis","name:fi":"Tunis","name:fo":"Tunesia","name:fr":"Tunis","name:fy":"Tuneezje","name:nl":"Tunis","name:nn":"Tunisia","name:no":"Tunisia","name:wa":"Tunizeye","name:wo":"Tiniisi","name:ga":"T\u00fainis","name:gd":"Tuinisia","name:gl":"Tunes","name:gv":"Yn Tooneesh","name:gu":"\u0a9f\u0acd\u0aaf\u0ac1\u0aa8\u0abf\u0ab6\u0abf\u0aaf\u0abe"},"coordinates":[993,739]},{"type":"Point","properties":{"int_name":"Bizerte","name:nl":"Bizerte","name:ja":"\u30d3\u30bc\u30eb\u30c8","name:ko":"\ube44\uc81c\ub974\ud14c","min_zoom":8.0,"name:it":"Biserta","name:uk":"\u0411\u0456\u0437\u0435\u0440\u0442\u0430","name:ru":"\u0411\u0438\u0437\u0435\u0440\u0442\u0430","name:pl":"Bizerta","name:hr":"Bizerte","id":287544816,"population":136917,"kind":"locality","name:en":"Bizerte","name":"\u0628\u0646\u0632\u0631\u062a","kind_detail":"city","name:de":"Bizerte","source":"openstreetmap.org","name:fr":"Bizerte","name:zh":"\u6bd4\u585e\u5927","name:es":"Bizerta"},"coordinates":[80,2468]},{"type":"Point","properties":{"kind":"locality","name:en":"Ariana","name":"\u0623\u0631\u064a\u0627\u0646\u0629","name:lt":"Ariana","kind_detail":"city","name:eo":"Arjana","id":287554239,"source":"openstreetmap.org","name:fr":"Ariana","int_name":"Ariana","name:ru":"\u0410\u0440\u044c\u044f\u043d\u0430","min_zoom":8.0,"name:pl":"Arjana","name:ca":"Ariana","population":114486},"coordinates":[1011,958]},{"type":"Point","properties":{"kind":"locality","name:en":"Sidi Hassine","name":"\u0633\u064a\u062f\u064a \u062d\u0633\u064a\u0646","kind_detail":"town","min_zoom":8.0,"source":"openstreetmap.org","name:fr":"Sidi Hassine","name:uk":"\u0421\u0456\u0434\u0456-\u0425\u0430\u0441\u0441\u0456\u043d","name:ru":"\u0421\u0456\u0434\u0456-\u0425\u0430\u0441\u0441\u0456\u043d","id":3145829326,"name:ca":"Sidi Hassine","population":109690},"coordinates":[776,632]},{"type":"Point","properties":{"kind":"locality","name:en":"Fouchana","name":"\u0641\u0648\u0634\u0627\u0646\u0629\u200e","kind_detail":"town","min_zoom":8.0,"source":"openstreetmap.org","name:fr":"Fouchana","name:uk":"\u0424\u0443\u0448\u0430\u043d\u0430","name:ru":"\u0424\u0443\u0448\u0430\u043d\u0430","id":286354073,"name:ca":"Fouchana","population":106167},"coordinates":[948,369]},{"type":"Point","properties":{"kind":"locality","name:en":"Ben Arous","name":"\u0628\u0646 \u0639\u0631\u0648\u0633","name:lt":"Ben Arusas","kind_detail":"city","min_zoom":8.0,"source":"openstreetmap.org","name:fr":"Ben Arous","int_name":"Ben Arous","name:ru":"\u0411\u0435\u043d-\u0410\u0440\u0443\u0441","id":287550909,"population":88322},"coordinates":[1096,580]},{"type":"Point","properties":{"kind":"locality","name:en":"Rad\u00e8s","name":"\u0631\u0627\u062f\u0633","kind_detail":"town","min_zoom":8.0,"source":"openstreetmap.org","name:fr":"Rad\u00e8s","id":286091511,"population":59998},"coordinates":[1262,645]},{"type":"Point","properties":{"kind":"locality","name:en":"Manouba","name":"\u0645\u0646\u0648\u0628\u0629","kind_detail":"town","min_zoom":8.0,"source":"openstreetmap.org","name:fr":"La Manouba","name:ru":"\u041c\u0430\u043d\u0443\u0431\u0430","id":2988385577,"population":58792},"coordinates":[761,766]},{"type":"Point","properties":{"kind":"locality","name:en":"Kelibia","name":"\u0642\u0644\u064a\u0628\u064a\u0629","kind_detail":"town","min_zoom":8.0,"source":"openstreetmap.org","name:fr":"K\u00e9libia","name:ru":"\u041a\u0435\u043b\u0438\u0431\u0438\u044f","id":287625642,"population":58491},"coordinates":[3654,901]},{"type":"Point","properties":{"kind":"locality","name:en":"Hammam-Lif","name":"\u062d\u0645\u0627\u0645 \u0627\u0644\u0623\u062a\u0641","kind_detail":"town","min_zoom":8.0,"source":"openstreetmap.org","name:fr":"Hammam-Lif","name:ru":"\u0425\u0430\u043c\u043c\u0430\u043c-\u041b\u0438\u0444","id":4394953973,"population":50000},"coordinates":[1434,489]},{"type":"Point","properties":{"kind":"locality","name:en":"Ezzahra","name":"\u0627\u0644\u0632\u0647\u0631\u0627\u0621","kind_detail":"town","min_zoom":8.0,"source":"openstreetmap.org","name:fr":"Ezzahra","name:ru":"\u042d\u0437-\u0417\u0430\u0445\u0440\u0430","id":1204588103,"population":34962},"coordinates":[1343,532]},{"type":"Point","properties":{"kind":"locality","name:en":"Carthage","name":"\u0642\u0631\u0637\u0627\u062c","name:tr":"Kartaca","kind_detail":"town","min_zoom":8.0,"name:de":"Karthago","source":"openstreetmap.org","name:fr":"Carthage","name:it":"Cartagine","name:vi":"Cathago","name:ru":"\u041a\u0430\u0440\u0444\u0430\u0433\u0435\u043d","id":1136727225,"name:es":"Cartago","population":21276},"coordinates":[1418,927]},{"type":"Point","properties":{"kind":"locality","name:en":"El Alia","name":"\u0627\u0644\u0639\u0627\u0644\u064a\u0629","kind_detail":"town","min_zoom":8.0,"source":"openstreetmap.org","name:fr":"El Alia","name:uk":"\u0415\u043b\u044c-\u0410\u043b\u044c\u044f","name:ru":"\u042d\u043b\u044c-\u0410\u043b\u0438\u044f","id":1839362661,"population":16819},"coordinates":[557,2088]}]},"transit":{"type":"GeometryCollection","geometries":[{"type":"MultiLineString","properties":{"kind":"train","name":"Kalaa Khasba - Dahmani - Sers-Tunis","sort_rank":275,"colour":"blue","source":"openstreetmap.org","min_zoom":6.0,"operator":"SNCFT","osm_relation":true,"colour_name":"blue"},"arcs":[[16],[17],[18]]},{"type":"MultiLineString","properties":{"kind":"train","name":"Bizerte-Tunis","sort_rank":275,"colour":"blue","source":"openstreetmap.org","min_zoom":6.0,"operator":"SNCFT","ref":"Grandes lignes","osm_relation":true,"colour_name":"blue"},"arcs":[[19],[20]]},{"type":"MultiLineString","properties":{"kind":"train","name":"\u062a\u0648\u0646\u0633 - \u0628\u0631\u062c \u0627\u0644\u0633\u062f\u0631\u064a\u0629\u060c \u0627\u0644\u0631\u064a\u0627\u0636","sort_rank":275,"name:fr":"Tunis - Borj Cedria, Riadh","source":"openstreetmap.org","min_zoom":6.0,"operator":"\u0627\u0644\u0634\u0631\u0643\u0629 \u0627\u0644\u0648\u0637\u0646\u064a\u0629 \u0644\u0644\u0633\u0643\u0643 \u0627\u0644\u062d\u062f\u064a\u062f\u064a\u0629 \u0627\u0644\u062a\u0648\u0646\u0633\u064a\u0629","ref":"\u062e\u0637 \u0627\u0644\u0636\u0627\u062d\u064a\u0629 \u0627\u0644\u062c\u0646\u0648\u0628\u064a\u0629 \u0644\u062a\u0648\u0646\u0633","osm_relation":true},"arcs":[[21],[22],[23],[24],[25],[26],[27],[28],[29],[30],[31],[32],[33],[34],[35],[36],[37],[38],[39],[40],[41],[42],[43],[44],[45],[46],[47],[48],[49],[50],[51],[52],[53],[54],[55],[56],[57],[58],[59],[60],[61],[62],[63],[64],[65],[66],[67],[68],[69],[70],[71],[72],[73],[74],[75],[76],[77],[78],[79],[80],[81],[82],[83],[84],[85],[86],[87],[88],[89],[90],[91],[92],[93],[94],[95],[96],[97],[98],[99],[100],[101],[102],[103],[104],[105],[106],[107],[108],[109],[110],[111],[112],[113],[114],[115],[116],[117],[118],[119],[120],[121],[122],[123],[124],[125],[126],[127],[128],[129],[130],[131],[132],[133],[134],[135],[136],[137],[138],[139],[140],[141],[142],[143],[144],[145],[146],[147],[148],[149],[150],[151],[152],[153],[154],[155],[156],[157],[158],[159],[160],[161],[162],[163],[164],[165],[166],[167],[168],[169],[170],[171],[172],[173],[174],[175],[176],[177],[178],[179],[180],[181],[182],[183],[184],[185],[186],[187],[188],[189],[190],[191],[192],[193],[194],[195],[196],[197],[198],[199],[200],[201],[202],[203],[204],[205],[206],[207],[208],[209],[210],[211],[212],[213],[214],[215],[216],[217],[218],[219],[220],[221],[222],[223],[224],[225],[226],[227],[228],[229],[230],[231],[232],[233],[234],[235],[236],[237],[238],[239]]},{"type":"LineString","properties":{"kind":"train","name":"Ghardimaou-Tunis","sort_rank":275,"colour":"blue","source":"openstreetmap.org","min_zoom":6.0,"operator":"SNCFT","ref":"Grandes lignes","osm_relation":true,"colour_name":"blue"},"arcs":[240]},{"type":"MultiLineString","properties":{"kind":"train","name":"\u062a\u0648\u0646\u0633 - \u0633\u0648\u0633\u0629 - \u0635\u0641\u0627\u0642\u0633 - \u0642\u0627\u0628\u0633","sort_rank":275,"colour":"blue","name:fr":"Tunis - Sousse - Sfax - Gab\u00e8s","source":"openstreetmap.org","min_zoom":6.0,"operator":"\u0627\u0644\u0634\u0631\u0643\u0629 \u0627\u0644\u0648\u0637\u0646\u064a\u0629 \u0644\u0644\u0633\u0643\u0643 \u0627\u0644\u062d\u062f\u064a\u062f\u064a\u0629 \u0627\u0644\u062a\u0648\u0646\u0633\u064a\u0629","ref":"Grandes lignes","osm_relation":true,"colour_name":"blue"},"arcs":[[241],[242],[243],[244],[245],[246],[247],[248],[249],[250],[251],[252],[253],[254],[255],[256],[257],[258],[259],[260],[261],[262],[263],[264],[265],[266],[267],[268],[269],[270],[271],[272],[273],[274],[275],[276],[277],[278],[279],[280],[281],[282],[283],[284],[285],[286],[287],[288],[289],[290],[291],[292],[293],[294],[295],[296],[297],[298],[299],[300],[301],[302],[303],[304],[305],[306],[307],[308],[309],[310],[311],[312],[313]]}]},"pois":{"type":"GeometryCollection","geometries":[]},"boundaries":{"type":"GeometryCollection","geometries":[{"type":"MultiLineString","properties":{"name:kg":"Tunisia","name:ka":"\u10e2\u10e3\u10dc\u10d8\u10e1\u10d8","name:ko":"\ud280\ub2c8\uc9c0","name:cv":"\u0422\u0443\u043d\u0438\u0441","name:cs":"Tunisko","name:tt":"\u0422\u0443\u043d\u0438\u0441","name:kw":"Tunisi","name:tk":"Tunis","name:ku":"T\u00fbnis","name:ti":"\u1271\u1292\u12e2\u12eb","name:tl":"Tunisya","name:ce":"\u0422\u0443\u043d\u0438\u0441","name:ta":"\u0ba4\u0bc1\u0ba9\u0bc0\u0b9a\u0bbf\u0baf\u0bbe","name:tg":"\u0422\u0443\u043d\u0438\u0441","name:ca":"Tun\u00edsia","name:te":"\u0c1f\u0c4d\u0c2f\u0c41\u0c28\u0c40\u0c37\u0c3f\u0c2f\u0c3e","name:cy":"Tunisia","name:hr":"Tunis","name:da":"Tunesien","name:de":"Tunesien","source":"openstreetmap.org","name:kn":"\u0c9f\u0cc1\u0ca8\u0cc0\u0cb6\u0cbf\u0caf","name:dv":"\u078c\u07ab\u0782\u07a8\u0790\u07b0","name:lv":"Tunisija","name:lt":"Tunisas","name:uz":"Tunis","name:kk":"\u0422\u0443\u043d\u0438\u0441","name:lb":"Tunesien","name:la":"Tunesia","name:uk":"\u0422\u0443\u043d\u0456\u0441","name:ug":"\u062a\u06c7\u0646\u0649\u0633","name:li":"Tunesi\u00eb","name:ln":"Tunisia","name:el":"\u03a4\u03c5\u03bd\u03b7\u03c3\u03af\u03b1","name:eo":"Tunizio","name:en":"Tunisia","name":"\u062a\u0648\u0646\u0633","name:ee":"Tunisia","name:th":"\u0e1b\u0e23\u0e30\u0e40\u0e17\u0e28\u0e15\u0e39\u0e19\u0e34\u0e40\u0e0b\u0e35\u0e22","name:eu":"Tunisia","name:et":"Tuneesia","name:es":"T\u00fanez","name:rm":"Tunesia","name:az":"Tunis","name:ie":"Tunisia","name:id":"Tunisia","name:zh-min-nan":"Tunisia","name:io":"Tunizia","name:is":"T\u00fanis","name:am":"\u1271\u1292\u12da\u12eb","name:it":"Tunisia","name:an":"Tunicia","name:ru":"\u0422\u0443\u043d\u0438\u0441","name:rw":"Tunisiya","name:af":"Tunisi\u00eb","name:zu":"ITunisia","kind_detail":"2","name:ky":"\u0422\u0443\u043d\u0438\u0441","name:zh-yue":"\u7a81\u5c3c\u897f\u4e9e","name:zh":"\u7a81\u5c3c\u897f\u4e9e","name:so":"Tunisiya","name:sn":"Tunisia","name:sl":"Tunizija","name:sk":"Tunisko","name:ja":"\u30c1\u30e5\u30cb\u30b8\u30a2","name:sh":"Tunis","name:sg":"Tuniz\u00efi","name:se":"Tunisia","name:sc":"Tunisia","name:br":"Tunizia","name:bs":"Republika Tunis","name:bm":"Tunizi","name:bn":"\u09a4\u09bf\u0989\u09a8\u09bf\u09b8\u09bf\u09af\u09bc\u09be","name:bo":"\u0f4f\u0f74\u0f0b\u0f53\u0f72\u0f0b\u0f64\u0f72\u0f0b\u0f61\u0f0d","name:sa":"\u091f\u0941\u0928\u093f\u0936\u093f\u092f\u093e","name:sw":"Tunisia","name:be":"\u0422\u0443\u043d\u0456\u0441","name:su":"Tunisia","name:bg":"\u0422\u0443\u043d\u0438\u0441","name:ss":"IThunisiya","name:ba":"\u0422\u0443\u043d\u0438\u0441","name:sq":"Tunizia","name:jv":"Tunisia","name:pt":"Tun\u00edsia","name:oc":"Tunisia","min_zoom":8.0,"name:ro":"Tunisia","name:pa":"\u0a24\u0a41\u0a28\u0a40\u0a38\u0a40\u0a06","name:os":"\u0422\u0443\u043d\u0438\u0441","name:or":"\u0b1f\u0b4d\u0b5f\u0b41\u0b28\u0b3f\u0b38\u0b3f\u0b06","name:pl":"Tunezja","sort_rank":262,"name:sr":"\u0422\u0443\u043d\u0438\u0441","osm_relation":true,"name:tr":"Tunus","name:hi":"\u091f\u094d\u092f\u0942\u0928\u093f\u0936\u093f\u092f\u093e","name:sv":"Tunisien","name:he":"\u05ea\u05d5\u05e0\u05d9\u05e1\u05d9\u05d4","name:hy":"\u0539\u0578\u0582\u0576\u056b\u057d","name:ht":"Tinizi","name:hu":"Tun\u00e9zia","name:qu":"Tunisya","kind":"country","name:ts":"Tunisia","name:yi":"\u05d8\u05d5\u05e0\u05d9\u05e1\u05d9\u05e2","name:yo":"T\u00f9n\u00eds\u00ed\u00e0","name:mt":"Tune\u017cija","name:ms":"Tunisia","name:mr":"\u091f\u094d\u092f\u0941\u0928\u093f\u0938\u093f\u092f\u093e","name:my":"\u1010\u1030\u1014\u102e\u1038\u101b\u103e\u102c\u1038\u1014\u102d\u102f\u1004\u103a\u1004\u1036","name:mg":"Tonizia","name:vi":"Tunisia","name:ml":"\u0d1f\u0d41\u0d23\u0d40\u0d37\u0d4d\u0d2f","name:mn":"\u0422\u0443\u043d\u0438\u0441","id":-192757,"name:mk":"\u0422\u0443\u043d\u0438\u0441","name:vo":"T\u00fcnis\u00e4n","name:fi":"Tunisia","name:fo":"Tunesia","alt_name:vi":"Tuy-ni-di","name:fr":"Tunisie","name:fy":"Tuneezje","name:nl":"Tunesi\u00eb","name:nn":"Tunisia","name:no":"Tunisia","name:wa":"Tunizeye","name:wo":"Tiniisi","name:ga":"An T\u00fain\u00e9is","name:gd":"Tuinisia","name:gl":"Tunisia","maritime_boundary":true,"name:gv":"Yn Tooneesh","name:gu":"\u0a9f\u0acd\u0aaf\u0ac1\u0aa8\u0abf\u0ab6\u0abf\u0aaf\u0abe"},"arcs":[[0],[1]]},{"type":"MultiLineString","properties":{"name:right:fr":"Ben Arous","name:right:it":"Ben Arous","id:right":-1435836,"min_zoom":8.0,"name:left:it":"Zaghouan","id":-1435837,"osm_relation":true,"name:right":"\u0628\u0646 \u0639\u0631\u0648\u0633","kind":"region","name:left:en":"Zaghouan","sort_rank":256,"kind_detail":"4","name":"\u0632\u063a\u0648\u0627\u0646 - \u0628\u0646 \u0639\u0631\u0648\u0633","source":"openstreetmap.org","name:right:de":"Bin Arus","name:left:fr":"Zaghouan","name:right:en":"Ben Arous","id:left":-1435837,"name:left":"\u0632\u063a\u0648\u0627\u0646"},"arcs":[[2],[3]]},{"type":"LineString","properties":{"name:right:fr":"La Manouba","name:right:it":"Manouba","id:right":-1435828,"min_zoom":8.0,"name:left:it":"Zaghouan","id":-1435837,"osm_relation":true,"name:right":"\u0645\u0646\u0648\u0628\u0629","kind":"region","name:left:en":"Zaghouan","sort_rank":256,"kind_detail":"4","name":"\u0632\u063a\u0648\u0627\u0646 - \u0645\u0646\u0648\u0628\u0629","source":"openstreetmap.org","name:left:fr":"Zaghouan","name:right:ar":"\u0645\u0646\u0648\u0628\u0629\u200e","name:right:en":"Manouba","id:left":-1435837,"name:left":"\u0632\u063a\u0648\u0627\u0646"},"arcs":[4]},{"type":"LineString","properties":{"name:right:fr":"La Manouba","name:right:it":"Manouba","id:right":-1435828,"min_zoom":8.0,"name:left:it":"Ben Arous","id":-1435836,"osm_relation":true,"name:right":"\u0645\u0646\u0648\u0628\u0629","kind":"region","name:left:en":"Ben Arous","sort_rank":256,"kind_detail":"4","name:left:de":"Bin Arus","name":"\u0628\u0646 \u0639\u0631\u0648\u0633 - \u0645\u0646\u0648\u0628\u0629","source":"openstreetmap.org","name:left:fr":"Ben Arous","name:right:ar":"\u0645\u0646\u0648\u0628\u0629\u200e","name:right:en":"Manouba","id:left":-1435836,"name:left":"\u0628\u0646 \u0639\u0631\u0648\u0633"},"arcs":[5]},{"type":"LineString","properties":{"name:right:fr":"Nabeul","name:right:it":"Nabeul","id:right":-1435825,"min_zoom":8.0,"name:left:it":"Ben Arous","id":-1435836,"osm_relation":true,"name:right":"\u0646\u0627\u0628\u0644","kind":"region","name:left:en":"Ben Arous","sort_rank":256,"kind_detail":"4","name:left:de":"Bin Arus","name":"\u0628\u0646 \u0639\u0631\u0648\u0633 - \u0646\u0627\u0628\u0644","source":"openstreetmap.org","name:left:fr":"Ben Arous","name:right:en":"Nabeul","id:left":-1435836,"name:left":"\u0628\u0646 \u0639\u0631\u0648\u0633"},"arcs":[6]},{"type":"MultiLineString","properties":{"kind":"region","name:en":"Ben Arous","name":"\u0628\u0646 \u0639\u0631\u0648\u0633","sort_rank":256,"kind_detail":"4","min_zoom":8.0,"name:de":"Bin Arus","source":"openstreetmap.org","name:fr":"Ben Arous","name:it":"Ben Arous","id":-1435836,"osm_relation":true},"arcs":[[7],[8],[9]]},{"type":"MultiLineString","properties":{"kind":"region","name:en":"Ben Arous","name":"\u0628\u0646 \u0639\u0631\u0648\u0633","sort_rank":256,"kind_detail":"4","min_zoom":8.0,"name:de":"Bin Arus","source":"openstreetmap.org","maritime_boundary":true,"name:fr":"Ben Arous","name:it":"Ben Arous","id":-1435836,"osm_relation":true},"arcs":[[10],[11]]},{"type":"LineString","properties":{"name:right:fr":"La Manouba","name:right:it":"Manouba","id:right":-1435828,"min_zoom":8.0,"name:left:it":"B\u00e9ja","id":-1435833,"osm_relation":true,"name:right":"\u0645\u0646\u0648\u0628\u0629","kind":"region","name:left:en":"B\u00e9ja","sort_rank":256,"kind_detail":"4","name":"\u0628\u0627\u062c\u0629 - \u0645\u0646\u0648\u0628\u0629","source":"openstreetmap.org","name:left:fr":"B\u00e9ja","name:right:ar":"\u0645\u0646\u0648\u0628\u0629\u200e","name:right:en":"Manouba","id:left":-1435833,"name:left":"\u0628\u0627\u062c\u0629"},"arcs":[12]},{"type":"LineString","properties":{"kind":"region","name:en":"Manouba","name":"\u0645\u0646\u0648\u0628\u0629","sort_rank":256,"kind_detail":"4","name:ar":"\u0645\u0646\u0648\u0628\u0629\u200e","min_zoom":8.0,"source":"openstreetmap.org","name:fr":"La Manouba","name:it":"Manouba","id":-1435828,"osm_relation":true},"arcs":[13]},{"type":"LineString","properties":{"kind":"region","name:en":"Nabeul","name":"\u0646\u0627\u0628\u0644","sort_rank":256,"kind_detail":"4","min_zoom":8.0,"source":"openstreetmap.org","name:fr":"Nabeul","name:it":"Nabeul","id":-1435825,"osm_relation":true},"arcs":[14]},{"type":"LineString","properties":{"kind":"region","name:en":"Nabeul","name":"\u0646\u0627\u0628\u0644","sort_rank":256,"kind_detail":"4","min_zoom":8.0,"name:fr":"Nabeul","source":"openstreetmap.org","maritime_boundary":true,"name:it":"Nabeul","id":-1435825,"osm_relation":true},"arcs":[15]}]},"roads":{"type":"GeometryCollection","geometries":[{"type":"LineString","properties":{"kind":"major_road","sort_rank":380,"kind_detail":"primary","min_zoom":8.0,"source":"openstreetmap.org","name:fr":"Rue du 8 Janvier 1938","landuse_kind":"residential","ref":"RN 8 \u0637\u0648","id":27484849},"arcs":[320]},{"type":"LineString","properties":{"kind":"major_road","sort_rank":380,"kind_detail":"primary","min_zoom":8.0,"source":"openstreetmap.org","name:fr":"Route Nationale 7","landuse_kind":"urban_area","ref":"RN 7","id":26267971},"arcs":[321]},{"type":"MultiLineString","properties":{"bus_network":"19C","sort_rank":380,"kind_detail":"primary","kind":"major_road","source":"openstreetmap.org","min_zoom":8.0,"bus_shield_text":"19C","landuse_kind":"urban_area","ref":"RN 9 \u0637\u0648"},"arcs":[[322],[323],[324]]},{"type":"MultiLineString","properties":{"source":"openstreetmap.org","kind":"major_road","landuse_kind":"urban_area","sort_rank":380,"kind_detail":"primary","ref":"RN 7 \u0637\u0648","min_zoom":8.0},"arcs":[[325],[326],[327],[328],[329],[330],[331],[332],[333],[334],[335],[336],[337],[338],[339],[340],[341],[342],[343],[344]]},{"type":"MultiLineString","properties":{"kind":"highway","sort_rank":383,"kind_detail":"motorway","name:fr":"Avenue Meftah Saadallah","source":"openstreetmap.org","min_zoom":8.0,"landuse_kind":"urban_area","ref":"X3 \/ RL 452 \u0637\u0645"},"arcs":[[345],[346]]},{"type":"MultiLineString","properties":{"kind":"major_road","sort_rank":380,"kind_detail":"primary","name:fr":"Avenue Habib Bourguiba","source":"openstreetmap.org","min_zoom":8.0,"landuse_kind":"urban_area","ref":"RN 9 \u0637\u0648"},"arcs":[[347],[348],[349],[350],[351]]},{"type":"MultiLineString","properties":{"source":"openstreetmap.org","kind":"major_road","sort_rank":381,"kind_detail":"trunk","ref":"RR 23 \u0637\u062c","min_zoom":8.0,"name:fr":"Boulevard Qualit\u00e9 de la Vie"},"arcs":[[352],[353],[354],[355]]},{"type":"LineString","properties":{"kind":"major_road","sort_rank":380,"kind_detail":"primary","bus_network":"\u062d\u0627\u0641\u0644\u0629","source":"openstreetmap.org","name:fr":"Avenue Taieb M'Hiri","bus_shield_text":"63","min_zoom":8.0,"landuse_kind":"urban_area","ref":"RN 8 \u0637\u0648","id":22874165},"arcs":[356]},{"type":"LineString","properties":{"kind":"major_road","int_name":"Avenue Habib Bourguiba","sort_rank":380,"kind_detail":"primary","bus_network":"\u062d\u0627\u0641\u0644\u0629","source":"openstreetmap.org","name:fr":"Avenue Habib Bourguiba","bus_shield_text":"63","min_zoom":8.0,"landuse_kind":"urban_area","id":172210315},"arcs":[357]},{"type":"MultiLineString","properties":{"source":"openstreetmap.org","kind":"highway","sort_rank":383,"kind_detail":"motorway","name:ar":"\u0627\u0644\u0637\u0631\u064a\u0642 \u0627\u0644\u0633\u0631\u064a\u0639\u0629 \u062a\u0648\u0646\u0633 - \u0628\u0646\u0632\u0631\u062a","ref":"A 4 \u0637\u0633","min_zoom":8.0},"arcs":[[358],[359]]},{"type":"LineString","properties":{"kind":"major_road","sort_rank":380,"kind_detail":"primary","name:fr":"Avenue Habib Bourgiba","source":"openstreetmap.org","min_zoom":8.0,"landuse_kind":"residential","ref":"RN 11 \u0637\u0648"},"arcs":[360]},{"type":"MultiLineString","properties":{"kind":"major_road","sort_rank":380,"kind_detail":"primary","min_zoom":8.0,"source":"openstreetmap.org","name:fr":"Route Nationale 11 Mateur - Bizerte","landuse_kind":"urban_area","ref":"RN 11 \u0637\u0648"},"arcs":[[361],[362],[363]]},{"type":"LineString","properties":{"kind":"major_road","sort_rank":381,"kind_detail":"trunk","bus_network":null,"source":"openstreetmap.org","name:fr":"Route Nationale Num\u00e9ro 9","bus_shield_text":"20","min_zoom":8.0,"ref":"RN 9 \u0637\u0648","id":287413702},"arcs":[364]},{"type":"MultiLineString","properties":{"source":"openstreetmap.org","kind":"major_road","kind_detail":"trunk","sort_rank":381,"landuse_kind":"urban_area","ref":"Z4","min_zoom":8.0},"arcs":[[365],[366],[367],[368],[369]]},{"type":"MultiLineString","properties":{"source":"openstreetmap.org","kind":"major_road","sort_rank":380,"kind_detail":"primary","ref":"RN 3 \u0637\u0648","min_zoom":8.0},"arcs":[[370],[371]]},{"type":"MultiLineString","properties":{"source":"openstreetmap.org","kind":"highway","sort_rank":383,"kind_detail":"motorway","min_zoom":8.0,"ref":"A 4 \u0637\u0633","name:fr":"Autoroute Tunis - Bizerte"},"arcs":[[372],[373],[374],[375],[376]]},{"type":"LineString","properties":{"kind":"highway","sort_rank":383,"kind_detail":"motorway","name:fr":"Route Nationale 9 Tunis - La Marsa","source":"openstreetmap.org","min_zoom":8.0,"landuse_kind":"urban_area","ref":"RN 9 \u0637\u0648"},"arcs":[377]},{"type":"LineString","properties":{"kind":"major_road","sort_rank":381,"kind_detail":"trunk","bus_network":null,"source":"openstreetmap.org","name:fr":"Route Nationale 9 Tunis - La Marsa","bus_shield_text":"20","min_zoom":8.0,"landuse_kind":"residential","ref":"RN 9 \u0637\u0648","id":120656825},"arcs":[378]},{"type":"MultiLineString","properties":{"source":"openstreetmap.org","kind":"major_road","kind_detail":"trunk","sort_rank":381,"landuse_kind":"urban_area","ref":"X3 \/ RL 452 \u0637\u0645","min_zoom":8.0},"arcs":[[379],[380],[381],[382],[383],[384],[385]]},{"type":"MultiLineString","properties":{"source":"openstreetmap.org","kind":"major_road","kind_detail":"trunk","sort_rank":381,"landuse_kind":"urban_area","ref":"RR 33e2 \u0637\u062c","min_zoom":8.0},"arcs":[[386],[387],[388],[389],[390],[391],[392],[393],[394],[395],[396],[397],[398],[399],[400],[401],[402],[403],[404]]},{"type":"MultiLineString","properties":{"source":"openstreetmap.org","kind":"major_road","landuse_kind":"urban_area","sort_rank":380,"kind_detail":"primary","ref":"RL 460 \u0637\u0645","min_zoom":8.0},"arcs":[[405],[406],[407],[408]]},{"type":"LineString","properties":{"kind":"major_road","sort_rank":380,"kind_detail":"primary","bus_network":null,"source":"openstreetmap.org","name:fr":"Avenue Kheireddine Pacha","bus_shield_text":"20","min_zoom":8.0,"landuse_kind":"urban_area","id":19800017},"arcs":[409]},{"type":"LineString","properties":{"source":"openstreetmap.org","kind":"major_road","landuse_kind":"urban_area","sort_rank":380,"kind_detail":"primary","ref":"RR 35 \u0637\u062c","min_zoom":8.0},"arcs":[410]},{"type":"LineString","properties":{"kind":"highway","network":null,"sort_rank":383,"kind_detail":"motorway","min_zoom":8.0,"source":"openstreetmap.org","name:fr":"Autoroute Tunis - Bizerte","all_networks":[null],"landuse_kind":"urban_area","shield_text":"4","ref":"A4 \u0637\u0633","id":174310439,"all_shield_texts":["4"]},"arcs":[411]},{"type":"MultiLineString","properties":{"kind":"major_road","network":null,"sort_rank":381,"landuse_kind":"urban_area","source":"openstreetmap.org","min_zoom":8.0,"kind_detail":"trunk","shield_text":"33","ref":"RR 33 \u0637\u062c"},"arcs":[[412],[413]]},{"type":"LineString","properties":{"kind":"major_road","network":null,"sort_rank":381,"kind_detail":"trunk","source":"openstreetmap.org","min_zoom":8.0,"landuse_kind":"urban_area","shield_text":"10","id":88505966},"arcs":[414]},{"type":"MultiLineString","properties":{"source":"openstreetmap.org","kind":"major_road","landuse_kind":"urban_area","sort_rank":380,"kind_detail":"primary","ref":"RR 27 \u0637\u062c","min_zoom":8.0},"arcs":[[415],[416]]},{"type":"LineString","properties":{"kind":"highway","sort_rank":383,"kind_detail":"motorway","min_zoom":8.0,"source":"openstreetmap.org","name:fr":"Autoroute Tunis - Sousse - Sfax","landuse_kind":"park","ref":"A 1 \u0637\u0633","id":104141927},"arcs":[417]},{"type":"LineString","properties":{"source":"openstreetmap.org","kind":"major_road","landuse_kind":"urban_area","sort_rank":380,"kind_detail":"primary","min_zoom":8.0,"name:fr":"Rue Bab Jedid"},"arcs":[418]},{"type":"MultiLineString","properties":{"kind":"major_road","name:ar":"\u0634\u0627\u0631\u0639 \u0641\u0637\u0648\u0645\u0629 \u0628\u0648\u0631\u0642\u064a\u0628\u0629","sort_rank":380,"kind_detail":"primary","alt_name:ar":"\u0627\u0644\u0637\u0631\u064a\u0642 \u0627\u0644\u0648\u0637\u0646\u064a\u0629 \u062a\u0648\u0646\u0633 - \u0642\u0631\u0637\u0627\u062c","name:fr":"Avenue Fattouma Bourguiba","source":"openstreetmap.org","min_zoom":8.0,"landuse_kind":"urban_area","alt_name:fr":"Route Nationale Tunis - Carthage","ref":"RN 10 \u0637\u0648"},"arcs":[[419],[420],[421],[422],[423],[424],[425],[426]]},{"type":"MultiLineString","properties":{"source":"openstreetmap.org","kind":"major_road","kind_detail":"trunk","sort_rank":381,"landuse_kind":"urban_area","ref":"RN 5 \u0637\u0648","min_zoom":8.0},"arcs":[[427],[428],[429],[430],[431],[432],[433],[434],[435],[436],[437],[438],[439],[440],[441]]},{"type":"LineString","properties":{"kind":"major_road","sort_rank":380,"kind_detail":"primary","min_zoom":8.0,"source":"openstreetmap.org","name:fr":"Route Nationale 7 - Tunis-Tabarka","landuse_kind":"urban_area","ref":"RN 7 \u0637\u0648","id":26268813},"arcs":[442]},{"type":"LineString","properties":{"kind":"major_road","sort_rank":381,"kind_detail":"trunk","name:ar":"\u0627\u0644\u0637\u0631\u064a\u0642 \u0627\u0644\u0648\u0637\u0646\u064a\u0629 \u0631\u0642\u0645  9","bus_network":null,"source":"openstreetmap.org","name:fr":"Route Nationale Num\u00e9ro 9","bus_shield_text":"20","min_zoom":8.0,"ref":"RN 9 \u0637\u0648","id":142540522},"arcs":[443]},{"type":"MultiLineString","properties":{"sort_rank":383,"kind_detail":"motorway","min_zoom":8.0,"kind":"highway","source":"openstreetmap.org"},"arcs":[[444],[445],[446],[447]]},{"type":"LineString","properties":{"source":"openstreetmap.org","kind":"highway","sort_rank":383,"kind_detail":"motorway","name:ar":"\u0627\u0644\u0637\u0631\u064a\u0642 \u0627\u0644\u0633\u0631\u064a\u0639\u0629 \u062a\u0648\u0646\u0633 - \u0648\u0627\u062f \u0627\u0644\u0632\u0631\u0642\u0629","ref":"A 3 \u0637\u0633","min_zoom":8.0},"arcs":[448]},{"type":"MultiLineString","properties":{"source":"openstreetmap.org","kind":"highway","sort_rank":383,"kind_detail":"motorway","min_zoom":8.0,"name:fr":"Autoroute Tunis - Bizerte"},"arcs":[[449],[450],[451],[452]]},{"type":"MultiLineString","properties":{"bus_network":"\u062d\u0627\u0641\u0644\u0629","sort_rank":380,"kind_detail":"primary","kind":"major_road","source":"openstreetmap.org","min_zoom":8.0,"bus_shield_text":"63","landuse_kind":"urban_area"},"arcs":[[453],[454]]},{"type":"MultiLineString","properties":{"kind":"highway","network":null,"sort_rank":383,"kind_detail":"motorway","name:fr":"Autoroute Tunis - Bizerte","source":"openstreetmap.org","min_zoom":8.0,"all_networks":[null],"landuse_kind":"urban_area","shield_text":"4","ref":"A 4 \u0637\u0633","all_shield_texts":["4"]},"arcs":[[455],[456]]},{"type":"MultiLineString","properties":{"kind":"highway","sort_rank":383,"kind_detail":"motorway","name:fr":"Route Nationale 8 Bizerte - Tunis","source":"openstreetmap.org","min_zoom":8.0,"landuse_kind":"urban_area","ref":"RN 8 \u0637\u0648"},"arcs":[[457],[458]]},{"type":"MultiLineString","properties":{"source":"openstreetmap.org","kind":"major_road","kind_detail":"trunk","sort_rank":381,"landuse_kind":"urban_area","ref":"RR 33 \u0637\u062c","min_zoom":8.0},"arcs":[[459],[460],[461]]},{"type":"LineString","properties":{"kind":"major_road","sort_rank":380,"kind_detail":"primary","min_zoom":8.0,"source":"openstreetmap.org","name:fr":"Rue el Jazira","landuse_kind":"urban_area","ref":"RN 9 \u0637\u0648","id":39169967},"arcs":[462]},{"type":"MultiLineString","properties":{"source":"openstreetmap.org","kind":"major_road","sort_rank":380,"kind_detail":"primary","ref":"RN 7 \u0637\u0648","min_zoom":8.0},"arcs":[[463],[464],[465],[466],[467],[468],[469],[470],[471],[472],[473],[474],[475],[476],[477],[478],[479],[480],[481],[482],[483],[484]]},{"type":"LineString","properties":{"kind":"major_road","sort_rank":380,"kind_detail":"primary","bus_network":"\u062d\u0627\u0641\u0644\u0629","source":"openstreetmap.org","name:fr":"Avenue Habib Bourguiba","bus_shield_text":"63","min_zoom":8.0,"landuse_kind":"urban_area","id":102779320},"arcs":[485]},{"type":"MultiLineString","properties":{"source":"openstreetmap.org","kind":"major_road","sort_rank":380,"kind_detail":"primary","name:ar":"\u0627\u0644\u0637\u0631\u064a\u0642 \u0627\u0644\u0648\u0637\u0646\u064a\u0629 1","min_zoom":8.0},"arcs":[[486],[487],[488]]},{"type":"MultiLineString","properties":{"source":"openstreetmap.org","kind":"major_road","sort_rank":380,"kind_detail":"primary","name:ar":"\u0627\u0644\u0637\u0631\u064a\u0642 \u0627\u0644\u0648\u0637\u0646\u064a\u0629 1","ref":"RN 1 \u0637\u0648","min_zoom":8.0},"arcs":[[489],[490],[491],[492],[493],[494],[495],[496]]},{"type":"LineString","properties":{"kind":"ferry","name":"Palermo - \u062a\u0648\u0646\u0633\/\u062d\u0644\u0642 \u0627\u0644\u0648\u0627\u062f\u064a","sort_rank":355,"name:ar":"\u0628\u0627\u0644\u064a\u0631\u0645\u0648 - \u062a\u0648\u0646\u0633\/\u062d\u0644\u0642 \u0627\u0644\u0648\u0627\u062f\u064a","name:fr":"Palermo - Tunis\/La Goulette","source":"openstreetmap.org","min_zoom":8.0,"name:it":"Palermo - Tunis\/La Goulette"},"arcs":[497]},{"type":"MultiLineString","properties":{"source":"openstreetmap.org","kind":"highway","landuse_kind":"urban_area","sort_rank":383,"kind_detail":"motorway","ref":"X3 \/ RL 452 \u0637\u0645","min_zoom":8.0},"arcs":[[498],[499]]},{"type":"MultiLineString","properties":{"sort_rank":381,"source":"openstreetmap.org","min_zoom":8.0,"kind":"major_road","kind_detail":"trunk"},"arcs":[[500],[501],[502],[503],[504],[505],[506],[507],[508],[509],[510],[511],[512],[513],[514],[515],[516],[517],[518],[519],[520],[521],[522],[523],[524],[525]]},{"type":"MultiLineString","properties":{"source":"openstreetmap.org","kind":"highway","sort_rank":383,"kind_detail":"motorway","name:ar":"\u0627\u0644\u0637\u0631\u064a\u0642 \u0627\u0644\u0633\u0631\u064a\u0639\u0629 \u062a\u0648\u0646\u0633 - \u0633\u0648\u0633\u0629 - \u0635\u0641\u0627\u0642\u0633","ref":"A 1 \u0637\u0633","min_zoom":8.0},"arcs":[[526],[527]]},{"type":"MultiLineString","properties":{"kind":"major_road","sort_rank":380,"kind_detail":"primary","name:fr":"Route Nationale Tunis - Bizerte","source":"openstreetmap.org","min_zoom":8.0,"landuse_kind":"urban_area","ref":"RN 8 \u0637\u0648"},"arcs":[[528],[529]]},{"type":"MultiLineString","properties":{"kind":"major_road","sort_rank":381,"kind_detail":"trunk","bus_network":null,"source":"openstreetmap.org","name:fr":"Route Nationale Num\u00e9ro 9","bus_shield_text":"20","min_zoom":8.0,"landuse_kind":"urban_area","ref":"RN 9 \u0637\u0648","id":287413702},"arcs":[[530],[531],[532]]},{"type":"MultiLineString","properties":{"kind":"major_road","network":null,"sort_rank":381,"landuse_kind":"urban_area","source":"openstreetmap.org","min_zoom":8.0,"kind_detail":"trunk","shield_text":"23","ref":"RR 23 \u0637\u062c"},"arcs":[[533],[534]]},{"type":"MultiLineString","properties":{"kind":"highway","network":null,"sort_rank":383,"kind_detail":"motorway","name:ar":"\u0627\u0644\u0637\u0631\u064a\u0642 \u0627\u0644\u0633\u0631\u064a\u0639\u0629 \u062a\u0648\u0646\u0633 - \u0648\u0627\u062f \u0627\u0644\u0632\u0631\u0642\u0629","source":"openstreetmap.org","min_zoom":8.0,"all_networks":[null],"shield_text":"3","ref":"A 3 \u0637\u0633","all_shield_texts":["3"]},"arcs":[[535],[536],[537]]},{"type":"MultiLineString","properties":{"source":"openstreetmap.org","kind":"major_road","sort_rank":381,"kind_detail":"trunk","min_zoom":8.0,"name:fr":"Pont de Bizerte"},"arcs":[[538],[539]]},{"type":"MultiLineString","properties":{"source":"openstreetmap.org","kind":"major_road","sort_rank":381,"kind_detail":"trunk","ref":"RR 23 \u0637\u062c","min_zoom":8.0},"arcs":[[540],[541],[542],[543]]},{"type":"LineString","properties":{"kind":"major_road","sort_rank":380,"kind_detail":"primary","bus_network":"\u062d\u0627\u0641\u0644\u0629","source":"openstreetmap.org","name:fr":"Avenue du 10 D\u00e9cembre 1948","bus_shield_text":"63","min_zoom":8.0,"landuse_kind":"urban_area","id":22875464},"arcs":[544]},{"type":"LineString","properties":{"kind":"highway","sort_rank":383,"kind_detail":"motorway","name:ar":"\u0627\u0644\u0637\u0631\u064a\u0642 \u0627\u0644\u0633\u0631\u064a\u0639\u0629 \u062a\u0648\u0646\u0633 - \u0633\u0648\u0633\u0629 - \u0635\u0641\u0627\u0642\u0633","source":"openstreetmap.org","min_zoom":8.0,"landuse_kind":"park","ref":"A 1 \u0637\u0633","id":26095701},"arcs":[545]},{"type":"LineString","properties":{"kind":"major_road","sort_rank":381,"kind_detail":"trunk","min_zoom":8.0,"source":"openstreetmap.org","name:fr":"Route Nationale Tunis- La Marsa","landuse_kind":"residential","ref":"RN 9 \u0637\u0648","id":141088330},"arcs":[546]},{"type":"LineString","properties":{"kind":"major_road","sort_rank":380,"kind_detail":"primary","name:fr":"Route Nationale Tunis - Bizerte","source":"openstreetmap.org","min_zoom":8.0,"ref":"RN 8 \u0637\u0648","id":174324225},"arcs":[547]},{"type":"MultiLineString","properties":{"source":"openstreetmap.org","kind":"major_road","sort_rank":380,"kind_detail":"primary","ref":"RR 27 \u0637\u062c","min_zoom":8.0},"arcs":[[548],[549],[550],[551],[552],[553],[554],[555],[556],[557],[558],[559],[560],[561],[562]]},{"type":"MultiLineString","properties":{"bus_network":"19C","sort_rank":380,"kind_detail":"primary","kind":"major_road","source":"openstreetmap.org","min_zoom":8.0,"bus_shield_text":"19C","landuse_kind":"urban_area","ref":"RN 1 \u0637\u0648"},"arcs":[[563],[564],[565],[566],[567],[568],[569],[570],[571],[572],[573]]},{"type":"LineString","properties":{"kind":"major_road","network":null,"sort_rank":381,"kind_detail":"trunk","min_zoom":8.0,"source":"openstreetmap.org","name:fr":"Avenue Didon;Route Nationale Tunis - Carthage","landuse_kind":"urban_area","shield_text":"10","ref":"RN 10 \u0637\u0648","id":26335791},"arcs":[574]},{"type":"LineString","properties":{"kind":"highway","sort_rank":383,"kind_detail":"motorway","min_zoom":8.0,"source":"openstreetmap.org","name:fr":"Autoroute Tunis - Bizerte","landuse_kind":"urban_area","ref":"A 4 \u0637\u0633","id":180252979},"arcs":[575]},{"type":"MultiLineString","properties":{"kind":"highway","sort_rank":383,"kind_detail":"motorway","name:fr":"Route Nationale 1 Tunis - Ras Jedir - Libye","source":"openstreetmap.org","min_zoom":8.0,"landuse_kind":"urban_area","ref":"RN 1 \u0637\u0648"},"arcs":[[576],[577]]},{"type":"LineString","properties":{"bus_network":"\u062d\u0627\u0641\u0644\u0629","sort_rank":380,"kind_detail":"primary","kind":"major_road","source":"openstreetmap.org","min_zoom":8.0,"bus_shield_text":"63","landuse_kind":"urban_area","ref":"RN 10 \u0637\u0648"},"arcs":[578]},{"type":"LineString","properties":{"source":"openstreetmap.org","kind":"major_road","landuse_kind":"residential","sort_rank":380,"kind_detail":"primary","ref":"RN 11 \u0637\u0648","min_zoom":8.0},"arcs":[579]},{"type":"LineString","properties":{"kind":"major_road","sort_rank":381,"kind_detail":"trunk","name:ar":"\u0627\u0644\u0637\u0631\u064a\u0642 \u0627\u0644\u0648\u0637\u0646\u064a\u0629 \u0631\u0642\u0645  9","bus_network":null,"source":"openstreetmap.org","name:fr":"Route Nationale Num\u00e9ro 9","bus_shield_text":"20","min_zoom":8.0,"landuse_kind":"aerodrome","ref":"RN 9 \u0637\u0648","id":142540522},"arcs":[580]},{"type":"MultiLineString","properties":{"source":"openstreetmap.org","kind":"major_road","landuse_kind":"urban_area","sort_rank":380,"kind_detail":"primary","min_zoom":8.0},"arcs":[[581],[582],[583],[584],[585],[586],[587],[588],[589],[590],[591],[592],[593],[594],[595],[596],[597],[598],[599],[600],[601],[602],[603],[604],[605],[606],[607],[608],[609],[610],[611],[612],[613],[614],[615],[616],[617],[618],[619],[620],[621],[622],[623],[624],[625],[626],[627],[628],[629],[630],[631],[632],[633],[634],[635],[636],[637],[638],[639],[640],[641],[642],[643],[644]]},{"type":"MultiLineString","properties":{"kind":"highway","network":null,"sort_rank":383,"kind_detail":"motorway","min_zoom":8.0,"source":"openstreetmap.org","name:fr":"Autoroute Bizerte - Tunis","all_networks":[null],"shield_text":"4","ref":"A 4 \u0637\u0633","all_shield_texts":["4"]},"arcs":[[645],[646]]},{"type":"LineString","properties":{"kind":"major_road","sort_rank":380,"kind_detail":"primary","name:ar":"\u0634\u0627\u0631\u0639 10 \u062f\u064a\u0633\u0645\u0628\u0631 1948","bus_network":"\u062d\u0627\u0641\u0644\u0629","source":"openstreetmap.org","name:fr":"Avenue Habib Bourguiba","bus_shield_text":"63","min_zoom":8.0,"landuse_kind":"urban_area","id":458857230},"arcs":[647]},{"type":"MultiLineString","properties":{"source":"openstreetmap.org","kind":"highway","landuse_kind":"urban_area","sort_rank":383,"kind_detail":"motorway","min_zoom":8.0},"arcs":[[648],[649],[650],[651],[652],[653],[654],[655],[656],[657],[658]]},{"type":"LineString","properties":{"source":"openstreetmap.org","kind":"ferry","name":"\u062a\u0648\u0646\u0633\/\u062d\u0644\u0642 \u0627\u0644\u0648\u0627\u062f\u064a - Marseille","sort_rank":355,"name:ar":"\u062a\u0648\u0646\u0633\/\u062d\u0644\u0642 \u0627\u0644\u0648\u0627\u062f\u064a - \u0645\u0631\u0633\u064a\u0644\u064a\u0627","min_zoom":8.0,"name:fr":"Tunis\/La Goulette - Marseille"},"arcs":[659]},{"type":"LineString","properties":{"source":"openstreetmap.org","kind":"highway","sort_rank":383,"kind_detail":"motorway","min_zoom":8.0,"ref":"A 3 \u0637\u0633","name:fr":"Autoroute Tunis - Oued Zarga"},"arcs":[660]},{"type":"LineString","properties":{"kind":"major_road","sort_rank":380,"kind_detail":"primary","min_zoom":8.0,"source":"openstreetmap.org","name:fr":"Avenue Taieb Mhiri","landuse_kind":"urban_area","ref":"RN 10 \u0637\u0648","id":100552830},"arcs":[661]},{"type":"MultiLineString","properties":{"kind":"major_road","sort_rank":380,"kind_detail":"primary","name:fr":"Route Nationale 7","source":"openstreetmap.org","min_zoom":8.0,"landuse_kind":"urban_area","ref":"RN 7 \u0637\u0648"},"arcs":[[662],[663],[664],[665],[666],[667],[668],[669],[670],[671],[672],[673]]},{"type":"LineString","properties":{"kind":"major_road","sort_rank":381,"kind_detail":"trunk","bus_network":null,"source":"openstreetmap.org","name:fr":"Route Nationale Num\u00e9ro 9","bus_shield_text":"20","min_zoom":8.0,"landuse_kind":"aerodrome","ref":"RN 9 \u0637\u0648","id":287413702},"arcs":[674]},{"type":"MultiLineString","properties":{"source":"openstreetmap.org","kind":"major_road","sort_rank":381,"kind_detail":"trunk","ref":"RN 5 \u0637\u0648","min_zoom":8.0},"arcs":[[675],[676],[677],[678],[679],[680],[681],[682],[683],[684],[685],[686],[687],[688],[689],[690],[691],[692],[693],[694],[695],[696],[697]]},{"type":"MultiLineString","properties":{"source":"openstreetmap.org","kind":"major_road","sort_rank":381,"kind_detail":"trunk","ref":"RN 3 \u0637\u0648","min_zoom":8.0},"arcs":[[698],[699],[700],[701],[702],[703],[704],[705],[706],[707]]},{"type":"LineString","properties":{"kind":"major_road","sort_rank":380,"landuse_kind":"urban_area","min_zoom":8.0,"source":"openstreetmap.org","name:fr":"Rue Jamel Abdel Nasser","kind_detail":"primary","id":39169970},"arcs":[708]},{"type":"MultiLineString","properties":{"kind":"major_road","network":null,"sort_rank":381,"landuse_kind":"urban_area","name:fr":"Boulevard Qualit\u00e9 de la Vie","source":"openstreetmap.org","min_zoom":8.0,"kind_detail":"trunk","shield_text":"23","ref":"RR 23 \u0637\u062c"},"arcs":[[709],[710]]},{"type":"MultiLineString","properties":{"source":"openstreetmap.org","kind":"major_road","kind_detail":"trunk","sort_rank":381,"landuse_kind":"urban_area","ref":"RR 23 \u0637\u062c","min_zoom":8.0},"arcs":[[711],[712]]},{"type":"LineString","properties":{"source":"openstreetmap.org","kind":"ferry","name":"Marseille - Tunis\/La Goulette","sort_rank":355,"min_zoom":8.0,"osm_relation":true},"arcs":[713]},{"type":"MultiLineString","properties":{"kind":"major_road","network":null,"sort_rank":380,"kind_detail":"primary","source":"openstreetmap.org","min_zoom":8.0,"landuse_kind":"urban_area","shield_text":"35","ref":"RR 35 \u0637\u062c"},"arcs":[[714],[715],[716],[717],[718],[719],[720],[721],[722],[723],[724]]},{"type":"LineString","properties":{"kind":"highway","sort_rank":383,"kind_detail":"motorway","name:fr":"Autoroute Tunis - Bizerte","source":"openstreetmap.org","min_zoom":8.0,"landuse_kind":"urban_area","ref":"A4 \u0637\u0633"},"arcs":[725]},{"type":"MultiLineString","properties":{"source":"openstreetmap.org","kind":"major_road","kind_detail":"trunk","sort_rank":381,"landuse_kind":"urban_area","ref":"X 2","min_zoom":8.0},"arcs":[[726],[727]]},{"type":"MultiLineString","properties":{"source":"openstreetmap.org","kind":"major_road","kind_detail":"trunk","sort_rank":381,"landuse_kind":"urban_area","ref":"RN 3 \u0637\u0648","min_zoom":8.0},"arcs":[[728],[729],[730],[731],[732],[733],[734],[735],[736],[737],[738],[739],[740],[741],[742],[743],[744],[745],[746],[747],[748],[749],[750],[751],[752],[753]]},{"type":"LineString","properties":{"kind":"ferry","name":"Genova - \u062a\u0648\u0646\u0633\/\u062d\u0644\u0642 \u0627\u0644\u0648\u0627\u062f\u064a","sort_rank":355,"name:ar":"\u062c\u0646\u0648\u0649 - \u062a\u0648\u0646\u0633\/\u062d\u0644\u0642 \u0627\u0644\u0648\u0627\u062f\u064a","name:fr":"Genova - Tunis\/La Goulette","source":"openstreetmap.org","min_zoom":8.0,"name:it":"Genova - Tunis\/La Goulette"},"arcs":[754]},{"type":"MultiLineString","properties":{"kind":"major_road","network":null,"sort_rank":381,"kind_detail":"trunk","source":"openstreetmap.org","min_zoom":8.0,"shield_text":"23","ref":"RR 23 \u0637\u062c"},"arcs":[[755],[756],[757],[758],[759],[760],[761],[762],[763]]},{"type":"MultiLineString","properties":{"source":"openstreetmap.org","kind":"major_road","kind_detail":"trunk","sort_rank":381,"landuse_kind":"urban_area","ref":"RN 10 \u0637\u0648","min_zoom":8.0},"arcs":[[764],[765]]},{"type":"LineString","properties":{"kind":"highway","sort_rank":383,"kind_detail":"motorway","name:ar":"\u0627\u0644\u0637\u0631\u064a\u0642 \u0627\u0644\u0633\u0631\u064a\u0639\u0629 \u062a\u0648\u0646\u0633 - \u0628\u0646\u0632\u0631\u062a","source":"openstreetmap.org","min_zoom":8.0,"landuse_kind":"urban_area","ref":"A 4 \u0637\u0633","id":179891090},"arcs":[766]},{"type":"MultiLineString","properties":{"source":"openstreetmap.org","kind":"major_road","sort_rank":381,"kind_detail":"trunk","ref":"RN 8 \u0637\u0648","min_zoom":8.0,"name:fr":"Route Nationale 8 Tunis - Bizerte"},"arcs":[[767],[768],[769],[770],[771],[772],[773],[774],[775],[776]]},{"type":"MultiLineString","properties":{"kind":"major_road","sort_rank":381,"landuse_kind":"urban_area","name:fr":"Route Nationale 8 Tunis - Bizerte","source":"openstreetmap.org","min_zoom":8.0,"kind_detail":"trunk","ref":"RN 8 \u0637\u0648"},"arcs":[[777],[778],[779],[780],[781],[782],[783],[784],[785],[786]]},{"type":"MultiLineString","properties":{"source":"openstreetmap.org","kind":"major_road","sort_rank":380,"kind_detail":"primary","ref":"RN 5 \u0637\u0648","min_zoom":8.0},"arcs":[[787],[788],[789],[790],[791],[792],[793],[794],[795],[796]]},{"type":"MultiLineString","properties":{"kind":"major_road","sort_rank":381,"landuse_kind":"urban_area","name:ar":"\u0627\u0644\u0637\u0631\u064a\u0642 \u0627\u0644\u0648\u0637\u0646\u064a\u0629 1","source":"openstreetmap.org","min_zoom":8.0,"kind_detail":"trunk","ref":"RN 1 \u0637\u0648"},"arcs":[[797],[798],[799],[800]]},{"type":"LineString","properties":{"source":"openstreetmap.org","kind":"ferry","name":"Tunis\/La Goulette - Civitavecchia","sort_rank":355,"min_zoom":8.0,"osm_relation":true,"id":-5288731},"arcs":[801]},{"type":"MultiLineString","properties":{"source":"openstreetmap.org","kind":"major_road","landuse_kind":"urban_area","sort_rank":380,"kind_detail":"primary","min_zoom":8.0,"name:fr":"Avenue Mohamed V"},"arcs":[[802],[803],[804],[805],[806]]},{"type":"LineString","properties":{"kind":"major_road","sort_rank":380,"landuse_kind":"urban_area","name:ar":"\u0634\u0627\u0631\u0639 \u0627\u0644\u0628\u062d\u0631 \u0627\u0644\u0623\u0628\u064a\u0636 \u0627\u0644\u0645\u062a\u0648\u0633\u0637","source":"openstreetmap.org","min_zoom":8.0,"kind_detail":"primary","id":539725473},"arcs":[807]},{"type":"MultiLineString","properties":{"source":"openstreetmap.org","kind":"highway","sort_rank":383,"kind_detail":"motorway","ref":"RR 22 \u0637\u062c","min_zoom":8.0},"arcs":[[808],[809]]},{"type":"LineString","properties":{"kind":"major_road","network":null,"sort_rank":380,"kind_detail":"primary","min_zoom":8.0,"source":"openstreetmap.org","name:fr":"Avenue 7 Novembre","landuse_kind":"urban_area","shield_text":"10","ref":"RN 10 \u0637\u0648","id":26251337},"arcs":[810]},{"type":"LineString","properties":{"kind":"ferry","name":"Salerno - \u062a\u0648\u0646\u0633","sort_rank":355,"name:ar":"\u0633\u0627\u0644\u064a\u0631\u0646\u0648 - \u062a\u0648\u0646\u0633","min_zoom":8.0,"source":"openstreetmap.org","name:fr":"Salerno - Tunis","name:it":"Salerno - Tunis"},"arcs":[811]},{"type":"MultiLineString","properties":{"source":"openstreetmap.org","kind":"major_road","landuse_kind":"urban_area","sort_rank":380,"kind_detail":"primary","ref":"RN 3 \u0637\u0648","min_zoom":8.0},"arcs":[[812],[813],[814],[815],[816],[817],[818],[819],[820],[821],[822],[823],[824],[825],[826],[827],[828],[829],[830],[831],[832],[833],[834]]},{"type":"MultiLineString","properties":{"kind":"major_road","int_name":"Avenue Habib Bourghiba","sort_rank":380,"kind_detail":"primary","name:ar":"\u0634\u0627\u0631\u0639 \u0627\u0644\u062d\u0628\u064a\u0628 \u0628\u0648\u0631\u0642\u064a\u0628\u0629","name:fr":"Avenue Habib Bourguiba","source":"openstreetmap.org","min_zoom":8.0,"landuse_kind":"urban_area","ref":"RN 9 \u0637\u0648"},"arcs":[[835],[836]]},{"type":"LineString","properties":{"sort_rank":380,"kind_detail":"primary","min_zoom":8.0,"kind":"major_road","source":"openstreetmap.org"},"arcs":[837]},{"type":"MultiLineString","properties":{"source":"openstreetmap.org","kind":"highway","landuse_kind":"park","sort_rank":383,"kind_detail":"motorway","min_zoom":8.0,"id":496144951},"arcs":[[838],[839]]},{"type":"LineString","properties":{"kind":"major_road","sort_rank":380,"kind_detail":"primary","name:ar":"\u0627\u0644\u0637\u0631\u064a\u0642 \u0627\u0644\u0648\u0637\u0646\u064a\u0629 \u062a\u0648\u0646\u0633 - \u0637\u0628\u0631\u0642\u0629 - \u0627\u0644\u062c\u0632\u0627\u0626\u0631","source":"openstreetmap.org","min_zoom":8.0,"landuse_kind":"urban_area","ref":"RN 7 \u0637\u0648","id":99018946},"arcs":[840]},{"type":"LineString","properties":{"kind":"highway","network":null,"sort_rank":383,"kind_detail":"motorway","name:ar":"\u0627\u0644\u0637\u0631\u064a\u0642 \u0627\u0644\u0633\u0631\u064a\u0639\u0629 \u062a\u0648\u0646\u0633 - \u0628\u0646\u0632\u0631\u062a","source":"openstreetmap.org","min_zoom":8.0,"all_networks":[null,null],"landuse_kind":"urban_area","shield_text":"4","ref":"A 4 \u0637\u0633","all_shield_texts":["4","4"]},"arcs":[841]},{"type":"MultiLineString","properties":{"kind":"major_road","name:ar":"\u0634\u0627\u0631\u0639 \u0641\u0637\u0648\u0645\u0629 \u0628\u0648\u0631\u0642\u064a\u0628\u0629","sort_rank":380,"kind_detail":"primary","alt_name:ar":"\u0627\u0644\u0637\u0631\u064a\u0642 \u0627\u0644\u0648\u0637\u0646\u064a\u0629 \u062a\u0648\u0646\u0633 - \u0642\u0631\u0637\u0627\u062c","name:fr":"Avenue Fattouma Bourguiba","source":"openstreetmap.org","min_zoom":8.0,"landuse_kind":"residential","alt_name:fr":"Route Nationale Tunis - Carthage","ref":"RN 10 \u0637\u0648"},"arcs":[[842],[843]]},{"type":"MultiLineString","properties":{"source":"openstreetmap.org","kind":"major_road","sort_rank":381,"kind_detail":"trunk","ref":"X","min_zoom":8.0},"arcs":[[844],[845]]},{"type":"MultiLineString","properties":{"kind":"highway","network":null,"sort_rank":383,"kind_detail":"motorway","min_zoom":8.0,"source":"openstreetmap.org","name:fr":"Autoroute Tunis - Oued Zarga","all_networks":[null],"shield_text":"3","ref":"A 3 \u0637\u0633","all_shield_texts":["3"]},"arcs":[[846],[847],[848]]},{"type":"LineString","properties":{"kind":"major_road","sort_rank":380,"kind_detail":"primary","min_zoom":8.0,"source":"openstreetmap.org","name:fr":"Rue du 1er Juin 1955","landuse_kind":"residential","ref":"RN 8 \u0637\u0648","id":430448832},"arcs":[849]},{"type":"LineString","properties":{"source":"openstreetmap.org","kind":"major_road","sort_rank":380,"kind_detail":"primary","min_zoom":8.0,"name:fr":"Route Nationale 7 - Tunis-Tabarka"},"arcs":[850]},{"type":"MultiLineString","properties":{"source":"openstreetmap.org","kind":"major_road","landuse_kind":"residential","sort_rank":380,"kind_detail":"primary","min_zoom":8.0,"osm_relation":true},"arcs":[[851],[852]]},{"type":"LineString","properties":{"source":"openstreetmap.org","kind":"major_road","sort_rank":380,"kind_detail":"primary","ref":"RN 1 \u0637\u0648","min_zoom":8.0,"id":184780480},"arcs":[853]},{"type":"LineString","properties":{"source":"openstreetmap.org","kind":"major_road","sort_rank":381,"kind_detail":"trunk","ref":"RN 7 \u0637\u0648","min_zoom":8.0,"id":174393347},"arcs":[854]},{"type":"LineString","properties":{"kind":"major_road","sort_rank":380,"kind_detail":"primary","bus_network":null,"source":"openstreetmap.org","name:fr":"Avenue Mohamed V","bus_shield_text":"20","min_zoom":8.0,"landuse_kind":"urban_area","id":247165438},"arcs":[855]},{"type":"MultiLineString","properties":{"source":"openstreetmap.org","kind":"major_road","kind_detail":"trunk","sort_rank":381,"landuse_kind":"urban_area","min_zoom":8.0},"arcs":[[856],[857],[858],[859],[860],[861],[862],[863],[864],[865],[866],[867],[868],[869],[870],[871],[872],[873],[874],[875],[876],[877],[878],[879],[880],[881],[882],[883],[884],[885],[886],[887],[888],[889],[890],[891],[892],[893],[894],[895],[896],[897],[898],[899],[900],[901],[902],[903],[904],[905],[906],[907],[908],[909],[910],[911],[912],[913],[914],[915],[916],[917],[918],[919],[920],[921],[922],[923],[924],[925],[926],[927],[928],[929],[930],[931],[932],[933],[934],[935],[936],[937],[938],[939],[940],[941],[942],[943],[944],[945],[946],[947],[948],[949],[950],[951],[952],[953],[954]]},{"type":"LineString","properties":{"kind":"major_road","sort_rank":380,"kind_detail":"primary","bus_network":"\u062d\u0627\u0641\u0644\u0629","source":"openstreetmap.org","name:fr":"Avenue Charles Nicole","bus_shield_text":"63","min_zoom":8.0,"landuse_kind":"urban_area","ref":"RN 8 \u0637\u0648","id":159603204},"arcs":[955]},{"type":"MultiLineString","properties":{"source":"openstreetmap.org","kind":"major_road","landuse_kind":"urban_area","sort_rank":380,"kind_detail":"primary","ref":"RN 11 \u0637\u0648","min_zoom":8.0},"arcs":[[956],[957]]},{"type":"MultiLineString","properties":{"kind":"major_road","sort_rank":381,"kind_detail":"trunk","name:ar":"\u0627\u0644\u0637\u0631\u064a\u0642 \u0627\u0644\u0648\u0637\u0646\u064a\u0629 \u0631\u0642\u0645  9","bus_network":null,"source":"openstreetmap.org","name:fr":"Route Nationale Num\u00e9ro 9","bus_shield_text":"20","min_zoom":8.0,"landuse_kind":"urban_area","ref":"RN 9 \u0637\u0648","id":142540522},"arcs":[[958],[959],[960]]},{"type":"MultiLineString","properties":{"source":"openstreetmap.org","kind":"major_road","sort_rank":380,"kind_detail":"primary","ref":"RN 8 \u0637\u0648","min_zoom":8.0,"name:fr":"Route Nationale 8 Tunis - Bizerte"},"arcs":[[961],[962],[963],[964],[965],[966],[967],[968],[969],[970],[971],[972],[973],[974],[975],[976],[977],[978],[979]]},{"type":"MultiLineString","properties":{"source":"openstreetmap.org","kind":"major_road","kind_detail":"trunk","sort_rank":381,"landuse_kind":"urban_area","ref":"X2 \/ RL 451 \u0637\u0645","min_zoom":8.0},"arcs":[[980],[981],[982],[983]]},{"type":"MultiLineString","properties":{"kind":"major_road","sort_rank":381,"landuse_kind":"urban_area","name:fr":"Boulevard Qualit\u00e9 de la Vie","source":"openstreetmap.org","min_zoom":8.0,"kind_detail":"trunk","ref":"RR 23 \u0637\u062c"},"arcs":[[984],[985],[986],[987],[988],[989],[990],[991],[992],[993]]},{"type":"LineString","properties":{"kind":"highway","network":null,"sort_rank":383,"kind_detail":"motorway","min_zoom":8.0,"source":"openstreetmap.org","name:fr":"Autoroute Bizerte - Tunis","all_networks":[null],"landuse_kind":"urban_area","shield_text":"4","ref":"A 4 \u0637\u0633","all_shield_texts":["4"]},"arcs":[994]},{"type":"MultiLineString","properties":{"source":"openstreetmap.org","kind":"major_road","kind_detail":"trunk","sort_rank":381,"landuse_kind":"urban_area","ref":"X 20","min_zoom":8.0},"arcs":[[995],[996]]},{"type":"MultiLineString","properties":{"source":"openstreetmap.org","kind":"major_road","landuse_kind":"urban_area","sort_rank":380,"kind_detail":"primary","ref":"RN 9 \u0637\u0648","min_zoom":8.0},"arcs":[[997],[998],[999],[1000]]},{"type":"MultiLineString","properties":{"kind":"highway","sort_rank":383,"landuse_kind":"urban_area","name:fr":"Boulevard Mohamed Bouazizi","source":"openstreetmap.org","min_zoom":8.0,"kind_detail":"motorway","ref":"X \/ RR 21 \u0637\u062c"},"arcs":[[1001],[1002],[1003],[1004],[1005],[1006]]},{"type":"MultiLineString","properties":{"bus_network":"19C","sort_rank":380,"kind_detail":"primary","kind":"major_road","source":"openstreetmap.org","min_zoom":8.0,"bus_shield_text":"19C","landuse_kind":"urban_area"},"arcs":[[1007],[1008],[1009],[1010],[1011],[1012],[1013]]},{"type":"MultiLineString","properties":{"kind":"major_road","sort_rank":380,"kind_detail":"primary","name:fr":"Avenue Taieb M'Hiri","source":"openstreetmap.org","min_zoom":8.0,"landuse_kind":"urban_area","ref":"RN 8 \u0637\u0648"},"arcs":[[1014],[1015]]},{"type":"LineString","properties":{"kind":"major_road","network":null,"sort_rank":381,"kind_detail":"trunk","min_zoom":8.0,"source":"openstreetmap.org","name:fr":"Avenue 7 Novembre;Route Nationale Tunis - Carthage","landuse_kind":"urban_area","shield_text":"10","ref":"RN 10 \u0637\u0648","id":26335794},"arcs":[1016]},{"type":"MultiLineString","properties":{"kind":"major_road","network":null,"sort_rank":380,"kind_detail":"primary","name:fr":"Avenue 7 Novembre","source":"openstreetmap.org","min_zoom":8.0,"shield_text":"10","ref":"RN 10 \u0637\u0648"},"arcs":[[1017],[1018],[1019]]},{"type":"MultiLineString","properties":{"kind":"major_road","network":null,"sort_rank":381,"landuse_kind":"urban_area","source":"openstreetmap.org","min_zoom":8.0,"kind_detail":"trunk","shield_text":"33","ref":"RL 560 \u0637\u0645"},"arcs":[[1020],[1021]]},{"type":"LineString","properties":{"kind":"highway","network":null,"sort_rank":383,"kind_detail":"motorway","source":"openstreetmap.org","min_zoom":8.0,"all_networks":[null],"shield_text":"4","id":174310411,"all_shield_texts":["4"]},"arcs":[1022]},{"type":"MultiLineString","properties":{"source":"openstreetmap.org","kind":"major_road","landuse_kind":"residential","sort_rank":380,"kind_detail":"primary","min_zoom":8.0},"arcs":[[1023],[1024],[1025],[1026]]},{"type":"LineString","properties":{"kind":"major_road","sort_rank":380,"landuse_kind":"urban_area","min_zoom":8.0,"source":"openstreetmap.org","name:fr":"Bab Saadoun","kind_detail":"primary","id":32559822},"arcs":[1027]},{"type":"LineString","properties":{"kind":"highway","network":null,"sort_rank":383,"kind_detail":"motorway","name:fr":"Autoroute Tunis - Bizerte","source":"openstreetmap.org","min_zoom":8.0,"all_networks":[null],"shield_text":"4","all_shield_texts":["4"]},"arcs":[1028]},{"type":"LineString","properties":{"kind":"major_road","sort_rank":380,"kind_detail":"primary","min_zoom":8.0,"source":"openstreetmap.org","name:fr":"Route Tunis Tabarka Algerie","landuse_kind":"urban_area","ref":"RN 7 \u0637\u0648","id":26267818},"arcs":[1029]},{"type":"MultiLineString","properties":{"kind":"major_road","sort_rank":381,"landuse_kind":"urban_area","name:fr":"Boulevard Mohamed Bouazizi","source":"openstreetmap.org","min_zoom":8.0,"kind_detail":"trunk","ref":"X"},"arcs":[[1030],[1031]]},{"type":"MultiLineString","properties":{"kind":"major_road","network":null,"sort_rank":381,"landuse_kind":"urban_area","min_zoom":8.0,"source":"openstreetmap.org","name:fr":"Route Nationale Tunis - Carthage","kind_detail":"trunk","shield_text":"10","ref":"RN 10 \u0637\u0648"},"arcs":[[1032],[1033],[1034],[1035]]},{"type":"LineString","properties":{"source":"openstreetmap.org","kind":"ferry","name":"Salerno - Palermo - Tunis\/La Goulette","sort_rank":355,"min_zoom":8.0,"osm_relation":true,"id":-5288756},"arcs":[1036]},{"type":"MultiLineString","properties":{"kind":"major_road","name:en":"Boulevard Leader Yasser Arafat","sort_rank":381,"landuse_kind":"urban_area","name:fr":"Boulevard Leader Yasser Arafat","source":"openstreetmap.org","min_zoom":8.0,"kind_detail":"trunk","ref":"X"},"arcs":[[1037],[1038],[1039],[1040],[1041],[1042],[1043]]},{"type":"MultiLineString","properties":{"kind":"highway","sort_rank":383,"kind_detail":"motorway","name:ar":"\u0627\u0644\u0637\u0631\u064a\u0642 \u0627\u0644\u0633\u0631\u064a\u0639\u0629 \u062a\u0648\u0646\u0633 - \u0633\u0648\u0633\u0629 - \u0635\u0641\u0627\u0642\u0633","source":"openstreetmap.org","min_zoom":8.0,"landuse_kind":"urban_area","ref":"A 1 \u0637\u0633"},"arcs":[[1044],[1045],[1046],[1047]]},{"type":"LineString","properties":{"kind":"major_road","sort_rank":380,"landuse_kind":"urban_area","name:ar":"\u0627\u0644\u0637\u0631\u064a\u0642 \u0627\u0644\u0648\u0637\u0646\u064a\u0629 1","source":"openstreetmap.org","min_zoom":8.0,"kind_detail":"primary","id":522928943},"arcs":[1048]},{"type":"MultiLineString","properties":{"kind":"major_road","sort_rank":380,"kind_detail":"primary","source":"openstreetmap.org","min_zoom":8.0,"landuse_kind":"urban_area","ref":"RN 10 \u0637 \u0648","osm_relation":true},"arcs":[[1049],[1050],[1051],[1052],[1053],[1054],[1055],[1056],[1057],[1058],[1059],[1060],[1061],[1062],[1063]]},{"type":"MultiLineString","properties":{"source":"openstreetmap.org","kind":"major_road","sort_rank":380,"kind_detail":"primary","ref":"RN 9 \u0637\u0648","min_zoom":8.0,"name:fr":"Avenue Habib Bourguiba"},"arcs":[[1064],[1065]]},{"type":"LineString","properties":{"kind":"major_road","sort_rank":380,"landuse_kind":"residential","source":"openstreetmap.org","min_zoom":8.0,"kind_detail":"primary","ref":"RN 3 \u0637\u0648","id":26186042},"arcs":[1066]},{"type":"LineString","properties":{"kind":"highway","sort_rank":383,"kind_detail":"motorway","name:fr":"Route Nationale 8 Bizerte - Tunis","source":"openstreetmap.org","min_zoom":8.0,"landuse_kind":"residential","ref":"RN 8 \u0637\u0648"},"arcs":[1067]},{"type":"LineString","properties":{"kind":"major_road","sort_rank":380,"kind_detail":"primary","bus_network":"\u062d\u0627\u0641\u0644\u0629","source":"openstreetmap.org","name:fr":"Avenue Taieb Mhiri","bus_shield_text":"63","min_zoom":8.0,"landuse_kind":"urban_area","ref":"RN 10 \u0637\u0648","id":100552474},"arcs":[1068]},{"type":"LineString","properties":{"kind":"major_road","sort_rank":380,"landuse_kind":"urban_area","min_zoom":8.0,"source":"openstreetmap.org","name:fr":"Avenue Habib Bourguiba","kind_detail":"primary","id":219288240},"arcs":[1069]},{"type":"LineString","properties":{"kind":"major_road","name:en":"Boulevard Leader Yasser Arafat","sort_rank":381,"kind_detail":"trunk","min_zoom":8.0,"source":"openstreetmap.org","name:fr":"Boulevard Leader Yasser Arafat","landuse_kind":"urban_area","id":117136248},"arcs":[1070]},{"type":"MultiLineString","properties":{"kind":"major_road","sort_rank":381,"landuse_kind":"urban_area","name:fr":"Route Nationale 1 Tunis - Ras Jedir - Libye","source":"openstreetmap.org","min_zoom":8.0,"kind_detail":"trunk","ref":"RN 1 \u0637\u0648"},"arcs":[[1071],[1072]]},{"type":"MultiLineString","properties":{"source":"openstreetmap.org","kind":"highway","landuse_kind":"urban_area","sort_rank":383,"kind_detail":"motorway","ref":"RN 8 \u0637\u0648","min_zoom":8.0},"arcs":[[1073],[1074]]},{"type":"MultiLineString","properties":{"source":"openstreetmap.org","kind":"major_road","landuse_kind":"residential","sort_rank":381,"kind_detail":"trunk","min_zoom":8.0,"name:fr":"Pont de Bizerte"},"arcs":[[1075],[1076]]},{"type":"MultiLineString","properties":{"kind":"major_road","sort_rank":381,"landuse_kind":"urban_area","name:fr":"Route de Gammarth","source":"openstreetmap.org","min_zoom":8.0,"kind_detail":"trunk","alt_name:fr":"Boulevard Qualit\u00e9 de la Vie","ref":"RR 23 \u0637\u062c"},"arcs":[[1077],[1078]]},{"type":"LineString","properties":{"kind":"major_road","sort_rank":381,"kind_detail":"trunk","min_zoom":8.0,"source":"openstreetmap.org","name:fr":"Route Nationale Tunis- La Marsa","landuse_kind":"urban_area","ref":"RN 9 \u0637\u0648","id":141088330},"arcs":[1079]},{"type":"MultiLineString","properties":{"kind":"major_road","sort_rank":380,"kind_detail":"primary","min_zoom":8.0,"source":"openstreetmap.org","name:fr":"Route Nationale Tunis - Carthage","landuse_kind":"urban_area","ref":"RN 10 \u0637\u0648"},"arcs":[[1080],[1081],[1082],[1083],[1084]]},{"type":"MultiLineString","properties":{"kind":"major_road","sort_rank":380,"kind_detail":"primary","name:ar":"\u0627\u0644\u0637\u0631\u064a\u0642 \u0627\u0644\u0648\u0637\u0646\u064a\u0629 1","source":"openstreetmap.org","min_zoom":8.0,"landuse_kind":"urban_area","ref":"RN 1 \u0637\u0648"},"arcs":[[1085],[1086],[1087],[1088],[1089],[1090],[1091],[1092],[1093]]},{"type":"LineString","properties":{"kind":"major_road","sort_rank":380,"landuse_kind":"urban_area","min_zoom":8.0,"source":"openstreetmap.org","name:fr":"Avenue du 10 D\u00e9cembre 1948","kind_detail":"primary","id":39166121},"arcs":[1094]},{"type":"MultiLineString","properties":{"kind":"major_road","network":null,"sort_rank":381,"kind_detail":"trunk","name:fr":"Boulevard Qualit\u00e9 de la Vie","source":"openstreetmap.org","min_zoom":8.0,"shield_text":"23","ref":"RR 23 \u0637\u062c"},"arcs":[[1095],[1096],[1097],[1098],[1099],[1100]]},{"type":"MultiLineString","properties":{"kind":"highway","network":null,"sort_rank":383,"kind_detail":"motorway","name:fr":"Autoroute Tunis - Bizerte","source":"openstreetmap.org","min_zoom":8.0,"all_networks":[null],"shield_text":"4","ref":"A 4 \u0637\u0633","all_shield_texts":["4"]},"arcs":[[1101],[1102],[1103]]},{"type":"LineString","properties":{"source":"openstreetmap.org","kind":"major_road","sort_rank":380,"kind_detail":"primary","ref":"RN 11 \u0637\u0648","min_zoom":8.0},"arcs":[1104]},{"type":"MultiLineString","properties":{"source":"openstreetmap.org","kind":"major_road","sort_rank":380,"kind_detail":"primary","ref":"RN 7 \u0637\u0648","min_zoom":8.0,"name:fr":"Route Nationale 7 - Tunis-Tabarka"},"arcs":[[1105],[1106],[1107],[1108],[1109],[1110]]},{"type":"MultiLineString","properties":{"kind":"major_road","sort_rank":381,"landuse_kind":"urban_area","min_zoom":8.0,"source":"openstreetmap.org","name:fr":"Route Nationale Tunis - Carthage","kind_detail":"trunk","ref":"RN 10 \u0637\u0648"},"arcs":[[1111],[1112]]},{"type":"MultiLineString","properties":{"kind":"highway","sort_rank":383,"landuse_kind":"urban_area","name:fr":"Route Nationale Tunis - La Marsa","source":"openstreetmap.org","min_zoom":8.0,"kind_detail":"motorway","ref":"RN 9 \u0637\u0648"},"arcs":[[1113],[1114],[1115]]},{"type":"MultiLineString","properties":{"kind":"highway","sort_rank":383,"kind_detail":"motorway","name:fr":"Autoroute Tunis - Sousse - Sfax","source":"openstreetmap.org","min_zoom":8.0,"landuse_kind":"urban_area","ref":"A 1 \u0637\u0633"},"arcs":[[1116],[1117],[1118],[1119],[1120]]},{"type":"MultiLineString","properties":{"kind":"highway","network":null,"sort_rank":383,"kind_detail":"motorway","source":"openstreetmap.org","min_zoom":8.0,"all_networks":[null],"shield_text":"4","ref":"A 4 \u0637\u0633","all_shield_texts":["4"]},"arcs":[[1121],[1122],[1123]]},{"type":"LineString","properties":{"bus_network":null,"sort_rank":381,"landuse_kind":"urban_area","min_zoom":8.0,"source":"openstreetmap.org","name:fr":"Route Nationale 9 Tunis - La Marsa","bus_shield_text":"20","kind_detail":"trunk","ref":"RN 9 \u0637\u0648","kind":"major_road"},"arcs":[1124]},{"type":"LineString","properties":{"kind":"ferry","name":"Civitavecchia - \u062a\u0648\u0646\u0633\/\u062d\u0644\u0642 \u0627\u0644\u0648\u0627\u062f\u064a","sort_rank":355,"name:ar":"\u062a\u0634\u064a\u0641\u064a\u062a\u0627\u0641\u064a\u0643\u064a\u0627 - \u062a\u0648\u0646\u0633\/\u062d\u0644\u0642 \u0627\u0644\u0648\u0627\u062f\u064a","name:fr":"Civitavecchia - Tunis\/La Goulette","source":"openstreetmap.org","min_zoom":8.0,"name:it":"Civitavecchia - Tunis\/La Goulette"},"arcs":[1125]},{"type":"MultiLineString","properties":{"source":"openstreetmap.org","kind":"highway","landuse_kind":"urban_area","sort_rank":383,"kind_detail":"motorway","ref":"RR 22 \u0637\u062c","min_zoom":8.0},"arcs":[[1126],[1127],[1128],[1129]]},{"type":"LineString","properties":{"kind":"major_road","sort_rank":380,"landuse_kind":"urban_area","min_zoom":8.0,"source":"openstreetmap.org","name:fr":"Rue Mohamed Badra","kind_detail":"primary","id":181935294},"arcs":[1130]},{"type":"LineString","properties":{"source":"openstreetmap.org","kind":"major_road","sort_rank":380,"kind_detail":"primary","ref":"RR 69 \u0637\u062c","min_zoom":8.0,"id":39220952},"arcs":[1131]},{"type":"MultiLineString","properties":{"source":"openstreetmap.org","kind":"major_road","landuse_kind":"urban_area","sort_rank":380,"kind_detail":"primary","min_zoom":8.0,"osm_relation":true},"arcs":[[1132],[1133],[1134],[1135],[1136],[1137],[1138],[1139],[1140],[1141]]},{"type":"LineString","properties":{"kind":"highway","sort_rank":383,"kind_detail":"motorway","name:fr":"Route Nationale 8 Tunis - Bizerte","source":"openstreetmap.org","min_zoom":8.0,"landuse_kind":"residential","ref":"RN 8 \u0637\u0648"},"arcs":[1142]},{"type":"MultiLineString","properties":{"kind":"major_road","network":null,"sort_rank":380,"kind_detail":"primary","source":"openstreetmap.org","min_zoom":8.0,"landuse_kind":"urban_area","shield_text":"35"},"arcs":[[1143],[1144]]},{"type":"MultiLineString","properties":{"kind":"major_road","sort_rank":380,"kind_detail":"primary","name:fr":"Route Nationale 8 Tunis - Bizerte","source":"openstreetmap.org","min_zoom":8.0,"landuse_kind":"urban_area","ref":"RN 8 \u0637\u0648"},"arcs":[[1145],[1146],[1147],[1148],[1149],[1150],[1151],[1152]]},{"type":"LineString","properties":{"kind":"major_road","sort_rank":380,"kind_detail":"primary","name:ar":"\u0633\u0627\u062d\u0629 14 \u062c\u0627\u0646\u0641\u064a","min_zoom":8.0,"source":"openstreetmap.org","name:fr":"Place du 14 Janvier","landuse_kind":"urban_area","id":10641456},"arcs":[1153]},{"type":"LineString","properties":{"kind":"major_road","sort_rank":380,"kind_detail":"primary","min_zoom":8.0,"source":"openstreetmap.org","name:fr":"Route Nationale Tunis - Tabarka - Alg\u00e9rie","landuse_kind":"urban_area","ref":"RN 7 \u0637\u0648","id":26267637},"arcs":[1154]},{"type":"LineString","properties":{"kind":"major_road","sort_rank":380,"kind_detail":"primary","name:ar":"\u0634\u0627\u0631\u0639 \u0641\u0631\u0646\u0633\u0627","min_zoom":8.0,"source":"openstreetmap.org","name:fr":"Avenue de France","landuse_kind":"urban_area","ref":"RN 9 \u0637\u0648","id":26242831},"arcs":[1155]},{"type":"MultiLineString","properties":{"kind":"highway","network":null,"sort_rank":383,"kind_detail":"motorway","name:ar":"\u0627\u0644\u0637\u0631\u064a\u0642 \u0627\u0644\u0633\u0631\u064a\u0639\u0629 \u062a\u0648\u0646\u0633 - \u0628\u0646\u0632\u0631\u062a","source":"openstreetmap.org","min_zoom":8.0,"all_networks":[null],"shield_text":"4","ref":"A 4 \u0637\u0633","all_shield_texts":["4"]},"arcs":[[1156],[1157],[1158],[1159]]},{"type":"LineString","properties":{"bus_network":null,"sort_rank":381,"kind_detail":"trunk","name:fr":"Route Nationale Tunis - La Marsa","source":"openstreetmap.org","min_zoom":8.0,"bus_shield_text":"20","landuse_kind":"urban_area","ref":"RN 9 \u0637\u0648","kind":"major_road"},"arcs":[1160]},{"type":"LineString","properties":{"kind":"major_road","sort_rank":381,"landuse_kind":"urban_area","is_bicycle_related":true,"source":"openstreetmap.org","min_zoom":8.0,"kind_detail":"trunk","ref":"X \/ RR 21 \u0637\u062c"},"arcs":[1161]},{"type":"LineString","properties":{"kind":"major_road","sort_rank":381,"landuse_kind":"urban_area","name:fr":"Boulevard Mohamed Bouazizi","source":"openstreetmap.org","min_zoom":8.0,"kind_detail":"trunk","ref":"X \/ RR 21 \u0637\u062c"},"arcs":[1162]},{"type":"LineString","properties":{"kind":"major_road","sort_rank":381,"landuse_kind":"urban_area","name:ar":"\u0627\u0644\u0637\u0631\u064a\u0642 \u0627\u0644\u0648\u0637\u0646\u064a\u06291","source":"openstreetmap.org","min_zoom":8.0,"kind_detail":"trunk","ref":"RN 1 \u0637\u0648"},"arcs":[1163]},{"type":"LineString","properties":{"kind":"highway","network":null,"sort_rank":383,"kind_detail":"motorway","name:ar":"\u0627\u0644\u0637\u0631\u064a\u0642 \u0627\u0644\u0633\u0631\u064a\u0639\u0629 \u062a\u0648\u0646\u0633 - \u0628\u0646\u0632\u0631\u062a","source":"openstreetmap.org","min_zoom":8.0,"all_networks":[null,null],"shield_text":"4","ref":"A 4 \u0637\u0633","all_shield_texts":["4","4"]},"arcs":[1164]},{"type":"LineString","properties":{"source":"openstreetmap.org","kind":"major_road","landuse_kind":"residential","sort_rank":381,"kind_detail":"trunk","min_zoom":8.0},"arcs":[1165]},{"type":"MultiLineString","properties":{"source":"openstreetmap.org","kind":"major_road","landuse_kind":"urban_area","sort_rank":380,"kind_detail":"primary","ref":"RN 1 \u0637\u0648","min_zoom":8.0},"arcs":[[1166],[1167],[1168],[1169],[1170]]},{"type":"LineString","properties":{"kind":"major_road","sort_rank":381,"kind_detail":"trunk","min_zoom":8.0,"source":"openstreetmap.org","name:fr":"Avenue Meftah Saadallah","landuse_kind":"urban_area","ref":"X 3","id":172274856},"arcs":[1171]},{"type":"MultiLineString","properties":{"kind":"highway","sort_rank":383,"kind_detail":"motorway","name:fr":"Route Nationale 8 Tunis - Bizerte","source":"openstreetmap.org","min_zoom":8.0,"landuse_kind":"urban_area","ref":"RN 8 \u0637\u0648"},"arcs":[[1172],[1173]]},{"type":"MultiLineString","properties":{"source":"openstreetmap.org","kind":"major_road","landuse_kind":"urban_area","sort_rank":380,"kind_detail":"primary","ref":"RN 5 \u0637\u0648","min_zoom":8.0},"arcs":[[1174],[1175]]},{"type":"MultiLineString","properties":{"source":"openstreetmap.org","kind":"highway","sort_rank":383,"kind_detail":"motorway","ref":"A 1 \u0637\u0633","min_zoom":8.0,"name:fr":"Autoroute Tunis - Sousse - Sfax"},"arcs":[[1176],[1177],[1178]]},{"type":"MultiLineString","properties":{"source":"openstreetmap.org","kind":"major_road","sort_rank":380,"kind_detail":"primary","ref":"RN 10 \u0637 \u0648","min_zoom":8.0,"osm_relation":true},"arcs":[[1179],[1180],[1181]]},{"type":"MultiLineString","properties":{"kind":"major_road","name:en":"Boulevard Leader Yasser Arafat","sort_rank":381,"kind_detail":"trunk","name:fr":"Boulevard Leader Yasser Arafat","source":"openstreetmap.org","min_zoom":8.0,"ref":"X"},"arcs":[[1182],[1183]]},{"type":"LineString","properties":{"kind":"major_road","sort_rank":380,"landuse_kind":"urban_area","source":"openstreetmap.org","min_zoom":8.0,"kind_detail":"primary","ref":"RN 10 \u0637\u0648","id":100552586},"arcs":[1184]},{"type":"MultiLineString","properties":{"source":"openstreetmap.org","kind":"major_road","kind_detail":"trunk","sort_rank":381,"landuse_kind":"urban_area","ref":"RN 1 \u0637\u0648","min_zoom":8.0},"arcs":[[1185],[1186]]}]},"earth":{"type":"GeometryCollection","geometries":[{"type":"MultiPolygon","properties":{"sort_rank":10,"source":"naturalearthdata.com","kind":"earth","min_zoom":0.0,"id":4726},"arcs":[[[1187]],[[1188]]]}]},"landuse":{"type":"GeometryCollection","geometries":[{"type":"Polygon","properties":{"source":"openstreetmap.org","kind":"park","area":94422000,"tier":2,"id":178227491,"min_zoom":8.0,"sort_rank":24},"arcs":[[1189]]},{"type":"Polygon","properties":{"kind":"residential","area":21571100,"sort_rank":20,"source":"openstreetmap.org","min_zoom":8.0,"tier":2,"id":-3444214,"osm_relation":true},"arcs":[[1190]]},{"type":"MultiPolygon","properties":{"source":"naturalearthdata.com","kind":"urban_area","name":"","area":1098870327,"sort_rank":11,"min_zoom":4.0},"arcs":[[[1191]],[[1192]],[[1193]],[[1194]],[[1195]],[[1196]],[[1197]]]},{"type":"Polygon","properties":{"kind":"aerodrome","area":10981900,"sort_rank":60,"operator":"Tunisian Civil Aviation & Airports Authority","source":"openstreetmap.org","min_zoom":8.0,"tier":3,"id":94666415},"arcs":[[1198]]},{"type":"Polygon","properties":{"kind":"residential","name":"La Marsa","area":10105800,"sort_rank":20,"source":"openstreetmap.org","min_zoom":8.0,"tier":2,"id":98620323},"arcs":[[1199]]},{"type":"MultiPolygon","properties":{"source":"openstreetmap.org","kind":"residential","tier":2,"area":63379826,"sort_rank":20,"min_zoom":8.0},"arcs":[[[1200]],[[1201]]]},{"type":"Polygon","properties":{"kind":"residential","name":"\u0631\u0648\u0627\u062f","area":11271700,"sort_rank":20,"name:fr":"Raoued","source":"openstreetmap.org","min_zoom":8.0,"tier":2,"id":137732491},"arcs":[[1202]]},{"type":"Polygon","properties":{"source":"openstreetmap.org","kind":"military","area":14061200,"tier":3,"id":125567438,"min_zoom":8.0,"sort_rank":45},"arcs":[[1203]]}]}},"type":"Topology","transform":{"translate":[9.84375,36.5978891331],"scale":[0.0003433228,0.0002736087]},"arcs":[[[4096,2205],[-213,194],[-137,72],[-736,223],[-1453,165],[-80,265],[-150,193],[-205,134],[-239,58],[-302,-42],[-213,-114],[-139,51],[-229,35]],[[3860,0],[108,177],[128,67]],[[707,0],[-127,91]],[[880,0],[-7,18],[-21,-18]],[[580,91],[-74,146],[-107,-165],[-67,-20],[-48,-52]],[[727,362],[-21,-85],[-126,-186]],[[1479,0],[67,91],[-27,82],[77,-1],[18,188],[57,74]],[[1128,693],[-73,-33],[42,-72],[-29,-8],[-10,-54],[-60,-76],[-122,54],[-39,-38],[59,-50],[-46,-46],[-72,-24],[-51,16]],[[1295,774],[-80,-17]],[[1671,434],[-11,-3]],[[1215,757],[30,-30],[-21,-90],[-41,54],[-55,2]],[[1660,431],[-137,22],[-144,89],[-76,104],[-18,51],[19,2],[-49,26],[10,-1],[41,-23],[1,-5],[-1,5],[-17,10],[-7,14],[19,-11],[5,40],[33,-3],[7,2],[4,4],[-55,17]],[[33,0],[-21,40],[-12,0]],[[727,362],[-68,34],[15,65],[-125,57],[25,21],[-44,102],[-64,50],[49,42],[90,-43],[24,38],[41,9],[22,-14],[56,23],[43,-22],[-1,115],[-29,-20],[-26,33],[-66,152],[-54,-7],[-86,-83],[-105,16],[-24,-51],[-43,10],[37,20],[-10,45],[46,-2],[56,151],[-30,67],[-59,31],[-106,-43],[-49,141],[-187,6],[-55,29]],[[1685,438],[-14,-4]],[[3031,0],[157,300],[247,391],[186,161],[54,23],[32,-15],[58,146],[-86,110],[-24,195],[-114,193],[-3,83],[48,71],[-116,136],[9,-37],[-185,-105],[-37,17],[-111,-31],[-47,16],[12,-158],[-38,13],[-72,-122],[-226,-149],[-189,-164],[-110,-49],[-102,22],[-99,-31],[-46,23],[10,-30],[-78,-37],[-10,-50],[-38,-26],[-20,-167],[-74,-146],[-334,-145]],[[1073,636],[9,-5],[1,-3],[0,-31],[2,-5],[24,-31],[27,-84],[-2,-89],[-101,-203],[-159,-93],[-92,-92]],[[981,720],[92,-84]],[[1119,529],[-34,62],[-1,3],[-1,4],[0,31],[-10,7]],[[980,720],[-35,-36],[-87,79],[-604,164],[45,177],[-19,119],[-75,169],[-161,111],[-10,33],[-34,9]],[[0,2415],[71,31]],[[981,720],[1,-8]],[[982,712],[0,-2]],[[981,720],[1,-8]],[[982,712],[0,-1]],[[1619,384],[-2,0]],[[1617,384],[-2,1]],[[1615,385],[-11,5]],[[1604,390],[-43,19]],[[1561,409],[-7,4]],[[1554,413],[-17,7]],[[1537,420],[-8,4]],[[1529,424],[-17,7],[-3,2],[-3,3]],[[1506,436],[-7,4]],[[1499,440],[-60,36]],[[1439,476],[-5,2]],[[1434,478],[-8,4]],[[1426,482],[-16,9],[-4,3],[-4,4]],[[1402,498],[-5,4]],[[1397,502],[-13,11]],[[1384,513],[-6,6]],[[1378,519],[-26,23]],[[1352,542],[-6,6]],[[1346,548],[-89,76],[-8,1],[-27,-7],[-4,0],[-5,-1],[-7,0],[-3,0],[-25,3],[-18,-2],[-3,0],[-3,1],[-71,16],[-11,2]],[[1072,637],[-3,0],[-15,3],[-4,2],[-4,2],[-2,1],[-32,36],[-5,10],[-21,10],[-1,2],[-2,2],[0,2],[-1,3]],[[982,710],[0,1]],[[982,711],[0,1]],[[982,712],[-1,8]],[[981,720],[1,-8]],[[982,712],[0,-2]],[[982,710],[2,-5],[1,-2],[2,-2],[20,-10],[36,-45],[3,-2],[4,-2],[8,-2]],[[1058,640],[12,-3],[13,-2],[72,-16],[5,0],[16,1],[37,-3],[36,8],[8,0],[89,-77]],[[1346,548],[6,-6]],[[1352,542],[26,-23]],[[1378,519],[6,-5]],[[1384,514],[13,-12]],[[1397,502],[5,-4]],[[1402,498],[23,-15]],[[1425,483],[9,-5]],[[1434,478],[5,-2]],[[981,720],[1,-8]],[[982,712],[0,-1]],[[982,711],[4,-9],[14,-4],[2,-2],[5,-5],[42,-49],[21,-5],[12,-2],[75,-16],[5,0],[12,1],[2,0],[37,-2],[36,7],[4,1],[2,-1],[2,0],[3,-2],[3,-2],[20,-17],[63,-56]],[[1346,548],[6,-6]],[[1352,542],[26,-22]],[[1378,520],[6,-6]],[[1384,514],[13,-12]],[[1397,502],[5,-4]],[[1402,498],[22,-14]],[[1424,484],[1,-1]],[[1425,483],[9,-4]],[[1434,479],[4,-3]],[[1438,476],[1,0]],[[1439,476],[38,-21],[4,-2],[18,-13]],[[1499,440],[7,-4]],[[1506,436],[24,-12]],[[1530,424],[7,-3]],[[1537,421],[17,-8]],[[1554,413],[7,-3]],[[1561,410],[42,-19]],[[982,720],[1,-7]],[[983,713],[-1,-1]],[[982,720],[1,-7]],[[982,720],[1,-6]],[[983,720],[0,-4],[0,-3]],[[983,713],[-1,-1]],[[982,712]],[[982,712],[0,-1]],[[982,711],[0,-1]],[[982,720],[1,-5]],[[983,720],[0,-5]],[[983,715],[0,-1]],[[983,714],[0,-1]],[[1058,640],[14,-3]],[[1424,484],[1,0]],[[1425,484],[1,-1]],[[1426,483],[8,-4]],[[1434,479],[3,-2]],[[1437,477],[1,-1]],[[1424,483],[2,-1]],[[1426,482],[8,-4]],[[1434,478],[5,-2]],[[1425,484],[1,-1]],[[1426,483],[8,-4]],[[1434,479],[3,-2]],[[1603,391],[1,-1]],[[1604,390],[11,-5]],[[1615,385],[2,-1]],[[1668,370],[-1,1]],[[1667,371],[-2,0]],[[1665,371],[-1,1]],[[1664,372],[-3,0]],[[1661,372],[-9,2]],[[1652,374],[-1,0]],[[1651,374],[-30,9]],[[1621,383],[-5,2]],[[1616,385],[-1,1]],[[1615,386],[-10,4]],[[1605,390],[-1,0]],[[1604,390],[-1,1]],[[1605,390],[10,-4]],[[1615,386],[2,-1]],[[1617,385],[2,-1]],[[1619,384],[1,-1]],[[1620,383],[11,-5],[18,-4]],[[1649,374],[12,-2]],[[1661,372],[3,-1]],[[1664,371],[1,0]],[[1665,371],[2,-1]],[[1667,370],[24,-5]],[[1691,365]],[[1616,385],[1,0]],[[1620,383],[1,0]],[[1649,374],[2,0]],[[1652,374],[3,-1]],[[1655,373],[13,-2]],[[1655,373],[17,-3]],[[1706,363],[-7,2],[-5,0]],[[1694,365],[-1,0]],[[1693,365],[-2,0]],[[1691,365],[-23,5]],[[1668,370],[4,0]],[[1672,370],[3,0]],[[1675,370],[2,-1]],[[1677,369],[3,0],[8,-2]],[[1688,367],[7,-1]],[[1695,366],[4,0],[7,-3]],[[1675,370],[15,-4],[3,-1]],[[1677,369]],[[1677,369],[15,-4]],[[1677,369],[13,-3]],[[1690,366],[5,0]],[[1695,366],[3,-1],[8,-2]],[[1706,363],[3,-1]],[[1688,367],[2,-1]],[[1690,366],[2,-1]],[[1692,365],[2,0]],[[1694,365],[16,-4]],[[1691,365],[7,-1]],[[983,712],[0,4],[0,5],[-3,0],[2,-9]],[[982,712]],[[982,712]],[[982,712]],[[982,712]],[[982,712]],[[982,712],[1,0]],[[1352,542]],[[1352,542]],[[1352,542]],[[1346,548]],[[1346,548]],[[1346,548],[6,-6]],[[1384,513]],[[1384,513],[0,1]],[[1384,514]],[[1378,520],[0,-1]],[[1378,519]],[[1378,519],[6,-6]],[[1397,502]],[[1397,502]],[[1397,502]],[[1402,498]],[[1402,498]],[[1402,498],[-5,4]],[[1428,479],[1,1]],[[1429,480]],[[1429,480]],[[1429,480],[1,0]],[[1430,480],[-2,-1]],[[1433,478],[1,0]],[[1434,478]],[[1434,478]],[[1434,478],[0,1]],[[1434,479]],[[1434,479]],[[1426,483]],[[1426,483],[-1,0]],[[1425,483]],[[1425,483],[1,-1]],[[1426,482]],[[1426,482],[3,-2]],[[1430,480],[3,-2]],[[1499,440],[7,-4]],[[1506,436]],[[1499,440]],[[1499,440]],[[1529,424]],[[1529,424],[1,0]],[[1537,421],[0,-1]],[[1537,420],[-8,4]],[[1554,413]],[[1554,413]],[[1561,409],[0,1]],[[1561,410],[-7,3]],[[1604,391],[0,-1]],[[1604,390]],[[1604,390]],[[1615,385]],[[1615,385],[0,1]],[[1615,386]],[[1615,386],[-11,5]],[[1614,386],[-1,1],[1,0],[0,-1]],[[1661,372]],[[1661,372]],[[1661,372],[3,0]],[[1664,372]],[[1664,372],[1,-1]],[[1665,371],[2,0]],[[1667,371],[0,-1]],[[1667,370],[-2,1]],[[1665,371]],[[1665,371],[-1,0]],[[1664,371]],[[1664,371],[-3,1]],[[1665,371]],[[1665,371]],[[1665,371]],[[1664,372]],[[1664,372],[0,-1]],[[1664,371]],[[980,720],[-35,-36],[-87,79],[-594,161],[-165,-84],[-99,9]],[[981,720],[1,-8]],[[982,712],[0,-2]],[[981,720],[1,-8]],[[982,712],[0,-1]],[[1902,0],[-99,93],[-5,7],[-4,11],[-10,110],[-68,90],[-277,165]],[[1439,476],[-5,2]],[[1434,478],[-8,4]],[[1426,482],[-16,9],[-4,3],[-147,130],[-10,1],[-27,-7],[-4,0],[-5,-1],[-7,0],[-3,0],[-25,3],[-18,-2],[-3,0],[-3,1],[-71,16],[-14,2],[-15,3],[-4,2],[-2,1],[-3,1],[-2,2],[-31,35],[-10,15],[-3,2],[-9,2],[-2,0],[-2,1],[-1,2],[-2,2],[0,2],[-1,3]],[[982,710],[0,1]],[[982,711],[0,1]],[[982,712],[-1,8]],[[981,720],[1,-8]],[[982,712],[0,-2]],[[982,710],[2,-5],[1,-2],[2,-2],[1,-1],[2,0],[9,-2],[3,-2],[11,-14],[30,-36],[8,-5],[32,-6],[72,-16],[5,0],[16,1],[37,-3],[36,8],[10,-1],[147,-130],[19,-11]],[[1425,483],[9,-5]],[[1434,478],[5,-2]],[[1902,0],[-3,3],[-6,7],[-90,83],[-5,7],[-4,11],[-9,103],[-1,5],[0,2],[-2,3],[-1,2],[-20,28],[-41,53],[-4,4],[-4,4],[-88,66],[-185,95]],[[1439,476],[-1,0]],[[1438,476],[-4,3]],[[1434,479],[-9,4]],[[1425,483],[-1,1]],[[1424,484],[-17,10],[-124,110],[-20,17],[-3,3],[-3,1],[-2,0],[-2,1],[-3,0],[-37,-8],[-37,2],[-2,0],[-12,-1],[-5,0],[-75,16],[-32,7],[-8,5],[-11,16],[-9,10],[-9,8],[-4,8],[-7,7],[-2,2],[-1,0],[-11,3],[-3,1],[-3,9]],[[982,711],[0,1]],[[982,712],[-1,8]],[[982,720],[1,-7]],[[983,713],[-1,-1]],[[982,720],[1,-5],[0,-2]],[[982,720],[1,-5],[0,-1]],[[983,720],[0,-4],[0,-3]],[[983,713],[-1,-1]],[[982,712]],[[982,712],[0,-1]],[[982,711],[0,-1]],[[982,720],[1,-5]],[[983,720],[0,-4],[0,-1]],[[983,715],[0,-1]],[[983,714],[0,-1]],[[1424,484],[1,0]],[[1425,484],[1,-1]],[[1426,483],[8,-4]],[[1434,479],[3,-2]],[[1437,477],[1,-1]],[[1424,483],[2,-1]],[[1426,482],[8,-4]],[[1434,478],[5,-2]],[[1425,484],[1,-1]],[[1426,483],[8,-4]],[[1434,479],[3,-2]],[[983,712],[0,4],[0,5],[-3,0],[2,-9]],[[982,712]],[[982,712]],[[982,712]],[[982,712]],[[982,712]],[[982,712],[1,0]],[[1428,479],[1,1]],[[1429,480]],[[1429,480]],[[1429,480],[1,0]],[[1430,480],[-2,-1]],[[1433,478],[1,0]],[[1434,478]],[[1434,478]],[[1434,478],[0,1]],[[1434,479]],[[1434,479]],[[1426,483]],[[1426,483],[-1,0]],[[1425,483]],[[1425,483],[1,-1]],[[1426,482]],[[1426,482],[3,-2]],[[1430,480],[3,-2]],[[3035,0],[187,351],[124,183],[86,162],[159,135],[117,48],[40,57],[17,60],[-35,56],[-17,20],[-16,11],[-21,27],[-19,33],[-14,29],[-8,35],[-5,78],[-7,36],[-18,37],[-51,75],[-11,26],[-6,33],[-28,52],[-7,41],[7,38],[30,44],[4,31],[-27,65],[-51,26],[-60,-9],[-113,-86],[-146,-16],[-63,-30],[-27,-37],[5,-24],[11,-25],[-8,-41],[-24,-29],[-167,-138],[-9,-19],[-11,-34],[-27,-13],[-90,-95],[-145,-104],[-113,-45],[-122,-24],[-135,10],[-62,-13],[-53,-47],[-41,-148],[-19,-84],[-23,-102],[-57,-59],[-90,-22],[-148,-76],[-59,2],[-40,-10],[-139,16],[-103,64],[-77,106],[-62,140],[-44,-81],[-9,-9],[-20,-18],[-38,20],[-91,3],[-42,18],[15,54],[50,71],[28,22],[95,31],[50,8],[27,-15],[-21,-56],[38,-33],[40,6],[30,30],[28,74],[67,67],[15,43],[-29,42],[-68,98],[-31,21],[-108,53],[-134,138],[-110,185],[-23,179],[126,125],[20,-53],[17,45],[-10,35],[-25,41],[-21,32],[-56,-16],[-88,4],[-76,29],[-22,60],[52,45],[94,25],[81,-10],[15,-60],[41,29],[43,18],[94,25],[-56,47],[-216,78],[-95,87],[-205,31],[-47,73],[-25,6],[-155,-70],[-53,-5],[-283,64],[-44,-7],[-10,-10],[-13,-18],[-18,-16],[-27,-8],[-1,0],[0,45],[52,42],[-1,165],[-6,35],[-1,10],[-44,1],[0,1424],[4096,0],[0,-4096],[-1061,0]],[[2809,1967],[-7,17],[-16,-8],[-4,-13],[-15,-11],[-10,-18],[17,-32],[19,3],[1,-3],[10,3],[28,-4],[20,1],[-28,46],[-15,19]],[[0,2314],[23,7],[28,3],[186,-75],[1,-60],[-32,-68],[-36,-49],[-65,-54],[-59,-11],[-46,6],[0,301]],[[3035,0],[187,351],[124,183],[86,162],[159,135],[117,48],[40,57],[17,60],[-35,56],[-17,20],[-16,11],[-21,27],[-19,33],[-14,29],[-8,35],[-5,78],[-7,36],[-18,37],[-51,75],[-11,26],[-6,33],[-28,52],[-7,41],[7,38],[30,44],[4,31],[-27,65],[-51,26],[-60,-9],[-113,-86],[-146,-16],[-63,-30],[-27,-37],[5,-24],[11,-25],[-8,-41],[-24,-29],[-167,-138],[-9,-19],[-11,-34],[-27,-13],[-90,-95],[-145,-104],[-113,-45],[-122,-24],[-135,10],[-62,-13],[-53,-47],[-41,-148],[-19,-84],[-23,-102],[-57,-59],[-90,-22],[-148,-76],[-59,2],[-40,-10],[-139,16],[-103,64],[-77,106],[-62,140],[-44,-81],[-9,-9],[-20,-18],[-38,20],[-91,3],[-42,18],[15,54],[50,71],[28,22],[95,31],[50,8],[27,-15],[-21,-56],[38,-33],[40,6],[30,30],[28,74],[67,67],[15,43],[-29,42],[-68,98],[-31,21],[-108,53],[-134,138],[-110,185],[-23,179],[126,125],[20,-53],[17,45],[-10,35],[-25,41],[-21,32],[-56,-16],[-88,4],[-76,29],[-22,60],[52,45],[94,25],[81,-10],[15,-60],[41,29],[43,18],[94,25],[-56,47],[-216,78],[-95,87],[-205,31],[-47,73],[-25,6],[-155,-70],[-53,-5],[-283,64],[-44,-7],[-10,-10],[-13,-18],[-18,-16],[-27,-8],[-1,0]],[[0,2314],[23,7],[28,3],[186,-75],[1,-60],[-32,-68],[-36,-49],[-65,-54],[-59,-11],[-46,6]],[[0,2419],[52,42],[-1,165],[-6,35],[-1,10],[-44,1]],[[89,2455],[-6,11]],[[554,862],[123,-43]],[[985,697],[-5,5]],[[1159,584]],[[1160,584],[-1,0]],[[677,819],[-123,43]],[[762,795],[-3,1]],[[811,777],[-1,0]],[[811,777]],[[844,770]],[[845,769]],[[847,768]],[[850,766],[9,-3]],[[853,766],[1,0]],[[854,766]],[[854,766]],[[854,766],[0,-1]],[[915,735],[-60,31]],[[926,739],[-9,-4]],[[678,818],[0,1],[-1,0],[0,-1],[1,0]],[[759,796],[-1,1],[0,-1],[1,0]],[[801,781],[-1,1],[-1,-1],[1,-1],[1,1]],[[850,767],[0,-1]],[[850,766],[1,1],[-1,0]],[[855,767],[-1,0],[-1,-1],[1,0],[1,1]],[[879,838],[39,-71]],[[918,771],[-35,64]],[[978,737]],[[1004,741],[-6,-1]],[[998,739],[6,1]],[[1010,742],[-4,-1]],[[1006,740],[4,1]],[[1276,1172],[14,-32]],[[1290,1140],[-13,32]],[[1347,847],[8,-10]],[[1355,838],[-8,10]],[[987,895],[-4,-26]],[[989,917],[14,27]],[[307,2307],[-4,2]],[[754,1198]],[[83,2466],[-43,-23]],[[3,2433],[-3,-1]],[[0,2432],[3,1]],[[4,2433],[-1,0],[1,0]],[[1135,884],[-69,-34]],[[1081,649],[16,-6]],[[1097,643],[-16,6]],[[1097,643],[12,-5]],[[1097,643],[0,1],[0,-1]],[[1110,638],[-13,5]],[[840,173],[-1,-1]],[[886,257],[-46,-82]],[[753,1198],[1,-2]],[[753,1198],[1,-2]],[[753,1198],[1,-2]],[[754,1198],[0,-2]],[[303,2309],[1,-1],[2,-1],[-2,1],[-1,1]],[[1040,838],[-17,-12]],[[1408,1019],[-2,-1]],[[825,942],[1,-13]],[[827,929],[-2,13]],[[826,928],[21,-55],[5,-6],[13,-12]],[[866,855],[-39,73]],[[827,928],[0,1]],[[827,929],[-1,0],[0,-1],[1,0]],[[866,854],[0,1],[-1,-1],[1,-1],[0,1]],[[1248,936],[6,-14]],[[1255,923],[-6,13]],[[1255,921],[17,-7]],[[1272,915],[-16,7]],[[1272,913],[15,-7]],[[1273,915],[-1,0],[0,-1]],[[1272,914],[1,0],[0,1]],[[1287,906],[-14,9]],[[1287,905],[17,-12]],[[1288,906],[-1,0]],[[1287,906],[1,-1],[0,1]],[[1305,894],[-17,12]],[[1304,893],[14,-9]],[[1305,894],[-1,0],[0,-1]],[[1304,893],[1,0],[0,1]],[[1318,885],[-13,9]],[[1248,937],[0,-1],[1,0],[0,1],[-1,0]],[[1256,922],[-1,1]],[[1255,923],[-1,-1],[1,-1],[1,1]],[[1000,640],[-1,6]],[[999,646],[-16,49]],[[985,697],[14,-51]],[[999,646],[1,-6]],[[1023,826],[-35,-21]],[[1137,535]],[[790,1104],[8,-6]],[[1252,653],[-56,-44],[-21,-31],[-1,-3]],[[1174,575],[36,43]],[[1343,967],[-1,0],[1,0]],[[3452,750],[39,50]],[[3621,914],[13,29]],[[1459,234],[47,-44]],[[970,713],[-2,-2]],[[1047,956],[-1,-1]],[[1046,954],[2,1]],[[1058,960],[141,71]],[[1199,1031],[6,4],[83,-47]],[[1288,988],[8,-4]],[[1296,984],[-8,4]],[[1288,988],[-89,43]],[[1199,1031],[-9,5],[-49,-28]],[[763,735],[-72,-48]],[[692,687],[35,21],[36,26]],[[777,674],[-53,-18]],[[725,655],[53,18]],[[801,751],[-38,-16]],[[763,735],[38,15]],[[804,683],[-26,-9]],[[778,673],[26,9]],[[801,751],[0,-1],[1,0],[0,1],[-1,0]],[[813,686],[-9,-3]],[[805,682],[9,4]],[[884,716],[-70,-29]],[[814,686],[70,29]],[[919,707],[-35,9]],[[885,715],[33,-10]],[[554,862],[-46,7]],[[1065,848],[96,47]],[[466,1734],[3,13]],[[754,1198]],[[1523,186],[-4,-7]],[[1594,317],[-9,-17]],[[380,422],[-4,-3]],[[752,1200],[1,-2]],[[752,1200],[1,-2]],[[752,1200],[1,-2]],[[752,1200],[2,-2]],[[981,860],[2,9]],[[1003,944]],[[170,2406],[105,-74]],[[777,1141],[13,-37]],[[807,1093],[115,-29]],[[1046,957],[-8,-126],[-36,-55]],[[1210,618],[42,35]],[[1258,704],[-6,-48]],[[1253,656],[6,48]],[[967,736],[3,-23]],[[46,1552],[-46,12]],[[48,1553],[-2,-1]],[[46,1552],[2,0]],[[50,1551],[1,-3]],[[51,1548],[0,4]],[[288,1187],[-71,169],[-166,192]],[[231,941],[-4,-5]],[[227,933],[5,-5]],[[230,935],[1,6]],[[232,928],[-2,7]],[[231,941],[46,94],[12,151]],[[286,866],[-54,62]],[[286,866],[1,-2]],[[290,863],[-4,3]],[[288,863],[2,0]],[[311,861],[-21,2]],[[51,1553],[-2,1],[-1,-2]],[[48,1552],[3,-1],[0,2]],[[230,934],[-1,3],[-3,-1],[1,-3]],[[227,933],[3,1]],[[288,864],[-1,0]],[[287,864],[0,-1],[1,1]],[[1003,944],[1,3]],[[1888,37],[1,-3]],[[1890,34],[0,1],[-1,-1],[1,0]],[[1890,34],[1,-2]],[[1653,357],[13,-11]],[[1666,346],[-12,11]],[[1666,346],[141,-154],[83,-157]],[[1890,34],[8,-15]],[[1898,19],[10,-17]],[[1909,2],[-11,17]],[[1909,2],[1,-2]],[[1910,0],[-1,2]],[[4096,3587],[-2587,-2865],[-179,53]],[[865,853],[14,-15]],[[883,835],[-17,19]],[[805,620],[2,-29]],[[808,591],[-3,29]],[[808,590],[90,-99]],[[898,492],[-90,98]],[[1216,750],[0,4]],[[1216,754],[-4,24]],[[1214,780],[2,-26]],[[1216,754],[0,-4]],[[1366,1159],[-90,14]],[[1277,1172],[89,-14]],[[1364,852],[-8,-14]],[[1356,838],[9,13]],[[1367,1158],[15,-18]],[[1383,1140],[-16,19]],[[3603,848],[-80,-21]],[[3614,856],[-10,-7]],[[3629,866],[-14,-10]],[[666,640],[1,2],[-2,0],[-1,-2],[2,0]],[[714,651],[0,1],[-1,0],[1,-1]],[[808,590],[0,1],[-1,0],[0,-1],[1,0]],[[1348,1160],[0,-1],[1,0],[0,1],[-1,0]],[[1367,1159],[-1,0]],[[1366,1159],[0,-1],[1,0]],[[1367,1158],[0,1]],[[1382,1140],[0,-1],[1,0],[0,1]],[[1383,1140],[-1,0]],[[1418,277],[-31,32]],[[1522,175],[-14,13]],[[803,1099],[-6,-3]],[[806,1100],[-1,0],[0,-2],[1,1],[0,1]],[[1066,850],[-26,-12]],[[1172,902],[-37,-18]],[[1364,995],[-181,-88]],[[1257,780],[-24,-5]],[[1243,790],[8,2]],[[566,552],[-454,-299],[-112,-14]],[[566,551],[100,89]],[[621,587],[-1,0]],[[90,2453],[7,-10]],[[97,2443],[-7,10]],[[1355,837],[-2,-3]],[[1353,834],[3,3]],[[1276,1172],[1,-1],[0,1],[-1,0]],[[1356,837],[0,1],[-1,0],[0,-1],[1,0]],[[987,895],[2,19]],[[1507,189],[-51,50]],[[1406,1018],[2,1]],[[617,1477],[-1,3]],[[3486,1520],[-57,74]],[[3657,1074],[-42,159],[-86,88],[-43,198]],[[3491,800],[24,31]],[[3515,831],[1,1]],[[3516,832],[-1,-1]],[[3517,834],[-1,-1]],[[3517,832],[0,2]],[[3517,834],[98,73]],[[3617,909],[4,5]],[[3634,943],[22,123]],[[3656,1066],[1,2]],[[3657,1068],[-1,-2]],[[3517,833],[-1,0]],[[3516,833],[0,-1],[1,1]],[[3616,908],[1,-1],[0,1],[-1,0]],[[1033,659],[-48,38]],[[1005,692],[28,-33]],[[1093,619],[-60,40]],[[1093,619],[0,-1]],[[1093,619]],[[1094,618],[39,-20]],[[1133,598],[-39,20]],[[1133,597],[26,-13]],[[1159,584],[-26,14]],[[1159,584],[17,-9]],[[1188,561],[-11,14],[-2,1],[-15,8]],[[1366,954],[39,-7]],[[807,1093],[-6,4]],[[1178,482],[94,34]],[[1271,518],[-17,-4],[-66,-27]],[[1028,954],[-25,-7]],[[24,2437],[10,2],[6,4],[-20,-6]],[[1175,902],[9,4]],[[796,1094],[-1,1]],[[805,1100],[0,-1]],[[859,763],[58,-28]],[[918,770],[10,-13]],[[928,709],[-9,-2]],[[929,757],[-10,13]],[[919,706],[8,3]],[[921,739],[5,0]],[[928,757],[3,-5]],[[931,752],[0,-1],[2,-3]],[[933,748],[0,-2],[2,-5],[-7,16]],[[935,742],[-2,6]],[[933,748],[-2,4]],[[931,752],[-2,5]],[[933,747],[-4,10]],[[970,714],[0,-1]],[[975,816],[4,0]],[[978,737]],[[980,858],[1,1]],[[986,698]],[[986,698],[-1,0]],[[988,700],[-2,-2]],[[986,698],[-1,-1]],[[986,738]],[[993,697],[-4,0]],[[1003,944],[-14,-30]],[[1068,488],[1,-7]],[[1069,481],[0,7]],[[1069,481],[9,-68],[-39,-26],[40,25],[4,40]],[[1093,619],[0,-1]],[[1094,618]],[[1133,598]],[[1133,597],[0,1]],[[1188,560]],[[1188,559]],[[1211,544],[1,-1]],[[1212,544],[-1,0]],[[1300,978]],[[1407,952],[-2,-5],[3,5]],[[1432,973],[-24,-20]],[[1408,952],[25,21]],[[1422,1005],[10,-31]],[[1433,973],[-10,32]],[[1432,974],[0,-1]],[[1432,973],[1,0]],[[1433,973],[-1,1]],[[1432,974]],[[1432,973]],[[1432,973],[0,1]],[[1434,973],[-1,0]],[[1435,973],[-1,0]],[[1434,973],[1,-1]],[[1435,972],[0,1]],[[1639,387],[-3,-5],[3,4]],[[1643,392],[-4,-5]],[[1639,387],[5,5]],[[1644,392],[5,2],[0,6],[-6,-3],[1,-5]],[[1658,413],[-10,-13]],[[1650,399],[9,14]],[[1006,741],[-2,0],[1,-1],[1,0],[0,1]],[[1016,521],[0,-1],[1,1],[-1,0]],[[1408,953],[-1,-1],[1,0],[0,1]],[[1632,374],[-1,0],[1,0]],[[1639,386],[0,1],[0,-1]],[[766,1176],[-11,20]],[[777,1141],[-10,34]],[[989,914],[0,3]],[[947,649],[35,-67],[13,-8],[15,7],[18,9],[7,4]],[[1028,590],[-45,-8],[-35,68]],[[1000,640],[33,-43]],[[1026,612],[-26,28]],[[1034,595]],[[1188,487],[-41,-5]],[[1172,483],[-5,-2]],[[1227,543],[-11,-37]],[[1216,506],[11,35]],[[1250,432],[-2,-1]],[[1628,374],[-15,-22]],[[0,3840],[469,-419],[1085,-1168],[-25,-1492],[-49,-42],[-150,56]],[[377,418],[4,4]],[[1046,955],[-18,-1]],[[758,797],[-80,22]],[[678,818],[78,-21]],[[756,797],[2,-1]],[[755,797],[1,0]],[[756,797],[5,-2]],[[761,795]],[[759,796],[2,-1]],[[761,795],[38,-14]],[[800,782],[-38,13]],[[800,780],[11,-3]],[[810,777],[-9,4]],[[850,767],[-39,10]],[[1183,907],[-11,-5]],[[673,678],[-73,-39],[11,2]],[[612,642],[-1,0]],[[612,641],[52,-1]],[[612,642]],[[612,642],[61,35]],[[665,642],[-53,0]],[[713,652],[-46,-10]],[[667,641],[46,10]],[[690,686],[-16,-8]],[[674,677],[16,9]],[[691,687]],[[691,686],[1,1]],[[691,686],[0,1]],[[691,687],[-1,-1]],[[690,686],[1,0]],[[724,656],[-10,-4]],[[714,651],[11,4]],[[612,642],[-1,0]],[[611,642],[0,-1]],[[611,641],[1,1]],[[673,678],[0,-1],[1,0]],[[674,677],[0,1]],[[674,678],[-1,0]],[[820,90],[-21,-90]],[[799,0],[7,24],[15,66]],[[839,172],[-19,-81]],[[821,91],[19,80]],[[969,307],[-2,-7],[3,-56],[-34,-49],[-96,-22]],[[841,171],[96,24],[34,48],[-2,64]],[[820,91],[0,-1],[1,0]],[[821,90],[0,1],[-1,0]],[[840,173],[-1,-1],[1,-1]],[[840,171],[1,1],[-1,1]],[[975,737],[2,-19]],[[1329,822],[-12,-5]],[[1319,817],[9,4]],[[1319,884],[-1,1],[0,-1],[0,-1],[1,1]],[[1360,946],[0,-1],[1,1],[-1,0]],[[0,3840],[469,-419],[1085,-1168],[-25,-1492],[-49,-42],[-150,56]],[[1138,533],[28,-32]],[[1166,501],[4,-5]],[[1169,498],[-3,3]],[[1170,496],[0,1]],[[1170,496],[10,-11]],[[1182,483],[6,-13]],[[1188,470],[0,-3]],[[1189,468],[-1,2]],[[1189,467],[1,-1]],[[1190,466],[-1,2]],[[1190,466],[34,-37]],[[798,1098],[9,-5]],[[1025,830],[0,-3]],[[1027,828],[1,0]],[[1003,344],[-34,-37]],[[969,307],[35,36]],[[1001,575],[0,-19]],[[1001,575],[1,2],[-1,0],[0,-1],[0,-1]],[[1002,556],[-1,19]],[[1001,555],[15,-34]],[[1017,521],[-15,35]],[[1035,482],[-31,-138]],[[1005,344],[31,137]],[[1016,520],[5,-24]],[[1022,497],[-5,24]],[[1052,518],[-30,-21]],[[1022,494],[1,1]],[[1022,494],[13,-12]],[[1023,495],[29,22]],[[1036,483],[-13,12]],[[1036,481],[0,2],[-1,0],[0,-1]],[[1035,482],[1,-1]],[[1071,545],[-5,0],[-14,-27]],[[1052,518],[0,-1],[1,1]],[[1053,518],[-1,0]],[[1053,518],[18,26]],[[1002,556],[-1,0],[1,-1],[0,1]],[[1002,556]],[[1004,344],[-1,0],[1,-1],[1,0],[-1,1]],[[1072,544],[-1,0],[0,-1],[1,1]],[[1487,4096],[92,-1171],[-48,-2165],[-51,-42],[-150,57]],[[1233,775],[-129,-26]],[[1104,749],[-3,-1],[-1,0],[-81,-5]],[[1019,742],[81,6],[1,0],[3,1]],[[1104,749],[139,41]],[[1251,792],[41,13]],[[1292,805],[2,0],[1,0]],[[1295,806],[-1,0],[-2,-1]],[[1292,805],[-10,-5],[-25,-20]],[[1308,812],[-1,0],[0,-1],[1,1]],[[1300,978],[13,-3]],[[1314,976],[-14,3]],[[813,1090],[-6,3]],[[97,2443],[24,-6]],[[121,2438],[-24,5]],[[122,2437],[10,-5]],[[133,2432],[-11,6]],[[133,2431],[6,-4]],[[141,2427],[-8,5]],[[122,2437],[0,1],[-1,0],[0,-1],[1,0]],[[133,2432]],[[133,2432],[-1,0],[1,-1]],[[133,2431],[0,1]],[[139,2427],[62,-82]],[[169,2408],[-28,19]],[[202,2345],[-33,61]],[[202,2344],[26,-36]],[[229,2308],[-27,36]],[[170,2407],[-1,1],[-1,-1],[1,-1],[1,1]],[[202,2344],[0,1]],[[202,2345],[-1,0],[0,-1],[1,0]],[[229,2308],[-1,0]],[[228,2308],[1,0]],[[118,422],[-118,-49]],[[118,422],[118,47]],[[235,470],[-84,-30],[-33,-18]],[[236,470]],[[236,470]],[[236,470]],[[600,639],[-362,-168]],[[236,470]],[[236,470],[-1,0],[1,-1],[0,1]],[[236,470]],[[1366,498],[-93,20]],[[1367,498],[28,-5]],[[1395,494],[-28,4]],[[1604,390],[-163,79],[163,-79]],[[1330,775],[150,-57],[53,41],[668,3337]],[[979,816],[1,-1]],[[980,815],[8,-10]],[[998,740],[-18,75]],[[980,815],[0,2]],[[997,742],[0,-2]],[[1044,522],[8,-4]],[[1006,734],[1,-5]],[[1008,729],[-1,6]],[[1405,947],[11,-6]],[[4096,3656],[-2587,-2932],[-179,51]],[[948,368],[-27,-50]],[[954,685],[-21,62]],[[935,741],[19,-56]],[[958,385],[-9,-16]],[[949,369],[9,16]],[[954,685],[21,-36]],[[982,419],[-24,-34]],[[975,649],[2,-5]],[[977,645],[-2,4]],[[978,646],[-1,-2]],[[977,644],[24,-65]],[[982,419],[10,18]],[[1000,453],[-8,-16]],[[1001,579],[0,-2]],[[1002,577],[-1,2]],[[1002,457]],[[1021,495],[-19,-37]],[[1003,458],[19,36]],[[949,368],[0,1]],[[949,369],[-1,0],[0,-1],[1,0]],[[1003,457],[-1,1]],[[1002,458],[0,-1]],[[1002,457],[1,0]],[[997,740],[-19,-3]],[[978,737],[19,2]],[[3516,832],[1,1]],[[1585,300],[-62,-114]],[[1613,352],[-19,-35]],[[917,735],[-2,0]],[[275,2333],[-106,75]],[[1141,1008],[-94,-52]],[[1048,955],[10,5]],[[1073,855],[1,-5]],[[1075,848],[-2,8]],[[0,239],[112,14],[454,298]],[[620,587],[-54,-35]],[[665,640],[-44,-53]],[[80,2464],[9,-9]],[[469,871],[0,1]],[[1422,1007],[0,-2]],[[1423,1005],[0,2]],[[1909,2],[-1,0],[1,0]],[[289,1186],[-1,1]],[[988,805],[9,-63]],[[799,933],[0,2]],[[802,668],[3,-48]],[[805,620],[-2,48]],[[898,491],[1,-2]],[[899,491],[-1,1]],[[900,489],[48,-22]],[[949,468],[-49,22]],[[918,705],[29,-55]],[[919,706],[29,-55]],[[948,467],[23,-8],[35,20],[15,16]],[[1021,496],[-72,-28]],[[960,874],[3,-2]],[[981,779],[3,0]],[[1025,827],[2,1]],[[1068,489],[-32,-6]],[[1036,482],[32,6]],[[1057,658],[23,-9]],[[1081,649],[-24,10]],[[1083,510],[-14,-21]],[[1069,488],[14,21]],[[1106,656],[-9,-12]],[[1097,643],[9,13]],[[1131,666],[-25,-10]],[[1107,656],[24,9]],[[1131,666],[0,-1]],[[1131,665]],[[1131,665],[1,1]],[[1132,666],[-1,0]],[[1131,665],[33,-26]],[[1164,640],[-32,26]],[[1164,639],[64,6],[16,76],[6,-1]],[[1250,720],[1,0]],[[1251,720]],[[1251,720],[1,0]],[[1164,639],[1,0],[-1,1]],[[1164,640],[0,-1]],[[1164,639]],[[1252,720],[-1,0]],[[1251,720]],[[1251,720],[-1,0]],[[1250,720],[-6,1],[-16,-76],[-63,-6]],[[1216,750],[31,-24],[3,-6]],[[1250,720]],[[1250,720],[8,-15]],[[1258,705],[-7,15]],[[1251,720]],[[1251,720],[-3,6],[-3,4],[-29,20]],[[1233,652],[17,-4]],[[1250,648],[-17,5]],[[1252,656],[0,-3]],[[1252,653],[1,3]],[[1321,975],[-7,1]],[[1319,883],[4,-2]],[[1324,881],[-5,3]],[[1324,880],[11,-5]],[[1336,875],[-11,6]],[[1411,492],[-4,3],[-10,-1]],[[1397,493],[13,-1]],[[1403,1017],[3,2]],[[1411,492],[-1,0]],[[1410,492],[1,-1],[0,1]],[[1411,492]],[[1411,492],[12,-7]],[[1423,485],[-12,7]],[[1424,485],[15,-8]],[[1439,477],[-15,8]],[[1439,476],[0,1]],[[1439,477]],[[1439,477]],[[763,735],[0,-1],[0,1]],[[778,673],[0,1],[-1,-1],[1,0]],[[805,682],[0,1],[-1,0],[0,-1],[1,0]],[[814,686],[0,1],[-1,0],[0,-1],[1,0]],[[884,716],[0,-1],[1,0],[-1,1]],[[899,490],[0,-1],[1,1],[-1,1]],[[899,491],[0,-1]],[[919,706],[0,1],[-1,-1],[0,-1]],[[918,705],[1,1]],[[948,468],[0,-1],[1,0],[0,1],[-1,0]],[[949,650],[-1,1],[-1,-1],[0,-1],[2,1]],[[1057,658],[0,1]],[[1057,659],[-1,0],[0,-1],[1,0]],[[1068,489],[0,-1],[1,1],[-1,0]],[[1081,648],[0,1],[-1,0],[1,-1]],[[1084,511],[-1,0],[0,-2]],[[1083,509],[2,0],[-1,2]],[[1106,656],[1,0],[-1,0]],[[1110,637],[0,1],[-1,0],[1,-1]],[[1211,545],[-1,-1],[1,0],[0,1]],[[1233,652],[0,1]],[[1233,653],[-1,0],[0,-1],[1,0]],[[1259,704],[0,1],[-1,0],[0,-1],[1,0]],[[1324,881],[-1,0],[1,-1],[0,1]],[[1336,875],[0,-1],[0,1]],[[1367,498],[-1,0],[1,0]],[[1424,485],[-1,0],[1,0]],[[1439,477]],[[1439,477],[0,-1],[0,1]],[[1439,477]],[[980,858],[-5,-36]],[[20,2437],[-16,-4]],[[4,2433],[19,4]],[[1051,841],[14,7]],[[1161,895],[14,7]],[[1184,906],[181,89]],[[240,2300],[22,-13]],[[263,2286]],[[263,2286]],[[263,2285]],[[263,2285],[0,1]],[[263,2284],[171,-319],[28,-208]],[[263,2286]],[[263,2286]],[[263,2286],[0,-1]],[[263,2285],[0,1]],[[462,1757],[0,-2]],[[463,1756],[-1,1]],[[462,1755],[1,-2]],[[463,1755],[0,1]],[[463,1756],[-1,-1]],[[462,1755]],[[462,1755],[1,0]],[[463,1753],[0,2]],[[463,1753],[111,-139],[75,-226],[119,-243]],[[900,940],[13,-14]],[[913,926],[59,-63],[55,-35]],[[1027,828],[-55,36],[-59,62]],[[913,926],[-13,13]],[[1290,1140],[17,-40]],[[1308,1100],[-18,40]],[[1318,884],[29,-37]],[[1360,946],[-42,-61]],[[1347,848],[-28,35]],[[1319,884],[42,61]],[[1366,953],[-6,-7]],[[1361,945],[6,7]],[[1363,999],[3,-45]],[[1368,953],[-5,46]],[[801,1097],[-24,44]],[[799,933],[121,7],[19,8],[50,33],[2,5],[-2,4]],[[989,990],[-69,-50],[-120,-6]],[[968,711],[15,-16]],[[980,702],[-11,10]],[[1159,584]],[[1159,584],[1,0]],[[1057,920],[-28,6],[-8,0],[-6,-2]],[[1015,924],[-23,-9]],[[992,915],[-2,0],[-172,-113],[-14,-25],[-3,-18],[1,-18]],[[802,741],[16,60],[47,21],[30,26],[53,38],[42,28],[2,1]],[[992,915],[8,5],[15,4]],[[1015,924],[6,2],[36,-7]],[[989,697],[16,-5]],[[1093,618],[1,0]],[[1094,618],[-1,1]],[[1133,598],[0,-1]],[[1133,598]],[[1176,575],[12,-16]],[[1188,559],[0,2]],[[980,859],[0,-1]],[[983,869],[-3,-9]],[[1405,947],[-39,7]],[[1416,941],[2,-1]],[[1418,940],[1,-2]],[[1420,940],[-2,0]],[[1174,575],[-90,-64]],[[1085,510],[40,18],[10,6],[4,3],[35,38]],[[755,1196],[-1,2]],[[1422,1007],[0,-2]],[[1423,1005],[0,2]],[[1423,1009],[-1,-1],[0,-1]],[[1422,1007],[1,0],[0,2]],[[919,770],[0,1],[-1,0],[0,-2],[1,1]],[[684,1281],[69,-83]],[[811,777],[39,-11]],[[801,750],[1,-9]],[[802,741],[0,9]],[[1343,967],[-20,7],[-8,-6]],[[1320,971],[22,-4]],[[1343,967],[23,-13]],[[1366,954],[-23,13]],[[1330,775],[179,-53],[2587,2865]],[[1074,867],[-1,-10]],[[1074,857],[1,10]],[[1079,887],[-5,-19]],[[1075,868],[5,19]],[[1079,909],[0,-21]],[[1080,888],[0,21]],[[1080,888],[-1,0],[0,-1],[1,0],[0,1]],[[1194,468],[-6,3]],[[1387,309],[-56,63]],[[1456,239],[-38,38]],[[1508,188],[-1,1]],[[1621,382],[0,-1],[0,1]],[[1343,967]],[[1343,967]],[[1343,967],[-4,0]],[[1339,967],[-24,1]],[[1320,971],[19,-4]],[[1339,967],[3,0]],[[1343,967],[62,-20]],[[1343,967]],[[1343,967],[-1,0]],[[1342,967],[1,0]],[[1343,967]],[[1343,967]],[[1343,967]],[[1405,947],[-62,20]],[[1405,947],[11,-6]],[[1010,741],[9,1]],[[1019,743],[-9,-1]],[[921,318],[-35,-61]],[[922,1064],[124,-107]],[[1028,954],[18,0]],[[1003,947],[0,-3]],[[1074,868],[1,-1],[0,1],[-1,0]],[[1272,518],[-1,-1],[1,-1],[1,1],[-1,1]],[[1396,495],[-1,-1],[0,-2],[2,1],[-1,2]],[[1002,776],[29,42]],[[1044,930],[-1,-20]],[[89,2455],[1,-2]],[[90,2453],[-1,2]],[[1307,1100],[56,-101]],[[1363,999],[-55,101]],[[1385,1007],[21,11]],[[1296,984],[2,-5]],[[1297,984],[-1,0],[1,0]],[[1299,980],[-2,4]],[[1300,979],[-1,1]],[[1299,980],[0,-2],[1,1]],[[1408,491],[-12,4]],[[1396,493],[12,-2]],[[1408,491],[33,-22]],[[1604,390],[17,-9]],[[1621,382],[-17,8]],[[1621,381],[10,-7]],[[1632,374],[-11,8]],[[1632,373],[21,-16]],[[1654,357],[-22,17]],[[989,914],[-2,-19]],[[1307,812],[-12,-6]],[[1295,805],[12,6]],[[1317,817],[-10,-5]],[[1308,812],[11,5]],[[1328,821],[25,13]],[[1353,834],[-24,-12]],[[275,2332],[215,-172],[67,-235],[-112,-261],[-6,-73],[12,-42],[233,-268]],[[753,1198],[24,-57]],[[767,1175],[-1,1]],[[23,2437],[1,0]],[[467,871],[-156,-10]],[[469,872],[-2,-1]],[[467,871],[2,0]],[[508,869],[-37,3]],[[469,872],[-1,0],[1,-1]],[[469,871],[0,1]],[[1314,976],[-1,-1],[1,0],[0,1]],[[1366,954],[0,-1],[1,-1],[1,1],[-2,1]],[[1023,826],[24,10]],[[1031,818],[16,18]],[[1047,836],[4,5]],[[1141,483],[53,-16],[193,-157]],[[1188,471],[-41,11]],[[1331,372],[-137,96]],[[1414,278],[45,-44]],[[1506,190],[3,-3]],[[451,1550],[-12,40]],[[559,1426],[-108,123]],[[684,1282],[-121,142]],[[1406,1018],[-42,-23]],[[1330,775],[150,-57],[53,41],[668,3337]],[[1002,776],[2,-29],[2,-13]],[[1007,735],[-5,41]],[[1007,729],[28,-135],[56,-83],[50,-28]],[[1147,482],[-56,30],[-56,82],[-6,80],[-21,55]],[[980,817],[-2,3]],[[687,1949],[68,44],[26,117],[67,77]],[[1407,952],[1,0]],[[1408,952]],[[1408,952]],[[1432,973],[-24,-20]],[[1408,952],[25,21]],[[1422,1005],[10,-31]],[[1433,973],[-10,32]],[[1408,953],[-1,-1],[1,0]],[[1408,952]],[[1408,952],[0,1]],[[1046,957],[-125,108]],[[1170,497],[-1,1],[0,-1],[1,0]],[[1189,468],[-1,0],[0,-1],[1,0],[0,1]],[[228,2308],[2,-2]],[[230,2306],[-1,2]],[[230,2306],[10,-6]],[[768,1145],[25,-50]],[[793,1095],[1,-1]],[[795,1094],[-2,1]],[[795,1094],[-1,0]],[[794,1094],[1,-1],[1,1],[-1,0]],[[997,740],[0,-1],[1,0],[0,1],[-1,0]],[[854,767],[-3,0]],[[975,737],[-8,-1]],[[439,1590],[0,1]],[[451,1549],[0,1]],[[563,1424],[-4,2]],[[754,1198],[-70,84]],[[1365,995],[20,12]],[[804,683],[-2,58]],[[802,741],[2,-58]],[[1272,516],[94,-18]],[[439,1591],[7,73],[111,261],[-66,235],[-216,173]],[[1406,1019]],[[983,695],[22,-3]],[[1174,577],[0,-1]],[[1175,576]],[[1188,559],[22,-15]],[[1211,545],[-22,15]],[[917,771],[1,-1]],[[921,1065],[-108,25]],[[1031,818],[15,139]],[[850,767],[-48,-16]],[[802,750],[48,16]],[[1387,310],[27,-32]],[[1509,187],[11,-12],[214,-148],[51,-27]],[[1785,0],[-263,175]],[[1418,940],[-2,1]],[[1418,940],[1,-2]],[[1420,940],[-2,0]],[[1073,857],[0,-2]],[[1073,856],[1,1]],[[1046,955],[-1,0],[1,-1],[0,1]],[[1272,518],[-60,26]],[[1212,543],[59,-26]],[[0,2672],[44,-1],[1,-10],[6,-35],[1,-165],[-52,-42],[0,253]],[[0,2013],[46,-6],[59,11],[65,54],[36,49],[32,68],[-1,60],[-186,75],[-28,-3],[-23,-7],[0,60],[1,0],[27,8],[18,16],[13,18],[10,10],[44,7],[283,-64],[53,5],[155,70],[25,-6],[47,-73],[205,-31],[95,-87],[216,-78],[56,-47],[-94,-25],[-43,-18],[-41,-29],[-15,60],[-81,10],[-94,-25],[-52,-45],[22,-60],[76,-29],[88,-4],[56,16],[21,-32],[25,-41],[10,-35],[-17,-45],[-20,53],[-126,-125],[23,-179],[110,-185],[134,-138],[108,-53],[31,-21],[68,-98],[29,-42],[-15,-43],[-67,-67],[-28,-74],[-30,-30],[-40,-6],[-38,33],[21,56],[-27,15],[-50,-8],[-95,-31],[-28,-22],[-50,-71],[-15,-54],[42,-18],[91,-3],[38,-20],[20,18],[9,9],[44,81],[62,-140],[77,-106],[103,-64],[139,-16],[40,10],[59,-2],[148,76],[90,22],[57,59],[23,102],[19,84],[41,148],[53,47],[62,13],[135,-10],[122,24],[113,45],[145,104],[90,95],[27,13],[11,34],[9,19],[167,138],[24,29],[8,41],[-11,25],[-5,24],[27,37],[63,30],[146,16],[113,86],[60,9],[51,-26],[27,-65],[-4,-31],[-30,-44],[-7,-38],[7,-41],[28,-52],[6,-33],[11,-26],[51,-75],[18,-37],[7,-36],[5,-78],[8,-35],[14,-29],[19,-33],[21,-27],[16,-11],[17,-20],[35,-56],[-17,-60],[-40,-57],[-117,-48],[-159,-135],[-86,-162],[-124,-183],[-187,-351],[-3035,0],[0,2013]],[[1352,386],[42,104],[-4,-22],[27,14],[12,-39],[40,-6],[-7,-18],[48,4],[24,-44],[12,18],[39,-99],[24,55],[32,-12],[14,-77],[53,2],[-8,-30],[30,-26],[-19,-82],[36,-80],[-30,0],[-45,73],[-102,34],[5,21],[-88,17],[-47,70],[26,17],[-75,27],[-39,79]],[[0,2455],[8,0],[-8,7],[0,11],[18,-14],[15,26],[-29,-6],[-4,-4],[0,39],[16,37],[34,-2],[-19,30],[31,19],[-37,66],[24,24],[45,-168],[32,-32],[-10,-12],[3,11],[-19,3],[-8,-4],[22,-12],[-35,-31],[-79,-9],[0,21]],[[3632,880],[-17,21],[24,52],[87,83],[-22,-77],[-72,-79]],[[0,2313],[0,59],[113,61],[177,-40],[-17,-68],[-79,-59],[-143,58],[-51,-11]],[[0,2419],[0,228],[25,25],[19,-1],[7,-45],[1,-165],[-52,-42]],[[2985,240],[109,-65],[-108,-175],[-58,0],[8,48],[-33,1],[35,200],[47,-9]],[[3487,809],[9,-20],[-174,-191],[-91,-160],[-36,45],[0,53],[65,41],[0,81],[32,0],[29,103],[147,66],[19,-18]],[[1964,494],[41,-112],[44,-13],[14,-36],[65,5],[32,36],[64,-41],[0,-81],[65,0],[0,-82],[-97,0],[-97,81],[0,41],[-98,0],[0,41],[-32,0],[0,40],[-32,0],[-42,62],[-88,-21],[-4,101],[77,40],[88,-61]],[[1163,1153],[235,-23],[68,-98],[-15,-43],[-125,-171],[-40,-6],[-38,33],[21,56],[-77,7],[-123,-53],[-65,-125],[171,-41],[73,108],[139,-246],[103,-64],[176,-7],[12,-31],[11,-71],[-55,-33],[-211,47],[-40,-19],[6,-84],[108,-47],[15,-71],[-25,6],[-40,-47],[-64,81],[-147,47],[-80,75],[-291,-41],[0,112],[57,152],[-7,138],[-115,-77],[-43,8],[-248,236],[-6,76],[168,46],[97,162],[97,-40],[165,84],[133,-36]],[[1073,929],[67,69],[-12,-51],[38,17],[-14,-14],[35,-49],[-49,2],[-63,-44],[15,64],[-17,6]],[[1326,1067],[29,6],[22,51],[19,-52],[53,-40],[-39,-40],[-4,29],[-42,-22],[-38,68]],[[847,322],[10,36],[48,-6],[43,-95],[-78,-36],[32,38],[-20,-3],[-8,31],[20,5],[-47,30]],[[913,1072],[36,54],[-22,9],[49,12],[-24,21],[18,-7],[-15,20],[30,25],[16,-50],[54,-9],[71,-58],[-33,-37],[50,-46],[-95,-51],[-135,117]],[[907,1243],[16,42],[58,7],[-2,22],[28,-5],[10,22],[32,-19],[27,15],[10,-17],[20,-1],[3,-4],[-75,-24],[6,22],[-20,2],[9,-30],[-30,12],[13,-45],[-28,-7],[19,-7],[-22,-24],[-25,18],[6,26],[-55,-5]],[[0,2410],[11,6],[35,-1],[-46,-20],[0,15]]]}