{"objects":{"water":{"type":"GeometryCollection","geometries":[{"type":"MultiPolygon","properties":{"source":"naturalearthdata.com","kind":"ocean","area":1576712559132672,"sort_rank":200,"min_zoom":0.0,"id":1},"arcs":[[[135]],[[136],[137]],[[138]],[[139]],[[140]]]},{"type":"MultiLineString","properties":{"source":"naturalearthdata.com","kind":"ocean","sort_rank":205,"boundary":true,"min_zoom":0.0,"id":58},"arcs":[[141],[142],[143],[144],[145]]},{"type":"MultiLineString","properties":{"source":"naturalearthdata.com","kind":"ocean","sort_rank":205,"boundary":true,"min_zoom":0.0,"id":1788},"arcs":[[146],[147]]},{"type":"MultiLineString","properties":{"source":"naturalearthdata.com","kind":"ocean","sort_rank":205,"boundary":true,"min_zoom":0.0,"id":3503},"arcs":[[148],[149]]}]},"buildings":{"type":"GeometryCollection","geometries":[]},"places":{"type":"GeometryCollection","geometries":[{"type":"Point","properties":{"source":"naturalearthdata.com","kind":"locality","name":"Seoul","country_capital":true,"population":9796000,"min_zoom":3.0,"id":7242},"coordinates":[634,1787]},{"type":"Point","properties":{"kind":"region","name:en":"Gyeonggi","name":"\uacbd\uae30\ub3c4","name:ms":"Gyeonggi","name:ko":"\u4eac\u757f\u9053","kind_detail":"state","source":"openstreetmap.org","min_zoom":4.0,"name:ru":"\u041a\u0451\u043d\u0433\u0438\u0434\u043e","name:zh":"\u4eac\u757f\u9053","id":4549670214,"name:ja":"\u4eac\u757f\u9053"},"coordinates":[895,1465]},{"type":"Point","properties":{"name:pt":"Chungcheong do Norte","alt_name:en":"North Chungcheong Province","name:id":"Chungcheong Utara","min_zoom":4.0,"name:it":"Nord Chungcheong","name:vi":"Chungcheong B\u1eafc","name:ru":"\u0427\u0445\u0443\u043d\u0447\u0445\u043e\u043d-\u041f\u0443\u043a\u0442\u043e","name:pl":"Ch'ungch'\u014fng P\u00f3\u0142nocny","name:mn":"\u0423\u043c\u0430\u0440\u0434 \u0427\u04af\u043d\u0447\u043e\u043d","id":1895837469,"name:ca":"Chungcheongbuk-do","name:fa":"\u0686\u0648\u0646\u06af\u0686\u06cc\u0648\u0646\u0628\u0648\u06a9-\u062f\u0648","name:bg":"\u0427\u0445\u0443\u043d\u0447\u0445\u044a\u043d-\u041f\u0443\u043a\u0442\u043e","name:lt":"\u0160iaur\u0117s \u010cung\u010dongo provincija","kind_detail":"state","name:de":"Chungcheongbuk-do","source":"openstreetmap.org","name:fr":"Chungcheongbuk","name:zh":"\u5fe0\u6e05\u5317\u9053","name:nl":"Chungcheongbuk-do","name:ja":"\u5fe0\u6e05\u5317\u9053","short_name":"\ucda9\ubd81","name:no":"Nord-Chungcheong","name:uk":"\u041f\u0456\u0432\u043d\u0456\u0447\u043d\u0430 \u043f\u0440\u043e\u0432\u0456\u043d\u0446\u0456\u044f \u0427\u0445\u0443\u043d\u0447\u0445\u043e\u043d","name:sw":"Chungcheongbuk-do","name:sv":"Nordchungcheong","name:hu":"\u00c9szak-Cshungcshong","kind":"region","name:en":"Chungcheongbuk-do","name":"\ucda9\uccad\ubd81\ub3c4","name:fi":"Pohjois-Chungcheon","name:et":"P\u00f5hja-Ch'ungch'\u014fngi provints","name:es":"Chungcheong del Norte"},"coordinates":[1671,480]},{"type":"Point","properties":{"name:pt":"Gangwon","alt_name:en":"Gangwon Province","name:id":"Gangwon","name:ms":"Gangwon","name:th":"\u0e08\u0e31\u0e07\u0e2b\u0e27\u0e31\u0e14\u0e04\u0e31\u0e07\u0e27\u0e47\u0e2d\u0e19","name:it":"Gangwon","name:ru":"\u041a\u0430\u043d\u0432\u043e\u043d\u0434\u043e","name:vi":"Gangwon","name:pl":"Gangwon","name:mn":"\u04e8\u043c\u043d\u04e9\u0434 \u0421\u043e\u043b\u043e\u043d\u0433\u043e\u0441\u044b\u043d \u041a\u0430\u043d\u0432\u043e\u043d","id":1853958141,"name:ca":"Gangwon-do","name:fa":"\u06af\u0627\u0646\u06a9\u0648\u0646-\u062f\u0648","name:hu":"Kangvon","name:lt":"Kangvono provincija","kind_detail":"state","name:de":"Gangwon-do","source":"openstreetmap.org","name:fr":"Gangwon","name:zh":"\u6c5f\u539f\u9053","name:nl":"Gangwon-do","name:ja":"\u6c5f\u539f\u9053","short_name":"\uac15\uc6d0","name:no":"Gangwon","name:uk":"\u041f\u0440\u043e\u0432\u0456\u043d\u0446\u0456\u044f \u041a\u0430\u043d\u0432\u043e\u043d","name:sv":"Gangwon","name:bg":"\u041a\u0430\u043d\u0443\u044a\u043d-\u0434\u043e","kind":"region","name:en":"Gangwon-do","name":"\uac15\uc6d0\ub3c4","min_zoom":4.0,"name:fi":"Gangwon","name:et":"Kangw\u014fni provints","name:es":"Gangwon"},"coordinates":[2412,2246]},{"type":"Point","properties":{"name:pt":"Gyeonggi","alt_name:en":"Gyeonggi Province","name:id":"Gyeonggi","name:ms":"Gyeonggi","name:cs":"Gj\u014fnggi","min_zoom":4.0,"name:ro":"Gyeonggi-do","name:it":"Gyeonggi","name:ru":"\u041a\u0451\u043d\u0433\u0438\u0434\u043e","name:vi":"Gyeonggi","name:pl":"Gyeonggi","name:mn":"\u041a\u0451\u043d\u0433\u0438 \u0430\u0439\u043c\u0430\u0433","id":1850580646,"name:ca":"Gyeonggi-do","name:fa":"\u06af\u06cc\u0648\u0646\u06af\u06cc-\u062f\u0648","name:hu":"Kjonggi","name:lt":"Kiongi provincija","kind_detail":"state","name:de":"Gyeonggi-do","source":"openstreetmap.org","name:fr":"Gyeonggi","name:zh":"\u4eac\u757f\u9053","name:nl":"Gyeonggi-do","name:ja":"\u4eac\u757f\u9053","short_name":"\uacbd\uae30","name:no":"Gyeonggi","name:uk":"\u041f\u0440\u043e\u0432\u0456\u043d\u0446\u0456\u044f \u041a\u044c\u043e\u043d\u0433\u0456","name:sw":"Gyeonggi-do","name:sv":"Gyeonggi","name:su":"Gyeonggi-do","name:bg":"\u041a\u044c\u043e\u043d\u0433\u0438-\u0434\u043e","kind":"region","name:en":"Gyeonggi-do","name":"\uacbd\uae30\ub3c4","name:fi":"Gyeonggi","name:et":"Ky\u014fnggi provints","name:es":"Gyeonggi"},"coordinates":[788,1238]},{"type":"Point","properties":{"source":"naturalearthdata.com","kind":"locality","name":"Incheon","population":2550000,"min_zoom":5.0,"id":6176},"coordinates":[113,1621]},{"type":"Point","properties":{"source":"naturalearthdata.com","kind":"locality","name":"Suwon","population":1078000,"min_zoom":6.0,"id":4957},"coordinates":[650,1219]},{"type":"Point","properties":{"source":"naturalearthdata.com","kind":"locality","name":"Songnam","population":942000,"min_zoom":7.0,"id":4794},"coordinates":[835,1551]},{"type":"Point","properties":{"source":"naturalearthdata.com","kind":"locality","name":"Goyang","population":903000,"min_zoom":7.0,"id":4795},"coordinates":[397,1946]},{"type":"Point","properties":{"source":"naturalearthdata.com","kind":"locality","name":"Puch'on","population":866000,"min_zoom":7.0,"id":4793},"coordinates":[318,1662]},{"type":"Point","properties":{"source":"naturalearthdata.com","kind":"locality","name":"Gangneung","population":180611,"min_zoom":7.0,"id":3018},"coordinates":[3399,2132]},{"type":"Point","properties":{"source":"naturalearthdata.com","kind":"locality","name":"Sokcho","population":85430,"min_zoom":7.0,"id":3019},"coordinates":[2954,2966]}]},"transit":{"type":"GeometryCollection","geometries":[{"type":"MultiLineString","properties":{"osm_relation":true,"source":"openstreetmap.org","kind":"train","name":"DMZ Train","sort_rank":275,"min_zoom":6.0,"operator":"Korail"},"arcs":[[92],[93]]},{"type":"LineString","properties":{"kind":"train","name:en":"Gyeongui Jungang Line","name":"\uacbd\uc758\uc911\uc559\uc120 (Gyeongui Jungang Line)","name:ko":"\uacbd\uc758\uc911\uc559\uc120","colour":"#00FFFF","source":"openstreetmap.org","min_zoom":6.0,"sort_rank":275,"operator":"Korail","id":-25876,"osm_relation":true,"colour_name":"aqua"},"arcs":[94]},{"type":"MultiLineString","properties":{"kind":"train","name:en":"Line 1 (Gyeongin Line)","name":"1\ud638\uc120 \uacbd\uc778\uc120","name:ko":"1\ud638\uc120 (\uacbd\uc778\uc120)","colour":"#0054A6","source":"openstreetmap.org","min_zoom":6.0,"sort_rank":275,"operator":"Korea Railroad Corporation","ref":"1","osm_relation":true,"colour_name":"teal"},"arcs":[[95],[96],[97],[98],[99],[100],[101],[102]]},{"type":"MultiLineString","properties":{"kind":"train","name":"\uacbd\ucd98\uc120","sort_rank":275,"source":"openstreetmap.org","min_zoom":6.0,"operator":"Korail","osm_relation":true,"network":"\uacbd\ucd98\uc120"},"arcs":[[103],[104],[105],[106],[107],[108],[109]]},{"type":"MultiLineString","properties":{"kind":"train","name:en":"Gyeongeui-Jungang Line For Yongmun","name":"\uacbd\uc758\uc911\uc559\uc120 \ud558\ud589","sort_rank":275,"colour":"#73C7A6","source":"openstreetmap.org","min_zoom":6.0,"network":"\uc218\ub3c4\uad8c\uc804\ucca0","operator":"Korail","ref":"\uacbd\uc758\uc911\uc559\uc120","osm_relation":true,"colour_name":"darkseagreen"},"arcs":[[110],[111],[112],[113],[114],[115],[116]]},{"type":"MultiLineString","properties":{"kind":"train","name:en":"Gyeongeui-Jungang Line For Munsan","name":"\uacbd\uc758\uc911\uc559\uc120 \uc0c1\ud589","sort_rank":275,"colour":"#73C7A6","source":"openstreetmap.org","min_zoom":6.0,"network":"\uc218\ub3c4\uad8c\uc804\ucca0","operator":"Korail","ref":"\uacbd\uc758\uc911\uc559\uc120 \uc0c1\ud589","osm_relation":true,"colour_name":"darkseagreen"},"arcs":[[117],[118],[119],[120]]},{"type":"MultiLineString","properties":{"kind":"train","name:en":"Line 1, Gwangmyeong shuttle","name":"1\ud638\uc120 \uad11\uba85 \uc154\ud2c0","sort_rank":275,"colour":"#00498B","source":"openstreetmap.org","min_zoom":6.0,"operator":"Seoul Metro;Korea Railroad Corporation","ref":"1","osm_relation":true,"colour_name":"teal"},"arcs":[[121],[122],[123],[124]]},{"type":"LineString","properties":{"source":"openstreetmap.org","kind":"train","name":"\uc6b4\uace1\uae38","sort_rank":275,"min_zoom":6.0,"osm_relation":true,"id":-3399104},"arcs":[125]},{"type":"MultiLineString","properties":{"kind":"train","network":"Seoul Metropolitan Subway System","service":"regional","sort_rank":275,"source":"openstreetmap.org","min_zoom":6.0,"operator":"Korail Airport Railroad","osm_relation":true,"name":"A'REX"},"arcs":[[126],[127],[128],[129],[130],[131]]},{"type":"LineString","properties":{"kind":"train","network":"\uace0\uc18d\ucca0\ub3c4","sort_rank":275,"source":"openstreetmap.org","min_zoom":6.0,"operator":"\ud55c\uad6d\ucca0\ub3c4\uacf5\uc0ac (Korail)","id":-2474720,"osm_relation":true,"name":"\uacbd\ubd80\uace0\uc18d\ucca0\ub3c4"},"arcs":[132]},{"type":"LineString","properties":{"kind":"train","name:en":"Suin Line","network":"Seoul Metropolitan Subway System","sort_rank":275,"colour":"#FFB300","name":"\uc218\uc778\uc120","source":"openstreetmap.org","min_zoom":6.0,"operator":"Korea Railroad Corporation","ref":"K2","id":-3012654,"osm_relation":true,"colour_name":"orange"},"arcs":[133]},{"type":"LineString","properties":{"source":"openstreetmap.org","kind":"train","sort_rank":275,"min_zoom":6.0,"osm_relation":true,"id":-2550509},"arcs":[134]}]},"pois":{"type":"GeometryCollection","geometries":[]},"boundaries":{"type":"GeometryCollection","geometries":[{"type":"MultiLineString","properties":{"source":"naturalearthdata.com","kind":"line_of_control","name":"Military Demarcation Line 1953","sort_rank":260,"kind_detail":"2","min_zoom":0.0,"id":39},"arcs":[[0],[1],[2],[3],[4],[5],[6],[7],[8]]},{"type":"LineString","properties":{"source":"naturalearthdata.com","kind":"overlay_limit","name":"Korean Demilitarized Zone","sort_rank":259,"kind_detail":"2","min_zoom":0.0,"id":436},"arcs":[9]},{"type":"LineString","properties":{"source":"naturalearthdata.com","kind":"overlay_limit","name":"Korean Demilitarized Zone","sort_rank":259,"kind_detail":"2","min_zoom":0.0,"id":438},"arcs":[10]},{"type":"MultiLineString","properties":{"source":"naturalearthdata.com","kind":"region","name":"South Chungcheong - Gyeonggi","sort_rank":256,"kind_detail":"4","min_zoom":6.0,"id":6373},"arcs":[[11],[12],[13]]},{"type":"MultiLineString","properties":{"source":"naturalearthdata.com","kind":"region","name":"Seoul - Gyeonggi","sort_rank":256,"kind_detail":"4","min_zoom":6.0,"id":6372},"arcs":[[14],[15],[16],[17],[18],[19],[20],[21]]},{"type":"MultiLineString","properties":{"source":"naturalearthdata.com","kind":"region","name":"Sejong - South Chungcheong","sort_rank":256,"kind_detail":"4","min_zoom":6.0,"id":6376},"arcs":[[22],[23]]},{"type":"MultiLineString","properties":{"source":"naturalearthdata.com","kind":"region","name":"Incheon - Gyeonggi","sort_rank":256,"kind_detail":"4","min_zoom":6.0,"id":6377},"arcs":[[24],[25]]},{"type":"MultiLineString","properties":{"source":"naturalearthdata.com","kind":"region","name":"Gyeonggi - North Chungcheong","sort_rank":256,"kind_detail":"4","min_zoom":6.0,"id":6378},"arcs":[[26],[27],[28]]},{"type":"MultiLineString","properties":{"source":"naturalearthdata.com","kind":"region","name":"South Chungcheong - North Chungcheong","sort_rank":256,"kind_detail":"4","min_zoom":6.0,"id":6380},"arcs":[[29],[30],[31]]},{"type":"LineString","properties":{"source":"naturalearthdata.com","kind":"region","name":"Sejong - North Chungcheong","sort_rank":256,"kind_detail":"4","min_zoom":6.0,"id":6381},"arcs":[32]},{"type":"MultiLineString","properties":{"source":"naturalearthdata.com","kind":"region","name":"Gyeonggi - Gangwon","sort_rank":256,"kind_detail":"4","min_zoom":6.0,"id":6385},"arcs":[[33],[34],[35],[36],[37],[38],[39],[40],[41],[42],[43],[44],[45],[46],[47],[48],[49]]},{"type":"MultiLineString","properties":{"source":"naturalearthdata.com","kind":"region","name":"Gangwon - North Chungcheong","sort_rank":256,"kind_detail":"4","min_zoom":6.0,"id":6386},"arcs":[[50],[51],[52],[53],[54],[55],[56],[57],[58],[59],[60],[61],[62],[63]]},{"type":"MultiLineString","properties":{"source":"naturalearthdata.com","kind":"region","name":"North Gyeongsang - North Chungcheong","sort_rank":256,"kind_detail":"4","min_zoom":6.0,"id":6388},"arcs":[[64],[65],[66],[67],[68],[69],[70],[71],[72],[73],[74]]},{"type":"MultiLineString","properties":{"source":"naturalearthdata.com","kind":"region","name":"Gangwon - North Gyeongsang","sort_rank":256,"kind_detail":"4","min_zoom":6.0,"id":6389},"arcs":[[75],[76],[77],[78],[79],[80],[81],[82],[83],[84],[85],[86]]},{"type":"LineString","properties":{"source":"naturalearthdata.com","kind":"region","name":"Kangw\u014fn-do - Hwanghae-bukto","sort_rank":256,"kind_detail":"4","min_zoom":6.0,"id":6816},"arcs":[87]},{"type":"LineString","properties":{"source":"naturalearthdata.com","kind":"region","name":"Kangw\u014fn-do - Hwanghae-bukto","sort_rank":256,"kind_detail":"4","min_zoom":6.0,"id":6817},"arcs":[88]},{"type":"MultiLineString","properties":{"source":"naturalearthdata.com","kind":"region","name":"Hwanghae-bukto - Kangw\u014fn-do","sort_rank":256,"kind_detail":"4","min_zoom":6.0,"id":6821},"arcs":[[89],[90],[91]]}]},"roads":{"type":"GeometryCollection","geometries":[{"type":"LineString","properties":{"source":"naturalearthdata.com","kind":"highway","sort_rank":383,"kind_detail":"motorway","min_zoom":5.0,"id":21134},"arcs":[150]},{"type":"LineString","properties":{"source":"naturalearthdata.com","kind":"highway","sort_rank":383,"kind_detail":"motorway","min_zoom":4.0,"id":21152},"arcs":[151]},{"type":"LineString","properties":{"source":"naturalearthdata.com","kind":"highway","sort_rank":383,"kind_detail":"motorway","min_zoom":4.0,"id":21153},"arcs":[152]},{"type":"LineString","properties":{"source":"naturalearthdata.com","kind":"minor_road","sort_rank":355,"kind_detail":"tertiary","min_zoom":5.0,"id":21162},"arcs":[153]},{"type":"LineString","properties":{"source":"naturalearthdata.com","kind":"minor_road","sort_rank":355,"kind_detail":"tertiary","min_zoom":5.0,"id":21174},"arcs":[154]},{"type":"LineString","properties":{"source":"naturalearthdata.com","kind":"minor_road","sort_rank":355,"kind_detail":"tertiary","min_zoom":5.0,"id":21252},"arcs":[155]},{"type":"LineString","properties":{"source":"naturalearthdata.com","kind":"minor_road","sort_rank":355,"kind_detail":"tertiary","min_zoom":5.0,"id":21346},"arcs":[156]},{"type":"LineString","properties":{"source":"naturalearthdata.com","kind":"minor_road","sort_rank":355,"kind_detail":"tertiary","min_zoom":5.0,"id":21379},"arcs":[157]},{"type":"LineString","properties":{"source":"naturalearthdata.com","kind":"minor_road","sort_rank":355,"kind_detail":"tertiary","min_zoom":5.0,"id":21447},"arcs":[158]},{"type":"LineString","properties":{"source":"naturalearthdata.com","kind":"minor_road","sort_rank":355,"kind_detail":"tertiary","min_zoom":5.0,"id":21461},"arcs":[159]},{"type":"LineString","properties":{"source":"naturalearthdata.com","kind":"minor_road","kind_detail":"tertiary","sort_rank":355,"landuse_kind":"park","min_zoom":5.0,"id":21495},"arcs":[160]},{"type":"LineString","properties":{"source":"naturalearthdata.com","kind":"minor_road","kind_detail":"tertiary","sort_rank":355,"landuse_kind":"urban_area","min_zoom":5.0,"id":21495},"arcs":[161]},{"type":"MultiLineString","properties":{"source":"naturalearthdata.com","kind":"minor_road","sort_rank":355,"kind_detail":"tertiary","min_zoom":5.0,"id":21495},"arcs":[[162],[163]]},{"type":"LineString","properties":{"source":"naturalearthdata.com","kind":"minor_road","sort_rank":355,"kind_detail":"tertiary","min_zoom":5.0,"id":21544},"arcs":[164]},{"type":"LineString","properties":{"source":"naturalearthdata.com","kind":"minor_road","sort_rank":355,"kind_detail":"tertiary","min_zoom":5.0,"id":21560},"arcs":[165]},{"type":"LineString","properties":{"source":"naturalearthdata.com","kind":"major_road","sort_rank":379,"kind_detail":"secondary","min_zoom":3.0,"id":21572},"arcs":[166]},{"type":"LineString","properties":{"source":"naturalearthdata.com","kind":"major_road","kind_detail":"secondary","sort_rank":379,"landuse_kind":"urban_area","min_zoom":3.0,"id":21679},"arcs":[167]},{"type":"LineString","properties":{"source":"naturalearthdata.com","kind":"major_road","sort_rank":379,"kind_detail":"secondary","min_zoom":3.0,"id":21679},"arcs":[168]},{"type":"LineString","properties":{"source":"naturalearthdata.com","kind":"minor_road","kind_detail":"tertiary","sort_rank":355,"landuse_kind":"urban_area","min_zoom":5.0,"id":21709},"arcs":[169]},{"type":"LineString","properties":{"source":"naturalearthdata.com","kind":"minor_road","kind_detail":"tertiary","sort_rank":355,"landuse_kind":"urban_area","min_zoom":5.0,"id":21709},"arcs":[170]},{"type":"LineString","properties":{"source":"naturalearthdata.com","kind":"minor_road","sort_rank":355,"kind_detail":"tertiary","min_zoom":5.0,"id":21709},"arcs":[171]},{"type":"LineString","properties":{"source":"naturalearthdata.com","kind":"minor_road","sort_rank":355,"kind_detail":"tertiary","min_zoom":5.0,"id":21712},"arcs":[172]},{"type":"LineString","properties":{"source":"naturalearthdata.com","kind":"highway","kind_detail":"motorway","sort_rank":383,"landuse_kind":"urban_area","min_zoom":4.0,"id":21723},"arcs":[173]},{"type":"LineString","properties":{"source":"naturalearthdata.com","kind":"highway","sort_rank":383,"kind_detail":"motorway","min_zoom":4.0,"id":21723},"arcs":[174]},{"type":"LineString","properties":{"source":"naturalearthdata.com","kind":"minor_road","kind_detail":"tertiary","sort_rank":355,"landuse_kind":"urban_area","min_zoom":5.0,"id":21742},"arcs":[175]},{"type":"LineString","properties":{"source":"naturalearthdata.com","kind":"minor_road","sort_rank":355,"kind_detail":"tertiary","min_zoom":5.0,"id":21742},"arcs":[176]},{"type":"LineString","properties":{"source":"naturalearthdata.com","kind":"minor_road","kind_detail":"tertiary","sort_rank":355,"landuse_kind":"urban_area","min_zoom":5.0,"id":21747},"arcs":[177]},{"type":"LineString","properties":{"source":"naturalearthdata.com","kind":"highway","kind_detail":"motorway","sort_rank":383,"landuse_kind":"urban_area","min_zoom":5.0,"id":21748},"arcs":[178]},{"type":"LineString","properties":{"source":"naturalearthdata.com","kind":"highway","kind_detail":"motorway","sort_rank":383,"landuse_kind":"urban_area","min_zoom":5.0,"id":21748},"arcs":[179]},{"type":"LineString","properties":{"source":"naturalearthdata.com","kind":"highway","sort_rank":383,"kind_detail":"motorway","min_zoom":5.0,"id":21748},"arcs":[180]},{"type":"MultiLineString","properties":{"source":"naturalearthdata.com","kind":"minor_road","kind_detail":"tertiary","sort_rank":355,"landuse_kind":"urban_area","min_zoom":5.0,"id":21770},"arcs":[[181],[182]]},{"type":"LineString","properties":{"source":"naturalearthdata.com","kind":"minor_road","kind_detail":"tertiary","sort_rank":355,"landuse_kind":"urban_area","min_zoom":5.0,"id":21770},"arcs":[183]},{"type":"LineString","properties":{"source":"naturalearthdata.com","kind":"minor_road","kind_detail":"tertiary","sort_rank":355,"landuse_kind":"urban_area","min_zoom":5.0,"id":21770},"arcs":[184]},{"type":"MultiLineString","properties":{"source":"naturalearthdata.com","kind":"minor_road","sort_rank":355,"kind_detail":"tertiary","min_zoom":5.0,"id":21770},"arcs":[[185],[186],[187]]},{"type":"LineString","properties":{"source":"naturalearthdata.com","kind":"highway","sort_rank":383,"kind_detail":"motorway","min_zoom":4.0,"id":21782},"arcs":[188]},{"type":"LineString","properties":{"source":"naturalearthdata.com","kind":"major_road","sort_rank":379,"kind_detail":"secondary","min_zoom":4.0,"id":21785},"arcs":[189]},{"type":"LineString","properties":{"source":"naturalearthdata.com","kind":"minor_road","kind_detail":"tertiary","sort_rank":355,"landuse_kind":"urban_area","min_zoom":5.0,"id":21806},"arcs":[190]},{"type":"LineString","properties":{"source":"naturalearthdata.com","kind":"highway","sort_rank":383,"kind_detail":"motorway","min_zoom":4.0,"id":21810},"arcs":[191]},{"type":"LineString","properties":{"source":"naturalearthdata.com","kind":"highway","kind_detail":"motorway","sort_rank":383,"landuse_kind":"urban_area","min_zoom":5.0,"id":21842},"arcs":[192]},{"type":"LineString","properties":{"source":"naturalearthdata.com","kind":"highway","kind_detail":"motorway","sort_rank":383,"landuse_kind":"urban_area","min_zoom":5.0,"id":21843},"arcs":[193]},{"type":"LineString","properties":{"source":"naturalearthdata.com","kind":"highway","kind_detail":"motorway","sort_rank":383,"landuse_kind":"urban_area","min_zoom":3.0,"id":21845},"arcs":[194]},{"type":"LineString","properties":{"source":"naturalearthdata.com","kind":"highway","kind_detail":"motorway","sort_rank":383,"landuse_kind":"urban_area","min_zoom":4.0,"id":21849},"arcs":[195]},{"type":"LineString","properties":{"source":"naturalearthdata.com","kind":"highway","kind_detail":"motorway","sort_rank":383,"landuse_kind":"urban_area","min_zoom":4.0,"id":21849},"arcs":[196]},{"type":"MultiLineString","properties":{"source":"naturalearthdata.com","kind":"highway","sort_rank":383,"kind_detail":"motorway","min_zoom":4.0,"id":21849},"arcs":[[197],[198]]},{"type":"LineString","properties":{"source":"naturalearthdata.com","kind":"major_road","kind_detail":"secondary","sort_rank":379,"landuse_kind":"urban_area","min_zoom":3.0,"id":21853},"arcs":[199]},{"type":"LineString","properties":{"source":"naturalearthdata.com","kind":"minor_road","kind_detail":"tertiary","sort_rank":355,"landuse_kind":"urban_area","min_zoom":5.0,"id":21861},"arcs":[200]},{"type":"LineString","properties":{"source":"naturalearthdata.com","kind":"minor_road","kind_detail":"tertiary","sort_rank":355,"landuse_kind":"urban_area","min_zoom":5.0,"id":21866},"arcs":[201]},{"type":"LineString","properties":{"source":"naturalearthdata.com","kind":"major_road","kind_detail":"secondary","sort_rank":379,"landuse_kind":"urban_area","min_zoom":3.0,"id":21867},"arcs":[202]},{"type":"LineString","properties":{"source":"naturalearthdata.com","kind":"highway","kind_detail":"motorway","sort_rank":383,"landuse_kind":"urban_area","min_zoom":5.0,"id":21885},"arcs":[203]},{"type":"LineString","properties":{"source":"naturalearthdata.com","kind":"highway","kind_detail":"motorway","sort_rank":383,"landuse_kind":"urban_area","min_zoom":5.0,"id":21885},"arcs":[204]},{"type":"LineString","properties":{"source":"naturalearthdata.com","kind":"highway","sort_rank":383,"kind_detail":"motorway","min_zoom":5.0,"id":21885},"arcs":[205]},{"type":"LineString","properties":{"source":"naturalearthdata.com","kind":"highway","kind_detail":"motorway","sort_rank":383,"landuse_kind":"urban_area","min_zoom":4.0,"id":21904},"arcs":[206]},{"type":"LineString","properties":{"source":"naturalearthdata.com","kind":"highway","kind_detail":"motorway","sort_rank":383,"landuse_kind":"urban_area","min_zoom":4.0,"id":21907},"arcs":[207]},{"type":"LineString","properties":{"source":"naturalearthdata.com","kind":"minor_road","kind_detail":"tertiary","sort_rank":355,"landuse_kind":"urban_area","min_zoom":5.0,"id":21919},"arcs":[208]},{"type":"LineString","properties":{"source":"naturalearthdata.com","kind":"minor_road","sort_rank":355,"kind_detail":"tertiary","min_zoom":5.0,"id":21919},"arcs":[209]},{"type":"LineString","properties":{"source":"naturalearthdata.com","kind":"minor_road","kind_detail":"tertiary","sort_rank":355,"landuse_kind":"urban_area","min_zoom":5.0,"id":21924},"arcs":[210]},{"type":"LineString","properties":{"source":"naturalearthdata.com","kind":"highway","kind_detail":"motorway","sort_rank":383,"landuse_kind":"urban_area","min_zoom":4.0,"id":21956},"arcs":[211]},{"type":"LineString","properties":{"source":"naturalearthdata.com","kind":"highway","kind_detail":"motorway","sort_rank":383,"landuse_kind":"urban_area","min_zoom":4.0,"id":22019},"arcs":[212]},{"type":"MultiLineString","properties":{"source":"naturalearthdata.com","kind":"highway","kind_detail":"motorway","sort_rank":383,"landuse_kind":"urban_area","min_zoom":4.0,"id":22019},"arcs":[[213],[214]]},{"type":"MultiLineString","properties":{"source":"naturalearthdata.com","kind":"highway","sort_rank":383,"kind_detail":"motorway","min_zoom":4.0,"id":22019},"arcs":[[215],[216],[217]]},{"type":"LineString","properties":{"source":"naturalearthdata.com","kind":"highway","kind_detail":"motorway","sort_rank":383,"landuse_kind":"urban_area","min_zoom":5.0,"id":22020},"arcs":[218]},{"type":"LineString","properties":{"source":"naturalearthdata.com","kind":"highway","kind_detail":"motorway","sort_rank":383,"landuse_kind":"urban_area","min_zoom":5.0,"id":22064},"arcs":[219]},{"type":"LineString","properties":{"source":"naturalearthdata.com","kind":"highway","kind_detail":"motorway","sort_rank":383,"landuse_kind":"urban_area","min_zoom":4.0,"id":22078},"arcs":[220]},{"type":"LineString","properties":{"source":"naturalearthdata.com","kind":"minor_road","kind_detail":"tertiary","sort_rank":355,"landuse_kind":"urban_area","min_zoom":5.0,"id":22081},"arcs":[221]},{"type":"LineString","properties":{"source":"naturalearthdata.com","kind":"highway","kind_detail":"motorway","sort_rank":383,"landuse_kind":"urban_area","min_zoom":3.0,"id":22113},"arcs":[222]},{"type":"LineString","properties":{"source":"naturalearthdata.com","kind":"major_road","kind_detail":"secondary","sort_rank":379,"landuse_kind":"urban_area","min_zoom":3.0,"id":22125},"arcs":[223]},{"type":"LineString","properties":{"source":"naturalearthdata.com","kind":"highway","kind_detail":"motorway","sort_rank":383,"landuse_kind":"urban_area","min_zoom":4.0,"id":22137},"arcs":[224]},{"type":"LineString","properties":{"source":"naturalearthdata.com","kind":"highway","kind_detail":"motorway","sort_rank":383,"landuse_kind":"urban_area","min_zoom":4.0,"id":22137},"arcs":[225]},{"type":"LineString","properties":{"source":"naturalearthdata.com","kind":"highway","sort_rank":383,"kind_detail":"motorway","min_zoom":4.0,"id":22137},"arcs":[226]},{"type":"LineString","properties":{"source":"naturalearthdata.com","kind":"highway","kind_detail":"motorway","sort_rank":383,"landuse_kind":"urban_area","min_zoom":4.0,"id":22141},"arcs":[227]},{"type":"LineString","properties":{"source":"naturalearthdata.com","kind":"highway","kind_detail":"motorway","sort_rank":383,"landuse_kind":"urban_area","min_zoom":4.0,"id":22141},"arcs":[228]},{"type":"LineString","properties":{"source":"naturalearthdata.com","kind":"highway","sort_rank":383,"kind_detail":"motorway","min_zoom":4.0,"id":22141},"arcs":[229]},{"type":"LineString","properties":{"source":"naturalearthdata.com","kind":"highway","kind_detail":"motorway","sort_rank":383,"landuse_kind":"urban_area","min_zoom":4.0,"id":22143},"arcs":[230]},{"type":"LineString","properties":{"source":"naturalearthdata.com","kind":"highway","kind_detail":"motorway","sort_rank":383,"landuse_kind":"urban_area","min_zoom":4.0,"id":22147},"arcs":[231]},{"type":"LineString","properties":{"source":"naturalearthdata.com","kind":"highway","kind_detail":"motorway","sort_rank":383,"landuse_kind":"urban_area","min_zoom":5.0,"id":22232},"arcs":[232]},{"type":"LineString","properties":{"source":"naturalearthdata.com","kind":"highway","sort_rank":383,"kind_detail":"motorway","min_zoom":5.0,"id":22232},"arcs":[233]},{"type":"LineString","properties":{"source":"naturalearthdata.com","kind":"highway","sort_rank":383,"kind_detail":"motorway","min_zoom":5.0,"id":22308},"arcs":[234]},{"type":"MultiLineString","properties":{"source":"naturalearthdata.com","kind":"minor_road","kind_detail":"tertiary","sort_rank":355,"landuse_kind":"urban_area","min_zoom":5.0,"id":22385},"arcs":[[235],[236]]},{"type":"LineString","properties":{"source":"naturalearthdata.com","kind":"minor_road","kind_detail":"tertiary","sort_rank":355,"landuse_kind":"urban_area","min_zoom":5.0,"id":22385},"arcs":[237]},{"type":"MultiLineString","properties":{"source":"naturalearthdata.com","kind":"minor_road","sort_rank":355,"kind_detail":"tertiary","min_zoom":5.0,"id":22385},"arcs":[[238],[239],[240]]},{"type":"LineString","properties":{"source":"naturalearthdata.com","kind":"highway","kind_detail":"motorway","sort_rank":383,"landuse_kind":"urban_area","min_zoom":3.0,"id":22399},"arcs":[241]},{"type":"LineString","properties":{"source":"naturalearthdata.com","kind":"highway","kind_detail":"motorway","sort_rank":383,"landuse_kind":"urban_area","min_zoom":5.0,"id":22464},"arcs":[242]},{"type":"LineString","properties":{"source":"naturalearthdata.com","kind":"highway","sort_rank":383,"kind_detail":"motorway","min_zoom":5.0,"id":22464},"arcs":[243]},{"type":"LineString","properties":{"source":"naturalearthdata.com","kind":"minor_road","kind_detail":"tertiary","sort_rank":355,"landuse_kind":"urban_area","min_zoom":5.0,"id":22465},"arcs":[244]},{"type":"LineString","properties":{"source":"naturalearthdata.com","kind":"minor_road","sort_rank":355,"kind_detail":"tertiary","min_zoom":5.0,"id":22465},"arcs":[245]},{"type":"LineString","properties":{"source":"naturalearthdata.com","kind":"highway","kind_detail":"motorway","sort_rank":383,"landuse_kind":"urban_area","min_zoom":5.0,"id":22504},"arcs":[246]},{"type":"LineString","properties":{"source":"naturalearthdata.com","kind":"highway","kind_detail":"motorway","sort_rank":383,"landuse_kind":"urban_area","min_zoom":5.0,"id":22504},"arcs":[247]},{"type":"LineString","properties":{"source":"naturalearthdata.com","kind":"highway","sort_rank":383,"kind_detail":"motorway","min_zoom":5.0,"id":22504},"arcs":[248]},{"type":"LineString","properties":{"source":"naturalearthdata.com","kind":"minor_road","kind_detail":"tertiary","sort_rank":355,"landuse_kind":"urban_area","min_zoom":5.0,"id":22514},"arcs":[249]},{"type":"MultiLineString","properties":{"source":"naturalearthdata.com","kind":"highway","kind_detail":"motorway","sort_rank":383,"landuse_kind":"urban_area","min_zoom":3.0,"id":22574},"arcs":[[250],[251],[252]]},{"type":"MultiLineString","properties":{"source":"naturalearthdata.com","kind":"highway","sort_rank":383,"kind_detail":"motorway","min_zoom":3.0,"id":22574},"arcs":[[253],[254]]},{"type":"LineString","properties":{"source":"naturalearthdata.com","kind":"minor_road","kind_detail":"tertiary","sort_rank":355,"landuse_kind":"urban_area","min_zoom":5.0,"id":22585},"arcs":[255]},{"type":"LineString","properties":{"source":"naturalearthdata.com","kind":"minor_road","kind_detail":"tertiary","sort_rank":355,"landuse_kind":"urban_area","min_zoom":5.0,"id":22595},"arcs":[256]},{"type":"LineString","properties":{"source":"naturalearthdata.com","kind":"minor_road","kind_detail":"tertiary","sort_rank":355,"landuse_kind":"urban_area","min_zoom":5.0,"id":22615},"arcs":[257]},{"type":"LineString","properties":{"source":"naturalearthdata.com","kind":"minor_road","sort_rank":355,"kind_detail":"tertiary","min_zoom":5.0,"id":22615},"arcs":[258]},{"type":"MultiLineString","properties":{"source":"naturalearthdata.com","kind":"highway","kind_detail":"motorway","sort_rank":383,"landuse_kind":"urban_area","min_zoom":5.0,"id":22659},"arcs":[[259],[260],[261]]},{"type":"MultiLineString","properties":{"source":"naturalearthdata.com","kind":"highway","sort_rank":383,"kind_detail":"motorway","min_zoom":5.0,"id":22659},"arcs":[[262],[263]]},{"type":"LineString","properties":{"source":"naturalearthdata.com","kind":"highway","kind_detail":"motorway","sort_rank":383,"landuse_kind":"urban_area","min_zoom":5.0,"id":22694},"arcs":[264]},{"type":"LineString","properties":{"source":"naturalearthdata.com","kind":"highway","sort_rank":383,"kind_detail":"motorway","min_zoom":5.0,"id":22694},"arcs":[265]},{"type":"LineString","properties":{"source":"naturalearthdata.com","kind":"minor_road","kind_detail":"tertiary","sort_rank":355,"landuse_kind":"urban_area","min_zoom":5.0,"id":22742},"arcs":[266]},{"type":"LineString","properties":{"source":"naturalearthdata.com","kind":"minor_road","sort_rank":355,"kind_detail":"tertiary","min_zoom":5.0,"id":22742},"arcs":[267]},{"type":"LineString","properties":{"source":"naturalearthdata.com","kind":"minor_road","kind_detail":"tertiary","sort_rank":355,"landuse_kind":"urban_area","min_zoom":5.0,"id":22760},"arcs":[268]},{"type":"LineString","properties":{"source":"naturalearthdata.com","kind":"minor_road","kind_detail":"tertiary","sort_rank":355,"landuse_kind":"urban_area","min_zoom":5.0,"id":22760},"arcs":[269]},{"type":"LineString","properties":{"source":"naturalearthdata.com","kind":"minor_road","sort_rank":355,"kind_detail":"tertiary","min_zoom":5.0,"id":22760},"arcs":[270]},{"type":"LineString","properties":{"source":"naturalearthdata.com","kind":"minor_road","kind_detail":"tertiary","sort_rank":355,"landuse_kind":"urban_area","min_zoom":5.0,"id":22817},"arcs":[271]},{"type":"LineString","properties":{"source":"naturalearthdata.com","kind":"minor_road","kind_detail":"tertiary","sort_rank":355,"landuse_kind":"urban_area","min_zoom":5.0,"id":22828},"arcs":[272]},{"type":"LineString","properties":{"source":"naturalearthdata.com","kind":"highway","kind_detail":"motorway","sort_rank":383,"landuse_kind":"urban_area","min_zoom":3.0,"id":22829},"arcs":[273]},{"type":"MultiLineString","properties":{"source":"naturalearthdata.com","kind":"highway","kind_detail":"motorway","sort_rank":383,"landuse_kind":"urban_area","min_zoom":3.0,"id":22829},"arcs":[[274],[275]]},{"type":"MultiLineString","properties":{"source":"naturalearthdata.com","kind":"highway","sort_rank":383,"kind_detail":"motorway","min_zoom":3.0,"id":22829},"arcs":[[276],[277]]},{"type":"LineString","properties":{"source":"naturalearthdata.com","kind":"highway","kind_detail":"motorway","sort_rank":383,"landuse_kind":"urban_area","min_zoom":5.0,"id":22835},"arcs":[278]},{"type":"LineString","properties":{"source":"naturalearthdata.com","kind":"highway","sort_rank":383,"kind_detail":"motorway","min_zoom":5.0,"id":22835},"arcs":[279]},{"type":"LineString","properties":{"source":"naturalearthdata.com","kind":"highway","kind_detail":"motorway","sort_rank":383,"landuse_kind":"urban_area","min_zoom":5.0,"id":22840},"arcs":[280]},{"type":"LineString","properties":{"source":"naturalearthdata.com","kind":"highway","sort_rank":383,"kind_detail":"motorway","min_zoom":5.0,"id":22840},"arcs":[281]},{"type":"LineString","properties":{"source":"naturalearthdata.com","kind":"minor_road","sort_rank":355,"kind_detail":"tertiary","min_zoom":5.0,"id":22841},"arcs":[282]},{"type":"LineString","properties":{"source":"naturalearthdata.com","kind":"highway","sort_rank":383,"kind_detail":"motorway","min_zoom":5.0,"id":22848},"arcs":[283]},{"type":"LineString","properties":{"source":"naturalearthdata.com","kind":"minor_road","sort_rank":355,"kind_detail":"tertiary","min_zoom":5.0,"id":22857},"arcs":[284]},{"type":"LineString","properties":{"source":"naturalearthdata.com","kind":"highway","kind_detail":"motorway","sort_rank":383,"landuse_kind":"urban_area","min_zoom":5.0,"id":22886},"arcs":[285]},{"type":"LineString","properties":{"source":"naturalearthdata.com","kind":"highway","kind_detail":"motorway","sort_rank":383,"landuse_kind":"urban_area","min_zoom":3.0,"id":22908},"arcs":[286]}]},"earth":{"type":"GeometryCollection","geometries":[{"type":"MultiPolygon","properties":{"sort_rank":10,"source":"naturalearthdata.com","min_zoom":0.0,"kind":"earth","area":240473199691},"arcs":[[[287]],[[288]],[[289]]]}]},"landuse":{"type":"GeometryCollection","geometries":[{"type":"MultiPolygon","properties":{"source":"naturalearthdata.com","kind":"urban_area","name":"","area":17244874489,"sort_rank":11,"min_zoom":4.0},"arcs":[[[290]],[[291]],[[292]],[[293]],[[294]],[[295]],[[296]],[[297]],[[298]],[[299]],[[300]],[[301]],[[302]],[[303]],[[304]],[[305]],[[306]],[[307]],[[308]],[[309]],[[310]],[[311]],[[312]],[[313]],[[314]],[[315]],[[316]],[[317]],[[318]],[[319]],[[320]],[[321]],[[322]],[[323]],[[324]],[[325]],[[326]],[[327]],[[328]],[[329]],[[330]],[[331],[332],[333],[334]],[[335]],[[336]],[[337]],[[338]],[[339]],[[340]],[[341]],[[342]],[[343]],[[344]],[[345]],[[346]],[[347]],[[348]],[[349]],[[350]],[[351]]]},{"type":"Polygon","properties":{"source":"openstreetmap.org","kind":"park","area":108970000,"tier":2,"id":536791969,"min_zoom":7.0,"sort_rank":24},"arcs":[[352]]},{"type":"MultiPolygon","properties":{"source":"openstreetmap.org","kind":"park","tier":2,"area":2521796320,"sort_rank":24,"min_zoom":6.0},"arcs":[[[353]],[[354]],[[355]],[[356]],[[357]],[[358]]]}]}},"type":"Topology","transform":{"translate":[126.5625,36.5978891331],"scale":[0.0006866455,0.0005431401]},"arcs":[[[2052,3134],[100,8],[100,35],[93,60],[77,81],[34,47],[28,51],[19,57],[6,66],[-12,63],[-3,32],[9,23],[40,32],[82,42]],[[1735,3181],[12,-9],[18,-26],[18,-18],[20,-5]],[[1324,3126],[44,4],[86,26],[281,25]],[[1186,3168],[138,-42]],[[1007,3152],[179,16]],[[960,3157],[47,-5]],[[153,2264],[-10,159],[7,44],[18,12],[27,3],[37,15],[58,46],[125,189],[25,26],[56,44],[24,27],[30,73],[20,49],[18,23],[8,11],[80,65],[93,58],[98,39],[93,10]],[[1900,3143],[152,-9]],[[1803,3123],[97,20]],[[2668,3646],[-13,-5],[-78,-40],[-1,0],[11,-56],[-1,-18],[-8,-79],[-4,-13],[-22,-66],[-5,-8],[-31,-56],[-3,-4],[-38,-54],[-88,-92],[-107,-69],[-115,-41],[-112,-9],[-149,9],[-102,-21],[-14,3],[-38,10],[-15,15],[-23,23],[-4,6],[-242,-21],[-86,-26],[-6,-1],[-56,-5],[-138,42],[-174,-15],[-6,0],[-39,5],[-79,-9],[-85,-34],[-83,-52],[-46,-38],[-23,-19],[-12,-15],[-50,-124],[-11,-12],[-29,-34],[-6,-4],[-53,-41],[-15,-15],[-127,-194],[-77,-62],[-11,-4],[-32,-12],[8,-120],[-22,-59],[-28,-32]],[[85,2191],[-20,239],[17,100],[30,21],[32,24],[17,1],[19,3],[20,7],[38,31],[122,185],[6,7],[30,29],[4,3],[50,39],[8,10],[28,68],[20,51],[9,11],[32,41],[90,74],[103,64],[111,44],[109,12],[7,-1],[40,-4],[186,16],[138,-41],[25,2],[86,26],[309,27],[20,-13],[25,-17],[9,-13],[9,-13],[81,17],[156,-9],[87,6],[86,31],[78,50],[66,69],[27,37],[21,39],[12,35],[3,34],[-10,51],[-1,6],[-6,60],[10,27],[19,48],[19,15],[45,36],[89,45],[22,4]],[[1016,517],[-69,10],[-56,48],[-63,29]],[[828,604],[-121,-53]],[[707,551],[-57,0],[-68,15],[-1,0]],[[806,1754],[13,52],[-1,45],[-15,41],[-9,59],[-25,43],[-53,4]],[[716,1998],[-45,-11],[-29,-31],[-21,-43],[-33,-43],[-66,-7],[-8,-29],[-2,-31],[-31,-19],[-35,-12]],[[446,1772],[-47,28],[-40,3]],[[359,1803],[-22,-47],[34,-42],[29,-42],[8,-52],[29,-20],[42,-12],[43,-57],[62,-2]],[[726,1529],[42,22],[42,10],[38,22],[14,24],[25,34],[-12,14],[-1,33],[23,15],[20,10],[4,28],[-11,26]],[[910,1767],[-30,0],[-34,-12],[-40,-1]],[[709,1568],[17,-39]],[[584,1529],[27,4],[25,15],[37,11],[36,9]],[[996,89],[-207,83]],[[789,172],[-34,-95],[1,-77]],[[229,1435],[46,13],[11,8],[19,14],[21,41],[14,45],[-14,23],[-24,15],[-15,36],[0,44],[-86,83]],[[201,1757],[-75,-3],[-66,-2]],[[1355,741],[36,26],[70,130],[7,16],[8,14],[11,10],[12,8],[12,18],[10,19]],[[1318,758],[28,-6],[9,-11]],[[1016,517],[65,20],[62,30],[48,16],[14,55],[23,26],[38,16],[17,23],[12,31],[23,24]],[[1093,213],[14,4],[7,14],[2,16],[5,20],[7,20],[3,20],[-3,21],[-9,19],[-12,11],[1,38],[-19,13],[-25,51],[-20,12],[-17,18],[-11,27]],[[1079,215],[14,-2]],[[996,89],[41,59],[30,54],[12,13]],[[970,0],[-2,26],[28,63]],[[757,2802],[-16,24],[-10,30],[-13,16],[-16,13],[-12,28],[-22,14],[-51,33],[-29,14]],[[1171,2687],[-56,14],[-23,14],[-23,20],[0,35],[11,33],[8,12],[6,12],[-10,8],[-12,3]],[[1072,2838],[-12,-2],[-10,-8],[-19,-25],[-22,-22],[-33,-5]],[[976,2776],[-29,19],[-5,18],[-3,19],[-10,6]],[[929,2838],[-11,-12],[-4,-18],[0,-61],[-19,-30]],[[895,2717],[-54,26],[-49,44],[-17,18]],[[775,2805],[-18,-3]],[[1256,2691],[-24,18]],[[1232,2709],[-61,-22]],[[1372,2487],[-38,28],[-18,48],[-7,87],[-14,44],[-10,8]],[[1285,2702],[-11,-2],[-8,-7],[-10,-2]],[[1409,1976],[-17,22],[42,50],[-7,33],[-12,33],[9,26],[-1,30],[-3,28],[74,54],[30,10],[17,26],[8,75],[-35,52],[-28,6],[-27,13],[-20,54],[-33,2]],[[1406,2490],[-34,-3]],[[1456,1826],[-33,27],[3,30],[15,32],[6,36],[1,37]],[[1448,1988],[-39,-12]],[[1521,982],[79,148],[65,160],[90,193],[11,41],[-9,41],[19,34],[27,33],[29,12],[16,33],[-17,28],[-22,18],[-34,4],[-36,14],[-49,6],[-82,46],[-37,15],[-36,24],[-40,6]],[[1495,1838],[-39,-12]],[[2075,1142],[56,-59],[0,-39],[18,-26]],[[1931,951],[11,10],[10,12],[30,20],[-8,90],[27,34],[74,25]],[[2372,1114],[81,-29],[83,-14],[26,-8],[-17,-38],[-42,-31],[-25,-39],[16,-18],[21,-11],[13,-1]],[[2309,1072],[29,15],[34,27]],[[2275,1080],[34,-8]],[[2149,1018],[48,12],[48,27],[30,23]],[[1830,1046],[-13,-89]],[[1521,982],[154,43],[155,21]],[[1862,968],[44,-3],[13,-8],[12,-6]],[[1817,957],[45,11]],[[2655,955],[14,-17],[-2,-26],[29,-30],[10,-24]],[[2528,925],[13,7],[45,15],[69,8]],[[2834,877],[34,-27],[39,-25],[38,-7],[37,-5],[29,-13],[30,-19]],[[2706,858],[27,2],[31,5],[35,12],[35,0]],[[3041,781],[-18,-20],[-20,-12]],[[3003,749],[-17,7]],[[2986,756],[-14,-9],[-34,-36],[-37,-31],[-24,-24],[-30,-10],[-18,-15],[-13,-23],[-45,-33],[-32,-46],[-15,-35],[-19,-34],[10,-18],[20,-18],[-22,-72],[-122,-52]],[[2591,300],[-52,17],[-22,45],[-34,30],[-24,17],[-19,22]],[[2440,431],[-19,-19],[-15,-24],[-7,-29],[-11,-31]],[[2388,328],[-42,4],[-45,16],[-23,15]],[[2278,363],[-25,-16],[-24,-33],[-29,-2]],[[2200,312],[-23,15]],[[2177,327],[-18,-30],[-18,-40],[-10,-38],[28,-36],[21,-42]],[[2180,141],[-103,17],[-56,24]],[[2021,182],[-31,-47],[-51,-25],[-45,-31],[-4,-22],[1,-17],[-8,-19],[-16,-21]],[[3264,911],[40,-3],[20,-36],[29,-7],[25,-12],[-4,-32],[4,-33]],[[3195,733],[8,39],[5,43],[-10,45],[27,33],[39,18]],[[3463,838],[17,-7],[13,-17],[16,-2]],[[3378,788],[43,18],[42,32]],[[3528,820],[57,-10],[54,-25]],[[3509,812],[19,8]],[[3716,816],[50,-11],[46,-28],[14,-43],[-35,-26]],[[3639,785],[38,10],[39,21]],[[3041,781],[37,-20],[36,-15],[43,-9],[38,-4]],[[3791,708],[-42,17]],[[3749,725],[-27,-10],[-25,-19],[-11,-46],[7,-59],[30,-46],[48,-23],[10,-39],[14,-34],[33,-15],[32,-18],[107,-8],[-6,-42],[12,-12],[12,-13],[-16,-47],[-19,-49],[3,-51],[13,-46],[5,-41],[-16,-44],[100,-37]],[[4055,26],[41,18]],[[486,2958],[13,-6],[24,-4],[6,-7],[4,-7],[4,-9],[13,-22],[0,-1]],[[453,2998],[24,-34],[9,-6]],[[415,3184],[-11,3],[-17,17],[-14,8],[-12,5],[-11,4],[-9,4],[-11,10],[-5,11],[-1,13],[-5,12],[-98,169],[-11,23],[-8,36],[-1,28],[0,9],[4,19],[5,19],[4,9],[3,12],[2,13],[-2,22],[-4,14],[-6,12],[-31,46],[-8,17],[0,2],[3,16],[5,9],[7,8],[9,6],[9,5],[87,27],[18,10],[18,15],[9,9],[13,18],[27,57],[49,74],[21,38],[5,15],[3,19],[5,37],[0,12]],[[453,2998],[-4,25],[7,21],[9,20],[1,12],[-2,10],[-12,16],[-3,7],[-5,13],[2,10],[6,13],[8,13],[10,27],[-1,13],[-6,8]],[[463,3206],[-9,0],[-8,-3],[-7,-4],[-16,-13],[-8,-2]],[[328,2318],[0,1]],[[328,2318],[0,-7],[0,-2],[0,3],[0,6]],[[599,1702],[1,0]],[[469,1670],[-28,-20],[-5,0],[-13,3],[-2,0],[-38,-5],[-4,-1],[-1,-1],[-11,-10],[-16,-7],[-61,8],[-32,3],[-24,2],[-6,0],[-1,0],[-2,0],[-1,-1],[-4,-3],[-8,-7],[-3,-2],[-3,-4],[-1,-2],[0,-1],[-1,-21],[-5,-4],[-18,-1],[-37,4],[-21,0],[-14,9],[-11,12],[-6,4],[-1,1],[-2,0],[-1,0],[-1,0],[-4,-1],[-1,-1],[-2,-2],[0,-1],[-1,-5]],[[469,1670],[-18,-14]],[[451,1656],[-2,-1]],[[449,1655],[-8,-5],[-2,-1],[-55,-1],[-16,-12],[-14,-6],[-3,-1],[-1,-1],[-123,14],[-21,-17],[-2,-24],[-2,-3],[-2,-1],[-2,-1],[-17,-1],[-37,5],[-18,0],[-4,0],[-3,2],[-9,5],[-1,1],[-19,18],[-11,-9]],[[470,1671],[-19,-15]],[[451,1656],[-10,-6],[-2,0],[-3,0],[-13,3],[-2,0],[-38,-5],[-4,-2],[-1,0],[-11,-10],[-14,-7],[-2,0],[-1,0],[-62,8],[-32,3],[-27,2],[-1,0],[-1,0],[-2,0],[-1,-1],[-8,-6],[-4,-4],[-2,-1],[-3,-3],[-1,-2],[-1,-2],[0,-1],[-1,-21],[-2,-3],[-2,-1],[-2,-1],[-17,0],[-37,4],[-21,0],[-14,8],[-11,12],[-1,1],[-2,2]],[[469,1670],[-8,-9],[-12,-6]],[[449,1655],[-8,-5],[-2,0],[-3,0],[-13,3],[-2,0],[-38,-5],[-5,-2],[-1,-1],[-8,-8],[-2,-1],[-14,-7],[-2,0],[-1,0],[-62,8],[-59,5],[-1,0],[-1,0],[-2,0],[-1,-1],[-12,-10],[-3,-3],[-3,-3],[-1,-2],[0,-1],[-1,-21],[-2,-3],[-2,-1],[-2,-1],[-17,-1],[-37,5],[-21,0],[-14,8],[-1,1],[-10,11],[-1,1],[-1,1]],[[758,1838],[-32,53]],[[770,1845]],[[770,1845],[-12,-7]],[[758,1838],[29,16]],[[902,1934],[-25,13],[-12,-6],[-29,-11],[-26,-14],[-19,-36],[-3,-11],[0,-12],[-1,-2],[0,-2],[-1,-1],[-1,-1],[-1,-1],[-2,-1],[-5,-2],[-7,-2]],[[795,1887],[13,27],[2,2],[1,1],[26,13],[38,16],[2,1],[2,0],[23,-13]],[[902,1934],[23,-23],[112,48],[68,-17],[77,39],[29,83],[221,203],[79,0],[38,-43],[110,7],[42,52],[-13,98]],[[432,1861],[158,-132],[-8,-26],[31,-6],[80,62],[22,63],[53,20]],[[768,1842],[5,3],[2,1]],[[775,1846],[130,25],[82,-114]],[[987,1757],[10,-12]],[[997,1745],[81,22],[118,-79],[133,-16],[95,-67],[93,31]],[[768,1842],[2,1],[5,3]],[[770,1843],[3,2],[-3,-2]],[[1517,1636],[-93,-31],[-95,67],[-132,16],[-120,79],[-73,-26],[-103,131],[-175,-43],[-96,-131],[-48,5],[8,26]],[[590,1729]],[[590,1729],[-158,131]],[[770,1843],[3,1],[-3,-1]],[[467,1504],[3,7]],[[471,1510],[-3,-7]],[[471,1510],[16,56]],[[487,1566],[2,-4],[0,-3],[0,-3],[0,-4],[-18,-42]],[[326,38],[-26,71]],[[274,1790],[-147,-6],[-26,-16],[-98,-35],[-3,-3]],[[274,1790],[-8,2],[-4,1],[-3,0],[-13,0],[-105,-6],[-4,0],[-2,-1],[-3,0],[-5,-2],[-4,-2],[-5,-2],[-17,-12],[-22,-6],[-4,-1],[-9,-3],[-5,-1],[-3,-1],[-49,-20],[-4,-2],[-1,-1],[-3,-1],[-1,-1]],[[372,1773],[-98,17]],[[503,1793],[-73,43],[-38,-50],[-20,-13]],[[372,1773],[20,14],[2,2],[4,13],[1,1],[2,3],[7,10],[9,13],[2,2],[2,2]],[[427,1835],[1,1],[2,0],[2,0],[3,0],[1,0],[1,0],[2,-1],[1,0],[6,-3],[14,-6],[6,-3],[1,-1],[3,-2],[5,-6],[6,-4],[14,-11],[8,-6]],[[740,647],[3,-30]],[[256,1407],[-5,70],[-93,43]],[[3706,1750],[29,-80],[-18,-39]],[[0,2151],[0,34],[20,-13],[25,-6],[40,25],[31,19],[14,2],[6,28],[16,24],[1,0],[22,16],[14,2],[11,-14],[-15,-30],[-7,-37],[2,-21],[1,-15],[14,-29],[6,-28],[-7,-39],[-25,-65],[84,-61],[28,-28],[-36,2],[-56,24],[-45,37],[1,44],[8,23],[2,35],[-3,34],[-7,22],[-20,13],[-19,-4],[-21,-10],[-26,-5],[-59,21]],[[0,1688],[0,168],[14,-14],[15,-26],[13,-21],[11,-27],[7,-16],[-7,-45],[3,-34],[8,-18],[30,3],[5,16],[20,-5],[-3,-15],[-13,-7],[-41,-12],[-15,-25],[5,-27],[-3,-33],[24,-13],[26,-14],[12,-21],[-19,-29],[-15,-33],[36,-29],[36,46],[76,-10],[4,-12],[-19,-20],[-28,-41],[3,-21],[64,-49],[45,-15],[28,-5],[17,-1],[18,6],[22,-4],[9,-14],[20,0],[14,-4],[11,-7],[9,-11],[7,-15],[-32,-5],[-23,14],[-20,3],[-25,-37],[-7,-40],[-7,-17],[-15,-6],[-14,7],[-7,15],[-2,20],[2,21],[-23,-12],[-19,7],[-19,12],[-23,6],[-29,-7],[-16,-1],[-10,8],[-10,-9],[-4,-3],[-6,-1],[11,-23],[10,-25],[10,-20],[13,-8],[39,6],[5,-7],[-18,-24],[-14,-8],[-21,-7],[-17,-11],[-8,-19],[4,-25],[14,-4],[42,10],[-21,-31],[-9,-16],[-1,-17],[10,-10],[15,0],[17,6],[14,11],[52,57],[28,20],[34,18],[0,-23],[8,-14],[14,-9],[18,-4],[31,27],[20,11],[9,-7],[-2,-34],[-9,-12],[-39,-11],[-37,0],[-25,-10],[-23,-11],[-20,-28],[-17,-31],[3,-32],[-5,-25],[6,-18],[0,-21],[67,-20],[28,7],[28,6],[13,-14],[14,7],[7,33],[3,29],[7,29],[13,17],[17,-7],[-11,-49],[14,-35],[20,-32],[7,-35],[-13,10],[-14,5],[-16,1],[-16,-2],[14,-11],[6,-3],[0,-11],[-88,-10],[20,-49],[52,-51],[57,-34],[48,-7],[34,11],[11,13],[-5,57],[13,19],[87,25],[-3,-22],[-10,-6],[-13,-2],[-20,-12],[-8,1],[-8,-1],[-7,-8],[2,-3],[14,-15],[3,-8],[-10,-45],[-16,-18],[-22,-10],[-47,-36],[-63,-26],[-27,-4],[-29,-14],[14,-31],[51,-56],[-31,4],[-30,9],[12,-46],[-7,-27],[-15,-24],[-8,-42],[-12,6],[-9,7],[-5,11],[-5,15],[24,8],[4,16],[-12,57],[-13,22],[-3,16],[2,14],[7,25],[1,11],[-3,53],[-6,27],[-11,15],[-15,-3],[-27,-35],[-17,-12],[23,80],[-3,39],[-30,32],[-26,17],[-35,9],[-28,11],[-25,3],[-23,0],[-24,-12],[-13,-25],[-9,-16],[-6,-15],[5,-45],[-4,-16],[-6,-13],[-16,-11],[5,30],[-2,17],[-14,28],[-3,13],[14,17],[7,25],[-14,25],[-22,12],[-22,15],[-11,12],[-28,19],[-10,8],[0,310],[74,60],[8,17],[-4,16],[-3,8],[-8,8],[-28,12],[-17,10],[-6,14],[5,16],[-5,1],[-16,-14],[0,366],[5,1],[5,7],[12,9],[8,3],[-4,10],[-6,12],[-7,8],[-6,9],[-6,6],[-1,0]],[[99,1140],[24,-10],[-6,33],[-14,6],[-10,-13],[6,-16]],[[0,691],[0,34],[5,-2],[10,-11],[-1,-13],[-14,-8]],[[0,563],[0,63],[6,-10],[13,-38],[10,-14],[0,-11],[-20,0],[-9,10]],[[4096,4096],[0,-3100],[-22,61],[-20,139],[-22,64],[-70,78],[-10,28],[-6,30],[-13,27],[-40,51],[-66,131],[-20,19],[-22,14],[-19,32],[-43,139],[-15,31],[-51,29],[-9,38],[-1,46],[-4,37],[-75,89],[-16,13],[-113,126],[-94,137],[-243,346],[-20,54],[-52,65],[-17,28],[-100,266],[-129,252],[-34,88],[-14,59],[-68,133],[-43,85],[-1,1],[-6,33],[2,33],[-2,27],[-1,6],[-17,33],[-14,13],[-25,14],[-11,11],[-45,70],[-18,-7],[-66,-35],[-21,-9],[-142,175],[1838,0]],[[0,2185],[20,-13],[25,-6],[40,25],[31,19],[14,2],[6,28],[16,24],[1,0],[22,16],[14,2],[11,-14],[-15,-30],[-7,-37],[2,-21],[1,-15],[14,-29],[6,-28],[-7,-39],[-25,-65],[84,-61],[28,-28],[-36,2],[-56,24],[-45,37],[1,44],[8,23],[2,35],[-3,34],[-7,22],[-20,13],[-19,-4],[-21,-10],[-26,-5],[-59,21]],[[0,1856],[14,-14],[15,-26],[13,-21],[11,-27],[7,-16],[-7,-45],[3,-34],[8,-18],[30,3],[5,16],[20,-5],[-3,-15],[-13,-7],[-41,-12],[-15,-25],[5,-27],[-3,-33],[24,-13],[26,-14],[12,-21],[-19,-29],[-15,-33],[36,-29],[36,46],[76,-10],[4,-12],[-19,-20],[-28,-41],[3,-21],[64,-49],[45,-15],[28,-5],[17,-1],[18,6],[22,-4],[9,-14],[20,0],[14,-4],[11,-7],[9,-11],[7,-15],[-32,-5],[-23,14],[-20,3],[-25,-37],[-7,-40],[-7,-17],[-15,-6],[-14,7],[-7,15],[-2,20],[2,21],[-23,-12],[-19,7],[-19,12],[-23,6],[-29,-7],[-16,-1],[-10,8],[-10,-9],[-4,-3],[-6,-1],[11,-23],[10,-25],[10,-20],[13,-8],[39,6],[5,-7],[-18,-24],[-14,-8],[-21,-7],[-17,-11],[-8,-19],[4,-25],[14,-4],[42,10],[-21,-31],[-9,-16],[-1,-17],[10,-10],[15,0],[17,6],[14,11],[52,57],[28,20],[34,18],[0,-23],[8,-14],[14,-9],[18,-4],[31,27],[20,11],[9,-7],[-2,-34],[-9,-12],[-39,-11],[-37,0],[-25,-10],[-23,-11],[-20,-28],[-17,-31],[3,-32],[-5,-25],[6,-18],[0,-21],[67,-20],[28,7],[28,6],[13,-14],[14,7],[7,33],[3,29],[7,29],[13,17],[17,-7],[-11,-49],[14,-35],[20,-32],[7,-35],[-13,10],[-14,5],[-16,1],[-16,-2],[14,-11],[6,-3],[0,-11],[-88,-10],[20,-49],[52,-51],[57,-34],[48,-7],[34,11],[11,13],[-5,57],[13,19],[87,25],[-3,-22],[-10,-6],[-13,-2],[-20,-12],[-8,1],[-8,-1],[-7,-8],[2,-3],[14,-15],[3,-8],[-10,-45],[-16,-18],[-22,-10],[-47,-36],[-63,-26],[-27,-4],[-29,-14],[14,-31],[51,-56],[-31,4],[-30,9],[12,-46],[-7,-27],[-15,-24],[-8,-42],[-12,6],[-9,7],[-5,11],[-5,15],[24,8],[4,16],[-12,57],[-13,22],[-3,16],[2,14],[7,25],[1,11],[-3,53],[-6,27],[-11,15],[-15,-3],[-27,-35],[-17,-12],[23,80],[-3,39],[-30,32],[-26,17],[-35,9],[-28,11],[-25,3],[-23,0],[-24,-12],[-13,-25],[-9,-16],[-6,-15],[5,-45],[-4,-16],[-6,-13],[-16,-11],[5,30],[-2,17],[-14,28],[-3,13],[14,17],[7,25],[-14,25],[-22,12],[-22,15],[-11,12],[-28,19],[-10,8]],[[0,725],[5,-2],[10,-11],[-1,-13],[-14,-8]],[[0,626],[6,-10],[13,-38],[10,-14],[0,-11],[-20,0],[-9,10]],[[4096,996],[-22,61],[-20,139],[-22,64],[-70,78],[-10,28],[-6,30],[-13,27],[-40,51],[-66,131],[-20,19],[-22,14],[-19,32],[-43,139],[-15,31],[-51,29],[-9,38],[-1,46],[-4,37],[-75,89],[-16,13],[-113,126],[-94,137],[-243,346],[-20,54],[-52,65],[-17,28],[-100,266],[-129,252],[-34,88],[-14,59],[-68,133],[-43,85],[-1,1],[-6,33],[2,33],[-2,27],[-1,6],[-17,33],[-14,13],[-25,14],[-11,11],[-45,70],[-18,-7],[-66,-35],[-21,-9],[-142,175]],[[1,1688],[-1,0]],[[0,1623],[5,1],[5,7],[12,9],[8,3],[-4,10],[-6,12],[-7,8],[-6,9],[-6,6]],[[75,1210],[-8,8],[-28,12],[-17,10],[-6,14],[5,16],[-5,1],[-16,-14]],[[0,1109],[74,60],[8,17],[-4,16],[-3,8]],[[605,3927],[66,68],[12,23],[26,78]],[[0,3940],[46,-20],[54,-16]],[[100,3904],[36,8],[36,38],[63,146]],[[2156,4096],[64,-47],[18,-8],[73,-68],[54,-76],[36,-31]],[[557,3836],[6,23],[42,68]],[[467,3502],[0,61],[12,68],[24,99],[42,91],[12,15]],[[382,3259],[30,38],[36,76],[19,83],[0,46]],[[184,3160],[42,23],[114,38],[30,15],[12,23]],[[0,3016],[22,7],[42,0],[36,16],[12,22],[30,61],[42,38]],[[2443,2811],[-54,7],[-6,-7]],[[2807,2712],[-22,0],[-36,8],[-60,22],[-209,58]],[[3007,2720],[-24,-5]],[[2480,2800],[-37,11]],[[2983,2715],[-54,-10],[-54,-16],[-30,23],[-38,0]],[[2383,2811],[-18,-23],[-18,-76],[-60,-106],[-37,-46]],[[2250,2560],[-36,-38]],[[0,2504],[22,-5]],[[249,2359],[31,-4],[18,-15],[0,-106],[6,-38]],[[22,2499],[132,-22],[54,-23],[0,-53],[6,-38],[35,-4]],[[3264,2417],[8,-9],[36,-129],[18,-38],[36,-76],[30,-53]],[[3007,2720],[21,-33]],[[3028,2687],[3,-5],[66,-31],[36,-30],[24,-53],[12,-69],[37,-37],[36,-23],[22,-22]],[[2214,2522],[-24,-30],[-72,-122],[-18,-38],[-18,-68],[-54,-106],[-36,-53]],[[3392,2112],[-24,-15],[-42,-8],[-10,-8]],[[3316,2081],[-8,-7]],[[1972,2076],[-46,-63]],[[1992,2105],[-20,-29]],[[1926,2013],[-18,-7]],[[1908,2006],[-36,23],[-24,24]],[[1747,2260],[-25,88]],[[1848,2053],[-42,44],[-54,38],[-6,23],[6,61],[0,22],[-5,19]],[[1180,2045],[-11,-16],[-12,-23],[-6,-68]],[[1272,2169],[-39,-46]],[[1467,2275],[-15,4],[-42,0],[-61,-30],[-1,-2]],[[1722,2348],[-6,-8],[-42,-15],[-15,-24]],[[1233,2123],[-16,-18],[-37,-60]],[[1348,2247],[-53,-51],[-23,-27]],[[1659,2301],[-9,-14],[-18,-15],[-42,-8],[-78,0],[-45,11]],[[3308,2074],[-18,-15],[-42,0],[-18,-15],[-36,-38],[-43,-38],[-54,-15],[-108,-23],[-156,-23]],[[2833,1907],[-18,0]],[[1151,1938],[-6,-23],[-42,-15],[-126,-16],[-60,0],[-18,0],[-36,-38]],[[2815,1907],[-66,-23],[-36,-15],[-36,-38]],[[863,1846],[-24,-15],[-42,-15],[-84,-8],[-78,-45]],[[713,2120],[-12,-38],[-18,-129],[-42,-99],[-6,-91]],[[304,2196],[24,-69],[30,-30],[18,-38],[18,-38],[42,-15],[18,-61],[31,-38],[12,-38],[30,-45],[72,-61]],[[3596,1809],[-10,9]],[[3432,2058],[-4,1],[-24,15],[-12,38]],[[3586,1818],[-38,36],[-24,38],[-6,23],[6,53],[-12,53],[-30,23],[-50,14]],[[3668,1755],[-48,31],[-24,23]],[[599,1763],[12,-15]],[[635,1763],[-6,-30]],[[629,1733],[0,-8]],[[611,1748],[18,-23]],[[2034,1695],[-2,23]],[[1926,1957],[0,56]],[[2032,1718],[-4,30],[-18,38],[-12,15],[-60,15],[-12,38],[0,103]],[[611,1748],[-18,-23],[-60,-38],[-48,-8]],[[485,1679],[-43,-7],[-78,7],[-120,0],[-42,-7]],[[3681,1717],[11,-30],[24,-46]],[[3668,1755],[13,-38]],[[2022,1634],[12,61]],[[202,1672],[-18,-8],[-6,-30],[-18,-23],[-42,-15],[-18,15]],[[2148,1543],[-54,-15],[-12,-8],[-12,-23],[-24,-30],[-36,-15]],[[2531,1683],[-34,-26],[-60,-31],[-53,-20]],[[2617,1762],[-18,-22],[-26,-24]],[[2384,1606],[-7,-3],[-96,-22],[-133,-38]],[[2573,1716],[-16,-14],[-26,-19]],[[2677,1831],[-60,-69]],[[2010,1452],[36,98],[6,38],[-12,31],[-18,15]],[[1992,1368],[-6,46],[24,38]],[[2010,1452],[-78,-31],[-36,-30],[-30,-46]],[[2004,1338],[-12,30]],[[629,1725],[54,-68],[24,-46],[48,-121],[24,-99],[6,-122],[0,-15]],[[785,1254],[0,-23]],[[1609,1219],[-31,-3]],[[1866,1345],[-45,-77]],[[1821,1268],[-21,-37],[-36,-30],[-36,-8],[-78,31],[-41,-5]],[[1578,1216],[-18,-6]],[[1388,1199],[-39,10],[-48,-8]],[[1560,1210],[-48,-17],[-42,-7],[-60,7],[-22,6]],[[1127,1186],[-48,7],[-72,0],[-24,8],[-60,38],[-54,15],[-66,-7],[-18,7]],[[1301,1201],[-60,-23],[-114,8]],[[2040,1262],[-18,30],[-18,46]],[[2232,1011],[0,15],[-36,91],[-36,38],[-84,61],[-36,46]],[[2004,852],[54,53],[42,68],[36,31],[18,0],[78,7]],[[4045,986],[2,-9]],[[4068,900],[26,-36]],[[3716,1641],[24,-30],[6,-61],[18,-15],[9,-9]],[[3773,1526],[81,-90],[24,-38],[24,-83],[54,-61],[30,-38],[24,-38],[12,-61],[6,-60],[17,-71]],[[4047,977],[11,-49],[6,-23],[4,-5]],[[4094,864],[2,-3]],[[785,1231],[-18,-144],[-6,-99],[18,-76],[42,-113],[24,-76]],[[1992,631],[0,46],[-48,76],[-6,38],[18,38],[13,6]],[[1969,835],[35,17]],[[1992,631],[-84,8],[-32,8]],[[1876,647],[-64,15]],[[2070,540],[-22,22]],[[2001,617],[-9,14]],[[2048,562],[-26,24],[-21,31]],[[2088,518],[-18,22]],[[845,723],[11,-41]],[[869,632],[0,-1],[24,-91],[1,-4]],[[898,493],[1,-6],[-6,-68]],[[856,682],[13,-50]],[[894,536],[4,-43]],[[857,396],[36,23]],[[839,381],[18,15]],[[1535,439],[-53,-81]],[[1812,662],[-48,-31],[-30,-30],[-24,-15],[-54,15],[-42,-23],[-30,-30],[-42,-99],[-7,-10]],[[641,297],[38,-10]],[[715,277],[10,-2],[18,7],[8,5]],[[808,317],[19,11],[12,53]],[[679,287],[36,-10]],[[751,287],[57,30]],[[625,303],[16,-6]],[[430,229],[73,30],[78,46],[18,8],[26,-10]],[[382,161],[24,45],[21,20]],[[427,226],[3,3]],[[1407,194],[-33,-56]],[[1482,358],[-21,-30]],[[1461,328],[-21,-31],[-18,-38],[-12,-60],[-3,-5]],[[1374,138],[-31,-53],[-6,-38]],[[1337,47],[-42,-8],[-84,-15]],[[1155,165],[8,-12],[24,-91],[24,-38]],[[893,419],[-6,-53],[6,-38],[30,-15],[24,-38],[6,-2]],[[975,268],[26,7],[42,-16],[14,-8]],[[953,273],[18,-6],[4,1]],[[1057,251],[64,-37],[34,-49]],[[379,154],[3,7]],[[226,9],[48,68],[18,15],[54,23],[18,8],[15,31]],[[2103,439],[-15,25],[0,54]],[[2364,0],[-47,47],[-30,45],[-37,76],[-24,46],[-30,30],[-36,23],[-36,23],[-12,15],[12,38],[0,61],[-21,35]],[[2737,62],[-42,-8],[-42,-38],[-36,-15],[-9,-1]],[[209,0],[17,9]],[[2842,0],[-33,32],[-36,22],[-36,8]],[[1381,0],[-1,9],[-25,38],[-18,0]],[[1211,24],[7,-24]],[[0,1623],[0,65],[1,0],[6,-6],[6,-9],[7,-8],[6,-12],[4,-10],[-8,-3],[-12,-9],[-5,-7],[-5,-1]],[[0,1109],[0,148],[16,14],[5,-1],[-5,-16],[6,-14],[17,-10],[28,-12],[8,-8],[3,-8],[4,-16],[-8,-17],[-74,-60]],[[4096,996],[0,-996],[-963,0],[-3133,0],[0,563],[9,-10],[20,0],[0,11],[-10,14],[-13,38],[-6,10],[0,65],[14,8],[1,13],[-10,11],[-5,2],[0,74],[10,-8],[28,-19],[11,-12],[22,-15],[22,-12],[14,-25],[-7,-25],[-14,-17],[3,-13],[14,-28],[2,-17],[-5,-30],[16,11],[6,13],[4,16],[-5,45],[6,15],[9,16],[13,25],[24,12],[23,0],[25,-3],[28,-11],[35,-9],[26,-17],[30,-32],[3,-39],[-23,-80],[17,12],[27,35],[15,3],[11,-15],[6,-27],[3,-53],[-1,-11],[-7,-25],[-2,-14],[3,-16],[13,-22],[12,-57],[-4,-16],[-24,-8],[5,-15],[5,-11],[9,-7],[12,-6],[8,42],[15,24],[7,27],[-12,46],[30,-9],[31,-4],[-51,56],[-14,31],[29,14],[27,4],[63,26],[47,36],[22,10],[16,18],[10,45],[-3,8],[-14,15],[-2,3],[7,8],[8,1],[8,-1],[20,12],[13,2],[10,6],[3,22],[-87,-25],[-13,-19],[5,-57],[-11,-13],[-34,-11],[-48,7],[-57,34],[-52,51],[-20,49],[88,10],[0,11],[-6,3],[-14,11],[16,2],[16,-1],[14,-5],[13,-10],[-7,35],[-20,32],[-14,35],[11,49],[-17,7],[-13,-17],[-7,-29],[-3,-29],[-7,-33],[-14,-7],[-13,14],[-28,-6],[-28,-7],[-67,20],[0,21],[-6,18],[5,25],[-3,32],[17,31],[20,28],[23,11],[25,10],[37,0],[39,11],[9,12],[2,34],[-9,7],[-20,-11],[-31,-27],[-18,4],[-14,9],[-8,14],[0,23],[-34,-18],[-28,-20],[-52,-57],[-14,-11],[-17,-6],[-15,0],[-10,10],[1,17],[9,16],[21,31],[-42,-10],[-14,4],[-4,25],[8,19],[17,11],[21,7],[14,8],[18,24],[-5,7],[-39,-6],[-13,8],[-10,20],[-10,25],[-11,23],[6,1],[4,3],[10,9],[10,-8],[16,1],[29,7],[23,-6],[19,-12],[19,-7],[23,12],[-2,-21],[2,-20],[7,-15],[14,-7],[15,6],[7,17],[7,40],[25,37],[20,-3],[23,-14],[32,5],[-7,15],[-9,11],[-11,7],[-14,4],[-20,0],[-9,14],[-22,4],[-18,-6],[-17,1],[-28,5],[-45,15],[-64,49],[-3,21],[28,41],[19,20],[-4,12],[-76,10],[-36,-46],[-36,29],[15,33],[19,29],[-12,21],[-26,14],[-24,13],[3,33],[-5,27],[15,25],[41,12],[13,7],[3,15],[-20,5],[-5,-16],[-30,-3],[-8,18],[-3,34],[7,45],[-7,16],[-11,27],[-13,21],[-15,26],[-14,14],[0,295],[59,-21],[26,5],[21,10],[19,4],[20,-13],[7,-22],[3,-34],[-2,-35],[-8,-23],[-1,-44],[45,-37],[56,-24],[36,-2],[-28,28],[-84,61],[25,65],[7,39],[-6,28],[-14,29],[-1,15],[-2,21],[7,37],[15,30],[-11,14],[-14,-2],[-22,-16],[-1,0],[-16,-24],[-6,-28],[-14,-2],[-31,-19],[-40,-25],[-25,6],[-20,13],[0,1911],[2258,0],[142,-175],[21,9],[66,35],[18,7],[45,-70],[11,-11],[25,-14],[14,-13],[17,-33],[1,-6],[2,-27],[-2,-33],[6,-33],[1,-1],[43,-85],[68,-133],[14,-59],[34,-88],[87,-170],[42,-82],[100,-266],[17,-28],[52,-65],[20,-54],[31,-45],[212,-301],[94,-137],[113,-126],[16,-13],[75,-89],[4,-37],[1,-46],[9,-38],[51,-29],[15,-31],[43,-139],[19,-32],[22,-14],[20,-19],[66,-131],[40,-51],[13,-27],[6,-30],[10,-28],[70,-78],[22,-64],[20,-139],[22,-61]],[[169,51],[19,-51],[-125,0],[0,27],[-32,-20],[-17,20],[33,62],[32,-41],[81,41],[9,-38]],[[3071,0],[50,7],[0,21],[37,-28],[-87,0]],[[3000,21],[15,-21],[-89,0],[58,36],[16,-15]],[[2379,0],[46,109],[17,3],[19,-46],[-26,-66],[-56,0]],[[4096,840],[-37,26],[16,61],[-31,56],[30,76],[22,-219]],[[3671,1234],[0,-102],[-73,-19],[-8,39],[-20,-36],[36,-86],[49,-21],[-16,-122],[-22,-1],[-92,41],[-63,145],[47,40],[10,71],[152,51]],[[4096,734],[-24,13],[-13,37],[37,-1],[0,-49]],[[2683,1419],[-48,20],[34,40],[47,-20],[-33,-40]],[[3382,1185],[14,-73],[-25,-11],[-70,20],[-3,52],[-80,0],[104,54],[60,-42]],[[2792,1100],[70,52],[-6,-83],[-66,-48],[-74,13],[-32,98],[69,33],[28,-13],[11,-52]],[[1632,1337],[17,-1],[-17,-81],[-45,-68],[-19,6],[-55,131],[71,13],[16,61],[32,-61]],[[205,708],[20,-27],[4,-18],[-51,34],[12,34],[15,-23]],[[431,666],[-30,30],[-20,49],[63,7],[-13,-86]],[[1496,700],[-26,2],[5,36],[60,46],[16,-61],[-55,-23]],[[2125,809],[-7,-127],[-54,24],[-15,-61],[-77,-45],[-97,41],[27,102],[-11,62],[22,22],[56,9],[3,-52],[43,8],[70,95],[49,-41],[-9,-37]],[[1701,711],[12,-50],[-57,-4],[-39,-44],[-49,8],[24,57],[72,25],[0,20],[37,-12]],[[325,890],[72,-39],[24,-40],[-140,19],[44,60]],[[1165,750],[-50,14],[81,41],[-8,-37],[-23,-18]],[[2653,1142],[-34,-92],[-113,-20],[38,-152],[75,-32],[64,-127],[-48,-58],[-46,52],[-116,51],[-64,184],[-178,20],[32,103],[106,-42],[169,205],[97,0],[18,-92]],[[4092,293],[-2,-33],[6,-64],[-48,42],[-5,55],[49,0]],[[1535,437],[-4,-98],[-28,-46],[-49,41],[-97,-61],[-58,-18],[-39,18],[33,82],[80,0],[44,52],[86,9],[32,41],[0,-20]],[[1843,375],[-60,17],[-21,65],[55,1],[26,-83]],[[3803,143],[-68,-54],[-48,82],[81,41],[32,-21],[3,-48]],[[386,109],[-16,103],[162,41],[-1,-36],[-50,-21],[-36,-69],[-59,-18]],[[1488,133],[-15,-133],[-448,0],[-56,27],[65,103],[62,-29],[83,90],[114,-82],[22,54],[42,-33],[1,31],[-34,19],[1,32],[33,19],[130,-98]],[[2781,171],[0,-103],[-81,21],[38,74],[43,8]],[[144,150],[-30,65],[30,78],[29,-64],[-29,-79]],[[3239,601],[-37,-21],[0,-62],[-49,21],[-48,-62],[-33,0],[0,-102],[-81,-55],[-16,55],[-34,8],[2,33],[64,21],[-16,81],[113,41],[17,41],[75,38],[54,3],[-11,-40]],[[394,471],[-45,58],[42,43],[8,-77],[-5,-24]],[[511,509],[-43,-62],[-34,53],[74,25],[3,-16]],[[2157,468],[-99,-55],[-70,44],[49,102],[36,8],[93,-49],[-9,-50]],[[1280,457],[-52,82],[32,143],[-9,53],[-39,29],[174,97],[23,-44],[-52,-33],[17,-20],[-17,-82],[-64,-21],[-33,-61],[65,-122],[-45,-21]],[[827,3191],[77,-14],[-1,-53],[-27,-26],[-69,18],[20,75]],[[2684,3034],[-16,41],[-81,21],[29,38],[88,-26],[12,-53],[-32,-21]],[[2537,3544],[-44,26],[-3,37],[75,-28],[6,-34],[-34,-1]],[[1027,3134],[-26,2],[-1,30],[42,75],[40,-84],[-55,-23]],[[2228,3124],[-14,49],[49,25],[0,-62],[-35,-12]],[[2021,3198],[-37,-24],[-12,24],[-75,-18],[-22,18],[23,35],[123,-35]],[[0,1631],[0,48],[20,-14],[10,-22],[-30,-12]],[[3088,1398],[-67,34],[3,27],[64,41],[18,-48],[-18,-54]],[[2102,1684],[16,-20],[-16,-82],[48,-41],[-32,-61],[23,-84],[-7,-39],[-65,-21],[-32,-81],[-65,41],[-97,0],[-33,-41],[-69,43],[-11,-23],[-33,21],[10,44],[120,58],[82,133],[47,10],[-12,95],[61,89],[65,-41]],[[0,1854],[0,297],[59,-21],[66,19],[27,-35],[-8,-136],[137,-63],[-112,89],[32,104],[-16,130],[9,18],[47,-40],[32,21],[-32,163],[49,0],[16,103],[25,3],[39,-106],[91,-14],[39,35],[47,-23],[50,23],[0,40],[32,1],[65,122],[-1,30],[-48,31],[8,28],[138,14],[-65,122],[113,62],[17,-41],[-49,-82],[7,-151],[-39,-33],[65,-62],[-33,-143],[29,-8],[20,70],[32,0],[-6,203],[38,22],[-16,-82],[45,5],[4,117],[68,-24],[13,-98],[44,7],[39,50],[62,-37],[-31,31],[17,21],[-30,47],[-54,-6],[-112,50],[16,82],[49,21],[48,102],[81,20],[3,-20],[-35,-61],[16,-144],[81,-41],[0,-61],[-32,-20],[0,-82],[-33,-21],[0,-41],[-48,-40],[13,-35],[-46,-47],[-16,41],[-30,-4],[-51,-98],[24,-14],[45,33],[28,-20],[-81,-143],[2,-105],[31,-38],[16,14],[-32,14],[-1,33],[49,41],[146,-61],[64,82],[-43,8],[1,27],[30,22],[61,-16],[-107,-187],[6,-151],[-42,-5],[13,77],[-42,2],[-71,-64],[11,-21],[70,1],[33,-61],[161,20],[43,-58],[22,-85],[-77,-23],[-69,43],[-32,-20],[-65,102],[-64,-20],[64,-62],[-32,-82],[30,-68],[51,-13],[16,-82],[49,0],[25,-36],[39,-5],[0,-36],[-64,-25],[81,-41],[16,-62],[-49,-61],[-65,41],[-80,-41],[2,-29],[62,-12],[0,-61],[56,-54],[58,-8],[-81,-82],[-81,103],[-81,-21],[28,74],[-101,73],[-73,-44],[-32,-123],[-49,20],[-64,-61],[16,-41],[25,-1],[15,43],[24,-1],[-17,-32],[82,-9],[0,-61],[65,0],[49,-21],[-33,-102],[-32,-21],[-58,99],[9,45],[-58,-13],[-55,-110],[-81,0],[0,-33],[129,-28],[-32,-103],[16,-40],[22,-2],[59,83],[32,-20],[-64,-82],[29,-50],[133,-93],[-4,-30],[-55,-34],[-103,23],[-16,-41],[-49,-20],[-16,-82],[-29,36],[13,107],[-62,57],[-3,86],[-65,-82],[26,-50],[-27,-36],[-15,45],[-97,-20],[37,94],[44,-12],[-10,38],[-120,3],[38,75],[27,7],[5,-50],[76,-12],[16,62],[65,-41],[81,71],[-95,111],[-67,2],[-5,-31],[-68,18],[-8,71],[87,55],[-38,91],[16,82],[-16,41],[-81,41],[-141,-34],[-66,51],[48,11],[2,53],[-69,-34],[-22,46],[-24,-13],[-27,65],[-120,3],[-17,24],[-21,48],[20,13],[139,-13],[21,-63],[54,100],[75,-12],[-27,33],[-173,37],[-64,49],[40,94],[-76,10],[-36,-46],[-36,29],[34,62],[-62,48],[-2,60],[72,59],[-55,-14],[-8,18],[4,79],[-60,102]],[[531,2348],[-15,11],[-16,-102],[43,8],[51,51],[3,23],[-66,9]],[[1034,1705],[2,-69],[46,-13],[-11,58],[-37,24]],[[1052,1309],[46,-34],[-5,101],[-27,1],[-14,-68]],[[3708,1840],[58,-170],[91,-126],[-40,-48],[-98,65],[-16,41],[-81,0],[58,100],[7,64],[-32,0],[0,61],[-65,-20],[-26,78],[18,26],[66,9],[9,-51],[51,-29]],[[1634,1878],[-99,11],[6,95],[49,41],[139,-13],[-64,-82],[0,-41],[-31,-11]],[[3535,2101],[-15,-30],[-43,22],[-35,-32],[-111,-29],[-33,108],[0,158],[-84,50],[69,95],[252,-342]],[[1956,2073],[97,20],[-16,-61],[-128,-87],[-34,5],[-63,74],[-2,28],[47,2],[67,60],[32,-41]],[[2646,1815],[-59,-110],[-49,40],[-17,-25],[20,-73],[-19,-56],[-60,1],[-53,-31],[-16,41],[-49,21],[70,135],[76,-12],[11,18],[-28,104],[82,41],[0,-20],[97,-21],[-6,-53]],[[3169,1903],[-64,-14],[0,-21],[-81,21],[97,61],[48,-20],[0,-27]],[[2885,1917],[-23,13],[27,47],[54,14],[-8,-41],[-50,-33]],[[581,2755],[-32,31],[-1,64],[57,-18],[-24,-77]],[[2858,3044],[22,-6],[46,42],[123,-285],[-25,-129],[-49,20],[16,62],[-32,41],[0,82],[-65,0],[-48,61],[-81,-21],[-32,58],[-1,24],[46,-36],[19,16],[0,102],[22,10],[39,-41]],[[2344,2666],[25,83],[25,17],[31,-18],[-30,-54],[-51,-28]],[[1687,2751],[-71,-3],[2,54],[26,25],[69,-18],[-26,-58]],[[2069,2748],[0,102],[65,-20],[-18,-60],[-47,-22]],[[983,2981],[2,-70],[-65,11],[33,-51],[-16,-21],[-36,50],[3,73],[49,41],[30,-33]],[[0,2192],[0,77],[33,-54],[25,-16],[75,26],[-88,-59],[-45,26]],[[1341,2175],[12,125],[101,39],[16,-82],[-129,-82]],[[1131,2216],[-4,64],[52,38],[-4,-76],[-44,-26]],[[1805,2478],[21,-139],[-49,-68],[-96,-35],[-49,144],[-84,-40],[-29,19],[16,62],[49,-21],[65,41],[32,62],[64,20],[60,-45]],[[3360,941],[43,27],[-14,34],[37,25],[-10,111],[27,47],[59,-59],[-72,-14],[33,-37],[-64,-115],[97,13],[4,-52],[22,-2],[-41,-28],[53,-25],[-58,-30],[-74,38],[13,17],[-55,50]],[[1841,0],[-4,68],[54,168],[38,38],[111,-2],[13,-65],[-37,-40],[2,-91],[-97,-11],[1,-65],[-81,0]],[[2167,481],[30,73],[35,-40],[218,26],[31,44],[18,108],[21,0],[-4,-89],[49,-57],[-36,-188],[-198,21],[-96,-27],[-35,26],[-33,103]],[[2641,527],[53,114],[210,195],[123,-4],[89,-51],[2,-38],[-77,-12],[-123,-159],[-89,-25],[-30,-62],[-133,-8],[-25,50]],[[2080,1305],[33,20],[17,180],[35,35],[80,-4],[48,-53],[-21,-11],[34,-10],[-63,-21],[31,-85],[-24,-79],[9,-80],[-33,-11],[-12,27],[-16,-35],[-13,35],[-86,47],[-19,45]],[[2733,2082],[38,54],[-7,57],[82,32],[13,60],[90,38],[64,-8],[13,-51],[25,26],[136,10],[27,-40],[-84,-137],[-134,-113],[-27,2],[-5,44],[-5,-43],[-20,5],[-28,71],[-40,-17],[-48,-78],[-7,81],[-62,-8],[-13,-24],[-8,39]],[[2466,2816],[68,-4],[-59,41],[3,31],[137,50],[38,57],[37,-6],[9,13],[-44,-4],[80,70],[57,-26],[-29,-13],[-10,-47],[100,-26],[91,-59],[-107,-1],[85,-34],[-47,-11],[-5,-61],[-66,-61],[7,-36],[-102,-99],[-26,15],[-3,42],[-52,14],[16,9],[-8,8],[-19,-12],[46,83],[-23,-31],[-12,27],[-152,-19],[10,68],[-20,22]]]}