{"objects":{"water":{"type":"GeometryCollection","geometries":[{"type":"MultiPolygon","properties":{"source":"naturalearthdata.com","kind":"ocean","area":1576712559132672,"sort_rank":200,"min_zoom":0.0,"id":1},"arcs":[[[383]],[[384],[385],[386],[387],[388],[389],[390],[391],[392],[393],[394],[395],[396],[397],[398],[399],[400],[401],[402],[403],[404],[405],[406],[407],[408],[409],[410],[411],[412],[413],[414],[415],[416],[417],[418],[419],[420],[421],[422],[423],[424],[425]],[[426]],[[427]],[[428]],[[429]],[[430]],[[431],[432]],[[433]],[[434]],[[435]],[[436]],[[437]],[[438]]]},{"type":"MultiLineString","properties":{"source":"naturalearthdata.com","kind":"ocean","sort_rank":205,"boundary":true,"min_zoom":0.0,"id":58},"arcs":[[439],[440],[441],[442],[443],[444],[445],[446],[447],[448],[449],[450]]},{"type":"LineString","properties":{"source":"naturalearthdata.com","kind":"ocean","sort_rank":205,"boundary":true,"min_zoom":0.0,"id":1796},"arcs":[451]},{"type":"LineString","properties":{"source":"naturalearthdata.com","kind":"ocean","sort_rank":205,"boundary":true,"min_zoom":0.0,"id":1797},"arcs":[452]},{"type":"LineString","properties":{"source":"naturalearthdata.com","kind":"ocean","sort_rank":205,"boundary":true,"min_zoom":0.0,"id":1798},"arcs":[453]},{"type":"LineString","properties":{"source":"naturalearthdata.com","kind":"ocean","sort_rank":205,"boundary":true,"min_zoom":0.0,"id":1799},"arcs":[454]},{"type":"MultiLineString","properties":{"source":"naturalearthdata.com","kind":"ocean","sort_rank":205,"boundary":true,"min_zoom":0.0,"id":1810},"arcs":[[455],[456],[457]]},{"type":"MultiLineString","properties":{"source":"naturalearthdata.com","kind":"ocean","sort_rank":205,"boundary":true,"min_zoom":0.0,"id":1811},"arcs":[[458],[459]]},{"type":"LineString","properties":{"source":"naturalearthdata.com","kind":"ocean","sort_rank":205,"boundary":true,"min_zoom":0.0,"id":3507},"arcs":[460]},{"type":"LineString","properties":{"source":"naturalearthdata.com","kind":"ocean","sort_rank":205,"boundary":true,"min_zoom":0.0,"id":3508},"arcs":[461]},{"type":"LineString","properties":{"source":"naturalearthdata.com","kind":"ocean","sort_rank":205,"boundary":true,"min_zoom":0.0,"id":3515},"arcs":[462]},{"type":"LineString","properties":{"source":"naturalearthdata.com","kind":"ocean","sort_rank":205,"boundary":true,"min_zoom":0.0,"id":3516},"arcs":[463]},{"type":"MultiLineString","properties":{"source":"naturalearthdata.com","kind":"ocean","sort_rank":205,"boundary":true,"min_zoom":0.0,"id":3517},"arcs":[[464],[465]]},{"type":"LineString","properties":{"source":"naturalearthdata.com","kind":"ocean","sort_rank":205,"boundary":true,"min_zoom":0.0,"id":3533},"arcs":[466]},{"type":"MultiLineString","properties":{"source":"naturalearthdata.com","kind":"ocean","sort_rank":205,"boundary":true,"min_zoom":0.0,"id":3534},"arcs":[[467],[468]]},{"type":"LineString","properties":{"source":"naturalearthdata.com","kind":"ocean","sort_rank":205,"boundary":true,"min_zoom":0.0,"id":3793},"arcs":[469]},{"type":"LineString","properties":{"source":"naturalearthdata.com","kind":"ocean","sort_rank":205,"boundary":true,"min_zoom":0.0,"id":3794},"arcs":[470]},{"type":"LineString","properties":{"source":"naturalearthdata.com","kind":"ocean","sort_rank":205,"boundary":true,"min_zoom":0.0,"id":3956},"arcs":[471]},{"type":"LineString","properties":{"source":"naturalearthdata.com","kind":"ocean","sort_rank":205,"boundary":true,"min_zoom":0.0,"id":3957},"arcs":[472]}]},"buildings":{"type":"GeometryCollection","geometries":[]},"places":{"type":"GeometryCollection","geometries":[{"type":"Point","properties":{"name:ka":"\u10e1\u10d0\u10db\u10ee\u10e0\u10d4\u10d7\u10d8 \u10d9\u10dd\u10e0\u10d4\u10d0","name:tr":"G\u00fcney Kore","name:kn":"\u0ca6\u0c95\u0ccd\u0cb7\u0cbf\u0ca3 \u0c95\u0cca\u0cb0\u0cbf\u0caf\u0cbe","name:km":"\u1780\u17bc\u179a\u17c9\u17c1\u200b\u1781\u17b6\u1784\u200b\u178f\u17d2\u1794\u17bc\u1784","name:kl":"Korea Kujalleq","name:cs":"Ji\u017en\u00ed Korea","name:ki":"Korea Kusini","name:kw":"Korea Dhyhow","name:kv":"\u041a\u043e\u0440\u0435\u044f \u0420\u0435\u0441\u043f\u0443\u0431\u043b\u0438\u043a\u0430","name:ku":"Kor\u00eaya Ba\u015f\u00fbr","name:ti":"\u12f0\u1261\u1265 \u12ae\u122a\u12eb","name:ks":"\u0926\u0915\u094d\u0937\u093f\u0923 \u0915\u094b\u0930\u093f\u092f\u093e","name:to":"K\u014dlea tonga","name:tl":"Timog Korea","name:ce":"\u041a\u044a\u0438\u043b\u0431\u0435\u0440\u0430 \u041a\u043e\u0440\u0435\u0439","name:ta":"\u0ba4\u0bc6\u0ba9\u0bcd\u0b95\u0bca\u0bb0\u0bbf\u0baf\u0bbe","name:ca":"Corea del Sud","name:te":"\u0c26\u0c15\u0c4d\u0c37\u0c3f\u0c23 \u0c15\u0c4a\u0c30\u0c3f\u0c2f\u0c3e","name:cy":"De Corea","name:hr":"Ju\u017ena Koreja","name:da":"Sydkorea","name:de":"S\u00fcdkorea","name:dz":"\u0f63\u0fb7\u0f7c\u0f0b\u0f40\u0f7c\u0f0b\u0f62\u0f72\u0f0b\u0f61\u0f0b","source":"openstreetmap.org","name:dv":"\u078b\u07ac\u0786\u07aa\u0782\u07aa \u0786\u07ae\u0783\u07ac\u0787\u07a7","name:lv":"Dienvidkoreja","name:lt":"Piet\u0173 Kor\u0117ja","name:uz":"Janubiy Koreya","name:kk":"\u041e\u04a3\u0442\u04af\u0441\u0442\u0456\u043a \u041a\u043e\u0440\u0435\u044f","name:ur":"\u062c\u0646\u0648\u0628\u06cc \u06a9\u0648\u0631\u06cc\u0627","name:lb":"S\u00fcdkorea","name:la":"Corea Meridionalis","name:lg":"Koreya ey'omumaserengeta","name:uk":"\u041f\u0456\u0432\u0434\u0435\u043d\u043d\u0430 \u041a\u043e\u0440\u0435\u044f","name:ug":"\u062c\u06d5\u0646\u06c7\u0628\u0649\u064a \u0686\u0627\u06cb\u0634\u064a\u06d5\u0646","name:li":"Zuud-Korea","name:ln":"Kor\u025b ya s\u00fadi","name:lo":"\u0ec0\u0e81\u0ebb\u0eb2\u0eab\u0ea5\u0eb5\u0ec3\u0e95\u0ec9","name:el":"\u039d\u03cc\u03c4\u03b9\u03b1 \u039a\u03bf\u03c1\u03ad\u03b1","name:eo":"Sud-Koreujo","name:en":"South Korea","name":"\ub300\ud55c\ubbfc\uad6d","name:tk":"G\u00fcnorta Kore\u00fda","name:ee":"South Korea","name:th":"\u0e1b\u0e23\u0e30\u0e40\u0e17\u0e28\u0e40\u0e01\u0e32\u0e2b\u0e25\u0e35\u0e43\u0e15\u0e49","name:eu":"Hego Korea","name:et":"L\u00f5una-Korea","name:es":"Corea del Sur","name:ia":"Corea del Sud","name:rm":"Corea dal sid","name:rn":"Koreya y'amajepfo","name:az":"C\u0259nubi Koreya","name:ie":"Sud-Korea","name:id":"Korea Selatan","name:as":"\u09a6\u0995\u09cd\u09b7\u09bf\u09a3 \u0995\u09cb\u09f0\u09bf\u09af\u09bc\u09be","name:ar":"\u0643\u0648\u0631\u064a\u0627 \u0627\u0644\u062c\u0646\u0648\u0628\u064a\u0629","name:io":"Sud-Korea","name:ak":"Anaafo Koria","name:am":"\u12f0\u1261\u1265 \u12ae\u122d\u12eb","name:it":"Corea del Sud","name:an":"Corea d'o Sur","name:ru":"\u0420\u0435\u0441\u043f\u0443\u0431\u043b\u0438\u043a\u0430 \u041a\u043e\u0440\u0435\u044f","name:rw":"Koreya y\u2019Amajyepfo","name:af":"Suid-Korea","name:zu":"i-South Korea","name:no":"S\u00f8r-Korea","name:za":"Hanzgoz","name:zh-yue":"\u5927\u97d3\u6c11\u570b","name:zh":"\u97e9\u56fd","name:so":"Kuuriyada Koonfureed","name:sn":"Korea, South","name:sm":"Kolea i Saute","name:sl":"Ju\u017ena Koreja","name:sk":"Ju\u017en\u00e1 K\u00f3rea","name:ja":"\u5927\u97d3\u6c11\u56fd","name:si":"\u0daf\u0d9a\u0dd4\u0dab\u0dd4 \u0d9a\u0ddc\u0dbb\u0dd2\u0dba\u0dcf\u0dc0","name:sh":"Ju\u017ena Koreja","name:sg":"Kor\u00ebe t\u00ee Mbongo","name:se":"M\u00e1tta-Korea","name:sc":"Corea de su Sud","name:sa":"\u0926\u0915\u094d\u0937\u093f\u0923 \u0915\u094b\u0930\u093f\u092f\u093e","name:bs":"Ju\u017ena Koreja","name:bm":"Worodugu Kore","name:bn":"\u09a6\u0995\u09cd\u09b7\u09bf\u09a3 \u0995\u09cb\u09b0\u09bf\u09af\u09bc\u09be","name:bo":"\u0f63\u0fb7\u0f7c\u0f0b\u0f40\u0f7c\u0f0b\u0f62\u0f72\u0f0b\u0f61\u0f0d","name:br":"Korea ar Su","name:sw":"Korea Kusini","name:be":"\u041f\u0430\u045e\u0434\u043d\u0451\u0432\u0430\u044f \u041a\u0430\u0440\u044d\u044f","name:su":"Kor\u00e9a Kidul","name:bg":"\u042e\u0436\u043d\u0430 \u041a\u043e\u0440\u0435\u044f","name:ss":"IKhoriya leseNingizimu","name:ba":"\u041a\u04e9\u043d\u044c\u044f\u04a1 \u041a\u043e\u0440\u0435\u044f","name:sq":"Koreja e Jugut","alt_name:ko":"\ub0a8\uc870\uc120","name:jv":"Kor\u00e9a Kidul","name:bi":"Saot Koria","name:pt":"Coreia do Sul","name:ps":"\u0633\u0648\u06d0\u0644\u064a \u06a9\u0648\u0631\u064a\u0627","name:oc":"Cor\u00e8a del Sud","min_zoom":2.0,"name:ro":"Coreea de Sud","name:zh-min-nan":"H\u00e2n-kok","name:os":"\u0425\u0443\u0441\u0441\u0430\u0440 \u041a\u043e\u0440\u0435\u0439","name:or":"\u0b26\u0b15\u0b4d\u0b37\u0b3f\u0b23 \u0b15\u0b4b\u0b30\u0b3f\u0b06","name:pl":"Korea Po\u0142udniowa","name:sr":"\u0408\u0443\u0436\u043d\u0430 \u041a\u043e\u0440\u0435\u0458\u0430","name:hi":"\u0926\u0915\u094d\u0937\u093f\u0923 \u0915\u094b\u0930\u093f\u092f\u093e","name:sv":"Sydkorea","name:he":"\u05e7\u05d5\u05e8\u05d9\u05d0\u05d4 \u05d4\u05d3\u05e8\u05d5\u05de\u05d9\u05ea","name:ha":"Koreya Ta Kudu","name:hy":"\u0540\u0561\u0580\u0561\u057e\u0561\u0575\u056b\u0576 \u053f\u0578\u0580\u0565\u0561","name:ht":"Kore disid","name:hu":"D\u00e9l-Korea","name:qu":"Urin Kuriya","population":50000000,"kind":"country","name:is":"Su\u00f0ur-K\u00f3rea","name:yi":"\u05d3\u05e8\u05d5\u05dd \u05e7\u05d0\u05e8\u05e2\u05e2","name:yo":"Or\u00edl\u1eb9\u0301\u00e8de Ariwa K\u1ecdria","name:mt":"Korea t'Isfel","alt_name:eo":"Sud-Koreo;Sud-Koreio","name:ms":"Korea Selatan","name:mr":"\u0926\u0915\u094d\u0937\u093f\u0923 \u0915\u094b\u0930\u093f\u092f\u093e","name:my":"\u1010\u1031\u102c\u1004\u103a\u1000\u102d\u102f\u101b\u102e\u1038\u101a\u102c\u1038\u1014\u102d\u102f\u1004\u103a\u1004\u1036","int_name":"Republic of Korea","name:mg":"Korea Atsimo","name:ml":"\u0d26\u0d15\u0d4d\u0d37\u0d3f\u0d23 \u0d15\u0d4a\u0d31\u0d3f\u0d2f","name:vi":"H\u00e0n Qu\u1ed1c","name:mn":"\u04e8\u043c\u043d\u04e9\u0434 \u0421\u043e\u043b\u043e\u043d\u0433\u043e\u0441","name:mi":"K\u014drea-ki-te-tonga","id":249399362,"name:mk":"\u0420\u0435\u043f\u0443\u0431\u043b\u0438\u043a\u0430 \u041a\u043e\u0440\u0435\u0458\u0430","name:vo":"Sul\u00fcda-Korey\u00e4n","name:fa":"\u06a9\u0631\u0647 \u062c\u0646\u0648\u0628\u06cc","name:ff":"Koree Worgo","name:fi":"Etel\u00e4-Korea","name:ky":"\u041a\u043e\u0440\u0435\u044f \u0420\u0435\u0441\u043f\u0443\u0431\u043b\u0438\u043a\u0430\u0441\u044b","name:fo":"Su\u00f0ur-Korea","alt_name:vi":"Nam H\u00e0n;Nam Tri\u1ec1u Ti\u00ean;\u0110\u1ea1i H\u00e0n","name:fr":"Cor\u00e9e du Sud","name:fy":"S\u00fad-Korea","name:nl":"Zuid-Korea","name:nn":"S\u00f8r-Korea","alt_name:ru":"\u042e\u0436\u043d\u0430\u044f \u041a\u043e\u0440\u0435\u044f","name:na":"Ripubrikin Korea","name:ne":"\u0926\u0915\u094d\u0937\u093f\u0923 \u0915\u094b\u0930\u093f\u092f\u093e","name:wo":"Kore gu B\u00ebj-saalum","name:nv":"Kol\u00edya Bik\u00e9yah Sh\u00e1di\u02bc\u00e1\u00e1hj\u00ed Si\u02bc\u00e1n\u00edg\u00ed\u00ed","name:ga":"An Ch\u00f3ir\u00e9 Theas","name:gd":"Coirea a Deas","name:gn":"Yvykorea","name:gl":"Corea do Sur","name:gv":"Yn Chorea Yiass","name:gu":"\u0aa6\u0a95\u0acd\u0ab7\u0abf\u0aa3 \u0a95\u0acb\u0ab0\u0abf\u0aaf\u0abe","name:tt":"\u041a\u04e9\u043d\u044c\u044f\u043a \u041a\u043e\u0440\u0435\u044f"},"coordinates":[2007,4025]},{"type":"Point","properties":{"name:pt":"Chungcheong do Sul","alt_name:en":"South Chungcheong Province","name:id":"Chungcheong Selatan","name:ms":"Chungcheong Selatan","name:th":"\u0e08\u0e31\u0e07\u0e2b\u0e27\u0e31\u0e14\u0e0a\u0e38\u0e07\u0e0a\u0e47\u0e2d\u0e07\u0e43\u0e15\u0e49","name:it":"Sud Chungcheong","name:ru":"\u0427\u0445\u0443\u043d\u0447\u0445\u043e\u043d-\u041d\u0430\u043c\u0434\u043e","name:vi":"Chungcheong Nam","name:pl":"Chungcheong Po\u0142udniowy","name:mn":"\u04e8\u043c\u043d\u04e9\u0434 \u0427\u04af\u043d\u0447\u043e\u043d","id":1869881765,"name:ca":"Chungcheongnam-do","name:fa":"\u0686\u0648\u0646\u06af\u0686\u0626\u0648\u0646\u06af\u0646\u0627\u0645-\u062f\u0648","name:hu":"D\u00e9l-Cshungcshong","name:lt":"Piet\u0173 \u010cung\u010dongo provincija","kind_detail":"state","name:de":"Chungcheongnam-do","source":"openstreetmap.org","name:fr":"Chungcheong du Sud","name:zh":"\u5fe0\u6e05\u5357\u9053","name:nl":"Chungcheongnam-do","name:ja":"\u5fe0\u6e05\u5357\u9053","short_name":"\ucda9\ub0a8","name:no":"S\u00f8r-Chungcheong","name:uk":"\u041f\u0456\u0432\u0434\u0435\u043d\u043d\u0430 \u043f\u0440\u043e\u0432\u0456\u043d\u0446\u0456\u044f \u0427\u0445\u0443\u043d\u0447\u0445\u043e\u043d","name:sw":"Chungcheongnam-do","name:sv":"Sydchungcheong","name:bg":"\u0427\u0445\u0443\u043d\u0447\u0445\u044a\u043d-\u041d\u0430\u043c\u0434\u043e","kind":"region","name:en":"Chungcheongnam-do","name":"\ucda9\uccad\ub0a8\ub3c4","min_zoom":4.0,"name:fi":"Etel\u00e4-Chungcheong","name:et":"L\u00f5una-Ch'ungch'\u014fngi provints","name:es":"Chungcheong del Sur"},"coordinates":[302,3883]},{"type":"Point","properties":{"name:pt":"Jeolla do Norte","alt_name:en":"North Jeolla Province","name:id":"Jeolla Utara","name:ms":"Jeolla Utara","name:th":"\u0e08\u0e31\u0e07\u0e2b\u0e27\u0e31\u0e14\u0e08\u0e47\u0e2d\u0e25\u0e25\u0e32\u0e40\u0e2b\u0e19\u0e37\u0e2d","name:it":"Nord Jeolla","name:ru":"\u0427\u043e\u043b\u043b\u0430-\u041f\u0443\u043a\u0442\u043e","name:vi":"Jeolla B\u1eafc","name:pl":"Jeolla P\u00f3\u0142nocna","name:mn":"\u0423\u043c\u0430\u0440\u0434 \u0427\u043e\u043b\u043b\u0430","id":1900814181,"name:ca":"Jeollabuk-do","name:fa":"\u062c\u0626\u0648\u0644\u0627\u0628\u0648\u06a9-\u062f\u0648","name:hu":"\u00c9szak-Csolla","name:lt":"\u0160iaur\u0117s D\u017eolos provincija","kind_detail":"state","name:de":"Jeollabuk-do","source":"openstreetmap.org","name:fr":"Jeolla du Nord","name:zh":"\u5168\u7f85\u5317\u9053","name:nl":"Jeollabuk-do","name:ja":"\u5168\u7f85\u5317\u9053","short_name":"\uc804\ubd81","name:no":"Nord-Jeolla","name:jv":"Jeollabuk-do","name:uk":"\u041f\u0456\u0432\u043d\u0456\u0447\u043d\u0430 \u043f\u0440\u043e\u0432\u0456\u043d\u0446\u0456\u044f \u0427\u043e\u043b\u043b\u0430","name:sw":"Jeollabuk-do","name:sv":"Nordjeolla","name:bg":"\u0427\u044a\u043b\u0430-\u041f\u0443\u043a\u0442\u043e","kind":"region","name:en":"Jeollabuk-do","name":"\uc804\ub77c\ubd81\ub3c4","min_zoom":4.0,"name:fi":"Pohjois-Jeolla","name:et":"P\u00f5hja-Ch\u014flla provints","name:es":"Jeolla del Norte"},"coordinates":[809,2561]},{"type":"Point","properties":{"name:pt":"Jeolla do Sul","name:id":"Jeolla Selatan","name:ms":"Jeolla Selatan","name:th":"\u0e08\u0e31\u0e07\u0e2b\u0e27\u0e31\u0e14\u0e08\u0e47\u0e2d\u0e25\u0e25\u0e32\u0e43\u0e15\u0e49","name:it":"Sud Jeolla","name:ru":"\u0427\u043e\u043b\u043b\u0430-\u041d\u0430\u043c\u0434\u043e","name:vi":"Jeolla Nam","name:pl":"Jeolla Po\u0142udniowa","name:mn":"\u04e8\u043c\u043d\u04e9\u0434 \u0427\u043e\u043b\u043b\u0430","id":1900823975,"name:ca":"Jeollanam-do","name:fa":"\u062c\u0626\u0648\u0644\u0627\u0646\u0627\u0645-\u062f\u0648","name:hu":"D\u00e9l-Csolla","name:lt":"Piet\u0173 D\u017eolos provincija","kind_detail":"state","name:de":"Jeollanam-do","source":"openstreetmap.org","name:fr":"Jeolla du Sud","name:zh":"\u5168\u7f85\u5357\u9053","name:nl":"Jeollanam-do","name:ja":"\u5168\u7f85\u5357\u9053","short_name":"\uc804\ub0a8","name:no":"S\u00f8r-Jeolla","name:uk":"\u041f\u0456\u0432\u0434\u0435\u043d\u043d\u0430 \u043f\u0440\u043e\u0432\u0456\u043d\u0446\u0456\u044f \u0427\u043e\u043b\u043b\u0430","name:sw":"Jeollanam-do","name:sv":"Sydjeolla","name:bg":"\u0427\u044a\u043b\u0430-\u041d\u0430\u043c\u0434\u043e","kind":"region","name:en":"Jeollanam-do","name":"\uc804\ub77c\ub0a8\ub3c4","min_zoom":4.0,"name:fi":"Etel\u00e4-Jeolla","name:et":"L\u00f5una-Ch\u014flla provints","name:es":"Jeolla del Sur"},"coordinates":[637,1135]},{"type":"Point","properties":{"name:pt":"Gyeongsang do Norte","name:ro":"Gyeongsangbuk-do","name:id":"Gyeongsang Utara","name:ms":"Gyeongsang Utara","name:th":"\u0e08\u0e31\u0e07\u0e2b\u0e27\u0e31\u0e14\u0e04\u0e22\u0e47\u0e2d\u0e07\u0e0b\u0e31\u0e07\u0e40\u0e2b\u0e19\u0e37\u0e2d","alt_name:en":"North Gyeongsang Province","name:it":"Nord Gyeongsang","name:ru":"\u041a\u0451\u043d\u0441\u0430\u043d-\u041f\u0443\u043a\u0442\u043e","name:vi":"Gyeongsang B\u1eafc","name:pl":"Gyeongsang P\u00f3\u0142nocny","id":1897951352,"name:ca":"Gyeongsangbuk-do","name:fa":"\u062c\u0626\u0648\u0646\u0633\u0627\u0646\u06af\u0628\u0648\u06a9-\u062f\u0648","name:hu":"\u00c9szak-Cshungcshong","name:lt":"\u0160iaur\u0117s Kiongsango provincija","kind_detail":"state","name:de":"Gyeongsangbuk-do","source":"openstreetmap.org","name:fr":"Gyeongsang du Nord","name:zh":"\u5e86\u5c1a\u5317\u9053","name:nl":"Gyeongsangbuk-do","name:ja":"\u6176\u5c1a\u5317\u9053","short_name":"\uacbd\ubd81","name:no":"Nord-Gyeongsang","name:uk":"\u041f\u0456\u0432\u043d\u0456\u0447\u043d\u0430 \u043f\u0440\u043e\u0432\u0456\u043d\u0446\u0456\u044f \u041a\u044c\u043e\u043d\u0441\u0430\u043d","name:sw":"Gyeongsangbuk-do","name:sv":"Nordgyeongsang","name:bg":"\u041a\u044c\u043e\u043d\u0441\u0430\u043d-\u041f\u0443\u043a\u0442\u043e","kind":"region","name:en":"Gyeonsangbuk-do","name":"\uacbd\uc0c1\ubd81\ub3c4","min_zoom":4.0,"name:fi":"Pohjois-Gyeongsang","name:et":"P\u00f5hja-Ky\u014fngsangi provints","name:es":"Gyeongsang del Norte"},"coordinates":[3348,3743]},{"type":"Point","properties":{"name:pt":"Gyeongsang do Sul","alt_name:en":"South Gyeongsang Province","name:id":"Gyeongsang Selatan","name:ms":"Gyeongsang Selatan","name:th":"\u0e08\u0e31\u0e07\u0e2b\u0e27\u0e31\u0e14\u0e04\u0e22\u0e47\u0e2d\u0e07\u0e0b\u0e31\u0e07\u0e43\u0e15\u0e49","name:it":"Sud Gyeongsang","name:ru":"\u041a\u0451\u043d\u0441\u0430\u043d-\u041d\u0430\u043c\u0434\u043e","name:vi":"Gyeongsang Nam","name:pl":"Gyeongsang Po\u0142udniowy","id":1900114892,"name:ca":"Gyeongsangnam-do","name:fa":"\u062c\u0626\u0648\u0646\u0633\u0627\u0646\u06af\u0646\u0627\u0645-\u062f\u0648","name:hu":"D\u00e9l-Kjongszang","name:lt":"Piet\u0173 Kiongsango provincija","kind_detail":"state","name:de":"Gyeongsangnam-do","source":"openstreetmap.org","name:fr":"Gyeongsang du Sud","name:zh":"\u5e86\u5c1a\u5357\u9053","name:nl":"Gyeongsangnam-do","name:ja":"\u6176\u5c1a\u5357\u9053","short_name":"\uacbd\ub0a8","name:no":"S\u00f8r-Gyeongsang","name:uk":"\u041f\u0456\u0432\u0434\u0435\u043d\u043d\u0430 \u043f\u0440\u043e\u0432\u0456\u043d\u0446\u0456\u044f \u041a\u044c\u043e\u043d\u0441\u0430\u043d","name:sw":"Gyeongsangnam-do","name:sv":"Sydgyeongsang","name:bg":"\u041a\u044c\u043e\u043d\u0441\u0430\u043d-\u041d\u0430\u043c\u0434\u043e","kind":"region","name:en":"Gyeongsangnam-do","name":"\uacbd\uc0c1\ub0a8\ub3c4","min_zoom":4.0,"name:fi":"Etel\u00e4-Gyeongsang","name:et":"L\u00f5una-Ky\u014fngsangi provints","name:es":"Gyeongsang del Sur"},"coordinates":[2574,1910]},{"type":"Point","properties":{"source":"naturalearthdata.com","kind":"locality","name":"Busan","population":3480000,"region_capital":true,"min_zoom":5.0,"id":6387},"coordinates":[3562,1412]},{"type":"Point","properties":{"source":"naturalearthdata.com","kind":"locality","name":"Daejeon","population":1468000,"region_capital":true,"min_zoom":5.0,"id":6385},"coordinates":[1253,3630]},{"type":"Point","properties":{"source":"naturalearthdata.com","kind":"locality","name":"Gwangju","population":1440000,"region_capital":true,"min_zoom":5.0,"id":6386},"coordinates":[504,1548]},{"type":"Point","properties":{"source":"naturalearthdata.com","kind":"locality","name":"Daegu","population":2460000,"region_capital":true,"min_zoom":6.0,"id":5054},"coordinates":[2975,2792]},{"type":"Point","properties":{"source":"naturalearthdata.com","kind":"locality","name":"Ulsan","population":1061000,"min_zoom":6.0,"id":5053},"coordinates":[4009,2220]},{"type":"Point","properties":{"source":"naturalearthdata.com","kind":"locality","name":"Pohang","population":435266,"min_zoom":6.0,"id":5052},"coordinates":[4091,3064]},{"type":"Point","properties":{"source":"naturalearthdata.com","kind":"locality","name":"Jeonju","population":711424,"region_capital":true,"min_zoom":7.0,"id":3020},"coordinates":[842,2725]},{"type":"Point","properties":{"source":"naturalearthdata.com","kind":"locality","name":"Yeosu","population":341994,"min_zoom":7.0,"id":2432},"coordinates":[1723,768]},{"type":"Point","properties":{"source":"naturalearthdata.com","kind":"locality","name":"Gunsan","population":244080,"min_zoom":7.0,"id":3021},"coordinates":[224,2994]},{"type":"Point","properties":{"source":"naturalearthdata.com","kind":"locality","name":"Andong","population":129319,"min_zoom":7.0,"id":2433},"coordinates":[3149,4039]}]},"transit":{"type":"GeometryCollection","geometries":[{"type":"LineString","properties":{"kind":"train","name":"\uc11c\uc6b8-\ud3ec\ud56d\uac04 \uace0\uc18d\ucca0\ub3c4 \uc0c1\ud589","sort_rank":275,"source":"openstreetmap.org","min_zoom":6.0,"operator":"Korail","id":-4730525,"osm_relation":true},"arcs":[89]},{"type":"LineString","properties":{"kind":"train","name":"\uc11c\uc6b8-\ud3ec\ud56d\uac04 \uace0\uc18d\ucca0\ub3c4 \ud558\ud589","sort_rank":275,"source":"openstreetmap.org","min_zoom":6.0,"operator":"Korail","id":-4730524,"osm_relation":true},"arcs":[90]},{"type":"MultiLineString","properties":{"kind":"train","network":"\uacbd\ubd80\uace0\uc18d\uc120","sort_rank":275,"source":"openstreetmap.org","min_zoom":6.0,"operator":"Korail","ref":"Korail","osm_relation":true,"name":"KTX \uacbd\ubd80\uc120"},"arcs":[[91],[92],[93],[94],[95],[96]]},{"type":"LineString","properties":{"kind":"train","name":"\ub300\uad6c\uc120 Daegu Line","sort_rank":275,"source":"openstreetmap.org","min_zoom":6.0,"operator":"\ucf54\ub808\uc77c(KORAIL)","id":-2827100,"osm_relation":true},"arcs":[97]},{"type":"MultiLineString","properties":{"osm_relation":true,"source":"openstreetmap.org","kind":"train","name":"\uc911\uc559\uc120 Jungang Line","sort_rank":275,"min_zoom":6.0,"operator":"\ucf54\ub808\uc77c (KORAIL)"},"arcs":[[98],[99],[100],[101],[102]]},{"type":"MultiLineString","properties":{"kind":"train","name:en":"Donghae Line","network":"\uad11\uc5ed\ucca0\ub3c4","sort_rank":275,"source":"openstreetmap.org","min_zoom":6.0,"operator":"\ud55c\uad6d\ucca0\ub3c4\uacf5\uc0ac","osm_relation":true,"name":"\ub3d9\ud574\uc120"},"arcs":[[103],[104],[105],[106],[107],[108],[109],[110],[111],[112],[113],[114],[115],[116],[117],[118],[119],[120],[121],[122],[123],[124],[125],[126],[127],[128],[129],[130],[131],[132],[133],[134],[135],[136],[137],[138],[139],[140],[141],[142],[143],[144],[145],[146],[147],[148],[149],[150],[151],[152],[153],[154],[155],[156]]},{"type":"MultiLineString","properties":{"kind":"train","name:en":"Busan Metro Line 1","name":"\ubd80\uc0b0 \ub3c4\uc2dc\ucca0\ub3c4 1\ud638\uc120","sort_rank":275,"colour":"#F26921","source":"openstreetmap.org","min_zoom":6.0,"alt_name:en":"Orange Line","operator":"\ubd80\uc0b0\uad50\ud1b5\uacf5\uc0ac","osm_relation":true,"colour_name":"tomato"},"arcs":[[157],[158],[159],[160],[161],[162],[163],[164],[165],[166],[167],[168],[169],[170],[171],[172],[173],[174],[175],[176],[177],[178],[179],[180],[181],[182],[183],[184]]},{"type":"MultiLineString","properties":{"kind":"train","name":"1\ud638\uc120 (Orange Line)","source":"openstreetmap.org","sort_rank":275,"colour":"#F06A00","name:ko":"1\ud638\uc120","min_zoom":6.0,"osm_relation":true,"name:ja":"1\u53f7\u7dda","operator":"\ubd80\uc0b0\uad50\ud1b5\uacf5\uc0ac","ref":"1","colour_name":"orangered","network":"\ubd80\uc0b0\ub3c4\uc2dc\ucca0\ub3c4"},"arcs":[[185],[186],[187],[188],[189],[190],[191],[192],[193],[194],[195],[196],[197],[198],[199],[200],[201],[202],[203],[204],[205],[206],[207],[208],[209],[210],[211],[212],[213],[214],[215],[216],[217],[218],[219],[220],[221],[222],[223],[224],[225],[226],[227],[228],[229],[230],[231],[232],[233],[234],[235],[236],[237],[238],[239],[240],[241],[242],[243],[244],[245],[246],[247],[248],[249],[250],[251],[252],[253],[254],[255],[256],[257],[258],[259],[260],[261],[262],[263],[264],[265],[266],[267],[268],[269],[270],[271],[272],[273],[274],[275],[276],[277],[278],[279],[280],[281],[282],[283],[284],[285],[286],[287],[288],[289],[290],[291],[292],[293],[294],[295],[296],[297],[298],[299],[300],[301],[302],[303],[304],[305],[306],[307],[308],[309],[310],[311],[312],[313],[314],[315],[316],[317],[318],[319],[320],[321],[322],[323],[324],[325],[326],[327]]},{"type":"MultiLineString","properties":{"kind":"train","name:en":"Donghae Line","name":"\ub3d9\ud574\uc120 \uc804\ucca0 (Donghae Line)","name:ko":"\ub3d9\ud574\uc120 \uc804\ucca0","source":"openstreetmap.org","min_zoom":6.0,"operator":"KORAIL","ref":"\ub3d9\ud574\uc120","osm_relation":true,"sort_rank":275},"arcs":[[328],[329],[330],[331],[332],[333],[334],[335],[336],[337],[338],[339],[340],[341],[342],[343],[344],[345],[346],[347],[348],[349],[350],[351],[352],[353],[354],[355],[356],[357],[358],[359],[360],[361],[362],[363],[364],[365],[366],[367],[368],[369],[370],[371],[372],[373]]},{"type":"MultiLineString","properties":{"source":"openstreetmap.org","kind":"train","osm_relation":true,"sort_rank":275,"ref":"1213","min_zoom":6.0,"operator":"Korail"},"arcs":[[374],[375],[376],[377],[378],[379],[380],[381],[382]]}]},"pois":{"type":"GeometryCollection","geometries":[{"type":"Point","properties":{"kind":"protected_area","name:en":"Hallyeohaesang National Park","protect_class":"2","area":424744000,"source":"openstreetmap.org","min_zoom":7.0,"tier":2,"id":-7760738,"osm_relation":true,"name":"\ud55c\ub824 \ud574\uc0c1 \uad6d\ub9bd\uacf5\uc6d0"},"coordinates":[2737,826]}]},"boundaries":{"type":"GeometryCollection","geometries":[{"type":"MultiLineString","properties":{"source":"naturalearthdata.com","kind":"region","name":"North Gyeongsang - Ulsan","sort_rank":256,"kind_detail":"4","min_zoom":6.0,"id":6390},"arcs":[[0],[1],[2]]},{"type":"MultiLineString","properties":{"source":"naturalearthdata.com","kind":"region","name":"North Jeolla - South Gyeongsang","sort_rank":256,"kind_detail":"4","min_zoom":6.0,"id":6394},"arcs":[[3],[4],[5]]},{"type":"MultiLineString","properties":{"source":"naturalearthdata.com","kind":"region","name":"North Gyeongsang - South Gyeongsang","sort_rank":256,"kind_detail":"4","min_zoom":6.0,"id":6395},"arcs":[[6],[7],[8],[9],[10],[11],[12],[13],[14],[15],[16],[17],[18],[19]]},{"type":"LineString","properties":{"source":"naturalearthdata.com","kind":"region","name":"Ulsan - South Gyeongsang","sort_rank":256,"kind_detail":"4","min_zoom":6.0,"id":6396},"arcs":[20]},{"type":"LineString","properties":{"source":"naturalearthdata.com","kind":"region","name":"South Gyeongsang - South Jeolla","sort_rank":256,"kind_detail":"4","min_zoom":6.0,"id":6397},"arcs":[21]},{"type":"LineString","properties":{"source":"naturalearthdata.com","kind":"region","sort_rank":256,"kind_detail":"4","min_zoom":6.0,"id":406},"arcs":[22]},{"type":"MultiLineString","properties":{"source":"naturalearthdata.com","kind":"region","name":"North Chungcheong - North Jeolla","sort_rank":256,"kind_detail":"4","min_zoom":6.0,"id":6382},"arcs":[[23],[24],[25],[26],[27],[28]]},{"type":"MultiLineString","properties":{"source":"naturalearthdata.com","kind":"region","name":"Daejeon - North Chungcheong","sort_rank":256,"kind_detail":"4","min_zoom":6.0,"id":6383},"arcs":[[29],[30],[31]]},{"type":"MultiLineString","properties":{"source":"naturalearthdata.com","kind":"region","name":"Sejong - North Chungcheong","sort_rank":256,"kind_detail":"4","min_zoom":6.0,"id":6384},"arcs":[[32],[33]]},{"type":"MultiLineString","properties":{"source":"naturalearthdata.com","kind":"region","name":"North Jeolla - South Chungcheong","sort_rank":256,"kind_detail":"4","min_zoom":6.0,"id":6374},"arcs":[[34],[35],[36],[37],[38]]},{"type":"MultiLineString","properties":{"source":"naturalearthdata.com","kind":"region","name":"Daejeon - South Chungcheong","sort_rank":256,"kind_detail":"4","min_zoom":6.0,"id":6375},"arcs":[[39],[40]]},{"type":"MultiLineString","properties":{"source":"naturalearthdata.com","kind":"region","name":"Sejong - South Chungcheong","sort_rank":256,"kind_detail":"4","min_zoom":6.0,"id":6376},"arcs":[[41],[42]]},{"type":"MultiLineString","properties":{"source":"naturalearthdata.com","kind":"region","name":"North Chungcheong - South Chungcheong","sort_rank":256,"kind_detail":"4","min_zoom":6.0,"id":6379},"arcs":[[43],[44],[45],[46]]},{"type":"LineString","properties":{"source":"naturalearthdata.com","kind":"region","name":"Sejong - North Chungcheong","sort_rank":256,"kind_detail":"4","min_zoom":6.0,"id":6381},"arcs":[47]},{"type":"LineString","properties":{"source":"naturalearthdata.com","kind":"region","name":"North Jeolla - North Gyeongsang","sort_rank":256,"kind_detail":"4","min_zoom":6.0,"id":6387},"arcs":[48]},{"type":"MultiLineString","properties":{"source":"naturalearthdata.com","kind":"region","name":"North Gyeongsang - North Chungcheong","sort_rank":256,"kind_detail":"4","min_zoom":6.0,"id":6388},"arcs":[[49],[50],[51],[52],[53],[54],[55]]},{"type":"MultiLineString","properties":{"source":"naturalearthdata.com","kind":"region","name":"South Jeolla - North Jeolla","sort_rank":256,"kind_detail":"4","min_zoom":6.0,"id":6391},"arcs":[[56],[57],[58],[59],[60],[61],[62],[63],[64],[65],[66],[67],[68]]},{"type":"LineString","properties":{"source":"naturalearthdata.com","kind":"region","name":"Gwangju - South Jeolla","sort_rank":256,"kind_detail":"4","min_zoom":6.0,"id":6392},"arcs":[69]},{"type":"MultiLineString","properties":{"source":"naturalearthdata.com","kind":"region","name":"Daegu - North Gyeongsang","sort_rank":256,"kind_detail":"4","min_zoom":6.0,"id":6393},"arcs":[[70],[71],[72],[73],[74],[75]]},{"type":"MultiLineString","properties":{"source":"naturalearthdata.com","kind":"region","name":"Busan - South Gyeongsang","sort_rank":256,"kind_detail":"4","min_zoom":6.0,"id":6398},"arcs":[[76],[77]]},{"type":"LineString","properties":{"source":"naturalearthdata.com","kind":"region","name":"Gwangju - South Jeolla","sort_rank":256,"kind_detail":"4","min_zoom":6.0,"id":6399},"arcs":[78]},{"type":"MultiLineString","properties":{"source":"naturalearthdata.com","kind":"region","name":"Sejong - Daejeon","sort_rank":256,"kind_detail":"4","min_zoom":7.0,"id":8407},"arcs":[[79],[80]]},{"type":"MultiLineString","properties":{"source":"naturalearthdata.com","kind":"region","name":"Gwangju - South Jeolla","sort_rank":256,"kind_detail":"4","min_zoom":6.0,"id":10103},"arcs":[[81],[82],[83],[84]]},{"type":"MultiLineString","properties":{"source":"naturalearthdata.com","kind":"region","name":"Gwangju - South Jeolla","sort_rank":256,"kind_detail":"4","min_zoom":6.0,"id":10104},"arcs":[[85],[86],[87],[88]]}]},"roads":{"type":"GeometryCollection","geometries":[{"type":"LineString","properties":{"source":"naturalearthdata.com","kind":"highway","sort_rank":383,"kind_detail":"motorway","min_zoom":5.0,"id":22840},"arcs":[473]},{"type":"LineString","properties":{"source":"naturalearthdata.com","kind":"minor_road","kind_detail":"tertiary","sort_rank":355,"landuse_kind":"urban_area","min_zoom":5.0,"id":22841},"arcs":[474]},{"type":"MultiLineString","properties":{"source":"naturalearthdata.com","kind":"minor_road","sort_rank":355,"kind_detail":"tertiary","min_zoom":5.0,"id":22841},"arcs":[[475],[476]]},{"type":"LineString","properties":{"source":"naturalearthdata.com","kind":"highway","kind_detail":"motorway","sort_rank":383,"landuse_kind":"urban_area","min_zoom":5.0,"id":22848},"arcs":[477]},{"type":"LineString","properties":{"source":"naturalearthdata.com","kind":"highway","sort_rank":383,"kind_detail":"motorway","min_zoom":5.0,"id":22848},"arcs":[478]},{"type":"LineString","properties":{"source":"naturalearthdata.com","kind":"minor_road","sort_rank":355,"kind_detail":"tertiary","min_zoom":5.0,"id":22857},"arcs":[479]},{"type":"LineString","properties":{"source":"naturalearthdata.com","kind":"minor_road","kind_detail":"tertiary","sort_rank":355,"landuse_kind":"urban_area","min_zoom":5.0,"id":22885},"arcs":[480]},{"type":"LineString","properties":{"source":"naturalearthdata.com","kind":"minor_road","sort_rank":355,"kind_detail":"tertiary","min_zoom":5.0,"id":22885},"arcs":[481]},{"type":"LineString","properties":{"source":"naturalearthdata.com","kind":"highway","kind_detail":"motorway","sort_rank":383,"landuse_kind":"urban_area","min_zoom":5.0,"id":22886},"arcs":[482]},{"type":"LineString","properties":{"source":"naturalearthdata.com","kind":"highway","sort_rank":383,"kind_detail":"motorway","min_zoom":5.0,"id":22886},"arcs":[483]},{"type":"LineString","properties":{"source":"naturalearthdata.com","kind":"highway","sort_rank":383,"kind_detail":"motorway","min_zoom":5.0,"id":22898},"arcs":[484]},{"type":"LineString","properties":{"source":"naturalearthdata.com","kind":"highway","kind_detail":"motorway","sort_rank":383,"landuse_kind":"urban_area","min_zoom":3.0,"id":22908},"arcs":[485]},{"type":"LineString","properties":{"source":"naturalearthdata.com","kind":"highway","sort_rank":383,"kind_detail":"motorway","min_zoom":3.0,"id":22908},"arcs":[486]},{"type":"LineString","properties":{"source":"naturalearthdata.com","kind":"minor_road","kind_detail":"tertiary","sort_rank":355,"landuse_kind":"urban_area","min_zoom":5.0,"id":22931},"arcs":[487]},{"type":"LineString","properties":{"source":"naturalearthdata.com","kind":"minor_road","sort_rank":355,"kind_detail":"tertiary","min_zoom":5.0,"id":22931},"arcs":[488]},{"type":"LineString","properties":{"source":"naturalearthdata.com","kind":"minor_road","sort_rank":355,"kind_detail":"tertiary","min_zoom":5.0,"id":22942},"arcs":[489]},{"type":"LineString","properties":{"source":"naturalearthdata.com","kind":"highway","sort_rank":383,"kind_detail":"motorway","min_zoom":5.0,"id":22990},"arcs":[490]},{"type":"LineString","properties":{"source":"naturalearthdata.com","kind":"highway","kind_detail":"motorway","sort_rank":383,"landuse_kind":"urban_area","min_zoom":3.0,"id":23000},"arcs":[491]},{"type":"LineString","properties":{"source":"naturalearthdata.com","kind":"highway","kind_detail":"motorway","sort_rank":383,"landuse_kind":"urban_area","min_zoom":5.0,"id":23035},"arcs":[492]},{"type":"LineString","properties":{"source":"naturalearthdata.com","kind":"highway","kind_detail":"motorway","sort_rank":383,"landuse_kind":"urban_area","min_zoom":5.0,"id":23035},"arcs":[493]},{"type":"MultiLineString","properties":{"source":"naturalearthdata.com","kind":"highway","sort_rank":383,"kind_detail":"motorway","min_zoom":5.0,"id":23035},"arcs":[[494],[495]]},{"type":"LineString","properties":{"source":"naturalearthdata.com","kind":"highway","kind_detail":"motorway","sort_rank":383,"landuse_kind":"urban_area","min_zoom":3.0,"id":23041},"arcs":[496]},{"type":"LineString","properties":{"source":"naturalearthdata.com","kind":"highway","kind_detail":"motorway","sort_rank":383,"landuse_kind":"urban_area","min_zoom":3.0,"id":23042},"arcs":[497]},{"type":"LineString","properties":{"source":"naturalearthdata.com","kind":"minor_road","sort_rank":355,"kind_detail":"tertiary","min_zoom":5.0,"id":23044},"arcs":[498]},{"type":"LineString","properties":{"source":"naturalearthdata.com","kind":"highway","kind_detail":"motorway","sort_rank":383,"landuse_kind":"urban_area","min_zoom":5.0,"id":23058},"arcs":[499]},{"type":"LineString","properties":{"source":"naturalearthdata.com","kind":"highway","sort_rank":383,"kind_detail":"motorway","min_zoom":5.0,"id":23058},"arcs":[500]},{"type":"LineString","properties":{"source":"naturalearthdata.com","kind":"highway","kind_detail":"motorway","sort_rank":383,"landuse_kind":"urban_area","min_zoom":3.0,"id":23065},"arcs":[501]},{"type":"LineString","properties":{"source":"naturalearthdata.com","kind":"major_road","kind_detail":"secondary","sort_rank":379,"landuse_kind":"urban_area","min_zoom":3.0,"id":23085},"arcs":[502]},{"type":"LineString","properties":{"source":"naturalearthdata.com","kind":"highway","kind_detail":"motorway","sort_rank":383,"landuse_kind":"urban_area","min_zoom":5.0,"id":23090},"arcs":[503]},{"type":"LineString","properties":{"source":"naturalearthdata.com","kind":"highway","kind_detail":"motorway","sort_rank":383,"landuse_kind":"urban_area","min_zoom":5.0,"id":23090},"arcs":[504]},{"type":"LineString","properties":{"source":"naturalearthdata.com","kind":"highway","sort_rank":383,"kind_detail":"motorway","min_zoom":5.0,"id":23090},"arcs":[505]},{"type":"LineString","properties":{"source":"naturalearthdata.com","kind":"highway","kind_detail":"motorway","sort_rank":383,"landuse_kind":"urban_area","min_zoom":3.0,"id":23175},"arcs":[506]},{"type":"LineString","properties":{"source":"naturalearthdata.com","kind":"highway","kind_detail":"motorway","sort_rank":383,"landuse_kind":"urban_area","min_zoom":3.0,"id":23190},"arcs":[507]},{"type":"LineString","properties":{"source":"naturalearthdata.com","kind":"highway","sort_rank":383,"kind_detail":"motorway","min_zoom":3.0,"id":23190},"arcs":[508]},{"type":"LineString","properties":{"source":"naturalearthdata.com","kind":"minor_road","sort_rank":355,"kind_detail":"tertiary","min_zoom":5.0,"id":23235},"arcs":[509]},{"type":"LineString","properties":{"source":"naturalearthdata.com","kind":"highway","sort_rank":383,"kind_detail":"motorway","min_zoom":3.0,"id":23237},"arcs":[510]},{"type":"LineString","properties":{"source":"naturalearthdata.com","kind":"highway","kind_detail":"motorway","sort_rank":383,"landuse_kind":"urban_area","min_zoom":3.0,"id":23314},"arcs":[511]},{"type":"LineString","properties":{"source":"naturalearthdata.com","kind":"highway","sort_rank":383,"kind_detail":"motorway","min_zoom":3.0,"id":23314},"arcs":[512]},{"type":"LineString","properties":{"source":"naturalearthdata.com","kind":"highway","kind_detail":"motorway","sort_rank":383,"landuse_kind":"urban_area","min_zoom":5.0,"id":23368},"arcs":[513]},{"type":"LineString","properties":{"source":"naturalearthdata.com","kind":"highway","kind_detail":"motorway","sort_rank":383,"landuse_kind":"urban_area","min_zoom":5.0,"id":23368},"arcs":[514]},{"type":"LineString","properties":{"source":"naturalearthdata.com","kind":"highway","sort_rank":383,"kind_detail":"motorway","min_zoom":5.0,"id":23368},"arcs":[515]},{"type":"LineString","properties":{"source":"naturalearthdata.com","kind":"minor_road","kind_detail":"tertiary","sort_rank":355,"landuse_kind":"urban_area","min_zoom":5.0,"id":23374},"arcs":[516]},{"type":"LineString","properties":{"source":"naturalearthdata.com","kind":"minor_road","sort_rank":355,"kind_detail":"tertiary","min_zoom":5.0,"id":23374},"arcs":[517]},{"type":"LineString","properties":{"source":"naturalearthdata.com","kind":"highway","kind_detail":"motorway","sort_rank":383,"landuse_kind":"urban_area","min_zoom":5.0,"id":23389},"arcs":[518]},{"type":"LineString","properties":{"source":"naturalearthdata.com","kind":"minor_road","kind_detail":"tertiary","sort_rank":355,"landuse_kind":"urban_area","min_zoom":5.0,"id":23415},"arcs":[519]},{"type":"LineString","properties":{"source":"naturalearthdata.com","kind":"highway","kind_detail":"motorway","sort_rank":383,"landuse_kind":"urban_area","min_zoom":5.0,"id":23422},"arcs":[520]},{"type":"LineString","properties":{"source":"naturalearthdata.com","kind":"highway","sort_rank":383,"kind_detail":"motorway","min_zoom":5.0,"id":23422},"arcs":[521]},{"type":"LineString","properties":{"source":"naturalearthdata.com","kind":"minor_road","kind_detail":"tertiary","sort_rank":355,"landuse_kind":"urban_area","min_zoom":5.0,"id":23462},"arcs":[522]},{"type":"LineString","properties":{"source":"naturalearthdata.com","kind":"minor_road","kind_detail":"tertiary","sort_rank":355,"landuse_kind":"urban_area","min_zoom":5.0,"id":23475},"arcs":[523]},{"type":"MultiLineString","properties":{"source":"naturalearthdata.com","kind":"minor_road","sort_rank":355,"kind_detail":"tertiary","min_zoom":5.0,"id":23475},"arcs":[[524],[525]]},{"type":"LineString","properties":{"source":"naturalearthdata.com","kind":"highway","kind_detail":"motorway","sort_rank":383,"landuse_kind":"urban_area","min_zoom":5.0,"id":23513},"arcs":[526]},{"type":"LineString","properties":{"source":"naturalearthdata.com","kind":"highway","sort_rank":383,"kind_detail":"motorway","min_zoom":5.0,"id":23513},"arcs":[527]},{"type":"MultiLineString","properties":{"source":"naturalearthdata.com","kind":"highway","kind_detail":"motorway","sort_rank":383,"landuse_kind":"urban_area","min_zoom":3.0,"id":23525},"arcs":[[528],[529]]},{"type":"LineString","properties":{"source":"naturalearthdata.com","kind":"highway","kind_detail":"motorway","sort_rank":383,"landuse_kind":"urban_area","min_zoom":3.0,"id":23525},"arcs":[530]},{"type":"LineString","properties":{"source":"naturalearthdata.com","kind":"highway","kind_detail":"motorway","sort_rank":383,"landuse_kind":"urban_area","min_zoom":3.0,"id":23525},"arcs":[531]},{"type":"MultiLineString","properties":{"source":"naturalearthdata.com","kind":"highway","sort_rank":383,"kind_detail":"motorway","min_zoom":3.0,"id":23525},"arcs":[[532],[533],[534]]},{"type":"LineString","properties":{"source":"naturalearthdata.com","kind":"highway","sort_rank":383,"kind_detail":"motorway","min_zoom":5.0,"id":23534},"arcs":[535]},{"type":"LineString","properties":{"source":"naturalearthdata.com","kind":"major_road","kind_detail":"secondary","sort_rank":379,"landuse_kind":"urban_area","min_zoom":3.0,"id":23536},"arcs":[536]},{"type":"LineString","properties":{"source":"naturalearthdata.com","kind":"highway","kind_detail":"motorway","sort_rank":383,"landuse_kind":"urban_area","min_zoom":3.0,"id":23544},"arcs":[537]},{"type":"LineString","properties":{"source":"naturalearthdata.com","kind":"highway","kind_detail":"motorway","sort_rank":383,"landuse_kind":"urban_area","min_zoom":3.0,"id":23544},"arcs":[538]},{"type":"LineString","properties":{"source":"naturalearthdata.com","kind":"highway","sort_rank":383,"kind_detail":"motorway","min_zoom":3.0,"id":23544},"arcs":[539]},{"type":"LineString","properties":{"source":"naturalearthdata.com","kind":"highway","kind_detail":"motorway","sort_rank":383,"landuse_kind":"urban_area","min_zoom":3.0,"id":23555},"arcs":[540]},{"type":"LineString","properties":{"source":"naturalearthdata.com","kind":"major_road","kind_detail":"secondary","sort_rank":379,"landuse_kind":"urban_area","min_zoom":3.0,"id":23557},"arcs":[541]},{"type":"LineString","properties":{"source":"naturalearthdata.com","kind":"highway","kind_detail":"motorway","sort_rank":383,"landuse_kind":"urban_area","min_zoom":3.0,"id":23563},"arcs":[542]},{"type":"LineString","properties":{"source":"naturalearthdata.com","kind":"highway","sort_rank":383,"kind_detail":"motorway","min_zoom":3.0,"id":23563},"arcs":[543]},{"type":"LineString","properties":{"source":"naturalearthdata.com","kind":"highway","sort_rank":383,"kind_detail":"motorway","min_zoom":5.0,"id":23564},"arcs":[544]},{"type":"LineString","properties":{"source":"naturalearthdata.com","kind":"highway","sort_rank":383,"kind_detail":"motorway","min_zoom":5.0,"id":23567},"arcs":[545]},{"type":"LineString","properties":{"source":"naturalearthdata.com","kind":"minor_road","kind_detail":"tertiary","sort_rank":355,"landuse_kind":"urban_area","min_zoom":5.0,"id":23571},"arcs":[546]},{"type":"LineString","properties":{"source":"naturalearthdata.com","kind":"highway","kind_detail":"motorway","sort_rank":383,"landuse_kind":"urban_area","min_zoom":5.0,"id":23601},"arcs":[547]},{"type":"LineString","properties":{"source":"naturalearthdata.com","kind":"highway","sort_rank":383,"kind_detail":"motorway","min_zoom":5.0,"id":23601},"arcs":[548]},{"type":"LineString","properties":{"source":"naturalearthdata.com","kind":"highway","kind_detail":"motorway","sort_rank":383,"landuse_kind":"urban_area","min_zoom":4.0,"id":23610},"arcs":[549]},{"type":"LineString","properties":{"source":"naturalearthdata.com","kind":"highway","kind_detail":"motorway","sort_rank":383,"landuse_kind":"urban_area","min_zoom":3.0,"id":23614},"arcs":[550]},{"type":"MultiLineString","properties":{"source":"naturalearthdata.com","kind":"highway","sort_rank":383,"kind_detail":"motorway","min_zoom":3.0,"id":23614},"arcs":[[551],[552]]},{"type":"LineString","properties":{"source":"naturalearthdata.com","kind":"minor_road","kind_detail":"tertiary","sort_rank":355,"landuse_kind":"urban_area","min_zoom":5.0,"id":23618},"arcs":[553]},{"type":"LineString","properties":{"source":"naturalearthdata.com","kind":"minor_road","sort_rank":355,"kind_detail":"tertiary","min_zoom":5.0,"id":23618},"arcs":[554]},{"type":"LineString","properties":{"source":"naturalearthdata.com","kind":"highway","kind_detail":"motorway","sort_rank":383,"landuse_kind":"urban_area","min_zoom":3.0,"id":23619},"arcs":[555]},{"type":"LineString","properties":{"source":"naturalearthdata.com","kind":"highway","sort_rank":383,"kind_detail":"motorway","min_zoom":3.0,"id":23619},"arcs":[556]},{"type":"LineString","properties":{"source":"naturalearthdata.com","kind":"highway","kind_detail":"motorway","sort_rank":383,"landuse_kind":"urban_area","min_zoom":5.0,"id":23626},"arcs":[557]},{"type":"LineString","properties":{"source":"naturalearthdata.com","kind":"highway","kind_detail":"motorway","sort_rank":383,"landuse_kind":"urban_area","min_zoom":5.0,"id":23626},"arcs":[558]},{"type":"LineString","properties":{"source":"naturalearthdata.com","kind":"highway","sort_rank":383,"kind_detail":"motorway","min_zoom":5.0,"id":23626},"arcs":[559]},{"type":"LineString","properties":{"source":"naturalearthdata.com","kind":"highway","kind_detail":"motorway","sort_rank":383,"landuse_kind":"urban_area","min_zoom":5.0,"id":23661},"arcs":[560]},{"type":"LineString","properties":{"source":"naturalearthdata.com","kind":"highway","sort_rank":383,"kind_detail":"motorway","min_zoom":5.0,"id":23661},"arcs":[561]},{"type":"LineString","properties":{"source":"naturalearthdata.com","kind":"highway","kind_detail":"motorway","sort_rank":383,"landuse_kind":"urban_area","min_zoom":4.0,"id":23672},"arcs":[562]},{"type":"LineString","properties":{"source":"naturalearthdata.com","kind":"highway","kind_detail":"motorway","sort_rank":383,"landuse_kind":"urban_area","min_zoom":4.0,"id":23672},"arcs":[563]},{"type":"LineString","properties":{"source":"naturalearthdata.com","kind":"highway","sort_rank":383,"kind_detail":"motorway","min_zoom":4.0,"id":23672},"arcs":[564]},{"type":"LineString","properties":{"source":"naturalearthdata.com","kind":"highway","sort_rank":383,"kind_detail":"motorway","min_zoom":3.0,"id":23712},"arcs":[565]},{"type":"LineString","properties":{"source":"naturalearthdata.com","kind":"highway","kind_detail":"motorway","sort_rank":383,"landuse_kind":"urban_area","min_zoom":4.0,"id":23714},"arcs":[566]},{"type":"LineString","properties":{"source":"naturalearthdata.com","kind":"highway","sort_rank":383,"kind_detail":"motorway","min_zoom":4.0,"id":23714},"arcs":[567]},{"type":"LineString","properties":{"source":"naturalearthdata.com","kind":"highway","kind_detail":"motorway","sort_rank":383,"landuse_kind":"urban_area","min_zoom":5.0,"id":23715},"arcs":[568]},{"type":"LineString","properties":{"source":"naturalearthdata.com","kind":"highway","sort_rank":383,"kind_detail":"motorway","min_zoom":5.0,"id":23715},"arcs":[569]},{"type":"LineString","properties":{"source":"naturalearthdata.com","kind":"major_road","sort_rank":379,"kind_detail":"secondary","min_zoom":3.0,"id":23726},"arcs":[570]},{"type":"LineString","properties":{"source":"naturalearthdata.com","kind":"highway","kind_detail":"motorway","sort_rank":383,"landuse_kind":"urban_area","min_zoom":5.0,"id":23751},"arcs":[571]},{"type":"LineString","properties":{"source":"naturalearthdata.com","kind":"highway","sort_rank":383,"kind_detail":"motorway","min_zoom":5.0,"id":23751},"arcs":[572]},{"type":"LineString","properties":{"source":"naturalearthdata.com","kind":"highway","sort_rank":383,"kind_detail":"motorway","min_zoom":5.0,"id":23752},"arcs":[573]},{"type":"LineString","properties":{"source":"naturalearthdata.com","kind":"highway","kind_detail":"motorway","sort_rank":383,"landuse_kind":"urban_area","min_zoom":3.0,"id":23802},"arcs":[574]},{"type":"LineString","properties":{"source":"naturalearthdata.com","kind":"highway","kind_detail":"motorway","sort_rank":383,"landuse_kind":"urban_area","min_zoom":3.0,"id":23802},"arcs":[575]},{"type":"MultiLineString","properties":{"source":"naturalearthdata.com","kind":"highway","sort_rank":383,"kind_detail":"motorway","min_zoom":3.0,"id":23802},"arcs":[[576],[577]]},{"type":"LineString","properties":{"source":"naturalearthdata.com","kind":"highway","kind_detail":"motorway","sort_rank":383,"landuse_kind":"urban_area","min_zoom":3.0,"id":23814},"arcs":[578]},{"type":"LineString","properties":{"source":"naturalearthdata.com","kind":"highway","sort_rank":383,"kind_detail":"motorway","min_zoom":3.0,"id":23814},"arcs":[579]},{"type":"LineString","properties":{"source":"naturalearthdata.com","kind":"minor_road","kind_detail":"tertiary","sort_rank":355,"landuse_kind":"urban_area","min_zoom":5.0,"id":23827},"arcs":[580]},{"type":"LineString","properties":{"source":"naturalearthdata.com","kind":"minor_road","kind_detail":"tertiary","sort_rank":355,"landuse_kind":"urban_area","min_zoom":5.0,"id":23828},"arcs":[581]},{"type":"LineString","properties":{"source":"naturalearthdata.com","kind":"highway","kind_detail":"motorway","sort_rank":383,"landuse_kind":"urban_area","min_zoom":4.0,"id":23830},"arcs":[582]},{"type":"MultiLineString","properties":{"source":"naturalearthdata.com","kind":"highway","sort_rank":383,"kind_detail":"motorway","min_zoom":4.0,"id":23830},"arcs":[[583],[584]]},{"type":"LineString","properties":{"source":"naturalearthdata.com","kind":"highway","kind_detail":"motorway","sort_rank":383,"landuse_kind":"urban_area","min_zoom":4.0,"id":23839},"arcs":[585]},{"type":"LineString","properties":{"source":"naturalearthdata.com","kind":"highway","kind_detail":"motorway","sort_rank":383,"landuse_kind":"urban_area","min_zoom":4.0,"id":23839},"arcs":[586]},{"type":"LineString","properties":{"source":"naturalearthdata.com","kind":"highway","sort_rank":383,"kind_detail":"motorway","min_zoom":4.0,"id":23839},"arcs":[587]},{"type":"LineString","properties":{"source":"naturalearthdata.com","kind":"minor_road","kind_detail":"tertiary","sort_rank":355,"landuse_kind":"urban_area","min_zoom":5.0,"id":23848},"arcs":[588]},{"type":"LineString","properties":{"source":"naturalearthdata.com","kind":"minor_road","kind_detail":"tertiary","sort_rank":355,"landuse_kind":"urban_area","min_zoom":5.0,"id":23849},"arcs":[589]},{"type":"LineString","properties":{"source":"naturalearthdata.com","kind":"minor_road","kind_detail":"tertiary","sort_rank":355,"landuse_kind":"urban_area","min_zoom":5.0,"id":23849},"arcs":[590]},{"type":"LineString","properties":{"source":"naturalearthdata.com","kind":"minor_road","sort_rank":355,"kind_detail":"tertiary","min_zoom":5.0,"id":23849},"arcs":[591]},{"type":"LineString","properties":{"source":"naturalearthdata.com","kind":"highway","kind_detail":"motorway","sort_rank":383,"landuse_kind":"urban_area","min_zoom":4.0,"id":23916},"arcs":[592]},{"type":"LineString","properties":{"source":"naturalearthdata.com","kind":"highway","kind_detail":"motorway","sort_rank":383,"landuse_kind":"urban_area","min_zoom":4.0,"id":23916},"arcs":[593]},{"type":"MultiLineString","properties":{"source":"naturalearthdata.com","kind":"highway","sort_rank":383,"kind_detail":"motorway","min_zoom":4.0,"id":23916},"arcs":[[594],[595]]},{"type":"LineString","properties":{"source":"naturalearthdata.com","kind":"major_road","kind_detail":"secondary","sort_rank":379,"landuse_kind":"urban_area","min_zoom":4.0,"id":23922},"arcs":[596]},{"type":"LineString","properties":{"source":"naturalearthdata.com","kind":"major_road","kind_detail":"secondary","sort_rank":379,"landuse_kind":"urban_area","min_zoom":4.0,"id":23944},"arcs":[597]},{"type":"LineString","properties":{"source":"naturalearthdata.com","kind":"highway","kind_detail":"motorway","sort_rank":383,"landuse_kind":"urban_area","min_zoom":4.0,"id":23956},"arcs":[598]},{"type":"LineString","properties":{"source":"naturalearthdata.com","kind":"highway","sort_rank":383,"kind_detail":"motorway","min_zoom":4.0,"id":23956},"arcs":[599]},{"type":"LineString","properties":{"source":"naturalearthdata.com","kind":"major_road","kind_detail":"secondary","sort_rank":379,"landuse_kind":"urban_area","min_zoom":4.0,"id":24004},"arcs":[600]},{"type":"MultiLineString","properties":{"source":"naturalearthdata.com","kind":"major_road","kind_detail":"secondary","sort_rank":379,"landuse_kind":"urban_area","min_zoom":4.0,"id":24004},"arcs":[[601],[602]]},{"type":"MultiLineString","properties":{"source":"naturalearthdata.com","kind":"major_road","sort_rank":379,"kind_detail":"secondary","min_zoom":4.0,"id":24004},"arcs":[[603],[604]]},{"type":"LineString","properties":{"source":"naturalearthdata.com","kind":"highway","kind_detail":"motorway","sort_rank":383,"landuse_kind":"urban_area","min_zoom":3.0,"id":24082},"arcs":[605]},{"type":"LineString","properties":{"source":"naturalearthdata.com","kind":"highway","kind_detail":"motorway","sort_rank":383,"landuse_kind":"urban_area","min_zoom":3.0,"id":24082},"arcs":[606]},{"type":"LineString","properties":{"source":"naturalearthdata.com","kind":"highway","sort_rank":383,"kind_detail":"motorway","min_zoom":3.0,"id":24082},"arcs":[607]},{"type":"LineString","properties":{"source":"naturalearthdata.com","kind":"highway","kind_detail":"motorway","sort_rank":383,"landuse_kind":"urban_area","min_zoom":4.0,"id":24102},"arcs":[608]},{"type":"LineString","properties":{"source":"naturalearthdata.com","kind":"highway","sort_rank":383,"kind_detail":"motorway","min_zoom":4.0,"id":24102},"arcs":[609]},{"type":"LineString","properties":{"source":"naturalearthdata.com","kind":"highway","kind_detail":"motorway","sort_rank":383,"landuse_kind":"urban_area","min_zoom":3.0,"id":24108},"arcs":[610]},{"type":"LineString","properties":{"source":"naturalearthdata.com","kind":"highway","kind_detail":"motorway","sort_rank":383,"landuse_kind":"urban_area","min_zoom":3.0,"id":24157},"arcs":[611]},{"type":"LineString","properties":{"source":"naturalearthdata.com","kind":"highway","kind_detail":"motorway","sort_rank":383,"landuse_kind":"urban_area","min_zoom":3.0,"id":24157},"arcs":[612]},{"type":"LineString","properties":{"source":"naturalearthdata.com","kind":"highway","kind_detail":"motorway","sort_rank":383,"landuse_kind":"urban_area","min_zoom":3.0,"id":24157},"arcs":[613]},{"type":"MultiLineString","properties":{"source":"naturalearthdata.com","kind":"highway","sort_rank":383,"kind_detail":"motorway","min_zoom":3.0,"id":24157},"arcs":[[614],[615]]},{"type":"LineString","properties":{"source":"naturalearthdata.com","kind":"highway","kind_detail":"motorway","sort_rank":383,"landuse_kind":"urban_area","min_zoom":3.0,"id":24160},"arcs":[616]},{"type":"LineString","properties":{"source":"naturalearthdata.com","kind":"highway","kind_detail":"motorway","sort_rank":383,"landuse_kind":"urban_area","min_zoom":3.0,"id":24161},"arcs":[617]},{"type":"MultiLineString","properties":{"source":"naturalearthdata.com","kind":"highway","kind_detail":"motorway","sort_rank":383,"landuse_kind":"urban_area","min_zoom":3.0,"id":24164},"arcs":[[618],[619]]},{"type":"LineString","properties":{"source":"naturalearthdata.com","kind":"highway","sort_rank":383,"kind_detail":"motorway","min_zoom":3.0,"id":24164},"arcs":[620]},{"type":"LineString","properties":{"source":"naturalearthdata.com","kind":"minor_road","kind_detail":"tertiary","sort_rank":355,"landuse_kind":"urban_area","min_zoom":5.0,"id":24165},"arcs":[621]},{"type":"MultiLineString","properties":{"source":"naturalearthdata.com","kind":"highway","kind_detail":"motorway","sort_rank":383,"landuse_kind":"urban_area","min_zoom":3.0,"id":24190},"arcs":[[622],[623]]},{"type":"MultiLineString","properties":{"source":"naturalearthdata.com","kind":"highway","sort_rank":383,"kind_detail":"motorway","min_zoom":3.0,"id":24190},"arcs":[[624],[625]]},{"type":"LineString","properties":{"source":"naturalearthdata.com","kind":"highway","kind_detail":"motorway","sort_rank":383,"landuse_kind":"urban_area","min_zoom":3.0,"id":24195},"arcs":[626]},{"type":"LineString","properties":{"source":"naturalearthdata.com","kind":"highway","kind_detail":"motorway","sort_rank":383,"landuse_kind":"urban_area","min_zoom":3.0,"id":24196},"arcs":[627]},{"type":"LineString","properties":{"source":"naturalearthdata.com","kind":"highway","kind_detail":"motorway","sort_rank":383,"landuse_kind":"urban_area","min_zoom":3.0,"id":24199},"arcs":[628]},{"type":"MultiLineString","properties":{"source":"naturalearthdata.com","kind":"highway","kind_detail":"motorway","sort_rank":383,"landuse_kind":"urban_area","min_zoom":3.0,"id":24201},"arcs":[[629],[630],[631]]},{"type":"LineString","properties":{"source":"naturalearthdata.com","kind":"highway","kind_detail":"motorway","sort_rank":383,"landuse_kind":"urban_area","min_zoom":3.0,"id":24201},"arcs":[632]},{"type":"MultiLineString","properties":{"source":"naturalearthdata.com","kind":"highway","sort_rank":383,"kind_detail":"motorway","min_zoom":3.0,"id":24201},"arcs":[[633],[634],[635]]},{"type":"LineString","properties":{"source":"naturalearthdata.com","kind":"highway","kind_detail":"motorway","sort_rank":383,"landuse_kind":"urban_area","min_zoom":3.0,"id":24212},"arcs":[636]},{"type":"LineString","properties":{"source":"naturalearthdata.com","kind":"highway","kind_detail":"motorway","sort_rank":383,"landuse_kind":"urban_area","min_zoom":3.0,"id":24212},"arcs":[637]},{"type":"LineString","properties":{"source":"naturalearthdata.com","kind":"highway","sort_rank":383,"kind_detail":"motorway","min_zoom":3.0,"id":24212},"arcs":[638]},{"type":"LineString","properties":{"source":"naturalearthdata.com","kind":"major_road","kind_detail":"secondary","sort_rank":379,"landuse_kind":"urban_area","min_zoom":3.0,"id":24226},"arcs":[639]},{"type":"MultiLineString","properties":{"source":"naturalearthdata.com","kind":"minor_road","kind_detail":"tertiary","sort_rank":355,"landuse_kind":"urban_area","min_zoom":6.0,"id":24228},"arcs":[[640],[641]]},{"type":"LineString","properties":{"source":"naturalearthdata.com","kind":"minor_road","sort_rank":355,"kind_detail":"tertiary","min_zoom":6.0,"id":24228},"arcs":[642]},{"type":"LineString","properties":{"source":"naturalearthdata.com","kind":"minor_road","kind_detail":"tertiary","sort_rank":355,"landuse_kind":"urban_area","min_zoom":5.0,"id":24229},"arcs":[643]},{"type":"LineString","properties":{"source":"naturalearthdata.com","kind":"minor_road","kind_detail":"tertiary","sort_rank":355,"landuse_kind":"urban_area","min_zoom":6.0,"id":24231},"arcs":[644]},{"type":"LineString","properties":{"source":"naturalearthdata.com","kind":"minor_road","kind_detail":"tertiary","sort_rank":355,"landuse_kind":"urban_area","min_zoom":5.0,"id":24247},"arcs":[645]},{"type":"LineString","properties":{"source":"naturalearthdata.com","kind":"highway","kind_detail":"motorway","sort_rank":383,"landuse_kind":"urban_area","min_zoom":3.0,"id":24271},"arcs":[646]},{"type":"LineString","properties":{"source":"naturalearthdata.com","kind":"minor_road","kind_detail":"tertiary","sort_rank":355,"landuse_kind":"urban_area","min_zoom":5.0,"id":24286},"arcs":[647]},{"type":"LineString","properties":{"source":"naturalearthdata.com","kind":"highway","kind_detail":"motorway","sort_rank":383,"landuse_kind":"urban_area","min_zoom":3.0,"id":24310},"arcs":[648]},{"type":"LineString","properties":{"source":"naturalearthdata.com","kind":"highway","sort_rank":383,"kind_detail":"motorway","min_zoom":3.0,"id":24310},"arcs":[649]},{"type":"MultiLineString","properties":{"source":"naturalearthdata.com","kind":"highway","kind_detail":"motorway","sort_rank":383,"landuse_kind":"urban_area","min_zoom":5.0,"id":24393},"arcs":[[650],[651],[652]]},{"type":"MultiLineString","properties":{"source":"naturalearthdata.com","kind":"highway","sort_rank":383,"kind_detail":"motorway","min_zoom":5.0,"id":24393},"arcs":[[653],[654]]},{"type":"LineString","properties":{"source":"naturalearthdata.com","kind":"highway","kind_detail":"motorway","sort_rank":383,"landuse_kind":"urban_area","min_zoom":3.0,"id":24410},"arcs":[655]},{"type":"LineString","properties":{"source":"naturalearthdata.com","kind":"highway","kind_detail":"motorway","sort_rank":383,"landuse_kind":"urban_area","min_zoom":3.0,"id":24410},"arcs":[656]},{"type":"MultiLineString","properties":{"source":"naturalearthdata.com","kind":"highway","sort_rank":383,"kind_detail":"motorway","min_zoom":3.0,"id":24410},"arcs":[[657],[658]]},{"type":"LineString","properties":{"source":"naturalearthdata.com","kind":"highway","kind_detail":"motorway","sort_rank":383,"landuse_kind":"urban_area","min_zoom":5.0,"id":24412},"arcs":[659]},{"type":"LineString","properties":{"source":"naturalearthdata.com","kind":"highway","sort_rank":383,"kind_detail":"motorway","min_zoom":5.0,"id":24412},"arcs":[660]},{"type":"LineString","properties":{"source":"naturalearthdata.com","kind":"highway","kind_detail":"motorway","sort_rank":383,"landuse_kind":"urban_area","min_zoom":3.0,"id":24413},"arcs":[661]},{"type":"MultiLineString","properties":{"source":"naturalearthdata.com","kind":"highway","kind_detail":"motorway","sort_rank":383,"landuse_kind":"urban_area","min_zoom":3.0,"id":24413},"arcs":[[662],[663]]},{"type":"MultiLineString","properties":{"source":"naturalearthdata.com","kind":"highway","sort_rank":383,"kind_detail":"motorway","min_zoom":3.0,"id":24413},"arcs":[[664],[665]]},{"type":"LineString","properties":{"source":"naturalearthdata.com","kind":"highway","kind_detail":"motorway","sort_rank":383,"landuse_kind":"urban_area","min_zoom":3.0,"id":24433},"arcs":[666]},{"type":"LineString","properties":{"source":"naturalearthdata.com","kind":"highway","sort_rank":383,"kind_detail":"motorway","min_zoom":3.0,"id":24433},"arcs":[667]},{"type":"MultiLineString","properties":{"source":"naturalearthdata.com","kind":"highway","kind_detail":"motorway","sort_rank":383,"landuse_kind":"urban_area","min_zoom":3.0,"id":24440},"arcs":[[668],[669]]},{"type":"LineString","properties":{"source":"naturalearthdata.com","kind":"highway","sort_rank":383,"kind_detail":"motorway","min_zoom":3.0,"id":24440},"arcs":[670]}]},"earth":{"type":"GeometryCollection","geometries":[{"type":"MultiPolygon","properties":{"sort_rank":10,"source":"naturalearthdata.com","min_zoom":0.0,"kind":"earth","area":84678131468},"arcs":[[[671]],[[672]],[[673]],[[674]],[[675]],[[676]],[[677]],[[678]],[[679]],[[680]],[[681]],[[682]],[[683]],[[684]],[[685]],[[686]],[[687]],[[688]],[[689]]]}]},"landuse":{"type":"GeometryCollection","geometries":[{"type":"Polygon","properties":{"source":"openstreetmap.org","kind":"park","area":1051729984,"tier":2,"id":35355072,"min_zoom":4.0,"sort_rank":24},"arcs":[[690]]},{"type":"Polygon","properties":{"kind":"park","area":710014976,"sort_rank":24,"source":"openstreetmap.org","min_zoom":6.0,"tier":2,"id":-5638675,"osm_relation":true},"arcs":[[691]]},{"type":"MultiPolygon","properties":{"source":"naturalearthdata.com","kind":"urban_area","name":"","area":17639026603,"sort_rank":11,"min_zoom":4.0},"arcs":[[[692]],[[693]],[[694]],[[695]],[[696]],[[697]],[[698]],[[699]],[[700]],[[701]],[[702]],[[703]],[[704]],[[705]],[[706]],[[707],[708]],[[709]],[[710]],[[711],[712]],[[713]],[[714]],[[715]],[[716]],[[717]],[[718]],[[719]],[[720]],[[721]],[[722]],[[723]],[[724]],[[725]],[[726]],[[727]],[[728]],[[729]],[[730]],[[731]],[[732]],[[733],[734]],[[735]],[[736]],[[737]],[[738]],[[739]],[[740]],[[741]],[[742]],[[743]],[[744]],[[745]],[[746]],[[747]],[[748]],[[749]],[[750]],[[751]],[[752]],[[753]],[[754]],[[755]],[[756]],[[757]],[[758]],[[759]],[[760],[761],[762],[763]],[[764]],[[765]],[[766]],[[767]],[[768]]]},{"type":"MultiPolygon","properties":{"kind":"protected_area","protect_class":"2","area":749409501,"sort_rank":17,"source":"openstreetmap.org","min_zoom":6.0,"tier":2,"osm_relation":true},"arcs":[[[769]],[[770]]]},{"type":"MultiPolygon","properties":{"source":"openstreetmap.org","kind":"park","tier":2,"area":444043975,"sort_rank":24,"min_zoom":7.0},"arcs":[[[771]],[[772]],[[773]],[[774]]]},{"type":"MultiPolygon","properties":{"source":"openstreetmap.org","kind":"park","tier":2,"area":2228440917,"sort_rank":24,"min_zoom":6.0},"arcs":[[[775]],[[776]],[[777]],[[778]],[[779]],[[780]],[[781]]]}]}},"type":"Topology","transform":{"translate":[126.5625,34.3071438563],"scale":[0.0006866455,0.000559264]},"arcs":[[[3805,2459],[50,-11],[51,-22],[14,-22],[0,-26],[4,-24],[18,-13],[24,-7]],[[3562,2275],[35,28],[38,22],[22,1],[9,17],[-14,23],[-8,26],[49,38],[62,21],[50,8]],[[3966,2334],[130,24]],[[1792,2681],[36,11],[73,38],[14,38],[53,57]],[[1773,2683],[19,-2]],[[1536,1734],[31,31],[2,44],[10,48],[61,73],[8,49],[-21,14],[-15,34],[3,45],[-16,42],[-3,23],[-5,20],[-38,16],[2,45],[20,41],[13,56],[17,54],[22,42],[19,40],[4,55],[16,47],[33,29],[32,33],[27,59],[15,9]],[[1968,2825],[12,-40],[29,-17],[14,-10],[13,-11],[1,-15],[6,-14],[12,-5],[12,-4],[44,-4],[19,-16],[24,-16],[42,-3]],[[2237,2671],[38,-13],[27,-30],[20,-37],[32,-23],[8,-16],[5,-16],[22,-14],[20,-22],[-1,-43],[-18,-40],[23,-82],[90,-4]],[[2196,2670],[41,1]],[[2895,2384],[12,-99],[36,-45],[46,-29]],[[2825,2307],[36,51],[34,26]],[[2547,2337],[42,-7],[40,-19],[37,-28],[41,-8]],[[2503,2331],[44,6]],[[2785,2315],[40,-8]],[[2707,2275],[78,40]],[[3423,2296],[56,-14],[42,-21]],[[3244,2187],[47,37],[21,8],[21,3],[20,17],[17,22],[53,22]],[[3521,2261],[41,14]],[[3096,2227],[48,-15],[45,-24],[55,-1]],[[2989,2211],[53,6],[54,10]],[[3562,2275],[6,-71],[-36,-73],[22,-45],[90,-13],[37,-29],[63,-72],[75,-42],[34,-26],[9,-49],[32,-32],[42,-15],[5,-5]],[[1536,1734],[-7,-39],[30,-36],[14,-46],[6,-95],[20,-35],[36,-27],[32,-34],[13,-38],[16,-33],[90,-99],[20,-49],[0,-33],[4,-8]],[[3941,1803],[27,-23]],[[1539,3080],[12,-15],[14,-13]],[[1586,3068],[25,-15],[22,-26],[65,-21],[13,-17],[24,-6]],[[1565,3052],[12,3],[9,13]],[[1878,3004],[19,17],[18,19]],[[1835,3035],[22,-20],[21,-11]],[[1735,2983],[47,28],[53,24]],[[1222,3776],[-44,12],[6,32],[-9,20],[-12,6],[-11,11],[-5,13],[4,14]],[[1340,3697],[-16,47],[-2,32],[-18,9],[3,21],[-21,5]],[[1286,3811],[-17,-25],[-47,-10]],[[1151,3884],[6,17],[3,19],[-2,9],[-1,9],[-5,11],[3,14],[7,17],[1,19],[-110,7]],[[1053,4006],[-108,-21]],[[803,3127],[-31,47],[13,79],[-54,11]],[[731,3264],[-150,-47],[-82,-18],[-70,-7],[-66,-80]],[[1351,2993],[-84,11],[-6,14],[10,21],[-9,17],[-18,5],[-49,24],[-65,118],[-47,41]],[[1083,3244],[-24,-25],[-19,-31],[-31,-6],[-21,-9],[-21,-7],[-80,-16],[-41,-15],[-43,-8]],[[1539,3080],[-35,-35],[-35,-31],[-43,-12],[-43,-1],[-32,-8]],[[956,3843],[78,-121],[27,-51],[7,-130],[30,-97]],[[1098,3444],[72,18],[63,47],[21,7],[38,31],[21,77],[19,31],[8,42]],[[756,4096],[4,-196],[-23,-21],[-13,-37],[133,-26]],[[857,3816],[99,27]],[[1383,3740],[20,-9],[19,-6],[-6,-31],[-23,-18],[-15,-27],[-13,-30],[-33,-59],[-18,-69],[-2,-49],[3,-51]],[[1340,3697],[19,25],[24,18]],[[1362,3401],[44,-14],[44,-27],[15,-54],[-2,-61],[13,-62],[30,-52],[33,-51]],[[1315,3391],[47,10]],[[945,3985],[7,55],[18,51],[0,5]],[[1968,2825],[7,114],[-60,101]],[[1867,4096],[-17,-23],[-21,-22],[-22,-4],[-21,-10],[16,-41],[57,-10],[72,-102],[-27,-25],[-14,-41],[-6,-98],[-9,-43],[9,-31],[16,-28],[-21,-41],[-32,-28],[9,-85]],[[1915,3478],[35,-11],[41,-34],[28,-14]],[[1856,3464],[59,14]],[[2094,3437],[33,-24],[16,-93]],[[2019,3419],[75,18]],[[2143,3320],[-31,2],[-35,6]],[[2077,3328],[-35,-30],[8,-48],[0,-25],[-3,-29],[-14,-17],[-11,-20],[-12,-46],[-23,-43],[-36,-13],[-36,-17]],[[608,1923],[-68,93],[-45,36],[-25,11],[-27,2]],[[443,2065],[-24,-29]],[[419,2036],[-49,5]],[[370,2041],[-37,-33],[0,-24],[1,-24],[-13,-21],[-18,-13],[1,-19],[3,-18],[-13,-26],[-19,-17],[-24,-11],[-25,-7],[-21,-13],[-19,-15],[-49,-7],[-46,-17],[-44,-11]],[[876,1739],[-54,8],[-35,38],[2,59],[-30,34],[-9,33],[13,51],[-29,45]],[[734,2007],[-43,-2],[-11,-19],[-14,-13],[-9,-24],[-4,-25],[-45,-1]],[[47,1765],[-36,12],[2,49],[9,48],[9,66],[-31,8]],[[1536,1734],[-83,67],[-93,34]],[[1360,1835],[-53,-30],[-42,-46],[-46,-6],[-48,-1],[-53,-7]],[[1118,1745],[-53,1],[-25,15],[-22,17]],[[1018,1778],[-26,-7]],[[992,1771],[-30,1]],[[962,1772],[-44,-7],[-42,-26]],[[616,1666],[-75,28]],[[3173,2757],[23,23],[8,28],[-1,31],[-3,28],[-16,13],[-11,18],[-1,45],[7,12],[1,14],[-19,32],[-58,43]],[[3103,3044],[-77,-5],[-93,-13],[-68,-56],[9,-82],[-25,-27],[-16,-35],[14,-3],[13,-4],[-3,-18],[-6,-17],[-23,-4],[-22,0],[-20,-28],[8,-33],[23,-9],[21,-21],[18,-33],[25,-21],[18,-11],[14,-11]],[[3162,2760],[11,-3]],[[3097,2648],[32,20],[4,16],[1,12],[13,36],[2,15],[-1,12],[14,1]],[[2965,2675],[47,-5],[85,-22]],[[2913,2613],[11,9],[20,36],[21,17]],[[3840,1531],[-3,7],[-29,30],[-26,34],[-34,27],[-26,36],[-8,40],[-28,18],[-37,1]],[[3649,1724],[-35,-13],[-27,-21],[-21,-25],[-15,-106],[-21,-32],[-22,-27],[-12,-23]],[[411,1687],[-32,-30]],[[1117,3886],[34,-2]],[[956,3843],[67,18],[94,25]],[[541,1694],[-40,-12],[-38,-9]],[[463,1673],[-52,14]],[[588,1507],[58,77],[-30,82]],[[379,1657],[40,-88],[79,-47],[90,-15]],[[541,1694],[-40,-12],[-38,-9]],[[463,1673],[-52,14]],[[588,1507],[58,77],[-30,82]],[[379,1657],[40,-88],[79,-47],[90,-15]],[[4042,3139],[-66,-106],[-48,-10],[-45,-71]],[[3883,2952],[45,71],[47,9],[67,107]],[[3169,2764],[-78,5],[-71,46]],[[3175,2764],[-6,0]],[[3753,2262],[56,158],[15,126],[-39,96],[-144,98],[-87,29],[-379,-5]],[[3613,1448],[2,5]],[[3625,1471],[-10,-18]],[[3625,1471],[22,72],[-18,109],[102,191],[21,400]],[[3443,2909],[4,44]],[[3432,2960],[-26,40]],[[3432,2960],[67,-6],[2,-28],[67,-59]],[[3571,2863],[124,-100]],[[3855,2803],[-11,-2]],[[3866,2788],[-8,10]],[[3657,1577],[14,14]],[[3799,1566],[-20,-8]],[[3779,1558],[-24,-16]],[[3755,1542],[-1,0],[-1,0],[-1,1]],[[3752,1543],[3,-1]],[[3779,1558],[25,7]],[[3804,1565],[8,-3]],[[3808,1563],[-1,1]],[[3812,1562],[30,8]],[[3842,1570],[5,10]],[[3843,1572],[1,1]],[[3844,1573],[1,3],[1,1]],[[3846,1577],[0,1]],[[3846,1577],[0,-1],[-2,-3]],[[3847,1580],[2,4],[1,1],[2,4]],[[3852,1589],[2,2]],[[3854,1591],[4,48],[4,19],[1,2],[4,6],[1,2],[1,7]],[[3869,1675]],[[3869,1675],[0,9],[2,8],[0,2],[1,3],[2,2],[3,4],[2,2],[7,5],[3,7]],[[3889,1717],[0,1]],[[3889,1718],[2,9],[-1,10],[1,14]],[[3871,1694],[-2,-19]],[[3869,1675]],[[3869,1675],[-1,-7],[-10,-29],[-4,-48]],[[3854,1591],[-2,-2]],[[3852,1589],[-3,-5]],[[3871,1694],[16,15],[1,2],[0,2]],[[3888,1713],[-1,-2],[-1,-2],[-1,-1],[-6,-3],[-3,-3],[-5,-8]],[[3890,1720],[0,-2]],[[3890,1718],[-1,-1]],[[3889,1717],[0,-1]],[[3889,1716],[-1,-3]],[[3890,1720],[0,-2]],[[3890,1718],[-1,-1]],[[3889,1717],[0,-1]],[[3891,1751],[-1,-15],[1,-7],[1,-2],[-1,-1],[-1,-4]],[[4069,2209],[-87,-99],[-25,-111],[19,-142],[-74,-64],[-11,-42]],[[3843,1572]],[[3843,1572],[1,1],[1,3],[1,2]],[[3846,1578],[-3,-6]],[[3852,1589]],[[3852,1589]],[[3854,1591]],[[3854,1591],[-2,-2]],[[3868,1675],[1,0]],[[3869,1675]],[[3869,1675]],[[3869,1675],[-1,0]],[[3890,1717],[0,1]],[[3890,1718]],[[3890,1718],[-1,0]],[[3889,1717]],[[3889,1717]],[[3889,1717],[1,0]],[[3493,1404],[17,-5]],[[3510,1399],[3,0]],[[3513,1399],[4,-12]],[[3517,1387],[0,-3]],[[3517,1384],[-1,-10]],[[3516,1374],[0,-3]],[[3516,1371],[5,-14]],[[3521,1357],[-1,-3]],[[3520,1354],[-11,-11]],[[3509,1343],[-1,-2]],[[3508,1341],[-6,-16]],[[3502,1325],[-3,0]],[[3499,1325],[-6,3]],[[3493,1404],[0,8],[0,3],[0,-3],[0,-8]],[[3502,1325]],[[3499,1325],[3,0]],[[3509,1343],[-1,-2]],[[3509,1343]],[[3510,1400],[3,-1]],[[3510,1399],[0,1]],[[3517,1374],[-1,-3]],[[3516,1374],[1,0]],[[3517,1387],[0,-3]],[[3517,1387]],[[3521,1357],[-1,-3]],[[3521,1357]],[[3683,1700],[0,-3],[0,3]],[[3685,1714],[-1,-2],[1,0],[0,2]],[[3492,1409]],[[3492,1410]],[[3492,1408]],[[3494,1409],[-1,0]],[[3493,1409]],[[3493,1409]],[[3494,1410],[0,-1]],[[3494,1409]],[[3665,1618],[-1,0]],[[3664,1607]],[[3664,1606]],[[3664,1607],[1,0]],[[3664,1606],[1,0]],[[3665,1618],[0,1]],[[3666,1618]],[[3666,1620]],[[3683,1698],[0,-16]],[[3683,1682]],[[3683,1682],[0,-2]],[[3683,1680]],[[3683,1680],[-5,-14]],[[3678,1666],[0,-1],[1,-2]],[[3679,1663],[1,-12]],[[3680,1651],[0,-3]],[[3680,1648],[-4,-14]],[[3676,1634],[-1,-3]],[[3675,1631],[-3,-5],[-4,-3],[0,-1],[-1,-2]],[[3667,1620],[-2,-2]],[[3665,1618],[-1,-10]],[[3664,1608],[0,-3]],[[3664,1605],[2,-13]],[[3666,1591],[-2,14]],[[3664,1605],[0,3]],[[3664,1608],[1,10]],[[3665,1618],[2,2]],[[3667,1620],[5,6],[3,5]],[[3675,1631],[1,3]],[[3676,1634],[4,14]],[[3680,1648],[0,3]],[[3680,1651],[-1,12]],[[3679,1663],[-1,3]],[[3678,1666],[4,9],[1,1],[0,4]],[[3683,1680]],[[3683,1680],[0,2]],[[3683,1682]],[[3683,1682],[1,10],[-1,6]],[[3666,1620],[1,0]],[[3675,1632]],[[3676,1634]],[[3676,1634],[-1,1]],[[3676,1634]],[[3676,1634]],[[3676,1634],[0,1]],[[3676,1634],[1,0]],[[3678,1665]],[[3678,1664]],[[3678,1665],[1,0]],[[3678,1664],[1,0]],[[3680,1651]],[[3680,1649]],[[3680,1651]],[[3680,1649],[1,0]],[[3682,1680],[1,0]],[[3683,1682]],[[3683,1680]],[[3683,1698],[2,36]],[[3683,1682]],[[3685,1734],[2,3]],[[3685,1734],[6,20]],[[3685,1734],[2,8],[2,6],[2,6]],[[3493,1408],[-1,0]],[[3492,1408],[0,1]],[[3492,1409],[0,1]],[[3492,1410],[1,-1]],[[3493,1409],[0,-1]],[[3664,1605]],[[3664,1605]],[[3664,1605],[0,1]],[[3664,1606],[0,1]],[[3664,1607],[0,1]],[[3664,1608]],[[3664,1608],[0,-1]],[[3664,1607],[0,-1]],[[3664,1606],[0,-1]],[[3665,1618],[1,0]],[[3666,1618],[0,2]],[[3666,1620],[1,0]],[[3667,1620]],[[3667,1620],[-1,0]],[[3666,1620],[-1,-2]],[[3665,1618]],[[3665,1618]],[[3665,1618]],[[3665,1618]],[[3675,1631],[1,3]],[[3676,1634]],[[3676,1634]],[[3676,1634]],[[3676,1634]],[[3676,1634],[-1,-2]],[[3675,1632],[0,-1]],[[3675,1631]],[[3675,1631]],[[3679,1663]],[[3679,1663]],[[3679,1663],[-1,1]],[[3678,1664],[0,1]],[[3678,1665],[0,1]],[[3678,1666]],[[3678,1666],[0,-1]],[[3678,1665],[0,-1]],[[3678,1664],[1,-1]],[[3680,1651]],[[3680,1651]],[[3680,1651]],[[3680,1651],[0,-2]],[[3680,1649],[0,-1]],[[3680,1648]],[[3680,1648],[0,1]],[[3680,1649],[0,2]],[[3680,1651]],[[3683,1680]],[[3683,1680]],[[3683,1680]],[[3683,1680]],[[3683,1680]],[[3683,1680]],[[3683,1680],[0,2]],[[3683,1682]],[[3683,1682]],[[3683,1682]],[[3683,1682]],[[3683,1682]],[[3683,1682]],[[3683,1682]],[[3683,1682],[0,-2]],[[3683,1680]],[[3683,1682]],[[3683,1682]],[[3683,1682]],[[3683,1680]],[[3683,1680]],[[3683,1680]],[[3638,1533],[9,7],[0,2],[1,11],[0,1],[0,2],[5,15],[1,2],[3,4]],[[3657,1577],[2,2]],[[3659,1579],[23,13]],[[3682,1592],[2,-1]],[[3684,1591],[11,-2]],[[3695,1589],[3,0]],[[3698,1589],[6,0],[1,0],[2,-1],[5,-2],[9,-2],[1,0],[1,-1],[1,-1],[0,-1],[2,-12],[4,-7]],[[3730,1562],[3,-5]],[[3733,1557],[14,-11]],[[3747,1546],[2,-1]],[[3749,1545],[6,-3]],[[3755,1542],[24,16]],[[3779,1558],[33,4]],[[3753,1542],[-4,3]],[[3749,1545],[-2,1]],[[3747,1546],[-10,6],[-2,1],[-2,4]],[[3733,1557],[-3,5]],[[3730,1562],[-32,27]],[[3698,1589],[-3,0]],[[3695,1589],[-6,1],[-2,0],[-3,1]],[[3684,1591],[-2,1]],[[3682,1592],[-23,-13]],[[3659,1579],[-2,-2]],[[3657,1577],[-10,-37],[-9,-7]],[[3799,1566],[-20,-8]],[[3755,1542],[-1,0]],[[3658,1577],[1,2]],[[3659,1579]],[[3657,1577]],[[3657,1577],[1,0]],[[3681,1592],[3,-1]],[[3684,1591]],[[3682,1592]],[[3682,1592],[-1,0]],[[3695,1589],[3,0]],[[3698,1589]],[[3695,1589]],[[3695,1589]],[[3729,1562],[4,-5]],[[3733,1557]],[[3730,1562]],[[3730,1562],[-1,0]],[[3749,1545]],[[3749,1545]],[[3747,1546]],[[3747,1546],[2,-1]],[[3206,2103],[31,-31],[21,-49],[2,-52],[94,-19],[24,-45],[129,-73],[62,-84],[-38,-211],[16,-28],[84,-8],[2,-22],[-22,-37]],[[2964,2804],[-4,1],[1,1],[3,-1],[0,-1]],[[3009,2813],[0,-2],[2,-1],[-1,2],[-1,1]],[[3201,2230],[0,5],[0,-5]],[[3214,2090],[5,-3],[-5,3]],[[3319,1952],[7,1],[-7,-1]],[[3527,1789],[3,-3],[-3,3]],[[3548,1608],[-1,-1],[-4,-4],[1,0],[4,5]],[[3610,1442],[0,1],[3,6],[-2,-6],[-1,-1]],[[4096,20],[0,-20],[-11,0],[1,1],[10,19]],[[4096,2060],[0,-1455],[-20,4],[-36,1],[-19,0],[-23,-80],[-6,-30],[-21,-30],[3,-25],[25,8],[25,-32],[1,-13],[-31,-27],[-23,-59],[-19,-45],[7,-20],[18,4],[23,25],[3,-12],[-20,-23],[-8,-12],[-7,4],[-15,-3],[-12,-15],[8,-36],[-2,-66],[-19,-11],[-35,-3],[-10,-22],[28,-7],[35,8],[21,-22],[10,9],[-9,30],[15,20],[17,13],[-6,-21],[-1,-19],[1,-34],[16,-1],[27,33],[18,-9],[-3,-51],[-35,12],[-22,-16],[24,-32],[-29,0],[0,1],[-19,18],[-13,9],[-16,-1],[2,-12],[7,-14],[-20,0],[-1,-1],[-54,0],[1,10],[6,14],[-5,12],[-26,4],[-13,-24],[-1,-16],[-3224,0],[7,1],[29,21],[7,10],[-1,12],[-15,10],[-8,3],[-36,-2],[-19,-11],[-5,-11],[0,-16],[7,-8],[7,-5],[3,-4],[-168,0],[2,2],[8,7],[13,3],[13,-3],[9,10],[1,13],[3,6],[8,10],[3,13],[-13,8],[-21,5],[-16,1],[-6,-1],[-6,0],[-11,3],[-8,6],[-15,-3],[-20,-17],[-16,-7],[-13,7],[-12,2],[-5,-3],[-6,-4],[-15,-4],[-15,-2],[2,-6],[32,-15],[6,-3],[5,-3],[14,0],[18,6],[15,2],[11,-5],[8,-11],[3,-13],[2,-4],[-106,0],[-1,4],[-26,27],[-5,15],[-8,11],[-4,13],[-4,28],[-14,35],[-17,20],[-16,11],[-17,6],[-25,-3],[-9,-2],[-15,-8],[-12,-17],[-6,-22],[-1,-23],[2,-22],[4,-19],[10,-14],[17,-11],[19,-5],[15,4],[13,-4],[3,-13],[-13,-10],[0,-1],[-125,0],[0,9],[3,17],[36,121],[6,11],[16,14],[43,11],[11,8],[8,18],[0,13],[4,8],[19,3],[7,-2],[14,-8],[9,-2],[4,4],[2,9],[-1,9],[-5,4],[-22,8],[21,20],[56,33],[-33,42],[-6,21],[45,16],[0,15],[-9,21],[-6,25],[5,17],[12,19],[16,15],[15,5],[17,-13],[10,-24],[1,-27],[-8,-22],[6,-35],[-6,-91],[11,-34],[13,-8],[56,-17],[41,-29],[19,-6],[-9,21],[0,19],[6,17],[13,16],[38,-20],[14,13],[-3,74],[81,80],[-11,23],[6,19],[14,16],[10,15],[2,20],[0,20],[2,15],[11,6],[18,4],[18,11],[29,23],[54,31],[11,10],[27,35],[16,15],[17,6],[36,-7],[18,-1],[21,8],[20,25],[30,77],[20,32],[36,-58],[27,-22],[31,13],[28,22],[10,-14],[8,-32],[20,-31],[-11,-18],[-20,-44],[-9,-12],[-23,-9],[-17,6],[-12,16],[-9,24],[8,17],[-3,14],[-10,11],[-15,8],[-42,-47],[-7,-14],[1,-28],[8,-13],[12,-12],[8,-21],[1,-53],[-22,-29],[-35,-14],[-43,-2],[21,52],[8,29],[1,30],[-21,-11],[-11,-13],[-18,-39],[-29,-39],[-11,-9],[-32,-20],[-9,-15],[2,-26],[13,-26],[20,-11],[22,-4],[24,-8],[-4,7],[-6,18],[58,31],[17,4],[54,-60],[21,-43],[59,-80],[41,1],[-19,20],[-4,31],[42,32],[26,-12],[25,35],[69,65],[-30,26],[-56,-15],[-12,8],[-21,5],[-17,37],[-3,6],[8,13],[20,15],[23,11],[19,3],[22,-7],[66,-41],[18,4],[28,-1],[15,13],[14,13],[-5,37],[-8,20],[-62,25],[11,2],[25,0],[15,-2],[-31,45],[-45,29],[-43,38],[-20,72],[4,4],[8,2],[3,7],[-10,17],[-15,6],[-27,-11],[-13,10],[6,25],[31,17],[62,20],[0,12],[-31,9],[-38,16],[-19,16],[24,7],[63,-1],[29,3],[49,18],[8,1],[5,3],[9,14],[25,64],[5,4],[4,7],[6,-2],[7,-8],[3,-10],[-1,-9],[-7,-18],[-1,-10],[4,-18],[22,-46],[-4,-7],[-3,-11],[1,-9],[7,-8],[9,-1],[8,-1],[6,-3],[23,-51],[12,-17],[6,-30],[-13,-35],[-19,-37],[-9,-38],[7,-40],[17,-27],[26,-14],[34,-4],[24,-26],[15,-8],[7,15],[-11,80],[-8,25],[-12,23],[8,2],[2,3],[2,1],[8,-6],[27,59],[32,-7],[41,-20],[51,17],[12,21],[17,89],[14,51],[5,25],[2,35],[-28,-15],[-24,2],[-27,5],[-31,-4],[-46,-43],[-18,-11],[-15,7],[-16,21],[-23,15],[-26,36],[-23,41],[-13,32],[-2,29],[8,36],[16,23],[22,-9],[28,-57],[22,-19],[30,14],[56,45],[13,15],[6,12],[10,33],[-3,9],[-2,21],[4,14],[16,-13],[9,-18],[3,-13],[8,-9],[20,-4],[59,1],[10,-3],[15,-4],[21,-18],[9,8],[12,2],[14,-4],[15,-6],[39,4],[31,27],[15,46],[4,57],[17,-13],[9,-17],[15,-43],[38,24],[39,-1],[19,13],[-27,63],[35,3],[23,24],[19,32],[23,27],[-2,-22],[-7,-17],[-7,-13],[-4,-10],[-3,-21],[3,-133],[-3,-12],[-3,-13],[-1,-14],[7,-14],[12,-7],[34,-3],[21,-5],[16,3],[7,-2],[1,-7],[1,-26],[3,-9],[27,-15],[67,3],[31,-6],[-1,27],[3,27],[8,22],[15,9],[33,-4],[16,-10],[31,-42],[34,2],[24,47],[23,24],[34,-67],[-34,-13],[-15,-10],[3,-14],[21,-30],[19,-7],[90,-11],[-7,-12],[-12,-2],[-28,0],[-1,-27],[44,-3],[32,9],[37,49],[20,36],[-19,24],[-5,-18],[-10,-14],[-13,-4],[-13,12],[11,74],[2,37],[-1,13],[-1,10],[-10,15],[-13,8],[-7,8],[10,17],[19,-7],[28,-2],[29,5],[18,11],[12,23],[-3,21],[-9,23],[-5,31],[-24,-1],[-146,-78],[0,12],[16,16],[3,25],[7,23],[58,15],[49,26],[27,5],[-16,24],[-1,12],[13,7],[48,9],[22,-1],[79,-28],[10,-8],[14,-15],[4,-11],[1,-12],[5,-10],[15,-4],[30,1],[12,3],[13,9],[-10,2],[-18,8],[-12,2],[7,24],[-3,16],[-25,33],[-12,22],[-6,16],[-10,48],[-19,38],[0,19],[19,29],[16,15],[9,-5],[14,-47],[-5,-13],[12,-36],[-7,-25],[30,12],[20,-16],[18,-27],[23,-18],[1,28],[10,16],[13,5],[6,-6],[0,-78],[22,17],[17,-2],[16,-30],[34,-15],[15,7],[13,49],[10,-17],[5,-33],[96,2],[36,-4],[11,42],[12,29],[10,-2],[-1,-34],[1,-36],[20,1],[45,79],[13,20],[7,-7],[-2,-25],[-12,-46],[-4,-37],[11,-40],[10,-12],[14,9],[15,10],[6,-3],[5,-12],[11,0],[-3,36],[-1,17],[17,-19],[7,-17],[12,8],[5,35],[18,33],[38,41],[12,-15],[16,-13],[26,-23],[33,15],[7,24],[-2,21],[-11,17],[1,25],[17,2],[16,8],[15,-1],[21,3],[16,-1],[23,0],[10,20],[14,29],[26,31],[23,50],[16,33],[0,11],[-8,24],[9,15],[9,17],[3,33],[7,25],[34,-1],[41,40],[28,17],[30,10],[2,24],[-10,10],[-12,17],[12,22],[14,22],[-6,35],[-2,33],[-2,13],[12,11],[13,2]],[[301,96],[10,-11],[7,6],[5,19],[13,18],[39,18],[7,11],[12,4],[30,-10],[11,2],[-1,11],[-10,14],[-11,13],[-14,8],[-1,5],[8,8],[-2,11],[-6,11],[-19,3],[-30,-7],[-29,-16],[-20,-28],[-10,-22],[-7,-11],[-5,-10],[6,-7],[7,0],[7,-6],[3,-15],[0,-19]],[[706,196],[5,-1],[2,7],[-2,8],[1,5],[7,-5],[6,-29],[5,-7],[3,9],[4,3],[3,3],[-1,13],[6,9],[-16,44],[-11,12],[-5,-4],[-14,8],[-18,-4],[-7,-8],[24,-57],[8,-6]],[[812,273],[5,-8],[-1,-9],[-8,-9],[0,-14],[35,-24],[17,-8],[23,-3],[60,11],[27,11],[19,27],[5,34],[-16,29],[-20,9],[-23,2],[-46,-5],[-48,-9],[-23,-10],[-20,-15],[14,-9]],[[1349,212],[0,-16],[9,-4],[23,7],[26,17],[11,12],[0,11],[-6,17],[-32,35],[-14,0],[-13,-14],[-6,-1],[-1,4],[-20,5],[-11,7],[-10,4],[-8,-4],[3,-8],[1,-10],[-5,-13],[9,-7],[16,-11],[-4,-7],[7,-9],[15,-5],[10,-10]],[[1746,422],[-19,14],[-27,-3],[-25,-12],[-7,-16],[10,-12],[12,-7],[7,-11],[6,-15],[15,-11],[21,-7],[13,-8],[5,-7],[3,-3],[12,0],[18,7],[3,11],[-6,10],[-10,5],[-11,3],[-1,6],[3,12],[-22,44]],[[1808,333],[-10,-15],[0,-17],[5,-3],[5,8],[5,1],[4,-5],[10,0],[9,7],[-2,11],[-4,8],[8,11],[-3,4],[-12,-3],[-15,-7]],[[1313,312],[31,7],[13,0],[12,8],[4,6],[-4,9],[-4,7],[-46,15],[-9,5],[6,3],[9,-3],[3,5],[-6,10],[-9,8],[-2,4],[11,1],[9,8],[-14,14],[-23,-2],[-13,-14],[-4,-13],[2,-8],[-1,-2],[-7,0],[1,-4],[22,-6],[2,-7],[1,-6],[7,-10],[2,-5],[-11,1],[-12,-7],[1,-11],[9,-11],[8,-7],[12,5]],[[1590,441],[17,4],[7,0],[9,6],[9,18],[5,-7],[2,-8],[8,3],[6,9],[-6,12],[-11,4],[-4,-5],[-18,0],[-4,2],[-2,10],[-6,7],[-7,2],[-15,-8],[-8,-8],[-7,-16],[2,-6],[7,3],[16,-22]],[[1214,458],[12,12],[4,10],[3,8],[-6,-10],[-13,-20]],[[1766,495],[17,-9],[16,1],[15,16],[10,24],[5,26],[-2,26],[-12,44],[-10,27],[-14,21],[-15,4],[18,16],[7,20],[-4,17],[-15,7],[-18,-2],[-16,-8],[-3,-14],[22,-24],[-11,-45],[-5,-11],[-27,-21],[-6,-8],[-9,-33],[6,-21],[51,-53]],[[1452,553],[-14,5],[-12,-5],[-6,-6],[-8,2],[-8,6],[-7,-13],[4,-10],[12,-1],[8,9],[1,-12],[6,-12],[10,-2],[4,7],[2,9],[11,1],[6,4],[0,9],[-9,9]],[[1702,731],[0,5],[-8,2],[-4,-1],[-4,-5],[-5,-7],[2,-2],[9,-15],[12,-6],[15,12],[-12,6],[-6,3],[-5,6],[6,2]],[[1901,742],[14,-9],[21,-8],[21,1],[9,16],[5,37],[13,30],[19,13],[24,-13],[16,-72],[14,-35],[24,4],[27,12],[23,-10],[22,-13],[22,4],[6,18],[-12,37],[11,6],[9,10],[1,21],[-4,37],[4,23],[8,19],[4,18],[-7,20],[-10,4],[-49,8],[-34,-7],[-36,-14],[-28,-5],[-17,31],[-32,11],[-12,9],[-8,16],[-7,31],[-6,13],[33,34],[13,23],[2,23],[-12,22],[-19,18],[-22,7],[-19,-10],[-24,-18],[-8,-11],[-7,-40],[-9,-6],[-11,-2],[-11,-8],[-17,-32],[-4,-32],[5,-32],[41,-132],[3,-22],[0,-16],[2,-13],[9,-16]],[[1714,1051],[-7,0],[-7,-2],[-12,6],[-17,-1],[-15,-12],[-8,-12],[1,-7],[14,-14],[11,-4],[16,3],[32,37],[-8,6]],[[2075,949],[21,-2],[36,12],[66,-18],[15,4],[-8,12],[-6,5],[-8,12],[-8,29],[-4,22],[-7,4],[-7,7],[-5,13],[-14,-3],[-17,-27],[-8,-19],[-8,5],[-1,16],[5,20],[10,29],[-8,20],[-23,-7],[-13,-17],[-13,-24],[-19,-26],[-10,-28],[12,-25],[22,-14]],[[2340,966],[25,-38],[16,13],[23,15],[19,4],[1,9],[-62,14],[-16,-4],[-6,-13]],[[2405,935],[-10,-16],[-2,-10],[10,-14],[16,-11],[8,-4],[14,-4],[4,5],[-1,13],[7,4],[16,0],[6,9],[-8,14],[-22,25],[-18,4],[-20,-15]],[[2826,945],[21,-23],[17,-26],[23,19],[52,23],[15,19],[20,-12],[-8,-32],[-1,-28],[-10,-19],[-36,-8],[-9,-9],[-1,-21],[6,-21],[14,-9],[45,23],[-7,-26],[-2,-21],[8,-16],[21,-10],[-50,-36],[32,2],[105,33],[23,20],[-12,14],[-24,10],[-17,13],[8,24],[25,29],[5,14],[4,25],[17,-12],[27,-15],[26,-9],[11,5],[-4,27],[-19,41],[-8,24],[20,-9],[12,13],[7,22],[2,22],[-2,30],[-5,3],[-14,-10],[-29,-10],[23,61],[6,21],[0,23],[-6,18],[-9,17],[-7,21],[-1,10],[10,66],[-1,18],[-6,15],[-26,10],[-22,-18],[-8,-33],[17,-33],[-102,-58],[-19,2],[1,-28],[7,-31],[16,-27],[27,-17],[0,-12],[-27,2],[-20,10],[-19,13],[-24,10],[-15,0],[-54,-11],[-19,-8],[-23,-15],[-19,-19],[-9,-20],[4,-34],[17,-26]],[[2858,1148],[14,22],[-2,20],[-29,-18],[6,-15],[-5,-17],[3,-17],[4,-24],[5,3],[10,7],[1,10],[-6,5],[6,4],[0,12],[-7,8]],[[3011,1196],[3,-9],[20,17],[4,18],[1,17],[4,16],[-1,19],[-7,-1],[-6,-8],[-7,-2],[-8,-5],[1,-12],[-9,-7],[-12,-6],[2,-5],[4,-4],[-2,-8],[-13,-6],[-1,-12],[5,-5],[7,8],[7,2],[8,-7]],[[3294,1233],[3,-8],[8,3],[10,13],[6,37],[1,45],[-10,23],[-15,4],[-17,-2],[-15,-8],[-4,-13],[8,-14],[5,-15],[-2,-13],[4,-9],[11,-12],[7,-31]],[[2912,1332],[-1,18],[-10,13],[-17,-2],[10,-12],[18,-17]],[[2360,720],[-12,1],[-10,-14],[9,-15],[15,-6],[14,-4],[2,-5],[2,0],[9,9],[-1,8],[-10,21],[-18,5]],[[2817,783],[-11,5],[-23,-7],[-6,-6],[24,-13],[9,-2],[26,-1],[3,5],[-22,19]],[[2535,787],[0,6],[7,3],[-6,9],[-15,8],[-7,-3],[-2,-8],[7,-17],[7,-1],[10,-4],[-1,7]],[[2785,808],[24,-3],[17,9],[8,16],[-5,17],[-12,3],[-6,11],[-10,36],[-6,1],[-2,4],[1,7],[-6,2],[-9,-11],[0,-12],[3,-5],[0,-9],[-4,-5],[-5,7],[-5,10],[-2,-3],[1,-27],[11,-21],[2,-9],[-3,-4],[-1,-4],[3,-7],[6,-3]],[[2706,858],[0,4],[6,4],[14,-6],[7,10],[-5,9],[7,14],[-4,23],[-14,14],[-25,-1],[-23,-6],[-14,-6],[-10,5],[-17,13],[-22,10],[-17,-5],[-12,-13],[3,-12],[10,0],[17,5],[26,-9],[14,-11],[-3,-14],[-14,-11],[7,-5],[19,-3],[4,-12],[-3,-12],[12,0],[6,-14],[11,-14],[24,1],[15,18],[5,11],[-12,10],[-12,3]],[[2834,812],[6,-9],[32,-5],[12,-8],[14,-3],[8,4],[0,10],[-14,7],[-18,-3],[-29,14],[-11,-7]],[[2300,926],[2,11],[-4,6],[-20,5],[11,-25],[3,1],[8,2]],[[2442,648],[6,-2],[14,2],[5,11],[-5,4],[-8,1],[-6,1],[-5,-6],[-8,4],[-9,-7],[-10,11],[3,-14],[9,-3],[14,-2]],[[2600,618],[2,-6],[-6,0],[-4,-6],[10,-15],[15,3],[7,0],[16,-9],[7,8],[-8,6],[-10,3],[-23,19],[-16,16],[-5,-5],[7,-10],[8,-4]],[[2913,590],[-2,-8],[8,-3],[12,6],[13,9],[0,7],[-6,3],[-2,8],[-13,-17],[-10,-5]],[[2524,581],[2,9],[-3,4],[-28,-13],[-6,0],[-1,11],[-46,25],[-10,-2],[-5,-6],[-1,-10],[-4,-8],[0,-9],[6,-5],[5,-1],[7,-6],[1,-10],[-5,-11],[2,-7],[8,2],[8,7],[15,8],[12,2],[13,-3],[10,1],[6,4],[14,18]],[[734,38],[11,10],[-9,5],[-4,5],[11,5],[14,-4],[12,-6],[9,2],[-3,8],[-4,5],[-9,11],[-5,8],[-7,6],[-15,-1],[-20,-7],[-11,5],[-5,16],[-10,15],[-10,10],[-5,2],[1,-5],[-14,-12],[-14,-17],[-8,-6],[-11,-2],[-3,-3],[4,-3],[9,-3],[25,-3],[9,-6],[4,-9],[-4,-7],[32,-6],[5,-8],[-9,-6],[-8,-11],[2,-16],[15,7],[25,21]],[[551,120],[-5,19],[5,6],[8,29],[-1,13],[-5,-2],[-6,-17],[-10,-12],[-12,-1],[-13,4],[-9,8],[-8,4],[-5,-1],[-32,1],[-11,8],[-9,4],[-1,-6],[6,-8],[-1,-20],[0,-27],[3,-8],[4,8],[9,12],[9,5],[2,-7],[-3,-17],[2,-7],[5,-8],[10,-8],[12,-5],[7,-1],[3,3],[8,1],[9,9],[7,9],[12,0],[10,12]],[[1005,137],[21,-6],[5,2],[1,2],[1,4],[-3,6],[-6,7],[-7,11],[-4,11],[-5,5],[-4,2],[-6,11],[-8,2],[-4,-4],[1,-9],[1,-6],[7,-2],[6,-4],[0,-7],[-3,-7],[1,-9],[6,-9]],[[1788,195],[18,-14],[2,3],[1,7],[3,5],[0,8],[-1,9],[9,42],[-11,9],[-5,9],[-7,-4],[-2,-11],[0,-12],[-3,-9],[-9,-15],[6,-4],[1,-3],[-7,-9],[5,-11]],[[3659,1394],[-8,12],[-6,7],[-15,1],[-11,-11],[-1,-22],[14,-16],[28,-16],[10,-13],[9,-7],[12,15],[-20,10],[2,13],[9,7],[-10,6],[-13,14]],[[1315,869],[2,13],[-11,-10],[-13,2],[-4,-1],[-4,-6],[1,-12],[-6,-5],[5,-6],[9,-3],[3,2],[2,10],[9,7],[7,3],[0,6]],[[832,369],[0,15],[-10,4],[-4,-15],[-5,-4],[-4,10],[-9,4],[-4,-9],[-10,1],[1,-15],[9,-2],[6,-10],[19,8],[11,13]],[[784,541],[-3,3],[-6,-2],[-4,-4],[10,-22],[8,4],[5,12],[-10,9]],[[0,3844],[0,30],[80,0],[-28,-15],[-52,-15]],[[0,3636],[0,51],[20,-5],[9,-24],[-13,-18],[-16,-4]],[[0,3523],[0,54],[13,-4],[16,-19],[-21,-14],[-8,-17]],[[0,3351],[0,46],[9,-2],[17,-12],[12,-13],[21,-36],[-59,17]],[[0,2981],[0,283],[14,8],[25,-11],[34,-57],[18,-6],[20,-8],[9,-12],[-20,-16],[13,-22],[25,-32],[12,-19],[7,-23],[3,-16],[7,-12],[22,-11],[31,13],[32,6],[27,13],[25,23],[30,20],[30,10],[85,26],[-3,-26],[-29,-21],[-68,-27],[-53,-40],[-31,-16],[-25,8],[-23,-14],[-73,-5],[-72,-9],[-72,-7]],[[0,2488],[0,441],[11,1],[43,-15],[13,-11],[5,-43],[1,-30],[69,-6],[71,-4],[36,1],[107,43],[4,4],[17,-6],[16,-14],[7,-13],[-6,-6],[-20,-3],[-7,-9],[-3,-13],[-9,-16],[-13,-7],[-18,-2],[-81,6],[-14,-4],[-12,-9],[-12,-17],[-4,-15],[14,-7],[25,-19],[32,-22],[28,-14],[13,-10],[20,-15],[-2,-21],[-5,-20],[-6,-15],[-16,27],[-23,6],[-33,25],[-51,6],[-52,-5],[-9,-8],[-16,-10],[-23,-14],[-6,-53],[-41,-57],[-50,-27]],[[87,2639],[5,-7],[18,13],[5,10],[-10,16],[-16,-14],[-2,-18]],[[0,2206],[0,76],[135,22],[22,-13],[13,-30],[19,-67],[-19,7],[-27,33],[-26,29],[-29,-7],[-20,-30],[-22,-17],[-46,-3]],[[0,880],[0,179],[7,4],[21,-6],[11,-27],[0,-18],[-7,-11],[-7,-9],[-6,-12],[0,-19],[4,-12],[2,-12],[-6,-17],[76,7],[33,-6],[22,-25],[-15,1],[-13,-3],[-22,-11],[10,-23],[-34,2],[-67,21],[-9,-3]],[[0,650],[0,1],[0,-1]],[[0,592],[0,36],[33,-30],[25,-16],[31,-5],[-30,-8],[-42,14],[-17,9]],[[4096,2153],[-14,4],[12,35],[2,-1],[0,-38]],[[4096,156],[-23,-7],[4,27],[19,19],[0,-39]],[[0,3874],[80,0],[-28,-15],[-52,-15]],[[0,3687],[20,-5],[9,-24],[-13,-18],[-16,-4]],[[0,3577],[13,-4],[16,-19],[-21,-14],[-8,-17]],[[0,3397],[9,-2],[17,-12],[12,-13],[21,-36],[-59,17]],[[0,3264],[14,8],[25,-11],[34,-57],[18,-6],[20,-8],[9,-12],[-20,-16],[13,-22],[25,-32],[12,-19],[7,-23],[3,-16],[7,-12],[22,-11],[31,13],[32,6],[27,13],[25,23],[30,20],[30,10],[85,26],[-3,-26],[-29,-21],[-68,-27],[-53,-40],[-31,-16],[-25,8],[-23,-14],[-73,-5],[-72,-9],[-72,-7]],[[0,2929],[11,1],[43,-15],[13,-11],[5,-43],[1,-30],[69,-6],[71,-4],[36,1],[107,43],[4,4],[17,-6],[16,-14],[7,-13],[-6,-6],[-20,-3],[-7,-9],[-3,-13],[-9,-16],[-13,-7],[-18,-2],[-81,6],[-14,-4],[-12,-9],[-12,-17],[-4,-15],[14,-7],[25,-19],[32,-22],[28,-14],[13,-10],[20,-15],[-2,-21],[-5,-20],[-6,-15],[-16,27],[-23,6],[-33,25],[-51,6],[-52,-5],[-9,-8],[-16,-10],[-23,-14],[-6,-53],[-41,-57],[-50,-27]],[[0,2282],[135,22],[22,-13],[13,-30],[19,-67],[-19,7],[-27,33],[-26,29],[-29,-7],[-20,-30],[-22,-17],[-46,-3]],[[0,1059],[7,4],[21,-6],[11,-27],[0,-18],[-7,-11],[-7,-9],[-6,-12],[0,-19],[4,-12],[2,-12],[-6,-17],[76,7],[33,-6],[22,-25],[-15,1],[-13,-3],[-22,-11],[10,-23],[-34,2],[-67,21],[-9,-3]],[[0,651],[0,-1]],[[0,628],[33,-30],[25,-16],[31,-5],[-30,-8],[-42,14],[-17,9]],[[59,0],[0,9],[3,17],[36,121],[6,11],[16,14],[43,11],[11,8],[8,18],[0,13],[4,8],[19,3],[7,-2],[14,-8],[9,-2],[4,4],[2,9],[-1,9],[-5,4],[-22,8],[21,20],[56,33],[-33,42],[-6,21],[45,16],[0,15],[-9,21],[-6,25],[5,17],[12,19],[16,15],[15,5],[17,-13],[10,-24],[1,-27],[-8,-22],[6,-35],[-6,-91],[11,-34],[13,-8],[56,-17],[41,-29],[19,-6],[-9,21],[0,19],[6,17],[13,16],[38,-20],[14,13],[-3,74],[81,80],[-11,23],[6,19],[14,16],[10,15],[2,20],[0,20],[2,15],[11,6],[18,4],[18,11],[29,23],[54,31],[11,10],[27,35],[16,15],[17,6],[36,-7],[18,-1],[21,8],[20,25],[30,77],[20,32],[36,-58],[27,-22],[31,13],[28,22],[10,-14],[8,-32],[20,-31],[-11,-18],[-20,-44],[-9,-12],[-23,-9],[-17,6],[-12,16],[-9,24],[8,17],[-3,14],[-10,11],[-15,8],[-42,-47],[-7,-14],[1,-28],[8,-13],[12,-12],[8,-21],[1,-53],[-22,-29],[-35,-14],[-43,-2],[21,52],[8,29],[1,30],[-21,-11],[-11,-13],[-18,-39],[-29,-39],[-11,-9],[-32,-20],[-9,-15],[2,-26],[13,-26],[20,-11],[22,-4],[24,-8],[-4,7],[-6,18],[58,31],[17,4],[54,-60],[21,-43],[59,-80],[41,1],[-19,20],[-4,31],[42,32],[26,-12],[25,35],[69,65],[-30,26],[-56,-15],[-12,8],[-21,5],[-17,37],[-3,6],[8,13],[20,15],[23,11],[19,3],[22,-7],[66,-41],[18,4],[28,-1],[15,13],[14,13],[-5,37],[-8,20],[-62,25],[11,2],[25,0],[15,-2],[-31,45],[-45,29],[-43,38],[-20,72],[4,4],[8,2],[3,7],[-10,17],[-15,6],[-27,-11],[-13,10],[6,25],[31,17],[62,20],[0,12],[-31,9],[-38,16],[-19,16],[24,7],[63,-1],[29,3],[49,18],[8,1],[5,3],[9,14],[25,64],[5,4],[4,7],[6,-2],[7,-8],[3,-10],[-1,-9],[-7,-18],[-1,-10],[4,-18],[22,-46],[-4,-7],[-3,-11],[1,-9],[7,-8],[9,-1],[8,-1],[6,-3],[23,-51],[12,-17],[6,-30],[-13,-35],[-19,-37],[-9,-38],[7,-40],[17,-27],[26,-14],[34,-4],[24,-26],[15,-8],[7,15],[-11,80],[-8,25],[-12,23],[8,2],[2,3],[2,1],[8,-6],[27,59],[32,-7],[41,-20],[51,17],[12,21],[17,89],[14,51],[5,25],[2,35],[-28,-15],[-24,2],[-27,5],[-31,-4],[-46,-43],[-18,-11],[-15,7],[-16,21],[-23,15],[-26,36],[-23,41],[-13,32],[-2,29],[8,36],[16,23],[22,-9],[28,-57],[22,-19],[30,14],[56,45],[13,15],[6,12],[10,33],[-3,9],[-2,21],[4,14],[16,-13],[9,-18],[3,-13],[8,-9],[20,-4],[59,1],[10,-3],[15,-4],[21,-18],[9,8],[12,2],[14,-4],[15,-6],[39,4],[31,27],[15,46],[4,57],[17,-13],[9,-17],[15,-43],[38,24],[39,-1],[19,13],[-27,63],[35,3],[23,24],[19,32],[23,27],[-2,-22],[-7,-17],[-7,-13],[-4,-10],[-3,-21],[3,-133],[-3,-12],[-3,-13],[-1,-14],[7,-14],[12,-7],[34,-3],[21,-5],[16,3],[7,-2],[1,-7],[1,-26],[3,-9],[27,-15],[67,3],[31,-6],[-1,27],[3,27],[8,22],[15,9],[33,-4],[16,-10],[31,-42],[34,2],[24,47],[23,24],[34,-67],[-34,-13],[-15,-10],[3,-14],[21,-30],[19,-7],[90,-11],[-7,-12],[-12,-2],[-28,0],[-1,-27],[44,-3],[32,9],[37,49],[20,36],[-19,24],[-5,-18],[-10,-14],[-13,-4],[-13,12],[11,74],[2,37],[-1,13],[-1,10],[-10,15],[-13,8],[-7,8],[10,17],[19,-7],[28,-2],[29,5],[18,11],[12,23],[-3,21],[-9,23],[-5,31],[-24,-1],[-146,-78],[0,12],[16,16],[3,25],[7,23],[58,15],[49,26],[27,5],[-16,24],[-1,12],[13,7],[48,9],[22,-1],[79,-28],[10,-8],[14,-15],[4,-11],[1,-12],[5,-10],[15,-4],[30,1],[12,3],[13,9],[-10,2],[-18,8],[-12,2],[7,24],[-3,16],[-25,33],[-12,22],[-6,16],[-10,48],[-19,38],[0,19],[19,29],[16,15],[9,-5],[14,-47],[-5,-13],[12,-36],[-7,-25],[30,12],[20,-16],[18,-27],[23,-18],[1,28],[10,16],[13,5],[6,-6],[0,-78],[22,17],[17,-2],[16,-30],[34,-15],[15,7],[13,49],[10,-17],[5,-33],[96,2],[36,-4],[11,42],[12,29],[10,-2],[-1,-34],[1,-36],[20,1],[45,79],[13,20],[7,-7],[-2,-25],[-12,-46],[-4,-37],[11,-40],[10,-12],[14,9],[15,10],[6,-3],[5,-12],[11,0],[-3,36],[-1,17],[17,-19],[7,-17],[12,8],[5,35],[18,33],[38,41],[12,-15],[16,-13],[26,-23],[33,15],[7,24],[-2,21],[-11,17],[1,25],[17,2],[16,8],[15,-1],[21,3],[16,-1],[23,0],[10,20],[14,29],[26,31],[23,50],[16,33],[0,11],[-8,24],[9,15],[9,17],[3,33],[7,25],[34,-1],[41,40],[28,17],[30,10],[2,24],[-10,10],[-12,17],[12,22],[14,22],[-6,35],[-2,33],[-2,13],[12,11],[13,2]],[[4096,2153],[-14,4],[12,35],[2,-1]],[[889,316],[-48,-9],[-23,-10],[-20,-15],[14,-9],[5,-8],[-1,-9],[-8,-9],[0,-14],[35,-24],[17,-8],[23,-3],[60,11],[27,11],[19,27],[5,34],[-16,29],[-20,9],[-23,2],[-46,-5]],[[1776,675],[18,16],[7,20],[-4,17],[-15,7],[-18,-2],[-16,-8],[-3,-14],[22,-24],[-11,-45],[-5,-11],[-27,-21],[-6,-8],[-9,-33],[6,-21],[51,-53],[17,-9],[16,1],[15,16],[10,24],[5,26],[-2,26],[-12,44],[-10,27],[-14,21],[-15,4]],[[2195,908],[-10,4],[-49,8],[-34,-7],[-36,-14],[-28,-5],[-17,31],[-32,11],[-12,9],[-8,16],[-7,31],[-6,13],[33,34],[13,23],[2,23],[-12,22],[-19,18],[-22,7],[-19,-10],[-24,-18],[-8,-11],[-7,-40],[-9,-6],[-11,-2],[-11,-8],[-17,-32],[-4,-32],[5,-32],[41,-132],[3,-22],[0,-16],[2,-13],[9,-16],[14,-9],[21,-8],[21,1],[9,16],[5,37],[13,30],[19,13],[24,-13],[16,-72],[14,-35],[24,4],[27,12],[23,-10],[22,-13],[22,4],[6,18],[-12,37],[11,6],[9,10],[1,21],[-4,37],[4,23],[8,19],[4,18],[-7,20]],[[3184,1005],[-2,30],[-5,3],[-14,-10],[-29,-10],[23,61],[6,21],[0,23],[-6,18],[-9,17],[-7,21],[-1,10],[10,66],[-1,18],[-6,15],[-26,10],[-22,-18],[-8,-33],[17,-33],[-102,-58],[-19,2],[1,-28],[7,-31],[16,-27],[27,-17],[0,-12],[-27,2],[-20,10],[-19,13],[-24,10],[-15,0],[-54,-11],[-19,-8],[-23,-15],[-19,-19],[-9,-20],[4,-34],[17,-26],[21,-23],[17,-26],[23,19],[52,23],[15,19],[20,-12],[-8,-32],[-1,-28],[-10,-19],[-36,-8],[-9,-9],[-1,-21],[6,-21],[14,-9],[45,23],[-7,-26],[-2,-21],[8,-16],[21,-10],[-50,-36],[32,2],[105,33],[23,20],[-12,14],[-24,10],[-17,13],[8,24],[25,29],[5,14],[4,25],[17,-12],[27,-15],[26,-9],[11,5],[-4,27],[-19,41],[-8,24],[20,-9],[12,13],[7,22],[2,22]],[[4096,605],[-20,4],[-36,1],[-19,0],[-23,-80],[-6,-30],[-21,-30],[3,-25],[25,8],[25,-32],[1,-13],[-31,-27],[-23,-59],[-19,-45],[7,-20],[18,4],[23,25],[3,-12],[-20,-23],[-8,-12],[-7,4],[-15,-3],[-12,-15],[8,-36],[-2,-66],[-19,-11],[-35,-3],[-10,-22],[28,-7],[35,8],[21,-22],[10,9],[-9,30],[15,20],[17,13],[-6,-21],[-1,-19],[1,-34],[16,-1],[27,33],[18,-9],[-3,-51],[-35,12],[-22,-16],[24,-32]],[[4085,0],[1,1],[10,19]],[[4096,156],[-23,-7],[4,27],[19,19]],[[3990,0],[0,1],[-19,18],[-13,9],[-16,-1],[2,-12],[7,-14],[-20,0],[-1,-1]],[[3876,0],[1,10],[6,14],[-5,12],[-26,4],[-13,-24],[-1,-16]],[[3321,1278],[1,45],[-10,23],[-15,4],[-17,-2],[-15,-8],[-4,-13],[8,-14],[5,-15],[-2,-13],[4,-9],[11,-12],[7,-31],[3,-8],[8,3],[10,13],[6,37]],[[2199,962],[-8,12],[-8,29],[-4,22],[-7,4],[-7,7],[-5,13],[-14,-3],[-17,-27],[-8,-19],[-8,5],[-1,16],[5,20],[10,29],[-8,20],[-23,-7],[-13,-17],[-13,-24],[-19,-26],[-10,-28],[12,-25],[22,-14],[21,-2],[36,12],[66,-18],[15,4],[-8,12],[-6,5]],[[1777,357],[-11,3],[-1,6],[3,12],[-22,44],[-19,14],[-27,-3],[-25,-12],[-7,-16],[10,-12],[12,-7],[7,-11],[6,-15],[15,-11],[21,-7],[13,-8],[5,-7],[3,-3],[12,0],[18,7],[3,11],[-6,10],[-10,5]],[[1412,256],[-32,35],[-14,0],[-13,-14],[-6,-1],[-1,4],[-20,5],[-11,7],[-10,4],[-8,-4],[3,-8],[1,-10],[-5,-13],[9,-7],[16,-11],[-4,-7],[7,-9],[15,-5],[10,-10],[0,-16],[9,-4],[23,7],[26,17],[11,12],[0,11],[-6,17]],[[293,4],[-26,27],[-5,15],[-8,11],[-4,13],[-4,28],[-14,35],[-17,20],[-16,11],[-17,6],[-25,-3],[-9,-2],[-15,-8],[-12,-17],[-6,-22],[-1,-23],[2,-22],[4,-19],[10,-14],[17,-11],[19,-5],[15,4],[13,-4],[3,-13],[-13,-10],[0,-1]],[[294,0],[-1,4]],[[291,136],[7,-6],[3,-15],[0,-19],[10,-11],[7,6],[5,19],[13,18],[39,18],[7,11],[12,4],[30,-10],[11,2],[-1,11],[-10,14],[-11,13],[-14,8],[-1,5],[8,8],[-2,11],[-6,11],[-19,3],[-30,-7],[-29,-16],[-20,-28],[-10,-22],[-7,-11],[-5,-10],[6,-7],[7,0]],[[424,2],[8,7],[13,3],[13,-3],[9,10],[1,13],[3,6],[8,10],[3,13],[-13,8],[-21,5],[-16,1],[-6,-1],[-6,0],[-11,3],[-8,6],[-15,-3],[-20,-17],[-16,-7],[-13,7],[-12,2],[-5,-3],[-6,-4],[-15,-4],[-15,-2],[2,-6],[32,-15],[6,-3],[5,-3],[14,0],[18,6],[15,2],[11,-5],[8,-11],[3,-13],[2,-4]],[[422,0],[2,2]],[[2443,946],[-18,4],[-20,-15],[-10,-16],[-2,-10],[10,-14],[16,-11],[8,-4],[14,-4],[4,5],[-1,13],[7,4],[16,0],[6,9],[-8,14],[-22,25]],[[771,68],[-9,11],[-5,8],[-7,6],[-15,-1],[-20,-7],[-11,5],[-5,16],[-10,15],[-10,10],[-5,2],[1,-5],[-14,-12],[-14,-17],[-8,-6],[-11,-2],[-3,-3],[4,-3],[9,-3],[25,-3],[9,-6],[4,-9],[-4,-7],[32,-6],[5,-8],[-9,-6],[-8,-11],[2,-16],[15,7],[25,21],[11,10],[-9,5],[-4,5],[11,5],[14,-4],[12,-6],[9,2],[-3,8],[-4,5]],[[2523,594],[3,-4],[-2,-9],[-14,-18],[-6,-4],[-10,-1],[-13,3],[-12,-2],[-15,-8],[-8,-7],[-8,-2],[-2,7],[5,11],[-1,10],[-7,6],[-5,1],[-6,5],[0,9],[4,8],[1,10],[5,6],[10,2],[46,-25],[1,-11],[6,0],[28,13]],[[2655,917],[14,6],[23,6],[25,1],[14,-14],[4,-23],[-7,-14],[5,-9],[-7,-10],[-14,6],[-6,-4],[0,-4],[12,-3],[12,-10],[-5,-11],[-15,-18],[-24,-1],[-11,14],[-6,14],[-12,0],[3,12],[-4,12],[-19,3],[-7,5],[14,11],[3,14],[-14,11],[-26,9],[-17,-5],[-10,0],[-3,12],[12,13],[17,5],[22,-10],[17,-13],[10,-5]],[[2371,4090],[-7,6]],[[2432,4089],[-7,1],[-48,0]],[[2377,4090],[-6,0]],[[2608,4096],[-45,-6],[-66,-8],[-65,7]],[[166,4075],[23,11]],[[189,4086],[20,10]],[[2893,4060],[-36,22],[-15,14]],[[3139,4016],[-96,37],[-42,7],[-6,0]],[[2995,4060],[-84,-7],[-18,7]],[[1407,4023],[-21,52],[-5,21]],[[1410,4016],[-3,7]],[[1410,4016],[-6,-15]],[[1237,4021],[4,-27]],[[1218,4096],[17,-65],[2,-10]],[[3251,3991],[-21,3],[-91,22]],[[3614,3964],[-30,0],[-42,30],[-36,7],[-132,-14],[-90,0],[-33,4]],[[3680,3935],[-30,22],[-36,7]],[[1404,4001],[18,0],[42,-51],[30,-22],[12,-45],[18,-44],[48,15],[54,0],[18,0],[42,37]],[[1241,3994],[6,-37],[-12,-133]],[[2329,3835],[0,-3],[-12,-81]],[[2367,4062],[-2,-16],[-2,-3]],[[2363,4043],[-28,-34],[-12,-37],[-6,-44],[12,-52],[0,-41]],[[2371,4090],[-4,-28]],[[1235,3824],[6,-29],[0,-59]],[[1241,3736],[-30,0]],[[4096,3740],[-20,18],[-36,7],[-18,-14],[-36,7],[-72,29],[-42,23],[-42,51],[-42,8],[-60,7],[-36,37],[-12,22]],[[2267,3734],[50,17]],[[1686,3891],[30,0],[24,-30],[48,-44],[24,-30],[36,0],[60,23],[18,0],[84,-15],[36,7],[36,-22],[24,-37],[42,-22],[54,-7],[65,20]],[[1211,3736],[-60,-8],[-36,-14],[-18,-15]],[[1097,3699],[0,-30]],[[52,3655],[-24,75]],[[130,4043],[12,10],[24,22]],[[28,3730],[-6,21],[24,59],[18,103],[24,74],[18,36],[24,20]],[[1097,3669],[6,-36],[-24,-30],[-6,-74],[-6,-29]],[[1241,3736],[0,-37],[24,-30],[36,-14],[73,-8],[54,-29],[30,-37],[42,-30],[37,-18]],[[1537,3533],[23,-11],[36,-15],[72,-15],[18,0],[60,23],[36,7],[36,-22],[30,-22]],[[4096,3592],[-20,-33],[0,-37],[6,-74],[-6,-66]],[[1848,3478],[42,-52],[36,-29],[36,-15]],[[2137,3305],[11,-12],[60,-29],[48,-8]],[[1962,3382],[12,0],[84,15],[18,-8],[36,-59],[25,-25]],[[166,3138],[-30,23],[-18,36],[-30,11]],[[37,3560],[15,80],[0,15]],[[88,3208],[-12,4],[-12,15],[6,81],[-6,30],[-30,59],[-12,36],[6,82],[9,45]],[[4060,3304],[-8,-77],[6,-44],[6,-52]],[[4076,3382],[-12,-30],[-4,-48]],[[184,3102],[-18,36]],[[4064,3131],[6,-59],[0,-29]],[[196,3043],[0,14],[-12,45]],[[196,3035],[0,8]],[[3920,2954],[24,22],[72,30],[54,37]],[[386,2918],[-17,5]],[[369,2923],[-5,2]],[[388,2917],[-2,1]],[[309,2935],[-23,4],[-60,22],[-36,8],[-36,-15],[-12,-15],[-24,-29],[-24,-59]],[[364,2925],[-55,10]],[[774,2905],[-7,-32],[-36,-44]],[[781,3076],[4,-63],[-3,-40]],[[860,3250],[-33,-23],[-30,-30],[-12,-36],[-4,-36]],[[1067,3500],[-5,-21]],[[782,2973],[-3,-48],[-5,-20]],[[781,3125],[-2,-23],[2,-26]],[[1062,3479],[-7,-23],[-18,-37],[-42,-52],[-42,-52],[-93,-65]],[[557,2821],[-24,22],[-42,37],[-37,15],[-66,22]],[[2875,2814],[18,7]],[[2473,3301],[6,0],[54,-22],[54,-30],[24,-52],[6,-44],[18,-15],[36,-7],[12,-37],[36,-110],[36,-96],[18,-45],[36,-29],[24,-7],[42,7]],[[2256,3256],[49,-7],[19,13]],[[2324,3262],[59,39],[36,7],[54,-7]],[[2893,2821],[42,22],[54,-7],[36,-7],[90,-45]],[[3115,2784],[24,-7]],[[731,2829],[-12,-19]],[[719,2810],[-6,-11],[0,-37]],[[713,2762],[-84,8],[-42,14],[-30,37]],[[725,2762],[-12,0]],[[3920,2954],[-18,-133],[-24,-88]],[[839,2659],[-18,7],[-42,59],[-36,30],[-5,2]],[[738,2757],[-13,5]],[[2875,2814],[0,-37],[-18,-81],[-24,-37],[-12,-15],[-30,-7]],[[695,2675],[0,-1],[-16,-10]],[[679,2664],[-20,-12],[-24,-30]],[[713,2762],[-12,-51],[-6,-36]],[[3878,2733],[-6,-22],[12,-15],[-4,-4]],[[3880,2692],[-20,-18],[-42,-52]],[[3139,2777],[36,-15],[61,0],[48,8],[66,22],[37,17]],[[3387,2809],[59,27],[36,7],[54,-7],[54,-44],[48,-52],[72,-51],[36,-23],[54,-22],[18,-22]],[[1271,2644],[-10,-7]],[[1013,2755],[-36,-15],[-42,-29],[-54,-45],[-42,-7]],[[1261,2637],[-44,-30],[-18,8],[-48,29],[-42,-7],[-30,15],[-18,29],[-6,30],[-24,37],[-18,7]],[[1296,2644],[-25,0]],[[1518,2519],[-18,7],[-48,45],[-42,0],[-36,29],[-13,15],[-48,29],[-17,0]],[[2557,2531],[-12,-19],[-12,-23],[-36,0],[-24,8]],[[2791,2637],[-36,-7],[-66,0],[-41,-8]],[[2648,2622],[-1,0],[-30,-15],[-30,-29],[-30,-47]],[[635,2622],[-18,-22],[-12,-37],[-24,-96],[-30,-59]],[[2473,2497],[-30,7],[-60,0],[-36,8],[-2,-1]],[[2345,2511],[-77,-7],[-96,-22],[-72,7],[-36,-22],[-42,-59]],[[1956,2445],[42,-7],[1,-1]],[[1999,2437],[23,-29]],[[551,2408],[-6,-7]],[[1956,2445],[-70,-10]],[[1886,2435],[-32,-5],[-18,-14],[-30,-81]],[[1806,2335],[-30,7],[-36,7],[-54,15],[-12,22],[-12,59],[-12,22],[-36,30],[-36,15],[-60,7]],[[424,2294],[-12,-11],[-18,-22]],[[532,2386],[-7,-9]],[[525,2377],[-4,-6],[-61,-44],[-36,-33]],[[545,2401],[-13,-15]],[[3794,2318],[-30,-79]],[[3818,2622],[6,-44],[0,-74],[-6,-96],[-18,-73],[-6,-17]],[[4046,2224],[-12,-7]],[[4034,2217],[-6,-8]],[[1831,2218],[-23,-5]],[[1808,2213],[-14,-4],[-24,0]],[[2022,2408],[-48,-103],[-24,-37],[-36,-29],[-83,-21]],[[2787,2236],[10,-49]],[[2791,2637],[0,-89],[-18,-44],[-30,-44],[-6,-30]],[[2737,2430],[-6,-29],[36,-59],[12,-37],[6,-59],[2,-10]],[[4028,2209],[-54,-29]],[[3814,2218],[-26,6],[-24,15]],[[3974,2180],[-60,22],[-47,6]],[[3867,2208],[-13,1],[-40,9]],[[1320,2062],[-37,-15]],[[1749,2209],[-15,0],[-20,6]],[[1714,2215],[-34,9],[-30,7],[-36,-7],[-60,-22],[-30,-67],[-30,-36],[-36,-8],[-30,30],[-36,-15],[-18,-15],[-37,-22],[-17,-7]],[[1770,2209],[-21,0]],[[1283,2047],[-36,-15]],[[1247,2032],[-78,-44]],[[2797,2187],[42,-118],[0,-66],[-15,-32]],[[2824,1971],[-9,-20]],[[873,1896],[-22,-4]],[[1146,1977],[-53,-26]],[[1169,1988],[-22,-11]],[[1093,1951],[-14,-7],[-42,-15],[-96,-22],[-68,-11]],[[1147,1977],[-1,0]],[[3663,2005],[-7,-17],[-18,-74],[-6,-96],[18,-37],[48,-29],[24,-22]],[[3764,2239],[-36,-74],[-36,-89],[-12,-30]],[[3680,2046],[-17,-41]],[[2810,1942],[-19,-35],[-6,-15],[18,-44],[30,-59],[12,-30],[0,-59]],[[2815,1951],[-5,-9]],[[2845,1700],[60,-7],[54,15],[36,22],[72,-30]],[[598,1689],[-11,-55],[6,-37]],[[687,1824],[-43,-46]],[[851,1892],[-36,-11]],[[644,1778],[-3,-4],[-36,-52],[-7,-33]],[[815,1881],[-36,-11],[-60,-22],[-30,-22],[-2,-2]],[[3067,1700],[60,8],[30,0],[18,-15],[31,-59],[30,-30],[18,-7]],[[3422,1597],[84,0]],[[3254,1597],[18,-7],[58,0]],[[3375,1592],[47,5]],[[3330,1590],[20,0],[25,2]],[[2845,1700],[6,-22],[60,-59],[18,-29]],[[593,1597],[35,24]],[[649,1635],[10,6],[12,3]],[[628,1621],[21,14]],[[671,1644],[24,5],[60,7],[60,0],[84,-37],[30,-29],[30,-37]],[[3722,1730],[12,-22],[-12,-37],[-24,-44],[-12,-52],[6,-30]],[[3506,1597],[60,-15],[84,-22],[42,-15]],[[503,1538],[90,59]],[[293,1719],[-1,-4],[6,-15],[25,-40]],[[332,1884],[14,-36],[-6,-37],[-36,-52],[-5,-19]],[[358,1619],[6,-7],[66,-59],[37,-15],[36,0]],[[394,2261],[-35,-51]],[[299,1740],[-6,-21]],[[323,1660],[11,-19],[24,-22]],[[359,2210],[-1,-1],[-18,-59],[-18,-74],[-6,-118],[0,-36],[16,-38]],[[2293,1523],[102,22],[3,4]],[[2533,1696],[6,4],[36,15],[180,0],[90,-15]],[[2398,1549],[33,33],[66,89],[36,25]],[[2256,1501],[37,22]],[[3299,1543],[-9,2],[-12,8],[-24,44]],[[3494,1501],[-54,0],[-36,8],[-36,11]],[[3368,1520],[-69,23]],[[3656,1501],[36,44]],[[3548,1501],[-54,0]],[[503,1538],[-18,-59]],[[2214,1450],[24,36],[18,15]],[[3614,1427],[42,74]],[[991,1485],[10,-21],[12,-37],[-6,-51]],[[959,1553],[32,-68]],[[280,1271],[-12,2],[-36,0],[-42,-23]],[[406,1342],[0,-25],[-16,-26]],[[485,1479],[0,-15],[6,-66],[-6,-15],[-18,-22],[-51,0]],[[390,1291],[-8,-11],[-24,-7],[-42,-8],[-36,6]],[[416,1361],[-10,0],[0,-19]],[[1226,1244],[2,0]],[[1007,1376],[4,-13]],[[1011,1363],[8,-31],[36,-15],[102,-59],[18,-8],[51,-6]],[[1228,1244],[61,-8]],[[190,1250],[-33,-12]],[[157,1238],[-27,-10],[-36,15],[-36,30],[-48,7],[-10,-8]],[[1782,1228],[48,37],[14,4]],[[2037,1323],[15,9],[44,16]],[[2127,1366],[21,17],[36,30],[30,37]],[[1844,1269],[40,11],[54,0],[36,7],[63,36]],[[2096,1348],[16,6],[15,12]],[[1298,1233],[39,-12],[55,-15],[66,-29]],[[1289,1236],[9,-3]],[[1458,1177],[54,-8],[108,37],[48,0],[15,7]],[[1691,1212],[37,-13],[54,29]],[[1683,1213],[3,1],[5,-2]],[[3305,1228],[-8,-3],[-3,8],[-7,31],[-11,12],[-4,9],[2,13],[-5,15],[-8,14],[4,13],[15,8],[17,2],[15,-4],[10,-23],[-1,-45],[-6,-37],[-10,-13]],[[2645,922],[10,-5],[14,6],[23,6],[25,1],[14,-14],[4,-23],[-7,-14],[5,-9],[-7,-10],[-14,6],[-6,-4],[0,-4],[12,-3],[12,-10],[-5,-11],[-15,-18],[-24,-1],[-11,14],[-6,14],[-12,0],[3,12],[-4,12],[-19,3],[-7,5],[14,11],[3,14],[-14,11],[-26,9],[-17,-5],[-10,0],[-3,12],[12,13],[17,5],[22,-10],[17,-13]],[[3148,1158],[9,-17],[6,-18],[0,-23],[-6,-21],[-23,-61],[29,10],[14,10],[5,-3],[2,-30],[-2,-22],[-7,-22],[-12,-13],[-20,9],[8,-24],[19,-41],[4,-27],[-11,-5],[-26,9],[-27,15],[-17,12],[-4,-25],[-5,-14],[-25,-29],[-8,-24],[17,-13],[24,-10],[12,-14],[-23,-20],[-105,-33],[-32,-2],[50,36],[-21,10],[-8,16],[2,21],[7,26],[-45,-23],[-14,9],[-6,21],[1,21],[9,9],[36,8],[10,19],[1,28],[8,32],[-20,12],[-15,-19],[-52,-23],[-23,-19],[-17,26],[-21,23],[-17,26],[-4,34],[9,20],[19,19],[23,15],[19,8],[54,11],[15,0],[24,-10],[19,-13],[20,-10],[27,-2],[0,12],[-27,17],[-16,27],[-7,31],[-1,28],[19,-2],[102,58],[-17,33],[8,33],[22,18],[26,-10],[6,-15],[1,-18],[-10,-66],[1,-10],[7,-21]],[[2445,881],[-4,-5],[-14,4],[-8,4],[-16,11],[-10,14],[2,10],[10,16],[20,15],[18,-4],[22,-25],[8,-14],[-6,-9],[-16,0],[-7,-4],[1,-13]],[[2021,925],[17,-31],[28,5],[36,14],[34,7],[49,-8],[10,-4],[7,-20],[-4,-18],[-8,-19],[-4,-23],[4,-37],[-1,-21],[-9,-10],[-11,-6],[12,-37],[-6,-18],[-22,-4],[-22,13],[-23,10],[-27,-12],[-24,-4],[-14,35],[-16,72],[-24,13],[-19,-13],[-13,-30],[-5,-37],[-9,-16],[-21,-1],[-21,8],[-14,9],[-9,16],[-2,13],[0,16],[-3,22],[-41,132],[-5,32],[4,32],[17,32],[11,8],[11,2],[9,6],[7,40],[8,11],[24,18],[19,10],[22,-7],[19,-18],[12,-22],[-2,-23],[-13,-23],[-33,-34],[6,-13],[7,-31],[8,-16],[12,-9],[32,-11]],[[2113,1005],[8,-5],[8,19],[17,27],[14,3],[5,-13],[7,-7],[7,-4],[4,-22],[8,-29],[8,-12],[6,-5],[8,-12],[-15,-4],[-66,18],[-36,-12],[-21,2],[-22,14],[-12,25],[10,28],[19,26],[13,24],[13,17],[23,7],[8,-20],[-10,-29],[-5,-20],[1,-16]],[[1772,324],[-12,0],[-3,3],[-5,7],[-13,8],[-21,7],[-15,11],[-6,15],[-7,11],[-12,7],[-10,12],[7,16],[25,12],[27,3],[19,-14],[22,-44],[-3,-12],[1,-6],[11,-3],[10,-5],[6,-10],[-3,-11],[-18,-7]],[[1346,280],[1,-4],[6,1],[13,14],[14,0],[32,-35],[6,-17],[0,-11],[-11,-12],[-26,-17],[-23,-7],[-9,4],[0,16],[-10,10],[-15,5],[-7,9],[4,7],[-16,11],[-9,7],[5,13],[-1,10],[-3,8],[8,4],[10,-4],[11,-7],[20,-5]],[[434,164],[1,-11],[-11,-2],[-30,10],[-12,-4],[-7,-11],[-39,-18],[-13,-18],[-5,-19],[-7,-6],[-10,11],[0,19],[-3,15],[-7,6],[-7,0],[-6,7],[5,10],[7,11],[10,22],[20,28],[29,16],[30,7],[19,-3],[6,-11],[2,-11],[-8,-8],[1,-5],[14,-8],[11,-13],[10,-14]],[[422,0],[-22,0],[-2,4],[-3,13],[-8,11],[-11,5],[-15,-2],[-18,-6],[-14,0],[-5,3],[-6,3],[-32,15],[-2,6],[15,2],[15,4],[6,4],[5,3],[12,-2],[13,-7],[16,7],[20,17],[15,3],[8,-6],[11,-3],[6,0],[6,1],[16,-1],[21,-5],[13,-8],[-3,-13],[-8,-10],[-3,-6],[-1,-13],[-9,-10],[-13,3],[-13,-3],[-8,-7],[-2,-2]],[[294,0],[-110,0],[0,1],[13,10],[-3,13],[-13,4],[-15,-4],[-19,5],[-17,11],[-10,14],[-4,19],[-2,22],[1,23],[6,22],[12,17],[15,8],[9,2],[25,3],[17,-6],[16,-11],[17,-20],[14,-35],[4,-28],[4,-13],[8,-11],[5,-15],[26,-27],[1,-4]],[[704,90],[11,-5],[20,7],[15,1],[7,-6],[5,-8],[9,-11],[4,-5],[3,-8],[-9,-2],[-12,6],[-14,4],[-11,-5],[4,-5],[9,-5],[-11,-10],[-25,-21],[-15,-7],[-2,16],[8,11],[9,6],[-5,8],[-32,6],[4,7],[-4,9],[-9,6],[-25,3],[-9,3],[-4,3],[3,3],[11,2],[8,6],[14,17],[14,12],[-1,5],[5,-2],[10,-10],[10,-15],[5,-16]],[[943,209],[-60,-11],[-23,3],[-17,8],[-35,24],[0,14],[8,9],[1,9],[-5,8],[-14,9],[20,15],[23,10],[48,9],[46,5],[23,-2],[20,-9],[16,-29],[-5,-34],[-19,-27],[-27,-11]],[[4096,156],[0,-136],[-10,-19],[-1,-1],[-66,0],[-24,32],[22,16],[35,-12],[3,51],[-18,9],[-27,-33],[-16,1],[-1,34],[1,19],[6,21],[-17,-13],[-15,-20],[9,-30],[-10,-9],[-21,22],[-35,-8],[-28,7],[10,22],[35,3],[19,11],[2,66],[-8,36],[12,15],[15,3],[7,-4],[8,12],[20,23],[-3,12],[-23,-25],[-18,-4],[-7,20],[19,45],[23,59],[31,27],[-1,13],[-25,32],[-25,-8],[-3,25],[21,30],[6,30],[23,80],[19,0],[36,-1],[20,-4],[0,-410],[-19,-19],[-4,-27],[23,7]],[[3876,0],[-38,0],[1,16],[13,24],[26,-4],[5,-12],[-6,-14],[-1,-10]],[[3990,0],[-60,0],[1,1],[20,0],[-7,14],[-2,12],[16,1],[13,-9],[19,-18],[0,-1]],[[2489,581],[6,0],[28,13],[3,-4],[-2,-9],[-14,-18],[-6,-4],[-10,-1],[-13,3],[-12,-2],[-15,-8],[-8,-7],[-8,-2],[-2,7],[5,11],[-1,10],[-7,6],[-5,1],[-6,5],[0,9],[4,8],[1,10],[5,6],[10,2],[46,-25],[1,-11]],[[1799,487],[-16,-1],[-17,9],[-51,53],[-6,21],[9,33],[6,8],[27,21],[5,11],[11,45],[-22,24],[3,14],[16,8],[18,2],[15,-7],[4,-17],[-7,-20],[-18,-16],[15,-4],[14,-21],[10,-27],[12,-44],[2,-26],[-5,-26],[-10,-24],[-15,-16]],[[4096,2153],[0,-93],[-13,-2],[-12,-11],[2,-13],[2,-33],[6,-35],[-14,-22],[-12,-22],[12,-17],[10,-10],[-2,-24],[-30,-10],[-28,-17],[-41,-40],[-34,1],[-7,-25],[-3,-33],[-9,-17],[-9,-15],[8,-24],[0,-11],[-16,-33],[-23,-50],[-26,-31],[-14,-29],[-10,-20],[-23,0],[-16,1],[-21,-3],[-15,1],[-16,-8],[-17,-2],[-1,-25],[11,-17],[2,-21],[-7,-24],[-33,-15],[-26,23],[-16,13],[-12,15],[-38,-41],[-18,-33],[-5,-35],[-12,-8],[-7,17],[-17,19],[1,-17],[3,-36],[-11,0],[-5,12],[-6,3],[-15,-10],[-14,-9],[-10,12],[-11,40],[4,37],[12,46],[2,25],[-7,7],[-13,-20],[-45,-79],[-20,-1],[-1,36],[1,34],[-10,2],[-12,-29],[-11,-42],[-36,4],[-96,-2],[-5,33],[-10,17],[-13,-49],[-15,-7],[-34,15],[-16,30],[-17,2],[-3,-2],[-19,-15],[0,78],[-6,6],[-13,-5],[-10,-16],[-1,-28],[-23,18],[-18,27],[-20,16],[-30,-12],[7,25],[-12,36],[5,13],[-14,47],[-9,5],[-16,-15],[-19,-29],[0,-19],[19,-38],[10,-48],[6,-16],[12,-22],[25,-33],[3,-16],[-7,-24],[12,-2],[18,-8],[10,-2],[-13,-9],[-12,-3],[-30,-1],[-15,4],[-5,10],[-1,12],[-4,11],[-14,15],[-10,8],[-79,28],[-22,1],[-48,-9],[-13,-7],[1,-12],[16,-24],[-27,-5],[-49,-26],[-58,-15],[-7,-23],[-3,-25],[-16,-16],[0,-12],[146,78],[24,1],[5,-31],[9,-23],[3,-21],[-12,-23],[-18,-11],[-29,-5],[-28,2],[-19,7],[-10,-17],[7,-8],[13,-8],[10,-15],[1,-10],[1,-13],[-2,-37],[-11,-74],[13,-12],[13,4],[10,14],[5,18],[19,-24],[-20,-36],[-37,-49],[-32,-9],[-44,3],[1,27],[28,0],[12,2],[7,12],[-90,11],[-19,7],[-21,30],[-3,14],[15,10],[34,13],[-34,67],[-23,-24],[-24,-47],[-34,-2],[-31,42],[-16,10],[-33,4],[-15,-9],[-8,-22],[-3,-27],[1,-27],[-31,6],[-67,-3],[-27,15],[-3,9],[-1,26],[-1,7],[-7,2],[-16,-3],[-21,5],[-34,3],[-12,7],[-7,14],[1,14],[3,13],[3,12],[-3,133],[3,21],[4,10],[7,13],[7,17],[2,22],[-23,-27],[-19,-32],[-23,-24],[-35,-3],[27,-63],[-19,-13],[-39,1],[-38,-24],[-15,43],[-9,17],[-17,13],[-4,-57],[-15,-46],[-31,-27],[-39,-4],[-15,6],[-14,4],[-12,-2],[-9,-8],[-21,18],[-15,4],[-10,3],[-59,-1],[-20,4],[-8,9],[-3,13],[-9,18],[-16,13],[-4,-14],[2,-21],[3,-9],[-10,-33],[-6,-12],[-13,-15],[-56,-45],[-30,-14],[-22,19],[-28,57],[-22,9],[-16,-23],[-8,-36],[2,-29],[13,-32],[23,-41],[26,-36],[23,-15],[16,-21],[15,-7],[18,11],[46,43],[31,4],[27,-5],[24,-2],[28,15],[-2,-35],[-5,-25],[-14,-51],[-17,-89],[-12,-21],[-51,-17],[-41,20],[-32,7],[-27,-59],[-8,6],[-2,-1],[-2,-3],[-8,-2],[12,-23],[8,-25],[11,-80],[-7,-15],[-15,8],[-24,26],[-34,4],[-26,14],[-17,27],[-7,40],[9,38],[19,37],[13,35],[-6,30],[-12,17],[-23,51],[-6,3],[-8,1],[-9,1],[-7,8],[-1,9],[3,11],[4,7],[-22,46],[-4,18],[1,10],[7,18],[1,9],[-3,10],[-7,8],[-6,2],[-4,-7],[-5,-4],[-25,-64],[-9,-14],[-5,-3],[-8,-1],[-49,-18],[-29,-3],[-63,1],[-24,-7],[19,-16],[38,-16],[31,-9],[0,-12],[-62,-20],[-31,-17],[-6,-25],[13,-10],[27,11],[15,-6],[10,-17],[-3,-7],[-8,-2],[-4,-4],[20,-72],[43,-38],[45,-29],[31,-45],[-15,2],[-25,0],[-11,-2],[62,-25],[8,-20],[5,-37],[-14,-13],[-15,-13],[-28,1],[-18,-4],[-66,41],[-22,7],[-19,-3],[-23,-11],[-20,-15],[-8,-13],[3,-6],[17,-37],[21,-5],[12,-8],[56,15],[30,-26],[-69,-65],[-25,-35],[-26,12],[-42,-32],[4,-31],[19,-20],[-41,-1],[-59,80],[-21,43],[-54,60],[-17,-4],[-58,-31],[6,-18],[4,-7],[-24,8],[-22,4],[-20,11],[-13,26],[-2,26],[9,15],[32,20],[11,9],[29,39],[18,39],[11,13],[21,11],[-1,-30],[-8,-29],[-21,-52],[43,2],[35,14],[22,29],[-1,53],[-8,21],[-12,12],[-8,13],[-1,28],[7,14],[42,47],[15,-8],[10,-11],[3,-14],[-8,-17],[9,-24],[12,-16],[17,-6],[23,9],[9,12],[20,44],[11,18],[-20,31],[-8,32],[-10,14],[-28,-22],[-31,-13],[-27,22],[-36,58],[-20,-32],[-30,-77],[-20,-25],[-21,-8],[-18,1],[-36,7],[-17,-6],[-16,-15],[-27,-35],[-11,-10],[-54,-31],[-29,-23],[-18,-11],[-18,-4],[-11,-6],[-2,-15],[0,-20],[-2,-20],[-10,-15],[-14,-16],[-6,-19],[11,-23],[-81,-80],[3,-74],[-14,-13],[-38,20],[-13,-16],[-6,-17],[0,-19],[9,-21],[-19,6],[-41,29],[-56,17],[-13,8],[-11,34],[6,91],[-6,35],[8,22],[-1,27],[-10,24],[-17,13],[-15,-5],[-16,-15],[-12,-19],[-5,-17],[6,-25],[9,-21],[0,-15],[-45,-16],[6,-21],[33,-42],[-56,-33],[-21,-20],[22,-8],[5,-4],[1,-9],[-2,-9],[-4,-4],[-9,2],[-14,8],[-7,2],[-19,-3],[-4,-8],[0,-13],[-8,-18],[-11,-8],[-43,-11],[-16,-14],[-6,-11],[-36,-121],[-3,-17],[0,-9],[-59,0],[0,592],[17,-9],[42,-14],[30,8],[-31,5],[-25,16],[-33,30],[0,22],[0,1],[0,229],[9,3],[67,-21],[34,-2],[-10,23],[22,11],[13,3],[15,-1],[-22,25],[-33,6],[-76,-7],[6,17],[-2,12],[-4,12],[0,19],[6,12],[7,9],[7,11],[0,18],[-11,27],[-21,6],[-7,-4],[0,1147],[46,3],[22,17],[20,30],[29,7],[26,-29],[27,-33],[19,-7],[-19,67],[-13,30],[-22,13],[-135,-22],[0,206],[50,27],[41,57],[6,53],[23,14],[16,10],[9,8],[52,5],[51,-6],[33,-25],[23,-6],[16,-27],[6,15],[5,20],[2,21],[-20,15],[-13,10],[-28,14],[-32,22],[-25,19],[-14,7],[4,15],[12,17],[12,9],[14,4],[81,-6],[18,2],[13,7],[9,16],[3,13],[7,9],[20,3],[6,6],[-7,13],[-16,14],[-17,6],[-4,-4],[-107,-43],[-36,-1],[-71,4],[-69,6],[-1,30],[-5,43],[-13,11],[-43,15],[-11,-1],[0,52],[72,7],[72,9],[73,5],[23,14],[25,-8],[31,16],[53,40],[68,27],[29,21],[3,26],[-85,-26],[-30,-10],[-30,-20],[-25,-23],[-27,-13],[-32,-6],[-31,-13],[-22,11],[-7,12],[-3,16],[-7,23],[-12,19],[-25,32],[-13,22],[20,16],[-9,12],[-20,8],[-18,6],[-34,57],[-25,11],[-14,-8],[0,87],[59,-17],[-21,36],[-12,13],[-17,12],[-9,2],[0,126],[8,17],[21,14],[-16,19],[-13,4],[0,59],[16,4],[13,18],[-9,24],[-20,5],[0,157],[52,15],[28,15],[-80,0],[0,222],[3133,0],[963,0],[0,-1905],[-2,1],[-12,-35],[14,-4]],[[315,0],[-14,55],[86,19],[58,-38],[1,-36],[-131,0]],[[1296,1934],[34,12],[49,-41],[2,25],[47,16],[36,88],[40,2],[16,-52],[-24,-20],[28,-35],[38,61],[18,-29],[-23,-74],[21,-37],[172,137],[12,-52],[44,19],[33,-42],[-5,-51],[-30,-8],[23,-40],[-30,7],[-26,-59],[-39,22],[-9,-35],[-39,1],[79,-74],[-187,-23],[-2,62],[-39,32],[-34,-64],[-39,9],[10,-46],[-42,-21],[-3,64],[-25,6],[-12,-40],[-69,59],[-8,45],[41,17],[9,73],[-66,35],[30,21],[-31,30]],[[90,563],[21,-56],[-48,20],[1,-29],[47,-30],[-40,-28],[-67,50],[16,78],[70,-5]],[[1123,631],[-8,-124],[-97,34],[-4,44],[109,46]],[[629,766],[1,-33],[-89,-56],[1,-56],[-24,-6],[-51,131],[162,20]],[[775,785],[-49,20],[-18,61],[67,19],[32,40],[33,-24],[16,-56],[-49,0],[-32,-60]],[[1374,1560],[-58,19],[-40,41],[8,21],[81,-42],[9,-39]],[[91,1648],[-12,31],[29,15],[36,105],[38,-33],[11,-67],[-43,-2],[-59,-49]],[[1454,1640],[-58,50],[-7,69],[25,2],[49,-83],[-9,-38]],[[1373,1849],[17,-50],[-114,-20],[61,70],[36,0]],[[969,1838],[113,0],[49,-99],[-49,-20],[-39,76],[-68,5],[-6,-41],[-49,20],[-87,-51],[-26,11],[130,159],[32,-60]],[[622,1819],[52,17],[20,-17],[-14,-51],[-116,31],[-32,-60],[-97,-20],[162,199],[30,-32],[-5,-67]],[[3148,1158],[15,-58],[-29,-82],[48,17],[-7,-75],[-103,44],[-58,-30],[-114,98],[134,-29],[-43,56],[-8,59],[165,0]],[[2634,1263],[24,0],[10,-41],[-11,-22],[-33,22],[-42,-10],[21,-49],[-13,-36],[-84,56],[16,79],[81,20],[32,40],[20,-11],[-21,-48]],[[1163,925],[-32,20],[48,39],[0,60],[-36,42],[4,37],[81,-99],[-49,-40],[-10,-50],[-6,-9]],[[2724,1043],[26,-8],[15,32],[19,-24],[-57,-85],[-52,-8],[24,43],[-27,4],[22,85],[36,2],[-6,-41]],[[1794,1302],[27,-23],[22,23],[3,-99],[46,-61],[-171,26],[-36,53],[-15,-89],[-63,-55],[-7,26],[-62,-4],[-39,44],[-16,-23],[7,-97],[88,-113],[79,47],[110,12],[-50,-221],[-51,-17],[-73,27],[-54,-74],[-20,62],[48,39],[-80,40],[-7,197],[-58,-18],[43,36],[2,40],[-50,-19],[-11,22],[-113,-39],[-49,139],[65,-40],[-16,139],[64,40],[29,-4],[36,-75],[146,59],[16,-79],[145,20],[-2,61],[-63,97],[82,-29],[48,-70]],[[2257,1684],[39,-5],[16,-39],[65,39],[32,-19],[-16,-159],[-65,19],[-32,-39],[64,-40],[-16,-60],[-145,-59],[32,-139],[32,-40],[49,40],[-11,-137],[-31,15],[-5,42],[-97,28],[27,255],[-60,-78],[-98,14],[-16,139],[48,-20],[-63,87],[-2,52],[49,-79],[49,0],[30,-70],[50,-10],[-32,119],[-61,64],[-4,36],[77,4],[55,58],[40,-18]],[[2084,1350],[50,-8],[-15,51],[-50,8],[15,-51]],[[1050,1540],[23,18],[10,-28],[-33,-10],[5,-51],[60,-8],[0,-80],[-114,-19],[-16,198],[28,12],[37,-32]],[[1228,1242],[-38,33],[-11,67],[41,-30],[8,-70]],[[397,1892],[-27,-193],[-48,-39],[-16,-80],[80,60],[213,49],[30,50],[30,-19],[19,-120],[-65,79],[36,-144],[-52,-34],[-6,-80],[38,-59],[16,79],[35,-26],[27,-144],[-45,-29],[-17,60],[-64,0],[0,60],[-33,0],[-32,39],[-24,-15],[-24,-104],[-171,21],[-39,-73],[-66,-27],[-48,48],[0,31],[58,9],[6,71],[98,-40],[-3,108],[-14,31],[-32,0],[-16,59],[-81,-39],[87,140],[42,19],[0,79],[33,0],[-65,60],[14,52],[99,87],[27,-26]],[[361,1385],[-7,-43],[65,0],[-7,43],[-51,0]],[[403,2871],[10,-30],[-24,-44],[-37,-32],[-30,7],[78,64],[-16,21],[19,14]],[[354,2613],[-66,-110],[-31,11],[5,53],[43,6],[-46,55],[45,-3],[16,-27],[13,55],[21,-40]],[[1294,2641],[-34,-8],[16,99],[49,-20],[-31,-71]],[[500,2633],[-40,62],[24,57],[33,-50],[-17,-69]],[[1808,2964],[67,-133],[-130,-39],[-48,59],[-53,-63],[-44,4],[-16,40],[32,19],[16,60],[113,40],[0,20],[63,-7]],[[2605,2893],[-34,-2],[16,40],[-32,40],[10,27],[87,-27],[-47,-78]],[[4096,3747],[-38,54],[38,55],[0,-109]],[[3719,4063],[9,-75],[-25,35],[-60,-29],[-21,29],[-32,-20],[-33,20],[13,31],[85,-11],[64,20]],[[188,4096],[5,-33],[-79,-25],[-35,5],[-16,40],[125,13]],[[618,4026],[-64,15],[-6,42],[91,2],[6,-42],[-27,-17]],[[2408,4041],[-48,2],[19,53],[56,0],[-27,-55]],[[2302,3662],[-51,105],[28,78],[31,10],[83,-90],[-49,-40],[-3,-54],[-39,-9]],[[0,3816],[0,11],[13,7],[-13,-18]],[[343,3926],[101,-26],[8,-40],[-98,-55],[-49,40],[17,79],[21,2]],[[3015,4096],[143,0],[32,-24],[66,24],[-6,-112],[-129,3],[-94,34],[-52,62],[-50,-13],[1,26],[89,0]],[[2508,3783],[-37,24],[3,38],[61,-30],[3,-30],[-30,-2]],[[807,3944],[49,0],[0,-40],[64,0],[-39,-101],[-90,-38],[-15,76],[31,43],[-28,57],[21,25],[7,-22]],[[1771,3988],[7,-44],[-49,12],[-70,-45],[-43,13],[1,26],[64,14],[9,22],[7,-22],[74,24]],[[1473,4096],[-35,-13],[-35,-66],[-30,66],[-48,-40],[-55,53],[203,0]],[[1167,4096],[-44,-73],[-30,-2],[-27,62],[-41,13],[142,0]],[[851,3084],[37,-74],[24,15],[8,65],[89,-41],[38,17],[-4,-44],[-58,-12],[0,-79],[-48,-20],[32,-79],[83,40],[26,-40],[-44,-20],[0,-40],[-49,-40],[-48,-119],[-79,-18],[-35,38],[-153,-89],[-28,44],[42,88],[58,-3],[10,21],[-26,118],[-58,-14],[-120,33],[0,80],[33,60],[48,-20],[65,20],[-5,-39],[-60,-61],[21,-34],[54,-3],[56,69],[47,8],[-16,60],[-81,19],[-16,60],[-32,0],[0,40],[78,17],[35,-37],[41,41],[35,-27]],[[888,2851],[-16,-79],[28,5],[37,-45],[4,72],[-53,47]],[[0,2918],[0,63],[265,27],[181,104],[5,57],[33,-19],[40,55],[24,-16],[-16,-79],[-48,-20],[-32,-70],[-38,-6],[-44,36],[1,-29],[48,-31],[-36,-45],[3,-34],[-17,-16],[1,76],[-40,-5],[-24,-35],[-49,0],[-44,-60],[-2,-50],[-138,10],[-19,84],[-54,3]],[[1697,3090],[-16,-56],[-52,-27],[-55,10],[-23,53],[146,20]],[[220,3064],[62,-3],[-115,-23],[-67,124],[20,16],[-36,22],[15,30],[142,-1],[-48,-139],[27,-26]],[[2247,3288],[49,20],[32,-20],[-16,-99],[-58,8],[-75,67],[-61,5],[30,57],[115,22],[-16,-60]],[[857,3259],[31,-110],[-89,5],[-8,-44],[-35,54],[19,65],[52,46],[30,-16]],[[1400,3406],[6,-98],[58,14],[51,-104],[-32,12],[-29,-41],[-52,4],[-12,-24],[-49,40],[-65,-20],[-81,119],[98,-39],[-16,81],[16,77],[32,-39],[40,34],[35,-16]],[[645,3368],[33,-40],[100,69],[45,-29],[-5,-32],[-85,-47],[-7,19],[-113,-40],[-32,140],[42,-6],[22,-34]],[[3134,3621],[-62,5],[-48,60],[74,49],[87,-10],[10,-45],[-61,-59]],[[495,3643],[21,-37],[111,5],[18,-45],[-65,-14],[-78,-76],[-51,31],[44,136]],[[1778,3428],[81,0],[16,-40],[-24,-39],[-9,19],[-32,-20],[0,-40],[-65,-20],[-61,82],[45,38],[-2,44],[51,-24]],[[1294,3947],[5,-41],[58,18],[-16,-99],[33,-159],[64,-40],[65,20],[33,-18],[15,38],[12,-11],[-28,-108],[16,-100],[-34,73],[-90,-6],[-21,92],[-81,-119],[-256,-12],[-133,72],[14,41],[84,18],[0,60],[-33,20],[16,39],[33,-19],[-16,32],[32,87],[-49,19],[13,33],[52,-32],[65,20],[-81,79],[5,24],[60,-24],[67,73],[68,6],[43,-19],[-15,-57]],[[0,3565],[0,68],[16,7],[15,105],[45,35],[68,5],[15,-36],[1,-123],[-80,-14],[-52,-63],[-28,16]],[[1423,2451],[15,-57],[-129,20],[75,54],[39,-17]],[[3283,2434],[-17,-59],[-64,-20],[-57,30],[-24,89],[81,-59],[16,79],[17,-3],[48,-57]],[[856,1858],[-35,7],[-13,34],[-1,98],[94,13],[35,-20],[17,-52],[-70,-22],[-27,-58]],[[217,2159],[-25,17],[10,33],[45,26],[26,-19],[-56,-57]],[[3821,2260],[-5,-40],[-49,-35],[-15,-88],[-49,-60],[-48,20],[0,199],[97,39],[-33,80],[49,0],[53,-115]],[[2332,2280],[56,-21],[29,17],[8,-21],[-57,-52],[-56,52],[-49,-19],[23,59],[46,-15]],[[1019,2445],[31,-11],[0,20],[65,-40],[-35,-66],[-79,-13],[24,68],[-40,31],[8,37],[26,-26]],[[1836,2202],[-55,-25],[13,-21],[-19,-24],[-12,12],[-1,52],[32,0],[32,40],[10,-34]],[[1186,2082],[139,-5],[-49,-139],[-77,-20],[-52,59],[-32,-39],[-33,19],[65,120],[39,5]],[[0,2017],[0,182],[46,10],[60,51],[-36,-154],[37,-3],[37,53],[65,-79],[97,39],[-81,-178],[-65,99],[-92,-21],[-29,24],[-8,-23],[-31,0]],[[482,2288],[28,0],[6,67],[18,-61],[-34,-98],[-130,-20],[-32,99],[-32,0],[32,120],[77,-48],[-12,-52],[79,-7]],[[1131,2238],[-33,57],[65,0],[-6,-43],[-26,-14]],[[1734,2156],[-37,0],[34,117],[31,-18],[-28,-99]],[[2895,2309],[13,-55],[-40,-48],[-6,-70],[32,-99],[-16,-40],[-81,-40],[7,-17],[58,18],[-16,-100],[129,80],[65,-40],[43,37],[54,3],[-16,59],[-49,25],[11,70],[-22,10],[43,15],[-32,19],[6,66],[59,14],[97,79],[49,-79],[64,0],[16,-40],[162,-20],[-31,-74],[-28,-11],[-74,42],[-37,-12],[-40,-64],[48,-119],[-97,-60],[17,-79],[48,0],[0,40],[113,-20],[17,59],[32,0],[65,100],[82,20],[15,39],[49,-74],[31,-5],[42,101],[7,-22],[16,20],[21,-14],[36,-56],[-8,-29],[-33,0],[17,-60],[-18,-31],[-47,-9],[44,-79],[69,20],[49,139],[92,-46],[13,-17],[-59,-51],[-34,1],[-20,-125],[-89,-163],[-108,-11],[5,-87],[-33,-15],[-54,51],[-61,-109],[-36,28],[4,-53],[-22,15],[-29,-19],[-21,52],[11,115],[-58,-99],[-20,-1],[-10,72],[-23,-71],[-132,2],[-15,50],[-28,-56],[-50,45],[-39,-15],[-6,84],[-24,-49],[-61,61],[-30,-12],[-23,126],[-35,-44],[28,-100],[-101,-16],[-26,-36],[-51,-11],[-36,27],[32,60],[81,20],[-49,158],[-64,-19],[-17,39],[-48,-20],[-49,20],[-64,-39],[-42,41],[-23,78],[-65,59],[27,38],[54,2],[-3,-81],[52,-38],[37,44],[11,75],[65,0],[-13,-79],[29,-60],[50,83],[47,-3],[3,34],[-68,25],[0,40],[-97,139],[83,-58],[95,18],[-16,80],[16,39],[-64,40],[0,40],[-49,20],[61,20],[52,-40],[33,20],[-17,19],[33,80],[33,-26]],[[2928,1873],[-17,-94],[193,40],[6,28],[-70,11],[-10,28],[-87,12],[-15,-25]],[[3187,1892],[58,-31],[37,57],[33,0],[-16,99],[-49,0],[0,-40],[-32,-39],[-33,0],[2,-46]],[[3299,1580],[0,-119],[27,2],[86,117],[-54,18],[-59,-18]],[[2587,2608],[-32,-74],[30,-37],[-10,-35],[-53,-8],[-81,-60],[-48,40],[-49,0],[16,40],[-32,79],[107,-12],[22,112],[65,-60],[10,21],[-39,45],[13,34],[81,-60],[0,-25]],[[532,2375],[-27,11],[-21,108],[48,0],[0,-119]],[[1984,2586],[166,-33],[6,-33],[-71,-6],[0,-20],[-48,20],[-49,-100],[-58,11],[-71,-31],[50,75],[79,5],[-48,99],[44,13]],[[4096,2906],[-50,31],[-3,53],[-45,1],[-52,-100],[81,-59],[32,-60],[-48,-40],[1,-26],[80,-172],[-49,39],[-10,-35],[63,-42],[-15,-530],[-21,-34],[-82,25],[-16,-19],[-49,39],[17,170],[-63,60],[-18,108],[146,40],[29,74],[-46,65],[17,79],[-33,60],[-32,-20],[-33,20],[49,40],[-19,30],[-125,-28],[-147,77],[16,79],[-16,60],[64,-20],[17,-59],[90,7],[-10,52],[98,90],[-45,-3],[-36,52],[-27,-14],[-38,74],[16,40],[34,-21],[69,23],[27,-22],[113,119],[-14,68],[83,48],[0,-419]],[[3036,3572],[4,-25],[-65,0],[-10,-109],[-141,-65],[-2,-60],[56,-5],[65,-119],[-27,-17],[-97,38],[-6,-21],[-63,-14],[-34,-46],[68,-100],[63,-11],[44,49],[-26,33],[29,10],[0,-40],[31,6],[66,74],[16,-40],[-16,-40],[81,-99],[34,77],[31,2],[-16,-139],[36,-35],[45,4],[37,45],[11,85],[113,-20],[33,40],[81,14],[0,46],[27,-1],[37,-59],[33,40],[31,-21],[-31,-78],[32,-60],[-32,-40],[-33,60],[-64,0],[32,-80],[-106,41],[-23,-41],[16,-99],[-36,-42],[20,-17],[-17,-40],[-81,39],[33,40],[-65,-20],[-16,-59],[-49,-20],[-16,-40],[-27,2],[-8,68],[-38,35],[-38,-69],[-83,-16],[-16,59],[-90,-45],[-39,6],[0,-179],[-125,-33],[-37,33],[16,80],[-49,119],[39,4],[10,55],[48,60],[-13,30],[-67,10],[46,39],[67,-19],[-27,66],[-70,13],[-4,70],[-22,16],[20,50],[-27,-17],[-63,71],[-50,9],[33,79],[-82,40],[0,79],[65,40],[16,40],[-48,139],[129,-20],[-1,-34],[-47,14],[24,-108],[41,9],[45,-59],[52,59],[161,40],[-12,39],[-60,35],[1,54],[130,68],[67,-52]],[[2876,683],[94,74],[17,94],[63,66],[83,28],[68,-22],[4,-95],[-68,-40],[-16,-92],[-47,-55],[-91,-28],[-94,29],[-13,41]],[[2536,901],[45,56],[41,12],[65,-42],[49,63],[32,2],[148,-218],[-122,-105],[-44,-8],[-81,62],[-133,178]],[[0,2060],[0,113],[13,24],[64,-9],[33,46],[50,-114],[-3,-48],[-32,-31],[-122,18],[-3,1]],[[2155,2586],[50,127],[77,20],[59,-30],[-90,-125],[-96,8]],[[4005,2679],[8,110],[26,30],[57,-30],[0,-146],[-62,-11],[-29,47]],[[3703,3759],[6,25],[154,13],[19,-115],[-22,-57],[-54,-14],[-46,61],[8,61],[-65,26]],[[950,145],[22,38],[237,152],[103,-35],[123,12],[36,-42],[-14,-66],[-61,-61],[-199,38],[-172,-118],[-75,82]],[[1630,386],[42,113],[91,-22],[50,72],[14,-175],[96,-123],[-45,-68],[-95,-54],[-153,257]],[[2536,901],[45,56],[41,12],[65,-42],[49,63],[32,2],[148,-218],[-122,-105],[-44,-8],[-81,62],[-133,178]],[[0,2308],[0,174],[119,27],[42,-34],[-14,-94],[-29,-46],[13,27],[-41,-35],[-70,10],[-6,-39],[-14,10]],[[1590,2621],[44,219],[-12,137],[83,-123],[6,98],[63,38],[49,-141],[-25,-107],[-69,-38],[-75,-105],[-56,-7],[-8,29]],[[844,3688],[24,86],[165,-27],[-12,-103],[-62,-43],[-19,-52],[-88,89],[-8,50]],[[1779,4026],[62,70],[81,0],[40,-191],[-131,-21],[-9,56],[23,12],[-46,25],[-20,49]]]}