{"objects":{"water":{"type":"GeometryCollection","geometries":[{"type":"MultiPolygon","properties":{"source":"naturalearthdata.com","kind":"ocean","area":1576712559132672,"sort_rank":200,"min_zoom":0.0,"id":1},"arcs":[[[2]],[[3]]]},{"type":"MultiLineString","properties":{"source":"naturalearthdata.com","kind":"ocean","sort_rank":205,"boundary":true,"min_zoom":0.0,"id":45},"arcs":[[4],[5]]},{"type":"LineString","properties":{"source":"naturalearthdata.com","kind":"ocean","sort_rank":205,"boundary":true,"min_zoom":0.0,"id":55},"arcs":[6]}]},"buildings":{"type":"GeometryCollection","geometries":[]},"places":{"type":"GeometryCollection","geometries":[{"type":"Point","properties":{"kind":"region","name:en":"Red Sea Governorate","name":"\u0627\u0644\u0628\u062d\u0631 \u0627\u0644\u0623\u062d\u0645\u0631","kind_detail":"state","name:de":"Gouvernement Rotes Meer","source":"openstreetmap.org","min_zoom":4.0,"name:ru":"\u041a\u0440\u0430\u0441\u043d\u043e\u0435 \u041c\u043e\u0440\u0435","name:hu":"V\u00f6r\u00f6s-tenger korm\u00e1nyz\u00f3s\u00e1g","id":2372908511},"coordinates":[1136,428]}]},"transit":{"type":"GeometryCollection","geometries":[]},"pois":{"type":"GeometryCollection","geometries":[]},"boundaries":{"type":"GeometryCollection","geometries":[{"type":"LineString","properties":{"name:kg":"Misiri","alt_name:ce":"\u0415\u0433\u0438\u0301\u043f\u0435\u0442","name:ty":"\u2019Aifiti","name:ka":"\u10d4\u10d2\u10d5\u10d8\u10de\u10e2\u10d4","name:tr":"M\u0131s\u0131r","name:ts":"Gibita","name:km":"\u17a2\u17c1\u17a0\u17ca\u17d2\u179f\u17b8\u1794","name:kl":"Egypt","name:kk":"\u041c\u044b\u0441\u044b\u0440","name:tw":"Egypt","name:tt":"\u041c\u0438\u0441\u044b\u0301\u0440","name:kw":"Ejyp","name:tk":"M\u00fcs\u00fcr","name:ku":"Misir","name:ti":"\u130d\u1265\u133d","name:ks":"\u0645\u0650\u0633\u0631","name:to":"\u02bbIsipite","name:tl":"Ehipto","name:ce":"\u041c\u0438\u0441\u0430\u0440","name:ta":"\u0b8e\u0b95\u0bbf\u0baa\u0bcd\u0ba4\u0bc1","name:tg":"\u041c\u0438\u0441\u0440","name:ky":"\u0415\u0433\u0438\u043f\u0435\u0442","name:te":"\u0c08\u0c1c\u0c3f\u0c2a\u0c4d\u0c1f\u0c41","alt_name:ts":"Egypt","alt_name:ln":"Ejipiti;Misiri","name:cy":"Yr Aifft","name:qu":"Ihiptu","alt_name:ty":"Egipt","name:de":"\u00c4gypten","source":"openstreetmap.org","name:kn":"\u0c88\u0c9c\u0cbf\u0caa\u0ccd\u0c9f\u0ccd","alt_name:th":"\u0e2d\u0e35\u0e22\u0e34\u0e1b\u0e15\u0e4c","name:dv":"\u0789\u07a8\u079e\u07b0\u0783\u07aa","name:cu":"\u0404\u0433\u0477\u043f\u0442\u044a","alt_name:da":"\u00c6gypten","name:lv":"\u0112\u0123ipte","name:lt":"Egiptas","name:uz":"Misr","name:cs":"Egypt","name:lb":"Egypten","name:la":"Aegyptus","name:ki":"Egypt","name:uk":"\u0404\u0433\u0438\u0301\u043f\u0435\u0442","name:ug":"\u0645\u0649\u0633\u0649\u0631","name:li":"Egypte","name:ln":"Ejipte","name:lo":"\u0ead\u0eb5\u0ea2\u0eb4\u0e9a","name:el":"\u0391\u03af\u03b3\u03c5\u03c0\u03c4\u03bf\u03c2","name:eo":"Egiptujo","name:en":"Egypt","name":"\u0645\u0635\u0631","name:kv":"\u0415\u0433\u0438\u043f\u0435\u0442","name:ee":"Edzipti","name:th":"\u0e1b\u0e23\u0e30\u0e40\u0e17\u0e28\u0e2d\u0e35\u0e22\u0e34\u0e1b\u0e15\u0e4c","name:eu":"Egipto","name:et":"Egiptus","name:es":"Egipto","name:ia":"Egypto","name:rm":"Egipta","name:rn":"Egipto","name:az":"Misir","name:ie":"Egiptia","name:id":"Mesir","name:ig":"Egypt","name:as":"\u0987\u099c\u09bf\u09aa\u09cd\u09a4","name:zh-min-nan":"Ai-ki\u030dp","name:io":"Egiptia","name:ak":"Igyipt","name:am":"\u130d\u1265\u1345","name:it":"Egitto","name:an":"Echipto","name:ru":"\u0415\u0433\u0438\u0301\u043f\u0435\u0442","name:ab":"\u041c\u044b\u0301\u0441\u0440\u044b","name:af":"Egipte","name:zu":"iGibhithe","kind_detail":"2","name:za":"Aehciz","name:zh-yue":"\u57c3\u53ca","alt_name:rn":"Misiri","name:zh":"\u57c3\u53ca","name:so":"Masar","name:sn":"Egypt","name:sm":"Aikupito","name:sl":"Egipt","name:sk":"Egypt","alt_name:ba":"\u0415\u0433\u0438\u043f\u0435\u0442","name:si":"\u0d8a\u0da2\u0dd3\u0db4\u0dca\u0dad\u0dd4\u0dc0","name:sh":"Egipat","name:sg":"K\u00e2mit\u00e2","name:se":"Egypta","name:sc":"Egittu","name:br":"Egipt","name:bs":"Egipat","name:bm":"Misra","name:bn":"\u09ae\u09bf\u09b6\u09b0","name:bo":"\u0f68\u0f60\u0f72\u0f0b\u0f45\u0f72\u0f0d","name:sa":"\u0908\u091c\u093f\u092a\u094d\u0924\u0926\u0947\u0936\u0903","alt_name:br":"Ejipt","name:sw":"Misri","name:be":"\u0415\u0433\u0456\u0301\u043f\u0435\u0442","name:su":"Mesir","name:bg":"\u0415\u0433\u0438\u043f\u0435\u0442","name:ss":"iGibhithe","name:sr":"\u0415\u0433\u0438\u043f\u0430\u0442","name:sq":"Egjipti","alt_name:sq":"Misiri","alt_name:kg":"Ngipiti","name:jv":"Mesir","alt_name:ky":"\u041c\u0438\u0441\u0438\u0440","alt_name:sl":"Misr","name:pt":"Egito","name:da":"Egypten","name:om":"Ijiipti","name:oc":"Egipte","alt_name:gd":"\u00c8iphit","min_zoom":8.0,"name:ro":"Egipt","name:ko":"\uc774\uc9d1\ud2b8","name:pa":"\u0a2e\u0a3f\u0a38\u0a30","name:os":"\u041c\u044b\u0441\u044b\u0440","name:or":"\u0b07\u0b1c\u0b3f\u0b2a\u0b4d\u0b1f","name:pl":"Egipt","alt_name:gv":"Eajipt","alt_name:gu":"\u0aae\u0abf\u0ab8\u0ab0","name:pi":"\u0908\u091c\u093f\u092a\u094d\u091f","name:st":"Egepeta","sort_rank":262,"name:ba":"\u041c\u044b\u0441\u044b\u0440","osm_relation":true,"alt_name:as":"\u09ae\u09bf\u099b\u09f0","name:hi":"\u092e\u093f\u0938\u094d\u0930","name:sv":"Egypten","name:he":"\u05de\u05e6\u05e8\u05d9\u05dd","name:ha":"Misra","name:ja":"\u30a8\u30b8\u30d7\u30c8","name:hy":"\u0535\u0563\u056b\u057a\u057f\u0578\u057d","name:ht":"Ejip","name:hu":"Egyiptom","name:hr":"Egipat","kind":"country","name:is":"Egyptaland","alt_name:is":"Egiptaland","name:yi":"\u05e2\u05d2\u05d9\u05e4\u05d8\u05df","name:yo":"\u1eb8\u0301g\u00edpt\u00ec","name:mt":"E\u0121ittu","alt_name:eo":"Egipto;Egiptio","name:ms":"Mesir","name:mr":"\u0907\u091c\u093f\u092a\u094d\u0924","alt_name:ee":"Egipte","name:my":"\u1021\u102e\u1002\u103b\u1005\u103a\u1014\u102d\u102f\u1004\u103a\u1004\u1036","official_name":"\u062c\u0645\u0647\u0648\u0631\u064a\u0629 \u0645\u0635\u0631 \u0627\u0644\u0639\u0631\u0628\u064a\u0629","int_name":"Egypt \u0645\u0635\u0631","name:mg":"Ejipta","name:ml":"\u0d08\u0d1c\u0d3f\u0d2a\u0d4d\u0d24\u0d4d","name:vi":"Ai C\u1eadp","name:mn":"\u0415\u0433\u0438\u043f\u0435\u0442","id":-1473947,"name:mk":"\u0415\u0433\u0438\u043f\u0435\u0442","name:vo":"L\u00e4g\u00fcpt\u00e4n","old_name:fi":"Yhdistynyt arabitasavalta","name:ff":"Ejipt","name:fi":"Egypti","name:fj":"Ijipta","name:fo":"Egyptaland","name:fr":"\u00c9gypte","name:ca":"Egipte","name:fy":"Egypte","alt_name:qu":"Misir","name:nl":"Egypte","name:nn":"Egypt","name:no":"Egypt","name:na":"Idjipt","name:ne":"\u092e\u093f\u0936\u094d\u0930","name:wa":"Edjipe","name:wo":"Isipt","name:nv":"\u00cd\u00edjip","name:ga":"An \u00c9igipt","name:gd":"An \u00c8ipheit","name:gn":"Ehipto","name:gl":"Exipto","maritime_boundary":true,"alt_name:wo":"Ejipt","name:gv":"Yn Egypt","name:gu":"\u0a87\u0a9c\u0abf\u0aaa\u0acd\u0aa4","name:lg":"Egypt"},"arcs":[0]},{"type":"LineString","properties":{"kind":"region","name:en":"Red Sea Governorate","name":"\u0627\u0644\u0628\u062d\u0631 \u0627\u0644\u0623\u062d\u0645\u0645\u0631","name:lt":"Raudonosios J\u016bros muchafaza","sort_rank":256,"kind_detail":"4","min_zoom":8.0,"name:de":"Gouvernement des Roten Meeres","source":"openstreetmap.org","maritime_boundary":true,"name:ru":"\u043c\u0443\u0445\u0430\u0444\u0430\u0437\u0430 \u041a\u0440\u0430\u0441\u043d\u043e\u0435 \u041c\u043e\u0440\u0435","name:hu":"V\u00f6r\u00f6s-tenger korm\u00e1nyz\u00f3s\u00e1g","id":-3061758,"osm_relation":true},"arcs":[1]}]},"roads":{"type":"GeometryCollection","geometries":[{"type":"MultiLineString","properties":{"sort_rank":380,"kind_detail":"primary","min_zoom":8.0,"kind":"major_road","source":"openstreetmap.org"},"arcs":[[7],[8],[9],[10]]},{"type":"MultiLineString","properties":{"sort_rank":381,"source":"openstreetmap.org","min_zoom":8.0,"kind":"major_road","kind_detail":"trunk"},"arcs":[[11],[12],[13],[14],[15],[16],[17],[18],[19],[20],[21],[22]]},{"type":"LineString","properties":{"source":"openstreetmap.org","kind":"major_road","name:en":"Sheikh Salim-Sheikh Shazly","sort_rank":381,"kind_detail":"trunk","min_zoom":8.0},"arcs":[23]},{"type":"MultiLineString","properties":{"source":"openstreetmap.org","kind":"major_road","sort_rank":381,"kind_detail":"trunk","ref":"24","min_zoom":8.0},"arcs":[[24],[25],[26],[27],[28],[29],[30]]},{"type":"MultiLineString","properties":{"source":"openstreetmap.org","kind":"major_road","sort_rank":380,"kind_detail":"primary","ref":"24","min_zoom":8.0},"arcs":[[31],[32]]}]},"earth":{"type":"GeometryCollection","geometries":[{"type":"MultiPolygon","properties":{"sort_rank":10,"source":"naturalearthdata.com","min_zoom":0.0,"kind":"earth","area":30203494747},"arcs":[[[33]]]}]},"landuse":{"type":"GeometryCollection","geometries":[]}},"type":"Topology","transform":{"translate":[33.75,24.5271348226],"scale":[0.0003433228,0.0003107315]},"arcs":[[[4096,2404],[-281,547],[-110,144],[-437,395],[-248,606]],[[4096,2404],[-281,547],[-110,144],[-437,395],[-248,606]],[[4096,74],[0,-74],[-34,0],[0,2],[34,72]],[[2129,4096],[1967,0],[0,-3933],[-30,26],[-55,102],[-51,84],[-16,43],[-68,252],[-50,93],[-76,70],[-46,30],[-33,29],[-24,36],[-16,48],[-8,61],[-2,120],[-10,59],[-58,69],[-47,57],[-31,87],[-11,104],[-251,436],[-135,234],[-34,137],[-88,135],[-18,43],[-27,94],[-18,40],[-126,160],[-53,89],[-30,165],[-71,136],[-40,152],[-253,501],[-24,34],[-106,116],[-61,91]],[[4062,0],[0,2],[34,72]],[[4096,163],[-30,26],[-55,102],[-51,84],[-16,43],[-68,252],[-50,93],[-76,70],[-46,30],[-33,29],[-24,36],[-16,48],[-8,61],[-2,120],[-10,59],[-58,69],[-47,57],[-31,87],[-11,104],[-251,436]],[[3213,1969],[-135,234],[-34,137],[-88,135],[-18,43],[-27,94],[-18,40],[-126,160],[-53,89],[-30,165],[-71,136],[-40,152],[-253,501],[-24,34],[-106,116],[-61,91]],[[2467,3318],[44,23]],[[2512,3342],[-1,-1]],[[2511,3341],[1,-1]],[[2466,3317],[1,-1],[0,1],[0,1],[-1,-1]],[[2528,3285],[-1,15]],[[2637,3123],[105,-335],[115,-129]],[[2853,2638],[2,7]],[[2854,2646],[-1,-8]],[[2853,2638],[17,-55]],[[2856,2655],[-2,-7]],[[2855,2648],[1,7]],[[2857,2659],[-1,-4]],[[2858,2681],[-1,-22]],[[2514,3340],[1,1],[-1,2],[-2,-2],[2,-1]],[[2530,3261],[-2,1],[0,-3],[1,0],[1,2]],[[2853,2647],[1,-2],[1,1],[0,2],[-2,-1]],[[2317,0],[-34,183],[-58,139],[15,120],[-40,94],[8,108],[53,57],[-71,193],[-28,200],[-31,35],[90,85],[53,182],[67,-9],[29,42],[-76,135],[-24,110]],[[2069,4096],[84,-104],[137,-66],[162,-423],[53,-68],[8,-91]],[[2516,3337],[12,-75]],[[2529,3262],[-1,23]],[[2529,3256],[163,-177],[53,-234],[113,-164]],[[2870,2583],[29,-108],[81,-67],[58,-106],[15,-86],[146,-181]],[[3199,2035],[-3,-43],[50,-49],[76,-199],[79,-180],[51,-83],[-31,-77],[112,-149],[78,-270],[249,-297],[20,-191],[44,-87],[4,-79],[128,-197],[-19,-134]],[[3452,1481],[-207,466],[-49,46],[3,42]],[[3333,1722],[0,1]],[[3452,1481]],[[4096,163],[0,-89],[-34,-72],[0,-2],[-4062,0],[0,4096],[2129,0],[61,-91],[106,-116],[24,-34],[253,-501],[40,-152],[71,-136],[30,-165],[53,-89],[126,-160],[18,-40],[27,-94],[18,-43],[88,-135],[34,-137],[135,-234],[251,-436],[11,-104],[31,-87],[47,-57],[58,-69],[10,-59],[2,-120],[8,-61],[16,-48],[24,-36],[33,-29],[46,-30],[76,-70],[50,-93],[68,-252],[16,-43],[51,-84],[55,-102],[30,-26]]]}