{"objects":{"water":{"type":"GeometryCollection","geometries":[{"type":"Polygon","properties":{"source":"naturalearthdata.com","kind":"ocean","area":1576712559132672,"sort_rank":200,"min_zoom":0.0,"id":1},"arcs":[[1]]}]},"buildings":{"type":"GeometryCollection","geometries":[]},"places":{"type":"GeometryCollection","geometries":[]},"transit":{"type":"GeometryCollection","geometries":[]},"pois":{"type":"GeometryCollection","geometries":[]},"boundaries":{"type":"GeometryCollection","geometries":[{"type":"LineString","properties":{"int_name":"Murmansk Oblast","name:sk":"Murmansk\u00e1 oblas\u0165","name:lt":"Murmansko sritis","name:no":"Murmansk oblast","name:cs":"Murmansk\u00e1 oblast","min_zoom":8.0,"name:sv":"Murmansk oblast","name:pl":"Obw\u00f3d murma\u0144ski","name:de":"Oblast Murmansk","name:hr":"Murmanska oblast","name:sr":"\u041c\u0443\u0440\u043c\u0430\u043d\u0441\u043a\u0430 \u043e\u0431\u043b\u0430\u0441\u0442","name:ca":"Prov\u00edncia de M\u00farmansk","kind":"region","name:en":"Murmansk Oblast","name":"\u041c\u0443\u0440\u043c\u0430\u043d\u0441\u043a\u0430\u044f \u043e\u0431\u043b\u0430\u0441\u0442\u044c","sort_rank":256,"kind_detail":"4","name:fr":"Oblast de Mourmansk","id":-2099216,"source":"openstreetmap.org","maritime_boundary":true,"osm_relation":true,"name:fi":"Murmanskin alue","name:es":"\u00d3blast de M\u00farmansk"},"arcs":[0]}]},"roads":{"type":"GeometryCollection","geometries":[]},"earth":{"type":"GeometryCollection","geometries":[]},"landuse":{"type":"GeometryCollection","geometries":[]}},"type":"Topology","transform":{"translate":[33.75,69.657086273],"scale":[0.0003433228,0.0001179878]},"arcs":[[[936,0],[-936,1023]],[[4096,0],[-4096,0],[0,4096],[4096,0],[0,-4096]]]}