{"objects":{"water":{"type":"GeometryCollection","geometries":[{"type":"Polygon","properties":{"source":"naturalearthdata.com","kind":"ocean","area":1576712559132672,"sort_rank":200,"min_zoom":0.0,"id":1},"arcs":[[6]]},{"type":"LineString","properties":{"source":"naturalearthdata.com","kind":"ocean","sort_rank":205,"boundary":true,"min_zoom":0.0,"id":50},"arcs":[7]}]},"buildings":{"type":"GeometryCollection","geometries":[]},"places":{"type":"GeometryCollection","geometries":[{"type":"Point","properties":{"name:sr":"\u0421\u0438\u043c\u0444\u0435\u0440\u043e\u043f\u043e\u0459","name:sk":"Simferopo\u013e","name:lt":"Simferopolis","name:cs":"Simferopol","min_zoom":8.0,"name:uk":"\u0421\u0456\u043c\u0444\u0435\u0440\u043e\u043f\u043e\u043b\u044c","name:be":"\u0421\u0456\u043c\u0444\u044d\u0440\u043e\u043f\u0430\u043b\u044c","name:nl":"Simferopol","name:pl":"Symferopol","name:hu":"Szimferopol","name:hr":"Simferopolj","id":252176252,"name:ca":"Simfer\u00f2pol","population":336430,"name:el":"\u03a3\u03c5\u03bc\u03c6\u03b5\u03c1\u03bf\u03cd\u03c0\u03bf\u03bb\u03b7","kind":"locality","name:en":"Simferopol","name":"\u0421\u0438\u043c\u0444\u0435\u0440\u043e\u043f\u043e\u043b\u044c","kind_detail":"city","name:de":"Simferopol","source":"openstreetmap.org","name:fr":"Simferopol","name:et":"Simferopol","name:zh":"\u8f9b\u83f2\u7f57\u6ce2\u5c14","name:es":"Simfer\u00f3pol"},"coordinates":[1027,3536]},{"type":"Point","properties":{"name:lt":"Jalta","name:tr":"Yalta","name:cs":"Jalta","min_zoom":8.0,"name:it":"Jalta","name:pl":"Ja\u0142ta","name:hu":"Jalta","name:hr":"Jalta","id":1830695013,"population":77003,"kind":"locality","name:en":"Yalta","name":"\u042f\u043b\u0442\u0430","kind_detail":"town","name:de":"Jalta","source":"openstreetmap.org","name:fr":"Yalta","name:es":"Yalta"},"coordinates":[1190,1675]},{"type":"Point","properties":{"kind":"locality","name:ro":"Alu\u015fta","name":"\u0410\u043b\u0443\u0448\u0442\u0430","name:lt":"Alu\u0161ta","name:tr":"Alu\u015fta","kind_detail":"town","min_zoom":8.0,"name:de":"Aluschta","source":"openstreetmap.org","name:fr":"Alouchta","name:en":"Alushta","name:sv":"Alusjta","name:pl":"A\u0142uszta","id":254554018,"population":28919},"coordinates":[1921,2411]},{"type":"Point","properties":{"kind":"locality","name:en":"Bakhchisarai","name":"\u0411\u0430\u0445\u0447\u0438\u0441\u0430\u0440\u0430\u0439","name:lt":"Bach\u010disarajus","alt_name:de":"Bachtschyssaraj","name:tr":"Bah\u00e7esaray","kind_detail":"town","min_zoom":8.0,"name:de":"Bachtschissarai","source":"openstreetmap.org","name:fr":"Bakhtchyssara\u00ef","name:pl":"Bakczysaraj","id":292995540,"name:es":"Bajchisar\u00e1i","population":26215},"coordinates":[301,2719]},{"type":"Point","properties":{"old_name:fr":"Karassoubazar","alt_name:en":"Bilohirsk","name:lt":"Bilohirskas","alt_name:de":"Bilohirsk","min_zoom":8.0,"name:uk":"\u0411\u0456\u043b\u043e\u0433\u0456\u0440\u0441\u044c\u043a","name:pl":"Bi\u0142ohir\u015bk","id":337697952,"population":18208,"kind":"locality","name:en":"Belogorsk","name":"\u0411\u0435\u043b\u043e\u0433\u043e\u0440\u0441\u043a","kind_detail":"town","name:de":"Belogorsk","source":"openstreetmap.org","name:fr":"Belogorsk","name:es":"Belogorsk"},"coordinates":[2461,3971]},{"type":"Point","properties":{"kind":"locality","name:en":"Sudak","name":"\u0421\u0443\u0434\u0430\u043a","name:lt":"Sudakas","kind_detail":"town","min_zoom":8.0,"name:de":"Sudak","source":"openstreetmap.org","name:fr":"Soudak","name:pl":"Sudak","id":321657923,"name:es":"Sudak","population":15300},"coordinates":[3557,3114]},{"type":"Point","properties":{"kind":"locality","name:en":"Gaspra","name":"\u0413\u0430\u0441\u043f\u0440\u0430","kind_detail":"town","min_zoom":8.0,"name:de":"Haspra","source":"openstreetmap.org","name:fr":"Haspra","name:pl":"Haspra","id":337700267,"population":11313},"coordinates":[1028,1424]},{"type":"Point","properties":{"kind":"locality","name:en":"Gresovsky","name":"\u0413\u0440\u044d\u0441\u043e\u0432\u0441\u043a\u0438\u0439","kind_detail":"town","min_zoom":8.0,"source":"openstreetmap.org","name:fr":"Gressovsky","name:uk":"\u0413\u0440\u0435\u0441\u0456\u0432\u0441\u044c\u043a\u0438\u0439","name:pl":"Hresiw\u015bkyj","id":337698300,"population":11139},"coordinates":[805,3773]},{"type":"Point","properties":{"kind":"locality","name:en":"Stary Krym","name":"\u0421\u0442\u0430\u0440\u044b\u0439 \u041a\u0440\u044b\u043c","kind_detail":"town","name:de":"Stary Krym","source":"openstreetmap.org","min_zoom":8.0,"name:uk":"\u0421\u0442\u0430\u0440\u0438\u0439 \u041a\u0440\u0438\u043c","name:pl":"Stary Krym","id":337698201,"name:es":"Staryi Krym","population":9446},"coordinates":[3898,3852]},{"type":"Point","properties":{"kind":"locality","name:en":"Gurzuf","name":"\u0413\u0443\u0440\u0437\u0443\u0444","kind_detail":"town","min_zoom":8.0,"name:de":"Gursuf","source":"openstreetmap.org","name:fr":"Gourzouf","name:pl":"Gurzuf","id":337700009,"population":9068},"coordinates":[1525,1883]},{"type":"Point","properties":{"kind":"locality","name:en":"Alupka","name":"\u0410\u043b\u0443\u043f\u043a\u0430","name:lt":"Alupka","kind_detail":"town","min_zoom":8.0,"name:de":"Alupka","source":"openstreetmap.org","name:fr":"Aloupka","int_name":"Alupka","name:pl":"A\u0142upka","id":2407788294,"name:es":"Alupka","population":8497},"coordinates":[869,1361]},{"type":"Point","properties":{"kind":"locality","name:en":"Massandra","name":"\u041c\u0430\u0441\u0441\u0430\u043d\u0434\u0440\u0430","kind_detail":"town","min_zoom":8.0,"name:de":"Massandra","source":"openstreetmap.org","name:fr":"Massandra","name:uk":"\u041c\u0430\u0441\u0430\u043d\u0434\u0440\u0430","name:pl":"Masandra","id":337700122,"population":8413},"coordinates":[1278,1723]},{"type":"Point","properties":{"kind":"locality","name:en":"Molodizhne","name":"\u041c\u043e\u043b\u043e\u0434\u0451\u0436\u043d\u043e\u0435","kind_detail":"town","min_zoom":8.0,"name:de":"Molodjoschnoje","source":"openstreetmap.org","name:fr":"Molodijne","name:uk":"\u041c\u043e\u043b\u043e\u0434\u0456\u0436\u043d\u0435","name:pl":"Mo\u0142odi\u017cne","id":337698341,"population":7151},"coordinates":[893,3770]},{"type":"Point","properties":{"kind":"locality","name:en":"Zuya","name":"\u0417\u0443\u044f","kind_detail":"town","min_zoom":8.0,"source":"openstreetmap.org","name:fr":"Zou\u00efa","name:pl":"Zuja","id":337697977,"population":7027},"coordinates":[1668,3956]},{"type":"Point","properties":{"kind":"locality","name:en":"Koreiz","name":"\u041a\u043e\u0440\u0435\u0438\u0437","kind_detail":"town","min_zoom":8.0,"source":"openstreetmap.org","name:fr":"Kore\u00efz","name:uk":"\u041a\u043e\u0440\u0435\u0457\u0437","name:pl":"Korejiz","id":337700260,"population":6294},"coordinates":[996,1417]},{"type":"Point","properties":{"kind":"locality","name:en":"Partenit","name":"\u041f\u0430\u0440\u0442\u0435\u043d\u0438\u0442","kind_detail":"town","min_zoom":8.0,"name:de":"Partenit","source":"openstreetmap.org","name:fr":"Partenit","name:uk":"\u041f\u0430\u0440\u0442\u0435\u043d\u0456\u0442","name:pl":"Partenit","id":337699879,"population":6061},"coordinates":[1727,2021]},{"type":"Point","properties":{"kind":"locality","name:en":"Agrarnoye","name":"\u0410\u0433\u0440\u0430\u0440\u043d\u043e\u0435","kind_detail":"town","name:de":"Agrarnoje","source":"openstreetmap.org","min_zoom":8.0,"name:uk":"\u0410\u0433\u0440\u0430\u0440\u043d\u0435","id":337698272,"population":5938},"coordinates":[870,3797]},{"type":"Point","properties":{"kind":"locality","name:en":"Komsomolskoye","name":"\u041a\u043e\u043c\u0441\u043e\u043c\u043e\u043b\u044c\u0441\u043a\u043e\u0435","kind_detail":"town","source":"openstreetmap.org","min_zoom":8.0,"name:uk":"\u041a\u043e\u043c\u0441\u043e\u043c\u043e\u043b\u044c\u0441\u044c\u043a\u0435","name:pl":"Komsomol\u015bke","id":337698279,"population":4787},"coordinates":[791,3813]},{"type":"Point","properties":{"kind":"locality","name:en":"Simeiz","name":"\u0421\u0438\u043c\u0435\u0438\u0437","kind_detail":"town","min_zoom":8.0,"source":"openstreetmap.org","name:fr":"Sime\u00efz","name:uk":"\u0421\u0456\u043c\u0435\u0457\u0437","name:pl":"Simejiz","id":337700311,"population":3950},"coordinates":[743,1302]},{"type":"Point","properties":{"kind":"locality","name:en":"Pochtovoye","name":"\u041f\u043e\u0447\u0442\u043e\u0432\u043e\u0435","kind_detail":"town","name:de":"Potschtowoje","source":"openstreetmap.org","min_zoom":8.0,"name:uk":"\u041f\u043e\u0448\u0442\u043e\u0432\u0435","name:pl":"Posztowe","id":337699174,"population":3147},"coordinates":[618,3056]},{"type":"Point","properties":{"kind":"locality","name:en":"Nikita","name":"\u041d\u0438\u043a\u0438\u0442\u0430","kind_detail":"town","source":"openstreetmap.org","min_zoom":8.0,"name:uk":"\u041d\u0456\u043a\u0456\u0442\u0430","name:pl":"Nikita","id":337700092,"population":2454},"coordinates":[1421,1752]},{"type":"Point","properties":{"kind":"locality","name:en":"Kuybyshevo","name":"\u041a\u0443\u0439\u0431\u044b\u0448\u0435\u0432\u043e","kind_detail":"town","name:de":"Kuibyschewo","source":"openstreetmap.org","min_zoom":8.0,"name:uk":"\u041a\u0443\u0439\u0431\u0438\u0448\u0435\u0432\u0435","name:pl":"Kujbyszewe","id":337699692,"population":2368},"coordinates":[334,2224]},{"type":"Point","properties":{"kind":"locality","name:en":"Aeroflotskyi","name":"\u0410\u044d\u0440\u043e\u0444\u043b\u043e\u0442\u0441\u043a\u0438\u0439","kind_detail":"town","source":"openstreetmap.org","min_zoom":8.0,"name:uk":"\u0410\u0435\u0440\u043e\u0444\u043b\u043e\u0442\u0441\u044c\u043a\u0438\u0439","name:pl":"Aerof\u0142ot\u015bkyj","id":337698230,"population":2254},"coordinates":[731,3812]},{"type":"Point","properties":{"kind":"locality","name:en":"Foros","name":"\u0424\u043e\u0440\u043e\u0441","kind_detail":"town","name:de":"Foros","source":"openstreetmap.org","min_zoom":8.0,"int_name":"Foros","name:pl":"Foros","id":337700359,"population":1978},"coordinates":[108,1243]},{"type":"Point","properties":{"kind":"locality","name:en":"Livadiya","name":"\u041b\u0438\u0432\u0430\u0434\u0438\u044f","kind_detail":"town","source":"openstreetmap.org","min_zoom":8.0,"int_name":"Liwadija","name:uk":"\u041b\u0456\u0432\u0430\u0434\u0456\u044f","name:pl":"Liwadia","id":337700209,"population":1601},"coordinates":[1139,1550]},{"type":"Point","properties":{"kind":"locality","name:en":"Vinogradnoe","name":"\u0412\u0438\u043d\u043e\u0433\u0440\u0430\u0434\u043d\u043e\u0435","kind_detail":"town","source":"openstreetmap.org","min_zoom":8.0,"name:uk":"\u0412\u0438\u043d\u043e\u0433\u0440\u0430\u0434\u043d\u0435","name:pl":"Wynohradne","id":337700166,"population":1357},"coordinates":[1141,1592]},{"type":"Point","properties":{"kind":"locality","name:en":"Novyi Svet","name":"\u041d\u043e\u0432\u044b\u0439 \u0421\u0432\u0435\u0442","kind_detail":"town","name:de":"Nowyj Swit","source":"openstreetmap.org","min_zoom":8.0,"name:uk":"\u041d\u043e\u0432\u0438\u0439 \u0421\u0432\u0456\u0442","name:be":"\u041d\u043e\u0432\u044b \u0421\u0432\u0435\u0442","name:pl":"Nowyj Swit","id":337699185,"population":1095},"coordinates":[3387,3033]},{"type":"Point","properties":{"kind":"locality","name:en":"Krasnokamenka","name":"\u041a\u0440\u0430\u0441\u043d\u043e\u043a\u0430\u043c\u0435\u043d\u043a\u0430","kind_detail":"town","source":"openstreetmap.org","min_zoom":8.0,"name:uk":"\u041a\u0440\u0430\u0441\u043d\u043e\u043a\u0430\u043c\u2019\u044f\u043d\u043a\u0430","name:pl":"Krasnokamjanka","id":337699968,"population":1024},"coordinates":[1569,1946]},{"type":"Point","properties":{"kind":"locality","name:en":"Oreanda","name":"\u041e\u0440\u0435\u0430\u043d\u0434\u0430","kind_detail":"town","source":"openstreetmap.org","min_zoom":8.0,"name:pl":"Oreanda","id":337700219,"population":893},"coordinates":[1127,1524]},{"type":"Point","properties":{"kind":"locality","name:en":"Otradnoe","name":"\u041e\u0442\u0440\u0430\u0434\u043d\u043e\u0435","kind_detail":"town","source":"openstreetmap.org","min_zoom":8.0,"name:uk":"\u0412\u0456\u0434\u0440\u0430\u0434\u043d\u0435","name:pl":"Widradne","id":337700100,"population":659},"coordinates":[1354,1710]},{"type":"Point","properties":{"kind":"locality","name:en":"Katsiveli","name":"\u041a\u0430\u0446\u0438\u0432\u0435\u043b\u0438","kind_detail":"town","source":"openstreetmap.org","min_zoom":8.0,"name:uk":"\u041a\u0430\u0446\u0456\u0432\u0435\u043b\u0456","name:pl":"Kaciweli","id":337700347,"population":609},"coordinates":[648,1266]},{"type":"Point","properties":{"kind":"locality","name:en":"Sovietskoe","name":"\u0421\u043e\u0432\u0435\u0442\u0441\u043a\u043e\u0435","name:lt":"Sovetskoj\u0117","kind_detail":"town","source":"openstreetmap.org","min_zoom":8.0,"name:uk":"\u0421\u043e\u0432\u0454\u0442\u0441\u044c\u043a\u0435","name:pl":"Sowiet\u015bke","id":337700061,"population":579},"coordinates":[1277,1814]},{"type":"Point","properties":{"kind":"locality","name:en":"Beregovoe","name":"\u0411\u0435\u0440\u0435\u0433\u043e\u0432\u043e\u0435","name:lt":"Beregovo\u0117","kind_detail":"town","name:de":"Beregowoje","source":"openstreetmap.org","min_zoom":8.0,"name:uk":"\u0411\u0435\u0440\u0435\u0433\u043e\u0432\u0435","old_name":"\u041a\u0430\u0441\u0442\u0440\u043e\u043f\u043e\u043b\u044c","name:pl":"Berehowe","id":337700320,"population":497},"coordinates":[426,1298]},{"type":"Point","properties":{"kind":"locality","name:en":"Parkovoe","name":"\u041f\u0430\u0440\u043a\u043e\u0432\u043e\u0435","kind_detail":"town","name:de":"Parkowoe","source":"openstreetmap.org","min_zoom":8.0,"name:uk":"\u041f\u0430\u0440\u043a\u043e\u0432\u0435","name:pl":"Parkowe","id":337700328,"population":495},"coordinates":[471,1301]},{"type":"Point","properties":{"kind":"locality","name:en":"Sanatornoye","name":"\u0421\u0430\u043d\u0430\u0442\u043e\u0440\u043d\u043e\u0435","kind_detail":"town","name:de":"Sanatorne","source":"openstreetmap.org","min_zoom":8.0,"name:uk":"\u0421\u0430\u043d\u0430\u0442\u043e\u0440\u043d\u0435","old_name":"\u041c\u0435\u043b\u0430\u0441","name:pl":"Sanatorne","id":337700339,"population":494},"coordinates":[211,1287]},{"type":"Point","properties":{"kind":"locality","name:en":"Voskhod","name":"\u0412\u043e\u0441\u0445\u043e\u0434","kind_detail":"town","source":"openstreetmap.org","min_zoom":8.0,"name:be":"\u0423\u0441\u0445\u043e\u0434","name:pl":"Woschod","id":337700114,"population":448},"coordinates":[1368,1741]},{"type":"Point","properties":{"kind":"locality","name:en":"Goluboy Zaliv","name":"\u0413\u043e\u043b\u0443\u0431\u043e\u0439 \u0417\u0430\u043b\u0438\u0432","kind_detail":"town","source":"openstreetmap.org","min_zoom":8.0,"name:uk":"\u0413\u043e\u043b\u0443\u0431\u0430 \u0417\u0430\u0442\u043e\u043a\u0430","name:pl":"Ho\u0142uba Zatoka","id":337700287,"population":441},"coordinates":[691,1306]},{"type":"Point","properties":{"kind":"locality","name:en":"Kurpaty","name":"\u041a\u0443\u0440\u043f\u0430\u0442\u044b","kind_detail":"town","source":"openstreetmap.org","min_zoom":8.0,"name:uk":"\u041a\u0443\u0440\u043f\u0430\u0442\u0438","name:pl":"Kurpaty","id":337700248,"population":411},"coordinates":[1115,1453]},{"type":"Point","properties":{"kind":"locality","name:en":"Ponizovka","name":"\u041f\u043e\u043d\u0438\u0437\u043e\u0432\u043a\u0430","kind_detail":"town","source":"openstreetmap.org","min_zoom":8.0,"name:uk":"\u041f\u043e\u043d\u0438\u0437\u0456\u0432\u043a\u0430","name:pl":"Ponyziwka","id":337700352,"population":382},"coordinates":[589,1261]}]},"transit":{"type":"GeometryCollection","geometries":[{"type":"LineString","properties":{"source":"openstreetmap.org","kind":"train","sort_rank":275,"ref":"\u044d\u043b\u0435\u043a\u0442\u0440\u043e\u043f\u043e\u0435\u0437\u0434 \u0414\u0436\u0430\u043d\u043a\u043e\u0439 \u2014 \u0421\u0438\u043c\u0444\u0435\u0440\u043e\u043f\u043e\u043b\u044c","min_zoom":6.0,"osm_relation":true,"id":-301815},"arcs":[5]}]},"pois":{"type":"GeometryCollection","geometries":[{"type":"Point","properties":{"kind":"nature_reserve","name:en":"Baydarsky Reserve","protect_class":"4","area":490106000,"source":"openstreetmap.org","min_zoom":7.82,"name:uk":"\u041b\u0430\u043d\u0434\u0448\u0430\u0444\u0442\u043d\u0438\u0439 \u0437\u0430\u043a\u0430\u0437\u043d\u0438\u043a \u00ab\u0411\u0430\u0439\u0434\u0430\u0440\u0441\u044c\u043a\u0438\u0439\u00bb","tier":2,"id":-2410814,"osm_relation":true,"name":"\u041b\u0430\u043d\u0434\u0448\u0430\u0444\u0442\u043d\u044b\u0439 \u0437\u0430\u043a\u0430\u0437\u043d\u0438\u043a \u00ab\u0411\u0430\u0439\u0434\u0430\u0440\u0441\u043a\u0438\u0439\u00bb"},"coordinates":[67,1577]},{"type":"Point","properties":{"kind":"protected_area","protect_class":"4","area":84744000,"source":"openstreetmap.org","min_zoom":8.0,"tier":2,"id":-2410812,"osm_relation":true,"name":"\u0413\u0435\u043e\u043b\u043e\u0433\u0438\u0447\u0435\u0441\u043a\u0438\u0439 \u0437\u0430\u043a\u0430\u0437\u043d\u0438\u043a \u0413\u043e\u0440\u043d\u044b\u0439 \u043a\u0430\u0440\u0441\u0442 \u041a\u0440\u044b\u043c\u0430"},"coordinates":[2331,3191]},{"type":"Point","properties":{"kind":"protected_area","protect_class":"4","area":10035600,"source":"openstreetmap.org","min_zoom":8.0,"tier":2,"id":-2410809,"osm_relation":true,"name":"\u0411\u043e\u0442\u0430\u043d\u0438\u0447\u0435\u0441\u043a\u0438\u0439 \u0437\u0430\u043a\u0430\u0437\u043d\u0438\u043a \u041a\u0430\u0440\u0430\u0431\u0438-\u042f\u0439\u043b\u0430"},"coordinates":[2162,3311]},{"type":"Point","properties":{"kind":"nature_reserve","name:en":"Yalta mountain-forest nature reserve","protect_class":"1","area":289339000,"name:de":"Naturschutzgebiet Jalta-Bergwald","source":"openstreetmap.org","min_zoom":8.2,"name:uk":"\u041f\u0440\u0438\u0440\u043e\u0434\u043d\u0438\u0439 \u0437\u0430\u043f\u043e\u0432\u0456\u0434\u043d\u0438\u043a \u00ab\u042f\u043b\u0442\u0438\u043d\u0441\u044c\u043a\u0438\u0439 \u0433\u0456\u0440\u0441\u044c\u043a\u043e-\u043b\u0456\u0441\u043e\u0432\u0438\u0439\u00bb","tier":2,"id":-2409386,"osm_relation":true,"name":"\u042f\u043b\u0442\u0438\u043d\u0441\u043a\u0438\u0439 \u0433\u043e\u0440\u043d\u043e-\u043b\u0435\u0441\u043d\u043e\u0439 \u043f\u0440\u0438\u0440\u043e\u0434\u043d\u044b\u0439 \u0437\u0430\u043f\u043e\u0432\u0435\u0434\u043d\u0438\u043a"},"coordinates":[928,1569]},{"type":"Point","properties":{"kind":"nature_reserve","name:en":"Crimean Natural Reserve","protect_class":"1","area":676801000,"name:de":"Naturschutzgebiet Krim","source":"openstreetmap.org","min_zoom":7.59,"name:uk":"\u041f\u0440\u0438\u0440\u043e\u0434\u043d\u0438\u0439 \u0437\u0430\u043f\u043e\u0432\u0456\u0434\u043d\u0438\u043a \u00ab\u041a\u0440\u0438\u043c\u0441\u044c\u043a\u0438\u0439\u00bb","tier":2,"id":180564883,"name":"\u041a\u0440\u044b\u043c\u0441\u043a\u0438\u0439 \u043f\u0440\u0438\u0440\u043e\u0434\u043d\u044b\u0439 \u0437\u0430\u043f\u043e\u0432\u0435\u0434\u043d\u0438\u043a"},"coordinates":[1359,2361]},{"type":"Point","properties":{"source":"openstreetmap.org","kind":"military","name":"\u0410\u043d\u0433\u0430\u0440\u0441\u043a\u0438\u0439 \u0412\u043e\u0435\u043d\u043d\u044b\u0439 \u041f\u043e\u043b\u0438\u0433\u043e\u043d","area":13596500,"tier":3,"min_zoom":8.0,"id":439007945},"coordinates":[1590,3214]}]},"boundaries":{"type":"GeometryCollection","geometries":[{"type":"LineString","properties":{"name:kg":"Ukrayina","name:ka":"\u10e3\u10d9\u10e0\u10d0\u10d8\u10dc\u10d0","name:ko":"\uc6b0\ud06c\ub77c\uc774\ub098","name:cv":"\u0423\u043a\u0440\u0430\u0438\u043d\u0430","name:cu":"\u041e\u0443\u043a\u0440\u0430\u0438\u043d\u0430","name:kl":"Ukraine","name:cs":"Ukrajina","name:tw":"Ukraine","name:tt":"\u0423\u043a\u0440\u0430\u0438\u043d\u0430","name:kw":"Ukrayn","name:kv":"\u0423\u043a\u0440\u0430\u0438\u043d\u0430","name:th":"\u0e1b\u0e23\u0e30\u0e40\u0e17\u0e28\u0e22\u0e39\u0e40\u0e04\u0e23\u0e19","name:tl":"Ukranya","name:ce":"\u0423\u043a\u0440\u0430\u0438\u043d\u0430","name:ta":"\u0b89\u0b95\u0bcd\u0bb0\u0bc8\u0ba9\u0bcd","name:tg":"\u0423\u043a\u0440\u0430\u0439\u0438\u043d\u0430","name:ca":"Ucra\u00efna","name:te":"\u0c09\u0c15\u0c4d\u0c30\u0c46\u0c2f\u0c3f\u0c28\u0c4d","name:cy":"Wcr\u00e1in","name:qu":"Ukranya","name:da":"Ukraine","name:de":"Ukraine","source":"openstreetmap.org","name:kn":"\u0caf\u0cc1\u0c95\u0ccd\u0cb0\u0cc7\u0ca8\u0ccd","name:dv":"\u0794\u07aa\u0786\u07b0\u0783\u07ac\u0787\u07a8\u0782\u07b0","name:km":"\u17a2\u17ca\u17bb\u1799\u1780\u17d2\u179a\u17c2\u1793","name:lv":"Ukraina","name:lt":"Ukraina","name:uz":"Ukraina","name:kk":"\u0423\u043a\u0440\u0430\u0438\u043d\u0430","name:ur":"\u06cc\u0648\u06a9\u0631\u06cc\u0646","name:lb":"Ukrain","name:la":"Ucraina","name:ug":"\u0626\u06c7\u0643\u0631\u0627\u0626\u0649\u0646\u0627","name:li":"Oekra\u00efne","name:ln":"Ukraine","name:el":"\u039f\u03c5\u03ba\u03c1\u03b1\u03bd\u03af\u03b1","name:eo":"Ukrainujo","name:en":"Ukraine","name":"\u0423\u043a\u0440\u0430\u0457\u043d\u0430","name:tk":"Ukraina","name:ee":"Ukraine","name:ku":"\u00dbkrayna","name:eu":"Ukraina","name:et":"Ukraina","name:es":"Ucrania","name:ia":"Ukraina","name:rm":"Ucraina","name:az":"Ukrayna","name:ie":"Ucraina","name:id":"Ukraina","name:ig":"Yukrain","name:ar":"\u0623\u0648\u0643\u0631\u0627\u0646\u064a\u0627","name:io":"Ukrainia","name:is":"\u00dakra\u00edna","name:am":"\u12e9\u12ad\u122c\u1295","name:it":"Ucraina","name:an":"Ucra\u00edna","name:ru":"\u0423\u043a\u0440\u0430\u0438\u043d\u0430","name:ab":"\u0423\u043a\u0440\u0430\u0438\u043d\u0430","name:af":"Oekra\u00efne","kind_detail":"2","name:ky":"\u0423\u043a\u0440\u0430\u0438\u043d\u0430","name:zh-yue":"\u70cf\u514b\u862d","name:zh":"\u4e4c\u514b\u5170","name:so":"Ukrain","name:sn":"Ukraine","name:sm":"Ukraine","name:sl":"Ukrajina","name:sk":"Ukrajina","name:ja":"\u30a6\u30af\u30e9\u30a4\u30ca","name:sh":"Ukrajina","name:se":"Ukraina","name:sc":"Ucraina","name:br":"Ukraina","name:bs":"Ukrajina","name:bn":"\u0987\u0989\u0995\u09cd\u09b0\u09c7\u09a8","name:bo":"\u0f68\u0f74\u0f40\u0f0b\u0f62\u0f61\u0f72\u0f0b\u0f53\u0f72\u0f0d","name:bi":"Ukraine","name:sw":"Ukraine","name:be":"\u0423\u043a\u0440\u0430\u0456\u043d\u0430","name:su":"Ukraina","name:bg":"\u0423\u043a\u0440\u0430\u0439\u043d\u0430","name:ss":"IYukhureni","name:ba":"\u0423\u043a\u0440\u0430\u0438\u043d\u0430","name:sq":"Ukraina","name:jv":"Ukraina","name:pt":"Ucr\u00e2nia","name:ps":"\u0627\u0648\u06a9\u0631\u0627\u06cc\u0646","name:oc":"Ucra\u00efna","min_zoom":8.0,"name:ro":"Ucraina","name:zh-min-nan":"Ukrayina","name:os":"\u0423\u043a\u0440\u0430\u0438\u043d\u00e6","name:or":"\u0b5f\u0b41\u0b15\u0b4d\u0b30\u0b47\u0b28","name:pl":"Ukraina","sort_rank":262,"name:sr":"\u0423\u043a\u0440\u0430\u0458\u0438\u043d\u0430","osm_relation":true,"name:pa":"\u0a2f\u0a42\u0a15\u0a4d\u0a30\u0a47\u0a28","name:tr":"Ukrayna","name:hi":"\u092f\u0941\u0915\u094d\u0930\u0947\u0928","name:sv":"Ukraina","name:he":"\u05d0\u05d5\u05e7\u05e8\u05d0\u05d9\u05e0\u05d4","name:hy":"\u0548\u0582\u056f\u0580\u0561\u056b\u0576\u0561","name:ht":"Ikr\u00e8n","name:hu":"Ukrajna","name:hr":"Ukrajina","kind":"country","name:ts":"Ukraine","name:yi":"\u05d0\u05d5\u05e7\u05e8\u05d0\u05d9\u05e0\u05e2","name:yo":"Ukr\u00e9\u00ecn","name:mt":"Ukrajna","alt_name:eo":"Ukrainio","name:ms":"Ukraine","name:mr":"\u092f\u0941\u0915\u094d\u0930\u0947\u0928","name:my":"\u101a\u1030\u1000\u101b\u102d\u1014\u103a\u1038\u1014\u102d\u102f\u1004\u103a\u1004\u1036","int_name":"Ukraine","name:mg":"Okraina","name:vi":"Ukraina","name:ml":"\u0d09\u0d15\u0d4d\u0d30\u0d48\u0d7b","name:mn":"\u0423\u043a\u0440\u0430\u0439\u043d","name:mi":"\u016akareinga","id":-60199,"name:mk":"\u0423\u043a\u0440\u0430\u0438\u043d\u0430","name:vo":"Lukray\u00e4n","name:fa":"\u0627\u0648\u06a9\u0631\u0627\u06cc\u0646","name:rw":"Ikerene","name:fi":"Ukraina","old_name:vi":"\u00d4 Kh\u1eafc Lan","name:fo":"Ukraina","alt_name:vi":"Uy Ki\u00ean","name:fr":"Ukraine","name:fy":"Oekra\u00efne","name:nl":"Oekra\u00efne","name:nn":"Ukraina","name:no":"Ukraina","name:na":"Ukraine","name:ne":"\u092f\u0941\u0915\u094d\u0930\u0947\u0928","name:wa":"Oucrinne","name:wo":"Ukreen","name:nv":"Y\u00f3\u00f3kwein","name:ga":"An \u00dacr\u00e1in","name:gd":"An Ucr\u00e0in","name:gn":"Ukya\u00f1a","name:gl":"Ucra\u00edna","maritime_boundary":true,"name:gv":"Yn Ookraan","name:gu":"\u0aaf\u0ac1\u0a95\u0acd\u0ab0\u0ac7\u0aa8"},"arcs":[0]},{"type":"MultiLineString","properties":{"name:left:sr":"\u0420\u0435\u043f\u0443\u0431\u043b\u0438\u043a\u0430 \u041a\u0440\u0438\u043c","name:left:uk":"\u0420\u0435\u0441\u043f\u0443\u0431\u043b\u0456\u043a\u0430 \u041a\u0440\u0438\u043c","min_zoom":8.0,"name:left:be":"\u0420\u044d\u0441\u043f\u0443\u0431\u043b\u0456\u043a\u0430 \u041a\u0440\u044b\u043c","id":-3795586,"name:right":"\u0421\u0435\u0432\u0430\u0441\u0442\u043e\u043f\u043e\u043b\u044c","name:left:eo":"Respubliko Krimeo","name:left:en":"Republic of Crimea","name:left:el":"\u0394\u03b7\u03bc\u03bf\u03ba\u03c1\u03b1\u03c4\u03af\u03b1 \u03c4\u03b7\u03c2 \u039a\u03c1\u03b9\u03bc\u03b1\u03af\u03b1\u03c2","name:right:ca":"Sebast\u00f2pol","name:right:eo":"Sebastopolo","name:left:ca":"Rep\u00fablica de Crimea","source":"openstreetmap.org","id:left":-3795586,"name:left:es":"Rep\u00fablica de Crimea","name:left:cs":"Republika Krym","name:left":"\u0420\u0435\u0441\u043f\u0443\u0431\u043b\u0438\u043a\u0430 \u041a\u0440\u044b\u043c","name:left:ar":"\u062c\u0645\u0647\u0648\u0631\u064a\u0629 \u0627\u0644\u0642\u0631\u0645","name:left:pl":"Republika Krymu","name:left:tr":"K\u0131r\u0131m Cumhuriyeti","name:left:tt":"\u041a\u044b\u0440\u044b\u043c \u0496\u04e9\u043c\u04bb\u04af\u0440\u0438\u044f\u0442\u0435","name:left:pt":"Rep\u00fablica da Crimeia","name:left:de":"Republik Krim","id:right":-3788485,"name:right:pl":"Sewastopol","name:right:en":"Sevastopol","osm_relation":true,"name:left:vi":"C\u1ed9ng h\u00f2a Krym","kind":"region","name":"\u0420\u0435\u0441\u043f\u0443\u0431\u043b\u0438\u043a\u0430 \u041a\u0440\u044b\u043c - \u0421\u0435\u0432\u0430\u0441\u0442\u043e\u043f\u043e\u043b\u044c","name:right:de":"Sewastopol","name:left:nl":"Republiek de Krim","sort_rank":256,"name:left:zh":"\u514b\u91cc\u7c73\u4e9a\u5171\u548c\u56fd","name:left:fr":"R\u00e9publique de Crim\u00e9e","name:left:eu":"Krimeako Errepublika","kind_detail":"4","name:right:zh":"\u585e\u74e6\u65af\u6258\u6ce2\u5c14"},"arcs":[[1],[2]]},{"type":"LineString","properties":{"name:left:sr":"\u0420\u0435\u043f\u0443\u0431\u043b\u0438\u043a\u0430 \u041a\u0440\u0438\u043c","name:left:uk":"\u0420\u0435\u0441\u043f\u0443\u0431\u043b\u0456\u043a\u0430 \u041a\u0440\u0438\u043c","min_zoom":8.0,"name:left:be":"\u0420\u044d\u0441\u043f\u0443\u0431\u043b\u0456\u043a\u0430 \u041a\u0440\u044b\u043c","id":-3795586,"name:right":"\u0421\u0435\u0432\u0430\u0441\u0442\u043e\u043f\u043e\u043b\u044c","name:left:eo":"Respubliko Krimeo","name:left:en":"Republic of Crimea","name:left:el":"\u0394\u03b7\u03bc\u03bf\u03ba\u03c1\u03b1\u03c4\u03af\u03b1 \u03c4\u03b7\u03c2 \u039a\u03c1\u03b9\u03bc\u03b1\u03af\u03b1\u03c2","name:right:ca":"Sebast\u00f2pol","name:right:pl":"Sewastopol","name:left:ca":"Rep\u00fablica de Crimea","name:left:zh":"\u514b\u91cc\u7c73\u4e9a\u5171\u548c\u56fd","source":"openstreetmap.org","name:left:nl":"Republiek de Krim","id:left":-3795586,"name:left:es":"Rep\u00fablica de Crimea","name:left:cs":"Republika Krym","name:left":"\u0420\u0435\u0441\u043f\u0443\u0431\u043b\u0438\u043a\u0430 \u041a\u0440\u044b\u043c","name:left:ar":"\u062c\u0645\u0647\u0648\u0631\u064a\u0629 \u0627\u0644\u0642\u0631\u0645","name:left:pl":"Republika Krymu","name:left:tr":"K\u0131r\u0131m Cumhuriyeti","name:left:tt":"\u041a\u044b\u0440\u044b\u043c \u0496\u04e9\u043c\u04bb\u04af\u0440\u0438\u044f\u0442\u0435","name:left:pt":"Rep\u00fablica da Crimeia","id:right":-3788485,"name:right:eo":"Sebastopolo","name:right:en":"Sevastopol","osm_relation":true,"name:left:vi":"C\u1ed9ng h\u00f2a Krym","kind":"region","name":"\u0420\u0435\u0441\u043f\u0443\u0431\u043b\u0438\u043a\u0430 \u041a\u0440\u044b\u043c - \u0421\u0435\u0432\u0430\u0441\u0442\u043e\u043f\u043e\u043b\u044c","name:right:de":"Sewastopol","name:left:de":"Republik Krim","sort_rank":256,"maritime_boundary":true,"name:left:fr":"R\u00e9publique de Crim\u00e9e","name:left:eu":"Krimeako Errepublika","kind_detail":"4","name:right:zh":"\u585e\u74e6\u65af\u6258\u6ce2\u5c14"},"arcs":[3]},{"type":"LineString","properties":{"name:right:hy":"\u0542\u0580\u056b\u0574\u056b \u053b\u0576\u0584\u0576\u0561\u057e\u0561\u0580 \u0540\u0561\u0576\u0580\u0561\u057a\u0565\u057f\u0578\u0582\u0569\u0575\u0578\u0582\u0576","name:right:hu":"Kr\u00edmi Auton\u00f3m K\u00f6zt\u00e1rsas\u00e1g","name:left:sr":"\u0420\u0435\u043f\u0443\u0431\u043b\u0438\u043a\u0430 \u041a\u0440\u0438\u043c","name:right:lt":"Krymo autonomin\u0117 respublika","min_zoom":8.0,"sort_rank":256,"name:left:ca":"Rep\u00fablica de Crimea","source":"openstreetmap.org","name:right:os":"\u0425\u044a\u044b\u0440\u044b\u043c\u044b \u0410\u0432\u0442\u043e\u043d\u043e\u043c\u043e\u043d \u0420\u0435\u0441\u043f\u0443\u0431\u043b\u0438\u043a\u00e6","name:right:el":"\u0391\u03c5\u03c4\u03cc\u03bd\u03bf\u03bc\u03b7 \u0394\u03b7\u03bc\u03bf\u03ba\u03c1\u03b1\u03c4\u03af\u03b1 \u03c4\u03b7\u03c2 \u039a\u03c1\u03b9\u03bc\u03b1\u03af\u03b1\u03c2","name:right:az":"Kr\u0131m Muxtar Respublikas\u0131","name:left:cs":"Republika Krym","name:left":"\u0420\u0435\u0441\u043f\u0443\u0431\u043b\u0438\u043a\u0430 \u041a\u0440\u044b\u043c","name:right:mk":"\u0410\u0432\u0442\u043e\u043d\u043e\u043c\u043d\u0430 \u0420\u0435\u043f\u0443\u0431\u043b\u0438\u043a\u0430 \u041a\u0440\u0438\u043c","name:right:it":"Repubblica autonoma di Crimea","name:right:ru":"\u0410\u0432\u0442\u043e\u043d\u043e\u043c\u043d\u0430\u044f \u0420\u0435\u0441\u043f\u0443\u0431\u043b\u0438\u043a\u0430 \u041a\u0440\u044b\u043c","id:right":-72639,"name:right:eo":"A\u016dtonoma Respubliko Krimeo","name:right:en":"Autonomous Republic of Crimea","name:left:vi":"C\u1ed9ng h\u00f2a Krym","kind":"region","name":"\u0420\u0435\u0441\u043f\u0443\u0431\u043b\u0438\u043a\u0430 \u041a\u0440\u044b\u043c - \u0410\u0432\u0442\u043e\u043d\u043e\u043c\u043d\u0430 \u0420\u0435\u0441\u043f\u0443\u0431\u043b\u0456\u043a\u0430 \u041a\u0440\u0438\u043c","name:right:ba":"\u04a0\u044b\u0440\u044b\u043c \u0410\u0432\u0442\u043e\u043d\u043e\u043c\u0438\u044f\u043b\u044b \u0420\u0435\u0441\u043f\u0443\u0431\u043b\u0438\u043a\u0430\u04bb\u044b","name:right:be":"\u0410\u045e\u0442\u0430\u043d\u043e\u043c\u043d\u0430\u044f \u0420\u044d\u0441\u043f\u0443\u0431\u043b\u0456\u043a\u0430 \u041a\u0440\u044b\u043c","name:left:zh":"\u514b\u91cc\u7c73\u4e9a\u5171\u548c\u56fd","name:left:fr":"R\u00e9publique de Crim\u00e9e","name:right:zh":"\u514b\u91cc\u7c73\u4e9a\u81ea\u6cbb\u5171\u548c\u56fd","name:right:es":"Rep\u00fablica Aut\u00f3noma de Crimea","name:right:nl":"Autonome Republiek van de Krim","name:right:ja":"\u30af\u30ea\u30df\u30a2\u81ea\u6cbb\u5171\u548c\u56fd","name:right:fr":"R\u00e9publique Autonome de Crim\u00e9e","name:right:sv":"Autonoma republiken Krim","name:left:uk":"\u0420\u0435\u0441\u043f\u0443\u0431\u043b\u0456\u043a\u0430 \u041a\u0440\u0438\u043c","name:left:nl":"Republiek de Krim","name:left:be":"\u0420\u044d\u0441\u043f\u0443\u0431\u043b\u0456\u043a\u0430 \u041a\u0440\u044b\u043c","id":-3795586,"name:right":"\u0410\u0432\u0442\u043e\u043d\u043e\u043c\u043d\u0430 \u0420\u0435\u0441\u043f\u0443\u0431\u043b\u0456\u043a\u0430 \u041a\u0440\u0438\u043c","name:left:eo":"Respubliko Krimeo","name:left:en":"Republic of Crimea","name:left:el":"\u0394\u03b7\u03bc\u03bf\u03ba\u03c1\u03b1\u03c4\u03af\u03b1 \u03c4\u03b7\u03c2 \u039a\u03c1\u03b9\u03bc\u03b1\u03af\u03b1\u03c2","name:right:ca":"Rep\u00fablica Aut\u00f2noma de Crimea","kind_detail":"4","alt_name:right:vi":"C\u1ed9ng ho\u00e0 T\u1ef1 tr\u1ecb Cr\u01b0m,C\u1ed9ng h\u00f2a T\u1ef1 tr\u1ecb Krym,C\u1ed9ng ho\u00e0 T\u1ef1 tr\u1ecb Krym","name:left:pl":"Republika Krymu","id:left":-3795586,"name:left:es":"Rep\u00fablica de Crimea","name:right:cs":"Autonomn\u00ed republika Krym","name:right:fi":"Krimin autonominen tasavalta","name:right:cu":"\u041a\ua651\u0440\ua651\u043c\u044c\u0441\u043a\u0430 \u0410\u0475\u0442\u043e\u043d\u043e\u043c\u044c\u043d\u0430 \u0414\u0438\u043c\u043e\u043a\u0440\u0430\u0442\u0457\ua657","name:left:eu":"Krimeako Errepublika","name:right:pt":"Rep\u00fablica Aut\u00f4noma da Crimeia","name:left:ar":"\u062c\u0645\u0647\u0648\u0631\u064a\u0629 \u0627\u0644\u0642\u0631\u0645","name:right:tt":"\u041a\u044b\u0440\u044b\u043c \u0410\u0432\u0442\u043e\u043d\u043e\u043c\u0438\u044f\u043b\u0435 \u0496\u04e9\u043c\u04bb\u04af\u0440\u0438\u044f\u0442\u0435","name:left:tr":"K\u0131r\u0131m Cumhuriyeti","name:left:tt":"\u041a\u044b\u0440\u044b\u043c \u0496\u04e9\u043c\u04bb\u04af\u0440\u0438\u044f\u0442\u0435","name:right:tr":"K\u0131r\u0131m \u00d6zerk Cumhuriyeti","name:left:pt":"Rep\u00fablica da Crimeia","name:right:ko":"\ud06c\ub9bc \ubc18\ub3c4","name:right:vi":"C\u1ed9ng h\u00f2a T\u1ef1 tr\u1ecb Cr\u01b0m","name:right:pl":"Republika Autonomiczna Krymu","osm_relation":true,"name:right:de":"Autonome Republik Krim","name:left:de":"Republik Krim","maritime_boundary":true},"arcs":[4]}]},"roads":{"type":"GeometryCollection","geometries":[{"type":"LineString","properties":{"kind":"major_road","name:en":"Shoseinaya Street","network":"ru:regional","sort_rank":380,"kind_detail":"primary","source":"openstreetmap.org","min_zoom":8.0,"name:uk":"\u0428\u043e\u0441\u0435\u0439\u043d\u0430 \u0432\u0443\u043b\u0438\u0446\u044f","shield_text":"35\u041a","ref":"35\u041a-005"},"arcs":[8]},{"type":"LineString","properties":{"kind":"major_road","name:en":"Borodina Street","network":"ru:regional","sort_rank":381,"kind_detail":"trunk","source":"openstreetmap.org","min_zoom":8.0,"name:uk":"\u0411\u043e\u0440\u043e\u0434\u0456\u043d\u0430 \u0432\u0443\u043b\u0438\u0446\u044f","landuse_kind":"urban_area","shield_text":"35\u041a","ref":"35\u041a-023","id":88172300},"arcs":[9]},{"type":"LineString","properties":{"kind":"major_road","name:en":"Gagarina Street","sort_rank":380,"kind_detail":"primary","bus_network":null,"source":"openstreetmap.org","min_zoom":8.0,"name:uk":"\u0413\u0430\u0433\u0430\u0440\u0456\u043d\u0430 \u0432\u0443\u043b\u0438\u0446\u044f","bus_shield_text":"\u0422\u0431-5","landuse_kind":"urban_area","id":36781521},"arcs":[10]},{"type":"MultiLineString","properties":{"bus_network":null,"name:en":"Yuzhnoberezhnoe Highway","network":"ua:national","sort_rank":381,"kind_detail":"trunk","kind":"major_road","source":"openstreetmap.org","min_zoom":8.0,"name:uk":"\u041f\u0456\u0432\u0434\u0435\u043d\u043d\u043e\u0431\u0435\u0440\u0435\u0436\u043d\u0435 \u0448\u043e\u0441\u0435","bus_shield_text":"28","shield_text":"19","ref":"35\u041a-002"},"arcs":[[11],[12],[13],[14],[15],[16],[17],[18],[19]]},{"type":"LineString","properties":{"bus_network":null,"sort_rank":380,"kind_detail":"primary","kind":"major_road","source":"openstreetmap.org","min_zoom":8.0,"bus_shield_text":"\u0422\u0431-6","landuse_kind":"urban_area"},"arcs":[20]},{"type":"LineString","properties":{"kind":"ferry","name:en":"Illichivsk - Batumi","name":"\u0406\u043b\u043b\u0456\u0447\u0456\u0432\u0441\u044c\u043a - \u0411\u0430\u0442\u0443\u043c\u0456 (Illichivsk - Batumi)","sort_rank":355,"source":"openstreetmap.org","min_zoom":8.0,"name:uk":"\u0406\u043b\u043b\u0456\u0447\u0456\u0432\u0441\u044c\u043a - \u0411\u0430\u0442\u0443\u043c\u0456","name:ru":"\u0418\u043b\u044c\u0438\u0447\u0451\u0432\u0441\u043a - \u0411\u0430\u0442\u0443\u043c\u0438","id":130697015},"arcs":[21]},{"type":"LineString","properties":{"bus_network":null,"network":"ru:regional","sort_rank":381,"kind_detail":"trunk","kind":"major_road","source":"openstreetmap.org","min_zoom":8.0,"bus_shield_text":"\u0422\u0431-52","shield_text":"35\u0410","ref":"35\u0410-002"},"arcs":[22]},{"type":"LineString","properties":{"kind":"major_road","name:en":"Marshaka Square","sort_rank":380,"kind_detail":"primary","bus_network":null,"source":"openstreetmap.org","min_zoom":8.0,"name:uk":"\u041c\u0430\u0440\u0448\u0430\u043a\u0430 \u043f\u043b\u043e\u0449\u0430","bus_shield_text":"8\u0410","landuse_kind":"urban_area","id":108323227},"arcs":[23]},{"type":"LineString","properties":{"bus_network":null,"name:en":"Kievskaya Street","sort_rank":380,"kind_detail":"primary","kind":"major_road","source":"openstreetmap.org","min_zoom":8.0,"name:uk":"\u041a\u0438\u0457\u0432\u0441\u044c\u043a\u0430 \u0432\u0443\u043b\u0438\u0446\u044f","bus_shield_text":"\u0422\u0431 3","landuse_kind":"urban_area"},"arcs":[24]},{"type":"LineString","properties":{"kind":"major_road","name:en":"Lenina Avenue","sort_rank":380,"kind_detail":"primary","bus_network":null,"source":"openstreetmap.org","min_zoom":8.0,"name:uk":"\u041b\u0435\u043d\u0456\u043d\u0430 \u0431\u0443\u043b\u044c\u0432\u0430\u0440","bus_shield_text":"\u0422\u0431-6","landuse_kind":"urban_area","id":36788738},"arcs":[25]},{"type":"MultiLineString","properties":{"bus_network":null,"sort_rank":380,"kind_detail":"primary","kind":"major_road","source":"openstreetmap.org","min_zoom":8.0,"bus_shield_text":"\u0422\u0431-4","landuse_kind":"urban_area"},"arcs":[[26],[27]]},{"type":"LineString","properties":{"kind":"major_road","network":"ru:regional","sort_rank":381,"landuse_kind":"urban_area","source":"openstreetmap.org","min_zoom":8.0,"kind_detail":"trunk","shield_text":"35\u041a","ref":"35\u041a-003"},"arcs":[28]},{"type":"LineString","properties":{"kind":"major_road","sort_rank":380,"kind_detail":"primary","bus_network":null,"source":"openstreetmap.org","min_zoom":8.0,"bus_shield_text":"30","id":230080660},"arcs":[29]},{"type":"LineString","properties":{"kind":"major_road","network":"ru:regional","sort_rank":381,"kind_detail":"trunk","bus_network":null,"source":"openstreetmap.org","min_zoom":8.0,"bus_shield_text":"\u0422\u0431-4","shield_text":"35\u0410","ref":"35\u0410-002","id":386360125},"arcs":[30]},{"type":"MultiLineString","properties":{"kind":"major_road","network":"ru:regional","sort_rank":381,"kind_detail":"trunk","source":"openstreetmap.org","min_zoom":8.0,"shield_text":"35\u0410","ref":"35\u0410-002"},"arcs":[[31],[32]]},{"type":"LineString","properties":{"kind":"major_road","name:en":"Yuzhnoberezhnoe Highway","network":"ua:national","sort_rank":381,"kind_detail":"trunk","source":"openstreetmap.org","min_zoom":8.0,"name:uk":"\u041f\u0456\u0432\u0434\u0435\u043d\u043d\u043e\u0431\u0435\u0440\u0435\u0436\u043d\u0435 \u0448\u043e\u0441\u0435","landuse_kind":"nature_reserve","shield_text":"19","ref":"35\u041a-002","id":482523029},"arcs":[33]},{"type":"LineString","properties":{"bus_network":null,"sort_rank":380,"kind_detail":"primary","kind":"major_road","source":"openstreetmap.org","min_zoom":8.0,"name:uk":"\u041c\u043e\u0441\u043a\u043e\u0432\u0441\u044c\u043a\u0430 \u043f\u043b\u043e\u0449\u0430","bus_shield_text":"\u0422\u0431-5","landuse_kind":"urban_area"},"arcs":[34]},{"type":"LineString","properties":{"kind":"major_road","name:en":"Sevastopolskoe Highway","network":"ru:regional","sort_rank":380,"kind_detail":"primary","bus_network":null,"source":"openstreetmap.org","min_zoom":8.0,"name:uk":"\u0421\u0435\u0432\u0430\u0441\u0442\u043e\u043f\u043e\u043b\u044c\u0441\u044c\u043a\u0435 \u0448\u043e\u0441\u0435","bus_shield_text":"30","shield_text":"35\u041a","ref":"35\u041a-022","id":267284027},"arcs":[35]},{"type":"LineString","properties":{"kind":"major_road","name:en":"Bliukhera Street","sort_rank":380,"kind_detail":"primary","bus_network":null,"source":"openstreetmap.org","min_zoom":8.0,"name:uk":"\u0411\u043b\u044e\u0445\u0435\u0440\u0430 \u0432\u0443\u043b\u0438\u0446\u044f","bus_shield_text":"15-\u0411","id":435299023},"arcs":[36]},{"type":"LineString","properties":{"bus_network":null,"name:en":"KIMa Street","sort_rank":380,"kind_detail":"primary","kind":"major_road","source":"openstreetmap.org","min_zoom":8.0,"name:uk":"\u041a\u0406\u041c\u0430 \u0432\u0443\u043b\u0438\u0446\u044f","bus_shield_text":"\u0422\u0431-9","landuse_kind":"urban_area"},"arcs":[37]},{"type":"MultiLineString","properties":{"kind":"major_road","network":"ru:regional","sort_rank":380,"kind_detail":"primary","source":"openstreetmap.org","min_zoom":8.0,"shield_text":"35\u041a","ref":"35\u041a-004"},"arcs":[[38],[39],[40],[41],[42]]},{"type":"LineString","properties":{"bus_network":null,"sort_rank":381,"landuse_kind":"urban_area","kind":"major_road","source":"openstreetmap.org","min_zoom":8.0,"name:uk":"\u041a\u0443\u0439\u0431\u0438\u0448\u0435\u0432\u0430 \u043f\u043b\u043e\u0449\u0430","bus_shield_text":"\u0422\u0431-7","loc_name":"\u041a\u0443\u0439\u0431\u044b\u0448\u0430\u0442\u043d\u0438\u043a","kind_detail":"trunk"},"arcs":[43]},{"type":"LineString","properties":{"kind":"major_road","name:en":"Kechkemetskaya Street","sort_rank":380,"kind_detail":"primary","source":"openstreetmap.org","min_zoom":8.0,"name:uk":"\u041a\u0435\u0447\u043a\u0435\u043c\u0435\u0442\u0441\u044c\u043a\u0430 \u0432\u0443\u043b\u0438\u0446\u044f","landuse_kind":"urban_area","id":472329608},"arcs":[44]},{"type":"LineString","properties":{"bus_network":null,"name:en":"Yuzhnoberezhnoe Highway","network":"ru:regional","sort_rank":381,"kind_detail":"trunk","kind":"major_road","source":"openstreetmap.org","min_zoom":8.0,"name:uk":"\u041f\u0456\u0432\u0434\u0435\u043d\u043d\u043e\u0431\u0435\u0440\u0435\u0436\u043d\u0435 \u0448\u043e\u0441\u0435","bus_shield_text":"31\u0411","shield_text":"35\u0410","ref":"35\u0410-002"},"arcs":[45]},{"type":"LineString","properties":{"kind":"major_road","network":"ru:regional","sort_rank":381,"landuse_kind":"urban_area","source":"openstreetmap.org","min_zoom":8.0,"kind_detail":"trunk","shield_text":"35\u0420","ref":"35\u0420-001"},"arcs":[46]},{"type":"LineString","properties":{"kind":"major_road","network":"ru:regional","sort_rank":381,"kind_detail":"trunk","bus_network":null,"source":"openstreetmap.org","min_zoom":8.0,"bus_shield_text":"\u0422\u0431-6","shield_text":"35\u0410","ref":"35\u0410-002","id":43027286},"arcs":[47]},{"type":"MultiLineString","properties":{"bus_network":null,"name:en":"Moskovskaya Street","sort_rank":380,"kind_detail":"primary","kind":"major_road","source":"openstreetmap.org","min_zoom":8.0,"name:uk":"\u041c\u043e\u0441\u043a\u043e\u0432\u0441\u044c\u043a\u0430 \u0432\u0443\u043b\u0438\u0446\u044f","bus_shield_text":"18\u0410","landuse_kind":"urban_area"},"arcs":[[48],[49]]},{"type":"LineString","properties":{"kind":"major_road","name:en":"Lenina Street","network":"ru:regional","sort_rank":381,"kind_detail":"trunk","source":"openstreetmap.org","min_zoom":8.0,"name:uk":"\u041b\u0435\u043d\u0456\u043d\u0430 \u0432\u0443\u043b\u0438\u0446\u044f","shield_text":"35\u041a","ref":"35\u041a-003","id":246316041},"arcs":[50]},{"type":"LineString","properties":{"kind":"major_road","network":"ru:regional","sort_rank":381,"kind_detail":"trunk","source":"openstreetmap.org","min_zoom":8.0,"name:uk":"\u0421\u0435\u0432\u0430\u0441\u0442\u043e\u043f\u043e\u043b\u044c\u0441\u044c\u043a\u0430 \u0432\u0443\u043b\u0438\u0446\u044f","shield_text":"35\u0420","ref":"35\u0420-001","id":538324384},"arcs":[51]},{"type":"LineString","properties":{"kind":"major_road","name:en":"Yuzhnoberezhnoe Highway","network":"ua:national","sort_rank":381,"kind_detail":"trunk","source":"openstreetmap.org","min_zoom":8.0,"name:uk":"\u041f\u0456\u0432\u0434\u0435\u043d\u043d\u043e\u0431\u0435\u0440\u0435\u0436\u043d\u0435 \u0448\u043e\u0441\u0435","landuse_kind":"nature_reserve","shield_text":"19","ref":"67\u041a-1","id":297170185},"arcs":[52]},{"type":"LineString","properties":{"kind":"major_road","network":"ru:regional","sort_rank":380,"kind_detail":"primary","source":"openstreetmap.org","min_zoom":8.0,"name:uk":"\u0410\u043b\u0443\u0448\u0442\u0438\u043d\u0441\u044c\u043a\u0430 \u0432\u0443\u043b\u0438\u0446\u044f","shield_text":"35\u041a","ref":"35\u041a-005","id":161297524},"arcs":[53]},{"type":"LineString","properties":{"bus_network":null,"name:en":"Yuzhnoberezhnoe Highway","network":"e-road","sort_rank":381,"kind_detail":"trunk","kind":"major_road","source":"openstreetmap.org","min_zoom":8.0,"name:uk":"\u041f\u0456\u0432\u0434\u0435\u043d\u043d\u043e\u0431\u0435\u0440\u0435\u0436\u043d\u0435 \u0448\u043e\u0441\u0435","bus_shield_text":"31\u0411","shield_text":"105","landuse_kind":"urban_area","ref":"35\u0410-002","id":501250932},"arcs":[54]},{"type":"LineString","properties":{"kind":"major_road","sort_rank":380,"kind_detail":"primary","source":"openstreetmap.org","min_zoom":8.0,"name:uk":"\u041f\u0440\u043e\u043b\u0435\u0442\u0430\u0440\u0441\u044c\u043a\u0430 \u0432\u0443\u043b\u0438\u0446\u044f","old_name":"\u041f\u0440\u043e\u043b\u0435\u0442\u0430\u0440\u0441\u043a\u0430\u044f \u0443\u043b\u0438\u0446\u0430","landuse_kind":"urban_area","id":373323035},"arcs":[55]},{"type":"MultiLineString","properties":{"source":"openstreetmap.org","kind":"major_road","name:uk":"\u0410\u043c\u0435\u0442-\u0425\u0430\u043d\u0430 \u0421\u0443\u043b\u0442\u0430\u043d\u0430 \u043f\u043b\u043e\u0449\u0430","kind_detail":"trunk","sort_rank":381,"landuse_kind":"urban_area","min_zoom":8.0},"arcs":[[56],[57]]},{"type":"LineString","properties":{"bus_network":null,"sort_rank":381,"landuse_kind":"urban_area","kind":"major_road","source":"openstreetmap.org","min_zoom":8.0,"name:uk":"\u0420\u0430\u0434\u044f\u043d\u0441\u044c\u043a\u0430 \u043f\u043b\u043e\u0449\u0430","bus_shield_text":"\u0422\u0431-7","kind_detail":"trunk"},"arcs":[58]},{"type":"LineString","properties":{"kind":"major_road","name:en":"Sadovaya Street","sort_rank":380,"kind_detail":"primary","bus_network":null,"source":"openstreetmap.org","min_zoom":8.0,"name:uk":"\u0421\u0430\u0434\u043e\u0432\u0430 \u0432\u0443\u043b\u0438\u0446\u044f","bus_shield_text":"18\u0410","landuse_kind":"urban_area","id":37911474},"arcs":[59]},{"type":"LineString","properties":{"kind":"major_road","name:en":"Zhukovskogo Street","sort_rank":380,"kind_detail":"primary","bus_network":null,"source":"openstreetmap.org","min_zoom":8.0,"name:uk":"\u0416\u0443\u043a\u043e\u0432\u0441\u044c\u043a\u043e\u0433\u043e \u0432\u0443\u043b\u0438\u0446\u044f","bus_shield_text":"\u0422\u0431-5","landuse_kind":"urban_area","id":94849753},"arcs":[60]},{"type":"LineString","properties":{"kind":"major_road","name:en":"Karl Marx str","sort_rank":380,"kind_detail":"primary","bus_shield_text":"\u0422\u0431-5","bus_network":null,"source":"openstreetmap.org","min_zoom":8.0,"name:uk":"\u041a\u0430\u0440\u043b\u0430 \u041c\u0430\u0440\u043a\u0441\u0430 \u0432\u0443\u043b\u0438\u0446\u044f","old_name":"\u0415\u043a\u0430\u0442\u0435\u0440\u0438\u043d\u0438\u043d\u0441\u043a\u0430\u044f \u0443\u043b\u0438\u0446\u0430","landuse_kind":"urban_area","id":76157020},"arcs":[61]},{"type":"LineString","properties":{"kind":"major_road","network":"ru:regional","sort_rank":381,"kind_detail":"trunk","bus_network":null,"source":"openstreetmap.org","min_zoom":8.0,"bus_shield_text":"\u0422\u0431-6","shield_text":"35\u0410","landuse_kind":"urban_area","ref":"35\u0410-002","id":43027286},"arcs":[62]},{"type":"LineString","properties":{"kind":"major_road","network":"ru:regional","sort_rank":380,"kind_detail":"primary","source":"openstreetmap.org","min_zoom":8.0,"name:uk":"\u041d\u0430\u0431\u0435\u0440\u0435\u0436\u043d\u0430 \u0432\u0443\u043b\u0438\u0446\u044f","shield_text":"35\u041a","ref":"35\u041a-005","id":24196996},"arcs":[63]},{"type":"LineString","properties":{"kind":"major_road","network":"ru:regional","sort_rank":380,"kind_detail":"primary","source":"openstreetmap.org","min_zoom":8.0,"name:uk":"\u0421\u0456\u043c\u0444\u0435\u0440\u043e\u043f\u043e\u043b\u044c\u0441\u044c\u043a\u0435 \u0448\u043e\u0441\u0435","shield_text":"35\u041a","ref":"35\u041a-006","id":202703179},"arcs":[64]},{"type":"MultiLineString","properties":{"bus_network":null,"sort_rank":381,"landuse_kind":"urban_area","kind":"major_road","source":"openstreetmap.org","min_zoom":8.0,"bus_shield_text":"\u0422\u0431-7","kind_detail":"trunk"},"arcs":[[65],[66],[67]]},{"type":"MultiLineString","properties":{"sort_rank":381,"source":"openstreetmap.org","min_zoom":8.0,"kind":"major_road","kind_detail":"trunk"},"arcs":[[68],[69],[70]]},{"type":"MultiLineString","properties":{"kind":"major_road","network":"ru:regional","sort_rank":381,"kind_detail":"trunk","source":"openstreetmap.org","min_zoom":8.0,"shield_text":"35\u0420","ref":"35\u0420-001"},"arcs":[[71],[72],[73],[74],[75],[76],[77],[78],[79]]},{"type":"LineString","properties":{"source":"openstreetmap.org","kind":"major_road","sort_rank":381,"kind_detail":"trunk","ref":"35\u0420-001","min_zoom":8.0,"id":532527113},"arcs":[80]},{"type":"LineString","properties":{"source":"openstreetmap.org","kind":"ferry","name":"Yalta - Istanbul","sort_rank":355,"min_zoom":8.0,"osm_relation":true,"id":-301998},"arcs":[81]},{"type":"LineString","properties":{"kind":"major_road","name:en":"Sudakska Street","network":"ru:regional","sort_rank":380,"kind_detail":"primary","bus_network":null,"source":"openstreetmap.org","min_zoom":8.0,"name:uk":"\u0421\u0443\u0434\u0430\u043a\u0441\u044c\u043a\u0430 \u0432\u0443\u043b\u0438\u0446\u044f","bus_shield_text":"8","shield_text":"35\u041a","landuse_kind":"urban_area","ref":"35\u041a-005","id":386296139},"arcs":[82]},{"type":"LineString","properties":{"bus_network":null,"name:en":"Lomonosova Street","sort_rank":380,"kind_detail":"primary","kind":"major_road","source":"openstreetmap.org","min_zoom":8.0,"name:uk":"\u041b\u043e\u043c\u043e\u043d\u043e\u0441\u043e\u0432\u0430 \u0432\u0443\u043b\u0438\u0446\u044f","bus_shield_text":"8\u0410","landuse_kind":"urban_area"},"arcs":[83]},{"type":"MultiLineString","properties":{"kind":"major_road","name:en":"Yuzhnoberezhnoe Highway","network":"e-road","sort_rank":381,"landuse_kind":"urban_area","source":"openstreetmap.org","min_zoom":8.0,"name:uk":"\u041f\u0456\u0432\u0434\u0435\u043d\u043d\u043e\u0431\u0435\u0440\u0435\u0436\u043d\u0435 \u0448\u043e\u0441\u0435","kind_detail":"trunk","shield_text":"105","ref":"35\u0410-002"},"arcs":[[84],[85]]},{"type":"LineString","properties":{"kind":"major_road","sort_rank":380,"kind_detail":"primary","bus_network":null,"source":"openstreetmap.org","min_zoom":8.0,"bus_shield_text":"\u0422\u0431-9","landuse_kind":"urban_area","id":36781532},"arcs":[86]},{"type":"MultiLineString","properties":{"kind":"major_road","name:en":"Sevastopolskaya Street","sort_rank":381,"landuse_kind":"urban_area","source":"openstreetmap.org","min_zoom":8.0,"name:uk":"\u0421\u0435\u0432\u0430\u0441\u0442\u043e\u043f\u043e\u043b\u044c\u0441\u044c\u043a\u0430 \u0432\u0443\u043b\u0438\u0446\u044f","kind_detail":"trunk"},"arcs":[[87],[88]]},{"type":"MultiLineString","properties":{"source":"openstreetmap.org","kind":"major_road","landuse_kind":"urban_area","sort_rank":380,"kind_detail":"primary","min_zoom":8.0},"arcs":[[89],[90],[91],[92],[93],[94]]},{"type":"LineString","properties":{"kind":"major_road","name:en":"Proletarskaya Street","sort_rank":380,"kind_detail":"primary","source":"openstreetmap.org","min_zoom":8.0,"name:uk":"\u041f\u0440\u043e\u043b\u0435\u0442\u0430\u0440\u0441\u044c\u043a\u0430 \u0432\u0443\u043b\u0438\u0446\u044f","landuse_kind":"urban_area","id":95685944},"arcs":[95]},{"type":"MultiLineString","properties":{"sort_rank":355,"source":"openstreetmap.org","min_zoom":8.0,"kind":"ferry"},"arcs":[[96],[97],[98]]},{"type":"MultiLineString","properties":{"sort_rank":355,"landuse_kind":"urban_area","min_zoom":8.0,"kind":"ferry","source":"openstreetmap.org"},"arcs":[[99],[100]]},{"type":"LineString","properties":{"bus_network":null,"name:en":"Yuzhnoberezhnoe Highway","network":"e-road","sort_rank":381,"kind_detail":"trunk","kind":"major_road","source":"openstreetmap.org","min_zoom":8.0,"name:uk":"\u041f\u0456\u0432\u0434\u0435\u043d\u043d\u043e\u0431\u0435\u0440\u0435\u0436\u043d\u0435 \u0448\u043e\u0441\u0435","bus_shield_text":"\u0422\u0431-55","shield_text":"105","landuse_kind":"urban_area","ref":"35\u0410-002","id":210301887},"arcs":[101]},{"type":"MultiLineString","properties":{"kind":"major_road","network":"ru:regional","sort_rank":380,"kind_detail":"primary","source":"openstreetmap.org","min_zoom":8.0,"shield_text":"35\u041a","ref":"35\u041a-005"},"arcs":[[102],[103],[104],[105],[106],[107],[108],[109]]},{"type":"LineString","properties":{"kind":"major_road","network":"ru:regional","sort_rank":381,"kind_detail":"trunk","bus_network":null,"source":"openstreetmap.org","min_zoom":8.0,"name:uk":"\u0410\u043b\u0443\u0448\u0442\u0438\u043d\u0441\u044c\u043a\u0430 \u0432\u0443\u043b\u0438\u0446\u044f","bus_shield_text":"\u0422\u0431-51","shield_text":"35\u0410","ref":"35\u0410-002","id":538339745},"arcs":[110]},{"type":"LineString","properties":{"bus_network":null,"name:en":"Sevastopolskaya Street","sort_rank":381,"landuse_kind":"urban_area","kind":"major_road","source":"openstreetmap.org","min_zoom":8.0,"name:uk":"\u0421\u0435\u0432\u0430\u0441\u0442\u043e\u043f\u043e\u043b\u044c\u0441\u044c\u043a\u0430 \u0432\u0443\u043b\u0438\u0446\u044f","bus_shield_text":"\u0422\u0431-5","kind_detail":"trunk"},"arcs":[111]},{"type":"MultiLineString","properties":{"bus_network":null,"network":"ru:regional","sort_rank":381,"kind_detail":"trunk","kind":"major_road","source":"openstreetmap.org","min_zoom":8.0,"bus_shield_text":"\u0422\u0431-51","shield_text":"35\u0410","landuse_kind":"urban_area","ref":"35\u0410-002"},"arcs":[[112],[113]]},{"type":"MultiLineString","properties":{"kind":"major_road","network":"ua:national","sort_rank":380,"kind_detail":"primary","source":"openstreetmap.org","min_zoom":8.0,"landuse_kind":"urban_area","shield_text":"05","ref":"35\u0410-005"},"arcs":[[114],[115],[116]]},{"type":"MultiLineString","properties":{"kind":"major_road","name:en":"Pobedy Avenue","sort_rank":381,"landuse_kind":"urban_area","source":"openstreetmap.org","min_zoom":8.0,"name:uk":"\u041f\u0435\u0440\u0435\u043c\u043e\u0433\u0438 \u043f\u0440\u043e\u0441\u043f\u0435\u043a\u0442","kind_detail":"trunk"},"arcs":[[117],[118]]},{"type":"MultiLineString","properties":{"bus_network":null,"name:en":"Sudakskaya Street","network":"ru:regional","sort_rank":380,"kind_detail":"primary","kind":"major_road","source":"openstreetmap.org","min_zoom":8.0,"name:uk":"\u0421\u0443\u0434\u0430\u043a\u0441\u044c\u043a\u0430 \u0432\u0443\u043b\u0438\u0446\u044f","bus_shield_text":"8","shield_text":"35\u041a","landuse_kind":"urban_area","ref":"35\u041a-005"},"arcs":[[119],[120]]},{"type":"LineString","properties":{"kind":"major_road","name:en":"Lenina Street","network":"ru:regional","sort_rank":380,"kind_detail":"primary","source":"openstreetmap.org","min_zoom":8.0,"name:uk":"\u041b\u0435\u043d\u0456\u043d\u0430 \u0432\u0443\u043b\u0438\u0446\u044f","shield_text":"35\u041a","ref":"35\u041a-005"},"arcs":[121]},{"type":"LineString","properties":{"kind":"major_road","name:en":"Yuzhnoberezhnoe Highway","network":"ru:regional","sort_rank":381,"kind_detail":"trunk","source":"openstreetmap.org","min_zoom":8.0,"name:uk":"\u041f\u0456\u0432\u0434\u0435\u043d\u043d\u043e\u0431\u0435\u0440\u0435\u0436\u043d\u0435 \u0448\u043e\u0441\u0435","shield_text":"35\u0410","ref":"35\u0410-002"},"arcs":[122]},{"type":"LineString","properties":{"kind":"major_road","name:en":"Feodosiiska Street","network":"ru:regional","sort_rank":380,"kind_detail":"primary","source":"openstreetmap.org","min_zoom":8.0,"name:uk":"\u0424\u0435\u043e\u0434\u043e\u0441\u0456\u0439\u0441\u044c\u043a\u0430 \u0432\u0443\u043b\u0438\u0446\u044f","shield_text":"35\u041a","ref":"35\u041a-005"},"arcs":[123]},{"type":"MultiLineString","properties":{"bus_network":null,"sort_rank":381,"landuse_kind":"urban_area","kind":"major_road","source":"openstreetmap.org","min_zoom":8.0,"name:uk":"\u0404\u0432\u043f\u0430\u0442\u043e\u0440\u0456\u0439\u0441\u044c\u043a\u0435 \u0448\u043e\u0441\u0435","bus_shield_text":"\u0422\u0431-9","kind_detail":"trunk"},"arcs":[[124],[125]]},{"type":"LineString","properties":{"kind":"major_road","name:en":"Kievskaya Street","sort_rank":380,"kind_detail":"primary","bus_network":null,"source":"openstreetmap.org","min_zoom":8.0,"name:uk":"\u041a\u0438\u0457\u0432\u0441\u044c\u043a\u0430 \u0432\u0443\u043b\u0438\u0446\u044f","bus_shield_text":"\u0422\u0431-4","landuse_kind":"urban_area","id":36781504},"arcs":[126]},{"type":"LineString","properties":{"bus_network":null,"name:en":"Yuzhnoberezhnoe Highway","network":"ua:national","sort_rank":381,"kind_detail":"trunk","kind":"major_road","source":"openstreetmap.org","min_zoom":8.0,"name:uk":"\u041f\u0456\u0432\u0434\u0435\u043d\u043d\u043e\u0431\u0435\u0440\u0435\u0436\u043d\u0435 \u0448\u043e\u0441\u0435","bus_shield_text":"13","shield_text":"19","landuse_kind":"urban_area","ref":"35\u041a-002"},"arcs":[127]},{"type":"MultiLineString","properties":{"kind":"major_road","name:en":"Kievskaya Street","sort_rank":380,"kind_detail":"primary","source":"openstreetmap.org","min_zoom":8.0,"name:uk":"\u041a\u0438\u0457\u0432\u0441\u044c\u043a\u0430 \u0432\u0443\u043b\u0438\u0446\u044f","landuse_kind":"urban_area"},"arcs":[[128],[129]]},{"type":"MultiLineString","properties":{"bus_network":null,"network":"ua:national","sort_rank":380,"kind_detail":"primary","kind":"major_road","source":"openstreetmap.org","min_zoom":8.0,"bus_shield_text":"\u0422\u0431-9","shield_text":"05","landuse_kind":"urban_area","ref":"35\u041a-001"},"arcs":[[130],[131],[132],[133],[134]]},{"type":"LineString","properties":{"kind":"major_road","sort_rank":381,"kind_detail":"trunk","bus_network":null,"source":"openstreetmap.org","min_zoom":8.0,"bus_shield_text":"34","id":501253173},"arcs":[135]},{"type":"LineString","properties":{"kind":"major_road","name:en":"Yuzhnoberezhnoe Highway","network":"ua:national","sort_rank":381,"kind_detail":"trunk","bus_network":null,"source":"openstreetmap.org","min_zoom":8.0,"name:uk":"\u041f\u0456\u0432\u0434\u0435\u043d\u043d\u043e\u0431\u0435\u0440\u0435\u0436\u043d\u0435 \u0448\u043e\u0441\u0435","bus_shield_text":"25","shield_text":"19","landuse_kind":"urban_area","ref":"35\u041a-002","id":435319636},"arcs":[136]},{"type":"LineString","properties":{"kind":"ferry","sort_rank":355,"landuse_kind":"urban_area","source":"openstreetmap.org","min_zoom":8.0,"ref":"\u042f\u043b\u0442\u0430 - \u041d\u043e\u0432\u043e\u0440\u043e\u0441\u0441\u0438\u0439\u0441\u043a","id":-301997,"osm_relation":true},"arcs":[137]},{"type":"LineString","properties":{"kind":"major_road","name:en":"Shmidta Street","sort_rank":380,"kind_detail":"primary","source":"openstreetmap.org","min_zoom":8.0,"name:uk":"\u0428\u043c\u0456\u0434\u0442\u0430 \u0432\u0443\u043b\u0438\u0446\u044f","landuse_kind":"urban_area","id":28133143},"arcs":[138]},{"type":"LineString","properties":{"bus_network":null,"name:en":"Karla Marksa Street","sort_rank":380,"kind_detail":"primary","kind":"major_road","source":"openstreetmap.org","min_zoom":8.0,"name:uk":"\u041a\u0430\u0440\u043b\u0430 \u041c\u0430\u0440\u043a\u0441\u0430 \u0432\u0443\u043b\u0438\u0446\u044f","bus_shield_text":"18\u0410","landuse_kind":"urban_area"},"arcs":[139]},{"type":"LineString","properties":{"kind":"major_road","name:en":"Sevastopolskaya Street","sort_rank":381,"kind_detail":"trunk","source":"openstreetmap.org","min_zoom":8.0,"name:uk":"\u0421\u0435\u0432\u0430\u0441\u0442\u043e\u043f\u043e\u043b\u044c\u0441\u044c\u043a\u0430 \u0432\u0443\u043b\u0438\u0446\u044f","id":95093527},"arcs":[140]},{"type":"LineString","properties":{"bus_network":null,"name:en":"Yuzhnoberezhnoe Highway","network":"ua:national","sort_rank":381,"kind_detail":"trunk","kind":"major_road","source":"openstreetmap.org","min_zoom":8.0,"name:uk":"\u041f\u0456\u0432\u0434\u0435\u043d\u043d\u043e\u0431\u0435\u0440\u0435\u0436\u043d\u0435 \u0448\u043e\u0441\u0435","bus_shield_text":"28","shield_text":"19","landuse_kind":"urban_area","ref":"35\u041a-002"},"arcs":[141]},{"type":"LineString","properties":{"source":"openstreetmap.org","kind":"ferry","name":"\u042f\u043b\u0442\u0430 - \u041d\u043e\u0432\u043e\u0440\u043e\u0441\u0441\u0438\u0439\u0441\u043a","sort_rank":355,"landuse_kind":"urban_area","min_zoom":8.0,"id":44676180},"arcs":[142]},{"type":"LineString","properties":{"kind":"major_road","name:en":"Kavkazskaya Street","sort_rank":380,"kind_detail":"primary","source":"openstreetmap.org","min_zoom":8.0,"name:uk":"\u041f\u0440\u043e\u043b\u0435\u0442\u0430\u0440\u0441\u044c\u043a\u0430 \u0432\u0443\u043b\u0438\u0446\u044f","landuse_kind":"urban_area","id":373323032},"arcs":[143]},{"type":"LineString","properties":{"kind":"ferry","name:en":"Illichivsk - Poti","name":"\u0406\u043b\u043b\u0456\u0447\u0456\u0432\u0441\u044c\u043a - \u041f\u043e\u0442\u0456","sort_rank":355,"source":"openstreetmap.org","min_zoom":8.0,"name:ru":"\u0418\u043b\u044c\u0438\u0447\u0451\u0432\u0441\u043a - \u041f\u043e\u0442\u0438","id":130697014},"arcs":[144]},{"type":"LineString","properties":{"kind":"major_road","name:en":"Sevastopolskoe Highway","network":"ru:regional","sort_rank":380,"kind_detail":"primary","bus_network":null,"source":"openstreetmap.org","min_zoom":8.0,"name:uk":"\u0421\u0435\u0432\u0430\u0441\u0442\u043e\u043f\u043e\u043b\u044c\u0441\u044c\u043a\u0435 \u0448\u043e\u0441\u0435","bus_shield_text":"115","shield_text":"35\u041a","landuse_kind":"urban_area","ref":"35\u041a-022","id":435299078},"arcs":[145]},{"type":"LineString","properties":{"kind":"major_road","network":"ru:regional","sort_rank":381,"kind_detail":"trunk","source":"openstreetmap.org","min_zoom":8.0,"name:uk":"\u0412\u043e\u0434\u043e\u0441\u0445\u043e\u0432\u0438\u0449\u0435 \u0432\u0443\u043b\u0438\u0446\u044f","shield_text":"35\u041a","ref":"35\u041a-003","id":497992305},"arcs":[146]},{"type":"MultiLineString","properties":{"bus_network":null,"name:en":"Kiyevskaya Street","sort_rank":380,"kind_detail":"primary","kind":"major_road","source":"openstreetmap.org","min_zoom":8.0,"name:uk":"\u041a\u0438\u0457\u0432\u0441\u044c\u043a\u0430 \u0432\u0443\u043b\u0438\u0446\u044f","bus_shield_text":"\u0422\u0431 3","landuse_kind":"urban_area"},"arcs":[[147],[148]]},{"type":"LineString","properties":{"source":"openstreetmap.org","kind":"major_road","sort_rank":380,"kind_detail":"primary","min_zoom":8.0,"id":173583320},"arcs":[149]},{"type":"MultiLineString","properties":{"bus_network":null,"sort_rank":381,"kind_detail":"trunk","kind":"major_road","source":"openstreetmap.org","min_zoom":8.0,"name:uk":"\u0410\u043c\u0435\u0442-\u0425\u0430\u043d\u0430 \u0421\u0443\u043b\u0442\u0430\u043d\u0430 \u043f\u043b\u043e\u0449\u0430","bus_shield_text":"\u0422\u0431-7","landuse_kind":"urban_area"},"arcs":[[150],[151]]},{"type":"LineString","properties":{"kind":"ferry","name":"\u0421hornomorsk - Poti","sort_rank":355,"source":"openstreetmap.org","min_zoom":8.0,"name:uk":"\u0427\u043e\u0440\u043d\u043e\u043c\u043e\u0440\u0441\u044c\u043a - \u041f\u043e\u0442\u0456","name:ru":"\u0427\u0435\u0440\u043d\u043e\u043c\u043e\u0440\u0441\u043a - \u041f\u043e\u0442\u0438","osm_relation":true},"arcs":[152]},{"type":"LineString","properties":{"kind":"major_road","name:en":"Pobedy Avenue","network":"ru:regional","sort_rank":381,"kind_detail":"trunk","source":"openstreetmap.org","min_zoom":8.0,"name:uk":"\u041f\u0435\u0440\u0435\u043c\u043e\u0433\u0438 \u043f\u0440\u043e\u0441\u043f\u0435\u043a\u0442","landuse_kind":"urban_area","shield_text":"35\u041a","ref":"35\u041a-003"},"arcs":[153]},{"type":"MultiLineString","properties":{"kind":"major_road","network":"ru:regional","sort_rank":381,"kind_detail":"trunk","source":"openstreetmap.org","min_zoom":8.0,"name:uk":"\u0428\u043e\u0441\u0435\u0439\u043d\u0430 \u0432\u0443\u043b\u0438\u0446\u044f","shield_text":"35\u041a","ref":"35\u041a-003"},"arcs":[[154],[155]]},{"type":"MultiLineString","properties":{"bus_network":null,"name:en":"Gagarina Street","sort_rank":380,"kind_detail":"primary","kind":"major_road","source":"openstreetmap.org","min_zoom":8.0,"name:uk":"\u0413\u0430\u0433\u0430\u0440\u0456\u043d\u0430 \u0432\u0443\u043b\u0438\u0446\u044f","bus_shield_text":"\u0422\u0431-6","landuse_kind":"urban_area"},"arcs":[[156],[157],[158]]},{"type":"LineString","properties":{"kind":"major_road","name:en":"Vorovskogo Street","sort_rank":380,"kind_detail":"primary","source":"openstreetmap.org","min_zoom":8.0,"name:uk":"\u0412\u043e\u0440\u043e\u0432\u0441\u044c\u043a\u043e\u0433\u043e \u0432\u0443\u043b\u0438\u0446\u044f","landuse_kind":"urban_area"},"arcs":[159]},{"type":"LineString","properties":{"kind":"major_road","sort_rank":380,"kind_detail":"primary","old_name:ru":"\u0443\u043b\u0438\u0446\u0430 \u0420\u043e\u0437\u044b \u041b\u044e\u043a\u0441\u0435\u043c\u0431\u0443\u0440\u0433","bus_network":null,"source":"openstreetmap.org","min_zoom":8.0,"old_name:en":"Rozy Liuksemburh Street","name:uk":"\u041e\u043b\u0435\u043a\u0441\u0430\u043d\u0434\u0440\u0430 \u041d\u0435\u0432\u0441\u044c\u043a\u043e\u0433\u043e \u0432\u0443\u043b\u0438\u0446\u044f","old_name":"\u0443\u043b\u0438\u0446\u0430 \u0420\u043e\u0437\u044b \u041b\u044e\u043a\u0441\u0435\u043c\u0431\u0443\u0440\u0433","landuse_kind":"urban_area","bus_shield_text":"\u0422\u0431-6","id":76157021},"arcs":[160]},{"type":"LineString","properties":{"kind":"major_road","sort_rank":381,"kind_detail":"trunk","bus_network":null,"source":"openstreetmap.org","min_zoom":8.0,"name:uk":"\u041a\u0443\u0439\u0431\u0438\u0448\u0435\u0432\u0430 \u043f\u043b\u043e\u0449\u0430","bus_shield_text":"\u0422\u0431-6","loc_name":"\u041a\u0443\u0439\u0431\u044b\u0448\u0430\u0442\u043d\u0438\u043a","landuse_kind":"urban_area","id":473611577},"arcs":[161]},{"type":"MultiLineString","properties":{"kind":"major_road","network":"ru:regional","sort_rank":380,"kind_detail":"primary","source":"openstreetmap.org","min_zoom":8.0,"landuse_kind":"urban_area","shield_text":"35\u041a","ref":"35\u041a-004"},"arcs":[[162],[163],[164],[165],[166]]},{"type":"MultiLineString","properties":{"bus_network":null,"name:en":"Moskovskaya Street","sort_rank":380,"kind_detail":"primary","kind":"major_road","source":"openstreetmap.org","min_zoom":8.0,"name:uk":"\u041c\u043e\u0441\u043a\u043e\u0432\u0441\u044c\u043a\u0430 \u0432\u0443\u043b\u0438\u0446\u044f","bus_shield_text":"\u0422\u0431-55","landuse_kind":"urban_area"},"arcs":[[167],[168]]},{"type":"MultiLineString","properties":{"kind":"major_road","network":"ru:regional","sort_rank":380,"kind_detail":"primary","source":"openstreetmap.org","min_zoom":8.0,"shield_text":"35\u041a","ref":"35\u041a-006"},"arcs":[[169],[170]]},{"type":"LineString","properties":{"bus_network":null,"name:en":"Pobedy Avenue","network":"ru:regional","sort_rank":381,"kind_detail":"trunk","kind":"major_road","source":"openstreetmap.org","min_zoom":8.0,"name:uk":"\u041f\u0435\u0440\u0435\u043c\u043e\u0433\u0438 \u043f\u0440\u043e\u0441\u043f\u0435\u043a\u0442","bus_shield_text":"\u0422\u0431-7","shield_text":"35\u041a","landuse_kind":"urban_area","ref":"35\u041a-003"},"arcs":[171]},{"type":"LineString","properties":{"bus_network":null,"name:en":"Kievskaya Street","sort_rank":380,"kind_detail":"primary","kind":"major_road","source":"openstreetmap.org","min_zoom":8.0,"name:uk":"\u041a\u0438\u0457\u0432\u0441\u044c\u043a\u0430 \u0432\u0443\u043b\u0438\u0446\u044f","bus_shield_text":"15\u0410","landuse_kind":"urban_area"},"arcs":[172]},{"type":"MultiLineString","properties":{"bus_network":null,"name:en":"Yuzhnoberezhnoe Highway","network":"ru:regional","sort_rank":381,"kind_detail":"trunk","kind":"major_road","source":"openstreetmap.org","min_zoom":8.0,"name:uk":"\u041f\u0456\u0432\u0434\u0435\u043d\u043d\u043e\u0431\u0435\u0440\u0435\u0436\u043d\u0435 \u0448\u043e\u0441\u0435","bus_shield_text":"31\u0411","shield_text":"35\u0410","landuse_kind":"urban_area","ref":"35\u0410-002"},"arcs":[[173],[174]]},{"type":"LineString","properties":{"source":"openstreetmap.org","kind":"ferry","name":"Yalta - Istanbul","sort_rank":355,"landuse_kind":"urban_area","min_zoom":8.0,"id":233115451},"arcs":[175]},{"type":"MultiLineString","properties":{"kind":"major_road","network":"ru:regional","sort_rank":381,"landuse_kind":"urban_area","source":"openstreetmap.org","min_zoom":8.0,"kind_detail":"trunk","shield_text":"35\u0410","ref":"35\u0410-002"},"arcs":[[176],[177],[178],[179]]},{"type":"MultiLineString","properties":{"source":"openstreetmap.org","kind":"major_road","kind_detail":"trunk","sort_rank":381,"landuse_kind":"urban_area","min_zoom":8.0},"arcs":[[180],[181],[182],[183],[184]]},{"type":"LineString","properties":{"kind":"major_road","name:en":"Kirova Street","sort_rank":380,"kind_detail":"primary","bus_network":null,"source":"openstreetmap.org","min_zoom":8.0,"name:uk":"\u041a\u0456\u0440\u043e\u0432\u0430 \u0432\u0443\u043b\u0438\u0446\u044f","bus_shield_text":"18\u0410","landuse_kind":"urban_area","id":37911401,"nat_name":"\u041a\u0456\u0440\u043e\u0432\u0430 \u0432\u0443\u043b\u0438\u0446\u044f"},"arcs":[185]},{"type":"LineString","properties":{"kind":"major_road","sort_rank":381,"kind_detail":"trunk","bus_network":null,"source":"openstreetmap.org","min_zoom":8.0,"bus_shield_text":"\u0422\u0431-9","landuse_kind":"urban_area","id":403583259},"arcs":[186]},{"type":"LineString","properties":{"bus_network":null,"network":"ua:national","name:lt":"\u017dalioji g.","sort_rank":380,"kind_detail":"primary","kind":"major_road","source":"openstreetmap.org","min_zoom":8.0,"name:uk":"\u0417\u0435\u043b\u0435\u043d\u0430 \u0432\u0443\u043b\u0438\u0446\u044f","bus_shield_text":"\u0422\u0431-9","shield_text":"05","landuse_kind":"urban_area","ref":"35\u041a-001","id":96783675},"arcs":[187]},{"type":"LineString","properties":{"bus_network":null,"sort_rank":380,"kind_detail":"primary","kind":"major_road","source":"openstreetmap.org","min_zoom":8.0,"name:uk":"\u0420\u0430\u0434\u043d\u0430\u0440\u043a\u043e\u043c\u0456\u0432\u0441\u044c\u043a\u0438\u0439 \u043f\u0440\u043e\u0432\u0443\u043b\u043e\u043a","bus_shield_text":"\u0422\u0431-6","landuse_kind":"urban_area"},"arcs":[188]},{"type":"LineString","properties":{"kind":"major_road","sort_rank":380,"kind_detail":"primary","bus_network":null,"source":"openstreetmap.org","min_zoom":8.0,"name:uk":"\u0420\u0430\u0434\u043d\u0430\u0440\u043a\u043e\u043c\u0456\u0432\u0441\u044c\u043a\u0438\u0439 \u043f\u0440\u043e\u0432\u0443\u043b\u043e\u043a","bus_shield_text":"\u0422\u0431-5","landuse_kind":"urban_area","id":471573498},"arcs":[189]},{"type":"LineString","properties":{"source":"openstreetmap.org","kind":"ferry","name":"Yalta - Istanbul","sort_rank":355,"min_zoom":8.0,"id":233115451},"arcs":[190]},{"type":"LineString","properties":{"kind":"major_road","name:en":"Kievskaya Street","sort_rank":380,"kind_detail":"primary","bus_network":null,"source":"openstreetmap.org","min_zoom":8.0,"name:uk":"\u041a\u0438\u0457\u0432\u0441\u044c\u043a\u0430 \u0432\u0443\u043b\u0438\u0446\u044f","bus_shield_text":"31\u0411","landuse_kind":"urban_area","id":35599943},"arcs":[191]},{"type":"LineString","properties":{"kind":"major_road","network":"ru:regional","sort_rank":381,"kind_detail":"trunk","source":"openstreetmap.org","min_zoom":8.0,"shield_text":"67\u0420","ref":"67\u0420-1","id":24506042},"arcs":[192]},{"type":"LineString","properties":{"bus_network":null,"name:en":"Lomonosova Street","sort_rank":380,"kind_detail":"primary","kind":"major_road","source":"openstreetmap.org","min_zoom":8.0,"name:uk":"\u041b\u043e\u043c\u043e\u043d\u043e\u0441\u043e\u0432\u0430 \u0432\u0443\u043b\u0438\u0446\u044f","bus_shield_text":"15-\u0411","landuse_kind":"urban_area"},"arcs":[193]},{"type":"LineString","properties":{"kind":"major_road","name:en":"Chapaeva Street","network":"ru:regional","sort_rank":381,"kind_detail":"trunk","source":"openstreetmap.org","min_zoom":8.0,"name:uk":"\u0427\u0430\u043f\u0430\u0454\u0432\u0430 \u0432\u0443\u043b\u0438\u0446\u044f","shield_text":"35\u041a","ref":"35\u041a-003"},"arcs":[194]},{"type":"LineString","properties":{"kind":"major_road","network":"ru:regional","sort_rank":381,"kind_detail":"trunk","source":"openstreetmap.org","min_zoom":8.0,"name:uk":"\u0417\u0430\u0440\u0456\u0447\u043d\u0430 \u0432\u0443\u043b\u0438\u0446\u044f","shield_text":"35\u0420","ref":"35\u0420-001","id":126419893},"arcs":[195]},{"type":"LineString","properties":{"bus_network":null,"name:en":"Lenina Avenue","sort_rank":380,"kind_detail":"primary","kind":"major_road","source":"openstreetmap.org","min_zoom":8.0,"name:uk":"\u041b\u0435\u043d\u0456\u043d\u0430 \u0431\u0443\u043b\u044c\u0432\u0430\u0440","bus_shield_text":"\u0422\u0431-5","landuse_kind":"urban_area"},"arcs":[196]},{"type":"LineString","properties":{"kind":"major_road","network":"ua:national","sort_rank":381,"kind_detail":"trunk","bus_network":null,"source":"openstreetmap.org","min_zoom":8.0,"bus_shield_text":"\u0422\u0431-9","shield_text":"05","landuse_kind":"urban_area","id":66318350},"arcs":[197]},{"type":"LineString","properties":{"kind":"major_road","name:en":"Yuzhnoberezhnoe Highway","network":"ua:national","sort_rank":381,"kind_detail":"trunk","bus_network":null,"source":"openstreetmap.org","min_zoom":8.0,"name:uk":"\u041f\u0456\u0432\u0434\u0435\u043d\u043d\u043e\u0431\u0435\u0440\u0435\u0436\u043d\u0435 \u0448\u043e\u0441\u0435","bus_shield_text":"1\u0410","shield_text":"19","ref":"35\u041a-002","id":295947591},"arcs":[198]},{"type":"LineString","properties":{"kind":"major_road","sort_rank":380,"landuse_kind":"urban_area","source":"openstreetmap.org","min_zoom":8.0,"name:uk":"\u041a\u0406\u041c\u0430 \u0432\u0443\u043b\u0438\u0446\u044f","kind_detail":"primary","id":32805579},"arcs":[199]},{"type":"MultiLineString","properties":{"kind":"major_road","network":"ru:regional","sort_rank":381,"landuse_kind":"urban_area","source":"openstreetmap.org","min_zoom":8.0,"kind_detail":"trunk","shield_text":"35\u041a","ref":"35\u041a-023"},"arcs":[[200],[201],[202],[203],[204],[205],[206],[207]]},{"type":"LineString","properties":{"kind":"major_road","sort_rank":380,"kind_detail":"primary","bus_network":null,"source":"openstreetmap.org","min_zoom":8.0,"name:uk":"\u041f\u0435\u0440\u0441\u0438\u043a\u043e\u0432\u0438\u0439 \u043f\u0440\u043e\u0432\u0443\u043b\u043e\u043a","bus_shield_text":"\u0422\u0431-9","landuse_kind":"urban_area","id":36781533},"arcs":[208]},{"type":"LineString","properties":{"kind":"major_road","name:en":"Kirova Avenue","sort_rank":381,"kind_detail":"trunk","bus_network":null,"source":"openstreetmap.org","min_zoom":8.0,"name:uk":"\u041a\u0456\u0440\u043e\u0432\u0430 \u043f\u0440\u043e\u0441\u043f\u0435\u043a\u0442","bus_shield_text":"\u0422\u0431-4","landuse_kind":"urban_area","id":471642075},"arcs":[209]},{"type":"LineString","properties":{"kind":"major_road","name:en":"Yuzhnoberezhnoe Highway","network":"ru:regional","sort_rank":381,"landuse_kind":"urban_area","source":"openstreetmap.org","min_zoom":8.0,"name:uk":"\u041f\u0456\u0432\u0434\u0435\u043d\u043d\u043e\u0431\u0435\u0440\u0435\u0436\u043d\u0435 \u0448\u043e\u0441\u0435","kind_detail":"trunk","shield_text":"35\u0410","ref":"35\u0410-002"},"arcs":[210]},{"type":"LineString","properties":{"kind":"major_road","network":"ru:regional","sort_rank":380,"kind_detail":"primary","source":"openstreetmap.org","min_zoom":8.0,"name:uk":"\u0424\u0435\u043e\u0434\u043e\u0441\u0456\u0439\u0441\u044c\u043a\u0435 \u0448\u043e\u0441\u0435","shield_text":"35\u041a","ref":"35\u041a-005","id":32805778},"arcs":[211]},{"type":"LineString","properties":{"kind":"major_road","network":"ru:regional","sort_rank":381,"kind_detail":"trunk","source":"openstreetmap.org","min_zoom":8.0,"landuse_kind":"urban_area","shield_text":"35\u041a","ref":"35\u041a-024","id":23916497},"arcs":[212]},{"type":"LineString","properties":{"kind":"major_road","network":"ua:national","name:lt":"\u017dalioji g.","sort_rank":380,"kind_detail":"primary","source":"openstreetmap.org","min_zoom":8.0,"name:uk":"\u0417\u0435\u043b\u0435\u043d\u0430 \u0432\u0443\u043b\u0438\u0446\u044f","landuse_kind":"urban_area","shield_text":"05","ref":"35\u041a-001","id":392619332},"arcs":[213]},{"type":"LineString","properties":{"bus_network":null,"name:en":"Yuzhnoberezhnoe Highway","network":"e-road","sort_rank":381,"kind_detail":"trunk","kind":"major_road","source":"openstreetmap.org","min_zoom":8.0,"name:uk":"\u041f\u0456\u0432\u0434\u0435\u043d\u043d\u043e\u0431\u0435\u0440\u0435\u0436\u043d\u0435 \u0448\u043e\u0441\u0435","bus_shield_text":"18\u0410","shield_text":"105","landuse_kind":"urban_area","ref":"35\u0410-002"},"arcs":[214]},{"type":"LineString","properties":{"kind":"major_road","name:en":"Sevastopolskoe Highway","network":"ru:regional","sort_rank":380,"kind_detail":"primary","bus_network":null,"source":"openstreetmap.org","min_zoom":8.0,"name:uk":"\u0421\u0435\u0432\u0430\u0441\u0442\u043e\u043f\u043e\u043b\u044c\u0441\u044c\u043a\u0435 \u0448\u043e\u0441\u0435","bus_shield_text":"30","shield_text":"35\u041a","landuse_kind":"urban_area","ref":"35\u041a-022","id":267284027},"arcs":[215]},{"type":"LineString","properties":{"kind":"major_road","name:en":"Pavlenko Street","sort_rank":380,"kind_detail":"primary","bus_network":null,"source":"openstreetmap.org","min_zoom":8.0,"name:uk":"\u041f\u0430\u0432\u043b\u0435\u043d\u043a\u0430 \u0432\u0443\u043b\u0438\u0446\u044f","bus_shield_text":"\u0422\u0431-6","landuse_kind":"urban_area","id":76157032},"arcs":[216]},{"type":"LineString","properties":{"kind":"major_road","name:en":"Kozlova Street","sort_rank":380,"kind_detail":"primary","bus_network":null,"source":"openstreetmap.org","min_zoom":8.0,"name:uk":"\u041a\u043e\u0437\u043b\u043e\u0432\u0430 \u0432\u0443\u043b\u0438\u0446\u044f","bus_shield_text":"\u0422\u0431-7","landuse_kind":"urban_area","id":129743641},"arcs":[217]},{"type":"LineString","properties":{"kind":"ferry","name":"Chornomorsk - Batumi","name:ka":"\u10e9\u10d4\u10e0\u10dc\u10dd\u10db\u10dd\u10e0\u10e1\u10d9\u10d8 - \u10d1\u10d0\u10d7\u10e3\u10db\u10d8","sort_rank":355,"source":"openstreetmap.org","min_zoom":8.0,"name:uk":"\u0427\u043e\u0440\u043d\u043e\u043c\u043e\u0440\u0441\u044c\u043a - \u0411\u0430\u0442\u0443\u043c\u0456","name:ru":"\u0427\u0435\u0440\u043d\u043e\u043c\u043e\u0440\u0441\u043a - \u0411\u0430\u0442\u0443\u043c\u0438","ref":"\u0427\u043e\u0440\u043d\u043e\u043c\u043e\u0440\u0441\u044c\u043a - \u0411\u0430\u0442\u0443\u043c\u0456","osm_relation":true},"arcs":[218]},{"type":"MultiLineString","properties":{"kind":"major_road","network":"ru:regional","sort_rank":381,"kind_detail":"trunk","source":"openstreetmap.org","min_zoom":8.0,"shield_text":"35\u041a","ref":"35\u041a-003"},"arcs":[[219],[220],[221]]},{"type":"LineString","properties":{"kind":"ferry","name:en":"\u0421hornomorsk - Poti","name":"\u0427\u043e\u0440\u043d\u043e\u043c\u043e\u0440\u0441\u044c\u043a - \u041f\u043e\u0442\u0456","name:ka":"\u10d8\u10da\u10d8\u10e9\u10dd\u10d5\u10e1\u10d9\u10d8 - \u10e4\u10dd\u10d7\u10d8","sort_rank":355,"name:de":"\u0421hornomorsk - Poti","source":"openstreetmap.org","min_zoom":8.0,"name:uk":"\u0427o\u0440\u043d\u043e\u043c\u043e\u0440\u0441\u044c\u043a - \u041f\u043e\u0442\u0456","name:ru":"\u0427\u0435\u0440\u043d\u043e\u043c\u043e\u0440\u0441\u043a - \u041f\u043e\u0442\u0438"},"arcs":[222]},{"type":"LineString","properties":{"kind":"major_road","sort_rank":380,"kind_detail":"primary","bus_network":null,"source":"openstreetmap.org","min_zoom":8.0,"name:uk":"\u041a\u0406\u041c\u0430 \u0432\u0443\u043b\u0438\u0446\u044f","bus_shield_text":"\u0422\u0431-9","landuse_kind":"urban_area","id":36781531},"arcs":[223]},{"type":"LineString","properties":{"kind":"major_road","name:en":"Moskovskaya Street","sort_rank":380,"kind_detail":"primary","bus_network":null,"source":"openstreetmap.org","min_zoom":8.0,"name:uk":"\u041c\u043e\u0441\u043a\u043e\u0432\u0441\u044c\u043a\u0430 \u0432\u0443\u043b\u0438\u0446\u044f","bus_shield_text":"\u0422\u0431-42","landuse_kind":"urban_area","id":130707269,"nat_name":"\u041c\u043e\u0441\u043a\u043e\u0432\u0441\u044c\u043a\u0430 \u0432\u0443\u043b\u0438\u0446\u044f"},"arcs":[224]},{"type":"MultiLineString","properties":{"bus_network":null,"name:en":"Moskovskaya Street","sort_rank":380,"kind_detail":"primary","kind":"major_road","source":"openstreetmap.org","min_zoom":8.0,"name:uk":"\u041c\u043e\u0441\u043a\u043e\u0432\u0441\u044c\u043a\u0430 \u0432\u0443\u043b\u0438\u0446\u044f","bus_shield_text":"\u0422\u0431-42","landuse_kind":"urban_area"},"arcs":[[225],[226]]},{"type":"LineString","properties":{"bus_network":null,"network":"ru:regional","sort_rank":381,"kind_detail":"trunk","kind":"major_road","source":"openstreetmap.org","min_zoom":8.0,"bus_shield_text":"\u0422\u0431-52","shield_text":"35\u0410","landuse_kind":"urban_area","ref":"35\u0410-002"},"arcs":[227]},{"type":"LineString","properties":{"bus_network":null,"name:en":"Kechkemetskaya Street","sort_rank":380,"kind_detail":"primary","kind":"major_road","source":"openstreetmap.org","min_zoom":8.0,"name:uk":"\u041a\u0435\u0447\u043a\u0435\u043c\u0435\u0442\u0441\u044c\u043a\u0430 \u0432\u0443\u043b\u0438\u0446\u044f","bus_shield_text":"\u0422\u0431-5","landuse_kind":"urban_area"},"arcs":[228]},{"type":"LineString","properties":{"kind":"ferry","name:en":"Chornomorsk - Batumi","name":"\u0427\u043e\u0440\u043d\u043e\u043c\u043e\u0440\u0441\u044c\u043a - \u0411\u0430\u0442\u0443\u043c\u0456","name:ka":"\u10e9\u10d4\u10e0\u10dc\u10dd\u10db\u10dd\u10e0\u10e1\u10d9\u10d8 - \u10d1\u10d0\u10d7\u10e3\u10db\u10d8","sort_rank":355,"source":"openstreetmap.org","min_zoom":8.0,"name:ru":"\u0427\u0435\u0440\u043d\u043e\u043c\u043e\u0440\u0441\u043a - \u0411\u0430\u0442\u0443\u043c\u0438"},"arcs":[229]},{"type":"MultiLineString","properties":{"kind":"major_road","network":"ua:national","sort_rank":380,"kind_detail":"primary","source":"openstreetmap.org","min_zoom":8.0,"landuse_kind":"urban_area","shield_text":"05","ref":"35\u041a-001"},"arcs":[[230],[231]]},{"type":"MultiLineString","properties":{"kind":"major_road","network":"ru:regional","sort_rank":380,"kind_detail":"primary","source":"openstreetmap.org","min_zoom":8.0,"landuse_kind":"aerodrome","shield_text":"35\u041a","ref":"35\u041a-004"},"arcs":[[232],[233]]},{"type":"MultiLineString","properties":{"bus_network":null,"network":"ru:regional","sort_rank":381,"kind_detail":"trunk","kind":"major_road","source":"openstreetmap.org","min_zoom":8.0,"bus_shield_text":"\u0422\u0431-51","shield_text":"35\u0410","ref":"35\u0410-002"},"arcs":[[234],[235],[236]]},{"type":"MultiLineString","properties":{"bus_network":null,"name:en":"Kievskaya Street","sort_rank":380,"kind_detail":"primary","kind":"major_road","source":"openstreetmap.org","min_zoom":8.0,"name:uk":"\u041a\u0438\u0457\u0432\u0441\u044c\u043a\u0430 \u0432\u0443\u043b\u0438\u0446\u044f","bus_shield_text":"\u0422\u0431-6","landuse_kind":"urban_area"},"arcs":[[237],[238],[239],[240],[241],[242],[243]]},{"type":"MultiLineString","properties":{"bus_network":null,"network":"ua:regional","sort_rank":381,"landuse_kind":"urban_area","kind":"major_road","source":"openstreetmap.org","min_zoom":8.0,"bus_shield_text":"\u0422\u0431-7","shield_text":"23","kind_detail":"trunk"},"arcs":[[244],[245],[246]]},{"type":"LineString","properties":{"kind":"major_road","sort_rank":380,"kind_detail":"primary","old_name:ru":"\u0420\u043e\u0437\u044b \u041b\u044e\u043a\u0441\u0435\u043c\u0431\u0443\u0440\u0433 \u0443\u043b\u0438\u0446\u0430","bus_network":null,"source":"openstreetmap.org","min_zoom":8.0,"old_name:en":"Rosa Luxemburg Street","name:uk":"\u041e\u043b\u0435\u043a\u0441\u0430\u043d\u0434\u0440\u0430 \u041d\u0435\u0432\u0441\u044c\u043a\u043e\u0433\u043e \u0432\u0443\u043b\u0438\u0446\u044f","old_name":"\u0420\u043e\u0437\u0438 \u041b\u044e\u043a\u0441\u0435\u043c\u0431\u0443\u0440\u0433 \u0432\u0443\u043b\u0438\u0446\u044f","landuse_kind":"urban_area","bus_shield_text":"\u0422\u0431-6","id":36781508},"arcs":[247]},{"type":"LineString","properties":{"kind":"major_road","network":"ua:national","sort_rank":380,"kind_detail":"primary","source":"openstreetmap.org","min_zoom":8.0,"shield_text":"05","ref":"35\u041a-001","id":182781356},"arcs":[248]},{"type":"LineString","properties":{"old_name:uk":"\u042f\u043b\u0442\u0438\u043d\u0441\u044c\u043a\u0430 \u0432\u0443\u043b\u0438\u0446\u044f","bus_network":null,"name:en":"Vernadsky Avenue","sort_rank":380,"kind_detail":"primary","bus_shield_text":"\u0422\u0431-6","kind":"major_road","source":"openstreetmap.org","min_zoom":8.0,"name:uk":"\u0412\u0435\u0440\u043d\u0430\u0434\u0441\u044c\u043a\u043e\u0433\u043e \u043f\u0440\u043e\u0441\u043f\u0435\u043a\u0442","old_name":"\u042f\u043b\u0442\u0438\u043d\u0441\u043a\u0430\u044f \u0443\u043b\u0438\u0446\u0430","landuse_kind":"urban_area"},"arcs":[249]},{"type":"LineString","properties":{"kind":"major_road","network":"ru:regional","sort_rank":380,"kind_detail":"primary","bus_network":null,"source":"openstreetmap.org","min_zoom":8.0,"bus_shield_text":"8","shield_text":"35\u041a","landuse_kind":"urban_area","ref":"35\u041a-005","id":119660333},"arcs":[250]},{"type":"MultiLineString","properties":{"bus_network":null,"name:en":"Yuzhnoberezhnoe Highway","network":"ua:national","sort_rank":381,"landuse_kind":"nature_reserve","kind":"major_road","source":"openstreetmap.org","min_zoom":8.0,"name:uk":"\u041f\u0456\u0432\u0434\u0435\u043d\u043d\u043e\u0431\u0435\u0440\u0435\u0436\u043d\u0435 \u0448\u043e\u0441\u0435","bus_shield_text":"28","shield_text":"19","kind_detail":"trunk","ref":"35\u041a-002"},"arcs":[[251],[252],[253],[254],[255],[256],[257],[258]]},{"type":"LineString","properties":{"kind":"major_road","network":"ru:regional","sort_rank":381,"kind_detail":"trunk","source":"openstreetmap.org","min_zoom":8.0,"name:uk":"\u041f\u043b\u043e\u0442\u0438\u043d\u043d\u0430 \u0432\u0443\u043b\u0438\u0446\u044f","landuse_kind":"urban_area","loc_name":"\u041e\u0431\u044a\u0435\u0437\u0434\u043d\u0430\u044f \u0434\u043e\u0440\u043e\u0433\u0430","ref":"35\u041a-023","id":402445101,"shield_text":"35\u041a"},"arcs":[259]},{"type":"LineString","properties":{"kind":"ferry","name":"Yalta - Istanbul","sort_rank":355,"landuse_kind":"urban_area","source":"openstreetmap.org","min_zoom":8.0,"id":-301998,"osm_relation":true},"arcs":[260]},{"type":"LineString","properties":{"kind":"major_road","name:en":"Yevpatoriiskoye Road","sort_rank":380,"kind_detail":"primary","bus_network":null,"source":"openstreetmap.org","min_zoom":8.0,"name:uk":"\u0404\u0432\u043f\u0430\u0442\u043e\u0440\u0456\u0439\u0441\u044c\u043a\u0435 \u0448\u043e\u0441\u0435","bus_shield_text":"\u0422\u0431-9","landuse_kind":"urban_area","id":392619331},"arcs":[261]},{"type":"LineString","properties":{"kind":"major_road","name:en":"Karaimskaya Street","sort_rank":380,"kind_detail":"primary","source":"openstreetmap.org","min_zoom":8.0,"name:uk":"\u041a\u0430\u0440\u0430\u0457\u043c\u0441\u044c\u043a\u0430 \u0432\u0443\u043b\u0438\u0446\u044f","landuse_kind":"urban_area"},"arcs":[262]},{"type":"LineString","properties":{"bus_network":null,"name:en":"Yuzhnoberezhnoe Highway","network":"ru:regional","sort_rank":381,"kind_detail":"trunk","kind":"major_road","source":"openstreetmap.org","min_zoom":8.0,"name:uk":"\u041f\u0456\u0432\u0434\u0435\u043d\u043d\u043e\u0431\u0435\u0440\u0435\u0436\u043d\u0435 \u0448\u043e\u0441\u0435","bus_shield_text":"\u0422\u0431-52","shield_text":"35\u0410","ref":"35\u0410-002"},"arcs":[263]},{"type":"LineString","properties":{"sort_rank":355,"source":"openstreetmap.org","min_zoom":8.0,"name":"\u042f\u043b\u0442\u0430 - \u041d\u043e\u0432\u043e\u0440\u043e\u0441\u0441\u0438\u0439\u0441\u043a","kind":"ferry"},"arcs":[264]},{"type":"MultiLineString","properties":{"kind":"major_road","network":"ru:regional","sort_rank":380,"kind_detail":"primary","source":"openstreetmap.org","min_zoom":8.0,"landuse_kind":"urban_area","shield_text":"35\u041a","ref":"35\u041a-005"},"arcs":[[265],[266],[267],[268],[269],[270],[271]]},{"type":"MultiLineString","properties":{"kind":"major_road","name:en":"Lenina street","sort_rank":380,"kind_detail":"primary","source":"openstreetmap.org","min_zoom":8.0,"name:uk":"\u041b\u0435\u043d\u0456\u043d\u0430 \u0432\u0443\u043b\u0438\u0446\u044f","landuse_kind":"urban_area"},"arcs":[[272],[273],[274]]},{"type":"LineString","properties":{"bus_network":null,"name:en":"Bliukhera Street","sort_rank":380,"kind_detail":"primary","kind":"major_road","source":"openstreetmap.org","min_zoom":8.0,"name:uk":"\u0411\u043b\u044e\u0445\u0435\u0440\u0430 \u0432\u0443\u043b\u0438\u0446\u044f","bus_shield_text":"15-\u0411","landuse_kind":"urban_area"},"arcs":[275]},{"type":"MultiLineString","properties":{"bus_network":null,"name:en":"Pobedy Avenue","network":"ua:regional","sort_rank":381,"kind_detail":"trunk","kind":"major_road","source":"openstreetmap.org","min_zoom":8.0,"name:uk":"\u041f\u0435\u0440\u0435\u043c\u043e\u0433\u0438 \u043f\u0440\u043e\u0441\u043f\u0435\u043a\u0442","bus_shield_text":"\u0422\u0431-7","shield_text":"23","landuse_kind":"urban_area"},"arcs":[[276],[277],[278],[279],[280],[281]]},{"type":"LineString","properties":{"bus_network":null,"sort_rank":380,"kind_detail":"primary","kind":"major_road","source":"openstreetmap.org","min_zoom":8.0,"name:uk":"\u0404\u0432\u043f\u0430\u0442\u043e\u0440\u0456\u0439\u0441\u044c\u043a\u0435 \u0448\u043e\u0441\u0435","bus_shield_text":"\u0422\u0431-9","landuse_kind":"urban_area"},"arcs":[282]},{"type":"LineString","properties":{"kind":"major_road","network":"ru:regional","sort_rank":380,"kind_detail":"primary","bus_network":null,"source":"openstreetmap.org","min_zoom":8.0,"bus_shield_text":"30","shield_text":"35\u041a","landuse_kind":"urban_area","ref":"35\u041a-022","id":266159995},"arcs":[283]},{"type":"MultiLineString","properties":{"kind":"major_road","network":"ru:regional","sort_rank":381,"landuse_kind":"urban_area","source":"openstreetmap.org","min_zoom":8.0,"kind_detail":"trunk","shield_text":"35\u041a","ref":"35\u041a-007"},"arcs":[[284],[285],[286],[287],[288]]},{"type":"LineString","properties":{"bus_network":null,"sort_rank":380,"kind_detail":"primary","old_name:ru":"\u0420\u043e\u0437\u044b \u041b\u044e\u043a\u0441\u0435\u043c\u0431\u0443\u0440\u0433 \u0443\u043b\u0438\u0446\u0430","kind":"major_road","source":"openstreetmap.org","min_zoom":8.0,"old_name:en":"Rozy Liuksemburh Street","name:uk":"\u041e\u043b\u0435\u043a\u0441\u0430\u043d\u0434\u0440\u0430 \u041d\u0435\u0432\u0441\u044c\u043a\u043e\u0433\u043e \u0432\u0443\u043b\u0438\u0446\u044f","old_name":"\u0420\u043e\u0437\u0438 \u041b\u044e\u043a\u0441\u0435\u043c\u0431\u0443\u0440\u0433 \u0432\u0443\u043b\u0438\u0446\u044f","landuse_kind":"urban_area","bus_shield_text":"\u0422\u0431-6"},"arcs":[289]},{"type":"LineString","properties":{"kind":"major_road","network":"ru:regional","sort_rank":381,"kind_detail":"trunk","source":"openstreetmap.org","min_zoom":8.0,"name:uk":"\u0412\u043e\u0434\u043e\u0441\u0445\u043e\u0432\u0438\u0449\u0435 \u0432\u0443\u043b\u0438\u0446\u044f","shield_text":"35\u041a","name:ru":"\u0412\u043e\u0434\u043e\u0445\u0440\u0430\u043d\u0438\u043b\u0438\u0449\u0435 \u0443\u043b\u0438\u0446\u0430","ref":"35\u041a-003","id":246867425},"arcs":[290]},{"type":"LineString","properties":{"bus_network":null,"name:en":"Yuzhnoberezhnoe Highway","network":"ua:national","sort_rank":381,"kind_detail":"trunk","kind":"major_road","source":"openstreetmap.org","min_zoom":8.0,"name:uk":"\u041f\u0456\u0432\u0434\u0435\u043d\u043d\u043e\u0431\u0435\u0440\u0435\u0436\u043d\u0435 \u0448\u043e\u0441\u0435","bus_shield_text":"19","shield_text":"19","landuse_kind":"urban_area","ref":"35\u041a-002"},"arcs":[291]},{"type":"MultiLineString","properties":{"bus_network":null,"network":"ua:national","sort_rank":380,"kind_detail":"primary","kind":"major_road","source":"openstreetmap.org","min_zoom":8.0,"bus_shield_text":"\u0422\u0431-9","shield_text":"05","landuse_kind":"urban_area","ref":"35\u0410-005"},"arcs":[[292],[293]]},{"type":"MultiLineString","properties":{"bus_network":null,"name:en":"Yuzhnoberezhnoe Highway","network":"ua:national","sort_rank":381,"kind_detail":"trunk","kind":"major_road","source":"openstreetmap.org","min_zoom":8.0,"name:uk":"\u041f\u0456\u0432\u0434\u0435\u043d\u043d\u043e\u0431\u0435\u0440\u0435\u0436\u043d\u0435 \u0448\u043e\u0441\u0435","bus_shield_text":"18\u0410","shield_text":"19","landuse_kind":"urban_area","ref":"35\u041a-002"},"arcs":[[294],[295]]},{"type":"LineString","properties":{"source":"openstreetmap.org","kind":"ferry","sort_rank":355,"ref":"\u042f\u043b\u0442\u0430 - \u041d\u043e\u0432\u043e\u0440\u043e\u0441\u0441\u0438\u0439\u0441\u043a","min_zoom":8.0,"osm_relation":true},"arcs":[296]},{"type":"LineString","properties":{"kind":"major_road","name:en":"Yuzhnoberezhnoe Highway","sort_rank":381,"kind_detail":"trunk","bus_network":null,"source":"openstreetmap.org","min_zoom":8.0,"name:uk":"\u041f\u0456\u0432\u0434\u0435\u043d\u043d\u043e\u0431\u0435\u0440\u0435\u0436\u043d\u0435 \u0448\u043e\u0441\u0435","bus_shield_text":"18\u0410","landuse_kind":"urban_area","ref":"35\u0410-002","id":500424447},"arcs":[297]},{"type":"MultiLineString","properties":{"bus_network":null,"name:en":"Kirova Avenue","sort_rank":381,"landuse_kind":"urban_area","kind":"major_road","source":"openstreetmap.org","min_zoom":8.0,"name:uk":"\u041a\u0456\u0440\u043e\u0432\u0430 \u043f\u0440\u043e\u0441\u043f\u0435\u043a\u0442","bus_shield_text":"\u0422\u0431-7","kind_detail":"trunk"},"arcs":[[298],[299],[300],[301],[302],[303]]},{"type":"LineString","properties":{"bus_network":null,"name:en":"Marshaka Street","sort_rank":380,"kind_detail":"primary","kind":"major_road","source":"openstreetmap.org","min_zoom":8.0,"name:uk":"\u041c\u0430\u0440\u0448\u0430\u043a\u0430 \u0432\u0443\u043b\u0438\u0446\u044f","bus_shield_text":"8\u0410","landuse_kind":"urban_area"},"arcs":[304]}]},"earth":{"type":"GeometryCollection","geometries":[{"type":"MultiPolygon","properties":{"sort_rank":10,"source":"naturalearthdata.com","kind":"earth","min_zoom":0.0,"id":4742},"arcs":[[[305]]]}]},"landuse":{"type":"GeometryCollection","geometries":[{"type":"Polygon","properties":{"kind":"protected_area","protect_class":"4","area":93964680,"sort_rank":17,"source":"openstreetmap.org","min_zoom":8.0,"tier":2,"osm_relation":true},"arcs":[[306]]},{"type":"Polygon","properties":{"kind":"park","natural":"fell","area":10654700,"sort_rank":24,"source":"openstreetmap.org","min_zoom":8.0,"tier":2,"id":-1493852,"osm_relation":true},"arcs":[[307]]},{"type":"MultiPolygon","properties":{"source":"openstreetmap.org","kind":"military","tier":3,"area":76281213,"sort_rank":45,"min_zoom":8.0},"arcs":[[[308]]]},{"type":"MultiPolygon","properties":{"source":"naturalearthdata.com","kind":"urban_area","name":"","area":618937591,"sort_rank":11,"min_zoom":4.0},"arcs":[[[309]],[[310]],[[311]],[[312]]]},{"type":"Polygon","properties":{"kind":"nature_reserve","protect_class":"1","area":25729600,"sort_rank":23,"source":"openstreetmap.org","min_zoom":8.0,"tier":2,"id":180568638},"arcs":[[313]]},{"type":"Polygon","properties":{"source":"openstreetmap.org","kind":"aerodrome","area":11060000,"tier":3,"id":90044705,"min_zoom":8.0,"sort_rank":60},"arcs":[[314]]},{"type":"Polygon","properties":{"kind":"nature_reserve","protect_class":"4","area":18587200,"sort_rank":23,"source":"openstreetmap.org","min_zoom":8.0,"tier":2,"id":180564882},"arcs":[[315]]},{"type":"Polygon","properties":{"kind":"nature_reserve","protect_class":"1","area":289339008,"sort_rank":23,"source":"openstreetmap.org","min_zoom":6.0,"tier":2,"id":-2409386,"osm_relation":true},"arcs":[[316]]},{"type":"MultiPolygon","properties":{"source":"openstreetmap.org","kind":"park","tier":2,"area":45873827,"sort_rank":24,"min_zoom":8.0,"osm_relation":true},"arcs":[[[317]],[[318]]]},{"type":"Polygon","properties":{"kind":"nature_reserve","protect_class":"1","area":676801024,"sort_rank":23,"source":"openstreetmap.org","min_zoom":6.0,"tier":2,"id":180564883},"arcs":[[319]]},{"type":"Polygon","properties":{"kind":"nature_reserve","protect_class":"4","area":490105984,"sort_rank":23,"source":"openstreetmap.org","min_zoom":6.0,"tier":2,"id":-2410814,"osm_relation":true},"arcs":[[320]]},{"type":"Polygon","properties":{"kind":"nature_reserve","area":22130600,"sort_rank":23,"source":"openstreetmap.org","min_zoom":8.0,"tier":2,"id":-3598893,"osm_relation":true},"arcs":[[321]]}]}},"type":"Topology","transform":{"translate":[33.75,44.0875850282],"scale":[0.0003433228,0.0002444948]},"arcs":[[[0,399],[311,38],[218,-40],[173,10],[296,109],[201,7],[221,68],[195,126],[148,165],[180,102],[362,275],[142,183],[93,243],[128,195],[203,154],[212,78],[186,-4],[166,32],[209,-85],[172,-25],[174,10],[106,28]],[[0,2128],[86,21],[22,-112],[117,-59],[38,-167],[49,-18],[-33,-28],[42,-51],[25,3],[14,-60],[69,-57],[-11,-23],[95,-212],[-195,-6],[-138,-66],[-61,3],[-83,-59],[-16,-62]],[[0,2503],[34,6],[45,-44],[-66,-61],[-13,-54]],[[20,1175],[-20,-87]],[[0,399],[311,38],[218,-40],[173,10],[296,109],[201,7],[221,68],[195,126],[148,165],[180,102],[362,275],[142,183],[93,243],[128,195],[203,154],[212,78],[186,-4],[166,32],[209,-85],[172,-25],[174,10],[106,28]],[[798,4096],[-1,-148],[56,-171],[131,-148],[-19,-54]],[[0,1260],[168,-4],[32,5],[61,22],[36,1],[183,-73],[67,-11],[58,8],[315,150],[67,10],[40,13],[99,68],[32,33],[39,68],[27,62],[36,45],[138,29],[38,31],[60,100],[7,16],[-1,13],[1,12],[15,15],[12,3],[32,-4],[41,1],[65,-8],[25,8],[29,53],[114,298],[99,174],[28,36],[16,28],[115,165],[13,2],[3,-6],[0,-10],[3,-12],[72,78],[96,42],[233,51],[109,49],[205,138],[105,39],[203,-36],[46,20],[43,29],[95,-23],[53,10],[23,19],[19,23],[23,22],[34,17],[30,5],[98,-5],[58,-21],[35,-49],[27,-57],[30,-43],[126,-21],[81,128],[62,178],[71,133],[6,3],[0,-3330],[-4096,0],[0,1260]],[[4096,3330],[-6,-3],[-71,-133],[-62,-178],[-81,-128],[-126,21],[-30,43],[-27,57],[-35,49],[-58,21],[-98,5],[-30,-5],[-34,-17],[-23,-22],[-19,-23],[-23,-19],[-53,-10],[-95,23],[-43,-29],[-46,-20],[-203,36],[-105,-39],[-205,-138],[-109,-49],[-233,-51],[-96,-42],[-72,-78],[-3,12],[0,10],[-3,6],[-13,-2],[-115,-165],[-16,-28],[-28,-36],[-99,-174],[-114,-298],[-29,-53],[-25,-8],[-65,8],[-41,-1],[-32,4],[-12,-3],[-15,-15],[-1,-12],[1,-13],[-7,-16],[-60,-100],[-38,-31],[-138,-29],[-36,-45],[-27,-62],[-39,-68],[-32,-33],[-99,-68],[-40,-13],[-67,-10],[-315,-150],[-58,-8],[-67,11],[-183,73],[-36,-1],[-61,-22],[-32,-5],[-168,4]],[[2275,2698],[60,24]],[[1135,3610],[9,-24]],[[972,3576],[2,2]],[[159,1281],[29,6]],[[294,1317],[58,3]],[[392,1314],[12,-3]],[[439,1304],[45,-9]],[[817,1336],[-238,-61],[-55,12]],[[899,1393],[-68,-43]],[[942,1420],[-20,-13]],[[1049,1457],[-96,-31]],[[1109,1623],[19,-29]],[[1095,3508],[2,-5]],[[1224,252],[-1224,600]],[[1863,2360],[-79,-130]],[[1177,1650],[-2,0]],[[1226,1738],[-7,-12]],[[989,3561],[-15,17]],[[1096,3503],[-2,2]],[[1097,3503],[-1,1]],[[1211,3706],[45,39]],[[1122,1614],[1,0]],[[1160,3398],[1,-2]],[[869,4096],[-1,-84]],[[868,4011],[1,85]],[[156,1280],[-55,-16]],[[1010,3622],[1,-1],[2,1],[-1,2],[-2,-2]],[[1122,1614],[-6,6]],[[1124,1617],[-1,-3]],[[980,3589],[-2,2]],[[113,4096],[140,-69],[197,-23],[175,-93]],[[625,3911],[6,-2]],[[631,3909],[-6,2]],[[653,3907],[22,1]],[[674,3908],[-21,-1]],[[1048,3560],[-1,2]],[[1013,3622],[1,2]],[[1575,1931],[-71,-40],[-46,-131],[-161,-23]],[[179,2601],[-115,-117]],[[1139,3428],[21,-30]],[[1224,1677],[0,2]],[[1233,1741]],[[3968,3893],[21,7]],[[607,3016],[46,25]],[[101,1264],[-101,-6]],[[3565,3165],[-55,51]],[[1239,1745],[-1,0]],[[1033,3519],[6,12]],[[1002,3503],[2,0]],[[1004,3504],[-1,1]],[[1026,3536],[2,0],[-2,1],[0,-1]],[[1212,1676],[-8,-10]],[[1010,3538],[4,4]],[[986,3559],[24,-21]],[[1127,3447],[12,-19]],[[2467,2786],[29,24]],[[3519,3513],[3,-20]],[[1002,3503],[3,-6]],[[1005,3497],[-1,6]],[[1008,3493],[-3,4]],[[901,3342],[16,19]],[[1384,1761],[-2,-1]],[[1443,1759]],[[64,2484],[-2,-1]],[[346,2761],[-32,21],[-69,-48],[-66,-133]],[[350,2765],[132,183],[125,68]],[[653,3041],[1,3]],[[669,3063],[135,106]],[[826,3205],[1,3]],[[827,3208],[71,129]],[[898,3337],[3,5]],[[347,2762],[0,-2],[2,0],[0,2],[-2,0]],[[826,3205],[-22,-36]],[[1229,1607],[-84,-306],[-1145,-1016]],[[1929,2449],[-17,2]],[[1175,1650],[-12,1]],[[1238,1745],[-16,0]],[[1233,1744],[4,0]],[[980,3585],[0,4]],[[928,3374],[1,1]],[[1008,3493],[15,34]],[[966,3678],[3,-3]],[[969,3675],[-1,2]],[[980,3589],[3,-1]],[[1041,3533],[0,-1]],[[1042,3532],[2,0]],[[1094,3505],[-2,-1]],[[1030,3511],[3,7]],[[993,1389],[69,-11],[42,27],[75,183]],[[1329,1672],[-38,-8]],[[1424,1709],[-92,-36]],[[1179,1588],[33,72],[79,4]],[[1332,1673],[-3,-1]],[[1237,1744],[2,1]],[[1982,2554],[2,71],[50,-41],[1,25],[59,9],[39,39],[-19,25],[57,-16],[29,42],[75,-10]],[[2335,2722],[132,64]],[[2496,2810],[50,56],[-27,45],[66,36],[23,-23],[24,60],[59,-34],[11,-58],[125,130],[93,-47],[218,31],[22,46],[173,142],[93,36],[84,-14]],[[3601,3180],[0,-1]],[[3602,3180],[0,2],[-1,-2]],[[3610,3229],[175,61],[119,-10],[33,28],[14,91],[118,63]],[[3601,3180],[0,-1]],[[3601,3179],[1,0],[0,1],[-1,0]],[[1273,3283],[101,-68]],[[929,3375],[79,118]],[[1790,2557],[24,56]],[[1793,2546],[75,-32],[33,-59],[-7,-56]],[[731,3818],[0,-3]],[[763,3823],[2,4]],[[765,3827],[-1,-2]],[[1047,3562],[1,-2]],[[1050,3562],[1,1]],[[1912,2451],[-3,0]],[[1942,2460],[-13,-11]],[[4069,3462],[27,7]],[[1297,1737],[153,23]],[[3600,3179],[-35,-14]],[[940,3670],[3,-12]],[[944,3658],[-4,13]],[[1096,3505],[-1,3]],[[1157,1695],[-67,-31]],[[969,3675],[41,-52]],[[1012,3624],[-43,51]],[[768,3822],[33,-36]],[[801,3786],[5,-6],[2,-1]],[[937,3675],[-62,62],[-48,32],[-26,17]],[[801,3786],[-4,2]],[[812,3777],[125,-103]],[[1449,1760],[-2,0]],[[1186,1697],[-29,-2]],[[1227,1668],[16,-38]],[[1042,3533],[-3,-2]],[[1212,1676],[12,1]],[[917,3361],[11,13]],[[1090,1664],[19,-41]],[[1227,1668],[16,-38]],[[1033,3518],[0,1]],[[1369,425],[-1369,522]],[[1108,1629],[-2,5]],[[3998,3902],[0,1]],[[1219,1726],[0,-17]],[[1228,1742],[-2,-4]],[[3613,3231],[0,1]],[[1003,3505],[-1,-2]],[[1004,3503],[0,1]],[[2505,0],[-2505,947]],[[1153,3654],[58,52]],[[2564,3920],[46,-4]],[[3998,3903],[81,41]],[[974,3578],[36,42]],[[1010,3620],[1,1]],[[1010,3622],[0,-2]],[[1040,3531],[54,-27]],[[1014,3542],[-4,4]],[[1047,3562],[1,-2]],[[712,3907],[-38,1]],[[675,3908],[37,-1]],[[713,3907],[-1,0]],[[713,3909],[0,-2]],[[717,3903],[-4,4]],[[1231,1738],[2,3]],[[1233,1741],[4,3]],[[3563,3759],[31,-98],[-87,-121],[12,-27]],[[3522,3493],[136,-70],[-48,-194]],[[1128,3632],[25,22]],[[1219,1709],[4,-32]],[[1297,1737],[-23,-16],[-22,28],[-7,3],[-6,-7]],[[1239,1745],[34,-23]],[[1227,1668],[2,-61]],[[868,4012],[12,-230],[86,-104]],[[968,3677],[-87,105],[-13,229]],[[964,3677],[1,1]],[[1894,2396],[-1,8]],[[942,3662],[1,0]],[[943,3658],[1,0]],[[1252,1749]],[[1258,1729],[-1,0]],[[1268,1725]],[[1204,1666],[-22,-7]],[[940,3671],[-3,4]],[[797,3788],[-29,36]],[[1020,3538],[6,-1]],[[1025,3537],[1,-1]],[[1229,1607],[-84,-306],[-1145,-1016]],[[1228,1742]],[[62,2483],[-62,-17]],[[1163,1651],[-13,-5]],[[3806,3809],[162,84]],[[654,3044],[15,19]],[[972,3576],[14,-17]],[[937,3674],[3,-4]],[[831,1350],[-14,-14]],[[971,3604],[-15,13]],[[940,3670],[5,-2]],[[1131,3618],[-6,15],[-26,42],[-109,13],[-11,-3],[-29,-13],[-10,-1]],[[942,3666],[3,2]],[[945,3668],[19,9]],[[965,3678],[134,-3],[32,-57]],[[1144,3586],[32,-33],[-50,-78]],[[1131,3461],[-4,-14]],[[1131,3618],[4,-8]],[[962,3602],[9,2]],[[1027,3537],[0,2]],[[1273,1722],[24,15]],[[3602,3182],[8,47]],[[979,3685],[-21,4]],[[768,3824],[-2,2]],[[1222,1745],[11,-1]],[[1116,1620],[-8,9]],[[989,3561],[1,2]],[[1011,3488],[-3,5]],[[1784,0],[-560,252],[-1224,600]],[[1256,3745],[137,63],[248,172],[718,4],[205,-64]],[[2610,3916],[268,-70],[72,18],[42,-28],[39,-99],[66,-54],[84,25],[69,55],[296,30],[20,-33],[175,12],[65,37]],[[4079,3944],[17,3]],[[2494,0],[-1125,425]],[[978,3591],[-7,13]],[[1229,1734],[0,1]],[[1224,1679],[5,55]],[[1229,1735],[2,3]],[[1894,2399],[-31,-39]],[[1012,3624],[37,19],[65,-29]],[[1784,0],[-560,252]],[[768,3822],[-55,114]],[[808,3779],[4,-2]],[[631,3909],[22,-2]],[[653,3907],[-22,2]],[[1161,3396],[112,-113]],[[1814,2613],[-11,51],[-32,29],[-11,-18],[-42,145],[7,131],[-54,111],[-61,68],[-105,15],[-131,70]],[[1793,2546],[-3,11]],[[1012,3621],[1,-1]],[[1013,3620],[0,2]],[[1013,3620],[33,-55]],[[1046,3565],[1,-3]],[[1049,3563],[-3,2]],[[1049,3560],[1,0]],[[1095,3508],[-45,53]],[[1094,3589],[-1,-1]],[[1093,3587],[1,1]],[[1124,3630],[2,-3],[2,1],[-1,3],[-3,-1]],[[1014,3542],[6,-4]],[[713,3936],[-2,160]],[[1127,3447],[-30,56]],[[1943,2459],[-1,1]],[[159,1281],[-3,-1]],[[188,1287],[106,30]],[[352,1320],[40,-6]],[[404,1311],[35,-7]],[[484,1295],[40,-8]],[[922,1407],[-23,-14]],[[953,1426],[-11,-6]],[[1128,1594],[-79,-137]],[[1126,3475],[5,-14]],[[1227,1668],[2,-61]],[[962,3602],[-18,52]],[[1011,3488],[19,23]],[[1784,2230],[-42,-144],[-59,-31],[-108,-124]],[[1243,1630],[2853,133]],[[1902,2457],[-2,2]],[[1902,2457],[-1,0]],[[1909,2451],[-7,6]],[[1942,2460],[1,-1]],[[1944,2461],[-1,-1]],[[1944,2460],[0,1]],[[1982,2554],[15,-53],[-53,-40]],[[1027,3535],[2,1]],[[1029,3536],[-1,1]],[[1029,3536],[10,-5]],[[1150,1646],[-26,-29]],[[1049,3563],[3,2]],[[1093,3588],[-41,-23]],[[1052,3565],[41,22]],[[1124,3628],[-30,-39]],[[1094,3588],[32,39]],[[1128,3630],[-1,1]],[[943,3658],[1,0]],[[1107,1628],[1,1]],[[827,3491],[-2,-18]],[[827,3491],[59,28],[46,143]],[[828,3473],[-1,18]],[[932,3662],[9,3]],[[938,3672],[-6,-10]],[[1010,3546],[-20,17]],[[3989,3900],[9,2]],[[1208,1748],[13,-2]],[[731,3815],[37,7]],[[768,3824],[-4,1],[-33,-7]],[[1208,1748],[-22,-51]],[[1222,1745],[-1,1]],[[1243,1630],[2853,133]],[[1221,1746],[-13,2]],[[1004,3506],[-1,-1]],[[1004,3504],[0,2]],[[1026,3534],[-22,-28]],[[1026,3534],[1,1]],[[1026,3535],[0,-1]],[[1046,3560],[-20,-23]],[[1182,1659],[-5,-9]],[[4096,4096],[0,-766],[-6,-3],[-71,-133],[-62,-178],[-81,-128],[-126,21],[-30,43],[-27,57],[-35,49],[-58,21],[-98,5],[-30,-5],[-34,-17],[-23,-22],[-19,-23],[-23,-19],[-53,-10],[-95,23],[-43,-29],[-46,-20],[-203,36],[-105,-39],[-205,-138],[-109,-49],[-233,-51],[-96,-42],[-72,-78],[-3,12],[0,10],[-3,6],[-13,-2],[-115,-165],[-16,-28],[-28,-36],[-99,-174],[-114,-298],[-29,-53],[-25,-8],[-65,8],[-41,-1],[-32,4],[-12,-3],[-15,-15],[-1,-12],[1,-13],[-7,-16],[-60,-100],[-38,-31],[-138,-29],[-36,-45],[-27,-62],[-39,-68],[-32,-33],[-99,-68],[-40,-13],[-67,-10],[-315,-150],[-58,-8],[-67,11],[-183,73],[-36,-1],[-61,-22],[-32,-5],[-168,4],[0,2836],[4096,0]],[[2116,3112],[29,63],[74,35],[-1,67],[0,-4],[-111,-2],[1,42],[33,1],[2,35],[75,-7],[0,-33],[111,0],[2,31],[34,2],[8,-69],[115,-34],[-42,-60],[65,-17],[-55,-31],[2,-66],[-121,28],[-32,-56],[-12,58],[-36,2],[-28,34],[-42,15],[-71,-34]],[[1540,2682],[45,59],[52,18],[15,-60],[-53,-44],[-48,-10],[-11,37]],[[1523,3251],[87,15],[41,-77],[-31,-28],[-74,7],[-23,83]],[[1198,1843],[109,-63],[-10,-42],[36,-65],[-73,-16],[-59,-96],[-33,41],[-127,46],[-38,46],[-39,130],[234,19]],[[1870,2573],[130,-22],[12,-42],[-119,-184],[-74,86],[-46,231],[97,-69]],[[169,2363],[-14,52],[-96,41],[32,186],[97,-45],[0,-46],[52,-60],[-71,-128]],[[1090,3786],[36,-4],[65,42],[18,-37],[47,-8],[0,-182],[-27,-22],[-34,-130],[-101,-30],[-32,-46],[-98,-45],[-18,38],[-138,94],[-70,4],[21,63],[108,119],[-25,46],[-136,45],[-33,182],[185,99],[77,-18],[155,-210]],[[1410,1953],[33,140],[91,-3],[-1,-101],[21,-3],[-16,-35],[-76,3],[-20,-36],[-8,34],[-24,1]],[[625,3871],[22,146],[32,28],[-33,-174],[45,-11],[20,47],[13,-74],[-41,-92],[10,109],[-48,14],[-20,-19],[0,26]],[[1528,2752],[41,22],[3,-25],[29,7],[-2,29],[36,13],[32,-119],[-63,-31],[18,-18],[-56,12],[-38,110]],[[0,1329],[49,-40],[116,12],[139,74],[180,-6],[177,64],[73,128],[-10,22],[105,5],[41,102],[68,26],[15,-14],[89,66],[35,99],[83,56],[35,-44],[122,-49],[16,-32],[97,-4],[-43,-30],[-82,5],[-19,-31],[-38,75],[-67,11],[-2,-29],[-48,-24],[8,-78],[-57,4],[-61,-32],[31,-34],[33,9],[-26,-42],[17,-18],[26,-4],[4,27],[34,-14],[-55,-184],[-50,22],[62,26],[-53,4],[-37,55],[-8,-49],[-27,6],[-22,-50],[-32,1],[10,-28],[-67,1],[-28,-30],[-55,32],[-9,-45],[-33,8],[-29,-40],[-31,53],[-42,-42],[-19,9],[24,35],[-45,-19],[-1,-26],[-38,2],[9,27],[-41,-24],[2,-72],[-42,14],[3,53],[-42,1],[-8,-40],[-43,30],[-3,-26],[-73,51],[-39,-46],[-48,2],[7,-20],[-29,-15],[-25,29],[-36,-20],[7,-21],[-75,-31],[-79,15],[0,92]],[[0,1784],[27,-13],[90,-72],[-36,-31],[-81,66],[0,50]],[[1503,2815],[25,84],[59,39],[55,-8],[14,-66],[-19,-105],[-52,-18],[-45,-59],[-37,133]],[[924,2310],[79,39],[-18,79],[49,72],[-23,40],[79,185],[57,30],[28,-10],[-9,27],[41,61],[148,-22],[39,25],[2,69],[102,-18],[16,41],[136,-69],[-49,-103],[-29,-7],[-3,25],[-41,-22],[39,-102],[-9,-33],[43,-35],[-14,-33],[70,1],[-19,-16],[9,-68],[60,-32],[-42,-32],[42,-3],[14,-39],[-16,-54],[-48,5],[-15,-102],[-136,-108],[-63,-8],[-33,-140],[24,-1],[41,-86],[-35,-63],[-85,-12],[-174,103],[1,25],[80,59],[5,40],[-54,44],[-35,115],[55,143],[-36,8],[6,-30],[-31,12],[-37,-27],[-24,33],[-6,-47],[-33,-11],[-48,8],[-13,45],[-87,-1]],[[0,1813],[106,-22],[43,54],[83,16],[205,-53],[30,18],[59,-32],[-31,-44],[53,30],[4,-29],[-58,-26],[16,-50],[-96,-148],[47,-33],[14,-121],[-171,2],[-139,-74],[-140,-1],[-25,29],[0,484]],[[3779,2921],[11,66],[41,37],[79,-18],[51,-57],[-81,-66],[-101,38]]]}