{"objects":{"water":{"type":"GeometryCollection","geometries":[{"type":"MultiPolygon","properties":{"source":"naturalearthdata.com","kind":"ocean","area":1576712559132672,"sort_rank":200,"min_zoom":0.0,"id":1},"arcs":[[[28]],[[29]]]},{"type":"Polygon","properties":{"kind":"lake","name":"Lago Enriquillo","area":318874176,"sort_rank":200,"alkaline":true,"source":"naturalearthdata.com","min_zoom":0.0,"id":1290},"arcs":[[30]]},{"type":"Polygon","properties":{"kind":"lake","name":"Etang Saum\u00e2tre","area":143084096,"sort_rank":200,"alkaline":true,"source":"naturalearthdata.com","min_zoom":0.0,"id":1295},"arcs":[[31]]},{"type":"Point","properties":{"label_placement":true,"kind":"lake","name":"Etang Saum\u00e2tre","area":143084096,"sort_rank":200,"alkaline":true,"source":"naturalearthdata.com","min_zoom":0.0,"id":1295},"coordinates":[3231,1819]},{"type":"LineString","properties":{"source":"naturalearthdata.com","kind":"ocean","sort_rank":205,"boundary":true,"min_zoom":0.0,"id":549},"arcs":[32]},{"type":"MultiLineString","properties":{"source":"naturalearthdata.com","kind":"ocean","sort_rank":205,"boundary":true,"min_zoom":0.0,"id":551},"arcs":[[33],[34]]},{"type":"LineString","properties":{"source":"naturalearthdata.com","kind":"lake","sort_rank":367,"alkaline":true,"boundary":true,"min_zoom":0.0,"id":1290},"arcs":[35]},{"type":"LineString","properties":{"source":"naturalearthdata.com","kind":"lake","sort_rank":367,"alkaline":true,"boundary":true,"min_zoom":0.0,"id":1295},"arcs":[36]}]},"buildings":{"type":"GeometryCollection","geometries":[]},"places":{"type":"GeometryCollection","geometries":[{"type":"Point","properties":{"name:kg":"Ayiti","name:ps":"\u0647\u06d0\u064a\u0627\u062a\u064a","name:ka":"\u10f0\u10d0\u10d8\u10e2\u10d8","name:ko":"\uc544\uc774\ud2f0","name:cv":"\u0413\u0430\u0438\u0442\u0438","name:km":"\u17a0\u17c3\u1791\u17b8","name:kk":"\u0410\u0438\u0442\u0438","name:tt":"\u0413\u0430\u0438\u0442\u0438","name:kw":"Hayti","name:ku":"Ha\u00eet\u00ee","name:ti":"\u1200\u12ed\u1272","name:ks":"\u06c1\u0627\u06cc\u062a\u06cc","name:tl":"Hayti","name:pa":"\u0a39\u0a48\u0a24\u0a40","name:os":"\u0413\u0430\u0438\u0442\u0438","name:or":"\u0b39\u0b3e\u0b07\u0b24\u0b3f","name:ce":"\u0413\u0430\u0438\u0442\u0438 \u041f\u0430\u0447\u0445\u044c\u0430\u043b\u043a\u0445","name:ta":"\u0b8e\u0baf\u0bbf\u0b9f\u0bcd\u0b9f\u0bbf","name:ht":"Ayiti","name:ca":"Hait\u00ed","name:te":"\u0c39\u0c48\u0c1f\u0c3f","name:qu":"Ayti","name:dz":"\u0f67\u0f7a\u0f0b\u0f4a\u0f72","source":"openstreetmap.org","name:nv":"H\u00e9\u00edtii","name:kn":"\u0cb9\u0cc8\u0c9f\u0cbf","name:dv":"\u0780\u07a6\u0787\u07a8\u0793\u07a9","name:lt":"Haitis","name:uz":"Gaiti","name:he":"\u05d4\u05d0\u05d9\u05d8\u05d9","min_zoom":2.0,"kind":"country","name:ur":"\u06c1\u06cc\u0679\u06cc","name:la":"Haitia","name:lg":"Hayiti","name:uk":"\u0413\u0430\u0457\u0442\u0456","name:hy":"\u0540\u0561\u0575\u056b\u0569\u056b","name:ug":"\u06be\u0627\u064a\u062a\u0649","name:li":"Ha\u00efti","name:ln":"Ayiti","name:lo":"\u0ec4\u0eae\u0e95\u0eb4","name:oc":"Hait\u00ed","population":9801664,"name:el":"\u0391\u03ca\u03c4\u03ae","name:eo":"Haitio","name":"Haiti","name:is":"Ha\u00edt\u00ed","name:ee":"Haiti nutome","name:th":"\u0e1b\u0e23\u0e30\u0e40\u0e17\u0e28\u0e40\u0e2e\u0e15\u0e34","name:yi":"\u05d4\u05d0\u05d9\u05d8\u05d9","name:es":"Hait\u00ed","name:ay":"Ayti","name:mt":"\u0126aiti","name:rn":"Hayiti","name:az":"Haiti Respublikas\u0131","name:ig":"Hati","name:mr":"\u0939\u0948\u0924\u0940","name:ar":"\u0647\u0627\u064a\u062a\u064a","name:my":"\u101f\u1031\u1010\u102e","official_name":"Repiblik Ayiti","name:ak":"Heiti","name:am":"\u1200\u12ed\u1272","name:an":"Ait\u00ed","name:ru":"\u0413\u0430\u0438\u0442\u0438","name:rw":"Hayiti","id":424297281,"name:mk":"\u0425\u0430\u0438\u0442\u0438","name:af":"Ha\u00efti","name:zu":"i-Haiti","name:mn":"\u0413\u0430\u0439\u0442\u0438","name:ff":"Haytii","name:hi":"\u0939\u0948\u0924\u0940","name:fr":"Ha\u00efti","name:zh-yue":"\u6d77\u5730","name:fy":"Ha\u00efty","name:vo":"Haitiy\u00e4n","name:zh":"\u6d77\u5730","name:so":"Hayti","name:nl":"Ha\u00efti","name:ja":"\u30cf\u30a4\u30c1","name:si":"\u0dc4\u0dba\u0dd2\u0da7\u0dd2","name:fa":"\u0647\u0627\u0626\u06cc\u062a\u06cc","name:sg":"Hait\u00efi","name:na":"Aiti","name:ne":"\u0939\u0948\u091f\u0940","name:bm":"Ayiti","name:bn":"\u09b9\u09be\u0987\u09a4\u09bf","name:bo":"\u0f67\u0f60\u0f72\u0f0b\u0f4f\u0f72\u0f0d","name:ml":"\u0d39\u0d46\u0d2f\u0d4d\u0d31\u0d4d\u0d31\u0d3f","name:be":"\u0413\u0430\u0456\u0446\u0456","name:bg":"\u0425\u0430\u0438\u0442\u0438","name:ss":"IHayithi","name:sr":"\u0425\u0430\u0438\u0442\u0438","name:sq":"Haitia","name:ga":"H\u00e1it\u00ed","name:gd":"Haidhti","name:wo":"Ayiti","name:wa":"Ayiti","name:gl":"Hait\u00ed","name:yo":"H\u00e0\u00edt\u00ec","name:gu":"\u0ab9\u0ac8\u0aa4\u0ac0"},"coordinates":[2237,3570]},{"type":"Point","properties":{"kind":"region","name":"Centre","kind_detail":"state","source":"openstreetmap.org","min_zoom":4.0,"name:pl":"Departament Centralny","name:ru":"\u0426\u0435\u043d\u0442\u0440\u0430\u043b\u044c\u043d\u044b\u0439 \u0434\u0435\u043f\u0430\u0440\u0442\u0430\u043c\u0435\u043d\u0442","name:ht":"Sant","id":618755470},"coordinates":[3293,3111]},{"type":"Point","properties":{"kind":"region","name:en":"West","name":"Ouest","kind_detail":"state","name:de":"West","source":"openstreetmap.org","min_zoom":4.0,"name:pl":"Departament Zachodni","name:ru":"\u0417\u0430\u043f\u0430\u0434\u043d\u044b\u0439 \u0434\u0435\u043f\u0430\u0440\u0442\u0430\u043c\u0435\u043d\u0442","name:ht":"Lw\u00e8s","id":618762860},"coordinates":[1999,2423]},{"type":"Point","properties":{"kind":"region","name:en":"South-East","name":"Sud-Est","kind_detail":"state","name:de":"S\u00fcdost","source":"openstreetmap.org","min_zoom":4.0,"name:pl":"Departament Po\u0142udniowo-Wschodni","name:ru":"\u042e\u0433\u043e-\u0412\u043e\u0441\u0442\u043e\u0447\u043d\u044b\u0439 \u0434\u0435\u043f\u0430\u0440\u0442\u0430\u043c\u0435\u043d\u0442","name:ht":"Sid\u00e8s","id":618769644},"coordinates":[2186,979]},{"type":"Point","properties":{"source":"openstreetmap.org","kind":"region","name":"Artibonite","kind_detail":"state","min_zoom":4.0,"id":620051802},"coordinates":[1576,3809]},{"type":"Point","properties":{"name:pt":"Porto Pr\u00edncipe","name:az":"Port-o-Prins","name:ka":"\u10de\u10dd\u10e0\u10e2-\u10dd-\u10de\u10e0\u10d4\u10dc\u10e1\u10d8","name:mr":"\u092a\u094b\u0930\u094d\u091f-\u0914-\u092a\u094d\u0930\u093f\u0928\u094d\u0938","name:ko":"\ud3ec\ub974\ud1a0\ud504\ub7ad\uc2a4","name:ar":"\u0628\u0648\u0631\u062a \u0623\u0648 \u0628\u0631\u0646\u0633","official_name":"Ville de Port-au-Prince","name:th":"\u0e1b\u0e2d\u0e23\u0e4c\u0e42\u0e15\u0e41\u0e1b\u0e23\u0e07\u0e0b\u0e4c","name:am":"\u1356\u122d\u1276\u1355\u122a\u1295\u1235","name:os":"\u041f\u043e\u0440\u0442-\u043e-\u041f\u0440\u0435\u043d\u0441","name:ru":"\u041f\u043e\u0440\u0442-\u043e-\u041f\u0440\u0435\u043d\u0441","name:ta":"\u0baa\u0bcb\u0bb0\u0bcd\u0b9f\u0bcd-\u0b93-\u0baa\u0bbf\u0bb0\u0bbf\u0ba9\u0bcd\u0bb8\u0bcd","name:tg":"\u041f\u043e\u0440\u0442-\u043e-\u041f\u0440\u0435\u043d\u0441","name:mk":"\u041f\u043e\u0440\u0442-\u043e-\u041f\u0440\u0435\u043d\u0441","name:fa":"\u067e\u0648\u0631\u062a \u0627\u0648 \u067e\u0631\u0646\u0633","name:lt":"Port o Prensas","kind_detail":"city","id":289141966,"source":"openstreetmap.org","name:zh-yue":"\u592a\u5b50\u6e2f","name:zh":"\u592a\u5b50\u6e2f","admin_level":"2","name:lv":"Portoprensa","name:ja":"\u30dd\u30eb\u30c8\u30fc\u30d7\u30e9\u30f3\u30b9","short_name":"PAP","name:hi":"\u092a\u094b\u0930\u094d\u091f-\u0911-\u092a\u094d\u0930\u093f\u0902\u0938","name:he":"\u05e4\u05d5\u05e8\u05d8-\u05d0\u05d5-\u05e4\u05e8\u05e0\u05e1","kind":"locality","name:ur":"\u067e\u0648\u0631\u0679 \u0627\u0648 \u067e\u0631\u0646\u0633","name:bn":"\u09aa\u09cb\u09b0\u09cd\u099f-\u0985-\u09aa\u09cd\u09b0\u09bf\u09a8\u09cd\u09b8","name:bo":"\u0f54\u0f7c\u0f0b\u0f62\u0f7c\u0f0b\u0f4a\u0f72\u0f0b\u0f68\u0f60\u0f74\u0f0b\u0f54\u0f72\u0f0b\u0f62\u0f72\u0f53\u0f0b\u0f66\u0f72\u0f0b","name:uk":"\u041f\u043e\u0440\u0442-\u043e-\u041f\u0440\u0435\u043d\u0441","name:hy":"\u054a\u0578\u0580\u057f-\u0585-\u054a\u0580\u0565\u0576\u057d","country_capital":true,"name:be":"\u041f\u043e\u0440\u0442-\u043e-\u041f\u0440\u044d\u043d\u0441","name:ht":"P\u00f2toprens","name:bg":"\u041f\u043e\u0440\u0442 \u043e \u041f\u0440\u0435\u043d\u0441","name:qu":"Port au Prince","name:sr":"\u041f\u043e\u0440\u0442 \u043e \u041f\u0440\u0435\u043d\u0441","population":1275000,"name:el":"\u03a0\u03bf\u03c1\u03c4-\u03bf-\u03a0\u03c1\u03b5\u03bd\u03c2","name:eo":"Portoprinco","name":"Port-au-Prince","min_zoom":8.0,"name:gl":"Porto Pr\u00edncipe","name:la":"Portus Principis","name:es":"Puerto Pr\u00edncipe"},"coordinates":[2288,1748]},{"type":"Point","properties":{"kind":"locality","name":"Carrefour","kind_detail":"city","source":"openstreetmap.org","min_zoom":8.0,"name:ht":"Kafou","id":2315698298,"population":511345},"coordinates":[2085,1709]},{"type":"Point","properties":{"kind":"locality","name":"Delmas","kind_detail":"city","source":"openstreetmap.org","min_zoom":8.0,"name:ht":"D\u00e8lma","id":613015229,"population":359451},"coordinates":[2426,1762]},{"type":"Point","properties":{"kind":"locality","name":"P\u00e9tionville","kind_detail":"city","source":"openstreetmap.org","min_zoom":8.0,"name:ht":"Petyonvil","id":612993840,"population":342400},"coordinates":[2444,1643]},{"type":"Point","properties":{"admin_level":"3","kind":"locality","name":"Croix-des-Bouquets","kind_detail":"city","source":"openstreetmap.org","min_zoom":8.0,"name:ht":"Kwad\u00e8bouke","id":613014321,"population":227012},"coordinates":[2608,1841]},{"type":"Point","properties":{"kind":"locality","name":"Saint-Marc","kind_detail":"city","source":"openstreetmap.org","min_zoom":8.0,"loc_name":"Sen Mak","name:ht":"Senmak","id":613007120,"population":122747},"coordinates":[1239,3453]},{"type":"Point","properties":{"kind":"locality","name":"Arcahaie","kind_detail":"town","source":"openstreetmap.org","min_zoom":8.0,"name:ht":"Lakay\u00e8","id":295323346,"population":118500},"coordinates":[1786,2433]},{"type":"Point","properties":{"kind":"locality","name":"Mirebalais","kind_detail":"town","source":"openstreetmap.org","min_zoom":8.0,"name:ru":"\u041c\u0438\u0440\u0431\u0430\u043b\u0435","id":614907911,"population":81325},"coordinates":[2971,2630]},{"type":"Point","properties":{"kind":"locality","name":"L\u00e9og\u00e2ne","kind_detail":"city","source":"openstreetmap.org","min_zoom":8.0,"old_name":"L\u00e9ogane","name:ru":"\u041b\u0435\u043e\u0433\u0430\u043d","name:ht":"Leyog\u00e0n","id":2187391716,"population":78477},"coordinates":[1432,1637]},{"type":"Point","properties":{"source":"openstreetmap.org","kind":"locality","name":"Ganthier","kind_detail":"town","population":71261,"min_zoom":8.0,"id":614882193},"coordinates":[3079,1701]},{"type":"Point","properties":{"kind":"locality","name":"Cabaret","kind_detail":"town","source":"openstreetmap.org","min_zoom":8.0,"name:ht":"Kabar\u00e8","id":295322491,"population":62000},"coordinates":[2059,2323]},{"type":"Point","properties":{"kind":"locality","name:en":"Miragoane","name":"Mirago\u00e2ne","kind_detail":"town","source":"openstreetmap.org","min_zoom":8.0,"name:ht":"Miragw\u00e0n","id":617914977,"population":56864},"coordinates":[106,1433]},{"type":"Point","properties":{"kind":"locality","name":"Anse-\u00e0-Galets","kind_detail":"town","source":"openstreetmap.org","min_zoom":8.0,"name:ht":"Ansagal\u00e8t","name:zh":"\u6602\u85a9\u52a0\u840a","id":614558897,"population":52662},"coordinates":[758,2631]},{"type":"Point","properties":{"kind":"locality","name":"Thomazeau","kind_detail":"town","source":"openstreetmap.org","min_zoom":8.0,"name:ru":"\u0422\u043e\u043c\u0430\u044d\u043e","id":614895933,"population":52017},"coordinates":[3004,2070]},{"type":"Point","properties":{"source":"openstreetmap.org","kind":"locality","name":"Belle-Anse","kind_detail":"town","population":51707,"min_zoom":8.0,"id":614867157},"coordinates":[3084,798]},{"type":"Point","properties":{"admin_level":"1","kind":"locality","name":"Hinche","kind_detail":"city","source":"openstreetmap.org","min_zoom":8.0,"name:ru":"\u042d\u043d\u0448","name:ht":"Ench","id":614229648,"name:es":"Hincha","population":50000},"coordinates":[3251,3584]},{"type":"Point","properties":{"source":"openstreetmap.org","kind":"locality","name":"Grand Go\u00e2ve","kind_detail":"town","population":49288,"min_zoom":8.0,"id":614781318},"coordinates":[1039,1382]},{"type":"Point","properties":{"kind":"locality","name":"C\u00f4tes-de-Fer","kind_detail":"town","name:ar":"\u0643\u0648\u062a\u0648\u0641\u064a\u0631","source":"openstreetmap.org","min_zoom":8.0,"id":614848845,"population":44595},"coordinates":[354,647]},{"type":"Point","properties":{"kind":"locality","name":"L'Est\u00e8re","kind_detail":"town","source":"openstreetmap.org","min_zoom":8.0,"old_name":"La Chicotte;Pont de l'Est\u00e8re","name:ht":"Lest\u00e9","id":639091918,"population":41100},"coordinates":[1499,4071]},{"type":"Point","properties":{"admin_level":"1","kind":"locality","name":"Jacmel","kind_detail":"city","source":"openstreetmap.org","min_zoom":8.0,"name:ru":"\u0416\u0430\u043a\u043c\u0435\u043b\u044c","name:ht":"Jakm\u00e8l","id":375727706,"population":40000},"coordinates":[1711,789]},{"type":"Point","properties":{"admin_level":"3","kind":"locality","name":"Petite-Rivi\u00e8re-de-l'Artibonite","kind_detail":"town","source":"openstreetmap.org","min_zoom":8.0,"name:ht":"Ti Rivy\u00e8 Latibonit","id":639284456,"population":35000},"coordinates":[1879,3518]},{"type":"Point","properties":{"admin_level":"3","kind":"locality","name":"Desdunes","kind_detail":"town","source":"openstreetmap.org","min_zoom":8.0,"name:ht":"Dedin","id":613231353,"population":33700},"coordinates":[1395,4048]},{"type":"Point","properties":{"admin_level":"3","kind":"locality","name":"Thomonde","kind_detail":"town","source":"openstreetmap.org","min_zoom":8.0,"id":614912270,"population":32993},"coordinates":[3394,3192]},{"type":"Point","properties":{"kind":"locality","name":"Dessalines","kind_detail":"town","source":"openstreetmap.org","min_zoom":8.0,"name:ht":"Desalin","id":1903213973,"population":26219},"coordinates":[1771,3943]},{"type":"Point","properties":{"admin_level":"3","kind":"locality","name":"Verrettes","kind_detail":"town","source":"openstreetmap.org","min_zoom":8.0,"name:ru":"\u0412\u0435\u0440\u0435\u0442\u0442","name:ht":"V\u00e8r\u00e8t","id":618036152,"population":14015},"coordinates":[1916,3296]},{"type":"Point","properties":{"source":"openstreetmap.org","kind":"locality","name":"Pedernales","kind_detail":"city","population":13805,"min_zoom":8.0,"id":252997293},"coordinates":[4025,198]},{"type":"Point","properties":{"kind":"locality","name":"Jiman\u00ed","kind_detail":"city","source":"openstreetmap.org","min_zoom":8.0,"name:ru":"\u0425\u0438\u043c\u0430\u043d\u0438","id":252991807,"population":11414},"coordinates":[3705,1573]},{"type":"Point","properties":{"source":"openstreetmap.org","kind":"locality","name":"Grand Gosier","kind_detail":"town","population":10852,"min_zoom":8.0,"id":614876979},"coordinates":[3517,634]},{"type":"Point","properties":{"source":"openstreetmap.org","kind":"locality","name":"Cornillon","kind_detail":"town","population":5000,"min_zoom":8.0,"id":1108319279},"coordinates":[3416,2141]}]},"transit":{"type":"GeometryCollection","geometries":[]},"pois":{"type":"GeometryCollection","geometries":[]},"boundaries":{"type":"GeometryCollection","geometries":[{"type":"MultiLineString","properties":{"name:right:yo":"Or\u00edl\u1eb9\u0300\u00f2m\u00ecnira D\u00f3m\u00edn\u00edk\u00ec","name:left:la":"Haitia","name:right:qu":"Duminikana","name:right:dv":"\u0791\u07ae\u0789\u07a8\u0782\u07a8\u0786\u07a6\u0782\u07b0 \u0796\u07aa\u0789\u07b0\u0780\u07ab\u0783\u07a8\u0787\u07b0\u0794\u07a7","name:right:yi":"\u05d3\u05d0\u05de\u05d9\u05e0\u05d9\u05e7\u05d0\u05e0\u05d9\u05e9\u05e2 \u05e8\u05e2\u05e4\u05d5\u05d1\u05dc\u05d9\u05e7","name:right:hy":"\u0534\u0578\u0574\u056b\u0576\u056b\u056f\u0575\u0561\u0576 \u0540\u0561\u0576\u0580\u0561\u057a\u0565\u057f\u0578\u0582\u0569\u0575\u0578\u0582\u0576","name:left:su":"Haiti","name:left:li":"Ha\u00efti","name:left:sw":"Haiti","name:left:sv":"Haiti","name:left:sq":"Haitia","name:left:lb":"Haiti","name:left:ss":"IHayithi","name:left:sr":"\u0425\u0430\u0438\u0442\u0438","name:left:sl":"Haiti","name:left:so":"Haiti","name:left:lt":"Haitis","name:left:sh":"Haiti","name:left:lv":"Haiti","name:left:vo":"Haitiy\u00e4n","name:left:se":"Haiti","name:right:he":"\u05d4\u05e8\u05e4\u05d5\u05d1\u05dc\u05d9\u05e7\u05d4 \u05d4\u05d3\u05d5\u05de\u05d9\u05e0\u05d9\u05e7\u05e0\u05d9\u05ea","name:left:hi":"\u0939\u0948\u0924\u0940","name:right:af":"Dominikaanse Republiek","name:left:co":"Haiti","name:left:ce":"\u0413\u0430\u0438\u0442\u0438 \u041f\u0430\u0447\u0445\u044c\u0430\u043b\u043a\u0445","name:right:an":"Republica Dominicana","name:right:am":"\u12f6\u121a\u1292\u12ab\u1295 \u122a\u1350\u1265\u120a\u12ad","name:left:ca":"Hait\u00ed","source":"openstreetmap.org","name:left:cy":"Haiti","name:right:ar":"\u062c\u0645\u0647\u0648\u0631\u064a\u0629 \u0627\u0644\u062f\u0648\u0645\u064a\u0646\u064a\u0643\u0627\u0646","name:left:cv":"\u0413\u0430\u0438\u0442\u0438","name:right:az":"Dominikan Respublikas\u0131","name:left:cs":"Haiti","name:left:ka":"\u10f0\u10d0\u10d8\u10e2\u10d8","name:left:yi":"\u05d4\u05d0\u05d9\u05d8\u05d9","name:right:ht":"Dominikani","name:left:ko":"\uc544\uc774\ud2f0","name:right:it":"Repubblica Dominicana","name:left:ki":"Haiti","name:left:ro":"Haiti","name:left:kk":"\u0413\u0430\u0438\u0442\u0438","name:right:hu":"Dominikai K\u00f6zt\u00e1rsas\u00e1g","name:left:ku":"Ha\u00eet\u00ee","name:left:kw":"Hayti","name:right:ro":"Republica Dominican\u0103","name:left:ru":"\u0413\u0430\u0438\u0442\u0438","name:right:id":"Republik Dominika","name:right:ia":"Republica Dominican","name":"Ayiti - Rep\u00fablica Dominicana","name:right:bn":"\u09a1\u09cb\u09ae\u09bf\u09a8\u09bf\u0995\u09be\u09a8 \u09aa\u09cd\u09b0\u099c\u09be\u09a4\u09a8\u09cd\u09a4\u09cd\u09b0","name:right:bo":"\u0f4c\u0f7c\u0f0b\u0f58\u0f72\u0f0b\u0f53\u0f72\u0f0b\u0f40\u0f53\u0f0b\u0f66\u0fa4\u0fb1\u0f72\u0f0b\u0f58\u0f50\u0f74\u0f53\u0f0b\u0f62\u0f92\u0fb1\u0f63\u0f0b\u0f41\u0f56\u0f0d","name:right:hi":"\u0921\u094b\u092e\u093f\u0928\u093f\u0915\u0928 \u0917\u0923\u0930\u093e\u091c\u094d\u092f","name:right:bg":"\u0414\u043e\u043c\u0438\u043d\u0438\u043a\u0430\u043d\u0441\u043a\u0430 \u0440\u0435\u043f\u0443\u0431\u043b\u0438\u043a\u0430","name:right:be":"\u0414\u0430\u043c\u0456\u043d\u0456\u043a\u0430\u043d\u0441\u043a\u0430\u044f \u0420\u044d\u0441\u043f\u0443\u0431\u043b\u0456\u043a\u0430","name:left:zh":"\u6d77\u5730","name:right:br":"Republik Dominikan","name:left:si":"\u0dc4\u0dd9\u0dba\u0dd2\u0da7\u0dd2","name:right:zh":"\u591a\u660e\u5c3c\u52a0\u5171\u548c\u570b","official_name:left":"R\u00e9publique d'Ha\u00efti","name:right:nn":"Den dominikanske republikken","name:left:uz":"Gaiti","name:right:nl":"Dominicaanse Republiek","name:right:fr":"R\u00e9publique dominicaine","name:left:sk":"Haiti","name:left:nv":"H\u00e9\u00edtii","name:left:ur":"\u06c1\u06cc\u0679\u06cc","name:right:wo":"R\u00e9ewum Dominik","name:right:ne":"\u0921\u094b\u092e\u093f\u0928\u093f\u0915\u0928 \u0917\u0923\u0924\u0928\u094d\u0924\u094d\u0930","id:right":-307828,"name:left:uk":"\u0413\u0430\u0457\u0442\u0456","name:left:no":"Haiti","name:left:nl":"Ha\u00efti","name:right:gv":"Yn Phobblaght Ghominicagh","name:right:fa":"\u062c\u0645\u0647\u0648\u0631\u06cc \u062f\u0648\u0645\u06cc\u0646\u06cc\u06a9\u0646","name:right:nv":"Domingo Bik\u00e9yah","name:right:fo":"Dominikanal\u00fd\u00f0veldi\u00f0","name:left:ne":"\u0939\u093e\u0907\u091f\u0940","name:left:ug":"\u06be\u0627\u064a\u062a\u0649","name:left:na":"Aiti","name:left:eo":"Haitio","name:left:en":"Haiti","name:left:el":"\u0391\u03ca\u03c4\u03ae","kind_detail":"2","name:left:ee":"Haiti","name:left:pl":"Haiti","name:left:es":"Hait\u00ed","name:left:eu":"Haiti","name:left:et":"Haiti","name:right:zh-min-nan":"Dominic Ki\u014dng-h\u00f4-kok","name:right:ps":"\u0689\u0648\u0645\u0646\u064a\u06a9\u0627\u0646 \u062c\u0645\u0647\u0648\u0631\u064a\u062a","name:left:mg":"Haiti","name:left:mk":"\u0425\u0430\u0438\u0442\u0438","name:left:tr":"Haiti","name:left:tt":"\u0413\u0430\u0438\u0442\u0438","name:left:mn":"\u0413\u0430\u0439\u0442\u0438","name:right:oc":"Republica Dominicana","name:left:ml":"\u0d39\u0d46\u0d2f\u0d4d\u0d31\u0d4d\u0d31\u0d3f","name:left:th":"\u0e1b\u0e23\u0e30\u0e40\u0e17\u0e28\u0e40\u0e2e\u0e15\u0e34","name:right:pa":"\u0a21\u0a4b\u0a2e\u0a3f\u0a28\u0a3f\u0a15\u0a3e\u0a08 \u0a17\u0a23\u0a30\u0a3e\u0a1c","name:left:zh-min-nan":"Haiti","name:left:tl":"Hayti","name:left:ia":"Haiti","name:right:bs":"Dominikanska Republika","short_name:right":"R.D.","name:left:ta":"\u0b8e\u0baf\u0bbf\u0b9f\u0bcd\u0b9f\u0bbf","name:left:my":"\u101f\u1031\u1010\u102e\u1014\u102d\u102f\u1004\u103a\u1004\u1036","name:right:pl":"Dominikana","name:right:os":"\u0414\u043e\u043c\u0438\u043d\u0438\u043a\u0430\u043d\u00e6\u0439\u044b \u0420\u0435\u0441\u043f\u0443\u0431\u043b\u0438\u043a\u00e6","name:right:or":"\u0b21\u0b4b\u0b2e\u0b47\u0b28\u0b3f\u0b15\u0b3e\u0b28 \u0b30\u0b3f\u0b2a\u0b2c\u0b4d\u0b32\u0b3f\u0b15","name:left:pt":"Haiti","name:left:mr":"\u0939\u0948\u0924\u0940","name:right:tr":"Dominik Cumhuriyeti","name:left:da":"Haiti","name:left:de":"Haiti","name:right:ga":"An Phoblacht Dhoiminiceach","name:right:ms":"Republik Dominika","name:left:dv":"\u0780\u07ac\u0787\u07a8\u0793\u07a9","name:left:yo":"H\u00e0\u00edt\u00ec","name:right:ug":"\u062f\u0648\u0645\u0649\u0646\u0649\u0643\u0627\u0646 \u062c\u06c7\u0645\u06be\u06c7\u0631\u0649\u064a\u06d5\u062a\u0649","name:right:la":"Respublica Dominicana","name:right:lb":"Dominikanesch Republik","name:right:no":"Den dominikanske republikk","name:right:uk":"\u0414\u043e\u043c\u0456\u043d\u0456\u043a\u0430\u043d\u0441\u044c\u043a\u0430 \u0420\u0435\u0441\u043f\u0443\u0431\u043b\u0456\u043a\u0430","name:left:he":"\u05d4\u05d0\u05d9\u05d8\u05d9","name:right:ln":"Republiki Dominikani","name:left:mt":"\u0126aiti","name:right:li":"Dominicaanse Rippubliek","name:right:lt":"Dominikos Respublika","name:right:ur":"\u062c\u0645\u06c1\u0648\u0631\u06cc\u06c1 \u0688\u0648\u0645\u06cc\u0646\u06cc\u06a9\u0646","name:right:lv":"Dominik\u0101na","name:left:hy":"\u0540\u0561\u056b\u0569\u056b","name:right:te":"\u0c21\u0c4a\u0c2e\u0c46\u0c28\u0c3f\u0c15\u0c28\u0c4d \u0c30\u0c3f\u0c2a\u0c2c\u0c4d\u0c32\u0c3f\u0c15\u0c4d","name:left:hu":"Haiti","name:right:ce":"\u0414\u043e\u043c\u0438\u043d\u0438\u043a\u0430\u043d \u041f\u0430\u0447\u0445\u044c\u0430\u043b\u043a\u0445","name:left:hr":"Haiti","name:left:ga":"H\u00e1\u00edt\u00ed","name:right:tg":"\u04b6\u0443\u043c\u04b3\u0443\u0440\u0438\u0438 \u0414\u043e\u043c\u0438\u043d\u0438\u043a\u0430\u043d\u0430","name:left:gd":"Haiti","sort_rank":262,"name:right:gd":"Poblachd Dhoiminicia","name:left:gl":"Hait\u00ed - Ha\u00efti","name:right:rw":"Repubulika ya Dominikani","name:left:gu":"\u0ab9\u0ac8\u0aa4\u0ac0","osm_relation":true,"name:left:gv":"Haiti","name:right:ku":"Komara Dom\u00een\u00eek","name:left":"Ayiti","name:right:mk":"\u0414\u043e\u043c\u0438\u043d\u0438\u043a\u0430\u043d\u0441\u043a\u0430 \u0420\u0435\u043f\u0443\u0431\u043b\u0438\u043a\u0430","name:right:sr":"\u0414\u043e\u043c\u0438\u043d\u0438\u043a\u0430\u043d\u0441\u043a\u0430 \u0420\u0435\u043f\u0443\u0431\u043b\u0438\u043a\u0430","name:right:eu":"Dominikar Errepublika","name:right:et":"Dominikaani Vabariik","name:right:vo":"Sandomin\u00e4n","name:left:os":"\u0413\u0430\u0438\u0442\u0438","name:left:or":"\u0b39\u0b3f\u0b1f\u0b3f","name:right:vi":"C\u1ed9ng h\u00f2a Dominica","name:right:my":"\u1012\u102d\u102f\u1019\u102e\u1014\u102e\u1000\u1014\u103a\u101e\u1019\u1039\u1019\u1010\u1014\u102d\u102f\u1004\u103a\u1004\u1036","name:right:ee":"Dominican Republic","name:right:uz":"Dominika Respublikasi","name:right:mr":"\u0921\u0949\u092e\u093f\u0928\u093f\u0915\u0928 \u092a\u094d\u0930\u091c\u093e\u0938\u0924\u094d\u0924\u093e\u0915","name:left:oc":"Hait\u00ed (estat)","name:right:na":"Ripubrikin Dominika","name:right:eo":"Domingo","name:right:en":"Dominican Republic","name:left:vi":"Haiti","name:left:nn":"Haiti","kind":"country","name:left:fa":"\u0647\u0627\u0626\u06cc\u062a\u06cc","name:left:fo":"Haiti","name:right:ru":"\u0414\u043e\u043c\u0438\u043d\u0438\u043a\u0430\u043d\u0441\u043a\u0430\u044f \u0420\u0435\u0441\u043f\u0443\u0431\u043b\u0438\u043a\u0430","name:right:sk":"Dominik\u00e1nska republika","name:left:fi":"Haiti","name:left:fr":"Ha\u00efti","name:right:ay":"Republika Duminikana","name:right:fy":"Dominikaanske Republyk","name:left:fy":"Ha\u00efty","name:left:br":"Republik Haiti","name:left:bs":"Haiti","name:right:ja":"\u30c9\u30df\u30cb\u30ab\u5171\u548c\u56fd","name:right:sq":"Republika Dominikane","name:right:ss":"Tibuse weDomonokha","name:left:ja":"\u30cf\u30a4\u30c1","name:right:su":"R\u00e9publik Dominika","name:right:sw":"Jamhuri ya Dominika","name:right:sv":"Dominikanska Republiken","name:right:sh":"Dominikanska Republika","name:left:qu":"Ayti (mama llaqta)","name:right:jv":"Republik Dominika","name:left:bg":"\u0425\u0430\u0438\u0442\u0438","name:left:be":"\u0413\u0430\u0456\u0446\u0456","name:right:sa":"\u0921\u094b\u092e\u094b\u0928\u093f\u0915\u0928 \u0930\u093f\u092a\u092c\u094d\u0932\u093f\u0915","name:right:sl":"Dominikanska republika","name:left:jv":"Haiti","name:left:bo":"\u0f67\u0f60\u0f72\u0f0b\u0f4f\u0f72\u0f0d","name:right":"Rep\u00fablica Dominicana","name:right:se":"Dominik\u00e1na d\u00e1ssev\u00e1ldi","name:right:ml":"\u0d21\u0d4a\u0d2e\u0d28\u0d3f\u0d15\u0d4d\u0d15\u0d7b \u0d31\u0d3f\u0d2a\u0d4d\u0d2a\u0d2c\u0d4d\u0d32\u0d3f\u0d15\u0d4d","name:right:mt":"Repubblika Dominikana","id":-307829,"name:right:cy":"Gweriniaeth Dominica","name:right:zh-yue":"\u591a\u660e\u5c3c\u52a0","id:left":-307829,"min_zoom":8.0,"name:right:cs":"Dominik\u00e1nsk\u00e1 republika","name:right:fi":"Dominikaaninen tasavalta","name:right:ka":"\u10d3\u10dd\u10db\u10d8\u10dc\u10d8\u10d9\u10d4\u10da\u10d7\u10d0 \u10e0\u10d4\u10e1\u10de\u10e3\u10d1\u10da\u10d8\u10d9\u10d0","name:right:hr":"Dominikanska Republika","name:left:io":"Haiti","name:left:ar":"\u0647\u0627\u064a\u062a\u064a","name:right:tt":"\u0414\u043e\u043c\u0438\u043d\u0438\u043a\u0430\u043d \u0496\u04e9\u043c\u04bb\u04af\u0440\u0438\u044f\u0442\u0435","name:right:is":"D\u00f3min\u00edska l\u00fd\u00f0veldi\u00f0","name:right:kk":"\u0414\u043e\u043c\u0438\u043d\u0438\u043a\u0430\u043d \u0420\u0435\u0441\u043f\u0443\u0431\u043b\u0438\u043a\u0430\u0441\u044b","name:left:id":"Haiti","name:left:az":"Haiti Respublikas\u0131","name:right:ko":"\ub3c4\ubbf8\ub2c8\uce74 \uacf5\ud654\uad6d","name:right:kn":"\u0ca1\u0cca\u0cae\u0cbf\u0ca8\u0cbf\u0c95 \u0c97\u0ca3\u0cb0\u0cbe\u0c9c\u0ccd\u0caf","name:right:tl":"Republikang Dominikano","name:left:af":"Ha\u00efti","name:right:th":"\u0e2a\u0e32\u0e18\u0e32\u0e23\u0e13\u0e23\u0e31\u0e10\u0e42\u0e14\u0e21\u0e34\u0e19\u0e34\u0e01\u0e31\u0e19","name:right:kw":"Repoblek Dhominikanek","name:left:ps":"\u0647\u0627\u06cc\u062a\u064a","name:left:an":"Hait\u00ed","name:left:am":"\u1203\u12ed\u1272","name:left:it":"Haiti","name:left:is":"Ha\u00edt\u00ed","name:right:ta":"\u0b9f\u0bca\u0bae\u0bbf\u0ba9\u0bbf\u0b95\u0bcd\u0b95\u0ba9\u0bcd \u0b95\u0bc1\u0b9f\u0bbf\u0baf\u0bb0\u0b9a\u0bc1","name:right:io":"Dominikana Republiko","name:right:de":"Dominikanische Republik","name:left:ms":"Haiti","name:right:da":"Dominikanske Republik","name:right:el":"\u0394\u03bf\u03bc\u03b9\u03bd\u03b9\u03ba\u03b1\u03bd\u03ae \u0394\u03b7\u03bc\u03bf\u03ba\u03c1\u03b1\u03c4\u03af\u03b1","name:left:zh-yue":"\u6d77\u5730","name:left:ay":"Ayti","name:left:pa":"\u0a39\u0a48\u0a24\u0a40","name:left:bn":"\u09b9\u09be\u0987\u09a4\u09bf","name:left:rw":"Hayiti"},"arcs":[[0],[1],[2]]},{"type":"LineString","properties":{"name:right:yo":"Or\u00edl\u1eb9\u0300\u00f2m\u00ecnira D\u00f3m\u00edn\u00edk\u00ec","name:left:la":"Haitia","name:right:qu":"Duminikana","name:right:yi":"\u05d3\u05d0\u05de\u05d9\u05e0\u05d9\u05e7\u05d0\u05e0\u05d9\u05e9\u05e2 \u05e8\u05e2\u05e4\u05d5\u05d1\u05dc\u05d9\u05e7","name:right:hy":"\u0534\u0578\u0574\u056b\u0576\u056b\u056f\u0575\u0561\u0576 \u0540\u0561\u0576\u0580\u0561\u057a\u0565\u057f\u0578\u0582\u0569\u0575\u0578\u0582\u0576","name:left:su":"Haiti","name:left:li":"Ha\u00efti","name:left:sw":"Haiti","name:left:sv":"Haiti","name:left:sq":"Haitia","name:left:lb":"Haiti","name:left:ss":"IHayithi","name:left:sr":"\u0425\u0430\u0438\u0442\u0438","name:left:sl":"Haiti","name:left:so":"Haiti","name:left:lt":"Haitis","name:left:sh":"Haiti","name:left:lv":"Haiti","name:right:mr":"\u0921\u0949\u092e\u093f\u0928\u093f\u0915\u0928 \u092a\u094d\u0930\u091c\u093e\u0938\u0924\u094d\u0924\u093e\u0915","name:left:se":"Haiti","name:right:he":"\u05d4\u05e8\u05e4\u05d5\u05d1\u05dc\u05d9\u05e7\u05d4 \u05d4\u05d3\u05d5\u05de\u05d9\u05e0\u05d9\u05e7\u05e0\u05d9\u05ea","name:right:la":"Respublica Dominicana","name:right:af":"Dominikaanse Republiek","name:left:co":"Haiti","name:left:ce":"\u0413\u0430\u0438\u0442\u0438 \u041f\u0430\u0447\u0445\u044c\u0430\u043b\u043a\u0445","name:right:an":"Republica Dominicana","name:right:am":"\u12f6\u121a\u1292\u12ab\u1295 \u122a\u1350\u1265\u120a\u12ad","name:right:ko":"\ub3c4\ubbf8\ub2c8\uce74 \uacf5\ud654\uad6d","name:left:ca":"Hait\u00ed","name:left:qu":"Ayti (mama llaqta)","source":"openstreetmap.org","name:left:cy":"Haiti","name:right:ar":"\u062c\u0645\u0647\u0648\u0631\u064a\u0629 \u0627\u0644\u062f\u0648\u0645\u064a\u0646\u064a\u0643\u0627\u0646","name:left:cv":"\u0413\u0430\u0438\u0442\u0438","name:right:az":"Dominikan Respublikas\u0131","name:left:cs":"Haiti","name:left:ka":"\u10f0\u10d0\u10d8\u10e2\u10d8","name:right:zh-yue":"\u591a\u660e\u5c3c\u52a0","name:right:ht":"Dominikani","name:left:ko":"\uc544\uc774\ud2f0","name:right:it":"Repubblica Dominicana","name:left:ki":"Haiti","name:left:ro":"Haiti","name:left:kk":"\u0413\u0430\u0438\u0442\u0438","name:right:hu":"Dominikai K\u00f6zt\u00e1rsas\u00e1g","name:left:ku":"Ha\u00eet\u00ee","name:left:kw":"Hayti","name:right:ro":"Republica Dominican\u0103","name:left:ru":"\u0413\u0430\u0438\u0442\u0438","name:right:id":"Republik Dominika","name:right:ia":"Republica Dominican","name:right:bo":"\u0f4c\u0f7c\u0f0b\u0f58\u0f72\u0f0b\u0f53\u0f72\u0f0b\u0f40\u0f53\u0f0b\u0f66\u0fa4\u0fb1\u0f72\u0f0b\u0f58\u0f50\u0f74\u0f53\u0f0b\u0f62\u0f92\u0fb1\u0f63\u0f0b\u0f41\u0f56\u0f0d","name:right:bn":"\u09a1\u09cb\u09ae\u09bf\u09a8\u09bf\u0995\u09be\u09a8 \u09aa\u09cd\u09b0\u099c\u09be\u09a4\u09a8\u09cd\u09a4\u09cd\u09b0","name":"Ayiti - Rep\u00fablica Dominicana","name:right:hi":"\u0921\u094b\u092e\u093f\u0928\u093f\u0915\u0928 \u0917\u0923\u0930\u093e\u091c\u094d\u092f","name:right:th":"\u0e2a\u0e32\u0e18\u0e32\u0e23\u0e13\u0e23\u0e31\u0e10\u0e42\u0e14\u0e21\u0e34\u0e19\u0e34\u0e01\u0e31\u0e19","name:right:bg":"\u0414\u043e\u043c\u0438\u043d\u0438\u043a\u0430\u043d\u0441\u043a\u0430 \u0440\u0435\u043f\u0443\u0431\u043b\u0438\u043a\u0430","name:right:be":"\u0414\u0430\u043c\u0456\u043d\u0456\u043a\u0430\u043d\u0441\u043a\u0430\u044f \u0420\u044d\u0441\u043f\u0443\u0431\u043b\u0456\u043a\u0430","name:left:zh":"\u6d77\u5730","name:right:br":"Republik Dominikan","name:left:si":"\u0dc4\u0dd9\u0dba\u0dd2\u0da7\u0dd2","name:right:zh":"\u591a\u660e\u5c3c\u52a0\u5171\u548c\u570b","official_name:left":"R\u00e9publique d'Ha\u00efti","name:right:nn":"Den dominikanske republikken","name:left:uz":"Gaiti","name:right:nl":"Dominicaanse Republiek","name:right:fr":"R\u00e9publique dominicaine","name:left:sk":"Haiti","name:left:nv":"H\u00e9\u00edtii","name:left:ur":"\u06c1\u06cc\u0679\u06cc","name:right:wo":"R\u00e9ewum Dominik","name:right:ne":"\u0921\u094b\u092e\u093f\u0928\u093f\u0915\u0928 \u0917\u0923\u0924\u0928\u094d\u0924\u094d\u0930","id:right":-307828,"name:left:uk":"\u0413\u0430\u0457\u0442\u0456","name:left:no":"Haiti","name:left:nl":"Ha\u00efti","name:right:ps":"\u0689\u0648\u0645\u0646\u064a\u06a9\u0627\u0646 \u062c\u0645\u0647\u0648\u0631\u064a\u062a","name:right:fa":"\u062c\u0645\u0647\u0648\u0631\u06cc \u062f\u0648\u0645\u06cc\u0646\u06cc\u06a9\u0646","name:right:nv":"Domingo Bik\u00e9yah","name:right:fo":"Dominikanal\u00fd\u00f0veldi\u00f0","name:left:ne":"\u0939\u093e\u0907\u091f\u0940","name:left:ug":"\u06be\u0627\u064a\u062a\u0649","name:left:na":"Aiti","name:left:eo":"Haitio","name:left:en":"Haiti","name:left:el":"\u0391\u03ca\u03c4\u03ae","kind_detail":"2","name:left:ee":"Haiti","name:right:tt":"\u0414\u043e\u043c\u0438\u043d\u0438\u043a\u0430\u043d \u0496\u04e9\u043c\u04bb\u04af\u0440\u0438\u044f\u0442\u0435","name:left:es":"Hait\u00ed","name:left:eu":"Haiti","name:left:et":"Haiti","name:right:zh-min-nan":"Dominic Ki\u014dng-h\u00f4-kok","name:right:gv":"Yn Phobblaght Ghominicagh","name:left:mg":"Haiti","name:left:mk":"\u0425\u0430\u0438\u0442\u0438","name:left:tr":"Haiti","name:left:tt":"\u0413\u0430\u0438\u0442\u0438","name:left:mn":"\u0413\u0430\u0439\u0442\u0438","name:right:oc":"Republica Dominicana","name:left:ml":"\u0d39\u0d46\u0d2f\u0d4d\u0d31\u0d4d\u0d31\u0d3f","name:left:th":"\u0e1b\u0e23\u0e30\u0e40\u0e17\u0e28\u0e40\u0e2e\u0e15\u0e34","name:right:pa":"\u0a21\u0a4b\u0a2e\u0a3f\u0a28\u0a3f\u0a15\u0a3e\u0a08 \u0a17\u0a23\u0a30\u0a3e\u0a1c","name:left:tl":"Hayti","name:left:ia":"Haiti","name:right:bs":"Dominikanska Republika","short_name:right":"R.D.","name:left:ta":"\u0b8e\u0baf\u0bbf\u0b9f\u0bcd\u0b9f\u0bbf","name:left:my":"\u101f\u1031\u1010\u102e\u1014\u102d\u102f\u1004\u103a\u1004\u1036","name:right:kn":"\u0ca1\u0cca\u0cae\u0cbf\u0ca8\u0cbf\u0c95 \u0c97\u0ca3\u0cb0\u0cbe\u0c9c\u0ccd\u0caf","name:right:pl":"Dominikana","name:right:os":"\u0414\u043e\u043c\u0438\u043d\u0438\u043a\u0430\u043d\u00e6\u0439\u044b \u0420\u0435\u0441\u043f\u0443\u0431\u043b\u0438\u043a\u00e6","name:right:or":"\u0b21\u0b4b\u0b2e\u0b47\u0b28\u0b3f\u0b15\u0b3e\u0b28 \u0b30\u0b3f\u0b2a\u0b2c\u0b4d\u0b32\u0b3f\u0b15","name:right:tl":"Republikang Dominikano","name:left:mr":"\u0939\u0948\u0924\u0940","name:left:da":"Haiti","name:left:ar":"\u0647\u0627\u064a\u062a\u064a","name:left:de":"Haiti","name:right:ga":"An Phoblacht Dhoiminiceach","name:left:dv":"\u0780\u07ac\u0787\u07a8\u0793\u07a9","name:right:ug":"\u062f\u0648\u0645\u0649\u0646\u0649\u0643\u0627\u0646 \u062c\u06c7\u0645\u06be\u06c7\u0631\u0649\u064a\u06d5\u062a\u0649","name:left:hi":"\u0939\u0948\u0924\u0940","name:right:lb":"Dominikanesch Republik","name:right:no":"Den dominikanske republikk","name:right:uk":"\u0414\u043e\u043c\u0456\u043d\u0456\u043a\u0430\u043d\u0441\u044c\u043a\u0430 \u0420\u0435\u0441\u043f\u0443\u0431\u043b\u0456\u043a\u0430","name:left:he":"\u05d4\u05d0\u05d9\u05d8\u05d9","name:right:ln":"Republiki Dominikani","name:left:mt":"\u0126aiti","name:right:li":"Dominicaanse Rippubliek","name:right:lt":"Dominikos Respublika","name:right:ur":"\u062c\u0645\u06c1\u0648\u0631\u06cc\u06c1 \u0688\u0648\u0645\u06cc\u0646\u06cc\u06a9\u0646","name:right:lv":"Dominik\u0101na","name:left:hy":"\u0540\u0561\u056b\u0569\u056b","name:left:an":"Hait\u00ed","name:left:hu":"Haiti","kind":"country","name:left:hr":"Haiti","name:left:ga":"H\u00e1\u00edt\u00ed","name:left:it":"Haiti","name:left:gd":"Haiti","sort_rank":262,"name:right:gd":"Poblachd Dhoiminicia","name:left:gl":"Hait\u00ed - Ha\u00efti","name:left:gu":"\u0ab9\u0ac8\u0aa4\u0ac0","osm_relation":true,"name:left:gv":"Haiti","name:left":"Ayiti","name:right:mk":"\u0414\u043e\u043c\u0438\u043d\u0438\u043a\u0430\u043d\u0441\u043a\u0430 \u0420\u0435\u043f\u0443\u0431\u043b\u0438\u043a\u0430","name:left:ja":"\u30cf\u30a4\u30c1","name:right:eu":"Dominikar Errepublika","name:right:et":"Dominikaani Vabariik","name:right:vo":"Sandomin\u00e4n","name:left:os":"\u0413\u0430\u0438\u0442\u0438","name:left:or":"\u0b39\u0b3f\u0b1f\u0b3f","name:right:vi":"C\u1ed9ng h\u00f2a Dominica","name:right:my":"\u1012\u102d\u102f\u1019\u102e\u1014\u102e\u1000\u1014\u103a\u101e\u1019\u1039\u1019\u1010\u1014\u102d\u102f\u1004\u103a\u1004\u1036","name:right:ee":"Dominican Republic","name:right:uz":"Dominika Respublikasi","name:left:vo":"Haitiy\u00e4n","name:left:oc":"Hait\u00ed (estat)","name:right:na":"Ripubrikin Dominika","name:right:eo":"Domingo","name:right:en":"Dominican Republic","name:left:vi":"Haiti","name:left:nn":"Haiti","name:right:mt":"Repubblika Dominikana","name:left:fa":"\u0647\u0627\u0626\u06cc\u062a\u06cc","name:left:fo":"Haiti","name:right:sk":"Dominik\u00e1nska republika","name:left:fi":"Haiti","name:right:te":"\u0c21\u0c4a\u0c2e\u0c46\u0c28\u0c3f\u0c15\u0c28\u0c4d \u0c30\u0c3f\u0c2a\u0c2c\u0c4d\u0c32\u0c3f\u0c15\u0c4d","name:left:fr":"Ha\u00efti","name:right:ay":"Republika Duminikana","name:right:fy":"Dominikaanske Republyk","name:left:fy":"Ha\u00efty","name:left:br":"Republik Haiti","name:left:bs":"Haiti","name:right:ja":"\u30c9\u30df\u30cb\u30ab\u5171\u548c\u56fd","name:right:sq":"Republika Dominikane","name:right:ss":"Tibuse weDomonokha","name:right:sr":"\u0414\u043e\u043c\u0438\u043d\u0438\u043a\u0430\u043d\u0441\u043a\u0430 \u0420\u0435\u043f\u0443\u0431\u043b\u0438\u043a\u0430","name:right:su":"R\u00e9publik Dominika","name:right:sw":"Jamhuri ya Dominika","name:right:sv":"Dominikanska Republiken","name:right:sh":"Dominikanska Republika","name:right:ms":"Republik Dominika","name:right:cy":"Gweriniaeth Dominica","name:right:jv":"Republik Dominika","name:left:bg":"\u0425\u0430\u0438\u0442\u0438","name:left:be":"\u0413\u0430\u0456\u0446\u0456","name:right:sa":"\u0921\u094b\u092e\u094b\u0928\u093f\u0915\u0928 \u0930\u093f\u092a\u092c\u094d\u0932\u093f\u0915","name:right:sl":"Dominikanska republika","name:left:jv":"Haiti","name:left:bo":"\u0f67\u0f60\u0f72\u0f0b\u0f4f\u0f72\u0f0d","name:right":"Rep\u00fablica Dominicana","name:right:se":"Dominik\u00e1na d\u00e1ssev\u00e1ldi","name:right:ml":"\u0d21\u0d4a\u0d2e\u0d28\u0d3f\u0d15\u0d4d\u0d15\u0d7b \u0d31\u0d3f\u0d2a\u0d4d\u0d2a\u0d2c\u0d4d\u0d32\u0d3f\u0d15\u0d4d","name:right:ce":"\u0414\u043e\u043c\u0438\u043d\u0438\u043a\u0430\u043d \u041f\u0430\u0447\u0445\u044c\u0430\u043b\u043a\u0445","maritime_boundary":true,"name:right:tg":"\u04b6\u0443\u043c\u04b3\u0443\u0440\u0438\u0438 \u0414\u043e\u043c\u0438\u043d\u0438\u043a\u0430\u043d\u0430","id":-307829,"name:left:yo":"H\u00e0\u00edt\u00ec","name:left:yi":"\u05d4\u05d0\u05d9\u05d8\u05d9","id:left":-307829,"min_zoom":8.0,"name:right:cs":"Dominik\u00e1nsk\u00e1 republika","name:right:fi":"Dominikaaninen tasavalta","name:right:ka":"\u10d3\u10dd\u10db\u10d8\u10dc\u10d8\u10d9\u10d4\u10da\u10d7\u10d0 \u10e0\u10d4\u10e1\u10de\u10e3\u10d1\u10da\u10d8\u10d9\u10d0","name:right:hr":"Dominikanska Republika","name:left:io":"Haiti","name:left:pa":"\u0a39\u0a48\u0a24\u0a40","name:left:pl":"Haiti","name:right:is":"D\u00f3min\u00edska l\u00fd\u00f0veldi\u00f0","name:right:kk":"\u0414\u043e\u043c\u0438\u043d\u0438\u043a\u0430\u043d \u0420\u0435\u0441\u043f\u0443\u0431\u043b\u0438\u043a\u0430\u0441\u044b","name:left:id":"Haiti","name:left:az":"Haiti Respublikas\u0131","name:right:tr":"Dominik Cumhuriyeti","name:right:rw":"Repubulika ya Dominikani","name:left:pt":"Haiti","name:left:af":"Ha\u00efti","name:right:ku":"Komara Dom\u00een\u00eek","name:right:kw":"Repoblek Dhominikanek","name:left:ps":"\u0647\u0627\u06cc\u062a\u064a","name:left:zh-min-nan":"Haiti","name:left:am":"\u1203\u12ed\u1272","name:right:ru":"\u0414\u043e\u043c\u0438\u043d\u0438\u043a\u0430\u043d\u0441\u043a\u0430\u044f \u0420\u0435\u0441\u043f\u0443\u0431\u043b\u0438\u043a\u0430","name:left:is":"Ha\u00edt\u00ed","name:right:ta":"\u0b9f\u0bca\u0bae\u0bbf\u0ba9\u0bbf\u0b95\u0bcd\u0b95\u0ba9\u0bcd \u0b95\u0bc1\u0b9f\u0bbf\u0baf\u0bb0\u0b9a\u0bc1","name:right:io":"Dominikana Republiko","name:right:de":"Dominikanische Republik","name:left:ms":"Haiti","name:right:da":"Dominikanske Republik","name:right:el":"\u0394\u03bf\u03bc\u03b9\u03bd\u03b9\u03ba\u03b1\u03bd\u03ae \u0394\u03b7\u03bc\u03bf\u03ba\u03c1\u03b1\u03c4\u03af\u03b1","name:left:zh-yue":"\u6d77\u5730","name:left:ay":"Ayti","name:right:dv":"\u0791\u07ae\u0789\u07a8\u0782\u07a8\u0786\u07a6\u0782\u07b0 \u0796\u07aa\u0789\u07b0\u0780\u07ab\u0783\u07a8\u0787\u07b0\u0794\u07a7","name:left:bn":"\u09b9\u09be\u0987\u09a4\u09bf","name:left:rw":"Hayiti"},"arcs":[3]},{"type":"MultiLineString","properties":{"name:ay":"Ayti","name:pt":"Haiti","name:ps":"\u0647\u0627\u06cc\u062a\u064a","name:ka":"\u10f0\u10d0\u10d8\u10e2\u10d8","name:ko":"\uc544\uc774\ud2f0","name:cv":"\u0413\u0430\u0438\u0442\u0438","name:cs":"Haiti","name:ki":"Haiti","name:co":"Haiti","name:sw":"Haiti","name:ku":"Ha\u00eet\u00ee","name:az":"Haiti Respublikas\u0131","name:tl":"Hayti","name:pa":"\u0a39\u0a48\u0a24\u0a40","name:os":"\u0413\u0430\u0438\u0442\u0438","name:or":"\u0b39\u0b3f\u0b1f\u0b3f","name:ce":"\u0413\u0430\u0438\u0442\u0438 \u041f\u0430\u0447\u0445\u044c\u0430\u043b\u043a\u0445","name:ta":"\u0b8e\u0baf\u0bbf\u0b9f\u0bcd\u0b9f\u0bbf","name:ca":"Hait\u00ed","name:li":"Ha\u00efti","name:fo":"Haiti","name:cy":"Haiti","source":"openstreetmap.org","sort_rank":262,"name:hr":"Haiti","name:da":"Haiti","name:de":"Haiti","name:tr":"Haiti","name:nv":"H\u00e9\u00edtii","name:be":"\u0413\u0430\u0456\u0446\u0456","name:dv":"\u0780\u07ac\u0787\u07a8\u0793\u07a9","name:lv":"Haiti","name:lt":"Haitis","name:hi":"\u0939\u0948\u0924\u0940","name:kk":"\u0413\u0430\u0438\u0442\u0438","name:he":"\u05d4\u05d0\u05d9\u05d8\u05d9","name:eo":"Haitio","name:ur":"\u06c1\u06cc\u0679\u06cc","name:lb":"Haiti","name:la":"Haitia","name:tt":"\u0413\u0430\u0438\u0442\u0438","name:uk":"\u0413\u0430\u0457\u0442\u0456","name:hy":"\u0540\u0561\u056b\u0569\u056b","name:ug":"\u06be\u0627\u064a\u062a\u0649","name:hu":"Haiti","name:qu":"Ayti (mama llaqta)","name:oc":"Hait\u00ed (estat)","name:el":"\u0391\u03ca\u03c4\u03ae","kind":"country","name:en":"Haiti","name":"Ayiti","name:ee":"Haiti","min_zoom":8.0,"name:th":"\u0e1b\u0e23\u0e30\u0e40\u0e17\u0e28\u0e40\u0e2e\u0e15\u0e34","name:eu":"Haiti","name:et":"Haiti","name:es":"Hait\u00ed","name:ia":"Haiti","name:mt":"\u0126aiti","name:ro":"Haiti","name:id":"Haiti","name:ms":"Haiti","name:mr":"\u0939\u0948\u0924\u0940","name:ar":"\u0647\u0627\u064a\u062a\u064a","name:my":"\u101f\u1031\u1010\u102e\u1014\u102d\u102f\u1004\u103a\u1004\u1036","official_name":"R\u00e9publique d'Ha\u00efti","name:kw":"Hayti","name:is":"Ha\u00edt\u00ed","name:am":"\u1203\u12ed\u1272","name:it":"Haiti","name:an":"Hait\u00ed","name:vi":"Haiti","name:rw":"Hayiti","name:pl":"Haiti","name:mk":"\u0425\u0430\u0438\u0442\u0438","name:af":"Ha\u00efti","name:fa":"\u0647\u0627\u0626\u06cc\u062a\u06cc","name:mn":"\u0413\u0430\u0439\u0442\u0438","name:si":"\u0dc4\u0dd9\u0dba\u0dd2\u0da7\u0dd2","kind_detail":"2","name:uz":"Gaiti","name:mg":"Haiti","id":-307829,"name:zh-min-nan":"Haiti","name:fr":"Ha\u00efti","name:zh-yue":"\u6d77\u5730","name:fy":"Ha\u00efty","name:vo":"Haitiy\u00e4n","name:zh":"\u6d77\u5730","name:so":"Haiti","name:sl":"Haiti","name:nl":"Ha\u00efti","name:ja":"\u30cf\u30a4\u30c1","name:nn":"Haiti","name:sh":"Haiti","name:na":"Aiti","name:se":"Haiti","name:ne":"\u0939\u093e\u0907\u091f\u0940","name:br":"Republik Haiti","name:bs":"Haiti","name:yi":"\u05d4\u05d0\u05d9\u05d8\u05d9","name:bn":"\u09b9\u09be\u0987\u09a4\u09bf","name:bo":"\u0f67\u0f60\u0f72\u0f0b\u0f4f\u0f72\u0f0d","name:sk":"Haiti","name:ml":"\u0d39\u0d46\u0d2f\u0d4d\u0d31\u0d4d\u0d31\u0d3f","name:no":"Haiti","name:ru":"\u0413\u0430\u0438\u0442\u0438","name:sv":"Haiti","name:su":"Haiti","name:bg":"\u0425\u0430\u0438\u0442\u0438","name:ss":"IHayithi","name:sr":"\u0425\u0430\u0438\u0442\u0438","osm_relation":true,"name:sq":"Haitia","name:ga":"H\u00e1\u00edt\u00ed","name:gd":"Haiti","name:yo":"H\u00e0\u00edt\u00ec","name:jv":"Haiti","name:io":"Haiti","name:gl":"Hait\u00ed - Ha\u00efti","maritime_boundary":true,"name:gv":"Haiti","name:gu":"\u0ab9\u0ac8\u0aa4\u0ac0","name:fi":"Haiti"},"arcs":[[4],[5]]},{"type":"LineString","properties":{"kind":"region","name":"Dajab\u00f3n","sort_rank":256,"kind_detail":"4","source":"openstreetmap.org","min_zoom":8.0,"name:ru":"\u0414\u0430\u0445\u0430\u0431\u043e\u043d","id":-3412367,"osm_relation":true},"arcs":[6]},{"type":"LineString","properties":{"kind":"region","name:left:en":"Sud Department","name":"D\u00e9partement du Sud - D\u00e9partement des Nippes","sort_rank":256,"kind_detail":"4","name:right:ht":"Depatman Nip","id:right":-391834,"source":"openstreetmap.org","min_zoom":8.0,"id:left":-2744350,"name:left:ht":"Sid","name:left":"D\u00e9partement du Sud","id":-2744350,"osm_relation":true,"name:right":"D\u00e9partement des Nippes"},"arcs":[7]},{"type":"MultiLineString","properties":{"kind":"region","name:en":"Sud Department","name":"D\u00e9partement du Sud","sort_rank":256,"kind_detail":"4","source":"openstreetmap.org","min_zoom":8.0,"name:ht":"Sid","id":-2744350,"osm_relation":true},"arcs":[[8],[9]]},{"type":"MultiLineString","properties":{"kind":"region","name:en":"Sud Department","name":"D\u00e9partement du Sud","sort_rank":256,"kind_detail":"4","min_zoom":8.0,"source":"openstreetmap.org","maritime_boundary":true,"name:ht":"Sid","id":-2744350,"osm_relation":true},"arcs":[[10],[11]]},{"type":"LineString","properties":{"name:right:ht":"Depatman Sant","id:right":-392213,"name:left:uk":"\u0410\u0440\u0442\u0456\u0431\u043e\u043d\u0456\u0442","min_zoom":8.0,"name:left:ru":"\u0410\u0440\u0442\u0438\u0431\u043e\u043d\u0438\u0442","name:left:ht":"Latibonit","id":-392238,"osm_relation":true,"name:left:en":"Artibonite Department","kind":"region","name":"D\u00e9partement de l'Artibonite - D\u00e9partement du Centre","sort_rank":256,"kind_detail":"4","name:right:en":"Centre Department","source":"openstreetmap.org","name:left:zh":"\u963f\u8482\u535a\u5c3c\u7279\u7701","id:left":-392238,"name:right":"D\u00e9partement du Centre","name:left":"D\u00e9partement de l'Artibonite"},"arcs":[12]},{"type":"LineString","properties":{"name:right:ht":"Depatman N\u00f2dw\u00e8s","id:right":-392028,"name:left:uk":"\u0410\u0440\u0442\u0456\u0431\u043e\u043d\u0456\u0442","min_zoom":8.0,"name:left:ru":"\u0410\u0440\u0442\u0438\u0431\u043e\u043d\u0438\u0442","name:left:ht":"Latibonit","id":-392238,"osm_relation":true,"name:left:en":"Artibonite Department","kind":"region","name":"D\u00e9partement de l'Artibonite - D\u00e9partement du Nord","sort_rank":256,"kind_detail":"4","source":"openstreetmap.org","name:left:zh":"\u963f\u8482\u535a\u5c3c\u7279\u7701","id:left":-392238,"name:right":"D\u00e9partement du Nord","name:left":"D\u00e9partement de l'Artibonite"},"arcs":[13]},{"type":"LineString","properties":{"kind":"region","name:en":"Artibonite Department","name":"D\u00e9partement de l'Artibonite","sort_rank":256,"kind_detail":"4","source":"openstreetmap.org","min_zoom":8.0,"name:uk":"\u0410\u0440\u0442\u0456\u0431\u043e\u043d\u0456\u0442","name:ru":"\u0410\u0440\u0442\u0438\u0431\u043e\u043d\u0438\u0442","name:ht":"Latibonit","name:zh":"\u963f\u8482\u535a\u5c3c\u7279\u7701","id":-392238,"osm_relation":true},"arcs":[14]},{"type":"LineString","properties":{"kind":"region","name:en":"Artibonite Department","name":"D\u00e9partement de l'Artibonite","sort_rank":256,"kind_detail":"4","min_zoom":8.0,"source":"openstreetmap.org","maritime_boundary":true,"name:uk":"\u0410\u0440\u0442\u0456\u0431\u043e\u043d\u0456\u0442","name:ru":"\u0410\u0440\u0442\u0438\u0431\u043e\u043d\u0438\u0442","name:ht":"Latibonit","name:zh":"\u963f\u8482\u535a\u5c3c\u7279\u7701","id":-392238,"osm_relation":true},"arcs":[15]},{"type":"LineString","properties":{"kind":"region","name:en":"Artibonite Department","name":"D\u00e9partement de l'Artibonite","sort_rank":256,"kind_detail":"4","min_zoom":8.0,"source":"openstreetmap.org","maritime_boundary":true,"name:uk":"\u0410\u0440\u0442\u0456\u0431\u043e\u043d\u0456\u0442","name:ru":"\u0410\u0440\u0442\u0438\u0431\u043e\u043d\u0438\u0442","name:ht":"Latibonit","name:zh":"\u963f\u8482\u535a\u5c3c\u7279\u7701","id":-392238,"osm_relation":true},"arcs":[16]},{"type":"LineString","properties":{"name:right:ht":"Depatman N\u00f2d\u00e8s","id:right":-392189,"min_zoom":8.0,"name:left:ht":"Depatman Sant","id":-392213,"osm_relation":true,"name:left:en":"Centre Department","kind":"region","name":"D\u00e9partement du Centre - D\u00e9partement du Nord-Est","sort_rank":256,"kind_detail":"4","name:right:en":"Nord-Est Department","source":"openstreetmap.org","id:left":-392213,"name:right":"D\u00e9partement du Nord-Est","name:left":"D\u00e9partement du Centre"},"arcs":[17]},{"type":"LineString","properties":{"kind":"region","name:left:en":"Centre Department","name":"D\u00e9partement du Centre - D\u00e9partement du Nord","sort_rank":256,"kind_detail":"4","name:right:ht":"Depatman N\u00f2dw\u00e8s","id:right":-392028,"source":"openstreetmap.org","min_zoom":8.0,"id:left":-392213,"name:left:ht":"Depatman Sant","name:left":"D\u00e9partement du Centre","id":-392213,"osm_relation":true,"name:right":"D\u00e9partement du Nord"},"arcs":[18]},{"type":"MultiLineString","properties":{"kind":"region","name:en":"Centre Department","name":"D\u00e9partement du Centre","sort_rank":256,"kind_detail":"4","source":"openstreetmap.org","min_zoom":8.0,"name:ht":"Depatman Sant","id":-392213,"osm_relation":true},"arcs":[[19],[20]]},{"type":"LineString","properties":{"kind":"region","name:en":"Nord-Est Department","name":"D\u00e9partement du Nord-Est","sort_rank":256,"kind_detail":"4","source":"openstreetmap.org","min_zoom":8.0,"name:ht":"Depatman N\u00f2d\u00e8s","id":-392189,"osm_relation":true},"arcs":[21]},{"type":"LineString","properties":{"kind":"region","name":"D\u00e9partement des Nippes","sort_rank":256,"kind_detail":"4","source":"openstreetmap.org","min_zoom":8.0,"name:ht":"Depatman Nip","id":-391834,"osm_relation":true},"arcs":[22]},{"type":"MultiLineString","properties":{"kind":"region","name":"D\u00e9partement des Nippes","sort_rank":256,"kind_detail":"4","min_zoom":8.0,"source":"openstreetmap.org","maritime_boundary":true,"name:ht":"Depatman Nip","id":-391834,"osm_relation":true},"arcs":[[23],[24],[25],[26]]},{"type":"LineString","properties":{"kind":"region","name":"D\u00e9partement de l'Ouest","sort_rank":256,"kind_detail":"4","min_zoom":8.0,"source":"openstreetmap.org","maritime_boundary":true,"name:ht":"Depatman Lw\u00e8s","id":-386871,"osm_relation":true},"arcs":[27]}]},"roads":{"type":"GeometryCollection","geometries":[{"type":"MultiLineString","properties":{"sort_rank":380,"kind_detail":"primary","min_zoom":8.0,"kind":"major_road","source":"openstreetmap.org"},"arcs":[[37],[38],[39],[40],[41],[42],[43],[44]]},{"type":"MultiLineString","properties":{"sort_rank":381,"source":"openstreetmap.org","min_zoom":8.0,"kind":"major_road","kind_detail":"trunk"},"arcs":[[45],[46],[47],[48],[49],[50],[51],[52],[53],[54],[55],[56],[57]]},{"type":"MultiLineString","properties":{"kind":"major_road","network":null,"sort_rank":380,"kind_detail":"primary","source":"openstreetmap.org","min_zoom":8.0,"shield_text":"2","ref":"RN 2"},"arcs":[[58],[59],[60],[61],[62],[63],[64]]},{"type":"LineString","properties":{"kind":"major_road","sort_rank":380,"kind_detail":"primary","bus_network":"pap_taptap","source":"openstreetmap.org","min_zoom":8.0,"bus_shield_text":null,"ref":"RN 8","id":48271871},"arcs":[65]},{"type":"LineString","properties":{"source":"openstreetmap.org","kind":"major_road","sort_rank":380,"kind_detail":"primary","ref":"RN 1","min_zoom":8.0,"id":219165658},"arcs":[66]},{"type":"LineString","properties":{"kind":"major_road","network":null,"sort_rank":380,"kind_detail":"primary","source":"openstreetmap.org","min_zoom":8.0,"loc_name":"Grand Rue","ref":"RN 2","id":134067834,"shield_text":"2"},"arcs":[67]},{"type":"LineString","properties":{"kind":"major_road","network":null,"sort_rank":380,"kind_detail":"primary","source":"openstreetmap.org","min_zoom":8.0,"landuse_kind":"urban_area","shield_text":"1","ref":"RN 1"},"arcs":[68]},{"type":"MultiLineString","properties":{"source":"openstreetmap.org","kind":"major_road","sort_rank":380,"kind_detail":"primary","ref":"RN 8","min_zoom":8.0},"arcs":[[69],[70]]},{"type":"LineString","properties":{"sort_rank":355,"source":"openstreetmap.org","kind":"ferry","min_zoom":8.0,"id":313200377},"arcs":[71]},{"type":"MultiLineString","properties":{"source":"openstreetmap.org","kind":"major_road","sort_rank":381,"kind_detail":"trunk","name:ht":"Wout Ray","min_zoom":8.0},"arcs":[[72],[73],[74]]},{"type":"MultiLineString","properties":{"source":"openstreetmap.org","kind":"major_road","sort_rank":380,"kind_detail":"primary","ref":"RN 2","min_zoom":8.0},"arcs":[[75],[76]]},{"type":"MultiLineString","properties":{"kind":"major_road","network":null,"sort_rank":380,"kind_detail":"primary","source":"openstreetmap.org","min_zoom":8.0,"shield_text":"1","ref":"RN 1"},"arcs":[[77],[78],[79],[80],[81]]},{"type":"MultiLineString","properties":{"source":"openstreetmap.org","kind":"major_road","sort_rank":380,"kind_detail":"primary","ref":"46","min_zoom":8.0},"arcs":[[82],[83]]},{"type":"LineString","properties":{"kind":"major_road","network":null,"sort_rank":380,"kind_detail":"primary","source":"openstreetmap.org","min_zoom":8.0,"loc_name":"Pont Croix-des-Missions","ref":"RN 1","id":30076889,"shield_text":"1"},"arcs":[84]},{"type":"MultiLineString","properties":{"source":"openstreetmap.org","kind":"major_road","network":null,"sort_rank":380,"kind_detail":"primary","min_zoom":8.0,"shield_text":"2"},"arcs":[[85],[86]]},{"type":"LineString","properties":{"kind":"major_road","network":null,"sort_rank":380,"kind_detail":"primary","source":"openstreetmap.org","min_zoom":8.0,"landuse_kind":"urban_area","loc_name":"Grand Rue","ref":"RN 1","id":290197539,"shield_text":"1"},"arcs":[87]},{"type":"LineString","properties":{"kind":"major_road","sort_rank":380,"landuse_kind":"park","source":"openstreetmap.org","min_zoom":8.0,"kind_detail":"primary","ref":"46","id":248661929},"arcs":[88]},{"type":"LineString","properties":{"source":"openstreetmap.org","bus_network":"pap_taptap","bus_shield_text":null,"sort_rank":380,"kind_detail":"primary","min_zoom":8.0,"kind":"major_road"},"arcs":[89]},{"type":"MultiLineString","properties":{"source":"openstreetmap.org","kind":"major_road","network":null,"sort_rank":380,"kind_detail":"primary","min_zoom":8.0,"shield_text":"3"},"arcs":[[90],[91]]},{"type":"MultiLineString","properties":{"kind":"major_road","network":null,"sort_rank":380,"kind_detail":"primary","source":"openstreetmap.org","min_zoom":8.0,"shield_text":"3","ref":"RN 3"},"arcs":[[92],[93],[94],[95],[96],[97],[98],[99],[100],[101],[102],[103],[104],[105],[106],[107]]},{"type":"LineString","properties":{"kind":"major_road","network":null,"sort_rank":380,"kind_detail":"primary","source":"openstreetmap.org","min_zoom":8.0,"landuse_kind":"urban_area","loc_name":"Grand Rue","ref":"RN 2","id":134067834,"shield_text":"2"},"arcs":[108]},{"type":"LineString","properties":{"source":"openstreetmap.org","kind":"major_road","sort_rank":380,"kind_detail":"primary","ref":"48","min_zoom":8.0},"arcs":[109]},{"type":"MultiLineString","properties":{"kind":"major_road","network":null,"sort_rank":380,"kind_detail":"primary","source":"openstreetmap.org","min_zoom":8.0,"shield_text":"4","ref":"RN 4"},"arcs":[[110],[111],[112],[113],[114]]}]},"earth":{"type":"GeometryCollection","geometries":[{"type":"MultiPolygon","properties":{"sort_rank":10,"source":"naturalearthdata.com","min_zoom":0.0,"kind":"earth","area":38191100266},"arcs":[[[115]],[[116]]]},{"type":"Point","properties":{"label_placement":true,"name:pt":"Ilha de la Gon\u00e2ve","name:ja":"\u30b4\u30ca\u30fc\u30d6\u5cf6","name:lt":"Gonavo sala","name:ko":"\ub77c\uace0\ub098\ube0c \uc12c","name:eo":"Gonavo","min_zoom":8.0,"name:it":"Isola de la Gon\u00e2ve","old_name":"\u00cele de la Gona\u00efve","name:ru":"\u043e\u0441\u0442\u0440\u043e\u0432 \u0413\u043e\u043d\u0430\u0432","name:pl":"Gon\u00e2ve","name:hu":"La Gon\u00e2ve-sziget","id":-7165492,"name:ca":"La Gon\u00e2ve","name:el":"\u0393\u03ba\u03bf\u03bd\u03ac\u03b9\u03b2","kind":"island","name:en":"Gon\u00e2ve Island","name":"\u00cele de la Gon\u00e2ve","area":764697024,"old_name:it":"Isola de la Gona\u00efve","name:ht":"Lagonav","old_name:pt":"Ilha de la Gona\u00efve","source":"openstreetmap.org","osm_relation":true,"name:nn":"Gon\u00e2ve\u00f8ya","name:zh":"\u6208\u7d0d\u592b\u5cf6","name:es":"Isla de la Gon\u00e2ve"},"coordinates":[315,2623]}]},"landuse":{"type":"GeometryCollection","geometries":[{"type":"Polygon","properties":{"source":"openstreetmap.org","kind":"park","area":71940704,"tier":2,"id":219956776,"min_zoom":8.0,"sort_rank":24},"arcs":[[117]]},{"type":"Polygon","properties":{"kind":"park","area":1500610048,"sort_rank":24,"source":"openstreetmap.org","min_zoom":4.0,"tier":2,"id":-3569104,"osm_relation":true},"arcs":[[118]]},{"type":"Polygon","properties":{"source":"naturalearthdata.com","kind":"urban_area","name":"","area":30701774,"sort_rank":11,"min_zoom":4.0,"id":4048},"arcs":[[119]]},{"type":"Polygon","properties":{"kind":"park","natural":"nature_reserve","area":17174000,"sort_rank":24,"source":"openstreetmap.org","min_zoom":8.0,"tier":2,"id":399104258},"arcs":[[120]]},{"type":"MultiPolygon","properties":{"source":"openstreetmap.org","kind":"residential","tier":2,"area":132434664,"sort_rank":20,"min_zoom":8.0},"arcs":[[[121]]]},{"type":"Polygon","properties":{"kind":"park","area":14102300,"sort_rank":24,"source":"openstreetmap.org","min_zoom":8.0,"tier":2,"id":-4098444,"osm_relation":true},"arcs":[[122]]},{"type":"Polygon","properties":{"source":"openstreetmap.org","kind":"park","area":720516992,"tier":2,"id":398735108,"min_zoom":6.0,"sort_rank":24},"arcs":[[123]]}]}},"type":"Topology","transform":{"translate":[-73.125,17.9787330956],"scale":[0.0003433228,0.0003252955]},"arcs":[[[3979,162],[43,67],[26,130],[-42,51],[7,114],[-20,-22],[-35,80],[-50,3],[-14,36],[202,370]],[[4096,1139],[-223,91],[-23,42],[-78,20],[-41,93],[-176,86],[-27,86],[96,15],[0,42],[-216,232],[-30,74],[-125,67],[75,34],[47,63],[118,-67],[51,44],[81,-68],[35,32],[155,-21],[24,15],[8,153],[54,21],[6,43],[133,49],[46,253],[0,228],[-44,-1],[-5,40],[-85,48],[-38,147],[-63,0],[-67,29],[11,15],[-30,-19],[-12,23],[-9,-36],[-27,15],[-17,-27],[-18,26],[2,-46],[-46,2],[-11,-22],[-19,54],[32,-5],[21,73],[34,-13],[13,48],[22,-4],[32,43],[17,-36],[84,36],[2,-30],[28,-8],[-6,46],[43,14],[-19,15],[32,42],[28,-14],[29,61],[34,-9],[62,43]],[[4096,3968],[-20,27],[-18,-50],[-21,51],[-24,-14],[-22,19],[-31,95]],[[3840,0],[139,162]],[[0,350],[689,-159],[2303,203],[227,-18],[124,-32],[352,-344]],[[513,4096],[-30,-373],[-180,-365],[-303,43]],[[3959,4096],[30,-94],[24,-20],[25,13],[17,-48],[22,48],[19,-27]],[[331,750],[-32,6],[17,37],[-40,9],[0,37],[-33,25],[11,30],[-42,53],[28,41],[-49,8],[-32,86],[-27,-6],[-90,101],[-42,-8]],[[352,634],[-15,67],[24,2],[-29,6],[-1,41]],[[336,636],[13,-2]],[[0,659],[203,-36],[133,13]],[[349,634],[3,0]],[[2215,2727],[314,-27],[29,45],[-8,114],[72,146],[-39,43],[1,98],[-31,76],[78,164],[-49,60],[-6,49],[61,47],[-103,93],[-27,93],[20,47],[-24,28],[70,50],[10,117],[102,93]],[[2685,4063],[7,33]],[[1200,2977],[9,-15],[90,97],[62,-20],[86,30],[267,-61],[119,5],[84,-102],[91,-7],[207,-177]],[[1145,4096],[37,-15],[-42,3],[4,-32],[17,21],[33,-21],[-18,-37],[-40,28],[-35,-49],[-80,14],[23,-30],[-10,-18],[-14,20],[-2,-91],[-30,-33],[28,-20],[21,53],[49,-33],[-43,-2],[-37,-39],[-1,18],[-57,-13],[109,-174],[180,-112],[-7,-60],[-80,-62],[-119,15],[-103,-39],[-51,-75],[37,-78],[139,-51],[70,-67],[35,-121],[42,-19]],[[1124,4096],[3,0]],[[3989,3996],[-60,-35],[4,-24],[-208,22],[-57,41],[-102,-14],[-39,93],[-110,17]],[[3196,4096],[-195,-137],[-70,-4],[-47,-32],[-58,12],[-13,74],[-128,54]],[[2215,2727],[132,-167],[109,15],[27,-38],[-19,-20],[178,-73],[70,-69],[-21,-29],[33,-56],[124,-89],[58,36],[104,12],[53,81],[15,-49],[70,-5],[79,15],[22,40],[12,-22],[80,13],[20,39],[131,-24],[95,-60],[117,-2],[143,-103],[54,21],[6,43],[133,49],[46,253],[0,228],[-44,-1],[-5,40],[-85,48],[-38,147],[-63,0],[-67,29],[11,15],[-30,-19],[-12,23],[-9,-36],[-27,15],[-17,-27],[-18,26],[2,-46],[-46,2],[-11,-22],[-20,52],[33,-3],[21,73],[34,-13],[13,48],[22,-4],[32,43],[17,-36],[84,36],[2,-30],[28,-8],[-6,46],[43,14],[-19,15],[32,42],[28,-14],[29,61],[34,-9],[62,43]],[[4096,3968],[-20,27],[-18,-50],[-21,51],[-48,0]],[[3989,3996],[-29,100]],[[331,750],[-4,174],[52,82],[-1,42],[-69,81],[23,45],[-42,43],[5,39],[-139,-5],[63,122],[-12,24],[27,13],[-29,75]],[[205,1485],[-110,-55],[-95,70]],[[0,1506],[0,3]],[[0,1514],[0,4]],[[0,1522],[0,2]],[[0,2583],[73,-58],[72,-13],[114,-116],[107,-37],[211,-8],[127,-51],[130,-11],[7,-57],[39,-35],[47,39],[-29,66],[68,27],[-47,150],[-62,93],[-69,51],[23,14],[-267,65],[-351,208],[-193,33]],[[1170,4096],[27,-55],[-34,6],[-47,-2],[-46,-9],[-32,-16],[-19,-28],[-32,-71],[-29,-27],[-2,-16],[3,-6],[-2,-5],[-20,-15],[18,-48],[70,-124],[31,-39],[48,-29],[53,-20],[43,-30],[17,-58],[-27,-45],[-62,-21],[-112,-7],[-123,-50],[14,-79],[305,-330],[55,-28],[50,-16],[61,-39],[58,-47],[41,-43],[150,-232],[24,-59],[25,-27],[100,-61],[70,8],[57,-44],[52,-64],[59,-51],[35,-11],[70,-2],[36,-6],[133,-65],[26,-19],[16,-37],[-11,-23],[-22,-25],[-20,-41],[-5,-35],[5,-187],[-7,-72],[-24,-51],[-51,-14],[-28,16],[-60,68],[-10,4],[-5,8],[-9,7],[-18,4],[-10,-6],[-5,-15],[-7,-14],[-18,-7],[-486,44],[-92,-21],[-71,-88],[-49,-108],[-58,-95],[-79,-67],[-112,-26],[-207,36],[-43,18],[-51,0],[-78,-28],[-56,-11],[15,50],[-252,61],[-205,-36],[-73,-13],[-49,3],[-44,17],[-35,20],[0,1064],[255,-166],[93,-22],[89,-7],[259,-58],[66,-5],[22,-6],[25,-22],[26,-55],[21,-19],[31,13],[34,61],[8,78],[-10,79],[-22,67],[-85,104],[-207,87],[-222,113],[-199,65],[-184,77],[0,1146],[1170,0]],[[4096,120],[0,-120],[-4096,0],[0,649],[23,-4],[77,4],[307,-34],[110,-30],[103,-40],[76,-45],[79,31],[161,-16],[80,52],[21,-15],[17,-5],[44,-3],[-6,14],[-8,35],[-6,14],[70,-5],[343,32],[44,-8],[80,-31],[34,1],[27,30],[-20,118],[16,12],[35,-13],[59,-31],[228,42],[425,5],[303,-2],[232,39],[114,0],[94,-37],[95,-50],[229,-79],[103,-64],[88,-81],[204,-266],[48,-33],[162,-62],[5,-4]],[[4096,1496],[-5,7],[-15,14],[-106,59],[-84,16],[-37,12],[-29,46],[-19,48],[1,31],[49,-27],[61,-53],[62,15],[58,53],[49,59],[15,9],[0,-289]],[[3428,1697],[49,-71],[76,-50],[-47,-20],[-66,-17],[-60,-2],[-26,27],[-23,59],[-52,31],[-61,21],[-47,27],[-67,109],[-13,104],[38,93],[84,76],[24,-21],[12,-30],[3,-87],[10,-48],[24,-24],[33,-19],[35,-27],[37,-58],[37,-73]],[[0,2566],[255,-166],[93,-22],[89,-7],[259,-58],[66,-5],[22,-6],[25,-22],[26,-55],[21,-19],[31,13],[34,61],[8,78],[-10,79],[-22,67],[-85,104],[-207,87],[-222,113],[-199,65],[-184,77]],[[1170,4096],[27,-55],[-34,6],[-47,-2],[-46,-9],[-32,-16],[-19,-28],[-32,-71],[-29,-27],[-2,-16],[3,-6],[-2,-5],[-20,-15],[18,-48],[70,-124],[31,-39],[48,-29],[53,-20],[43,-30],[17,-58],[-27,-45],[-62,-21],[-112,-7],[-123,-50],[14,-79],[305,-330],[55,-28],[50,-16],[61,-39],[58,-47],[41,-43],[150,-232],[24,-59],[25,-27],[100,-61],[70,8],[57,-44],[52,-64],[59,-51],[35,-11],[70,-2],[36,-6],[133,-65],[26,-19],[16,-37],[-11,-23],[-22,-25],[-20,-41],[-5,-35],[5,-187],[-7,-72],[-24,-51],[-51,-14],[-28,16],[-60,68],[-10,4],[-5,8],[-9,7],[-18,4],[-10,-6],[-5,-15],[-7,-14],[-18,-7],[-486,44],[-92,-21],[-71,-88],[-49,-108],[-58,-95],[-79,-67],[-112,-26],[-207,36],[-43,18],[-51,0],[-78,-28],[-56,-11],[15,50],[-252,61],[-205,-36],[-73,-13],[-49,3],[-44,17],[-35,20]],[[0,649],[23,-4],[77,4],[307,-34],[110,-30],[103,-40],[76,-45],[79,31],[161,-16],[80,52],[21,-15],[17,-5],[44,-3],[-6,14],[-8,35],[-6,14],[70,-5],[343,32],[44,-8],[80,-31],[34,1],[27,30],[-20,118],[16,12],[35,-13],[59,-31],[228,42],[425,5],[303,-2],[232,39],[114,0],[94,-37],[95,-50],[229,-79],[103,-64],[88,-81],[204,-266],[48,-33],[162,-62],[5,-4]],[[4096,1496],[-5,7],[-15,14],[-106,59],[-84,16],[-37,12],[-29,46],[-19,48],[1,31],[49,-27],[61,-53],[62,15],[58,53],[49,59],[15,9]],[[3428,1697],[49,-71],[76,-50],[-47,-20],[-66,-17],[-60,-2],[-26,27],[-23,59],[-52,31],[-61,21],[-47,27],[-67,109],[-13,104],[38,93],[84,76],[24,-21],[12,-30],[3,-87],[10,-48],[24,-24],[33,-19],[35,-27],[37,-58],[37,-73]],[[559,2693],[123,-36]],[[631,2640],[50,17],[109,-35]],[[2724,2081],[-206,-29],[-20,-30]],[[2611,1833],[365,-80]],[[2980,1750],[84,-44],[206,-20],[176,-119],[136,33],[45,-26]],[[3710,1587],[-56,-8]],[[3903,771],[3,-5]],[[1426,1454]],[[2119,1743],[-10,3]],[[2109,1746],[-44,10]],[[2065,1756],[-2,0],[-23,-16],[-3,-13]],[[2037,1727],[26,28],[1,1],[1,0]],[[2065,1756],[5,2],[39,-12]],[[2109,1746],[10,-3]],[[2120,1742],[22,-21]],[[2137,1726],[-17,17]],[[2155,1711],[12,-10]],[[2168,1701],[-13,10]],[[2119,1742],[1,1],[-1,0]],[[2119,1743],[0,-1]],[[2142,1721],[1,0],[0,1],[-1,-1]],[[0,1216],[87,37],[-8,45]],[[78,1300],[57,99]],[[135,1399],[1,3]],[[135,1402],[0,-3]],[[137,1402],[42,-11]],[[258,1373],[267,-27],[150,19],[25,-23],[141,75],[125,-73],[193,21],[160,82],[107,7],[29,147],[38,39],[150,61],[218,38],[379,-34]],[[2240,1705],[27,9]],[[2604,1839],[-25,20]],[[1242,3513],[0,6]],[[2267,1714],[3,11]],[[2281,1771],[96,83]],[[2579,1859],[-126,58]],[[2976,1753],[4,-3]],[[383,1499],[189,-25],[181,-71]],[[2142,1722],[-5,4]],[[2143,1721],[6,-6],[6,-4]],[[2155,1711],[-12,10]],[[78,1300],[1,-2]],[[179,1391],[79,-18]],[[2426,2096],[-126,89],[-33,61],[-275,126],[-419,302],[-180,211],[-173,100],[-57,59],[-51,141],[63,227],[57,36],[10,65]],[[1242,3519],[99,92],[141,-10],[49,51],[-19,444]],[[2377,1854],[69,48]],[[2426,2096],[7,-5]],[[2446,1904],[51,121],[-64,66]],[[3627,1574],[27,5]],[[4087,1351],[-130,19],[-118,70],[-129,147]],[[2446,1902],[0,2]],[[141,1404],[-4,0]],[[135,1403],[1,-1],[1,1],[-1,1],[-1,-1]],[[2276,1749],[5,22]],[[4096,1350],[-9,1]],[[2604,1839],[7,-6]],[[2964,2609],[0,-1],[1,1],[-1,0]],[[3002,2632],[0,1],[0,-1]],[[2722,2077],[-40,-44],[-78,-194]],[[2722,2077],[2,3]],[[2724,2080],[2,2]],[[2724,2081],[-2,-4]],[[2724,2081],[4,3]],[[2725,2080],[-1,0]],[[2724,2080],[0,1]],[[2964,2608],[5,-62],[-38,-82],[-141,-144],[46,-88],[-21,-89],[-36,18],[-51,-77]],[[2964,2608]],[[2964,2609],[0,-1]],[[2965,2608],[34,3],[2,21]],[[2995,4096],[69,-58],[31,11],[101,-127],[29,-255],[42,-96],[5,-60],[-23,-34],[38,-106],[61,-54],[32,-121],[38,-31],[-3,-26],[-109,-29],[25,-47],[-36,-5],[-35,-46],[32,-91],[-145,-85],[-77,17],[-36,-114],[2,-75],[-33,-31]],[[3001,2632],[1,0]],[[3002,2633],[-1,-1]],[[3003,2633],[-1,0]],[[3003,2633]],[[2270,1725],[6,24]],[[3710,1587],[34,18],[-37,167],[190,-51],[24,-41],[93,2],[34,132],[48,-10]],[[1426,1454]],[[1426,1454]],[[1426,1454]],[[1426,1454]],[[1426,1454],[-3,-37],[-30,-4],[20,-116],[133,-68],[14,21],[19,-43],[-19,-21],[30,-11],[-21,-47],[37,-33],[-38,-95],[142,-208]],[[887,2219],[-31,-13],[-21,19],[-26,55],[-25,22],[-22,6],[-66,5],[-259,58],[-89,7],[-93,22],[-255,166],[0,384],[184,-77],[199,-65],[222,-113],[207,-87],[85,-104],[22,-67],[10,-79],[-8,-78],[-34,-61]],[[4096,4096],[0,-3976],[-5,4],[-162,62],[-48,33],[-204,266],[-88,81],[-103,64],[-229,79],[-95,50],[-94,37],[-114,0],[-232,-39],[-303,2],[-425,-5],[-228,-42],[-59,31],[-35,13],[-16,-12],[20,-118],[-27,-30],[-34,-1],[-80,31],[-44,8],[-343,-32],[-70,5],[6,-14],[8,-35],[6,-14],[-44,3],[-17,5],[-21,15],[-80,-52],[-161,16],[-79,-31],[-76,45],[-103,40],[-110,30],[-307,34],[-77,-4],[-23,4],[0,853],[35,-20],[44,-17],[49,-3],[73,13],[205,36],[252,-61],[-15,-50],[56,11],[78,28],[51,0],[43,-18],[207,-36],[112,26],[79,67],[58,95],[49,108],[71,88],[92,21],[486,-44],[18,7],[7,14],[5,15],[10,6],[18,-4],[9,-7],[5,-8],[10,-4],[60,-68],[28,-16],[51,14],[24,51],[7,72],[-5,187],[5,35],[20,41],[22,25],[11,23],[-16,37],[-26,19],[-133,65],[-36,6],[-70,2],[-35,11],[-59,51],[-52,64],[-57,44],[-70,-8],[-100,61],[-25,27],[-24,59],[-150,232],[-41,43],[-58,47],[-61,39],[-50,16],[-55,28],[-305,330],[-14,79],[123,50],[112,7],[62,21],[27,45],[-17,58],[-43,30],[-53,20],[-48,29],[-31,39],[-70,124],[-18,48],[20,15],[2,5],[-3,6],[2,16],[29,27],[32,71],[19,28],[32,16],[46,9],[47,2],[34,-6],[-27,55],[2926,0]],[[2179,1055],[35,99],[212,-38],[12,52],[76,11],[76,-30],[255,-17],[-2,-39],[-125,-25],[-65,12],[-107,-24],[-97,23],[-77,-28],[-193,4]],[[3987,93],[89,66],[20,-5],[0,-154],[-69,0],[-20,17],[-20,76]],[[2281,1896],[88,-29],[40,-63],[8,-89],[-157,10],[21,171]],[[4031,1583],[65,9],[0,-25],[-65,16]],[[1412,3190],[37,86],[24,-39],[5,21],[46,-11],[9,-63],[-49,-45],[-58,16],[-14,35]],[[4037,1584],[59,6],[0,-20],[-59,14]],[[3865,1282],[13,133],[49,-46],[169,-19],[0,-205],[-200,92],[-31,45]]]}