{"objects":{"water":{"type":"GeometryCollection","geometries":[{"type":"MultiPolygon","properties":{"source":"naturalearthdata.com","kind":"ocean","area":1576712559132672,"sort_rank":200,"min_zoom":0.0,"id":1},"arcs":[[[2],[3],[4],[5]],[[6]]]},{"type":"LineString","properties":{"source":"naturalearthdata.com","kind":"ocean","sort_rank":205,"boundary":true,"min_zoom":0.0,"id":2662},"arcs":[7]},{"type":"LineString","properties":{"source":"naturalearthdata.com","kind":"ocean","sort_rank":205,"boundary":true,"min_zoom":0.0,"id":2663},"arcs":[8]},{"type":"MultiLineString","properties":{"source":"naturalearthdata.com","kind":"ocean","sort_rank":205,"boundary":true,"min_zoom":0.0,"id":2664},"arcs":[[9],[10],[11]]},{"type":"LineString","properties":{"source":"naturalearthdata.com","kind":"ocean","sort_rank":205,"boundary":true,"min_zoom":0.0,"id":2823},"arcs":[12]},{"type":"MultiLineString","properties":{"source":"naturalearthdata.com","kind":"ocean","sort_rank":205,"boundary":true,"min_zoom":0.0,"id":2914},"arcs":[[13],[14],[15],[16]]},{"type":"LineString","properties":{"source":"naturalearthdata.com","kind":"ocean","sort_rank":205,"boundary":true,"min_zoom":0.0,"id":3848},"arcs":[17]}]},"buildings":{"type":"GeometryCollection","geometries":[]},"places":{"type":"GeometryCollection","geometries":[]},"transit":{"type":"GeometryCollection","geometries":[]},"pois":{"type":"GeometryCollection","geometries":[]},"boundaries":{"type":"GeometryCollection","geometries":[{"type":"LineString","properties":{"name:ps":"\u0686\u06d0\u0644\u064a","name:ka":"\u10e9\u10d8\u10da\u10d4","name:ko":"\uce60\ub808","name:kn":"\u0c9a\u0cbf\u0cb2\u0cbf","name:kk":"\u0427\u0438\u043b\u0438","name:tt":"\u0427\u0438\u043b\u0438","name:co":"Cile","name:kv":"\u0427\u0438\u043b\u0438","name:ku":"\u015e\u00eele","name:pa":"\u0a1a\u0a3f\u0a32\u0a47","name:os":"\u0427\u0438\u043b\u0438","name:or":"\u0b1a\u0b3f\u0b32\u0b3f","name:ce":"\u0427\u0438\u043b\u0438","name:ta":"\u0b9a\u0bbf\u0bb2\u0bbf","name:tg":"\u0427\u0438\u043b\u0435","name:ca":"Xile","name:te":"\u0c1a\u0c3f\u0c32\u0c40","source":"openstreetmap.org","sort_rank":262,"name:qu":"Chili","name:ba":"\u0427\u0438\u043b\u0438","name:tr":"\u015eili","name:nv":"Ch\u00edilii","name:cv":"\u0427\u0438\u043b\u0438","name:dv":"\u0797\u07a8\u078d\u07a9","name:lv":"\u010c\u012ble","name:lt":"\u010cil\u0117","name:uz":"Chili","name:he":"\u05e6'\u05d9\u05dc\u05d4","name:eo":"\u0108ilio","name:ur":"\u0686\u0644\u06cc","name:la":"Chilia","name:uk":"\u0427\u0438\u043b\u0456","name:hy":"\u0549\u056b\u056c\u056b","name:ug":"\u0686\u0649\u0644\u0649","name:li":"Chili","name:ln":"Shili","name:el":"\u03a7\u03b9\u03bb\u03ae","kind":"country","name":"Chile","name:tk":"\u00c7ili","name:zh":"\u667a\u5229","min_zoom":8.0,"name:th":"\u0e1b\u0e23\u0e30\u0e40\u0e17\u0e28\u0e0a\u0e34\u0e25\u0e35","name:eu":"Txile","name:et":"T\u0161iili","name:yo":"Ts\u00edl\u00e8","name:ay":"Chili","name:mt":"\u010aili","name:az":"\u00c7ili","name:id":"Chili","name:mr":"\u091a\u093f\u0932\u0940","name:ar":"\u062a\u0634\u064a\u0644\u064a","name:my":"\u1001\u103b\u102e\u101c\u102e\u1015\u103c\u100a\u103a\u101e\u1030\u1037\u101e\u1019\u1039\u1019\u1010\u1014\u102d\u102f\u1004\u103a\u1004\u1036","name:io":"Chili","name:is":"S\u00edle","name:am":"\u127a\u120c","name:it":"Cile","name:ru":"\u0427\u0438\u043b\u0438","name:ml":"\u0d1a\u0d3f\u0d32\u0d3f","name:rw":"Shili","name:mi":"Hiri","id":-167454,"name:mk":"\u0427\u0438\u043b\u0435","name:af":"Chili","name:fa":"\u0634\u06cc\u0644\u06cc","name:ab":"\u0427\u0438\u043b\u0438","name:ss":"IShile","kind_detail":"2","name:hi":"\u091a\u093f\u0932\u0940","name:fo":"Kili","name:fr":"Chili","name:ky":"\u0427\u0438\u043b\u0438","name:zh-yue":"\u667a\u5229","name:fy":"Sily","name:vo":"Cil\u00e4n","name:mn":"\u0427\u0438\u043b\u0438","name:hr":"\u010cile","name:so":"Jili","name:sl":"\u010cile","name:nl":"Chili","name:ja":"\u30c1\u30ea","name:si":"\u0da0\u0dd2\u0dbd\u0dd2 \u0da2\u0db1\u0dbb\u0da2\u0dba","name:sh":"\u010cile","name:na":"Tsire","name:sc":"Cile","name:ne":"\u091a\u093f\u0932\u0940","name:sa":"\u091a\u093f\u0932\u0947","name:bs":"\u010cile","name:yi":"\u05d8\u05e9\u05d9\u05dc\u05e2","name:wa":"Tchili","name:bo":"\u0f45\u0f72\u0f0b\u0f63\u0f72\u0f0d","name:sk":"\u010cile","name:jv":"Chili","name:be":"\u0427\u044b\u043b\u0456","name:su":"Chili","name:bg":"\u0427\u0438\u043b\u0438","name:wo":"Sili","name:sr":"\u0427\u0438\u043b\u0435","osm_relation":true,"name:sq":"Kilia","name:ga":"An tSile","name:gd":"An t-Sile","name:ht":"Chili","name:bn":"\u099a\u09bf\u09b2\u09bf","maritime_boundary":true,"name:gv":"Yn \u00c7hillee","name:gu":"\u0a9a\u0ac0\u0ab2\u0ac0"},"arcs":[0]},{"type":"LineString","properties":{"kind":"region","name:en":"XII Region of Magallanes and Chilean Antarctica","name":"XII Regi\u00f3n de Magallanes y de la Ant\u00e1rtica Chilena","sort_rank":256,"kind_detail":"4","min_zoom":8.0,"name:de":"XII Region von Magellan und der chilenischen Antarktis","source":"openstreetmap.org","maritime_boundary":true,"name:ru":"XII \u041c\u0430\u0433\u0430\u043b\u044c\u044f\u043d\u0435\u0441-\u0438-\u043b\u0430-\u0410\u043d\u0442\u0430\u0440\u043a\u0442\u0438\u043a\u0430-\u0427\u0438\u043b\u0435\u043d\u0430","id":-301542,"osm_relation":true},"arcs":[1]}]},"roads":{"type":"GeometryCollection","geometries":[{"type":"LineString","properties":{"sort_rank":355,"source":"openstreetmap.org","min_zoom":8.0,"name":"Yaghan Ferry (Punta Arenas - Yendegaia - Puerto Williams)","kind":"ferry"},"arcs":[18]}]},"earth":{"type":"GeometryCollection","geometries":[{"type":"MultiPolygon","properties":{"sort_rank":10,"source":"naturalearthdata.com","min_zoom":0.0,"kind":"earth","area":16156006820},"arcs":[[[19]],[[20]],[[21]],[[22]],[[23]],[[24]],[[25]],[[26]]]},{"type":"Point","properties":{"label_placement":true,"kind":"island","name":"Isla Guardi\u00e1n Brito","area":668988992,"source":"openstreetmap.org","min_zoom":8.0,"id":-5449361,"osm_relation":true},"coordinates":[2310,4030]}]},"landuse":{"type":"GeometryCollection","geometries":[{"type":"MultiPolygon","properties":{"source":"openstreetmap.org","kind":"park","tier":2,"area":627263084,"sort_rank":24,"min_zoom":7.0,"osm_relation":true},"arcs":[[[27]],[[28]]]},{"type":"MultiPolygon","properties":{"source":"openstreetmap.org","kind":"park","tier":2,"area":2486814704,"sort_rank":24,"min_zoom":6.0,"osm_relation":true},"arcs":[[[29]],[[30]],[[31]]]},{"type":"MultiPolygon","properties":{"source":"openstreetmap.org","kind":"park","tier":2,"area":1069484821,"sort_rank":24,"min_zoom":8.0,"osm_relation":true},"arcs":[[[32]],[[33]],[[34]],[[35]],[[36]],[[37]],[[38]],[[39]],[[40]],[[41]],[[42]],[[43]],[[44]],[[45]],[[46]],[[47]],[[48]],[[49]]]},{"type":"MultiPolygon","properties":{"source":"openstreetmap.org","kind":"park","tier":2,"area":14757133910,"sort_rank":24,"min_zoom":4.0,"osm_relation":true},"arcs":[[[50]],[[51]],[[52]],[[53]],[[54]],[[55]]]}]}},"type":"Topology","transform":{"translate":[-73.125,-54.9776136707],"scale":[0.0003433228,0.0001990185]},"arcs":[[[0,750],[2668,-433],[430,-317]],[[0,750],[2668,-433],[430,-317]],[[4096,1887],[0,-1887],[-4096,0],[0,4096],[2248,0],[-45,-26],[-147,-3],[-61,-16],[-155,-96],[-64,-59],[99,-66],[-25,-62],[-14,-22],[-21,-19],[0,-35],[80,-51],[40,-15],[49,-5],[51,12],[25,30],[21,45],[36,53],[57,27],[88,-129],[83,-38],[54,28],[9,63],[-14,118],[18,73],[14,15],[26,-12],[52,-10],[43,24],[3,57],[-12,67],[-3,52],[459,0],[159,-171],[80,-29],[164,-14],[82,-38],[74,-83],[-92,-84],[-74,-261],[-75,-101],[50,-37],[64,-9],[127,9],[57,-17],[59,-32],[56,-15],[47,33],[-58,56],[-22,12],[0,31],[23,12],[57,60],[-91,44],[-29,25],[37,22],[33,33],[23,48],[7,69],[56,-26],[128,-23],[34,-20],[51,84],[0,77],[-37,57],[-120,53],[-40,74],[-34,89],[-36,72],[192,0],[12,-8],[15,8],[123,0],[0,-1251],[-18,30],[-71,42],[-66,18],[-42,-16],[-23,-33],[-13,-36],[-12,-21],[-32,-8],[-107,8],[22,-23],[18,-29],[12,-37],[8,-45],[-48,1],[-19,-25],[7,-43],[29,-57],[29,-15],[143,-36],[66,21],[62,32],[55,13],[0,-239],[-86,-2],[23,-37],[63,-137],[0,-100],[-225,103],[-104,13],[-53,21],[-22,54],[-7,74],[-17,57],[-57,93],[-78,34],[-9,16],[-7,22],[-11,21],[-60,21],[-92,58],[-84,-53],[36,-98],[146,-162],[-33,-5],[-51,7],[-52,20],[-34,33],[-17,5],[-11,-32],[3,-39],[25,-20],[50,-72],[-25,-41],[-21,-42],[-12,-52],[-1,-67],[156,109],[44,-6],[-60,-69],[19,-29],[101,-5],[30,8],[23,15],[12,-5],[-5,-56],[-12,-30],[-20,-27],[-48,-45],[13,-17],[27,-52],[-63,29],[-50,12],[-49,-9],[-59,-32],[22,-101],[34,-70],[51,-37],[74,-1],[140,38],[62,-2],[78,-36],[40,32],[13,40],[-8,48],[-27,55],[73,-16],[93,2],[56,43],[-41,108],[43,-11],[61,-36]],[[3506,1369],[-23,51],[-51,-38],[-26,72],[-32,42],[-36,34],[-37,44],[-58,123],[-23,35],[-25,18],[-28,4],[-99,-14],[-56,-24],[-39,-44],[10,-66],[38,-67],[22,-16],[41,-4],[8,22],[-7,48],[5,49],[42,21],[27,-15],[20,-38],[34,-87],[88,-119],[16,-44],[-4,-38],[-17,-32],[-23,-30],[-24,-51],[7,-45],[28,-32],[37,-11],[44,6],[47,14],[44,28],[35,45],[16,71],[-1,88]],[[499,2617],[-11,51],[-45,8],[-187,-57],[-51,1],[-67,-74],[-60,-75],[36,-46],[84,10],[53,36],[76,-21],[69,-29],[40,44],[29,102],[34,50]],[[1961,2810],[48,207],[67,52],[13,-10],[10,-22],[13,-23],[24,-10],[90,0],[12,19],[-16,43],[-26,47],[-23,27],[68,15],[80,-53],[66,-25],[25,98],[-13,65],[-30,19],[-82,-12],[-1,0],[-50,15],[-75,68],[-44,16],[-25,28],[-27,10],[-26,-9],[-25,-29],[19,-93],[-60,-25],[-158,19],[7,-90],[-123,32],[26,-101],[90,-153],[70,-149],[21,-23],[55,47]],[[4096,2822],[0,-81],[-46,22],[0,31],[46,28]],[[2248,4096],[-45,-26],[-147,-3],[-61,-16],[-155,-96],[-64,-59],[99,-66],[-25,-62],[-14,-22],[-21,-19],[0,-35],[80,-51],[40,-15],[49,-5],[51,12],[25,30],[21,45],[36,53],[57,27],[88,-129],[83,-38],[54,28],[9,63],[-14,118],[18,73],[14,15],[26,-12],[52,-10],[43,24],[3,57],[-12,67],[-3,52]],[[2287,3247],[-1,0],[-50,15],[-75,68],[-44,16],[-25,28],[-27,10],[-26,-9],[-25,-29],[19,-93],[-60,-25],[-158,19],[7,-90],[-123,32],[26,-101],[90,-153],[70,-149],[21,-23],[55,47],[48,207],[67,52],[13,-10],[10,-22],[13,-23],[24,-10],[90,0],[12,19],[-16,43],[-26,47],[-23,27],[68,15],[80,-53],[66,-25],[25,98],[-13,65],[-30,19],[-82,-12]],[[3233,3896],[164,-14],[82,-38],[74,-83],[-92,-84],[-74,-261],[-75,-101],[50,-37],[64,-9],[127,9],[57,-17],[59,-32],[56,-15],[47,33],[-58,56],[-22,12],[0,31],[23,12],[57,60],[-91,44],[-29,25],[37,22],[33,33],[23,48],[7,69],[56,-26],[128,-23],[34,-20],[51,84],[0,77],[-37,57],[-120,53],[-40,74],[-34,89],[-36,72]],[[3946,4096],[12,-8],[15,8]],[[2994,4096],[159,-171],[80,-29]],[[3432,1382],[-26,72],[-32,42],[-36,34],[-37,44],[-58,123],[-23,35],[-25,18],[-28,4],[-99,-14],[-56,-24],[-39,-44],[10,-66],[38,-67],[22,-16],[41,-4],[8,22],[-7,48],[5,49],[42,21],[27,-15],[20,-38],[34,-87],[88,-119],[16,-44],[-4,-38],[-17,-32],[-23,-30],[-24,-51],[7,-45],[28,-32],[37,-11],[44,6],[47,14],[44,28],[35,45],[16,71],[-1,88],[-23,51],[-51,-38]],[[4096,2741],[-46,22],[0,31],[46,28]],[[4096,2845],[-18,30],[-71,42],[-66,18],[-42,-16],[-23,-33],[-13,-36],[-12,-21],[-32,-8],[-107,8],[22,-23],[18,-29],[12,-37],[8,-45],[-48,1],[-19,-25],[7,-43],[29,-57],[29,-15],[143,-36],[66,21],[62,32],[55,13]],[[4096,2347],[-86,-2],[23,-37],[63,-137]],[[4096,2071],[-225,103],[-104,13],[-53,21],[-22,54],[-7,74],[-17,57],[-57,93],[-78,34],[-9,16],[-7,22],[-11,21],[-60,21],[-92,58],[-84,-53],[36,-98],[146,-162],[-33,-5],[-51,7],[-52,20],[-34,33],[-17,5],[-11,-32],[3,-39],[25,-20],[50,-72],[-25,-41],[-21,-42],[-12,-52],[-1,-67],[156,109],[44,-6],[-60,-69],[19,-29],[101,-5],[30,8],[23,15],[12,-5],[-5,-56],[-12,-30],[-20,-27],[-48,-45],[13,-17],[27,-52],[-63,29],[-50,12],[-49,-9],[-59,-32],[22,-101],[34,-70],[51,-37],[74,-1],[140,38],[62,-2],[78,-36],[40,32],[13,40],[-8,48],[-27,55],[73,-16],[93,2],[56,43],[-41,108],[43,-11],[61,-36]],[[256,2619],[187,57],[45,-8],[11,-51],[-34,-50],[-29,-102],[-40,-44],[-69,29],[-76,21],[-53,-36],[-84,-10],[-36,46],[60,75],[67,74],[51,-1]],[[4096,1114],[-291,209],[-724,681],[-105,169],[-7,80],[195,372],[704,488],[228,8]],[[3243,1697],[58,-123],[37,-44],[36,-34],[32,-42],[26,-72],[51,38],[23,-51],[1,-88],[-16,-71],[-35,-45],[-44,-28],[-47,-14],[-44,-6],[-37,11],[-28,32],[-7,45],[24,51],[23,30],[17,32],[4,38],[-16,44],[-88,119],[-34,87],[-20,38],[-27,15],[-42,-21],[-5,-49],[7,-48],[-8,-22],[-41,4],[-22,16],[-38,67],[-10,66],[39,44],[56,24],[99,14],[28,-4],[25,-18],[23,-35]],[[488,2668],[11,-51],[-34,-50],[-29,-102],[-40,-44],[-69,29],[-76,21],[-53,-36],[-84,-10],[-36,46],[60,75],[67,74],[51,-1],[187,57],[45,-8]],[[2535,4096],[3,-52],[12,-67],[-3,-57],[-43,-24],[-52,10],[-26,12],[-14,-15],[-18,-73],[14,-118],[-9,-63],[-54,-28],[-83,38],[-88,129],[-57,-27],[-36,-53],[-21,-45],[-25,-30],[-51,-12],[-49,5],[-40,15],[-80,51],[0,35],[21,19],[14,22],[25,62],[-99,66],[64,59],[155,96],[61,16],[147,3],[45,26],[287,0]],[[2286,3247],[1,0],[82,12],[30,-19],[13,-65],[-25,-98],[-66,25],[-80,53],[-68,-15],[23,-27],[26,-47],[16,-43],[-12,-19],[-90,0],[-24,10],[-13,23],[-10,22],[-13,10],[-67,-52],[-48,-207],[-55,-47],[-21,23],[-70,149],[-90,153],[-26,101],[123,-32],[-7,90],[158,-19],[60,25],[-19,93],[25,29],[26,9],[27,-10],[25,-28],[44,-16],[75,-68],[50,-15]],[[4096,2071],[0,-184],[-61,36],[-43,11],[41,-108],[-56,-43],[-93,-2],[-73,16],[27,-55],[8,-48],[-13,-40],[-40,-32],[-78,36],[-62,2],[-140,-38],[-74,1],[-51,37],[-34,70],[-22,101],[59,32],[49,9],[50,-12],[63,-29],[-27,52],[-13,17],[48,45],[20,27],[12,30],[5,56],[-12,5],[-23,-15],[-30,-8],[-101,5],[-19,29],[60,69],[-44,6],[-156,-109],[1,67],[12,52],[21,42],[25,41],[-50,72],[-25,20],[-3,39],[11,32],[17,-5],[34,-33],[52,-20],[51,-7],[33,5],[-146,162],[-36,98],[84,53],[92,-58],[60,-21],[11,-21],[7,-22],[9,-16],[78,-34],[57,-93],[17,-57],[7,-74],[22,-54],[53,-21],[104,-13],[225,-103]],[[4096,2347],[0,-176],[-63,137],[-23,37],[86,2]],[[4096,2741],[0,-155],[-55,-13],[-62,-32],[-66,-21],[-143,36],[-29,15],[-29,57],[-7,43],[19,25],[48,-1],[-8,45],[-12,37],[-18,29],[-22,23],[107,-8],[32,8],[12,21],[13,36],[23,33],[42,16],[66,-18],[71,-42],[18,-30],[0,-23],[-46,-28],[0,-31],[46,-22]],[[3754,4096],[36,-72],[34,-89],[40,-74],[120,-53],[37,-57],[0,-77],[-51,-84],[-34,20],[-128,23],[-56,26],[-7,-69],[-23,-48],[-33,-33],[-37,-22],[29,-25],[91,-44],[-57,-60],[-23,-12],[0,-31],[22,-12],[58,-56],[-47,-33],[-56,15],[-59,32],[-57,17],[-127,-9],[-64,9],[-50,37],[75,101],[74,261],[92,84],[-74,83],[-82,38],[-164,14],[-80,29],[-159,171],[760,0]],[[2214,2805],[60,132],[105,1],[69,-49],[8,-39],[-23,0],[-12,-24],[42,20],[2,32],[81,-25],[6,-58],[-54,6],[4,-45],[-35,-22],[120,25],[-13,-43],[46,7],[-12,-48],[34,-27],[-2,-35],[-45,-2],[-1,-22],[26,4],[-26,-23],[-84,1],[-16,-29],[-12,34],[26,-4],[26,48],[-32,51],[-110,63],[-3,-75],[62,-75],[-6,-44],[-42,23],[7,-41],[-19,1],[-107,120],[10,41],[-80,121]],[[2600,2995],[122,69],[59,-17],[25,-40],[46,2],[-6,-49],[61,1],[16,114],[98,15],[3,-33],[-30,-8],[56,-16],[1,-13],[-19,-1],[-19,-98],[26,-37],[-31,-5],[30,-60],[26,1],[-10,-77],[53,-102],[-49,11],[-28,-21],[-64,86],[-30,-1],[0,40],[52,23],[9,60],[-112,9],[15,-55],[-26,-31],[9,-44],[-27,-11],[-76,46],[-17,111],[-11,-46],[-54,15],[44,9],[-6,21],[118,51],[0,11],[-142,-36],[-13,-36],[-99,142]],[[3031,1636],[25,115],[78,96],[55,-16],[-3,-2],[-6,-29],[23,25],[32,-46],[43,0],[123,-130],[29,-63],[33,3],[5,-120],[18,30],[5,-46],[13,4],[0,51],[64,-63],[16,-39],[-27,-45],[11,-28],[-26,10],[-1,-24],[-67,-32],[42,-1],[-7,-61],[-37,54],[-39,-34],[-24,17],[-20,-19],[0,25],[-73,-20],[28,85],[67,3],[-108,29],[5,32],[-10,-26],[-16,15],[27,24],[44,0],[16,33],[-29,31],[42,11],[-37,12],[-43,-59],[-11,35],[30,37],[-1,12],[-28,-28],[-48,37],[-10,48],[20,20],[-53,6],[-11,83],[21,41],[-23,-3],[-11,59],[-16,0],[-19,-68],[33,0],[-13,-156],[-43,-2],[1,27],[-24,0],[3,63],[-19,-6],[-20,37],[-29,-44]],[[1765,3820],[62,119],[31,-26],[134,65],[108,9],[-41,27],[-86,-13],[57,56],[58,3],[22,-36],[29,44],[60,-1],[11,29],[304,0],[-23,-76],[23,-116],[-55,-3],[-31,-47],[-83,23],[-18,39],[-32,-35],[40,-31],[-22,-27],[53,-3],[6,-72],[26,-14],[-2,27],[17,-2],[-17,-55],[-26,17],[-12,-26],[19,-25],[26,32],[-18,-46],[-65,-30],[35,-22],[-15,-22],[-70,8],[-38,66],[16,36],[-38,-24],[14,-33],[-37,-2],[-10,24],[-19,-27],[-20,5],[3,51],[-10,3],[0,-18],[-9,-14],[-6,-1],[-10,46],[30,18],[20,-17],[-36,35],[38,42],[-17,23],[-72,-15],[46,-41],[-40,-87],[-22,-1],[27,-32],[33,5],[-19,-46],[31,28],[34,-30],[58,-2],[33,-39],[-88,-111],[-41,57],[43,61],[-58,-38],[-37,51],[-3,57],[-30,-18],[-39,-107],[-42,12],[-52,66],[-29,-5],[6,16],[-44,-21],[-40,22],[-16,20],[30,61],[-32,22],[43,8],[-17,15],[23,26],[64,-29],[31,15],[-115,51],[-42,46]],[[1685,3164],[59,-3],[100,-100],[-53,117],[26,15],[51,-33],[19,24],[113,16],[42,-32],[53,12],[-56,36],[21,12],[-30,58],[40,16],[131,-24],[0,-33],[-61,-6],[75,-12],[12,-30],[159,29],[36,-5],[18,-33],[-19,-13],[22,-7],[-29,-1],[-20,-60],[-74,-81],[6,43],[-55,44],[-31,69],[-38,-19],[-15,-64],[100,-68],[-12,-16],[-29,19],[3,-44],[-48,13],[-14,-22],[-64,-12],[-16,16],[34,-9],[-12,32],[22,-2],[-50,91],[-30,0],[18,-44],[-50,-30],[-49,63],[-16,-41],[45,-18],[14,-45],[-49,18],[-8,-31],[-79,54],[87,-60],[-15,-40],[54,15],[27,-22],[-30,-25],[-25,15],[-39,-45],[13,-14],[-37,-12],[35,-44],[3,-63],[-3,-35],[-34,-9],[-34,68],[-29,3],[-29,43],[-19,-18],[1,45],[54,20],[11,41],[-54,-7],[6,20],[-62,32],[-3,33],[-42,-1],[-23,53],[6,52],[24,13],[-55,83]],[[3096,2118],[0,57],[41,24],[-21,54],[106,12],[9,-62],[31,-18],[6,-83],[23,9],[15,-28],[103,-59],[40,-37],[-1,-6],[-90,14],[-40,-38],[-36,36],[25,35],[-12,4],[-41,-21],[5,-55],[-50,4],[4,60],[-70,16],[-14,77],[-33,5]],[[3849,2431],[31,14],[-2,-55],[46,35],[30,-45],[-3,-50],[-51,25],[-9,-23],[32,5],[26,-19],[-17,-13],[54,-19],[24,-37],[-26,14],[-13,-32],[-72,57],[-23,-9],[-27,152]],[[3645,1354],[16,14],[52,-32],[19,-77],[17,56],[113,-76],[9,-50],[48,-31],[12,-53],[-20,-42],[-105,45],[-39,60],[-6,-34],[-33,12],[-60,120],[45,51],[-51,-6],[-17,43]],[[4096,1632],[0,-213],[-12,-22],[-34,-9],[21,31],[-6,-1],[-14,15],[-9,3],[6,-38],[-54,2],[16,-19],[-24,-80],[-50,8],[-13,-19],[-1,105],[-28,-8],[-36,44],[50,62],[85,-44],[40,4],[-5,56],[-38,-33],[-41,3],[20,67],[-53,74],[35,59],[114,-12],[31,-35]],[[3287,2999],[42,100],[65,4],[47,-47],[-118,-70],[-36,13]],[[1627,3483],[7,26],[87,38],[-72,0],[37,56],[-23,16],[14,36],[22,-40],[-16,-18],[40,3],[12,-33],[51,19],[11,-30],[88,-9],[-8,-26],[47,-17],[-32,-45],[55,-10],[-9,-19],[19,-5],[-117,-43],[56,49],[-39,18],[-3,-21],[-50,-30],[20,33],[-15,27],[40,-2],[-7,37],[-91,-17],[-52,-41],[23,48],[-54,-28],[5,40],[-46,-12]],[[3015,3602],[81,89],[31,-2],[-4,-37],[71,47],[16,-27],[45,25],[82,-30],[-34,-80],[-33,-16],[10,-30],[-28,-14],[36,-42],[-10,-22],[-12,20],[-159,-4],[-14,91],[-58,-12],[-20,44]],[[2630,3770],[15,65],[91,-8],[10,-48],[-21,-26],[26,10],[10,-110],[-33,-2],[37,-27],[-16,-96],[25,-10],[9,68],[50,-72],[-19,-3],[0,-68],[-44,52],[-26,-65],[60,-19],[-3,-33],[-95,37],[8,44],[-16,-29],[-46,13],[8,66],[27,15],[-49,94],[0,73],[28,16],[-32,7],[-4,56]],[[323,3797],[71,16],[-7,44],[77,78],[68,-30],[46,-59],[-29,-52],[-28,18],[-15,-29],[-48,-7],[-2,-40],[-50,26],[-63,-21],[-20,56]],[[138,4096],[11,-40],[-27,-6],[-2,-43],[-34,-8],[-14,97],[66,0]],[[1594,4096],[-43,-29],[-17,9],[26,20],[34,0]],[[233,3998],[58,71],[49,-22],[-61,-112],[-46,63]],[[30,4096],[1,-25],[-31,10],[0,15],[30,0]],[[1222,3597],[37,74],[35,-6],[71,38],[2,44],[68,-35],[3,-62],[-43,2],[-16,-44],[66,32],[5,-55],[-28,5],[2,-20],[-24,34],[6,-35],[-40,-11],[-45,48],[-6,-59],[-41,-37],[-35,20],[10,39],[-27,28]],[[1246,3317],[76,29],[97,-85],[-100,-31],[0,36],[-67,18],[-6,33]],[[4096,3520],[0,-226],[-49,11],[-7,30],[-24,-6],[20,16],[-56,24],[29,8],[-39,63],[13,43],[113,37]],[[2257,3376],[47,44],[-29,21],[10,15],[100,27],[63,-14],[55,-45],[8,-45],[30,21],[-11,-48],[-56,-22],[68,-76],[-135,-14],[-127,79],[-23,57]],[[3343,2954],[16,28],[97,30],[87,-2],[33,-33],[-28,-44],[-53,-23],[-107,8],[-45,36]],[[4096,1832],[0,-58],[-3,57],[3,1]],[[4096,2134],[0,-200],[-89,29],[-14,-20],[30,-18],[-25,-17],[49,1],[33,-62],[-44,-56],[-9,1],[-12,17],[-7,5],[-33,-33],[-29,40],[-2,-17],[-12,7],[11,37],[-66,21],[-43,114],[-16,8],[18,-99],[-38,1],[-17,20],[-45,15],[-15,-3],[121,-61],[10,-20],[-44,3],[76,-56],[-37,-11],[41,-30],[1,-40],[-45,-20],[-41,17],[-15,-38],[-13,26],[22,27],[-8,2],[-4,-16],[-15,-2],[-13,27],[-58,-1],[-49,53],[-23,-6],[7,-22],[-31,10],[35,-57],[-35,-16],[-181,75],[-72,118],[87,55],[189,-55],[-1,46],[-46,-5],[-22,34],[-4,33],[27,14],[-86,-10],[-45,77],[110,97],[-82,14],[13,-34],[-31,-18],[-20,16],[10,-31],[-45,-23],[-6,-30],[-82,95],[1,24],[45,11],[-10,31],[-46,2],[32,40],[-58,16],[4,39],[-37,-9],[-15,32],[26,14],[-17,23],[41,-39],[12,12],[-5,-28],[40,-15],[16,-47],[86,-40],[-145,178],[17,42],[21,-32],[17,27],[34,-24],[-21,56],[-13,-28],[-13,21],[56,62],[-51,-26],[-37,120],[33,26],[18,-65],[15,3],[14,28],[-18,-19],[-3,29],[64,20],[-41,11],[42,30],[52,-65],[-23,-38],[21,-17],[52,36],[-34,5],[21,25],[34,-6],[-29,10],[-3,8],[47,35],[-1,-34],[39,-10],[-24,-32],[24,-12],[-14,-138],[20,-65],[20,-5],[-8,205],[55,0],[59,-62],[14,16],[2,-29],[-29,-10],[45,-11],[0,-59],[31,-3],[0,76],[-18,-9],[-21,38],[55,-38],[3,29],[13,2],[-3,-99],[-43,-15],[6,-12],[-14,-66],[-9,5],[-13,-4],[-1,4],[28,35],[-45,-15],[-12,-29],[111,-15],[-2,-24],[-90,3],[-12,-10],[105,-12],[16,-33],[-84,18],[48,-49],[24,-13],[18,26],[-7,-24],[37,-20],[-8,47],[119,-20],[61,-27],[-14,-20],[57,-26]],[[4096,2429],[0,-116],[-20,8],[-7,41],[-40,2],[4,29],[-30,-15],[-27,66],[118,-13],[2,-2]],[[4096,2772],[0,-200],[-31,-18],[27,20],[-9,35],[-35,-50],[-13,36],[-4,-50],[-55,8],[-39,42],[-93,-10],[-49,62],[-16,-2],[5,-18],[-3,-6],[-6,1],[-92,63],[-18,45],[84,-31],[-28,39],[76,-26],[14,20],[84,-43],[-6,29],[-90,43],[60,18],[-84,-2],[15,30],[-37,9],[67,27],[144,-16],[-122,35],[56,8],[-29,16],[16,19],[106,-13],[34,29],[43,-6],[19,-9],[-11,-23],[20,-2],[0,-94],[-71,-39],[71,24]],[[3809,4096],[-34,-24],[72,-16],[106,-143],[12,-43],[-79,16],[33,-10],[-14,-29],[85,-4],[66,-105],[15,-77],[-62,-102],[-95,23],[43,-35],[-63,-28],[-46,47],[35,11],[-7,23],[-166,55],[122,-78],[13,-39],[-56,33],[20,-40],[-76,-54],[-59,13],[-19,-28],[-79,-11],[220,7],[-19,-103],[-84,20],[50,-73],[-25,-3],[106,-28],[67,-51],[-56,-33],[-298,20],[-17,26],[62,62],[-25,31],[-61,-23],[34,-41],[-33,3],[-10,-51],[-121,12],[-5,29],[37,-2],[-29,35],[13,45],[81,84],[13,48],[-36,42],[27,7],[-1,25],[-40,26],[28,27],[4,65],[180,62],[-63,43],[25,21],[-23,4],[-17,-21],[19,-39],[-75,35],[-11,-28],[20,-6],[-63,-18],[-31,40],[55,-9],[-77,67],[-12,-36],[20,-33],[-70,-12],[-74,64],[158,26],[3,17],[-20,17],[-47,-34],[-139,20],[80,20],[-33,28],[-113,-34],[9,34],[-79,16],[-93,122],[7,22],[-78,51],[893,0]],[[4016,4096],[2,-32],[-12,-12],[-19,44],[29,0]]]}