{"objects":{"water":{"type":"GeometryCollection","geometries":[{"type":"MultiPolygon","properties":{"source":"naturalearthdata.com","kind":"ocean","area":1576712559132672,"sort_rank":200,"min_zoom":0.0,"id":1},"arcs":[[[376],[377],[378],[379],[380]]]},{"type":"LineString","properties":{"source":"naturalearthdata.com","kind":"ocean","sort_rank":205,"boundary":true,"min_zoom":0.0,"id":26},"arcs":[381]},{"type":"LineString","properties":{"source":"naturalearthdata.com","kind":"ocean","sort_rank":205,"boundary":true,"min_zoom":0.0,"id":1823},"arcs":[382]},{"type":"LineString","properties":{"source":"naturalearthdata.com","kind":"ocean","sort_rank":205,"boundary":true,"min_zoom":0.0,"id":3550},"arcs":[383]}]},"buildings":{"type":"GeometryCollection","geometries":[]},"places":{"type":"GeometryCollection","geometries":[{"type":"Point","properties":{"kind":"region","name:en":"Ishikawa Prefecture","name":"\u77f3\u5ddd\u770c","kind_detail":"province","name:de":"Ishikawa","source":"openstreetmap.org","min_zoom":4.0,"name:uk":"\u041f\u0440\u0435\u0444\u0435\u043a\u0442\u0443\u0440\u0430 \u0406\u0441\u0456\u043a\u0430\u0432\u0430","name:ru":"\u0418\u0441\u0438\u043a\u0430\u0432\u0430","name:pl":"Prefektura Ishikawa","name:hu":"Isikava prefekt\u00fara","id":3463194939,"name:ja":"Ishikawa-ken"},"coordinates":[1323,365]},{"type":"Point","properties":{"kind":"region","name:en":"Toyama","name":"\u5bcc\u5c71\u770c","kind_detail":"province","name:de":"Toyama","source":"openstreetmap.org","min_zoom":4.0,"name:uk":"\u041f\u0440\u0435\u0444\u0435\u043a\u0442\u0443\u0440\u0430 \u0422\u043e\u044f\u043c\u0430","name:ru":"\u0422\u043e\u044f\u043c\u0430","name:pl":"Prefektura Toyama","name:hu":"Tojama prefekt\u00fara","id":3464760713,"name:ja":"\u3068\u3084\u307e\u3051\u3093"},"coordinates":[1615,46]},{"type":"Point","properties":{"admin_level":"4","kind":"region","name:en":"Tochigi","name":"\u6803\u6728\u770c (Tochigi)","kind_detail":"province","source":"openstreetmap.org","min_zoom":4.0,"name:uk":"\u0422\u043e\u0442\u0456\u0491\u0456","name:ru":"\u0422\u043e\u0442\u0438\u0433\u0438","name:pl":"Tochigi","name:hu":"Tochigi prefekt\u00fara","id":1108891359,"name:ja":"\u6803\u6728\u770c"},"coordinates":[3502,75]},{"type":"Point","properties":{"admin_level":"4","kind":"region","name:en":"Fukushima","name":"\u798f\u5cf6\u770c (Fukushima)","kind_detail":"province","source":"openstreetmap.org","min_zoom":4.0,"name:uk":"\u0424\u0443\u043a\u0443\u0441\u0456\u043c\u0430","name:ru":"\u0424\u0443\u043a\u0443\u0441\u0438\u043c\u0430","name:pl":"Fukushima","id":734866112,"name:ja":"\u798f\u5cf6\u770c"},"coordinates":[3717,735]},{"type":"Point","properties":{"kind":"region","name:en":"Aomori","name":"\u9752\u68ee\u770c","kind_detail":"province","min_zoom":4.0,"source":"openstreetmap.org","name:fr":"Pr\u00e9fecture d'Aomori","name:uk":"\u0410\u043e\u043c\u043e\u0440\u0456","name:ru":"\u0410\u043e\u043c\u043e\u0440\u0438","name:pl":"Aomori","id":734876479,"name:ja":"Aomori-ken"},"coordinates":[4071,4009]},{"type":"Point","properties":{"kind":"region","name:en":"Akita","name":"\u79cb\u7530\u770c","kind_detail":"province","min_zoom":4.0,"source":"openstreetmap.org","name:fr":"Pr\u00e9fecture d'Akita","name:uk":"\u0410\u043a\u0456\u0442\u0430","name:ru":"\u0410\u043a\u0438\u0442\u0430","name:pl":"Akita","name:hu":"Akita prefekt\u00fara","id":752195636,"name:ja":"Akita-ken"},"coordinates":[3890,2890]},{"type":"Point","properties":{"kind":"region","name:en":"Yamagata","name":"\u5c71\u5f62\u770c","kind_detail":"province","min_zoom":4.0,"source":"openstreetmap.org","name:fr":"Pr\u00e9fecture de Yamagata","name:uk":"\u042f\u043c\u0430\u0491\u0430\u0442\u0430","name:ru":"\u042f\u043c\u0430\u0433\u0430\u0442\u0430","name:pl":"Yamagata","name:hu":"Jamagata prefekt\u00fara","id":752206841,"name:ja":"Yamagata-ken"},"coordinates":[3702,1754]},{"type":"Point","properties":{"kind":"region","name:en":"Niigata","name":"\u65b0\u6f5f\u770c","kind_detail":"province","min_zoom":4.0,"source":"openstreetmap.org","name:fr":"Pr\u00e9fecture de Niigata","name:uk":"\u041d\u0456\u0457\u0491\u0430\u0442\u0430","name:ru":"\u041d\u0438\u0438\u0433\u0430\u0442\u0430","name:pl":"Niigata","name:hu":"Niigata prefekt\u00fara","id":752398446,"name:ja":"Niigata-ken"},"coordinates":[2743,979]},{"type":"Point","properties":{"source":"naturalearthdata.com","kind":"locality","name":"Nagano","population":594311,"min_zoom":5.0,"id":6548},"coordinates":[2308,49]},{"type":"Point","properties":{"source":"naturalearthdata.com","kind":"locality","name":"Sakata","population":100446,"min_zoom":5.0,"id":6553},"coordinates":[3532,2171]},{"type":"Point","properties":{"source":"naturalearthdata.com","kind":"locality","name":"Niigata","population":569797,"min_zoom":6.0,"id":5313},"coordinates":[2942,1236]},{"type":"Point","properties":{"source":"naturalearthdata.com","kind":"locality","name":"Akita","population":320069,"min_zoom":6.0,"id":5307},"coordinates":[3706,2909]},{"type":"Point","properties":{"source":"naturalearthdata.com","kind":"locality","name":"Fukushima","population":294237,"min_zoom":6.0,"id":5311},"coordinates":[3983,1068]},{"type":"Point","properties":{"source":"naturalearthdata.com","kind":"locality","name":"Hirosaki","population":174972,"min_zoom":6.0,"id":5309},"coordinates":[3983,3713]}]},"transit":{"type":"GeometryCollection","geometries":[{"type":"MultiLineString","properties":{"kind":"train","name:en":"JR Utsunomiya Line","name":"JR\u5b87\u90fd\u5bae\u7dda","sort_rank":275,"name:de":"JR Utsunomiya-Linie","source":"openstreetmap.org","min_zoom":6.0,"operator":"\u6771\u65e5\u672c\u65c5\u5ba2\u9244\u9053","osm_relation":true,"name:ja":"JR Utsunomiya-sen"},"arcs":[[77],[78],[79],[80],[81],[82],[83],[84],[85],[86],[87],[88],[89],[90],[91],[92],[93],[94],[95],[96],[97],[98],[99],[100],[101],[102],[103],[104],[105],[106],[107],[108],[109],[110],[111],[112],[113],[114],[115],[116],[117],[118],[119],[120],[121],[122],[123],[124],[125],[126],[127],[128],[129],[130],[131],[132],[133],[134],[135],[136],[137],[138],[139],[140],[141],[142],[143],[144],[145],[146],[147],[148],[149],[150],[151],[152],[153],[154],[155],[156],[157],[158],[159],[160],[161],[162],[163],[164],[165],[166],[167],[168],[169],[170],[171],[172],[173],[174],[175],[176],[177],[178],[179],[180],[181],[182],[183],[184],[185],[186],[187],[188],[189],[190],[191],[192],[193],[194],[195],[196],[197],[198],[199],[200],[201],[202],[203],[204],[205],[206],[207],[208],[209],[210],[211],[212],[213],[214],[215],[216],[217],[218],[219],[220],[221],[222],[223],[224]]},{"type":"MultiLineString","properties":{"kind":"train","name:en":"Kinugawa Train","name:ja":"Kinugawa-Ressha","sort_rank":275,"alt_name:ja":"\u30b9\u30da\u30fc\u30b7\u30a2\u304d\u306c\u304c\u308f\u5217\u8eca","source":"openstreetmap.org","min_zoom":6.0,"alt_name:en":"Spacia Kinugawa Train","ref":"\u304d\u306c\u304c\u308f\u5217\u8eca","osm_relation":true,"name":"\u304d\u306c\u304c\u308f\u5217\u8eca"},"arcs":[[225],[226]]},{"type":"MultiLineString","properties":{"kind":"train","name:en":"JR Ban'etsu West Line","name":"JR\u78d0\u8d8a\u897f\u7dda","sort_rank":275,"name:de":"JR Ban'etsu-Westlinie","source":"openstreetmap.org","min_zoom":6.0,"ref":"JR\u78d0\u8d8a\u897f\u7dda (JR Ban'etsu West Line)","osm_relation":true,"name:ja":"JR JR\u78d0\u8d8a\u897f\u7dda"},"arcs":[[227],[228],[229]]},{"type":"LineString","properties":{"kind":"train","name:en":"Thunderbird: Wakura-Onsen -> Osaka","name:ja":"\u30b5\u30f3\u30c0\u30fc\u30d0\u30fc\u30c9","sort_rank":275,"source":"openstreetmap.org","min_zoom":6.0,"operator":"\u897f\u65e5\u672c\u65c5\u5ba2\u9244\u9053","ref":"\u30b5\u30f3\u30c0\u30fc\u30d0\u30fc\u30c9","osm_relation":true,"name":"\u30b5\u30f3\u30c0\u30fc\u30d0\u30fc\u30c9: \u548c\u5009\u6e29\u6cc9 -> \u5927\u962a"},"arcs":[230]},{"type":"LineString","properties":{"kind":"train","name:en":"Yagan Railway Aizu Kinugawa Line","name":"\u91ce\u5ca9\u9244\u9053\u4f1a\u6d25\u9b3c\u6012\u5ddd\u7dda","sort_rank":275,"source":"openstreetmap.org","min_zoom":6.0,"operator":"\u91ce\u5ca9\u9244\u9053\u682a\u5f0f\u4f1a\u793e","ref":"\u91ce\u5ca9\u9244\u9053\u4f1a\u6d25\u9b3c\u6012\u5ddd\u7dda","id":-5751783,"osm_relation":true,"name:ja":"Yagan Railway Aizu Kinugawa-sen"},"arcs":[231]},{"type":"LineString","properties":{"kind":"train","name:en":"Aizu Railway Aizu Line","name":"\u4f1a\u6d25\u9244\u9053\u4f1a\u6d25\u7dda","sort_rank":275,"source":"openstreetmap.org","min_zoom":6.0,"operator":"\u4f1a\u6d25\u9244\u9053","ref":"\u4f1a\u6d25\u9244\u9053\u4f1a\u6d25\u7dda (Aizu Railway Line)","id":-1924550,"osm_relation":true},"arcs":[232]},{"type":"MultiLineString","properties":{"kind":"train","name:en":"JR Tohoku Main Line","name":"JR\u6771\u5317\u672c\u7dda","sort_rank":275,"name:fr":"Ligne principale T\u014dhoku","name:de":"T\u014dhoku-Hauptlinie","source":"openstreetmap.org","min_zoom":6.0,"operator":"\u6771\u65e5\u672c\u65c5\u5ba2\u9244\u9053","name:ru":"\u041b\u0438\u043d\u0438\u044f \u0422\u043e\u0445\u043e\u043a\u0443","ref":"JR\u6771\u5317\u672c\u7dda","osm_relation":true,"name:ja":"JR T\u014dhoku-honsen"},"arcs":[[233],[234],[235],[236],[237],[238],[239],[240],[241],[242],[243],[244],[245],[246],[247],[248],[249],[250],[251],[252],[253],[254],[255],[256],[257],[258],[259],[260],[261],[262],[263],[264],[265],[266],[267],[268],[269],[270],[271],[272],[273]]},{"type":"MultiLineString","properties":{"kind":"train","name:en":"JR Nikko Line","name:ja":"JR Nikk\u014d-sen","sort_rank":275,"name:de":"JR Nikk\u014d-Linie","source":"openstreetmap.org","min_zoom":6.0,"operator":"\u6771\u65e5\u672c\u65c5\u5ba2\u9244\u9053","osm_relation":true,"name":"JR\u65e5\u5149\u7dda"},"arcs":[[274],[275],[276]]},{"type":"MultiLineString","properties":{"kind":"train","name:en":"Tobu Nikko Line","name":"\u6771\u6b66\u65e5\u5149\u7dda","sort_rank":275,"source":"openstreetmap.org","min_zoom":6.0,"operator":"\u6771\u6b66\u9244\u9053","osm_relation":true,"name:ja":"Nikk\u014d-sen"},"arcs":[[277],[278],[279],[280],[281],[282],[283],[284],[285],[286],[287],[288],[289],[290],[291],[292],[293],[294],[295],[296]]},{"type":"MultiLineString","properties":{"kind":"train","name:en":"Toyama Chih\u014d Railway Main Line","name":"\u5bcc\u5c71\u5730\u65b9\u9244\u9053\u672c\u7dda","sort_rank":275,"source":"openstreetmap.org","min_zoom":6.0,"osm_relation":true,"name:ja":"Toyama Chih\u014d Tetsud\u014d honsen"},"arcs":[[297],[298],[299]]},{"type":"MultiLineString","properties":{"kind":"train","name:en":"Toki","name":"\u3068\u304d","sort_rank":275,"source":"openstreetmap.org","min_zoom":6.0,"operator":"\u6771\u65e5\u672c\u65c5\u5ba2\u9244\u9053","osm_relation":true},"arcs":[[300],[301],[302]]},{"type":"LineString","properties":{"kind":"train","name:en":"JR Tadami Line","name":"JR\u53ea\u898b\u7dda","sort_rank":275,"name:de":"JR Tadami-Linie","source":"openstreetmap.org","min_zoom":6.0,"operator":"\u6771\u65e5\u672c\u65c5\u5ba2\u9244\u9053","ref":"JR\u53ea\u898b\u7dda (JR Tadami Line)","osm_relation":true,"name:ja":"JR Tadami-sen"},"arcs":[303]},{"type":"MultiLineString","properties":{"kind":"train","name:en":"Tobu Kinugawa Line","name":"\u6771\u6b66\u9b3c\u6012\u5ddd\u7dda","sort_rank":275,"source":"openstreetmap.org","min_zoom":6.0,"osm_relation":true,"name:ja":"T\u014dbu Kinugawa-sen"},"arcs":[[304],[305],[306],[307],[308]]},{"type":"LineString","properties":{"kind":"train","alt_name:en":"Spacia Nikko Train","name":"\u65e5\u5149\u5217\u8eca","sort_rank":275,"alt_name:ja":"\u30b9\u30da\u30fc\u30b7\u30a2\u65e5\u5149\u5217\u8eca","source":"openstreetmap.org","min_zoom":6.0,"name:en":"Nikko Train","ref":"\u65e5\u5149\u5217\u8eca","osm_relation":true,"name:ja":"Nikk\u014d-Ressha"},"arcs":[309]},{"type":"LineString","properties":{"kind":"train","name:en":"JR Ban'etsu East Line","name:ja":"JR Ban'etsu-t\u014dsen","sort_rank":275,"name:de":"JR Ban'etsu-Ostlinie","source":"openstreetmap.org","min_zoom":6.0,"ref":"JR\u78d0\u8d8a\u6771\u7dda (JR Ban'etsu East Line)","osm_relation":true,"name":"JR\u78d0\u8d8a\u6771\u7dda"},"arcs":[310]},{"type":"LineString","properties":{"kind":"train","name:en":"JR Aterazawa Line","name":"JR\u5de6\u6ca2\u7dda","sort_rank":275,"source":"openstreetmap.org","min_zoom":6.0,"ref":"JR\u5de6\u6ca2\u7dda (JR Aterazawa Line)","id":-5263249,"osm_relation":true,"name:ja":"JR Aterazawa-sen"},"arcs":[311]},{"type":"LineString","properties":{"kind":"train","network":"L.F. Network","sort_rank":275,"source":"openstreetmap.org","min_zoom":6.0,"id":-6589837,"osm_relation":true,"name":"\u68a2\u753a\u7dda (Kozuemachi-sen)"},"arcs":[312]},{"type":"MultiLineString","properties":{"kind":"train","name:en":"JR Echigo Line","name":"JR\u8d8a\u5f8c\u7dda","sort_rank":275,"source":"openstreetmap.org","min_zoom":6.0,"osm_relation":true,"name:ja":"JR Echigo-sen"},"arcs":[[313],[314],[315],[316],[317],[318],[319],[320],[321],[322],[323],[324]]},{"type":"MultiLineString","properties":{"kind":"train","name:en":"JR Tazawako Line","name:ja":"Tazawako-sen","sort_rank":275,"source":"openstreetmap.org","min_zoom":6.0,"operator":"\u6771\u65e5\u672c\u65c5\u5ba2\u9244\u9053","ref":"JR\u7530\u6ca2\u6e56\u7dda (JR Tazawako Line)","osm_relation":true,"name":"JR\u7530\u6ca2\u6e56\u7dda"},"arcs":[[325],[326],[327],[328],[329],[330]]},{"type":"MultiLineString","properties":{"kind":"train","name:en":"JR Shinkansen (Hayate Train)","name:ja":"Hayate-Ressha","sort_rank":275,"source":"openstreetmap.org","min_zoom":6.0,"ref":"\u306f\u3084\u3066\u5217\u8eca","osm_relation":true,"name":"\u306f\u3084\u3066\u5217\u8eca"},"arcs":[[331],[332],[333],[334],[335]]},{"type":"MultiLineString","properties":{"kind":"train","name:en":"JR Shinkansen (Tsubasa Train)","name":"\u3064\u3070\u3055","sort_rank":275,"source":"openstreetmap.org","min_zoom":6.0,"network":"\u5c71\u5f62\u65b0\u5e79\u7dda","operator":"\u6771\u65e5\u672c\u65c5\u5ba2\u9244\u9053","ref":"\u3064\u3070\u3055\u5217\u8eca","osm_relation":true,"name:ja":"\u3064\u3070\u3055\u5217\u8eca"},"arcs":[[336],[337],[338],[339],[340],[341],[342],[343],[344],[345],[346],[347],[348],[349],[350],[351],[352]]},{"type":"LineString","properties":{"kind":"train","name:en":"JR Senzan Line","name":"JR\u4ed9\u5c71\u7dda","sort_rank":275,"name:de":"JR Senzan-Linie","source":"openstreetmap.org","min_zoom":6.0,"ref":"JR\u4ed9\u5c71\u7dda (JR Senzan Line)","id":-1862833,"osm_relation":true,"name:ja":"JR Senzan-sen"},"arcs":[353]},{"type":"LineString","properties":{"kind":"train","name:en":"JR Hachimantai Rapid","name:ja":"JR Hachimantai-kaisoku","sort_rank":275,"name:de":"Eilzug Hachimantai","source":"openstreetmap.org","min_zoom":6.0,"ref":"JR\u516b\u5e61\u5e73\u5feb\u901f (JR Hachimantai Rapid)","osm_relation":true,"name":"JR\u516b\u5e61\u5e73\u5feb\u901f"},"arcs":[354]},{"type":"MultiLineString","properties":{"kind":"train","name:en":"JR Shinkansen (Komachi Train)","name:ja":"Komachi-Ressha","sort_rank":275,"source":"openstreetmap.org","min_zoom":6.0,"ref":"\u3053\u307e\u3061\u5217\u8eca","osm_relation":true,"name":"\u3053\u307e\u3061\u5217\u8eca"},"arcs":[[355],[356],[357],[358],[359],[360],[361],[362],[363],[364]]},{"type":"LineString","properties":{"kind":"train","name:en":"JR Suigun Line","name":"JR\u6c34\u90e1\u7dda","sort_rank":275,"name:de":"JR Suigun-Linie","source":"openstreetmap.org","min_zoom":6.0,"ref":"JR\u6c34\u90e1\u7dda (JR Suigun Line)","osm_relation":true,"name:ja":"JR Suigun-sen"},"arcs":[365]},{"type":"LineString","properties":{"kind":"train","name:en":"JR Hanawa Line","name":"JR\u82b1\u8f2a\u7dda","sort_rank":275,"alt_name:ja":"\u5341\u548c\u7530\u516b\u5e61\u5e73\u56db\u5b63\u5f69\u30e9\u30a4\u30f3","source":"openstreetmap.org","min_zoom":6.0,"alt_name:en":"JR Towada-Hachimantai Shikisai Line","ref":"JR\u82b1\u8f2a\u7dda (JR Hanawa Line)","osm_relation":true,"name:ja":"JR Hanawa-sen"},"arcs":[366]},{"type":"LineString","properties":{"kind":"train","name:en":"Iizaka Line","name":"\u98ef\u5742\u7dda","sort_rank":275,"name:de":"Iizaka-Bahn","source":"openstreetmap.org","min_zoom":6.0,"operator":"\u798f\u5cf6\u4ea4\u901a","ref":"\u98ef\u5742\u7dda (Iizaka Line)","id":-5383438,"osm_relation":true},"arcs":[367]},{"type":"MultiLineString","properties":{"kind":"train","name:en":"Oga Line","name":"\u7537\u9e7f\u7dda (Oga-sen)","sort_rank":275,"name:de":"Oga-Linie","source":"openstreetmap.org","min_zoom":6.0,"osm_relation":true,"name:es":"L\u00ednea Oga","name:ja":"\u7537\u9e7f\u7dda"},"arcs":[[368],[369],[370],[371]]},{"type":"LineString","properties":{"kind":"train","name:en":"JR Karasuyama Line","name":"JR\u70cf\u5c71\u7dda","sort_rank":275,"source":"openstreetmap.org","min_zoom":6.0,"operator":"\u6771\u65e5\u672c\u65c5\u5ba2\u9244\u9053","ref":"JR\u70cf\u5c71\u7dda","id":-1949381,"osm_relation":true,"name:ja":"JR Karasuyama-sen"},"arcs":[372]},{"type":"LineString","properties":{"kind":"train","name:en":"Thunderbird: Osaka -> Wakura-Onsen","name":"\u30b5\u30f3\u30c0\u30fc\u30d0\u30fc\u30c9: \u5927\u962a -> \u548c\u5009\u6e29\u6cc9","sort_rank":275,"source":"openstreetmap.org","min_zoom":6.0,"operator":"\u897f\u65e5\u672c\u65c5\u5ba2\u9244\u9053","ref":"\u30b5\u30f3\u30c0\u30fc\u30d0\u30fc\u30c9","osm_relation":true,"name:ja":"\u30b5\u30f3\u30c0\u30fc\u30d0\u30fc\u30c9"},"arcs":[373]},{"type":"LineString","properties":{"kind":"train","name":"\u9ce5\u6d77\u5c71\u308d\u304f\u7dda","sort_rank":275,"source":"openstreetmap.org","min_zoom":6.0,"operator":"\u7531\u5229\u9ad8\u539f\u9244\u9053","id":-5457969,"osm_relation":true,"name:ja":"\u3061\u3087\u3046\u304b\u3044\u3055\u3093\u308d\u304f\u305b\u3093"},"arcs":[374]},{"type":"LineString","properties":{"kind":"train","name:en":"JR Rikuu East Line","name:ja":"JR Rikuuto-sen","sort_rank":275,"source":"openstreetmap.org","min_zoom":6.0,"operator":"JR\u6771\u65e5\u672c","ref":"JR\u9678\u7fbd\u6771\u7dda (JR Rikuu East Line)","osm_relation":true,"name":"JR\u9678\u7fbd\u6771\u7dda"},"arcs":[375]}]},"pois":{"type":"GeometryCollection","geometries":[]},"boundaries":{"type":"GeometryCollection","geometries":[{"type":"LineString","properties":{"source":"naturalearthdata.com","kind":"region","sort_rank":256,"kind_detail":"4","min_zoom":5.5,"id":3498},"arcs":[0]},{"type":"LineString","properties":{"source":"naturalearthdata.com","kind":"region","sort_rank":256,"kind_detail":"4","min_zoom":6.0,"id":184},"arcs":[1]},{"type":"LineString","properties":{"source":"naturalearthdata.com","kind":"region","sort_rank":256,"kind_detail":"4","min_zoom":6.0,"id":185},"arcs":[2]},{"type":"LineString","properties":{"source":"naturalearthdata.com","kind":"region","sort_rank":256,"kind_detail":"4","min_zoom":6.0,"id":186},"arcs":[3]},{"type":"MultiLineString","properties":{"source":"naturalearthdata.com","kind":"region","sort_rank":256,"kind_detail":"4","min_zoom":6.0,"id":3455},"arcs":[[4],[5],[6],[7],[8],[9],[10],[11]]},{"type":"MultiLineString","properties":{"source":"naturalearthdata.com","kind":"region","sort_rank":256,"kind_detail":"4","min_zoom":6.0,"id":3456},"arcs":[[12],[13],[14],[15],[16],[17]]},{"type":"MultiLineString","properties":{"source":"naturalearthdata.com","kind":"region","sort_rank":256,"kind_detail":"4","min_zoom":5.5,"id":3457},"arcs":[[18],[19],[20],[21]]},{"type":"MultiLineString","properties":{"source":"naturalearthdata.com","kind":"region","sort_rank":256,"kind_detail":"4","min_zoom":5.5,"id":3458},"arcs":[[22],[23],[24],[25],[26]]},{"type":"LineString","properties":{"source":"naturalearthdata.com","kind":"region","sort_rank":256,"kind_detail":"4","min_zoom":6.0,"id":3459},"arcs":[27]},{"type":"LineString","properties":{"source":"naturalearthdata.com","kind":"region","sort_rank":256,"kind_detail":"4","min_zoom":5.5,"id":3460},"arcs":[28]},{"type":"MultiLineString","properties":{"source":"naturalearthdata.com","kind":"region","sort_rank":256,"kind_detail":"4","min_zoom":6.0,"id":3461},"arcs":[[29],[30],[31],[32],[33],[34]]},{"type":"LineString","properties":{"source":"naturalearthdata.com","kind":"region","sort_rank":256,"kind_detail":"4","min_zoom":6.0,"id":3462},"arcs":[35]},{"type":"LineString","properties":{"source":"naturalearthdata.com","kind":"region","sort_rank":256,"kind_detail":"4","min_zoom":6.0,"id":3463},"arcs":[36]},{"type":"MultiLineString","properties":{"source":"naturalearthdata.com","kind":"region","sort_rank":256,"kind_detail":"4","min_zoom":6.0,"id":3469},"arcs":[[37],[38],[39],[40],[41]]},{"type":"MultiLineString","properties":{"source":"naturalearthdata.com","kind":"region","sort_rank":256,"kind_detail":"4","min_zoom":6.0,"id":3489},"arcs":[[42],[43],[44]]},{"type":"MultiLineString","properties":{"source":"naturalearthdata.com","kind":"region","sort_rank":256,"kind_detail":"4","min_zoom":6.0,"id":3490},"arcs":[[45],[46]]},{"type":"LineString","properties":{"source":"naturalearthdata.com","kind":"region","sort_rank":256,"kind_detail":"4","min_zoom":6.0,"id":3492},"arcs":[47]},{"type":"MultiLineString","properties":{"source":"naturalearthdata.com","kind":"region","sort_rank":256,"kind_detail":"4","min_zoom":6.0,"id":3499},"arcs":[[48],[49],[50],[51],[52],[53],[54],[55],[56],[57]]},{"type":"MultiLineString","properties":{"source":"naturalearthdata.com","kind":"region","sort_rank":256,"kind_detail":"4","min_zoom":5.5,"id":3500},"arcs":[[58],[59],[60],[61],[62],[63],[64],[65],[66]]},{"type":"MultiLineString","properties":{"source":"naturalearthdata.com","kind":"region","sort_rank":256,"kind_detail":"4","min_zoom":5.5,"id":3501},"arcs":[[67],[68]]},{"type":"MultiLineString","properties":{"source":"naturalearthdata.com","kind":"region","sort_rank":256,"kind_detail":"4","min_zoom":6.0,"id":3502},"arcs":[[69],[70],[71],[72],[73]]},{"type":"MultiLineString","properties":{"source":"naturalearthdata.com","kind":"region","sort_rank":256,"kind_detail":"4","min_zoom":5.5,"id":3503},"arcs":[[74],[75],[76]]}]},"roads":{"type":"GeometryCollection","geometries":[{"type":"LineString","properties":{"source":"naturalearthdata.com","kind":"highway","kind_detail":"motorway","sort_rank":383,"landuse_kind":"urban_area","min_zoom":3.0,"id":20135},"arcs":[384]},{"type":"MultiLineString","properties":{"source":"naturalearthdata.com","kind":"highway","sort_rank":383,"kind_detail":"motorway","min_zoom":3.0,"id":20135},"arcs":[[385],[386],[387]]},{"type":"LineString","properties":{"source":"naturalearthdata.com","kind":"highway","kind_detail":"motorway","sort_rank":383,"landuse_kind":"urban_area","min_zoom":5.0,"id":20549},"arcs":[388]},{"type":"LineString","properties":{"source":"naturalearthdata.com","kind":"highway","sort_rank":383,"kind_detail":"motorway","min_zoom":5.0,"id":20549},"arcs":[389]},{"type":"LineString","properties":{"source":"naturalearthdata.com","kind":"minor_road","sort_rank":355,"kind_detail":"tertiary","min_zoom":5.0,"id":20583},"arcs":[390]},{"type":"LineString","properties":{"source":"naturalearthdata.com","kind":"highway","kind_detail":"motorway","sort_rank":383,"landuse_kind":"urban_area","min_zoom":5.0,"id":21164},"arcs":[391]},{"type":"LineString","properties":{"source":"naturalearthdata.com","kind":"highway","kind_detail":"motorway","sort_rank":383,"landuse_kind":"urban_area","min_zoom":5.0,"id":21164},"arcs":[392]},{"type":"LineString","properties":{"source":"naturalearthdata.com","kind":"highway","kind_detail":"motorway","sort_rank":383,"landuse_kind":"urban_area","min_zoom":5.0,"id":21164},"arcs":[393]},{"type":"MultiLineString","properties":{"source":"naturalearthdata.com","kind":"highway","sort_rank":383,"kind_detail":"motorway","min_zoom":5.0,"id":21164},"arcs":[[394],[395],[396],[397]]},{"type":"MultiLineString","properties":{"source":"naturalearthdata.com","kind":"highway","kind_detail":"motorway","sort_rank":383,"landuse_kind":"urban_area","min_zoom":5.0,"id":21336},"arcs":[[398],[399]]},{"type":"MultiLineString","properties":{"source":"naturalearthdata.com","kind":"highway","sort_rank":383,"kind_detail":"motorway","min_zoom":5.0,"id":21336},"arcs":[[400],[401]]},{"type":"LineString","properties":{"source":"naturalearthdata.com","kind":"highway","kind_detail":"motorway","sort_rank":383,"landuse_kind":"urban_area","min_zoom":5.0,"id":21414},"arcs":[402]},{"type":"LineString","properties":{"source":"naturalearthdata.com","kind":"highway","sort_rank":383,"kind_detail":"motorway","min_zoom":5.0,"id":21414},"arcs":[403]},{"type":"LineString","properties":{"source":"naturalearthdata.com","kind":"major_road","kind_detail":"secondary","sort_rank":379,"landuse_kind":"urban_area","min_zoom":4.0,"id":21597},"arcs":[404]},{"type":"LineString","properties":{"source":"naturalearthdata.com","kind":"major_road","kind_detail":"secondary","sort_rank":379,"landuse_kind":"urban_area","min_zoom":4.0,"id":21597},"arcs":[405]},{"type":"LineString","properties":{"source":"naturalearthdata.com","kind":"major_road","kind_detail":"secondary","sort_rank":379,"landuse_kind":"urban_area","min_zoom":4.0,"id":21597},"arcs":[406]},{"type":"LineString","properties":{"source":"naturalearthdata.com","kind":"major_road","kind_detail":"secondary","sort_rank":379,"landuse_kind":"urban_area","min_zoom":4.0,"id":21597},"arcs":[407]},{"type":"MultiLineString","properties":{"source":"naturalearthdata.com","kind":"major_road","sort_rank":379,"kind_detail":"secondary","min_zoom":4.0,"id":21597},"arcs":[[408],[409],[410],[411]]},{"type":"LineString","properties":{"source":"naturalearthdata.com","kind":"minor_road","kind_detail":"tertiary","sort_rank":355,"landuse_kind":"urban_area","min_zoom":5.0,"id":21598},"arcs":[412]},{"type":"LineString","properties":{"source":"naturalearthdata.com","kind":"highway","kind_detail":"motorway","sort_rank":383,"landuse_kind":"urban_area","min_zoom":3.0,"id":21671},"arcs":[413]},{"type":"LineString","properties":{"source":"naturalearthdata.com","kind":"highway","kind_detail":"motorway","sort_rank":383,"landuse_kind":"urban_area","min_zoom":3.0,"id":21671},"arcs":[414]},{"type":"LineString","properties":{"source":"naturalearthdata.com","kind":"highway","sort_rank":383,"kind_detail":"motorway","min_zoom":3.0,"id":21671},"arcs":[415]},{"type":"LineString","properties":{"source":"naturalearthdata.com","kind":"minor_road","kind_detail":"tertiary","sort_rank":355,"landuse_kind":"urban_area","min_zoom":5.0,"id":21672},"arcs":[416]},{"type":"LineString","properties":{"source":"naturalearthdata.com","kind":"minor_road","kind_detail":"tertiary","sort_rank":355,"landuse_kind":"urban_area","min_zoom":5.0,"id":21672},"arcs":[417]},{"type":"LineString","properties":{"source":"naturalearthdata.com","kind":"minor_road","kind_detail":"tertiary","sort_rank":355,"landuse_kind":"urban_area","min_zoom":5.0,"id":21672},"arcs":[418]},{"type":"LineString","properties":{"source":"naturalearthdata.com","kind":"minor_road","kind_detail":"tertiary","sort_rank":355,"landuse_kind":"urban_area","min_zoom":5.0,"id":21672},"arcs":[419]},{"type":"MultiLineString","properties":{"source":"naturalearthdata.com","kind":"minor_road","sort_rank":355,"kind_detail":"tertiary","min_zoom":5.0,"id":21672},"arcs":[[420],[421],[422]]},{"type":"LineString","properties":{"source":"naturalearthdata.com","kind":"highway","kind_detail":"motorway","sort_rank":383,"landuse_kind":"urban_area","min_zoom":5.0,"id":21816},"arcs":[423]},{"type":"LineString","properties":{"source":"naturalearthdata.com","kind":"highway","sort_rank":383,"kind_detail":"motorway","min_zoom":5.0,"id":21816},"arcs":[424]},{"type":"LineString","properties":{"source":"naturalearthdata.com","kind":"highway","sort_rank":383,"kind_detail":"motorway","min_zoom":5.0,"id":21833},"arcs":[425]},{"type":"LineString","properties":{"source":"naturalearthdata.com","kind":"highway","kind_detail":"motorway","sort_rank":383,"landuse_kind":"urban_area","min_zoom":5.0,"id":21839},"arcs":[426]},{"type":"MultiLineString","properties":{"source":"naturalearthdata.com","kind":"highway","sort_rank":383,"kind_detail":"motorway","min_zoom":5.0,"id":21839},"arcs":[[427],[428]]},{"type":"LineString","properties":{"source":"naturalearthdata.com","kind":"highway","kind_detail":"motorway","sort_rank":383,"landuse_kind":"urban_area","min_zoom":5.0,"id":21864},"arcs":[429]},{"type":"LineString","properties":{"source":"naturalearthdata.com","kind":"highway","sort_rank":383,"kind_detail":"motorway","min_zoom":5.0,"id":21864},"arcs":[430]},{"type":"LineString","properties":{"source":"naturalearthdata.com","kind":"highway","kind_detail":"motorway","sort_rank":383,"landuse_kind":"urban_area","min_zoom":5.0,"id":21865},"arcs":[431]},{"type":"LineString","properties":{"source":"naturalearthdata.com","kind":"highway","sort_rank":383,"kind_detail":"motorway","min_zoom":5.0,"id":21865},"arcs":[432]},{"type":"LineString","properties":{"source":"naturalearthdata.com","kind":"highway","kind_detail":"motorway","sort_rank":383,"landuse_kind":"urban_area","min_zoom":5.0,"id":21877},"arcs":[433]},{"type":"LineString","properties":{"source":"naturalearthdata.com","kind":"highway","sort_rank":383,"kind_detail":"motorway","min_zoom":5.0,"id":21877},"arcs":[434]},{"type":"LineString","properties":{"source":"naturalearthdata.com","kind":"highway","kind_detail":"motorway","sort_rank":383,"landuse_kind":"urban_area","min_zoom":5.0,"id":21878},"arcs":[435]},{"type":"MultiLineString","properties":{"source":"naturalearthdata.com","kind":"highway","sort_rank":383,"kind_detail":"motorway","min_zoom":5.0,"id":21878},"arcs":[[436],[437]]},{"type":"LineString","properties":{"source":"naturalearthdata.com","kind":"highway","kind_detail":"motorway","sort_rank":383,"landuse_kind":"urban_area","min_zoom":5.0,"id":21893},"arcs":[438]},{"type":"LineString","properties":{"source":"naturalearthdata.com","kind":"highway","sort_rank":383,"kind_detail":"motorway","min_zoom":5.0,"id":21893},"arcs":[439]},{"type":"MultiLineString","properties":{"source":"naturalearthdata.com","kind":"highway","kind_detail":"motorway","sort_rank":383,"landuse_kind":"urban_area","min_zoom":3.0,"id":21938},"arcs":[[440],[441]]},{"type":"LineString","properties":{"source":"naturalearthdata.com","kind":"highway","sort_rank":383,"kind_detail":"motorway","min_zoom":3.0,"id":21938},"arcs":[442]},{"type":"LineString","properties":{"source":"naturalearthdata.com","kind":"highway","kind_detail":"motorway","sort_rank":383,"landuse_kind":"urban_area","min_zoom":5.0,"id":21939},"arcs":[443]},{"type":"LineString","properties":{"source":"naturalearthdata.com","kind":"highway","kind_detail":"motorway","sort_rank":383,"landuse_kind":"urban_area","min_zoom":5.0,"id":21939},"arcs":[444]},{"type":"MultiLineString","properties":{"source":"naturalearthdata.com","kind":"highway","sort_rank":383,"kind_detail":"motorway","min_zoom":5.0,"id":21939},"arcs":[[445],[446]]},{"type":"LineString","properties":{"source":"naturalearthdata.com","kind":"major_road","kind_detail":"secondary","sort_rank":379,"landuse_kind":"urban_area","min_zoom":3.0,"id":21982},"arcs":[447]},{"type":"LineString","properties":{"source":"naturalearthdata.com","kind":"highway","kind_detail":"motorway","sort_rank":383,"landuse_kind":"urban_area","min_zoom":4.0,"id":22231},"arcs":[448]},{"type":"LineString","properties":{"source":"naturalearthdata.com","kind":"highway","kind_detail":"motorway","sort_rank":383,"landuse_kind":"urban_area","min_zoom":4.0,"id":22231},"arcs":[449]},{"type":"LineString","properties":{"source":"naturalearthdata.com","kind":"highway","kind_detail":"motorway","sort_rank":383,"landuse_kind":"urban_area","min_zoom":4.0,"id":22231},"arcs":[450]},{"type":"MultiLineString","properties":{"source":"naturalearthdata.com","kind":"highway","sort_rank":383,"kind_detail":"motorway","min_zoom":4.0,"id":22231},"arcs":[[451],[452]]},{"type":"LineString","properties":{"source":"naturalearthdata.com","kind":"minor_road","kind_detail":"tertiary","sort_rank":355,"landuse_kind":"urban_area","min_zoom":5.0,"id":22282},"arcs":[453]},{"type":"LineString","properties":{"source":"naturalearthdata.com","kind":"minor_road","sort_rank":355,"kind_detail":"tertiary","min_zoom":5.0,"id":22282},"arcs":[454]},{"type":"LineString","properties":{"source":"naturalearthdata.com","kind":"highway","kind_detail":"motorway","sort_rank":383,"landuse_kind":"urban_area","min_zoom":4.0,"id":22562},"arcs":[455]},{"type":"MultiLineString","properties":{"source":"naturalearthdata.com","kind":"highway","kind_detail":"motorway","sort_rank":383,"landuse_kind":"urban_area","min_zoom":4.0,"id":22562},"arcs":[[456],[457]]},{"type":"MultiLineString","properties":{"source":"naturalearthdata.com","kind":"highway","sort_rank":383,"kind_detail":"motorway","min_zoom":4.0,"id":22562},"arcs":[[458],[459],[460]]},{"type":"LineString","properties":{"source":"naturalearthdata.com","kind":"minor_road","kind_detail":"tertiary","sort_rank":355,"landuse_kind":"urban_area","min_zoom":5.0,"id":22563},"arcs":[461]},{"type":"LineString","properties":{"source":"naturalearthdata.com","kind":"minor_road","sort_rank":355,"kind_detail":"tertiary","min_zoom":5.0,"id":22563},"arcs":[462]},{"type":"LineString","properties":{"source":"naturalearthdata.com","kind":"highway","kind_detail":"motorway","sort_rank":383,"landuse_kind":"urban_area","min_zoom":4.0,"id":22783},"arcs":[463]},{"type":"LineString","properties":{"source":"naturalearthdata.com","kind":"highway","kind_detail":"motorway","sort_rank":383,"landuse_kind":"urban_area","min_zoom":4.0,"id":22783},"arcs":[464]},{"type":"MultiLineString","properties":{"source":"naturalearthdata.com","kind":"highway","kind_detail":"motorway","sort_rank":383,"landuse_kind":"urban_area","min_zoom":4.0,"id":22783},"arcs":[[465],[466],[467]]},{"type":"MultiLineString","properties":{"source":"naturalearthdata.com","kind":"highway","sort_rank":383,"kind_detail":"motorway","min_zoom":4.0,"id":22783},"arcs":[[468],[469],[470],[471]]},{"type":"MultiLineString","properties":{"source":"naturalearthdata.com","kind":"highway","kind_detail":"motorway","sort_rank":383,"landuse_kind":"urban_area","min_zoom":3.0,"id":22807},"arcs":[[472],[473],[474]]},{"type":"MultiLineString","properties":{"source":"naturalearthdata.com","kind":"highway","kind_detail":"motorway","sort_rank":383,"landuse_kind":"urban_area","min_zoom":3.0,"id":22807},"arcs":[[475],[476],[477],[478]]},{"type":"MultiLineString","properties":{"source":"naturalearthdata.com","kind":"highway","sort_rank":383,"kind_detail":"motorway","min_zoom":3.0,"id":22807},"arcs":[[479],[480],[481],[482],[483],[484]]},{"type":"MultiLineString","properties":{"source":"naturalearthdata.com","kind":"highway","kind_detail":"motorway","sort_rank":383,"landuse_kind":"urban_area","min_zoom":4.0,"id":22811},"arcs":[[485],[486]]},{"type":"LineString","properties":{"source":"naturalearthdata.com","kind":"highway","kind_detail":"motorway","sort_rank":383,"landuse_kind":"urban_area","min_zoom":4.0,"id":22811},"arcs":[487]},{"type":"MultiLineString","properties":{"source":"naturalearthdata.com","kind":"highway","sort_rank":383,"kind_detail":"motorway","min_zoom":4.0,"id":22811},"arcs":[[488],[489]]},{"type":"LineString","properties":{"source":"naturalearthdata.com","kind":"highway","sort_rank":383,"kind_detail":"motorway","min_zoom":4.0,"id":22813},"arcs":[490]},{"type":"LineString","properties":{"source":"naturalearthdata.com","kind":"highway","kind_detail":"motorway","sort_rank":383,"landuse_kind":"urban_area","min_zoom":4.0,"id":22831},"arcs":[491]},{"type":"LineString","properties":{"source":"naturalearthdata.com","kind":"highway","kind_detail":"motorway","sort_rank":383,"landuse_kind":"urban_area","min_zoom":4.0,"id":22863},"arcs":[492]},{"type":"LineString","properties":{"source":"naturalearthdata.com","kind":"highway","sort_rank":383,"kind_detail":"motorway","min_zoom":4.0,"id":22863},"arcs":[493]},{"type":"LineString","properties":{"source":"naturalearthdata.com","kind":"minor_road","kind_detail":"tertiary","sort_rank":355,"landuse_kind":"urban_area","min_zoom":5.0,"id":22893},"arcs":[494]},{"type":"MultiLineString","properties":{"source":"naturalearthdata.com","kind":"highway","kind_detail":"motorway","sort_rank":383,"landuse_kind":"urban_area","min_zoom":4.0,"id":22902},"arcs":[[495],[496]]},{"type":"MultiLineString","properties":{"source":"naturalearthdata.com","kind":"highway","sort_rank":383,"kind_detail":"motorway","min_zoom":4.0,"id":22902},"arcs":[[497],[498]]},{"type":"LineString","properties":{"source":"naturalearthdata.com","kind":"minor_road","kind_detail":"tertiary","sort_rank":355,"landuse_kind":"urban_area","min_zoom":6.0,"id":22904},"arcs":[499]},{"type":"LineString","properties":{"source":"naturalearthdata.com","kind":"highway","sort_rank":383,"kind_detail":"motorway","min_zoom":4.0,"id":23031},"arcs":[500]},{"type":"LineString","properties":{"source":"naturalearthdata.com","kind":"highway","kind_detail":"motorway","sort_rank":383,"landuse_kind":"urban_area","min_zoom":4.0,"id":23067},"arcs":[501]},{"type":"LineString","properties":{"source":"naturalearthdata.com","kind":"highway","kind_detail":"motorway","sort_rank":383,"landuse_kind":"urban_area","min_zoom":3.0,"id":23139},"arcs":[502]},{"type":"LineString","properties":{"source":"naturalearthdata.com","kind":"highway","kind_detail":"motorway","sort_rank":383,"landuse_kind":"urban_area","min_zoom":6.0,"id":23385},"arcs":[503]},{"type":"LineString","properties":{"source":"naturalearthdata.com","kind":"major_road","kind_detail":"secondary","sort_rank":379,"landuse_kind":"urban_area","min_zoom":4.0,"id":48629},"arcs":[504]},{"type":"LineString","properties":{"source":"naturalearthdata.com","kind":"major_road","kind_detail":"secondary","sort_rank":379,"landuse_kind":"urban_area","min_zoom":4.0,"id":48629},"arcs":[505]},{"type":"LineString","properties":{"source":"naturalearthdata.com","kind":"major_road","sort_rank":379,"kind_detail":"secondary","min_zoom":4.0,"id":48629},"arcs":[506]},{"type":"LineString","properties":{"source":"naturalearthdata.com","kind":"major_road","kind_detail":"secondary","sort_rank":379,"landuse_kind":"urban_area","min_zoom":4.0,"id":48630},"arcs":[507]},{"type":"LineString","properties":{"source":"naturalearthdata.com","kind":"major_road","sort_rank":379,"kind_detail":"secondary","min_zoom":4.0,"id":48630},"arcs":[508]},{"type":"LineString","properties":{"source":"naturalearthdata.com","kind":"highway","kind_detail":"motorway","sort_rank":383,"landuse_kind":"urban_area","min_zoom":4.0,"id":48631},"arcs":[509]},{"type":"LineString","properties":{"source":"naturalearthdata.com","kind":"highway","kind_detail":"motorway","sort_rank":383,"landuse_kind":"urban_area","min_zoom":4.0,"id":48631},"arcs":[510]},{"type":"LineString","properties":{"source":"naturalearthdata.com","kind":"highway","kind_detail":"motorway","sort_rank":383,"landuse_kind":"urban_area","min_zoom":4.0,"id":48631},"arcs":[511]},{"type":"MultiLineString","properties":{"source":"naturalearthdata.com","kind":"highway","sort_rank":383,"kind_detail":"motorway","min_zoom":4.0,"id":48631},"arcs":[[512],[513]]},{"type":"MultiLineString","properties":{"source":"naturalearthdata.com","kind":"highway","kind_detail":"motorway","sort_rank":383,"landuse_kind":"urban_area","min_zoom":4.0,"id":48632},"arcs":[[514],[515]]},{"type":"MultiLineString","properties":{"source":"naturalearthdata.com","kind":"highway","sort_rank":383,"kind_detail":"motorway","min_zoom":4.0,"id":48632},"arcs":[[516],[517]]},{"type":"LineString","properties":{"source":"naturalearthdata.com","kind":"highway","kind_detail":"motorway","sort_rank":383,"landuse_kind":"urban_area","min_zoom":4.0,"id":48633},"arcs":[518]},{"type":"LineString","properties":{"source":"naturalearthdata.com","kind":"highway","kind_detail":"motorway","sort_rank":383,"landuse_kind":"urban_area","min_zoom":4.0,"id":48633},"arcs":[519]},{"type":"LineString","properties":{"source":"naturalearthdata.com","kind":"highway","kind_detail":"motorway","sort_rank":383,"landuse_kind":"urban_area","min_zoom":4.0,"id":48633},"arcs":[520]},{"type":"MultiLineString","properties":{"source":"naturalearthdata.com","kind":"highway","sort_rank":383,"kind_detail":"motorway","min_zoom":4.0,"id":48633},"arcs":[[521],[522]]}]},"earth":{"type":"GeometryCollection","geometries":[{"type":"MultiPolygon","properties":{"sort_rank":10,"source":"naturalearthdata.com","min_zoom":0.0,"kind":"earth","area":300058313470},"arcs":[[[523]],[[524]],[[525]]]}]},"landuse":{"type":"GeometryCollection","geometries":[{"type":"MultiPolygon","properties":{"source":"naturalearthdata.com","kind":"urban_area","name":"","area":77225806677,"sort_rank":11,"min_zoom":4.0},"arcs":[[[526]],[[527]],[[528]],[[529]],[[530]],[[531]],[[532]],[[533]],[[534]],[[535]],[[536]],[[537]],[[538]],[[539]],[[540]],[[541]],[[542]],[[543]],[[544]],[[545]],[[546]],[[547]],[[548]],[[549]],[[550]],[[551]],[[552]],[[553]],[[554]],[[555]],[[556]],[[557]],[[558]],[[559]],[[560]],[[561]],[[562]],[[563]],[[564]],[[565]],[[566]],[[567]],[[568]],[[569]],[[570]],[[571]],[[572]],[[573]],[[574]],[[575]],[[576]],[[577]],[[578],[579]],[[580]],[[581]],[[582]],[[583]],[[584]],[[585]],[[586]],[[587]],[[588]]]}]}},"type":"Topology","transform":{"translate":[135.0,36.5978891331],"scale":[0.001373291,0.0010698264]},"arcs":[[[3069,325],[2,-15],[7,-4],[15,-5],[18,0],[64,-17]],[[3600,3581]],[[3554,2353]],[[3312,1820]],[[3939,3630],[10,-4],[5,-8],[3,-8],[29,-14],[39,-31],[12,-4]],[[3860,3598],[21,8],[21,16],[19,7],[18,1]],[[3686,3614],[13,-4],[11,-5],[20,-6],[130,-1]],[[3638,3584],[12,7],[9,9],[15,11],[12,3]],[[3627,3585],[11,-1]],[[3600,3581],[27,4]],[[4072,3577],[11,-2],[8,-3],[5,-3]],[[4037,3561],[5,4],[6,5],[11,6],[13,1]],[[3558,2353],[56,-16]],[[3554,2353],[4,0]],[[3650,2348],[8,-1],[9,-3],[24,-27],[26,-18],[16,-8],[18,-4]],[[3614,2337],[8,1],[8,2],[7,4],[13,4]],[[3761,2288],[10,-4],[4,-7],[8,-7],[11,-6],[55,-11],[25,-1],[16,-3],[46,-26],[12,-11],[8,-23],[12,-23],[22,-21],[39,-10]],[[3751,2287],[10,1]],[[2980,413],[9,-4],[5,-6],[3,-4],[6,-11],[4,-4],[5,-5],[4,-2],[1,-1],[6,-5],[4,-6],[8,-26],[7,-6],[9,-2],[8,-1],[10,-5]],[[2726,140],[19,2],[18,7],[10,10],[4,10],[6,23],[11,7],[39,15],[9,9],[6,6],[3,25],[1,8],[6,7],[25,8],[4,7],[-1,11],[-3,13],[1,28],[3,9],[7,5],[43,14],[15,11],[2,2],[5,7],[6,17],[6,9],[9,3]],[[2711,141],[15,-1]],[[2679,124],[32,17]],[[3468,1642],[-10,5],[-10,8],[-10,8],[-9,10],[-6,10],[-3,16],[2,34],[0,14],[0,11],[1,7],[1,8],[-6,4],[-10,5],[-20,5],[-66,30],[-10,3]],[[3463,1505],[16,1],[12,3],[10,6],[27,21],[7,10],[7,13],[5,19],[-1,14],[-5,12],[-6,8],[-6,7],[-30,23],[-10,2]],[[3489,1644],[-21,-2]],[[3434,1507],[29,-2]],[[3440,1143],[-26,21],[-25,15],[-17,19],[-8,15],[-2,13],[2,12],[7,21],[2,23],[2,10],[6,19],[1,1],[-2,26],[2,11],[15,29],[10,108],[6,13],[11,7],[10,1]],[[1990,165],[-28,129],[-7,13],[-10,8],[-25,15],[-15,17],[-1,6]],[[2679,124],[-13,-6],[-23,-6],[-12,-5],[-7,-5],[-17,-5],[-28,-3],[-17,-6],[-8,-3],[-6,-6],[-2,-11],[2,-14],[-4,-9],[-7,-7],[-27,-7],[-8,-5],[-4,-7],[-2,-10],[-3,-8],[0,-1]],[[2548,390],[15,-1],[12,-4],[12,-7],[2,-2],[3,-10],[11,-62],[5,-14],[17,-20],[31,-27],[7,-7],[7,-14],[2,-12],[-2,-55],[9,-31]],[[2368,234],[9,2],[5,7],[2,24],[3,11],[6,12],[8,6],[19,10],[22,38],[9,11],[12,8],[30,14],[42,12],[13,1]],[[2101,303],[10,-1],[10,-3],[12,-6],[10,-4],[11,-1],[11,-2],[12,-6],[6,-7],[6,-7],[2,-8],[0,-10],[-2,-23],[1,-7],[3,-5],[24,-17]],[[1990,165],[31,12],[9,7],[10,8],[26,42],[6,12],[3,12],[-1,17],[0,8],[4,8],[5,6],[6,3],[5,2],[7,1]],[[2341,245],[6,-1],[8,-3],[13,-7]],[[2217,196],[10,3],[11,15],[9,6],[11,2],[33,2],[13,2],[10,4],[22,13],[5,2]],[[1990,165],[1,-99],[-3,-22],[-1,-22],[-2,-16],[-2,-6]],[[3225,0],[-4,2],[-43,6],[-8,3],[-9,5],[-21,16],[-5,12],[1,13],[4,16],[10,27],[3,13],[-1,35],[3,12],[7,11],[7,9],[5,9],[6,8],[1,5],[0,8],[-6,7],[-7,6],[-8,11],[-2,11],[2,11],[15,28]],[[1489,335],[-2,0],[-24,-3]],[[1463,332],[-13,0]],[[1450,332],[-9,-1],[-21,-12],[-9,-1]],[[1411,318],[-8,0]],[[1403,318],[-9,-1],[-7,-4],[-8,-7],[-16,-21],[-9,-15],[-19,-54],[-4,-15],[-2,-21],[-10,-35],[-5,-10],[-15,-14],[-5,-8],[1,-12],[2,-10],[4,-10],[1,-9],[-1,-10],[-13,-40],[1,-17],[1,-5]],[[4029,2135],[7,-23],[25,-33],[13,-30],[15,-23],[2,-9],[-1,-8],[-6,-10],[-1,-4],[-2,-20],[1,-23],[-2,-13],[-3,-12],[-6,-9],[-6,-6],[-11,-2]],[[4054,1910],[-11,3]],[[4043,1913],[-8,-2],[-5,-10],[0,-12],[3,-11],[8,-21],[4,-16],[0,-40],[2,-15],[5,-11],[7,-8],[6,-8],[4,-13],[-2,-12],[-9,-22],[-10,-32],[-5,-9],[-7,-6],[-15,-20],[-7,-23],[-7,-13],[-15,-22],[-6,-13],[-4,-13],[-5,-22],[1,-34],[-1,-16],[-2,-15],[-6,-21],[-7,-12],[-20,-23],[-12,-22],[-13,-12],[-13,-9],[-12,-4],[-26,-3],[-10,-5],[-10,-10],[-3,-14],[-6,-62]],[[4096,2138],[-35,-12],[-14,-1]],[[4047,2125],[-10,2],[-8,8]],[[3810,0],[-2,24],[-6,35],[0,15],[5,12],[10,10],[13,8],[5,9],[-9,23],[-3,17],[1,45],[-4,30],[1,17],[-1,15],[-4,19],[-2,27]],[[3789,1066],[8,2],[6,3],[6,3],[22,21],[6,10],[3,18],[-5,30],[-1,38],[2,32],[2,18],[-1,36]],[[3440,1143],[30,-4],[8,-7],[10,-3]],[[3580,1137],[12,-3],[9,-10],[15,-26],[10,-10],[8,-5],[6,-2]],[[3561,1128],[10,3],[9,6]],[[3532,1135],[20,-6],[9,-1]],[[3488,1129],[12,0],[14,5],[18,1]],[[3667,1084],[10,-1],[8,-4],[8,-6],[16,-17],[8,-5],[9,0]],[[3640,1081],[6,0],[21,3]],[[3767,1070],[7,-2],[7,-1],[8,-1]],[[3726,1051],[11,4],[13,11],[9,4],[8,0]],[[3440,1143],[-28,-38],[-15,-15],[-51,-78],[-34,-39],[-8,-14],[-3,-10],[2,-9],[2,-6],[4,-8],[4,-11],[2,-13],[3,-42],[-2,-11],[-8,-2]],[[3308,847],[-20,5]],[[3288,852],[-9,-2],[-17,-5],[-9,-1]],[[3253,844],[-35,2]],[[3218,846],[-11,-6],[-7,-8],[-10,-25],[-7,-3]],[[3183,804],[-22,4]],[[3161,808],[-11,-1],[-45,-13],[-28,0],[-12,-6],[-10,-11],[-5,-10],[-1,-9],[1,-9],[6,-9],[5,-9],[3,-12],[0,-12],[-10,-54],[-4,-12],[-21,-40],[-3,-14],[3,-11],[9,-17],[5,-6]],[[3055,556],[6,-1],[5,-6],[15,-34],[3,-8],[1,-11],[-1,-12],[0,-23],[4,-48],[-1,-11],[-6,-25],[-3,-37],[-9,-15]],[[3043,553],[6,0],[6,3]],[[3580,510],[30,-4],[102,-31],[11,-8],[37,-30],[9,-6],[7,-6],[4,-9],[2,-11],[4,-10],[6,-8],[13,-7],[3,-2],[1,-1],[0,-1],[3,-9],[4,-44],[-2,-17]],[[3175,284],[35,22],[27,29],[13,6],[34,11],[123,74],[50,22],[12,3],[20,1],[23,23],[28,23],[18,8],[22,4]],[[3874,1260],[-37,17]],[[4011,1211],[-8,1],[-9,8],[-12,21],[-8,9],[-10,7],[-28,11]],[[3936,1268],[-11,-1],[-27,-7],[-24,0]],[[4096,1207],[-8,5],[-28,8]],[[4060,1220],[-42,-9],[-7,0]],[[4096,276],[-8,3],[-11,8],[-8,9],[-4,7],[-5,4]],[[4060,307],[-4,0],[-6,-8],[-2,-9],[2,-10],[4,-14],[2,-10],[-4,-8],[-23,-16],[-13,-15],[-6,-10],[-7,-6],[-12,-15],[-8,-4]],[[3983,182],[-15,2],[-31,20],[-20,19],[-18,19],[-19,16],[-17,19],[-14,11],[-35,18]],[[3616,12],[-11,-12]],[[3592,196]],[[3592,196],[0,1]],[[3592,197],[1,0]],[[3593,197],[0,2]],[[3593,199],[0,1]],[[3593,200]],[[3593,200],[1,0]],[[3594,200]],[[3594,200],[0,1]],[[3594,201]],[[3594,201],[0,1]],[[3594,202]],[[3594,202]],[[3594,202],[1,1]],[[3595,203]],[[3595,203]],[[3595,203]],[[3595,203],[0,1]],[[3595,204],[2,1]],[[3597,205],[0,1]],[[3597,206],[1,0]],[[3598,206],[0,1]],[[3598,207],[1,0]],[[3599,207]],[[3599,207]],[[3599,207]],[[3599,207]],[[3599,207]],[[3599,207],[0,1]],[[3599,208],[1,0]],[[3600,208],[1,1]],[[3601,209]],[[3601,209],[0,1]],[[3601,210],[1,0]],[[3602,210]],[[3602,210],[0,1]],[[3602,211]],[[3602,211],[0,1]],[[3616,12],[11,13],[-38,145],[0,1],[0,1],[0,1],[2,17],[0,1],[1,5]],[[3685,349],[-75,-120]],[[3610,229],[-1,-1]],[[3609,228]],[[3609,228],[0,-1]],[[3609,227],[-1,-1]],[[3608,226],[-1,-1]],[[3607,225],[0,-1]],[[3607,224],[-1,-1]],[[3606,223]],[[3606,223],[-1,-1]],[[3605,222],[0,-1]],[[3605,221],[-1,-1]],[[3604,220],[-1,0]],[[3603,220],[0,-1]],[[3603,219]],[[3603,219]],[[3603,219],[0,-1]],[[3603,218]],[[3603,218]],[[3603,218]],[[3603,218],[0,-1]],[[3603,217],[0,-3]],[[3603,214],[0,-1]],[[3603,213]],[[3603,213],[0,-1]],[[3603,212],[-1,0]],[[3602,212]],[[3602,212],[0,-1]],[[3602,211]],[[3602,211]],[[3602,211],[0,-1]],[[3602,210]],[[3602,210],[0,-1]],[[3602,209],[-1,0]],[[3601,209]],[[3601,209],[0,-1]],[[3601,208],[-1,0]],[[3600,208]],[[3600,208]],[[3600,208]],[[3600,208],[-1,-1]],[[3599,207]],[[3599,207],[-1,-1]],[[3598,206],[-1,0]],[[3597,206],[0,-1]],[[3597,205],[-2,-1]],[[3595,204],[0,-1]],[[3595,203]],[[3595,203]],[[3595,203]],[[3595,203],[-1,-1]],[[3594,202]],[[3594,202]],[[3594,202],[0,-1]],[[3594,201]],[[3594,201],[0,-1]],[[3594,200]],[[3594,200],[-1,0]],[[3593,200]],[[3593,200],[0,-1]],[[3593,199]],[[3593,199],[0,-2]],[[3593,197]],[[3593,197]],[[3593,197]],[[3593,197],[-1,-1]],[[3592,196]],[[3592,196],[0,-1]],[[3592,195],[0,-1]],[[3592,194]],[[3592,194],[0,-1]],[[3592,193],[-1,-1]],[[3591,192]],[[3591,192],[0,-1]],[[3591,191]],[[3591,191],[0,-1]],[[3591,190]],[[3591,190],[-1,-3]],[[3590,187],[0,-4]],[[3590,183],[0,-1]],[[3590,182],[0,-2]],[[3590,180],[-1,-3]],[[3589,177],[0,-1]],[[3589,176],[0,-1]],[[3589,175],[0,-1]],[[3589,174],[0,-1]],[[3589,173]],[[3589,173],[0,-1]],[[3589,172],[0,-1]],[[3589,171]],[[3589,171],[0,-1]],[[3589,170],[0,-1]],[[3589,169],[0,-1]],[[3589,168],[1,0]],[[3590,168],[0,-1]],[[3590,167],[0,-1]],[[3590,166],[1,0]],[[3591,166],[0,-1]],[[3591,165]],[[3591,165],[1,-1]],[[3592,164],[1,-1]],[[3593,163],[0,-1]],[[3593,162]],[[3593,162]],[[3593,162],[1,-1]],[[3594,161],[0,-1]],[[3594,160],[1,-1]],[[3595,159]],[[3437,0],[-22,121],[12,70]],[[3427,191],[8,20]],[[3591,860],[-42,117],[-95,-2],[-68,-48],[-60,111],[-85,-20],[-97,49],[-95,-6],[-48,59]],[[3590,852],[1,8]],[[3591,860],[20,48],[125,-26],[15,-45],[75,1],[99,-86]],[[1217,0],[50,64],[-28,51],[59,176],[134,119],[-30,36]],[[3426,460],[17,-68],[-31,-90],[34,-64]],[[3578,832],[-4,-189],[-50,-63],[-55,-14],[-43,-106]],[[3600,0],[11,10]],[[3616,12],[-13,-12]],[[3767,452],[-18,-40],[-96,-105],[-51,-97],[-8,-9],[1,-42]],[[3616,12],[-27,159],[5,29],[0,2],[1,1],[7,9]],[[3640,284],[13,23],[3,5],[34,44]],[[3775,464],[-3,-8],[-5,-4]],[[3767,452],[8,12]],[[3836,511],[-52,-12],[-9,-35]],[[3836,511],[4,4]],[[3840,515],[70,124],[0,71]],[[3910,710],[14,39]],[[3917,809],[0,6]],[[3925,754],[-8,55]],[[3928,837],[-11,-22]],[[3928,837],[4,44]],[[3932,881],[5,7],[1,11]],[[3932,881],[6,18]],[[3938,899],[44,53]],[[3965,1020],[5,20]],[[3965,1020],[3,-6]],[[3968,1014],[8,-5]],[[3970,1040],[2,9]],[[3972,1050],[4,27]],[[3976,1077],[-1,9]],[[3975,1086],[-4,9],[0,1],[0,1],[0,1],[1,1],[0,1],[4,4],[1,5],[0,1],[0,1],[1,0],[0,1],[7,5],[2,3]],[[3975,1066],[1,5],[0,4],[0,1],[0,7]],[[3976,1078],[0,4],[-1,4]],[[3994,1131],[-18,-47]],[[3976,1084],[0,-1]],[[3976,1084],[0,-1],[0,-5]],[[3976,1083],[0,-6]],[[3976,1009],[17,-20]],[[3976,1009],[6,-1],[2,-2],[8,-14],[1,-3]],[[3982,952],[6,15]],[[3993,989],[-5,-22]],[[3994,1131],[1,1],[1,1],[0,7],[32,52],[52,50],[16,47]],[[3994,1131],[2,8],[0,1],[5,8]],[[3601,1],[-1,-1]],[[3600,0],[1,1]],[[3601,1],[-1,-1]],[[3600,0],[1,1]],[[3412,115],[-47,25]],[[3415,114],[-3,1]],[[3415,114],[30,-29],[19,-85]],[[3365,141],[-2,0]],[[3364,141],[1,0]],[[3365,141]],[[3364,141],[1,0]],[[3364,140],[1,1]],[[3366,140],[-2,0]],[[3365,141]],[[3365,141],[1,-1]],[[3366,140]],[[3366,140]],[[3366,140]],[[3366,140]],[[3366,140]],[[3366,140]],[[3437,0],[-10,22],[1,86],[-62,32]],[[3366,140],[50,-20]],[[3416,120],[3,-1]],[[3416,120],[2,-1],[1,0]],[[3419,119],[2,-1],[1,-1],[1,-2],[5,-7],[0,-1],[5,-47],[0,-9]],[[3435,6],[1,-1],[3,-5]],[[1613,96],[102,4]],[[1715,100],[-15,49],[69,108],[89,-14],[25,-40]],[[1715,100],[2,0]],[[2888,0],[0,3],[0,4],[1,7],[9,52],[1,6],[-11,74],[-3,30],[-109,137]],[[2960,1229],[-36,-38],[-120,-404],[-7,-108],[60,-137],[-97,-180],[16,-49]],[[2888,0],[0,2],[1,11],[9,53],[1,2],[0,1],[0,3],[0,2],[-1,3],[-2,15]],[[3590,851],[-18,-38],[-50,4],[-6,76],[-28,18],[-46,-26],[-22,-48],[-53,-32],[-64,19],[-47,-75],[-80,-1],[-73,-76],[-76,-7],[-73,50],[-75,-121]],[[3418,119],[14,86]],[[3435,211],[-3,-6]],[[3435,211],[12,26]],[[3447,237],[-1,1]],[[3447,237],[-1,1]],[[3448,0],[-20,108],[-64,32]],[[4096,727],[-37,63],[-34,20],[-101,-61]],[[3792,1668],[38,10],[9,-95],[40,-40]],[[3659,3035],[-20,28]],[[2653,796],[-64,-80]],[[2652,795],[1,1]],[[2956,1228],[-19,0]],[[2937,1228],[-4,-1]],[[2933,1227],[-8,-3]],[[2925,1224],[-1,-1],[-1,-1]],[[2923,1222],[-61,-48],[-25,-75]],[[2837,1099]],[[2837,1099],[-18,-118],[-91,-71],[-75,-114]],[[2923,1222],[2,2]],[[2956,1228],[2,1]],[[2957,1229],[-1,-1]],[[3991,2680],[-1,1],[-1,2]],[[3991,2680],[-2,2]],[[4057,2798],[-68,-115]],[[3989,2683],[0,-1]],[[3989,2682],[2,-2]],[[4096,2826],[-39,-28]],[[4096,1296],[-119,-197],[-2,-8],[0,-24],[-4,-29],[1,-8],[14,-31],[1,-8],[0,-2],[0,-1],[0,-3],[-5,-61],[0,-1],[0,-2],[-2,-4],[-26,-62],[-34,-125],[-14,-42],[-1,-2],[0,-1],[-3,-5],[-58,-99],[-6,-8],[-221,-331],[-11,-71],[-2,-7],[-12,-35],[-11,-36],[-1,-22],[-8,-71]],[[3572,0],[3,33],[5,38],[1,16],[0,3],[0,3],[1,3],[0,2],[10,31],[2,7],[3,7],[7,21],[2,7],[9,63],[0,2],[1,3],[1,2],[0,1],[1,2],[2,4],[6,11],[27,49],[2,2],[1,2],[2,2],[17,21],[3,3],[22,33],[4,8],[2,3],[7,12],[7,13],[33,49],[93,129]],[[3850,591],[7,13]],[[3860,608],[46,79],[14,43],[4,17],[1,6],[1,5],[7,25],[4,15],[3,11],[5,15],[0,1],[2,8],[7,22],[1,2],[4,9],[21,51],[2,6],[5,66],[-1,10],[-14,31],[0,1],[0,2],[-1,1],[0,3],[0,2],[0,2],[0,2],[4,24],[0,15]],[[3977,1099],[2,5],[15,29],[9,19],[1,1],[3,4],[23,39],[4,6],[42,65],[20,30]],[[3975,1086],[12,-97],[-5,-65],[0,-1],[0,-2],[-2,-4],[-26,-62],[-34,-125],[-14,-42],[-1,-2],[0,-1],[-3,-5],[-58,-99],[-6,-8],[-221,-331],[-2,-8],[-8,-54],[0,-5],[-1,-4],[-1,-4],[-1,-3],[-12,-35],[-11,-36],[-1,-22],[-8,-71]],[[3571,0],[10,93],[11,36],[14,42],[9,63],[2,8],[229,343]],[[3745,1269],[-1,-3]],[[3744,1266],[2,-81]],[[3745,1269],[6,93],[106,107],[21,70]],[[3964,1090],[-45,9],[-6,6],[1,2],[4,3],[0,3],[-6,7],[-7,1],[-2,2],[-3,3],[-12,3],[-15,-3],[-6,2],[-18,12],[-19,-11],[-9,-1],[-33,27],[-5,8],[-1,0],[-3,0],[-1,0],[-8,4],[-3,5],[-2,1],[-3,4],[-5,-1],[-2,1],[-9,8]],[[3746,1185],[2,-1],[4,-3],[3,-3],[2,-1],[1,0],[2,0],[1,0],[1,0],[1,-1],[1,0],[1,-3],[2,-1],[3,-4],[1,-1],[3,0],[1,-1],[1,0],[0,-1],[2,-1],[1,-1],[2,0],[1,0],[1,0],[2,-2],[1,-1],[2,-5],[1,-1],[2,0],[0,-1],[6,-4],[1,-2],[3,-1],[1,0],[1,0],[18,-18],[9,1],[4,2],[1,2],[0,1],[7,4],[1,1],[2,0],[2,1],[1,0],[5,-1],[14,-11],[2,0],[4,-1],[8,2],[1,0],[2,0],[2,0],[2,0],[1,0],[11,-3],[1,-1],[2,-2],[2,-1],[7,-2],[6,-5],[0,-1],[0,-1],[0,-1],[0,-1],[0,-1],[-1,-1],[-3,-2],[-1,-2],[6,-6],[45,-9]],[[3850,591],[7,13]],[[3860,608],[46,79],[14,43],[4,17],[1,6],[1,5],[7,25],[4,15],[3,11],[5,15],[0,1],[2,8],[7,22],[1,2],[4,9],[21,51],[2,6],[5,66],[-1,10],[-14,31],[0,1],[0,2],[-1,1],[0,3],[0,2],[0,2],[0,2],[4,24],[0,11]],[[3862,1503],[16,36]],[[3903,1934],[-32,22],[-7,65]],[[3864,2021],[0,2]],[[3864,2023],[0,-2]],[[3904,1931],[18,-183],[-44,-209]],[[3903,1934],[1,-3]],[[3975,1078],[-11,12]],[[3975,1078],[0,4]],[[4096,1610],[-93,12],[-112,-39],[-12,-41]],[[4046,3449],[9,-52],[41,-20]],[[4096,1296],[-101,-160],[-24,-95],[1,-11],[14,-31],[1,-8],[0,-2],[0,-1],[0,-3],[-5,-62],[-2,-6],[-26,-62],[-34,-125],[-13,-38],[-1,-4],[-1,-2],[-3,-6],[-55,-94],[-3,-5],[-6,-8],[-221,-331],[-2,-8],[-8,-54],[0,-5],[-1,-4],[-1,-4],[-1,-3],[-12,-35],[-11,-36],[-1,-22],[-8,-71]],[[3571,0],[10,93],[11,36],[14,42],[9,63],[2,8],[229,343]],[[3735,2915],[25,-62],[99,13],[16,-90],[116,-96]],[[3850,591],[7,13]],[[3860,608],[46,79],[14,43],[4,17],[1,6],[1,5],[7,25],[4,15],[3,11],[5,15],[0,1],[2,8],[7,22],[1,2],[4,9],[21,51],[2,6],[5,66],[-1,10],[-14,31],[0,1],[0,2],[-1,1],[0,3],[0,2],[0,2],[0,2],[4,24],[0,15]],[[3977,1099],[2,5],[15,29],[9,19],[1,1],[3,4],[23,39],[4,6],[42,65],[20,30]],[[3991,2680],[-2,3]],[[4057,2798],[-68,-115]],[[3989,2683],[0,-1]],[[4096,2826],[-39,-28]],[[3923,0],[10,23],[-16,126],[-24,20],[56,80],[-29,162],[45,98],[-33,54],[30,102],[-52,32],[14,51]],[[4046,3449],[9,-52],[41,-20]],[[3972,1152],[4,-70]],[[3530,3072],[32,31],[77,-40]],[[3639,3063],[1,-1]],[[3640,3062],[4,-5]],[[3683,3001],[-39,56]],[[3626,30],[53,34],[76,-13]],[[1217,0],[50,64],[-28,51],[59,176],[134,119],[-30,36]],[[3683,2607],[60,-147]],[[4096,1993],[-48,-2],[-37,33],[-51,2],[-84,-59],[-12,56]],[[0,4096],[3871,0],[-1,-1],[1,-23],[-5,-17],[-9,-58],[-19,-58],[-9,-15],[-13,-12],[-16,-4],[-15,7],[-31,-23],[-11,-11],[-13,-5],[-11,0],[-9,4],[-19,16],[-17,2],[-34,-24],[-9,-23],[-12,-23],[-8,-14],[-15,-8],[-9,-21],[-19,-4],[-14,-17],[-15,-15],[-2,-17],[14,-7],[28,3],[10,-14],[2,-16],[8,-9],[1,-22],[1,-40],[-2,-41],[3,-14],[12,-14],[26,-25],[9,-9],[10,-12],[-4,-20],[-6,-92],[-6,-12],[-10,-29],[3,-20],[-11,-42],[-54,-100],[-27,-32],[-33,-21],[-15,1],[-42,19],[-31,21],[-2,-16],[2,-26],[14,-8],[-12,-6],[4,-20],[15,-20],[6,-10],[10,-24],[6,-8],[48,0],[13,4],[8,8],[7,11],[10,10],[32,5],[32,-17],[28,-27],[17,-25],[8,-29],[0,-23],[15,-39],[0,-27],[-8,-181],[-20,-91],[-19,-75],[-23,-26],[-23,-11],[-11,-23],[-9,-35],[-4,-30],[-2,-38],[-3,-18],[-8,-17],[-5,-16],[-5,-34],[-7,-27],[-31,-86],[-30,-116],[-19,-35],[-23,-31],[-65,-61],[-20,-30],[-14,-39],[-36,-93],[-28,-50],[-14,-39],[-8,-35],[-21,-192],[-6,-17],[-12,-18],[-76,-84],[-47,-36],[-17,-13],[-61,-29],[-30,-4],[-17,1],[-6,-9],[-94,-66],[-53,-44],[-22,-29],[-13,-34],[-32,-118],[-14,-35],[-20,-30],[-43,-38],[-27,-44],[-19,-39],[-14,-31],[-20,-23],[-82,-52],[-82,-85],[-58,-44],[-28,-14],[-31,-7],[-48,9],[-16,-20],[-17,-19],[-39,-17],[-75,-50],[-65,-25],[-90,-40],[-70,-17],[-64,-14],[-38,-20],[-15,-11],[-9,-24],[4,-18],[-5,-14],[-3,-16],[-10,-17],[-8,-25],[-24,-17],[-13,-18],[-25,-5],[-42,7],[-32,-6],[-29,2],[-21,15],[-35,13],[-20,19],[-35,23],[-13,33],[28,40],[1,24],[20,26],[-4,52],[4,53],[-5,18],[-6,4],[-11,-7],[-15,-37],[-17,-8],[-12,4],[-22,26],[-14,3],[-15,-9],[-14,-3],[-10,7],[5,11],[1,21],[14,-1],[4,7],[1,20],[-11,5],[9,27],[18,23],[7,14],[3,8],[8,3],[7,9],[6,0],[-2,-6],[-8,-10],[10,-9],[15,-10],[25,-11],[9,6],[4,12],[16,5],[12,8],[0,18],[16,22],[12,21],[41,16],[32,-7],[15,-1],[5,9],[14,13],[5,10],[2,12],[1,15],[-13,2],[-9,21],[6,31],[6,15],[11,7],[14,6],[15,-3],[12,-1],[19,6],[4,7],[2,13],[-10,8],[-1,11],[5,18],[-7,10],[-33,14],[-30,-7],[-103,-34],[-16,-14],[-15,-19],[-19,-4],[-80,-46],[-23,-1],[-16,9],[-29,-8],[-42,-24],[-25,-15],[-20,-30],[2,-26],[6,-12],[-5,-14],[-10,-17],[-11,-11],[6,-11],[-11,-12],[-6,-15],[-6,-22],[-3,-24],[5,-12],[14,-1],[2,11],[7,2],[9,-7],[4,-15],[-6,-47],[2,-20],[8,-7],[8,-32],[13,-12],[5,-18],[-5,-27],[-6,-16],[-1,-9],[5,-6],[6,-5],[0,-22],[-4,-18],[-52,-131],[-36,-64],[-43,-60],[-1151,0],[0,4096]],[[1476,521],[-8,-10],[-5,-4],[-7,-1],[-8,6],[-5,5],[-6,2],[-5,-1],[-5,-4],[-7,-3],[-6,0],[-5,-3],[-5,-3],[-3,2],[-3,7],[-6,3],[-5,-7],[8,-15],[14,-18],[6,-10],[3,0],[12,4],[6,0],[10,6],[13,5],[14,1],[12,5],[5,8],[-1,8],[0,7],[2,7],[-4,7],[-11,-4]],[[2558,1259],[8,17],[31,50],[6,17],[0,37],[-25,2],[-33,-9],[-26,3],[-6,-16],[-6,-1],[-4,11],[1,19],[4,17],[31,74],[15,56],[9,62],[0,10],[-4,5],[-18,-1],[-8,-3],[-7,-6],[-29,-53],[-20,-14],[-33,-35],[-6,-10],[-14,-10],[-14,-13],[-11,-30],[-30,-43],[-8,-18],[-5,-18],[-2,-19],[0,-22],[11,-27],[49,17],[20,-28],[-9,-14],[-23,-28],[-8,-15],[0,-42],[-3,-12],[-8,-6],[-35,-7],[-7,-4],[-2,-10],[2,-9],[6,-7],[7,-5],[8,-1],[16,2],[76,29],[85,58],[10,14],[9,36]],[[3101,1762],[0,8],[-5,-2],[-1,-3],[-4,-2],[-3,-5],[-4,-8],[-3,-3],[-1,-2],[-6,-4],[2,-4],[-1,-6],[-4,-5],[-1,-3],[0,-3],[4,0],[1,0],[10,8],[4,2],[3,6],[6,11],[3,8],[0,7]],[[3322,2430],[-4,6],[-8,-1],[-4,-7],[0,-2],[-1,-4],[7,-7],[1,2],[-1,2],[2,5],[3,3],[5,3]],[[1151,0],[43,60],[36,64],[52,131],[4,18],[0,22],[-6,5],[-5,6],[1,9],[6,16],[5,27],[-5,18],[-13,12],[-8,32],[-8,7],[-2,20],[6,47],[-4,15],[-9,7],[-7,-2],[-2,-11],[-14,1],[-5,12],[3,24],[6,22],[6,15],[11,12],[-6,11],[11,11],[10,17],[5,14],[-6,12],[-2,26],[20,30],[25,15],[42,24],[29,8],[16,-9],[23,1],[80,46],[19,4],[15,19],[16,14],[103,34],[30,7],[33,-14],[7,-10],[-5,-18],[1,-11],[10,-8],[-2,-13],[-4,-7],[-19,-6],[-12,1],[-15,3],[-14,-6],[-11,-7],[-6,-15],[-6,-31],[9,-21],[13,-2],[-1,-15],[-2,-12],[-5,-10],[-14,-13],[-5,-9],[-15,1],[-32,7],[-41,-16],[-12,-21],[-16,-22],[0,-18],[-12,-8],[-16,-5],[-4,-12],[-9,-6],[-25,11],[-15,10],[-10,9],[8,10],[2,6],[-6,0],[-7,-9],[-8,-3],[-3,-8],[-7,-14],[-18,-23],[-9,-27],[11,-5],[-1,-20],[-4,-7],[-14,1],[-1,-21],[-5,-11],[10,-7],[14,3],[15,9],[14,-3],[22,-26],[12,-4],[17,8],[15,37],[11,7],[6,-4],[5,-18],[-4,-53],[4,-52],[-20,-26],[-1,-24],[-28,-40],[13,-33],[35,-23],[20,-19],[35,-13],[21,-15],[29,-2],[32,6],[42,-7],[25,5],[13,18],[24,17],[8,25],[10,17],[3,16],[5,14],[-4,18],[9,24],[15,11],[38,20],[64,14],[70,17],[90,40],[65,25],[75,50],[39,17],[17,19],[16,20],[48,-9],[31,7],[28,14],[58,44],[82,85],[82,52],[20,23],[14,31],[19,39],[27,44],[43,38],[20,30],[14,35],[32,118],[13,34],[22,29],[53,44],[94,66],[6,9],[17,-1],[30,4],[61,29],[17,13],[47,36],[76,84],[12,18],[6,17],[21,192],[8,35],[14,39],[28,50],[36,93],[14,39],[20,30],[65,61],[23,31],[19,35],[30,116],[31,86],[7,27],[5,34],[5,16],[8,17],[3,18],[2,38],[4,30],[9,35],[11,23],[23,11],[23,26],[19,75],[20,91],[8,181],[0,27],[-15,39],[0,23],[-8,29],[-17,25],[-28,27],[-32,17],[-32,-5],[-10,-10],[-7,-11],[-8,-8],[-13,-4],[-48,0],[-6,8],[-10,24],[-6,10],[-15,20],[-4,20],[12,6],[-14,8],[-2,26],[2,16],[31,-21],[42,-19],[15,-1],[33,21],[27,32],[54,100],[11,42],[-3,20],[10,29],[6,12],[6,92],[4,20],[-10,12],[-9,9],[-26,25],[-12,14],[-3,14],[2,41],[-1,40],[-1,22],[-8,9],[-2,16],[-10,14],[-28,-3],[-14,7],[2,17],[15,15],[14,17],[19,4],[9,21],[15,8],[8,14],[12,23],[9,23],[34,24],[17,-2],[19,-16],[9,-4],[11,0],[13,5],[11,11],[31,23],[15,-7],[16,4],[13,12],[9,15],[19,58],[9,58],[5,17],[-1,23],[1,1]],[[2519,1376],[-6,-16],[-6,-1],[-4,11],[1,19],[4,17],[31,74],[15,56],[9,62],[0,10],[-4,5],[-18,-1],[-8,-3],[-7,-6],[-29,-53],[-20,-14],[-33,-35],[-6,-10],[-14,-10],[-14,-13],[-11,-30],[-30,-43],[-8,-18],[-5,-18],[-2,-19],[0,-22],[11,-27],[49,17],[20,-28],[-9,-14],[-23,-28],[-8,-15],[0,-42],[-3,-12],[-8,-6],[-35,-7],[-7,-4],[-2,-10],[2,-9],[6,-7],[7,-5],[8,-1],[16,2],[76,29],[85,58],[10,14],[9,36],[8,17],[31,50],[6,17],[0,37],[-25,2],[-33,-9],[-26,3]],[[1491,518],[-4,7],[-11,-4],[-8,-10],[-5,-4],[-7,-1],[-8,6],[-5,5],[-6,2],[-5,-1],[-5,-4],[-7,-3],[-6,0],[-5,-3],[-5,-3],[-3,2],[-3,7],[-6,3],[-5,-7],[8,-15],[14,-18],[6,-10],[3,0],[12,4],[6,0],[10,6],[13,5],[14,1],[12,5],[5,8],[-1,8],[0,7],[2,7]],[[4074,3694],[-2,-8],[19,-17]],[[4096,3743],[-3,-11],[-18,-27],[-1,-11]],[[4091,3669],[5,-4]],[[4096,3874],[-3,-3],[0,-11],[3,-8]],[[3715,2880],[18,-11],[18,-4],[38,0]],[[3789,2865],[1,0],[27,-4],[30,-15],[21,-16],[30,-11]],[[3898,2819],[30,-4],[21,-8],[30,8],[27,-12],[36,-23],[9,0],[6,8],[6,23],[30,15],[3,2]],[[4008,2409],[1,-14],[-5,-13]],[[4060,2544],[0,-22],[-4,-14]],[[3963,2684],[1,0],[21,-35],[3,-1]],[[4004,2382],[-1,-3],[-12,-19],[-9,-27],[-6,-35],[-6,-11],[-30,-20],[-18,-19],[-12,-23],[-12,-38],[-12,-27],[0,-35],[-9,-43],[-9,-50],[0,-38],[6,-35]],[[3898,2819],[-3,-35],[15,-65],[18,-16],[35,-19]],[[3988,2648],[12,-7],[27,-7],[12,-12],[6,-11],[9,-31],[6,-31],[0,-5]],[[4056,2508],[-5,-17],[-6,-8],[-21,-11],[-9,-12],[-9,-23],[2,-28]],[[3932,1671],[-1,-5]],[[3940,1747],[-5,-59]],[[3874,1959],[6,-12],[18,-7],[21,-8],[12,-12],[3,-15],[6,-65],[3,-47],[-3,-46]],[[3935,1688],[-1,-7],[-2,-10]],[[3931,1666],[5,4]],[[3936,1670],[19,15],[21,4],[33,-8],[27,-15],[33,-38],[27,-25]],[[3678,3345],[-23,6]],[[4050,3672],[4,-5],[10,-23]],[[3999,3794],[-11,-19],[0,-16],[6,-19],[15,-19],[10,-9]],[[4071,3842],[-16,-20]],[[4064,3644],[2,-4],[9,-31],[15,-54],[0,-15],[-15,-35],[-12,-12],[-18,-11],[-6,-12],[-12,-27],[-48,0],[-27,-4],[-33,-15],[-18,-15],[-12,-8],[-18,-4],[-33,-15],[-24,-24],[-15,-7],[-48,4],[-63,-12],[-10,2]],[[4055,3822],[-1,-1],[-30,-11],[-21,-8],[-4,-8]],[[4019,3712],[11,-10],[20,-30]],[[4096,3933],[-12,-15],[-9,-24],[-3,-11],[3,-27],[-3,-12],[-1,-2]],[[2967,1234],[0,4]],[[3964,1156],[-3,-3],[-6,-15]],[[4096,1371],[-6,-10],[-6,-23],[6,-15],[6,-7]],[[4096,1269],[-27,0],[-12,-4],[-15,-11],[-27,-43],[-24,-31],[-27,-24]],[[3942,1143],[13,-5]],[[3737,1245],[20,-34],[6,-4],[21,-8]],[[3774,1389],[-12,-34]],[[3931,1666],[-27,-92],[-3,-27],[-12,-39],[-12,-15],[-24,-24],[-27,-14]],[[3762,1355],[-8,-24],[-15,-31],[-6,-23],[3,-31],[1,-1]],[[3826,1455],[-9,-5],[-27,-19],[-6,-12],[-10,-30]],[[3784,1199],[9,-3],[9,-8],[18,-39],[9,0],[15,12],[15,8],[24,-4],[24,-8],[35,-14]],[[3046,1166],[-19,3],[-33,7],[-9,8],[-18,27],[0,23]],[[3394,926],[-9,23],[-16,23],[-15,12],[-21,11],[-78,4],[-18,4],[-18,15],[-15,4],[-15,31],[-24,15],[-45,12],[-21,12],[-12,15],[-9,42],[-6,8],[-15,8],[-11,1]],[[3463,907],[-18,-4],[-24,15],[-21,0],[-6,8]],[[3622,895],[6,3]],[[3622,895]],[[3628,898],[12,5]],[[3601,876],[19,18]],[[3620,894],[2,1]],[[3604,881],[-3,-5]],[[3622,895],[-9,0],[-9,-14]],[[3594,873],[7,3]],[[3571,864],[23,9]],[[3501,920],[-11,-2],[-10,-4]],[[3480,914],[-17,-7]],[[3571,864],[-21,27],[-36,31],[-13,-2]],[[3601,876],[-9,-16],[-12,-4],[-4,3]],[[3576,859],[-5,5]],[[3960,982],[-2,-6],[-24,-39],[-9,-19],[-6,-23],[-9,-58],[-6,-15]],[[3955,1138],[-6,-23],[3,-20],[3,-34],[12,-31],[-2,-24]],[[3965,1006],[-1,-11],[-4,-13]],[[3886,834],[18,-12]],[[3706,907],[3,0],[21,-8],[24,-16]],[[3640,903],[33,7],[33,-3]],[[3754,883],[12,-7],[66,-16],[39,-15],[15,-11]],[[3904,822],[-6,-20],[-15,-19]],[[2408,538],[-6,-5],[-33,-20]],[[2652,755],[-12,-14],[-21,-39],[-9,-7],[-11,-7]],[[2754,799],[-21,3],[-9,-3],[-3,-2]],[[2599,688],[-7,-5],[-27,-4],[-30,-15],[-24,-20],[-27,-27],[-28,-27],[-36,-38],[-12,-14]],[[2721,797],[-15,-10],[-39,-15],[-15,-17]],[[3883,783],[12,-23],[18,-27],[21,-35],[33,-23],[1,0]],[[3968,675],[29,-11],[24,-16],[15,-11],[12,-16],[12,-31],[12,-7],[15,-23],[9,-7]],[[2333,263],[-3,-16],[-2,-21]],[[2396,412],[0,-34],[-6,-11],[-12,-12],[-27,-15],[-6,-16],[-5,-26]],[[2369,513],[18,-30],[2,-8]],[[2328,226],[-1,-6]],[[2340,298],[-1,-4],[-6,-31]],[[2389,475],[4,-19],[3,-35],[0,-9]],[[2315,243],[3,-15],[7,-6]],[[2325,222],[2,-2]],[[2958,84],[3,-2],[15,-20],[3,-7]],[[2880,622],[9,-8],[6,-27],[-3,-24],[-15,-65],[-9,-12],[-33,-15],[-12,-15],[-3,-16],[3,-35],[-3,-15],[-12,-23],[-6,-31],[3,-54],[0,-29]],[[2812,888],[-7,-12],[-30,-70],[-12,-57],[-18,-51],[-6,-27],[-3,-19],[6,-11],[15,-8],[36,-8],[21,0],[12,4],[12,2]],[[2863,1022],[-1,-4],[-6,-11],[-12,-43],[-6,-15],[-9,-24]],[[2967,1234],[-21,-4],[-30,-19],[-24,-31],[-4,-21]],[[2805,253],[0,-10],[9,-19],[30,-38],[36,-39],[57,-42],[21,-21]],[[2829,925],[-6,-18],[-11,-19]],[[2838,631],[18,2],[18,-4],[6,-7]],[[2888,1159],[-2,-10],[0,-42],[-23,-85]],[[3573,132],[-2,-8],[-27,-58],[-15,-31]],[[3620,339],[-10,-15],[-12,-23],[-9,-11],[-17,-25]],[[3686,423],[-46,-48],[-8,-18]],[[3784,523],[-21,-17],[-17,-18]],[[3823,543],[-13,-7]],[[3883,783],[-10,-17]],[[3886,712],[6,-6],[6,-15],[3,-27],[-15,-43],[-13,-21]],[[3572,265],[-1,-2],[-15,-35],[0,-19],[18,-35],[3,-11],[-3,-27],[-1,-4]],[[3632,357],[-1,-2],[-11,-16]],[[3746,488],[-60,-65]],[[3810,536],[-23,-11],[-3,-2]],[[3873,600],[-17,-29],[-15,-19],[-18,-9]],[[3873,766],[-2,-2],[-6,-15],[6,-20],[15,-17]],[[1847,304],[-12,-10],[-18,-27],[-24,-43],[-12,-15],[-6,-16],[-21,-34],[-15,-20],[-21,-23],[-18,-31],[-21,-27],[-24,-15],[-27,-12],[-15,0]],[[1880,330],[-17,-14]],[[2369,513],[-18,-7],[-16,-3]],[[1863,316],[-16,-12]],[[2335,503],[-35,-5],[-54,-15],[-30,-16],[-78,-62],[-48,-23],[-36,-19],[-33,-8],[-60,4],[-15,-15],[-18,-12],[-36,4],[-9,-4],[-3,-2]],[[4096,36],[-3,-8]],[[1613,31],[-9,0],[-18,12],[-12,15],[-13,4],[-24,0],[-24,12],[-24,-8],[-54,-54]],[[1435,12],[-27,-11],[-39,11],[-15,-5]],[[1354,7],[-6,-3],[-9,-4]],[[3529,35],[12,-19],[6,-16]],[[2422,204],[7,-7],[12,-27],[3,-15],[-3,-31],[-6,-35],[-12,-31],[-24,-46],[-9,-11],[-2,-1]],[[2403,214],[4,-1]],[[2327,220],[9,-4],[48,0],[19,-2]],[[2407,213],[4,0],[11,-9]],[[2363,70],[-30,-27],[-12,-15],[-16,-28]],[[4093,28],[-12,-28]],[[2979,55],[3,-16],[-6,-35],[0,-4]],[[3529,35],[-8,-35]],[[1435,12],[6,-8],[2,-4]],[[3276,1523],[-6,-23]],[[3520,1994],[-15,-4],[-21,-11]],[[3484,1979],[-9,-5],[-9,0],[-33,4],[-15,-4],[-33,-30],[-13,-20],[-45,-92],[-6,-19],[0,-27],[-3,-16],[21,-27],[3,-19],[-3,-16],[-21,-34],[-9,-31],[0,-31],[-3,-15],[-27,-62],[-3,-12]],[[3685,2603],[-12,-12],[-5,-11]],[[3668,2580],[-13,-31],[-12,-23],[-15,-20],[-21,-7],[-12,-12],[-12,-34],[0,-12],[3,-27],[-6,-23],[-9,-23],[-9,-31],[0,-31],[-3,-27]],[[3161,1277],[-5,0],[-33,7],[-18,0],[-84,-30],[-45,-16],[-9,-4]],[[3225,1357],[-4,-8]],[[3270,1500],[-2,-11]],[[3221,1349],[-2,-3],[-15,-38],[-9,-20],[-15,-7],[-19,-4]],[[3268,1489],[-10,-43],[-27,-77],[-6,-12]],[[3534,2020],[-5,-19],[-9,-7]],[[3529,2200],[-6,-21],[0,-35],[3,-35],[2,-7]],[[3528,2102],[7,-23],[3,-35],[-3,-23],[-1,-1]],[[3559,2279],[-6,-15],[-18,-47],[-6,-17]],[[3684,2629],[-2,-7],[3,-19]],[[3694,3029],[-12,-21],[0,-23],[3,-27],[18,-58],[6,-12],[-9,-15],[0,-20],[1,-8]],[[3655,3351],[-6,-16],[2,-20]],[[3651,3315],[1,-10],[3,-24],[9,-23],[24,-27],[12,-31],[3,-19],[6,-31],[6,-50],[-3,-31],[-12,-30],[-6,-10]],[[3701,2845],[5,-34],[0,-73],[-6,-43],[-15,-61],[-1,-5]],[[2503,1370],[4,-11],[6,1],[6,16],[26,-3],[33,9],[25,-2],[0,-37],[-6,-17],[-31,-50],[-8,-17],[-9,-36],[-10,-14],[-85,-58],[-76,-29],[-16,-2],[-8,1],[-7,5],[-6,7],[-2,9],[2,10],[7,4],[35,7],[8,6],[3,12],[0,42],[8,15],[23,28],[9,14],[-20,28],[-49,-17],[-11,27],[0,22],[2,19],[5,18],[8,18],[30,43],[11,30],[14,13],[14,10],[6,10],[33,35],[20,14],[29,53],[7,6],[8,3],[18,1],[4,-5],[0,-10],[-9,-62],[-15,-56],[-31,-74],[-4,-17],[-1,-19]],[[1489,511],[0,-7],[1,-8],[-5,-8],[-12,-5],[-14,-1],[-13,-5],[-10,-6],[-6,0],[-12,-4],[-3,0],[-6,10],[-14,18],[-8,15],[5,7],[6,-3],[3,-7],[3,-2],[5,3],[5,3],[6,0],[7,3],[5,4],[5,1],[6,-2],[5,-5],[8,-6],[7,1],[5,4],[8,10],[11,4],[4,-7],[-2,-7]],[[4096,4096],[0,-4096],[-2945,0],[43,60],[36,64],[52,131],[4,18],[0,22],[-6,5],[-5,6],[1,9],[6,16],[5,27],[-5,18],[-13,12],[-8,32],[-8,7],[-2,20],[6,47],[-4,15],[-9,7],[-7,-2],[-2,-11],[-14,1],[-5,12],[3,24],[6,22],[6,15],[11,12],[-6,11],[11,11],[10,17],[5,14],[-6,12],[-2,26],[20,30],[25,15],[42,24],[29,8],[16,-9],[23,1],[80,46],[19,4],[15,19],[16,14],[103,34],[30,7],[33,-14],[7,-10],[-5,-18],[1,-11],[10,-8],[-2,-13],[-4,-7],[-19,-6],[-12,1],[-15,3],[-14,-6],[-11,-7],[-6,-15],[-6,-31],[9,-21],[13,-2],[-1,-15],[-2,-12],[-5,-10],[-14,-13],[-5,-9],[-15,1],[-32,7],[-41,-16],[-12,-21],[-16,-22],[0,-18],[-12,-8],[-16,-5],[-4,-12],[-9,-6],[-25,11],[-15,10],[-10,9],[8,10],[2,6],[-6,0],[-7,-9],[-8,-3],[-3,-8],[-7,-14],[-18,-23],[-9,-27],[11,-5],[-1,-20],[-4,-7],[-14,1],[-1,-21],[-5,-11],[10,-7],[14,3],[15,9],[14,-3],[22,-26],[12,-4],[17,8],[15,37],[11,7],[6,-4],[5,-18],[-4,-53],[4,-52],[-20,-26],[-1,-24],[-28,-40],[13,-33],[35,-23],[20,-19],[35,-13],[21,-15],[29,-2],[32,6],[42,-7],[25,5],[13,18],[24,17],[8,25],[10,17],[3,16],[5,14],[-4,18],[9,24],[15,11],[38,20],[64,14],[70,17],[90,40],[65,25],[75,50],[39,17],[17,19],[16,20],[48,-9],[31,7],[28,14],[58,44],[82,85],[82,52],[20,23],[14,31],[19,39],[27,44],[43,38],[20,30],[14,35],[32,118],[13,34],[22,29],[53,44],[94,66],[6,9],[17,-1],[30,4],[61,29],[17,13],[47,36],[76,84],[12,18],[6,17],[21,192],[8,35],[14,39],[28,50],[36,93],[14,39],[20,30],[65,61],[23,31],[19,35],[30,116],[31,86],[7,27],[5,34],[5,16],[8,17],[3,18],[2,38],[4,30],[9,35],[11,23],[23,11],[23,26],[19,75],[20,91],[8,181],[0,27],[-15,39],[0,23],[-8,29],[-17,25],[-28,27],[-32,17],[-32,-5],[-10,-10],[-7,-11],[-8,-8],[-13,-4],[-48,0],[-6,8],[-10,24],[-6,10],[-15,20],[-4,20],[12,6],[-14,8],[-2,26],[2,16],[31,-21],[42,-19],[15,-1],[33,21],[27,32],[54,100],[11,42],[-3,20],[10,29],[6,12],[6,92],[4,20],[-10,12],[-9,9],[-26,25],[-12,14],[-3,14],[2,41],[-1,40],[-1,22],[-8,9],[-2,16],[-10,14],[-28,-3],[-14,7],[2,17],[15,15],[14,17],[19,4],[9,21],[15,8],[8,14],[12,23],[9,23],[34,24],[17,-2],[19,-16],[9,-4],[11,0],[13,5],[11,11],[31,23],[15,-7],[16,4],[13,12],[9,15],[19,58],[9,58],[5,17],[-1,23],[1,1],[225,0]],[[1265,0],[-125,0],[109,171],[25,-14],[-9,-39],[32,-73],[-32,-45]],[[2841,0],[-58,0],[-5,24],[73,-10],[-10,-14]],[[2393,0],[-186,0],[-4,4],[41,31],[50,-12],[6,43],[32,10],[-23,115],[29,15],[35,-47],[41,11],[16,72],[-24,-31],[-38,39],[62,44],[0,-31],[20,6],[12,36],[39,8],[18,-133],[-16,-62],[-33,-21],[-32,-93],[-32,10],[-13,-14]],[[1708,0],[-35,0],[13,24],[39,4],[-17,-28]],[[2630,6],[-38,8],[40,52],[15,-36],[-17,-24]],[[3101,159],[-18,-29],[-6,-75],[-8,104],[32,0]],[[2115,118],[0,-21],[-33,-83],[-32,44],[24,49],[41,11]],[[1304,215],[-43,-14],[19,126],[50,-12],[-26,-100]],[[1306,357],[-17,31],[17,41],[12,-10],[-12,-62]],[[1472,0],[-118,0],[0,87],[89,72],[-40,94],[57,20],[0,-51],[55,-42],[159,-31],[62,40],[31,114],[53,31],[57,12],[3,-17],[-33,-24],[-16,-83],[-81,-69],[9,-56],[-25,-52],[-24,21],[-65,-42],[-2,-24],[-138,0],[11,58],[-32,-23],[-12,-35]],[[2357,263],[-40,-52],[-17,11],[17,41],[40,0]],[[1391,710],[-22,10],[-6,19],[48,6],[-20,-35]],[[3998,767],[12,38],[22,9],[-4,-27],[-30,-20]],[[4056,772],[8,31],[20,22],[-4,-43],[-24,-10]],[[3626,898],[26,-7],[-30,-28],[-3,-50],[-57,-31],[9,73],[55,43]],[[3749,865],[-58,33],[66,40],[-3,-55],[-5,-18]],[[4069,1001],[-13,10],[28,30],[8,-27],[-23,-13]],[[3498,897],[-21,21],[5,31],[20,-22],[-4,-30]],[[3546,959],[-19,41],[11,42],[49,-31],[-41,-52]],[[3223,1415],[-8,-30],[16,-42],[-65,42],[57,30]],[[4096,1506],[0,-34],[-3,-3],[-9,31],[12,6]],[[3779,1356],[-47,-3],[6,28],[42,10],[-1,-35]],[[3674,1445],[18,-50],[-41,12],[-8,-22],[0,52],[31,8]],[[3267,1488],[-18,24],[46,18],[-3,-21],[-25,-21]],[[3959,1707],[-41,-32],[33,-10],[-17,-45],[25,-28],[-31,-43],[15,-40],[-23,4],[-42,-76],[-57,-11],[16,94],[57,52],[16,83],[-73,-87],[-7,28],[40,27],[-49,0],[5,21],[-37,-21],[16,11],[-26,36],[31,35],[68,-30],[57,32],[0,52],[24,-52]],[[3595,1927],[-38,-21],[-19,8],[73,50],[-16,-37]],[[3554,2166],[-62,-148],[18,-20],[20,41],[16,-73],[-56,-10],[-24,99],[50,162],[38,-51]],[[4056,2423],[-26,-41],[-39,-1],[33,52],[32,-10]],[[4040,2496],[-1,19],[17,33],[24,-21],[-40,-31]],[[3789,2865],[25,-42],[-57,36],[-75,-19],[2,85],[-45,133],[61,-33],[73,-93],[16,-67]],[[3648,3313],[-18,5],[20,92],[48,-43],[-50,-54]],[[4069,3404],[-45,16],[33,38],[20,-11],[-8,-43]],[[3999,3939],[-40,-21],[-2,-42],[-14,42],[-41,11],[97,10]],[[3951,3794],[89,0],[-24,-94],[-46,14],[-19,49],[-8,-63],[-26,7],[18,118],[16,-31]],[[4096,3804],[0,-39],[-8,39],[8,0]],[[4072,3804],[-16,11],[-8,62],[29,-45],[-5,-28]],[[4096,3690],[0,-2],[-5,-21],[-29,-25],[-22,58],[56,-10]],[[3708,2631],[-18,-49],[-46,-4],[12,50],[52,3]],[[3977,2727],[22,-75],[-32,-11],[-8,88],[18,-2]],[[2924,1042],[-9,54],[16,18],[19,-26],[-26,-46]],[[2476,1350],[2,-28],[-51,-32],[-35,10],[22,43],[62,7]],[[3773,1229],[16,-42],[-89,11],[49,62],[24,-31]],[[3716,1250],[-20,34],[36,7],[0,-12],[-16,-29]],[[4096,1373],[0,-81],[0,1],[-23,35],[23,45]],[[4096,666],[0,-24],[-24,37],[24,-13]],[[2079,385],[-26,23],[49,19],[4,-24],[-27,-18]],[[1430,424],[33,13],[4,-35],[-89,-56],[9,103],[43,-25]],[[2630,482],[-18,32],[36,9],[0,-22],[-18,-19]],[[3958,557],[33,-3],[0,-52],[-40,-21],[7,76]],[[2758,539],[8,-48],[-45,-20],[-16,62],[31,22],[22,-16]],[[2381,450],[25,-62],[-25,-94],[-28,-12],[-38,45],[34,82],[-18,124],[109,79],[10,-22],[-40,-44],[-29,-96]],[[2530,411],[-4,33],[33,8],[9,-23],[-38,-18]],[[2883,494],[-49,-148],[47,-31],[-22,-21],[-33,21],[8,-62],[-56,0],[-8,41],[-41,11],[-8,52],[-32,0],[0,-42],[-27,17],[3,87],[24,21],[76,11],[21,-32],[32,83],[13,-27],[44,79],[-33,41],[9,32],[72,-11],[-40,-122]],[[2697,388],[27,-5],[21,26],[-32,-1],[-16,-20]],[[2988,0],[-55,0],[-58,66],[24,41],[32,-31],[73,21],[22,-36],[-38,-61]],[[3726,0],[-285,0],[8,14],[-32,41],[8,32],[-57,52],[-89,5],[73,47],[24,-52],[33,-11],[16,31],[81,0],[-15,-36],[47,-67],[24,83],[33,-21],[-27,176],[30,45],[34,0],[-5,132],[25,23],[22,-17],[16,-74],[67,47],[-57,-145],[53,-48],[-4,-25],[-25,42],[-81,-63],[65,-124],[48,-6],[-7,26],[32,32],[-16,-104],[-58,-4],[19,-31]],[[3960,0],[-57,0],[28,32],[29,-32]],[[4004,0],[-9,0],[4,4],[5,-4]],[[4049,0],[-16,0],[7,14],[9,-14]],[[2649,783],[8,-72],[-65,-26],[-14,39],[55,87],[16,-28]],[[4096,1177],[0,-36],[-48,-26],[-8,-52],[-32,-11],[8,-114],[-49,-41],[-24,-84],[32,-134],[-40,-21],[8,-52],[-57,-21],[16,-31],[-40,-21],[0,-62],[-16,10],[19,-40],[21,9],[-16,10],[24,21],[-8,31],[24,11],[-16,-63],[65,-10],[-34,-62],[-168,83],[-33,52],[73,0],[49,52],[-25,-31],[17,-11],[38,46],[-6,58],[24,21],[-16,114],[-41,-42],[17,52],[-17,52],[65,0],[-6,70],[79,96],[-73,42],[13,57],[36,57],[50,-3],[47,66],[8,-42],[40,0]],[[4096,1205],[0,-27],[-16,41],[16,-14]],[[3182,1270],[-32,-83],[-16,63],[-57,-42],[-32,11],[5,-48],[-28,-31],[79,-60],[-80,-59],[-25,94],[-32,-11],[16,63],[-121,-11],[16,-52],[-24,-10],[8,-73],[129,31],[-1,-59],[-96,-65],[12,-29],[45,-2],[-25,-94],[-40,62],[-32,-103],[-49,-32],[3,-50],[51,-40],[-52,-27],[-59,14],[-24,31],[0,145],[57,94],[40,-11],[24,31],[-72,42],[16,93],[32,11],[-22,61],[-21,-34],[12,31],[175,148],[143,58],[37,-5],[8,-41],[32,-11]]]}