{"objects":{"water":{"type":"GeometryCollection","geometries":[{"type":"Polygon","properties":{"source":"naturalearthdata.com","kind":"lake","name":"Lake Okeechobee","area":2001754496,"sort_rank":200,"min_zoom":0.0,"id":13},"arcs":[[158]]},{"type":"MultiPolygon","properties":{"source":"naturalearthdata.com","kind":"ocean","area":1576712559132672,"sort_rank":200,"min_zoom":0.0,"id":1},"arcs":[[[159],[160],[161],[162],[163],[164],[165],[166],[167],[168],[169],[170],[171],[172],[173],[174],[175],[176],[177],[178],[179],[180],[181],[182],[183],[184],[185],[186],[187],[188],[189],[190],[191],[192],[193],[194],[195],[196],[197],[198],[199],[200],[201],[202],[203],[204],[205],[206],[207],[208],[209],[210],[211],[212],[213],[214],[215],[216],[217],[218],[219],[220],[221],[222],[223],[224],[225],[226],[227],[228]],[[229]],[[230],[231],[232],[233],[234],[235],[236]]]},{"type":"Point","properties":{"label_placement":true,"kind":"lake","name":"Lake Okeechobee","area":2001754496,"sort_rank":200,"source":"naturalearthdata.com","min_zoom":0.0,"id":13},"coordinates":[2570,4002]},{"type":"MultiLineString","properties":{"source":"naturalearthdata.com","kind":"lake","sort_rank":367,"boundary":true,"min_zoom":0.0,"id":13},"arcs":[[237],[238]]},{"type":"LineString","properties":{"source":"naturalearthdata.com","kind":"ocean","sort_rank":205,"boundary":true,"min_zoom":0.0,"id":70},"arcs":[239]},{"type":"LineString","properties":{"source":"naturalearthdata.com","kind":"ocean","sort_rank":205,"boundary":true,"min_zoom":0.0,"id":585},"arcs":[240]},{"type":"LineString","properties":{"source":"naturalearthdata.com","kind":"ocean","sort_rank":205,"boundary":true,"min_zoom":0.0,"id":586},"arcs":[241]},{"type":"LineString","properties":{"source":"naturalearthdata.com","kind":"ocean","sort_rank":205,"boundary":true,"min_zoom":0.0,"id":587},"arcs":[242]},{"type":"LineString","properties":{"source":"naturalearthdata.com","kind":"ocean","sort_rank":205,"boundary":true,"min_zoom":0.0,"id":588},"arcs":[243]},{"type":"LineString","properties":{"source":"naturalearthdata.com","kind":"ocean","sort_rank":205,"boundary":true,"min_zoom":0.0,"id":589},"arcs":[244]},{"type":"LineString","properties":{"source":"naturalearthdata.com","kind":"ocean","sort_rank":205,"boundary":true,"min_zoom":0.0,"id":590},"arcs":[245]},{"type":"LineString","properties":{"source":"naturalearthdata.com","kind":"ocean","sort_rank":205,"boundary":true,"min_zoom":0.0,"id":591},"arcs":[246]},{"type":"LineString","properties":{"source":"naturalearthdata.com","kind":"ocean","sort_rank":205,"boundary":true,"min_zoom":0.0,"id":592},"arcs":[247]},{"type":"LineString","properties":{"source":"naturalearthdata.com","kind":"ocean","sort_rank":205,"boundary":true,"min_zoom":0.0,"id":594},"arcs":[248]},{"type":"LineString","properties":{"source":"naturalearthdata.com","kind":"ocean","sort_rank":205,"boundary":true,"min_zoom":0.0,"id":595},"arcs":[249]},{"type":"LineString","properties":{"source":"naturalearthdata.com","kind":"ocean","sort_rank":205,"boundary":true,"min_zoom":0.0,"id":600},"arcs":[250]},{"type":"LineString","properties":{"source":"naturalearthdata.com","kind":"ocean","sort_rank":205,"boundary":true,"min_zoom":0.0,"id":601},"arcs":[251]},{"type":"LineString","properties":{"source":"naturalearthdata.com","kind":"ocean","sort_rank":205,"boundary":true,"min_zoom":0.0,"id":602},"arcs":[252]},{"type":"LineString","properties":{"source":"naturalearthdata.com","kind":"ocean","sort_rank":205,"boundary":true,"min_zoom":0.0,"id":604},"arcs":[253]},{"type":"LineString","properties":{"source":"naturalearthdata.com","kind":"ocean","sort_rank":205,"boundary":true,"min_zoom":0.0,"id":605},"arcs":[254]},{"type":"LineString","properties":{"source":"naturalearthdata.com","kind":"ocean","sort_rank":205,"boundary":true,"min_zoom":0.0,"id":607},"arcs":[255]},{"type":"LineString","properties":{"source":"naturalearthdata.com","kind":"ocean","sort_rank":205,"boundary":true,"min_zoom":0.0,"id":608},"arcs":[256]},{"type":"LineString","properties":{"source":"naturalearthdata.com","kind":"ocean","sort_rank":205,"boundary":true,"min_zoom":0.0,"id":609},"arcs":[257]},{"type":"LineString","properties":{"source":"naturalearthdata.com","kind":"ocean","sort_rank":205,"boundary":true,"min_zoom":0.0,"id":612},"arcs":[258]},{"type":"LineString","properties":{"source":"naturalearthdata.com","kind":"ocean","sort_rank":205,"boundary":true,"min_zoom":0.0,"id":613},"arcs":[259]},{"type":"LineString","properties":{"source":"naturalearthdata.com","kind":"ocean","sort_rank":205,"boundary":true,"min_zoom":0.0,"id":614},"arcs":[260]},{"type":"LineString","properties":{"source":"naturalearthdata.com","kind":"ocean","sort_rank":205,"boundary":true,"min_zoom":0.0,"id":615},"arcs":[261]},{"type":"LineString","properties":{"source":"naturalearthdata.com","kind":"ocean","sort_rank":205,"boundary":true,"min_zoom":0.0,"id":616},"arcs":[262]},{"type":"MultiLineString","properties":{"source":"naturalearthdata.com","kind":"ocean","sort_rank":205,"boundary":true,"min_zoom":0.0,"id":2907},"arcs":[[263],[264],[265],[266]]},{"type":"LineString","properties":{"source":"naturalearthdata.com","kind":"ocean","sort_rank":205,"boundary":true,"min_zoom":0.0,"id":3390},"arcs":[267]},{"type":"LineString","properties":{"source":"naturalearthdata.com","kind":"ocean","sort_rank":205,"boundary":true,"min_zoom":0.0,"id":3391},"arcs":[268]},{"type":"LineString","properties":{"source":"naturalearthdata.com","kind":"ocean","sort_rank":205,"boundary":true,"min_zoom":0.0,"id":3392},"arcs":[269]},{"type":"LineString","properties":{"source":"naturalearthdata.com","kind":"ocean","sort_rank":205,"boundary":true,"min_zoom":0.0,"id":3393},"arcs":[270]},{"type":"LineString","properties":{"source":"naturalearthdata.com","kind":"ocean","sort_rank":205,"boundary":true,"min_zoom":0.0,"id":3678},"arcs":[271]},{"type":"LineString","properties":{"source":"naturalearthdata.com","kind":"ocean","sort_rank":205,"boundary":true,"min_zoom":0.0,"id":3679},"arcs":[272]},{"type":"LineString","properties":{"source":"naturalearthdata.com","kind":"ocean","sort_rank":205,"boundary":true,"min_zoom":0.0,"id":3680},"arcs":[273]},{"type":"LineString","properties":{"source":"naturalearthdata.com","kind":"ocean","sort_rank":205,"boundary":true,"min_zoom":0.0,"id":3681},"arcs":[274]},{"type":"LineString","properties":{"source":"naturalearthdata.com","kind":"ocean","sort_rank":205,"boundary":true,"min_zoom":0.0,"id":3682},"arcs":[275]},{"type":"LineString","properties":{"source":"naturalearthdata.com","kind":"ocean","sort_rank":205,"boundary":true,"min_zoom":0.0,"id":3683},"arcs":[276]},{"type":"LineString","properties":{"source":"naturalearthdata.com","kind":"ocean","sort_rank":205,"boundary":true,"min_zoom":0.0,"id":3684},"arcs":[277]},{"type":"LineString","properties":{"source":"naturalearthdata.com","kind":"ocean","sort_rank":205,"boundary":true,"min_zoom":0.0,"id":3685},"arcs":[278]},{"type":"LineString","properties":{"source":"naturalearthdata.com","kind":"ocean","sort_rank":205,"boundary":true,"min_zoom":0.0,"id":3686},"arcs":[279]},{"type":"LineString","properties":{"source":"naturalearthdata.com","kind":"ocean","sort_rank":205,"boundary":true,"min_zoom":0.0,"id":3687},"arcs":[280]},{"type":"LineString","properties":{"source":"naturalearthdata.com","kind":"ocean","sort_rank":205,"boundary":true,"min_zoom":0.0,"id":3688},"arcs":[281]},{"type":"LineString","properties":{"source":"naturalearthdata.com","kind":"ocean","sort_rank":205,"boundary":true,"min_zoom":0.0,"id":3689},"arcs":[282]},{"type":"LineString","properties":{"source":"naturalearthdata.com","kind":"ocean","sort_rank":205,"boundary":true,"min_zoom":0.0,"id":3690},"arcs":[283]},{"type":"LineString","properties":{"source":"naturalearthdata.com","kind":"ocean","sort_rank":205,"boundary":true,"min_zoom":0.0,"id":3691},"arcs":[284]},{"type":"LineString","properties":{"source":"naturalearthdata.com","kind":"ocean","sort_rank":205,"boundary":true,"min_zoom":0.0,"id":3692},"arcs":[285]},{"type":"LineString","properties":{"source":"naturalearthdata.com","kind":"ocean","sort_rank":205,"boundary":true,"min_zoom":0.0,"id":3698},"arcs":[286]},{"type":"LineString","properties":{"source":"naturalearthdata.com","kind":"ocean","sort_rank":205,"boundary":true,"min_zoom":0.0,"id":3703},"arcs":[287]},{"type":"LineString","properties":{"source":"naturalearthdata.com","kind":"ocean","sort_rank":205,"boundary":true,"min_zoom":0.0,"id":3704},"arcs":[288]},{"type":"LineString","properties":{"source":"naturalearthdata.com","kind":"ocean","sort_rank":205,"boundary":true,"min_zoom":0.0,"id":3705},"arcs":[289]},{"type":"LineString","properties":{"source":"naturalearthdata.com","kind":"ocean","sort_rank":205,"boundary":true,"min_zoom":0.0,"id":3706},"arcs":[290]},{"type":"LineString","properties":{"source":"naturalearthdata.com","kind":"ocean","sort_rank":205,"boundary":true,"min_zoom":0.0,"id":3707},"arcs":[291]},{"type":"LineString","properties":{"source":"naturalearthdata.com","kind":"ocean","sort_rank":205,"boundary":true,"min_zoom":0.0,"id":3708},"arcs":[292]},{"type":"LineString","properties":{"source":"naturalearthdata.com","kind":"ocean","sort_rank":205,"boundary":true,"min_zoom":0.0,"id":3709},"arcs":[293]},{"type":"LineString","properties":{"source":"naturalearthdata.com","kind":"ocean","sort_rank":205,"boundary":true,"min_zoom":0.0,"id":3710},"arcs":[294]},{"type":"LineString","properties":{"source":"naturalearthdata.com","kind":"ocean","sort_rank":205,"boundary":true,"min_zoom":0.0,"id":3711},"arcs":[295]},{"type":"LineString","properties":{"source":"naturalearthdata.com","kind":"ocean","sort_rank":205,"boundary":true,"min_zoom":0.0,"id":3713},"arcs":[296]},{"type":"MultiLineString","properties":{"source":"naturalearthdata.com","kind":"ocean","sort_rank":205,"boundary":true,"min_zoom":0.0,"id":3727},"arcs":[[297],[298]]},{"type":"LineString","properties":{"source":"naturalearthdata.com","kind":"ocean","sort_rank":205,"boundary":true,"min_zoom":0.0,"id":3798},"arcs":[299]},{"type":"LineString","properties":{"source":"naturalearthdata.com","kind":"ocean","sort_rank":205,"boundary":true,"min_zoom":0.0,"id":3799},"arcs":[300]},{"type":"LineString","properties":{"source":"naturalearthdata.com","kind":"ocean","sort_rank":205,"boundary":true,"min_zoom":0.0,"id":3800},"arcs":[301]}]},"buildings":{"type":"GeometryCollection","geometries":[]},"places":{"type":"GeometryCollection","geometries":[{"type":"Point","properties":{"name:ps":"\u06a9\u06cc\u0648\u0628\u0627","name:cy":"Ciwba","name:tr":"K\u00fcba","name:kn":"\u0c95\u0ccd\u0caf\u0cc2\u0cac\u0cbe","name:km":"\u1782\u17bb\u1799\u1794\u17b6","name:kl":"Kuba","name:cs":"Kuba","name:ki":"Kiumba","name:ku":"K\u00fbba","name:ti":"\u12a9\u1263","name:ks":"\u06a9\u06cc\u0648\u0657\u0628\u0627","name:to":"Kiupa","name:tl":"Kuba","name:sv":"Kuba","name:or":"\u0b15\u0b4d\u0b71\u0b3f\u0b2c\u0b3e","name:pl":"Kuba","name:ta":"\u0b95\u0bbf\u0baf\u0bc2\u0baa\u0bbe","name:tg":"\u041a\u0443\u0431\u0430","name:te":"\u0c15\u0c4d\u0c2f\u0c42\u0c2c\u0c3e","name:ka":"\u10d9\u10e3\u10d1\u10d0","name:hr":"Kuba","name:de":"Kuba","name:dz":"\u0f40\u0f72\u0f60\u0f74\u0f0b\u0f56\u0fb7","source":"openstreetmap.org","name:iu":"\u1582\u1439 \/ quupaa","name:lv":"Kuba","name:lt":"Kuba","name:hi":"\u0915\u094d\u092f\u0942\u092c\u093e","name:kk":"\u041a\u0443\u0431\u0430","name:he":"\u05e7\u05d5\u05d1\u05d4","kind":"country","name:ur":"\u06a9\u06cc\u0648\u0628\u0627","name:lb":"Kuba","official_name":"Rep\u00fablica de Cuba","name:uk":"\u041a\u0443\u0431\u0430","name:hy":"\u053f\u0578\u0582\u0562\u0561","min_zoom":2.0,"name:hu":"Kuba","name:ln":"Kiba","name:lo":"\u0e84\u0eb4\u0ea7\u0e9a\u0eb2","population":11451652,"name:el":"\u039a\u03bf\u03cd\u03b2\u03b1","name:eo":"Kubo","name":"Cuba","name:ee":"Kuba nutome","name:th":"\u0e1b\u0e23\u0e30\u0e40\u0e17\u0e28\u0e04\u0e34\u0e27\u0e1a\u0e32","name:gu":"\u0a95\u0acd\u0aaf\u0ac1\u0aac\u0abe","name:eu":"Kuba","name:et":"Kuuba","name:yo":"Or\u00edl\u1eb9\u0301\u00e8de K\u00fab\u00e0","name:mt":"Kuba","name:rn":"Kiba","name:az":"Kuba","name:id":"Kuba","name:mr":"\u0915\u094d\u092f\u0942\u092c\u093e","name:ar":"\u0643\u0648\u0628\u0627","name:my":"\u1000\u103b\u1030\u1038\u1018\u102c\u1038","name:io":"Kuba","name:is":"K\u00faba","name:am":"\u12a9\u1263","name:ml":"\u0d15\u0d4d\u0d2f\u0d42\u0d2c","name:ru":"\u041a\u0443\u0431\u0430","name:mn":"\u041a\u0443\u0431\u0430","id":249399313,"name:mk":"\u041a\u0443\u0431\u0430","name:af":"Kuba","name:zu":"i-Cuba","name:ha":"Kyuba","name:ff":"Kubaa","name:fi":"Kuuba","old_name:vi":"Quy Ba","name:mg":"Kiob\u00e0","name:fo":"Kuba","alt_name:vi":"Cu-ba","name:fy":"Kuba","name:vo":"Kube\u00e4n","name:zh":"\u53e4\u5df4","name:so":"Kuuba","name:sl":"Kuba","name:sk":"Kuba","name:ja":"\u30ad\u30e5\u30fc\u30d0","name:si":"\u0d9a\u0dd2\u0dba\u0dd4\u0db6\u0dcf\u0dc0","name:fa":"\u06a9\u0648\u0628\u0627","name:sg":"Kub\u00e4a","name:se":"Kuba","name:ne":"\u0915\u094d\u092f\u0941\u092c\u093e","name:br":"Kuba","name:bs":"Kuba","name:bm":"Kuba","name:bn":"\u0995\u09bf\u0989\u09ac\u09be","name:bo":"\u0f41\u0fb1\u0f74\u0f60\u0f74\u0f0b\u0f56\u0f0d","name:sw":"Kuba","name:be":"\u041a\u0443\u0431\u0430","name:bg":"\u041a\u0443\u0431\u0430","name:sr":"\u041a\u0443\u0431\u0430","name:sq":"Kub\u00eb","name:ko":"\ucfe0\ubc14","name:ga":"C\u00faba","name:gd":"C\u00f9ba","name:gv":"Yn Choobey","name:ak":"Kuba"},"coordinates":[2579,857]},{"type":"Point","properties":{"source":"naturalearthdata.com","kind":"locality","name":"Miami","population":5585000,"min_zoom":3.0,"id":7226},"coordinates":[3021,3080]},{"type":"Point","properties":{"source":"naturalearthdata.com","kind":"locality","name":"Havana","country_capital":true,"population":2174000,"min_zoom":4.0,"id":7164},"coordinates":[1463,953]},{"type":"Point","properties":{"source":"naturalearthdata.com","kind":"locality","name":"West Palm Beach","population":1250000,"min_zoom":6.0,"id":5415},"coordinates":[3096,3845]},{"type":"Point","properties":{"source":"naturalearthdata.com","kind":"locality","name":"Santa Clara","population":250512,"region_capital":true,"min_zoom":6.0,"id":5206},"coordinates":[3210,366]},{"type":"Point","properties":{"source":"naturalearthdata.com","kind":"locality","name":"Ft. Myers","population":188606,"min_zoom":6.0,"id":5419},"coordinates":[1831,3761]},{"type":"Point","properties":{"source":"naturalearthdata.com","kind":"locality","name":"Pinar del Rio","population":186990,"region_capital":true,"min_zoom":6.0,"id":5196},"coordinates":[493,380]},{"type":"Point","properties":{"source":"naturalearthdata.com","kind":"locality","name":"Key West","population":29377,"min_zoom":6.0,"id":5414},"coordinates":[1888,2091]}]},"transit":{"type":"GeometryCollection","geometries":[{"type":"MultiLineString","properties":{"kind":"train","name":"Tri-Rail","sort_rank":275,"colour":"#1E90FF","source":"openstreetmap.org","min_zoom":6.0,"operator":"South Florida Regional Transportation Authority","osm_relation":true,"colour_name":"dodgerblue"},"arcs":[[75],[76],[77],[78],[79],[80],[81],[82],[83],[84],[85],[86],[87],[88],[89],[90]]},{"type":"MultiLineString","properties":{"kind":"train","name":"Tren Habana-Holgu\u00edn","service":"long distance","sort_rank":275,"source":"openstreetmap.org","min_zoom":6.0,"operator":"Ferrocarriles de Cuba (FC)","ref":"5\/6","osm_relation":true},"arcs":[[91],[92]]},{"type":"MultiLineString","properties":{"kind":"train","network":"Amtrak Intercity","service":"long_distance","sort_rank":275,"colour":"#005480","name":"Silver Meteor","source":"openstreetmap.org","min_zoom":5.0,"operator":"Amtrak","ref":"97-98","osm_relation":true,"colour_name":"teal"},"arcs":[[93],[94],[95],[96]]},{"type":"MultiLineString","properties":{"kind":"train","name":"Tren Habana-Santiago Nro 1\/2","service":"long distance","sort_rank":275,"source":"openstreetmap.org","min_zoom":6.0,"operator":"Ferrocarriles de Cuba (FC)","ref":"1\/2","osm_relation":true},"arcs":[[97],[98]]},{"type":"LineString","properties":{"kind":"train","name":"Habana-Palos","service":"commuter","sort_rank":275,"source":"openstreetmap.org","min_zoom":6.0,"operator":"Ferrocarriles de Cuba (FC)","ref":"1","id":-4479816,"osm_relation":true},"arcs":[99]},{"type":"LineString","properties":{"kind":"train","name:en":"Hershey Railway - Jaruco Branch","name":"Hershey - Jaruco","service":"commuter","sort_rank":275,"name:de":"Hershey-Bahn","source":"openstreetmap.org","min_zoom":6.0,"operator":"Ferrocarril El\u00e9ctrico de Cuba (FELCUBA)","ref":"8A","id":-6289247,"osm_relation":true},"arcs":[100]},{"type":"MultiLineString","properties":{"kind":"train","name":"Tren Habana-Bayamo-Manzanillo","service":"long distance","sort_rank":275,"source":"openstreetmap.org","min_zoom":6.0,"operator":"Ferrocarriles de Cuba (FC)","ref":"13\/14","osm_relation":true},"arcs":[[101],[102]]},{"type":"LineString","properties":{"kind":"train","name:en":"Hershey Railway","name":"Ferrocarril de Hershey","service":"commuter","sort_rank":275,"name:de":"Hershey-Bahn","source":"openstreetmap.org","min_zoom":6.0,"operator":"Ferrocarril El\u00e9ctrico de Cuba (FELCUBA)","ref":"8","id":-4442388,"osm_relation":true},"arcs":[103]},{"type":"MultiLineString","properties":{"kind":"train","name":"Tren C\u00e1rdenas Col\u00f3n","service":"local","sort_rank":275,"source":"openstreetmap.org","min_zoom":6.0,"operator":"Ferrocarriles de Cuba (FC)","ref":"C\u00e1rdenas","osm_relation":true},"arcs":[[104],[105]]},{"type":"MultiLineString","properties":{"kind":"train","name":"Tren Cienfuegos Santa Clara Santi Spiritus","service":"local","sort_rank":275,"source":"openstreetmap.org","min_zoom":6.0,"operator":"Ferrocarriles de Cuba (FC)","ref":"311\/312","osm_relation":true},"arcs":[[106],[107],[108],[109],[110],[111],[112],[113],[114],[115],[116],[117],[118],[119],[120],[121],[122]]},{"type":"LineString","properties":{"kind":"train","name":"Habana-Guanajay-Artemisa","service":"commuter","sort_rank":275,"source":"openstreetmap.org","min_zoom":6.0,"operator":"Ferrocarriles de Cuba (FC)","ref":"8","id":-5476567,"osm_relation":true},"arcs":[123]},{"type":"LineString","properties":{"kind":"train","name":"Habana-Santiago-Bejucal","service":"commuter","sort_rank":275,"source":"openstreetmap.org","min_zoom":6.0,"operator":"Ferrocarriles de Cuba (FC)","ref":"2","id":-4479817,"osm_relation":true},"arcs":[124]},{"type":"LineString","properties":{"kind":"train","name":"Habana-TC Mariel","service":"commuter","sort_rank":275,"source":"openstreetmap.org","min_zoom":6.0,"operator":"Ferrocarriles de Cuba (FC)","ref":"9","id":-6191127,"osm_relation":true},"arcs":[125]},{"type":"LineString","properties":{"kind":"train","name":"Tren Habana - Pinar","service":"Long Distance","sort_rank":275,"source":"openstreetmap.org","min_zoom":6.0,"operator":"Ferrocarriles de Cuba (FC)","ref":"71\/72","osm_relation":true},"arcs":[126]},{"type":"MultiLineString","properties":{"kind":"train","name":"Tren Habana-Guant\u00e1namo","service":"long distance","sort_rank":275,"source":"openstreetmap.org","min_zoom":6.0,"operator":"Ferrocarriles de Cuba (FC)","ref":"15\/16","osm_relation":true},"arcs":[[127],[128]]},{"type":"LineString","properties":{"kind":"train","name":"Habana-San Antonio","service":"commuter","sort_rank":275,"source":"openstreetmap.org","min_zoom":6.0,"operator":"Ferrocarriles de Cuba (FC)","ref":"5","id":-4481312,"osm_relation":true},"arcs":[129]},{"type":"LineString","properties":{"kind":"train","name":"ExpoCuba","service":"commuter","sort_rank":275,"source":"openstreetmap.org","min_zoom":6.0,"operator":"Ferrocarriles de Cuba (FC)","ref":"3","id":-4479818,"osm_relation":true},"arcs":[130]},{"type":"MultiLineString","properties":{"kind":"train","name":"Habana-Bataban\u00f3","service":"commuter","sort_rank":275,"source":"openstreetmap.org","min_zoom":6.0,"operator":"Ferrocarriles de Cuba (FC)","ref":"7","osm_relation":true},"arcs":[[131],[132],[133]]},{"type":"MultiLineString","properties":{"kind":"train","network":"Amtrak Intercity","service":"long_distance","sort_rank":275,"colour":"#005480","name":"Silver Star","source":"openstreetmap.org","min_zoom":5.0,"operator":"Amtrak","ref":"91-92","osm_relation":true,"colour_name":"teal"},"arcs":[[134],[135],[136]]},{"type":"LineString","properties":{"kind":"train","name":"Tren Cienfuegos Santa Clara","service":"local","sort_rank":275,"source":"openstreetmap.org","min_zoom":6.0,"operator":"Ferrocarriles de Cuba (FC)","ref":"CF-VC","id":-6532470,"osm_relation":true},"arcs":[137]},{"type":"LineString","properties":{"kind":"train","name":"Tren Habana- Cienfuegos (Linea Sur)","service":"Long Distance","sort_rank":275,"source":"openstreetmap.org","min_zoom":6.0,"operator":"Ferrocarriles de Cuba (FC)","ref":"73\/74","osm_relation":true},"arcs":[138]},{"type":"LineString","properties":{"kind":"train","name":"Estaci\u00f3n Central - Playas del Este","service":"commuter","sort_rank":275,"source":"openstreetmap.org","min_zoom":6.0,"operator":"Ferrocarriles de Cuba (FC)","ref":"4","id":-4479819,"osm_relation":true},"arcs":[139]},{"type":"LineString","properties":{"kind":"train","name":"Tren Mor\u00f3n Santa Clara (L\u00ednea Norte)","service":"local","sort_rank":275,"source":"openstreetmap.org","min_zoom":6.0,"operator":"Ferrocarriles de Cuba (FC)","ref":"Norte","osm_relation":true},"arcs":[140]},{"type":"MultiLineString","properties":{"kind":"train","name":"Tren Habana-Sancti Spiritus","service":"long distance","sort_rank":275,"source":"openstreetmap.org","min_zoom":6.0,"operator":"Ferrocarriles de Cuba (FC)","ref":"7\/8","osm_relation":true},"arcs":[[141],[142],[143],[144],[145],[146],[147],[148],[149],[150],[151],[152]]},{"type":"MultiLineString","properties":{"kind":"train","name":"Tren Habana-Santiago Nro3\/4","service":"long distance","sort_rank":275,"source":"openstreetmap.org","min_zoom":6.0,"operator":"Ferrocarriles de Cuba (FC)","ref":"3\/4","osm_relation":true},"arcs":[[153],[154]]},{"type":"MultiLineString","properties":{"kind":"train","name":"Habana-Guira-Artemisa","service":"commuter","sort_rank":275,"source":"openstreetmap.org","min_zoom":6.0,"operator":"Ferrocarriles de Cuba (FC)","ref":"6","osm_relation":true},"arcs":[[155],[156]]},{"type":"LineString","properties":{"kind":"train","name":"Tren Pinar del R\u00edo Guane","service":"local","sort_rank":275,"source":"openstreetmap.org","min_zoom":6.0,"operator":"Ferrocarriles de Cuba (FC)","ref":"Guane","id":-6535083,"osm_relation":true},"arcs":[157]}]},"pois":{"type":"GeometryCollection","geometries":[{"type":"Point","properties":{"kind":"nature_reserve","name":"Everglades and Francis S. Taylor Wildlife Management Area","area":3332770000,"source":"openstreetmap.org","min_zoom":6.44,"tier":2,"id":-2163724,"osm_relation":true},"coordinates":[2734,3329]},{"type":"Point","properties":{"kind":"nature_reserve","name":"Big Cypress National Preserve","area":3665060000,"source":"openstreetmap.org","min_zoom":6.37,"tier":2,"id":-2163706,"osm_relation":true},"coordinates":[2388,3198]},{"type":"Point","properties":{"kind":"national_park","tier":1,"protect_class":"2","area":778799000,"source":"openstreetmap.org","min_zoom":5.99,"operator":"United States National Park Service","id":160032399,"name":"Biscayne National Park"},"coordinates":[3015,2850]},{"type":"Point","properties":{"kind":"national_park","name:en":"Zapata Swamp National Park","protect_class":"2","area":5238170000,"name:de":"Nationalpark Sumpf von Zapata","source":"openstreetmap.org","min_zoom":4.61,"tier":1,"name:ru":"\u041d\u0430\u0446\u0438\u043e\u043d\u0430\u043b\u044c\u043d\u044b\u0439 \u043f\u0430\u0440\u043a \u0411\u043e\u043b\u043e\u0442\u043e \u0421\u0430\u043f\u0430\u0442\u0430","id":361290872,"name":"Parque Nacional Ci\u00e9naga de Zapata"},"coordinates":[2079,208]}]},"boundaries":{"type":"GeometryCollection","geometries":[{"type":"MultiLineString","properties":{"source":"naturalearthdata.com","kind":"region","sort_rank":256,"kind_detail":"4","min_zoom":6.0,"id":285},"arcs":[[0],[1]]},{"type":"LineString","properties":{"source":"naturalearthdata.com","kind":"region","sort_rank":256,"kind_detail":"4","min_zoom":6.0,"id":286},"arcs":[2]},{"type":"LineString","properties":{"source":"naturalearthdata.com","kind":"region","sort_rank":256,"kind_detail":"4","min_zoom":6.0,"id":287},"arcs":[3]},{"type":"MultiLineString","properties":{"source":"naturalearthdata.com","kind":"region","sort_rank":256,"kind_detail":"4","min_zoom":6.0,"id":2886},"arcs":[[4],[5],[6]]},{"type":"MultiLineString","properties":{"source":"naturalearthdata.com","kind":"region","sort_rank":256,"kind_detail":"4","min_zoom":6.0,"id":4251},"arcs":[[7],[8],[9],[10],[11],[12],[13],[14],[15],[16],[17]]},{"type":"MultiLineString","properties":{"source":"naturalearthdata.com","kind":"region","sort_rank":256,"kind_detail":"4","min_zoom":6.0,"id":4250},"arcs":[[18],[19],[20],[21],[22]]},{"type":"LineString","properties":{"source":"naturalearthdata.com","kind":"region","sort_rank":256,"kind_detail":"4","min_zoom":6.0,"id":4252},"arcs":[23]},{"type":"MultiLineString","properties":{"source":"naturalearthdata.com","kind":"region","sort_rank":256,"kind_detail":"4","min_zoom":6.0,"id":4253},"arcs":[[24],[25],[26],[27],[28],[29],[30]]},{"type":"MultiLineString","properties":{"source":"naturalearthdata.com","kind":"region","sort_rank":256,"kind_detail":"4","min_zoom":6.0,"id":4254},"arcs":[[31],[32],[33]]},{"type":"MultiLineString","properties":{"source":"naturalearthdata.com","kind":"region","sort_rank":256,"kind_detail":"4","min_zoom":6.0,"id":4255},"arcs":[[34],[35],[36],[37],[38],[39],[40],[41],[42],[43],[44],[45],[46],[47],[48]]},{"type":"MultiLineString","properties":{"source":"naturalearthdata.com","kind":"region","sort_rank":256,"kind_detail":"4","min_zoom":6.0,"id":4256},"arcs":[[49],[50],[51],[52],[53],[54],[55],[56],[57],[58],[59],[60]]},{"type":"MultiLineString","properties":{"source":"naturalearthdata.com","kind":"region","sort_rank":256,"kind_detail":"4","min_zoom":6.0,"id":4257},"arcs":[[61],[62],[63],[64],[65],[66],[67],[68],[69],[70],[71],[72],[73]]},{"type":"LineString","properties":{"source":"naturalearthdata.com","kind":"region","sort_rank":256,"kind_detail":"4","min_zoom":6.0,"id":9003},"arcs":[74]}]},"roads":{"type":"GeometryCollection","geometries":[{"type":"LineString","properties":{"kind":"highway","network":"US:I","sort_rank":383,"kind_detail":"motorway","source":"naturalearthdata.com","min_zoom":3.0,"landuse_kind":"urban_area","shield_text":"95","id":228},"arcs":[302]},{"type":"LineString","properties":{"kind":"highway","network":"US:I","sort_rank":383,"kind_detail":"motorway","source":"naturalearthdata.com","min_zoom":3.0,"shield_text":"95","id":228},"arcs":[303]},{"type":"LineString","properties":{"kind":"highway","network":"US:I","sort_rank":383,"kind_detail":"motorway","source":"naturalearthdata.com","min_zoom":3.0,"shield_text":"95","id":229},"arcs":[304]},{"type":"MultiLineString","properties":{"source":"naturalearthdata.com","kind":"highway","kind_detail":"motorway","sort_rank":383,"landuse_kind":"urban_area","min_zoom":6.0,"id":2682},"arcs":[[305],[306]]},{"type":"MultiLineString","properties":{"source":"naturalearthdata.com","kind":"highway","sort_rank":383,"kind_detail":"motorway","min_zoom":6.0,"id":2682},"arcs":[[307],[308]]},{"type":"LineString","properties":{"kind":"highway","network":"US:I","sort_rank":383,"kind_detail":"motorway","source":"naturalearthdata.com","min_zoom":3.0,"shield_text":"75","id":2686},"arcs":[309]},{"type":"LineString","properties":{"kind":"highway","network":"US:I","sort_rank":383,"kind_detail":"motorway","source":"naturalearthdata.com","min_zoom":3.0,"landuse_kind":"urban_area","shield_text":"75","id":2688},"arcs":[310]},{"type":"LineString","properties":{"kind":"highway","network":"US:I","sort_rank":383,"kind_detail":"motorway","source":"naturalearthdata.com","min_zoom":3.0,"shield_text":"75","id":2688},"arcs":[311]},{"type":"LineString","properties":{"kind":"highway","network":"US:I","sort_rank":383,"kind_detail":"motorway","source":"naturalearthdata.com","min_zoom":3.0,"landuse_kind":"urban_area","shield_text":"95","id":2699},"arcs":[312]},{"type":"LineString","properties":{"kind":"highway","network":"US:I","sort_rank":383,"kind_detail":"motorway","source":"naturalearthdata.com","min_zoom":3.0,"landuse_kind":"urban_area","shield_text":"595","id":2700},"arcs":[313]},{"type":"MultiLineString","properties":{"source":"naturalearthdata.com","kind":"highway","kind_detail":"motorway","sort_rank":383,"landuse_kind":"urban_area","min_zoom":6.0,"id":2701},"arcs":[[314],[315]]},{"type":"LineString","properties":{"source":"naturalearthdata.com","kind":"highway","sort_rank":383,"kind_detail":"motorway","min_zoom":6.0,"id":2701},"arcs":[316]},{"type":"LineString","properties":{"kind":"highway","network":"US:I","sort_rank":383,"kind_detail":"motorway","source":"naturalearthdata.com","min_zoom":3.0,"landuse_kind":"urban_area","shield_text":"595","id":2702},"arcs":[317]},{"type":"LineString","properties":{"source":"naturalearthdata.com","kind":"highway","kind_detail":"motorway","sort_rank":383,"landuse_kind":"urban_area","min_zoom":6.0,"id":2704},"arcs":[318]},{"type":"LineString","properties":{"kind":"highway","network":"US:I","sort_rank":383,"kind_detail":"motorway","source":"naturalearthdata.com","min_zoom":3.0,"landuse_kind":"urban_area","shield_text":"95","id":2705},"arcs":[319]},{"type":"LineString","properties":{"source":"naturalearthdata.com","kind":"highway","kind_detail":"motorway","sort_rank":383,"landuse_kind":"urban_area","min_zoom":4.0,"id":2706},"arcs":[320]},{"type":"LineString","properties":{"kind":"highway","network":"US:I","sort_rank":383,"kind_detail":"motorway","source":"naturalearthdata.com","min_zoom":3.0,"landuse_kind":"nature_reserve","shield_text":"75","id":2709},"arcs":[321]},{"type":"LineString","properties":{"kind":"highway","network":"US:I","sort_rank":383,"kind_detail":"motorway","source":"naturalearthdata.com","min_zoom":3.0,"landuse_kind":"nature_reserve","shield_text":"75","id":2709},"arcs":[322]},{"type":"LineString","properties":{"kind":"highway","network":"US:I","sort_rank":383,"kind_detail":"motorway","source":"naturalearthdata.com","min_zoom":3.0,"landuse_kind":"protected_area","shield_text":"75","id":2709},"arcs":[323]},{"type":"LineString","properties":{"kind":"highway","network":"US:I","sort_rank":383,"kind_detail":"motorway","source":"naturalearthdata.com","min_zoom":3.0,"landuse_kind":"urban_area","shield_text":"75","id":2710},"arcs":[324]},{"type":"LineString","properties":{"kind":"highway","network":"US:I","sort_rank":383,"kind_detail":"motorway","source":"naturalearthdata.com","min_zoom":3.0,"landuse_kind":"urban_area","shield_text":"75","id":2710},"arcs":[325]},{"type":"MultiLineString","properties":{"kind":"highway","network":"US:I","sort_rank":383,"kind_detail":"motorway","source":"naturalearthdata.com","min_zoom":3.0,"shield_text":"75","id":2710},"arcs":[[326],[327]]},{"type":"LineString","properties":{"kind":"highway","network":"US:I","sort_rank":383,"kind_detail":"motorway","source":"naturalearthdata.com","min_zoom":3.0,"landuse_kind":"urban_area","shield_text":"95","id":2713},"arcs":[328]},{"type":"LineString","properties":{"source":"naturalearthdata.com","kind":"highway","kind_detail":"motorway","sort_rank":383,"landuse_kind":"urban_area","min_zoom":5.0,"id":2715},"arcs":[329]},{"type":"LineString","properties":{"source":"naturalearthdata.com","kind":"major_road","kind_detail":"primary","sort_rank":380,"landuse_kind":"park","min_zoom":6.0,"id":2726},"arcs":[330]},{"type":"LineString","properties":{"source":"naturalearthdata.com","kind":"major_road","sort_rank":380,"kind_detail":"primary","min_zoom":6.0,"id":2726},"arcs":[331]},{"type":"LineString","properties":{"source":"naturalearthdata.com","kind":"major_road","kind_detail":"primary","sort_rank":380,"landuse_kind":"park","min_zoom":6.0,"id":2727},"arcs":[332]},{"type":"MultiLineString","properties":{"source":"naturalearthdata.com","kind":"major_road","kind_detail":"primary","sort_rank":380,"landuse_kind":"urban_area","min_zoom":6.0,"id":2727},"arcs":[[333],[334]]},{"type":"MultiLineString","properties":{"source":"naturalearthdata.com","kind":"major_road","sort_rank":380,"kind_detail":"primary","min_zoom":6.0,"id":2727},"arcs":[[335],[336]]},{"type":"LineString","properties":{"source":"naturalearthdata.com","kind":"major_road","kind_detail":"primary","sort_rank":380,"landuse_kind":"urban_area","min_zoom":6.0,"id":2799},"arcs":[337]},{"type":"LineString","properties":{"source":"naturalearthdata.com","kind":"major_road","sort_rank":380,"kind_detail":"primary","min_zoom":6.0,"id":2799},"arcs":[338]},{"type":"LineString","properties":{"source":"naturalearthdata.com","kind":"highway","kind_detail":"motorway","sort_rank":383,"landuse_kind":"urban_area","min_zoom":3.0,"id":2806},"arcs":[339]},{"type":"LineString","properties":{"source":"naturalearthdata.com","kind":"highway","sort_rank":383,"kind_detail":"motorway","min_zoom":3.0,"id":2806},"arcs":[340]},{"type":"LineString","properties":{"source":"naturalearthdata.com","kind":"highway","kind_detail":"motorway","sort_rank":383,"landuse_kind":"urban_area","min_zoom":3.0,"id":2807},"arcs":[341]},{"type":"LineString","properties":{"source":"naturalearthdata.com","kind":"highway","sort_rank":383,"kind_detail":"motorway","min_zoom":3.0,"id":2807},"arcs":[342]},{"type":"LineString","properties":{"source":"naturalearthdata.com","kind":"major_road","sort_rank":380,"kind_detail":"primary","min_zoom":3.0,"id":2812},"arcs":[343]},{"type":"LineString","properties":{"source":"naturalearthdata.com","kind":"major_road","sort_rank":380,"kind_detail":"primary","min_zoom":3.0,"id":2817},"arcs":[344]},{"type":"LineString","properties":{"source":"naturalearthdata.com","kind":"highway","sort_rank":383,"kind_detail":"motorway","min_zoom":3.0,"id":2819},"arcs":[345]},{"type":"MultiLineString","properties":{"source":"naturalearthdata.com","kind":"highway","kind_detail":"motorway","sort_rank":383,"landuse_kind":"national_park","min_zoom":3.0,"id":2821},"arcs":[[346],[347]]},{"type":"MultiLineString","properties":{"source":"naturalearthdata.com","kind":"highway","sort_rank":383,"kind_detail":"motorway","min_zoom":3.0,"id":2821},"arcs":[[348],[349],[350]]},{"type":"LineString","properties":{"source":"naturalearthdata.com","kind":"major_road","sort_rank":380,"kind_detail":"primary","min_zoom":3.0,"id":2827},"arcs":[351]},{"type":"LineString","properties":{"source":"naturalearthdata.com","kind":"highway","kind_detail":"motorway","sort_rank":383,"landuse_kind":"nature_reserve","min_zoom":4.0,"id":2837},"arcs":[352]},{"type":"LineString","properties":{"source":"naturalearthdata.com","kind":"highway","kind_detail":"motorway","sort_rank":383,"landuse_kind":"urban_area","min_zoom":4.0,"id":2837},"arcs":[353]},{"type":"MultiLineString","properties":{"source":"naturalearthdata.com","kind":"highway","sort_rank":383,"kind_detail":"motorway","min_zoom":4.0,"id":2837},"arcs":[[354],[355]]},{"type":"LineString","properties":{"source":"naturalearthdata.com","kind":"highway","kind_detail":"motorway","sort_rank":383,"landuse_kind":"urban_area","min_zoom":5.0,"id":3635},"arcs":[356]},{"type":"LineString","properties":{"source":"naturalearthdata.com","kind":"highway","kind_detail":"motorway","sort_rank":383,"landuse_kind":"nature_reserve","min_zoom":5.0,"id":3636},"arcs":[357]},{"type":"MultiLineString","properties":{"source":"naturalearthdata.com","kind":"highway","kind_detail":"motorway","sort_rank":383,"landuse_kind":"urban_area","min_zoom":5.0,"id":3636},"arcs":[[358],[359]]},{"type":"LineString","properties":{"kind":"highway","network":"US:I","sort_rank":383,"kind_detail":"motorway","source":"naturalearthdata.com","min_zoom":3.0,"landuse_kind":"nature_reserve","shield_text":"70","id":3932},"arcs":[360]},{"type":"LineString","properties":{"kind":"highway","network":"US:I","sort_rank":383,"kind_detail":"motorway","source":"naturalearthdata.com","min_zoom":3.0,"landuse_kind":"urban_area","shield_text":"70","id":3932},"arcs":[361]},{"type":"MultiLineString","properties":{"source":"naturalearthdata.com","kind":"major_road","kind_detail":"primary","sort_rank":380,"landuse_kind":"urban_area","min_zoom":6.0,"id":3933},"arcs":[[362],[363]]},{"type":"LineString","properties":{"source":"naturalearthdata.com","kind":"major_road","sort_rank":380,"kind_detail":"primary","min_zoom":6.0,"id":3933},"arcs":[364]},{"type":"LineString","properties":{"source":"naturalearthdata.com","kind":"highway","sort_rank":383,"kind_detail":"motorway","min_zoom":6.0,"id":4142},"arcs":[365]},{"type":"LineString","properties":{"kind":"highway","network":"US:I","sort_rank":383,"kind_detail":"motorway","source":"naturalearthdata.com","min_zoom":5.0,"landuse_kind":"urban_area","shield_text":"75","id":4143},"arcs":[366]},{"type":"LineString","properties":{"source":"naturalearthdata.com","kind":"highway","kind_detail":"motorway","sort_rank":383,"landuse_kind":"urban_area","min_zoom":5.0,"id":4144},"arcs":[367]},{"type":"MultiLineString","properties":{"kind":"highway","network":"US:US","sort_rank":383,"kind_detail":"motorway","source":"naturalearthdata.com","min_zoom":5.0,"landuse_kind":"urban_area","shield_text":"1","id":4145},"arcs":[[368],[369]]},{"type":"MultiLineString","properties":{"kind":"highway","network":"US:US","sort_rank":383,"kind_detail":"motorway","source":"naturalearthdata.com","min_zoom":5.0,"shield_text":"1","id":4145},"arcs":[[370],[371]]},{"type":"LineString","properties":{"kind":"highway","network":"US:I","sort_rank":383,"kind_detail":"motorway","source":"naturalearthdata.com","min_zoom":3.0,"landuse_kind":"nature_reserve","shield_text":"75","id":4146},"arcs":[372]},{"type":"LineString","properties":{"kind":"highway","network":"US:I","sort_rank":383,"kind_detail":"motorway","source":"naturalearthdata.com","min_zoom":3.0,"shield_text":"75","id":4146},"arcs":[373]},{"type":"LineString","properties":{"kind":"highway","network":"US:I","sort_rank":383,"kind_detail":"motorway","source":"naturalearthdata.com","min_zoom":3.0,"landuse_kind":"nature_reserve","shield_text":"75","id":4147},"arcs":[374]}]},"earth":{"type":"GeometryCollection","geometries":[{"type":"MultiPolygon","properties":{"sort_rank":10,"source":"naturalearthdata.com","min_zoom":0.0,"kind":"earth","area":414036001643},"arcs":[[[375]],[[376]],[[377]],[[378]],[[379]],[[380]],[[381]],[[382]],[[383]],[[384]],[[385]],[[386]],[[387]],[[388]],[[389]],[[390]],[[391]],[[392]],[[393]],[[394]],[[395]],[[396]],[[397]],[[398]],[[399]],[[400]],[[401]],[[402]],[[403]],[[404]],[[405]],[[406]],[[407]],[[408]],[[409]],[[410]],[[411]],[[412]],[[413]],[[414]],[[415]],[[416]],[[417]]]}]},"landuse":{"type":"GeometryCollection","geometries":[{"type":"MultiPolygon","properties":{"source":"openstreetmap.org","kind":"nature_reserve","tier":2,"area":5128793279,"sort_rank":23,"min_zoom":6.0,"osm_relation":true},"arcs":[[[418]],[[419]],[[420]],[[421]]]},{"type":"MultiPolygon","properties":{"source":"openstreetmap.org","kind":"nature_reserve","tier":2,"area":11740804364,"sort_rank":23,"min_zoom":4.0,"osm_relation":true},"arcs":[[[422]],[[423]],[[424]]]},{"type":"Polygon","properties":{"kind":"nature_reserve","protect_class":"5","area":355188992,"sort_rank":23,"operator":"FL Dept. of Environmental Protection, Div. of Recreation and Parks","source":"openstreetmap.org","min_zoom":6.0,"tier":2,"id":-7232874,"osm_relation":true},"arcs":[[425]]},{"type":"Polygon","properties":{"kind":"nature_reserve","area":411705984,"sort_rank":23,"operator":"FL Dept. of Environmental Protection, Florida Coastal Office","source":"openstreetmap.org","min_zoom":6.0,"tier":2,"id":-7231193,"osm_relation":true},"arcs":[[426]]},{"type":"Polygon","properties":{"kind":"nature_reserve","protect_class":"5","area":236652000,"sort_rank":23,"operator":"Gaviota","source":"openstreetmap.org","min_zoom":6.0,"tier":2,"id":371541269},"arcs":[[427]]},{"type":"Polygon","properties":{"source":"openstreetmap.org","kind":"park","area":252287008,"tier":2,"id":361204353,"min_zoom":6.0,"sort_rank":24},"arcs":[[428]]},{"type":"Polygon","properties":{"kind":"national_park","protect_class":"2","area":778798976,"sort_rank":18,"operator":"United States National Park Service","source":"openstreetmap.org","min_zoom":3.0,"tier":1,"id":160032399},"arcs":[[429]]},{"type":"Polygon","properties":{"kind":"nature_reserve","area":173342000,"sort_rank":23,"operator":"U. S. Fish & Wildlife Service","source":"openstreetmap.org","min_zoom":6.0,"tier":2,"id":-7231192,"osm_relation":true},"arcs":[[430]]},{"type":"Polygon","properties":{"kind":"nature_reserve","protect_class":"2","area":319422016,"sort_rank":23,"operator":"United States National Park Service","source":"openstreetmap.org","min_zoom":6.0,"tier":2,"id":-4437721,"osm_relation":true},"arcs":[[431]]},{"type":"Polygon","properties":{"source":"openstreetmap.org","kind":"nature_reserve","area":1055740032,"tier":2,"id":80512711,"min_zoom":4.0,"sort_rank":23},"arcs":[[432]]},{"type":"Polygon","properties":{"kind":"national_park","protect_class":"2","area":5238170112,"sort_rank":18,"source":"openstreetmap.org","min_zoom":3.0,"tier":1,"id":361290872},"arcs":[[433]]},{"type":"MultiPolygon","properties":{"source":"naturalearthdata.com","kind":"urban_area","name":"","area":17171160332,"sort_rank":11,"min_zoom":4.0},"arcs":[[[434]],[[435]],[[436]],[[437]],[[438]],[[439]],[[440]],[[441]],[[442]],[[443]],[[444]],[[445]]]},{"type":"Polygon","properties":{"kind":"protected_area","protect_class":"24","area":763855569,"sort_rank":17,"source":"openstreetmap.org","min_zoom":6.0,"tier":2,"osm_relation":true},"arcs":[[446]]},{"type":"MultiPolygon","properties":{"kind":"protected_area","area":1120953183,"sort_rank":17,"operator":"South Florida Water Management District","source":"openstreetmap.org","min_zoom":6.0,"tier":2,"osm_relation":true},"arcs":[[[447]],[[448]]]},{"type":"MultiPolygon","properties":{"source":"openstreetmap.org","kind":"nature_reserve","tier":2,"area":2410937664,"sort_rank":23,"min_zoom":6.0},"arcs":[[[449]],[[450]],[[451]],[[452]],[[453]],[[454]]]},{"type":"Polygon","properties":{"kind":"protected_area","protect_class":"4","area":261659008,"sort_rank":17,"source":"openstreetmap.org","min_zoom":6.0,"tier":2,"id":-4442429,"osm_relation":true},"arcs":[[455],[456]]},{"type":"Polygon","properties":{"kind":"nature_reserve","protect_class":"5","area":388732000,"sort_rank":23,"source":"openstreetmap.org","min_zoom":6.0,"tier":2,"id":365028051},"arcs":[[457]]},{"type":"MultiPolygon","properties":{"source":"openstreetmap.org","kind":"park","tier":2,"area":21999652818,"sort_rank":24,"min_zoom":4.0,"osm_relation":true},"arcs":[[[458]]]}]}},"type":"Topology","transform":{"translate":[-84.375,21.9430455334],"scale":[0.001373291,0.001249043]},"arcs":[[[1042,834]],[[1129,534]],[[2754,901]],[[2754,89]],[[3967,365],[-3,-11],[-2,-25],[-5,-6],[-7,-6],[-4,-9],[-8,-16],[-6,-26],[-7,-15],[-11,-19],[-9,-17],[-7,-19],[-9,-9],[1,-22],[-11,-26],[1,-16],[12,-11],[22,-18],[16,-9],[10,-4],[3,-14],[0,-19],[-11,-20],[-13,-19],[-3,-9]],[[3912,0],[-7,2],[-12,1]],[[3893,3],[-4,-3]],[[1649,900],[7,13],[1,14],[0,4],[2,2],[4,3],[1,4],[-2,7],[0,4],[1,3],[7,1],[4,3],[-12,15],[-4,8],[1,8],[-2,7]],[[1612,937],[7,-3],[4,-3],[26,-31]],[[1592,910],[4,2],[5,5],[4,10],[1,4],[1,3],[2,2],[3,1]],[[1580,922],[4,-5],[6,-7],[2,0]],[[1533,822],[8,0],[7,2],[4,6],[5,11],[25,28],[1,3],[-1,3],[-6,13],[-1,7],[0,5],[2,7],[0,4],[0,4],[-1,3],[-1,2],[1,2],[4,0]],[[1470,828],[29,-3]],[[1446,804],[5,3],[10,8],[3,6],[6,7]],[[1518,826],[7,-3],[8,-1]],[[1499,825],[19,1]],[[1429,819],[5,-4],[8,-10],[4,-1]],[[1412,812],[12,5],[5,2]],[[1337,905],[3,-5],[13,-6]],[[1370,904],[6,-2],[8,-10],[1,-8],[-7,-9],[-14,-12],[-1,-2],[3,-4],[5,-4],[27,-11]],[[1353,894],[8,5],[4,3],[5,2]],[[1401,843],[3,-2],[1,-2],[7,-27]],[[1398,842],[2,0],[1,1]],[[1129,534],[0,4],[-3,4],[-5,9],[-24,28],[-4,6],[-14,34],[-5,10],[-5,6],[-4,4],[-7,3],[-2,2],[-9,12],[-12,22],[-4,5],[-3,2],[-8,4],[-2,1],[-1,2],[1,1],[4,2],[17,2],[6,2],[4,3],[13,17],[1,7],[-3,19],[-18,36],[2,16],[0,4],[-3,29],[1,4]],[[2754,901],[-5,-2],[-11,-23],[-2,-18],[0,-9],[0,-13],[-4,-6],[-5,-5],[-7,-2],[-5,0]],[[2715,823],[-3,0],[-6,5],[-3,1],[-3,1]],[[2700,830],[-4,-1],[-4,0],[-10,-4],[-3,-1]],[[2679,824],[-18,1]],[[2661,825],[-4,-2],[-2,-4],[-2,-7],[-1,-7],[1,-9],[2,-12],[1,-6],[-2,-12],[-4,-6],[-3,-3],[-5,-3],[-1,-3],[1,-3],[3,-1],[2,-2],[2,-3],[1,-5],[1,-4],[3,-4],[7,-8],[5,-7],[2,-4],[2,-3],[3,-3],[12,-8],[15,-13]],[[2752,702],[6,-2],[2,-3],[3,-7],[1,-3],[3,-7],[5,-16],[11,-19],[2,-6],[-1,-4],[-4,-3],[-7,-3],[-4,-6],[-1,-4],[2,-4],[5,-6],[3,-5],[1,-5],[1,-7],[-4,-38],[1,-6],[1,-3],[4,-4],[3,-6],[2,-16],[2,-8],[3,-8],[5,-5],[10,-18]],[[2700,683],[11,1],[6,2],[14,11],[14,5],[7,0]],[[1961,898],[1,0],[0,5],[-1,11],[-10,42],[8,9],[1,7]],[[1952,902],[7,-4],[2,0]],[[1984,506],[1,2],[1,1],[0,1],[3,1],[3,2],[2,2],[10,16],[6,8],[4,7],[2,6],[2,6],[5,40],[-1,12],[-12,11],[-27,17],[-5,8],[1,12],[8,20],[0,5],[-3,4],[-10,7],[-11,11],[-12,22],[10,30],[1,22],[1,4],[0,5],[-1,3],[-8,12],[-12,16],[-6,5],[-5,5],[-6,2],[-8,1],[-2,1],[-1,3],[1,6],[2,3],[0,1],[1,1],[4,4],[15,10],[6,10],[3,1],[2,2],[0,2],[-3,5],[-7,5],[0,3],[1,4],[5,7],[4,2],[4,0]],[[3610,424],[0,-1],[0,-18],[-13,-26],[8,-7],[7,-10],[24,-50],[21,-29],[0,-6],[-3,-10],[-2,-9],[1,-13],[-2,-14]],[[3651,231],[-19,3],[-18,9],[-7,2]],[[3607,245],[-9,0],[-13,-5],[-8,-5],[-13,-14],[-4,-14],[-4,-10],[-6,-11],[-6,-9],[-6,-6],[-8,-3],[-11,-2]],[[3410,173],[-8,2],[-7,7],[-4,5],[-3,5],[-8,7],[-24,1]],[[3356,200],[-8,-7],[-2,-6],[1,-8],[4,-14],[11,-21],[3,-9],[3,-5],[2,-3],[3,0]],[[3478,175],[-30,9],[-7,0]],[[3441,184],[-9,-1],[-11,-7],[-5,-3],[-6,0]],[[3519,166],[-10,5],[-6,4],[-10,4]],[[3493,179],[-15,-4]],[[3377,127],[4,0],[3,-2],[3,-4],[-1,-11],[-3,-14],[-12,-25],[-15,-24],[-18,-16]],[[3373,127],[4,0]],[[3338,31],[-22,2],[-10,5],[-3,3],[-6,2],[-42,11]],[[3255,54],[-7,-1],[-7,-3],[-8,-10],[-2,-6],[-2,-7],[-2,-4],[-4,-2]],[[3223,21],[-10,0]],[[3213,21],[-5,-1],[-14,-11],[-18,-9]],[[2855,516],[6,-1],[4,-1],[17,-15]],[[2807,480],[31,18],[9,10],[1,3],[3,3],[4,2]],[[2998,509],[2,-3],[1,-5],[0,-14],[-1,-7],[-2,-4],[-2,-1],[-3,-1],[-2,-1],[-3,-2],[0,-4],[1,-7],[8,-19],[3,-4],[14,-8],[2,-8],[-3,-7],[-1,-6],[0,-5],[3,-6],[5,-2],[3,-3],[2,-4],[-2,-10],[-14,-16],[0,-8],[3,-6],[4,-6],[27,-26],[9,-5],[5,-1]],[[2982,501],[4,0],[5,1],[2,1],[3,4],[2,2]],[[2900,503],[6,-2],[4,-4],[-1,-12],[-1,-7],[-4,-11],[0,-3],[0,-2],[1,-2],[3,-1]],[[2882,499],[18,4]],[[2972,502],[10,-1]],[[2946,471],[4,0],[3,2],[1,2],[6,18],[2,5],[3,3],[2,1],[5,0]],[[2941,471],[5,0]],[[2908,459],[4,0],[9,3],[4,2],[8,6],[4,1],[4,0]],[[3077,314],[3,-1],[1,-1],[2,-3],[2,-18],[2,-7],[4,-9],[6,-12],[9,-12],[19,-9],[-8,-26],[-3,-4],[-3,-7],[-1,-7],[3,-31],[0,-16],[0,-7],[8,-31],[4,-11],[4,-10],[14,-12],[4,-5],[2,-7],[1,-21],[-1,-12],[2,-8],[2,-7],[15,-11],[1,-2],[-1,-7]],[[3057,310],[5,0],[11,4],[4,0]],[[2807,480],[-14,-11],[-3,-3],[-16,-31],[-4,-6],[-4,-4],[-3,0],[-6,-1],[-4,-1],[-5,-2],[-16,-7],[-5,-1]],[[2632,422],[-5,0],[-37,10],[-8,1]],[[2582,433],[-6,-1],[-6,-5],[-3,-2],[-9,-6],[-15,-7],[-5,-3],[-8,-8],[-2,-3],[-4,-4],[-9,-6],[-5,-7],[0,-1],[2,-1],[4,-1],[2,-1],[2,-2],[-1,-4],[-4,-13],[-3,-5],[-11,-19],[-2,-4],[1,-2],[2,0]],[[2727,413],[-4,1],[-7,2],[-67,7]],[[2649,423],[-17,-1]],[[2514,332],[2,0],[2,-1],[3,-2],[1,-3],[-1,-4],[-6,-9],[-2,-5],[-1,-4],[1,-3],[2,-5],[0,-5],[-1,-6],[-4,-11],[-1,-7],[-1,-6],[1,-7],[1,-4],[1,-3],[2,-2],[3,-1]],[[2502,328],[3,0],[3,1],[3,2],[3,1]],[[2528,246],[3,0],[1,-1],[1,-2],[1,-4],[1,-3],[0,-6],[-3,-15],[31,-22],[9,-9],[8,-12],[23,-14],[25,-10],[10,-7],[5,-2]],[[2516,244],[12,2]],[[2679,148],[3,-2],[5,-5],[4,-1]],[[2643,139],[3,0],[2,2],[2,3],[2,1],[3,1],[12,1],[5,1],[7,0]],[[2723,145],[8,-1],[5,-1],[5,-6],[2,-3],[1,-4],[1,-4],[0,-14],[2,-9],[1,-5],[6,-9]],[[2691,140],[6,0],[11,3],[15,2]],[[1412,812],[-1,-28],[0,-21],[-9,-20],[-6,-26],[0,-29],[15,-31],[15,-22],[9,-5],[9,-6],[3,-10],[-3,-17]],[[2997,3126],[0,1]],[[2997,3126],[0,1]],[[2997,3127],[-1,7],[0,27],[0,1],[0,1],[1,1],[0,1],[1,1],[1,1],[21,11],[36,33]],[[3056,3211],[1,1]],[[3057,3212],[8,9],[-1,30],[-1,31],[0,2],[2,14],[0,2],[-2,8],[-1,4],[0,1],[0,1],[0,1],[0,3],[1,2],[-1,43],[0,2],[0,1],[0,1],[11,28],[18,86],[0,2],[7,24],[0,36],[0,1],[0,2],[1,1],[0,1],[1,0],[18,19],[2,3],[0,2],[-1,49],[1,1],[0,2],[12,36],[0,3],[0,5],[0,8],[0,2],[2,12],[1,40],[1,18],[0,4],[-1,10],[0,2],[1,2],[0,2],[-1,3],[-1,6],[0,1],[0,1],[0,21],[1,1],[0,1],[5,7],[0,9],[0,2],[1,1],[0,1],[-15,36]],[[2997,3128],[0,-9]],[[2997,3119],[0,-5]],[[2997,3119],[0,-19],[0,-4]],[[2998,3088],[0,-3]],[[3129,3856],[7,-5],[2,-3],[3,-25],[0,-11],[0,-3],[-1,-2],[-6,-7],[0,-21],[2,-11],[0,-16],[-2,-62],[-2,-13],[0,-13],[0,-2],[-12,-92],[-1,-2],[-1,-1],[-20,-21],[0,-39],[-25,-112],[-11,-29],[3,-66],[0,-79],[-8,-9]],[[3056,3211],[-36,-33],[-23,-13],[-1,-4],[1,-35]],[[2997,3126],[0,-9],[0,-21]],[[2997,3096],[1,-8]],[[2998,3088],[0,-3]],[[3130,3856],[1,-1],[-1,1]],[[3130,3855]],[[1471,950],[196,-17],[51,-53],[169,-59],[183,50],[196,-111],[29,-46],[31,-19]],[[2325,696],[83,-16],[170,-87],[103,33],[362,-141],[95,-90],[163,-29],[118,-73],[132,-192],[235,-101]],[[3001,3168],[64,52],[-3,145],[58,205],[17,279],[-336,247]],[[2997,3126],[0,1]],[[2997,3126],[0,1]],[[2997,3127],[4,41]],[[1471,950],[196,-17],[51,-53],[169,-59],[183,50],[196,-111],[29,-46],[31,-19]],[[2325,696],[83,-16],[170,-87],[103,33],[362,-141],[95,-90],[163,-29],[118,-73],[132,-192],[235,-101]],[[1919,684],[-127,-10],[-1,0],[-81,36],[-110,124],[-103,64],[-25,50]],[[1772,954],[-17,-46]],[[1471,950],[196,-17],[51,-53],[169,-59],[183,50],[196,-111],[29,-46],[31,-19]],[[3786,0],[-235,101],[-132,192],[-118,73],[-163,29],[-95,90],[-362,141],[-103,-33],[-170,87],[-83,16]],[[1477,961],[417,-18],[74,-48],[71,-7]],[[2315,879],[23,-63],[-20,-116],[204,-85]],[[2320,699],[6,-4]],[[2864,163],[51,98],[73,58],[92,28],[41,55],[178,-35],[88,-50],[110,-114],[52,-101],[89,-58]],[[3590,0],[11,36],[37,8]],[[3638,44],[1,-1]],[[3639,43]],[[3639,43],[1,-1]],[[3640,42]],[[3640,42]],[[3640,42],[1,0]],[[3641,42],[1,0]],[[3642,42],[1,0]],[[3643,42]],[[3643,42],[1,-1]],[[3644,41]],[[3644,41],[1,0]],[[3645,41]],[[3645,41],[5,0]],[[3591,1]],[[1174,693],[35,17],[18,66],[89,33],[121,93],[6,37]],[[1448,783],[-21,23],[33,53],[-7,51],[27,9],[-8,29]],[[1167,851],[-6,-46],[67,-28],[88,32],[121,93],[6,37]],[[1471,950],[9,-31],[-41,-12],[-3,-59],[-26,-12],[18,-24],[-23,-109],[-235,-11],[-200,-74],[-388,-226],[-84,-18]],[[1471,950],[196,-17],[51,-53],[169,-59],[183,50],[196,-111],[29,-46],[31,-19]],[[2325,696],[83,-16],[170,-87],[103,33],[362,-141],[95,-90],[163,-29],[118,-73],[132,-192],[235,-101]],[[1363,755],[63,47],[-17,31],[27,15],[7,91]],[[1476,841],[-23,69],[27,9],[-8,29]],[[1503,702],[-94,129],[27,17],[7,91]],[[1514,592],[-11,110]],[[1503,702],[-1,0],[1,0]],[[2998,3128],[-1,37],[68,55],[-3,145],[58,205],[17,279],[-336,247]],[[3130,3856],[1,-1],[-1,1]],[[3130,3855]],[[2864,163],[51,97],[73,59],[92,28],[37,54],[95,-25]],[[2864,163],[47,94],[-36,81],[-95,-16],[-11,23],[-70,9],[-26,-23],[-79,-3],[-73,79],[7,82],[-26,82],[-319,63],[-123,57],[-267,-18],[-87,41],[-138,-23],[-80,15],[-79,126],[27,16],[3,59],[41,12],[-9,31]],[[1472,948],[44,-13],[11,22],[111,24]],[[3209,378],[136,81],[154,-148],[220,-100],[109,-38],[121,-12],[19,38],[128,-27]],[[1471,950],[196,-17],[51,-53],[169,-59],[183,50],[196,-111],[29,-46],[31,-19]],[[2325,696],[83,-16],[170,-87],[103,33],[362,-141],[95,-90],[163,-29],[118,-72],[130,-191],[89,-59]],[[3590,0],[11,36],[37,8]],[[3638,44],[1,-1]],[[3639,43]],[[3639,43],[1,-1]],[[3640,42]],[[3640,42]],[[3640,42],[1,0]],[[3641,42],[1,0]],[[3642,42],[1,0]],[[3643,42],[7,-1]],[[1471,950],[196,-17],[51,-53],[169,-59],[183,50],[196,-111],[29,-46],[31,-19]],[[2325,696],[83,-16],[170,-87],[103,33],[362,-141],[95,-90],[163,-29],[118,-73],[132,-192],[235,-101]],[[1174,693],[232,10],[22,109],[-18,24],[26,12],[7,91]],[[1360,685]],[[501,375],[-59,-101],[-48,-10],[-59,-70],[-113,-22],[-9,34]],[[2728,4058],[7,-27],[3,-32],[-4,-33],[-11,-25],[-17,-20],[-21,-21],[-3,-11],[-2,-41],[-5,-2],[-3,-3],[-4,-2],[-5,2],[-4,4],[-2,6],[-4,11],[-3,-13],[5,-23],[3,-20],[-12,-9],[-11,1],[-18,8],[-24,3],[-8,5],[-17,15],[-9,6],[-17,6],[-9,5],[-25,23],[-7,14],[-8,21],[-10,21],[-15,8],[5,17],[-7,2],[-23,-8],[-13,4],[-14,7],[-9,9],[2,8],[0,5],[-5,7],[-3,19],[-7,8],[-5,-4],[-4,3],[-1,8],[-1,9],[12,3],[39,19],[41,33],[13,5],[-3,7],[228,0],[15,-38]],[[4096,463],[0,-156],[-3,-1],[-3,-2],[-13,46],[-4,8],[-34,-1],[-72,8],[-40,5],[-17,-1],[-14,-3],[-27,-11],[-16,-2],[-8,1],[-12,8],[-7,1],[-9,-1],[-2,-3],[-1,-5],[-8,-6],[-14,0],[-38,9],[-8,-1],[-6,-9],[-13,5],[-14,10],[-7,7],[-20,-3],[-21,10],[-55,48],[-5,5],[-4,9],[-19,31],[-9,2],[-21,0],[-11,3],[-4,3],[-18,21],[-7,12],[-10,25],[-8,13],[-9,9],[-7,6],[-9,5],[-11,4],[-1,0],[-18,81],[-6,4],[-16,-2],[-1,-2],[-3,-4],[-5,-4],[-4,-1],[-4,1],[-3,4],[-2,3],[-43,31],[-13,5],[-30,3],[-8,2],[-7,4],[-4,6],[-8,12],[9,29],[8,7],[17,-9],[14,10],[7,6],[0,6],[-7,2],[-45,-13],[-23,-23],[-15,-4],[0,1],[-1,4],[-2,4],[-5,2],[-13,-1],[-4,1],[-27,16],[-2,6],[-16,30],[-3,8],[-6,7],[-8,5],[-8,5],[-3,-20],[-14,-2],[-17,5],[-39,20],[-12,-1],[5,-19],[-43,-17],[-23,-5],[-24,1],[-12,3],[-12,4],[-12,7],[-11,10],[-9,3],[-41,0],[-13,3],[-10,9],[-8,9],[-6,6],[-12,5],[-29,6],[-12,0],[-15,11],[-26,49],[-1,1],[-20,16],[19,38],[6,6],[0,5],[-7,4],[-9,2],[-10,-1],[-10,-5],[14,-15],[-4,-15],[-14,-12],[-15,-7],[-18,-1],[-34,7],[-18,0],[-115,-23],[-14,-4],[-17,-4],[-13,5],[-6,17],[0,13],[-1,3],[-3,-1],[-5,-1],[-30,6],[-5,-1],[-15,-4],[-8,-1],[-4,-4],[-8,-19],[-3,-7],[-11,-13],[-5,-9],[-7,-3],[-14,0],[-26,14],[-42,49],[-32,9],[0,5],[10,9],[40,24],[33,9],[20,9],[10,9],[-13,5],[-12,-3],[-32,-20],[-18,-14],[-27,-13],[-11,-4],[-34,-5],[-18,-5],[-8,-9],[-8,-4],[-61,-10],[-7,-1],[-5,-1],[-6,-6],[-3,-7],[-5,-19],[-2,-4],[-11,-5],[-8,-2],[-9,1],[-9,5],[0,2],[5,3],[4,6],[4,14],[2,19],[-2,16],[-16,9],[-13,11],[-5,3],[-9,1],[-9,-1],[-8,1],[-8,4],[-10,-5],[-12,-1],[-18,0],[-114,1],[-16,-6],[-22,6],[-47,4],[-21,6],[-28,20],[-7,4],[-8,-2],[-8,-3],[-7,-2],[-17,-1],[-8,-3],[-21,-5],[-16,-2],[-50,13],[-23,-10],[-51,-9],[-34,-14],[-29,-5],[-11,-7],[-22,-17],[-11,-7],[-7,-3],[-9,-1],[-4,-2],[-7,-12],[-4,-2],[-16,-5],[-32,-19],[-15,2],[-17,-8],[-68,-9],[-66,3],[-16,-6],[-17,-3],[-26,5],[-24,-1],[-10,-17],[-8,-20],[-1,-1],[-15,-9],[-12,1],[1,15],[-7,-8],[-5,-3],[-5,3],[-3,8],[3,5],[7,1],[5,2],[-4,9],[-7,4],[-6,-3],[-4,-5],[-4,-2],[-7,3],[-10,7],[-8,1],[-4,-1],[-10,-7],[-5,-3],[-31,-6],[-16,-7],[-11,-9],[0,-10],[13,-11],[-5,-6],[-7,-8],[-7,-5],[-9,4],[-6,10],[-1,12],[3,9],[6,5],[0,5],[-9,9],[-12,4],[-13,0],[-15,-7],[-38,-24],[-10,-3],[-13,-7],[-13,-15],[-11,-17],[-5,-14],[-6,-6],[-11,-7],[-8,-3],[5,8],[-12,6],[-9,7],[-8,3],[-11,-5],[-6,-9],[-6,-12],[-9,-9],[-14,3],[2,3],[1,2],[2,6],[-30,0],[-5,-3],[-9,-25],[-3,-5],[-36,-1],[-16,-5],[-16,-10],[4,-1],[0,-2],[1,-3],[5,3],[5,3],[0,-6],[-5,-3],[-10,-6],[-5,-2],[-8,0],[-9,4],[-8,2],[-12,-1],[-25,-10],[-51,-26],[-12,-2],[-31,-2],[-11,-8],[-7,-17],[-10,11],[-45,-33],[-8,-4],[-10,-2],[-7,4],[-5,10],[-6,10],[-12,4],[-7,-1],[-6,-4],[-6,-6],[-3,-6],[12,1],[10,-2],[7,-6],[6,-9],[-8,-7],[-7,-9],[-8,-4],[-10,6],[-9,4],[-5,-10],[-2,-13],[-1,-8],[-4,-4],[-19,-2],[-7,-3],[-4,-8],[-6,-30],[-6,11],[-9,4],[-10,-1],[-10,-9],[-7,4],[-8,2],[0,-6],[9,-10],[-4,-17],[-9,-18],[-9,-12],[-13,-8],[-31,-6],[-13,-11],[15,0],[0,-6],[-13,-8],[-11,-12],[-15,-23],[-2,-4],[-3,-10],[-3,-5],[-4,-3],[-7,-1],[-4,-2],[-1,-1],[0,3747],[1407,0],[48,-95],[5,-16],[3,-3],[4,-3],[8,-5],[-3,12],[-10,19],[-2,13],[20,-21],[21,-69],[22,-15],[6,0],[6,-1],[10,-4],[6,-3],[7,-7],[5,-1],[4,1],[2,2],[1,2],[3,0],[3,-1],[7,-8],[2,-2],[5,3],[5,6],[4,6],[1,2],[6,-8],[3,-23],[6,4],[5,10],[0,12],[-7,35],[-12,30],[-3,6],[-5,5],[-10,25],[-8,9],[-5,-6],[-8,7],[-21,26],[-9,15],[-2,6],[15,-7],[8,-9],[15,-24],[10,-3],[12,6],[8,3],[-3,-14],[13,-15],[8,-7],[4,2],[4,8],[9,1],[9,3],[3,13],[17,-5],[13,3],[13,5],[29,6],[16,15],[12,4],[-9,-25],[-4,-6],[-7,-3],[-16,-4],[-36,-21],[-14,-11],[-1,-10],[15,-13],[9,-4],[6,-8],[2,-19],[-2,-18],[-18,-93],[0,-18],[3,-13],[13,-28],[4,-15],[-1,-18],[-4,-12],[-2,-10],[7,-14],[11,-12],[9,0],[10,6],[15,6],[0,-11],[7,3],[17,5],[6,3],[2,5],[22,62],[8,13],[24,25],[14,11],[12,5],[14,2],[17,10],[11,4],[-3,-9],[-4,-7],[-5,-6],[-8,-5],[-7,4],[-8,-3],[-7,-8],[-2,-7],[-32,-31],[-9,-11],[3,-20],[-13,-22],[-20,-18],[-20,-14],[-3,-3],[-3,-3],[-6,-1],[-5,2],[-5,9],[-3,0],[-4,-7],[-2,-12],[0,-12],[2,-8],[4,6],[4,-4],[3,-1],[9,5],[40,-22],[15,0],[3,-2],[4,-4],[4,-2],[4,2],[3,7],[-3,20],[0,12],[5,-12],[14,-26],[6,-12],[3,-15],[2,-50],[-5,0],[0,5],[-5,0],[2,-13],[22,-39],[0,-3],[1,-5],[-5,-28],[6,-63],[13,-57],[6,0],[-1,9],[1,8],[1,8],[3,8],[13,-58],[11,-20],[21,-16],[-6,-8],[2,-9],[7,-10],[8,-6],[6,-2],[17,3],[11,-1],[-3,-9],[-5,-11],[-7,-9],[-7,-4],[-8,5],[-8,8],[-9,5],[-10,-4],[5,-23],[3,-7],[7,-8],[2,-2],[6,0],[4,0],[0,5],[4,4],[1,1],[3,6],[2,5],[5,-7],[8,-4],[8,-1],[9,1],[7,5],[6,11],[7,6],[4,-10],[7,-6],[8,-3],[6,2],[2,-5],[1,-2],[0,-3],[-3,-5],[6,2],[9,7],[3,1],[6,-1],[10,-8],[15,-6],[9,-8],[7,-4],[10,11],[8,-7],[9,-13],[8,-7],[9,-4],[22,-4],[9,-4],[18,-12],[17,-16],[14,-21],[5,-6],[-19,-14],[-7,-9],[10,-4],[3,-5],[8,-21],[5,-7],[7,-1],[24,-2],[1,-14],[3,-9],[6,-7],[-1,-11],[15,-28],[8,-36],[3,-7],[8,-4],[17,4],[7,-3],[1,-6],[-3,-6],[-4,-5],[-14,-9],[8,-16],[24,-26],[11,-31],[0,-8],[4,-17],[1,-8],[6,-9],[33,-26],[28,-6],[4,-2],[13,-7],[25,-5],[14,-7],[41,-44],[5,-14],[-7,-17],[-13,-10],[-16,-4],[-16,1],[-13,5],[0,5],[5,1],[6,3],[4,2],[0,5],[-55,24],[-10,7],[-2,0],[-13,24],[-5,7],[-7,7],[-9,6],[-9,2],[5,11],[-13,-10],[-12,-27],[-8,-31],[-1,-25],[8,-25],[12,-25],[34,-33],[12,-2],[34,8],[29,3],[24,5],[27,0],[14,3],[17,18],[3,1],[20,14],[11,-11],[22,-4],[-3,-7],[0,-6],[6,-2],[4,-1],[2,3],[3,6],[4,-4],[4,-3],[3,-2],[4,-2],[1,3],[1,3],[2,2],[1,3],[7,-8],[12,-4],[12,-1],[9,2],[14,14],[10,4],[11,-7],[4,0],[5,7],[-1,5],[-2,5],[-2,7],[4,3],[27,6],[-1,-4],[-1,0],[-1,0],[-2,-2],[11,-4],[7,12],[5,18],[7,13],[11,3],[29,1],[10,1],[3,-5],[0,-2],[1,-4],[-6,-1],[-4,-2],[-2,-3],[-2,-5],[5,-3],[4,-3],[3,-5],[2,-5],[13,8],[14,-2],[11,-10],[2,-18],[6,0],[-2,16],[-9,13],[-14,7],[-15,2],[9,10],[14,7],[12,1],[-1,-12],[10,-4],[15,-21],[11,-8],[0,7],[-9,9],[-9,12],[2,16],[1,9],[12,14],[3,7],[1,7],[4,6],[32,37],[27,24],[1,9],[-6,7],[-9,5],[-6,6],[6,16],[6,11],[-3,4],[-5,3],[-4,5],[-2,17],[1,15],[7,14],[12,17],[4,14],[1,39],[2,15],[22,21],[15,34],[1,20],[3,7],[7,8],[8,1],[7,0],[7,3],[11,15],[0,34],[10,21],[4,29],[26,34],[6,0],[3,-11],[0,-20],[-5,-37],[0,-33],[5,0],[12,235],[-12,18],[0,6],[12,9],[7,24],[18,118],[-2,18],[4,12],[2,13],[-1,28],[1,12],[8,24],[6,109],[11,1],[4,23],[-1,103],[-5,25],[-9,12],[0,6],[11,12],[0,21],[-19,77],[-5,8],[-7,5],[-16,5],[-9,4],[0,5],[8,4],[9,1],[8,3],[5,9],[-1,9],[-14,29],[-14,40],[993,0],[0,-387],[-15,6],[-11,-2],[-15,-2],[-21,29],[-94,59],[-5,5],[-5,4],[-7,2],[-7,0],[7,-13],[35,-28],[76,-78],[32,-19],[18,-17],[12,-4],[0,-3173],[-9,3],[-4,-2],[0,-13],[1,-5],[7,0],[5,2]],[[3700,3024],[2,11],[4,6],[5,7],[10,9],[2,-4],[-5,-12],[2,-7],[9,3],[4,2],[2,-3],[2,6],[-2,17],[-3,9],[-8,-3],[-14,-11],[-10,-17],[-5,-16],[-3,-11],[3,-4],[8,0],[20,-3],[3,4],[-7,7],[-11,4],[-8,6]],[[3070,2991],[2,45],[-5,0],[-2,-6],[-3,-4],[-4,-3],[-6,-4],[0,-5],[4,-1],[2,-1],[1,-2],[3,-2],[-8,-7],[-1,-8],[5,-6],[9,-1],[3,5]],[[1904,2092],[3,5],[3,6],[3,-5],[0,1],[0,2],[1,2],[2,-4],[2,-3],[2,-3],[5,-1],[-2,6],[-2,5],[-3,3],[-4,2],[-4,0],[-15,-13],[-6,-3],[-8,1],[-7,2],[-6,-1],[-4,-13],[22,3],[11,3],[7,5]],[[1648,2104],[1,-4],[2,7],[-1,9],[-8,7],[-9,3],[-8,-2],[-2,-3],[5,1],[3,0],[5,-3],[6,-4],[6,-11]],[[2008,2132],[-14,-13],[0,-5],[52,15],[25,10],[18,13],[0,6],[-25,29],[-5,9],[-2,1],[-2,0],[-2,1],[1,4],[-5,0],[-5,-17],[8,-1],[5,-2],[1,-3],[-4,-4],[0,-6],[13,1],[8,-4],[2,-8],[-3,-11],[-5,0],[-4,9],[-9,7],[-22,6],[5,-6],[4,-4],[11,-7],[-5,-7],[-3,-1],[-2,-3],[-4,-3],[-16,-8],[-7,5],[-9,-3]],[[2080,2197],[-1,-11],[3,-6],[2,-2],[1,-2],[4,-1],[3,2],[3,1],[5,-1],[4,-4],[3,-6],[2,4],[-1,14],[-2,9],[-2,2],[-6,5],[-5,2],[-5,1],[-3,2],[-2,-1],[-3,-8]],[[2144,2251],[48,-75],[2,-24],[16,13],[-11,31],[-24,33],[-21,17],[-6,1],[-2,1],[-2,3]],[[2490,2262],[-56,-38],[54,23],[10,10],[9,1],[3,2],[3,3],[0,5],[-23,-6]],[[2428,2229],[1,6],[-16,-3],[-40,-12],[-15,-7],[24,0],[8,-5],[4,-12],[4,11],[4,8],[7,5],[17,7],[2,2]],[[2218,2210],[-6,0],[-3,-3],[3,-5],[2,-3],[7,-4],[5,-8],[2,4],[-4,12],[-6,7]],[[2256,2173],[1,-1],[7,4],[5,5],[-1,4],[-4,-1],[-8,-11]],[[2159,2172],[-5,3],[-5,-4],[1,-2],[6,-4],[3,7]],[[2136,2168],[2,8],[-2,8],[-5,8],[-5,0],[-1,-2],[2,-1],[-1,-1],[-5,-4],[1,-5],[9,-8],[1,-3],[4,0]],[[1981,2122],[-2,3],[-19,-5],[-9,0],[-7,5],[-4,0],[-4,-4],[-1,-5],[1,-4],[4,-4],[0,-5],[-8,-8],[-3,-3],[55,16],[-3,14]],[[2613,2308],[-1,4],[-4,0],[-5,-4],[-1,1],[0,5],[1,8],[-33,-23],[-7,-9],[27,2],[12,3],[6,6],[4,5],[1,2]],[[2677,2348],[-2,4],[-14,-11],[-7,-3],[-4,-5],[-2,-5],[4,0],[11,7],[5,4],[9,9]],[[2736,2398],[-1,3],[-5,-5],[-23,-28],[8,3],[15,16],[6,9],[0,2]],[[2843,2506],[5,9],[7,-3],[8,5],[60,58],[0,5],[-4,13],[9,19],[24,34],[22,28],[3,8],[2,6],[3,9],[5,10],[5,5],[3,2],[3,2],[2,3],[3,4],[-16,7],[-13,-8],[-19,-29],[-10,-6],[-23,-6],[-5,-4],[3,-10],[5,-4],[6,-5],[2,-12],[-7,-17],[-27,-29],[-14,-35],[-33,7],[-4,-14],[10,4],[8,-3],[4,-7],[-3,-10],[-5,3],[-3,0],[0,-3],[4,-6],[-7,-9],[-7,-4],[-16,-3],[3,-10],[-5,-9],[-18,-19],[-11,-17],[-5,-4],[-12,-2],[-4,-4],[-9,-28],[-8,-4],[-11,-2],[-7,-5],[4,-9],[14,1],[17,16],[27,35],[22,20],[6,8],[7,19]],[[2716,2525],[0,6],[-3,3],[-3,2],[-4,-1],[0,-2],[3,-3],[1,-5],[3,-1],[1,-2],[2,3]],[[2823,2528],[2,-2],[9,10],[4,1],[-2,11],[-3,-8],[-5,-4],[-2,-4],[-1,0],[-2,-4]],[[2723,2546],[-3,9],[-1,2],[-3,-3],[0,-8],[2,-9],[4,1],[1,8]],[[2753,2585],[-5,2],[-3,-3],[2,-4],[8,-4],[3,6],[-5,3]],[[3017,2770],[11,10],[10,17],[7,18],[2,18],[2,3],[1,6],[-1,4],[-7,-3],[-2,-3],[-11,-47],[-7,-12],[-10,-9],[3,0],[1,-1],[1,-1]],[[2794,2594],[2,7],[-2,-1],[-1,-3],[-4,-1],[-2,-3],[1,0],[6,1]],[[2377,2723],[26,-1],[1,2],[-12,2],[-13,5],[-5,-2],[-2,-4],[5,-2]],[[2385,2702],[7,-4],[1,8],[2,3],[0,4],[-2,6],[-6,1],[-9,-2],[-2,0],[1,2],[-4,1],[-4,-4],[9,-10],[7,-5]],[[2410,2701],[3,-4],[8,2],[7,5],[-2,3],[-12,4],[-5,-1],[-1,-5],[2,-4]],[[2409,2669],[6,-2],[5,3],[2,6],[7,9],[-3,9],[-3,1],[-9,2],[-9,-1],[-4,-7],[2,-10],[6,-10]],[[2506,2660],[-4,-5],[-1,-6],[1,-1],[3,1],[2,-5],[1,-12],[2,1],[3,5],[1,7],[-4,10],[-4,5]],[[2496,2640],[-4,0],[2,-2],[-2,-4],[-6,-9],[7,-2],[1,0],[-1,6],[6,3],[3,2],[-1,1],[0,3],[-5,2]],[[2473,2648],[4,3],[5,1],[-4,6],[-4,0],[0,-1],[0,-1],[1,-1],[-4,-4],[2,-3]],[[2201,3087],[-8,2],[-5,-1],[-3,-2],[-1,4],[-2,2],[-9,-6],[1,-4],[19,-7],[5,1],[6,5],[-3,6]],[[2171,3090],[4,3],[8,1],[5,2],[-2,5],[-5,4],[-5,2],[-13,11],[-6,5],[-12,6],[-8,-7],[-1,-8],[1,-5],[1,-18],[4,1],[6,5],[5,-2],[8,-10],[3,-2],[3,-2],[-1,3],[2,2],[3,4]],[[2124,3128],[-5,13],[-7,5],[-11,-2],[-3,-2],[-7,-1],[-10,-5],[-2,-9],[4,-5],[2,-2],[0,-3],[1,0],[1,6],[0,3],[1,4],[3,2],[4,-2],[2,-3],[11,-1],[5,-6],[2,-4],[3,-5],[5,-5],[4,2],[3,6],[-3,5],[-2,2],[-1,7]],[[2067,3145],[2,6],[-2,5],[-3,4],[-2,2],[1,1],[2,1],[-5,6],[-9,1],[-2,-7],[2,-5],[3,-3],[5,-3],[1,-7],[-2,-12],[2,-3],[7,14]],[[1968,3142],[9,15],[-2,9],[-10,3],[-9,-2],[-7,1],[-7,-1],[-2,-7],[2,-5],[1,-2],[4,-3],[2,-4],[2,-5],[4,-3],[9,-1],[4,5]],[[2038,3150],[2,-3],[3,3],[2,3],[0,4],[-3,1],[-2,-1],[-2,-7]],[[1529,3837],[6,-17],[6,18],[1,17],[-4,18],[-8,18],[-3,6],[-3,-1],[-4,-5],[7,-14],[2,-40]],[[1600,3810],[10,-24],[13,-25],[10,-25],[-3,-20],[9,-15],[11,-40],[10,-16],[10,-3],[0,14],[-5,41],[-5,11],[-12,18],[-8,17],[7,29],[-8,18],[-14,14],[-15,6],[-10,0]],[[1586,3684],[-6,5],[3,-25],[7,-25],[5,-12],[7,-9],[8,-6],[44,-26],[11,-2],[13,4],[18,15],[14,3],[-30,17],[-7,-10],[-14,-1],[-24,5],[-14,6],[-11,9],[-9,12],[-6,17],[-2,9],[-3,8],[-4,6]],[[1543,3809],[-3,1],[9,-38],[6,-16],[10,-19],[-3,18],[-11,30],[-1,19],[-4,4],[-3,1]],[[3393,763],[-5,9],[-4,-3],[0,-7],[1,-5],[-9,-2],[-1,-8],[7,-8],[14,-10],[5,-1],[4,0],[3,-1],[2,-3],[0,-6],[5,-5],[11,2],[7,7],[-4,6],[-10,6],[-4,4],[-5,7],[-14,3],[-5,2],[2,13]],[[412,686],[6,4],[9,1],[5,3],[3,1],[3,0],[3,-2],[-1,-3],[0,-2],[3,0],[3,4],[-1,3],[-9,4],[-8,1],[-13,-8],[-8,-13],[-2,-9],[3,3],[3,3],[-1,4],[2,6]],[[2596,1004],[8,-1],[13,1],[5,0],[9,-3],[15,-7],[3,2],[4,5],[5,0],[5,-4],[4,2],[1,5],[-1,2],[-46,6],[-25,5],[-20,8],[-15,2],[-3,-4],[5,-2],[5,-8],[7,-2],[21,-7]],[[2672,1001],[1,-10],[2,-3],[2,5],[5,4],[9,-2],[3,1],[1,6],[3,0],[3,0],[2,5],[-2,7],[-2,2],[-7,-1],[-12,-6],[-8,-8]],[[2770,1007],[-4,-7],[-3,-11],[9,5],[3,0],[3,-5],[12,3],[15,-4],[13,-6],[7,-1],[6,4],[6,3],[4,4],[2,5],[-2,6],[-4,0],[-5,-2],[-4,-1],[-19,0],[-6,0],[-4,3],[-6,7],[-3,1],[-12,-1],[-8,-3]],[[2595,978],[-7,11],[-5,0],[0,-11],[-12,11],[-3,5],[-5,-5],[3,-4],[4,-8],[3,-4],[-15,3],[-14,1],[-13,-3],[-45,-30],[-8,-9],[36,18],[18,7],[24,2],[9,-2],[7,-4],[9,-1],[12,7],[7,7],[0,3],[-5,6]],[[2857,962],[1,-7],[-6,1],[-3,-2],[2,-5],[1,-1],[10,2],[11,5],[7,6],[19,2],[6,0],[6,1],[1,4],[-10,2],[-9,0],[-16,-1],[-6,-1],[-10,-1],[-4,-5]],[[2963,954],[2,-7],[5,-3],[1,-1],[1,-4],[4,-1],[10,-7],[6,-2],[3,-6],[4,-5],[5,-4],[4,0],[3,5],[1,5],[-3,6],[-1,2],[-5,7],[-11,9],[-5,6],[0,4],[-6,2],[-5,0],[-6,-1],[-7,-5]],[[3022,918],[31,-15],[15,-3],[14,7],[6,6],[2,3],[-4,1],[-11,1],[-10,2],[-10,6],[-8,9],[-5,11],[-5,0],[-5,-8],[-5,-6],[-3,-6],[-2,-8]],[[3122,900],[-1,-9],[-2,-5],[-2,1],[0,-2],[2,-4],[5,-4],[5,-1],[5,1],[3,0],[4,-3],[4,-6],[2,2],[-3,10],[-3,6],[-2,7],[-9,9],[-8,-2]],[[3169,877],[1,-2],[4,2],[2,0],[-1,-6],[-2,-2],[-7,3],[-1,1],[-4,-6],[0,-11],[3,-7],[5,0],[8,5],[12,17],[-1,4],[-10,8],[-4,1],[-4,-2],[-1,-5]],[[3017,846],[-13,9],[-16,-2],[-36,-18],[-6,5],[-5,1],[-4,-2],[-4,-4],[11,-9],[73,-12],[-1,7],[-2,7],[-5,4],[-6,3],[3,3],[7,6],[4,2]],[[3210,820],[1,-10],[4,0],[3,2],[2,2],[6,3],[1,4],[-4,6],[-9,6],[-8,0],[-2,-3],[3,-2],[3,-8]],[[3303,821],[-16,-5],[-7,-12],[6,-3],[7,-2],[-2,-3],[-4,-4],[-3,-5],[5,-7],[9,-6],[8,2],[5,5],[-1,5],[-6,1],[-3,5],[5,5],[9,3],[4,4],[-1,6],[-6,8],[-9,3]],[[3230,792],[7,11],[7,3],[16,-10],[7,7],[1,11],[-6,0],[-11,5],[-12,0],[-12,-4],[-10,-6],[5,-20],[8,3]],[[3297,761],[-1,-2],[9,1],[3,2],[0,6],[-3,4],[-4,-1],[-4,-10]],[[3453,673],[9,0],[22,9],[14,-5],[6,-12],[4,-11],[6,-5],[3,-2],[12,-9],[2,-3],[1,-9],[3,-3],[5,-2],[17,-13],[12,-7],[13,-1],[13,5],[25,-28],[11,-10],[9,-6],[7,-4],[7,-1],[5,-2],[17,-15],[-6,15],[-12,18],[-15,15],[-30,12],[-27,23],[-33,11],[-16,13],[-38,43],[-12,6],[-15,-1],[-21,-6],[2,-15]],[[3921,567],[4,-11],[17,9],[0,9],[-11,7],[-68,4],[-13,-2],[10,-6],[7,-3],[44,-3],[10,-4]],[[4029,450],[-3,1],[-3,0],[-9,1],[-3,-2],[-3,-3],[-2,-5],[3,-3],[8,-1],[4,-2],[2,1],[2,-2],[4,-5],[7,-2],[3,2],[-6,12],[-4,8]],[[3926,451],[8,3],[4,3],[-4,10],[-6,0],[-5,-3],[-1,-8],[4,-1],[-1,-2],[1,-2]],[[3808,477],[-3,5],[-1,4],[-5,1],[-4,-3],[-4,-1],[2,-2],[2,-2],[-4,-1],[-2,1],[-3,6],[-3,-7],[18,-7],[9,4],[-2,2]],[[3812,535],[1,3],[5,0],[0,3],[-1,2],[-1,2],[-1,2],[0,3],[0,4],[-4,2],[-8,-1],[-12,-8],[0,-5],[5,-3],[6,1],[4,-2],[1,-6],[2,-1],[3,4]],[[3776,554],[9,8],[-28,-2],[-7,-2],[6,-3],[3,-4],[0,-5],[5,0],[12,8]],[[3550,580],[-1,2],[-3,-2],[-1,2],[-1,7],[2,6],[-2,3],[-3,-1],[-2,-1],[0,-4],[0,-2],[-3,0],[-3,-6],[-2,-2],[-1,-3],[1,-2],[2,-4],[1,-6],[5,-6],[7,0],[1,3],[-2,4],[3,6],[3,3],[-1,3]],[[2452,1028],[9,13],[1,4],[-2,4],[-5,-1],[-6,-12],[0,-8],[3,0]],[[2538,1033],[8,-1],[6,7],[-3,7],[-3,1],[-5,-1],[-20,13],[-17,-2],[-5,-5],[7,-2],[3,-4],[4,-5],[8,-4],[9,-1],[8,-3]],[[3540,1243],[-18,12],[1,-3],[14,-10],[3,1]],[[3485,1304],[-4,2],[29,-33],[1,1],[-7,10],[-19,20]],[[0,81],[0,76],[15,-5],[14,-2],[-4,-5],[-7,-17],[15,-8],[2,-9],[-1,-12],[4,-15],[11,-9],[8,7],[8,14],[8,10],[-10,-44],[-11,2],[-20,-15],[-3,5],[-5,9],[-10,10],[-12,8],[-2,0]],[[275,0],[3,7],[-3,6],[-5,4],[-2,4],[6,16],[25,19],[4,18],[-9,-8],[-9,-2],[-7,4],[-5,11],[-1,13],[5,8],[8,2],[8,-7],[0,12],[-2,5],[-3,5],[3,8],[6,22],[0,6],[30,30],[17,3],[56,-3],[11,3],[8,11],[9,2],[-1,-2],[1,-5],[2,-6],[3,-3],[4,-1],[80,12],[-1,-3],[-2,-5],[-1,-3],[20,5],[21,14],[18,20],[10,21],[5,0],[4,-9],[6,-9],[2,-9],[-6,-6],[32,-14],[37,-5],[37,4],[12,13],[0,13],[7,1],[6,-3],[4,-8],[5,6],[0,9],[1,-2],[3,-3],[6,5],[4,5],[5,12],[1,4],[-1,2],[1,4],[4,7],[9,10],[26,17],[0,2],[0,12],[1,3],[3,0],[3,-1],[5,2],[4,-1],[3,-1],[1,3],[0,12],[0,2],[10,3],[10,-1],[24,-7],[24,2],[17,18],[42,81],[19,21],[24,17],[49,26],[11,3],[17,2],[8,5],[44,38],[25,9],[10,7],[5,15],[0,15],[3,16],[7,13],[15,8],[16,0],[77,-21],[25,6],[34,-7],[7,2],[15,7],[8,2],[38,-10],[48,7],[23,-6],[16,-2],[15,2],[31,4],[56,0],[49,-15],[23,-10],[78,13],[58,6],[26,1],[64,-24],[26,-10],[25,-19],[14,-11],[20,-18],[11,0],[10,-4],[1,-8],[-7,-23],[2,-12],[-3,-8],[1,-17],[-7,-3],[-6,-6],[-10,-10],[-11,-3],[-7,-2],[-15,0],[-7,-4],[-9,1],[-28,-12],[-38,-7],[-16,2],[-20,5],[-13,-3],[-23,-2],[-19,4],[-27,-8],[-84,3],[-9,-3],[-11,-4],[-9,-8],[-4,-13],[7,-13],[12,-6],[14,-2],[10,0],[0,-3],[9,-15],[3,-4],[6,-3],[15,-1],[6,-4],[11,-9],[11,-7],[103,-42],[13,-13],[2,-12],[7,-11],[18,-21],[11,-4],[34,-5],[8,0],[-2,6],[-2,2],[-2,3],[14,-2],[5,3],[2,10],[4,0],[10,-5],[17,-2],[16,1],[7,3],[4,9],[9,0],[8,-4],[4,-2],[30,-11],[4,-2],[1,-7],[3,-2],[4,1],[2,2],[2,2],[2,1],[8,3],[11,10],[5,3],[8,-3],[14,-10],[8,-3],[36,0],[27,-12],[16,-53],[27,-12],[9,2],[2,5],[0,5],[6,4],[6,-1],[5,-5],[5,-3],[9,4],[3,6],[-1,15],[3,7],[4,3],[20,8],[7,-6],[11,-23],[3,-26],[-11,-17],[16,-1],[5,25],[0,97],[-10,34],[-1,10],[5,8],[8,3],[10,-2],[10,-7],[19,-30],[3,-2],[-5,-34],[0,-13],[3,-8],[19,-40],[7,-13],[11,-8],[29,-6],[27,-14],[14,-5],[64,-6],[105,12],[89,-7],[91,3],[31,-12],[4,18],[-4,20],[-10,18],[-10,15],[-22,16],[-7,11],[4,17],[10,-4],[11,-2],[9,3],[5,8],[6,-9],[7,-7],[17,-11],[-11,-12],[1,-10],[10,-6],[14,0],[-1,-10],[7,-1],[8,3],[6,-3],[0,-6],[-3,-7],[-4,-7],[-3,-7],[4,2],[12,3],[-10,-8],[-13,-4],[-12,-1],[-11,2],[0,-9],[2,-5],[8,-7],[3,-1],[9,1],[3,0],[3,-5],[1,-4],[0,-4],[1,-4],[57,-62],[-1665,0],[-19,9],[-17,-4],[3,-5],[-202,0],[-35,4],[-6,-4],[-284,0],[26,2],[2,2],[-5,3],[-8,1],[-11,2],[-5,0],[-32,-10],[-411,0]],[[604,15],[-4,0],[-1,0],[-11,4],[-22,4],[-7,-4],[11,-5],[16,-1],[14,0],[4,2]],[[2232,73],[-5,1],[-4,-2],[-3,-2],[-3,0],[-4,2],[-4,3],[-3,6],[0,4],[1,4],[-6,10],[-2,-3],[0,-5],[-2,-2],[-2,1],[-2,3],[-3,0],[1,-6],[3,-9],[-3,-6],[-7,-2],[-7,-1],[-5,3],[-3,9],[-2,-3],[-4,1],[-14,11],[-4,5],[-1,6],[-4,2],[-3,-1],[-2,-1],[-6,5],[-3,-3],[3,-4],[8,-4],[38,-31],[8,0],[8,3],[6,1],[4,-2],[2,-3],[3,-2],[27,10],[-1,2]],[[2041,105],[-8,2],[-4,-3],[0,-7],[2,-6],[3,-5],[4,-1],[8,1],[8,-5],[5,0],[-1,11],[-5,6],[-4,3],[-8,4]],[[1461,443],[-1,6],[-4,-2],[0,-7],[-2,-5],[-2,-4],[0,-3],[6,-4],[2,0],[-2,6],[1,6],[2,7]],[[1351,555],[-4,4],[-2,-1],[0,-4],[2,-7],[-2,-50],[4,-4],[3,6],[3,5],[5,14],[-3,19],[-2,9],[-1,3],[-3,6]],[[1235,515],[-5,8],[-4,-4],[-5,-5],[6,-10],[8,7],[0,4]],[[2728,4058],[7,-27],[3,-32],[-4,-33],[-11,-25],[-17,-20],[-21,-21],[-3,-11],[-2,-41],[-5,-2],[-3,-3],[-4,-2],[-5,2],[-4,4],[-2,6],[-4,11],[-3,-13],[5,-23],[3,-20],[-12,-9],[-11,1],[-18,8],[-24,3],[-8,5],[-17,15],[-9,6],[-17,6],[-9,5],[-25,23],[-7,14],[-8,21],[-10,21],[-15,8],[5,17],[-7,2],[-23,-8],[-13,4],[-14,7],[-9,9],[2,8],[0,5],[-5,7],[-3,19],[-7,8],[-5,-4],[-4,3],[-1,8],[-1,9],[12,3],[39,19],[41,33],[13,5],[-3,7]],[[2713,4096],[15,-38]],[[1407,4096],[48,-95],[5,-16],[3,-3],[4,-3],[8,-5],[-3,12],[-10,19],[-2,13],[20,-21],[21,-69],[22,-15],[6,0],[6,-1],[10,-4],[6,-3],[7,-7],[5,-1],[4,1],[2,2],[1,2],[3,0],[3,-1],[7,-8],[2,-2],[5,3],[5,6],[4,6],[1,2],[6,-8],[3,-23],[6,4],[5,10],[0,12],[-7,35],[-12,30],[-3,6],[-5,5],[-10,25],[-8,9],[-5,-6],[-8,7],[-21,26],[-9,15],[-2,6],[15,-7],[8,-9],[15,-24],[10,-3],[12,6],[8,3],[-3,-14],[13,-15],[8,-7],[4,2],[4,8],[9,1],[9,3],[3,13],[17,-5],[13,3],[13,5],[29,6],[16,15],[12,4],[-9,-25],[-4,-6],[-7,-3],[-16,-4],[-36,-21],[-14,-11],[-1,-10],[15,-13],[9,-4],[6,-8],[2,-19],[-2,-18],[-18,-93],[0,-18],[3,-13],[13,-28],[4,-15],[-1,-18],[-4,-12],[-2,-10],[7,-14],[11,-12],[9,0],[10,6],[15,6],[0,-11],[7,3],[17,5],[6,3],[2,5],[22,62],[8,13],[24,25],[14,11],[12,5],[14,2],[17,10],[11,4],[-3,-9],[-4,-7],[-5,-6],[-8,-5],[-7,4],[-8,-3],[-7,-8],[-2,-7],[-32,-31],[-9,-11],[3,-20],[-13,-22],[-20,-18],[-20,-14],[-3,-3],[-3,-3],[-6,-1],[-5,2],[-5,9],[-3,0],[-4,-7],[-2,-12],[0,-12],[2,-8],[4,6],[4,-4],[3,-1],[9,5],[40,-22],[15,0],[3,-2],[4,-4],[4,-2],[4,2],[3,7],[-3,20],[0,12],[5,-12],[14,-26],[6,-12],[3,-15],[2,-50],[-5,0],[0,5],[-5,0],[2,-13],[22,-39],[0,-3],[1,-5],[-5,-28],[6,-63],[13,-57],[6,0],[-1,9],[1,8],[1,8],[3,8],[13,-58],[11,-20],[21,-16],[-6,-8],[2,-9],[7,-10],[8,-6],[6,-2],[17,3],[11,-1],[-3,-9],[-5,-11],[-7,-9],[-7,-4],[-8,5],[-8,8],[-9,5],[-10,-4],[5,-23],[3,-7],[7,-8],[2,-2],[6,0],[4,0],[0,5],[4,4],[1,1],[3,6],[2,5],[5,-7],[8,-4],[8,-1],[9,1],[7,5],[6,11],[7,6],[4,-10],[7,-6],[8,-3],[6,2],[2,-5],[1,-2],[0,-3],[-3,-5],[6,2],[9,7],[3,1],[6,-1],[10,-8],[15,-6],[9,-8],[7,-4],[10,11],[8,-7],[9,-13],[8,-7],[9,-4],[22,-4],[9,-4],[18,-12],[17,-16],[14,-21],[5,-6],[-19,-14],[-7,-9],[10,-4],[3,-5],[8,-21],[5,-7],[7,-1],[24,-2],[1,-14],[3,-9],[6,-7],[-1,-11],[15,-28],[8,-36],[3,-7],[8,-4],[17,4],[7,-3],[1,-6],[-3,-6],[-4,-5],[-14,-9],[8,-16],[24,-26],[11,-31],[0,-8],[4,-17],[1,-8],[6,-9],[33,-26],[28,-6],[4,-2],[13,-7],[25,-5],[14,-7],[41,-44],[5,-14],[-7,-17],[-13,-10],[-16,-4],[-16,1],[-13,5],[0,5],[5,1],[6,3],[4,2],[0,5],[-55,24],[-10,7],[-2,0],[-13,24],[-5,7],[-7,7],[-9,6],[-9,2],[5,11],[-13,-10],[-12,-27],[-8,-31],[-1,-25],[8,-25],[12,-25],[34,-33],[12,-2],[34,8],[29,3],[24,5],[27,0],[14,3],[17,18],[3,1],[20,14],[11,-11],[22,-4],[-3,-7],[0,-6],[6,-2],[4,-1],[2,3],[3,6],[4,-4],[4,-3],[3,-2],[4,-2],[1,3],[1,3],[2,2],[1,3],[7,-8],[12,-4],[12,-1],[9,2],[14,14],[10,4],[11,-7],[4,0],[5,7],[-1,5],[-2,5],[-2,7],[4,3],[27,6],[-1,-4],[-1,0],[-1,0],[-2,-2],[11,-4],[7,12],[5,18],[7,13],[11,3],[29,1],[10,1],[3,-5],[0,-2],[1,-4],[-6,-1],[-4,-2],[-2,-3],[-2,-5],[5,-3],[4,-3],[3,-5],[2,-5],[13,8],[14,-2],[11,-10],[2,-18],[6,0],[-2,16],[-9,13],[-14,7],[-15,2],[9,10],[14,7],[12,1],[-1,-12],[10,-4],[15,-21],[11,-8],[0,7],[-9,9],[-9,12],[2,16],[1,9],[12,14],[3,7],[1,7],[4,6],[32,37],[27,24],[1,9],[-6,7],[-9,5],[-6,6],[6,16],[6,11],[-3,4],[-5,3],[-4,5],[-2,17],[1,15],[7,14],[12,17],[4,14],[1,39],[2,15],[22,21],[15,34],[1,20],[3,7],[7,8],[8,1],[7,0],[7,3],[11,15],[0,34],[10,21],[4,29],[26,34],[6,0],[3,-11],[0,-20],[-5,-37],[0,-33],[5,0],[12,235],[-12,18],[0,6],[12,9],[7,24],[18,118],[-2,18],[4,12],[2,13],[-1,28],[1,12],[8,24],[6,109],[11,1],[4,23],[-1,103],[-5,25],[-9,12],[0,6],[11,12],[0,21],[-19,77],[-5,8],[-7,5],[-16,5],[-9,4],[0,5],[8,4],[9,1],[8,3],[5,9],[-1,9],[-14,29],[-14,40]],[[3042,946],[-5,0],[-5,-8],[-5,-6],[-3,-6],[-2,-8],[31,-15],[15,-3],[14,7],[6,6],[2,3],[-4,1],[-11,1],[-10,2],[-10,6],[-8,9],[-5,11]],[[2583,989],[0,-11],[-12,11],[-3,5],[-5,-5],[3,-4],[4,-8],[3,-4],[-15,3],[-14,1],[-13,-3],[-45,-30],[-8,-9],[36,18],[18,7],[24,2],[9,-2],[7,-4],[9,-1],[12,7],[7,7],[0,3],[-5,6],[-7,11],[-5,0]],[[3262,814],[-11,5],[-12,0],[-12,-4],[-10,-6],[5,-20],[8,3],[7,11],[7,3],[16,-10],[7,7],[1,11],[-6,0]],[[2952,835],[-6,5],[-5,1],[-4,-2],[-4,-4],[11,-9],[73,-12],[-1,7],[-2,7],[-5,4],[-6,3],[3,3],[7,6],[4,2],[-13,9],[-16,-2],[-36,-18]],[[2603,2322],[-33,-23],[-7,-9],[27,2],[12,3],[6,6],[4,5],[1,2],[-1,4],[-4,0],[-5,-4],[-1,1],[0,5],[1,8]],[[2828,1000],[-19,0],[-6,0],[-4,3],[-6,7],[-3,1],[-12,-1],[-8,-3],[-4,-7],[-3,-11],[9,5],[3,0],[3,-5],[12,3],[15,-4],[13,-6],[7,-1],[6,4],[6,3],[4,4],[2,5],[-2,6],[-4,0],[-5,-2],[-4,-1]],[[2952,2646],[22,28],[3,8],[2,6],[3,9],[5,10],[5,5],[3,2],[3,2],[2,3],[3,4],[-16,7],[-13,-8],[-19,-29],[-10,-6],[-23,-6],[-5,-4],[3,-10],[5,-4],[6,-5],[2,-12],[-7,-17],[-27,-29],[-14,-35],[-33,7],[-4,-14],[10,4],[8,-3],[4,-7],[-3,-10],[-5,3],[-3,0],[0,-3],[4,-6],[-7,-9],[-7,-4],[-16,-3],[3,-10],[-5,-9],[-18,-19],[-11,-17],[-5,-4],[-12,-2],[-4,-4],[-9,-28],[-8,-4],[-11,-2],[-7,-5],[4,-9],[14,1],[17,16],[27,35],[22,20],[6,8],[7,19],[5,9],[7,-3],[8,5],[60,58],[0,5],[-4,13],[9,19],[24,34]],[[3047,2833],[2,3],[1,6],[-1,4],[-7,-3],[-2,-3],[-11,-47],[-7,-12],[-10,-9],[3,0],[1,-1],[1,-1],[11,10],[10,17],[7,18],[2,18]],[[4096,3709],[-15,6],[-11,-2],[-15,-2],[-21,29],[-94,59],[-5,5],[-5,4],[-7,2],[-7,0],[7,-13],[35,-28],[76,-78],[32,-19],[18,-17],[12,-4]],[[3654,556],[5,-2],[17,-15],[-6,15],[-12,18],[-15,15],[-30,12],[-27,23],[-33,11],[-16,13],[-38,43],[-12,6],[-15,-1],[-21,-6],[2,-15],[9,0],[22,9],[14,-5],[6,-12],[4,-11],[6,-5],[3,-2],[12,-9],[2,-3],[1,-9],[3,-3],[5,-2],[17,-13],[12,-7],[13,-1],[13,5],[25,-28],[11,-10],[9,-6],[7,-4],[7,-1]],[[2144,2251],[48,-75],[2,-24],[16,13],[-11,31],[-24,33],[-21,17],[-6,1],[-2,1],[-2,3]],[[1630,3716],[9,-15],[11,-40],[10,-16],[10,-3],[0,14],[-5,41],[-5,11],[-12,18],[-8,17],[7,29],[-8,18],[-14,14],[-15,6],[-10,0],[10,-24],[13,-25],[10,-25],[-3,-20]],[[1044,0],[-35,4],[-6,-4]],[[1530,3891],[-3,6],[-3,-1],[-4,-5],[7,-14],[2,-40],[6,-17],[6,18],[1,17],[-4,18],[-8,18]],[[3067,2986],[3,5],[2,45],[-5,0],[-2,-6],[-3,-4],[-4,-3],[-6,-4],[0,-5],[4,-1],[2,-1],[1,-2],[3,-2],[-8,-7],[-1,-8],[5,-6],[9,-1]],[[3925,556],[17,9],[0,9],[-11,7],[-68,4],[-13,-2],[10,-6],[7,-3],[44,-3],[10,-4],[4,-11]],[[1540,3810],[9,-38],[6,-16],[10,-19],[-3,18],[-11,30],[-1,19],[-4,4],[-3,1],[-3,1]],[[2089,2158],[-25,29],[-5,9],[-2,1],[-2,0],[-2,1],[1,4],[-5,0],[-5,-17],[8,-1],[5,-2],[1,-3],[-4,-4],[0,-6],[13,1],[8,-4],[2,-8],[-3,-11],[-5,0],[-4,9],[-9,7],[-22,6],[5,-6],[4,-4],[11,-7],[-5,-7],[-3,-1],[-2,-3],[-4,-3],[-16,-8],[-7,5],[-9,-3],[-14,-13],[0,-5],[52,15],[25,10],[18,13],[0,6]],[[2394,2196],[4,11],[4,8],[7,5],[17,7],[2,2],[1,6],[-16,-3],[-40,-12],[-15,-7],[24,0],[8,-5],[4,-12]],[[1944,2125],[-4,0],[-4,-4],[-1,-5],[1,-4],[4,-4],[0,-5],[-8,-8],[-3,-3],[55,16],[-3,14],[-2,3],[-19,-5],[-9,0],[-7,5]],[[1914,2108],[-4,0],[-15,-13],[-6,-3],[-8,1],[-7,2],[-6,-1],[-4,-13],[22,3],[11,3],[7,5],[3,5],[3,6],[3,-5],[0,1],[0,2],[1,2],[2,-4],[2,-3],[2,-3],[5,-1],[-2,6],[-2,5],[-3,3],[-4,2]],[[1635,3617],[-14,6],[-11,9],[-9,12],[-6,17],[-2,9],[-3,8],[-4,6],[-6,5],[3,-25],[7,-25],[5,-12],[7,-9],[8,-6],[44,-26],[11,-2],[13,4],[18,15],[14,3],[-30,17],[-7,-10],[-14,-1],[-24,5]],[[2513,2263],[0,5],[-23,-6],[-56,-38],[54,23],[10,10],[9,1],[3,2],[3,3]],[[4096,307],[-3,-1],[-3,-2],[-13,46],[-4,8],[-34,-1],[-72,8],[-40,5],[-17,-1],[-14,-3],[-27,-11],[-16,-2],[-8,1],[-12,8],[-7,1],[-9,-1],[-2,-3],[-1,-5],[-8,-6],[-14,0],[-38,9],[-8,-1],[-6,-9],[-13,5],[-14,10],[-7,7],[-20,-3],[-21,10],[-55,48],[-5,5],[-4,9],[-19,31],[-9,2],[-21,0],[-11,3],[-4,3],[-18,21],[-7,12],[-10,25],[-8,13],[-9,9],[-7,6],[-9,5],[-11,4],[-1,0],[-18,81],[-6,4],[-16,-2],[-1,-2],[-3,-4],[-5,-4],[-4,-1],[-4,1],[-3,4],[-2,3],[-43,31],[-13,5],[-30,3],[-8,2],[-7,4],[-4,6],[-8,12],[9,29],[8,7],[17,-9],[14,10],[7,6],[0,6],[-7,2],[-45,-13],[-23,-23],[-15,-4],[0,1],[-1,4],[-2,4],[-5,2],[-13,-1],[-4,1],[-27,16],[-2,6],[-16,30],[-3,8],[-6,7],[-8,5],[-8,5],[-3,-20],[-14,-2],[-17,5],[-39,20],[-12,-1],[5,-19],[-43,-17],[-23,-5],[-24,1],[-12,3],[-12,4],[-12,7],[-11,10],[-9,3],[-41,0],[-13,3],[-10,9],[-8,9],[-6,6],[-12,5],[-29,6],[-12,0],[-15,11],[-26,49],[-1,1],[-20,16],[19,38],[6,6],[0,5],[-7,4],[-9,2],[-10,-1],[-10,-5],[14,-15],[-4,-15],[-14,-12],[-15,-7],[-18,-1],[-34,7],[-18,0],[-115,-23],[-14,-4],[-17,-4],[-13,5],[-6,17],[0,13],[-1,3],[-3,-1],[-5,-1],[-30,6],[-5,-1],[-15,-4],[-8,-1],[-4,-4],[-8,-19],[-3,-7],[-11,-13],[-5,-9],[-7,-3],[-14,0],[-26,14],[-42,49],[-32,9],[0,5],[10,9],[40,24],[33,9],[20,9],[10,9],[-13,5],[-12,-3],[-32,-20],[-18,-14],[-27,-13],[-11,-4],[-34,-5],[-18,-5],[-8,-9],[-8,-4],[-61,-10],[-7,-1],[-5,-1],[-6,-6],[-3,-7],[-5,-19],[-2,-4],[-11,-5],[-8,-2],[-9,1],[-9,5],[0,2],[5,3],[4,6],[4,14],[2,19],[-2,16],[-16,9],[-13,11],[-5,3],[-9,1],[-9,-1],[-8,1],[-8,4],[-10,-5],[-12,-1],[-18,0],[-114,1],[-16,-6],[-22,6],[-47,4],[-21,6],[-28,20],[-7,4],[-8,-2],[-8,-3],[-7,-2],[-17,-1],[-8,-3],[-21,-5],[-16,-2],[-50,13],[-23,-10],[-51,-9],[-34,-14],[-29,-5],[-11,-7],[-22,-17],[-11,-7],[-7,-3],[-9,-1],[-4,-2],[-7,-12],[-4,-2],[-16,-5],[-32,-19],[-15,2],[-17,-8],[-68,-9],[-66,3],[-16,-6],[-17,-3],[-26,5],[-24,-1],[-10,-17],[-8,-20],[-1,-1],[-15,-9],[-12,1],[1,15],[-7,-8],[-5,-3],[-5,3],[-3,8],[3,5],[7,1],[5,2],[-4,9],[-7,4],[-6,-3],[-4,-5],[-4,-2],[-7,3],[-10,7],[-8,1],[-4,-1],[-10,-7],[-5,-3],[-31,-6],[-16,-7],[-11,-9],[0,-10],[13,-11],[-5,-6],[-7,-8],[-7,-5],[-9,4],[-6,10],[-1,12],[3,9],[6,5],[0,5],[-9,9],[-12,4],[-13,0],[-15,-7],[-38,-24],[-10,-3],[-13,-7],[-13,-15],[-11,-17],[-5,-14],[-6,-6],[-11,-7],[-8,-3],[5,8],[-12,6],[-9,7],[-8,3],[-11,-5],[-6,-9],[-6,-12],[-9,-9],[-14,3],[2,3],[1,2],[2,6],[-30,0],[-5,-3],[-9,-25],[-3,-5],[-36,-1],[-16,-5],[-16,-10],[4,-1],[0,-2],[1,-3],[5,3],[5,3],[0,-6],[-5,-3],[-10,-6],[-5,-2],[-8,0],[-9,4],[-8,2],[-12,-1],[-25,-10],[-51,-26],[-12,-2],[-31,-2],[-11,-8],[-7,-17],[-10,11],[-45,-33],[-8,-4],[-10,-2],[-7,4],[-5,10],[-6,10],[-12,4],[-7,-1],[-6,-4],[-6,-6],[-3,-6],[12,1],[10,-2],[7,-6],[6,-9],[-8,-7],[-7,-9],[-8,-4],[-10,6],[-9,4],[-5,-10],[-2,-13],[-1,-8],[-4,-4],[-19,-2],[-7,-3],[-4,-8],[-6,-30],[-6,11],[-9,4],[-10,-1],[-10,-9],[-7,4],[-8,2],[0,-6],[9,-10],[-4,-17],[-9,-18],[-9,-12],[-13,-8],[-31,-6],[-13,-11],[15,0],[0,-6],[-13,-8],[-11,-12],[-15,-23],[-2,-4],[-3,-10],[-3,-5],[-4,-3],[-7,-1],[-4,-2],[-1,-1]],[[0,157],[15,-5],[14,-2],[-4,-5],[-7,-17],[15,-8],[2,-9],[-1,-12],[4,-15],[11,-9],[8,7],[8,14],[8,10],[-10,-44],[-11,2],[-20,-15],[-3,5],[-5,9],[-10,10],[-12,8],[-2,0]],[[179,0],[6,2],[8,-2]],[[275,0],[3,7],[-3,6],[-5,4],[-2,4],[6,16],[25,19],[4,18],[-9,-8],[-9,-2],[-7,4],[-5,11],[-1,13],[5,8],[8,2],[8,-7],[0,12],[-2,5],[-3,5],[3,8],[6,22],[0,6],[30,30],[17,3],[56,-3],[11,3],[8,11],[9,2],[-1,-2],[1,-5],[2,-6],[3,-3],[4,-1],[80,12],[-1,-3],[-2,-5],[-1,-3],[20,5],[21,14],[18,20],[10,21],[5,0],[4,-9],[6,-9],[2,-9],[-6,-6],[32,-14],[37,-5],[37,4],[12,13],[0,13],[7,1],[6,-3],[4,-8],[5,6],[0,9],[1,-2],[3,-3],[6,5],[4,5],[5,12],[1,4],[-1,2],[1,4],[4,7],[9,10],[26,17],[0,2],[0,12],[1,3],[3,0],[3,-1],[5,2],[4,-1],[3,-1],[1,3],[0,12],[0,2],[10,3],[10,-1],[24,-7],[24,2],[17,18],[42,81],[19,21],[24,17],[49,26],[11,3],[17,2],[8,5],[44,38],[25,9],[10,7],[5,15],[0,15],[3,16],[7,13],[15,8],[16,0],[77,-21],[25,6],[34,-7],[7,2],[15,7],[8,2],[38,-10],[48,7],[23,-6],[16,-2],[15,2],[31,4],[56,0],[49,-15],[23,-10],[78,13],[58,6],[26,1],[64,-24],[26,-10],[25,-19],[14,-11],[20,-18],[11,0],[10,-4],[1,-8],[-7,-23],[2,-12],[-3,-8],[1,-17],[-7,-3],[-6,-6],[-10,-10],[-11,-3],[-7,-2],[-15,0],[-7,-4],[-9,1],[-28,-12],[-38,-7],[-16,2],[-20,5],[-13,-3],[-23,-2],[-19,4],[-27,-8],[-84,3],[-9,-3],[-11,-4],[-9,-8],[-4,-13],[7,-13],[12,-6],[14,-2],[10,0],[0,-3],[9,-15],[3,-4],[6,-3],[15,-1],[6,-4],[11,-9],[11,-7],[103,-42],[13,-13],[2,-12],[7,-11],[18,-21],[11,-4],[34,-5],[8,0],[-2,6],[-2,2],[-2,3],[14,-2],[5,3],[2,10],[4,0],[10,-5],[17,-2],[16,1],[7,3],[4,9],[9,0],[8,-4],[4,-2],[30,-11],[4,-2],[1,-7],[3,-2],[4,1],[2,2],[2,2],[2,1],[8,3],[11,10],[5,3],[8,-3],[14,-10],[8,-3],[36,0],[27,-12],[16,-53],[27,-12],[9,2],[2,5],[0,5],[6,4],[6,-1],[5,-5],[5,-3],[9,4],[3,6],[-1,15],[3,7],[4,3],[20,8],[7,-6],[11,-23],[3,-26],[-11,-17],[16,-1],[5,25],[0,97],[-10,34],[-1,10],[5,8],[8,3],[10,-2],[10,-7],[19,-30],[3,-2],[-5,-34],[0,-13],[3,-8],[19,-40],[7,-13],[11,-8],[29,-6],[27,-14],[14,-5],[64,-6],[105,12],[89,-7],[91,3],[31,-12],[4,18],[-4,20],[-10,18],[-10,15],[-22,16],[-7,11],[4,17],[10,-4],[11,-2],[9,3],[5,8],[6,-9],[7,-7],[17,-11],[-11,-12],[1,-10],[10,-6],[14,0],[-1,-10],[7,-1],[8,3],[6,-3],[0,-6],[-3,-7],[-4,-7],[-3,-7],[4,2],[12,3],[-10,-8],[-13,-4],[-12,-1],[-11,2],[0,-9],[2,-5],[8,-7],[3,-1],[9,1],[3,0],[3,-5],[1,-4],[0,-4],[1,-4],[57,-62]],[[3504,1284],[-19,20],[-4,2],[29,-33],[1,1],[-7,10]],[[3704,2895],[6,-9],[0,3],[-6,9],[0,-3]],[[3718,2879],[3,-8],[2,-1],[-3,8],[-2,1]],[[3540,1243],[-18,12],[1,-3],[14,-10],[3,1]],[[2064,3160],[-2,2],[1,1],[2,1],[-5,6],[-9,1],[-2,-7],[2,-5],[3,-3],[5,-3],[1,-7],[-2,-12],[2,-3],[7,14],[2,6],[-2,5],[-3,4]],[[1965,3169],[-9,-2],[-7,1],[-7,-1],[-2,-7],[2,-5],[1,-2],[4,-3],[2,-4],[2,-5],[4,-3],[9,-1],[4,5],[9,15],[-2,9],[-10,3]],[[2127,3108],[3,6],[-3,5],[-2,2],[-1,7],[-5,13],[-7,5],[-11,-2],[-3,-2],[-7,-1],[-10,-5],[-2,-9],[4,-5],[2,-2],[0,-3],[1,0],[1,6],[0,3],[1,4],[3,2],[4,-2],[2,-3],[11,-1],[5,-6],[2,-4],[3,-5],[5,-5],[4,2]],[[2181,3105],[-5,2],[-13,11],[-6,5],[-12,6],[-8,-7],[-1,-8],[1,-5],[1,-18],[4,1],[6,5],[5,-2],[8,-10],[3,-2],[3,-2],[-1,3],[2,2],[3,4],[4,3],[8,1],[5,2],[-2,5],[-5,4]],[[2393,2719],[-6,1],[-9,-2],[-2,0],[1,2],[-4,1],[-4,-4],[9,-10],[7,-5],[7,-4],[1,8],[2,3],[0,4],[-2,6]],[[2423,2695],[-9,2],[-9,-1],[-4,-7],[2,-10],[6,-10],[6,-2],[5,3],[2,6],[7,9],[-3,9],[-3,1]],[[2730,2396],[-23,-28],[8,3],[15,16],[6,9],[0,2],[-1,3],[-5,-5]],[[2675,2352],[-14,-11],[-7,-3],[-4,-5],[-2,-5],[4,0],[11,7],[5,4],[9,9],[-2,4]],[[2218,2210],[-6,0],[-3,-3],[3,-5],[2,-3],[7,-4],[5,-8],[2,4],[-4,12],[-6,7]],[[2106,2194],[-2,2],[-6,5],[-5,2],[-5,1],[-3,2],[-2,-1],[-3,-8],[-1,-11],[3,-6],[2,-2],[1,-2],[4,-1],[3,2],[3,1],[5,-1],[4,-4],[3,-6],[2,4],[-1,14],[-2,9]],[[2131,2192],[-5,0],[-1,-2],[2,-1],[-1,-1],[-5,-4],[1,-5],[9,-8],[1,-3],[4,0],[2,8],[-2,8],[-5,8]],[[2264,2184],[-8,-11],[1,-1],[7,4],[5,5],[-1,4],[-4,-1]],[[2149,2171],[1,-2],[6,-4],[3,7],[-5,3],[-5,-4]],[[1642,2115],[6,-11],[1,-4],[2,7],[-1,9],[-8,7],[-9,3],[-8,-2],[-2,-3],[5,1],[3,0],[5,-3],[6,-4]],[[1643,2092],[-7,-2],[0,-2],[7,2],[4,3],[-4,-1]],[[3732,3068],[-8,-3],[-14,-11],[-10,-17],[-5,-16],[-3,-11],[3,-4],[8,0],[20,-3],[3,4],[-7,7],[-11,4],[-8,6],[2,11],[4,6],[5,7],[10,9],[2,-4],[-5,-12],[2,-7],[9,3],[4,2],[2,-3],[2,6],[-2,17],[-3,9]],[[2546,1047],[-5,-1],[-20,13],[-17,-2],[-5,-5],[7,-2],[3,-4],[4,-5],[8,-4],[9,-1],[8,-3],[8,-1],[6,7],[-3,7],[-3,1]],[[2621,1012],[-25,5],[-20,8],[-15,2],[-3,-4],[5,-2],[5,-8],[7,-2],[21,-7],[8,-1],[13,1],[5,0],[9,-3],[15,-7],[3,2],[4,5],[5,0],[5,-4],[4,2],[1,5],[-1,2],[-46,6]],[[2699,1016],[-7,-1],[-12,-6],[-8,-8],[1,-10],[2,-3],[2,5],[5,4],[9,-2],[3,1],[1,6],[3,0],[3,0],[2,5],[-2,7],[-2,2]],[[2893,970],[-16,-1],[-6,-1],[-10,-1],[-4,-5],[1,-7],[-6,1],[-3,-2],[2,-5],[1,-1],[10,2],[11,5],[7,6],[19,2],[6,0],[6,1],[1,4],[-10,2],[-9,0]],[[3008,932],[-5,7],[-11,9],[-5,6],[0,4],[-6,2],[-5,0],[-6,-1],[-7,-5],[2,-7],[5,-3],[1,-1],[1,-4],[4,-1],[10,-7],[6,-2],[3,-6],[4,-5],[5,-4],[4,0],[3,5],[1,5],[-3,6],[-1,2]],[[3141,886],[-2,7],[-9,9],[-8,-2],[-1,-9],[-2,-5],[-2,1],[0,-2],[2,-4],[5,-4],[5,-1],[5,1],[3,0],[4,-3],[4,-6],[2,2],[-3,10],[-3,6]],[[3312,818],[-9,3],[-16,-5],[-7,-12],[6,-3],[7,-2],[-2,-3],[-4,-4],[-3,-5],[5,-7],[9,-6],[8,2],[5,5],[-1,5],[-6,1],[-3,5],[5,5],[9,3],[4,4],[-1,6],[-6,8]],[[3419,734],[-4,4],[-5,7],[-14,3],[-5,2],[2,13],[-5,9],[-4,-3],[0,-7],[1,-5],[-9,-2],[-1,-8],[7,-8],[14,-10],[5,-1],[4,0],[3,-1],[2,-3],[0,-6],[5,-5],[11,2],[7,7],[-4,6],[-10,6]],[[3750,558],[6,-3],[3,-4],[0,-5],[5,0],[12,8],[9,8],[-28,-2],[-7,-2]],[[4096,478],[-9,3],[-4,-2],[0,-13],[1,-5],[7,0],[5,2]],[[1260,9],[-17,-4],[3,-5]],[[1279,0],[-19,9]],[[1355,546],[-1,3],[-3,6],[-4,4],[-2,-1],[0,-4],[2,-7],[-2,-50],[4,-4],[3,6],[3,5],[5,14],[-3,19],[-2,9]],[[2053,98],[-4,3],[-8,4],[-8,2],[-4,-3],[0,-7],[2,-6],[3,-5],[4,-1],[8,1],[8,-5],[5,0],[-1,11],[-5,6]],[[599,15],[-11,4],[-22,4],[-7,-4],[11,-5],[16,-1],[14,0],[4,2],[-4,0],[-1,0]],[[3088,3955],[18,-49],[4,-34],[4,-81]],[[3063,4004],[24,-46],[1,-3]],[[3011,4096],[6,-28],[41,-49],[4,-15]],[[3061,3848],[-1,-22],[-22,-32]],[[3067,3932],[-1,-16]],[[3066,3916],[-5,-68]],[[3063,4006],[4,-72],[0,-2]],[[1703,4029],[-4,25],[-5,11],[-25,31]],[[1710,4005],[0,2]],[[1710,4007],[-7,22]],[[3114,3791],[-1,-60],[-4,-12],[-10,0],[-4,-32],[2,-139],[4,-46],[-4,-25],[-10,-24],[0,-36],[-12,-20],[-9,-27],[-3,-53]],[[3006,3324],[57,-7]],[[3006,3324],[-3,47],[3,22],[9,20],[28,40],[-3,159]],[[3038,3746],[0,48]],[[3040,3612],[-2,77],[0,57]],[[2933,3345],[73,-21]],[[3018,3199],[-13,33],[-1,17],[5,11],[-3,64]],[[3063,3317],[-2,-104],[-15,-16],[-17,-11]],[[3029,3186],[-11,13]],[[2332,3383],[215,3]],[[2616,3376],[63,-11],[61,0]],[[2547,3386],[7,0],[62,-10]],[[1955,3376],[-31,9],[-3,27]],[[1711,4002],[-1,3]],[[1921,3412],[-5,44],[-1,42],[-6,29],[-14,22],[-3,28],[-11,48],[-3,38],[2,36],[-9,52],[5,52],[-6,16],[-26,16],[-45,49],[-42,35],[-5,5],[-5,20],[-25,30],[-11,28]],[[1968,3372],[-13,4]],[[3029,3186],[0,-81],[4,-30]],[[3018,3199],[-87,0],[-3,-3],[5,-123]],[[2899,2598],[-23,26],[-10,30],[-3,23]],[[2863,2677],[-7,43],[-18,77],[0,13]],[[2901,2596],[-2,2]],[[1880,2089],[31,14]],[[1913,2103],[3,1]],[[1911,2103],[2,0]],[[1916,2104],[12,2],[15,4],[23,7],[21,11],[22,13],[20,11],[39,21],[13,4],[9,2],[19,-1],[13,-3],[19,-1],[8,0],[15,3],[23,4],[23,-2],[6,-15],[3,2],[35,7],[27,12],[54,22],[29,4],[37,9],[35,15],[6,3],[33,7],[29,19],[62,24],[16,10],[17,15],[18,4],[13,0],[15,7],[39,29],[21,11],[33,32],[22,14],[21,14],[17,25],[10,11],[45,50],[8,3],[53,50],[8,16],[-13,11],[-8,6]],[[1456,906],[8,1]],[[1464,907],[140,17],[100,4],[51,-1],[49,-4],[71,-14],[63,-18],[76,-31]],[[1457,904],[-1,2]],[[1626,778],[-73,35],[-46,30],[-38,39],[-12,22]],[[1457,903],[-1,3]],[[1626,778],[-49,-4],[-26,7],[-19,11],[-28,25],[-23,28],[-21,41],[-3,17]],[[3269,380],[-20,-22],[-49,-11],[-27,4],[-50,22]],[[3123,373],[-51,-41]],[[3072,332],[-122,5],[-246,-5],[-120,5]],[[2090,519],[-26,16]],[[2352,383],[-82,36],[-107,57],[-63,37]],[[2064,535],[-230,136],[-106,58],[-102,49]],[[2100,513],[-10,6]],[[2584,337],[-66,-1],[-41,5],[-100,31],[-25,11]],[[3269,380],[27,-12],[162,-59],[30,-26],[41,-81],[73,-89],[8,-33],[2,-80]],[[1012,666],[-2,0]],[[1456,906],[-10,-8]],[[1010,666],[-38,11],[-108,-55],[-261,-143],[-84,-35],[-44,-32]],[[1446,898],[-108,-84],[3,-12],[-18,-30],[-20,-15],[-97,-36],[-29,-18],[-40,-39],[-19,-12],[-15,-5],[-24,0],[-67,19]],[[2955,2980],[0,31],[-17,62]],[[2960,3392],[8,39]],[[2930,3343],[28,42],[2,7]],[[2968,3431],[3,12],[0,48],[78,-3]],[[2864,3365],[37,-11]],[[2901,3354],[32,-9]],[[2954,2981],[4,9],[9,12]],[[2968,3004],[3,4],[40,38],[22,29]],[[2967,3002],[1,2]],[[3013,4096],[7,-18],[8,-22],[17,-22],[16,-22],[8,-26]],[[2933,3202],[1,38],[-11,49],[0,43],[7,11]],[[3049,3488],[54,-2]],[[2838,2815],[0,1],[58,67]],[[2910,2900],[17,22],[27,59]],[[2838,2810],[0,5]],[[2896,2883],[12,14],[2,3]],[[2202,3372],[65,0],[14,10],[51,1]],[[1968,3372],[234,0]],[[2740,3365],[124,0]],[[1352,499],[-3,-6],[-4,4],[2,50],[-2,7],[0,4],[2,1],[4,-4],[3,-6],[1,-3],[2,-9],[3,-19],[-5,-14],[-3,-5]],[[2058,92],[1,-11],[-5,0],[-8,5],[-8,-1],[-4,1],[-3,5],[-2,6],[0,7],[4,3],[8,-2],[8,-4],[4,-3],[5,-6]],[[3764,546],[-5,0],[0,5],[-3,4],[-6,3],[7,2],[28,2],[-9,-8],[-12,-8]],[[3942,565],[-17,-9],[-4,11],[-10,4],[-44,3],[-7,3],[-10,6],[13,2],[68,-4],[11,-7],[0,-9]],[[3499,689],[38,-43],[16,-13],[33,-11],[27,-23],[30,-12],[15,-15],[12,-18],[6,-15],[-17,15],[-5,2],[-7,1],[-7,4],[-9,6],[-11,10],[-25,28],[-13,-5],[-13,1],[-12,7],[-17,13],[-5,2],[-3,3],[-1,9],[-2,3],[-12,9],[-3,2],[-6,5],[-4,11],[-6,12],[-14,5],[-22,-9],[-9,0],[-2,15],[21,6],[15,1],[12,-6]],[[3419,734],[10,-6],[4,-6],[-7,-7],[-11,-2],[-5,5],[0,6],[-2,3],[-3,1],[-4,0],[-5,1],[-14,10],[-7,8],[1,8],[9,2],[-1,5],[0,7],[4,3],[5,-9],[-2,-13],[5,-2],[14,-3],[5,-7],[4,-4]],[[3306,776],[-8,-2],[-9,6],[-5,7],[3,5],[4,4],[2,3],[-7,2],[-6,3],[7,12],[16,5],[9,-3],[6,-8],[1,-6],[-4,-4],[-9,-3],[-5,-5],[3,-5],[6,-1],[1,-5],[-5,-5]],[[3251,819],[11,-5],[6,0],[-1,-11],[-7,-7],[-16,10],[-7,-3],[-7,-11],[-8,-3],[-5,20],[10,6],[12,4],[12,0]],[[3003,835],[6,-3],[5,-4],[2,-7],[1,-7],[-73,12],[-11,9],[4,4],[4,2],[5,-1],[6,-5],[36,18],[16,2],[13,-9],[-4,-2],[-7,-6],[-3,-3]],[[2521,1059],[20,-13],[5,1],[3,-1],[3,-7],[-6,-7],[-8,1],[-8,3],[-9,1],[-8,4],[-4,5],[-3,4],[-7,2],[5,5],[17,2]],[[4096,307],[0,-307],[-1152,0],[-57,62],[-1,4],[0,4],[-1,4],[-3,5],[-3,0],[-9,-1],[-3,1],[-8,7],[-2,5],[0,9],[11,-2],[12,1],[13,4],[10,8],[-12,-3],[-4,-2],[3,7],[4,7],[3,7],[0,6],[-6,3],[-8,-3],[-7,1],[1,10],[-14,0],[-10,6],[-1,10],[11,12],[-17,11],[-7,7],[-6,9],[-5,-8],[-9,-3],[-11,2],[-10,4],[-4,-17],[7,-11],[22,-16],[10,-15],[10,-18],[4,-20],[-4,-18],[-31,12],[-91,-3],[-89,7],[-105,-12],[-64,6],[-14,5],[-27,14],[-29,6],[-11,8],[-7,13],[-19,40],[-3,8],[0,13],[5,34],[-3,2],[-19,30],[-10,7],[-10,2],[-8,-3],[-5,-8],[1,-10],[10,-34],[0,-97],[-5,-25],[-16,1],[11,17],[-3,26],[-11,23],[-7,6],[-20,-8],[-4,-3],[-3,-7],[1,-15],[-3,-6],[-9,-4],[-5,3],[-5,5],[-6,1],[-6,-4],[0,-5],[-2,-5],[-9,-2],[-27,12],[-16,53],[-27,12],[-36,0],[-8,3],[-14,10],[-8,3],[-5,-3],[-11,-10],[-8,-3],[-2,-1],[-2,-2],[-2,-2],[-4,-1],[-3,2],[-1,7],[-4,2],[-30,11],[-4,2],[-8,4],[-9,0],[-4,-9],[-7,-3],[-16,-1],[-17,2],[-10,5],[-4,0],[-2,-10],[-5,-3],[-14,2],[2,-3],[2,-2],[2,-6],[-8,0],[-34,5],[-11,4],[-18,21],[-7,11],[-2,12],[-13,13],[-103,42],[-11,7],[-11,9],[-6,4],[-15,1],[-6,3],[-3,4],[-9,15],[0,3],[-10,0],[-14,2],[-12,6],[-7,13],[4,13],[9,8],[11,4],[9,3],[84,-3],[27,8],[19,-4],[23,2],[13,3],[20,-5],[16,-2],[38,7],[28,12],[9,-1],[7,4],[15,0],[7,2],[11,3],[10,10],[6,6],[7,3],[-1,17],[3,8],[-2,12],[7,23],[-1,8],[-10,4],[-11,0],[-20,18],[-14,11],[-25,19],[-26,10],[-64,24],[-26,-1],[-58,-6],[-78,-13],[-23,10],[-49,15],[-56,0],[-31,-4],[-15,-2],[-16,2],[-23,6],[-48,-7],[-38,10],[-8,-2],[-15,-7],[-7,-2],[-34,7],[-25,-6],[-77,21],[-16,0],[-15,-8],[-7,-13],[-3,-16],[0,-15],[-5,-15],[-10,-7],[-25,-9],[-44,-38],[-8,-5],[-17,-2],[-11,-3],[-49,-26],[-24,-17],[-19,-21],[-42,-81],[-17,-18],[-24,-2],[-24,7],[-10,1],[-10,-3],[0,-2],[0,-12],[-1,-3],[-3,1],[-4,1],[-5,-2],[-3,1],[-3,0],[-1,-3],[0,-12],[0,-2],[-26,-17],[-9,-10],[-4,-7],[-1,-4],[1,-2],[-1,-4],[-5,-12],[-4,-5],[-6,-5],[-3,3],[-1,2],[0,-9],[-5,-6],[-4,8],[-6,3],[-7,-1],[0,-13],[-12,-13],[-37,-4],[-37,5],[-32,14],[6,6],[-2,9],[-6,9],[-4,9],[-5,0],[-10,-21],[-18,-20],[-21,-14],[-20,-5],[1,3],[2,5],[1,3],[-80,-12],[-4,1],[-3,3],[-2,6],[-1,5],[1,2],[-9,-2],[-8,-11],[-11,-3],[-56,3],[-17,-3],[-30,-30],[0,-6],[-6,-22],[-3,-8],[3,-5],[2,-5],[0,-12],[-8,7],[-8,-2],[-5,-8],[1,-13],[5,-11],[7,-4],[9,2],[9,8],[-4,-18],[-25,-19],[-6,-16],[2,-4],[5,-4],[3,-6],[-3,-7],[-82,0],[-8,2],[-6,-2],[-179,0],[0,81],[2,0],[12,-8],[10,-10],[5,-9],[3,-5],[20,15],[11,-2],[10,44],[-8,-10],[-8,-14],[-8,-7],[-11,9],[-4,15],[1,12],[-2,9],[-15,8],[7,17],[4,5],[-14,2],[-15,5],[0,192],[1,1],[4,2],[7,1],[4,3],[3,5],[3,10],[2,4],[15,23],[11,12],[13,8],[0,6],[-15,0],[13,11],[31,6],[13,8],[9,12],[9,18],[4,17],[-9,10],[0,6],[8,-2],[7,-4],[10,9],[10,1],[9,-4],[6,-11],[6,30],[4,8],[7,3],[19,2],[4,4],[1,8],[2,13],[5,10],[9,-4],[10,-6],[8,4],[7,9],[8,7],[-6,9],[-7,6],[-10,2],[-12,-1],[3,6],[6,6],[6,4],[7,1],[12,-4],[6,-10],[5,-10],[7,-4],[10,2],[8,4],[45,33],[10,-11],[7,17],[11,8],[31,2],[12,2],[51,26],[25,10],[12,1],[8,-2],[9,-4],[8,0],[5,2],[10,6],[5,3],[0,6],[-5,-3],[-5,-3],[-1,3],[0,2],[-4,1],[16,10],[16,5],[36,1],[3,5],[9,25],[5,3],[30,0],[-2,-6],[-1,-2],[-2,-3],[14,-3],[9,9],[6,12],[6,9],[11,5],[8,-3],[9,-7],[12,-6],[-5,-8],[8,3],[11,7],[6,6],[5,14],[11,17],[13,15],[13,7],[10,3],[38,24],[15,7],[13,0],[12,-4],[9,-9],[0,-5],[-6,-5],[-3,-9],[1,-12],[6,-10],[9,-4],[7,5],[7,8],[5,6],[-13,11],[0,10],[11,9],[16,7],[31,6],[5,3],[10,7],[4,1],[8,-1],[10,-7],[7,-3],[4,2],[4,5],[6,3],[7,-4],[4,-9],[-5,-2],[-7,-1],[-3,-5],[3,-8],[5,-3],[5,3],[7,8],[-1,-15],[12,-1],[15,9],[1,1],[8,20],[10,17],[24,1],[26,-5],[17,3],[16,6],[66,-3],[68,9],[17,8],[15,-2],[32,19],[16,5],[4,2],[7,12],[4,2],[9,1],[7,3],[11,7],[22,17],[11,7],[29,5],[34,14],[51,9],[23,10],[50,-13],[16,2],[21,5],[8,3],[17,1],[7,2],[8,3],[8,2],[7,-4],[28,-20],[21,-6],[47,-4],[22,-6],[16,6],[114,-1],[18,0],[12,1],[10,5],[8,-4],[8,-1],[9,1],[9,-1],[5,-3],[13,-11],[16,-9],[2,-16],[-2,-19],[-4,-14],[-4,-6],[-5,-3],[0,-2],[9,-5],[9,-1],[8,2],[11,5],[2,4],[5,19],[3,7],[6,6],[5,1],[7,1],[61,10],[8,4],[8,9],[18,5],[34,5],[11,4],[27,13],[18,14],[32,20],[12,3],[13,-5],[-10,-9],[-20,-9],[-33,-9],[-40,-24],[-10,-9],[0,-5],[32,-9],[42,-49],[26,-14],[14,0],[7,3],[5,9],[11,13],[3,7],[8,19],[4,4],[8,1],[15,4],[5,1],[30,-6],[5,1],[3,1],[1,-3],[0,-13],[6,-17],[13,-5],[17,4],[14,4],[115,23],[18,0],[34,-7],[18,1],[15,7],[14,12],[4,15],[-14,15],[10,5],[10,1],[9,-2],[7,-4],[0,-5],[-6,-6],[-19,-38],[20,-16],[1,-1],[26,-49],[15,-11],[12,0],[29,-6],[12,-5],[6,-6],[8,-9],[10,-9],[13,-3],[41,0],[9,-3],[11,-10],[12,-7],[12,-4],[12,-3],[24,-1],[23,5],[43,17],[-5,19],[12,1],[39,-20],[17,-5],[14,2],[3,20],[8,-5],[8,-5],[6,-7],[3,-8],[16,-30],[2,-6],[27,-16],[4,-1],[13,1],[5,-2],[2,-4],[1,-4],[0,-1],[15,4],[23,23],[45,13],[7,-2],[0,-6],[-7,-6],[-14,-10],[-17,9],[-8,-7],[-9,-29],[8,-12],[4,-6],[7,-4],[8,-2],[30,-3],[13,-5],[43,-31],[2,-3],[3,-4],[4,-1],[4,1],[5,4],[3,4],[1,2],[16,2],[6,-4],[18,-81],[1,0],[11,-4],[9,-5],[7,-6],[9,-9],[8,-13],[10,-25],[7,-12],[18,-21],[4,-3],[11,-3],[21,0],[9,-2],[19,-31],[4,-9],[5,-5],[55,-48],[21,-10],[20,3],[7,-7],[14,-10],[13,-5],[6,9],[8,1],[38,-9],[14,0],[8,6],[1,5],[2,3],[9,1],[7,-1],[12,-8],[8,-1],[16,2],[27,11],[14,3],[17,1],[40,-5],[72,-8],[34,1],[4,-8],[13,-46],[3,2],[3,1]],[[3139,893],[2,-7],[3,-6],[3,-10],[-2,-2],[-4,6],[-4,3],[-3,0],[-5,-1],[-5,1],[-5,4],[-2,4],[0,2],[2,-1],[2,5],[1,9],[8,2],[9,-9]],[[3082,907],[-14,-7],[-15,3],[-31,15],[2,8],[3,6],[5,6],[5,8],[5,0],[5,-11],[8,-9],[10,-6],[10,-2],[11,-1],[4,-1],[-2,-3],[-6,-6]],[[3008,914],[-4,0],[-5,4],[-4,5],[-3,6],[-6,2],[-10,7],[-4,1],[-1,4],[-1,1],[-5,3],[-2,7],[7,5],[6,1],[5,0],[6,-2],[0,-4],[5,-6],[11,-9],[5,-7],[1,-2],[3,-6],[-1,-5],[-3,-5]],[[2911,964],[-6,-1],[-6,0],[-19,-2],[-7,-6],[-11,-5],[-10,-2],[-1,1],[-2,5],[3,2],[6,-1],[-1,7],[4,5],[10,1],[6,1],[16,1],[9,0],[10,-2],[-1,-4]],[[2571,989],[12,-11],[0,11],[5,0],[7,-11],[5,-6],[0,-3],[-7,-7],[-12,-7],[-9,1],[-7,4],[-9,2],[-24,-2],[-18,-7],[-36,-18],[8,9],[45,30],[13,3],[14,-1],[15,-3],[-3,4],[-4,8],[-3,4],[5,5],[3,-5]],[[2803,1000],[6,0],[19,0],[4,1],[5,2],[4,0],[2,-6],[-2,-5],[-4,-4],[-6,-3],[-6,-4],[-7,1],[-13,6],[-15,4],[-12,-3],[-3,5],[-3,0],[-9,-5],[3,11],[4,7],[8,3],[12,1],[3,-1],[6,-7],[4,-3]],[[2703,1007],[-2,-5],[-3,0],[-3,0],[-1,-6],[-3,-1],[-9,2],[-5,-4],[-2,-5],[-2,3],[-1,10],[8,8],[12,6],[7,1],[2,-2],[2,-7]],[[2667,1006],[1,-2],[-1,-5],[-4,-2],[-5,4],[-5,0],[-4,-5],[-3,-2],[-15,7],[-9,3],[-5,0],[-13,-1],[-8,1],[-21,7],[-7,2],[-5,8],[-5,2],[3,4],[15,-2],[20,-8],[25,-5],[46,-6]],[[2398,2207],[-4,-11],[-4,12],[-8,5],[-24,0],[15,7],[40,12],[16,3],[-1,-6],[-2,-2],[-17,-7],[-7,-5],[-4,-8]],[[2488,2247],[-54,-23],[56,38],[23,6],[0,-5],[-3,-3],[-3,-2],[-9,-1],[-10,-10]],[[2602,2309],[1,-1],[5,4],[4,0],[1,-4],[-1,-2],[-4,-5],[-6,-6],[-12,-3],[-27,-2],[7,9],[33,23],[-1,-8],[0,-5]],[[2108,2185],[1,-14],[-2,-4],[-3,6],[-4,4],[-5,1],[-3,-1],[-3,-2],[-4,1],[-1,2],[-2,2],[-3,6],[1,11],[3,8],[2,1],[3,-2],[5,-1],[5,-2],[6,-5],[2,-2],[2,-9]],[[2210,2165],[-16,-13],[-2,24],[-48,75],[2,-3],[2,-1],[6,-1],[21,-17],[24,-33],[11,-31]],[[1918,2106],[3,-3],[2,-5],[2,-6],[-5,1],[-2,3],[-2,3],[-2,4],[-1,-2],[0,-2],[0,-1],[-3,5],[-3,-6],[-3,-5],[-7,-5],[-11,-3],[-22,-3],[4,13],[6,1],[7,-2],[8,-1],[6,3],[15,13],[4,0],[4,-2]],[[1981,2122],[3,-14],[-55,-16],[3,3],[8,8],[0,5],[-4,4],[-1,4],[1,5],[4,4],[4,0],[7,-5],[9,0],[19,5],[2,-3]],[[2053,2198],[2,-1],[2,0],[2,-1],[5,-9],[25,-29],[0,-6],[-18,-13],[-25,-10],[-52,-15],[0,5],[14,13],[9,3],[7,-5],[16,8],[4,3],[2,3],[3,1],[5,7],[-11,7],[-4,4],[-5,6],[22,-6],[9,-7],[4,-9],[5,0],[3,11],[-2,8],[-8,4],[-13,-1],[0,6],[4,4],[-1,3],[-5,2],[-8,1],[5,17],[5,0],[-1,-4]],[[4096,3651],[-12,4],[-18,17],[-32,19],[-76,78],[-35,28],[-7,13],[7,0],[7,-2],[5,-4],[5,-5],[94,-59],[21,-29],[15,2],[11,2],[15,-6],[0,-58]],[[2186,3101],[2,-5],[-5,-2],[-8,-1],[-4,-3],[-3,-4],[-2,-2],[1,-3],[-3,2],[-3,2],[-8,10],[-5,2],[-6,-5],[-4,-1],[-1,18],[-1,5],[1,8],[8,7],[12,-6],[6,-5],[13,-11],[5,-2],[5,-4]],[[2119,3141],[5,-13],[1,-7],[2,-2],[3,-5],[-3,-6],[-4,-2],[-5,5],[-3,5],[-2,4],[-5,6],[-11,1],[-2,3],[-4,2],[-3,-2],[-1,-4],[0,-3],[-1,-6],[-1,0],[0,3],[-2,2],[-4,5],[2,9],[10,5],[7,1],[3,2],[11,2],[7,-5]],[[2067,3145],[-7,-14],[-2,3],[2,12],[-1,7],[-5,3],[-3,3],[-2,5],[2,7],[9,-1],[5,-6],[-2,-1],[-1,-1],[2,-2],[3,-4],[2,-5],[-2,-6]],[[1965,3169],[10,-3],[2,-9],[-9,-15],[-4,-5],[-9,1],[-4,3],[-2,5],[-2,4],[-4,3],[-1,2],[-2,5],[2,7],[7,1],[7,-1],[9,2]],[[1562,3755],[3,-18],[-10,19],[-6,16],[-9,38],[3,-1],[3,-1],[4,-4],[1,-19],[11,-30]],[[1541,3838],[-6,-18],[-6,17],[-2,40],[-7,14],[4,5],[3,1],[3,-6],[8,-18],[4,-18],[-1,-17]],[[1635,3617],[24,-5],[14,1],[7,10],[30,-17],[-14,-3],[-18,-15],[-13,-4],[-11,2],[-44,26],[-8,6],[-7,9],[-5,12],[-7,25],[-3,25],[6,-5],[4,-6],[3,-8],[2,-9],[6,-17],[9,-12],[11,-9],[14,-6]],[[1670,3656],[0,-14],[-10,3],[-10,16],[-11,40],[-9,15],[3,20],[-10,25],[-13,25],[-10,24],[10,0],[15,-6],[14,-14],[8,-18],[-7,-29],[8,-17],[12,-18],[5,-11],[5,-41]],[[2420,2670],[-5,-3],[-6,2],[-6,10],[-2,10],[4,7],[9,1],[9,-2],[3,-1],[3,-9],[-7,-9],[-2,-6]],[[2376,2718],[2,0],[9,2],[6,-1],[2,-6],[0,-4],[-2,-3],[-1,-8],[-7,4],[-7,5],[-9,10],[4,4],[4,-1],[-1,-2]],[[3028,2780],[-11,-10],[-1,1],[-1,1],[-3,0],[10,9],[7,12],[11,47],[2,3],[7,3],[1,-4],[-1,-6],[-2,-3],[-2,-18],[-7,-18],[-10,-17]],[[2923,2575],[-60,-58],[-8,-5],[-7,3],[-5,-9],[-7,-19],[-6,-8],[-22,-20],[-27,-35],[-17,-16],[-14,-1],[-4,9],[7,5],[11,2],[8,4],[9,28],[4,4],[12,2],[5,4],[11,17],[18,19],[5,9],[-3,10],[16,3],[7,4],[7,9],[-4,6],[0,3],[3,0],[5,-3],[3,10],[-4,7],[-8,3],[-10,-4],[4,14],[33,-7],[14,35],[27,29],[7,17],[-2,12],[-6,5],[-5,4],[-3,10],[5,4],[23,6],[10,6],[19,29],[13,8],[16,-7],[-3,-4],[-2,-3],[-3,-2],[-3,-2],[-5,-5],[-5,-10],[-3,-9],[-2,-6],[-3,-8],[-22,-28],[-24,-34],[-9,-19],[4,-13],[0,-5]],[[3070,2991],[-3,-5],[-9,1],[-5,6],[1,8],[8,7],[-3,2],[-1,2],[-2,1],[-4,1],[0,5],[6,4],[4,3],[3,4],[2,6],[5,0],[-2,-45]],[[3735,3059],[2,-17],[-2,-6],[-2,3],[-4,-2],[-9,-3],[-2,7],[5,12],[-2,4],[-10,-9],[-5,-7],[-4,-6],[-2,-11],[8,-6],[11,-4],[7,-7],[-3,-4],[-20,3],[-8,0],[-3,4],[3,11],[5,16],[10,17],[14,11],[8,3],[3,-9]],[[1407,4096],[1696,0],[14,-40],[14,-29],[1,-9],[-5,-9],[-8,-3],[-9,-1],[-8,-4],[0,-5],[9,-4],[16,-5],[7,-5],[5,-8],[19,-77],[0,-21],[-11,-12],[0,-6],[9,-12],[5,-25],[1,-103],[-4,-23],[-11,-1],[-6,-109],[-8,-24],[-1,-12],[1,-28],[-2,-13],[-4,-12],[2,-18],[-18,-118],[-7,-24],[-12,-9],[0,-6],[12,-18],[-12,-235],[-5,0],[0,33],[5,37],[0,20],[-3,11],[-6,0],[-26,-34],[-4,-29],[-10,-21],[0,-34],[-11,-15],[-7,-3],[-7,0],[-8,-1],[-7,-8],[-3,-7],[-1,-20],[-15,-34],[-22,-21],[-2,-15],[-1,-39],[-4,-14],[-12,-17],[-7,-14],[-1,-15],[2,-17],[4,-5],[5,-3],[3,-4],[-6,-11],[-6,-16],[6,-6],[9,-5],[6,-7],[-1,-9],[-27,-24],[-32,-37],[-4,-6],[-1,-7],[-3,-7],[-12,-14],[-1,-9],[-2,-16],[9,-12],[9,-9],[0,-7],[-11,8],[-15,21],[-10,4],[1,12],[-12,-1],[-14,-7],[-9,-10],[15,-2],[14,-7],[9,-13],[2,-16],[-6,0],[-2,18],[-11,10],[-14,2],[-13,-8],[-2,5],[-3,5],[-4,3],[-5,3],[2,5],[2,3],[4,2],[6,1],[-1,4],[0,2],[-3,5],[-10,-1],[-29,-1],[-11,-3],[-7,-13],[-5,-18],[-7,-12],[-11,4],[2,2],[1,0],[1,0],[1,4],[-27,-6],[-4,-3],[2,-7],[2,-5],[1,-5],[-5,-7],[-4,0],[-11,7],[-10,-4],[-14,-14],[-9,-2],[-12,1],[-12,4],[-7,8],[-1,-3],[-2,-2],[-1,-3],[-1,-3],[-4,2],[-3,2],[-4,3],[-4,4],[-3,-6],[-2,-3],[-4,1],[-6,2],[0,6],[3,7],[-22,4],[-11,11],[-20,-14],[-3,-1],[-17,-18],[-14,-3],[-27,0],[-24,-5],[-29,-3],[-34,-8],[-12,2],[-34,33],[-12,25],[-8,25],[1,25],[8,31],[12,27],[13,10],[-5,-11],[9,-2],[9,-6],[7,-7],[5,-7],[13,-24],[2,0],[10,-7],[55,-24],[0,-5],[-4,-2],[-6,-3],[-5,-1],[0,-5],[13,-5],[16,-1],[16,4],[13,10],[7,17],[-5,14],[-41,44],[-14,7],[-25,5],[-13,7],[-4,2],[-28,6],[-33,26],[-6,9],[-1,8],[-4,17],[0,8],[-11,31],[-24,26],[-8,16],[14,9],[4,5],[3,6],[-1,6],[-7,3],[-17,-4],[-8,4],[-3,7],[-8,36],[-15,28],[1,11],[-6,7],[-3,9],[-1,14],[-24,2],[-7,1],[-5,7],[-8,21],[-3,5],[-10,4],[7,9],[19,14],[-5,6],[-14,21],[-17,16],[-18,12],[-9,4],[-22,4],[-9,4],[-8,7],[-9,13],[-8,7],[-10,-11],[-7,4],[-9,8],[-15,6],[-10,8],[-6,1],[-3,-1],[-9,-7],[-6,-2],[3,5],[0,3],[-1,2],[-2,5],[-6,-2],[-8,3],[-7,6],[-4,10],[-7,-6],[-6,-11],[-7,-5],[-9,-1],[-8,1],[-8,4],[-5,7],[-2,-5],[-3,-6],[-1,-1],[-4,-4],[0,-5],[-4,0],[-6,0],[-2,2],[-7,8],[-3,7],[-5,23],[10,4],[9,-5],[8,-8],[8,-5],[7,4],[7,9],[5,11],[3,9],[-11,1],[-17,-3],[-6,2],[-8,6],[-7,10],[-2,9],[6,8],[-21,16],[-11,20],[-13,58],[-3,-8],[-1,-8],[-1,-8],[1,-9],[-6,0],[-13,57],[-6,63],[5,28],[-1,5],[0,3],[-22,39],[-2,13],[5,0],[0,-5],[5,0],[-2,50],[-3,15],[-6,12],[-14,26],[-5,12],[0,-12],[3,-20],[-3,-7],[-4,-2],[-4,2],[-4,4],[-3,2],[-15,0],[-40,22],[-9,-5],[-3,1],[-4,4],[-4,-6],[-2,8],[0,12],[2,12],[4,7],[3,0],[5,-9],[5,-2],[6,1],[3,3],[3,3],[20,14],[20,18],[13,22],[-3,20],[9,11],[32,31],[2,7],[7,8],[8,3],[7,-4],[8,5],[5,6],[4,7],[3,9],[-11,-4],[-17,-10],[-14,-2],[-12,-5],[-14,-11],[-24,-25],[-8,-13],[-22,-62],[-2,-5],[-6,-3],[-17,-5],[-7,-3],[0,11],[-15,-6],[-10,-6],[-9,0],[-11,12],[-7,14],[2,10],[4,12],[1,18],[-4,15],[-13,28],[-3,13],[0,18],[18,93],[2,18],[-2,19],[-6,8],[-9,4],[-15,13],[1,10],[14,11],[36,21],[16,4],[7,3],[4,6],[9,25],[-12,-4],[-16,-15],[-29,-6],[-13,-5],[-13,-3],[-17,5],[-3,-13],[-9,-3],[-9,-1],[-4,-8],[-4,-2],[-8,7],[-13,15],[3,14],[-8,-3],[-12,-6],[-10,3],[-15,24],[-8,9],[-15,7],[2,-6],[9,-15],[21,-26],[8,-7],[5,6],[8,-9],[10,-25],[5,-5],[3,-6],[12,-30],[7,-35],[0,-12],[-5,-10],[-6,-4],[-3,23],[-6,8],[-1,-2],[-4,-6],[-5,-6],[-5,-3],[-2,2],[-7,8],[-3,1],[-3,0],[-1,-2],[-2,-2],[-4,-1],[-5,1],[-7,7],[-6,3],[-10,4],[-6,1],[-6,0],[-22,15],[-21,69],[-20,21],[2,-13],[10,-19],[3,-12],[-8,5],[-4,3],[-3,3],[-5,16],[-48,95]],[[1867,2235],[139,0],[0,69],[209,1],[0,-24],[46,0],[-11,-64],[34,88],[70,-1],[0,-69],[-70,0],[-23,-23],[-20,2],[-95,-37],[-69,11],[-35,12],[-83,-81],[-91,10],[-1,106]],[[2849,3644],[13,146],[106,4],[-13,-45],[57,-32],[22,-63],[-32,-114],[-88,10],[-65,94]],[[1904,4005],[72,0],[0,-35],[71,-1],[-1,-105],[-76,0],[1,24],[-33,7],[-8,48],[-25,-2],[-1,64]],[[2595,3596],[89,1],[3,-58],[35,-3],[-1,-21],[-100,0],[-26,81]],[[0,7],[0,67],[36,-37],[65,35],[7,-42],[34,-20],[-142,-3]],[[1608,2002],[0,177],[255,1],[0,-177],[-255,-1]],[[2179,3124],[30,326],[336,6],[5,-225],[27,0],[0,-1],[0,1],[43,0],[-4,155],[23,0],[0,70],[-58,0],[-2,57],[216,3],[67,108],[52,-74],[55,-17],[-1,-133],[-49,-49],[-69,13],[15,-162],[-33,-40],[2,-94],[-247,-11],[-16,18],[-9,-135],[-141,-2],[-36,82],[-47,11],[-35,60],[-35,0],[-2,47],[-87,-14]],[[2089,3239],[36,27],[0,104],[80,1],[-12,-24],[0,-151],[-71,3],[-33,40]],[[1876,3316],[81,-27],[0,-29],[41,-31],[-13,-70],[70,-2],[1,-55],[-144,0],[0,68],[43,1],[1,31],[-44,16],[-36,98]],[[3119,0],[11,34],[62,-29],[-1,-5],[-72,0]],[[3657,414],[35,12],[140,-61],[115,-7],[-159,-39],[-22,26],[-55,2],[-54,67]],[[2933,2817],[36,131],[57,-12],[11,50],[74,-23],[-54,-254],[-103,35],[-21,73]],[[1984,3194],[3,46],[18,1],[1,-47],[24,35],[53,-13],[13,-67],[-23,0],[1,-58],[-18,0],[-1,66],[-70,2],[-1,35]],[[1025,2167],[49,54],[73,7],[24,-19],[-25,-68],[-71,-40],[-49,0],[-1,66]],[[1608,2002],[0,177],[255,1],[0,-177],[-255,-1]],[[1611,367],[32,27],[305,18],[16,85],[53,40],[69,-3],[7,-25],[39,24],[69,-9],[152,-140],[-44,-98],[-150,92],[-118,-5],[-6,-23],[58,-47],[108,-6],[1,-53],[102,15],[26,-147],[50,-112],[-272,0],[-71,57],[-49,91],[-124,36],[-43,63],[-177,71],[-33,49]],[[1436,893],[-67,34],[162,62],[-19,-58],[-76,-38]],[[2245,923],[-44,30],[78,22],[-30,-24],[30,-13],[-34,-15]],[[1916,2104],[9,-12],[-60,-8],[3,10],[48,10]],[[1874,3554],[22,-22],[-22,-22],[41,-53],[-16,-45],[56,0],[0,-36],[-62,-54],[-32,62],[-21,208],[34,-38]],[[1843,3674],[-73,-53],[-45,7],[4,39],[19,-10],[46,38],[68,102],[-19,-123]],[[1810,3812],[34,-9],[-47,-40],[-32,-80],[-60,-12],[32,88],[48,36],[-8,62],[24,0],[9,-45]],[[1944,3205],[13,-12],[-23,-19],[-17,40],[27,-9]],[[1407,4096],[13,0],[-13,0]],[[3156,3846],[6,-128],[-70,-391],[12,-24],[-12,-235],[-3,101],[-32,-34],[-25,-99],[-66,-33],[16,-42],[-23,-50],[-65,-15],[8,-53],[-81,-36],[0,54],[37,4],[19,51],[-56,87],[72,123],[-32,153],[33,17],[-25,63],[57,9],[32,58],[8,93],[75,94],[5,127],[-72,57],[33,51],[73,0],[-17,80],[41,44],[-36,26],[6,37],[48,10],[9,-18],[-29,-31],[37,-22],[17,-128]],[[1691,3980],[-21,5],[42,23],[-3,-19],[-18,-9]],[[1481,4036],[29,-28],[-24,-32],[-26,42],[15,-44],[-26,39],[32,23]],[[1656,4052],[26,-33],[-50,16],[-25,44],[41,0],[8,-27]],[[2639,3456],[0,-70],[-23,0],[4,-155],[-70,0],[-5,224],[-165,-2],[-1,35],[24,0],[-1,35],[71,1],[13,-23],[129,26],[24,-71]],[[2695,3058],[139,227],[29,12],[-29,-229],[-139,-10]],[[2860,3726],[58,70],[64,-66],[42,-71],[-22,-119],[-88,11],[-53,73],[-1,102]],[[498,30],[2,24],[76,-1],[1,-28],[191,-3],[1,-22],[-251,0],[1,30],[-21,0]],[[637,678],[49,-2],[20,36],[21,-15],[-17,-31],[69,14],[-63,-36],[9,-83],[-60,12],[17,35],[-37,34],[26,23],[-34,13]],[[930,752],[143,52],[32,-69],[-94,-70],[-45,82],[-36,5]],[[2350,1029],[1,50],[113,1],[0,-26],[30,0],[18,20],[-35,9],[63,-1],[17,-28],[-4,-28],[-108,-19],[-18,22],[-77,0]],[[2588,3631],[119,9],[48,-74],[-69,0],[-2,32],[-89,-1],[-7,34]],[[2833,3992],[1,23],[75,2],[20,-14],[-31,-35],[108,-22],[-34,-44],[-103,-3],[-36,35],[0,58]],[[1780,4006],[90,-1],[0,-34],[34,-1],[-3,-82],[-56,18],[-36,-18],[-29,118]],[[1857,3935],[6,0],[0,6],[-6,0],[0,-6]],[[1969,3301],[28,17],[-23,54],[150,-2],[1,-104],[-39,-50],[-69,37],[5,48],[-53,0]],[[2079,3114],[46,47],[35,0],[6,-47],[30,0],[0,24],[70,0],[2,-47],[35,0],[35,-60],[47,-11],[36,-82],[141,2],[0,116],[261,1],[0,-74],[-36,-23],[-9,-116],[-22,-27],[11,-140],[95,1],[41,-85],[-25,-44],[-173,-148],[-126,-73],[-39,17],[-200,228],[-32,56],[22,85],[-16,84],[-46,104],[-189,212]]]}