{"objects":{"water":{"type":"GeometryCollection","geometries":[{"type":"MultiPolygon","properties":{"source":"naturalearthdata.com","kind":"ocean","area":1576712559132672,"sort_rank":200,"min_zoom":0.0,"id":1},"arcs":[[[19],[20],[21],[22],[23],[24],[25],[26],[27],[28],[29],[30],[31],[32],[33],[34],[35],[36],[37],[38]]]},{"type":"LineString","properties":{"source":"naturalearthdata.com","kind":"ocean","sort_rank":205,"boundary":true,"min_zoom":0.0,"id":566},"arcs":[39]},{"type":"LineString","properties":{"source":"naturalearthdata.com","kind":"ocean","sort_rank":205,"boundary":true,"min_zoom":0.0,"id":568},"arcs":[40]},{"type":"LineString","properties":{"source":"naturalearthdata.com","kind":"ocean","sort_rank":205,"boundary":true,"min_zoom":0.0,"id":569},"arcs":[41]},{"type":"LineString","properties":{"source":"naturalearthdata.com","kind":"ocean","sort_rank":205,"boundary":true,"min_zoom":0.0,"id":593},"arcs":[42]},{"type":"LineString","properties":{"source":"naturalearthdata.com","kind":"ocean","sort_rank":205,"boundary":true,"min_zoom":0.0,"id":596},"arcs":[43]},{"type":"LineString","properties":{"source":"naturalearthdata.com","kind":"ocean","sort_rank":205,"boundary":true,"min_zoom":0.0,"id":597},"arcs":[44]},{"type":"LineString","properties":{"source":"naturalearthdata.com","kind":"ocean","sort_rank":205,"boundary":true,"min_zoom":0.0,"id":598},"arcs":[45]},{"type":"LineString","properties":{"source":"naturalearthdata.com","kind":"ocean","sort_rank":205,"boundary":true,"min_zoom":0.0,"id":599},"arcs":[46]},{"type":"MultiLineString","properties":{"source":"naturalearthdata.com","kind":"ocean","sort_rank":205,"boundary":true,"min_zoom":0.0,"id":602},"arcs":[[47],[48]]},{"type":"LineString","properties":{"source":"naturalearthdata.com","kind":"ocean","sort_rank":205,"boundary":true,"min_zoom":0.0,"id":611},"arcs":[49]},{"type":"LineString","properties":{"source":"naturalearthdata.com","kind":"ocean","sort_rank":205,"boundary":true,"min_zoom":0.0,"id":768},"arcs":[50]},{"type":"MultiLineString","properties":{"source":"naturalearthdata.com","kind":"ocean","sort_rank":205,"boundary":true,"min_zoom":0.0,"id":2907},"arcs":[[51],[52],[53],[54]]},{"type":"LineString","properties":{"source":"naturalearthdata.com","kind":"ocean","sort_rank":205,"boundary":true,"min_zoom":0.0,"id":3719},"arcs":[55]},{"type":"LineString","properties":{"source":"naturalearthdata.com","kind":"ocean","sort_rank":205,"boundary":true,"min_zoom":0.0,"id":3720},"arcs":[56]},{"type":"LineString","properties":{"source":"naturalearthdata.com","kind":"ocean","sort_rank":205,"boundary":true,"min_zoom":0.0,"id":3727},"arcs":[57]}]},"buildings":{"type":"GeometryCollection","geometries":[]},"places":{"type":"GeometryCollection","geometries":[{"type":"Point","properties":{"name:pt":"Ilhas Cayman","name:cy":"Ynysoedd Cayman","alt_name:el":"\u039d\u03ae\u03c3\u03bf\u03b9 \u039a\u03b1\u03cb\u03bc\u03ac\u03bd;\u039d\u03b7\u03c3\u03b9\u03ac \u039a\u03b1\u03cb\u03bc\u03ac\u03bd;\u039d\u03b7\u03c3\u03b9\u03ac \u039a\u03ad\u03b9\u03bc\u03b1\u03bd","name:ko":"\ucf00\uc774\ub9e8\uc81c\ub3c4","name:kn":"\u0c95\u0cc7\u0cae\u0ca8\u0ccd \u0ca6\u0ccd\u0cb5\u0cc0\u0caa\u0c97\u0cb3\u0cc1","name:km":"\u1780\u17c4\u17c7\u200b\u1780\u17c3\u1798\u17c9\u1784\u17cb","name:cs":"Kajmansk\u00e9 ostrovy","alt_name:eo":"Kajmaninsuloj;Kajmana Insularo","name:ki":"Visiwa vya Kayman","name:tr":"Kayman Adalar\u0131","name:ku":"Girav\u00ean Cayman\u00ea","name:ti":"\u12ab\u12ed\u121b\u1295 \u12f0\u1234\u1276\u127d","name:ks":"\u06a9\u06cc\u0645\u064e\u0646 \u062c\u0654\u0632\u06cc\u0656\u0631\u0655","name:to":"\u02bbOtumotu Keimeni","name:sv":"Cayman\u00f6arna","name:or":"\u0b15\u0b47\u0b2e\u0b4d\u0b5f\u0b3e\u0b28\u0b4d \u0b26\u0b4d\u0b2c\u0b40\u0b2a\u0b2a\u0b41\u0b1e\u0b4d\u0b1c","name:pl":"Kajmany","name:ta":"\u0b95\u0bc7\u0bae\u0bc6\u0ba9\u0bcd \u0ba4\u0bc0\u0bb5\u0bc1\u0b95\u0bb3\u0bcd","name:ca":"Illes Caiman","name:te":"\u0c15\u0c47\u0c2e\u0c3e\u0c28\u0c4d \u0c26\u0c40\u0c35\u0c41\u0c32\u0c41","name:ro":"Insulele Cayman","name:ka":"\u10d9\u10d0\u10d8\u10db\u10d0\u10dc\u10d8\u10e1 \u10d9\u10e3\u10dc\u10eb\u10e3\u10da\u10d4\u10d1\u10d8","name:hr":"Kajmanski otoci","name:da":"Cayman\u00f8erne","name:de":"Kaimaninseln","name:dz":"\u0f41\u0f7a\u0f0b\u0f58\u0f7a\u0f53\u0f0b\u0f42\u0fb3\u0f72\u0f44\u0f0b\u0f5a\u0f7c\u0f58","source":"openstreetmap.org","name:lv":"Kaimanu salas","name:lt":"Kaiman\u0173 salos","name:hi":"\u0915\u0947\u092e\u0948\u0928 \u0926\u094d\u0935\u0940\u092a\u0938\u092e\u0942\u0939","name:he":"\u05d0\u05d9\u05d9 \u05e7\u05d9\u05d9\u05de\u05df","kind":"country","name:ur":"\u06a9\u06cc\u0645\u06cc\u0646 \u0622\u0626\u0644\u06cc\u0646\u0688\u0632","name:lb":"Kaimaninselen","name:lg":"Bizinga ebya Kayimaani","name:uk":"\u041a\u0430\u0439\u043c\u0430\u043d\u043e\u0432\u0456 \u043e\u0441\u0442\u0440\u043e\u0432\u0438","min_zoom":2.0,"name:hu":"Kajm\u00e1n-szigetek","name:ln":"Bisanga bya Kay\u00edma","name:lo":"\u0e84\u0eb2\u0e8d\u0ec1\u0ea1\u0e99 \u0ead\u0eb4\u0e94\u0ec1\u0ea5\u0e99","population":49035,"name:el":"\u039d\u03ae\u03c3\u03bf\u03b9 \u039a\u03ad\u03b9\u03bc\u03b1\u03bd","name:eo":"Kejmanoj","name":"Cayman Islands","name:ee":"Kayman \u0192udomekpowo nutome","name:th":"\u0e2b\u0e21\u0e39\u0e48\u0e40\u0e01\u0e32\u0e30\u0e40\u0e04\u0e22\u0e4c\u0e41\u0e21\u0e19","name:gu":"\u0a95\u0ac7\u0aaf\u0aae\u0ac7\u0aa8 \u0a86\u0a87\u0ab2\u0ac5\u0a82\u0aa1\u0acd\u0ab8","name:eu":"Kaiman Uharteak","name:et":"Kaimanisaared","name:nl":"Kaaimaneilanden","name:es":"Islas Caim\u00e1n","name:ia":"Insulas de Caiman","name:rm":"Inslas Cayman","name:rn":"Ibirwa bya Keyimani","name:az":"Kayman Adalar\u0131","name:id":"Kepulauan Cayman","name:mr":"\u0915\u0947\u092e\u0928 \u092c\u0947\u091f\u0947","name:ar":"\u062c\u0632\u0631 \u0627\u0644\u0643\u0627\u064a\u0645\u0627\u0646","name:my":"\u1000\u1031\u1019\u1014\u103a \u1000\u103b\u103d\u1014\u103a\u1038\u1005\u102f","name:io":"Insuli Kaiman","name:is":"Caymaneyjar","name:am":"\u12ab\u12ed\u121b\u1295 \u12f0\u1234\u1276\u127d","name:it":"Isole Cayman","name:vi":"Qu\u1ea7n \u0111\u1ea3o Cayman","name:ru":"\u041e\u0441\u0442\u0440\u043e\u0432\u0430 \u041a\u0430\u0439\u043c\u0430\u043d","name:mn":"\u041a\u0430\u0439\u043c\u0430\u043d\u044b \u0410\u0440\u043b\u0443\u0443\u0434","id":249399364,"name:mk":"\u041a\u0430\u0458\u043c\u0430\u043d\u0441\u043a\u0438 \u041e\u0441\u0442\u0440\u043e\u0432\u0438","name:af":"Kaaimanseilande","name:zu":"i-Cayman Islands","name:ha":"Tsibiran Kaiman","name:nn":"Cayman\u00f8yane","name:ff":"Duu\u0257e Kaymaa","name:fi":"Caymansaaret","name:no":"Cayman\u00f8yene","name:mg":"Nosy Kayman","name:fo":"Caymanoyggjarnar","name:mt":"G\u017cejjer Kajmani","name:fr":"\u00celes Ca\u00efmans","name:fy":"de Kaaimaneilannen","name:zh":"\u5f00\u66fc\u7fa4\u5c9b","name:gv":"Ellanyn Cayman","name:sn":"Zvitsuwa zveCayman","name:sl":"Kajmanski otoki","name:sk":"Kajmanie ostrovy","name:ja":"\u30b1\u30a4\u30de\u30f3\u8af8\u5cf6","name:si":"\u0d9a\u0dda\u0db8\u0db1\u0dca \u0daf\u0dd6\u0db4\u0dad\u0dca","name:fa":"\u062c\u0632\u0627\u06cc\u0631 \u06a9\u0627\u06cc\u0645\u0627\u0646","name:sg":"\u00c2z\u00fb\u00e2 Ngund\u00eb, Kaim\u00e4ni","name:se":"Cayman-sullot","name:ne":"\u0915\u0947\u092f\u092e\u093e\u0928 \u091f\u093e\u092a\u0941","name:br":"Inizi Cayman","name:bs":"Kajmanska Ostrva","name:bm":"Bama Gun","name:bn":"\u0995\u09c7\u09ae\u09cd\u09af\u09be\u09a8 \u09a6\u09cd\u09ac\u09c0\u09aa\u09aa\u09c1\u099e\u09cd\u099c","name:bo":"\u0f41\u0f7a\u0f0b\u0f58\u0f7a\u0f53\u0f0b\u0f42\u0fb3\u0f72\u0f44\u0f0b\u0f55\u0fb2\u0f53\u0f0d","name:ml":"\u0d15\u0d47\u0d2f\u0d4d\u0d2e\u0d3e\u0d7b \u0d26\u0d4d\u0d35\u0d40\u0d2a\u0d41\u0d15\u0d7e","name:sw":"Visiwa vya Kayman","name:be":"\u041a\u0430\u0439\u043c\u0430\u043d\u0430\u0432\u044b \u0430\u0441\u0442\u0440\u0430\u0432\u044b","name:bg":"\u041a\u0430\u0439\u043c\u0430\u043d\u043e\u0432\u0438 \u043e\u0441\u0442\u0440\u043e\u0432\u0438","name:sr":"\u041a\u0430\u0458\u043c\u0430\u043d\u0441\u043a\u0430 \u041e\u0441\u0442\u0440\u0432\u0430","name:ga":"Oile\u00e1in Cayman","name:gd":"Na h-Eileanan Caimean","name:gl":"Illas Caim\u00e1n","name:yo":"Or\u00edl\u1eb9\u0301\u00e8de Et\u00edokun K\u00e1m\u00e1n\u00ec","name:ak":"Kemanfo Islands","alt_name:ku":"Girav\u00ean Kayman\u00ea"},"coordinates":[2773,2243]}]},"transit":{"type":"GeometryCollection","geometries":[{"type":"LineString","properties":{"kind":"train","name":"Tren Cienfuegos Santa Clara Santi Spiritus","service":"local","sort_rank":275,"source":"openstreetmap.org","min_zoom":6.0,"operator":"Ferrocarriles de Cuba (FC)","ref":"311\/312","id":-6535080,"osm_relation":true},"arcs":[9]},{"type":"LineString","properties":{"kind":"train","name":"Tren Moron-Camaguey","service":"local","sort_rank":275,"source":"openstreetmap.org","min_zoom":6.0,"operator":"Ferrocarriles de Cuba (FC)","ref":"Mor\u00f3n-Camaguey","id":-6535082,"osm_relation":true},"arcs":[10]},{"type":"LineString","properties":{"kind":"train","name":"Tren Habana-Bayamo-Manzanillo","service":"long distance","sort_rank":275,"source":"openstreetmap.org","min_zoom":6.0,"operator":"Ferrocarriles de Cuba (FC)","ref":"13\/14","id":-6520976,"osm_relation":true},"arcs":[11]},{"type":"LineString","properties":{"kind":"train","name":"Tren Habana-Holgu\u00edn","service":"long distance","sort_rank":275,"source":"openstreetmap.org","min_zoom":6.0,"operator":"Ferrocarriles de Cuba (FC)","ref":"5\/6","osm_relation":true},"arcs":[12]},{"type":"LineString","properties":{"kind":"train","name":"Tren Habana-Sancti Spiritus","service":"long distance","sort_rank":275,"source":"openstreetmap.org","min_zoom":6.0,"operator":"Ferrocarriles de Cuba (FC)","ref":"7\/8","id":-6520979,"osm_relation":true},"arcs":[13]},{"type":"LineString","properties":{"kind":"train","name":"Tren Habana-Santiago Nro 1\/2","service":"long distance","sort_rank":275,"source":"openstreetmap.org","min_zoom":6.0,"operator":"Ferrocarriles de Cuba (FC)","ref":"1\/2","osm_relation":true},"arcs":[14]},{"type":"LineString","properties":{"kind":"train","name":"Tren Habana-Santiago Nro3\/4","service":"long distance","sort_rank":275,"source":"openstreetmap.org","min_zoom":6.0,"operator":"Ferrocarriles de Cuba (FC)","ref":"3\/4","osm_relation":true},"arcs":[15]},{"type":"LineString","properties":{"kind":"train","name":"Tren Habana-Guant\u00e1namo","service":"long distance","sort_rank":275,"source":"openstreetmap.org","min_zoom":6.0,"operator":"Ferrocarriles de Cuba (FC)","ref":"15\/16","osm_relation":true},"arcs":[16]},{"type":"LineString","properties":{"kind":"train","name":"Tren Jucaro - Moron","service":"commuter","sort_rank":275,"source":"openstreetmap.org","min_zoom":6.0,"operator":"Ferrocarriles de Cuba (FC)","ref":"JM","id":-6520975,"osm_relation":true},"arcs":[17]},{"type":"LineString","properties":{"kind":"train","name":"Tren Santi Spiritus Tunas de Zaza","service":"commuter","sort_rank":275,"source":"openstreetmap.org","min_zoom":6.0,"operator":"Ferrocarriles de Cuba (FC)","ref":"Tunas de Zaza","id":-6535084,"osm_relation":true},"arcs":[18]}]},"pois":{"type":"GeometryCollection","geometries":[{"type":"Point","properties":{"kind":"nature_reserve","name":"Reserva de Biosfera Guanahacabibes","area":1799570000,"source":"openstreetmap.org","min_zoom":6.88,"tier":2,"id":-6488944,"osm_relation":true},"coordinates":[14,4065]},{"type":"Point","properties":{"kind":"national_park","protect_class":"2","area":2550240000,"source":"openstreetmap.org","min_zoom":5.13,"tier":1,"id":371542550,"name":"Parque Nacional Jardines de la Reina"},"coordinates":[3862,3314]}]},"boundaries":{"type":"GeometryCollection","geometries":[{"type":"LineString","properties":{"source":"naturalearthdata.com","kind":"region","sort_rank":256,"kind_detail":"4","min_zoom":6.0,"id":4258},"arcs":[0]},{"type":"LineString","properties":{"source":"naturalearthdata.com","kind":"region","sort_rank":256,"kind_detail":"4","min_zoom":6.0,"id":288},"arcs":[1]},{"type":"MultiLineString","properties":{"source":"naturalearthdata.com","kind":"region","sort_rank":256,"kind_detail":"4","min_zoom":6.0,"id":2886},"arcs":[[2],[3],[4],[5],[6]]},{"type":"LineString","properties":{"source":"naturalearthdata.com","kind":"region","sort_rank":256,"kind_detail":"4","min_zoom":6.0,"id":4255},"arcs":[7]},{"type":"LineString","properties":{"source":"naturalearthdata.com","kind":"region","sort_rank":256,"kind_detail":"4","min_zoom":6.0,"id":4256},"arcs":[8]}]},"roads":{"type":"GeometryCollection","geometries":[{"type":"LineString","properties":{"source":"naturalearthdata.com","kind":"major_road","sort_rank":380,"kind_detail":"primary","min_zoom":3.0,"id":2827},"arcs":[58]},{"type":"LineString","properties":{"source":"naturalearthdata.com","kind":"major_road","sort_rank":380,"kind_detail":"primary","min_zoom":3.0,"id":2842},"arcs":[59]}]},"earth":{"type":"GeometryCollection","geometries":[{"type":"MultiPolygon","properties":{"sort_rank":10,"source":"naturalearthdata.com","min_zoom":0.0,"kind":"earth","area":466650077231},"arcs":[[[60]],[[61]],[[62]],[[63]],[[64]],[[65]],[[66]],[[67]],[[68]],[[69]],[[70]],[[71]],[[72]],[[73]],[[74]],[[75]]]}]},"landuse":{"type":"GeometryCollection","geometries":[{"type":"MultiPolygon","properties":{"source":"openstreetmap.org","kind":"nature_reserve","tier":2,"area":707780070,"sort_rank":23,"min_zoom":6.0},"arcs":[[[76]]]},{"type":"MultiPolygon","properties":{"source":"openstreetmap.org","kind":"national_park","tier":1,"protect_class":"2","area":1722082340,"sort_rank":18,"min_zoom":3.0},"arcs":[[[77]],[[78]]]},{"type":"Polygon","properties":{"kind":"nature_reserve","protect_class":"5","area":236652000,"sort_rank":23,"operator":"Gaviota","source":"openstreetmap.org","min_zoom":6.0,"tier":2,"id":371541269},"arcs":[[79]]},{"type":"MultiPolygon","properties":{"source":"openstreetmap.org","kind":"nature_reserve","tier":2,"area":3304142007,"sort_rank":23,"min_zoom":4.0,"osm_relation":true},"arcs":[[[80]]]}]}},"type":"Topology","transform":{"translate":[-84.375,16.6361918784],"scale":[0.001373291,0.0012956186]},"arcs":[[[3168,4092],[-26,-26],[-20,-16],[-5,-5],[-2,-4],[-1,-4],[-2,-32]],[[3112,4005]],[[3916,4096],[-1,-1]],[[3915,4095],[-3,1]],[[3889,4096],[-5,-3],[-4,-16],[-8,-17],[-11,-20],[-7,-17],[-8,-30],[-16,-34],[-5,-12],[12,-18],[5,-12],[-3,-22],[-4,-13],[6,-9]],[[3901,3920],[18,-8],[16,-11],[5,-10],[-3,-20],[3,-24],[3,-16]],[[3841,3873],[20,0],[21,9],[9,10],[0,12],[10,16]],[[3176,4096],[-8,-4]],[[3168,4096],[0,-4]],[[3589,4080],[1,16]],[[4096,4011],[0,69]],[[4096,4011],[-310,85]],[[3786,4096],[310,-85]],[[3589,4080],[1,16]],[[3786,4096],[310,-85]],[[3786,4096],[310,-85]],[[3786,4096],[310,-85]],[[4096,4080],[-75,-232]],[[3513,3858],[3,39],[62,45],[-14,95],[25,44]],[[4096,3811],[0,-3811],[-4096,0],[0,4009],[51,42],[23,7],[16,10],[8,3],[8,1],[15,-1],[7,0],[13,6],[29,17],[9,2],[14,0],[9,-2],[27,-14],[14,-4],[9,2],[8,4],[8,6],[7,7],[0,1],[411,0],[-3,-1],[3,-2],[33,3],[284,0],[-1,-1],[-5,-2],[1,-1],[9,-5],[8,0],[8,-1],[8,-4],[-12,-2],[-17,-9],[-14,-10],[-7,-8],[-4,-10],[-31,-24],[-7,-33],[9,-31],[62,-109],[9,-8],[21,-3],[4,-9],[-13,-24],[-5,5],[7,10],[-1,8],[-4,5],[-2,1],[-2,-7],[-6,-4],[-11,-8],[-21,-17],[-2,-4],[-30,0],[-12,3],[-15,6],[-11,9],[-5,11],[-36,27],[-9,8],[-4,0],[1,-8],[8,-19],[5,-21],[7,-15],[8,-9],[20,-13],[9,-8],[24,-32],[7,-3],[26,1],[8,-2],[15,-7],[7,-2],[47,-1],[7,-7],[9,-3],[51,5],[56,20],[93,47],[13,2],[13,6],[17,14],[15,16],[8,12],[-9,4],[-11,8],[-5,10],[5,9],[0,6],[-10,2],[-9,4],[-16,10],[3,7],[2,6],[-2,7],[-3,6],[5,0],[8,15],[4,9],[0,6],[-4,7],[-4,10],[-4,8],[-8,4],[-9,-1],[-33,27],[-11,12],[-1,9],[4,9],[3,15],[-4,12],[-10,8],[-13,6],[-41,11],[-59,15],[-60,7],[202,0],[4,-8],[21,-9],[19,1],[9,3],[-12,10],[-8,3],[1665,0],[23,-24],[22,-19],[38,-12],[22,-18],[31,-7],[29,-11],[15,-2],[13,-4],[8,-11],[5,-14],[2,-17],[6,-12],[12,-14],[13,-6],[9,9],[-6,1],[-7,4],[-4,5],[2,6],[6,1],[9,-1],[14,-6],[17,-2],[14,0],[13,4],[12,9],[2,-10],[-1,-11],[3,-8],[11,-3],[0,-5],[-15,-5],[0,-6],[16,-6],[16,-8],[13,-2],[5,14],[8,12],[19,0],[49,-14],[51,-1],[9,-3],[6,-7],[3,-9],[4,-7],[6,-5],[4,-2],[32,-9],[4,-2],[7,-6],[7,-4],[7,1],[6,5],[2,8],[3,7],[6,-7],[11,-18],[7,-7],[7,-4],[16,-5],[14,0],[38,4],[10,-1],[14,-13],[12,-7],[58,-17],[30,-3],[29,3],[30,8],[38,18],[14,3],[32,1],[13,3],[12,7],[5,-6],[8,3],[8,-1],[9,-2],[22,-1],[6,1],[2,3],[1,3],[4,5],[4,3],[3,2],[34,3],[34,8],[9,4],[5,3],[5,1],[7,-2],[0,-47],[-1,-2],[1,-1]],[[316,604],[3,-5],[5,-2],[6,0],[7,1],[-5,2],[-5,2],[-6,1],[-5,1]],[[2175,2028],[9,7],[13,1],[12,-1],[47,-6],[8,1],[12,10],[12,8],[13,2],[16,3],[17,3],[25,-7],[21,3],[15,12],[-3,19],[-7,10],[-13,4],[-14,1],[-15,1],[-40,-6],[-14,3],[-27,11],[-13,2],[4,-10],[2,-3],[4,-3],[-4,-3],[0,-2],[2,-2],[2,-3],[-5,5],[3,-5],[1,-2],[1,-4],[-11,3],[-4,3],[-6,-11],[-1,-9],[-14,-5],[-20,0],[-10,13],[2,16],[-6,15],[-7,13],[2,10],[-13,4],[-11,-3],[-4,-6],[-2,-10],[8,-5],[11,-9],[4,-10],[0,-11],[-3,-13],[-2,-9],[-3,-5],[-1,-12],[7,-8]],[[3129,2329],[54,28],[19,6],[7,4],[3,2],[-12,7],[-21,-8],[-21,0],[-17,-3],[-15,-11],[-12,-7],[-11,-14],[26,-4]],[[3279,2368],[-16,-19],[28,9],[59,17],[35,18],[-4,12],[-10,4],[-17,-4],[-25,-15],[-50,-22]],[[4095,3157],[-25,17],[-16,7],[-14,-3],[9,-13],[16,-13],[18,-6],[12,11]],[[4025,3193],[-8,20],[-13,8],[-36,-1],[0,10],[-2,8],[-3,6],[-7,0],[-7,-6],[-9,-13],[16,-17],[52,-6],[12,-9],[5,0]],[[3922,3244],[5,4],[6,11],[2,12],[-14,4],[-17,2],[-8,4],[-6,5],[-12,3],[-13,1],[-9,-1],[8,-9],[36,-24],[18,-4],[2,-3],[2,-5]],[[3850,3289],[-3,11],[-2,5],[12,0],[3,0],[-18,22],[-28,28],[-33,19],[-30,-1],[4,-8],[5,-6],[8,-4],[8,-3],[-2,4],[0,2],[-1,1],[-3,3],[0,6],[16,-2],[19,-16],[16,-20],[10,-15],[-10,8],[-8,10],[-10,9],[-12,5],[0,-6],[25,-29],[14,-13],[20,-10]],[[3701,3426],[-29,29],[-18,12],[-23,-4],[6,-7],[19,-14],[5,4],[6,-1],[6,-5],[3,-8],[-15,-1],[-5,1],[10,-8],[11,-3],[13,0],[11,5]],[[4087,3691],[-6,0],[2,-7],[-4,-1],[2,-4],[6,12]],[[855,4001],[-4,4],[-1,-3],[1,-10],[12,-22],[4,-5],[0,6],[-5,12],[-4,9],[0,2],[-3,7]],[[1282,4059],[3,-2],[3,-4],[5,-1],[3,1],[-3,-4],[-2,-5],[4,-2],[4,5],[1,5],[-6,7],[-8,2],[-3,0],[-1,-2]],[[1849,4042],[-2,-1],[-1,-2],[1,0],[10,4],[6,0],[-1,3],[-11,0],[-2,-4]],[[1314,3921],[11,-2],[7,2],[4,4],[3,-2],[2,-4],[2,-1],[7,-1],[-3,7],[-4,12],[-4,-2],[-5,1],[-2,6],[-3,2],[-3,-4],[-2,-3],[-1,0],[0,4],[1,3],[1,3],[-1,1],[-3,1],[-6,6],[-5,2],[0,-1],[3,-4],[4,-7],[0,-6],[-1,-4],[1,-2],[2,-1],[2,-2],[0,-4],[-7,-4]],[[2177,3921],[-23,-15],[-11,-9],[-4,-13],[-4,-6],[-8,-7],[-11,-3],[-10,5],[-8,2],[-7,-9],[-7,-11],[-8,-6],[-20,4],[-7,-4],[0,-15],[24,2],[23,9],[58,39],[29,27],[3,2],[3,2],[-2,5],[-4,3],[-6,-2]],[[1737,3838],[12,10],[0,14],[-6,6],[-1,-1],[-1,-3],[-3,-6],[-6,-6],[-8,-4],[-9,-1],[-21,-8],[-4,-3],[-6,-6],[-6,-4],[-8,-2],[-15,-12],[-9,-4],[3,-2],[16,1],[10,3],[3,3],[4,3],[5,1],[21,10],[29,11]],[[1524,3824],[0,2],[-4,0],[-8,-3],[-2,-3],[0,-3],[-6,3],[-7,-3],[-4,0],[-4,-2],[-5,-8],[1,-1],[8,3],[16,1],[12,4],[6,4],[-3,0],[-1,2],[-2,2],[0,1],[3,1]],[[1414,3812],[-14,2],[-6,-1],[-1,-4],[3,-4],[7,-1],[14,-8],[6,3],[3,5],[-1,2],[-5,3],[-2,1],[-4,2]],[[1811,3868],[-3,-5],[-10,-8],[-12,-1],[-8,8],[-2,2],[3,-11],[10,-10],[12,0],[23,19],[13,8],[11,8],[-1,4],[-10,-2],[-5,-1],[-22,-10],[-2,-1],[3,0]],[[2358,2098],[-15,1],[-40,-6],[-14,3],[-27,11],[-13,2],[4,-10],[2,-3],[4,-3],[-4,-3],[0,-2],[2,-2],[2,-3],[-5,5],[3,-5],[1,-2],[1,-4],[-11,3],[-4,3],[-6,-11],[-1,-9],[-14,-5],[-20,0],[-10,13],[2,16],[-6,15],[-7,13],[2,10],[-13,4],[-11,-3],[-4,-6],[-2,-10],[8,-5],[11,-9],[4,-10],[0,-11],[-3,-13],[-2,-9],[-3,-5],[-1,-12],[7,-8],[9,7],[13,1],[12,-1],[47,-6],[8,1],[12,10],[12,8],[13,2],[16,3],[17,3],[25,-7],[21,3],[15,12],[-3,19],[-7,10],[-13,4],[-14,1]],[[3158,2368],[-17,-3],[-15,-11],[-12,-7],[-11,-14],[26,-4],[54,28],[19,6],[7,4],[3,2],[-12,7],[-21,-8],[-21,0]],[[3279,2368],[-16,-19],[28,9],[59,17],[35,18],[-4,12],[-10,4],[-17,-4],[-25,-15],[-50,-22]],[[4040,3178],[9,-13],[16,-13],[18,-6],[12,11],[-25,17],[-16,7],[-14,-3]],[[3968,3220],[0,10],[-2,8],[-3,6],[-7,0],[-7,-6],[-9,-13],[16,-17],[52,-6],[12,-9],[5,0],[-8,20],[-13,8],[-36,-1]],[[3631,3463],[6,-7],[19,-14],[5,4],[6,-1],[6,-5],[3,-8],[-15,-1],[-5,1],[10,-8],[11,-3],[13,0],[11,5],[-29,29],[-18,12],[-23,-4]],[[3896,3281],[-6,5],[-12,3],[-13,1],[-9,-1],[8,-9],[36,-24],[18,-4],[2,-3],[2,-5],[5,4],[6,11],[2,12],[-14,4],[-17,2],[-8,4]],[[3860,3305],[-18,22],[-28,28],[-33,19],[-30,-1],[4,-8],[5,-6],[8,-4],[8,-3],[-2,4],[0,2],[-1,1],[-3,3],[0,6],[16,-2],[19,-16],[16,-20],[10,-15],[-10,8],[-8,10],[-10,9],[-12,5],[0,-6],[25,-29],[14,-13],[20,-10],[-3,11],[-2,5],[12,0],[3,0]],[[1316,3859],[0,6],[-10,2],[-9,4],[-16,10],[3,7],[2,6],[-2,7],[-3,6],[5,0],[8,15],[4,9],[0,6],[-4,7],[-4,10],[-4,8],[-8,4],[-9,-1],[-33,27],[-11,12],[-1,9],[4,9],[3,15],[-4,12],[-10,8],[-13,6],[-41,11],[-59,15],[-60,7]],[[1003,4096],[-1,-1],[-5,-2],[1,-1],[9,-5],[8,0],[8,-1],[8,-4],[-12,-2],[-17,-9],[-14,-10],[-7,-8],[-4,-10],[-31,-24],[-7,-33],[9,-31],[62,-109],[9,-8],[21,-3],[4,-9],[-13,-24],[-5,5],[7,10],[-1,8],[-4,5],[-2,1],[-2,-7],[-6,-4],[-11,-8],[-21,-17],[-2,-4],[-30,0],[-12,3],[-15,6],[-11,9],[-5,11],[-36,27],[-9,8],[-4,0],[1,-8],[8,-19],[5,-21],[7,-15],[8,-9],[20,-13],[9,-8],[24,-32],[7,-3],[26,1],[8,-2],[15,-7],[7,-2],[47,-1],[7,-7],[9,-3],[51,5],[56,20],[93,47],[13,2],[13,6],[17,14],[15,16],[8,12],[-9,4],[-11,8],[-5,10],[5,9]],[[2186,3913],[3,2],[-2,5],[-4,3],[-6,-2],[-23,-15],[-11,-9],[-4,-13],[-4,-6],[-8,-7],[-11,-3],[-10,5],[-8,2],[-7,-9],[-7,-11],[-8,-6],[-20,4],[-7,-4],[0,-15],[24,2],[23,9],[58,39],[29,27],[3,2]],[[316,604],[3,-5],[5,-2],[6,0],[7,1],[-5,2],[-5,2],[-6,1],[-5,1]],[[0,4009],[51,42],[23,7],[16,10],[8,3],[8,1],[15,-1],[7,0],[13,6],[29,17],[9,2]],[[193,4096],[9,-2],[27,-14],[14,-4],[9,2],[8,4],[8,6],[7,7],[0,1]],[[2944,4096],[23,-24],[22,-19],[38,-12],[22,-18],[31,-7],[29,-11],[15,-2],[13,-4],[8,-11],[5,-14],[2,-17],[6,-12],[12,-14],[13,-6],[9,9],[-6,1],[-7,4],[-4,5],[2,6],[6,1],[9,-1],[14,-6],[17,-2],[14,0],[13,4],[12,9],[2,-10],[-1,-11],[3,-8],[11,-3],[0,-5],[-15,-5],[0,-6],[16,-6],[16,-8],[13,-2],[5,14],[8,12],[19,0],[49,-14],[51,-1],[9,-3],[6,-7],[3,-9],[4,-7],[6,-5],[4,-2],[32,-9],[4,-2],[7,-6],[7,-4],[7,1],[6,5],[2,8],[3,7],[6,-7],[11,-18],[7,-7],[7,-4],[16,-5],[14,0],[38,4],[10,-1],[14,-13],[12,-7],[58,-17],[30,-3],[29,3],[30,8],[38,18],[14,3],[32,1],[13,3],[12,7],[5,-6],[8,3],[8,-1],[9,-2],[22,-1],[6,1],[2,3],[1,3],[4,5],[4,3],[3,2],[34,3],[34,8],[9,4],[5,3],[5,1],[7,-2]],[[4096,3814],[-1,-2],[1,-1]],[[1837,3880],[-5,-1],[-22,-10],[-2,-1],[3,0],[-3,-5],[-10,-8],[-12,-1],[-8,8],[-2,2],[3,-11],[10,-10],[12,0],[23,19],[13,8],[11,8],[-1,4],[-10,-2]],[[1743,3868],[-1,-1],[-1,-3],[-3,-6],[-6,-6],[-8,-4],[-9,-1],[-21,-8],[-4,-3],[-6,-6],[-6,-4],[-8,-2],[-15,-12],[-9,-4],[3,-2],[16,1],[10,3],[3,3],[4,3],[5,1],[21,10],[29,11],[12,10],[0,14],[-6,6]],[[1246,4096],[4,-8],[21,-9],[19,1],[9,3],[-12,10],[-8,3]],[[3612,4096],[0,-15],[5,-18],[9,-10]],[[4096,4033],[-11,5],[-26,21],[-40,3],[-82,21],[-42,7],[-12,-1],[-36,-16],[-7,-11],[-50,-23],[-54,0],[-94,11],[-11,-1],[-5,4]],[[3291,2358],[-28,-9],[16,19],[50,22],[25,15],[17,4],[10,-4],[4,-12],[-35,-18],[-59,-17]],[[4095,3157],[-12,-11],[-18,6],[-16,13],[-9,13],[14,3],[16,-7],[25,-17]],[[3968,3230],[0,-10],[36,1],[13,-8],[8,-20],[-5,0],[-12,9],[-52,6],[-16,17],[9,13],[7,6],[7,0],[3,-6],[2,-8]],[[3672,3455],[29,-29],[-11,-5],[-13,0],[-11,3],[-10,8],[5,-1],[15,1],[-3,8],[-6,5],[-6,1],[-5,-4],[-19,14],[-6,7],[23,4],[18,-12]],[[3927,3248],[-5,-4],[-2,5],[-2,3],[-18,4],[-36,24],[-8,9],[9,1],[13,-1],[12,-3],[6,-5],[8,-4],[17,-2],[14,-4],[-2,-12],[-6,-11]],[[3781,3374],[33,-19],[28,-28],[18,-22],[-3,0],[-12,0],[2,-5],[3,-11],[-20,10],[-14,13],[-25,29],[0,6],[12,-5],[10,-9],[8,-10],[10,-8],[-10,15],[-16,20],[-19,16],[-16,2],[0,-6],[3,-3],[1,-1],[0,-2],[2,-4],[-8,3],[-8,4],[-5,6],[-4,8],[30,1]],[[0,4096],[179,0],[-9,-2],[-29,-17],[-13,-6],[-7,0],[-15,1],[-8,-1],[-8,-3],[-16,-10],[-23,-7],[-51,-42],[0,87]],[[275,4096],[0,-1],[-7,-7],[-8,-6],[-8,-4],[-9,-2],[-14,4],[-27,14],[-9,2],[82,0]],[[1290,4080],[-19,-1],[-21,9],[-4,8],[33,0],[8,-3],[12,-10],[-9,-3]],[[2193,2071],[10,-13],[20,0],[14,5],[1,9],[6,11],[4,-3],[11,-3],[-1,4],[-1,2],[-3,5],[5,-5],[-2,3],[-2,2],[0,2],[4,3],[-4,3],[-2,3],[-4,10],[13,-2],[27,-11],[14,-3],[40,6],[15,-1],[14,-1],[13,-4],[7,-10],[3,-19],[-15,-12],[-21,-3],[-25,7],[-17,-3],[-16,-3],[-13,-2],[-12,-8],[-12,-10],[-8,-1],[-47,6],[-12,1],[-13,-1],[-9,-7],[-7,8],[1,12],[3,5],[2,9],[3,13],[0,11],[-4,10],[-11,9],[-8,5],[2,10],[4,6],[11,3],[13,-4],[-2,-10],[7,-13],[6,-15],[-2,-16]],[[3212,2369],[-3,-2],[-7,-4],[-19,-6],[-54,-28],[-26,4],[11,14],[12,7],[15,11],[17,3],[21,0],[21,8],[12,-7]],[[2154,3884],[-58,-39],[-23,-9],[-24,-2],[0,15],[7,4],[20,-4],[8,6],[7,11],[7,9],[8,-2],[10,-5],[11,3],[8,7],[4,6],[4,13],[11,9],[23,15],[6,2],[4,-3],[2,-5],[-3,-2],[-3,-2],[-29,-27]],[[1824,3862],[-23,-19],[-12,0],[-10,10],[-3,11],[2,-2],[8,-8],[12,1],[10,8],[3,5],[-3,0],[2,1],[22,10],[5,1],[10,2],[1,-4],[-11,-8],[-13,-8]],[[4096,3861],[-7,2],[-5,-1],[-5,-3],[-9,-4],[-34,-8],[-34,-3],[-3,-2],[-4,-3],[-4,-5],[-1,-3],[-2,-3],[-6,-1],[-22,1],[-9,2],[-8,1],[-8,-3],[-5,6],[-12,-7],[-13,-3],[-32,-1],[-14,-3],[-38,-18],[-30,-8],[-29,-3],[-30,3],[-58,17],[-12,7],[-14,13],[-10,1],[-38,-4],[-14,0],[-16,5],[-7,4],[-7,7],[-11,18],[-6,7],[-3,-7],[-2,-8],[-6,-5],[-7,-1],[-7,4],[-7,6],[-4,2],[-32,9],[-4,2],[-6,5],[-4,7],[-3,9],[-6,7],[-9,3],[-51,1],[-49,14],[-19,0],[-8,-12],[-5,-14],[-13,2],[-16,8],[-16,6],[0,6],[15,5],[0,5],[-11,3],[-3,8],[1,11],[-2,10],[-12,-9],[-13,-4],[-14,0],[-17,2],[-14,6],[-9,1],[-6,-1],[-2,-6],[4,-5],[7,-4],[6,-1],[-9,-9],[-13,6],[-12,14],[-6,12],[-2,17],[-5,14],[-8,11],[-13,4],[-15,2],[-29,11],[-31,7],[-22,18],[-38,12],[-22,19],[-23,24],[1152,0],[0,-235]],[[1104,4089],[59,-15],[41,-11],[13,-6],[10,-8],[4,-12],[-3,-15],[-4,-9],[1,-9],[11,-12],[33,-27],[9,1],[8,-4],[4,-8],[4,-10],[4,-7],[0,-6],[-4,-9],[-8,-15],[-5,0],[3,-6],[2,-7],[-2,-6],[-3,-7],[16,-10],[9,-4],[10,-2],[0,-6],[-5,-9],[5,-10],[11,-8],[9,-4],[-8,-12],[-15,-16],[-17,-14],[-13,-6],[-13,-2],[-93,-47],[-56,-20],[-51,-5],[-9,3],[-7,7],[-47,1],[-7,2],[-15,7],[-8,2],[-26,-1],[-7,3],[-24,32],[-9,8],[-20,13],[-8,9],[-7,15],[-5,21],[-8,19],[-1,8],[4,0],[9,-8],[36,-27],[5,-11],[11,-9],[15,-6],[12,-3],[30,0],[2,4],[21,17],[11,8],[6,4],[2,7],[2,-1],[4,-5],[1,-8],[-7,-10],[5,-5],[13,24],[-4,9],[-21,3],[-9,8],[-62,109],[-9,31],[7,33],[31,24],[4,10],[7,8],[14,10],[17,9],[12,2],[-8,4],[-8,1],[-8,0],[-9,5],[-1,1],[5,2],[1,1],[41,0],[60,-7]],[[1665,3807],[-16,-1],[-3,2],[9,4],[15,12],[8,2],[6,4],[6,6],[4,3],[21,8],[9,1],[8,4],[6,6],[3,6],[1,3],[1,1],[6,-6],[0,-14],[-12,-10],[-29,-11],[-21,-10],[-5,-1],[-4,-3],[-3,-3],[-10,-3]],[[769,4096],[0,-32],[-243,32],[243,0]],[[3544,3442],[0,41],[73,1],[2,128],[83,-1],[1,-48],[74,-3],[0,-77],[-110,2],[51,-81],[378,-185],[0,-104],[-322,225],[-230,102]],[[2380,4096],[-57,-124],[-168,72],[-47,52],[272,0]],[[3104,4006],[15,90],[72,0],[24,-77],[-32,-26],[-79,13]],[[0,3991],[0,100],[143,-2],[-118,-67],[-25,-31]]]}