{"objects":{"water":{"type":"GeometryCollection","geometries":[{"type":"Polygon","properties":{"source":"naturalearthdata.com","kind":"ocean","area":1576712559132672,"sort_rank":200,"min_zoom":0.0,"id":1},"arcs":[[135],[136],[137]]},{"type":"LineString","properties":{"source":"naturalearthdata.com","kind":"ocean","sort_rank":205,"boundary":true,"min_zoom":0.0,"id":77},"arcs":[138]},{"type":"LineString","properties":{"source":"naturalearthdata.com","kind":"ocean","sort_rank":205,"boundary":true,"min_zoom":0.0,"id":323},"arcs":[139]},{"type":"LineString","properties":{"source":"naturalearthdata.com","kind":"ocean","sort_rank":205,"boundary":true,"min_zoom":0.0,"id":3857},"arcs":[140]}]},"buildings":{"type":"GeometryCollection","geometries":[]},"places":{"type":"GeometryCollection","geometries":[{"type":"Point","properties":{"name:pt":"Equador","name:ps":"\u0627\u06d0\u06a9\u0648\u0627\u062f\u0648\u0631","name:ka":"\u10d4\u10d9\u10d5\u10d0\u10d3\u10dd\u10e0\u10d8","name:mt":"Ekwador","name:ko":"\uc5d0\ucf70\ub3c4\ub974","name:cv":"\u042d\u043a\u0432\u0430\u0434\u043e\u0440","name:km":"\u17a2\u17c1\u1780\u17d2\u179c\u17b6\u178c\u17d0\u179a","name:cs":"Ekv\u00e1dor","name:ki":"Ekwado","name:kw":"Pow Ekwadorel","name:tr":"Ekvador","name:ku":"Ekuador","name:ti":"\u12a2\u12b3\u12f6\u122d","name:ks":"\u0627\u0650\u06a9\u0648\u0627\u0691\u0648\u0631","name:to":"\u02bbEkuetoa","name:tl":"Ekwador","name:pa":"\u0a0f\u0a15\u0a41\u0a06\u0a26\u0a4b\u0a30","name:os":"\u042d\u043a\u0432\u0430\u0434\u043e\u0440","name:or":"\u0b07\u0b15\u0b4d\u0b71\u0b3e\u0b21\u0b4b\u0b30\u0b4d","name:ce":"\u042d\u043a\u0432\u0430\u0434\u043e\u0440","name:ta":"\u0b88\u0b95\u0bcd\u0bb5\u0b9f\u0bbe\u0bb0\u0bcd","name:tg":"\u042d\u043a\u0443\u0430\u0434\u043e\u0440","name:ca":"Equador","name:te":"\u0c08\u0c15\u0c4d\u0c35\u0c21\u0c4b\u0c30\u0c4d","name:cy":"Ecwador","name:ln":"Ekwat\u025b\u0301l\u025b","name:sr":"\u0415\u043a\u0432\u0430\u0434\u043e\u0440","name:dz":"\u0f68\u0f7a\u0f0b\u0f41\u0fad\u0f0b\u0f4c\u0f7c\u0f62","source":"openstreetmap.org","name:nv":"K\u00e9yah Nahasdz\u00e1\u00e1n A\u0142n\u00edi\u02bcgi Si\u02bc\u00e1n\u00edg\u00ed\u00ed","name:kn":"\u0c88\u0c95\u0ccd\u0cb5\u0cc6\u0ca1\u0cbe\u0cb0\u0ccd","name:yi":"\u05e2\u05e7\u05d5\u05d5\u05d0\u05d3\u05d0\u05e8","name:dv":"\u0787\u07a8\u0786\u07aa\u0787\u07ac\u0791\u07af\u0783\u07aa","name:lv":"Ekvadora","name:lt":"Ekvadoras","name:uz":"Ekvador","name:kk":"\u042d\u043a\u0432\u0430\u0434\u043e\u0440","name:he":"\u05d0\u05e7\u05d5\u05d0\u05d3\u05d5\u05e8","min_zoom":2.0,"kind":"country","name:ur":"\u0627\u06cc\u06a9\u0648\u0627\u0688\u0648\u0631","name:la":"Aequatoria","name:lg":"Ekwado","name:uk":"\u0415\u043a\u0432\u0430\u0434\u043e\u0440","name:hy":"\u0537\u056f\u057e\u0561\u0564\u0578\u0580","name:ug":"\u0626\u06d0\u0643\u06cb\u0627\u062f\u0648\u0631","name:hr":"Ekvador","name:lo":"\u0ec0\u0ead\u0e81\u0ea7\u0eb2\u0e94\u0ecd","name:oc":"Eq\u00fcator","population":13755680,"name:el":"\u0399\u03c3\u03b7\u03bc\u03b5\u03c1\u03b9\u03bd\u03cc\u03c2","name:eo":"Ekvadoro","name":"Ecuador","name:is":"Ekvador","name:ee":"Ekuad\u0254 nutome","name:th":"\u0e1b\u0e23\u0e30\u0e40\u0e17\u0e28\u0e40\u0e2d\u0e01\u0e27\u0e32\u0e14\u0e2d\u0e23\u0e4c","name:eu":"Ekuador","name:yo":"Or\u00edl\u1eb9\u0301\u00e8de Eku\u00e1d\u00f2","name:ay":"Ikwadur","alt_name:el":"\u0395\u03ba\u03bf\u03c5\u03b1\u03b4\u03cc\u03c1","name:rn":"Ekwateri","name:az":"Ekvador","name:id":"Ekuador","name:mr":"\u0907\u0915\u094d\u0935\u093e\u0921\u094b\u0930","name:qu":"Ikwadur","name:ar":"\u0625\u0643\u0648\u0627\u062f\u0648\u0631","name:my":"\u1021\u102e\u1000\u103d\u1031\u1012\u1031\u102b","name:io":"Equador","name:gn":"Ekuator","name:ak":"Ikuwad\u0254","name:am":"\u12a2\u12b3\u12f6\u122d","name:fo":"Ekvador","name:ml":"\u0d07\u0d15\u0d4d\u0d35\u0d21\u0d4b\u0d7c","name:ru":"\u042d\u043a\u0432\u0430\u0434\u043e\u0440","name:rw":"Ekwadoro","name:mi":"Ekuatoa","name:pl":"Ekwador","name:mk":"\u0415\u043a\u0432\u0430\u0434\u043e\u0440","name:vo":"Lekvador\u00e4n","name:zu":"i-Ecuador","name:ha":"Ekwador","name:mn":"\u042d\u043a\u0432\u0430\u0434\u043e\u0440","name:ff":"Ekuwatoor","name:hi":"\u0907\u0915\u094d\u0935\u093e\u0921\u094b\u0930","name:mg":"Ekoatera","id":424298227,"official_name":"Rep\u00fablica del Ecuador","name:fr":"\u00c9quateur","name:zh-yue":"\u5384\u74dc\u591a\u723e","name:fy":"Ekwador","name:zh":"\u5384\u74dc\u591a\u5c14","name:so":"Ikuwadoor","name:sl":"Ekvador","name:sk":"Ekv\u00e1dor","name:ja":"\u30a8\u30af\u30a2\u30c9\u30eb","name:si":"\u0d89\u0d9a\u0dca\u0dc0\u0daf\u0ddd\u0dbb\u0dba","name:sh":"Ekvador","name:sg":"Ekuat\u00ebre","name:na":"Ekwador","name:ne":"\u0907\u0915\u094d\u0935\u0921\u0947\u0930","name:sa":"\u090f\u0915\u094d\u0935\u093e\u0921\u094b\u0930","name:bs":"Ekvador","name:bm":"Ekwat\u0254r","name:bn":"\u0987\u0995\u09c1\u09af\u09bc\u09c7\u09a1\u09b0","name:bo":"\u0f68\u0f72\u0f0b\u0f41\u0fad\u0f0b\u0f4c\u0f7c\u0f62\u0f0d","name:sw":"Ekwado","name:be":"\u042d\u043a\u0432\u0430\u0434\u043e\u0440","name:su":"\u00c9kuador","name:bg":"\u0415\u043a\u0432\u0430\u0434\u043e\u0440","name:wo":"Ekwadoor","name:ba":"\u042d\u043a\u0432\u0430\u0434\u043e\u0440","name:sq":"Ekuator","name:ga":"Eacuad\u00f3r","name:gd":"Eacuador","name:ht":"Ekwat\u00e8","name:jv":"Ekuador","name:fa":"\u0627\u06a9\u0648\u0627\u062f\u0648\u0631","name:gu":"\u0a8f\u0a95\u0acd\u0ab5\u0abe\u0aa1\u0acb\u0ab0","name:tt":"\u042d\u043a\u0432\u0430\u0434\u043e\u0440"},"coordinates":[3647,3119]},{"type":"Point","properties":{"source":"naturalearthdata.com","kind":"locality","name":"Guayaquil","population":2514000,"region_capital":true,"min_zoom":4.0,"id":7161},"coordinates":[3243,2478]},{"type":"Point","properties":{"admin_level":"4","kind":"region","name:en":"Department of Piura","name":"Piura","kind_detail":"state","name:eo":"Pi\u016drio","source":"openstreetmap.org","min_zoom":4.0,"name:uk":"\u041f\u0456\u0443\u0440\u0430","name:ru":"\u041f\u044c\u044e\u0440\u0430","name:pl":"Region Piura","id":1230775107,"name:es":"Departamento de Piura","population":1676315},"coordinates":[2943,449]},{"type":"Point","properties":{"admin_level":"4","kind":"region","name:en":"Department of Tumbes","name":"Tumbes","kind_detail":"state","name:eo":"Tumpiujo","source":"openstreetmap.org","min_zoom":4.0,"name:uk":"\u0422\u0443\u043c\u0431\u0435\u0441","name:ru":"\u0422\u0443\u043c\u0431\u0435\u0441","name:pl":"Region Tumbes","id":1230775012,"name:es":"Departamento de Tumbes","population":200306},"coordinates":[2822,1300]},{"type":"Point","properties":{"source":"openstreetmap.org","kind":"region","name":"Santa Elena","name:ru":"\u041f\u0440\u043e\u0432\u0438\u043d\u0446\u0438\u044f \u0421\u0432\u044f\u0442\u043e\u0439 \u0415\u043b\u0435\u043d\u044b","kind_detail":"state","min_zoom":4.0,"id":470284940},"coordinates":[2773,2495]},{"type":"Point","properties":{"source":"openstreetmap.org","kind":"region","name":"Loja","name:ru":"\u041b\u043e\u0445\u0430","kind_detail":"state","min_zoom":4.0,"id":470265002},"coordinates":[3328,1140]},{"type":"Point","properties":{"source":"openstreetmap.org","kind":"region","name":"El Oro","name:ru":"\u042d\u043b\u044c-\u041e\u0440\u043e","kind_detail":"state","min_zoom":4.0,"id":470265571},"coordinates":[3307,1521]},{"type":"Point","properties":{"source":"openstreetmap.org","kind":"region","name":"Zamora Chinchipe","name:ru":"\u0421\u0430\u043c\u043e\u0440\u0430-\u0427\u0438\u043d\u0447\u0438\u043f\u0435","kind_detail":"state","min_zoom":4.0,"id":470261838},"coordinates":[4078,1133]},{"type":"Point","properties":{"source":"openstreetmap.org","kind":"region","name":"Ca\u00f1ar","name:ru":"\u041a\u0430\u043d\u044c\u044f\u0440","kind_detail":"state","min_zoom":4.0,"id":470284543},"coordinates":[3928,2218]},{"type":"Point","properties":{"source":"openstreetmap.org","kind":"region","name":"Guayas","name:ru":"\u0413\u0443\u0430\u044f\u0441","kind_detail":"state","min_zoom":4.0,"id":249420312},"coordinates":[3186,2637]},{"type":"Point","properties":{"source":"openstreetmap.org","kind":"region","name":"Los R\u00edos","name:ru":"\u041b\u043e\u0441-\u0420\u0438\u043e\u0441","kind_detail":"state","min_zoom":4.0,"id":470298090},"coordinates":[3510,3006]},{"type":"Point","properties":{"source":"openstreetmap.org","kind":"region","name":"Manab\u00ed","name:ru":"\u041c\u0430\u043d\u0430\u0431\u0438","kind_detail":"state","min_zoom":4.0,"id":470298798},"coordinates":[3141,3543]},{"type":"Point","properties":{"source":"openstreetmap.org","kind":"region","name":"Cotopaxi","name:ru":"\u041a\u043e\u0442\u043e\u043f\u0430\u043a\u0441\u0438","kind_detail":"state","min_zoom":4.0,"id":470287322},"coordinates":[3991,3493]},{"type":"Point","properties":{"source":"openstreetmap.org","kind":"region","name":"Azuay","name:ru":"\u0410\u0441\u0443\u0430\u0439","kind_detail":"state","min_zoom":4.0,"id":470265856},"coordinates":[3740,1870]},{"type":"Point","properties":{"source":"naturalearthdata.com","kind":"locality","name":"Piura","population":396932,"region_capital":true,"min_zoom":5.0,"id":6305},"coordinates":[2727,296]},{"type":"Point","properties":{"source":"naturalearthdata.com","kind":"locality","name":"Cuenca","population":286878,"region_capital":true,"min_zoom":5.0,"id":6489},"coordinates":[3914,1981]},{"type":"Point","properties":{"source":"naturalearthdata.com","kind":"locality","name":"Portoviejo","population":213601,"region_capital":true,"min_zoom":6.0,"id":5192},"coordinates":[2851,3323]},{"type":"Point","properties":{"source":"naturalearthdata.com","kind":"locality","name":"Machala","population":213034,"region_capital":true,"min_zoom":6.0,"id":5853},"coordinates":[3215,1718]},{"type":"Point","properties":{"source":"naturalearthdata.com","kind":"locality","name":"Manta","population":183166,"min_zoom":6.0,"id":5855},"coordinates":[2654,3381]},{"type":"Point","properties":{"source":"naturalearthdata.com","kind":"locality","name":"Loja","population":126368,"region_capital":true,"min_zoom":6.0,"id":5854},"coordinates":[3761,1186]},{"type":"Point","properties":{"source":"naturalearthdata.com","kind":"locality","name":"Tumbes","population":109223,"region_capital":true,"min_zoom":6.0,"id":5635},"coordinates":[2851,1492]},{"type":"Point","properties":{"source":"naturalearthdata.com","kind":"locality","name":"Talara","population":99074,"min_zoom":6.0,"id":5634},"coordinates":[2254,756]},{"type":"Point","properties":{"source":"naturalearthdata.com","kind":"locality","name":"Paita","population":56151,"min_zoom":6.0,"id":5633},"coordinates":[2370,384]}]},"transit":{"type":"GeometryCollection","geometries":[{"type":"LineString","properties":{"kind":"train","network":"FEEP","sort_rank":275,"state":"connection","source":"openstreetmap.org","min_zoom":6.0,"operator":"Ferrocarriles del Ecuador Empresa Publica","ref":"Sendero de Arrozales","id":-2016158,"osm_relation":true,"name":"Yaguachi - Dur\u00e1n"},"arcs":[129]},{"type":"LineString","properties":{"kind":"train","network":"FEEP","sort_rank":275,"state":"connection","source":"openstreetmap.org","min_zoom":6.0,"operator":"Ferrocarriles del Ecuador Empresa Publica","ref":"Nariz del Diablo","id":-2016147,"osm_relation":true,"name":"Sibambe - Alausi"},"arcs":[130]},{"type":"LineString","properties":{"kind":"train","network":"FEEP","sort_rank":275,"state":"connection","source":"openstreetmap.org","min_zoom":6.0,"operator":"Ferrocarriles del Ecuador Empresa Publica","ref":"Ba\u00f1os del Inca","id":-2016179,"osm_relation":true,"name":"El Tambo - Coyoctor"},"arcs":[131]},{"type":"LineString","properties":{"kind":"train","network":"FEEP","sort_rank":275,"state":"connection","source":"openstreetmap.org","min_zoom":6.0,"operator":"Ferrocarriles del Ecuador Empresa Publica","ref":"Nariz del Diablo","id":-2016146,"osm_relation":true,"name":"Alausi - Sibambe"},"arcs":[132]},{"type":"LineString","properties":{"kind":"train","network":"FEEP","sort_rank":275,"state":"connection","source":"openstreetmap.org","min_zoom":6.0,"operator":"Ferrocarriles del Ecuador Empresa Publica","ref":"Sendero de Arrozales","id":-2016155,"osm_relation":true,"name":"Dur\u00e1n - Yaguachi"},"arcs":[133]},{"type":"LineString","properties":{"kind":"train","network":"FEEP","sort_rank":275,"state":"connection","source":"openstreetmap.org","min_zoom":6.0,"operator":"Ferrocarriles del Ecuador Empresa Publica","ref":"Ba\u00f1os del Inca","id":-2016178,"osm_relation":true,"name":"Coyoctor - El Tambo"},"arcs":[134]}]},"pois":{"type":"GeometryCollection","geometries":[{"type":"Point","properties":{"kind":"national_park","name":"Parque Nacional Podocarpus","area":1412140000,"source":"openstreetmap.org","min_zoom":5.56,"tier":1,"id":-3723356,"osm_relation":true},"coordinates":[3873,990]},{"type":"Point","properties":{"kind":"national_park","name":"Parque Nacional Cerros de Amotape","area":959548000,"source":"openstreetmap.org","min_zoom":5.84,"tier":1,"id":-454409,"osm_relation":true},"coordinates":[2768,1136]},{"type":"Point","properties":{"kind":"national_park","name":"Parque Nacional Cajas","area":289159000,"source":"openstreetmap.org","min_zoom":6.7,"tier":1,"id":-225636,"osm_relation":true},"coordinates":[3737,2021]}]},"boundaries":{"type":"GeometryCollection","geometries":[{"type":"MultiLineString","properties":{"source":"naturalearthdata.com","kind":"country","sort_rank":262,"kind_detail":"2","min_zoom":0.0,"id":311},"arcs":[[0],[1],[2],[3],[4],[5],[6],[7],[8],[9],[10],[11],[12],[13],[14],[15]]},{"type":"MultiLineString","properties":{"source":"naturalearthdata.com","kind":"region","sort_rank":256,"kind_detail":"4","min_zoom":5.0,"id":2805},"arcs":[[16],[17],[18],[19]]},{"type":"MultiLineString","properties":{"source":"naturalearthdata.com","kind":"region","sort_rank":256,"kind_detail":"4","min_zoom":5.0,"id":2806},"arcs":[[20],[21],[22]]},{"type":"LineString","properties":{"source":"naturalearthdata.com","kind":"region","sort_rank":256,"kind_detail":"4","min_zoom":6.7,"id":4166},"arcs":[23]},{"type":"MultiLineString","properties":{"source":"naturalearthdata.com","kind":"region","sort_rank":256,"kind_detail":"4","min_zoom":6.7,"id":4174},"arcs":[[24],[25],[26],[27],[28]]},{"type":"LineString","properties":{"source":"naturalearthdata.com","kind":"region","sort_rank":256,"kind_detail":"4","min_zoom":6.7,"id":4176},"arcs":[29]},{"type":"LineString","properties":{"source":"naturalearthdata.com","kind":"region","sort_rank":256,"kind_detail":"4","min_zoom":6.7,"id":4182},"arcs":[30]},{"type":"LineString","properties":{"source":"naturalearthdata.com","kind":"region","sort_rank":256,"kind_detail":"4","min_zoom":6.7,"id":274},"arcs":[31]},{"type":"MultiLineString","properties":{"source":"naturalearthdata.com","kind":"region","sort_rank":256,"kind_detail":"4","min_zoom":5.0,"id":2808},"arcs":[[32],[33]]},{"type":"MultiLineString","properties":{"source":"naturalearthdata.com","kind":"region","sort_rank":256,"kind_detail":"4","min_zoom":6.7,"id":4133},"arcs":[[34],[35],[36],[37],[38],[39],[40]]},{"type":"MultiLineString","properties":{"source":"naturalearthdata.com","kind":"region","sort_rank":256,"kind_detail":"4","min_zoom":6.7,"id":4135},"arcs":[[41],[42]]},{"type":"MultiLineString","properties":{"source":"naturalearthdata.com","kind":"region","sort_rank":256,"kind_detail":"4","min_zoom":6.7,"id":4136},"arcs":[[43],[44]]},{"type":"LineString","properties":{"source":"naturalearthdata.com","kind":"region","sort_rank":256,"kind_detail":"4","min_zoom":6.7,"id":4137},"arcs":[45]},{"type":"LineString","properties":{"source":"naturalearthdata.com","kind":"region","sort_rank":256,"kind_detail":"4","min_zoom":6.7,"id":4138},"arcs":[46]},{"type":"LineString","properties":{"source":"naturalearthdata.com","kind":"region","sort_rank":256,"kind_detail":"4","min_zoom":6.7,"id":4142},"arcs":[47]},{"type":"MultiLineString","properties":{"source":"naturalearthdata.com","kind":"region","sort_rank":256,"kind_detail":"4","min_zoom":6.7,"id":4143},"arcs":[[48],[49],[50],[51]]},{"type":"MultiLineString","properties":{"source":"naturalearthdata.com","kind":"region","sort_rank":256,"kind_detail":"4","min_zoom":6.7,"id":4144},"arcs":[[52],[53],[54],[55],[56],[57],[58],[59],[60]]},{"type":"LineString","properties":{"source":"naturalearthdata.com","kind":"region","sort_rank":256,"kind_detail":"4","min_zoom":6.7,"id":4145},"arcs":[61]},{"type":"LineString","properties":{"source":"naturalearthdata.com","kind":"region","sort_rank":256,"kind_detail":"4","min_zoom":6.7,"id":4149},"arcs":[62]},{"type":"MultiLineString","properties":{"source":"naturalearthdata.com","kind":"region","sort_rank":256,"kind_detail":"4","min_zoom":6.7,"id":4150},"arcs":[[63],[64]]},{"type":"MultiLineString","properties":{"source":"naturalearthdata.com","kind":"region","sort_rank":256,"kind_detail":"4","min_zoom":6.7,"id":4151},"arcs":[[65],[66],[67],[68],[69]]},{"type":"LineString","properties":{"source":"naturalearthdata.com","kind":"region","sort_rank":256,"kind_detail":"4","min_zoom":6.7,"id":4152},"arcs":[70]},{"type":"MultiLineString","properties":{"source":"naturalearthdata.com","kind":"region","sort_rank":256,"kind_detail":"4","min_zoom":6.7,"id":4153},"arcs":[[71],[72]]},{"type":"MultiLineString","properties":{"source":"naturalearthdata.com","kind":"region","sort_rank":256,"kind_detail":"4","min_zoom":6.7,"id":4154},"arcs":[[73],[74],[75]]},{"type":"MultiLineString","properties":{"source":"naturalearthdata.com","kind":"region","sort_rank":256,"kind_detail":"4","min_zoom":6.7,"id":4155},"arcs":[[76],[77],[78],[79]]},{"type":"LineString","properties":{"source":"naturalearthdata.com","kind":"region","sort_rank":256,"kind_detail":"4","min_zoom":6.7,"id":4158},"arcs":[80]},{"type":"LineString","properties":{"source":"naturalearthdata.com","kind":"region","sort_rank":256,"kind_detail":"4","min_zoom":6.7,"id":4165},"arcs":[81]},{"type":"MultiLineString","properties":{"source":"naturalearthdata.com","kind":"region","sort_rank":256,"kind_detail":"4","min_zoom":6.7,"id":4179},"arcs":[[82],[83],[84],[85],[86],[87]]},{"type":"MultiLineString","properties":{"source":"naturalearthdata.com","kind":"region","sort_rank":256,"kind_detail":"4","min_zoom":6.7,"id":4172},"arcs":[[88],[89],[90],[91],[92]]},{"type":"MultiLineString","properties":{"source":"naturalearthdata.com","kind":"region","sort_rank":256,"kind_detail":"4","min_zoom":6.7,"id":4175},"arcs":[[93],[94],[95],[96],[97]]},{"type":"MultiLineString","properties":{"source":"naturalearthdata.com","kind":"region","sort_rank":256,"kind_detail":"4","min_zoom":6.7,"id":4177},"arcs":[[98],[99],[100]]},{"type":"MultiLineString","properties":{"source":"naturalearthdata.com","kind":"region","sort_rank":256,"kind_detail":"4","min_zoom":6.7,"id":4178},"arcs":[[101],[102],[103],[104],[105],[106],[107],[108],[109],[110]]},{"type":"LineString","properties":{"source":"naturalearthdata.com","kind":"region","sort_rank":256,"kind_detail":"4","min_zoom":6.7,"id":4180},"arcs":[111]},{"type":"MultiLineString","properties":{"source":"naturalearthdata.com","kind":"region","sort_rank":256,"kind_detail":"4","min_zoom":6.7,"id":4181},"arcs":[[112],[113],[114]]},{"type":"MultiLineString","properties":{"source":"naturalearthdata.com","kind":"region","sort_rank":256,"kind_detail":"4","min_zoom":6.7,"id":4183},"arcs":[[115],[116],[117],[118],[119],[120],[121],[122],[123]]},{"type":"LineString","properties":{"source":"naturalearthdata.com","kind":"region","sort_rank":256,"kind_detail":"4","min_zoom":6.7,"id":9022},"arcs":[124]},{"type":"MultiLineString","properties":{"source":"naturalearthdata.com","kind":"region","sort_rank":256,"kind_detail":"4","min_zoom":6.7,"id":9023},"arcs":[[125],[126],[127],[128]]}]},"roads":{"type":"GeometryCollection","geometries":[{"type":"LineString","properties":{"source":"naturalearthdata.com","kind":"major_road","kind_detail":"secondary","sort_rank":379,"landuse_kind":"urban_area","min_zoom":3.0,"id":41604},"arcs":[141]},{"type":"LineString","properties":{"source":"naturalearthdata.com","kind":"major_road","sort_rank":379,"kind_detail":"secondary","min_zoom":3.0,"id":41604},"arcs":[142]},{"type":"LineString","properties":{"source":"naturalearthdata.com","kind":"major_road","sort_rank":379,"kind_detail":"secondary","min_zoom":3.0,"id":41645},"arcs":[143]},{"type":"LineString","properties":{"source":"naturalearthdata.com","kind":"minor_road","kind_detail":"tertiary","sort_rank":355,"landuse_kind":"urban_area","min_zoom":6.0,"id":41709},"arcs":[144]},{"type":"LineString","properties":{"source":"naturalearthdata.com","kind":"minor_road","sort_rank":355,"kind_detail":"tertiary","min_zoom":6.0,"id":41709},"arcs":[145]},{"type":"LineString","properties":{"source":"naturalearthdata.com","kind":"minor_road","sort_rank":355,"kind_detail":"tertiary","min_zoom":6.0,"id":41767},"arcs":[146]},{"type":"LineString","properties":{"source":"naturalearthdata.com","kind":"major_road","kind_detail":"secondary","sort_rank":379,"landuse_kind":"urban_area","min_zoom":3.0,"id":41774},"arcs":[147]},{"type":"LineString","properties":{"source":"naturalearthdata.com","kind":"major_road","sort_rank":379,"kind_detail":"secondary","min_zoom":3.0,"id":41774},"arcs":[148]},{"type":"LineString","properties":{"source":"naturalearthdata.com","kind":"minor_road","kind_detail":"tertiary","sort_rank":355,"landuse_kind":"urban_area","min_zoom":6.0,"id":41777},"arcs":[149]},{"type":"MultiLineString","properties":{"source":"naturalearthdata.com","kind":"minor_road","sort_rank":355,"kind_detail":"tertiary","min_zoom":6.0,"id":41777},"arcs":[[150],[151]]},{"type":"LineString","properties":{"source":"naturalearthdata.com","kind":"minor_road","sort_rank":355,"kind_detail":"tertiary","min_zoom":6.0,"id":41784},"arcs":[152]},{"type":"LineString","properties":{"source":"naturalearthdata.com","kind":"minor_road","sort_rank":355,"kind_detail":"tertiary","min_zoom":6.0,"id":41871},"arcs":[153]},{"type":"LineString","properties":{"source":"naturalearthdata.com","kind":"minor_road","kind_detail":"tertiary","sort_rank":355,"landuse_kind":"nature_reserve","min_zoom":6.0,"id":41939},"arcs":[154]},{"type":"MultiLineString","properties":{"source":"naturalearthdata.com","kind":"minor_road","sort_rank":355,"kind_detail":"tertiary","min_zoom":6.0,"id":41939},"arcs":[[155],[156]]},{"type":"LineString","properties":{"source":"naturalearthdata.com","kind":"major_road","kind_detail":"secondary","sort_rank":379,"landuse_kind":"nature_reserve","min_zoom":3.0,"id":41949},"arcs":[157]},{"type":"MultiLineString","properties":{"source":"naturalearthdata.com","kind":"major_road","sort_rank":379,"kind_detail":"secondary","min_zoom":3.0,"id":41949},"arcs":[[158],[159]]},{"type":"LineString","properties":{"source":"naturalearthdata.com","kind":"major_road","sort_rank":379,"kind_detail":"secondary","min_zoom":3.0,"id":41978},"arcs":[160]},{"type":"LineString","properties":{"source":"naturalearthdata.com","kind":"major_road","sort_rank":379,"kind_detail":"secondary","min_zoom":3.0,"id":41981},"arcs":[161]},{"type":"LineString","properties":{"source":"naturalearthdata.com","kind":"major_road","sort_rank":379,"kind_detail":"secondary","min_zoom":3.0,"id":41994},"arcs":[162]},{"type":"LineString","properties":{"source":"naturalearthdata.com","kind":"minor_road","sort_rank":355,"kind_detail":"tertiary","min_zoom":6.0,"id":42001},"arcs":[163]},{"type":"LineString","properties":{"source":"naturalearthdata.com","kind":"minor_road","sort_rank":355,"kind_detail":"tertiary","min_zoom":6.0,"id":42010},"arcs":[164]},{"type":"LineString","properties":{"source":"naturalearthdata.com","kind":"major_road","sort_rank":379,"kind_detail":"secondary","min_zoom":3.0,"id":42013},"arcs":[165]},{"type":"LineString","properties":{"source":"naturalearthdata.com","kind":"major_road","sort_rank":379,"kind_detail":"secondary","min_zoom":3.0,"id":42045},"arcs":[166]},{"type":"MultiLineString","properties":{"source":"naturalearthdata.com","kind":"minor_road","kind_detail":"tertiary","sort_rank":355,"landuse_kind":"urban_area","min_zoom":6.0,"id":42058},"arcs":[[167],[168]]},{"type":"MultiLineString","properties":{"source":"naturalearthdata.com","kind":"minor_road","sort_rank":355,"kind_detail":"tertiary","min_zoom":6.0,"id":42058},"arcs":[[169],[170]]},{"type":"LineString","properties":{"source":"naturalearthdata.com","kind":"major_road","kind_detail":"secondary","sort_rank":379,"landuse_kind":"urban_area","min_zoom":3.0,"id":42066},"arcs":[171]},{"type":"LineString","properties":{"source":"naturalearthdata.com","kind":"major_road","sort_rank":379,"kind_detail":"secondary","min_zoom":3.0,"id":42066},"arcs":[172]},{"type":"LineString","properties":{"source":"naturalearthdata.com","kind":"major_road","kind_detail":"secondary","sort_rank":379,"landuse_kind":"urban_area","min_zoom":3.0,"id":42067},"arcs":[173]},{"type":"LineString","properties":{"source":"naturalearthdata.com","kind":"major_road","kind_detail":"secondary","sort_rank":379,"landuse_kind":"urban_area","min_zoom":3.0,"id":42067},"arcs":[174]},{"type":"LineString","properties":{"source":"naturalearthdata.com","kind":"major_road","sort_rank":379,"kind_detail":"secondary","min_zoom":3.0,"id":42067},"arcs":[175]},{"type":"LineString","properties":{"source":"naturalearthdata.com","kind":"major_road","sort_rank":379,"kind_detail":"secondary","min_zoom":3.0,"id":42071},"arcs":[176]},{"type":"LineString","properties":{"source":"naturalearthdata.com","kind":"major_road","sort_rank":379,"kind_detail":"secondary","min_zoom":3.0,"id":42073},"arcs":[177]},{"type":"LineString","properties":{"source":"naturalearthdata.com","kind":"major_road","kind_detail":"secondary","sort_rank":379,"landuse_kind":"urban_area","min_zoom":3.0,"id":42079},"arcs":[178]},{"type":"LineString","properties":{"source":"naturalearthdata.com","kind":"major_road","sort_rank":379,"kind_detail":"secondary","min_zoom":3.0,"id":42079},"arcs":[179]},{"type":"LineString","properties":{"source":"naturalearthdata.com","kind":"major_road","sort_rank":379,"kind_detail":"secondary","min_zoom":3.0,"id":42088},"arcs":[180]},{"type":"LineString","properties":{"source":"naturalearthdata.com","kind":"major_road","sort_rank":379,"kind_detail":"secondary","min_zoom":3.0,"id":42089},"arcs":[181]},{"type":"LineString","properties":{"source":"naturalearthdata.com","kind":"major_road","sort_rank":379,"kind_detail":"secondary","min_zoom":3.0,"id":42105},"arcs":[182]},{"type":"LineString","properties":{"source":"naturalearthdata.com","kind":"major_road","sort_rank":379,"kind_detail":"secondary","min_zoom":3.0,"id":42108},"arcs":[183]},{"type":"LineString","properties":{"source":"naturalearthdata.com","kind":"major_road","sort_rank":379,"kind_detail":"secondary","min_zoom":3.0,"id":42110},"arcs":[184]},{"type":"LineString","properties":{"source":"naturalearthdata.com","kind":"major_road","sort_rank":379,"kind_detail":"secondary","min_zoom":3.0,"id":42118},"arcs":[185]},{"type":"LineString","properties":{"source":"naturalearthdata.com","kind":"major_road","sort_rank":379,"kind_detail":"secondary","min_zoom":3.0,"id":42131},"arcs":[186]},{"type":"LineString","properties":{"source":"naturalearthdata.com","kind":"minor_road","kind_detail":"tertiary","sort_rank":355,"landuse_kind":"park","min_zoom":6.0,"id":42132},"arcs":[187]},{"type":"MultiLineString","properties":{"source":"naturalearthdata.com","kind":"minor_road","sort_rank":355,"kind_detail":"tertiary","min_zoom":6.0,"id":42132},"arcs":[[188],[189]]},{"type":"LineString","properties":{"source":"naturalearthdata.com","kind":"major_road","kind_detail":"secondary","sort_rank":379,"landuse_kind":"protected_area","min_zoom":3.0,"id":42167},"arcs":[190]},{"type":"LineString","properties":{"source":"naturalearthdata.com","kind":"major_road","kind_detail":"secondary","sort_rank":379,"landuse_kind":"urban_area","min_zoom":3.0,"id":42167},"arcs":[191]},{"type":"MultiLineString","properties":{"source":"naturalearthdata.com","kind":"major_road","sort_rank":379,"kind_detail":"secondary","min_zoom":3.0,"id":42167},"arcs":[[192],[193]]},{"type":"LineString","properties":{"source":"naturalearthdata.com","kind":"major_road","kind_detail":"secondary","sort_rank":379,"landuse_kind":"urban_area","min_zoom":3.0,"id":42180},"arcs":[194]},{"type":"LineString","properties":{"source":"naturalearthdata.com","kind":"major_road","sort_rank":379,"kind_detail":"secondary","min_zoom":3.0,"id":42180},"arcs":[195]},{"type":"LineString","properties":{"source":"naturalearthdata.com","kind":"major_road","kind_detail":"secondary","sort_rank":379,"landuse_kind":"urban_area","min_zoom":3.0,"id":42196},"arcs":[196]},{"type":"LineString","properties":{"source":"naturalearthdata.com","kind":"major_road","sort_rank":379,"kind_detail":"secondary","min_zoom":3.0,"id":42196},"arcs":[197]},{"type":"LineString","properties":{"source":"naturalearthdata.com","kind":"major_road","kind_detail":"secondary","sort_rank":379,"landuse_kind":"urban_area","min_zoom":3.0,"id":42198},"arcs":[198]},{"type":"LineString","properties":{"source":"naturalearthdata.com","kind":"minor_road","kind_detail":"tertiary","sort_rank":355,"landuse_kind":"protected_area","min_zoom":6.0,"id":42199},"arcs":[199]},{"type":"LineString","properties":{"source":"naturalearthdata.com","kind":"minor_road","kind_detail":"tertiary","sort_rank":355,"landuse_kind":"urban_area","min_zoom":6.0,"id":42199},"arcs":[200]},{"type":"MultiLineString","properties":{"source":"naturalearthdata.com","kind":"minor_road","sort_rank":355,"kind_detail":"tertiary","min_zoom":6.0,"id":42199},"arcs":[[201],[202]]},{"type":"LineString","properties":{"source":"naturalearthdata.com","kind":"major_road","kind_detail":"secondary","sort_rank":379,"landuse_kind":"urban_area","min_zoom":3.0,"id":42226},"arcs":[203]},{"type":"LineString","properties":{"source":"naturalearthdata.com","kind":"major_road","sort_rank":379,"kind_detail":"secondary","min_zoom":3.0,"id":42226},"arcs":[204]},{"type":"LineString","properties":{"source":"naturalearthdata.com","kind":"major_road","sort_rank":379,"kind_detail":"secondary","min_zoom":3.0,"id":42250},"arcs":[205]},{"type":"LineString","properties":{"source":"naturalearthdata.com","kind":"major_road","sort_rank":379,"kind_detail":"secondary","min_zoom":3.0,"id":42290},"arcs":[206]},{"type":"LineString","properties":{"source":"naturalearthdata.com","kind":"major_road","kind_detail":"secondary","sort_rank":379,"landuse_kind":"urban_area","min_zoom":3.0,"id":42291},"arcs":[207]},{"type":"LineString","properties":{"source":"naturalearthdata.com","kind":"major_road","sort_rank":379,"kind_detail":"secondary","min_zoom":3.0,"id":42291},"arcs":[208]},{"type":"LineString","properties":{"source":"naturalearthdata.com","kind":"major_road","sort_rank":379,"kind_detail":"secondary","min_zoom":3.0,"id":42295},"arcs":[209]},{"type":"LineString","properties":{"source":"naturalearthdata.com","kind":"minor_road","sort_rank":355,"kind_detail":"tertiary","min_zoom":6.0,"id":42306},"arcs":[210]},{"type":"LineString","properties":{"source":"naturalearthdata.com","kind":"major_road","sort_rank":379,"kind_detail":"secondary","min_zoom":3.0,"id":42348},"arcs":[211]},{"type":"LineString","properties":{"source":"naturalearthdata.com","kind":"major_road","sort_rank":379,"kind_detail":"secondary","min_zoom":3.0,"id":42361},"arcs":[212]},{"type":"LineString","properties":{"source":"naturalearthdata.com","kind":"major_road","kind_detail":"secondary","sort_rank":379,"landuse_kind":"park","min_zoom":3.0,"id":42362},"arcs":[213]},{"type":"MultiLineString","properties":{"source":"naturalearthdata.com","kind":"major_road","sort_rank":379,"kind_detail":"secondary","min_zoom":3.0,"id":42362},"arcs":[[214],[215]]},{"type":"LineString","properties":{"source":"naturalearthdata.com","kind":"major_road","kind_detail":"secondary","sort_rank":379,"landuse_kind":"urban_area","min_zoom":3.0,"id":42490},"arcs":[216]},{"type":"LineString","properties":{"source":"naturalearthdata.com","kind":"major_road","sort_rank":379,"kind_detail":"secondary","min_zoom":3.0,"id":42490},"arcs":[217]},{"type":"LineString","properties":{"source":"naturalearthdata.com","kind":"major_road","kind_detail":"secondary","sort_rank":379,"landuse_kind":"urban_area","min_zoom":3.0,"id":42491},"arcs":[218]},{"type":"LineString","properties":{"source":"naturalearthdata.com","kind":"major_road","sort_rank":379,"kind_detail":"secondary","min_zoom":3.0,"id":42491},"arcs":[219]},{"type":"LineString","properties":{"source":"naturalearthdata.com","kind":"major_road","sort_rank":379,"kind_detail":"secondary","min_zoom":3.0,"id":42507},"arcs":[220]},{"type":"LineString","properties":{"source":"naturalearthdata.com","kind":"major_road","sort_rank":379,"kind_detail":"secondary","min_zoom":3.0,"id":42539},"arcs":[221]},{"type":"LineString","properties":{"source":"naturalearthdata.com","kind":"major_road","sort_rank":379,"kind_detail":"secondary","min_zoom":3.0,"id":42573},"arcs":[222]},{"type":"LineString","properties":{"source":"naturalearthdata.com","kind":"major_road","sort_rank":379,"kind_detail":"secondary","min_zoom":3.0,"id":42578},"arcs":[223]},{"type":"LineString","properties":{"source":"naturalearthdata.com","kind":"major_road","sort_rank":379,"kind_detail":"secondary","min_zoom":3.0,"id":42612},"arcs":[224]},{"type":"LineString","properties":{"source":"naturalearthdata.com","kind":"major_road","kind_detail":"secondary","sort_rank":379,"landuse_kind":"urban_area","min_zoom":3.0,"id":42660},"arcs":[225]},{"type":"LineString","properties":{"source":"naturalearthdata.com","kind":"major_road","sort_rank":379,"kind_detail":"secondary","min_zoom":3.0,"id":42660},"arcs":[226]},{"type":"LineString","properties":{"source":"naturalearthdata.com","kind":"major_road","kind_detail":"secondary","sort_rank":379,"landuse_kind":"urban_area","min_zoom":3.0,"id":42661},"arcs":[227]},{"type":"LineString","properties":{"source":"naturalearthdata.com","kind":"major_road","kind_detail":"secondary","sort_rank":379,"landuse_kind":"urban_area","min_zoom":3.0,"id":42661},"arcs":[228]},{"type":"MultiLineString","properties":{"source":"naturalearthdata.com","kind":"major_road","sort_rank":379,"kind_detail":"secondary","min_zoom":3.0,"id":42661},"arcs":[[229],[230]]},{"type":"LineString","properties":{"source":"naturalearthdata.com","kind":"major_road","kind_detail":"secondary","sort_rank":379,"landuse_kind":"urban_area","min_zoom":3.0,"id":42663},"arcs":[231]},{"type":"LineString","properties":{"source":"naturalearthdata.com","kind":"major_road","kind_detail":"secondary","sort_rank":379,"landuse_kind":"urban_area","min_zoom":3.0,"id":42713},"arcs":[232]},{"type":"LineString","properties":{"source":"naturalearthdata.com","kind":"major_road","sort_rank":379,"kind_detail":"secondary","min_zoom":3.0,"id":42713},"arcs":[233]},{"type":"LineString","properties":{"source":"naturalearthdata.com","kind":"minor_road","kind_detail":"tertiary","sort_rank":355,"landuse_kind":"urban_area","min_zoom":6.0,"id":42714},"arcs":[234]},{"type":"LineString","properties":{"source":"naturalearthdata.com","kind":"minor_road","sort_rank":355,"kind_detail":"tertiary","min_zoom":6.0,"id":42714},"arcs":[235]},{"type":"LineString","properties":{"source":"naturalearthdata.com","kind":"major_road","kind_detail":"secondary","sort_rank":379,"landuse_kind":"urban_area","min_zoom":3.0,"id":42721},"arcs":[236]},{"type":"LineString","properties":{"source":"naturalearthdata.com","kind":"major_road","sort_rank":379,"kind_detail":"secondary","min_zoom":3.0,"id":42721},"arcs":[237]},{"type":"LineString","properties":{"source":"naturalearthdata.com","kind":"major_road","kind_detail":"secondary","sort_rank":379,"landuse_kind":"urban_area","min_zoom":3.0,"id":42724},"arcs":[238]},{"type":"LineString","properties":{"source":"naturalearthdata.com","kind":"major_road","sort_rank":379,"kind_detail":"secondary","min_zoom":3.0,"id":42724},"arcs":[239]},{"type":"LineString","properties":{"source":"naturalearthdata.com","kind":"major_road","sort_rank":379,"kind_detail":"secondary","min_zoom":3.0,"id":42732},"arcs":[240]},{"type":"LineString","properties":{"source":"naturalearthdata.com","kind":"major_road","sort_rank":379,"kind_detail":"secondary","min_zoom":3.0,"id":42850},"arcs":[241]},{"type":"LineString","properties":{"source":"naturalearthdata.com","kind":"major_road","kind_detail":"secondary","sort_rank":379,"landuse_kind":"urban_area","min_zoom":4.0,"id":42857},"arcs":[242]},{"type":"MultiLineString","properties":{"source":"naturalearthdata.com","kind":"major_road","sort_rank":379,"kind_detail":"secondary","min_zoom":4.0,"id":42857},"arcs":[[243],[244]]}]},"earth":{"type":"GeometryCollection","geometries":[{"type":"MultiPolygon","properties":{"sort_rank":10,"source":"naturalearthdata.com","min_zoom":0.0,"kind":"earth","area":180303613284},"arcs":[[[245]],[[246]],[[247]]]}]},"landuse":{"type":"GeometryCollection","geometries":[{"type":"Polygon","properties":{"source":"openstreetmap.org","kind":"nature_reserve","area":463009984,"tier":2,"id":113985413,"min_zoom":6.0,"sort_rank":23},"arcs":[[248]]},{"type":"MultiPolygon","properties":{"source":"openstreetmap.org","kind":"nature_reserve","tier":2,"area":1872953310,"sort_rank":23,"min_zoom":6.0,"osm_relation":true},"arcs":[[[249]],[[250]],[[251]],[[252]],[[253]]]},{"type":"MultiPolygon","properties":{"source":"openstreetmap.org","kind":"park","tier":2,"area":3415793540,"sort_rank":24,"min_zoom":6.0,"osm_relation":true},"arcs":[[[254]],[[255]],[[256]],[[257]],[[258]],[[259]]]},{"type":"Polygon","properties":{"kind":"national_park","area":289159008,"sort_rank":18,"source":"openstreetmap.org","min_zoom":5.0,"tier":1,"id":-225636,"osm_relation":true},"arcs":[[260]]},{"type":"MultiPolygon","properties":{"source":"naturalearthdata.com","kind":"urban_area","name":"","area":1012344324,"sort_rank":11,"min_zoom":4.0},"arcs":[[[261]],[[262]],[[263]],[[264]],[[265]],[[266]],[[267]],[[268]],[[269]],[[270]],[[271]],[[272]],[[273]],[[274]],[[275]],[[276]]]},{"type":"MultiPolygon","properties":{"source":"openstreetmap.org","kind":"national_park","tier":1,"area":2340496973,"sort_rank":18,"min_zoom":3.0,"osm_relation":true},"arcs":[[[277]],[[278]]]},{"type":"MultiPolygon","properties":{"source":"openstreetmap.org","kind":"protected_area","tier":2,"area":604312536,"sort_rank":17,"min_zoom":6.0,"osm_relation":true},"arcs":[[[279]],[[280],[281]]]},{"type":"Polygon","properties":{"kind":"nature_reserve","protect_class":"4","area":263548000,"sort_rank":23,"source":"openstreetmap.org","min_zoom":6.0,"tier":2,"id":-6554780,"osm_relation":true},"arcs":[[282]]},{"type":"Polygon","properties":{"kind":"nature_reserve","area":1371360000,"sort_rank":23,"source":"openstreetmap.org","min_zoom":4.0,"tier":2,"id":-225647,"osm_relation":true},"arcs":[[283]]},{"type":"Polygon","properties":{"kind":"park","area":5057589760,"sort_rank":24,"source":"openstreetmap.org","min_zoom":4.0,"tier":2,"id":-207400,"osm_relation":true},"arcs":[[284]]}]}},"type":"Topology","transform":{"translate":[-84.375,-5.6159858192],"scale":[0.001373291,0.0013710903]},"arcs":[[[4096,738],[-45,-18],[-30,-17],[-33,-31],[-14,-18],[-8,-21],[0,-20],[17,-32],[4,-18],[-8,-14],[-17,-4],[-19,0],[-15,-4],[-8,-12],[-8,-35],[-5,-16],[-19,-20],[-21,-17]],[[2949,1167],[15,8],[12,15],[11,17],[10,13],[57,26],[11,13],[1,7],[-5,5],[-6,4],[-7,7],[-2,7],[0,13],[-1,7],[-6,14],[-15,24],[-3,14],[1,6],[3,5],[3,6],[-1,7],[-4,14],[-1,5],[0,8],[1,6],[5,14],[1,7],[-1,8],[-4,14],[0,8],[-2,7],[-6,3],[-8,3],[-4,5],[0,5],[5,20],[2,14],[0,7],[-2,7],[-5,5],[-12,5],[-4,4],[-2,15],[5,15],[1,13],[-10,8],[-28,7],[-11,6],[-5,3]],[[2875,1192],[14,-1],[15,-4],[31,-17],[14,-3]],[[2869,1020],[-25,3],[-16,32],[0,7],[3,14],[0,7],[-4,9],[-12,17],[-4,9],[2,13],[0,1],[6,18],[9,18],[7,12],[11,7],[14,4],[15,1]],[[2888,830],[-12,5],[-32,18],[-10,9],[-7,15],[3,13],[96,128],[8,16]],[[2934,1034],[-33,-4],[-32,-10]],[[3335,825],[-28,4],[-18,19],[-15,23],[-18,17],[-19,5],[-19,0],[-19,2],[-20,11],[-15,10],[-23,26],[-13,11],[-13,5],[-15,2],[-12,4],[-4,8]],[[3084,972],[-2,-1],[-30,-3],[-8,-3],[-8,-4],[-6,-5],[-6,-10],[-7,-26],[-6,-11],[-11,-12],[-56,-43],[-30,-16],[-7,-7],[-6,0],[-13,-1]],[[3512,799],[-4,3],[-11,8],[-5,2],[-37,37],[-20,10]],[[3435,859],[-26,-4],[-26,-15],[-48,-15]],[[3710,473],[-17,5],[-10,12],[-8,15],[-9,14],[-7,4],[-14,6],[-6,4],[-4,7],[-5,14],[-4,6],[-13,10],[-15,8],[-12,10],[-5,15],[-3,14],[0,1],[-19,36],[-8,43],[-21,31],[0,16],[17,29],[2,11],[-4,7],[-15,9]],[[3530,800],[-18,-1]],[[3811,461],[-12,3],[-25,9],[-12,2]],[[3762,475],[-18,-1],[-34,-1]],[[3867,441],[-13,13],[-8,6],[-8,4],[-7,1]],[[3831,465],[-12,-3],[-8,-1]],[[2693,1024],[3,1],[5,2],[6,6],[14,18],[91,80],[1,0]],[[2413,1118],[1,-1],[47,-45],[14,-8],[35,-9]],[[2568,1059],[21,-1],[25,-6],[69,-27],[10,-1]],[[2510,1055],[58,4]],[[3667,84],[10,0],[3,15],[-6,101],[-5,7],[-6,5],[-7,3],[-5,7],[-3,10],[2,18],[-1,12],[-2,10],[-17,42],[1,10],[6,12],[19,21],[12,10],[8,11],[13,29],[8,6],[9,3],[7,2],[4,11],[3,17],[5,9],[19,19]],[[3639,89],[13,0],[8,-3],[7,-2]],[[3623,0],[1,7],[0,14],[-1,5],[-1,4],[-4,10],[-2,8],[0,4],[0,3],[2,6],[11,24],[3,2],[7,2]],[[3958,1673],[61,-43],[5,-6],[2,-5],[0,-5],[-2,-4],[-3,-4],[-8,-7],[-4,-5],[-3,-4],[-1,-5],[1,-5],[3,-10],[1,-13],[1,-7],[2,-5],[3,-4],[4,-5],[5,-5],[4,-4],[2,-5],[0,-5],[4,-4],[8,-4],[21,-3],[30,-8],[2,-1]],[[3644,1658],[-25,0],[-20,3],[-18,8]],[[3742,1572],[-15,0],[-18,8],[-9,9],[-4,10],[-2,16],[1,13],[0,8],[-5,12],[-8,7],[-8,4],[-10,1]],[[3664,1660],[-20,-2]],[[3840,1444],[-14,18],[-2,23],[0,17],[-5,14],[-22,35],[-8,16],[-5,14],[-5,5]],[[3779,1586],[-6,-2],[-20,-10],[-11,-2]],[[3564,3699],[-9,-33],[-6,-16],[-17,-32],[-8,-26],[-3,-4],[-7,-5],[-7,-2],[-7,-4],[-7,-8],[-6,-13],[-10,-50],[-14,-30]],[[3262,1875],[5,-1],[56,-3],[8,-1],[29,-9]],[[3262,1875]],[[3286,0],[-9,7],[-32,30],[-19,12],[-3,1]],[[3223,50],[-5,-3],[-3,-17],[5,-30]],[[3595,2275],[25,-1],[11,-7],[9,-10],[13,-28],[7,-7],[9,-4],[19,-2],[12,-8],[6,-7],[3,-8],[5,-7],[6,-9],[65,-67],[10,-6],[8,-3]],[[3861,2163],[9,-3],[9,-6],[11,-9],[10,-10],[20,-28],[13,-9],[17,-17],[4,-6],[3,-8],[3,-18],[5,-8],[11,-4],[27,-2]],[[3803,2101],[7,5],[2,5],[1,7],[1,6],[4,5],[6,4],[14,6],[7,5],[4,5],[1,5],[3,5],[4,4],[4,0]],[[4084,2136],[10,-1],[2,0]],[[4045,2036],[3,1],[1,5],[-2,12],[1,6],[3,6],[14,17],[3,4],[1,5],[-1,6],[-2,7],[-2,8],[2,7],[5,7],[6,6],[7,3]],[[4034,2039],[6,-1],[5,-2]],[[4003,2035],[11,0],[7,1],[7,2],[6,1]],[[3819,2489],[3,-19],[2,-5],[5,-6],[4,-3],[5,-3],[3,-2],[3,-3],[4,-11],[4,-5],[4,-4],[7,-4],[7,-6],[23,-32],[11,-11],[11,-7],[15,-6],[15,-10],[9,-5],[17,-2]],[[3971,2345],[20,2],[23,6],[26,13],[12,10],[16,17],[19,7],[9,2]],[[4060,3057],[9,-3],[10,-5],[17,-12]],[[4001,3032],[16,5],[23,15],[10,4],[10,1]],[[4011,3237],[-15,-29],[-2,-10],[-1,-28],[-3,-12],[-11,-21],[-4,-13],[-8,-37],[2,-10],[18,-26],[8,-9],[6,-10]],[[4001,3032],[0,-16],[1,-6],[4,-10],[12,-18],[3,-10],[0,-11],[-3,-18],[-1,-17],[2,-24],[-3,-20],[-7,-19],[-15,-22],[-26,-23],[-10,-3],[-26,-3],[-9,-4],[-7,-6],[-3,-6],[-3,-7],[0,-13],[-2,-32],[2,-23],[4,-16],[0,-8],[-19,-94],[1,-9],[2,-7],[4,-6],[1,-8],[-1,-8],[-3,-8],[-15,-21],[-26,-26],[-39,-21]],[[4096,3271],[-12,0],[-14,-3],[-18,-6],[-20,-17],[-21,-8]],[[3834,3256],[10,-1],[10,-1],[5,-4],[4,-5],[4,-6],[22,-14],[14,-6],[18,-5]],[[3710,3219],[33,2],[54,27],[17,5],[20,3]],[[3990,3243],[21,-6]],[[3921,3214],[16,0],[12,4],[20,17],[13,7],[8,1]],[[3710,3219],[-35,-17],[-13,-18],[-18,-28],[-11,-12],[-2,-9],[2,-5],[6,-1]],[[3668,3154],[6,-3],[6,-13],[21,-15],[1,-4],[-2,-4],[-4,-3],[-4,-2]],[[3639,3129],[6,3],[5,4],[9,14],[5,4],[4,0]],[[3692,3110],[-4,0]],[[3688,3110],[-3,-1],[-3,-4],[-2,-8],[-1,-56],[3,-16],[6,-12],[10,-10],[23,-15],[7,-7],[4,-9],[-1,-10],[-4,-10],[-3,-6],[-4,-7],[-3,-2],[-4,0]],[[3713,2937],[-4,3],[-4,1]],[[3705,2941],[-4,-1],[-20,-23],[-6,-5],[-6,-3],[-3,-3],[-2,-5],[2,-3],[5,-2],[5,-1],[4,-2],[3,-4],[3,-2]],[[3691,2888],[5,-2],[6,-8],[8,-16],[22,-32],[1,-6],[-4,-15],[1,-8],[3,-9],[5,-10],[6,-7],[3,-9],[-2,-10],[-7,-14],[-12,-49],[-4,-4],[-8,-5],[-4,-7],[1,-6],[23,-30],[26,-41],[4,-10],[0,-6],[-5,-12],[-5,-25],[-12,-22]],[[3686,2887],[5,1]],[[3710,3219],[-5,23],[-19,25],[-7,11],[0,18],[2,18],[11,51],[-2,13],[1,13],[2,13],[9,25],[7,11],[7,8],[9,6],[8,7],[20,37],[5,6],[7,6],[7,3],[6,4],[4,6],[11,19],[50,119],[8,32]],[[4096,3677],[-1,2],[-47,32],[-10,9],[-3,8],[-4,18],[-3,6],[-8,13],[-11,21],[-27,35],[-2,5],[-1,9],[-2,4],[-6,5]],[[3971,3844],[-4,-1],[-3,-2],[-2,-3],[-3,-3],[-8,-2],[-3,-1],[-3,-3],[-4,-5],[-2,-5],[-1,-6],[-2,-5],[-2,-4],[-3,-3],[-13,-5],[-3,-2],[-3,-3],[-3,-5],[-9,-21],[-7,-12],[-3,-4],[0,-3],[1,-3],[4,-4],[12,-5],[6,-5],[4,-5],[2,-6],[2,-6],[0,-4],[-3,-2],[-5,-3],[-8,-2],[-6,-3],[-3,-4],[-2,-10],[-3,-6],[-4,-6],[-7,-3],[-6,0]],[[3874,3669],[-5,2],[-5,3],[-2,2],[-11,17]],[[3602,3696],[-16,2],[-22,1]],[[3851,3693],[-13,5]],[[3838,3698],[-8,-1],[-12,-6],[-54,-54],[-8,-5],[-19,-10],[-9,-7],[-10,-9],[-8,-9],[-7,-6],[-10,-2],[-9,-1]],[[3684,3588],[-10,2],[-8,3],[-7,5],[-4,6],[-2,7],[-2,7],[2,6],[5,10],[3,8],[-2,11],[-4,12],[-1,10],[3,7],[5,5],[3,5],[-7,3],[-16,3]],[[3642,3698],[-40,-2]],[[3595,2275],[9,-19],[6,-8],[-1,-9],[-4,-7],[-16,-17],[-7,-5],[-4,-3],[-4,-3],[-4,-2],[-159,-167],[-7,-17],[-2,-19],[1,-13],[4,-20],[1,-21],[0,-6],[-39,-48],[-5,-10],[-3,-6],[-1,-14]],[[3819,2489],[-7,-15],[-3,-6],[-8,-8],[-10,-8],[-17,-9],[-17,-7],[-14,-4],[-86,-16],[-9,-4],[-10,-5],[-20,-16],[-7,-7],[-7,-10],[0,-17],[-3,-7],[-1,-5],[2,-6],[3,-5],[-1,-4],[-24,-16],[-41,-38],[1,-10],[6,-5],[11,-1]],[[3557,2260],[17,9],[21,6]],[[3819,2489],[2,30],[-3,6],[-6,5],[-7,1]],[[3805,2531],[-7,-5],[-4,-4],[-5,-3],[-8,0]],[[3781,2519],[-9,0],[-30,6]],[[3512,3485],[12,0],[9,-5],[4,-12],[-3,-23],[-12,-32],[0,-7],[3,-6],[1,-4],[-5,-6],[-5,-3],[-6,-5],[-5,-6],[-4,-8],[-2,-6],[-4,-25],[-4,-7],[-5,-5],[-6,-3],[-7,-1],[-6,-2],[-5,-4],[-3,-5],[-8,-9],[-7,-10],[-4,-5],[-12,-1],[-5,-2],[-3,-4],[-1,-9],[-2,-6],[-3,-4],[-4,-3],[-5,-1],[-3,0],[-3,-2],[-1,-4],[-1,-8],[-3,-3],[-4,-2],[-8,-2],[-3,-1],[-3,-2],[-2,-3],[-1,-5],[0,-14],[-2,-8],[-2,-7],[-41,-77],[-5,-8],[-13,-14],[-10,-14],[-3,-6],[-12,-33],[-1,-9],[-4,-46],[1,-8],[10,-32],[-1,-5],[-5,-12],[0,-9],[1,-11],[2,-7],[3,-5],[60,-31],[10,-9],[8,-15],[6,-16],[6,-12],[18,-24],[5,-9],[10,-25],[17,-30],[4,-17],[6,-6],[16,-3]],[[3463,3476],[24,6],[25,3]],[[3533,2721],[15,-2],[15,-7],[33,-23],[16,-7],[9,-6],[21,-17],[9,-9],[55,-91],[36,-34]],[[3457,2702],[26,4],[37,14],[13,1]],[[4096,1796],[-5,-3],[-27,-9],[-15,-14],[-90,-72],[-3,-7],[-1,-5],[3,-13]],[[3958,1673],[-14,-14],[-41,-23],[-13,-10],[-10,-9],[-6,-10],[-4,-7],[-1,-7],[1,-5],[4,-11],[4,-5],[2,-4],[0,-6],[-5,-14],[-1,-8],[-1,-9],[4,-26],[-8,-42],[-3,-7],[-4,-6],[-5,-2],[-5,-2],[-12,-2]],[[2810,2753],[-15,4],[-12,6],[-6,8],[-2,7],[1,7],[2,6],[2,6],[8,14],[2,4],[3,21],[-1,7],[-4,5],[-9,10],[-1,4],[0,5],[2,7],[-5,6],[-10,5],[-21,4]],[[2744,2889],[-13,-1],[-26,-8],[-14,-3]],[[2691,2877],[-52,2]],[[2639,2879],[-10,-3],[-5,-1]],[[2624,2875],[-14,2]],[[2610,2877],[-20,-4]],[[3599,4075],[-2,0],[-3,2],[-8,10],[-1,5],[1,3],[2,1]],[[3495,4087],[16,-4],[44,-6],[21,-5],[8,-3],[5,-4],[7,-5],[3,-1]],[[3480,4086],[15,1]],[[3599,4059],[2,3],[2,3],[4,2],[1,5],[-2,2],[-3,2]],[[3603,4076],[-2,-1],[-2,0]],[[3840,1444],[-15,-18],[-6,-3],[-10,-9],[-3,-4],[1,-11],[-1,-5],[-3,-4],[-4,-2],[-4,-2],[-7,0]],[[3788,1386],[-4,0]],[[3784,1386],[-4,-1],[-4,-2],[-2,-3],[-1,-5],[2,-7],[1,-6],[7,-13],[11,-23],[7,-12],[14,-16],[8,-15],[2,-7],[2,-12],[-1,-7],[-2,-8],[-7,-16],[-5,-16],[-2,-23],[1,-17],[4,-22],[-1,-10],[-11,-41],[-1,-16],[-1,-11],[2,-5],[2,-4],[2,-2],[2,-2],[3,-2],[8,-3],[3,-2],[3,-4],[2,-3],[9,-10],[1,-6],[1,-6],[1,-12],[-1,-10],[1,-19],[-5,-41],[1,-8],[1,-18],[-1,-15],[-5,-24],[-2,-6],[-3,-5],[-9,-8],[-11,-15],[-6,-11],[-4,-4],[-6,-3],[-7,-1],[-6,-2],[-4,-4],[-4,-6],[-4,-4]],[[3765,812],[-7,0],[-6,5],[-8,6],[-6,3],[-10,1],[-8,3],[-8,2]],[[3712,832],[-5,-1],[-5,-4],[-5,-9],[-4,-5],[-11,-9],[-4,-21],[1,-8],[3,-13],[-1,-8],[-4,-10],[-4,-9],[-23,-32],[-9,-10],[-25,-39],[-31,-34],[-7,-3]],[[3480,4086],[-5,-6],[-2,-6],[-1,-8],[3,-14],[3,-8],[6,-5],[6,-2],[4,-2],[6,-6],[9,-5],[6,-6],[19,-22],[18,-18],[5,-2],[26,-8],[5,-1]],[[3599,3968],[5,0],[7,-3],[3,-6],[-1,-12],[5,-131],[-3,-10],[-4,-11],[-24,-36],[-1,-17],[-1,-6],[-9,-21],[-12,-16]],[[3588,3967],[11,1]],[[3463,3476],[-47,-8],[-12,-4],[-9,-4],[-7,-7],[-28,-39],[-3,-8],[-3,-9],[-4,-7],[-11,-7],[-4,-4],[-1,-6],[1,-5],[-1,-6],[-2,-5],[-3,-7],[-6,-8],[-10,-10],[-12,-20],[-8,-10],[-38,-30],[-10,-6],[-14,-4]],[[3208,3265],[-4,1],[-1,4],[1,6],[1,6],[-3,1]],[[3202,3283],[-4,-3],[-7,-7],[-5,-11],[-5,-17],[-6,-15],[-6,-22],[-15,-40],[-6,-9],[-29,-22],[-16,-7],[-8,-7],[-5,-10],[-1,-15],[3,-17],[-2,-4],[-4,-4],[-16,-4],[-11,-8],[-5,-1],[-4,-2],[-4,-6],[-4,-8],[-3,-19],[0,-9],[2,-9],[3,-8],[8,-12],[1,-5],[-4,-7],[-25,-16],[-44,-6],[-1,-5],[4,-6],[8,-9],[9,-8],[7,-4],[8,-2],[4,-1],[2,-3],[-1,-3],[0,-6],[1,-7],[7,-21],[-3,-8],[-10,-3]],[[3231,3262],[-6,2],[-6,1]],[[3219,3265],[-11,0]],[[3015,2867],[-29,2]],[[2986,2869],[-10,-5],[-4,-5],[-4,-1]],[[2968,2858],[-5,3],[-6,4],[-5,3]],[[2952,2868],[-6,-3],[-5,-5],[-8,-13],[-4,-4],[-10,-4],[-7,-3],[-9,-7],[-6,-7],[-4,-8],[-5,-8],[-7,-7],[-5,-8],[-2,-8],[0,-7],[-1,-5],[-1,-5],[-2,-5],[-3,-4],[-6,-2],[-21,-2]],[[2840,2753],[-30,0]],[[3480,4086],[-6,10]],[[3466,1667],[-25,1],[-9,3],[-4,4],[1,6],[3,3],[14,7],[8,5],[3,7],[5,15],[16,31],[3,10],[1,11],[-1,10],[-4,10],[-28,24],[-89,47]],[[3581,1669],[-24,9],[-13,2],[-10,0]],[[3534,1680],[-26,-3],[-42,-10]],[[3564,1445],[-4,5],[-1,7],[1,9],[11,34],[-1,9],[1,17],[2,9],[5,8],[25,29],[2,4],[1,4],[0,4],[-3,5],[-4,3],[-5,2],[-5,1],[-4,3],[-4,7],[-3,12],[-1,13],[4,39]],[[3589,1321],[13,3],[10,5],[5,6],[6,8],[2,7],[1,7],[-6,20],[1,4],[4,5],[11,11],[3,5],[4,7],[3,11],[1,11],[-1,11],[-4,8],[-5,6],[-4,3],[-9,6],[-9,8],[-5,3],[-8,2]],[[3602,1478],[-6,-2],[-5,-4],[-8,-12],[-9,-9],[-6,-4],[-4,-2]],[[3472,1360],[4,-2],[5,-10],[5,-5],[12,-11],[8,-4],[12,-1]],[[3327,1298],[47,3],[15,3],[11,5],[19,22],[8,7],[22,12],[10,5],[7,4],[6,1]],[[3543,1331],[10,-2],[14,-6],[8,-1],[14,-1]],[[3518,1327],[25,4]],[[3275,1307],[14,0],[11,-3],[14,-5],[13,-1]],[[3066,1266],[10,0],[54,3],[46,10],[43,21],[14,3],[42,4]],[[2810,2753],[7,-31],[21,-34],[37,-23],[58,-14],[43,-26],[26,-25],[28,-43],[-2,-65],[-11,-73],[-33,-50],[-35,-20],[-62,-16],[-44,-32],[-52,-50]],[[3836,4096],[5,-60]],[[3970,4041],[23,-23],[69,-37],[34,-38]],[[4096,3927],[-10,-39],[-93,-9],[-22,-35]],[[3841,4036],[129,5]],[[3297,2516],[39,-3],[71,53]],[[4003,2460],[22,30]],[[3977,2253],[-8,11]],[[4003,2460],[22,30]],[[3297,2516],[39,-3],[71,53]],[[3977,2253],[-8,11]],[[3103,4096],[-8,-10],[-35,-45],[-43,-47],[-21,-15],[-17,-13],[-16,-8],[-13,12],[-9,-16],[-10,-15],[-16,-6],[-6,-11],[-6,-16],[-2,-10],[-8,-13],[-22,-34],[-24,-19],[-15,-2],[-8,-10],[9,-31],[13,-16],[11,-23],[2,-21],[8,-20],[0,-18],[6,-8],[10,-3],[10,-18],[8,-20],[10,-8],[15,0],[22,-5],[20,-5],[0,-9],[-39,1],[-19,2],[-20,9],[-10,15],[-2,19],[-9,-3],[-10,-2],[-6,-5],[-4,-4],[-9,-21],[-17,-33],[-13,-36],[-9,-47],[-3,-15],[-11,-45],[-16,-17],[-16,-15],[-18,-7],[-13,2],[-7,2],[-7,10],[-8,-3],[-5,-7],[-6,-2],[-8,-8],[-11,1],[-14,6],[2,7],[-9,-3],[-8,-3],[-11,2],[-10,-4],[-10,-6],[-10,0],[-11,3],[-8,-3],[-2,-7],[-9,-10],[-9,-10],[-6,-7],[-5,-7],[-10,-11],[-10,-8],[-9,-9],[-4,-15],[9,-21],[15,-38],[36,-62],[43,-52],[22,-30],[1,-18],[-13,-6],[-3,-10],[4,-17],[-4,-13],[-2,-14],[1,-10],[-4,-10],[-12,0],[-8,-2],[-9,-8],[-7,-6],[0,-21],[3,-17],[-25,-18],[-3,-8],[1,-11],[3,-9],[10,-13],[17,-43],[9,-13],[7,-9],[6,-11],[5,-13],[11,-31],[20,-78],[2,-18],[-2,-18],[-10,-5],[-8,-2],[-3,-8],[2,-6],[6,-22],[10,-22],[-6,-44],[-26,-29],[-28,-14],[-37,-30],[-26,-9],[-18,-1],[-10,10],[-4,12],[-3,3],[-9,0],[-19,5],[-2,2],[-2,3],[-2,3],[-6,2],[-3,-3],[2,-8],[3,-7],[3,-5],[27,-22],[10,-10],[12,-17],[6,-11],[4,-25],[5,-6],[9,-2],[12,0],[16,-6],[30,-27],[14,-6],[38,-13],[24,1],[21,-10],[24,-8],[60,-56],[77,-91],[28,-18],[7,-2],[13,-2],[4,-1],[4,-3],[10,-10],[11,-6],[30,-26],[31,-12],[17,-2],[7,6],[1,16],[-1,8],[-2,6],[-20,21],[-3,2],[-2,14],[2,13],[7,5],[11,-5],[4,-5],[2,-4],[4,-3],[7,0],[7,4],[5,7],[6,9],[23,10],[23,25],[49,69],[32,82],[6,9],[9,5],[6,1],[15,-1],[6,2],[8,8],[3,2],[7,2],[-15,-23],[-5,-6],[-8,-3],[-8,-2],[-7,-3],[-2,-9],[-4,-18],[-13,-31],[-3,-16],[4,-10],[10,3],[15,7],[16,2],[17,-16],[10,-4],[3,16],[4,-8],[1,-8],[-3,-6],[-7,-4],[-8,0],[-6,6],[-4,6],[-5,3],[-20,-2],[-7,-6],[-3,-11],[-7,-16],[-22,-14],[-9,-12],[3,-12],[10,-7],[5,-2],[16,2],[5,-2],[5,-10],[7,-3],[10,2],[26,15],[11,3],[7,5],[20,22],[5,8],[8,30],[12,142],[-2,22],[-22,38],[-5,22],[1,21],[6,29],[7,18],[1,5],[5,6],[24,2],[5,2],[1,13],[2,7],[4,3],[43,25],[-5,-16],[-12,-8],[-12,-6],[-5,-8],[-4,-17],[-9,-5],[-11,-4],[-12,-11],[6,-9],[-2,-7],[-4,-6],[-4,-8],[-1,-9],[2,-5],[2,-4],[1,-5],[3,-2],[9,-12],[1,-3],[3,-5],[-1,-9],[-4,-16],[0,-10],[5,-34],[-1,-42],[2,-11],[4,-9],[9,-14],[14,-39],[9,-14],[6,-2],[8,-1],[16,1],[2,-4],[10,-26],[5,-32],[-1,-18],[-6,-13],[-22,-22],[-8,-13],[-16,-42],[-3,-17],[-7,-16],[-1,-5],[-16,-27],[-23,-75],[-1,-12],[-10,-29],[-2,-16],[7,-13],[-6,-15],[-25,-39],[-12,-26],[-3,-28],[-4,-17],[-7,-15],[-11,-13],[-23,-14],[-7,-5],[-6,-8],[-4,-8],[-4,-8],[-8,-4],[5,35],[-4,17],[-16,3],[-8,-10],[-27,-58],[-3,-2],[-17,-20],[-7,-3],[-5,1],[-6,1],[-9,1],[-53,-11],[-10,-4],[-20,20],[-7,-11],[-4,-23],[-9,-6],[-5,15],[3,5],[7,20],[-7,-10],[-3,-10],[-5,-9],[-10,-6],[-2,-7],[1,-6],[2,-5],[-1,-7],[-3,-8],[-9,-17],[-2,-8],[-5,-13],[-12,-9],[-15,-6],[-14,-3],[-51,1],[-11,-4],[-7,-4],[-7,-1],[-6,-3],[-4,-15],[-31,-45],[-21,-20],[-115,-69],[-26,-21],[-20,-25],[-13,-26],[-5,-15],[-2,-16],[-4,-16],[-11,-10],[-30,-17],[-27,-21],[-23,-24],[-39,-59],[-12,-24],[-8,-8],[-13,-3],[-14,-5],[-10,-11],[-14,-24],[-16,-17],[-63,-43],[-9,-10],[-10,-16],[-8,-18],[-3,-14],[10,-41],[0,-17],[-10,-24],[-6,-9],[-4,-4],[-5,-3],[-8,-7],[-3,-11],[5,-14],[7,-15],[4,-13],[-1,-12],[-6,-37],[6,-16],[2,-15],[-11,-10],[-9,-5],[-3,-10],[25,-31],[58,-63],[25,-32],[12,-22],[17,-26],[23,-17],[24,-25],[15,-35],[-3,-25],[-11,-17],[-21,-1],[-12,12],[-13,-7],[-12,1],[-6,-10],[3,-16],[3,-13],[-10,-2],[-1,-10],[6,-7],[3,-9],[-6,-14],[-9,-4],[-5,-6],[-4,-8],[15,-22],[19,-21],[15,-24],[17,-12],[10,3],[16,-4],[12,-16],[68,-65],[22,-25],[37,-80],[10,-31],[-2554,0],[0,4096],[3103,0]],[[3050,1887],[14,8],[26,-2],[12,16],[4,11],[12,10],[-1,17],[10,11],[11,5],[5,12],[9,17],[9,17],[8,13],[1,1],[7,6],[6,11],[4,11],[2,4],[11,10],[2,6],[36,16],[9,7],[3,4],[3,5],[2,5],[2,6],[-32,8],[-50,31],[-33,1],[-15,-5],[-40,-20],[-44,-13],[-11,-7],[-10,-30],[-25,-45],[-2,-10],[-3,-88],[-4,-25],[4,-17],[11,-5],[17,-4],[17,-2],[13,4]],[[3325,2264],[-8,19],[-20,-35],[-15,-40],[-10,-28],[3,-17],[15,-1],[17,11],[4,32],[25,14],[15,23],[-8,15],[-18,7]],[[2554,0],[-10,31],[-37,80],[-22,25],[-68,65],[-12,16],[-16,4],[-10,-3],[-17,12],[-15,24],[-19,21],[-15,22],[4,8],[5,6],[9,4],[6,14],[-3,9],[-6,7],[1,10],[10,2],[-3,13],[-3,16],[6,10],[12,-1],[13,7],[12,-12],[21,1],[11,17],[3,25],[-15,35],[-24,25],[-23,17],[-17,26],[-12,22],[-25,32],[-58,63],[-25,31],[3,10],[9,5],[11,10],[-2,15],[-6,16],[6,37],[1,12],[-4,13],[-7,15],[-5,14],[3,11],[8,7],[5,3],[4,4],[6,9],[10,24],[0,17],[-10,41],[3,14],[8,18],[10,16],[9,10],[63,43],[16,17],[14,24],[10,11],[14,5],[13,3],[8,8],[12,24],[39,59],[23,24],[27,21],[30,17],[11,10],[4,16],[2,16],[5,15],[13,26],[20,25],[26,21],[115,69],[21,20],[31,45],[4,15],[6,3],[7,1],[7,4],[11,4],[51,-1],[14,3],[15,6],[12,9],[5,13],[2,8],[9,17],[3,8],[1,7],[-2,5],[-1,6],[2,7],[10,6],[5,9],[3,10],[7,10],[-7,-20],[-3,-5],[5,-15],[9,6],[4,23],[7,11],[20,-20],[10,4],[53,11],[9,-1],[6,-1],[5,-1],[7,3],[17,20],[3,2],[27,58],[8,10],[16,-3],[4,-17],[-5,-35],[8,4],[4,8],[4,8],[6,8],[7,5],[23,14],[11,13],[7,15],[4,17],[3,28],[12,26],[25,39],[6,15],[-7,13],[2,16],[10,29],[1,12],[23,75],[16,27],[1,5],[7,16],[3,17],[16,42],[8,13],[22,22],[6,13],[1,18],[-5,32],[-10,26],[-2,4],[-16,-1],[-8,1],[-6,2],[-9,14],[-14,39],[-9,14],[-4,9],[-2,11],[1,42],[-5,34],[0,10],[4,16],[1,9],[-3,5],[-1,3],[-9,12],[-3,2],[-1,5],[-2,4],[-2,5],[1,9],[4,8],[4,6],[2,7],[-6,9],[12,11],[11,4],[9,5],[4,17],[5,8],[12,6],[12,8],[5,16],[-43,-25],[-4,-3],[-2,-7],[-1,-13],[-5,-2],[-24,-2],[-5,-6],[-1,-5],[-7,-18],[-6,-29],[-1,-21],[5,-22],[22,-38],[2,-22],[-12,-142],[-8,-30],[-5,-8],[-20,-22],[-7,-5],[-11,-3],[-26,-15],[-10,-2],[-7,3],[-5,10],[-5,2],[-16,-2],[-5,2],[-10,7],[-3,12],[9,12],[22,14],[7,16],[3,11],[7,6],[20,2],[5,-3],[4,-6],[6,-6],[8,0],[7,4],[3,6],[-1,8],[-4,8],[-3,-16],[-10,4],[-17,16],[-16,-2],[-15,-7],[-10,-3],[-4,10],[3,16],[13,31],[4,18],[2,9],[7,3],[8,2],[8,3],[5,6],[15,23],[-7,-2],[-3,-2],[-8,-8],[-6,-2],[-15,1],[-6,-1],[-9,-5],[-6,-9],[-32,-82],[-49,-69],[-23,-25],[-23,-10],[-6,-9],[-5,-7],[-7,-4],[-7,0],[-4,3],[-2,4],[-4,5],[-11,5],[-7,-5],[-2,-13],[2,-14],[3,-2],[20,-21],[2,-6],[1,-8],[-1,-16],[-7,-6],[-17,2],[-31,12],[-30,26],[-11,6],[-10,10],[-4,3],[-4,1],[-13,2],[-7,2],[-28,18],[-77,91],[-60,56],[-24,8],[-21,10],[-24,-1],[-38,13],[-14,6],[-30,27],[-16,6],[-12,0],[-9,2],[-5,6],[-4,25],[-6,11],[-12,17],[-10,10],[-27,22],[-3,5],[-3,7],[-2,8],[3,3],[6,-2],[2,-3],[2,-3],[2,-2],[19,-5],[9,0],[3,-3],[4,-12],[10,-10],[18,1],[26,9],[37,30],[28,14],[26,29],[6,44],[-10,22],[-6,22],[-2,6],[3,8],[8,2],[10,5],[2,18],[-2,18],[-20,78],[-11,31],[-5,13],[-6,11],[-7,9],[-9,13],[-17,43],[-10,13],[-3,9],[-1,11],[3,8],[25,18],[-3,17],[0,21],[7,6],[9,8],[8,2],[12,0],[4,10],[-1,10],[2,14],[4,13],[-4,17],[3,10],[13,6],[-1,18],[-22,30],[-43,52],[-36,62],[-15,38],[-9,21],[4,15],[9,9],[10,8],[10,11],[5,7],[6,7],[9,10],[9,10],[2,7],[8,3],[11,-3],[10,0],[10,6],[10,4],[11,-2],[8,3],[9,3],[-2,-7],[14,-6],[11,-1],[8,8],[6,2],[5,7],[8,3],[7,-10],[7,-2],[13,-2],[18,7],[16,15],[16,17],[11,45],[3,15],[9,47],[13,36],[17,33],[9,21],[4,4],[6,5],[10,2],[9,3],[2,-19],[10,-15],[20,-9],[19,-2],[39,-1],[0,9],[-20,5],[-22,5],[-15,0],[-10,8],[-8,20],[-10,18],[-10,3],[-6,8],[0,18],[-8,20],[-2,21],[-11,23],[-13,16],[-9,31],[8,10],[15,2],[24,19],[22,34],[8,13],[2,10],[6,16],[6,11],[16,6],[10,15],[9,16],[13,-12],[16,8],[17,13],[21,15],[43,47],[35,45],[8,10]],[[3142,2154],[-15,-5],[-40,-20],[-44,-13],[-11,-7],[-10,-30],[-25,-45],[-2,-10],[-3,-88],[-4,-25],[4,-17],[11,-5],[17,-4],[17,-2],[13,4],[14,8],[26,-2],[12,16],[4,11],[12,10],[-1,17],[10,11],[11,5],[5,12],[9,17],[9,17],[8,13],[1,1],[7,6],[6,11],[4,11],[2,4],[11,10],[2,6],[36,16],[9,7],[3,4],[3,5],[2,5],[2,6],[-32,8],[-50,31],[-33,1]],[[3317,2283],[-20,-35],[-15,-40],[-10,-28],[3,-17],[15,-1],[17,11],[4,32],[25,14],[15,23],[-8,15],[-18,7],[-8,19]],[[3804,3908],[-4,0]],[[3992,3860],[-6,3],[-21,-3],[-15,6],[-27,-6],[-15,0],[-30,12],[-15,9],[-48,24],[-11,3]],[[4096,3770],[-8,3],[-36,45],[-24,18],[-36,24]],[[3800,3908],[-9,12],[-8,3]],[[3783,3923],[-16,6],[-24,6],[-48,-9],[-123,-21],[-12,3],[-22,9],[-24,-6],[-39,-12],[-45,-18],[-12,-9],[-21,-27],[-6,-3],[-48,6],[-15,3],[-21,-6],[-15,0],[-15,-9],[-30,-33],[-27,-12],[-24,-18],[-6,-3],[-21,3],[-9,-6],[0,-21],[6,-21],[-9,-21],[0,-24],[6,-27],[-3,-18],[-3,-12],[-12,-15],[-21,-16],[-45,-12],[-15,-21],[-33,-21],[-21,-24]],[[3010,3514],[-3,-3],[-39,-12],[-48,-30],[-30,-24],[-36,-24],[-6,-6],[12,-12],[9,-3],[12,-15],[0,-12],[15,-24]],[[3800,3908],[-23,-11]],[[3777,3897],[-7,-4],[-12,-9],[-9,-15],[-12,-18],[-9,-15],[-24,-18],[-12,-12],[-15,-21],[-15,-42],[-27,-36],[-3,-12],[0,-30],[-6,-12],[-30,-21],[-12,-15],[-18,-34],[-6,-18],[3,-30],[-3,-15],[9,-36],[-9,-21],[3,-30],[6,-45],[-6,-24],[0,-15],[3,-6]],[[2676,3388],[-2,6],[-19,3]],[[2655,3397],[-2,0]],[[2701,3331],[-12,12],[-3,24],[-10,21]],[[2845,3316],[-27,-6],[-36,6],[-33,15],[-12,0],[-27,-3],[-9,3]],[[2758,3111],[0,9],[9,21],[-6,36],[3,24],[9,37],[0,21],[-3,15],[-12,21],[-6,6],[-30,9],[-12,9],[-9,12]],[[4019,3117],[3,-33],[-3,-15],[-12,-15],[-6,-6],[-30,-6],[-15,-12],[-2,-3]],[[3954,3027],[-10,-18],[-15,-12],[-12,-15],[-3,-15],[0,-24],[3,-12]],[[4096,3156],[-8,6],[-15,3],[-24,-9],[-18,-12],[-9,-15],[-3,-12]],[[3584,3065],[-12,-8],[-3,-9],[-2,-11]],[[3567,3037],[-4,-22],[-7,-18],[-12,-21],[3,-27],[-6,-15],[-18,-24]],[[3566,3343],[18,-15],[9,-12],[3,-15],[3,-42],[3,-31],[9,-12],[-9,-42],[6,-21],[3,-30],[3,-27],[-6,-21],[-21,-9],[-3,-1]],[[4096,2846],[-17,-15]],[[3523,2910],[-6,-27],[-3,-21],[12,-22],[3,-15]],[[3529,2825],[0,-30],[3,-30]],[[3917,2931],[0,-9],[-9,-21],[-3,-39],[-12,-13],[-24,-3],[-15,-12],[-24,-15],[-30,-12],[-21,-3],[-15,0],[-27,6],[-15,-15],[-15,-12],[-18,-9],[-6,-21],[-15,-9],[-24,0],[-54,18],[-15,9],[-12,0],[-22,-3],[-9,-3]],[[3181,2717],[-30,15],[-24,3],[-36,-9],[-15,0],[-27,12],[-24,36],[-18,12],[-54,30],[-45,24],[-15,9],[-12,16],[-18,24],[-18,30],[-18,18],[-21,24],[0,12],[-18,36],[-3,33],[-9,27],[-6,18],[-12,24]],[[4079,2831],[17,-25]],[[3532,2765],[0,-15],[-12,-21],[-9,-39],[-6,-15],[-9,-12],[-24,-36],[-6,-12],[-24,-39]],[[3201,2602],[9,-40]],[[3224,2538],[2,-10]],[[3181,2717],[-3,-39],[3,-21],[6,-12],[12,-33],[2,-10]],[[3210,2562],[1,-4],[12,-18],[1,-2]],[[3334,2514],[-24,-19]],[[3442,2576],[-12,-18],[-9,-3],[-24,-6],[-24,-18],[-30,-9],[-9,-8]],[[3244,2516],[15,-6],[2,0]],[[3294,2523],[1,-1],[6,-15],[9,-12]],[[3261,2510],[28,18],[5,-5]],[[4079,2831],[-15,-21],[-6,-12],[-15,-21],[-6,-3],[-30,-6],[-6,-6],[-6,-15],[6,-21],[0,-12],[-6,-9],[0,-18],[-12,-15],[-15,-6],[-15,3],[-12,-12],[3,-12],[-12,-42],[-6,-24],[-9,-15],[-18,-6],[-21,-36],[-15,-12],[-21,-6],[-33,-19]],[[4096,2517],[-8,-4],[-24,-9],[-15,-6],[-15,-19]],[[3310,2495],[3,-2]],[[3313,2493],[12,-8],[15,-6],[36,-6],[78,-18]],[[3454,2455],[39,-3],[27,-3],[9,-3],[9,-15],[12,-9],[22,-9],[36,-15],[18,0]],[[3809,2485],[-27,-12],[-12,-12],[-6,-21],[-6,-6],[-21,-18],[-24,-6],[-30,-15],[-9,0],[-33,6],[-15,-3]],[[3626,2398],[-3,-15],[9,-12],[15,-12],[9,-15],[6,-15],[0,-9]],[[4034,2479],[-3,-12],[-15,-15],[-30,-21],[-21,-18],[-12,-21],[-9,-30],[-9,-15],[-39,-42]],[[3896,2305],[0,-9]],[[3662,2320],[-6,-6],[-15,-9],[-54,-12],[-24,-12]],[[3563,2281],[-46,-36]],[[3450,2343],[-8,-29],[3,-15],[2,-2]],[[3447,2297],[7,-7],[21,-6],[12,-6],[27,-21],[3,-12]],[[3454,2455],[6,-12],[-6,-45],[-3,-48],[-1,-7]],[[3964,2186],[1,-4],[0,-5]],[[4025,2115],[6,-15]],[[3896,2296],[6,-9],[24,-6],[18,-6],[12,-15],[3,-15],[-6,-27],[9,-18],[2,-14]],[[3965,2177],[-3,-37],[3,-6],[12,-12],[6,-4],[30,7],[12,-10]],[[4031,2100],[0,-15]],[[4031,2085],[-24,-21],[-24,-12]],[[3944,2015],[-15,-23]],[[3983,2052],[-15,-12],[-21,-21],[-3,-4]],[[3929,1992],[-3,-3]],[[3772,2090],[17,-20]],[[3901,2011],[10,-4],[15,-18]],[[3563,2281],[33,-24],[33,-27],[15,-9],[21,0],[12,-12],[12,-27],[24,-21],[9,-15],[3,-12],[12,-12],[15,-10],[20,-22]],[[3789,2070],[11,-12],[15,-12],[15,-9],[18,-30],[15,-3],[12,12],[21,-3],[5,-2]],[[3926,1989],[-18,-15],[-18,-10]],[[3890,1964],[-9,-5],[-15,-12],[-6,-15],[0,-15],[9,-21],[6,-15]],[[3875,1881],[12,-15],[6,-15],[-3,-15],[-6,-36]],[[3517,2245],[-18,-30],[-6,-9],[-30,-15],[-3,-15],[6,-24],[0,-15],[-9,-15],[-30,-22],[-12,-12],[-12,-36],[-6,-12],[3,-27],[-3,-15],[0,-36],[-9,-36],[-12,-30],[3,-18],[-12,-21],[-9,-30],[-15,-30],[-6,-30],[-18,-22],[-15,-9],[-36,-15],[-15,-12],[-6,-15],[3,-12]],[[3215,1709],[-7,15]],[[3250,1682],[-21,0],[-6,6],[-8,21]],[[3250,1682],[3,-9]],[[3875,1881],[-6,-18],[-18,-30],[-21,-24],[-54,-54],[-36,-34],[-24,-15],[-39,-18],[-15,-3],[-30,-6],[-6,-3],[-21,-21],[-12,-3],[-18,9],[-19,6],[-27,-3],[-63,-6],[-93,-3],[-81,9],[-39,9]],[[3253,1673],[3,-18],[-9,-24],[-18,-15],[-9,-30],[-9,-15],[-27,-36]],[[3184,1535],[-21,-21],[-24,-9]],[[3105,1513],[-17,4],[-33,3]],[[3055,1520],[-3,0],[-18,30],[-12,9],[-12,6],[-12,-24]],[[3139,1505],[-34,8]],[[3749,1204],[9,-30]],[[3884,1800],[-12,-33],[-6,-22],[-9,-18],[-27,-30],[-15,-9],[-21,-6],[-12,-9],[-15,-12],[3,-30],[-9,-15],[9,-9],[12,0],[12,-9],[-3,-15],[-15,-12],[-9,-15],[0,-24],[-6,-30],[0,-15],[-9,-21],[-21,-18],[-3,-6],[-6,-27],[-3,-27],[15,-31],[-3,-39],[6,-21],[0,-45],[9,-36],[3,-12]],[[3758,1174],[-2,1]],[[3756,1175],[-19,5],[-36,21],[-15,-3],[-24,-9],[-15,-3],[-27,24],[-30,9],[-6,0],[-18,-21],[-19,0],[-24,-9],[-21,3],[-15,-6]],[[3487,1186],[-12,-21],[-15,-30],[-12,-3]],[[2998,1541],[-24,0],[-12,0],[-30,0],[-30,-15],[-9,6],[-6,-9],[-12,-3],[-3,-9],[-21,-9],[-6,-9],[-9,-6],[-24,-21],[-30,-15],[-24,-6],[-15,-18],[-54,-9],[-3,-9],[-15,-15],[-31,-16],[-9,-6],[-12,-21],[-24,-21],[0,-9],[-21,-39],[0,-9],[-6,-21],[-9,-9],[-9,0],[-33,-18],[-9,-9],[-12,0],[-9,-3],[-18,-39],[-12,-6],[-6,-9],[-3,-21],[-9,-21],[-9,-6],[-18,-12],[-9,-3],[-18,-12],[0,-21],[-18,-15],[-18,-12],[-12,0],[-15,-31],[-18,-12],[-3,-6]],[[3448,1132],[-57,18],[-15,0],[-18,0],[-21,-12],[-21,-3],[-12,-15],[-3,-21],[-18,-18],[-6,0],[-6,-15],[0,-24],[-6,-15],[-12,-12],[-3,-22],[-6,-15],[-27,-21],[-3,-12],[9,-15],[-3,-18]],[[3220,912],[0,-6]],[[3118,777],[12,0],[18,12],[15,18],[12,3],[21,9],[0,24],[15,18],[0,12],[-6,9],[3,9],[9,6],[3,9]],[[2683,530],[15,5]],[[2698,535],[6,1],[12,-3],[21,6],[3,12],[-3,21],[9,18],[9,6],[6,15],[12,18],[33,31],[3,12],[15,15],[-3,9],[6,9],[6,9],[21,6],[12,-3],[18,-15],[33,0],[21,9],[12,0],[9,-6],[21,-6],[24,6],[21,0],[18,30],[15,15],[0,9],[18,15],[33,0],[9,3]],[[2683,530],[-20,4]],[[2269,740],[-1,1],[-3,9],[3,21],[6,9],[0,1]],[[2663,534],[-10,2],[-34,0],[-21,9],[-24,3],[-30,12],[-18,12],[-12,3],[-30,33],[-27,18],[-9,3],[-12,19],[-15,15],[-21,12],[-12,6],[-15,12],[-9,6],[-18,12],[-15,12],[-12,6],[-39,6],[-11,5]],[[2274,781],[0,71],[6,24],[-3,45],[3,33],[21,33]],[[2677,521],[6,9]],[[2675,521],[2,0]],[[2710,326],[-18,18],[-3,9],[3,21],[-6,21],[-3,21],[3,9],[0,42],[-18,51],[7,3]],[[2677,521],[-2,0]],[[2675,521],[-41,-3],[-21,-9],[-12,3],[-33,-6],[-24,0],[-21,-6],[-21,3],[-9,-3],[-30,-18],[-15,-15],[-6,-9],[-3,-45],[-18,-6],[-15,-18],[-30,-3],[-9,9],[-9,3],[9,-21],[18,-9],[24,-3],[30,-3],[9,-3],[12,6],[9,0],[33,-3],[21,0],[33,-6],[36,-6],[21,-6],[21,0],[43,-12],[9,-9],[24,3]],[[2719,305],[-7,15]],[[2712,320],[-2,6]],[[2740,296],[-12,3],[-9,6]],[[3046,314],[-18,12],[-9,-3],[-27,6],[-9,-3],[-33,6],[-9,6],[-24,-3],[-9,3],[-9,-6],[-42,-9],[-24,6],[-18,-12],[-18,-6],[-12,0],[-27,-18],[-18,3]],[[3130,247],[-33,34],[-6,9],[-15,12],[-18,12],[-12,0]],[[3271,0],[-6,7],[-12,6],[-24,21],[-6,9],[3,21],[-24,36],[-24,21],[0,21],[-15,30],[-9,42],[-15,27],[-9,6]],[[2707,273],[0,-15]],[[2707,258],[0,-2],[-3,-12],[-3,-33],[0,-21],[3,-21],[15,-51],[3,-30],[-3,-21],[6,-30],[15,-18],[5,-19]],[[2707,275],[0,-2]],[[4096,4096],[0,-4096],[-1542,0],[-10,31],[-37,80],[-22,25],[-68,65],[-12,16],[-16,4],[-10,-3],[-17,12],[-15,24],[-19,21],[-15,22],[4,8],[5,6],[9,4],[6,14],[-3,9],[-6,7],[1,10],[10,2],[-3,13],[-3,16],[6,10],[12,-1],[13,7],[12,-12],[21,1],[11,17],[3,25],[-15,35],[-24,25],[-23,17],[-17,26],[-12,22],[-25,32],[-58,63],[-25,31],[3,10],[9,5],[11,10],[-2,15],[-6,16],[6,37],[1,12],[-4,13],[-7,15],[-5,14],[3,11],[8,7],[5,3],[4,4],[6,9],[10,24],[0,17],[-10,41],[3,14],[8,18],[10,16],[9,10],[63,43],[16,17],[14,24],[10,11],[14,5],[13,3],[8,8],[12,24],[39,59],[23,24],[27,21],[30,17],[11,10],[4,16],[2,16],[5,15],[13,26],[20,25],[26,21],[115,69],[21,20],[31,45],[4,15],[6,3],[7,1],[7,4],[11,4],[51,-1],[14,3],[15,6],[12,9],[5,13],[2,8],[9,17],[3,8],[1,7],[-2,5],[-1,6],[2,7],[10,6],[5,9],[3,10],[7,10],[-7,-20],[-3,-5],[5,-15],[9,6],[4,23],[7,11],[20,-20],[10,4],[53,11],[9,-1],[6,-1],[5,-1],[7,3],[17,20],[3,2],[27,58],[8,10],[16,-3],[4,-17],[-5,-35],[8,4],[4,8],[4,8],[6,8],[7,5],[23,14],[11,13],[7,15],[4,17],[3,28],[12,26],[25,39],[6,15],[-7,13],[2,16],[10,29],[1,12],[23,75],[16,27],[1,5],[7,16],[3,17],[16,42],[8,13],[22,22],[6,13],[1,18],[-5,32],[-10,26],[-2,4],[-16,-1],[-8,1],[-6,2],[-9,14],[-14,39],[-9,14],[-4,9],[-2,11],[1,42],[-5,34],[0,10],[4,16],[1,9],[-3,5],[-1,3],[-9,12],[-3,2],[-1,5],[-2,4],[-2,5],[1,9],[4,8],[4,6],[2,7],[-6,9],[12,11],[11,4],[9,5],[4,17],[5,8],[12,6],[12,8],[5,16],[-43,-25],[-4,-3],[-2,-7],[-1,-13],[-5,-2],[-24,-2],[-5,-6],[-1,-5],[-7,-18],[-6,-29],[-1,-21],[5,-22],[22,-38],[2,-22],[-12,-142],[-8,-30],[-5,-8],[-20,-22],[-7,-5],[-11,-3],[-26,-15],[-10,-2],[-7,3],[-5,10],[-5,2],[-16,-2],[-5,2],[-10,7],[-3,12],[9,12],[22,14],[7,16],[3,11],[7,6],[20,2],[5,-3],[4,-6],[6,-6],[8,0],[7,4],[3,6],[-1,8],[-4,8],[-3,-16],[-10,4],[-17,16],[-16,-2],[-15,-7],[-10,-3],[-4,10],[3,16],[13,31],[4,18],[2,9],[7,3],[8,2],[8,3],[5,6],[15,23],[-7,-2],[-3,-2],[-8,-8],[-6,-2],[-15,1],[-6,-1],[-9,-5],[-6,-9],[-32,-82],[-49,-69],[-23,-25],[-23,-10],[-6,-9],[-5,-7],[-7,-4],[-7,0],[-4,3],[-2,4],[-4,5],[-11,5],[-7,-5],[-2,-13],[2,-14],[3,-2],[20,-21],[2,-6],[1,-8],[-1,-16],[-7,-6],[-17,2],[-31,12],[-30,26],[-11,6],[-10,10],[-4,3],[-4,1],[-13,2],[-7,2],[-28,18],[-77,91],[-60,56],[-24,8],[-21,10],[-24,-1],[-38,13],[-14,6],[-30,27],[-16,6],[-12,0],[-9,2],[-5,6],[-4,25],[-6,11],[-12,17],[-10,10],[-27,22],[-3,5],[-3,7],[-2,8],[3,3],[6,-2],[2,-3],[2,-3],[2,-2],[19,-5],[9,0],[3,-3],[4,-12],[10,-10],[18,1],[26,9],[37,30],[28,14],[26,29],[6,44],[-10,22],[-6,22],[-2,6],[3,8],[8,2],[10,5],[2,18],[-2,18],[-20,78],[-11,31],[-5,13],[-6,11],[-7,9],[-9,13],[-17,43],[-10,13],[-3,9],[-1,11],[3,8],[25,18],[-3,17],[0,21],[7,6],[9,8],[8,2],[12,0],[4,10],[-1,10],[2,14],[4,13],[-4,17],[3,10],[13,6],[-1,18],[-22,30],[-43,52],[-36,62],[-15,38],[-9,21],[4,15],[9,9],[10,8],[10,11],[5,7],[6,7],[9,10],[9,10],[2,7],[8,3],[11,-3],[10,0],[10,6],[10,4],[11,-2],[8,3],[9,3],[-2,-7],[14,-6],[11,-1],[8,8],[6,2],[5,7],[8,3],[7,-10],[7,-2],[13,-2],[18,7],[16,15],[16,17],[11,45],[3,15],[9,47],[13,36],[17,33],[9,21],[4,4],[6,5],[10,2],[9,3],[2,-19],[10,-15],[20,-9],[19,-2],[39,-1],[0,9],[-20,5],[-22,5],[-15,0],[-10,8],[-8,20],[-10,18],[-10,3],[-6,8],[0,18],[-8,20],[-2,21],[-11,23],[-13,16],[-9,31],[8,10],[15,2],[24,19],[22,34],[8,13],[2,10],[6,16],[6,11],[16,6],[10,15],[9,16],[13,-12],[16,8],[17,13],[21,15],[43,47],[35,45],[8,10],[993,0]],[[3102,1909],[-12,-16],[-26,2],[-14,-8],[-13,-4],[-17,2],[-17,4],[-11,5],[-4,17],[4,25],[3,88],[2,10],[25,45],[10,30],[11,7],[44,13],[40,20],[15,5],[33,-1],[50,-31],[32,-8],[-2,-6],[-2,-5],[-3,-5],[-3,-4],[-9,-7],[-36,-16],[-2,-6],[-11,-10],[-2,-4],[-4,-11],[-6,-11],[-7,-6],[-1,-1],[-8,-13],[-9,-17],[-9,-17],[-5,-12],[-11,-5],[-10,-11],[1,-17],[-12,-10],[-4,-11]],[[3307,2173],[-17,-11],[-15,1],[-3,17],[10,28],[15,40],[20,35],[8,-19],[18,-7],[8,-15],[-15,-23],[-25,-14],[-4,-32]],[[3156,1442],[51,40],[108,-25],[46,22],[4,44],[55,-6],[-49,-32],[5,-51],[-42,-59],[-86,-7],[-19,27],[-45,-21],[-28,68]],[[2401,2387],[0,177],[141,0],[0,-63],[-81,2],[-12,-4],[90,-112],[-138,0]],[[3409,2953],[16,88],[127,111],[37,-100],[-58,-39],[-26,-104],[-50,1],[-46,43]],[[3917,3106],[155,16],[19,-30],[5,22],[-1,-114],[-36,-27],[-82,-6],[2,61],[-45,-1],[-17,79]],[[3797,3332],[36,27],[-27,22],[28,52],[-11,25],[43,-54],[97,-52],[-75,-36],[-91,16]],[[3975,3827],[53,4],[2,-29],[66,-46],[0,-63],[-60,20],[-61,114]],[[3580,678],[57,34],[-9,30],[47,16],[-6,22],[-37,-4],[32,17],[-24,14],[68,26],[52,-27],[25,15],[9,-43],[-17,7],[-4,-25],[-26,5],[-8,52],[-29,7],[-11,-25],[6,-68],[32,2],[-72,-58],[52,10],[18,-25],[16,23],[12,-1],[-13,-29],[-35,-7],[22,-19],[-25,-28],[-18,34],[-33,13],[12,-27],[-44,-3],[-6,-42],[-43,104]],[[2493,889],[60,151],[97,9],[65,-36],[-19,-40],[27,-13],[2,-10],[-54,-31],[10,-66],[-167,52],[-21,-16]],[[2823,1319],[36,-3],[33,45],[105,-53],[23,92],[21,6],[28,-132],[25,-19],[-127,-89],[-65,21],[-68,59],[26,51],[-37,22]],[[3050,1442],[8,123],[14,26],[55,9],[5,-25],[-29,-3],[3,-93],[-37,-47],[-19,10]],[[3301,2312],[24,81],[8,-38],[44,-32],[25,-7],[-4,37],[52,-1],[-7,-125],[-109,-59],[-33,144]],[[2579,2980],[29,52],[43,-28],[47,18],[35,-54],[-29,-94],[-67,-1],[23,44],[-81,63]],[[3633,1992],[34,27],[-6,22],[57,10],[30,43],[63,-65],[-6,-46],[-48,0],[-18,-34],[-33,28],[0,28],[-8,8],[-38,-32],[9,23],[-36,-12]],[[2692,252],[-5,18],[33,5],[-16,-20],[-12,-3]],[[2721,290],[-17,25],[40,25],[9,-40],[-32,-10]],[[2686,510],[-23,23],[9,18],[30,-19],[-16,-22]],[[2266,738],[-39,4],[4,56],[78,-30],[-43,-30]],[[3786,1190],[-14,-40],[-33,49],[17,8],[30,-17]],[[3229,1697],[-46,37],[33,25],[21,-47],[-8,-15]],[[3949,2016],[-15,-63],[-41,0],[-16,56],[72,7]],[[4096,2026],[-29,13],[4,43],[25,-3],[0,-53]],[[4039,2082],[-24,9],[-9,24],[33,0],[0,-33]],[[2498,2489],[28,-9],[43,14],[-27,-47],[-45,12],[-49,57],[50,-27]],[[4087,2852],[-14,6],[-2,18],[25,0],[-9,-24]],[[3246,2610],[60,-20],[-34,-14],[-14,-52],[20,-110],[-89,81],[49,61],[-8,20],[-33,-24],[0,49],[49,9]],[[3302,2483],[-16,76],[35,32],[14,-79],[-33,-29]],[[2874,3314],[-33,11],[-16,29],[38,-7],[11,-33]],[[2704,3405],[-24,-18],[-57,22],[80,12],[1,-16]],[[3780,3889],[-6,20],[14,21],[19,-20],[-27,-21]],[[3784,1103],[8,68],[52,24],[48,-56],[-4,-35],[54,-16],[-27,-86],[63,-18],[40,47],[56,-20],[-60,-173],[-44,-31],[-52,24],[-53,-45],[25,126],[-20,31],[-23,-85],[-18,-24],[-26,14],[20,58],[-27,53],[15,72],[-27,72]],[[2604,1049],[185,119],[-42,93],[9,35],[62,24],[42,-22],[-31,-41],[67,-64],[-65,-57],[-12,14],[-6,-63],[46,-3],[-1,-58],[-112,-42],[-21,-32],[-29,21],[19,40],[-111,36]],[[3651,1885],[46,94],[47,-54],[20,30],[69,-13],[-77,-49],[-9,31],[-27,0],[10,-57],[-17,-12],[-62,30]],[[3764,2087],[44,15],[26,37],[-20,19],[59,38],[21,-24],[30,28],[50,-17],[-38,-22],[-6,-91],[-24,1],[7,36],[-5,10],[-4,-26],[-35,16],[36,-40],[-32,-52],[-109,72]],[[3878,2061],[12,4],[-3,4],[-9,-8]],[[3989,720],[36,28],[29,54],[21,12],[7,18],[6,0],[8,-113],[-83,-41],[-24,42]],[[3829,3524],[41,35],[9,27],[-27,17],[38,40],[-50,55],[134,124],[122,-107],[0,-146],[-45,93],[-49,-14],[-42,43],[-17,-57],[24,-97],[-43,-87],[11,-23],[-53,-2],[-53,99]],[[3947,2317],[149,69],[0,-168],[-42,21],[21,37],[-89,-2],[-39,43]]]}