{"objects":{"water":{"type":"GeometryCollection","geometries":[{"type":"Polygon","properties":{"source":"naturalearthdata.com","kind":"lake","name":"Shijiu Hu","area":429991552,"sort_rank":200,"min_zoom":0.0,"id":585},"arcs":[[27]]},{"type":"MultiPolygon","properties":{"sort_rank":200,"source":"naturalearthdata.com","min_zoom":0.0,"kind":"lake","area":478500697},"arcs":[[[28]],[[29]]]},{"type":"Point","properties":{"label_placement":true,"kind":"lake","name":"Shijiu Hu","area":429991552,"sort_rank":200,"source":"naturalearthdata.com","min_zoom":0.0,"id":585},"coordinates":[2173,2482]},{"type":"LineString","properties":{"source":"naturalearthdata.com","kind":"lake","sort_rank":367,"boundary":true,"min_zoom":0.0,"id":585},"arcs":[30]},{"type":"LineString","properties":{"source":"naturalearthdata.com","kind":"lake","sort_rank":367,"boundary":true,"min_zoom":0.0,"id":658},"arcs":[31]},{"type":"LineString","properties":{"source":"naturalearthdata.com","kind":"lake","sort_rank":367,"boundary":true,"min_zoom":0.0,"id":723},"arcs":[32]}]},"buildings":{"type":"GeometryCollection","geometries":[]},"places":{"type":"GeometryCollection","geometries":[{"type":"Point","properties":{"admin_level":"5","name:pt":"Wuhu","name:ja":"\u856a\u6e56\u5e02","name:ko":"\uc6b0\ud6c4 \uc2dc","name:sv":"Wuhu","name:eo":"Vu\u0125u","min_zoom":8.0,"name:ru":"\u0423\u0445\u0443","name:vi":"Vu H\u1ed3","id":244082212,"population":3670000,"kind":"locality","name:en":"Wuhu","name":"\u829c\u6e56\u5e02","kind_detail":"city","name:de":"Wuhu","source":"openstreetmap.org","name:fr":"Wuhu","name:zh":"W\u00fah\u00fa Sh\u00ec","name:es":"Wuhu"},"coordinates":[881,2054]},{"type":"Point","properties":{"admin_level":"5","kind":"locality","name:en":"Xuancheng","name":"\u5ba3\u57ce\u5e02","kind_detail":"city","min_zoom":8.0,"name:de":"Xuancheng","source":"openstreetmap.org","name:fr":"Xuancheng","int_name":"Xuancheng","name:vi":"Tuy\u00ean Th\u00e0nh","name:ru":"\u0421\u044e\u0430\u043d\u044c\u0447\u044d\u043d","name:zh":"Xu\u0101nch\u00e9ng Sh\u00ec","id":244082469,"population":2601000},"coordinates":[1832,648]},{"type":"Point","properties":{"admin_level":"5","name:pt":"Ma'anshan","name:ja":"\u99ac\u978d\u5c71\u5e02","name:ko":"\ub9c8\uc548\uc0b0 \uc2dc","name:sv":"Ma'anshan","name:ar":"\u0645\u0627\u0646\u0634\u0627\u0646","kind":"locality","min_zoom":8.0,"name:vi":"M\u00e3 An S\u01a1n","name:ru":"\u041c\u0430\u0430\u043d\u044c\u0448\u0430\u043d\u044c","id":244081289,"population":2304774,"name:eo":"Maan\u015dan","name:en":"Ma'anshan","name":"\u9a6c\u978d\u5c71\u5e02","source":"openstreetmap.org","kind_detail":"city","name:de":"Ma'anshan","alt_name:vi":"M\u00e3 Y\u00ean S\u01a1n","name:fr":"Ma'anshan","name:zh":"M\u01ce'\u0101nsh\u0101n Sh\u00ec","name:es":"Ma'anshan"},"coordinates":[1106,3190]},{"type":"Point","properties":{"admin_level":"6","name:pt":"Fanchang","name:ja":"\u7e41\u660c\u770c","name:ko":"\ud310\ucc3d \ud604","name:eo":"Fanchang","min_zoom":8.0,"name:sv":"Fanchang","name:vi":"Ph\u1ed3n X\u01b0\u01a1ng","id":244078987,"population":257764,"kind":"locality","name:en":"Fanchang","name":"\u7e41\u660c\u53bf","kind_detail":"city","name:de":"Fanchang","source":"openstreetmap.org","name:fr":"Fanchang","name:zh":"Fanchang Xian","name:es":"Fanchang"},"coordinates":[219,1140]},{"type":"Point","properties":{"kind":"locality","name:en":"Licheng Town","name":"\u6ea7\u57ce\u9547","kind_detail":"town","source":"openstreetmap.org","min_zoom":8.0,"id":3411084243,"population":181000},"coordinates":[3975,2321]},{"type":"Point","properties":{"admin_level":"6","name:pt":"Bowang","name:ko":"\ubcf4\uc655 \uad6c","name:eo":"Bowang","min_zoom":8.0,"name:sv":"Bowang","name:vi":"B\u00e1c V\u1ecdng","id":2003143522,"population":175000,"kind":"locality","name:en":"Bowang","name":"\u535a\u671b\u533a","kind_detail":"city","name:de":"Bowang","source":"openstreetmap.org","name:fr":"Bowang","name:es":"Bowang"},"coordinates":[2093,2775]},{"type":"Point","properties":{"admin_level":"8","kind":"locality","name:en":"Jishan","name":"\u7c4d\u5c71\u9547","kind_detail":"town","source":"openstreetmap.org","min_zoom":8.0,"id":4866234490,"population":143149},"coordinates":[618,554]},{"type":"Point","properties":{"admin_level":"8","kind":"locality","name:en":"Gushu","name":"\u59d1\u5b70\u9547","kind_detail":"town","source":"openstreetmap.org","min_zoom":8.0,"id":4855670544,"population":130000},"coordinates":[1087,2778]},{"type":"Point","properties":{"admin_level":"8","kind":"locality","name:en":"Wanzhi","name":"\u6e7e\u6c9a\u9547","kind_detail":"town","source":"openstreetmap.org","min_zoom":8.0,"id":4866234491,"population":109000},"coordinates":[1295,1275]},{"type":"Point","properties":{"admin_level":"8","kind":"locality","name:en":"Fanyang","name":"\u7e41\u9633\u9547","kind_detail":"town","source":"openstreetmap.org","min_zoom":8.0,"name:zh":"f\u00e1ny\u00e1ng zh\u00e8n","id":2353102171,"population":102000},"coordinates":[207,1140]},{"type":"Point","properties":{"admin_level":"8","kind":"locality","name:en":"Liyang","name":"\u5386\u9633\u9547","kind_detail":"town","source":"openstreetmap.org","min_zoom":8.0,"id":4621672697,"population":76759},"coordinates":[673,3309]},{"type":"Point","properties":{"kind":"locality","name:en":"Nandu","name":"\u5357\u6e21\u9547","kind_detail":"town","source":"openstreetmap.org","min_zoom":8.0,"name:vi":"Nam \u0110\u1ed9","name:zh":"Nandu Zhen","id":244084583,"population":24000},"coordinates":[3507,2353]},{"type":"Point","properties":{"kind":"locality","name:en":"Daibu Town","name":"\u6234\u57e0\u9547","kind_detail":"town","source":"openstreetmap.org","min_zoom":8.0,"id":3411084244,"population":13000},"coordinates":[4004,1905]},{"type":"Point","properties":{"kind":"locality","name:en":"Shezhu Town","name":"\u793e\u6e1a\u9547","kind_detail":"town","source":"openstreetmap.org","min_zoom":8.0,"id":3411084246,"population":12000},"coordinates":[3340,1939]},{"type":"Point","properties":{"kind":"locality","name:en":"Bieqiao","name":"\u522b\u6865\u9547","kind_detail":"town","source":"openstreetmap.org","min_zoom":8.0,"name:vi":"Bi\u1ec7t Ki\u1ec1u","name:zh":"Bieqiao Zhen","id":244084614,"population":9300},"coordinates":[3898,2751]},{"type":"Point","properties":{"kind":"locality","name:en":"Shangpei","name":"\u4e0a\u6c9b","kind_detail":"town","source":"openstreetmap.org","min_zoom":8.0,"id":3411084251,"population":9000},"coordinates":[3183,2465]},{"type":"Point","properties":{"kind":"locality","name:en":"Shangxing","name":"\u4e0a\u5174\u9547","kind_detail":"town","source":"openstreetmap.org","min_zoom":8.0,"name:vi":"Th\u01b0\u1ee3ng H\u01b0ng","name:zh":"Shangxing Zhen","id":244084585,"population":9000},"coordinates":[3283,2646]},{"type":"Point","properties":{"kind":"locality","name:en":"Zhuze","name":"\u7af9\u7ba6\u9547","kind_detail":"town","source":"openstreetmap.org","min_zoom":8.0,"name:vi":"Tr\u00fac Tr\u00e1ch","name:zh":"Zhuze Zhen","id":244084601,"population":9000},"coordinates":[3499,2758]},{"type":"Point","properties":{"kind":"locality","name:en":"Tianmuhu Town","name":"\u5929\u76ee\u6e56\u9547","kind_detail":"town","source":"openstreetmap.org","min_zoom":8.0,"id":3411084245,"population":9000},"coordinates":[3832,1957]},{"type":"Point","properties":{"kind":"locality","name:en":"Zhoucheng","name":"\u5468\u57ce","kind_detail":"town","source":"openstreetmap.org","min_zoom":8.0,"name:vi":"Chu Th\u00e0nh","id":244084598,"population":8000},"coordinates":[3502,2055]},{"type":"Point","properties":{"kind":"locality","name:en":"Qianma","name":"\u524d\u9a6c","kind_detail":"town","source":"openstreetmap.org","min_zoom":8.0,"id":3411084250,"population":8000},"coordinates":[3648,2545]},{"type":"Point","properties":{"kind":"locality","name:en":"Daitou","name":"\u57ed\u5934\u9547","kind_detail":"town","source":"openstreetmap.org","min_zoom":8.0,"name:vi":"\u0110\u1ea1i \u0110\u1ea7u","name:zh":"Daitou Zhen","id":244084605,"population":6600},"coordinates":[4058,2537]},{"type":"Point","properties":{"kind":"locality","name:en":"Houzhou","name":"\u540e\u5468","kind_detail":"town","source":"openstreetmap.org","min_zoom":8.0,"id":3411084252,"population":5000},"coordinates":[3652,2789]}]},"transit":{"type":"GeometryCollection","geometries":[{"type":"MultiLineString","properties":{"kind":"subway","name:en":"Nanjing Metro Line 1: China Pharmaceutical University (CPU) => Maigaoqiao","name":"\u5357\u4eac\u5730\u94c11\u53f7\u7ebf: \u4e2d\u56fd\u836f\u79d1\u5927\u5b66 => \u8fc8\u768b\u6865","sort_rank":275,"colour":"#0000FF","source":"openstreetmap.org","min_zoom":8.0,"name:ja":"\u5357\u4eac\u5730\u4e0b\u92441\u53f7\u7dda","ref":"Line 1","osm_relation":true,"colour_name":"blue"},"arcs":[[9],[10]]},{"type":"MultiLineString","properties":{"distance":"813","kind":"train","name:en":"Hefei-Fuzhou PDL","name":"\u5408\u798f\u5ba2\u8fd0\u4e13\u7ebf","sort_rank":275,"source":"openstreetmap.org","min_zoom":6.0,"osm_relation":true,"network":"CN-railway"},"arcs":[[11],[12],[13],[14],[15]]},{"type":"LineString","properties":{"kind":"train","name:en":"Nanjing\u2013Hangzhou Passenger Railway","network":"CN-railway","sort_rank":275,"source":"openstreetmap.org","min_zoom":6.0,"osm_relation":true,"name":"\u5b81\u676d\u5ba2\u8fd0\u4e13\u7ebf"},"arcs":[16]},{"type":"LineString","properties":{"kind":"train","name:en":"Huainan Railway","network":"CN-railway","sort_rank":275,"source":"openstreetmap.org","min_zoom":6.0,"id":-305475,"osm_relation":true,"name":"\u6dee\u5357\u94c1\u8def"},"arcs":[17]},{"type":"MultiLineString","properties":{"kind":"train","name:en":"Beijing South-Shanghai Hongqiao High-speed Railway","network":"CN-railway","sort_rank":275,"name:de":"Schnellfahrstrecke Peking S\u00fcd\u2013Shanghai Hongqiao","source":"openstreetmap.org","min_zoom":6.0,"osm_relation":true,"name":"\u4eac\u6caa\u9ad8\u901f\u94c1\u8def"},"arcs":[[18],[19],[20]]},{"type":"MultiLineString","properties":{"kind":"subway","name:en":"Nanjing Metro Line 1: Maigaoqiao => China Pharmaceutical University (CPU)","name:ja":"\u5357\u4eac\u5730\u4e0b\u92441\u53f7\u7dda","sort_rank":275,"colour":"#0000FF","name":"\u5357\u4eac\u5730\u94c11\u53f7\u7ebf: \u8fc8\u768b\u6865 => \u4e2d\u56fd\u836f\u79d1\u5927\u5b66","source":"openstreetmap.org","min_zoom":8.0,"ref":"Line 1","osm_relation":true,"colour_name":"blue"},"arcs":[[21],[22]]},{"type":"LineString","properties":{"kind":"subway","name:en":"Nanjing Metro Line 3","name":"\u5357\u4eac\u5730\u94c13\u53f7\u7ebf","sort_rank":275,"source":"openstreetmap.org","min_zoom":8.0,"ref":"Line 3","id":-5454532,"osm_relation":true,"name:ja":"\u5357\u4eac\u5730\u4e0b\u92443\u53f7\u7dda"},"arcs":[23]},{"type":"MultiLineString","properties":{"kind":"train","name:en":"Hefei-Nanjing PDL","network":"CN-railway","sort_rank":275,"source":"openstreetmap.org","min_zoom":6.0,"alt_name:en":"Hefei\u2013Nanjing Railway","osm_relation":true,"name":"\u5408\u5b81\u5ba2\u8fd0\u4e13\u7ebf"},"arcs":[[24],[25],[26]]}]},"pois":{"type":"GeometryCollection","geometries":[{"type":"Point","properties":{"kind":"nature_reserve","name:en":"Nature Reserve of Shijiu Lake","name":"\u77f3\u81fc\u6e56\u7701\u7ea7\u81ea\u7136\u4fdd\u62a4\u533a","area":302443000,"source":"openstreetmap.org","min_zoom":8.17,"tier":2,"id":496644915},"coordinates":[2186,2463]}]},"boundaries":{"type":"GeometryCollection","geometries":[{"type":"LineString","properties":{"int_name:right":"Anhui","name:right:fr":"Anhui","int_name:left":"Jiangsu","name:left:ja":"\u6c5f\u8607\u7701","id:right":-913011,"min_zoom":8.0,"id:left":-913012,"name:left:ru":"\u0426\u0437\u044f\u043d\u0441\u0443","name:right:vi":"An Huy","id":-913012,"osm_relation":true,"name:right":"\u5b89\u5fbd\u7701","kind":"region","name":"\u6c5f\u82cf\u7701 - \u5b89\u5fbd\u7701","source":"openstreetmap.org","sort_rank":256,"kind_detail":"4","name:right:ru":"\u0410\u043d\u044c\u0445\u043e\u0439","name:left:de":"Jiangsu","name:right:en":"Anhui","name:left:en":"Jiangsu","name:left:fr":"Jiangsu","name:right:de":"Anhui","name:right:zh":"\u0100nhu\u012b","name:left:vi":"Giang T\u00f4","name:left":"\u6c5f\u82cf\u7701"},"arcs":[0]},{"type":"LineString","properties":{"int_name:right":"Zhejiang","name:right:fr":"Zhejiang","int_name:left":"Anhui","id:left":-913011,"id:right":-553302,"min_zoom":8.0,"name:left:ru":"\u0410\u043d\u044c\u0445\u043e\u0439","name:right:pt":"Chequi\u00e3o","name:right:vi":"Chi\u1ebft Giang","name:right:eo":"\u011ce\u011django","id":-913011,"osm_relation":true,"name:right":"\u6d59\u6c5f\u7701","kind":"region","name":"\u5b89\u5fbd\u7701 - \u6d59\u6c5f\u7701","source":"openstreetmap.org","sort_rank":256,"kind_detail":"4","name:right:ru":"\u0427\u0436\u044d\u0446\u0437\u044f\u043d","name:left:de":"Anhui","name:right:en":"Zhejiang","name:left:en":"Anhui","name:left:zh":"\u0100nhu\u012b","name:left:fr":"Anhui","name:right:de":"Zhejiang","name:right:zh":"Zh\u00e8ji\u0101ng","name:left:vi":"An Huy","name:left":"\u5b89\u5fbd\u7701"},"arcs":[1]},{"type":"MultiLineString","properties":{"kind":"region","name:en":"Anhui","name":"\u5b89\u5fbd\u7701","sort_rank":256,"kind_detail":"4","min_zoom":8.0,"name:de":"Anhui","source":"openstreetmap.org","name:fr":"Anhui","int_name":"Anhui","name:vi":"An Huy","name:ru":"\u0410\u043d\u044c\u0445\u043e\u0439","name:zh":"\u0100nhu\u012b","id":-913011,"osm_relation":true},"arcs":[[2],[3],[4],[5],[6],[7],[8]]}]},"roads":{"type":"GeometryCollection","geometries":[{"type":"LineString","properties":{"kind":"major_road","network":null,"sort_rank":380,"kind_detail":"primary","source":"openstreetmap.org","min_zoom":8.0,"shield_text":"337","id":182562114},"arcs":[33]},{"type":"LineString","properties":{"source":"openstreetmap.org","kind":"major_road","name:en":"Yongping Avenue","sort_rank":380,"kind_detail":"primary","min_zoom":8.0,"id":374850802},"arcs":[34]},{"type":"MultiLineString","properties":{"kind":"highway","name:en":"Wuxuan Expressway","network":"CN-expressways","sort_rank":383,"kind_detail":"motorway","source":"openstreetmap.org","min_zoom":8.0,"all_networks":["CN-expressways"],"shield_text":"5011","ref":"G5011","all_shield_texts":["5011"]},"arcs":[[35],[36]]},{"type":"LineString","properties":{"bus_network":null,"sort_rank":380,"kind_detail":"primary","kind":"major_road","source":"openstreetmap.org","min_zoom":8.0,"bus_shield_text":"\u5b89\u4e39","landuse_kind":"urban_area"},"arcs":[37]},{"type":"MultiLineString","properties":{"source":"openstreetmap.org","kind":"highway","sort_rank":383,"kind_detail":"motorway","ref":"S32","min_zoom":8.0},"arcs":[[38],[39],[40],[41],[42],[43],[44]]},{"type":"MultiLineString","properties":{"source":"openstreetmap.org","kind":"major_road","landuse_kind":"urban_area","sort_rank":380,"kind_detail":"primary","ref":"S243","min_zoom":8.0},"arcs":[[45],[46]]},{"type":"MultiLineString","properties":{"kind":"major_road","network":"CN-roads","sort_rank":381,"kind_detail":"trunk","source":"openstreetmap.org","min_zoom":8.0,"shield_text":"104","ref":"G104"},"arcs":[[47],[48],[49],[50],[51],[52],[53],[54],[55],[56],[57],[58],[59],[60],[61],[62],[63]]},{"type":"LineString","properties":{"kind":"major_road","name:en":"Highway 104","network":"CN-roads","sort_rank":381,"kind_detail":"trunk","bus_network":null,"source":"openstreetmap.org","min_zoom":8.0,"bus_shield_text":"\u91d1\u6c64","shield_text":"104","landuse_kind":"urban_area","ref":"G104","id":341101693},"arcs":[64]},{"type":"MultiLineString","properties":{"source":"openstreetmap.org","kind":"major_road","kind_detail":"trunk","sort_rank":381,"landuse_kind":"urban_area","ref":"S320; G205","min_zoom":8.0},"arcs":[[65],[66]]},{"type":"MultiLineString","properties":{"kind":"major_road","network":null,"sort_rank":380,"kind_detail":"primary","source":"openstreetmap.org","min_zoom":8.0,"shield_text":"337","ref":"S337"},"arcs":[[67],[68],[69],[70]]},{"type":"LineString","properties":{"kind":"major_road","name:en":"Nangang Bridge","network":"CN-roads","sort_rank":381,"kind_detail":"trunk","source":"openstreetmap.org","min_zoom":8.0,"landuse_kind":"urban_area","shield_text":"104","ref":"G104","id":338127144},"arcs":[71]},{"type":"LineString","properties":{"kind":"major_road","sort_rank":380,"landuse_kind":"urban_area","source":"openstreetmap.org","min_zoom":8.0,"kind_detail":"primary","ref":"S206","id":249666624},"arcs":[72]},{"type":"MultiLineString","properties":{"kind":"major_road","name:en":"Jiuzhou Avenue","sort_rank":380,"kind_detail":"primary","source":"openstreetmap.org","min_zoom":8.0,"name:zh":"Ji\u01d4zh\u014du D\u00e0d\u00e0o","ref":"S104"},"arcs":[[73],[74],[75],[76]]},{"type":"MultiLineString","properties":{"source":"openstreetmap.org","kind":"highway","sort_rank":383,"kind_detail":"motorway","ref":"G42S","min_zoom":8.0},"arcs":[[77],[78],[79],[80],[81],[82],[83],[84],[85],[86]]},{"type":"LineString","properties":{"kind":"major_road","name:en":"Dacheng Bridge","sort_rank":380,"kind_detail":"primary","source":"openstreetmap.org","min_zoom":8.0,"landuse_kind":"urban_area","ref":"S239","id":226905687},"arcs":[87]},{"type":"MultiLineString","properties":{"kind":"highway","network":"CN-expressways","sort_rank":383,"kind_detail":"motorway","source":"openstreetmap.org","min_zoom":8.0,"all_networks":["CN-expressways"],"shield_text":"25","ref":"G25","all_shield_texts":["25"]},"arcs":[[88],[89]]},{"type":"LineString","properties":{"sort_rank":355,"landuse_kind":"urban_area","min_zoom":8.0,"kind":"ferry","source":"openstreetmap.org"},"arcs":[90]},{"type":"MultiLineString","properties":{"source":"openstreetmap.org","kind":"major_road","name:en":"Zhuangyuan Bridge","landuse_kind":"urban_area","sort_rank":380,"kind_detail":"primary","min_zoom":8.0},"arcs":[[91],[92]]},{"type":"MultiLineString","properties":{"kind":"highway","name:en":"Ningma Expressway","network":"CN-expressways","sort_rank":383,"landuse_kind":"urban_area","source":"openstreetmap.org","min_zoom":8.0,"all_networks":["CN-expressways"],"kind_detail":"motorway","shield_text":"4211","ref":"G4211","all_shield_texts":["4211"]},"arcs":[[93],[94],[95],[96],[97],[98]]},{"type":"MultiLineString","properties":{"kind":"major_road","name:en":"Yongping Avenue","network":"CN-roads","sort_rank":381,"kind_detail":"trunk","source":"openstreetmap.org","min_zoom":8.0,"shield_text":"104","ref":"G104"},"arcs":[[99],[100],[101],[102],[103],[104],[105]]},{"type":"LineString","properties":{"kind":"major_road","network":null,"sort_rank":380,"kind_detail":"primary","source":"openstreetmap.org","min_zoom":8.0,"landuse_kind":"urban_area","shield_text":"337","ref":"S337","id":315665753},"arcs":[106]},{"type":"MultiLineString","properties":{"source":"openstreetmap.org","kind":"highway","landuse_kind":"urban_area","sort_rank":383,"kind_detail":"motorway","ref":"S68","min_zoom":8.0},"arcs":[[107],[108]]},{"type":"MultiLineString","properties":{"source":"openstreetmap.org","kind":"major_road","landuse_kind":"urban_area","sort_rank":380,"kind_detail":"primary","ref":"S321","min_zoom":8.0},"arcs":[[109],[110],[111],[112],[113]]},{"type":"MultiLineString","properties":{"bus_network":null,"sort_rank":381,"landuse_kind":"urban_area","kind":"major_road","source":"openstreetmap.org","min_zoom":8.0,"bus_shield_text":"\u5b89\u94dc","kind_detail":"trunk","ref":"S123"},"arcs":[[114],[115],[116]]},{"type":"MultiLineString","properties":{"source":"openstreetmap.org","kind":"major_road","landuse_kind":"urban_area","sort_rank":380,"kind_detail":"primary","ref":"S241","min_zoom":8.0},"arcs":[[117],[118],[119]]},{"type":"MultiLineString","properties":{"sort_rank":380,"kind_detail":"primary","min_zoom":8.0,"kind":"major_road","source":"openstreetmap.org"},"arcs":[[120],[121],[122],[123],[124],[125],[126],[127],[128],[129],[130],[131],[132],[133],[134],[135],[136],[137],[138],[139],[140],[141],[142],[143],[144],[145],[146],[147],[148],[149],[150],[151],[152],[153],[154],[155],[156],[157],[158],[159],[160],[161],[162],[163],[164],[165],[166],[167],[168],[169],[170],[171],[172],[173],[174],[175],[176],[177],[178],[179],[180],[181],[182],[183],[184],[185],[186],[187],[188],[189],[190],[191],[192],[193],[194],[195],[196],[197],[198],[199],[200],[201],[202],[203],[204],[205],[206],[207],[208],[209],[210],[211],[212],[213],[214],[215],[216],[217],[218],[219],[220],[221],[222],[223],[224],[225],[226],[227],[228],[229],[230],[231],[232],[233],[234],[235],[236],[237],[238],[239],[240],[241],[242],[243],[244],[245],[246],[247],[248],[249],[250],[251],[252],[253],[254],[255],[256],[257],[258],[259],[260],[261],[262],[263],[264],[265],[266],[267],[268],[269],[270],[271],[272],[273],[274],[275],[276],[277],[278],[279],[280],[281],[282],[283],[284],[285],[286],[287],[288],[289],[290],[291],[292],[293],[294],[295],[296],[297],[298],[299],[300],[301],[302],[303],[304],[305],[306],[307],[308],[309],[310],[311],[312],[313],[314],[315],[316],[317],[318],[319],[320],[321],[322],[323],[324],[325],[326],[327],[328],[329],[330],[331],[332],[333],[334],[335],[336],[337],[338],[339],[340],[341],[342],[343],[344],[345],[346],[347],[348],[349]]},{"type":"MultiLineString","properties":{"kind":"highway","name:en":"Nanjing Ring Highway","network":"AsianHighway","sort_rank":383,"landuse_kind":"urban_area","source":"openstreetmap.org","min_zoom":8.0,"all_networks":["AsianHighway","CN-expressways"],"kind_detail":"motorway","shield_text":"5","ref":"G42;S001","all_shield_texts":["5","42"]},"arcs":[[350],[351]]},{"type":"LineString","properties":{"kind":"major_road","name:en":"Leye Bridge","sort_rank":380,"landuse_kind":"urban_area","source":"openstreetmap.org","min_zoom":8.0,"kind_detail":"primary","id":338076336},"arcs":[352]},{"type":"LineString","properties":{"kind":"major_road","name:en":"Yanshanhe Bridge","sort_rank":380,"kind_detail":"primary","source":"openstreetmap.org","min_zoom":8.0,"ref":"S241","id":338076346},"arcs":[353]},{"type":"MultiLineString","properties":{"source":"openstreetmap.org","kind":"highway","sort_rank":383,"kind_detail":"motorway","ref":"S28","min_zoom":8.0},"arcs":[[354],[355],[356],[357]]},{"type":"MultiLineString","properties":{"source":"openstreetmap.org","kind":"major_road","sort_rank":380,"kind_detail":"primary","ref":"S320","min_zoom":8.0},"arcs":[[358],[359],[360]]},{"type":"MultiLineString","properties":{"kind":"major_road","name:en":"Tianmuhu Avenue","sort_rank":380,"kind_detail":"primary","source":"openstreetmap.org","min_zoom":8.0,"landuse_kind":"urban_area","ref":"S241"},"arcs":[[361],[362]]},{"type":"MultiLineString","properties":{"kind":"major_road","network":"CN-roads","sort_rank":381,"kind_detail":"trunk","source":"openstreetmap.org","min_zoom":8.0,"shield_text":"318","ref":"G318"},"arcs":[[363],[364],[365]]},{"type":"LineString","properties":{"kind":"major_road","network":"CN-roads","sort_rank":381,"kind_detail":"trunk","bus_network":null,"source":"openstreetmap.org","min_zoom":8.0,"bus_shield_text":"\u5b81\u4e95(Ningjing)","shield_text":"205","ref":"G205","id":165488414},"arcs":[366]},{"type":"MultiLineString","properties":{"bus_network":null,"name:en":"Highway 104","network":"CN-roads","sort_rank":381,"kind_detail":"trunk","kind":"major_road","source":"openstreetmap.org","min_zoom":8.0,"bus_shield_text":"\u91d1\u6c64","shield_text":"104","ref":"G104"},"arcs":[[367],[368]]},{"type":"MultiLineString","properties":{"kind":"highway","name:en":"Ninghang Expressway","network":"CN-expressways","sort_rank":383,"landuse_kind":"urban_area","source":"openstreetmap.org","min_zoom":8.0,"all_networks":["CN-expressways"],"kind_detail":"motorway","shield_text":"25","ref":"G25","all_shield_texts":["25"]},"arcs":[[369],[370]]},{"type":"LineString","properties":{"kind":"major_road","sort_rank":380,"kind_detail":"primary","bus_network":null,"source":"openstreetmap.org","min_zoom":8.0,"bus_shield_text":"\u5b89\u94dc","landuse_kind":"urban_area","ref":"S123","id":367462712},"arcs":[371]},{"type":"LineString","properties":{"kind":"major_road","sort_rank":380,"kind_detail":"primary","bus_network":null,"source":"openstreetmap.org","min_zoom":8.0,"bus_shield_text":"\u5b89\u4e39","id":165396656},"arcs":[372]},{"type":"LineString","properties":{"bus_network":null,"name:en":"Shuanglong Avenue","ref":"S123","sort_rank":381,"kind_detail":"trunk","kind":"major_road","source":"openstreetmap.org","min_zoom":8.0,"bus_shield_text":"\u5b89\u94dc","landuse_kind":"urban_area","name:zh":"Shu\u0101ngl\u00f3ng D\u00e0d\u00e0o"},"arcs":[373]},{"type":"LineString","properties":{"source":"openstreetmap.org","kind":"major_road","sort_rank":381,"kind_detail":"trunk","ref":"S123","min_zoom":8.0},"arcs":[374]},{"type":"MultiLineString","properties":{"bus_network":null,"sort_rank":380,"kind_detail":"primary","kind":"major_road","source":"openstreetmap.org","min_zoom":8.0,"bus_shield_text":"\u5b89\u94dc","ref":"S123"},"arcs":[[375],[376]]},{"type":"MultiLineString","properties":{"source":"openstreetmap.org","kind":"major_road","name:en":"Chengdong Avenue","sort_rank":380,"kind_detail":"primary","min_zoom":8.0},"arcs":[[377],[378],[379],[380],[381]]},{"type":"MultiLineString","properties":{"kind":"highway","network":"CN-expressways","sort_rank":383,"landuse_kind":"urban_area","source":"openstreetmap.org","min_zoom":8.0,"all_networks":["CN-expressways"],"kind_detail":"motorway","shield_text":"4211","ref":"G4211","all_shield_texts":["4211"]},"arcs":[[382],[383]]},{"type":"MultiLineString","properties":{"kind":"highway","network":"CN-expressways","sort_rank":383,"landuse_kind":"urban_area","source":"openstreetmap.org","min_zoom":8.0,"all_networks":["CN-expressways"],"kind_detail":"motorway","shield_text":"25","ref":"G25","all_shield_texts":["25"]},"arcs":[[384],[385]]},{"type":"MultiLineString","properties":{"kind":"highway","name:en":"Wuxuan Expressway","network":"CN-expressways","sort_rank":383,"kind_detail":"motorway","source":"openstreetmap.org","min_zoom":8.0,"all_networks":["CN-expressways"],"shield_text":"50","ref":"G50","all_shield_texts":["50"]},"arcs":[[386],[387],[388],[389]]},{"type":"MultiLineString","properties":{"source":"openstreetmap.org","bus_network":null,"bus_shield_text":"\u91d1\u4e39","sort_rank":380,"kind_detail":"primary","min_zoom":8.0,"kind":"major_road"},"arcs":[[390],[391]]},{"type":"LineString","properties":{"source":"openstreetmap.org","kind":"major_road","name:en":"Wanghu Road","sort_rank":380,"kind_detail":"primary","min_zoom":8.0,"id":338076341},"arcs":[392]},{"type":"MultiLineString","properties":{"kind":"highway","network":"CN-expressways","sort_rank":383,"kind_detail":"motorway","source":"openstreetmap.org","min_zoom":8.0,"all_networks":["CN-expressways"],"shield_text":"2501","ref":"G2501","all_shield_texts":["2501"]},"arcs":[[393],[394]]},{"type":"LineString","properties":{"kind":"highway","name:en":"S32 Tangxuan Expy","sort_rank":383,"kind_detail":"motorway","source":"openstreetmap.org","min_zoom":8.0,"ref":"S32","id":424434125},"arcs":[395]},{"type":"MultiLineString","properties":{"kind":"major_road","name:en":"Highway 104","sort_rank":381,"landuse_kind":"urban_area","source":"openstreetmap.org","min_zoom":8.0,"kind_detail":"trunk","ref":"G104"},"arcs":[[396],[397],[398]]},{"type":"LineString","properties":{"kind":"major_road","name:en":"Zhongguancun Bridge","sort_rank":380,"kind_detail":"primary","source":"openstreetmap.org","min_zoom":8.0,"landuse_kind":"urban_area","ref":"S265","id":375784235},"arcs":[399]},{"type":"LineString","properties":{"kind":"major_road","name:en":"Changmu Bridge","network":"CN-roads","sort_rank":381,"kind_detail":"trunk","source":"openstreetmap.org","min_zoom":8.0,"shield_text":"104","ref":"G104","id":218745601},"arcs":[400]},{"type":"MultiLineString","properties":{"source":"openstreetmap.org","kind":"major_road","kind_detail":"trunk","sort_rank":381,"landuse_kind":"urban_area","ref":"S123","min_zoom":8.0},"arcs":[[401],[402]]},{"type":"MultiLineString","properties":{"source":"openstreetmap.org","kind":"major_road","landuse_kind":"urban_area","sort_rank":380,"kind_detail":"primary","ref":"S123","min_zoom":8.0},"arcs":[[403],[404],[405],[406]]},{"type":"MultiLineString","properties":{"kind":"major_road","network":"CN-roads","sort_rank":381,"landuse_kind":"urban_area","source":"openstreetmap.org","min_zoom":8.0,"kind_detail":"trunk","shield_text":"205","ref":"G205"},"arcs":[[407],[408],[409],[410],[411],[412],[413],[414]]},{"type":"MultiLineString","properties":{"kind":"highway","network":"AsianHighway","sort_rank":383,"landuse_kind":"urban_area","source":"openstreetmap.org","min_zoom":8.0,"all_networks":["AsianHighway","CN-expressways","CN-expressways"],"kind_detail":"motorway","shield_text":"5","ref":"G42;G2501","all_shield_texts":["5","42","2501"]},"arcs":[[415],[416]]},{"type":"LineString","properties":{"source":"openstreetmap.org","kind":"major_road","kind_detail":"trunk","sort_rank":381,"landuse_kind":"urban_area","ref":"G318","min_zoom":8.0},"arcs":[417]},{"type":"MultiLineString","properties":{"kind":"major_road","network":"CN-roads","sort_rank":381,"kind_detail":"trunk","source":"openstreetmap.org","min_zoom":8.0,"shield_text":"205","ref":"G205"},"arcs":[[418],[419],[420],[421],[422],[423],[424],[425],[426],[427],[428],[429],[430]]},{"type":"LineString","properties":{"kind":"major_road","network":"CN-roads","sort_rank":381,"landuse_kind":"urban_area","source":"openstreetmap.org","min_zoom":8.0,"kind_detail":"trunk","shield_text":"318","ref":"G318"},"arcs":[431]},{"type":"LineString","properties":{"source":"openstreetmap.org","kind":"major_road","sort_rank":380,"kind_detail":"primary","ref":"S105\/S206","min_zoom":8.0},"arcs":[432]},{"type":"LineString","properties":{"source":"openstreetmap.org","kind":"major_road","sort_rank":380,"kind_detail":"primary","ref":"S001","min_zoom":8.0,"id":360926396},"arcs":[433]},{"type":"MultiLineString","properties":{"source":"openstreetmap.org","kind":"major_road","sort_rank":380,"kind_detail":"primary","ref":"S215","min_zoom":8.0},"arcs":[[434],[435],[436],[437],[438],[439],[440]]},{"type":"MultiLineString","properties":{"cycleway_right":"track","sort_rank":380,"kind_detail":"primary","is_bicycle_related":true,"kind":"major_road","source":"openstreetmap.org","min_zoom":8.0,"landuse_kind":"urban_area"},"arcs":[[441],[442]]},{"type":"LineString","properties":{"kind":"ferry","name:en":"Banqiao Ferry","name":"\u677f\u6865\u6c7d\u6e21","sort_rank":355,"source":"openstreetmap.org","min_zoom":8.0,"id":154457071,"name:ja":"\u677f\u6a4b\u6c7d\u6e21"},"arcs":[443]},{"type":"LineString","properties":{"kind":"major_road","name:en":"Nangang Bridge","network":"CN-roads","sort_rank":381,"kind_detail":"trunk","source":"openstreetmap.org","min_zoom":8.0,"shield_text":"104","ref":"G104","id":338127144},"arcs":[444]},{"type":"MultiLineString","properties":{"source":"openstreetmap.org","kind":"major_road","name:en":"Chengdong Avenue","landuse_kind":"urban_area","sort_rank":380,"kind_detail":"primary","min_zoom":8.0},"arcs":[[445],[446],[447]]},{"type":"MultiLineString","properties":{"kind":"highway","name:en":"Wuda Expressway","network":"CN-expressways","sort_rank":383,"kind_detail":"motorway","source":"openstreetmap.org","min_zoom":8.0,"all_networks":["CN-expressways"],"shield_text":"50","ref":"G50","all_shield_texts":["50"]},"arcs":[[448],[449],[450],[451],[452],[453],[454],[455],[456],[457],[458],[459],[460],[461],[462],[463],[464],[465],[466],[467],[468],[469]]},{"type":"MultiLineString","properties":{"source":"openstreetmap.org","kind":"major_road","sort_rank":381,"kind_detail":"trunk","ref":"G318","min_zoom":8.0},"arcs":[[470],[471],[472],[473]]},{"type":"MultiLineString","properties":{"kind":"major_road","name:en":"China National Highway 205","network":"CN-roads","sort_rank":381,"landuse_kind":"urban_area","source":"openstreetmap.org","min_zoom":8.0,"kind_detail":"trunk","shield_text":"205","osm_relation":true},"arcs":[[474],[475],[476],[477],[478],[479],[480],[481],[482],[483],[484],[485],[486],[487],[488],[489]]},{"type":"LineString","properties":{"kind":"major_road","name:en":"Highway 104","sort_rank":381,"kind_detail":"trunk","bus_network":null,"source":"openstreetmap.org","min_zoom":8.0,"bus_shield_text":"\u4e1c\u571f(Dongtu)","ref":"G104","id":172739970},"arcs":[490]},{"type":"MultiLineString","properties":{"source":"openstreetmap.org","kind":"major_road","sort_rank":380,"kind_detail":"primary","ref":"S322","min_zoom":8.0},"arcs":[[491],[492],[493],[494],[495],[496],[497]]},{"type":"MultiLineString","properties":{"source":"openstreetmap.org","kind":"major_road","name:en":"Jinlai Bridge","landuse_kind":"urban_area","sort_rank":380,"kind_detail":"primary","min_zoom":8.0},"arcs":[[498],[499]]},{"type":"MultiLineString","properties":{"kind":"highway","name:en":"Lima Expressway","network":"CN-expressways","sort_rank":383,"kind_detail":"motorway","source":"openstreetmap.org","min_zoom":8.0,"all_networks":["CN-expressways"],"shield_text":"38","ref":"G42S","all_shield_texts":["38"]},"arcs":[[500],[501],[502],[503],[504],[505],[506],[507],[508],[509],[510],[511]]},{"type":"MultiLineString","properties":{"source":"openstreetmap.org","kind":"major_road","name:en":"Highway 104","sort_rank":381,"kind_detail":"trunk","ref":"G104","min_zoom":8.0},"arcs":[[512],[513]]},{"type":"LineString","properties":{"source":"openstreetmap.org","kind":"major_road","sort_rank":380,"kind_detail":"primary","ref":"S214","min_zoom":8.0},"arcs":[514]},{"type":"LineString","properties":{"source":"openstreetmap.org","kind":"major_road","sort_rank":380,"kind_detail":"primary","ref":"S202","min_zoom":8.0},"arcs":[515]},{"type":"LineString","properties":{"kind":"ferry","name:en":"Hefei-Yuxi Shipping Lane","name":"\u5408\u88d5\u822a\u9053","sort_rank":355,"source":"openstreetmap.org","min_zoom":8.0,"id":-6478180,"osm_relation":true},"arcs":[516]},{"type":"MultiLineString","properties":{"source":"openstreetmap.org","kind":"major_road","sort_rank":380,"kind_detail":"primary","ref":"S340","min_zoom":8.0},"arcs":[[517],[518],[519],[520],[521],[522]]},{"type":"MultiLineString","properties":{"kind":"highway","name:en":"Nanjing Ring Highway","sort_rank":383,"kind_detail":"motorway","source":"openstreetmap.org","min_zoom":8.0,"landuse_kind":"urban_area","ref":"S001"},"arcs":[[523],[524]]},{"type":"LineString","properties":{"kind":"major_road","name:en":"Dainan Bridge","sort_rank":380,"kind_detail":"primary","source":"openstreetmap.org","min_zoom":8.0,"ref":"S239","id":218745607},"arcs":[525]},{"type":"MultiLineString","properties":{"kind":"major_road","name:en":"Leitang Bridge","network":"CN-roads","sort_rank":381,"kind_detail":"trunk","source":"openstreetmap.org","min_zoom":8.0,"shield_text":"104","ref":"G104"},"arcs":[[526],[527]]},{"type":"LineString","properties":{"kind":"major_road","sort_rank":380,"kind_detail":"primary","bus_network":null,"source":"openstreetmap.org","min_zoom":8.0,"bus_shield_text":"\u4e1c\u8c37(Donggu)","landuse_kind":"urban_area","id":165400116},"arcs":[528]},{"type":"MultiLineString","properties":{"source":"openstreetmap.org","kind":"major_road","name:en":"Nandajie Street","sort_rank":380,"kind_detail":"primary","min_zoom":8.0},"arcs":[[529],[530]]},{"type":"LineString","properties":{"source":"openstreetmap.org","kind":"major_road","sort_rank":380,"kind_detail":"primary","ref":"X002","min_zoom":8.0},"arcs":[531]},{"type":"MultiLineString","properties":{"source":"openstreetmap.org","kind":"major_road","name:en":"Yancheng Avenue","sort_rank":380,"kind_detail":"primary","min_zoom":8.0},"arcs":[[532],[533]]},{"type":"MultiLineString","properties":{"kind":"highway","name:en":"Ningxuan Expressway","sort_rank":383,"kind_detail":"motorway","source":"openstreetmap.org","min_zoom":8.0,"landuse_kind":"urban_area","ref":"S55"},"arcs":[[534],[535],[536],[537],[538],[539]]},{"type":"MultiLineString","properties":{"kind":"highway","name:en":"Ningma Expressway","network":"CN-expressways","sort_rank":383,"kind_detail":"motorway","source":"openstreetmap.org","min_zoom":8.0,"all_networks":["CN-expressways"],"shield_text":"4211","ref":"G4211","all_shield_texts":["4211"]},"arcs":[[540],[541],[542],[543]]},{"type":"LineString","properties":{"kind":"major_road","sort_rank":380,"kind_detail":"primary","bus_network":null,"source":"openstreetmap.org","min_zoom":8.0,"bus_shield_text":"\u4e1c\u8c37(Donggu)","id":165400116},"arcs":[544]},{"type":"MultiLineString","properties":{"kind":"major_road","name:en":"Qingxi Bridge","network":"CN-roads","sort_rank":381,"kind_detail":"trunk","source":"openstreetmap.org","min_zoom":8.0,"shield_text":"104","ref":"G104"},"arcs":[[545],[546]]},{"type":"MultiLineString","properties":{"source":"openstreetmap.org","kind":"major_road","sort_rank":380,"kind_detail":"primary","ref":"S243","min_zoom":8.0},"arcs":[[547],[548],[549],[550],[551],[552],[553],[554],[555]]},{"type":"MultiLineString","properties":{"source":"openstreetmap.org","kind":"major_road","landuse_kind":"urban_area","sort_rank":380,"kind_detail":"primary","ref":"S246","min_zoom":8.0},"arcs":[[556],[557]]},{"type":"MultiLineString","properties":{"kind":"major_road","name:en":"Yongping Avenue","network":"CN-roads","sort_rank":381,"landuse_kind":"urban_area","source":"openstreetmap.org","min_zoom":8.0,"kind_detail":"trunk","shield_text":"104","ref":"G104"},"arcs":[[558],[559],[560],[561]]},{"type":"LineString","properties":{"kind":"major_road","sort_rank":380,"kind_detail":"primary","bus_network":null,"source":"openstreetmap.org","min_zoom":8.0,"bus_shield_text":"\u4e1c\u8c37(Donggu)","ref":"X002","id":165396654},"arcs":[562]},{"type":"MultiLineString","properties":{"source":"openstreetmap.org","kind":"major_road","sort_rank":380,"kind_detail":"primary","ref":"X003","min_zoom":8.0},"arcs":[[563],[564],[565],[566],[567],[568]]},{"type":"MultiLineString","properties":{"bus_network":null,"sort_rank":381,"landuse_kind":"urban_area","kind":"major_road","source":"openstreetmap.org","min_zoom":8.0,"bus_shield_text":"\u5b81\u4e95(Ningjing)","kind_detail":"trunk","ref":"G205"},"arcs":[[569],[570]]},{"type":"LineString","properties":{"kind":"highway","sort_rank":383,"landuse_kind":"urban_area","source":"openstreetmap.org","min_zoom":8.0,"kind_detail":"motorway","ref":"S32 Tangxuan Expy","id":476160003},"arcs":[571]},{"type":"MultiLineString","properties":{"kind":"highway","network":"CN-expressways","sort_rank":383,"kind_detail":"motorway","source":"openstreetmap.org","min_zoom":8.0,"all_networks":["CN-expressways"],"shield_text":"38","ref":"G42S","all_shield_texts":["38"]},"arcs":[[572],[573],[574],[575],[576],[577]]},{"type":"MultiLineString","properties":{"source":"openstreetmap.org","kind":"major_road","landuse_kind":"urban_area","sort_rank":380,"kind_detail":"primary","ref":"S104","min_zoom":8.0},"arcs":[[578],[579],[580],[581]]},{"type":"MultiLineString","properties":{"source":"openstreetmap.org","kind":"major_road","sort_rank":380,"kind_detail":"primary","ref":"S321","min_zoom":8.0},"arcs":[[582],[583],[584],[585],[586],[587],[588],[589],[590]]},{"type":"MultiLineString","properties":{"kind":"highway","name:en":"Lima Expressway","network":"CN-expressways","sort_rank":383,"kind_detail":"motorway","source":"openstreetmap.org","min_zoom":8.0,"all_networks":["CN-expressways"],"shield_text":"38","ref":"S38","all_shield_texts":["38"]},"arcs":[[591],[592]]},{"type":"LineString","properties":{"kind":"major_road","network":null,"sort_rank":380,"kind_detail":"primary","bus_network":null,"source":"openstreetmap.org","min_zoom":8.0,"bus_shield_text":"\u91d1\u6c64","shield_text":"337","ref":"S337","id":373222262},"arcs":[593]},{"type":"MultiLineString","properties":{"source":"openstreetmap.org","kind":"highway","sort_rank":383,"kind_detail":"motorway","ref":"S05","min_zoom":8.0},"arcs":[[594],[595]]},{"type":"LineString","properties":{"kind":"major_road","name:en":"Nandajie Bridge","sort_rank":380,"landuse_kind":"urban_area","source":"openstreetmap.org","min_zoom":8.0,"kind_detail":"primary","id":338076363},"arcs":[596]},{"type":"LineString","properties":{"kind":"ferry","name:en":"Banqiao Ferry","name":"\u677f\u6865\u6c7d\u6e21","sort_rank":355,"landuse_kind":"urban_area","source":"openstreetmap.org","min_zoom":8.0,"id":154457071,"name:ja":"\u677f\u6a4b\u6c7d\u6e21"},"arcs":[597]},{"type":"LineString","properties":{"source":"openstreetmap.org","kind":"highway","name:en":"Yangli Expressway","sort_rank":383,"kind_detail":"motorway","ref":"G4011","min_zoom":8.0},"arcs":[598]},{"type":"MultiLineString","properties":{"kind":"major_road","name:en":"Jiuzhou Avenue","sort_rank":380,"kind_detail":"primary","source":"openstreetmap.org","min_zoom":8.0,"landuse_kind":"urban_area","name:zh":"Ji\u01d4zh\u014du D\u00e0d\u00e0o","ref":"S104"},"arcs":[[599],[600],[601]]},{"type":"MultiLineString","properties":{"source":"openstreetmap.org","kind":"major_road","landuse_kind":"nature_reserve","sort_rank":380,"kind_detail":"primary","min_zoom":8.0},"arcs":[[602],[603],[604],[605],[606],[607]]},{"type":"LineString","properties":{"kind":"major_road","name:en":"Nanhe Bridge","sort_rank":380,"kind_detail":"primary","source":"openstreetmap.org","min_zoom":8.0,"landuse_kind":"urban_area","ref":"S241","id":226905712},"arcs":[608]},{"type":"MultiLineString","properties":{"source":"openstreetmap.org","kind":"major_road","landuse_kind":"urban_area","sort_rank":380,"kind_detail":"primary","ref":"S239","min_zoom":8.0},"arcs":[[609],[610],[611]]},{"type":"MultiLineString","properties":{"source":"openstreetmap.org","kind":"major_road","sort_rank":380,"kind_detail":"primary","ref":"S230","min_zoom":8.0},"arcs":[[612],[613],[614],[615],[616],[617],[618],[619]]},{"type":"MultiLineString","properties":{"bus_network":null,"name:en":"Former Highway 104","network":"CN-roads","sort_rank":381,"kind_detail":"trunk","kind":"major_road","source":"openstreetmap.org","min_zoom":8.0,"bus_shield_text":"\u91d1\u6c64","shield_text":"104","ref":"G104"},"arcs":[[620],[621]]},{"type":"LineString","properties":{"source":"openstreetmap.org","kind":"major_road","network":"CN-roads","sort_rank":380,"kind_detail":"primary","min_zoom":8.0,"shield_text":"104"},"arcs":[622]},{"type":"MultiLineString","properties":{"source":"openstreetmap.org","kind":"major_road","name:en":"South Yanshan Road","landuse_kind":"urban_area","sort_rank":380,"kind_detail":"primary","min_zoom":8.0},"arcs":[[623],[624],[625],[626]]},{"type":"LineString","properties":{"source":"openstreetmap.org","kind":"major_road","ref":"S206","sort_rank":380,"kind_detail":"primary","is_bicycle_related":true,"min_zoom":8.0},"arcs":[627]},{"type":"MultiLineString","properties":{"source":"openstreetmap.org","kind":"major_road","kind_detail":"trunk","sort_rank":381,"landuse_kind":"urban_area","ref":"G104","min_zoom":8.0},"arcs":[[628],[629]]},{"type":"MultiLineString","properties":{"kind":"highway","network":"CN-expressways","sort_rank":383,"kind_detail":"motorway","source":"openstreetmap.org","min_zoom":8.0,"all_networks":["CN-expressways"],"shield_text":"5011","ref":"G5011","all_shield_texts":["5011"]},"arcs":[[630],[631],[632],[633]]},{"type":"MultiLineString","properties":{"kind":"major_road","name:en":"Zhonghe Bridge","network":"CN-roads","sort_rank":381,"kind_detail":"trunk","source":"openstreetmap.org","min_zoom":8.0,"shield_text":"104","ref":"G104"},"arcs":[[634],[635]]},{"type":"MultiLineString","properties":{"kind":"major_road","network":"CN-roads","sort_rank":380,"kind_detail":"primary","source":"openstreetmap.org","min_zoom":8.0,"landuse_kind":"urban_area","shield_text":"205","ref":"G205"},"arcs":[[636],[637]]},{"type":"MultiLineString","properties":{"source":"openstreetmap.org","kind":"highway","landuse_kind":"urban_area","sort_rank":383,"kind_detail":"motorway","ref":"S32","min_zoom":8.0},"arcs":[[638],[639],[640]]},{"type":"MultiLineString","properties":{"source":"openstreetmap.org","kind":"major_road","sort_rank":380,"kind_detail":"primary","ref":"S360","min_zoom":8.0},"arcs":[[641],[642],[643]]},{"type":"LineString","properties":{"source":"openstreetmap.org","kind":"major_road","name:en":"Yingbin Avenue","sort_rank":380,"kind_detail":"primary","min_zoom":8.0,"id":333326149},"arcs":[644]},{"type":"LineString","properties":{"source":"openstreetmap.org","kind":"highway","name:en":"Ninghang Expressway","sort_rank":383,"kind_detail":"motorway","ref":"G25","min_zoom":8.0},"arcs":[645]},{"type":"MultiLineString","properties":{"source":"openstreetmap.org","kind":"major_road","sort_rank":380,"kind_detail":"primary","ref":"S239","min_zoom":8.0},"arcs":[[646],[647],[648],[649]]},{"type":"LineString","properties":{"sort_rank":381,"source":"openstreetmap.org","min_zoom":8.0,"kind":"major_road","kind_detail":"trunk"},"arcs":[650]},{"type":"MultiLineString","properties":{"source":"openstreetmap.org","kind":"major_road","sort_rank":380,"kind_detail":"primary","ref":"S241","min_zoom":8.0},"arcs":[[651],[652],[653],[654]]},{"type":"MultiLineString","properties":{"kind":"major_road","network":"CN-roads","sort_rank":380,"kind_detail":"primary","source":"openstreetmap.org","min_zoom":8.0,"landuse_kind":"urban_area","shield_text":"205"},"arcs":[[655],[656],[657],[658]]},{"type":"MultiLineString","properties":{"sort_rank":355,"source":"openstreetmap.org","min_zoom":8.0,"kind":"ferry"},"arcs":[[659],[660]]},{"type":"MultiLineString","properties":{"source":"openstreetmap.org","kind":"highway","landuse_kind":"urban_area","sort_rank":383,"kind_detail":"motorway","min_zoom":8.0},"arcs":[[661],[662],[663],[664],[665]]},{"type":"MultiLineString","properties":{"kind":"highway","network":"CN-expressways","sort_rank":383,"landuse_kind":"urban_area","source":"openstreetmap.org","min_zoom":8.0,"all_networks":["CN-expressways"],"kind_detail":"motorway","shield_text":"2501","ref":"G2501","all_shield_texts":["2501"]},"arcs":[[666],[667],[668],[669]]},{"type":"MultiLineString","properties":{"source":"openstreetmap.org","kind":"major_road","name:en":"Yanshan Bridge","landuse_kind":"urban_area","sort_rank":380,"kind_detail":"primary","min_zoom":8.0},"arcs":[[670],[671]]},{"type":"MultiLineString","properties":{"kind":"highway","name:en":"Yanjiang Expressway","network":"CN-expressways","sort_rank":383,"kind_detail":"motorway","source":"openstreetmap.org","min_zoom":8.0,"all_networks":["CN-expressways"],"shield_text":"38","ref":"S38","all_shield_texts":["38"]},"arcs":[[672],[673],[674],[675],[676],[677],[678],[679],[680],[681]]},{"type":"MultiLineString","properties":{"kind":"major_road","name:en":"China National Highway 205","network":"CN-roads","sort_rank":381,"kind_detail":"trunk","source":"openstreetmap.org","min_zoom":8.0,"shield_text":"205","osm_relation":true},"arcs":[[682],[683],[684],[685],[686],[687],[688],[689],[690],[691],[692],[693],[694],[695],[696],[697],[698],[699],[700],[701],[702],[703],[704],[705],[706],[707],[708],[709]]},{"type":"MultiLineString","properties":{"kind":"highway","name:en":"Yangli Expressway","network":"CN-expressways","sort_rank":383,"kind_detail":"motorway","source":"openstreetmap.org","min_zoom":8.0,"all_networks":["CN-expressways"],"shield_text":"4011","ref":"G4011","all_shield_texts":["4011"]},"arcs":[[710],[711],[712],[713],[714],[715]]},{"type":"MultiLineString","properties":{"source":"openstreetmap.org","kind":"major_road","sort_rank":380,"kind_detail":"primary","ref":"S246","min_zoom":8.0},"arcs":[[716],[717],[718],[719],[720],[721],[722]]},{"type":"MultiLineString","properties":{"source":"openstreetmap.org","kind":"highway","name:en":"Liyang - Huangshan Expressway","sort_rank":383,"kind_detail":"motorway","ref":"S01","min_zoom":8.0},"arcs":[[723],[724]]},{"type":"MultiLineString","properties":{"source":"openstreetmap.org","kind":"highway","sort_rank":383,"kind_detail":"motorway","ref":"S22","min_zoom":8.0},"arcs":[[725],[726]]},{"type":"MultiLineString","properties":{"source":"openstreetmap.org","kind":"major_road","sort_rank":380,"kind_detail":"primary","ref":"S206","min_zoom":8.0},"arcs":[[727],[728]]},{"type":"LineString","properties":{"kind":"major_road","name:en":"Zhongguancun Avenue","sort_rank":380,"kind_detail":"primary","source":"openstreetmap.org","min_zoom":8.0,"ref":"S265","id":375784234},"arcs":[729]},{"type":"MultiLineString","properties":{"source":"openstreetmap.org","kind":"major_road","name:en":"South Yanshan Road","sort_rank":380,"kind_detail":"primary","min_zoom":8.0},"arcs":[[730],[731]]},{"type":"LineString","properties":{"kind":"major_road","network":"CN-roads","sort_rank":381,"kind_detail":"trunk","bus_network":null,"source":"openstreetmap.org","min_zoom":8.0,"bus_shield_text":"\u5b81\u4e95(Ningjing)","shield_text":"205","landuse_kind":"urban_area","ref":"G205","id":165488414},"arcs":[732]},{"type":"MultiLineString","properties":{"source":"openstreetmap.org","kind":"major_road","kind_detail":"trunk","sort_rank":381,"landuse_kind":"urban_area","min_zoom":8.0},"arcs":[[733],[734],[735],[736],[737],[738],[739],[740],[741],[742],[743],[744],[745],[746],[747],[748],[749],[750],[751],[752],[753],[754],[755],[756],[757],[758]]},{"type":"MultiLineString","properties":{"kind":"highway","name:en":"Airport Expressway","sort_rank":383,"kind_detail":"motorway","source":"openstreetmap.org","min_zoom":8.0,"landuse_kind":"urban_area","ref":"S88"},"arcs":[[759],[760],[761],[762]]},{"type":"MultiLineString","properties":{"kind":"highway","name:en":"Mawu Expressway","network":"CN-expressways","sort_rank":383,"kind_detail":"motorway","source":"openstreetmap.org","min_zoom":8.0,"all_networks":["CN-expressways"],"shield_text":"4211","ref":"G4211","all_shield_texts":["4211"]},"arcs":[[763],[764],[765],[766],[767],[768],[769],[770],[771],[772],[773],[774],[775],[776],[777],[778],[779]]},{"type":"MultiLineString","properties":{"kind":"highway","name:en":"Wuxuan Expressway","network":"CN-expressways","sort_rank":383,"landuse_kind":"urban_area","source":"openstreetmap.org","min_zoom":8.0,"all_networks":["CN-expressways"],"kind_detail":"motorway","shield_text":"50","ref":"G50","all_shield_texts":["50"]},"arcs":[[780],[781]]},{"type":"MultiLineString","properties":{"sort_rank":383,"kind_detail":"motorway","min_zoom":8.0,"kind":"highway","source":"openstreetmap.org"},"arcs":[[782],[783],[784],[785],[786],[787],[788],[789],[790],[791],[792],[793],[794],[795],[796],[797],[798],[799],[800],[801],[802],[803],[804],[805],[806],[807],[808],[809],[810],[811],[812],[813],[814],[815],[816],[817],[818],[819],[820],[821],[822],[823],[824],[825],[826]]},{"type":"LineString","properties":{"source":"openstreetmap.org","kind":"major_road","sort_rank":380,"kind_detail":"primary","ref":"S367","min_zoom":8.0},"arcs":[827]},{"type":"MultiLineString","properties":{"kind":"major_road","name:en":"Zhuangyuan South Road","sort_rank":380,"landuse_kind":"urban_area","source":"openstreetmap.org","min_zoom":8.0,"kind_detail":"primary","name:zh":"Zhu\u00e0ngyu\u00e1n N\u00e1n L\u00f9","ref":"S322"},"arcs":[[828],[829],[830],[831]]},{"type":"MultiLineString","properties":{"kind":"highway","name:en":"Xuanguang Expressway","network":"CN-expressways","sort_rank":383,"kind_detail":"motorway","source":"openstreetmap.org","min_zoom":8.0,"all_networks":["CN-expressways"],"shield_text":"50","name:zh":"Xu\u0101ngu\u01ceng G\u0101os\u00f9","ref":"G50","all_shield_texts":["50"]},"arcs":[[832],[833],[834],[835],[836],[837]]},{"type":"MultiLineString","properties":{"kind":"major_road","name:en":"China National Highway 104","network":"CN-roads","sort_rank":381,"landuse_kind":"urban_area","source":"openstreetmap.org","min_zoom":8.0,"kind_detail":"trunk","shield_text":"104","osm_relation":true},"arcs":[[838],[839],[840],[841],[842],[843],[844],[845],[846]]},{"type":"LineString","properties":{"bus_network":null,"name:en":"Highway 104","network":"CN-roads","sort_rank":381,"kind_detail":"trunk","kind":"major_road","source":"openstreetmap.org","min_zoom":8.0,"bus_shield_text":"\u4e1c\u571f(Dongtu)","shield_text":"104","ref":"G104"},"arcs":[847]},{"type":"LineString","properties":{"kind":"major_road","sort_rank":380,"landuse_kind":"urban_area","source":"openstreetmap.org","min_zoom":8.0,"kind_detail":"primary","ref":"S216","id":226515811},"arcs":[848]},{"type":"MultiLineString","properties":{"kind":"major_road","name:en":"Chengbei Avenue","sort_rank":380,"kind_detail":"primary","source":"openstreetmap.org","min_zoom":8.0,"landuse_kind":"urban_area","ref":"S239"},"arcs":[[849],[850],[851]]},{"type":"LineString","properties":{"source":"openstreetmap.org","kind":"major_road","sort_rank":380,"kind_detail":"primary","ref":"S319","min_zoom":8.0,"id":226604313},"arcs":[852]},{"type":"MultiLineString","properties":{"source":"openstreetmap.org","kind":"major_road","landuse_kind":"urban_area","sort_rank":380,"kind_detail":"primary","ref":"G205","min_zoom":8.0},"arcs":[[853],[854]]},{"type":"MultiLineString","properties":{"kind":"highway","network":"CN-expressways","sort_rank":383,"kind_detail":"motorway","source":"openstreetmap.org","min_zoom":8.0,"all_networks":["CN-expressways"],"shield_text":"4011","ref":"G4011","all_shield_texts":["4011"]},"arcs":[[855],[856]]},{"type":"MultiLineString","properties":{"kind":"highway","network":"CN-expressways","sort_rank":383,"landuse_kind":"urban_area","source":"openstreetmap.org","min_zoom":8.0,"all_networks":["CN-expressways"],"kind_detail":"motorway","shield_text":"5011","ref":"G5011","all_shield_texts":["5011"]},"arcs":[[857],[858],[859],[860]]},{"type":"LineString","properties":{"source":"openstreetmap.org","kind":"major_road","landuse_kind":"urban_area","sort_rank":380,"kind_detail":"primary","ref":"S001","min_zoom":8.0},"arcs":[861]},{"type":"LineString","properties":{"source":"openstreetmap.org","kind":"ferry","name":"\u829c\u6e56\u6c7d\u8f66\u8f6e\u6e21","sort_rank":355,"landuse_kind":"urban_area","min_zoom":8.0,"id":364610407},"arcs":[862]},{"type":"MultiLineString","properties":{"source":"openstreetmap.org","kind":"major_road","sort_rank":380,"kind_detail":"primary","ref":"S105","min_zoom":8.0},"arcs":[[863],[864]]},{"type":"MultiLineString","properties":{"source":"openstreetmap.org","kind":"major_road","name:en":"Yingbin Road","landuse_kind":"urban_area","sort_rank":380,"kind_detail":"primary","min_zoom":8.0},"arcs":[[865],[866],[867],[868],[869],[870]]},{"type":"MultiLineString","properties":{"source":"openstreetmap.org","kind":"major_road","sort_rank":381,"kind_detail":"trunk","ref":"G205","min_zoom":8.0},"arcs":[[871],[872],[873],[874],[875],[876],[877],[878],[879],[880],[881],[882],[883],[884]]},{"type":"MultiLineString","properties":{"kind":"major_road","name:en":"Zhongguancun Avenue","sort_rank":380,"kind_detail":"primary","source":"openstreetmap.org","min_zoom":8.0,"landuse_kind":"urban_area","ref":"S265"},"arcs":[[885],[886]]},{"type":"MultiLineString","properties":{"source":"openstreetmap.org","kind":"highway","landuse_kind":"urban_area","sort_rank":383,"kind_detail":"motorway","ref":"S55","min_zoom":8.0},"arcs":[[887],[888],[889],[890],[891]]},{"type":"MultiLineString","properties":{"source":"openstreetmap.org","kind":"major_road","name:en":"Yingbin Road","sort_rank":380,"kind_detail":"primary","min_zoom":8.0},"arcs":[[892],[893]]},{"type":"MultiLineString","properties":{"kind":"highway","network":"CN-expressways","sort_rank":383,"kind_detail":"motorway","source":"openstreetmap.org","min_zoom":8.0,"all_networks":["CN-expressways"],"shield_text":"4211","ref":"G4211","all_shield_texts":["4211"]},"arcs":[[894],[895],[896],[897],[898],[899],[900],[901],[902],[903],[904],[905],[906],[907]]},{"type":"MultiLineString","properties":{"kind":"major_road","name:en":"Nanhe Bridge","network":"CN-roads","sort_rank":381,"kind_detail":"trunk","source":"openstreetmap.org","min_zoom":8.0,"shield_text":"104","ref":"G104"},"arcs":[[908],[909]]},{"type":"LineString","properties":{"source":"openstreetmap.org","kind":"major_road","sort_rank":380,"kind_detail":"primary","ref":"S124","min_zoom":8.0},"arcs":[910]},{"type":"LineString","properties":{"source":"openstreetmap.org","kind":"major_road","name:en":"Former Highway 104","sort_rank":381,"kind_detail":"trunk","ref":"G104","min_zoom":8.0},"arcs":[911]},{"type":"MultiLineString","properties":{"source":"openstreetmap.org","kind":"major_road","sort_rank":380,"kind_detail":"primary","ref":"S104","min_zoom":8.0},"arcs":[[912],[913],[914],[915],[916],[917],[918]]},{"type":"MultiLineString","properties":{"source":"openstreetmap.org","kind":"major_road","landuse_kind":"urban_area","sort_rank":380,"kind_detail":"primary","ref":"S360","min_zoom":8.0},"arcs":[[919],[920]]},{"type":"MultiLineString","properties":{"source":"openstreetmap.org","kind":"major_road","kind_detail":"trunk","sort_rank":381,"landuse_kind":"urban_area","ref":"G205","min_zoom":8.0},"arcs":[[921],[922],[923],[924],[925],[926],[927],[928],[929],[930],[931],[932],[933]]},{"type":"MultiLineString","properties":{"source":"openstreetmap.org","kind":"major_road","sort_rank":380,"kind_detail":"primary","ref":"S123","min_zoom":8.0},"arcs":[[934],[935],[936],[937],[938],[939],[940],[941],[942]]},{"type":"MultiLineString","properties":{"source":"openstreetmap.org","kind":"major_road","name:en":"Tianmuhu Avenue","sort_rank":380,"kind_detail":"primary","ref":"S241","min_zoom":8.0},"arcs":[[943],[944]]},{"type":"LineString","properties":{"kind":"major_road","network":"CN-roads","sort_rank":380,"kind_detail":"primary","source":"openstreetmap.org","min_zoom":8.0,"shield_text":"205","id":543312504},"arcs":[945]},{"type":"MultiLineString","properties":{"source":"openstreetmap.org","kind":"major_road","name:en":"Nandajie Street","landuse_kind":"urban_area","sort_rank":380,"kind_detail":"primary","min_zoom":8.0},"arcs":[[946],[947],[948]]},{"type":"LineString","properties":{"source":"openstreetmap.org","kind":"major_road","name:en":"Jiuzhou Avenue","sort_rank":380,"kind_detail":"primary","name:zh":"Ji\u01d4zh\u014du D\u00e0d\u00e0o","min_zoom":8.0},"arcs":[949]},{"type":"MultiLineString","properties":{"kind":"highway","network":"CN-expressways","sort_rank":383,"kind_detail":"motorway","source":"openstreetmap.org","min_zoom":8.0,"all_networks":["CN-expressways"],"shield_text":"38","ref":"S38","all_shield_texts":["38"]},"arcs":[[950],[951],[952],[953],[954],[955],[956],[957]]},{"type":"MultiLineString","properties":{"kind":"major_road","name:en":"Zhuangyuan South Road","sort_rank":380,"kind_detail":"primary","source":"openstreetmap.org","min_zoom":8.0,"name:zh":"Zhu\u00e0ngyu\u00e1n N\u00e1n L\u00f9","ref":"S322"},"arcs":[[958],[959]]},{"type":"MultiLineString","properties":{"source":"openstreetmap.org","kind":"major_road","landuse_kind":"urban_area","sort_rank":380,"kind_detail":"primary","min_zoom":8.0},"arcs":[[960],[961],[962],[963],[964],[965],[966],[967],[968],[969],[970],[971],[972],[973],[974],[975],[976],[977],[978],[979],[980],[981],[982],[983],[984],[985],[986],[987],[988],[989],[990],[991],[992],[993],[994],[995],[996],[997],[998],[999],[1000],[1001],[1002],[1003],[1004],[1005],[1006],[1007],[1008],[1009],[1010],[1011],[1012],[1013],[1014],[1015],[1016],[1017],[1018],[1019],[1020],[1021],[1022],[1023],[1024],[1025],[1026],[1027],[1028],[1029],[1030],[1031],[1032],[1033],[1034],[1035],[1036],[1037],[1038],[1039],[1040],[1041],[1042],[1043],[1044],[1045],[1046],[1047],[1048],[1049],[1050],[1051],[1052],[1053],[1054],[1055],[1056],[1057],[1058],[1059],[1060],[1061],[1062],[1063],[1064],[1065],[1066],[1067],[1068],[1069],[1070],[1071],[1072],[1073],[1074],[1075],[1076],[1077],[1078],[1079],[1080],[1081],[1082],[1083],[1084],[1085],[1086],[1087],[1088],[1089],[1090],[1091],[1092],[1093],[1094],[1095],[1096],[1097],[1098],[1099],[1100],[1101],[1102],[1103],[1104],[1105],[1106],[1107],[1108],[1109],[1110],[1111],[1112],[1113],[1114],[1115],[1116],[1117],[1118],[1119],[1120],[1121],[1122],[1123],[1124],[1125],[1126],[1127],[1128],[1129],[1130],[1131],[1132],[1133],[1134],[1135],[1136],[1137],[1138],[1139],[1140],[1141],[1142],[1143],[1144],[1145],[1146],[1147],[1148],[1149],[1150],[1151],[1152],[1153],[1154],[1155],[1156],[1157],[1158],[1159],[1160],[1161],[1162],[1163],[1164],[1165],[1166],[1167],[1168],[1169],[1170],[1171],[1172],[1173],[1174],[1175],[1176],[1177],[1178],[1179],[1180],[1181],[1182],[1183],[1184],[1185],[1186],[1187],[1188],[1189],[1190],[1191],[1192],[1193],[1194],[1195],[1196],[1197],[1198],[1199],[1200],[1201],[1202],[1203],[1204],[1205],[1206],[1207],[1208],[1209],[1210],[1211],[1212],[1213],[1214],[1215],[1216],[1217],[1218],[1219],[1220],[1221],[1222],[1223],[1224],[1225],[1226],[1227],[1228],[1229],[1230],[1231],[1232],[1233],[1234],[1235],[1236],[1237],[1238],[1239],[1240],[1241],[1242],[1243],[1244],[1245],[1246],[1247],[1248],[1249],[1250],[1251],[1252],[1253],[1254],[1255],[1256],[1257],[1258],[1259],[1260],[1261],[1262],[1263],[1264],[1265],[1266],[1267],[1268],[1269],[1270],[1271],[1272],[1273],[1274],[1275],[1276],[1277],[1278],[1279],[1280],[1281],[1282],[1283],[1284],[1285],[1286],[1287],[1288],[1289],[1290],[1291],[1292],[1293],[1294],[1295],[1296],[1297],[1298],[1299],[1300],[1301],[1302],[1303],[1304],[1305],[1306],[1307],[1308],[1309],[1310],[1311],[1312],[1313],[1314],[1315],[1316],[1317],[1318],[1319],[1320],[1321],[1322],[1323],[1324],[1325],[1326],[1327],[1328],[1329],[1330],[1331],[1332],[1333],[1334],[1335]]},{"type":"LineString","properties":{"source":"openstreetmap.org","kind":"highway","sort_rank":383,"kind_detail":"motorway","ref":"S38","min_zoom":8.0,"id":406959440},"arcs":[1336]},{"type":"LineString","properties":{"kind":"major_road","name:en":"Nangang Bridge","sort_rank":380,"landuse_kind":"urban_area","source":"openstreetmap.org","min_zoom":8.0,"kind_detail":"primary","id":374850803},"arcs":[1337]},{"type":"LineString","properties":{"kind":"major_road","name:en":"China National Highway 318","network":"CN-roads","sort_rank":381,"landuse_kind":"urban_area","name:de":"Nationalstra\u00dfe 318","source":"openstreetmap.org","min_zoom":8.0,"kind_detail":"trunk","shield_text":"318","name:ru":"\u0413\u043e\u0434\u0430\u043e 318","osm_relation":true},"arcs":[1338]},{"type":"MultiLineString","properties":{"kind":"highway","network":"CN-expressways","sort_rank":383,"kind_detail":"motorway","source":"openstreetmap.org","min_zoom":8.0,"all_networks":["CN-expressways"],"shield_text":"50","ref":"G50","all_shield_texts":["50"]},"arcs":[[1339],[1340],[1341],[1342],[1343],[1344],[1345],[1346],[1347],[1348],[1349],[1350],[1351],[1352],[1353],[1354],[1355]]},{"type":"MultiLineString","properties":{"kind":"major_road","name:en":"Tianyuan West Road","sort_rank":380,"kind_detail":"primary","source":"openstreetmap.org","min_zoom":8.0,"landuse_kind":"urban_area","name:zh":"Ti\u0101nyu\u00e1n X\u012bl\u00f9"},"arcs":[[1356],[1357]]},{"type":"MultiLineString","properties":{"source":"openstreetmap.org","kind":"major_road","kind_detail":"trunk","sort_rank":381,"landuse_kind":"urban_area","ref":"S243","min_zoom":8.0},"arcs":[[1358],[1359]]},{"type":"MultiLineString","properties":{"kind":"major_road","name:en":"Jiuzhou Avenue","sort_rank":380,"kind_detail":"primary","source":"openstreetmap.org","min_zoom":8.0,"landuse_kind":"urban_area","name:zh":"Ji\u01d4zh\u014du D\u00e0d\u00e0o"},"arcs":[[1360],[1361]]},{"type":"MultiLineString","properties":{"source":"openstreetmap.org","kind":"highway","sort_rank":383,"kind_detail":"motorway","ref":"S68","min_zoom":8.0},"arcs":[[1362],[1363],[1364],[1365],[1366],[1367]]},{"type":"MultiLineString","properties":{"source":"openstreetmap.org","kind":"major_road","sort_rank":380,"kind_detail":"primary","ref":"S337","min_zoom":8.0},"arcs":[[1368],[1369],[1370],[1371],[1372],[1373],[1374]]},{"type":"LineString","properties":{"source":"openstreetmap.org","kind":"ferry","name:en":"Hefei-Yuxi Shipping Lane","name":"\u5408\u88d5\u822a\u9053","sort_rank":355,"min_zoom":8.0,"id":372450792},"arcs":[1375]},{"type":"MultiLineString","properties":{"source":"openstreetmap.org","kind":"major_road","sort_rank":380,"kind_detail":"primary","ref":"S314","min_zoom":8.0},"arcs":[[1376],[1377],[1378],[1379],[1380],[1381]]},{"type":"LineString","properties":{"source":"openstreetmap.org","kind":"major_road","name:en":"Nangang Bridge","sort_rank":380,"kind_detail":"primary","min_zoom":8.0,"id":374850803},"arcs":[1382]},{"type":"MultiLineString","properties":{"source":"openstreetmap.org","kind":"major_road","ref":"S124","sort_rank":380,"kind_detail":"primary","is_bicycle_related":true,"min_zoom":8.0},"arcs":[[1383],[1384],[1385],[1386],[1387],[1388]]},{"type":"LineString","properties":{"bus_network":null,"sort_rank":380,"kind_detail":"primary","is_bicycle_related":true,"kind":"major_road","source":"openstreetmap.org","min_zoom":8.0,"bus_shield_text":"\u96e8\u77f3","ref":"S124"},"arcs":[1389]},{"type":"MultiLineString","properties":{"kind":"major_road","name:en":"Tianyuan West Road","sort_rank":381,"landuse_kind":"urban_area","source":"openstreetmap.org","min_zoom":8.0,"kind_detail":"trunk","name:zh":"Ti\u0101nyu\u00e1n X\u012bl\u00f9"},"arcs":[[1390],[1391]]},{"type":"LineString","properties":{"source":"openstreetmap.org","kind":"major_road","landuse_kind":"urban_area","sort_rank":380,"kind_detail":"primary","ref":"S340","min_zoom":8.0},"arcs":[1392]},{"type":"LineString","properties":{"bus_network":null,"sort_rank":381,"kind_detail":"trunk","kind":"major_road","source":"openstreetmap.org","min_zoom":8.0,"bus_shield_text":"\u5b89\u94dc","ref":"S123"},"arcs":[1393]},{"type":"MultiLineString","properties":{"kind":"major_road","name:en":"Shuanglong Avenue","ref":"S123","sort_rank":381,"landuse_kind":"urban_area","source":"openstreetmap.org","min_zoom":8.0,"kind_detail":"trunk","name:zh":"Shu\u0101ngl\u00f3ng D\u00e0d\u00e0o"},"arcs":[[1394],[1395],[1396],[1397],[1398],[1399],[1400]]},{"type":"MultiLineString","properties":{"source":"openstreetmap.org","kind":"major_road","sort_rank":381,"kind_detail":"trunk","ref":"S243","min_zoom":8.0},"arcs":[[1401],[1402],[1403],[1404]]},{"type":"MultiLineString","properties":{"source":"openstreetmap.org","kind":"highway","sort_rank":383,"kind_detail":"motorway","ref":"S55","min_zoom":8.0},"arcs":[[1405],[1406],[1407],[1408],[1409],[1410],[1411],[1412],[1413],[1414],[1415]]},{"type":"MultiLineString","properties":{"kind":"highway","name:en":"Wuxuan Expressway","network":"CN-expressways","sort_rank":383,"landuse_kind":"urban_area","source":"openstreetmap.org","min_zoom":8.0,"all_networks":["CN-expressways"],"kind_detail":"motorway","shield_text":"5011","ref":"G5011","all_shield_texts":["5011"]},"arcs":[[1416],[1417]]},{"type":"LineString","properties":{"source":"openstreetmap.org","kind":"major_road","name:en":"Zhaoguan Rd.","sort_rank":380,"kind_detail":"primary","min_zoom":8.0,"id":336137096},"arcs":[1418]},{"type":"MultiLineString","properties":{"kind":"highway","name:en":"Ninghang Expressway","network":"CN-expressways","sort_rank":383,"kind_detail":"motorway","source":"openstreetmap.org","min_zoom":8.0,"all_networks":["CN-expressways"],"shield_text":"25","ref":"G25","all_shield_texts":["25"]},"arcs":[[1419],[1420],[1421],[1422],[1423],[1424],[1425],[1426]]},{"type":"MultiLineString","properties":{"source":"openstreetmap.org","kind":"highway","name:en":"Airport Expressway","sort_rank":383,"kind_detail":"motorway","ref":"S88","min_zoom":8.0},"arcs":[[1427],[1428]]},{"type":"MultiLineString","properties":{"kind":"major_road","name:en":"China National Highway 318","network":"CN-roads","sort_rank":381,"kind_detail":"trunk","name:de":"Nationalstra\u00dfe 318","source":"openstreetmap.org","min_zoom":8.0,"shield_text":"318","name:ru":"\u0413\u043e\u0434\u0430\u043e 318","osm_relation":true},"arcs":[[1429],[1430],[1431],[1432],[1433]]},{"type":"LineString","properties":{"bus_network":null,"sort_rank":380,"kind_detail":"primary","kind":"major_road","source":"openstreetmap.org","min_zoom":8.0,"bus_shield_text":"\u5b89\u94dc","landuse_kind":"urban_area"},"arcs":[1434]},{"type":"LineString","properties":{"source":"openstreetmap.org","kind":"major_road","landuse_kind":"urban_area","sort_rank":380,"kind_detail":"primary","ref":"S341","min_zoom":8.0},"arcs":[1435]},{"type":"LineString","properties":{"source":"openstreetmap.org","kind":"major_road","sort_rank":380,"kind_detail":"primary","ref":"S216","min_zoom":8.0},"arcs":[1436]},{"type":"MultiLineString","properties":{"bus_network":null,"network":null,"sort_rank":380,"kind_detail":"primary","kind":"major_road","source":"openstreetmap.org","min_zoom":8.0,"bus_shield_text":"\u5b89\u94dc","shield_text":"337","ref":"S123"},"arcs":[[1437],[1438]]},{"type":"LineString","properties":{"source":"openstreetmap.org","kind":"highway","name:en":"Ningxuan Expressway","sort_rank":383,"kind_detail":"motorway","ref":"S55","min_zoom":8.0},"arcs":[1439]},{"type":"MultiLineString","properties":{"kind":"major_road","name:en":"China National Highway 104","network":"CN-roads","sort_rank":381,"kind_detail":"trunk","source":"openstreetmap.org","min_zoom":8.0,"shield_text":"104","osm_relation":true},"arcs":[[1440],[1441],[1442],[1443],[1444],[1445],[1446],[1447],[1448],[1449],[1450],[1451],[1452],[1453],[1454],[1455],[1456],[1457],[1458],[1459],[1460],[1461],[1462],[1463],[1464],[1465],[1466],[1467],[1468],[1469]]},{"type":"MultiLineString","properties":{"kind":"major_road","name:en":"Shijia Bridge","network":"CN-roads","sort_rank":381,"kind_detail":"trunk","source":"openstreetmap.org","min_zoom":8.0,"shield_text":"104","ref":"G104"},"arcs":[[1470],[1471]]},{"type":"LineString","properties":{"kind":"major_road","name:en":"Chengbei Avenue","sort_rank":380,"kind_detail":"primary","source":"openstreetmap.org","min_zoom":8.0,"ref":"S239","id":106111463},"arcs":[1472]},{"type":"MultiLineString","properties":{"source":"openstreetmap.org","kind":"major_road","sort_rank":381,"kind_detail":"trunk","ref":"G104","min_zoom":8.0},"arcs":[[1473],[1474],[1475]]},{"type":"LineString","properties":{"bus_network":null,"sort_rank":380,"kind_detail":"primary","kind":"major_road","source":"openstreetmap.org","min_zoom":8.0,"bus_shield_text":"\u91d1\u4e39","ref":"X205"},"arcs":[1476]},{"type":"MultiLineString","properties":{"source":"openstreetmap.org","kind":"major_road","name:en":"Yingbin Bridge","kind_detail":"primary","sort_rank":380,"landuse_kind":"urban_area","min_zoom":8.0},"arcs":[[1477],[1478]]},{"type":"MultiLineString","properties":{"source":"openstreetmap.org","kind":"highway","sort_rank":383,"kind_detail":"motorway","ref":"S32 Tangxuan Expy","min_zoom":8.0},"arcs":[[1479],[1480],[1481],[1482],[1483]]},{"type":"LineString","properties":{"kind":"major_road","name:en":"Hongkou Bridge","sort_rank":380,"kind_detail":"primary","source":"openstreetmap.org","min_zoom":8.0,"landuse_kind":"urban_area","ref":"S241","id":335247200},"arcs":[1484]},{"type":"MultiLineString","properties":{"source":"openstreetmap.org","kind":"major_road","sort_rank":380,"kind_detail":"primary","ref":"S341","min_zoom":8.0},"arcs":[[1485],[1486],[1487],[1488]]}]},"earth":{"type":"GeometryCollection","geometries":[{"type":"MultiPolygon","properties":{"sort_rank":10,"source":"naturalearthdata.com","kind":"earth","min_zoom":0.0,"id":4736},"arcs":[[[1489]]]}]},"landuse":{"type":"GeometryCollection","geometries":[{"type":"Polygon","properties":{"source":"openstreetmap.org","kind":"park","area":15576600,"tier":2,"id":375970479,"min_zoom":8.0,"sort_rank":24},"arcs":[[1490]]},{"type":"MultiPolygon","properties":{"source":"naturalearthdata.com","kind":"urban_area","name":"","area":9689777244,"sort_rank":11,"min_zoom":4.0},"arcs":[[[1491]],[[1492]],[[1493]],[[1494]],[[1495]],[[1496]],[[1497]],[[1498]],[[1499]],[[1500]],[[1501]],[[1502]],[[1503]],[[1504]]]},{"type":"Polygon","properties":{"kind":"aerodrome","area":13249100,"sort_rank":60,"source":"openstreetmap.org","min_zoom":8.0,"tier":3,"id":-1903184,"osm_relation":true},"arcs":[[1505]]},{"type":"Polygon","properties":{"source":"openstreetmap.org","kind":"nature_reserve","area":302443008,"tier":2,"id":496644915,"min_zoom":6.0,"sort_rank":23},"arcs":[[1506]]}]}},"type":"Topology","transform":{"translate":[118.125,30.7512777763],"scale":[0.0003433228,0.0002931847]},"arcs":[[[688,4096],[-6,-68],[63,-52],[50,-3],[37,-42],[164,-75],[-13,-79],[108,-50],[-66,-216],[60,-1],[50,-52],[74,-2],[-19,-45],[-48,-21],[26,-23],[37,-16],[14,18],[18,-30],[49,62],[23,-19],[81,55],[34,-23],[23,32],[33,-2],[42,-95],[95,-21],[36,-53],[-76,-49],[-48,-66],[-23,15],[-8,-113],[122,-38],[77,25],[0,-31],[40,-21],[30,21],[33,142],[77,24],[69,-48],[-44,-42],[21,-90],[36,-36],[89,38],[103,-50],[7,-53],[-30,-17],[49,-17],[-18,-64],[38,-20],[-43,-36],[51,-89],[-61,-286],[9,-78],[-56,-103],[-115,-71],[-122,-25],[-10,85],[-30,-10],[-102,-217],[-4,-93],[-51,17],[48,-35],[29,10],[2,-38],[102,-19],[48,-54],[-1,-57],[26,-33],[44,-19],[48,27],[35,-23],[112,45],[36,-14],[6,-35],[98,54],[90,-32],[97,15],[12,-28],[97,36],[98,-37],[11,25],[70,-19],[31,27],[30,-22],[6,67],[81,24],[75,116],[51,-4],[30,27],[40,-20],[-9,-78],[20,-25],[33,28],[67,-66],[65,27],[33,-34],[128,48],[65,-25],[36,146],[20,4],[70,-142],[-52,-78],[-9,-95],[43,-72],[58,36],[30,-17],[-49,-28],[8,-44],[26,17],[43,-20],[41,29],[90,-87],[46,11],[20,-23],[21,40],[67,-30],[57,11],[13,-9]],[[3942,0],[-13,16],[3,63],[35,19],[51,-27],[51,22],[27,55]],[[2071,1639],[8,4],[4,-6],[-8,-3],[-4,5]],[[2076,1633],[12,5],[4,-6],[-8,-10],[-8,11]],[[2080,1653],[16,6],[2,-7],[-13,-6],[-5,7]],[[2083,2572],[30,69],[47,21],[-54,-93],[-23,3]],[[2086,1645],[13,6],[2,-6],[-12,-6],[-3,6]],[[2098,1663],[4,3],[4,0],[0,-2],[-8,-1]],[[2106,1669],[6,3],[44,8],[-30,-28],[-20,17]],[[2284,3918],[-7,5],[-6,7],[-39,91],[-40,41],[-178,-39],[-4,73]],[[2282,3919],[4,-2]],[[618,0],[-128,291]],[[490,291],[-4,10]],[[486,301],[-113,134],[-373,160]],[[486,301],[4,-10]],[[486,301]],[[4096,2157],[-158,21],[-91,41],[-299,343],[-417,386],[-271,152],[-165,285],[-123,130],[-239,413],[-133,168]],[[0,2500],[460,-132],[2,-165],[70,-39],[122,10]],[[1501,4096],[82,-73],[76,-25],[84,13],[70,56]],[[1813,4067],[28,29]],[[1813,4067],[27,29]],[[2284,3918],[-92,144],[-178,-39],[-4,73]],[[2282,3919],[3,-3]],[[1972,4096],[6,-118],[58,-15],[6,-142]],[[1500,4096],[90,-78],[86,-23],[80,22],[60,52]],[[1816,4069],[25,27]],[[1816,4069],[2,3],[7,7],[8,9],[8,8]],[[2033,2219],[-149,237],[-22,45],[79,-189],[10,-97],[-31,-39],[-31,12],[13,55],[-57,51],[-21,36],[-2,31],[-11,43],[-25,57],[-17,54],[11,32],[0,23],[62,0],[-45,44],[-52,34],[-53,24],[-51,14],[99,71],[33,-11],[48,-49],[104,-32],[25,-4],[22,2],[13,7],[27,28],[21,12],[18,-6],[15,-13],[16,-5],[185,30],[104,62],[37,-45],[34,-137],[9,-19],[15,-19],[11,-24],[3,-33],[-10,-38],[-21,-47],[-27,-39],[-31,-16],[-96,-2],[-14,-10],[-6,-12],[-34,-117],[-107,-70],[-101,69]],[[2513,1420],[79,-100],[18,-60],[-27,-58],[-47,-51],[-98,-80],[-51,-15],[-46,14],[-38,50],[-75,28],[-106,47],[-56,63],[56,74],[76,2],[44,7],[19,25],[9,19],[19,-12],[21,-24],[11,-17],[4,-24],[-4,-95],[35,38],[24,124],[40,52],[51,14],[42,-21]],[[4096,3095],[0,-340],[-39,-11],[-19,-46],[-3,-53],[-11,-41],[-18,-9],[-27,45],[-28,75],[45,289],[43,68],[57,23]],[[2033,2219],[-149,237],[-22,45],[79,-189],[10,-97],[-31,-39],[-31,12],[13,55],[-57,51],[-21,36],[-2,31],[-11,43],[-25,57],[-17,54],[11,32],[0,23],[62,0],[-45,44],[-52,34],[-53,24],[-51,14],[99,71],[33,-11],[48,-49],[104,-32],[25,-4],[22,2],[13,7],[27,28],[21,12],[18,-6],[15,-13],[16,-5],[185,30],[104,62],[37,-45],[34,-137],[9,-19],[15,-19],[11,-24],[3,-33],[-10,-38],[-21,-47],[-27,-39],[-31,-16],[-96,-2],[-14,-10],[-6,-12],[-34,-117],[-107,-70],[-101,69]],[[4096,2755],[-39,-11],[-19,-46],[-3,-53],[-11,-41],[-18,-9],[-27,45],[-28,75],[45,289],[43,68],[57,23]],[[2513,1420],[79,-100],[18,-60],[-27,-58],[-47,-51],[-98,-80],[-51,-15],[-46,14],[-38,50],[-75,28],[-106,47],[-56,63],[56,74],[76,2],[44,7],[19,25],[9,19],[19,-12],[21,-24],[11,-17],[4,-24],[-4,-95],[35,38],[24,124],[40,52],[51,14],[42,-21]],[[1957,3516],[80,-127],[3,-94]],[[4044,2224],[28,0]],[[1001,2007],[-3,3],[-58,50],[-24,15]],[[916,2074],[86,-70]],[[1825,4096],[-6,-60]],[[0,708],[23,-5],[21,-18],[54,-21],[324,46],[161,-13]],[[584,697],[-162,13],[-324,-46],[-53,21],[-22,18],[-7,3]],[[748,713],[308,-2]],[[1886,848],[-68,13],[-32,0],[-229,-42],[-277,-87],[-532,-19]],[[1506,801],[311,60]],[[1927,840],[-18,4]],[[2196,699],[-2,12]],[[3132,4096],[-18,-68],[-75,-48]],[[3041,3980],[73,48],[18,68]],[[3033,3830],[-29,59],[5,84]],[[3070,3756],[31,-199],[66,-103],[16,-104],[23,-47]],[[3206,3303],[-38,151],[-67,103],[-3,83]],[[3130,3431],[0,1]],[[3206,3303],[21,-52],[-18,-75],[24,-66],[12,-278],[217,-354]],[[3463,2478],[-217,354],[-12,278],[-25,66],[19,75],[-22,53]],[[3231,3039],[-41,101],[20,46]],[[3463,2476],[30,-52]],[[3493,2424],[-29,52]],[[3508,2414],[34,-35]],[[3543,2379],[-34,35]],[[3546,2358],[33,-65],[125,10]],[[3704,2303],[-125,-9],[-33,64]],[[3755,2304],[-51,-1]],[[3704,2303],[51,1]],[[4072,2224],[8,-4]],[[4081,2219],[15,-3]],[[2252,4092],[38,-15]],[[782,2073],[-3,-47]],[[780,2030],[2,43]],[[1738,3416],[-85,-25],[-74,34],[-124,154],[-203,-28],[-32,21]],[[1926,3473],[-51,-16]],[[1957,3516],[151,8]],[[2125,3540],[113,80],[74,111],[107,54],[170,182],[4,49]],[[4042,2225],[1,0]],[[719,3462],[-23,-105]],[[1941,698],[22,-3]],[[1967,697],[-3,-2]],[[1964,695],[3,2]],[[1997,706],[-30,-9]],[[0,3078],[133,-12],[73,-40],[206,29],[79,-59],[78,-39],[314,-28],[339,25],[81,-46],[25,2],[6,1],[86,17]],[[1420,2928],[8,1]],[[1428,2929],[2,1],[4,2]],[[1434,2932],[147,107]],[[1581,3039],[2,1]],[[1584,3042],[-3,-3]],[[1581,3039],[-50,-56],[-97,-51]],[[1434,2932],[-6,-3]],[[1428,2929],[-8,-1]],[[1420,2928],[-86,-16],[-6,-2],[-25,-2],[-81,46],[-73,1],[-266,-25],[-141,17],[-173,11],[-78,38],[-18,21],[-21,21],[-40,18],[-16,2],[-10,-1],[-11,-1],[-169,-30],[-73,41],[-133,11]],[[3868,2426],[-3,0]],[[2263,4029],[16,-21],[40,-41],[26,-33],[19,-37],[47,-81],[29,-47],[12,-18],[49,-64],[12,-18],[55,-103],[30,-48],[21,-102],[45,-149],[12,-21]],[[2678,3244],[-80,275],[-85,150],[-168,266],[-27,33],[-55,61]],[[1005,3537],[26,-53]],[[3989,2206],[0,-2]],[[3990,2204],[-1,2]],[[1207,3452],[-33,-52],[8,-95],[3,-5]],[[1187,3297],[-13,103],[34,53]],[[1489,3809],[-33,-36]],[[1457,3771],[32,36]],[[1589,4064],[11,-66],[-68,-130]],[[1533,3868],[42,78],[25,52],[-10,66]],[[3755,2304],[11,-6]],[[3766,2299],[-11,5]],[[3769,2297],[118,-58]],[[3887,2239],[-117,58]],[[3888,2239],[30,-3]],[[3918,2236],[-30,3]],[[4072,2224],[-28,1]],[[1875,3457],[-137,-41]],[[2116,2017],[118,62]],[[2234,2079],[-72,-34],[-46,-27]],[[220,1264],[-13,-67],[-49,-22],[-20,-13]],[[138,1161],[67,32]],[[207,1196],[14,67]],[[781,1979],[11,-135]],[[792,1844],[-10,135]],[[2020,4002],[-6,19]],[[2021,3998],[19,-100]],[[2040,3908],[-2,49]],[[3880,2401],[4,8]],[[3885,2411],[5,16]],[[3980,2436],[1,32]],[[0,1471],[102,45],[111,-12],[82,63],[115,4],[173,36],[72,108],[-10,68],[-6,24],[41,141]],[[680,1948],[-42,-141],[16,-92],[-71,-107],[-289,-41],[-81,-63],[-111,12],[-102,-44]],[[260,1139],[11,-97]],[[271,1042],[-11,97]],[[271,1042],[234,-469]],[[495,528],[10,43],[-11,-43]],[[500,3474],[134,-140]],[[634,3334],[10,-10],[7,-89],[31,-13]],[[526,2867],[90,0]],[[540,2974],[5,-2]],[[641,3090],[-34,13]],[[628,3332],[6,2]],[[634,3334],[28,11]],[[677,2178],[2,-68]],[[680,2110],[-2,66]],[[680,1790],[4,-2]],[[688,1791],[-5,2]],[[728,2427],[2,-2]],[[730,2429],[-2,-2]],[[730,1860],[3,-16]],[[730,2425],[2,1]],[[732,2427],[-2,2]],[[733,1844],[-2,15]],[[733,1843],[21,-93]],[[734,2427],[13,121],[45,19],[-45,-19],[-13,-121]],[[780,1808],[6,-6],[26,-14],[31,-9]],[[843,1779],[-56,23]],[[930,2067],[-14,1]],[[916,2066],[14,0]],[[930,2066],[4,0]],[[934,2067],[-4,0]],[[933,1966],[1,1]],[[934,2066],[255,-51],[149,5]],[[1337,2021],[-148,-5],[-219,52],[-20,2],[-16,-3]],[[943,3602],[59,-46]],[[978,2804],[194,-8]],[[1172,2796],[-194,9]],[[1021,3013],[-7,9]],[[1021,3013],[66,4]],[[1087,3017],[19,2],[38,2]],[[1144,3021],[1,0]],[[1145,3021],[33,6],[25,9],[16,3]],[[1219,3039]],[[1219,3040],[-15,-3],[-26,-10],[-33,-5]],[[1145,3022],[-1,0]],[[1144,3022],[-39,-3],[-18,-2]],[[1087,3017],[-87,-8]],[[1000,3009],[-8,-1],[-16,-4],[24,5]],[[1000,3009],[21,4]],[[1145,3078],[-1,-56]],[[1144,3022],[0,-1]],[[1144,3021],[0,-9],[-1,-48],[-12,-56],[6,-31]],[[1138,2877],[-6,31],[12,58],[1,46],[0,9]],[[1145,3021],[0,1]],[[1145,3022],[1,56]],[[1148,2753],[0,-10]],[[1149,2743],[0,10]],[[1196,2620],[0,1]],[[1219,3040],[0,-1]],[[1219,3039],[-7,-40]],[[1213,2999],[6,40]],[[1220,3040],[-1,0]],[[1225,3087],[-6,-47]],[[1220,3040],[-1,-1]],[[1220,3040],[5,47]],[[1623,3309],[-248,-8],[-37,-46],[0,-1]],[[1338,3254],[-1,0]],[[1337,3254],[-50,-22],[-17,5]],[[1270,3236],[17,-4],[51,22]],[[1338,3254]],[[1275,3132],[1,0]],[[1277,3132],[-2,1]],[[1326,3304],[11,-50]],[[1337,3254],[1,0]],[[1338,3254],[0,-1],[-19,-97]],[[1320,3156],[18,98]],[[1338,3254]],[[1338,3254],[-11,50]],[[1338,3254],[38,47],[247,7]],[[1470,1071],[-65,74],[-31,90]],[[1392,1289],[33,1],[53,0]],[[1478,1290],[1,0]],[[1479,1291]],[[1479,1291],[-1,0]],[[1478,1291],[-53,-1],[-33,0]],[[1466,316],[-40,-54]],[[1449,2792],[327,-7],[184,-64],[114,14],[83,18]],[[2157,2754],[-195,-32],[-186,63],[-325,7]],[[1469,1417],[9,-126]],[[1478,1291],[0,-1]],[[1478,1290],[62,-104]],[[1479,1290],[0,1]],[[1479,1291],[-10,126]],[[1479,1290],[62,-104]],[[1505,3113],[102,-9],[60,-46]],[[1512,3835],[104,-54]],[[1963,3671],[-2,-1]],[[1961,3670],[-1,0]],[[1960,3670],[-2,-1]],[[1958,3669],[-74,-17]],[[1884,3652],[-19,-4],[-75,11]],[[1790,3659],[-3,0],[-93,-44]],[[1694,3615]],[[1694,3615],[-63,83],[-15,84]],[[1616,3782],[-104,53]],[[1624,1911],[-80,14]],[[1616,3781],[0,1]],[[1616,3782],[97,117],[13,100],[45,40]],[[1616,3781],[15,-84],[60,-82],[3,0]],[[1694,3615]],[[1694,3615],[35,-1],[58,44],[3,1]],[[1790,3659],[92,5]],[[1882,3664],[76,5]],[[1958,3669],[2,1]],[[1960,3670],[1,0]],[[1961,3670],[2,0]],[[1647,712],[3,-3]],[[1725,703],[-12,7]],[[1713,710],[-63,-1]],[[1650,709],[45,9]],[[1695,718],[0,1],[0,-1]],[[1695,718],[15,-7],[3,-1]],[[1713,710],[11,-8]],[[1742,897],[-22,14]],[[1735,721],[-7,-3],[11,-62],[44,-15]],[[1783,641],[1,-1]],[[1784,640],[33,-11]],[[1817,629],[8,-3]],[[1825,626],[-8,3]],[[1817,629],[-33,12]],[[1784,641],[-1,0]],[[1783,641],[-43,15],[-5,65]],[[1742,897],[47,-117]],[[1798,820],[-56,77]],[[1784,649],[-1,-8]],[[1783,641]],[[1783,641],[-2,-44]],[[1783,600],[-2,1]],[[1781,601]],[[1781,598],[0,3]],[[1781,601],[3,39]],[[1784,640],[0,1]],[[1784,641],[0,8]],[[1886,3637],[-2,15]],[[1884,3652],[-2,12]],[[1882,3664],[-45,287],[-13,24],[-4,61]],[[1858,611],[91,-97]],[[1949,514],[-91,97]],[[1867,617],[43,13]],[[1882,3831],[71,-24],[3,1]],[[1956,3808]],[[1956,3808],[27,9],[10,1],[48,1],[37,3]],[[2078,3822],[-86,-4],[-9,-1],[-27,-9]],[[1956,3808]],[[1956,3808],[-4,-1],[-70,25]],[[1890,630],[-7,-4]],[[2251,2906],[-30,-72]],[[2221,2834],[-21,-49],[-169,-18],[-148,131]],[[1926,3957],[14,-83],[16,-66]],[[1956,3808]],[[1956,3808],[2,-10]],[[1958,3798],[10,-39],[-8,-89]],[[1960,3670]],[[1960,3670],[-3,-42],[19,-58],[-19,-54]],[[2254,3145],[-124,-11],[-104,56],[15,105],[-4,94],[-79,127],[18,54],[-19,58],[4,42]],[[1961,3670]],[[1961,3670],[7,89],[-10,39]],[[1958,3798],[-2,10]],[[1956,3808]],[[1956,3808],[-18,69]],[[1949,514],[-54,-24],[-162,-1],[-145,55],[-37,48],[-41,200],[40,-200],[37,-49],[146,-55],[162,2],[54,23]],[[1967,697]],[[2040,3295],[-20,-54],[6,-51],[104,-56],[124,10]],[[2069,3718],[25,2]],[[2094,3720],[-25,-1]],[[2112,3776],[5,-37],[-23,-19]],[[2094,3720]],[[2094,3720],[27,22],[-6,34]],[[2115,3776],[-3,0]],[[2191,3969],[42,-37],[-22,-82],[-99,-74]],[[2115,3776],[97,75]],[[2223,2279],[-6,-30]],[[2217,2249],[-30,-154]],[[2187,2095],[-1,-4],[0,-7],[-4,-9]],[[2183,2075],[3,9],[1,7],[0,4]],[[2187,2095],[8,79],[22,75]],[[2217,2249],[6,21],[1,9]],[[2212,3851],[22,82],[-42,36]],[[2212,3851],[29,-11]],[[2242,2670],[1,133],[-22,31]],[[2221,2834],[0,1]],[[2221,2834],[22,-31],[-2,-133]],[[2312,4005],[-1,2]],[[2315,3353],[65,-30],[27,-69],[63,-29],[90,-37]],[[2560,3188],[-153,66],[-27,69],[-64,30]],[[3093,1458],[-126,145],[-184,70],[-54,104],[4,102],[-111,137],[-34,85],[-90,73]],[[2503,2209],[1,0]],[[2515,2775],[109,-86],[102,-6],[121,48],[106,-10],[93,48],[86,-1]],[[2573,3335],[48,17]],[[2621,3352],[2,1],[3,1]],[[2675,3242],[-54,110]],[[2621,3352],[-32,66],[-119,52],[119,-53]],[[2939,4078],[1,-19]],[[3008,1865],[11,0]],[[3175,1757],[-67,-167],[-1,-251],[-24,-58]],[[3143,3377],[17,-5]],[[3150,3375],[-1,3]],[[3156,3376],[-1,-2]],[[3165,1409],[7,-99]],[[3172,1310],[-7,99]],[[3492,3341],[44,-20],[169,17],[160,48],[138,-2],[93,34]],[[4096,3419],[-93,-34],[-138,2],[-160,-49],[-168,-17],[-45,21]],[[3714,422],[-1,0]],[[3714,421],[1,1]],[[3796,491]],[[3796,491],[-1,-57]],[[3795,491],[1,0]],[[3796,491]],[[3796,491],[24,1],[5,0],[96,3]],[[3921,495],[-96,-3],[-29,-1]],[[3796,491],[0,-57]],[[4019,516],[-98,-21]],[[3927,2166],[0,-41]],[[3978,2512],[34,4]],[[4012,2516],[1,0],[-5,14]],[[4008,2530],[4,-14]],[[4012,2516]],[[1881,3831],[1,1],[-1,0],[0,-1]],[[2498,2177],[1,-1],[-1,-2],[-2,2],[2,1]],[[3712,420],[1,0],[1,2],[-2,0],[0,-2]],[[1630,4096],[-15,-8]],[[1618,4089],[13,7]],[[3969,2217],[-1,2]],[[3879,2237],[0,1]],[[1731,1854],[-297,-47],[-119,-30],[-64,-24]],[[1251,1752],[64,25],[35,5],[26,5],[13,3],[45,16],[249,28],[20,6],[28,14]],[[2343,2173],[-2,-2]],[[2342,2171],[2,2]],[[0,701],[152,-17],[168,-91],[103,-19],[139,-70]],[[494,528],[10,-251]],[[505,277],[-10,251]],[[3878,2264],[-3,91]],[[3876,2365],[1,14]],[[1742,668],[-68,-38],[-45,-1],[-308,-39],[-180,-89],[-442,35],[-137,-32],[-34,-188],[-95,-121],[-28,-101],[-79,-86],[-43,-8]],[[1629,629],[45,0]],[[4096,540],[-78,-21]],[[1179,3444],[204,300]],[[2290,4077],[41,-17]],[[2501,4030],[92,-14]],[[2690,3221],[85,-104]],[[2775,3117],[-85,104]],[[2021,3998],[-1,4]],[[1819,4036],[4,-61]],[[2011,4096],[3,-75]],[[2041,3824],[0,73]],[[2051,3682],[52,-102],[22,-40]],[[2103,3581],[-52,101]],[[3979,1959],[35,200]],[[4012,2516],[6,-40]],[[4019,2476],[-6,40]],[[4014,2159],[2,25]],[[4015,2184],[-1,-25]],[[1205,3156],[-9,-43],[-6,-30]],[[1190,3083],[16,73]],[[2222,4080],[41,-51]],[[2263,4029],[-40,51]],[[1947,630],[-168,-68],[-95,39],[-171,328],[-65,255],[-55,114],[-34,261],[-115,170],[-243,278]],[[1002,2004],[149,-185],[13,-13],[7,-7],[39,-35],[34,-35],[115,-170],[33,-261],[56,-115],[64,-254],[172,-328],[95,-40],[107,28],[22,8],[23,12],[2,1],[8,8],[3,4],[4,8]],[[1969,666],[-9,-11],[-8,-14]],[[1953,640],[23,31]],[[1982,3903],[-100,-71]],[[1882,3832],[100,69]],[[3969,2183],[0,1]],[[1653,3996],[66,-79],[57,-54],[77,-14],[47,-2],[48,-11],[18,-1],[31,2],[36,11],[20,11],[11,9],[16,15],[47,68],[3,4]],[[2129,3955],[-77,-96],[-104,-22],[-48,11],[-125,15],[-122,133]],[[1927,840],[228,-19],[38,-111]],[[2253,4093],[-169,-57]],[[2084,4035],[168,57]],[[2294,4083],[-41,9]],[[3785,2371],[0,18]],[[4080,2220],[1,-1]],[[2038,3957],[-16,41]],[[2041,3897],[-1,11]],[[2134,3534],[29,-22]],[[2163,3512],[-29,22]],[[2374,3385],[-167,116]],[[2586,3174],[-14,16]],[[694,606],[9,127]],[[758,2161],[25,-57]],[[807,2411],[2,-109],[-50,-118]],[[771,2141]],[[772,2141]],[[784,2104],[2,17],[-1,8],[-28,43],[52,130],[-2,109]],[[1119,3394],[-4,-57],[-129,-242],[14,-34]],[[724,1920],[0,1],[-1,0],[0,-1],[1,0]],[[1566,4096],[5,-6]],[[1571,4090],[-4,6]],[[1742,668],[25,14]],[[826,0],[-1,11],[24,90],[-42,164],[26,74],[-21,58],[-103,114],[-15,95]],[[703,733],[42,198],[80,198],[9,222],[-60,74],[-28,116],[37,155],[-28,53]],[[755,1749],[-1,1],[71,57]],[[733,1843],[0,1]],[[746,1541],[26,-113],[2,-4],[60,-73],[-10,-222]],[[755,1749]],[[755,1749],[7,2],[31,17],[33,38]],[[1013,2718],[-66,-130],[-140,-177]],[[807,2411],[141,177],[65,129]],[[1000,3061],[24,-58],[-6,-254]],[[1018,2749],[6,255],[-3,9]],[[1372,3843],[10,-100]],[[1383,3744],[-11,98]],[[1767,682],[-25,-14]],[[949,3786],[3,-174],[-107,-87]],[[1369,4096],[26,-17]],[[3241,0],[25,100],[63,74],[62,13],[83,139],[175,13],[45,65]],[[3694,404],[18,16]],[[3711,421],[-17,-17]],[[3796,461],[-82,-39]],[[3715,422],[81,39],[116,1]],[[4096,980],[-25,-25],[-60,-250],[23,-99],[3,-82],[-18,-8]],[[4096,982],[-25,-25]],[[2623,3067],[-42,-1]],[[2582,3065],[41,2]],[[1400,4077],[-5,2]],[[4043,2225],[1,0]],[[4027,2385],[-12,-201]],[[4016,2184],[14,225],[-11,67]],[[4018,2476],[11,-67]],[[0,925],[34,11]],[[34,936],[-34,-10]],[[51,942],[-7,-3]],[[45,939],[7,2]],[[354,1080],[-293,-134]],[[61,945],[295,135]],[[465,1182],[-28,-12]],[[437,1170],[-43,-18]],[[394,1152],[-2,-1],[-21,-57]],[[372,1094],[6,13],[16,45]],[[394,1152],[1,1],[42,17]],[[437,1170],[28,11]],[[642,1456],[-29,-69],[-4,-14],[-49,-157],[-79,-34]],[[481,1182],[79,33],[82,240]],[[681,1508],[-14,-12]],[[668,1495],[14,13]],[[827,1674],[-72,-124],[-57,-31]],[[698,1518],[47,24],[10,8],[72,123]],[[928,1928],[-22,-22],[-21,-32],[-49,-178]],[[837,1696],[48,177],[43,55]],[[987,2001],[-38,-55]],[[950,1946],[10,8],[8,9],[11,17],[7,17]],[[699,535],[436,-36],[178,89],[316,41]],[[1674,629],[68,39]],[[4036,546],[60,52]],[[4096,598],[-60,-51]],[[688,600],[21,134]],[[725,1994],[-2,-73]],[[723,1922],[7,37]],[[735,2054],[12,16]],[[758,2161],[25,-57]],[[807,2411],[2,-91]],[[809,2320],[0,-18],[-50,-118]],[[762,2112],[4,6]],[[771,2141],[1,-6]],[[772,2131]],[[772,2131],[0,10]],[[784,2104],[-12,27]],[[772,2131],[-15,37],[52,134],[0,18]],[[809,2320],[-4,91]],[[1179,3444],[-60,-50],[0,-50],[-124,-193],[-3,-91]],[[724,1920],[0,1],[-1,0],[0,-1],[1,0]],[[2828,4037],[2,0]],[[1426,262],[-149,-129],[-20,-71],[-59,-62]],[[1805,621],[-61,-59],[-122,-100],[-156,-146]],[[1700,954],[-36,116],[149,221],[-22,99],[34,48],[48,0],[4,43],[50,5],[5,124],[-90,184],[-131,33],[26,90]],[[1700,954],[20,-43]],[[1737,883],[-17,28]],[[1805,621],[-56,-54]],[[1776,863],[-10,16]],[[3992,2187],[0,-2]],[[3993,2185],[0,3]],[[1583,3040],[292,154],[144,10],[80,23],[81,6]],[[2180,3233],[1,0],[32,-13]],[[2213,3220],[45,-19],[22,-7],[14,-3]],[[2294,3192],[-36,10],[-45,18]],[[2213,3220],[-33,13]],[[2180,3233],[-4,2],[-78,-7],[-79,-23],[-145,-10],[-290,-153]],[[2322,3188],[100,15]],[[2421,3203],[-99,-14]],[[2498,3240],[-25,-9]],[[2473,3231],[24,8]],[[2616,3260],[-112,-19]],[[2504,3240],[112,19]],[[3004,3889],[-98,123],[-313,5],[-299,66]],[[2331,4060],[170,-30]],[[3083,1281],[-147,-473],[-16,-129]],[[3428,1613],[113,65],[36,61],[-10,36]],[[569,2332],[-80,-70],[-53,-134],[-436,115]],[[2626,3354],[120,15]],[[2791,3188],[143,101]],[[2934,3289],[34,17]],[[2968,3306],[190,76],[140,12],[95,55]],[[3393,3449],[44,-9],[53,-96],[2,-3]],[[3492,3342],[-55,98],[-44,9]],[[1615,4088],[-26,-24]],[[1590,4064],[28,25]],[[4064,2523],[-3,-3]],[[3704,2303]],[[3704,2303]],[[1816,4080],[-45,-41]],[[3969,2184],[0,17]],[[3969,2181],[0,2]],[[1881,3832],[-47,6]],[[4016,2178],[-136,23]],[[3880,2200],[136,-23]],[[2232,3421],[-3,-8],[35,-10]],[[2264,3403],[6,-2],[76,-40]],[[2270,3401],[-6,2]],[[2264,3403],[-29,6]],[[2547,3185],[16,-42]],[[2564,3143],[-1,3]],[[1456,3773],[-249,-321]],[[1208,3453],[249,318]],[[1489,3807],[44,61]],[[1532,3868],[-43,-59]],[[1771,4039],[-45,-40],[-14,-100],[-96,-117]],[[3887,2239],[1,0]],[[3887,2239],[1,0]],[[2313,3308],[-60,-133],[15,-195],[-17,-74],[18,56],[-1,18],[-14,195],[59,133]],[[3009,3975],[-17,-9]],[[2992,3966],[-28,-15]],[[2964,3951],[-1,-1],[-134,-180],[-69,-29]],[[2760,3740],[19,7],[50,23],[135,181]],[[2964,3951],[2,3],[26,12]],[[2992,3966],[17,8]],[[3039,3980],[-28,-5]],[[3012,3974],[29,6]],[[2697,3165],[15,-188]],[[2713,2977],[-16,188]],[[3770,2297],[-4,2]],[[3766,2298],[3,-1]],[[4042,2225],[-124,11]],[[3918,2236],[124,-12]],[[1834,3838],[47,-6]],[[1377,3731],[28,-17],[4,-1],[18,-4],[15,-1]],[[1442,3708],[64,-5]],[[1506,3703],[6,0],[109,56],[148,-16],[79,-38],[82,32],[139,-19]],[[2069,3719],[-139,18],[-83,-31],[-76,37],[-150,16],[-76,-37],[-39,-19]],[[1506,3703],[-4,-2],[-60,7]],[[1442,3708],[-14,2],[-19,4],[-32,18]],[[1520,3976],[-79,-73]],[[1442,3903],[212,193]],[[1886,848],[24,-5]],[[2294,3191],[28,-3]],[[2322,3189],[-28,3]],[[2473,3231],[-52,-28]],[[2422,3203],[51,28]],[[2497,3239],[7,1]],[[2504,3241],[-6,-1]],[[949,1995],[2,-1]],[[951,1994],[-2,1]],[[1317,1429],[49,-118]],[[1366,1311],[-4,39],[-44,79]],[[123,1152],[-123,-107]],[[123,1152],[15,9]],[[138,1162],[-15,-10]],[[792,1844],[-3,-24],[-19,-15]],[[770,1805],[-5,-4],[-162,-32],[-143,-108],[-145,-30],[-142,-123],[-17,-116],[38,-62]],[[194,1330],[26,-66]],[[221,1263],[-27,67]],[[611,1772],[134,27],[25,6]],[[770,1805],[14,4],[5,11],[3,24]],[[2616,3259],[40,1]],[[2641,3260],[-25,0]],[[2573,4096],[20,-80]],[[2193,710],[13,-56],[72,-127],[-3,-158],[20,-127],[53,-56],[13,-75],[76,-111]],[[2439,0],[-39,63],[-38,49],[-13,74],[-54,56],[-20,127],[15,66],[0,4],[-12,89],[-82,171]],[[3968,2229],[0,1]],[[1439,4063],[-39,14]],[[3700,4096],[-18,-138],[21,-272],[56,-288]],[[1930,699],[-5,-2]],[[1925,697],[5,2]],[[1932,699],[9,-1]],[[2241,2670],[-5,-23],[3,-54]],[[2239,2593],[8,-151],[-22,-150]],[[2225,2292],[-2,-11],[0,-2]],[[2224,2279],[0,2],[1,11]],[[2225,2292],[5,59],[9,242]],[[2239,2593],[3,77]],[[3875,2355],[1,10]],[[2270,2025],[-91,-19]],[[3939,2430],[8,-1]],[[4018,2477],[-37,-41]],[[3709,1468],[6,-48],[-80,-125],[15,-44],[-26,-97],[42,-56],[33,-150],[82,-14],[44,-66],[-47,-94],[-38,-267]],[[3735,483],[-23,-61]],[[3713,422],[23,61]],[[3739,508],[-4,-23]],[[3736,485],[4,22]],[[3740,507],[-1,0]],[[3741,507],[11,-1]],[[3736,483],[0,1],[-1,0],[0,-1],[1,0]],[[2331,4060],[7,1]],[[2339,4054],[162,-24]],[[3009,3975],[1,1],[2,-2],[-2,-1],[-1,2]],[[3925,2232],[0,-1]],[[3926,2235],[-1,-2]],[[3926,2231],[0,1]],[[3926,2233],[1,2]],[[949,3786],[-150,-3],[-158,63],[-37,-8],[-61,41],[1,46],[-94,70],[11,101]],[[2084,4036],[-70,-15]],[[2014,4021],[70,14]],[[0,2523],[226,-85],[178,-242],[82,-47],[60,8]],[[547,2158],[-12,-2],[-49,-7],[-82,47],[-178,243],[-183,76],[-21,5],[-22,3]],[[679,2171],[-90,-9]],[[590,2162],[89,9]],[[3493,2424],[15,-10]],[[3509,2414],[-16,10]],[[771,2141],[1,-6]],[[772,2131],[0,10]],[[583,697],[17,-2],[4,0],[17,4],[72,16],[15,-2],[40,0]],[[748,713],[-54,2],[-110,-18]],[[1909,844],[-23,4]],[[1775,1932],[202,15],[81,59],[58,1]],[[2320,2013],[-25,5]],[[2295,2017],[127,-73],[255,-26],[419,24],[160,-62]],[[3979,1959],[-115,0]],[[4096,2144],[-123,15]],[[1624,1911],[16,-15],[135,36]],[[3785,2420],[-196,-34],[-51,-320],[-135,-103],[-101,-32],[-127,-174]],[[4061,2520],[-43,-43]],[[4096,2555],[-32,-32]],[[1943,2103],[16,-137],[38,-153],[39,-65],[5,-109],[-5,109],[-39,65],[-54,290]],[[3709,1468],[-18,43],[36,73],[147,54],[5,64],[-36,104],[31,60],[-10,93]],[[3981,2468],[-27,380],[28,121],[111,225]],[[4093,3194],[3,7]],[[4096,3202],[-3,-8]],[[725,1994],[-2,-73]],[[723,1922],[7,37]],[[735,2054],[12,16]],[[762,2112],[4,6]],[[1002,3556],[3,-19]],[[1031,3484],[24,-21]],[[1185,3300],[20,-144]],[[1206,3156],[0,2],[1,30],[-12,91],[-8,18]],[[2207,4096],[15,-16]],[[2223,4080],[-16,16]],[[2246,3403],[-16,3]],[[1571,4090],[82,-94]],[[1653,3996],[-82,94]],[[2212,4096],[-19,-37],[-43,-67],[-21,-37]],[[2130,3955],[64,103],[18,38]],[[3925,2233],[0,-1]],[[3926,2232],[0,1]],[[2699,3259],[-10,2],[-48,-1]],[[2656,3260],[43,-1]],[[2716,3256],[119,15],[86,26],[233,-1],[21,3],[38,10],[21,3],[87,-4],[46,0],[51,11]],[[3414,3319],[-180,-7],[-23,-3],[-58,-13],[-232,1],[-205,-40]],[[3437,3325],[-6,-1]],[[3431,3322],[6,1]],[[3446,3327],[-1,0]],[[3446,3325],[1,1]],[[4096,3214],[-125,59],[-253,64],[-250,-6]],[[3469,3330],[249,6],[33,-11],[220,-53],[125,-60]],[[830,0],[19,101],[-42,106],[27,128],[-22,62],[-103,114],[-21,89]],[[709,734],[34,188],[77,160],[6,87]],[[826,1169],[10,168],[-2,5]],[[834,1342],[-22,36]],[[812,1378],[-45,72]],[[767,1450],[-14,25],[3,24]],[[756,1499],[27,197],[-28,53]],[[755,1749],[-1,1]],[[754,1750],[-21,94]],[[746,1541],[10,-42]],[[756,1499],[11,-49]],[[767,1450],[7,-26],[38,-46]],[[812,1378],[22,-27],[0,-9]],[[834,1342],[-8,-173]],[[826,1169],[-2,-40]],[[825,1807],[-71,-57]],[[755,1749]],[[755,1749],[71,57]],[[805,2411],[0,9],[2,2]],[[807,2422],[182,223],[24,72]],[[1013,2718],[-24,-73],[-182,-220],[0,-3]],[[807,2422],[0,-11]],[[992,3060],[46,-101],[-20,-210]],[[1018,2749],[21,210],[-18,54]],[[1372,3842],[15,-80],[-5,-13]],[[1382,3749],[-15,-37],[-131,-158],[-57,-110]],[[1372,3843],[10,-94]],[[1382,3749],[0,-6]],[[3778,3316],[-9,-173],[-65,-499],[-2,-51],[-56,-176]],[[3647,2417],[10,18],[12,27],[13,47],[13,46],[7,38],[1,11],[1,41],[31,205],[35,293],[9,113],[-1,60]],[[3778,3321],[-5,38],[-2,7],[-11,29]],[[3760,3395],[-29,80],[-27,211],[-22,272],[19,138]],[[3759,3398],[1,-3]],[[3760,3395],[11,-29],[1,-8],[5,-37]],[[2589,3417],[85,-176]],[[2712,2977],[92,-169],[-33,-131],[48,-139],[-11,-73],[78,-140],[98,-441],[1,0]],[[2985,1884],[9,-7]],[[2994,1877],[14,-12]],[[3008,1865],[-14,12]],[[2994,1877],[-9,6],[0,1]],[[2985,1884],[-99,441],[-78,140],[11,74],[-47,138],[32,131],[-91,169]],[[3404,1697],[-35,-299],[-160,-385],[-30,-190],[-102,-190]],[[3078,633],[101,190],[30,190],[9,13],[44,73],[108,299],[30,205],[4,92]],[[428,3077],[40,281],[41,96]],[[516,3481],[85,203]],[[245,2440],[256,142],[32,351],[46,135],[103,154]],[[845,3525],[-120,-31],[-6,-32]],[[3784,2408],[-48,138]],[[3925,2231],[2,-65]],[[3928,2125],[-2,106]],[[1119,3394],[60,50]],[[736,2077],[-156,-25]],[[581,2051],[155,26]],[[684,2018],[-9,-30]],[[675,1988],[9,30]],[[779,2026],[-1,-39]],[[779,1988],[1,42]],[[783,2104],[-1,-31]],[[782,2073],[2,31]],[[897,2266],[-19,-194]],[[878,2072],[-3,-24]],[[875,2048],[-6,-65]],[[870,1983],[7,65]],[[877,2048],[3,23]],[[880,2071],[15,137]],[[1100,3315],[-48,-71]],[[1052,3244],[49,71]],[[1497,4096],[-14,-13]],[[1486,4085],[13,11]],[[1589,4061],[3,-2]],[[871,2048],[4,0]],[[875,2048],[2,0]],[[877,2048],[15,0],[0,21],[-12,2]],[[880,2071],[-2,1]],[[878,2072],[-7,1],[0,-25]],[[1587,4063],[1,0],[1,-2]],[[1589,4061],[-2,-1],[0,3]],[[1919,4096],[19,-119]],[[1939,3977],[-19,119]],[[2129,3532],[103,-111]],[[2233,3420],[-9,21],[-94,91]],[[986,1997],[2,4]],[[1100,2372],[-9,-17]],[[1091,2355],[-40,-78]],[[1051,2277],[-3,-7],[-30,-145],[-10,-67],[-6,-19]],[[1002,2039],[6,19],[11,67],[0,1],[32,151]],[[1051,2277],[2,7],[38,71]],[[1091,2355],[9,17]],[[1138,2441],[-28,-49]],[[1110,2392],[28,49]],[[1173,2647],[-23,-117],[0,-62]],[[1150,2468],[23,179]],[[1181,3040],[11,-77]],[[1192,2964],[-10,80]],[[1201,2912],[-17,-163]],[[1184,2749],[18,163]],[[1193,2954],[5,-26]],[[1198,2928],[-5,25]],[[1952,641],[-5,-11]],[[1948,630],[5,10]],[[389,3057],[5,-1],[13,4]],[[407,3060],[16,5],[0,1]],[[426,3073],[-19,-13]],[[407,3060],[-4,-3]],[[586,4096],[48,-247]],[[634,3849],[1,-4],[-20,-89]],[[615,3756],[-17,-78],[-44,-81],[-85,-230],[-43,-294]],[[426,3073],[-2,-4],[5,-16]],[[429,3053],[2,-4],[5,-2]],[[429,3051],[0,2]],[[429,3053],[-1,24]],[[509,3454],[7,27]],[[548,3483],[-15,-3],[0,-6],[-1,-1]],[[532,3473],[-5,-4]],[[527,3468],[6,4]],[[527,3477],[5,-4]],[[532,3473],[1,-1]],[[533,3472],[7,8]],[[533,3472],[2,7]],[[601,3684],[14,72]],[[615,3756],[19,93]],[[634,3849],[1,5],[-48,242]],[[622,3842],[4,-10]],[[629,3828],[-6,14]],[[873,2929],[15,-7]],[[896,2935],[-15,-5]],[[882,2929],[8,-2],[1,0]],[[891,2927],[25,6]],[[919,2934],[-32,-17]],[[887,2917]],[[887,2917]],[[887,2917],[2,6]],[[889,2923],[2,4]],[[891,2927],[2,5]],[[888,2922],[1,1]],[[889,2923],[6,2]],[[1166,2953],[23,-3]],[[2189,726],[-4,-21]],[[2188,701],[7,5]],[[2189,715],[14,-15],[9,-2]],[[2206,701],[-14,16]],[[3679,2465],[241,50],[125,56],[6,9]],[[4051,2580],[45,55]],[[4096,2633],[-42,-52],[-3,-1]],[[4051,2580],[-131,-64],[-241,-50]],[[450,4070],[-65,-10],[-115,-121],[-270,-169]],[[1823,669],[0,-4]],[[1823,665],[0,-25],[-6,-6]],[[1817,633],[6,7],[1,14],[-1,11]],[[1823,665],[0,17]],[[4096,542],[-322,-155],[-172,113],[-167,24],[-238,106],[-4,0],[-178,53]],[[3015,683],[-81,24]],[[2934,707],[-8,2],[-477,17],[-313,-24],[-143,-25],[-17,-6],[-7,-5]],[[1976,671],[473,55],[455,-18],[30,-1]],[[2934,707],[42,-1],[39,-23]],[[3015,683],[55,-32],[127,-22],[238,-106],[167,-23],[172,-114],[322,154]],[[2253,4093],[-4,3]],[[2252,4092],[39,-14]],[[2981,4070],[-19,-4]],[[2983,4015],[-2,55]],[[2996,3992],[-8,10]],[[3770,2297],[-4,3]],[[3766,2298],[2,-1]],[[3917,2237],[125,-13]],[[4040,2219],[-120,15]],[[2593,4016],[313,-4],[98,-123]],[[143,1198],[16,-23]],[[3865,2426],[-29,-2]],[[3939,2430],[-71,-4]],[[3947,2429],[32,5]],[[0,2046],[428,50],[51,45]],[[734,2054],[-9,-60]],[[730,1959],[5,95]],[[3777,3321],[1,-5]],[[3778,3316],[0,5]],[[546,2157],[44,5]],[[589,2162],[-42,-4]],[[708,2175],[-29,-4]],[[679,2171],[29,3]],[[1587,4063],[-65,26],[-83,-26]],[[609,2057],[43,-2]],[[744,3512],[-231,-37],[-175,1],[-48,-26],[-117,2],[-173,-42]],[[1010,3845],[-52,-2],[-9,-57]],[[3985,2227],[4,-21]],[[3989,2206],[-4,21]],[[3989,2204],[3,-17]],[[3993,2188],[-3,16]],[[3992,2185],[0,-1]],[[3993,2184],[0,1]],[[630,567],[11,-40]],[[630,567],[12,-39]],[[692,604],[17,-93]],[[824,1129],[-80,-198],[-46,-199]],[[733,1844],[0,-1]],[[754,1749],[28,-53],[-36,-155]],[[839,1864],[-14,-57]],[[826,1806],[14,58]],[[1014,3022],[-14,39]],[[1018,2749],[-5,-31]],[[1013,2717],[5,32]],[[1382,3743],[-203,-299]],[[1415,3888],[-43,-45]],[[1372,3842],[43,46]],[[3778,2308],[7,63]],[[3785,2389],[-1,19]],[[2235,3409],[-2,11]],[[2346,3361],[-76,40]],[[2563,3146],[-16,39]],[[2563,3143],[-6,-116]],[[2558,3026],[6,117]],[[3992,2184],[0,-4]],[[3992,2179],[1,5]],[[988,2001],[14,38]],[[1002,2039],[-14,-35]],[[1110,2392],[-10,-20]],[[1100,2372],[10,20]],[[1150,2468],[-12,-27]],[[1138,2441],[12,27]],[[1184,2749],[-11,-102]],[[1173,2647],[11,102]],[[1190,3083],[-9,-43]],[[1182,3044],[8,39]],[[1192,2963],[1,-9]],[[1193,2953],[-1,11]],[[1198,2928],[3,-16]],[[1202,2912],[-4,16]],[[3542,2379],[4,-21]],[[3546,2358],[-3,21]],[[1013,3857],[-35,-62],[35,62]],[[2339,4054],[-3,3]],[[951,1994],[97,-50],[6,-118],[33,-72],[99,-17],[130,-142],[18,-55],[-17,-111]],[[1318,1429],[16,111],[-17,55],[-131,142],[-98,17],[-33,72],[-6,118],[-98,50]],[[1366,1311],[8,-76],[-8,76]],[[1647,712],[-39,44],[-138,315]],[[1994,704],[265,-223],[72,-128],[3,-111],[177,-158],[33,-84]],[[2496,2175],[-191,-160]],[[2305,2015],[192,160]],[[2295,2018],[-179,-11]],[[2127,2006],[168,11]],[[629,572]],[[629,572],[1,-5]],[[689,666],[-46,-43],[-12,-46],[-1,-2],[-1,-3]],[[629,572],[-1,-1],[2,-4]],[[698,732],[-6,-128]],[[759,2184],[-1,-23]],[[869,1982],[-30,-118]],[[840,1864],[30,118]],[[1000,3061],[-14,35],[66,146]],[[1179,3444],[-60,-50]],[[1441,3903],[-22,-11],[-4,-4]],[[1415,3888],[27,15]],[[1654,4096],[-134,-120]],[[2041,3824],[10,-142]],[[2051,3682],[4,42]],[[2134,3534],[-31,47]],[[2125,3540],[9,-6]],[[2572,3190],[-114,139],[-84,56]],[[2439,1896],[0,-10],[2,-27],[48,-100],[-35,-49],[-58,-10],[-10,-43]],[[2386,1657],[11,43],[57,10],[36,49],[-51,137]],[[2509,2152],[-70,-256]],[[2525,2214],[38,154],[-30,172],[-52,93],[35,139],[-26,115],[13,46]],[[3864,1959],[15,278]],[[3879,2238],[-1,26]],[[754,1750],[-21,93]],[[3968,2230],[0,1]],[[3968,2219],[0,10]],[[3969,2201],[0,16]],[[1964,695]],[[2699,3259],[17,-3]],[[2716,3257],[-17,2]],[[3431,3324],[-17,-5]],[[3418,3319],[13,3]],[[3445,3327],[-8,-2]],[[3437,3323],[9,2]],[[3468,3331],[-22,-4]],[[3447,3326],[22,4]],[[1817,634],[-12,-13]],[[1805,621],[12,12]],[[208,1194],[46,-20],[6,-35]],[[260,1139],[-3,32],[-3,3],[-30,18],[-16,3]],[[641,3090],[84,-28]],[[688,666],[-45,-43]],[[662,3345],[34,12]],[[673,1998],[-7,0]],[[666,1997],[8,1]],[[674,1997],[1,-9],[2,-18],[4,-17],[-1,-5]],[[681,2006],[-6,-7]],[[675,1999],[-2,-1]],[[673,1998],[2,-1],[1,1]],[[676,1998],[-1,1]],[[675,1999]],[[677,2002],[-2,-3]],[[675,1999]],[[680,1948],[1,5],[-6,44]],[[676,1999],[8,8]],[[676,1998]],[[676,1998],[23,0]],[[699,1998]],[[699,1998],[34,0]],[[733,1998],[1,0]],[[699,1987],[-3,1],[-20,10]],[[676,1998]],[[747,2356],[-11,-3]],[[736,2353]],[[736,2353],[-5,-1],[-58,-21],[4,-153]],[[678,2176],[-5,155],[58,21],[5,1]],[[736,2353]],[[736,2353],[11,2]],[[679,2110],[0,-1],[2,-24]],[[681,2085]],[[681,2085],[1,-23],[0,-1],[0,-10],[1,-1]],[[683,2050],[0,-1]],[[683,2049],[1,-23]],[[684,2026],[0,-3]],[[680,2085],[1,0]],[[681,2085]],[[681,2085],[30,-3]],[[711,2082]],[[711,2082],[17,-2],[7,-3],[14,0]],[[749,2077],[1,0]],[[750,2077],[1,0],[9,-1]],[[760,2076],[10,-1]],[[770,2075],[31,-2],[115,-7]],[[916,2068],[-45,6],[-101,1]],[[770,2075],[-4,0],[-6,1]],[[760,2076],[-9,1],[-1,0]],[[750,2077]],[[750,2077],[-15,1],[-7,3],[-17,1]],[[711,2082]],[[711,2082],[-30,3]],[[681,2085]],[[681,2085],[-1,0]],[[684,2023],[-1,26]],[[683,2049],[0,1]],[[683,2050],[0,1],[-1,10],[0,1],[-1,23]],[[681,2085]],[[681,2085],[-1,24],[0,1]],[[712,2048],[-19,-32]],[[693,2016],[-1,0]],[[692,2016],[-1,-2]],[[691,2014],[-5,-4]],[[686,2010],[-2,-2]],[[684,2008],[-3,-2]],[[684,2023],[0,-1]],[[684,2022],[-3,-16]],[[684,2026]],[[684,2026],[-2,-2]],[[683,2023],[1,-1]],[[684,2022]],[[684,2007],[9,8]],[[684,2007],[0,1]],[[684,2008],[0,15],[2,-2]],[[701,1993],[-2,5]],[[699,1998],[-6,18]],[[693,2016]],[[693,2016],[-8,6],[-1,2]],[[686,2010]],[[686,2010],[-2,1]],[[689,2018],[2,-1]],[[691,2017],[1,-1]],[[692,2016],[1,-1]],[[691,2017]],[[691,2017],[0,-3]],[[691,2014]],[[693,2015],[0,1]],[[693,2016],[20,32]],[[713,2048],[0,1]],[[713,2049],[-2,33]],[[711,2082]],[[711,2082],[0,5],[-5,79],[6,77],[0,2]],[[712,2245],[-3,37]],[[709,2282],[0,3],[-14,39]],[[693,2015],[6,-17]],[[699,1998],[2,-5]],[[694,2324],[14,-39],[1,-3]],[[709,2282],[4,-25],[-1,-12]],[[712,2245],[0,-2],[-2,-13],[-4,-65],[3,-52],[2,-31]],[[711,2082]],[[711,2082],[1,-18],[0,-1],[0,-14]],[[712,2049],[0,-1]],[[701,1993],[-2,-6]],[[712,1987],[-1,0]],[[711,1987],[-10,0]],[[701,1987],[-2,0]],[[701,1993]],[[701,1993],[0,-1]],[[701,1986],[0,1]],[[701,1987],[0,5]],[[702,1992]],[[702,1992],[-1,2]],[[701,1992],[0,1]],[[712,1987],[-10,5]],[[702,1992],[-1,1]],[[701,1992],[1,0]],[[702,1992],[9,-5]],[[711,1987],[1,-1],[6,-3],[28,-17],[4,1]],[[750,1967],[6,0]],[[756,1967],[8,0],[90,15],[79,-16]],[[701,1991],[1,1]],[[702,1992]],[[734,1999],[-1,-1]],[[733,1998],[-9,-5],[-12,-6]],[[934,1967],[-80,16],[-90,-16],[-8,0]],[[756,1967],[-4,-1],[-1,0],[-1,1]],[[750,1967],[-4,0],[-34,20]],[[750,2026],[-17,13],[-20,10]],[[713,2049],[-1,0]],[[712,2049],[-29,1]],[[683,2050]],[[683,2050],[-18,0],[18,-1]],[[683,2049]],[[683,2049],[29,-1]],[[712,2048],[1,0]],[[713,2048],[20,-10],[17,-12]],[[723,1920],[4,-47],[3,-13]],[[727,1886],[-3,34]],[[727,1886]],[[731,1859],[-4,27]],[[733,2330],[3,-5]],[[808,1999],[-2,0]],[[806,1999],[-5,0]],[[801,1999],[-17,0],[-2,1],[-1,0]],[[781,2000],[-1,0]],[[780,2000]],[[780,2000],[-4,0]],[[776,2000],[-42,-1]],[[734,1999]],[[750,2026],[-16,-27]],[[734,2335],[0,-4]],[[734,2427],[-3,-28],[1,-16],[4,-30]],[[736,2353]],[[736,2353],[11,-99],[4,-56],[8,-50],[12,-7],[1,0],[9,0]],[[781,2141],[104,5]],[[734,1998],[42,1]],[[776,1999],[3,0]],[[779,1999],[1,0]],[[780,1999],[1,0]],[[781,1999],[1,0],[2,0],[17,0]],[[801,1999],[5,0]],[[806,1999],[5,0]],[[734,1998],[0,1]],[[734,1999],[16,27]],[[750,2026]],[[737,2331],[-3,5]],[[885,2146],[-116,1]],[[769,2147],[-1,0]],[[768,2147],[-6,0],[-2,2],[-9,50],[-3,55],[-12,99]],[[736,2353]],[[736,2353],[-3,30],[1,44]],[[772,2135],[0,-4],[-6,-12],[-14,-35]],[[752,2084],[-2,-7]],[[750,2077],[-1,0]],[[749,2077],[-2,-7],[-13,-16]],[[738,1999],[-2,3]],[[736,2326],[1,5]],[[747,2070],[3,7]],[[750,2077]],[[750,2077],[2,7]],[[752,2084],[10,28]],[[750,2026]],[[750,2026]],[[750,2026],[27,-13]],[[777,2013],[3,-2]],[[780,2011]],[[780,2011],[1,0]],[[781,2011],[25,-12]],[[806,1999]],[[806,1999],[143,-4]],[[808,1999],[-26,12]],[[782,2011],[-2,1]],[[780,2012]],[[780,2012],[-3,1]],[[777,2013],[-27,13]],[[757,2172],[6,-18],[2,-2],[3,-5]],[[768,2147],[3,-6]],[[772,2141],[-3,6]],[[769,2147],[-4,6],[-2,3],[-6,16]],[[766,2118],[6,13]],[[771,2146],[10,-5]],[[781,2141],[2,-1],[2,-11]],[[777,2002],[-3,-1]],[[775,2013],[3,-3]],[[775,2000],[1,0]],[[776,2000],[0,-1]],[[776,1999],[1,0]],[[778,2013],[-1,0]],[[777,2013]],[[777,2013],[-1,-1]],[[778,1998],[1,1]],[[779,1999],[1,1]],[[780,2000]],[[780,2000]],[[780,2000],[-2,2]],[[779,2010],[1,0]],[[780,2010],[0,1]],[[780,2011],[1,0]],[[781,2011]],[[779,2026],[1,-12]],[[780,2014],[0,-2]],[[780,2012],[0,-1]],[[780,2011],[0,-1]],[[780,2010],[0,-10]],[[780,2000]],[[780,2000],[0,-1]],[[780,1999],[1,-20]],[[782,2011]],[[782,2011],[-2,2]],[[780,2013],[0,1]],[[780,2014],[-1,0]],[[782,1979],[-1,20]],[[781,1999],[0,1]],[[781,2000],[-1,11]],[[780,2011]],[[780,2011],[0,1]],[[780,2012],[0,1]],[[780,2013],[0,13]],[[794,2142],[8,1]],[[802,2001],[-1,-2]],[[801,1999]],[[801,1999],[0,-1]],[[949,1995],[-12,1],[-129,3]],[[869,1983],[0,-1]],[[870,1982],[0,1]],[[895,2208],[3,59]],[[1052,3242],[51,76],[16,76]],[[1114,3337],[18,-23]],[[1132,3314],[13,-17],[0,-45]],[[1145,3252],[0,-101]],[[1145,3151]],[[1145,3151],[0,-73]],[[1146,3248],[-1,4]],[[1145,3252],[-13,62]],[[1132,3314],[-3,11],[-14,12]],[[1119,3394]],[[1119,3392],[3,3],[-3,1]],[[1146,3078],[0,6],[0,67]],[[1146,3151]],[[1146,3151],[0,38],[0,59]],[[1146,3248],[82,-2],[5,-1]],[[1233,3245],[1,0]],[[1234,3245],[36,-9]],[[1270,3237],[-36,8]],[[1234,3245],[-1,0]],[[1233,3245],[-5,2],[-19,1],[-63,0]],[[1203,3150],[-57,1]],[[1146,3151],[-1,0]],[[1145,3151],[-22,1],[-98,-1],[98,0],[22,0]],[[1145,3151],[1,0]],[[1146,3151],[55,-1],[2,0]],[[1205,3150],[22,-8]],[[1227,3142],[1,0]],[[1228,3142],[15,-5],[32,-5]],[[1275,3133],[-32,5],[-15,5]],[[1228,3143],[-1,0]],[[1227,3143],[-22,7]],[[1237,3305],[-4,-60]],[[1233,3245]],[[1233,3245],[-6,-102]],[[1227,3143],[0,-1]],[[1227,3142],[-2,-55]],[[1225,3087],[3,55]],[[1228,3142],[0,1]],[[1228,3143],[6,102]],[[1234,3245]],[[1234,3245],[3,60]],[[1276,3132],[37,-6]],[[1313,3126],[1,0]],[[1314,3126],[5,-1]],[[1313,3127],[-36,5]],[[1313,3127],[0,-1]],[[1313,3126],[-2,-31]],[[1312,3095],[2,31]],[[1314,3126]],[[1319,3156],[-6,-29]],[[1317,3126],[-4,1]],[[1314,3126],[6,30]],[[1317,3126],[27,31],[161,-44]],[[1319,3125],[-2,1]],[[1319,3125],[19,-5]],[[1602,4096],[4,-11]],[[1607,4086],[-4,10]],[[1793,753],[0,-1]],[[1793,752],[-58,-31]],[[1735,721],[58,31]],[[1793,752]],[[1771,4039],[46,41]],[[1793,753],[0,-1]],[[1793,752]],[[1793,752],[-8,-77],[-10,0]],[[1780,671],[4,-22]],[[1784,649],[6,13]],[[1789,780],[4,-27]],[[1790,662],[3,91]],[[1793,753],[5,67]],[[1817,4080],[8,16]],[[1820,4036],[-3,44]],[[1825,626],[29,-10]],[[1854,616],[1,0]],[[1855,616],[0,-1]],[[1855,615],[2,0],[10,2]],[[1883,626],[-17,-9],[-9,-2],[-2,0]],[[1855,615]],[[1855,615],[-1,0]],[[1854,615],[-29,11]],[[1837,638],[17,-22]],[[1854,616],[0,-1]],[[1854,615],[4,-4]],[[1858,611],[-3,4]],[[1855,615],[0,1]],[[1855,616],[-18,22]],[[1919,695],[5,-34],[0,-2]],[[1924,659],[-1,-12],[-4,-2]],[[1919,645],[-29,-15]],[[1910,630],[4,1],[5,14]],[[1919,645],[5,14]],[[1924,659],[0,2],[-5,35]],[[2150,4006],[-1,0]],[[2149,4006]],[[2149,4006],[-1,-1]],[[2148,4005],[-46,-35],[-65,-13]],[[2038,3957],[64,13],[46,35]],[[2148,4005],[1,0]],[[2149,4005],[1,0],[41,-36]],[[2133,4096],[15,-91]],[[2148,4005]],[[2148,4005],[5,-25]],[[2153,3980],[-4,25]],[[2149,4005],[0,1]],[[2149,4006],[-15,90]],[[2192,3969],[-43,37]],[[2149,4006]],[[2182,2075],[-4,-69]],[[2179,2006],[4,69]],[[2248,3372],[67,-19]],[[2316,3353],[-68,19]],[[2264,3372],[1,-1]],[[2560,3188],[21,-9]],[[2580,3179],[-20,9]],[[2588,3157],[-5,-133]],[[2583,3025],[14,93]],[[2588,3157],[-2,17]],[[2588,3157],[9,-39]],[[2627,3067],[-2,2],[-2,-2],[2,-1],[2,1]],[[2627,3067],[74,-10]],[[2701,3057],[-74,10]],[[2937,4096],[2,-18]],[[3984,2229],[1,0]],[[4029,2409],[-2,-24]],[[205,1193],[3,1]],[[208,1194],[-1,2],[-2,-1],[0,-2]],[[1203,3151],[0,-2],[2,0],[0,2],[-2,0]],[[1606,4086],[7,-16],[29,-38],[-29,39],[-7,15]],[[1785,673],[-2,-10],[1,-2],[3,10],[-2,2]],[[3980,2434],[1,1],[-1,1],[-1,-1],[1,-1]],[[2497,3239],[8,1]],[[4042,2224],[1,0]],[[1767,682],[-25,-14]],[[44,939],[-10,-3]],[[34,936],[11,3]],[[61,946],[-10,-4]],[[52,941],[9,4]],[[371,1094],[-17,-14]],[[356,1080],[16,14]],[[465,1181],[16,1]],[[481,1182],[-16,0]],[[667,1496],[-25,-40]],[[642,1455],[26,40]],[[698,1519],[-17,-11]],[[682,1508],[16,10]],[[836,1696],[-9,-22]],[[827,1673],[10,23]],[[949,1946],[-21,-18]],[[928,1928],[22,18]],[[988,2004],[-1,-3]],[[1939,4018],[-14,-1]],[[1925,4016],[14,2]],[[2421,3514],[-88,-158]],[[2334,3356],[8,12],[19,22],[24,30],[6,11],[10,20],[8,20],[4,13],[8,30]],[[1925,697]],[[1930,699]],[[2116,2018],[-385,-164]],[[1731,1854],[385,163]],[[2341,2171],[-55,-45],[-52,-47]],[[2234,2079],[18,14],[35,33],[44,34],[11,11]],[[2509,2264],[-100,-24],[-66,-67]],[[2344,2173],[65,67],[100,23]],[[1252,3551],[-32,22]],[[1276,3553],[-24,-2]],[[1920,3507],[6,-34]],[[2108,3525],[-188,-17]],[[1920,3508],[37,8]],[[1926,3473],[-6,35]],[[2144,3561],[-19,-20]],[[569,2332],[-80,-70],[-53,-134],[-436,115]],[[1883,2898],[-114,90],[-41,2],[-72,-23],[-142,-148],[-63,-27],[-72,4],[-110,-22],[-16,-6]],[[1253,2768],[-77,-27]],[[1176,2741],[-1,0],[-27,12],[-11,124]],[[1269,2775],[-16,-7]],[[1253,2768],[-74,-29],[-3,2]],[[1176,2741],[-17,8],[-10,4],[0,77],[-11,47]],[[4043,2224],[1,0]],[[1222,4096],[-77,-48],[-87,-98]],[[1058,3950],[-3,-3]],[[1055,3947],[-1,-2],[-41,-88]],[[1013,3857],[42,90]],[[1055,3947],[3,3]],[[1058,3950],[87,98]],[[1145,4048],[78,48]],[[2014,4021],[-75,-3]],[[1939,4018],[75,3]],[[2725,3141],[66,47]],[[2040,3898],[15,-174]],[[2010,4096],[1,-4]],[[2014,4067],[-1,18],[0,1]],[[2013,4086],[-2,10]],[[2012,4092],[-1,4]],[[2012,4087],[2,-20]],[[2014,4067],[-1,19]],[[2013,4086],[0,1]],[[2333,3356],[-20,-48]],[[2313,3308],[21,48]],[[2760,3741],[-94,-17],[-206,-122],[-39,-88]],[[2421,3514],[40,88],[73,31],[133,91],[93,16]],[[2547,3185],[-201,176]],[[2557,3027],[-77,-165],[-14,-163],[0,-3]],[[2466,2696],[1,-10]],[[2467,2686],[9,-95],[1,-2]],[[2477,2589],[42,-96],[0,-1]],[[2519,2492],[10,-187],[-32,-128]],[[2498,2177],[32,128],[-11,186],[0,1]],[[2519,2492],[-42,96],[0,1]],[[2477,2589],[-10,97]],[[2467,2686],[-1,10]],[[2466,2696],[14,166],[78,164]],[[916,2075],[-126,34],[-82,66]],[[708,2174],[82,-66],[126,-34]],[[0,3372],[61,40]],[[2676,3246],[14,-25]],[[2690,3221],[-12,23]],[[2775,3117],[110,-125],[38,-28],[173,-96],[162,-146],[27,-15],[7,-3]],[[3292,2704]],[[3292,2704],[18,-8],[60,-21],[22,-10],[70,-47],[59,-33],[107,-138],[62,-63],[62,-85],[124,-116],[82,-25],[138,-15]],[[3973,2159],[-97,25],[-104,97],[-82,103],[-62,63],[-63,91],[-44,47],[-6,4],[-53,29],[-57,39],[-13,8],[-22,10],[-49,18],[-29,11]],[[3292,2704]],[[3292,2704],[-7,3],[-5,2],[-22,13],[-149,136],[-13,10],[-61,40],[-112,57],[-37,27],[-56,65],[-55,60]],[[1938,3977],[11,-85],[63,-202],[117,-158]],[[2130,3532],[-117,159],[-28,134],[-36,68],[-10,84]],[[1742,668],[-69,-38],[-2,-1]],[[1671,629],[-358,-41],[-185,-90],[-429,38],[-137,-32],[-35,-210],[-86,-75],[-39,-128],[-76,-83],[-44,-8]],[[1629,629],[42,0]],[[1671,629],[3,0]],[[4096,540],[-78,-21]],[[2163,3512],[44,-11],[-44,11]],[[2733,2983],[-20,42],[-126,4],[-24,-26]],[[0,1368],[143,-170]],[[2125,3541],[-17,-16]],[[2108,3524],[17,16]],[[2346,3361],[201,-176]],[[2291,4078],[47,-17]],[[2339,4054],[365,-52],[202,10],[98,-123]],[[2628,4019],[200,18]],[[2830,4037],[69,16]],[[2899,4053],[63,13]],[[2988,4002],[-5,13]],[[3009,3976],[-13,16]],[[3004,3889],[5,84]],[[3098,3640],[16,99],[-110,150]],[[3070,3756],[20,-128]],[[3090,3628],[11,-71],[66,-103],[39,-151]],[[3184,3348],[-111,212],[-6,36],[23,32]],[[3090,3628],[8,12]],[[3206,3303],[-38,151],[-67,103],[-3,83]],[[3206,3303],[21,-52],[-18,-75],[24,-66],[12,-278],[239,-400],[55,-43],[16,-74],[10,-7]],[[3565,2308],[12,-7]],[[3577,2301],[14,-9],[175,6]],[[3766,2300],[-6,5],[-183,-4]],[[3577,2301],[-9,0],[-3,7]],[[3565,2308],[-25,82],[-56,42],[-238,400],[-12,278],[-25,66],[19,75],[-22,53]],[[3231,3039],[-41,101],[20,46]],[[3492,2413],[42,-114],[54,-8]],[[3588,2291],[11,1]],[[3588,2291],[0,1]],[[3768,2297],[76,-53],[10,-1]],[[3854,2243],[63,-6]],[[3920,2234],[-66,9]],[[3854,2243],[-8,1],[-76,53]],[[4096,2212],[-56,7]],[[3009,3975],[1,1],[2,-2],[-2,-1],[-1,2]],[[3462,2478],[1,-2]],[[3464,2476],[-1,2]],[[3836,2424],[-51,-4]],[[3033,3830],[-28,59]],[[3070,3756],[-37,74]],[[4096,2217],[-14,3]],[[1823,3975],[63,-338]],[[3984,2229],[1,-2]],[[3985,2229],[0,-2]],[[16,706],[-16,2]],[[1056,711],[224,20],[226,70]],[[1817,861],[69,-13]],[[1910,843],[17,-3]],[[2194,711],[-39,111],[-228,18]],[[3880,2401],[-3,-22]],[[2563,3003],[-65,-71],[-230,48],[-82,-4],[-24,-30]],[[3131,2769],[-85,1],[-93,-49],[-106,10],[-121,-48],[-102,7],[-109,86]],[[3131,2769],[-222,154],[-152,11],[-24,49]],[[3340,2661],[-130,-11],[-79,119]],[[4096,4096],[0,-4096],[-4096,0],[0,4096],[4096,0]],[[3665,1564],[47,162],[-45,22],[27,11],[1,40],[8,-40],[42,-1],[38,-83],[39,-12],[-13,-24],[-55,15],[-27,-63],[10,84],[-29,-14],[-31,-114],[-12,17]],[[605,558],[-75,34],[21,81],[54,40],[152,31],[-25,-91],[-55,-68],[-72,-27]],[[1914,841],[41,-211],[-66,0],[-64,-38],[0,38],[-87,40],[-5,86],[59,26],[1,38],[87,8],[9,30],[25,-17]],[[251,1127],[-109,-5],[-7,66],[72,86],[97,-76],[-53,-71]],[[1348,1411],[24,-99],[-53,-7],[-77,83],[-32,0],[17,48],[60,12],[61,-37]],[[2213,1917],[-97,39],[0,114],[117,9],[57,-43],[20,-80],[-97,-39]],[[789,2411],[65,0],[97,-76],[-38,-214],[6,-89],[32,-38],[-74,-115],[-88,-37],[-65,19],[-47,92],[-86,7],[-61,34],[0,152],[44,30],[61,-57],[57,-11],[-53,249],[133,98],[17,-44]],[[2301,4096],[-67,-117],[-164,-37],[-19,-53],[-185,145],[-106,6],[-32,-38],[-33,38],[-200,-212],[-26,-91],[-79,221],[-83,6],[24,78],[106,54],[864,0]],[[3177,4096],[-101,-126],[-84,23],[-35,85],[-32,0],[0,18],[252,0]],[[1014,3536],[21,-30],[-19,-110],[258,76],[33,-38],[-33,-38],[0,-76],[-31,0],[38,-118],[-7,-71],[149,82],[78,-6],[16,-75],[-48,-77],[-65,-38],[-12,-70],[-72,0],[-46,146],[-323,-38],[43,143],[-11,122],[-161,-61],[-65,23],[32,-227],[-53,-4],[-55,-68],[-54,-4],[-23,53],[88,137],[-32,189],[64,114],[60,-44],[38,-70],[46,59],[18,93],[44,5],[21,33],[63,-12]],[[2649,2971],[-80,8],[-30,126],[-35,26],[15,49],[147,27],[65,38],[65,-38],[-48,-204],[-17,-24],[-82,-8]],[[4096,2421],[0,-130],[-39,-32],[-32,-76],[-33,1],[-161,113],[-65,0],[-11,72],[-21,4],[7,21],[272,84],[64,-22],[19,-35]],[[1795,3374],[-51,12],[-17,86],[38,27],[87,0],[37,-27],[-94,-98]],[[2342,3358],[-194,-38],[-65,190],[77,36],[99,5],[181,-41],[-20,-85],[-78,-67]],[[4096,3372],[0,-18],[-6,4],[6,14]],[[2076,3311],[11,40],[129,74],[-1,-84],[-115,-73],[-2,22],[54,34],[-21,37],[-55,-50]],[[1770,2569],[186,-4],[79,27],[110,-21],[30,8],[25,94],[124,-8],[9,42],[74,34],[51,-78],[24,-218],[-22,-65],[-44,-14],[-28,-48],[-39,8],[-61,-62],[-130,30],[-104,-130],[-68,87],[-104,231],[-107,58],[-5,29]]]}