{"objects":{"water":{"type":"GeometryCollection","geometries":[{"type":"MultiPolygon","properties":{"source":"naturalearthdata.com","kind":"ocean","area":1576712559132672,"sort_rank":200,"min_zoom":0.0,"id":1},"arcs":[[[5],[6]],[[7],[8],[9],[10]],[[11]]]},{"type":"MultiLineString","properties":{"source":"naturalearthdata.com","kind":"ocean","sort_rank":205,"boundary":true,"min_zoom":0.0,"id":58},"arcs":[[12],[13],[14]]},{"type":"LineString","properties":{"source":"naturalearthdata.com","kind":"ocean","sort_rank":205,"boundary":true,"min_zoom":0.0,"id":1802},"arcs":[15]},{"type":"LineString","properties":{"source":"naturalearthdata.com","kind":"ocean","sort_rank":205,"boundary":true,"min_zoom":0.0,"id":1803},"arcs":[16]},{"type":"LineString","properties":{"source":"naturalearthdata.com","kind":"ocean","sort_rank":205,"boundary":true,"min_zoom":0.0,"id":3547},"arcs":[17]},{"type":"LineString","properties":{"source":"naturalearthdata.com","kind":"ocean","sort_rank":205,"boundary":true,"min_zoom":0.0,"id":3548},"arcs":[18]}]},"buildings":{"type":"GeometryCollection","geometries":[]},"places":{"type":"GeometryCollection","geometries":[{"type":"Point","properties":{"kind":"locality","name:en":"Quanzhou","name":"\u6cc9\u5dde\u5e02","kind_detail":"city","min_zoom":8.0,"name:de":"Quanzhou","source":"openstreetmap.org","name:fr":"Quanzhou","int_name":"Quanzhou","name:uk":"\u0426\u044e\u0430\u043d\u044c\u0447\u0436\u043e\u0443","name:ru":"\u0426\u044e\u0430\u043d\u044c\u0447\u0436\u043e\u0443","name:vi":"Tuy\u1ec1n Ch\u00e2u","name:zh":"Qu\u00e1nzh\u014du Sh\u00ec","id":244081721,"population":8128530},"coordinates":[1340,1212]},{"type":"Point","properties":{"kind":"locality","name:en":"Putian","name":"\u8386\u7530\u5e02","source":"openstreetmap.org","kind_detail":"city","min_zoom":8.0,"name:zh_PY":"P\u00fati\u00e1n Sh\u00ec","name:de":"Putian","alt_name:vi":"B\u1ed3 \u0110i\u1ec1n","name:fr":"Putian","name:vi":"Ph\u1ee7 \u0110i\u1ec1n","name:ru":"\u041f\u0443\u0442\u044f\u043d\u044c","population":1954000,"id":244081601,"name:ja":"\u30db\u7530\u5e02"},"coordinates":[2570,2919]},{"type":"Point","properties":{"kind":"locality","name:en":"Wuqiu","name":"\u70cf\u5775\u9109","name:ko":"\uc6b0\ucd94 \ud5a5","kind_detail":"town","source":"openstreetmap.org","min_zoom":8.0,"int_name":"Wuqiu Township","name:vi":"\u00d4 Kh\u00e2u","population":669,"id":1431372993,"name:ja":"\u70cf\u5775\u90f7"},"coordinates":[3869,1495]}]},"transit":{"type":"GeometryCollection","geometries":[{"type":"LineString","properties":{"kind":"train","name:en":"Fuxia Railway (Fuzhou-Xiamen High-Speed Railway)","network":"CN-railway","sort_rank":275,"source":"openstreetmap.org","min_zoom":6.0,"ref":"\u798f\u53a6\u9ad8\u94c1","osm_relation":true,"name":"\u798f\u53a6\u94c1\u8def(CRH)"},"arcs":[4]}]},"pois":{"type":"GeometryCollection","geometries":[]},"boundaries":{"type":"GeometryCollection","geometries":[{"type":"LineString","properties":{"alt_name:ca":"Rep\u00fablica de la Xina","name:ko":"\ud0c0\uc774\uc644","name:cv":"\u0422\u0430\u0439\u0432\u0430\u043d\u044c","name:kk":"\u0422\u0430\u0439\u0432\u0430\u043d\u044c","name:tk":"Ta\u00fdwan","name:ku":"Taywan","alt_name:cs":"\u010c\u00ednsk\u00e1 republika","name:tg":"\u0422\u0430\u0439\u0432\u0430\u043d","name:ca":"Taiwan","alt_name:tr":"\u00c7in Cumhuriyeti","alt_name:li":"Republiek China","name:cy":"Taiwan","alt_name:tt":"\u041a\u044b\u0442\u0430\u0439 \u0496\u04e9\u043c\u04bb\u04af\u0440\u0438\u044f\u0442\u0435","alt_name:qu":"Chunwa Republika","alt_name:la":"Res publica Sinarum","name:de":"Taiwan","source":"openstreetmap.org","alt_name:ta":"\u0b9a\u0bc0\u0ba9\u0b95\u0bcd \u0b95\u0bc1\u0b9f\u0bbf\u0baf\u0bb0\u0b9a\u0bc1","alt_name:te":"\u0c24\u0c48\u0c35\u0c3e\u0c28\u0c4d","alt_name:th":"\u0e2a\u0e32\u0e18\u0e32\u0e23\u0e13\u0e23\u0e31\u0e10\u0e08\u0e35\u0e19","alt_name:lv":"\u0136\u012bnas Republika","alt_name:tl":"Republika ng Tsina","name:lt":"Taivanas","alt_name:de":"Republik China","name:cs":"Tchaj-wan","name:lb":"Taiwan","alt_name:dv":"\u0796\u07aa\u0789\u07b0\u0780\u07ab\u0783\u07a9 \u0797\u07a6\u0787\u07a8\u0782\u07a7","alt_name:dz":"\u0f4f\u0f60\u0f72\u0f0b\u0f5d\u0f71\u0f53\u0f0b","alt_name:pa":"\u0a1a\u0a40\u0a28 \u0a17\u0a23\u0a30\u0a3e\u0a1c","name:ln":"Taiwan","name:eo":"Tajvano","name:en":"Taiwan","name":"\u81fa\u7063","name:ee":"Taiwan","alt_name:ur":"\u062c\u0645\u06c1\u0648\u0631\u06cc\u06c2 \u0686\u06cc\u0646","alt_name:uk":"\u0420\u0435\u0441\u043f\u0443\u0431\u043b\u0456\u043a\u0430 \u041a\u0438\u0442\u0430\u0439","name:eu":"Taiwan","name:et":"Taiwan","alt_name:ug":"\u062a\u06d5\u064a\u06cb\u06d5\u0646","name:es":"Taiw\u00e1n","name:ia":"Taiwan","name:az":"tayvan","name:id":"Taiwan","name:ar":"\u062a\u0627\u064a\u0648\u0627\u0646","name:io":"Taiwan","name:ak":"Taiwan","name:sl":"Tajvan","alt_name:zh":"\u4e2d\u83ef\u6c11\u570b","name:it":"Taiwan","alt_name:an":"Republica de China","name:ru":"\u0422\u0430\u0439\u0432\u0430\u043d\u044c","name:rw":"Tayiwani","alt_name:za":"Cunghvaz Minzgoz","name:af":"Taiwan","alt_name:ru":"\u041a\u0438\u0442\u0430\u0439\u0441\u043a\u0430\u044f \u0420\u0435\u0441\u043f\u0443\u0431\u043b\u0438\u043a\u0430","kind_detail":"2","alt_name:ja":"\u4e2d\u83ef\u6c11\u56fd","alt_name:ps":"\u062f \u0686\u064a\u0646 \u062c\u0645\u0647\u0648\u0631\u064a\u062a","alt_name:jv":"R\u00e9publik Cina","name:se":"Taiwan","name:so":"Taywan","alt_name:be":"\u0420\u044d\u0441\u043f\u0443\u0431\u043b\u0456\u043a\u0430 \u041a\u0456\u0442\u0430\u0439","alt_name:bg":"\u0420\u0435\u043f\u0443\u0431\u043b\u0438\u043a\u0430 \u041a\u0438\u0442\u0430\u0439","name:sk":"Taiwan","name:ja":"\u53f0\u6e7e","alt_name:bn":"\u09aa\u09cd\u09b0\u099c\u09be\u09a4\u09a8\u09cd\u09a4\u09cd\u09b0\u09c0 \u099a\u09c0\u09a8","alt_name:bo":"\u0f50\u0f60\u0f7a\u0f0b\u0f5d\u0f53\u0f0d","name:br":"Taiwan","name:bs":"Tajvan","name:bm":"Tayiwani","name:bn":"\u09a4\u09be\u0987\u0993\u09af\u09bc\u09be\u09a8","alt_name:br":"Republik Sina","name:sv":"Taiwan","name:bg":"\u0422\u0430\u0439\u0432\u0430\u043d","name:ss":"IThayiwani","osm_relation":true,"alt_name:ko":"\ub300\ub9cc","alt_name:kn":"\u0c9a\u0cc0\u0ca8\u0cbf \u0c97\u0ca3\u0cb0\u0cbe\u0c9c\u0ccd\u0caf","alt_name:sr":"\u0420\u0435\u043f\u0443\u0431\u043b\u0438\u043a\u0430 \u041a\u0438\u043d\u0430","alt_name:sq":"Republika e Kin\u00ebs","alt_name:ka":"\u10e2\u10d0\u10d8\u10d5\u10d0\u10dc\u10d8","alt_name:sa":"\u0924\u0948\u0935\u093e\u0928","alt_name:sm":"Saina Taipei","alt_name:zh-min-nan":"Tiong-ho\u00e2 B\u00een-kok","alt_name:os":"\u041a\u0438\u0442\u0430\u0439\u044b \u0420\u0435\u0441\u043f\u0443\u0431\u043b\u0438\u043a\u00e6","alt_name:or":"\u0b24\u0b3e\u0b07\u0b71\u0b3e\u0b28","alt_name:pl":"Republika Chi\u0144ska","name:da":"Taiwan","alt_name:gd":"Poblachd na S\u00ecne","alt_name:oc":"Republica de China (Taiwan)","min_zoom":8.0,"name:ro":"Taiwan","name:be":"\u0422\u0430\u0439\u0432\u0430\u043d\u044c","alt_name:pt":"Rep\u00fablica da China","alt_name:gv":"Pobblaght ny Sheen","alt_name:gu":"\u0a9a\u0ac0\u0aa8\u0ac0 \u0a97\u0aa3\u0aa4\u0a82\u0aa4\u0acd\u0ab0","alt_name:he":"\u05d8\u05d0\u05d9\u05d5\u05d5\u05d0\u05df","sort_rank":262,"alt_name:nl":"Republiek China","alt_name:hi":"\u091a\u0940\u0928\u0940 \u0917\u0923\u0930\u093e\u091c\u094d\u092f","alt_name:hu":"K\u00ednai K\u00f6zt\u00e1rsas\u00e1g","alt_name:hr":"Republika Kina","alt_name:hy":"\u0549\u056b\u0576\u0561\u057d\u057f\u0561\u0576\u056b \u0540\u0561\u0576\u0580\u0561\u057a\u0565\u057f\u0578\u0582\u0569\u0575\u0578\u0582\u0576","alt_name:sw":"Jamhuri ya China","alt_name:ar":"\u062c\u0645\u0647\u0648\u0631\u064a\u0629 \u0627\u0644\u0635\u064a\u0646","alt_name:yi":"\u05e8\u05e2\u05e4\u05d5\u05d1\u05dc\u05d9\u05e7 \u05e4\u05d5\u05df \u05db\u05d9\u05e0\u05e2","name:hu":"Tajvan","name:hr":"Tajvan","alt_name:yo":"Or\u00edl\u1eb9\u0300-\u00e8d\u00e8 Ol\u00f3m\u00ecnira il\u1eb9\u0300 \u1e62\u00e1\u00edn\u00e0","alt_name:ia":"Republica de China","kind":"country","alt_name:id":"Republik Cina","alt_name:io":"Republiko di Chinia","alt_name:is":"L\u00fd\u00f0veldi\u00f0 K\u00edna","name:am":"\u1273\u12ed\u12cb\u1295","alt_name:el":"\u0394\u03b7\u03bc\u03bf\u03ba\u03c1\u03b1\u03c4\u03af\u03b1 \u03c4\u03b7\u03c2 \u039a\u03af\u03bd\u03b1\u03c2","alt_name:eo":"Respubliko \u0108inujo","alt_name:en":"Republic of China","alt_name:ms":"Republik China di Taiwan","alt_name:mr":"\u091a\u0940\u0928\u091a\u0947 \u092a\u094d\u0930\u091c\u093e\u0938\u0924\u094d\u0924\u093e\u0915","alt_name:my":"\u1010\u101b\u102f\u1010\u103a\u101e\u1019\u1039\u1019\u1010\u1014\u102d\u102f\u1004\u103a\u1004\u1036","official_name":"\u4e2d\u83ef\u6c11\u570b","name:mg":"Taiwan","alt_name:ml":"\u0d24\u0d3e\u0d2f\u0d4d\u200c\u0d35\u0d3e\u0d7b","alt_name:et":"Hiina Vabariik","alt_name:mn":"\u0411\u04af\u0433\u0434 \u041d\u0430\u0439\u0440\u0430\u043c\u0434\u0430\u0445 \u0425\u044f\u0442\u0430\u0434 \u0423\u043b\u0441","name:mi":"Taiwana","id":-449220,"alt_name:es":"Rep\u00fablica de China","name:vo":"Tayv\u00e4n","name:ff":"Taywaan","name:fi":"Taiwan","name:uz":"Tayvan","name:fo":"Teivan","alt_name:vi":"Trung Hoa D\u00e2n Qu\u1ed1c","name:fr":"Ta\u00efwan","alt_name:mk":"\u0420\u0435\u043f\u0443\u0431\u043b\u0438\u043a\u0430 \u041a\u0438\u043d\u0430","name:fy":"Taiwan","alt_name:af":"Republiek van Sjina","alt_name:zh-yue":"\u4e2d\u83ef\u6c11\u570b","alt_name:fi":"Kiinan tasavalta","name:nl":"Taiwan","alt_name:fa":"\u062a\u0627\u06cc\u0648\u0627\u0646","alt_name:na":"Republik Tsiene","alt_name:am":"\u12e8\u127b\u12ed\u1293 \u122a\u1350\u1265\u120a\u12ad","alt_name:az":"\u00c7in Respublikas\u0131","alt_name:fr":"R\u00e9publique de Chine (Ta\u00efwan)","name:wo":"Taaywaan","alt_name:nn":"Republikken Kina","alt_name:no":"Republikken Kina","name:ga":"An T\u00e9av\u00e1in","name:gd":"Tai-Bh\u00e0n","name:gl":"Taiw\u00e1n","alt_name:sh":"Republika Kina"},"arcs":[0]},{"type":"LineString","properties":{"alt_name:ca":"Rep\u00fablica de la Xina","name:ko":"\ud0c0\uc774\uc644","name:cv":"\u0422\u0430\u0439\u0432\u0430\u043d\u044c","name:kk":"\u0422\u0430\u0439\u0432\u0430\u043d\u044c","name:tk":"Ta\u00fdwan","name:ku":"Taywan","alt_name:cs":"\u010c\u00ednsk\u00e1 republika","name:tg":"\u0422\u0430\u0439\u0432\u0430\u043d","name:ca":"Taiwan","alt_name:tr":"\u00c7in Cumhuriyeti","alt_name:li":"Republiek China","name:cy":"Taiwan","alt_name:tt":"\u041a\u044b\u0442\u0430\u0439 \u0496\u04e9\u043c\u04bb\u04af\u0440\u0438\u044f\u0442\u0435","name:hr":"Tajvan","alt_name:la":"Res publica Sinarum","name:de":"Taiwan","source":"openstreetmap.org","alt_name:ta":"\u0b9a\u0bc0\u0ba9\u0b95\u0bcd \u0b95\u0bc1\u0b9f\u0bbf\u0baf\u0bb0\u0b9a\u0bc1","alt_name:te":"\u0c24\u0c48\u0c35\u0c3e\u0c28\u0c4d","alt_name:th":"\u0e2a\u0e32\u0e18\u0e32\u0e23\u0e13\u0e23\u0e31\u0e10\u0e08\u0e35\u0e19","alt_name:lv":"\u0136\u012bnas Republika","alt_name:tl":"Republika ng Tsina","name:lt":"Taivanas","alt_name:de":"Republik China","name:cs":"Tchaj-wan","name:lb":"Taiwan","alt_name:dv":"\u0796\u07aa\u0789\u07b0\u0780\u07ab\u0783\u07a9 \u0797\u07a6\u0787\u07a8\u0782\u07a7","alt_name:dz":"\u0f4f\u0f60\u0f72\u0f0b\u0f5d\u0f71\u0f53\u0f0b","alt_name:gd":"Poblachd na S\u00ecne","name:ln":"Taiwan","name:eo":"Tajvano","name:en":"Taiwan","name":"\u81fa\u7063","name:ee":"Taiwan","alt_name:ur":"\u062c\u0645\u06c1\u0648\u0631\u06cc\u06c2 \u0686\u06cc\u0646","alt_name:uk":"\u0420\u0435\u0441\u043f\u0443\u0431\u043b\u0456\u043a\u0430 \u041a\u0438\u0442\u0430\u0439","name:eu":"Taiwan","name:et":"Taiwan","alt_name:ug":"\u062a\u06d5\u064a\u06cb\u06d5\u0646","name:es":"Taiw\u00e1n","name:ia":"Taiwan","name:az":"tayvan","name:id":"Taiwan","name:ar":"\u062a\u0627\u064a\u0648\u0627\u0646","name:io":"Taiwan","name:ak":"Taiwan","alt_name:bg":"\u0420\u0435\u043f\u0443\u0431\u043b\u0438\u043a\u0430 \u041a\u0438\u0442\u0430\u0439","alt_name:zh":"\u4e2d\u83ef\u6c11\u570b","name:it":"Taiwan","alt_name:an":"Republica de China","name:ru":"\u0422\u0430\u0439\u0432\u0430\u043d\u044c","name:rw":"Tayiwani","alt_name:za":"Cunghvaz Minzgoz","name:af":"Taiwan","alt_name:ru":"\u041a\u0438\u0442\u0430\u0439\u0441\u043a\u0430\u044f \u0420\u0435\u0441\u043f\u0443\u0431\u043b\u0438\u043a\u0430","kind_detail":"2","alt_name:ja":"\u4e2d\u83ef\u6c11\u56fd","alt_name:gv":"Pobblaght ny Sheen","alt_name:jv":"R\u00e9publik Cina","alt_name:bn":"\u09aa\u09cd\u09b0\u099c\u09be\u09a4\u09a8\u09cd\u09a4\u09cd\u09b0\u09c0 \u099a\u09c0\u09a8","name:so":"Taywan","alt_name:be":"\u0420\u044d\u0441\u043f\u0443\u0431\u043b\u0456\u043a\u0430 \u041a\u0456\u0442\u0430\u0439","name:sl":"Tajvan","name:sk":"Taiwan","name:ja":"\u53f0\u6e7e","name:se":"Taiwan","alt_name:bo":"\u0f50\u0f60\u0f7a\u0f0b\u0f5d\u0f53\u0f0d","name:br":"Taiwan","name:bs":"Tajvan","name:bm":"Tayiwani","name:bn":"\u09a4\u09be\u0987\u0993\u09af\u09bc\u09be\u09a8","alt_name:br":"Republik Sina","name:sv":"Taiwan","name:bg":"\u0422\u0430\u0439\u0432\u0430\u043d","name:ss":"IThayiwani","osm_relation":true,"alt_name:ko":"\ub300\ub9cc","alt_name:kn":"\u0c9a\u0cc0\u0ca8\u0cbf \u0c97\u0ca3\u0cb0\u0cbe\u0c9c\u0ccd\u0caf","alt_name:sr":"\u0420\u0435\u043f\u0443\u0431\u043b\u0438\u043a\u0430 \u041a\u0438\u043d\u0430","alt_name:sq":"Republika e Kin\u00ebs","alt_name:ka":"\u10e2\u10d0\u10d8\u10d5\u10d0\u10dc\u10d8","alt_name:sa":"\u0924\u0948\u0935\u093e\u0928","alt_name:sm":"Saina Taipei","alt_name:zh-min-nan":"Tiong-ho\u00e2 B\u00een-kok","alt_name:os":"\u041a\u0438\u0442\u0430\u0439\u044b \u0420\u0435\u0441\u043f\u0443\u0431\u043b\u0438\u043a\u00e6","alt_name:or":"\u0b24\u0b3e\u0b07\u0b71\u0b3e\u0b28","alt_name:pl":"Republika Chi\u0144ska","name:da":"Taiwan","alt_name:pa":"\u0a1a\u0a40\u0a28 \u0a17\u0a23\u0a30\u0a3e\u0a1c","alt_name:oc":"Republica de China (Taiwan)","min_zoom":8.0,"name:ro":"Taiwan","name:be":"\u0422\u0430\u0439\u0432\u0430\u043d\u044c","alt_name:pt":"Rep\u00fablica da China","alt_name:ps":"\u062f \u0686\u064a\u0646 \u062c\u0645\u0647\u0648\u0631\u064a\u062a","alt_name:gu":"\u0a9a\u0ac0\u0aa8\u0ac0 \u0a97\u0aa3\u0aa4\u0a82\u0aa4\u0acd\u0ab0","alt_name:he":"\u05d8\u05d0\u05d9\u05d5\u05d5\u05d0\u05df","sort_rank":262,"name:wo":"Taaywaan","alt_name:hi":"\u091a\u0940\u0928\u0940 \u0917\u0923\u0930\u093e\u091c\u094d\u092f","alt_name:hu":"K\u00ednai K\u00f6zt\u00e1rsas\u00e1g","alt_name:hr":"Republika Kina","alt_name:hy":"\u0549\u056b\u0576\u0561\u057d\u057f\u0561\u0576\u056b \u0540\u0561\u0576\u0580\u0561\u057a\u0565\u057f\u0578\u0582\u0569\u0575\u0578\u0582\u0576","alt_name:sw":"Jamhuri ya China","alt_name:ar":"\u062c\u0645\u0647\u0648\u0631\u064a\u0629 \u0627\u0644\u0635\u064a\u0646","alt_name:yi":"\u05e8\u05e2\u05e4\u05d5\u05d1\u05dc\u05d9\u05e7 \u05e4\u05d5\u05df \u05db\u05d9\u05e0\u05e2","name:hu":"Tajvan","alt_name:qu":"Chunwa Republika","alt_name:yo":"Or\u00edl\u1eb9\u0300-\u00e8d\u00e8 Ol\u00f3m\u00ecnira il\u1eb9\u0300 \u1e62\u00e1\u00edn\u00e0","alt_name:ia":"Republica de China","kind":"country","alt_name:id":"Republik Cina","alt_name:io":"Republiko di Chinia","alt_name:is":"L\u00fd\u00f0veldi\u00f0 K\u00edna","name:am":"\u1273\u12ed\u12cb\u1295","alt_name:el":"\u0394\u03b7\u03bc\u03bf\u03ba\u03c1\u03b1\u03c4\u03af\u03b1 \u03c4\u03b7\u03c2 \u039a\u03af\u03bd\u03b1\u03c2","alt_name:eo":"Respubliko \u0108inujo","alt_name:en":"Republic of China","alt_name:ms":"Republik China di Taiwan","alt_name:mr":"\u091a\u0940\u0928\u091a\u0947 \u092a\u094d\u0930\u091c\u093e\u0938\u0924\u094d\u0924\u093e\u0915","alt_name:my":"\u1010\u101b\u102f\u1010\u103a\u101e\u1019\u1039\u1019\u1010\u1014\u102d\u102f\u1004\u103a\u1004\u1036","official_name":"\u4e2d\u83ef\u6c11\u570b","name:mg":"Taiwan","alt_name:et":"Hiina Vabariik","alt_name:ml":"\u0d24\u0d3e\u0d2f\u0d4d\u200c\u0d35\u0d3e\u0d7b","alt_name:mn":"\u0411\u04af\u0433\u0434 \u041d\u0430\u0439\u0440\u0430\u043c\u0434\u0430\u0445 \u0425\u044f\u0442\u0430\u0434 \u0423\u043b\u0441","name:mi":"Taiwana","id":-449220,"alt_name:es":"Rep\u00fablica de China","name:vo":"Tayv\u00e4n","name:ff":"Taywaan","name:fi":"Taiwan","name:uz":"Tayvan","name:fo":"Teivan","alt_name:vi":"Trung Hoa D\u00e2n Qu\u1ed1c","name:fr":"Ta\u00efwan","alt_name:mk":"\u0420\u0435\u043f\u0443\u0431\u043b\u0438\u043a\u0430 \u041a\u0438\u043d\u0430","name:fy":"Taiwan","alt_name:af":"Republiek van Sjina","alt_name:zh-yue":"\u4e2d\u83ef\u6c11\u570b","alt_name:fi":"Kiinan tasavalta","name:nl":"Taiwan","alt_name:fa":"\u062a\u0627\u06cc\u0648\u0627\u0646","alt_name:na":"Republik Tsiene","alt_name:am":"\u12e8\u127b\u12ed\u1293 \u122a\u1350\u1265\u120a\u12ad","alt_name:az":"\u00c7in Respublikas\u0131","alt_name:fr":"R\u00e9publique de Chine (Ta\u00efwan)","alt_name:nl":"Republiek China","alt_name:nn":"Republikken Kina","alt_name:no":"Republikken Kina","name:ga":"An T\u00e9av\u00e1in","name:gd":"Tai-Bh\u00e0n","name:gl":"Taiw\u00e1n","maritime_boundary":true,"alt_name:sh":"Republika Kina"},"arcs":[1]},{"type":"LineString","properties":{"name:kg":"Sina","name:ty":"Tinit\u014d","name:ka":"\u10e9\u10d8\u10dc\u10d4\u10d7\u10d8","name:ko":"\uc911\ud654\uc778\ubbfc\uacf5\ud654\uad6d","name:cv":"\u041a\u0438\u0442\u0430\u0439 \u0425\u0430\u043b\u0103\u0445 \u0420\u0435\u0441\u043f\u0443\u0431\u043b\u0438\u043a\u0438","name:cu":"\u0421\u0440\u0463\u0434\u0438\u043d\ua657\u043d\u0454","name:kl":"Kina","name:cs":"\u010c\u00ednsk\u00e1 lidov\u00e1 republika","name:ki":"China","name:kw":"Repoblek Werin China","name:kv":"\u041a\u0438\u0442\u0430\u0439","name:ku":"\u00c7\u00een","name:ks":"\u0686\u06cc\u0656\u0646","name:tl":"Republikang Popular ng Tsina","name:ce":"\u041a\u0438\u0442\u0430\u0439\u043d \u0425\u0430\u043b\u043a\u044a\u0430\u043d \u0420\u0435\u0441\u043f\u0443\u0431\u043b\u0438\u043a\u0430","name:ta":"\u0b9a\u0bc0\u0ba9 \u0bae\u0b95\u0bcd\u0b95\u0bb3\u0bcd \u0b95\u0bc1\u0b9f\u0bbf\u0baf\u0bb0\u0b9a\u0bc1","name:tg":"\u04b6\u0443\u043c\u04b3\u0443\u0440\u0438\u0438 \u0425\u0430\u043b\u049b\u0438\u0438 \u0427\u0438\u043d","name:ky":"\u041a\u044b\u0442\u0430\u0439","name:te":"\u0c1a\u0c48\u0c28\u0c3e","name:cy":"Gweriniaeth Pobl Tsieina","name:hr":"Kina","name:de":"China","source":"openstreetmap.org","name:kn":"\u0c9a\u0cc0\u0ca8\u0cbf \u0c9c\u0ca8\u0cb0 \u0c97\u0ca3\u0cb0\u0cbe\u0c9c\u0ccd\u0caf","name:dv":"\u0790\u07a9\u0782\u07aa\u0786\u07a6\u0783\u07a6","name:lv":"\u0136\u012bna","name:lt":"Kinijos Liaudies Respublika","name:uz":"Xitoy Xalq Respublikasi","name:kk":"\u049a\u044b\u0442\u0430\u0439 \u0425\u0430\u043b\u044b\u049b \u0420\u0435\u0441\u043f\u0443\u0431\u043b\u0438\u043a\u0430\u0441\u044b","name:ur":"\u0686\u06cc\u0646","name:lb":"Volleksrepublik China","name:tt":"\u041a\u044b\u0442\u0430\u0439","name:uk":"\u041a\u0438\u0442\u0430\u0439\u0441\u044c\u043a\u0430 \u041d\u0430\u0440\u043e\u0434\u043d\u0430 \u0420\u0435\u0441\u043f\u0443\u0431\u043b\u0456\u043a\u0430","name:ug":"\u062c\u06c7\u06ad\u062e\u06c7\u0627 \u062e\u06d5\u0644\u0642 \u062c\u06c7\u0645\u06be\u06c7\u0631\u0649\u064a\u0649\u062a\u0649","name:ln":"S\u00edna","name:lo":"\u0e9b\u0eb0\u0ec0\u0e97\u0e94\u0e88\u0eb5\u0e99","name:el":"\u039b\u03b1\u03ca\u03ba\u03ae \u0394\u03b7\u03bc\u03bf\u03ba\u03c1\u03b1\u03c4\u03af\u03b1 \u03c4\u03b7\u03c2 \u039a\u03af\u03bd\u03b1\u03c2","name:eo":"\u0108inujo","name:en":"China","name":"\u4e2d\u56fd","name:tk":"Hyta\u00fd Halk Respublikasy","name:ee":"China","name:th":"\u0e1b\u0e23\u0e30\u0e40\u0e17\u0e28\u0e08\u0e35\u0e19","name:eu":"Txinako Herri Errepublika","name:et":"Hiina","name:es":"Rep\u00fablica Popular China","name:ia":"China","name:ro":"Republica Popular\u0103 Chinez\u0103","name:ie":"China","name:id":"Republik Rakyat Cina","name:zh-min-nan":"Tiong-ho\u00e2 J\u00een-b\u00een Ki\u014dng-h\u00f4-kok","name:io":"Chinia","name:is":"Al\u00fe\u00fd\u00f0ul\u00fd\u00f0veldi\u00f0 K\u00edna","name:am":"\u12e8\u127b\u12ed\u1293 \u1215\u12dd\u1263\u12ca \u122a\u1350\u1265\u120a\u12ad","name:it":"Cina","name:ru":"\u041a\u0438\u0442\u0430\u0439\u0441\u043a\u0430\u044f \u041d\u0430\u0440\u043e\u0434\u043d\u0430\u044f \u0420\u0435\u0441\u043f\u0443\u0431\u043b\u0438\u043a\u0430","name:ab":"\u0410\u0447\u044b\u043d\u04ad\u0430\u0442\u04d9\u0438 \u0410\u0436\u04d9\u043b\u0430\u0440\u0442\u04d9 \u0420\u0435\u0441\u043f\u0443\u0431\u043b\u0438\u043a\u0430","alt_name:ru":"\u041a\u0438\u0442\u0430\u0439","kind_detail":"2","name:zh":"Zh\u014dnggu\u00f3","name:so":"Shiinaha","name:sn":"China","name:sm":"Saina","name:sk":"\u010c\u00ednska \u013eudov\u00e1 republika","name:si":"\u0da0\u0dd3\u0db1\u0dba","name:sg":"S\u00een\u00e4","name:se":"Kiinn\u00e1","name:sc":"Cina","name:bm":"China","name:bn":"\u0997\u09a3\u099a\u09c0\u09a8","name:bo":"\u0f40\u0fb2\u0f74\u0f44\u0f0b\u0f67\u0fad\u0f0b\u0f58\u0f72\u0f0b\u0f51\u0f58\u0f44\u0f66\u0f0b\u0f66\u0fa4\u0fb1\u0f72\u0f0b\u0f58\u0f50\u0f74\u0f53\u0f0b\u0f62\u0f92\u0fb1\u0f63\u0f0b\u0f41\u0f56\u0f0d","name:bi":"China","name:sw":"Jamhuri ya Watu wa China","name:be":"\u041a\u0456\u0442\u0430\u0439","name:st":"Tjhaena","name:ss":"IShayina","name:sr":"\u041a\u0438\u043d\u0430","name:sq":"Kina","name:pt":"Rep\u00fablica Popular da China","name:ps":"\u0686\u064a\u0646 \u062f \u062e\u0644\u06a9\u0648 \u062c\u0645\u0647\u0648\u0631\u064a\u062a","min_zoom":8.0,"int_name":"People's Republic of China","name:pa":"\u0a1a\u0a40\u0a28 \u0a26\u0a3e \u0a32\u0a4b\u0a15 \u0a30\u0a3e\u0a1c\u0a40 \u0a17\u0a23\u0a24\u0a70\u0a24\u0a30","name:os":"\u041a\u0438\u0442\u0430\u0439","name:or":"\u0b1a\u0b40\u0b28","name:pl":"Chiny","sort_rank":262,"name:ba":"\u04a0\u044b\u0442\u0430\u0439","osm_relation":true,"name:ar":"\u0627\u0644\u0635\u064a\u0646","name:tr":"\u00c7in Halk Cumhuriyeti","name:hi":"\u091a\u0940\u0928\u0940 \u091c\u0928\u0935\u093e\u0926\u0940 \u0917\u0923\u0930\u093e\u091c\u094d\u092f","name:he":"\u05d4\u05e8\u05e4\u05d5\u05d1\u05dc\u05d9\u05e7\u05d4 \u05d4\u05e2\u05de\u05de\u05d9\u05ea \u05e9\u05dc \u05e1\u05d9\u05df","name:ha":"Sin","old_name:eo":"\u0124inujo","name:hy":"\u0549\u056b\u0576\u0561\u057d\u057f\u0561\u0576\u056b \u053a\u0578\u0572\u0578\u057e\u0580\u0564\u0561\u056f\u0561\u0576 \u0540\u0561\u0576\u0580\u0561\u057a\u0565\u057f\u0578\u0582\u0569\u0575\u0578\u0582\u0576","name:hu":"K\u00ednai N\u00e9pk\u00f6zt\u00e1rsas\u00e1g","name:qu":"Chunwa Runallaqta Republika","kind":"country","name:ts":"China","name:yi":"\u05db\u05d9\u05e0\u05e2","name:iu":"China","name:mt":"\u010aina","alt_name:eo":"\u0108inio","name:mr":"\u091a\u0940\u0928","name:my":"\u1010\u101b\u102f\u1010\u103a\u1015\u103c\u100a\u103a\u101e\u1030\u1037\u101e\u1019\u1039\u1019\u1010\u1014\u102d\u102f\u1004\u103a\u1004\u1036","official_name":"\u4e2d\u534e\u4eba\u6c11\u5171\u548c\u56fd","name:vi":"C\u1ed9ng h\u00f2a Nh\u00e2n d\u00e2n Trung Hoa","name:ml":"\u0d1a\u0d48\u0d28","name:mn":"\u0411\u04af\u0433\u0434 \u041d\u0430\u0439\u0440\u0430\u043c\u0434\u0430\u0445 \u0425\u044f\u0442\u0430\u0434 \u0410\u0440\u0434 \u0423\u043b\u0441","name:mi":"Haina","id":-270056,"name:mk":"\u041d\u0430\u0440\u043e\u0434\u043d\u0430 \u0420\u0435\u043f\u0443\u0431\u043b\u0438\u043a\u0430 \u041a\u0438\u043d\u0430","name:vo":"Tsyin\u00e4n","name:fa":"\u062c\u0645\u0647\u0648\u0631\u06cc \u062e\u0644\u0642 \u0686\u06cc\u0646","name:rw":"Ubushinwa","name:fi":"Kiina","name:fo":"F\u00f3lkal\u00fd\u00f0veldi\u00f0 Kina","name:fr":"R\u00e9publique populaire de Chine","name:fy":"Sina","name:zu":"IShayina","name:na":"Tsiene","name:ne":"\u091c\u0928\u092c\u093e\u0926\u0940 \u0917\u0923\u0924\u0928\u094d\u0924\u094d\u0930 \u091a\u0940\u0928","name:wo":"R\u00e9ewum Popileer bu Siin","name:ga":"Daon-Phoblacht na S\u00edne","name:gd":"Sluagh-Phoblachd na S\u00ecne","name:gn":"China Tekoha Tet\u00e3","maritime_boundary":true,"name:gv":"Deynphobblaght ny Sheen","name:gu":"\u0a9a\u0ac0\u0aa8"},"arcs":[2]},{"type":"LineString","properties":{"name:pt":"Fuqui\u00e9m","int_name":"Fujian","kind":"region","min_zoom":8.0,"name:vi":"Ph\u00fac Ki\u1ebfn","name:ru":"\u0424\u0443\u0446\u0437\u044f\u043d\u044c","name:de":"Fujian","name:zh_PY":"F\u00faji\u00e0n Sh\u011bng","osm_relation":true,"name:eo":"Fu\u011djano","name:en":"Fujian","name":"\u798f\u5efa\u7701","sort_rank":256,"kind_detail":"4","name:fr":"Fujian","id":-553303,"source":"openstreetmap.org","maritime_boundary":true,"name:zh":"Fujian Sheng"},"arcs":[3]}]},"roads":{"type":"GeometryCollection","geometries":[{"type":"LineString","properties":{"source":"openstreetmap.org","kind":"major_road","sort_rank":380,"kind_detail":"primary","ref":"S206;S207","min_zoom":8.0},"arcs":[19]},{"type":"MultiLineString","properties":{"kind":"highway","network":"CN-expressways","sort_rank":383,"landuse_kind":"urban_area","source":"openstreetmap.org","min_zoom":8.0,"all_networks":["CN-expressways"],"kind_detail":"motorway","shield_text":"15","ref":"G15","all_shield_texts":["15"]},"arcs":[[20],[21],[22],[23],[24]]},{"type":"MultiLineString","properties":{"kind":"highway","name:en":"Quanxia Expressway","network":"CN-expressways","sort_rank":383,"kind_detail":"motorway","source":"openstreetmap.org","min_zoom":8.0,"all_networks":["CN-expressways"],"shield_text":"15","ref":"G15","all_shield_texts":["15"]},"arcs":[[25],[26],[27],[28],[29],[30],[31],[32],[33],[34],[35],[36],[37],[38],[39],[40],[41],[42],[43],[44]]},{"type":"MultiLineString","properties":{"source":"openstreetmap.org","kind":"major_road","landuse_kind":"urban_area","sort_rank":380,"kind_detail":"primary","ref":"S305","min_zoom":8.0},"arcs":[[45],[46]]},{"type":"MultiLineString","properties":{"source":"openstreetmap.org","kind":"major_road","sort_rank":380,"kind_detail":"primary","name:zh":"\u678b\u949f\u8def","min_zoom":8.0},"arcs":[[47],[48]]},{"type":"MultiLineString","properties":{"source":"openstreetmap.org","kind":"major_road","sort_rank":380,"kind_detail":"primary","ref":"S1573","min_zoom":8.0},"arcs":[[49],[50]]},{"type":"MultiLineString","properties":{"source":"openstreetmap.org","kind":"highway","sort_rank":383,"kind_detail":"motorway","ref":"G1502","min_zoom":8.0},"arcs":[[51],[52],[53],[54],[55],[56],[57],[58],[59],[60]]},{"type":"MultiLineString","properties":{"kind":"highway","name:en":"Shenhai Expressway","network":"CN-expressways","sort_rank":383,"kind_detail":"motorway","source":"openstreetmap.org","min_zoom":8.0,"all_networks":["CN-expressways"],"shield_text":"15","ref":"G15","all_shield_texts":["15"]},"arcs":[[61],[62]]},{"type":"LineString","properties":{"source":"openstreetmap.org","kind":"ferry","name":"Cosco Star","sort_rank":355,"name:zh":"\u4e2d\u9060\u4e4b\u661f","min_zoom":8.0},"arcs":[63]},{"type":"MultiLineString","properties":{"source":"openstreetmap.org","kind":"highway","sort_rank":383,"kind_detail":"motorway","ref":"G1517","min_zoom":8.0},"arcs":[[64],[65],[66],[67],[68]]},{"type":"MultiLineString","properties":{"source":"openstreetmap.org","kind":"major_road","sort_rank":380,"kind_detail":"primary","ref":"S307","min_zoom":8.0},"arcs":[[69],[70],[71],[72],[73],[74],[75],[76]]},{"type":"MultiLineString","properties":{"source":"openstreetmap.org","kind":"highway","landuse_kind":"urban_area","sort_rank":383,"kind_detail":"motorway","ref":"G1517","min_zoom":8.0},"arcs":[[77],[78]]},{"type":"MultiLineString","properties":{"source":"openstreetmap.org","kind":"major_road","landuse_kind":"urban_area","sort_rank":380,"kind_detail":"primary","ref":"S202","min_zoom":8.0},"arcs":[[79],[80],[81],[82]]},{"type":"MultiLineString","properties":{"kind":"major_road","name:en":"J\u00edm\u011bi Bridge","sort_rank":381,"kind_detail":"trunk","source":"openstreetmap.org","min_zoom":8.0,"name:zh":"\u96c6\u7f8e\u5927\u6a4b","ref":"Y322"},"arcs":[[83],[84]]},{"type":"LineString","properties":{"kind":"major_road","network":"CN-roads","sort_rank":380,"kind_detail":"primary","source":"openstreetmap.org","min_zoom":8.0,"landuse_kind":"urban_area","shield_text":"324","id":148923080},"arcs":[85]},{"type":"MultiLineString","properties":{"source":"openstreetmap.org","kind":"major_road","landuse_kind":"urban_area","sort_rank":380,"kind_detail":"primary","ref":"S203","min_zoom":8.0},"arcs":[[86],[87]]},{"type":"MultiLineString","properties":{"sort_rank":381,"source":"openstreetmap.org","min_zoom":8.0,"kind":"major_road","kind_detail":"trunk"},"arcs":[[88],[89],[90],[91],[92],[93],[94],[95],[96],[97],[98],[99],[100],[101]]},{"type":"MultiLineString","properties":{"source":"openstreetmap.org","kind":"major_road","landuse_kind":"urban_area","sort_rank":380,"kind_detail":"primary","ref":"S308","min_zoom":8.0},"arcs":[[102],[103],[104],[105],[106],[107],[108],[109],[110],[111],[112],[113],[114]]},{"type":"MultiLineString","properties":{"source":"openstreetmap.org","kind":"highway","landuse_kind":"urban_area","sort_rank":383,"kind_detail":"motorway","ref":"G1502","min_zoom":8.0},"arcs":[[115],[116],[117],[118],[119],[120],[121],[122],[123],[124],[125],[126],[127],[128],[129],[130],[131],[132]]},{"type":"MultiLineString","properties":{"source":"openstreetmap.org","kind":"major_road","landuse_kind":"urban_area","sort_rank":380,"kind_detail":"primary","ref":"S206","min_zoom":8.0},"arcs":[[133],[134],[135],[136]]},{"type":"MultiLineString","properties":{"kind":"highway","network":"CN-expressways","sort_rank":383,"landuse_kind":"urban_area","source":"openstreetmap.org","min_zoom":8.0,"all_networks":["CN-expressways"],"kind_detail":"motorway","shield_text":"72","ref":"G72","all_shield_texts":["72"]},"arcs":[[137],[138],[139],[140],[141],[142]]},{"type":"MultiLineString","properties":{"kind":"highway","name:en":"Quanxia Expressway","sort_rank":383,"kind_detail":"motorway","source":"openstreetmap.org","min_zoom":8.0,"landuse_kind":"urban_area","ref":"G15"},"arcs":[[143],[144]]},{"type":"MultiLineString","properties":{"source":"openstreetmap.org","kind":"highway","sort_rank":383,"kind_detail":"motorway","ref":"S7221","min_zoom":8.0},"arcs":[[145],[146]]},{"type":"MultiLineString","properties":{"source":"openstreetmap.org","kind":"major_road","landuse_kind":"urban_area","sort_rank":380,"kind_detail":"primary","min_zoom":8.0},"arcs":[[147],[148],[149],[150],[151],[152],[153],[154],[155],[156],[157],[158],[159],[160],[161],[162],[163],[164],[165],[166],[167],[168],[169],[170],[171],[172],[173],[174],[175],[176],[177],[178],[179],[180],[181],[182],[183],[184],[185],[186],[187],[188],[189],[190],[191],[192],[193],[194],[195],[196],[197],[198],[199],[200],[201],[202],[203],[204],[205],[206],[207],[208],[209],[210],[211],[212],[213],[214],[215],[216],[217],[218],[219],[220],[221],[222],[223],[224],[225],[226],[227],[228],[229],[230],[231],[232],[233],[234],[235],[236],[237],[238],[239],[240],[241],[242],[243],[244],[245],[246],[247],[248],[249],[250],[251],[252],[253],[254],[255],[256],[257],[258],[259],[260],[261],[262],[263],[264],[265],[266],[267],[268],[269],[270],[271],[272],[273],[274],[275],[276],[277],[278],[279],[280],[281],[282],[283],[284],[285],[286],[287],[288],[289],[290],[291],[292],[293],[294],[295],[296],[297],[298],[299],[300],[301],[302],[303],[304],[305],[306],[307],[308],[309],[310],[311],[312],[313],[314],[315],[316],[317],[318],[319],[320],[321],[322],[323],[324],[325],[326],[327],[328],[329],[330],[331],[332],[333],[334],[335],[336],[337],[338],[339],[340],[341],[342],[343],[344],[345],[346],[347],[348],[349],[350],[351],[352],[353],[354],[355],[356],[357],[358],[359],[360],[361],[362],[363],[364],[365],[366],[367],[368],[369],[370],[371],[372],[373],[374],[375],[376],[377],[378],[379],[380],[381],[382],[383],[384],[385],[386],[387],[388],[389],[390],[391],[392],[393],[394],[395],[396],[397],[398],[399],[400],[401],[402],[403],[404],[405],[406],[407],[408],[409],[410],[411],[412],[413],[414],[415],[416],[417],[418],[419],[420],[421],[422],[423],[424],[425],[426],[427],[428],[429],[430],[431],[432],[433],[434],[435],[436],[437],[438],[439],[440],[441],[442],[443],[444],[445],[446],[447],[448],[449],[450],[451],[452],[453],[454],[455],[456],[457],[458],[459],[460],[461],[462],[463],[464],[465],[466],[467],[468],[469],[470],[471],[472],[473],[474],[475],[476],[477],[478],[479],[480],[481],[482],[483],[484],[485],[486],[487],[488],[489],[490],[491],[492],[493],[494],[495],[496],[497],[498],[499],[500],[501],[502],[503],[504],[505],[506],[507],[508],[509],[510],[511],[512],[513],[514],[515],[516],[517],[518],[519],[520],[521],[522],[523],[524],[525],[526],[527],[528]]},{"type":"MultiLineString","properties":{"sort_rank":355,"source":"openstreetmap.org","min_zoom":8.0,"kind":"ferry"},"arcs":[[529],[530]]},{"type":"MultiLineString","properties":{"source":"openstreetmap.org","kind":"highway","landuse_kind":"urban_area","sort_rank":383,"kind_detail":"motorway","min_zoom":8.0},"arcs":[[531],[532],[533],[534],[535],[536],[537],[538],[539],[540],[541],[542],[543],[544],[545],[546],[547]]},{"type":"MultiLineString","properties":{"kind":"highway","name:en":"Fuquan Expressway","network":"CN-expressways","sort_rank":383,"kind_detail":"motorway","source":"openstreetmap.org","min_zoom":8.0,"all_networks":["CN-expressways"],"shield_text":"15","ref":"G15","all_shield_texts":["15"]},"arcs":[[548],[549]]},{"type":"MultiLineString","properties":{"source":"openstreetmap.org","kind":"highway","landuse_kind":"urban_area","sort_rank":383,"kind_detail":"motorway","ref":"S1573","min_zoom":8.0},"arcs":[[550],[551],[552],[553],[554],[555],[556],[557],[558],[559],[560],[561],[562],[563],[564],[565],[566],[567]]},{"type":"MultiLineString","properties":{"source":"openstreetmap.org","kind":"highway","landuse_kind":"urban_area","sort_rank":383,"kind_detail":"motorway","ref":"G72","min_zoom":8.0},"arcs":[[568],[569],[570],[571]]},{"type":"MultiLineString","properties":{"source":"openstreetmap.org","kind":"major_road","sort_rank":380,"kind_detail":"primary","ref":"S202","min_zoom":8.0},"arcs":[[572],[573],[574],[575],[576],[577],[578],[579],[580],[581]]},{"type":"MultiLineString","properties":{"kind":"highway","network":null,"sort_rank":383,"kind_detail":"motorway","source":"openstreetmap.org","min_zoom":8.0,"all_networks":[null],"shield_text":"1551","ref":"S1551","all_shield_texts":["1551"]},"arcs":[[582],[583],[584],[585],[586],[587],[588],[589],[590],[591],[592],[593],[594],[595],[596],[597],[598],[599],[600],[601],[602],[603],[604],[605]]},{"type":"MultiLineString","properties":{"kind":"highway","network":null,"sort_rank":383,"landuse_kind":"urban_area","source":"openstreetmap.org","min_zoom":8.0,"all_networks":[null],"kind_detail":"motorway","shield_text":"15W3","ref":"G15W3","all_shield_texts":["15W3"]},"arcs":[[606],[607],[608],[609]]},{"type":"MultiLineString","properties":{"source":"openstreetmap.org","kind":"major_road","sort_rank":381,"kind_detail":"trunk","ref":"X418","min_zoom":8.0},"arcs":[[610],[611]]},{"type":"MultiLineString","properties":{"kind":"major_road","network":"CN-roads","sort_rank":381,"landuse_kind":"urban_area","source":"openstreetmap.org","min_zoom":8.0,"kind_detail":"trunk","shield_text":"324","ref":"G324"},"arcs":[[612],[613],[614],[615],[616],[617],[618],[619],[620],[621],[622],[623],[624],[625],[626],[627],[628],[629],[630],[631],[632],[633],[634],[635],[636],[637],[638],[639]]},{"type":"MultiLineString","properties":{"source":"openstreetmap.org","kind":"major_road","sort_rank":380,"kind_detail":"primary","ref":"S306","min_zoom":8.0},"arcs":[[640],[641],[642],[643],[644],[645],[646],[647],[648],[649],[650]]},{"type":"MultiLineString","properties":{"kind":"major_road","name:en":"Fangzhong Road","sort_rank":380,"kind_detail":"primary","source":"openstreetmap.org","min_zoom":8.0,"landuse_kind":"urban_area","name:zh":"F\u0101ngzh\u014dng L\u00f9"},"arcs":[[651],[652]]},{"type":"MultiLineString","properties":{"kind":"highway","network":null,"sort_rank":383,"kind_detail":"motorway","source":"openstreetmap.org","min_zoom":8.0,"all_networks":[null],"shield_text":"15W3","ref":"G15W3","all_shield_texts":["15W3"]},"arcs":[[653],[654]]},{"type":"MultiLineString","properties":{"sort_rank":380,"kind_detail":"primary","min_zoom":8.0,"kind":"major_road","source":"openstreetmap.org"},"arcs":[[655],[656],[657],[658],[659],[660],[661],[662],[663],[664],[665],[666],[667],[668],[669],[670],[671],[672],[673],[674],[675],[676],[677],[678],[679],[680],[681],[682],[683],[684],[685],[686],[687],[688],[689],[690],[691],[692],[693],[694],[695],[696],[697],[698],[699],[700],[701],[702],[703],[704],[705],[706],[707],[708],[709],[710],[711],[712],[713],[714],[715],[716],[717],[718],[719],[720],[721],[722],[723],[724],[725],[726],[727],[728],[729],[730],[731],[732],[733],[734],[735],[736],[737],[738],[739],[740],[741],[742],[743],[744],[745],[746],[747],[748],[749],[750],[751],[752],[753],[754],[755],[756],[757],[758],[759],[760],[761],[762],[763],[764],[765],[766],[767],[768],[769],[770],[771],[772],[773],[774],[775],[776],[777],[778],[779],[780],[781],[782],[783],[784],[785],[786],[787],[788],[789],[790],[791],[792],[793],[794],[795],[796],[797],[798],[799],[800],[801],[802],[803],[804],[805],[806],[807],[808],[809],[810],[811],[812],[813],[814],[815],[816],[817],[818],[819],[820],[821],[822],[823],[824],[825],[826],[827],[828],[829],[830],[831],[832],[833],[834],[835],[836],[837],[838],[839],[840],[841],[842],[843],[844],[845],[846],[847],[848],[849],[850],[851],[852],[853],[854],[855],[856],[857],[858],[859],[860],[861],[862],[863],[864],[865],[866],[867],[868],[869],[870],[871],[872],[873],[874],[875],[876],[877],[878],[879],[880],[881],[882],[883],[884],[885],[886],[887],[888],[889],[890],[891],[892]]},{"type":"MultiLineString","properties":{"source":"openstreetmap.org","kind":"major_road","sort_rank":380,"kind_detail":"primary","ref":"S206","min_zoom":8.0},"arcs":[[893],[894],[895],[896],[897],[898],[899],[900]]},{"type":"MultiLineString","properties":{"source":"openstreetmap.org","kind":"major_road","sort_rank":381,"kind_detail":"trunk","ref":"G324","min_zoom":8.0},"arcs":[[901],[902],[903],[904],[905],[906],[907],[908],[909],[910],[911],[912]]},{"type":"MultiLineString","properties":{"source":"openstreetmap.org","kind":"major_road","sort_rank":380,"kind_detail":"primary","ref":"S308","min_zoom":8.0},"arcs":[[913],[914],[915],[916],[917],[918],[919],[920],[921],[922]]},{"type":"MultiLineString","properties":{"source":"openstreetmap.org","kind":"highway","sort_rank":383,"kind_detail":"motorway","ref":"S1573","min_zoom":8.0},"arcs":[[923],[924],[925],[926],[927],[928],[929],[930]]},{"type":"MultiLineString","properties":{"kind":"highway","network":"CN-expressways","sort_rank":383,"kind_detail":"motorway","source":"openstreetmap.org","min_zoom":8.0,"all_networks":["CN-expressways"],"shield_text":"15","ref":"G15","all_shield_texts":["15"]},"arcs":[[931],[932],[933],[934]]},{"type":"MultiLineString","properties":{"source":"openstreetmap.org","kind":"major_road","landuse_kind":"urban_area","sort_rank":380,"kind_detail":"primary","ref":"S306","min_zoom":8.0},"arcs":[[935],[936]]},{"type":"MultiLineString","properties":{"kind":"major_road","network":null,"sort_rank":380,"kind_detail":"primary","source":"openstreetmap.org","min_zoom":8.0,"landuse_kind":"urban_area","shield_text":"201"},"arcs":[[937],[938],[939],[940]]},{"type":"MultiLineString","properties":{"source":"openstreetmap.org","kind":"major_road","sort_rank":380,"kind_detail":"primary","ref":"S203","min_zoom":8.0},"arcs":[[941],[942],[943],[944]]},{"type":"MultiLineString","properties":{"source":"openstreetmap.org","kind":"major_road","kind_detail":"trunk","sort_rank":381,"landuse_kind":"urban_area","min_zoom":8.0},"arcs":[[945],[946],[947],[948],[949],[950],[951],[952],[953],[954],[955],[956],[957]]},{"type":"LineString","properties":{"source":"openstreetmap.org","kind":"major_road","sort_rank":380,"kind_detail":"primary","ref":"\u65e7S202","min_zoom":8.0},"arcs":[958]},{"type":"MultiLineString","properties":{"source":"openstreetmap.org","kind":"highway","name:en":"Quanxia Expressway","sort_rank":383,"kind_detail":"motorway","ref":"G15","min_zoom":8.0},"arcs":[[959],[960],[961]]},{"type":"MultiLineString","properties":{"source":"openstreetmap.org","kind":"major_road","sort_rank":380,"kind_detail":"primary","ref":"S201","min_zoom":8.0},"arcs":[[962],[963],[964],[965],[966],[967],[968],[969],[970],[971],[972],[973],[974],[975],[976],[977],[978],[979],[980],[981],[982],[983],[984],[985],[986],[987]]},{"type":"MultiLineString","properties":{"sort_rank":383,"kind_detail":"motorway","min_zoom":8.0,"kind":"highway","source":"openstreetmap.org"},"arcs":[[988],[989],[990],[991],[992],[993],[994],[995],[996],[997],[998],[999],[1000],[1001],[1002],[1003],[1004],[1005],[1006],[1007],[1008],[1009],[1010],[1011],[1012],[1013],[1014],[1015],[1016],[1017],[1018],[1019]]},{"type":"MultiLineString","properties":{"source":"openstreetmap.org","kind":"major_road","kind_detail":"trunk","sort_rank":381,"landuse_kind":"urban_area","ref":"G324","min_zoom":8.0},"arcs":[[1020],[1021],[1022],[1023],[1024],[1025],[1026],[1027],[1028],[1029],[1030],[1031],[1032],[1033],[1034],[1035],[1036],[1037]]},{"type":"LineString","properties":{"kind":"highway","sort_rank":383,"landuse_kind":"urban_area","source":"openstreetmap.org","min_zoom":8.0,"kind_detail":"motorway","ref":"G15","id":219404296},"arcs":[1038]},{"type":"MultiLineString","properties":{"kind":"highway","network":"CN-expressways","sort_rank":383,"kind_detail":"motorway","source":"openstreetmap.org","min_zoom":8.0,"all_networks":["CN-expressways"],"shield_text":"72","ref":"G72","all_shield_texts":["72"]},"arcs":[[1039],[1040],[1041],[1042],[1043],[1044],[1045],[1046],[1047],[1048]]},{"type":"MultiLineString","properties":{"source":"openstreetmap.org","kind":"major_road","landuse_kind":"urban_area","sort_rank":380,"kind_detail":"primary","ref":"S307","min_zoom":8.0},"arcs":[[1049],[1050],[1051],[1052]]},{"type":"MultiLineString","properties":{"source":"openstreetmap.org","kind":"highway","sort_rank":383,"kind_detail":"motorway","ref":"S1572","min_zoom":8.0},"arcs":[[1053],[1054]]},{"type":"MultiLineString","properties":{"source":"openstreetmap.org","kind":"major_road","network":null,"sort_rank":380,"kind_detail":"primary","min_zoom":8.0,"shield_text":"214"},"arcs":[[1055],[1056],[1057],[1058]]},{"type":"LineString","properties":{"source":"openstreetmap.org","kind":"major_road","sort_rank":380,"kind_detail":"primary","ref":"S206;S306","min_zoom":8.0,"id":198499844},"arcs":[1059]},{"type":"MultiLineString","properties":{"source":"openstreetmap.org","kind":"highway","sort_rank":383,"kind_detail":"motorway","ref":"S30","min_zoom":8.0},"arcs":[[1060],[1061]]},{"type":"MultiLineString","properties":{"source":"openstreetmap.org","kind":"major_road","network":null,"sort_rank":380,"kind_detail":"primary","min_zoom":8.0,"shield_text":"201"},"arcs":[[1062],[1063],[1064],[1065],[1066],[1067],[1068],[1069]]},{"type":"MultiLineString","properties":{"kind":"highway","network":null,"sort_rank":383,"landuse_kind":"urban_area","source":"openstreetmap.org","min_zoom":8.0,"all_networks":[null],"kind_detail":"motorway","shield_text":"1551","ref":"S1551","all_shield_texts":["1551"]},"arcs":[[1070],[1071]]},{"type":"MultiLineString","properties":{"kind":"highway","name:en":"Quanxia Expressway","network":"CN-expressways","sort_rank":383,"landuse_kind":"urban_area","source":"openstreetmap.org","min_zoom":8.0,"all_networks":["CN-expressways"],"kind_detail":"motorway","shield_text":"15","ref":"G15","all_shield_texts":["15"]},"arcs":[[1072],[1073],[1074],[1075],[1076],[1077],[1078],[1079],[1080],[1081],[1082],[1083],[1084],[1085],[1086],[1087],[1088],[1089],[1090],[1091],[1092],[1093],[1094],[1095],[1096],[1097],[1098],[1099],[1100],[1101]]},{"type":"MultiLineString","properties":{"source":"openstreetmap.org","kind":"highway","sort_rank":383,"kind_detail":"motorway","ref":"G15","min_zoom":8.0},"arcs":[[1102],[1103],[1104]]},{"type":"MultiLineString","properties":{"source":"openstreetmap.org","kind":"major_road","landuse_kind":"urban_area","sort_rank":380,"kind_detail":"primary","ref":"S201","min_zoom":8.0},"arcs":[[1105],[1106],[1107],[1108],[1109],[1110],[1111],[1112],[1113],[1114],[1115],[1116],[1117],[1118],[1119],[1120],[1121],[1122],[1123],[1124],[1125],[1126],[1127],[1128]]},{"type":"LineString","properties":{"source":"openstreetmap.org","kind":"ferry","name":"\uf90a\u9580\uff0d\u5ec8\u9580\u4e94\u901a","sort_rank":355,"min_zoom":8.0,"id":398862603},"arcs":[1129]},{"type":"MultiLineString","properties":{"kind":"major_road","network":"CN-roads","sort_rank":381,"kind_detail":"trunk","source":"openstreetmap.org","min_zoom":8.0,"shield_text":"324","ref":"G324"},"arcs":[[1130],[1131],[1132],[1133],[1134],[1135],[1136],[1137],[1138],[1139],[1140],[1141],[1142],[1143],[1144],[1145],[1146],[1147],[1148]]},{"type":"MultiLineString","properties":{"source":"openstreetmap.org","kind":"highway","sort_rank":383,"kind_detail":"motorway","ref":"S10","min_zoom":8.0},"arcs":[[1149],[1150],[1151],[1152],[1153],[1154],[1155],[1156],[1157],[1158],[1159],[1160],[1161]]},{"type":"MultiLineString","properties":{"source":"openstreetmap.org","kind":"highway","sort_rank":383,"kind_detail":"motorway","ref":"S35","min_zoom":8.0},"arcs":[[1162],[1163],[1164],[1165],[1166],[1167],[1168],[1169],[1170],[1171],[1172],[1173],[1174],[1175],[1176],[1177],[1178],[1179],[1180],[1181],[1182],[1183],[1184],[1185],[1186]]},{"type":"LineString","properties":{"kind":"highway","sort_rank":383,"landuse_kind":"urban_area","source":"openstreetmap.org","min_zoom":8.0,"kind_detail":"motorway","ref":"G15W3","id":513375910},"arcs":[1187]},{"type":"MultiLineString","properties":{"kind":"highway","name:en":"Shenhai Expressway","network":"CN-expressways","sort_rank":383,"landuse_kind":"urban_area","source":"openstreetmap.org","min_zoom":8.0,"all_networks":["CN-expressways"],"kind_detail":"motorway","shield_text":"15","ref":"G15","all_shield_texts":["15"]},"arcs":[[1188],[1189],[1190],[1191]]},{"type":"MultiLineString","properties":{"kind":"highway","name:en":"Fuquan Expressway","network":"CN-expressways","sort_rank":383,"landuse_kind":"urban_area","source":"openstreetmap.org","min_zoom":8.0,"all_networks":["CN-expressways"],"kind_detail":"motorway","shield_text":"15","ref":"G15","all_shield_texts":["15"]},"arcs":[[1192],[1193]]},{"type":"MultiLineString","properties":{"source":"openstreetmap.org","kind":"major_road","sort_rank":380,"kind_detail":"primary","ref":"S305","min_zoom":8.0},"arcs":[[1194],[1195]]},{"type":"MultiLineString","properties":{"source":"openstreetmap.org","kind":"major_road","landuse_kind":"urban_area","sort_rank":380,"kind_detail":"primary","name:zh":"\u678b\u949f\u8def","min_zoom":8.0},"arcs":[[1196],[1197],[1198]]}]},"earth":{"type":"GeometryCollection","geometries":[{"type":"MultiPolygon","properties":{"sort_rank":10,"source":"naturalearthdata.com","min_zoom":0.0,"kind":"earth","area":46026865781},"arcs":[[[1199]],[[1200]],[[1201]],[[1202]]]}]},"landuse":{"type":"GeometryCollection","geometries":[{"type":"Polygon","properties":{"source":"openstreetmap.org","kind":"residential","area":16606900,"tier":2,"id":241512630,"min_zoom":8.0,"sort_rank":20},"arcs":[[1203]]},{"type":"MultiPolygon","properties":{"source":"naturalearthdata.com","kind":"urban_area","name":"","area":3335375285,"sort_rank":11,"min_zoom":4.0},"arcs":[[[1204]],[[1205]],[[1206]],[[1207],[1208]],[[1209]],[[1210]],[[1211]],[[1212]],[[1213]],[[1214]],[[1215]],[[1216]],[[1217]],[[1218]],[[1219]]]}]}},"type":"Topology","transform":{"translate":[118.125,24.5271348226],"scale":[0.0003433228,0.0003107315]},"arcs":[[[934,5],[-104,15],[-21,-20]],[[941,0],[-7,5]],[[3040,0],[1056,777]],[[3040,0],[1056,777]],[[0,473],[154,52],[163,14],[208,-37],[182,68],[293,364],[63,335],[74,130],[65,39],[164,21],[182,83],[179,197],[182,107],[77,109],[120,308],[92,126],[272,129],[191,49],[105,203],[200,296],[322,161],[305,350],[126,287],[37,232]],[[0,272],[17,27],[19,44],[12,75],[11,5],[16,0],[20,13],[8,99],[61,-66],[18,-50],[-11,-47],[-27,-59],[39,1],[46,-10],[34,-22],[2,-35],[-32,-17],[-39,7],[-29,-10],[-1,-69],[38,-64],[72,-48],[66,8],[24,104],[39,-19],[28,13],[20,33],[12,42],[68,-30],[29,-4],[23,10],[77,-25],[82,25],[73,53],[50,57],[-61,154],[30,25],[33,41],[25,22],[11,-32],[-1,-99],[-6,-46],[-13,-43],[50,-7],[86,-47],[33,-12],[44,-8],[203,-126],[21,-29],[-49,-12],[-20,-10],[-9,-23],[-2,-29],[3,-26],[1,-6],[-374,0],[-3,3],[-13,-3],[-688,0],[-2,26],[-53,-10],[-74,14],[-37,15],[0,227]],[[608,117],[-28,18],[-50,-5],[-17,-7],[-10,-13],[10,-12],[74,-46],[18,15],[8,25],[-5,25]],[[4096,2054],[0,-2054],[-2752,0],[13,3],[86,56],[76,74],[44,70],[7,71],[-30,13],[-39,2],[-20,35],[1,63],[6,53],[18,48],[35,47],[36,-33],[27,-38],[28,-16],[39,31],[63,95],[34,35],[43,14],[5,14],[45,86],[-3,35],[-10,16],[-47,25],[-42,-19],[-26,0],[-11,30],[0,36],[-3,27],[-12,21],[-27,16],[-12,-27],[-32,-28],[-55,-34],[-21,-1],[-26,2],[-23,-1],[-10,-11],[-7,-22],[-16,17],[-42,90],[0,40],[8,37],[-3,46],[-20,40],[-119,94],[69,-33],[83,-23],[79,-3],[58,25],[6,39],[-33,38],[-42,32],[-21,23],[11,28],[51,53],[18,41],[28,-52],[15,-20],[16,-16],[-11,-34],[2,-39],[11,-25],[20,10],[6,26],[-6,108],[35,-30],[37,-46],[27,-52],[0,-50],[-13,-7],[-51,-18],[-17,-19],[-11,-38],[5,-26],[18,-16],[30,-10],[59,26],[74,21],[53,31],[-7,56],[42,19],[31,-9],[29,-21],[39,-13],[34,9],[84,34],[31,-8],[60,-41],[77,-19],[81,3],[70,22],[-1,16],[-2,4],[-6,0],[-9,4],[8,16],[4,6],[-2,6],[-10,16],[-104,-41],[-71,68],[-25,99],[30,50],[108,11],[44,-8],[18,-35],[21,-31],[45,10],[48,33],[25,42],[-13,-7],[-46,-15],[-29,85],[-12,49],[10,22],[19,22],[18,49],[12,53],[2,31],[-20,11],[-20,-43],[-31,-91],[-37,-24],[-39,-5],[-38,12],[-36,27],[20,24],[-115,36],[-52,23],[-52,51],[-32,55],[0,42],[25,36],[29,8],[52,18],[52,-11],[53,-4],[40,9],[22,15],[13,14],[5,19],[0,58],[19,48],[49,65],[7,33],[-34,36],[-43,11],[-45,-8],[-35,-21],[-16,-28],[-18,53],[14,41],[-8,28],[-79,10],[-56,24],[31,52],[61,44],[33,3],[31,19],[190,60],[127,-16],[-7,-61],[-72,-17],[-59,-29],[-31,-60],[53,-13],[138,18],[66,-9],[33,-27],[1,-42],[-31,-56],[-71,-89],[-15,-58],[45,-51],[4,59],[22,47],[33,16],[42,-34],[-15,-20],[-27,-68],[72,-35],[28,-9],[-10,12],[-7,11],[-8,10],[-14,11],[22,35],[30,-7],[39,-22],[49,-6],[47,22],[10,26],[-19,13],[-38,-17],[-13,33],[-13,22],[-14,17],[-17,40],[-29,32],[-7,44],[42,55],[75,23],[33,-45],[33,-50],[32,-48],[50,19],[58,12],[49,23],[39,-11],[37,-45],[75,11],[22,31],[-48,138],[26,31],[124,-11],[59,14],[25,52],[-15,30],[-34,14],[-34,9],[-16,14],[-63,89],[-17,31],[21,0],[-15,17],[-14,11],[-31,16],[-12,-38],[-25,-3],[-32,17],[-33,24],[-5,-57],[-19,-57],[-26,-49],[-27,-33],[-44,-31],[-13,11],[-11,38],[-34,46],[30,33],[29,22],[63,33],[-58,133],[-23,0],[-9,-52],[-27,-40],[-29,-14],[-14,28],[-9,51],[-24,42],[-138,142],[-21,43],[42,20],[34,12],[96,61],[30,27],[34,24],[92,17],[42,15],[24,22],[67,98],[24,48],[9,98],[17,42],[95,23],[32,31],[-47,55],[50,21],[60,-6],[38,-29],[-10,-50],[22,-23],[13,15],[12,9],[35,19],[-72,-129],[-10,-35],[11,-41],[28,-21],[221,-36],[21,-13],[-11,-49],[-36,-98],[7,-41],[34,-26],[18,35],[14,53],[23,28],[113,0],[7,-1],[-5,-7],[-7,-32],[-27,-26],[-9,-24],[4,-21],[14,-12],[15,-9],[6,-13],[-5,-44],[-13,-54],[-20,-52],[-23,-39],[58,9],[66,1],[16,3],[0,-539],[-25,3],[-31,16],[-27,24],[-18,33],[-14,33],[-15,11],[-15,0],[-16,18],[-16,5],[-36,-35],[-11,-9],[-23,-8],[-5,-22],[14,-47],[34,-36],[81,-23],[11,14],[30,11],[28,-16],[1,-24],[-6,-29],[18,-35],[34,-20],[7,0]],[[3935,1505],[-19,3],[-26,-16],[-8,-34],[15,-14],[31,16],[10,24],[-3,21]],[[3006,1846],[-8,6],[-27,-21],[-27,-6],[-36,-17],[-24,-19],[-13,-4],[-5,-4],[3,-11],[4,-11],[1,-12],[11,-9],[8,-18],[-14,-26],[-25,-16],[4,-12],[18,-13],[10,-14],[4,-18],[12,-11],[10,9],[-3,13],[1,8],[57,61],[-8,6],[-5,15],[2,18],[-8,11],[-3,26],[23,29],[25,14],[9,10],[4,16]],[[3524,2931],[0,39],[-13,56],[13,72],[25,82],[17,93],[8,26],[-18,29],[2,18],[-10,21],[-33,-7],[-31,-32],[-9,-13],[-23,-28],[-8,-5],[-7,-12],[-4,-18],[-64,-176],[0,-62],[12,-29],[7,-35],[25,-67],[17,0],[32,22],[36,13],[26,13]],[[4096,3793],[0,-424],[-13,-10],[-14,-30],[-14,-15],[-72,25],[-33,51],[-5,68],[11,77],[-47,-37],[-21,61],[-11,99],[-20,75],[42,-6],[17,-5],[22,-13],[29,25],[40,7],[48,2],[16,50],[25,0]],[[0,272],[17,27],[19,44],[12,75],[11,5],[16,0],[20,13],[8,99],[61,-66],[18,-50],[-11,-47],[-27,-59],[39,1],[46,-10],[34,-22],[2,-35],[-32,-17],[-39,7],[-29,-10],[-1,-69],[38,-64],[72,-48],[66,8],[24,104],[39,-19],[28,13],[20,33],[12,42],[68,-30],[29,-4],[23,10],[77,-25],[82,25],[73,53],[50,57],[-61,154],[30,25],[33,41],[25,22],[11,-32],[-1,-99],[-6,-46],[-13,-43],[50,-7],[86,-47],[33,-12],[44,-8],[203,-126],[21,-29],[-49,-12],[-20,-10],[-9,-23],[-2,-29],[3,-26],[1,-6]],[[1344,0],[13,3],[86,56],[76,74],[44,70],[7,71],[-30,13],[-39,2],[-20,35],[1,63],[6,53],[18,48],[35,47],[36,-33],[27,-38],[28,-16],[39,31],[63,95],[34,35],[43,14],[5,14],[45,86],[-3,35],[-10,16],[-47,25],[-42,-19],[-26,0],[-11,30],[0,36],[-3,27],[-12,21],[-27,16],[-12,-27],[-32,-28],[-55,-34],[-21,-1],[-26,2],[-23,-1],[-10,-11],[-7,-22],[-16,17],[-42,90],[0,40],[8,37],[-3,46],[-20,40],[-119,94],[69,-33],[83,-23],[79,-3],[58,25],[6,39],[-33,38],[-42,32],[-21,23],[11,28],[51,53],[18,41],[28,-52],[15,-20],[16,-16],[-11,-34],[2,-39],[11,-25],[20,10],[6,26],[-6,108],[35,-30],[37,-46],[27,-52],[0,-50],[-13,-7],[-51,-18],[-17,-19],[-11,-38],[5,-26],[18,-16],[30,-10],[59,26],[74,21],[53,31],[-7,56],[42,19],[31,-9],[29,-21],[39,-13],[34,9],[84,34],[31,-8],[60,-41],[77,-19],[81,3],[70,22],[-1,16],[-2,4],[-6,0],[-9,4],[8,16],[4,6],[-2,6],[-10,16],[-104,-41],[-71,68],[-25,99],[30,50],[108,11],[44,-8],[18,-35],[21,-31],[45,10],[48,33],[25,42],[-13,-7],[-46,-15],[-29,85],[-12,49],[10,22],[19,22],[18,49],[12,53],[2,31],[-20,11],[-20,-43],[-31,-91],[-37,-24],[-39,-5],[-38,12],[-36,27],[20,24],[-115,36],[-52,23],[-52,51],[-32,55],[0,42],[25,36],[29,8],[52,18],[52,-11],[53,-4],[40,9],[22,15],[13,14],[5,19],[0,58],[19,48],[49,65],[7,33],[-34,36],[-43,11],[-45,-8],[-35,-21],[-16,-28],[-18,53],[14,41],[-8,28],[-79,10],[-56,24],[31,52],[61,44],[33,3],[31,19],[190,60],[127,-16],[-7,-61],[-72,-17],[-59,-29],[-31,-60],[53,-13],[138,18],[66,-9],[33,-27],[1,-42],[-31,-56],[-71,-89],[-15,-58],[45,-51],[4,59],[22,47],[33,16],[42,-34],[-15,-20],[-27,-68],[72,-35],[28,-9],[-10,12],[-7,11],[-8,10],[-14,11],[22,35],[30,-7],[39,-22],[49,-6],[47,22],[10,26],[-19,13],[-38,-17],[-13,33],[-13,22],[-14,17],[-17,40],[-29,32],[-7,44],[42,55],[75,23],[33,-45],[33,-50],[32,-48],[50,19],[58,12],[49,23],[39,-11],[37,-45],[75,11],[22,31],[-48,138],[26,31],[124,-11],[59,14],[25,52],[-15,30],[-34,14],[-34,9],[-16,14],[-63,89],[-17,31],[21,0],[-15,17],[-14,11],[-31,16],[-12,-38],[-25,-3],[-32,17],[-33,24],[-5,-57],[-19,-57],[-26,-49],[-27,-33],[-44,-31],[-13,11],[-11,38],[-34,46],[30,33],[29,22],[63,33],[-58,133],[-23,0],[-9,-52],[-27,-40],[-29,-14],[-14,28],[-9,51],[-24,42],[-138,142],[-21,43],[42,20],[34,12],[96,61],[30,27],[34,24],[92,17],[42,15],[24,22],[67,98],[24,48],[9,98],[17,42],[95,23],[32,31],[-47,55],[50,21],[60,-6],[38,-29],[-10,-50],[22,-23],[13,15],[12,9],[35,19],[-72,-129],[-10,-35],[11,-41],[28,-21],[221,-36],[21,-13],[-11,-49],[-36,-98],[7,-41],[34,-26],[18,35],[14,53],[23,28],[113,0],[7,-1],[-5,-7],[-7,-32],[-27,-26],[-9,-24],[4,-21],[14,-12],[15,-9],[6,-13],[-5,-44],[-13,-54],[-20,-52],[-23,-39],[58,9],[66,1],[16,3]],[[4096,3369],[-13,-10],[-14,-30],[-14,-15],[-72,25],[-33,51],[-5,68],[11,77],[-47,-37],[-21,61],[-11,99],[-20,75],[42,-6],[17,-5],[22,-13],[29,25],[40,7],[48,2],[16,50],[25,0]],[[166,0],[-2,26],[-53,-10],[-74,14],[-37,15]],[[870,0],[-3,3],[-13,-3]],[[3558,3346],[-10,21],[-33,-7],[-31,-32],[-9,-13],[-23,-28],[-8,-5],[-7,-12],[-4,-18],[-64,-176],[0,-62],[12,-29],[7,-35],[25,-67],[17,0],[32,22],[36,13],[26,13],[0,39],[-13,56],[13,72],[25,82],[17,93],[8,26],[-18,29],[2,18]],[[4096,2190],[-25,3],[-31,16],[-27,24],[-18,33],[-14,33],[-15,11],[-15,0],[-16,18],[-16,5],[-36,-35],[-11,-9],[-23,-8],[-5,-22],[14,-47],[34,-36],[81,-23],[11,14],[30,11],[28,-16],[1,-24],[-6,-29],[18,-35],[34,-20],[7,0]],[[0,1703],[48,-11],[9,51],[81,77],[4,55],[-53,76]],[[0,469],[101,37]],[[121,512],[74,11]],[[739,565],[40,22]],[[821,631],[213,212],[334,254]],[[1384,1122],[157,193],[24,124]],[[121,513],[-20,-6]],[[736,564],[-213,-76],[-327,35]],[[706,553],[9,3]],[[731,562],[6,2]],[[1384,1122],[-15,-23]],[[1369,1099],[12,17]],[[2735,2726],[-60,-68],[-3,-2],[-67,-43]],[[2605,2613],[-1,0],[-27,-80]],[[2577,2533],[0,-1],[-8,-8]],[[2569,2524],[-40,-40],[-95,2],[-197,-85],[-70,-93]],[[2168,2308],[69,92],[198,86],[94,-3],[40,41]],[[2569,2524],[8,9]],[[2577,2533],[2,1],[26,79]],[[2605,2613],[0,1],[130,112]],[[3385,3623],[-36,-86],[7,-50],[18,-68],[-33,-47],[-65,-152]],[[3276,3219],[98,198],[-24,120],[34,82]],[[3432,3860],[-36,-211]],[[3397,3649],[8,20],[26,109],[1,82]],[[3421,4096],[-18,-104],[12,-39]],[[3416,3953],[-12,40],[29,103]],[[3639,3828],[30,-67],[108,-27],[66,-252]],[[3843,3482],[-66,252],[-108,27],[-30,67]],[[125,52],[-89,-21]],[[36,31],[89,21]],[[1374,118],[40,22]],[[1414,140],[-40,-21]],[[961,1389],[-167,-263],[-34,-106],[42,-140],[-18,-123]],[[785,757],[17,123],[-42,140],[34,106],[167,263]],[[811,475],[0,-28]],[[812,446],[0,29]],[[1710,1030],[-99,-142],[-131,-73]],[[1480,815],[129,71],[101,144]],[[1613,1518],[-80,-11]],[[1534,1507],[77,11]],[[1760,1087],[58,38],[73,114],[5,12],[-7,47],[-41,83],[-21,21],[-3,3],[-7,3],[-93,24]],[[1724,1431],[121,-47],[50,-133],[-77,-125],[-58,-38]],[[1636,1580],[-30,-63]],[[1606,1517],[30,55],[1,8]],[[4096,409],[-260,-119],[-491,-290]],[[1821,3719],[10,4]],[[1828,3739],[-4,-10],[4,-4],[17,-11]],[[1845,3714],[9,-5],[87,7],[30,-23],[257,-85],[38,8],[215,-61],[35,-103],[228,-102],[25,-40],[143,-76],[110,-21]],[[3022,3214],[-11,7],[-108,18],[-40,27],[-93,44],[-25,40],[-151,77],[-77,25],[-15,69],[-3,8],[-17,26],[-216,62],[-38,-9],[-35,22],[-222,64],[-23,20],[-6,2],[-61,-2],[-27,-4],[-9,4]],[[1845,3714],[-11,6]],[[465,2121],[10,-24]],[[475,2097],[-1,32]],[[771,1870],[-276,138],[-20,89]],[[1154,1783],[-152,141],[-27,-29],[-77,-12]],[[1127,1689],[-93,-138],[18,-53]],[[1052,1498],[-17,53],[92,138]],[[1127,1689],[27,94]],[[1127,1691],[22,56],[5,36]],[[3022,3213],[81,-89],[42,-36]],[[3146,3088],[-124,126]],[[2763,3146],[-155,-66],[-26,-76]],[[2816,3227],[-52,-48],[-1,-33],[-155,-66],[-26,-76]],[[2725,2765],[-18,14]],[[2709,2775],[18,-14]],[[0,148],[34,-44]],[[35,105],[-35,45]],[[98,623],[-6,-2]],[[278,3086],[77,49]],[[412,3097],[-2,18]],[[34,104],[46,-59],[25,-17]],[[106,28],[-71,77]],[[271,108],[-84,-108]],[[189,0],[84,107]],[[302,519],[4,-11]],[[306,508],[1,-4]],[[308,500],[-2,8]],[[306,508],[-3,12]],[[319,300],[1,0]],[[1331,1142],[0,-13]],[[1332,1129],[-1,13]],[[1742,1346],[3,-230]],[[1745,1115],[15,71],[-18,160]],[[3437,3008],[-39,-75],[39,75]],[[113,1711],[-20,21]],[[207,1676],[-25,-15]],[[252,1703],[-41,-24]],[[252,1703],[2,-1],[2,3]],[[256,1705],[-3,0],[-1,-2]],[[263,1703],[-7,2]],[[723,1427],[-45,44]],[[678,1470],[44,-44]],[[723,1426],[83,-30]],[[806,1397],[-82,29]],[[1255,721],[-52,20]],[[1361,709],[-109,12]],[[1256,719],[105,-10]],[[784,757],[-12,-87],[0,-2],[38,-99],[1,-94]],[[812,475],[-2,94],[-37,101],[12,87]],[[811,447],[27,-89]],[[839,357],[-27,89]],[[1014,1397],[-39,-3]],[[975,1394],[-10,-1],[-4,-4]],[[961,1389],[4,3],[10,2]],[[975,1394],[51,7]],[[1279,721],[-25,0]],[[1254,719],[23,0]],[[1480,815],[-16,-8],[-62,-74],[-20,-13],[-63,-2]],[[1319,717],[64,2],[20,13],[77,83]],[[1533,1507],[-42,-24]],[[1492,1481],[18,7],[24,19]],[[1611,1518],[65,-19],[48,-68]],[[1724,1432],[-48,67],[-44,15],[-19,4]],[[1760,1088],[-50,-58]],[[1710,1030],[50,57]],[[0,659],[27,-10]],[[27,649],[-27,10]],[[53,638],[-29,-157]],[[25,481],[29,157]],[[807,1609],[32,-81],[76,-85],[36,-16]],[[951,1427],[-36,16],[-36,53],[-38,33],[-33,80]],[[951,1427],[60,-30],[3,-7],[39,-56]],[[1052,1335],[-41,62],[-59,30]],[[1165,955],[-7,26],[15,70],[0,29],[-7,33],[10,40],[-3,23],[-64,61]],[[1109,1236],[63,-60],[-7,-63],[7,-62],[-14,-67],[1,-19]],[[776,585],[-40,-20]],[[737,563],[3,1]],[[787,1613],[-297,28],[-81,59]],[[409,1698],[6,-6],[6,-5],[20,-11],[40,-32],[9,-4],[115,-19],[135,-9],[45,1]],[[5,10],[-5,-4]],[[0,311],[22,29]],[[23,342],[-23,-30]],[[0,413],[12,2],[12,2]],[[24,417],[1,0]],[[25,417]],[[25,417],[1,0]],[[26,417],[3,1],[5,0]],[[0,413],[12,2],[12,2]],[[24,417],[1,0]],[[25,417]],[[25,417],[1,1]],[[26,418],[3,0],[5,0]],[[47,416],[-13,3],[-5,-1],[-3,0]],[[26,418],[-1,0]],[[25,418]],[[25,418],[-1,0]],[[24,418],[-12,-2],[-12,-2]],[[33,419],[-4,0],[-3,-1]],[[26,418],[-1,0]],[[25,418]],[[25,418],[-1,0]],[[24,418],[-10,-2],[-14,-2]],[[0,697],[9,2],[38,14]],[[47,714],[-47,-16]],[[133,624],[-49,47],[-49,-6],[-17,-57]],[[18,608],[17,57],[48,6],[50,-47]],[[24,481],[-1,-7],[-1,-3]],[[22,471],[0,-4],[-1,-4],[-1,-3],[3,-32],[0,-4],[1,-6]],[[24,418]],[[24,418],[0,-1]],[[24,417]],[[24,417],[6,-52]],[[30,365],[-5,46]],[[25,411],[0,6]],[[25,417]],[[25,417],[0,1]],[[25,418]],[[25,418],[-1,6],[-1,4],[-2,32],[1,7],[1,2]],[[23,469],[0,5],[1,2],[1,5]],[[31,517],[-9,-44],[0,-2]],[[22,471],[1,-2]],[[23,469],[2,-51]],[[25,418]],[[25,418],[0,-1]],[[25,417]],[[25,417],[0,-6]],[[25,411],[1,-2]],[[27,409],[-1,8]],[[26,417],[0,1]],[[26,418]],[[26,418]],[[26,418],[-2,56],[8,43]],[[34,418],[13,-2]],[[52,638],[1,-1]],[[53,636],[2,2]],[[109,28],[-17,-28]],[[93,0],[3,3]],[[95,1],[15,27]],[[251,1699],[8,2]],[[294,3063],[118,34]],[[738,1493],[23,-48]],[[761,1445],[-23,48]],[[750,1432],[53,-14]],[[803,1418]],[[803,1418],[47,-12],[30,-12],[13,-3],[57,0]],[[951,1391],[-71,3],[-30,12],[-47,12]],[[803,1418]],[[803,1418],[-53,14]],[[761,1445],[0,1]],[[762,1445],[-1,0]],[[767,535],[44,-61]],[[811,474],[-44,61]],[[779,1598],[12,-141]],[[792,1457],[-12,142]],[[792,1456],[11,-38]],[[803,1418]],[[803,1418],[2,-6],[1,-15]],[[807,1397],[-2,15],[-2,6]],[[803,1418]],[[803,1418],[-10,38]],[[827,773],[-30,-98],[59,-156]],[[856,520],[-59,155],[38,101]],[[849,643],[-2,-15]],[[848,628],[2,16]],[[850,631],[1,-1]],[[851,631],[-1,1]],[[889,494],[13,-9]],[[902,486],[-13,9]],[[914,955],[137,-128],[72,-25],[43,-44],[7,-4]],[[1173,754],[1,0]],[[1174,754],[29,-15],[50,-19]],[[1253,720]],[[1253,720],[2,-1]],[[1203,741],[-23,11],[-5,3]],[[1175,755],[-1,1]],[[1174,756],[-8,5],[-41,43],[-77,27],[-134,124]],[[923,1452],[7,33]],[[927,827],[33,-20]],[[928,827],[-1,0]],[[1058,1288],[-90,87]],[[968,1374],[89,-85]],[[1307,1149],[0,-3]],[[1307,1146],[4,-40],[-18,-117]],[[1293,989],[-1,-6]],[[1292,983]],[[1292,983],[-1,-2],[-3,-49],[-39,-69]],[[1249,863],[-35,-63],[-1,-1]],[[1213,799],[0,-1]],[[1213,798],[-1,0]],[[1212,798],[-38,-42]],[[1174,756],[-1,-2]],[[1173,754],[-74,-82],[-68,-17]],[[1032,655],[68,17],[74,82]],[[1174,754],[1,1]],[[1175,755],[36,40],[1,3]],[[1212,798],[1,0]],[[1213,798],[0,1]],[[1213,799],[36,64]],[[1249,863],[40,69],[3,49],[0,2]],[[1292,983]],[[1292,983],[1,6]],[[1293,989],[14,157]],[[1307,1146],[0,2]],[[1281,1176],[-72,51],[-100,13]],[[1109,1240],[100,-13],[60,-49],[12,-3]],[[1152,926],[22,-94],[38,-34]],[[1212,798]],[[1212,798],[40,-35],[1,-43]],[[1253,720],[0,-12]],[[1253,708],[0,-9]],[[1254,699],[0,9]],[[1254,708],[-1,12]],[[1253,720],[-1,43],[-39,35]],[[1213,798]],[[1213,798],[-39,34],[-21,92]],[[1153,924],[0,1]],[[1153,925],[-1,2]],[[1368,997],[-76,-14]],[[1292,983]],[[1292,983],[-38,-6],[-85,-47],[-7,-2]],[[1162,928],[-1,0]],[[1161,928],[-2,-1]],[[1159,927],[-5,-2],[-1,0]],[[1153,925],[-1,0]],[[1153,924]],[[1153,924],[1,1],[5,2]],[[1159,927],[2,0]],[[1161,927],[1,0]],[[1162,927],[7,3],[85,46],[38,7]],[[1292,983]],[[1292,983],[75,13]],[[1160,925],[-1,2]],[[1159,927]],[[1159,927]],[[1162,926],[-2,-7]],[[1160,1085],[15,-7]],[[1175,1078],[1,-1]],[[1165,919],[-3,8]],[[1162,927],[0,1]],[[1162,928],[-7,12],[20,112],[1,26],[-1,0]],[[1175,1078],[-15,8]],[[1175,1078]],[[1175,1078]],[[1175,1078],[0,-21],[-1,-5],[-19,-112],[6,-12]],[[1161,928],[0,-1]],[[1161,927],[1,-1]],[[1162,926],[3,-7]],[[1169,1361],[82,-10]],[[1251,1351]],[[1251,1351],[2,0],[28,-33]],[[1281,1319],[-28,32],[-1,0]],[[1252,1351],[-1,0]],[[1251,1351],[-81,10]],[[1273,1428],[-6,-55],[-16,-22]],[[1251,1351]],[[1251,1351],[-20,-28],[-38,-59],[-3,-33]],[[1190,1231],[3,33],[38,58],[20,29]],[[1251,1351],[1,0]],[[1252,1351],[15,22],[7,53]],[[1280,1174],[-77,-60]],[[1203,1113],[78,60]],[[1247,568],[-17,-58],[17,-97],[-30,-52],[-2,-11]],[[1216,349],[32,63],[-17,98],[18,58]],[[1226,718],[27,-10]],[[1253,708],[1,0]],[[1254,708],[2,-1]],[[1243,582],[-12,22]],[[1231,604],[12,-20]],[[1268,1436],[-12,-1]],[[1269,1435],[-13,-1]],[[1256,1434],[13,1]],[[1256,1434],[13,1]],[[1304,1171],[3,-20]],[[1307,1150],[2,14]],[[1327,1143],[-60,98],[59,-97]],[[1330,1189],[19,-31]],[[1349,1158],[7,-12]],[[1356,1146],[1,-1],[21,-4]],[[1378,1141],[1,0]],[[1379,1141],[4,-1]],[[1383,1140],[9,-1]],[[1392,1139],[14,-3]],[[1406,1136],[9,-1]],[[1412,1135],[-6,1]],[[1406,1136],[-13,3]],[[1393,1139],[-9,2]],[[1384,1141],[-5,1]],[[1379,1142],[-1,0]],[[1378,1142],[-22,4]],[[1356,1146],[-1,0],[-6,12]],[[1349,1158],[-18,34]],[[1335,987],[-1,-16]],[[1335,970],[1,17]],[[1359,703],[-5,10]],[[1361,709],[1,0],[42,-13]],[[1404,696]],[[1404,696],[8,-2]],[[1412,694],[-7,2]],[[1405,696],[-1,1]],[[1404,697],[-42,12],[-1,0]],[[1362,709],[-1,1]],[[1401,1074],[-3,-10],[-37,-91],[1,-2]],[[1362,971],[0,2],[37,92],[2,8]],[[1364,1103],[-1,-5]],[[1363,1097],[2,5]],[[1381,1148],[-3,-6]],[[1378,1142],[0,-1]],[[1378,1141],[-5,-15]],[[1374,1126],[5,15]],[[1379,1141],[0,1]],[[1379,1142],[2,6]],[[1376,1133],[7,7]],[[1383,1140],[1,1]],[[1384,1141],[24,23]],[[1408,1164],[0,1],[49,84]],[[1455,1248],[-9,-6],[-3,-2]],[[1443,1240],[-2,-3],[-13,-27],[-7,-20],[-11,-19],[-2,-6],[0,-1]],[[1408,1164],[-15,-25]],[[1393,1139],[-1,0]],[[1392,1139],[-1,-2]],[[1413,722],[-9,-25]],[[1404,697],[0,-1]],[[1404,696],[-3,-9],[24,-41],[102,-17],[91,-84],[9,-43],[-9,43],[-91,85],[-101,16],[-25,41],[3,9]],[[1404,696],[1,0]],[[1405,696],[9,25]],[[1442,1237],[3,2],[-2,1]],[[1443,1240],[-4,1],[-5,-1]],[[1437,1240],[2,-7]],[[1442,608],[9,-221]],[[1452,387],[-9,221]],[[1459,786],[34,5]],[[1492,792],[-33,-5]],[[1581,1173],[-106,-73]],[[1476,1100],[105,73]],[[1498,795],[30,22],[198,-49],[90,23]],[[1815,792],[-89,-23],[-127,38],[-72,10],[-29,-21]],[[1527,821],[-2,-4]],[[1529,817],[1,4]],[[1641,1522],[-58,-65],[2,-4]],[[1585,1453],[19,-51]],[[1604,1402],[1,-4]],[[1606,1399],[-2,3]],[[1604,1402],[-23,46],[4,5]],[[1585,1453],[57,69]],[[1662,1209],[-11,-1]],[[1651,1208],[-1,-1]],[[1650,1207],[-1,0],[-15,-4]],[[1634,1203],[15,4],[1,0]],[[1650,1207],[1,0]],[[1651,1207],[11,1]],[[1650,1207]],[[1650,1207]],[[1650,1207],[1,-17]],[[1651,1208]],[[1651,1208],[0,-1]],[[1651,1207],[0,-16]],[[1803,1669],[125,-63]],[[1928,1606],[-52,38],[-72,26]],[[1958,1603],[-30,3]],[[2110,1779],[14,31]],[[2124,1811],[-14,-32]],[[2114,1774],[-4,5]],[[2262,1347],[-9,-16],[-48,-134],[-44,-3]],[[2161,1193],[45,4],[57,150]],[[2399,2147],[19,-30]],[[2419,2117],[-20,30]],[[2418,2146],[48,-33],[-9,-37]],[[2457,2076],[6,6],[3,31],[-45,33]],[[2618,2881],[-80,-17]],[[2538,2864],[-1,0]],[[2537,2864],[-39,-9]],[[2500,2854],[37,8]],[[2537,2862],[1,0]],[[2538,2862],[81,18]],[[2619,2880],[17,-30]],[[2625,2328],[-117,-90]],[[2508,2238],[117,90]],[[2582,3004],[-3,-4],[-14,-19]],[[2565,2981]],[[2565,2981],[-28,-35],[0,-82]],[[2537,2864],[0,-1],[0,-1]],[[2537,2862],[13,-31]],[[2550,2831],[-12,31]],[[2538,2862],[0,1],[0,1]],[[2538,2864],[0,81],[27,36]],[[2565,2981]],[[2565,2981],[15,19],[2,4]],[[2929,3017],[-72,-64],[-113,11],[-83,-1],[-4,0]],[[2657,2963],[-1,1]],[[2656,2964],[-46,4]],[[2610,2968],[46,-5]],[[2656,2963],[1,0]],[[2657,2963],[4,0],[83,1],[113,-12],[3,1],[69,64]],[[2620,2881],[18,29],[0,1],[5,11]],[[2643,2922]],[[2643,2922],[5,11]],[[2648,2933],[0,1],[1,1],[8,28]],[[2657,2963]],[[2657,2963],[8,28],[-48,94],[47,-95],[-8,-26]],[[2656,2964],[0,-1]],[[2656,2963],[-8,-28],[0,-1],[-6,-12]],[[2642,2922]],[[2642,2922],[-5,-11],[0,-1],[-19,-28]],[[2620,2360],[3,-4]],[[2620,2881],[-1,2],[-1,-2]],[[2618,2881],[1,-1]],[[2619,2880],[1,1]],[[2637,2850],[-17,31]],[[2644,2923],[4,10]],[[2648,2933]],[[2752,2719],[-44,143],[-13,39],[-43,18],[-9,3]],[[2643,2922],[-1,0]],[[2642,2922],[-4,2],[-73,57]],[[2565,2981]],[[2565,2981],[-4,3],[4,-3]],[[2565,2981]],[[2565,2981],[73,-57],[4,-2]],[[2642,2922],[1,0]],[[2643,2922],[8,-3],[44,-18],[56,-182]],[[3007,2996],[-13,43]],[[2994,3039]],[[2994,3039],[-5,17],[-11,14]],[[2978,3070]],[[2978,3070],[-45,57],[-170,19]],[[2763,3146],[170,-20],[44,-56]],[[2977,3070]],[[2977,3070],[12,-15],[4,-16]],[[2993,3039],[1,-1]],[[2994,3038],[12,-42]],[[2780,3053],[-11,-6],[-13,-10],[17,12],[155,9],[3,0],[46,12]],[[2977,3070],[1,0]],[[2978,3070],[3,0]],[[2815,2809],[26,-74]],[[2842,2736],[-26,73]],[[2981,3071],[-3,-1]],[[2978,3070],[-1,0]],[[2977,3070],[-48,-12],[-16,0]],[[2929,3017],[42,12]],[[2971,3029],[-42,-12]],[[2998,3041],[-4,-2]],[[2994,3039],[-1,0]],[[2993,3039],[-20,-9]],[[2973,3030],[21,8]],[[2994,3038],[0,1]],[[2994,3039],[5,2]],[[3149,3049],[-35,-23]],[[3117,3026],[33,22]],[[3702,3734],[-66,35],[-28,9],[-61,-21]],[[3549,3757],[58,20],[94,-44],[6,15]],[[3688,3309],[-20,-18],[-47,15]],[[3688,3309],[1,5],[1,14]],[[3690,3328],[-2,-19]],[[3779,3333],[-19,-18],[-69,30],[-1,-17]],[[3702,3733],[5,15]],[[3786,3715],[-7,2]],[[724,1426],[-1,0],[0,1],[1,-1]],[[793,1457],[-1,1],[-1,-1],[1,-1],[1,1]],[[807,1397],[0,-1],[-1,0],[0,1],[1,0]],[[1414,723],[-1,0],[0,-1],[1,0],[0,1]],[[2973,3029],[-1,1],[-1,0],[1,-2],[1,1]],[[3902,3740],[0,1],[-1,0],[1,-1]],[[2980,1921],[-6,-74]],[[3585,2328],[254,-94]],[[1256,1456],[-170,-12],[-60,-42]],[[1026,1401],[61,43],[170,11]],[[1277,719],[9,0],[24,-1]],[[1310,718],[9,-1],[-12,-1]],[[1279,721],[40,-3],[-9,0]],[[1310,718],[-4,-1],[-4,-12]],[[1513,1272],[-99,-99]],[[1415,1173],[98,99]],[[1441,1473],[-3,1]],[[1438,1474],[-2,1],[0,-1]],[[1436,1474],[-1,0]],[[1435,1474],[-1,-4]],[[1435,1474]],[[1435,1474],[1,0],[15,-2],[5,0],[36,9]],[[1491,1483],[-36,-10],[-5,0],[-12,1]],[[1438,1474],[-2,0]],[[1436,1474],[-1,0]],[[2167,2308],[-40,-168],[-53,-57],[-32,-41],[-40,-132],[-49,-34],[-34,-14],[-137,-86],[-39,-34],[-76,-83],[-29,-58],[-2,-21]],[[1637,1580],[30,79],[77,82],[39,35],[170,100],[49,34],[44,130],[82,100],[40,168]],[[1037,831],[86,-29],[42,-42],[9,-6],[30,-15],[50,-20]],[[1254,721],[-130,82],[-86,29]],[[1300,568],[11,-16]],[[1311,553],[-11,15]],[[1302,705],[0,-13],[3,-25]],[[1305,666],[-3,36]],[[1332,459],[9,-76],[64,-82]],[[1406,301],[-65,83],[-9,74]],[[1405,301],[1,-1]],[[1406,300],[2,-3]],[[1408,297]],[[1405,301],[1,-1]],[[1406,300],[2,-1],[0,-2]],[[1408,297],[0,-11]],[[1406,286],[0,14]],[[1406,300]],[[1406,300],[0,1]],[[1410,300],[-4,1]],[[1164,1123],[14,-12]],[[1178,1112],[-13,12]],[[1171,1095],[2,15]],[[1174,1111],[-3,-21]],[[2607,3411],[-101,69],[-31,84],[-28,228],[19,39],[-76,265]],[[2607,3411],[31,-42],[80,-17],[19,-57],[49,-16]],[[2786,3279],[20,-7],[1,-5]],[[2807,3267],[7,-21]],[[2814,3246],[15,9],[-22,12]],[[2807,3267],[-21,12]],[[2786,3279],[-41,23],[-25,60],[-113,49]],[[2648,2823],[61,-48]],[[2707,2779],[-59,44]],[[2814,3246],[2,-19]],[[3597,3304],[-105,19],[-57,20],[-8,0],[-64,23],[-1,1]],[[3362,3367],[-9,4]],[[3353,3371],[-1,0]],[[3352,3371],[-4,2],[-14,-22]],[[3345,3367],[21,-2]],[[3354,3371],[-1,0]],[[3353,3371],[-1,-1]],[[3352,3370],[-6,-3]],[[3358,3392],[-11,-11],[3,-6]],[[3350,3375]],[[3350,3375],[2,-4]],[[3352,3371],[0,-1]],[[3352,3370],[1,-1],[13,-4]],[[3362,3366],[0,1]],[[3362,3367],[-12,8]],[[3350,3375]],[[3350,3375],[-1,3],[10,13]],[[3366,3365],[61,-22],[8,0],[57,-21],[104,-19]],[[3798,3279],[53,-14],[53,1]],[[3904,3266],[3,0],[23,-31]],[[3930,3235],[4,-5],[2,-3],[127,-74],[33,1]],[[4096,3156],[-3,0],[-30,-3],[-127,74],[-2,3],[-4,5]],[[3930,3235],[-26,31]],[[3904,3266],[-3,3],[-102,10]],[[2821,2844],[26,8],[31,-99]],[[2843,2856],[-19,-1]],[[2833,2881],[6,-24]],[[2879,2754],[-40,129]],[[307,504],[-13,-87],[28,-228],[-51,-81]],[[273,107],[50,84],[-28,227],[13,82]],[[0,605],[60,6],[38,12],[121,-23]],[[92,621],[-92,-16]],[[219,600],[-121,23]],[[836,776],[-3,-122],[19,-83],[-107,-36]],[[745,535],[22,0],[85,36],[4,55],[-23,28],[14,90],[-11,32]],[[830,884],[54,45],[100,102],[133,14],[112,79],[52,49]],[[1281,1174],[-164,-128],[-133,-15],[-154,-147]],[[1285,1175],[-4,-1]],[[1281,1174],[4,1]],[[1302,1173],[-16,2]],[[1286,1175],[16,-2]],[[1348,1180],[-32,-9]],[[1316,1171],[24,6]],[[1380,1249],[-26,-56]],[[1354,1193],[26,56],[68,-7],[50,54],[6,8],[4,10],[3,11],[46,22],[46,49],[160,-6]],[[1762,1390],[-159,7],[-92,-72],[-63,-81],[-68,5]],[[2004,1825],[9,-89],[-113,-206]],[[1900,1530],[57,72],[56,134],[-9,89]],[[2591,2902],[-100,-42]],[[2591,2902],[1,0],[1,1],[-1,0],[-1,-1]],[[2592,2903],[18,65]],[[2611,2968],[3,30],[88,58],[130,-63],[307,122],[50,-37],[99,134]],[[3390,3453],[15,43]],[[3445,3673],[12,-60],[-50,-87],[-2,-30]],[[3408,3527],[49,86],[-12,60]],[[3413,3954],[7,-7]],[[3430,3931],[13,-74]],[[3443,3857],[11,-74]],[[84,2524],[-84,67]],[[130,2512],[82,7],[117,74],[106,-20]],[[435,2574],[-51,23]],[[462,2551],[8,-11]],[[463,2550],[7,-9]],[[471,2539],[41,-29]],[[747,2427],[15,38],[150,66],[32,42],[59,-26],[78,98],[72,-49],[14,-49],[19,17],[62,-30],[56,23],[119,-16],[47,59]],[[1483,2608],[-13,-8]],[[1483,2608],[107,56],[59,-2]],[[1649,2662],[0,-1],[2,0],[-1,1],[-1,0]],[[1651,2662],[125,-63],[59,-2],[109,56],[67,-63],[48,-104]],[[1,6],[16,14]],[[17,21],[-3,-3]],[[2878,2753],[30,-126],[67,-39],[167,-250]],[[3143,2338],[-13,30],[-155,221],[-3,3],[-27,20],[-36,15],[-7,70],[-4,12],[-10,15],[-9,30]],[[0,1989],[0,1]],[[40,105],[-20,-6]],[[22,340],[8,25]],[[30,365],[-7,-23]],[[47,416],[34,-34],[11,-8],[34,-11],[57,-14],[123,-12],[15,0],[84,13],[160,32],[-153,-30]],[[413,352],[-8,-1],[-72,-11],[-12,-2],[-15,-1],[-123,12],[-91,25],[-45,42]],[[64,1750],[6,1]],[[110,28],[14,24],[-15,-24]],[[125,52],[24,-11]],[[150,41],[-25,11]],[[216,343],[0,-1]],[[217,342],[0,1]],[[233,3082],[61,-19]],[[297,143],[1,-1]],[[328,2591],[52,-12],[61,-89]],[[441,2491],[-61,89],[-52,11]],[[331,2591],[-2,2]],[[471,243],[-136,-42]],[[392,2392],[1,38]],[[428,2341],[-36,51]],[[414,216],[-7,-2]],[[443,2489],[69,21],[235,-83]],[[512,2512],[-69,-22]],[[616,2482],[6,1]],[[898,1883],[-40,29],[-48,-51],[-39,9]],[[811,474],[53,-129]],[[864,345],[-53,129]],[[832,787],[-5,-14]],[[832,779],[1,7]],[[835,776],[3,6]],[[856,519],[0,-1],[33,-24]],[[889,495],[-33,25]],[[930,1485],[13,60],[62,52]],[[950,1391],[18,-17]],[[968,1375],[-17,16]],[[1057,1289],[52,-49]],[[1109,1240],[-51,48]],[[1138,1769],[6,-11]],[[1140,1773],[9,-5]],[[1145,1770],[-4,-6]],[[1215,350],[-14,-97],[96,-80],[21,-82],[44,-57],[171,123],[46,95]],[[1578,253],[-46,-95],[-169,-124],[-66,140],[-95,79],[14,96]],[[1231,604],[0,1]],[[1231,605],[-10,20],[33,67],[0,7]],[[1253,699],[-33,-74],[11,-20]],[[1231,605],[0,-1]],[[1243,584],[5,-11],[0,-1]],[[1248,572],[-1,-4]],[[1249,568],[0,1],[-1,3]],[[1248,572],[-5,10]],[[1304,1439],[-36,-3]],[[1443,1508],[-60,-38],[-26,-31],[-29,-4],[-39,1]],[[1289,1436],[-9,0],[-6,0]],[[1274,1436],[-4,-1],[-1,0]],[[1269,1435],[1,0],[4,0]],[[1274,1435],[6,1],[3,-1]],[[1283,1435],[62,-5],[13,9],[25,31],[60,37]],[[1269,1435],[5,0]],[[1274,1435],[2,0]],[[1274,1436]],[[1274,1436],[0,-1]],[[1274,1435]],[[1274,1435],[-1,-7]],[[1274,1426],[1,8],[8,1]],[[1283,1435],[6,1]],[[1289,1436],[15,2]],[[1307,1151],[0,-2]],[[1307,1148],[0,2]],[[1326,1144],[4,-9],[40,-19]],[[1370,1116],[0,-1]],[[1370,1115],[14,-6],[22,-9]],[[1406,1100]],[[1406,1100],[53,-19]],[[1459,1081],[1,-1]],[[1460,1080],[26,-9],[39,-219]],[[1525,852],[-38,219],[-27,10]],[[1460,1081],[-1,0]],[[1459,1081],[-53,20]],[[1406,1101]],[[1406,1101],[-22,8],[-14,7]],[[1370,1116]],[[1370,1116],[-38,19],[-5,8]],[[1373,1126],[-3,-10]],[[1370,1116]],[[1370,1116],[-1,-2],[-5,-11]],[[1365,1102],[5,12],[0,1]],[[1370,1115],[0,1]],[[1370,1116],[4,10]],[[1406,1104],[0,-3]],[[1406,1101],[0,-1]],[[1406,1100],[-5,-26]],[[1401,1073],[5,27]],[[1406,1100],[0,1]],[[1406,1101],[1,2]],[[1475,1100],[-4,-5],[-12,-14]],[[1459,1081]],[[1459,1081],[-9,-20]],[[1451,1061],[8,19],[1,0]],[[1460,1080],[0,1]],[[1460,1081],[11,13],[5,6]],[[1498,796],[-6,-4]],[[1493,791],[5,4]],[[1525,852],[11,-7]],[[1536,845],[-6,-24]],[[1536,845]],[[1536,845],[-9,-24]],[[2155,2405],[-52,45],[-63,133],[-3,64],[-182,60],[-150,27],[-135,-22]],[[1634,1203],[-8,-2],[-45,-28]],[[1581,1173],[11,5],[34,23],[8,2]],[[1742,1690],[-57,-19],[-1,-3]],[[1684,1668],[-21,-75]],[[1663,1593],[-20,-69],[-2,-2]],[[1642,1522],[1,1],[20,70]],[[1663,1593],[21,75]],[[1684,1668],[59,20]],[[1651,1190],[27,-31],[2,0]],[[1680,1159]],[[1680,1159],[183,-15],[2,1]],[[1865,1145],[103,53]],[[1968,1198],[5,3]],[[1973,1201],[30,-12]],[[2003,1189],[18,-7],[140,11]],[[2161,1194],[-140,-11],[-18,6]],[[2003,1189],[-30,12]],[[1973,1201],[-2,0],[-3,-3]],[[1968,1198],[-48,-42],[-55,-11]],[[1865,1145],[-2,0],[-183,14]],[[1680,1159]],[[1680,1159],[-2,0],[-27,32]],[[1662,1208],[124,-1],[89,37]],[[1874,1244],[-88,-36],[-85,4],[-39,-3]],[[1667,1161],[5,-12]],[[1673,1145],[-1,4]],[[1672,1149],[0,1],[-5,11]],[[1680,1159]],[[1680,1159]],[[1680,1159],[-8,-10]],[[1672,1149]],[[1672,1149],[0,-4]],[[1672,1149],[8,10]],[[1680,1159]],[[1680,1159],[1,0]],[[1708,2732],[329,-86],[2,-63],[63,-134],[53,-44]],[[1744,1689],[59,-20]],[[1804,1670],[-60,20]],[[1837,797],[-22,-5]],[[1816,791],[22,6]],[[1966,1211],[17,-11]],[[2058,2491],[-2,0]],[[2117,1769],[-3,5]],[[2117,1769],[197,-288],[-52,-134]],[[2263,1347],[52,134],[-198,288]],[[2124,1810],[160,60],[74,1],[28,54],[-22,59],[93,92]],[[2457,2076],[-94,-92],[23,-59],[-29,-54],[-74,-1],[-159,-59]],[[2399,2147],[-61,92],[-65,19],[-130,-13]],[[2143,2245],[53,-1],[77,13],[65,-18],[61,-92]],[[2343,2382],[-156,-66],[-2,-7],[37,-53]],[[2224,2256],[-37,60],[156,66]],[[2719,2454],[-44,0],[-38,-5]],[[2637,2449],[-176,-27],[-118,-40]],[[2407,2154],[11,-8]],[[2421,2146],[-13,9]],[[2478,2849],[22,5]],[[2498,2855],[-15,-3]],[[2508,2238]],[[2550,2831],[6,-16],[28,-34]],[[2584,2781],[80,-95],[1,-3]],[[2665,2683],[12,-44],[61,-150],[3,-112],[0,-1],[1,-1]],[[2742,2375],[0,-1]],[[2742,2374],[38,-135]],[[2780,2239],[0,-1],[-68,-263]],[[2712,1975],[33,140],[35,124]],[[2780,2239],[1,4],[-38,132]],[[2743,2375],[-1,0]],[[2742,2375],[0,1],[-1,2],[-2,111],[-70,189],[-4,5]],[[2665,2683],[-81,98]],[[2584,2781],[-27,34],[-7,16]],[[2651,2504],[-14,-55]],[[2637,2449],[-19,-84],[2,-5]],[[2623,2356],[12,-24]],[[2635,2332],[0,-1]],[[2635,2331],[1,-2]],[[2929,2364],[-8,71],[-85,14]],[[2836,2449]],[[2836,2449],[-3,0],[-91,-74]],[[2742,2375]],[[2742,2375],[-10,-8],[-1,-2],[-96,-33]],[[2635,2332],[-10,-4]],[[2625,2328],[10,3]],[[2635,2331],[96,34],[1,1],[10,8]],[[2742,2374],[1,1]],[[2743,2375],[90,73],[3,0]],[[2836,2448],[1,0]],[[2837,2448],[83,-14],[9,-70]],[[2636,2850],[12,-27]],[[2648,2823],[-11,27]],[[2980,1945],[-2,-1]],[[2978,1944]],[[2978,1944],[-5,-2],[-1,0],[-113,-48],[-11,-7],[-131,14],[-5,74]],[[2751,2719],[85,-270]],[[2836,2449],[0,-1]],[[2836,2448],[3,-9],[-38,-259]],[[2801,2180],[-10,-64]],[[2791,2116],[0,-2],[80,-73],[97,-66],[10,-31]],[[2978,1944],[6,-20],[-6,20]],[[2978,1944],[-9,32],[-98,66],[-80,74]],[[2791,2116],[10,64]],[[2801,2180],[39,259],[-3,9]],[[2837,2448],[-1,1]],[[2836,2449],[-84,270]],[[2841,2735],[44,-123],[4,-135]],[[2890,2477],[-5,134],[-43,125]],[[3114,3026],[-152,-102],[-35,-77]],[[2928,2847],[35,77],[154,102]],[[2975,2412],[74,-46]],[[3049,2366],[-74,46]],[[2981,1947],[-1,-2]],[[2980,1945],[1,-1]],[[3076,2354],[90,-5]],[[3166,2349],[120,-8]],[[3284,2341],[-118,8]],[[3166,2349],[-90,6]],[[3333,2350],[-27,-6]],[[3385,2351],[-41,0]],[[3401,2956],[40,-10],[53,-6]],[[3494,2940],[-92,17]],[[3535,2353],[-116,1]],[[3522,2931],[-28,9]],[[3547,3757],[-28,-10]],[[3519,3746],[30,11]],[[3562,2349],[51,32]],[[3783,3338],[-4,-5]],[[3784,3338],[12,59],[60,57],[4,7],[-64,-64],[-14,-59]],[[3958,2708],[83,63],[55,214]],[[68,1751],[1,1],[-1,1],[-1,0],[1,-2]],[[441,2490],[2,-1],[0,1],[-1,1],[-1,-1]],[[471,2541],[-1,-1],[0,-1],[1,1],[0,1]],[[1742,1689],[2,0],[0,2],[-2,0],[0,-2]],[[171,4096],[1,-7],[-85,-87],[-15,-67],[19,-66],[-77,-272],[105,-64],[75,-98],[-16,-161],[63,-108],[-8,-84]],[[84,2524],[-12,151],[33,77]],[[89,1951],[71,96],[70,19],[-4,25],[51,47],[73,-29],[124,20],[15,149],[-61,63]],[[211,4096],[-78,-69]],[[441,2490],[-48,-60]],[[393,2430],[50,59]],[[470,2540],[-27,-49]],[[443,2491],[27,48]],[[1879,1515],[25,8]],[[1904,1523],[-24,-6]],[[2478,2849],[-148,-99]],[[2483,2852],[-2,1]],[[2481,2853]],[[2481,2853]],[[2481,2853],[11,6]],[[3390,3453],[-102,-241]],[[3414,3954],[-22,23],[12,119]],[[3430,3931],[-11,17]],[[3454,3773],[-1,-3]],[[3454,3773],[1,10]],[[13,1980],[31,-40],[45,11]],[[93,1732],[-23,24]],[[182,1661],[-49,14],[-20,36]],[[211,1679],[-4,-3]],[[432,1539],[-64,147],[-105,17]],[[432,1538],[55,52],[75,1],[46,-45],[47,-53],[23,-23]],[[655,1493],[-46,53]],[[678,1471],[-23,22]],[[955,1360],[19,-4]],[[432,1539],[-1,0],[1,-1],[1,1],[-1,0]],[[1305,667],[-11,-76],[6,-23]],[[1300,568],[-5,23],[14,42],[-4,33]],[[1332,458],[9,22],[2,26],[-1,4],[-20,23],[-5,11],[-6,9]],[[1311,552],[10,-19],[22,-27],[-11,-47]],[[1408,213],[-1,8]],[[1407,221],[-1,65]],[[1408,286],[-1,-65]],[[1407,221],[0,-8]],[[101,506],[20,6]],[[195,523],[327,-35],[184,65]],[[715,556],[16,6]],[[1381,1116],[3,6]],[[435,2573],[27,-22]],[[463,2550],[-28,24]],[[1672,1081],[0,-14]],[[1673,1066],[0,16]],[[1780,1043],[-90,6]],[[1691,1049],[88,-7]],[[278,3086],[-72,-21],[-11,-72],[63,-87],[-29,-13],[-8,-77],[-116,-64],[-105,138]],[[355,3135],[55,42],[-9,36],[36,29]],[[410,3115],[34,150],[40,23],[10,87],[137,78],[55,87],[73,8],[17,36],[37,11],[-27,42],[47,77],[45,8],[40,57],[-28,35],[18,87],[99,17],[39,-29],[114,68],[42,-33],[30,63],[71,-7],[39,116]],[[1356,4096],[28,-43],[95,31],[40,-44],[87,-19],[132,-102],[50,-69],[45,3],[241,172],[66,21],[27,50]],[[105,28],[28,-28]],[[134,0],[-28,28]],[[1165,919],[-3,8]],[[1327,1076],[7,-1]],[[1334,1075]],[[1365,1176],[-34,-34]],[[1331,1142],[34,34]],[[1331,1129],[2,-29],[1,-25]],[[1334,1075],[1,-16],[2,-47],[-2,-25]],[[1336,987],[2,25],[-6,117]],[[1733,1037],[12,78]],[[1745,1116],[-5,-23],[-7,-56]],[[1742,1346],[-4,32],[4,-32]],[[2438,3904],[28,-73]],[[736,565],[-31,-11]],[[706,552],[11,4]],[[731,561],[6,2]],[[336,199],[49,13]],[[385,212],[2,1]],[[387,213],[77,21]],[[464,234],[61,16]],[[525,250],[4,1]],[[522,251],[33,18],[-1,-16]],[[562,244],[-17,11],[-19,-5]],[[526,250],[-69,-18]],[[457,232],[-22,-6],[-36,-13],[-12,0]],[[387,213],[-11,0],[-40,-12],[-125,-51],[126,51],[39,11],[9,0]],[[385,212],[14,0],[36,13],[22,7]],[[457,232],[7,2]],[[464,234],[58,17]],[[522,251],[3,-1]],[[525,250],[1,0]],[[526,250],[35,-10]],[[864,345],[-8,-10]],[[3285,3145],[122,-130],[-13,-110],[2,18]],[[3396,2923],[11,93],[-121,129]],[[3396,2923]],[[3396,2923],[54,15],[120,367],[30,5]],[[3665,3415],[97,227]],[[3881,3728],[-22,-3]],[[3859,3724],[23,3]],[[3922,3820],[98,17],[76,-29]],[[4096,3809],[-76,29],[-97,-14]],[[111,2791],[-13,1]],[[102,2789],[4,-4]],[[106,2785],[5,-7],[0,8]],[[202,2992],[21,-40],[-7,-128]],[[216,2824],[0,-1],[-102,-33]],[[114,2790],[-8,-3],[0,-2]],[[106,2785],[-1,-3],[11,-14]],[[116,2768],[-2,22]],[[114,2790],[0,3],[102,31]],[[216,2824],[1,0],[6,128],[-3,8],[-18,32]],[[1102,2786],[11,-2]],[[1435,1474],[-10,2]],[[1425,1476],[-8,0],[-4,-2]],[[1413,1474],[-19,-8],[-33,-24],[-32,8],[-19,14],[-54,-8]],[[1257,1455],[105,-14],[34,25],[20,9]],[[1416,1475],[1,0],[8,0],[1,0]],[[1426,1475],[9,-1]],[[1312,1463],[-7,3]],[[1411,1474],[2,0]],[[1413,1474],[3,1]],[[1416,1475],[1,0],[2,0],[8,-4]],[[1428,1471],[-2,4]],[[1426,1475],[-1,1]],[[1425,1476],[-7,0],[-4,-1]],[[2459,2822],[22,-13]],[[2481,2809],[-22,14]],[[2682,2609],[4,-20]],[[2686,2589],[-4,20]],[[3517,3174],[-1,-1]],[[3516,3173],[-69,-129],[-10,-36]],[[3437,3008],[72,136],[7,29]],[[3516,3173],[35,132],[-25,0]],[[1286,1175],[-1,0]],[[1285,1175],[-4,-1]],[[1281,1173],[5,2]],[[1281,1174]],[[1285,1175]],[[1285,1175]],[[1340,1177],[8,1]],[[1380,1249],[-36,0]],[[1357,1246],[23,3]],[[1957,1602],[-53,-79]],[[1904,1523],[53,79]],[[2492,2859],[100,43]],[[2610,2966],[1,2]],[[3288,3212],[-99,-133],[-50,36],[-307,-121],[-133,62],[-85,-57],[-4,-31]],[[3405,3496],[-15,-43]],[[3405,3496],[2,30]],[[3419,3948],[-5,6]],[[3455,3783],[-25,148]],[[740,564],[39,23]],[[0,2889],[123,-140],[1,-12],[-35,-54],[-1,-2]],[[88,2681],[-11,-24]],[[77,2657],[-1,-2],[-2,-20],[0,-8],[37,-85],[15,-15],[12,-8],[9,-2],[30,3],[33,-21],[41,-21],[49,-7],[35,-63],[51,-22],[31,-52],[66,-69],[82,-58],[76,-32],[6,-10],[33,-42],[12,-11],[8,-6],[34,-70],[29,-31],[-2,-97],[2,-22],[26,-219],[18,-58]],[[808,1609],[-45,397],[-63,101],[-58,68],[-159,90],[-97,121],[-51,22],[-35,64],[-123,48],[-40,0],[-26,22],[-37,93],[2,20],[1,2]],[[77,2657],[5,16],[6,8]],[[88,2681],[1,1],[2,2],[34,53],[-1,13],[-124,139]],[[951,1427]],[[952,1427],[-1,0]],[[1109,1237],[-8,27],[-49,71]],[[1053,1334],[48,-70],[1,-21],[7,-7]],[[1052,1498],[9,-26],[43,-57],[41,-50],[1,-1],[6,-2]],[[1152,1362],[4,-2]],[[1154,1361],[-2,1]],[[1152,1362],[-6,2],[-1,1],[-84,107],[-9,26]],[[1866,1368],[91,69],[83,-18],[352,39],[37,65]],[[2428,1523],[-37,-65],[-306,-21],[-46,-17],[-82,18],[-77,-54],[-13,-12]],[[2889,2477],[86,-65]],[[2975,2412],[-85,65]],[[3049,2366],[27,-12]],[[3076,2355],[-27,11]],[[130,2512],[-46,12]],[[0,1701],[207,-62],[85,70],[111,3],[183,171],[130,-16],[45,6]],[[751,1877],[-35,-10],[-35,13],[-95,3],[-26,-11],[-157,-159],[-111,-3],[-13,-7],[-11,-12],[-25,-12],[-36,-39],[-207,61]],[[1672,1145],[0,-64]],[[1672,1067],[0,-17],[19,-1]],[[1673,1082],[0,63]],[[1690,1049],[-17,17]],[[1779,1042],[11,0],[176,74],[76,-4],[35,27]],[[2077,1139],[67,51]],[[2148,1191],[-71,-52]],[[2077,1139],[-35,-26],[-76,3],[-186,-73]],[[3596,3303],[5,1],[15,7],[17,4],[165,-36]],[[3799,3279],[-166,37],[-17,-5],[-19,-7]],[[101,507],[-101,-37]],[[196,523],[-75,-10]],[[776,585],[-40,-21]],[[737,564],[2,1]],[[1369,1099],[-336,-255],[-212,-212]],[[1368,1097],[1,2]],[[1551,1342],[-167,-220]],[[2735,2726],[3,4]],[[2738,2730],[3,3],[27,43],[49,61],[1,2],[6,13]],[[2824,2852],[4,10]],[[2828,2862],[3,7],[7,14],[24,23],[4,3],[5,3]],[[2871,2912],[16,13],[2,1],[124,62],[70,40],[65,43],[34,13],[33,23]],[[3215,3107],[15,10]],[[3230,3117],[2,1],[44,101]],[[3276,3220],[-46,-103]],[[3230,3117],[0,-1],[-15,-9]],[[3215,3107],[-35,-23],[-32,-12],[-24,-14],[-111,-70],[-124,-61],[-16,-11],[-2,-3]],[[2871,2913],[0,-1]],[[2871,2912],[-46,-59]],[[2825,2853],[-1,-1]],[[2824,2852],[-49,-63],[-9,-12],[-5,-9],[-23,-38]],[[2738,2730],[-2,-4],[-1,0]],[[2823,2847],[2,6]],[[2825,2853],[3,9]],[[2828,2862],[3,8],[7,13],[24,23],[9,7]],[[2871,2913],[3,2]],[[3384,3619],[13,30]],[[3396,3649],[-11,-26]],[[3415,3953],[17,-93]],[[3432,3860],[1,10],[-13,74],[-4,9]],[[660,541],[46,11]],[[705,554],[-45,-13]],[[717,556],[14,5]],[[561,240],[79,-40],[77,50]],[[717,250],[-77,-50],[-24,18],[-54,26]],[[856,335],[-139,-85]],[[2913,3058],[-133,-5]],[[3270,3160],[15,-15]],[[3286,3145],[-15,16]],[[3600,3310],[31,3],[34,102]],[[3762,3642],[19,30]],[[3786,3715],[73,9]],[[3859,3725],[-73,-9]],[[3901,3741],[-20,-13]],[[3882,3727],[20,13]],[[3902,3741],[-19,26]],[[3883,3767]],[[3883,3767]],[[3883,3767],[1,3]],[[3884,3770],[11,50]],[[3895,3820],[28,4]],[[3895,3820]],[[3895,3820],[3,-4]],[[3899,3819],[-1,-3]],[[3898,3816],[-14,-46]],[[3884,3770],[-1,-3],[18,-26]],[[3898,3816],[24,4]],[[182,25],[50,-25]],[[219,600],[96,-95],[76,-58],[164,37],[78,52],[112,-1]],[[745,535],[-112,1],[-78,-51],[-164,-37],[-172,152]],[[836,776],[-21,95],[15,13]],[[830,884],[-16,-13],[22,-95]],[[1900,1530],[-113,-141],[-25,1]],[[1763,1390],[24,-2],[113,142]],[[2016,1955],[-21,-48],[9,-82]],[[2004,1825],[-8,78],[-1,4],[21,48]],[[2016,1955],[9,73],[133,175],[-27,61],[12,32],[0,4],[-10,79],[-74,113],[264,252],[155,105]],[[2142,2296],[-11,-32],[27,-61],[-133,-175],[-9,-73]],[[2483,2852],[-5,-3]],[[2478,2850],[13,10]],[[3288,3212],[102,241]],[[3404,4096],[-12,-119],[21,-23]],[[3420,3947],[10,-16]],[[3443,3857]],[[3453,3770],[-8,-97]],[[3445,3673],[9,100]],[[3454,3783],[0,-10]],[[0,2379],[8,4],[96,99],[9,13],[13,25]],[[124,2519],[-124,-139]],[[2459,2823],[-64,7],[-67,-51],[-85,-2],[-168,-53],[-154,51]],[[1921,2775],[-17,-8]],[[1904,2767],[-49,-23],[-89,8],[-46,31],[-55,-18],[-194,10],[-73,-43],[-78,31],[-39,-12],[-82,-8],[-14,-4],[-72,45],[-11,2],[-37,3],[-120,-19],[-206,-90],[-85,-87],[-23,-35],[-2,-10],[-3,-34],[-27,-30],[-281,-11]],[[318,2472],[276,9],[7,3],[7,6],[15,18],[3,6],[6,44],[23,35],[85,86],[206,90],[156,17]],[[1113,2784],[72,-46],[96,12],[39,12],[78,-30],[73,42],[194,-9],[55,18],[46,-31],[89,-9],[49,24]],[[1904,2767],[17,8]],[[1921,2775],[13,-4],[141,-47],[168,53],[84,1],[68,52],[64,-8]],[[2481,2809],[37,-6],[21,-44],[50,-2],[93,-148]],[[2682,2609],[-93,149],[-49,1],[-22,44],[-37,6]],[[2686,2589],[33,-203],[50,-111],[64,-72],[37,-141]],[[2872,2062],[-39,141],[-1,2],[-18,21],[-45,49],[-3,23],[-47,88],[-33,203]],[[2163,4096],[-73,-91],[-49,-14],[-25,-31],[-45,-25],[-60,-44],[-90,-54]],[[1821,3837],[-7,-5]],[[1814,3832],[-2,-1],[-5,-38],[21,-54],[-79,-140],[-16,-57],[-1,-2],[-18,-43]],[[1714,3497],[-11,-26]],[[1703,3471],[-1,-2],[15,-16],[5,-5]],[[1722,3448],[1,-1],[-8,-36]],[[1715,3411],[-3,-14],[-10,-45]],[[1702,3352],[-10,-42]],[[1692,3310],[0,-3],[7,-57],[-52,-139],[-2,-27],[27,-55]],[[1672,3029],[0,-1],[-19,-33]],[[1653,2995],[-53,-91],[-86,-222],[-68,-54],[-63,-139],[16,-52],[-50,-165],[-172,-88],[-92,-97],[-13,-3],[-85,-25],[-6,-6],[-17,-63],[-100,-72],[-52,-43],[-57,2],[-2,-1],[-6,-1]],[[747,1875],[-11,-3]],[[744,1874],[3,1]],[[747,1875],[6,1],[3,0],[56,-1],[153,115],[22,69],[98,27],[95,97],[169,89],[52,165],[-17,52],[62,139],[69,54],[86,222],[52,91]],[[1653,2995],[19,34]],[[1672,3029],[2,2],[-29,53],[54,166],[-7,60]],[[1692,3310],[0,1],[10,41]],[[1702,3352],[10,44],[3,15]],[[1715,3411],[7,37]],[[1722,3448],[0,1],[-5,6],[-14,16]],[[1703,3471],[-1,1],[12,25]],[[1714,3497],[19,42],[1,2],[17,60],[78,138],[-21,54],[2,21],[4,18]],[[1814,3832],[7,5]],[[1821,3837],[84,49],[111,73],[26,31],[49,15],[77,91]],[[1828,3736],[-8,-17]],[[2839,2883],[12,15]],[[821,632],[-45,-47]],[[779,587],[42,44]],[[1606,1517],[-36,-66]],[[1570,1451],[36,66]],[[1570,1451],[-8,-20],[-11,-89]],[[1565,1439],[5,12]],[[3843,3482],[7,-27],[74,-58],[24,-66],[148,-185]],[[4096,3146],[-147,185],[-24,66],[-82,85]],[[14,18],[-10,-9]],[[36,31],[-19,-10]],[[17,20],[19,11]],[[37,30],[74,-14],[53,10],[2,-26],[-166,0],[0,45],[37,-15]],[[4096,2190],[0,-136],[-7,0],[-34,20],[-18,35],[6,29],[-1,24],[-28,16],[-30,-11],[-11,-14],[-81,23],[-34,36],[-14,47],[5,22],[23,8],[11,9],[36,35],[16,-5],[16,-18],[15,0],[15,-11],[14,-33],[18,-33],[27,-24],[31,-16],[25,-3]],[[3430,2883],[-17,0],[-25,67],[-7,35],[-12,29],[0,62],[64,176],[4,18],[7,12],[8,5],[23,28],[9,13],[31,32],[33,7],[10,-21],[-2,-18],[18,-29],[-8,-26],[-17,-93],[-25,-82],[-13,-72],[13,-56],[0,-39],[-26,-13],[-36,-13],[-32,-22]],[[4096,3369],[0,-640],[-16,-3],[-66,-1],[-58,-9],[23,39],[20,52],[13,54],[5,44],[-6,13],[-15,9],[-14,12],[-4,21],[9,24],[27,26],[7,32],[5,7],[-7,1],[-113,0],[-23,-28],[-14,-53],[-18,-35],[-34,26],[-7,41],[36,98],[11,49],[-21,13],[-221,36],[-28,21],[-11,41],[10,35],[72,129],[-35,-19],[-12,-9],[-13,-15],[-22,23],[10,50],[-38,29],[-60,6],[-50,-21],[47,-55],[-32,-31],[-95,-23],[-17,-42],[-9,-98],[-24,-48],[-67,-98],[-24,-22],[-42,-15],[-92,-17],[-34,-24],[-30,-27],[-96,-61],[-34,-12],[-42,-20],[21,-43],[138,-142],[24,-42],[9,-51],[14,-28],[29,14],[27,40],[9,52],[23,0],[58,-133],[-63,-33],[-29,-22],[-30,-33],[34,-46],[11,-38],[13,-11],[44,31],[27,33],[26,49],[19,57],[5,57],[33,-24],[32,-17],[25,3],[12,38],[31,-16],[14,-11],[15,-17],[-21,0],[17,-31],[63,-89],[16,-14],[34,-9],[34,-14],[15,-30],[-25,-52],[-59,-14],[-124,11],[-26,-31],[48,-138],[-22,-31],[-75,-11],[-37,45],[-39,11],[-49,-23],[-58,-12],[-50,-19],[-32,48],[-33,50],[-33,45],[-75,-23],[-42,-55],[7,-44],[29,-32],[17,-40],[14,-17],[13,-22],[13,-33],[38,17],[19,-13],[-10,-26],[-47,-22],[-49,6],[-39,22],[-30,7],[-22,-35],[14,-11],[8,-10],[7,-11],[10,-12],[-28,9],[-72,35],[27,68],[15,20],[-42,34],[-33,-16],[-22,-47],[-4,-59],[-45,51],[15,58],[71,89],[31,56],[-1,42],[-33,27],[-66,9],[-138,-18],[-53,13],[31,60],[59,29],[72,17],[7,61],[-127,16],[-190,-60],[-31,-19],[-33,-3],[-61,-44],[-31,-52],[56,-24],[79,-10],[8,-28],[-14,-41],[18,-53],[16,28],[35,21],[45,8],[43,-11],[34,-36],[-7,-33],[-49,-65],[-19,-48],[0,-58],[-5,-19],[-13,-14],[-22,-15],[-40,-9],[-53,4],[-52,11],[-52,-18],[-29,-8],[-25,-36],[0,-42],[32,-55],[52,-51],[52,-23],[115,-36],[-20,-24],[36,-27],[38,-12],[39,5],[37,24],[31,91],[20,43],[20,-11],[-2,-31],[-12,-53],[-18,-49],[-19,-22],[-10,-22],[12,-49],[29,-85],[46,15],[13,7],[-25,-42],[-48,-33],[-45,-10],[-21,31],[-18,35],[-44,8],[-108,-11],[-30,-50],[25,-99],[71,-68],[104,41],[10,-16],[2,-6],[-4,-6],[-8,-16],[9,-4],[6,0],[2,-4],[1,-16],[-70,-22],[-81,-3],[-77,19],[-60,41],[-31,8],[-84,-34],[-34,-9],[-39,13],[-29,21],[-31,9],[-42,-19],[7,-56],[-53,-31],[-74,-21],[-59,-26],[-30,10],[-18,16],[-5,26],[11,38],[17,19],[51,18],[13,7],[0,50],[-27,52],[-37,46],[-35,30],[6,-108],[-6,-26],[-20,-10],[-11,25],[-2,39],[11,34],[-16,16],[-15,20],[-28,52],[-18,-41],[-51,-53],[-11,-28],[21,-23],[42,-32],[33,-38],[-6,-39],[-58,-25],[-79,3],[-83,23],[-69,33],[119,-94],[20,-40],[3,-46],[-8,-37],[0,-40],[42,-90],[16,-17],[7,22],[10,11],[23,1],[26,-2],[21,1],[55,34],[32,28],[12,27],[27,-16],[12,-21],[3,-27],[0,-36],[11,-30],[26,0],[42,19],[47,-25],[10,-16],[3,-35],[-45,-86],[-5,-14],[-43,-14],[-34,-35],[-63,-95],[-39,-31],[-28,16],[-27,38],[-36,33],[-35,-47],[-18,-48],[-6,-53],[-1,-63],[20,-35],[39,-2],[30,-13],[-7,-71],[-44,-70],[-76,-74],[-86,-56],[-13,-3],[-100,0],[-1,6],[-3,26],[2,29],[9,23],[20,10],[49,12],[-21,29],[-203,126],[-44,8],[-33,12],[-86,47],[-50,7],[13,43],[6,46],[1,99],[-11,32],[-25,-22],[-33,-41],[-30,-25],[61,-154],[-50,-57],[-73,-53],[-82,-25],[-77,25],[-23,-10],[-29,4],[-68,30],[-12,-42],[-20,-33],[-28,-13],[-39,19],[-24,-104],[-66,-8],[-72,48],[-38,64],[1,69],[29,10],[39,-7],[32,17],[-2,35],[-34,22],[-46,10],[-39,-1],[27,59],[11,47],[-18,50],[-61,66],[-8,-99],[-20,-13],[-16,0],[-11,-5],[-12,-75],[-19,-44],[-17,-27],[0,3824],[4096,0],[0,-303],[-25,0],[-16,-50],[-48,-2],[-40,-7],[-29,-25],[-22,13],[-17,5],[-42,6],[20,-75],[11,-99],[21,-61],[47,37],[-11,-77],[5,-68],[33,-51],[72,-25],[14,15],[14,30],[13,10]],[[2221,1234],[25,36],[105,-100],[55,-17],[24,21],[44,-23],[-132,-30],[-28,29],[-56,2],[-37,82]],[[37,30],[127,-4],[2,-26],[-166,0],[0,45],[37,-15]],[[240,668],[-68,-221],[-69,88],[-8,-99],[-47,-18],[-48,-146],[0,541],[45,77],[127,-72],[44,-52],[24,-98]],[[205,1759],[131,25],[-37,-64],[-92,-43],[0,-36],[-85,70],[-45,1],[89,116],[41,-8],[-2,-61]],[[951,1462],[0,-35],[97,71],[115,5],[14,31],[41,-17],[56,-91],[90,-1],[105,73],[259,36],[-10,-80],[14,-49],[37,-18],[-64,-97],[-43,40],[0,-134],[-20,-10],[-11,25],[9,73],[-59,88],[-80,-122],[96,-93],[-6,-39],[-137,-22],[-152,56],[119,-94],[20,-40],[-5,-123],[58,-107],[18,33],[69,0],[55,34],[44,55],[39,-37],[14,-93],[69,19],[46,-25],[13,-51],[-50,-100],[-43,-14],[-136,-161],[-91,87],[-53,-95],[-7,-116],[20,-35],[-259,-7],[-66,168],[1,82],[-56,-17],[-73,-161],[-56,17],[-45,-51],[-64,15],[9,220],[-88,-88],[61,-154],[-50,-57],[-155,-78],[-114,17],[17,52],[64,0],[0,71],[65,36],[0,71],[65,72],[-33,107],[33,36],[0,107],[97,36],[0,71],[-33,0],[40,139],[-7,76],[259,107],[-12,180],[-53,-1],[15,-70],[-76,50],[-27,58],[-203,-38],[0,36],[-65,0],[-32,178],[174,47],[52,-11],[0,-71],[65,-72]],[[1168,650],[-23,-46],[97,0],[1,-36],[64,0],[32,-143],[65,0],[32,-35],[12,30],[-77,113],[33,71],[-171,108],[-56,-1],[-9,-61]],[[1732,1139],[51,-95],[-61,-26],[-53,52],[11,38],[52,31]],[[2286,1223],[71,-68],[104,41],[18,-68],[-151,-25],[-162,67],[-18,87],[30,80],[44,23],[52,-17],[12,-120]],[[1954,1498],[-44,17],[-56,82],[-62,8],[-2,51],[51,50],[23,71],[57,43],[210,13],[-22,-74],[38,-61],[-160,-129],[-33,-71]],[[2284,2152],[18,-53],[52,49],[87,-3],[34,-36],[-7,-33],[-208,1],[-47,29],[-4,55],[35,66],[46,-6],[-6,-69]],[[2632,2253],[-120,-16],[-53,13],[31,60],[132,51],[10,-108]],[[524,2507],[-91,63],[26,56],[50,11],[45,-31],[9,-71],[-39,-28]],[[2860,3250],[115,-87],[47,15],[0,72],[97,-72],[120,67],[79,-54],[-101,-141],[-134,-32],[-236,-144],[75,-99],[-127,-62],[-57,8],[-72,135],[-126,-27],[-100,63],[89,192],[202,94],[0,36],[53,-3],[76,39]],[[367,3036],[-95,35],[20,51],[46,19],[95,-34],[-20,-51],[-46,-20]],[[3784,3859],[143,-1],[-12,-92],[28,-52],[-86,19],[52,-235],[32,24],[-9,-34],[-35,-15],[-75,12],[-31,123],[-89,106],[-259,72],[0,71],[-26,7],[-39,-42],[-65,35],[65,108],[38,-12],[59,-95],[103,123],[234,54],[51,-35],[-10,-42],[-69,-31],[-18,-34],[18,-34]],[[3763,3337],[68,-16],[-25,-42],[-225,-6],[73,143],[107,-16],[2,-63]],[[3533,3551],[-8,-66],[-87,-18],[47,-55],[-81,-43],[-33,197],[20,81],[64,31],[37,-11],[41,-116]]]}