{"objects":{"water":{"type":"GeometryCollection","geometries":[{"type":"MultiPolygon","properties":{"source":"naturalearthdata.com","kind":"ocean","area":1576712559132672,"sort_rank":200,"min_zoom":0.0,"id":1},"arcs":[[[13],[14],[15],[16],[17],[18],[19],[20],[21]]]},{"type":"MultiLineString","properties":{"source":"naturalearthdata.com","kind":"ocean","sort_rank":205,"boundary":true,"min_zoom":0.0,"id":58},"arcs":[[22],[23]]},{"type":"LineString","properties":{"source":"naturalearthdata.com","kind":"ocean","sort_rank":205,"boundary":true,"min_zoom":0.0,"id":1802},"arcs":[24]},{"type":"MultiLineString","properties":{"source":"naturalearthdata.com","kind":"ocean","sort_rank":205,"boundary":true,"min_zoom":0.0,"id":1803},"arcs":[[25],[26]]},{"type":"LineString","properties":{"source":"naturalearthdata.com","kind":"ocean","sort_rank":205,"boundary":true,"min_zoom":0.0,"id":2707},"arcs":[27]},{"type":"LineString","properties":{"source":"naturalearthdata.com","kind":"ocean","sort_rank":205,"boundary":true,"min_zoom":0.0,"id":2709},"arcs":[28]}]},"buildings":{"type":"GeometryCollection","geometries":[]},"places":{"type":"GeometryCollection","geometries":[{"type":"Point","properties":{"kind":"locality","name:en":"Jincheng","name":"\u91d1\u57ce\u93ae","kind_detail":"town","source":"openstreetmap.org","min_zoom":8.0,"name:vi":"Kim Th\u00e0nh","id":60655741,"population":42726},"coordinates":[570,3795]},{"type":"Point","properties":{"kind":"locality","name:en":"Jinning","name":"\u91d1\u5be7\u9109","name:ko":"\uc9c4\ub2dd \ud5a5","kind_detail":"town","source":"openstreetmap.org","min_zoom":8.0,"alt_name:en":"Zhenxi","name:vi":"Kim Ninh","id":60655929,"population":30006},"coordinates":[612,3853]},{"type":"Point","properties":{"kind":"locality","name:en":"Jinhu","name":"\u91d1\u6e56\u93ae","name:ko":"\uc9c4\ud6c4 \uc9c4","kind_detail":"town","source":"openstreetmap.org","min_zoom":8.0,"name:vi":"Kim H\u1ed3","id":60655720,"population":28833},"coordinates":[851,3823]},{"type":"Point","properties":{"kind":"locality","name:en":"Jinsha","name":"\u91d1\u6c99\u93ae","name:ko":"\uc9c4\uc0ac \uc9c4","kind_detail":"town","source":"openstreetmap.org","min_zoom":8.0,"name:vi":"Kim Sa","id":60655917,"population":20312},"coordinates":[840,3975]},{"type":"Point","properties":{"kind":"locality","name:en":"Lieyu","name":"\u70c8\u5dbc\u9109","kind_detail":"town","source":"openstreetmap.org","min_zoom":8.0,"name:vi":"Li\u1ec7t T\u1ef1","name:zh":"Li\u00e8y\u01d4 xi\u0101ng","id":60655848,"population":12568},"coordinates":[348,3785]},{"type":"Point","properties":{"kind":"locality","name:en":"Xiyu","name":"\u897f\u5dbc\u9109","name:ko":"\uc2dc\uc704 \ud5a5","kind_detail":"town","source":"openstreetmap.org","min_zoom":8.0,"name:vi":"T\u00e2y T\u1ef1","population":8403,"id":60655859,"name:ja":"\u897f\u5dbc\u90f7"},"coordinates":[4025,1145]},{"type":"Point","properties":{"kind":"locality","name:en":"Wang'an","name":"\u671b\u5b89\u9109","name:ko":"\uc655\uc548 \ud5a5","kind_detail":"town","source":"openstreetmap.org","min_zoom":8.0,"name:vi":"V\u1ecdng An","population":5131,"id":60655662,"name:ja":"\u671b\u5b89\u90f7"},"coordinates":[4008,369]}]},"transit":{"type":"GeometryCollection","geometries":[]},"pois":{"type":"GeometryCollection","geometries":[{"type":"Point","properties":{"kind":"national_park","tier":1,"protect_class":"2","area":20089500,"source":"openstreetmap.org","min_zoom":8.63,"operator":"\u5167\u653f\u90e8\u71df\u5efa\u7f72\u91d1\u9580\u570b\u5bb6\u516c\u5712\u7ba1\u7406\u8655","id":-7042792,"osm_relation":true,"name":"\u91d1\u9580\u570b\u5bb6\u516c\u5712"},"coordinates":[750,3853]}]},"boundaries":{"type":"GeometryCollection","geometries":[{"type":"MultiLineString","properties":{"alt_name:ca":"Rep\u00fablica de la Xina","name:ko":"\ud0c0\uc774\uc644","name:cv":"\u0422\u0430\u0439\u0432\u0430\u043d\u044c","name:kk":"\u0422\u0430\u0439\u0432\u0430\u043d\u044c","name:tk":"Ta\u00fdwan","name:ku":"Taywan","alt_name:cs":"\u010c\u00ednsk\u00e1 republika","name:tg":"\u0422\u0430\u0439\u0432\u0430\u043d","name:ca":"Taiwan","alt_name:tr":"\u00c7in Cumhuriyeti","alt_name:li":"Republiek China","name:cy":"Taiwan","alt_name:tt":"\u041a\u044b\u0442\u0430\u0439 \u0496\u04e9\u043c\u04bb\u04af\u0440\u0438\u044f\u0442\u0435","alt_name:qu":"Chunwa Republika","alt_name:la":"Res publica Sinarum","name:de":"Taiwan","source":"openstreetmap.org","alt_name:ta":"\u0b9a\u0bc0\u0ba9\u0b95\u0bcd \u0b95\u0bc1\u0b9f\u0bbf\u0baf\u0bb0\u0b9a\u0bc1","alt_name:te":"\u0c24\u0c48\u0c35\u0c3e\u0c28\u0c4d","alt_name:th":"\u0e2a\u0e32\u0e18\u0e32\u0e23\u0e13\u0e23\u0e31\u0e10\u0e08\u0e35\u0e19","alt_name:lv":"\u0136\u012bnas Republika","alt_name:tl":"Republika ng Tsina","name:lt":"Taivanas","alt_name:de":"Republik China","name:cs":"Tchaj-wan","name:lb":"Taiwan","alt_name:dv":"\u0796\u07aa\u0789\u07b0\u0780\u07ab\u0783\u07a9 \u0797\u07a6\u0787\u07a8\u0782\u07a7","alt_name:dz":"\u0f4f\u0f60\u0f72\u0f0b\u0f5d\u0f71\u0f53\u0f0b","alt_name:pa":"\u0a1a\u0a40\u0a28 \u0a17\u0a23\u0a30\u0a3e\u0a1c","name:ln":"Taiwan","name:eo":"Tajvano","name:en":"Taiwan","name":"\u81fa\u7063","name:ee":"Taiwan","alt_name:ur":"\u062c\u0645\u06c1\u0648\u0631\u06cc\u06c2 \u0686\u06cc\u0646","alt_name:uk":"\u0420\u0435\u0441\u043f\u0443\u0431\u043b\u0456\u043a\u0430 \u041a\u0438\u0442\u0430\u0439","name:eu":"Taiwan","name:et":"Taiwan","alt_name:ug":"\u062a\u06d5\u064a\u06cb\u06d5\u0646","name:es":"Taiw\u00e1n","name:ia":"Taiwan","name:az":"tayvan","name:id":"Taiwan","name:ar":"\u062a\u0627\u064a\u0648\u0627\u0646","name:io":"Taiwan","name:ak":"Taiwan","name:sl":"Tajvan","alt_name:zh":"\u4e2d\u83ef\u6c11\u570b","name:it":"Taiwan","alt_name:an":"Republica de China","name:ru":"\u0422\u0430\u0439\u0432\u0430\u043d\u044c","name:rw":"Tayiwani","alt_name:za":"Cunghvaz Minzgoz","name:af":"Taiwan","alt_name:ru":"\u041a\u0438\u0442\u0430\u0439\u0441\u043a\u0430\u044f \u0420\u0435\u0441\u043f\u0443\u0431\u043b\u0438\u043a\u0430","kind_detail":"2","alt_name:ja":"\u4e2d\u83ef\u6c11\u56fd","alt_name:ps":"\u062f \u0686\u064a\u0646 \u062c\u0645\u0647\u0648\u0631\u064a\u062a","alt_name:jv":"R\u00e9publik Cina","name:se":"Taiwan","name:so":"Taywan","alt_name:be":"\u0420\u044d\u0441\u043f\u0443\u0431\u043b\u0456\u043a\u0430 \u041a\u0456\u0442\u0430\u0439","alt_name:bg":"\u0420\u0435\u043f\u0443\u0431\u043b\u0438\u043a\u0430 \u041a\u0438\u0442\u0430\u0439","name:sk":"Taiwan","name:ja":"\u53f0\u6e7e","alt_name:bn":"\u09aa\u09cd\u09b0\u099c\u09be\u09a4\u09a8\u09cd\u09a4\u09cd\u09b0\u09c0 \u099a\u09c0\u09a8","alt_name:bo":"\u0f50\u0f60\u0f7a\u0f0b\u0f5d\u0f53\u0f0d","name:br":"Taiwan","name:bs":"Tajvan","name:bm":"Tayiwani","name:bn":"\u09a4\u09be\u0987\u0993\u09af\u09bc\u09be\u09a8","alt_name:br":"Republik Sina","name:sv":"Taiwan","name:bg":"\u0422\u0430\u0439\u0432\u0430\u043d","name:ss":"IThayiwani","osm_relation":true,"alt_name:ko":"\ub300\ub9cc","alt_name:kn":"\u0c9a\u0cc0\u0ca8\u0cbf \u0c97\u0ca3\u0cb0\u0cbe\u0c9c\u0ccd\u0caf","alt_name:sr":"\u0420\u0435\u043f\u0443\u0431\u043b\u0438\u043a\u0430 \u041a\u0438\u043d\u0430","alt_name:sq":"Republika e Kin\u00ebs","alt_name:ka":"\u10e2\u10d0\u10d8\u10d5\u10d0\u10dc\u10d8","alt_name:sa":"\u0924\u0948\u0935\u093e\u0928","alt_name:sm":"Saina Taipei","alt_name:zh-min-nan":"Tiong-ho\u00e2 B\u00een-kok","alt_name:os":"\u041a\u0438\u0442\u0430\u0439\u044b \u0420\u0435\u0441\u043f\u0443\u0431\u043b\u0438\u043a\u00e6","alt_name:or":"\u0b24\u0b3e\u0b07\u0b71\u0b3e\u0b28","alt_name:pl":"Republika Chi\u0144ska","name:da":"Taiwan","alt_name:gd":"Poblachd na S\u00ecne","alt_name:oc":"Republica de China (Taiwan)","min_zoom":8.0,"name:ro":"Taiwan","name:be":"\u0422\u0430\u0439\u0432\u0430\u043d\u044c","alt_name:pt":"Rep\u00fablica da China","alt_name:gv":"Pobblaght ny Sheen","alt_name:gu":"\u0a9a\u0ac0\u0aa8\u0ac0 \u0a97\u0aa3\u0aa4\u0a82\u0aa4\u0acd\u0ab0","alt_name:he":"\u05d8\u05d0\u05d9\u05d5\u05d5\u05d0\u05df","sort_rank":262,"alt_name:nl":"Republiek China","alt_name:hi":"\u091a\u0940\u0928\u0940 \u0917\u0923\u0930\u093e\u091c\u094d\u092f","alt_name:hu":"K\u00ednai K\u00f6zt\u00e1rsas\u00e1g","alt_name:hr":"Republika Kina","alt_name:hy":"\u0549\u056b\u0576\u0561\u057d\u057f\u0561\u0576\u056b \u0540\u0561\u0576\u0580\u0561\u057a\u0565\u057f\u0578\u0582\u0569\u0575\u0578\u0582\u0576","alt_name:sw":"Jamhuri ya China","alt_name:ar":"\u062c\u0645\u0647\u0648\u0631\u064a\u0629 \u0627\u0644\u0635\u064a\u0646","alt_name:yi":"\u05e8\u05e2\u05e4\u05d5\u05d1\u05dc\u05d9\u05e7 \u05e4\u05d5\u05df \u05db\u05d9\u05e0\u05e2","name:hu":"Tajvan","name:hr":"Tajvan","alt_name:yo":"Or\u00edl\u1eb9\u0300-\u00e8d\u00e8 Ol\u00f3m\u00ecnira il\u1eb9\u0300 \u1e62\u00e1\u00edn\u00e0","alt_name:ia":"Republica de China","kind":"country","alt_name:id":"Republik Cina","alt_name:io":"Republiko di Chinia","alt_name:is":"L\u00fd\u00f0veldi\u00f0 K\u00edna","name:am":"\u1273\u12ed\u12cb\u1295","alt_name:el":"\u0394\u03b7\u03bc\u03bf\u03ba\u03c1\u03b1\u03c4\u03af\u03b1 \u03c4\u03b7\u03c2 \u039a\u03af\u03bd\u03b1\u03c2","alt_name:eo":"Respubliko \u0108inujo","alt_name:en":"Republic of China","alt_name:ms":"Republik China di Taiwan","alt_name:mr":"\u091a\u0940\u0928\u091a\u0947 \u092a\u094d\u0930\u091c\u093e\u0938\u0924\u094d\u0924\u093e\u0915","alt_name:my":"\u1010\u101b\u102f\u1010\u103a\u101e\u1019\u1039\u1019\u1010\u1014\u102d\u102f\u1004\u103a\u1004\u1036","official_name":"\u4e2d\u83ef\u6c11\u570b","name:mg":"Taiwan","alt_name:ml":"\u0d24\u0d3e\u0d2f\u0d4d\u200c\u0d35\u0d3e\u0d7b","alt_name:et":"Hiina Vabariik","alt_name:mn":"\u0411\u04af\u0433\u0434 \u041d\u0430\u0439\u0440\u0430\u043c\u0434\u0430\u0445 \u0425\u044f\u0442\u0430\u0434 \u0423\u043b\u0441","name:mi":"Taiwana","id":-449220,"alt_name:es":"Rep\u00fablica de China","name:vo":"Tayv\u00e4n","name:ff":"Taywaan","name:fi":"Taiwan","name:uz":"Tayvan","name:fo":"Teivan","alt_name:vi":"Trung Hoa D\u00e2n Qu\u1ed1c","name:fr":"Ta\u00efwan","alt_name:mk":"\u0420\u0435\u043f\u0443\u0431\u043b\u0438\u043a\u0430 \u041a\u0438\u043d\u0430","name:fy":"Taiwan","alt_name:af":"Republiek van Sjina","alt_name:zh-yue":"\u4e2d\u83ef\u6c11\u570b","alt_name:fi":"Kiinan tasavalta","name:nl":"Taiwan","alt_name:fa":"\u062a\u0627\u06cc\u0648\u0627\u0646","alt_name:na":"Republik Tsiene","alt_name:am":"\u12e8\u127b\u12ed\u1293 \u122a\u1350\u1265\u120a\u12ad","alt_name:az":"\u00c7in Respublikas\u0131","alt_name:fr":"R\u00e9publique de Chine (Ta\u00efwan)","name:wo":"Taaywaan","alt_name:nn":"Republikken Kina","alt_name:no":"Republikken Kina","name:ga":"An T\u00e9av\u00e1in","name:gd":"Tai-Bh\u00e0n","name:gl":"Taiw\u00e1n","alt_name:sh":"Republika Kina"},"arcs":[[0],[1],[2],[3]]},{"type":"LineString","properties":{"alt_name:ca":"Rep\u00fablica de la Xina","name:ko":"\ud0c0\uc774\uc644","name:cv":"\u0422\u0430\u0439\u0432\u0430\u043d\u044c","name:kk":"\u0422\u0430\u0439\u0432\u0430\u043d\u044c","name:tk":"Ta\u00fdwan","name:ku":"Taywan","alt_name:cs":"\u010c\u00ednsk\u00e1 republika","name:tg":"\u0422\u0430\u0439\u0432\u0430\u043d","name:ca":"Taiwan","alt_name:tr":"\u00c7in Cumhuriyeti","alt_name:li":"Republiek China","name:cy":"Taiwan","alt_name:tt":"\u041a\u044b\u0442\u0430\u0439 \u0496\u04e9\u043c\u04bb\u04af\u0440\u0438\u044f\u0442\u0435","alt_name:qu":"Chunwa Republika","alt_name:la":"Res publica Sinarum","name:de":"Taiwan","source":"openstreetmap.org","alt_name:ta":"\u0b9a\u0bc0\u0ba9\u0b95\u0bcd \u0b95\u0bc1\u0b9f\u0bbf\u0baf\u0bb0\u0b9a\u0bc1","alt_name:te":"\u0c24\u0c48\u0c35\u0c3e\u0c28\u0c4d","alt_name:th":"\u0e2a\u0e32\u0e18\u0e32\u0e23\u0e13\u0e23\u0e31\u0e10\u0e08\u0e35\u0e19","alt_name:lv":"\u0136\u012bnas Republika","alt_name:tl":"Republika ng Tsina","name:lt":"Taivanas","alt_name:de":"Republik China","name:cs":"Tchaj-wan","name:lb":"Taiwan","alt_name:dv":"\u0796\u07aa\u0789\u07b0\u0780\u07ab\u0783\u07a9 \u0797\u07a6\u0787\u07a8\u0782\u07a7","alt_name:dz":"\u0f4f\u0f60\u0f72\u0f0b\u0f5d\u0f71\u0f53\u0f0b","alt_name:pa":"\u0a1a\u0a40\u0a28 \u0a17\u0a23\u0a30\u0a3e\u0a1c","name:ln":"Taiwan","name:eo":"Tajvano","name:en":"Taiwan","name":"\u81fa\u7063","name:ee":"Taiwan","alt_name:ur":"\u062c\u0645\u06c1\u0648\u0631\u06cc\u06c2 \u0686\u06cc\u0646","alt_name:uk":"\u0420\u0435\u0441\u043f\u0443\u0431\u043b\u0456\u043a\u0430 \u041a\u0438\u0442\u0430\u0439","name:eu":"Taiwan","name:et":"Taiwan","alt_name:ug":"\u062a\u06d5\u064a\u06cb\u06d5\u0646","name:es":"Taiw\u00e1n","name:ia":"Taiwan","name:az":"tayvan","name:id":"Taiwan","name:ar":"\u062a\u0627\u064a\u0648\u0627\u0646","name:io":"Taiwan","name:ak":"Taiwan","name:sl":"Tajvan","alt_name:zh":"\u4e2d\u83ef\u6c11\u570b","name:it":"Taiwan","alt_name:an":"Republica de China","name:ru":"\u0422\u0430\u0439\u0432\u0430\u043d\u044c","name:rw":"Tayiwani","alt_name:za":"Cunghvaz Minzgoz","name:af":"Taiwan","alt_name:ru":"\u041a\u0438\u0442\u0430\u0439\u0441\u043a\u0430\u044f \u0420\u0435\u0441\u043f\u0443\u0431\u043b\u0438\u043a\u0430","kind_detail":"2","alt_name:ja":"\u4e2d\u83ef\u6c11\u56fd","alt_name:ps":"\u062f \u0686\u064a\u0646 \u062c\u0645\u0647\u0648\u0631\u064a\u062a","alt_name:jv":"R\u00e9publik Cina","name:se":"Taiwan","name:so":"Taywan","alt_name:be":"\u0420\u044d\u0441\u043f\u0443\u0431\u043b\u0456\u043a\u0430 \u041a\u0456\u0442\u0430\u0439","alt_name:bg":"\u0420\u0435\u043f\u0443\u0431\u043b\u0438\u043a\u0430 \u041a\u0438\u0442\u0430\u0439","name:sk":"Taiwan","name:ja":"\u53f0\u6e7e","alt_name:bn":"\u09aa\u09cd\u09b0\u099c\u09be\u09a4\u09a8\u09cd\u09a4\u09cd\u09b0\u09c0 \u099a\u09c0\u09a8","alt_name:bo":"\u0f50\u0f60\u0f7a\u0f0b\u0f5d\u0f53\u0f0d","name:br":"Taiwan","name:bs":"Tajvan","name:bm":"Tayiwani","name:bn":"\u09a4\u09be\u0987\u0993\u09af\u09bc\u09be\u09a8","alt_name:br":"Republik Sina","name:sv":"Taiwan","name:bg":"\u0422\u0430\u0439\u0432\u0430\u043d","name:ss":"IThayiwani","osm_relation":true,"alt_name:ko":"\ub300\ub9cc","alt_name:kn":"\u0c9a\u0cc0\u0ca8\u0cbf \u0c97\u0ca3\u0cb0\u0cbe\u0c9c\u0ccd\u0caf","alt_name:sr":"\u0420\u0435\u043f\u0443\u0431\u043b\u0438\u043a\u0430 \u041a\u0438\u043d\u0430","alt_name:sq":"Republika e Kin\u00ebs","alt_name:ka":"\u10e2\u10d0\u10d8\u10d5\u10d0\u10dc\u10d8","alt_name:sa":"\u0924\u0948\u0935\u093e\u0928","alt_name:sm":"Saina Taipei","alt_name:zh-min-nan":"Tiong-ho\u00e2 B\u00een-kok","alt_name:os":"\u041a\u0438\u0442\u0430\u0439\u044b \u0420\u0435\u0441\u043f\u0443\u0431\u043b\u0438\u043a\u00e6","alt_name:or":"\u0b24\u0b3e\u0b07\u0b71\u0b3e\u0b28","alt_name:pl":"Republika Chi\u0144ska","name:da":"Taiwan","alt_name:gd":"Poblachd na S\u00ecne","alt_name:oc":"Republica de China (Taiwan)","min_zoom":8.0,"name:ro":"Taiwan","name:be":"\u0422\u0430\u0439\u0432\u0430\u043d\u044c","alt_name:pt":"Rep\u00fablica da China","alt_name:gv":"Pobblaght ny Sheen","alt_name:gu":"\u0a9a\u0ac0\u0aa8\u0ac0 \u0a97\u0aa3\u0aa4\u0a82\u0aa4\u0acd\u0ab0","alt_name:he":"\u05d8\u05d0\u05d9\u05d5\u05d5\u05d0\u05df","sort_rank":262,"alt_name:nl":"Republiek China","alt_name:hi":"\u091a\u0940\u0928\u0940 \u0917\u0923\u0930\u093e\u091c\u094d\u092f","alt_name:hu":"K\u00ednai K\u00f6zt\u00e1rsas\u00e1g","alt_name:hr":"Republika Kina","alt_name:hy":"\u0549\u056b\u0576\u0561\u057d\u057f\u0561\u0576\u056b \u0540\u0561\u0576\u0580\u0561\u057a\u0565\u057f\u0578\u0582\u0569\u0575\u0578\u0582\u0576","alt_name:sw":"Jamhuri ya China","alt_name:ar":"\u062c\u0645\u0647\u0648\u0631\u064a\u0629 \u0627\u0644\u0635\u064a\u0646","alt_name:yi":"\u05e8\u05e2\u05e4\u05d5\u05d1\u05dc\u05d9\u05e7 \u05e4\u05d5\u05df \u05db\u05d9\u05e0\u05e2","name:hu":"Tajvan","name:hr":"Tajvan","alt_name:yo":"Or\u00edl\u1eb9\u0300-\u00e8d\u00e8 Ol\u00f3m\u00ecnira il\u1eb9\u0300 \u1e62\u00e1\u00edn\u00e0","alt_name:ia":"Republica de China","kind":"country","alt_name:id":"Republik Cina","alt_name:io":"Republiko di Chinia","alt_name:is":"L\u00fd\u00f0veldi\u00f0 K\u00edna","name:am":"\u1273\u12ed\u12cb\u1295","alt_name:el":"\u0394\u03b7\u03bc\u03bf\u03ba\u03c1\u03b1\u03c4\u03af\u03b1 \u03c4\u03b7\u03c2 \u039a\u03af\u03bd\u03b1\u03c2","alt_name:eo":"Respubliko \u0108inujo","alt_name:en":"Republic of China","alt_name:ms":"Republik China di Taiwan","alt_name:mr":"\u091a\u0940\u0928\u091a\u0947 \u092a\u094d\u0930\u091c\u093e\u0938\u0924\u094d\u0924\u093e\u0915","alt_name:my":"\u1010\u101b\u102f\u1010\u103a\u101e\u1019\u1039\u1019\u1010\u1014\u102d\u102f\u1004\u103a\u1004\u1036","official_name":"\u4e2d\u83ef\u6c11\u570b","name:mg":"Taiwan","alt_name:ml":"\u0d24\u0d3e\u0d2f\u0d4d\u200c\u0d35\u0d3e\u0d7b","alt_name:et":"Hiina Vabariik","alt_name:mn":"\u0411\u04af\u0433\u0434 \u041d\u0430\u0439\u0440\u0430\u043c\u0434\u0430\u0445 \u0425\u044f\u0442\u0430\u0434 \u0423\u043b\u0441","name:mi":"Taiwana","id":-449220,"alt_name:es":"Rep\u00fablica de China","name:vo":"Tayv\u00e4n","name:ff":"Taywaan","name:fi":"Taiwan","name:uz":"Tayvan","name:fo":"Teivan","alt_name:vi":"Trung Hoa D\u00e2n Qu\u1ed1c","name:fr":"Ta\u00efwan","alt_name:mk":"\u0420\u0435\u043f\u0443\u0431\u043b\u0438\u043a\u0430 \u041a\u0438\u043d\u0430","name:fy":"Taiwan","alt_name:af":"Republiek van Sjina","alt_name:zh-yue":"\u4e2d\u83ef\u6c11\u570b","alt_name:fi":"Kiinan tasavalta","name:nl":"Taiwan","alt_name:fa":"\u062a\u0627\u06cc\u0648\u0627\u0646","alt_name:na":"Republik Tsiene","alt_name:am":"\u12e8\u127b\u12ed\u1293 \u122a\u1350\u1265\u120a\u12ad","alt_name:az":"\u00c7in Respublikas\u0131","alt_name:fr":"R\u00e9publique de Chine (Ta\u00efwan)","name:wo":"Taaywaan","alt_name:nn":"Republikken Kina","alt_name:no":"Republikken Kina","name:ga":"An T\u00e9av\u00e1in","name:gd":"Tai-Bh\u00e0n","name:gl":"Taiw\u00e1n","alt_name:sh":"Republika Kina"},"arcs":[4]},{"type":"MultiLineString","properties":{"alt_name:ca":"Rep\u00fablica de la Xina","name:ko":"\ud0c0\uc774\uc644","name:cv":"\u0422\u0430\u0439\u0432\u0430\u043d\u044c","name:kk":"\u0422\u0430\u0439\u0432\u0430\u043d\u044c","name:tk":"Ta\u00fdwan","name:ku":"Taywan","alt_name:cs":"\u010c\u00ednsk\u00e1 republika","name:tg":"\u0422\u0430\u0439\u0432\u0430\u043d","name:ca":"Taiwan","alt_name:tr":"\u00c7in Cumhuriyeti","alt_name:li":"Republiek China","name:cy":"Taiwan","alt_name:tt":"\u041a\u044b\u0442\u0430\u0439 \u0496\u04e9\u043c\u04bb\u04af\u0440\u0438\u044f\u0442\u0435","name:hr":"Tajvan","alt_name:la":"Res publica Sinarum","name:de":"Taiwan","source":"openstreetmap.org","alt_name:ta":"\u0b9a\u0bc0\u0ba9\u0b95\u0bcd \u0b95\u0bc1\u0b9f\u0bbf\u0baf\u0bb0\u0b9a\u0bc1","alt_name:te":"\u0c24\u0c48\u0c35\u0c3e\u0c28\u0c4d","alt_name:th":"\u0e2a\u0e32\u0e18\u0e32\u0e23\u0e13\u0e23\u0e31\u0e10\u0e08\u0e35\u0e19","alt_name:lv":"\u0136\u012bnas Republika","alt_name:tl":"Republika ng Tsina","name:lt":"Taivanas","alt_name:de":"Republik China","name:cs":"Tchaj-wan","name:lb":"Taiwan","alt_name:dv":"\u0796\u07aa\u0789\u07b0\u0780\u07ab\u0783\u07a9 \u0797\u07a6\u0787\u07a8\u0782\u07a7","alt_name:dz":"\u0f4f\u0f60\u0f72\u0f0b\u0f5d\u0f71\u0f53\u0f0b","alt_name:gd":"Poblachd na S\u00ecne","name:ln":"Taiwan","name:eo":"Tajvano","name:en":"Taiwan","name":"\u81fa\u7063","name:ee":"Taiwan","alt_name:ur":"\u062c\u0645\u06c1\u0648\u0631\u06cc\u06c2 \u0686\u06cc\u0646","alt_name:uk":"\u0420\u0435\u0441\u043f\u0443\u0431\u043b\u0456\u043a\u0430 \u041a\u0438\u0442\u0430\u0439","name:eu":"Taiwan","name:et":"Taiwan","alt_name:ug":"\u062a\u06d5\u064a\u06cb\u06d5\u0646","name:es":"Taiw\u00e1n","name:ia":"Taiwan","name:az":"tayvan","name:id":"Taiwan","name:ar":"\u062a\u0627\u064a\u0648\u0627\u0646","name:io":"Taiwan","name:ak":"Taiwan","alt_name:bg":"\u0420\u0435\u043f\u0443\u0431\u043b\u0438\u043a\u0430 \u041a\u0438\u0442\u0430\u0439","alt_name:zh":"\u4e2d\u83ef\u6c11\u570b","name:it":"Taiwan","alt_name:an":"Republica de China","name:ru":"\u0422\u0430\u0439\u0432\u0430\u043d\u044c","name:rw":"Tayiwani","alt_name:za":"Cunghvaz Minzgoz","name:af":"Taiwan","alt_name:ru":"\u041a\u0438\u0442\u0430\u0439\u0441\u043a\u0430\u044f \u0420\u0435\u0441\u043f\u0443\u0431\u043b\u0438\u043a\u0430","kind_detail":"2","alt_name:ja":"\u4e2d\u83ef\u6c11\u56fd","alt_name:gv":"Pobblaght ny Sheen","alt_name:jv":"R\u00e9publik Cina","alt_name:bn":"\u09aa\u09cd\u09b0\u099c\u09be\u09a4\u09a8\u09cd\u09a4\u09cd\u09b0\u09c0 \u099a\u09c0\u09a8","name:so":"Taywan","alt_name:be":"\u0420\u044d\u0441\u043f\u0443\u0431\u043b\u0456\u043a\u0430 \u041a\u0456\u0442\u0430\u0439","name:sl":"Tajvan","name:sk":"Taiwan","name:ja":"\u53f0\u6e7e","name:se":"Taiwan","alt_name:bo":"\u0f50\u0f60\u0f7a\u0f0b\u0f5d\u0f53\u0f0d","name:br":"Taiwan","name:bs":"Tajvan","name:bm":"Tayiwani","name:bn":"\u09a4\u09be\u0987\u0993\u09af\u09bc\u09be\u09a8","alt_name:br":"Republik Sina","name:sv":"Taiwan","name:bg":"\u0422\u0430\u0439\u0432\u0430\u043d","name:ss":"IThayiwani","osm_relation":true,"alt_name:ko":"\ub300\ub9cc","alt_name:kn":"\u0c9a\u0cc0\u0ca8\u0cbf \u0c97\u0ca3\u0cb0\u0cbe\u0c9c\u0ccd\u0caf","alt_name:sr":"\u0420\u0435\u043f\u0443\u0431\u043b\u0438\u043a\u0430 \u041a\u0438\u043d\u0430","alt_name:sq":"Republika e Kin\u00ebs","alt_name:ka":"\u10e2\u10d0\u10d8\u10d5\u10d0\u10dc\u10d8","alt_name:sa":"\u0924\u0948\u0935\u093e\u0928","alt_name:sm":"Saina Taipei","alt_name:zh-min-nan":"Tiong-ho\u00e2 B\u00een-kok","alt_name:os":"\u041a\u0438\u0442\u0430\u0439\u044b \u0420\u0435\u0441\u043f\u0443\u0431\u043b\u0438\u043a\u00e6","alt_name:or":"\u0b24\u0b3e\u0b07\u0b71\u0b3e\u0b28","alt_name:pl":"Republika Chi\u0144ska","name:da":"Taiwan","alt_name:pa":"\u0a1a\u0a40\u0a28 \u0a17\u0a23\u0a30\u0a3e\u0a1c","alt_name:oc":"Republica de China (Taiwan)","min_zoom":8.0,"name:ro":"Taiwan","name:be":"\u0422\u0430\u0439\u0432\u0430\u043d\u044c","alt_name:pt":"Rep\u00fablica da China","alt_name:ps":"\u062f \u0686\u064a\u0646 \u062c\u0645\u0647\u0648\u0631\u064a\u062a","alt_name:gu":"\u0a9a\u0ac0\u0aa8\u0ac0 \u0a97\u0aa3\u0aa4\u0a82\u0aa4\u0acd\u0ab0","alt_name:he":"\u05d8\u05d0\u05d9\u05d5\u05d5\u05d0\u05df","sort_rank":262,"name:wo":"Taaywaan","alt_name:hi":"\u091a\u0940\u0928\u0940 \u0917\u0923\u0930\u093e\u091c\u094d\u092f","alt_name:hu":"K\u00ednai K\u00f6zt\u00e1rsas\u00e1g","alt_name:hr":"Republika Kina","alt_name:hy":"\u0549\u056b\u0576\u0561\u057d\u057f\u0561\u0576\u056b \u0540\u0561\u0576\u0580\u0561\u057a\u0565\u057f\u0578\u0582\u0569\u0575\u0578\u0582\u0576","alt_name:sw":"Jamhuri ya China","alt_name:ar":"\u062c\u0645\u0647\u0648\u0631\u064a\u0629 \u0627\u0644\u0635\u064a\u0646","alt_name:yi":"\u05e8\u05e2\u05e4\u05d5\u05d1\u05dc\u05d9\u05e7 \u05e4\u05d5\u05df \u05db\u05d9\u05e0\u05e2","name:hu":"Tajvan","alt_name:qu":"Chunwa Republika","alt_name:yo":"Or\u00edl\u1eb9\u0300-\u00e8d\u00e8 Ol\u00f3m\u00ecnira il\u1eb9\u0300 \u1e62\u00e1\u00edn\u00e0","alt_name:ia":"Republica de China","kind":"country","alt_name:id":"Republik Cina","alt_name:io":"Republiko di Chinia","alt_name:is":"L\u00fd\u00f0veldi\u00f0 K\u00edna","name:am":"\u1273\u12ed\u12cb\u1295","alt_name:el":"\u0394\u03b7\u03bc\u03bf\u03ba\u03c1\u03b1\u03c4\u03af\u03b1 \u03c4\u03b7\u03c2 \u039a\u03af\u03bd\u03b1\u03c2","alt_name:eo":"Respubliko \u0108inujo","alt_name:en":"Republic of China","alt_name:ms":"Republik China di Taiwan","alt_name:mr":"\u091a\u0940\u0928\u091a\u0947 \u092a\u094d\u0930\u091c\u093e\u0938\u0924\u094d\u0924\u093e\u0915","alt_name:my":"\u1010\u101b\u102f\u1010\u103a\u101e\u1019\u1039\u1019\u1010\u1014\u102d\u102f\u1004\u103a\u1004\u1036","official_name":"\u4e2d\u83ef\u6c11\u570b","name:mg":"Taiwan","alt_name:et":"Hiina Vabariik","alt_name:ml":"\u0d24\u0d3e\u0d2f\u0d4d\u200c\u0d35\u0d3e\u0d7b","alt_name:mn":"\u0411\u04af\u0433\u0434 \u041d\u0430\u0439\u0440\u0430\u043c\u0434\u0430\u0445 \u0425\u044f\u0442\u0430\u0434 \u0423\u043b\u0441","name:mi":"Taiwana","id":-449220,"alt_name:es":"Rep\u00fablica de China","name:vo":"Tayv\u00e4n","name:ff":"Taywaan","name:fi":"Taiwan","name:uz":"Tayvan","name:fo":"Teivan","alt_name:vi":"Trung Hoa D\u00e2n Qu\u1ed1c","name:fr":"Ta\u00efwan","alt_name:mk":"\u0420\u0435\u043f\u0443\u0431\u043b\u0438\u043a\u0430 \u041a\u0438\u043d\u0430","name:fy":"Taiwan","alt_name:af":"Republiek van Sjina","alt_name:zh-yue":"\u4e2d\u83ef\u6c11\u570b","alt_name:fi":"Kiinan tasavalta","name:nl":"Taiwan","alt_name:fa":"\u062a\u0627\u06cc\u0648\u0627\u0646","alt_name:na":"Republik Tsiene","alt_name:am":"\u12e8\u127b\u12ed\u1293 \u122a\u1350\u1265\u120a\u12ad","alt_name:az":"\u00c7in Respublikas\u0131","alt_name:fr":"R\u00e9publique de Chine (Ta\u00efwan)","alt_name:nl":"Republiek China","alt_name:nn":"Republikken Kina","alt_name:no":"Republikken Kina","name:ga":"An T\u00e9av\u00e1in","name:gd":"Tai-Bh\u00e0n","name:gl":"Taiw\u00e1n","maritime_boundary":true,"alt_name:sh":"Republika Kina"},"arcs":[[5],[6],[7],[8],[9]]},{"type":"LineString","properties":{"alt_name:ca":"Rep\u00fablica de la Xina","name:ko":"\ud0c0\uc774\uc644","name:cv":"\u0422\u0430\u0439\u0432\u0430\u043d\u044c","name:kk":"\u0422\u0430\u0439\u0432\u0430\u043d\u044c","name:tk":"Ta\u00fdwan","name:ku":"Taywan","alt_name:cs":"\u010c\u00ednsk\u00e1 republika","name:tg":"\u0422\u0430\u0439\u0432\u0430\u043d","name:ca":"Taiwan","alt_name:tr":"\u00c7in Cumhuriyeti","alt_name:li":"Republiek China","name:cy":"Taiwan","alt_name:tt":"\u041a\u044b\u0442\u0430\u0439 \u0496\u04e9\u043c\u04bb\u04af\u0440\u0438\u044f\u0442\u0435","name:hr":"Tajvan","alt_name:la":"Res publica Sinarum","name:de":"Taiwan","source":"openstreetmap.org","alt_name:ta":"\u0b9a\u0bc0\u0ba9\u0b95\u0bcd \u0b95\u0bc1\u0b9f\u0bbf\u0baf\u0bb0\u0b9a\u0bc1","alt_name:te":"\u0c24\u0c48\u0c35\u0c3e\u0c28\u0c4d","alt_name:th":"\u0e2a\u0e32\u0e18\u0e32\u0e23\u0e13\u0e23\u0e31\u0e10\u0e08\u0e35\u0e19","alt_name:lv":"\u0136\u012bnas Republika","alt_name:tl":"Republika ng Tsina","name:lt":"Taivanas","alt_name:de":"Republik China","name:cs":"Tchaj-wan","name:lb":"Taiwan","alt_name:dv":"\u0796\u07aa\u0789\u07b0\u0780\u07ab\u0783\u07a9 \u0797\u07a6\u0787\u07a8\u0782\u07a7","alt_name:dz":"\u0f4f\u0f60\u0f72\u0f0b\u0f5d\u0f71\u0f53\u0f0b","alt_name:gd":"Poblachd na S\u00ecne","name:ln":"Taiwan","name:eo":"Tajvano","name:en":"Taiwan","name":"\u81fa\u7063","name:ee":"Taiwan","alt_name:ur":"\u062c\u0645\u06c1\u0648\u0631\u06cc\u06c2 \u0686\u06cc\u0646","alt_name:uk":"\u0420\u0435\u0441\u043f\u0443\u0431\u043b\u0456\u043a\u0430 \u041a\u0438\u0442\u0430\u0439","name:eu":"Taiwan","name:et":"Taiwan","alt_name:ug":"\u062a\u06d5\u064a\u06cb\u06d5\u0646","name:es":"Taiw\u00e1n","name:ia":"Taiwan","name:az":"tayvan","name:id":"Taiwan","name:ar":"\u062a\u0627\u064a\u0648\u0627\u0646","name:io":"Taiwan","name:ak":"Taiwan","alt_name:bg":"\u0420\u0435\u043f\u0443\u0431\u043b\u0438\u043a\u0430 \u041a\u0438\u0442\u0430\u0439","alt_name:zh":"\u4e2d\u83ef\u6c11\u570b","name:it":"Taiwan","alt_name:an":"Republica de China","name:ru":"\u0422\u0430\u0439\u0432\u0430\u043d\u044c","name:rw":"Tayiwani","alt_name:za":"Cunghvaz Minzgoz","name:af":"Taiwan","alt_name:ru":"\u041a\u0438\u0442\u0430\u0439\u0441\u043a\u0430\u044f \u0420\u0435\u0441\u043f\u0443\u0431\u043b\u0438\u043a\u0430","kind_detail":"2","alt_name:ja":"\u4e2d\u83ef\u6c11\u56fd","alt_name:gv":"Pobblaght ny Sheen","alt_name:jv":"R\u00e9publik Cina","alt_name:bn":"\u09aa\u09cd\u09b0\u099c\u09be\u09a4\u09a8\u09cd\u09a4\u09cd\u09b0\u09c0 \u099a\u09c0\u09a8","name:so":"Taywan","alt_name:be":"\u0420\u044d\u0441\u043f\u0443\u0431\u043b\u0456\u043a\u0430 \u041a\u0456\u0442\u0430\u0439","name:sl":"Tajvan","name:sk":"Taiwan","name:ja":"\u53f0\u6e7e","name:se":"Taiwan","alt_name:bo":"\u0f50\u0f60\u0f7a\u0f0b\u0f5d\u0f53\u0f0d","name:br":"Taiwan","name:bs":"Tajvan","name:bm":"Tayiwani","name:bn":"\u09a4\u09be\u0987\u0993\u09af\u09bc\u09be\u09a8","alt_name:br":"Republik Sina","name:sv":"Taiwan","name:bg":"\u0422\u0430\u0439\u0432\u0430\u043d","name:ss":"IThayiwani","osm_relation":true,"alt_name:ko":"\ub300\ub9cc","alt_name:kn":"\u0c9a\u0cc0\u0ca8\u0cbf \u0c97\u0ca3\u0cb0\u0cbe\u0c9c\u0ccd\u0caf","alt_name:sr":"\u0420\u0435\u043f\u0443\u0431\u043b\u0438\u043a\u0430 \u041a\u0438\u043d\u0430","alt_name:sq":"Republika e Kin\u00ebs","alt_name:ka":"\u10e2\u10d0\u10d8\u10d5\u10d0\u10dc\u10d8","alt_name:sa":"\u0924\u0948\u0935\u093e\u0928","alt_name:sm":"Saina Taipei","alt_name:zh-min-nan":"Tiong-ho\u00e2 B\u00een-kok","alt_name:os":"\u041a\u0438\u0442\u0430\u0439\u044b \u0420\u0435\u0441\u043f\u0443\u0431\u043b\u0438\u043a\u00e6","alt_name:or":"\u0b24\u0b3e\u0b07\u0b71\u0b3e\u0b28","alt_name:pl":"Republika Chi\u0144ska","name:da":"Taiwan","alt_name:pa":"\u0a1a\u0a40\u0a28 \u0a17\u0a23\u0a30\u0a3e\u0a1c","alt_name:oc":"Republica de China (Taiwan)","min_zoom":8.0,"name:ro":"Taiwan","name:be":"\u0422\u0430\u0439\u0432\u0430\u043d\u044c","alt_name:pt":"Rep\u00fablica da China","alt_name:ps":"\u062f \u0686\u064a\u0646 \u062c\u0645\u0647\u0648\u0631\u064a\u062a","alt_name:gu":"\u0a9a\u0ac0\u0aa8\u0ac0 \u0a97\u0aa3\u0aa4\u0a82\u0aa4\u0acd\u0ab0","alt_name:he":"\u05d8\u05d0\u05d9\u05d5\u05d5\u05d0\u05df","sort_rank":262,"name:wo":"Taaywaan","alt_name:hi":"\u091a\u0940\u0928\u0940 \u0917\u0923\u0930\u093e\u091c\u094d\u092f","alt_name:hu":"K\u00ednai K\u00f6zt\u00e1rsas\u00e1g","alt_name:hr":"Republika Kina","alt_name:hy":"\u0549\u056b\u0576\u0561\u057d\u057f\u0561\u0576\u056b \u0540\u0561\u0576\u0580\u0561\u057a\u0565\u057f\u0578\u0582\u0569\u0575\u0578\u0582\u0576","alt_name:sw":"Jamhuri ya China","alt_name:ar":"\u062c\u0645\u0647\u0648\u0631\u064a\u0629 \u0627\u0644\u0635\u064a\u0646","alt_name:yi":"\u05e8\u05e2\u05e4\u05d5\u05d1\u05dc\u05d9\u05e7 \u05e4\u05d5\u05df \u05db\u05d9\u05e0\u05e2","name:hu":"Tajvan","alt_name:qu":"Chunwa Republika","alt_name:yo":"Or\u00edl\u1eb9\u0300-\u00e8d\u00e8 Ol\u00f3m\u00ecnira il\u1eb9\u0300 \u1e62\u00e1\u00edn\u00e0","alt_name:ia":"Republica de China","kind":"country","alt_name:id":"Republik Cina","alt_name:io":"Republiko di Chinia","alt_name:is":"L\u00fd\u00f0veldi\u00f0 K\u00edna","name:am":"\u1273\u12ed\u12cb\u1295","alt_name:el":"\u0394\u03b7\u03bc\u03bf\u03ba\u03c1\u03b1\u03c4\u03af\u03b1 \u03c4\u03b7\u03c2 \u039a\u03af\u03bd\u03b1\u03c2","alt_name:eo":"Respubliko \u0108inujo","alt_name:en":"Republic of China","alt_name:ms":"Republik China di Taiwan","alt_name:mr":"\u091a\u0940\u0928\u091a\u0947 \u092a\u094d\u0930\u091c\u093e\u0938\u0924\u094d\u0924\u093e\u0915","alt_name:my":"\u1010\u101b\u102f\u1010\u103a\u101e\u1019\u1039\u1019\u1010\u1014\u102d\u102f\u1004\u103a\u1004\u1036","official_name":"\u4e2d\u83ef\u6c11\u570b","name:mg":"Taiwan","alt_name:et":"Hiina Vabariik","alt_name:ml":"\u0d24\u0d3e\u0d2f\u0d4d\u200c\u0d35\u0d3e\u0d7b","alt_name:mn":"\u0411\u04af\u0433\u0434 \u041d\u0430\u0439\u0440\u0430\u043c\u0434\u0430\u0445 \u0425\u044f\u0442\u0430\u0434 \u0423\u043b\u0441","name:mi":"Taiwana","id":-449220,"alt_name:es":"Rep\u00fablica de China","name:vo":"Tayv\u00e4n","name:ff":"Taywaan","name:fi":"Taiwan","name:uz":"Tayvan","name:fo":"Teivan","alt_name:vi":"Trung Hoa D\u00e2n Qu\u1ed1c","name:fr":"Ta\u00efwan","alt_name:mk":"\u0420\u0435\u043f\u0443\u0431\u043b\u0438\u043a\u0430 \u041a\u0438\u043d\u0430","name:fy":"Taiwan","alt_name:af":"Republiek van Sjina","alt_name:zh-yue":"\u4e2d\u83ef\u6c11\u570b","alt_name:fi":"Kiinan tasavalta","name:nl":"Taiwan","alt_name:fa":"\u062a\u0627\u06cc\u0648\u0627\u0646","alt_name:na":"Republik Tsiene","alt_name:am":"\u12e8\u127b\u12ed\u1293 \u122a\u1350\u1265\u120a\u12ad","alt_name:az":"\u00c7in Respublikas\u0131","alt_name:fr":"R\u00e9publique de Chine (Ta\u00efwan)","alt_name:nl":"Republiek China","alt_name:nn":"Republikken Kina","alt_name:no":"Republikken Kina","name:ga":"An T\u00e9av\u00e1in","name:gd":"Tai-Bh\u00e0n","name:gl":"Taiw\u00e1n","maritime_boundary":true,"alt_name:sh":"Republika Kina"},"arcs":[10]},{"type":"LineString","properties":{"name:kg":"Sina","name:ty":"Tinit\u014d","name:ka":"\u10e9\u10d8\u10dc\u10d4\u10d7\u10d8","name:ko":"\uc911\ud654\uc778\ubbfc\uacf5\ud654\uad6d","name:cv":"\u041a\u0438\u0442\u0430\u0439 \u0425\u0430\u043b\u0103\u0445 \u0420\u0435\u0441\u043f\u0443\u0431\u043b\u0438\u043a\u0438","name:cu":"\u0421\u0440\u0463\u0434\u0438\u043d\ua657\u043d\u0454","name:kl":"Kina","name:cs":"\u010c\u00ednsk\u00e1 lidov\u00e1 republika","name:ki":"China","name:kw":"Repoblek Werin China","name:kv":"\u041a\u0438\u0442\u0430\u0439","name:ku":"\u00c7\u00een","name:ks":"\u0686\u06cc\u0656\u0646","name:tl":"Republikang Popular ng Tsina","name:ce":"\u041a\u0438\u0442\u0430\u0439\u043d \u0425\u0430\u043b\u043a\u044a\u0430\u043d \u0420\u0435\u0441\u043f\u0443\u0431\u043b\u0438\u043a\u0430","name:ta":"\u0b9a\u0bc0\u0ba9 \u0bae\u0b95\u0bcd\u0b95\u0bb3\u0bcd \u0b95\u0bc1\u0b9f\u0bbf\u0baf\u0bb0\u0b9a\u0bc1","name:tg":"\u04b6\u0443\u043c\u04b3\u0443\u0440\u0438\u0438 \u0425\u0430\u043b\u049b\u0438\u0438 \u0427\u0438\u043d","name:ky":"\u041a\u044b\u0442\u0430\u0439","name:te":"\u0c1a\u0c48\u0c28\u0c3e","name:cy":"Gweriniaeth Pobl Tsieina","name:hr":"Kina","name:de":"China","source":"openstreetmap.org","name:kn":"\u0c9a\u0cc0\u0ca8\u0cbf \u0c9c\u0ca8\u0cb0 \u0c97\u0ca3\u0cb0\u0cbe\u0c9c\u0ccd\u0caf","name:dv":"\u0790\u07a9\u0782\u07aa\u0786\u07a6\u0783\u07a6","name:lv":"\u0136\u012bna","name:lt":"Kinijos Liaudies Respublika","name:uz":"Xitoy Xalq Respublikasi","name:kk":"\u049a\u044b\u0442\u0430\u0439 \u0425\u0430\u043b\u044b\u049b \u0420\u0435\u0441\u043f\u0443\u0431\u043b\u0438\u043a\u0430\u0441\u044b","name:ur":"\u0686\u06cc\u0646","name:lb":"Volleksrepublik China","name:tt":"\u041a\u044b\u0442\u0430\u0439","name:uk":"\u041a\u0438\u0442\u0430\u0439\u0441\u044c\u043a\u0430 \u041d\u0430\u0440\u043e\u0434\u043d\u0430 \u0420\u0435\u0441\u043f\u0443\u0431\u043b\u0456\u043a\u0430","name:ug":"\u062c\u06c7\u06ad\u062e\u06c7\u0627 \u062e\u06d5\u0644\u0642 \u062c\u06c7\u0645\u06be\u06c7\u0631\u0649\u064a\u0649\u062a\u0649","name:ln":"S\u00edna","name:lo":"\u0e9b\u0eb0\u0ec0\u0e97\u0e94\u0e88\u0eb5\u0e99","name:el":"\u039b\u03b1\u03ca\u03ba\u03ae \u0394\u03b7\u03bc\u03bf\u03ba\u03c1\u03b1\u03c4\u03af\u03b1 \u03c4\u03b7\u03c2 \u039a\u03af\u03bd\u03b1\u03c2","name:eo":"\u0108inujo","name:en":"China","name":"\u4e2d\u56fd","name:tk":"Hyta\u00fd Halk Respublikasy","name:ee":"China","name:th":"\u0e1b\u0e23\u0e30\u0e40\u0e17\u0e28\u0e08\u0e35\u0e19","name:eu":"Txinako Herri Errepublika","name:et":"Hiina","name:es":"Rep\u00fablica Popular China","name:ia":"China","name:ro":"Republica Popular\u0103 Chinez\u0103","name:ie":"China","name:id":"Republik Rakyat Cina","name:zh-min-nan":"Tiong-ho\u00e2 J\u00een-b\u00een Ki\u014dng-h\u00f4-kok","name:io":"Chinia","name:is":"Al\u00fe\u00fd\u00f0ul\u00fd\u00f0veldi\u00f0 K\u00edna","name:am":"\u12e8\u127b\u12ed\u1293 \u1215\u12dd\u1263\u12ca \u122a\u1350\u1265\u120a\u12ad","name:it":"Cina","name:ru":"\u041a\u0438\u0442\u0430\u0439\u0441\u043a\u0430\u044f \u041d\u0430\u0440\u043e\u0434\u043d\u0430\u044f \u0420\u0435\u0441\u043f\u0443\u0431\u043b\u0438\u043a\u0430","name:ab":"\u0410\u0447\u044b\u043d\u04ad\u0430\u0442\u04d9\u0438 \u0410\u0436\u04d9\u043b\u0430\u0440\u0442\u04d9 \u0420\u0435\u0441\u043f\u0443\u0431\u043b\u0438\u043a\u0430","alt_name:ru":"\u041a\u0438\u0442\u0430\u0439","kind_detail":"2","name:zh":"Zh\u014dnggu\u00f3","name:so":"Shiinaha","name:sn":"China","name:sm":"Saina","name:sk":"\u010c\u00ednska \u013eudov\u00e1 republika","name:si":"\u0da0\u0dd3\u0db1\u0dba","name:sg":"S\u00een\u00e4","name:se":"Kiinn\u00e1","name:sc":"Cina","name:bm":"China","name:bn":"\u0997\u09a3\u099a\u09c0\u09a8","name:bo":"\u0f40\u0fb2\u0f74\u0f44\u0f0b\u0f67\u0fad\u0f0b\u0f58\u0f72\u0f0b\u0f51\u0f58\u0f44\u0f66\u0f0b\u0f66\u0fa4\u0fb1\u0f72\u0f0b\u0f58\u0f50\u0f74\u0f53\u0f0b\u0f62\u0f92\u0fb1\u0f63\u0f0b\u0f41\u0f56\u0f0d","name:bi":"China","name:sw":"Jamhuri ya Watu wa China","name:be":"\u041a\u0456\u0442\u0430\u0439","name:st":"Tjhaena","name:ss":"IShayina","name:sr":"\u041a\u0438\u043d\u0430","name:sq":"Kina","name:pt":"Rep\u00fablica Popular da China","name:ps":"\u0686\u064a\u0646 \u062f \u062e\u0644\u06a9\u0648 \u062c\u0645\u0647\u0648\u0631\u064a\u062a","min_zoom":8.0,"int_name":"People's Republic of China","name:pa":"\u0a1a\u0a40\u0a28 \u0a26\u0a3e \u0a32\u0a4b\u0a15 \u0a30\u0a3e\u0a1c\u0a40 \u0a17\u0a23\u0a24\u0a70\u0a24\u0a30","name:os":"\u041a\u0438\u0442\u0430\u0439","name:or":"\u0b1a\u0b40\u0b28","name:pl":"Chiny","sort_rank":262,"name:ba":"\u04a0\u044b\u0442\u0430\u0439","osm_relation":true,"name:ar":"\u0627\u0644\u0635\u064a\u0646","name:tr":"\u00c7in Halk Cumhuriyeti","name:hi":"\u091a\u0940\u0928\u0940 \u091c\u0928\u0935\u093e\u0926\u0940 \u0917\u0923\u0930\u093e\u091c\u094d\u092f","name:he":"\u05d4\u05e8\u05e4\u05d5\u05d1\u05dc\u05d9\u05e7\u05d4 \u05d4\u05e2\u05de\u05de\u05d9\u05ea \u05e9\u05dc \u05e1\u05d9\u05df","name:ha":"Sin","old_name:eo":"\u0124inujo","name:hy":"\u0549\u056b\u0576\u0561\u057d\u057f\u0561\u0576\u056b \u053a\u0578\u0572\u0578\u057e\u0580\u0564\u0561\u056f\u0561\u0576 \u0540\u0561\u0576\u0580\u0561\u057a\u0565\u057f\u0578\u0582\u0569\u0575\u0578\u0582\u0576","name:hu":"K\u00ednai N\u00e9pk\u00f6zt\u00e1rsas\u00e1g","name:qu":"Chunwa Runallaqta Republika","kind":"country","name:ts":"China","name:yi":"\u05db\u05d9\u05e0\u05e2","name:iu":"China","name:mt":"\u010aina","alt_name:eo":"\u0108inio","name:mr":"\u091a\u0940\u0928","name:my":"\u1010\u101b\u102f\u1010\u103a\u1015\u103c\u100a\u103a\u101e\u1030\u1037\u101e\u1019\u1039\u1019\u1010\u1014\u102d\u102f\u1004\u103a\u1004\u1036","official_name":"\u4e2d\u534e\u4eba\u6c11\u5171\u548c\u56fd","name:vi":"C\u1ed9ng h\u00f2a Nh\u00e2n d\u00e2n Trung Hoa","name:ml":"\u0d1a\u0d48\u0d28","name:mn":"\u0411\u04af\u0433\u0434 \u041d\u0430\u0439\u0440\u0430\u043c\u0434\u0430\u0445 \u0425\u044f\u0442\u0430\u0434 \u0410\u0440\u0434 \u0423\u043b\u0441","name:mi":"Haina","id":-270056,"name:mk":"\u041d\u0430\u0440\u043e\u0434\u043d\u0430 \u0420\u0435\u043f\u0443\u0431\u043b\u0438\u043a\u0430 \u041a\u0438\u043d\u0430","name:vo":"Tsyin\u00e4n","name:fa":"\u062c\u0645\u0647\u0648\u0631\u06cc \u062e\u0644\u0642 \u0686\u06cc\u0646","name:rw":"Ubushinwa","name:fi":"Kiina","name:fo":"F\u00f3lkal\u00fd\u00f0veldi\u00f0 Kina","name:fr":"R\u00e9publique populaire de Chine","name:fy":"Sina","name:zu":"IShayina","name:na":"Tsiene","name:ne":"\u091c\u0928\u092c\u093e\u0926\u0940 \u0917\u0923\u0924\u0928\u094d\u0924\u094d\u0930 \u091a\u0940\u0928","name:wo":"R\u00e9ewum Popileer bu Siin","name:ga":"Daon-Phoblacht na S\u00edne","name:gd":"Sluagh-Phoblachd na S\u00ecne","name:gn":"China Tekoha Tet\u00e3","maritime_boundary":true,"name:gv":"Deynphobblaght ny Sheen","name:gu":"\u0a9a\u0ac0\u0aa8"},"arcs":[11]},{"type":"LineString","properties":{"name:pt":"Fuqui\u00e9m","int_name":"Fujian","kind":"region","min_zoom":8.0,"name:vi":"Ph\u00fac Ki\u1ebfn","name:ru":"\u0424\u0443\u0446\u0437\u044f\u043d\u044c","name:de":"Fujian","name:zh_PY":"F\u00faji\u00e0n Sh\u011bng","osm_relation":true,"name:eo":"Fu\u011djano","name:en":"Fujian","name":"\u798f\u5efa\u7701","sort_rank":256,"kind_detail":"4","name:fr":"Fujian","id":-553303,"source":"openstreetmap.org","maritime_boundary":true,"name:zh":"Fujian Sheng"},"arcs":[12]}]},"roads":{"type":"GeometryCollection","geometries":[{"type":"LineString","properties":{"source":"openstreetmap.org","kind":"major_road","name:en":"Huandao S. Road Sec. 3","sort_rank":380,"kind_detail":"primary","min_zoom":8.0,"id":327356118},"arcs":[29]},{"type":"MultiLineString","properties":{"sort_rank":380,"kind_detail":"primary","min_zoom":8.0,"kind":"major_road","source":"openstreetmap.org"},"arcs":[[30],[31],[32],[33],[34],[35],[36],[37],[38],[39],[40],[41],[42],[43],[44],[45],[46],[47],[48],[49],[50],[51],[52],[53],[54],[55],[56]]},{"type":"LineString","properties":{"source":"openstreetmap.org","kind":"ferry","name":"\uf90a\u9580\uff0d\u5ec8\u9580\u4e94\u901a","sort_rank":355,"min_zoom":8.0,"id":398862603},"arcs":[57]},{"type":"MultiLineString","properties":{"sort_rank":355,"landuse_kind":"national_park","min_zoom":8.0,"kind":"ferry","source":"openstreetmap.org"},"arcs":[[58],[59],[60]]},{"type":"LineString","properties":{"kind":"major_road","name:en":"Qianpu Road","sort_rank":380,"kind_detail":"primary","bus_network":null,"source":"openstreetmap.org","min_zoom":8.0,"bus_shield_text":"47","landuse_kind":"urban_area","name:zh":"Qi\u00e1np\u016d L\u00f9","id":279720875},"arcs":[61]},{"type":"LineString","properties":{"kind":"major_road","name:en":"L\u00fcling Road","sort_rank":380,"kind_detail":"primary","bus_network":null,"source":"openstreetmap.org","min_zoom":8.0,"bus_shield_text":"18","landuse_kind":"urban_area","name:zh":"L\u01dal\u012dng L\u00f9","id":420182343},"arcs":[62]},{"type":"MultiLineString","properties":{"sort_rank":381,"source":"openstreetmap.org","min_zoom":8.0,"kind":"major_road","kind_detail":"trunk"},"arcs":[[63],[64]]},{"type":"LineString","properties":{"kind":"major_road","sort_rank":380,"kind_detail":"primary","bus_network":null,"source":"openstreetmap.org","min_zoom":8.0,"bus_shield_text":"19a","landuse_kind":"urban_area","name:zh":"\u83b2\u524d\u897f\u8def","id":406442268},"arcs":[65]},{"type":"LineString","properties":{"kind":"major_road","sort_rank":380,"kind_detail":"primary","bus_network":null,"source":"openstreetmap.org","min_zoom":8.0,"bus_shield_text":"19a","landuse_kind":"urban_area","name:zh":"\u83b2\u524d\u4e1c\u8def","id":253441185},"arcs":[66]},{"type":"MultiLineString","properties":{"bus_network":null,"name:en":"L\u00fcling Road","sort_rank":380,"kind_detail":"primary","kind":"major_road","source":"openstreetmap.org","min_zoom":8.0,"bus_shield_text":"36","landuse_kind":"urban_area","name:zh":"L\u01dal\u012dng L\u00f9"},"arcs":[[67],[68]]},{"type":"LineString","properties":{"source":"openstreetmap.org","kind":"ferry","name":"\u6c34\u982d\uff0d\u4e5d\u5bae","sort_rank":355,"is_bicycle_related":true,"min_zoom":8.0,"id":435002819},"arcs":[69]},{"type":"LineString","properties":{"sort_rank":355,"source":"openstreetmap.org","min_zoom":8.0,"kind":"ferry","name":"Cosco Star"},"arcs":[70]},{"type":"MultiLineString","properties":{"source":"openstreetmap.org","kind":"major_road","landuse_kind":"urban_area","sort_rank":380,"kind_detail":"primary","min_zoom":8.0},"arcs":[[71],[72],[73],[74],[75],[76],[77],[78],[79],[80],[81],[82],[83],[84],[85],[86],[87],[88],[89]]},{"type":"LineString","properties":{"kind":"major_road","sort_rank":381,"kind_detail":"trunk","bus_network":null,"source":"openstreetmap.org","min_zoom":8.0,"bus_shield_text":"780","landuse_kind":"urban_area","name:zh":"\u4ed9\u5cb3\u8def","id":177694926},"arcs":[90]},{"type":"LineString","properties":{"kind":"major_road","name:en":"Lianqian West Road","sort_rank":380,"kind_detail":"primary","bus_network":null,"source":"openstreetmap.org","min_zoom":8.0,"bus_shield_text":"28","landuse_kind":"urban_area","name:zh":"Li\u00e1nqi\u00e1n X\u012bl\u00f9","id":253441189},"arcs":[91]},{"type":"LineString","properties":{"kind":"major_road","sort_rank":380,"kind_detail":"primary","bus_network":null,"source":"openstreetmap.org","min_zoom":8.0,"bus_shield_text":"19a","name:zh":"\u83b2\u524d\u4e1c\u8def","id":253441185},"arcs":[92]},{"type":"LineString","properties":{"bus_network":null,"name:en":"Yunding South Road","sort_rank":380,"kind_detail":"primary","kind":"major_road","source":"openstreetmap.org","min_zoom":8.0,"bus_shield_text":"47","landuse_kind":"urban_area","name:zh":"Y\u00fand\u01d0ng N\u00e1nl\u00f9"},"arcs":[93]},{"type":"LineString","properties":{"kind":"major_road","name:en":"Yunding South Road","sort_rank":380,"kind_detail":"primary","source":"openstreetmap.org","min_zoom":8.0,"landuse_kind":"urban_area","name:zh":"Y\u00fand\u01d0ng N\u00e1nl\u00f9","id":128671324},"arcs":[94]},{"type":"LineString","properties":{"kind":"major_road","name:en":"Lianqian East Road","sort_rank":380,"kind_detail":"primary","source":"openstreetmap.org","min_zoom":8.0,"name:zh":"Li\u00e1nqi\u00e1n D\u014dngl\u00f9","id":106280938},"arcs":[95]},{"type":"LineString","properties":{"kind":"major_road","name:en":"Lianqian East Road","sort_rank":380,"kind_detail":"primary","bus_network":null,"source":"openstreetmap.org","min_zoom":8.0,"bus_shield_text":"28","landuse_kind":"urban_area","name:zh":"Li\u00e1nqi\u00e1n D\u014dngl\u00f9","id":406438540},"arcs":[96]},{"type":"MultiLineString","properties":{"bus_network":null,"name:en":"L\u00fcling Road","sort_rank":380,"kind_detail":"primary","kind":"major_road","source":"openstreetmap.org","min_zoom":8.0,"bus_shield_text":"36","landuse_kind":"urban_area","name:zh":"\u5415\u5cad\u8def"},"arcs":[[97],[98]]},{"type":"LineString","properties":{"source":"openstreetmap.org","kind":"ferry","name":"Cosco Star","sort_rank":355,"name:zh":"\u4e2d\u9060\u4e4b\u661f","min_zoom":8.0},"arcs":[99]},{"type":"MultiLineString","properties":{"sort_rank":355,"landuse_kind":"nature_reserve","min_zoom":8.0,"kind":"ferry","source":"openstreetmap.org"},"arcs":[[100],[101],[102],[103]]},{"type":"LineString","properties":{"kind":"major_road","sort_rank":380,"kind_detail":"primary","bus_network":null,"source":"openstreetmap.org","min_zoom":8.0,"bus_shield_text":"28","landuse_kind":"urban_area","id":407894284},"arcs":[104]},{"type":"LineString","properties":{"kind":"major_road","sort_rank":380,"landuse_kind":"urban_area","source":"openstreetmap.org","min_zoom":8.0,"kind_detail":"primary","name:zh":"\u4e91\u9876\u5357\u8def","id":128840187},"arcs":[105]},{"type":"MultiLineString","properties":{"kind":"major_road","name:en":"Xianyue Rd","sort_rank":381,"landuse_kind":"urban_area","source":"openstreetmap.org","min_zoom":8.0,"kind_detail":"trunk","name:zh":"Xi\u0101nyu\u00e8 L\u00f9"},"arcs":[[106],[107]]},{"type":"LineString","properties":{"kind":"major_road","sort_rank":380,"kind_detail":"primary","bus_network":null,"source":"openstreetmap.org","min_zoom":8.0,"bus_shield_text":"129","landuse_kind":"urban_area","name:zh":"\u5415\u5cad\u8def","id":129281100},"arcs":[108]},{"type":"LineString","properties":{"bus_network":null,"sort_rank":380,"kind_detail":"primary","kind":"major_road","source":"openstreetmap.org","min_zoom":8.0,"bus_shield_text":"38","landuse_kind":"urban_area","name:zh":"\u5415\u5cad\u8def"},"arcs":[109]},{"type":"LineString","properties":{"kind":"major_road","sort_rank":381,"kind_detail":"trunk","bus_network":null,"source":"openstreetmap.org","min_zoom":8.0,"bus_shield_text":"24","landuse_kind":"urban_area","name:zh":"\u4ed9\u5cb3\u8def","id":177861900},"arcs":[110]},{"type":"LineString","properties":{"kind":"major_road","name:en":"Xianyue Road","sort_rank":381,"landuse_kind":"urban_area","source":"openstreetmap.org","min_zoom":8.0,"kind_detail":"trunk","name:zh":"Xi\u0101nyu\u00e8 L\u00f9"},"arcs":[111]},{"type":"LineString","properties":{"sort_rank":355,"source":"openstreetmap.org","min_zoom":8.0,"kind":"ferry"},"arcs":[112]},{"type":"MultiLineString","properties":{"source":"openstreetmap.org","kind":"major_road","kind_detail":"trunk","sort_rank":381,"landuse_kind":"urban_area","min_zoom":8.0},"arcs":[[113],[114],[115],[116],[117],[118],[119],[120],[121],[122],[123],[124],[125],[126],[127],[128]]},{"type":"LineString","properties":{"kind":"major_road","name:en":"Qianpu Road","sort_rank":380,"kind_detail":"primary","source":"openstreetmap.org","min_zoom":8.0,"landuse_kind":"urban_area","name:zh":"Qi\u00e1np\u016d L\u00f9","id":405242659},"arcs":[129]},{"type":"LineString","properties":{"kind":"major_road","name:en":"Lianqian East Road","sort_rank":380,"kind_detail":"primary","source":"openstreetmap.org","min_zoom":8.0,"landuse_kind":"urban_area","name:zh":"Li\u00e1nqi\u00e1n D\u014dngl\u00f9","id":106280938},"arcs":[130]},{"type":"LineString","properties":{"source":"openstreetmap.org","kind":"major_road","kind_detail":"trunk","sort_rank":381,"landuse_kind":"urban_area","name:zh":"\u4ed9\u5cb3\u8def","min_zoom":8.0},"arcs":[131]}]},"earth":{"type":"GeometryCollection","geometries":[{"type":"MultiPolygon","properties":{"sort_rank":10,"source":"naturalearthdata.com","min_zoom":0.0,"kind":"earth","area":20787991049},"arcs":[[[132]],[[133]],[[134]],[[135]],[[136]]]}]},"landuse":{"type":"GeometryCollection","geometries":[{"type":"Polygon","properties":{"kind":"nature_reserve","protect_class":"2","area":194322000,"sort_rank":23,"operator":"\u5167\u653f\u90e8\u71df\u5efa\u7f72\u6d77\u6d0b\u570b\u5bb6\u516c\u5712\u7ba1\u7406\u8655","source":"openstreetmap.org","min_zoom":6.0,"tier":2,"id":-7117619,"osm_relation":true},"arcs":[[137],[138],[139],[140]]},{"type":"MultiPolygon","properties":{"source":"naturalearthdata.com","kind":"urban_area","name":"","area":7324179479,"sort_rank":11,"min_zoom":4.0},"arcs":[[[141]],[[142]]]},{"type":"Polygon","properties":{"kind":"national_park","protect_class":"2","area":420956992,"sort_rank":18,"operator":"\u5167\u653f\u90e8\u71df\u5efa\u7f72\u6d77\u6d0b\u570b\u5bb6\u516c\u5712\u7ba1\u7406\u8655","source":"openstreetmap.org","min_zoom":3.0,"tier":1,"id":-3898969,"osm_relation":true},"arcs":[[143]]},{"type":"Polygon","properties":{"kind":"national_park","protect_class":"2","area":20089500,"sort_rank":18,"operator":"\u5167\u653f\u90e8\u71df\u5efa\u7f72\u91d1\u9580\u570b\u5bb6\u516c\u5712\u7ba1\u7406\u8655","source":"openstreetmap.org","min_zoom":8.0,"tier":1,"id":-7042792,"osm_relation":true},"arcs":[[144]]}]}},"type":"Topology","transform":{"translate":[118.125,23.2413461024],"scale":[0.0003433228,0.0003139133]},"arcs":[[[809,4096],[-75,-125],[-1,-48],[-87,9],[-108,51],[-72,-53],[25,-67],[-114,1]],[[653,3671],[80,102],[59,9],[13,-56],[72,-44],[102,37],[56,75]],[[958,4062],[-17,29]],[[1053,3844],[-35,38],[-48,159]],[[190,3804],[-8,-16]],[[182,3788],[73,-22],[-9,-31],[-139,-37],[-69,-95],[74,9],[45,40],[151,38],[78,45],[34,-76],[99,-62],[81,19],[53,55]],[[377,3864],[-85,5],[17,-20],[-39,-62],[-55,30],[-25,-13]],[[941,4091],[0,5]],[[970,4041],[-12,21]],[[1035,3794],[76,-39],[19,36],[-77,53]],[[4096,2557],[-406,-370],[-90,-125],[-708,-1313],[-38,-328],[67,-398],[12,-23]],[[0,1502],[768,962],[2272,1632]],[[0,1502],[768,962],[2272,1632]],[[4096,402],[0,-402],[-331,0],[-11,20],[-36,6],[-13,-13],[1,-13],[-3706,0],[0,3251],[4,0],[-4,11],[0,524],[33,-2],[51,25],[20,63],[9,48],[23,21],[27,16],[23,34],[1,28],[-20,63],[-1,14],[688,0],[-70,-14],[-26,-60],[-11,-97],[-78,-9],[-111,72],[-84,-41],[-16,-10],[2,-23],[19,-46],[8,-48],[2,-27],[-3,-22],[-7,-14],[-24,-31],[-5,-8],[13,-23],[26,-11],[30,-2],[44,-21],[37,19],[43,67],[79,50],[90,9],[56,-18],[75,-48],[43,51],[11,97],[-52,139],[-75,69],[374,0],[5,-29],[10,-3],[12,11],[11,7],[62,14],[2752,0],[0,-3121],[-12,-24],[12,-12],[0,-122],[-20,4],[-25,-12],[0,-1],[-4,-1],[-11,-5],[-4,-3],[-20,6],[-6,-5],[-1,1],[1,-1],[-2,-1],[4,-20],[10,-2],[1,0],[2,-5],[26,14],[15,5],[7,1],[4,3],[4,1],[19,13],[0,-390],[-12,8],[-18,-4],[-8,-6],[-12,-17],[-4,-15],[4,-4],[33,19],[9,0],[8,2]],[[4017,95],[-7,11],[-13,-20],[20,9]],[[3507,248],[-3,1],[-4,-2],[3,-5],[2,-2],[3,2],[-1,6]],[[3509,261],[-9,6],[4,-17],[4,0],[1,11]],[[3464,265],[-1,2],[-6,-3],[3,-5],[2,-1],[3,2],[-1,5]],[[4009,379],[-1,10],[12,13],[8,17],[-8,8],[-9,6],[-5,17],[-1,26],[-7,7],[-7,2],[-30,41],[-18,-4],[-23,-57],[7,-25],[22,6],[10,7],[2,-46],[-15,-35],[17,-8],[35,-3],[16,6],[-5,12]],[[3483,515],[-3,12],[3,6],[-15,5],[-3,0],[-8,2],[-2,-4],[-2,0],[-12,-25],[9,-6],[0,-1],[3,-5],[24,6],[6,10]],[[3878,1023],[14,11],[14,7],[17,3],[24,1],[34,5],[3,15],[-7,22],[1,25],[31,94],[19,40],[27,16],[-46,41],[-35,-34],[-36,-115],[-1,-53],[-6,-23],[-25,-9],[-28,-2],[-20,-7],[-14,-14],[-7,-23],[41,0]],[[383,3844],[-22,15],[-23,0],[-23,-6],[-15,-15],[-55,-110],[32,-13],[58,17],[14,7],[6,13],[13,13],[17,2],[16,23],[0,34],[-18,20]],[[0,3251],[4,0],[-4,11]],[[1244,4096],[5,-29],[10,-3],[12,11],[11,7],[62,14]],[[0,3786],[33,-2],[51,25],[20,63],[9,48],[23,21],[27,16],[23,34],[1,28],[-20,63],[-1,14]],[[784,4082],[-26,-60],[-11,-97],[-78,-9],[-111,72],[-84,-41],[-16,-10],[2,-23],[19,-46],[8,-48],[2,-27],[-3,-22],[-7,-14],[-24,-31],[-5,-8],[13,-23],[26,-11],[30,-2],[44,-21],[37,19],[43,67],[79,50],[90,9],[56,-18],[75,-48],[43,51],[11,97],[-52,139],[-75,69]],[[854,4096],[-70,-14]],[[4096,975],[-12,-24],[12,-12]],[[3938,1154],[-1,-53],[-6,-23],[-25,-9],[-28,-2],[-20,-7],[-14,-14],[-7,-23],[41,0],[14,11],[14,7],[17,3],[24,1],[34,5],[3,15],[-7,22],[1,25],[31,94],[19,40],[27,16],[-46,41],[-35,-34],[-36,-115]],[[703,3818],[1,0]],[[0,3303]],[[0,3303],[0,30]],[[0,3333],[0,1]],[[170,3975],[-28,-69],[0,-1]],[[142,3905],[-17,-20]],[[125,3885],[-3,-3]],[[122,3882]],[[122,3882],[-15,-18],[-9,-1]],[[102,3877],[18,13]],[[120,3890],[3,2]],[[123,3892],[19,13]],[[142,3905],[1,1],[27,69]],[[121,3883],[-1,7]],[[120,3890],[-4,32]],[[119,3926],[4,-34]],[[123,3892],[2,-7]],[[125,3885],[0,-4]],[[125,3881],[0,-1]],[[125,3880],[0,-1]],[[125,3879],[0,-1]],[[121,3873],[4,4],[0,2]],[[125,3879],[0,1]],[[125,3880],[-3,2]],[[122,3882],[-1,1]],[[127,3879],[-2,2]],[[125,3881],[-3,1]],[[122,3882],[-1,1]],[[232,4096],[243,-351]],[[3914,0],[68,175]],[[3987,187],[31,78]],[[4038,50],[-5,-4]],[[119,3930],[0,1]],[[147,3962]],[[187,4096],[-17,-21]],[[170,4073],[19,23]],[[0,3943],[66,1]],[[66,3944],[53,-18]],[[5,3992],[-5,-3]],[[69,3977],[-27,10]],[[471,3743],[-67,29]],[[4096,2681],[-186,-43],[-795,-133],[-149,20],[-486,246],[-841,314],[-791,34],[-562,259],[-286,254]],[[92,4096],[-9,-3]],[[83,4093],[-62,-18]],[[21,4074],[71,21]],[[92,4095],[1,1]],[[39,3947]],[[66,3929],[-12,1]],[[56,3930],[10,-1]],[[70,3852],[0,-1]],[[98,3863],[-16,0]],[[82,3863],[-10,0]],[[73,3856],[9,7]],[[82,3863],[20,14]],[[100,4087],[-6,8],[-2,0]],[[92,4095],[-1,0],[-8,-2]],[[83,4093],[-2,0]],[[116,3922],[-1,1]],[[118,3931],[1,-5]],[[158,4056],[12,-81]],[[170,3975],[5,53],[-2,11],[-15,17]],[[91,4016],[-42,-2]],[[66,3944],[-66,-1]],[[119,3926],[28,-9]],[[69,3820],[-9,62]],[[59,3882],[11,-18]],[[148,3917],[-26,12]],[[119,3931],[-53,13]],[[42,3987],[-37,5]],[[5,3992],[37,-5]],[[3345,4096],[-404,-231],[-101,-90],[-171,-82],[-321,-231],[-490,-144],[-1050,-49],[-358,47],[-196,96],[-254,222]],[[3982,175],[5,12]],[[4001,112],[2,-61],[31,30]],[[4096,132],[-74,19]],[[4033,46],[12,-43],[8,-3]],[[115,3923],[4,7]],[[70,3864],[-1,-44]],[[0,4017],[16,-1]],[[17,4016],[-17,2]],[[0,3988],[5,4]],[[42,3987],[27,-10]],[[49,4014],[-32,2]],[[16,4016],[75,0],[62,33]],[[4018,265],[40,103],[13,126],[-52,271],[29,113],[48,53]],[[0,3805],[75,54]],[[74,3860],[-28,-5],[-2,-1],[-44,-48]],[[0,3939],[21,52],[3,27],[-2,28],[-22,47]],[[0,4093],[24,-75],[-24,-76]],[[133,4096],[11,-5],[7,-27],[5,-7],[1,0]],[[157,4057],[0,-1]],[[157,4056],[1,0]],[[158,4056],[0,1]],[[158,4057],[-1,0]],[[157,4057],[-1,1],[-5,6],[-7,28],[-10,4]],[[170,4075],[-8,-9],[-5,-9]],[[157,4057]],[[157,4057],[-5,-8]],[[153,4049],[4,7]],[[157,4056],[1,1]],[[158,4057],[6,9],[6,7]],[[128,3968],[1,1]],[[122,3929],[-3,2]],[[152,4049],[-61,-33]],[[4096,975],[0,-36],[-12,12],[12,24]],[[1344,4096],[-62,-14],[-11,-7],[-12,-11],[-10,3],[-5,29],[100,0]],[[945,4027],[52,-139],[-11,-97],[-43,-51],[-75,48],[-56,18],[-90,-9],[-79,-50],[-43,-67],[-37,-19],[-44,21],[-30,2],[-26,11],[-13,23],[5,8],[24,31],[7,14],[3,22],[-2,27],[-8,48],[-19,46],[-2,23],[16,10],[84,41],[111,-72],[78,9],[11,97],[26,60],[70,14],[16,0],[75,-69]],[[166,4096],[1,-14],[20,-63],[-1,-28],[-23,-34],[-27,-16],[-23,-21],[-9,-48],[-20,-63],[-51,-25],[-33,2],[0,310],[166,0]],[[3878,1023],[-41,0],[7,23],[14,14],[20,7],[28,2],[25,9],[6,23],[1,53],[36,115],[35,34],[46,-41],[-27,-16],[-19,-40],[-31,-94],[-1,-25],[7,-22],[-3,-15],[-34,-5],[-24,-1],[-17,-3],[-14,-7],[-14,-11]],[[3982,0],[0,187],[114,0],[0,-187],[-114,0]],[[4032,49],[4,-10],[16,4],[17,29],[-37,-23]],[[4015,99],[5,-14],[16,-3],[-3,18],[-18,-1]],[[4005,105],[28,0],[0,21],[-28,0],[0,-21]],[[166,4096],[20,-105],[-73,-71],[-29,-111],[-84,-23],[0,310],[166,0]],[[532,3947],[108,-46],[55,18],[-14,-76],[-87,-104],[-107,80],[-29,118],[74,10]],[[3901,0],[0,265],[195,0],[0,-265],[-195,0]],[[632,3816],[253,122],[22,-41],[-38,-47],[50,-19],[-42,-63],[-29,10],[42,42],[-25,26],[-164,-8],[-5,-26],[-53,-17],[-11,21]]]}