{"objects":{"water":{"type":"GeometryCollection","geometries":[{"type":"Polygon","properties":{"source":"naturalearthdata.com","kind":"ocean","area":1576712559132672,"sort_rank":200,"min_zoom":0.0,"id":1},"arcs":[[6]]},{"type":"LineString","properties":{"source":"naturalearthdata.com","kind":"ocean","sort_rank":205,"boundary":true,"min_zoom":0.0,"id":56},"arcs":[7]}]},"buildings":{"type":"GeometryCollection","geometries":[]},"places":{"type":"GeometryCollection","geometries":[{"type":"Point","properties":{"source":"naturalearthdata.com","kind":"locality","name":"Winneba","population":44254,"min_zoom":7.0,"id":3838},"coordinates":[2261,3320]},{"type":"Point","properties":{"name:pt":"Acra","name:az":"Akkra","name:ka":"\u10d0\u10d9\u10e0\u10d0","name:mr":"\u0906\u0915\u094d\u0930\u093e","name:ko":"\uc544\ud06c\ub77c","name:cv":"\u0410\u043a\u043a\u0440\u0430","name:ar":"\u0623\u0643\u0631\u0627","name:my":"\u1021\u1000\u103a\u1001\u101b\u102c\u1019\u103c\u102d\u102f\u1037","name:tw":"Nkran","name:tr":"Akra, Gana","min_zoom":8.0,"name:am":"\u12a0\u12ad\u122b","name:ru":"\u0410\u043a\u043a\u0440\u0430","name:os":"\u0410\u043a\u043a\u0440\u00e6","name:ml":"\u0d05\u0d15\u0d4d\u0d30","name:pl":"Akra","name:ta":"\u0b85\u0b95\u0bcd\u0bb0\u0bbe","name:tg":"\u0410\u043a\u043a\u0440\u0430","name:mk":"\u0410\u043a\u0440\u0430","name:fa":"\u0622\u06a9\u0631\u0627","kind_detail":"city","id":27565080,"source":"openstreetmap.org","name:ky":"\u0410\u043a\u043a\u0440\u0430","name:kn":"\u0c85\u0c95\u0ccd\u0c95\u0ccd\u0cb0\u0cbe","name:fy":"Akkra","name:zh":"\u963f\u514b\u62c9","admin_level":"2","name:sl":"Akra","name:lv":"Akra","name:ja":"\u30a2\u30af\u30e9","name:lt":"Akra","name:he":"\u05d0\u05e7\u05e8\u05d4","kind":"locality","name:ur":"\u0627\u06a9\u0631\u0627","name:eu":"Akkra","name:bo":"\u0f68\u0f0b\u0f41\u0f0b\u0f62\u0f0d","name:sk":"Akkra","name:uk":"\u0410\u043a\u043a\u0440\u0430","name:hy":"\u0531\u056f\u0580\u0561","country_capital":true,"name:be":"\u0410\u043a\u0440\u0430","name:ht":"Akra","name:bg":"\u0410\u043a\u0440\u0430","name:sr":"\u0410\u043a\u0440\u0430","name:sq":"Akra","population":2291352,"name:el":"\u0386\u03ba\u03ba\u03c1\u03b1","name:eo":"Akrao","name":"Accra","name:is":"Akkra","name:th":"\u0e2d\u0e31\u0e01\u0e01\u0e23\u0e32","name:es":"Acra","name:ak":"Nkran","name:yi":"\u05d0\u05e7\u05e8\u05d0","name:yo":"Aakr\u00e1"},"coordinates":[3497,3932]},{"type":"Point","properties":{"source":"openstreetmap.org","kind":"locality","name":"Teshie","kind_detail":"town","population":170000,"min_zoom":8.0,"id":4563121334},"coordinates":[3765,3997]},{"type":"Point","properties":{"kind":"locality","name":"Cape Coast","kind_detail":"city","source":"openstreetmap.org","min_zoom":8.0,"name:uk":"\u041a\u0435\u0439\u043f-\u041a\u043e\u0441\u0442","name:ru":"\u041a\u0435\u0439\u043f-\u041a\u043e\u0441\u0442","id":990129709,"population":155000},"coordinates":[475,2609]}]},"transit":{"type":"GeometryCollection","geometries":[]},"pois":{"type":"GeometryCollection","geometries":[]},"boundaries":{"type":"GeometryCollection","geometries":[{"type":"LineString","properties":{"name:kg":"Gana","name:pt":"Gana","name:ps":"\u06ab\u0627\u0646\u0627","name:ka":"\u10d2\u10d0\u10dc\u10d0","name:ko":"\uac00\ub098","name:kn":"\u0c98\u0cbe\u0ca8\u0cbe","name:kk":"\u0413\u0430\u043d\u0430","name:tt":"\u0413\u0430\u043d\u0430","name:tk":"Gana","name:ku":"Gana","name:pa":"\u0a18\u0a3e\u0a28\u0a3e","name:os":"\u0413\u0430\u043d\u00e6","name:or":"\u0b18\u0b3e\u0b28\u0b3e","name:ce":"\u0413\u0430\u043d\u0430","name:ta":"\u0b95\u0bbe\u0ba9\u0bbe","name:tg":"\u0413\u0430\u043d\u0430","name:ky":"\u0413\u0430\u043d\u0430","name:te":"\u0c18\u0c28\u0c3e","source":"openstreetmap.org","sort_rank":262,"name:qu":"Gana","name:ba":"\u0413\u0430\u043d\u0430","name:tr":"Gana","name:nv":"G\u00e1ana","name:cv":"\u0413\u0430\u043d\u0430","name:dv":"\u078e\u07a7\u0782\u07a7","name:lv":"Gana","name:lt":"Gana","name:uz":"Gana","name:he":"\u05d2\u05d0\u05e0\u05d4","name:eo":"Ganao","name:ur":"\u06af\u06be\u0627\u0646\u0627","name:la":"Gana","name:uk":"\u0413\u0430\u043d\u0430","name:hy":"\u0533\u0561\u0576\u0561","name:ug":"\u06af\u0627\u0646\u0627 \u062c\u06c7\u0645\u06be\u06c7\u0631\u0649\u064a\u0649\u062a\u0649","name:hu":"Gh\u00e1na","name:hr":"Gana","name:el":"\u0393\u03ba\u03ac\u03bd\u03b1","kind":"country","name":"Ghana","min_zoom":8.0,"name:th":"\u0e1b\u0e23\u0e30\u0e40\u0e17\u0e28\u0e01\u0e32\u0e19\u0e32","name:yi":"\u05d2\u05d4\u05d0\u05e0\u05e2","name:yo":"Gh\u00e1n\u00e0","name:mt":"Gana","name:az":"Qana","name:mr":"\u0918\u093e\u0928\u093e","name:ar":"\u063a\u0627\u0646\u0627","name:my":"\u1002\u102b\u1014\u102c\u1014\u102d\u102f\u1004\u103a\u1004\u1036","name:is":"Gana","name:am":"\u130b\u1293","name:ru":"\u0413\u0430\u043d\u0430","name:ml":"\u0d18\u0d3e\u0d28","name:rw":"Gana","id":-192781,"name:mk":"\u0413\u0430\u043d\u0430","name:vo":"Gan\u00e4n","name:zu":"IGana","name:mn":"\u0413\u0430\u043d\u0430","name:ss":"IGana","name:ff":"Gana","kind_detail":"2","name:hi":"\u0918\u093e\u0928\u093e","name:fo":"Gana","name:zh-yue":"\u52a0\u7d0d","name:fy":"Gana","name:zh":"\u52a0\u7eb3","name:so":"Gaana","name:sl":"Gana","name:ja":"\u30ac\u30fc\u30ca","name:sh":"Gana","name:sg":"Gan\u00e4a","name:na":"Gana","name:ne":"\u0918\u093e\u0928\u093e","name:sa":"\u0918\u093e\u0928\u093e","name:bs":"Gana","name:bm":"Gana","name:bn":"\u0998\u09be\u09a8\u09be","name:bo":"\u0f40\u0f0b\u0f53\u0f0d","name:be":"\u0413\u0430\u043d\u0430","name:bg":"\u0413\u0430\u043d\u0430","name:wo":"Gana","name:sr":"\u0413\u0430\u043d\u0430","osm_relation":true,"name:sq":"Gana","name:ga":"G\u00e1na","name:gd":"G\u00e0na","name:ht":"Gana","name:wa":"Gana","name:gl":"Gana","name:fa":"\u063a\u0646\u0627","maritime_boundary":true,"name:gv":"Yn Ghaney","name:gu":"\u0a98\u0abe\u0aa8\u0abe"},"arcs":[0]},{"type":"LineString","properties":{"name:right:uk":"\u0412\u0435\u043b\u0438\u043a\u0430 \u0410\u043a\u043a\u0440\u0430","name:right:ru":"\u0411\u043e\u043b\u044c\u0448\u0430\u044f \u0410\u043a\u043a\u0440\u0430","name:left:uk":"\u0426\u0435\u043d\u0442\u0440\u0430\u043b\u044c\u043d\u0430 \u043e\u0431\u043b\u0430\u0441\u0442\u044c","min_zoom":8.0,"name:left:ru":"\u0426\u0435\u043d\u0442\u0440\u0430\u043b\u044c\u043d\u044b\u0439 \u0440\u0435\u0433\u0438\u043e\u043d","id:right":-1991849,"id":-3330281,"osm_relation":true,"name:right":"Greater Accra Region","kind":"region","name":"Central Region - Greater Accra Region","sort_rank":256,"kind_detail":"4","name:left:de":"Zentralregion","source":"openstreetmap.org","name:right:de":"Gro\u00df-Accra Region","id:left":-3330281,"name:left":"Central Region"},"arcs":[1]},{"type":"LineString","properties":{"kind":"region","name":"Central Region","sort_rank":256,"kind_detail":"4","name:de":"Zentralregion","source":"openstreetmap.org","min_zoom":8.0,"name:uk":"\u0426\u0435\u043d\u0442\u0440\u0430\u043b\u044c\u043d\u0430 \u043e\u0431\u043b\u0430\u0441\u0442\u044c","name:ru":"\u0426\u0435\u043d\u0442\u0440\u0430\u043b\u044c\u043d\u044b\u0439 \u0440\u0435\u0433\u0438\u043e\u043d","id":-3330281,"osm_relation":true},"arcs":[2]},{"type":"LineString","properties":{"kind":"region","name":"Central Region","sort_rank":256,"kind_detail":"4","min_zoom":8.0,"name:de":"Zentralregion","source":"openstreetmap.org","maritime_boundary":true,"name:uk":"\u0426\u0435\u043d\u0442\u0440\u0430\u043b\u044c\u043d\u0430 \u043e\u0431\u043b\u0430\u0441\u0442\u044c","name:ru":"\u0426\u0435\u043d\u0442\u0440\u0430\u043b\u044c\u043d\u044b\u0439 \u0440\u0435\u0433\u0438\u043e\u043d","id":-3330281,"osm_relation":true},"arcs":[3]},{"type":"LineString","properties":{"kind":"region","name":"Greater Accra Region","sort_rank":256,"kind_detail":"4","name:de":"Gro\u00df-Accra Region","source":"openstreetmap.org","min_zoom":8.0,"name:uk":"\u0412\u0435\u043b\u0438\u043a\u0430 \u0410\u043a\u043a\u0440\u0430","name:ru":"\u0411\u043e\u043b\u044c\u0448\u0430\u044f \u0410\u043a\u043a\u0440\u0430","id":-1991849,"osm_relation":true},"arcs":[4]},{"type":"LineString","properties":{"kind":"region","name":"Greater Accra Region","sort_rank":256,"kind_detail":"4","min_zoom":8.0,"name:de":"Gro\u00df-Accra Region","source":"openstreetmap.org","maritime_boundary":true,"name:uk":"\u0412\u0435\u043b\u0438\u043a\u0430 \u0410\u043a\u043a\u0440\u0430","name:ru":"\u0411\u043e\u043b\u044c\u0448\u0430\u044f \u0410\u043a\u043a\u0440\u0430","id":-1991849,"osm_relation":true},"arcs":[5]}]},"roads":{"type":"GeometryCollection","geometries":[{"type":"LineString","properties":{"bus_network":"tr\u00f4 tr\u00f4","network":"GH:national","sort_rank":381,"kind_detail":"trunk","kind":"major_road","source":"openstreetmap.org","min_zoom":8.0,"bus_shield_text":"231","shield_text":"1","landuse_kind":"urban_area"},"arcs":[8]},{"type":"LineString","properties":{"kind":"major_road","network":"tr\u00f4 tr\u00f4","sort_rank":381,"kind_detail":"trunk","source":"openstreetmap.org","min_zoom":8.0,"landuse_kind":"urban_area","shield_text":"347","id":-7560155,"osm_relation":true},"arcs":[9]},{"type":"MultiLineString","properties":{"bus_network":"tr\u00f4 tr\u00f4","sort_rank":380,"kind_detail":"primary","kind":"major_road","source":"openstreetmap.org","min_zoom":8.0,"bus_shield_text":"419","landuse_kind":"urban_area"},"arcs":[[10],[11],[12],[13],[14],[15]]},{"type":"MultiLineString","properties":{"bus_network":"tr\u00f4 tr\u00f4","sort_rank":381,"landuse_kind":"urban_area","kind":"major_road","source":"openstreetmap.org","min_zoom":8.0,"bus_shield_text":"388","kind_detail":"trunk"},"arcs":[[16],[17]]},{"type":"MultiLineString","properties":{"bus_network":"tr\u00f4 tr\u00f4","sort_rank":380,"kind_detail":"primary","kind":"major_road","source":"openstreetmap.org","min_zoom":8.0,"bus_shield_text":"36","landuse_kind":"urban_area"},"arcs":[[18],[19],[20]]},{"type":"MultiLineString","properties":{"kind":"major_road","network":"GH:national","sort_rank":381,"kind_detail":"trunk","source":"openstreetmap.org","min_zoom":8.0,"shield_text":"1","ref":"N1"},"arcs":[[21],[22],[23],[24],[25],[26],[27],[28],[29],[30]]},{"type":"LineString","properties":{"kind":"major_road","sort_rank":381,"kind_detail":"trunk","bus_network":"tr\u00f4 tr\u00f4","source":"openstreetmap.org","min_zoom":8.0,"bus_shield_text":"242","landuse_kind":"urban_area","id":511101746},"arcs":[31]},{"type":"LineString","properties":{"bus_network":"tr\u00f4 tr\u00f4","sort_rank":380,"kind_detail":"primary","kind":"major_road","source":"openstreetmap.org","min_zoom":8.0,"bus_shield_text":"31","landuse_kind":"urban_area"},"arcs":[32]},{"type":"LineString","properties":{"kind":"major_road","sort_rank":380,"kind_detail":"primary","bus_network":"tr\u00f4 tr\u00f4","source":"openstreetmap.org","min_zoom":8.0,"bus_shield_text":"40","landuse_kind":"urban_area","id":141918956},"arcs":[33]},{"type":"LineString","properties":{"kind":"major_road","sort_rank":380,"kind_detail":"primary","bus_network":"tr\u00f4 tr\u00f4","source":"openstreetmap.org","min_zoom":8.0,"bus_shield_text":"222","landuse_kind":"urban_area","id":11664763},"arcs":[34]},{"type":"MultiLineString","properties":{"bus_network":"tr\u00f4 tr\u00f4","sort_rank":380,"kind_detail":"primary","kind":"major_road","source":"openstreetmap.org","min_zoom":8.0,"bus_shield_text":"225","landuse_kind":"urban_area"},"arcs":[[35],[36]]},{"type":"LineString","properties":{"kind":"major_road","sort_rank":380,"kind_detail":"primary","bus_network":"tr\u00f4 tr\u00f4","source":"openstreetmap.org","min_zoom":8.0,"bus_shield_text":"170","id":516120687},"arcs":[37]},{"type":"LineString","properties":{"kind":"major_road","network":"GH:national","sort_rank":381,"kind_detail":"trunk","bus_network":"tr\u00f4 tr\u00f4","source":"openstreetmap.org","min_zoom":8.0,"bus_shield_text":"155","shield_text":"1","landuse_kind":"urban_area","id":517784456},"arcs":[38]},{"type":"LineString","properties":{"kind":"major_road","sort_rank":380,"kind_detail":"primary","bus_network":"tr\u00f4 tr\u00f4","source":"openstreetmap.org","min_zoom":8.0,"bus_shield_text":"117","landuse_kind":"urban_area","id":105203487},"arcs":[39]},{"type":"MultiLineString","properties":{"bus_network":"tr\u00f4 tr\u00f4","network":"GH:national","sort_rank":381,"landuse_kind":"urban_area","kind":"major_road","source":"openstreetmap.org","min_zoom":8.0,"bus_shield_text":"188","shield_text":"1","kind_detail":"trunk"},"arcs":[[40],[41]]},{"type":"LineString","properties":{"kind":"major_road","sort_rank":380,"kind_detail":"primary","bus_network":"tr\u00f4 tr\u00f4","source":"openstreetmap.org","min_zoom":8.0,"bus_shield_text":"243","landuse_kind":"urban_area","id":516915104},"arcs":[42]},{"type":"LineString","properties":{"kind":"major_road","network":"Trans-African Highways","sort_rank":381,"kind_detail":"trunk","bus_network":"tr\u00f4 tr\u00f4","source":"openstreetmap.org","min_zoom":8.0,"bus_shield_text":"64","shield_text":null,"landuse_kind":"urban_area","id":264685295},"arcs":[43]},{"type":"MultiLineString","properties":{"bus_network":"tr\u00f4 tr\u00f4","sort_rank":380,"kind_detail":"primary","kind":"major_road","source":"openstreetmap.org","min_zoom":8.0,"bus_shield_text":"256","landuse_kind":"urban_area"},"arcs":[[44],[45],[46],[47],[48],[49],[50]]},{"type":"MultiLineString","properties":{"bus_network":"tr\u00f4 tr\u00f4","network":"GH:national","sort_rank":381,"kind_detail":"trunk","kind":"major_road","source":"openstreetmap.org","min_zoom":8.0,"bus_shield_text":"18","shield_text":"1","ref":"N1"},"arcs":[[51],[52],[53],[54]]},{"type":"LineString","properties":{"bus_network":"tr\u00f4 tr\u00f4","sort_rank":380,"kind_detail":"primary","kind":"major_road","source":"openstreetmap.org","min_zoom":8.0,"bus_shield_text":"8","landuse_kind":"urban_area"},"arcs":[55]},{"type":"LineString","properties":{"kind":"major_road","network":"tr\u00f4 tr\u00f4","sort_rank":381,"kind_detail":"trunk","source":"openstreetmap.org","min_zoom":8.0,"landuse_kind":"urban_area","shield_text":"211","id":-7418634,"osm_relation":true},"arcs":[56]},{"type":"MultiLineString","properties":{"kind":"major_road","network":"GH:inter-regional","sort_rank":380,"kind_detail":"primary","source":"openstreetmap.org","min_zoom":8.0,"shield_text":"1","ref":"IR1"},"arcs":[[57],[58],[59],[60]]},{"type":"LineString","properties":{"kind":"major_road","sort_rank":380,"kind_detail":"primary","bus_network":"tr\u00f4 tr\u00f4","source":"openstreetmap.org","min_zoom":8.0,"bus_shield_text":"416","landuse_kind":"urban_area","id":521717607},"arcs":[61]},{"type":"LineString","properties":{"kind":"major_road","network":"Trans-African Highways","sort_rank":381,"kind_detail":"trunk","source":"openstreetmap.org","min_zoom":8.0,"shield_text":null,"ref":"N1","id":312553163},"arcs":[62]},{"type":"MultiLineString","properties":{"bus_network":"tr\u00f4 tr\u00f4","sort_rank":381,"landuse_kind":"urban_area","kind":"major_road","source":"openstreetmap.org","min_zoom":8.0,"bus_shield_text":"223","kind_detail":"trunk"},"arcs":[[63],[64],[65]]},{"type":"MultiLineString","properties":{"kind":"major_road","network":"GH:inter-regional","sort_rank":380,"kind_detail":"primary","source":"openstreetmap.org","min_zoom":8.0,"landuse_kind":"residential","shield_text":"1","ref":"IR1"},"arcs":[[66],[67]]},{"type":"MultiLineString","properties":{"bus_network":"tr\u00f4 tr\u00f4","sort_rank":380,"kind_detail":"primary","kind":"major_road","source":"openstreetmap.org","min_zoom":8.0,"bus_shield_text":"221","landuse_kind":"urban_area"},"arcs":[[68],[69],[70],[71],[72],[73],[74]]},{"type":"LineString","properties":{"bus_network":"tr\u00f4 tr\u00f4","network":"GH:national","sort_rank":381,"kind_detail":"trunk","kind":"major_road","source":"openstreetmap.org","min_zoom":8.0,"bus_shield_text":"30","shield_text":"6","landuse_kind":"urban_area","ref":"N6"},"arcs":[75]},{"type":"MultiLineString","properties":{"sort_rank":381,"source":"openstreetmap.org","min_zoom":8.0,"kind":"major_road","kind_detail":"trunk"},"arcs":[[76],[77],[78],[79]]},{"type":"MultiLineString","properties":{"bus_network":"tr\u00f4 tr\u00f4","sort_rank":380,"kind_detail":"primary","kind":"major_road","source":"openstreetmap.org","min_zoom":8.0,"bus_shield_text":"170","landuse_kind":"urban_area"},"arcs":[[80],[81]]},{"type":"LineString","properties":{"source":"openstreetmap.org","bus_network":"tr\u00f4 tr\u00f4","bus_shield_text":"118","sort_rank":380,"kind_detail":"primary","min_zoom":8.0,"kind":"major_road"},"arcs":[82]},{"type":"MultiLineString","properties":{"bus_network":"tr\u00f4 tr\u00f4","sort_rank":381,"landuse_kind":"urban_area","kind":"major_road","source":"openstreetmap.org","min_zoom":8.0,"bus_shield_text":"254","kind_detail":"trunk","ref":"N6"},"arcs":[[83],[84]]},{"type":"LineString","properties":{"bus_network":"tr\u00f4 tr\u00f4","sort_rank":381,"landuse_kind":"urban_area","kind":"major_road","source":"openstreetmap.org","min_zoom":8.0,"bus_shield_text":"203","kind_detail":"trunk"},"arcs":[85]},{"type":"LineString","properties":{"kind":"major_road","sort_rank":381,"kind_detail":"trunk","bus_network":"tr\u00f4 tr\u00f4","source":"openstreetmap.org","min_zoom":8.0,"bus_shield_text":"303","landuse_kind":"urban_area","id":537039773},"arcs":[86]},{"type":"LineString","properties":{"kind":"major_road","network":"GH:national","sort_rank":381,"kind_detail":"trunk","bus_network":"tr\u00f4 tr\u00f4","source":"openstreetmap.org","min_zoom":8.0,"bus_shield_text":"85","shield_text":"6","landuse_kind":"urban_area","ref":"N6","id":513623891},"arcs":[87]},{"type":"LineString","properties":{"kind":"major_road","sort_rank":380,"kind_detail":"primary","bus_network":"tr\u00f4 tr\u00f4","source":"openstreetmap.org","min_zoom":8.0,"bus_shield_text":"238","loc_name":"Circle","landuse_kind":"urban_area","id":510252753},"arcs":[88]},{"type":"MultiLineString","properties":{"bus_network":"tr\u00f4 tr\u00f4","sort_rank":380,"kind_detail":"primary","kind":"major_road","source":"openstreetmap.org","min_zoom":8.0,"bus_shield_text":"206","landuse_kind":"urban_area"},"arcs":[[89],[90]]},{"type":"MultiLineString","properties":{"source":"openstreetmap.org","kind":"major_road","landuse_kind":"urban_area","sort_rank":380,"kind_detail":"primary","min_zoom":8.0},"arcs":[[91],[92],[93],[94],[95],[96],[97],[98],[99],[100],[101],[102],[103],[104],[105],[106],[107],[108],[109],[110],[111],[112],[113],[114],[115],[116],[117],[118],[119],[120],[121],[122],[123],[124],[125]]},{"type":"LineString","properties":{"kind":"major_road","sort_rank":380,"kind_detail":"primary","bus_network":"tr\u00f4 tr\u00f4","source":"openstreetmap.org","min_zoom":8.0,"bus_shield_text":"241","landuse_kind":"urban_area","id":135693013},"arcs":[126]},{"type":"LineString","properties":{"kind":"major_road","sort_rank":380,"kind_detail":"primary","bus_network":"tr\u00f4 tr\u00f4","source":"openstreetmap.org","min_zoom":8.0,"bus_shield_text":"116","landuse_kind":"urban_area","id":172933157},"arcs":[127]},{"type":"MultiLineString","properties":{"bus_network":"tr\u00f4 tr\u00f4","sort_rank":380,"kind_detail":"primary","kind":"major_road","source":"openstreetmap.org","min_zoom":8.0,"bus_shield_text":"55","landuse_kind":"urban_area"},"arcs":[[128],[129],[130],[131]]},{"type":"MultiLineString","properties":{"kind":"highway","network":"GH:national","sort_rank":383,"landuse_kind":"urban_area","source":"openstreetmap.org","min_zoom":8.0,"all_networks":["GH:national","Trans-African Highways"],"kind_detail":"motorway","shield_text":"1","ref":"N1","all_shield_texts":["1",null]},"arcs":[[132],[133],[134],[135],[136],[137]]},{"type":"MultiLineString","properties":{"bus_network":"tr\u00f4 tr\u00f4","sort_rank":380,"kind_detail":"primary","kind":"major_road","source":"openstreetmap.org","min_zoom":8.0,"bus_shield_text":"163","landuse_kind":"urban_area"},"arcs":[[138],[139],[140],[141],[142],[143]]},{"type":"LineString","properties":{"kind":"major_road","sort_rank":381,"kind_detail":"trunk","bus_network":"tr\u00f4 tr\u00f4","source":"openstreetmap.org","min_zoom":8.0,"bus_shield_text":"6","landuse_kind":"urban_area","id":511790086},"arcs":[144]},{"type":"MultiLineString","properties":{"bus_network":"tr\u00f4 tr\u00f4","network":"GH:national","sort_rank":381,"landuse_kind":"urban_area","kind":"major_road","source":"openstreetmap.org","min_zoom":8.0,"bus_shield_text":"18","shield_text":"1","kind_detail":"trunk","ref":"N1"},"arcs":[[145],[146],[147],[148]]},{"type":"MultiLineString","properties":{"kind":"major_road","network":"GH:national","sort_rank":381,"landuse_kind":"urban_area","source":"openstreetmap.org","min_zoom":8.0,"kind_detail":"trunk","shield_text":"1","ref":"N1"},"arcs":[[149],[150],[151],[152],[153],[154]]},{"type":"LineString","properties":{"bus_network":"tr\u00f4 tr\u00f4","sort_rank":380,"kind_detail":"primary","kind":"major_road","source":"openstreetmap.org","min_zoom":8.0,"bus_shield_text":"438","landuse_kind":"urban_area"},"arcs":[155]},{"type":"MultiLineString","properties":{"bus_network":"tr\u00f4 tr\u00f4","sort_rank":381,"landuse_kind":"urban_area","kind":"major_road","source":"openstreetmap.org","min_zoom":8.0,"bus_shield_text":"64","kind_detail":"trunk"},"arcs":[[156],[157]]},{"type":"LineString","properties":{"kind":"major_road","sort_rank":380,"kind_detail":"primary","bus_network":"tr\u00f4 tr\u00f4","source":"openstreetmap.org","min_zoom":8.0,"bus_shield_text":"476","id":517189445},"arcs":[158]},{"type":"LineString","properties":{"kind":"major_road","sort_rank":380,"kind_detail":"primary","bus_network":"tr\u00f4 tr\u00f4","source":"openstreetmap.org","min_zoom":8.0,"bus_shield_text":"470","landuse_kind":"urban_area","id":514454856},"arcs":[159]},{"type":"LineString","properties":{"bus_network":"tr\u00f4 tr\u00f4","sort_rank":380,"kind_detail":"primary","kind":"major_road","source":"openstreetmap.org","min_zoom":8.0,"bus_shield_text":"262","landuse_kind":"urban_area"},"arcs":[160]},{"type":"MultiLineString","properties":{"kind":"major_road","network":"GH:inter-regional","sort_rank":380,"kind_detail":"primary","source":"openstreetmap.org","min_zoom":8.0,"landuse_kind":"residential","shield_text":"2","ref":"IR2"},"arcs":[[161],[162],[163],[164],[165]]},{"type":"MultiLineString","properties":{"kind":"highway","network":"GH:national","sort_rank":383,"landuse_kind":"urban_area","source":"openstreetmap.org","min_zoom":8.0,"all_networks":["GH:national"],"kind_detail":"motorway","shield_text":"1","ref":"N1","all_shield_texts":["1"]},"arcs":[[166],[167],[168],[169],[170]]},{"type":"LineString","properties":{"bus_network":"tr\u00f4 tr\u00f4","sort_rank":381,"landuse_kind":"urban_area","kind":"major_road","source":"openstreetmap.org","min_zoom":8.0,"bus_shield_text":"155","kind_detail":"trunk"},"arcs":[171]},{"type":"MultiLineString","properties":{"bus_network":"tr\u00f4 tr\u00f4","sort_rank":380,"kind_detail":"primary","kind":"major_road","source":"openstreetmap.org","min_zoom":8.0,"bus_shield_text":"172","landuse_kind":"urban_area"},"arcs":[[172],[173],[174],[175],[176]]},{"type":"MultiLineString","properties":{"sort_rank":380,"kind_detail":"primary","min_zoom":8.0,"kind":"major_road","source":"openstreetmap.org"},"arcs":[[177],[178],[179],[180],[181],[182],[183],[184],[185],[186]]},{"type":"LineString","properties":{"kind":"major_road","sort_rank":380,"kind_detail":"primary","bus_network":"tr\u00f4 tr\u00f4","source":"openstreetmap.org","min_zoom":8.0,"bus_shield_text":"995","landuse_kind":"urban_area","id":514273555},"arcs":[187]},{"type":"LineString","properties":{"source":"openstreetmap.org","bus_network":"tr\u00f4 tr\u00f4","bus_shield_text":"23","sort_rank":380,"kind_detail":"primary","min_zoom":8.0,"kind":"major_road"},"arcs":[188]},{"type":"LineString","properties":{"kind":"major_road","network":"GH:inter-regional","sort_rank":380,"kind_detail":"primary","source":"openstreetmap.org","min_zoom":8.0,"landuse_kind":"residential","shield_text":"1","ref":"IR1;IR2"},"arcs":[189]},{"type":"MultiLineString","properties":{"source":"openstreetmap.org","bus_network":"tr\u00f4 tr\u00f4","bus_shield_text":"172","sort_rank":380,"kind_detail":"primary","min_zoom":8.0,"kind":"major_road"},"arcs":[[190],[191]]},{"type":"MultiLineString","properties":{"bus_network":"tr\u00f4 tr\u00f4","sort_rank":380,"kind_detail":"primary","kind":"major_road","source":"openstreetmap.org","min_zoom":8.0,"bus_shield_text":"155","landuse_kind":"urban_area"},"arcs":[[192],[193],[194]]},{"type":"MultiLineString","properties":{"kind":"major_road","network":"GH:national","sort_rank":381,"kind_detail":"trunk","source":"openstreetmap.org","min_zoom":8.0,"landuse_kind":"residential","shield_text":"1","ref":"N1"},"arcs":[[195],[196],[197],[198],[199],[200],[201],[202],[203],[204],[205],[206],[207]]},{"type":"LineString","properties":{"bus_network":"tr\u00f4 tr\u00f4","sort_rank":380,"kind_detail":"primary","kind":"major_road","source":"openstreetmap.org","min_zoom":8.0,"bus_shield_text":"222","loc_name":"Circle","landuse_kind":"urban_area"},"arcs":[208]},{"type":"LineString","properties":{"kind":"major_road","network":"tr\u00f4 tr\u00f4","sort_rank":381,"kind_detail":"trunk","source":"openstreetmap.org","min_zoom":8.0,"landuse_kind":"urban_area","shield_text":"8","id":-7437084,"osm_relation":true},"arcs":[209]},{"type":"LineString","properties":{"bus_network":"tr\u00f4 tr\u00f4","sort_rank":380,"kind_detail":"primary","kind":"major_road","source":"openstreetmap.org","min_zoom":8.0,"bus_shield_text":"283","landuse_kind":"urban_area"},"arcs":[210]},{"type":"MultiLineString","properties":{"bus_network":"tr\u00f4 tr\u00f4","sort_rank":380,"kind_detail":"primary","kind":"major_road","source":"openstreetmap.org","min_zoom":8.0,"bus_shield_text":"65","landuse_kind":"urban_area"},"arcs":[[211],[212],[213],[214],[215]]},{"type":"LineString","properties":{"kind":"major_road","network":"GH:regional","sort_rank":380,"kind_detail":"primary","source":"openstreetmap.org","min_zoom":8.0,"landuse_kind":"residential","shield_text":"15","ref":"R15"},"arcs":[216]},{"type":"MultiLineString","properties":{"bus_network":"tr\u00f4 tr\u00f4","sort_rank":380,"kind_detail":"primary","kind":"major_road","source":"openstreetmap.org","min_zoom":8.0,"bus_shield_text":"211","landuse_kind":"urban_area"},"arcs":[[217],[218]]},{"type":"LineString","properties":{"bus_network":"tr\u00f4 tr\u00f4","network":"GH:national","sort_rank":381,"kind_detail":"trunk","kind":"major_road","source":"openstreetmap.org","min_zoom":8.0,"bus_shield_text":"223","shield_text":"1","landuse_kind":"urban_area"},"arcs":[219]},{"type":"LineString","properties":{"bus_network":"tr\u00f4 tr\u00f4","sort_rank":380,"kind_detail":"primary","kind":"major_road","source":"openstreetmap.org","min_zoom":8.0,"bus_shield_text":"205","loc_name":"Circle","landuse_kind":"urban_area"},"arcs":[220]},{"type":"LineString","properties":{"bus_network":"tr\u00f4 tr\u00f4","network":"GH:national","sort_rank":381,"kind_detail":"trunk","kind":"major_road","source":"openstreetmap.org","min_zoom":8.0,"bus_shield_text":"20","shield_text":"6","landuse_kind":"urban_area","ref":"N6"},"arcs":[221]},{"type":"MultiLineString","properties":{"kind":"major_road","network":"tr\u00f4 tr\u00f4","sort_rank":381,"landuse_kind":"urban_area","source":"openstreetmap.org","min_zoom":8.0,"kind_detail":"trunk","shield_text":"116","osm_relation":true},"arcs":[[222],[223],[224]]},{"type":"MultiLineString","properties":{"source":"openstreetmap.org","kind":"major_road","kind_detail":"trunk","sort_rank":381,"landuse_kind":"urban_area","min_zoom":8.0},"arcs":[[225],[226],[227],[228],[229],[230]]},{"type":"MultiLineString","properties":{"bus_network":"tr\u00f4 tr\u00f4","sort_rank":381,"landuse_kind":"urban_area","kind":"major_road","source":"openstreetmap.org","min_zoom":8.0,"bus_shield_text":"11","kind_detail":"trunk","ref":"N6"},"arcs":[[231],[232]]},{"type":"LineString","properties":{"source":"openstreetmap.org","kind":"major_road","kind_detail":"trunk","sort_rank":381,"landuse_kind":"urban_area","ref":"N1","min_zoom":8.0},"arcs":[233]},{"type":"LineString","properties":{"kind":"major_road","network":"GH:national","sort_rank":381,"landuse_kind":"urban_area","source":"openstreetmap.org","min_zoom":8.0,"kind_detail":"trunk","shield_text":"6","ref":"N6"},"arcs":[234]},{"type":"MultiLineString","properties":{"bus_network":"tr\u00f4 tr\u00f4","sort_rank":380,"kind_detail":"primary","kind":"major_road","source":"openstreetmap.org","min_zoom":8.0,"bus_shield_text":"205","landuse_kind":"urban_area"},"arcs":[[235],[236],[237],[238],[239],[240]]},{"type":"LineString","properties":{"kind":"major_road","sort_rank":380,"kind_detail":"primary","bus_network":"tr\u00f4 tr\u00f4","source":"openstreetmap.org","min_zoom":8.0,"bus_shield_text":"227","landuse_kind":"urban_area","id":345632650},"arcs":[241]},{"type":"MultiLineString","properties":{"bus_network":"tr\u00f4 tr\u00f4","sort_rank":380,"kind_detail":"primary","kind":"major_road","source":"openstreetmap.org","min_zoom":8.0,"bus_shield_text":"178","landuse_kind":"urban_area"},"arcs":[[242],[243],[244],[245]]},{"type":"LineString","properties":{"bus_network":"tr\u00f4 tr\u00f4","sort_rank":380,"kind_detail":"primary","kind":"major_road","source":"openstreetmap.org","min_zoom":8.0,"bus_shield_text":"166","landuse_kind":"urban_area"},"arcs":[246]},{"type":"LineString","properties":{"kind":"major_road","network":"GH:national","sort_rank":381,"kind_detail":"trunk","bus_network":"tr\u00f4 tr\u00f4","source":"openstreetmap.org","min_zoom":8.0,"bus_shield_text":"36","shield_text":"1","landuse_kind":"urban_area","id":510731757},"arcs":[247]},{"type":"MultiLineString","properties":{"bus_network":"tr\u00f4 tr\u00f4","sort_rank":380,"kind_detail":"primary","kind":"major_road","source":"openstreetmap.org","min_zoom":8.0,"bus_shield_text":"76","landuse_kind":"urban_area"},"arcs":[[248],[249]]},{"type":"LineString","properties":{"bus_network":"tr\u00f4 tr\u00f4","sort_rank":380,"kind_detail":"primary","kind":"major_road","source":"openstreetmap.org","min_zoom":8.0,"bus_shield_text":"11","landuse_kind":"urban_area"},"arcs":[250]},{"type":"LineString","properties":{"bus_network":"tr\u00f4 tr\u00f4","sort_rank":380,"kind_detail":"primary","kind":"major_road","source":"openstreetmap.org","min_zoom":8.0,"bus_shield_text":"204","landuse_kind":"urban_area"},"arcs":[251]},{"type":"LineString","properties":{"kind":"major_road","sort_rank":380,"kind_detail":"primary","bus_network":"tr\u00f4 tr\u00f4","source":"openstreetmap.org","min_zoom":8.0,"bus_shield_text":"20","landuse_kind":"urban_area","id":447736657},"arcs":[252]},{"type":"LineString","properties":{"bus_network":"tr\u00f4 tr\u00f4","sort_rank":380,"kind_detail":"primary","kind":"major_road","source":"openstreetmap.org","min_zoom":8.0,"bus_shield_text":"35","landuse_kind":"urban_area"},"arcs":[253]},{"type":"MultiLineString","properties":{"bus_network":"tr\u00f4 tr\u00f4","sort_rank":380,"kind_detail":"primary","kind":"major_road","source":"openstreetmap.org","min_zoom":8.0,"bus_shield_text":"118","landuse_kind":"urban_area"},"arcs":[[254],[255]]},{"type":"MultiLineString","properties":{"bus_network":"tr\u00f4 tr\u00f4","sort_rank":380,"kind_detail":"primary","kind":"major_road","source":"openstreetmap.org","min_zoom":8.0,"bus_shield_text":"48","landuse_kind":"urban_area"},"arcs":[[256],[257],[258],[259],[260],[261],[262]]},{"type":"LineString","properties":{"bus_network":"tr\u00f4 tr\u00f4","sort_rank":380,"kind_detail":"primary","kind":"major_road","source":"openstreetmap.org","min_zoom":8.0,"bus_shield_text":"238","landuse_kind":"urban_area"},"arcs":[263]},{"type":"LineString","properties":{"bus_network":"tr\u00f4 tr\u00f4","network":"GH:national","sort_rank":381,"kind_detail":"trunk","kind":"major_road","source":"openstreetmap.org","min_zoom":8.0,"bus_shield_text":"55","shield_text":"6","landuse_kind":"urban_area","ref":"N6"},"arcs":[264]},{"type":"LineString","properties":{"bus_network":"tr\u00f4 tr\u00f4","network":"GH:national","sort_rank":381,"kind_detail":"trunk","kind":"major_road","source":"openstreetmap.org","min_zoom":8.0,"bus_shield_text":"84","shield_text":"6","landuse_kind":"urban_area","ref":"N6"},"arcs":[265]},{"type":"MultiLineString","properties":{"bus_network":"tr\u00f4 tr\u00f4","network":"GH:national","sort_rank":381,"kind_detail":"trunk","kind":"major_road","source":"openstreetmap.org","min_zoom":8.0,"bus_shield_text":"18","shield_text":"1","landuse_kind":"residential","ref":"N1"},"arcs":[[266],[267],[268],[269]]},{"type":"MultiLineString","properties":{"bus_network":"tr\u00f4 tr\u00f4","sort_rank":380,"kind_detail":"primary","kind":"major_road","source":"openstreetmap.org","min_zoom":8.0,"bus_shield_text":"66","landuse_kind":"urban_area"},"arcs":[[270],[271],[272]]},{"type":"LineString","properties":{"bus_network":"tr\u00f4 tr\u00f4","sort_rank":380,"kind_detail":"primary","kind":"major_road","source":"openstreetmap.org","min_zoom":8.0,"bus_shield_text":"202","landuse_kind":"urban_area"},"arcs":[273]},{"type":"MultiLineString","properties":{"bus_network":"tr\u00f4 tr\u00f4","network":"GH:national","sort_rank":381,"landuse_kind":"urban_area","kind":"major_road","source":"openstreetmap.org","min_zoom":8.0,"bus_shield_text":"64","shield_text":"1","kind_detail":"trunk"},"arcs":[[274],[275]]},{"type":"MultiLineString","properties":{"bus_network":"tr\u00f4 tr\u00f4","sort_rank":380,"kind_detail":"primary","kind":"major_road","source":"openstreetmap.org","min_zoom":8.0,"bus_shield_text":"223","landuse_kind":"urban_area"},"arcs":[[276],[277]]},{"type":"LineString","properties":{"bus_network":"tr\u00f4 tr\u00f4","sort_rank":380,"kind_detail":"primary","kind":"major_road","source":"openstreetmap.org","min_zoom":8.0,"bus_shield_text":"174","landuse_kind":"urban_area"},"arcs":[278]},{"type":"MultiLineString","properties":{"source":"openstreetmap.org","bus_network":"tr\u00f4 tr\u00f4","bus_shield_text":"185","sort_rank":380,"kind_detail":"primary","min_zoom":8.0,"kind":"major_road"},"arcs":[[279],[280]]},{"type":"MultiLineString","properties":{"bus_network":"tr\u00f4 tr\u00f4","sort_rank":381,"landuse_kind":"urban_area","kind":"major_road","source":"openstreetmap.org","min_zoom":8.0,"bus_shield_text":"221","kind_detail":"trunk"},"arcs":[[281],[282]]},{"type":"MultiLineString","properties":{"bus_network":"tr\u00f4 tr\u00f4","sort_rank":380,"kind_detail":"primary","kind":"major_road","source":"openstreetmap.org","min_zoom":8.0,"bus_shield_text":"2","landuse_kind":"urban_area"},"arcs":[[283],[284],[285],[286]]},{"type":"LineString","properties":{"kind":"major_road","network":"GH:national","sort_rank":381,"kind_detail":"trunk","bus_network":"tr\u00f4 tr\u00f4","source":"openstreetmap.org","min_zoom":8.0,"bus_shield_text":"64","shield_text":"1","landuse_kind":"urban_area","ref":"N1","id":470787831},"arcs":[287]},{"type":"MultiLineString","properties":{"bus_network":"tr\u00f4 tr\u00f4","sort_rank":380,"kind_detail":"primary","kind":"major_road","source":"openstreetmap.org","min_zoom":8.0,"bus_shield_text":"3","landuse_kind":"urban_area"},"arcs":[[288],[289],[290],[291],[292],[293]]},{"type":"LineString","properties":{"bus_network":"tr\u00f4 tr\u00f4","sort_rank":380,"kind_detail":"primary","kind":"major_road","source":"openstreetmap.org","min_zoom":8.0,"bus_shield_text":"61","landuse_kind":"urban_area"},"arcs":[294]},{"type":"MultiLineString","properties":{"bus_network":"tr\u00f4 tr\u00f4","network":"GH:national","sort_rank":381,"landuse_kind":"urban_area","kind":"major_road","source":"openstreetmap.org","min_zoom":8.0,"bus_shield_text":"11","shield_text":"6","kind_detail":"trunk","ref":"N6"},"arcs":[[295],[296],[297]]},{"type":"LineString","properties":{"kind":"major_road","sort_rank":381,"kind_detail":"trunk","bus_network":"tr\u00f4 tr\u00f4","source":"openstreetmap.org","min_zoom":8.0,"bus_shield_text":"55","landuse_kind":"urban_area","ref":"N6","id":509880398},"arcs":[298]},{"type":"LineString","properties":{"kind":"major_road","network":"GH:national","sort_rank":381,"kind_detail":"trunk","source":"openstreetmap.org","min_zoom":8.0,"shield_text":"8","ref":"N8"},"arcs":[299]},{"type":"LineString","properties":{"kind":"major_road","network":"GH:regional","sort_rank":380,"kind_detail":"primary","source":"openstreetmap.org","min_zoom":8.0,"shield_text":"15","ref":"R15","id":167071530},"arcs":[300]},{"type":"MultiLineString","properties":{"bus_network":"tr\u00f4 tr\u00f4","sort_rank":380,"kind_detail":"primary","kind":"major_road","source":"openstreetmap.org","min_zoom":8.0,"bus_shield_text":"23","landuse_kind":"urban_area"},"arcs":[[301],[302],[303],[304]]},{"type":"LineString","properties":{"kind":"major_road","sort_rank":380,"kind_detail":"primary","bus_network":"tr\u00f4 tr\u00f4","source":"openstreetmap.org","min_zoom":8.0,"bus_shield_text":"469","landuse_kind":"urban_area","id":524510160},"arcs":[305]},{"type":"LineString","properties":{"bus_network":"tr\u00f4 tr\u00f4","network":"GH:national","sort_rank":381,"landuse_kind":"urban_area","kind":"major_road","source":"openstreetmap.org","min_zoom":8.0,"bus_shield_text":"82","shield_text":"6","kind_detail":"trunk","ref":"N6"},"arcs":[306]},{"type":"MultiLineString","properties":{"kind":"major_road","network":"GH:inter-regional","sort_rank":380,"kind_detail":"primary","source":"openstreetmap.org","min_zoom":8.0,"shield_text":"2","ref":"IR2"},"arcs":[[307],[308]]},{"type":"MultiLineString","properties":{"bus_network":"tr\u00f4 tr\u00f4","sort_rank":380,"kind_detail":"primary","kind":"major_road","source":"openstreetmap.org","min_zoom":8.0,"bus_shield_text":"173","landuse_kind":"urban_area"},"arcs":[[309],[310],[311],[312]]},{"type":"LineString","properties":{"kind":"major_road","sort_rank":380,"kind_detail":"primary","bus_network":"tr\u00f4 tr\u00f4","source":"openstreetmap.org","min_zoom":8.0,"bus_shield_text":"262","id":177958814},"arcs":[313]},{"type":"MultiLineString","properties":{"bus_network":"tr\u00f4 tr\u00f4","sort_rank":380,"kind_detail":"primary","kind":"major_road","source":"openstreetmap.org","min_zoom":8.0,"bus_shield_text":"188","landuse_kind":"urban_area"},"arcs":[[314],[315]]},{"type":"MultiLineString","properties":{"source":"openstreetmap.org","kind":"major_road","landuse_kind":"residential","sort_rank":381,"kind_detail":"trunk","min_zoom":8.0},"arcs":[[316],[317],[318],[319],[320],[321]]},{"type":"MultiLineString","properties":{"bus_network":"tr\u00f4 tr\u00f4","sort_rank":380,"kind_detail":"primary","kind":"major_road","source":"openstreetmap.org","min_zoom":8.0,"bus_shield_text":"468","landuse_kind":"urban_area"},"arcs":[[322],[323]]},{"type":"LineString","properties":{"bus_network":"tr\u00f4 tr\u00f4","sort_rank":380,"kind_detail":"primary","kind":"major_road","source":"openstreetmap.org","min_zoom":8.0,"bus_shield_text":"307","landuse_kind":"urban_area"},"arcs":[324]},{"type":"LineString","properties":{"kind":"highway","sort_rank":383,"landuse_kind":"urban_area","source":"openstreetmap.org","min_zoom":8.0,"kind_detail":"motorway","ref":"N1","id":148930862},"arcs":[325]},{"type":"MultiLineString","properties":{"bus_network":"tr\u00f4 tr\u00f4","sort_rank":380,"kind_detail":"primary","kind":"major_road","source":"openstreetmap.org","min_zoom":8.0,"bus_shield_text":"383","landuse_kind":"urban_area"},"arcs":[[326],[327]]},{"type":"LineString","properties":{"kind":"major_road","network":"GH:national","sort_rank":381,"kind_detail":"trunk","bus_network":"tr\u00f4 tr\u00f4","source":"openstreetmap.org","min_zoom":8.0,"bus_shield_text":"90","shield_text":"6","landuse_kind":"urban_area","ref":"N6","id":514290519},"arcs":[328]}]},"earth":{"type":"GeometryCollection","geometries":[{"type":"Polygon","properties":{"sort_rank":10,"source":"naturalearthdata.com","kind":"earth","min_zoom":0.0,"id":4694},"arcs":[[329]]}]},"landuse":{"type":"GeometryCollection","geometries":[{"type":"Polygon","properties":{"source":"openstreetmap.org","kind":"residential","area":126677000,"tier":2,"id":527845231,"min_zoom":7.0,"sort_rank":20},"arcs":[[330]]},{"type":"MultiPolygon","properties":{"source":"naturalearthdata.com","kind":"urban_area","name":"","area":495942712,"sort_rank":11,"min_zoom":4.0},"arcs":[[[331]],[[332]],[[333]]]},{"type":"MultiPolygon","properties":{"source":"openstreetmap.org","kind":"residential","tier":2,"area":55060288,"sort_rank":20,"min_zoom":8.0},"arcs":[[[334]],[[335]]]}]}},"type":"Topology","transform":{"translate":[-1.40625,4.2149431414],"scale":[0.0003433228,0.0003420514]},"arcs":[[[0,1899],[420,108],[249,36],[461,256],[615,33],[214,52],[150,81],[241,216],[580,210],[368,323],[380,87],[418,173]],[[2966,3706],[-140,238],[16,101],[-50,51]],[[2954,3700],[12,6]],[[0,2493],[171,41],[4,24],[80,23],[227,15],[134,101],[79,22],[57,58],[82,24],[90,65],[814,59],[241,205],[6,42],[300,94],[50,60],[309,73],[104,120],[-6,34],[129,63],[83,84]],[[2966,3706],[11,6]],[[2977,3712],[470,125],[352,132],[158,104],[103,23]],[[0,2509],[4,1],[29,1],[61,-3],[29,2],[32,13],[67,40],[31,9],[190,5],[60,13],[115,52],[59,35],[27,25],[30,43],[304,131],[47,12],[48,5],[36,29],[23,7],[10,-26],[15,-27],[35,-1],[70,18],[72,5],[27,9],[20,25],[43,-37],[67,-3],[216,31],[44,28],[69,81],[170,140],[38,14],[150,106],[25,-42],[48,16],[47,36],[21,21],[35,0],[204,50],[104,65],[40,40],[15,45],[23,33],[214,180],[36,17],[18,9],[131,17],[625,202],[47,4],[25,9],[17,14],[38,38],[14,8],[124,42],[7,0],[0,-4096],[-4096,0],[0,2509]],[[0,2509],[4,1],[29,1],[61,-3],[29,2],[32,13],[67,40],[31,9],[190,5],[60,13],[115,52],[59,35],[27,25],[30,43],[304,131],[47,12],[48,5],[36,29],[23,7],[10,-26],[15,-27],[35,-1],[70,18],[72,5],[27,9],[20,25],[43,-37],[67,-3],[216,31],[44,28],[69,81],[170,140],[38,14],[150,106],[25,-42],[48,16],[47,36],[21,21],[35,0],[204,50],[104,65],[40,40],[15,45],[23,33],[214,180],[36,17],[18,9],[131,17],[625,202],[47,4],[25,9],[17,14],[38,38],[14,8],[124,42]],[[3361,3977],[-36,14]],[[3378,4070],[116,26]],[[3542,3968]],[[3551,3963],[-9,5]],[[3561,3957],[1,0]],[[3593,3940],[-1,0]],[[3596,3938],[12,-17]],[[3611,3923],[-15,15]],[[3323,3990]],[[3354,3981],[35,-21]],[[3428,3937],[-3,-7]],[[3425,3931],[3,6]],[[3451,3957],[-23,-20]],[[0,2590],[80,17],[247,-20]],[[513,2678],[87,84],[132,0],[324,183],[56,67],[15,60]],[[1127,3074],[2,3]],[[1129,3077]],[[1129,3078],[0,-1]],[[1130,3078],[1,0]],[[1131,3078],[-1,0]],[[1131,3078],[217,49],[49,-20],[150,142],[93,-9],[123,48],[120,-5],[319,124]],[[2229,3420],[191,203],[53,97],[130,76],[137,28]],[[1130,3078],[-1,1],[0,-2],[1,0],[0,1]],[[3323,3990],[6,2]],[[3566,4019],[-92,76]],[[3473,4093],[1,0]],[[3470,3960],[2,1]],[[3238,4096],[13,-55]],[[3289,4008],[-22,13]],[[3486,3867],[2,3]],[[3421,3941],[-12,7]],[[3527,4049],[-7,4]],[[3389,3960],[-28,17]],[[3393,3958],[-2,1]],[[3260,4024],[8,-4]],[[3262,3960],[-4,-5]],[[3503,3910],[-2,-1]],[[3521,3930],[-17,-20]],[[3518,3906],[-2,6]],[[3521,3931]],[[3539,3962],[-17,-31]],[[3526,3937],[13,25]],[[3542,3968],[-1,0]],[[3037,3910],[-2,1],[-27,-9]],[[3019,3905],[18,5]],[[3123,3898],[-49,0]],[[3074,3898],[49,0]],[[3474,4095],[-2,-1]],[[3461,3959],[-28,126],[61,11]],[[1130,3079],[-1,0]],[[1130,3078],[0,1]],[[2001,3814],[-70,-36],[-139,60],[-84,9],[-100,67],[-38,-54],[-167,-113],[-99,-201],[-122,-158],[-50,-161],[-2,-148]],[[2171,3939],[99,157]],[[3517,3906]],[[1127,3072],[0,2]],[[3329,3992],[25,-11]],[[3408,3948],[1,0]],[[3409,3948]],[[2059,3841],[-58,-27]],[[2052,3856],[84,28],[35,55]],[[3542,3968],[-4,2]],[[3542,3967],[0,1]],[[3566,4018],[-2,-4]],[[3564,4014],[-16,-35],[-3,-6]],[[3545,3973],[8,16]],[[3562,4011],[2,3]],[[3564,4014],[2,3],[1,1]],[[3432,4081],[11,-34]],[[545,2694],[-19,-13]],[[594,2752],[6,10]],[[2990,3898],[0,-1]],[[3025,3908],[1,0]],[[3452,3866],[-2,0]],[[3486,3880],[-17,-4]],[[3860,4046],[5,11]],[[3467,3963],[1,-2]],[[3469,3961],[-1,2]],[[3409,3948],[1,-1]],[[3271,3965]],[[3428,4094],[1,-4]],[[3470,3960],[-1,1]],[[3477,3962],[11,3]],[[3512,3971],[10,2]],[[3251,4041],[9,-17]],[[3478,3963],[-35,-12]],[[3443,3951],[35,12]],[[3444,3952]],[[3450,3858],[0,8]],[[3453,3921],[6,-2]],[[3465,3862],[-5,12]],[[3479,3919],[-7,-3]],[[3479,3921],[1,-3]],[[3479,3918],[1,0]],[[3480,3918],[18,2],[12,-2]],[[3510,3918],[1,-1]],[[3497,3881],[-1,1]],[[3502,3900],[1,1]],[[3503,3895],[2,-4]],[[3516,3912],[-6,6]],[[3510,3918],[-4,4]],[[3507,3970]],[[3517,3907],[0,-1]],[[3520,3901],[-2,5]],[[3522,4050],[1,0]],[[3533,3901],[0,-2]],[[3536,3899],[0,2]],[[3545,3973],[-6,-11]],[[3539,3962],[6,11]],[[3554,3961]],[[3554,3961],[1,-1]],[[3556,3960]],[[3558,3959]],[[3559,3958]],[[3573,4016],[-1,0]],[[3577,3948]],[[3583,3945],[-1,0]],[[3598,3918],[0,-1]],[[3679,3942],[-1,1]],[[3553,3989],[9,22]],[[3473,4095],[0,1]],[[3492,3966],[-4,0]],[[3488,3965],[24,6]],[[3522,3930],[-1,1]],[[3522,3973],[39,-16]],[[3270,3963],[7,16]],[[3371,4069],[-26,-11],[-5,-3],[-6,-4],[-36,-47]],[[3299,4004],[72,65]],[[3420,4081],[12,4]],[[3490,4096],[-36,-4],[-30,-9]],[[3434,4086],[60,10]],[[3542,3902],[-28,-7]],[[3562,3957],[6,-4]],[[3568,3952],[1,0]],[[3570,3953],[-1,0]],[[3570,3952],[23,-12]],[[3592,3940],[-22,13]],[[3583,4096],[0,-1]],[[3256,3952],[-1,-3],[-25,-21]],[[3230,3928],[-2,-2],[-105,-28]],[[3123,3898],[104,28],[3,2]],[[3230,3928],[27,25],[7,8]],[[327,2587],[24,2]],[[362,2594],[-6,-4]],[[356,2590],[6,4]],[[362,2594],[31,58]],[[406,2655],[-13,-3]],[[406,2655],[107,23]],[[3498,3920],[-11,1]],[[3264,3961],[59,29]],[[3390,3959],[18,-11]],[[3466,3853],[1,-2]],[[3520,3897],[0,4]],[[3462,3869],[3,-7]],[[2052,3856],[-14,49]],[[2059,3841],[20,-71]],[[2211,3449],[12,-31]],[[2223,3418],[0,-2]],[[2224,3417],[-1,1]],[[3298,4004],[-19,-22],[-10,-14]],[[3277,3979],[22,25]],[[3424,4083],[-42,-10],[-11,-4]],[[3371,4069],[49,12]],[[3432,4085],[2,1]],[[3410,3947],[17,-11]],[[3450,3865],[0,-7]],[[3513,3895],[-12,-9]],[[3501,3886],[-2,-1],[-1,-3],[-12,-2]],[[3488,3870],[12,15],[1,1]],[[3501,3886],[4,5],[-2,4]],[[359,2716],[-7,4]],[[3449,3846],[1,12]],[[3450,3853]],[[3465,3851]],[[3466,3859],[-1,3]],[[3465,3851]],[[3466,3851],[4,2]],[[3956,4081],[-75,10]],[[3956,4081],[13,3]],[[3969,4084],[54,12]],[[3450,3866],[0,-1]],[[3865,4057],[18,39]],[[2059,3841],[-7,15]],[[3450,3858],[36,9]],[[3488,3870]],[[3450,3867],[0,-1]],[[3450,3866],[13,2]],[[3463,3868],[-11,-2]],[[2202,3407],[21,9]],[[2223,3416]],[[2223,3416],[1,-1]],[[2224,3417],[-1,-1]],[[2223,3416],[1,-1]],[[2224,3415],[1,1]],[[2226,3417],[-2,0]],[[2225,3416],[-1,1]],[[2225,3416],[1,1]],[[2226,3417],[3,3]],[[2844,3855],[-104,-31]],[[2844,3855],[29,5]],[[2873,3860],[-29,-5]],[[3468,3959],[2,1]],[[3378,4070],[116,26]],[[3487,3921],[-9,1]],[[3447,3925],[6,-4]],[[3453,3921],[-6,4]],[[3452,3957],[-1,0]],[[3472,3916],[-14,3]],[[3459,3919],[13,-4]],[[2857,3857],[-89,186]],[[3468,3961],[-3,-1]],[[3487,3965],[-11,-2]],[[3409,3948],[-16,10]],[[3469,3961],[-1,-2]],[[3462,4015],[-13,22]],[[3473,4096]],[[3473,4096],[14,0]],[[3487,4096],[7,0]],[[3168,3913]],[[3169,3913]],[[3271,3965]],[[3348,3984],[0,1]],[[3389,3960],[1,-1]],[[3437,4073],[-1,0]],[[3467,3966],[0,-3]],[[3468,3963],[-1,3]],[[356,2590]],[[3429,4090],[3,-9]],[[3473,3962],[-4,-1]],[[3472,3961],[5,1]],[[3476,3963],[-3,-1]],[[3488,3966],[-1,-1]],[[3569,3953],[-77,13]],[[3536,3971],[14,-8]],[[3472,3915],[7,3]],[[3427,3936],[1,-1]],[[3428,3935],[19,-10]],[[3447,3925],[-18,11]],[[3458,3919],[-5,2]],[[3469,3876],[-7,-7]],[[3427,3937],[-6,4]],[[3472,4094],[0,-1]],[[3473,4096],[0,-1]],[[3473,3962]],[[3521,3931],[1,-1]],[[3478,3922],[1,-3]],[[3267,4021],[-29,75]],[[3779,3989],[-79,-41]],[[3859,4045],[1,1]],[[3425,3930],[-4,-10],[0,-1],[0,-1]],[[3421,3918],[0,-1]],[[3421,3917],[2,-6],[5,-11],[22,-33]],[[3450,3866],[0,1],[-21,32],[-1,2],[-7,16]],[[3421,3917],[0,1]],[[3421,3918],[0,1],[4,12]],[[3429,3937],[23,20]],[[3464,3959],[4,1]],[[3443,4049],[-13,39]],[[3427,4096],[1,-2]],[[3008,3902],[-135,-42]],[[2873,3860],[13,1],[133,44]],[[3037,3910],[37,-12]],[[3074,3898],[-37,12]],[[3506,3922],[-8,-2]],[[3501,3909],[2,-14]],[[3503,3895],[19,35]],[[3505,3908],[-2,2]],[[3325,3991],[-63,-31]],[[3391,3959],[-2,1]],[[3268,4020],[30,-17]],[[3298,4003],[-9,5]],[[3465,3960],[-13,-3]],[[3466,3859],[-17,-13]],[[3467,3851],[-1,8]],[[3583,4095],[-17,-76]],[[3567,4018],[3,7],[11,51],[3,20]],[[3569,3953],[-1,-1]],[[3569,3952],[1,1]],[[3572,4016],[11,-2]],[[3584,4014],[-11,2]],[[3258,3955],[-2,-3]],[[3583,4014],[4,-1]],[[3678,3943],[-1,1],[-58,69]],[[3619,4013],[-2,2],[-33,-1]],[[3700,3948],[-106,-32]],[[3599,4010],[18,4],[2,-1]],[[3619,4013],[41,-45]],[[3523,4050],[0,1]],[[3443,4047],[24,-81]],[[3449,4037],[-6,11]],[[3467,3966],[-5,49]],[[3443,4048],[0,1]],[[596,2758],[-20,190],[58,90],[35,179],[69,121],[12,136],[-33,93],[-5,236],[-86,77],[-45,103],[-8,90],[-36,23]],[[2768,4043],[-25,53]],[[3472,4093],[94,-75]],[[3587,4013],[12,-3]],[[3594,3916],[128,38],[137,91]],[[3660,3968],[18,-26]],[[3570,3907],[-11,-2]],[[3430,4089],[-2,7]],[[1975,4096],[63,-191]],[[2079,3770],[132,-321]],[[3498,3882]],[[3514,3895],[-1,0]],[[3517,3906],[22,-5]],[[3559,3905],[-17,-3]],[[3465,3862],[1,-3]],[[3451,3957],[0,-1]],[[3452,3956],[12,3]],[[2877,3861],[0,-1]],[[2908,3863],[-1,0]],[[2917,3866],[0,-1]],[[2950,3878],[3,2]],[[2975,3890]],[[3071,3901]],[[3505,3891],[15,6]],[[3594,3916],[-24,-9]],[[3523,4051],[-1,-1]],[[3269,3968],[1,-5]],[[3511,3917],[6,-10]],[[3522,3931],[4,6]],[[3430,4088],[0,1]],[[4089,4096],[-124,-42],[-14,-8],[-38,-38],[-17,-14],[-25,-9],[-47,-4],[-625,-202],[-131,-17],[-18,-9],[-36,-17],[-214,-180],[-23,-33],[-15,-45],[-40,-40],[-104,-65],[-204,-50],[-35,0],[-21,-21],[-47,-36],[-48,-16],[-25,42],[-150,-106],[-38,-14],[-170,-140],[-69,-81],[-44,-28],[-216,-31],[-67,3],[-43,37],[-20,-25],[-27,-9],[-72,-5],[-70,-18],[-35,1],[-15,27],[-10,26],[-23,-7],[-36,-29],[-48,-5],[-47,-12],[-304,-131],[-30,-43],[-27,-25],[-59,-35],[-115,-52],[-60,-13],[-190,-5],[-31,-9],[-67,-40],[-32,-13],[-29,-2],[-61,3],[-29,-1],[-4,-1],[0,1587],[4089,0]],[[2724,3924],[51,-5],[-46,85],[34,4],[-2,30],[37,25],[112,-76],[25,-69],[29,6],[-13,-25],[23,21],[1,-28],[69,20],[29,42],[2,-196],[-126,-57],[36,73],[-29,16],[-35,-24],[14,-66],[-26,-39],[-31,-17],[-42,17],[-82,83],[-22,73],[37,33],[-45,74]],[[443,2577],[-120,-3],[23,78],[55,31],[-29,53],[-100,57],[1,83],[188,-128],[70,-94],[21,-42],[-109,-35]],[[0,2706],[0,65],[46,-23],[-18,-44],[-28,2]],[[3870,4096],[-24,-113],[-647,-204],[-103,-14],[33,100],[-10,52],[-32,0],[-34,123],[-63,7],[129,49],[751,0]],[[2189,3452],[31,-5],[28,-88],[73,0],[6,-33],[-42,-58],[-40,-10],[-56,194]],[[1995,3820],[19,42],[17,-9],[-3,52],[120,-1],[22,36],[19,-21],[-5,-30],[-103,-30],[6,-89],[-21,-1],[-11,37],[-33,-10],[-27,24]]]}