{"objects":{"water":{"type":"GeometryCollection","geometries":[{"type":"Polygon","properties":{"source":"naturalearthdata.com","kind":"ocean","area":1576712559132672,"sort_rank":200,"min_zoom":0.0,"id":1},"arcs":[[451]]},{"type":"LineString","properties":{"source":"naturalearthdata.com","kind":"ocean","sort_rank":205,"boundary":true,"min_zoom":0.0,"id":19},"arcs":[452]}]},"buildings":{"type":"GeometryCollection","geometries":[]},"places":{"type":"GeometryCollection","geometries":[{"type":"Point","properties":{"name:el":"\u039a\u03b1\u03ad\u03bd","kind":"locality","name":"Caen","name:lt":"Kanas","kind_detail":"city","name:sr":"\u041a\u0430\u043d","source":"openstreetmap.org","min_zoom":8.0,"name:uk":"\u041a\u0430\u043d","name:ru":"\u041a\u0430\u043d","population":106538,"id":412476714,"name:ja":"\u30ab\u30fc\u30f3"},"coordinates":[3021,1165]},{"type":"Point","properties":{"source":"openstreetmap.org","kind":"locality","name":"H\u00e9rouville-Saint-Clair","kind_detail":"town","population":21434,"min_zoom":8.0,"id":441785713},"coordinates":[3119,1255]},{"type":"Point","properties":{"name:el":"\u03a3\u03b1\u03b9\u03bd \u039b\u03bf","kind":"locality","name":"Saint-L\u00f4","kind_detail":"town","name:da":"Saint-Lo","source":"openstreetmap.org","min_zoom":8.0,"name:uk":"\u0421\u0435\u043d-\u041b\u043e","name:ru":"\u0421\u0435\u043d-\u041b\u043e","id":633972384,"population":18718},"coordinates":[919,864]},{"type":"Point","properties":{"kind":"locality","name":"Bayeux","kind_detail":"town","source":"openstreetmap.org","min_zoom":8.0,"name:la":"Augustodurum","id":409700749,"population":13222},"coordinates":[2050,1584]},{"type":"Point","properties":{"kind":"locality","name":"Ifs","kind_detail":"town","source":"openstreetmap.org","min_zoom":8.0,"name:uk":"\u0406\u0444","name:ru":"\u0418\u0444","id":441795692,"population":11028},"coordinates":[3075,979]},{"type":"Point","properties":{"kind":"locality","name":"Mondeville","kind_detail":"town","source":"openstreetmap.org","min_zoom":8.0,"name:uk":"\u041c\u043e\u043d\u0434\u0432\u0456\u043b\u044c","name:ru":"\u041c\u043e\u043d\u0434\u0432\u0438\u043b\u044c","id":459795753,"population":9450},"coordinates":[3162,1134]},{"type":"Point","properties":{"kind":"locality","name":"Ouistreham","kind_detail":"town","source":"openstreetmap.org","min_zoom":8.0,"name:uk":"\u0423\u0457\u0441\u0442\u0440\u0435\u0430\u043c","loc_name":"Ouistreham Riva-Bella","name:ru":"\u0423\u0438\u0441\u0442\u0440\u0435\u0430\u043c","id":26698295,"population":9352},"coordinates":[3345,1588]}]},"transit":{"type":"GeometryCollection","geometries":[{"type":"MultiLineString","properties":{"kind":"train","description":"Voir aussi la relation TER Basse Normandie","service":"regional","sort_rank":275,"colour":"#a3429b","source":"openstreetmap.org","min_zoom":6.0,"osm_relation":true,"network":"TER Pays de la Loire","operator":"SNCF","ref":"TER 24","colour_name":"darkorchid","name":"TER 24 : Le Mans \u2212 Alen\u00e7on \u2212 Caen"},"arcs":[[2],[3],[4],[5],[6],[7],[8],[9],[10],[11],[12],[13],[14],[15],[16],[17],[18],[19],[20],[21],[22],[23],[24],[25],[26]]},{"type":"MultiLineString","properties":{"kind":"train","network":"TER Bretagne","service":"regional","sort_rank":275,"colour":"#b1c903","name":"TER 33 : Rennes - Caen","source":"openstreetmap.org","min_zoom":6.0,"osm_relation":true,"operator":"SNCF","ref":"TER 33","colour_name":"yellowgreen","description":"Voir aussi la relation TER Basse-Normandie"},"arcs":[[27],[28],[29],[30],[31],[32],[33],[34],[35],[36],[37],[38],[39],[40],[41],[42],[43],[44],[45],[46],[47],[48],[49],[50],[51],[52],[53],[54],[55],[56],[57],[58],[59],[60],[61],[62],[63],[64],[65],[66],[67],[68],[69],[70],[71],[72],[73],[74],[75],[76],[77]]},{"type":"MultiLineString","properties":{"kind":"train","description":"Correspondance \u00e0 Caen pour Paris, \u00e0 Coutances pour Granville","service":"regional","sort_rank":275,"colour":"#fdbb00","name":"TER : (Granville) - Coutances - Saint-L\u00f4 - Caen - (Paris)","source":"openstreetmap.org","min_zoom":6.0,"osm_relation":true,"operator":"SNCF","ref":"TER","colour_name":"orange","network":"TER Basse-Normandie"},"arcs":[[78],[79],[80],[81],[82],[83],[84],[85],[86],[87],[88],[89],[90],[91],[92],[93],[94],[95],[96],[97],[98],[99],[100],[101],[102],[103],[104],[105],[106],[107],[108],[109],[110],[111],[112],[113],[114],[115],[116],[117],[118],[119],[120],[121],[122],[123],[124],[125],[126],[127],[128],[129],[130],[131],[132],[133],[134],[135],[136],[137],[138],[139],[140],[141],[142],[143],[144],[145],[146],[147]]},{"type":"MultiLineString","properties":{"kind":"train","network":"TER Haute-Normandie","service":"regional","sort_rank":275,"colour":"#ff6500","name":"TER : Caen - Bernay - Evreux - Paris","source":"openstreetmap.org","min_zoom":6.0,"operator":"SNCF","ref":"TER","osm_relation":true,"colour_name":"orangered"},"arcs":[[148],[149],[150],[151],[152],[153],[154],[155],[156],[157],[158],[159],[160],[161],[162],[163],[164],[165],[166],[167],[168],[169],[170],[171],[172],[173]]},{"type":"MultiLineString","properties":{"kind":"train","name":"IC : Tours \u2212 Le Mans \u2212 Caen","service":"national","sort_rank":275,"source":"openstreetmap.org","min_zoom":6.0,"operator":"SNCF","ref":"IC","osm_relation":true,"network":"Intercit\u00e9s"},"arcs":[[174],[175],[176],[177],[178],[179],[180],[181],[182],[183],[184],[185],[186],[187],[188],[189],[190],[191],[192],[193],[194],[195],[196],[197],[198],[199]]},{"type":"MultiLineString","properties":{"kind":"train","name":"TER : Caen - Rennes","service":"regional","sort_rank":275,"colour":"#ef9ac3","description":"Voir aussi la relation TER Bretagne n\u00b033","source":"openstreetmap.org","min_zoom":6.0,"osm_relation":true,"operator":"SNCF","ref":"TER","colour_name":"plum","network":"TER Basse-Normandie"},"arcs":[[200],[201],[202],[203],[204],[205],[206],[207],[208],[209],[210],[211],[212],[213],[214],[215],[216],[217],[218],[219],[220],[221],[222],[223],[224],[225],[226],[227],[228],[229],[230],[231],[232],[233],[234],[235],[236],[237],[238],[239],[240],[241],[242],[243],[244],[245],[246],[247],[248],[249]]},{"type":"LineString","properties":{"kind":"train","description":"Correspondance \u00e0 Trouville-Dauville pour Paris","service":"regional","sort_rank":275,"colour":"#de007a","name":"TER : Dives-Cabourg - Trouville-Deauville - (Paris)","source":"openstreetmap.org","min_zoom":6.0,"osm_relation":true,"operator":"SNCF","ref":"TER","id":-2077295,"colour_name":"crimson","network":"TER Basse-Normandie"},"arcs":[250]},{"type":"MultiLineString","properties":{"kind":"train","description":"Voir aussi les relation TER Pays de la Loire n\u00b024 et 25, Centre n\u00b027 et Intercit\u00e9s","service":"regional","sort_rank":275,"colour":"#e0001a","name":"TER : Caen - Le Mans - Tours","source":"openstreetmap.org","min_zoom":6.0,"osm_relation":true,"operator":"SNCF","ref":"TER","colour_name":"crimson","network":"TER Basse-Normandie"},"arcs":[[251],[252],[253],[254],[255],[256],[257],[258],[259],[260],[261],[262],[263],[264],[265],[266],[267],[268],[269],[270],[271],[272],[273],[274],[275],[276],[277]]},{"type":"MultiLineString","properties":{"kind":"train","name":"IC 303 : Paris \u2212 Caen \u2212 Cherbourg","service":"national","sort_rank":275,"colour":"#0868b3","source":"openstreetmap.org","min_zoom":6.0,"network":"Intercit\u00e9s","operator":"SNCF","ref":"IC 303","osm_relation":true,"colour_name":"lightteal"},"arcs":[[278],[279],[280],[281],[282],[283],[284],[285],[286],[287],[288],[289],[290],[291],[292],[293],[294],[295],[296],[297],[298],[299],[300],[301],[302],[303],[304],[305],[306],[307],[308],[309],[310],[311],[312],[313],[314],[315],[316],[317],[318],[319],[320],[321],[322],[323],[324],[325],[326],[327],[328],[329],[330],[331],[332],[333],[334],[335],[336],[337],[338],[339],[340],[341],[342]]},{"type":"MultiLineString","properties":{"kind":"train","name":"TER : Rouen - Caen","service":"regional","sort_rank":275,"colour":"#007f7f","source":"openstreetmap.org","min_zoom":6.0,"network":"TER Haute-Normandie","operator":"SNCF","ref":"TER","osm_relation":true,"colour_name":"teal"},"arcs":[[343],[344],[345],[346],[347],[348],[349],[350],[351],[352],[353],[354],[355],[356],[357],[358],[359],[360],[361],[362],[363],[364]]},{"type":"MultiLineString","properties":{"kind":"train","name":"TER : Cherbourg - Caen - Lisieux - Paris","service":"regional","sort_rank":275,"colour":"#6b5647","source":"openstreetmap.org","min_zoom":6.0,"network":"TER Basse-Normandie","operator":"SNCF","ref":"TER","osm_relation":true,"colour_name":"darkgrey"},"arcs":[[365],[366],[367],[368],[369],[370],[371],[372],[373],[374],[375],[376],[377],[378],[379],[380],[381],[382],[383],[384],[385],[386],[387],[388],[389],[390],[391],[392],[393],[394],[395],[396],[397],[398],[399],[400],[401],[402],[403],[404],[405],[406],[407],[408],[409],[410],[411],[412],[413],[414],[415],[416],[417],[418],[419],[420],[421],[422],[423],[424],[425],[426],[427],[428]]},{"type":"MultiLineString","properties":{"kind":"train","name":"TER : Caen - Rouen","service":"regional","sort_rank":275,"colour":"#008b7d","source":"openstreetmap.org","min_zoom":6.0,"network":"TER Basse-Normandie","operator":"SNCF","ref":"TER","osm_relation":true,"colour_name":"teal"},"arcs":[[429],[430],[431],[432],[433],[434],[435],[436],[437],[438],[439],[440],[441],[442],[443],[444],[445],[446],[447],[448],[449],[450]]}]},"pois":{"type":"GeometryCollection","geometries":[]},"boundaries":{"type":"GeometryCollection","geometries":[{"type":"LineString","properties":{"name:kg":"Fwalansa","name:ty":"Far\u0101ni","name:ka":"\u10e1\u10d0\u10e4\u10e0\u10d0\u10dc\u10d2\u10d4\u10d7\u10d8","name:ko":"\ud504\ub791\uc2a4","name:cv":"\u0424\u0440\u0430\u043d\u0446\u0438","name:cu":"\u0424\u0440\u0430\u043d\u043a\u0457\ua657","name:kl":"Frankrigi","name:cs":"Francie","name:ki":"Ubaranja","name:co":"Francia","name:kv":"\u0424\u0440\u0430\u043d\u0446\u0438\u044f","name:ku":"Fransa","name:ti":"\u1348\u1228\u1295\u1233\u12ed","name:ks":"\u0641\u0631\u065b\u0627\u0646\u0633","name:to":"Falanis\u0113","name:tl":"Pransiya","name:ce":"\u0424\u0440\u0430\u043d\u0446\u0438","name:ta":"\u0baa\u0bbf\u0bb0\u0bbe\u0ba9\u0bcd\u0b9a\u0bc1","name:tg":"\u0424\u0430\u0440\u043e\u043d\u0441\u0430","name:ca":"Fran\u00e7a","name:te":"\u0c2b\u0c4d\u0c30\u0c3e\u0c28\u0c4d\u0c38\u0c4d","name:cy":"Ffrainc","name:qu":"Ransiya","name:da":"Frankrig","name:de":"Frankreich","name:dz":"\u0f55\u0f62\u0f71\u0f53\u0f66\u0f72\u0f0b","source":"openstreetmap.org","name:kn":"\u0cab\u0ccd\u0cb0\u0cbe\u0ca8\u0ccd\u0cb8\u0ccd","name:dv":"\u078a\u07a6\u0783\u07a6\u0782\u07b0\u0790\u07ad\u0790\u07a8\u0788\u07a8\u078d\u07a7\u078c\u07b0","name:km":"\u1794\u17b6\u179a\u17b6\u17c6\u1784","name:lv":"Francija","name:lt":"Pranc\u016bzija","name:uz":"Fransiya","name:kk":"\u0424\u0440\u0430\u043d\u0446\u0438\u044f","name:ur":"\u0641\u0631\u0627\u0646\u0633","name:lb":"Frankr\u00e4ich","name:la":"Francia","name:lg":"Bufalansa","name:uk":"\u0424\u0440\u0430\u043d\u0446\u0456\u044f","name:ug":"\u0641\u0631\u0627\u0646\u0633\u0649\u064a\u06d5","name:li":"Frankriek","name:ln":"Falansia","name:lo":"\u0e9b\u0eb0\u0ec0\u0e97\u0e94\u0e9d\u0eb0\u0ea5\u0eb1\u0ec8\u0e87","name:el":"\u0393\u03b1\u03bb\u03bb\u03af\u03b1","name:eo":"Francujo","name":"France","name:tk":"Fransi\u00fda","name:th":"\u0e1b\u0e23\u0e30\u0e40\u0e17\u0e28\u0e1d\u0e23\u0e31\u0e48\u0e07\u0e40\u0e28\u0e2a","name:eu":"Frantzia","name:et":"Prantsusmaa","name:es":"Francia","name:ay":"Phransiya","name:rm":"Frantscha","name:rn":"Francia","name:az":"Fransa","name:ie":"Francia","name:id":"Perancis","name:ii":"\ua0d4\ua1e9","name:as":"\u09ab\u09cd\u09f0\u09be\u09a8\u09cd\u09b8","name:ar":"\u0641\u0631\u0646\u0633\u0627","name:io":"Francia","name:ak":"Fr\u025bnkyeman","name:am":"\u1348\u1228\u1295\u1223\u12ed","name:it":"Francia","name:an":"Francia","name:ru":"\u0424\u0440\u0430\u043d\u0446\u0438\u044f","name:rw":"Ubufaransa","name:af":"Frankryk","name:zu":"IFulansi","kind_detail":"2","name:za":"Fazgoz","name:zh-yue":"\u6cd5\u570b","name:zh":"\u6cd5\u570b","name:so":"Faransiiska","name:sm":"Farani","name:sl":"Francija","name:sk":"Franc\u00fazsko","name:ja":"\u30d5\u30e9\u30f3\u30b9","name:si":"\u0db4\u0dca\u200d\u0dbb\u0d82\u0dc1\u0dba","name:sh":"Francuska","name:sg":"Far\u00e2nzi","name:se":"Frankriika","name:sc":"Frantza","name:br":"Bro-C'hall","name:bs":"Francuska","name:bn":"\u09ab\u09cd\u09b0\u09be\u09a8\u09cd\u09b8","name:bo":"\u0f67\u0fa5\u0f0b\u0f62\u0f53\u0f0b\u0f66\u0f72\u0f0d","name:bi":"Franis","name:sw":"Ufaransa","name:be":"\u0424\u0440\u0430\u043d\u0446\u044b\u044f","name:su":"Perancis","name:bg":"\u0424\u0440\u0430\u043d\u0446\u0438\u044f","name:ss":"IFulansi","name:ba":"\u0424\u0440\u0430\u043d\u0446\u0438\u044f","name:sq":"Franca","name:jv":"Prancis","name:sa":"\u092b\u094d\u0930\u093e\u0928\u094d\u0938\u0926\u0947\u0936\u0903","name:ia":"Francia","name:pt":"Fran\u00e7a","name:ps":"\u0641\u0631\u0627\u0646\u0633\u0647","name:oc":"Fran\u00e7a","min_zoom":8.0,"name:ro":"Fran\u021ba","name:zh-min-nan":"Hoat-kok","name:os":"\u0424\u0440\u0430\u043d\u0446","name:or":"\u0b2b\u0b4d\u0b30\u0b3e\u0b28\u0b4d\u0b38","name:pl":"Francja","name:st":"Fora","sort_rank":262,"name:sr":"\u0424\u0440\u0430\u043d\u0446\u0443\u0441\u043a\u0430","osm_relation":true,"name:pa":"\u0a2b\u0a4d\u0a30\u0a3e\u0a02\u0a38","name:tr":"Fransa","name:hi":"\u092b\u093c\u094d\u0930\u093e\u0928\u094d\u0938","name:sv":"Frankrike","name:he":"\u05e6\u05e8\u05e4\u05ea","name:ha":"Faransa","name:hy":"\u0556\u0580\u0561\u0576\u057d\u056b\u0561","name:ht":"Frans","name:hu":"Franciaorsz\u00e1g","name:hr":"Francuska","kind":"country","name:is":"Frakkland","name:yi":"\u05e4\u05e8\u05d0\u05e0\u05e7\u05e8\u05d9\u05d9\u05da","name:yo":"Fr\u00e1ns\u00ec","name:mt":"Franza","alt_name:eo":"Francio","name:ms":"Perancis","name:mr":"\u092b\u094d\u0930\u093e\u0928\u094d\u0938","name:my":"\u1015\u103c\u1004\u103a\u101e\u1005\u103a\u1014\u102d\u102f\u1004\u103a\u1004\u1036","official_name":"R\u00e9publique fran\u00e7aise","name:kw":"Pow Frynk","name:mg":"Frantsa","name:vi":"Ph\u00e1p","name:ml":"\u0d2b\u0d4d\u0d30\u0d3e\u0d7b\u0d38\u0d4d","name:mn":"\u0424\u0440\u0430\u043d\u0446","name:mi":"W\u012bw\u012b","id":-2202162,"name:mk":"\u0424\u0440\u0430\u043d\u0446\u0438\u0458\u0430","name:vo":"Frans\u00e4n","name:fa":"\u0641\u0631\u0627\u0646\u0633\u0647","name:ff":"Faransi","name:fi":"Ranska","name:ky":"\u0424\u0440\u0430\u043d\u0446\u0438\u044f","name:fo":"Frakland","name:fy":"Frankryk","name:nl":"Frankrijk","name:nn":"Frankrike","name:no":"Frankrike","name:na":"Prant","name:ne":"\u092b\u094d\u0930\u093e\u0928\u094d\u0938","name:wo":"Faraas","name:nv":"D\u00e1\u00e1ghahii Din\u00e9\u02bci\u02bc Bik\u00e9yah","name:ga":"An Fhrainc","name:gd":"An Fhraing","name:gn":"Hy\u00e3sia","name:gl":"Francia","maritime_boundary":true,"name:gv":"Yn Rank","name:gu":"\u0aab\u0acd\u0ab0\u0abe\u0aa8\u0acd\u0ab8","name:tt":"\u0424\u0440\u0430\u043d\u0446\u0438\u044f"},"arcs":[0]},{"type":"LineString","properties":{"name:pt":"Normandia","name:ro":"Normandia","name:sk":"Normandia","name:ja":"\u30ce\u30eb\u30de\u30f3\u30c7\u30a3\u30fc","name:oc":"Normandia","name:ar":"\u0646\u0648\u0631\u0645\u0627\u0646\u062f\u064a","name:eo":"Normandio","name:br":"Normandi","min_zoom":8.0,"name:la":"Normannia","name:it":"Normandia","name:uk":"\u041d\u043e\u0440\u043c\u0430\u043d\u0434\u0456\u044f","name:ru":"\u041d\u043e\u0440\u043c\u0430\u043d\u0434\u0438\u044f","name:be":"\u041d\u0430\u0440\u043c\u0430\u043d\u0434\u044b\u044f","name:pl":"Normandia","id":-3793170,"name:ca":"Normandia","kind":"region","name:en":"Normandy","name":"Normandie","sort_rank":256,"kind_detail":"4","name:he":"\u05e0\u05d5\u05e8\u05de\u05e0\u05d3\u05d9","source":"openstreetmap.org","maritime_boundary":true,"osm_relation":true,"name:eu":"Normandia","name:et":"Normandia","name:nl":"Normandi\u00eb","name:es":"Normand\u00eda"},"arcs":[1]}]},"roads":{"type":"GeometryCollection","geometries":[{"type":"LineString","properties":{"kind":"major_road","sort_rank":377,"kind_detail":"tertiary","is_bicycle_related":true,"bicycle_shield_text":"EV4","bicycle_network":"icn","source":"openstreetmap.org","min_zoom":8.0,"ref":"D 269","id":84748391},"arcs":[453]},{"type":"MultiLineString","properties":{"bus_network":"fr_twisto","sort_rank":380,"kind_detail":"primary","kind":"major_road","source":"openstreetmap.org","min_zoom":8.0,"bus_shield_text":"22","ref":"D 675"},"arcs":[[454],[455],[456],[457],[458]]},{"type":"LineString","properties":{"kind":"major_road","sort_rank":380,"kind_detail":"primary","bus_network":"Bus Verts","source":"openstreetmap.org","min_zoom":8.0,"bus_shield_text":"154","id":51258006},"arcs":[459]},{"type":"MultiLineString","properties":{"kind":"major_road","sort_rank":379,"landuse_kind":"protected_area","is_bicycle_related":true,"bicycle_shield_text":"EV4","bicycle_network":"icn","source":"openstreetmap.org","min_zoom":8.0,"kind_detail":"secondary","ref":"D 613"},"arcs":[[460],[461],[462]]},{"type":"MultiLineString","properties":{"kind":"major_road","network":"e-road","sort_rank":381,"landuse_kind":"protected_area","source":"openstreetmap.org","min_zoom":8.0,"kind_detail":"trunk","shield_text":"03","ref":"N 13"},"arcs":[[463],[464],[465],[466],[467],[468],[469],[470],[471],[472],[473],[474]]},{"type":"LineString","properties":{"kind":"major_road","sort_rank":377,"kind_detail":"tertiary","is_bicycle_related":true,"bicycle_shield_text":"EV4","bicycle_network":"icn","source":"openstreetmap.org","min_zoom":8.0,"landuse_kind":"protected_area","ref":"D 67","id":208422823},"arcs":[475]},{"type":"LineString","properties":{"kind":"major_road","sort_rank":377,"landuse_kind":"protected_area","is_bicycle_related":true,"bicycle_shield_text":"EV4","bicycle_network":"icn","source":"openstreetmap.org","min_zoom":8.0,"kind_detail":"tertiary","ref":"D 69"},"arcs":[476]},{"type":"MultiLineString","properties":{"kind":"major_road","sort_rank":379,"landuse_kind":"residential","is_bicycle_related":true,"bicycle_shield_text":"EV4","bicycle_network":"icn","source":"openstreetmap.org","min_zoom":8.0,"kind_detail":"secondary","ref":"D 514"},"arcs":[[477],[478],[479],[480],[481],[482]]},{"type":"MultiLineString","properties":{"source":"openstreetmap.org","kind":"major_road","landuse_kind":"residential","sort_rank":380,"kind_detail":"primary","ref":"D 613","min_zoom":8.0},"arcs":[[483],[484],[485],[486],[487],[488],[489],[490],[491],[492],[493],[494],[495],[496],[497],[498]]},{"type":"MultiLineString","properties":{"kind":"major_road","sort_rank":379,"kind_detail":"secondary","is_bicycle_related":true,"bicycle_shield_text":"V43","bicycle_network":"ncn","source":"openstreetmap.org","min_zoom":8.0,"ref":"D 6"},"arcs":[[499],[500]]},{"type":"MultiLineString","properties":{"kind":"path","sort_rank":354,"landuse_kind":"urban_area","is_bicycle_related":true,"bicycle_shield_text":"EV4","bicycle_network":"icn","source":"openstreetmap.org","min_zoom":8.0,"kind_detail":"path"},"arcs":[[501],[502],[503],[504]]},{"type":"LineString","properties":{"kind":"minor_road","sort_rank":360,"kind_detail":"residential","is_bicycle_related":true,"bicycle_shield_text":"EV4","cycleway":"lane","source":"openstreetmap.org","min_zoom":8.0,"bicycle_network":"icn","id":513671476},"arcs":[505]},{"type":"LineString","properties":{"kind":"major_road","sort_rank":380,"kind_detail":"primary","bus_network":"fr_twisto","source":"openstreetmap.org","min_zoom":8.0,"bus_shield_text":"20","landuse_kind":"urban_area","id":448810278},"arcs":[506]},{"type":"MultiLineString","properties":{"kind":"major_road","sort_rank":379,"kind_detail":"secondary","is_bicycle_related":true,"bicycle_shield_text":"EV4","bicycle_network":"icn","source":"openstreetmap.org","min_zoom":8.0,"ref":"D 514"},"arcs":[[507],[508],[509],[510]]},{"type":"MultiLineString","properties":{"bus_network":"fr_twisto","sort_rank":380,"kind_detail":"primary","kind":"major_road","source":"openstreetmap.org","min_zoom":8.0,"bus_shield_text":"C_Ex","landuse_kind":"urban_area","ref":"D 7"},"arcs":[[511],[512]]},{"type":"MultiLineString","properties":{"kind":"path","sort_rank":354,"landuse_kind":"protected_area","is_bicycle_related":true,"bicycle_shield_text":"EV4","bicycle_network":"icn","source":"openstreetmap.org","min_zoom":8.0,"kind_detail":"cycleway"},"arcs":[[513],[514]]},{"type":"MultiLineString","properties":{"source":"openstreetmap.org","kind":"major_road","sort_rank":380,"kind_detail":"primary","ref":"D 999","min_zoom":8.0},"arcs":[[515],[516],[517],[518],[519],[520],[521]]},{"type":"MultiLineString","properties":{"source":"openstreetmap.org","kind":"major_road","sort_rank":380,"kind_detail":"primary","ref":"D 577","min_zoom":8.0},"arcs":[[522],[523],[524]]},{"type":"LineString","properties":{"kind":"major_road","sort_rank":377,"kind_detail":"tertiary","is_bicycle_related":true,"bicycle_shield_text":"EV4","bicycle_network":"icn","source":"openstreetmap.org","min_zoom":8.0,"landuse_kind":"protected_area","ref":"D 971","id":361531106},"arcs":[525]},{"type":"LineString","properties":{"kind":"major_road","sort_rank":380,"kind_detail":"primary","bus_network":"fr_busverts","source":"openstreetmap.org","min_zoom":8.0,"bus_shield_text":"30","id":202254041},"arcs":[526]},{"type":"LineString","properties":{"kind":"minor_road","service":"alley","sort_rank":356,"kind_detail":"service","is_bicycle_related":true,"bicycle_shield_text":"EV4","bicycle_network":"icn","source":"openstreetmap.org","min_zoom":8.0,"id":128177448},"arcs":[527]},{"type":"MultiLineString","properties":{"source":"openstreetmap.org","kind":"major_road","sort_rank":380,"kind_detail":"primary","ref":"D 974","min_zoom":8.0},"arcs":[[528],[529],[530],[531],[532],[533],[534],[535],[536]]},{"type":"LineString","properties":{"kind":"major_road","sort_rank":379,"kind_detail":"secondary","is_bicycle_related":true,"bicycle_shield_text":"EV4","bicycle_network":"icn","source":"openstreetmap.org","min_zoom":8.0,"ref":"D 26","id":4399925},"arcs":[537]},{"type":"MultiLineString","properties":{"kind":"minor_road","sort_rank":360,"kind_detail":"unclassified","is_bicycle_related":true,"bicycle_shield_text":"V43","bicycle_network":"ncn","source":"openstreetmap.org","min_zoom":8.0},"arcs":[[538],[539],[540]]},{"type":"MultiLineString","properties":{"bus_network":"fr_busverts","sort_rank":380,"kind_detail":"primary","kind":"major_road","source":"openstreetmap.org","min_zoom":8.0,"bus_shield_text":"19","landuse_kind":"urban_area","ref":"D 84"},"arcs":[[541],[542],[543],[544],[545],[546],[547],[548]]},{"type":"LineString","properties":{"kind":"major_road","sort_rank":379,"kind_detail":"secondary","is_bicycle_related":true,"bus_network":"fr_busverts","bicycle_shield_text":"EV4","bicycle_network":"icn","source":"openstreetmap.org","min_zoom":8.0,"bus_shield_text":"20","ref":"D 513","id":46759913},"arcs":[549]},{"type":"MultiLineString","properties":{"bus_network":"fr_busverts","network":"e-road","sort_rank":381,"kind_detail":"trunk","kind":"major_road","source":"openstreetmap.org","min_zoom":8.0,"bus_shield_text":"30","shield_text":"46","ref":"N 13"},"arcs":[[550],[551]]},{"type":"MultiLineString","properties":{"kind":"major_road","sort_rank":377,"landuse_kind":"protected_area","is_bicycle_related":true,"bicycle_shield_text":"EV4","bicycle_network":"icn","source":"openstreetmap.org","min_zoom":8.0,"kind_detail":"tertiary"},"arcs":[[552],[553],[554],[555],[556],[557],[558]]},{"type":"LineString","properties":{"kind":"major_road","sort_rank":380,"kind_detail":"primary","bus_network":"fr_busverts","source":"openstreetmap.org","min_zoom":8.0,"bus_shield_text":"30","ref":"D 613","id":24894386},"arcs":[559]},{"type":"MultiLineString","properties":{"kind":"path","sort_rank":354,"kind_detail":"steps","is_bicycle_related":true,"bicycle_shield_text":"EV4","bicycle_network":"icn","source":"openstreetmap.org","min_zoom":8.0},"arcs":[[560],[561],[562],[563],[564]]},{"type":"LineString","properties":{"kind":"major_road","sort_rank":377,"kind_detail":"tertiary","is_bicycle_related":true,"bicycle_shield_text":"EV4","bicycle_network":"icn","source":"openstreetmap.org","min_zoom":8.0,"ref":"D 62"},"arcs":[565]},{"type":"LineString","properties":{"kind":"major_road","sort_rank":380,"kind_detail":"primary","is_bicycle_related":true,"bicycle_shield_text":null,"bicycle_network":"rcn","source":"openstreetmap.org","min_zoom":8.0,"ref":"D 675"},"arcs":[566]},{"type":"LineString","properties":{"kind":"major_road","sort_rank":377,"kind_detail":"tertiary","is_bicycle_related":true,"bicycle_shield_text":"EV4","bicycle_network":"icn","source":"openstreetmap.org","min_zoom":8.0,"landuse_kind":"protected_area","ref":"D 289","id":176994918},"arcs":[567]},{"type":"MultiLineString","properties":{"source":"openstreetmap.org","kind":"major_road","sort_rank":380,"kind_detail":"primary","ref":"D 901","min_zoom":8.0},"arcs":[[568],[569]]},{"type":"MultiLineString","properties":{"kind":"major_road","network":"e-road","sort_rank":381,"kind_detail":"trunk","source":"openstreetmap.org","min_zoom":8.0,"shield_text":"46","ref":"N 13"},"arcs":[[570],[571],[572],[573],[574],[575]]},{"type":"MultiLineString","properties":{"bus_network":"fr_twisto","sort_rank":380,"kind_detail":"primary","kind":"major_road","source":"openstreetmap.org","min_zoom":8.0,"bus_shield_text":"1","landuse_kind":"urban_area","ref":"D 613"},"arcs":[[576],[577]]},{"type":"LineString","properties":{"kind":"major_road","sort_rank":379,"kind_detail":"secondary","is_bicycle_related":true,"bicycle_shield_text":"EV4","bicycle_network":"icn","source":"openstreetmap.org","min_zoom":8.0,"landuse_kind":"urban_area","id":128915830},"arcs":[578]},{"type":"LineString","properties":{"bus_network":"fr_twisto","sort_rank":377,"kind_detail":"tertiary","is_bicycle_related":true,"cycleway_right":"lane","bicycle_shield_text":"V43","bicycle_network":"ncn","source":"openstreetmap.org","min_zoom":8.0,"bus_shield_text":"10","landuse_kind":"urban_area","id":24337689,"kind":"major_road"},"arcs":[579]},{"type":"MultiLineString","properties":{"bus_network":"fr_busverts","sort_rank":380,"kind_detail":"primary","kind":"major_road","source":"openstreetmap.org","min_zoom":8.0,"bus_shield_text":"162","ref":"D 16"},"arcs":[[580],[581],[582],[583],[584]]},{"type":"MultiLineString","properties":{"sort_rank":380,"kind_detail":"primary","min_zoom":8.0,"kind":"major_road","source":"openstreetmap.org"},"arcs":[[585],[586],[587],[588],[589],[590],[591],[592],[593],[594],[595],[596],[597],[598],[599],[600],[601],[602],[603],[604],[605],[606],[607],[608],[609],[610],[611],[612],[613],[614],[615],[616],[617],[618],[619],[620],[621],[622],[623],[624],[625],[626],[627],[628],[629],[630],[631],[632],[633],[634],[635],[636],[637],[638],[639],[640],[641],[642],[643],[644],[645],[646],[647],[648],[649],[650],[651],[652],[653],[654],[655],[656],[657],[658],[659],[660],[661],[662],[663],[664],[665],[666],[667],[668],[669],[670],[671],[672]]},{"type":"LineString","properties":{"source":"openstreetmap.org","bus_network":"fr_busverts","bus_shield_text":"20","sort_rank":380,"kind_detail":"primary","min_zoom":8.0,"kind":"major_road"},"arcs":[673]},{"type":"LineString","properties":{"kind":"minor_road","sort_rank":358,"landuse_kind":"urban_area","is_bicycle_related":true,"bicycle_shield_text":"V43","bicycle_network":"ncn","source":"openstreetmap.org","min_zoom":8.0,"kind_detail":"service"},"arcs":[674]},{"type":"MultiLineString","properties":{"bus_network":"fr_busverts","sort_rank":381,"kind_detail":"trunk","kind":"major_road","source":"openstreetmap.org","min_zoom":8.0,"bus_shield_text":"19","ref":"D 514"},"arcs":[[675],[676]]},{"type":"MultiLineString","properties":{"bus_network":"fr_busverts","sort_rank":380,"kind_detail":"primary","is_bicycle_related":true,"kind":"major_road","cycleway":"lane","source":"openstreetmap.org","min_zoom":8.0,"bus_shield_text":"BV36","landuse_kind":"urban_area","ref":"D 675"},"arcs":[[677],[678],[679]]},{"type":"MultiLineString","properties":{"kind":"path","sort_rank":354,"kind_detail":"footway","is_bicycle_related":true,"bicycle_shield_text":"EV4","bicycle_network":"icn","source":"openstreetmap.org","min_zoom":8.0},"arcs":[[680],[681],[682],[683],[684],[685],[686],[687],[688],[689],[690],[691],[692],[693],[694]]},{"type":"MultiLineString","properties":{"bus_network":"Bus Verts","sort_rank":380,"kind_detail":"primary","kind":"major_road","source":"openstreetmap.org","min_zoom":8.0,"bus_shield_text":"154","ref":"D 27"},"arcs":[[695],[696]]},{"type":"MultiLineString","properties":{"source":"openstreetmap.org","kind":"major_road","sort_rank":380,"kind_detail":"primary","ref":"D 675","min_zoom":8.0},"arcs":[[697],[698],[699],[700],[701],[702],[703],[704],[705],[706],[707],[708],[709],[710],[711]]},{"type":"LineString","properties":{"kind":"major_road","sort_rank":380,"kind_detail":"primary","bus_network":"fr_busverts","source":"openstreetmap.org","min_zoom":8.0,"bus_shield_text":"32","id":449371744},"arcs":[712]},{"type":"MultiLineString","properties":{"kind":"path","sort_rank":354,"landuse_kind":"urban_area","is_bicycle_related":true,"bicycle_shield_text":"EV4","bicycle_network":"icn","source":"openstreetmap.org","min_zoom":8.0,"kind_detail":"footway"},"arcs":[[713],[714],[715]]},{"type":"MultiLineString","properties":{"kind":"major_road","network":"e-road","sort_rank":381,"kind_detail":"trunk","source":"openstreetmap.org","min_zoom":8.0,"shield_text":"03","ref":"N 174"},"arcs":[[716],[717],[718],[719],[720],[721],[722],[723],[724],[725],[726],[727],[728],[729],[730],[731],[732],[733]]},{"type":"LineString","properties":{"kind":"minor_road","sort_rank":358,"kind_detail":"service","is_bicycle_related":true,"bicycle_shield_text":"EV4","cycleway":"track","source":"openstreetmap.org","min_zoom":8.0,"landuse_kind":"nature_reserve","bicycle_network":"icn","id":47813958},"arcs":[734]},{"type":"MultiLineString","properties":{"bus_network":"fr_busverts","sort_rank":381,"landuse_kind":"urban_area","kind":"major_road","source":"openstreetmap.org","min_zoom":8.0,"bus_shield_text":"3","kind_detail":"trunk","ref":"D 7"},"arcs":[[735],[736],[737]]},{"type":"MultiLineString","properties":{"source":"openstreetmap.org","kind":"major_road","sort_rank":380,"kind_detail":"primary","ref":"D 33","min_zoom":8.0},"arcs":[[738],[739],[740]]},{"type":"LineString","properties":{"kind":"major_road","sort_rank":380,"kind_detail":"primary","bus_network":"fr_busverts","source":"openstreetmap.org","min_zoom":8.0,"bus_shield_text":"19","landuse_kind":"urban_area","ref":"D 514","id":458755249},"arcs":[741]},{"type":"MultiLineString","properties":{"kind":"major_road","sort_rank":379,"landuse_kind":"protected_area","is_bicycle_related":true,"bicycle_shield_text":"EV4","bicycle_network":"icn","source":"openstreetmap.org","min_zoom":8.0,"kind_detail":"secondary","ref":"D 974"},"arcs":[[742],[743],[744],[745]]},{"type":"MultiLineString","properties":{"source":"openstreetmap.org","kind":"major_road","landuse_kind":"protected_area","sort_rank":380,"kind_detail":"primary","min_zoom":8.0},"arcs":[[746],[747],[748],[749],[750],[751],[752],[753],[754],[755],[756],[757],[758]]},{"type":"MultiLineString","properties":{"kind":"minor_road","service":"parking_aisle","sort_rank":356,"kind_detail":"service","is_bicycle_related":true,"bicycle_shield_text":"EV4","bicycle_network":"icn","source":"openstreetmap.org","min_zoom":8.0},"arcs":[[759],[760],[761],[762],[763]]},{"type":"LineString","properties":{"source":"openstreetmap.org","kind":"major_road","landuse_kind":"protected_area","sort_rank":380,"kind_detail":"primary","ref":"D 223","min_zoom":8.0},"arcs":[764]},{"type":"MultiLineString","properties":{"kind":"path","sort_rank":354,"landuse_kind":"residential","is_bicycle_related":true,"bicycle_shield_text":"EV4","bicycle_network":"icn","source":"openstreetmap.org","min_zoom":8.0,"kind_detail":"path"},"arcs":[[765],[766]]},{"type":"MultiLineString","properties":{"kind":"major_road","sort_rank":377,"landuse_kind":"protected_area","is_bicycle_related":true,"bicycle_shield_text":"EV4","bicycle_network":"icn","source":"openstreetmap.org","min_zoom":8.0,"kind_detail":"tertiary","ref":"D 544"},"arcs":[[767],[768]]},{"type":"LineString","properties":{"kind":"path","sort_rank":354,"kind_detail":"footway","is_bicycle_related":true,"bicycle_shield_text":"EV4","bicycle_network":"icn","source":"openstreetmap.org","min_zoom":8.0,"landuse_kind":"residential","id":5004310},"arcs":[769]},{"type":"MultiLineString","properties":{"source":"openstreetmap.org","kind":"major_road","landuse_kind":"residential","sort_rank":380,"kind_detail":"primary","ref":"D 5A","min_zoom":8.0},"arcs":[[770],[771],[772],[773]]},{"type":"MultiLineString","properties":{"kind":"highway","network":"FR:A-road","sort_rank":383,"kind_detail":"motorway","source":"openstreetmap.org","min_zoom":8.0,"all_networks":["FR:A-road"],"shield_text":"813","ref":"A 813","all_shield_texts":["813"]},"arcs":[[774],[775]]},{"type":"MultiLineString","properties":{"bus_network":"fr_twisto","sort_rank":380,"kind_detail":"primary","kind":"major_road","source":"openstreetmap.org","min_zoom":8.0,"bus_shield_text":"15","landuse_kind":"urban_area","ref":"D 613"},"arcs":[[776],[777],[778]]},{"type":"MultiLineString","properties":{"bus_network":"fr_busverts","sort_rank":380,"kind_detail":"primary","kind":"major_road","source":"openstreetmap.org","min_zoom":8.0,"bus_shield_text":"20","ref":"D 513"},"arcs":[[779],[780],[781],[782]]},{"type":"LineString","properties":{"kind":"major_road","sort_rank":380,"kind_detail":"primary","is_bicycle_related":true,"bus_network":"fr_twisto","cycleway":"lane","source":"openstreetmap.org","min_zoom":8.0,"bus_shield_text":"15","landuse_kind":"urban_area","ref":"D 613","id":4366158},"arcs":[783]},{"type":"MultiLineString","properties":{"kind":"minor_road","sort_rank":360,"landuse_kind":"urban_area","is_bicycle_related":true,"bicycle_shield_text":"EV4","bicycle_network":"icn","source":"openstreetmap.org","min_zoom":8.0,"kind_detail":"residential"},"arcs":[[784],[785],[786]]},{"type":"LineString","properties":{"kind":"major_road","sort_rank":379,"kind_detail":"secondary","is_bicycle_related":true,"bicycle_shield_text":"EV4","bicycle_network":"icn","source":"openstreetmap.org","min_zoom":8.0,"ref":"D 25","id":319153809},"arcs":[787]},{"type":"LineString","properties":{"kind":"major_road","sort_rank":379,"kind_detail":"secondary","is_bicycle_related":true,"bicycle_shield_text":"V43","bicycle_network":"ncn","source":"openstreetmap.org","min_zoom":8.0,"id":24392091},"arcs":[788]},{"type":"MultiLineString","properties":{"bus_network":"fr_twisto","sort_rank":380,"kind_detail":"primary","kind":"major_road","source":"openstreetmap.org","min_zoom":8.0,"bus_shield_text":"3","landuse_kind":"urban_area"},"arcs":[[789],[790],[791],[792]]},{"type":"LineString","properties":{"source":"openstreetmap.org","kind":"major_road","sort_rank":380,"kind_detail":"primary","ref":"D 4","min_zoom":8.0},"arcs":[793]},{"type":"LineString","properties":{"kind":"major_road","sort_rank":380,"kind_detail":"primary","is_bicycle_related":true,"bicycle_shield_text":"EV4","bicycle_network":"icn","source":"openstreetmap.org","min_zoom":8.0,"ref":"D 674","id":176952618},"arcs":[794]},{"type":"MultiLineString","properties":{"bus_network":"TER Basse-Normandie","sort_rank":380,"kind_detail":"primary","kind":"major_road","source":"openstreetmap.org","min_zoom":8.0,"bus_shield_text":"TER","ref":"D 972"},"arcs":[[795],[796],[797],[798],[799],[800],[801],[802],[803],[804],[805],[806]]},{"type":"MultiLineString","properties":{"source":"openstreetmap.org","kind":"major_road","sort_rank":380,"kind_detail":"primary","ref":"D 6","min_zoom":8.0},"arcs":[[807],[808],[809],[810],[811],[812],[813],[814],[815]]},{"type":"LineString","properties":{"kind":"major_road","sort_rank":377,"kind_detail":"tertiary","is_bicycle_related":true,"bicycle_shield_text":"EV4","bicycle_network":"icn","source":"openstreetmap.org","min_zoom":8.0,"ref":"D 81","id":176952622},"arcs":[816]},{"type":"LineString","properties":{"bus_network":"fr_busverts","sort_rank":380,"kind_detail":"primary","kind":"major_road","source":"openstreetmap.org","min_zoom":8.0,"bus_shield_text":"BV36","ref":"D 675"},"arcs":[817]},{"type":"LineString","properties":{"kind":"major_road","sort_rank":377,"kind_detail":"tertiary","is_bicycle_related":true,"bicycle_shield_text":"EV4","bicycle_network":"icn","source":"openstreetmap.org","min_zoom":8.0,"ref":"D 517"},"arcs":[818]},{"type":"MultiLineString","properties":{"kind":"path","sort_rank":354,"landuse_kind":"protected_area","is_bicycle_related":true,"bicycle_shield_text":"EV4","bicycle_network":"icn","source":"openstreetmap.org","min_zoom":8.0,"kind_detail":"track"},"arcs":[[819],[820],[821],[822],[823],[824],[825],[826],[827],[828],[829]]},{"type":"MultiLineString","properties":{"bus_network":"fr_busverts","sort_rank":381,"landuse_kind":"urban_area","kind":"major_road","source":"openstreetmap.org","min_zoom":8.0,"bus_shield_text":"35Ex","kind_detail":"trunk","ref":"N 158"},"arcs":[[830],[831]]},{"type":"MultiLineString","properties":{"bus_network":"fr_busverts","sort_rank":380,"kind_detail":"primary","kind":"major_road","source":"openstreetmap.org","min_zoom":8.0,"bus_shield_text":"36","landuse_kind":"urban_area"},"arcs":[[832],[833],[834],[835],[836],[837]]},{"type":"MultiLineString","properties":{"kind":"minor_road","sort_rank":358,"landuse_kind":"nature_reserve","is_bicycle_related":true,"bicycle_shield_text":"EV4","bicycle_network":"icn","source":"openstreetmap.org","min_zoom":8.0,"kind_detail":"service"},"arcs":[[838],[839]]},{"type":"MultiLineString","properties":{"kind":"major_road","sort_rank":379,"landuse_kind":"protected_area","is_bicycle_related":true,"bicycle_shield_text":"EV4","bicycle_network":"icn","source":"openstreetmap.org","min_zoom":8.0,"kind_detail":"secondary","ref":"D 14"},"arcs":[[840],[841]]},{"type":"LineString","properties":{"kind":"major_road","sort_rank":380,"landuse_kind":"residential","source":"openstreetmap.org","min_zoom":8.0,"kind_detail":"primary","ref":"D 12","id":274786228},"arcs":[842]},{"type":"MultiLineString","properties":{"source":"openstreetmap.org","kind":"major_road","sort_rank":380,"kind_detail":"primary","ref":"D 902","min_zoom":8.0},"arcs":[[843],[844]]},{"type":"LineString","properties":{"kind":"major_road","network":"e-road","sort_rank":380,"kind_detail":"primary","bus_network":"fr_twisto","source":"openstreetmap.org","min_zoom":8.0,"bus_shield_text":"22","shield_text":"401","id":4045344},"arcs":[845]},{"type":"LineString","properties":{"kind":"path","sort_rank":354,"landuse_kind":"nature_reserve","is_bicycle_related":true,"bicycle_shield_text":"EV4","bicycle_network":"icn","source":"openstreetmap.org","min_zoom":8.0,"kind_detail":"cycleway"},"arcs":[846]},{"type":"MultiLineString","properties":{"source":"openstreetmap.org","kind":"major_road","sort_rank":380,"kind_detail":"primary","ref":"D 7","min_zoom":8.0},"arcs":[[847],[848]]},{"type":"LineString","properties":{"kind":"major_road","sort_rank":377,"kind_detail":"tertiary","is_bicycle_related":true,"bicycle_shield_text":"EV4","bicycle_network":"icn","source":"openstreetmap.org","min_zoom":8.0,"landuse_kind":"protected_area","ref":"D 257","id":176994905},"arcs":[849]},{"type":"LineString","properties":{"kind":"major_road","sort_rank":380,"kind_detail":"primary","is_bicycle_related":true,"bus_network":"fr_busverts","bicycle_shield_text":null,"bicycle_network":"rcn","source":"openstreetmap.org","min_zoom":8.0,"bus_shield_text":"36","ref":"D 675"},"arcs":[850]},{"type":"LineString","properties":{"bus_network":"fr_busverts","sort_rank":379,"landuse_kind":"nature_reserve","is_bicycle_related":true,"kind":"major_road","bicycle_shield_text":"EV4","bicycle_network":"icn","source":"openstreetmap.org","min_zoom":8.0,"bus_shield_text":"20 variante","kind_detail":"secondary","cycleway":"track","ref":"D 514"},"arcs":[851]},{"type":"MultiLineString","properties":{"source":"openstreetmap.org","kind":"major_road","sort_rank":380,"kind_detail":"primary","ref":"D 16","min_zoom":8.0},"arcs":[[852],[853]]},{"type":"LineString","properties":{"osm_relation":true,"kind":"ferry","network":"international","sort_rank":355,"landuse_kind":"urban_area","is_bicycle_related":true,"source":"openstreetmap.org","min_zoom":8.0,"all_networks":["international"],"shield_text":"-","id":-6729101,"all_shield_texts":["-"],"name":"Portsmouth - Ouistreham"},"arcs":[854]},{"type":"MultiLineString","properties":{"kind":"major_road","sort_rank":379,"kind_detail":"secondary","is_bicycle_related":true,"bicycle_shield_text":"EV4","bicycle_network":"icn","source":"openstreetmap.org","min_zoom":8.0,"ref":"D 1"},"arcs":[[855],[856],[857],[858],[859],[860],[861],[862],[863]]},{"type":"LineString","properties":{"kind":"major_road","sort_rank":377,"kind_detail":"tertiary","is_bicycle_related":true,"bicycle_shield_text":"EV4","bicycle_network":"icn","source":"openstreetmap.org","min_zoom":8.0,"ref":"D 120","id":38572921},"arcs":[864]},{"type":"MultiLineString","properties":{"kind":"path","sort_rank":354,"landuse_kind":"nature_reserve","is_bicycle_related":true,"bicycle_shield_text":"EV4","bicycle_network":"icn","source":"openstreetmap.org","min_zoom":8.0,"kind_detail":"footway"},"arcs":[[865],[866]]},{"type":"LineString","properties":{"kind":"major_road","sort_rank":379,"kind_detail":"secondary","is_bicycle_related":true,"bicycle_shield_text":"EV4","bicycle_network":"icn","source":"openstreetmap.org","min_zoom":8.0,"ref":"D 675","id":511821538},"arcs":[867]},{"type":"MultiLineString","properties":{"kind":"major_road","network":"e-road","sort_rank":381,"landuse_kind":"urban_area","source":"openstreetmap.org","min_zoom":8.0,"kind_detail":"trunk","shield_text":"401","ref":"N 814"},"arcs":[[868],[869]]},{"type":"MultiLineString","properties":{"kind":"major_road","sort_rank":379,"landuse_kind":"urban_area","is_bicycle_related":true,"bicycle_shield_text":"EV4","bicycle_network":"icn","source":"openstreetmap.org","min_zoom":8.0,"kind_detail":"secondary","ref":"D 514"},"arcs":[[870],[871],[872]]},{"type":"MultiLineString","properties":{"bus_network":"fr_busverts","sort_rank":380,"kind_detail":"primary","kind":"major_road","source":"openstreetmap.org","min_zoom":8.0,"bus_shield_text":"BV4","landuse_kind":"urban_area"},"arcs":[[873],[874]]},{"type":"LineString","properties":{"kind":"major_road","sort_rank":380,"kind_detail":"primary","bus_network":"fr_twisto","source":"openstreetmap.org","min_zoom":8.0,"bus_shield_text":"15","landuse_kind":"urban_area","id":4366159},"arcs":[875]},{"type":"MultiLineString","properties":{"kind":"major_road","network":"e-road","sort_rank":381,"landuse_kind":"protected_area","source":"openstreetmap.org","min_zoom":8.0,"kind_detail":"trunk","shield_text":"03","ref":"N 174"},"arcs":[[876],[877],[878],[879],[880],[881],[882],[883],[884],[885]]},{"type":"MultiLineString","properties":{"source":"openstreetmap.org","kind":"major_road","sort_rank":380,"kind_detail":"primary","ref":"D 27","min_zoom":8.0},"arcs":[[886],[887],[888],[889],[890],[891],[892],[893]]},{"type":"MultiLineString","properties":{"kind":"path","sort_rank":354,"landuse_kind":"urban_area","is_bicycle_related":true,"bicycle_shield_text":"V43","bicycle_network":"ncn","source":"openstreetmap.org","min_zoom":8.0,"kind_detail":"path"},"arcs":[[894],[895],[896]]},{"type":"LineString","properties":{"kind":"path","sort_rank":354,"kind_detail":"pedestrian","is_bicycle_related":true,"bicycle_shield_text":"V43","bicycle_network":"ncn","source":"openstreetmap.org","min_zoom":8.0,"landuse_kind":"urban_area","id":501581903},"arcs":[897]},{"type":"MultiLineString","properties":{"source":"openstreetmap.org","bus_network":"fr_busverts","bus_shield_text":"162","sort_rank":380,"kind_detail":"primary","min_zoom":8.0,"kind":"major_road"},"arcs":[[898],[899],[900],[901],[902],[903],[904],[905],[906],[907],[908],[909],[910]]},{"type":"LineString","properties":{"kind":"major_road","sort_rank":380,"kind_detail":"primary","is_bicycle_related":true,"bus_network":"fr_twisto","cycleway":"lane","source":"openstreetmap.org","min_zoom":8.0,"bus_shield_text":"9","landuse_kind":"urban_area","id":171570653},"arcs":[911]},{"type":"LineString","properties":{"kind":"major_road","network":"e-road","sort_rank":381,"landuse_kind":"urban_area","source":"openstreetmap.org","min_zoom":8.0,"kind_detail":"trunk","shield_text":"46","ref":"N 13"},"arcs":[912]},{"type":"LineString","properties":{"source":"openstreetmap.org","kind":"major_road","landuse_kind":"urban_area","sort_rank":380,"kind_detail":"primary","ref":"D 562","min_zoom":8.0},"arcs":[913]},{"type":"LineString","properties":{"kind":"major_road","sort_rank":377,"kind_detail":"tertiary","is_bicycle_related":true,"bicycle_shield_text":"EV4","bicycle_network":"icn","source":"openstreetmap.org","min_zoom":8.0,"landuse_kind":"protected_area","ref":"D 329","id":208422820},"arcs":[914]},{"type":"LineString","properties":{"kind":"minor_road","sort_rank":360,"kind_detail":"unclassified","is_bicycle_related":true,"bicycle_shield_text":null,"bicycle_network":"icn","source":"openstreetmap.org","min_zoom":8.0},"arcs":[915]},{"type":"LineString","properties":{"kind":"path","sort_rank":354,"landuse_kind":"nature_reserve","is_bicycle_related":true,"bicycle_shield_text":"EV4","bicycle_network":"icn","source":"openstreetmap.org","min_zoom":8.0,"kind_detail":"path"},"arcs":[916]},{"type":"MultiLineString","properties":{"kind":"minor_road","sort_rank":360,"kind_detail":"residential","is_bicycle_related":true,"cycleway_right":"lane","bicycle_shield_text":"EV4","bicycle_network":"icn","source":"openstreetmap.org","min_zoom":8.0},"arcs":[[917],[918]]},{"type":"MultiLineString","properties":{"bus_network":"fr_busverts","sort_rank":381,"landuse_kind":"urban_area","kind":"major_road","source":"openstreetmap.org","min_zoom":8.0,"bus_shield_text":"19","kind_detail":"trunk","ref":"D 514"},"arcs":[[919],[920],[921],[922],[923]]},{"type":"LineString","properties":{"kind":"major_road","sort_rank":380,"kind_detail":"primary","is_bicycle_related":true,"bus_network":"fr_busverts","cycleway":"track","source":"openstreetmap.org","min_zoom":8.0,"bus_shield_text":"3","id":4305073},"arcs":[924]},{"type":"MultiLineString","properties":{"source":"openstreetmap.org","kind":"major_road","network":"e-road","sort_rank":380,"kind_detail":"primary","min_zoom":8.0,"shield_text":"03"},"arcs":[[925],[926]]},{"type":"MultiLineString","properties":{"kind":"major_road","sort_rank":377,"kind_detail":"tertiary","is_bicycle_related":true,"bicycle_shield_text":"EV4","bicycle_network":"icn","source":"openstreetmap.org","min_zoom":8.0,"ref":"D 216"},"arcs":[[927],[928]]},{"type":"LineString","properties":{"kind":"major_road","sort_rank":380,"kind_detail":"primary","is_bicycle_related":true,"bicycle_shield_text":null,"bicycle_network":"rcn","source":"openstreetmap.org","min_zoom":8.0,"ref":"D 613","id":230027412},"arcs":[929]},{"type":"MultiLineString","properties":{"bus_network":"fr_busverts","sort_rank":381,"kind_detail":"trunk","kind":"major_road","source":"openstreetmap.org","min_zoom":8.0,"bus_shield_text":"35Ex","ref":"N 158"},"arcs":[[930],[931]]},{"type":"LineString","properties":{"bus_network":"fr_busverts","sort_rank":380,"kind_detail":"primary","kind":"major_road","source":"openstreetmap.org","min_zoom":8.0,"bus_shield_text":"35Ex","landuse_kind":"urban_area"},"arcs":[932]},{"type":"LineString","properties":{"kind":"minor_road","sort_rank":360,"kind_detail":"unclassified","is_bicycle_related":true,"bicycle_shield_text":"EV4","cycleway":"track","source":"openstreetmap.org","min_zoom":8.0,"landuse_kind":"nature_reserve","bicycle_network":"icn"},"arcs":[933]},{"type":"LineString","properties":{"kind":"minor_road","sort_rank":360,"kind_detail":"living_street","is_bicycle_related":true,"bicycle_shield_text":"EV4","cycleway":"opposite","source":"openstreetmap.org","min_zoom":8.0,"landuse_kind":"residential","bicycle_network":"icn","id":354892170},"arcs":[934]},{"type":"MultiLineString","properties":{"source":"openstreetmap.org","kind":"major_road","sort_rank":381,"kind_detail":"trunk","ref":"D 562","min_zoom":8.0},"arcs":[[935],[936],[937],[938],[939],[940]]},{"type":"MultiLineString","properties":{"bus_network":"fr_twisto","sort_rank":380,"kind_detail":"primary","kind":"major_road","source":"openstreetmap.org","min_zoom":8.0,"bus_shield_text":"20","landuse_kind":"urban_area","ref":"D 513"},"arcs":[[941],[942]]},{"type":"MultiLineString","properties":{"source":"openstreetmap.org","kind":"major_road","sort_rank":380,"kind_detail":"primary","ref":"D 47","min_zoom":8.0},"arcs":[[943],[944],[945]]},{"type":"LineString","properties":{"kind":"ferry","network":"international","sort_rank":355,"is_bicycle_related":true,"source":"openstreetmap.org","min_zoom":8.0,"osm_relation":true,"shield_text":"-","all_networks":["international"],"all_shield_texts":["-"],"name":"Portsmouth - Ouistreham"},"arcs":[946]},{"type":"MultiLineString","properties":{"source":"openstreetmap.org","kind":"major_road","sort_rank":380,"kind_detail":"primary","ref":"D 972","min_zoom":8.0},"arcs":[[947],[948],[949],[950],[951],[952],[953],[954],[955],[956],[957],[958],[959],[960],[961],[962],[963],[964]]},{"type":"LineString","properties":{"bus_network":"fr_busverts","network":"e-road","sort_rank":381,"kind_detail":"trunk","kind":"major_road","source":"openstreetmap.org","min_zoom":8.0,"bus_shield_text":"30","shield_text":"46","landuse_kind":"urban_area","ref":"N 13"},"arcs":[965]},{"type":"LineString","properties":{"kind":"major_road","sort_rank":377,"kind_detail":"tertiary","is_bicycle_related":true,"bicycle_shield_text":"EV4","bicycle_network":"icn","source":"openstreetmap.org","min_zoom":8.0,"landuse_kind":"protected_area","ref":"D 71","id":354892132},"arcs":[966]},{"type":"MultiLineString","properties":{"kind":"major_road","sort_rank":380,"kind_detail":"primary","is_bicycle_related":true,"bicycle_shield_text":null,"bicycle_network":"rcn","source":"openstreetmap.org","min_zoom":8.0},"arcs":[[967],[968]]},{"type":"LineString","properties":{"kind":"major_road","sort_rank":380,"kind_detail":"primary","bus_network":"Bus Verts","source":"openstreetmap.org","min_zoom":8.0,"bus_shield_text":"154","ref":"D27","id":113522642},"arcs":[969]},{"type":"LineString","properties":{"kind":"major_road","sort_rank":377,"kind_detail":"tertiary","is_bicycle_related":true,"bicycle_shield_text":"EV4","bicycle_network":"icn","source":"openstreetmap.org","min_zoom":8.0,"ref":"D 115","id":207782295},"arcs":[970]},{"type":"MultiLineString","properties":{"bus_network":"fr_twisto","sort_rank":381,"landuse_kind":"urban_area","kind":"major_road","source":"openstreetmap.org","min_zoom":8.0,"bus_shield_text":"19 Express","kind_detail":"trunk","ref":"D 515"},"arcs":[[971],[972],[973],[974]]},{"type":"LineString","properties":{"kind":"minor_road","sort_rank":360,"kind_detail":"residential","is_bicycle_related":true,"bicycle_shield_text":"EV4","cycleway":"opposite","source":"openstreetmap.org","min_zoom":8.0,"bicycle_network":"icn"},"arcs":[975]},{"type":"MultiLineString","properties":{"bus_network":"fr_busverts","sort_rank":381,"landuse_kind":"urban_area","kind":"major_road","source":"openstreetmap.org","min_zoom":8.0,"bus_shield_text":"19","kind_detail":"trunk","ref":"D 515"},"arcs":[[976],[977]]},{"type":"MultiLineString","properties":{"kind":"path","sort_rank":354,"kind_detail":"path","is_bicycle_related":true,"bicycle_shield_text":"EV4","bicycle_network":"icn","source":"openstreetmap.org","min_zoom":8.0},"arcs":[[978],[979],[980],[981],[982],[983],[984],[985],[986],[987],[988],[989],[990],[991],[992],[993],[994],[995],[996],[997],[998],[999],[1000],[1001]]},{"type":"MultiLineString","properties":{"source":"openstreetmap.org","kind":"major_road","sort_rank":380,"kind_detail":"primary","ref":"D 675A","min_zoom":8.0},"arcs":[[1002],[1003],[1004],[1005],[1006]]},{"type":"LineString","properties":{"sort_rank":355,"source":"openstreetmap.org","min_zoom":8.0,"name":"Portsmouth - Le Havre","kind":"ferry"},"arcs":[1007]},{"type":"MultiLineString","properties":{"kind":"major_road","sort_rank":379,"kind_detail":"secondary","is_bicycle_related":true,"bicycle_shield_text":"EV4","bicycle_network":"icn","source":"openstreetmap.org","min_zoom":8.0},"arcs":[[1008],[1009],[1010]]},{"type":"LineString","properties":{"bus_network":"fr_twisto","sort_rank":380,"kind_detail":"primary","kind":"major_road","source":"openstreetmap.org","min_zoom":8.0,"bus_shield_text":"1","landuse_kind":"urban_area"},"arcs":[1011]},{"type":"LineString","properties":{"kind":"major_road","sort_rank":377,"kind_detail":"tertiary","is_bicycle_related":true,"bicycle_shield_text":"V43","bicycle_network":"ncn","source":"openstreetmap.org","min_zoom":8.0,"ref":"D 133b"},"arcs":[1012]},{"type":"MultiLineString","properties":{"kind":"minor_road","sort_rank":360,"kind_detail":"unclassified","is_bicycle_related":true,"bicycle_shield_text":"EV4","bicycle_network":"icn","source":"openstreetmap.org","min_zoom":8.0,"landuse_kind":"protected_area"},"arcs":[[1013],[1014],[1015],[1016],[1017],[1018],[1019],[1020],[1021],[1022],[1023],[1024],[1025],[1026],[1027],[1028],[1029],[1030]]},{"type":"LineString","properties":{"kind":"major_road","sort_rank":377,"kind_detail":"tertiary","is_bicycle_related":true,"bicycle_shield_text":"EV4","bicycle_network":"icn","source":"openstreetmap.org","min_zoom":8.0,"ref":"D 163"},"arcs":[1031]},{"type":"LineString","properties":{"bus_network":"fr_twisto","cycleway_left":"lane","sort_rank":377,"landuse_kind":"urban_area","is_bicycle_related":true,"kind":"major_road","bicycle_shield_text":"V43","bicycle_network":"ncn","source":"openstreetmap.org","min_zoom":8.0,"bus_shield_text":"33","kind_detail":"tertiary"},"arcs":[1032]},{"type":"LineString","properties":{"bus_network":"fr_twisto","sort_rank":380,"kind_detail":"primary","kind":"major_road","source":"openstreetmap.org","min_zoom":8.0,"bus_shield_text":"3","landuse_kind":"urban_area","ref":"D 513"},"arcs":[1033]},{"type":"MultiLineString","properties":{"kind":"path","sort_rank":354,"kind_detail":"pedestrian","is_bicycle_related":true,"bicycle_shield_text":"EV4","bicycle_network":"icn","source":"openstreetmap.org","min_zoom":8.0,"landuse_kind":"residential"},"arcs":[[1034],[1035]]},{"type":"LineString","properties":{"source":"openstreetmap.org","kind":"major_road","sort_rank":380,"kind_detail":"primary","ref":"D 900","min_zoom":8.0},"arcs":[1036]},{"type":"MultiLineString","properties":{"kind":"major_road","sort_rank":380,"kind_detail":"primary","is_bicycle_related":true,"bicycle_shield_text":null,"bicycle_network":"rcn","source":"openstreetmap.org","min_zoom":8.0,"ref":"D 6"},"arcs":[[1037],[1038]]},{"type":"LineString","properties":{"bus_network":"fr_busverts","sort_rank":379,"landuse_kind":"residential","is_bicycle_related":true,"kind":"major_road","bicycle_shield_text":"EV4","bicycle_network":"icn","source":"openstreetmap.org","min_zoom":8.0,"bus_shield_text":"3","kind_detail":"secondary"},"arcs":[1039]},{"type":"LineString","properties":{"kind":"major_road","sort_rank":377,"kind_detail":"tertiary","is_bicycle_related":true,"bicycle_shield_text":"EV4","bicycle_network":"icn","source":"openstreetmap.org","min_zoom":8.0,"landuse_kind":"protected_area","ref":"D 115","id":207782295},"arcs":[1040]},{"type":"LineString","properties":{"bus_network":"TER Basse-Normandie","sort_rank":380,"kind_detail":"primary","kind":"major_road","source":"openstreetmap.org","min_zoom":8.0,"bus_shield_text":"TER","ref":"D 972E3"},"arcs":[1041]},{"type":"LineString","properties":{"kind":"minor_road","sort_rank":360,"kind_detail":"unclassified","is_bicycle_related":true,"bicycle_shield_text":"V43","bicycle_network":"ncn","source":"openstreetmap.org","min_zoom":8.0,"landuse_kind":"urban_area","id":27609594},"arcs":[1042]},{"type":"LineString","properties":{"source":"openstreetmap.org","kind":"major_road","landuse_kind":"nature_reserve","sort_rank":380,"kind_detail":"primary","min_zoom":8.0,"id":37707795},"arcs":[1043]},{"type":"LineString","properties":{"kind":"major_road","cycleway_left":"lane","sort_rank":380,"kind_detail":"primary","is_bicycle_related":true,"bus_network":"fr_busverts","source":"openstreetmap.org","min_zoom":8.0,"bus_shield_text":"BV36","ref":"D 675","id":34917384},"arcs":[1044]},{"type":"MultiLineString","properties":{"source":"openstreetmap.org","kind":"major_road","sort_rank":380,"kind_detail":"primary","ref":"D 572","min_zoom":8.0},"arcs":[[1045],[1046],[1047],[1048],[1049],[1050],[1051],[1052],[1053],[1054],[1055],[1056],[1057],[1058],[1059],[1060],[1061],[1062]]},{"type":"MultiLineString","properties":{"bus_network":"fr_twisto","sort_rank":380,"kind_detail":"primary","kind":"major_road","source":"openstreetmap.org","min_zoom":8.0,"bus_shield_text":"noctibus","landuse_kind":"urban_area"},"arcs":[[1063],[1064],[1065]]},{"type":"MultiLineString","properties":{"bus_network":"fr_twisto","sort_rank":380,"kind_detail":"primary","kind":"major_road","source":"openstreetmap.org","min_zoom":8.0,"bus_shield_text":"8","landuse_kind":"urban_area"},"arcs":[[1066],[1067]]},{"type":"LineString","properties":{"kind":"major_road","sort_rank":377,"kind_detail":"tertiary","is_bicycle_related":true,"bus_network":"fr_twisto","bicycle_shield_text":"V43","bicycle_network":"ncn","source":"openstreetmap.org","min_zoom":8.0,"bus_shield_text":"33","landuse_kind":"urban_area","id":206680181},"arcs":[1068]},{"type":"MultiLineString","properties":{"kind":"path","sort_rank":354,"kind_detail":"cycleway","is_bicycle_related":true,"bicycle_shield_text":"EV4","bicycle_network":"icn","source":"openstreetmap.org","min_zoom":8.0},"arcs":[[1069],[1070],[1071],[1072],[1073],[1074],[1075]]},{"type":"MultiLineString","properties":{"source":"openstreetmap.org","kind":"major_road","sort_rank":381,"kind_detail":"trunk","ref":"D 562b","min_zoom":8.0},"arcs":[[1076],[1077]]},{"type":"MultiLineString","properties":{"bus_network":"fr_twisto","sort_rank":380,"kind_detail":"primary","kind":"major_road","source":"openstreetmap.org","min_zoom":8.0,"bus_shield_text":"11","landuse_kind":"urban_area"},"arcs":[[1078],[1079]]},{"type":"MultiLineString","properties":{"kind":"path","sort_rank":354,"landuse_kind":"urban_area","is_bicycle_related":true,"bicycle_shield_text":"EV4","bicycle_network":"icn","source":"openstreetmap.org","min_zoom":8.0,"kind_detail":"cycleway"},"arcs":[[1080],[1081],[1082],[1083]]},{"type":"MultiLineString","properties":{"kind":"major_road","sort_rank":377,"landuse_kind":"protected_area","is_bicycle_related":true,"bicycle_shield_text":"EV4","bicycle_network":"icn","source":"openstreetmap.org","min_zoom":8.0,"kind_detail":"tertiary","ref":"D 216"},"arcs":[[1084],[1085]]},{"type":"MultiLineString","properties":{"bus_network":"fr_twisto","sort_rank":380,"kind_detail":"primary","kind":"major_road","source":"openstreetmap.org","min_zoom":8.0,"bus_shield_text":"BV12","ref":"D 562A"},"arcs":[[1086],[1087],[1088],[1089],[1090],[1091],[1092],[1093]]},{"type":"MultiLineString","properties":{"kind":"minor_road","sort_rank":360,"kind_detail":"residential","is_bicycle_related":true,"bicycle_shield_text":"EV4","cycleway":"opposite_lane","source":"openstreetmap.org","min_zoom":8.0,"bicycle_network":"icn"},"arcs":[[1094],[1095]]},{"type":"LineString","properties":{"kind":"major_road","sort_rank":380,"kind_detail":"primary","bus_network":"fr_twisto","source":"openstreetmap.org","min_zoom":8.0,"bus_shield_text":"9","landuse_kind":"urban_area","ref":"D 403","id":4303564},"arcs":[1096]},{"type":"LineString","properties":{"kind":"path","sort_rank":354,"kind_detail":"pedestrian","is_bicycle_related":true,"bicycle_shield_text":"EV4","bicycle_network":"icn","source":"openstreetmap.org","min_zoom":8.0,"landuse_kind":"protected_area","id":354892236},"arcs":[1097]},{"type":"LineString","properties":{"kind":"major_road","sort_rank":380,"kind_detail":"primary","is_bicycle_related":true,"bicycle_shield_text":"EV4","bicycle_network":"icn","source":"openstreetmap.org","min_zoom":8.0,"id":159156763},"arcs":[1098]},{"type":"MultiLineString","properties":{"bus_network":"fr_twisto","sort_rank":380,"kind_detail":"primary","kind":"major_road","source":"openstreetmap.org","min_zoom":8.0,"bus_shield_text":"19 Express","landuse_kind":"urban_area","ref":"D 515"},"arcs":[[1099],[1100],[1101],[1102]]},{"type":"LineString","properties":{"kind":"major_road","sort_rank":379,"kind_detail":"secondary","is_bicycle_related":true,"bus_network":"fr_busverts","bicycle_shield_text":"EV4","bicycle_network":"icn","source":"openstreetmap.org","min_zoom":8.0,"bus_shield_text":"3","landuse_kind":"residential","ref":"D 514","id":37849552},"arcs":[1103]},{"type":"LineString","properties":{"source":"openstreetmap.org","kind":"major_road","sort_rank":380,"kind_detail":"primary","ref":"D 404","min_zoom":8.0},"arcs":[1104]},{"type":"LineString","properties":{"kind":"path","sort_rank":354,"kind_detail":"path","is_bicycle_related":true,"bicycle_shield_text":"V43","bicycle_network":"ncn","source":"openstreetmap.org","min_zoom":8.0},"arcs":[1105]},{"type":"MultiLineString","properties":{"bus_network":"fr_twisto","sort_rank":380,"kind_detail":"primary","kind":"major_road","source":"openstreetmap.org","min_zoom":8.0,"bus_shield_text":"BV12","ref":"D 562"},"arcs":[[1106],[1107]]},{"type":"MultiLineString","properties":{"kind":"minor_road","sort_rank":358,"landuse_kind":"protected_area","is_bicycle_related":true,"bicycle_shield_text":"EV4","bicycle_network":"icn","source":"openstreetmap.org","min_zoom":8.0,"kind_detail":"service"},"arcs":[[1108],[1109],[1110],[1111],[1112],[1113],[1114]]},{"type":"MultiLineString","properties":{"source":"openstreetmap.org","kind":"major_road","landuse_kind":"protected_area","sort_rank":380,"kind_detail":"primary","ref":"D 900","min_zoom":8.0},"arcs":[[1115],[1116]]},{"type":"LineString","properties":{"sort_rank":355,"source":"openstreetmap.org","min_zoom":8.0,"kind":"ferry"},"arcs":[1117]},{"type":"MultiLineString","properties":{"source":"openstreetmap.org","kind":"major_road","landuse_kind":"urban_area","sort_rank":380,"kind_detail":"primary","ref":"D 613","min_zoom":8.0},"arcs":[[1118],[1119],[1120],[1121],[1122],[1123],[1124],[1125]]},{"type":"LineString","properties":{"kind":"major_road","sort_rank":377,"landuse_kind":"protected_area","is_bicycle_related":true,"bicycle_shield_text":"EV4","bicycle_network":"icn","source":"openstreetmap.org","min_zoom":8.0,"kind_detail":"tertiary","ref":"D 446"},"arcs":[1126]},{"type":"MultiLineString","properties":{"kind":"major_road","sort_rank":377,"landuse_kind":"protected_area","is_bicycle_related":true,"bicycle_shield_text":"EV4","bicycle_network":"icn","source":"openstreetmap.org","min_zoom":8.0,"kind_detail":"tertiary","ref":"D 421"},"arcs":[[1127],[1128]]},{"type":"MultiLineString","properties":{"source":"openstreetmap.org","kind":"major_road","sort_rank":380,"kind_detail":"primary","ref":"D 12","min_zoom":8.0},"arcs":[[1129],[1130],[1131],[1132],[1133],[1134]]},{"type":"MultiLineString","properties":{"kind":"major_road","sort_rank":379,"kind_detail":"secondary","is_bicycle_related":true,"bicycle_shield_text":"EV4","bicycle_network":"icn","source":"openstreetmap.org","min_zoom":8.0,"ref":"D 56"},"arcs":[[1135],[1136]]},{"type":"LineString","properties":{"kind":"major_road","sort_rank":380,"kind_detail":"primary","is_bicycle_related":true,"bus_network":"fr_twisto","cycleway":"track","source":"openstreetmap.org","min_zoom":8.0,"bus_shield_text":"C_Ex","landuse_kind":"urban_area","id":10875741},"arcs":[1137]},{"type":"LineString","properties":{"cycleway_right":"track","cycleway_left":"lane","sort_rank":360,"kind_detail":"residential","is_bicycle_related":true,"kind":"minor_road","bicycle_shield_text":"EV4","bicycle_network":"icn","source":"openstreetmap.org","min_zoom":8.0,"id":173286933},"arcs":[1138]},{"type":"LineString","properties":{"kind":"major_road","cycleway_left":"lane","sort_rank":380,"kind_detail":"primary","is_bicycle_related":true,"bus_network":"fr_busverts","source":"openstreetmap.org","min_zoom":8.0,"bus_shield_text":"162","ref":"D 511","id":177164641},"arcs":[1139]},{"type":"LineString","properties":{"kind":"major_road","sort_rank":377,"kind_detail":"tertiary","is_bicycle_related":true,"bicycle_shield_text":"EV4","bicycle_network":"icn","source":"openstreetmap.org","min_zoom":8.0,"ref":"D 34","id":46726071},"arcs":[1140]},{"type":"LineString","properties":{"source":"openstreetmap.org","kind":"major_road","sort_rank":380,"kind_detail":"primary","ref":"D 9","min_zoom":8.0},"arcs":[1141]},{"type":"MultiLineString","properties":{"kind":"major_road","sort_rank":377,"kind_detail":"tertiary","is_bicycle_related":true,"bicycle_shield_text":"EV4","bicycle_network":"icn","source":"openstreetmap.org","min_zoom":8.0,"ref":"D 185"},"arcs":[[1142],[1143],[1144]]},{"type":"LineString","properties":{"kind":"major_road","sort_rank":380,"kind_detail":"primary","bus_network":"fr_twisto","source":"openstreetmap.org","min_zoom":8.0,"bus_shield_text":"61","landuse_kind":"urban_area","id":166371001},"arcs":[1145]},{"type":"MultiLineString","properties":{"kind":"major_road","sort_rank":379,"landuse_kind":"protected_area","is_bicycle_related":true,"bicycle_shield_text":"EV4","bicycle_network":"icn","source":"openstreetmap.org","min_zoom":8.0,"kind_detail":"secondary"},"arcs":[[1146],[1147],[1148],[1149]]},{"type":"MultiLineString","properties":{"source":"openstreetmap.org","kind":"major_road","sort_rank":381,"kind_detail":"trunk","ref":"N 814","min_zoom":8.0},"arcs":[[1150],[1151],[1152],[1153],[1154],[1155]]},{"type":"LineString","properties":{"bus_network":"fr_busverts","sort_rank":379,"kind_detail":"secondary","is_bicycle_related":true,"kind":"major_road","bicycle_shield_text":"EV4","bicycle_network":"icn","source":"openstreetmap.org","min_zoom":8.0,"bus_shield_text":"20 variante","ref":"D 514"},"arcs":[1156]},{"type":"LineString","properties":{"kind":"major_road","sort_rank":377,"kind_detail":"tertiary","is_bicycle_related":true,"bicycle_shield_text":"V43","bicycle_network":"ncn","source":"openstreetmap.org","min_zoom":8.0,"ref":"D 133"},"arcs":[1157]},{"type":"LineString","properties":{"kind":"major_road","sort_rank":377,"kind_detail":"tertiary","is_bicycle_related":true,"bicycle_shield_text":"EV4","bicycle_network":"icn","source":"openstreetmap.org","min_zoom":8.0,"landuse_kind":"protected_area","ref":"D 269","id":84748391},"arcs":[1158]},{"type":"MultiLineString","properties":{"bus_network":"fr_twisto","sort_rank":380,"kind_detail":"primary","kind":"major_road","source":"openstreetmap.org","min_zoom":8.0,"bus_shield_text":"9","landuse_kind":"urban_area"},"arcs":[[1159],[1160],[1161]]},{"type":"MultiLineString","properties":{"kind":"minor_road","sort_rank":360,"kind_detail":"unclassified","is_bicycle_related":true,"bicycle_shield_text":"EV4","bicycle_network":"icn","source":"openstreetmap.org","min_zoom":8.0},"arcs":[[1162],[1163],[1164],[1165],[1166],[1167],[1168],[1169],[1170],[1171],[1172],[1173],[1174],[1175],[1176],[1177],[1178],[1179],[1180],[1181],[1182],[1183],[1184],[1185],[1186],[1187],[1188],[1189],[1190],[1191],[1192],[1193],[1194],[1195],[1196],[1197]]},{"type":"LineString","properties":{"kind":"major_road","sort_rank":377,"landuse_kind":"protected_area","is_bicycle_related":true,"bicycle_shield_text":"EV4","bicycle_network":"icn","source":"openstreetmap.org","min_zoom":8.0,"kind_detail":"tertiary","ref":"D 62"},"arcs":[1198]},{"type":"MultiLineString","properties":{"bus_network":"fr_busverts","sort_rank":380,"kind_detail":"primary","kind":"major_road","source":"openstreetmap.org","min_zoom":8.0,"bus_shield_text":"36","ref":"D 675"},"arcs":[[1199],[1200],[1201],[1202],[1203],[1204],[1205],[1206],[1207],[1208],[1209],[1210],[1211],[1212],[1213],[1214],[1215],[1216],[1217],[1218],[1219]]},{"type":"MultiLineString","properties":{"source":"openstreetmap.org","kind":"major_road","landuse_kind":"residential","sort_rank":380,"kind_detail":"primary","min_zoom":8.0},"arcs":[[1220],[1221],[1222],[1223],[1224],[1225],[1226],[1227],[1228],[1229],[1230],[1231],[1232],[1233],[1234],[1235],[1236],[1237],[1238],[1239],[1240],[1241],[1242],[1243],[1244],[1245]]},{"type":"LineString","properties":{"kind":"major_road","sort_rank":377,"kind_detail":"tertiary","is_bicycle_related":true,"bus_network":"TER Basse-Normandie","bicycle_shield_text":"EV4","bicycle_network":"icn","source":"openstreetmap.org","min_zoom":8.0,"bus_shield_text":"TER","id":364187099},"arcs":[1246]},{"type":"MultiLineString","properties":{"kind":"minor_road","sort_rank":360,"kind_detail":"residential","is_bicycle_related":true,"bicycle_shield_text":"EV4","bicycle_network":"icn","source":"openstreetmap.org","min_zoom":8.0,"landuse_kind":"protected_area"},"arcs":[[1247],[1248],[1249],[1250],[1251],[1252],[1253],[1254],[1255],[1256],[1257]]},{"type":"LineString","properties":{"kind":"major_road","sort_rank":380,"kind_detail":"primary","bus_network":"fr_twisto","source":"openstreetmap.org","min_zoom":8.0,"bus_shield_text":"14","landuse_kind":"urban_area","id":449530906},"arcs":[1258]},{"type":"MultiLineString","properties":{"kind":"highway","network":"e-road","sort_rank":383,"kind_detail":"motorway","source":"openstreetmap.org","min_zoom":8.0,"all_networks":["e-road","FR:A-road"],"shield_text":"401","ref":"A 84","all_shield_texts":["401","84"]},"arcs":[[1259],[1260],[1261],[1262],[1263],[1264],[1265],[1266],[1267],[1268],[1269],[1270],[1271],[1272],[1273],[1274],[1275],[1276]]},{"type":"MultiLineString","properties":{"kind":"path","sort_rank":354,"landuse_kind":"protected_area","is_bicycle_related":true,"bicycle_shield_text":"EV4","bicycle_network":"icn","source":"openstreetmap.org","min_zoom":8.0,"kind_detail":"path"},"arcs":[[1277],[1278],[1279],[1280],[1281],[1282],[1283],[1284],[1285]]},{"type":"MultiLineString","properties":{"source":"openstreetmap.org","kind":"major_road","sort_rank":380,"kind_detail":"primary","ref":"D 577a","min_zoom":8.0},"arcs":[[1286],[1287],[1288],[1289],[1290]]},{"type":"MultiLineString","properties":{"kind":"minor_road","sort_rank":360,"kind_detail":"residential","is_bicycle_related":true,"bicycle_shield_text":"V43","bicycle_network":"ncn","source":"openstreetmap.org","min_zoom":8.0},"arcs":[[1291],[1292]]},{"type":"MultiLineString","properties":{"source":"openstreetmap.org","kind":"major_road","old_name":"Boulevard Weygand","sort_rank":380,"kind_detail":"primary","landuse_kind":"urban_area","min_zoom":8.0},"arcs":[[1293],[1294],[1295],[1296]]},{"type":"LineString","properties":{"kind":"major_road","sort_rank":380,"kind_detail":"primary","bus_network":"fr_twisto","source":"openstreetmap.org","min_zoom":8.0,"bus_shield_text":"24","landuse_kind":"urban_area","id":474204003},"arcs":[1297]},{"type":"MultiLineString","properties":{"source":"openstreetmap.org","kind":"major_road","landuse_kind":"nature_reserve","sort_rank":380,"kind_detail":"primary","ref":"D 572","min_zoom":8.0},"arcs":[[1298],[1299],[1300],[1301],[1302],[1303]]},{"type":"MultiLineString","properties":{"kind":"path","sort_rank":354,"kind_detail":"track","is_bicycle_related":true,"bicycle_shield_text":"EV4","bicycle_network":"icn","source":"openstreetmap.org","min_zoom":8.0},"arcs":[[1304],[1305],[1306],[1307],[1308],[1309],[1310],[1311],[1312],[1313],[1314],[1315],[1316],[1317],[1318],[1319],[1320],[1321],[1322],[1323],[1324],[1325],[1326],[1327],[1328],[1329]]},{"type":"LineString","properties":{"kind":"major_road","sort_rank":380,"kind_detail":"primary","bus_network":"fr_busverts","source":"openstreetmap.org","min_zoom":8.0,"bus_shield_text":"BV36","id":186006271},"arcs":[1330]},{"type":"LineString","properties":{"kind":"major_road","sort_rank":380,"kind_detail":"primary","is_bicycle_related":true,"bus_network":"fr_busverts","source":"openstreetmap.org","min_zoom":8.0,"bus_shield_text":"BV36","landuse_kind":"urban_area","ref":"D 675","id":333952071},"arcs":[1331]},{"type":"LineString","properties":{"source":"openstreetmap.org","kind":"ferry","name":"Portsmouth-Ouistreham","sort_rank":355,"landuse_kind":"urban_area","min_zoom":8.0,"id":420041114},"arcs":[1332]},{"type":"MultiLineString","properties":{"source":"openstreetmap.org","kind":"major_road","sort_rank":380,"kind_detail":"primary","ref":"D 674","min_zoom":8.0},"arcs":[[1333],[1334],[1335],[1336],[1337],[1338],[1339],[1340],[1341],[1342]]},{"type":"LineString","properties":{"bus_network":"fr_busverts","cycleway_left":"lane","sort_rank":380,"kind_detail":"primary","is_bicycle_related":true,"kind":"major_road","source":"openstreetmap.org","min_zoom":8.0,"bus_shield_text":"BV36","landuse_kind":"urban_area","ref":"D 675"},"arcs":[1343]},{"type":"MultiLineString","properties":{"kind":"major_road","network":"e-road","sort_rank":381,"kind_detail":"trunk","source":"openstreetmap.org","min_zoom":8.0,"shield_text":"401","ref":"N 814"},"arcs":[[1344],[1345]]},{"type":"LineString","properties":{"kind":"path","sort_rank":354,"kind_detail":"footway","is_bicycle_related":true,"bicycle_shield_text":"EV4","bicycle_network":"icn","source":"openstreetmap.org","min_zoom":8.0,"landuse_kind":"protected_area","id":176786600},"arcs":[1346]},{"type":"LineString","properties":{"source":"openstreetmap.org","kind":"major_road","sort_rank":380,"kind_detail":"primary","ref":"D 513","min_zoom":8.0},"arcs":[1347]},{"type":"MultiLineString","properties":{"bus_network":"fr_twisto","sort_rank":380,"kind_detail":"primary","kind":"major_road","source":"openstreetmap.org","min_zoom":8.0,"bus_shield_text":"BV12","landuse_kind":"urban_area","ref":"D 562a"},"arcs":[[1348],[1349]]},{"type":"LineString","properties":{"kind":"major_road","sort_rank":381,"kind_detail":"trunk","bus_network":"fr_twisto","source":"openstreetmap.org","min_zoom":8.0,"bus_shield_text":"24","landuse_kind":"urban_area","ref":"D 7","id":195278755},"arcs":[1350]},{"type":"LineString","properties":{"kind":"major_road","sort_rank":379,"landuse_kind":"protected_area","is_bicycle_related":true,"bicycle_shield_text":"EV4","bicycle_network":"icn","source":"openstreetmap.org","min_zoom":8.0,"kind_detail":"secondary","ref":"D 8"},"arcs":[1351]},{"type":"LineString","properties":{"kind":"minor_road","service":"parking_aisle","sort_rank":360,"kind_detail":"unclassified","is_bicycle_related":true,"bicycle_shield_text":"EV4","bicycle_network":"icn","source":"openstreetmap.org","min_zoom":8.0,"id":35744290},"arcs":[1352]},{"type":"LineString","properties":{"bus_network":"fr_busverts","sort_rank":380,"kind_detail":"primary","is_bicycle_related":true,"kind":"major_road","cycleway":"track","source":"openstreetmap.org","min_zoom":8.0,"bus_shield_text":"20","landuse_kind":"urban_area","ref":"D 513"},"arcs":[1353]},{"type":"LineString","properties":{"kind":"minor_road","sort_rank":360,"kind_detail":"residential","is_bicycle_related":true,"bicycle_shield_text":"EV4","cycleway":"opposite","source":"openstreetmap.org","min_zoom":8.0,"landuse_kind":"urban_area","bicycle_network":"icn","id":37794524},"arcs":[1354]},{"type":"MultiLineString","properties":{"kind":"major_road","sort_rank":377,"landuse_kind":"protected_area","is_bicycle_related":true,"bicycle_shield_text":"EV4","bicycle_network":"icn","source":"openstreetmap.org","min_zoom":8.0,"kind_detail":"tertiary","ref":"D 89"},"arcs":[[1355],[1356]]},{"type":"LineString","properties":{"kind":"major_road","sort_rank":377,"kind_detail":"tertiary","is_bicycle_related":true,"bicycle_shield_text":"EV4","bicycle_network":"icn","source":"openstreetmap.org","min_zoom":8.0,"ref":"D 306"},"arcs":[1357]},{"type":"MultiLineString","properties":{"bus_network":"fr_busverts","sort_rank":380,"kind_detail":"primary","kind":"major_road","source":"openstreetmap.org","min_zoom":8.0,"bus_shield_text":"BV36","landuse_kind":"urban_area"},"arcs":[[1358],[1359],[1360],[1361],[1362],[1363]]},{"type":"MultiLineString","properties":{"bus_network":"fr_busverts","sort_rank":380,"kind_detail":"primary","kind":"major_road","source":"openstreetmap.org","min_zoom":8.0,"bus_shield_text":"BV10","landuse_kind":"urban_area"},"arcs":[[1364],[1365]]},{"type":"MultiLineString","properties":{"kind":"minor_road","sort_rank":360,"landuse_kind":"residential","is_bicycle_related":true,"bicycle_shield_text":"EV4","bicycle_network":"icn","source":"openstreetmap.org","min_zoom":8.0,"kind_detail":"residential"},"arcs":[[1366],[1367],[1368]]},{"type":"MultiLineString","properties":{"kind":"highway","network":"e-road","sort_rank":383,"landuse_kind":"urban_area","source":"openstreetmap.org","min_zoom":8.0,"all_networks":["e-road","FR:A-road"],"kind_detail":"motorway","shield_text":"46","ref":"A 13","all_shield_texts":["46","13"]},"arcs":[[1369],[1370],[1371]]},{"type":"MultiLineString","properties":{"source":"openstreetmap.org","kind":"major_road","landuse_kind":"urban_area","sort_rank":380,"kind_detail":"primary","ref":"D 403","min_zoom":8.0},"arcs":[[1372],[1373],[1374],[1375]]},{"type":"LineString","properties":{"kind":"major_road","sort_rank":379,"kind_detail":"secondary","is_bicycle_related":true,"bicycle_shield_text":"EV4","cycleway":"lane","source":"openstreetmap.org","min_zoom":8.0,"landuse_kind":"urban_area","bicycle_network":"icn","ref":"D 514","id":30995485},"arcs":[1376]},{"type":"MultiLineString","properties":{"source":"openstreetmap.org","kind":"major_road","sort_rank":380,"kind_detail":"primary","ref":"D 562","min_zoom":8.0},"arcs":[[1377],[1378],[1379],[1380],[1381],[1382],[1383],[1384]]},{"type":"MultiLineString","properties":{"bus_network":"fr_busverts","sort_rank":380,"kind_detail":"primary","kind":"major_road","source":"openstreetmap.org","min_zoom":8.0,"bus_shield_text":"BV36","landuse_kind":"urban_area","ref":"D 675"},"arcs":[[1385],[1386],[1387],[1388],[1389],[1390],[1391],[1392],[1393],[1394],[1395]]},{"type":"MultiLineString","properties":{"bus_network":"fr_twisto","sort_rank":380,"kind_detail":"primary","kind":"major_road","source":"openstreetmap.org","min_zoom":8.0,"bus_shield_text":"BV12","landuse_kind":"urban_area","ref":"D 562"},"arcs":[[1396],[1397]]},{"type":"MultiLineString","properties":{"bus_network":"fr_twisto","sort_rank":380,"landuse_kind":"urban_area","bus_shield_text":"14","kind":"major_road","source":"openstreetmap.org","min_zoom":8.0,"old_name":"Boulevard Weygand","kind_detail":"primary"},"arcs":[[1398],[1399]]},{"type":"LineString","properties":{"bus_network":"fr_busverts","sort_rank":380,"kind_detail":"primary","kind":"major_road","source":"openstreetmap.org","min_zoom":8.0,"bus_shield_text":"162","ref":"D 4"},"arcs":[1400]},{"type":"MultiLineString","properties":{"kind":"highway","network":"e-road","sort_rank":383,"kind_detail":"motorway","source":"openstreetmap.org","min_zoom":8.0,"all_networks":["e-road","e-road","FR:A-road"],"shield_text":"03","ref":"A 84","all_shield_texts":["03","401","84"]},"arcs":[[1401],[1402],[1403],[1404],[1405],[1406],[1407],[1408],[1409],[1410]]},{"type":"LineString","properties":{"sort_rank":355,"source":"openstreetmap.org","min_zoom":8.0,"name":"Portsmouth-Ouistreham","kind":"ferry"},"arcs":[1411]},{"type":"MultiLineString","properties":{"source":"openstreetmap.org","kind":"major_road","landuse_kind":"protected_area","sort_rank":380,"kind_detail":"primary","ref":"D 971","min_zoom":8.0},"arcs":[[1412],[1413],[1414],[1415],[1416],[1417],[1418],[1419],[1420],[1421],[1422],[1423],[1424],[1425],[1426],[1427],[1428],[1429]]},{"type":"MultiLineString","properties":{"bus_network":"fr_twisto","sort_rank":380,"kind_detail":"primary","kind":"major_road","source":"openstreetmap.org","min_zoom":8.0,"bus_shield_text":"BV12","landuse_kind":"urban_area"},"arcs":[[1430],[1431]]},{"type":"LineString","properties":{"kind":"minor_road","sort_rank":360,"kind_detail":"unclassified","is_bicycle_related":true,"bicycle_shield_text":"EV4","bicycle_network":"icn","source":"openstreetmap.org","min_zoom":8.0,"landuse_kind":"urban_area","id":37881685},"arcs":[1432]},{"type":"MultiLineString","properties":{"source":"openstreetmap.org","bus_network":"fr_busverts","bus_shield_text":"36","sort_rank":380,"kind_detail":"primary","min_zoom":8.0,"kind":"major_road"},"arcs":[[1433],[1434],[1435],[1436],[1437]]},{"type":"LineString","properties":{"kind":"major_road","sort_rank":377,"landuse_kind":"protected_area","is_bicycle_related":true,"bicycle_shield_text":"EV4","bicycle_network":"icn","source":"openstreetmap.org","min_zoom":8.0,"kind_detail":"tertiary","ref":"D 420"},"arcs":[1438]},{"type":"LineString","properties":{"kind":"minor_road","sort_rank":360,"kind_detail":"unclassified","is_bicycle_related":true,"bicycle_shield_text":"EV4","cycleway":"lane","source":"openstreetmap.org","min_zoom":8.0,"bicycle_network":"icn","id":207614838},"arcs":[1439]},{"type":"MultiLineString","properties":{"bus_network":"fr_busverts","sort_rank":380,"kind_detail":"primary","kind":"major_road","source":"openstreetmap.org","min_zoom":8.0,"bus_shield_text":"3","landuse_kind":"urban_area","ref":"D 7"},"arcs":[[1440],[1441]]},{"type":"MultiLineString","properties":{"bus_network":"fr_busverts","sort_rank":380,"kind_detail":"primary","kind":"major_road","source":"openstreetmap.org","min_zoom":8.0,"bus_shield_text":"19","landuse_kind":"urban_area"},"arcs":[[1442],[1443],[1444]]},{"type":"MultiLineString","properties":{"source":"openstreetmap.org","kind":"major_road","landuse_kind":"urban_area","sort_rank":380,"kind_detail":"primary","min_zoom":8.0},"arcs":[[1445],[1446],[1447],[1448],[1449],[1450],[1451],[1452],[1453],[1454],[1455],[1456],[1457],[1458],[1459],[1460],[1461],[1462],[1463],[1464],[1465],[1466],[1467],[1468],[1469],[1470],[1471],[1472],[1473],[1474]]},{"type":"LineString","properties":{"kind":"major_road","sort_rank":377,"kind_detail":"tertiary","is_bicycle_related":true,"bicycle_shield_text":"EV4","bicycle_network":"icn","source":"openstreetmap.org","min_zoom":8.0,"ref":"D 128","id":208555126},"arcs":[1475]},{"type":"MultiLineString","properties":{"source":"openstreetmap.org","kind":"major_road","sort_rank":380,"kind_detail":"primary","ref":"D 613","min_zoom":8.0},"arcs":[[1476],[1477],[1478],[1479],[1480],[1481],[1482],[1483],[1484],[1485],[1486],[1487],[1488],[1489],[1490],[1491],[1492],[1493],[1494],[1495],[1496],[1497],[1498],[1499],[1500],[1501],[1502],[1503],[1504],[1505],[1506],[1507],[1508],[1509],[1510],[1511],[1512],[1513],[1514],[1515],[1516],[1517],[1518],[1519],[1520]]},{"type":"LineString","properties":{"kind":"highway","network":"e-road","sort_rank":383,"kind_detail":"motorway","source":"openstreetmap.org","min_zoom":8.0,"all_networks":["e-road"],"landuse_kind":"urban_area","shield_text":"46","ref":"A13","id":170224910,"all_shield_texts":["46"]},"arcs":[1521]},{"type":"LineString","properties":{"kind":"ferry","name":"Portsmouth - Le Havre","sort_rank":355,"is_bicycle_related":true,"source":"openstreetmap.org","min_zoom":8.0,"all_shield_texts":["Havre"],"shield_text":"Havre","all_networks":["international"],"osm_relation":true,"network":"international"},"arcs":[1522]},{"type":"MultiLineString","properties":{"kind":"major_road","network":"e-road","sort_rank":381,"kind_detail":"trunk","source":"openstreetmap.org","min_zoom":8.0,"shield_text":"03","ref":"N 13"},"arcs":[[1523],[1524],[1525],[1526],[1527],[1528]]},{"type":"LineString","properties":{"kind":"major_road","sort_rank":377,"kind_detail":"tertiary","is_bicycle_related":true,"bicycle_shield_text":"EV4","bicycle_network":"icn","source":"openstreetmap.org","min_zoom":8.0,"ref":"D 420","id":84748403},"arcs":[1529]},{"type":"MultiLineString","properties":{"kind":"major_road","sort_rank":380,"kind_detail":"primary","is_bicycle_related":true,"cycleway":"lane","source":"openstreetmap.org","min_zoom":8.0,"landuse_kind":"urban_area"},"arcs":[[1530],[1531],[1532]]},{"type":"LineString","properties":{"kind":"major_road","sort_rank":380,"kind_detail":"primary","bus_network":"fr_twisto","source":"openstreetmap.org","min_zoom":8.0,"bus_shield_text":"4","landuse_kind":"urban_area","id":341509355},"arcs":[1533]},{"type":"MultiLineString","properties":{"kind":"highway","network":"e-road","sort_rank":383,"kind_detail":"motorway","source":"openstreetmap.org","min_zoom":8.0,"all_networks":["e-road","FR:A-road"],"shield_text":"46","ref":"A 13","all_shield_texts":["46","13"]},"arcs":[[1534],[1535],[1536],[1537],[1538],[1539]]},{"type":"LineString","properties":{"kind":"major_road","sort_rank":380,"kind_detail":"primary","bus_network":"fr_busverts","source":"openstreetmap.org","min_zoom":8.0,"bus_shield_text":"19","ref":"D 514","id":458755249},"arcs":[1540]},{"type":"MultiLineString","properties":{"kind":"major_road","sort_rank":377,"kind_detail":"tertiary","is_bicycle_related":true,"bicycle_shield_text":"EV4","bicycle_network":"icn","source":"openstreetmap.org","min_zoom":8.0},"arcs":[[1541],[1542],[1543]]},{"type":"MultiLineString","properties":{"bus_network":"fr_busverts","sort_rank":381,"kind_detail":"trunk","kind":"major_road","source":"openstreetmap.org","min_zoom":8.0,"bus_shield_text":"3","ref":"D 7"},"arcs":[[1544],[1545]]},{"type":"LineString","properties":{"kind":"major_road","sort_rank":377,"kind_detail":"tertiary","is_bicycle_related":true,"bicycle_shield_text":"V43","bicycle_network":"ncn","source":"openstreetmap.org","min_zoom":8.0,"ref":"D 166"},"arcs":[1546]},{"type":"MultiLineString","properties":{"kind":"minor_road","sort_rank":360,"kind_detail":"residential","is_bicycle_related":true,"bicycle_shield_text":"EV4","bicycle_network":"icn","source":"openstreetmap.org","min_zoom":8.0},"arcs":[[1547],[1548],[1549],[1550],[1551],[1552],[1553],[1554],[1555],[1556],[1557],[1558],[1559],[1560],[1561],[1562],[1563],[1564],[1565],[1566],[1567],[1568],[1569],[1570],[1571],[1572],[1573],[1574],[1575],[1576],[1577],[1578],[1579],[1580],[1581],[1582],[1583],[1584],[1585],[1586],[1587]]},{"type":"MultiLineString","properties":{"bus_network":"fr_twisto","sort_rank":380,"kind_detail":"primary","is_bicycle_related":true,"kind":"major_road","cycleway":"lane","source":"openstreetmap.org","min_zoom":8.0,"bus_shield_text":"C_Ex","landuse_kind":"urban_area","ref":"D 7"},"arcs":[[1588],[1589]]},{"type":"MultiLineString","properties":{"kind":"major_road","sort_rank":377,"landuse_kind":"residential","is_bicycle_related":true,"bicycle_shield_text":"EV4","bicycle_network":"icn","source":"openstreetmap.org","min_zoom":8.0,"kind_detail":"tertiary","ref":"D 514"},"arcs":[[1590],[1591],[1592]]},{"type":"LineString","properties":{"kind":"major_road","sort_rank":381,"landuse_kind":"urban_area","source":"openstreetmap.org","min_zoom":8.0,"kind_detail":"trunk","ref":"D 513","id":385822930},"arcs":[1593]},{"type":"MultiLineString","properties":{"source":"openstreetmap.org","bus_network":"fr_twisto","bus_shield_text":"22","sort_rank":380,"kind_detail":"primary","min_zoom":8.0,"kind":"major_road"},"arcs":[[1594],[1595],[1596]]},{"type":"MultiLineString","properties":{"bus_network":"fr_twisto","sort_rank":380,"kind_detail":"primary","is_bicycle_related":true,"kind":"major_road","cycleway":"lane","source":"openstreetmap.org","min_zoom":8.0,"bus_shield_text":"15","landuse_kind":"urban_area"},"arcs":[[1597],[1598]]},{"type":"MultiLineString","properties":{"kind":"path","sort_rank":354,"kind_detail":"pedestrian","is_bicycle_related":true,"bicycle_shield_text":"EV4","bicycle_network":"icn","source":"openstreetmap.org","min_zoom":8.0,"landuse_kind":"urban_area"},"arcs":[[1599],[1600]]},{"type":"LineString","properties":{"kind":"major_road","sort_rank":377,"kind_detail":"tertiary","is_bicycle_related":true,"bicycle_shield_text":"EV4","bicycle_network":"icn","source":"openstreetmap.org","min_zoom":8.0,"ref":"D 355"},"arcs":[1601]},{"type":"MultiLineString","properties":{"kind":"major_road","network":"e-road","sort_rank":381,"landuse_kind":"protected_area","source":"openstreetmap.org","min_zoom":8.0,"kind_detail":"trunk","shield_text":"46","ref":"N 13"},"arcs":[[1602],[1603],[1604],[1605],[1606]]},{"type":"MultiLineString","properties":{"bus_network":"fr_twisto","sort_rank":380,"kind_detail":"primary","kind":"major_road","source":"openstreetmap.org","min_zoom":8.0,"bus_shield_text":"C_Ex","landuse_kind":"urban_area"},"arcs":[[1607],[1608]]},{"type":"MultiLineString","properties":{"bus_network":"fr_busverts","sort_rank":380,"kind_detail":"primary","kind":"major_road","source":"openstreetmap.org","min_zoom":8.0,"bus_shield_text":"20","landuse_kind":"urban_area","ref":"D 513"},"arcs":[[1609],[1610],[1611],[1612],[1613],[1614]]},{"type":"LineString","properties":{"kind":"major_road","sort_rank":377,"landuse_kind":"protected_area","is_bicycle_related":true,"bicycle_shield_text":"EV4","bicycle_network":"icn","source":"openstreetmap.org","min_zoom":8.0,"kind_detail":"tertiary","ref":"D 389"},"arcs":[1615]},{"type":"MultiLineString","properties":{"source":"openstreetmap.org","kind":"major_road","sort_rank":380,"kind_detail":"primary","ref":"D 40","min_zoom":8.0},"arcs":[[1616],[1617],[1618]]},{"type":"MultiLineString","properties":{"bus_network":"fr_busverts","sort_rank":381,"landuse_kind":"urban_area","kind":"major_road","source":"openstreetmap.org","min_zoom":8.0,"bus_shield_text":"1","kind_detail":"trunk","ref":"D 515"},"arcs":[[1619],[1620]]},{"type":"MultiLineString","properties":{"source":"openstreetmap.org","bus_network":"TER Basse-Normandie","bus_shield_text":"TER","sort_rank":380,"kind_detail":"primary","min_zoom":8.0,"kind":"major_road"},"arcs":[[1621],[1622],[1623],[1624],[1625],[1626],[1627],[1628]]},{"type":"MultiLineString","properties":{"kind":"minor_road","sort_rank":358,"landuse_kind":"urban_area","is_bicycle_related":true,"bicycle_shield_text":"EV4","bicycle_network":"icn","source":"openstreetmap.org","min_zoom":8.0,"kind_detail":"service"},"arcs":[[1629],[1630]]},{"type":"MultiLineString","properties":{"bus_network":"fr_busverts","sort_rank":380,"kind_detail":"primary","kind":"major_road","source":"openstreetmap.org","min_zoom":8.0,"bus_shield_text":"162","ref":"D 40"},"arcs":[[1631],[1632],[1633],[1634],[1635],[1636],[1637]]},{"type":"MultiLineString","properties":{"source":"openstreetmap.org","bus_network":"fr_twisto","bus_shield_text":"BV12","sort_rank":380,"kind_detail":"primary","min_zoom":8.0,"kind":"major_road"},"arcs":[[1638],[1639],[1640],[1641]]},{"type":"MultiLineString","properties":{"bus_network":"fr_busverts","sort_rank":380,"kind_detail":"primary","kind":"major_road","source":"openstreetmap.org","min_zoom":8.0,"bus_shield_text":"3","landuse_kind":"urban_area"},"arcs":[[1642],[1643]]},{"type":"LineString","properties":{"kind":"highway","network":"FR:A-road","sort_rank":383,"kind_detail":"motorway","source":"openstreetmap.org","min_zoom":8.0,"all_networks":["FR:A-road"],"shield_text":"84","ref":"A 84","all_shield_texts":["84"]},"arcs":[1644]},{"type":"MultiLineString","properties":{"kind":"major_road","sort_rank":377,"landuse_kind":"protected_area","is_bicycle_related":true,"bicycle_shield_text":"EV4","bicycle_network":"icn","source":"openstreetmap.org","min_zoom":8.0,"kind_detail":"tertiary","ref":"D 444"},"arcs":[[1645],[1646],[1647]]},{"type":"MultiLineString","properties":{"kind":"minor_road","sort_rank":358,"kind_detail":"service","is_bicycle_related":true,"bicycle_shield_text":"EV4","bicycle_network":"icn","source":"openstreetmap.org","min_zoom":8.0},"arcs":[[1648],[1649],[1650],[1651],[1652],[1653],[1654]]},{"type":"MultiLineString","properties":{"bus_network":"fr_busverts","sort_rank":380,"kind_detail":"primary","kind":"major_road","source":"openstreetmap.org","min_zoom":8.0,"bus_shield_text":"162","ref":"D 511"},"arcs":[[1655],[1656]]},{"type":"LineString","properties":{"kind":"minor_road","sort_rank":358,"kind_detail":"service","is_bicycle_related":true,"bicycle_shield_text":"EV4","cycleway":"opposite","source":"openstreetmap.org","min_zoom":8.0,"bicycle_network":"icn","id":128680098},"arcs":[1657]},{"type":"MultiLineString","properties":{"kind":"major_road","sort_rank":377,"kind_detail":"tertiary","is_bicycle_related":true,"bicycle_shield_text":"EV4","bicycle_network":"icn","source":"openstreetmap.org","min_zoom":8.0,"ref":"D 10"},"arcs":[[1658],[1659]]},{"type":"MultiLineString","properties":{"kind":"major_road","network":"e-road","sort_rank":381,"landuse_kind":"urban_area","source":"openstreetmap.org","min_zoom":8.0,"kind_detail":"trunk","shield_text":"46","ref":"N 814"},"arcs":[[1660],[1661]]},{"type":"MultiLineString","properties":{"kind":"major_road","sort_rank":377,"kind_detail":"tertiary","is_bicycle_related":true,"bicycle_shield_text":"EV4","bicycle_network":"icn","source":"openstreetmap.org","min_zoom":8.0,"ref":"D 25"},"arcs":[[1662],[1663]]},{"type":"MultiLineString","properties":{"kind":"path","sort_rank":354,"kind_detail":"pedestrian","is_bicycle_related":true,"bicycle_shield_text":"EV4","bicycle_network":"icn","source":"openstreetmap.org","min_zoom":8.0},"arcs":[[1664],[1665],[1666],[1667],[1668],[1669],[1670],[1671],[1672],[1673]]},{"type":"LineString","properties":{"bus_network":"fr_twisto","sort_rank":380,"kind_detail":"primary","is_bicycle_related":true,"kind":"major_road","cycleway":"lane","source":"openstreetmap.org","min_zoom":8.0,"bus_shield_text":"BV12"},"arcs":[1674]},{"type":"MultiLineString","properties":{"kind":"major_road","sort_rank":377,"landuse_kind":"protected_area","is_bicycle_related":true,"bicycle_shield_text":"EV4","bicycle_network":"icn","source":"openstreetmap.org","min_zoom":8.0,"kind_detail":"tertiary","ref":"D 445"},"arcs":[[1675],[1676]]},{"type":"LineString","properties":{"kind":"major_road","sort_rank":380,"kind_detail":"primary","bus_shield_text":"noctibus","bus_network":"fr_twisto","source":"openstreetmap.org","min_zoom":8.0,"old_name":"Boulevard Weygand","landuse_kind":"urban_area","id":191146496},"arcs":[1677]},{"type":"LineString","properties":{"kind":"major_road","sort_rank":377,"kind_detail":"tertiary","is_bicycle_related":true,"bicycle_shield_text":"EV4","bicycle_network":"icn","source":"openstreetmap.org","min_zoom":8.0,"ref":"D 155"},"arcs":[1678]},{"type":"LineString","properties":{"bus_network":"fr_busverts","sort_rank":380,"kind_detail":"primary","is_bicycle_related":true,"kind":"major_road","cycleway":"lane","source":"openstreetmap.org","min_zoom":8.0,"bus_shield_text":"36","ref":"D 675"},"arcs":[1679]},{"type":"MultiLineString","properties":{"kind":"path","sort_rank":354,"kind_detail":"cycleway","is_bicycle_related":true,"bicycle_shield_text":"V43","bicycle_network":"ncn","source":"openstreetmap.org","min_zoom":8.0,"landuse_kind":"urban_area"},"arcs":[[1680],[1681],[1682],[1683]]},{"type":"MultiLineString","properties":{"source":"openstreetmap.org","kind":"major_road","sort_rank":380,"kind_detail":"primary","ref":"D 400","min_zoom":8.0},"arcs":[[1684],[1685],[1686],[1687],[1688],[1689],[1690]]},{"type":"LineString","properties":{"kind":"major_road","sort_rank":379,"landuse_kind":"residential","is_bicycle_related":true,"bicycle_shield_text":"EV4","bicycle_network":"icn","source":"openstreetmap.org","min_zoom":8.0,"kind_detail":"secondary","cycleway":"track","ref":"D 514"},"arcs":[1691]},{"type":"LineString","properties":{"source":"openstreetmap.org","kind":"major_road","landuse_kind":"protected_area","sort_rank":380,"kind_detail":"primary","ref":"D 903","min_zoom":8.0},"arcs":[1692]},{"type":"LineString","properties":{"kind":"minor_road","sort_rank":360,"kind_detail":"living_street","is_bicycle_related":true,"bicycle_shield_text":"EV4","bicycle_network":"icn","source":"openstreetmap.org","min_zoom":8.0,"id":354892253},"arcs":[1693]},{"type":"MultiLineString","properties":{"source":"openstreetmap.org","kind":"major_road","kind_detail":"trunk","sort_rank":381,"landuse_kind":"urban_area","ref":"N 814","min_zoom":8.0},"arcs":[[1694],[1695],[1696],[1697],[1698],[1699]]},{"type":"LineString","properties":{"kind":"major_road","sort_rank":379,"kind_detail":"secondary","is_bicycle_related":true,"bicycle_shield_text":"EV4","bicycle_network":"icn","source":"openstreetmap.org","min_zoom":8.0,"landuse_kind":"protected_area","ref":"D 124","id":193308238},"arcs":[1700]},{"type":"MultiLineString","properties":{"source":"openstreetmap.org","kind":"major_road","sort_rank":380,"kind_detail":"primary","ref":"D 79","min_zoom":8.0},"arcs":[[1701],[1702],[1703],[1704],[1705],[1706]]}]},"earth":{"type":"GeometryCollection","geometries":[{"type":"MultiPolygon","properties":{"sort_rank":10,"source":"naturalearthdata.com","min_zoom":0.0,"kind":"earth","area":19967816291},"arcs":[[[1707]]]}]},"landuse":{"type":"GeometryCollection","geometries":[{"type":"MultiPolygon","properties":{"source":"openstreetmap.org","kind":"residential","tier":2,"area":23026302,"sort_rank":20,"min_zoom":8.0,"osm_relation":true},"arcs":[[[1708],[1709],[1710]]]},{"type":"MultiPolygon","properties":{"source":"naturalearthdata.com","kind":"urban_area","name":"","area":723606910,"sort_rank":11,"min_zoom":4.0},"arcs":[[[1711]],[[1712]]]},{"type":"Polygon","properties":{"kind":"nature_reserve","protect_class":"5","area":11082000,"sort_rank":23,"source":"openstreetmap.org","min_zoom":8.0,"tier":2,"id":-2123953,"osm_relation":true},"arcs":[[1713]]},{"type":"MultiPolygon","properties":{"source":"openstreetmap.org","kind":"nature_reserve","tier":2,"protect_class":"4","area":25419959,"sort_rank":23,"min_zoom":8.0},"arcs":[[[1714]],[[1715]]]},{"type":"MultiPolygon","properties":{"source":"openstreetmap.org","kind":"residential","tier":2,"area":24674117,"sort_rank":20,"min_zoom":8.0},"arcs":[[[1716]]]},{"type":"MultiPolygon","properties":{"kind":"nature_reserve","protect_class":"4","area":140722207,"sort_rank":23,"source":"openstreetmap.org","min_zoom":8.0,"tier":2,"osm_relation":true},"arcs":[[[1717]]]},{"type":"Polygon","properties":{"kind":"protected_area","protect_class":"5","area":3483859968,"sort_rank":17,"source":"openstreetmap.org","min_zoom":4.0,"tier":2,"id":-5247732,"osm_relation":true},"arcs":[[1718],[1719],[1720]]}]}},"type":"Topology","transform":{"translate":[-1.40625,48.9224992638],"scale":[0.0003433228,0.0002235066]},"arcs":[[[3945,4096],[-158,-136],[-179,-276],[-67,-227],[-6,-233],[-123,-370],[-23,-222],[-254,92],[-409,65],[-777,42],[-184,104],[-251,73],[-90,231],[-70,316],[-178,405],[-125,136]],[[4096,1804],[-226,-95],[-35,-43],[-12,16],[-194,-51],[-201,-4],[4,-24],[-59,32],[4,20],[-139,19],[-205,125],[-127,48],[-348,47],[-222,-28],[-131,31],[-310,12],[-5,18],[-262,38],[-143,68],[-81,69],[-190,25],[-113,-37],[-144,-4],[-121,-130],[4,-66],[-54,42],[-4,53],[-63,-29],[-53,25],[12,55],[41,37],[-14,87],[-269,357],[-145,241],[-2,118],[32,81],[72,6],[-14,-52],[10,-10],[13,49],[33,20],[-28,29],[26,88],[85,-30],[-32,218],[-98,113],[23,77],[-76,-18],[-119,53],[-37,-17],[-134,24],[-45,-15]],[[3083,1139],[7,2],[7,1]],[[3097,1142],[3,0]],[[3100,1142],[6,0],[2,0],[3,-1]],[[3084,1138],[5,2],[3,1]],[[3092,1141],[1,0]],[[3092,1141],[-8,-3]],[[3096,1141]],[[3096,1141],[-2,0]],[[3094,1141],[-1,0]],[[3093,1141],[-5,-1],[-4,-2]],[[3095,1141],[-3,-1],[-2,0],[-6,-3]],[[3098,1141],[-2,0]],[[3096,1141],[-1,0]],[[3095,1141]],[[3095,1141],[-4,-1],[-7,-3]],[[3836,670],[-673,418],[-31,41],[-21,12]],[[3111,1141],[-1,0]],[[3110,1141],[-12,0]],[[3098,1141],[-14,-4]],[[3094,1141],[3,1]],[[3095,1141],[1,0]],[[3096,1141],[4,1]],[[3805,0],[17,32],[-3,164],[0,7],[1,7],[1,6],[3,8],[3,7],[2,5],[18,28],[11,27],[4,6],[45,67],[3,4],[4,5],[3,3],[25,21],[14,27],[4,6],[2,3],[5,6],[16,18],[3,4],[8,23],[-82,170],[-9,8],[-28,1],[-20,2],[-15,4],[-8,2],[-10,4],[-7,4],[-4,2],[-647,406],[-7,5],[-3,3],[-3,3],[-3,5],[-5,7],[-5,12],[-5,7],[-23,12]],[[3867,664],[35,-2],[2,-1],[3,-1],[5,-5],[77,-134],[6,-32],[-1,-5],[-1,-8],[-6,-12],[-1,-3],[-3,-4],[-23,-27],[-17,-32],[-81,-101],[-15,-34],[-23,-39],[-2,-192],[-17,-32]],[[3081,1135],[5,2],[-5,-2]],[[0,578],[34,21],[18,44],[97,31],[296,-28],[177,33],[107,81],[79,5],[19,73],[57,22]],[[888,896],[-4,-36]],[[3074,1133],[-1,-1]],[[3073,1132],[-23,-9],[-16,-13],[-5,-3],[-7,-2],[-92,-3],[-10,4],[-8,8],[-18,36],[-24,12],[-35,26],[-418,123]],[[2417,1311],[-16,3]],[[2401,1314],[-2,0]],[[2399,1314],[-11,1]],[[2388,1315],[-7,0]],[[2381,1315],[-5,0]],[[2376,1315],[-95,0]],[[2281,1315]],[[2281,1315],[-23,15],[-160,212],[-43,10],[-76,-27]],[[1979,1525],[-3,0]],[[1976,1525],[-3,-1]],[[1973,1524],[-6,0]],[[1967,1524],[-12,-2]],[[1955,1522]],[[1955,1522],[-28,-19],[-31,-7],[-9,0],[-12,1],[-114,13]],[[1761,1510],[-5,0]],[[1756,1510],[-13,0]],[[1743,1510],[-5,-1]],[[1738,1509],[-28,-6]],[[1710,1503],[-15,-3]],[[1695,1500],[-20,-4]],[[1675,1496],[-15,-4]],[[1660,1492],[-33,-7]],[[1627,1485],[-10,-3]],[[1617,1482],[-94,-21]],[[1523,1461],[-52,-12],[-147,-46],[-7,-1],[-7,-2],[-277,-38],[-59,7],[-89,-228],[-52,-35],[-77,-142],[66,-65],[66,-3]],[[3027,1107],[-98,-4],[-17,11],[-10,25],[-2,5],[-4,5],[-3,2],[-3,2],[-1,1],[-18,8],[-27,21],[-4,3],[-6,3],[-96,28],[-246,72],[-75,22]],[[2281,1315],[-25,18],[-5,11],[-3,21],[-2,5],[-2,4],[-2,3],[-3,4],[-133,155],[-6,5],[-2,1],[-5,3],[-2,2],[-5,2],[-6,2],[-5,1],[-8,1],[-6,0],[-5,0],[-3,-1],[-6,-1],[-38,-12],[-3,-1],[-7,-3],[-10,-6],[-10,-4]],[[1973,1524],[-1,0],[-5,0]],[[1955,1522],[-5,-2],[-6,-3],[-18,-14],[-32,-7],[-133,14]],[[1695,1500],[-11,-2],[-9,-2]],[[1523,1461],[-54,-13],[-158,-48],[-274,-38]],[[3066,1130],[9,4]],[[3075,1134],[2,1]],[[3073,1132],[2,1]],[[3074,1133]],[[3075,1133],[-1,0]],[[3075,1134],[8,5]],[[3084,1137],[-9,-4]],[[3084,1137],[-8,-3],[-1,-1]],[[3084,1137],[-9,-4]],[[3084,1138],[-7,-3]],[[3077,1135],[2,1]],[[3084,1138],[-5,-2]],[[3079,1136],[5,2]],[[471,650],[0,1],[0,-1]],[[814,1073],[0,1],[1,1],[0,-1],[-1,-1]],[[892,868],[-1,0],[1,2],[1,0],[-1,-2]],[[0,578],[34,21],[18,44],[97,31],[296,-28],[177,33],[107,81],[79,5],[19,73],[57,22]],[[888,896],[-4,-36]],[[884,860],[2,2]],[[886,862],[2,1]],[[888,863],[1,1]],[[889,864],[1,1]],[[890,865],[0,1]],[[890,866],[2,5]],[[892,871],[1,3]],[[893,874],[0,1]],[[893,875],[1,2]],[[894,877],[0,1]],[[894,878],[1,1]],[[895,879],[0,2]],[[895,881],[0,2]],[[895,883],[-1,2]],[[894,885],[0,1]],[[894,886],[0,2]],[[894,888],[-1,2]],[[893,890],[-1,1]],[[892,891],[-1,1]],[[891,892],[-1,2]],[[890,894],[-1,1]],[[889,895],[-1,1]],[[3084,1137],[-34,-14],[-16,-13],[-5,-3],[-7,-2],[-3,0],[-7,-1],[-68,-2],[-9,0],[-5,0],[-6,2],[-4,2],[-4,4],[-4,4],[-3,4],[-2,4],[-6,18],[-7,10],[-4,3],[-14,6],[-6,3],[-35,26],[-418,123]],[[2417,1311],[-16,3]],[[2401,1314],[-2,0]],[[2399,1314],[-11,1]],[[2388,1315],[-7,0]],[[2381,1315],[-5,0]],[[2376,1315],[-95,0]],[[2281,1315]],[[2281,1315],[-23,15],[-160,212],[-43,10],[-76,-27]],[[1979,1525],[-3,0]],[[1976,1525],[-3,-1]],[[1973,1524],[-6,0]],[[1967,1524],[-12,-2]],[[1955,1522]],[[1955,1522],[-28,-19],[-31,-7],[-9,0],[-12,1],[-114,13]],[[1761,1510],[-5,0]],[[1756,1510],[-13,0]],[[1743,1510],[-5,-1]],[[1738,1509],[-28,-6]],[[1710,1503],[-15,-3]],[[1695,1500],[-20,-4]],[[1675,1496],[-15,-4]],[[1660,1492],[-33,-7]],[[1627,1485],[-10,-3]],[[1617,1482],[-72,-16],[-22,-5]],[[1523,1461],[-52,-12],[-147,-46],[-7,-1],[-7,-2],[-277,-38],[-59,7],[-89,-228],[-52,-35],[-77,-142],[66,-65],[66,-3]],[[3027,1107],[-98,-4],[-33,46],[-3,2],[-3,2],[-1,1],[-18,8],[-27,21],[-4,3],[-6,3],[-417,122]],[[2281,1315],[-25,18],[-5,11],[-3,21],[-2,5],[-2,4],[-2,3],[-3,4],[-133,155],[-6,5],[-2,1],[-5,3],[-2,2],[-5,2],[-6,2],[-5,1],[-8,1],[-6,0],[-5,0],[-3,-1],[-6,-1],[-38,-12],[-3,-1],[-7,-3],[-10,-6],[-10,-4]],[[1955,1522],[-5,-2],[-6,-3],[-18,-14],[-32,-7],[-133,14]],[[1695,1500],[-11,-2],[-9,-2]],[[1617,1482],[-94,-21]],[[1523,1461],[-54,-13],[-158,-48],[-274,-38]],[[3066,1130],[9,4]],[[3075,1134],[2,1]],[[3075,1133],[-1,0]],[[3075,1134],[8,5]],[[3084,1137],[-9,-4]],[[3084,1137],[-8,-3],[-1,-1]],[[3084,1138],[-7,-3]],[[3077,1135],[2,1]],[[3084,1138],[-5,-2]],[[3079,1136],[5,2]],[[471,650],[0,1],[0,-1]],[[814,1073],[0,1],[1,1],[0,-1],[-1,-1]],[[892,868],[-1,0],[1,2],[1,0],[-1,-2]],[[3081,1135],[5,2],[-5,-2]],[[3066,1130],[-2,-1]],[[3083,1139],[6,2],[5,0],[11,1],[3,0],[3,-1]],[[3084,1138],[5,2],[3,1]],[[3092,1141],[1,0]],[[3092,1141],[-8,-3]],[[3096,1141],[-3,0]],[[3093,1141],[-5,-1],[-4,-2]],[[3095,1141],[-3,-1],[-2,0],[-6,-3]],[[3098,1141],[-2,0]],[[3096,1141],[-1,0]],[[3095,1141],[-11,-4]],[[3836,670],[-673,418],[-31,41],[-21,12]],[[3111,1141],[-1,0]],[[3110,1141],[-12,0]],[[3098,1141],[-14,-4]],[[3840,669],[-8,2],[-6,3],[-7,3],[-8,4],[-647,406],[-7,5],[-3,3],[-3,3],[-3,5],[-5,7],[-5,12],[-5,7],[-23,12]],[[3836,670],[4,-1]],[[4096,714],[-161,-47],[-99,3]],[[3846,668],[-6,1]],[[3846,668],[13,-3],[22,-2],[16,0]],[[3931,667],[-14,-2],[-7,-1]],[[3910,664],[-11,-1],[-12,0],[-6,0],[-16,2],[-13,1],[-6,2]],[[3897,663],[-2,0]],[[3897,663],[13,1]],[[3081,1135],[5,2],[-5,-2]],[[3876,664],[3,0],[-3,0]],[[3083,1139],[7,2],[7,1]],[[3097,1142],[3,0]],[[3100,1142],[6,0],[2,0],[3,-1]],[[3084,1138],[5,2],[3,1]],[[3092,1141],[1,0]],[[3092,1141],[-8,-3]],[[3096,1141]],[[3096,1141],[-2,0]],[[3094,1141],[-1,0]],[[3093,1141],[-5,-1],[-4,-2]],[[3095,1141],[-3,-1],[-2,0],[-6,-3]],[[3098,1141],[-2,0]],[[3096,1141],[-1,0]],[[3095,1141]],[[3095,1141],[-4,-1],[-7,-3]],[[3836,670],[-673,418],[-15,14],[-10,20],[-3,4],[-3,3],[-5,5],[-3,2],[-6,3],[-7,2]],[[3111,1141],[-1,0]],[[3110,1141],[-12,0]],[[3098,1141],[-14,-4]],[[3094,1141],[3,1]],[[3095,1141],[1,0]],[[3096,1141],[4,1]],[[3805,0],[19,224],[38,73],[132,187],[-82,170],[-9,8],[-28,1],[-20,2],[-15,4],[-8,2],[-21,10],[-647,406],[-10,8],[-6,8],[-15,26],[-23,12]],[[3867,664],[8,-1],[20,0],[7,-1],[2,-1],[3,-1],[2,-2],[3,-3],[75,-130],[2,-4],[3,-8],[2,-8],[1,-7],[0,-3],[0,-6],[-1,-5],[-1,-8],[-3,-7],[-3,-5],[-1,-3],[-3,-4],[-23,-27],[-5,-8],[-9,-18],[-3,-6],[-81,-101],[-15,-34],[-23,-39],[-2,-192],[-1,-5],[-1,-4],[-1,-4],[-2,-3],[-3,-6],[-9,-10]],[[3081,1135],[5,2],[-5,-2]],[[3876,664],[3,0],[-3,0]],[[0,578],[34,21],[18,44],[97,31],[296,-28],[177,33],[107,81],[79,5],[19,73],[57,22]],[[888,896],[-4,-36]],[[3074,1133],[-1,-1]],[[3073,1132],[-23,-9],[-16,-13],[-5,-3],[-7,-2],[-3,0],[-7,-1],[-68,-2],[-9,0],[-5,0],[-6,2],[-4,2],[-4,4],[-4,4],[-3,4],[-2,4],[-6,18],[-7,10],[-4,3],[-14,6],[-6,3],[-35,26],[-418,123]],[[2417,1311],[-16,3]],[[2401,1314],[-2,0]],[[2399,1314],[-11,1]],[[2388,1315],[-7,0]],[[2381,1315],[-5,0]],[[2376,1315],[-95,0]],[[2281,1315]],[[2281,1315],[-23,15],[-160,212],[-43,10],[-76,-27]],[[1979,1525],[-3,0]],[[1976,1525],[-3,-1]],[[1973,1524],[-6,0]],[[1967,1524],[-12,-2]],[[1955,1522]],[[1955,1522],[-28,-19],[-31,-7],[-9,0],[-12,1],[-114,13]],[[1761,1510],[-5,0]],[[1756,1510],[-13,0]],[[1743,1510],[-5,-1]],[[1738,1509],[-28,-6]],[[1710,1503],[-15,-3]],[[1695,1500],[-20,-4]],[[1675,1496],[-15,-4]],[[1660,1492],[-33,-7]],[[1627,1485],[-10,-3]],[[1617,1482],[-94,-21]],[[1523,1461],[-52,-12],[-147,-46],[-14,-3],[-277,-38],[-59,7],[-89,-228],[-52,-35],[-77,-142],[66,-65],[66,-3]],[[3027,1107],[-98,-4],[-33,46],[-3,2],[-3,2],[-1,1],[-18,8],[-27,21],[-4,3],[-6,3],[-417,122]],[[2281,1315],[-25,18],[-5,11],[-3,21],[-2,5],[-2,4],[-2,3],[-3,4],[-133,155],[-6,5],[-2,1],[-5,3],[-2,2],[-5,2],[-6,2],[-5,1],[-8,1],[-6,0],[-5,0],[-3,-1],[-6,-1],[-38,-12],[-3,-1],[-7,-3],[-10,-6],[-10,-4]],[[1955,1522],[-5,-2],[-6,-3],[-18,-14],[-32,-7],[-133,14]],[[1695,1500],[-11,-2],[-9,-2]],[[1523,1461],[-54,-13],[-158,-48],[-8,-1],[-139,-7],[-12,-1],[-7,-2],[-7,-1],[-101,-26]],[[3066,1130],[9,4]],[[3075,1134],[2,1]],[[3073,1132],[2,1]],[[3074,1133]],[[3075,1133],[-1,0]],[[3075,1134],[8,5]],[[3084,1137],[-9,-4]],[[3084,1137],[-9,-4]],[[3084,1137],[-9,-4]],[[3084,1138],[-7,-3]],[[3077,1135],[2,1]],[[3084,1138],[-5,-2]],[[3079,1136],[5,2]],[[471,650],[0,1],[0,-1]],[[814,1073],[0,1],[1,1],[0,-1],[-1,-1]],[[892,868],[-1,0],[1,2],[1,0],[-1,-2]],[[3782,1628],[81,64],[40,-29],[171,-28],[22,57]],[[3083,1139],[7,2],[7,1]],[[3097,1142],[3,0]],[[3100,1142],[6,0],[2,0],[3,-1]],[[3084,1138],[8,3]],[[3092,1141],[1,0]],[[3092,1141],[-8,-3]],[[3096,1141]],[[3096,1141],[-2,0]],[[3094,1141],[-1,0]],[[3093,1141],[-5,-1],[-4,-2]],[[3095,1141],[-5,-1],[-6,-3]],[[3098,1141],[-2,0]],[[3096,1141],[-1,0]],[[3095,1141]],[[3095,1141],[-4,-1],[-7,-3]],[[3836,670],[-673,418],[-15,14],[-10,20],[-3,4],[-3,3],[-5,5],[-3,2],[-6,3],[-7,2]],[[3111,1141],[-1,0]],[[3110,1141],[-12,0]],[[3098,1141],[-14,-4]],[[3094,1141],[3,1]],[[3095,1141],[1,0]],[[3096,1141],[4,1]],[[3805,0],[17,32],[-3,164],[0,7],[1,7],[1,6],[3,8],[3,7],[2,5],[18,28],[11,27],[4,6],[45,67],[3,4],[4,5],[3,3],[25,21],[14,27],[4,6],[2,3],[5,6],[16,18],[3,4],[8,23],[-82,170],[-9,8],[-28,1],[-20,2],[-15,4],[-8,2],[-21,10],[-647,406],[-10,8],[-6,8],[-15,26],[-23,12]],[[3867,664],[35,-2],[2,-1],[3,-1],[5,-5],[77,-134],[6,-32],[-1,-5],[-1,-8],[-6,-12],[-1,-3],[-3,-4],[-23,-27],[-17,-32],[-81,-101],[-15,-34],[-23,-39],[-2,-192],[-17,-32]],[[3081,1135],[5,2],[-5,-2]],[[3809,5],[1,1],[-1,0],[0,-1]],[[3876,664],[3,0],[-3,0]],[[3836,670],[-673,418],[-31,41],[-21,12]],[[3111,1141],[-1,0]],[[3110,1141],[-12,0]],[[3098,1141],[-8,-2],[-40,-16],[-16,-13],[-5,-3],[-7,-2],[-3,0],[-7,-1],[-68,-2],[-9,0],[-5,0],[-6,2],[-4,2],[-4,4],[-4,4],[-3,4],[-2,4],[-6,18],[-7,10],[-4,3],[-14,6],[-6,3],[-35,26],[-418,123]],[[2417,1311],[-16,3]],[[2401,1314],[-2,0]],[[2399,1314],[-11,1]],[[2388,1315],[-7,0]],[[2381,1315],[-5,0]],[[2376,1315],[-95,0]],[[2281,1315]],[[2281,1315],[-6,2],[-3,1],[-3,2],[-3,2],[-2,2],[-2,2],[-2,2],[-2,2],[-160,212],[-43,10],[-48,-14],[-19,-10],[-4,-1],[-5,-2]],[[1979,1525],[-3,0]],[[1976,1525],[-3,-1]],[[1973,1524],[-6,0]],[[1967,1524],[-12,-2]],[[1955,1522]],[[1955,1522],[-28,-19],[-31,-7],[-9,0],[-12,1],[-114,13]],[[1761,1510],[-5,0]],[[1756,1510],[-13,0]],[[1743,1510],[-5,-1]],[[1738,1509],[-28,-6]],[[1710,1503],[-15,-3]],[[1695,1500],[-20,-4]],[[1675,1496],[-15,-4]],[[1660,1492],[-33,-7]],[[1627,1485],[-10,-3]],[[1617,1482],[-94,-21]],[[1523,1461],[-212,-61],[-260,-34]],[[1051,1366],[-13,-3],[-6,-1],[-4,0],[-5,0],[-4,1],[-6,2],[-53,37],[-6,8],[-3,5],[-2,4],[-36,90],[-92,131],[-214,6],[-225,105],[-170,227],[-59,188],[-144,229],[-9,5]],[[3027,1107],[-98,-4],[-33,46],[-3,2],[-3,2],[-1,1],[-18,8],[-27,21],[-4,3],[-6,3],[-417,122]],[[2281,1315],[-183,227],[-42,11],[-9,-2],[-38,-12],[-3,-1],[-27,-13]],[[1973,1524],[-1,0],[-5,0]],[[1955,1522],[-5,-2],[-6,-3],[-18,-14],[-32,-7],[-133,14]],[[1695,1500],[-11,-2],[-9,-2]],[[1523,1461],[-54,-13],[-158,-48],[-8,-1],[-139,-7],[-12,-1],[-7,-2],[-7,-1],[-90,-23]],[[1048,1365],[-5,-1]],[[1043,1364],[-27,0]],[[1016,1364],[-65,51]],[[1048,1365],[3,1]],[[3066,1130],[9,4]],[[3075,1134],[2,1]],[[3075,1133],[-1,0]],[[3075,1134],[8,4],[8,3],[11,1],[5,0],[4,-1]],[[3098,1141],[-2,0]],[[3096,1141],[-1,0]],[[3095,1141],[-5,-1],[-15,-7]],[[3095,1141],[-3,-1],[-3,0],[-9,-4],[-5,-3]],[[3096,1141],[-3,0]],[[3093,1141],[-5,-1],[-11,-5]],[[3077,1135],[2,1]],[[3092,1141],[-4,-1],[-9,-4]],[[3079,1136],[3,2],[6,2],[1,0],[3,1]],[[3092,1141],[1,0]],[[3840,669],[-8,2],[-6,3],[-7,3],[-8,4],[-647,406],[-7,5],[-3,3],[-3,3],[-3,5],[-5,7],[-5,12],[-5,7],[-23,12]],[[3836,670],[4,-1]],[[4096,714],[-161,-47],[-99,3]],[[3846,668],[-6,1]],[[3846,668],[51,-5]],[[3931,667],[-14,-2],[-7,-1]],[[3910,664],[-64,4]],[[3897,663],[-2,0]],[[3897,663],[13,1]],[[471,1699],[0,1],[-2,0],[2,-1]],[[3081,1135],[5,2],[-5,-2]],[[3083,1139],[6,2],[5,0],[11,1],[3,0],[3,-1]],[[3084,1138],[8,3]],[[3092,1141],[1,0]],[[3092,1141],[-8,-3]],[[3096,1141],[-3,0]],[[3093,1141],[-5,-1],[-4,-2]],[[3095,1141],[-3,-1],[-2,0],[-6,-3]],[[3098,1141],[-2,0]],[[3096,1141],[-1,0]],[[3095,1141],[-4,-1],[-7,-3]],[[3836,670],[-673,418],[-15,14],[-10,20],[-3,4],[-3,3],[-5,5],[-3,2],[-6,3],[-7,2]],[[3111,1141],[-1,0]],[[3110,1141],[-12,0]],[[3098,1141],[-14,-4]],[[3840,669],[-8,2],[-6,3],[-15,7],[-647,406],[-10,8],[-6,8],[-15,26],[-23,12]],[[3836,670],[4,-1]],[[4096,714],[-161,-47],[-99,3]],[[3846,668],[-6,1]],[[3846,668],[10,-3],[11,-1]],[[3931,667],[-14,-2],[-11,-1],[-7,-1],[-15,0],[-11,1],[-8,1],[-13,1],[-6,2]],[[3081,1135],[5,2],[-5,-2]],[[3876,664],[3,0],[-3,0]],[[3836,670],[-673,418],[-31,41],[-21,12]],[[3111,1141],[-1,0]],[[3110,1141],[-12,0]],[[3098,1141],[-8,-2],[-40,-16],[-16,-13],[-5,-3],[-7,-2],[-3,0],[-7,-1],[-68,-2],[-9,0],[-5,0],[-6,2],[-4,2],[-4,4],[-4,4],[-3,4],[-2,4],[-6,18],[-7,10],[-4,3],[-14,6],[-6,3],[-35,26],[-418,123]],[[2417,1311],[-16,3]],[[2401,1314],[-2,0]],[[2399,1314],[-11,1]],[[2388,1315],[-7,0]],[[2381,1315],[-5,0]],[[2376,1315],[-95,0]],[[2281,1315]],[[2281,1315],[-23,15],[-160,212],[-43,10],[-76,-27]],[[1979,1525],[-3,0]],[[1976,1525],[-3,-1]],[[1973,1524],[-6,0]],[[1967,1524],[-12,-2]],[[1955,1522]],[[1955,1522],[-28,-19],[-31,-7],[-9,0],[-12,1],[-114,13]],[[1761,1510],[-5,0]],[[1756,1510],[-13,0]],[[1743,1510],[-5,-1]],[[1738,1509],[-28,-6]],[[1710,1503],[-15,-3]],[[1695,1500],[-20,-4]],[[1675,1496],[-15,-4]],[[1660,1492],[-33,-7]],[[1627,1485],[-10,-3]],[[1617,1482],[-94,-21]],[[1523,1461],[-52,-12],[-147,-46],[-13,-3],[-260,-34]],[[1051,1366],[-13,-3],[-6,-1],[-4,0],[-5,0],[-4,1],[-6,2],[-3,1],[-6,3],[-31,21],[-5,4],[-3,3],[-5,5],[-2,2],[-4,6],[-3,5],[-2,4],[-36,90],[-92,131],[-214,6],[-225,105],[-170,227],[-59,188],[-144,229],[-9,5]],[[3027,1107],[-98,-4],[-33,46],[-3,2],[-3,2],[-1,1],[-18,8],[-27,21],[-4,3],[-6,3],[-417,122]],[[2281,1315],[-25,18],[-5,11],[-3,21],[-2,5],[-2,4],[-2,3],[-3,4],[-133,155],[-6,5],[-2,1],[-5,3],[-2,2],[-5,2],[-6,2],[-5,1],[-8,1],[-6,0],[-5,0],[-3,-1],[-6,-1],[-38,-12],[-3,-1],[-7,-3],[-10,-6],[-10,-4]],[[1955,1522],[-5,-2],[-6,-3],[-18,-14],[-32,-7],[-133,14]],[[1523,1461],[-54,-13],[-158,-48],[-159,-9],[-104,-26]],[[1048,1365],[-5,-1]],[[1043,1364],[-27,0]],[[1016,1364],[-65,51]],[[1048,1365],[3,1]],[[3066,1130],[9,4]],[[3075,1134],[2,1]],[[3075,1133],[-1,0]],[[3075,1134],[8,4],[8,3],[11,1],[5,0],[4,-1]],[[3098,1141],[-2,0]],[[3096,1141],[-1,0]],[[3095,1141],[-5,-1],[-15,-7]],[[3095,1141],[-3,-1],[-3,0],[-9,-4],[-5,-3]],[[3096,1141],[-3,0]],[[3093,1141],[-5,-1],[-11,-5]],[[3077,1135],[2,1]],[[3092,1141],[-4,-1],[-9,-4]],[[3079,1136],[9,4],[4,1]],[[3092,1141],[1,0]],[[3840,669],[-8,2],[-6,3],[-7,3],[-8,4],[-647,406],[-7,5],[-3,3],[-3,3],[-3,5],[-5,7],[-5,12],[-5,7],[-23,12]],[[3836,670],[4,-1]],[[4096,714],[-161,-47],[-99,3]],[[3846,668],[-6,1]],[[3846,668],[13,-3],[22,-2],[16,0]],[[3931,667],[-14,-2],[-7,-1]],[[3910,664],[-11,-1],[-12,0],[-6,0],[-16,2],[-13,1],[-6,2]],[[3897,663],[-2,0]],[[3897,663],[13,1]],[[471,1699],[0,1],[-2,0],[2,-1]],[[3081,1135],[5,2],[-5,-2]],[[3876,664],[3,0],[-3,0]],[[3083,1139],[6,2],[5,0],[11,1],[3,0],[3,-1]],[[3084,1138],[8,3]],[[3092,1141],[1,0]],[[3092,1141],[-8,-3]],[[3096,1141],[-3,0]],[[3093,1141],[-5,-1],[-4,-2]],[[3095,1141],[-11,-4]],[[3098,1141],[-2,0]],[[3096,1141],[-1,0]],[[3095,1141],[-11,-4]],[[3836,670],[-673,418],[-15,14],[-10,20],[-3,4],[-3,3],[-5,5],[-3,2],[-6,3],[-7,2]],[[3111,1141],[-1,0]],[[3110,1141],[-12,0]],[[3098,1141],[-14,-4]],[[3840,669],[-8,2],[-6,3],[-15,7],[-647,406],[-10,8],[-6,8],[-15,26],[-23,12]],[[3836,670],[4,-1]],[[4096,714],[-161,-47],[-99,3]],[[3846,668],[-6,1]],[[3846,668],[10,-3],[11,-1]],[[3931,667],[-85,1]],[[3081,1135],[5,2],[-5,-2]],[[3876,664],[3,0],[-3,0]],[[4096,1826],[-1,0],[-98,-47],[-466,-111],[-74,-68],[-273,167],[-147,34],[-88,58],[-50,21],[-200,0],[-125,56],[-71,17],[-106,-59],[-72,7],[-125,38],[-499,31],[-344,132],[-384,20],[-51,-23],[-48,-54],[-22,-62],[30,-44],[0,-31],[-57,-16],[-30,19],[-22,32],[-32,27],[-33,-6],[-31,-20],[-24,-4],[-9,46],[6,14],[13,23],[13,35],[6,49],[-10,98],[-28,67],[-223,281],[-43,124],[-50,79],[-37,88],[14,106],[19,22],[26,10],[64,1],[12,19],[7,42],[12,42],[75,53],[-13,78],[-64,135],[-14,74],[-12,33],[-23,13],[-350,64],[-44,-5],[0,565],[4096,0],[0,-2270]],[[0,3531],[44,5],[350,-64],[23,-13],[12,-33],[14,-74],[64,-135],[13,-78],[-75,-53],[-12,-42],[-7,-42],[-12,-19],[-64,-1],[-26,-10],[-19,-22],[-14,-106],[37,-88],[50,-79],[43,-124],[223,-281],[28,-67],[10,-98],[-6,-49],[-13,-35],[-13,-23],[-6,-14],[9,-46],[24,4],[31,20],[33,6],[32,-27],[22,-32],[30,-19],[57,16],[0,31],[-30,44],[22,62],[48,54],[51,23],[384,-20],[344,-132],[499,-31],[125,-38],[72,-7],[106,59],[71,-17],[125,-56],[200,0],[50,-21],[88,-58],[147,-34],[273,-167],[74,68],[466,111],[99,47]],[[291,2444],[10,-25]],[[2849,1072],[-1,0]],[[2848,1072],[1,0]],[[2849,1072],[4,2]],[[2853,1074],[3,4]],[[2855,1079],[-2,-5]],[[4096,1607],[0,-1]],[[773,1728],[-95,1]],[[804,1727],[-30,1]],[[894,1778],[-1,-1]],[[119,2444],[-14,26]],[[106,2470],[12,-24]],[[642,1702],[-103,35]],[[539,1737],[-9,3],[-70,57],[-1,2],[-48,54]],[[411,1853],[-1,2],[-80,177]],[[330,2032],[-52,114],[-30,25],[-55,133],[0,1],[-31,58]],[[162,2363],[-15,28]],[[148,2390],[14,-27]],[[162,2363],[30,-58],[1,-1],[55,-133],[29,-25],[53,-114]],[[330,2032],[81,-179]],[[411,1853],[1,-1],[48,-55],[69,-57],[10,-3]],[[539,1737],[120,-36]],[[592,2245],[24,12]],[[323,2491],[-37,-33]],[[2848,1835],[24,9]],[[2880,1844],[3,0]],[[2905,1840],[3,0]],[[2908,1840],[2,-2]],[[2910,1839],[-2,1]],[[3051,1786],[-1,0]],[[1979,1618],[19,-6]],[[2000,1611],[0,-1]],[[2002,1610],[43,6]],[[2046,1616],[18,3]],[[2065,1620],[11,0]],[[2076,1620],[1,-1]],[[2078,1619],[-2,1]],[[2079,1618],[2,0]],[[2081,1618],[-1,1]],[[2081,1618],[13,-43]],[[2088,1569],[-1,-2]],[[2087,1567],[2,2]],[[2091,1573],[-2,-3]],[[2089,1569],[2,4]],[[2093,1574],[-1,-1]],[[2092,1573],[1,1]],[[2689,301],[-1,1]],[[2691,300],[2,-1]],[[3016,1805],[8,-3]],[[3105,1747],[49,-31]],[[3295,1432],[67,134]],[[3355,1482],[-34,-61]],[[3690,1637],[0,3]],[[3221,1204],[-1,-2]],[[2319,1863],[16,-4]],[[2752,1839],[-2,2]],[[2807,1823],[41,12]],[[2883,1844],[15,-3]],[[3043,1267],[1,-10]],[[3045,1257],[-2,10]],[[0,1701],[90,12]],[[94,1715],[361,-11]],[[699,168],[-45,-168]],[[733,336],[-34,-167]],[[837,767],[13,-35],[-55,-123],[15,-62],[-49,-82],[-28,-128]],[[842,797],[-10,-13],[5,-17]],[[837,767],[6,29]],[[844,799],[-1,-2]],[[843,797],[2,2]],[[2008,567],[-84,-188],[6,-73],[-33,-60],[-143,-116],[15,-51],[-50,-79]],[[2008,567],[3,1]],[[2010,569],[-2,-2]],[[459,1699],[2,3]],[[2214,1494],[-4,2]],[[4032,1755],[-27,-9]],[[992,813],[-6,5]],[[1003,799],[-10,13]],[[1324,249],[3,-3]],[[1327,246],[-2,4]],[[1327,246],[3,-16]],[[1330,230],[1,-11]],[[1331,219],[11,-18]],[[1342,201],[1,-1]],[[1344,201],[-2,0]],[[133,3126],[6,6]],[[2630,38],[1,24]],[[2635,69]],[[2641,90],[25,31]],[[3336,1537],[-3,-4]],[[3335,1532],[1,5]],[[3350,1555],[-14,-18]],[[3350,1555],[2,2]],[[3351,1558],[-1,-3]],[[3354,1562],[-2,-3]],[[3353,1559],[1,3]],[[3354,1562],[11,33]],[[3865,1701],[-13,-13]],[[2453,1356],[-86,58]],[[2768,1221],[-309,133]],[[226,2735],[7,22]],[[461,1702],[-9,1]],[[488,1714],[2,0]],[[509,1702],[-18,2]],[[751,1711],[1,3]],[[809,1079],[2,3]],[[908,1341],[13,-5]],[[2210,1496],[-49,30]],[[1898,1908],[2,0]],[[2290,1870]],[[3896,1711],[-1,1]],[[3897,1711],[2,0]],[[4077,1793],[0,1]],[[164,2776],[21,-13]],[[2194,708],[-48,-33]],[[662,1343],[20,19]],[[0,3322],[8,10]],[[1,3334],[405,13]],[[1066,1875],[-26,4],[-13,-10]],[[1029,1869],[35,6]],[[2367,1414],[-123,55],[-274,34],[-26,87],[-36,34],[-304,154],[-143,52]],[[1461,1829],[205,-83]],[[1667,1745],[241,-122],[36,-34],[25,-86],[275,-35],[524,-249]],[[2459,1354],[-6,2]],[[3200,1083],[18,-9]],[[3224,1074],[-23,10]],[[3295,1432],[1,0]],[[3069,1166],[0,1]],[[3982,405],[1,26]],[[3988,443],[-5,-8]],[[3984,435],[26,31]],[[4010,466],[-19,-19]],[[4010,466]],[[28,637],[-2,0]],[[299,3007],[1,-9]],[[406,3347],[4,-4]],[[603,991],[26,-3]],[[646,986],[18,-28]],[[672,949],[-6,7]],[[984,819],[1,1]],[[985,820],[-1,2],[-2,-1],[1,-1],[2,0]],[[1004,798]],[[1040,844],[-1,1]],[[1321,252],[0,-1]],[[1321,251],[2,-2]],[[2030,1544],[3,8]],[[2033,1552],[3,5]],[[2035,1557],[-2,-5]],[[2035,1558]],[[2035,1558]],[[2037,1558],[12,6]],[[2054,1562],[10,-5]],[[2064,1557],[1,-1]],[[2065,1557],[-1,0]],[[2065,1556],[1,0],[1,0]],[[2067,1556],[-2,1],[0,-1]],[[2072,1558],[-5,-1]],[[2067,1556],[5,2]],[[2084,1564],[0,-1]],[[2084,1562],[1,1]],[[2095,1491],[-1,2]],[[2096,1491],[1,0],[-1,1],[-1,-1],[1,0]],[[2098,1487],[-2,4]],[[2210,1496],[4,-2]],[[2613,30],[2,-2]],[[2847,1073],[-1,2]],[[2846,1072],[1,-1]],[[2848,1072]],[[2855,1079],[1,-1]],[[2998,954],[1,-1]],[[3001,958],[-2,0]],[[3316,1024],[25,-13]],[[3361,1314],[1,0]],[[3363,1315],[-1,0]],[[3363,1314],[0,1]],[[3517,894],[2,-1]],[[3519,893],[1,0],[8,-2]],[[3519,893]],[[3519,893],[0,-1]],[[75,52],[-1,-1],[1,0],[1,0],[-1,1]],[[665,956],[1,0],[0,2],[-2,-1],[1,-1]],[[674,949],[-1,1],[-1,-1],[1,-1],[1,1]],[[700,169],[-1,0],[0,-1],[1,1]],[[734,336],[0,1],[-1,0],[0,-1],[1,0]],[[843,796],[0,1],[0,-1]],[[845,799],[2,0],[-1,2],[-2,-1],[1,-1]],[[949,792],[-1,2],[-2,0],[1,-2],[2,0]],[[993,812],[0,1],[-1,0],[0,-1],[1,0]],[[1004,796],[1,1],[0,1],[-1,-1],[0,-1]],[[1040,844],[-1,1],[-1,-1],[0,-1],[2,1]],[[1064,868],[0,2],[-1,0],[0,-2],[1,0]],[[1344,200]],[[1862,1389],[-1,1],[-1,0],[1,-1],[1,0]],[[1891,1643],[0,2],[-2,-1],[1,-2],[1,1]],[[1988,1484],[-1,2],[-1,-2],[1,-1],[1,1]],[[1992,1491],[0,1],[-2,0],[0,-1],[2,0]],[[2013,569],[-1,1],[-2,-1],[1,-1],[2,1]],[[2020,578],[2,0],[0,2],[-2,0],[0,-2]],[[2072,1528],[0,1],[0,-1]],[[2087,1564],[-1,1],[-2,-1]],[[2084,1564],[1,-2],[2,2]],[[2206,1482],[-1,1],[-1,-2],[2,-1],[0,2]],[[2214,718],[1,0],[-1,1],[0,-1]],[[2216,720],[-1,1],[0,-1],[1,0]],[[2221,723],[0,-1],[1,0],[0,1],[-1,0]],[[2276,1124],[1,0],[-1,0]],[[2561,1666],[-1,1],[0,-1],[1,0]],[[2711,261],[-1,-1],[1,0],[0,1]],[[2752,1814],[-1,-1],[1,-1],[1,1],[-1,1]],[[2770,1789],[-1,0],[0,-1],[1,0],[0,1]],[[2821,1704],[2,-1],[1,2],[-2,1],[-1,-2]],[[2959,659],[-2,-1],[1,-2],[1,1],[0,2]],[[3382,981],[0,1],[-2,0],[1,-2],[1,1]],[[3421,958],[-1,-1],[1,-1],[1,1],[-1,1]],[[3462,927],[-1,-2],[2,0],[1,1],[-2,1]],[[3535,867],[-1,-1],[1,-1],[1,1],[-1,1]],[[3554,850],[-1,-1],[1,-1],[1,1],[-1,1]],[[3583,875],[2,0],[0,1],[-1,1],[-1,-2]],[[3793,1501],[-1,-2],[2,0],[0,2],[-1,0]],[[3867,1342],[1,-1],[1,1],[-1,1],[-1,-1]],[[4072,976],[-1,1],[-2,-1],[1,-2],[2,2]],[[3362,1315],[1,0]],[[3121,1175],[13,7]],[[3326,1523],[-33,-40]],[[3296,1484],[33,34]],[[3249,1116],[11,1]],[[3293,1120],[27,2]],[[3326,1122],[22,2]],[[897,884],[-1,-13]],[[1224,2118],[-9,3]],[[1611,1970],[0,1]],[[1879,1907],[-109,23]],[[1892,1908],[2,0]],[[1900,1908],[6,-2]],[[2622,1885],[121,-31]],[[2759,1853],[-14,1]],[[2783,1848],[-18,3]],[[3274,1659],[-32,11]],[[3503,1624],[-23,-4]],[[3797,1673],[4,-9]],[[3832,1665],[20,23]],[[3897,1710],[-1,0]],[[4077,1793]],[[4082,1594],[-111,-66]],[[4086,1595],[10,10]],[[2024,580],[-2,0]],[[2022,579],[2,1]],[[2146,675],[-122,-95]],[[2213,718],[-19,-10]],[[2214,718]],[[2215,720],[-1,-1]],[[2215,718],[0,2]],[[2216,720]],[[2219,722],[-1,-1]],[[2221,723],[0,-1]],[[2222,723]],[[2223,724],[348,231]],[[2571,955],[4,3]],[[2574,958],[-3,-3]],[[3450,1142],[1,0]],[[2857,1078],[0,2]],[[3080,1768],[-28,17]],[[3155,1718],[21,-14]],[[3283,1656],[-9,3]],[[707,1001],[-39,-48],[7,-47]],[[675,906],[3,-20]],[[678,886],[0,-1],[148,-46],[20,-41],[6,-8],[4,-2]],[[856,788],[1,0]],[[857,788],[5,-3],[149,-4],[24,-24],[2,-1],[8,-7]],[[1045,749],[48,-43],[1,-2]],[[1094,704],[2,-3],[17,-27],[1,0],[1,-3]],[[1115,671],[53,-81],[4,-47],[100,-123]],[[1272,420],[2,-3],[47,-166]],[[1321,252],[-46,165],[-3,3]],[[1272,420],[-92,104],[-65,147]],[[1115,671],[-1,3],[-18,29],[-2,1]],[[1094,704],[-49,45]],[[1045,749],[-9,8],[-2,1],[-19,21],[-4,3],[-154,6]],[[857,788],[-1,0]],[[856,788],[-3,2],[-7,8],[-16,40],[-3,2],[-149,46]],[[678,886],[-3,20]],[[675,906],[-6,46],[39,49]],[[3441,1533],[-5,-1]],[[2992,1468],[22,-93]],[[3005,1456],[-12,12]],[[3015,1375],[-9,81]],[[2207,1484],[-1,-1]],[[2206,1482],[1,2]],[[2207,1484],[4,9]],[[3329,1519],[5,11]],[[474,1700],[17,-2]],[[716,1561],[-15,7]],[[787,1371],[0,-2]],[[812,1083],[2,-3]],[[383,1595],[0,-1]],[[383,1595],[0,-1],[1,0]],[[384,1594],[-1,1]],[[384,1594],[0,1]],[[413,1696],[1,0]],[[414,1698]],[[629,988],[17,-2]],[[3,1177],[1,0],[-1,1],[0,-1]],[[410,1680],[-1,1],[-1,-1],[1,-1],[1,1]],[[413,1697],[1,-1],[1,1],[-1,1],[-1,-1]],[[420,1736],[0,-1],[0,1]],[[425,1647],[-1,-1],[0,-1],[2,1],[-1,1]],[[429,1754],[-2,-1],[1,-2],[2,1],[-1,2]],[[1463,2046],[-3,3]],[[1570,143],[3,-5]],[[1581,1981]],[[1981,1894],[1,0]],[[2307,1864],[-3,1]],[[148,1703],[234,-108]],[[2922,1841],[6,-4]],[[3097,1752],[8,-5]],[[572,1695],[90,-12]],[[651,1666],[69,-5]],[[3052,1785],[-1,1]],[[2004,1593],[-2,4]],[[2004,1592],[2,-5]],[[2006,1587],[-2,5]],[[2010,1580],[-4,6]],[[3422,957],[-38,141]],[[3385,1090],[37,-132]],[[3218,1074],[17,-5]],[[3266,1050],[-15,8]],[[3253,1056],[10,-6]],[[3361,1314],[-47,-22]],[[3534,1406],[-125,-66]],[[3534,1406],[13,13]],[[3627,1481],[-80,-62]],[[3251,1057],[2,-1]],[[3024,1801],[0,1]],[[3079,1766],[1,2]],[[3154,1716],[1,2]],[[185,3193],[90,43]],[[2689,301],[2,-1]],[[3220,1202],[5,0]],[[3224,1203],[-3,1]],[[3243,1239],[0,-3]],[[3244,1236],[-1,3]],[[4096,427],[-50,21]],[[1383,127],[0,-1]],[[20,633],[5,1]],[[34,638],[-5,2]],[[34,638],[-2,-1]],[[34,638],[322,84]],[[357,722],[100,24]],[[517,763],[154,53]],[[671,816],[95,9]],[[769,826],[11,8]],[[780,834],[8,0]],[[788,835],[-8,-1]],[[792,842],[-3,-6]],[[790,836],[2,6]],[[2066,1556],[1,-6]],[[2067,1550],[0,6]],[[2067,1550],[5,-21]],[[2072,1528],[158,-325]],[[2216,721],[-1,0]],[[2215,722],[5,50]],[[2221,781],[84,292]],[[2230,1201],[46,-77]],[[2276,1124],[22,-53]],[[1586,33],[2,-2]],[[3424,1135],[25,7]],[[1532,2002],[-67,40]],[[500,1764],[-4,21]],[[656,2037],[4,-34]],[[811,1082],[-60,-123]],[[804,1728],[0,-1]],[[814,1080],[99,154],[20,98]],[[847,1895],[-3,52]],[[845,1964],[4,6]],[[850,1854],[-2,37]],[[851,1972],[16,18]],[[875,1998],[24,24]],[[998,2091],[-45,-11]],[[3108,996],[21,-52]],[[3129,944],[-19,52]],[[3229,1124],[0,-2]],[[3231,1121],[0,2]],[[3274,1118],[0,-1]],[[3274,1117],[1,1]],[[3322,1122]],[[3323,1121],[0,1]],[[3470,1572],[0,-1]],[[3480,1620],[-2,0]],[[273,2911],[7,19]],[[388,2401],[44,-67]],[[2114,1615],[-17,-7]],[[296,2998],[-179,-78],[-117,-108]],[[299,3007],[111,336]],[[2857,1080],[-2,-1]],[[3408,1531],[-23,6],[-15,-27]],[[0,235],[75,-183]],[[75,51],[44,-51]],[[645,1351],[17,-8]],[[3564,1162],[-2,-1]],[[3470,1571],[-29,-38]],[[3991,447],[-3,-4]],[[4096,770],[-44,-218],[-42,-86]],[[3374,1641],[1,9]],[[300,2998],[22,-6]],[[324,2993],[20,-6]],[[345,2987],[-1,0]],[[344,2987],[1,0]],[[345,2987],[2,-1]],[[347,2986],[-1,1]],[[347,2986],[18,-4]],[[366,2982],[9,-3]],[[438,3090],[-25,-74]],[[106,3112],[-106,-9]],[[3470,1572],[-2,3]],[[3480,1620]],[[1089,72]],[[2860,1188],[-10,-40]],[[2851,1148],[6,22],[3,15]],[[2898,1841],[7,-1]],[[3299,1431],[-3,1]],[[3317,1423],[0,-1]],[[3036,1290],[3,0]],[[3039,1291]],[[3266,1048],[0,2]],[[676,1697],[33,-60],[0,-78],[73,-105],[0,-2],[6,-11]],[[788,1441],[35,-77],[-1,-5]],[[822,1359],[-3,-19]],[[819,1340],[-21,-131],[-28,-46]],[[770,1163],[-34,-58],[-29,-104]],[[708,1001],[13,16],[49,146]],[[770,1163],[2,4],[47,173]],[[819,1340],[5,16],[-2,3]],[[822,1359],[-34,82]],[[788,1441],[-5,11],[-1,2],[-73,105],[1,78],[-33,59]],[[3627,1481],[1,-1]],[[3627,1481],[162,19]],[[3792,1500],[-3,0]],[[3789,1500],[3,-1]],[[3797,1501],[-3,0]],[[3794,1500],[3,1]],[[3971,1528],[-60,-41],[-114,14]],[[4096,1606],[-1,-1]],[[3014,1101],[-50,-106]],[[3013,1105],[0,-1]],[[3295,1432],[-106,-133],[-55,-117]],[[3071,1165],[0,-1]],[[3980,435],[1,0]],[[3983,435],[-1,0]],[[3983,433],[0,-2]],[[4010,466],[3,-1]],[[4013,465],[-3,1]],[[4020,461],[-7,4]],[[4020,461],[3,-2]],[[4023,460],[-3,1]],[[4023,460],[0,-2],[1,0]],[[4024,458],[1,2],[-2,0]],[[4024,458],[5,-2]],[[3952,462],[-1,0],[0,-1],[2,0],[-1,1]],[[3983,434],[1,-1],[1,1],[-1,1],[-1,-1]],[[2987,1183],[7,5]],[[2768,1219],[107,-18]],[[3008,1001],[-2,-6]],[[661,2090],[-37,-25]],[[1554,167],[1,-32],[15,8]],[[3468,1575],[-13,33],[23,12]],[[2393,1876],[1,-2]],[[3758,1659],[-2,1]],[[3263,1451],[18,19]],[[3281,1470],[15,14]],[[3293,1483],[-12,-13]],[[3281,1470],[-13,-16]],[[3332,1530],[-6,-7]],[[2992,1577],[2,0],[-1,3],[-2,-1],[1,-2]],[[1321,251]],[[1323,249],[-2,3]],[[179,2794],[-15,-18]],[[296,2998],[-14,-56]],[[1952,1624],[2,0]],[[3129,944],[256,-693],[96,-166],[16,-85]],[[3497,0],[-14,83],[-80,147],[-274,714]],[[3107,999],[0,-2],[4,1],[0,1],[-4,0]],[[3436,1532],[-28,-1]],[[2950,1832],[-2,1]],[[2997,942],[33,-16]],[[3030,926],[20,-9],[0,-3]],[[3050,914],[26,-89],[34,-43],[-22,-64],[-129,-60]],[[2959,657],[54,11],[75,49],[23,65],[-59,131],[-2,1]],[[3050,914],[-20,12]],[[3030,926],[-28,17],[-4,0]],[[3172,1164],[-6,1],[-4,-1],[-19,-9]],[[3145,1155],[28,9]],[[3519,892],[0,1]],[[3553,850],[0,-1]],[[3554,848],[0,1]],[[3375,1650],[19,159],[-850,2287]],[[0,642],[26,-5]],[[32,637],[-4,0]],[[356,722],[1,0]],[[457,746],[59,17]],[[982,820],[-34,-26]],[[949,793],[34,26]],[[1008,826],[-19,-2]],[[1034,844],[-25,-17]],[[1038,844],[-4,0]],[[1034,844],[4,-1]],[[1061,866],[-18,-19]],[[1063,869],[0,-1]],[[1065,869],[-1,1]],[[1067,871],[254,125],[62,57]],[[1193,926],[2,0]],[[1197,928],[-2,0]],[[1008,826]],[[1008,826],[0,1],[1,0],[-1,-1]],[[2884,1204],[-116,17]],[[293,2528],[6,-9]],[[1964,1463],[-1,1],[-1,0],[1,-2],[1,1]],[[3821,890],[-1,1],[-1,-1],[1,-1],[1,1]],[[4086,1595],[-4,-1]],[[669,1989],[-3,4]],[[3158,1286],[-45,-79]],[[3114,1206],[45,80]],[[3160,1299],[23,34]],[[3192,1339],[-10,-7]],[[2294,1865],[-4,3]],[[3240,1370],[23,81]],[[3268,1454],[-22,-75]],[[821,775],[155,-111]],[[864,904],[12,2]],[[874,1998],[1,0]],[[890,901],[-11,5]],[[897,873],[-3,-9]],[[919,2046],[21,24]],[[1029,163],[45,-8]],[[1052,462],[-7,-1]],[[1089,88],[9,20]],[[1123,2107]],[[1127,2107],[88,14]],[[1458,2049],[-54,52],[-180,17]],[[1577,123],[3,3]],[[1581,1981],[30,-11]],[[1611,1971],[18,-9]],[[1648,1955],[18,-4]],[[1981,1896],[-75,10]],[[2023,1895],[-41,-1]],[[2260,1874],[-14,3]],[[2380,1874],[-19,-6]],[[2480,1894],[-52,-12]],[[2525,1893],[-12,-1]],[[2811,1837],[-12,11]],[[2807,1823],[4,14]],[[2577,966],[-3,-8]],[[2575,958],[2,8]],[[2577,968],[0,-2]],[[2577,968],[2,8]],[[2580,991],[-3,-23]],[[3277,4096],[819,-1464]],[[323,2993],[-1,-1],[2,1],[-1,0]],[[346,2987],[-1,1],[0,-1],[1,0]],[[365,2982],[1,-1],[0,1],[-1,0]],[[3201,1084],[-1,-1]],[[2724,0],[-94,38]],[[90,1713],[3,0]],[[307,2653],[-44,-3],[30,-122]],[[323,2491],[-24,28]],[[447,2315],[34,-42]],[[467,1814],[67,7],[79,143],[47,21]],[[472,1695],[2,5]],[[481,1720],[12,11]],[[490,1789],[6,-4]],[[563,2334],[-82,-61]],[[481,2273],[11,-17]],[[523,1685],[49,10]],[[564,2333],[28,-88]],[[616,2257],[45,-167]],[[624,2065],[32,-28]],[[699,1565],[-66,-21]],[[682,1362],[12,-13]],[[873,1789],[2,-1]],[[953,2080],[-6,-5]],[[3990,1722],[-62,-12]],[[3069,1166],[1,-1]],[[3173,1164],[19,13],[-20,-13]],[[2884,1848],[38,-7]],[[2950,1832],[20,-7]],[[603,991],[-102,31]],[[2220,772],[1,9]],[[2230,1203],[0,-2]],[[3078,1765]],[[666,1993],[-6,10]],[[0,626],[20,7]],[[3033,1116],[-4,-2]],[[1580,1212],[-2,2],[-1,-1],[1,-2],[2,1]],[[3388,1130],[36,5]],[[1383,1053],[11,9]],[[1586,1219],[197,99],[77,69]],[[1860,1387],[1,2]],[[1860,1389],[0,-2]],[[1864,1393],[-3,-3]],[[1862,1390],[2,3]],[[1864,1393],[95,66]],[[1959,1459],[4,3]],[[1962,1463],[-3,-4]],[[1966,1465],[-3,-1]],[[1964,1463],[2,2]],[[1966,1465],[19,17]],[[1986,1484],[1,-1]],[[1988,1485],[-1,1]],[[1990,1489],[-2,-2]],[[1990,1491],[1,-1]],[[1992,1492],[-1,1]],[[1992,1494],[38,50]],[[3036,1291],[0,-1]],[[3038,1293],[-1,-1]],[[3039,1291],[0,1]],[[2960,1140],[2,-1]],[[2963,1139],[-2,2]],[[3070,1165],[1,0]],[[1021,236],[-14,-40],[19,-36]],[[1045,461],[-21,-12]],[[1034,408],[24,15],[-6,39]],[[1089,72],[-1,13]],[[2811,1837]],[[3725,1652],[-34,-10]],[[3758,1658],[3,0]],[[3135,807],[-57,17]],[[3086,815],[50,-8]],[[2962,1127],[13,-11],[1,-1],[2,1]],[[2976,1117],[-14,11]],[[3346,1641],[-63,15]],[[3352,1638],[10,-72]],[[3370,1510],[-15,-28]],[[3299,1431],[0,-1],[18,-7],[-18,8]],[[273,2911],[-94,-117]],[[282,2942],[-2,-12]],[[2996,946],[0,-2]],[[2998,951],[-2,-5]],[[2997,944],[-1,2]],[[2998,951],[1,2]],[[2998,954],[0,-3]],[[3001,960],[-2,-2]],[[3000,967],[1,-7]],[[3001,958],[0,2]],[[3725,1648],[9,2]],[[3758,1659],[0,-1]],[[3223,1200],[2,-3]],[[1124,2107],[3,0]],[[300,2998],[-4,0]],[[3182,1332],[-23,-44]],[[3159,1288],[-1,-2]],[[3159,1286],[0,2]],[[3159,1288],[1,11]],[[3050,1786],[-26,14]],[[2988,1578],[-85,43],[-79,81]],[[2964,995],[-37,-87],[41,-106],[-98,-51],[-54,-109],[-58,-29],[-37,-215],[20,-41],[-50,-35],[2,-23]],[[3000,969]],[[3001,971],[6,24]],[[468,1804],[-1,9]],[[490,1789],[-19,13]],[[510,1754],[1,1]],[[856,1809],[33,-26]],[[858,1782],[15,7]],[[1026,2092],[-6,2]],[[1070,2088],[8,1]],[[0,1178],[3,-1]],[[501,1022],[-497,155]],[[421,2972],[37,7]],[[3248,1060],[-10,6]],[[3238,1066],[-14,8]],[[3235,1069],[3,-3]],[[3238,1066],[9,-8]],[[3263,1050],[2,-1]],[[3267,1049],[4,-2]],[[3271,1047],[-4,2]],[[3288,1038],[-17,9]],[[812,1083],[-3,-4]],[[307,2653],[-102,48],[21,34]],[[564,2333],[-1,1]],[[2559,1666],[-295,-46],[-50,39],[-100,-44]],[[2560,1666]],[[2560,1667]],[[2750,1812],[-189,-144]],[[2750,1812],[2,1]],[[2751,1813],[-1,-1]],[[1479,199],[-1,0]],[[1596,85],[-14,2]],[[3037,1290],[1,-1]],[[2761,1848],[-9,-9]],[[3568,0],[257,229]],[[3865,1701],[14,7]],[[2305,1073],[-7,-2]],[[1374,124],[9,2]],[[1383,143],[95,56]],[[1479,199],[13,24]],[[3367,1598],[-1,1]],[[509,1702],[0,-1],[1,0],[0,1],[-1,0]],[[701,1568],[-1,1],[-1,0],[1,-1],[1,0]],[[716,1561],[1,0]],[[921,1336]],[[3044,995],[-29,-36],[-2,-1]],[[3013,958]],[[3013,958],[-31,0],[-13,1],[-21,7],[-85,80],[-16,49]],[[2847,1091],[4,-26],[5,-10],[12,-14],[28,-32],[34,-30],[18,-13],[20,-8],[12,-1],[33,1]],[[3013,958]],[[3013,958],[1,0],[38,37]],[[3645,1619],[-111,-8]],[[2666,121],[-41,18]],[[286,2458],[5,-14]],[[2995,1188],[-1,0],[-7,-5]],[[2994,1188],[1,0]],[[3225,1202],[-1,1]],[[398,3273],[19,-21]],[[442,3204],[38,-8],[-4,-52]],[[660,1985],[9,4]],[[879,906],[-3,0]],[[897,884],[-7,17]],[[947,2075],[-7,-5]],[[979,315],[4,-3]],[[989,288],[32,-52]],[[1012,465],[12,-16]],[[1034,408],[-11,-1]],[[1026,160],[3,3]],[[1074,155],[24,-47]],[[1089,72],[75,19],[-7,23]],[[1383,127],[0,16]],[[1519,225],[35,-58]],[[1558,0],[30,31]],[[1596,85],[-19,38]],[[1582,87],[4,-54]],[[1635,1955],[13,0]],[[1770,1930],[-20,-25],[-78,28]],[[1879,1907],[8,0]],[[1981,1894],[0,2]],[[2049,1891],[-26,4]],[[2360,1867],[1,1]],[[2622,1885],[0,1]],[[2743,1854],[2,0]],[[2753,1846],[6,7]],[[3691,1642],[-1,-2]],[[3787,1670],[-1,-5]],[[3786,1665],[1,2]],[[3787,1664],[10,9]],[[4001,1731],[4,15]],[[3787,1664],[-1,1]],[[3786,1665]],[[3786,1665],[0,-1],[1,0]],[[3788,1669],[0,1],[-1,0],[0,-1],[1,0]],[[185,2763],[48,-6]],[[3447,1142],[2,0]],[[3450,1142],[56,6]],[[3507,1149],[-1,-1]],[[3506,1148],[1,0]],[[3508,1148],[1,0]],[[3509,1148],[-1,1]],[[3509,1148],[2,0]],[[3511,1148],[1,0]],[[3513,1148],[-2,0]],[[3514,1147],[0,1]],[[3536,1150],[17,1]],[[3562,1161],[-8,-10]],[[3564,1162],[69,16],[141,122],[79,36]],[[3853,1336],[15,5]],[[3867,1342],[-14,-6]],[[3880,1345],[-11,-3]],[[3869,1342],[11,3]],[[3880,1345],[10,4]],[[3890,1349],[13,4]],[[3984,1393],[-81,-40]],[[3985,1393],[111,68]],[[2000,1610],[1,-2]],[[2001,1608],[0,1]],[[2002,1597],[-1,11]],[[2004,1611],[-2,0]],[[2015,1575],[-5,5]],[[2018,1572],[-3,3]],[[2019,1571],[-1,1]],[[2020,1570],[0,1],[-1,0]],[[2019,1571],[0,-1],[1,0]],[[2032,1559],[-12,11]],[[2032,1559],[3,-1]],[[2035,1559],[-3,0]],[[2035,1558]],[[2051,1564],[3,-2]],[[2084,1563],[-12,-5]],[[2072,1558],[12,4]],[[2002,1610],[-1,2],[-1,-1],[0,-1]],[[2000,1610],[2,0]],[[2004,1593],[-1,-1],[1,0],[0,1]],[[2006,1586],[0,1],[0,-1]],[[2045,1616],[1,0],[-1,1],[0,-1]],[[2049,1565],[-1,-1],[2,-1],[1,2],[-2,0]],[[2078,1619],[0,-1],[1,0],[0,1],[-1,0]],[[2088,1569],[1,0],[0,1],[-1,-1]],[[2091,1573],[1,0],[-1,0]],[[2094,1574],[-1,1],[0,-1],[1,0]],[[894,867]],[[93,1713],[1,2]],[[432,2334],[15,-19]],[[451,1703],[8,-4]],[[461,1702],[11,-7]],[[481,1720],[7,-6]],[[490,1714],[9,-11]],[[491,1698],[0,6]],[[510,1701],[13,-16]],[[893,1777],[-18,11]],[[889,1783],[5,-5]],[[1036,2088],[34,0]],[[3039,1290],[0,1]],[[1307,235],[153,134]],[[1460,369],[15,14],[1,0]],[[1476,383],[137,31],[214,146],[171,12]],[[1998,572],[96,43]],[[2094,615],[77,36],[18,4],[11,6],[29,35],[13,40],[157,132],[63,74]],[[2462,942],[11,12],[226,93],[11,3]],[[2710,1050],[9,3],[6,2],[15,4],[8,2],[28,8]],[[2776,1069],[37,10],[7,2]],[[2820,1081],[3,0],[12,3],[13,-1]],[[2832,1084],[-5,-1],[-7,-2]],[[2820,1081],[-44,-12]],[[2776,1069],[-34,-9],[-29,-8],[-3,-2]],[[2710,1050],[-113,-49],[-3,-2],[-132,-57]],[[2462,942],[-13,-6],[-202,-191],[-54,-87],[-43,-9],[-56,-34]],[[2094,615],[-56,-33],[-25,-9],[-11,-1],[-4,0]],[[1998,572],[-167,-11],[-21,-7],[-157,-110],[-175,-59],[-2,-2]],[[1476,383],[-16,-14]],[[1460,369],[-119,-102],[-3,-2],[-29,-27]],[[467,1814],[0,-1]],[[471,1802],[-3,2]],[[511,1755],[-11,9]],[[804,1728],[54,54]],[[844,1947],[1,17]],[[850,1854],[6,-45]],[[899,2022],[20,24]],[[1026,2092],[10,-4]],[[1078,2089],[45,18]],[[2016,570],[-4,0]],[[2013,569],[3,1]],[[2020,576],[-4,-6]],[[2020,576],[1,2]],[[2020,578],[0,-2]],[[2635,69],[-4,-7]],[[2641,90],[-6,-21]],[[3003,1206],[-1,-2]],[[3003,1205],[0,1]],[[3016,1282],[-13,-75]],[[3004,1207],[14,64]],[[3037,1292],[-1,-1]],[[1394,1062],[182,149]],[[1576,1211],[1,0]],[[1577,1212],[-1,-1]],[[1582,1215],[-3,-1]],[[1580,1213],[2,2]],[[1582,1215],[4,4]],[[384,2990],[-2,-6]],[[385,2989],[25,29]],[[751,959],[63,-64],[50,9]],[[894,867],[-65,-27],[-8,-65]],[[848,1891],[-1,4]],[[849,1970],[2,2]],[[867,1990],[7,8]],[[875,1998]],[[976,664],[83,-139],[-47,-60]],[[979,315],[10,-27]],[[983,312],[40,95]],[[998,2091],[12,2]],[[1458,2049],[2,0]],[[1580,126],[-14,-2]],[[1635,1955],[-6,7]],[[1666,1951],[6,-18]],[[1879,1907]],[[2319,1863],[-9,1]],[[2400,1875],[15,6]],[[2513,1892],[-33,2]],[[2525,1893],[24,0]],[[3893,1712],[2,0]],[[3896,1710],[0,1]],[[3897,1710],[0,1]],[[3899,1711],[18,0]],[[4055,1774],[-23,-19]],[[3449,1142]],[[3265,1118],[-4,-1]],[[3374,1641],[1,9]],[[1344,200],[1,-1]],[[1345,199],[-1,1]],[[1345,199],[34,-45]],[[1379,154],[4,-29]],[[1383,127],[-4,27]],[[1383,126],[0,-3]],[[1383,123],[0,-2]],[[1383,121],[10,-29]],[[1393,92],[4,-11]],[[1433,0],[-36,81]],[[3348,1124],[40,6]],[[2847,1095],[4,53]],[[2850,1148],[-6,-21],[3,-36]],[[493,1731],[17,23]],[[3409,1340],[-43,-26]],[[3015,1027],[10,37]],[[3025,1065],[2,5]],[[3006,1456],[-1,0]],[[921,1336],[12,-4]],[[1573,138],[-7,-14]],[[3224,1204],[19,32]],[[3016,1805],[-6,3]],[[633,1544],[-36,-53]],[[651,1666],[11,17]],[[1157,114],[217,10]],[[3229,1122],[2,-1]],[[3231,1123],[-2,1]],[[3272,1118],[2,-1]],[[3275,1118],[-1,0]],[[3323,1122],[-1,0]],[[3322,1122],[1,-1]],[[2992,1119],[-17,-3]],[[2978,1116],[14,2]],[[2874,1848],[-2,-4]],[[3024,1800],[0,1]],[[3078,1765],[1,1]],[[3220,1103],[13,-6],[10,-2],[32,-1],[83,5]],[[3224,1101],[-4,3]],[[3359,1099],[-112,-4]],[[3231,1123],[-4,43]],[[3227,1166],[-3,35]],[[3225,1197],[2,-31]],[[3227,1166],[3,-42]],[[3321,1421],[-4,1]],[[2707,173],[-66,-41],[-28,-102]],[[2615,28],[24,-28]],[[2707,173],[3,65]],[[2710,260],[0,-22]],[[2956,654],[-124,-268],[-57,-77],[-67,-15],[2,-33]],[[2956,654],[2,2]],[[2957,656],[-1,-2]],[[3006,995],[-2,-10]],[[3231,1121],[7,-3],[8,-2]],[[3246,1116],[-15,7]],[[3246,1116],[3,0]],[[3260,1117],[14,1]],[[3274,1117],[3,1]],[[3277,1118],[-2,0]],[[3277,1118],[11,1]],[[3292,1119],[-4,0]],[[3292,1119],[1,1]],[[3322,1122]],[[3323,1121],[0,1]],[[3007,995],[8,32]],[[3034,1095],[-5,-19]],[[3003,1207],[0,-1]],[[3003,1206],[1,1]],[[4046,448],[-21,11]],[[1309,238],[-71,-52],[-1,0],[-8,-7]],[[1229,179],[-9,-7],[-84,-59],[-12,0],[-7,-1]],[[1117,112],[-20,-1],[-9,2],[-14,-2],[-78,-41],[-3,-5]],[[993,65],[-40,-60]],[[953,5],[-4,-5]],[[950,0],[3,5]],[[953,5],[26,53],[14,7]],[[993,65],[99,47],[5,-1],[18,0],[2,1]],[[1117,112],[86,49],[1,0],[25,18]],[[1229,179],[8,6],[1,1],[69,49]],[[3375,1650],[19,159],[-850,2287]],[[385,1595],[39,50]],[[409,1682],[0,-1]],[[409,1679],[1,-1]],[[409,1682],[4,13]],[[409,1681],[0,1]],[[410,1678],[-1,1]],[[424,1647],[-14,31]],[[415,1699],[5,36]],[[420,1735]],[[420,1736],[0,-1]],[[420,1736]],[[420,1736]],[[420,1736],[6,14]],[[426,1750],[2,1]],[[427,1752],[-1,-2]],[[432,1754],[-3,-1]],[[430,1752],[2,2]],[[432,1754],[47,30]],[[3034,1095],[-29,16]],[[3025,1065],[0,-1]],[[3080,1768]],[[3449,1142]],[[3508,1148],[0,1],[-1,0],[0,-1],[1,0]],[[3513,1147],[1,1],[-1,0],[0,-1]],[[3553,1151],[0,-1],[1,1],[-1,0]],[[3984,1393],[0,-1],[1,1],[-1,0]],[[316,2397],[19,-28],[53,32]],[[3690,1640],[1,2]],[[3015,1373],[22,-81]],[[3038,1293],[-22,80]],[[3366,1599],[1,-1]],[[3334,1530],[1,1],[-2,2],[-1,-2],[2,-1]],[[3353,1559],[-1,0],[0,-2],[1,0],[0,2]],[[2961,1141],[-1,-1]],[[2961,1139],[1,-12]],[[2987,1183],[-12,-7],[-5,-6],[-9,-29]],[[2962,1128],[0,11]],[[2962,1139],[1,0]],[[2962,1141],[15,36]],[[2978,1116],[0,1]],[[2992,1118],[6,-3]],[[2998,1115],[-6,4]],[[2994,1188]],[[2995,1188]],[[3002,1204],[-7,-15]],[[2995,1189],[8,16]],[[2998,1115],[5,-3]],[[3003,1112],[2,-1]],[[3007,1109],[-4,3]],[[3009,1248],[2,2]],[[3015,1375],[-1,0]],[[3015,1373],[1,0]],[[3021,1109],[7,0]],[[3032,1096],[1,-2]],[[3044,1256],[-3,-1]],[[3045,1257],[-1,0]],[[3200,1083],[1,1]],[[3243,1239]],[[3243,1236],[1,0]],[[3261,1261],[1,1]],[[3263,1262],[1,0]],[[3266,1050],[0,-2]],[[3262,1263],[1,0]],[[408,3207],[34,-3]],[[1891,1643],[61,-19]],[[1954,1624],[25,-6]],[[2087,1567],[-2,-2]],[[2086,1565],[1,2]],[[2087,1563],[122,-68]],[[2161,1526],[-74,38]],[[3288,1038],[91,-55]],[[3379,983],[1,-1]],[[3381,983],[-2,0]],[[3382,981],[5,-3]],[[3387,978],[-5,4]],[[3387,978],[31,-20]],[[3420,958],[-2,0]],[[3418,958],[2,-1]],[[3421,956],[2,-2]],[[3423,954],[-1,2]],[[3423,954],[36,-26]],[[3459,928],[2,-2]],[[3462,927],[-3,1]],[[3463,925],[4,-2]],[[3467,923],[-3,3]],[[3576,878],[-109,45]],[[3576,878],[7,-3]],[[3584,877],[-8,1]],[[3585,875],[8,-1]],[[3593,874],[-8,2]],[[3593,874],[43,-11]],[[3636,863],[84,30]],[[3720,893],[69,-2]],[[3809,890],[-20,1]],[[3809,890],[5,0]],[[3820,890],[-6,0]],[[3814,890],[5,0]],[[3825,890],[-4,0]],[[3821,890],[4,0]],[[3825,890],[86,-6]],[[3911,884],[40,24]],[[3951,908],[32,36]],[[3983,944],[34,25]],[[4017,969],[50,7]],[[4069,977],[-2,-1]],[[4067,976],[2,-1]],[[4070,974],[1,0]],[[4071,974],[0,1]],[[4096,938],[-25,36]],[[3220,1104],[-10,7]],[[3277,4096],[819,-1464]],[[0,2544],[103,-70]],[[103,2474],[1,-1],[2,-3]],[[105,2470],[-2,4]],[[103,2474],[-1,1],[-102,70]],[[118,2446],[30,-56]],[[147,2391],[-28,53]],[[301,2419],[15,-22]],[[2977,1177],[10,6]],[[3248,1057],[1,0]],[[3251,1057],[0,1]],[[3027,1070],[-2,-5]],[[3358,1099],[49,0],[15,5]],[[3422,1104],[78,31]],[[3500,1135],[1,1],[95,119],[500,200]],[[4096,1456],[-64,-22],[-99,-42],[-18,-5],[-5,-1],[-8,-3],[-13,-3],[-14,-4],[-39,-15],[-241,-106],[-75,-91],[-19,-28],[-1,-1]],[[3500,1135],[-5,-6],[-73,-25]],[[3422,1104],[-16,-5],[-47,0]],[[3329,1518],[0,1]],[[896,871],[-2,-4]],[[1897,1909],[-2,0]],[[1532,2002],[-1,-1],[1,0],[0,1]],[[2992,1577],[0,-109]],[[2993,1468],[0,109]],[[2625,139],[57,34],[6,129]],[[398,3273],[-81,-48]],[[375,2979],[7,5]],[[385,2989],[-1,1]],[[413,3016],[-3,2]],[[473,3142],[3,2]],[[1010,2093],[8,1]],[[1463,2046],[2,-4]],[[1519,225],[-27,-2]],[[1532,2002],[49,-21]],[[1570,143],[-16,24]],[[1892,1907],[-5,0]],[[1895,1909],[-1,-1]],[[1897,1909],[1,-1]],[[2260,1874],[18,-4]],[[2290,1870],[0,-2]],[[2294,1865],[10,0]],[[2335,1859],[25,8]],[[2393,1876],[-13,-2]],[[2397,1874],[-3,0]],[[2415,1875],[13,7]],[[2549,1893],[73,-7]],[[2752,1843],[-2,-2]],[[2753,1846],[0,-1]],[[2763,1849],[-2,-1]],[[2875,1849],[-1,-1]],[[3242,1670],[-48,23]],[[3534,1611],[-31,13]],[[3645,1619],[45,18]],[[3690,1637]],[[3690,1640],[0,-3]],[[3725,1649],[0,-1]],[[3734,1650],[22,10]],[[3761,1658]],[[3787,1667],[-26,-9]],[[3761,1658],[26,12]],[[3800,1663],[32,2]],[[3879,1708],[14,4]],[[3928,1710],[-11,1]],[[3990,1722],[11,9]],[[4055,1774],[22,19]],[[3800,1663],[1,0],[-1,1],[0,-1]],[[3038,1289],[5,-22]],[[3043,1267],[-4,23]],[[2910,1838],[1,1]],[[2911,1839],[-1,0]],[[2928,1837],[20,-4]],[[3229,1121],[1,0]],[[2848,1072],[-2,0]],[[2847,1071],[1,1]],[[2856,1078],[1,0]],[[3251,1058],[-3,-1]],[[3249,1057],[2,0]],[[2970,1825],[40,-17]],[[3182,1699],[-6,4]],[[275,3236],[27,8]],[[1027,1869],[-115,-94],[-13,-35],[-257,-38]],[[659,1701],[240,39],[130,129]],[[1064,1875],[100,-14],[140,26],[157,-58]],[[1461,1830],[-157,57],[-140,-25],[-98,13]],[[1666,1746],[1,-1]],[[3039,1292],[-1,1]],[[3044,1257],[1,0]],[[3220,1198],[-28,-21]],[[3242,1237],[-19,-32]],[[3247,1243],[-4,-4]],[[3244,1238],[3,5]],[[3262,1262],[-15,-19]],[[3314,1292],[-51,-29]],[[597,1491],[14,-66],[31,-13],[3,-61]],[[3519,892],[15,-25]],[[3536,865],[16,-15]],[[3555,848],[65,-41],[143,-235],[115,-58]],[[3183,1333],[57,37]],[[3246,1379],[-54,-40]],[[29,640],[3,-3]],[[767,826],[-1,-1],[1,0]],[[768,826],[1,0],[-2,0]],[[517,763],[-1,1],[0,-1],[1,0]],[[671,816],[0,-1],[0,1]],[[767,826],[0,-1],[1,1],[-1,0]],[[788,835],[1,-1],[1,1],[-1,1],[-1,-1]],[[793,844],[-2,-1],[1,-1],[2,1],[-1,1]],[[3176,1703],[0,1]],[[3352,1638],[-6,3]],[[3878,514],[69,-49]],[[3947,465],[4,-4]],[[3952,462],[-5,3]],[[3952,461],[0,-2]],[[3952,459],[0,2]],[[3952,459],[28,-24]],[[3981,435],[2,-1]],[[2999,958],[-1,-4]],[[2999,953],[2,5]],[[3000,971],[0,-2],[1,2],[-1,0]],[[3001,972],[-1,-1]],[[3014,1375],[1,-2]],[[3016,1373],[-1,2]],[[2855,1081],[-23,3]],[[700,1568],[-1,-3]],[[717,1561],[29,15],[-32,61],[37,74]],[[752,1714],[6,16]],[[1020,2094],[-2,0]],[[1088,85],[1,3]],[[2310,1864],[-3,0]],[[2397,1874],[3,1]],[[2415,1875],[0,4]],[[2765,1850],[-2,-1]],[[3503,1624]],[[3825,229],[53,20],[104,156]],[[3983,431],[1,2]],[[2752,1843],[1,2]],[[302,3244],[15,-19]],[[438,3090],[21,-1],[14,53]],[[2875,1201],[112,21],[77,30],[39,-22],[51,-77],[4,-4],[32,-22],[16,-14]],[[3210,1111],[-107,120],[-21,15],[-23,8],[-175,-50]],[[106,3112],[27,14]],[[139,3132],[46,61]],[[1123,2107],[1,0]],[[1127,2107]],[[2278,1870],[12,0]],[[2415,1881],[0,-2]],[[2765,1851],[0,-1]],[[2799,1848],[-16,0]],[[2875,1849],[9,-1]],[[3194,1693],[-12,6]],[[3725,1649],[0,3]],[[4077,1794],[19,10]],[[2995,942],[2,0],[0,2],[-1,0],[-1,-2]],[[694,1349],[93,22]],[[787,1369],[29,20],[92,-48]],[[3018,1271],[-2,12]],[[417,3252],[-9,-45]],[[3516,1148],[20,2]],[[3029,1114],[-16,-9]],[[3013,1104],[1,-3]],[[3071,1164],[-38,-48]],[[3121,1175],[-52,-8]],[[3793,1499],[1,-13]],[[3794,1486],[0,13]],[[3794,1486],[41,-96]],[[3835,1390],[13,-17]],[[3848,1373],[19,-29]],[[3867,1344],[1,-2]],[[3868,1343],[-1,1]],[[3097,1752],[-19,13]],[[0,1736],[96,21],[52,-54]],[[3801,1664],[-1,0]],[[3206,1113],[5,-23],[-40,-67],[-2,-2]],[[3169,1021],[-5,-7],[-8,-6],[-6,-2]],[[3150,1006],[-7,-3],[-7,-2],[-30,-2],[-28,8],[-13,0],[-9,-1],[-12,-11]],[[3052,995],[12,12],[42,-9],[27,3],[11,2],[3,1],[3,2]],[[3150,1006],[19,15]],[[3169,1021],[2,1],[41,70],[-2,19]],[[774,1728],[-1,0]],[[2753,1813],[16,-24]],[[2821,1707],[-51,81]],[[2821,1707],[1,-2]],[[2822,1706],[-1,1]],[[2823,1703],[1,1]],[[2991,1579],[0,-1]],[[0,0],[0,3531],[44,5],[350,-64],[23,-13],[12,-33],[14,-74],[64,-135],[13,-78],[-75,-53],[-12,-42],[-7,-42],[-12,-19],[-64,-1],[-26,-10],[-19,-22],[-14,-106],[37,-88],[50,-79],[43,-124],[223,-281],[28,-67],[10,-98],[-6,-49],[-13,-35],[-13,-23],[-6,-14],[9,-46],[24,4],[31,20],[33,6],[32,-27],[22,-32],[30,-19],[57,16],[0,31],[-30,44],[22,62],[48,54],[51,23],[384,-20],[344,-132],[499,-31],[125,-38],[72,-7],[106,59],[71,-17],[125,-56],[200,0],[50,-21],[88,-58],[147,-34],[273,-167],[74,68],[466,111],[98,47],[1,0],[0,-1826],[-4096,0]],[[2841,1819],[12,28],[41,1],[48,-11],[99,-43],[64,-47],[-61,-38],[-2,78],[-36,-26],[-16,45],[-58,-18],[-1,40],[-66,-29],[-24,20]],[[2882,1838],[23,0],[0,3],[-22,3],[-1,-6]],[[2876,1826],[1,-2],[7,-5],[0,8],[-8,-1]],[[3413,1627],[-99,-334],[36,-44],[61,-5],[-24,-121],[-209,-181],[-59,3],[-32,50],[-130,0],[-14,42],[-50,7],[-32,100],[-70,26],[-22,36],[-6,87],[55,-42],[75,-7],[63,73],[1,26],[-32,0],[51,115],[36,20],[97,-118],[104,88],[100,44],[18,23],[-19,37],[-59,51],[37,98],[123,-74]],[[3191,1762],[-39,-270],[-108,144],[-52,8],[-5,42],[-95,129],[15,62],[130,-76],[154,-39]],[[3368,1511],[31,79],[78,36],[20,-36],[-28,-23],[9,-21],[-89,-50],[-21,15]],[[3368,1511],[31,79],[78,36],[20,-36],[-28,-23],[9,-21],[-89,-50],[-21,15]],[[670,2094],[6,87],[47,1],[26,-68],[-9,-84],[-61,1],[30,75],[-39,-12]],[[1979,1618],[17,36],[76,-2],[-4,-27],[17,19],[-5,-25],[37,8],[-16,-49],[50,-40],[-71,32],[9,-16],[-47,11],[-43,-44],[20,42],[-15,-9],[-4,54],[-21,10]],[[1303,1070],[24,26],[39,-28],[34,12],[28,92],[35,1],[-34,20],[-24,78],[22,46],[53,-69],[70,19],[-9,25],[41,34],[32,-7],[12,-30],[-26,-15],[18,-22],[-36,-38],[39,-40],[-9,-24],[-121,-30],[-66,-61],[-122,11]],[[0,2407],[30,-16],[36,81],[47,-2],[13,-60],[65,-59],[42,-18],[48,24],[40,46],[-22,40],[-72,8],[-25,79],[47,19],[-14,62],[-89,118],[35,12],[8,38],[-51,79],[45,43],[79,24],[-22,26],[68,-15],[-27,-134],[60,-136],[364,-506],[12,-98],[-68,-92],[1,-73],[-54,-54],[43,31],[52,86],[82,27],[13,-55],[62,-41],[-12,65],[121,130],[170,21],[8,-154],[88,11],[8,-57],[43,-16],[35,-2],[34,40],[20,-43],[94,-30],[19,-116],[29,23],[24,-29],[-4,31],[44,16],[98,-36],[-54,-149],[22,-10],[-8,-43],[-34,-7],[-54,-79],[-40,61],[-50,10],[20,16],[1,11],[-82,-2],[-14,-42],[-32,18],[-21,-18],[7,60],[-33,-12],[-43,65],[-99,23],[-52,-32],[-118,59],[-8,-41],[48,-60],[2,-58],[78,-24],[-21,-59],[33,-63],[-79,-18],[60,-34],[17,-57],[-29,4],[1,-28],[-98,-63],[-9,-46],[-39,-22],[0,-63],[-76,-22],[-20,-38],[-41,10],[-24,-64],[-38,42],[-23,-4],[-6,36],[-81,-20],[-21,70],[-71,-14],[-20,19],[-25,-50],[-46,10],[-26,-36],[18,-81],[-39,9],[-61,88],[-55,-18],[-35,-51],[-68,-17],[-19,-36],[-53,88],[-79,32],[-21,61],[-9,-8],[0,1359]],[[993,1791],[22,-81],[66,-44],[89,117],[-20,25],[-75,-44],[-82,27]],[[960,1901],[1,-30],[54,-4],[87,14],[1,15],[3,0],[1,6],[-88,31],[-59,-32]]]}