{"objects":{"water":{"type":"GeometryCollection","geometries":[{"type":"Polygon","properties":{"source":"naturalearthdata.com","kind":"ocean","area":1444195503964160,"sort_rank":200,"min_zoom":0.0,"id":1},"arcs":[[0],[1],[2],[3],[4],[5],[6],[7],[8],[9],[10],[11],[12],[13],[14],[15],[16],[17],[18],[19],[20],[21],[22],[23],[24],[25],[26],[27],[28],[29]]},{"type":"LineString","properties":{"source":"naturalearthdata.com","kind":"ocean","sort_rank":205,"boundary":true,"min_zoom":0.0,"id":149},"arcs":[30]},{"type":"LineString","properties":{"source":"naturalearthdata.com","kind":"ocean","sort_rank":205,"boundary":true,"min_zoom":0.0,"id":150},"arcs":[31]},{"type":"LineString","properties":{"source":"naturalearthdata.com","kind":"ocean","sort_rank":205,"boundary":true,"min_zoom":0.0,"id":151},"arcs":[32]},{"type":"LineString","properties":{"source":"naturalearthdata.com","kind":"ocean","sort_rank":205,"boundary":true,"min_zoom":0.0,"id":152},"arcs":[33]},{"type":"LineString","properties":{"source":"naturalearthdata.com","kind":"ocean","sort_rank":205,"boundary":true,"min_zoom":0.0,"id":153},"arcs":[34]},{"type":"LineString","properties":{"source":"naturalearthdata.com","kind":"ocean","sort_rank":205,"boundary":true,"min_zoom":0.0,"id":185},"arcs":[35]},{"type":"LineString","properties":{"source":"naturalearthdata.com","kind":"ocean","sort_rank":205,"boundary":true,"min_zoom":0.0,"id":297},"arcs":[36]},{"type":"LineString","properties":{"source":"naturalearthdata.com","kind":"ocean","sort_rank":205,"boundary":true,"min_zoom":0.0,"id":298},"arcs":[37]},{"type":"LineString","properties":{"source":"naturalearthdata.com","kind":"ocean","sort_rank":205,"boundary":true,"min_zoom":0.0,"id":380},"arcs":[38]},{"type":"LineString","properties":{"source":"naturalearthdata.com","kind":"ocean","sort_rank":205,"boundary":true,"min_zoom":0.0,"id":381},"arcs":[39]},{"type":"LineString","properties":{"source":"naturalearthdata.com","kind":"ocean","sort_rank":205,"boundary":true,"min_zoom":0.0,"id":383},"arcs":[40]},{"type":"LineString","properties":{"source":"naturalearthdata.com","kind":"ocean","sort_rank":205,"boundary":true,"min_zoom":0.0,"id":384},"arcs":[41]},{"type":"LineString","properties":{"source":"naturalearthdata.com","kind":"ocean","sort_rank":205,"boundary":true,"min_zoom":0.0,"id":385},"arcs":[42]},{"type":"LineString","properties":{"source":"naturalearthdata.com","kind":"ocean","sort_rank":205,"boundary":true,"min_zoom":0.0,"id":386},"arcs":[43]},{"type":"LineString","properties":{"source":"naturalearthdata.com","kind":"ocean","sort_rank":205,"boundary":true,"min_zoom":0.0,"id":387},"arcs":[44]},{"type":"LineString","properties":{"source":"naturalearthdata.com","kind":"ocean","sort_rank":205,"boundary":true,"min_zoom":0.0,"id":388},"arcs":[45]},{"type":"LineString","properties":{"source":"naturalearthdata.com","kind":"ocean","sort_rank":205,"boundary":true,"min_zoom":0.0,"id":389},"arcs":[46]},{"type":"LineString","properties":{"source":"naturalearthdata.com","kind":"ocean","sort_rank":205,"boundary":true,"min_zoom":0.0,"id":390},"arcs":[47]},{"type":"LineString","properties":{"source":"naturalearthdata.com","kind":"ocean","sort_rank":205,"boundary":true,"min_zoom":0.0,"id":392},"arcs":[48]},{"type":"LineString","properties":{"source":"naturalearthdata.com","kind":"ocean","sort_rank":205,"boundary":true,"min_zoom":0.0,"id":393},"arcs":[49]},{"type":"LineString","properties":{"source":"naturalearthdata.com","kind":"ocean","sort_rank":205,"boundary":true,"min_zoom":0.0,"id":394},"arcs":[50]},{"type":"LineString","properties":{"source":"naturalearthdata.com","kind":"ocean","sort_rank":205,"boundary":true,"min_zoom":0.0,"id":395},"arcs":[51]},{"type":"LineString","properties":{"source":"naturalearthdata.com","kind":"ocean","sort_rank":205,"boundary":true,"min_zoom":0.0,"id":396},"arcs":[52]},{"type":"LineString","properties":{"source":"naturalearthdata.com","kind":"ocean","sort_rank":205,"boundary":true,"min_zoom":0.0,"id":1316},"arcs":[53]},{"type":"LineString","properties":{"source":"naturalearthdata.com","kind":"ocean","sort_rank":205,"boundary":true,"min_zoom":0.0,"id":1353},"arcs":[54]},{"type":"LineString","properties":{"source":"naturalearthdata.com","kind":"ocean","sort_rank":205,"boundary":true,"min_zoom":0.0,"id":1368},"arcs":[55]},{"type":"LineString","properties":{"source":"naturalearthdata.com","kind":"ocean","sort_rank":205,"boundary":true,"min_zoom":0.0,"id":1369},"arcs":[56]},{"type":"LineString","properties":{"source":"naturalearthdata.com","kind":"ocean","sort_rank":205,"boundary":true,"min_zoom":0.0,"id":1370},"arcs":[57]},{"type":"LineString","properties":{"source":"naturalearthdata.com","kind":"ocean","sort_rank":205,"boundary":true,"min_zoom":0.0,"id":1371},"arcs":[58]},{"type":"LineString","properties":{"source":"naturalearthdata.com","kind":"ocean","sort_rank":205,"boundary":true,"min_zoom":0.0,"id":1372},"arcs":[59]},{"type":"LineString","properties":{"source":"naturalearthdata.com","kind":"ocean","sort_rank":205,"boundary":true,"min_zoom":0.0,"id":1373},"arcs":[60]},{"type":"LineString","properties":{"source":"naturalearthdata.com","kind":"ocean","sort_rank":205,"boundary":true,"min_zoom":0.0,"id":1374},"arcs":[61]},{"type":"LineString","properties":{"source":"naturalearthdata.com","kind":"ocean","sort_rank":205,"boundary":true,"min_zoom":0.0,"id":1375},"arcs":[62]},{"type":"LineString","properties":{"source":"naturalearthdata.com","kind":"ocean","sort_rank":205,"boundary":true,"min_zoom":0.0,"id":1376},"arcs":[63]},{"type":"LineString","properties":{"source":"naturalearthdata.com","kind":"ocean","sort_rank":205,"boundary":true,"min_zoom":0.0,"id":1377},"arcs":[64]},{"type":"LineString","properties":{"source":"naturalearthdata.com","kind":"ocean","sort_rank":205,"boundary":true,"min_zoom":0.0,"id":1378},"arcs":[65]},{"type":"LineString","properties":{"source":"naturalearthdata.com","kind":"ocean","sort_rank":205,"boundary":true,"min_zoom":0.0,"id":1379},"arcs":[66]},{"type":"LineString","properties":{"source":"naturalearthdata.com","kind":"ocean","sort_rank":205,"boundary":true,"min_zoom":0.0,"id":1392},"arcs":[67]},{"type":"LineString","properties":{"source":"naturalearthdata.com","kind":"ocean","sort_rank":205,"boundary":true,"min_zoom":0.0,"id":1393},"arcs":[68]},{"type":"LineString","properties":{"source":"naturalearthdata.com","kind":"ocean","sort_rank":205,"boundary":true,"min_zoom":0.0,"id":1394},"arcs":[69]},{"type":"LineString","properties":{"source":"naturalearthdata.com","kind":"ocean","sort_rank":205,"boundary":true,"min_zoom":0.0,"id":1395},"arcs":[70]},{"type":"LineString","properties":{"source":"naturalearthdata.com","kind":"ocean","sort_rank":205,"boundary":true,"min_zoom":0.0,"id":1396},"arcs":[71]},{"type":"LineString","properties":{"source":"naturalearthdata.com","kind":"ocean","sort_rank":205,"boundary":true,"min_zoom":0.0,"id":1397},"arcs":[72]},{"type":"LineString","properties":{"source":"naturalearthdata.com","kind":"ocean","sort_rank":205,"boundary":true,"min_zoom":0.0,"id":1398},"arcs":[73]},{"type":"LineString","properties":{"source":"naturalearthdata.com","kind":"ocean","sort_rank":205,"boundary":true,"min_zoom":0.0,"id":1399},"arcs":[74]},{"type":"LineString","properties":{"source":"naturalearthdata.com","kind":"ocean","sort_rank":205,"boundary":true,"min_zoom":0.0,"id":1400},"arcs":[75]},{"type":"LineString","properties":{"source":"naturalearthdata.com","kind":"ocean","sort_rank":205,"boundary":true,"min_zoom":0.0,"id":1401},"arcs":[76]},{"type":"LineString","properties":{"source":"naturalearthdata.com","kind":"ocean","sort_rank":205,"boundary":true,"min_zoom":0.0,"id":1402},"arcs":[77]},{"type":"LineString","properties":{"source":"naturalearthdata.com","kind":"ocean","sort_rank":205,"boundary":true,"min_zoom":0.0,"id":1403},"arcs":[78]},{"type":"LineString","properties":{"source":"naturalearthdata.com","kind":"ocean","sort_rank":205,"boundary":true,"min_zoom":0.0,"id":1404},"arcs":[79]},{"type":"LineString","properties":{"source":"naturalearthdata.com","kind":"ocean","sort_rank":205,"boundary":true,"min_zoom":0.0,"id":1405},"arcs":[80]}]},"buildings":{"type":"GeometryCollection","geometries":[]},"places":{"type":"GeometryCollection","geometries":[{"type":"Point","properties":{"name:ka":"\u10e1\u10d0\u10db\u10dd\u10d0","name:ko":"\uc0ac\ubaa8\uc544","name:kn":"\u0cb8\u0cae\u0ccb\u0cb5\u0cbe","name:km":"\u179f\u17b6\u1798\u17bc\u17a2\u17b6","min_zoom":2.0,"name:ti":"\u1233\u121e\u12a0","name:ks":"\u0633\u06cc\u0645\u0648\u0648\u0627","name:to":"Ha\u02bbamoa","name:be":"\u0421\u0430\u043c\u043e\u0430","name:or":"\u0b38\u0b3e\u0b2e\u0b4b\u0b06","name:pl":"Samoa","name:ta":"\u0b9a\u0bae\u0bcb\u0bb5\u0bbe","name:ca":"Samoa","name:te":"\u0c38\u0c2e\u0c4b\u0c35\u0c3e","name:bg":"\u0421\u0430\u043c\u043e\u0430","name:da":"Samoa","name:de":"Samoa","name:dz":"\u0f66\u0f0b\u0f58\u0f7c\u0f0b\u0f68","source":"openstreetmap.org","name:yo":"Or\u00edl\u1eb9\u0301\u00e8de Sam\u1ecd","name:lv":"Samoa","name:hi":"\u0938\u092e\u094b\u0906","name:he":"\u05e1\u05de\u05d5\u05d0\u05d4","kind":"country","name:ur":"\u0633\u0627\u0645\u0648\u0622","old_name:eo":"Okcidenta Samoo","name:io":"Samoa","name:uk":"\u0421\u0430\u043c\u043e\u0430","name:hy":"\u054d\u0561\u0574\u0578\u0561","name:hu":"Szamoa","name:lo":"\u0e8a\u0eb2\u0ea1\u0ebb\u0ea7","population":193000,"name:el":"\u03a3\u03b1\u03bc\u03cc\u03b1","name:eo":"Samoo","name":"S\u0101moa","name:ee":"Samoa nutome","name:ku":"Samoa","name:th":"\u0e1b\u0e23\u0e30\u0e40\u0e17\u0e28\u0e0b\u0e32\u0e21\u0e31\u0e27","name:es":"Samoa","name:ia":"Samoa","name:rn":"Samowa","name:mr":"\u0938\u093e\u092e\u094b\u0906","name:ar":"\u0633\u0627\u0645\u0648\u0627","official_name":"Malo Sa'oloto Tuto'atasi o S\u0101moa","name:is":"Sam\u00f3a","name:am":"\u1233\u121e\u12a0","name:it":"Samoa","name:ru":"\u0421\u0430\u043c\u043e\u0430","name:ml":"\u0d38\u0d3e\u0d2e\u0d4b\u0d35","name:mn":"\u0421\u0430\u043c\u043e\u0430","name:mi":"H\u0101moa","id":1529444079,"name:mk":"\u0421\u0430\u043c\u043e\u0430","name:vo":"Samovu\u00e4ns","name:zu":"i-Samoa","name:ff":"Samowaa","name:fi":"Samoa","name:fo":"S\u00e1moa","name:fr":"Samoa","name:zh":"\u8428\u6469\u4e9a","name:sk":"Samoa","name:ja":"\u30b5\u30e2\u30a2","name:si":"\u0dc3\u0dd0\u0db8\u0ddd\u0dc0\u0dcf","name:no":"Samoa","name:sg":"Samo\u00e4a","name:ne":"\u0938\u093e\u092e\u094b\u0906","name:br":"Samoa","name:bm":"Samowa","name:bn":"\u09b8\u09be\u09ae\u09cb\u09af\u09bc\u09be","name:bo":"\u0f53\u0f74\u0f0b\u0f56\u0f0b\u0f66\u0f0b\u0f58\u0f7c\u0f0b\u0f60\u0f0d","name:sv":"Samoa","name:ha":"Samowa","name:sr":"\u0421\u0430\u043c\u043e\u0430","name:ga":"Sam\u00f3","name:gd":"Samotha","name:fa":"\u0633\u0627\u0645\u0648\u0622","name:gv":"Samoa","name:gu":"\u0ab8\u0aae\u0acb\u0a86","name:lg":"Samowa"},"coordinates":[717,2720]},{"type":"Point","properties":{"name:ty":"To\u2019a","name:ka":"\u10e2\u10dd\u10dc\u10d2\u10d0","name:ko":"\ud1b5\uac00","name:kn":"\u0c9f\u0cca\u0c82\u0c97","name:cu":"\u0422\u043e\u043d\u0433\u0430","name:kk":"\u0422\u043e\u043d\u0433\u0430","name:th":"\u0e1b\u0e23\u0e30\u0e40\u0e17\u0e28\u0e15\u0e2d\u0e07\u0e01\u0e32","name:ti":"\u1276\u1295\u130b","name:ks":"\u0679\u0648\u0646\u065b\u06af\u0627","name:pa":"\u0a1f\u0a4b\u0a02\u0a17\u0a3e","name:os":"\u0422\u043e\u043d\u0433\u00e6","name:or":"\u0b1f\u0b4b\u0b19\u0b4d\u0b17\u0b3e","name:ce":"\u0422\u043e\u043d\u0433\u0430","name:ta":"\u0b9f\u0bcb\u0b99\u0bcd\u0b95\u0bbe","name:tg":"\u0422\u043e\u043d\u0433\u0430","name:te":"\u0c1f\u0c4b\u0c02\u0c17\u0c3e","name:bg":"\u0422\u043e\u043d\u0433\u0430","name:ba":"\u0422\u043e\u043d\u0433\u0430","name:dz":"\u0f4a\u0f7c\u0f44\u0f0b\u0f42\u0fb7","source":"openstreetmap.org","name:dv":"\u0793\u07ae\u0782\u07b0\u078e\u07a7","name:km":"\u178f\u17bb\u1784\u17a0\u17d2\u1782\u17b6","name:hi":"\u091f\u094b\u0902\u0917\u093e","name:he":"\u05d8\u05d5\u05e0\u05d2\u05d4","kind":"country","name:ha":"Tanga","name:uk":"\u0422\u043e\u043d\u0491\u0430","name:hy":"\u054f\u0578\u0576\u0563\u0561","name:ug":"Ton\u2019ga","name:qu":"Tunqa","name:lo":"\u0e95\u0ead\u0e87\u0e81\u0eb2","name:oc":"T\u00f2nga","population":104000,"name:el":"\u03a4\u03cc\u03bd\u03b3\u03ba\u03b1","name:eo":"Tongo","name":"Tonga","name:ee":"Tonga nutome","min_zoom":2.0,"name:yo":"Or\u00edl\u1eb9\u0301\u00e8de Tonga","name:az":"Tonqa","name:mr":"\u091f\u094b\u0902\u0917\u093e","name:ar":"\u062a\u0648\u0646\u063a\u0627","name:my":"\u1010\u103d\u1014\u103a\u1002\u102b","official_name":"Pule'anga Fakatu'i 'o Tonga","name:mg":"Tong\u00e0","name:am":"\u1276\u1295\u130b","name:ru":"\u0422\u043e\u043d\u0433\u0430","name:ml":"\u0d1f\u0d4b\u0d02\u0d17","name:mn":"\u0422\u043e\u043d\u0433\u0430","id":424311848,"name:mk":"\u0422\u043e\u043d\u0433\u0430","name:vo":"Tongu\u00e4ns","name:zu":"i-Tonga","name:rw":"Igitonga","name:ff":"Tonngaa","name:zh-yue":"\u6e6f\u52a0","name:zh":"\u6c64\u52a0\u7fa4\u5c9b","name:sm":"Toga","name:ja":"\u30c8\u30f3\u30ac","name:si":"\u0da7\u0ddc\u0d82\u0d9c\u0dcf","name:fa":"\u062a\u0648\u0646\u06af\u0627","name:ne":"\u091f\u094b\u0902\u0917\u093e","name:sa":"\u091f\u094b\u0902\u0917\u093e","name:bn":"\u099f\u09cb\u0999\u09cd\u0997\u09be","name:bo":"\u0f4a\u0f7c\u0f44\u0f0b\u0f42","name:be":"\u0422\u043e\u043d\u0433\u0430","name:ur":"\u0679\u0648\u0646\u06af\u0627","name:sr":"\u0422\u043e\u043d\u0433\u0430","name:nv":"T\u02bc\u00f3nga","name:gv":"Yn Tongey","name:gu":"\u0a9f\u0acb\u0a82\u0a97\u0abe"},"coordinates":[437,2105]},{"type":"Point","properties":{"name:ia":"Samoa American","name:io":"Samoa Usana","name:is":"Bandar\u00edska Sam\u00f3a","name:it":"Samoa Americane","name:vi":"Samoa thu\u1ed9c M\u1ef9","name:ru":"\u0410\u043c\u0435\u0440\u0438\u043a\u0430\u043d\u0441\u043a\u043e\u0435 \u0421\u0430\u043c\u043e\u0430","name:pl":"Samoa Ameryka\u0144skie","id":506535828,"name:ca":"Samoa Nord-americana","name:fa":"\u0633\u0627\u0645\u0648\u0622\u06cc \u0622\u0645\u0631\u06cc\u06a9\u0627","name:fi":"Amerikan Samoa","name:da":"Amerikansk Samoa","name:de":"Amerikanisch-Samoa","source":"openstreetmap.org","name:fr":"Samoa Am\u00e9ricaines","name:be":"\u0410\u043c\u0435\u0440\u044b\u043a\u0430\u043d\u0441\u043a\u0430\u0435 \u0421\u0430\u043c\u043e\u0430","name:zh":"\u7f8e\u5c5e\u8428\u6469\u4e9a","name:sm":"Amerika S\u0101moa","name:sk":"Americk\u00e1 Samoa","name:ja":"\u30a2\u30e1\u30ea\u30ab\u9818\u30b5\u30e2\u30a2","name":"American Samoa","name:no":"Amerikansk Samoa","name:he":"\u05e1\u05de\u05d5\u05d0\u05d4 \u05d4\u05d0\u05de\u05e8\u05d9\u05e7\u05e0\u05d9\u05ea","kind":"country","name:br":"Samoa Amerikan","name:uk":"\u0410\u043c\u0435\u0440\u0438\u043a\u0430\u043d\u0441\u044c\u043a\u0435 \u0421\u0430\u043c\u043e\u0430","name:sv":"Amerikanska Samoa","min_zoom":2.0,"name:hr":"Ameri\u010dka Samoa","name:sr":"\u0410\u043c\u0435\u0440\u0438\u0447\u043a\u0430 \u0421\u0430\u043c\u043e\u0430","population":65600,"name:el":"\u0391\u03bc\u03b5\u03c1\u03b9\u03ba\u03b1\u03bd\u03b9\u03ba\u03ad\u03c2 \u03a3\u03b1\u03bc\u03cc\u03b1","name:eo":"Usona Samoo","name:uz":"Amerika Samoasi","name:ku":"Samoaya Amer\u00eekan\u00ee","name:gv":"Samoa Americaanagh","name:nl":"Amerikaans-Samoa","name:es":"Samoa Americana"},"coordinates":[847,2668]},{"type":"Point","properties":{"name:pt":"Ilhas Cook","name:cy":"Ynysoedd Cook","alt_name:el":"\u039d\u03b7\u03c3\u03b9\u03ac \u039a\u03bf\u03c5\u03ba","name:ko":"\ucfe1\uc81c\ub3c4","name:kn":"\u0c95\u0cc1\u0c95\u0ccd \u0ca6\u0ccd\u0cb5\u0cc0\u0caa\u0c97\u0cb3\u0cc1","name:km":"\u1780\u17c4\u17c7\u200b\u1781\u17bc\u1780","name:kl":"Cook qeqertaq","name:cs":"Cookovy ostrovy","alt_name:eo":"Kuk-Insularo","name:ki":"Visiwa vya Cook","name:tr":"Cook Adalar\u0131","name:ku":"Girav\u00ean Cook","name:ti":"\u12a9\u12ad \u12f0\u1234\u1276\u127d","name:ks":"\u06a9\u064f\u06a9 \u062c\u0654\u0632\u06cc\u0656\u0631\u0655","name:to":"\u02bbOtumotu Kuki","name:sv":"Cook\u00f6arna","name:or":"\u0b15\u0b41\u0b15\u0b4d \u0b06\u0b07\u0b38\u0b32\u0b4d\u0b5f\u0b3e\u0b23\u0b4d\u0b21","name:pl":"Wyspy Cooka","name:ta":"\u0b95\u0bc1\u0b95\u0bcd \u0ba4\u0bc0\u0bb5\u0bc1\u0b95\u0bb3\u0bcd","name:ca":"Illes Cook","name:te":"\u0c15\u0c41\u0c15\u0c4d \u0c26\u0c40\u0c35\u0c41\u0c32\u0c41","name:ro":"Insulele Cook","name:ka":"\u10d9\u10e3\u10d9\u10d8\u10e1 \u10d9\u10e3\u10dc\u10eb\u10e3\u10da\u10d4\u10d1\u10d8","name:hr":"Cookovi otoci","name:da":"Cook-\u00f8erne","name:de":"Cookinseln","name:dz":"\u0f40\u0f74\u0f42\u0f0b\u0f42\u0fb3\u0f72\u0f44\u0f0b\u0f5a\u0f7c\u0f58","source":"openstreetmap.org","name:lv":"Kuka salas","name:lt":"Kuko salos","name:hi":"\u0915\u0941\u0915 \u0926\u094d\u0935\u0940\u092a\u0938\u092e\u0942\u0939","name:he":"\u05d0\u05d9\u05d9 \u05e7\u05d5\u05e7","kind":"country","name:ur":"\u06a9\u06a9 \u0622\u0626\u0644\u06cc\u0646\u0688\u0632","name:lb":"Cookinseln","name:la":"Insulae Cook","name:lg":"Bizinga bya Kkuki","name:uk":"\u041e\u0441\u0442\u0440\u043e\u0432\u0438 \u041a\u0443\u043a\u0430","min_zoom":2.0,"name:hu":"Cook-szigetek","name:ln":"Bisanga bya Kook\u025b","name:lo":"\u0eab\u0ea1\u0eb9\u0ec8\u0ec0\u0e81\u0eb2\u0eb0\u0e84\u0eb8\u0e81","population":18600,"name:el":"\u039d\u03ae\u03c3\u03bf\u03b9 \u039a\u03bf\u03c5\u03ba","name:eo":"Kukinsuloj","name":"Cook Islands","name:ee":"Kook \u0192udomekpo nutome","name:th":"\u0e2b\u0e21\u0e39\u0e48\u0e40\u0e01\u0e32\u0e30\u0e04\u0e38\u0e01","name:gu":"\u0a95\u0ac1\u0a95 \u0a86\u0a87\u0ab2\u0ac7\u0aa8\u0acd\u0aa1\u0acd\u0ab8","name:eu":"Cook Uharteak","name:et":"Cooki saared","name:nl":"Cookeilanden","name:es":"Islas Cook","name:ia":"Insulas Cook","name:rm":"Inslas Cook","name:rn":"Izinga rya Kuku","name:az":"Kuk Adalar\u0131","name:id":"Kepulauan Cook","name:mr":"\u0915\u0941\u0915 \u092c\u0947\u091f\u0947","name:ar":"\u062c\u0632\u0631 \u0643\u0648\u0643","name:my":"\u1000\u103d\u1010\u103a \u1000\u103b\u103d\u1014\u103a\u1038\u1005\u102f","name:io":"Insuli Cook","name:is":"Cooks-eyjar","name:am":"\u12a9\u12ad \u12f0\u1234\u1276\u127d","name:it":"Isole Cook","name:vi":"\u0110\u1ea3o Cook","name:ru":"\u041e\u0441\u0442\u0440\u043e\u0432\u0430 \u041a\u0443\u043a\u0430","name:mn":"\u041a\u04af\u04af\u043a\u0438\u0439\u043d \u0410\u0440\u043b\u0443\u0443\u0434","id":249399308,"name:mk":"\u041a\u0443\u043a\u043e\u0432\u0438 \u041e\u0441\u0442\u0440\u043e\u0432\u0438","name:af":"Cookeilande","name:zu":"i-Cook Islands","name:ha":"Tsibiran Kuku","name:nn":"Cook\u00f8yane","name:ff":"Duu\u0257e Kuuk","name:fi":"Cookinsaaret","name:no":"Cook\u00f8yene","name:mg":"Nosy Kook","name:fo":"Cooksoyggjarnar","name:fr":"\u00celes Cook","name:fy":"de Cookeilannen","name:zh":"\u5e93\u514b\u7fa4\u5c9b","name:so":"Jaziiradda Cook","name:sn":"Zvitsuwa zveCook","name:sl":"Cookovo oto\u010dje","name:sk":"Cookove ostrovy","name:ja":"\u30af\u30c3\u30af\u8af8\u5cf6","name:si":"\u0d9a\u0dd4\u0d9a\u0dca \u0daf\u0dd6\u0db4\u0dad\u0dca","name:fa":"\u062c\u0632\u0627\u06cc\u0631 \u06a9\u0648\u06a9","name:sg":"\u00e2z\u00fb\u00e2 K\u00fbku","name:se":"Cook-sullot","name:ne":"\u0915\u0941\u0915 \u091f\u093e\u092a\u0941","name:br":"Inizi Cook","name:bs":"Kukova Ostrva","name:bm":"Kuki Gun","name:bn":"\u0995\u09c1\u0995 \u09a6\u09cd\u09ac\u09c0\u09aa\u09aa\u09c1\u099e\u09cd\u099c","name:bo":"\u0f40\u0f71\u0f74\u0f42 \u0f42\u0fb3\u0f72\u0f44\u0f0b\u0f55\u0fb2\u0f7a\u0f53\u0f0b\u0f62\u0f92\u0fb1\u0f63\u0f0b\u0f41\u0f56\u0f0d","name:ml":"\u0d15\u0d42\u0d15\u0d4d\u0d15\u0d4d \u0d26\u0d4d\u0d35\u0d40\u0d2a\u0d41\u0d15\u0d7e","name:sw":"Visiwa vya Cook","name:be":"\u0410\u0441\u0442\u0440\u0430\u0432\u044b \u041a\u0443\u043a\u0430","name:bg":"\u041e\u0441\u0442\u0440\u043e\u0432\u0438 \u041a\u0443\u043a","name:sr":"\u041a\u0443\u043a\u043e\u0432\u0430 \u041e\u0441\u0442\u0440\u0432\u0430","name:ga":"Oile\u00e1in Cook","name:gd":"Eileanan Cook","name:gl":"Illas Cook","name:yo":"Or\u00edl\u1eb9\u0301\u00e8de Et\u00edokun K\u00f9\u00fak\u00f9","name:ak":"Kook Nsup\u0254w"},"coordinates":[1788,2492]},{"type":"Point","properties":{"name:mt":"Tokelaw","name:rn":"Tokelawu","name:mr":"\u0924\u094b\u0915\u0947\u0932\u093e\u0909","name:ko":"\ud1a0\ucf08\ub77c\uc6b0","name:kn":"\u0c9f\u0cca\u0c95\u0cc6\u0cb2\u0cbe\u0cb5\u0ccd","name:km":"\u178f\u17bc\u1781\u17c1\u17a1\u17c5","name:ar":"\u062a\u0648\u0643\u0644\u0648","name:is":"T\u00f3kel\u00e1","name:ti":"\u1276\u12ad\u120b\u12cd","name:am":"\u1276\u12ad\u120b\u12cd","name:ur":"\u0679\u0648\u06a9\u06cc\u0644\u0627\u0624","name:ml":"\u0d1f\u0d4a\u0d15\u0d46\u0d32\u0d3e\u0d35\u0d41","name:or":"\u0b1f\u0b4b\u0b15\u0b47\u0b32\u0b3e\u0b09","name:mn":"\u0422\u043e\u043a\u0435\u043b\u0430\u0443","id":433483572,"name:mk":"\u0422\u043e\u043a\u0435\u043b\u0430\u0443","name:te":"\u0c1f\u0c4b\u0c15\u0c47\u0c32\u0c3e\u0c35\u0c4d","name:fa":"\u062a\u0648\u06a9\u0644\u0627\u0626\u0648","name:ta":"\u0b9f\u0bcb\u0b95\u0bc7\u0bb2\u0bcb","name:eo":"Tokelao","name:ff":"Tokelaaw","kind":"country","name:lo":"\u0ec2\u0e95\u0ec0\u0e81\u0ec0\u0ea5\u0ebb\u0eb2","name:dz":"\u0f4f\u0f7c\u0f0b\u0f40\u0f7a\u0f0b\u0f63\u0f60\u0f74\u0f0b \u0f58\u0f5a\u0f7c\u0f0b\u0f42\u0fb3\u0f72\u0f44","source":"openstreetmap.org","name:fy":"Tokela\u00fb","name:be":"\u0422\u0430\u043a\u0435\u043b\u0430\u045e","name:zh":"\u6258\u514b\u52b3","name:ja":"\u30c8\u30b1\u30e9\u30a6","name:si":"\u0da7\u0ddc\u0d9a\u0dbd\u0dcf\u0dc0\u0dd4","name:hi":"\u0924\u094b\u0915\u0947\u0932\u093e\u0909","name:he":"\u05d8\u05d5\u05e7\u05dc\u05d0\u05d5","name:ne":"\u0924\u094b\u0917\u094b","name:ha":"Takelau","name:bm":"Tokelo","name:bn":"\u099f\u09cb\u0995\u09c7\u09b2\u09be\u0989","name:lg":"Tokelawu","name:uk":"\u0422\u043e\u043a\u0435\u043b\u0430\u0443","name:ru":"\u0422\u043e\u043a\u0435\u043b\u0430\u0443","name:sv":"Tokelau\u00f6arna","min_zoom":2.0,"name:hu":"Tokelau-szigetek","name:sr":"\u0422\u043e\u043a\u0435\u043b\u0430\u0443","population":1411,"name:el":"\u03a4\u03bf\u03ba\u03b5\u03bb\u03ac\u03bf\u03c5","name:ga":"Oile\u00e1in T\u00f3cal\u00e1","name":"Tokelau","name:zu":"i-Tokelau","name:mg":"Tokelao","name:ee":"Tokelau nutome","name:th":"\u0e42\u0e15\u0e40\u0e01\u0e40\u0e25\u0e32","name:gu":"\u0a9f\u0acb\u0a95\u0ac7\u0ab2\u0abe\u0a89","name:bg":"\u0422\u043e\u043a\u0435\u043b\u0430\u0443","name:ks":"\u062a\u0648\u06a9\u06cc\u0644\u0627\u0648","name:yo":"Or\u00edl\u1eb9\u0301\u00e8de Tokelau"},"coordinates":[745,3180]},{"type":"Point","properties":{"name:rn":"Niyuwe","name:az":"Niye","name:ka":"\u10dc\u10d8\u10e3\u10d4","name:mr":"\u0928\u0940\u092f\u0942","name:ko":"\ub2c8\uc6b0\uc5d0","name:kn":"\u0ca8\u0cbf\u0caf\u0cc1","name:km":"\u178e\u17c0","name:ar":"\u0646\u064a\u0648\u064a","name:kk":"\u041d\u0438\u0443\u0435","name:th":"\u0e19\u0e35\u0e2d\u0e39\u0e40\u0e2d","name:ti":"\u1292\u12a1\u12ed","name:ks":"\u0646\u06cc\u0648\u0657","name:to":"Niu\u0113","name:or":"\u0b28\u0b3f\u0b09","name:os":"\u041d\u0438\u0443\u044d","name:ml":"\u0d28\u0d4d\u0d2f\u0d42\u0d35\u0d47","name:mn":"\u041d\u0438\u0443\u044d","id":433483552,"name:mk":"\u041d\u0438\u0435","name:te":"\u0c28\u0c3f\u0c2f\u0c41","name:zu":"i-Niue","name:ta":"\u0ba8\u0bbf\u0baf\u0bc2","name:si":"\u0db1\u0dd2\u0dba\u0dd6","name:ff":"Niuwe","name:wo":"Niwe","kind":"country","name:sr":"\u041d\u0438\u0458\u0443\u0435","name:dz":"\u0f53\u0f72\u0f0b\u0f68\u0f74\u0f0b\u0f68\u0f7b","source":"openstreetmap.org","name:rw":"Niyuwe","name:fy":"Ni\u00fb\u00e9","name:dv":"\u0782\u07a9\u0787\u07aa","name:ja":"\u30cb\u30a6\u30a8\u5cf6","name:lt":"Niuj\u0117","name:hi":"\u0928\u0940\u092f\u0942","name:bg":"\u041d\u0438\u0443\u0435","name:he":"\u05e0\u05d9\u05d5\u05d5\u05d4","min_zoom":2.0,"name:ne":"\u0928\u093f\u092f\u0941\u0907","name:ha":"Niyu","name:bm":"Nyuwe","name:bn":"\u09a8\u09bf\u0989\u09af\u09bc\u09c7","name:bo":"\u0f53\u0f72\u0f60\u0f74\u0f0b\u0f5d\u0f0d","name:lg":"Niyuwe","name:uk":"\u041d\u0456\u0443\u0435","name:ru":"\u041d\u0438\u0443\u044d","name:be":"\u041d\u0456\u045e\u044d","name:ug":"Niu\u00e9 Arili","name:ur":"\u0646\u06cc\u0626\u0648","name:ln":"Nyu\u00e9","name:lo":"\u0e99\u0eb5\u0ead\u0eb9\u0ec0\u0ead","population":1269,"name:el":"\u039d\u03b9\u03bf\u03cd\u03b5","name:eo":"Niuo","name":"Niue","name:ee":"Niue nutome","name:zh":"\u7d10\u57c3","name:mg":"Nio\u00e9","name:fa":"\u0646\u06cc\u0648\u0648\u06cc","name:gu":"\u0aa8\u0ac0\u0aaf\u0ac1","name:ak":"Niyu","name:am":"\u1292\u12a1\u12ed","name:yo":"Or\u00edl\u1eb9\u0301\u00e8de Niue"},"coordinates":[923,2192]}]},"transit":{"type":"GeometryCollection","geometries":[]},"pois":{"type":"GeometryCollection","geometries":[]},"boundaries":{"type":"GeometryCollection","geometries":[]},"roads":{"type":"GeometryCollection","geometries":[]},"earth":{"type":"GeometryCollection","geometries":[{"type":"MultiPolygon","properties":{"sort_rank":10,"source":"naturalearthdata.com","min_zoom":0.0,"kind":"earth","area":15853820545},"arcs":[[[81]],[[82]],[[83]]]}]},"landuse":{"type":"GeometryCollection","geometries":[]}},"type":"Topology","transform":{"translate":[-180.0,-40.9798980696],"scale":[0.0109863281,0.0100048579]},"arcs":[[[0,0],[0,98],[0,100],[0,100],[0,100],[0,100],[0,100],[0,100],[0,100],[0,100],[0,100],[0,99],[0,100],[0,100],[0,100],[0,100],[0,100],[0,100],[0,100],[0,100],[0,100],[0,100],[0,100],[0,100],[0,100],[0,4],[2,3],[10,8],[4,8],[-3,8],[-3,-1],[-10,-9],[0,25],[6,4],[1,2],[2,5],[-4,-1],[-5,-5],[0,32],[4,2],[1,2],[-2,0],[-3,-3],[0,15],[0,1],[0,100],[0,100],[0,100],[0,100],[0,100],[0,99],[0,100],[0,100],[0,100],[0,100],[0,100],[0,100],[0,100],[0,100],[0,100],[0,100],[4096,0],[0,-4096],[-4096,0]],[[463,1952],[0,15],[-1,0],[-4,-5],[0,-3],[5,-7]],[[441,1971],[6,10],[1,3],[-5,-1],[-1,-3],[-2,0],[-3,1],[4,1],[-6,3],[-7,1],[-2,1],[0,3],[-4,-4],[3,-5],[12,-6],[4,-4]],[[1837,1973],[4,-1],[3,0],[0,1],[0,3],[-2,2],[-4,0],[-2,-1],[-1,-3],[0,-1],[2,0]],[[915,2190],[4,-7],[9,6],[1,4],[-4,7],[-2,0],[-4,-2],[-4,-8]],[[553,2238],[-4,2],[-3,0],[-6,-7],[1,-2],[4,-4],[2,0],[3,6],[3,3],[0,2]],[[3976,2242],[0,-2],[2,2],[-3,3],[-5,2],[-4,2],[-3,2],[-2,-1],[2,-2],[2,0],[5,-2],[4,-3],[2,-1]],[[113,2273],[0,5],[-3,0],[-5,-1],[2,-2],[5,-3],[1,1]],[[3563,2277],[3,-2],[-1,3],[-5,7],[-3,3],[-5,3],[2,-3],[5,-6],[4,-5]],[[92,2299],[-1,3],[-4,3],[-3,-3],[1,-2],[2,-2],[2,0],[3,1]],[[150,2305],[4,-4],[5,1],[0,2],[-2,4],[-5,1],[-2,-4]],[[3583,2329],[-1,1],[-4,-2],[-6,-3],[-4,-3],[-2,-4],[-3,-4],[0,-4],[1,0],[4,-1],[-1,2],[-2,1],[0,1],[2,3],[3,5],[12,8],[1,0]],[[2792,2328],[0,10],[-5,7],[-12,2],[-9,-3],[-2,-4],[0,-5],[5,-12],[9,-1],[13,2],[4,-9],[4,-3],[6,-1],[3,5],[-2,7],[-14,5]],[[2748,2342],[2,6],[-2,1],[-8,1],[-1,-3],[0,-3],[2,-2],[4,-2],[3,2]],[[95,2379],[-4,3],[-2,-1],[1,-2],[4,-3],[-1,-3],[-2,-6],[2,-1],[2,4],[3,2],[1,3],[-1,1],[-3,3]],[[2602,2419],[-5,4],[-1,-2],[-1,-11],[4,-1],[3,0],[4,1],[-4,9]],[[2597,2431],[3,3],[-2,2],[-4,3],[-1,-4],[1,-3],[2,-2],[1,1]],[[3133,2481],[-3,8],[0,-5],[0,-4],[3,-3],[2,-5],[2,-5],[3,-5],[2,0],[-1,2],[-2,5],[-3,5],[-3,7]],[[3174,2521],[-3,0],[2,-3],[6,-7],[2,-4],[0,4],[-7,10]],[[859,2670],[-12,1],[-2,-2],[-9,-4],[4,-4],[4,1],[8,6],[7,2]],[[172,2668],[-3,4],[-3,2],[-2,-3],[4,-5],[5,-2],[5,1],[0,1],[-6,2]],[[764,2709],[-23,7],[-11,-2],[-6,-3],[2,-5],[10,-9],[5,-1],[12,-4],[25,0],[0,2],[-1,5],[-4,3],[-5,0],[-4,7]],[[708,2741],[-10,9],[-16,-2],[-15,-4],[-10,1],[3,-6],[8,-7],[11,-15],[5,0],[14,2],[10,-3],[4,12],[-4,13]],[[352,2770],[-1,4],[-2,-2],[-3,-6],[2,-3],[1,0],[3,7]],[[3764,3052],[-4,2],[0,-11],[4,2],[1,2],[1,3],[-2,2]],[[3724,3105],[-2,0],[-2,-1],[0,-8],[6,7],[-2,2]],[[3743,3117],[5,5],[-5,0],[-13,5],[-13,-8],[3,-5],[5,-2],[5,2],[13,3]],[[3638,3162],[-4,2],[-6,-3],[0,-3],[4,-6],[2,2],[4,8]],[[3683,3209],[-4,1],[-3,-1],[-2,-2],[1,-5],[6,0],[4,3],[1,2],[-3,2]],[[3637,3209],[0,4],[-1,3],[-16,2],[-1,-1],[-1,-5],[3,-9],[4,0],[9,2],[3,4]],[[87,2298],[2,0],[3,1],[-1,3],[-4,3],[-3,-3],[1,-2],[2,-2]],[[105,2277],[2,-2],[5,-3],[1,1],[0,5],[-3,0],[-5,-1]],[[152,2309],[-2,-4],[4,-4],[5,1],[0,2],[-2,4],[-5,1]],[[2594,2439],[-1,-4],[1,-3],[2,-2],[1,1],[3,3],[-2,2],[-4,3]],[[2748,2342],[2,6],[-2,1],[-8,1],[-1,-3],[0,-3],[2,-2],[4,-2],[3,2]],[[448,1984],[-1,-3],[-6,-10],[-4,4],[-12,6],[-3,5],[4,4],[0,-3],[2,-1],[7,-1],[6,-3],[-4,-1],[3,-1],[2,0],[1,3],[5,1]],[[0,2401],[2,3],[10,8],[4,8],[-3,8],[-3,-1],[-10,-9]],[[0,2443],[6,4],[1,2],[2,5],[-4,-1],[-5,-5]],[[540,2233],[1,-2],[4,-4],[2,0],[3,6],[3,3],[0,2],[-4,2],[-3,0],[-6,-7]],[[2595,2410],[4,-1],[3,0],[4,1],[-4,9],[-5,4],[-1,-2],[-1,-11]],[[3730,3127],[-13,-8],[3,-5],[5,-2],[5,2],[13,3],[5,5],[-5,0],[-13,5]],[[3720,3104],[0,-8],[6,7],[-2,2],[-2,0],[-2,-1]],[[3760,3043],[4,2],[1,2],[1,3],[-2,2],[-4,2],[0,-11]],[[2792,2328],[0,10],[-5,7],[-12,2],[-9,-3],[-2,-4],[0,-5],[5,-12],[9,-1],[13,2],[4,-9],[4,-3],[6,-1],[3,5],[-2,7],[-14,5]],[[3620,3218],[-1,-1],[-1,-5],[3,-9],[4,0],[9,2],[3,4],[0,4],[-1,3],[-16,2]],[[3628,3161],[0,-3],[4,-6],[2,2],[4,8],[-4,2],[-6,-3]],[[698,2750],[-16,-2],[-15,-4],[-10,1],[3,-6],[8,-7],[11,-15],[5,0],[14,2],[10,-3],[4,12],[-4,13],[-10,9]],[[90,2379],[4,-3],[-1,-3],[-2,-6],[2,-1],[2,4],[3,2],[1,3],[-1,1],[-3,3],[-4,3],[-2,-1],[1,-2]],[[741,2716],[-11,-2],[-6,-3],[2,-5],[10,-9],[5,-1],[12,-4],[25,0],[0,2],[-1,5],[-4,3],[-5,0],[-4,7],[-23,7]],[[847,2671],[-2,-2],[-9,-4],[4,-4],[4,1],[8,6],[7,2],[-12,1]],[[919,2198],[-4,-8],[4,-7],[9,6],[1,4],[-4,7],[-2,0],[-4,-2]],[[346,2766],[2,-3],[1,0],[3,7],[-1,4],[-2,-2],[-3,-6]],[[458,1962],[0,-3],[5,-7],[0,15],[-1,0],[-4,-5]],[[3683,3209],[-4,1],[-3,-1],[-2,-2],[1,-5],[6,0],[4,3],[1,2],[-3,2]],[[0,2481],[3,3],[2,0],[-1,-2],[-4,-2]],[[169,2672],[-3,2],[-2,-3],[4,-5],[5,-2],[5,1],[0,1],[-6,2],[-3,4]],[[3567,2311],[-2,1],[0,1],[2,3],[3,5],[12,8],[1,0],[-1,1],[-4,-2],[-6,-3],[-4,-3],[-2,-4],[-3,-4],[0,-4],[1,0],[4,-1],[-1,2]],[[3976,2240],[2,2],[-3,3],[-5,2],[-4,2],[-3,2],[-2,-1],[2,-2],[2,0],[5,-2],[4,-3],[2,-1],[0,-2]],[[3917,2261],[0,2],[-6,7],[-3,0],[9,-9]],[[3774,2009],[3,2],[-1,5],[-3,4],[-2,-2],[2,-1],[2,-5],[-1,-3]],[[3580,2255],[-1,4],[-9,4],[1,-2],[7,-4],[2,-2]],[[3566,2275],[-1,3],[-5,7],[-3,3],[-5,3],[2,-3],[5,-6],[4,-5],[3,-2]],[[3411,2486],[2,8],[2,1],[-3,-8],[-1,-1]],[[3333,2430],[-5,5],[-2,0],[-5,1],[-3,-1],[8,-2],[7,-3]],[[3316,2433],[-4,2],[-5,4],[-4,0],[9,-6],[4,0]],[[3181,2507],[0,4],[-7,10],[-3,0],[2,-3],[6,-7],[2,-4]],[[3142,2462],[-1,2],[-2,5],[-3,5],[-3,7],[-3,8],[0,-5],[0,-4],[3,-3],[2,-5],[2,-5],[3,-5],[2,0]],[[1838,1978],[-2,-1],[-1,-3],[0,-1],[2,0],[4,-1],[3,0],[0,1],[0,3],[-2,2],[-4,0]],[[683,3240],[0,2],[1,-1],[0,-1],[1,-2],[-1,0],[0,1],[-1,1]],[[801,3162],[0,1],[1,0],[0,-1],[0,-1],[-1,1]],[[709,3646],[1,0],[0,1],[-1,0],[-2,-1],[2,-2],[2,0],[1,1],[-1,0],[-2,-1],[0,1],[0,1]],[[760,3811],[2,0],[-1,4],[-2,3],[-3,1],[-2,1],[-1,-1],[0,-1],[1,0],[1,1],[2,-1],[1,-1],[1,-1],[2,-3],[0,-2],[-1,1],[-3,2],[-1,0],[1,-1],[1,-1],[2,-1]],[[811,3784],[0,1],[1,-1],[-1,-1],[0,-1],[-1,0],[1,2]],[[796,3652],[1,0],[1,-1],[0,-1],[-1,-1],[-1,1],[-1,0],[0,1],[1,1]],[[501,3627],[-2,2],[-1,1],[-1,0],[1,0],[1,-1],[1,-1],[-1,0],[-1,0],[0,-1],[2,0],[1,0]],[[2274,3691],[2,-2],[2,-1],[1,-1],[1,0],[0,4],[1,1],[-1,1],[-3,-1],[-3,-1]],[[2566,2957],[-1,-1],[0,-3],[1,-2],[2,0],[0,1],[0,3],[-1,2],[-1,0]],[[2193,3535],[-1,1],[-1,0],[0,-2],[1,-1],[3,0],[2,1],[-1,1],[-3,0]],[[130,2184],[1,1],[0,1],[-1,0],[-2,-1],[0,-2],[0,-1],[2,-2],[2,-1],[1,1],[0,1],[-2,1],[-1,1],[0,1]],[[12,2199],[0,-2],[2,0],[0,1],[0,2],[1,1],[2,-1],[1,0],[0,3],[-3,1],[-2,-1],[-1,-2],[0,-2]],[[116,2030],[0,1],[0,1],[1,0],[0,-1],[0,-1],[-1,0]],[[2792,2328],[14,-5],[2,-7],[-3,-5],[-6,1],[-4,3],[-4,9],[-13,-2],[-9,1],[-5,12],[0,5],[2,4],[9,3],[12,-2],[5,-7],[0,-10]],[[778,2692],[-25,0],[-12,4],[-5,1],[-10,9],[-2,5],[6,3],[11,2],[23,-7],[4,-7],[5,0],[4,-3],[1,-5],[0,-2]],[[698,2750],[10,-9],[4,-13],[-4,-12],[-10,3],[-14,-2],[-5,0],[-11,15],[-8,7],[-3,6],[10,-1],[15,4],[16,2]]]}