{"objects":{"water":{"type":"GeometryCollection","geometries":[{"type":"MultiPolygon","properties":{"source":"naturalearthdata.com","kind":"ocean","area":1576712559132672,"sort_rank":200,"min_zoom":0.0,"id":1},"arcs":[[[12]],[[13],[14],[15]],[[16]]]},{"type":"MultiLineString","properties":{"source":"naturalearthdata.com","kind":"ocean","sort_rank":205,"boundary":true,"min_zoom":0.0,"id":79},"arcs":[[17],[18],[19],[20]]},{"type":"MultiLineString","properties":{"source":"naturalearthdata.com","kind":"ocean","sort_rank":205,"boundary":true,"min_zoom":0.0,"id":1590},"arcs":[[21],[22],[23]]},{"type":"LineString","properties":{"source":"naturalearthdata.com","kind":"ocean","sort_rank":205,"boundary":true,"min_zoom":0.0,"id":1591},"arcs":[24]},{"type":"LineString","properties":{"source":"naturalearthdata.com","kind":"ocean","sort_rank":205,"boundary":true,"min_zoom":0.0,"id":1592},"arcs":[25]}]},"buildings":{"type":"GeometryCollection","geometries":[]},"places":{"type":"GeometryCollection","geometries":[{"type":"Point","properties":{"admin_level":"4","kind":"region","int_name":"Rakhine State","name":"Rakhine","name:tr":"Arakan","kind_detail":"state","name:my":"\u101b\u1001\u102d\u102f\u1004\u103a\u1015\u103c\u100a\u103a\u1014\u101a\u103a","source":"openstreetmap.org","min_zoom":4.0,"old_name":"Arakan","name:zh":"\u82e5\u5f00\u90a6","id":4344756100,"name:ja":"\u30e9\u30ab\u30a4\u30f3"},"coordinates":[3480,651]},{"type":"Point","properties":{"source":"naturalearthdata.com","kind":"locality","name":"Kyaukphyu","population":4261,"min_zoom":7.0,"id":4775},"coordinates":[2146,365]},{"type":"Point","properties":{"name:ja":"\u30b7\u30c3\u30c8\u30a6\u30a7","name:my":"\u1005\u1005\u103a\u1010\u103d\u1031\u1019\u103c\u102d\u102f\u1037","min_zoom":8.0,"name:uk":"\u0421\u0456\u0442\u0443\u044d","old_name":"Akyab","name:ru":"\u0421\u0438\u0442\u0443\u044d","id":26576213,"population":177743,"kind":"locality","name:en":"Sittwe","name":"\u1005\u1005\u103a\u1010\u103d\u1031","kind_detail":"city","name:de":"Sittwe","source":"openstreetmap.org","name:fr":"Sittwe","name:es":"Sittwe"},"coordinates":[255,2600]}]},"transit":{"type":"GeometryCollection","geometries":[]},"pois":{"type":"GeometryCollection","geometries":[]},"boundaries":{"type":"GeometryCollection","geometries":[{"type":"LineString","properties":{"name:cy":"Myanmar","name:ko":"\ubbf8\uc580\ub9c8","name:cv":"\u041c\u044c\u044f\u043d\u043c\u0430","name:km":"\u1798\u17b8\u1799\u17c9\u17b6\u1793\u17cb\u1798\u17c9\u17b6","name:cs":"Myanmar","name:ki":"Myanmar","name:kw":"Byrmani","name:kv":"\u041c\u044c\u044f\u043d\u043c\u0430","name:ku":"Myanmar","name:tl":"Myanmar","name:ce":"\u041c\u044c\u044f\u043d\u043c\u0430","name:ta":"\u0bae\u0bbf\u0baf\u0bbe\u0ba9\u0bcd\u0bae\u0bb0\u0bcd","name:tg":"\u041c\u044f\u043d\u043c\u0430","name:ca":"Myanmar","name:te":"\u0c2e\u0c2f\u0c28\u0c4d\u0c2e\u0c3e\u0c30\u0c4d","name:ka":"\u10db\u10d8\u10d0\u10dc\u10db\u10d0\u10e0\u10d8","name:qu":"Myanmar","name:da":"Myanmar","name:de":"Myanmar","name:dz":"\u0f58\u0f7a\u0f0b\u0f58\u0f62\u0f0b","source":"openstreetmap.org","name:kn":"\u0cae\u0caf\u0ca8\u0ccd\u0cae\u0cbe\u0cb0\u0ccd","name:dv":"\u0784\u07a6\u0783\u07aa\u0789\u07a7","name:lv":"Mjanma","name:lt":"Mianmaras","name:uz":"Birma","name:kk":"\u041c\u0438\u0430\u043d\u043c\u0430","name:ur":"\u0645\u06cc\u0627\u0646\u0645\u0627\u0631","name:lb":"Myanmar","name:la":"Birmania","name:tt":"\u041c\u044c\u044f\u043d\u043c\u0430","name:uk":"\u041c'\u044f\u043d\u043c\u0430","name:ug":"\u0628\u0649\u0631\u0645\u0627","name:li":"Myanmar","name:lo":"\u0e9b\u0eb0\u0ec0\u0e97\u0e94\u0ea1\u0ebd\u0e99\u0ea1\u0eb2","name:el":"\u039c\u03b9\u03b1\u03bd\u03bc\u03ac\u03c1","name:eo":"Birmo \/ Mjanmao","name:en":"Myanmar","name":"\u1019\u103c\u1014\u103a\u1019\u102c","name:tk":"M\u00fdanma","name:th":"\u0e1b\u0e23\u0e30\u0e40\u0e17\u0e28\u0e1e\u0e21\u0e48\u0e32","name:eu":"Myanmar","name:et":"Birma","name:es":"Myanmar","name:ia":"Birmania","name:az":"Myanma","name:ie":"Myanmar","name:id":"Myanmar","name:ar":"\u0628\u0648\u0631\u0645\u0627","name:io":"Myanmar","name:is":"B\u00farma","name:am":"\u121d\u12e8\u1295\u121b","name:it":"Birmania","name:an":"Myanmar","name:ru":"\u041c\u044c\u044f\u043d\u043c\u0430","name:rw":"Mayanimari","name:af":"Mianmar","kind_detail":"2","name:za":"Mienjdien","name:zh-yue":"\u7dec\u7538","name:zh":"\u7f05\u7538","name:so":"Myanmar","name:sl":"Mjanmar","name:sk":"Mjanmarsko","name:ja":"\u30df\u30e3\u30f3\u30de\u30fc","name:si":"\u0db6\u0dd4\u0dbb\u0dd4\u0db8\u0dba","name:sh":"Mianmar","name:se":"Myanmar","name:sc":"Birmania","name:br":"Myanmar","name:bs":"Mijanmar","name:bn":"\u09ae\u09be\u09af\u09bc\u09be\u09a8\u09ae\u09be\u09b0","name:bo":"\u0f56\u0fb7\u0f62\u0f0b\u0f58\u0f0d","name:sa":"\u092e\u094d\u092f\u093e\u0928\u094d\u092e\u093e\u0930","name:sw":"Myanmar","name:be":"\u041c'\u044f\u043d\u043c\u0430","name:su":"Myanmar","name:bg":"\u041c\u0438\u0430\u043d\u043c\u0430\u0440","name:ss":"IMayanima","name:ba":"\u041c\u044c\u044f\u043d\u043c\u0430","name:sq":"Birmania","name:jv":"Myanmar","name:bi":"Burma","name:pt":"Birm\u00e2nia","name:ps":"\u0645\u064a\u0627\u0646\u0645\u0627\u0631","name:oc":"Birmania","min_zoom":8.0,"name:ro":"Birmania","name:zh-min-nan":"Myanma","name:os":"\u041c\u044c\u044f\u043d\u043c\u00e6","name:or":"\u0b2e\u0b4d\u0b5f\u0b3e\u0b28\u0b2e\u0b3e\u0b30","name:pl":"Mjanma","sort_rank":262,"name:sr":"\u041c\u0458\u0430\u043d\u043c\u0430\u0440","osm_relation":true,"name:pa":"\u0a2e\u0a3f\u0a06\u0a02\u0a2e\u0a3e\u0a30","name:tr":"Myanmar","name:hi":"\u092e\u094d\u092f\u093e\u0928\u094d\u092e\u093e\u0930","name:sv":"Myanmar","name:he":"\u05de\u05d9\u05d0\u05e0\u05de\u05e8","name:hy":"\u0544\u0575\u0561\u0576\u0574\u0561","name:ht":"Bimani","name:hu":"Mianmar","name:hr":"Mijanmar","kind":"country","name:yi":"\u05de\u05d9\u05d0\u05e0\u05de\u05d0\u05e8","name:yo":"Myanmar","name:mt":"Myanmar","name:ms":"Myanmar","name:mr":"\u092e\u094d\u092f\u093e\u0928\u092e\u093e\u0930","int_name":"Myanmar","name:mg":"Myanmara","name:vi":"Myanma","name:ml":"\u0d2e\u0d4d\u0d2f\u0d3e\u0d28\u0d4d\u0d2e\u0d3e\u0d7c","old_name:fi":"Burma","id":-50371,"name:mk":"\u041c\u0458\u0430\u043d\u043c\u0430\u0440","name:vo":"Mianmar\u00e4n","name:fa":"\u0645\u06cc\u0627\u0646\u0645\u0627\u0631","name:mn":"\u041c\u044c\u044f\u043d\u043c\u0430\u0440","name:fi":"Myanmar","name:ky":"\u041c\u044c\u044f\u043d\u043c\u0430","old_name:vi":"Mi\u1ebfn \u0110i\u1ec7n;Di\u1ebfn \u0110i\u1ec7n","name:fo":"Burma","name:fr":"Birmanie","name:fy":"Birma","name:nl":"Myanmar","name:nn":"Myanmar","name:no":"Myanmar","name:na":"Miyanmar","name:ne":"\u092e\u094d\u092f\u093e\u0928\u092e\u093e\u0930","name:wo":"Miyanmaar","name:ga":"Maenmar","name:gd":"Mianmar","name:gl":"Myanmar","maritime_boundary":true,"name:gv":"Myanmar","name:gu":"\u0aac\u0ab0\u0acd\u0aae\u0abe"},"arcs":[0]},{"type":"LineString","properties":{"int_name":"Rakhine State","name:ja":"\u30e9\u30ab\u30a4\u30f3\u5dde","name:hi":"\u0930\u0916\u093e\u0907\u0928 \u0930\u093e\u091c\u094d\u092f","name:tr":"Arakan","name:kn":"\u0c85\u0cb0\u0c95\u0cbe\u0ca8\u0ccd","name:my":"\u101b\u1001\u102d\u102f\u1004\u103a\u1015\u103c\u100a\u103a\u1014\u101a\u103a","name:ur":"\u0631\u0627\u062e\u0627\u0626\u0646 \u0631\u06cc\u0627\u0633\u062a","name:th":"\u0e23\u0e31\u0e10\u0e22\u0e30\u0e44\u0e02\u0e48","name:uk":"\u0420\u0430\u043a\u0445\u0430\u0439\u043d","old_name":"Arakan","name:ru":"\u0420\u0430\u043a\u0445\u0430\u0439\u043d","id":-5996483,"name:mk":"\u0420\u0430\u043a\u0430\u0458\u043d","name:fa":"\u0627\u06cc\u0627\u0644\u062a \u0631\u0627\u062e\u06cc\u0646","kind":"region","name:en":"Rakhine","name":"\u101b\u1001\u102d\u102f\u1004\u103a\u1015\u103c\u100a\u103a\u1014\u101a\u103a (Rakhine)","source":"openstreetmap.org","sort_rank":256,"kind_detail":"4","name:bn":"\u09b0\u09be\u0996\u09be\u0987\u09a8 \u09b0\u09be\u099c\u09cd\u09af","min_zoom":8.0,"name:de":"Rakhaing","name:ko":"\ub77c\uce74\uc778 \uc8fc","maritime_boundary":true,"osm_relation":true,"name:zh":"\u82e5\u958b\u90a6","name:es":"Rak\u00e1in"},"arcs":[1]},{"type":"LineString","properties":{"name:right:ja":"\u30de\u30b0\u30a6\u30a7","name:left:hi":"\u0930\u0916\u093e\u0907\u0928 \u0930\u093e\u091c\u094d\u092f","int_name:left":"Rakhine State","name:left:ja":"\u30e9\u30ab\u30a4\u30f3\u5dde","id:right":-5996479,"name:left:uk":"\u0420\u0430\u043a\u0445\u0430\u0439\u043d","min_zoom":8.0,"id:left":-5996483,"name:left:bn":"\u09b0\u09be\u0996\u09be\u0987\u09a8 \u09b0\u09be\u099c\u09cd\u09af","id":-5996483,"name:right":"\u1019\u1000\u103d\u1031\u1038\u1010\u102d\u102f\u1004\u103a\u1038\u1012\u1031\u101e\u1000\u103c\u102e\u1038","name:left:en":"Rakhine","sort_rank":256,"kind_detail":"4","int_name:right":"Magway Region","source":"openstreetmap.org","name:left:ur":"\u0631\u0627\u062e\u0627\u0626\u0646 \u0631\u06cc\u0627\u0633\u062a","name:left:es":"Rak\u00e1in","name:left:ko":"\ub77c\uce74\uc778 \uc8fc","name:left":"\u101b\u1001\u102d\u102f\u1004\u103a\u1015\u103c\u100a\u103a\u1014\u101a\u103a (Rakhine)","name:left:mk":"\u0420\u0430\u043a\u0430\u0458\u043d","name:left:tr":"Arakan","name:left:kn":"\u0c85\u0cb0\u0c95\u0cbe\u0ca8\u0ccd","name:left:th":"\u0e23\u0e31\u0e10\u0e22\u0e30\u0e44\u0e02\u0e48","name:left:ru":"\u0420\u0430\u043a\u0445\u0430\u0439\u043d","name:left:my":"\u101b\u1001\u102d\u102f\u1004\u103a\u1015\u103c\u100a\u103a\u1014\u101a\u103a","name:right:en":"Magway","osm_relation":true,"kind":"region","name":"\u101b\u1001\u102d\u102f\u1004\u103a\u1015\u103c\u100a\u103a\u1014\u101a\u103a (Rakhine) - \u1019\u1000\u103d\u1031\u1038\u1010\u102d\u102f\u1004\u103a\u1038\u1012\u1031\u101e\u1000\u103c\u102e\u1038","name:left:fa":"\u0627\u06cc\u0627\u0644\u062a \u0631\u0627\u062e\u06cc\u0646","name:right:de":"Magwe-Region","name:left:de":"Rakhaing","name:left:zh":"\u82e5\u958b\u90a6","old_name:left":"Arakan"},"arcs":[2]},{"type":"MultiLineString","properties":{"int_name":"Rakhine State","name:ja":"\u30e9\u30ab\u30a4\u30f3\u5dde","name:hi":"\u0930\u0916\u093e\u0907\u0928 \u0930\u093e\u091c\u094d\u092f","name:tr":"Arakan","name:kn":"\u0c85\u0cb0\u0c95\u0cbe\u0ca8\u0ccd","name:my":"\u101b\u1001\u102d\u102f\u1004\u103a\u1015\u103c\u100a\u103a\u1014\u101a\u103a","name:ur":"\u0631\u0627\u062e\u0627\u0626\u0646 \u0631\u06cc\u0627\u0633\u062a","name:th":"\u0e23\u0e31\u0e10\u0e22\u0e30\u0e44\u0e02\u0e48","name:uk":"\u0420\u0430\u043a\u0445\u0430\u0439\u043d","old_name":"Arakan","name:ru":"\u0420\u0430\u043a\u0445\u0430\u0439\u043d","id":-5996483,"name:mk":"\u0420\u0430\u043a\u0430\u0458\u043d","name:fa":"\u0627\u06cc\u0627\u0644\u062a \u0631\u0627\u062e\u06cc\u0646","kind":"region","name:en":"Rakhine","name":"\u101b\u1001\u102d\u102f\u1004\u103a\u1015\u103c\u100a\u103a\u1014\u101a\u103a (Rakhine)","source":"openstreetmap.org","sort_rank":256,"kind_detail":"4","name:bn":"\u09b0\u09be\u0996\u09be\u0987\u09a8 \u09b0\u09be\u099c\u09cd\u09af","min_zoom":8.0,"name:de":"Rakhaing","name:ko":"\ub77c\uce74\uc778 \uc8fc","maritime_boundary":true,"osm_relation":true,"name:zh":"\u82e5\u958b\u90a6","name:es":"Rak\u00e1in"},"arcs":[[3],[4],[5],[6],[7],[8],[9],[10]]},{"type":"LineString","properties":{"int_name":"Rakhine State","name:ja":"\u30e9\u30ab\u30a4\u30f3\u5dde","name:hi":"\u0930\u0916\u093e\u0907\u0928 \u0930\u093e\u091c\u094d\u092f","name:tr":"Arakan","name:kn":"\u0c85\u0cb0\u0c95\u0cbe\u0ca8\u0ccd","name:my":"\u101b\u1001\u102d\u102f\u1004\u103a\u1015\u103c\u100a\u103a\u1014\u101a\u103a","name:ur":"\u0631\u0627\u062e\u0627\u0626\u0646 \u0631\u06cc\u0627\u0633\u062a","name:th":"\u0e23\u0e31\u0e10\u0e22\u0e30\u0e44\u0e02\u0e48","name:uk":"\u0420\u0430\u043a\u0445\u0430\u0439\u043d","old_name":"Arakan","name:ru":"\u0420\u0430\u043a\u0445\u0430\u0439\u043d","id":-5996483,"name:mk":"\u0420\u0430\u043a\u0430\u0458\u043d","name:fa":"\u0627\u06cc\u0627\u0644\u062a \u0631\u0627\u062e\u06cc\u0646","kind":"region","name:en":"Rakhine","name":"\u101b\u1001\u102d\u102f\u1004\u103a\u1015\u103c\u100a\u103a\u1014\u101a\u103a (Rakhine)","source":"openstreetmap.org","sort_rank":256,"kind_detail":"4","name:bn":"\u09b0\u09be\u0996\u09be\u0987\u09a8 \u09b0\u09be\u099c\u09cd\u09af","min_zoom":8.0,"name:de":"Rakhaing","name:ko":"\ub77c\uce74\uc778 \uc8fc","maritime_boundary":true,"osm_relation":true,"name:zh":"\u82e5\u958b\u90a6","name:es":"Rak\u00e1in"},"arcs":[11]}]},"roads":{"type":"GeometryCollection","geometries":[{"type":"MultiLineString","properties":{"sort_rank":380,"kind_detail":"primary","min_zoom":8.0,"kind":"major_road","source":"openstreetmap.org"},"arcs":[[26],[27],[28],[29],[30],[31],[32],[33],[34],[35],[36],[37],[38],[39],[40],[41],[42],[43],[44],[45],[46],[47]]},{"type":"MultiLineString","properties":{"sort_rank":355,"source":"openstreetmap.org","min_zoom":8.0,"kind":"ferry"},"arcs":[[48],[49],[50],[51]]}]},"earth":{"type":"GeometryCollection","geometries":[{"type":"MultiPolygon","properties":{"sort_rank":10,"source":"naturalearthdata.com","min_zoom":0.0,"kind":"earth","area":89673576577},"arcs":[[[52]],[[53]],[[54]],[[55]],[[56]]]}]},"landuse":{"type":"GeometryCollection","geometries":[]}},"type":"Topology","transform":{"translate":[92.8125,19.3111433551],"scale":[0.0003433228,0.0003226662]},"arcs":[[[0,1264],[142,-119],[615,-1145]],[[2584,0],[-30,21],[-24,110],[16,40],[-111,36],[-23,-39],[15,-60],[142,-108]],[[4096,2260],[-40,67],[23,44],[-1,91],[-119,63],[-5,136],[-97,97],[11,20],[-33,38],[17,74],[-30,70],[10,39],[-68,46],[-69,131],[-6,116],[-67,-19],[-36,16],[12,32],[-25,53],[-54,27],[-35,61],[1,54],[-25,9],[-6,61],[-39,51],[9,41],[-54,83],[-81,17],[-6,84],[-52,29],[-88,-45],[-129,13],[40,121],[-45,63],[6,50],[3,3]],[[0,2633],[143,-117],[101,-28],[-1,51],[76,187],[-25,26],[-6,34],[-75,13],[-2,9],[15,22],[-29,37],[0,58],[17,13],[40,-11],[-53,-12],[33,-90],[-17,-23],[64,-9],[13,54],[23,6],[-5,47],[14,-46],[-34,-66],[24,-43],[89,91],[-13,29],[3,57],[-37,72],[5,15],[24,-28],[-4,-29],[17,-29],[2,-54],[22,-6],[160,218],[23,378],[91,152],[83,284],[-3,46],[-107,35],[-56,54],[-27,66]],[[597,4096],[66,-95],[128,-60],[1,-209],[41,-18],[-14,-41],[24,-15],[42,-199],[-8,-29],[-97,-18],[-7,-21],[38,-65],[93,-1],[-100,-21],[-54,-80],[-102,-61],[-9,-120],[-48,-67],[-55,-178],[-13,-222],[71,-15],[131,89],[177,171],[32,11],[23,-12],[63,113],[52,37],[27,4],[-7,60],[71,15],[14,51],[-21,43],[30,-46],[-17,-56],[-67,-12],[2,-63],[-69,-34],[-70,-119],[-40,6],[-80,-86],[194,10],[90,64],[38,88],[109,20],[-70,88],[43,110],[123,45],[-20,84],[129,109],[-7,62],[19,-10],[18,39],[-15,-94],[-107,-149],[10,-33],[95,4],[7,-71],[40,-9],[-25,-41],[12,-28],[13,-20],[54,7],[150,-333],[26,-179],[-32,-3],[-8,-110],[-72,18],[-11,-50],[121,-307],[100,-72],[19,29],[-58,94],[12,38],[90,5],[60,-55],[49,44],[97,-25],[-69,9],[-56,-55],[24,-45],[67,-8],[-73,-20],[27,-87],[79,49],[-23,-53],[114,0],[-111,-45],[12,-46],[38,-25],[100,79],[39,-9],[80,36],[91,-12],[53,19],[73,-26],[-2,171],[20,-111],[95,-41],[-98,-20],[19,-45],[151,-81],[75,-4],[-25,49],[25,24],[-8,69],[30,-56],[-34,-34],[28,-53],[-58,-7],[53,-107],[-41,-69],[10,-147],[-187,-46],[-35,-32],[11,-68],[-23,-61],[56,-73],[103,12],[113,89],[19,91],[29,-70],[-57,-77],[76,-20],[34,-55],[40,-2],[-36,-7],[-43,56],[-103,25],[-21,-45],[133,-103],[-158,80],[-135,-93],[-16,-50],[126,-80],[71,43],[107,-9],[-4,-54],[18,-6],[-21,2],[-12,36],[-75,18],[-59,-43],[53,-72],[272,-209],[91,-39],[54,35],[26,75],[-33,91],[20,49],[-12,-44],[46,-65],[-26,-95],[-45,-69],[-63,-32],[41,-39],[113,-29],[60,52],[58,-28],[-60,-105],[-90,80],[-86,12],[-90,71],[-67,-22],[-11,-74],[-16,45],[28,50],[-6,49],[-118,-24],[-80,66],[-57,15],[-4,-53],[-9,-9],[5,73],[-81,48],[18,22],[-12,56],[-119,7],[-47,42],[-33,-6],[-98,-172],[77,-84],[-73,36],[-24,-5],[-1,-29],[47,-116],[100,-118],[75,4],[43,19],[11,-5],[15,-43],[-29,41],[-55,-30],[62,-45],[16,-105],[50,15],[71,-59],[8,36],[2,-35],[-17,-4],[-65,54],[-42,-17],[19,-75],[49,-46]],[[0,2789],[0,-4]],[[0,3586],[85,-83],[-1,-77],[81,-21],[-83,-33],[91,-29],[127,-26],[-35,139],[80,24],[-42,35],[-36,50],[-32,88],[-15,14],[-17,-13],[-20,9],[33,9],[25,-17],[47,-108],[62,-56],[-8,-25],[-69,-18],[44,-89],[-9,-46],[-242,41],[87,-132],[21,-121],[40,-25],[56,45],[63,-8],[-21,20],[3,19],[75,54],[-32,85],[24,35],[-43,28],[-2,19],[65,36],[-58,-37],[44,-46],[-25,-37],[34,-74],[-7,-23],[-71,-52],[21,-36],[-64,4],[-43,-50],[-89,7],[-61,-64],[-83,-40]],[[2487,0],[-23,35],[-71,20],[-43,43],[-19,-34],[-35,-29],[52,69],[47,-16],[-2,81],[-58,46],[-40,101],[-47,-9],[-31,24],[-7,-26],[-51,-2],[47,30],[-73,59],[-128,-34],[-76,-94],[-10,-127],[90,-137]],[[3076,0],[45,126],[-65,50],[-15,60],[90,-106],[-20,-100],[94,47],[-6,98],[15,35],[-5,-148],[-103,-62]],[[3224,0],[43,81],[95,69],[7,90],[51,35],[70,-59],[-105,10],[-11,-103],[-71,-40],[-10,-83]],[[3548,0],[12,101],[65,32],[39,96],[17,-41],[-110,-188]],[[0,3032],[52,-3],[85,61],[20,51],[-106,190],[24,58],[68,14],[-62,17],[-3,84],[-41,18],[-37,59]],[[0,3700],[8,-1],[34,-30],[13,-50],[27,-275],[18,-40],[29,-30],[70,-57],[20,-28],[6,-20],[10,-13],[35,-4],[59,-1],[25,-6],[26,-15],[-122,-40],[-108,-23],[-150,-103],[0,736]],[[0,2656],[100,-78],[24,-38],[15,-18],[22,-9],[37,4],[26,15],[16,16],[10,7],[110,237],[171,231],[63,119],[25,135],[-15,172],[8,88],[38,71],[39,51],[33,67],[24,69],[13,59],[37,-67],[-44,-114],[-112,-202],[-4,-67],[10,-78],[26,-60],[48,-8],[37,44],[28,125],[54,44],[-27,-155],[-30,-70],[-72,-29],[-44,-53],[-65,-234],[-51,-53],[-40,-164],[8,-98],[82,-15],[84,55],[122,132],[92,24],[0,-19],[-15,-29],[-62,-163],[-22,0],[0,21],[-5,13],[-7,12],[-8,17],[-44,-72],[-30,-38],[-35,-17],[-158,-14],[-53,14],[12,-38],[5,-91],[14,-31],[32,-32],[58,-85],[78,-84],[30,-56],[12,-82],[19,-54],[155,-238],[36,-85],[28,-39],[14,-8],[29,-8],[57,-67],[0,6],[-29,44],[-9,13],[-14,7],[-11,9],[-37,48],[-14,43],[-16,98],[-53,114],[-12,104],[21,92],[65,39],[49,-38],[36,-87],[46,-154],[73,-166],[47,-80],[60,-50],[-7,81],[-173,342],[-60,214],[-56,101],[-20,50],[-4,60],[22,-40],[34,-36],[40,-29],[44,-22],[40,34],[73,-16],[86,-30],[81,-7],[62,21],[55,34],[40,50],[21,65],[20,0],[45,-198],[17,-37],[30,13],[7,62],[1,117],[22,0],[5,-75],[59,-159],[15,-75],[12,-35],[28,-38],[35,-30],[33,-13],[30,9],[18,24],[21,71],[15,-16],[35,-29],[14,-17],[10,39],[22,27],[30,21],[35,19],[12,-21],[6,-23],[-43,-11],[-15,-34],[15,-37],[43,-22],[-39,-36],[31,-30],[108,-42],[-19,-11],[-23,-22],[-14,-9],[23,-28],[35,-25],[41,-14],[38,4],[20,19],[22,56],[9,11],[52,-3],[26,3],[21,10],[32,8],[149,1],[12,10],[0,44],[17,12],[25,-4],[22,-13],[19,-22],[15,-27],[-43,-7],[-14,-27],[9,-36],[27,-35],[-99,8],[-70,-6],[-57,-38],[-157,-232],[-15,-39],[0,-201],[41,16],[23,30],[35,81],[2,-76],[36,-31],[131,-1],[26,30],[19,60],[38,47],[86,-10],[-28,-36],[-67,-33],[-22,-37],[-5,-56],[10,-49],[23,-38],[30,-24],[87,-9],[66,51],[45,82],[22,87],[19,-19],[41,-65],[-33,-47],[-39,-45],[-24,-48],[16,-53],[-62,19],[-66,-4],[-51,-31],[-21,-58],[24,-47],[110,-44],[25,-37],[25,-62],[59,-56],[118,-82],[78,-77],[31,-9],[68,0],[32,-6],[30,-15],[-53,-24],[-13,-36],[27,-32],[68,-14],[91,18],[17,1],[20,-21],[-3,-24],[-17,-38],[11,-100],[-2,-57],[-19,-45],[-49,-75],[-7,-6],[-25,-8],[-8,-5],[-4,-13],[6,-38],[-2,-14],[-27,-30],[-96,0],[27,22],[67,94],[40,20],[34,25],[19,58],[4,65],[-8,44],[-43,48],[-112,67],[-54,42],[-55,36],[-65,10],[-62,-10],[-48,-24],[-50,49],[-139,111],[-17,25],[-12,25],[-14,23],[-27,23],[-22,7],[-55,6],[-23,6],[-25,-2],[-114,-144],[18,-28],[4,-21],[-13,-12],[-31,-4],[50,-107],[30,-35],[42,-28],[96,-31],[41,-25],[22,-49],[-4,-20],[-14,-2],[-15,1],[-7,-12],[3,-18],[7,-10],[6,-6],[4,-9],[6,-34],[29,-39],[6,-32],[13,-36],[45,-69],[-316,0],[-103,72],[45,46],[-17,72],[-57,96],[-100,0],[-26,10],[-13,25],[-10,28],[-21,21],[-67,5],[-65,-30],[-49,-46],[-20,-46],[-2,-131],[11,-52],[31,-61],[6,-9],[-2002,0],[0,2656]],[[2018,1739],[-19,46],[-41,31],[-41,25],[-19,26],[-9,18],[-22,28],[-32,30],[-60,41],[-56,5],[12,-101],[99,-339],[47,-69],[160,-133],[19,50],[-4,47],[-34,94],[-12,56],[12,145]],[[321,2406],[-17,5],[-14,-14],[-10,-30],[2,-30],[15,-17],[15,-12],[8,-16],[10,-52],[180,-337],[40,-57],[21,-52],[14,-135],[15,-58],[19,0],[-9,132],[-21,109],[-137,362],[-11,45],[-4,29],[-12,27],[-16,25],[-19,23],[-50,33],[-19,20]],[[3545,0],[3,15],[77,147],[29,79],[20,-47],[-12,-71],[-29,-65],[-29,-28],[-7,-30],[-52,0]],[[0,3700],[8,-1],[34,-30],[13,-50],[27,-275],[18,-40],[29,-30],[70,-57],[20,-28],[6,-20],[10,-13],[35,-4],[59,-1],[25,-6],[26,-15],[-122,-40],[-108,-23],[-150,-103]],[[0,2656],[100,-78],[24,-38],[15,-18],[22,-9],[37,4],[26,15],[16,16],[10,7],[110,237],[171,231],[63,119],[25,135],[-15,172],[8,88],[38,71],[39,51],[33,67],[24,69],[13,59],[37,-67],[-44,-114],[-112,-202],[-4,-67],[10,-78],[26,-60],[48,-8],[37,44],[28,125],[54,44],[-27,-155],[-30,-70],[-72,-29],[-44,-53],[-65,-234],[-51,-53],[-40,-164],[8,-98],[82,-15],[84,55],[122,132],[92,24],[0,-19],[-15,-29],[-62,-163],[-22,0],[0,21],[-5,13],[-7,12],[-8,17],[-44,-72],[-30,-38],[-35,-17],[-158,-14],[-53,14],[12,-38],[5,-91],[14,-31],[32,-32],[58,-85],[78,-84],[30,-56],[12,-82],[19,-54],[155,-238],[36,-85],[28,-39],[14,-8],[29,-8],[57,-67],[0,6],[-29,44],[-9,13],[-14,7],[-11,9],[-37,48],[-14,43],[-16,98],[-53,114],[-12,104],[21,92],[65,39],[49,-38],[36,-87],[46,-154],[73,-166],[47,-80],[60,-50],[-7,81],[-173,342],[-60,214],[-56,101],[-20,50],[-4,60],[22,-40],[34,-36],[40,-29],[44,-22],[40,34],[73,-16],[86,-30],[81,-7],[62,21],[55,34],[40,50],[21,65],[20,0],[45,-198],[17,-37],[30,13],[7,62],[1,117],[22,0],[5,-75],[59,-159],[15,-75],[12,-35],[28,-38],[35,-30],[33,-13],[30,9],[18,24],[21,71],[15,-16],[35,-29],[14,-17],[10,39],[22,27],[30,21],[35,19],[12,-21],[6,-23],[-43,-11],[-15,-34],[15,-37],[43,-22],[-39,-36],[31,-30],[108,-42],[-19,-11],[-23,-22],[-14,-9],[23,-28],[35,-25],[41,-14],[38,4],[20,19],[22,56],[9,11],[52,-3],[26,3],[21,10],[32,8],[149,1],[12,10],[0,44],[17,12],[25,-4],[22,-13],[19,-22],[15,-27],[-43,-7],[-14,-27],[9,-36],[27,-35],[-99,8],[-70,-6],[-57,-38],[-157,-232],[-15,-39],[0,-201],[41,16],[23,30],[35,81],[2,-76],[36,-31],[131,-1],[26,30],[19,60],[38,47],[86,-10],[-28,-36],[-67,-33],[-22,-37],[-5,-56],[10,-49],[23,-38],[30,-24],[87,-9],[66,51],[45,82],[22,87],[19,-19],[41,-65],[-33,-47],[-39,-45],[-24,-48],[16,-53],[-62,19],[-66,-4],[-51,-31],[-21,-58],[24,-47],[110,-44],[25,-37],[25,-62],[59,-56],[118,-82],[78,-77],[31,-9],[68,0],[32,-6],[30,-15],[-53,-24],[-13,-36],[27,-32],[68,-14],[91,18],[17,1],[20,-21],[-3,-24],[-17,-38],[11,-100],[-2,-57],[-19,-45],[-49,-75],[-7,-6],[-25,-8],[-8,-5],[-4,-13],[6,-38],[-2,-14],[-27,-30]],[[2459,0],[-103,72],[45,46],[-17,72],[-57,96],[-100,0],[-26,10],[-13,25],[-10,28],[-21,21],[-67,5],[-65,-30],[-49,-46],[-20,-46],[-2,-131],[11,-52],[31,-61],[6,-9]],[[3545,0],[3,15],[77,147],[29,79],[20,-47],[-12,-71],[-29,-65],[-29,-28],[-7,-30]],[[3374,328],[-43,48],[-112,67],[-54,42],[-55,36],[-65,10],[-62,-10],[-48,-24],[-50,49],[-139,111],[-17,25],[-12,25],[-14,23],[-27,23],[-22,7],[-55,6],[-23,6],[-25,-2],[-114,-144],[18,-28],[4,-21],[-13,-12],[-31,-4],[50,-107],[30,-35],[42,-28],[96,-31],[41,-25],[22,-49],[-4,-20],[-14,-2],[-15,1],[-7,-12],[3,-18],[7,-10],[6,-6],[4,-9],[6,-34],[29,-39],[6,-32],[13,-36],[45,-69]],[[3079,0],[16,9],[12,-6],[1,-3]],[[3191,0],[27,22],[67,94],[40,20],[34,25],[19,58],[4,65],[-8,44]],[[441,2249],[-4,29],[-12,27],[-16,25],[-19,23],[-50,33],[-19,20],[-17,5],[-14,-14],[-10,-30],[2,-30],[15,-17],[15,-12],[8,-16],[10,-52],[180,-337],[40,-57],[21,-52],[14,-135],[15,-58],[19,0],[-9,132],[-21,109],[-137,362],[-11,45]],[[2018,1538],[-12,56],[12,145],[-19,46],[-41,31],[-41,25],[-19,26],[-9,18],[-22,28],[-32,30],[-60,41],[-56,5],[12,-101],[99,-339],[47,-69],[160,-133],[19,50],[-4,47],[-34,94]],[[0,3244],[113,-170]],[[190,2583],[-72,152],[16,287],[30,-13],[74,55],[360,135],[-23,371],[-112,335],[-60,58],[-44,133]],[[1035,4096],[32,-88],[60,-42],[109,-147],[36,-12],[89,-149],[-39,-11],[8,-27],[53,-2],[27,-40],[28,-116],[-13,-66]],[[191,2582]],[[191,2582],[-1,0]],[[190,2582]],[[190,2581],[55,-24]],[[244,2558],[-53,24]],[[252,2559],[-7,-1]],[[245,2558],[7,0]],[[3554,1378],[-46,6],[5,37],[-39,22],[-26,61],[-78,28],[-34,67],[-88,25],[-14,51],[-69,18],[-50,82],[-81,14],[-36,-17],[-148,154],[-78,-7],[-35,24],[-55,52],[-21,67],[-44,26],[-73,-11],[40,-60],[-36,-35],[7,-39],[-94,31],[-52,105],[-50,-11],[-66,25],[-335,459],[-90,-13],[-65,149],[11,82],[-19,46],[-123,47],[-182,416],[12,92],[-77,25]],[[2118,388],[-46,-27],[-25,15],[-38,-64],[109,-223],[-40,-25],[-4,-64]],[[3461,0],[144,194],[55,16],[6,1],[195,-95]],[[3553,1378],[1,0]],[[3554,1378],[-11,20],[27,9]],[[3570,1408],[-2,-1]],[[3864,0],[4,179],[-59,75],[43,33],[-19,41],[-80,69],[-56,108],[-63,7],[-22,32],[-64,-9],[23,90],[-56,73],[35,36],[45,128],[-33,184],[14,83],[44,68],[-24,55],[42,60],[-69,93],[46,38],[-21,10],[3,53],[78,47],[2,43],[87,33],[18,52],[108,24],[46,49],[37,-26],[72,6],[48,-95],[3,-1]],[[190,2582]],[[190,2582],[1,0]],[[191,2582],[-1,0]],[[245,2557],[0,1],[-1,0]],[[244,2558],[1,-1]],[[128,3043],[-15,31]],[[1086,3942],[-40,-58],[-1,-56],[-83,-78],[19,-34],[-47,1],[-17,-71],[-54,20],[-24,-14],[31,-213],[-98,-29],[6,-135],[-144,-117],[-85,-163],[-264,-360],[10,-77],[178,35],[111,-43],[227,171],[243,18],[69,-87],[70,-3],[-3,-86],[43,-71],[57,45],[-13,67],[98,18],[51,76],[32,-204],[112,-156],[46,-222],[46,-53],[143,-56],[67,-87],[100,-52],[129,19],[34,-147],[-23,-143],[58,3],[17,44],[97,-30],[-30,-164],[11,-99],[-96,-280],[-5,-378],[-22,-92],[155,-135],[-85,-140]],[[2212,326],[-64,-16]],[[2212,326],[87,8],[84,-76],[134,-48],[170,-210]],[[619,1601],[-19,0],[-15,58],[-14,135],[-21,52],[-40,57],[-180,337],[-10,52],[-8,16],[-15,12],[-15,17],[-2,30],[10,30],[14,14],[17,-5],[19,-20],[50,-33],[19,-23],[16,-25],[12,-27],[4,-29],[11,-45],[137,-362],[21,-109],[9,-132]],[[2056,1397],[-19,-50],[-160,133],[-47,69],[-99,339],[-12,101],[56,-5],[60,-41],[32,-30],[22,-28],[9,-18],[19,-26],[41,-25],[41,-31],[19,-46],[-12,-145],[12,-56],[34,-94],[4,-47]],[[2002,0],[-6,9],[-31,61],[-11,52],[2,131],[20,46],[49,46],[65,30],[67,-5],[21,-21],[10,-28],[13,-25],[26,-10],[100,0],[57,-96],[17,-72],[-45,-46],[103,-72],[-457,0]],[[2885,546],[50,-49],[48,24],[62,10],[65,-10],[55,-36],[54,-42],[112,-67],[43,-48],[8,-44],[-4,-65],[-19,-58],[-34,-25],[-40,-20],[-67,-94],[-27,-22],[-83,0],[-1,3],[-12,6],[-16,-9],[-304,0],[-45,69],[-13,36],[-6,32],[-29,39],[-6,34],[-4,9],[-6,6],[-7,10],[-3,18],[7,12],[15,-1],[14,2],[4,20],[-22,49],[-41,25],[-96,31],[-42,28],[-30,35],[-50,107],[31,4],[13,12],[-4,21],[-18,28],[114,144],[25,2],[23,-6],[55,-6],[22,-7],[27,-23],[14,-23],[12,-25],[17,-25],[139,-111]],[[0,4096],[4096,0],[0,-4096],[-499,0],[7,30],[29,28],[29,65],[12,71],[-20,47],[-29,-79],[-77,-147],[-3,-15],[-258,0],[27,30],[2,14],[-6,38],[4,13],[8,5],[25,8],[7,6],[49,75],[19,45],[2,57],[-11,100],[17,38],[3,24],[-20,21],[-17,-1],[-91,-18],[-68,14],[-27,32],[13,36],[53,24],[-30,15],[-32,6],[-68,0],[-31,9],[-78,77],[-118,82],[-59,56],[-25,62],[-25,37],[-110,44],[-24,47],[21,58],[51,31],[66,4],[62,-19],[-16,53],[24,48],[39,45],[33,47],[-41,65],[-19,19],[-22,-87],[-45,-82],[-66,-51],[-87,9],[-30,24],[-23,38],[-10,49],[5,56],[22,37],[67,33],[28,36],[-86,10],[-38,-47],[-19,-60],[-26,-30],[-131,1],[-36,31],[-2,76],[-35,-81],[-23,-30],[-41,-16],[0,201],[15,39],[157,232],[57,38],[70,6],[99,-8],[-27,35],[-9,36],[14,27],[43,7],[-15,27],[-19,22],[-22,13],[-25,4],[-17,-12],[0,-44],[-12,-10],[-149,-1],[-32,-8],[-21,-10],[-26,-3],[-52,3],[-9,-11],[-22,-56],[-20,-19],[-38,-4],[-41,14],[-35,25],[-23,28],[14,9],[23,22],[19,11],[-108,42],[-31,30],[39,36],[-43,22],[-15,37],[15,34],[43,11],[-6,23],[-12,21],[-35,-19],[-30,-21],[-22,-27],[-10,-39],[-14,17],[-35,29],[-15,16],[-21,-71],[-18,-24],[-30,-9],[-33,13],[-35,30],[-28,38],[-12,35],[-15,75],[-59,159],[-5,75],[-22,0],[-1,-117],[-7,-62],[-30,-13],[-17,37],[-45,198],[-20,0],[-21,-65],[-40,-50],[-55,-34],[-62,-21],[-81,7],[-86,30],[-73,16],[-40,-34],[-44,22],[-40,29],[-34,36],[-22,40],[4,-60],[20,-50],[56,-101],[60,-214],[173,-342],[7,-81],[-60,50],[-47,80],[-73,166],[-46,154],[-36,87],[-49,38],[-65,-39],[-21,-92],[12,-104],[53,-114],[16,-98],[14,-43],[37,-48],[11,-9],[14,-7],[9,-13],[29,-44],[0,-6],[-57,67],[-29,8],[-14,8],[-28,39],[-36,85],[-155,238],[-19,54],[-12,82],[-30,56],[-78,84],[-58,85],[-32,32],[-14,31],[-5,91],[-12,38],[53,-14],[158,14],[35,17],[30,38],[44,72],[8,-17],[7,-12],[5,-13],[0,-21],[22,0],[62,163],[15,29],[0,19],[-92,-24],[-122,-132],[-84,-55],[-82,15],[-8,98],[40,164],[51,53],[65,234],[44,53],[72,29],[30,70],[27,155],[-54,-44],[-28,-125],[-37,-44],[-48,8],[-26,60],[-10,78],[4,67],[112,202],[44,114],[-37,67],[-13,-59],[-24,-69],[-33,-67],[-39,-51],[-38,-71],[-8,-88],[15,-172],[-25,-135],[-63,-119],[-171,-231],[-110,-237],[-10,-7],[-16,-16],[-26,-15],[-37,-4],[-22,9],[-15,18],[-24,38],[-100,78],[0,308],[150,103],[108,23],[122,40],[-26,15],[-25,6],[-59,1],[-35,4],[-10,13],[-6,20],[-20,28],[-70,57],[-29,30],[-18,40],[-27,275],[-13,50],[-34,30],[-8,1],[0,396]]]}