{"objects":{"water":{"type":"GeometryCollection","geometries":[{"type":"Polygon","properties":{"source":"naturalearthdata.com","kind":"ocean","area":1576712559132672,"sort_rank":200,"min_zoom":0.0,"id":1},"arcs":[[0],[1]]},{"type":"LineString","properties":{"source":"naturalearthdata.com","kind":"ocean","sort_rank":205,"boundary":true,"min_zoom":0.0,"id":2202},"arcs":[2]}]},"buildings":{"type":"GeometryCollection","geometries":[]},"places":{"type":"GeometryCollection","geometries":[{"type":"Point","properties":{"name:ka":"\u10dc\u10d0\u10e3\u10e0\u10e3","name:ko":"\ub098\uc6b0\ub8e8","name:kn":"\u0ca8\u0ccc\u0cb0\u0cc1","name:km":"\u178e\u17bc\u179a\u17bc","name:tt":"\u041d\u0430\u0443\u0440\u0443","name:th":"\u0e1b\u0e23\u0e30\u0e40\u0e17\u0e28\u0e19\u0e32\u0e2d\u0e39\u0e23\u0e39","name:ti":"\u1293\u12a1\u1229","name:ks":"\u0646\u0627\u0631\u0648\u0648\u0657","name:to":"Naulu","name:or":"\u0b28\u0b3e\u0b09\u0b30\u0b41","name:ta":"\u0ba8\u0bcc\u0bb0\u0bc1","name:te":"\u0c28\u0c4c\u0c30\u0c41","name:cy":"Nawrw","name:dz":"\u0f53\u0f60\u0f74\u0f0b\u0f62\u0f74\u0f0b","source":"openstreetmap.org","name:ku":"Na\u00fbr\u00fb","name:hi":"\u0928\u093e\u0909\u0930\u0941","name:he":"\u05e0\u05d0\u05d5\u05e8\u05d5","kind":"country","name:ur":"\u0646\u0624\u0631\u0648","name:lg":"Nawuru","name:uk":"\u041d\u0430\u0443\u0440\u0443","name:hy":"\u0546\u0561\u0578\u0582\u0580\u0578\u0582","min_zoom":2.0,"name:li":"Naoeroe","name:lo":"\u0e99\u0eb2\u0ead\u0eb9\u0ea3\u0eb9","population":10175,"name:el":"\u039d\u03b1\u03bf\u03c5\u03c1\u03bf\u03cd","name:eo":"Nauro","name":"Nauru","name:is":"N\u00e1r\u00fa","name:ee":"Nauru nutome","name:ak":"Naworu","name:yo":"Or\u00edl\u1eb9\u0301\u00e8de Nauru","name:rn":"Nawuru","name:mr":"\u0928\u090a\u0930\u0941","name:ar":"\u0646\u0627\u0648\u0631\u0648","official_name":"Republic of Nauru;Republik Naoero","name:mg":"Naor\u00f2","name:am":"\u1293\u12a1\u1229","name:ru":"\u041d\u0430\u0443\u0440\u0443","name:ml":"\u0d28\u0d57\u0d31\u0d42","name:mn":"\u041d\u0430\u0443\u0440\u0443","id":424297917,"name:mk":"\u041d\u0430\u0443\u0440\u0443","name:af":"Naoeroe","name:zu":"i-Nauru","name:ff":"Nawuru","name:fy":"Naur\u00fb","name:vo":"Naure\u00e4n","name:zh":"\u7459\u9b6f","name:ja":"\u30ca\u30a6\u30eb","name:si":"\u0db1\u0dcf\u0dc0\u0dd4\u0dbb\u0dd4","name:fa":"\u0646\u0627\u0626\u0648\u0631\u0648","name:ne":"\u0928\u093e\u0909\u0930\u0942","name:bm":"Nawuru","name:bn":"\u09a8\u09be\u0989\u09b0\u09c1","name:bo":"\u0f53\u0f7d\u0f0b\u0f62\u0f74\u0f0d","name:be":"\u041d\u0430\u045e\u0440\u0443","name:bg":"\u041d\u0430\u0443\u0440\u0443","name:sr":"\u041d\u0430\u0443\u0440\u0443","name:ga":"N\u00e1r\u00fa","name:gd":"Nabhru","name:gu":"\u0aa8\u0acc\u0ab0\u0ac1"},"coordinates":[2773,3713]}]},"transit":{"type":"GeometryCollection","geometries":[]},"pois":{"type":"GeometryCollection","geometries":[]},"boundaries":{"type":"GeometryCollection","geometries":[]},"roads":{"type":"GeometryCollection","geometries":[]},"earth":{"type":"GeometryCollection","geometries":[{"type":"MultiPolygon","properties":{"sort_rank":10,"source":"naturalearthdata.com","min_zoom":0.0,"kind":"earth","area":20929936708},"arcs":[[[3]]]}]},"landuse":{"type":"GeometryCollection","geometries":[]}},"type":"Topology","transform":{"translate":[163.125,-5.6159858192],"scale":[0.001373291,0.0013710903]},"arcs":[[[0,4096],[4096,0],[0,-4096],[-4096,0],[0,4096]],[[2759,3731],[-5,-18],[7,-16],[16,-3],[9,9],[5,15],[-2,15],[-12,5],[-18,-7]],[[2777,3738],[-18,-7],[-5,-18],[7,-16],[16,-3],[9,9],[5,15],[-2,15],[-12,5]],[[2786,3703],[-9,-9],[-16,3],[-7,16],[5,18],[18,7],[12,-5],[2,-15],[-5,-15]]]}