{"objects":{"water":{"type":"GeometryCollection","geometries":[{"type":"MultiPolygon","properties":{"kind":"lake","name":"Lake Volta","reservoir":true,"area":8153168384,"sort_rank":200,"source":"naturalearthdata.com","min_zoom":0.0,"id":1193},"arcs":[[[12]]]},{"type":"Polygon","properties":{"source":"naturalearthdata.com","kind":"ocean","area":1576712559132672,"sort_rank":200,"min_zoom":0.0,"id":1},"arcs":[[13]]},{"type":"LineString","properties":{"source":"naturalearthdata.com","kind":"ocean","sort_rank":205,"boundary":true,"min_zoom":0.0,"id":56},"arcs":[14]},{"type":"MultiLineString","properties":{"source":"naturalearthdata.com","kind":"lake","reservoir":true,"sort_rank":367,"boundary":true,"min_zoom":0.0,"id":1193},"arcs":[[15],[16],[17],[18],[19]]}]},"buildings":{"type":"GeometryCollection","geometries":[]},"places":{"type":"GeometryCollection","geometries":[{"type":"Point","properties":{"admin_level":"4","kind":"region","name":"Greater Accra Region","kind_detail":"state","name:de":"Gro\u00df-Accra Region","source":"openstreetmap.org","min_zoom":4.0,"name:uk":"\u0412\u0435\u043b\u0438\u043a\u0430 \u0410\u043a\u043a\u0440\u0430","name:ru":"\u0411\u043e\u043b\u044c\u0448\u0430\u044f \u0410\u043a\u043a\u0440\u0430","id":2661484221},"coordinates":[290,569]},{"type":"Point","properties":{"source":"openstreetmap.org","kind":"region","name":"Pr\u00e9fecture de Golfe","kind_detail":"state","min_zoom":4.0,"id":3101380641},"coordinates":[3557,1489]},{"type":"Point","properties":{"name:az":"Lome","name:ps":"\u0644\u0648\u0645","name:ka":"\u10da\u10dd\u10db\u10d4","name:mr":"\u0932\u094b\u092e\u0947","name:ko":"\ub85c\uba54","name:ar":"\u0644\u0648\u0645\u064a","name:io":"Lome","country_capital":true,"name:th":"\u0e42\u0e25\u0e40\u0e21","name:am":"\u120e\u121c","name:ru":"\u041b\u043e\u043c\u0435","name:ta":"\u0bb2\u0bcb\u0bae\u0bc7","name:tg":"\u041b\u043e\u043c\u0435","name:mk":"\u041b\u043e\u043c\u0435","name:fa":"\u0644\u0648\u0645\u0647","kind_detail":"city","id":2195276463,"source":"openstreetmap.org","name:ky":"\u041b\u043e\u043c\u0435","name:fy":"Lomee","name:zh":"\u6d1b\u7f8e","name:so":"Lome","admin_level":"2","name:lv":"Lome","name:ja":"\u30ed\u30e1","name:lt":"Lom\u0117","name:he":"\u05dc\u05d5\u05de\u05d4","kind":"locality","name:ur":"\u0644\u0648\u0645\u06d2","name:bo":"\u0f63\u0f71\u0f7c\u0f0b\u0f58\u0f7a\u0f0d","name:uk":"\u041b\u043e\u043c\u0435","name:hy":"\u053c\u0578\u0574\u0565","name:sw":"Lome","name:be":"\u041b\u0430\u043c\u044d","name:ug":"\u0644\u0648\u0645\u06d0","name:bg":"\u041b\u043e\u043c\u0435","name:sr":"\u041b\u043e\u043c\u0435","population":837437,"name:el":"\u039b\u03bf\u03bc\u03ad","name:eo":"Lomeo","name":"Lom\u00e9","min_zoom":8.0,"name:la":"Lome","name:eu":"Lome"},"coordinates":[3541,1508]},{"type":"Point","properties":{"kind":"locality","name":"Ho","kind_detail":"town","source":"openstreetmap.org","min_zoom":8.0,"name:uk":"\u0425\u043e","name:ru":"\u0425\u043e","id":434449745,"population":83715},"coordinates":[1366,2921]},{"type":"Point","properties":{"kind":"locality","name":"Kpalim\u00e9","kind_detail":"city","source":"openstreetmap.org","min_zoom":8.0,"name:ru":"\u041a\u043f\u0430\u043b\u0438\u043c\u0435","id":1947278732,"population":75000},"coordinates":[1841,3794]},{"type":"Point","properties":{"source":"openstreetmap.org","kind":"locality","name":"Aflao","kind_detail":"town","population":66546,"min_zoom":8.0,"id":2918086961},"coordinates":[3470,1465]},{"type":"Point","properties":{"kind":"locality","name":"Ts\u00e9vi\u00e9","kind_detail":"city","source":"openstreetmap.org","min_zoom":8.0,"name:uk":"\u0426\u0435\u0432\u0456\u0454","name:ru":"\u0426\u0435\u0432\u0438\u0435","id":1919282943,"population":55000},"coordinates":[3526,2365]},{"type":"Point","properties":{"source":"openstreetmap.org","kind":"locality","name":"Keta","kind_detail":"town","population":22739,"min_zoom":8.0,"id":2921462706},"coordinates":[2887,895]},{"type":"Point","properties":{"source":"openstreetmap.org","kind":"locality","name":"Nots\u00e9","kind_detail":"town","population":22000,"min_zoom":8.0,"id":1947278734},"coordinates":[3409,3904]}]},"transit":{"type":"GeometryCollection","geometries":[]},"pois":{"type":"GeometryCollection","geometries":[{"type":"Point","properties":{"kind":"nature_reserve","name":"Keta Lagoon Ramsar Site","area":1196460000,"source":"openstreetmap.org","min_zoom":7.18,"tier":2,"id":-6270736,"osm_relation":true},"coordinates":[2375,955]},{"type":"Point","properties":{"source":"openstreetmap.org","kind":"military","name":"Budase Training Camp","area":64693700,"tier":3,"min_zoom":8.0,"id":457229797},"coordinates":[377,639]}]},"boundaries":{"type":"GeometryCollection","geometries":[{"type":"LineString","properties":{"name:right:yo":"Gh\u00e1n\u00e0","name:left:la":"Togum","name:right:qu":"Gana","alt_name:left:eo":"Togo;Togolo","name:right:yi":"\u05d2\u05d4\u05d0\u05e0\u05e2","name:right:hy":"\u0533\u0561\u0576\u0561","name:right:hr":"Gana","name:right:ht":"Gana","name:right:hu":"Gh\u00e1na","name:left:ss":"IThogo","name:left:sr":"\u0422\u043e\u0433\u043e","name:right:hi":"\u0918\u093e\u0928\u093e","name:left:lt":"Togas","name:left:vo":"Togo\u00e4n","name:left:sg":"Tog\u00f6","name:left:sa":"\u091f\u094b\u0917\u094b","name:right:he":"\u05d2\u05d0\u05e0\u05d4","name:right:la":"Gana","name:left:ce":"\u0422\u043e\u0433\u043e","name:right:am":"\u130b\u1293","source":"openstreetmap.org","name:right:ar":"\u063a\u0627\u0646\u0627","name:left:cv":"\u0422\u043e\u0433\u043e","name:right:az":"Qana","name:left:ka":"\u10e2\u10dd\u10d2\u10dd","name:right:zh-yue":"\u52a0\u7d0d","name:left:ko":"\ud1a0\uace0","name:left:kn":"\u0c9f\u0cca\u0c97\u0cca","name:right:is":"Gana","name:right:rw":"Gana","name:left:kk":"\u0422\u043e\u0433\u043e","name:right:ru":"\u0413\u0430\u043d\u0430","name:left:ru":"\u0422\u043e\u0433\u043e","name":"Togo - Ghana","name:right:bn":"\u0998\u09be\u09a8\u09be","name:right:bo":"\u0f40\u0f0b\u0f53\u0f0d","name:right:zu":"IGana","name:right:ba":"\u0413\u0430\u043d\u0430","name:right:lv":"Gana","name:left:zu":"ITogo","name:left:zh":"\u591a\u54e5","name:left:si":"\u0da7\u0ddd\u0d9c\u0ddd","name:right:zh":"\u52a0\u7eb3","official_name:left":"R\u00e9publique togolaise","name:right:wa":"Gana","name:left:nv":"T\u02bc\u00f3ogo","name:left:ur":"\u0679\u0648\u06af\u0648","name:right:wo":"Gana","name:right:ne":"\u0918\u093e\u0928\u093e","id:right":-192781,"name:left:uk":"\u0422\u043e\u0433\u043e","name:right:gv":"Yn Ghaney","name:right:fa":"\u063a\u0646\u0627","name:right:nv":"G\u00e1ana","name:right:fo":"Gana","name:right:be":"\u0413\u0430\u043d\u0430","name:left:ug":"\u062a\u0648\u06af\u0648","name:left:ar":"\u062a\u0648\u063a\u0648","name:left:eo":"Togolando","name:left:el":"\u03a4\u03cc\u03b3\u03ba\u03bf","kind_detail":"2","name:right:gu":"\u0a98\u0abe\u0aa8\u0abe","name:right:ps":"\u06ab\u0627\u0646\u0627","name:right:pt":"Gana","name:left:mk":"\u0422\u043e\u0433\u043e","name:left:ml":"\u0d1f\u0d4b\u0d17\u0d4b","name:left:th":"\u0e1b\u0e23\u0e30\u0e40\u0e17\u0e28\u0e42\u0e15\u0e42\u0e01","name:left:mr":"\u091f\u094b\u0917\u094b","name:right:ga":"G\u00e1na","name:right:ko":"\uac00\ub098","name:right:bs":"Gana","name:left:ta":"\u0b9f\u0bcb\u0b95\u0bcb","name:left:my":"\u1010\u102d\u102f\u1002\u102d\u102f\u1014\u102d\u102f\u1004\u103a\u1004\u1036","name:right:os":"\u0413\u0430\u043d\u00e6","name:right:or":"\u0b18\u0b3e\u0b28\u0b3e","name:right:pa":"\u0a18\u0a3e\u0a28\u0a3e","name:right:th":"\u0e1b\u0e23\u0e30\u0e40\u0e17\u0e28\u0e01\u0e32\u0e19\u0e32","name:left:dv":"\u0793\u07af\u078e\u07af","name:right:ug":"\u06af\u0627\u0646\u0627 \u062c\u06c7\u0645\u06be\u06c7\u0631\u0649\u064a\u0649\u062a\u0649","name:left:hi":"\u091f\u094b\u0917\u094b","name:right:uk":"\u0413\u0430\u043d\u0430","name:left:he":"\u05d8\u05d5\u05d2\u05d5","name:right:lt":"Gana","name:right:ur":"\u06af\u06be\u0627\u0646\u0627","min_zoom":8.0,"name:left:hy":"\u054f\u0578\u0563\u0578","name:right:gl":"Gana","name:right:uz":"Gana","name:right:bm":"Gana","name:left:wo":"Tog\u00f3o","name:left:ga":"T\u00f3ga","name:left:gd":"T\u00f2go","sort_rank":262,"name:right:gd":"G\u00e0na","name:left:gu":"\u0a9f\u0acb\u0a97\u0acb","osm_relation":true,"name:left:gv":"Yn Togo","name:left:tg":"\u0422\u043e\u0433\u043e","name:left":"Togo","name:right:mk":"\u0413\u0430\u043d\u0430","name:right:sr":"\u0413\u0430\u043d\u0430","name:right:mn":"\u0413\u0430\u043d\u0430","name:right:ml":"\u0d18\u0d3e\u0d28","name:right:vo":"Gan\u00e4n","name:left:os":"\u0422\u043e\u0433\u043e","name:left:or":"\u0b1f\u0b4b\u0b17\u0b4b","name:right:my":"\u1002\u102b\u1014\u102c\u1014\u102d\u102f\u1004\u103a\u1004\u1036","name:right:mr":"\u0918\u093e\u0928\u093e","name:left:oc":"T\u00f2go","name:right:na":"Gana","name:right:eo":"Ganao","name:right:mt":"Gana","name:right:ff":"Gana","kind":"country","name:left:fa":"\u062a\u0648\u06af\u0648","name:right:fy":"Gana","name:left:bg":"\u0422\u043e\u0433\u043e","name:right:ja":"\u30ac\u30fc\u30ca","name:right:sq":"Gana","name:right:ss":"IGana","name:left:ja":"\u30c8\u30fc\u30b4","name:right:sh":"Gana","name:left:qu":"Tugu","name:left:ba":"\u0422\u043e\u0433\u043e","name:right:sl":"Gana","name:right:so":"Gaana","name:left:be":"\u0422\u043e\u0433\u0430","name:right:sa":"\u0918\u093e\u0928\u093e","name:left:bn":"\u099f\u09cb\u0997\u09cb","name:left:bo":"\u0f4a\u0f7c\u0f0b\u0f42\u0f7c","name:right:sg":"Gan\u00e4a","name:right":"Ghana","name:left:ti":"\u1276\u130e","name:right:ce":"\u0413\u0430\u043d\u0430","id":-192782,"name:left:yo":"T\u00f3g\u00f2","name:left:yi":"\u05d8\u05d0\u05d2\u05d0","id:left":-192782,"name:right:cv":"\u0413\u0430\u043d\u0430","name:right:ka":"\u10d2\u10d0\u10dc\u10d0","name:right:bg":"\u0413\u0430\u043d\u0430","name:left:pa":"\u0a1f\u0a4b\u0a17\u0a4b","name:right:kg":"Gana","name:right:tt":"\u0413\u0430\u043d\u0430","name:right:kk":"\u0413\u0430\u043d\u0430","name:left:az":"Toqo","name:right:tr":"Gana","name:right:kn":"\u0c98\u0cbe\u0ca8\u0cbe","name:right:ku":"Gana","name:right:tk":"Gana","name:right:ky":"\u0413\u0430\u043d\u0430","name:right:te":"\u0c18\u0c28\u0c3e","name:left:am":"\u1276\u130e","name:right:tg":"\u0413\u0430\u043d\u0430","name:left:is":"T\u00f3g\u00f3","name:right:ta":"\u0b95\u0bbe\u0ba9\u0bbe","name:right:el":"\u0393\u03ba\u03ac\u03bd\u03b1","name:left:zh-yue":"\u591a\u54e5","name:right:dv":"\u078e\u07a7\u0782\u07a7"},"arcs":[0]},{"type":"LineString","properties":{"name:right:yo":"Gh\u00e1n\u00e0","name:left:la":"Togum","name:right:qu":"Gana","alt_name:left:eo":"Togo;Togolo","name:right:yi":"\u05d2\u05d4\u05d0\u05e0\u05e2","name:right:hy":"\u0533\u0561\u0576\u0561","name:right:hr":"Gana","name:right:ht":"Gana","name:right:hu":"Gh\u00e1na","name:left:ss":"IThogo","name:left:sr":"\u0422\u043e\u0433\u043e","name:right:hi":"\u0918\u093e\u0928\u093e","name:left:lt":"Togas","name:right:mr":"\u0918\u093e\u0928\u093e","name:left:sg":"Tog\u00f6","name:left:sa":"\u091f\u094b\u0917\u094b","name:right:he":"\u05d2\u05d0\u05e0\u05d4","name:left:hi":"\u091f\u094b\u0917\u094b","name:left:ce":"\u0422\u043e\u0433\u043e","name:right:am":"\u130b\u1293","source":"openstreetmap.org","name:right:ar":"\u063a\u0627\u0646\u0627","name:left:cv":"\u0422\u043e\u0433\u043e","name:right:az":"Qana","name:left:ka":"\u10e2\u10dd\u10d2\u10dd","name:left:yi":"\u05d8\u05d0\u05d2\u05d0","name:left:ko":"\ud1a0\uace0","name:left:kn":"\u0c9f\u0cca\u0c97\u0cca","name:right:is":"Gana","name:right:rw":"Gana","name:left:kk":"\u0422\u043e\u0433\u043e","name:right:ru":"\u0413\u0430\u043d\u0430","name:left:ru":"\u0422\u043e\u0433\u043e","name:right:bo":"\u0f40\u0f0b\u0f53\u0f0d","name:right:bn":"\u0998\u09be\u09a8\u09be","name":"Togo - Ghana","name:right:zu":"IGana","name:right:ba":"\u0413\u0430\u043d\u0430","min_zoom":8.0,"name:left:zu":"ITogo","name:left:zh":"\u591a\u54e5","name:left:si":"\u0da7\u0ddd\u0d9c\u0ddd","name:right:zh":"\u52a0\u7eb3","official_name:left":"R\u00e9publique togolaise","name:right:wa":"Gana","name:left:nv":"T\u02bc\u00f3ogo","name:left:ur":"\u0679\u0648\u06af\u0648","name:right:wo":"Gana","name:right:ne":"\u0918\u093e\u0928\u093e","id:right":-192781,"name:left:uk":"\u0422\u043e\u0433\u043e","name:right:ps":"\u06ab\u0627\u0646\u0627","name:right:fa":"\u063a\u0646\u0627","name:right:nv":"G\u00e1ana","name:right:fo":"Gana","name:right:be":"\u0413\u0430\u043d\u0430","name:left:ug":"\u062a\u0648\u06af\u0648","name:left:pa":"\u0a1f\u0a4b\u0a17\u0a4b","name:left:eo":"Togolando","name:left:el":"\u03a4\u03cc\u03b3\u03ba\u03bf","kind_detail":"2","name:right:gu":"\u0a98\u0abe\u0aa8\u0abe","name:right:gv":"Yn Ghaney","name:right:pt":"Gana","name:left:mk":"\u0422\u043e\u0433\u043e","name:left:ml":"\u0d1f\u0d4b\u0d17\u0d4b","name:left:th":"\u0e1b\u0e23\u0e30\u0e40\u0e17\u0e28\u0e42\u0e15\u0e42\u0e01","name:left:mr":"\u091f\u094b\u0917\u094b","name:right:ga":"G\u00e1na","name:right:tr":"Gana","name:right:bs":"Gana","name:left:ta":"\u0b9f\u0bcb\u0b95\u0bcb","name:left:my":"\u1010\u102d\u102f\u1002\u102d\u102f\u1014\u102d\u102f\u1004\u103a\u1004\u1036","name:right:kn":"\u0c98\u0cbe\u0ca8\u0cbe","name:right:os":"\u0413\u0430\u043d\u00e6","name:right:or":"\u0b18\u0b3e\u0b28\u0b3e","name:right:pa":"\u0a18\u0a3e\u0a28\u0a3e","name:right:ku":"Gana","name:left:dv":"\u0793\u07af\u078e\u07af","name:right:el":"\u0393\u03ba\u03ac\u03bd\u03b1","name:right:ug":"\u06af\u0627\u0646\u0627 \u062c\u06c7\u0645\u06be\u06c7\u0631\u0649\u064a\u0649\u062a\u0649","name:right:la":"Gana","name:right:uk":"\u0413\u0430\u043d\u0430","name:left:he":"\u05d8\u05d5\u05d2\u05d5","name:right:lt":"Gana","name:right:ur":"\u06af\u06be\u0627\u0646\u0627","name:right:lv":"Gana","name:left:hy":"\u054f\u0578\u0563\u0578","name:right:gl":"Gana","name:right:uz":"Gana","name:right:bm":"Gana","name:left:wo":"Tog\u00f3o","name:left:ga":"T\u00f3ga","name:left:gd":"T\u00f2go","sort_rank":262,"name:right:gd":"G\u00e0na","name:left:gu":"\u0a9f\u0acb\u0a97\u0acb","osm_relation":true,"name:left:gv":"Yn Togo","name:left:tg":"\u0422\u043e\u0433\u043e","name:left":"Togo","name:right:mk":"\u0413\u0430\u043d\u0430","name:left:ja":"\u30c8\u30fc\u30b4","name:right:mn":"\u0413\u0430\u043d\u0430","name:right:ml":"\u0d18\u0d3e\u0d28","name:right:vo":"Gan\u00e4n","name:left:os":"\u0422\u043e\u0433\u043e","name:left:or":"\u0b1f\u0b4b\u0b17\u0b4b","name:right:my":"\u1002\u102b\u1014\u102c\u1014\u102d\u102f\u1004\u103a\u1004\u1036","name:left:vo":"Togo\u00e4n","name:left:oc":"T\u00f2go","name:right:na":"Gana","name:right:eo":"Ganao","name:right:mt":"Gana","name:right:ff":"Gana","kind":"country","name:left:fa":"\u062a\u0648\u06af\u0648","name:right:fy":"Gana","name:right:sl":"Gana","name:right:ja":"\u30ac\u30fc\u30ca","name:right:sq":"Gana","name:right:ss":"IGana","name:right:sr":"\u0413\u0430\u043d\u0430","name:right:sh":"Gana","name:left:qu":"Tugu","name:left:ba":"\u0422\u043e\u0433\u043e","name:left:bg":"\u0422\u043e\u0433\u043e","name:right:so":"Gaana","name:left:be":"\u0422\u043e\u0433\u0430","name:right:sa":"\u0918\u093e\u0928\u093e","name:left:bn":"\u099f\u09cb\u0997\u09cb","name:left:bo":"\u0f4a\u0f7c\u0f0b\u0f42\u0f7c","name:right:sg":"Gan\u00e4a","name:right":"Ghana","name:left:ti":"\u1276\u130e","name:right:ce":"\u0413\u0430\u043d\u0430","id":-192782,"name:left:yo":"T\u00f3g\u00f2","name:right:zh-yue":"\u52a0\u7d0d","id:left":-192782,"name:right:cv":"\u0413\u0430\u043d\u0430","name:right:ka":"\u10d2\u10d0\u10dc\u10d0","name:left:ar":"\u062a\u0648\u063a\u0648","name:right:kg":"Gana","name:right:tt":"\u0413\u0430\u043d\u0430","name:right:kk":"\u0413\u0430\u043d\u0430","name:left:az":"Toqo","name:right:ko":"\uac00\ub098","name:right:bg":"\u0413\u0430\u043d\u0430","name:right:th":"\u0e1b\u0e23\u0e30\u0e40\u0e17\u0e28\u0e01\u0e32\u0e19\u0e32","name:right:tk":"Gana","name:right:ky":"\u0413\u0430\u043d\u0430","name:right:te":"\u0c18\u0c28\u0c3e","name:left:am":"\u1276\u130e","name:right:tg":"\u0413\u0430\u043d\u0430","name:left:is":"T\u00f3g\u00f3","name:right:ta":"\u0b95\u0bbe\u0ba9\u0bbe","maritime_boundary":true,"name:left:zh-yue":"\u591a\u54e5","name:right:dv":"\u078e\u07a7\u0782\u07a7"},"arcs":[1]},{"type":"LineString","properties":{"name:ka":"\u10e2\u10dd\u10d2\u10dd","name:ko":"\ud1a0\uace0","name:cv":"\u0422\u043e\u0433\u043e","name:kk":"\u0422\u043e\u0433\u043e","min_zoom":8.0,"name:ti":"\u1276\u130e","name:pa":"\u0a1f\u0a4b\u0a17\u0a4b","name:os":"\u0422\u043e\u0433\u043e","name:or":"\u0b1f\u0b4b\u0b17\u0b4b","name:ce":"\u0422\u043e\u0433\u043e","name:ta":"\u0b9f\u0bcb\u0b95\u0bcb","name:tg":"\u0422\u043e\u0433\u043e","sort_rank":262,"name:ss":"IThogo","name:ba":"\u0422\u043e\u0433\u043e","source":"openstreetmap.org","name:nv":"T\u02bc\u00f3ogo","name:kn":"\u0c9f\u0cca\u0c97\u0cca","name:dv":"\u0793\u07af\u078e\u07af","name:lt":"Togas","name:hi":"\u091f\u094b\u0917\u094b","name:he":"\u05d8\u05d5\u05d2\u05d5","name:eo":"Togolando","name:ur":"\u0679\u0648\u06af\u0648","name:la":"Togum","name:uk":"\u0422\u043e\u0433\u043e","name:hy":"\u054f\u0578\u0563\u0578","name:ug":"\u062a\u0648\u06af\u0648","name:qu":"Tugu","name:oc":"T\u00f2go","name:el":"\u03a4\u03cc\u03b3\u03ba\u03bf","kind":"country","name":"Togo","name:th":"\u0e1b\u0e23\u0e30\u0e40\u0e17\u0e28\u0e42\u0e15\u0e42\u0e01","name:yi":"\u05d8\u05d0\u05d2\u05d0","name:yo":"T\u00f3g\u00f2","alt_name:eo":"Togo;Togolo","name:az":"Toqo","name:mr":"\u091f\u094b\u0917\u094b","name:ar":"\u062a\u0648\u063a\u0648","name:my":"\u1010\u102d\u102f\u1002\u102d\u102f\u1014\u102d\u102f\u1004\u103a\u1004\u1036","official_name":"R\u00e9publique togolaise","name:is":"T\u00f3g\u00f3","name:am":"\u1276\u130e","name:ml":"\u0d1f\u0d4b\u0d17\u0d4b","name:ru":"\u0422\u043e\u0433\u043e","id":-192782,"name:mk":"\u0422\u043e\u0433\u043e","name:vo":"Togo\u00e4n","name:zu":"ITogo","kind_detail":"2","name:zh-yue":"\u591a\u54e5","name:zh":"\u591a\u54e5","name:ja":"\u30c8\u30fc\u30b4","name:si":"\u0da7\u0ddd\u0d9c\u0ddd","name:fa":"\u062a\u0648\u06af\u0648","name:sg":"Tog\u00f6","name:sa":"\u091f\u094b\u0917\u094b","name:bn":"\u099f\u09cb\u0997\u09cb","name:bo":"\u0f4a\u0f7c\u0f0b\u0f42\u0f7c","name:be":"\u0422\u043e\u0433\u0430","name:bg":"\u0422\u043e\u0433\u043e","name:wo":"Tog\u00f3o","name:sr":"\u0422\u043e\u0433\u043e","osm_relation":true,"name:ga":"T\u00f3ga","name:gd":"T\u00f2go","maritime_boundary":true,"name:gv":"Yn Togo","name:gu":"\u0a9f\u0acb\u0a97\u0acb"},"arcs":[2]},{"type":"LineString","properties":{"name:kg":"Gana","name:pt":"Gana","name:ps":"\u06ab\u0627\u0646\u0627","name:ka":"\u10d2\u10d0\u10dc\u10d0","name:ko":"\uac00\ub098","name:kn":"\u0c98\u0cbe\u0ca8\u0cbe","name:kk":"\u0413\u0430\u043d\u0430","name:tt":"\u0413\u0430\u043d\u0430","name:tk":"Gana","name:ku":"Gana","name:pa":"\u0a18\u0a3e\u0a28\u0a3e","name:os":"\u0413\u0430\u043d\u00e6","name:or":"\u0b18\u0b3e\u0b28\u0b3e","name:ce":"\u0413\u0430\u043d\u0430","name:ta":"\u0b95\u0bbe\u0ba9\u0bbe","name:tg":"\u0413\u0430\u043d\u0430","name:ky":"\u0413\u0430\u043d\u0430","name:te":"\u0c18\u0c28\u0c3e","source":"openstreetmap.org","sort_rank":262,"name:qu":"Gana","name:ba":"\u0413\u0430\u043d\u0430","name:tr":"Gana","name:nv":"G\u00e1ana","name:cv":"\u0413\u0430\u043d\u0430","name:dv":"\u078e\u07a7\u0782\u07a7","name:lv":"Gana","name:lt":"Gana","name:uz":"Gana","name:he":"\u05d2\u05d0\u05e0\u05d4","name:eo":"Ganao","name:ur":"\u06af\u06be\u0627\u0646\u0627","name:la":"Gana","name:uk":"\u0413\u0430\u043d\u0430","name:hy":"\u0533\u0561\u0576\u0561","name:ug":"\u06af\u0627\u0646\u0627 \u062c\u06c7\u0645\u06be\u06c7\u0631\u0649\u064a\u0649\u062a\u0649","name:hu":"Gh\u00e1na","name:hr":"Gana","name:el":"\u0393\u03ba\u03ac\u03bd\u03b1","kind":"country","name":"Ghana","min_zoom":8.0,"name:th":"\u0e1b\u0e23\u0e30\u0e40\u0e17\u0e28\u0e01\u0e32\u0e19\u0e32","name:yi":"\u05d2\u05d4\u05d0\u05e0\u05e2","name:yo":"Gh\u00e1n\u00e0","name:mt":"Gana","name:az":"Qana","name:mr":"\u0918\u093e\u0928\u093e","name:ar":"\u063a\u0627\u0646\u0627","name:my":"\u1002\u102b\u1014\u102c\u1014\u102d\u102f\u1004\u103a\u1004\u1036","name:is":"Gana","name:am":"\u130b\u1293","name:ru":"\u0413\u0430\u043d\u0430","name:ml":"\u0d18\u0d3e\u0d28","name:rw":"Gana","id":-192781,"name:mk":"\u0413\u0430\u043d\u0430","name:vo":"Gan\u00e4n","name:zu":"IGana","name:mn":"\u0413\u0430\u043d\u0430","name:ss":"IGana","name:ff":"Gana","kind_detail":"2","name:hi":"\u0918\u093e\u0928\u093e","name:fo":"Gana","name:zh-yue":"\u52a0\u7d0d","name:fy":"Gana","name:zh":"\u52a0\u7eb3","name:so":"Gaana","name:sl":"Gana","name:ja":"\u30ac\u30fc\u30ca","name:sh":"Gana","name:sg":"Gan\u00e4a","name:na":"Gana","name:ne":"\u0918\u093e\u0928\u093e","name:sa":"\u0918\u093e\u0928\u093e","name:bs":"Gana","name:bm":"Gana","name:bn":"\u0998\u09be\u09a8\u09be","name:bo":"\u0f40\u0f0b\u0f53\u0f0d","name:be":"\u0413\u0430\u043d\u0430","name:bg":"\u0413\u0430\u043d\u0430","name:wo":"Gana","name:sr":"\u0413\u0430\u043d\u0430","osm_relation":true,"name:sq":"Gana","name:ga":"G\u00e1na","name:gd":"G\u00e0na","name:ht":"Gana","name:wa":"Gana","name:gl":"Gana","name:fa":"\u063a\u0646\u0627","maritime_boundary":true,"name:gv":"Yn Ghaney","name:gu":"\u0a98\u0abe\u0aa8\u0abe"},"arcs":[3]},{"type":"LineString","properties":{"name:right:uk":"\u0412\u043e\u043b\u044c\u0442\u0430","name:right:ru":"\u0412\u043e\u043b\u044c\u0442\u0430","name:left:uk":"\u0421\u0445\u0456\u0434\u043d\u0430 \u043e\u0431\u043b\u0430\u0441\u0442\u044c","min_zoom":8.0,"name:left:ru":"\u0412\u043e\u0441\u0442\u043e\u0447\u043d\u044b\u0439 \u0440\u0435\u0433\u0438\u043e\u043d","id:right":-3328699,"id":-3498733,"osm_relation":true,"name:right":"Volta Region","kind":"region","name":"Eastern Region - Volta Region","sort_rank":256,"kind_detail":"4","name:left:de":"Ostregion","source":"openstreetmap.org","id:left":-3498733,"name:left":"Eastern Region"},"arcs":[4]},{"type":"LineString","properties":{"name:right:uk":"\u0412\u0435\u043b\u0438\u043a\u0430 \u0410\u043a\u043a\u0440\u0430","name:right:ru":"\u0411\u043e\u043b\u044c\u0448\u0430\u044f \u0410\u043a\u043a\u0440\u0430","name:left:uk":"\u0421\u0445\u0456\u0434\u043d\u0430 \u043e\u0431\u043b\u0430\u0441\u0442\u044c","min_zoom":8.0,"name:left:ru":"\u0412\u043e\u0441\u0442\u043e\u0447\u043d\u044b\u0439 \u0440\u0435\u0433\u0438\u043e\u043d","id:right":-1991849,"id":-3498733,"osm_relation":true,"name:right":"Greater Accra Region","kind":"region","name":"Eastern Region - Greater Accra Region","sort_rank":256,"kind_detail":"4","name:left:de":"Ostregion","source":"openstreetmap.org","name:right:de":"Gro\u00df-Accra Region","id:left":-3498733,"name:left":"Eastern Region"},"arcs":[5]},{"type":"LineString","properties":{"name:right:uk":"\u0412\u0435\u043b\u0438\u043a\u0430 \u0410\u043a\u043a\u0440\u0430","id:left":-3328699,"name:right:ru":"\u0411\u043e\u043b\u044c\u0448\u0430\u044f \u0410\u043a\u043a\u0440\u0430","name:left:uk":"\u0412\u043e\u043b\u044c\u0442\u0430","min_zoom":8.0,"name:left:ru":"\u0412\u043e\u043b\u044c\u0442\u0430","id:right":-1991849,"id":-3328699,"osm_relation":true,"name:right":"Greater Accra Region","kind":"region","name":"Volta Region - Greater Accra Region","sort_rank":256,"kind_detail":"4","source":"openstreetmap.org","name:right:de":"Gro\u00df-Accra Region","name:left":"Volta Region"},"arcs":[6]},{"type":"MultiLineString","properties":{"kind":"region","name":"Volta Region","sort_rank":256,"kind_detail":"4","source":"openstreetmap.org","min_zoom":8.0,"name:uk":"\u0412\u043e\u043b\u044c\u0442\u0430","name:ru":"\u0412\u043e\u043b\u044c\u0442\u0430","id":-3328699,"osm_relation":true},"arcs":[[7],[8]]},{"type":"LineString","properties":{"kind":"region","name":"Volta Region","sort_rank":256,"kind_detail":"4","min_zoom":8.0,"source":"openstreetmap.org","maritime_boundary":true,"name:uk":"\u0412\u043e\u043b\u044c\u0442\u0430","name:ru":"\u0412\u043e\u043b\u044c\u0442\u0430","id":-3328699,"osm_relation":true},"arcs":[9]},{"type":"LineString","properties":{"kind":"region","name":"Greater Accra Region","sort_rank":256,"kind_detail":"4","name:de":"Gro\u00df-Accra Region","source":"openstreetmap.org","min_zoom":8.0,"name:uk":"\u0412\u0435\u043b\u0438\u043a\u0430 \u0410\u043a\u043a\u0440\u0430","name:ru":"\u0411\u043e\u043b\u044c\u0448\u0430\u044f \u0410\u043a\u043a\u0440\u0430","id":-1991849,"osm_relation":true},"arcs":[10]},{"type":"LineString","properties":{"kind":"region","name":"Greater Accra Region","sort_rank":256,"kind_detail":"4","min_zoom":8.0,"name:de":"Gro\u00df-Accra Region","source":"openstreetmap.org","maritime_boundary":true,"name:uk":"\u0412\u0435\u043b\u0438\u043a\u0430 \u0410\u043a\u043a\u0440\u0430","name:ru":"\u0411\u043e\u043b\u044c\u0448\u0430\u044f \u0410\u043a\u043a\u0440\u0430","id":-1991849,"osm_relation":true},"arcs":[11]}]},"roads":{"type":"GeometryCollection","geometries":[{"type":"MultiLineString","properties":{"kind":"major_road","network":"Route Nationale du Togo","sort_rank":381,"landuse_kind":"urban_area","source":"openstreetmap.org","min_zoom":8.0,"kind_detail":"trunk","shield_text":"1","ref":"N1"},"arcs":[[20],[21]]},{"type":"LineString","properties":{"kind":"major_road","network":"tr\u00f4 tr\u00f4","sort_rank":381,"kind_detail":"trunk","source":"openstreetmap.org","min_zoom":8.0,"landuse_kind":"urban_area","shield_text":"347","id":-7560155,"osm_relation":true},"arcs":[22]},{"type":"LineString","properties":{"source":"openstreetmap.org","kind":"major_road","landuse_kind":"residential","sort_rank":380,"kind_detail":"primary","ref":"R28","min_zoom":8.0},"arcs":[23]},{"type":"LineString","properties":{"kind":"major_road","network":"GH:national","sort_rank":380,"kind_detail":"primary","source":"openstreetmap.org","min_zoom":8.0,"shield_text":"3","ref":"N3","id":470811196},"arcs":[24]},{"type":"LineString","properties":{"kind":"major_road","network":"GH:national","sort_rank":380,"kind_detail":"primary","source":"openstreetmap.org","min_zoom":8.0,"landuse_kind":"residential","shield_text":"5","ref":"N5","id":80249431},"arcs":[25]},{"type":"MultiLineString","properties":{"kind":"major_road","network":"GH:national","sort_rank":381,"kind_detail":"trunk","source":"openstreetmap.org","min_zoom":8.0,"shield_text":"1","ref":"N1"},"arcs":[[26],[27],[28],[29],[30],[31],[32],[33],[34],[35],[36],[37],[38],[39]]},{"type":"LineString","properties":{"kind":"major_road","network":"GH:national","sort_rank":380,"kind_detail":"primary","source":"openstreetmap.org","min_zoom":8.0,"landuse_kind":"residential","shield_text":"3","ref":"N3"},"arcs":[40]},{"type":"MultiLineString","properties":{"kind":"major_road","network":"GH:national","sort_rank":381,"kind_detail":"trunk","source":"openstreetmap.org","min_zoom":8.0,"landuse_kind":"residential","shield_text":"2","ref":"N2"},"arcs":[[41],[42]]},{"type":"MultiLineString","properties":{"kind":"major_road","network":"GH:regional","sort_rank":380,"kind_detail":"primary","source":"openstreetmap.org","min_zoom":8.0,"landuse_kind":"urban_area","shield_text":"10","ref":"R10;R12"},"arcs":[[43],[44],[45],[46]]},{"type":"MultiLineString","properties":{"source":"openstreetmap.org","kind":"major_road","landuse_kind":"urban_area","sort_rank":380,"kind_detail":"primary","ref":"58 TKH","min_zoom":8.0},"arcs":[[47],[48],[49],[50]]},{"type":"LineString","properties":{"kind":"major_road","sort_rank":380,"kind_detail":"primary","is_bicycle_related":true,"source":"openstreetmap.org","min_zoom":8.0,"landuse_kind":"urban_area","ref":"128 OTN"},"arcs":[51]},{"type":"LineString","properties":{"kind":"ferry","network":"GH:inter-regional","sort_rank":355,"source":"openstreetmap.org","min_zoom":8.0,"all_networks":["GH:inter-regional"],"shield_text":"7","id":510857030,"all_shield_texts":["7"]},"arcs":[52]},{"type":"MultiLineString","properties":{"kind":"major_road","network":"GH:regional","sort_rank":380,"kind_detail":"primary","source":"openstreetmap.org","min_zoom":8.0,"shield_text":"10","ref":"R10;R12"},"arcs":[[53],[54]]},{"type":"MultiLineString","properties":{"source":"openstreetmap.org","kind":"major_road","kind_detail":"trunk","sort_rank":381,"landuse_kind":"urban_area","ref":"N2","min_zoom":8.0},"arcs":[[55],[56],[57],[58],[59],[60],[61]]},{"type":"LineString","properties":{"kind":"major_road","network":"tr\u00f4 tr\u00f4","sort_rank":381,"kind_detail":"trunk","source":"openstreetmap.org","min_zoom":8.0,"landuse_kind":"urban_area","shield_text":"211","id":-7418634,"osm_relation":true},"arcs":[62]},{"type":"LineString","properties":{"kind":"major_road","network":"Trans-African Highways","sort_rank":381,"kind_detail":"trunk","source":"openstreetmap.org","min_zoom":8.0,"shield_text":null,"ref":"N1","id":457229800},"arcs":[63]},{"type":"LineString","properties":{"bus_network":"tr\u00f4 tr\u00f4","sort_rank":381,"landuse_kind":"urban_area","kind":"major_road","source":"openstreetmap.org","min_zoom":8.0,"bus_shield_text":"116","kind_detail":"trunk"},"arcs":[64]},{"type":"MultiLineString","properties":{"source":"openstreetmap.org","kind":"major_road","short_name":"Boulevard Circulaire","landuse_kind":"urban_area","sort_rank":380,"kind_detail":"primary","min_zoom":8.0},"arcs":[[65],[66]]},{"type":"LineString","properties":{"kind":"major_road","sort_rank":380,"landuse_kind":"residential","source":"openstreetmap.org","min_zoom":8.0,"kind_detail":"primary","ref":"N6","id":322779693},"arcs":[67]},{"type":"MultiLineString","properties":{"kind":"major_road","network":"Trans-African Highways","sort_rank":381,"landuse_kind":"urban_area","source":"openstreetmap.org","min_zoom":8.0,"kind_detail":"trunk","shield_text":null},"arcs":[[68],[69]]},{"type":"MultiLineString","properties":{"source":"openstreetmap.org","kind":"major_road","sort_rank":381,"kind_detail":"trunk","ref":"N1","min_zoom":8.0},"arcs":[[70],[71],[72]]},{"type":"LineString","properties":{"sort_rank":381,"source":"openstreetmap.org","min_zoom":8.0,"kind":"major_road","kind_detail":"trunk"},"arcs":[73]},{"type":"LineString","properties":{"kind":"major_road","network":"GH:regional","sort_rank":380,"kind_detail":"primary","source":"openstreetmap.org","min_zoom":8.0,"landuse_kind":"residential","shield_text":"40","ref":"R40","id":80243516},"arcs":[74]},{"type":"MultiLineString","properties":{"kind":"major_road","network":"Trans-African Highways","sort_rank":380,"kind_detail":"primary","is_bicycle_related":true,"source":"openstreetmap.org","min_zoom":8.0,"landuse_kind":"urban_area","shield_text":null,"ref":"N2"},"arcs":[[75],[76]]},{"type":"MultiLineString","properties":{"source":"openstreetmap.org","kind":"major_road","landuse_kind":"urban_area","sort_rank":380,"kind_detail":"primary","ref":"N5","min_zoom":8.0},"arcs":[[77],[78],[79],[80],[81],[82],[83],[84],[85]]},{"type":"LineString","properties":{"source":"openstreetmap.org","kind":"major_road","sort_rank":380,"kind_detail":"primary","ref":"R28","min_zoom":8.0,"id":518149633},"arcs":[86]},{"type":"MultiLineString","properties":{"source":"openstreetmap.org","kind":"major_road","landuse_kind":"residential","sort_rank":380,"kind_detail":"primary","ref":"N5","min_zoom":8.0},"arcs":[[87],[88],[89]]},{"type":"MultiLineString","properties":{"source":"openstreetmap.org","kind":"major_road","landuse_kind":"urban_area","sort_rank":380,"kind_detail":"primary","min_zoom":8.0},"arcs":[[90],[91],[92],[93],[94],[95],[96],[97],[98],[99],[100],[101],[102],[103],[104],[105],[106],[107],[108],[109],[110],[111],[112],[113],[114],[115],[116],[117],[118],[119],[120],[121],[122],[123],[124],[125],[126],[127],[128],[129],[130],[131],[132],[133],[134],[135],[136],[137],[138],[139],[140],[141],[142],[143],[144],[145],[146],[147],[148],[149],[150]]},{"type":"MultiLineString","properties":{"sort_rank":355,"source":"openstreetmap.org","min_zoom":8.0,"kind":"ferry"},"arcs":[[151],[152]]},{"type":"MultiLineString","properties":{"kind":"major_road","network":"Route Nationale du Togo","sort_rank":380,"kind_detail":"primary","source":"openstreetmap.org","min_zoom":8.0,"landuse_kind":"urban_area","shield_text":"1","ref":"N1"},"arcs":[[153],[154],[155],[156]]},{"type":"LineString","properties":{"kind":"major_road","network":"GH:regional","sort_rank":380,"kind_detail":"primary","source":"openstreetmap.org","min_zoom":8.0,"shield_text":"10","ref":"R10"},"arcs":[157]},{"type":"LineString","properties":{"source":"openstreetmap.org","kind":"major_road","landuse_kind":"urban_area","sort_rank":380,"kind_detail":"primary","ref":"122 OTN","min_zoom":8.0},"arcs":[158]},{"type":"MultiLineString","properties":{"source":"openstreetmap.org","kind":"major_road","sort_rank":381,"kind_detail":"trunk","ref":"N2","min_zoom":8.0},"arcs":[[159],[160]]},{"type":"MultiLineString","properties":{"kind":"major_road","network":"Route Nationale du Togo","sort_rank":380,"kind_detail":"primary","source":"openstreetmap.org","min_zoom":8.0,"shield_text":"1","osm_relation":true},"arcs":[[161],[162],[163],[164],[165],[166]]},{"type":"MultiLineString","properties":{"kind":"major_road","network":"GH:national","sort_rank":381,"landuse_kind":"urban_area","source":"openstreetmap.org","min_zoom":8.0,"kind_detail":"trunk","shield_text":"1","ref":"N1"},"arcs":[[167],[168],[169],[170],[171],[172],[173],[174],[175]]},{"type":"MultiLineString","properties":{"source":"openstreetmap.org","kind":"major_road","landuse_kind":"urban_area","sort_rank":380,"kind_detail":"primary","ref":"40KGK","min_zoom":8.0},"arcs":[[176],[177]]},{"type":"MultiLineString","properties":{"kind":"major_road","network":"Route Nationale du Togo","sort_rank":380,"kind_detail":"primary","source":"openstreetmap.org","min_zoom":8.0,"landuse_kind":"urban_area","shield_text":"1","osm_relation":true},"arcs":[[178],[179]]},{"type":"MultiLineString","properties":{"kind":"major_road","network":"Route Nationale du Togo","sort_rank":381,"kind_detail":"trunk","source":"openstreetmap.org","min_zoom":8.0,"shield_text":"1","ref":"N1"},"arcs":[[180],[181],[182]]},{"type":"LineString","properties":{"kind":"major_road","network":"Trans-African Highways","sort_rank":381,"kind_detail":"trunk","is_bicycle_related":true,"source":"openstreetmap.org","min_zoom":8.0,"landuse_kind":"urban_area","shield_text":null,"id":158801919},"arcs":[183]},{"type":"MultiLineString","properties":{"kind":"major_road","network":"tr\u00f4 tr\u00f4","sort_rank":381,"landuse_kind":"urban_area","source":"openstreetmap.org","min_zoom":8.0,"kind_detail":"trunk","shield_text":"116","osm_relation":true},"arcs":[[184],[185]]},{"type":"MultiLineString","properties":{"sort_rank":380,"kind_detail":"primary","min_zoom":8.0,"kind":"major_road","source":"openstreetmap.org"},"arcs":[[186],[187],[188],[189],[190],[191],[192],[193],[194]]},{"type":"LineString","properties":{"kind":"major_road","network":"GH:national","sort_rank":380,"kind_detail":"primary","source":"openstreetmap.org","min_zoom":8.0,"shield_text":"5","ref":"N5"},"arcs":[195]},{"type":"MultiLineString","properties":{"kind":"major_road","network":"GH:national","sort_rank":381,"kind_detail":"trunk","source":"openstreetmap.org","min_zoom":8.0,"landuse_kind":"residential","shield_text":"1","ref":"N1"},"arcs":[[196],[197],[198],[199]]},{"type":"LineString","properties":{"kind":"major_road","network":"tr\u00f4 tr\u00f4","sort_rank":381,"kind_detail":"trunk","source":"openstreetmap.org","min_zoom":8.0,"landuse_kind":"urban_area","shield_text":"8","id":-7437084,"osm_relation":true},"arcs":[200]},{"type":"LineString","properties":{"bus_network":"tr\u00f4 tr\u00f4","sort_rank":381,"landuse_kind":"urban_area","kind":"major_road","source":"openstreetmap.org","min_zoom":8.0,"bus_shield_text":"8","kind_detail":"trunk"},"arcs":[201]},{"type":"LineString","properties":{"kind":"major_road","network":"GH:regional","sort_rank":380,"kind_detail":"primary","source":"openstreetmap.org","min_zoom":8.0,"shield_text":"24","ref":"R24"},"arcs":[202]},{"type":"LineString","properties":{"kind":"major_road","network":"GH:regional","sort_rank":380,"kind_detail":"primary","source":"openstreetmap.org","min_zoom":8.0,"landuse_kind":"park","shield_text":"28","ref":"R28","id":85404656},"arcs":[203]},{"type":"MultiLineString","properties":{"source":"openstreetmap.org","kind":"major_road","kind_detail":"trunk","sort_rank":381,"landuse_kind":"urban_area","min_zoom":8.0},"arcs":[[204],[205],[206],[207],[208],[209],[210],[211],[212],[213],[214]]},{"type":"MultiLineString","properties":{"kind":"major_road","network":"GH:regional","sort_rank":380,"kind_detail":"primary","source":"openstreetmap.org","min_zoom":8.0,"landuse_kind":"residential","shield_text":"28","ref":"R28"},"arcs":[[215],[216],[217]]},{"type":"LineString","properties":{"kind":"major_road","sort_rank":380,"landuse_kind":"urban_area","is_bicycle_related":true,"source":"openstreetmap.org","min_zoom":8.0,"kind_detail":"primary","id":461403100},"arcs":[218]},{"type":"LineString","properties":{"source":"openstreetmap.org","kind":"ferry","sort_rank":355,"landuse_kind":"nature_reserve","min_zoom":8.0,"id":515698513},"arcs":[219]},{"type":"LineString","properties":{"kind":"major_road","sort_rank":381,"kind_detail":"trunk","is_bicycle_related":true,"source":"openstreetmap.org","min_zoom":8.0,"landuse_kind":"urban_area","ref":"N2","id":374187341},"arcs":[220]},{"type":"MultiLineString","properties":{"source":"openstreetmap.org","kind":"major_road","sort_rank":380,"kind_detail":"primary","ref":"N5","min_zoom":8.0},"arcs":[[221],[222],[223],[224],[225],[226]]},{"type":"LineString","properties":{"kind":"major_road","network":"GH:regional","sort_rank":380,"kind_detail":"primary","source":"openstreetmap.org","min_zoom":8.0,"landuse_kind":"residential","shield_text":"10","ref":"R10"},"arcs":[227]},{"type":"MultiLineString","properties":{"kind":"major_road","network":"Trans-African Highways","sort_rank":380,"kind_detail":"primary","source":"openstreetmap.org","min_zoom":8.0,"landuse_kind":"urban_area","shield_text":null},"arcs":[[228],[229],[230],[231]]},{"type":"LineString","properties":{"kind":"major_road","sort_rank":381,"landuse_kind":"urban_area","source":"openstreetmap.org","min_zoom":8.0,"kind_detail":"trunk","ref":"N1","id":520763262},"arcs":[232]},{"type":"MultiLineString","properties":{"kind":"major_road","network":"GH:regional","sort_rank":380,"kind_detail":"primary","source":"openstreetmap.org","min_zoom":8.0,"shield_text":"28","ref":"R28"},"arcs":[[233],[234],[235],[236],[237],[238]]},{"type":"MultiLineString","properties":{"kind":"major_road","network":"Trans-African Highways","sort_rank":381,"landuse_kind":"urban_area","is_bicycle_related":true,"source":"openstreetmap.org","min_zoom":8.0,"kind_detail":"trunk","shield_text":null,"ref":"N2"},"arcs":[[239],[240],[241]]},{"type":"MultiLineString","properties":{"kind":"major_road","network":"GH:national","sort_rank":381,"kind_detail":"trunk","source":"openstreetmap.org","min_zoom":8.0,"shield_text":"2","ref":"N2"},"arcs":[[242],[243],[244],[245],[246],[247],[248],[249],[250],[251]]},{"type":"MultiLineString","properties":{"kind":"major_road","network":"Route Nationale du Togo","sort_rank":380,"kind_detail":"primary","source":"openstreetmap.org","min_zoom":8.0,"landuse_kind":"residential","shield_text":"1","ref":"N1"},"arcs":[[252],[253],[254]]},{"type":"MultiLineString","properties":{"source":"openstreetmap.org","kind":"major_road","landuse_kind":"residential","sort_rank":380,"kind_detail":"primary","min_zoom":8.0},"arcs":[[255],[256],[257],[258]]},{"type":"MultiLineString","properties":{"kind":"major_road","network":"Route Nationale du Togo","sort_rank":380,"kind_detail":"primary","source":"openstreetmap.org","min_zoom":8.0,"shield_text":"1","ref":"N1"},"arcs":[[259],[260],[261],[262],[263],[264],[265]]},{"type":"LineString","properties":{"kind":"major_road","sort_rank":380,"landuse_kind":"residential","source":"openstreetmap.org","min_zoom":8.0,"kind_detail":"primary","ref":"R10","id":519820317},"arcs":[266]},{"type":"LineString","properties":{"kind":"major_road","network":"GH:regional","sort_rank":380,"kind_detail":"primary","source":"openstreetmap.org","min_zoom":8.0,"landuse_kind":"urban_area","shield_text":"28","ref":"R28","id":33821144},"arcs":[267]},{"type":"MultiLineString","properties":{"kind":"major_road","network":"Trans-African Highways","sort_rank":380,"kind_detail":"primary","source":"openstreetmap.org","min_zoom":8.0,"landuse_kind":"urban_area","shield_text":null,"ref":"N2"},"arcs":[[268],[269],[270],[271]]},{"type":"MultiLineString","properties":{"source":"openstreetmap.org","kind":"major_road","landuse_kind":"urban_area","sort_rank":380,"kind_detail":"primary","ref":"12POR","min_zoom":8.0},"arcs":[[272],[273]]},{"type":"LineString","properties":{"kind":"major_road","sort_rank":380,"landuse_kind":"urban_area","source":"openstreetmap.org","min_zoom":8.0,"kind_detail":"primary","ref":"18DLS","id":54570882},"arcs":[274]},{"type":"LineString","properties":{"kind":"major_road","network":"GH:regional","sort_rank":380,"kind_detail":"primary","source":"openstreetmap.org","min_zoom":8.0,"shield_text":"40","ref":"R40","id":80243516},"arcs":[275]},{"type":"MultiLineString","properties":{"kind":"major_road","network":"Trans-African Highways","sort_rank":381,"landuse_kind":"urban_area","source":"openstreetmap.org","min_zoom":8.0,"kind_detail":"trunk","shield_text":null,"ref":"N2"},"arcs":[[276],[277],[278],[279],[280],[281],[282],[283],[284],[285],[286],[287],[288],[289],[290],[291]]},{"type":"LineString","properties":{"kind":"major_road","sort_rank":380,"landuse_kind":"urban_area","source":"openstreetmap.org","min_zoom":8.0,"kind_detail":"primary","ref":"22AMT","id":373624715},"arcs":[292]},{"type":"MultiLineString","properties":{"source":"openstreetmap.org","kind":"major_road","landuse_kind":"urban_area","sort_rank":380,"kind_detail":"primary","ref":"N1","min_zoom":8.0},"arcs":[[293],[294],[295],[296],[297],[298],[299]]},{"type":"MultiLineString","properties":{"kind":"major_road","network":"Route Nationale du Togo","sort_rank":380,"kind_detail":"primary","source":"openstreetmap.org","min_zoom":8.0,"landuse_kind":"residential","shield_text":"1","osm_relation":true},"arcs":[[300],[301],[302]]},{"type":"MultiLineString","properties":{"source":"openstreetmap.org","kind":"major_road","kind_detail":"trunk","sort_rank":381,"landuse_kind":"urban_area","ref":"22AMT","min_zoom":8.0},"arcs":[[303],[304]]}]},"earth":{"type":"GeometryCollection","geometries":[{"type":"Polygon","properties":{"sort_rank":10,"source":"naturalearthdata.com","min_zoom":0.0,"kind":"earth","area":82062887348},"arcs":[[305]]}]},"landuse":{"type":"GeometryCollection","geometries":[{"type":"MultiPolygon","properties":{"source":"openstreetmap.org","kind":"park","tier":2,"area":74212907,"sort_rank":24,"min_zoom":8.0},"arcs":[[[306]],[[307]]]},{"type":"Polygon","properties":{"source":"openstreetmap.org","kind":"park","tier":2,"area":138958052,"sort_rank":24,"min_zoom":7.0},"arcs":[[308]]},{"type":"Polygon","properties":{"source":"openstreetmap.org","kind":"military","area":64693700,"tier":3,"id":457229797,"min_zoom":8.0,"sort_rank":45},"arcs":[[309]]},{"type":"MultiPolygon","properties":{"source":"naturalearthdata.com","kind":"urban_area","name":"","area":2819689282,"sort_rank":11,"min_zoom":4.0},"arcs":[[[310]],[[311]],[[312]],[[313]],[[314]],[[315]],[[316]],[[317]],[[318]],[[319]],[[320]],[[321]],[[322]],[[323]],[[324]],[[325]],[[326]],[[327]]]},{"type":"MultiPolygon","properties":{"source":"openstreetmap.org","kind":"residential","tier":2,"area":592379923,"sort_rank":20,"min_zoom":8.0},"arcs":[[[328]],[[329]],[[330]],[[331]],[[332]],[[333]],[[334]],[[335]],[[336]],[[337]],[[338]]]},{"type":"Polygon","properties":{"kind":"nature_reserve","area":1196460032,"sort_rank":23,"source":"openstreetmap.org","min_zoom":4.0,"tier":2,"id":-6270736,"osm_relation":true},"arcs":[[339]]}]}},"type":"Topology","transform":{"translate":[0.0,5.6159858192],"scale":[0.0003433228,0.000341231]},"arcs":[[[1743,4096],[-25,-42],[-117,-23],[-83,-60],[5,-81],[126,-65],[-22,-98],[-68,-33],[24,-35],[-35,-23],[2,-82],[21,-11],[26,25],[92,-77],[-40,-54],[45,-80],[79,-43],[29,23],[91,-50],[-25,-45],[24,-140],[-41,-97],[63,-99],[26,-9],[21,27],[53,-67],[107,9],[38,-29],[18,-62],[-102,-99],[40,-111],[52,-24],[16,-114],[96,-32],[19,-72],[136,-34],[76,-49],[91,-138],[322,7],[10,-113],[50,-120],[114,-96],[57,-106],[0,-51],[340,-2],[0,-166]],[[3494,1455],[215,-545]],[[3709,910],[243,54],[144,72]],[[3002,0],[151,109],[160,177],[117,226],[52,223],[46,66],[181,109]],[[836,1133],[21,172],[-67,115],[-103,14],[-176,-34],[-108,47],[-177,138],[83,214],[-24,9],[-32,101],[-73,38],[-9,54],[112,161],[79,204],[-77,228],[-67,87],[0,81],[121,213],[248,198],[28,88],[-32,211],[-58,176],[-63,448]],[[0,846],[149,112],[3,111],[103,9],[223,120],[256,24],[102,-89]],[[836,1133],[107,-35],[-19,-155],[28,-12],[243,107],[317,68],[319,-381],[-26,-108],[28,-104],[125,-49]],[[3482,1449],[12,172],[-340,2],[0,51],[-57,106],[-114,96],[-50,120],[-10,113],[-322,-7],[-91,138],[-76,49],[-136,34],[-19,72],[-96,32],[-16,114],[-52,24],[-40,111],[102,99],[-18,62],[-38,29],[-107,-9],[-53,67],[-21,-27],[-26,9],[-63,99],[41,97],[-24,140],[25,45],[-91,50],[-29,-23],[-79,43],[-45,80],[40,54],[-92,77],[-26,-25],[-21,11],[-2,82],[35,23],[-24,35],[68,33],[22,98],[-126,65],[-5,81],[83,60],[117,23],[25,42]],[[1958,464],[12,4]],[[1970,468],[25,-18],[344,7],[387,59],[127,134],[43,112],[1,142],[198,297],[161,137],[226,111]],[[1955,451],[3,13]],[[0,10],[62,22],[48,121],[91,73],[172,40],[145,85],[285,102],[469,52],[683,-54]],[[197,4096],[569,0],[1,-6],[21,-62],[18,-96],[10,-31],[2,-26],[-18,-21],[-20,6],[-19,25],[-24,51],[-85,-229],[-11,-122],[58,-53],[-17,-51],[7,-57],[30,-114],[-6,-51],[-13,-58],[-4,-52],[23,-38],[-19,-35],[-1,-28],[20,-17],[39,0],[36,20],[30,40],[34,81],[34,200],[28,59],[17,0],[-9,-67],[-21,-79],[-7,-67],[37,-28],[-22,-28],[-13,-30],[0,-31],[18,-31],[-23,-60],[-19,0],[1,30],[-1,30],[-42,-27],[-30,-48],[-29,-34],[-40,11],[0,-22],[-18,22],[-9,-27],[-12,-23],[-18,-18],[-21,-14],[2,30],[-2,10],[-40,-10],[-28,-13],[-20,-21],[-13,-36],[-20,37],[-45,45],[-13,40],[-61,-82],[20,-1],[13,-6],[12,-8],[16,-7],[-81,-138],[23,-32],[16,-14],[20,-14],[-25,-35],[-53,-28],[-19,-39],[-6,-43],[8,-28],[16,-27],[20,-42],[14,-95],[-18,-79],[-76,-128],[-18,-9],[-22,193],[22,-10],[-1,-22],[1,-10],[18,0],[-10,193],[-35,64],[-74,-35],[9,-34],[-1,-47],[-11,-47],[-19,-34],[-15,0],[-43,24],[-19,-4],[-8,-12],[-7,-35],[-73,-152],[-13,-9],[0,1110],[19,-60],[41,120],[21,0],[11,-27],[3,-24],[-4,-22],[-10,-24],[33,13],[29,0],[22,-13],[13,-23],[0,-18],[-22,-3],[-12,-6],[-9,-6],[-17,-7],[15,1],[45,-1],[-18,-39],[29,-11],[23,-2],[17,9],[12,25],[18,-21],[12,7],[8,7],[8,4],[14,3],[-22,-20],[-14,-23],[-6,-27],[0,-31],[20,0],[24,68],[63,28],[74,15],[58,30],[34,72],[-15,58],[-78,111],[-29,-38],[-7,-17],[-4,-26],[-19,20],[-4,-9],[1,-6],[-2,-4],[-14,-1],[0,40],[-46,-14],[-14,-6],[6,11],[6,19],[6,10],[-40,0],[0,21],[29,14],[11,24],[-3,30],[-15,31],[-26,1],[-21,-3],[-18,-6],[-16,-10],[21,-42],[-41,20],[-18,-54],[-5,-29],[1,-37],[-34,16],[-21,28],[-8,37],[3,39],[-17,0],[-83,-118],[-18,-50],[0,279],[9,-8],[32,-23],[0,80],[16,-14],[17,-10],[19,-9],[25,-7],[-20,41],[22,11],[42,1],[38,9],[2,29],[39,32],[48,16],[30,-16],[20,0],[16,73],[-7,27],[-29,19],[-38,6],[-33,-12],[-27,-24],[-21,-30],[-16,3],[-15,7],[-15,12],[-14,18],[-32,-18],[-34,-12],[-35,-8],[-39,-2],[0,1],[26,37],[13,31],[21,23],[49,8],[44,17],[6,43],[-19,101],[170,-72],[29,1],[7,-48],[14,14],[14,49],[6,56],[-12,-5],[-2,-2],[0,-4],[-5,-10],[-33,29],[-9,13],[-18,-21],[-104,61]],[[0,2],[101,34],[46,48],[33,53],[40,43],[114,33],[80,75],[44,30],[196,53],[55,40],[24,8],[71,4],[14,8],[15,17],[35,14],[70,16],[125,7],[1044,-76],[556,63],[118,41],[93,87],[25,55],[30,136],[4,61],[14,57],[72,144],[34,51],[148,159],[99,78],[132,71],[19,7],[2,1],[18,4],[23,2],[208,91],[394,121],[0,-1638],[-4096,0],[0,2]],[[0,2],[101,34],[46,48],[33,53],[40,43],[114,33],[80,75],[44,30],[196,53],[55,40],[24,8],[71,4],[14,8],[15,17],[35,14],[70,16],[125,7],[1044,-76],[556,63],[118,41],[93,87],[25,55],[30,136],[4,61],[14,57],[72,144],[34,51],[148,159],[99,78],[132,71],[19,7],[2,1],[18,4],[23,2],[208,91],[394,121]],[[766,4096],[1,-6],[21,-62],[18,-96],[10,-31],[2,-26],[-18,-21],[-20,6],[-19,25],[-24,51],[-85,-229],[-11,-122],[58,-53],[-17,-51],[7,-57],[30,-114],[-6,-51],[-13,-58],[-4,-52],[23,-38],[-19,-35],[-1,-28],[20,-17],[39,0],[36,20],[30,40],[34,81],[34,200],[28,59],[17,0],[-9,-67],[-21,-79],[-7,-67],[37,-28],[-22,-28],[-13,-30],[0,-31],[18,-31],[-23,-60],[-19,0],[1,30],[-1,30],[-42,-27],[-30,-48],[-29,-34],[-40,11],[0,-22],[-18,22],[-9,-27],[-12,-23],[-18,-18],[-21,-14],[2,30],[-2,10],[-40,-10],[-28,-13],[-20,-21],[-13,-36],[-20,37],[-45,45],[-13,40],[-61,-82],[20,-1],[13,-6],[12,-8],[16,-7],[-81,-138],[23,-32],[16,-14],[20,-14],[-25,-35],[-53,-28],[-19,-39],[-6,-43],[8,-28],[16,-27],[20,-42],[14,-95],[-18,-79],[-76,-128],[-18,-9],[-22,193],[22,-10],[-1,-22],[1,-10],[18,0],[-10,193],[-35,64],[-74,-35],[9,-34],[-1,-47],[-11,-47],[-19,-34],[-15,0],[-43,24],[-19,-4],[-8,-12],[-7,-35],[-73,-152],[-13,-9]],[[0,3583],[9,-8],[32,-23],[0,80],[16,-14],[17,-10],[19,-9],[25,-7],[-20,41],[22,11],[42,1],[38,9],[2,29],[39,32],[48,16],[30,-16],[20,0],[16,73],[-7,27],[-29,19],[-38,6],[-33,-12],[-27,-24],[-21,-30],[-16,3],[-15,7],[-15,12],[-14,18],[-32,-18],[-34,-12],[-35,-8],[-39,-2]],[[0,3775],[26,37],[13,31],[21,23],[49,8],[44,17],[6,43],[-19,101],[170,-72],[29,1],[7,-48],[14,14],[14,49],[6,56],[-12,-5],[-2,-2],[0,-4],[-5,-10],[-33,29],[-9,13],[-18,-21],[-104,61]],[[498,3172],[34,72],[-15,58],[-78,111],[-29,-38],[-7,-17],[-4,-26],[-19,20],[-4,-9],[1,-6],[-2,-4],[-14,-1],[0,40],[-46,-14],[-14,-6],[6,11],[6,19],[6,10],[-40,0],[0,21],[29,14],[11,24],[-3,30],[-15,31],[-26,1],[-21,-3],[-18,-6],[-16,-10],[21,-42],[-41,20],[-18,-54],[-5,-29],[1,-37],[-34,16],[-21,28],[-8,37],[3,39],[-17,0],[-83,-118],[-18,-50]],[[0,3250],[19,-60],[41,120],[21,0],[11,-27],[3,-24],[-4,-22],[-10,-24],[33,13],[29,0],[22,-13],[13,-23],[0,-18],[-22,-3],[-12,-6],[-9,-6],[-17,-7],[15,1],[45,-1],[-18,-39],[29,-11],[23,-2],[17,9],[12,25],[18,-21],[12,7],[8,7],[8,4],[14,3],[-22,-20],[-14,-23],[-6,-27],[0,-31],[20,0],[24,68],[63,28],[74,15],[58,30]],[[3531,1958],[-1,-6]],[[3531,1956],[0,2]],[[0,104],[9,-19]],[[1378,2903],[-2,2]],[[136,1583],[42,-2]],[[1277,2855],[88,71]],[[151,416],[506,235]],[[657,651],[4,2]],[[661,653],[184,79],[558,75]],[[1403,807],[118,19],[26,314],[47,10],[91,-50],[30,17]],[[1715,1117],[18,5]],[[1733,1122],[-18,-5]],[[1736,1124],[-2,-2]],[[1734,1122],[2,2]],[[1736,1124],[324,93],[72,83],[31,81],[157,80],[84,-24],[120,-129],[149,6],[157,-39],[155,55]],[[2403,1437],[-2,2]],[[3184,1416],[96,42]],[[3338,1427],[4,-4]],[[3342,1423],[38,15]],[[3343,1422],[-1,1]],[[0,1533],[74,52],[62,-2]],[[8,517],[-8,-38]],[[29,567],[-17,-38]],[[2942,1799],[55,-16]],[[3261,1514],[38,-43]],[[3299,1471],[1,-5]],[[3300,1466],[-1,5]],[[3501,1614],[-1,-50]],[[3500,1563],[26,-34]],[[3500,1564],[1,48]],[[3527,1529],[-27,34]],[[3541,1517],[-14,12]],[[748,4045],[-26,-16],[-157,67]],[[2896,1810],[46,-11]],[[2997,1783],[43,-12],[82,-134],[139,-123]],[[3672,1524],[-34,-13]],[[3638,1511],[34,13]],[[3719,1551],[-1,-1]],[[3718,1549],[2,2]],[[3723,1557],[-2,-3]],[[3721,1554],[3,3]],[[3748,1568],[0,1],[-1,0],[0,-1],[1,0]],[[0,104],[9,-18]],[[1403,807]],[[3,98],[-3,7]],[[3559,1527],[-36,-28],[6,-28]],[[3529,1471],[-6,27],[36,28]],[[1842,3781],[-1,13]],[[3606,1500],[-1,0],[1,0]],[[3777,1578],[0,1],[-1,0],[1,-1]],[[1532,1070],[5,29]],[[1639,1133],[-45,17]],[[1685,1100],[11,6]],[[1734,1122],[-1,0],[1,0]],[[0,1498],[18,35]],[[3777,1578],[86,29]],[[3714,1542],[0,1],[-1,1],[0,-1],[1,-1]],[[1862,3744],[-4,6]],[[3032,1878],[-17,20]],[[3385,1679],[-162,120]],[[3385,1679],[1,-1]],[[3386,1679],[-1,0]],[[3387,1678]],[[3387,1678]],[[3501,1612],[-114,66]],[[3387,1678],[0,1],[-1,-1],[1,0]],[[1491,1422],[9,16]],[[1841,3794],[7,83]],[[1858,3750],[-16,31]],[[2685,2422],[-44,72]],[[0,56],[8,6]],[[10,65]],[[3461,1762],[5,-34]],[[3475,1786],[-13,-23]],[[3467,1729],[-5,33]],[[3462,1763],[14,22]],[[3466,1693]],[[3466,1728],[1,0]],[[3467,1728],[0,1],[-1,-1]],[[3466,1728]],[[3466,1728],[3,-7]],[[3469,1721],[-2,7]],[[3469,1721],[16,-9]],[[3486,1713],[-6,2]],[[3480,1715],[-2,1]],[[3478,1716],[-8,5]],[[3510,1829],[-35,-43]],[[3476,1786],[35,43]],[[3478,1716]],[[3478,1716]],[[3480,1715]],[[3480,1715],[0,1]],[[3486,1712],[10,-6]],[[3496,1706],[-10,6]],[[3496,1706],[25,-12]],[[3522,1695],[-26,11]],[[3500,1704]],[[3504,1558]],[[3507,1554]],[[3508,1699],[0,1]],[[3509,1552]],[[3512,1830],[180,-127],[43,-78]],[[3735,1625],[-1,11],[-42,67],[-160,119],[-8,5],[-12,3]],[[3515,1546]],[[3518,1542]],[[3532,1669],[1,0]],[[3534,1665],[1,0]],[[3545,1644]],[[3545,1643]],[[3548,1638]],[[3548,1638]],[[3560,1526],[45,-26]],[[3560,1527],[-1,0],[0,-1],[1,0],[0,1]],[[3606,1500],[-46,27]],[[3576,1525]],[[3710,1683],[-1,0]],[[3710,1683]],[[3735,1625],[4,-20]],[[3739,1605],[-3,20]],[[3746,1576],[1,-7]],[[3461,1763],[0,-1],[1,0],[0,1],[-1,0]],[[3469,1721],[1,0],[-1,0]],[[3476,1786],[-1,0]],[[3475,1786]],[[3475,1786],[1,-1]],[[3476,1785],[0,1]],[[3485,1712],[1,0],[0,1],[-1,-1]],[[3496,1706]],[[3500,1563],[0,1],[0,-1]],[[3529,1471],[0,-1],[1,1],[-1,0]],[[3735,1625],[1,0],[-1,0]],[[1863,491],[95,-15]],[[1892,470],[36,-13]],[[3531,1956],[-12,-63]],[[3530,1952],[-11,-59],[7,-80]],[[3532,1967],[-1,-9]],[[3531,1958],[1,9]],[[1504,2877],[135,-23],[192,-100],[192,-25],[57,-60],[34,-104],[-16,-85],[45,-116],[185,-84],[115,-8],[197,-269],[256,-193]],[[3526,1529],[5,-22]],[[32,575],[-1,-1]],[[142,1471],[1,-1]],[[3389,4096],[27,-113]],[[3427,3880],[3,-28]],[[3431,3835],[28,-262],[-27,-75],[-32,-395],[48,-150],[2,-213],[70,-301]],[[3509,2231],[40,-147],[-17,-114]],[[3532,1967],[0,3]],[[3532,1970],[0,-4]],[[0,243],[30,35]],[[29,278],[-29,-35]],[[3080,1370],[104,46]],[[3280,1458],[18,8]],[[3302,1466],[-4,0]],[[3302,1466],[36,-39]],[[3380,1438],[83,35],[19,-15]],[[3493,1457],[-11,1]],[[3482,1458],[11,-1]],[[3739,1605],[4,-14]],[[3743,1591],[-4,14]],[[3519,1893],[13,74]],[[3532,1966],[-6,-153]],[[3435,3424],[0,1]],[[3532,1971],[0,-1]],[[3540,2023],[-2,-8]],[[4002,1646],[49,11],[45,37]],[[0,104],[4,-18]],[[7,84],[-7,21]],[[0,1801],[42,20],[48,76]],[[8,62],[2,2]],[[10,64],[1,1]],[[10,65],[0,-1]],[[270,1828],[-73,80]],[[890,2800],[-1,-1]],[[1469,1331],[12,-31]],[[1734,1122],[-1,0]],[[1952,4075],[35,21]],[[505,2343],[96,78],[102,168],[110,90],[77,121],[270,-7],[117,62]],[[45,297],[-16,-19]],[[30,278],[15,19]],[[45,297],[106,119]],[[2985,1330],[95,40]],[[0,104],[4,-18]],[[0,104],[10,-19]],[[1476,1380],[-7,-49]],[[1422,2598],[34,-126]],[[3,100],[0,-1]],[[12,66],[-1,5]],[[11,71],[-7,28]],[[10,85],[1,-14]],[[11,71],[0,-4]],[[3537,1660]],[[3579,1576]],[[3583,1563],[-3,-16]],[[3583,1563],[0,1],[0,-1]],[[3583,1563]],[[3934,1627]],[[1334,2940],[43,-36]],[[1370,2894],[38,-90]],[[1376,2904],[-6,-9]],[[3591,1564]],[[1958,476],[70,-11],[73,27]],[[3708,1535],[-1,-1]],[[1848,3877],[58,155],[46,43]],[[2641,2494],[-71,238],[37,66],[-207,404],[-17,113],[-64,136],[-89,102],[-69,46],[-67,9],[-15,47],[-180,36],[-37,53]],[[3015,1898],[-127,299],[-203,225]],[[3191,1820],[-113,14],[-46,44]],[[3191,1820],[5,-1]],[[3223,1799],[-27,20]],[[1377,2904],[127,-27]],[[3529,1471],[-36,-14]],[[3493,1457],[36,13]],[[3605,1500],[-76,-29]],[[3530,1470],[75,30]],[[3579,1576]],[[1234,3537],[-24,121],[18,29]],[[1237,3533],[-3,4]],[[1237,3533],[-12,-30],[57,-69],[119,-51],[-30,-149],[10,-58],[27,-14],[-19,-54]],[[1385,3095],[-51,-155]],[[1408,2804],[47,-184],[-33,-22]],[[1456,2472],[95,-238],[65,-482],[-140,-372],[64,11],[219,-45],[-26,-223]],[[3707,1534],[1,1]],[[3863,1607],[-86,-28]],[[3864,1607],[70,20]],[[12,529],[-4,-12]],[[31,574],[-2,-7]],[[143,1470],[-20,-175],[31,-127],[-1,-209],[-63,-278],[-58,-106]],[[270,1825],[-128,-354]],[[269,1826],[1,-1]],[[270,1825],[0,1]],[[271,1827],[-1,0]],[[270,1826],[1,1]],[[271,1827],[95,13],[25,36],[1,124],[77,58],[81,165],[-57,169],[106,203],[237,250],[71,117],[-37,40],[14,51],[32,57],[53,23],[6,72],[85,158],[58,219],[44,77],[61,23],[11,48],[109,91],[-4,126],[-91,141],[0,8]],[[270,1827],[-1,-1],[1,0],[0,1]],[[3425,3881],[-12,105]],[[3430,3837],[-5,44]],[[3522,2439],[-10,-208]],[[1370,2894],[0,1],[0,-1]],[[1370,2893],[0,1]],[[1377,2904]],[[1370,2894]],[[3413,3986],[-28,110]],[[3425,3881]],[[3435,3425],[24,149],[-29,263]],[[3435,3424],[-36,-317],[49,-154],[7,-185],[67,-329]],[[3512,2231],[37,-147],[-9,-61]],[[3532,1967]],[[3538,2015],[-6,-44]],[[1384,2897],[-4,3]],[[1389,3108],[-4,-13]],[[3713,1542],[-6,-6]],[[3708,1535],[6,7]],[[3718,1550],[-4,-6]],[[3714,1543],[4,6]],[[3743,1591],[3,-15]],[[3748,1569],[-5,22]],[[3580,1547],[-4,-22]],[[0,1024],[42,76],[-42,96]],[[3637,1511],[-31,-11]],[[3606,1500],[32,10]],[[3707,1536],[-35,-12]],[[3672,1524],[35,10]],[[3721,1554],[-2,-3]],[[3720,1551],[1,3]],[[3747,1569],[-24,-12]],[[3724,1557],[23,11]],[[3776,1579],[-28,-10]],[[3748,1568],[29,10]],[[3934,1627],[-71,-20]],[[3935,1627],[-1,0]],[[3934,1627],[1,0]],[[3935,1627],[67,19]],[[3638,1511],[-1,0],[1,0]],[[3863,1606],[1,1],[-1,0],[0,-1]],[[3580,1525],[2,23]],[[3523,1694],[2,108]],[[3525,1802],[1,23],[-7,68]],[[3526,1813],[-1,-11]],[[3525,1802],[-4,-96],[1,-12]],[[3522,1694],[1,-1],[0,1],[-1,1],[0,-1]],[[3522,1694],[61,-130]],[[3583,1564],[-60,130]],[[3416,3983],[11,-103]],[[3430,3852],[1,-17]],[[3520,2439],[-11,-208]],[[3580,1524],[0,1]],[[3582,1548],[1,15]],[[4096,1638],[-394,-121],[-208,-91],[-23,-2],[-18,-4],[-2,-1],[-19,-7],[-132,-71],[-99,-78],[-148,-159],[-34,-51],[-72,-144],[-14,-57],[-4,-61],[-30,-136],[-25,-55],[-93,-87],[-118,-41],[-556,-63],[-1044,76],[-125,-7],[-70,-16],[-35,-14],[-15,-17],[-14,-8],[-71,-4],[-24,-8],[-55,-40],[-196,-53],[-44,-30],[-80,-75],[-114,-33],[-40,-43],[-33,-53],[-46,-48],[-101,-34],[0,4094],[4096,0],[0,-2458]],[[115,785],[79,141],[33,0],[-24,-134],[-23,-22],[-65,15]],[[1320,2570],[81,40],[115,-69],[-24,-58],[-113,-36],[-56,38],[-3,85]],[[948,528],[4,110],[362,125],[220,8],[161,-33],[13,-237],[-140,9],[-106,169],[-143,32],[-201,-103],[-19,-48],[-151,-32]],[[235,685],[207,89],[77,-181],[-206,-89],[-78,181]],[[0,201],[11,-21],[85,-13],[-4,-53],[-39,-2],[-53,-59],[0,148]],[[0,403],[27,4],[20,-109],[-47,-79],[0,184]],[[2632,468],[-183,-20],[-93,122],[230,-43],[46,-59]],[[2899,655],[-13,-28],[-44,8],[-6,78],[70,150],[30,2],[-37,-210]],[[2551,863],[-40,12],[-25,118],[-33,33],[33,98],[75,-21],[26,-78],[-36,-162]],[[2262,426],[-177,-16],[-48,86],[-4,106],[185,-71],[44,-105]],[[2356,602],[-85,35],[-30,68],[35,58],[113,2],[-33,-163]],[[2324,1485],[-52,23],[-13,71],[130,0],[-13,-70],[-52,-24]],[[2647,1482],[-59,7],[-30,34],[25,89],[76,-55],[12,-35],[-24,-40]],[[2745,1677],[-85,29],[-13,102],[84,-30],[14,-101]],[[2991,1779],[-52,-4],[13,100],[84,30],[-13,-101],[-32,-25]],[[3201,1263],[-63,-67],[-101,23],[-3,110],[110,123],[72,-66],[24,-92],[-39,-31]],[[4096,1804],[0,-166],[-394,-121],[-208,-91],[-75,22],[-125,-32],[-35,104],[19,127],[-60,138],[24,66],[115,67],[132,20],[32,32],[73,-25],[121,-235],[60,-15],[263,47],[-71,74],[7,57],[36,5],[29,-70],[57,-4]],[[1580,3143],[-177,-287],[-82,-7],[21,109],[108,22],[1,49],[-67,31],[1,50],[53,-31],[142,64]],[[1904,3731],[-63,20],[-16,59],[110,16],[-31,-95]],[[3845,2067],[-95,33],[21,63],[57,16],[17,-112]],[[4096,2169],[0,-134],[-89,33],[32,98],[57,3]],[[3554,2328],[-65,0],[-1,66],[65,65],[65,0],[-21,-110],[-43,-21]],[[0,518],[20,-3],[-3,-86],[184,-18],[-14,-130],[-69,25],[-118,-37],[0,249]],[[0,571],[32,-4],[24,-24],[-56,-18],[0,46]],[[2519,509],[154,33],[119,108],[-85,-138],[-177,-21],[17,13],[-28,5]],[[2786,622],[54,88],[9,94],[37,56],[-14,-157],[-53,-91],[-24,-14],[-9,24]],[[2913,1251],[6,24],[78,35],[-25,42],[24,33],[89,-15],[-14,-49],[-63,-51],[17,7],[-27,-32],[25,24],[0,-13],[-55,-44],[-19,0],[51,75],[-51,-56],[-36,20]],[[0,1555],[70,55],[64,-13],[3,-34],[-44,4],[-12,-31],[-48,-7],[-33,-60],[0,86]],[[2596,2442],[7,40],[66,21],[63,-46],[-84,-61],[-52,46]],[[3450,2262],[43,35],[-30,90],[28,5],[23,50],[75,-31],[-19,-29],[12,-44],[-37,-41],[6,-67],[-97,1],[-4,31]],[[1269,2871],[141,149],[18,-39],[55,-18],[-38,-17],[27,-60],[15,14],[30,-22],[-39,-3],[-4,-24],[-20,27],[-2,-30],[-33,38],[3,-92],[-44,33],[-36,-39],[-20,92],[-36,-41],[-17,32]],[[1752,3872],[64,-38],[-4,35],[34,10],[42,-28],[-6,-21],[22,7],[14,-63],[-34,-27],[-36,23],[24,-48],[-47,-15],[-30,76],[18,22],[-61,67]],[[3334,3879],[10,26],[24,-9],[42,94],[25,-29],[-11,-31],[47,-36],[-9,-31],[-37,18],[8,-47],[-38,39],[-61,6]],[[1785,1025],[391,229],[841,19],[209,115],[82,73],[45,-67],[-201,-130],[-101,-120],[-154,-240],[-1,-142],[-43,-112],[-97,-112],[-68,-40],[-349,-41],[-381,7],[0,47],[-106,142],[39,126],[-28,107],[-78,139]]]}