{"objects":{"water":{"type":"GeometryCollection","geometries":[{"type":"Polygon","properties":{"source":"naturalearthdata.com","kind":"ocean","area":1576712559132672,"sort_rank":200,"min_zoom":0.0,"id":1},"arcs":[[59]]},{"type":"LineString","properties":{"source":"naturalearthdata.com","kind":"ocean","sort_rank":205,"boundary":true,"min_zoom":0.0,"id":19},"arcs":[60]}]},"buildings":{"type":"GeometryCollection","geometries":[]},"places":{"type":"GeometryCollection","geometries":[{"type":"Point","properties":{"source":"naturalearthdata.com","kind":"locality","name":"Dieppe","population":42461,"min_zoom":7.0,"id":3916},"coordinates":[3155,437]},{"type":"Point","properties":{"name:he":"\u05d3\u05d9\u05d9\u05e4","name:ja":"\u30c7\u30a3\u30a8\u30c3\u30d7","name:el":"\u0394\u03b9\u03ad\u03c0\u03c0\u03b7","name:ko":"\ub514\uc5d0\ud504","name:ar":"\u062f\u064a\u064a\u0628","name:kk":"\u0414\u044c\u0435\u043f","min_zoom":8.0,"name:uk":"\u0414\u044c\u0454\u043f","name:ru":"\u0414\u044c\u0435\u043f\u043f","name:ta":"\u0ba4\u0bbf\u0baf\u0baa\u0bcd","name:sr":"\u0414\u0458\u0435\u043f","population":31963,"name:fa":"\u062f\u06cc\u0626\u067e","kind":"locality","name:bg":"\u0414\u0438\u0435\u043f","name":"Dieppe","kind_detail":"town","id":26691824,"source":"openstreetmap.org","name:zh":"\u8fea\u8036\u666e"},"coordinates":[3143,395]}]},"transit":{"type":"GeometryCollection","geometries":[{"type":"MultiLineString","properties":{"kind":"train","name":"TER : Rouen - Dieppe","service":"regional","sort_rank":275,"colour":"#ff0000","source":"openstreetmap.org","min_zoom":6.0,"network":"TER Haute-Normandie","operator":"SNCF","ref":"TER","osm_relation":true,"colour_name":"red"},"arcs":[[10],[11],[12],[13],[14],[15],[16],[17],[18],[19],[20],[21],[22],[23],[24],[25],[26],[27],[28],[29],[30],[31],[32],[33],[34],[35],[36],[37],[38],[39],[40],[41],[42],[43],[44],[45],[46],[47],[48],[49]]},{"type":"MultiLineString","properties":{"kind":"train","network":"TER Picardie","service":"regional","sort_rank":275,"colour":"#8cbc00","name":"TER 21 : Le Tr\u00e9port \u2212 Abancourt \u2212 Beauvais","source":"openstreetmap.org","min_zoom":6.0,"operator":"SNCF","ref":"TER 21","osm_relation":true,"colour_name":"yellowgreen"},"arcs":[[50],[51],[52]]},{"type":"MultiLineString","properties":{"kind":"train","description":"Correspondance \u00e0 Abancourt pour Rouen","service":"regional","sort_rank":275,"colour":"#993200","source":"openstreetmap.org","min_zoom":6.0,"osm_relation":true,"network":"TER Haute-Normandie","operator":"SNCF","ref":"TER","colour_name":"brown","name":"TER : Le Tr\u00e9port - Abancourt - (Rouen)"},"arcs":[[53],[54],[55]]},{"type":"MultiLineString","properties":{"kind":"train","name":"TER 25 : Le Tr\u00e9port \u2212 Abbeville","service":"regional","sort_rank":275,"colour":"#8cbc00","source":"openstreetmap.org","min_zoom":6.0,"network":"TER Picardie","operator":"SNCF","ref":"TER 25","osm_relation":true,"colour_name":"yellowgreen"},"arcs":[[56],[57],[58]]}]},"pois":{"type":"GeometryCollection","geometries":[{"type":"Point","properties":{"kind":"protected_area","name":"Parc Naturel Marin des Estuaires Picards et de la Mer d'Opale","area":5768170000,"source":"openstreetmap.org","min_zoom":7.0,"tier":2,"id":-3534461,"osm_relation":true},"coordinates":[3726,2730]}]},"boundaries":{"type":"GeometryCollection","geometries":[{"type":"LineString","properties":{"name:kg":"Fwalansa","name:ty":"Far\u0101ni","name:ka":"\u10e1\u10d0\u10e4\u10e0\u10d0\u10dc\u10d2\u10d4\u10d7\u10d8","name:ko":"\ud504\ub791\uc2a4","name:cv":"\u0424\u0440\u0430\u043d\u0446\u0438","name:cu":"\u0424\u0440\u0430\u043d\u043a\u0457\ua657","name:kl":"Frankrigi","name:cs":"Francie","name:ki":"Ubaranja","name:co":"Francia","name:kv":"\u0424\u0440\u0430\u043d\u0446\u0438\u044f","name:ku":"Fransa","name:ti":"\u1348\u1228\u1295\u1233\u12ed","name:ks":"\u0641\u0631\u065b\u0627\u0646\u0633","name:to":"Falanis\u0113","name:tl":"Pransiya","name:ce":"\u0424\u0440\u0430\u043d\u0446\u0438","name:ta":"\u0baa\u0bbf\u0bb0\u0bbe\u0ba9\u0bcd\u0b9a\u0bc1","name:tg":"\u0424\u0430\u0440\u043e\u043d\u0441\u0430","name:ca":"Fran\u00e7a","name:te":"\u0c2b\u0c4d\u0c30\u0c3e\u0c28\u0c4d\u0c38\u0c4d","name:cy":"Ffrainc","name:qu":"Ransiya","name:da":"Frankrig","name:de":"Frankreich","name:dz":"\u0f55\u0f62\u0f71\u0f53\u0f66\u0f72\u0f0b","source":"openstreetmap.org","name:kn":"\u0cab\u0ccd\u0cb0\u0cbe\u0ca8\u0ccd\u0cb8\u0ccd","name:dv":"\u078a\u07a6\u0783\u07a6\u0782\u07b0\u0790\u07ad\u0790\u07a8\u0788\u07a8\u078d\u07a7\u078c\u07b0","name:km":"\u1794\u17b6\u179a\u17b6\u17c6\u1784","name:lv":"Francija","name:lt":"Pranc\u016bzija","name:uz":"Fransiya","name:kk":"\u0424\u0440\u0430\u043d\u0446\u0438\u044f","name:ur":"\u0641\u0631\u0627\u0646\u0633","name:lb":"Frankr\u00e4ich","name:la":"Francia","name:lg":"Bufalansa","name:uk":"\u0424\u0440\u0430\u043d\u0446\u0456\u044f","name:ug":"\u0641\u0631\u0627\u0646\u0633\u0649\u064a\u06d5","name:li":"Frankriek","name:ln":"Falansia","name:lo":"\u0e9b\u0eb0\u0ec0\u0e97\u0e94\u0e9d\u0eb0\u0ea5\u0eb1\u0ec8\u0e87","name:el":"\u0393\u03b1\u03bb\u03bb\u03af\u03b1","name:eo":"Francujo","name":"France","name:tk":"Fransi\u00fda","name:th":"\u0e1b\u0e23\u0e30\u0e40\u0e17\u0e28\u0e1d\u0e23\u0e31\u0e48\u0e07\u0e40\u0e28\u0e2a","name:eu":"Frantzia","name:et":"Prantsusmaa","name:es":"Francia","name:ay":"Phransiya","name:rm":"Frantscha","name:rn":"Francia","name:az":"Fransa","name:ie":"Francia","name:id":"Perancis","name:ii":"\ua0d4\ua1e9","name:as":"\u09ab\u09cd\u09f0\u09be\u09a8\u09cd\u09b8","name:ar":"\u0641\u0631\u0646\u0633\u0627","name:io":"Francia","name:ak":"Fr\u025bnkyeman","name:am":"\u1348\u1228\u1295\u1223\u12ed","name:it":"Francia","name:an":"Francia","name:ru":"\u0424\u0440\u0430\u043d\u0446\u0438\u044f","name:rw":"Ubufaransa","name:af":"Frankryk","name:zu":"IFulansi","kind_detail":"2","name:za":"Fazgoz","name:zh-yue":"\u6cd5\u570b","name:zh":"\u6cd5\u570b","name:so":"Faransiiska","name:sm":"Farani","name:sl":"Francija","name:sk":"Franc\u00fazsko","name:ja":"\u30d5\u30e9\u30f3\u30b9","name:si":"\u0db4\u0dca\u200d\u0dbb\u0d82\u0dc1\u0dba","name:sh":"Francuska","name:sg":"Far\u00e2nzi","name:se":"Frankriika","name:sc":"Frantza","name:br":"Bro-C'hall","name:bs":"Francuska","name:bn":"\u09ab\u09cd\u09b0\u09be\u09a8\u09cd\u09b8","name:bo":"\u0f67\u0fa5\u0f0b\u0f62\u0f53\u0f0b\u0f66\u0f72\u0f0d","name:bi":"Franis","name:sw":"Ufaransa","name:be":"\u0424\u0440\u0430\u043d\u0446\u044b\u044f","name:su":"Perancis","name:bg":"\u0424\u0440\u0430\u043d\u0446\u0438\u044f","name:ss":"IFulansi","name:ba":"\u0424\u0440\u0430\u043d\u0446\u0438\u044f","name:sq":"Franca","name:jv":"Prancis","name:sa":"\u092b\u094d\u0930\u093e\u0928\u094d\u0938\u0926\u0947\u0936\u0903","name:ia":"Francia","name:pt":"Fran\u00e7a","name:ps":"\u0641\u0631\u0627\u0646\u0633\u0647","name:oc":"Fran\u00e7a","min_zoom":8.0,"name:ro":"Fran\u021ba","name:zh-min-nan":"Hoat-kok","name:os":"\u0424\u0440\u0430\u043d\u0446","name:or":"\u0b2b\u0b4d\u0b30\u0b3e\u0b28\u0b4d\u0b38","name:pl":"Francja","name:st":"Fora","sort_rank":262,"name:sr":"\u0424\u0440\u0430\u043d\u0446\u0443\u0441\u043a\u0430","osm_relation":true,"name:pa":"\u0a2b\u0a4d\u0a30\u0a3e\u0a02\u0a38","name:tr":"Fransa","name:hi":"\u092b\u093c\u094d\u0930\u093e\u0928\u094d\u0938","name:sv":"Frankrike","name:he":"\u05e6\u05e8\u05e4\u05ea","name:ha":"Faransa","name:hy":"\u0556\u0580\u0561\u0576\u057d\u056b\u0561","name:ht":"Frans","name:hu":"Franciaorsz\u00e1g","name:hr":"Francuska","kind":"country","name:is":"Frakkland","name:yi":"\u05e4\u05e8\u05d0\u05e0\u05e7\u05e8\u05d9\u05d9\u05da","name:yo":"Fr\u00e1ns\u00ec","name:mt":"Franza","alt_name:eo":"Francio","name:ms":"Perancis","name:mr":"\u092b\u094d\u0930\u093e\u0928\u094d\u0938","name:my":"\u1015\u103c\u1004\u103a\u101e\u1005\u103a\u1014\u102d\u102f\u1004\u103a\u1004\u1036","official_name":"R\u00e9publique fran\u00e7aise","name:kw":"Pow Frynk","name:mg":"Frantsa","name:vi":"Ph\u00e1p","name:ml":"\u0d2b\u0d4d\u0d30\u0d3e\u0d7b\u0d38\u0d4d","name:mn":"\u0424\u0440\u0430\u043d\u0446","name:mi":"W\u012bw\u012b","id":-2202162,"name:mk":"\u0424\u0440\u0430\u043d\u0446\u0438\u0458\u0430","name:vo":"Frans\u00e4n","name:fa":"\u0641\u0631\u0627\u0646\u0633\u0647","name:ff":"Faransi","name:fi":"Ranska","name:ky":"\u0424\u0440\u0430\u043d\u0446\u0438\u044f","name:fo":"Frakland","name:fy":"Frankryk","name:nl":"Frankrijk","name:nn":"Frankrike","name:no":"Frankrike","name:na":"Prant","name:ne":"\u092b\u094d\u0930\u093e\u0928\u094d\u0938","name:wo":"Faraas","name:nv":"D\u00e1\u00e1ghahii Din\u00e9\u02bci\u02bc Bik\u00e9yah","name:ga":"An Fhrainc","name:gd":"An Fhraing","name:gn":"Hy\u00e3sia","name:gl":"Francia","maritime_boundary":true,"name:gv":"Yn Rank","name:gu":"\u0aab\u0acd\u0ab0\u0abe\u0aa8\u0acd\u0ab8","name:tt":"\u0424\u0440\u0430\u043d\u0446\u0438\u044f"},"arcs":[0]},{"type":"LineString","properties":{"name:kg":"Royaume-Uni","name:ty":"Parat\u0101ne","name:ka":"\u10d2\u10d0\u10d4\u10e0\u10d7\u10d8\u10d0\u10dc\u10d4\u10d1\u10e3\u10da\u10d8 \u10e1\u10d0\u10db\u10d4\u10e4\u10dd","name:ko":"\uc601\uad6d","name:cv":"\u0410\u0441\u043b\u0103 \u0411\u0440\u0438\u0442\u0430\u043d\u0438","name:cu":"\u0412\u0454\u043b\u0438\u043a\u0430 \u0411\u0440\u0438\u0442\u0430\u043d\u0457\ua657","name:kl":"Tuluit Nunaat","name:cs":"Spojen\u00e9 kr\u00e1lovstv\u00ed","name:tt":"\u0411\u04e9\u0435\u043a\u0431\u0440\u0438\u0442\u0430\u043d\u0438\u044f","name:co":"Regnu Unitu","name:kv":"\u042b\u0434\u0436\u044b\u0434 \u0411\u0440\u0438\u0442\u0430\u043d\u0438\u044f","name:ku":"Keyaniya Yekb\u00fby\u00ee","name:tl":"Nagkakaisang Kaharian","name:ce":"\u0419\u043e\u043a\u043a\u0445\u0430 \u0411\u0440\u0438\u0442\u0430\u043d\u0438","name:ta":"\u0b90\u0b95\u0bcd\u0b95\u0bbf\u0baf \u0b87\u0bb0\u0bbe\u0b9a\u0bcd\u0b9a\u0bbf\u0baf\u0bae\u0bcd","name:tg":"\u041f\u043e\u0434\u0448\u043e\u04b3\u0438\u0438 \u041c\u0443\u0442\u0442\u0430\u04b3\u0438\u0434\u0430","name:ca":"Regne Unit","name:te":"\u0c2f\u0c41\u0c28\u0c48\u0c1f\u0c46\u0c21\u0c4d \u0c15\u0c3f\u0c02\u0c17\u0c4d\u200c\u0c21\u0c2e\u0c4d","name:cy":"Deyrnas Unedig","name:qu":"Hukllachasqa Qhapaq Suyu","name:da":"Storbritannien","name:de":"Vereinigtes K\u00f6nigreich","name:dz":"\u0f61\u0f74\u0f0b\u0f53\u0f60\u0f72\u0f0b\u0f4a\u0f7a\u0f4a\u0f0b\u0f40\u0f72\u0f44\u0f0b\u0f4c\u0f58","source":"openstreetmap.org","name:kn":"\u0caf\u0cc1\u0ca8\u0cc8\u0c9f\u0cc6\u0ca1\u0ccd \u0c95\u0cbf\u0c82\u0c97\u0ccd\u200c\u0ca1\u0c82","name:dv":"\u0794\u07aa\u0782\u07a6\u0787\u07a8\u0793\u07ac\u0791\u07b0 \u0786\u07a8\u0782\u07b0\u078e\u07b0\u0791\u07a6\u0789\u07b0","name:km":"\u179a\u17b6\u1787\u17b6\u178e\u17b6\u1785\u1780\u17d2\u179a\u179a\u17bd\u1798","name:lv":"Apvienot\u0101 Karaliste","name:lt":"Jungtin\u0117 Karalyst\u0117","name:uz":"Birlashgan Qirollik","name:kk":"\u04b0\u043b\u044b\u0431\u0440\u0438\u0442\u0430\u043d\u0438\u044f","name:ur":"\u0628\u0631\u0637\u0627\u0646\u06cc\u06c1","name:lb":"Groussbritannien an Nordirland","name:la":"Britanniarum Regnum","name:uk":"\u0412\u0435\u043b\u0438\u043a\u0430 \u0411\u0440\u0438\u0442\u0430\u043d\u0456\u044f","name:ug":"\u0628\u06c8\u064a\u06c8\u0643 \u0628\u06d0\u0631\u0649\u062a\u0627\u0646\u0649\u064a\u06d5","name:li":"Vereineg Keuninkriek","name:ln":"Ing\u025bl\u025b\u0301t\u025bl\u025b","name:el":"\u0397\u03bd\u03c9\u03bc\u03ad\u03bd\u03bf \u0392\u03b1\u03c3\u03af\u03bb\u03b5\u03b9\u03bf","name:eo":"Britujo","name":"United Kingdom","name:th":"\u0e2a\u0e2b\u0e23\u0e32\u0e0a\u0e2d\u0e32\u0e13\u0e32\u0e08\u0e31\u0e01\u0e23","name:eu":"Erresuma Batua","name:et":"Suurbritannia","name:es":"Reino Unido","name:ia":"Regno Unite","name:rm":"Reginavel Un\u00ec","name:az":"B\u00f6y\u00fck Britaniya","name:ie":"Reyatu Unit","name:id":"Britania Raya","name:ig":"Obodo\u00e9z\u00e8 N\u00e0 Of\u00fa","name:ar":"\u0627\u0644\u0645\u0645\u0644\u0643\u0629 \u0627\u0644\u0645\u062a\u062d\u062f\u0629","name:io":"Unionita Rejio","name:is":"Bretland","name:am":"\u12e9\u1293\u12ed\u1275\u12f5 \u12aa\u1295\u130d\u12f0\u121d","name:it":"Regno Unito","name:an":"Reino Unito","name:ru":"\u0412\u0435\u043b\u0438\u043a\u043e\u0431\u0440\u0438\u0442\u0430\u043d\u0438\u044f","name:ab":"\u0411\u0440\u0438\u0442\u0430\u043d\u0438\u0430 \u0414\u0443","name:af":"Verenigde Koninkryk","name:zu":"Umbuso Ohlangeneyo","kind_detail":"2","name:za":"Yinghgoz","name:zh-yue":"\u82f1\u570b","name:zh":"\u82f1\u570b","name:so":"Midowga boqortooyada Britan","name:sl":"Zdru\u017eeno kraljestvo Velike Britanije in Severne Irske","name:sk":"Spojen\u00e9 kr\u00e1\u013eovstvo","name:ja":"\u30a4\u30ae\u30ea\u30b9","name:si":"\u0d91\u0d9a\u0dca\u0dc3\u0dad\u0dca \u0dbb\u0dcf\u0da2\u0db0\u0dcf\u0db1\u0dd2\u0dba","name:sh":"Ujedinjeno Kraljevstvo","name:se":"Ovttastuvvan gonagasriika","name:sc":"Rennu Auniadu","name:sa":"\u0938\u0902\u092f\u0941\u0915\u094d\u0924 \u0905\u0927\u093f\u0930\u093e\u091c\u094d\u092f","name:bs":"Ujedinjeno Kraljevstvo Velike Britanije i Sjeverne Irske","name:bn":"\u09af\u09c1\u0995\u09cd\u09a4\u09b0\u09be\u099c\u09cd\u09af","name:bo":"\u0f51\u0f56\u0fb1\u0f72\u0f53\u0f0b\u0f47\u0f72\u0f0b\u0f58\u0f49\u0f58\u0f0b\u0f60\u0f56\u0fb2\u0f7a\u0f63\u0f0d","name:br":"Rouantelezh-Unanet","name:sw":"Ufalme wa Muungano","name:be":"\u0412\u044f\u043b\u0456\u043a\u0430\u0431\u0440\u044b\u0442\u0430\u043d\u0456\u044f","name:su":"Britania","name:bg":"\u041e\u0431\u0435\u0434\u0438\u043d\u0435\u043d\u043e \u043a\u0440\u0430\u043b\u0441\u0442\u0432\u043e \u0412\u0435\u043b\u0438\u043a\u043e\u0431\u0440\u0438\u0442\u0430\u043d\u0438\u044f \u0438 \u0421\u0435\u0432\u0435\u0440\u043d\u0430 \u0418\u0440\u043b\u0430\u043d\u0434\u0438\u044f","name:ba":"\u0411\u04e9\u0439\u04e9\u043a \u0411\u0440\u0438\u0442\u0430\u043d\u0438\u044f","name:sq":"Mbret\u00ebria e Bashkuar e Britanis\u00eb dhe Irland\u00ebs s\u00eb Veriut","name:jv":"Britania Raya","name:bi":"Unaeted Kingdom","name:pt":"Reino Unido","name:ps":"\u0628\u0631\u064a\u062a\u0627\u0646\u064a\u0627","name:oc":"Reialme Unit","min_zoom":8.0,"name:ro":"Regatul Unit al Marii Britanii \u0219i al Irlandei de Nord","name:zh-min-nan":"Li\u00e2n-ha\u030dp \u00d4ng-kok","name:os":"\u0421\u0442\u044b\u0440 \u0411\u0440\u0438\u0442\u0430\u043d\u0438","name:or":"\u0b2f\u0b41\u0b15\u0b4d\u0b24\u0b30\u0b3e\u0b1c\u0b4d\u0b5f","name:pl":"Wielka Brytania","sort_rank":262,"name:sr":"\u0423\u0458\u0435\u0434\u0438\u045a\u0435\u043d\u043e \u041a\u0440\u0430\u0459\u0435\u0432\u0441\u0442\u0432\u043e","osm_relation":true,"name:pa":"\u0a38\u0a70\u0a2f\u0a41\u0a15\u0a24 \u0a2c\u0a3e\u0a26\u0a38\u0a3c\u0a3e\u0a39\u0a40","name:tr":"Birle\u015fik Krall\u0131k","name:hi":"\u092f\u0942\u0928\u093e\u0907\u091f\u0947\u0921 \u0915\u093f\u0902\u0917\u0921\u092e","name:sv":"Storbritannien","name:he":"\u05d4\u05de\u05de\u05dc\u05db\u05d4 \u05d4\u05de\u05d0\u05d5\u05d7\u05d3\u05ea","name:ha":"Birtaniya","name:hy":"\u0544\u056b\u0561\u0581\u0575\u0561\u056c \u0539\u0561\u0563\u0561\u057e\u0578\u0580\u0578\u0582\u0569\u0575\u0578\u0582\u0576","name:ht":"Way\u00f2m Ini","name:hu":"Egyes\u00fclt Kir\u00e1lys\u00e1g","name:hr":"Ujedinjeno Kraljevstvo","kind":"country","name:yi":"\u05e4\u05d0\u05e8\u05d0\u05d9\u05d9\u05e0\u05d9\u05d2\u05d8\u05e2 \u05e7\u05e2\u05e0\u05d9\u05d2\u05e8\u05d9\u05d9\u05da","name:yo":"Il\u1eb9\u0300\u1ecdba A\u1e63\u1ecd\u0300kan","name:mt":"Renju Unit","alt_name:eo":"Britio","name:mr":"\u092f\u0941\u0928\u093e\u092f\u091f\u0947\u0921 \u0915\u093f\u0902\u0917\u094d\u0921\u092e","name:my":"\u101a\u1030\u1014\u102d\u102f\u1000\u103a\u1010\u1000\u103a\u1000\u1004\u103a\u1038\u1012\u1019\u103a\u1038\u1014\u102d\u102f\u1004\u103a\u1004\u1036","name:kw":"Ruwvaneth Unys","name:mg":"Fanjakana Mitambatra","name:vi":"V\u01b0\u01a1ng qu\u1ed1c Anh","name:ml":"\u0d2f\u0d41\u0d23\u0d48\u0d31\u0d4d\u0d31\u0d21\u0d4d \u0d15\u0d3f\u0d19\u0d4d\u0d21\u0d02","name:mn":"\u0418\u0445 \u0411\u0440\u0438\u0442\u0430\u043d\u0438","name:mi":"K\u012bngitanga Kotahi","id":-62149,"name:mk":"\u041e\u0431\u0435\u0434\u0438\u043d\u0435\u0442\u043e \u041a\u0440\u0430\u043b\u0441\u0442\u0432\u043e","name:vo":"Reg\u00e4n Pebal\u00f6l","name:fa":"\u0628\u0631\u06cc\u062a\u0627\u0646\u06cc\u0627","name:rw":"Ubwongereza","short_name":"UK","name:fi":"Yhdistynyt kuningaskunta","name:ky":"\u0423\u043b\u0443\u0443 \u0411\u0440\u0438\u0442\u0430\u043d\u0438\u044f \u0436\u0430\u043d\u0430 \u0422\u04af\u043d\u0434\u04af\u043a \u0418\u0440\u043b\u0430\u043d\u0434\u0438\u044f","name:fo":"St\u00f3ra Bretland","name:fr":"Royaume-Uni","name:fy":"Feriene Keninkryk","name:nl":"Verenigd Koninkrijk","name:nn":"Storbritannia","name:no":"Storbritannia","name:na":"Ingerand","name:ne":"\u0938\u0902\u092f\u0941\u0915\u094d\u0924 \u0905\u0927\u093f\u0930\u093e\u091c\u094d\u092f","name:wo":"Nguur-Yu-Bennoo","name:nv":"T\u00f3ta\u02bc Din\u00e9\u02bci\u02bc Bik\u00e9yah","name:ga":"An R\u00edocht Aontaithe","name:gd":"An R\u00ecoghachd Aonaichte","name:gn":"Tavet\u00e3 Joaju","name:gl":"Reino Unido","maritime_boundary":true,"name:gv":"Reeriaght Unnaneysit","name:gu":"\u0aaf\u0ac1\u0aa8\u0abe\u0a87\u0a9f\u0ac7\u0aa1 \u0a95\u0abf\u0a82\u0a97\u0aa1\u0aae"},"arcs":[1]},{"type":"LineString","properties":{"old_name:left:ru":"\u041d\u043e\u0440 \u2014 \u041f\u0430-\u0434\u0435-\u041a\u0430\u043b\u0435 \u0438 \u041f\u0438\u043a\u0430\u0440\u0434\u0438\u044f","name:right:nl":"Normandi\u00eb","name:right:ja":"\u30ce\u30eb\u30de\u30f3\u30c7\u30a3\u30fc","name:right:la":"Normannia","name:right:uk":"\u041d\u043e\u0440\u043c\u0430\u043d\u0434\u0456\u044f","old_name:left:pt":"Norte-Passo-de-Calais e Picardia","id:right":-3793170,"min_zoom":8.0,"name:right:eo":"Normandio","old_name:left:ro":"Nord - Pasul Calais \u0219i Picardia","name:right:he":"\u05e0\u05d5\u05e8\u05de\u05e0\u05d3\u05d9","name:right":"Normandie","old_name:left:it":"Nord-Passo di Calais e Piccardia","old_name:left:ca":"Nord-Pas-de-Calais i Picardia","name:right:ca":"Normandia","kind_detail":"4","name:left:ca":"Alts de Fran\u00e7a","old_name:left:eo":"Nordo-Kaleza Markolo kaj Pikardio","id":-4217435,"source":"openstreetmap.org","old_name:left:es":"Norte-Paso de Calais y Picard\u00eda","old_name:left:eu":"Nord-Pas-de-Calais eta Pikardia","name:right:ar":"\u0646\u0648\u0631\u0645\u0627\u0646\u062f\u064a","id:left":-4217435,"old_name:left:ar":"\u0646\u0648\u0631-\u0628\u0627-\u062f\u0648-\u0643\u0627\u0644\u064a\u0647-\u0628\u064a\u0643\u0627\u0631\u062f\u064a","old_name:left:oc":"N\u00f2rd-Pas de Calais e Picardia","name:right:pt":"Normandia","name:left:ar":"\u0634\u0645\u0627\u0644 \u0641\u0631\u0646\u0633\u0627","name:right:eu":"Normandia","name:right:et":"Normandia","name:right:it":"Normandia","name:right:oc":"Normandia","name:right:ru":"\u041d\u043e\u0440\u043c\u0430\u043d\u0434\u0438\u044f","name:right:es":"Normand\u00eda","name:right:br":"Normandi","name:right:ro":"Normandia","name:right:sk":"Normandia","old_name:left:uk":"\u041d\u043e\u0440-\u041f\u0430-\u0434\u0435-\u041a\u0430\u043b\u0435 i \u041f\u0456\u043a\u0430\u0440\u0434\u0456\u044f","name:right:pl":"Normandia","name:right:en":"Normandy","osm_relation":true,"old_name:left:be":"\u041d\u043e\u0440 \u2014 \u041f\u0430-\u0434\u044d-\u041a\u0430\u043b\u0435 i \u041f\u0456\u043a\u0430\u0440\u0434\u044b\u044f","kind":"region","name":"Hauts-de-France - Normandie","old_name:left:fr":"Nord-Pas-de-Calais-Picardie","name:left:de":"Nordfrankreich","name:right:be":"\u041d\u0430\u0440\u043c\u0430\u043d\u0434\u044b\u044f","sort_rank":256,"old_name:left:br":"Nord-Pas-de-Calais ha Pikardi","old_name:left:en":"Nord-Pas-de-Calais and Picardy","name:left":"Hauts-de-France","old_name:left":"Nord-Pas-de-Calais-Picardie"},"arcs":[2]},{"type":"MultiLineString","properties":{"old_name:fr":"Nord-Pas-de-Calais-Picardie","old_name:it":"Nord-Passo di Calais e Piccardia","old_name:ar":"\u0646\u0648\u0631-\u0628\u0627-\u062f\u0648-\u0643\u0627\u0644\u064a\u0647-\u0628\u064a\u0643\u0627\u0631\u062f\u064a","old_name:es":"Norte-Paso de Calais y Picard\u00eda","name:ar":"\u0634\u0645\u0627\u0644 \u0641\u0631\u0646\u0633\u0627","old_name:eu":"Nord-Pas-de-Calais eta Pikardia","min_zoom":8.0,"old_name:eo":"Nordo-Kaleza Markolo kaj Pikardio","old_name:en":"Nord-Pas-de-Calais and Picardy","old_name":"Nord-Pas-de-Calais-Picardie","id":-4217435,"name:ca":"Alts de Fran\u00e7a","old_name:uk":"\u041d\u043e\u0440-\u041f\u0430-\u0434\u0435-\u041a\u0430\u043b\u0435 i \u041f\u0456\u043a\u0430\u0440\u0434\u0456\u044f","kind":"region","name":"Hauts-de-France","old_name:oc":"N\u00f2rd-Pas de Calais e Picardia","source":"openstreetmap.org","sort_rank":256,"kind_detail":"4","old_name:ru":"\u041d\u043e\u0440 \u2014 \u041f\u0430-\u0434\u0435-\u041a\u0430\u043b\u0435 \u0438 \u041f\u0438\u043a\u0430\u0440\u0434\u0438\u044f","name:de":"Nordfrankreich","old_name:pt":"Norte-Passo-de-Calais e Picardia","old_name:ro":"Nord - Pasul Calais \u0219i Picardia","old_name:ca":"Nord-Pas-de-Calais i Picardia","osm_relation":true,"old_name:be":"\u041d\u043e\u0440 \u2014 \u041f\u0430-\u0434\u044d-\u041a\u0430\u043b\u0435 i \u041f\u0456\u043a\u0430\u0440\u0434\u044b\u044f","old_name:br":"Nord-Pas-de-Calais ha Pikardi"},"arcs":[[3],[4]]},{"type":"MultiLineString","properties":{"old_name:fr":"Nord-Pas-de-Calais-Picardie","old_name:ru":"\u041d\u043e\u0440 \u2014 \u041f\u0430-\u0434\u0435-\u041a\u0430\u043b\u0435 \u0438 \u041f\u0438\u043a\u0430\u0440\u0434\u0438\u044f","old_name:ar":"\u0646\u0648\u0631-\u0628\u0627-\u062f\u0648-\u0643\u0627\u0644\u064a\u0647-\u0628\u064a\u0643\u0627\u0631\u062f\u064a","old_name:es":"Norte-Paso de Calais y Picard\u00eda","name:ar":"\u0634\u0645\u0627\u0644 \u0641\u0631\u0646\u0633\u0627","old_name:eu":"Nord-Pas-de-Calais eta Pikardia","min_zoom":8.0,"old_name:eo":"Nordo-Kaleza Markolo kaj Pikardio","old_name:en":"Nord-Pas-de-Calais and Picardy","old_name":"Nord-Pas-de-Calais-Picardie","id":-4217435,"name:ca":"Alts de Fran\u00e7a","old_name:uk":"\u041d\u043e\u0440-\u041f\u0430-\u0434\u0435-\u041a\u0430\u043b\u0435 i \u041f\u0456\u043a\u0430\u0440\u0434\u0456\u044f","kind":"region","name":"Hauts-de-France","old_name:oc":"N\u00f2rd-Pas de Calais e Picardia","old_name:ro":"Nord - Pasul Calais \u0219i Picardia","sort_rank":256,"kind_detail":"4","old_name:it":"Nord-Passo di Calais e Piccardia","maritime_boundary":true,"name:de":"Nordfrankreich","old_name:pt":"Norte-Passo-de-Calais e Picardia","source":"openstreetmap.org","old_name:ca":"Nord-Pas-de-Calais i Picardia","osm_relation":true,"old_name:be":"\u041d\u043e\u0440 \u2014 \u041f\u0430-\u0434\u044d-\u041a\u0430\u043b\u0435 i \u041f\u0456\u043a\u0430\u0440\u0434\u044b\u044f","old_name:br":"Nord-Pas-de-Calais ha Pikardi"},"arcs":[[5],[6]]},{"type":"LineString","properties":{"name:pt":"Normandia","name:ro":"Normandia","name:sk":"Normandia","name:ja":"\u30ce\u30eb\u30de\u30f3\u30c7\u30a3\u30fc","name:oc":"Normandia","name:ar":"\u0646\u0648\u0631\u0645\u0627\u0646\u062f\u064a","kind":"region","name:br":"Normandi","min_zoom":8.0,"name:la":"Normannia","name:it":"Normandia","name:uk":"\u041d\u043e\u0440\u043c\u0430\u043d\u0434\u0456\u044f","name:be":"\u041d\u0430\u0440\u043c\u0430\u043d\u0434\u044b\u044f","name:ru":"\u041d\u043e\u0440\u043c\u0430\u043d\u0434\u0438\u044f","name:pl":"Normandia","id":-3793170,"name:ca":"Normandia","name:eo":"Normandio","name:en":"Normandy","name":"Normandie","sort_rank":256,"kind_detail":"4","name:he":"\u05e0\u05d5\u05e8\u05de\u05e0\u05d3\u05d9","source":"openstreetmap.org","osm_relation":true,"name:eu":"Normandia","name:et":"Normandia","name:nl":"Normandi\u00eb","name:es":"Normand\u00eda"},"arcs":[7]},{"type":"LineString","properties":{"name:pt":"Normandia","name:ro":"Normandia","name:sk":"Normandia","name:ja":"\u30ce\u30eb\u30de\u30f3\u30c7\u30a3\u30fc","name:oc":"Normandia","name:ar":"\u0646\u0648\u0631\u0645\u0627\u0646\u062f\u064a","name:eo":"Normandio","name:br":"Normandi","min_zoom":8.0,"name:la":"Normannia","name:it":"Normandia","name:uk":"\u041d\u043e\u0440\u043c\u0430\u043d\u0434\u0456\u044f","name:ru":"\u041d\u043e\u0440\u043c\u0430\u043d\u0434\u0438\u044f","name:be":"\u041d\u0430\u0440\u043c\u0430\u043d\u0434\u044b\u044f","name:pl":"Normandia","id":-3793170,"name:ca":"Normandia","kind":"region","name:en":"Normandy","name":"Normandie","sort_rank":256,"kind_detail":"4","name:he":"\u05e0\u05d5\u05e8\u05de\u05e0\u05d3\u05d9","source":"openstreetmap.org","maritime_boundary":true,"osm_relation":true,"name:eu":"Normandia","name:et":"Normandia","name:nl":"Normandi\u00eb","name:es":"Normand\u00eda"},"arcs":[8]},{"type":"LineString","properties":{"name:ia":"Anglaterra","name:ga":"Sasana","name:pt":"Inglaterra","name:cy":"Lloegr","name:tr":"\u0130ngiltere","name:cs":"Anglie","alt_name:eo":"Anglio","name:io":"Anglia","min_zoom":8.0,"name:it":"Inghilterra","name:ru":"\u0410\u043d\u0433\u043b\u0438\u044f","name:vi":"Anh","name:pl":"Anglia","id":-58447,"name:ca":"Anglaterra","name:vo":"Lingl\u00e4n","sort_rank":256,"name:fi":"Englanti","old_name:vi":"Anh Qu\u1ed1c","source":"openstreetmap.org","name:fr":"Angleterre","name:fy":"Ingel\u00e2n","name:zh":"\u82f1\u683c\u862d","name:nl":"Engeland","name:lt":"Anglija","name:eo":"Anglujo","name:la":"Anglia","name:sk":"Anglicko","name:uk":"\u0410\u043d\u0433\u043b\u0456\u044f","name:be":"\u0410\u043d\u0433\u043b\u0456\u044f","name:hu":"Anglia","osm_relation":true,"alt_name:ia":"Anglia","name:el":"\u0391\u03b3\u03b3\u03bb\u03af\u03b1","kind":"region","name":"England","name:gd":"Sasainn","maritime_boundary":true,"name:gv":"Sostyn","kind_detail":"4","name:es":"Inglaterra"},"arcs":[9]}]},"roads":{"type":"GeometryCollection","geometries":[{"type":"MultiLineString","properties":{"kind":"minor_road","sort_rank":360,"landuse_kind":"urban_area","is_bicycle_related":true,"bicycle_shield_text":"AV","bicycle_network":"ncn","source":"openstreetmap.org","min_zoom":8.0,"kind_detail":"unclassified"},"arcs":[[61],[62],[63]]},{"type":"LineString","properties":{"kind":"major_road","sort_rank":377,"kind_detail":"tertiary","is_bicycle_related":true,"bicycle_shield_text":"EV4","bicycle_network":"icn","source":"openstreetmap.org","min_zoom":8.0,"ref":"D 123","id":33464483},"arcs":[64]},{"type":"MultiLineString","properties":{"source":"openstreetmap.org","kind":"major_road","kind_detail":"trunk","sort_rank":381,"landuse_kind":"urban_area","ref":"D 485","min_zoom":8.0},"arcs":[[65],[66]]},{"type":"MultiLineString","properties":{"sort_rank":380,"kind_detail":"primary","min_zoom":8.0,"kind":"major_road","source":"openstreetmap.org"},"arcs":[[67],[68],[69],[70],[71],[72],[73],[74],[75],[76],[77],[78],[79],[80],[81],[82],[83],[84],[85],[86],[87],[88],[89],[90],[91],[92]]},{"type":"LineString","properties":{"kind":"major_road","sort_rank":377,"kind_detail":"tertiary","is_bicycle_related":true,"bicycle_shield_text":null,"bicycle_network":"icn","source":"openstreetmap.org","min_zoom":8.0,"ref":"D 126e"},"arcs":[93]},{"type":"MultiLineString","properties":{"source":"openstreetmap.org","kind":"major_road","sort_rank":381,"kind_detail":"trunk","ref":"D 485","min_zoom":8.0},"arcs":[[94],[95]]},{"type":"LineString","properties":{"kind":"major_road","sort_rank":377,"kind_detail":"tertiary","is_bicycle_related":true,"bicycle_shield_text":null,"bicycle_network":"icn","source":"openstreetmap.org","min_zoom":8.0,"ref":"D 126"},"arcs":[96]},{"type":"LineString","properties":{"kind":"major_road","sort_rank":379,"landuse_kind":"urban_area","is_bicycle_related":true,"bicycle_shield_text":"EV4","bicycle_network":"icn","source":"openstreetmap.org","min_zoom":8.0,"kind_detail":"secondary","ref":"D 925"},"arcs":[97]},{"type":"MultiLineString","properties":{"source":"openstreetmap.org","kind":"major_road","sort_rank":380,"kind_detail":"primary","ref":"D 925","min_zoom":8.0},"arcs":[[98],[99],[100],[101],[102],[103],[104],[105],[106],[107],[108],[109],[110],[111],[112],[113],[114],[115],[116],[117],[118],[119],[120],[121],[122],[123],[124],[125],[126],[127],[128],[129],[130],[131],[132]]},{"type":"LineString","properties":{"cycleway_right":"lane","service":"parking_aisle","sort_rank":356,"kind_detail":"service","is_bicycle_related":true,"kind":"minor_road","bicycle_shield_text":"EV4","bicycle_network":"icn","source":"openstreetmap.org","min_zoom":8.0,"landuse_kind":"urban_area","id":172019277},"arcs":[133]},{"type":"LineString","properties":{"kind":"major_road","sort_rank":377,"kind_detail":"tertiary","is_bicycle_related":true,"bicycle_shield_text":"EV4","bicycle_network":"icn","source":"openstreetmap.org","min_zoom":8.0,"landuse_kind":"urban_area","ref":"D 925","id":32525781},"arcs":[134]},{"type":"LineString","properties":{"kind":"major_road","sort_rank":379,"kind_detail":"secondary","is_bicycle_related":true,"bicycle_shield_text":"EV4","bicycle_network":"icn","source":"openstreetmap.org","min_zoom":8.0,"ref":"D 20"},"arcs":[135]},{"type":"MultiLineString","properties":{"kind":"major_road","sort_rank":377,"kind_detail":"tertiary","is_bicycle_related":true,"bicycle_shield_text":null,"bicycle_network":"icn","source":"openstreetmap.org","min_zoom":8.0,"ref":"D 113"},"arcs":[[136],[137]]},{"type":"MultiLineString","properties":{"kind":"major_road","sort_rank":377,"kind_detail":"tertiary","is_bicycle_related":true,"bicycle_shield_text":"EV4","bicycle_network":"icn","source":"openstreetmap.org","min_zoom":8.0,"ref":"D 68"},"arcs":[[138],[139]]},{"type":"MultiLineString","properties":{"kind":"major_road","sort_rank":379,"landuse_kind":"urban_area","is_bicycle_related":true,"bicycle_shield_text":"AV","bicycle_network":"ncn","source":"openstreetmap.org","min_zoom":8.0,"kind_detail":"secondary"},"arcs":[[140],[141],[142],[143],[144],[145],[146]]},{"type":"MultiLineString","properties":{"source":"openstreetmap.org","kind":"major_road","sort_rank":380,"kind_detail":"primary","ref":"D 485","min_zoom":8.0},"arcs":[[147],[148]]},{"type":"MultiLineString","properties":{"kind":"minor_road","sort_rank":360,"kind_detail":"unclassified","is_bicycle_related":true,"bicycle_shield_text":"EV4","bicycle_network":"icn","source":"openstreetmap.org","min_zoom":8.0},"arcs":[[149],[150],[151],[152],[153],[154],[155],[156],[157],[158]]},{"type":"MultiLineString","properties":{"bus_network":"TER Haute-Normandie","sort_rank":379,"landuse_kind":"urban_area","is_bicycle_related":true,"kind":"major_road","bicycle_shield_text":"AV","bicycle_network":"ncn","source":"openstreetmap.org","min_zoom":8.0,"bus_shield_text":"TER","kind_detail":"secondary"},"arcs":[[159],[160]]},{"type":"LineString","properties":{"kind":"major_road","sort_rank":379,"kind_detail":"secondary","is_bicycle_related":true,"bicycle_shield_text":null,"bicycle_network":"icn","source":"openstreetmap.org","min_zoom":8.0,"ref":"D 925a"},"arcs":[161]},{"type":"MultiLineString","properties":{"source":"openstreetmap.org","kind":"major_road","landuse_kind":"urban_area","sort_rank":380,"kind_detail":"primary","min_zoom":8.0},"arcs":[[162],[163],[164],[165],[166]]},{"type":"MultiLineString","properties":{"kind":"major_road","sort_rank":377,"landuse_kind":"urban_area","is_bicycle_related":true,"bicycle_shield_text":"AV","bicycle_network":"ncn","source":"openstreetmap.org","min_zoom":8.0,"kind_detail":"tertiary"},"arcs":[[167],[168],[169],[170],[171],[172]]},{"type":"LineString","properties":{"kind":"major_road","sort_rank":377,"kind_detail":"tertiary","is_bicycle_related":true,"bicycle_shield_text":"EV4","bicycle_network":"icn","source":"openstreetmap.org","min_zoom":8.0,"ref":"D 468"},"arcs":[173]},{"type":"LineString","properties":{"kind":"major_road","sort_rank":379,"kind_detail":"secondary","is_bicycle_related":true,"bicycle_shield_text":"EV4","bicycle_network":"icn","source":"openstreetmap.org","min_zoom":8.0,"ref":"D 237","id":177144828},"arcs":[174]},{"type":"LineString","properties":{"kind":"major_road","sort_rank":377,"kind_detail":"tertiary","is_bicycle_related":true,"bicycle_shield_text":null,"bicycle_network":"icn","source":"openstreetmap.org","min_zoom":8.0,"landuse_kind":"urban_area","ref":"D 1915"},"arcs":[175]},{"type":"LineString","properties":{"kind":"path","service":"parking_aisle","sort_rank":354,"kind_detail":"cycleway","is_bicycle_related":true,"bicycle_shield_text":"EV4","bicycle_network":"icn","source":"openstreetmap.org","min_zoom":8.0,"landuse_kind":"urban_area","id":172017966},"arcs":[176]},{"type":"MultiLineString","properties":{"source":"openstreetmap.org","bus_network":"TER Haute-Normandie","bus_shield_text":"TER","sort_rank":380,"kind_detail":"primary","min_zoom":8.0,"kind":"major_road"},"arcs":[[177],[178]]},{"type":"MultiLineString","properties":{"source":"openstreetmap.org","kind":"major_road","sort_rank":380,"kind_detail":"primary","ref":"N 27","min_zoom":8.0},"arcs":[[179],[180]]},{"type":"LineString","properties":{"kind":"ferry","name":"Newhaven to Dieppe","sort_rank":355,"landuse_kind":"urban_area","is_bicycle_related":true,"bicycle_shield_text":"AV","bicycle_network":"icn","source":"openstreetmap.org","min_zoom":8.0,"id":210008655},"arcs":[181]},{"type":"MultiLineString","properties":{"bus_network":"TER Haute-Normandie","sort_rank":380,"kind_detail":"primary","kind":"major_road","source":"openstreetmap.org","min_zoom":8.0,"bus_shield_text":"TER","landuse_kind":"urban_area","ref":"D 154e"},"arcs":[[182],[183],[184],[185],[186]]},{"type":"MultiLineString","properties":{"kind":"major_road","sort_rank":379,"kind_detail":"secondary","is_bicycle_related":true,"bicycle_shield_text":"AV","bicycle_network":"ncn","source":"openstreetmap.org","min_zoom":8.0,"ref":"D 485"},"arcs":[[187],[188]]},{"type":"LineString","properties":{"kind":"major_road","sort_rank":380,"kind_detail":"primary","is_bicycle_related":true,"bicycle_shield_text":"VL","bicycle_network":"rcn","source":"openstreetmap.org","min_zoom":8.0,"ref":"D 925","id":177144837},"arcs":[189]},{"type":"MultiLineString","properties":{"kind":"major_road","sort_rank":379,"kind_detail":"secondary","is_bicycle_related":true,"bicycle_shield_text":null,"bicycle_network":"icn","source":"openstreetmap.org","min_zoom":8.0},"arcs":[[190],[191]]},{"type":"MultiLineString","properties":{"bus_network":"TER Haute-Normandie","sort_rank":380,"kind_detail":"primary","kind":"major_road","source":"openstreetmap.org","min_zoom":8.0,"bus_shield_text":"TER","ref":"D 925"},"arcs":[[192],[193],[194]]},{"type":"MultiLineString","properties":{"source":"openstreetmap.org","kind":"major_road","landuse_kind":"urban_area","sort_rank":380,"kind_detail":"primary","ref":"D 485","min_zoom":8.0},"arcs":[[195],[196]]},{"type":"LineString","properties":{"kind":"major_road","sort_rank":379,"kind_detail":"secondary","is_bicycle_related":true,"bicycle_shield_text":"AV","bicycle_network":"ncn","source":"openstreetmap.org","min_zoom":8.0,"landuse_kind":"urban_area","ref":"D 485","id":32884653},"arcs":[197]},{"type":"LineString","properties":{"kind":"major_road","sort_rank":379,"kind_detail":"secondary","is_bicycle_related":true,"bicycle_shield_text":"EV4","bicycle_network":"icn","source":"openstreetmap.org","min_zoom":8.0,"ref":"D 127","id":47197391},"arcs":[198]},{"type":"LineString","properties":{"kind":"major_road","sort_rank":377,"kind_detail":"tertiary","is_bicycle_related":true,"bicycle_shield_text":"EV4","bicycle_network":"icn","source":"openstreetmap.org","min_zoom":8.0,"landuse_kind":"urban_area","ref":"D 75b","id":32525891},"arcs":[199]},{"type":"LineString","properties":{"kind":"major_road","sort_rank":379,"kind_detail":"secondary","is_bicycle_related":true,"bicycle_shield_text":null,"bicycle_network":"icn","source":"openstreetmap.org","min_zoom":8.0,"landuse_kind":"urban_area","ref":"D 1015"},"arcs":[200]},{"type":"MultiLineString","properties":{"kind":"major_road","sort_rank":379,"landuse_kind":"urban_area","is_bicycle_related":true,"bicycle_shield_text":"EV4","bicycle_network":"icn","source":"openstreetmap.org","min_zoom":8.0,"kind_detail":"secondary","ref":"D 75"},"arcs":[[201],[202]]},{"type":"MultiLineString","properties":{"source":"openstreetmap.org","kind":"major_road","sort_rank":380,"kind_detail":"primary","ref":"D 54","min_zoom":8.0},"arcs":[[203],[204]]},{"type":"LineString","properties":{"kind":"major_road","sort_rank":377,"kind_detail":"tertiary","is_bicycle_related":true,"bicycle_shield_text":null,"bicycle_network":"icn","source":"openstreetmap.org","min_zoom":8.0,"ref":"D 313"},"arcs":[205]},{"type":"LineString","properties":{"kind":"major_road","sort_rank":379,"kind_detail":"secondary","is_bicycle_related":true,"bicycle_shield_text":null,"bicycle_network":"icn","source":"openstreetmap.org","min_zoom":8.0,"landuse_kind":"urban_area","ref":"D 925","id":210008654},"arcs":[206]},{"type":"LineString","properties":{"kind":"major_road","sort_rank":379,"kind_detail":"secondary","is_bicycle_related":true,"bicycle_shield_text":"AV","bicycle_network":"ncn","source":"openstreetmap.org","min_zoom":8.0,"ref":"D 154"},"arcs":[207]},{"type":"LineString","properties":{"bus_network":"TER Haute-Normandie","sort_rank":379,"kind_detail":"secondary","is_bicycle_related":true,"kind":"major_road","bicycle_shield_text":"AV","bicycle_network":"ncn","source":"openstreetmap.org","min_zoom":8.0,"bus_shield_text":"TER","ref":"D 54"},"arcs":[208]},{"type":"MultiLineString","properties":{"kind":"minor_road","sort_rank":360,"kind_detail":"unclassified","is_bicycle_related":true,"bicycle_shield_text":null,"bicycle_network":"icn","source":"openstreetmap.org","min_zoom":8.0},"arcs":[[209],[210]]},{"type":"MultiLineString","properties":{"kind":"major_road","sort_rank":377,"kind_detail":"tertiary","is_bicycle_related":true,"bicycle_shield_text":null,"bicycle_network":"icn","source":"openstreetmap.org","min_zoom":8.0,"landuse_kind":"urban_area"},"arcs":[[211],[212]]},{"type":"LineString","properties":{"kind":"minor_road","sort_rank":360,"kind_detail":"unclassified","is_bicycle_related":true,"bicycle_shield_text":"EV4","bicycle_network":"icn","source":"openstreetmap.org","min_zoom":8.0,"landuse_kind":"urban_area"},"arcs":[213]},{"type":"LineString","properties":{"kind":"major_road","sort_rank":379,"kind_detail":"secondary","is_bicycle_related":true,"bicycle_shield_text":null,"bicycle_network":"icn","source":"openstreetmap.org","min_zoom":8.0,"ref":"D 16"},"arcs":[214]},{"type":"MultiLineString","properties":{"source":"openstreetmap.org","kind":"major_road","landuse_kind":"urban_area","sort_rank":380,"kind_detail":"primary","ref":"D 925","min_zoom":8.0},"arcs":[[215],[216],[217]]},{"type":"LineString","properties":{"source":"openstreetmap.org","kind":"major_road","sort_rank":380,"kind_detail":"primary","ref":"D 54b","min_zoom":8.0},"arcs":[218]},{"type":"MultiLineString","properties":{"kind":"minor_road","sort_rank":360,"kind_detail":"residential","is_bicycle_related":true,"bicycle_shield_text":"EV4","bicycle_network":"icn","source":"openstreetmap.org","min_zoom":8.0},"arcs":[[219],[220],[221],[222],[223],[224],[225],[226]]},{"type":"LineString","properties":{"cycleway_right":"lane","sort_rank":360,"kind_detail":"unclassified","is_bicycle_related":true,"kind":"minor_road","bicycle_shield_text":"EV4","bicycle_network":"icn","source":"openstreetmap.org","min_zoom":8.0,"landuse_kind":"urban_area","id":32525804},"arcs":[227]},{"type":"LineString","properties":{"kind":"major_road","sort_rank":377,"kind_detail":"tertiary","is_bicycle_related":true,"bicycle_shield_text":"EV4","bicycle_network":"icn","source":"openstreetmap.org","min_zoom":8.0,"ref":"D 27"},"arcs":[228]},{"type":"MultiLineString","properties":{"kind":"minor_road","sort_rank":360,"kind_detail":"residential","is_bicycle_related":true,"bicycle_shield_text":null,"bicycle_network":"icn","source":"openstreetmap.org","min_zoom":8.0},"arcs":[[229],[230],[231],[232]]},{"type":"LineString","properties":{"source":"openstreetmap.org","kind":"major_road","sort_rank":380,"kind_detail":"primary","ref":"D 1314","min_zoom":8.0},"arcs":[233]},{"type":"LineString","properties":{"kind":"major_road","sort_rank":377,"kind_detail":"tertiary","is_bicycle_related":true,"bicycle_shield_text":null,"bicycle_network":"icn","source":"openstreetmap.org","min_zoom":8.0},"arcs":[234]},{"type":"MultiLineString","properties":{"source":"openstreetmap.org","kind":"major_road","sort_rank":380,"kind_detail":"primary","ref":"D 20","min_zoom":8.0},"arcs":[[235],[236]]},{"type":"LineString","properties":{"kind":"minor_road","sort_rank":360,"landuse_kind":"urban_area","is_bicycle_related":true,"bicycle_shield_text":"EV4","bicycle_network":"icn","source":"openstreetmap.org","min_zoom":8.0,"kind_detail":"residential"},"arcs":[237]},{"type":"MultiLineString","properties":{"source":"openstreetmap.org","kind":"major_road","landuse_kind":"urban_area","sort_rank":380,"kind_detail":"primary","ref":"N 27","min_zoom":8.0},"arcs":[[238],[239]]},{"type":"MultiLineString","properties":{"kind":"path","sort_rank":354,"kind_detail":"path","is_bicycle_related":true,"bicycle_shield_text":"AV","bicycle_network":"ncn","source":"openstreetmap.org","min_zoom":8.0},"arcs":[[240],[241],[242],[243],[244],[245],[246],[247],[248],[249],[250],[251],[252],[253],[254]]},{"type":"LineString","properties":{"kind":"minor_road","sort_rank":360,"kind_detail":"unclassified","is_bicycle_related":true,"bicycle_shield_text":"AV","bicycle_network":"ncn","source":"openstreetmap.org","min_zoom":8.0},"arcs":[255]},{"type":"MultiLineString","properties":{"kind":"minor_road","sort_rank":360,"landuse_kind":"urban_area","is_bicycle_related":true,"bicycle_shield_text":null,"bicycle_network":"icn","source":"openstreetmap.org","min_zoom":8.0,"kind_detail":"residential"},"arcs":[[256],[257],[258],[259]]},{"type":"LineString","properties":{"kind":"path","sort_rank":354,"kind_detail":"cycleway","is_bicycle_related":true,"bicycle_shield_text":"AV","bicycle_network":"ncn","source":"openstreetmap.org","min_zoom":8.0},"arcs":[260]},{"type":"LineString","properties":{"kind":"major_road","sort_rank":355,"kind_detail":"tertiary_link","is_bicycle_related":true,"bicycle_shield_text":null,"bicycle_network":"icn","source":"openstreetmap.org","min_zoom":8.0,"is_link":true},"arcs":[261]},{"type":"LineString","properties":{"kind":"major_road","sort_rank":379,"kind_detail":"secondary","is_bicycle_related":true,"bus_network":"TER Haute-Normandie","bicycle_shield_text":"AV","bicycle_network":"ncn","source":"openstreetmap.org","min_zoom":8.0,"bus_shield_text":"TER","ref":"D 154","id":32499210},"arcs":[262]},{"type":"MultiLineString","properties":{"source":"openstreetmap.org","kind":"major_road","sort_rank":380,"kind_detail":"primary","ref":"D 54e","min_zoom":8.0},"arcs":[[263],[264],[265]]},{"type":"MultiLineString","properties":{"source":"openstreetmap.org","kind":"major_road","landuse_kind":"urban_area","sort_rank":380,"kind_detail":"primary","ref":"D 925f","min_zoom":8.0},"arcs":[[266],[267],[268]]},{"type":"LineString","properties":{"kind":"major_road","sort_rank":377,"kind_detail":"tertiary","is_bicycle_related":true,"bicycle_shield_text":null,"bicycle_network":"icn","source":"openstreetmap.org","min_zoom":8.0,"ref":"C 15"},"arcs":[269]},{"type":"LineString","properties":{"kind":"major_road","sort_rank":377,"landuse_kind":"urban_area","is_bicycle_related":true,"bicycle_shield_text":null,"bicycle_network":"icn","source":"openstreetmap.org","min_zoom":8.0,"kind_detail":"tertiary","ref":"D 78"},"arcs":[270]},{"type":"LineString","properties":{"kind":"major_road","sort_rank":377,"kind_detail":"tertiary","is_bicycle_related":true,"bicycle_shield_text":"EV4","bicycle_network":"icn","source":"openstreetmap.org","min_zoom":8.0,"ref":"D 2"},"arcs":[271]},{"type":"MultiLineString","properties":{"kind":"minor_road","sort_rank":360,"kind_detail":"unclassified","is_bicycle_related":true,"bicycle_shield_text":null,"bicycle_network":"icn","source":"openstreetmap.org","min_zoom":8.0,"landuse_kind":"urban_area"},"arcs":[[272],[273],[274],[275]]},{"type":"MultiLineString","properties":{"kind":"major_road","sort_rank":379,"kind_detail":"secondary","is_bicycle_related":true,"bicycle_shield_text":"EV4","bicycle_network":"icn","source":"openstreetmap.org","min_zoom":8.0,"ref":"D 75"},"arcs":[[276],[277],[278],[279],[280]]},{"type":"LineString","properties":{"kind":"major_road","sort_rank":377,"kind_detail":"tertiary","is_bicycle_related":true,"bicycle_shield_text":null,"bicycle_network":"icn","source":"openstreetmap.org","min_zoom":8.0,"landuse_kind":"urban_area","ref":"D 113","id":32884652},"arcs":[281]},{"type":"LineString","properties":{"kind":"minor_road","sort_rank":360,"landuse_kind":"urban_area","is_bicycle_related":true,"bicycle_shield_text":"AV","bicycle_network":"ncn","source":"openstreetmap.org","min_zoom":8.0,"kind_detail":"residential"},"arcs":[282]},{"type":"LineString","properties":{"kind":"major_road","sort_rank":380,"kind_detail":"primary","is_bicycle_related":true,"bus_network":"TER Haute-Normandie","bicycle_shield_text":"AV","bicycle_network":"ncn","source":"openstreetmap.org","min_zoom":8.0,"bus_shield_text":"TER","id":16718128},"arcs":[283]},{"type":"LineString","properties":{"kind":"ferry","name":"Newhaven to Dieppe","sort_rank":355,"is_bicycle_related":true,"bicycle_shield_text":"AV","bicycle_network":"icn","source":"openstreetmap.org","min_zoom":8.0},"arcs":[284]},{"type":"MultiLineString","properties":{"kind":"major_road","sort_rank":379,"kind_detail":"secondary","is_bicycle_related":true,"bicycle_shield_text":"EV4","bicycle_network":"icn","source":"openstreetmap.org","min_zoom":8.0,"landuse_kind":"urban_area"},"arcs":[[285],[286]]},{"type":"MultiLineString","properties":{"kind":"major_road","sort_rank":379,"kind_detail":"secondary","is_bicycle_related":true,"bicycle_shield_text":"AV","bicycle_network":"ncn","source":"openstreetmap.org","min_zoom":8.0,"landuse_kind":"urban_area","ref":"D 154"},"arcs":[[287],[288]]},{"type":"LineString","properties":{"source":"openstreetmap.org","kind":"major_road","sort_rank":381,"kind_detail":"trunk","ref":"N 27","min_zoom":8.0},"arcs":[289]},{"type":"MultiLineString","properties":{"bus_network":"TER Haute-Normandie","sort_rank":380,"kind_detail":"primary","kind":"major_road","source":"openstreetmap.org","min_zoom":8.0,"bus_shield_text":"TER","ref":"D 154e"},"arcs":[[290],[291],[292],[293],[294]]},{"type":"MultiLineString","properties":{"kind":"path","sort_rank":354,"landuse_kind":"urban_area","is_bicycle_related":true,"bicycle_shield_text":"EV4","bicycle_network":"icn","source":"openstreetmap.org","min_zoom":8.0,"kind_detail":"footway"},"arcs":[[295],[296]]},{"type":"MultiLineString","properties":{"kind":"path","sort_rank":354,"landuse_kind":"urban_area","is_bicycle_related":true,"bicycle_shield_text":null,"bicycle_network":"icn","source":"openstreetmap.org","min_zoom":8.0,"kind_detail":"path"},"arcs":[[297],[298]]},{"type":"LineString","properties":{"kind":"major_road","sort_rank":377,"kind_detail":"tertiary","is_bicycle_related":true,"bicycle_shield_text":"EV4","bicycle_network":"icn","source":"openstreetmap.org","min_zoom":8.0,"ref":"D 4","id":177144822},"arcs":[299]},{"type":"MultiLineString","properties":{"kind":"minor_road","sort_rank":360,"kind_detail":"residential","is_bicycle_related":true,"bicycle_shield_text":"AV","bicycle_network":"ncn","source":"openstreetmap.org","min_zoom":8.0},"arcs":[[300],[301]]},{"type":"LineString","properties":{"bus_network":"TER Haute-Normandie","sort_rank":377,"kind_detail":"tertiary","is_bicycle_related":true,"kind":"major_road","bicycle_shield_text":"EV4","bicycle_network":"icn","source":"openstreetmap.org","min_zoom":8.0,"bus_shield_text":"TER","ref":"D 53"},"arcs":[302]},{"type":"LineString","properties":{"kind":"major_road","sort_rank":377,"kind_detail":"tertiary","is_bicycle_related":true,"bicycle_shield_text":"EV4","bicycle_network":"icn","source":"openstreetmap.org","min_zoom":8.0,"ref":"D 69","id":177144832},"arcs":[303]},{"type":"LineString","properties":{"bus_network":"TER Haute-Normandie","sort_rank":380,"kind_detail":"primary","kind":"major_road","source":"openstreetmap.org","min_zoom":8.0,"bus_shield_text":"TER","landuse_kind":"urban_area"},"arcs":[304]},{"type":"MultiLineString","properties":{"source":"openstreetmap.org","kind":"major_road","landuse_kind":"urban_area","sort_rank":380,"kind_detail":"primary","ref":"D 927","min_zoom":8.0},"arcs":[[305],[306]]},{"type":"MultiLineString","properties":{"source":"openstreetmap.org","kind":"major_road","landuse_kind":"urban_area","sort_rank":380,"kind_detail":"primary","ref":"D 1915","min_zoom":8.0},"arcs":[[307],[308],[309]]},{"type":"MultiLineString","properties":{"kind":"major_road","sort_rank":377,"landuse_kind":"urban_area","is_bicycle_related":true,"bicycle_shield_text":"EV4","bicycle_network":"icn","source":"openstreetmap.org","min_zoom":8.0,"kind_detail":"tertiary"},"arcs":[[310],[311],[312],[313],[314],[315],[316],[317],[318]]},{"type":"LineString","properties":{"kind":"major_road","sort_rank":379,"kind_detail":"secondary","is_bicycle_related":true,"bicycle_shield_text":"EV4","bicycle_network":"icn","source":"openstreetmap.org","min_zoom":8.0,"ref":"D 68"},"arcs":[319]},{"type":"LineString","properties":{"kind":"major_road","sort_rank":377,"kind_detail":"tertiary","is_bicycle_related":true,"bicycle_shield_text":null,"bicycle_network":"icn","source":"openstreetmap.org","min_zoom":8.0,"ref":"D 78","id":242596076},"arcs":[320]},{"type":"MultiLineString","properties":{"kind":"major_road","sort_rank":380,"kind_detail":"primary","is_bicycle_related":true,"bicycle_shield_text":"EV4","bicycle_network":"icn","source":"openstreetmap.org","min_zoom":8.0,"ref":"D 925"},"arcs":[[321],[322]]},{"type":"LineString","properties":{"kind":"major_road","sort_rank":377,"kind_detail":"tertiary","is_bicycle_related":true,"bicycle_shield_text":"EV4","bicycle_network":"icn","source":"openstreetmap.org","min_zoom":8.0,"ref":"D 37"},"arcs":[323]},{"type":"LineString","properties":{"kind":"major_road","sort_rank":377,"kind_detail":"tertiary","is_bicycle_related":true,"bicycle_shield_text":"EV4","bicycle_network":"icn","source":"openstreetmap.org","min_zoom":8.0},"arcs":[324]},{"type":"LineString","properties":{"kind":"major_road","sort_rank":379,"kind_detail":"secondary","is_bicycle_related":true,"bicycle_shield_text":null,"bicycle_network":"icn","source":"openstreetmap.org","min_zoom":8.0,"landuse_kind":"urban_area"},"arcs":[325]},{"type":"MultiLineString","properties":{"source":"openstreetmap.org","kind":"major_road","sort_rank":380,"kind_detail":"primary","ref":"D 915","min_zoom":8.0},"arcs":[[326],[327],[328]]},{"type":"MultiLineString","properties":{"kind":"major_road","sort_rank":377,"kind_detail":"tertiary","is_bicycle_related":true,"bicycle_shield_text":"EV4","bicycle_network":"icn","source":"openstreetmap.org","min_zoom":8.0,"ref":"D 237"},"arcs":[[329],[330]]}]},"earth":{"type":"GeometryCollection","geometries":[{"type":"Polygon","properties":{"sort_rank":10,"source":"naturalearthdata.com","kind":"earth","min_zoom":0.0,"id":4752},"arcs":[[331]]}]},"landuse":{"type":"GeometryCollection","geometries":[{"type":"MultiPolygon","properties":{"source":"naturalearthdata.com","kind":"urban_area","name":"","area":6437600405,"sort_rank":11,"min_zoom":4.0},"arcs":[[[332]],[[333]]]},{"type":"Polygon","properties":{"kind":"protected_area","area":5768169984,"sort_rank":17,"source":"openstreetmap.org","min_zoom":4.0,"tier":2,"id":-3534461,"osm_relation":true},"arcs":[[334]]},{"type":"Polygon","properties":{"kind":"national_park","area":4151990016,"sort_rank":18,"source":"openstreetmap.org","min_zoom":3.0,"tier":1,"id":-1596374,"osm_relation":true},"arcs":[[335]]}]}},"type":"Topology","transform":{"translate":[0.0,49.8379824531],"scale":[0.0003433228,0.0002193537]},"arcs":[[[3626,4096],[-3,-251],[49,-331],[-5,-533],[-54,-312],[-52,-615],[-127,-287],[-539,-436],[-359,-75],[-235,-106],[-230,-66],[-442,-73],[-277,-94],[-219,-115],[-301,-212],[-667,-340],[-165,-117]],[[0,3352],[540,-165],[173,-14],[193,23],[204,64],[167,91],[325,314],[546,146],[207,87],[171,109],[395,-22],[200,41],[168,70]],[[4019,1036],[77,-34]],[[4019,1036]],[[4027,1042],[-1,0]],[[4026,1042],[-7,-6]],[[4096,1107],[-69,-65]],[[4019,1036],[-10,-8]],[[4009,1028],[-138,-80],[-295,-277],[-65,-20],[17,-11],[-22,7],[-5,-40],[-279,-158],[-69,6],[-42,-51],[-124,-47],[-196,12],[-81,-55],[-282,-79],[-147,-71],[-179,-21],[-34,18],[9,-12],[-5,-10],[1,9],[-9,14],[-374,-99],[-87,-63]],[[0,3352],[540,-165],[173,-14],[193,23],[204,64],[167,91],[325,314],[546,146],[207,87],[171,109],[395,-22],[200,41],[168,70]],[[3138,340],[2,1]],[[3140,341],[1,1]],[[3141,342],[1,1]],[[3142,343]],[[3142,343],[1,1]],[[3143,344],[1,1]],[[3144,345],[1,1]],[[3145,346],[0,1]],[[3145,347],[1,1]],[[3146,348]],[[3146,348],[1,1]],[[3147,349],[0,1]],[[3147,350]],[[3147,350],[1,2]],[[3148,352]],[[3148,352],[0,1]],[[3148,353],[0,1]],[[3148,354],[1,0]],[[3149,354],[0,1]],[[3149,355],[0,1]],[[3149,356],[0,1]],[[3149,357],[0,1]],[[3163,0],[-93,273],[68,67]],[[3149,358],[0,21]],[[3149,358],[1,1]],[[3150,359],[0,1]],[[3150,360],[0,1]],[[3150,361]],[[3150,361],[0,1]],[[3150,362],[0,1]],[[3150,363]],[[3150,363],[0,1]],[[3150,364],[0,2]],[[3150,366],[0,1]],[[3150,367],[0,1]],[[3150,368],[0,4]],[[3150,372],[0,1]],[[3150,373],[-1,6]],[[3150,364],[0,5],[0,10]],[[3148,382],[2,0],[0,-3],[-2,0],[0,3]],[[4009,1025],[14,4]],[[4023,1029],[-3,-1],[-11,-3]],[[4023,1029],[73,-31]],[[4009,1025],[14,4]],[[4023,1029],[-3,-1],[-11,-3]],[[4023,1029],[73,-31]],[[4009,1025],[14,4]],[[4023,1029],[-3,-1],[-11,-3]],[[4023,1029],[73,-23]],[[4096,1136],[-44,-55],[-379,-308],[-116,-130],[-71,-25],[-71,-57],[-1199,-392],[-250,3],[-228,-84],[-115,-80],[-26,-8],[-1597,0],[0,4096],[4096,0],[0,-2960]],[[1597,0],[26,8],[115,80],[228,84],[250,-3],[1199,392],[71,57],[71,25],[116,130],[379,308],[44,55]],[[3137,372],[5,0]],[[3142,372],[0,11]],[[3142,372],[0,-1],[0,1]],[[2896,302],[-7,-5]],[[3236,387],[-16,-17],[9,-46]],[[3230,324],[7,63]],[[3139,262],[0,1]],[[3249,172],[4,0]],[[3255,173],[4,6]],[[3572,530],[4,4]],[[3577,535],[6,8]],[[3664,644],[2,3]],[[3806,792],[1,1]],[[3825,793]],[[3854,820]],[[3856,835],[1,0]],[[2114,55],[0,2],[-2,0],[0,-2],[2,0]],[[2143,114],[-1,1],[-1,-2],[2,-1],[0,2]],[[2780,162],[0,1],[0,-1]],[[2796,163]],[[3005,241],[0,1],[-1,0],[0,-1],[1,0]],[[3139,260],[0,2]],[[3139,262],[-1,0],[-1,-2],[2,0]],[[3204,160],[1,1],[-1,0],[-1,-1],[1,0]],[[3255,171],[1,1],[-2,1],[-1,-1],[2,-1]],[[3268,406],[1,1],[-1,2],[-2,-2],[2,-1]],[[3325,425],[1,0],[0,1],[-1,-1]],[[3449,464],[0,1],[0,-1]],[[3577,534],[0,1],[-1,0],[0,-1],[1,0]],[[3856,836],[1,-1]],[[3857,835],[1,1],[-1,1],[-1,-1]],[[4079,887],[-1,-1],[1,-2],[1,2],[-1,1]],[[3985,1000],[-108,-54]],[[3229,324],[-4,-7]],[[3226,316],[4,8]],[[3890,927],[-13,19]],[[3146,403],[17,4]],[[2011,75],[-5,-1]],[[2006,73],[5,2]],[[2011,75],[98,-23]],[[2109,52],[3,3]],[[2112,55],[-3,-3]],[[2116,59],[-2,-2]],[[2114,56],[2,3]],[[2116,59],[23,51]],[[2139,110],[3,2]],[[2141,113],[-2,-3]],[[2148,116],[-5,-2]],[[2144,114],[4,2]],[[2148,116],[179,24]],[[2580,126],[-229,15]],[[2780,162],[-191,-39]],[[2795,163],[-15,0]],[[3004,241],[-208,-78]],[[3075,314],[-11,-58],[-59,-14]],[[3269,408],[56,17]],[[3326,426],[123,38]],[[3449,464],[127,70]],[[3576,535],[21,26]],[[3597,561],[10,13]],[[3607,574],[199,218]],[[3807,793],[18,0]],[[3825,793],[25,-6],[4,33]],[[3854,820],[2,14]],[[3861,840],[-4,-3]],[[3858,837],[3,3]],[[3861,840],[101,-17],[115,61]],[[4079,888],[-20,54],[18,23]],[[4078,885],[-1,-1]],[[4077,884],[1,1]],[[4079,888],[0,-1]],[[4079,887],[0,1]],[[3160,428],[-6,2]],[[3124,389],[2,-2]],[[2078,112],[23,-21]],[[3217,443],[115,25],[127,67]],[[3459,535],[101,8]],[[1934,8],[-18,-8]],[[2101,90],[39,-25]],[[3149,383],[3,2]],[[3152,385],[2,1]],[[3152,385]],[[3152,385],[-1,-1]],[[3154,345],[-2,-2]],[[3138,364],[-1,-1],[1,0],[0,1]],[[3184,439],[0,-2],[1,1],[0,1],[-1,0]],[[3266,407],[-27,-17]],[[3239,389],[28,17]],[[1963,0],[-29,8]],[[2163,46],[40,24]],[[2471,207],[39,41]],[[2558,228],[28,-41],[-3,-51]],[[2595,134],[20,48],[-27,58]],[[2653,264],[-11,-8]],[[2722,235],[-37,23]],[[2874,286],[15,11]],[[2896,302],[42,-2]],[[2959,307],[-14,1]],[[3142,383],[7,0]],[[3154,386],[-2,-1]],[[3802,796],[40,19]],[[3139,263],[-1,22]],[[3132,334],[0,-2],[2,0],[0,2],[-2,0]],[[3237,389],[0,-2],[2,0],[0,2],[-2,0]],[[4076,981],[-1,1],[-1,-1],[1,-1],[1,1]],[[4089,980],[-1,1],[-2,0],[1,-2],[2,1]],[[3154,386],[0,15]],[[3157,377],[-3,-15]],[[3154,361],[0,-16]],[[3163,407],[1,21]],[[3164,428],[5,3]],[[3169,431],[15,6]],[[2140,65],[20,-22]],[[2558,228],[-9,5]],[[4002,1013],[9,-2]],[[3160,420],[1,4]],[[2006,72],[0,2],[-2,0],[0,-2],[2,0]],[[3223,317],[2,-4],[1,3],[-3,1]],[[3121,124],[-10,-107]],[[3138,263],[0,-1]],[[3142,471],[27,-35]],[[3183,347],[10,-7]],[[3193,340],[-9,7]],[[3214,316],[-21,24]],[[3214,316],[3,0]],[[3217,316],[-3,0]],[[3222,430],[17,-4]],[[3239,426],[28,-18]],[[2337,149],[14,-8]],[[3833,892],[0,1]],[[3833,893],[0,1],[-1,-1],[0,-1],[1,1]],[[1981,0],[21,71]],[[2002,71],[2,1]],[[2003,73],[-1,-2]],[[3239,390],[-1,-1]],[[3239,389]],[[3185,438],[37,-8]],[[2767,203],[2,-3]],[[3121,387],[5,0]],[[4044,1039],[-33,-16]],[[3023,367],[83,20]],[[3106,387],[15,0]],[[3203,160],[-67,-10]],[[3205,161],[44,11]],[[3560,543],[26,101],[56,18]],[[3163,407],[1,0]],[[3254,244],[-64,54]],[[3277,213],[25,-17]],[[3655,675],[69,67]],[[3740,758],[8,31],[47,8]],[[3184,426],[26,16]],[[3998,1015],[4,-2]],[[3108,400],[9,0]],[[3842,815],[-8,77]],[[3132,333],[-57,-19]],[[4077,965],[10,14]],[[4088,981],[8,15]],[[3259,179],[-4,64]],[[2160,43],[3,3]],[[2203,70],[25,9]],[[2510,248],[34,-9]],[[2583,136],[-3,-10]],[[2671,268],[-18,-4]],[[2685,258],[-12,8]],[[2722,235],[45,-32]],[[2938,300],[7,8]],[[3154,430],[-27,-26]],[[2874,286],[-15,-43],[-90,-43]],[[3642,662],[13,13]],[[3724,742],[16,16]],[[3802,796],[-7,1]],[[3995,995],[-10,5]],[[4078,0],[18,30]],[[3459,534],[0,1],[0,-1]],[[2113,54],[1,1]],[[2114,52],[18,-52]],[[3124,390],[0,7]],[[3132,332],[6,-69]],[[3138,285],[-5,47]],[[3376,163],[-46,5]],[[3378,162],[-2,1]],[[3411,145],[-33,17]],[[3413,144],[-2,1]],[[3432,135],[-19,9]],[[3434,134],[-2,1]],[[3460,120],[-26,14]],[[3460,120],[3,-1]],[[3490,104],[-27,15]],[[3490,104],[2,0]],[[3503,97],[-11,7]],[[3505,95],[-2,2]],[[3555,30],[-50,65]],[[3555,30],[1,-2]],[[3584,0],[-28,28]],[[3330,168],[-1,0]],[[3201,400],[-17,26]],[[4044,1039],[2,4]],[[4051,1057],[-5,-14]],[[4055,1060],[-4,-3]],[[3304,189],[25,-21]],[[3833,894],[-1,0]],[[3256,243],[21,-30]],[[3122,128],[-1,-1]],[[3121,124],[1,4]],[[3136,150],[-14,-22]],[[4079,981],[-3,1]],[[4076,981],[3,0]],[[4086,981],[-7,0]],[[3890,927],[-57,-33]],[[3997,1010],[1,5]],[[2673,266],[0,2]],[[4006,1014],[6,6]],[[4096,1079],[-41,-19]],[[4055,1060]],[[4055,1060]],[[2537,227],[12,6]],[[2588,240],[54,16]],[[2673,268],[-2,0]],[[2896,302]],[[2997,355],[26,12]],[[3210,442],[7,1]],[[3152,404],[2,-3]],[[3254,244],[1,-1],[1,0],[-1,2],[-1,-1]],[[292,4096],[2850,-3625]],[[3106,387]],[[3146,403],[0,1],[-1,0],[0,-1],[1,0]],[[3138,364],[-1,8]],[[3190,298],[-52,65]],[[3109,0],[2,17],[-2,-17]],[[3217,316],[5,-2]],[[3222,316],[-5,0]],[[3224,313],[8,-5]],[[3232,308],[-7,5]],[[3232,308],[31,-24],[-8,-39]],[[3161,424],[-53,-24]],[[3124,397],[-2,3]],[[4006,1014],[5,-3]],[[4012,1020],[-1,3]],[[2228,79],[51,-9]],[[3304,189],[-2,7]],[[3329,168]],[[2078,112],[-7,-112]],[[2279,70],[30,4]],[[3184,347],[0,1],[-2,0],[0,-1],[2,0]],[[3182,348],[-48,-14]],[[3134,334],[48,13]],[[4075,980],[3,-2]],[[4078,978],[-2,2]],[[4078,978],[18,-8]],[[3117,400],[7,-11]],[[3122,400],[8,4]],[[3130,405],[14,2]],[[3144,407],[1,-4]],[[3144,407],[16,13]],[[3144,407]],[[3144,407],[-1,0],[1,0]],[[3145,404],[-1,3]],[[3130,404],[0,1],[0,-1]],[[2337,149],[3,25],[197,53]],[[3995,995],[2,15]],[[2327,140],[10,9]],[[2589,123],[-9,3]],[[2312,75],[15,65]],[[2997,355],[-38,-48]],[[3164,407],[37,-7]],[[3204,161],[-65,99]],[[3204,159],[0,1]],[[3297,0],[-92,158]],[[2549,233],[-5,6]],[[2595,134],[-6,-11]],[[1597,0],[26,8],[115,80],[228,84],[250,-3],[1199,392],[71,57],[71,25],[116,130],[379,308],[44,55],[0,-1136],[-2499,0]],[[4096,1082],[0,-123],[-10,1],[-108,61],[101,94],[17,-33]],[[3135,260],[-105,94],[-39,68],[207,68],[60,-147],[-123,-83]],[[2280,2532],[642,210],[1089,981],[85,164],[0,-2785],[-83,-72],[-104,-57],[-1629,1559]],[[758,4096],[-61,-15],[-84,15],[145,0]]]}