{"objects":{"water":{"type":"GeometryCollection","geometries":[]},"buildings":{"type":"GeometryCollection","geometries":[]},"places":{"type":"GeometryCollection","geometries":[{"type":"Point","properties":{"name:lv":"Montobana","name:ja":"\u30e2\u30f3\u30c8\u30fc\u30d0\u30f3","name:lt":"Montobanas","name:el":"\u039c\u03bf\u03bd\u03c4\u03c9\u03bc\u03c0\u03ac\u03bd","name:ko":"\ubabd\ud1a0\ubc29","name:oc":"Montalban","name:br":"Montalban","name:th":"\u0e21\u0e07\u0e42\u0e15\u0e1a\u0e47\u0e2d\u0e07","name:la":"Mons-Albanus","name:uk":"\u041c\u043e\u043d\u0442\u043e\u0431\u0430\u043d","name:an":"Montalban","name:os":"\u041c\u043e\u043d\u0442\u043e\u0431\u0430\u043d","name:ru":"\u041c\u043e\u043d\u0442\u043e\u0431\u0430\u043d","name:bg":"\u041c\u043e\u043d\u0442\u043e\u0431\u0430\u043d","id":2725062491,"name:ca":"Montalban","population":56271,"name:fa":"\u0645\u0648\u0646\u062a\u0648\u0628\u0627\u0646","kind":"locality","name":"Montauban","kind_detail":"town","min_zoom":8.0,"name:sr":"\u041c\u043e\u043d\u0442\u043e\u0431\u0430\u043d","source":"openstreetmap.org","name:zh":"\u8499\u6258\u90a6"},"coordinates":[3947,3815]},{"type":"Point","properties":{"kind":"locality","name":"Tarbes","name:lt":"Tarbas","name:oc":"Tarba","kind_detail":"town","source":"openstreetmap.org","min_zoom":8.0,"name:uk":"\u0422\u0430\u0440\u0431","name:ru":"\u0422\u0430\u0440\u0431","id":26691527,"population":43034},"coordinates":[227,659]},{"type":"Point","properties":{"name:fa":"\u06a9\u0648\u0644\u0648\u0645\u06cc\u0647","kind":"locality","name":"Colomiers","name:oc":"Colom\u00e8rs","kind_detail":"town","name:sr":"\u041a\u043e\u043b\u043e\u043c\u0458\u0435","source":"openstreetmap.org","min_zoom":8.0,"name:uk":"\u041a\u043e\u043b\u043e\u043c\u2019\u0454","name:ru":"\u041a\u043e\u043b\u043e\u043c\u044c\u0435","population":35186,"name:zh":"\u79d1\u6d1b\u7c73\u8036\u5c14","id":26692194,"name:ca":"Colomi\u00e8rs","name:ja":"\u30b3\u30ed\u30df\u30a8"},"coordinates":[3869,2184]},{"type":"Point","properties":{"kind":"locality","name":"Tournefeuille","name:oc":"Tornafu\u00e8lha","kind_detail":"town","source":"openstreetmap.org","min_zoom":8.0,"id":26691412,"population":26674},"coordinates":[3922,2066]},{"type":"Point","properties":{"name:fa":"\u0645\u0648\u0631\u0647","kind":"locality","name":"Muret","name:oc":"Mur\u00e8th","kind_detail":"town","name:sr":"\u041c\u0438\u0440\u0435","source":"openstreetmap.org","min_zoom":8.0,"name:uk":"\u041c\u044e\u0440\u0435","name:an":"Muriel","name:ru":"\u041c\u044e\u0440\u0435","population":23864,"name:zh":"\u7c73\u96f7","id":26692085,"name:ja":"\u30df\u30e5\u30ec"},"coordinates":[3863,1573]},{"type":"Point","properties":{"name:ja":"\u30aa\u30fc\u30b7\u30e5","name:oc":"Aush","name:he":"\u05d0\u05d5\u05e9","min_zoom":8.0,"name:la":"Augusta-Auscorum","name:uk":"\u041e\u0448","name:an":"Aush","name:ru":"\u041e\u0448","name:bg":"\u041e\u0448","id":391064866,"name:ca":"Aush","population":21960,"kind":"locality","name":"Auch","kind_detail":"town","name:sr":"\u041e\u0448","source":"openstreetmap.org","name:zh":"\u6b27\u4ec0"},"coordinates":[1704,2322]},{"type":"Point","properties":{"kind":"locality","name":"Blagnac","name:oc":"Blanhac","kind_detail":"town","source":"openstreetmap.org","min_zoom":8.0,"id":26691725,"population":21710},"coordinates":[4014,2310]},{"type":"Point","properties":{"kind":"locality","name":"Plaisance-du-Touch","name:oc":"Plasen\u00e7a-deu-Toish","kind_detail":"town","source":"openstreetmap.org","min_zoom":8.0,"id":26691742,"population":16091},"coordinates":[3780,1996]},{"type":"Point","properties":{"kind":"locality","name":"Cugnaux","name:oc":"Cunhaus","kind_detail":"town","source":"openstreetmap.org","min_zoom":8.0,"id":26691613,"population":15807},"coordinates":[3920,1882]},{"type":"Point","properties":{"name:ja":"\u30ab\u30b9\u30c6\u30eb\u30b5\u30e9\u30b6\u30f3","name:oc":"Los Sarrasins","name:kk":"\u041a\u0430\u0441\u0442\u0435\u043b\u044c\u0441\u0430\u0440\u0440\u0430\u0437\u0435\u043d","min_zoom":8.0,"name:la":"Castellum-Sarracenum","name:uk":"\u041a\u0430\u0441\u0442\u0435\u043b\u044c\u0441\u0430\u0440\u0440\u0430\u0437\u0435\u043d","name:be":"\u041a\u0430\u0441\u0442\u0435\u043b\u044c\u0441\u0430\u0440\u0440\u0430\u0437\u0435\u043d","name:ru":"\u041a\u0430\u0441\u0442\u0435\u043b\u044c\u0441\u0430\u0440\u0440\u0430\u0437\u0435\u043d","name:bg":"\u041a\u0430\u0441\u0442\u0435\u043b\u044c\u0441\u0430\u0440\u0440\u0430\u0437\u0435\u043d","id":394036979,"name:ca":"Los Sarrasins","population":12740,"kind":"locality","name":"Castelsarrasin","kind_detail":"town","name:sr":"\u041a\u0430\u0441\u0442\u0435\u043b\u0441\u0430\u0440\u0430\u0437\u0435\u043d","source":"openstreetmap.org","name:mk":"\u041a\u0430\u0441\u0442\u0435\u043b\u0441\u0430\u0440\u0430\u0437\u0435\u043d","name:zh":"\u5361\u65af\u7279\u5c14\u8428\u62c9\u6851"},"coordinates":[3225,3903]},{"type":"Point","properties":{"name:ja":"\u30b5\u30f3\uff1d\u30b4\u30fc\u30c0\u30f3\u30b9","name:ka":"\u10e1\u10d4\u10dc\u10e2-\u10d2\u10d0\u10e3\u10d3\u10d4\u10dc\u10e1\u10d8","name:oc":"Sent-Gauden\u00e7","name:cv":"\u0421\u0435\u043d-\u0413\u043e\u0434\u0435\u043d\u0441","name:br":"Sent-Gauden\u00e7","name:ur":"\u0633\u06cc\u0646\u0679-\u06af\u0648\u062f\u06cc\u0646\u0633","name:th":"\u0e41\u0e0b\u0e47\u0e07-\u0e42\u0e01\u0e14\u0e47\u0e2d\u0e07","name:uk":"\u0421\u0435\u043d-\u0413\u043e\u0434\u0435\u043d\u0441","name:an":"Sent-Gauden\u00e7","name:ru":"\u0421\u0435\u043d-\u0413\u043e\u0434\u0435\u043d\u0441","name:bg":"\u0421\u0435\u043d-\u0413\u043e\u0434\u0435\u043d\u0441","id":26691893,"name:ca":"Sent-Gauden\u00e7","population":11191,"name:fa":"\u0633\u0646-\u06af\u0648\u062f\u0646","kind":"locality","name":"Saint-Gaudens","kind_detail":"town","min_zoom":8.0,"source":"openstreetmap.org","name:zh":"\u5723\u6208\u5f53"},"coordinates":[2111,156]},{"type":"Point","properties":{"kind":"locality","name":"Fonsorbes","name:oc":"Fonts\u00f2rbas","kind_detail":"town","source":"openstreetmap.org","min_zoom":8.0,"id":26695118,"population":11111},"coordinates":[3587,1875]}]},"transit":{"type":"GeometryCollection","geometries":[{"type":"MultiLineString","properties":{"kind":"train","name":"TER 11 : Toulouse - Foix - Latour-de-Carol","service":"regional","sort_rank":275,"colour":"#e20227","source":"openstreetmap.org","min_zoom":6.0,"network":"TER Midi-Pyr\u00e9n\u00e9es","operator":"SNCF","ref":"TER 11","osm_relation":true,"colour_name":"crimson"},"arcs":[[5],[6],[7]]},{"type":"MultiLineString","properties":{"kind":"train","name":"TER 16 : Toulouse - Colomiers - Auch","sort_rank":275,"colour":"#e20227","source":"openstreetmap.org","min_zoom":6.0,"network":"TER Midi-Pyr\u00e9n\u00e9es","operator":"SNCF","ref":"TER 16","osm_relation":true,"colour_name":"crimson"},"arcs":[[8],[9],[10],[11],[12],[13],[14],[15],[16],[17],[18],[19],[20],[21],[22],[23],[24]]},{"type":"MultiLineString","properties":{"kind":"train","name":"IC 410 : Paris \u2212 Andorre \u2212 Latour-de-Carol","service":"national","sort_rank":275,"colour":"#92004c","source":"openstreetmap.org","min_zoom":6.0,"network":"Intercit\u00e9s","operator":"SNCF","ref":"IC 410","osm_relation":true,"colour_name":"purple"},"arcs":[[25],[26],[27],[28],[29],[30],[31],[32],[33],[34],[35],[36],[37],[38],[39],[40]]},{"type":"MultiLineString","properties":{"kind":"train","name":"TER 65 : Bayonne - Pau - Tarbes","sort_rank":275,"colour":"#a5cd39","source":"openstreetmap.org","min_zoom":6.0,"network":"TER Aquitaine","operator":"SNCF","ref":"TER 65","osm_relation":true,"colour_name":"yellowgreen"},"arcs":[[41],[42],[43],[44],[45],[46],[47]]},{"type":"MultiLineString","properties":{"kind":"train","network":"Intercit\u00e9s 100% \u00c9co","service":"national","sort_rank":275,"colour":"#79bb02","name":"ICE 408 : Paris \u2212 Toulouse","source":"openstreetmap.org","min_zoom":6.0,"operator":"SNCF","ref":"ICE 408","osm_relation":true,"colour_name":"olivedrab"},"arcs":[[48],[49],[50],[51],[52],[53],[54],[55],[56],[57],[58],[59],[60],[61],[62]]},{"type":"LineString","properties":{"kind":"subway","network":"fr_tisseo","sort_rank":275,"colour":"#DB001B","name":"M\u00e9tro Ligne A Direction Balma Gramont","source":"openstreetmap.org","min_zoom":8.0,"operator":"Tiss\u00e9o","ref":"A","id":-1557126,"osm_relation":true,"colour_name":"crimson"},"arcs":[63]},{"type":"MultiLineString","properties":{"kind":"train","network":"TER Midi-Pyr\u00e9n\u00e9es","sort_rank":275,"colour":"#e20227","name":"TER 19 : Toulouse - Cahors - Brive","source":"openstreetmap.org","min_zoom":6.0,"operator":"SNCF","ref":"TER 19","osm_relation":true,"colour_name":"crimson"},"arcs":[[64],[65],[66],[67],[68],[69],[70],[71],[72],[73],[74],[75],[76],[77],[78],[79]]},{"type":"MultiLineString","properties":{"kind":"train","name":"TER 18 : Toulouse - Agen - Bordeaux","sort_rank":275,"colour":"#e20227","source":"openstreetmap.org","min_zoom":6.0,"network":"TER Midi-Pyr\u00e9n\u00e9es","operator":"SNCF","ref":"TER 18","osm_relation":true,"colour_name":"crimson"},"arcs":[[80],[81],[82],[83],[84],[85],[86],[87],[88],[89],[90],[91],[92],[93],[94],[95],[96],[97],[98],[99],[100],[101]]},{"type":"MultiLineString","properties":{"kind":"train","network":"TER Midi-Pyr\u00e9n\u00e9es","sort_rank":275,"colour":"#e20227","name":"TER 15 : Toulouse - Tarbes - Pau","source":"openstreetmap.org","min_zoom":6.0,"operator":"SNCF","ref":"TER 15","osm_relation":true,"colour_name":"crimson"},"arcs":[[102],[103],[104],[105],[106],[107],[108],[109],[110],[111],[112],[113],[114],[115],[116],[117],[118],[119],[120],[121],[122],[123],[124],[125],[126],[127],[128],[129],[130],[131],[132],[133],[134],[135],[136],[137],[138],[139],[140],[141],[142],[143],[144],[145],[146],[147],[148],[149],[150],[151],[152],[153],[154],[155],[156],[157],[158],[159]]},{"type":"MultiLineString","properties":{"kind":"train","network":"Intercit\u00e9s","service":"national","sort_rank":275,"colour":"#92004c","name":"IC 408 : Paris \u2212 Limoges \u2212 Toulouse","source":"openstreetmap.org","min_zoom":6.0,"operator":"SNCF","ref":"IC 408","osm_relation":true,"colour_name":"purple"},"arcs":[[160],[161],[162],[163],[164],[165],[166],[167],[168],[169],[170],[171],[172],[173],[174]]},{"type":"LineString","properties":{"kind":"subway","network":"fr_tisseo","sort_rank":275,"colour":"#DB001B","name":"M\u00e9tro Ligne A Direction Basso Cambo","source":"openstreetmap.org","min_zoom":8.0,"operator":"Tiss\u00e9o","ref":"A","id":-179515,"osm_relation":true,"colour_name":"crimson"},"arcs":[175]},{"type":"MultiLineString","properties":{"kind":"train","network":"TGV","service":"national","sort_rank":275,"colour":"#e55c00","name":"TGV 752 : Lyon \u2212 Montpellier \u2212 Toulouse \u2212 Bordeaux \/ Perpignan \u2212 Barcelone","source":"openstreetmap.org","min_zoom":6.0,"operator":"SNCF","ref":"TGV 752","osm_relation":true,"colour_name":"orangered"},"arcs":[[176],[177],[178],[179],[180],[181],[182],[183],[184],[185],[186],[187],[188],[189],[190],[191],[192],[193],[194],[195],[196]]},{"type":"MultiLineString","properties":{"kind":"train","network":"fr_tisseo","sort_rank":275,"colour":"#F1821A","name":"Train Ligne C Direction Colomiers","source":"openstreetmap.org","min_zoom":6.0,"operator":"SNCF","ref":"C","osm_relation":true,"colour_name":"goldenrod"},"arcs":[[197],[198],[199],[200],[201],[202],[203],[204]]},{"type":"MultiLineString","properties":{"kind":"train","network":"TER Midi-Pyr\u00e9n\u00e9es","sort_rank":275,"colour":"#e20227","name":"TER 12 : Toulouse - Le Muret","source":"openstreetmap.org","min_zoom":6.0,"operator":"SNCF","ref":"TER 12","osm_relation":true,"colour_name":"crimson"},"arcs":[[205],[206]]},{"type":"MultiLineString","properties":{"kind":"train","network":"Intercit\u00e9s","service":"national","sort_rank":275,"colour":"#92004c","name":"IC 409 : Paris \u2212 Tarbes \u2212 Hendaye","source":"openstreetmap.org","min_zoom":6.0,"operator":"SNCF","ref":"IC 409","osm_relation":true,"colour_name":"purple"},"arcs":[[207],[208],[209],[210],[211],[212],[213],[214],[215],[216],[217],[218],[219],[220],[221],[222],[223],[224],[225],[226],[227],[228],[229],[230],[231],[232],[233],[234],[235],[236],[237],[238],[239],[240],[241],[242],[243],[244],[245],[246],[247],[248],[249],[250],[251],[252],[253],[254],[255],[256],[257],[258],[259],[260],[261],[262],[263],[264],[265],[266],[267],[268],[269],[270],[271],[272],[273],[274],[275],[276],[277],[278]]},{"type":"MultiLineString","properties":{"kind":"train","network":"TGV","service":"national","sort_rank":275,"colour":"#92004c","name":"TGV 406 : Paris \u2212 Dax \u2212 Hendaye\/Tarbes","source":"openstreetmap.org","min_zoom":6.0,"operator":"SNCF","ref":"TGV 406","osm_relation":true,"colour_name":"purple"},"arcs":[[279],[280],[281],[282],[283],[284],[285]]},{"type":"MultiLineString","properties":{"kind":"train","network":"Intercit\u00e9s","service":"national","sort_rank":275,"colour":"#92004c","name":"IC 416 : Toulouse \u2212 Pau \u2212 Bayonne \u2212 Hendaye","source":"openstreetmap.org","min_zoom":6.0,"operator":"SNCF","ref":"IC 416","osm_relation":true,"colour_name":"purple"},"arcs":[[286],[287],[288],[289],[290],[291],[292],[293],[294],[295],[296],[297],[298],[299],[300],[301],[302],[303],[304],[305],[306],[307],[308],[309],[310],[311],[312],[313],[314],[315],[316],[317],[318],[319],[320],[321],[322],[323],[324],[325],[326],[327],[328],[329],[330],[331],[332],[333],[334],[335],[336],[337],[338],[339],[340],[341],[342]]},{"type":"LineString","properties":{"kind":"train","network":"TGV Europe","service":"international","sort_rank":275,"min_zoom":5.0,"source":"openstreetmap.org","name:fr":"TGV : Toulouse \u2212 Barcelone","operator":"SNCF-Renfe","ref":"TGV","osm_relation":true,"name":"TGV : Toulouse \u2212 Barcelona"},"arcs":[343]},{"type":"MultiLineString","properties":{"kind":"train","network":"Intercit\u00e9s","service":"national","sort_rank":275,"colour":"#92004c","name":"IC 412 : Paris \u2212 Toulouse \u2212 Port-Bou","source":"openstreetmap.org","min_zoom":6.0,"operator":"SNCF","ref":"IC 412","osm_relation":true,"colour_name":"purple"},"arcs":[[344],[345],[346],[347],[348],[349],[350],[351],[352],[353],[354],[355],[356]]},{"type":"MultiLineString","properties":{"kind":"train","name":"TER 64 : Bordeaux - Dax - Pau","sort_rank":275,"colour":"#0094ad","source":"openstreetmap.org","min_zoom":6.0,"network":"TER Aquitaine","operator":"SNCF","ref":"TER 64","osm_relation":true,"colour_name":"lightteal"},"arcs":[[357],[358],[359],[360],[361],[362],[363]]},{"type":"MultiLineString","properties":{"kind":"train","name":"IC 740 : Bordeaux \u2212 Toulouse \u2212 Montpellier \u2212 Marseille \u2212 Nice","service":"national","sort_rank":275,"colour":"#e55c00","source":"openstreetmap.org","min_zoom":6.0,"network":"Intercit\u00e9s","operator":"SNCF","ref":"IC 740","osm_relation":true,"colour_name":"orangered"},"arcs":[[364],[365],[366],[367],[368],[369],[370],[371],[372],[373],[374],[375],[376],[377],[378],[379],[380],[381],[382],[383]]},{"type":"MultiLineString","properties":{"kind":"train","name":"Train Ligne D","sort_rank":275,"source":"openstreetmap.org","min_zoom":6.0,"operator":"SNCF","ref":"D","osm_relation":true,"network":"fr_tisseo"},"arcs":[[384],[385]]},{"type":"MultiLineString","properties":{"kind":"train","network":"TGV","service":"national","sort_rank":275,"colour":"#92004c","name":"TGV 407 : Paris \u2212 Bordeaux \u2212 Toulouse","source":"openstreetmap.org","min_zoom":6.0,"operator":"SNCF","ref":"TGV 407","osm_relation":true,"colour_name":"purple"},"arcs":[[386],[387],[388],[389],[390],[391],[392],[393],[394],[395],[396],[397],[398],[399],[400],[401],[402],[403],[404],[405],[406],[407]]},{"type":"MultiLineString","properties":{"kind":"train","network":"TER Midi-Pyr\u00e9n\u00e9es","sort_rank":275,"colour":"#e20227","name":"TER 17 : Toulouse - Montauban","source":"openstreetmap.org","min_zoom":6.0,"operator":"SNCF","ref":"TER 17","osm_relation":true,"colour_name":"crimson"},"arcs":[[408],[409],[410],[411],[412],[413],[414],[415],[416],[417],[418],[419],[420],[421],[422]]},{"type":"MultiLineString","properties":{"kind":"train","network":"fr_tisseo","sort_rank":275,"colour":"#F1821A","name":"Train Ligne C Direction Ar\u00e8nes","source":"openstreetmap.org","min_zoom":6.0,"operator":"SNCF","ref":"C","osm_relation":true,"colour_name":"goldenrod"},"arcs":[[423],[424],[425],[426],[427],[428],[429],[430]]}]},"pois":{"type":"GeometryCollection","geometries":[]},"boundaries":{"type":"GeometryCollection","geometries":[{"type":"MultiLineString","properties":{"name:left:br":"Okitania","name:right:nl":"Nieuw-Aquitani\u00eb","name:left:sv":"Occitanien","id:right":-3792880,"name:left:no":"Oksitania","min_zoom":8.0,"name:left:lt":"Oksitanija","old_name:right:es":"Aquitania-Lemos\u00edn-Poitou-Charentes","id":-3792883,"name:right":"Nouvelle-Aquitaine","old_name:right:fr":"Aquitaine-Limousin-Poitou-Charentes","name:left:eo":"Okcitanio","name:left:en":"Occitania","name:right:ca":"Nova Aquit\u00e0nia","kind_detail":"4","name:left:ca":"Occit\u00e0nia","source":"openstreetmap.org","name:right:ar":"\u0622\u0643\u064a\u062a\u0646 \u062c\u062f\u064a\u062f","name:left:nl":"Occitani\u00eb","id:left":-3792883,"name:left:es":"Occitania","name:right:cs":"Nov\u00e1 Akvit\u00e1nie","name:left:cs":"Okcit\u00e1nie","name:left":"Occitanie","name:right:es":"Nueva Aquitania","name:left:ar":"\u0627\u0644\u0623\u0648\u0643\u064a\u062a\u0627\u0646\u064a\u0629","name:right:eu":"Akitania Berria","name:left:pl":"Oksytania","old_name:right":"Aquitaine-Limousin-Poitou-Charentes","name:right:it":"Nuova Aquitania","name:left:ro":"Occitania","name:right:oc":"N\u00f2va Aquit\u00e0nia","name:left:pt":"Occit\u00e2nia","name:left:ru":"\u041e\u043a\u0441\u0438\u0442\u0430\u043d\u0438\u044f","name:left:oc":"Occit\u00e0nia","name:left:it":"Occitania","name:right:en":"New Aquitaine","osm_relation":true,"kind":"region","name":"Occitanie - Nouvelle-Aquitaine","old_name:right:ar":"\u0622\u0643\u064a\u062a\u0646-\u0644\u064a\u0645\u0648\u0632\u064a\u0646-\u0628\u0648\u0627\u062a\u0648-\u0634\u0627\u0631\u0627\u0646\u062a","name:left:da":"Occitanien","name:left:de":"Okzitanien","sort_rank":256,"name:right:de":"Neu-Aquitanien"},"arcs":[[0],[1],[2],[3],[4]]}]},"roads":{"type":"GeometryCollection","geometries":[{"type":"MultiLineString","properties":{"bus_network":"RRR Occitanie","sort_rank":380,"kind_detail":"primary","kind":"major_road","source":"openstreetmap.org","min_zoom":8.0,"bus_shield_text":"921","ref":"D 999"},"arcs":[[431],[432],[433]]},{"type":"MultiLineString","properties":{"bus_network":"fr_alliance","sort_rank":380,"kind_detail":"primary","kind":"major_road","source":"openstreetmap.org","min_zoom":8.0,"bus_shield_text":"6","ref":"N 21"},"arcs":[[434],[435],[436],[437]]},{"type":"MultiLineString","properties":{"kind":"minor_road","sort_rank":360,"kind_detail":"residential","is_bicycle_related":true,"bicycle_shield_text":"V81","bicycle_network":"ncn","source":"openstreetmap.org","min_zoom":8.0},"arcs":[[438],[439],[440],[441],[442],[443],[444]]},{"type":"LineString","properties":{"kind":"major_road","sort_rank":379,"kind_detail":"secondary","is_bicycle_related":true,"bus_network":"Communaut\u00e9 de communes, Saint-Gaudens","bicycle_shield_text":"V81","bicycle_network":"ncn","source":"openstreetmap.org","min_zoom":8.0,"bus_shield_text":"D","ref":"D 21f","id":37727515},"arcs":[445]},{"type":"MultiLineString","properties":{"source":"openstreetmap.org","kind":"major_road","sort_rank":380,"kind_detail":"primary","ref":"D 506","min_zoom":8.0},"arcs":[[446],[447],[448]]},{"type":"MultiLineString","properties":{"source":"openstreetmap.org","kind":"major_road","landuse_kind":"urban_area","sort_rank":380,"kind_detail":"primary","min_zoom":8.0},"arcs":[[449],[450],[451],[452],[453],[454],[455],[456],[457],[458],[459],[460],[461],[462],[463],[464],[465],[466],[467],[468],[469],[470],[471],[472],[473],[474],[475],[476],[477],[478],[479],[480],[481],[482],[483],[484],[485],[486],[487],[488],[489],[490],[491],[492],[493],[494],[495],[496],[497],[498],[499]]},{"type":"MultiLineString","properties":{"source":"openstreetmap.org","kind":"major_road","landuse_kind":"urban_area","sort_rank":380,"kind_detail":"primary","ref":"D 120a","min_zoom":8.0},"arcs":[[500],[501],[502],[503]]},{"type":"MultiLineString","properties":{"kind":"major_road","sort_rank":377,"kind_detail":"tertiary","is_bicycle_related":true,"bicycle_shield_text":"EV3","bicycle_network":"icn","source":"openstreetmap.org","min_zoom":8.0},"arcs":[[504],[505]]},{"type":"MultiLineString","properties":{"kind":"highway","network":"e-road","sort_rank":383,"kind_detail":"motorway","source":"openstreetmap.org","min_zoom":8.0,"all_networks":["e-road","FR:A-road"],"shield_text":"09","ref":"A 20","all_shield_texts":["09","20"]},"arcs":[[506],[507],[508],[509],[510],[511],[512],[513],[514],[515],[516],[517],[518],[519],[520],[521],[522],[523]]},{"type":"LineString","properties":{"kind":"major_road","sort_rank":377,"kind_detail":"tertiary","is_bicycle_related":true,"bicycle_shield_text":"EV3","bicycle_network":"icn","source":"openstreetmap.org","min_zoom":8.0,"ref":"D 43","id":355770195},"arcs":[524]},{"type":"MultiLineString","properties":{"source":"openstreetmap.org","kind":"major_road","sort_rank":381,"kind_detail":"trunk","ref":"N 20","min_zoom":8.0},"arcs":[[525],[526]]},{"type":"MultiLineString","properties":{"source":"openstreetmap.org","kind":"major_road","sort_rank":380,"kind_detail":"primary","ref":"D 999","min_zoom":8.0},"arcs":[[527],[528],[529],[530]]},{"type":"MultiLineString","properties":{"kind":"major_road","sort_rank":380,"kind_detail":"primary","bus_network":"fr_alezan","source":"openstreetmap.org","min_zoom":8.0,"bus_shield_text":"2","landuse_kind":"residential","ref":"N 21","id":35672855},"arcs":[[531],[532]]},{"type":"LineString","properties":{"bus_network":"Communaut\u00e9 de communes, Saint-Gaudens","bicycle_shield_text":"V81","min_zoom":8.0,"bus_shield_text":"G","loc_name":"Route du Baz\u00e8re","cycleway":"lane","id":29483103,"kind":"major_road","network":null,"sort_rank":380,"kind_detail":"primary","is_bicycle_related":true,"bicycle_network":"ncn","source":"openstreetmap.org","shield_text":"8","ref":"D 8"},"arcs":[533]},{"type":"LineString","properties":{"kind":"major_road","sort_rank":380,"kind_detail":"primary","bus_shield_text":"4","bus_network":"fr_alezan","source":"openstreetmap.org","min_zoom":8.0,"old_name":"y","landuse_kind":"urban_area","ref":"N 21","id":25049330},"arcs":[534]},{"type":"LineString","properties":{"kind":"path","sort_rank":354,"kind_detail":"path","is_bicycle_related":true,"bicycle_shield_text":"V80","bicycle_network":"ncn","source":"openstreetmap.org","min_zoom":8.0,"id":229162858},"arcs":[535]},{"type":"MultiLineString","properties":{"source":"openstreetmap.org","kind":"major_road","landuse_kind":"residential","sort_rank":381,"kind_detail":"trunk","ref":"N 124","min_zoom":8.0},"arcs":[[536],[537]]},{"type":"LineString","properties":{"bus_network":"fr_arc_en_ciel","sort_rank":380,"kind_detail":"primary","kind":"major_road","source":"openstreetmap.org","min_zoom":8.0,"bus_shield_text":"\u274965","ref":"D 626"},"arcs":[538]},{"type":"MultiLineString","properties":{"source":"openstreetmap.org","kind":"major_road","sort_rank":380,"kind_detail":"primary","ref":"D 626","min_zoom":8.0},"arcs":[[539],[540]]},{"type":"LineString","properties":{"kind":"major_road","sort_rank":380,"kind_detail":"primary","bus_network":"fr_alezan","source":"openstreetmap.org","min_zoom":8.0,"bus_shield_text":"6","landuse_kind":"urban_area","id":28830796},"arcs":[541]},{"type":"MultiLineString","properties":{"bus_network":"fr_tisseo","sort_rank":380,"kind_detail":"primary","kind":"major_road","source":"openstreetmap.org","min_zoom":8.0,"bus_shield_text":"30","landuse_kind":"urban_area"},"arcs":[[542],[543],[544],[545]]},{"type":"MultiLineString","properties":{"bus_network":"fr_alliance","sort_rank":380,"kind_detail":"primary","kind":"major_road","source":"openstreetmap.org","min_zoom":8.0,"bus_shield_text":"1","ref":"N 21"},"arcs":[[546],[547]]},{"type":"MultiLineString","properties":{"kind":"major_road","sort_rank":377,"kind_detail":"tertiary","is_bicycle_related":true,"bicycle_shield_text":"V81","bicycle_network":"ncn","source":"openstreetmap.org","min_zoom":8.0,"ref":"D 13E"},"arcs":[[548],[549],[550]]},{"type":"LineString","properties":{"kind":"major_road","sort_rank":377,"kind_detail":"tertiary","is_bicycle_related":true,"bicycle_shield_text":"EV3","bicycle_network":"icn","source":"openstreetmap.org","min_zoom":8.0,"ref":"D 5","id":355766787},"arcs":[551]},{"type":"LineString","properties":{"source":"openstreetmap.org","kind":"major_road","sort_rank":380,"kind_detail":"primary","ref":"D 11","min_zoom":8.0},"arcs":[552]},{"type":"LineString","properties":{"kind":"major_road","sort_rank":380,"kind_detail":"primary","bus_network":"Le Bus TM","source":"openstreetmap.org","min_zoom":8.0,"bus_shield_text":"G","landuse_kind":"urban_area","ref":"D 999","id":36743105},"arcs":[553]},{"type":"LineString","properties":{"bus_network":"transport scolaire 31","sort_rank":380,"kind_detail":"primary","kind":"major_road","source":"openstreetmap.org","min_zoom":8.0,"bus_shield_text":"S7002A01","landuse_kind":"urban_area","ref":"D 2"},"arcs":[554]},{"type":"LineString","properties":{"source":"openstreetmap.org","kind":"major_road","sort_rank":380,"kind_detail":"primary","ref":"D 15","min_zoom":8.0},"arcs":[555]},{"type":"LineString","properties":{"kind":"major_road","sort_rank":380,"kind_detail":"primary","is_bicycle_related":true,"bus_network":"fr_alezan","cycleway":"lane","source":"openstreetmap.org","min_zoom":8.0,"bus_shield_text":"3","landuse_kind":"urban_area","id":372318157},"arcs":[556]},{"type":"MultiLineString","properties":{"bus_network":"fr_alezan","sort_rank":380,"kind_detail":"primary","kind":"major_road","source":"openstreetmap.org","min_zoom":8.0,"bus_shield_text":"1","landuse_kind":"urban_area","ref":"N 21"},"arcs":[[557],[558]]},{"type":"LineString","properties":{"kind":"major_road","network":null,"sort_rank":380,"kind_detail":"primary","is_bicycle_related":true,"bicycle_shield_text":"Itin\u00e9raire Grand Gabarit A380","bicycle_network":"rcn","source":"openstreetmap.org","min_zoom":8.0,"shield_text":"224","ref":"N 224","id":34213496},"arcs":[559]},{"type":"LineString","properties":{"kind":"major_road","network":null,"sort_rank":380,"kind_detail":"primary","source":"openstreetmap.org","min_zoom":8.0,"shield_text":"930","ref":"D 930"},"arcs":[560]},{"type":"LineString","properties":{"kind":"major_road","network":null,"sort_rank":377,"kind_detail":"tertiary","is_bicycle_related":true,"bicycle_shield_text":"V81","bicycle_network":"ncn","source":"openstreetmap.org","min_zoom":8.0,"shield_text":"34","ref":"D 34"},"arcs":[561]},{"type":"LineString","properties":{"kind":"major_road","sort_rank":380,"landuse_kind":"urban_area","source":"openstreetmap.org","min_zoom":8.0,"kind_detail":"primary","ref":"N 124","id":325147957},"arcs":[562]},{"type":"MultiLineString","properties":{"bus_network":"fr_arc_en_ciel","sort_rank":380,"kind_detail":"primary","kind":"major_road","source":"openstreetmap.org","min_zoom":8.0,"bus_shield_text":"\u274961","landuse_kind":"urban_area","ref":"D 120"},"arcs":[[563],[564]]},{"type":"MultiLineString","properties":{"bus_network":"fr_alezan","sort_rank":380,"kind_detail":"primary","kind":"major_road","source":"openstreetmap.org","min_zoom":8.0,"bus_shield_text":"8","landuse_kind":"urban_area","ref":"N 21"},"arcs":[[565],[566]]},{"type":"MultiLineString","properties":{"kind":"minor_road","sort_rank":360,"kind_detail":"unclassified","is_bicycle_related":true,"bicycle_shield_text":"V80","bicycle_network":"ncn","source":"openstreetmap.org","min_zoom":8.0},"arcs":[[567],[568],[569],[570]]},{"type":"MultiLineString","properties":{"source":"openstreetmap.org","kind":"major_road","kind_detail":"trunk","sort_rank":381,"landuse_kind":"urban_area","ref":"N 21","min_zoom":8.0},"arcs":[[571],[572]]},{"type":"MultiLineString","properties":{"bus_network":"Le Bus TM","sort_rank":380,"kind_detail":"primary","kind":"major_road","source":"openstreetmap.org","min_zoom":8.0,"bus_shield_text":"C","landuse_kind":"urban_area"},"arcs":[[573],[574],[575]]},{"type":"LineString","properties":{"kind":"major_road","sort_rank":380,"kind_detail":"primary","is_bicycle_related":true,"bus_network":"fr_alezan","cycleway":"lane","source":"openstreetmap.org","min_zoom":8.0,"bus_shield_text":"8","landuse_kind":"urban_area","ref":"D 817","id":373179066},"arcs":[576]},{"type":"MultiLineString","properties":{"sort_rank":380,"kind_detail":"primary","min_zoom":8.0,"kind":"major_road","source":"openstreetmap.org"},"arcs":[[577],[578],[579],[580],[581],[582],[583],[584],[585],[586],[587],[588],[589],[590],[591],[592],[593],[594],[595],[596],[597],[598],[599],[600],[601],[602],[603],[604],[605],[606],[607],[608],[609],[610],[611],[612],[613],[614],[615],[616],[617],[618],[619],[620],[621],[622],[623],[624],[625],[626],[627],[628],[629],[630],[631],[632],[633],[634],[635],[636],[637],[638],[639],[640],[641],[642],[643],[644],[645],[646],[647],[648],[649],[650],[651],[652],[653],[654],[655],[656],[657],[658],[659],[660],[661],[662],[663],[664],[665],[666],[667],[668],[669],[670],[671],[672],[673],[674],[675],[676],[677],[678],[679],[680],[681],[682],[683],[684],[685],[686],[687],[688],[689],[690],[691],[692],[693],[694],[695],[696],[697],[698],[699],[700],[701]]},{"type":"MultiLineString","properties":{"source":"openstreetmap.org","kind":"major_road","sort_rank":380,"kind_detail":"primary","ref":"N 524","min_zoom":8.0},"arcs":[[702],[703],[704],[705],[706]]},{"type":"MultiLineString","properties":{"source":"openstreetmap.org","kind":"major_road","kind_detail":"trunk","sort_rank":381,"landuse_kind":"urban_area","ref":"D 901","min_zoom":8.0},"arcs":[[707],[708],[709]]},{"type":"MultiLineString","properties":{"kind":"highway","network":"e-road","sort_rank":383,"landuse_kind":"urban_area","source":"openstreetmap.org","min_zoom":8.0,"all_networks":["e-road","FR:A-road"],"kind_detail":"motorway","shield_text":"72","ref":"A 62","all_shield_texts":["72","62"]},"arcs":[[710],[711]]},{"type":"MultiLineString","properties":{"bus_network":"fr_alliance","sort_rank":380,"kind_detail":"primary","kind":"major_road","source":"openstreetmap.org","min_zoom":8.0,"bus_shield_text":"2","ref":"N 21"},"arcs":[[712],[713],[714]]},{"type":"LineString","properties":{"kind":"major_road","sort_rank":380,"landuse_kind":"urban_area","source":"openstreetmap.org","min_zoom":8.0,"kind_detail":"primary","ref":"D 958","id":39115561},"arcs":[715]},{"type":"LineString","properties":{"kind":"path","sort_rank":354,"kind_detail":"cycleway","is_bicycle_related":true,"bicycle_shield_text":"V81","bicycle_network":"ncn","source":"openstreetmap.org","min_zoom":8.0,"id":56678883},"arcs":[716]},{"type":"LineString","properties":{"source":"openstreetmap.org","kind":"major_road","sort_rank":380,"kind_detail":"primary","ref":"D 34E","min_zoom":8.0},"arcs":[717]},{"type":"LineString","properties":{"kind":"major_road","sort_rank":380,"kind_detail":"primary","bus_network":"fr_alezan","source":"openstreetmap.org","min_zoom":8.0,"bus_shield_text":"1","landuse_kind":"residential","ref":"D 935","id":121803905},"arcs":[718]},{"type":"MultiLineString","properties":{"kind":"path","sort_rank":354,"kind_detail":"path","is_bicycle_related":true,"bicycle_shield_text":"EV3","bicycle_network":"icn","source":"openstreetmap.org","min_zoom":8.0},"arcs":[[719],[720]]},{"type":"LineString","properties":{"kind":"major_road","sort_rank":377,"kind_detail":"tertiary","is_bicycle_related":true,"bicycle_shield_text":"V83","bicycle_network":"ncn","source":"openstreetmap.org","min_zoom":8.0,"ref":"D 25","id":357479869},"arcs":[721]},{"type":"LineString","properties":{"bus_network":"fr_tisseo","sort_rank":380,"kind_detail":"primary","kind":"major_road","source":"openstreetmap.org","min_zoom":8.0,"bus_shield_text":"11","landuse_kind":"urban_area"},"arcs":[722]},{"type":"MultiLineString","properties":{"kind":"highway","network":"FR:A-road","sort_rank":383,"landuse_kind":"urban_area","source":"openstreetmap.org","min_zoom":8.0,"all_networks":["FR:A-road"],"kind_detail":"motorway","shield_text":"620","ref":"A 620","all_shield_texts":["620"]},"arcs":[[723],[724],[725],[726],[727],[728]]},{"type":"LineString","properties":{"bus_network":"Communaut\u00e9 de communes, Saint-Gaudens","network":null,"sort_rank":377,"kind_detail":"tertiary","is_bicycle_related":true,"kind":"major_road","bicycle_shield_text":"V81","bicycle_network":"ncn","source":"openstreetmap.org","min_zoom":8.0,"bus_shield_text":null,"shield_text":"88","ref":"D 88","id":57079204},"arcs":[729]},{"type":"MultiLineString","properties":{"kind":"major_road","sort_rank":380,"kind_detail":"primary","is_bicycle_related":true,"cycleway":"lane","source":"openstreetmap.org","min_zoom":8.0,"ref":"D 921"},"arcs":[[730],[731]]},{"type":"LineString","properties":{"kind":"highway","sort_rank":383,"landuse_kind":"urban_area","source":"openstreetmap.org","min_zoom":8.0,"kind_detail":"motorway","ref":"A 624","id":241952677},"arcs":[732]},{"type":"MultiLineString","properties":{"source":"openstreetmap.org","kind":"major_road","sort_rank":380,"kind_detail":"primary","ref":"D 928","min_zoom":8.0},"arcs":[[733],[734],[735],[736],[737],[738],[739],[740],[741],[742],[743],[744],[745],[746],[747],[748],[749],[750],[751],[752],[753],[754],[755],[756]]},{"type":"MultiLineString","properties":{"kind":"minor_road","sort_rank":360,"landuse_kind":"residential","is_bicycle_related":true,"bicycle_shield_text":"V80","bicycle_network":"ncn","source":"openstreetmap.org","min_zoom":8.0,"kind_detail":"unclassified"},"arcs":[[757],[758]]},{"type":"LineString","properties":{"kind":"major_road","network":null,"sort_rank":379,"kind_detail":"secondary","is_bicycle_related":true,"bicycle_shield_text":"V81","bicycle_network":"ncn","source":"openstreetmap.org","min_zoom":8.0,"shield_text":"825","ref":"D 825"},"arcs":[759]},{"type":"LineString","properties":{"kind":"major_road","sort_rank":381,"kind_detail":"trunk","bus_network":"fr_tisseo","source":"openstreetmap.org","min_zoom":8.0,"bus_shield_text":"L2","landuse_kind":"residential","ref":"N 124","id":179269422},"arcs":[760]},{"type":"MultiLineString","properties":{"bus_network":"fr_tisseo","network":null,"sort_rank":381,"landuse_kind":"urban_area","kind":"major_road","source":"openstreetmap.org","min_zoom":8.0,"bus_shield_text":"21","shield_text":"980","kind_detail":"trunk","ref":"D 980"},"arcs":[[761],[762]]},{"type":"MultiLineString","properties":{"bus_network":"fr_alezan","sort_rank":380,"kind_detail":"primary","kind":"major_road","source":"openstreetmap.org","min_zoom":8.0,"bus_shield_text":"2","landuse_kind":"urban_area","ref":"N 21"},"arcs":[[763],[764]]},{"type":"LineString","properties":{"source":"openstreetmap.org","kind":"major_road","sort_rank":380,"kind_detail":"primary","ref":"D 924","min_zoom":8.0},"arcs":[765]},{"type":"LineString","properties":{"kind":"major_road","sort_rank":379,"kind_detail":"secondary","is_bicycle_related":true,"bus_network":"Communaut\u00e9 de communes, Saint-Gaudens","bicycle_shield_text":"V81","bicycle_network":"ncn","source":"openstreetmap.org","min_zoom":8.0,"bus_shield_text":"G","ref":"D 21","id":26355387},"arcs":[766]},{"type":"LineString","properties":{"bus_network":"fr_alezan","sort_rank":380,"kind_detail":"primary","kind":"major_road","source":"openstreetmap.org","min_zoom":8.0,"bus_shield_text":"11","landuse_kind":"urban_area","ref":"D 817"},"arcs":[767]},{"type":"LineString","properties":{"bus_network":"fr_alliance","sort_rank":380,"kind_detail":"primary","kind":"major_road","source":"openstreetmap.org","min_zoom":8.0,"bus_shield_text":"6","ref":"D 929"},"arcs":[768]},{"type":"MultiLineString","properties":{"bus_network":"fr_arc_en_ciel","sort_rank":381,"landuse_kind":"urban_area","kind":"major_road","source":"openstreetmap.org","min_zoom":8.0,"bus_shield_text":"18","kind_detail":"trunk"},"arcs":[[769],[770]]},{"type":"MultiLineString","properties":{"source":"openstreetmap.org","kind":"major_road","sort_rank":380,"kind_detail":"primary","ref":"D 20","min_zoom":8.0},"arcs":[[771],[772],[773],[774],[775],[776]]},{"type":"LineString","properties":{"kind":"major_road","sort_rank":379,"kind_detail":"secondary","is_bicycle_related":true,"bicycle_shield_text":"EV3","bicycle_network":"icn","source":"openstreetmap.org","min_zoom":8.0,"ref":"D 656","id":355770204},"arcs":[777]},{"type":"MultiLineString","properties":{"bus_network":"fr_tisseo","sort_rank":380,"kind_detail":"primary","kind":"major_road","source":"openstreetmap.org","min_zoom":8.0,"bus_shield_text":"30","landuse_kind":"urban_area","ref":"D 902"},"arcs":[[778],[779],[780],[781],[782]]},{"type":"MultiLineString","properties":{"bus_network":"fr_arc_en_ciel","sort_rank":380,"kind_detail":"primary","kind":"major_road","source":"openstreetmap.org","min_zoom":8.0,"bus_shield_text":"\u274961","landuse_kind":"urban_area"},"arcs":[[783],[784],[785],[786],[787],[788]]},{"type":"LineString","properties":{"bus_network":"Communaut\u00e9 de communes, Saint-Gaudens","sort_rank":377,"kind_detail":"tertiary","is_bicycle_related":true,"kind":"major_road","bicycle_shield_text":"V81","bicycle_network":"ncn","source":"openstreetmap.org","min_zoom":8.0,"bus_shield_text":null,"ref":"D 88a"},"arcs":[789]},{"type":"LineString","properties":{"cycleway_right":"lane","sort_rank":380,"kind_detail":"primary","is_bicycle_related":true,"kind":"major_road","bus_network":"fr_alezan","source":"openstreetmap.org","min_zoom":8.0,"bus_shield_text":"2","landuse_kind":"residential","id":46271732},"arcs":[790]},{"type":"LineString","properties":{"kind":"major_road","sort_rank":377,"kind_detail":"tertiary","is_bicycle_related":true,"bicycle_shield_text":"EV3","bicycle_network":"icn","source":"openstreetmap.org","min_zoom":8.0,"ref":"D 44"},"arcs":[791]},{"type":"LineString","properties":{"source":"openstreetmap.org","kind":"major_road","sort_rank":380,"kind_detail":"primary","ref":"D 211","min_zoom":8.0,"id":118741596},"arcs":[792]},{"type":"LineString","properties":{"kind":"major_road","sort_rank":380,"kind_detail":"primary","bus_network":"fr_arc_en_ciel","source":"openstreetmap.org","min_zoom":8.0,"bus_shield_text":"Hop! 2","landuse_kind":"urban_area","id":147703812},"arcs":[793]},{"type":"MultiLineString","properties":{"source":"openstreetmap.org","kind":"major_road","landuse_kind":"urban_area","sort_rank":380,"kind_detail":"primary","ref":"D 935","min_zoom":8.0},"arcs":[[794],[795],[796],[797],[798]]},{"type":"LineString","properties":{"kind":"major_road","service":"parking_aisle","sort_rank":380,"kind_detail":"primary","bus_network":"Le Bus TM","source":"openstreetmap.org","min_zoom":8.0,"bus_shield_text":"C","landuse_kind":"urban_area","id":36702385},"arcs":[799]},{"type":"MultiLineString","properties":{"bus_network":"Le Bus TM","sort_rank":380,"kind_detail":"primary","is_bicycle_related":true,"kind":"major_road","bicycle_shield_text":"V87","bicycle_network":"ncn","source":"openstreetmap.org","min_zoom":8.0,"bus_shield_text":"D","landuse_kind":"urban_area"},"arcs":[[800],[801],[802]]},{"type":"MultiLineString","properties":{"kind":"highway","network":"e-road","sort_rank":383,"kind_detail":"motorway","source":"openstreetmap.org","min_zoom":8.0,"all_networks":["e-road","FR:A-road"],"shield_text":"80","ref":"A 64","all_shield_texts":["80","64"]},"arcs":[[803],[804],[805],[806],[807],[808],[809],[810],[811],[812],[813],[814],[815],[816],[817],[818],[819],[820],[821],[822],[823],[824],[825],[826],[827],[828],[829],[830],[831],[832],[833],[834],[835],[836],[837],[838],[839],[840],[841],[842]]},{"type":"MultiLineString","properties":{"kind":"highway","network":"FR:A-road","sort_rank":383,"landuse_kind":"urban_area","source":"openstreetmap.org","min_zoom":8.0,"all_networks":["FR:A-road"],"kind_detail":"motorway","shield_text":"621","ref":"A 621","all_shield_texts":["621"]},"arcs":[[843],[844],[845],[846]]},{"type":"MultiLineString","properties":{"bus_network":"Le Bus TM","sort_rank":380,"kind_detail":"primary","is_bicycle_related":true,"kind":"major_road","bicycle_shield_text":"V87","bicycle_network":"ncn","source":"openstreetmap.org","min_zoom":8.0,"bus_shield_text":"A","landuse_kind":"urban_area","ref":"D 958"},"arcs":[[847],[848],[849],[850],[851]]},{"type":"LineString","properties":{"kind":"major_road","sort_rank":380,"landuse_kind":"urban_area","source":"openstreetmap.org","min_zoom":8.0,"kind_detail":"primary","ref":"N 2020","id":42149483},"arcs":[852]},{"type":"MultiLineString","properties":{"bus_network":"fr_arc_en_ciel","sort_rank":381,"landuse_kind":"urban_area","kind":"major_road","source":"openstreetmap.org","min_zoom":8.0,"bus_shield_text":"43","kind_detail":"trunk","ref":"N 124"},"arcs":[[853],[854]]},{"type":"MultiLineString","properties":{"source":"openstreetmap.org","kind":"major_road","landuse_kind":"urban_area","sort_rank":380,"kind_detail":"primary","ref":"D 115","min_zoom":8.0},"arcs":[[855],[856],[857]]},{"type":"MultiLineString","properties":{"bus_network":"fr_alezan","sort_rank":380,"kind_detail":"primary","kind":"major_road","source":"openstreetmap.org","min_zoom":8.0,"bus_shield_text":"16","landuse_kind":"urban_area","ref":"N 21"},"arcs":[[858],[859]]},{"type":"MultiLineString","properties":{"bus_network":"Le Bus TM","sort_rank":380,"kind_detail":"primary","kind":"major_road","source":"openstreetmap.org","min_zoom":8.0,"bus_shield_text":"D","ref":"D 930"},"arcs":[[860],[861],[862],[863]]},{"type":"LineString","properties":{"bus_network":"Communaut\u00e9 de communes, Saint-Gaudens","network":null,"sort_rank":380,"kind_detail":"primary","loc_name":"Route du Baz\u00e8re","kind":"major_road","source":"openstreetmap.org","min_zoom":8.0,"bus_shield_text":"G","shield_text":"8","ref":"D 8"},"arcs":[864]},{"type":"MultiLineString","properties":{"source":"openstreetmap.org","kind":"major_road","sort_rank":380,"kind_detail":"primary","ref":"D 813","min_zoom":8.0},"arcs":[[865],[866],[867],[868],[869],[870],[871],[872],[873],[874],[875],[876],[877],[878],[879],[880],[881],[882],[883],[884],[885],[886],[887],[888],[889],[890],[891],[892]]},{"type":"LineString","properties":{"kind":"major_road","sort_rank":377,"kind_detail":"tertiary","is_bicycle_related":true,"bicycle_shield_text":"EV3","bicycle_network":"icn","source":"openstreetmap.org","min_zoom":8.0,"ref":"D 35","id":180959015},"arcs":[893]},{"type":"LineString","properties":{"bus_network":"Communaut\u00e9 de communes, Saint-Gaudens","network":null,"sort_rank":380,"kind_detail":"primary","is_bicycle_related":true,"kind":"major_road","bicycle_shield_text":"V81","bicycle_network":"ncn","source":"openstreetmap.org","min_zoom":8.0,"bus_shield_text":"G","loc_name":"Route du Baz\u00e8re","id":29483230,"shield_text":"8"},"arcs":[894]},{"type":"MultiLineString","properties":{"source":"openstreetmap.org","kind":"major_road","landuse_kind":"residential","sort_rank":380,"kind_detail":"primary","ref":"N 21","min_zoom":8.0},"arcs":[[895],[896],[897],[898]]},{"type":"MultiLineString","properties":{"bus_network":"Le Bus TM","sort_rank":380,"kind_detail":"primary","kind":"major_road","source":"openstreetmap.org","min_zoom":8.0,"bus_shield_text":"F","landuse_kind":"residential","ref":"D 8"},"arcs":[[899],[900]]},{"type":"LineString","properties":{"kind":"major_road","sort_rank":380,"landuse_kind":"urban_area","source":"openstreetmap.org","min_zoom":8.0,"kind_detail":"primary","ref":"D 2","id":23583108},"arcs":[901]},{"type":"LineString","properties":{"kind":"major_road","sort_rank":380,"kind_detail":"primary","bus_network":"transport scolaire 31","source":"openstreetmap.org","min_zoom":8.0,"bus_shield_text":"S7111A01","landuse_kind":"urban_area","id":23583099},"arcs":[902]},{"type":"MultiLineString","properties":{"source":"openstreetmap.org","kind":"major_road","landuse_kind":"urban_area","sort_rank":380,"kind_detail":"primary","ref":"D 928","min_zoom":8.0},"arcs":[[903],[904],[905]]},{"type":"MultiLineString","properties":{"source":"openstreetmap.org","kind":"major_road","kind_detail":"trunk","sort_rank":381,"landuse_kind":"urban_area","ref":"D 820","min_zoom":8.0},"arcs":[[906],[907],[908]]},{"type":"LineString","properties":{"kind":"path","sort_rank":354,"landuse_kind":"urban_area","is_bicycle_related":true,"bicycle_shield_text":"V80","bicycle_network":"ncn","source":"openstreetmap.org","min_zoom":8.0,"kind_detail":"path"},"arcs":[909]},{"type":"MultiLineString","properties":{"bus_network":"fr_tisseo","sort_rank":380,"kind_detail":"primary","kind":"major_road","source":"openstreetmap.org","min_zoom":8.0,"bus_shield_text":"53","landuse_kind":"urban_area","ref":"D 120a"},"arcs":[[910],[911],[912]]},{"type":"MultiLineString","properties":{"kind":"highway","network":"FR:A-road","sort_rank":383,"landuse_kind":"residential","source":"openstreetmap.org","min_zoom":8.0,"all_networks":["FR:A-road"],"kind_detail":"motorway","shield_text":"620","ref":"A 620","all_shield_texts":["620"]},"arcs":[[913],[914],[915],[916]]},{"type":"MultiLineString","properties":{"kind":"minor_road","sort_rank":358,"kind_detail":"service","is_bicycle_related":true,"bicycle_shield_text":"V80","bicycle_network":"ncn","source":"openstreetmap.org","min_zoom":8.0},"arcs":[[917],[918]]},{"type":"MultiLineString","properties":{"source":"openstreetmap.org","kind":"major_road","sort_rank":381,"kind_detail":"trunk","ref":"N 124","min_zoom":8.0},"arcs":[[919],[920],[921],[922],[923],[924],[925],[926],[927],[928],[929],[930],[931],[932],[933],[934],[935],[936],[937],[938],[939]]},{"type":"LineString","properties":{"kind":"major_road","network":null,"sort_rank":380,"kind_detail":"primary","bus_network":"Communaut\u00e9 de communes, Saint-Gaudens","source":"openstreetmap.org","min_zoom":8.0,"bus_shield_text":"F","shield_text":"5","id":25587378},"arcs":[940]},{"type":"MultiLineString","properties":{"bus_network":"fr_arc_en_ciel","sort_rank":381,"landuse_kind":"urban_area","kind":"major_road","source":"openstreetmap.org","min_zoom":8.0,"bus_shield_text":"5","kind_detail":"trunk","ref":"N 124"},"arcs":[[941],[942],[943],[944],[945]]},{"type":"MultiLineString","properties":{"kind":"major_road","sort_rank":379,"kind_detail":"secondary","is_bicycle_related":true,"bicycle_shield_text":"V83","bicycle_network":"ncn","source":"openstreetmap.org","min_zoom":8.0,"ref":"D 62"},"arcs":[[946],[947]]},{"type":"MultiLineString","properties":{"kind":"path","sort_rank":354,"landuse_kind":"residential","is_bicycle_related":true,"bicycle_shield_text":"V80","bicycle_network":"ncn","source":"openstreetmap.org","min_zoom":8.0,"kind_detail":"cycleway"},"arcs":[[948],[949],[950]]},{"type":"LineString","properties":{"bus_network":"fr_arc_en_ciel","sort_rank":381,"landuse_kind":"residential","kind":"major_road","source":"openstreetmap.org","min_zoom":8.0,"bus_shield_text":"43","kind_detail":"trunk","ref":"N 124"},"arcs":[951]},{"type":"LineString","properties":{"kind":"major_road","network":null,"sort_rank":380,"kind_detail":"primary","source":"openstreetmap.org","min_zoom":8.0,"shield_text":"117","id":148127823},"arcs":[952]},{"type":"LineString","properties":{"source":"openstreetmap.org","kind":"major_road","network":null,"sort_rank":380,"kind_detail":"primary","min_zoom":8.0,"shield_text":"8"},"arcs":[953]},{"type":"MultiLineString","properties":{"bus_network":"fr_alliance","network":null,"sort_rank":380,"kind_detail":"primary","kind":"major_road","source":"openstreetmap.org","min_zoom":8.0,"bus_shield_text":"4","shield_text":"21","landuse_kind":"urban_area"},"arcs":[[954],[955],[956]]},{"type":"MultiLineString","properties":{"source":"openstreetmap.org","kind":"major_road","sort_rank":380,"kind_detail":"primary","ref":"D 929A","min_zoom":8.0},"arcs":[[957],[958]]},{"type":"LineString","properties":{"kind":"major_road","sort_rank":381,"kind_detail":"trunk","bus_network":"fr_tisseo","source":"openstreetmap.org","min_zoom":8.0,"bus_shield_text":"53","landuse_kind":"urban_area","id":153841495},"arcs":[959]},{"type":"LineString","properties":{"kind":"major_road","sort_rank":377,"kind_detail":"tertiary","is_bicycle_related":true,"bicycle_shield_text":"V87","bicycle_network":"ncn","source":"openstreetmap.org","min_zoom":8.0,"landuse_kind":"residential","id":34400483},"arcs":[960]},{"type":"MultiLineString","properties":{"bus_network":"fr_tisseo","sort_rank":380,"kind_detail":"primary","kind":"major_road","source":"openstreetmap.org","min_zoom":8.0,"bus_shield_text":"59","landuse_kind":"urban_area","ref":"D 820"},"arcs":[[961],[962]]},{"type":"LineString","properties":{"kind":"major_road","sort_rank":377,"kind_detail":"tertiary","is_bicycle_related":true,"bicycle_shield_text":"V83","bicycle_network":"ncn","source":"openstreetmap.org","min_zoom":8.0,"ref":"D 62"},"arcs":[963]},{"type":"MultiLineString","properties":{"bus_network":"fr_tisseo","sort_rank":380,"kind_detail":"primary","kind":"major_road","source":"openstreetmap.org","min_zoom":8.0,"bus_shield_text":"AERO","landuse_kind":"urban_area"},"arcs":[[964],[965],[966]]},{"type":"MultiLineString","properties":{"kind":"major_road","network":null,"sort_rank":380,"kind_detail":"primary","source":"openstreetmap.org","min_zoom":8.0,"shield_text":"21","ref":"N 21"},"arcs":[[967],[968],[969],[970],[971],[972],[973],[974],[975]]},{"type":"LineString","properties":{"kind":"major_road","sort_rank":379,"kind_detail":"secondary","is_bicycle_related":true,"bicycle_shield_text":"V83","bicycle_network":"ncn","source":"openstreetmap.org","min_zoom":8.0,"ref":"D 10","id":257618277},"arcs":[976]},{"type":"MultiLineString","properties":{"kind":"path","sort_rank":354,"kind_detail":"cycleway","is_bicycle_related":true,"bicycle_shield_text":"V83","bicycle_network":"ncn","source":"openstreetmap.org","min_zoom":8.0},"arcs":[[977],[978]]},{"type":"MultiLineString","properties":{"sort_rank":381,"source":"openstreetmap.org","min_zoom":8.0,"kind":"major_road","kind_detail":"trunk"},"arcs":[[979],[980],[981],[982],[983]]},{"type":"LineString","properties":{"bus_network":"Communaut\u00e9 de communes, Saint-Gaudens","sort_rank":380,"kind_detail":"primary","kind":"major_road","source":"openstreetmap.org","min_zoom":8.0,"bus_shield_text":"E","ref":"D 817"},"arcs":[984]},{"type":"MultiLineString","properties":{"source":"openstreetmap.org","bus_network":"Le Bus TM","bus_shield_text":"C","sort_rank":380,"kind_detail":"primary","min_zoom":8.0,"kind":"major_road"},"arcs":[[985],[986]]},{"type":"LineString","properties":{"cycleway_right":"lane","sort_rank":380,"kind_detail":"primary","is_bicycle_related":true,"kind":"major_road","source":"openstreetmap.org","min_zoom":8.0,"landuse_kind":"residential"},"arcs":[987]},{"type":"LineString","properties":{"kind":"major_road","sort_rank":380,"kind_detail":"primary","bus_network":"fr_arc_en_ciel","source":"openstreetmap.org","min_zoom":8.0,"bus_shield_text":"\u274965","id":32673274},"arcs":[988]},{"type":"MultiLineString","properties":{"kind":"major_road","sort_rank":380,"kind_detail":"primary","is_bicycle_related":true,"bicycle_shield_text":"Itin\u00e9raire Grand Gabarit A380","bicycle_network":"rcn","source":"openstreetmap.org","min_zoom":8.0},"arcs":[[989],[990]]},{"type":"LineString","properties":{"bus_network":"fr_alezan","sort_rank":380,"kind_detail":"primary","kind":"major_road","source":"openstreetmap.org","min_zoom":8.0,"bus_shield_text":"7A","landuse_kind":"urban_area","ref":"N 21"},"arcs":[991]},{"type":"MultiLineString","properties":{"kind":"path","sort_rank":354,"kind_detail":"steps","is_bicycle_related":true,"bicycle_shield_text":"V87","bicycle_network":"ncn","source":"openstreetmap.org","min_zoom":8.0,"landuse_kind":"urban_area"},"arcs":[[992],[993],[994]]},{"type":"MultiLineString","properties":{"bus_network":"fr_tisseo","sort_rank":380,"kind_detail":"primary","kind":"major_road","source":"openstreetmap.org","min_zoom":8.0,"bus_shield_text":"11","landuse_kind":"urban_area","ref":"D 120a"},"arcs":[[995],[996]]},{"type":"LineString","properties":{"kind":"major_road","sort_rank":380,"kind_detail":"primary","bus_network":"fr_arc_en_ciel","source":"openstreetmap.org","min_zoom":8.0,"bus_shield_text":"Hop! 2","id":147703748},"arcs":[997]},{"type":"MultiLineString","properties":{"bus_network":"fr_alezan","sort_rank":380,"kind_detail":"primary","kind":"major_road","source":"openstreetmap.org","min_zoom":8.0,"bus_shield_text":"6","landuse_kind":"urban_area","ref":"D 817"},"arcs":[[998],[999],[1000]]},{"type":"LineString","properties":{"kind":"major_road","sort_rank":380,"kind_detail":"primary","bus_network":"fr_alezan","source":"openstreetmap.org","min_zoom":8.0,"bus_shield_text":"12","landuse_kind":"urban_area","id":35966835},"arcs":[1001]},{"type":"MultiLineString","properties":{"bus_network":"fr_tisseo","sort_rank":380,"kind_detail":"primary","kind":"major_road","source":"openstreetmap.org","min_zoom":8.0,"bus_shield_text":"58","landuse_kind":"urban_area","ref":"D 12"},"arcs":[[1002],[1003]]},{"type":"MultiLineString","properties":{"bus_network":"fr_alezan","sort_rank":380,"kind_detail":"primary","kind":"major_road","source":"openstreetmap.org","min_zoom":8.0,"bus_shield_text":"2","landuse_kind":"residential"},"arcs":[[1004],[1005],[1006]]},{"type":"LineString","properties":{"kind":"major_road","sort_rank":380,"kind_detail":"primary","bus_network":"fr_alezan","source":"openstreetmap.org","min_zoom":8.0,"bus_shield_text":"15","landuse_kind":"urban_area","ref":"N 21","id":25049326},"arcs":[1007]},{"type":"LineString","properties":{"bus_network":"fr_alliance","network":null,"sort_rank":380,"kind_detail":"primary","kind":"major_road","source":"openstreetmap.org","min_zoom":8.0,"bus_shield_text":"1","shield_text":"21","landuse_kind":"urban_area","ref":"N 21"},"arcs":[1008]},{"type":"MultiLineString","properties":{"bus_network":"fr_arc_en_ciel","sort_rank":380,"kind_detail":"primary","kind":"major_road","source":"openstreetmap.org","min_zoom":8.0,"bus_shield_text":"\u274965","ref":"D 632"},"arcs":[[1009],[1010],[1011],[1012]]},{"type":"MultiLineString","properties":{"kind":"path","sort_rank":354,"kind_detail":"cycleway","is_bicycle_related":true,"bicycle_shield_text":"V80","bicycle_network":"ncn","source":"openstreetmap.org","min_zoom":8.0},"arcs":[[1013],[1014],[1015],[1016],[1017],[1018]]},{"type":"LineString","properties":{"kind":"major_road","sort_rank":380,"landuse_kind":"residential","source":"openstreetmap.org","min_zoom":8.0,"kind_detail":"primary","ref":"D 935B","id":120840835},"arcs":[1019]},{"type":"LineString","properties":{"kind":"major_road","network":null,"sort_rank":380,"kind_detail":"primary","bus_network":"fr_alliance","source":"openstreetmap.org","min_zoom":8.0,"bus_shield_text":"2","shield_text":"21","ref":"N 21","id":289623489},"arcs":[1020]},{"type":"LineString","properties":{"kind":"major_road","sort_rank":377,"kind_detail":"tertiary","is_bicycle_related":true,"bicycle_shield_text":"V81","bicycle_network":"ncn","source":"openstreetmap.org","min_zoom":8.0,"ref":"D 52","id":357472955},"arcs":[1021]},{"type":"LineString","properties":{"kind":"major_road","sort_rank":380,"kind_detail":"primary","bus_network":"Le Bus TM","source":"openstreetmap.org","min_zoom":8.0,"bus_shield_text":"F","landuse_kind":"urban_area","id":36699489},"arcs":[1022]},{"type":"LineString","properties":{"kind":"major_road","sort_rank":380,"kind_detail":"primary","is_bicycle_related":true,"bicycle_shield_text":"V81","bicycle_network":"ncn","source":"openstreetmap.org","min_zoom":8.0,"ref":"D 21"},"arcs":[1023]},{"type":"LineString","properties":{"bus_network":"fr_alezan","sort_rank":380,"kind_detail":"primary","kind":"major_road","source":"openstreetmap.org","min_zoom":8.0,"bus_shield_text":"9","landuse_kind":"urban_area","ref":"D 935"},"arcs":[1024]},{"type":"LineString","properties":{"bus_network":"fr_alliance","network":null,"sort_rank":380,"kind_detail":"primary","kind":"major_road","source":"openstreetmap.org","min_zoom":8.0,"bus_shield_text":"2","shield_text":"21","landuse_kind":"urban_area","ref":"N 21"},"arcs":[1025]},{"type":"MultiLineString","properties":{"bus_network":"fr_arc_en_ciel","sort_rank":381,"landuse_kind":"urban_area","kind":"major_road","source":"openstreetmap.org","min_zoom":8.0,"bus_shield_text":"18","kind_detail":"trunk","ref":"D 820"},"arcs":[[1026],[1027],[1028],[1029],[1030],[1031]]},{"type":"MultiLineString","properties":{"bus_network":"fr_alliance","network":null,"sort_rank":380,"kind_detail":"primary","kind":"major_road","source":"openstreetmap.org","min_zoom":8.0,"bus_shield_text":"4","shield_text":"21","landuse_kind":"urban_area","ref":"N 21"},"arcs":[[1032],[1033],[1034],[1035],[1036]]},{"type":"MultiLineString","properties":{"bus_network":"Le Bus TM","sort_rank":380,"kind_detail":"primary","kind":"major_road","source":"openstreetmap.org","min_zoom":8.0,"bus_shield_text":"A","landuse_kind":"urban_area"},"arcs":[[1037],[1038],[1039]]},{"type":"MultiLineString","properties":{"source":"openstreetmap.org","kind":"major_road","sort_rank":380,"kind_detail":"primary","ref":"D 820","min_zoom":8.0},"arcs":[[1040],[1041],[1042],[1043],[1044],[1045],[1046],[1047],[1048],[1049],[1050],[1051],[1052],[1053],[1054],[1055],[1056],[1057],[1058],[1059],[1060],[1061],[1062],[1063],[1064],[1065],[1066],[1067],[1068],[1069],[1070],[1071],[1072],[1073],[1074],[1075],[1076],[1077]]},{"type":"MultiLineString","properties":{"kind":"highway","network":"e-road","sort_rank":383,"landuse_kind":"urban_area","source":"openstreetmap.org","min_zoom":8.0,"all_networks":["e-road","FR:A-road"],"kind_detail":"motorway","shield_text":"09","ref":"A 20","all_shield_texts":["09","20"]},"arcs":[[1078],[1079],[1080],[1081],[1082],[1083]]},{"type":"MultiLineString","properties":{"source":"openstreetmap.org","kind":"major_road","kind_detail":"trunk","sort_rank":381,"landuse_kind":"urban_area","ref":"D 980","min_zoom":8.0},"arcs":[[1084],[1085]]},{"type":"MultiLineString","properties":{"bus_network":"Le Bus TM","sort_rank":380,"kind_detail":"primary","kind":"major_road","source":"openstreetmap.org","min_zoom":8.0,"bus_shield_text":"D","landuse_kind":"urban_area"},"arcs":[[1086],[1087],[1088]]},{"type":"MultiLineString","properties":{"bus_network":"fr_alezan","sort_rank":380,"kind_detail":"primary","kind":"major_road","source":"openstreetmap.org","min_zoom":8.0,"bus_shield_text":"1","landuse_kind":"urban_area"},"arcs":[[1089],[1090]]},{"type":"MultiLineString","properties":{"kind":"major_road","network":null,"sort_rank":380,"kind_detail":"primary","source":"openstreetmap.org","min_zoom":8.0,"shield_text":"117","ref":"D 117"},"arcs":[[1091],[1092],[1093],[1094],[1095],[1096],[1097],[1098],[1099]]},{"type":"LineString","properties":{"kind":"major_road","sort_rank":380,"kind_detail":"primary","bus_network":"fr_alliance","source":"openstreetmap.org","min_zoom":8.0,"bus_shield_text":"6","id":29273203},"arcs":[1100]},{"type":"LineString","properties":{"kind":"major_road","sort_rank":380,"kind_detail":"primary","bus_network":"Communaut\u00e9 de communes, Saint-Gaudens","source":"openstreetmap.org","min_zoom":8.0,"bus_shield_text":null,"id":25776366},"arcs":[1101]},{"type":"MultiLineString","properties":{"kind":"major_road","network":null,"sort_rank":380,"kind_detail":"primary","source":"openstreetmap.org","min_zoom":8.0,"shield_text":"117","ref":"D 177"},"arcs":[[1102],[1103]]},{"type":"LineString","properties":{"bus_network":"Communaut\u00e9 de communes, Saint-Gaudens","sort_rank":380,"kind_detail":"primary","kind":"major_road","source":"openstreetmap.org","min_zoom":8.0,"bus_shield_text":"I","ref":"D 817"},"arcs":[1104]},{"type":"LineString","properties":{"kind":"major_road","sort_rank":380,"kind_detail":"primary","bus_network":"fr_alezan","source":"openstreetmap.org","min_zoom":8.0,"bus_shield_text":"4","landuse_kind":"urban_area","ref":"N 21","id":35875071},"arcs":[1105]},{"type":"MultiLineString","properties":{"bus_network":"fr_arc_en_ciel","sort_rank":380,"kind_detail":"primary","kind":"major_road","source":"openstreetmap.org","min_zoom":8.0,"bus_shield_text":"18","landuse_kind":"urban_area"},"arcs":[[1106],[1107],[1108]]},{"type":"MultiLineString","properties":{"kind":"highway","network":"e-road","sort_rank":383,"landuse_kind":"residential","source":"openstreetmap.org","min_zoom":8.0,"all_networks":["e-road","FR:A-road"],"kind_detail":"motorway","shield_text":"09","ref":"A 20","all_shield_texts":["09","20"]},"arcs":[[1109],[1110],[1111],[1112],[1113],[1114]]},{"type":"LineString","properties":{"kind":"major_road","network":null,"sort_rank":380,"kind_detail":"primary","source":"openstreetmap.org","min_zoom":8.0,"shield_text":"52","ref":"D 52","id":32856068},"arcs":[1115]},{"type":"MultiLineString","properties":{"kind":"highway","network":"e-road","sort_rank":383,"kind_detail":"motorway","source":"openstreetmap.org","min_zoom":8.0,"all_networks":["e-road","FR:A-road"],"shield_text":"72","ref":"A 62","all_shield_texts":["72","62"]},"arcs":[[1116],[1117],[1118],[1119],[1120],[1121],[1122],[1123]]},{"type":"LineString","properties":{"source":"openstreetmap.org","kind":"major_road","sort_rank":380,"kind_detail":"primary","ref":"D 10B","min_zoom":8.0,"id":28783223},"arcs":[1124]},{"type":"LineString","properties":{"kind":"major_road","network":null,"sort_rank":380,"kind_detail":"primary","source":"openstreetmap.org","min_zoom":8.0,"shield_text":"931","ref":"D 931","id":298130167},"arcs":[1125]},{"type":"MultiLineString","properties":{"bus_network":"fr_arc_en_ciel","sort_rank":380,"kind_detail":"primary","kind":"major_road","source":"openstreetmap.org","min_zoom":8.0,"bus_shield_text":"\u274961","landuse_kind":"urban_area","ref":"D 817"},"arcs":[[1126],[1127],[1128],[1129]]},{"type":"LineString","properties":{"bus_network":"Le Bus TM","sort_rank":380,"kind_detail":"primary","is_bicycle_related":true,"kind":"major_road","cycleway":"share_busway","source":"openstreetmap.org","min_zoom":8.0,"bus_shield_text":"A","landuse_kind":"residential"},"arcs":[1130]},{"type":"MultiLineString","properties":{"kind":"minor_road","sort_rank":360,"kind_detail":"unclassified","is_bicycle_related":true,"bicycle_shield_text":"V81","bicycle_network":"ncn","source":"openstreetmap.org","min_zoom":8.0},"arcs":[[1131],[1132],[1133],[1134],[1135],[1136],[1137],[1138]]},{"type":"LineString","properties":{"kind":"major_road","network":null,"sort_rank":379,"kind_detail":"secondary","is_bicycle_related":true,"bicycle_shield_text":"EV3","bicycle_network":"icn","source":"openstreetmap.org","min_zoom":8.0,"shield_text":"656","ref":"D 656","id":355766782},"arcs":[1139]},{"type":"MultiLineString","properties":{"bus_network":"fr_tisseo","sort_rank":380,"kind_detail":"primary","kind":"major_road","source":"openstreetmap.org","min_zoom":8.0,"bus_shield_text":"117","landuse_kind":"urban_area","ref":"D 817"},"arcs":[[1140],[1141],[1142],[1143]]},{"type":"MultiLineString","properties":{"kind":"major_road","sort_rank":380,"kind_detail":"primary","is_bicycle_related":true,"bicycle_shield_text":"V87","bicycle_network":"ncn","source":"openstreetmap.org","min_zoom":8.0,"landuse_kind":"urban_area","ref":"D 958"},"arcs":[[1144],[1145],[1146]]},{"type":"LineString","properties":{"source":"openstreetmap.org","kind":"major_road","sort_rank":380,"kind_detail":"primary","ref":"D 115","min_zoom":8.0},"arcs":[1147]},{"type":"MultiLineString","properties":{"bus_network":"Le Bus TM","sort_rank":380,"kind_detail":"primary","kind":"major_road","source":"openstreetmap.org","min_zoom":8.0,"bus_shield_text":"D","landuse_kind":"residential"},"arcs":[[1148],[1149]]},{"type":"MultiLineString","properties":{"bus_network":"fr_tisseo","sort_rank":380,"kind_detail":"primary","kind":"major_road","source":"openstreetmap.org","min_zoom":8.0,"bus_shield_text":"58","landuse_kind":"urban_area"},"arcs":[[1150],[1151]]},{"type":"LineString","properties":{"bus_network":"fr_tisseo","sort_rank":380,"kind_detail":"primary","kind":"major_road","source":"openstreetmap.org","min_zoom":8.0,"bus_shield_text":"50","landuse_kind":"urban_area"},"arcs":[1152]},{"type":"LineString","properties":{"kind":"major_road","network":null,"sort_rank":379,"kind_detail":"secondary","is_bicycle_related":true,"bicycle_shield_text":"V81","bicycle_network":"ncn","source":"openstreetmap.org","min_zoom":8.0,"shield_text":"34","ref":"D 34"},"arcs":[1153]},{"type":"LineString","properties":{"kind":"major_road","sort_rank":377,"kind_detail":"tertiary","is_bicycle_related":true,"bicycle_shield_text":"V81","bicycle_network":"ncn","source":"openstreetmap.org","min_zoom":8.0,"ref":"D 8a"},"arcs":[1154]},{"type":"LineString","properties":{"kind":"major_road","sort_rank":380,"kind_detail":"primary","bus_network":"fr_alezan","source":"openstreetmap.org","min_zoom":8.0,"bus_shield_text":"11","landuse_kind":"urban_area","id":25049307},"arcs":[1155]},{"type":"LineString","properties":{"bus_network":"Communaut\u00e9 de communes, Saint-Gaudens","network":null,"sort_rank":380,"kind_detail":"primary","is_bicycle_related":true,"kind":"major_road","bicycle_shield_text":"V81","bicycle_network":"ncn","source":"openstreetmap.org","min_zoom":8.0,"bus_shield_text":"G","shield_text":"8","id":25545355},"arcs":[1156]},{"type":"MultiLineString","properties":{"kind":"major_road","network":null,"sort_rank":380,"kind_detail":"primary","loc_name":"Route du Baz\u00e8re","source":"openstreetmap.org","min_zoom":8.0,"shield_text":"8","ref":"D 8"},"arcs":[[1157],[1158]]},{"type":"LineString","properties":{"kind":"major_road","sort_rank":380,"kind_detail":"primary","bus_network":"fr_tisseo","source":"openstreetmap.org","min_zoom":8.0,"bus_shield_text":"117","landuse_kind":"urban_area","id":243084344},"arcs":[1159]},{"type":"LineString","properties":{"kind":"major_road","sort_rank":381,"landuse_kind":"urban_area","source":"openstreetmap.org","min_zoom":8.0,"kind_detail":"trunk","ref":"D902","id":10525102},"arcs":[1160]},{"type":"MultiLineString","properties":{"bus_network":"fr_alezan","sort_rank":380,"kind_detail":"primary","kind":"major_road","source":"openstreetmap.org","min_zoom":8.0,"bus_shield_text":"8","landuse_kind":"urban_area","ref":"D 817"},"arcs":[[1161],[1162]]},{"type":"MultiLineString","properties":{"source":"openstreetmap.org","kind":"major_road","landuse_kind":"urban_area","sort_rank":380,"kind_detail":"primary","ref":"D 817","min_zoom":8.0},"arcs":[[1163],[1164],[1165],[1166],[1167],[1168],[1169],[1170],[1171],[1172],[1173],[1174]]},{"type":"LineString","properties":{"bus_network":"RRR Occitanie","sort_rank":379,"kind_detail":"secondary","is_bicycle_related":true,"kind":"major_road","bicycle_shield_text":"V83","bicycle_network":"ncn","source":"openstreetmap.org","min_zoom":8.0,"bus_shield_text":"952","ref":"D 13E"},"arcs":[1175]},{"type":"LineString","properties":{"kind":"major_road","sort_rank":380,"kind_detail":"primary","bus_network":"Le Bus TM","source":"openstreetmap.org","min_zoom":8.0,"bus_shield_text":"C","ref":"D 999","id":263985387},"arcs":[1176]},{"type":"MultiLineString","properties":{"kind":"major_road","network":null,"sort_rank":380,"kind_detail":"primary","bus_network":"RRR Occitanie","source":"openstreetmap.org","min_zoom":8.0,"bus_shield_text":"952","shield_text":"117","ref":"D 117"},"arcs":[[1177],[1178],[1179],[1180],[1181],[1182],[1183],[1184]]},{"type":"MultiLineString","properties":{"source":"openstreetmap.org","kind":"major_road","landuse_kind":"urban_area","sort_rank":380,"kind_detail":"primary","ref":"N 21","min_zoom":8.0},"arcs":[[1185],[1186],[1187],[1188],[1189],[1190],[1191],[1192],[1193],[1194],[1195]]},{"type":"LineString","properties":{"source":"openstreetmap.org","kind":"highway","landuse_kind":"urban_area","sort_rank":383,"kind_detail":"motorway","min_zoom":8.0},"arcs":[1196]},{"type":"LineString","properties":{"kind":"major_road","network":null,"sort_rank":380,"kind_detail":"primary","is_bicycle_related":true,"bicycle_shield_text":"V81","bicycle_network":"ncn","source":"openstreetmap.org","min_zoom":8.0,"shield_text":"117","ref":"D 117"},"arcs":[1197]},{"type":"MultiLineString","properties":{"bus_network":"Le Bus TM","sort_rank":380,"kind_detail":"primary","kind":"major_road","source":"openstreetmap.org","min_zoom":8.0,"bus_shield_text":"F","landuse_kind":"urban_area","ref":"D 8"},"arcs":[[1198],[1199],[1200],[1201]]},{"type":"LineString","properties":{"bus_network":"fr_alezan","sort_rank":380,"kind_detail":"primary","kind":"major_road","source":"openstreetmap.org","min_zoom":8.0,"bus_shield_text":"3","landuse_kind":"residential"},"arcs":[1202]},{"type":"MultiLineString","properties":{"source":"openstreetmap.org","kind":"major_road","sort_rank":380,"kind_detail":"primary","ref":"D 930","min_zoom":8.0},"arcs":[[1203],[1204],[1205],[1206],[1207],[1208],[1209],[1210],[1211],[1212],[1213],[1214],[1215],[1216],[1217],[1218],[1219],[1220],[1221],[1222],[1223],[1224],[1225]]},{"type":"MultiLineString","properties":{"bus_network":"fr_arc_en_ciel","sort_rank":381,"kind_detail":"trunk","kind":"major_road","source":"openstreetmap.org","min_zoom":8.0,"bus_shield_text":"5","landuse_kind":"residential","ref":"N 124"},"arcs":[[1226],[1227],[1228],[1229],[1230]]},{"type":"MultiLineString","properties":{"source":"openstreetmap.org","kind":"major_road","landuse_kind":"residential","sort_rank":380,"kind_detail":"primary","ref":"D 935","min_zoom":8.0},"arcs":[[1231],[1232],[1233]]},{"type":"MultiLineString","properties":{"bus_network":"Le Bus TM","sort_rank":380,"kind_detail":"primary","kind":"major_road","source":"openstreetmap.org","min_zoom":8.0,"bus_shield_text":"B","landuse_kind":"urban_area"},"arcs":[[1234],[1235],[1236],[1237],[1238]]},{"type":"LineString","properties":{"kind":"major_road","sort_rank":377,"kind_detail":"tertiary","is_bicycle_related":true,"bicycle_shield_text":"EV3","bicycle_network":"icn","source":"openstreetmap.org","min_zoom":8.0,"ref":"D 144"},"arcs":[1239]},{"type":"LineString","properties":{"kind":"major_road","sort_rank":380,"kind_detail":"primary","bus_network":"fr_alezan","source":"openstreetmap.org","min_zoom":8.0,"bus_shield_text":"7C","landuse_kind":"urban_area","id":68854151},"arcs":[1240]},{"type":"LineString","properties":{"kind":"path","sort_rank":354,"kind_detail":"track","is_bicycle_related":true,"bicycle_shield_text":"V81","bicycle_network":"ncn","source":"openstreetmap.org","min_zoom":8.0},"arcs":[1241]},{"type":"MultiLineString","properties":{"source":"openstreetmap.org","kind":"major_road","landuse_kind":"urban_area","sort_rank":380,"kind_detail":"primary","ref":"D 902","min_zoom":8.0},"arcs":[[1242],[1243],[1244],[1245],[1246],[1247],[1248],[1249],[1250],[1251],[1252],[1253],[1254],[1255],[1256],[1257],[1258],[1259],[1260],[1261]]},{"type":"MultiLineString","properties":{"source":"openstreetmap.org","bus_network":"Communaut\u00e9 de communes, Saint-Gaudens","bus_shield_text":"I","sort_rank":380,"kind_detail":"primary","min_zoom":8.0,"kind":"major_road"},"arcs":[[1262],[1263],[1264]]},{"type":"MultiLineString","properties":{"bus_network":"Le Bus TM","sort_rank":380,"kind_detail":"primary","kind":"major_road","source":"openstreetmap.org","min_zoom":8.0,"bus_shield_text":"C","landuse_kind":"residential"},"arcs":[[1265],[1266],[1267]]},{"type":"MultiLineString","properties":{"kind":"major_road","sort_rank":379,"kind_detail":"secondary","is_bicycle_related":true,"bicycle_shield_text":"V83","bicycle_network":"ncn","source":"openstreetmap.org","min_zoom":8.0,"ref":"D 626b"},"arcs":[[1268],[1269],[1270]]},{"type":"MultiLineString","properties":{"kind":"minor_road","sort_rank":358,"kind_detail":"service","is_bicycle_related":true,"bicycle_shield_text":"EV3","bicycle_network":"icn","source":"openstreetmap.org","min_zoom":8.0},"arcs":[[1271],[1272]]},{"type":"MultiLineString","properties":{"kind":"major_road","sort_rank":377,"kind_detail":"tertiary","is_bicycle_related":true,"bicycle_shield_text":"V83","bicycle_network":"ncn","source":"openstreetmap.org","min_zoom":8.0,"ref":"D 7"},"arcs":[[1273],[1274],[1275]]},{"type":"MultiLineString","properties":{"source":"openstreetmap.org","kind":"major_road","sort_rank":380,"kind_detail":"primary","ref":"D 921","min_zoom":8.0},"arcs":[[1276],[1277],[1278],[1279],[1280]]},{"type":"MultiLineString","properties":{"source":"openstreetmap.org","kind":"major_road","kind_detail":"trunk","sort_rank":381,"landuse_kind":"urban_area","min_zoom":8.0},"arcs":[[1281],[1282],[1283],[1284],[1285],[1286]]},{"type":"LineString","properties":{"kind":"major_road","network":null,"sort_rank":377,"kind_detail":"tertiary","is_bicycle_related":true,"bicycle_shield_text":"V81","bicycle_network":"ncn","source":"openstreetmap.org","min_zoom":8.0,"shield_text":"52","ref":"D 52"},"arcs":[1287]},{"type":"LineString","properties":{"kind":"major_road","sort_rank":380,"kind_detail":"primary","bus_network":"Le Bus TM","source":"openstreetmap.org","min_zoom":8.0,"bus_shield_text":"C","landuse_kind":"urban_area","ref":"D 999","id":263985387},"arcs":[1288]},{"type":"LineString","properties":{"kind":"major_road","sort_rank":380,"kind_detail":"primary","bus_network":"RRR Occitanie","source":"openstreetmap.org","min_zoom":8.0,"bus_shield_text":"952","ref":"D 117","id":357472960},"arcs":[1289]},{"type":"MultiLineString","properties":{"source":"openstreetmap.org","bus_network":"Le Bus TM","bus_shield_text":"F","sort_rank":380,"kind_detail":"primary","min_zoom":8.0,"kind":"major_road"},"arcs":[[1290],[1291]]},{"type":"MultiLineString","properties":{"source":"openstreetmap.org","kind":"major_road","sort_rank":380,"kind_detail":"primary","ref":"D 931","min_zoom":8.0},"arcs":[[1292],[1293],[1294],[1295],[1296],[1297],[1298],[1299],[1300],[1301],[1302],[1303],[1304],[1305],[1306]]},{"type":"LineString","properties":{"kind":"major_road","sort_rank":380,"kind_detail":"primary","is_bicycle_related":true,"cycleway":"lane","source":"openstreetmap.org","min_zoom":8.0,"landuse_kind":"urban_area"},"arcs":[1307]},{"type":"MultiLineString","properties":{"kind":"major_road","sort_rank":379,"kind_detail":"secondary","is_bicycle_related":true,"bicycle_shield_text":"V83","bicycle_network":"ncn","source":"openstreetmap.org","min_zoom":8.0,"ref":"D 6"},"arcs":[[1308],[1309],[1310]]},{"type":"MultiLineString","properties":{"source":"openstreetmap.org","kind":"major_road","landuse_kind":"residential","sort_rank":380,"kind_detail":"primary","min_zoom":8.0},"arcs":[[1311],[1312],[1313],[1314],[1315],[1316],[1317],[1318],[1319],[1320],[1321],[1322],[1323]]},{"type":"MultiLineString","properties":{"source":"openstreetmap.org","kind":"major_road","sort_rank":380,"kind_detail":"primary","ref":"D 8","min_zoom":8.0},"arcs":[[1324],[1325]]},{"type":"LineString","properties":{"kind":"major_road","network":null,"sort_rank":380,"kind_detail":"primary","bicycle_shield_text":null,"bicycle_network":"lwn","source":"openstreetmap.org","min_zoom":8.0,"shield_text":"931","ref":"D 931"},"arcs":[1326]},{"type":"LineString","properties":{"source":"openstreetmap.org","kind":"major_road","sort_rank":380,"kind_detail":"primary","ref":"D 43","min_zoom":8.0,"id":518286769},"arcs":[1327]},{"type":"MultiLineString","properties":{"bus_network":"Le Bus TM","sort_rank":380,"kind_detail":"primary","kind":"major_road","source":"openstreetmap.org","min_zoom":8.0,"bus_shield_text":"G","landuse_kind":"residential"},"arcs":[[1328],[1329],[1330],[1331],[1332],[1333],[1334]]},{"type":"LineString","properties":{"kind":"minor_road","sort_rank":360,"kind_detail":"unclassified","is_bicycle_related":true,"bicycle_shield_text":"V87","bicycle_network":"ncn","source":"openstreetmap.org","min_zoom":8.0,"landuse_kind":"residential","id":40106784},"arcs":[1335]},{"type":"MultiLineString","properties":{"source":"openstreetmap.org","kind":"major_road","sort_rank":380,"kind_detail":"primary","ref":"D 52E","min_zoom":8.0},"arcs":[[1336],[1337],[1338],[1339],[1340]]},{"type":"LineString","properties":{"kind":"major_road","sort_rank":377,"kind_detail":"tertiary","is_bicycle_related":true,"bicycle_shield_text":"V81","bicycle_network":"ncn","source":"openstreetmap.org","min_zoom":8.0,"ref":"D 69"},"arcs":[1341]},{"type":"MultiLineString","properties":{"kind":"minor_road","sort_rank":360,"kind_detail":"residential","is_bicycle_related":true,"bicycle_shield_text":"V83","bicycle_network":"ncn","source":"openstreetmap.org","min_zoom":8.0},"arcs":[[1342],[1343],[1344],[1345],[1346],[1347],[1348],[1349],[1350],[1351],[1352],[1353]]},{"type":"LineString","properties":{"kind":"minor_road","sort_rank":360,"kind_detail":"residential","is_bicycle_related":true,"bicycle_shield_text":"V80","bicycle_network":"ncn","source":"openstreetmap.org","min_zoom":8.0},"arcs":[1354]},{"type":"MultiLineString","properties":{"kind":"path","sort_rank":354,"kind_detail":"track","is_bicycle_related":true,"bicycle_shield_text":"EV3","bicycle_network":"icn","source":"openstreetmap.org","min_zoom":8.0},"arcs":[[1355],[1356],[1357],[1358]]},{"type":"MultiLineString","properties":{"bus_network":"Le Bus TM","sort_rank":380,"kind_detail":"primary","kind":"major_road","source":"openstreetmap.org","min_zoom":8.0,"bus_shield_text":"C","ref":"N 2020"},"arcs":[[1359],[1360],[1361]]},{"type":"MultiLineString","properties":{"bus_network":"fr_alezan","sort_rank":380,"kind_detail":"primary","kind":"major_road","source":"openstreetmap.org","min_zoom":8.0,"bus_shield_text":"4","landuse_kind":"residential"},"arcs":[[1362],[1363],[1364]]},{"type":"LineString","properties":{"bus_network":"Communaut\u00e9 de communes, Saint-Gaudens","network":null,"sort_rank":380,"kind_detail":"primary","is_bicycle_related":true,"kind":"major_road","bicycle_shield_text":"V81","bicycle_network":"ncn","source":"openstreetmap.org","min_zoom":8.0,"bus_shield_text":"G","loc_name":"Route du Baz\u00e8re","ref":"D 8","shield_text":"8"},"arcs":[1365]},{"type":"MultiLineString","properties":{"bus_network":"fr_arc_en_ciel","network":"FR:A-road","sort_rank":381,"kind_detail":"trunk","kind":"major_road","source":"openstreetmap.org","min_zoom":8.0,"bus_shield_text":"43","shield_text":"624","landuse_kind":"urban_area","ref":"A 624"},"arcs":[[1366],[1367]]},{"type":"LineString","properties":{"kind":"major_road","sort_rank":377,"kind_detail":"tertiary","is_bicycle_related":true,"bicycle_shield_text":"V87","bicycle_network":"ncn","source":"openstreetmap.org","min_zoom":8.0,"landuse_kind":"urban_area","id":36864121},"arcs":[1368]},{"type":"LineString","properties":{"kind":"major_road","sort_rank":377,"kind_detail":"tertiary","is_bicycle_related":true,"bicycle_shield_text":"V81","bicycle_network":"ncn","source":"openstreetmap.org","min_zoom":8.0,"ref":"D 69j"},"arcs":[1369]},{"type":"LineString","properties":{"bus_network":"fr_alezan","sort_rank":380,"kind_detail":"primary","kind":"major_road","source":"openstreetmap.org","min_zoom":8.0,"bus_shield_text":"6","ref":"D 817"},"arcs":[1370]},{"type":"LineString","properties":{"kind":"major_road","sort_rank":380,"kind_detail":"primary","bus_network":"fr_alezan","source":"openstreetmap.org","min_zoom":8.0,"bus_shield_text":"15","landuse_kind":"residential","ref":"N 21","id":25049326},"arcs":[1371]},{"type":"LineString","properties":{"kind":"major_road","sort_rank":377,"kind_detail":"tertiary","is_bicycle_related":true,"bicycle_shield_text":"V87","bicycle_network":"ncn","source":"openstreetmap.org","min_zoom":8.0},"arcs":[1372]},{"type":"LineString","properties":{"kind":"major_road","network":null,"sort_rank":379,"kind_detail":"secondary","is_bicycle_related":true,"bicycle_shield_text":"V81","bicycle_network":"ncn","source":"openstreetmap.org","min_zoom":8.0,"shield_text":"13","ref":"D 13"},"arcs":[1373]},{"type":"MultiLineString","properties":{"bus_network":"Le Bus TM","sort_rank":380,"kind_detail":"primary","kind":"major_road","source":"openstreetmap.org","min_zoom":8.0,"bus_shield_text":"F","ref":"D 8"},"arcs":[[1374],[1375],[1376]]},{"type":"MultiLineString","properties":{"kind":"major_road","network":null,"sort_rank":381,"landuse_kind":"urban_area","source":"openstreetmap.org","min_zoom":8.0,"kind_detail":"trunk","shield_text":"980","ref":"D 980"},"arcs":[[1377],[1378],[1379],[1380]]},{"type":"MultiLineString","properties":{"bus_network":"Le Bus TM","sort_rank":380,"kind_detail":"primary","is_bicycle_related":true,"kind":"major_road","bicycle_shield_text":"V87","bicycle_network":"ncn","source":"openstreetmap.org","min_zoom":8.0,"bus_shield_text":"G","landuse_kind":"urban_area"},"arcs":[[1381],[1382],[1383],[1384]]},{"type":"LineString","properties":{"kind":"path","sort_rank":354,"kind_detail":"path","is_bicycle_related":true,"bicycle_shield_text":"V81","bicycle_network":"ncn","source":"openstreetmap.org","min_zoom":8.0},"arcs":[1385]},{"type":"LineString","properties":{"kind":"major_road","sort_rank":380,"kind_detail":"primary","is_bicycle_related":true,"bus_network":"Le Bus TM","bicycle_shield_text":"V87","bicycle_network":"ncn","source":"openstreetmap.org","min_zoom":8.0,"bus_shield_text":"A","landuse_kind":"urban_area","id":42149484},"arcs":[1386]},{"type":"MultiLineString","properties":{"kind":"major_road","sort_rank":379,"kind_detail":"secondary","is_bicycle_related":true,"bicycle_shield_text":"V83","bicycle_network":"ncn","source":"openstreetmap.org","min_zoom":8.0},"arcs":[[1387],[1388],[1389]]},{"type":"LineString","properties":{"kind":"path","sort_rank":354,"landuse_kind":"urban_area","is_bicycle_related":true,"bicycle_shield_text":"V80","bicycle_network":"ncn","source":"openstreetmap.org","min_zoom":8.0,"kind_detail":"cycleway"},"arcs":[1390]},{"type":"LineString","properties":{"bus_network":"fr_tisseo","sort_rank":380,"kind_detail":"primary","kind":"major_road","source":"openstreetmap.org","min_zoom":8.0,"bus_shield_text":"87","landuse_kind":"urban_area","ref":"D 120a"},"arcs":[1391]},{"type":"MultiLineString","properties":{"bus_network":"Le Bus TM","sort_rank":380,"kind_detail":"primary","kind":"major_road","source":"openstreetmap.org","min_zoom":8.0,"bus_shield_text":"C","landuse_kind":"urban_area","ref":"N 2020"},"arcs":[[1392],[1393],[1394],[1395],[1396],[1397],[1398],[1399],[1400]]},{"type":"LineString","properties":{"kind":"major_road","sort_rank":377,"kind_detail":"tertiary","is_bicycle_related":true,"bicycle_shield_text":"V83","bicycle_network":"ncn","source":"openstreetmap.org","min_zoom":8.0,"ref":"D 73C","id":32844484},"arcs":[1401]},{"type":"LineString","properties":{"source":"openstreetmap.org","kind":"major_road","old_name":"All\u00e9es du G\u00e9n\u00e9ral de Gaulle","sort_rank":380,"kind_detail":"primary","ref":"D 931","min_zoom":8.0},"arcs":[1402]},{"type":"MultiLineString","properties":{"bus_network":"fr_arc_en_ciel","sort_rank":380,"kind_detail":"primary","kind":"major_road","source":"openstreetmap.org","min_zoom":8.0,"bus_shield_text":"18","landuse_kind":"urban_area","ref":"D 120"},"arcs":[[1403],[1404]]},{"type":"MultiLineString","properties":{"kind":"highway","network":"e-road","sort_rank":383,"landuse_kind":"urban_area","source":"openstreetmap.org","min_zoom":8.0,"all_networks":["e-road","e-road","FR:A-road"],"kind_detail":"motorway","shield_text":"09","ref":"A 62","all_shield_texts":["09","72","62"]},"arcs":[[1405],[1406],[1407]]},{"type":"MultiLineString","properties":{"source":"openstreetmap.org","kind":"major_road","sort_rank":380,"kind_detail":"primary","ref":"D 939","min_zoom":8.0},"arcs":[[1408],[1409],[1410]]},{"type":"MultiLineString","properties":{"bus_network":"Le Bus TM","sort_rank":380,"kind_detail":"primary","kind":"major_road","source":"openstreetmap.org","min_zoom":8.0,"bus_shield_text":"C","landuse_kind":"residential","ref":"D 999"},"arcs":[[1411],[1412],[1413],[1414],[1415]]},{"type":"LineString","properties":{"kind":"major_road","network":null,"sort_rank":380,"kind_detail":"primary","bus_network":"RRR Occitanie","source":"openstreetmap.org","min_zoom":8.0,"bus_shield_text":"952","shield_text":"117","id":76679349},"arcs":[1416]},{"type":"MultiLineString","properties":{"kind":"major_road","network":null,"sort_rank":380,"kind_detail":"primary","source":"openstreetmap.org","min_zoom":8.0,"shield_text":"21","ref":"D 21"},"arcs":[[1417],[1418],[1419]]},{"type":"MultiLineString","properties":{"bus_network":"fr_tamtam_muret","sort_rank":380,"kind_detail":"primary","kind":"major_road","source":"openstreetmap.org","min_zoom":8.0,"bus_shield_text":"1","landuse_kind":"urban_area"},"arcs":[[1420],[1421]]},{"type":"MultiLineString","properties":{"source":"openstreetmap.org","kind":"major_road","landuse_kind":"urban_area","sort_rank":380,"kind_detail":"primary","ref":"D 820","min_zoom":8.0},"arcs":[[1422],[1423],[1424],[1425],[1426],[1427],[1428],[1429],[1430],[1431],[1432],[1433],[1434],[1435],[1436],[1437],[1438],[1439],[1440],[1441],[1442]]},{"type":"MultiLineString","properties":{"source":"openstreetmap.org","kind":"major_road","sort_rank":380,"kind_detail":"primary","ref":"D 935","min_zoom":8.0},"arcs":[[1443],[1444],[1445],[1446],[1447],[1448],[1449],[1450],[1451],[1452],[1453],[1454],[1455],[1456],[1457],[1458],[1459],[1460],[1461],[1462],[1463],[1464],[1465],[1466],[1467],[1468],[1469],[1470],[1471],[1472],[1473],[1474],[1475],[1476],[1477],[1478],[1479]]},{"type":"MultiLineString","properties":{"source":"openstreetmap.org","kind":"major_road","landuse_kind":"residential","sort_rank":380,"kind_detail":"primary","ref":"D 928","min_zoom":8.0},"arcs":[[1480],[1481],[1482],[1483],[1484],[1485],[1486],[1487]]},{"type":"MultiLineString","properties":{"source":"openstreetmap.org","kind":"major_road","sort_rank":380,"kind_detail":"primary","ref":"N 113","min_zoom":8.0},"arcs":[[1488],[1489]]},{"type":"MultiLineString","properties":{"source":"openstreetmap.org","kind":"major_road","sort_rank":380,"kind_detail":"primary","ref":"D 929","min_zoom":8.0},"arcs":[[1490],[1491],[1492],[1493],[1494],[1495],[1496],[1497],[1498],[1499],[1500],[1501],[1502],[1503]]},{"type":"LineString","properties":{"kind":"major_road","sort_rank":380,"kind_detail":"primary","is_bicycle_related":true,"bus_network":"fr_alezan","cycleway":"lane","source":"openstreetmap.org","min_zoom":8.0,"bus_shield_text":"3","landuse_kind":"residential","id":372318157},"arcs":[1504]},{"type":"LineString","properties":{"kind":"major_road","sort_rank":380,"kind_detail":"primary","bus_shield_text":"4","bus_network":"fr_alezan","source":"openstreetmap.org","min_zoom":8.0,"old_name":"y","landuse_kind":"residential","ref":"N 21","id":25049330},"arcs":[1505]},{"type":"MultiLineString","properties":{"bus_network":"Le Bus TM","sort_rank":380,"kind_detail":"primary","kind":"major_road","source":"openstreetmap.org","min_zoom":8.0,"bus_shield_text":"F","landuse_kind":"residential"},"arcs":[[1506],[1507]]},{"type":"LineString","properties":{"kind":"major_road","sort_rank":380,"kind_detail":"primary","is_bicycle_related":true,"bus_network":"Communaut\u00e9 de communes, Saint-Gaudens","bicycle_shield_text":"V81","bicycle_network":"ncn","source":"openstreetmap.org","min_zoom":8.0,"bus_shield_text":"G","ref":"D 921","id":176672016},"arcs":[1508]},{"type":"MultiLineString","properties":{"source":"openstreetmap.org","kind":"major_road","kind_detail":"trunk","sort_rank":381,"landuse_kind":"urban_area","ref":"D 902","min_zoom":8.0},"arcs":[[1509],[1510]]},{"type":"LineString","properties":{"kind":"major_road","sort_rank":380,"kind_detail":"primary","is_bicycle_related":true,"bus_network":"transport scolaire 31","bicycle_shield_text":"Itin\u00e9raire Grand Gabarit A380","bicycle_network":"rcn","source":"openstreetmap.org","min_zoom":8.0,"bus_shield_text":"S7002A01","ref":"N 224","id":34213825},"arcs":[1511]},{"type":"LineString","properties":{"kind":"major_road","sort_rank":377,"kind_detail":"tertiary","is_bicycle_related":true,"bicycle_shield_text":"EV3","bicycle_network":"icn","source":"openstreetmap.org","min_zoom":8.0,"ref":"D 109","id":355770194},"arcs":[1512]},{"type":"MultiLineString","properties":{"source":"openstreetmap.org","kind":"major_road","sort_rank":380,"kind_detail":"primary","ref":"D 938","min_zoom":8.0},"arcs":[[1513],[1514],[1515],[1516],[1517],[1518],[1519],[1520],[1521],[1522]]},{"type":"LineString","properties":{"kind":"major_road","network":null,"sort_rank":377,"kind_detail":"tertiary","is_bicycle_related":true,"bicycle_shield_text":"V83","bicycle_network":"ncn","source":"openstreetmap.org","min_zoom":8.0,"shield_text":"8","ref":"D 8","id":33912345},"arcs":[1523]},{"type":"MultiLineString","properties":{"kind":"major_road","network":null,"sort_rank":377,"kind_detail":"tertiary","is_bicycle_related":true,"bicycle_shield_text":"V83","bicycle_network":"ncn","source":"openstreetmap.org","min_zoom":8.0,"shield_text":"83","ref":"D 83"},"arcs":[[1524],[1525],[1526]]},{"type":"LineString","properties":{"kind":"major_road","sort_rank":377,"kind_detail":"tertiary","is_bicycle_related":true,"bicycle_shield_text":"EV3","bicycle_network":"icn","source":"openstreetmap.org","min_zoom":8.0,"ref":"D 5T","id":355766780},"arcs":[1527]},{"type":"LineString","properties":{"kind":"major_road","sort_rank":380,"kind_detail":"primary","is_bicycle_related":true,"bus_network":"fr_alezan","cycleway":"lane","source":"openstreetmap.org","min_zoom":8.0,"bus_shield_text":"7C","landuse_kind":"urban_area","ref":"N 21","id":286716587},"arcs":[1528]},{"type":"LineString","properties":{"kind":"major_road","sort_rank":380,"kind_detail":"primary","is_bicycle_related":true,"bicycle_shield_text":"V87","bicycle_network":"ncn","source":"openstreetmap.org","min_zoom":8.0,"landuse_kind":"urban_area","id":357489088},"arcs":[1529]},{"type":"MultiLineString","properties":{"kind":"major_road","network":null,"sort_rank":380,"kind_detail":"primary","source":"openstreetmap.org","min_zoom":8.0,"landuse_kind":"urban_area","shield_text":"21","ref":"N 21"},"arcs":[[1530],[1531],[1532],[1533]]},{"type":"MultiLineString","properties":{"bus_network":"Le Bus TM","sort_rank":380,"kind_detail":"primary","kind":"major_road","source":"openstreetmap.org","min_zoom":8.0,"bus_shield_text":"B","landuse_kind":"residential"},"arcs":[[1534],[1535],[1536],[1537],[1538],[1539],[1540],[1541]]},{"type":"MultiLineString","properties":{"bus_network":"Le Bus TM","sort_rank":380,"kind_detail":"primary","kind":"major_road","source":"openstreetmap.org","min_zoom":8.0,"bus_shield_text":"C","landuse_kind":"residential","ref":"N 2020"},"arcs":[[1542],[1543],[1544],[1545],[1546],[1547]]},{"type":"LineString","properties":{"kind":"major_road","sort_rank":380,"landuse_kind":"residential","is_bicycle_related":true,"bicycle_shield_text":"V87","bicycle_network":"ncn","source":"openstreetmap.org","min_zoom":8.0,"kind_detail":"primary","ref":"D 928"},"arcs":[1548]},{"type":"MultiLineString","properties":{"source":"openstreetmap.org","kind":"major_road","kind_detail":"trunk","sort_rank":381,"landuse_kind":"urban_area","ref":"N 124","min_zoom":8.0},"arcs":[[1549],[1550],[1551],[1552],[1553],[1554]]},{"type":"LineString","properties":{"kind":"major_road","network":null,"sort_rank":380,"kind_detail":"primary","source":"openstreetmap.org","min_zoom":8.0,"shield_text":"224","ref":"N 224"},"arcs":[1555]},{"type":"MultiLineString","properties":{"kind":"major_road","network":null,"sort_rank":380,"kind_detail":"primary","source":"openstreetmap.org","min_zoom":8.0,"shield_text":"34","ref":"D 34"},"arcs":[[1556],[1557]]},{"type":"LineString","properties":{"kind":"major_road","sort_rank":380,"kind_detail":"primary","bus_network":"fr_alezan","source":"openstreetmap.org","min_zoom":8.0,"bus_shield_text":"8","landuse_kind":"urban_area","id":25049313},"arcs":[1558]},{"type":"MultiLineString","properties":{"source":"openstreetmap.org","kind":"major_road","sort_rank":380,"kind_detail":"primary","ref":"N 124","min_zoom":8.0},"arcs":[[1559],[1560],[1561],[1562],[1563],[1564],[1565],[1566],[1567],[1568],[1569],[1570],[1571],[1572],[1573],[1574],[1575],[1576],[1577],[1578],[1579],[1580],[1581],[1582],[1583],[1584],[1585],[1586],[1587],[1588],[1589],[1590],[1591],[1592],[1593],[1594],[1595],[1596],[1597],[1598],[1599],[1600],[1601],[1602],[1603],[1604],[1605],[1606]]},{"type":"MultiLineString","properties":{"bus_network":"fr_alezan","sort_rank":380,"kind_detail":"primary","kind":"major_road","source":"openstreetmap.org","min_zoom":8.0,"bus_shield_text":"7C","landuse_kind":"urban_area","ref":"N 21"},"arcs":[[1607],[1608],[1609]]},{"type":"LineString","properties":{"bus_network":"RRR Occitanie","sort_rank":379,"kind_detail":"secondary","is_bicycle_related":true,"kind":"major_road","bicycle_shield_text":"V83","bicycle_network":"ncn","source":"openstreetmap.org","min_zoom":8.0,"bus_shield_text":"952","ref":"D 62"},"arcs":[1610]},{"type":"MultiLineString","properties":{"kind":"highway","network":"e-road","sort_rank":383,"kind_detail":"motorway","source":"openstreetmap.org","min_zoom":8.0,"all_networks":["e-road","e-road","FR:A-road"],"shield_text":"09","ref":"A 62","all_shield_texts":["09","72","62"]},"arcs":[[1611],[1612],[1613],[1614],[1615],[1616]]},{"type":"MultiLineString","properties":{"source":"openstreetmap.org","kind":"major_road","sort_rank":380,"kind_detail":"primary","ref":"D 817","min_zoom":8.0},"arcs":[[1617],[1618],[1619],[1620],[1621],[1622],[1623],[1624],[1625],[1626],[1627],[1628],[1629],[1630],[1631],[1632],[1633],[1634],[1635],[1636],[1637],[1638],[1639],[1640],[1641],[1642],[1643],[1644],[1645],[1646],[1647],[1648],[1649],[1650],[1651],[1652],[1653],[1654],[1655],[1656],[1657],[1658],[1659],[1660],[1661],[1662],[1663],[1664],[1665],[1666],[1667],[1668],[1669],[1670],[1671],[1672],[1673],[1674],[1675],[1676],[1677],[1678],[1679],[1680],[1681],[1682],[1683],[1684]]},{"type":"LineString","properties":{"kind":"minor_road","sort_rank":360,"kind_detail":"residential","is_bicycle_related":true,"bicycle_shield_text":"EV3","bicycle_network":"icn","source":"openstreetmap.org","min_zoom":8.0},"arcs":[1685]},{"type":"MultiLineString","properties":{"bus_network":"fr_alezan","sort_rank":380,"kind_detail":"primary","kind":"major_road","source":"openstreetmap.org","min_zoom":8.0,"bus_shield_text":"8","landuse_kind":"residential","ref":"N 21"},"arcs":[[1686],[1687]]},{"type":"MultiLineString","properties":{"source":"openstreetmap.org","kind":"major_road","sort_rank":381,"kind_detail":"trunk","ref":"N 21","min_zoom":8.0},"arcs":[[1688],[1689]]},{"type":"LineString","properties":{"kind":"major_road","sort_rank":380,"kind_detail":"primary","bus_network":"fr_alezan","source":"openstreetmap.org","min_zoom":8.0,"bus_shield_text":"12","landuse_kind":"residential","id":35966835},"arcs":[1690]},{"type":"LineString","properties":{"kind":"major_road","sort_rank":377,"kind_detail":"tertiary","is_bicycle_related":true,"bicycle_shield_text":"V81","bicycle_network":"ncn","source":"openstreetmap.org","min_zoom":8.0,"ref":"D 8b","id":176672083},"arcs":[1691]},{"type":"MultiLineString","properties":{"bus_network":"Le Bus TM","sort_rank":380,"kind_detail":"primary","kind":"major_road","source":"openstreetmap.org","min_zoom":8.0,"bus_shield_text":"A","landuse_kind":"residential"},"arcs":[[1692],[1693],[1694],[1695],[1696],[1697]]},{"type":"MultiLineString","properties":{"kind":"path","sort_rank":354,"landuse_kind":"urban_area","is_bicycle_related":true,"bicycle_shield_text":"V87","bicycle_network":"ncn","source":"openstreetmap.org","min_zoom":8.0,"kind_detail":"footway"},"arcs":[[1698],[1699],[1700]]},{"type":"MultiLineString","properties":{"source":"openstreetmap.org","bus_network":"Le Bus TM","bus_shield_text":"D","sort_rank":380,"kind_detail":"primary","min_zoom":8.0,"kind":"major_road"},"arcs":[[1701],[1702],[1703],[1704],[1705],[1706],[1707],[1708],[1709],[1710],[1711],[1712],[1713],[1714]]},{"type":"MultiLineString","properties":{"kind":"minor_road","sort_rank":360,"kind_detail":"unclassified","is_bicycle_related":true,"bicycle_shield_text":"EV3","bicycle_network":"icn","source":"openstreetmap.org","min_zoom":8.0},"arcs":[[1715],[1716],[1717],[1718],[1719],[1720]]},{"type":"MultiLineString","properties":{"kind":"minor_road","sort_rank":360,"kind_detail":"unclassified","is_bicycle_related":true,"bicycle_shield_text":"V83","bicycle_network":"ncn","source":"openstreetmap.org","min_zoom":8.0},"arcs":[[1721],[1722],[1723],[1724],[1725],[1726],[1727],[1728],[1729]]},{"type":"MultiLineString","properties":{"source":"openstreetmap.org","kind":"major_road","sort_rank":380,"kind_detail":"primary","ref":"D 634","min_zoom":8.0},"arcs":[[1730],[1731],[1732]]},{"type":"MultiLineString","properties":{"bus_network":"fr_alezan","sort_rank":380,"kind_detail":"primary","kind":"major_road","source":"openstreetmap.org","min_zoom":8.0,"bus_shield_text":"2","landuse_kind":"urban_area"},"arcs":[[1733],[1734],[1735]]},{"type":"MultiLineString","properties":{"source":"openstreetmap.org","kind":"major_road","sort_rank":380,"kind_detail":"primary","ref":"D 632","min_zoom":8.0},"arcs":[[1736],[1737],[1738],[1739],[1740]]},{"type":"MultiLineString","properties":{"source":"openstreetmap.org","kind":"major_road","sort_rank":380,"kind_detail":"primary","ref":"N 21","min_zoom":8.0},"arcs":[[1741],[1742],[1743],[1744],[1745],[1746],[1747],[1748],[1749]]},{"type":"LineString","properties":{"bus_network":"fr_arc_en_ciel","sort_rank":380,"kind_detail":"primary","kind":"major_road","source":"openstreetmap.org","min_zoom":8.0,"bus_shield_text":"18","landuse_kind":"urban_area","ref":"D 817"},"arcs":[1750]},{"type":"LineString","properties":{"kind":"minor_road","service":"driveway","sort_rank":356,"kind_detail":"service","is_bicycle_related":true,"bicycle_shield_text":"V83","bicycle_network":"ncn","source":"openstreetmap.org","min_zoom":8.0,"id":128409695},"arcs":[1751]},{"type":"MultiLineString","properties":{"kind":"minor_road","service":"driveway","sort_rank":356,"kind_detail":"service","is_bicycle_related":true,"bicycle_shield_text":"EV3","bicycle_network":"icn","source":"openstreetmap.org","min_zoom":8.0},"arcs":[[1752],[1753]]},{"type":"MultiLineString","properties":{"bus_network":"fr_alezan","sort_rank":380,"kind_detail":"primary","kind":"major_road","source":"openstreetmap.org","min_zoom":8.0,"bus_shield_text":"4","landuse_kind":"residential","ref":"N 21"},"arcs":[[1754],[1755],[1756],[1757],[1758]]},{"type":"LineString","properties":{"source":"openstreetmap.org","kind":"major_road","landuse_kind":"urban_area","sort_rank":380,"kind_detail":"primary","ref":"D 935B","min_zoom":8.0},"arcs":[1759]},{"type":"MultiLineString","properties":{"kind":"highway","network":"FR:A-road","sort_rank":383,"landuse_kind":"urban_area","source":"openstreetmap.org","min_zoom":8.0,"all_networks":["FR:A-road"],"kind_detail":"motorway","shield_text":"624","ref":"A 624","all_shield_texts":["624"]},"arcs":[[1760],[1761],[1762]]},{"type":"LineString","properties":{"kind":"major_road","sort_rank":380,"kind_detail":"primary","bus_network":"fr_alezan","source":"openstreetmap.org","min_zoom":8.0,"bus_shield_text":"4","landuse_kind":"urban_area","id":25049318},"arcs":[1763]},{"type":"MultiLineString","properties":{"bus_network":"Communaut\u00e9 de communes, Saint-Gaudens","sort_rank":380,"kind_detail":"primary","kind":"major_road","source":"openstreetmap.org","min_zoom":8.0,"bus_shield_text":null,"ref":"D 817"},"arcs":[[1764],[1765],[1766],[1767],[1768],[1769],[1770],[1771]]},{"type":"MultiLineString","properties":{"source":"openstreetmap.org","kind":"major_road","landuse_kind":"urban_area","sort_rank":380,"kind_detail":"primary","ref":"D 813","min_zoom":8.0},"arcs":[[1772],[1773],[1774],[1775],[1776],[1777],[1778],[1779],[1780],[1781],[1782],[1783],[1784]]},{"type":"MultiLineString","properties":{"source":"openstreetmap.org","kind":"major_road","sort_rank":380,"kind_detail":"primary","ref":"D 958","min_zoom":8.0},"arcs":[[1785],[1786],[1787],[1788],[1789],[1790],[1791]]},{"type":"LineString","properties":{"kind":"major_road","network":null,"sort_rank":380,"kind_detail":"primary","bus_network":"fr_alliance","source":"openstreetmap.org","min_zoom":8.0,"bus_shield_text":"1","shield_text":"21","landuse_kind":"urban_area","id":29570594},"arcs":[1792]},{"type":"MultiLineString","properties":{"source":"openstreetmap.org","kind":"major_road","network":null,"sort_rank":380,"kind_detail":"primary","min_zoom":8.0,"shield_text":"21"},"arcs":[[1793],[1794],[1795],[1796],[1797]]},{"type":"MultiLineString","properties":{"kind":"major_road","sort_rank":377,"kind_detail":"tertiary","is_bicycle_related":true,"bicycle_shield_text":"V81","bicycle_network":"ncn","source":"openstreetmap.org","min_zoom":8.0,"ref":"D 88a"},"arcs":[[1798],[1799]]},{"type":"MultiLineString","properties":{"bus_network":"fr_alezan","sort_rank":380,"kind_detail":"primary","kind":"major_road","source":"openstreetmap.org","min_zoom":8.0,"bus_shield_text":"1","landuse_kind":"urban_area","ref":"D 935"},"arcs":[[1800],[1801]]},{"type":"LineString","properties":{"source":"openstreetmap.org","kind":"major_road","sort_rank":380,"kind_detail":"primary","ref":"N 2020","min_zoom":8.0,"id":264200955},"arcs":[1802]},{"type":"MultiLineString","properties":{"bus_network":"fr_tisseo","sort_rank":380,"kind_detail":"primary","kind":"major_road","source":"openstreetmap.org","min_zoom":8.0,"bus_shield_text":"30","landuse_kind":"urban_area","ref":"D 820"},"arcs":[[1803],[1804],[1805],[1806],[1807]]},{"type":"MultiLineString","properties":{"kind":"highway","network":"e-road","sort_rank":383,"landuse_kind":"urban_area","source":"openstreetmap.org","min_zoom":8.0,"all_networks":["e-road","FR:A-road"],"kind_detail":"motorway","shield_text":"80","ref":"A 64","all_shield_texts":["80","64"]},"arcs":[[1808],[1809],[1810],[1811],[1812],[1813],[1814],[1815]]},{"type":"MultiLineString","properties":{"kind":"major_road","sort_rank":380,"kind_detail":"primary","is_bicycle_related":true,"bicycle_shield_text":"Itin\u00e9raire Grand Gabarit A380","bicycle_network":"rcn","source":"openstreetmap.org","min_zoom":8.0,"ref":"N 224"},"arcs":[[1816],[1817],[1818],[1819],[1820],[1821],[1822]]},{"type":"LineString","properties":{"kind":"major_road","network":null,"sort_rank":377,"kind_detail":"tertiary","is_bicycle_related":true,"bicycle_shield_text":"EV3","bicycle_network":"icn","source":"openstreetmap.org","min_zoom":8.0,"shield_text":"8","ref":"C 8"},"arcs":[1823]},{"type":"MultiLineString","properties":{"bus_network":"Le Bus TM","sort_rank":380,"kind_detail":"primary","kind":"major_road","source":"openstreetmap.org","min_zoom":8.0,"bus_shield_text":"G","landuse_kind":"residential","ref":"D 999"},"arcs":[[1824],[1825],[1826],[1827],[1828]]},{"type":"LineString","properties":{"bus_network":"Communaut\u00e9 de communes, Saint-Gaudens","sort_rank":379,"kind_detail":"secondary","is_bicycle_related":true,"kind":"major_road","bicycle_shield_text":"V81","bicycle_network":"ncn","source":"openstreetmap.org","min_zoom":8.0,"bus_shield_text":"G","ref":"D 21f"},"arcs":[1829]}]},"earth":{"type":"GeometryCollection","geometries":[{"type":"Polygon","properties":{"sort_rank":10,"source":"naturalearthdata.com","kind":"earth","min_zoom":0.0,"id":4739},"arcs":[[1830]]}]},"landuse":{"type":"GeometryCollection","geometries":[{"type":"MultiPolygon","properties":{"source":"openstreetmap.org","kind":"residential","tier":2,"area":270914593,"sort_rank":20,"min_zoom":8.0,"osm_relation":true},"arcs":[[[1831],[1832],[1833],[1834],[1835],[1836],[1837],[1838],[1839],[1840],[1841],[1842]],[[1843]],[[1844],[1845]],[[1846],[1847]],[[1848]],[[1849]]]},{"type":"MultiPolygon","properties":{"source":"naturalearthdata.com","kind":"urban_area","name":"","area":3123570808,"sort_rank":11,"min_zoom":4.0},"arcs":[[[1850]],[[1851]],[[1852]],[[1853]],[[1854]]]},{"type":"Polygon","properties":{"source":"openstreetmap.org","kind":"aerodrome","area":11709100,"tier":3,"id":368475266,"min_zoom":8.0,"sort_rank":60},"arcs":[[1855]]},{"type":"MultiPolygon","properties":{"source":"openstreetmap.org","kind":"residential","tier":2,"area":124003456,"sort_rank":20,"min_zoom":8.0},"arcs":[[[1856]],[[1857]]]},{"type":"MultiPolygon","properties":{"kind":"protected_area","protect_class":"5","area":10038908926,"sort_rank":17,"source":"openstreetmap.org","min_zoom":4.0,"tier":2,"osm_relation":true},"arcs":[[[1858]]]}]}},"type":"Topology","transform":{"translate":[0.0,43.0688877742],"scale":[0.0003433228,0.0002487054]},"arcs":[[[0,1211],[88,-96],[-59,-85],[-29,26]],[[0,1312],[16,-4],[-16,-19]],[[0,1446],[29,-26],[-29,-62]],[[2171,4096],[-20,-48],[2,-58],[-92,-11],[-35,-60],[-29,10],[-27,-77],[-44,-10],[-20,72],[-66,29],[-19,53],[-97,70],[-47,-17],[-60,-86],[-48,-7],[-79,43],[-20,-51],[-7,28],[-49,6],[-5,-26],[-70,11],[-50,-107],[-75,2],[-16,-34],[-42,6],[-45,-64],[-68,42],[-90,-39],[-34,11],[6,-63],[-43,-14],[-133,69],[-11,-24],[-62,29],[9,48],[-61,7],[-32,-42],[-38,10],[-28,-58],[-46,-21],[3,-59],[-26,-32],[-53,8],[10,79],[-43,32],[-29,-57],[-126,-23],[-15,-68],[-40,-22],[62,-179],[-11,-47],[-41,-28],[-50,29],[-31,-14],[-90,77]],[[0,3511],[20,46],[-20,28]],[[4096,1899],[-61,-100]],[[4035,1799],[61,102]],[[4035,1799],[61,-169]],[[2522,2265],[-155,19],[-81,75],[-87,39],[-125,-12],[-82,29],[-157,-49],[-31,-39],[-54,25],[-13,-46]],[[2535,2276],[-13,-11]],[[3169,2203],[-52,10],[-59,-60],[-107,47],[-94,-6],[-63,18],[-101,113],[-72,-53],[-59,22],[-27,-18]],[[3185,2209],[-16,-6]],[[3169,2203],[4,2],[12,4]],[[3595,2200],[-43,24],[-2,42],[-93,45],[-272,-102]],[[3604,2195],[-9,5]],[[3874,2153],[-65,97],[-38,-28],[-167,-27]],[[4018,2126],[-55,18],[-53,0],[-4,0],[-11,3]],[[3895,2147],[-21,6]],[[3874,2153],[23,-6]],[[3897,2147],[66,-3],[55,-18]],[[3895,2147],[2,0]],[[4018,2126],[57,-6]],[[4096,1915],[-59,-83]],[[4096,2112],[-1,0],[-15,7],[-5,1]],[[4075,2120],[21,-3]],[[3954,2812],[-151,212],[-91,186]],[[3905,3763],[-40,-56],[-43,-73],[-2,-4]],[[3900,3809],[-4,5],[-2,3],[-4,12],[-1,3],[1,5],[1,3],[2,3],[4,5],[47,46],[6,5],[8,7],[138,115]],[[3900,3809],[11,-33]],[[3900,3809],[1,0]],[[3901,3809],[10,-32]],[[3911,3777],[-2,-8],[-5,-7]],[[3904,3762],[-200,-273],[-32,-89],[30,-171],[18,-32],[29,-53],[54,-120],[102,-136],[46,-68],[3,-8],[0,-8]],[[3909,3769],[-4,-6]],[[3905,3763],[-1,-1]],[[4096,4014],[-202,-170],[-4,-15],[5,-14],[9,-10],[4,-6],[2,-5],[2,-5],[0,-2],[0,-3],[0,-6],[-1,-3],[-1,-5]],[[4096,2441],[-142,363]],[[4019,2634],[23,-63],[5,-14],[25,-60],[13,-30],[11,-27]],[[4096,1899],[-61,-100]],[[4035,1799],[61,102]],[[4035,1799],[61,-169]],[[0,504],[85,84]],[[202,689],[-10,0]],[[192,689],[-78,-57],[-59,-93],[-4,-6],[-3,-3],[-6,-5],[-3,-2],[-4,-2],[-35,-17]],[[86,589],[20,33],[6,7],[3,4],[53,53],[2,1],[2,1],[3,1],[3,0],[24,0]],[[202,689],[-10,0]],[[202,689],[-19,0],[19,1]],[[201,688],[3,-1],[0,1],[-4,0],[0,-1],[1,1]],[[3954,2812],[-151,212],[-91,186]],[[3905,3763],[-85,-133]],[[3900,3809],[-4,5],[-2,3],[-4,12],[-1,3],[1,5],[1,3],[2,3],[4,5],[47,46],[6,5],[8,7],[138,115]],[[3900,3809],[11,-33]],[[3900,3809],[1,0]],[[3901,3809],[3,-4],[3,-4],[3,-7],[2,-7],[-1,-10]],[[3911,3777],[-2,-8],[-5,-7]],[[3904,3762],[-200,-273],[-32,-89],[30,-171],[18,-32],[29,-53],[54,-120],[102,-136],[46,-68],[3,-8],[0,-8]],[[3911,3777],[1,9],[-1,3],[-1,5],[-2,4],[-2,3],[-3,5],[-2,3]],[[3909,3769],[-4,-6]],[[3905,3763],[-1,-1]],[[4096,4014],[-202,-170],[-4,-15],[5,-14],[9,-10],[4,-6],[2,-5],[2,-5],[0,-2],[0,-3],[0,-6],[-1,-3],[-1,-5]],[[4096,2441],[-142,363]],[[4019,2634],[28,-77],[49,-118]],[[3908,3800],[2,1],[-3,2],[-1,0],[2,-3]],[[4096,2038],[-18,-37],[-23,16]],[[3954,2812],[-151,212],[-91,186]],[[3905,3763],[-85,-133]],[[3900,3809],[-4,5],[-2,3],[-4,12],[-1,3],[1,5],[1,3],[2,3],[4,5],[47,46],[6,5],[8,7],[138,115]],[[3900,3809],[11,-33]],[[3900,3809],[1,0]],[[3901,3809],[10,-32]],[[3911,3777],[-1,-7]],[[3911,3777],[1,9],[-1,3],[-1,5],[-2,4],[-2,3],[-3,5],[-2,3]],[[3909,3769],[-1,-1],[-3,-5]],[[3905,3763],[-1,-1]],[[3909,3769],[-5,-7]],[[3904,3762],[-200,-273],[-32,-89],[30,-171],[18,-32],[29,-53],[43,-93],[11,-27],[16,-17],[31,-41],[23,-31],[32,-47],[46,-68],[1,-2],[1,-3],[1,-3],[0,-8]],[[4096,4014],[-202,-170],[-4,-15],[5,-14],[9,-10],[4,-6],[2,-5],[2,-5],[0,-2],[0,-3],[0,-6],[-1,-3],[-1,-5]],[[4096,2441],[-142,363]],[[4019,2634],[28,-77],[49,-118]],[[3908,3800],[2,1],[-3,2],[-1,0],[2,-3]],[[2833,4096],[9,-8],[7,-4],[17,1],[12,11]],[[3224,4096],[8,-165],[35,-42],[125,5],[45,-3],[108,-5],[7,0],[3,0],[5,-2],[122,-49],[98,-32],[24,-1],[80,13],[3,1],[1,-1],[3,0],[2,-1],[1,0],[3,-2],[6,-5],[1,-2],[4,-6],[2,-5],[2,-5],[0,-2],[0,-3],[-1,-9],[-1,-5]],[[2833,4096],[9,-8],[7,-4],[10,-1],[7,1],[5,4],[10,8]],[[3216,4096],[-5,-39],[21,-126],[6,-14]],[[3238,3917],[17,-21]],[[3255,3896],[12,-7],[11,-2],[274,-1],[129,-51],[99,-32],[24,-1],[77,13]],[[3881,3815],[16,-3]],[[3897,3812],[4,-3]],[[3901,3809],[3,-4],[3,-4],[3,-7],[2,-7],[0,-3],[-1,-7]],[[3911,3777],[-1,-7]],[[3238,3917],[2,-3],[9,-12],[2,-3],[3,-2],[1,-1]],[[3954,2812],[-151,212],[-91,186]],[[3905,3763],[-85,-133]],[[3897,3812],[14,-36]],[[3911,3777],[1,9],[-1,3],[-1,5],[-2,4],[-2,3],[-3,5],[-2,3]],[[3909,3769],[-1,-1],[-3,-5]],[[3905,3763],[-1,-1]],[[3909,3769],[-5,-7]],[[3904,3762],[-200,-273],[-32,-89],[30,-171],[18,-32],[29,-53],[43,-93],[11,-27],[16,-17],[31,-41],[23,-31],[32,-47],[46,-68],[1,-2],[1,-3],[1,-3],[0,-8]],[[4096,2441],[-142,363]],[[4019,2634],[28,-77],[49,-118]],[[3908,3800],[2,1],[-3,2],[-1,0],[2,-3]],[[0,504],[48,26],[64,99],[56,57],[7,3],[7,0]],[[182,689],[5,0],[12,0],[14,1]],[[181,689],[-132,-157],[-3,-3],[-4,-4],[-3,-2],[-4,-2],[-35,-17]],[[183,689],[-1,0]],[[182,689],[-1,0]],[[214,689],[-22,0]],[[192,689],[-11,0]],[[183,689],[28,0]],[[213,690],[-2,-1]],[[213,690],[42,-11],[3,-5],[25,-56],[22,-17],[24,3],[42,31],[8,2],[12,-1],[30,-14],[37,11],[8,0],[10,-2],[5,-2],[3,-2],[2,-3],[2,-3],[8,-16],[4,-6],[37,-26],[94,-21],[6,-7],[18,-40],[21,-21]],[[4096,1915],[-66,-94],[-135,-116],[-30,-97],[-13,-26],[-57,-102],[-230,-515],[-5,-9],[-3,-4],[-4,-5],[-59,-64],[-107,-52],[-200,-230],[-17,-14],[-326,-126],[-37,-114],[-2,-5],[-3,-4],[-33,-35],[-5,-4],[-5,-4],[-11,-7],[-5,-3],[-7,-2],[-27,-6],[-12,-8],[-32,-61],[-2,-3],[-3,-4],[-3,-3],[-3,-2],[-4,-2],[-4,-2],[-103,-38],[-6,-2],[-4,-1],[-94,-11],[-8,-1],[-7,-1],[-10,0],[-9,1],[-72,10],[-30,-16],[-3,-1],[-3,-1],[-3,0],[-3,0],[-3,0],[-3,1],[-3,1],[-3,1],[-47,29],[-49,-1],[-66,-21],[-41,-26],[-4,-5],[-6,-12],[-1,-3],[-3,-4],[-4,-3],[-4,-3],[-4,-2],[-5,-2],[-8,-2],[-312,-55],[-5,-1],[-3,1],[-5,0],[-51,15],[-19,3],[-13,-1],[-26,-11],[-3,-1],[-43,0],[-3,0],[-4,1],[-18,5],[-14,1],[-20,6],[-6,2],[-3,1],[-22,10],[-15,2],[-4,1],[-4,1],[-20,12],[-3,2],[-4,3],[-15,16],[-4,3],[-43,12],[-26,12],[-13,0],[-2,0],[-12,3],[-4,1],[-10,-1],[-4,1],[-11,1],[-14,3],[-7,-1],[-11,-5],[-3,-1],[-2,-1],[-4,0],[-1,0],[-4,0],[-2,1],[-3,2],[-1,1],[-2,2],[-48,47],[-21,9],[-93,0],[-19,-11],[-8,-17],[-1,-2],[-1,-2],[-4,-3],[-25,-20],[-4,-2],[-4,-2],[-2,0],[-3,-1],[-2,0],[-2,1],[-2,0],[-1,1],[-3,2],[-33,25],[-3,3],[-2,2],[-1,2],[-2,4],[-1,5],[-1,3],[0,10],[-2,12],[-1,11],[-3,12],[-3,9],[-7,13],[-9,27],[-4,6],[-7,6],[-3,4],[-3,5],[-3,9],[-3,5],[-26,22],[-7,7],[-5,7],[-4,7],[-4,8],[-2,3],[-15,12],[-14,16],[-25,10],[-22,-5],[-6,-1],[-3,1],[-4,1],[-4,2],[-2,1],[-5,5],[-19,19],[-2,3],[-2,4],[-3,5],[-7,25],[-3,5],[-26,30],[-17,17],[-3,3],[-1,2],[-13,27],[-4,11],[-6,7],[-39,6],[-45,11],[-6,1],[-4,3],[-6,3],[-27,20],[-4,3],[-2,2],[-2,4],[-9,17],[-3,5],[-16,6],[-10,0],[-21,-9],[-9,-2],[-4,-1],[-3,0],[-2,1],[-4,0],[-2,1],[-3,1],[-19,12],[-12,1],[-8,-3],[-36,-26],[-3,-3],[-3,-1],[-6,-3],[-4,0],[-4,-1],[-4,0],[-2,0],[-4,1],[-2,1],[-4,1],[-3,2],[-2,1],[-3,2],[-4,4],[-4,5],[-3,7],[-22,50],[-3,5],[-41,10]],[[677,484],[23,-27],[3,-4],[1,-2],[0,-2],[7,-24],[4,-7],[26,-28],[14,-6],[21,6],[5,0],[4,0],[23,-10],[29,-28],[1,-2],[1,-2],[8,-14],[12,-14],[25,-21],[3,-4],[1,-2],[6,-14],[10,-10],[4,-6],[16,-40],[6,-21],[7,-45],[47,-35],[42,26],[11,21],[2,2],[2,2],[16,8],[93,0],[21,-9],[54,-52],[11,-1],[16,7],[7,1],[16,-3],[23,-1],[31,-4],[69,-24],[100,-53],[144,1],[19,-4],[59,-15],[325,57],[31,34],[42,27],[65,20],[49,1],[59,-32],[42,18],[192,2]],[[2525,151],[8,1]],[[2533,152],[2,0]],[[2535,152],[2,0]],[[2537,152],[2,1]],[[2539,153],[2,1]],[[2541,154],[2,0]],[[2543,154],[2,1]],[[2545,155],[25,9]],[[2570,164],[9,3]],[[2579,167],[13,5]],[[2592,172],[27,10]],[[2619,182],[6,2]],[[2625,184],[7,3]],[[2632,187],[4,1]],[[2636,188],[4,2]],[[2640,190],[6,2]],[[2646,192],[1,1]],[[2647,193],[2,0]],[[2649,193],[1,1]],[[2650,194],[1,1]],[[2651,195],[2,0]],[[2653,195],[1,1]],[[2654,196],[1,1]],[[2655,197],[2,1]],[[2657,198],[1,1]],[[2658,199],[1,1]],[[2659,200],[1,1]],[[2660,201],[1,1]],[[2661,202],[1,2]],[[2662,204],[1,1]],[[2663,205],[1,1]],[[2664,206],[1,2]],[[2665,208],[1,2]],[[2666,210],[1,1]],[[2667,211],[1,3]],[[2668,214],[3,6]],[[2671,220],[2,6]],[[2673,226],[3,5]],[[2676,231],[3,6]],[[2679,237],[2,6]],[[2681,243],[3,6]],[[2684,249],[0,1]],[[2684,250],[3,5],[3,5],[2,3],[2,3],[4,4],[2,2],[3,2],[3,2],[5,1],[31,9],[19,10],[42,44],[7,16],[0,31],[0,4],[2,5],[11,32],[4,8],[8,14],[2,4],[3,4],[4,3],[2,2],[4,2],[52,30],[5,3],[6,2],[8,3],[53,12],[47,25],[8,3],[141,44],[17,14],[145,167],[51,59],[4,4],[3,3],[5,4],[6,3],[4,2],[89,40],[61,66],[99,228],[141,303],[6,12],[51,90],[13,26],[24,83],[2,6],[4,8],[2,3],[4,6],[3,3],[4,4],[45,42],[3,3],[74,55],[66,107]],[[201,688],[3,-1],[0,1],[-4,0],[0,-1],[1,1]],[[960,139],[1,-1],[-1,1]],[[2123,145],[1,0],[0,1],[-1,-1]],[[3954,2812],[-151,212],[-91,186]],[[3905,3763],[-40,-56],[-43,-73],[-2,-4]],[[3900,3809],[-4,5],[-2,3],[-4,12],[-1,3],[1,5],[1,3],[2,3],[4,5],[47,46],[6,5],[8,7],[138,115]],[[3900,3809],[11,-33]],[[3900,3809],[1,0]],[[3901,3809],[10,-32]],[[3911,3777],[-2,-8],[-5,-7]],[[3904,3762],[-200,-273],[-32,-89],[30,-171],[18,-32],[29,-53],[54,-120],[102,-136],[46,-68],[3,-8],[0,-8]],[[3911,3777],[1,9],[-1,3],[-1,5],[-2,4],[-2,3],[-3,5],[-2,3]],[[3909,3769],[-4,-6]],[[3905,3763],[-1,-1]],[[4096,4014],[-202,-170],[-4,-15],[5,-14],[9,-10],[4,-6],[2,-5],[2,-5],[0,-2],[0,-3],[0,-6],[-1,-3],[-1,-5]],[[4096,2441],[-142,363]],[[4019,2634],[28,-77],[49,-118]],[[3908,3800],[2,1],[-3,2],[-1,0],[2,-3]],[[4096,2038],[-18,-37],[-23,16]],[[2833,4096],[9,-8],[7,-4],[17,1],[12,11]],[[3224,4096],[8,-165],[35,-42],[125,5],[45,-3],[108,-5],[7,0],[3,0],[225,-83],[24,-1],[80,13],[9,-1],[4,-2],[6,-5],[1,-2],[6,-11],[2,-10],[-1,-9],[-1,-5]],[[2833,4096],[9,-8],[2,-2],[3,-1],[2,-1],[4,-1],[4,-1],[2,1],[3,0],[4,1],[3,2],[2,2],[10,8]],[[3215,4096],[-3,-23],[-1,-7],[0,-9],[0,-5],[2,-11],[19,-110],[2,-6],[2,-4],[2,-4]],[[3238,3917],[11,-15],[3,-3],[3,-3]],[[3255,3896],[5,-4],[3,-1],[4,-2],[3,0],[3,-1],[5,-1],[274,-1],[129,-51],[95,-31],[4,-1],[5,-1],[6,0],[6,0],[7,0],[77,13]],[[3881,3815],[16,-3]],[[3897,3812],[4,-3]],[[3901,3809],[10,-32]],[[3911,3777],[-1,-7]],[[3238,3917],[2,-3],[9,-12],[2,-3],[3,-2],[1,-1]],[[3954,2812],[-151,212],[-91,186]],[[3905,3763],[-85,-133]],[[3897,3812],[14,-36]],[[3909,3769],[-4,-6]],[[3905,3763],[-1,-1]],[[3909,3769],[-5,-7]],[[3904,3762],[-200,-273],[-32,-89],[30,-171],[18,-32],[29,-53],[43,-93],[11,-27],[16,-17],[31,-41],[23,-31],[32,-47],[46,-68],[1,-2],[1,-3],[1,-3],[0,-8]],[[4096,2441],[-142,363]],[[4096,2440],[-11,27],[-13,30],[-25,60],[-5,14],[-23,63]],[[3908,3800],[2,1],[-3,2],[-1,0],[2,-3]],[[3874,2153],[23,-6]],[[3897,2147],[66,-3],[55,-18]],[[4018,2126],[-55,18],[-53,0],[-4,0],[-11,3]],[[3895,2147],[-10,3]],[[3895,2147],[2,0]],[[4018,2126],[57,-6]],[[4096,2115],[-21,5]],[[4075,2120],[21,-3]],[[4096,1915],[-66,-94],[-131,-111],[-34,-101],[-12,-26],[-7,-13]],[[3857,1592],[33,101],[1,4],[3,6],[5,7],[4,5],[5,6],[45,42],[3,3],[74,55],[66,107]],[[0,504],[48,26],[7,9],[51,83],[6,7],[3,4],[53,53],[3,1],[4,2],[3,0],[4,0]],[[182,689],[17,0],[14,1]],[[181,689],[-132,-157],[-3,-3],[-4,-4],[-7,-4],[-35,-17]],[[183,689],[-1,0]],[[182,689],[-1,0]],[[214,689],[-22,0]],[[192,689],[-11,0]],[[183,689],[28,0]],[[213,690],[-2,-1]],[[211,689],[-13,0],[-15,0]],[[213,690],[7,0],[5,0],[4,-1],[12,-3],[5,-1],[2,-1],[4,-3],[3,-2],[1,-2],[2,-3],[25,-56],[22,-17],[24,3],[42,31],[5,1],[3,1],[6,0],[6,-1],[30,-14],[37,11],[4,0],[4,0],[6,-1],[4,-1],[5,-2],[3,-2],[2,-3],[2,-3],[8,-16],[4,-6],[37,-26],[55,-15],[31,-3],[4,-1],[3,-1],[1,-1],[3,-2],[1,-2],[2,-3],[18,-40],[21,-21]],[[4096,1915],[-66,-94],[-135,-116],[-30,-97],[-13,-26],[-57,-102],[-230,-515],[-5,-9],[-3,-4],[-4,-5],[-59,-64],[-107,-52],[-200,-230],[-17,-14],[-326,-126],[-37,-114],[-2,-5],[-3,-4],[-33,-35],[-5,-4],[-5,-4],[-11,-7],[-5,-3],[-7,-2],[-27,-6],[-12,-8],[-32,-61],[-2,-3],[-3,-4],[-3,-3],[-3,-2],[-4,-2],[-4,-2],[-103,-38],[-6,-2],[-4,-1],[-94,-11],[-8,-1],[-7,-1],[-10,0],[-9,1],[-72,10],[-30,-16],[-3,-1],[-3,-1],[-3,0],[-3,0],[-3,0],[-3,1],[-3,1],[-3,1],[-47,29],[-49,-1],[-66,-21],[-41,-26],[-4,-5],[-6,-12],[-1,-3],[-3,-4],[-4,-3],[-4,-3],[-4,-2],[-5,-2],[-8,-2],[-312,-55],[-5,-1],[-3,1],[-5,0],[-51,15],[-19,3],[-13,-1],[-26,-11],[-3,-1],[-43,0],[-3,0],[-4,1],[-18,5],[-14,1],[-20,6],[-6,2],[-3,1],[-22,10],[-15,2],[-4,1],[-4,1],[-20,12],[-3,2],[-4,3],[-15,16],[-4,3],[-43,12],[-26,12],[-13,0],[-2,0],[-12,3],[-4,1],[-10,-1],[-4,1],[-11,1],[-14,3],[-7,-1],[-11,-5],[-3,-1],[-2,-1],[-4,0],[-1,0],[-4,0],[-2,1],[-3,2],[-1,1],[-2,2],[-48,47],[-21,9],[-93,0],[-19,-11],[-8,-17],[-1,-2],[-1,-2],[-4,-3],[-25,-20],[-4,-2],[-4,-2],[-2,0],[-3,-1],[-2,0],[-2,1],[-2,0],[-1,1],[-3,2],[-33,25],[-3,3],[-2,2],[-1,2],[-2,4],[-1,5],[-1,3],[0,10],[-2,12],[-1,11],[-3,12],[-3,9],[-7,13],[-9,27],[-4,6],[-7,6],[-3,4],[-3,5],[-3,9],[-3,5],[-26,22],[-7,7],[-5,7],[-4,7],[-4,8],[-2,3],[-15,12],[-14,16],[-25,10],[-22,-5],[-6,-1],[-3,1],[-4,1],[-4,2],[-2,1],[-5,5],[-19,19],[-2,3],[-2,4],[-3,5],[-7,25],[-3,5],[-46,50],[-24,47],[-39,6],[-55,15],[-37,26],[-4,6],[-9,17],[-3,5],[-16,6],[-47,-12],[-42,16],[-50,-33],[-14,-4],[-6,0],[-4,1],[-2,1],[-20,15],[-28,62],[-41,10]],[[677,484],[23,-27],[3,-4],[1,-2],[0,-2],[7,-24],[4,-7],[26,-28],[14,-6],[21,6],[5,0],[4,0],[23,-10],[29,-28],[1,-2],[1,-2],[8,-14],[12,-14],[25,-21],[3,-4],[1,-2],[6,-14],[10,-10],[4,-6],[16,-40],[6,-21],[7,-45],[47,-35],[42,26],[11,21],[2,2],[2,2],[16,8],[93,0],[21,-9],[54,-52],[11,-1],[16,7],[7,1],[16,-3],[23,-1],[31,-4],[69,-24],[100,-53],[144,1],[19,-4],[59,-15],[325,57],[31,34],[42,27],[65,20],[49,1],[59,-32],[42,18],[192,2]],[[2525,151],[8,1]],[[2533,152],[2,0]],[[2535,152],[2,0]],[[2537,152],[2,1]],[[2539,153],[2,1]],[[2541,154],[2,0]],[[2543,154],[2,1]],[[2545,155],[25,9]],[[2570,164],[9,3]],[[2579,167],[13,5]],[[2592,172],[27,10]],[[2619,182],[6,2]],[[2625,184],[7,3]],[[2632,187],[4,1]],[[2636,188],[4,2]],[[2640,190],[6,2]],[[2646,192],[1,1]],[[2647,193],[2,0]],[[2649,193],[1,1]],[[2650,194],[1,1]],[[2651,195],[2,0]],[[2653,195],[1,1]],[[2654,196],[1,1]],[[2655,197],[2,1]],[[2657,198],[1,1]],[[2658,199],[1,1]],[[2659,200],[1,1]],[[2660,201],[1,1]],[[2661,202],[1,2]],[[2662,204],[1,1]],[[2663,205],[1,1]],[[2664,206],[1,2]],[[2665,208],[1,2]],[[2666,210],[1,1]],[[2667,211],[1,3]],[[2668,214],[3,6]],[[2671,220],[2,6]],[[2673,226],[3,5]],[[2676,231],[3,6]],[[2679,237],[2,6]],[[2681,243],[3,6]],[[2684,249],[0,1]],[[2684,250],[3,5],[3,5],[2,3],[2,3],[4,4],[2,2],[3,2],[3,2],[5,1],[31,9],[19,10],[42,44],[7,16],[0,31],[0,4],[2,5],[11,32],[4,8],[8,14],[2,4],[3,4],[4,3],[2,2],[4,2],[52,30],[5,3],[6,2],[8,3],[53,12],[47,25],[8,3],[141,44],[17,14],[145,167],[51,59],[4,4],[3,3],[5,4],[6,3],[4,2],[89,40],[61,66],[99,228],[141,303],[6,12],[51,90],[13,26],[24,83],[2,6],[4,8],[2,3],[4,6],[3,3],[4,4],[45,42],[3,3],[74,55],[66,107]],[[3954,2812],[-151,212],[-91,186]],[[3905,3763],[-85,-133]],[[3900,3809],[-6,8],[-4,12],[-1,3],[2,8],[2,3],[4,5],[199,166]],[[3900,3809],[11,-33]],[[3900,3809],[1,0]],[[3901,3809],[10,-32]],[[3911,3777],[-2,-8],[-5,-7]],[[3904,3762],[-200,-273],[-32,-89],[30,-171],[18,-32],[29,-53],[54,-120],[102,-136],[46,-68],[3,-8],[0,-8]],[[3909,3769],[-4,-6]],[[3905,3763],[-1,-1]],[[4096,4014],[-202,-170],[-4,-15],[20,-35],[2,-10],[-1,-9],[-1,-5]],[[4096,2441],[-142,363]],[[4019,2634],[23,-63],[5,-14],[25,-60],[13,-30],[11,-27]],[[201,688],[3,-1],[0,1],[-4,0],[0,-1],[1,1]],[[960,139],[1,-1],[-1,1]],[[2123,145],[1,0],[0,1],[-1,-1]],[[0,504],[85,84]],[[202,689],[-10,0]],[[192,689],[-78,-57],[-59,-93],[-4,-6],[-3,-3],[-6,-5],[-3,-2],[-4,-2],[-35,-17]],[[86,589],[20,33],[6,7],[3,4],[53,53],[2,1],[2,1],[3,1],[3,0],[24,0]],[[202,689],[-7,0],[-3,0]],[[202,689],[-19,0],[19,1]],[[201,688],[3,-1],[0,1],[-4,0],[0,-1],[1,1]],[[0,504],[48,26],[64,99],[56,57],[7,3],[7,0]],[[182,689],[31,1]],[[181,689],[-132,-157],[-3,-3],[-4,-4],[-3,-2],[-4,-2],[-35,-17]],[[183,689],[-1,0]],[[182,689],[-1,0]],[[214,689],[-6,0],[-16,0]],[[192,689],[-11,0]],[[183,689],[28,0]],[[213,690],[-2,-1]],[[214,689],[-3,0],[-3,0],[-10,0],[-6,0]],[[213,690],[42,-11],[3,-5],[25,-56],[20,-16],[26,2],[42,31],[8,2],[89,-4],[16,-6],[55,-55],[92,-20],[6,-7],[18,-40],[20,-20],[27,-31],[35,-60],[15,-9],[30,5],[5,-1],[3,-1],[18,-8],[29,-28],[1,-2],[1,-2],[8,-14],[12,-14],[26,-22],[23,-35],[16,-40],[6,-21],[7,-45],[45,-35],[42,24],[14,24],[19,11],[93,0],[21,-9],[54,-52],[11,-1],[16,7],[7,1],[16,-3],[23,-1],[31,-4],[69,-24],[100,-53],[144,1],[19,-4],[59,-15],[325,57],[31,34],[42,27],[65,20],[49,1],[59,-32],[42,18],[192,2]],[[2525,151],[8,1]],[[2533,152],[2,0]],[[2535,152],[2,0]],[[2537,152],[2,1]],[[2539,153],[2,1]],[[2541,154],[2,0]],[[2543,154],[2,1]],[[2545,155],[25,9]],[[2570,164],[9,3]],[[2579,167],[13,5]],[[2592,172],[27,10]],[[2619,182],[6,2]],[[2625,184],[7,3]],[[2632,187],[4,1]],[[2636,188],[4,2]],[[2640,190],[6,2]],[[2646,192],[1,1]],[[2647,193],[2,0]],[[2649,193],[1,1]],[[2650,194],[1,1]],[[2651,195],[2,0]],[[2653,195],[1,1]],[[2654,196],[1,1]],[[2655,197],[2,1]],[[2657,198],[1,1]],[[2658,199],[1,1]],[[2659,200],[1,1]],[[2660,201],[1,1]],[[2661,202],[1,2]],[[2662,204],[1,1]],[[2663,205],[1,1]],[[2664,206],[1,2]],[[2665,208],[1,2]],[[2666,210],[1,1]],[[2667,211],[1,3]],[[2668,214],[3,6]],[[2671,220],[2,6]],[[2673,226],[3,5]],[[2676,231],[3,6]],[[2679,237],[2,6]],[[2681,243],[3,6]],[[2684,249],[0,1]],[[4096,1915],[-66,-94],[-135,-116],[-30,-97],[-13,-26],[-57,-102],[-230,-515],[-5,-9],[-3,-4],[-4,-5],[-59,-64],[-107,-52],[-200,-230],[-17,-14],[-326,-126],[-37,-114],[-2,-5],[-3,-4],[-33,-35],[-5,-4],[-5,-4],[-11,-7],[-5,-3],[-7,-2],[-27,-6],[-12,-8],[-32,-61],[-2,-3],[-3,-4],[-3,-3],[-3,-2],[-4,-2],[-4,-2],[-103,-38],[-6,-2],[-4,-1],[-94,-11],[-8,-1],[-7,-1],[-10,0],[-9,1],[-72,10],[-30,-16],[-3,-1],[-3,-1],[-3,0],[-3,0],[-3,0],[-3,1],[-3,1],[-3,1],[-47,29],[-49,-1],[-66,-21],[-41,-26],[-4,-5],[-6,-12],[-1,-3],[-3,-4],[-4,-3],[-4,-3],[-4,-2],[-5,-2],[-8,-2],[-312,-55],[-5,-1],[-3,1],[-5,0],[-51,15],[-19,3],[-13,-1],[-26,-11],[-3,-1],[-43,0],[-3,0],[-4,1],[-18,5],[-14,1],[-20,6],[-6,2],[-3,1],[-22,10],[-15,2],[-4,1],[-4,1],[-20,12],[-3,2],[-4,3],[-15,16],[-4,3],[-43,12],[-26,12],[-13,0],[-2,0],[-12,3],[-4,1],[-10,-1],[-4,1],[-11,1],[-14,3],[-7,-1],[-11,-5],[-3,-1],[-2,-1],[-4,0],[-1,0],[-4,0],[-2,1],[-3,2],[-1,1],[-2,2],[-48,47],[-21,9],[-93,0],[-19,-11],[-8,-17],[-1,-2],[-1,-2],[-4,-3],[-25,-20],[-4,-2],[-4,-2],[-2,0],[-3,-1],[-2,0],[-2,1],[-2,0],[-1,1],[-3,2],[-33,25],[-3,3],[-2,2],[-1,2],[-2,4],[-1,5],[-1,3],[0,10],[-2,12],[-1,11],[-3,12],[-3,9],[-7,13],[-9,27],[-4,6],[-7,6],[-3,4],[-3,5],[-3,9],[-3,5],[-26,22],[-7,7],[-5,7],[-4,7],[-4,8],[-2,3],[-15,12],[-14,16],[-25,10],[-22,-5],[-6,-1],[-3,1],[-4,1],[-4,2],[-2,1],[-5,5],[-19,19],[-2,3],[-2,4],[-3,5],[-7,25],[-3,5],[-26,30],[-17,17],[-3,3],[-1,2],[-13,27],[-4,11],[-6,7],[-39,6],[-45,11],[-6,1],[-4,3],[-6,3],[-27,20],[-4,3],[-2,2],[-2,4],[-9,17],[-3,5],[-16,6],[-10,0],[-21,-9],[-9,-2],[-4,-1],[-3,0],[-2,1],[-4,0],[-2,1],[-3,1],[-19,12],[-12,1],[-8,-3],[-36,-26],[-3,-3],[-3,-1],[-6,-3],[-4,0],[-4,-1],[-4,0],[-2,0],[-4,1],[-2,1],[-4,1],[-3,2],[-2,1],[-3,2],[-4,4],[-4,5],[-3,7],[-22,50],[-3,5],[-41,10]],[[2684,250],[3,5],[3,5],[2,3],[2,3],[4,4],[2,2],[3,2],[3,2],[5,1],[31,9],[19,10],[42,44],[7,16],[0,31],[0,4],[2,5],[11,32],[4,8],[8,14],[2,4],[3,4],[4,3],[2,2],[4,2],[52,30],[5,3],[6,2],[8,3],[53,12],[47,25],[8,3],[141,44],[17,14],[145,167],[51,59],[4,4],[3,3],[5,4],[6,3],[4,2],[89,40],[61,66],[99,228],[141,303],[6,12],[51,90],[13,26],[24,83],[2,6],[4,8],[2,3],[4,6],[3,3],[4,4],[45,42],[3,3],[74,55],[66,107]],[[201,688],[3,-1],[0,1],[-4,0],[0,-1],[1,1]],[[2123,145],[1,0],[0,1],[-1,-1]],[[4019,2634],[77,-193]],[[3954,2812],[-151,212],[-91,186]],[[3905,3763],[-40,-56],[-43,-73],[-2,-4]],[[3900,3809],[-4,5],[-2,3],[-4,12],[-1,3],[2,8],[2,3],[4,5],[199,166]],[[3900,3809],[11,-33]],[[3900,3809],[1,0]],[[3901,3809],[10,-32]],[[3911,3777],[-2,-8],[-5,-7]],[[3904,3762],[-200,-273],[-32,-89],[30,-171],[18,-32],[29,-53],[43,-93],[11,-27],[16,-17],[31,-41],[23,-31],[32,-47],[46,-68],[1,-2],[1,-3],[1,-3],[0,-8]],[[3909,3769],[-4,-6]],[[3905,3763],[-1,-1]],[[4096,4014],[-202,-170],[-4,-15],[5,-14],[9,-10],[4,-6],[2,-5],[2,-5],[0,-2],[0,-3],[0,-6],[-1,-3],[-1,-5]],[[4096,2441],[-142,363]],[[4096,2440],[-11,27],[-13,30],[-25,60],[-5,14],[-23,63]],[[0,504],[85,84]],[[202,689],[-10,0]],[[192,689],[-78,-57],[-59,-93],[-4,-6],[-3,-3],[-6,-5],[-3,-2],[-4,-2],[-35,-17]],[[86,589],[26,40],[3,4],[53,53],[10,3],[24,0]],[[202,689],[-10,0]],[[202,689],[-19,0],[19,1]],[[201,688],[3,-1],[0,1],[-4,0],[0,-1],[1,1]],[[2833,4096],[9,-8],[7,-4],[17,1],[12,11]],[[3224,4096],[8,-165],[35,-42],[125,5],[45,-3],[108,-5],[7,0],[3,0],[225,-83],[24,-1],[80,13],[3,1],[1,-1],[3,0],[2,-1],[1,0],[3,-2],[6,-5],[1,-2],[4,-6],[2,-5],[2,-5],[0,-5],[-1,-9],[-1,-5]],[[2833,4096],[9,-8],[2,-2],[3,-1],[2,-1],[4,-1],[4,-1],[2,1],[3,0],[4,1],[3,2],[2,2],[10,8]],[[3215,4096],[-3,-23],[-1,-7],[0,-9],[0,-5],[2,-11],[19,-110],[2,-6],[2,-4],[2,-4]],[[3238,3917],[17,-21]],[[3255,3896],[5,-4],[3,-1],[4,-2],[3,0],[3,-1],[5,-1],[274,-1],[129,-51],[95,-31],[4,-1],[5,-1],[6,0],[6,0],[7,0],[77,13]],[[3881,3815],[16,-3]],[[3897,3812],[4,-3]],[[3901,3809],[10,-32]],[[3911,3777],[-1,-7]],[[3954,2812],[-151,212],[-91,186]],[[3905,3763],[-85,-133]],[[3897,3812],[14,-36]],[[3909,3769],[-1,-1],[-3,-5]],[[3905,3763],[-1,-1]],[[3909,3769],[-5,-7]],[[3904,3762],[-200,-273],[-32,-89],[30,-171],[18,-32],[29,-53],[43,-93],[11,-27],[16,-17],[31,-41],[23,-31],[32,-47],[46,-68],[1,-2],[1,-3],[1,-3],[0,-8]],[[4096,2441],[-142,363]],[[4096,2439],[-49,118],[-28,77]],[[3908,3800],[2,1],[-3,2],[-1,0],[2,-3]],[[4096,1915],[-66,-94],[-131,-111],[-34,-101],[-12,-26],[-7,-13]],[[3857,1592],[33,101],[1,4],[3,6],[5,7],[4,5],[5,6],[45,42],[3,3],[74,55],[66,107]],[[2833,4096],[9,-8],[7,-4],[17,1],[12,11]],[[3224,4096],[8,-165],[35,-42],[125,5],[45,-3],[108,-5],[7,0],[3,0],[225,-83],[24,-1],[80,13],[3,1],[1,-1],[3,0],[2,-1],[1,0],[3,-2],[6,-5],[1,-2],[4,-6],[2,-5],[2,-5],[0,-2],[0,-3],[-1,-9],[-1,-5]],[[2833,4096],[9,-8],[2,-2],[3,-1],[2,-1],[4,-1],[4,-1],[2,1],[3,0],[4,1],[3,2],[2,2],[10,8]],[[3215,4096],[-3,-23],[-1,-7],[0,-9],[0,-5],[2,-11],[19,-110],[2,-6],[2,-4],[2,-4]],[[3238,3917],[11,-15],[3,-3],[3,-3]],[[3255,3896],[5,-4],[3,-1],[4,-2],[3,0],[3,-1],[5,-1],[274,-1],[129,-51],[95,-31],[4,-1],[5,-1],[6,0],[6,0],[7,0],[77,13]],[[3881,3815],[16,-3]],[[3897,3812],[4,-3]],[[3901,3809],[3,-4],[3,-4],[3,-7],[2,-7],[0,-3],[-1,-7]],[[3911,3777],[-1,-7]],[[3238,3917],[17,-21]],[[3954,2812],[-151,212],[-91,186]],[[3905,3763],[-40,-56],[-43,-73],[-2,-4]],[[3897,3812],[14,-36]],[[3911,3777],[1,9],[-1,3],[-1,5],[-2,4],[-2,3],[-3,5],[-2,3]],[[3909,3769],[-4,-6]],[[3905,3763],[-1,-1]],[[3909,3769],[-5,-7]],[[3904,3762],[-200,-273],[-32,-89],[30,-171],[18,-32],[29,-53],[43,-93],[11,-27],[16,-17],[31,-41],[23,-31],[32,-47],[46,-68],[1,-2],[1,-3],[1,-3],[0,-8]],[[4096,2441],[-142,363]],[[4019,2634],[23,-63],[5,-14],[25,-60],[13,-30],[11,-27]],[[3908,3800],[2,1],[-3,2],[-1,0],[2,-3]],[[3954,2812],[-151,212],[-91,186]],[[3905,3763],[-40,-56],[-43,-73],[-2,-4]],[[3909,3769],[-1,-1],[-3,-5]],[[3905,3763],[-1,-1]],[[3906,3801],[5,-25]],[[3911,3777],[-5,24]],[[3907,3801],[3,-7],[2,-5],[0,-5],[-1,-7]],[[3911,3777],[-1,-7]],[[3907,3801],[3,-7],[1,-2],[1,-3],[0,-2],[0,-3],[0,-6],[-1,-3],[-1,-5]],[[3909,3769],[-5,-7]],[[3904,3762],[-200,-273],[-32,-89],[30,-171],[18,-32],[29,-53],[43,-93],[11,-27],[16,-17],[31,-41],[23,-31],[32,-47],[46,-68],[1,-2],[1,-3],[1,-3],[0,-8]],[[4096,2441],[-13,32],[-38,90],[-40,112],[-27,43],[-24,86]],[[4019,2634],[23,-63],[5,-14],[49,-118]],[[4096,2448],[-13,25]],[[3908,3800],[2,1],[-3,2],[-1,0],[2,-3]],[[3874,2153],[23,-6]],[[3897,2147],[13,-3],[3,0],[9,2],[5,0],[26,0],[5,-1],[5,-1],[5,-1],[5,-1],[32,-10],[6,-2],[3,-2],[4,-2]],[[4018,2126],[-55,18],[-53,0],[-15,3]],[[3895,2147],[-10,3]],[[3895,2147],[2,0]],[[4018,2126],[57,-6]],[[4096,2112],[-21,8]],[[4075,2120],[21,-5]],[[3991,3752],[8,-5]],[[4001,3747],[52,-41]],[[4055,3705],[10,-45],[31,-13]],[[1687,2249],[-4,-29]],[[1687,2249],[2,4]],[[1689,2253],[-2,-4]],[[1693,2261],[1,1]],[[1729,39],[0,-21]],[[2136,151],[16,-22]],[[2288,147],[-26,-1]],[[2437,152],[-26,-1]],[[2502,152],[-64,3]],[[2657,206],[-7,-2]],[[2713,277],[-5,-32]],[[2113,139],[-15,-10]],[[1104,3283],[1,-1]],[[1105,3282]],[[1105,3282],[21,-31]],[[78,619],[-2,0]],[[148,734],[-7,-4]],[[148,734],[1,0],[0,1],[-1,0],[0,-1]],[[206,800],[-2,0],[2,-1]],[[207,800],[0,3],[-1,-3]],[[206,799],[1,-3],[0,3]],[[216,546]],[[216,546]],[[216,546],[-1,0]],[[216,546]],[[216,546]],[[216,546]],[[216,546],[-1,0],[1,0]],[[228,683],[-3,1]],[[255,659]],[[255,659],[1,-2]],[[256,655],[-1,4]],[[317,577],[0,1]],[[3228,3905],[-9,7]],[[3904,3752],[1,2]],[[3911,3772],[1,0]],[[3924,3801],[-3,-6]],[[3924,3794],[1,7]],[[3932,3790],[-1,0]],[[3932,3790],[-1,2]],[[3931,3790],[1,0]],[[3965,1757],[1,-1]],[[3967,1757],[-1,1]],[[4018,3874],[-21,-7]],[[4005,1793],[-1,1]],[[4007,3780]],[[4009,3779],[-2,1]],[[4017,1800],[0,-1]],[[4040,1808],[1,-1]],[[4042,1808]],[[4068,2544],[0,-1]],[[4069,2543]],[[116,715],[-1,-1],[1,0],[0,1]],[[187,744],[-1,-1],[1,0],[0,1]],[[190,790],[1,1],[0,1],[-2,-1],[1,-1]],[[207,801],[-1,-1],[1,-2],[1,1],[-1,2]],[[315,577],[2,-1],[0,2],[-2,0],[0,-1]],[[329,580],[2,0],[0,1],[-1,1],[-1,-2]],[[3190,4023],[0,1],[-1,-1],[1,0]],[[3195,3999],[1,0],[0,1],[-1,0],[0,-1]],[[3202,3970],[1,2],[-2,2],[-1,-2],[2,-2]],[[3983,2723],[0,-1],[1,0],[0,1],[-1,0]],[[3997,2695],[0,-1],[1,0],[0,1],[-1,0]],[[4030,2625],[0,-1],[1,0],[-1,1]],[[4038,3873],[0,-1],[1,0],[0,1],[-1,0]],[[4045,3871],[0,-1],[1,0],[0,1],[-1,0]],[[4008,2008],[2,-2]],[[4028,1995],[12,-6]],[[4040,1989],[-9,5]],[[4051,1982],[-1,1]],[[260,3686],[0,1]],[[751,3978],[-12,58]],[[3916,3715],[-16,-7],[-1,-1]],[[3899,3707],[-1,0]],[[3898,3707],[-7,-7],[-49,-231]],[[3843,3472],[32,136],[12,54],[11,45]],[[3898,3707],[1,0]],[[3899,3707],[1,1],[19,7]],[[3974,3743],[30,14]],[[4003,3757],[-29,-14]],[[4022,3767],[-11,-6]],[[4011,3761],[11,6]],[[4026,3769],[6,11]],[[4031,3780],[-5,-11]],[[4096,3948],[-16,-11]],[[4080,3937],[-27,-18]],[[4053,3919],[-3,-2],[-2,-22]],[[4049,3894],[4,25]],[[4053,3919],[0,1],[27,17]],[[4080,3937],[16,10]],[[256,3592],[4,94]],[[3842,3469],[-6,-29]],[[3837,3440],[6,32]],[[3990,3752],[-1,0]],[[3990,3752]],[[4000,3747],[0,-1]],[[4001,3746],[-1,1]],[[258,642],[2,-7]],[[262,630],[4,-10]],[[2045,108],[11,4]],[[228,604],[-18,0]],[[3936,2834],[-62,96]],[[3879,2163],[19,-4]],[[3898,2160],[-6,2],[-13,1]],[[2655,1635],[-14,-7]],[[288,3182],[5,-3]],[[2655,1635],[14,-5]],[[121,680],[1,-1],[1,0],[0,2],[-2,-1]],[[4068,2543],[1,0]],[[4069,2543],[-1,1]],[[3962,2396],[1,-2],[1,1],[0,1],[-2,0]],[[4050,2581],[1,-1],[0,1],[-1,0]],[[1693,2261],[-4,-8]],[[1689,2253],[4,8]],[[2738,293],[-1,-1]],[[2737,292],[1,1]],[[2810,363],[-72,-70]],[[718,3947]],[[961,115],[-6,28]],[[3975,3758],[6,-3]],[[3976,2440],[5,-12]],[[1071,3575],[-10,-13]],[[240,678],[-2,4]],[[134,620],[-9,-2]],[[125,617],[10,2]],[[3501,2426],[36,48]],[[1044,4096],[38,-114],[-62,-183],[7,-39]],[[1803,75],[-74,-36]],[[1716,2386],[-1,0]],[[4040,1808],[-21,-8]],[[4096,1878],[-54,-70]],[[276,647],[-17,-4]],[[260,643],[16,3]],[[2828,4096],[26,-16]],[[3243,3901],[3,-4]],[[3567,3633],[2,1]],[[3643,3542]],[[76,620],[-4,-1]],[[75,619]],[[4006,3877],[0,1],[-1,0],[0,-1],[1,0]],[[4016,3889],[-1,0],[1,0]],[[4027,3900],[0,1],[-1,0],[1,-1]],[[284,640],[11,-14]],[[76,619],[2,0]],[[314,3196],[0,-1]],[[315,3196],[0,1]],[[1135,106],[0,3]],[[1200,203],[-1,0]],[[1201,203],[0,1]],[[1826,3478],[-1,0]],[[1852,3478],[-2,-1]],[[2030,145],[-4,27]],[[2145,106],[8,3]],[[2184,153],[1,-1]],[[2186,152],[0,1]],[[3237,3892],[-9,13]],[[3234,3890],[2,2]],[[3234,3890],[-2,-1],[-3,1],[3,-1],[2,1]],[[3896,3717],[2,11]],[[3896,3717],[1,-3]],[[3898,3715],[-2,2]],[[3898,3730],[0,-2]],[[3898,3728],[0,2]],[[4053,3926],[11,5],[-1,-5]],[[4062,3925],[3,5],[-1,2],[-11,-5]],[[30,693],[1,-1],[1,1],[-1,1],[-1,-1]],[[47,1602],[1,-1],[1,1],[-1,1],[-1,-1]],[[50,1675],[-1,1],[-1,-1],[1,-1],[1,1]],[[115,1540],[1,1],[-1,1],[-1,-1],[1,-1]],[[195,1280],[0,-1],[1,0],[0,1],[-1,0]],[[201,891],[0,-1],[0,-1],[1,1],[-1,1]],[[203,1167],[-1,-1],[0,-1],[1,1],[0,1]],[[280,3150],[0,-1],[1,0],[0,1],[-1,0]],[[315,3196],[-1,0],[0,-1],[1,1]],[[410,38],[1,0],[-1,0]],[[420,17],[-1,0],[1,0]],[[450,26],[0,1],[0,-1]],[[588,170],[-1,0],[0,-1],[1,0],[0,1]],[[701,462],[0,1],[0,-1]],[[704,441],[-1,0],[0,-2],[1,1],[0,1]],[[858,2762],[-1,0],[0,-1],[1,0],[0,1]],[[906,2757],[-1,-1],[1,0],[0,1]],[[944,148],[-1,0],[1,-1],[1,0],[-1,1]],[[1004,141],[1,1],[0,1],[-2,0],[1,-2]],[[1028,3759],[-1,0],[0,-1],[1,1]],[[1036,175],[1,0],[0,1],[-1,-1]],[[1053,3519],[-1,-1],[1,0],[0,1]],[[1054,3528],[-1,0],[1,-1],[0,1]],[[1058,47],[-1,0],[-1,-1],[1,0],[1,1]],[[1072,3576],[-1,-1],[1,0],[0,1]],[[1076,3567],[-1,0],[1,-1],[0,1]],[[1079,3560],[1,0],[0,1],[-1,-1]],[[1082,3548],[-1,-1],[1,0],[0,1]],[[1084,58],[0,-2],[1,0],[1,1],[-2,1]],[[1094,2642],[0,1],[-1,0],[1,-1]],[[1097,205],[-1,0],[0,-1],[1,0],[0,1]],[[1105,3283],[-1,0],[1,-1],[0,1]],[[1109,41]],[[1116,211],[1,-1],[0,1],[-1,0]],[[1126,3251],[1,0],[-1,0]],[[1129,215],[1,0],[-1,1],[0,-1]],[[1136,110],[-1,1],[-1,-2],[2,0],[0,1]],[[1138,94],[-1,0],[0,-1],[1,0],[0,1]],[[1143,3217],[0,-1],[1,0],[0,1],[-1,0]],[[1154,1747],[1,0],[0,1],[-1,0],[0,-1]],[[1169,208],[-1,1],[0,-1],[1,0]],[[1201,203],[-1,-1],[1,0],[0,1]],[[1206,1803],[0,1],[-1,-1],[1,0]],[[1503,903],[1,0],[0,1],[-1,0],[0,-1]],[[1639,77],[1,0],[0,1],[-1,-1]],[[1672,70],[1,0],[-1,1],[0,-1]],[[1686,1501],[1,0],[-1,0]],[[1734,2158],[1,1],[-1,0],[0,-1]],[[1742,113],[-1,1],[-1,0],[1,-1],[1,0]],[[1825,3478],[-1,0],[1,0]],[[1852,3478]],[[1870,3486],[0,1],[-1,-1],[1,0]],[[1891,897],[-1,0],[0,-1],[1,1]],[[1929,3123],[1,0],[-1,0]],[[1953,192],[-1,-1],[1,0],[0,1]],[[2027,172],[-1,1],[-1,0],[1,-1]],[[2026,172],[1,0]],[[2090,105],[0,1],[-1,-1],[1,0]],[[2186,153],[-1,0],[0,-1]],[[2185,152],[1,0],[0,1]],[[2278,2353],[1,-1],[1,0],[0,1],[-2,0]],[[2523,2262],[1,0],[-1,0]],[[2571,2230]],[[2592,185],[1,0],[1,1],[-2,0],[0,-1]],[[2640,2232],[-1,-1],[1,0],[0,1]],[[2722,1683],[0,-4],[0,4]],[[2814,420],[-2,0],[0,-3],[2,1],[0,2]],[[2851,468],[2,0],[-1,1],[-1,0],[0,-1]],[[2867,476],[0,1],[-1,1],[0,-1],[1,-1]],[[2887,3260],[0,1],[-1,-1],[1,0]],[[2947,3308],[-1,0],[-1,-1],[1,0],[1,1]],[[3108,2140],[1,0],[-1,1],[0,-1]],[[3115,2158],[0,-1],[1,0],[0,1],[-1,0]],[[3118,2162],[-1,0],[1,-1],[0,1]],[[3224,3893],[-1,1],[0,-1],[1,0]],[[3236,3892],[1,0]],[[3237,3892],[-1,0]],[[3271,3876],[-1,0],[1,-1],[0,1]],[[3375,3541],[0,-1],[1,0],[-1,1]],[[3405,3798],[-1,0],[0,-1],[1,1]],[[3500,3645],[0,1],[-1,0],[0,-1],[1,0]],[[3538,3885],[-1,0],[0,-1],[1,0],[0,1]],[[3539,3564],[0,-1],[1,1],[-1,0]],[[3551,3875],[-1,-1],[1,0],[0,1]],[[3660,3262],[0,-1],[1,0],[0,1],[-1,0]],[[3697,3191],[0,1],[0,-1]],[[3739,3649],[0,-1],[1,0],[-1,1]],[[3749,3124],[1,0],[-1,1],[-1,0],[1,-1]],[[3768,3154],[0,-1],[1,-1],[0,1],[-1,1]],[[3787,3081],[0,-1],[1,-1],[1,1],[-2,1]],[[3794,3058],[0,-1],[1,0],[0,1],[-1,0]],[[3804,3026]],[[3810,3341],[-1,-1],[1,-1],[1,1],[-1,1]],[[3826,3396],[-1,0],[1,0]],[[3899,3714],[-1,1],[-1,-2],[1,0],[1,1]],[[3939,2862],[1,-1],[0,1],[-1,0]],[[3984,3410]],[[3990,3752],[-1,0],[1,-1],[0,1]],[[4001,3747],[-1,0],[0,-1],[1,1]],[[4014,3399],[-1,1],[0,-1],[1,0]],[[4054,3705],[1,1],[-1,1],[-1,-1],[1,-1]],[[4056,3381],[1,0],[-1,0]],[[4062,3926],[-2,-1],[1,-1],[2,1],[-1,1]],[[280,3147],[1,2]],[[280,3149],[0,-2]],[[294,2912],[-28,148],[14,87]],[[294,2912],[1,-2]],[[295,2909],[-1,3]],[[4059,2217],[-6,-16],[-4,-1],[-3,-1],[-8,-16],[-2,-6]],[[4036,2177],[25,30],[-2,12],[-3,5]],[[4041,2172],[-3,2]],[[3138,3932],[23,8],[65,31],[36,-9]],[[3262,3963],[-36,8],[-2,0],[-86,-39]],[[1695,2265],[-2,-4]],[[1694,2262],[1,3]],[[1696,2266],[-1,-1]],[[3857,3819],[-20,-8]],[[2708,245],[12,-6]],[[1636,76],[5,-9]],[[215,689],[0,-3]],[[0,3718],[11,-5]],[[468,3893],[51,-10]],[[3342,755],[0,-1]],[[4096,1961]],[[4096,2054],[-2,4]],[[4094,2058],[-20,46],[1,6]],[[4096,2165],[-16,-14],[-4,-31]],[[4077,2120],[19,26]],[[4085,2090],[9,-32]],[[4094,2058],[2,-5],[0,-1]],[[2438,155],[-1,-3]],[[2180,150],[-35,-43]],[[2207,177],[-17,-25]],[[4002,2175],[36,-1]],[[2280,2353],[97,100]],[[2377,2453],[6,4]],[[2383,2457],[172,190],[58,311],[163,236],[59,43]],[[2886,3260],[-49,-24]],[[2887,3261],[58,46]],[[2947,3308],[57,37]],[[3016,3356],[-12,-11]],[[3016,3356],[141,105],[41,13],[24,-19],[152,85]],[[3374,3540],[1,0]],[[3375,3541],[-1,-1]],[[3377,3542],[-1,-1]],[[3376,3541],[1,1]],[[3377,3542],[161,21]],[[3539,3564],[-1,-1]],[[3538,3563],[1,0]],[[3541,3564],[-1,0]],[[3540,3563],[1,1]],[[3541,3564],[4,0]],[[3651,3602],[86,45]],[[3737,3647],[2,1]],[[3739,3648],[-2,-1]],[[3742,3650],[-3,-1]],[[3740,3649],[2,1]],[[3742,3650],[145,100]],[[3578,3618],[0,1]],[[3642,3542],[1,0]],[[1673,62],[2,-8]],[[3868,2163],[11,0]],[[3967,2080],[8,-20]],[[3976,2058],[-9,22]],[[255,606],[-10,-2]],[[260,635],[2,-5]],[[295,2910],[-160,33]],[[2078,117],[-7,-3]],[[309,609],[-12,15],[11,-15]],[[1685,2219],[49,-60]],[[4075,1686],[-1,1],[-1,0],[1,-1],[1,0]],[[4081,1668],[1,0],[0,1],[-2,0],[1,-1]],[[588,170],[59,83],[56,185]],[[703,442],[-2,20]],[[703,439],[0,-1]],[[703,438],[1,1]],[[703,442],[0,-1]],[[704,441],[-1,1]],[[364,3889],[22,13]],[[3963,2397],[0,-1]],[[3963,2397],[15,28]],[[3963,2396],[0,1]],[[3978,2425],[2,1]],[[3979,2427],[-1,-2]],[[3888,1650],[-1,-2]],[[3911,1700],[0,-2]],[[3966,1758],[-1,-1]],[[4004,1794],[-2,-2]],[[4019,1800],[-2,0]],[[4042,1808],[-2,0]],[[2320,165],[91,-14]],[[255,653],[2,-10]],[[256,3592],[-57,51]],[[955,143],[-10,4]],[[3954,2824],[0,-2],[2,1],[0,1],[-2,0]],[[207,803],[-1,14]],[[209,587],[4,-20]],[[213,717],[1,-11]],[[213,551],[3,-4]],[[216,545],[7,-17]],[[3996,3866],[1,0],[0,1],[-1,0],[0,-1]],[[3921,3795],[-12,7]],[[3910,3770]],[[3910,3770],[11,25]],[[0,610],[106,-37],[49,-10],[8,2]],[[162,565],[-162,46]],[[364,574],[80,-47],[4,0]],[[448,527],[61,-6]],[[509,521],[36,-3],[21,-2],[2,1]],[[568,517],[4,1],[20,9],[8,-7]],[[600,520],[45,-38],[12,-41],[70,-40],[76,-30],[3,0]],[[806,371],[24,-4],[3,-5],[5,-6]],[[838,356],[69,-73],[30,-107],[1,-1]],[[938,175],[27,-22]],[[965,153],[12,-9],[10,-11],[57,-11],[140,2],[27,9],[127,25]],[[1338,158],[1,0],[99,-38]],[[1438,120],[82,-32],[13,3]],[[1533,91],[186,45],[4,1]],[[1723,137],[8,2],[16,6],[64,23],[80,18],[343,40],[189,34],[86,-25],[43,-8]],[[2552,227],[33,-6],[11,-5],[1,-1]],[[2597,215],[8,-6],[3,-2],[13,-8],[6,-3],[17,-5],[22,0],[18,8],[10,8],[45,29],[13,9],[7,6],[57,109],[36,86],[7,33],[2,3],[3,4]],[[2864,486],[4,5],[1,1],[7,5],[8,6]],[[2884,503],[3,1],[34,23],[63,32],[14,9],[677,544],[3,7]],[[3678,1119],[22,47]],[[3700,1166],[1,3],[113,301],[8,112]],[[3822,1583],[-9,-114],[-54,-132],[-45,-126],[-13,-41],[0,-1],[-1,-3]],[[3700,1166],[-4,-15],[-1,-3],[-3,-9],[-3,-8],[-11,-12]],[[3678,1119],[-11,-13],[-670,-538],[-77,-41],[-33,-22],[-3,-2]],[[2884,503],[-20,-17]],[[2864,486],[-2,-2],[-3,-3],[-4,-11],[-3,-24],[-36,-85],[-61,-112],[-89,-58],[-28,2],[-39,22],[-2,0]],[[2597,215],[-45,12]],[[2552,227],[-127,33],[-534,-74],[-78,-17],[-82,-29],[-8,-3]],[[1723,137],[-26,-10],[-5,-3],[-159,-33]],[[1533,91],[-13,-3],[-82,32]],[[1438,120],[-100,38]],[[1338,158],[-3,1],[-124,-26],[-27,-9],[-196,9],[-19,19],[-4,1]],[[965,153],[-24,5],[-3,17]],[[938,175],[-2,13],[-28,96],[-69,71],[-1,1]],[[838,356],[-32,15]],[[806,371],[-1,0],[-78,31],[-32,25],[-79,95],[-16,-2]],[[600,520],[-32,-3]],[[568,517],[-2,-1],[-21,2],[-36,3]],[[509,521],[-61,5],[0,1]],[[448,527],[-29,27],[-52,24]],[[4027,2257],[32,-37],[0,-2]],[[4059,2218],[0,-1],[-1,0],[1,1]],[[4059,2218],[2,1],[9,3],[7,-1],[16,7],[3,1]],[[4096,2233],[-40,-9],[-29,33]],[[3868,3822],[-2,0]],[[3867,3821],[1,1]],[[3906,3812],[-38,10]],[[3906,3812],[1,-1]],[[3907,3812],[-1,0]],[[4006,3878],[10,11]],[[3951,2172],[-22,-10]],[[3934,2164],[17,8]],[[4018,3874],[20,-1]],[[4040,3872],[5,-1]],[[4046,3870],[26,6]],[[271,657],[6,-10]],[[315,832],[-6,-22]],[[3895,3651],[1,0]],[[3896,3651],[0,1]],[[3896,3651],[3,-14]],[[3899,3636],[10,-44]],[[1924,68],[120,40]],[[2848,4096],[12,-11]],[[2860,4085],[15,10]],[[2875,4095],[2,1]],[[3221,3896],[2,-3]],[[3224,3893],[5,-3]],[[3237,3892],[32,-15]],[[3269,3877],[1,-1]],[[3271,3876],[-2,1]],[[3271,3875],[1,0]],[[3272,3875],[-1,1]],[[3272,3875],[132,-77]],[[3405,3797],[94,-151]],[[3500,3645],[39,-79]],[[3539,3566],[0,-2]],[[3539,3564],[0,2]],[[3539,3563],[0,-1]],[[3539,3562],[1,1]],[[3539,3562],[30,-184],[91,-116]],[[3661,3261],[36,-69]],[[3748,3127],[-51,64]],[[3748,3127],[0,-2]],[[3749,3125],[-1,2]],[[3749,3124],[1,-2]],[[3750,3122],[-1,2]],[[3758,3107],[-8,15]],[[3774,3085],[-16,22]],[[3758,3107],[7,-16],[5,-5],[2,-1]],[[3786,3080],[-9,4]],[[199,3643],[-164,52]],[[2045,108],[0,1],[-1,0],[0,-1],[1,0]],[[169,615],[-3,0]],[[167,614],[2,0]],[[266,619],[-5,-6]],[[262,613],[4,5]],[[4027,3772],[-14,4]],[[4014,3775],[13,-3]],[[3980,2430],[0,-2]],[[3980,2428],[-1,-1],[1,-1],[1,1],[-1,1]],[[3887,3750],[16,4]],[[3903,3754],[1,-1]],[[3904,3753],[-1,1]],[[4012,1807],[6,-13]],[[4016,1800],[-3,7]],[[4022,1785],[-6,13]],[[4096,2454],[-160,380]],[[4005,2010],[3,-2]],[[4031,1994],[-24,17]],[[4010,2006],[18,-11]],[[4075,2110],[1,8]],[[4076,2118],[1,2]],[[4076,2120],[0,-2]],[[4076,2118],[9,-28]],[[3234,3909],[1,0]],[[3242,3900],[1,1]],[[1549,2419],[1,-1]],[[1550,2418],[-1,1]],[[1690,2389],[-140,29]],[[1857,2378],[-74,25]],[[1859,2378],[-2,0]],[[1857,2378],[2,-1]],[[2394,2289],[-134,80],[-54,3],[-2,-1],[-14,-8]],[[2190,2363],[-63,-36],[-6,0]],[[2121,2327],[-9,0],[-2,0],[-18,0]],[[2092,2327],[-38,1],[-4,1]],[[2050,2329],[-122,39],[-13,9],[-54,1]],[[1861,2378],[54,-1],[12,-10],[73,-35],[50,-3]],[[2050,2329],[42,-2]],[[2092,2327],[18,-1],[9,0],[2,1]],[[2121,2327],[69,36]],[[2190,2363],[14,7],[2,1],[54,-3],[134,-80]],[[3054,2148],[-6,0]],[[3048,2148],[6,0]],[[3076,2153],[-22,-5]],[[3076,2153],[192,-39],[29,-53],[124,22],[145,-18]],[[3566,2066],[-145,17],[-52,-2],[-71,-20],[-30,53],[-161,48],[-1,0],[-30,-9]],[[2145,107],[-1,0],[0,-1],[1,0],[0,1]],[[3734,2150],[111,13]],[[3837,2163],[-84,-7]],[[3858,2163],[4,0]],[[3864,2163],[-5,0]],[[3929,2162],[5,2]],[[2840,403],[102,67]],[[2967,481],[28,7]],[[3578,3618],[65,-75]],[[3578,3619]],[[3644,3536],[-2,6]],[[3929,2162],[-31,-2]],[[2727,218],[-2,1],[0,-2],[1,0],[1,1]],[[1881,46],[0,1],[-1,0],[0,-1],[1,0]],[[1731,2343],[1,0],[-1,0]],[[1743,2390],[1,-2],[3,2],[-4,0]],[[1745,2381],[1,0],[-1,0]],[[1057,44],[-8,-44]],[[1057,46]],[[4007,2011],[-2,-1]],[[3605,3582],[-4,10]],[[4093,2487],[3,-12]],[[4096,2475],[-2,9]],[[3167,524],[-154,-34]],[[4015,2266],[-3,-1]],[[4012,2265],[-2,0],[1,-2],[1,1],[0,1]],[[4012,2264],[3,1]],[[1808,2574],[-54,-135]],[[1929,3123],[-126,-301],[5,-247]],[[1819,3445],[102,-253]],[[1850,3477],[-25,1]],[[1869,3486],[-17,-8]],[[1900,4096],[-12,-85],[9,-79],[62,-56],[-11,-125],[21,-98],[-72,-89],[16,-52],[-43,-26]],[[1921,3191],[12,-36]],[[1947,3131],[-17,-8]],[[1933,3154],[14,-22]],[[3424,831],[3,2]],[[3266,611],[87,68]],[[3439,844],[17,12]],[[1549,2419],[0,1],[-1,0],[1,-1]],[[1860,2379],[-1,-1],[1,-1],[1,1],[-1,1]],[[2394,2289],[0,-1],[2,0],[-1,1],[-1,0]],[[3048,2147],[0,1],[0,-1]],[[3836,3439],[1,0],[-1,1],[0,-1]],[[1927,198],[-15,3]],[[4040,3915]],[[4052,3928],[-2,-1],[1,-2],[2,1],[-1,2]],[[258,644],[-3,8]],[[2821,1720],[1,0],[-1,0]],[[3378,2307],[1,-1],[0,1],[-1,0]],[[3467,2392],[1,0],[-1,0]],[[269,664],[2,-7]],[[3909,3769],[0,1]],[[3910,3769]],[[3910,3769]],[[4050,1982],[46,-21]],[[4096,1962],[-45,20]],[[3916,2895],[1,1],[-1,1],[-1,-1],[1,-1]],[[60,689],[61,-9]],[[122,680],[-1,0]],[[121,680],[0,-1]],[[238,682],[-3,0]],[[3842,1638],[9,-5]],[[3852,1634],[-9,5]],[[254,653],[1,0]],[[266,620],[0,-1]],[[258,642],[1,0],[0,2],[-2,-1],[1,-1]],[[267,620],[-4,12]],[[1726,2329],[-11,-2]],[[2641,1628],[-176,-159]],[[2722,1683],[1,1]],[[2723,1684],[-1,-1]],[[2821,1720],[-98,-36]],[[2903,4096],[-49,-16]],[[3234,3913],[1,-4]],[[3246,3897],[145,-62],[178,-201]],[[3567,3633],[11,-14]],[[3643,3542],[0,1]],[[3874,2930],[-173,296],[-57,310]],[[256,656],[-1,-2]],[[1696,2267],[0,-1]],[[2737,292]],[[4011,3777],[0,-1],[1,0],[0,1],[-1,0]],[[2062,120]],[[213,567],[0,-16]],[[1703,2295],[-7,-28]],[[4018,1794],[13,-30],[25,-53],[17,-24]],[[4074,1687],[-52,98]],[[4074,1686],[6,-17]],[[4081,1669],[-6,17]],[[4081,1668],[15,-35]],[[4096,1643],[-11,22],[-3,3]],[[1727,2330],[4,13]],[[1732,2343],[13,38]],[[1745,2388],[1,-1]],[[1745,2382],[1,5]],[[1746,2387],[0,1]],[[4002,3787],[3,-5]],[[4005,3782],[2,-2]],[[4007,3780],[-2,2]],[[3768,3155],[0,-1]],[[3810,3339],[-42,-184]],[[3769,3154],[-1,1]],[[3768,3152],[1,-1]],[[3769,3151],[0,1]],[[3769,3151],[19,-68]],[[3788,3083],[-1,-2]],[[3788,3081],[0,2]],[[3788,3079],[2,-3]],[[3790,3076],[-2,4]],[[3790,3076],[4,-14]],[[3794,3062],[0,-4]],[[3795,3058],[-1,4]],[[3794,3056],[1,-3]],[[3795,3053],[0,4]],[[3795,3053],[9,-27]],[[3804,3026],[65,-79]],[[3825,3396],[-15,-55]],[[3829,3409],[-3,-13]],[[3834,3425],[-5,-16]],[[3834,3425],[1,9]],[[3835,3434],[2,5]],[[3836,3439],[-1,-5]],[[3869,2947],[16,-17]],[[3885,2930],[27,-31]],[[3912,2899],[3,-3]],[[3916,2896],[-4,3]],[[3916,2895],[8,-8]],[[3924,2887],[-7,8]],[[3924,2887],[11,-18]],[[3935,2869],[4,-7]],[[3940,2862],[-5,7]],[[3940,2861],[9,-13]],[[3949,2848],[-9,13]],[[3949,2848],[2,-8]],[[4053,3929],[-1,-1]],[[4053,3928],[0,1]],[[4096,3977],[-43,-48]],[[3974,3743],[-58,-28]],[[3919,3715],[55,28]],[[4034,3797],[-3,-17]],[[4032,3780],[3,20]],[[4048,3895],[-10,-76]],[[4038,3819],[11,75]],[[4013,2181],[-23,-9],[-4,-9]],[[3986,2162],[16,13]],[[3900,3735],[4,17]],[[3904,3752],[1,3]],[[3905,3755],[5,14]],[[124,616],[1,1],[-1,1],[-1,-1],[1,-1]],[[135,619],[2,1],[-1,1],[-2,0],[1,-2]],[[2709,294],[1,-2]],[[2713,277],[12,-56]],[[2725,217],[0,-2]],[[2725,221],[0,-2]],[[2725,215],[1,2]],[[2769,98],[-44,117]],[[2726,218],[-1,3]],[[2768,87],[1,11]],[[2769,98],[0,-15]],[[1684,2219],[0,1],[-1,-1],[0,-1],[1,1]],[[2368,178],[0,-1],[1,-1],[0,1],[-1,1]],[[2709,295],[0,-1]],[[2710,292],[1,-2]],[[2281,177],[-41,-1]],[[210,603],[18,1]],[[4002,1792],[3,1]],[[4017,1799],[2,1]],[[4041,1807],[1,1]],[[4011,3761],[-8,-4]],[[4004,3757],[7,4]],[[4026,3769],[-4,-2]],[[4022,3767],[4,2]],[[4038,3819],[-4,-22]],[[4035,3800],[3,19]],[[2709,296],[0,-1]],[[2302,4096],[55,-60],[201,-67],[199,6],[185,-63],[125,1],[71,19]],[[3138,3932],[-196,-20],[-185,63],[-198,-6],[-202,67],[-55,60]],[[3262,3962],[39,-9],[123,-123],[76,-32]],[[3500,3798],[36,-16]],[[3536,3782],[112,-113],[2,-1],[168,-221]],[[3827,3439],[-177,229],[-112,113],[-2,1]],[[3536,3782],[-36,16]],[[3500,3798],[-75,32],[-124,123],[-39,10]],[[295,3190],[-7,-8]],[[1275,3776],[125,133]],[[3911,1698],[-23,-48]],[[3965,1757],[-54,-57]],[[4002,1792],[-36,-34]],[[4017,1800],[-13,-6]],[[3972,3808],[-11,5]],[[1682,0],[-7,5]],[[1729,18],[-1,-18]],[[2045,109],[-145,31],[-97,-65]],[[2136,151],[-23,-12]],[[2152,129],[110,17]],[[2720,239],[-14,-21]],[[2707,217],[3,-32]],[[2815,356],[5,-1]],[[727,3974],[12,-1]],[[3886,1643],[2,4]],[[3889,1649],[22,48]],[[3912,1699],[54,57]],[[3967,1757],[36,34]],[[3864,3820],[-7,-1]],[[3864,3820],[2,0]],[[3865,3821],[-1,-1]],[[4072,3876],[24,10]],[[3964,3833],[1,0]],[[3965,3833],[0,1]],[[3842,1640],[-2,0],[1,-2],[2,1],[-1,1]],[[3853,1631],[0,2],[-1,1],[-1,-2],[2,-1]],[[4096,1962],[0,-1]],[[1675,54],[10,-21]],[[1675,5],[10,28]],[[308,608],[2,0],[0,1],[-2,0],[0,-1]],[[2062,121],[-1,0],[1,-1],[0,1]],[[1791,0],[89,46]],[[1881,47],[43,21]],[[3966,1756],[1,1]],[[3975,2354],[43,-86]],[[277,646],[7,-6]],[[295,626],[2,-2]],[[122,679],[12,-58]],[[135,621],[-12,58]],[[309,607],[2,-1]],[[311,606],[-1,2]],[[311,606],[17,-22]],[[328,584],[2,-2]],[[330,582],[-2,2]],[[331,580],[1,-1]],[[332,579],[-1,1]],[[332,579],[19,-24]],[[3888,1648],[-35,-15]],[[3853,1632],[33,11]],[[2820,355],[15,31]],[[3987,3753],[2,-1]],[[2768,87],[1,-7]],[[2769,80],[0,-1]],[[2770,80],[-1,0]],[[2770,79],[0,-1]],[[2770,78],[0,1]],[[2770,78],[9,-34]],[[2786,40],[-7,4]],[[2786,40],[6,-6]],[[123,617],[-19,3],[-17,1],[-9,-1]],[[79,619],[44,-3]],[[136,619],[31,-5]],[[166,615],[-29,5]],[[243,604],[-13,1]],[[230,604],[13,-1]],[[245,604],[10,2]],[[261,613],[-5,-7]],[[256,606],[6,7]],[[266,618],[1,1]],[[351,961],[-36,-129]],[[4075,2154],[16,2]],[[2711,290],[2,-13]],[[4007,3780],[4,-3]],[[4011,3777],[-2,2]],[[4012,3776],[2,-1]],[[4013,3776],[-1,0]],[[254,659],[-9,8]],[[1028,3759],[-1,0]],[[1027,3758],[1,0]],[[1028,3758],[0,1]],[[1028,3758],[44,-182]],[[1072,3575],[3,-7]],[[1075,3568],[0,-1]],[[1076,3567],[-1,1]],[[1076,3566]],[[1076,3566]],[[1076,3566],[3,-5]],[[1079,3560],[3,-12]],[[1082,3547],[22,-264]],[[1104,3283]],[[1104,3283]],[[1126,3251],[17,-34]],[[1144,3216],[104,-152],[-3,-87],[129,-178],[174,-379]],[[3910,3591],[74,-181]],[[3984,3410],[28,-10]],[[4013,3400],[-1,0]],[[4012,3400],[1,-1]],[[4013,3399],[1,0]],[[4014,3398],[42,-17]],[[4057,3381],[39,-16]],[[3859,2163],[-8,1],[-14,-1]],[[3845,2163],[13,0]],[[3862,2163],[6,0]],[[3879,2163],[-15,0]],[[3898,2159],[31,3]],[[207,603],[0,-2]],[[207,601],[0,2]],[[207,601],[2,-14]],[[3934,3819],[-4,-29]],[[3931,3790],[3,29]],[[3939,3821],[-4,-2]],[[3930,3790],[1,0],[-1,0]],[[3934,3819],[1,0],[-1,0]],[[260,3687],[58,96],[2,59]],[[272,677],[0,-1],[0,1]],[[2812,362],[19,-16],[-1,-119],[-53,-171],[50,-56]],[[115,714],[0,-1]],[[115,713],[1,1]],[[115,713],[7,-31]],[[116,716],[0,-1]],[[141,730],[-25,-14]],[[116,715],[0,1]],[[122,682],[0,-2]],[[123,681],[-1,1]],[[147,733],[1,1]],[[150,735],[-1,0]],[[149,735],[1,0]],[[186,743],[-36,-8]],[[188,745],[-1,-1]],[[187,744],[1,1]],[[191,789],[-3,-44]],[[190,790],[1,-1]],[[192,793],[-1,-1]],[[191,789],[0,1]],[[191,792],[1,1]],[[204,800],[-12,-7]],[[2208,179],[-1,1],[-1,-1],[1,-1],[1,1]],[[2240,177],[-1,-1],[1,-1],[0,1],[0,1]],[[2281,177],[0,-1],[1,0],[0,1],[-1,0]],[[3966,3834],[-1,-1]],[[3975,3803],[-1,4]],[[3990,3861],[1,0],[0,1],[-1,0],[0,-1]],[[3499,916],[2,0]],[[3501,916],[-2,1]],[[3501,916],[26,-1]],[[536,3889],[33,11]],[[569,3900],[45,18]],[[3171,542],[0,-1]],[[3171,541],[1,1]],[[3171,541],[1,-6]],[[2089,106],[-18,8]],[[2090,105],[53,0]],[[2143,105],[1,1]],[[2144,106],[-1,-1]],[[2206,178],[1,0]],[[4005,2010],[2,1]],[[4018,2268],[9,-11]],[[4025,2181],[10,-6],[0,1]],[[4035,2176],[1,1]],[[4036,2177],[-2,-1],[1,0]],[[4035,2176],[1,0]],[[2711,290],[26,2]],[[3981,3755],[6,-2]],[[2792,34],[25,-34]],[[4028,3772],[-1,0],[1,0]],[[4032,3771]],[[266,3060],[-24,-64],[-242,-104]],[[282,3151],[-1,-1]],[[281,3150],[1,1]],[[282,3151],[32,44]],[[292,3178],[1,0]],[[1052,3516],[-24,-68],[-94,-57],[-38,15],[-22,-46],[-114,-4],[-85,-100],[-222,-9],[-124,-28],[-15,-23]],[[1052,3516],[1,2]],[[1052,3518],[0,-2]],[[1053,3520],[0,-1]],[[1053,3518],[0,2]],[[1054,3527],[-1,-7]],[[1061,3562],[-7,-34]],[[1076,3567],[5,-1]],[[1095,3570],[79,54],[95,136]],[[1400,3909],[70,39],[19,72],[63,74],[-1,2]],[[3924,3794],[7,-2]],[[3170,543],[-6,1]],[[3171,543],[-1,0]],[[3170,543],[1,-1]],[[225,684],[-10,2]],[[228,683]],[[255,659],[-1,0]],[[255,653],[1,0]],[[255,652],[1,1]],[[256,653],[0,2]],[[3965,3834],[-1,-1]],[[3965,3833]],[[3966,3834],[-1,-2],[9,-25]],[[3974,3807],[-8,26]],[[254,654],[0,-1],[1,0],[0,1],[-1,0]],[[3588,3575],[0,-1],[1,0],[0,1],[-1,0]],[[3634,3594],[-1,1],[-1,0],[1,-1],[1,0]],[[450,27],[-30,-10]],[[456,5],[-6,21]],[[1269,3760],[6,16]],[[300,3185],[-5,5]],[[3960,3783],[30,13]],[[3990,3796],[-16,11],[-4,-13]],[[3996,3792],[-6,4]],[[3996,3792],[1,-1]],[[3998,3792],[-2,0]],[[3967,3761],[0,1],[0,-1]],[[3998,3792],[-1,-1],[1,-1],[1,1],[-1,1]],[[3601,3592],[1,3]],[[2706,295],[3,0]],[[2709,295],[-2,0]],[[2709,295],[6,3]],[[2715,298],[0,1]],[[2715,298],[1,1]],[[2710,185],[-31,-8],[-22,29]],[[3008,489],[-2,-5]],[[3182,554],[-19,-10]],[[3167,525],[5,10]],[[3183,555],[-1,-1]],[[3182,554],[2,0]],[[3184,554],[-1,1]],[[3184,554],[29,12]],[[3350,696],[1,4]],[[3354,691],[-3,4]],[[3427,833],[7,-12]],[[3442,826],[-3,18]],[[3183,555]],[[3242,3900],[-8,9]],[[18,3708],[-7,5]],[[519,3883],[17,6]],[[718,3947],[-104,-29]],[[726,3968],[-8,-21]],[[4040,3915],[-9,-9]],[[4032,3906],[8,9]],[[4050,3925],[-10,-10]],[[170,613],[1,0],[0,2],[-2,0],[1,-2]],[[177,612],[1,0],[0,1],[-1,-1]],[[206,604],[1,-1],[1,1],[-1,1],[-1,-1]],[[2056,112],[5,8]],[[3957,2172],[-6,0]],[[3951,2172],[6,0]],[[3784,3885],[73,-66]],[[2650,204],[-130,-48]],[[56,689],[4,0]],[[263,632],[-4,10]],[[3672,4096],[26,-14],[86,-197]],[[2820,355],[-10,8]],[[4027,3772]],[[4027,3772]],[[4032,3771],[-4,1]],[[3986,2163],[-19,-83]],[[3967,2080],[19,82]],[[3975,2060],[27,-47]],[[4004,2014],[-28,44]],[[3907,3811],[0,-1]],[[3907,3810],[0,1]],[[3909,3802],[-2,8]],[[3907,3811],[0,1],[0,-1]],[[2706,218],[1,-1]],[[3867,3821],[-1,1],[-1,-1],[1,-1],[1,1]],[[3164,544],[-1,0]],[[3172,543],[-1,0],[0,-1],[1,0],[0,1]],[[3351,695]],[[3208,4096],[-8,-45],[34,-138]],[[4050,1983],[0,-1]],[[3993,3864],[2,2]],[[3995,3866],[1,0]],[[3996,3867],[-1,-1]],[[3997,3867],[8,10]],[[4016,3889],[9,11]],[[4025,3900],[1,0]],[[4026,3901],[-1,-1]],[[4031,3906],[-4,-4]],[[4027,3901],[5,5]],[[3537,927],[-10,-12]],[[1081,3566],[14,4]],[[4019,1800],[22,7]],[[4042,1808],[54,69]],[[4027,2854],[8,-65],[37,-132],[8,-39],[16,-55]],[[4036,2794],[-1,13],[-7,47]],[[4096,2582],[-60,211]],[[1135,109],[2,-13]],[[1137,96],[0,-2]],[[1138,95],[-1,1]],[[3960,3779],[3,-6]],[[3963,3773],[-3,6]],[[3963,3773],[4,-11]],[[3967,3762],[0,-1]],[[3967,3761],[0,1]],[[2770,79],[0,1],[-1,-1],[1,0]],[[2031,145],[30,-23]],[[2061,122],[0,-1]],[[2062,121],[-1,1]],[[3887,1648],[1,2]],[[3911,1698],[0,2]],[[3951,2840],[4,-12]],[[3954,2822],[1,-19],[2,-9]],[[3955,2828],[0,-3]],[[3957,2794],[-2,28]],[[3956,2824],[-1,4]],[[3957,2794],[26,-70]],[[3984,2722],[13,-26]],[[3997,2696],[0,-1]],[[3998,2695],[-1,1]],[[3998,2694],[0,-1]],[[3998,2693],[0,1]],[[4026,2633],[-28,60]],[[4026,2633],[4,-8]],[[4030,2625],[-4,8]],[[4030,2624],[20,-43]],[[4051,2582],[-20,42]],[[4068,2542],[3,-4]],[[4071,2538],[-2,5]],[[4089,2499],[-18,39]],[[4089,2499],[4,-12]],[[4094,2484],[-3,9],[-2,6]],[[47,1676],[-47,79]],[[47,1676],[1,-1]],[[48,1676],[-1,0]],[[48,1605],[-1,-2]],[[50,1673],[-2,-68]],[[48,1603],[0,2]],[[48,1601],[0,-1]],[[48,1600],[0,1]],[[114,1543],[-66,57]],[[49,1674],[1,-1]],[[50,1673],[0,2]],[[114,1543],[1,-2]],[[115,1542],[-1,1]],[[115,1540],[2,-2]],[[117,1538],[-1,2]],[[195,1283],[-40,58],[-38,197]],[[195,1283],[0,-3]],[[196,1280],[-1,3]],[[195,1279],[1,-3]],[[196,1276],[0,3]],[[201,1172],[-5,104]],[[201,896],[1,265]],[[201,896],[0,-6]],[[202,891],[-1,5]],[[201,889],[0,-3]],[[201,1172],[1,-5]],[[203,1167],[-2,5]],[[201,886],[1,3]],[[206,817],[-5,69]],[[202,1161],[1,4]],[[202,1165],[0,-4]],[[223,528],[37,-65],[2,-128],[148,-296]],[[410,39],[0,-1]],[[410,38],[0,1]],[[410,38],[1,-1]],[[411,37],[0,1]],[[411,37],[8,-20]],[[3545,3564],[43,10]],[[3589,3575],[15,7]],[[3605,3582],[27,12]],[[3632,3594],[1,0]],[[3632,3595],[0,-1]],[[3634,3595],[-1,0]],[[3634,3595]],[[3634,3595],[17,7]],[[3777,3084],[-5,1]],[[3787,3081],[0,-1]],[[1138,92],[-29,-51]],[[1137,93],[1,-1]],[[1138,92],[0,1]],[[1139,95],[-1,-1]],[[1138,94],[1,1]],[[1200,201],[-61,-106]],[[1200,201],[1,1]],[[1200,202],[0,-1]],[[1200,203],[111,308],[136,184],[56,208]],[[1684,1432],[-180,-528]],[[1684,1432],[0,1],[0,1]],[[1684,1434],[0,-2]],[[1686,1501],[-2,-67]],[[1734,2158],[45,-65],[0,-89],[-21,-213],[-74,-230],[2,-59]],[[245,667],[-5,11]],[[210,604],[-2,0]],[[3970,3794],[-11,-10]],[[3959,3783],[1,1],[-1,0],[0,-1]],[[2071,114],[-8,5]],[[4027,2257],[-64,132]],[[3964,2384],[11,-30]],[[3477,2401],[3,4]],[[417,3902],[2,-4]],[[587,169],[-131,-164]],[[1055,46],[-54,19],[-40,50]],[[1056,46]],[[1058,46],[0,1]],[[1083,56],[-24,-10]],[[1083,56],[1,0]],[[1084,57],[-1,-1]],[[1085,56],[1,0]],[[1086,56],[-1,0]],[[1109,41],[-23,15]],[[3351,695],[-1,1]],[[2994,488],[2,-2]],[[2996,486],[-1,2]],[[2996,486],[10,-2]],[[751,3978],[-12,-5]],[[279,702],[-2,-8]],[[3910,3769],[0,1]],[[1715,2327],[-12,-32]],[[1749,2393],[-3,-2]],[[1746,2391],[3,2]],[[1754,2439],[-5,-46]],[[3944,3823],[-5,-2]],[[3944,3823],[3,-1]],[[3947,3822],[-3,1]],[[3950,3820],[-2,1]],[[3950,3820],[7,-6]],[[3958,3815],[-8,5]],[[3947,3822],[0,-1],[1,1],[-1,0]],[[3958,3815],[-1,-1],[0,-1],[1,2]],[[3972,3840],[17,20]],[[3989,3860],[1,1]],[[3990,3861],[-1,-1]],[[3991,3862]],[[3991,3861],[0,1]],[[3991,3862],[2,2]],[[3604,3582],[1,0]],[[1715,2386],[-25,3]],[[1783,2403],[-67,-17]],[[3566,2065],[127,16],[3,1],[28,44],[0,2],[5,9]],[[3729,2137],[5,13]],[[3753,2156],[-6,0],[-18,-19]],[[3729,2137],[-4,-3],[-32,-53],[-127,-15]],[[3537,2474],[48,32]],[[1639,77],[-3,-1]],[[1672,70],[-32,7]],[[276,646],[2,0],[-1,1],[-1,0],[0,-1]],[[476,2803],[-97,19],[-84,88]],[[476,2803],[2,-1]],[[492,2798],[-14,4]],[[492,2798],[2,-1]],[[841,2753],[-30,-16],[-317,60]],[[842,2754],[-1,-1]],[[856,2761],[-14,-7]],[[857,2762],[-1,-1]],[[856,2761],[1,0]],[[858,2761]],[[858,2761],[0,1]],[[874,2761],[-16,0]],[[874,2761],[3,0]],[[904,2756],[-27,5]],[[905,2757],[-1,-1]],[[904,2756],[1,0]],[[906,2756],[1,-1]],[[907,2755],[-1,1]],[[1094,2645],[-9,40],[-178,70]],[[1094,2645],[0,-2]],[[1094,2642],[1,-1]],[[1094,2643],[0,2]],[[1095,2641],[-1,1]],[[1546,2419],[-205,94],[-57,70],[-189,58]],[[1548,2420],[-2,-1]],[[1546,2419],[2,0]],[[2396,2288],[3,-1]],[[2399,2287],[-3,2]],[[2399,2287],[124,-25]],[[2523,2262]],[[2523,2262]],[[2524,2262],[1,-1]],[[2525,2261],[-1,1]],[[2525,2261],[11,-8]],[[2536,2253],[3,1]],[[2539,2254],[32,-23]],[[2571,2231],[0,-1]],[[2571,2230],[0,1]],[[2571,2230],[1,0]],[[2572,2230],[-1,0]],[[2572,2230],[66,1]],[[2639,2232],[-1,-1]],[[2638,2231],[1,0]],[[2640,2231],[1,-1]],[[2641,2230],[-1,1]],[[2641,2230],[230,-66],[167,-17]],[[3038,2147],[10,0]],[[3047,2148],[-9,-1]],[[272,676],[-3,-12]],[[277,694],[-5,-17]],[[309,810],[-30,-108]],[[2835,386],[5,17]],[[3818,3447],[17,-35]],[[3835,3412],[7,-15],[2,-234]],[[3844,3163],[0,-19],[175,-240],[8,-50]],[[4028,2854],[-8,51],[-175,239],[-1,19]],[[3844,3163],[-9,249]],[[3835,3412],[0,14],[-8,13]],[[0,697],[11,-1]],[[21,694],[-10,2]],[[21,694],[8,-1]],[[30,693]],[[32,692],[0,1]],[[33,693],[23,-4]],[[701,463],[-71,93],[-39,2],[-42,-54],[-174,24],[-24,27]],[[945,148],[-1,0]],[[945,148]],[[945,148],[56,-7]],[[1001,141],[3,1]],[[1003,142],[-2,-1]],[[1007,144],[-2,-1]],[[1005,142],[2,2]],[[1035,175],[-28,-31]],[[1036,176],[-1,-1]],[[1035,175],[1,0]],[[1039,176],[-2,0]],[[1037,175],[2,1]],[[1095,203],[-56,-27]],[[1095,203],[1,1]],[[1096,204],[-1,-1]],[[1097,204],[4,1]],[[1101,205],[-4,0]],[[1116,211],[-15,-6]],[[1129,215],[-12,-4]],[[1168,209],[-38,6]],[[1169,208],[31,-6]],[[1201,202],[2,0]],[[1203,202],[-2,1]],[[1641,67],[-197,36],[-241,99]],[[1673,70],[65,43]],[[1738,113],[2,0]],[[1740,114],[-2,-1]],[[1752,122],[-10,-8]],[[1742,113],[10,9]],[[1912,201],[-160,-79]],[[1951,192],[-24,6]],[[1951,192],[1,-1]],[[1953,192],[-2,0]],[[2025,173],[-55,9],[-17,9]],[[1965,186],[-11,6]],[[2207,179],[2,-1]],[[2209,178],[-1,1]],[[2209,178],[26,-2]],[[2239,176],[-4,0]],[[2235,176],[4,0]],[[2282,176],[2,1]],[[2284,177],[-2,0]],[[2284,177],[56,0]],[[2429,177],[161,6]],[[2590,183],[3,2]],[[2592,185],[-2,-2]],[[2597,186],[-3,0]],[[2594,185],[3,1]],[[2597,186],[77,55],[138,175]],[[2812,416],[0,1]],[[2812,417],[0,-1]],[[2814,421],[-1,0]],[[2814,420],[0,1]],[[2814,421],[36,45]],[[2850,466],[2,2]],[[2851,468],[-1,-2]],[[2854,469],[-1,0]],[[2853,468],[1,1]],[[2864,476],[-10,-7]],[[2864,476],[2,0]],[[2866,477],[-2,-1]],[[21,3706],[14,-11]],[[259,643]],[[259,642],[1,1]],[[0,415],[37,36],[-10,93],[48,75]],[[72,619],[-4,-2],[-18,-12],[-2,-3],[-3,-6],[-24,-66],[1,-14],[9,-15],[6,-50],[-15,-12],[-22,-24]],[[235,682],[-7,1]],[[1675,5]],[[3961,3813],[-3,1]],[[3969,3809],[8,-4]],[[3974,3807],[-2,1]],[[3998,3790],[3,-1]],[[4001,3789],[-2,2]],[[4001,3789],[1,-2]],[[3908,3770],[1,-1]],[[3909,3770],[1,-1]],[[3910,3769]],[[3877,3670],[1,2]],[[3877,3672],[0,-2]],[[3892,3653],[-15,17]],[[3892,3653],[1,-1]],[[3893,3653],[-1,0]],[[3899,3732],[-1,-1]],[[3899,3730],[0,2]],[[3899,3732],[1,3]],[[3878,3672],[1,1],[-1,1],[-1,-1],[1,-1]],[[3894,3654],[-1,-2]],[[3893,3652],[2,-1],[1,2],[-2,1]],[[3899,3730],[-1,1],[-1,-1],[1,0],[1,0]],[[3899,3637],[0,-1],[0,1]],[[3909,3591],[1,0],[0,1],[-1,0],[0,-1]],[[21,3706],[-3,2]],[[364,3889],[-44,-47]],[[419,3898],[-33,4]],[[417,3902],[22,-8]],[[569,3900]],[[923,4088],[-123,-59],[-61,7]],[[2967,481],[-25,-11]],[[3013,490],[-5,-1]],[[3167,525],[0,-1]],[[3213,566],[53,45]],[[3342,755],[82,76]],[[3351,700],[-9,54]],[[3353,679],[1,12]],[[3434,821],[8,5]],[[3456,856],[43,61]],[[3108,2140],[-234,-297],[-52,-123]],[[3116,2157],[-8,-16]],[[3116,2158],[2,3]],[[266,619],[0,1]],[[243,603],[2,0],[-1,1],[-1,0],[0,-1]],[[255,606],[1,0],[-1,1],[0,-1]],[[1504,904],[82,-32],[145,58],[159,-33]],[[2465,1469],[-90,-48],[-108,-138],[-245,-232],[-82,-141],[-49,-13]],[[2669,1630],[52,49]],[[2721,1679],[1,0]],[[2722,1680],[-1,-1]],[[78,619],[1,0]],[[1154,1747],[-184,-114],[-78,-198],[-221,-28],[-71,-60],[-162,-64],[-87,-322]],[[1205,1803],[-50,-55]],[[1683,2218],[-131,-215],[-326,-134],[-20,-65]],[[1816,3439],[8,38]],[[1824,3477],[0,1]],[[1824,3478],[0,-1]],[[1868,3485],[1,1]],[[1871,3487],[-1,-1]],[[4005,1793],[12,6]],[[3266,611]],[[468,3893],[-29,1]],[[726,3968],[1,6]],[[171,613],[6,-1]],[[177,612],[-5,2]],[[178,612],[28,-8]],[[206,604],[-28,8]],[[207,603],[3,0]],[[256,657],[0,-1]],[[3957,2172],[45,3]],[[4075,2155],[-49,27],[-69,-10]],[[4038,2174],[15,-11],[12,-6],[10,-3]],[[228,604],[1,-1],[1,0],[0,2],[-2,-1]],[[2240,176],[4,0]],[[2279,177],[2,-1]],[[2340,177],[23,0]],[[2368,177],[-5,0]],[[2363,177],[5,0]],[[2369,177],[5,0]],[[2374,177],[-5,0]],[[2374,177],[55,0]],[[3171,4096],[19,-72]],[[3190,4023],[5,-22]],[[3195,4001],[0,-1]],[[3196,4000],[-1,1]],[[3196,3999],[5,-26]],[[3202,3974],[-6,25]],[[3201,3970],[7,-18]],[[3208,3952],[-5,19]],[[3208,3952],[11,-40]],[[3212,3904],[5,6]],[[3216,3910],[-4,-6]],[[3212,3904],[9,-8]],[[3217,3911],[0,-1]],[[3313,3858],[222,26]],[[3537,3885],[-2,-1]],[[3535,3884],[2,0]],[[3538,3884],[0,1]],[[3538,3884]],[[3538,3884],[13,-9]],[[3837,3811],[-286,63]],[[1726,2329],[0,-1],[1,1],[0,1],[-1,-1]],[[1808,2575],[0,-1],[1,1],[-1,0]],[[1922,3191],[-1,1],[-1,0],[0,-1],[2,0]],[[1933,3154],[0,1],[0,-1]],[[1946,3131],[1,0],[1,0],[-1,1],[-1,-1]],[[2031,145],[0,1],[-1,-1],[0,-1],[1,1]],[[2288,147],[32,18]],[[2520,156],[-18,-4]],[[207,796],[6,-79]],[[214,706],[1,-17]],[[4050,3924],[1,1]],[[4051,2580],[1,-2]],[[4052,2578],[-1,2]],[[4052,2578],[15,-32]],[[4067,2546],[1,-3]],[[4068,2544],[-1,2]],[[367,578],[-35,16],[-65,-6],[-55,-11],[-50,-12]],[[163,565],[168,28],[33,-19]],[[4096,1942],[-63,-94],[-104,-99],[-1,-1]],[[3928,1748],[-61,-83]],[[3867,1665],[-17,-23],[-3,-4],[-6,-10],[-19,-45]],[[3822,1582],[31,63],[4,5],[10,15]],[[3867,1665],[51,76],[4,3],[6,4]],[[3928,1748],[1,1],[7,3],[12,10],[77,74],[71,101]],[[3351,2284],[28,22]],[[3379,2307],[88,85]],[[3467,2392],[10,9]],[[3480,2405],[16,15]],[[3496,2420],[1,2]],[[3497,2422],[-1,-1],[0,-1]],[[3497,2422],[4,4]],[[922,4096],[1,-8]],[[3959,3783],[1,-4]],[[3960,3779],[-1,4]],[[3967,3761],[1,0]],[[3968,3761],[-1,0]],[[3968,3761],[7,-3]],[[2098,129],[-20,-12]],[[4096,0],[-4096,0],[0,4096],[4096,0],[0,-4096]],[[135,636],[8,24],[28,27],[56,3],[26,-24],[15,-54],[-58,8],[0,-33],[-46,-4],[-18,11],[25,18],[-36,24]],[[203,635],[15,-2],[0,8],[-13,2],[-2,-8]],[[193,629],[7,-1],[2,5],[-5,0],[-4,-4]],[[215,686],[2,-13],[8,-2],[3,13],[-13,2]],[[192,645],[10,-3],[-1,14],[-6,1],[-3,-12]],[[191,613],[15,-4],[-3,13],[-4,1],[-8,-10]],[[190,663],[6,1],[0,5],[-6,-1],[0,-5]],[[259,635],[4,-13],[1,0],[-3,13],[-2,0]],[[143,649],[2,-3],[11,1],[-3,5],[-10,-3]],[[169,664],[0,-4],[9,0],[-1,8],[-8,-4]],[[187,636],[3,-1],[8,8],[-7,2],[-4,-9]],[[196,594],[5,-1],[4,5],[-5,0],[-4,-4]],[[3778,2198],[24,37],[43,-18],[-18,41],[74,-20],[59,-160],[-134,-54],[-15,17],[22,27],[27,7],[32,20],[-88,-15],[38,26],[-7,44],[31,4],[-55,0],[-2,5],[61,5],[-48,-2],[4,36],[-48,0]],[[3795,1830],[20,18],[15,-27],[39,35],[15,43],[-26,6],[19,23],[-34,23],[11,11],[34,-41],[15,19],[43,-12],[-12,-14],[44,-40],[-36,-36],[55,1],[-72,-19],[-81,-79],[14,31],[-63,58]],[[3876,1819],[13,-9],[7,9],[-16,6],[-4,-6]],[[3485,1878],[35,33],[52,0],[-11,23],[-30,-16],[-2,8],[41,18],[-2,27],[75,-46],[-41,-31],[7,-38],[-38,-19],[6,22],[-92,19]],[[3581,1935],[5,-5],[9,4],[-2,9],[-12,-8]],[[4096,2120],[0,-54],[-25,54],[25,0]],[[4096,2159],[0,-6],[-4,4],[4,2]],[[351,796],[41,-181],[-50,-72],[-122,-15],[-141,91],[-53,-1],[-3,50],[68,39],[32,89],[65,0],[120,143],[2,26],[-57,10],[3,76],[126,-121],[-31,-134]],[[1774,2226],[-69,16],[-28,78],[32,174],[84,-102],[-19,-166]],[[4096,2845],[0,-1292],[-27,-7],[-30,99],[-53,-6],[-72,-103],[-69,-25],[-59,186],[-67,60],[-4,245],[-57,-13],[-61,-67],[-44,36],[33,268],[36,29],[102,-36],[23,96],[65,45],[-32,89],[42,80],[58,43],[-19,167],[16,68],[115,52],[104,-14]],[[3155,4096],[116,0],[8,-48],[-20,-101],[-51,-68],[-75,0],[22,217]],[[4072,3879],[4,-72],[-102,-62],[0,-45],[-57,15],[-137,164],[18,28],[15,-28],[83,-5],[123,41],[53,-36]],[[3893,2323],[11,16],[73,-31],[-14,-15],[84,-75],[-9,-27],[-84,32],[-61,100]],[[3540,3572],[49,60],[8,-27],[21,14],[40,-20],[-33,-10],[21,-54],[-51,9],[10,-39],[-21,52],[-19,-19],[-25,34]],[[3925,3856],[27,45],[26,-8],[40,-79],[23,6],[-16,-55],[-23,23],[10,-31],[-46,1],[-41,98]],[[4096,180],[0,-180],[-1233,0],[-11,14],[52,1],[28,38],[-46,44],[39,45],[-5,40],[106,-55],[35,79],[-14,61],[21,42],[20,-30],[80,-18],[6,32],[68,11],[34,47],[63,-76],[58,-30],[26,44],[93,-83],[48,-138],[111,24],[-5,70],[59,4],[25,50],[49,4],[86,84],[65,-48],[13,-39],[102,19],[21,-56],[6,0]]]}