{"objects":{"water":{"type":"GeometryCollection","geometries":[{"type":"Polygon","properties":{"source":"naturalearthdata.com","kind":"ocean","area":1576712559132672,"sort_rank":200,"min_zoom":0.0,"id":1},"arcs":[[3]]},{"type":"LineString","properties":{"source":"naturalearthdata.com","kind":"ocean","sort_rank":205,"boundary":true,"min_zoom":0.0,"id":19},"arcs":[4]},{"type":"LineString","properties":{"source":"naturalearthdata.com","kind":"ocean","sort_rank":205,"boundary":true,"min_zoom":0.0,"id":1135},"arcs":[5]}]},"buildings":{"type":"GeometryCollection","geometries":[]},"places":{"type":"GeometryCollection","geometries":[{"type":"Point","properties":{"admin_level":"8","kind":"locality","name":"X\u00e0bia","kind_detail":"town","official_name":"J\u00e1vea\/X\u00e0bia","source":"openstreetmap.org","min_zoom":8.0,"id":258337724,"name:es":"J\u00e1vea","population":31909},"coordinates":[475,3971]},{"type":"Point","properties":{"kind":"locality","name":"Calpe","kind_detail":"town","source":"openstreetmap.org","min_zoom":8.0,"id":1762281470,"name:ca":"Calp","population":19591},"coordinates":[132,3436]},{"type":"Point","properties":{"admin_level":"8","kind":"locality","name":"Benissa","kind_detail":"town","source":"openstreetmap.org","min_zoom":8.0,"name:uk":"\u0411\u0435\u043d\u0456\u0441\u0430","name:ru":"\u0411\u0435\u043d\u0438\u0441\u0430","id":1288853960,"name:es":"Benisa","population":15000},"coordinates":[156,3702]},{"type":"Point","properties":{"admin_level":"8","kind":"locality","name":"Teulada","kind_detail":"town","source":"openstreetmap.org","min_zoom":8.0,"id":258509161,"population":14778},"coordinates":[306,3748]}]},"transit":{"type":"GeometryCollection","geometries":[]},"pois":{"type":"GeometryCollection","geometries":[]},"boundaries":{"type":"GeometryCollection","geometries":[{"type":"LineString","properties":{"name:kg":"Espania","name:ty":"Paniora","name:ka":"\u10d4\u10e1\u10de\u10d0\u10dc\u10d4\u10d7\u10d8","name:ko":"\uc2a4\ud398\uc778","name:cv":"\u0418\u0441\u043f\u0430\u043d\u0438","name:cu":"\u0407\u0441\u043f\u0430\u043d\u0457\ua657","name:kl":"Spania","name:cs":"\u0160pan\u011blsko","name:tt":"\u0418\u0441\u043f\u0430\u043d\u0438\u044f","name:co":"Spagna","name:kv":"\u0418\u0441\u043f\u0430\u043d\u0438\u044f","name:ku":"Spanya","name:to":"Sepeni","name:tl":"Espanya","name:ce":"\u0418\u0441\u043f\u0430\u043d\u0438","name:ta":"\u0b8e\u0b9a\u0bc1\u0baa\u0bcd\u0baa\u0bbe\u0ba9\u0bbf\u0baf\u0bbe","name:tg":"\u0418\u0441\u043f\u043e\u043d\u0438\u0451","name:ca":"Espanya","name:te":"\u0c38\u0c4d\u0c2a\u0c46\u0c2f\u0c3f\u0c28\u0c4d","name:cy":"Sbaen","name:qu":"Ispa\u00f1a","name:da":"Spanien","name:de":"Spanien","name:dz":"\u0f66\u0f72\u0f54\u0f71\u0f7a\u0f53\u0f0b","source":"openstreetmap.org","name:kn":"\u0cb8\u0ccd\u0caa\u0cc7\u0ca8\u0ccd","name:dv":"\u0787\u07a8\u0790\u07b0\u0795\u07ac\u0787\u07a8\u0782\u07b0","name:km":"\u17a2\u17c1\u179f\u17d2\u1794\u17c9\u17b6\u1789","name:lv":"Sp\u0101nija","name:lt":"Ispanija","name:uz":"Ispaniya","name:kk":"\u0418\u0441\u043f\u0430\u043d\u0438\u044f","name:ur":"\u06c1\u0633\u067e\u0627\u0646\u06cc\u06c1","name:lb":"Spuenien","name:la":"Hispania","name:uk":"\u0406\u0441\u043f\u0430\u043d\u0456\u044f","name:ug":"Ispaniye","name:li":"Spanje","name:ln":"Espania","name:el":"\u0399\u03c3\u03c0\u03b1\u03bd\u03af\u03b1","name:eo":"Hispanujo","name:en":"Spain","name":"Espa\u00f1a","name:tk":"Ispani\u00fda","name:ee":"Spain","name:th":"\u0e1b\u0e23\u0e30\u0e40\u0e17\u0e28\u0e2a\u0e40\u0e1b\u0e19","name:eu":"Espainia","name:et":"Hispaania","name:ay":"Ispa\u00f1a","name:rm":"Spagna","name:rn":"Esipanye","name:az":"\u0130spaniya","name:ie":"Hispania","name:id":"Spanyol","name:ig":"Spain","name:ik":"Spa\u00f1a","name:ar":"\u0625\u0633\u0628\u0627\u0646\u064a\u0627","name:io":"Hispania","name:is":"Sp\u00e1nn","name:am":"\u12a5\u1235\u1353\u1295\u12eb","name:it":"Spagna","name:an":"Espanya","name:ru":"\u0418\u0441\u043f\u0430\u043d\u0438\u044f","name:rw":"Esipanye","name:af":"Spanje","name:zu":"ISpeyini","kind_detail":"2","name:za":"Sihbanhyaz","name:zh-yue":"\u897f\u73ed\u7259","name:zh":"\u897f\u73ed\u7259","name:so":"Isbania","name:sm":"Spania","name:sl":"\u0160panija","name:sk":"\u0160panielsko","name:ja":"\u30b9\u30da\u30a4\u30f3","name:sh":"\u0160panija","name:se":"Sp\u00e1nia","name:sc":"Ispagna","name:br":"Spagn","name:bs":"\u0160panija","name:bn":"\u09b8\u09cd\u09aa\u09c7\u09a8","name:bo":"\u0f5e\u0f72\u0f0b\u0f54\u0f53\u0f0b\u0f61\u0f0d","name:bi":"Spain","name:sw":"Hispania","name:be":"\u0406\u0441\u043f\u0430\u043d\u0456\u044f","name:su":"Spanyol","name:bg":"\u0418\u0441\u043f\u0430\u043d\u0438\u044f","name:ss":"Sipeyini","name:ba":"\u0418\u0441\u043f\u0430\u043d\u0438\u044f","name:sq":"Spanja","name:jv":"Spanyol","name:sa":"\u0938\u094d\u092a\u0947\u0928\u094d","name:ia":"Espania","name:pt":"Espanha","name:ps":"\u0627\u0633\u067e\u0627\u0646\u06cc\u0627","name:oc":"Espanha","min_zoom":8.0,"name:ro":"Spania","name:zh-min-nan":"Se-pan-g\u00e2","name:os":"\u0418\u0441\u043f\u0430\u043d\u0438","name:or":"\u0b38\u0b4d\u0b2a\u0b47\u0b28","name:pl":"Hiszpania","name:st":"Spain","sort_rank":262,"name:sr":"\u0428\u043f\u0430\u043d\u0438\u0458\u0430","osm_relation":true,"name:pa":"\u0a38\u0a2a\u0a47\u0a28","name:tr":"\u0130spanya","name:hi":"\u0938\u094d\u092a\u0947\u0928","name:sv":"Spanien","name:he":"\u05e1\u05e4\u05e8\u05d3","name:hy":"\u053b\u057d\u057a\u0561\u0576\u056b\u0561","name:ht":"Espay","name:hu":"Spanyolorsz\u00e1g","name:hr":"\u0160panjolska","kind":"country","name:ts":"Spaniya","name:yi":"\u05e9\u05e4\u05d0\u05e0\u05d9\u05e2","name:iu":"\u14ef\u1438\u1403\u14d0","name:yo":"Sp\u00e9\u00ecn","name:mt":"Spanja","alt_name:eo":"Hispanio","name:ms":"Sepanyol","name:mr":"\u0938\u094d\u092a\u0947\u0928","name:my":"\u1005\u1015\u102d\u1014\u103a\u1014\u102d\u102f\u1004\u103a\u1004\u1036","official_name":"Reino de Espa\u00f1a","name:kw":"Spayn","name:mg":"Espaina","name:vi":"T\u00e2y Ban Nha","name:ml":"\u0d38\u0d4d\u0d2a\u0d46\u0d2f\u0d3f\u0d7b","name:mn":"\u0418\u0441\u043f\u0430\u043d\u0438","name:mi":"P\u0101niora","id":-1311341,"name:mk":"\u0428\u043f\u0430\u043d\u0438\u0458\u0430","name:vo":"Spany\u00e4n","name:fa":"\u0627\u0633\u067e\u0627\u0646\u06cc\u0627","name:fi":"Espanja","name:ky":"\u0418\u0441\u043f\u0430\u043d\u0438\u044f","name:fo":"Spania","name:fr":"Espagne","name:fy":"Spanje","int_name":"Spain","name:nl":"Spanje","name:nn":"Spania","name:no":"Spania","name:na":"Pain","name:ne":"\u0938\u094d\u092a\u0947\u0928","name:wa":"Espagne","name:wo":"Ispaa\u00f1","name:nv":"Dib\u00e9 Din\u00ed\u00ed Bik\u00e9yah","name:ga":"An Sp\u00e1inn","name:gd":"An Sp\u00e0inn","maritime_boundary":true,"name:gv":"Yn Spaainey","name:gu":"\u0ab8\u0acd\u0aaa\u0ac7\u0aa8"},"arcs":[0]},{"type":"LineString","properties":{"name:kg":"Espania","name:ty":"Paniora","name:ka":"\u10d4\u10e1\u10de\u10d0\u10dc\u10d4\u10d7\u10d8","name:ko":"\uc2a4\ud398\uc778","name:cv":"\u0418\u0441\u043f\u0430\u043d\u0438","name:cu":"\u0407\u0441\u043f\u0430\u043d\u0457\ua657","name:kl":"Spania","name:cs":"\u0160pan\u011blsko","name:tt":"\u0418\u0441\u043f\u0430\u043d\u0438\u044f","name:co":"Spagna","name:kv":"\u0418\u0441\u043f\u0430\u043d\u0438\u044f","name:ku":"Spanya","name:to":"Sepeni","name:tl":"Espanya","name:ce":"\u0418\u0441\u043f\u0430\u043d\u0438","name:ta":"\u0b8e\u0b9a\u0bc1\u0baa\u0bcd\u0baa\u0bbe\u0ba9\u0bbf\u0baf\u0bbe","name:tg":"\u0418\u0441\u043f\u043e\u043d\u0438\u0451","name:ca":"Espanya","name:te":"\u0c38\u0c4d\u0c2a\u0c46\u0c2f\u0c3f\u0c28\u0c4d","name:cy":"Sbaen","name:qu":"Ispa\u00f1a","name:da":"Spanien","name:de":"Spanien","name:dz":"\u0f66\u0f72\u0f54\u0f71\u0f7a\u0f53\u0f0b","source":"openstreetmap.org","name:kn":"\u0cb8\u0ccd\u0caa\u0cc7\u0ca8\u0ccd","name:dv":"\u0787\u07a8\u0790\u07b0\u0795\u07ac\u0787\u07a8\u0782\u07b0","name:km":"\u17a2\u17c1\u179f\u17d2\u1794\u17c9\u17b6\u1789","name:lv":"Sp\u0101nija","name:lt":"Ispanija","name:uz":"Ispaniya","name:kk":"\u0418\u0441\u043f\u0430\u043d\u0438\u044f","name:ur":"\u06c1\u0633\u067e\u0627\u0646\u06cc\u06c1","name:lb":"Spuenien","name:la":"Hispania","name:uk":"\u0406\u0441\u043f\u0430\u043d\u0456\u044f","name:ug":"Ispaniye","name:li":"Spanje","name:ln":"Espania","name:el":"\u0399\u03c3\u03c0\u03b1\u03bd\u03af\u03b1","name:eo":"Hispanujo","name:en":"Spain","name":"Espa\u00f1a","name:tk":"Ispani\u00fda","name:ee":"Spain","name:th":"\u0e1b\u0e23\u0e30\u0e40\u0e17\u0e28\u0e2a\u0e40\u0e1b\u0e19","name:eu":"Espainia","name:et":"Hispaania","name:ay":"Ispa\u00f1a","name:rm":"Spagna","name:rn":"Esipanye","name:az":"\u0130spaniya","name:ie":"Hispania","name:id":"Spanyol","name:ig":"Spain","name:ik":"Spa\u00f1a","name:ar":"\u0625\u0633\u0628\u0627\u0646\u064a\u0627","name:io":"Hispania","name:is":"Sp\u00e1nn","name:am":"\u12a5\u1235\u1353\u1295\u12eb","name:it":"Spagna","name:an":"Espanya","name:ru":"\u0418\u0441\u043f\u0430\u043d\u0438\u044f","name:rw":"Esipanye","name:af":"Spanje","name:zu":"ISpeyini","kind_detail":"2","name:za":"Sihbanhyaz","name:zh-yue":"\u897f\u73ed\u7259","name:zh":"\u897f\u73ed\u7259","name:so":"Isbania","name:sm":"Spania","name:sl":"\u0160panija","name:sk":"\u0160panielsko","name:ja":"\u30b9\u30da\u30a4\u30f3","name:sh":"\u0160panija","name:se":"Sp\u00e1nia","name:sc":"Ispagna","name:br":"Spagn","name:bs":"\u0160panija","name:bn":"\u09b8\u09cd\u09aa\u09c7\u09a8","name:bo":"\u0f5e\u0f72\u0f0b\u0f54\u0f53\u0f0b\u0f61\u0f0d","name:bi":"Spain","name:sw":"Hispania","name:be":"\u0406\u0441\u043f\u0430\u043d\u0456\u044f","name:su":"Spanyol","name:bg":"\u0418\u0441\u043f\u0430\u043d\u0438\u044f","name:ss":"Sipeyini","name:ba":"\u0418\u0441\u043f\u0430\u043d\u0438\u044f","name:sq":"Spanja","name:jv":"Spanyol","name:sa":"\u0938\u094d\u092a\u0947\u0928\u094d","name:ia":"Espania","name:pt":"Espanha","name:ps":"\u0627\u0633\u067e\u0627\u0646\u06cc\u0627","name:oc":"Espanha","min_zoom":8.0,"name:ro":"Spania","name:zh-min-nan":"Se-pan-g\u00e2","name:os":"\u0418\u0441\u043f\u0430\u043d\u0438","name:or":"\u0b38\u0b4d\u0b2a\u0b47\u0b28","name:pl":"Hiszpania","name:st":"Spain","sort_rank":262,"name:sr":"\u0428\u043f\u0430\u043d\u0438\u0458\u0430","osm_relation":true,"name:pa":"\u0a38\u0a2a\u0a47\u0a28","name:tr":"\u0130spanya","name:hi":"\u0938\u094d\u092a\u0947\u0928","name:sv":"Spanien","name:he":"\u05e1\u05e4\u05e8\u05d3","name:hy":"\u053b\u057d\u057a\u0561\u0576\u056b\u0561","name:ht":"Espay","name:hu":"Spanyolorsz\u00e1g","name:hr":"\u0160panjolska","kind":"country","name:ts":"Spaniya","name:yi":"\u05e9\u05e4\u05d0\u05e0\u05d9\u05e2","name:iu":"\u14ef\u1438\u1403\u14d0","name:yo":"Sp\u00e9\u00ecn","name:mt":"Spanja","alt_name:eo":"Hispanio","name:ms":"Sepanyol","name:mr":"\u0938\u094d\u092a\u0947\u0928","name:my":"\u1005\u1015\u102d\u1014\u103a\u1014\u102d\u102f\u1004\u103a\u1004\u1036","official_name":"Reino de Espa\u00f1a","name:kw":"Spayn","name:mg":"Espaina","name:vi":"T\u00e2y Ban Nha","name:ml":"\u0d38\u0d4d\u0d2a\u0d46\u0d2f\u0d3f\u0d7b","name:mn":"\u0418\u0441\u043f\u0430\u043d\u0438","name:mi":"P\u0101niora","id":-1311341,"name:mk":"\u0428\u043f\u0430\u043d\u0438\u0458\u0430","name:vo":"Spany\u00e4n","name:fa":"\u0627\u0633\u067e\u0627\u0646\u06cc\u0627","name:fi":"Espanja","name:ky":"\u0418\u0441\u043f\u0430\u043d\u0438\u044f","name:fo":"Spania","name:fr":"Espagne","name:fy":"Spanje","int_name":"Spain","name:nl":"Spanje","name:nn":"Spania","name:no":"Spania","name:na":"Pain","name:ne":"\u0938\u094d\u092a\u0947\u0928","name:wa":"Espagne","name:wo":"Ispaa\u00f1","name:nv":"Dib\u00e9 Din\u00ed\u00ed Bik\u00e9yah","name:ga":"An Sp\u00e1inn","name:gd":"An Sp\u00e0inn","maritime_boundary":true,"name:gv":"Yn Spaainey","name:gu":"\u0ab8\u0acd\u0aaa\u0ac7\u0aa8"},"arcs":[1]},{"type":"LineString","properties":{"name:pt":"Comunidade Valenciana","alt_name:ca":"Pa\u00eds Valenci\u00e0","name:ar":"\u0645\u0646\u0637\u0642\u0629 \u0628\u0644\u0646\u0633\u064a\u0629","name:cs":"Valencijsk\u00e9 spole\u010denstv\u00ed","min_zoom":8.0,"old_name":"Regne de Val\u00e8ncia","name:ru":"\u0412\u0430\u043b\u0435\u043d\u0441\u0438\u044f","name:pl":"Wsp\u00f3lnota Walencka","name:lt":"Valensijos regionas","id":-349043,"osm_relation":true,"kind":"region","name:en":"Valencian Community","name":"Comunitat Valenciana","sort_rank":256,"kind_detail":"4","name:fr":"Communaut\u00e9 Valencienne","name:de":"Valencianische Gemeinschaft","source":"openstreetmap.org","maritime_boundary":true,"name:be":"\u0412\u0430\u043b\u0435\u043d\u0441\u0456\u044f","name:es":"Comunidad Valenciana"},"arcs":[2]}]},"roads":{"type":"GeometryCollection","geometries":[{"type":"LineString","properties":{"source":"openstreetmap.org","kind":"major_road","sort_rank":381,"kind_detail":"trunk","min_zoom":8.0,"id":22981362},"arcs":[6]},{"type":"LineString","properties":{"kind":"ferry","name":"Alger - Alicante","sort_rank":355,"name:ar":"\u0627\u0644\u062c\u0632\u0627\u0626\u0631 - \u0627\u0644\u064a\u0643\u0627\u0646\u062a","source":"openstreetmap.org","min_zoom":8.0,"id":-4140123,"osm_relation":true},"arcs":[7]},{"type":"LineString","properties":{"source":"openstreetmap.org","kind":"ferry","name":"D\u00e9nia - Eivissa","sort_rank":355,"min_zoom":8.0,"name:es":"Denia - Ibiza"},"arcs":[8]},{"type":"LineString","properties":{"source":"openstreetmap.org","kind":"ferry","name":"D\u00e8nia - Formentera","sort_rank":355,"min_zoom":8.0,"name:es":"Denia - Formentera"},"arcs":[9]},{"type":"MultiLineString","properties":{"source":"openstreetmap.org","kind":"major_road","landuse_kind":"urban_area","sort_rank":380,"kind_detail":"primary","ref":"CV-725","min_zoom":8.0},"arcs":[[10],[11]]},{"type":"LineString","properties":{"kind":"ferry","name":"Val\u00e8ncia - Eivissa","sort_rank":355,"landuse_kind":"nature_reserve","source":"openstreetmap.org","min_zoom":8.0,"id":133872930,"name:es":"Valencia - Ibiza"},"arcs":[12]},{"type":"LineString","properties":{"source":"openstreetmap.org","kind":"ferry","name":"Marseille - \u0648\u0647\u0631\u0627\u0646","sort_rank":355,"name:ar":"\u0648\u0647\u0631\u0627\u0646 - \u0645\u0631\u0633\u064a\u0644\u064a\u0627","min_zoom":8.0,"name:fr":"Marseille - Oran"},"arcs":[13]},{"type":"MultiLineString","properties":{"source":"openstreetmap.org","kind":"major_road","landuse_kind":"urban_area","sort_rank":380,"kind_detail":"primary","min_zoom":8.0},"arcs":[[14],[15]]},{"type":"LineString","properties":{"source":"openstreetmap.org","kind":"major_road","kind_detail":"trunk","sort_rank":381,"landuse_kind":"urban_area","min_zoom":8.0},"arcs":[16]},{"type":"LineString","properties":{"source":"openstreetmap.org","kind":"major_road","kind_detail":"trunk","sort_rank":381,"landuse_kind":"urban_area","ref":"N-332","min_zoom":8.0},"arcs":[17]},{"type":"LineString","properties":{"kind":"ferry","name":"D\u00e9nia - Eivissa","sort_rank":355,"landuse_kind":"nature_reserve","source":"openstreetmap.org","min_zoom":8.0,"id":309920246,"name:es":"Denia - Ibiza"},"arcs":[18]},{"type":"LineString","properties":{"source":"openstreetmap.org","kind":"ferry","name":"S\u00e8te - Tanger","sort_rank":355,"min_zoom":8.0,"osm_relation":true,"id":-4139974},"arcs":[19]},{"type":"MultiLineString","properties":{"kind":"highway","network":"e-road","sort_rank":383,"kind_detail":"motorway","source":"openstreetmap.org","min_zoom":8.0,"all_networks":["e-road","ES:A-road"],"shield_text":"15","ref":"AP-7","all_shield_texts":["15","7"]},"arcs":[[20],[21]]},{"type":"LineString","properties":{"source":"openstreetmap.org","kind":"ferry","name":"Val\u00e8ncia - Eivissa","sort_rank":355,"min_zoom":8.0,"name:es":"Valencia - Ibiza","id":133872930},"arcs":[22]},{"type":"LineString","properties":{"source":"openstreetmap.org","kind":"ferry","name":"T\u00e1nger - Barcelona \/ \u0637\u0646\u062c\u0629 - \u0628\u0631\u0634\u0644\u0648\u0646\u0629","sort_rank":355,"name:ar":"\u0637\u0646\u062c\u0629 - \u0628\u0631\u0634\u0644\u0648\u0646\u0629","min_zoom":8.0,"name:es":"T\u00e1nger - Barcelona"},"arcs":[23]},{"type":"MultiLineString","properties":{"kind":"major_road","sort_rank":380,"kind_detail":"primary","source":"openstreetmap.org","min_zoom":8.0,"landuse_kind":"urban_area","ref":"N-332a","name:es":"Avenida Alicante"},"arcs":[[24],[25],[26],[27],[28]]},{"type":"MultiLineString","properties":{"source":"openstreetmap.org","kind":"major_road","sort_rank":380,"kind_detail":"primary","ref":"CV-736","min_zoom":8.0},"arcs":[[29],[30],[31]]},{"type":"LineString","properties":{"source":"openstreetmap.org","kind":"major_road","landuse_kind":"urban_area","sort_rank":380,"kind_detail":"primary","ref":"N-332a","min_zoom":8.0},"arcs":[32]},{"type":"LineString","properties":{"kind":"ferry","name":"Alicante - \u0627\u0644\u064a\u0643\u0627\u0646\u062a\u064a","sort_rank":355,"name:ar":"\u0627\u0644\u062c\u0632\u0627\u0626\u0631 - \u0627\u0644\u064a\u0643\u0627\u0646\u062a\u064a","name:fr":"Alicante - Alger","source":"openstreetmap.org","min_zoom":8.0,"name:es":"Alicante - Alger"},"arcs":[33]},{"type":"MultiLineString","properties":{"source":"openstreetmap.org","kind":"major_road","sort_rank":380,"kind_detail":"primary","ref":"CV-734","min_zoom":8.0},"arcs":[[34],[35],[36],[37],[38],[39],[40],[41],[42],[43],[44],[45],[46],[47],[48],[49],[50],[51],[52],[53],[54],[55],[56],[57],[58],[59],[60],[61],[62],[63],[64],[65],[66],[67],[68],[69],[70],[71]]},{"type":"LineString","properties":{"source":"openstreetmap.org","kind":"ferry","name":"Tanger - Barcelona - Savona","sort_rank":355,"min_zoom":8.0,"osm_relation":true,"id":-5286144},"arcs":[72]},{"type":"MultiLineString","properties":{"source":"openstreetmap.org","kind":"major_road","sort_rank":381,"kind_detail":"trunk","ref":"N-332","min_zoom":8.0},"arcs":[[73],[74],[75],[76],[77],[78],[79],[80],[81],[82],[83],[84],[85],[86],[87],[88],[89],[90],[91],[92],[93],[94],[95],[96],[97],[98],[99],[100],[101],[102],[103],[104]]},{"type":"LineString","properties":{"source":"openstreetmap.org","kind":"ferry","name":"S\u00e8te - Tanger \/ \u0637\u0646\u062c\u0629 - \u0633\u064a\u062a","sort_rank":355,"min_zoom":8.0,"name:ar":"\u0637\u0646\u062c\u0629 - \u0633\u064a\u062a","name:fr":"S\u00e8te - Tanger"},"arcs":[105]},{"type":"MultiLineString","properties":{"kind":"highway","network":"e-road","sort_rank":383,"landuse_kind":"urban_area","source":"openstreetmap.org","min_zoom":8.0,"all_networks":["e-road","ES:A-road"],"kind_detail":"motorway","shield_text":"15","ref":"AP-7","all_shield_texts":["15","7"]},"arcs":[[106],[107]]},{"type":"LineString","properties":{"kind":"ferry","name":"D\u00e8nia - Formentera","sort_rank":355,"landuse_kind":"nature_reserve","source":"openstreetmap.org","min_zoom":8.0,"id":133868351,"name:es":"Denia - Formentera"},"arcs":[108]}]},"earth":{"type":"GeometryCollection","geometries":[{"type":"MultiPolygon","properties":{"sort_rank":10,"source":"naturalearthdata.com","min_zoom":0.0,"kind":"earth","area":895429497},"arcs":[[[109]],[[110]]]}]},"landuse":{"type":"GeometryCollection","geometries":[{"type":"MultiPolygon","properties":{"source":"naturalearthdata.com","kind":"urban_area","name":"","area":136346419,"sort_rank":11,"min_zoom":4.0},"arcs":[[[111]],[[112]]]},{"type":"Polygon","properties":{"source":"openstreetmap.org","kind":"nature_reserve","area":267330000,"tier":2,"id":174630254,"min_zoom":6.0,"sort_rank":23},"arcs":[[113]]},{"type":"Polygon","properties":{"kind":"park","natural":"scrub","area":34587600,"sort_rank":24,"source":"openstreetmap.org","min_zoom":8.0,"tier":2,"id":-1201541,"osm_relation":true},"arcs":[[114]]},{"type":"Polygon","properties":{"kind":"residential","area":18581700,"sort_rank":20,"source":"openstreetmap.org","min_zoom":8.0,"tier":2,"id":-6288407,"osm_relation":true},"arcs":[[115],[116]]}]}},"type":"Topology","transform":{"translate":[0.0,37.7185903256],"scale":[0.0003433228,0.0002695314]},"arcs":[[[2715,4096],[108,-264],[671,-939],[242,-167],[287,-61],[73,5]],[[0,2251],[730,553],[557,490],[99,170],[52,190],[3,178],[-45,264]],[[0,3381],[89,-15],[13,38],[50,21],[92,-40],[-30,53],[73,102],[49,3],[45,50],[47,1],[6,-29],[19,69],[77,83],[64,44],[81,-2],[-20,121],[-54,-10],[-66,89],[3,47],[40,16],[-112,74]],[[0,3361],[44,1],[53,10],[39,18],[40,9],[59,-14],[-22,53],[29,58],[31,25],[34,18],[38,38],[21,10],[56,4],[12,13],[5,9],[35,78],[41,39],[44,24],[50,12],[54,3],[20,29],[-1,58],[-19,46],[-28,-8],[-79,63],[-23,25],[-35,16],[29,21],[13,6],[-64,71],[3620,0],[0,-358],[-15,16],[-36,-42],[-17,-28],[10,-14],[22,-13],[-2,-30],[-13,-34],[-15,-25],[0,-38],[12,-28],[-14,-76],[41,-12],[27,17],[0,-3431],[-4096,0],[0,3361]],[[476,4096],[64,-71],[-13,-6],[-29,-21],[35,-16],[23,-25],[79,-63],[28,8],[19,-46],[1,-58],[-20,-29],[-54,-3],[-50,-12],[-44,-24],[-41,-39],[-35,-78],[-5,-9],[-12,-13],[-56,-4],[-21,-10],[-38,-38],[-34,-18],[-31,-25],[-29,-58],[22,-53],[-59,14],[-40,-9],[-39,-18],[-53,-10],[-44,-1]],[[4096,3738],[-15,16],[-36,-42],[-17,-28],[10,-14],[22,-13],[-2,-30],[-13,-34],[-15,-25],[0,-38],[12,-28],[-14,-76],[41,-12],[27,17]],[[181,3719],[6,4]],[[2749,0],[-2749,1451]],[[2560,4096],[1445,-65]],[[1278,4096],[2737,-313]],[[103,4096],[-10,-8]],[[93,4088],[0,-1],[-14,-11],[7,4],[7,8]],[[3993,4050],[86,-16],[17,20]],[[2669,0],[1427,2317]],[[67,4090],[1,-1]],[[67,4090],[0,1],[0,-1]],[[57,4085],[2,0],[0,1],[-1,0],[-1,-1]],[[150,4007],[-106,89]],[[4005,4031],[75,-3],[16,20]],[[2060,4096],[-2060,-3241]],[[0,3398],[12,138],[53,118],[85,88],[2,112],[51,66],[-22,62],[-44,24]],[[136,4006],[44,-23],[22,-62],[-26,-24],[-24,-43],[-2,-112],[-85,-88],[-54,-118],[-11,-138]],[[3742,4096],[251,-46]],[[1444,4096],[-1444,-2790]],[[63,4096]],[[63,4096]],[[63,4096],[3,-5]],[[66,4091],[1,-1]],[[67,4091],[-1,0]],[[464,3957],[-3,7]],[[464,3957],[0,-1]],[[465,3956],[-1,1]],[[70,4086],[-3,4]],[[2749,0],[-2749,1451]],[[231,3952],[13,5]],[[244,3957],[3,-2]],[[247,3956],[-3,1]],[[248,3955],[6,-2]],[[254,3953],[-6,2]],[[254,3953],[9,-3]],[[263,3950],[2,-1]],[[266,3950],[-3,0]],[[267,3949],[4,-1]],[[271,3948],[-4,2]],[[271,3948],[70,-25],[93,13]],[[434,3936],[6,2]],[[439,3939],[-5,-3]],[[444,3940],[-3,-1]],[[441,3938],[3,2]],[[444,3940],[20,15]],[[460,3965],[1,-1]],[[461,3964],[0,1],[-1,0]],[[464,3955],[1,1]],[[464,3956],[0,-1]],[[466,3957],[1,0]],[[481,3962],[-14,-4]],[[467,3957],[14,5]],[[497,3970],[-15,-8]],[[482,3962],[16,8]],[[247,3955],[1,1],[-1,0]],[[247,3956],[0,-1]],[[247,3955]],[[266,3950],[-1,-1]],[[265,3949],[1,0],[1,1]],[[267,3950],[-1,0]],[[440,3938],[1,0]],[[441,3938],[-1,1],[-1,0],[1,-1]],[[466,3957],[1,0]],[[467,3957],[0,1],[-1,-1]],[[482,3962],[-1,0]],[[481,3962],[1,0]],[[482,3962]],[[0,1306],[1444,2790]],[[0,3391],[110,70]],[[112,3671],[-3,-195]],[[109,3476],[1,-15]],[[112,3671],[2,8]],[[114,3679],[53,22]],[[208,3968],[-58,39]],[[167,3701],[4,1]],[[171,3703],[-4,-2]],[[178,3714],[-6,-11]],[[172,3703],[7,11]],[[182,3721],[-3,-6]],[[179,3715],[3,6]],[[182,3721],[29,15]],[[208,3968],[13,-8]],[[211,3736],[12,3]],[[312,3833],[-5,46],[-86,81]],[[223,3739],[41,13]],[[264,3752],[3,2]],[[266,3755],[-2,-3]],[[274,3760],[-6,-5]],[[268,3755],[6,5]],[[274,3760],[3,11]],[[277,3783],[0,-12]],[[287,3801],[-10,-18]],[[287,3801],[4,7]],[[291,3808],[23,14]],[[312,3833],[2,-11]],[[171,3702],[1,0],[0,1]],[[172,3703],[-1,0],[0,-1]],[[178,3714],[1,0],[0,1],[-1,0],[0,-1]],[[268,3754],[0,1]],[[268,3755],[-1,0],[-1,-1],[2,0]],[[2060,4096],[-2060,-3241]],[[27,4096],[109,-90]],[[137,4006],[-109,90]],[[4015,3783],[81,-10]],[[4096,3738],[0,-307],[-27,-17],[-41,12],[14,76],[-12,28],[0,38],[15,25],[13,34],[2,30],[-22,13],[-10,14],[17,28],[36,42],[15,-16]],[[476,4096],[64,-71],[-13,-6],[-29,-21],[35,-16],[23,-25],[79,-63],[28,8],[19,-46],[1,-58],[-20,-29],[-54,-3],[-50,-12],[-44,-24],[-41,-39],[-35,-78],[-5,-9],[-12,-13],[-56,-4],[-21,-10],[-38,-38],[-34,-18],[-31,-25],[-29,-58],[22,-53],[-59,14],[-40,-9],[-39,-18],[-53,-10],[-44,-1],[0,735],[476,0]],[[441,3674],[-76,-87],[-52,-15],[46,114],[84,17],[-2,-29]],[[199,4096],[277,0],[7,-8],[-71,-22],[-159,29],[-33,-82],[-157,-12],[-37,12],[0,41],[-26,-14],[0,56],[199,0]],[[4096,3707],[-130,-1],[120,191],[-121,199],[131,0],[0,-389]],[[184,4083],[45,13],[-12,-22],[24,-9],[73,31],[-4,-17],[87,-25],[6,42],[39,0],[19,-28],[4,27],[114,-76],[-182,-32],[-61,36],[-45,-10],[-67,28],[-40,42]],[[503,3811],[4,74],[75,-16],[-17,42],[70,-49],[-14,-17],[31,-6],[27,-52],[-51,-39],[3,28],[-52,-23],[14,48],[-90,10]],[[604,3854],[3,-4],[11,6],[-12,4],[-2,-6]]]}