{"objects":{"water":{"type":"GeometryCollection","geometries":[{"type":"Polygon","properties":{"source":"naturalearthdata.com","kind":"ocean","area":1576712559132672,"sort_rank":200,"min_zoom":0.0,"id":1},"arcs":[[4],[5]]},{"type":"MultiLineString","properties":{"source":"naturalearthdata.com","kind":"ocean","sort_rank":205,"boundary":true,"min_zoom":0.0,"id":1126},"arcs":[[6],[7]]},{"type":"MultiLineString","properties":{"source":"naturalearthdata.com","kind":"ocean","sort_rank":205,"boundary":true,"min_zoom":0.0,"id":1129},"arcs":[[8],[9]]},{"type":"LineString","properties":{"source":"naturalearthdata.com","kind":"ocean","sort_rank":205,"boundary":true,"min_zoom":0.0,"id":1130},"arcs":[10]}]},"buildings":{"type":"GeometryCollection","geometries":[]},"places":{"type":"GeometryCollection","geometries":[{"type":"Point","properties":{"source":"naturalearthdata.com","kind":"locality","name":"Angra do Heroismo","population":12045,"min_zoom":7.0,"id":2620},"coordinates":[2646,3457]},{"type":"Point","properties":{"kind":"locality","name":"Angra do Hero\u00edsmo","name:lt":"Angra do Heroi\u0161mas","kind_detail":"city","name:ar":"\u0622\u0646\u063a\u0631\u0627 \u062f\u0648 \u0647\u0631\u0648\u0626\u064a\u0633\u0645\u0648","name:sr":"\u0410\u043d\u0433\u0440\u0430 \u0434\u043e \u0415\u0440\u043e\u0438\u0437\u043c\u043e","source":"openstreetmap.org","min_zoom":8.0,"name:ru":"\u0410\u043d\u0433\u0440\u0430-\u0434\u0443-\u042d\u0440\u043e\u0438\u0436\u043c\u0443","name:hu":"Angra do Heroismo","id":25255070,"population":35402},"coordinates":[2637,3490]}]},"transit":{"type":"GeometryCollection","geometries":[]},"pois":{"type":"GeometryCollection","geometries":[]},"boundaries":{"type":"GeometryCollection","geometries":[{"type":"MultiLineString","properties":{"name:kg":"Mputulukesi","name:ty":"P\u014dt\u012bt\u012b","name:ps":"\u067e\u0631\u062a\u06ab\u0627\u0644","name:ka":"\u10de\u10dd\u10e0\u10e2\u10e3\u10d2\u10d0\u10da\u10d8\u10d0","name:ko":"\ud3ec\ub974\ud22c\uac08","name:cv":"\u041f\u043e\u0440\u0442\u0443\u0433\u0430\u043b\u0438","name:cu":"\u041f\u043e\u0440\u0442\u043e\u0433\u0430\u043b\u0457\ua657","name:cs":"Portugalsko","name:tt":"\u041f\u043e\u0440\u0442\u0443\u0433\u0430\u043b\u0438\u044f","name:co":"Portugallu","name:kv":"\u041f\u043e\u0440\u0442\u0443\u0433\u0430\u043b\u0438\u044f","name:ku":"Port\u00fbgal","name:az":"Portuqaliya","name:zh-min-nan":"Ph\u00fb-t\u00f4-g\u00e2","name:os":"\u041f\u043e\u0440\u0442\u0443\u0433\u0430\u043b\u0438","name:or":"\u0b2a\u0b30\u0b4d\u0b24\u0b4d\u0b24\u0b41\u0b17\u0b3e\u0b32","name:ce":"\u041f\u043e\u0440\u0442\u0443\u0433\u0430\u043b\u0438","name:ta":"\u0baa\u0bcb\u0bb0\u0bcd\u0ba4\u0bcd\u0ba4\u0bc1\u0b95\u0bb2\u0bcd","name:tg":"\u041f\u043e\u0440\u0442\u0443\u0433\u0430\u043b\u0438\u044f","name:ky":"\u041f\u043e\u0440\u0442\u0443\u0433\u0430\u043b\u0438\u044f","name:te":"\u0c2a\u0c4b\u0c30\u0c4d\u0c1a\u0c41\u0c17\u0c32\u0c4d","name:cy":"Portiwgal","sort_rank":262,"name:ln":"Pulutugal","name:ba":"\u041f\u043e\u0440\u0442\u0443\u0433\u0430\u043b\u0438\u044f","name:dz":"\u0f54\u0f7c\u0f62\u0f0b\u0f45\u0f74\u0f0b\u0f42\u0f63\u0f0b","source":"openstreetmap.org","name:sq":"Portugalia","name:kn":"\u0caa\u0ccb\u0cb0\u0ccd\u0c9a\u0cc1\u0c97\u0cb2\u0ccd","name:dv":"\u0795\u07af\u0797\u07aa\u078e\u07a6\u078d\u07b0","name:km":"\u1794\u17d2\u179a\u1791\u17c1\u179f \u1796\u17d0\u179a\u1791\u17bb\u1799\u17a0\u17d2\u1782\u17b6\u179b\u17cb","name:lv":"Portug\u0101le","name:lt":"Portugalija","name:hi":"\u092a\u0941\u0930\u094d\u0924\u0917\u093e\u0932","name:kk":"\u041f\u043e\u0440\u0442\u0443\u0433\u0430\u043b\u0438\u044f","name:he":"\u05e4\u05d5\u05e8\u05d8\u05d5\u05d2\u05dc","name:eo":"Portugalujo","name:ur":"\u067e\u0631\u062a\u06af\u0627\u0644","name:la":"Portugallia","name:uk":"\u041f\u043e\u0440\u0442\u0443\u0433\u0430\u043b\u0456\u044f","name:hy":"\u054a\u0578\u0580\u057f\u0578\u0582\u0563\u0561\u056c\u056b\u0561","name:ug":"Portugaliye","name:hu":"Portug\u00e1lia","name:qu":"Purtugal","name:el":"\u03a0\u03bf\u03c1\u03c4\u03bf\u03b3\u03b1\u03bb\u03af\u03b1","kind":"country","name":"Portugal","name:tk":"Portugali\u00fda","min_zoom":8.0,"name:th":"\u0e1b\u0e23\u0e30\u0e40\u0e17\u0e28\u0e42\u0e1b\u0e23\u0e15\u0e38\u0e40\u0e01\u0e2a","name:yi":"\u05e4\u05d0\u05e8\u05d8\u05d5\u05d2\u05d0\u05dc","name:yo":"P\u1ecd\u0301rt\u00fag\u00e0l","name:ay":"Purtuwal","name:mt":"Portugall","alt_name:eo":"Portugalio","name:ro":"Portugalia","name:mr":"\u092a\u094b\u0930\u094d\u0924\u0941\u0917\u093e\u0932","name:ar":"\u0627\u0644\u0628\u0631\u062a\u063a\u0627\u0644","name:my":"\u1015\u1031\u102b\u103a\u1010\u1030\u1002\u102e\u1014\u102d\u102f\u1004\u103a\u1004\u1036","official_name":"Rep\u00fablica Portuguesa","name:kw":"Portyngal","name:is":"Port\u00fagal","name:am":"\u1356\u122d\u1271\u130b\u120d","name:it":"Portogallo","name:ru":"\u041f\u043e\u0440\u0442\u0443\u0433\u0430\u043b\u0438\u044f","name:vi":"B\u1ed3 \u0110\u00e0o Nha","name:rw":"Porutigali","name:mi":"Potukara","name:pl":"Portugalia","name:mk":"\u041f\u043e\u0440\u0442\u0443\u0433\u0430\u043b\u0438\u0458\u0430","name:vo":"Portug\u00e4n","name:zu":"IPhothugali","name:mn":"\u041f\u043e\u0440\u0442\u0443\u0433\u0430\u043b","name:ss":"IPhuthukezi","kind_detail":"2","name:uz":"Portugaliya","name:mg":"P\u00f4rtogaly","id":-295480,"name:zh-yue":"\u8461\u8404\u7259","name:fy":"Portegal","name:zh":"\u8461\u8404\u7259","name:so":"Bortuqaal","name:sl":"Portugalska","name:sk":"Portugalsko","name:ja":"\u30dd\u30eb\u30c8\u30ac\u30eb","name:si":"\u0db4\u0dd8\u0dad\u0dd4\u0d9c\u0dcf\u0dbd\u0dba","name:fa":"\u067e\u0631\u062a\u063a\u0627\u0644","name:na":"Portsiugar","name:sc":"Portogallo","name:ne":"\u092a\u094b\u0930\u094d\u091a\u0941\u0917\u0932","name:sa":"\u092a\u0941\u0930\u094d\u0924\u0917\u093e\u0932","name:bn":"\u09aa\u09b0\u09cd\u09a4\u09c1\u0997\u09be\u09b2","name:bo":"\u0f54\u0f7c\u0f0b\u0f45\u0f74\u0f0b\u0f42\u0fb7\u0f63\u0f0d","name:ml":"\u0d2a\u0d4b\u0d7c\u0d1a\u0d4d\u0d1a\u0d41\u0d17\u0d7d","name:sw":"Ureno","name:be":"\u041f\u0430\u0440\u0442\u0443\u0433\u0430\u043b\u0456\u044f","name:bg":"\u041f\u043e\u0440\u0442\u0443\u0433\u0430\u043b\u0438\u044f","name:wo":"Portugaal","name:sr":"\u041f\u043e\u0440\u0442\u0443\u0433\u0430\u043b\u0438\u0458\u0430","osm_relation":true,"name:tr":"Portekiz","name:ga":"An Phortaing\u00e9il","name:gd":"A' Phortagail","name:ht":"P\u00f2tigal","name:gn":"Poytuga","maritime_boundary":true,"name:gv":"Yn Phortiugal","name:gu":"\u0aaa\u0acb\u0ab0\u0acd\u0a9f\u0ac1\u0a97\u0ab2","name:fi":"Portugali"},"arcs":[[0],[1]]},{"type":"LineString","properties":{"name:ro":"Azore","name:sk":"Azory","name:ja":"\u30a2\u30be\u30ec\u30b9\u8af8\u5cf6","name:nn":"Asorane","name:no":"Azorene","name:ar":"\u0627\u0644\u0623\u0632\u0648\u0631","name:cs":"Azory","name:eo":"Acoroj","name:io":"Acori","min_zoom":8.0,"name:la":"Azores","alt_name:cs":"Azorsk\u00e9 ostrovy","name:it":"Azzorre","name:ru":"\u0410\u0437\u043e\u0440\u0441\u043a\u0438\u0435 \u043e\u0441\u0442\u0440\u043e\u0432\u0430","name:sv":"Azorerna","name:pl":"Azory","name:hu":"Azori-szigetek","id":-1629146,"osm_relation":true,"kind":"region","name:en":"Azores","name":"A\u00e7ores","official_name":"Regi\u00e3o Aut\u00f3noma dos A\u00e7ores","sort_rank":256,"kind_detail":"4","name:de":"Azoren","source":"openstreetmap.org","maritime_boundary":true,"name:es":"Azores"},"arcs":[2]},{"type":"LineString","properties":{"name:ro":"Azore","name:sk":"Azory","name:ja":"\u30a2\u30be\u30ec\u30b9\u8af8\u5cf6","name:nn":"Asorane","name:no":"Azorene","name:ar":"\u0627\u0644\u0623\u0632\u0648\u0631","name:cs":"Azory","name:eo":"Acoroj","name:io":"Acori","min_zoom":8.0,"name:la":"Azores","alt_name:cs":"Azorsk\u00e9 ostrovy","name:it":"Azzorre","name:ru":"\u0410\u0437\u043e\u0440\u0441\u043a\u0438\u0435 \u043e\u0441\u0442\u0440\u043e\u0432\u0430","name:sv":"Azorerna","name:pl":"Azory","name:hu":"Azori-szigetek","id":-1629146,"osm_relation":true,"kind":"region","name:en":"Azores","name":"A\u00e7ores","official_name":"Regi\u00e3o Aut\u00f3noma dos A\u00e7ores","sort_rank":256,"kind_detail":"4","name:de":"Azoren","source":"openstreetmap.org","maritime_boundary":true,"name:es":"Azores"},"arcs":[3]}]},"roads":{"type":"GeometryCollection","geometries":[{"type":"MultiLineString","properties":{"sort_rank":380,"kind_detail":"primary","min_zoom":8.0,"kind":"major_road","source":"openstreetmap.org"},"arcs":[[11],[12],[13],[14],[15],[16],[17],[18],[19],[20],[21],[22],[23],[24],[25],[26],[27],[28],[29],[30],[31],[32],[33],[34],[35],[36],[37],[38],[39],[40],[41],[42],[43],[44],[45],[46],[47],[48],[49],[50],[51],[52],[53],[54],[55],[56],[57],[58],[59],[60],[61],[62],[63],[64],[65],[66],[67],[68],[69],[70],[71],[72],[73],[74],[75],[76],[77],[78],[79],[80],[81],[82],[83],[84],[85],[86],[87],[88],[89],[90],[91],[92],[93],[94]]},{"type":"MultiLineString","properties":{"sort_rank":381,"source":"openstreetmap.org","min_zoom":8.0,"kind":"major_road","kind_detail":"trunk"},"arcs":[[95],[96],[97],[98],[99],[100],[101],[102],[103],[104],[105],[106],[107],[108],[109],[110],[111],[112],[113],[114]]},{"type":"LineString","properties":{"source":"openstreetmap.org","kind":"major_road","sort_rank":380,"kind_detail":"primary","ref":"EN 5-2","min_zoom":8.0,"id":281912790},"arcs":[115]},{"type":"LineString","properties":{"source":"openstreetmap.org","kind":"ferry","name":"Praia da Vit\u00f3ria - Porto da Graciosa","sort_rank":355,"min_zoom":8.0,"id":129387680},"arcs":[116]},{"type":"LineString","properties":{"source":"openstreetmap.org","kind":"major_road","sort_rank":380,"kind_detail":"primary","ref":"R 1-2","min_zoom":8.0,"id":204798993},"arcs":[117]},{"type":"LineString","properties":{"source":"openstreetmap.org","kind":"major_road","landuse_kind":"nature_reserve","sort_rank":380,"kind_detail":"primary","ref":"ER 1-2","min_zoom":8.0},"arcs":[118]},{"type":"LineString","properties":{"sort_rank":355,"source":"openstreetmap.org","min_zoom":8.0,"name":"Ponta Delgada - Praia da Vit\u00f3ria","kind":"ferry"},"arcs":[119]},{"type":"LineString","properties":{"source":"openstreetmap.org","kind":"major_road","sort_rank":380,"kind_detail":"primary","ref":"N1-1","min_zoom":8.0},"arcs":[120]},{"type":"LineString","properties":{"source":"openstreetmap.org","kind":"major_road","landuse_kind":"nature_reserve","sort_rank":380,"kind_detail":"primary","ref":"ER 3-2","min_zoom":8.0},"arcs":[121]},{"type":"LineString","properties":{"source":"openstreetmap.org","kind":"ferry","name":"Calheta - Angra do Hero\u00edsmo","sort_rank":355,"min_zoom":8.0,"id":310124289},"arcs":[122]},{"type":"LineString","properties":{"kind":"major_road","sort_rank":380,"kind_detail":"primary","is_bicycle_related":true,"source":"openstreetmap.org","min_zoom":8.0,"ref":"EN 5-2","id":41429153},"arcs":[123]},{"type":"MultiLineString","properties":{"source":"openstreetmap.org","kind":"major_road","sort_rank":380,"kind_detail":"primary","ref":"ER 3-2","min_zoom":8.0},"arcs":[[124],[125],[126]]},{"type":"LineString","properties":{"sort_rank":355,"source":"openstreetmap.org","min_zoom":8.0,"name":"Velas - Praia da Vit\u00f3ria","kind":"ferry"},"arcs":[127]},{"type":"LineString","properties":{"source":"openstreetmap.org","kind":"ferry","name":"Velas - Calheta","sort_rank":355,"min_zoom":8.0,"id":310306181},"arcs":[128]},{"type":"MultiLineString","properties":{"source":"openstreetmap.org","kind":"major_road","sort_rank":380,"kind_detail":"primary","ref":"N3-1","min_zoom":8.0},"arcs":[[129],[130],[131],[132],[133]]},{"type":"LineString","properties":{"source":"openstreetmap.org","kind":"major_road","sort_rank":380,"kind_detail":"primary","ref":"ER 2-2","min_zoom":8.0},"arcs":[134]},{"type":"MultiLineString","properties":{"source":"openstreetmap.org","kind":"major_road","sort_rank":380,"kind_detail":"primary","ref":"ER 1-2","min_zoom":8.0},"arcs":[[135],[136]]},{"type":"MultiLineString","properties":{"source":"openstreetmap.org","kind":"major_road","sort_rank":380,"kind_detail":"primary","ref":"EN 1-1","min_zoom":8.0},"arcs":[[137],[138],[139],[140],[141],[142],[143],[144],[145],[146],[147],[148],[149],[150],[151],[152],[153],[154],[155],[156],[157],[158],[159],[160],[161],[162],[163],[164],[165],[166],[167],[168],[169],[170],[171],[172],[173]]}]},"earth":{"type":"GeometryCollection","geometries":[{"type":"MultiPolygon","properties":{"sort_rank":10,"source":"naturalearthdata.com","min_zoom":0.0,"kind":"earth","area":2086623175},"arcs":[[[174]],[[175]],[[176]]]},{"type":"Point","properties":{"label_placement":true,"kind":"island","name":"Ilha Terceira","short_name":"Terceira","area":659299968,"source":"openstreetmap.org","min_zoom":8.0,"id":-4822054,"osm_relation":true},"coordinates":[2643,3720]}]},"landuse":{"type":"GeometryCollection","geometries":[{"type":"Polygon","properties":{"kind":"nature_reserve","protect_class":"1a","area":11704300,"sort_rank":23,"source":"openstreetmap.org","min_zoom":8.0,"tier":2,"id":485141370},"arcs":[[177]]},{"type":"MultiPolygon","properties":{"kind":"nature_reserve","protect_class":"5","area":102497843,"sort_rank":23,"source":"openstreetmap.org","min_zoom":8.0,"tier":2,"osm_relation":true},"arcs":[[[178]]]},{"type":"MultiPolygon","properties":{"kind":"nature_reserve","protect_class":"4","area":44963172,"sort_rank":23,"source":"openstreetmap.org","min_zoom":8.0,"tier":2,"osm_relation":true},"arcs":[[[179]],[[180]]]},{"type":"Polygon","properties":{"kind":"nature_reserve","protect_class":"5","area":155588000,"sort_rank":23,"source":"openstreetmap.org","min_zoom":6.0,"tier":2,"id":-7224840,"osm_relation":true},"arcs":[[181]]},{"type":"Polygon","properties":{"kind":"nature_reserve","protect_class":"1a","area":26133600,"sort_rank":23,"source":"openstreetmap.org","min_zoom":8.0,"tier":2,"id":-7383637,"osm_relation":true},"arcs":[[182]]},{"type":"MultiPolygon","properties":{"kind":"nature_reserve","protect_class":"6","area":124755748,"sort_rank":23,"source":"openstreetmap.org","min_zoom":8.0,"tier":2,"osm_relation":true},"arcs":[[[183]]]}]}},"type":"Topology","transform":{"translate":[-28.125,37.7185903256],"scale":[0.0003433228,0.0002695314]},"arcs":[[[0,1746],[281,40],[291,88],[899,547],[147,131],[85,120],[94,289],[135,-99],[215,-94],[659,-194],[293,0],[230,87],[354,283],[253,435],[39,193],[-5,148],[-46,216],[-63,160]],[[1421,4096],[-24,-151],[11,-238],[-689,345],[134,44]],[[0,3429],[59,-41],[114,-19],[120,-94],[239,-44],[330,-207],[163,7],[61,45],[-133,102],[-346,151],[-34,45],[-141,59],[-137,105],[-62,1],[-14,33],[-28,-18],[-191,76]],[[0,2552],[123,-25],[159,58],[-17,47],[-72,58],[-193,24]],[[682,3286],[-418,230],[-264,101],[0,479],[4096,0],[0,-4096],[-4096,0],[0,2539],[117,-18],[89,2],[40,39],[-19,87],[-49,38],[-133,14],[-45,16],[0,668],[147,-49],[38,-22],[50,-66],[28,-15],[41,28],[49,-30],[78,14],[43,-24],[40,-33],[48,-28],[49,-19],[88,-17],[96,-49],[47,-17],[115,-5],[55,10],[49,18],[-53,67],[-110,58],[-216,80]],[[2136,3860],[24,-116],[29,-77],[61,-84],[73,-67],[66,-27],[76,-6],[75,-17],[72,-43],[32,0],[37,43],[67,-50],[196,-1],[73,-30],[84,39],[17,14],[8,34],[-13,63],[5,30],[20,13],[64,26],[16,14],[-8,34],[-29,21],[-23,22],[10,37],[-15,74],[-95,84],[-118,71],[-83,37],[-449,27],[-98,-20],[-107,-57],[-67,-88]],[[45,2701],[-45,16]],[[0,2539],[117,-18],[89,2],[40,39],[-19,87],[-49,38],[-133,14]],[[682,3286],[-418,230],[-264,101]],[[0,3385],[147,-49],[38,-22],[50,-66],[28,-15],[41,28],[49,-30],[78,14],[43,-24],[40,-33],[48,-28],[49,-19],[88,-17],[96,-49],[47,-17],[115,-5],[55,10],[49,18],[-53,67],[-110,58],[-216,80]],[[3218,3618],[-8,34],[-29,21],[-23,22],[10,37],[-15,74],[-95,84],[-118,71],[-83,37],[-449,27],[-98,-20],[-107,-57],[-67,-88],[24,-116],[29,-77],[61,-84],[73,-67],[66,-27],[76,-6],[75,-17],[72,-43],[32,0],[37,43],[67,-50],[196,-1],[73,-30],[84,39],[17,14],[8,34],[-13,63],[5,30],[20,13],[64,26],[16,14]],[[1046,3080],[1,1]],[[2290,3627],[106,-77],[36,-63],[156,-6]],[[2512,3789],[102,-224],[34,-11]],[[2588,3481]],[[2588,3482],[0,-1]],[[2589,3486],[-1,-4]],[[2588,3481],[2,0],[-1,1]],[[2589,3482],[-1,0]],[[2588,3482],[0,-1]],[[2589,3489],[0,-3]],[[2589,3482],[0,4]],[[2589,3489],[1,1]],[[2589,3491],[0,-2]],[[2646,3553],[0,2]],[[2650,3525],[-1,-2]],[[2669,3551],[-22,3],[3,-29]],[[2650,3523],[0,2]],[[2670,3552],[-1,-1]],[[2669,3551],[1,0]],[[2816,3481],[-119,-4]],[[2739,3692],[16,-62]],[[2740,3692],[0,1]],[[2759,3621],[-6,7]],[[2753,3629]],[[2753,3629],[1,0]],[[2754,3629],[0,-1]],[[2755,3630],[-1,0]],[[2754,3630],[-1,-1]],[[2753,3629],[1,-1],[0,1]],[[2754,3629],[1,0],[-1,1]],[[2755,3629],[0,1]],[[2759,3621],[1,1]],[[2759,3622],[0,-1]],[[2784,3934],[89,7],[145,-96]],[[2816,3481],[5,0]],[[2821,3481],[133,4],[58,28]],[[3008,3817],[16,17]],[[3009,3509],[3,4]],[[3012,3513],[12,91],[69,86]],[[3093,3690],[1,1],[-1,0]],[[3018,3845],[1,0]],[[3019,3845],[-1,0]],[[3019,3844],[1,-1]],[[3020,3843],[0,1]],[[3020,3843],[4,-7]],[[3024,3834],[2,1]],[[3025,3835],[-1,-1]],[[3024,3836],[1,-1]],[[3027,3834],[0,2],[-3,0]],[[3026,3835],[1,-1]],[[3076,3783],[-49,51]],[[3076,3783],[1,-1]],[[3077,3783],[-1,0]],[[3077,3782],[0,-1]],[[3077,3781],[1,1]],[[3077,3781],[5,-28]],[[3084,3746],[-2,6]],[[3084,3745],[8,-29]],[[3094,3690],[-2,22]],[[3092,3716],[0,-1],[0,-1],[1,1],[-1,1]],[[3093,3692],[-1,-2],[1,0]],[[3093,3690],[1,0]],[[3094,3690],[5,-8]],[[3100,3683],[-6,7]],[[3100,3683],[-1,-1]],[[3099,3682],[1,-1],[1,1]],[[3101,3682],[-1,1]],[[3101,3682],[-1,0]],[[3100,3681],[3,-1]],[[3103,3680],[-2,2]],[[3110,3675],[-7,5]],[[2591,3491],[-1,0],[-1,0]],[[2589,3491],[1,-1],[1,1]],[[2672,3551],[0,1],[-1,1],[-1,-2]],[[2670,3551],[2,0]],[[2700,3578],[-1,0],[0,-1],[1,0],[0,1]],[[2760,3623],[-1,-1]],[[2759,3622],[1,0],[1,0],[-1,1]],[[2908,3845],[1,-1],[1,1],[-1,1],[-1,-1]],[[3019,3844],[1,0],[-1,1],[0,-1]],[[3026,3835],[0,1],[-1,0],[0,-1],[1,0]],[[3038,3785],[1,0],[-1,1],[0,-1]],[[3077,3783],[0,-1],[1,0],[0,1],[-1,0]],[[3082,3752]],[[2670,3551],[13,-49]],[[2699,3577],[-28,-24]],[[2683,3502],[-12,48]],[[2672,3553],[27,24]],[[2909,3846],[-49,-25],[0,-1]],[[2860,3820],[-9,-36]],[[2851,3784],[-22,-88],[-129,-118]],[[2700,3577],[129,119],[22,88]],[[2851,3784],[9,36]],[[2860,3820],[48,25]],[[2910,3845],[82,-12],[46,-47]],[[3038,3786],[-46,47],[-82,12]],[[3038,3784],[2,-2]],[[3040,3782],[-1,3]],[[3040,3782],[16,-41]],[[3056,3741],[2,-3]],[[3058,3739],[-2,2]],[[3058,3737],[3,-1]],[[3061,3736],[-2,2]],[[3061,3736],[28,-20]],[[2829,3760],[-86,-45],[-5,-24],[-83,3],[-37,46],[-66,-7]],[[3124,3683],[4,42],[56,28],[14,39],[-52,120],[-61,49],[-343,135]],[[0,3436],[112,-43],[-19,25]],[[232,3508],[-11,2]],[[4096,2840],[-913,877],[-52,8],[-7,-42]],[[2290,3627],[-53,49],[-28,102],[9,69],[20,91],[104,44],[221,18],[145,-21],[76,-45],[-12,-30],[52,-52],[45,-11]],[[0,3528],[20,-3],[-6,18]],[[2651,3462],[9,-40],[-25,-18],[-1663,-397],[-127,-5],[-509,268]],[[2551,3733],[-216,-54],[-65,9],[-56,63]],[[0,3475],[47,-20],[-47,44]],[[0,3528]],[[14,3543],[-7,24],[59,-3]],[[0,3382],[856,-392],[2212,402],[133,226],[-48,97],[-22,6],[-7,-38]],[[336,3270],[-44,-20],[-292,138]],[[2406,3980],[2,-1]],[[2407,3980],[0,-1]],[[2407,3980],[1,0]],[[2408,3979],[-1,1]],[[2512,3789],[-104,190]],[[1084,3077],[-262,-2],[-69,98],[-52,-1],[-123,89],[-145,44],[-59,-11]],[[232,3508],[136,-76],[-12,-107],[18,-31],[-64,1],[-119,87],[-191,78]],[[221,3510],[-221,87]],[[2591,3492],[-1,-1]],[[2591,3491],[0,1]],[[2614,3495],[-23,-3]],[[2614,3495],[3,1]],[[2616,3496],[-2,-1]],[[2618,3497],[-1,-1]],[[2617,3496],[1,1]],[[2644,3521],[-26,-24]],[[2644,3521],[5,2]],[[2649,3523],[-5,-2]],[[2653,3522],[-3,1]],[[2650,3523],[-1,1],[0,-1],[1,-1],[0,1]],[[2653,3522],[-3,1]],[[2667,3506],[-14,16]],[[2667,3506],[3,-2]],[[2670,3504],[-3,2]],[[2671,3503],[6,-2]],[[2671,3504],[10,-3]],[[2683,3502],[-2,-1]],[[2681,3501],[2,0]],[[2683,3502],[1,0],[0,-1]],[[2684,3501],[11,-13]],[[2683,3501],[1,0]],[[2684,3501],[2,0]],[[2683,3501],[0,1]],[[2683,3502],[0,-1]],[[2683,3501]],[[2694,3481],[2,2]],[[2696,3483],[0,1]],[[2696,3484]],[[2695,3488],[1,-5]],[[2696,3483],[0,-2],[0,-2]],[[2697,3477],[-1,7]],[[2696,3484],[-1,4]],[[2617,3496],[-1,0],[1,-1],[0,1]],[[2617,3496]],[[2671,3504],[-1,0],[0,-1],[1,1]],[[227,2649],[19,-87],[-40,-39],[-89,-2],[-117,18],[0,178],[45,-16],[133,-14],[49,-38]],[[0,3617],[264,-101],[418,-230],[216,-80],[110,-58],[53,-67],[-49,-18],[-55,-10],[-115,5],[-47,17],[-96,49],[-88,17],[-49,19],[-48,28],[-40,33],[-43,24],[-78,-14],[-49,30],[-41,-28],[-28,15],[-50,66],[-38,22],[-147,49],[0,232]],[[3126,3472],[-8,-34],[-17,-14],[-84,-39],[-73,30],[-196,1],[-67,50],[-37,-43],[-32,0],[-72,43],[-75,17],[-76,6],[-66,27],[-73,67],[-61,84],[-29,77],[-24,116],[67,88],[107,57],[98,20],[449,-27],[83,-37],[118,-71],[95,-84],[15,-74],[-10,-37],[23,-22],[29,-21],[8,-34],[-16,-14],[-64,-26],[-20,-13],[-5,-30],[13,-63]],[[2579,3863],[88,23],[24,-34],[-7,-50],[-61,-18],[-44,79]],[[221,3510],[10,31],[64,-3],[137,-105],[141,-59],[34,-45],[239,-109],[17,-38],[-41,-20],[-16,33],[-54,-18],[-11,25],[-19,-19],[-13,30],[-158,77],[-19,49],[-150,125],[-84,52],[-77,-6]],[[0,3550],[166,-84],[15,54],[51,-12],[-15,-91],[-136,37],[-12,35],[-68,21],[-1,40]],[[0,3630],[39,-18],[-6,-17],[-33,5],[0,30]],[[0,2663],[46,-36],[-13,-22],[-33,3],[0,55]],[[2279,3774],[28,61],[31,-2],[11,45],[34,9],[14,-49],[118,-71],[-31,-27],[-36,26],[-111,-35],[-58,43]],[[418,3446],[190,0],[0,-117],[-35,45],[-155,72]]]}