{"objects":{"water":{"type":"GeometryCollection","geometries":[{"type":"MultiPolygon","properties":{"source":"naturalearthdata.com","kind":"ocean","area":1576712559132672,"sort_rank":200,"min_zoom":0.0,"id":1},"arcs":[[[4]]]},{"type":"LineString","properties":{"source":"naturalearthdata.com","kind":"ocean","sort_rank":205,"boundary":true,"min_zoom":0.0,"id":424},"arcs":[5]},{"type":"LineString","properties":{"source":"naturalearthdata.com","kind":"ocean","sort_rank":205,"boundary":true,"min_zoom":0.0,"id":439},"arcs":[6]}]},"buildings":{"type":"GeometryCollection","geometries":[]},"places":{"type":"GeometryCollection","geometries":[]},"transit":{"type":"GeometryCollection","geometries":[]},"pois":{"type":"GeometryCollection","geometries":[]},"boundaries":{"type":"GeometryCollection","geometries":[{"type":"LineString","properties":{"name:right:yo":"K\u00e1n\u00e1d\u00e0","name:right:yi":"\u05e7\u05d0\u05e0\u05d0\u05d3\u05e2","name:right:hy":"\u053f\u0561\u0576\u0561\u0564\u0561","name:right:dv":"\u0786\u07ac\u0782\u07ac\u0791\u07a7","name:left:lb":"Frankr\u00e4ich","name:left:st":"Fora","name:right:el":"\u039a\u03b1\u03bd\u03b1\u03b4\u03ac\u03c2","name:right:hr":"Kanada","name:left:kg":"Fwalansa","name:left:ka":"\u10e1\u10d0\u10e4\u10e0\u10d0\u10dc\u10d2\u10d4\u10d7\u10d8","name:left:km":"\u1794\u17b6\u179a\u17b6\u17c6\u1784","name:left:kl":"Frankrigi","name:left:ko":"\ud504\ub791\uc2a4","name:left:kn":"\u0cab\u0ccd\u0cb0\u0cbe\u0ca8\u0ccd\u0cb8\u0ccd","name:left:ki":"Ubaranja","name:right:rw":"Kanada","name:left:kk":"\u0424\u0440\u0430\u043d\u0446\u0438\u044f","name:left:rm":"Frantscha","name:left:ku":"Fransa","name:left:kw":"Pow Frynk","name:left:kv":"\u0424\u0440\u0430\u043d\u0446\u0438\u044f","name:right:rn":"Kanada","name:left:rw":"Ubufaransa","name:left:ks":"\u0641\u0631\u065b\u0627\u0646\u0633","name:left:ru":"\u0424\u0440\u0430\u043d\u0446\u0438\u044f","name:right:ig":"K\u00e1nada","name:right:id":"Kanada","name:left:ky":"\u0424\u0440\u0430\u043d\u0446\u0438\u044f","name:right:bi":"Kanada","name:right:bn":"\u0995\u09be\u09a8\u09be\u09a1\u09be","name:right:bo":"\u0f41\u0f0b\u0f53\u0f0b\u0f4c\u0f0d","name:right:bm":"Kanada","name:right:ba":"\u041a\u0430\u043d\u0430\u0434\u0430","name:right:bg":"\u041a\u0430\u043d\u0430\u0434\u0430","name:right:be":"\u041a\u0430\u043d\u0430\u0434\u0430","name:right:br":"Kanada","name:left:si":"\u0db4\u0dca\u200d\u0dbb\u0d82\u0dc1\u0dba","name:left:sk":"Franc\u00fazsko","name:right:wo":"Kanadaa","name:right:ne":"\u0915\u094d\u092f\u093e\u0928\u093e\u0921\u093e","name:right:na":"Kanada","name:right:gv":"Yn Chanadey","name:right:hi":"\u0915\u0928\u093e\u0921\u093e","name:right:nv":"Deeteel Bik\u00e9yah","name:right:pt":"Canad\u00e1","kind_detail":"2","alt_name:right:vi":"Ca-na-\u0111a","name:left:mi":"W\u012bw\u012b","name:right:gu":"\u0a95\u0ac7\u0aa8\u0ac7\u0aa1\u0abe","name:left:ty":"Far\u0101ni","name:right:ps":"\u06a9\u0627\u0646\u0627\u0689\u0627","name:left:mg":"Frantsa","name:left:mk":"\u0424\u0440\u0430\u043d\u0446\u0438\u0458\u0430","name:left:tr":"Fransa","name:left:tt":"\u0424\u0440\u0430\u043d\u0446\u0438\u044f","name:left:mn":"\u0424\u0440\u0430\u043d\u0446","name:left:ml":"\u0d2b\u0d4d\u0d30\u0d3e\u0d7b\u0d38\u0d4d","name:left:th":"\u0e1b\u0e23\u0e30\u0e40\u0e17\u0e28\u0e1d\u0e23\u0e31\u0e48\u0e07\u0e40\u0e28\u0e2a","name:left:mr":"\u092b\u094d\u0930\u093e\u0928\u094d\u0938","name:left:tk":"Fransi\u00fda","name:left:tl":"Pransiya","name:left:to":"Falanis\u0113","name:right:gl":"Canad\u00e1","name:left:my":"\u1015\u103c\u1004\u103a\u101e\u1005\u103a\u1014\u102d\u102f\u1004\u103a\u1004\u1036","name:right:gn":"Kanat\u00e3","name:right:pl":"Kanada","name:left:te":"\u0c2b\u0c4d\u0c30\u0c3e\u0c28\u0c4d\u0c38\u0c4d","name:left:tg":"\u0424\u0430\u0440\u043e\u043d\u0441\u0430","name:left:ms":"Perancis","name:right:ka":"\u10d9\u10d0\u10dc\u10d0\u10d3\u10d0","name:left:ti":"\u1348\u1228\u1295\u1233\u12ed","name:left:da":"Frankrig","name:left:de":"Frankreich","name:left:dz":"\u0f55\u0f62\u0f71\u0f53\u0f66\u0f72\u0f0b","name:right:ga":"Ceanada","name:left:dv":"\u078a\u07a6\u0783\u07a6\u0782\u07b0\u0790\u07ad\u0790\u07a8\u0788\u07a8\u078d\u07a7\u078c\u07b0","name:right:ug":"\u0643\u0627\u0646\u0627\u062f\u0627","name:left:hi":"\u092b\u093c\u094d\u0930\u093e\u0928\u094d\u0938","name:right:lb":"Kanada","name:right:uk":"\u041a\u0430\u043d\u0430\u0434\u0430","name:left:he":"\u05e6\u05e8\u05e4\u05ea","name:right:ln":"Kanad\u00e1","name:left:mt":"Franza","name:left:ha":"Faransa","name:right:lt":"Kanada","name:right:ur":"\u06a9\u06cc\u0646\u06cc\u0688\u0627","name:right:lv":"Kan\u0101da","name:left:hy":"\u0556\u0580\u0561\u0576\u057d\u056b\u0561","name:left:ta":"\u0baa\u0bbf\u0bb0\u0bbe\u0ba9\u0bcd\u0b9a\u0bc1","name:left:ht":"Frans","name:left:hu":"Franciaorsz\u00e1g","name:left:hr":"Francuska","name:right:av":"\u041a\u0430\u043d\u0430\u0434\u0430","sort_rank":262,"osm_relation":true,"name:right:as":"\u0995\u09be\u09a8\u09be\u09a1\u09be","name:right:es":"Canad\u00e1","name:left:ja":"\u30d5\u30e9\u30f3\u30b9","name:right:eu":"Kanada","name:right:et":"Kanada","name:left:os":"\u0424\u0440\u0430\u043d\u0446","name:left:or":"\u0b2b\u0b4d\u0b30\u0b3e\u0b28\u0b4d\u0b38","name:right:pa":"\u0a15\u0a48\u0a28\u0a47\u0a21\u0a3e","name:left:vo":"Frans\u00e4n","name:left:oc":"Fran\u00e7a","name:right:eo":"Kanado","name:left:vi":"Ph\u00e1p","name:left:ff":"Faransi","name:left:fa":"\u0641\u0631\u0627\u0646\u0633\u0647","name:left:fo":"Frakland","name:left:qu":"Ransiya","name:left:fi":"Ranska","name:right:ay":"Kanada","name:left:fy":"Frankryk","name:right:ja":"\u30ab\u30ca\u30c0","name:right:sq":"Kanadaja","name:right:ss":"IKhanada","name:right:sr":"\u041a\u0430\u043d\u0430\u0434\u0430","name:right:su":"Kanada","name:right:sw":"Kanada","name:right:sv":"Kanada","name:right:sh":"Kanada","name:right:sk":"Kanada","name:right:jv":"Kanada","name:right:sl":"Kanada","name:right:so":"Kanada","name:right:sa":"\u0915\u0947\u0928\u0921\u093e","name:left:jv":"Prancis","id":-2202162,"name:right:sg":"Kanad\u00e4a","name:right:co":"Canad\u00e0","name:right:ca":"Canad\u00e0","name:right:se":"Kan\u00e1da","name:right:ce":"\u041a\u0430\u043d\u0430\u0434\u0430","name:right:zh-yue":"\u52a0\u62ff\u5927","name:right:cs":"Kanada","name:right:cr":"\u1473\u14c7\u1456","name:right:cu":"\u041a\u0430\u043d\u0430\u0434\u0430","name:right:iu":"\u1472\u14c7\u1455 \/ kanata","name:right:cv":"\u041a\u0430\u043d\u0430\u0434\u0430","name:left:as":"\u09ab\u09cd\u09f0\u09be\u09a8\u09cd\u09b8","name:left:ar":"\u0641\u0631\u0646\u0633\u0627","name:right:is":"Kanada","name:left:az":"Fransa","name:left:ay":"Phransiya","name:left:ro":"Fran\u021ba","name:left:af":"Frankryk","name:left:an":"Francia","name:left:am":"\u1348\u1228\u1295\u1223\u12ed","name:right:ru":"\u041a\u0430\u043d\u0430\u0434\u0430","name:left:ak":"Fr\u025bnkyeman","name:right:io":"Kanada","name:left:zh-yue":"\u6cd5\u570b","name:right:ik":"Kanada","name:left:la":"Francia","name:right:qu":"Kanada","alt_name:left:eo":"Francio","name:left:lg":"Bufalansa","name:left:su":"Perancis","name:left:li":"Frankriek","name:left:sw":"Ufaransa","name:left:sv":"Frankrike","name:left:sq":"Franca","name:right:hu":"Kanada","name:left:ln":"Falansia","name:left:lo":"\u0e9b\u0eb0\u0ec0\u0e97\u0e94\u0e9d\u0eb0\u0ea5\u0eb1\u0ec8\u0e87","name:left:sm":"Farani","name:left:sl":"Francija","name:left:so":"Faransiiska","name:left:lt":"Pranc\u016bzija","name:left:sh":"Francuska","name:left:lv":"Francija","name:left:se":"Frankriika","name:right:ha":"Kanada","name:left:sg":"Far\u00e2nzi","name:left:sa":"\u092b\u094d\u0930\u093e\u0928\u094d\u0938\u0926\u0947\u0936\u0903","name:right:he":"\u05e7\u05e0\u05d3\u05d4","name:left:sc":"Frantza","name:right:af":"Kanada","name:left:co":"Francia","name:right:ab":"\u041a\u0430\u043d\u0430\u0434\u0430","name:left:ce":"\u0424\u0440\u0430\u043d\u0446\u0438","name:right:an":"Canad\u00e1","name:right:am":"\u12ab\u1293\u12f3","name:left:ca":"Fran\u00e7a","source":"openstreetmap.org","name:left:cy":"Ffrainc","name:right:ar":"\u0643\u0646\u062f\u0627","name:left:cu":"\u0424\u0440\u0430\u043d\u043a\u0457\ua657","name:left:cv":"\u0424\u0440\u0430\u043d\u0446\u0438","name:right:az":"Kanada","name:left:cs":"Francie","name":"France - Canada","name:right:zu":"IKhanada","name:left:zu":"IFulansi","name:left:zh":"\u6cd5\u570b","name:right:zh":"\u52a0\u62ff\u5927","name:left:za":"Fazgoz","official_name:left":"R\u00e9publique fran\u00e7aise","name:left:uz":"Fransiya","name:left:ps":"\u0641\u0631\u0627\u0646\u0633\u0647","name:left:nv":"D\u00e1\u00e1ghahii Din\u00e9\u02bci\u02bc Bik\u00e9yah","name:left:ur":"\u0641\u0631\u0627\u0646\u0633","id:right":-1428125,"name:left:uk":"\u0424\u0440\u0430\u043d\u0446\u0456\u044f","name:left:no":"Frankrike","name:left:nl":"Frankrijk","name:right:fa":"\u06a9\u0627\u0646\u0627\u062f\u0627","name:right:fo":"Kanada","name:left:ne":"\u092b\u094d\u0930\u093e\u0928\u094d\u0938","name:left:ug":"\u0641\u0631\u0627\u0646\u0633\u0649\u064a\u06d5","name:left:na":"Prant","name:left:eo":"Francujo","name:left:el":"\u0393\u03b1\u03bb\u03bb\u03af\u03b1","name:left:pl":"Francja","name:left:es":"Francia","name:left:ss":"IFulansi","name:right:kk":"\u041a\u0430\u043d\u0430\u0434\u0430","name:left:eu":"Frantzia","name:left:et":"Prantsusmaa","name:right:tw":"Kanada","name:right:oc":"Canad\u00e0","name:left:ia":"Francia","name:right:bs":"Kanada","name:left:sr":"\u0424\u0440\u0430\u043d\u0446\u0443\u0441\u043a\u0430","name:right:uz":"Kanada","name:right:os":"\u041a\u0430\u043d\u0430\u0434\u00e6","name:right:or":"\u0b15\u0b3e\u0b28\u0b3e\u0b21\u0b3c\u0b3e","name:right:tl":"Kanada","name:right:ku":"Kanada","old_name:right:vi":"Gia N\u00e3 \u0110\u1ea1i","name:right:ko":"\uce90\ub098\ub2e4","min_zoom":8.0,"name:right:te":"\u0c15\u0c46\u0c28\u0c21\u0c3e","name:left:wo":"Faraas","name:left:ga":"An Fhrainc","name:right:tg":"\u041a\u0430\u043d\u0430\u0434\u0430","name:left:gd":"An Fhraing","name:left:gl":"Francia","name:left:gn":"Hy\u00e3sia","name:left:gu":"\u0aab\u0acd\u0ab0\u0abe\u0aa8\u0acd\u0ab8","name:right:tk":"Kanada","name:left:gv":"Yn Rank","name:left":"France","name:right:mk":"\u041a\u0430\u043d\u0430\u0434\u0430","name:right:mi":"K\u0101nata","name:right:mn":"\u041a\u0430\u043d\u0430\u0434","name:right:ml":"\u0d15\u0d3e\u0d28\u0d21","name:right:vo":"Kanad\u00e4n","name:right:mg":"Kanada","name:right:my":"\u1000\u1014\u1031\u1012\u102b\u1014\u102d\u102f\u1004\u103a\u1004\u1036","name:right:ms":"Kanada","name:right:mr":"\u0915\u0945\u0928\u0921\u093e","name:right:fy":"Kanada","name:right:mt":"Kanada","name:left:nn":"Frankrike","kind":"country","name:left:br":"Bro-C'hall","name:left:bs":"Francuska","name:left:ba":"\u0424\u0440\u0430\u043d\u0446\u0438\u044f","name:left:bg":"\u0424\u0440\u0430\u043d\u0446\u0438\u044f","name:left:be":"\u0424\u0440\u0430\u043d\u0446\u044b\u044f","name:left:bi":"Franis","name:left:bn":"\u09ab\u09cd\u09b0\u09be\u09a8\u09cd\u09b8","name:left:bo":"\u0f67\u0fa5\u0f0b\u0f62\u0f53\u0f0b\u0f66\u0f72\u0f0d","name:right":"Canada","name:left:yo":"Fr\u00e1ns\u00ec","name:left:yi":"\u05e4\u05e8\u05d0\u05e0\u05e7\u05e8\u05d9\u05d9\u05da","id:left":-2202162,"name:right:fi":"Kanada","name:left:io":"Francia","name:right:ty":"Tanata","name:left:ii":"\ua0d4\ua1e9","name:right:tt":"\u041a\u0430\u043d\u0430\u0434\u0430","name:left:ie":"Francia","name:left:id":"Perancis","name:right:km":"\u1780\u17b6\u178e\u17b6\u178a\u17b6","name:right:tr":"Kanada","name:right:kn":"\u0c95\u0cc6\u0ca8\u0ca1\u0cbe","name:left:pt":"Fran\u00e7a","name:right:th":"\u0e1b\u0e23\u0e30\u0e40\u0e17\u0e28\u0e41\u0e04\u0e19\u0e32\u0e14\u0e32","name:right:kw":"Kanada","name:right:kv":"\u041a\u0430\u043d\u0430\u0434\u0430","name:right:ky":"\u041a\u0430\u043d\u0430\u0434\u0430","name:left:zh-min-nan":"Hoat-kok","name:left:it":"Francia","name:left:is":"Frakkland","name:right:ta":"\u0b95\u0ba9\u0b9f\u0bbe","name:right:de":"Kanada","name:left:rn":"Francia","maritime_boundary":true,"name:right:dz":"\u0f40\u0f7a\u0f0b\u0f53\u0f0b\u0f4c\u0f0b","name:left:pa":"\u0a2b\u0a4d\u0a30\u0a3e\u0a02\u0a38","name:right:ht":"Kanada"},"arcs":[0]},{"type":"LineString","properties":{"name:kg":"Fwalansa","name:ty":"Far\u0101ni","name:ka":"\u10e1\u10d0\u10e4\u10e0\u10d0\u10dc\u10d2\u10d4\u10d7\u10d8","name:ko":"\ud504\ub791\uc2a4","name:cv":"\u0424\u0440\u0430\u043d\u0446\u0438","name:cu":"\u0424\u0440\u0430\u043d\u043a\u0457\ua657","name:kl":"Frankrigi","name:cs":"Francie","name:ki":"Ubaranja","name:co":"Francia","name:kv":"\u0424\u0440\u0430\u043d\u0446\u0438\u044f","name:ku":"Fransa","name:ti":"\u1348\u1228\u1295\u1233\u12ed","name:ks":"\u0641\u0631\u065b\u0627\u0646\u0633","name:to":"Falanis\u0113","name:tl":"Pransiya","name:ce":"\u0424\u0440\u0430\u043d\u0446\u0438","name:ta":"\u0baa\u0bbf\u0bb0\u0bbe\u0ba9\u0bcd\u0b9a\u0bc1","name:tg":"\u0424\u0430\u0440\u043e\u043d\u0441\u0430","name:ca":"Fran\u00e7a","name:te":"\u0c2b\u0c4d\u0c30\u0c3e\u0c28\u0c4d\u0c38\u0c4d","name:cy":"Ffrainc","name:qu":"Ransiya","name:da":"Frankrig","name:de":"Frankreich","name:dz":"\u0f55\u0f62\u0f71\u0f53\u0f66\u0f72\u0f0b","source":"openstreetmap.org","name:kn":"\u0cab\u0ccd\u0cb0\u0cbe\u0ca8\u0ccd\u0cb8\u0ccd","name:dv":"\u078a\u07a6\u0783\u07a6\u0782\u07b0\u0790\u07ad\u0790\u07a8\u0788\u07a8\u078d\u07a7\u078c\u07b0","name:km":"\u1794\u17b6\u179a\u17b6\u17c6\u1784","name:lv":"Francija","name:lt":"Pranc\u016bzija","name:uz":"Fransiya","name:kk":"\u0424\u0440\u0430\u043d\u0446\u0438\u044f","name:ur":"\u0641\u0631\u0627\u0646\u0633","name:lb":"Frankr\u00e4ich","name:la":"Francia","name:lg":"Bufalansa","name:uk":"\u0424\u0440\u0430\u043d\u0446\u0456\u044f","name:ug":"\u0641\u0631\u0627\u0646\u0633\u0649\u064a\u06d5","name:li":"Frankriek","name:ln":"Falansia","name:lo":"\u0e9b\u0eb0\u0ec0\u0e97\u0e94\u0e9d\u0eb0\u0ea5\u0eb1\u0ec8\u0e87","name:el":"\u0393\u03b1\u03bb\u03bb\u03af\u03b1","name:eo":"Francujo","name":"France","name:tk":"Fransi\u00fda","name:th":"\u0e1b\u0e23\u0e30\u0e40\u0e17\u0e28\u0e1d\u0e23\u0e31\u0e48\u0e07\u0e40\u0e28\u0e2a","name:eu":"Frantzia","name:et":"Prantsusmaa","name:es":"Francia","name:ay":"Phransiya","name:rm":"Frantscha","name:rn":"Francia","name:az":"Fransa","name:ie":"Francia","name:id":"Perancis","name:ii":"\ua0d4\ua1e9","name:as":"\u09ab\u09cd\u09f0\u09be\u09a8\u09cd\u09b8","name:ar":"\u0641\u0631\u0646\u0633\u0627","name:io":"Francia","name:ak":"Fr\u025bnkyeman","name:am":"\u1348\u1228\u1295\u1223\u12ed","name:it":"Francia","name:an":"Francia","name:ru":"\u0424\u0440\u0430\u043d\u0446\u0438\u044f","name:rw":"Ubufaransa","name:af":"Frankryk","name:zu":"IFulansi","kind_detail":"2","name:za":"Fazgoz","name:zh-yue":"\u6cd5\u570b","name:zh":"\u6cd5\u570b","name:so":"Faransiiska","name:sm":"Farani","name:sl":"Francija","name:sk":"Franc\u00fazsko","name:ja":"\u30d5\u30e9\u30f3\u30b9","name:si":"\u0db4\u0dca\u200d\u0dbb\u0d82\u0dc1\u0dba","name:sh":"Francuska","name:sg":"Far\u00e2nzi","name:se":"Frankriika","name:sc":"Frantza","name:br":"Bro-C'hall","name:bs":"Francuska","name:bn":"\u09ab\u09cd\u09b0\u09be\u09a8\u09cd\u09b8","name:bo":"\u0f67\u0fa5\u0f0b\u0f62\u0f53\u0f0b\u0f66\u0f72\u0f0d","name:bi":"Franis","name:sw":"Ufaransa","name:be":"\u0424\u0440\u0430\u043d\u0446\u044b\u044f","name:su":"Perancis","name:bg":"\u0424\u0440\u0430\u043d\u0446\u0438\u044f","name:ss":"IFulansi","name:ba":"\u0424\u0440\u0430\u043d\u0446\u0438\u044f","name:sq":"Franca","name:jv":"Prancis","name:sa":"\u092b\u094d\u0930\u093e\u0928\u094d\u0938\u0926\u0947\u0936\u0903","name:ia":"Francia","name:pt":"Fran\u00e7a","name:ps":"\u0641\u0631\u0627\u0646\u0633\u0647","name:oc":"Fran\u00e7a","min_zoom":8.0,"name:ro":"Fran\u021ba","name:zh-min-nan":"Hoat-kok","name:os":"\u0424\u0440\u0430\u043d\u0446","name:or":"\u0b2b\u0b4d\u0b30\u0b3e\u0b28\u0b4d\u0b38","name:pl":"Francja","name:st":"Fora","sort_rank":262,"name:sr":"\u0424\u0440\u0430\u043d\u0446\u0443\u0441\u043a\u0430","osm_relation":true,"name:pa":"\u0a2b\u0a4d\u0a30\u0a3e\u0a02\u0a38","name:tr":"Fransa","name:hi":"\u092b\u093c\u094d\u0930\u093e\u0928\u094d\u0938","name:sv":"Frankrike","name:he":"\u05e6\u05e8\u05e4\u05ea","name:ha":"Faransa","name:hy":"\u0556\u0580\u0561\u0576\u057d\u056b\u0561","name:ht":"Frans","name:hu":"Franciaorsz\u00e1g","name:hr":"Francuska","kind":"country","name:is":"Frakkland","name:yi":"\u05e4\u05e8\u05d0\u05e0\u05e7\u05e8\u05d9\u05d9\u05da","name:yo":"Fr\u00e1ns\u00ec","name:mt":"Franza","alt_name:eo":"Francio","name:ms":"Perancis","name:mr":"\u092b\u094d\u0930\u093e\u0928\u094d\u0938","name:my":"\u1015\u103c\u1004\u103a\u101e\u1005\u103a\u1014\u102d\u102f\u1004\u103a\u1004\u1036","official_name":"R\u00e9publique fran\u00e7aise","name:kw":"Pow Frynk","name:mg":"Frantsa","name:vi":"Ph\u00e1p","name:ml":"\u0d2b\u0d4d\u0d30\u0d3e\u0d7b\u0d38\u0d4d","name:mn":"\u0424\u0440\u0430\u043d\u0446","name:mi":"W\u012bw\u012b","id":-2202162,"name:mk":"\u0424\u0440\u0430\u043d\u0446\u0438\u0458\u0430","name:vo":"Frans\u00e4n","name:fa":"\u0641\u0631\u0627\u0646\u0633\u0647","name:ff":"Faransi","name:fi":"Ranska","name:ky":"\u0424\u0440\u0430\u043d\u0446\u0438\u044f","name:fo":"Frakland","name:fy":"Frankryk","name:nl":"Frankrijk","name:nn":"Frankrike","name:no":"Frankrike","name:na":"Prant","name:ne":"\u092b\u094d\u0930\u093e\u0928\u094d\u0938","name:wo":"Faraas","name:nv":"D\u00e1\u00e1ghahii Din\u00e9\u02bci\u02bc Bik\u00e9yah","name:ga":"An Fhrainc","name:gd":"An Fhraing","name:gn":"Hy\u00e3sia","name:gl":"Francia","maritime_boundary":true,"name:gv":"Yn Rank","name:gu":"\u0aab\u0acd\u0ab0\u0abe\u0aa8\u0acd\u0ab8","name:tt":"\u0424\u0440\u0430\u043d\u0446\u0438\u044f"},"arcs":[1]},{"type":"LineString","properties":{"name:ty":"Tanata","name:ka":"\u10d9\u10d0\u10dc\u10d0\u10d3\u10d0","name:ko":"\uce90\ub098\ub2e4","name:cv":"\u041a\u0430\u043d\u0430\u0434\u0430","name:cu":"\u041a\u0430\u043d\u0430\u0434\u0430","name:cs":"Kanada","name:cr":"\u1473\u14c7\u1456","name:tt":"\u041a\u0430\u043d\u0430\u0434\u0430","name:co":"Canad\u00e0","name:kv":"\u041a\u0430\u043d\u0430\u0434\u0430","name:ku":"Kanada","name:tl":"Kanada","name:ce":"\u041a\u0430\u043d\u0430\u0434\u0430","name:ta":"\u0b95\u0ba9\u0b9f\u0bbe","name:tg":"\u041a\u0430\u043d\u0430\u0434\u0430","name:ca":"Canad\u00e0","name:te":"\u0c15\u0c46\u0c28\u0c21\u0c3e","name:qu":"Kanada","name:de":"Kanada","name:dz":"\u0f40\u0f7a\u0f0b\u0f53\u0f0b\u0f4c\u0f0b","source":"openstreetmap.org","name:kn":"\u0c95\u0cc6\u0ca8\u0ca1\u0cbe","name:dv":"\u0786\u07ac\u0782\u07ac\u0791\u07a7","name:km":"\u1780\u17b6\u178e\u17b6\u178a\u17b6","name:lv":"Kan\u0101da","name:lt":"Kanada","name:uz":"Kanada","name:kk":"\u041a\u0430\u043d\u0430\u0434\u0430","name:tw":"Kanada","name:lb":"Kanada","name:uk":"\u041a\u0430\u043d\u0430\u0434\u0430","name:ug":"\u0643\u0627\u0646\u0627\u062f\u0627","name:ln":"Kanad\u00e1","name:kw":"Kanada","name:eo":"Kanado","name":"Canada","name:tk":"Kanada","name:th":"\u0e1b\u0e23\u0e30\u0e40\u0e17\u0e28\u0e41\u0e04\u0e19\u0e32\u0e14\u0e32","name:eu":"Kanada","name:et":"Kanada","name:es":"Canad\u00e1","name:ay":"Kanada","name:rn":"Kanada","name:az":"Kanada","name:id":"Kanada","name:ig":"K\u00e1nada","name:el":"\u039a\u03b1\u03bd\u03b1\u03b4\u03ac\u03c2","name:as":"\u0995\u09be\u09a8\u09be\u09a1\u09be","name:ar":"\u0643\u0646\u062f\u0627","name:io":"Kanada","name:av":"\u041a\u0430\u043d\u0430\u0434\u0430","name:is":"Kanada","name:am":"\u12ab\u1293\u12f3","name:an":"Canad\u00e1","name:ru":"\u041a\u0430\u043d\u0430\u0434\u0430","name:ab":"\u041a\u0430\u043d\u0430\u0434\u0430","name:af":"Kanada","name:zu":"IKhanada","kind_detail":"2","name:ky":"\u041a\u0430\u043d\u0430\u0434\u0430","name:zh-yue":"\u52a0\u62ff\u5927","name:zh":"\u52a0\u62ff\u5927","name:so":"Kanada","name:sl":"Kanada","name:sk":"Kanada","name:ja":"\u30ab\u30ca\u30c0","name:sh":"Kanada","name:sg":"Kanad\u00e4a","name:se":"Kan\u00e1da","name:sa":"\u0915\u0947\u0928\u0921\u093e","name:bs":"Kanada","name:bm":"Kanada","name:bn":"\u0995\u09be\u09a8\u09be\u09a1\u09be","name:bo":"\u0f41\u0f0b\u0f53\u0f0b\u0f4c\u0f0d","name:br":"Kanada","name:sw":"Kanada","name:be":"\u041a\u0430\u043d\u0430\u0434\u0430","name:su":"Kanada","name:bg":"\u041a\u0430\u043d\u0430\u0434\u0430","name:ss":"IKhanada","name:ba":"\u041a\u0430\u043d\u0430\u0434\u0430","name:sq":"Kanadaja","name:jv":"Kanada","name:bi":"Kanada","name:pt":"Canad\u00e1","name:ps":"\u06a9\u0627\u0646\u0627\u0689\u0627","name:oc":"Canad\u00e0","min_zoom":8.0,"name:pa":"\u0a15\u0a48\u0a28\u0a47\u0a21\u0a3e","name:os":"\u041a\u0430\u043d\u0430\u0434\u00e6","name:or":"\u0b15\u0b3e\u0b28\u0b3e\u0b21\u0b3c\u0b3e","name:pl":"Kanada","sort_rank":262,"name:sr":"\u041a\u0430\u043d\u0430\u0434\u0430","osm_relation":true,"name:ik":"Kanada","name:tr":"Kanada","name:hi":"\u0915\u0928\u093e\u0921\u093e","name:sv":"Kanada","name:he":"\u05e7\u05e0\u05d3\u05d4","name:ha":"Kanada","name:hy":"\u053f\u0561\u0576\u0561\u0564\u0561","name:ht":"Kanada","name:hu":"Kanada","name:hr":"Kanada","kind":"country","name:yi":"\u05e7\u05d0\u05e0\u05d0\u05d3\u05e2","name:iu":"\u1472\u14c7\u1455 \/ kanata","name:yo":"K\u00e1n\u00e1d\u00e0","name:mt":"Kanada","name:ms":"Kanada","name:mr":"\u0915\u0945\u0928\u0921\u093e","name:my":"\u1000\u1014\u1031\u1012\u102b\u1014\u102d\u102f\u1004\u103a\u1004\u1036","name:mg":"Kanada","name:ml":"\u0d15\u0d3e\u0d28\u0d21","name:mn":"\u041a\u0430\u043d\u0430\u0434","name:mi":"K\u0101nata","id":-1428125,"name:mk":"\u041a\u0430\u043d\u0430\u0434\u0430","name:vo":"Kanad\u00e4n","name:fa":"\u06a9\u0627\u0646\u0627\u062f\u0627","name:rw":"Kanada","name:fi":"Kanada","old_name:vi":"Gia N\u00e3 \u0110\u1ea1i","name:fo":"Kanada","alt_name:vi":"Ca-na-\u0111a","name:fy":"Kanada","name:na":"Kanada","name:ne":"\u0915\u094d\u092f\u093e\u0928\u093e\u0921\u093e","name:ur":"\u06a9\u06cc\u0646\u06cc\u0688\u0627","name:wo":"Kanadaa","name:nv":"Deeteel Bik\u00e9yah","name:ga":"Ceanada","name:gn":"Kanat\u00e3","name:gl":"Canad\u00e1","maritime_boundary":true,"name:gv":"Yn Chanadey","name:gu":"\u0a95\u0ac7\u0aa8\u0ac7\u0aa1\u0abe"},"arcs":[2]},{"type":"LineString","properties":{"name:pt":"Terra Nova e Labrador","name:ka":"\u10dc\u10d8\u10e3\u10e4\u10d0\u10e3\u10dc\u10d3\u10da\u10d4\u10dc\u10d3\u10d8 \u10d3\u10d0 \u10da\u10d0\u10d1\u10e0\u10d0\u10d3\u10dd\u10e0\u10d8","name:ko":"\ub274\ud380\ub4e4\ub79c\ub4dc \ub798\ube0c\ub77c\ub3c4 \uc8fc","name:kl":"Newfoundland aamma Labrador","name:cs":"Newfoundland a Labrador","name:kw":"Tir Nowydh ha Labrador","name:th":"\u0e23\u0e31\u0e10\u0e19\u0e34\u0e27\u0e1f\u0e31\u0e19\u0e14\u0e4c\u0e41\u0e25\u0e19\u0e14\u0e4c\u0e41\u0e25\u0e30\u0e41\u0e25\u0e1a\u0e23\u0e32\u0e14\u0e2d\u0e23\u0e4c","name:az":"Nyufaundlend v\u0259 Labrador","name:tl":"Newfoundland at Labrador","name:pa":"\u0a28\u0a3f\u0a0a\u0a2b\u0a3c\u0a70\u0a21\u0a32\u0a48\u0a02\u0a21 \u0a05\u0a24\u0a47 \u0a32\u0a3e\u0a2c\u0a30\u0a3e\u0a21\u0a4b\u0a30","name:os":"\u041d\u044c\u044e\u0444\u0430\u0443\u043d\u0434\u043b\u0435\u043d\u0434 \u00e6\u043c\u00e6 \u041b\u0430\u0431\u0440\u0430\u0434\u043e\u0440","name:pl":"Nowa Fundlandia i Labrador","name:ta":"\u0ba8\u0bbf\u0baf\u0bc2\u0b83\u0baa\u0bb5\u0bc1\u0ba9\u0bcd\u0bb2\u0bbe\u0ba8\u0bcd\u0ba4\u0bc1 \u0bae\u0bb1\u0bcd\u0bb1\u0bc1\u0bae\u0bcd \u0bb2\u0bbe\u0baa\u0bcd\u0bb0\u0b9f\u0bcb\u0bb0\u0bcd","name:ca":"Terranova i Labrador","name:cy":"Newfoundland a Labrador","source":"openstreetmap.org","sort_rank":256,"name:qu":"Newfoundland wan Labrador pruwinsya","name:da":"Newfoundland og Labrador","name:de":"Neufundland und Labrador","name:tr":"Newfoundland ve Labrador","name:sq":"Toka e Re dhe Labradori","name:be":"\u041f\u0440\u0430\u0432\u0456\u043d\u0446\u044b\u044f \u041d\u044c\u044e\u0444\u0430\u045e\u043d\u0434\u043b\u0435\u043d\u0434 \u0456 \u041b\u0430\u0431\u0440\u0430\u0434\u043e\u0440","name:lv":"\u0145\u016bfaundlenda un Labradora","name:lt":"Niufaundlandas ir Labradoras","name:uz":"Nyufaundlend va Labrador","name:he":"\u05e0\u05d9\u05d5\u05e4\u05d0\u05d5\u05e0\u05d3\u05dc\u05e0\u05d3 \u05d5\u05dc\u05d1\u05e8\u05d3\u05d5\u05e8","name:eo":"Novlando kaj Labradoro","name:ur":"\u0646\u06cc\u0648 \u0641\u0627\u0624\u0646\u0688 \u0644\u06cc\u0646\u0688 \u0627\u0648\u0631 \u0644\u06cc\u0628\u0631\u0627\u0688\u0648\u0631","name:lb":"Neifundland a Labrador","name:la":"Terra Nova et Terra Laboratoria","name:uk":"\u041d\u044c\u044e\u0444\u0430\u0443\u043d\u0434\u043b\u0435\u043d\u0434 \u0456 \u041b\u0430\u0431\u0440\u0430\u0434\u043e\u0440","name:hy":"\u0546\u0575\u0578\u0582\u0586\u0561\u0578\u0582\u0576\u0564\u056c\u0565\u0576\u0564 \u0587 \u053c\u0561\u0562\u0580\u0561\u0564\u0578\u0580","name:ug":"N\u00e9wfundland \u00d6lkisi","name:hu":"\u00daj-Fundland \u00e9s Labrador","name:hr":"Newfoundland i Labrador","name:oc":"T\u00e8rran\u00f2va e Labrador","name:el":"\u039d\u03ad\u03b1 \u0393\u03b7 \u03ba\u03b1\u03b9 \u039b\u03b1\u03bc\u03c0\u03c1\u03b1\u03bd\u03c4\u03cc\u03c1","kind":"region","name":"Newfoundland and Labrador","min_zoom":8.0,"name:eu":"Ternua eta Labrador","name:et":"Newfoundland ja Labrador","name:es":"Terranova y Labrador","name:ro":"Newfoundland \u0219i Labrador","name:ie":"Nov-Fundland e Labrador","name:id":"Newfoundland dan Labrador","name:ms":"Newfoundland dan Labrador","name:mr":"\u0928\u094d\u092f\u0942\u092b\u093e\u0909\u0902\u0921\u0932\u0902\u0921 \u0906\u0923\u093f \u0932\u093e\u092c\u094d\u0930\u093e\u0921\u094b\u0930","name:ar":"\u0646\u064a\u0648\u0641\u0627\u0648\u0646\u062f\u0644\u0627\u0646\u062f \u0648\u0627\u0644\u0644\u0627\u0628\u0631\u0627\u062f\u0648\u0631","name:io":"Newfoundland e Labrador","name:is":"N\u00fdfundnaland og Labrador","name:it":"Terranova e Labrador","name:ru":"\u041d\u044c\u044e\u0444\u0430\u0443\u043d\u0434\u043b\u0435\u043d\u0434 \u0438 \u041b\u0430\u0431\u0440\u0430\u0434\u043e\u0440","name:vi":"Newfoundland v\u00e0 Labrador","name:mn":"\u041d\u044c\u044e\u0444\u0430\u0443\u043d\u0434\u043b\u0435\u043d\u0434 \u0431\u0430 \u041b\u0430\u0431\u0440\u0430\u0434\u043e\u0440","id":-391196,"name:mk":"\u040a\u0443\u0444\u0430\u0443\u043d\u0434\u043b\u0435\u043d\u0434 \u0438 \u041b\u0430\u0431\u0440\u0430\u0434\u043e\u0440","name:af":"Newfoundland en Labrador","name:fa":"\u0646\u06cc\u0648\u0641\u0627\u0646\u062f\u0644\u0646\u062f \u0648 \u0644\u0627\u0628\u0631\u0627\u062f\u0648\u0631","kind_detail":"4","name:fo":"N\u00fdfundland og Labrador","name:fr":"Terre-Neuve et Labrador","name:fy":"Nijf\u00fbnl\u00e2n en Labrador","name:vo":"Newfoundland e Labrador","name:zh":"\u7d10\u82ac\u862d\u8207\u62c9\u5e03\u62c9\u591a\u7701","name:sl":"Nova Fundlandija in Labrador","name:nl":"Newfoundland en Labrador","name:ja":"\u30cb\u30e5\u30fc\u30d5\u30a1\u30f3\u30c9\u30e9\u30f3\u30c9\u30fb\u30e9\u30d6\u30e9\u30c9\u30fc\u30eb\u5dde","name:nn":"Newfoundland og Labrador","name:no":"Newfoundland og Labrador","name:sc":"Terranova e Labrador","name:br":"Douar-Nevez ha Labrador","name:bs":"Newfoundland i Labrador","name:yi":"\u05e0\u05d9\u05d9\u05e4\u05d5\u05e0\u05d3\u05dc\u05d0\u05e0\u05d3 \u05d0\u05d5\u05df \u05dc\u05d0\u05d1\u05e8\u05d0\u05d3\u05d0\u05e8","name:sk":"Newfoundland a Labrador","name:sv":"Newfoundland och Labrador","name:bg":"\u041d\u044e\u0444\u0430\u0443\u043d\u0434\u043b\u0435\u043d\u0434 \u0438 \u041b\u0430\u0431\u0440\u0430\u0434\u043e\u0440","name:sr":"\u040a\u0443\u0444\u0430\u0443\u043d\u0434\u043b\u0435\u043d\u0434 \u0438 \u041b\u0430\u0431\u0440\u0430\u0434\u043e\u0440","osm_relation":true,"name:ga":"Talamh an \u00c9isc agus Labradar","name:gd":"An Talamh \u00d9r is Labrador","name:yo":"Newfoundland \u00e0ti Labrador","name:gl":"Terra Nova e Labrador","maritime_boundary":true,"name:gv":"Thalloo yn Eeast as Labrador","name:fi":"Newfoundland ja Labrador"},"arcs":[3]}]},"roads":{"type":"GeometryCollection","geometries":[{"type":"LineString","properties":{"sort_rank":380,"kind_detail":"primary","min_zoom":8.0,"kind":"major_road","source":"openstreetmap.org"},"arcs":[7]},{"type":"LineString","properties":{"source":"openstreetmap.org","kind":"ferry","name":"Saint-Pierre - Miquelon","sort_rank":355,"min_zoom":8.0,"id":406503090},"arcs":[8]},{"type":"MultiLineString","properties":{"sort_rank":355,"source":"openstreetmap.org","min_zoom":8.0,"kind":"ferry"},"arcs":[[9],[10]]},{"type":"MultiLineString","properties":{"kind":"major_road","network":"CA:NL:R","sort_rank":380,"kind_detail":"primary","source":"openstreetmap.org","min_zoom":8.0,"shield_text":"480","ref":"480"},"arcs":[[11],[12],[13]]}]},"earth":{"type":"GeometryCollection","geometries":[{"type":"MultiPolygon","properties":{"sort_rank":10,"source":"naturalearthdata.com","min_zoom":0.0,"kind":"earth","area":62864866389},"arcs":[[[14]],[[15]]]}]},"landuse":{"type":"GeometryCollection","geometries":[]}},"type":"Topology","transform":{"translate":[-57.65625,47.0401821448],"scale":[0.0003433228,0.00023187]},"arcs":[[[4096,1114],[-15,29],[-697,258]],[[3384,1401],[-35,-223],[-154,-94],[-142,-130],[-105,-143],[-83,-176],[-62,-292],[36,-343]],[[0,1561],[4,-1],[129,-146],[140,-104],[157,-73],[196,-43],[210,4],[289,65],[200,77],[160,113],[212,13],[393,-182],[140,-25],[224,4],[316,77],[545,259],[86,-4],[-17,-194]],[[0,2148],[146,-42],[229,66],[78,-141],[208,-105],[136,4],[207,51],[232,387],[128,7],[157,-62],[132,16],[191,71],[478,-286],[142,33],[252,145],[191,67],[95,127],[622,-43],[115,22],[64,42],[293,-14]],[[4096,2538],[0,-2538],[-5,0],[0,16],[-5,42],[-150,127],[-103,26],[-49,24],[-41,48],[-1,45],[30,42],[54,42],[-35,24],[-34,-5],[-32,-25],[-30,-39],[-24,-50],[-2,-42],[16,-69],[9,-156],[6,-50],[-3700,0],[0,2470],[5,-11],[25,-27],[53,-10],[141,103],[34,44],[34,30],[36,19],[43,13],[-8,-16],[-5,-14],[-7,-29],[89,-16],[251,16],[30,-6],[54,-22],[26,-4],[15,5],[27,22],[46,16],[29,17],[24,-1],[9,-43],[-9,-34],[-18,-31],[-9,-40],[17,-56],[30,-40],[33,-11],[76,19],[92,52],[38,7],[70,-26],[38,-7],[31,20],[71,163],[21,-17],[58,-101],[-14,-37],[-52,-50],[-4,-19],[27,-29],[37,-24],[40,-15],[36,-5],[398,83],[77,-15],[63,-54],[54,-58],[68,-43],[70,-10],[57,38],[-19,-72],[17,-24],[74,8],[28,10],[17,15],[19,-1],[36,-39],[41,14],[150,122],[58,26],[0,29],[-72,33],[-39,60],[-28,64],[-41,49],[18,33],[21,29],[30,-46],[68,-135],[32,-28],[98,-46],[22,2],[18,15],[72,29],[-37,54],[-102,46],[-41,47],[80,19],[309,-45],[151,26],[49,-8],[95,-39],[218,-21],[83,7],[74,35],[49,79],[23,115],[-12,107],[-60,49],[0,30],[44,18],[14,56],[5,71],[16,63],[2,-144],[17,-56],[41,-38],[-33,-52],[-2,-84],[6,-90],[-11,-68],[133,-8],[18,6]],[[4091,0],[0,16],[-5,42],[-150,127],[-103,26],[-49,24],[-41,48],[-1,45],[30,42],[54,42],[-35,24],[-34,-5],[-32,-25],[-30,-39],[-24,-50],[-2,-42],[16,-69],[9,-156],[6,-50]],[[0,2470],[5,-11],[25,-27],[53,-10],[141,103],[34,44],[34,30],[36,19],[43,13],[-8,-16],[-5,-14],[-7,-29],[89,-16],[251,16],[30,-6],[54,-22],[26,-4],[15,5],[27,22],[46,16],[29,17],[24,-1],[9,-43],[-9,-34],[-18,-31],[-9,-40],[17,-56],[30,-40],[33,-11],[76,19],[92,52],[38,7],[70,-26],[38,-7],[31,20],[71,163],[21,-17],[58,-101],[-14,-37],[-52,-50],[-4,-19],[27,-29],[37,-24],[40,-15],[36,-5],[398,83],[77,-15],[63,-54],[54,-58],[68,-43],[70,-10],[57,38],[-19,-72],[17,-24],[74,8],[28,10],[17,15],[19,-1],[36,-39],[41,14],[150,122],[58,26],[0,29],[-72,33],[-39,60],[-28,64],[-41,49],[18,33],[21,29],[30,-46],[68,-135],[32,-28],[98,-46],[22,2],[18,15],[72,29],[-37,54],[-102,46],[-41,47],[80,19],[309,-45],[151,26],[49,-8],[95,-39],[218,-21],[83,7],[74,35],[49,79],[23,115],[-12,107],[-60,49],[0,30],[44,18],[14,56],[5,71],[16,63],[2,-144],[17,-56],[41,-38],[-33,-52],[-2,-84],[6,-90],[-11,-68],[133,-8],[18,6]],[[3707,0],[-12,72],[60,159],[-31,27]],[[4096,100],[-278,169],[-85,-1]],[[1616,2367],[-50,-171],[-259,-63],[-295,-114],[-153,-12],[-33,70],[-36,0],[-78,-61],[-511,415],[-64,21],[68,16],[759,-162],[611,-47],[41,108]],[[1616,2367],[-20,-75],[520,-150],[160,-85],[220,16],[187,97],[31,58],[-51,49],[-10,51],[53,-77],[1390,150]],[[30,4096],[6,-10],[77,-69],[-89,-248],[36,-82],[-60,-146]],[[0,3274],[18,-20],[-18,-147]],[[0,2943],[82,-93],[17,-66],[-97,-246],[133,-65],[2,-21]],[[3700,0],[-6,50],[-9,156],[-16,69],[2,42],[24,50],[30,39],[32,25],[34,5],[35,-24],[-54,-42],[-30,-42],[1,-45],[41,-48],[49,-24],[103,-26],[150,-127],[5,-42],[0,-16],[-391,0]],[[4096,4096],[0,-1558],[-18,-6],[-133,8],[11,68],[-6,90],[2,84],[33,52],[-41,38],[-17,56],[-2,144],[-16,-63],[-5,-71],[-14,-56],[-44,-18],[0,-30],[60,-49],[12,-107],[-23,-115],[-49,-79],[-74,-35],[-83,-7],[-218,21],[-95,39],[-49,8],[-151,-26],[-309,45],[-80,-19],[41,-47],[102,-46],[37,-54],[-72,-29],[-18,-15],[-22,-2],[-98,46],[-32,28],[-68,135],[-30,46],[-21,-29],[-18,-33],[41,-49],[28,-64],[39,-60],[72,-33],[0,-29],[-58,-26],[-150,-122],[-41,-14],[-36,39],[-19,1],[-17,-15],[-28,-10],[-74,-8],[-17,24],[19,72],[-57,-38],[-70,10],[-68,43],[-54,58],[-63,54],[-77,15],[-398,-83],[-36,5],[-40,15],[-37,24],[-27,29],[4,19],[52,50],[14,37],[-58,101],[-21,17],[-71,-163],[-31,-20],[-38,7],[-70,26],[-38,-7],[-92,-52],[-76,-19],[-33,11],[-30,40],[-17,56],[9,40],[18,31],[9,34],[-9,43],[-24,1],[-29,-17],[-46,-16],[-27,-22],[-15,-5],[-26,4],[-54,22],[-30,6],[-251,-16],[-89,16],[7,29],[5,14],[8,16],[-43,-13],[-36,-19],[-34,-30],[-34,-44],[-141,-103],[-53,10],[-25,27],[-5,11],[0,1626],[4096,0]]]}