{"objects":{"water":{"type":"GeometryCollection","geometries":[{"type":"MultiPolygon","properties":{"source":"naturalearthdata.com","kind":"lake","name":"Dead Sea","area":1175304052,"sort_rank":200,"alkaline":true,"min_zoom":0.0},"arcs":[[[67]],[[68]]]},{"type":"Point","properties":{"label_placement":true,"kind":"lake","name":"Dead Sea","area":905461248,"sort_rank":200,"alkaline":true,"source":"naturalearthdata.com","min_zoom":0.0,"id":1307},"coordinates":[937,2674]},{"type":"Point","properties":{"label_placement":true,"kind":"lake","name":"Dead Sea","area":269842816,"sort_rank":200,"alkaline":true,"source":"naturalearthdata.com","min_zoom":0.0,"id":1315},"coordinates":[855,1417]},{"type":"LineString","properties":{"source":"naturalearthdata.com","kind":"lake","sort_rank":367,"alkaline":true,"boundary":true,"min_zoom":0.0,"id":1307},"arcs":[69]},{"type":"LineString","properties":{"source":"naturalearthdata.com","kind":"lake","sort_rank":367,"alkaline":true,"boundary":true,"min_zoom":0.0,"id":1315},"arcs":[70]},{"type":"Point","properties":{"label_placement":true,"kind":"sea","name":"Dead Sea","source":"openstreetmap.org","sort_rank":200,"min_zoom":3.0,"id":4502483175},"coordinates":[928,2542]}]},"buildings":{"type":"GeometryCollection","geometries":[]},"places":{"type":"GeometryCollection","geometries":[{"type":"Point","properties":{"name:ia":"Palestina","admin_level":"2","name:sk":"Palest\u00edna","name:ja":"\u30d1\u30ec\u30b9\u30c1\u30ca\u81ea\u6cbb\u533a","name:tr":"Filistin","name:he":"\u05d4\u05e8\u05e9\u05d5\u05ea \u05d4\u05e4\u05dc\u05e1\u05d8\u05d9\u05e0\u05d9\u05ea","min_zoom":2.0,"kind":"country","name:io":"Palestina","name:is":"Heimastj\u00f3rnarsv\u00e6\u00f0i Palest\u00ednumanna","name:it":"Territori Palestinesi","name:uk":"\u041f\u0430\u043b\u0435\u0441\u0442\u0438\u043d\u0430","name:sv":"Palestinska Omr\u00e5den","name:ru":"\u041f\u0430\u043b\u0435\u0441\u0442\u0438\u043d\u0430","name:pl":"Palestyna","id":2110225115,"name:ca":"Territoris Palestins","name:vo":"Pal\u00e4stin\u00e4n","name:fa":"\u0641\u0644\u0633\u0637\u06cc\u0646","name:eo":"Palestina A\u016dtonomio","name:en":"Palestinian Territories","name":"\u0627\u0644\u0636\u0641\u0629 \u0627\u0644\u063a\u0631\u0628\u064a\u0629 \u0648\u0642\u0637\u0627\u0639 \u063a\u0632\u0629","name:ku":"Filist\u00een\u00ea","name:de":"Pal\u00e4stina","name:nl":"Palestina","source":"openstreetmap.org","name:fr":"Territoires Palestiniens","name:fy":"Palestina","population":4260636,"name:zh":"\u5df4\u52d2\u65af\u5766\u9886\u571f","name:es":"Territorios Palestinos"},"coordinates":[17,3064]},{"type":"Point","properties":{"name:pt":"Am\u00e3","name:ka":"\u10d0\u10db\u10d0\u10dc\u10d8","name:ko":"\uc554\ub9cc","name:cv":"\u0410\u043c\u043c\u0430\u043d","name:cs":"Amm\u00e1n","name:tt":"\u0410\u043c\u043c\u0430\u043d","min_zoom":8.0,"name:be":"\u0410\u043c\u0430\u043d","name:os":"\u0410\u043c\u043c\u0430\u043d","name:pl":"Amman","name:ta":"\u0b85\u0bae\u0bcd\u0bae\u0bbe\u0ba9\u0bcd","name:tg":"\u0410\u043c\u043c\u043e\u043d","name:da":"Amman","name:de":"Amman","source":"openstreetmap.org","name:kn":"\u0c85\u0cae\u0ccd\u0cae\u0cbe\u0ca8\u0ccd","name:lv":"Amm\u0101na","name:lt":"Amanas","name:hi":"\u0905\u092e\u094d\u092e\u093e\u0928","name:kk":"\u0410\u043c\u043c\u0430\u043d","name:he":"\u05e2\u05de\u05d0\u05df","kind":"locality","name:ur":"\u0639\u0645\u0627\u0646","name:uk":"\u0410\u043c\u043c\u0430\u043d","name:hy":"\u0531\u0574\u0574\u0561\u0576","country_capital":true,"name:ht":"Am\u00e0n","name:hu":"Amm\u00e1n","name:hr":"Amman","population":4000000,"name:el":"\u0391\u03bc\u03bc\u03ac\u03bd","name:eo":"Amano","name:en":"Amman","name":"\u0639\u0645\u0627\u0646\u200e","name:ku":"Amman","name:th":"\u0e2d\u0e31\u0e21\u0e21\u0e32\u0e19","name:yi":"\u05d0\u05de\u05d0\u05df","name:et":"\u2018Amm\u0101n","name:nl":"Amman","name:es":"Amm\u00e1n","int_name":"Amman","name:mr":"\u0905\u092e\u094d\u092e\u093e\u0928","name:ar":"\u0639\u0645\u0627\u0646","name:is":"Amman","name:am":"\u12a0\u121b\u1295","name:ml":"\u0d05\u0d2e\u0d4d\u0d2e\u0d3e\u0d7b","name:ru":"\u0410\u043c\u043c\u0430\u043d","name:mn":"\u0410\u043c\u043c\u0430\u043d","id":1643504896,"name:mk":"\u0410\u043c\u0430\u043d","name:fa":"\u0627\u0645\u0627\u0646","kind_detail":"city","name:fr":"Amman","name:zh":"\u5b89\u66fc","name:sl":"Aman","name:sk":"Amm\u00e1n","name:ja":"\u30a2\u30f3\u30de\u30f3","name:bs":"Aman","name:eu":"Amman","name:bn":"\u0986\u09ae\u09cd\u09ae\u09be\u09a8","name:bo":"\u0f68\u0f58\u0f0b\u0f58\u0f53\u0f0d","name:ug":"\u0626\u0627\u0645\u0645\u0627\u0646","name:sv":"Amman","name:bg":"\u0410\u043c\u0430\u043d","name:sr":"\u0410\u043c\u0430\u043d","name:gl":"Am\u00e1n - \u0639\u0645\u0627\u0646"},"coordinates":[2236,4094]},{"type":"Point","properties":{"name:wa":"Djeruzalem","name:pt":"Jerusal\u00e9m","name:ps":"\u0628\u064a\u062a \u0627\u0644\u0645\u0642\u062f\u0633","name:cy":"Jeriwsalem","name:ko":"\uc608\ub8e8\uc0b4\ub818","name:cv":"\u0418\u0435\u0440\u0443\u0441\u0430\u043b\u0438\u043c","name:cu":"\u0407\u0454\u0440\u043e\u0443\u0441\u0430\u043b\u0438\u043c\u044a","name:cs":"Jeruzal\u00e9m","name:tt":"\u0418\u0435\u0440\u0443\u0441\u0430\u043b\u0438\u043c","name:kv":"\u0418\u0435\u0440\u0443\u0441\u0430\u043b\u0438\u043c","name:ku":"Or\u015fel\u00eem","name:ro":"Ierusalim","name:tl":"Herusalem","name:sv":"Jerusalem","name:os":"\u0418\u0435\u0440\u0443\u0441\u0430\u043b\u0438\u043c","name:pl":"Jerozolima","name:ta":"\u0baf\u0bc6\u0bb0\u0bc2\u0b9a\u0bb2\u0bae\u0bcd","name:tg":"\u0423\u0440\u0448\u0430\u043b\u0438\u043c","name:te":"\u0c1c\u0c46\u0c30\u0c42\u0c38\u0c32\u0c47\u0c02","name:vi":"Jerusalem","name:hu":"Jeruzs\u00e1lem","name:ka":"\u10d8\u10d4\u10e0\u10e3\u10e1\u10d0\u10da\u10d8\u10db\u10d8","name:ln":"Yerusal\u00e9mi","name:da":"Jerusalem","name:de":"Jerusalem","source":"openstreetmap.org","name:yo":"Jer\u00fas\u00e1l\u1eb9\u0301m\u00f9","name:kn":"\u0c9c\u0cc6\u0cb0\u0cc1\u0cb8\u0cb2\u0cc6\u0c82","name:dv":"\u07a4\u07aa\u078b\u07aa\u0790\u07b0","admin_level":"2","name:lv":"Jeruz\u0101leme","name:lt":"Jeruzal\u0117","name:uz":"Quddus","name:kk":"\u04d8\u043b-\u049a\u04b1\u0434\u044b\u0441","min_zoom":8.0,"kind":"locality","name:ur":"\u0628\u06cc\u062a \u0627\u0644\u0645\u0642\u062f\u0633","name:la":"Hierosolyma","name:uk":"\u0404\u0440\u0443\u0441\u0430\u043b\u0438\u043c","name:hy":"\u0535\u0580\u0578\u0582\u057d\u0561\u0572\u0565\u0574","country_capital":true,"name:ug":"\u064a\u06d0\u0631\u06c7\u0633\u0627\u0644\u06d0\u0645","name:li":"Jeruzalem","name:hr":"Jeruzalem","name:oc":"Jerusal\u00e8m","population":780200,"name:el":"\u0399\u03b5\u03c1\u03bf\u03c5\u03c3\u03b1\u03bb\u03ae\u03bc","name:eo":"Jerusalemo","name:en":"Jerusalem","name":"\u05d9\u05e8\u05d5\u05e9\u05dc\u05d9\u05dd","name:tk":"I\u00fderusalim","name:th":"\u0e40\u0e22\u0e23\u0e39\u0e0b\u0e32\u0e40\u0e25\u0e21","alt_name:is":"J\u00f3rsalir;J\u00f3rsalaborg","name:et":"Jeruusalemm","name:nl":"Jeruzalem","name:es":"Jerusal\u00e9n","name:ml":"\u0d1c\u0d46\u0d31\u0d41\u0d38\u0d32\u0d47\u0d02","name:az":"Jerusalem","name:id":"Yerusalem","name:ms":"Baitulmuqaddis","name:mr":"\u091c\u0947\u0930\u0941\u0938\u0932\u0947\u092e","name:ar":"\u0627\u0644\u0642\u062f\u0633","name:my":"\u1002\u103b\u1031\u101b\u102f\u1006\u101c\u1004\u103a\u1019\u103c\u102d\u102f\u1037","name:io":"Ierusalem","name:gn":"Herusal\u1ebd","int_name":"Jerusalem","name:is":"Jer\u00fasalem","name:am":"\u12a5\u12e8\u1229\u1233\u120c\u121d","name:it":"Gerusalemme","name:an":"Cherusalem","name:ru":"\u0418\u0435\u0440\u0443\u0441\u0430\u043b\u0438\u043c","name:rw":"Yerusalemu","id":29090735,"name:mk":"\u0415\u0440\u0443\u0441\u0430\u043b\u0438\u043c","name:vo":"Hierusalem","name:fa":"\u0627\u0648\u0631\u0634\u0644\u06cc\u0645","name:mn":"\u0418\u0435\u0440\u0443\u0441\u0430\u043b\u0438\u043c","kind_detail":"city","name:fj":"Jerusalemi","name:hi":"\u092f\u0930\u0941\u0936\u0932\u092e","name:fo":"Jer\u00fasalem","name:zh-min-nan":"I\u00e2-l\u014d\u0358-sat-l\u00e9ng","alt_name:vi":"Gi\u00earusalem","name:fr":"J\u00e9rusalem","name:zh-yue":"\u8036\u8def\u6492\u51b7","name:fy":"Jeruzalim","name:zh":"\u8036\u8def\u6492\u51b7","name:so":"Qudus","name:sm":"Ierusalema","name:sl":"Jeruzalem","name:sk":"Jeruzalem","name:ja":"\u30a8\u30eb\u30b5\u30ec\u30e0","name:sh":"Jeruzalem","name:qu":"Yerushalayim","name:sc":"Gerusalemme","name:br":"Jeruzalem","name:bn":"\u099c\u09c7\u09b0\u09c1\u09b8\u09be\u09b2\u09c7\u09ae","name:bo":"\u0f47\u0f7a\u0f0b\u0f62\u0f74\u0f0b\u0f66\u0f0b\u0f63\u0f7a\u0f58\u0f0d","name:sw":"Yerusalemu","name:be":"\u0406\u0435\u0440\u0443\u0441\u0430\u043b\u0456\u043c","name:su":"Yerusalem","name:bg":"\u0419\u0435\u0440\u0443\u0441\u0430\u043b\u0438\u043c","name:sr":"\u0408\u0435\u0440\u0443\u0441\u0430\u043b\u0438\u043c","name:sq":"Jeruzalemi","name:ga":"Iar\u00fasail\u00e9im","name:gd":"Ierusalem","name:jv":"Y\u00e9rusalem","name:gl":"Xerusal\u00e9n","name:tr":"Kud\u00fcs","name:fi":"Jerusalem"},"coordinates":[205,3506]},{"type":"Point","properties":{"kind":"locality","name:en":"Madaba","name":"\u0645\u0627\u062f\u0628\u0627","kind_detail":"town","name:he":"\u05de\u05d9\u05d3\u05d1\u05d0","min_zoom":8.0,"name:de":"Madaba","source":"openstreetmap.org","name:fr":"Madaba","int_name":"M\u0101dab\u0101; Madaba; Medeba","name:ru":"\u041c\u0430\u0434\u0430\u0431\u0430","id":799097498,"population":65000},"coordinates":[1859,3293]},{"type":"Point","properties":{"kind":"locality","name:en":"Maale Adomim","name":"\u05de\u05e2\u05dc\u05d4 \u05d0\u05d3\u05d5\u05de\u05d9\u05dd","kind_detail":"town","name:ar":"\u0645\u0639\u0627\u0644\u064a\u0647 \u0623\u062f\u0648\u0645\u064a\u0645","source":"openstreetmap.org","min_zoom":8.0,"name:ru":"\u041c\u0430\u0430\u043b\u0435-\u0410\u0434\u0443\u043c\u0438\u043c","id":282405648,"population":32000},"coordinates":[415,3477]},{"type":"Point","properties":{"admin_level":"2","name:pt":"Ramal\u00e1","name:he":"\u05e8\u05de\u05d0\u05dc\u05dc\u05d4","min_zoom":8.0,"country_capital":true,"name:ru":"\u0420\u0430\u043c\u0430\u043b\u043b\u0430","name:pl":"Ramallah","name:ta":"\u0bb0\u0bae\u0bb2\u0bcd\u0bb2\u0bbe","id":246843686,"population":27460,"kind":"locality","name:en":"Ramallah","name":"\u0631\u0627\u0645 \u0627\u0644\u0644\u0647","kind_detail":"city","source":"openstreetmap.org","name:fr":"Ramallah"},"coordinates":[113,3929]},{"type":"Point","properties":{"name:pt":"Belem","name:ro":"Betleem","name:sk":"Betlehem","name:ja":"\u30d9\u30c4\u30ec\u30d8\u30e0","name:hi":"\u092c\u0947\u0925\u0932\u0939\u092e","name:ko":"\ubca0\ub4e4\ub808\ud5f4","name:kn":"\u0cac\u0cc7\u0ca5\u0cb2\u0cb9\u0cae\u0ccd","alt_name:ru":"\u0411\u0430\u0439\u0442-\u041b\u0430\u0445\u043c","name:he":"\u05d1\u05d9\u05ea \u05dc\u05d7\u05dd","name:cs":"Betl\u00e9m","min_zoom":8.0,"name:it":"Betlemme","name:ru":"\u0412\u0438\u0444\u043b\u0435\u0435\u043c","name:pl":"Betlejem","id":431636549,"population":27000,"name:fa":"\u0628\u06cc\u062a \u0644\u062d\u0645","kind":"locality","name:en":"Bethlehem","name":"\u0628\u064a\u062a \u0644\u062d\u0645","kind_detail":"town","name:de":"Bethlehem","name:nl":"Bethlehem","source":"openstreetmap.org","name:fr":"Bethl\u00e9em","name:fi":"Betlehem","name:fy":"Betlehem","name:zh":"\u4f2f\u5229\u6046","name:es":"Bel\u00e9n"},"coordinates":[140,3261]},{"type":"Point","properties":{"kind":"locality","name:en":"Karak","name":"\u0627\u0644\u0643\u0631\u0643","kind_detail":"town","name:he":"\u05db\u05e8\u05db","min_zoom":8.0,"name:de":"Kerak","source":"openstreetmap.org","name:fr":"Al Karak","int_name":"Karak","name:ru":"\u042d\u043b\u044c-\u041a\u0430\u0440\u0430\u043a","id":798877241,"population":23000},"coordinates":[1598,1478]},{"type":"Point","properties":{"name:ro":"Ierihon","name:he":"\u05d9\u05e8\u05d9\u05d7\u05d5","min_zoom":8.0,"name:ru":"\u0418\u0435\u0440\u0438\u0445\u043e\u043d","name:sv":"Jeriko","id":432335269,"population":22006,"kind":"locality","name:en":"Jericho","name":"\u0627\u0631\u064a\u062d\u0627","kind_detail":"city","name:de":"Jericho","source":"openstreetmap.org","name:fr":"J\u00e9richo","name:fi":"Jeriko","name:es":"Jeric\u00f3"},"coordinates":[884,3768]},{"type":"Point","properties":{"kind":"locality","name:en":"Beit Sahur","name":"\u0628\u064a\u062a \u0633\u0627\u062d\u0648\u0631","kind_detail":"town","name:he":"\u05d1\u05d9\u05ea \u05e1\u05d0\u05d7\u05d5\u05e8","name:de":"Bait Sahur","source":"openstreetmap.org","min_zoom":8.0,"name:fi":"Beit Sahur","id":332791003,"population":15400},"coordinates":[214,3243]},{"type":"Point","properties":{"kind":"locality","name:en":"Beit Jala","name":"\u0628\u064a\u062a \u062c\u0627\u0644\u0627","kind_detail":"town","name:he":"\u05d1\u05d9\u05ea \u05d2'\u05d0\u05dc\u05d4","name:de":"Bait Dschala","source":"openstreetmap.org","min_zoom":8.0,"id":332791054,"population":11758},"coordinates":[91,3289]},{"type":"Point","properties":{"kind":"locality","name:en":"Givat Zeev","name":"\u05d2\u05d1\u05e2\u05ea \u05d6\u05d0\u05d1","kind_detail":"town","name:ar":"\u062c\u064a\u0641\u0639\u0627\u062a \u0632\u0626\u064a\u0641","source":"openstreetmap.org","min_zoom":8.0,"name:ru":"\u0413\u0438\u0432\u0430\u0442-\u0417\u0435\u0435\u0432","id":246843692,"population":11200},"coordinates":[36,3790]},{"type":"Point","properties":{"kind":"locality","name:en":"Beit El","name":"\u05d1\u05d9\u05ea \u05d0\u05dc","kind_detail":"town","name:ar":"\u0628\u064a\u062a \u0623\u064a\u0644","min_zoom":8.0,"source":"openstreetmap.org","name:fr":"Beit El","name:ru":"\u0411\u0435\u0439\u0442-\u042d\u043b\u044c","id":353156244,"population":4000},"coordinates":[193,4062]}]},"transit":{"type":"GeometryCollection","geometries":[{"type":"MultiLineString","properties":{"kind":"train","name:en":"High-speed railway to Jerusalem","name":"\u05e7\u05d5 \u05d4\u05e8\u05db\u05d1\u05ea \u05d4\u05de\u05d4\u05d9\u05e8 \u05dc\u05d9\u05e8\u05d5\u05e9\u05dc\u05d9\u05dd (till 2018)","sort_rank":275,"name:he":"\u05e7\u05d5 \u05d4\u05e8\u05db\u05d1\u05ea \u05d4\u05de\u05d4\u05d9\u05e8 \u05dc\u05d9\u05e8\u05d5\u05e9\u05dc\u05d9\u05dd","source":"openstreetmap.org","min_zoom":6.0,"operator":"Israel Railways","osm_relation":true},"arcs":[[63],[64]]},{"type":"LineString","properties":{"kind":"train","name:en":"Tel Aviv Center Savidor => Jerusalem Malha","name":"\u05ea\u05dc \u05d0\u05d1\u05d9\u05d1 \u05e1\u05d1\u05d9\u05d3\u05d5\u05e8 => \u05d9\u05e8\u05d5\u05e9\u05dc\u05d9\u05dd \u05de\u05dc\u05d7\u05d4","sort_rank":275,"colour":"#0099FF","source":"openstreetmap.org","min_zoom":6.0,"operator":"Israel Railways","ref":"Blue","id":-1660972,"osm_relation":true,"colour_name":"dodgerblue"},"arcs":[65]},{"type":"LineString","properties":{"kind":"train","name:en":"Jerusalem Malha => Tel Aviv Center Savidor","name":"\u05d9\u05e8\u05d5\u05e9\u05dc\u05d9\u05dd \u05de\u05dc\u05d7\u05d4 => \u05ea\u05dc \u05d0\u05d1\u05d9\u05d1 \u05e1\u05d1\u05d9\u05d3\u05d5\u05e8","sort_rank":275,"colour":"#0099FF","source":"openstreetmap.org","min_zoom":6.0,"operator":"Israel Railways","ref":"Blue","id":-1660971,"osm_relation":true,"colour_name":"dodgerblue"},"arcs":[66]}]},"pois":{"type":"GeometryCollection","geometries":[{"type":"Point","properties":{"kind":"protected_area","name:en":"Nahal Abuv Nature Reserve","protect_class":"1","area":12912200,"source":"openstreetmap.org","min_zoom":8.0,"tier":2,"ref":"229\/03\/10","id":-4728666,"osm_relation":true,"name":"\u05e9\u05de\u05d5\u05e8\u05ea \u05d8\u05d1\u05e2 \u05e0\u05d7\u05dc \u05d0\u05d1\u05d5\u05d1"},"coordinates":[207,1568]}]},"boundaries":{"type":"GeometryCollection","geometries":[{"type":"MultiLineString","properties":{"name:right:yo":"\u00cdsr\u00e1\u1eb9\u0301l\u00ec","name:right:hy":"\u053b\u057d\u0580\u0561\u0575\u0565\u056c","name:right:qu":"Israyil","alt_name:left:eo":"Palestina A\u016dtonomio","alt_name:left:en":"Palestinian Territories","name:right:yi":"\u05d9\u05e9\u05e8\u05d0\u05dc","name:right:hr":"Izrael","name:right:ht":"Izray\u00e8l","name:right:hu":"Izrael","name:right:hi":"\u0907\u091c\u093c\u0930\u093e\u0907\u0932","name:left:sk":"Palest\u00edna","name:left:vo":"Pal\u00e4stin\u00e4n","alt_name:left:es":"Territorios Palestinos","name:right:ha":"Isra'ila","name:right:he":"\u05d9\u05e9\u05e8\u05d0\u05dc","name:right:af":"Israel","name:right:an":"Israel","name:right:am":"\u12a5\u1235\u122b\u12a4\u120d","name:left:ca":"Palestina","name:right:av":"\u0413l\u0438\u0437\u0440\u0430\u0438\u043b","name:right:ar":"\u0625\u0633\u0631\u0627\u0626\u064a\u0644","name:right:mt":"I\u017crael","name:right:az":"\u0130srail","name:right:it":"Israele","name:right:is":"\u00cdsrael","name:left:ro":"Palestina","name:right:ru":"\u0418\u0437\u0440\u0430\u0438\u043b\u044c","name:left:ku":"Filist\u00een\u00ea","name:right:ro":"Israel","name:left:ru":"\u041f\u0430\u043b\u0435\u0441\u0442\u0438\u043d\u0430","name:right:ig":"Israel","name:right:ie":"Israel","name:right:id":"Israel","name:right:ia":"Israel","name":"\u0627\u0644\u0623\u0631\u0627\u0636\u064a \u0627\u0644\u0641\u0644\u0633\u0637\u064a\u0646\u064a\u0629 - \u05de\u05d3\u05d9\u05e0\u05ea \u05d9\u05e9\u05e8\u05d0\u05dc","alt_name:left:pt":"Territ\u00f3rios Palestinianos","name:right:bn":"\u0987\u09b8\u09b0\u09be\u09af\u09bc\u09c7\u09b2","name:right:bo":"\u0f68\u0f72\u0f0b\u0f66\u0f72\u0f0b\u0f62\u0f0b\u0f68\u0f7a\u0f63\u0f0d","name:right:bm":"Israil","name:right:ba":"\u0418\u0437\u0440\u0430\u0438\u043b\u044c","name:right:bg":"\u0418\u0437\u0440\u0430\u0435\u043b","name:right:be":"\u0406\u0437\u0440\u0430\u0456\u043b\u044c","name:right:br":"Israel","name:right:bs":"Izrael","name:right:zh":"\u4ee5\u8272\u5217","alt_name:left:ca":"Territoris Palestins","name:right:nn":"Israel","name:right:no":"Israel","name:right:nl":"Isra\u00ebl","name:right:fr":"Isra\u00ebl","name:right:ko":"\uc774\uc2a4\ub77c\uc5d8","name:right:wo":"Israayil","name:right:ne":"\u0907\u091c\u0930\u093e\u092f\u0932","name:right:zu":"Isreyili","id:right":-1473946,"name:right:ms":"Israel","name:right:gv":"Israel","name:right:fa":"\u0627\u0633\u0631\u0627\u0626\u06cc\u0644","name:right:nv":"\u00cdzrel Bik\u00e9yah","name:right:fo":"\u00cdsrael","name:right:fj":"Isireli","name:right:fi":"Israel","name:left:en":"Palestine","kind_detail":"2","alt_name:right:vi":"Ixraen;Do Th\u00e1i","name:right:tt":"\u0418\u0441\u0440\u0430\u0438\u043b","name:left:es":"Palestina","name:right:gu":"\u0a88\u0a9d\u0ab0\u0abe\u0aaf\u0ab2","name:right:zh-min-nan":"\u00cd-sek-lia\u030dt-kok","name:right:ps":"\u0627\u0633\u0631\u0627\u0626\u064a\u0644","name:right:pt":"Israel","name:left:tr":"Filistin","name:right:oc":"Isra\u00e8l","name:left:ms":"Palestin","name:right:pa":"\u0a07\u0a1c\u0a3c\u0a30\u0a3e\u0a07\u0a32","name:right:ga":"Iosrael","name:left:ia":"Palestina","name:right:gl":"Israel","name:right:gn":"Israel","name:right:pl":"Izrael","name:right:os":"\u0418\u0437\u0440\u0430\u0438\u043b\u044c","name:right:or":"\u0b07\u0b38\u0b4d\u0b30\u0b3e\u0b0f\u0b32","name:left:pt":"Palestina","name:right:gd":"Iosrael","name:left:de":"Pal\u00e4stina","name:right:th":"\u0e1b\u0e23\u0e30\u0e40\u0e17\u0e28\u0e2d\u0e34\u0e2a\u0e23\u0e32\u0e40\u0e2d\u0e25","name:right:ug":"\u0626\u0649\u0633\u0631\u0627\u0626\u0649\u0644\u0649\u064a\u06d5","name:right:la":"Israel","name:right:lb":"Israel","name:right:uk":"\u0406\u0437\u0440\u0430\u0457\u043b\u044c","name:right:ln":"Israel","name:right:kv":"\u0418\u0437\u0440\u0430\u0438\u043b\u044c","name:right:li":"Isra\u00ebl","alt_name:left:de":"Pal\u00e4stinensische Autonomiegebiete","name:right:lt":"Izraelis","name:right:ur":"\u0627\u0633\u0631\u0627\u0626\u06cc\u0644","name:right:lv":"Izra\u0113la","name:left:hu":"Palesztina","source":"openstreetmap.org","sort_rank":262,"alt_name:left:fr":"Territoires Palestiniens","int_name:right":"\u05d9\u05e9\u05e8\u05d0\u05dc","name:right:rw":"Isirayeli","osm_relation":true,"official_name:right":"\u05de\u05d3\u05d9\u05e0\u05ea \u05d9\u05e9\u05e8\u05d0\u05dc;\u062f\u0648\u0644\u0629 \u0625\u0633\u0631\u0627\u0626\u064a\u0644","name:left":"\u0627\u0644\u0623\u0631\u0627\u0636\u064a \u0627\u0644\u0641\u0644\u0633\u0637\u064a\u0646\u064a\u0629","name:right:es":"Israel","name:right:wa":"Israyel","name:right:mn":"\u0418\u0437\u0440\u0430\u0439\u043b\u044c","name:right:eu":"Israel","name:right:ml":"\u0d07\u0d38\u0d4d\u0d30\u0d2f\u0d47\u0d7d","name:right:vo":"Yisrael\u00e4n","name:right:vi":"Israel","alt_name:left:pl":"Autonomia Palesty\u0144ska","name:right:uz":"Isroil","name:right:mr":"\u0907\u0938\u094d\u0930\u093e\u092f\u0932","min_zoom":8.0,"name:right:na":"Iteraer","name:right:eo":"Israelo","name:right:en":"Israel","name:right:el":"\u0399\u03c3\u03c1\u03b1\u03ae\u03bb","kind":"country","name:left:fi":"Palestiina","name:left:fr":"Palestine","name:right:jv":"Isra\u00e8l","name:right:fy":"Israel","name:right:mk":"\u0418\u0437\u0440\u0430\u0435\u043b","name:right:ja":"\u30a4\u30b9\u30e9\u30a8\u30eb","alt_name:left:ro":"Teritoriile palestiniene","name:right:sq":"Izraeli","name:right:ss":"Ka-Israyeli","name:right:sr":"\u0418\u0437\u0440\u0430\u0435\u043b","name:right:sw":"Israel","name:right:sv":"Israel","name:right:si":"\u0d8a\u0dc1\u0dca\u200d\u0dbb\u0dcf\u0dba\u0dbd\u0dba","name:right:sh":"Izrael","name:right:sk":"Izrael","name:right:sm":"Israel","name:right:sl":"Izrael","name:right:so":"Israaiil","name:right:sa":"\u0907\u0938\u094d\u0930\u0947\u0932","name:right:sc":"Israele","name:right:se":"Israel","id":-1703814,"name:right":"\u05de\u05d3\u05d9\u05e0\u05ea \u05d9\u05e9\u05e8\u05d0\u05dc","name:right:co":"Israele","name:right:ca":"Israel","name:right:et":"Iisrael","name:right:ce":"\u0418\u0437\u0440\u0430\u0438\u043b\u044c","name:right:cy":"Israel","name:right:zh-yue":"\u4ee5\u8272\u5217","id:left":-1703814,"name:right:cs":"Izrael","alt_name:left:ru":"\u0422\u0435\u0440\u0440\u0438\u0442\u043e\u0440\u0438\u0438 \u041f\u0430\u043b\u0435\u0441\u0442\u0438\u043d\u044b","name:right:cu":"\u0407\ua641\u0434\u0440\u0430\u0438\u043b\u0484\u044c","name:right:cv":"\u0418\u0437\u0440\u0430\u0438\u043b\u044c","name:right:ka":"\u10d8\u10e1\u10e0\u10d0\u10d4\u10da\u10d8","name:left:io":"Palestina","name:left:ar":"\u0641\u0644\u0633\u0637\u064a\u0646","name:right:kg":"Israel","name:left:pl":"Palestyna","name:right:kk":"\u0418\u0437\u0440\u0430\u0438\u043b\u044c","name:right:kl":"Israel","name:right:tr":"\u0130srail","name:right:kn":"\u0c87\u0cb8\u0ccd\u0cb0\u0cc7\u0cb2\u0ccd","name:right:tl":"Israel","name:right:ku":"\u00cesra\u00eal","name:right:kw":"Ysrael","name:right:tk":"Ysra\u00fdyl","name:right:ky":"\u0418\u0437\u0440\u0430\u0438\u043b\u044c","name:right:te":"\u0c07\u0c1c\u0c4d\u0c30\u0c3e\u0c2f\u0c3f\u0c32\u0c4d","name:right:tg":"\u0418\u0441\u0440\u043e\u0438\u043b","name:right:my":"\u1021\u1005\u1039\u1005\u101b\u1031\u1038\u1014\u102d\u102f\u1004\u103a\u1004\u1036","name:right:ta":"\u0b87\u0b9a\u0bc1\u0bb0\u0bc7\u0bb2\u0bcd","name:right:io":"Israel","name:right:de":"Israel","name:right:da":"Israel","name:right:dz":"\u0f68\u0f72\u0f5b\u0f0b\u0f62\u0f71\u0f7a\u0f63\u0f0b","name:right:dv":"\u0787\u07a8\u0790\u07b0\u0783\u07a7\u0787\u07a9\u078d\u07aa"},"arcs":[[0],[1]]},{"type":"MultiLineString","properties":{"name:right:yo":"J\u1ecd\u0301rd\u00e1n\u00ec","name:right:hy":"\u0540\u0578\u0580\u0564\u0561\u0576\u0561\u0576","name:right:qu":"Hurdanya","alt_name:left:eo":"Palestina A\u016dtonomio","alt_name:left:en":"Palestinian Territories","name:right:yi":"\u05d9\u05d0\u05e8\u05d3\u05d0\u05e0\u05d9\u05e2","name:right:hr":"Jordan","name:right:ht":"J\u00f2dani","name:right:hu":"Jord\u00e1nia","name:right:hi":"\u091c\u0949\u0930\u094d\u0921\u0928","name:left:sk":"Palest\u00edna","name:left:vo":"Pal\u00e4stin\u00e4n","alt_name:left:es":"Territorios Palestinos","name:right:he":"\u05d9\u05e8\u05d3\u05df","name:right:af":"Jordani\u00eb","name:right:an":"Chordania","name:right:am":"\u1306\u122d\u12f3\u1295","name:left:ca":"Palestina","source":"openstreetmap.org","name:right:mt":"\u0120ordan","name:right:az":"\u0130ordaniya","name:right:it":"Giordania","name:right:is":"J\u00f3rdan\u00eda","name:left:ro":"Palestina","name:right:ru":"\u0418\u043e\u0440\u0434\u0430\u043d\u0438\u044f","name:left:ku":"Filist\u00een\u00ea","name:right:ro":"Iordania","name:left:ru":"\u041f\u0430\u043b\u0435\u0441\u0442\u0438\u043d\u0430","name:right:ie":"Jordania","name:right:id":"Yordania","name:right:ia":"Jordania","name":"\u0627\u0644\u0623\u0631\u0627\u0636\u064a \u0627\u0644\u0641\u0644\u0633\u0637\u064a\u0646\u064a\u0629 - \u0627\u0644\u0623\u0631\u062f\u0646","alt_name:left:pt":"Territ\u00f3rios Palestinianos","name:right:bn":"\u099c\u09b0\u09cd\u09a6\u09be\u09a8","name:right:bo":"\u0f62\u0f97\u0f7c\u0f62\u0f0b\u0f4c\u0f53\u0f0d","name:right:bm":"Ordon","name:right:ba":"\u0418\u043e\u0440\u0434\u0430\u043d\u0438\u044f","name:right:bg":"\u0419\u043e\u0440\u0434\u0430\u043d\u0438\u044f","name:right:be":"\u0406\u0430\u0440\u0434\u0430\u043d\u0456\u044f","name:right:br":"Jordania","name:right:bs":"Jordan","name:right:zh":"\u7ea6\u65e6","alt_name:left:ca":"Territoris Palestins","name:right:nn":"Jordan","name:right:no":"Jordan","name:right:nl":"Jordani\u00eb","name:right:fr":"Jordanie","name:right:ko":"\uc694\ub974\ub2e8","name:right:wo":"Jordaani","id:right":-184818,"name:right:gv":"Yn Jordaan","name:right:fa":"\u0627\u0631\u062f\u0646","name:right:nv":"J\u00f3o\u02bcdan","name:right:fo":"Jordan","name:right:uz":"Iordaniya","name:right:fi":"Jordania","name:left:en":"Palestine","kind_detail":"2","alt_name:right:vi":"Gio\u00f3c-\u0111a-ni;Gio\u00f3c\u0111ani;Giooc\u0111ani;\u01af\u1edbc \u0110\u00e1n","name:right:tt":"\u04ae\u0440\u0434\u04af\u043d","name:left:es":"Palestina","name:right:gu":"\u0a9c\u0ac9\u0ab0\u0acd\u0aa1\u0aa8","name:right:zh-min-nan":"Iok-t\u00e0n","name:right:ps":"\u0627\u0631\u062f\u0646","name:right:pt":"Jord\u00e2nia","name:left:tr":"Filistin","name:right:oc":"Jordania","name:left:ms":"Palestin","name:right:pa":"\u0a1c\u0a3e\u0a30\u0a21\u0a28","name:right:ga":"An Iord\u00e1in","name:left:ia":"Palestina","name:right:gl":"Xordania","name:right:pl":"Jordania","name:right:os":"\u0418\u043e\u0440\u0434\u0430\u043d\u0438","name:right:or":"\u0b1c\u0b4b\u0b30\u0b4d\u0b21\u0b3e\u0b28","name:left:pt":"Palestina","name:right:gd":"I\u00f2rdan","name:left:de":"Pal\u00e4stina","name:right:th":"\u0e1b\u0e23\u0e30\u0e40\u0e17\u0e28\u0e08\u0e2d\u0e23\u0e4c\u0e41\u0e14\u0e19","name:right:ug":"\u0626\u0649\u0626\u0648\u0631\u062f\u0627\u0646\u0649\u064a\u06d5","name:right:la":"Iordania","name:right:lb":"Jordanien","name:right:uk":"\u0419\u043e\u0440\u0434\u0430\u043d\u0456\u044f","name:right:ln":"Zordan\u00ed","name:right:kv":"\u0418\u043e\u0440\u0434\u0430\u043d\u0438\u044f","name:right:li":"Jordani\u00eb","alt_name:left:de":"Pal\u00e4stinensische Autonomiegebiete","name:right:lt":"Jordanija","name:right:ur":"\u0627\u0631\u062f\u0646","name:right:lv":"Jord\u0101nija","name:left:hu":"Palesztina","sort_rank":262,"alt_name:left:fr":"Territoires Palestiniens","osm_relation":true,"official_name:right":"\u0627\u0644\u0645\u0645\u0644\u0643\u0629 \u0627\u0644\u0623\u0631\u062f\u0646\u064a\u0629 \u0627\u0644\u0647\u0627\u0634\u0645\u064a\u0629","name:left":"\u0627\u0644\u0623\u0631\u0627\u0636\u064a \u0627\u0644\u0641\u0644\u0633\u0637\u064a\u0646\u064a\u0629","name:right:es":"Jordania","name:right:mn":"\u0419\u043e\u0440\u0434\u0430\u043d","name:right:eu":"Jordania","name:right:et":"Jordaania","name:right:vo":"Yord\u00e4n","name:right:vi":"Jordan","alt_name:left:pl":"Autonomia Palesty\u0144ska","name:right:ms":"Jordan","name:right:mr":"\u091c\u0949\u0930\u094d\u0921\u0928","min_zoom":8.0,"name:right:na":"Djordan","name:right:eo":"Jordanio","name:right:en":"Jordan","name:right:el":"\u0399\u03bf\u03c1\u03b4\u03b1\u03bd\u03af\u03b1","kind":"country","name:left:fi":"Palestiina","name:left:fr":"Palestine","name:right:fy":"Jordaanje","name:right:mk":"\u0408\u043e\u0440\u0434\u0430\u043d","name:right:ja":"\u30e8\u30eb\u30c0\u30f3","alt_name:left:ro":"Teritoriile palestiniene","name:right:sq":"Jordania","name:right:ss":"IJoridane","name:right:sr":"\u0408\u043e\u0440\u0434\u0430\u043d","name:right:su":"Yordania","name:right:sw":"Yordani","name:right:sv":"Jordanien","name:right:sh":"Jordan","name:right:sk":"Jord\u00e1nsko","name:right:jv":"Yordania","name:right:sl":"Jordanija","name:right:so":"Urdun","name:right:sa":"\u091c\u093e\u0930\u094d\u0921\u0928","name:right:se":"Jord\u00e1nia","id":-1703814,"name:right":"\u0627\u0644\u0623\u0631\u062f\u0646","name:right:ca":"Jord\u00e0nia","name:right:ml":"\u0d1c\u0d4b\u0d7c\u0d26\u0d3e\u0d7b","name:right:cy":"Gwlad Iorddonen","name:right:zh-yue":"\u7d04\u65e6","id:left":-1703814,"name:right:cs":"Jord\u00e1nsko","alt_name:left:ru":"\u0422\u0435\u0440\u0440\u0438\u0442\u043e\u0440\u0438\u0438 \u041f\u0430\u043b\u0435\u0441\u0442\u0438\u043d\u044b","name:right:cv":"\u0418\u043e\u0440\u0434\u0430\u043d\u0438","name:right:ka":"\u10d8\u10dd\u10e0\u10d3\u10d0\u10dc\u10d8\u10d0","name:left:io":"Palestina","name:left:ar":"\u0641\u0644\u0633\u0637\u064a\u0646","name:left:pl":"Palestyna","name:right:kk":"\u0418\u043e\u0440\u0434\u0430\u043d\u0438\u044f","name:right:km":"\u17a0\u17d2\u179f\u1780\u178a\u1784\u17cb","name:right:kl":"Jordan","name:right:tr":"\u00dcrd\u00fcn","name:right:rw":"Yorudani","name:right:tl":"Hordan","name:right:ku":"Urdun","name:right:kw":"Jordan","name:right:tk":"Iordani\u00fda","name:right:te":"\u0c1c\u0c4b\u0c30\u0c4d\u0c21\u0c3e\u0c28\u0c4d","name:right:my":"\u1002\u103b\u1031\u102c\u103a\u1012\u1014\u103a\u1014\u102d\u102f\u1004\u103a\u1004\u1036","name:right:ta":"\u0b9c\u0bcb\u0bb0\u0bcd\u0ba4\u0bbe\u0ba9\u0bcd","name:right:io":"Jordania","name:right:de":"Jordanien","name:right:da":"Jordan","name:right:dv":"\u0787\u07aa\u0783\u07aa\u078b\u07aa\u0782\u07b0"},"arcs":[[2],[3]]},{"type":"MultiLineString","properties":{"name:ia":"Palestina","name:pt":"Palestina","name:ro":"Palestina","alt_name:ca":"Territoris Palestins","name:tr":"Filistin","name:ar":"\u0641\u0644\u0633\u0637\u064a\u0646","alt_name:eo":"Palestina A\u016dtonomio","name:io":"Palestina","min_zoom":8.0,"alt_name:en":"Palestinian Territories","name:ru":"\u041f\u0430\u043b\u0435\u0441\u0442\u0438\u043d\u0430","name:pl":"Palestyna","id":-1703814,"alt_name:es":"Territorios Palestinos","name:vo":"Pal\u00e4stin\u00e4n","alt_name:ru":"\u0422\u0435\u0440\u0440\u0438\u0442\u043e\u0440\u0438\u0438 \u041f\u0430\u043b\u0435\u0441\u0442\u0438\u043d\u044b","name:ms":"Palestin","sort_rank":262,"kind_detail":"2","name:de":"Pal\u00e4stina","source":"openstreetmap.org","name:fr":"Palestine","name:ca":"Palestina","alt_name:pt":"Territ\u00f3rios Palestinianos","alt_name:ro":"Teritoriile palestiniene","name:sk":"Palest\u00edna","alt_name:de":"Pal\u00e4stinensische Autonomiegebiete","alt_name:fr":"Territoires Palestiniens","name:hu":"Palesztina","osm_relation":true,"kind":"country","name:en":"Palestine","name":"\u0627\u0644\u0623\u0631\u0627\u0636\u064a \u0627\u0644\u0641\u0644\u0633\u0637\u064a\u0646\u064a\u0629","alt_name:pl":"Autonomia Palesty\u0144ska","name:ku":"Filist\u00een\u00ea","name:fi":"Palestiina","name:es":"Palestina"},"arcs":[[4],[5]]},{"type":"LineString","properties":{"name:right:yo":"J\u1ecd\u0301rd\u00e1n\u00ec","name:right:yi":"\u05d9\u05d0\u05e8\u05d3\u05d0\u05e0\u05d9\u05e2","name:left:la":"Israel","name:right:qu":"Hurdanya","name:left:li":"Isra\u00ebl","name:left:vi":"Israel","name:left:sw":"Israel","name:left:kg":"Israel","name:left:ka":"\u10d8\u10e1\u10e0\u10d0\u10d4\u10da\u10d8","name:left:kl":"Israel","name:left:ko":"\uc774\uc2a4\ub77c\uc5d8","name:left:kn":"\u0c87\u0cb8\u0ccd\u0cb0\u0cc7\u0cb2\u0ccd","name:right:is":"J\u00f3rdan\u00eda","name:right:rw":"Yorudani","name:left:kk":"\u0418\u0437\u0440\u0430\u0438\u043b\u044c","name:right:ru":"\u0418\u043e\u0440\u0434\u0430\u043d\u0438\u044f","name:left:ku":"\u00cesra\u00eal","name:left:kw":"Ysrael","name:left:kv":"\u0418\u0437\u0440\u0430\u0438\u043b\u044c","name:left:pl":"Izrael","name:left:rw":"Isirayeli","name:left:ru":"\u0418\u0437\u0440\u0430\u0438\u043b\u044c","name:right:ie":"Jordania","name:right:id":"Yordania","name:left:ky":"\u0418\u0437\u0440\u0430\u0438\u043b\u044c","name:right:ia":"Jordania","name:right:bn":"\u099c\u09b0\u09cd\u09a6\u09be\u09a8","name:right:bo":"\u0f62\u0f97\u0f7c\u0f62\u0f0b\u0f4c\u0f53\u0f0d","name:right:bm":"Ordon","name:right:ba":"\u0418\u043e\u0440\u0434\u0430\u043d\u0438\u044f","name:right:bg":"\u0419\u043e\u0440\u0434\u0430\u043d\u0438\u044f","name:right:be":"\u0406\u0430\u0440\u0434\u0430\u043d\u0456\u044f","name:right:br":"Jordania","name:left:lt":"Izraelis","name:right:nn":"Jordan","name:right:no":"Jordan","name:right:nl":"Jordani\u00eb","name:left:lv":"Izra\u0113la","name:right:wo":"Jordaani","name:right:na":"Djordan","name:right:gv":"Yn Jordaan","alt_name:left:vi":"Ixraen;Do Th\u00e1i","name:right:nv":"J\u00f3o\u02bcdan","kind_detail":"2","alt_name:right:vi":"Gio\u00f3c-\u0111a-ni;Gio\u00f3c\u0111ani;Giooc\u0111ani;\u01af\u1edbc \u0110\u00e1n","name:right:gu":"\u0a9c\u0ac9\u0ab0\u0acd\u0aa1\u0aa8","name:right:ps":"\u0627\u0631\u062f\u0646","name:right:pt":"Jord\u00e2nia","name:left:mk":"\u0418\u0437\u0440\u0430\u0435\u043b","name:left:tr":"\u0130srail","name:left:tt":"\u0418\u0441\u0440\u0430\u0438\u043b","name:left:mn":"\u0418\u0437\u0440\u0430\u0439\u043b\u044c","name:left:ml":"\u0d07\u0d38\u0d4d\u0d30\u0d2f\u0d47\u0d7d","name:left:th":"\u0e1b\u0e23\u0e30\u0e40\u0e17\u0e28\u0e2d\u0e34\u0e2a\u0e23\u0e32\u0e40\u0e2d\u0e25","name:right:pa":"\u0a1c\u0a3e\u0a30\u0a21\u0a28","name:left:tk":"Ysra\u00fdyl","name:left:tl":"Israel","name:left:mt":"I\u017crael","name:right:gl":"Xordania","name:left:my":"\u1021\u1005\u1039\u1005\u101b\u1031\u1038\u1014\u102d\u102f\u1004\u103a\u1004\u1036","name:right:pl":"Jordania","name:left:te":"\u0c07\u0c1c\u0c4d\u0c30\u0c3e\u0c2f\u0c3f\u0c32\u0c4d","name:left:tg":"\u0418\u0441\u0440\u043e\u0438\u043b","name:left:ms":"Israel","name:left:mr":"\u0907\u0938\u094d\u0930\u093e\u092f\u0932","name:left:da":"Israel","name:left:de":"Israel","name:left:dz":"\u0f68\u0f72\u0f5b\u0f0b\u0f62\u0f71\u0f7a\u0f63\u0f0b","name:right:ga":"An Iord\u00e1in","name:left:dv":"\u0787\u07a8\u0790\u07b0\u0783\u07a7\u0787\u07a9\u078d\u07aa","name:right:ug":"\u0626\u0649\u0626\u0648\u0631\u062f\u0627\u0646\u0649\u064a\u06d5","name:left:hi":"\u0907\u091c\u093c\u0930\u093e\u0907\u0932","name:right:lb":"Jordanien","name:right:uk":"\u0419\u043e\u0440\u0434\u0430\u043d\u0456\u044f","name:left:he":"\u05d9\u05e9\u05e8\u05d0\u05dc","name:right:ln":"Zordan\u00ed","name:left:ha":"Isra'ila","name:right:lt":"Jordanija","name:right:ur":"\u0627\u0631\u062f\u0646","name:right:lv":"Jord\u0101nija","name:left:hy":"\u053b\u057d\u0580\u0561\u0575\u0565\u056c","name:left:ta":"\u0b87\u0b9a\u0bc1\u0bb0\u0bc7\u0bb2\u0bcd","name:left:ht":"Izray\u00e8l","name:left:hu":"Izrael","name:left:hr":"Izrael","sort_rank":262,"name:right:gd":"I\u00f2rdan","name:right:os":"\u0418\u043e\u0440\u0434\u0430\u043d\u0438","name:right:es":"Jordania","name:right:sr":"\u0408\u043e\u0440\u0434\u0430\u043d","name:right:eu":"Jordania","name:right:et":"Jordaania","name:left:os":"\u0418\u0437\u0440\u0430\u0438\u043b\u044c","name:left:or":"\u0b07\u0b38\u0b4d\u0b30\u0b3e\u0b0f\u0b32","name:left:vo":"Yisrael\u00e4n","name:left:oc":"Isra\u00e8l","name:right:eo":"Jordanio","name:right:en":"Jordan","name:right:el":"\u0399\u03bf\u03c1\u03b4\u03b1\u03bd\u03af\u03b1","name:left:fa":"\u0627\u0633\u0631\u0627\u0626\u06cc\u0644","name:left:ia":"Israel","name:left:fo":"\u00cdsrael","name:left:fj":"Isireli","name:right:sk":"Jord\u00e1nsko","name:left:fi":"Israel","name:left:fr":"Isra\u00ebl","name:left:fy":"Israel","name:right:ja":"\u30e8\u30eb\u30c0\u30f3","name:right:sq":"Jordania","name:right:ss":"IJoridane","name:left:ja":"\u30a4\u30b9\u30e9\u30a8\u30eb","name:right:su":"Yordania","name:right:sw":"Yordani","name:right:sv":"Jordanien","name:right:sh":"Jordan","name:left:qu":"Israyil","name:right:jv":"Yordania","name:right:sl":"Jordanija","name:right:so":"Urdun","name:right:sa":"\u091c\u093e\u0930\u094d\u0921\u0928","name:left:jv":"Isra\u00e8l","id":-1473946,"name:right:ca":"Jord\u00e0nia","name:right:se":"Jord\u00e1nia","name:right:cy":"Gwlad Iorddonen","name:right:zh-yue":"\u7d04\u65e6","name:right:cs":"Jord\u00e1nsko","name:right":"\u0627\u0644\u0623\u0631\u062f\u0646","name:right:cv":"\u0418\u043e\u0440\u0434\u0430\u043d\u0438","name:left:av":"\u0413l\u0438\u0437\u0440\u0430\u0438\u043b","name:right:it":"Giordania","name:left:ar":"\u0625\u0633\u0631\u0627\u0626\u064a\u0644","name:left:az":"\u0130srail","name:left:ro":"Israel","name:left:af":"Israel","name:left:an":"Israel","name:left:am":"\u12a5\u1235\u122b\u12a4\u120d","name:right:io":"Jordania","name:left:zh-yue":"\u4ee5\u8272\u5217","name:right:ro":"Iordania","name:right:hy":"\u0540\u0578\u0580\u0564\u0561\u0576\u0561\u0576","name:left:lb":"Israel","int_name:left":"\u05d9\u05e9\u05e8\u05d0\u05dc","name:right:hr":"Jordan","name:left:sv":"Israel","name:left:sq":"Izraeli","name:right:hu":"Jord\u00e1nia","name:left:ln":"Israel","name:left:sr":"\u0418\u0437\u0440\u0430\u0435\u043b","name:left:sm":"Israel","name:right:hi":"\u091c\u0949\u0930\u094d\u0921\u0928","name:left:so":"Israaiil","name:left:si":"\u0d8a\u0dc1\u0dca\u200d\u0dbb\u0dcf\u0dba\u0dbd\u0dba","name:left:sh":"Izrael","name:left:sk":"Izrael","name:left:se":"Israel","name:left:sa":"\u0907\u0938\u094d\u0930\u0947\u0932","name:right:he":"\u05d9\u05e8\u05d3\u05df","name:left:sc":"Israele","name:right:la":"Iordania","name:right:af":"Jordani\u00eb","name:left:co":"Israele","name:left:ce":"\u0418\u0437\u0440\u0430\u0438\u043b\u044c","name:right:an":"Chordania","name:right:am":"\u1306\u122d\u12f3\u1295","name:left:ca":"Israel","source":"openstreetmap.org","name:left:cy":"Israel","name:left:cu":"\u0407\ua641\u0434\u0440\u0430\u0438\u043b\u0484\u044c","name:left:cv":"\u0418\u0437\u0440\u0430\u0438\u043b\u044c","name:right:az":"\u0130ordaniya","name:left:cs":"Izrael","name:right:li":"Jordani\u00eb","name":"\u05de\u05d3\u05d9\u05e0\u05ea \u05d9\u05e9\u05e8\u05d0\u05dc - \u0627\u0644\u0623\u0631\u062f\u0646","name:left:zu":"Isreyili","name:left:zh":"\u4ee5\u8272\u5217","name:right:zh":"\u7ea6\u65e6","official_name:left":"\u05de\u05d3\u05d9\u05e0\u05ea \u05d9\u05e9\u05e8\u05d0\u05dc;\u062f\u0648\u0644\u0629 \u0625\u0633\u0631\u0627\u0626\u064a\u0644","name:left:uz":"Isroil","name:right:fr":"Jordanie","name:left:nv":"\u00cdzrel Bik\u00e9yah","name:left:ur":"\u0627\u0633\u0631\u0627\u0626\u06cc\u0644","id:right":-184818,"name:left:uk":"\u0406\u0437\u0440\u0430\u0457\u043b\u044c","name:left:no":"Israel","name:left:nl":"Isra\u00ebl","name:right:fa":"\u0627\u0631\u062f\u0646","name:right:fo":"Jordan","name:left:ne":"\u0907\u091c\u0930\u093e\u092f\u0932","name:left:ug":"\u0626\u0649\u0633\u0631\u0627\u0626\u0649\u0644\u0649\u064a\u06d5","name:left:na":"Iteraer","name:left:eo":"Israelo","name:left:en":"Israel","name:left:el":"\u0399\u03c3\u03c1\u03b1\u03ae\u03bb","name:left:ig":"Israel","name:left:es":"Israel","name:left:ss":"Ka-Israyeli","name:left:ie":"Israel","name:left:eu":"Israel","name:left:et":"Iisrael","name:right:zh-min-nan":"Iok-t\u00e0n","name:right:oc":"Jordania","name:right:ko":"\uc694\ub974\ub2e8","name:right:bs":"Jordan","name:right:uz":"Iordaniya","osm_relation":true,"name:right:or":"\u0b1c\u0b4b\u0b30\u0b4d\u0b21\u0b3e\u0b28","name:left:pt":"Israel","name:right:ku":"Urdun","name:right:tk":"Iordani\u00fda","name:left:wa":"Israyel","min_zoom":8.0,"name:left:sl":"Izrael","name:left:zh-min-nan":"\u00cd-sek-lia\u030dt-kok","name:left:wo":"Israayil","name:left:ga":"Iosrael","name:left:gd":"Iosrael","name:left:gl":"Israel","name:left:gn":"Israel","name:left:gu":"\u0a88\u0a9d\u0ab0\u0abe\u0aaf\u0ab2","name:left:gv":"Israel","official_name:right":"\u0627\u0644\u0645\u0645\u0644\u0643\u0629 \u0627\u0644\u0623\u0631\u062f\u0646\u064a\u0629 \u0627\u0644\u0647\u0627\u0634\u0645\u064a\u0629","name:left":"\u05de\u05d3\u05d9\u05e0\u05ea \u05d9\u05e9\u05e8\u05d0\u05dc","name:right:mk":"\u0408\u043e\u0440\u0434\u0430\u043d","name:right:mn":"\u0419\u043e\u0440\u0434\u0430\u043d","name:right:ml":"\u0d1c\u0d4b\u0d7c\u0d26\u0d3e\u0d7b","name:right:vo":"Yord\u00e4n","name:right:vi":"Jordan","name:right:my":"\u1002\u103b\u1031\u102c\u103a\u1012\u1014\u103a\u1014\u102d\u102f\u1004\u103a\u1004\u1036","name:right:ms":"Jordan","name:right:mr":"\u091c\u0949\u0930\u094d\u0921\u0928","name:right:fy":"Jordaanje","name:right:mt":"\u0120ordan","name:left:nn":"Israel","kind":"country","name:left:br":"Israel","name:left:bs":"Izrael","name:left:ba":"\u0418\u0437\u0440\u0430\u0438\u043b\u044c","name:left:bg":"\u0418\u0437\u0440\u0430\u0435\u043b","name:right:kv":"\u0418\u043e\u0440\u0434\u0430\u043d\u0438\u044f","name:left:be":"\u0406\u0437\u0440\u0430\u0456\u043b\u044c","name:left:bn":"\u0987\u09b8\u09b0\u09be\u09af\u09bc\u09c7\u09b2","name:left:bo":"\u0f68\u0f72\u0f0b\u0f66\u0f72\u0f0b\u0f62\u0f0b\u0f68\u0f7a\u0f63\u0f0d","name:left:bm":"Israil","name:left:yo":"\u00cdsr\u00e1\u1eb9\u0301l\u00ec","name:left:yi":"\u05d9\u05e9\u05e8\u05d0\u05dc","id:left":-1473946,"name:right:fi":"Jordania","name:right:ka":"\u10d8\u10dd\u10e0\u10d3\u10d0\u10dc\u10d8\u10d0","name:left:io":"Israel","name:left:pa":"\u0a07\u0a1c\u0a3c\u0a30\u0a3e\u0a07\u0a32","name:right:tt":"\u04ae\u0440\u0434\u04af\u043d","name:right:kk":"\u0418\u043e\u0440\u0434\u0430\u043d\u0438\u044f","name:left:id":"Israel","name:right:km":"\u17a0\u17d2\u179f\u1780\u178a\u1784\u17cb","name:right:kl":"Jordan","name:right:tr":"\u00dcrd\u00fcn","name:right:tl":"Hordan","name:right:th":"\u0e1b\u0e23\u0e30\u0e40\u0e17\u0e28\u0e08\u0e2d\u0e23\u0e4c\u0e41\u0e14\u0e19","name:right:kw":"Jordan","name:left:ps":"\u0627\u0633\u0631\u0627\u0626\u064a\u0644","name:right:te":"\u0c1c\u0c4b\u0c30\u0c4d\u0c21\u0c3e\u0c28\u0c4d","name:left:it":"Israele","name:left:is":"\u00cdsrael","name:right:ta":"\u0b9c\u0bcb\u0bb0\u0bcd\u0ba4\u0bbe\u0ba9\u0bcd","name:right:de":"Jordanien","name:right:da":"Jordan","name:right:dv":"\u0787\u07aa\u0783\u07aa\u078b\u07aa\u0782\u07b0","name:right:ht":"J\u00f2dani"},"arcs":[6]},{"type":"LineString","properties":{"name:kg":"Israel","name:ka":"\u10d8\u10e1\u10e0\u10d0\u10d4\u10da\u10d8","name:ko":"\uc774\uc2a4\ub77c\uc5d8","name:cv":"\u0418\u0437\u0440\u0430\u0438\u043b\u044c","name:cu":"\u0407\ua641\u0434\u0440\u0430\u0438\u043b\u0484\u044c","name:kl":"Israel","name:cs":"Izrael","name:tt":"\u0418\u0441\u0440\u0430\u0438\u043b","name:co":"Israele","name:kv":"\u0418\u0437\u0440\u0430\u0438\u043b\u044c","name:ku":"\u00cesra\u00eal","name:tl":"Israel","name:ce":"\u0418\u0437\u0440\u0430\u0438\u043b\u044c","name:ta":"\u0b87\u0b9a\u0bc1\u0bb0\u0bc7\u0bb2\u0bcd","name:tg":"\u0418\u0441\u0440\u043e\u0438\u043b","name:ca":"Israel","name:te":"\u0c07\u0c1c\u0c4d\u0c30\u0c3e\u0c2f\u0c3f\u0c32\u0c4d","name:cy":"Israel","name:hr":"Izrael","name:da":"Israel","name:de":"Israel","name:dz":"\u0f68\u0f72\u0f5b\u0f0b\u0f62\u0f71\u0f7a\u0f63\u0f0b","source":"openstreetmap.org","name:kn":"\u0c87\u0cb8\u0ccd\u0cb0\u0cc7\u0cb2\u0ccd","name:dv":"\u0787\u07a8\u0790\u07b0\u0783\u07a7\u0787\u07a9\u078d\u07aa","name:lv":"Izra\u0113la","name:lt":"Izraelis","name:uz":"Isroil","name:kk":"\u0418\u0437\u0440\u0430\u0438\u043b\u044c","name:ur":"\u0627\u0633\u0631\u0627\u0626\u06cc\u0644","name:lb":"Israel","name:la":"Israel","name:uk":"\u0406\u0437\u0440\u0430\u0457\u043b\u044c","name:ug":"\u0626\u0649\u0633\u0631\u0627\u0626\u0649\u0644\u0649\u064a\u06d5","name:li":"Isra\u00ebl","name:ln":"Israel","name:el":"\u0399\u03c3\u03c1\u03b1\u03ae\u03bb","name:eo":"Israelo","name:en":"Israel","name":"\u05de\u05d3\u05d9\u05e0\u05ea \u05d9\u05e9\u05e8\u05d0\u05dc","name:tk":"Ysra\u00fdyl","name:th":"\u0e1b\u0e23\u0e30\u0e40\u0e17\u0e28\u0e2d\u0e34\u0e2a\u0e23\u0e32\u0e40\u0e2d\u0e25","name:eu":"Israel","name:et":"Iisrael","name:es":"Israel","name:ia":"Israel","name:az":"\u0130srail","name:ie":"Israel","name:id":"Israel","name:ig":"Israel","name:ar":"\u0625\u0633\u0631\u0627\u0626\u064a\u0644","name:io":"Israel","name:av":"\u0413l\u0438\u0437\u0440\u0430\u0438\u043b","name:is":"\u00cdsrael","name:am":"\u12a5\u1235\u122b\u12a4\u120d","name:it":"Israele","name:an":"Israel","name:ru":"\u0418\u0437\u0440\u0430\u0438\u043b\u044c","name:rw":"Isirayeli","name:af":"Israel","name:zu":"Isreyili","kind_detail":"2","name:ky":"\u0418\u0437\u0440\u0430\u0438\u043b\u044c","name:zh-yue":"\u4ee5\u8272\u5217","name:zh":"\u4ee5\u8272\u5217","name:so":"Israaiil","name:sm":"Israel","name:sl":"Izrael","name:sk":"Izrael","name:ja":"\u30a4\u30b9\u30e9\u30a8\u30eb","name:si":"\u0d8a\u0dc1\u0dca\u200d\u0dbb\u0dcf\u0dba\u0dbd\u0dba","name:sh":"Izrael","name:se":"Israel","name:sc":"Israele","name:br":"Israel","name:bs":"Izrael","name:bm":"Israil","name:bn":"\u0987\u09b8\u09b0\u09be\u09af\u09bc\u09c7\u09b2","name:bo":"\u0f68\u0f72\u0f0b\u0f66\u0f72\u0f0b\u0f62\u0f0b\u0f68\u0f7a\u0f63\u0f0d","name:sa":"\u0907\u0938\u094d\u0930\u0947\u0932","name:sw":"Israel","name:be":"\u0406\u0437\u0440\u0430\u0456\u043b\u044c","name:bg":"\u0418\u0437\u0440\u0430\u0435\u043b","name:ss":"Ka-Israyeli","name:ba":"\u0418\u0437\u0440\u0430\u0438\u043b\u044c","name:sq":"Izraeli","name:jv":"Isra\u00e8l","name:pt":"Israel","name:ps":"\u0627\u0633\u0631\u0627\u0626\u064a\u0644","name:oc":"Isra\u00e8l","min_zoom":8.0,"name:ro":"Israel","name:zh-min-nan":"\u00cd-sek-lia\u030dt-kok","name:os":"\u0418\u0437\u0440\u0430\u0438\u043b\u044c","name:or":"\u0b07\u0b38\u0b4d\u0b30\u0b3e\u0b0f\u0b32","name:pl":"Izrael","sort_rank":262,"name:sr":"\u0418\u0437\u0440\u0430\u0435\u043b","osm_relation":true,"name:pa":"\u0a07\u0a1c\u0a3c\u0a30\u0a3e\u0a07\u0a32","name:tr":"\u0130srail","name:hi":"\u0907\u091c\u093c\u0930\u093e\u0907\u0932","name:sv":"Israel","name:he":"\u05d9\u05e9\u05e8\u05d0\u05dc","name:ha":"Isra'ila","name:hy":"\u053b\u057d\u0580\u0561\u0575\u0565\u056c","name:ht":"Izray\u00e8l","name:hu":"Izrael","name:qu":"Israyil","kind":"country","name:yi":"\u05d9\u05e9\u05e8\u05d0\u05dc","name:yo":"\u00cdsr\u00e1\u1eb9\u0301l\u00ec","name:mt":"I\u017crael","name:ms":"Israel","name:mr":"\u0907\u0938\u094d\u0930\u093e\u092f\u0932","name:my":"\u1021\u1005\u1039\u1005\u101b\u1031\u1038\u1014\u102d\u102f\u1004\u103a\u1004\u1036","official_name":"\u05de\u05d3\u05d9\u05e0\u05ea \u05d9\u05e9\u05e8\u05d0\u05dc;\u062f\u0648\u0644\u0629 \u0625\u0633\u0631\u0627\u0626\u064a\u0644","name:kw":"Ysrael","name:ml":"\u0d07\u0d38\u0d4d\u0d30\u0d2f\u0d47\u0d7d","name:vi":"Israel","name:mn":"\u0418\u0437\u0440\u0430\u0439\u043b\u044c","id":-1473946,"name:mk":"\u0418\u0437\u0440\u0430\u0435\u043b","name:vo":"Yisrael\u00e4n","name:fa":"\u0627\u0633\u0631\u0627\u0626\u06cc\u0644","name:fi":"Israel","name:fj":"Isireli","name:fo":"\u00cdsrael","alt_name:vi":"Ixraen;Do Th\u00e1i","name:fr":"Isra\u00ebl","name:fy":"Israel","int_name":"\u05d9\u05e9\u05e8\u05d0\u05dc","name:nl":"Isra\u00ebl","name:nn":"Israel","name:no":"Israel","name:na":"Iteraer","name:ne":"\u0907\u091c\u0930\u093e\u092f\u0932","name:wa":"Israyel","name:wo":"Israayil","name:nv":"\u00cdzrel Bik\u00e9yah","name:ga":"Iosrael","name:gd":"Iosrael","name:gn":"Israel","name:gl":"Israel","name:gv":"Israel","name:gu":"\u0a88\u0a9d\u0ab0\u0abe\u0aaf\u0ab2"},"arcs":[7]},{"type":"MultiLineString","properties":{"name:left:ar":"\u0645\u0646\u0637\u0642\u0629 \u062c","name:left:ro":"Zona C (Israel)","id:right":-3791784,"min_zoom":8.0,"name:right:ro":"Aria B","id":-3791785,"osm_relation":true,"name:right":"\u0645\u0646\u0637\u0642\u0629 \u0628","kind":"region","name:left:en":"Area C","sort_rank":256,"kind_detail":"4","name":"\u05e9\u05d8\u05d7 C - \u0645\u0646\u0637\u0642\u0629 \u0628","source":"openstreetmap.org","name:right:en":"Area B","id:left":-3791785,"name:right:he":"\u05e9\u05d8\u05d7 B","name:left":"\u05e9\u05d8\u05d7 C"},"arcs":[[8],[9]]},{"type":"MultiLineString","properties":{"name:left:ar":"\u0645\u0646\u0637\u0642\u0629 \u062c","name:left:ro":"Zona C (Israel)","id:right":-3791784,"min_zoom":8.0,"name:right:ro":"Aria B","id":-3791785,"osm_relation":true,"name:right":"\u0645\u0646\u0637\u0642\u0629 \u0628","kind":"region","name:left:en":"Area C","sort_rank":256,"kind_detail":"4","name":"\u05e9\u05d8\u05d7 C - \u0645\u0646\u0637\u0642\u0629 \u0628","source":"openstreetmap.org","name:right:en":"Area B","id:left":-3791785,"name:right:he":"\u05e9\u05d8\u05d7 B","name:left":"\u05e9\u05d8\u05d7 C"},"arcs":[[10],[11]]},{"type":"LineString","properties":{"name:left:ar":"\u0645\u0646\u0637\u0642\u0629 \u062c","name:left:ro":"Zona C (Israel)","id:right":-3791784,"min_zoom":8.0,"name:right:ro":"Aria B","id":-3791785,"osm_relation":true,"name:right":"\u0645\u0646\u0637\u0642\u0629 \u0628","kind":"region","name:left:en":"Area C","sort_rank":256,"kind_detail":"4","name":"\u05e9\u05d8\u05d7 C - \u0645\u0646\u0637\u0642\u0629 \u0628","source":"openstreetmap.org","name:right:en":"Area B","id:left":-3791785,"name:right:he":"\u05e9\u05d8\u05d7 B","name:left":"\u05e9\u05d8\u05d7 C"},"arcs":[12]},{"type":"LineString","properties":{"name:left:ar":"\u0645\u0646\u0637\u0642\u0629 \u062c","name:left:ro":"Zona C (Israel)","id:right":-3791783,"min_zoom":8.0,"name:right:ro":"Zona A (Palestina)","id":-3791785,"osm_relation":true,"name:right":"\u0645\u0646\u0637\u0642\u0629 \u0623","kind":"region","name:left:en":"Area C","sort_rank":256,"kind_detail":"4","name":"\u05e9\u05d8\u05d7 C - \u0645\u0646\u0637\u0642\u0629 \u0623","source":"openstreetmap.org","name:right:en":"Area A","id:left":-3791785,"name:right:he":"\u05e9\u05d8\u05d7 A","name:left":"\u05e9\u05d8\u05d7 C"},"arcs":[13]},{"type":"LineString","properties":{"name:left:ar":"\u0645\u0646\u0637\u0642\u0629 \u062c","name:left:ro":"Zona C (Israel)","id:right":-3791783,"min_zoom":8.0,"name:right:ro":"Zona A (Palestina)","id":-3791785,"osm_relation":true,"name:right":"\u0645\u0646\u0637\u0642\u0629 \u0623","kind":"region","name:left:en":"Area C","sort_rank":256,"kind_detail":"4","name":"\u05e9\u05d8\u05d7 C - \u0645\u0646\u0637\u0642\u0629 \u0623","source":"openstreetmap.org","name:right:en":"Area A","id:left":-3791785,"name:right:he":"\u05e9\u05d8\u05d7 A","name:left":"\u05e9\u05d8\u05d7 C"},"arcs":[14]},{"type":"MultiLineString","properties":{"name:left:ar":"\u0645\u0646\u0637\u0642\u0629 \u062c","name:left:ro":"Zona C (Israel)","name:right:ru":"\u042d\u043b\u044c-\u0411\u0430\u043b\u043a\u0430","min_zoom":8.0,"id:right":-2925596,"id":-3791785,"osm_relation":true,"name:right":"\u0627\u0644\u0628\u0644\u0642\u0627\u0621","kind":"region","name:left:en":"Area C","sort_rank":256,"kind_detail":"4","name":"\u05e9\u05d8\u05d7 C - \u0627\u0644\u0628\u0644\u0642\u0627\u0621","source":"openstreetmap.org","name:right:de":"al-Balqa","name:right:en":"Balqa","id:left":-3791785,"name:left":"\u05e9\u05d8\u05d7 C"},"arcs":[[15],[16]]},{"type":"LineString","properties":{"name:right:es":"Distrito Meridional","name:right:fr":"District sud","name:left:ar":"\u0645\u0646\u0637\u0642\u0629 \u062c","name:right:uk":"\u041f\u0456\u0432\u0434\u0435\u043d\u043d\u0438\u0439 \u043e\u043a\u0440\u0443\u0433","name:right:it":"Distretto Sud","name:right:hu":"D\u00e9li k\u00f6rzet","name:left:ro":"Zona C (Israel)","min_zoom":8.0,"name:right:ro":"Districtul de Sud","name:right:pt":"Distrito Sul","id:right":-1473952,"name:right:pl":"Dystrykt Po\u0142udniowy","id":-3791785,"osm_relation":true,"name:right":"\u05de\u05d7\u05d5\u05d6 \u05d4\u05d3\u05e8\u05d5\u05dd","kind":"region","name":"\u05e9\u05d8\u05d7 C - \u05de\u05d7\u05d5\u05d6 \u05d4\u05d3\u05e8\u05d5\u05dd","source":"openstreetmap.org","sort_rank":256,"kind_detail":"4","name:right:ru":"\u042e\u0436\u043d\u044b\u0439 \u043e\u043a\u0440\u0443\u0433","name:right:en":"South District","name:left:en":"Area C","name:right:ar":"\u0645\u0646\u0637\u0642\u0629 \u0627\u0644\u062c\u0646\u0648\u0628","name:right:de":"S\u00fcdbezirk","id:left":-3791785,"name:right:fi":"Etel\u00e4inen hallintoalue","name:left":"\u05e9\u05d8\u05d7 C"},"arcs":[17]},{"type":"MultiLineString","properties":{"kind":"region","name:en":"Area C","name":"\u05e9\u05d8\u05d7 C","sort_rank":256,"kind_detail":"4","name:ar":"\u0645\u0646\u0637\u0642\u0629 \u062c","source":"openstreetmap.org","min_zoom":8.0,"name:ro":"Zona C (Israel)","id":-3791785,"osm_relation":true},"arcs":[[18],[19],[20],[21],[22],[23],[24],[25],[26],[27],[28],[29],[30],[31],[32],[33],[34],[35],[36],[37],[38],[39],[40],[41],[42],[43],[44],[45],[46],[47],[48],[49],[50],[51],[52],[53],[54]]},{"type":"LineString","properties":{"kind":"region","name:en":"Area B","name":"\u0645\u0646\u0637\u0642\u0629 \u0628","sort_rank":256,"kind_detail":"4","name:he":"\u05e9\u05d8\u05d7 B","source":"openstreetmap.org","min_zoom":8.0,"name:ro":"Aria B","id":-3791784,"osm_relation":true},"arcs":[55]},{"type":"LineString","properties":{"name:right:ja":"\u30a2\u30f3\u30de\u30f3","name:left:he":"\u05de\u05e2\u05d0\u05df","name:right:ko":"\uc554\ub9cc","id:right":-2926344,"min_zoom":8.0,"name:left:ru":"\u041c\u0430\u0430\u043d","name:right:ru":"\u0410\u043c\u043c\u0430\u043d","id":-2926347,"osm_relation":true,"name:right":"\u0639\u0645\u0627\u0646","kind":"region","name":"\u0645\u0639\u0627\u0646 - \u0639\u0645\u0627\u0646","source":"openstreetmap.org","sort_rank":256,"kind_detail":"4","name:right:am":"\u12a0\u121b\u1295","name:right:he":"\u05e2\u05de\u05d0\u05df","name:left:en":"Ma\u2019an","name:right:ar":"\u200f\u0645\u062d\u0627\u0641\u0638\u0629 \u0627\u0644\u0639\u0627\u0635\u0645\u0629\u200e","name:right:en":"Amman","id:left":-2926347,"name:left":"\u0645\u0639\u0627\u0646"},"arcs":[56]},{"type":"LineString","properties":{"kind":"region","name:en":"Ma\u2019an","name":"\u0645\u0639\u0627\u0646","sort_rank":256,"kind_detail":"4","name:he":"\u05de\u05e2\u05d0\u05df","source":"openstreetmap.org","min_zoom":8.0,"name:ru":"\u041c\u0430\u0430\u043d","id":-2926347,"osm_relation":true},"arcs":[57]},{"type":"LineString","properties":{"name:left:ar":"\u200f\u0645\u062d\u0627\u0641\u0638\u0629 \u0627\u0644\u0639\u0627\u0635\u0645\u0629\u200e","name:left:he":"\u05e2\u05de\u05d0\u05df","name:left:ko":"\uc554\ub9cc","name:left:ja":"\u30a2\u30f3\u30de\u30f3","name:right:ru":"\u042d\u0437-\u0417\u0430\u0440\u043a\u0430","min_zoom":8.0,"name:left:ru":"\u0410\u043c\u043c\u0430\u043d","name:left:am":"\u12a0\u121b\u1295","id:right":-2925597,"id":-2926344,"osm_relation":true,"name:right":"\u0627\u0644\u0632\u0631\u0642\u0627\u0621","kind":"region","name:left:en":"Amman","sort_rank":256,"kind_detail":"4","name":"\u0639\u0645\u0627\u0646 - \u0627\u0644\u0632\u0631\u0642\u0627\u0621","source":"openstreetmap.org","name:right:en":"Zarqa","id:left":-2926344,"name:left":"\u0639\u0645\u0627\u0646"},"arcs":[58]},{"type":"LineString","properties":{"name:left:ar":"\u200f\u0645\u062d\u0627\u0641\u0638\u0629 \u0627\u0644\u0639\u0627\u0635\u0645\u0629\u200e","name:left:he":"\u05e2\u05de\u05d0\u05df","name:left:ko":"\uc554\ub9cc","name:left:ja":"\u30a2\u30f3\u30de\u30f3","id:right":-2925596,"min_zoom":8.0,"id:left":-2926344,"name:left:ru":"\u0410\u043c\u043c\u0430\u043d","name:left:am":"\u12a0\u121b\u1295","name:right:ru":"\u042d\u043b\u044c-\u0411\u0430\u043b\u043a\u0430","id":-2926344,"osm_relation":true,"name:right":"\u0627\u0644\u0628\u0644\u0642\u0627\u0621","kind":"region","name":"\u0639\u0645\u0627\u0646 - \u0627\u0644\u0628\u0644\u0642\u0627\u0621","source":"openstreetmap.org","sort_rank":256,"kind_detail":"4","name:right:en":"Balqa","name:left:en":"Amman","name:right:de":"al-Balqa","name:left":"\u0639\u0645\u0627\u0646"},"arcs":[59]},{"type":"LineString","properties":{"kind":"region","name:en":"Amman","name:ar":"\u200f\u0645\u062d\u0627\u0641\u0638\u0629 \u0627\u0644\u0639\u0627\u0635\u0645\u0629\u200e","name":"\u0639\u0645\u0627\u0646","name:ko":"\uc554\ub9cc","kind_detail":"4","name:he":"\u05e2\u05de\u05d0\u05df","source":"openstreetmap.org","min_zoom":8.0,"name:am":"\u12a0\u121b\u1295","name:ru":"\u0410\u043c\u043c\u0430\u043d","name:ja":"\u30a2\u30f3\u30de\u30f3","id":-2926344,"osm_relation":true,"sort_rank":256},"arcs":[60]},{"type":"LineString","properties":{"kind":"region","name:en":"Balqa","name":"\u0627\u0644\u0628\u0644\u0642\u0627\u0621","sort_rank":256,"kind_detail":"4","name:de":"al-Balqa","source":"openstreetmap.org","min_zoom":8.0,"name:ru":"\u042d\u043b\u044c-\u0411\u0430\u043b\u043a\u0430","id":-2925596,"osm_relation":true},"arcs":[61]},{"type":"LineString","properties":{"name:pt":"Distrito Sul","name:ro":"Districtul de Sud","name:ar":"\u0645\u0646\u0637\u0642\u0629 \u0627\u0644\u062c\u0646\u0648\u0628","min_zoom":8.0,"name:it":"Distretto Sud","name:uk":"\u041f\u0456\u0432\u0434\u0435\u043d\u043d\u0438\u0439 \u043e\u043a\u0440\u0443\u0433","name:ru":"\u042e\u0436\u043d\u044b\u0439 \u043e\u043a\u0440\u0443\u0433","name:pl":"Dystrykt Po\u0142udniowy","name:hu":"D\u00e9li k\u00f6rzet","id":-1473952,"osm_relation":true,"kind":"region","name:en":"South District","name":"\u05de\u05d7\u05d5\u05d6 \u05d4\u05d3\u05e8\u05d5\u05dd","sort_rank":256,"kind_detail":"4","name:de":"S\u00fcdbezirk","source":"openstreetmap.org","name:fr":"District sud","name:fi":"Etel\u00e4inen hallintoalue","name:es":"Distrito Meridional"},"arcs":[62]}]},"roads":{"type":"GeometryCollection","geometries":[{"type":"LineString","properties":{"kind":"major_road","name:en":"Hativat Harel","sort_rank":380,"kind_detail":"primary","bus_network":null,"source":"openstreetmap.org","min_zoom":8.0,"bus_shield_text":"434","landuse_kind":"residential","ref":"417","id":256308253},"arcs":[71]},{"type":"MultiLineString","properties":{"kind":"major_road","name:en":"Maale Adumim","sort_rank":381,"kind_detail":"trunk","name:he":"\u05d9\u05d2\u05d0\u05dc \u05d9\u05d3\u05d9\u05df","source":"openstreetmap.org","min_zoom":8.0,"landuse_kind":"residential","ref":"1"},"arcs":[[72],[73],[74],[75]]},{"type":"MultiLineString","properties":{"source":"openstreetmap.org","kind":"major_road","sort_rank":381,"kind_detail":"trunk","ref":"45M","min_zoom":8.0},"arcs":[[76],[77]]},{"type":"MultiLineString","properties":{"kind":"major_road","name:en":"Golda Meir","sort_rank":380,"kind_detail":"primary","name:ar":"\u0645\u0626\u064a\u0631, \u0686\u0648\u0644\u062f\u0647","source":"openstreetmap.org","min_zoom":8.0,"name:ru":"\u0413\u043e\u043b\u0434\u0430 \u041c\u0435\u0438\u0440","ref":"436"},"arcs":[[78],[79]]},{"type":"LineString","properties":{"bus_network":null,"name:en":"Bar Ilan","sort_rank":380,"kind_detail":"primary","name:ar":"\u0628\u0627\u0631 \u0625\u064a\u0644\u0627\u0646","kind":"major_road","source":"openstreetmap.org","min_zoom":8.0,"bus_shield_text":"8","name:ru":"\u0411\u0430\u0440 \u0418\u043b\u0430\u043d","landuse_kind":"residential","ref":"417"},"arcs":[80]},{"type":"LineString","properties":{"kind":"major_road","sort_rank":381,"kind_detail":"trunk","name:he":"\u05d7\u05d8\u05d9\u05d1\u05ea \u05d9\u05e8\u05d5\u05e9\u05dc\u05d9\u05dd","source":"openstreetmap.org","min_zoom":8.0,"landuse_kind":"residential","name:ru":"\u0425\u0430\u0442\u0438\u0432\u0430\u0442 \u0418\u0435\u0440\u0443\u0448\u0430\u043b\u0430\u0438\u043c","ref":"60","id":261439508},"arcs":[81]},{"type":"LineString","properties":{"bus_network":null,"name:en":"Haim BarLev","sort_rank":381,"kind_detail":"trunk","name:ar":"\u0628\u0627\u0631\u0644\u064a\u06a4, \u062d\u0627\u064a\u064a\u0645","kind":"major_road","source":"openstreetmap.org","min_zoom":8.0,"bus_shield_text":"19","name:ru":"\u0425\u0430\u0438\u043c \u0411\u0430\u0440\u041b\u0435\u0432","landuse_kind":"residential","ref":"60"},"arcs":[82]},{"type":"MultiLineString","properties":{"kind":"major_road","name:en":"Musa Peled St.","sort_rank":381,"kind_detail":"trunk","name:ar":"\u0634\u0627\u0631\u0639 \u0645\u0648\u0633\u0649 \u0628\u064a\u0644\u064a\u062f","source":"openstreetmap.org","min_zoom":8.0,"landuse_kind":"residential","name:ru":"\u041c\u0443\u0441\u0430 \u041f\u0435\u043b\u0435\u0434","ref":"60"},"arcs":[[83],[84]]},{"type":"MultiLineString","properties":{"kind":"major_road","name:en":"Mordehai Ish Shalom","sort_rank":380,"kind_detail":"primary","source":"openstreetmap.org","min_zoom":8.0,"landuse_kind":"residential","ref":"386"},"arcs":[[85],[86]]},{"type":"MultiLineString","properties":{"kind":"major_road","name:en":"Wadi al-Joz","sort_rank":380,"kind_detail":"primary","source":"openstreetmap.org","min_zoom":8.0,"landuse_kind":"residential","ref":"417"},"arcs":[[87],[88],[89]]},{"type":"LineString","properties":{"kind":"major_road","name:ro":"Bulevardul Herbon","sort_rank":381,"kind_detail":"trunk","name:ar":"\u0637\u0631\u064a\u0642 \u0627\u0644\u062e\u0644\u064a\u0644","source":"openstreetmap.org","min_zoom":8.0,"name:en":"Hebron","landuse_kind":"residential","name:ru":"\u0425\u0435\u0432\u0440\u043e\u043d","ref":"60","id":231133553},"arcs":[90]},{"type":"MultiLineString","properties":{"source":"openstreetmap.org","kind":"major_road","sort_rank":380,"kind_detail":"primary","ref":"436","min_zoom":8.0},"arcs":[[91],[92]]},{"type":"MultiLineString","properties":{"kind":"major_road","name:en":"Yigael Yadin","sort_rank":381,"kind_detail":"trunk","source":"openstreetmap.org","min_zoom":8.0,"landuse_kind":"residential","ref":"1"},"arcs":[[93],[94]]},{"type":"MultiLineString","properties":{"source":"openstreetmap.org","kind":"major_road","landuse_kind":"residential","sort_rank":381,"kind_detail":"trunk","ref":"60","min_zoom":8.0},"arcs":[[95],[96],[97],[98],[99]]},{"type":"MultiLineString","properties":{"kind":"major_road","name:en":"HaAluf Uzi Narkis","sort_rank":381,"kind_detail":"trunk","name:ar":"\u0627\u0644\u0639\u0627\u0645\u0629 \u0639\u0648\u0632\u064a \u0646\u0627\u0631\u0643\u064a\u0633","source":"openstreetmap.org","min_zoom":8.0,"landuse_kind":"residential","name:ru":"\u0433\u0435\u043d\u0435\u0440\u0430\u043b \u0423\u0437\u0438 \u041d\u0430\u0440\u043a\u0438\u0441","ref":"60"},"arcs":[[100],[101],[102],[103]]},{"type":"MultiLineString","properties":{"kind":"highway","name:en":"Yitzhak Shamir","sort_rank":383,"landuse_kind":"urban_area","source":"openstreetmap.org","min_zoom":8.0,"kind_detail":"motorway","ref":"1"},"arcs":[[104],[105]]},{"type":"MultiLineString","properties":{"source":"openstreetmap.org","kind":"major_road","sort_rank":380,"kind_detail":"primary","name:ar":"\u0634\u0627\u0631\u0639 \u0627\u0644\u0643\u0633\u0627\u0631\u0627\u062a","ref":"437","min_zoom":8.0},"arcs":[[106],[107],[108],[109],[110],[111]]},{"type":"LineString","properties":{"kind":"major_road","name:en":"Hativat Harel","sort_rank":380,"kind_detail":"primary","bus_network":null,"source":"openstreetmap.org","min_zoom":8.0,"bus_shield_text":"8","landuse_kind":"residential","ref":"417","id":20723030},"arcs":[112]},{"type":"LineString","properties":{"kind":"major_road","name:en":"HaArava","sort_rank":381,"kind_detail":"trunk","name:ar":"\u0648\u0627\u062f\u064a \u0639\u0631\u0628\u0629","bus_network":"Egge","source":"openstreetmap.org","min_zoom":8.0,"bus_shield_text":"390","name:ru":"\u0410\u0440\u0430\u0432\u0430","landuse_kind":"nature_reserve","ref":"90","id":375570802},"arcs":[113]},{"type":"MultiLineString","properties":{"bus_network":null,"name:en":"Hebron","sort_rank":381,"kind_detail":"trunk","name:ar":"\u0637\u0631\u064a\u0642 \u0627\u0644\u062e\u0644\u064a\u0644","kind":"major_road","source":"openstreetmap.org","min_zoom":8.0,"bus_shield_text":"71","name:ru":"\u0425\u0435\u0432\u0440\u043e\u043d","ref":"60"},"arcs":[[114],[115]]},{"type":"MultiLineString","properties":{"kind":"major_road","name:en":"The Tunnels Road","sort_rank":381,"kind_detail":"trunk","name:he":"\u05db\u05d1\u05d9\u05e9 \u05d4\u05de\u05e0\u05d4\u05e8\u05d5\u05ea","name:ar":"\u0637\u0631\u064a\u0642 \u0627\u0644\u0623\u0646\u0641\u0627\u0642","source":"openstreetmap.org","min_zoom":8.0,"ref":"60"},"arcs":[[116],[117],[118]]},{"type":"MultiLineString","properties":{"bus_network":null,"name:en":"Yirmiyahu","sort_rank":380,"kind_detail":"primary","name:ar":"\u0627\u0631\u0645\u064a\u0627","kind":"major_road","source":"openstreetmap.org","min_zoom":8.0,"bus_shield_text":"8","name:ru":"\u0418\u0435\u0440\u0435\u043c\u0438\u044f","landuse_kind":"residential","ref":"417"},"arcs":[[119],[120]]},{"type":"MultiLineString","properties":{"kind":"major_road","int_name":"Desert Highway","sort_rank":380,"kind_detail":"primary","name:ar":"\u0637\u0631\u064a\u0642 \u0627\u0644\u0645\u0637\u0627\u0631","source":"openstreetmap.org","min_zoom":8.0,"name:en":"Airport Road","landuse_kind":"urban_area","ref":"35"},"arcs":[[121],[122]]},{"type":"MultiLineString","properties":{"kind":"major_road","sort_rank":380,"kind_detail":"primary","name:ar":"\u0627\u0644\u062d\u0631\u064a\u0629","source":"openstreetmap.org","min_zoom":8.0,"landuse_kind":"urban_area","ref":"25"},"arcs":[[123],[124]]},{"type":"MultiLineString","properties":{"kind":"major_road","name:en":"Maale Adumim","sort_rank":381,"kind_detail":"trunk","name:he":"\u05d9\u05d2\u05d0\u05dc \u05d9\u05d3\u05d9\u05df","source":"openstreetmap.org","min_zoom":8.0,"ref":"1"},"arcs":[[125],[126]]},{"type":"MultiLineString","properties":{"sort_rank":380,"kind_detail":"primary","min_zoom":8.0,"kind":"major_road","source":"openstreetmap.org"},"arcs":[[127],[128],[129],[130],[131],[132],[133],[134],[135],[136],[137],[138],[139],[140],[141],[142],[143],[144],[145],[146],[147],[148],[149],[150],[151],[152],[153],[154],[155],[156],[157],[158],[159],[160],[161],[162],[163],[164],[165],[166],[167],[168],[169],[170],[171],[172],[173],[174],[175],[176],[177],[178],[179],[180],[181],[182],[183],[184],[185]]},{"type":"LineString","properties":{"bus_network":"Egge","name:en":"HaArava","sort_rank":381,"kind_detail":"trunk","name:ar":"\u0648\u0627\u062f\u064a \u0639\u0631\u0628\u0629","kind":"major_road","source":"openstreetmap.org","min_zoom":8.0,"bus_shield_text":"390","name:ru":"\u0410\u0440\u0430\u0432\u0430","ref":"90"},"arcs":[186]},{"type":"MultiLineString","properties":{"kind":"major_road","name:en":"Herzl","sort_rank":380,"kind_detail":"primary","name:ar":"\u0647\u0631\u062a\u0633\u0644","source":"openstreetmap.org","min_zoom":8.0,"landuse_kind":"residential","name:ru":"\u0413\u0435\u0440\u0446\u0435\u043b\u044c","ref":"386"},"arcs":[[187],[188],[189],[190]]},{"type":"MultiLineString","properties":{"source":"openstreetmap.org","kind":"major_road","sort_rank":380,"kind_detail":"primary","ref":"50","min_zoom":8.0},"arcs":[[191],[192],[193]]},{"type":"MultiLineString","properties":{"kind":"major_road","name:en":"Ramallah","sort_rank":381,"kind_detail":"trunk","source":"openstreetmap.org","min_zoom":8.0,"landuse_kind":"residential","ref":"60"},"arcs":[[194],[195],[196],[197],[198]]},{"type":"MultiLineString","properties":{"source":"openstreetmap.org","kind":"major_road","landuse_kind":"urban_area","sort_rank":380,"kind_detail":"primary","ref":"35","min_zoom":8.0},"arcs":[[199],[200],[201],[202],[203],[204],[205],[206]]},{"type":"MultiLineString","properties":{"source":"openstreetmap.org","kind":"major_road","sort_rank":380,"kind_detail":"primary","ref":"60","min_zoom":8.0},"arcs":[[207],[208],[209],[210],[211]]},{"type":"MultiLineString","properties":{"bus_network":null,"name:en":"Ein Kerem","sort_rank":380,"kind_detail":"primary","kind":"major_road","source":"openstreetmap.org","min_zoom":8.0,"bus_shield_text":"17","landuse_kind":"residential","ref":"386"},"arcs":[[212],[213]]},{"type":"MultiLineString","properties":{"source":"openstreetmap.org","kind":"major_road","int_name":"Desert Highway","sort_rank":381,"kind_detail":"trunk","ref":"15","min_zoom":8.0},"arcs":[[214],[215],[216],[217]]},{"type":"LineString","properties":{"kind":"major_road","name:en":"Highway 60","sort_rank":381,"kind_detail":"trunk","name:he":"\u05db\u05d1\u05d9\u05e9 60","source":"openstreetmap.org","min_zoom":8.0,"ref":"60","id":417736624},"arcs":[218]},{"type":"MultiLineString","properties":{"source":"openstreetmap.org","kind":"major_road","sort_rank":381,"kind_detail":"trunk","ref":"40","min_zoom":8.0},"arcs":[[219],[220],[221],[222],[223],[224],[225],[226],[227],[228],[229]]},{"type":"LineString","properties":{"kind":"major_road","name:en":"Yigael Yadin","sort_rank":381,"kind_detail":"trunk","bus_network":null,"source":"openstreetmap.org","min_zoom":8.0,"bus_shield_text":"56","landuse_kind":"urban_area","ref":"1","id":290856592},"arcs":[230]},{"type":"MultiLineString","properties":{"source":"openstreetmap.org","kind":"major_road","landuse_kind":"urban_area","sort_rank":380,"kind_detail":"primary","name:ar":"\u0634\u0627\u0631\u0639 \u0639\u0644\u064a \u0628\u0646 \u0623\u0628\u064a \u0637\u0627\u0644\u0628","min_zoom":8.0},"arcs":[[231],[232]]},{"type":"LineString","properties":{"kind":"major_road","name:en":"Ma`ale Tamar","sort_rank":381,"kind_detail":"trunk","bus_network":"Egge","source":"openstreetmap.org","min_zoom":8.0,"bus_shield_text":"390","ref":"25","id":30113554},"arcs":[233]},{"type":"LineString","properties":{"bus_network":null,"sort_rank":380,"kind_detail":"primary","kind":"major_road","source":"openstreetmap.org","min_zoom":8.0,"bus_shield_text":"61","landuse_kind":"urban_area"},"arcs":[234]},{"type":"LineString","properties":{"source":"openstreetmap.org","kind":"major_road","name:en":"Gandhi","sort_rank":381,"kind_detail":"trunk","ref":"90","min_zoom":8.0},"arcs":[235]},{"type":"LineString","properties":{"source":"openstreetmap.org","kind":"major_road","landuse_kind":"urban_area","sort_rank":380,"kind_detail":"primary","ref":"396","min_zoom":8.0},"arcs":[236]},{"type":"MultiLineString","properties":{"source":"openstreetmap.org","kind":"major_road","name:en":"Har Hatsofim Road","sort_rank":380,"kind_detail":"primary","min_zoom":8.0},"arcs":[[237],[238],[239]]},{"type":"MultiLineString","properties":{"source":"openstreetmap.org","kind":"major_road","landuse_kind":"residential","sort_rank":381,"kind_detail":"trunk","min_zoom":8.0},"arcs":[[240],[241]]},{"type":"MultiLineString","properties":{"source":"openstreetmap.org","kind":"highway","sort_rank":383,"kind_detail":"motorway","ref":"1","min_zoom":8.0},"arcs":[[242],[243]]},{"type":"MultiLineString","properties":{"source":"openstreetmap.org","kind":"highway","int_name":"Desert Highway","sort_rank":383,"kind_detail":"motorway","ref":"15","min_zoom":8.0},"arcs":[[244],[245]]},{"type":"MultiLineString","properties":{"source":"openstreetmap.org","kind":"major_road","sort_rank":380,"kind_detail":"primary","ref":"466","min_zoom":8.0},"arcs":[[246],[247],[248]]},{"type":"LineString","properties":{"kind":"major_road","name:en":"Ein Kerem","sort_rank":380,"kind_detail":"primary","source":"openstreetmap.org","min_zoom":8.0,"landuse_kind":"urban_area","ref":"386","id":88824006},"arcs":[249]},{"type":"MultiLineString","properties":{"source":"openstreetmap.org","kind":"major_road","sort_rank":380,"kind_detail":"primary","ref":"375","min_zoom":8.0},"arcs":[[250],[251]]},{"type":"MultiLineString","properties":{"source":"openstreetmap.org","kind":"major_road","landuse_kind":"urban_area","sort_rank":380,"kind_detail":"primary","name:ar":"\u0634\u0627\u0631\u0639 \u0639\u0628\u062f\u0627\u0644\u0645\u0646\u0639\u0645 \u0631\u064a\u0627\u0636","min_zoom":8.0},"arcs":[[252],[253]]},{"type":"LineString","properties":{"kind":"major_road","name:en":"Hativat Yerushalayim","sort_rank":381,"kind_detail":"trunk","source":"openstreetmap.org","min_zoom":8.0,"name:ro":"Bulevardul Ierusalim","landuse_kind":"residential","name:ru":"\u0425\u0430\u0442\u0438\u0432\u0430\u0442 \u0418\u0435\u0440\u0443\u0448\u0430\u043b\u0430\u0438\u043c","ref":"60"},"arcs":[254]},{"type":"LineString","properties":{"kind":"major_road","sort_rank":380,"kind_detail":"primary","name:ar":"\u0634\u0627\u0631\u0639 \u0627\u0644\u0645\u0644\u0643 \u0637\u0644\u0627\u0644","bus_network":null,"source":"openstreetmap.org","min_zoom":8.0,"bus_shield_text":"61","landuse_kind":"urban_area","id":151283602},"arcs":[255]},{"type":"MultiLineString","properties":{"kind":"major_road","int_name":"Desert Highway","sort_rank":381,"kind_detail":"trunk","name:ar":"\u0637\u0631\u064a\u0642 \u0627\u0644\u0645\u0637\u0627\u0631","source":"openstreetmap.org","min_zoom":8.0,"ref":"15"},"arcs":[[256],[257],[258],[259],[260],[261],[262],[263]]},{"type":"LineString","properties":{"kind":"major_road","sort_rank":381,"landuse_kind":"protected_area","source":"openstreetmap.org","min_zoom":8.0,"kind_detail":"trunk","ref":"31","id":317775721},"arcs":[264]},{"type":"MultiLineString","properties":{"source":"openstreetmap.org","kind":"major_road","landuse_kind":"urban_area","sort_rank":380,"kind_detail":"primary","ref":"25","min_zoom":8.0},"arcs":[[265],[266],[267],[268]]},{"type":"MultiLineString","properties":{"source":"openstreetmap.org","kind":"major_road","name:en":"Dead Sea","sort_rank":381,"kind_detail":"trunk","ref":"90","min_zoom":8.0},"arcs":[[269],[270]]},{"type":"LineString","properties":{"kind":"major_road","name:en":"Farbstein","sort_rank":380,"landuse_kind":"residential","source":"openstreetmap.org","min_zoom":8.0,"kind_detail":"primary","id":258285664},"arcs":[271]},{"type":"MultiLineString","properties":{"kind":"major_road","name:en":"Golda Meir","sort_rank":380,"kind_detail":"primary","name:ar":"\u0645\u0626\u064a\u0631, \u0686\u0648\u0644\u062f\u0647","source":"openstreetmap.org","min_zoom":8.0,"landuse_kind":"urban_area","name:ru":"\u0413\u043e\u043b\u0434\u0430 \u041c\u0435\u0438\u0440","ref":"436"},"arcs":[[272],[273]]},{"type":"MultiLineString","properties":{"bus_network":null,"sort_rank":381,"landuse_kind":"urban_area","kind":"major_road","source":"openstreetmap.org","min_zoom":8.0,"bus_shield_text":"61","kind_detail":"trunk"},"arcs":[[274],[275]]},{"type":"LineString","properties":{"kind":"major_road","name:en":"Sderot HaUniversita HaIvrit","sort_rank":380,"kind_detail":"primary","source":"openstreetmap.org","min_zoom":8.0,"landuse_kind":"residential","ref":"417","id":104311393},"arcs":[276]},{"type":"LineString","properties":{"kind":"major_road","name:en":"Levi Eshkol","sort_rank":380,"kind_detail":"primary","source":"openstreetmap.org","min_zoom":8.0,"landuse_kind":"residential","ref":"417"},"arcs":[277]},{"type":"LineString","properties":{"kind":"major_road","name:en":"Kiryat HaYovel","sort_rank":380,"kind_detail":"primary","source":"openstreetmap.org","min_zoom":8.0,"landuse_kind":"residential","ref":"386","id":152811127},"arcs":[278]},{"type":"LineString","properties":{"kind":"major_road","name:en":"Heil HaHandasa","sort_rank":381,"kind_detail":"trunk","bus_network":null,"source":"openstreetmap.org","min_zoom":8.0,"bus_shield_text":"19","landuse_kind":"residential","ref":"60","id":104311346},"arcs":[279]},{"type":"MultiLineString","properties":{"kind":"major_road","name:en":"Yefe Nof","sort_rank":380,"kind_detail":"primary","name:ar":"\u064a\u0650\u0641\u064a\u0647 \u0646\u0648\u0641","source":"openstreetmap.org","min_zoom":8.0,"landuse_kind":"residential","name:ru":"\u042f\u0444\u0435 \u041d\u043e\u0444","ref":"386"},"arcs":[[280],[281]]},{"type":"MultiLineString","properties":{"source":"openstreetmap.org","kind":"major_road","sort_rank":380,"kind_detail":"primary","ref":"449","min_zoom":8.0},"arcs":[[282],[283],[284],[285]]},{"type":"LineString","properties":{"source":"openstreetmap.org","kind":"major_road","landuse_kind":"urban_area","sort_rank":380,"kind_detail":"primary","ref":"386","min_zoom":8.0},"arcs":[286]},{"type":"LineString","properties":{"kind":"major_road","sort_rank":381,"kind_detail":"trunk","bus_network":null,"source":"openstreetmap.org","min_zoom":8.0,"bus_shield_text":"444","ref":"90","id":316391643},"arcs":[287]},{"type":"MultiLineString","properties":{"kind":"highway","int_name":"Desert Highway","sort_rank":383,"kind_detail":"motorway","name:ar":"\u0637\u0631\u064a\u0642 \u0627\u0644\u0645\u0637\u0627\u0631","source":"openstreetmap.org","min_zoom":8.0,"name:en":"Airport Road","landuse_kind":"urban_area","ref":"35"},"arcs":[[288],[289]]},{"type":"LineString","properties":{"source":"openstreetmap.org","kind":"major_road","sort_rank":380,"kind_detail":"primary","ref":"457","min_zoom":8.0},"arcs":[290]},{"type":"LineString","properties":{"kind":"major_road","sort_rank":380,"landuse_kind":"urban_area","name:ar":"\u0639\u0645\u0631 \u0645\u0637\u0631 \u202c\u200e\u0634\u0627\u0631\u0639\u202c\u200e","source":"openstreetmap.org","min_zoom":8.0,"kind_detail":"primary","id":151283645},"arcs":[291]},{"type":"MultiLineString","properties":{"source":"openstreetmap.org","kind":"major_road","name:en":"Al Hezam Al Daeri Road","sort_rank":380,"kind_detail":"primary","ref":"25","min_zoom":8.0},"arcs":[[292],[293],[294],[295]]},{"type":"MultiLineString","properties":{"source":"openstreetmap.org","kind":"major_road","sort_rank":380,"kind_detail":"primary","name:ar":"\u0627\u0644\u062d\u0631\u064a\u0629","ref":"25","min_zoom":8.0},"arcs":[[296],[297]]},{"type":"LineString","properties":{"kind":"major_road","sort_rank":381,"landuse_kind":"urban_area","source":"openstreetmap.org","min_zoom":8.0,"kind_detail":"trunk","ref":"65","id":106899122},"arcs":[298]},{"type":"MultiLineString","properties":{"source":"openstreetmap.org","kind":"major_road","name:en":"Ramallah","sort_rank":381,"kind_detail":"trunk","ref":"60","min_zoom":8.0},"arcs":[[299],[300],[301],[302],[303],[304],[305],[306],[307],[308],[309]]},{"type":"MultiLineString","properties":{"source":"openstreetmap.org","kind":"major_road","name:en":"Har Hatsofim Tunnel","landuse_kind":"urban_area","sort_rank":380,"kind_detail":"primary","min_zoom":8.0},"arcs":[[310],[311]]},{"type":"MultiLineString","properties":{"source":"openstreetmap.org","kind":"major_road","sort_rank":380,"kind_detail":"primary","ref":"417","min_zoom":8.0},"arcs":[[312],[313],[314],[315],[316],[317]]},{"type":"LineString","properties":{"kind":"major_road","name:en":"Ramallah\/Jerusalem","sort_rank":380,"kind_detail":"primary","name:ar":"\u0634\u0627\u0631\u0639 \u0631\u0627\u0645 \u0627\u0644\u0644\u0647 \u0627\u0644\u0642\u062f\u0633","source":"openstreetmap.org","min_zoom":8.0,"ref":"437","id":288185045},"arcs":[318]},{"type":"LineString","properties":{"source":"openstreetmap.org","kind":"major_road","sort_rank":380,"kind_detail":"primary","ref":"227","min_zoom":8.0},"arcs":[319]},{"type":"MultiLineString","properties":{"source":"openstreetmap.org","kind":"major_road","kind_detail":"trunk","sort_rank":381,"landuse_kind":"urban_area","ref":"35","min_zoom":8.0},"arcs":[[320],[321],[322],[323],[324],[325],[326]]},{"type":"LineString","properties":{"kind":"major_road","name:en":"Alon Road","sort_rank":380,"kind_detail":"primary","name:ar":"\u0623\u0644\u0648\u0646","source":"openstreetmap.org","min_zoom":8.0,"name:ru":"\u0410\u043b\u043e\u043d","ref":"458;449","id":517415327},"arcs":[327]},{"type":"MultiLineString","properties":{"kind":"major_road","name:en":"HaUniversita HaIvrit","sort_rank":380,"kind_detail":"primary","source":"openstreetmap.org","min_zoom":8.0,"landuse_kind":"residential","ref":"417"},"arcs":[[328],[329],[330]]},{"type":"MultiLineString","properties":{"source":"openstreetmap.org","kind":"major_road","landuse_kind":"residential","sort_rank":380,"kind_detail":"primary","ref":"35","min_zoom":8.0},"arcs":[[331],[332],[333],[334],[335],[336],[337],[338]]},{"type":"LineString","properties":{"kind":"major_road","name:en":"Jericho","sort_rank":380,"kind_detail":"primary","name:de":"Jerichostra\u00dfe","source":"openstreetmap.org","min_zoom":8.0,"name:ro":"Strada Ierihon","landuse_kind":"residential","ref":"417","id":352461115},"arcs":[339]},{"type":"MultiLineString","properties":{"source":"openstreetmap.org","kind":"major_road","sort_rank":380,"kind_detail":"primary","ref":"25","min_zoom":8.0},"arcs":[[340],[341]]},{"type":"MultiLineString","properties":{"source":"openstreetmap.org","kind":"major_road","kind_detail":"trunk","sort_rank":381,"landuse_kind":"urban_area","ref":"40","min_zoom":8.0},"arcs":[[342],[343],[344],[345],[346],[347]]},{"type":"MultiLineString","properties":{"source":"openstreetmap.org","kind":"major_road","sort_rank":381,"kind_detail":"trunk","ref":"45","min_zoom":8.0},"arcs":[[348],[349]]},{"type":"MultiLineString","properties":{"source":"openstreetmap.org","kind":"major_road","sort_rank":380,"kind_detail":"primary","ref":"398","min_zoom":8.0},"arcs":[[350],[351],[352],[353],[354],[355],[356]]},{"type":"MultiLineString","properties":{"source":"openstreetmap.org","kind":"major_road","kind_detail":"trunk","sort_rank":381,"landuse_kind":"urban_area","name:ar":"\u0634\u0627\u0631\u0639 \u0627\u0644\u064a\u0631\u0645\u0648\u0643 ( \u0648\u0627\u062f\u064a \u0627\u0644\u0631\u0645\u0645 )","min_zoom":8.0},"arcs":[[357],[358]]},{"type":"LineString","properties":{"kind":"major_road","name:en":"Jericho","sort_rank":380,"kind_detail":"primary","name:de":"Jerichostra\u00dfe","source":"openstreetmap.org","min_zoom":8.0,"landuse_kind":"residential","name:ru":"\u0434\u043e\u0440\u043e\u0433\u0430 \u0415\u0440\u0438\u0445\u043e","ref":"417","id":88827351},"arcs":[359]},{"type":"MultiLineString","properties":{"source":"openstreetmap.org","kind":"major_road","name:en":"Golda Meir Avenue","sort_rank":380,"kind_detail":"primary","ref":"436","min_zoom":8.0},"arcs":[[360],[361]]},{"type":"MultiLineString","properties":{"source":"openstreetmap.org","kind":"highway","name:en":"Yitzhak Shamir","sort_rank":383,"kind_detail":"motorway","ref":"1","min_zoom":8.0},"arcs":[[362],[363],[364],[365]]},{"type":"MultiLineString","properties":{"bus_network":null,"name:en":"Golda Meir","sort_rank":380,"kind_detail":"primary","name:ar":"\u0645\u0626\u064a\u0631, \u0686\u0648\u0644\u062f\u0647","kind":"major_road","source":"openstreetmap.org","min_zoom":8.0,"bus_shield_text":"36","name:ru":"\u0413\u043e\u043b\u0434\u0430 \u041c\u0435\u0438\u0440","landuse_kind":"residential","ref":"436"},"arcs":[[366],[367]]},{"type":"LineString","properties":{"source":"openstreetmap.org","kind":"major_road","sort_rank":380,"kind_detail":"primary","ref":"258","min_zoom":8.0},"arcs":[368]},{"type":"LineString","properties":{"source":"openstreetmap.org","kind":"major_road","sort_rank":380,"kind_detail":"primary","ref":"458","min_zoom":8.0,"id":143310413},"arcs":[369]},{"type":"MultiLineString","properties":{"source":"openstreetmap.org","kind":"major_road","sort_rank":381,"kind_detail":"trunk","ref":"443","min_zoom":8.0},"arcs":[[370],[371],[372],[373],[374],[375],[376],[377],[378],[379],[380]]},{"type":"MultiLineString","properties":{"kind":"highway","name:en":"Yigael Yadin","sort_rank":383,"landuse_kind":"urban_area","source":"openstreetmap.org","min_zoom":8.0,"kind_detail":"motorway","ref":"1"},"arcs":[[381],[382]]},{"type":"MultiLineString","properties":{"source":"openstreetmap.org","kind":"major_road","name:en":"Itzhak HaNadiv","landuse_kind":"residential","sort_rank":380,"kind_detail":"primary","min_zoom":8.0},"arcs":[[383],[384]]},{"type":"LineString","properties":{"bus_network":null,"name:en":"Levi Eshkol","sort_rank":380,"kind_detail":"primary","kind":"major_road","source":"openstreetmap.org","min_zoom":8.0,"bus_shield_text":"8","landuse_kind":"residential","ref":"417"},"arcs":[385]},{"type":"MultiLineString","properties":{"source":"openstreetmap.org","kind":"major_road","sort_rank":381,"kind_detail":"trunk","is_bicycle_related":true,"min_zoom":8.0},"arcs":[[386],[387]]},{"type":"MultiLineString","properties":{"source":"openstreetmap.org","kind":"major_road","sort_rank":381,"kind_detail":"trunk","name:ar":"\u0631\u0627\u0645 \u0627\u0644\u0644\u0647 - \u0646\u0627\u0628\u0644\u0633","ref":"60","min_zoom":8.0},"arcs":[[388],[389]]},{"type":"MultiLineString","properties":{"source":"openstreetmap.org","kind":"major_road","sort_rank":381,"kind_detail":"trunk","ref":"90","min_zoom":8.0},"arcs":[[390],[391],[392],[393]]},{"type":"MultiLineString","properties":{"kind":"highway","int_name":"Desert Highway","sort_rank":383,"landuse_kind":"urban_area","name:ar":"\u0637\u0631\u064a\u0642 \u0627\u0644\u0645\u0637\u0627\u0631","source":"openstreetmap.org","min_zoom":8.0,"kind_detail":"motorway","ref":"15"},"arcs":[[394],[395]]},{"type":"MultiLineString","properties":{"kind":"highway","name:en":"Tel Aviv Jerusalem Motorway","sort_rank":383,"kind_detail":"motorway","source":"openstreetmap.org","min_zoom":8.0,"landuse_kind":"urban_area","ref":"1"},"arcs":[[396],[397]]},{"type":"MultiLineString","properties":{"kind":"major_road","name:ro":"\u0218oseaua Ierihon","sort_rank":380,"kind_detail":"primary","name:he":"\u05d9\u05e8\u05d9\u05d7\u05d5","name:de":"Jerichostra\u00dfe","source":"openstreetmap.org","min_zoom":8.0,"ref":"417"},"arcs":[[398],[399],[400]]},{"type":"MultiLineString","properties":{"source":"openstreetmap.org","kind":"highway","name:en":"Menachem Begin","sort_rank":383,"kind_detail":"motorway","ref":"50","min_zoom":8.0},"arcs":[[401],[402],[403],[404],[405],[406]]},{"type":"MultiLineString","properties":{"source":"openstreetmap.org","kind":"major_road","sort_rank":380,"kind_detail":"primary","ref":"4375","min_zoom":8.0},"arcs":[[407],[408],[409],[410]]},{"type":"LineString","properties":{"source":"openstreetmap.org","kind":"major_road","sort_rank":380,"kind_detail":"primary","name:ar":"\u0645\u0641\u0631\u0642 \u0627\u0644\u0641\u0631\u064a\u062f\u064a\u0633","min_zoom":8.0,"id":79784956},"arcs":[411]},{"type":"LineString","properties":{"source":"openstreetmap.org","kind":"major_road","sort_rank":381,"kind_detail":"trunk","ref":"5","min_zoom":8.0},"arcs":[412]},{"type":"MultiLineString","properties":{"kind":"major_road","name:en":"Yigael Yadin","sort_rank":381,"landuse_kind":"urban_area","source":"openstreetmap.org","min_zoom":8.0,"kind_detail":"trunk","ref":"1"},"arcs":[[413],[414]]},{"type":"MultiLineString","properties":{"sort_rank":381,"source":"openstreetmap.org","min_zoom":8.0,"kind":"major_road","kind_detail":"trunk"},"arcs":[[415],[416],[417],[418],[419],[420],[421],[422],[423],[424],[425],[426],[427],[428],[429],[430],[431],[432],[433],[434],[435],[436],[437],[438],[439],[440],[441],[442],[443],[444],[445],[446],[447],[448],[449],[450],[451],[452],[453],[454],[455],[456],[457],[458],[459],[460],[461],[462],[463],[464],[465],[466],[467],[468],[469],[470],[471],[472],[473],[474],[475],[476],[477],[478],[479],[480],[481],[482],[483],[484],[485],[486],[487],[488],[489],[490],[491],[492],[493],[494],[495],[496],[497],[498],[499],[500],[501],[502],[503],[504],[505],[506]]},{"type":"MultiLineString","properties":{"source":"openstreetmap.org","kind":"major_road","landuse_kind":"urban_area","sort_rank":380,"kind_detail":"primary","name:ar":"\u0627\u0644\u062d\u0631\u064a\u0629","min_zoom":8.0},"arcs":[[507],[508],[509],[510],[511],[512]]},{"type":"LineString","properties":{"kind":"major_road","name:en":"Jericho","sort_rank":380,"kind_detail":"primary","name:de":"Jerichostra\u00dfe","source":"openstreetmap.org","min_zoom":8.0,"name:ro":"Strada Ierihon","ref":"417","id":352461115},"arcs":[513]},{"type":"MultiLineString","properties":{"kind":"highway","name:en":"Menachem Begin","sort_rank":383,"kind_detail":"motorway","source":"openstreetmap.org","min_zoom":8.0,"landuse_kind":"urban_area","ref":"50"},"arcs":[[514],[515],[516],[517],[518],[519],[520],[521]]},{"type":"MultiLineString","properties":{"source":"openstreetmap.org","kind":"major_road","name:en":"Prince Hashem Bin Al-Hussein Street","kind_detail":"trunk","sort_rank":381,"landuse_kind":"urban_area","min_zoom":8.0},"arcs":[[522],[523]]},{"type":"LineString","properties":{"kind":"major_road","name:en":"Itzhak HaNadiv","sort_rank":380,"kind_detail":"primary","source":"openstreetmap.org","min_zoom":8.0,"landuse_kind":"residential","ref":"417"},"arcs":[524]},{"type":"MultiLineString","properties":{"source":"openstreetmap.org","kind":"highway","landuse_kind":"urban_area","sort_rank":383,"kind_detail":"motorway","ref":"1","min_zoom":8.0},"arcs":[[525],[526]]},{"type":"LineString","properties":{"kind":"major_road","name:en":"Bar Ilan","sort_rank":380,"kind_detail":"primary","name:ar":"\u0628\u0627\u0631 \u0625\u064a\u0644\u0627\u0646","bus_network":null,"source":"openstreetmap.org","min_zoom":8.0,"bus_shield_text":"434","name:ru":"\u0411\u0430\u0440 \u0418\u043b\u0430\u043d","landuse_kind":"residential","ref":"417","id":256305345},"arcs":[527]},{"type":"LineString","properties":{"bus_network":null,"sort_rank":380,"kind_detail":"primary","name:ar":"\u0634\u0627\u0631\u0639 \u0627\u0644\u0623\u0645\u064a\u0631 \u0627\u0644\u062d\u0633\u0646","kind":"major_road","source":"openstreetmap.org","min_zoom":8.0,"bus_shield_text":"61","landuse_kind":"urban_area"},"arcs":[528]},{"type":"MultiLineString","properties":{"source":"openstreetmap.org","kind":"major_road","name:en":"Har Hatsofim Tunnel","landuse_kind":"residential","sort_rank":380,"kind_detail":"primary","min_zoom":8.0},"arcs":[[529],[530]]},{"type":"MultiLineString","properties":{"bus_network":null,"name:en":"Golda Meir","sort_rank":380,"kind_detail":"primary","name:ar":"\u0645\u0626\u064a\u0631, \u0686\u0648\u0644\u062f\u0647","kind":"major_road","source":"openstreetmap.org","min_zoom":8.0,"bus_shield_text":"36","name:ru":"\u0413\u043e\u043b\u0434\u0430 \u041c\u0435\u0438\u0440","landuse_kind":"urban_area","ref":"436"},"arcs":[[531],[532],[533],[534]]},{"type":"MultiLineString","properties":{"kind":"major_road","name:en":"Al-Muqdasi","sort_rank":380,"kind_detail":"primary","source":"openstreetmap.org","min_zoom":8.0,"landuse_kind":"residential","ref":"417"},"arcs":[[535],[536],[537]]},{"type":"MultiLineString","properties":{"source":"openstreetmap.org","kind":"major_road","kind_detail":"trunk","sort_rank":381,"landuse_kind":"urban_area","ref":"25","min_zoom":8.0},"arcs":[[538],[539],[540],[541]]},{"type":"MultiLineString","properties":{"source":"openstreetmap.org","kind":"major_road","sort_rank":381,"kind_detail":"trunk","ref":"31","min_zoom":8.0},"arcs":[[542],[543],[544],[545],[546],[547]]},{"type":"LineString","properties":{"bus_network":null,"name:en":"Herzl","sort_rank":380,"kind_detail":"primary","name:ar":"\u0647\u0631\u062a\u0633\u0644","kind":"major_road","source":"openstreetmap.org","min_zoom":8.0,"bus_shield_text":"14","name:ru":"\u0413\u0435\u0440\u0446\u0435\u043b\u044c","landuse_kind":"residential","ref":"386"},"arcs":[548]},{"type":"MultiLineString","properties":{"source":"openstreetmap.org","kind":"major_road","landuse_kind":"residential","sort_rank":380,"kind_detail":"primary","ref":"417","min_zoom":8.0},"arcs":[[549],[550],[551]]},{"type":"LineString","properties":{"source":"openstreetmap.org","kind":"major_road","sort_rank":380,"kind_detail":"primary","name:ar":"\u0627\u0644\u0637\u064a\u0628\u0629 - \u0628\u062f\u0648 \u0627\u0644\u0645\u0639\u0631\u062c\u0627\u062a","ref":"449","min_zoom":8.0},"arcs":[552]},{"type":"MultiLineString","properties":{"kind":"major_road","name:en":"Queen Nour Street","sort_rank":381,"landuse_kind":"urban_area","name:ar":"\u0634\u0627\u0631\u0639 \u0627\u0644\u0645\u0644\u0643\u0629 \u0646\u0648\u0631","source":"openstreetmap.org","min_zoom":8.0,"kind_detail":"trunk"},"arcs":[[553],[554]]},{"type":"MultiLineString","properties":{"source":"openstreetmap.org","kind":"major_road","sort_rank":380,"kind_detail":"primary","ref":"35","min_zoom":8.0},"arcs":[[555],[556],[557],[558],[559],[560],[561],[562],[563],[564],[565],[566],[567],[568],[569],[570],[571],[572],[573],[574],[575],[576],[577],[578],[579],[580],[581],[582],[583],[584],[585],[586],[587],[588]]},{"type":"LineString","properties":{"bus_network":null,"sort_rank":380,"kind_detail":"primary","kind":"major_road","source":"openstreetmap.org","min_zoom":8.0,"bus_shield_text":"74","landuse_kind":"residential","ref":"398"},"arcs":[589]},{"type":"MultiLineString","properties":{"source":"openstreetmap.org","kind":"major_road","name:en":"Zahran Street","landuse_kind":"urban_area","sort_rank":380,"kind_detail":"primary","min_zoom":8.0},"arcs":[[590],[591]]},{"type":"LineString","properties":{"kind":"major_road","name:en":"2nd Circle","sort_rank":380,"kind_detail":"primary","source":"openstreetmap.org","min_zoom":8.0,"alt_name:en":"Second Circle","landuse_kind":"urban_area","id":151190242},"arcs":[592]},{"type":"LineString","properties":{"source":"openstreetmap.org","kind":"major_road","landuse_kind":"residential","sort_rank":380,"kind_detail":"primary","ref":"386","min_zoom":8.0},"arcs":[593]},{"type":"MultiLineString","properties":{"source":"openstreetmap.org","kind":"major_road","kind_detail":"trunk","sort_rank":381,"landuse_kind":"urban_area","min_zoom":8.0},"arcs":[[594],[595],[596],[597],[598],[599],[600],[601],[602],[603],[604],[605],[606],[607],[608],[609],[610],[611],[612],[613],[614],[615],[616],[617],[618],[619],[620],[621],[622],[623],[624],[625],[626],[627],[628],[629],[630],[631],[632],[633],[634],[635]]},{"type":"MultiLineString","properties":{"source":"openstreetmap.org","kind":"highway","sort_rank":383,"kind_detail":"motorway","ref":"50","min_zoom":8.0},"arcs":[[636],[637]]},{"type":"LineString","properties":{"bus_network":null,"sort_rank":380,"kind_detail":"primary","kind":"major_road","source":"openstreetmap.org","min_zoom":8.0,"bus_shield_text":"19","landuse_kind":"urban_area","ref":"396"},"arcs":[638]},{"type":"MultiLineString","properties":{"source":"openstreetmap.org","kind":"major_road","landuse_kind":"urban_area","sort_rank":380,"kind_detail":"primary","name:ar":"\u0634\u0627\u0631\u0639 \u0627\u0644\u062d\u0632\u0627\u0645 \u0627\u0644\u062f\u0627\u0626\u0631\u064a","min_zoom":8.0},"arcs":[[639],[640]]},{"type":"MultiLineString","properties":{"source":"openstreetmap.org","kind":"major_road","landuse_kind":"residential","sort_rank":380,"kind_detail":"primary","ref":"398","min_zoom":8.0},"arcs":[[641],[642],[643],[644]]},{"type":"LineString","properties":{"kind":"major_road","name:en":"Allenby Bridge","alt_name:de":"K\u00f6nig-Hussein-Br\u00fccke","sort_rank":380,"kind_detail":"primary","name:he":"\u05d2\u05e9\u05e8 \u05d0\u05dc\u05e0\u05d1\u05d9","name:ar":"\u062c\u0633\u0631 \u0627\u0644\u0645\u0644\u0643 \u062d\u0633\u064a\u0646","name:de":"Allenby-Br\u00fccke","source":"openstreetmap.org","min_zoom":8.0,"alt_name:en":"King Hussein Bridge","id":56198086},"arcs":[645]},{"type":"MultiLineString","properties":{"source":"openstreetmap.org","kind":"major_road","kind_detail":"trunk","sort_rank":381,"landuse_kind":"urban_area","name:ar":"\u0634\u0627\u0631\u0639 \u0627\u0644\u0642\u062f\u0633","min_zoom":8.0},"arcs":[[646],[647],[648],[649],[650],[651]]},{"type":"MultiLineString","properties":{"source":"openstreetmap.org","kind":"major_road","landuse_kind":"residential","sort_rank":380,"kind_detail":"primary","min_zoom":8.0},"arcs":[[652],[653]]},{"type":"MultiLineString","properties":{"kind":"major_road","name:en":"Jericho","sort_rank":380,"kind_detail":"primary","name:de":"Jerichostra\u00dfe","source":"openstreetmap.org","min_zoom":8.0,"name:ro":"\u0218oseaua Ierihon","landuse_kind":"residential","ref":"417"},"arcs":[[654],[655]]},{"type":"MultiLineString","properties":{"sort_rank":383,"kind_detail":"motorway","min_zoom":8.0,"kind":"highway","source":"openstreetmap.org"},"arcs":[[656],[657],[658],[659],[660],[661]]},{"type":"MultiLineString","properties":{"source":"openstreetmap.org","kind":"major_road","sort_rank":380,"kind_detail":"primary","name:ar":"\u0627\u0644\u062d\u0631\u064a\u0629","min_zoom":8.0},"arcs":[[662],[663]]},{"type":"LineString","properties":{"source":"openstreetmap.org","kind":"major_road","landuse_kind":"aerodrome","sort_rank":381,"kind_detail":"trunk","min_zoom":8.0,"id":30088746},"arcs":[664]},{"type":"MultiLineString","properties":{"kind":"major_road","name:en":"Alon Road","sort_rank":380,"kind_detail":"primary","name:ar":"\u0623\u0644\u0648\u0646","source":"openstreetmap.org","min_zoom":8.0,"name:ru":"\u0410\u043b\u043e\u043d","ref":"458"},"arcs":[[665],[666],[667],[668]]},{"type":"LineString","properties":{"kind":"major_road","name:en":"Ein Kerem","sort_rank":380,"kind_detail":"primary","bus_network":null,"source":"openstreetmap.org","min_zoom":8.0,"bus_shield_text":"17","landuse_kind":"urban_area","ref":"386","id":230826911},"arcs":[669]},{"type":"LineString","properties":{"kind":"major_road","name:en":"Dead Sea","sort_rank":381,"kind_detail":"trunk","bus_network":null,"source":"openstreetmap.org","min_zoom":8.0,"name:ro":"\u0218oseaua Marea Moart\u0103","bus_shield_text":"444","ref":"90","id":366375650},"arcs":[670]},{"type":"MultiLineString","properties":{"kind":"major_road","name:en":"Heil HaHandasa","sort_rank":381,"kind_detail":"trunk","source":"openstreetmap.org","min_zoom":8.0,"landuse_kind":"residential","ref":"60"},"arcs":[[671],[672]]},{"type":"LineString","properties":{"kind":"major_road","name:en":"Alon","sort_rank":380,"kind_detail":"primary","name:ar":"\u0623\u0644\u0648\u0646","source":"openstreetmap.org","min_zoom":8.0,"name:ru":"\u0410\u043b\u043e\u043d","ref":"458"},"arcs":[673]},{"type":"MultiLineString","properties":{"source":"openstreetmap.org","kind":"major_road","sort_rank":381,"kind_detail":"trunk","ref":"15","min_zoom":8.0},"arcs":[[674],[675],[676],[677],[678],[679],[680],[681],[682]]},{"type":"LineString","properties":{"kind":"major_road","name:en":"Jericho","sort_rank":380,"kind_detail":"primary","name:de":"Jerichostra\u00dfe","source":"openstreetmap.org","min_zoom":8.0,"name:ro":"Calea Ierihon","landuse_kind":"residential","name:ru":"\u0434\u043e\u0440\u043e\u0433\u0430 \u0415\u0440\u0438\u0445\u043e","ref":"417","id":375119719},"arcs":[683]},{"type":"MultiLineString","properties":{"source":"openstreetmap.org","kind":"major_road","sort_rank":381,"kind_detail":"trunk","ref":"60","min_zoom":8.0},"arcs":[[684],[685],[686],[687],[688],[689],[690],[691],[692],[693],[694],[695],[696],[697],[698],[699],[700],[701],[702],[703],[704],[705],[706],[707],[708],[709],[710],[711],[712],[713],[714]]},{"type":"MultiLineString","properties":{"kind":"major_road","name:en":"Prince Hashem Bin al-Hussein Street","sort_rank":381,"landuse_kind":"urban_area","name:ar":"\u0634\u0627\u0631\u0639 \u0627\u0644\u0623\u0645\u064a\u0631 \u0647\u0627\u0634\u0645 \u0628\u0646 \u0627\u0644\u062d\u0633\u0646","source":"openstreetmap.org","min_zoom":8.0,"kind_detail":"trunk"},"arcs":[[715],[716]]},{"type":"MultiLineString","properties":{"source":"openstreetmap.org","kind":"major_road","sort_rank":381,"kind_detail":"trunk","ref":"1","min_zoom":8.0},"arcs":[[717],[718]]},{"type":"MultiLineString","properties":{"source":"openstreetmap.org","kind":"major_road","landuse_kind":"urban_area","sort_rank":380,"kind_detail":"primary","min_zoom":8.0},"arcs":[[719],[720],[721],[722],[723],[724],[725],[726],[727],[728],[729],[730],[731],[732],[733],[734],[735],[736],[737],[738],[739],[740],[741],[742],[743],[744],[745],[746],[747],[748],[749],[750],[751],[752],[753],[754],[755],[756],[757],[758],[759],[760],[761],[762],[763],[764],[765],[766],[767],[768],[769]]},{"type":"LineString","properties":{"kind":"major_road","name:ro":"\u0218oseaua Ierihon","sort_rank":380,"kind_detail":"primary","source":"openstreetmap.org","min_zoom":8.0,"ref":"417","id":313159763},"arcs":[770]},{"type":"LineString","properties":{"kind":"major_road","sort_rank":380,"kind_detail":"primary","name:ar":"\u0634\u0627\u0631\u0639 \u062a\u0642\u0648\u0639 \u0627\u0644\u0642\u062f\u0633","source":"openstreetmap.org","min_zoom":8.0,"ref":"356","id":42037056},"arcs":[771]},{"type":"LineString","properties":{"bus_network":null,"sort_rank":381,"kind_detail":"trunk","kind":"major_road","source":"openstreetmap.org","min_zoom":8.0,"bus_shield_text":"444","ref":"1"},"arcs":[772]},{"type":"MultiLineString","properties":{"kind":"major_road","name:en":"Hativat Yerushalayim","sort_rank":381,"kind_detail":"trunk","source":"openstreetmap.org","min_zoom":8.0,"name:ro":"Bulevardul Ierusalim","landuse_kind":"residential","name:ru":"\u042f\u0444\u0444\u043e","ref":"60"},"arcs":[[773],[774],[775]]},{"type":"MultiLineString","properties":{"source":"openstreetmap.org","kind":"major_road","sort_rank":380,"kind_detail":"primary","name:ar":"\u0634\u0627\u0631\u0639 \u062a\u0642\u0648\u0639 \u0627\u0644\u0642\u062f\u0633","ref":"398","min_zoom":8.0},"arcs":[[776],[777],[778]]},{"type":"LineString","properties":{"source":"openstreetmap.org","kind":"major_road","sort_rank":380,"kind_detail":"primary","ref":"317","min_zoom":8.0},"arcs":[779]},{"type":"MultiLineString","properties":{"source":"openstreetmap.org","kind":"major_road","name:en":"Har Hatsofim Tunnel","sort_rank":380,"kind_detail":"primary","min_zoom":8.0},"arcs":[[780],[781],[782]]},{"type":"LineString","properties":{"kind":"major_road","sort_rank":380,"kind_detail":"primary","name:ar":"\u0634\u0627\u0631\u0639 \u0627\u0644\u0647\u0627\u0634\u0645\u064a","bus_network":null,"source":"openstreetmap.org","min_zoom":8.0,"bus_shield_text":"61","landuse_kind":"urban_area","id":251504658},"arcs":[783]},{"type":"MultiLineString","properties":{"bus_network":null,"name:en":"Yirmiyahu","sort_rank":380,"kind_detail":"primary","name:ar":"\u0627\u0631\u0645\u064a\u0627","kind":"major_road","source":"openstreetmap.org","min_zoom":8.0,"bus_shield_text":"434","landuse_kind":"residential","name:ru":"\u0418\u0435\u0440\u0435\u043c\u0438\u044f","ref":"417"},"arcs":[[784],[785]]},{"type":"MultiLineString","properties":{"kind":"major_road","name:en":"Haim BarLev","sort_rank":381,"landuse_kind":"residential","name:ar":"\u0628\u0627\u0631\u0644\u064a\u06a4, \u062d\u0627\u064a\u064a\u0645","source":"openstreetmap.org","min_zoom":8.0,"kind_detail":"trunk","name:ru":"\u0425\u0430\u0438\u043c \u0411\u0430\u0440\u041b\u0435\u0432","ref":"60"},"arcs":[[786],[787]]},{"type":"MultiLineString","properties":{"bus_network":null,"name:en":"Hebron","sort_rank":381,"kind_detail":"trunk","name:ar":"\u0637\u0631\u064a\u0642 \u0627\u0644\u062e\u0644\u064a\u0644","kind":"major_road","source":"openstreetmap.org","min_zoom":8.0,"bus_shield_text":"8","name:ru":"\u0425\u0435\u0432\u0440\u043e\u043d","landuse_kind":"residential","ref":"60"},"arcs":[[788],[789]]},{"type":"MultiLineString","properties":{"kind":"highway","name:en":"Motza Bridge","sort_rank":383,"landuse_kind":"urban_area","source":"openstreetmap.org","min_zoom":8.0,"kind_detail":"motorway","ref":"1"},"arcs":[[790],[791]]},{"type":"LineString","properties":{"kind":"major_road","name:en":"Jericho","sort_rank":380,"kind_detail":"primary","name:de":"Jerichostra\u00dfe","source":"openstreetmap.org","min_zoom":8.0,"landuse_kind":"residential","ref":"417"},"arcs":[792]},{"type":"MultiLineString","properties":{"kind":"major_road","name:en":"HaAluf Uzi Narkis","sort_rank":381,"landuse_kind":"residential","name:ar":"\u0627\u0644\u0639\u0627\u0645\u0629 \u0639\u0648\u0632\u064a \u0646\u0627\u0631\u0643\u064a\u0633","source":"openstreetmap.org","min_zoom":8.0,"kind_detail":"trunk","name:ru":"\u0433\u0435\u043d\u0435\u0440\u0430\u043b\u044c\u043d\u044b\u0439 \u0423\u0437\u0438 \u041d\u0430\u0440\u043a\u0438\u0441","ref":"60"},"arcs":[[793],[794],[795],[796]]},{"type":"MultiLineString","properties":{"bus_network":null,"name:en":"Hebron","sort_rank":381,"landuse_kind":"residential","name:ar":"\u0637\u0631\u064a\u0642 \u0627\u0644\u062e\u0644\u064a\u0644","kind":"major_road","source":"openstreetmap.org","min_zoom":8.0,"bus_shield_text":"71","name:ru":"\u0425\u0435\u0432\u0440\u043e\u043d","kind_detail":"trunk","ref":"60"},"arcs":[[797],[798],[799]]},{"type":"LineString","properties":{"kind":"major_road","name:en":"Al-Hashimi Street","sort_rank":380,"kind_detail":"primary","name:ar":"\u0634\u0627\u0631\u0639 \u0627\u0644\u0647\u0627\u0634\u0645\u064a","bus_network":null,"source":"openstreetmap.org","min_zoom":8.0,"bus_shield_text":"61","landuse_kind":"urban_area","id":150594145},"arcs":[800]},{"type":"MultiLineString","properties":{"source":"openstreetmap.org","kind":"major_road","sort_rank":381,"kind_detail":"trunk","ref":"25","min_zoom":8.0},"arcs":[[801],[802],[803]]},{"type":"MultiLineString","properties":{"kind":"major_road","name:en":"Maale Adumim","sort_rank":381,"landuse_kind":"urban_area","name:he":"\u05d9\u05d2\u05d0\u05dc \u05d9\u05d3\u05d9\u05df","source":"openstreetmap.org","min_zoom":8.0,"kind_detail":"trunk","ref":"1"},"arcs":[[804],[805]]},{"type":"MultiLineString","properties":{"source":"openstreetmap.org","kind":"major_road","sort_rank":381,"kind_detail":"trunk","ref":"65","min_zoom":8.0},"arcs":[[806],[807],[808],[809],[810],[811],[812],[813],[814],[815],[816],[817]]},{"type":"LineString","properties":{"kind":"major_road","name:en":"Hebron","sort_rank":381,"kind_detail":"trunk","name:ar":"\u0637\u0631\u064a\u0642 \u0627\u0644\u062e\u0644\u064a\u0644","source":"openstreetmap.org","min_zoom":8.0,"landuse_kind":"residential","name:ru":"\u0425\u0435\u0432\u0440\u043e\u043d","ref":"60"},"arcs":[818]},{"type":"MultiLineString","properties":{"kind":"major_road","name:en":"Farbstein","sort_rank":380,"kind_detail":"primary","source":"openstreetmap.org","min_zoom":8.0,"landuse_kind":"residential","ref":"386"},"arcs":[[819],[820]]},{"type":"MultiLineString","properties":{"source":"openstreetmap.org","kind":"major_road","sort_rank":380,"kind_detail":"primary","ref":"356","min_zoom":8.0},"arcs":[[821],[822]]},{"type":"MultiLineString","properties":{"bus_network":null,"name:en":"Dead Sea","sort_rank":381,"kind_detail":"trunk","kind":"major_road","source":"openstreetmap.org","min_zoom":8.0,"bus_shield_text":"444","ref":"90"},"arcs":[[823],[824],[825]]},{"type":"LineString","properties":{"kind":"major_road","name:en":"Ein Kerem","sort_rank":380,"kind_detail":"primary","source":"openstreetmap.org","min_zoom":8.0,"landuse_kind":"residential","ref":"386","id":88824006},"arcs":[826]},{"type":"LineString","properties":{"bus_network":null,"name:en":"Yigael Yadin","sort_rank":381,"landuse_kind":"residential","kind":"major_road","source":"openstreetmap.org","min_zoom":8.0,"bus_shield_text":"56","kind_detail":"trunk","ref":"1"},"arcs":[827]},{"type":"MultiLineString","properties":{"kind":"major_road","name:en":"Hizma-Adam Road","sort_rank":380,"kind_detail":"primary","name:ar":"\u0637\u0631\u064a\u0642 \u062d\u0632\u0645\u0627 \u0623\u062f\u0627\u0645","source":"openstreetmap.org","min_zoom":8.0,"ref":"437"},"arcs":[[828],[829],[830]]},{"type":"MultiLineString","properties":{"bus_network":null,"name:en":"Golda Meir","sort_rank":380,"kind_detail":"primary","name:ar":"\u0645\u0626\u064a\u0631, \u0686\u0648\u0644\u062f\u0647","kind":"major_road","source":"openstreetmap.org","min_zoom":8.0,"bus_shield_text":"32","name:ru":"\u0413\u043e\u043b\u0434\u0430 \u041c\u0435\u0438\u0440","landuse_kind":"urban_area","ref":"436"},"arcs":[[831],[832],[833],[834]]},{"type":"MultiLineString","properties":{"bus_network":null,"name:en":"HaRozmarin","sort_rank":381,"kind_detail":"trunk","kind":"major_road","source":"openstreetmap.org","min_zoom":8.0,"bus_shield_text":"71","ref":"60"},"arcs":[[835],[836]]},{"type":"LineString","properties":{"source":"openstreetmap.org","kind":"major_road","kind_detail":"trunk","sort_rank":381,"landuse_kind":"urban_area","ref":"90","min_zoom":8.0},"arcs":[837]},{"type":"MultiLineString","properties":{"kind":"highway","name:en":"Menachem Begin","sort_rank":383,"kind_detail":"motorway","source":"openstreetmap.org","min_zoom":8.0,"landuse_kind":"residential","ref":"50"},"arcs":[[838],[839],[840],[841],[842],[843]]},{"type":"MultiLineString","properties":{"source":"openstreetmap.org","kind":"major_road","sort_rank":381,"kind_detail":"trunk","ref":"30","min_zoom":8.0},"arcs":[[844],[845],[846]]},{"type":"LineString","properties":{"kind":"major_road","name:ro":"\u0218oseaua Ierihon","sort_rank":380,"kind_detail":"primary","name:de":"Jerichostra\u00dfe","source":"openstreetmap.org","min_zoom":8.0,"ref":"417","id":175387993},"arcs":[847]},{"type":"LineString","properties":{"kind":"major_road","name:en":"Hebron","sort_rank":381,"kind_detail":"trunk","name:ar":"\u0637\u0631\u064a\u0642 \u0627\u0644\u062e\u0644\u064a\u0644","bus_network":null,"source":"openstreetmap.org","min_zoom":8.0,"bus_shield_text":"12","name:ru":"\u0425\u0435\u0432\u0440\u043e\u043d","landuse_kind":"residential","ref":"60","id":338091886},"arcs":[848]},{"type":"MultiLineString","properties":{"kind":"highway","int_name":"Desert Highway","sort_rank":383,"kind_detail":"motorway","name:ar":"\u0637\u0631\u064a\u0642 \u0627\u0644\u0645\u0637\u0627\u0631","source":"openstreetmap.org","min_zoom":8.0,"ref":"15"},"arcs":[[849],[850],[851],[852]]},{"type":"LineString","properties":{"source":"openstreetmap.org","kind":"major_road","sort_rank":380,"kind_detail":"primary","name:ar":"\u0634\u0627\u0631\u0639 \u0631\u0627\u0645 \u0627\u0644\u0644\u0647 \u0627\u0644\u0642\u062f\u0633","ref":"437","min_zoom":8.0},"arcs":[853]},{"type":"MultiLineString","properties":{"source":"openstreetmap.org","kind":"major_road","name:en":"Temporary Bypass","sort_rank":381,"kind_detail":"trunk","ref":"90","min_zoom":8.0},"arcs":[[854],[855],[856]]},{"type":"MultiLineString","properties":{"kind":"major_road","name:en":"Airport Road","sort_rank":380,"kind_detail":"primary","name:ar":"\u0637\u0631\u064a\u0642 \u0627\u0644\u0645\u0637\u0627\u0631","source":"openstreetmap.org","min_zoom":8.0,"landuse_kind":"urban_area"},"arcs":[[857],[858]]},{"type":"LineString","properties":{"kind":"major_road","name:en":"Highway 60","sort_rank":381,"kind_detail":"trunk","name:he":"\u05db\u05d1\u05d9\u05e9 60","source":"openstreetmap.org","min_zoom":8.0,"id":418390103},"arcs":[859]}]},"earth":{"type":"GeometryCollection","geometries":[{"type":"Polygon","properties":{"sort_rank":10,"source":"naturalearthdata.com","kind":"earth","min_zoom":0.0,"id":4728},"arcs":[[860]]}]},"landuse":{"type":"GeometryCollection","geometries":[{"type":"Polygon","properties":{"kind":"nature_reserve","area":155811008,"sort_rank":23,"source":"openstreetmap.org","min_zoom":6.0,"tier":2,"id":-6440567,"osm_relation":true},"arcs":[[861],[862]]},{"type":"Polygon","properties":{"kind":"residential","area":97006304,"sort_rank":20,"source":"openstreetmap.org","min_zoom":8.0,"tier":2,"id":-6502363,"osm_relation":true},"arcs":[[863]]},{"type":"Polygon","properties":{"kind":"aerodrome","area":15543700,"sort_rank":60,"operator":"Civil Aviation Authority","source":"openstreetmap.org","min_zoom":8.0,"tier":3,"id":156580417},"arcs":[[864]]},{"type":"Polygon","properties":{"kind":"residential","name":"\u0631\u0627\u0645 \u0627\u0644\u0644\u0647","area":31413800,"sort_rank":20,"name:he":"\u05e8\u05de\u05d0\u05dc\u05dc\u05d4","source":"openstreetmap.org","min_zoom":8.0,"tier":2,"id":316511713},"arcs":[[865]]},{"type":"Polygon","properties":{"kind":"nature_reserve","area":74339000,"sort_rank":23,"source":"openstreetmap.org","min_zoom":8.0,"tier":2,"id":-6440567,"osm_relation":true},"arcs":[[866]]},{"type":"MultiPolygon","properties":{"source":"openstreetmap.org","kind":"military","tier":3,"area":392185358,"sort_rank":45,"min_zoom":8.0},"arcs":[[[867]]]},{"type":"MultiPolygon","properties":{"source":"naturalearthdata.com","kind":"urban_area","name":"","area":1120255718,"sort_rank":11,"min_zoom":4.0},"arcs":[[[868]],[[869]],[[870]],[[871]],[[872]]]},{"type":"Polygon","properties":{"kind":"nature_reserve","protect_class":"1","area":60593000,"sort_rank":23,"source":"openstreetmap.org","min_zoom":8.0,"tier":2,"id":-4731467,"osm_relation":true},"arcs":[[873]]},{"type":"MultiPolygon","properties":{"source":"openstreetmap.org","kind":"residential","tier":2,"area":108602267,"sort_rank":20,"min_zoom":8.0},"arcs":[[[874]],[[875]]]},{"type":"MultiPolygon","properties":{"kind":"protected_area","protect_class":"1","area":328805649,"sort_rank":17,"source":"openstreetmap.org","min_zoom":8.0,"tier":2,"osm_relation":true},"arcs":[[[876]]]}]}},"type":"Topology","transform":{"translate":[35.15625,30.7512777763],"scale":[0.0003433228,0.0002931847]},"arcs":[[[0,3613],[11,-5],[80,1]],[[0,2074],[204,46],[491,405],[233,17]],[[928,2542],[80,560],[74,207],[89,124],[-32,86],[12,46],[-36,67],[28,26],[1,69],[-37,42],[39,56],[-50,34],[-24,86],[9,51],[49,31],[-14,69]],[[1119,4096],[4,0]],[[91,3609],[106,-30],[18,-100],[-19,-120],[-79,49],[-63,-30],[-48,10],[-6,-8]],[[236,3569],[36,11],[4,-55],[-14,1],[-26,43]],[[399,0],[7,37],[53,26],[24,93],[43,6],[12,57],[-32,89],[4,66],[67,162],[49,63],[67,-1],[65,83],[28,320],[71,153],[17,132],[-21,99],[-111,180],[-34,146],[21,97],[158,308],[33,163],[8,263]],[[0,3351],[68,-45],[76,10],[97,-47],[71,133],[-34,73],[33,68],[-22,78],[28,43],[-41,17],[18,27],[-18,19],[-61,-5],[-29,137],[-39,-4],[-7,-30],[34,-177],[-93,17],[10,-56]],[[483,4096],[-47,-120],[4,-71],[-57,-6],[-106,72],[81,125]],[[490,4096],[-7,0]],[[69,4007],[-18,24],[-51,-2]],[[169,4096],[-8,-74]],[[283,4096],[-6,-34],[-19,-15],[-12,49]],[[994,4096],[-1,-49],[-77,14],[-4,35]],[[908,4096],[-78,-31],[49,31]],[[1033,3171],[49,138],[89,124],[-32,86],[12,46],[-36,67],[28,26],[1,69],[-37,42],[39,56],[-50,34],[-24,86],[9,51],[49,31],[-14,69]],[[1119,4096],[4,0]],[[0,2074],[205,46],[490,405],[233,17]],[[280,3465],[2,-14],[20,-21],[-1,-15],[11,-13],[-71,-133],[-97,47],[-76,-10],[-68,45]],[[0,3622],[68,-18],[23,5],[-10,56],[90,-23],[-1,108],[-30,75],[7,30],[39,4],[23,-65],[-9,-35],[15,-37],[61,5],[18,-19],[-18,-27],[41,-17],[-28,-43],[22,-78],[-31,-78]],[[161,4022],[44,-53],[-20,-43],[20,-44],[-58,-21],[-71,18],[-41,-28],[-26,57],[24,21],[-3,70],[22,21],[17,-13]],[[280,3465],[16,34],[35,4],[50,-32],[-24,-77],[42,-41],[30,19],[49,-43],[12,-72],[-28,-33],[35,-58],[-34,-20],[-11,-79],[35,-35],[-2,-89],[-90,-34],[-111,53],[26,111],[-15,47],[-35,17],[44,33],[-38,117],[50,114],[-15,16],[3,15],[-24,33]],[[928,2542],[49,425],[56,204]],[[0,2344],[22,-29],[-22,-13]],[[0,3010],[111,14],[16,-36],[-32,-12],[-82,-193],[-13,0]],[[0,3686],[0,-1]],[[0,2745],[46,-11],[-22,30],[47,62],[37,-16],[-8,-21],[31,38],[58,-20],[-30,55],[63,-5],[47,76],[119,-55],[87,33],[25,-145],[-31,-6],[-10,-98],[-86,-128],[-81,-52],[-60,-109],[-118,-3],[-44,168],[-63,32],[-7,-4]],[[0,3343],[3,0],[10,-14],[-9,3],[-4,6]],[[8,3072],[0,11],[8,2],[1,-6],[-9,-7]],[[10,3249],[12,5],[0,-12],[-11,3],[-1,4]],[[14,3213],[67,89],[59,-9],[2,16],[102,-56],[-18,-44],[31,-3],[9,-42],[-44,-38],[-84,-8],[-18,15],[11,66],[-54,-14],[-63,28]],[[20,3092],[45,46],[74,-31],[44,8],[-6,-32],[-27,4],[-25,-20],[-53,22],[-52,3]],[[21,3043],[5,12],[11,-19],[-12,7],[-4,0]],[[28,3113],[1,10],[6,0],[2,-9],[-9,-1]],[[36,3063],[9,18],[32,-2],[-17,-20],[-24,4]],[[55,3635],[12,24],[10,-45],[-8,0],[-14,21]],[[61,3751],[24,13],[11,-24],[-35,6],[0,5]],[[92,3825],[7,7],[23,-6],[-18,-14],[-12,13]],[[101,3032],[1,4],[7,1],[-4,-9],[-4,4]],[[103,3758],[19,31],[2,-29],[34,-9],[-40,-12],[-15,19]],[[134,3680],[23,17],[1,-38],[-9,3],[-15,18]],[[142,3795],[11,-5],[0,-5],[-5,-1],[-6,11]],[[145,3049],[19,15],[45,-26],[-26,-59],[-38,70]],[[147,3075],[9,9],[4,-2],[-9,-9],[-4,2]],[[166,3071],[2,4],[6,1],[-3,-9],[-5,4]],[[195,2927],[4,10],[4,1],[0,-10],[-8,-1]],[[206,3759],[6,23],[64,-34],[-55,-22],[-15,33]],[[215,4006],[31,30],[12,-2],[-3,-43],[-40,15]],[[275,3900],[4,16],[13,13],[0,-35],[-17,6]],[[275,3779],[21,8],[20,-7],[-20,-13],[-21,12]],[[286,3686],[34,23],[19,-9],[-24,-26],[-29,12]],[[297,3618],[13,24],[25,-6],[-36,-46],[-2,28]],[[310,3526],[12,19],[4,-1],[-1,-18],[-15,0]],[[320,3820],[43,16],[6,-22],[-40,-2],[-9,8]],[[689,3860],[51,46],[69,-9],[21,165],[80,19],[-1,-29],[-31,-15],[-15,-147],[75,-89],[74,-13],[7,-60],[-83,-94],[-86,-1],[-1,45],[-31,11],[-18,52],[28,19],[-15,62],[-66,-12],[-58,50]],[[69,4007],[35,-31],[57,46]],[[4096,1717],[-1167,-1]],[[2929,1716],[-6,-313],[238,-234],[-641,-1169]],[[4096,3415],[-266,263],[44,95],[207,136],[-159,187]],[[1755,4096],[-27,-81],[-124,-48],[-85,-97],[12,-35],[119,-56],[63,-74],[-62,-107],[-4,-96]],[[1647,3502],[83,29],[174,5],[57,42],[51,-39],[9,-278],[-102,-104],[0,-50],[43,-163],[149,-134],[17,-49],[-28,-82],[51,-56],[-141,-325],[-78,-79],[86,-177],[-55,-289],[75,-39],[891,2]],[[1033,3171],[221,18],[137,48],[23,31],[3,140],[24,55],[47,30],[159,9]],[[403,0],[3,37],[53,26],[24,93],[43,6],[12,57],[-32,89],[4,66],[42,110],[74,115],[67,-1],[65,83],[28,320],[83,204],[-16,180],[-111,180],[-34,146],[21,97],[158,308],[33,163],[8,263]],[[138,3536],[-88,75],[-50,6]],[[0,3618],[45,-4],[12,-5],[8,-5],[73,-68]],[[86,3400],[-83,-7],[-3,-2]],[[93,3398],[-90,-4],[-3,-4]],[[1033,1529],[45,-36],[14,-66],[-11,-21],[-59,-64],[-10,-19],[6,-13],[11,-12],[8,-31],[13,-21],[3,-22],[-21,-22],[-73,-52],[-27,-7],[-49,3],[-126,22],[-45,24],[-22,41],[-14,99],[-72,115],[-15,119],[33,85],[90,-17],[13,19],[47,53],[117,-110],[42,-29],[102,-38]],[[1173,3459],[80,-43],[5,-76],[-28,-99],[-70,-557],[41,-141],[10,-98],[-80,-389],[2,-28],[7,-24],[0,-23],[-22,-30],[-48,-45],[-31,-18],[-27,5],[-7,40],[33,124],[-6,45],[-56,-2],[-143,-153],[-80,15],[-26,63],[-12,171],[-24,139],[21,124],[-23,143],[16,62],[28,55],[20,61],[-2,39],[-18,83],[0,43],[14,33],[66,107],[56,134],[64,121],[88,86],[130,33],[22,0]],[[1173,3459],[80,-43],[5,-76],[-28,-99],[-70,-557],[41,-141],[10,-98],[-80,-389],[2,-28],[7,-24],[0,-23],[-22,-30],[-48,-45],[-31,-18],[-27,5],[-7,40],[33,124],[-6,45],[-56,-2],[-143,-153],[-80,15],[-26,63],[-12,171],[-24,139],[21,124],[-23,143],[16,62],[28,55],[20,61],[-2,39],[-18,83],[0,43],[14,33],[66,107],[56,134],[64,121],[88,86],[130,33],[22,0]],[[1033,1529],[45,-36],[14,-66],[-11,-21],[-59,-64],[-10,-19],[6,-13],[11,-12],[8,-31],[13,-21],[3,-22],[-21,-22],[-73,-52],[-27,-7],[-49,3],[-126,22],[-45,24],[-22,41],[-14,99],[-72,115],[-15,119],[33,85],[90,-17],[13,19],[47,53],[117,-110],[42,-29],[102,-38]],[[193,3567],[-8,-4]],[[248,3604],[-3,2],[-13,-1],[-1,-1]],[[232,3604],[15,-1]],[[250,3601],[32,-24]],[[282,3578],[-30,22]],[[2421,2993],[1,-1]],[[2422,2993]],[[115,3630],[19,-14]],[[134,3616],[-18,14]],[[172,3555],[14,7]],[[207,3491],[0,3]],[[217,3569],[-11,-37]],[[214,3704],[19,-34]],[[233,3670],[-19,34]],[[102,3521],[-23,-14]],[[80,3507],[22,13]],[[233,3561],[1,-5]],[[234,3556],[-1,5]],[[234,3555],[1,-19]],[[204,3466],[1,13]],[[65,3821],[-3,-2],[-12,-133],[44,-21]],[[95,3665],[-45,21],[15,135]],[[231,3604],[-26,-5]],[[207,3598],[20,1]],[[202,3503],[4,5]],[[206,3508],[3,7]],[[209,3514],[-3,-6]],[[233,3608],[-5,-19]],[[229,3589],[4,19]],[[231,3661],[8,-44]],[[240,3617],[-9,44]],[[239,3616],[-6,-8]],[[233,3608],[6,8]],[[60,3580],[51,-1],[10,7],[19,17]],[[141,3604],[-76,-22]],[[282,3675],[8,2]],[[289,3677],[-6,-1]],[[293,3677],[-3,1]],[[290,3677],[3,0]],[[493,3599],[-48,0],[-152,78]],[[493,3599],[2,-1],[1,-1],[-3,2]],[[186,3562],[7,5]],[[224,0],[10,58]],[[145,3343],[16,23]],[[160,3365],[-14,-20]],[[49,3281],[70,47]],[[119,3328],[9,4]],[[127,3333],[-8,-5]],[[131,3545],[13,5]],[[144,3550],[28,5]],[[2048,4074],[-5,-49]],[[2043,4026],[5,47]],[[2321,3921],[15,-3]],[[2337,3918],[-16,4]],[[282,3577],[13,-9]],[[295,3568],[-13,10]],[[265,3285],[-3,8]],[[281,3677],[1,-1]],[[282,3675]],[[282,3675]],[[282,3675],[1,0]],[[283,3675],[0,1],[-1,0]],[[282,3675]],[[282,3675]],[[347,3648],[-48,-76]],[[300,3528],[5,-4]],[[305,3525],[-5,4]],[[329,3850],[-1,-2]],[[350,3653],[-3,-4]],[[970,417],[-2,-11]],[[1119,3833],[28,35],[147,31]],[[1166,2708],[1,-1]],[[1298,3975],[-47,29],[-17,92]],[[1297,3886],[-69,-60],[39,-224]],[[1292,3980],[6,-5]],[[1353,3918]],[[1353,3918],[-59,-19]],[[1356,3845],[-62,54]],[[1298,3975],[55,-57]],[[1353,3918],[14,-118],[148,-73],[17,-48],[24,19]],[[1416,295],[-1,2],[1,-2]],[[1421,3632],[115,-194],[34,-14],[25,46],[48,21],[106,-52]],[[1427,262],[-1,3]],[[1632,1445],[31,-12]],[[1967,3766],[5,-69],[-78,-178]],[[1895,3519],[77,180],[-5,66]],[[1916,3796],[-21,-14],[21,13]],[[1981,3857],[-13,-10]],[[1969,3847],[12,9]],[[2180,3555],[1,4]],[[2356,3860],[-15,-23]],[[2349,3838],[3,6]],[[2398,3916],[-2,-1]],[[2397,3914],[1,1]],[[2464,3827],[-56,55]],[[2408,3881],[56,-55]],[[2464,3826],[12,-12]],[[2476,3814],[-12,12]],[[2477,3813],[31,-31],[-31,32]],[[185,3996],[0,-1],[1,1],[-1,1],[0,-1]],[[195,4038],[-1,0],[0,-1],[1,0],[0,1]],[[206,4002],[0,1],[-1,0],[0,-1],[1,0]],[[222,3320],[-1,-1],[1,0],[0,1]],[[264,3285],[1,0],[-1,0]],[[282,3676],[0,-1]],[[282,3675],[1,0]],[[283,3675],[-1,1]],[[290,3678],[-1,-1],[1,0],[0,1]],[[310,3763],[-1,-1],[1,0],[0,1]],[[346,3648],[1,0],[0,1],[-1,-1]],[[1417,295],[-1,0],[0,-1],[1,1]],[[1697,1493],[-1,0],[1,-1],[0,1]],[[1698,1474],[0,-1],[0,1]],[[2464,3827],[0,-1],[0,1]],[[2477,3814],[-1,0],[0,-1],[1,1]],[[234,58],[33,120],[-7,79],[98,321],[59,46],[32,189]],[[81,3495],[-7,-15]],[[75,3480],[7,14]],[[129,3537],[-25,-17]],[[105,3518],[8,2],[10,10]],[[1055,1704],[77,4],[74,-37],[45,46],[93,-8],[77,-56],[63,-114],[83,-17],[9,-47],[1,31],[31,-33],[-15,-12]],[[2525,1593],[-18,8],[-222,-26],[-112,48],[-79,-28],[-122,-21],[-29,-9],[-4,-2],[-159,-146],[-110,12]],[[1671,1428],[109,-11],[159,146],[155,31],[79,29],[112,-48],[242,17]],[[213,3727]],[[213,3727],[2,-11]],[[215,3716],[-1,-12]],[[215,3716],[-1,10]],[[214,3704],[1,12]],[[1897,3312],[-24,-30]],[[1874,3282],[24,29]],[[1937,3344],[-39,-32]],[[1898,3312],[38,31]],[[2183,3579],[0,2],[2,10]],[[2185,3591],[1,8]],[[2185,3597],[0,-6]],[[2185,3591],[-2,-12]],[[879,563],[66,-32],[25,-114]],[[968,406],[29,-12],[32,23],[42,-70],[-6,41],[92,-39],[97,-121]],[[1415,297],[-35,49]],[[1416,294],[10,-29],[-9,30]],[[1782,0],[-136,152],[-98,17],[-121,93]],[[64,3476],[-47,-6]],[[66,3477],[9,4]],[[2574,1668],[-31,-20],[-36,-132],[30,-208],[-60,-75],[16,-353]],[[2494,880],[-16,353],[60,75],[-31,208],[14,39],[22,92],[32,20]],[[2674,2120],[0,-122],[-99,-329]],[[2576,1668],[99,330],[0,122]],[[9,3254],[-7,-9]],[[2269,3851],[189,-54]],[[2458,3797],[47,-14]],[[2505,3783],[204,-143],[3,-1]],[[2712,3639],[113,-39]],[[2825,3600],[-110,37],[-3,2]],[[2712,3639],[-204,143],[-3,1]],[[2505,3783],[-47,14]],[[2458,3797],[-189,54]],[[2825,3600],[146,-21],[88,-43]],[[3059,3536],[105,-21]],[[3164,3515],[163,-65],[389,-61],[109,-56],[175,42],[96,100]],[[177,3599],[-12,3]],[[2211,4082],[42,-11]],[[2232,4070],[14,2]],[[449,813],[-29,-22],[-27,11],[-56,71],[-37,-9],[-10,52],[-42,22]],[[2251,4069],[25,25]],[[911,4096],[-22,-195],[30,-41],[94,-33],[25,-105],[-2,-46],[-43,-30],[-20,-71]],[[13,3431],[-4,2]],[[300,3529],[-27,14]],[[273,3542],[27,-14]],[[310,3521],[-5,4]],[[213,3727]],[[215,3716]],[[50,3576],[-2,-1]],[[51,3575],[4,5]],[[2212,3584],[16,-29]],[[2229,3555],[-17,29]],[[185,3997],[-14,99]],[[206,4003],[-11,34]],[[206,4002],[68,-45]],[[10,3475],[-2,1]],[[4,3249],[-4,4]],[[0,3253]],[[2194,4096],[17,-14]],[[2211,4083],[-17,13]],[[205,3479],[1,15]],[[2269,4091],[-16,-18]],[[2305,3305],[116,-312]],[[2422,2993],[-116,312]],[[2422,2992],[36,-60],[-9,-89],[1,0]],[[2450,2843],[1,-1]],[[2451,2842],[82,-48],[69,-93],[66,-409],[50,-73],[-43,-98]],[[2675,2121],[43,98],[-49,73],[-66,409],[-70,93],[-82,48]],[[2451,2842],[-1,1]],[[2450,2843],[8,89],[-36,61]],[[262,1639],[-2,2]],[[2321,3922],[-38,2]],[[2283,3924],[38,-3]],[[2367,3907],[24,-10]],[[2392,3898],[-25,11]],[[600,1354],[-7,-23]],[[595,1548],[4,-192]],[[104,3518],[0,2]],[[134,3616],[4,-3]],[[138,3613],[-4,3]],[[2275,3930],[-6,96],[6,-96]],[[2277,3922],[-1,-1],[0,-1],[1,0],[0,2]],[[231,3564],[-2,4]],[[218,3577],[7,-3]],[[74,3480],[0,-1]],[[206,3532],[0,-11]],[[79,3507],[2,-12]],[[82,3494],[-2,13]],[[756,3991],[-72,-6],[-33,-28],[-83,6],[-97,45]],[[511,4096],[14,0]],[[530,4096],[4,-2]],[[893,4075],[19,8]],[[8,3476],[-8,0]],[[714,2749],[-1,0]],[[2043,4025],[42,-151],[55,-51],[1,-103],[51,-101]],[[2192,3620],[-51,100],[-1,104],[-61,81],[-36,121]],[[325,3846],[131,41]],[[2253,4073],[-42,10]],[[2398,3915],[7,39]],[[2405,3954],[9,52],[64,48],[-37,42]],[[2440,4096],[37,-42],[-63,-48],[-9,-52]],[[2405,3954],[-7,-38]],[[2336,3918],[3,-1]],[[2341,3917],[-4,1]],[[1079,1301],[3,-91],[-27,-43]],[[205,3786],[1,0]],[[205,3787],[0,-1]],[[205,3786],[0,-39]],[[205,3747],[0,-1]],[[206,3746],[-1,1]],[[206,3745],[1,-1]],[[207,3744],[-1,1]],[[207,3744],[6,-16]],[[213,3728],[0,-1]],[[213,3728]],[[214,3726],[0,1]],[[266,3543],[4,0]],[[270,3543],[-4,0]],[[389,3466],[1,2]],[[398,3535],[-8,-66]],[[390,3469],[12,70]],[[307,3475],[1,0],[0,1],[-1,-1]],[[363,3455],[1,-1],[0,1],[-1,0]],[[390,3469],[-1,0],[1,-1],[0,1]],[[281,3678],[0,-3]],[[269,214],[-269,174]],[[2020,4096],[-2,-34],[2,-3]],[[2020,4059],[23,-34]],[[2022,4078],[1,4],[-2,14]],[[2033,4037],[-13,22]],[[2020,4059],[-2,3],[4,14]],[[2190,3621],[-5,-24]],[[2186,3599],[5,21]],[[534,4094],[-43,-21],[17,-22],[-37,-43]],[[225,3574],[2,-3]],[[227,3571],[5,-10]],[[229,3568],[-2,3]],[[1575,1194],[-5,-114]],[[1571,1080],[4,114]],[[1571,1080],[-1,0]],[[1570,1080],[1,-1],[0,1]],[[1571,1079],[18,-32]],[[1589,1047],[-18,33]],[[1575,1194],[3,14]],[[1593,1034],[-4,13]],[[271,3485],[8,-16]],[[2339,3917],[28,-10]],[[2367,3909],[-26,8]],[[2022,3894],[-26,-50]],[[1996,3844],[-2,-3],[-49,-47]],[[1945,3794],[50,47],[1,3]],[[1996,3844],[12,33]],[[2176,3975],[-144,-71]],[[2033,3904],[164,79]],[[63,3818],[90,-45]],[[153,3773],[-15,10],[-73,38]],[[222,3320],[-22,15]],[[200,3334],[21,-14]],[[222,3319],[4,-5]],[[226,3314],[-4,5]],[[226,3314],[38,-29]],[[266,3280],[-1,4]],[[266,3279],[0,-1],[1,0],[-1,1]],[[2305,4039],[-26,-48]],[[2289,3999],[16,40]],[[242,3508],[0,-3]],[[94,3665],[21,-35]],[[116,3630],[-21,35]],[[65,3582],[-6,-1],[-3,-1]],[[56,3580],[-6,-4]],[[55,3580],[1,0]],[[56,3580],[4,0]],[[142,3584],[43,-22]],[[186,3562],[-43,23]],[[129,995],[38,119],[-25,79],[44,156],[39,20],[21,194],[24,33]],[[562,3632],[0,-2],[1,1],[0,1],[-1,0]],[[0,3817],[63,1]],[[65,3821],[-65,-3]],[[30,3828],[8,-2]],[[38,3826],[4,-1],[7,-2]],[[49,3823],[4,-1]],[[33,3827],[9,-3],[7,-1]],[[35,3827],[8,-2],[6,-2]],[[49,3823],[5,-1]],[[36,3826],[6,-2],[6,-1]],[[37,3826],[1,0]],[[38,3826],[4,-1],[0,-1],[8,-1]],[[140,3603],[26,-2]],[[165,3602],[-24,2]],[[232,3561],[22,-17]],[[254,3544],[-21,17]],[[193,3567],[25,10],[-25,-10]],[[1273,3429],[-8,-125]],[[1265,3303],[9,126]],[[219,3781],[-3,8]],[[263,3979],[0,-1]],[[595,953],[-57,-122],[-89,-18]],[[593,1331],[29,21],[48,-51],[23,-112]],[[599,1356],[1,-2]],[[698,2437],[2,0]],[[2210,3587],[-18,33]],[[2192,3619],[18,-32]],[[0,3564],[10,-1]],[[10,3563],[-10,2]],[[308,3476],[-15,-3],[-12,-4],[26,6]],[[308,3475],[55,-20]],[[364,3455],[-56,20]],[[136,3351],[-1,-5]],[[136,3346],[1,5]],[[153,3773],[5,-21],[4,-73],[2,-5],[0,-33],[-2,-4],[0,-3]],[[162,3634],[-1,-5]],[[161,3628],[1,6]],[[162,3634],[1,3],[2,4],[1,31],[-3,7],[-5,73],[-5,21]],[[1023,3804],[93,21]],[[1118,3825],[2,4]],[[1118,3825],[-1,1],[-1,-1]],[[1116,3825],[1,0],[1,0]],[[238,3130],[-1,0],[0,-1],[1,1]],[[3956,0],[10,17],[-21,302],[90,209],[61,57]],[[166,3601],[11,-3],[30,0]],[[205,3599],[-28,0]],[[12,3193],[-8,-13]],[[21,3256],[23,12]],[[29,3254],[13,6]],[[31,3254],[11,5]],[[41,3259],[-10,-5]],[[31,3254],[10,4]],[[170,3782],[-8,-2]],[[162,3780],[-9,-6],[0,-1],[9,7]],[[172,3782],[-2,0]],[[170,3782],[2,0]],[[173,3782],[2,0]],[[175,3782],[-2,1]],[[175,3782],[12,2]],[[188,3785],[-1,-1]],[[187,3784],[1,0]],[[190,3785],[-1,0]],[[189,3784],[1,1]],[[190,3785],[14,2]],[[199,3758],[0,-1]],[[204,3787],[1,0]],[[206,3787],[-2,0]],[[213,3727]],[[693,2404],[2,-2]],[[700,2438],[-2,-1]],[[700,2439],[0,-1]],[[1043,1147],[-1,-1]],[[1084,1525],[1,-1]],[[1102,1434],[-8,-46]],[[1096,1826],[0,-1]],[[1103,1866],[0,-3]],[[1162,2730],[4,-22]],[[1172,2863],[-7,-25]],[[1198,2959],[-1,-3]],[[1219,3068],[-2,-18]],[[1219,3068],[-2,15]],[[1221,3170],[0,-1]],[[1265,3304],[-30,-99],[30,98]],[[1926,3790],[-29,-5],[-1,0],[-16,2]],[[1880,3787],[-27,4]],[[1853,3791],[-6,18]],[[1847,3809],[-12,41]],[[1835,3850],[-1,3],[-76,-66],[-75,28],[-2,-1]],[[1681,3814],[-11,-7]],[[1670,3807],[-22,-13],[-5,-5]],[[1643,3789],[-122,-135]],[[1521,3654],[-4,-5],[-1,-1],[-245,-45],[-4,-4],[6,-170]],[[1274,3429],[-6,170],[248,49],[2,1],[3,5]],[[1521,3654],[73,101],[49,34]],[[1643,3789],[27,18]],[[1670,3807],[10,8],[1,-1]],[[1681,3814],[77,-28],[77,64]],[[1835,3850],[1,2],[11,-43]],[[1847,3809],[5,-17],[1,-1]],[[1853,3791],[27,-4]],[[1880,3787],[16,-3],[1,0],[29,5]],[[1964,3767]],[[1964,3767]],[[1964,3767]],[[1964,3767],[1,-2],[3,-1]],[[1968,3764],[69,-42]],[[1968,3764]],[[1968,3764],[1,0]],[[2037,3723],[-49,30]],[[2268,3851],[1,0]],[[2269,3851],[-1,1]],[[2310,3313],[52,-7]],[[2363,3308],[-52,5]],[[2367,3305],[27,1]],[[2393,3309],[-26,-1]],[[2367,3308],[-3,1],[-2,-3],[3,-2],[2,4]],[[2379,254],[0,-2]],[[2379,252],[1,2]],[[2396,3307],[0,-1]],[[156,1718],[0,-1],[1,0],[0,1],[-1,0]],[[173,3783],[-1,-1]],[[172,3782],[0,-1],[1,1],[0,1]],[[189,3784]],[[189,3784],[0,1]],[[189,3785],[-1,0],[1,-1]],[[206,3787],[0,-1],[1,1],[-1,0]],[[206,3746],[-1,0],[0,-1],[1,0],[0,1]],[[209,3792],[0,-1],[0,1]],[[214,3789],[1,0],[0,1],[-1,-1]],[[241,3772],[-1,0],[0,-1],[1,1]],[[301,3523],[-1,0],[0,-1],[1,0],[0,1]],[[307,3825],[0,-1],[1,1],[-1,0]],[[687,2418],[0,1],[0,-1]],[[688,2406],[0,1],[0,-1]],[[696,2401],[0,1],[-1,1],[0,-2],[1,0]],[[697,2437],[1,-1],[0,1],[0,1],[-1,-1]],[[700,2438],[0,-1],[1,1],[-1,0]],[[1054,1696],[4,21]],[[2127,3938],[80,-28]],[[2207,3911],[-80,28]],[[2262,3920],[-13,-2]],[[2259,3918],[2,0]],[[2283,3924],[-20,-4]],[[2263,3918],[20,6]],[[279,3469],[1,0]],[[98,3402],[3,-4],[6,-4]],[[108,3394],[-10,8]],[[139,3579],[-16,-24],[0,-6]],[[123,3549],[16,29]],[[161,3629],[-1,-10],[-4,-7]],[[156,3612],[-3,-5],[-3,-4],[-9,-17],[0,-4]],[[142,3583],[14,28],[0,1]],[[156,3612],[5,16]],[[2135,4060],[-17,-43],[57,-40]],[[2175,3977],[-56,40],[16,43]],[[233,3561],[-2,3]],[[48,3575],[-16,-15]],[[32,3559],[19,16]],[[185,3563],[-13,-7]],[[2269,4026],[-16,47]],[[254,3544],[12,-1]],[[266,3543],[-12,1]],[[138,3613],[1,-9]],[[140,3604],[-2,9]],[[143,3585],[-3,1]],[[142,3584]],[[235,3536],[0,-11]],[[235,3525],[1,-3]],[[236,3522],[-1,3]],[[2257,3850],[-66,-226]],[[2191,3624],[66,226]],[[2277,3918]],[[2277,3918]],[[156,1718],[-40,-21],[-19,5],[-85,15],[-12,1]],[[0,1707],[116,-10],[40,20]],[[157,1717],[1,1]],[[158,1718],[-1,0]],[[260,1641],[-102,77]],[[593,1331],[-70,17],[-72,91],[-39,10],[-142,147],[-8,43]],[[123,3530],[6,7]],[[144,3550]],[[234,3556],[0,-1],[1,1],[-1,0]],[[245,3488],[1,0],[-1,0]],[[756,3991],[24,76],[113,8]],[[2152,4096],[-6,-8]],[[2146,4088],[7,8]],[[1355,332],[27,15]],[[1368,0],[-35,66],[-46,28],[-8,85],[-26,33],[7,52],[26,-10],[19,39],[54,-7],[-4,46]],[[1382,347],[165,84],[4,91],[74,85],[-11,94],[188,15],[-168,122],[22,7],[-3,28],[-60,161]],[[1578,1208],[7,36]],[[1580,1386],[0,-9]],[[1586,1359],[-6,18]],[[1580,1386],[13,75]],[[1586,1359],[-3,-70]],[[1589,1264],[-6,25]],[[1589,1264],[-4,-20]],[[1595,1461],[37,-16]],[[1710,1953],[-16,-206]],[[1696,1495],[-2,252]],[[1696,1495],[0,-2]],[[1696,1492],[2,-18]],[[1697,1493],[-1,2]],[[1698,1474],[-1,19]],[[1698,1473],[-4,-37]],[[1694,1436],[-31,-3],[31,3]],[[1694,1436],[0,1],[4,36]],[[1787,2228],[-76,-107],[-1,-168]],[[1771,2919],[80,335]],[[1778,2911],[-7,8]],[[1891,2861],[-113,50]],[[1787,2228],[8,14]],[[1795,2242],[61,87],[29,-7],[-16,53],[65,-6],[-49,67],[-50,-4],[-19,77],[14,145],[-29,56],[-35,14],[44,14],[86,98]],[[1851,3254],[23,28]],[[1873,3282],[-22,-28]],[[1891,2861],[5,-25]],[[1936,3343],[162,95],[82,117]],[[2183,3579],[-1,-11]],[[2182,3568],[-2,-13],[-82,-117],[-147,-82],[-14,-12]],[[2181,3559],[1,9]],[[2182,3568],[1,11]],[[186,3343],[-24,25],[23,-25]],[[2208,4096],[3,-2]],[[2211,4095],[-2,1]],[[2212,4095],[-1,-1],[1,-1],[1,1],[-1,1]],[[75,3481],[-3,-2]],[[1094,1388],[-15,-87]],[[1945,3794],[-19,-4]],[[1926,3789],[19,5]],[[1930,3818],[34,-51]],[[1988,3753],[-55,65]],[[1965,3768],[-1,-1]],[[2008,3877],[25,27]],[[2022,4076],[0,2]],[[2032,3904],[-10,-10]],[[2043,4026],[-10,11]],[[2186,3599],[-92,53],[-57,71]],[[2037,3722],[57,-71],[92,-54],[2,12]],[[2146,4088],[-1,-2]],[[2145,4086],[1,2]],[[2175,3977],[3,-1]],[[2188,3980],[-13,-3]],[[2188,3980],[-12,-5]],[[2279,3991],[-2,-1],[-3,0]],[[2274,3990],[-43,-11],[-31,5],[-2,-1]],[[2198,3983],[-4,-1],[-6,-2]],[[2190,3980],[41,-1],[45,11]],[[2276,3990],[1,0],[6,1],[1,1]],[[2284,3992],[5,7]],[[2191,3624],[-1,-3]],[[2191,3620],[0,4]],[[2197,3983],[1,0]],[[2198,3983],[1,1]],[[2229,4025],[40,1],[-41,-2]],[[2269,3989]],[[2271,3989],[3,1]],[[2274,3990],[2,0]],[[2276,3990],[2,0]],[[2278,3991],[-7,-1]],[[2275,3930],[2,-12]],[[2277,3918],[-2,12]],[[2284,3992]],[[2284,3992],[-6,-1]],[[2278,3990],[5,1],[1,1]],[[2345,4096],[-40,-57]],[[2305,4039],[40,57]],[[2021,4074],[-2,-1],[1,-2],[2,1],[-1,2]],[[2141,4074],[-1,0],[0,-1],[1,0],[0,1]],[[135,3346],[-8,-13]],[[128,3332],[8,14]],[[13,3430],[-13,11]],[[2386,3903],[-19,-26]],[[2368,3876],[19,27]],[[186,3342],[11,-5]],[[197,3337],[-11,6]],[[197,3337],[3,-3]],[[200,3335],[-3,2]],[[1120,3829],[-1,4]],[[2231,4070],[-1,-11]],[[2230,4059],[-2,-35],[-23,-26]],[[2205,3998],[-17,-18]],[[2199,3984],[6,14]],[[2205,3998],[25,61]],[[2230,4059],[5,11]],[[185,3343],[-1,0],[1,-1],[1,0],[-1,1]],[[197,3336],[0,1],[0,-1]],[[242,3505],[3,-17]],[[245,3488],[26,-3]],[[2705,4096],[-52,-260],[-78,-102],[-24,-29]],[[2551,3705],[-76,-93],[-2,0]],[[2473,3612],[-182,-17],[-65,-38]],[[2227,3556],[64,38],[180,15],[2,3]],[[2473,3612],[78,93]],[[2551,3705],[24,29],[79,102],[52,260]],[[2207,3910],[52,8]],[[2249,3918],[-42,-7]],[[2396,3306],[0,1]],[[471,4008],[-20,-195],[87,-70],[10,-45],[14,10],[2,-76]],[[533,4096],[1,-2]],[[561,3631],[2,-5]],[[563,3626],[-1,4]],[[66,3477],[-2,-1]],[[895,3377],[-34,-61],[-11,-106],[-113,-241],[-17,-85],[31,-86],[-37,-49]],[[206,3521],[3,-7]],[[209,3515],[-2,17]],[[563,3631],[-1,1]],[[2379,252],[-80,-145],[-15,-107]],[[2285,0],[15,107],[79,145]],[[2493,880],[-68,-237],[32,-100],[-78,-289]],[[2380,254],[78,289],[-33,100],[69,237]],[[2572,1664],[2,3]],[[2575,1669],[-1,-1]],[[2575,1667],[1,1]],[[2675,2121],[-1,-1]],[[2675,2120],[0,1]],[[237,3520],[5,-12]],[[0,3183],[18,21],[-16,41]],[[49,3281],[-40,-27]],[[138,3345],[-6,-6]],[[132,3339],[-5,-6]],[[128,3332],[4,7]],[[132,3339],[5,6]],[[208,3791],[0,-2],[-1,-1]],[[207,3788]],[[207,3788],[-1,-1]],[[207,3787],[2,4]],[[208,3790],[-1,-1],[0,-1]],[[207,3788]],[[207,3788]],[[208,3790],[-1,-1],[0,-1]],[[207,3788]],[[207,3788]],[[209,3791],[-1,-1]],[[209,3791],[1,0]],[[210,3791],[0,1]],[[214,3790],[-4,1]],[[214,3790],[0,-1]],[[214,3790]],[[215,3789]],[[240,3772],[-21,9]],[[303,3789],[7,-26],[-69,8]],[[292,4096],[-29,-117]],[[263,3978],[86,-92],[-18,-34]],[[303,3789],[4,35]],[[307,3825],[-4,-36]],[[331,3852],[-24,-27]],[[307,3825],[24,27]],[[2145,4086],[-10,-26]],[[2135,4060],[10,26]],[[295,3568],[8,-45],[82,-1],[120,81],[162,48],[18,-42],[67,-39],[97,11]],[[398,3535],[-15,-12],[-80,12],[-8,33]],[[1828,3335],[-79,104]],[[1829,3333],[24,-22]],[[1894,3519],[-40,-208]],[[1854,3311],[1,-9]],[[1854,3311],[41,208]],[[1854,3311],[-1,0],[1,0]],[[1854,3311]],[[1879,3297],[-21,12]],[[1858,3309],[-4,2]],[[1855,3302],[1,0]],[[1856,3302],[-1,0]],[[1855,3302],[22,-7]],[[1856,3302],[2,7]],[[1858,3309]],[[1966,3845],[-50,-49]],[[1916,3795],[29,19],[21,31]],[[1968,3847],[-2,-2]],[[1974,3810],[-8,-29]],[[1966,3781],[1,-15]],[[1967,3765],[-1,16]],[[1966,3845],[3,2]],[[1981,3856],[27,21]],[[2008,3877],[-27,-20]],[[2123,4020],[-18,-5],[-7,-6]],[[2098,4009],[0,-1]],[[2098,4008],[-51,-42],[-2,-2],[-27,-78]],[[2020,3888],[26,76],[1,1],[51,43]],[[2098,4008]],[[2098,4008],[8,6],[16,5]],[[2079,4064],[0,-1],[19,-55]],[[2098,4008]],[[2098,4008],[23,-66],[6,-4]],[[2127,3939],[-5,3],[-24,66]],[[2098,4008],[0,1]],[[2098,4009],[-19,54],[0,1]],[[2215,4079],[-1,-2]],[[2219,4073],[8,-3]],[[2243,4076],[-18,-2]],[[2248,4071],[-4,5]],[[2352,3844],[15,32]],[[2366,3876],[-10,-16]],[[2396,3915],[-10,-12]],[[2387,3903],[10,11]],[[2391,3897],[17,-16]],[[2408,3882],[-16,16]],[[1828,3333],[1,0]],[[1829,3333],[0,1],[-1,-1]],[[1897,3312],[1,-1],[0,1],[-1,0]],[[1966,3845]],[[2262,3920],[-1,-1],[1,-1],[1,1],[-1,1]],[[2367,3877],[-1,0],[0,-1],[1,0],[0,1]],[[389,3467],[-25,-12]],[[237,3129],[-25,-4],[-32,-64],[-21,10]],[[973,3575],[-220,-5],[-67,39],[-18,42],[-164,-46],[-106,-70]],[[202,3503],[0,-1]],[[202,3502],[4,-8]],[[207,3494],[-5,8]],[[266,3277],[11,-112],[-39,-35]],[[266,3278],[0,-1]],[[266,3277],[1,1]],[[0,2271],[76,59]],[[270,3543],[3,-1]],[[273,3543],[-3,0]],[[305,3524],[5,-3]],[[2276,4096],[-7,-5]],[[144,3550],[-13,-5]],[[172,3556],[-28,-6]],[[207,3532],[22,57]],[[228,3589],[-11,-20]],[[203,3465],[-12,-37]],[[192,3427],[11,38]],[[10,3563],[22,-4]],[[32,3560],[-22,3]],[[236,3522]],[[233,3670],[-2,-9]],[[231,3661],[1,2],[1,7]],[[239,3617],[0,-1]],[[239,3616],[1,1]],[[191,3428],[-4,-8],[-13,-32],[-14,-23]],[[161,3366],[14,22],[8,18]],[[187,3420],[5,7]],[[2276,4094],[1,2]],[[0,987],[129,8],[119,-57]],[[2277,3918],[-20,-68]],[[2257,3850],[20,68]],[[247,3603],[3,-2]],[[252,3600],[-4,4]],[[1042,1146],[-28,-80],[-110,-55],[-50,-301],[21,-154],[-106,-66],[-3,-154],[-110,-53],[-42,-49],[-67,-205],[-47,-29]],[[1055,1167],[-12,-20]],[[1054,1696],[30,-171]],[[1096,1825],[-38,-108]],[[1085,1524],[17,-90]],[[1103,1863],[-7,-37]],[[1167,2707],[46,-270],[-110,-571]],[[1165,2838],[-3,-108]],[[1197,2956],[-25,-93]],[[1217,3050],[-19,-91]],[[1221,3169],[-4,-86]],[[1235,3205],[-14,-35]],[[203,3465]],[[104,3520],[-2,1]],[[102,3520],[3,-2]],[[76,2330],[-76,38]],[[151,2986],[-17,64],[25,21]],[[695,2401],[-52,-104],[30,-70],[-4,-351],[-11,-45],[-38,-21],[-40,-201],[15,-61]],[[701,2438],[-15,199],[27,112]],[[973,3575],[44,-89],[-40,-65],[-82,-44]],[[17,3470],[-7,5]],[[227,3599],[5,5]],[[313,3748],[5,-33],[-37,-37]],[[283,3676],[37,40],[-7,32]],[[309,3762],[4,-14]],[[139,3604],[0,-2],[0,-2]],[[139,3600],[3,-16]],[[140,3586],[-1,13],[0,1]],[[139,3600],[0,2],[1,2]],[[137,3345],[8,-2]],[[143,3344],[-5,1]],[[693,1189],[1,-129],[-99,-107]],[[123,3549],[-25,-147]],[[98,3402],[29,126],[-4,21]],[[107,3394],[29,-43]],[[137,3351],[0,4],[-6,18],[-3,5],[-20,16]],[[139,3578],[2,2],[1,3]],[[141,3582],[-2,-3]],[[3995,4096],[74,-78]],[[4069,4018],[27,-24]],[[4096,3994],[-27,24]],[[364,3455],[25,11]],[[183,3406],[4,14]],[[2210,3587],[2,-3]],[[2212,3584],[-2,3]],[[2228,3555],[54,-115],[23,-135]],[[2306,3305],[-23,135],[-54,115]],[[310,3762]],[[687,2418],[1,-11]],[[687,2419],[10,18]],[[695,2403],[-7,3]],[[2046,4096],[2,-22]],[[2048,4073],[-2,23]],[[2,3245],[7,9]],[[0,4096],[4096,0],[0,-4096],[-4096,0],[0,4096]],[[90,2447],[126,29],[15,59],[78,90],[-59,40],[3,34],[-50,38],[-25,63],[-66,-10],[19,37],[60,-18],[-32,53],[63,-5],[47,76],[119,-55],[87,33],[24,-149],[-30,-2],[-10,-98],[-86,-128],[-81,-52],[-62,-110],[-116,-2],[-24,77]],[[210,2795],[17,-34],[4,1],[-16,46],[-5,-13]],[[0,3460],[16,24],[54,-9],[-32,15],[63,33],[-50,-14],[-12,24],[57,7],[-13,33],[38,-28],[28,52],[76,-5],[-60,20],[11,22],[21,-23],[11,1],[-31,44],[-6,66],[27,9],[-26,47],[54,-67],[49,14],[-42,-27],[7,-20],[34,18],[-26,-39],[52,-8],[-15,-27],[-28,18],[-14,-1],[47,-26],[-44,-10],[40,-18],[-21,-43],[36,-15],[-30,-81],[12,-41],[-26,2],[21,-37],[-30,32],[21,-45],[-24,20],[-19,3],[30,-30],[-1,-16],[-19,23],[12,-23],[-19,-2],[-2,27],[2,-37],[-31,16],[18,-26],[-39,-11],[8,40],[-23,25],[-69,-40],[-35,48],[24,-26],[14,22],[8,-28],[-8,40],[24,25],[-68,-16],[-39,40],[24,25],[-37,-1],[0,5]],[[2342,3322],[165,39],[4,-35],[31,5],[5,-30],[-174,-29],[29,44],[-60,6]],[[15,3898],[12,57],[56,-43],[1,46],[-42,18],[18,18],[65,-48],[-2,44],[63,39],[-4,-39],[26,-24],[-26,-73],[37,-22],[-18,-37],[19,-40],[-55,23],[0,31],[-35,5],[-20,37],[-73,-38],[-22,46]],[[282,2984],[41,162],[105,31],[-40,88],[72,36],[-74,35],[-8,30],[54,5],[44,-35],[11,-51],[-25,-61],[35,-58],[-34,-20],[-11,-79],[35,-35],[-2,-89],[-93,-34],[-108,53],[-2,22]],[[0,803],[0,155],[73,0],[-29,-102],[-44,-53]],[[679,923],[-89,1],[14,77],[80,97],[2,91],[38,-3],[142,-119],[15,-67],[-202,-77]],[[1172,1341],[65,0],[31,-125],[-128,-27],[0,-38],[-144,26],[57,47],[-41,99],[41,53],[78,23],[41,-20],[0,-38]],[[1916,3273],[-194,39],[24,124],[74,68],[97,20],[97,-23],[0,-46],[-65,-68],[-33,-114]],[[2414,4096],[-44,-102],[64,-190],[-83,34],[18,80],[-162,0],[-4,-42],[70,-34],[0,-76],[32,-37],[-29,-102],[-40,-33],[-61,-17],[-85,31],[-54,117],[-135,79],[-17,76],[97,-38],[0,152],[-36,7],[-92,95],[561,0]],[[0,3408],[0,168],[49,-1],[209,100],[40,-22],[-51,-198],[-75,-65],[-121,-6],[-12,41],[-39,-17]],[[220,0],[11,58],[60,5],[21,-54],[24,-9],[-116,0]],[[1527,1037],[32,92],[-6,66],[12,18],[36,-14],[9,59],[8,-6],[-1,12],[2,7],[30,11],[-6,-18],[36,-11],[-42,-4],[24,-49],[-21,-21],[23,-7],[-57,-17],[-29,-40],[30,-48],[-9,-33],[-71,3]],[[809,3786],[17,65],[38,11],[23,-39],[53,-14],[11,-43],[-80,-29],[-62,49]],[[160,1514],[30,101],[72,27],[5,-48],[-54,-73],[-26,-29],[-27,22]]]}