{"objects":{"water":{"type":"GeometryCollection","geometries":[]},"buildings":{"type":"GeometryCollection","geometries":[]},"places":{"type":"GeometryCollection","geometries":[{"type":"Point","properties":{"name:pt":"Mar Vermelho","name:ar":"\u0627\u0644\u0628\u062d\u0631 \u0627\u0644\u0623\u062d\u0645\u0631","min_zoom":4.0,"name:it":"Mar Rosso","name:sv":"R\u00f6da havet","name:ru":"\u041a\u0440\u0430\u0441\u043d\u043e\u0435 \u043c\u043e\u0440\u0435","id":321446175,"population":695874,"kind":"region","name:en":"Red Sea State","name":"Red Sea State \u0627\u0644\u0628\u062d\u0631 \u0627\u0644\u0623\u062d\u0645\u0631","kind_detail":"state","name:de":"Rotes Meer","source":"openstreetmap.org","name:fr":"Mer Rouge","name:es":"Mar Rojo"},"coordinates":[2458,2135]}]},"transit":{"type":"GeometryCollection","geometries":[]},"pois":{"type":"GeometryCollection","geometries":[]},"boundaries":{"type":"GeometryCollection","geometries":[]},"roads":{"type":"GeometryCollection","geometries":[]},"earth":{"type":"GeometryCollection","geometries":[{"type":"Polygon","properties":{"sort_rank":10,"source":"naturalearthdata.com","kind":"earth","min_zoom":0.0,"id":4715},"arcs":[[0]]}]},"landuse":{"type":"GeometryCollection","geometries":[]}},"type":"Topology","transform":{"translate":[35.15625,19.3111433551],"scale":[0.0003433228,0.0003226662]},"arcs":[[[4096,4096],[0,-4096],[-4096,0],[0,4096],[4096,0]]]}