{"objects":{"water":{"type":"GeometryCollection","geometries":[{"type":"Polygon","properties":{"source":"naturalearthdata.com","kind":"ocean","area":1576712559132672,"sort_rank":200,"min_zoom":0.0,"id":1},"arcs":[[2]]},{"type":"LineString","properties":{"source":"naturalearthdata.com","kind":"ocean","sort_rank":205,"boundary":true,"min_zoom":0.0,"id":44},"arcs":[3]}]},"buildings":{"type":"GeometryCollection","geometries":[]},"places":{"type":"GeometryCollection","geometries":[{"type":"Point","properties":{"source":"naturalearthdata.com","kind":"locality","name":"Vilanculos","population":177,"min_zoom":7.0,"id":2816},"coordinates":[467,3918]}]},"transit":{"type":"GeometryCollection","geometries":[]},"pois":{"type":"GeometryCollection","geometries":[]},"boundaries":{"type":"GeometryCollection","geometries":[{"type":"LineString","properties":{"name:kg":"Musambiki","name:ka":"\u10db\u10dd\u10d6\u10d0\u10db\u10d1\u10d8\u10d9\u10d8","name:ko":"\ubaa8\uc7a0\ube44\ud06c","name:cv":"\u041c\u043e\u0437\u0430\u043c\u0431\u0438\u043a","name:cs":"Mosambik","name:co":"Mozambicu","name:tk":"Mozambik","name:ku":"Mozamb\u00eek","name:ti":"\u121e\u12db\u121d\u1262\u12ad","name:tl":"Musambik","name:ce":"\u041c\u043e\u0437\u0430\u043c\u0431\u0438\u043a","name:ta":"\u0bae\u0bca\u0b9a\u0bbe\u0bae\u0bcd\u0baa\u0bbf\u0b95\u0bcd","name:tg":"\u041c\u043e\u0437\u0430\u043c\u0431\u0438\u043a","name:ca":"Mo\u00e7ambic","name:cy":"Mosambic","name:qu":"Musambik","name:da":"Mozambique","name:de":"Mosambik","source":"openstreetmap.org","name:kn":"\u0cae\u0cca\u0c9c\u0cbe\u0c82\u0cac\u0cbf\u0c95\u0ccd","name:dv":"\u0789\u07aa\u0790\u07a8\u0782\u07b0\u0784\u07a9","name:lv":"Mozambika","name:lt":"Mozambikas","name:uz":"Mozambik","name:kk":"\u041c\u043e\u0437\u0430\u043c\u0431\u0438\u043a","name:ur":"\u0645\u0648\u0632\u0645\u0628\u06cc\u0642","name:lb":"Mosambik","name:la":"Mozambicum","name:uk":"\u041c\u043e\u0437\u0430\u043c\u0431\u0456\u043a","name:ug":"\u0645\u0648\u0632\u0627\u0645\u0628\u0649\u0643","name:li":"Mozambique","name:ln":"Mozamb\u00edki","name:el":"\u039c\u03bf\u03b6\u03b1\u03bc\u03b2\u03af\u03ba\u03b7","name:eo":"Mozambiko","name:en":"Mozambique","name":"Mo\u00e7ambique","name:th":"\u0e1b\u0e23\u0e30\u0e40\u0e17\u0e28\u0e42\u0e21\u0e0b\u0e31\u0e21\u0e1a\u0e34\u0e01","name:eu":"Mozambike","name:et":"Mosambiik","name:es":"Mozambique","name:ia":"Mozambique","name:az":"Mozambik","name:ie":"Mozambique","name:id":"Mozambik","name:ar":"\u0645\u0648\u0632\u0645\u0628\u064a\u0642","name:io":"Mozambik","name:is":"M\u00f3samb\u00edk","name:am":"\u121e\u12db\u121d\u1262\u12ad","name:it":"Mozambico","name:an":"Mozambique","name:ru":"\u041c\u043e\u0437\u0430\u043c\u0431\u0438\u043a","name:rw":"Mozambike","name:af":"Mosambiek","name:zu":"IMozambiki","kind_detail":"2","name:zh-yue":"\u83ab\u4e09\u9f3b\u7d66","name:zh":"\u83ab\u6851\u6bd4\u514b","name:so":"Musanbiig","name:sn":"Mozambique","name:sl":"Mozambik","name:sk":"Mozambik","name:ja":"\u30e2\u30b6\u30f3\u30d3\u30fc\u30af","name:sh":"Mozambik","name:sg":"M\u00f6z\u00e4mb\u00eeka","name:se":"Mosambik","name:sc":"Mozambico","name:br":"Mozambik","name:bs":"Mozambik","name:bm":"Mozanbik","name:bn":"\u09ae\u09cb\u099c\u09be\u09ae\u09cd\u09ac\u09bf\u0995","name:bo":"\u0f58\u0f7c\u0f0b\u0f5b\u0f58\u0f0b\u0f56\u0f72\u0f40\u0f0d","name:sa":"\u092e\u094b\u091c\u092e\u094d\u092c\u0940\u0915","name:sw":"Msumbiji","name:be":"\u041c\u0430\u0437\u0430\u043c\u0431\u0456\u043a","name:su":"Mosambik","name:bg":"\u041c\u043e\u0437\u0430\u043c\u0431\u0438\u043a","name:ss":"IMozambikhi","name:sr":"\u041c\u043e\u0437\u0430\u043c\u0431\u0438\u043a","name:sq":"Mozambiku","name:jv":"Mozambik","name:ps":"\u0645\u0648\u0632\u0645\u0628\u064a\u0642","name:oc":"Mo\u00e7ambic","min_zoom":8.0,"name:ro":"Mozambic","name:pa":"\u0a2e\u0a4b\u0a1c\u0a3c\u0a48\u0a02\u0a2c\u0a40\u0a15","name:os":"\u041c\u043e\u0437\u0430\u043c\u0431\u0438\u043a","name:or":"\u0b2e\u0b4b\u0b1c\u0b3e\u0b2e\u0b4d\u0b2c\u0b3f\u0b15","name:pl":"Mozambik","sort_rank":262,"name:ba":"\u041c\u043e\u0437\u0430\u043c\u0431\u0438\u043a","osm_relation":true,"name:tr":"Mozambik","name:hi":"\u092e\u094b\u091c\u093c\u093e\u092e\u094d\u092c\u0940\u0915","name:he":"\u05de\u05d5\u05d6\u05de\u05d1\u05d9\u05e7","name:hy":"\u0544\u0578\u0566\u0561\u0574\u0562\u056b\u056f","name:ht":"Mozanbik","name:hu":"Mozambik","name:hr":"Mozambik","kind":"country","name:ts":"Mozambique","name:yi":"\u05de\u05d0\u05d6\u05d0\u05de\u05d1\u05d9\u05e7","name:yo":"M\u00f2s\u00e1mb\u00eck","name:mt":"Mo\u017cambik","name:ms":"Mozambique","name:mr":"\u092e\u094b\u091d\u093e\u0902\u092c\u093f\u0915","name:my":"\u1019\u102d\u102f\u1007\u1019\u103a\u1018\u1005\u103a\u1014\u102d\u102f\u1004\u103a\u1004\u1036","name:kw":"Mosambik","name:mg":"Mozambika","name:ve":"Mozambikwi","name:vi":"Mozambique","name:ml":"\u0d2e\u0d4a\u0d38\u0d3e\u0d02\u0d2c\u0d3f\u0d15\u0d4d\u0d15\u0d4d","name:mn":"\u041c\u043e\u0437\u0430\u043c\u0431\u0438\u043a","name:mi":"Mohapiki","id":-195273,"name:mk":"\u041c\u043e\u0437\u0430\u043c\u0431\u0438\u043a","name:vo":"Mozambik\u00e4n","name:fa":"\u0645\u0648\u0632\u0627\u0645\u0628\u06cc\u06a9","name:fi":"Mosambik","name:fo":"Mosambik","name:fr":"Mozambique","name:fy":"Mozambyk","name:nl":"Mozambique","name:nn":"Mosambik","name:no":"Mosambik","name:ny":"Mozambique","name:wo":"Mosambik","name:ga":"Poblacht Mh\u00f3saimb\u00edc","name:gd":"M\u00f2saimbic","name:gn":"Mosambike","name:gl":"Mozambique","maritime_boundary":true,"name:gv":"Yn Vosambeeck"},"arcs":[0]},{"type":"LineString","properties":{"kind":"region","name":"Inhambane","sort_rank":256,"kind_detail":"4","min_zoom":8.0,"source":"openstreetmap.org","maritime_boundary":true,"id":-2908439,"osm_relation":true},"arcs":[1]}]},"roads":{"type":"GeometryCollection","geometries":[{"type":"MultiLineString","properties":{"kind":"major_road","network":"mz","sort_rank":381,"kind_detail":"trunk","source":"openstreetmap.org","min_zoom":8.0,"shield_text":"1","ref":"N1"},"arcs":[[4],[5]]}]},"earth":{"type":"GeometryCollection","geometries":[{"type":"Polygon","properties":{"sort_rank":10,"source":"naturalearthdata.com","kind":"earth","min_zoom":0.0,"id":4687},"arcs":[[6]]}]},"landuse":{"type":"GeometryCollection","geometries":[{"type":"Polygon","properties":{"kind":"park","area":1648480000,"sort_rank":24,"source":"openstreetmap.org","min_zoom":4.0,"tier":2,"id":-3401250,"osm_relation":true},"arcs":[[7]]}]}},"type":"Topology","transform":{"translate":[35.15625,-23.2413461024],"scale":[0.0003433228,0.0003169679]},"arcs":[[[1616,0],[-2,195],[219,377],[95,341],[5,111],[-38,193],[-97,176],[-127,121],[-3,39],[8,216],[-32,270],[101,489],[12,366],[-35,272],[34,178],[5,217],[-57,197],[-68,113],[-91,97],[-207,128]],[[1152,0],[10,32],[40,467],[159,510],[-134,187],[-105,239],[-13,539],[68,489],[41,916],[-102,717]],[[955,0],[-18,74],[-6,66],[8,63],[20,51],[53,93],[113,281],[64,94],[106,217],[15,91],[-59,28],[0,-20],[22,-30],[-24,-17],[-47,1],[-51,23],[-3,-28],[-8,-19],[-29,-39],[-49,124],[-92,686],[10,395],[144,489],[7,67],[-20,208],[0,63],[40,390],[-20,0],[-8,-53],[-26,-76],[-11,-176],[-11,-54],[-23,-54],[-60,532],[11,75],[1,37],[-12,30],[-23,12],[-34,4],[-29,-14],[-13,-37],[-6,-7],[-15,-10],[-17,-9],[-13,-4],[-11,-8],[0,-19],[3,-22],[-3,-18],[-63,-91],[-15,-38],[27,-18],[73,-132],[-39,-51],[-27,22],[-34,93],[-18,-16],[-12,-20],[-1,-24],[11,-28],[-50,-117],[1,-155],[39,-154],[68,-115],[-66,-40],[-21,-47],[8,-138],[-19,-33],[-42,47],[-56,104],[-49,27],[-52,20],[-42,37],[-17,77],[1,135],[87,810],[-26,264],[-30,149],[-3,48],[3632,0],[0,-4096],[-3141,0]],[[955,0],[-18,74],[-6,66],[8,63],[20,51],[53,93],[113,281],[64,94],[106,217],[15,91],[-59,28],[0,-20],[22,-30],[-24,-17],[-47,1],[-51,23],[-3,-28],[-8,-19],[-29,-39],[-49,124],[-92,686],[10,395],[144,489],[7,67],[-20,208],[0,63],[40,390],[-20,0],[-8,-53],[-26,-76],[-11,-176],[-11,-54],[-23,-54],[-60,532],[11,75],[1,37],[-12,30],[-23,12],[-34,4],[-29,-14],[-13,-37],[-6,-7],[-15,-10],[-17,-9],[-13,-4],[-11,-8],[0,-19],[3,-22],[-3,-18],[-63,-91],[-15,-38],[27,-18],[73,-132],[-39,-51],[-27,22],[-34,93],[-18,-16],[-12,-20],[-1,-24],[11,-28],[-50,-117],[1,-155],[39,-154],[68,-115],[-66,-40],[-21,-47],[8,-138],[-19,-33],[-42,47],[-56,104],[-49,27],[-52,20],[-42,37],[-17,77],[1,135],[87,810],[-26,264],[-30,149],[-3,48]],[[601,0],[-171,284],[-151,400],[-130,218],[-149,558]],[[0,3755],[16,41],[-16,37]],[[464,4096],[3,-48],[30,-149],[26,-264],[-87,-810],[-1,-135],[17,-77],[42,-37],[52,-20],[49,-27],[56,-104],[42,-47],[19,33],[-8,138],[21,47],[66,40],[-68,115],[-39,154],[-1,155],[50,117],[-11,28],[1,24],[12,20],[18,16],[34,-93],[27,-22],[39,51],[-73,132],[-27,18],[15,38],[63,91],[3,18],[-3,22],[0,19],[11,8],[13,4],[17,9],[15,10],[6,7],[13,37],[29,14],[34,-4],[23,-12],[12,-30],[-1,-37],[-11,-75],[60,-532],[23,54],[11,54],[11,176],[26,76],[8,53],[20,0],[-40,-390],[0,-63],[20,-208],[-7,-67],[-144,-489],[-10,-395],[92,-686],[49,-124],[29,39],[8,19],[3,28],[51,-23],[47,-1],[24,17],[-22,30],[0,20],[59,-28],[-15,-91],[-106,-217],[-64,-94],[-113,-281],[-53,-93],[-20,-51],[-8,-63],[6,-66],[18,-74],[-955,0],[0,4096],[464,0]],[[1130,4096],[-9,-405],[-458,-15],[-69,420],[536,0]]]}