{"objects":{"water":{"type":"GeometryCollection","geometries":[]},"buildings":{"type":"GeometryCollection","geometries":[]},"places":{"type":"GeometryCollection","geometries":[{"type":"Point","properties":{"source":"openstreetmap.org","kind":"locality","name":"\u0421\u0442\u0440\u043e\u0438\u0442\u0435\u043b\u044c","kind_detail":"town","population":24185,"min_zoom":8.0,"id":2175442133},"coordinates":[3872,227]},{"type":"Point","properties":{"kind":"locality","name:en":"Oboyan'","name":"\u041e\u0431\u043e\u044f\u043d\u044c","kind_detail":"town","name:de":"Obojan","source":"openstreetmap.org","min_zoom":8.0,"id":336140698,"population":13422},"coordinates":[3262,2205]},{"type":"Point","properties":{"kind":"locality","name:en":"Rakitnoye","name":"\u0420\u0430\u043a\u0438\u0442\u043d\u043e\u0435","kind_detail":"town","name:de":"Rakitnoje","source":"openstreetmap.org","min_zoom":8.0,"name:it":"Rakitnoe","name:uk":"\u0420\u0430\u043a\u0438\u0442\u043d\u0435","id":580760898,"population":10418},"coordinates":[1969,451]},{"type":"Point","properties":{"kind":"locality","name:en":"Proletarskiy","name":"\u041f\u0440\u043e\u043b\u0435\u0442\u0430\u0440\u0441\u043a\u0438\u0439","kind_detail":"town","name:de":"Proletarski","source":"openstreetmap.org","min_zoom":8.0,"name:it":"Proletarskij","name:uk":"\u041f\u0440\u043e\u043b\u0435\u0442\u0430\u0440\u0441\u044c\u043a\u0438\u0439","old_name":"\u0413\u043e\u0442\u043d\u044f","id":981790620,"population":8977},"coordinates":[1793,258]},{"type":"Point","properties":{"kind":"locality","name:en":"Krasnopillia","name":"\u041a\u0440\u0430\u0441\u043d\u043e\u043f\u0456\u043b\u043b\u044f","kind_detail":"town","name:de":"Krasnopillja","source":"openstreetmap.org","min_zoom":8.0,"name:ru":"\u041a\u0440\u0430\u0441\u043d\u043e\u043f\u043e\u043b\u044c\u0435","name:pl":"krasnopole","id":337516321,"population":8905},"coordinates":[295,208]},{"type":"Point","properties":{"kind":"locality","name:en":"Krasnaya Yaruga","name":"\u041a\u0440\u0430\u0441\u043d\u0430\u044f \u042f\u0440\u0443\u0433\u0430","kind_detail":"town","name:de":"Krasnaja Jaruga","source":"openstreetmap.org","min_zoom":8.0,"name:it":"Krasnaja Jaruga","name:uk":"\u041a\u0440\u0430\u0441\u043d\u0430 \u042f\u0440\u0443\u0433\u0430","id":580758585,"population":7948},"coordinates":[1453,299]},{"type":"Point","properties":{"kind":"locality","name:en":"Ivnya","name":"\u0418\u0432\u043d\u044f","kind_detail":"town","source":"openstreetmap.org","min_zoom":8.0,"old_name":"\u041f\u0435\u0440\u0435\u0432\u0435\u0440\u0437\u0435\u0432\u043a\u0430, \u0422\u0440\u043e\u0438\u0446\u043a\u043e\u0435","id":336140749,"population":7573},"coordinates":[2858,1514]},{"type":"Point","properties":{"kind":"locality","name:en":"Sudzha","name":"\u0421\u0443\u0434\u0436\u0430","kind_detail":"town","name:ar":"\u0633\u0648\u062f\u062c\u0627","min_zoom":8.0,"name:de":"Sudscha","source":"openstreetmap.org","name:fr":"Soudja","name:az":"Sudja","name:pl":"Sud\u017ca","id":336140766,"population":5684},"coordinates":[334,2111]},{"type":"Point","properties":{"kind":"locality","name:en":"Medvenka","name":"\u041c\u0435\u0434\u0432\u0435\u043d\u043a\u0430","kind_detail":"town","source":"openstreetmap.org","min_zoom":8.0,"id":336140669,"population":4316},"coordinates":[2801,3165]},{"type":"Point","properties":{"kind":"locality","name:en":"Uhroidy","name":"\u0423\u0433\u0440\u043e\u0457\u0434\u0438","kind_detail":"town","source":"openstreetmap.org","min_zoom":8.0,"name:ru":"\u0423\u0433\u0440\u043e\u0435\u0434\u044b","id":337514893,"population":2360},"coordinates":[332,573]}]},"transit":{"type":"GeometryCollection","geometries":[{"type":"MultiLineString","properties":{"source":"openstreetmap.org","kind":"train","name":"\u0411\u0435\u043b\u0433\u043e\u0440\u043e\u0434 - \u0413\u043e\u0442\u043d\u044f","sort_rank":275,"ref":"\u0411\u0435\u043b\u0433\u043e\u0440\u043e\u0434 - \u0413\u043e\u0442\u043d\u044f","min_zoom":6.0,"osm_relation":true},"arcs":[[6],[7],[8]]},{"type":"LineString","properties":{"kind":"train","name":"\u0413\u043e\u0442\u043d\u044f - \u0425\u043e\u0442\u043c\u044b\u0436\u0441\u043a","sort_rank":275,"source":"openstreetmap.org","min_zoom":6.0,"ref":"\u0413\u043e\u0442\u043d\u044f - \u0425\u043e\u0442\u043c\u044b\u0436\u0441\u043a","id":-7173436,"osm_relation":true},"arcs":[9]},{"type":"MultiLineString","properties":{"source":"openstreetmap.org","kind":"train","name":"\u041a\u0443\u0440\u0441\u043a - \u0413\u043b\u0443\u0448\u043a\u043e\u0432\u043e","sort_rank":275,"ref":"\u041a\u0443\u0440\u0441\u043a - \u0413\u043b\u0443\u0448\u043a\u043e\u0432\u043e","min_zoom":6.0,"osm_relation":true},"arcs":[[10],[11]]},{"type":"LineString","properties":{"source":"openstreetmap.org","kind":"train","name":"\u041a\u0443\u0440\u0441\u043a - \u0411\u0435\u043b\u0433\u043e\u0440\u043e\u0434","sort_rank":275,"ref":"\u041a\u0443\u0440\u0441\u043a - \u0411\u0435\u043b\u0433\u043e\u0440\u043e\u0434","min_zoom":6.0,"osm_relation":true},"arcs":[12]}]},"pois":{"type":"GeometryCollection","geometries":[]},"boundaries":{"type":"GeometryCollection","geometries":[{"type":"MultiLineString","properties":{"name:kg":"Ukrayina","name:ka":"\u10e3\u10d9\u10e0\u10d0\u10d8\u10dc\u10d0","name:ko":"\uc6b0\ud06c\ub77c\uc774\ub098","name:cv":"\u0423\u043a\u0440\u0430\u0438\u043d\u0430","name:cu":"\u041e\u0443\u043a\u0440\u0430\u0438\u043d\u0430","name:kl":"Ukraine","name:cs":"Ukrajina","name:tw":"Ukraine","name:tt":"\u0423\u043a\u0440\u0430\u0438\u043d\u0430","name:kw":"Ukrayn","name:kv":"\u0423\u043a\u0440\u0430\u0438\u043d\u0430","name:th":"\u0e1b\u0e23\u0e30\u0e40\u0e17\u0e28\u0e22\u0e39\u0e40\u0e04\u0e23\u0e19","name:tl":"Ukranya","name:ce":"\u0423\u043a\u0440\u0430\u0438\u043d\u0430","name:ta":"\u0b89\u0b95\u0bcd\u0bb0\u0bc8\u0ba9\u0bcd","name:tg":"\u0423\u043a\u0440\u0430\u0439\u0438\u043d\u0430","name:ca":"Ucra\u00efna","name:te":"\u0c09\u0c15\u0c4d\u0c30\u0c46\u0c2f\u0c3f\u0c28\u0c4d","name:cy":"Wcr\u00e1in","name:hr":"Ukrajina","name:da":"Ukraine","name:de":"Ukraine","source":"openstreetmap.org","name:kn":"\u0caf\u0cc1\u0c95\u0ccd\u0cb0\u0cc7\u0ca8\u0ccd","name:dv":"\u0794\u07aa\u0786\u07b0\u0783\u07ac\u0787\u07a8\u0782\u07b0","name:km":"\u17a2\u17ca\u17bb\u1799\u1780\u17d2\u179a\u17c2\u1793","name:lv":"Ukraina","name:lt":"Ukraina","name:uz":"Ukraina","name:kk":"\u0423\u043a\u0440\u0430\u0438\u043d\u0430","name:ur":"\u06cc\u0648\u06a9\u0631\u06cc\u0646","name:lb":"Ukrain","name:la":"Ucraina","name:ug":"\u0626\u06c7\u0643\u0631\u0627\u0626\u0649\u0646\u0627","name:li":"Oekra\u00efne","name:ln":"Ukraine","name:el":"\u039f\u03c5\u03ba\u03c1\u03b1\u03bd\u03af\u03b1","name:eo":"Ukrainujo","name:en":"Ukraine","name":"\u0423\u043a\u0440\u0430\u0457\u043d\u0430","name:tk":"Ukraina","name:ee":"Ukraine","name:ku":"\u00dbkrayna","name:eu":"Ukraina","name:et":"Ukraina","name:es":"Ucrania","name:ia":"Ukraina","name:rm":"Ucraina","name:az":"Ukrayna","name:ie":"Ucraina","name:id":"Ukraina","name:ig":"Yukrain","name:ar":"\u0623\u0648\u0643\u0631\u0627\u0646\u064a\u0627","name:io":"Ukrainia","name:is":"\u00dakra\u00edna","name:am":"\u12e9\u12ad\u122c\u1295","name:it":"Ucraina","name:an":"Ucra\u00edna","name:ru":"\u0423\u043a\u0440\u0430\u0438\u043d\u0430","name:ab":"\u0423\u043a\u0440\u0430\u0438\u043d\u0430","name:af":"Oekra\u00efne","kind_detail":"2","name:ky":"\u0423\u043a\u0440\u0430\u0438\u043d\u0430","name:zh-yue":"\u70cf\u514b\u862d","name:zh":"\u4e4c\u514b\u5170","name:so":"Ukrain","name:sn":"Ukraine","name:sm":"Ukraine","name:sl":"Ukrajina","name:sk":"Ukrajina","name:ja":"\u30a6\u30af\u30e9\u30a4\u30ca","name:sh":"Ukrajina","name:se":"Ukraina","name:sc":"Ucraina","name:br":"Ukraina","name:bs":"Ukrajina","name:bn":"\u0987\u0989\u0995\u09cd\u09b0\u09c7\u09a8","name:bo":"\u0f68\u0f74\u0f40\u0f0b\u0f62\u0f61\u0f72\u0f0b\u0f53\u0f72\u0f0d","name:bi":"Ukraine","name:sw":"Ukraine","name:be":"\u0423\u043a\u0440\u0430\u0456\u043d\u0430","name:su":"Ukraina","name:bg":"\u0423\u043a\u0440\u0430\u0439\u043d\u0430","name:ss":"IYukhureni","name:ba":"\u0423\u043a\u0440\u0430\u0438\u043d\u0430","name:sq":"Ukraina","name:jv":"Ukraina","name:pt":"Ucr\u00e2nia","name:ps":"\u0627\u0648\u06a9\u0631\u0627\u06cc\u0646","name:oc":"Ucra\u00efna","min_zoom":8.0,"name:ro":"Ucraina","name:zh-min-nan":"Ukrayina","name:os":"\u0423\u043a\u0440\u0430\u0438\u043d\u00e6","name:or":"\u0b5f\u0b41\u0b15\u0b4d\u0b30\u0b47\u0b28","name:pl":"Ukraina","sort_rank":262,"name:sr":"\u0423\u043a\u0440\u0430\u0458\u0438\u043d\u0430","osm_relation":true,"name:pa":"\u0a2f\u0a42\u0a15\u0a4d\u0a30\u0a47\u0a28","name:tr":"Ukrayna","name:hi":"\u092f\u0941\u0915\u094d\u0930\u0947\u0928","name:sv":"Ukraina","name:he":"\u05d0\u05d5\u05e7\u05e8\u05d0\u05d9\u05e0\u05d4","name:hy":"\u0548\u0582\u056f\u0580\u0561\u056b\u0576\u0561","name:ht":"Ikr\u00e8n","name:hu":"Ukrajna","name:qu":"Ukranya","kind":"country","name:ts":"Ukraine","name:yi":"\u05d0\u05d5\u05e7\u05e8\u05d0\u05d9\u05e0\u05e2","name:yo":"Ukr\u00e9\u00ecn","name:mt":"Ukrajna","alt_name:eo":"Ukrainio","name:ms":"Ukraine","name:mr":"\u092f\u0941\u0915\u094d\u0930\u0947\u0928","name:my":"\u101a\u1030\u1000\u101b\u102d\u1014\u103a\u1038\u1014\u102d\u102f\u1004\u103a\u1004\u1036","int_name":"Ukraine","name:mg":"Okraina","name:ml":"\u0d09\u0d15\u0d4d\u0d30\u0d48\u0d7b","name:vi":"Ukraina","name:mn":"\u0423\u043a\u0440\u0430\u0439\u043d","name:mi":"\u016akareinga","id":-60199,"name:mk":"\u0423\u043a\u0440\u0430\u0438\u043d\u0430","name:vo":"Lukray\u00e4n","name:fa":"\u0627\u0648\u06a9\u0631\u0627\u06cc\u0646","name:rw":"Ikerene","name:fi":"Ukraina","old_name:vi":"\u00d4 Kh\u1eafc Lan","name:fo":"Ukraina","alt_name:vi":"Uy Ki\u00ean","name:fr":"Ukraine","name:fy":"Oekra\u00efne","name:nl":"Oekra\u00efne","name:nn":"Ukraina","name:no":"Ukraina","name:na":"Ukraine","name:ne":"\u092f\u0941\u0915\u094d\u0930\u0947\u0928","name:wa":"Oucrinne","name:wo":"Ukreen","name:nv":"Y\u00f3\u00f3kwein","name:ga":"An \u00dacr\u00e1in","name:gd":"An Ucr\u00e0in","name:gn":"Ukya\u00f1a","name:gl":"Ucra\u00edna","name:gv":"Yn Ookraan","name:gu":"\u0aaf\u0ac1\u0a95\u0acd\u0ab0\u0ac7\u0aa8"},"arcs":[[0],[1]]},{"type":"LineString","properties":{"name:right:hy":"\u053f\u0578\u0582\u0580\u057d\u056f\u056b \u0574\u0561\u0580\u0566","name:right:uk":"\u041a\u0443\u0440\u0441\u044c\u043a\u0430 \u043e\u0431\u043b\u0430\u0441\u0442\u044c","name:left:sv":"Belgorod oblast","name:right:hu":"Kurszki ter\u00fclet","name:left:sr":"\u0411\u0435\u043b\u0433\u043e\u0440\u043e\u0434\u0441\u043a\u0430 \u043e\u0431\u043b\u0430\u0441\u0442","min_zoom":8.0,"name:left:lt":"Belgorodo sritis","name:left:sh":"Belgorodska oblast","name:left:lv":"Belgorodas apgabals","name:right:he":"\u05de\u05d7\u05d5\u05d6 \u05e7\u05d5\u05e8\u05e1\u05e7","name:left:ce":"\u0411\u0435\u043b\u0433\u043e\u0440\u043e\u0434\u0430\u043d \u043e\u0431\u043b\u0430\u0441\u0442\u044c","name:left:ca":"Prov\u00edncia de B\u00e9lgorod","source":"openstreetmap.org","osm_relation":true,"name:right:az":"Kursk vilay\u0259ti","name:left:cs":"B\u011blgorodsk\u00e1 oblast","name:left":"\u0411\u0435\u043b\u0433\u043e\u0440\u043e\u0434\u0441\u043a\u0430\u044f \u043e\u0431\u043b\u0430\u0441\u0442\u044c","name:left:ka":"\u10d1\u10d4\u10da\u10d2\u10dd\u10e0\u10dd\u10d3\u10d8\u10e1 \u10dd\u10da\u10e5\u10d8","name:left:ro":"Regiunea Belgorod","name:left:kv":"\u0411\u0435\u043b\u0433\u043e\u0440\u043e\u0434 \u043e\u0431\u043b\u0430\u0441\u044c\u0442","name:right:ro":"Regiunea Kursk","name:right:en":"Kursk Oblast","kind":"region","name":"\u0411\u0435\u043b\u0433\u043e\u0440\u043e\u0434\u0441\u043a\u0430\u044f \u043e\u0431\u043b\u0430\u0441\u0442\u044c - \u041a\u0443\u0440\u0441\u043a\u0430\u044f \u043e\u0431\u043b\u0430\u0441\u0442\u044c","name:right:ba":"\u041a\u0443\u0440\u0441\u043a \u04e9\u043b\u043a\u04d9\u04bb\u0435","name:right:be":"\u041a\u0443\u0440\u0441\u043a\u0430\u044f \u0432\u043e\u0431\u043b\u0430\u0441\u0446\u044c","name:left:fr":"Oblast de Belgorod","name:right:cv":"\u041a\u0443\u0440\u0441\u043a \u043e\u0431\u043b\u0430\u00e7\u0115","name:left:hy":"\u0532\u0565\u056c\u0563\u0578\u0580\u0578\u0564\u056b \u0574\u0561\u0580\u0566","name:left:uz":"Belgorod viloyati","name:right:nl":"Oblast Koersk","name:right:fr":"Oblast de Koursk","id:right":-72223,"name:left:uk":"\u0411\u0454\u043b\u0433\u043e\u0440\u043e\u0434\u0441\u044c\u043a\u0430 \u043e\u0431\u043b\u0430\u0441\u0442\u044c","name:left:nl":"Oblast Belgorod","name:left:ba":"\u0411\u0435\u043b\u0433\u043e\u0440\u043e\u0434 \u04e9\u043b\u043a\u04d9\u04bb\u0435","name:left:bg":"\u0411\u0435\u043b\u0433\u043e\u0440\u043e\u0434\u0441\u043a\u0430 \u043e\u0431\u043b\u0430\u0441\u0442","name:left:be":"\u0411\u0435\u043b\u0433\u0430\u0440\u043e\u0434\u0441\u043a\u0430\u044f \u0432\u043e\u0431\u043b\u0430\u0441\u0446\u044c","id":-83184,"name:right":"\u041a\u0443\u0440\u0441\u043a\u0430\u044f \u043e\u0431\u043b\u0430\u0441\u0442\u044c","name:left:eo":"Belgoroda provinco","name:left:en":"Belgorod Oblast","name:left:el":"\u03a0\u03b5\u03c1\u03b9\u03c6\u03ad\u03c1\u03b5\u03b9\u03b1 \u039c\u03c0\u03ad\u03bb\u03b3\u03ba\u03bf\u03c1\u03bf\u03bd\u03c4","name:right:ca":"Prov\u00edncia de Kursk","kind_detail":"4","name:right:ce":"\u041a\u0443\u0440\u0441\u043a\u0430\u043d \u043e\u0431\u043b\u0430\u0441\u0442\u044c","name:left:pl":"Obw\u00f3d bie\u0142gorodzki","id:left":-83184,"name:left:es":"\u00d3blast de B\u00e9lgorod","name:right:cs":"Kursk\u00e1 oblast","name:left:et":"Belgorodi oblast","name:right:ka":"\u10d9\u10e3\u10e0\u10e1\u10d9\u10d8\u10e1 \u10dd\u10da\u10e5\u10d8","name:right:pt":"Oblast de Kursk","name:right:tt":"\u041a\u0443\u0440\u0441\u043a \u04e9\u043b\u043a\u04d9\u0441\u0435","name:left:tt":"\u0411\u0435\u043b\u0433\u043e\u0440\u043e\u0434 \u04e9\u043b\u043a\u04d9\u0441\u0435","name:left:az":"Belqorod vilay\u0259ti","name:right:tr":"Kursk Oblast\u0131","name:left:pt":"Oblast de Belgorod","name:left:af":"Belgorod-oblast","name:right:kv":"\u041a\u0443\u0440\u0441\u043a \u043e\u0431\u043b\u0430\u0441\u044c\u0442","name:right:pl":"Obw\u00f3d kurski","name:right:os":"\u041a\u0443\u0440\u0441\u0447\u044b \u043e\u0431\u043b\u00e6\u0441\u0442","name:right:de":"Oblast Kursk","name:left:de":"Oblast Belgorod","sort_rank":256},"arcs":[2]},{"type":"LineString","properties":{"name:right:hy":"\u054d\u0578\u0582\u0574\u056b\u056b \u0574\u0561\u0580\u0566","name:left:uz":"Belgorod viloyati","name:right:hr":"Sumska oblast","name:left:sv":"Belgorod oblast","name:right:hu":"Szumi ter\u00fclet","name:left:sr":"\u0411\u0435\u043b\u0433\u043e\u0440\u043e\u0434\u0441\u043a\u0430 \u043e\u0431\u043b\u0430\u0441\u0442","name:right:lt":"Sum\u0173 sritis","min_zoom":8.0,"name:left:lt":"Belgorodo sritis","name:left:hy":"\u0532\u0565\u056c\u0563\u0578\u0580\u0578\u0564\u056b \u0574\u0561\u0580\u0566","name:left:lv":"Belgorodas apgabals","name:right:os":"\u0421\u0443\u043c\u044b\u0439\u044b \u043e\u0431\u043b\u00e6\u0441\u0442","name:left:ce":"\u0411\u0435\u043b\u0433\u043e\u0440\u043e\u0434\u0430\u043d \u043e\u0431\u043b\u0430\u0441\u0442\u044c","name:left:ca":"Prov\u00edncia de B\u00e9lgorod","name:right:sk":"Sumsk\u00e1 oblas\u0165","source":"openstreetmap.org","name:right:ar":"\u0633\u0648\u0645\u064a \u0623\u0648\u0628\u0644\u0627\u0633\u062a","name:left:cs":"B\u011blgorodsk\u00e1 oblast","name:left":"\u0411\u0435\u043b\u0433\u043e\u0440\u043e\u0434\u0441\u043a\u0430\u044f \u043e\u0431\u043b\u0430\u0441\u0442\u044c","name:right:mk":"\u0421\u0443\u043c\u0441\u043a\u0430 \u043e\u0431\u043b\u0430\u0441\u0442","name:left:ka":"\u10d1\u10d4\u10da\u10d2\u10dd\u10e0\u10dd\u10d3\u10d8\u10e1 \u10dd\u10da\u10e5\u10d8","name:right:eu":"Sumyko oblasta","name:right:et":"Sum\u00f5 oblast","name:right:it":"Oblast' di Sumy","name:left:ro":"Regiunea Belgorod","name:right:vi":"Sumi (t\u1ec9nh)","name:right:es":"\u00d3blast de Sumy","name:left:kv":"\u0411\u0435\u043b\u0433\u043e\u0440\u043e\u0434 \u043e\u0431\u043b\u0430\u0441\u044c\u0442","name:right:ro":"Regiunea Sum\u00ee","name:right:mr":"\u0938\u0941\u092e\u0940 \u0913\u092c\u094d\u0932\u093e\u0938\u094d\u0924","name:right:id":"Oblast Sumy","name:right:eo":"Sumia provinco","name:right:en":"Sumy Oblast","kind":"region","name":"\u0411\u0435\u043b\u0433\u043e\u0440\u043e\u0434\u0441\u043a\u0430\u044f \u043e\u0431\u043b\u0430\u0441\u0442\u044c - \u0421\u0443\u043c\u0441\u044c\u043a\u0430 \u043e\u0431\u043b\u0430\u0441\u0442\u044c","name:right:fa":"\u0627\u0633\u062a\u0627\u0646 \u0633\u0648\u0645\u06cc","name:right:lv":"Sumu apgabals","name:right:be":"\u0421\u0443\u043c\u0441\u043a\u0430\u044f \u0432\u043e\u0431\u043b\u0430\u0441\u0446\u044c","name:left:fr":"Oblast de Belgorod","name:right:zh":"\u8607\u6885\u5dde","name:left:sh":"Belgorodska oblast","name:right:nn":"Sumy oblast","name:right:no":"Sumy oblast","name:right:nl":"Oblast Soemy","name:right:ja":"\u30b9\u30fc\u30e0\u30a3\u5dde","name:right:fr":"Oblast de Soumy","name:right:sr":"\u0421\u0443\u043c\u0441\u043a\u0430 \u043e\u0431\u043b\u0430\u0441\u0442","name:right:sv":"Sumy oblast","name:left:uk":"\u0411\u0454\u043b\u0433\u043e\u0440\u043e\u0434\u0441\u044c\u043a\u0430 \u043e\u0431\u043b\u0430\u0441\u0442\u044c","name:right:sh":"Sumska oblast","name:left:nl":"Oblast Belgorod","name:left:ba":"\u0411\u0435\u043b\u0433\u043e\u0440\u043e\u0434 \u04e9\u043b\u043a\u04d9\u04bb\u0435","name:left:bg":"\u0411\u0435\u043b\u0433\u043e\u0440\u043e\u0434\u0441\u043a\u0430 \u043e\u0431\u043b\u0430\u0441\u0442","name:left:be":"\u0411\u0435\u043b\u0433\u0430\u0440\u043e\u0434\u0441\u043a\u0430\u044f \u0432\u043e\u0431\u043b\u0430\u0441\u0446\u044c","id":-83184,"name:right":"\u0421\u0443\u043c\u0441\u044c\u043a\u0430 \u043e\u0431\u043b\u0430\u0441\u0442\u044c","name:left:eo":"Belgoroda provinco","name:left:en":"Belgorod Oblast","name:left:el":"\u03a0\u03b5\u03c1\u03b9\u03c6\u03ad\u03c1\u03b5\u03b9\u03b1 \u039c\u03c0\u03ad\u03bb\u03b3\u03ba\u03bf\u03c1\u03bf\u03bd\u03c4","name:right:ca":"Prov\u00edncia de Sumy","kind_detail":"4","id:left":-83184,"name:left:es":"\u00d3blast de B\u00e9lgorod","name:right:cs":"Sumsk\u00e1 oblast","name:right:fi":"Sumyn alue","id:right":-71250,"name:left:et":"Belgorodi oblast","name:right:ka":"\u10e1\u10e3\u10db\u10d8\u10e1 \u10dd\u10da\u10e5\u10d8","name:right:zh-min-nan":"Sumy s\u00e9ng","name:right:pt":"Oblast de Sumi","name:left:pl":"Obw\u00f3d bie\u0142gorodzki","name:left:tt":"\u0411\u0435\u043b\u0433\u043e\u0440\u043e\u0434 \u04e9\u043b\u043a\u04d9\u0441\u0435","name:left:az":"Belqorod vilay\u0259ti","name:right:ko":"\uc218\ubbf8 \uc8fc","name:right:bg":"\u0421\u0443\u043c\u0441\u043a\u0430 \u043e\u0431\u043b\u0430\u0441\u0442","name:left:pt":"Oblast de Belgorod","name:left:af":"Belgorod-oblast","name:right:ga":"C\u00faige Shumy","name:right:tr":"Sumi Oblast\u0131","name:right:ru":"\u0421\u0443\u043c\u0441\u043a\u0430\u044f \u043e\u0431\u043b\u0430\u0441\u0442\u044c","name:right:pl":"Obw\u00f3d sumski","osm_relation":true,"name:right:de":"Oblast Sumy","name:left:de":"Oblast Belgorod","sort_rank":256},"arcs":[3]},{"type":"MultiLineString","properties":{"name:right:hy":"\u054d\u0578\u0582\u0574\u056b\u056b \u0574\u0561\u0580\u0566","name:right:no":"Sumy oblast","name:left:he":"\u05de\u05d7\u05d5\u05d6 \u05e7\u05d5\u05e8\u05e1\u05e7","name:right:hr":"Sumska oblast","name:right:hu":"Szumi ter\u00fclet","name:right:lt":"Sum\u0173 sritis","min_zoom":8.0,"name:left:hy":"\u053f\u0578\u0582\u0580\u057d\u056f\u056b \u0574\u0561\u0580\u0566","name:left:hu":"Kurszki ter\u00fclet","name:right:os":"\u0421\u0443\u043c\u044b\u0439\u044b \u043e\u0431\u043b\u00e6\u0441\u0442","sort_rank":256,"name:left:ca":"Prov\u00edncia de Kursk","name:right:sk":"Sumsk\u00e1 oblas\u0165","source":"openstreetmap.org","name:right:ar":"\u0633\u0648\u0645\u064a \u0623\u0648\u0628\u0644\u0627\u0633\u062a","name:left:cv":"\u041a\u0443\u0440\u0441\u043a \u043e\u0431\u043b\u0430\u00e7\u0115","name:left:cs":"Kursk\u00e1 oblast","name:left":"\u041a\u0443\u0440\u0441\u043a\u0430\u044f \u043e\u0431\u043b\u0430\u0441\u0442\u044c","name:right:mk":"\u0421\u0443\u043c\u0441\u043a\u0430 \u043e\u0431\u043b\u0430\u0441\u0442","name:left:ka":"\u10d9\u10e3\u10e0\u10e1\u10d9\u10d8\u10e1 \u10dd\u10da\u10e5\u10d8","name:right:eu":"Sumyko oblasta","name:right:et":"Sum\u00f5 oblast","name:left:os":"\u041a\u0443\u0440\u0441\u0447\u044b \u043e\u0431\u043b\u00e6\u0441\u0442","name:right:it":"Oblast' di Sumy","name:left:ro":"Regiunea Kursk","name:right:vi":"Sumi (t\u1ec9nh)","name:left:kv":"\u041a\u0443\u0440\u0441\u043a \u043e\u0431\u043b\u0430\u0441\u044c\u0442","name:right:ro":"Regiunea Sum\u00ee","name:right:mr":"\u0938\u0941\u092e\u0940 \u0913\u092c\u094d\u0932\u093e\u0938\u094d\u0924","name:right:id":"Oblast Sumy","name:right:eo":"Sumia provinco","name:right:en":"Sumy Oblast","kind":"region","name":"\u041a\u0443\u0440\u0441\u043a\u0430\u044f \u043e\u0431\u043b\u0430\u0441\u0442\u044c - \u0421\u0443\u043c\u0441\u044c\u043a\u0430 \u043e\u0431\u043b\u0430\u0441\u0442\u044c","name:right:fa":"\u0627\u0633\u062a\u0627\u0646 \u0633\u0648\u0645\u06cc","name:right:lv":"Sumu apgabals","name:right:be":"\u0421\u0443\u043c\u0441\u043a\u0430\u044f \u0432\u043e\u0431\u043b\u0430\u0441\u0446\u044c","name:left:fr":"Oblast de Koursk","name:right:zh":"\u8607\u6885\u5dde","name:right:nn":"Sumy oblast","name:right:es":"\u00d3blast de Sumy","name:right:nl":"Oblast Soemy","name:right:ja":"\u30b9\u30fc\u30e0\u30a3\u5dde","name:right:fr":"Oblast de Soumy","name:right:sr":"\u0421\u0443\u043c\u0441\u043a\u0430 \u043e\u0431\u043b\u0430\u0441\u0442","id:right":-71250,"name:left:uk":"\u041a\u0443\u0440\u0441\u044c\u043a\u0430 \u043e\u0431\u043b\u0430\u0441\u0442\u044c","name:right:sh":"Sumska oblast","name:left:nl":"Oblast Koersk","name:left:ba":"\u041a\u0443\u0440\u0441\u043a \u04e9\u043b\u043a\u04d9\u04bb\u0435","name:left:be":"\u041a\u0443\u0440\u0441\u043a\u0430\u044f \u0432\u043e\u0431\u043b\u0430\u0441\u0446\u044c","id":-72223,"name:right":"\u0421\u0443\u043c\u0441\u044c\u043a\u0430 \u043e\u0431\u043b\u0430\u0441\u0442\u044c","name:left:en":"Kursk Oblast","name:right:ca":"Prov\u00edncia de Sumy","kind_detail":"4","id:left":-72223,"name:right:cs":"Sumsk\u00e1 oblast","name:right:fi":"Sumyn alue","name:right:ka":"\u10e1\u10e3\u10db\u10d8\u10e1 \u10dd\u10da\u10e5\u10d8","name:right:zh-min-nan":"Sumy s\u00e9ng","name:right:pt":"Oblast de Sumi","name:left:pl":"Obw\u00f3d kurski","name:left:tr":"Kursk Oblast\u0131","name:left:tt":"\u041a\u0443\u0440\u0441\u043a \u04e9\u043b\u043a\u04d9\u0441\u0435","name:left:az":"Kursk vilay\u0259ti","name:right:ko":"\uc218\ubbf8 \uc8fc","name:right:bg":"\u0421\u0443\u043c\u0441\u043a\u0430 \u043e\u0431\u043b\u0430\u0441\u0442","name:left:pt":"Oblast de Kursk","name:right:sv":"Sumy oblast","name:right:tr":"Sumi Oblast\u0131","name:right:ru":"\u0421\u0443\u043c\u0441\u043a\u0430\u044f \u043e\u0431\u043b\u0430\u0441\u0442\u044c","name:right:pl":"Obw\u00f3d sumski","osm_relation":true,"name:right:de":"Oblast Sumy","name:left:de":"Oblast Kursk","name:left:ce":"\u041a\u0443\u0440\u0441\u043a\u0430\u043d \u043e\u0431\u043b\u0430\u0441\u0442\u044c","name:right:ga":"C\u00faige Shumy"},"arcs":[[4],[5]]}]},"roads":{"type":"GeometryCollection","geometries":[{"type":"LineString","properties":{"bus_network":null,"network":"e-road","sort_rank":380,"kind_detail":"primary","kind":"major_road","source":"openstreetmap.org","min_zoom":8.0,"bus_shield_text":"36\u0410","shield_text":"38"},"arcs":[13]},{"type":"MultiLineString","properties":{"sort_rank":381,"source":"openstreetmap.org","min_zoom":8.0,"kind":"major_road","kind_detail":"trunk"},"arcs":[[14],[15],[16],[17]]},{"type":"LineString","properties":{"kind":"major_road","network":"ru:regional","sort_rank":381,"kind_detail":"trunk","source":"openstreetmap.org","min_zoom":8.0,"shield_text":"38\u041a","ref":"38\u041a-004;38\u041a-010","id":36784477},"arcs":[18]},{"type":"LineString","properties":{"source":"openstreetmap.org","kind":"major_road","network":"e-road","sort_rank":380,"kind_detail":"primary","min_zoom":8.0,"shield_text":"38"},"arcs":[19]},{"type":"LineString","properties":{"kind":"major_road","network":"ru:regional","sort_rank":380,"kind_detail":"primary","bus_network":null,"source":"openstreetmap.org","min_zoom":8.0,"bus_shield_text":"310","shield_text":"38\u041a","ref":"38\u041a-004","id":72951593},"arcs":[20]},{"type":"MultiLineString","properties":{"kind":"major_road","network":"ru:regional","sort_rank":381,"kind_detail":"trunk","source":"openstreetmap.org","min_zoom":8.0,"shield_text":"38\u041a","ref":"38\u041a-010"},"arcs":[[21],[22],[23],[24],[25],[26]]},{"type":"LineString","properties":{"sort_rank":380,"kind_detail":"primary","min_zoom":8.0,"kind":"major_road","source":"openstreetmap.org"},"arcs":[27]},{"type":"LineString","properties":{"source":"openstreetmap.org","bus_network":null,"bus_shield_text":"310","sort_rank":380,"kind_detail":"primary","min_zoom":8.0,"kind":"major_road"},"arcs":[28]},{"type":"LineString","properties":{"kind":"major_road","network":"ua:regional","sort_rank":380,"kind_detail":"primary","source":"openstreetmap.org","min_zoom":8.0,"old_name":"\u041a\u0430\u043b\u0456\u043d\u0456\u043d\u0430 \u0432\u0443\u043b\u0438\u0446\u044f","shield_text":"45","name:ru":"\u0421\u0443\u043c\u0441\u043a\u0430\u044f \u0443\u043b\u0438\u0446\u0430","ref":"\u0420-45","id":160971163},"arcs":[29]},{"type":"LineString","properties":{"kind":"major_road","network":"ua:regional","sort_rank":380,"kind_detail":"primary","source":"openstreetmap.org","min_zoom":8.0,"shield_text":"45","name:ru":"\u0421\u0443\u043c\u0441\u043a\u0430\u044f \u0443\u043b\u0438\u0446\u0430","ref":"\u0420-45","id":400799166},"arcs":[30]},{"type":"MultiLineString","properties":{"kind":"major_road","network":"ru:national","sort_rank":381,"kind_detail":"trunk","source":"openstreetmap.org","min_zoom":8.0,"shield_text":"2","ref":"\u041c-2"},"arcs":[[31],[32],[33],[34]]},{"type":"MultiLineString","properties":{"source":"openstreetmap.org","kind":"major_road","network":"e-road","sort_rank":381,"kind_detail":"trunk","min_zoom":8.0,"shield_text":"38"},"arcs":[[35],[36],[37]]},{"type":"LineString","properties":{"kind":"major_road","network":"ua:regional","sort_rank":380,"kind_detail":"primary","source":"openstreetmap.org","min_zoom":8.0,"shield_text":"45","name:ru":"\u041c\u0435\u0437\u0438\u043d\u043e\u0432\u0441\u043a\u0430\u044f \u0443\u043b\u0438\u0446\u0430","ref":"\u0420-45","id":444272774},"arcs":[38]},{"type":"LineString","properties":{"kind":"major_road","network":"ru:national","sort_rank":381,"landuse_kind":"urban_area","source":"openstreetmap.org","min_zoom":8.0,"kind_detail":"trunk","shield_text":"2","ref":"\u041c-2"},"arcs":[39]},{"type":"LineString","properties":{"bus_network":null,"network":"ru:regional","sort_rank":381,"kind_detail":"trunk","kind":"major_road","source":"openstreetmap.org","min_zoom":8.0,"bus_shield_text":"559","shield_text":"38\u041a","ref":"38\u041a-017"},"arcs":[40]},{"type":"MultiLineString","properties":{"kind":"major_road","network":"ru:regional","sort_rank":380,"kind_detail":"primary","source":"openstreetmap.org","min_zoom":8.0,"shield_text":"38\u041a","ref":"38\u041a-004"},"arcs":[[41],[42],[43],[44],[45],[46],[47],[48],[49],[50],[51],[52],[53],[54],[55],[56],[57],[58],[59],[60],[61],[62]]},{"type":"LineString","properties":{"kind":"major_road","network":"e-road","sort_rank":381,"kind_detail":"trunk","source":"openstreetmap.org","min_zoom":8.0,"shield_text":null,"id":166812139},"arcs":[63]},{"type":"LineString","properties":{"kind":"major_road","network":"ua:regional","sort_rank":380,"kind_detail":"primary","source":"openstreetmap.org","min_zoom":8.0,"landuse_kind":"residential","shield_text":"45","name:ru":"\u041c\u0435\u0437\u0438\u043d\u043e\u0432\u0441\u043a\u0430\u044f \u0443\u043b\u0438\u0446\u0430","ref":"\u0420-45","id":444272774},"arcs":[64]},{"type":"LineString","properties":{"kind":"major_road","network":"ua:regional","sort_rank":380,"kind_detail":"primary","source":"openstreetmap.org","min_zoom":8.0,"landuse_kind":"residential","shield_text":"45","name:ru":"\u0421\u0443\u043c\u0441\u043a\u0430\u044f \u0443\u043b\u0438\u0446\u0430","ref":"\u0420-45"},"arcs":[65]},{"type":"MultiLineString","properties":{"kind":"major_road","network":"ua:regional","sort_rank":380,"kind_detail":"primary","source":"openstreetmap.org","min_zoom":8.0,"shield_text":"45","ref":"\u0420-45"},"arcs":[[66],[67]]}]},"earth":{"type":"GeometryCollection","geometries":[{"type":"Polygon","properties":{"sort_rank":10,"source":"naturalearthdata.com","kind":"earth","min_zoom":0.0,"id":4755},"arcs":[[68]]}]},"landuse":{"type":"GeometryCollection","geometries":[{"type":"Polygon","properties":{"kind":"residential","name":"\u0423\u0433\u0440\u043e\u0457\u0434\u0438","area":13703900,"sort_rank":20,"source":"openstreetmap.org","min_zoom":8.0,"tier":2,"name:ru":"\u0423\u0433\u0440\u043e\u0435\u0434\u044b","id":-3167734,"osm_relation":true},"arcs":[[69]]},{"type":"Polygon","properties":{"kind":"residential","name":"\u041f\u043e\u043a\u0440\u043e\u0432\u043a\u0430","area":14053500,"sort_rank":20,"source":"openstreetmap.org","min_zoom":8.0,"tier":2,"id":209145548},"arcs":[[70]]},{"type":"Polygon","properties":{"kind":"residential","name":"\u041a\u043e\u0447\u0435\u0442\u043e\u0432\u043a\u0430","area":20278200,"sort_rank":20,"source":"openstreetmap.org","min_zoom":8.0,"tier":2,"id":209145547},"arcs":[[71]]},{"type":"Polygon","properties":{"kind":"residential","name:en":"Ivnya","name":"\u0418\u0432\u043d\u044f","area":42122900,"sort_rank":20,"source":"openstreetmap.org","min_zoom":8.0,"old_name":"\u041f\u0435\u0440\u0435\u0432\u0435\u0440\u0437\u0435\u0432\u043a\u0430, \u0422\u0440\u043e\u0438\u0446\u043a\u043e\u0435","tier":2,"id":207472099},"arcs":[[72]]},{"type":"Polygon","properties":{"source":"openstreetmap.org","kind":"park","area":52263800,"tier":2,"id":94344430,"min_zoom":8.0,"sort_rank":24},"arcs":[[73]]},{"type":"MultiPolygon","properties":{"source":"naturalearthdata.com","kind":"urban_area","name":"","area":1539513607,"sort_rank":11,"min_zoom":4.0},"arcs":[[[74]],[[75]],[[76]]]},{"type":"MultiPolygon","properties":{"source":"openstreetmap.org","kind":"park","tier":2,"area":111357674,"sort_rank":24,"min_zoom":8.0,"osm_relation":true},"arcs":[[[77]],[[78]],[[79]]]},{"type":"Polygon","properties":{"kind":"residential","name":"\u041c\u0438\u0440\u043e\u043f\u0456\u043b\u044c\u0441\u044c\u043a\u0430 \u0441\u0456\u043b\u044c\u0441\u044c\u043a\u0430 \u0440\u0430\u0434\u0430","area":22956600,"sort_rank":20,"source":"openstreetmap.org","min_zoom":8.0,"tier":2,"name:ru":"\u041c\u0438\u0440\u043e\u043f\u043e\u043b\u044c\u0441\u043a\u0430\u044f \u0441\u0435\u043b\u044c\u0441\u043a\u0430\u044f \u0440\u0430\u0434\u0430","id":-3076078,"osm_relation":true},"arcs":[[80]]},{"type":"Polygon","properties":{"kind":"residential","name":"\u0411\u0443\u0442\u043e\u0432\u043e","area":11046200,"sort_rank":20,"source":"openstreetmap.org","min_zoom":8.0,"tier":2,"id":137106806},"arcs":[[81]]},{"type":"Polygon","properties":{"kind":"residential","name":"\u041a\u0440\u0430\u0441\u043d\u043e\u043f\u0456\u043b\u043b\u044f","area":39439600,"sort_rank":20,"source":"openstreetmap.org","min_zoom":8.0,"tier":2,"name:ru":"\u041a\u0440\u0430\u0441\u043d\u043e\u043f\u043e\u043b\u044c\u0435","id":-3117248,"osm_relation":true},"arcs":[[82]]}]}},"type":"Topology","transform":{"translate":[35.15625,50.736455137],"scale":[0.0003433228,0.000215225]},"arcs":[[[907,0],[61,187],[-41,37],[-72,-8],[-112,91],[23,192],[-38,87],[-70,35],[58,44],[-65,75],[69,32],[-20,19],[12,37],[-23,45],[-76,6],[17,32],[-115,10],[-21,56],[76,123],[-61,90],[22,27],[-45,72],[100,-38],[50,16],[27,51],[75,30],[-28,23],[28,35],[-10,40],[-32,34],[-24,-7],[-34,63],[-75,-22],[-64,39],[5,47],[-25,30],[-68,-81],[-64,-16],[-5,-38],[-70,28],[-110,-84],[-64,37],[-78,137],[-20,-3]],[[0,1645],[0,1],[51,-15],[9,51],[-35,12],[-5,39],[34,56],[-54,32]],[[4096,1745],[-90,101],[-33,1],[2,-66],[-38,-17],[-41,-103],[29,-72],[-51,-72],[-162,201],[-22,68],[-60,-10],[-66,-70],[-49,2],[-3,-43],[-26,-15],[-90,37],[-48,-23],[-118,59],[-47,115],[-60,51],[-15,-116],[-110,30],[-132,-65],[-206,185],[-48,77],[-34,-62],[-24,32],[-14,-22],[-59,12],[-64,-32],[53,-112],[-41,18],[-3,-19],[-61,87],[-3,-28],[-131,-45],[9,-45],[32,-15],[1,-84],[-41,-8],[215,-127],[35,-85],[-174,10],[4,-87],[-50,-58],[11,-19],[-78,9],[-102,-105],[23,-33],[-42,-133],[-93,-14],[-10,-86],[-109,-13],[-41,73],[16,45],[-154,62],[-39,-122],[45,-43],[-28,-57],[-75,21],[-64,-120],[-91,43],[1,54],[-121,34],[-5,-99],[-98,-60],[-125,89],[49,13],[-7,101],[-183,-35],[-71,88],[-57,10],[-42,-49],[-48,57],[-45,4],[-79,61],[-30,-6]],[[570,1100],[-76,-123],[21,-56],[115,-10],[-17,-32],[76,-6],[23,-45],[-12,-37],[20,-19],[-69,-32],[65,-75],[-58,-44],[70,-35],[38,-87],[-23,-192],[112,-91],[72,8],[41,-37],[-61,-187]],[[0,1821],[54,-32],[-34,-56],[5,-39],[35,-12],[-9,-51],[-51,15],[0,-1]],[[0,1610],[20,3],[78,-137],[64,-37],[110,84],[24,-26],[23,20],[3,-23],[27,5],[-2,34],[75,25],[39,71],[43,-29],[-5,-47],[64,-39],[75,22],[34,-63],[24,7],[32,-34],[10,-40],[-28,-35],[28,-23],[-75,-30],[-4,-34],[-64,-32],[-109,37],[45,-72],[-22,-27],[61,-90]],[[1799,271],[60,6],[75,-62],[208,31]],[[2142,246],[40,-4]],[[2182,242],[194,-174],[260,13],[177,-81]],[[2058,0],[-33,105],[-156,164],[-70,1]],[[37,4096],[-33,-30],[-4,-9]],[[957,4096],[-209,-94],[-103,12],[-84,82]],[[3823,4096],[273,-157]],[[2780,4096],[-16,-45]],[[2961,4096],[-189,-117],[-27,3]],[[2745,3982],[-1,0]],[[2744,3982],[1,0]],[[2745,3982],[214,114]],[[1967,3878],[0,3],[-3,-1],[1,-2],[2,0]],[[2764,4051],[-24,-65]],[[263,2213],[1,1],[-1,2],[-1,-1],[1,-2]],[[1961,3878],[-143,-26],[-208,35],[-108,51],[-168,158]],[[1961,3878],[3,0]],[[1964,3880],[-3,-2]],[[1967,3878],[4,2]],[[1971,3880],[-4,0]],[[2698,3939],[-151,-52],[-398,-52],[-178,45]],[[3282,1931],[-1,0]],[[264,2213],[0,1]],[[80,289],[-80,43]],[[189,239]],[[2680,4096],[17,-158]],[[2693,3921],[4,17]],[[2693,3921],[-97,-290],[66,-159],[193,-214],[48,-412],[76,-131],[204,-589],[65,-79],[34,-120],[-9,-233],[146,-306],[18,-402],[111,-134],[6,-182],[201,-60],[86,-163]],[[3879,371],[117,-371]],[[2705,3941],[-7,-2]],[[2706,3943],[-1,-2]],[[2740,3986],[-34,-43]],[[305,28],[-3,33]],[[3841,447],[38,-76]],[[562,4096],[102,-97],[86,-16],[241,113]],[[0,2080],[29,30],[196,67]],[[225,2177],[3,0]],[[227,2178],[-2,-1]],[[231,2178],[-2,0]],[[229,2178],[-1,0],[-1,0]],[[227,2178],[2,-1],[0,1]],[[229,2177],[2,1]],[[261,2212],[-30,-34]],[[261,2212],[2,1]],[[262,2214],[-1,-2]],[[266,2217],[-2,-1]],[[264,2214],[2,3]],[[443,2245],[-37,18],[-92,-12],[-48,-34]],[[443,2245],[1,-2]],[[445,2244],[-2,1]],[[445,2244],[-1,-1]],[[444,2243],[1,-1],[1,1],[-1,1]],[[448,2245],[-2,-1]],[[446,2243],[2,2]],[[1964,3874],[-29,-243],[-259,-197],[-93,-29],[-261,-159],[-57,-88],[-38,-158],[-71,-97],[-158,-70],[-140,-224],[-208,-107],[-74,-125],[-128,-132]],[[1964,3874],[2,4]],[[1965,3878],[-1,-4]],[[2705,3941],[-3,-4]],[[302,61],[-13,106]],[[289,167],[-100,72]],[[189,239],[-109,50]],[[300,0],[5,28]],[[4096,4096],[0,-4096],[-4096,0],[0,4096],[4096,0]],[[275,562],[6,48],[42,33],[-4,-32],[65,20],[28,-41],[-19,-51],[-110,2],[-8,21]],[[3656,727],[33,46],[67,14],[30,-91],[-20,-33],[-37,26],[-35,-10],[-38,48]],[[3647,1328],[93,76],[49,-23],[39,33],[30,-8],[19,-49],[-15,-10],[-26,46],[-74,-88],[-74,-39],[-41,62]],[[2770,1516],[83,136],[19,-10],[-20,-54],[49,-29],[69,17],[8,-46],[25,-7],[-55,-22],[33,-15],[-2,-34],[-101,-48],[-108,112]],[[2652,3782],[59,138],[56,34],[135,74],[137,-12],[-86,-84],[-158,-47],[43,-9],[-29,-64],[-39,31],[5,36],[-58,-9],[-16,27],[-6,-35],[46,-21],[1,-52],[-36,-25],[-54,18]],[[3858,194],[-162,155],[37,81],[63,-14],[53,-86],[9,-136]],[[1479,227],[-113,122],[83,100],[111,55],[-32,-258],[-49,-19]],[[3867,368],[-42,33],[27,75],[39,56],[47,16],[49,-44],[-72,-121],[-48,-15]],[[3530,2069],[209,-6],[1,-74],[91,-41],[-3,-52],[-111,-23],[-103,29],[-84,167]],[[3310,2120],[48,23],[88,-37],[24,-27],[-23,-67],[-19,-10],[-118,118]],[[3189,3687],[52,52],[60,-10],[67,26],[75,-18],[-48,-66],[-10,-80],[-50,3],[-18,-30],[-56,55],[-37,-10],[-35,78]],[[222,1343],[50,58],[26,-28],[39,83],[38,-27],[-34,-72],[25,-11],[-29,-45],[17,-15],[-79,-72],[-18,30],[27,38],[-16,-1],[-28,31],[42,-20],[-60,51]],[[2906,118],[27,72],[90,-45],[17,-51],[-134,24]],[[187,240],[101,-26],[-55,44],[39,2],[-18,9],[33,24],[6,-30],[4,45],[54,-33],[55,16],[14,-21],[-101,-16],[-1,-52],[167,-92],[-82,13],[17,-16],[-25,-10],[4,-49],[33,-19],[-17,-2],[-65,57],[-34,-1],[-8,-35],[-62,133],[-59,59]]]}