{"objects":{"water":{"type":"GeometryCollection","geometries":[]},"buildings":{"type":"GeometryCollection","geometries":[]},"places":{"type":"GeometryCollection","geometries":[{"type":"Point","properties":{"admin_level":"5","name:sr":"\u0425\u0430\u0440\u043a\u043e\u0432","name:sk":"Charkov","name:hi":"\u0916\u093c\u093e\u0930\u0915\u093f\u0935","name:kn":"\u0c96\u0cbe\u0cb0\u0ccd\u0c95\u0cbf\u0cb5","name:sv":"Charkiv","name:he":"\u05e7\u05e8\u05e7\u05d5\u05d1","name:cs":"Charkov","min_zoom":8.0,"name:la":"Charcovia","name:be":"\u0425\u0430\u0440\u043a\u0430\u045e","name:ru":"\u0425\u0430\u0440\u044c\u043a\u043e\u0432","name:pl":"Chark\u00f3w","name:hu":"Harkiv","name:hr":"Harkov","id":1685829423,"name:ca":"Kh\u00e0rkiv","population":1447652,"kind":"locality","name:en":"Kharkiv","name":"\u0425\u0430\u0440\u043a\u0456\u0432","kind_detail":"city","name:de":"Charkiw","source":"openstreetmap.org","name:fr":"Kharkiv","name:fi":"Harkova","name:eu":"Kharkiv","name:et":"Harkiv","name:nl":"Charkov"},"coordinates":[3129,694]},{"type":"Point","properties":{"kind":"locality","name:en":"Liubotyn","name":"\u041b\u044e\u0431\u043e\u0442\u0438\u043d","kind_detail":"town","name:de":"Ljubotyn","source":"openstreetmap.org","min_zoom":8.0,"id":337539733,"population":25700},"coordinates":[2220,481]},{"type":"Point","properties":{"kind":"locality","name:en":"Derhachi","name":"\u0414\u0435\u0440\u0433\u0430\u0447\u0456","kind_detail":"town","name:de":"Derhatschi","source":"openstreetmap.org","min_zoom":8.0,"name:ru":"\u0414\u0435\u0440\u0433\u0430\u0447\u0438","name:pl":"Dergacze","id":337534182,"population":20196},"coordinates":[2810,1229]},{"type":"Point","properties":{"kind":"locality","name:en":"Bohodukhiv","name":"\u0411\u043e\u0433\u043e\u0434\u0443\u0445\u0456\u0432","name:lt":"Bohoduchivas","kind_detail":"town","name:de":"Bohoduchiw","source":"openstreetmap.org","min_zoom":8.0,"name:ru":"\u0411\u043e\u0433\u043e\u0434\u0443\u0445\u043e\u0432","name:pl":"Bohoduchiw","id":27121092,"population":19365},"coordinates":[1065,1469]},{"type":"Point","properties":{"kind":"locality","name:en":"Pisochyn","name":"\u041f\u0456\u0441\u043e\u0447\u0438\u043d","kind_detail":"town","source":"openstreetmap.org","min_zoom":8.0,"name:ru":"\u041f\u0435\u0441\u043e\u0447\u0438\u043d","id":337538934,"population":17801},"coordinates":[2819,567]},{"type":"Point","properties":{"kind":"locality","name:en":"Vysokyi","name":"\u0412\u0438\u0441\u043e\u043a\u0438\u0439","kind_detail":"town","source":"openstreetmap.org","min_zoom":8.0,"name:ru":"\u0412\u044b\u0441\u043e\u043a\u0438\u0439","id":337541508,"population":14107},"coordinates":[2832,242]},{"type":"Point","properties":{"kind":"locality","name:en":"Borisovka","name":"\u0411\u043e\u0440\u0438\u0441\u043e\u0432\u043a\u0430","kind_detail":"town","name:ar":"\u0628\u0648\u0631\u064a\u0633\u0648\u0641\u0643\u0627","name:de":"Borissowka","source":"openstreetmap.org","min_zoom":8.0,"id":2175359186,"population":13661},"coordinates":[2494,3515]},{"type":"Point","properties":{"kind":"locality","name:en":"Solonytsivka","name":"\u0421\u043e\u043b\u043e\u043d\u0438\u0446\u0456\u0432\u043a\u0430","kind_detail":"town","source":"openstreetmap.org","min_zoom":8.0,"old_name":"\u0421\u0438\u043d\u043e\u043b\u0438\u0446\u0435\u0432\u043a\u0430","name:ru":"\u0421\u043e\u043b\u043e\u043d\u0438\u0446\u0435\u0432\u043a\u0430","id":337538180,"population":13153},"coordinates":[2656,670]},{"type":"Point","properties":{"kind":"locality","name":"\u041f\u043e\u043a\u043e\u0442\u0438\u043b\u0456\u0432\u043a\u0430","kind_detail":"town","source":"openstreetmap.org","min_zoom":8.0,"old_name":"\u041a\u0430\u0440\u0430\u0447\u0451\u0432\u043a\u0430","name:ru":"\u041f\u043e\u043a\u043e\u0442\u0438\u043b\u043e\u0432\u043a\u0430","id":337540845,"population":10350},"coordinates":[3020,341]},{"type":"Point","properties":{"kind":"locality","name:en":"Severnyi","name":"\u0421\u0435\u0432\u0435\u0440\u043d\u044b\u0439","kind_detail":"town","name:de":"Sewerny","source":"openstreetmap.org","min_zoom":8.0,"name:it":"Severnyj","name:uk":"\u0421\u0454\u0432\u0454\u0440\u043d\u0438\u0439","id":493418345,"population":10138},"coordinates":[4086,3823]},{"type":"Point","properties":{"kind":"locality","name:en":"Zolochiv","name":"\u0417\u043e\u043b\u043e\u0447\u0456\u0432","kind_detail":"town","name:de":"Solotschiw","source":"openstreetmap.org","min_zoom":8.0,"name:ru":"\u0417\u043e\u043b\u043e\u0447\u0435\u0432","id":336141192,"population":9860},"coordinates":[2406,2011]},{"type":"Point","properties":{"kind":"locality","name:en":"Bezliudivka","name":"\u0411\u0435\u0437\u043b\u044e\u0434\u0456\u0432\u043a\u0430","kind_detail":"town","source":"openstreetmap.org","min_zoom":8.0,"name:ru":"\u0411\u0435\u0437\u043b\u044e\u0434\u043e\u0432\u043a\u0430","name:pl":"Bezludiwka","id":337542235,"population":9693},"coordinates":[3327,149]},{"type":"Point","properties":{"admin_level":"8","kind":"locality","name:en":"Mayskiy","name":"\u041c\u0430\u0439\u0441\u043a\u0438\u0439","kind_detail":"town","source":"openstreetmap.org","min_zoom":8.0,"old_name":"\u041f\u0430\u0432\u043b\u043e\u0432\u043a\u0430","id":446060276,"population":8748},"coordinates":[3788,3127]},{"type":"Point","properties":{"kind":"locality","name:en":"Pivdenne","name":"\u041f\u0456\u0432\u0434\u0435\u043d\u043d\u0435","kind_detail":"town","source":"openstreetmap.org","min_zoom":8.0,"name:ru":"\u041f\u0438\u0432\u0434\u0435\u043d\u043d\u043e\u0435","name:pl":"Piwdenne","id":337542207,"population":8516},"coordinates":[2636,154]},{"type":"Point","properties":{"kind":"locality","name:en":"Krasnokutsk","name":"\u041a\u0440\u0430\u0441\u043d\u043e\u043a\u0443\u0442\u0441\u044c\u043a","kind_detail":"town","name:de":"Krasnokutsk","source":"openstreetmap.org","min_zoom":8.0,"old_name":"\u041a\u0440\u0430\u0441\u043d\u044b\u0439 \u041a\u0443\u0442","name:ru":"\u041a\u0440\u0430\u0441\u043d\u043e\u043a\u0443\u0442\u0441\u043a","name:pl":"Krasnokuck","id":337535629,"population":8008},"coordinates":[25,1024]},{"type":"Point","properties":{"kind":"locality","name:en":"Tomarovka","name":"\u0422\u043e\u043c\u0430\u0440\u043e\u0432\u043a\u0430","kind_detail":"town","name:de":"Tomarowka","source":"openstreetmap.org","min_zoom":8.0,"id":1700957985,"population":7983},"coordinates":[3134,3852]},{"type":"Point","properties":{"kind":"locality","name:en":"Mala Danyl\u0456vka","name":"\u041c\u0430\u043b\u0430 \u0414\u0430\u043d\u0438\u043b\u0456\u0432\u043a\u0430","kind_detail":"town","source":"openstreetmap.org","min_zoom":8.0,"name:ru":"\u041c\u0430\u043b\u0430\u044f \u0414\u0430\u043d\u0438\u043b\u043e\u0432\u043a\u0430","id":337535921,"population":7471},"coordinates":[2955,994]},{"type":"Point","properties":{"kind":"locality","name:en":"Babai","name":"\u0411\u0430\u0431\u0430\u0457","kind_detail":"town","source":"openstreetmap.org","min_zoom":8.0,"name:ru":"\u0411\u0430\u0431\u0430\u0438","id":337541416,"population":7304},"coordinates":[3039,268]},{"type":"Point","properties":{"kind":"locality","name:en":"Vilshany","name":"\u0412\u0456\u043b\u044c\u0448\u0430\u043d\u0438","kind_detail":"town","source":"openstreetmap.org","min_zoom":8.0,"old_name":"\u041e\u043b\u044c\u0448\u0430\u043d\u043a\u0430","name:ru":"\u041e\u043b\u044c\u0448\u0430\u043d\u044b","name:be":"\u0410\u043b\u044c\u0448\u0430\u043d\u044b","name:pl":"Olszany","id":337535914,"population":7252},"coordinates":[2159,979]},{"type":"Point","properties":{"old_name:uk":"\u041f\u0435\u0440\u0435\u0441\u0456\u0447\u043d\u0430","kind":"locality","name:en":"Peresichne","name":"\u041f\u0435\u0440\u0435\u0441\u0456\u0447\u043d\u0435","kind_detail":"town","old_name:ru":"\u041f\u0435\u0440\u0435\u0441\u0435\u0447\u043d\u0430\u044f","source":"openstreetmap.org","min_zoom":8.0,"old_name:en":"Peresichna","old_name":"\u041f\u0435\u0440\u0435\u0441\u0456\u0447\u043d\u0430","name:ru":"\u041f\u0435\u0440\u0435\u0441\u0435\u0447\u043d\u043e\u0435","id":337537126,"population":7176},"coordinates":[2431,811]},{"type":"Point","properties":{"kind":"locality","name:en":"Budy","name":"\u0411\u0443\u0434\u0438","kind_detail":"town","source":"openstreetmap.org","min_zoom":8.0,"name:ru":"\u0411\u0443\u0434\u044b","name:pl":"Budy","id":337541522,"population":7004},"coordinates":[2520,242]},{"type":"Point","properties":{"kind":"locality","name:en":"Oktyabr'skiy","name":"\u041e\u043a\u0442\u044f\u0431\u0440\u044c\u0441\u043a\u0438\u0439","kind_detail":"town","name:de":"Oktjabrski","source":"openstreetmap.org","min_zoom":8.0,"int_name":"Oktyabr'skiy","name:it":"Oktjabr'skij","name:uk":"\u041e\u043a\u0442\u044f\u0431\u0440\u0441\u044c\u043a\u0438\u0439","old_name":"\u0412\u043e\u0441\u043a\u0440\u0435\u0441\u0435\u043d\u043e\u0432\u043a\u0430;\u041c\u0438\u043a\u043e\u044f\u043d\u043e\u0432\u043a\u0430","id":336140969,"population":6964},"coordinates":[3520,2715]},{"type":"Point","properties":{"kind":"locality","name:en":"Slatyne","name":"\u0421\u043b\u0430\u0442\u0438\u043d\u0435","kind_detail":"town","source":"openstreetmap.org","min_zoom":8.0,"name:ru":"\u0421\u043b\u0430\u0442\u0438\u043d\u043e","id":337526769,"population":6826},"coordinates":[2914,1696]},{"type":"Point","properties":{"kind":"locality","name:en":"Grayvoron","name":"\u0413\u0440\u0430\u0439\u0432\u043e\u0440\u043e\u043d","kind_detail":"town","name:eo":"Grajvoron","name:de":"Graiworon","source":"openstreetmap.org","min_zoom":8.0,"name:fr":"Gra\u00efvoron","name:it":"Grajvoron","name:sr":"\u0413\u0440\u0430\u0458\u0432\u043e\u0440\u043e\u043d","id":336141081,"name:ca":"Gr\u00e0ivoron","population":6481},"coordinates":[1500,2944]},{"type":"Point","properties":{"kind":"locality","name:en":"Kozacha Lopan","name":"\u041a\u043e\u0437\u0430\u0447\u0430 \u041b\u043e\u043f\u0430\u043d\u044c","kind_detail":"town","source":"openstreetmap.org","min_zoom":8.0,"name:ru":"\u041a\u0430\u0437\u0430\u0447\u044c\u044f \u041b\u043e\u043f\u0430\u043d\u044c","id":337524378,"population":5878},"coordinates":[3017,2241]},{"type":"Point","properties":{"kind":"locality","name:en":"Velyka Pysarivka","name":"\u0412\u0435\u043b\u0438\u043a\u0430 \u041f\u0438\u0441\u0430\u0440\u0456\u0432\u043a\u0430","kind_detail":"town","name:de":"Welyka Pyssariwka","source":"openstreetmap.org","min_zoom":8.0,"name:ru":"\u0412\u0435\u043b\u0438\u043a\u0430\u044f \u041f\u0438\u0441\u0430\u0440\u0435\u0432\u043a\u0430","name:pl":"We\u0142yka Bahaczka","id":337522038,"population":5399},"coordinates":[953,2681]},{"type":"Point","properties":{"kind":"locality","name:en":"Korotych","name":"\u041a\u043e\u0440\u043e\u0442\u0438\u0447","kind_detail":"town","source":"openstreetmap.org","min_zoom":8.0,"name:ru":"\u041a\u043e\u0440\u043e\u0442\u044b\u0447","name:pl":"Korotych","id":337539078,"population":5081},"coordinates":[2573,519]},{"type":"Point","properties":{"kind":"locality","name:en":"Novopokrovka","name":"\u041d\u043e\u0432\u043e\u043f\u043e\u043a\u0440\u043e\u0432\u043a\u0430","kind_detail":"town","source":"openstreetmap.org","min_zoom":8.0,"old_name":"\u041d\u043e\u0432\u043e\u043f\u043e\u043a\u0440\u043e\u0432\u0441\u043a\u043e\u0435","id":337543316,"population":5027},"coordinates":[4078,5]},{"type":"Point","properties":{"kind":"locality","name:en":"Sharivka","name":"\u0428\u0430\u0440\u0456\u0432\u043a\u0430","kind_detail":"town","source":"openstreetmap.org","min_zoom":8.0,"name:ru":"\u0428\u0430\u0440\u043e\u0432\u043a\u0430","id":337537037,"population":4100},"coordinates":[828,824]},{"type":"Point","properties":{"kind":"locality","name:en":"Kolomak","name":"\u041a\u043e\u043b\u043e\u043c\u0430\u043a","kind_detail":"town","name:de":"Kolomak","source":"openstreetmap.org","min_zoom":8.0,"name:pl":"Ko\u0142omak","id":337543176,"population":3844},"coordinates":[458,26]},{"type":"Point","properties":{"kind":"locality","name:en":"Koviahy","name":"\u041a\u043e\u0432\u2019\u044f\u0433\u0438","kind_detail":"town","source":"openstreetmap.org","min_zoom":8.0,"name:ru":"\u041a\u043e\u0432\u044f\u0433\u0438","id":337540724,"population":3559},"coordinates":[1147,354]},{"type":"Point","properties":{"kind":"locality","name:en":"Huty","name":"\u0413\u0443\u0442\u0438","kind_detail":"town","source":"openstreetmap.org","min_zoom":8.0,"name:ru":"\u0413\u0443\u0442\u044b","id":337533389,"population":2043},"coordinates":[564,1342]},{"type":"Point","properties":{"kind":"locality","name:en":"Staryi Merchyk","name":"\u0421\u0442\u0430\u0440\u0438\u0439 \u041c\u0435\u0440\u0447\u0438\u043a","kind_detail":"town","source":"openstreetmap.org","min_zoom":8.0,"name:ru":"\u0421\u0442\u0430\u0440\u044b\u0439 \u041c\u0435\u0440\u0447\u0438\u043a","id":337538490,"population":1779},"coordinates":[1749,627]},{"type":"Point","properties":{"kind":"locality","name:en":"Berez\u0456vka","name":"\u0411\u0435\u0440\u0435\u0437\u0456\u0432\u043a\u0430","kind_detail":"town","source":"openstreetmap.org","min_zoom":8.0,"int_name":"Berezivka","name:be":"\u0411\u044f\u0440\u043e\u0437\u0430\u045e\u043a\u0430","name:ru":"\u0411\u0435\u0440\u0451\u0437\u043e\u0432\u043a\u0430","id":337541157,"population":1695},"coordinates":[2652,304]},{"type":"Point","properties":{"kind":"locality","name:en":"Manchenky","name":"\u041c\u0430\u043d\u0447\u0435\u043d\u043a\u0438","kind_detail":"town","source":"openstreetmap.org","min_zoom":8.0,"id":337538371,"population":1192},"coordinates":[2025,644]}]},"transit":{"type":"GeometryCollection","geometries":[{"type":"MultiLineString","properties":{"source":"openstreetmap.org","kind":"train","name":"\u0406\u0437\u044e\u043c <-> \u0425\u0430\u0440\u043a\u0456\u0432-\u041b\u0435\u0432\u0430\u0434\u0430","sort_rank":275,"ref":"\u0406\u0437\u044e\u043c - \u0425\u0430\u0440\u043a\u0456\u0432","min_zoom":6.0,"osm_relation":true},"arcs":[[7],[8],[9],[10],[11]]},{"type":"MultiLineString","properties":{"kind":"subway","name":"\u041c\u0435\u0442\u0440\u043e \u0421\u0430\u043b\u0442\u0456\u0432\u0441\u044c\u043a\u0430 \u043b\u0456\u043d\u0456\u044f: \u0413\u0435\u0440\u043e\u0457\u0432 \u043f\u0440\u0430\u0446\u0456 => \u0406\u0441\u0442\u043e\u0440\u0438\u0447\u043d\u0438\u0439 \u043c\u0443\u0437\u0435\u0439","sort_rank":275,"colour":"blue","source":"openstreetmap.org","min_zoom":8.0,"ref":"2","osm_relation":true,"colour_name":"blue"},"arcs":[[12],[13],[14],[15],[16],[17],[18],[19],[20],[21],[22],[23],[24],[25],[26],[27],[28],[29],[30],[31],[32],[33],[34],[35],[36],[37],[38],[39],[40],[41],[42]]},{"type":"MultiLineString","properties":{"source":"openstreetmap.org","kind":"train","name":"\u0411\u0435\u043b\u0433\u043e\u0440\u043e\u0434 - \u0413\u043e\u0442\u043d\u044f","sort_rank":275,"ref":"\u0411\u0435\u043b\u0433\u043e\u0440\u043e\u0434 - \u0413\u043e\u0442\u043d\u044f","min_zoom":6.0,"osm_relation":true},"arcs":[[43],[44],[45],[46],[47],[48]]},{"type":"MultiLineString","properties":{"source":"openstreetmap.org","kind":"train","name":"\u041b\u043e\u0441\u0454\u0432\u0435 - \u0413\u0440\u0430\u043a\u043e\u0432\u0435 (Elektritschka)","sort_rank":275,"ref":"\u041b\u043e\u0441\u0454\u0432\u0435 - \u0413\u0440\u0430\u043a\u043e\u0432\u0435","min_zoom":6.0,"osm_relation":true},"arcs":[[49],[50]]},{"type":"LineString","properties":{"kind":"train","name":"\u0413\u043e\u0442\u043d\u044f - \u0425\u043e\u0442\u043c\u044b\u0436\u0441\u043a","sort_rank":275,"source":"openstreetmap.org","min_zoom":6.0,"ref":"\u0413\u043e\u0442\u043d\u044f - \u0425\u043e\u0442\u043c\u044b\u0436\u0441\u043a","id":-7173436,"osm_relation":true},"arcs":[51]},{"type":"MultiLineString","properties":{"kind":"subway","name":"\u041c\u0435\u0442\u0440\u043e \u0425\u043e\u043b\u043e\u0434\u043d\u043e\u0433\u0456\u0440\u0441\u044c\u043a\u043e-\u0417\u0430\u0432\u043e\u0434\u0441\u044c\u043a\u0430 \u043b\u0456\u043d\u0456\u044f: \u0425\u043e\u043b\u043e\u0434\u043d\u0430 \u0433\u043e\u0440\u0430 => \u041f\u0440\u043e\u043b\u0435\u0442\u0430\u0440\u0441\u044c\u043a\u0430","sort_rank":275,"colour":"red","source":"openstreetmap.org","min_zoom":8.0,"ref":"1","osm_relation":true,"colour_name":"red"},"arcs":[[52],[53],[54],[55],[56],[57],[58],[59],[60],[61],[62],[63],[64],[65],[66],[67],[68],[69],[70],[71],[72],[73],[74],[75],[76],[77],[78],[79],[80],[81],[82],[83],[84],[85],[86],[87],[88],[89],[90],[91],[92],[93],[94],[95],[96],[97],[98],[99],[100],[101],[102]]},{"type":"MultiLineString","properties":{"kind":"train","name":"\u0425\u0435\u0440\u0441\u043e\u043d - \u0425\u0430\u0440\u043a\u0456\u0432","sort_rank":275,"source":"openstreetmap.org","min_zoom":6.0,"ref":"376\u0428","osm_relation":true,"network":"\u0423\u043a\u0440\u0437\u0430\u043b\u0456\u0437\u043d\u0438\u0446\u044f"},"arcs":[[103],[104],[105]]},{"type":"MultiLineString","properties":{"kind":"subway","name":"\u041c\u0435\u0442\u0440\u043e \u041e\u043b\u0435\u043a\u0441\u0456\u0457\u0432\u0441\u044c\u043a\u0430 \u043b\u0456\u043d\u0456\u044f: \u041c\u0435\u0442\u0440\u043e\u0431\u0443\u0434\u0456\u0432\u043d\u0438\u043a\u0456\u0432 => \u041f\u0435\u0440\u0435\u043c\u043e\u0433\u0438","sort_rank":275,"colour":"green","source":"openstreetmap.org","min_zoom":8.0,"ref":"3","osm_relation":true,"colour_name":"green"},"arcs":[[106],[107],[108],[109],[110],[111],[112],[113],[114],[115],[116],[117],[118],[119],[120],[121],[122],[123],[124],[125],[126],[127],[128],[129],[130],[131],[132],[133],[134],[135],[136],[137],[138],[139],[140]]},{"type":"MultiLineString","properties":{"kind":"subway","name":"\u041c\u0435\u0442\u0440\u043e \u041e\u043b\u0435\u043a\u0441\u0456\u0457\u0432\u0441\u044c\u043a\u0430 \u043b\u0456\u043d\u0456\u044f: \u041f\u0435\u0440\u0435\u043c\u043e\u0433\u0438 => \u041c\u0435\u0442\u0440\u043e\u0431\u0443\u0434\u0456\u0432\u043d\u0438\u043a\u0456\u0432","sort_rank":275,"colour":"green","source":"openstreetmap.org","min_zoom":8.0,"ref":"3","osm_relation":true,"colour_name":"green"},"arcs":[[141],[142],[143],[144],[145],[146],[147],[148],[149],[150],[151],[152],[153],[154],[155],[156],[157],[158],[159],[160],[161],[162],[163],[164],[165],[166],[167],[168],[169],[170],[171],[172],[173],[174],[175]]},{"type":"MultiLineString","properties":{"kind":"train","name":"\u0425\u0430\u0440\u043a\u0456\u0432 - \u0425\u0435\u0440\u0441\u043e\u043d","sort_rank":275,"source":"openstreetmap.org","min_zoom":6.0,"ref":"375\u041e","osm_relation":true,"network":"\u0423\u043a\u0440\u0437\u0430\u043b\u0456\u0437\u043d\u0438\u0446\u044f"},"arcs":[[176],[177],[178],[179],[180]]},{"type":"MultiLineString","properties":{"source":"openstreetmap.org","kind":"train","name":"Harkiv - Belgorod railway","sort_rank":275,"min_zoom":6.0,"osm_relation":true},"arcs":[[181],[182],[183]]},{"type":"MultiLineString","properties":{"kind":"subway","name":"\u041c\u0435\u0442\u0440\u043e \u0425\u043e\u043b\u043e\u0434\u043d\u043e\u0433\u0456\u0440\u0441\u044c\u043a\u043e-\u0417\u0430\u0432\u043e\u0434\u0441\u044c\u043a\u0430 \u043b\u0456\u043d\u0456\u044f: \u041f\u0440\u043e\u043b\u0435\u0442\u0430\u0440\u0441\u044c\u043a\u0430 => \u0425\u043e\u043b\u043e\u0434\u043d\u0430 \u0433\u043e\u0440\u0430","sort_rank":275,"colour":"red","source":"openstreetmap.org","min_zoom":8.0,"ref":"1","osm_relation":true,"colour_name":"red"},"arcs":[[184],[185],[186],[187],[188],[189],[190],[191],[192],[193],[194],[195],[196],[197],[198],[199],[200],[201],[202],[203],[204],[205],[206],[207],[208],[209],[210],[211],[212],[213],[214],[215],[216],[217],[218],[219],[220],[221],[222],[223],[224],[225],[226],[227],[228],[229],[230],[231],[232],[233],[234]]},{"type":"MultiLineString","properties":{"kind":"subway","name":"\u041c\u0435\u0442\u0440\u043e \u0421\u0430\u043b\u0442\u0456\u0432\u0441\u044c\u043a\u0430 \u043b\u0456\u043d\u0456\u044f: \u0406\u0441\u0442\u043e\u0440\u0438\u0447\u043d\u0438\u0439 \u043c\u0443\u0437\u0435\u0439 => \u0413\u0435\u0440\u043e\u0457\u0432 \u043f\u0440\u0430\u0446\u0456","sort_rank":275,"colour":"blue","source":"openstreetmap.org","min_zoom":8.0,"ref":"2","osm_relation":true,"colour_name":"blue"},"arcs":[[235],[236],[237],[238],[239],[240],[241],[242],[243],[244],[245],[246],[247],[248],[249],[250],[251],[252],[253],[254],[255],[256],[257],[258],[259],[260],[261],[262],[263],[264],[265]]}]},"pois":{"type":"GeometryCollection","geometries":[]},"boundaries":{"type":"GeometryCollection","geometries":[{"type":"MultiLineString","properties":{"name:kg":"Ukrayina","name:ka":"\u10e3\u10d9\u10e0\u10d0\u10d8\u10dc\u10d0","name:ko":"\uc6b0\ud06c\ub77c\uc774\ub098","name:cv":"\u0423\u043a\u0440\u0430\u0438\u043d\u0430","name:cu":"\u041e\u0443\u043a\u0440\u0430\u0438\u043d\u0430","name:kl":"Ukraine","name:cs":"Ukrajina","name:tw":"Ukraine","name:tt":"\u0423\u043a\u0440\u0430\u0438\u043d\u0430","name:kw":"Ukrayn","name:kv":"\u0423\u043a\u0440\u0430\u0438\u043d\u0430","name:th":"\u0e1b\u0e23\u0e30\u0e40\u0e17\u0e28\u0e22\u0e39\u0e40\u0e04\u0e23\u0e19","name:tl":"Ukranya","name:ce":"\u0423\u043a\u0440\u0430\u0438\u043d\u0430","name:ta":"\u0b89\u0b95\u0bcd\u0bb0\u0bc8\u0ba9\u0bcd","name:tg":"\u0423\u043a\u0440\u0430\u0439\u0438\u043d\u0430","name:ca":"Ucra\u00efna","name:te":"\u0c09\u0c15\u0c4d\u0c30\u0c46\u0c2f\u0c3f\u0c28\u0c4d","name:cy":"Wcr\u00e1in","name:hr":"Ukrajina","name:da":"Ukraine","name:de":"Ukraine","source":"openstreetmap.org","name:kn":"\u0caf\u0cc1\u0c95\u0ccd\u0cb0\u0cc7\u0ca8\u0ccd","name:dv":"\u0794\u07aa\u0786\u07b0\u0783\u07ac\u0787\u07a8\u0782\u07b0","name:km":"\u17a2\u17ca\u17bb\u1799\u1780\u17d2\u179a\u17c2\u1793","name:lv":"Ukraina","name:lt":"Ukraina","name:uz":"Ukraina","name:kk":"\u0423\u043a\u0440\u0430\u0438\u043d\u0430","name:ur":"\u06cc\u0648\u06a9\u0631\u06cc\u0646","name:lb":"Ukrain","name:la":"Ucraina","name:ug":"\u0626\u06c7\u0643\u0631\u0627\u0626\u0649\u0646\u0627","name:li":"Oekra\u00efne","name:ln":"Ukraine","name:el":"\u039f\u03c5\u03ba\u03c1\u03b1\u03bd\u03af\u03b1","name:eo":"Ukrainujo","name:en":"Ukraine","name":"\u0423\u043a\u0440\u0430\u0457\u043d\u0430","name:tk":"Ukraina","name:ee":"Ukraine","name:ku":"\u00dbkrayna","name:eu":"Ukraina","name:et":"Ukraina","name:es":"Ucrania","name:ia":"Ukraina","name:rm":"Ucraina","name:az":"Ukrayna","name:ie":"Ucraina","name:id":"Ukraina","name:ig":"Yukrain","name:ar":"\u0623\u0648\u0643\u0631\u0627\u0646\u064a\u0627","name:io":"Ukrainia","name:is":"\u00dakra\u00edna","name:am":"\u12e9\u12ad\u122c\u1295","name:it":"Ucraina","name:an":"Ucra\u00edna","name:ru":"\u0423\u043a\u0440\u0430\u0438\u043d\u0430","name:ab":"\u0423\u043a\u0440\u0430\u0438\u043d\u0430","name:af":"Oekra\u00efne","kind_detail":"2","name:ky":"\u0423\u043a\u0440\u0430\u0438\u043d\u0430","name:zh-yue":"\u70cf\u514b\u862d","name:zh":"\u4e4c\u514b\u5170","name:so":"Ukrain","name:sn":"Ukraine","name:sm":"Ukraine","name:sl":"Ukrajina","name:sk":"Ukrajina","name:ja":"\u30a6\u30af\u30e9\u30a4\u30ca","name:sh":"Ukrajina","name:se":"Ukraina","name:sc":"Ucraina","name:br":"Ukraina","name:bs":"Ukrajina","name:bn":"\u0987\u0989\u0995\u09cd\u09b0\u09c7\u09a8","name:bo":"\u0f68\u0f74\u0f40\u0f0b\u0f62\u0f61\u0f72\u0f0b\u0f53\u0f72\u0f0d","name:bi":"Ukraine","name:sw":"Ukraine","name:be":"\u0423\u043a\u0440\u0430\u0456\u043d\u0430","name:su":"Ukraina","name:bg":"\u0423\u043a\u0440\u0430\u0439\u043d\u0430","name:ss":"IYukhureni","name:ba":"\u0423\u043a\u0440\u0430\u0438\u043d\u0430","name:sq":"Ukraina","name:jv":"Ukraina","name:pt":"Ucr\u00e2nia","name:ps":"\u0627\u0648\u06a9\u0631\u0627\u06cc\u0646","name:oc":"Ucra\u00efna","min_zoom":8.0,"name:ro":"Ucraina","name:zh-min-nan":"Ukrayina","name:os":"\u0423\u043a\u0440\u0430\u0438\u043d\u00e6","name:or":"\u0b5f\u0b41\u0b15\u0b4d\u0b30\u0b47\u0b28","name:pl":"Ukraina","sort_rank":262,"name:sr":"\u0423\u043a\u0440\u0430\u0458\u0438\u043d\u0430","osm_relation":true,"name:pa":"\u0a2f\u0a42\u0a15\u0a4d\u0a30\u0a47\u0a28","name:tr":"Ukrayna","name:hi":"\u092f\u0941\u0915\u094d\u0930\u0947\u0928","name:sv":"Ukraina","name:he":"\u05d0\u05d5\u05e7\u05e8\u05d0\u05d9\u05e0\u05d4","name:hy":"\u0548\u0582\u056f\u0580\u0561\u056b\u0576\u0561","name:ht":"Ikr\u00e8n","name:hu":"Ukrajna","name:qu":"Ukranya","kind":"country","name:ts":"Ukraine","name:yi":"\u05d0\u05d5\u05e7\u05e8\u05d0\u05d9\u05e0\u05e2","name:yo":"Ukr\u00e9\u00ecn","name:mt":"Ukrajna","alt_name:eo":"Ukrainio","name:ms":"Ukraine","name:mr":"\u092f\u0941\u0915\u094d\u0930\u0947\u0928","name:my":"\u101a\u1030\u1000\u101b\u102d\u1014\u103a\u1038\u1014\u102d\u102f\u1004\u103a\u1004\u1036","int_name":"Ukraine","name:mg":"Okraina","name:ml":"\u0d09\u0d15\u0d4d\u0d30\u0d48\u0d7b","name:vi":"Ukraina","name:mn":"\u0423\u043a\u0440\u0430\u0439\u043d","name:mi":"\u016akareinga","id":-60199,"name:mk":"\u0423\u043a\u0440\u0430\u0438\u043d\u0430","name:vo":"Lukray\u00e4n","name:fa":"\u0627\u0648\u06a9\u0631\u0627\u06cc\u0646","name:rw":"Ikerene","name:fi":"Ukraina","old_name:vi":"\u00d4 Kh\u1eafc Lan","name:fo":"Ukraina","alt_name:vi":"Uy Ki\u00ean","name:fr":"Ukraine","name:fy":"Oekra\u00efne","name:nl":"Oekra\u00efne","name:nn":"Ukraina","name:no":"Ukraina","name:na":"Ukraine","name:ne":"\u092f\u0941\u0915\u094d\u0930\u0947\u0928","name:wa":"Oucrinne","name:wo":"Ukreen","name:nv":"Y\u00f3\u00f3kwein","name:ga":"An \u00dacr\u00e1in","name:gd":"An Ucr\u00e0in","name:gn":"Ukya\u00f1a","name:gl":"Ucra\u00edna","name:gv":"Yn Ookraan","name:gu":"\u0aaf\u0ac1\u0a95\u0acd\u0ab0\u0ac7\u0aa8"},"arcs":[[0],[1]]},{"type":"LineString","properties":{"name:right:hy":"\u053d\u0561\u0580\u056f\u0578\u057e\u056b \u0574\u0561\u0580\u0566","name:right:no":"Kharkiv oblast","name:right:hr":"Harkivska oblast","name:left:sv":"Poltava oblast","name:right:hu":"Harkivi ter\u00fclet","name:left:sr":"\u041f\u043e\u043b\u0442\u0430\u0432\u0441\u043a\u0430 \u043e\u0431\u043b\u0430\u0441\u0442","name:right:lt":"Charkovo sritis","name:right:lv":"Harkovas apgabals","name:left:lt":"Poltavos sritis","name:left:sh":"Poltavska oblast","name:left:sk":"Poltavsk\u00e1 oblas\u0165","name:left:hu":"Poltavai ter\u00fclet","name:left:hr":"Poltavska oblast","name:right:os":"\u0425\u0430\u0440\u044c\u043a\u043e\u0432\u044b \u043e\u0431\u043b\u00e6\u0441\u0442","name:right:vi":"Kharkiv (t\u1ec9nh)","sort_rank":256,"name:left:ca":"Prov\u00edncia de Poltava","name:left:gl":"Oblast de Poltava","source":"openstreetmap.org","name:right:ar":"\u062e\u0627\u0631\u0643\u064a\u0641 \u0623\u0648\u0628\u0644\u0627\u0633\u062a","name:left:cv":"\u041f\u043e\u043b\u0442\u0430\u0432\u0430 \u043e\u0431\u043b\u0430\u00e7\u0115","name:left:cs":"Poltavsk\u00e1 oblast","name:left":"\u041f\u043e\u043b\u0442\u0430\u0432\u0441\u044c\u043a\u0430 \u043e\u0431\u043b\u0430\u0441\u0442\u044c","name:right:es":"\u00d3blast de J\u00e1rkov","name:right:sh":"Harkivska oblast","name:right:sr":"\u0425\u0430\u0440\u043a\u043e\u0432\u0441\u043a\u0430 \u043e\u0431\u043b\u0430\u0441\u0442","name:left:ka":"\u10de\u10dd\u10da\u10e2\u10d0\u10d5\u10d8\u10e1 \u10dd\u10da\u10e5\u10d8","name:right:eu":"Kharkiveko oblasta","name:right:et":"Harkivi oblast","name:left:ko":"\ud3f4\ud0c0\ubc14 \uc8fc","name:right:it":"Oblast' di Charkiv","name:left:ro":"Regiunea Poltava","name:right:ru":"\u0425\u0430\u0440\u044c\u043a\u043e\u0432\u0441\u043a\u0430\u044f \u043e\u0431\u043b\u0430\u0441\u0442\u044c","name:right:ro":"Regiunea Harkov","name:left:ru":"\u041f\u043e\u043b\u0442\u0430\u0432\u0441\u043a\u0430\u044f \u043e\u0431\u043b\u0430\u0441\u0442\u044c","name:right:mr":"\u0916\u093e\u0930\u094d\u0915\u0940\u0935\u094d\u0939 \u0913\u092c\u094d\u0932\u093e\u0938\u094d\u0924","name:right:id":"Oblast Kharkiv","name:right:eo":"\u0124arkiva provinco","name:right:en":"Kharkiv Oblast","name:left:vi":"Poltava (t\u1ec9nh)","kind":"region","name":"\u041f\u043e\u043b\u0442\u0430\u0432\u0441\u044c\u043a\u0430 \u043e\u0431\u043b\u0430\u0441\u0442\u044c - \u0425\u0430\u0440\u043a\u0456\u0432\u0441\u044c\u043a\u0430 \u043e\u0431\u043b\u0430\u0441\u0442\u044c","name:left:fa":"\u0627\u0633\u062a\u0627\u0646 \u067e\u0648\u0644\u062a\u0627\u0648\u0627","name:right:fa":"\u0627\u0633\u062a\u0627\u0646 \u062e\u0627\u0631\u06a9\u0641","min_zoom":8.0,"name:right:be":"\u0425\u0430\u0440\u043a\u0430\u045e\u0441\u043a\u0430\u044f \u0432\u043e\u0431\u043b\u0430\u0441\u0446\u044c","name:left:zh":"\u6ce2\u5c14\u5854\u74e6\u5dde","name:left:fr":"Oblast de Poltava","name:right:zh":"\u54c8\u723e\u79d1\u592b\u5dde","name:left:hy":"\u054a\u0578\u056c\u057f\u0561\u057e\u0561\u0575\u056b \u0574\u0561\u0580\u0566","name:right:nn":"Kharkiv oblast","name:right:mk":"\u0425\u0430\u0440\u043a\u043e\u0432\u0441\u043a\u0430 \u043e\u0431\u043b\u0430\u0441\u0442","name:right:nl":"Oblast Charkov","name:right:ja":"\u30cf\u30eb\u30ad\u30a6\u5dde","name:right:fr":"Oblast de Kharkiv","name:left:lv":"Poltavas apgabals","name:left:ja":"\u30dd\u30eb\u30bf\u30f4\u30a1\u5dde","id:right":-71254,"name:left:nn":"Poltava oblast","name:left:no":"Poltava oblast","name:right:sk":"Charkovsk\u00e1 oblas\u0165","name:left:bg":"\u041f\u043e\u043b\u0442\u0430\u0432\u0441\u043a\u0430 \u043e\u0431\u043b\u0430\u0441\u0442","name:left:be":"\u041f\u0430\u043b\u0442\u0430\u045e\u0441\u043a\u0430\u044f \u0432\u043e\u0431\u043b\u0430\u0441\u0446\u044c","name:left:fi":"Pultavan alue","id":-91294,"name:right:fi":"Harkovan alue","name:left:eo":"Poltava provinco","name:left:en":"Poltava Oblast","name:right:ca":"Prov\u00edncia de Kh\u00e0rkiv","kind_detail":"4","name:left:mk":"\u041f\u043e\u043b\u0442\u0430\u0432\u0441\u043a\u0430 \u043e\u0431\u043b\u0430\u0441\u0442","name:left:nl":"Oblast Poltava","id:left":-91294,"name:left:es":"\u00d3blast de Poltava","name:right:cs":"Charkovsk\u00e1 oblast","name:right":"\u0425\u0430\u0440\u043a\u0456\u0432\u0441\u044c\u043a\u0430 \u043e\u0431\u043b\u0430\u0441\u0442\u044c","name:left:eu":"Poltavako oblasta","name:left:et":"Poltava oblast","name:right:ka":"\u10ee\u10d0\u10e0\u10d9\u10dd\u10d5\u10d8\u10e1 \u10dd\u10da\u10e5\u10d8","name:right:zh-min-nan":"Xarkiv s\u00e9ng","name:right:pt":"Oblast de Kharkiv","name:left:ar":"\u0628\u0648\u0644\u062a\u0627\u0641\u0627 \u0623\u0648\u0628\u0644\u0627\u0633\u062a","name:left:pl":"Obw\u00f3d po\u0142tawski","name:left:tr":"Poltava Oblast\u0131","name:left:id":"Oblast Poltava","name:left:az":"Poltava vilay\u0259ti","name:right:tr":"Harkiv Oblast\u0131","name:right:bg":"\u0425\u0430\u0440\u043a\u043e\u0432\u0441\u043a\u0430 \u043e\u0431\u043b\u0430\u0441\u0442","name:left:pt":"Oblast de Poltava","name:left:mr":"\u092a\u094b\u0932\u094d\u0924\u093e\u0935\u094d\u0939\u093e \u0913\u092c\u094d\u0932\u093e\u0938\u094d\u0924","name:right:sv":"Charkiv oblast","name:right:ko":"\ud558\ub974\ud0a4\uc6b0 \uc8fc","name:left:zh-min-nan":"Poltava s\u00e9ng","name:left:it":"Oblast' di Poltava","name:right:pl":"Obw\u00f3d charkowski","osm_relation":true,"name:right:de":"Oblast Charkiw","name:left:de":"Oblast Poltawa"},"arcs":[2]},{"type":"MultiLineString","properties":{"name:right:hy":"\u053d\u0561\u0580\u056f\u0578\u057e\u056b \u0574\u0561\u0580\u0566","name:left:uz":"Belgorod viloyati","name:right:hr":"Harkivska oblast","name:left:sv":"Belgorod oblast","name:right:hu":"Harkivi ter\u00fclet","name:left:sr":"\u0411\u0435\u043b\u0433\u043e\u0440\u043e\u0434\u0441\u043a\u0430 \u043e\u0431\u043b\u0430\u0441\u0442","name:right:lt":"Charkovo sritis","min_zoom":8.0,"name:left:lt":"Belgorodo sritis","name:left:hy":"\u0532\u0565\u056c\u0563\u0578\u0580\u0578\u0564\u056b \u0574\u0561\u0580\u0566","name:left:lv":"Belgorodas apgabals","name:right:os":"\u0425\u0430\u0440\u044c\u043a\u043e\u0432\u044b \u043e\u0431\u043b\u00e6\u0441\u0442","name:left:ce":"\u0411\u0435\u043b\u0433\u043e\u0440\u043e\u0434\u0430\u043d \u043e\u0431\u043b\u0430\u0441\u0442\u044c","name:left:ca":"Prov\u00edncia de B\u00e9lgorod","name:right:sk":"Charkovsk\u00e1 oblas\u0165","source":"openstreetmap.org","name:right:ar":"\u062e\u0627\u0631\u0643\u064a\u0641 \u0623\u0648\u0628\u0644\u0627\u0633\u062a","name:left:cs":"B\u011blgorodsk\u00e1 oblast","name:left":"\u0411\u0435\u043b\u0433\u043e\u0440\u043e\u0434\u0441\u043a\u0430\u044f \u043e\u0431\u043b\u0430\u0441\u0442\u044c","name:right:mk":"\u0425\u0430\u0440\u043a\u043e\u0432\u0441\u043a\u0430 \u043e\u0431\u043b\u0430\u0441\u0442","name:left:ka":"\u10d1\u10d4\u10da\u10d2\u10dd\u10e0\u10dd\u10d3\u10d8\u10e1 \u10dd\u10da\u10e5\u10d8","name:right:eu":"Kharkiveko oblasta","name:right:et":"Harkivi oblast","name:right:it":"Oblast' di Charkiv","name:left:ro":"Regiunea Belgorod","name:right:vi":"Kharkiv (t\u1ec9nh)","name:right:es":"\u00d3blast de J\u00e1rkov","name:left:kv":"\u0411\u0435\u043b\u0433\u043e\u0440\u043e\u0434 \u043e\u0431\u043b\u0430\u0441\u044c\u0442","name:right:ro":"Regiunea Harkov","name:right:mr":"\u0916\u093e\u0930\u094d\u0915\u0940\u0935\u094d\u0939 \u0913\u092c\u094d\u0932\u093e\u0938\u094d\u0924","name:right:id":"Oblast Kharkiv","name:right:eo":"\u0124arkiva provinco","name:right:en":"Kharkiv Oblast","kind":"region","name":"\u0411\u0435\u043b\u0433\u043e\u0440\u043e\u0434\u0441\u043a\u0430\u044f \u043e\u0431\u043b\u0430\u0441\u0442\u044c - \u0425\u0430\u0440\u043a\u0456\u0432\u0441\u044c\u043a\u0430 \u043e\u0431\u043b\u0430\u0441\u0442\u044c","name:right:fa":"\u0627\u0633\u062a\u0627\u0646 \u062e\u0627\u0631\u06a9\u0641","name:right:lv":"Harkovas apgabals","name:right:be":"\u0425\u0430\u0440\u043a\u0430\u045e\u0441\u043a\u0430\u044f \u0432\u043e\u0431\u043b\u0430\u0441\u0446\u044c","name:left:fr":"Oblast de Belgorod","name:right:zh":"\u54c8\u723e\u79d1\u592b\u5dde","name:left:sh":"Belgorodska oblast","name:right:nn":"Kharkiv oblast","name:right:no":"Kharkiv oblast","name:right:nl":"Oblast Charkov","name:right:ja":"\u30cf\u30eb\u30ad\u30a6\u5dde","name:right:fr":"Oblast de Kharkiv","name:right:sr":"\u0425\u0430\u0440\u043a\u043e\u0432\u0441\u043a\u0430 \u043e\u0431\u043b\u0430\u0441\u0442","name:right:sv":"Charkiv oblast","name:left:uk":"\u0411\u0454\u043b\u0433\u043e\u0440\u043e\u0434\u0441\u044c\u043a\u0430 \u043e\u0431\u043b\u0430\u0441\u0442\u044c","name:right:sh":"Harkivska oblast","name:left:nl":"Oblast Belgorod","name:left:ba":"\u0411\u0435\u043b\u0433\u043e\u0440\u043e\u0434 \u04e9\u043b\u043a\u04d9\u04bb\u0435","name:left:bg":"\u0411\u0435\u043b\u0433\u043e\u0440\u043e\u0434\u0441\u043a\u0430 \u043e\u0431\u043b\u0430\u0441\u0442","name:left:be":"\u0411\u0435\u043b\u0433\u0430\u0440\u043e\u0434\u0441\u043a\u0430\u044f \u0432\u043e\u0431\u043b\u0430\u0441\u0446\u044c","id":-83184,"name:right":"\u0425\u0430\u0440\u043a\u0456\u0432\u0441\u044c\u043a\u0430 \u043e\u0431\u043b\u0430\u0441\u0442\u044c","name:left:eo":"Belgoroda provinco","name:left:en":"Belgorod Oblast","name:left:el":"\u03a0\u03b5\u03c1\u03b9\u03c6\u03ad\u03c1\u03b5\u03b9\u03b1 \u039c\u03c0\u03ad\u03bb\u03b3\u03ba\u03bf\u03c1\u03bf\u03bd\u03c4","name:right:ca":"Prov\u00edncia de Kh\u00e0rkiv","kind_detail":"4","id:left":-83184,"name:left:es":"\u00d3blast de B\u00e9lgorod","name:right:cs":"Charkovsk\u00e1 oblast","name:right:fi":"Harkovan alue","id:right":-71254,"name:left:et":"Belgorodi oblast","name:right:ka":"\u10ee\u10d0\u10e0\u10d9\u10dd\u10d5\u10d8\u10e1 \u10dd\u10da\u10e5\u10d8","name:right:zh-min-nan":"Xarkiv s\u00e9ng","name:right:pt":"Oblast de Kharkiv","name:left:pl":"Obw\u00f3d bie\u0142gorodzki","name:left:tt":"\u0411\u0435\u043b\u0433\u043e\u0440\u043e\u0434 \u04e9\u043b\u043a\u04d9\u0441\u0435","name:left:az":"Belqorod vilay\u0259ti","name:right:ko":"\ud558\ub974\ud0a4\uc6b0 \uc8fc","name:right:bg":"\u0425\u0430\u0440\u043a\u043e\u0432\u0441\u043a\u0430 \u043e\u0431\u043b\u0430\u0441\u0442","name:left:pt":"Oblast de Belgorod","name:left:af":"Belgorod-oblast","name:right:tr":"Harkiv Oblast\u0131","name:right:ru":"\u0425\u0430\u0440\u044c\u043a\u043e\u0432\u0441\u043a\u0430\u044f \u043e\u0431\u043b\u0430\u0441\u0442\u044c","name:right:pl":"Obw\u00f3d charkowski","osm_relation":true,"name:right:de":"Oblast Charkiw","name:left:de":"Oblast Belgorod","sort_rank":256},"arcs":[[3],[4]]},{"type":"LineString","properties":{"name:right:hy":"\u054d\u0578\u0582\u0574\u056b\u056b \u0574\u0561\u0580\u0566","name:left:uz":"Belgorod viloyati","name:right:hr":"Sumska oblast","name:left:sv":"Belgorod oblast","name:right:hu":"Szumi ter\u00fclet","name:left:sr":"\u0411\u0435\u043b\u0433\u043e\u0440\u043e\u0434\u0441\u043a\u0430 \u043e\u0431\u043b\u0430\u0441\u0442","name:right:lt":"Sum\u0173 sritis","min_zoom":8.0,"name:left:lt":"Belgorodo sritis","name:left:hy":"\u0532\u0565\u056c\u0563\u0578\u0580\u0578\u0564\u056b \u0574\u0561\u0580\u0566","name:left:lv":"Belgorodas apgabals","name:right:os":"\u0421\u0443\u043c\u044b\u0439\u044b \u043e\u0431\u043b\u00e6\u0441\u0442","name:left:ce":"\u0411\u0435\u043b\u0433\u043e\u0440\u043e\u0434\u0430\u043d \u043e\u0431\u043b\u0430\u0441\u0442\u044c","name:left:ca":"Prov\u00edncia de B\u00e9lgorod","name:right:sk":"Sumsk\u00e1 oblas\u0165","source":"openstreetmap.org","name:right:ar":"\u0633\u0648\u0645\u064a \u0623\u0648\u0628\u0644\u0627\u0633\u062a","name:left:cs":"B\u011blgorodsk\u00e1 oblast","name:left":"\u0411\u0435\u043b\u0433\u043e\u0440\u043e\u0434\u0441\u043a\u0430\u044f \u043e\u0431\u043b\u0430\u0441\u0442\u044c","name:right:mk":"\u0421\u0443\u043c\u0441\u043a\u0430 \u043e\u0431\u043b\u0430\u0441\u0442","name:left:ka":"\u10d1\u10d4\u10da\u10d2\u10dd\u10e0\u10dd\u10d3\u10d8\u10e1 \u10dd\u10da\u10e5\u10d8","name:right:eu":"Sumyko oblasta","name:right:et":"Sum\u00f5 oblast","name:right:it":"Oblast' di Sumy","name:left:ro":"Regiunea Belgorod","name:right:vi":"Sumi (t\u1ec9nh)","name:right:es":"\u00d3blast de Sumy","name:left:kv":"\u0411\u0435\u043b\u0433\u043e\u0440\u043e\u0434 \u043e\u0431\u043b\u0430\u0441\u044c\u0442","name:right:ro":"Regiunea Sum\u00ee","name:right:mr":"\u0938\u0941\u092e\u0940 \u0913\u092c\u094d\u0932\u093e\u0938\u094d\u0924","name:right:id":"Oblast Sumy","name:right:eo":"Sumia provinco","name:right:en":"Sumy Oblast","kind":"region","name":"\u0411\u0435\u043b\u0433\u043e\u0440\u043e\u0434\u0441\u043a\u0430\u044f \u043e\u0431\u043b\u0430\u0441\u0442\u044c - \u0421\u0443\u043c\u0441\u044c\u043a\u0430 \u043e\u0431\u043b\u0430\u0441\u0442\u044c","name:right:fa":"\u0627\u0633\u062a\u0627\u0646 \u0633\u0648\u0645\u06cc","name:right:lv":"Sumu apgabals","name:right:be":"\u0421\u0443\u043c\u0441\u043a\u0430\u044f \u0432\u043e\u0431\u043b\u0430\u0441\u0446\u044c","name:left:fr":"Oblast de Belgorod","name:right:zh":"\u8607\u6885\u5dde","name:left:sh":"Belgorodska oblast","name:right:nn":"Sumy oblast","name:right:no":"Sumy oblast","name:right:nl":"Oblast Soemy","name:right:ja":"\u30b9\u30fc\u30e0\u30a3\u5dde","name:right:fr":"Oblast de Soumy","name:right:sr":"\u0421\u0443\u043c\u0441\u043a\u0430 \u043e\u0431\u043b\u0430\u0441\u0442","name:right:sv":"Sumy oblast","name:left:uk":"\u0411\u0454\u043b\u0433\u043e\u0440\u043e\u0434\u0441\u044c\u043a\u0430 \u043e\u0431\u043b\u0430\u0441\u0442\u044c","name:right:sh":"Sumska oblast","name:left:nl":"Oblast Belgorod","name:left:ba":"\u0411\u0435\u043b\u0433\u043e\u0440\u043e\u0434 \u04e9\u043b\u043a\u04d9\u04bb\u0435","name:left:bg":"\u0411\u0435\u043b\u0433\u043e\u0440\u043e\u0434\u0441\u043a\u0430 \u043e\u0431\u043b\u0430\u0441\u0442","name:left:be":"\u0411\u0435\u043b\u0433\u0430\u0440\u043e\u0434\u0441\u043a\u0430\u044f \u0432\u043e\u0431\u043b\u0430\u0441\u0446\u044c","id":-83184,"name:right":"\u0421\u0443\u043c\u0441\u044c\u043a\u0430 \u043e\u0431\u043b\u0430\u0441\u0442\u044c","name:left:eo":"Belgoroda provinco","name:left:en":"Belgorod Oblast","name:left:el":"\u03a0\u03b5\u03c1\u03b9\u03c6\u03ad\u03c1\u03b5\u03b9\u03b1 \u039c\u03c0\u03ad\u03bb\u03b3\u03ba\u03bf\u03c1\u03bf\u03bd\u03c4","name:right:ca":"Prov\u00edncia de Sumy","kind_detail":"4","id:left":-83184,"name:left:es":"\u00d3blast de B\u00e9lgorod","name:right:cs":"Sumsk\u00e1 oblast","name:right:fi":"Sumyn alue","id:right":-71250,"name:left:et":"Belgorodi oblast","name:right:ka":"\u10e1\u10e3\u10db\u10d8\u10e1 \u10dd\u10da\u10e5\u10d8","name:right:zh-min-nan":"Sumy s\u00e9ng","name:right:pt":"Oblast de Sumi","name:left:pl":"Obw\u00f3d bie\u0142gorodzki","name:left:tt":"\u0411\u0435\u043b\u0433\u043e\u0440\u043e\u0434 \u04e9\u043b\u043a\u04d9\u0441\u0435","name:left:az":"Belqorod vilay\u0259ti","name:right:ko":"\uc218\ubbf8 \uc8fc","name:right:bg":"\u0421\u0443\u043c\u0441\u043a\u0430 \u043e\u0431\u043b\u0430\u0441\u0442","name:left:pt":"Oblast de Belgorod","name:left:af":"Belgorod-oblast","name:right:ga":"C\u00faige Shumy","name:right:tr":"Sumi Oblast\u0131","name:right:ru":"\u0421\u0443\u043c\u0441\u043a\u0430\u044f \u043e\u0431\u043b\u0430\u0441\u0442\u044c","name:right:pl":"Obw\u00f3d sumski","osm_relation":true,"name:right:de":"Oblast Sumy","name:left:de":"Oblast Belgorod","sort_rank":256},"arcs":[5]},{"type":"LineString","properties":{"name:right:hy":"\u054d\u0578\u0582\u0574\u056b\u056b \u0574\u0561\u0580\u0566","name:right:no":"Sumy oblast","name:right:hr":"Sumska oblast","name:left:sv":"Charkiv oblast","name:right:hu":"Szumi ter\u00fclet","name:left:sr":"\u0425\u0430\u0440\u043a\u043e\u0432\u0441\u043a\u0430 \u043e\u0431\u043b\u0430\u0441\u0442","name:right:lt":"Sum\u0173 sritis","name:right:lv":"Sumu apgabals","name:left:lt":"Charkovo sritis","name:left:sh":"Harkivska oblast","name:left:sk":"Charkovsk\u00e1 oblas\u0165","name:left:hu":"Harkivi ter\u00fclet","name:left:hr":"Harkivska oblast","name:right:os":"\u0421\u0443\u043c\u044b\u0439\u044b \u043e\u0431\u043b\u00e6\u0441\u0442","name:right:vi":"Sumi (t\u1ec9nh)","sort_rank":256,"name:left:ca":"Prov\u00edncia de Kh\u00e0rkiv","source":"openstreetmap.org","name:right:ar":"\u0633\u0648\u0645\u064a \u0623\u0648\u0628\u0644\u0627\u0633\u062a","name:left:cs":"Charkovsk\u00e1 oblast","name:left":"\u0425\u0430\u0440\u043a\u0456\u0432\u0441\u044c\u043a\u0430 \u043e\u0431\u043b\u0430\u0441\u0442\u044c","name:right:es":"\u00d3blast de Sumy","name:right:sh":"Sumska oblast","name:right:sr":"\u0421\u0443\u043c\u0441\u043a\u0430 \u043e\u0431\u043b\u0430\u0441\u0442","name:left:ka":"\u10ee\u10d0\u10e0\u10d9\u10dd\u10d5\u10d8\u10e1 \u10dd\u10da\u10e5\u10d8","name:right:eu":"Sumyko oblasta","name:right:et":"Sum\u00f5 oblast","name:left:ko":"\ud558\ub974\ud0a4\uc6b0 \uc8fc","name:right:it":"Oblast' di Sumy","name:left:ro":"Regiunea Harkov","name:right:ru":"\u0421\u0443\u043c\u0441\u043a\u0430\u044f \u043e\u0431\u043b\u0430\u0441\u0442\u044c","name:right:ro":"Regiunea Sum\u00ee","name:left:ru":"\u0425\u0430\u0440\u044c\u043a\u043e\u0432\u0441\u043a\u0430\u044f \u043e\u0431\u043b\u0430\u0441\u0442\u044c","name:right:mr":"\u0938\u0941\u092e\u0940 \u0913\u092c\u094d\u0932\u093e\u0938\u094d\u0924","name:right:id":"Oblast Sumy","name:right:eo":"Sumia provinco","name:right:en":"Sumy Oblast","name:left:vi":"Kharkiv (t\u1ec9nh)","kind":"region","name":"\u0425\u0430\u0440\u043a\u0456\u0432\u0441\u044c\u043a\u0430 \u043e\u0431\u043b\u0430\u0441\u0442\u044c - \u0421\u0443\u043c\u0441\u044c\u043a\u0430 \u043e\u0431\u043b\u0430\u0441\u0442\u044c","name:left:fa":"\u0627\u0633\u062a\u0627\u0646 \u062e\u0627\u0631\u06a9\u0641","name:right:fa":"\u0627\u0633\u062a\u0627\u0646 \u0633\u0648\u0645\u06cc","min_zoom":8.0,"name:right:be":"\u0421\u0443\u043c\u0441\u043a\u0430\u044f \u0432\u043e\u0431\u043b\u0430\u0441\u0446\u044c","name:left:zh":"\u54c8\u723e\u79d1\u592b\u5dde","name:left:fr":"Oblast de Kharkiv","name:right:zh":"\u8607\u6885\u5dde","name:left:hy":"\u053d\u0561\u0580\u056f\u0578\u057e\u056b \u0574\u0561\u0580\u0566","name:right:nn":"Sumy oblast","name:right:mk":"\u0421\u0443\u043c\u0441\u043a\u0430 \u043e\u0431\u043b\u0430\u0441\u0442","name:right:nl":"Oblast Soemy","name:right:ja":"\u30b9\u30fc\u30e0\u30a3\u5dde","name:right:fr":"Oblast de Soumy","name:left:lv":"Harkovas apgabals","name:left:ja":"\u30cf\u30eb\u30ad\u30a6\u5dde","name:right:sv":"Sumy oblast","name:left:nn":"Kharkiv oblast","name:left:no":"Kharkiv oblast","name:right:sk":"Sumsk\u00e1 oblas\u0165","name:left:bg":"\u0425\u0430\u0440\u043a\u043e\u0432\u0441\u043a\u0430 \u043e\u0431\u043b\u0430\u0441\u0442","name:left:be":"\u0425\u0430\u0440\u043a\u0430\u045e\u0441\u043a\u0430\u044f \u0432\u043e\u0431\u043b\u0430\u0441\u0446\u044c","name:left:fi":"Harkovan alue","id":-71254,"name:right:fi":"Sumyn alue","name:left:eo":"\u0124arkiva provinco","name:left:en":"Kharkiv Oblast","name:right:ca":"Prov\u00edncia de Sumy","kind_detail":"4","name:left:mk":"\u0425\u0430\u0440\u043a\u043e\u0432\u0441\u043a\u0430 \u043e\u0431\u043b\u0430\u0441\u0442","name:left:nl":"Oblast Charkov","id:left":-71254,"name:left:es":"\u00d3blast de J\u00e1rkov","name:right:cs":"Sumsk\u00e1 oblast","name:right":"\u0421\u0443\u043c\u0441\u044c\u043a\u0430 \u043e\u0431\u043b\u0430\u0441\u0442\u044c","id:right":-71250,"name:left:os":"\u0425\u0430\u0440\u044c\u043a\u043e\u0432\u044b \u043e\u0431\u043b\u00e6\u0441\u0442","name:left:eu":"Kharkiveko oblasta","name:left:et":"Harkivi oblast","name:right:ka":"\u10e1\u10e3\u10db\u10d8\u10e1 \u10dd\u10da\u10e5\u10d8","name:right:zh-min-nan":"Sumy s\u00e9ng","name:right:pt":"Oblast de Sumi","name:left:ar":"\u062e\u0627\u0631\u0643\u064a\u0641 \u0623\u0648\u0628\u0644\u0627\u0633\u062a","name:left:pl":"Obw\u00f3d charkowski","name:left:tr":"Harkiv Oblast\u0131","name:left:id":"Oblast Kharkiv","name:right:tr":"Sumi Oblast\u0131","name:right:bg":"\u0421\u0443\u043c\u0441\u043a\u0430 \u043e\u0431\u043b\u0430\u0441\u0442","name:left:pt":"Oblast de Kharkiv","name:left:mr":"\u0916\u093e\u0930\u094d\u0915\u0940\u0935\u094d\u0939 \u0913\u092c\u094d\u0932\u093e\u0938\u094d\u0924","name:right:ga":"C\u00faige Shumy","name:right:ko":"\uc218\ubbf8 \uc8fc","name:left:zh-min-nan":"Xarkiv s\u00e9ng","name:left:it":"Oblast' di Charkiv","name:right:pl":"Obw\u00f3d sumski","osm_relation":true,"name:right:de":"Oblast Sumy","name:left:de":"Oblast Charkiw"},"arcs":[6]}]},"roads":{"type":"GeometryCollection","geometries":[{"type":"LineString","properties":{"old_name:uk":"\u041f\u0440\u0430\u0432\u0434\u0438 \u043f\u0440\u043e\u0441\u043f\u0435\u043a\u0442","kind":"major_road","sort_rank":380,"kind_detail":"primary","old_name:ru":"\u041f\u0440\u0430\u0432\u0434\u044b \u043f\u0440\u043e\u0441\u043f\u0435\u043a\u0442","bus_network":null,"source":"openstreetmap.org","min_zoom":8.0,"old_name:en":"Pravdy Avenue","old_name":"\u041f\u0440\u0430\u0432\u0434\u0438 \u043f\u0440\u043e\u0441\u043f\u0435\u043a\u0442","name:ru":"\u041d\u0435\u0437\u0430\u0432\u0438\u0441\u0438\u043c\u043e\u0441\u0442\u0438 \u043f\u0440\u043e\u0441\u043f\u0435\u043a\u0442","landuse_kind":"urban_area","bus_shield_text":"270\u0435","id":205488389},"arcs":[266]},{"type":"LineString","properties":{"kind":"major_road","name:en":"Netechenska Embarkment","sort_rank":380,"kind_detail":"primary","bus_network":null,"source":"openstreetmap.org","min_zoom":8.0,"bus_shield_text":"304\u0435","name:ru":"\u041d\u0435\u0442\u0435\u0447\u0435\u043d\u0441\u043a\u0430\u044f \u043d\u0430\u0431\u0435\u0440\u0435\u0436\u043d\u0430\u044f","landuse_kind":"urban_area","id":38231658},"arcs":[267]},{"type":"LineString","properties":{"kind":"major_road","name:en":"Pushkina Street","network":"ua:regional","sort_rank":380,"kind_detail":"primary","source":"openstreetmap.org","min_zoom":8.0,"landuse_kind":"urban_area","shield_text":"46","name:ru":"\u041f\u0443\u0448\u043a\u0438\u043d\u0430 \u0443\u043b\u0438\u0446\u0430","ref":"\u0420-46"},"arcs":[268]},{"type":"LineString","properties":{"bus_network":null,"name:en":"Akademika Pavlova Street","sort_rank":380,"kind_detail":"primary","kind":"major_road","bicycle_shield_text":"2","bicycle_network":null,"source":"openstreetmap.org","min_zoom":8.0,"bus_shield_text":"211\u044d","name:ru":"\u0410\u043a\u0430\u0434\u0435\u043c\u0438\u043a\u0430 \u041f\u0430\u0432\u043b\u043e\u0432\u0430 \u0443\u043b\u0438\u0446\u0430","landuse_kind":"urban_area"},"arcs":[269]},{"type":"MultiLineString","properties":{"bus_network":null,"name:en":"Moskovsky Avenue","sort_rank":380,"kind_detail":"primary","kind":"major_road","source":"openstreetmap.org","min_zoom":8.0,"bus_shield_text":"211\u044d","name:ru":"\u041c\u043e\u0441\u043a\u043e\u0432\u0441\u043a\u0438\u0439 \u043f\u0440\u043e\u0441\u043f\u0435\u043a\u0442","landuse_kind":"urban_area"},"arcs":[[270],[271]]},{"type":"LineString","properties":{"bus_network":null,"name:en":"Klochkivska Street","sort_rank":380,"kind_detail":"primary","kind":"major_road","source":"openstreetmap.org","min_zoom":8.0,"bus_shield_text":"278\u044d","name:ru":"\u041a\u043b\u043e\u0447\u043a\u043e\u0432\u0441\u043a\u0430\u044f \u0443\u043b\u0438\u0446\u0430","landuse_kind":"urban_area"},"arcs":[272]},{"type":"LineString","properties":{"min_zoom":8.0,"old_name:en":"50-richchya SRSR Avenue","old_name":"50-\u0440\u0456\u0447\u0447\u044f \u0421\u0420\u0421\u0420 \u043f\u0440\u043e\u0441\u043f\u0435\u043a\u0442","name:ru":"\u041c\u0435\u0440\u0435\u0444\u044f\u043d\u0441\u043a\u043e\u0435 \u0448\u043e\u0441\u0441\u0435","id":486456289,"old_name:uk":"50-\u0440\u0456\u0447\u0447\u044f \u0421\u0420\u0421\u0420 \u043f\u0440\u043e\u0441\u043f\u0435\u043a\u0442","kind":"major_road","name:en":"Lva Landau Avenue","network":"ua:international","sort_rank":381,"kind_detail":"trunk","old_name:ru":"50-\u043b\u0435\u0442\u0438\u044f \u0421\u0421\u0421\u0420 \u043f\u0440\u043e\u0441\u043f\u0435\u043a\u0442","source":"openstreetmap.org","landuse_kind":"urban_area","shield_text":"03","ref":"\u041c-03;\u041c-18"},"arcs":[273]},{"type":"LineString","properties":{"old_name:uk":"\u041d\u0430\u0440\u0456\u043c\u0430\u043d\u043e\u0432\u0430 \u0432\u0443\u043b\u0438\u0446\u044f","kind":"major_road","name:en":"Dudynskoi Street","sort_rank":380,"kind_detail":"primary","old_name:ru":"\u041d\u0430\u0440\u0438\u043c\u0430\u043d\u043e\u0432\u0430 \u0443\u043b\u0438\u0446\u0430","source":"openstreetmap.org","min_zoom":8.0,"old_name:en":"Narimanova Street","old_name":"\u041d\u0430\u0440\u0456\u043c\u0430\u043d\u043e\u0432\u0430 \u0432\u0443\u043b\u0438\u0446\u044f","name:ru":"\u0414\u0443\u0434\u0438\u043d\u0441\u043a\u043e\u0439 \u0443\u043b\u0438\u0446\u0430","landuse_kind":"urban_area","id":23757554},"arcs":[274]},{"type":"MultiLineString","properties":{"kind":"major_road","network":"ua:regional","sort_rank":380,"kind_detail":"primary","source":"openstreetmap.org","min_zoom":8.0,"shield_text":"46","ref":"\u0420-46"},"arcs":[[275],[276],[277],[278],[279]]},{"type":"MultiLineString","properties":{"bus_network":null,"name:en":"Yuriia Haharina Avenue","sort_rank":380,"kind_detail":"primary","kind":"major_road","source":"openstreetmap.org","min_zoom":8.0,"bus_shield_text":"305e","name:ru":"\u042e\u0440\u0438\u044f \u0413\u0430\u0433\u0430\u0440\u0438\u043d\u0430 \u043f\u0440\u043e\u0441\u043f\u0435\u043a\u0442","landuse_kind":"urban_area"},"arcs":[[280],[281],[282],[283]]},{"type":"LineString","properties":{"kind":"major_road","name:en":"Kharkivska Street","sort_rank":380,"kind_detail":"primary","source":"openstreetmap.org","min_zoom":8.0,"landuse_kind":"urban_area","name:ru":"\u0425\u0430\u0440\u044c\u043a\u043e\u0432\u0441\u043a\u0430\u044f \u0443\u043b\u0438\u0446\u0430","id":105843019},"arcs":[284]},{"type":"LineString","properties":{"old_name:uk":"\u0427\u0435\u0440\u0432\u043e\u043d\u043e\u0448\u043a\u0456\u043b\u044c\u043d\u0430 \u043d\u0430\u0431\u0435\u0440\u0435\u0436\u043d\u0430","bus_network":null,"sort_rank":380,"kind_detail":"primary","old_name:ru":"\u041a\u0440\u0430\u0441\u043d\u043e\u0448\u043a\u043e\u043b\u044c\u043d\u0430\u044f \u043d\u0430\u0431\u0435\u0440\u0435\u0436\u043d\u0430\u044f","kind":"major_road","source":"openstreetmap.org","min_zoom":8.0,"old_name:en":"Chervonoshkilna Embarkment","old_name":"\u0427\u0435\u0440\u0432\u043e\u043d\u043e\u0448\u043a\u0456\u043b\u044c\u043d\u0430 \u043d\u0430\u0431\u0435\u0440\u0435\u0436\u043d\u0430","name:ru":"\u0413\u0438\u043c\u043d\u0430\u0437\u0438\u0447\u0435\u0441\u043a\u0430\u044f \u043d\u0430\u0431\u0435\u0440\u0435\u0436\u043d\u0430\u044f","landuse_kind":"urban_area","bus_shield_text":"304\u0435"},"arcs":[285]},{"type":"MultiLineString","properties":{"kind":"major_road","name:en":"Bohdana Khmelnytskoho Boulevard","sort_rank":380,"kind_detail":"primary","source":"openstreetmap.org","min_zoom":8.0,"landuse_kind":"urban_area","name:ru":"\u0411\u043e\u0433\u0434\u0430\u043d\u0430 \u0425\u043c\u0435\u043b\u044c\u043d\u0438\u0446\u043a\u043e\u0433\u043e \u0431\u0443\u043b\u044c\u0432\u0430\u0440"},"arcs":[[286],[287]]},{"type":"LineString","properties":{"bus_network":null,"name:en":"Akademika Pavlova Street","sort_rank":380,"kind_detail":"primary","kind":"major_road","source":"openstreetmap.org","min_zoom":8.0,"bus_shield_text":"54\u044d","name:ru":"\u0410\u043a\u0430\u0434\u0435\u043c\u0438\u043a\u0430 \u041f\u0430\u0432\u043b\u043e\u0432\u0430 \u0443\u043b\u0438\u0446\u0430","landuse_kind":"urban_area"},"arcs":[288]},{"type":"LineString","properties":{"kind":"major_road","sort_rank":380,"kind_detail":"primary","old_name:ru":"\u041f\u0430\u0441\u0441\u0438\u043e\u043d\u0430\u0440\u0438\u0438 \u0441\u043f\u0443\u0441\u043a","bus_network":null,"source":"openstreetmap.org","min_zoom":8.0,"old_name:en":"Pasionariyi Descent","old_name":"\u041f\u0430\u0441\u0456\u043e\u043d\u0430\u0440\u0456\u0457 \u0443\u0437\u0432\u0456\u0437","name:ru":"\u041a\u043b\u043e\u0447\u043a\u043e\u0432\u0441\u043a\u0438\u0439 \u0441\u043f\u0443\u0441\u043a","landuse_kind":"urban_area","bus_shield_text":"270\u0435","id":89529676},"arcs":[289]},{"type":"LineString","properties":{"kind":"major_road","name:en":"Red Square","network":"ua:regional","sort_rank":380,"kind_detail":"primary","source":"openstreetmap.org","min_zoom":8.0,"landuse_kind":"urban_area","shield_text":"46","name:ru":"\u041a\u0440\u0430\u0441\u043d\u0430\u044f \u043f\u043b\u043e\u0449\u0430\u0434\u044c","ref":"\u0420-46","id":4422017},"arcs":[290]},{"type":"MultiLineString","properties":{"bus_network":null,"name:en":"maidan Zakhysnykiv Ukrainy","sort_rank":380,"landuse_kind":"urban_area","kind":"major_road","source":"openstreetmap.org","min_zoom":8.0,"bus_shield_text":"211\u044d","name:ru":"\u043f\u043b\u043e\u0449\u0430\u0434\u044c \u0417\u0430\u0449\u0438\u0442\u043d\u0438\u043a\u043e\u0432 \u0423\u043a\u0440\u0430\u0438\u043d\u044b","kind_detail":"primary"},"arcs":[[291],[292]]},{"type":"LineString","properties":{"source":"openstreetmap.org","kind":"major_road","landuse_kind":"urban_area","sort_rank":380,"kind_detail":"primary","ref":"\u0443\u043b\u0438\u0446\u0430 \u0421\u0430\u0434\u043e\u0432\u0430\u044f","min_zoom":8.0},"arcs":[293]},{"type":"MultiLineString","properties":{"kind":"major_road","network":"ua:regional","sort_rank":380,"kind_detail":"primary","source":"openstreetmap.org","min_zoom":8.0,"landuse_kind":"residential","shield_text":"46","ref":"\u0420-46"},"arcs":[[294],[295]]},{"type":"LineString","properties":{"bus_network":null,"name:en":"Sumska Street","sort_rank":380,"kind_detail":"primary","kind":"major_road","source":"openstreetmap.org","min_zoom":8.0,"bus_shield_text":"278\u044d","name:ru":"\u0421\u0443\u043c\u0441\u043a\u0430\u044f \u0443\u043b\u0438\u0446\u0430","landuse_kind":"urban_area"},"arcs":[296]},{"type":"MultiLineString","properties":{"bus_network":null,"name:en":"Vernadskoho Street","sort_rank":380,"kind_detail":"primary","kind":"major_road","source":"openstreetmap.org","min_zoom":8.0,"bus_shield_text":"305e","name:ru":"\u0412\u0435\u0440\u043d\u0430\u0434\u0441\u043a\u043e\u0433\u043e \u0443\u043b\u0438\u0446\u0430","landuse_kind":"urban_area"},"arcs":[[297],[298]]},{"type":"MultiLineString","properties":{"bus_network":null,"sort_rank":380,"kind_detail":"primary","kind":"major_road","source":"openstreetmap.org","min_zoom":8.0,"bus_shield_text":"109\u0423","landuse_kind":"urban_area"},"arcs":[[299],[300],[301],[302],[303]]},{"type":"MultiLineString","properties":{"kind":"major_road","network":"e-road","sort_rank":381,"landuse_kind":"urban_area","source":"openstreetmap.org","min_zoom":8.0,"kind_detail":"trunk","shield_text":"40","ref":"\u041c-03"},"arcs":[[304],[305],[306],[307],[308],[309],[310],[311],[312]]},{"type":"LineString","properties":{"bus_network":null,"old_name":"\u041b\u0435\u043d\u0456\u043d\u0430 \u0432\u0443\u043b\u0438\u0446\u044f","min_zoom":8.0,"bus_shield_text":"1168","name:ru":"\u0421\u0443\u043c\u0441\u043a\u043e\u0439 \u0448\u043b\u044f\u0445","id":386030157,"old_name:uk":"\u041b\u0435\u043d\u0456\u043d\u0430 \u0432\u0443\u043b\u0438\u0446\u044f","kind":"major_road","network":"ua:regional","sort_rank":380,"kind_detail":"primary","old_name:ru":"\u041b\u0435\u043d\u0438\u043d\u0430 \u0443\u043b\u0438\u0446\u0430","source":"openstreetmap.org","landuse_kind":"residential","shield_text":"46","ref":"\u0420-46"},"arcs":[313]},{"type":"MultiLineString","properties":{"bus_network":null,"sort_rank":380,"kind_detail":"primary","old_name:ru":"50-\u043b\u0435\u0442\u0438\u044f \u0412\u041b\u041a\u0421\u041c \u043f\u0440\u043e\u0441\u043f\u0435\u043a\u0442","kind":"major_road","source":"openstreetmap.org","min_zoom":8.0,"old_name":"50-\u0440\u0456\u0447\u0447\u044f \u0412\u041b\u041a\u0421\u041c \u043f\u0440\u043e\u0441\u043f\u0435\u043a\u0442","name:ru":"\u042e\u0431\u0438\u043b\u0435\u0439\u043d\u044b\u0439 \u043f\u0440\u043e\u0441\u043f\u0435\u043a\u0442","landuse_kind":"urban_area","bus_shield_text":"10\u044d"},"arcs":[[314],[315]]},{"type":"MultiLineString","properties":{"kind":"major_road","name:en":"Klochkivska Street","sort_rank":380,"kind_detail":"primary","source":"openstreetmap.org","min_zoom":8.0,"landuse_kind":"urban_area","name:ru":"\u041a\u043b\u043e\u0447\u043a\u043e\u0432\u0441\u043a\u0430\u044f \u0443\u043b\u0438\u0446\u0430"},"arcs":[[316],[317]]},{"type":"LineString","properties":{"kind":"major_road","name:en":"Pletnivsky Lane","sort_rank":380,"kind_detail":"primary","source":"openstreetmap.org","min_zoom":8.0,"landuse_kind":"urban_area","name:ru":"\u041f\u043b\u0435\u0442\u043d\u0451\u0432\u0441\u043a\u0438\u0439 \u043f\u0435\u0440\u0435\u0443\u043b\u043e\u043a"},"arcs":[318]},{"type":"MultiLineString","properties":{"kind":"major_road","network":"e-road","sort_rank":381,"landuse_kind":"urban_area","source":"openstreetmap.org","min_zoom":8.0,"kind_detail":"trunk","shield_text":"40","name:ru":"\u041e\u043a\u0440\u0443\u0436\u043d\u0430\u044f \u0434\u043e\u0440\u043e\u0433\u0430","ref":"\u041c-03"},"arcs":[[319],[320],[321]]},{"type":"LineString","properties":{"kind":"major_road","name:en":"Dostoievskoho Street","sort_rank":380,"kind_detail":"primary","source":"openstreetmap.org","min_zoom":8.0,"name:ru":"\u0414\u043e\u0441\u0442\u043e\u0435\u0432\u0441\u043a\u043e\u0433\u043e \u0443\u043b\u0438\u0446\u0430","name:be":"\u0414\u0430\u0441\u0442\u0430\u0435\u045e\u0441\u043a\u0430\u0433\u0430 \u0432\u0443\u043b\u0456\u0446\u0430","landuse_kind":"urban_area"},"arcs":[322]},{"type":"LineString","properties":{"old_name:uk":"\u0420\u043e\u0437\u0438 \u041b\u044e\u043a\u0441\u0435\u043c\u0431\u0443\u0440\u0433 \u043c\u0430\u0439\u0434\u0430\u043d","bus_network":null,"name:en":"Pavlivskyi Square","sort_rank":380,"kind_detail":"primary","old_name:ru":"\u0420\u043e\u0437\u044b \u041b\u044e\u043a\u0441\u0435\u043c\u0431\u0443\u0440\u0433 \u043f\u043b\u043e\u0449\u0430\u0434\u044c","kind":"major_road","source":"openstreetmap.org","min_zoom":8.0,"old_name":"\u0420\u043e\u0437\u0438 \u041b\u044e\u043a\u0441\u0435\u043c\u0431\u0443\u0440\u0433 \u043c\u0430\u0439\u0434\u0430\u043d","name:ru":"\u041f\u0430\u0432\u043b\u043e\u0432\u0441\u043a\u0430\u044f \u043f\u043b\u043e\u0449\u0430\u0434\u044c","landuse_kind":"urban_area","bus_shield_text":"304\u0435"},"arcs":[323]},{"type":"MultiLineString","properties":{"old_name:uk":"\u041a\u043e\u0441\u0456\u043e\u0440\u0430 \u043f\u0440\u043e\u0441\u043f\u0435\u043a\u0442","kind":"major_road","name:en":"Oleksandrivskyi Avenue","sort_rank":380,"landuse_kind":"urban_area","old_name:ru":"\u041a\u043e\u0441\u0438\u043e\u0440\u0430 \u043f\u0440\u043e\u0441\u043f\u0435\u043a\u0442","source":"openstreetmap.org","min_zoom":8.0,"old_name:en":"Kosiora Avenue","old_name":"\u041a\u043e\u0441\u0456\u043e\u0440\u0430 \u043f\u0440\u043e\u0441\u043f\u0435\u043a\u0442","name:ru":"\u0410\u043b\u0435\u043a\u0441\u0430\u043d\u0434\u0440\u043e\u0432\u0441\u043a\u0438\u0439 \u043f\u0440\u043e\u0441\u043f\u0435\u043a\u0442","kind_detail":"primary"},"arcs":[[324],[325],[326]]},{"type":"LineString","properties":{"kind":"major_road","sort_rank":380,"kind_detail":"primary","old_name:ru":"\u041f\u0430\u0441\u0441\u0438\u043e\u043d\u0430\u0440\u0438\u0438 \u0441\u043f\u0443\u0441\u043a","bus_network":null,"source":"openstreetmap.org","min_zoom":8.0,"old_name:en":"Pasionariyi Descent","old_name":"\u041f\u0430\u0441\u0456\u043e\u043d\u0430\u0440\u0456\u0457 \u0443\u0437\u0432\u0456\u0437","name:ru":"\u041a\u043b\u043e\u0447\u043a\u043e\u0432\u0441\u044c\u043a\u0438\u0439 \u0441\u043f\u0443\u0441\u043a","landuse_kind":"urban_area","bus_shield_text":"278\u044d","id":417092801},"arcs":[327]},{"type":"LineString","properties":{"kind":"major_road","sort_rank":380,"kind_detail":"primary","bus_shield_text":"270\u0435","bus_network":null,"source":"openstreetmap.org","min_zoom":8.0,"old_name":"\u0411\u0430\u043a\u0438\u043d\u0441\u044c\u043a\u0438\u0445 \u041a\u043e\u043c\u0456\u0441\u0430\u0440\u0456\u0432 \u0432\u0443\u043b\u0438\u0446\u044f","name:ru":"\u041f\u0430\u043d\u0430\u0441\u043e\u0432\u0441\u043a\u0438\u0439 \u043f\u0440\u043e\u0435\u0437\u0434","landuse_kind":"urban_area","id":204094859},"arcs":[328]},{"type":"LineString","properties":{"kind":"major_road","name:en":"Yuriia Haharina Avenue","network":"ua:international","sort_rank":381,"kind_detail":"trunk","source":"openstreetmap.org","min_zoom":8.0,"landuse_kind":"urban_area","shield_text":"03","name:ru":"\u042e\u0440\u0438\u044f \u0413\u0430\u0433\u0430\u0440\u0438\u043d\u0430 \u043f\u0440\u043e\u0441\u043f\u0435\u043a\u0442","ref":"\u041c-03","id":197247454},"arcs":[329]},{"type":"MultiLineString","properties":{"kind":"major_road","name:en":"Moskovsky Avenue","sort_rank":380,"landuse_kind":"urban_area","source":"openstreetmap.org","min_zoom":8.0,"kind_detail":"primary","name:ru":"\u041c\u043e\u0441\u043a\u043e\u0432\u0441\u043a\u0438\u0439 \u043f\u0440\u043e\u0441\u043f\u0435\u043a\u0442"},"arcs":[[330],[331],[332],[333],[334],[335],[336],[337],[338],[339],[340],[341],[342]]},{"type":"MultiLineString","properties":{"kind":"major_road","network":"e-road","sort_rank":381,"kind_detail":"trunk","source":"openstreetmap.org","min_zoom":8.0,"shield_text":"105","ref":"\u041c-20"},"arcs":[[343],[344],[345]]},{"type":"LineString","properties":{"kind":"major_road","network":"e-road","sort_rank":381,"kind_detail":"trunk","source":"openstreetmap.org","min_zoom":8.0,"landuse_kind":"urban_area","shield_text":"40","name:ru":"\u043e\u0437\u043e\u0432\u0435\u043d\u044c\u043a\u043e\u0432\u0441\u043a\u0438\u0439 \u043f\u0440\u043e\u0441\u043f\u0435\u043a\u0442","ref":"\u041c-03","id":159815291},"arcs":[346]},{"type":"LineString","properties":{"kind":"major_road","name:en":"Saltivske Road","sort_rank":380,"kind_detail":"primary","is_bicycle_related":true,"bus_network":null,"source":"openstreetmap.org","min_zoom":8.0,"bus_shield_text":"38\u0435","name:ru":"\u0421\u0430\u043b\u0442\u043e\u0432\u0441\u043a\u043e\u0435 \u0448\u043e\u0441\u0441\u0435","landuse_kind":"urban_area","id":333439121},"arcs":[347]},{"type":"LineString","properties":{"kind":"major_road","name:en":"Sumskyi Shliakh Street","network":"ua:regional","sort_rank":380,"kind_detail":"primary","source":"openstreetmap.org","min_zoom":8.0,"shield_text":"45","ref":"\u0420-45","id":449942963},"arcs":[348]},{"type":"LineString","properties":{"kind":"major_road","sort_rank":380,"kind_detail":"primary","old_name:ru":"\u041f\u0430\u0441\u0441\u0438\u043e\u043d\u0430\u0440\u0438\u0438 \u0441\u043f\u0443\u0441\u043a","bus_network":null,"source":"openstreetmap.org","min_zoom":8.0,"old_name:en":"Pasionariyi Descent","old_name":"\u041f\u0430\u0441\u0456\u043e\u043d\u0430\u0440\u0456\u0457 \u0443\u0437\u0432\u0456\u0437","name:ru":"\u041a\u043b\u043e\u0447\u043a\u043e\u0432\u0441\u044c\u043a\u0438\u0439 \u0441\u043f\u0443\u0441\u043a","landuse_kind":"urban_area","bus_shield_text":"270\u0435","id":29185533},"arcs":[349]},{"type":"LineString","properties":{"kind":"major_road","sort_rank":380,"kind_detail":"primary","old_name:ru":"\u041b\u0435\u043d\u0438\u043d\u0430 \u043f\u0440\u043e\u0441\u043f\u0435\u043a\u0442","bus_network":null,"source":"openstreetmap.org","min_zoom":8.0,"old_name":"\u041b\u0435\u043d\u0456\u043d\u0430 \u043f\u0440\u043e\u0441\u043f\u0435\u043a\u0442","landuse_kind":"urban_area","bus_shield_text":"270\u0435","id":34063718},"arcs":[350]},{"type":"LineString","properties":{"kind":"major_road","name:en":"Odeska Street","sort_rank":380,"kind_detail":"primary","source":"openstreetmap.org","min_zoom":8.0,"landuse_kind":"urban_area","name:ru":"\u041e\u0434\u0435\u0441\u0441\u043a\u0430\u044f \u0443\u043b\u0438\u0446\u0430"},"arcs":[351]},{"type":"LineString","properties":{"kind":"major_road","name:en":"Shevchenka Street","sort_rank":380,"kind_detail":"primary","source":"openstreetmap.org","min_zoom":8.0,"landuse_kind":"urban_area","name:ru":"\u0428\u0435\u0432\u0447\u0435\u043d\u043a\u043e \u0443\u043b\u0438\u0446\u0430"},"arcs":[352]},{"type":"LineString","properties":{"kind":"major_road","name:en":"Shevchenka Street","network":"ua:regional","sort_rank":380,"kind_detail":"primary","source":"openstreetmap.org","min_zoom":8.0,"landuse_kind":"urban_area","shield_text":"46","name:ru":"\u0428\u0435\u0432\u0447\u0435\u043d\u043a\u043e \u0443\u043b\u0438\u0446\u0430","ref":"\u0420-46","id":151379278},"arcs":[353]},{"type":"LineString","properties":{"old_name:uk":"\u041f\u043e\u0441\u0442\u0438\u0448\u0435\u0432\u0430 \u043f\u0440\u043e\u0441\u043f\u0435\u043a\u0442","bus_network":null,"name:en":"Liubovi Maloi Avenue","sort_rank":380,"kind_detail":"primary","old_name:ru":"\u041f\u043e\u0441\u0442\u044b\u0448\u0435\u0432\u0430 \u043f\u0440\u043e\u0441\u043f\u0435\u043a\u0442","kind":"major_road","source":"openstreetmap.org","min_zoom":8.0,"old_name:en":"Postysheva Avenue","old_name":"\u041f\u043e\u0441\u0442\u0438\u0448\u0435\u0432\u0430 \u043f\u0440\u043e\u0441\u043f\u0435\u043a\u0442","name:ru":"\u041b\u044e\u0431\u043e\u0432\u0438 \u041c\u0430\u043b\u043e\u0439 \u043f\u0440\u043e\u0441\u043f\u0435\u043a\u0442","landuse_kind":"urban_area","bus_shield_text":"209"},"arcs":[354]},{"type":"LineString","properties":{"kind":"major_road","network":"e-road","sort_rank":381,"kind_detail":"trunk","source":"openstreetmap.org","min_zoom":8.0,"landuse_kind":"residential","shield_text":"40","name:ru":"\u0425\u0430\u0440\u044c\u043a\u043e\u0432\u0441\u043a\u0430\u044f \u0443\u043b\u0438\u0446\u0430","ref":"\u041c-03"},"arcs":[355]},{"type":"MultiLineString","properties":{"old_name:uk":"\u041f\u0440\u0430\u0432\u0434\u0438 \u043f\u0440\u043e\u0441\u043f\u0435\u043a\u0442","bus_network":null,"sort_rank":380,"kind_detail":"primary","old_name:ru":"\u041f\u0440\u0430\u0432\u0434\u044b \u043f\u0440\u043e\u0441\u043f\u0435\u043a\u0442","kind":"major_road","source":"openstreetmap.org","min_zoom":8.0,"old_name:en":"Pravdy Avenue","old_name":"\u041f\u0440\u0430\u0432\u0434\u0438 \u043f\u0440\u043e\u0441\u043f\u0435\u043a\u0442","name:ru":"\u041d\u0435\u0437\u0430\u0432\u0438\u0441\u0438\u043c\u043e\u0441\u0442\u0438 \u043f\u0440\u043e\u0441\u043f\u0435\u043a\u0442","landuse_kind":"urban_area","bus_shield_text":"278\u044d"},"arcs":[[356],[357]]},{"type":"LineString","properties":{"kind":"major_road","sort_rank":380,"kind_detail":"primary","old_name:ru":"\u041a\u043e\u043c\u0430\u043d\u0434\u0430\u0440\u043c\u0430 \u041a\u043e\u0440\u043a\u0430 \u0443\u043b\u0438\u0446\u0430","bus_network":null,"source":"openstreetmap.org","min_zoom":8.0,"old_name":"\u041a\u043e\u043c\u0430\u043d\u0434\u0430\u0440\u043c\u0430 \u041a\u043e\u0440\u043a\u0430 \u0432\u0443\u043b\u0438\u0446\u044f","name:ru":"\u041b\u0435\u0441\u044f \u0421\u0435\u0440\u0434\u044e\u043a\u0430 \u0443\u043b\u0438\u0446\u0430","landuse_kind":"urban_area","bus_shield_text":"54\u044d","id":336635202},"arcs":[358]},{"type":"MultiLineString","properties":{"old_name:uk":"50-\u0440\u0456\u0447\u0447\u044f \u0421\u0420\u0421\u0420 \u043f\u0440\u043e\u0441\u043f\u0435\u043a\u0442","kind":"major_road","name:en":"Lva Landau Avenue","sort_rank":380,"kind_detail":"primary","old_name:ru":"50-\u043b\u0435\u0442\u0438\u044f \u0421\u0421\u0421\u0420 \u043f\u0440\u043e\u0441\u043f\u0435\u043a\u0442","source":"openstreetmap.org","min_zoom":8.0,"old_name:en":"50-richchya SRSR Avenue","old_name":"50-\u0440\u0456\u0447\u0447\u044f \u0421\u0420\u0421\u0420 \u043f\u0440\u043e\u0441\u043f\u0435\u043a\u0442","landuse_kind":"urban_area"},"arcs":[[359],[360]]},{"type":"LineString","properties":{"kind":"major_road","sort_rank":380,"kind_detail":"primary","bus_network":null,"source":"openstreetmap.org","min_zoom":8.0,"bus_shield_text":"30","id":303444276},"arcs":[361]},{"type":"LineString","properties":{"bus_network":null,"name:en":"Akademika Pavlova Street","sort_rank":380,"kind_detail":"primary","kind":"major_road","source":"openstreetmap.org","min_zoom":8.0,"bus_shield_text":"266\u044d","name:ru":"\u0410\u043a\u0430\u0434\u0435\u043c\u0438\u043a\u0430 \u041f\u0430\u0432\u043b\u043e\u0432\u0430 \u0443\u043b\u0438\u0446\u0430","landuse_kind":"urban_area"},"arcs":[362]},{"type":"MultiLineString","properties":{"bus_network":null,"sort_rank":380,"landuse_kind":"urban_area","old_name:ru":"\u041b\u0435\u043d\u0438\u043d\u0430 \u043f\u0440\u043e\u0441\u043f\u0435\u043a\u0442","kind":"major_road","source":"openstreetmap.org","min_zoom":8.0,"old_name":"\u041b\u0435\u043d\u0456\u043d\u0430 \u043f\u0440\u043e\u0441\u043f\u0435\u043a\u0442","kind_detail":"primary","bus_shield_text":"33\u044d"},"arcs":[[363],[364],[365]]},{"type":"MultiLineString","properties":{"bus_network":null,"name:en":"Klochkivska Street","sort_rank":380,"kind_detail":"primary","kind":"major_road","source":"openstreetmap.org","min_zoom":8.0,"bus_shield_text":"305e","name:ru":"\u041a\u043b\u043e\u0447\u043a\u043e\u0432\u0441\u043a\u0430\u044f \u0443\u043b\u0438\u0446\u0430","landuse_kind":"urban_area"},"arcs":[[366],[367],[368],[369]]},{"type":"MultiLineString","properties":{"kind":"major_road","network":"ua:international","sort_rank":381,"landuse_kind":"urban_area","source":"openstreetmap.org","min_zoom":8.0,"kind_detail":"trunk","shield_text":"03","name:ru":"\u041c\u0435\u0440\u0435\u0444\u044f\u043d\u0441\u043a\u043e\u0435 \u0448\u043e\u0441\u0441\u0435","ref":"\u041c-03;\u041c-18"},"arcs":[[370],[371],[372]]},{"type":"LineString","properties":{"bus_network":null,"sort_rank":380,"kind_detail":"primary","kind":"major_road","source":"openstreetmap.org","min_zoom":8.0,"bus_shield_text":"9\u0441","landuse_kind":"urban_area"},"arcs":[373]},{"type":"LineString","properties":{"kind":"major_road","name:en":"Matyushenka Street","sort_rank":380,"kind_detail":"primary","source":"openstreetmap.org","min_zoom":8.0,"landuse_kind":"urban_area","name:ru":"\u041c\u0430\u0442\u044e\u0448\u0435\u043d\u043a\u043e \u0443\u043b\u0438\u0446\u0430","id":23746919},"arcs":[374]},{"type":"LineString","properties":{"old_name:uk":"\u041d\u0430\u0440\u0456\u043c\u0430\u043d\u043e\u0432\u0430 \u0432\u0443\u043b\u0438\u0446\u044f","bus_network":null,"name:en":"Dudynskoi Street","sort_rank":380,"kind_detail":"primary","old_name:ru":"\u041d\u0430\u0440\u0438\u043c\u0430\u043d\u043e\u0432\u0430 \u0443\u043b\u0438\u0446\u0430","kind":"major_road","source":"openstreetmap.org","min_zoom":8.0,"old_name:en":"Narimanova Street","old_name":"\u041d\u0430\u0440\u0456\u043c\u0430\u043d\u043e\u0432\u0430 \u0432\u0443\u043b\u0438\u0446\u044f","name:ru":"\u0414\u0443\u0434\u0438\u043d\u0441\u043a\u043e\u0439 \u0443\u043b\u0438\u0446\u0430","landuse_kind":"urban_area","bus_shield_text":"209"},"arcs":[375]},{"type":"LineString","properties":{"kind":"major_road","network":"e-road","sort_rank":381,"landuse_kind":"urban_area","source":"openstreetmap.org","min_zoom":8.0,"kind_detail":"trunk","shield_text":"105","name:ru":"\u041e\u043a\u0440\u0443\u0436\u043d\u0430\u044f \u0434\u043e\u0440\u043e\u0433\u0430","ref":"\u041c-03"},"arcs":[376]},{"type":"LineString","properties":{"kind":"major_road","network":"ua:regional","sort_rank":380,"kind_detail":"primary","source":"openstreetmap.org","min_zoom":8.0,"shield_text":"45","name:ru":"\u0413\u043e\u0440\u0430 \u0443\u043b\u0438\u0446\u0430","ref":"\u0420-45","id":255283251},"arcs":[377]},{"type":"MultiLineString","properties":{"kind":"major_road","name:en":"Kharkivska Street","network":"ua:regional","sort_rank":380,"kind_detail":"primary","source":"openstreetmap.org","min_zoom":8.0,"landuse_kind":"urban_area","shield_text":"46","name:ru":"\u0425\u0430\u0440\u044c\u043a\u043e\u0432\u0441\u043a\u0430\u044f \u0443\u043b\u0438\u0446\u0430","ref":"\u0420-46"},"arcs":[[378],[379],[380]]},{"type":"LineString","properties":{"kind":"major_road","name:en":"Hertsena Street","sort_rank":380,"kind_detail":"primary","source":"openstreetmap.org","min_zoom":8.0,"landuse_kind":"urban_area","name:ru":"\u0413\u0435\u0440\u0446\u0435\u043d\u0430 \u0443\u043b\u0438\u0446\u0430","id":105843008},"arcs":[381]},{"type":"LineString","properties":{"kind":"major_road","name:en":"Kharkivska Street","network":"ua:regional","sort_rank":380,"kind_detail":"primary","source":"openstreetmap.org","min_zoom":8.0,"shield_text":"46","name:ru":"\u0425\u0430\u0440\u044c\u043a\u043e\u0432\u0441\u043a\u0430\u044f \u0443\u043b\u0438\u0446\u0430","ref":"\u0420-46"},"arcs":[382]},{"type":"LineString","properties":{"kind":"major_road","name:en":"Akademika Pavlova Street","sort_rank":380,"kind_detail":"primary","source":"openstreetmap.org","min_zoom":8.0,"landuse_kind":"urban_area","name:ru":"\u0410\u043a\u0430\u0434\u0435\u043c\u0438\u043a\u0430 \u041f\u0430\u0432\u043b\u043e\u0432\u0430 \u0443\u043b\u0438\u0446\u0430"},"arcs":[383]},{"type":"LineString","properties":{"kind":"major_road","name:en":"Kooperatyvna Street","sort_rank":380,"kind_detail":"primary","source":"openstreetmap.org","min_zoom":8.0,"landuse_kind":"urban_area","name:ru":"\u041a\u043e\u043e\u043f\u0435\u0440\u0430\u0442\u0438\u0432\u043d\u0430\u044f \u0443\u043b\u0438\u0446\u0430"},"arcs":[384]},{"type":"LineString","properties":{"kind":"major_road","name:en":"Vesnina Street","sort_rank":380,"kind_detail":"primary","is_bicycle_related":true,"cycleway":"track","source":"openstreetmap.org","min_zoom":8.0,"landuse_kind":"urban_area","name:ru":"\u0412\u0435\u0441\u043d\u0438\u043d\u0430 \u0443\u043b\u0438\u0446\u0430","id":237003965},"arcs":[385]},{"type":"LineString","properties":{"kind":"major_road","name:en":"Nyekrasova Street","sort_rank":380,"landuse_kind":"urban_area","source":"openstreetmap.org","min_zoom":8.0,"kind_detail":"primary","name:ru":"\u041d\u0435\u043a\u0440\u0430\u0441\u043e\u0432\u0430 \u0443\u043b\u0438\u0446\u0430"},"arcs":[386]},{"type":"LineString","properties":{"kind":"major_road","name:en":"Slobitska Street","network":"ua:regional","sort_rank":380,"kind_detail":"primary","source":"openstreetmap.org","min_zoom":8.0,"landuse_kind":"residential","shield_text":"45","name:ru":"\u0421\u043b\u043e\u0431\u043e\u0434\u0441\u043a\u0430\u044f \u0443\u043b\u0438\u0446\u0430","ref":"\u0420-45","id":255109338},"arcs":[387]},{"type":"LineString","properties":{"kind":"major_road","name:en":"Proletarska Square","sort_rank":380,"kind_detail":"primary","bus_network":null,"source":"openstreetmap.org","min_zoom":8.0,"bus_shield_text":"305e","name:ru":"\u041f\u0440\u043e\u043b\u0435\u0442\u0430\u0440\u0441\u043a\u0430\u044f \u043f\u043b\u043e\u0449\u0430\u0434\u044c","landuse_kind":"urban_area","id":486880621},"arcs":[388]},{"type":"LineString","properties":{"kind":"major_road","network":"e-road","sort_rank":381,"kind_detail":"trunk","source":"openstreetmap.org","min_zoom":8.0,"landuse_kind":"urban_area","shield_text":"40","name:ru":"\u041e\u043a\u0440\u0443\u0436\u043d\u0430\u044f \u0434\u043e\u0440\u043e\u0433\u0430","id":159812662},"arcs":[389]},{"type":"LineString","properties":{"kind":"major_road","network":"e-road","sort_rank":381,"kind_detail":"trunk","source":"openstreetmap.org","min_zoom":8.0,"landuse_kind":"urban_area","shield_text":"105","id":28621611},"arcs":[390]},{"type":"MultiLineString","properties":{"bus_network":null,"name:en":"Heroiv Pratsi Street","sort_rank":380,"kind_detail":"primary","kind":"major_road","source":"openstreetmap.org","min_zoom":8.0,"bus_shield_text":"247\u0435","name:ru":"\u0413\u0435\u0440\u043e\u0435\u0432 \u0422\u0440\u0443\u0434\u0430 \u0443\u043b\u0438\u0446\u0430","landuse_kind":"urban_area"},"arcs":[[391],[392]]},{"type":"LineString","properties":{"kind":"major_road","name:en":"Kirova Square","network":"ua:regional","sort_rank":380,"kind_detail":"primary","source":"openstreetmap.org","min_zoom":8.0,"landuse_kind":"urban_area","shield_text":"46","name:ru":"\u041a\u0438\u0440\u043e\u0432\u0430 \u043f\u043b\u043e\u0449\u0430\u0434\u044c","ref":"\u0420-46"},"arcs":[393]},{"type":"MultiLineString","properties":{"source":"openstreetmap.org","kind":"major_road","landuse_kind":"urban_area","sort_rank":380,"kind_detail":"primary","min_zoom":8.0},"arcs":[[394],[395],[396],[397],[398],[399],[400],[401],[402],[403],[404],[405],[406],[407],[408],[409],[410],[411],[412],[413],[414],[415],[416],[417],[418],[419],[420],[421],[422],[423],[424]]},{"type":"MultiLineString","properties":{"kind":"major_road","network":"e-road","sort_rank":381,"kind_detail":"trunk","source":"openstreetmap.org","min_zoom":8.0,"shield_text":"40","ref":"\u041c-03"},"arcs":[[425],[426],[427],[428],[429],[430],[431],[432],[433],[434],[435],[436],[437],[438]]},{"type":"LineString","properties":{"kind":"major_road","name:en":"Kharkivska Embarkment","sort_rank":380,"kind_detail":"primary","source":"openstreetmap.org","min_zoom":8.0,"landuse_kind":"urban_area","name:ru":"\u0425\u0430\u0440\u044c\u043a\u043e\u0432\u0441\u043a\u0430\u044f \u043d\u0430\u0431\u0435\u0440\u0435\u0436\u043d\u0430\u044f","id":185498935},"arcs":[439]},{"type":"MultiLineString","properties":{"bus_network":null,"name:en":"Heroiv Stalinhrada Avenue","sort_rank":380,"kind_detail":"primary","kind":"major_road","source":"openstreetmap.org","min_zoom":8.0,"bus_shield_text":"304\u0435","name:ru":"\u0413\u0435\u0440\u043e\u0435\u0432 \u0421\u0442\u0430\u043b\u0438\u043d\u0433\u0440\u0430\u0434\u0430 \u043f\u0440\u043e\u0441\u043f\u0435\u043a\u0442","landuse_kind":"urban_area"},"arcs":[[440],[441]]},{"type":"MultiLineString","properties":{"bus_network":null,"name:en":"Moskovsky Avenue","sort_rank":380,"landuse_kind":"urban_area","kind":"major_road","source":"openstreetmap.org","min_zoom":8.0,"bus_shield_text":"259\u044d","name:ru":"\u041c\u043e\u0441\u043a\u043e\u0432\u0441\u043a\u0438\u0439 \u043f\u0440\u043e\u0441\u043f\u0435\u043a\u0442","kind_detail":"primary"},"arcs":[[442],[443]]},{"type":"LineString","properties":{"kind":"major_road","network":"e-road","sort_rank":381,"landuse_kind":"urban_area","source":"openstreetmap.org","min_zoom":8.0,"kind_detail":"trunk","shield_text":"105","ref":"\u041c-03"},"arcs":[444]},{"type":"MultiLineString","properties":{"old_name:uk":"\u0406\u043b\u043b\u0456\u0447\u0430 \u043f\u0440\u043e\u0441\u043f\u0435\u043a\u0442","kind":"major_road","name:en":"Novo-Bavarskyi Avenue","sort_rank":380,"kind_detail":"primary","old_name:ru":"\u0418\u043b\u044c\u0438\u0447\u0430 \u043f\u0440\u043e\u0441\u043f\u0435\u043a\u0442","source":"openstreetmap.org","min_zoom":8.0,"old_name:en":"Illicha Avenue","old_name":"\u0406\u043b\u043b\u0456\u0447\u0430 \u043f\u0440\u043e\u0441\u043f\u0435\u043a\u0442","name:ru":"\u041d\u043e\u0432\u043e-\u0411\u0430\u0432\u0430\u0440\u0441\u043a\u0438\u0439 \u043f\u0440\u043e\u0441\u043f\u0435\u043a\u0442","landuse_kind":"urban_area"},"arcs":[[445],[446]]},{"type":"MultiLineString","properties":{"kind":"major_road","network":"ua:regional","sort_rank":380,"kind_detail":"primary","source":"openstreetmap.org","min_zoom":8.0,"landuse_kind":"urban_area","shield_text":"45","ref":"\u0420-45"},"arcs":[[447],[448]]},{"type":"MultiLineString","properties":{"old_name:uk":"\u041b\u0435\u043d\u0456\u043d\u0430 \u0432\u0443\u043b\u0438\u0446\u044f","kind":"major_road","network":"ua:regional","sort_rank":380,"kind_detail":"primary","old_name:ru":"\u041b\u0435\u043d\u0438\u043d\u0430 \u0443\u043b\u0438\u0446\u0430","source":"openstreetmap.org","min_zoom":8.0,"old_name":"\u041b\u0435\u043d\u0456\u043d\u0430 \u0432\u0443\u043b\u0438\u0446\u044f","shield_text":"46","name:ru":"\u0421\u0443\u043c\u0441\u043a\u043e\u0439 \u0448\u043b\u044f\u0445","landuse_kind":"residential","ref":"\u0420-46","id":420609730},"arcs":[[449],[450]]},{"type":"LineString","properties":{"bus_network":null,"sort_rank":380,"kind_detail":"primary","kind":"major_road","source":"openstreetmap.org","min_zoom":8.0,"bus_shield_text":"305e","landuse_kind":"urban_area"},"arcs":[451]},{"type":"LineString","properties":{"kind":"major_road","name:en":"Ozerianska Street","sort_rank":380,"kind_detail":"primary","old_name:ru":"\u041c\u0443\u0440\u0430\u043d\u043e\u0432\u0430 \u0443\u043b\u0438\u0446\u0430","source":"openstreetmap.org","min_zoom":8.0,"old_name":"\u041c\u0443\u0440\u0430\u043d\u043e\u0432\u0430 \u0432\u0443\u043b\u0438\u0446\u044f","name:ru":"\u041e\u0437\u0435\u0440\u044f\u043d\u0441\u043a\u0430\u044f \u0443\u043b\u0438\u0446\u0430","landuse_kind":"urban_area"},"arcs":[452]},{"type":"LineString","properties":{"kind":"major_road","name:en":"Pasionariyi Descent","sort_rank":380,"kind_detail":"primary","bus_network":null,"source":"openstreetmap.org","min_zoom":8.0,"bus_shield_text":"270\u0435","name:ru":"\u041f\u0430\u0441\u0441\u0438\u043e\u043d\u0430\u0440\u0438\u0438 \u0441\u043f\u0443\u0441\u043a","landuse_kind":"urban_area","id":23682865},"arcs":[453]},{"type":"LineString","properties":{"kind":"major_road","name:en":"Rustaveli Street","sort_rank":380,"kind_detail":"primary","source":"openstreetmap.org","min_zoom":8.0,"landuse_kind":"urban_area","name:ru":"\u0420\u0443\u0441\u0442\u0430\u0432\u0435\u043b\u0438 \u0443\u043b\u0438\u0446\u0430","id":23726120},"arcs":[454]},{"type":"MultiLineString","properties":{"bus_network":null,"name:en":"Sergiyivsky Square","sort_rank":380,"kind_detail":"primary","kind":"major_road","source":"openstreetmap.org","min_zoom":8.0,"bus_shield_text":"305e","name:ru":"\u0421\u0435\u0440\u0433\u0438\u0435\u0432\u0441\u043a\u0430\u044f \u043f\u043b\u043e\u0449\u0430\u0434\u044c","landuse_kind":"urban_area"},"arcs":[[455],[456]]},{"type":"LineString","properties":{"old_name:uk":"50-\u0440\u0456\u0447\u0447\u044f \u0421\u0420\u0421\u0420 \u043f\u0440\u043e\u0441\u043f\u0435\u043a\u0442","bus_network":null,"name:en":"Lva Landau Avenue","sort_rank":380,"kind_detail":"primary","old_name:ru":"50-\u043b\u0435\u0442\u0438\u044f \u0421\u0421\u0421\u0420 \u043f\u0440\u043e\u0441\u043f\u0435\u043a\u0442","kind":"major_road","source":"openstreetmap.org","min_zoom":8.0,"old_name:en":"50-richchya SRSR Avenue","old_name":"50-\u0440\u0456\u0447\u0447\u044f \u0421\u0420\u0421\u0420 \u043f\u0440\u043e\u0441\u043f\u0435\u043a\u0442","landuse_kind":"urban_area","bus_shield_text":"259\u044d"},"arcs":[457]},{"type":"LineString","properties":{"kind":"major_road","name:en":"Moiseyevska Street","sort_rank":380,"kind_detail":"primary","source":"openstreetmap.org","min_zoom":8.0,"landuse_kind":"urban_area","name:ru":"\u041c\u043e\u0438\u0441\u0435\u0435\u0432\u0441\u043a\u0430\u044f \u0443\u043b\u0438\u0446\u0430","id":23746922},"arcs":[458]},{"type":"LineString","properties":{"bus_network":null,"name:en":"Derevyanka Street","sort_rank":380,"landuse_kind":"urban_area","kind":"major_road","source":"openstreetmap.org","min_zoom":8.0,"bus_shield_text":"33\u044d","name:ru":"\u0414\u0435\u0440\u0435\u0432\u044f\u043d\u043a\u043e \u0443\u043b\u0438\u0446\u0430","kind_detail":"primary"},"arcs":[459]},{"type":"LineString","properties":{"kind":"major_road","sort_rank":380,"kind_detail":"primary","old_name:ru":"\u0415\u043b\u0438\u0437\u0430\u0440\u043e\u0432\u0430 \u0443\u043b\u0438\u0446\u0430","bus_network":null,"source":"openstreetmap.org","min_zoom":8.0,"old_name":"\u0404\u043b\u0456\u0437\u0430\u0440\u043e\u0432\u0430 \u0432\u0443\u043b\u0438\u0446\u044f","name:ru":"\u0425\u043e\u043b\u043e\u0434\u043d\u043e\u0433\u043e\u0440\u0441\u043a\u0430\u044f \u0443\u043b\u0438\u0446\u0430","landuse_kind":"urban_area","bus_shield_text":"209","id":492090681},"arcs":[460]},{"type":"LineString","properties":{"bus_network":null,"name:en":"Zalyutynska Street","network":"ua:regional","sort_rank":380,"kind_detail":"primary","kind":"major_road","source":"openstreetmap.org","min_zoom":8.0,"bus_shield_text":"1168","shield_text":"46","name:ru":"\u0417\u0430\u043b\u044e\u0442\u0438\u043d\u0441\u043a\u0430\u044f \u0443\u043b\u0438\u0446\u0430","landuse_kind":"urban_area","ref":"\u0420-46"},"arcs":[461]},{"type":"MultiLineString","properties":{"bus_network":null,"name:en":"Poltavsky Shlyakh Street","sort_rank":380,"kind_detail":"primary","kind":"major_road","source":"openstreetmap.org","min_zoom":8.0,"bus_shield_text":"34","name:ru":"\u041f\u043e\u043b\u0442\u0430\u0432\u0441\u043a\u0438\u0439 \u0428\u043b\u044f\u0445 \u0443\u043b\u0438\u0446\u0430","landuse_kind":"urban_area"},"arcs":[[462],[463]]},{"type":"MultiLineString","properties":{"bus_network":null,"sort_rank":380,"kind_detail":"primary","kind":"major_road","source":"openstreetmap.org","min_zoom":8.0,"bus_shield_text":"30","landuse_kind":"urban_area"},"arcs":[[464],[465],[466]]},{"type":"LineString","properties":{"kind":"major_road","network":"ua:international","sort_rank":381,"kind_detail":"trunk","is_bicycle_related":true,"source":"openstreetmap.org","min_zoom":8.0,"landuse_kind":"urban_area","shield_text":"03","name:ru":"\u041e\u043a\u0440\u0443\u0436\u043d\u0430\u044f \u0434\u043e\u0440\u043e\u0433\u0430","ref":"\u041c-03","id":156597066},"arcs":[467]},{"type":"MultiLineString","properties":{"kind":"major_road","name:en":"Saltivske Road","sort_rank":380,"landuse_kind":"urban_area","is_bicycle_related":true,"source":"openstreetmap.org","min_zoom":8.0,"kind_detail":"primary","name:ru":"\u0421\u0430\u043b\u0442\u043e\u0432\u0441\u043a\u043e\u0435 \u0448\u043e\u0441\u0441\u0435"},"arcs":[[468],[469]]},{"type":"MultiLineString","properties":{"old_name:uk":"\u0427\u0435\u0440\u0432\u043e\u043d\u043e\u0448\u043a\u0456\u043b\u044c\u043d\u0430 \u043d\u0430\u0431\u0435\u0440\u0435\u0436\u043d\u0430","kind":"major_road","sort_rank":380,"kind_detail":"primary","old_name:ru":"\u041a\u0440\u0430\u0441\u043d\u043e\u0448\u043a\u043e\u043b\u044c\u043d\u0430\u044f \u043d\u0430\u0431\u0435\u0440\u0435\u0436\u043d\u0430\u044f","source":"openstreetmap.org","min_zoom":8.0,"old_name:en":"Chervonoshkilna Embarkment","old_name":"\u0427\u0435\u0440\u0432\u043e\u043d\u043e\u0448\u043a\u0456\u043b\u044c\u043d\u0430 \u043d\u0430\u0431\u0435\u0440\u0435\u0436\u043d\u0430","name:ru":"\u0413\u0438\u043c\u043d\u0430\u0437\u0438\u0447\u0435\u0441\u043a\u0430\u044f \u043d\u0430\u0431\u0435\u0440\u0435\u0436\u043d\u0430\u044f","landuse_kind":"urban_area"},"arcs":[[470],[471],[472]]},{"type":"LineString","properties":{"old_name:uk":"50-\u0440\u0456\u0447\u0447\u044f \u0421\u0420\u0421\u0420 \u043f\u0440\u043e\u0441\u043f\u0435\u043a\u0442","bus_network":null,"name:en":"Lva Landau Avenue","sort_rank":380,"kind_detail":"primary","old_name:ru":"50-\u043b\u0435\u0442\u0438\u044f \u0421\u0421\u0421\u0420 \u043f\u0440\u043e\u0441\u043f\u0435\u043a\u0442","kind":"major_road","source":"openstreetmap.org","min_zoom":8.0,"old_name:en":"50-richchya SRSR Avenue","old_name":"50-\u0440\u0456\u0447\u0447\u044f \u0421\u0420\u0421\u0420 \u043f\u0440\u043e\u0441\u043f\u0435\u043a\u0442","landuse_kind":"urban_area","bus_shield_text":"107\u0435"},"arcs":[473]},{"type":"MultiLineString","properties":{"source":"openstreetmap.org","bus_network":null,"bus_shield_text":"109\u0423","sort_rank":380,"kind_detail":"primary","min_zoom":8.0,"kind":"major_road"},"arcs":[[474],[475]]},{"type":"LineString","properties":{"kind":"major_road","sort_rank":381,"landuse_kind":"urban_area","source":"openstreetmap.org","min_zoom":8.0,"kind_detail":"trunk","name:ru":"\u041e\u043a\u0440\u0443\u0436\u043d\u0430\u044f \u0434\u043e\u0440\u043e\u0433\u0430","ref":"\u041c-03"},"arcs":[476]},{"type":"LineString","properties":{"kind":"major_road","name:en":"Radianska Street","network":"ua:regional","sort_rank":380,"kind_detail":"primary","source":"openstreetmap.org","min_zoom":8.0,"shield_text":"46","name:ru":"\u0421\u043e\u0432\u0435\u0442\u0441\u043a\u0430\u044f \u0443\u043b\u0438\u0446\u0430","ref":"\u0420-46"},"arcs":[477]},{"type":"LineString","properties":{"kind":"major_road","network":"ru:national","sort_rank":381,"landuse_kind":"urban_area","source":"openstreetmap.org","min_zoom":8.0,"kind_detail":"trunk","shield_text":"2","ref":"\u041c-2"},"arcs":[478]},{"type":"LineString","properties":{"kind":"major_road","sort_rank":380,"kind_detail":"primary","bus_network":null,"source":"openstreetmap.org","min_zoom":8.0,"bus_shield_text":"6","id":47068983},"arcs":[479]},{"type":"LineString","properties":{"kind":"major_road","name:en":"Semyhradska Street","sort_rank":380,"kind_detail":"primary","source":"openstreetmap.org","min_zoom":8.0,"landuse_kind":"urban_area","name:ru":"\u0421\u0435\u043c\u0438\u0433\u0440\u0430\u0434\u0441\u043a\u0430\u044f \u0443\u043b\u0438\u0446\u0430"},"arcs":[480]},{"type":"LineString","properties":{"bus_network":null,"name:en":"Akademika Pavlova Street","sort_rank":380,"kind_detail":"primary","kind":"major_road","source":"openstreetmap.org","min_zoom":8.0,"bus_shield_text":"240\u044d","name:ru":"\u0410\u043a\u0430\u0434\u0435\u043c\u0438\u043a\u0430 \u041f\u0430\u0432\u043b\u043e\u0432\u0430 \u0443\u043b\u0438\u0446\u0430","landuse_kind":"urban_area"},"arcs":[481]},{"type":"LineString","properties":{"kind":"major_road","network":"ua:international","sort_rank":381,"landuse_kind":"urban_area","source":"openstreetmap.org","min_zoom":8.0,"kind_detail":"trunk","shield_text":"20","ref":"\u041c-20"},"arcs":[482]},{"type":"MultiLineString","properties":{"bus_network":null,"sort_rank":380,"kind_detail":"primary","kind":"major_road","source":"openstreetmap.org","min_zoom":8.0,"bus_shield_text":"24a","landuse_kind":"urban_area"},"arcs":[[483],[484],[485]]},{"type":"LineString","properties":{"kind":"major_road","name:en":"Okhtyrska Street","network":"ua:regional","sort_rank":380,"kind_detail":"primary","source":"openstreetmap.org","min_zoom":8.0,"shield_text":"45","name:ru":"\u0410\u0445\u0442\u044b\u0440\u0441\u043a\u0430\u044f \u0443\u043b\u0438\u0446\u0430","ref":"\u0420-45","id":205843801},"arcs":[486]},{"type":"MultiLineString","properties":{"sort_rank":380,"kind_detail":"primary","min_zoom":8.0,"kind":"major_road","source":"openstreetmap.org"},"arcs":[[487],[488],[489],[490],[491],[492],[493],[494],[495],[496],[497],[498],[499],[500],[501],[502]]},{"type":"LineString","properties":{"kind":"major_road","name:en":"Saltivske Road","sort_rank":380,"kind_detail":"primary","is_bicycle_related":true,"bus_network":null,"source":"openstreetmap.org","min_zoom":8.0,"bus_shield_text":"211\u044d","name:ru":"\u0421\u0430\u043b\u0442\u043e\u0432\u0441\u043a\u043e\u0435 \u0448\u043e\u0441\u0441\u0435","landuse_kind":"urban_area","id":255096305},"arcs":[503]},{"type":"LineString","properties":{"kind":"major_road","network":"e-road","sort_rank":381,"landuse_kind":"urban_area","source":"openstreetmap.org","min_zoom":8.0,"kind_detail":"trunk","shield_text":"105","ref":"\u041c-20"},"arcs":[504]},{"type":"LineString","properties":{"bus_network":null,"network":"ru:national","sort_rank":381,"kind_detail":"trunk","kind":"major_road","source":"openstreetmap.org","min_zoom":8.0,"bus_shield_text":"109\u0423","shield_text":"2","ref":"\u041c-2"},"arcs":[505]},{"type":"LineString","properties":{"old_name:uk":"\u0412\u043e\u043b\u043e\u0434\u0430\u0440\u0441\u044c\u043a\u043e\u0433\u043e \u0432\u0443\u043b\u0438\u0446\u044f","kind":"major_road","name:en":"Seminarska Street","sort_rank":380,"kind_detail":"primary","old_name:ru":"\u0412\u043e\u043b\u043e\u0434\u0430\u0440\u0441\u043a\u043e\u0433\u043e \u0443\u043b\u0438\u0446\u0430","source":"openstreetmap.org","min_zoom":8.0,"old_name:en":"Volodarskoho Street","old_name":"\u0412\u043e\u043b\u043e\u0434\u0430\u0440\u0441\u044c\u043a\u043e\u0433\u043e \u0432\u0443\u043b\u0438\u0446\u044f","name:ru":"\u0421\u0435\u043c\u0438\u043d\u0430\u0440\u0441\u043a\u0430\u044f \u0443\u043b\u0438\u0446\u0430","landuse_kind":"urban_area","id":89195308},"arcs":[506]},{"type":"LineString","properties":{"bus_network":null,"name:en":"Chkalova Street","sort_rank":380,"kind_detail":"primary","kind":"major_road","source":"openstreetmap.org","min_zoom":8.0,"bus_shield_text":"247\u0435","name:ru":"\u0427\u043a\u0430\u043b\u043e\u0432\u0430 \u0443\u043b\u0438\u0446\u0430","landuse_kind":"urban_area"},"arcs":[507]},{"type":"LineString","properties":{"bus_network":null,"sort_rank":380,"kind_detail":"primary","old_name:ru":"\u041b\u0435\u043d\u0438\u043d\u0430 \u043f\u0440\u043e\u0441\u043f\u0435\u043a\u0442","kind":"major_road","source":"openstreetmap.org","min_zoom":8.0,"old_name":"\u041b\u0435\u043d\u0456\u043d\u0430 \u043f\u0440\u043e\u0441\u043f\u0435\u043a\u0442","landuse_kind":"urban_area","bus_shield_text":"2"},"arcs":[508]},{"type":"MultiLineString","properties":{"old_name:uk":"\u0420\u043e\u0437\u0438 \u041b\u044e\u043a\u0441\u0435\u043c\u0431\u0443\u0440\u0433 \u043c\u0430\u0439\u0434\u0430\u043d","kind":"major_road","name:en":"Pavlivskyi Square","sort_rank":380,"kind_detail":"primary","old_name:ru":"\u0420\u043e\u0437\u044b \u041b\u044e\u043a\u0441\u0435\u043c\u0431\u0443\u0440\u0433 \u043f\u043b\u043e\u0449\u0430\u0434\u044c","source":"openstreetmap.org","min_zoom":8.0,"old_name":"\u0420\u043e\u0437\u0438 \u041b\u044e\u043a\u0441\u0435\u043c\u0431\u0443\u0440\u0433 \u043c\u0430\u0439\u0434\u0430\u043d","name:ru":"\u041f\u0430\u0432\u043b\u043e\u0432\u0441\u043a\u0430\u044f \u043f\u043b\u043e\u0449\u0430\u0434\u044c","landuse_kind":"urban_area"},"arcs":[[509],[510]]},{"type":"MultiLineString","properties":{"kind":"major_road","network":"ua:international","sort_rank":381,"landuse_kind":"urban_area","source":"openstreetmap.org","min_zoom":8.0,"kind_detail":"trunk","shield_text":"03","name:ru":"\u041e\u043a\u0440\u0443\u0436\u043d\u0430\u044f \u0434\u043e\u0440\u043e\u0433\u0430","ref":"\u041c-03"},"arcs":[[511],[512],[513]]},{"type":"LineString","properties":{"kind":"major_road","sort_rank":380,"kind_detail":"primary","bus_network":null,"source":"openstreetmap.org","min_zoom":8.0,"bus_shield_text":"270\u0435","name:ru":"\u041d\u0435\u0437\u0430\u0432\u0438\u0441\u0438\u043c\u043e\u0441\u0442\u0438 \u043f\u0440\u043e\u0441\u043f\u0435\u043a\u0442","landuse_kind":"urban_area","id":382893507},"arcs":[514]},{"type":"MultiLineString","properties":{"bus_network":null,"sort_rank":380,"kind_detail":"primary","kind":"major_road","source":"openstreetmap.org","min_zoom":8.0,"bus_shield_text":"9c","landuse_kind":"urban_area"},"arcs":[[515],[516]]},{"type":"LineString","properties":{"kind":"major_road","sort_rank":380,"kind_detail":"primary","old_name:ru":"\u0415\u043b\u0438\u0437\u0430\u0440\u043e\u0432\u0430 \u0443\u043b\u0438\u0446\u0430","source":"openstreetmap.org","min_zoom":8.0,"old_name":"\u0404\u043b\u0456\u0437\u0430\u0440\u043e\u0432\u0430 \u0432\u0443\u043b\u0438\u0446\u044f","name:ru":"\u0425\u043e\u043b\u043e\u0434\u043d\u043e\u0433\u043e\u0440\u0441\u043a\u0430\u044f \u0443\u043b\u0438\u0446\u0430","landuse_kind":"urban_area","id":182494957},"arcs":[517]},{"type":"LineString","properties":{"old_name:uk":"\u041b\u0435\u043d\u0456\u043d\u0430 \u0432\u0443\u043b\u0438\u0446\u044f","kind":"major_road","network":"ua:regional","sort_rank":380,"kind_detail":"primary","old_name:ru":"\u041b\u0435\u043d\u0438\u043d\u0430 \u0443\u043b\u0438\u0446\u0430","source":"openstreetmap.org","min_zoom":8.0,"old_name":"\u041b\u0435\u043d\u0456\u043d\u0430 \u0432\u0443\u043b\u0438\u0446\u044f","shield_text":"46","name:ru":"\u0421\u0443\u043c\u0441\u043a\u043e\u0439 \u0448\u043b\u044f\u0445","landuse_kind":"urban_area","ref":"\u0420-46","id":420609730},"arcs":[518]},{"type":"LineString","properties":{"bus_network":null,"name:en":"Bilhorodske Road","sort_rank":380,"kind_detail":"primary","kind":"major_road","source":"openstreetmap.org","min_zoom":8.0,"bus_shield_text":"278\u044d","name:ru":"\u0411\u0435\u043b\u0433\u043e\u0440\u043e\u0434\u0441\u043a\u043e\u0435 \u0448\u043e\u0441\u0441\u0435","landuse_kind":"urban_area"},"arcs":[519]},{"type":"MultiLineString","properties":{"kind":"major_road","name:en":"Yuriia Haharina Avenue","sort_rank":380,"kind_detail":"primary","source":"openstreetmap.org","min_zoom":8.0,"landuse_kind":"urban_area","name:ru":"\u042e\u0440\u0438\u044f \u0413\u0430\u0433\u0430\u0440\u0438\u043d\u0430 \u043f\u0440\u043e\u0441\u043f\u0435\u043a\u0442"},"arcs":[[520],[521]]},{"type":"MultiLineString","properties":{"bus_network":null,"sort_rank":380,"kind_detail":"primary","kind":"major_road","source":"openstreetmap.org","min_zoom":8.0,"bus_shield_text":"211\u044d","landuse_kind":"urban_area"},"arcs":[[522],[523]]},{"type":"LineString","properties":{"kind":"major_road","name:en":"Pasionariyi Descent","sort_rank":380,"kind_detail":"primary","bus_network":null,"source":"openstreetmap.org","min_zoom":8.0,"bus_shield_text":"97\u0435","name:ru":"\u041f\u0430\u0441\u0441\u0438\u043e\u043d\u0430\u0440\u0438\u0438 \u0441\u043f\u0443\u0441\u043a","landuse_kind":"urban_area","id":383036886},"arcs":[524]},{"type":"MultiLineString","properties":{"old_name:uk":"\u041f\u043e\u0441\u0442\u0438\u0448\u0435\u0432\u0430 \u043f\u0440\u043e\u0441\u043f\u0435\u043a\u0442","kind":"major_road","name:en":"Liubovi Maloi Avenue","sort_rank":380,"kind_detail":"primary","old_name:ru":"\u041f\u043e\u0441\u0442\u044b\u0448\u0435\u0432\u0430 \u043f\u0440\u043e\u0441\u043f\u0435\u043a\u0442","source":"openstreetmap.org","min_zoom":8.0,"old_name:en":"Postysheva Avenue","old_name":"\u041f\u043e\u0441\u0442\u0438\u0448\u0435\u0432\u0430 \u043f\u0440\u043e\u0441\u043f\u0435\u043a\u0442","name:ru":"\u041b\u044e\u0431\u043e\u0432\u0438 \u041c\u0430\u043b\u043e\u0439 \u043f\u0440\u043e\u0441\u043f\u0435\u043a\u0442","landuse_kind":"urban_area"},"arcs":[[525],[526]]},{"type":"MultiLineString","properties":{"kind":"major_road","name:en":"Aeroflotska Street","network":"ua:international","sort_rank":381,"landuse_kind":"urban_area","source":"openstreetmap.org","min_zoom":8.0,"kind_detail":"trunk","shield_text":"18","name:ru":"\u0410\u044d\u0440\u043e\u0444\u043b\u043e\u0442\u0441\u043a\u0430\u044f \u0443\u043b\u0438\u0446\u0430","ref":"\u041c-18"},"arcs":[[527],[528]]},{"type":"LineString","properties":{"kind":"major_road","network":"e-road","sort_rank":381,"kind_detail":"trunk","source":"openstreetmap.org","min_zoom":8.0,"name:uk":"\u041e\u043a\u0440\u0443\u0436\u043d\u0430 \u0434\u043e\u0440\u043e\u0433\u0430","landuse_kind":"urban_area","shield_text":"40","name:ru":"\u041e\u043a\u0440\u0443\u0436\u043d\u0430\u044f \u0434\u043e\u0440\u043e\u0433\u0430","ref":"\u041c-03"},"arcs":[529]},{"type":"LineString","properties":{"old_name:uk":"\u041f\u0440\u0430\u0432\u0434\u0438 \u043f\u0440\u043e\u0441\u043f\u0435\u043a\u0442","kind":"major_road","name:en":"Trinklera Street","sort_rank":380,"kind_detail":"primary","old_name:ru":"\u041f\u0440\u0430\u0432\u0434\u044b \u043f\u0440\u043e\u0441\u043f\u0435\u043a\u0442","bus_network":null,"source":"openstreetmap.org","min_zoom":8.0,"old_name:en":"Pravdy Avenue","old_name":"\u041f\u0440\u0430\u0432\u0434\u0438 \u043f\u0440\u043e\u0441\u043f\u0435\u043a\u0442","name:ru":"\u041d\u0435\u0437\u0430\u0432\u0438\u0441\u0438\u043c\u043e\u0441\u0442\u0438 \u043f\u0440\u043e\u0441\u043f\u0435\u043a\u0442","landuse_kind":"urban_area","bus_shield_text":"65\u044d","id":486231798},"arcs":[530]},{"type":"LineString","properties":{"kind":"major_road","name:en":"Sumska Street","sort_rank":380,"kind_detail":"primary","source":"openstreetmap.org","min_zoom":8.0,"landuse_kind":"urban_area","name:ru":"\u0421\u0443\u043c\u0441\u043a\u0430\u044f \u0443\u043b\u0438\u0446\u0430"},"arcs":[531]},{"type":"LineString","properties":{"kind":"major_road","sort_rank":380,"kind_detail":"primary","old_name:ru":"50-\u043b\u0435\u0442\u0438\u044f \u0412\u041b\u041a\u0421\u041c \u043f\u0440\u043e\u0441\u043f\u0435\u043a\u0442","bus_network":null,"source":"openstreetmap.org","min_zoom":8.0,"old_name":"50-\u0440\u0456\u0447\u0447\u044f \u0412\u041b\u041a\u0421\u041c \u043f\u0440\u043e\u0441\u043f\u0435\u043a\u0442","name:ru":"\u042e\u0431\u0438\u043b\u0435\u0439\u043d\u044b\u0439 \u043f\u0440\u043e\u0441\u043f\u0435\u043a\u0442","landuse_kind":"urban_area","bus_shield_text":"107\u0435","id":154480462},"arcs":[532]},{"type":"LineString","properties":{"kind":"major_road","name:en":"Vesnina Street","sort_rank":380,"kind_detail":"primary","source":"openstreetmap.org","min_zoom":8.0,"landuse_kind":"urban_area","name:ru":"\u0412\u0435\u0441\u043d\u0438\u043d\u0430 \u0443\u043b\u0438\u0446\u0430","id":33473472},"arcs":[533]},{"type":"MultiLineString","properties":{"old_name:uk":"\u041a\u0456\u0440\u043e\u0432\u0430 \u0432\u0443\u043b\u0438\u0446\u044f","bus_network":null,"name:en":"Molochna Street","sort_rank":380,"kind_detail":"primary","old_name:ru":"\u041a\u0438\u0440\u043e\u0432\u0430 \u0443\u043b\u0438\u0446\u0430","kind":"major_road","source":"openstreetmap.org","min_zoom":8.0,"old_name:en":"Kirova Street","old_name":"\u041a\u0456\u0440\u043e\u0432\u0430 \u0432\u0443\u043b\u0438\u0446\u044f","name:ru":"\u041c\u043e\u043b\u043e\u0447\u043d\u0430\u044f \u0443\u043b\u0438\u0446\u0430","landuse_kind":"urban_area","bus_shield_text":"211\u044d"},"arcs":[[534],[535]]},{"type":"MultiLineString","properties":{"source":"openstreetmap.org","kind":"major_road","kind_detail":"trunk","sort_rank":381,"landuse_kind":"urban_area","min_zoom":8.0},"arcs":[[536],[537],[538]]},{"type":"LineString","properties":{"old_name:uk":"\u0427\u0435\u0440\u0432\u043e\u043d\u043e\u0448\u043a\u0456\u043b\u044c\u043d\u0430 \u043d\u0430\u0431\u0435\u0440\u0435\u0436\u043d\u0430","kind":"major_road","sort_rank":380,"kind_detail":"primary","old_name:ru":"\u041a\u0440\u0430\u0441\u043d\u043e\u0448\u043a\u043e\u043b\u044c\u043d\u0430\u044f \u043d\u0430\u0431\u0435\u0440\u0435\u0436\u043d\u0430\u044f","bus_network":null,"source":"openstreetmap.org","min_zoom":8.0,"old_name:en":"Chervonoshkilna Embarkment","old_name":"\u0427\u0435\u0440\u0432\u043e\u043d\u043e\u0448\u043a\u0456\u043b\u044c\u043d\u0430 \u043d\u0430\u0431\u0435\u0440\u0435\u0436\u043d\u0430","name:ru":"\u0413\u0438\u043c\u043d\u0430\u0437\u0438\u0447\u0435\u0441\u043a\u0430\u044f \u043d\u0430\u0431\u0435\u0440\u0435\u0436\u043d\u0430\u044f","landuse_kind":"urban_area","bus_shield_text":"305e","id":197843254},"arcs":[539]},{"type":"LineString","properties":{"kind":"major_road","sort_rank":380,"kind_detail":"primary","old_name:ru":"\u041f\u0430\u0441\u0441\u0438\u043e\u043d\u0430\u0440\u0438\u0438 \u0441\u043f\u0443\u0441\u043a","bus_network":null,"source":"openstreetmap.org","min_zoom":8.0,"old_name:en":"Pasionariyi Descent","old_name":"\u041f\u0430\u0441\u0456\u043e\u043d\u0430\u0440\u0456\u0457 \u0443\u0437\u0432\u0456\u0437","name:ru":"\u041a\u043b\u043e\u0447\u043a\u043e\u0432\u0441\u044c\u043a\u0438\u0439 \u0441\u043f\u0443\u0441\u043a","landuse_kind":"urban_area","bus_shield_text":"97\u0435","id":89529673},"arcs":[540]},{"type":"LineString","properties":{"bus_network":null,"name:en":"Saltivske Road","sort_rank":380,"landuse_kind":"urban_area","kind":"major_road","source":"openstreetmap.org","min_zoom":8.0,"bus_shield_text":"38\u0435","name:ru":"\u0421\u0430\u043b\u0442\u043e\u0432\u0441\u043a\u043e\u0435 \u0448\u043e\u0441\u0441\u0435","kind_detail":"primary"},"arcs":[541]},{"type":"MultiLineString","properties":{"kind":"highway","network":"ua:international","sort_rank":383,"kind_detail":"motorway","source":"openstreetmap.org","min_zoom":8.0,"all_networks":["ua:international"],"shield_text":"29","ref":"\u041c-29","all_shield_texts":["29"]},"arcs":[[542],[543]]},{"type":"MultiLineString","properties":{"source":"openstreetmap.org","kind":"major_road","sort_rank":380,"kind_detail":"primary","ref":"14\u041a-27","min_zoom":8.0},"arcs":[[544],[545],[546],[547]]},{"type":"LineString","properties":{"bus_network":null,"name:en":"Moskovsky Avenue","sort_rank":380,"landuse_kind":"urban_area","kind":"major_road","source":"openstreetmap.org","min_zoom":8.0,"bus_shield_text":"262\u0435","name:ru":"\u041c\u043e\u0441\u043a\u043e\u0432\u0441\u043a\u0438\u0439 \u043f\u0440\u043e\u0441\u043f\u0435\u043a\u0442","kind_detail":"primary"},"arcs":[548]},{"type":"MultiLineString","properties":{"kind":"major_road","name:en":"Iryny Buhrymovoi Square","sort_rank":380,"kind_detail":"primary","source":"openstreetmap.org","min_zoom":8.0,"landuse_kind":"urban_area","name:ru":"\u0418\u0440\u0438\u043d\u044b \u0411\u0443\u0433\u0440\u0438\u043c\u043e\u0432\u043e\u0439 \u043f\u043b\u043e\u0449\u0430\u0434\u044c"},"arcs":[[549],[550],[551]]},{"type":"LineString","properties":{"kind":"major_road","network":"e-road","sort_rank":381,"kind_detail":"trunk","bus_network":null,"source":"openstreetmap.org","min_zoom":8.0,"bus_shield_text":"109\u0423","shield_text":"105","ref":"\u041c-2","id":512725382},"arcs":[552]},{"type":"LineString","properties":{"kind":"major_road","name:en":"Velyka Honcharivska Street","sort_rank":380,"kind_detail":"primary","source":"openstreetmap.org","min_zoom":8.0,"landuse_kind":"urban_area","name:ru":"\u0411\u043e\u043b\u044c\u0448\u0430\u044f \u0413\u043e\u043d\u0447\u0430\u0440\u043e\u0432\u0441\u043a\u0430\u044f \u0443\u043b\u0438\u0446\u0430"},"arcs":[553]},{"type":"LineString","properties":{"kind":"major_road","name:en":"Horkoho Lane","network":"ua:regional","sort_rank":380,"kind_detail":"primary","source":"openstreetmap.org","min_zoom":8.0,"shield_text":"46","name:ru":"\u0413\u043e\u0440\u044c\u043a\u043e\u0433\u043e \u043f\u0435\u0440\u0435\u0443\u043b\u043e\u043a","ref":"\u0420-46","id":214388617},"arcs":[554]},{"type":"LineString","properties":{"old_name:uk":"50-\u0440\u0456\u0447\u0447\u044f \u0421\u0420\u0421\u0420 \u043f\u0440\u043e\u0441\u043f\u0435\u043a\u0442","kind":"major_road","name:en":"Lva Landau Avenue","sort_rank":380,"kind_detail":"primary","old_name:ru":"50-\u043b\u0435\u0442\u0438\u044f \u0421\u0421\u0421\u0420 \u043f\u0440\u043e\u0441\u043f\u0435\u043a\u0442","bus_network":null,"source":"openstreetmap.org","min_zoom":8.0,"old_name:en":"50-richchya SRSR Avenue","old_name":"50-\u0440\u0456\u0447\u0447\u044f \u0421\u0420\u0421\u0420 \u043f\u0440\u043e\u0441\u043f\u0435\u043a\u0442","landuse_kind":"urban_area","bus_shield_text":"19","id":132507967},"arcs":[555]},{"type":"MultiLineString","properties":{"kind":"major_road","network":"ua:regional","sort_rank":380,"kind_detail":"primary","source":"openstreetmap.org","min_zoom":8.0,"landuse_kind":"residential","shield_text":"45","ref":"\u0420-45"},"arcs":[[556],[557]]},{"type":"LineString","properties":{"kind":"major_road","name:en":"Bilhorodske Road","sort_rank":380,"kind_detail":"primary","source":"openstreetmap.org","min_zoom":8.0,"landuse_kind":"urban_area","name:ru":"\u0411\u0435\u043b\u0433\u043e\u0440\u043e\u0434\u0441\u043a\u043e\u0435 \u0448\u043e\u0441\u0441\u0435"},"arcs":[558]},{"type":"LineString","properties":{"kind":"major_road","name:en":"Planova Street","sort_rank":380,"kind_detail":"primary","source":"openstreetmap.org","min_zoom":8.0,"landuse_kind":"urban_area","name:ru":"\u041f\u043b\u0430\u043d\u043e\u0432\u0430\u044f \u0443\u043b\u0438\u0446\u0430","id":38813350},"arcs":[559]},{"type":"LineString","properties":{"kind":"major_road","name:en":"Virmenskyi Lane","sort_rank":380,"kind_detail":"primary","source":"openstreetmap.org","min_zoom":8.0,"landuse_kind":"urban_area","name:ru":"\u0410\u0440\u043c\u044f\u043d\u0441\u043a\u0438\u0439 \u043f\u0435\u0440\u0435\u0443\u043b\u043e\u043a"},"arcs":[560]},{"type":"LineString","properties":{"kind":"major_road","name:en":"Leonova Street","network":"ua:regional","sort_rank":380,"kind_detail":"primary","source":"openstreetmap.org","min_zoom":8.0,"landuse_kind":"urban_area","shield_text":"46","name:ru":"\u041b\u0435\u043e\u043d\u043e\u0432\u0430 \u0443\u043b\u0438\u0446\u0430","ref":"\u0420-46"},"arcs":[561]},{"type":"MultiLineString","properties":{"bus_network":null,"sort_rank":380,"kind_detail":"primary","kind":"major_road","source":"openstreetmap.org","min_zoom":8.0,"bus_shield_text":"6","landuse_kind":"urban_area"},"arcs":[[562],[563]]},{"type":"LineString","properties":{"kind":"major_road","name:en":"Vesnina Descent","sort_rank":380,"kind_detail":"primary","source":"openstreetmap.org","min_zoom":8.0,"landuse_kind":"urban_area","name:ru":"\u0412\u0435\u0441\u043d\u0438\u043d\u0430 \u0441\u043f\u0443\u0441\u043a","id":24258254},"arcs":[564]},{"type":"LineString","properties":{"bus_network":null,"sort_rank":380,"kind_detail":"primary","old_name:ru":"50-\u043b\u0435\u0442\u0438\u044f \u0412\u041b\u041a\u0421\u041c \u043f\u0440\u043e\u0441\u043f\u0435\u043a\u0442","kind":"major_road","source":"openstreetmap.org","min_zoom":8.0,"old_name":"50-\u0440\u0456\u0447\u0447\u044f \u0412\u041b\u041a\u0421\u041c \u043f\u0440\u043e\u0441\u043f\u0435\u043a\u0442","name:ru":"\u042e\u0431\u0438\u043b\u0435\u0439\u043d\u044b\u0439 \u043f\u0440\u043e\u0441\u043f\u0435\u043a\u0442","landuse_kind":"urban_area","bus_shield_text":"281\u044d"},"arcs":[565]},{"type":"LineString","properties":{"bus_network":null,"old_name":"\u041b\u0435\u043d\u0456\u043d\u0430 \u0432\u0443\u043b\u0438\u0446\u044f","min_zoom":8.0,"bus_shield_text":"1168","name:ru":"\u0421\u0443\u043c\u0441\u043a\u043e\u0439 \u0448\u043b\u044f\u0445","id":386030157,"old_name:uk":"\u041b\u0435\u043d\u0456\u043d\u0430 \u0432\u0443\u043b\u0438\u0446\u044f","kind":"major_road","network":"ua:regional","sort_rank":380,"kind_detail":"primary","old_name:ru":"\u041b\u0435\u043d\u0438\u043d\u0430 \u0443\u043b\u0438\u0446\u0430","source":"openstreetmap.org","landuse_kind":"urban_area","shield_text":"46","ref":"\u0420-46"},"arcs":[566]},{"type":"LineString","properties":{"kind":"major_road","name:en":"Akademika Proskury Street","sort_rank":380,"kind_detail":"primary","bus_network":null,"source":"openstreetmap.org","min_zoom":8.0,"bus_shield_text":"278\u044d","name:ru":"\u0410\u043a\u0430\u0434\u0435\u043c\u0438\u043a\u0430 \u041f\u0440\u043e\u0441\u043a\u0443\u0440\u044b \u0443\u043b\u0438\u0446\u0430","landuse_kind":"urban_area","id":87261487},"arcs":[567]},{"type":"MultiLineString","properties":{"kind":"major_road","network":"ru:national","sort_rank":381,"kind_detail":"trunk","source":"openstreetmap.org","min_zoom":8.0,"shield_text":"2","ref":"\u041c-2"},"arcs":[[568],[569],[570],[571],[572],[573]]},{"type":"LineString","properties":{"kind":"major_road","sort_rank":380,"kind_detail":"primary","old_name:ru":"\u041a\u043e\u043c\u0430\u043d\u0434\u0430\u0440\u043c\u0430 \u041a\u043e\u0440\u043a\u0430 \u0443\u043b\u0438\u0446\u0430","bus_network":null,"source":"openstreetmap.org","min_zoom":8.0,"old_name":"\u041a\u043e\u043c\u0430\u043d\u0434\u0430\u0440\u043c\u0430 \u041a\u043e\u0440\u043a\u0430 \u0432\u0443\u043b\u0438\u0446\u044f","name:ru":"\u041b\u0435\u0441\u044f \u0421\u0435\u0440\u0434\u044e\u043a\u0430 \u0443\u043b\u0438\u0446\u0430","landuse_kind":"urban_area","bus_shield_text":"163","id":229183351},"arcs":[574]},{"type":"LineString","properties":{"kind":"major_road","name:en":"Moyiseivska Street","sort_rank":380,"kind_detail":"primary","source":"openstreetmap.org","min_zoom":8.0,"landuse_kind":"urban_area","name:ru":"\u041c\u043e\u0438\u0441\u0435\u0435\u0432\u0441\u043a\u0430\u044f \u0443\u043b\u0438\u0446\u0430"},"arcs":[575]},{"type":"LineString","properties":{"kind":"major_road","name:en":"Heroiv Stalinhrada Avenue","sort_rank":380,"kind_detail":"primary","source":"openstreetmap.org","min_zoom":8.0,"landuse_kind":"urban_area","name:ru":"\u0413\u0435\u0440\u043e\u0435\u0432 \u0421\u0442\u0430\u043b\u0438\u043d\u0433\u0440\u0430\u0434\u0430 \u043f\u0440\u043e\u0441\u043f\u0435\u043a\u0442","id":198359122},"arcs":[576]},{"type":"LineString","properties":{"kind":"major_road","name:en":"Konstytutsiyi Square","sort_rank":380,"kind_detail":"primary","source":"openstreetmap.org","min_zoom":8.0,"landuse_kind":"urban_area","name:ru":"\u041a\u043e\u043d\u0441\u0442\u0438\u0442\u0443\u0446\u0438\u0438 \u043f\u043b\u043e\u0449\u0430\u0434\u044c"},"arcs":[577]},{"type":"LineString","properties":{"bus_network":null,"name:en":"Yuriia Haharina Avenue","sort_rank":380,"kind_detail":"primary","kind":"major_road","source":"openstreetmap.org","min_zoom":8.0,"bus_shield_text":"304\u0435","name:ru":"\u042e\u0440\u0438\u044f \u0413\u0430\u0433\u0430\u0440\u0438\u043d\u0430 \u043f\u0440\u043e\u0441\u043f\u0435\u043a\u0442","landuse_kind":"urban_area"},"arcs":[578]},{"type":"LineString","properties":{"kind":"major_road","name:en":"Yehora Movchana Street","network":"ua:regional","sort_rank":380,"kind_detail":"primary","source":"openstreetmap.org","min_zoom":8.0,"shield_text":"45","name:ru":"\u0415\u0433\u043e\u0440\u0430 \u041c\u043e\u0432\u0447\u0430\u043d\u0430 \u0443\u043b\u0438\u0446\u0430","ref":"\u0420-45","id":255109339},"arcs":[579]},{"type":"MultiLineString","properties":{"bus_network":null,"sort_rank":380,"kind_detail":"primary","old_name:ru":"50-\u043b\u0435\u0442\u0438\u044f \u0412\u041b\u041a\u0421\u041c \u043f\u0440\u043e\u0441\u043f\u0435\u043a\u0442","kind":"major_road","source":"openstreetmap.org","min_zoom":8.0,"old_name":"50-\u0440\u0456\u0447\u0447\u044f \u0412\u041b\u041a\u0421\u041c \u043f\u0440\u043e\u0441\u043f\u0435\u043a\u0442","name:ru":"\u042e\u0431\u0438\u043b\u0435\u0439\u043d\u044b\u0439 \u043f\u0440\u043e\u0441\u043f\u0435\u043a\u0442","landuse_kind":"urban_area","bus_shield_text":"38\u0435"},"arcs":[[580],[581]]},{"type":"LineString","properties":{"kind":"major_road","network":"e-road","sort_rank":381,"kind_detail":"trunk","source":"openstreetmap.org","min_zoom":8.0,"landuse_kind":"urban_area","shield_text":"40","name:ru":"\u041f\u043e\u043b\u0442\u0430\u0432\u0441\u043a\u043e\u0435 \u0448\u043e\u0441\u0441\u0435","ref":"\u041c-03","id":23297170},"arcs":[582]},{"type":"LineString","properties":{"bus_network":null,"network":"ru:national","sort_rank":381,"kind_detail":"trunk","kind":"major_road","source":"openstreetmap.org","min_zoom":8.0,"bus_shield_text":"116","shield_text":"2","ref":"\u041c-2"},"arcs":[583]},{"type":"LineString","properties":{"kind":"major_road","name:en":"Derevyanka Street","sort_rank":380,"kind_detail":"primary","source":"openstreetmap.org","min_zoom":8.0,"landuse_kind":"urban_area","name:ru":"\u0414\u0435\u0440\u0435\u0432\u044f\u043d\u043a\u043e \u0443\u043b\u0438\u0446\u0430"},"arcs":[584]},{"type":"LineString","properties":{"kind":"major_road","network":"ua:international","sort_rank":381,"kind_detail":"trunk","source":"openstreetmap.org","min_zoom":8.0,"shield_text":"03","name:ru":"\u041e\u043a\u0440\u0443\u0436\u043d\u0430\u044f \u0434\u043e\u0440\u043e\u0433\u0430","ref":"\u041c-03"},"arcs":[585]},{"type":"LineString","properties":{"kind":"major_road","name:en":"Kharkivska Street","network":"ua:regional","sort_rank":380,"kind_detail":"primary","source":"openstreetmap.org","min_zoom":8.0,"shield_text":"45","name:ru":"\u0425\u0430\u0440\u044c\u043a\u043e\u0432\u0441\u043a\u0430\u044f \u0443\u043b\u0438\u0446\u0430","ref":"\u0420-45","id":255188816},"arcs":[586]},{"type":"LineString","properties":{"kind":"major_road","network":"ua:international","sort_rank":381,"kind_detail":"trunk","source":"openstreetmap.org","min_zoom":8.0,"landuse_kind":"urban_area","shield_text":"18","ref":"\u041c-18","id":235994875},"arcs":[587]},{"type":"MultiLineString","properties":{"kind":"major_road","network":"ua:international","sort_rank":381,"landuse_kind":"urban_area","source":"openstreetmap.org","min_zoom":8.0,"kind_detail":"trunk","shield_text":"03","ref":"\u041c-03;\u041c-18"},"arcs":[[588],[589]]},{"type":"MultiLineString","properties":{"old_name:uk":"\u0416\u043e\u0432\u0442\u043d\u0435\u0432\u043e\u0457 \u0420\u0435\u0432\u043e\u043b\u044e\u0446\u0456\u0457 \u0432\u0443\u043b\u0438\u0446\u044f","kind":"major_road","name:en":"Moskalivska Street","sort_rank":380,"kind_detail":"primary","old_name:ru":"\u041e\u043a\u0442\u044f\u0431\u0440\u044c\u0441\u043a\u043e\u0439 \u0420\u0435\u0432\u043e\u043b\u044e\u0446\u0438\u0438 \u0443\u043b\u0438\u0446\u0430","source":"openstreetmap.org","min_zoom":8.0,"old_name:en":"Zhovtnevoi Revoliutsii Street","old_name":"\u0416\u043e\u0432\u0442\u043d\u0435\u0432\u043e\u0457 \u0420\u0435\u0432\u043e\u043b\u044e\u0446\u0456\u0457 \u0432\u0443\u043b\u0438\u0446\u044f","name:ru":"\u041c\u043e\u0441\u043a\u0430\u043b\u0451\u0432\u0441\u043a\u0430\u044f \u0443\u043b\u0438\u0446\u0430","landuse_kind":"urban_area"},"arcs":[[590],[591]]},{"type":"MultiLineString","properties":{"kind":"major_road","name:en":"Rybasivsky Lane","sort_rank":380,"kind_detail":"primary","source":"openstreetmap.org","min_zoom":8.0,"landuse_kind":"urban_area","name:ru":"\u0420\u044b\u0431\u0430\u0441\u043e\u0432\u0441\u043a\u0438\u0439 \u043f\u0435\u0440\u0435\u0443\u043b\u043e\u043a"},"arcs":[[592],[593]]},{"type":"LineString","properties":{"kind":"major_road","name:en":"Moskovsky Avenue","sort_rank":380,"kind_detail":"primary","bus_network":null,"source":"openstreetmap.org","min_zoom":8.0,"bus_shield_text":"294\u0435","name:ru":"\u041c\u043e\u0441\u043a\u043e\u0432\u0441\u043a\u0438\u0439 \u043f\u0440\u043e\u0441\u043f\u0435\u043a\u0442","landuse_kind":"urban_area","id":108193928},"arcs":[594]},{"type":"MultiLineString","properties":{"bus_network":null,"name:en":"Saltivske Road","sort_rank":380,"landuse_kind":"urban_area","kind":"major_road","source":"openstreetmap.org","min_zoom":8.0,"bus_shield_text":"281\u044d","name:ru":"\u0421\u0430\u043b\u0442\u043e\u0432\u0441\u043a\u043e\u0435 \u0448\u043e\u0441\u0441\u0435","kind_detail":"primary"},"arcs":[[595],[596]]},{"type":"MultiLineString","properties":{"source":"openstreetmap.org","kind":"major_road","sort_rank":380,"kind_detail":"primary","ref":"14\u041a-28","min_zoom":8.0},"arcs":[[597],[598]]},{"type":"LineString","properties":{"kind":"major_road","name:en":"Svobody Square","sort_rank":380,"kind_detail":"primary","source":"openstreetmap.org","min_zoom":8.0,"landuse_kind":"urban_area","name:ru":"\u0421\u0432\u043e\u0431\u043e\u0434\u044b \u043f\u043b\u043e\u0449\u0430\u0434\u044c","id":34871959},"arcs":[599]},{"type":"LineString","properties":{"kind":"major_road","network":"e-road","sort_rank":381,"landuse_kind":"urban_area","source":"openstreetmap.org","min_zoom":8.0,"kind_detail":"trunk","shield_text":"40","name:ru":"\u041b\u043e\u0437\u043e\u0432\u0435\u043d\u044c\u043a\u043e\u0432\u0441\u043a\u0438\u0439 \u043f\u0440\u043e\u0441\u043f\u0435\u043a\u0442","ref":"\u041c-03"},"arcs":[600]},{"type":"LineString","properties":{"kind":"major_road","network":"e-road","sort_rank":381,"landuse_kind":"urban_area","source":"openstreetmap.org","min_zoom":8.0,"kind_detail":"trunk","shield_text":"105","ref":"\u041c-18"},"arcs":[601]},{"type":"LineString","properties":{"old_name:uk":"\u0421\u043e\u0446\u0456\u0430\u043b\u0456\u0441\u0442\u0438\u0447\u043d\u0430 \u0432\u0443\u043b\u0438\u0446\u044f","kind":"major_road","sort_rank":380,"kind_detail":"primary","old_name:ru":"\u0421\u043e\u0446\u0438\u0430\u043b\u0438\u0441\u0442\u0438\u0447\u0435\u0441\u043a\u0430\u044f \u0443\u043b\u0438\u0446\u0430","source":"openstreetmap.org","min_zoom":8.0,"old_name:en":"Sotsialistychna Street","old_name":"\u0421\u043e\u0446\u0456\u0430\u043b\u0456\u0441\u0442\u0438\u0447\u043d\u0430 \u0432\u0443\u043b\u0438\u0446\u044f","name:ru":"\u0412\u043e\u043b\u043e\u043d\u0442\u0435\u0440\u0441\u043a\u0430\u044f \u0443\u043b\u0438\u0446\u0430","landuse_kind":"urban_area"},"arcs":[602]},{"type":"MultiLineString","properties":{"kind":"major_road","name:en":"Koneva Street","sort_rank":380,"kind_detail":"primary","source":"openstreetmap.org","min_zoom":8.0,"landuse_kind":"urban_area","name:ru":"\u041a\u043e\u043d\u0435\u0432\u0430 \u0443\u043b\u0438\u0446\u0430"},"arcs":[[603],[604]]},{"type":"LineString","properties":{"kind":"major_road","name:en":"Sergiyivsky Square","sort_rank":380,"kind_detail":"primary","bus_network":null,"source":"openstreetmap.org","min_zoom":8.0,"bus_shield_text":"304\u0435","name:ru":"\u0421\u0435\u0440\u0433\u0438\u0435\u0432\u0441\u043a\u0430\u044f \u043f\u043b\u043e\u0449\u0430\u0434\u044c","landuse_kind":"urban_area","id":198082109},"arcs":[605]},{"type":"LineString","properties":{"kind":"major_road","name:en":"Zmiivska Street","network":"ua:regional","sort_rank":380,"kind_detail":"primary","bus_network":null,"source":"openstreetmap.org","min_zoom":8.0,"bus_shield_text":"167","shield_text":"78","name:ru":"\u0417\u043c\u0438\u0435\u0432\u0441\u043a\u0430\u044f \u0443\u043b\u0438\u0446\u0430","landuse_kind":"urban_area","ref":"\u0420-78","id":150698326},"arcs":[606]},{"type":"LineString","properties":{"bus_network":null,"name:en":"Yuriia Haharina Avenue","network":"ua:international","sort_rank":381,"kind_detail":"trunk","kind":"major_road","source":"openstreetmap.org","min_zoom":8.0,"bus_shield_text":"305e","shield_text":"03","name:ru":"\u042e\u0440\u0438\u044f \u0413\u0430\u0433\u0430\u0440\u0438\u043d\u0430 \u043f\u0440\u043e\u0441\u043f\u0435\u043a\u0442","landuse_kind":"urban_area","ref":"\u041c-03"},"arcs":[607]},{"type":"LineString","properties":{"kind":"major_road","name:lt":"Slav\u0173 prospektas","sort_rank":380,"kind_detail":"primary","bus_network":null,"source":"openstreetmap.org","min_zoom":8.0,"bus_shield_text":"6","landuse_kind":"urban_area","id":25718011},"arcs":[608]},{"type":"MultiLineString","properties":{"kind":"major_road","name:en":"Saltivske Road","sort_rank":380,"landuse_kind":"urban_area","source":"openstreetmap.org","min_zoom":8.0,"kind_detail":"primary","name:ru":"\u0421\u0430\u043b\u0442\u043e\u0432\u0441\u043a\u043e\u0435 \u0448\u043e\u0441\u0441\u0435"},"arcs":[[609],[610]]},{"type":"MultiLineString","properties":{"kind":"major_road","name:en":"Poltavsky Shlyakh Street","sort_rank":380,"kind_detail":"primary","source":"openstreetmap.org","min_zoom":8.0,"landuse_kind":"urban_area","name:ru":"\u041f\u043e\u043b\u0442\u0430\u0432\u0441\u043a\u0438\u0439 \u0428\u043b\u044f\u0445 \u0443\u043b\u0438\u0446\u0430"},"arcs":[[611],[612],[613]]},{"type":"LineString","properties":{"kind":"major_road","network":"ua:international","sort_rank":381,"kind_detail":"trunk","source":"openstreetmap.org","min_zoom":8.0,"landuse_kind":"urban_area","shield_text":"03","name:ru":"\u0421\u0438\u043c\u0444\u0435\u0440\u043e\u043f\u043e\u043b\u044c\u0441\u043a\u043e\u0435 \u0448\u043e\u0441\u0441\u0435","ref":"\u041c-03;\u041c-18","id":184540442},"arcs":[614]},{"type":"LineString","properties":{"old_name:uk":"\u0420\u043e\u0437\u0438 \u041b\u044e\u043a\u0441\u0435\u043c\u0431\u0443\u0440\u0433 \u043c\u0430\u0439\u0434\u0430\u043d","kind":"major_road","name:en":"Pavlivskyi Square","sort_rank":380,"kind_detail":"primary","old_name:ru":"\u0420\u043e\u0437\u044b \u041b\u044e\u043a\u0441\u0435\u043c\u0431\u0443\u0440\u0433 \u043f\u043b\u043e\u0449\u0430\u0434\u044c","bus_network":null,"source":"openstreetmap.org","min_zoom":8.0,"old_name":"\u0420\u043e\u0437\u0438 \u041b\u044e\u043a\u0441\u0435\u043c\u0431\u0443\u0440\u0433 \u043c\u0430\u0439\u0434\u0430\u043d","name:ru":"\u041f\u0430\u0432\u043b\u043e\u0432\u0441\u043a\u0430\u044f \u043f\u043b\u043e\u0449\u0430\u0434\u044c","landuse_kind":"urban_area","bus_shield_text":"305e","id":197843257},"arcs":[615]},{"type":"MultiLineString","properties":{"bus_network":null,"name:en":"Saltivske Road","sort_rank":380,"landuse_kind":"urban_area","kind":"major_road","source":"openstreetmap.org","min_zoom":8.0,"bus_shield_text":"10\u044d","name:ru":"\u0421\u0430\u043b\u0442\u043e\u0432\u0441\u043a\u043e\u0435 \u0448\u043e\u0441\u0441\u0435","kind_detail":"primary"},"arcs":[[616],[617]]},{"type":"LineString","properties":{"kind":"major_road","name:en":"Yuriia Haharina Avenue","sort_rank":381,"kind_detail":"trunk","bus_network":null,"source":"openstreetmap.org","min_zoom":8.0,"bus_shield_text":"305e","name:ru":"\u042e\u0440\u0438\u044f \u0413\u0430\u0433\u0430\u0440\u0438\u043d\u0430 \u043f\u0440\u043e\u0441\u043f\u0435\u043a\u0442","landuse_kind":"urban_area","ref":"\u041c-03;\u041c-18","id":486456285},"arcs":[618]},{"type":"MultiLineString","properties":{"kind":"major_road","sort_rank":380,"landuse_kind":"urban_area","old_name:ru":"\u0413\u0430\u043c\u0430\u0440\u043d\u0438\u043a\u0430 \u0443\u043b\u0438\u0446\u0430","source":"openstreetmap.org","min_zoom":8.0,"old_name:en":"Hamarnyka Street","old_name":"\u0413\u0430\u043c\u0430\u0440\u043d\u0438\u043a\u0430 \u0432\u0443\u043b\u0438\u0446\u044f","name:ru":"\u041f\u043e\u0434\u043e\u043b\u044c\u0441\u043a\u0438\u0439 \u043f\u0435\u0440\u0435\u0443\u043b\u043e\u043a","kind_detail":"primary"},"arcs":[[619],[620],[621]]},{"type":"MultiLineString","properties":{"bus_network":null,"network":"ua:regional","sort_rank":380,"kind_detail":"primary","kind":"major_road","source":"openstreetmap.org","min_zoom":8.0,"bus_shield_text":"167","shield_text":"78","landuse_kind":"urban_area","ref":"\u0420-78"},"arcs":[[622],[623]]},{"type":"LineString","properties":{"kind":"major_road","name:en":"Zhyliardi Street","sort_rank":380,"kind_detail":"primary","bus_network":null,"source":"openstreetmap.org","min_zoom":8.0,"bus_shield_text":"247\u0435","name:ru":"\u0416\u0438\u043b\u044f\u0440\u0434\u0438 \u0443\u043b\u0438\u0446\u0430","landuse_kind":"urban_area","id":92164775},"arcs":[624]},{"type":"LineString","properties":{"bus_network":null,"sort_rank":380,"kind_detail":"primary","old_name:ru":"\u041a\u043e\u043c\u0430\u043d\u0434\u0430\u0440\u043c\u0430 \u041a\u043e\u0440\u043a\u0430 \u0443\u043b\u0438\u0446\u0430","kind":"major_road","source":"openstreetmap.org","min_zoom":8.0,"old_name":"\u041a\u043e\u043c\u0430\u043d\u0434\u0430\u0440\u043c\u0430 \u041a\u043e\u0440\u043a\u0430 \u0432\u0443\u043b\u0438\u0446\u044f","name:ru":"\u041b\u0435\u0441\u044f \u0421\u0435\u0440\u0434\u044e\u043a\u0430 \u0443\u043b\u0438\u0446\u0430","landuse_kind":"urban_area","bus_shield_text":"41\u044d"},"arcs":[625]},{"type":"MultiLineString","properties":{"kind":"major_road","network":"e-road","sort_rank":381,"kind_detail":"trunk","source":"openstreetmap.org","min_zoom":8.0,"landuse_kind":"residential","shield_text":"40","ref":"\u041c-03"},"arcs":[[626],[627],[628]]},{"type":"LineString","properties":{"kind":"major_road","sort_rank":380,"kind_detail":"primary","bus_shield_text":"97\u0435","bus_network":null,"source":"openstreetmap.org","min_zoom":8.0,"old_name":"\u0411\u0430\u043a\u0438\u043d\u0441\u044c\u043a\u0438\u0445 \u041a\u043e\u043c\u0456\u0441\u0430\u0440\u0456\u0432 \u0432\u0443\u043b\u0438\u0446\u044f","name:ru":"\u041f\u0430\u043d\u0430\u0441\u043e\u0432\u0441\u043a\u0438\u0439 \u043f\u0440\u043e\u0435\u0437\u0434","landuse_kind":"urban_area","id":57956843},"arcs":[629]},{"type":"LineString","properties":{"kind":"major_road","name:en":"Oreshkova Street","network":"ua:regional","sort_rank":380,"kind_detail":"primary","bus_network":null,"source":"openstreetmap.org","min_zoom":8.0,"bus_shield_text":"198","shield_text":"78","name:ru":"\u041e\u0440\u0435\u0448\u043a\u043e\u0432\u0430 \u0443\u043b\u0438\u0446\u0430","landuse_kind":"urban_area","ref":"\u0420-78","id":37974491},"arcs":[630]},{"type":"LineString","properties":{"kind":"major_road","sort_rank":381,"kind_detail":"trunk","source":"openstreetmap.org","min_zoom":8.0,"landuse_kind":"urban_area","name:ru":"\u041c\u0435\u0440\u0435\u0444\u044f\u043d\u0441\u043a\u043e\u0435 \u0448\u043e\u0441\u0441\u0435","ref":"\u041c-03;\u041c-18","id":486456284},"arcs":[631]},{"type":"LineString","properties":{"kind":"major_road","name:en":"Netechenska Embarkment","sort_rank":380,"kind_detail":"primary","source":"openstreetmap.org","min_zoom":8.0,"landuse_kind":"urban_area","name:ru":"\u041d\u0435\u0442\u0435\u0447\u0435\u043d\u0441\u043a\u0430\u044f \u043d\u0430\u0431\u0435\u0440\u0435\u0436\u043d\u0430\u044f"},"arcs":[632]},{"type":"LineString","properties":{"kind":"major_road","name:en":"Yehora Movchana Street","network":"ua:regional","sort_rank":380,"kind_detail":"primary","source":"openstreetmap.org","min_zoom":8.0,"landuse_kind":"residential","shield_text":"45","name:ru":"\u0415\u0433\u043e\u0440\u0430 \u041c\u043e\u0432\u0447\u0430\u043d\u0430 \u0443\u043b\u0438\u0446\u0430","ref":"\u0420-45","id":255109339},"arcs":[633]},{"type":"LineString","properties":{"bus_network":null,"name:en":"Akademika Pavlova Street","sort_rank":380,"kind_detail":"primary","kind":"major_road","source":"openstreetmap.org","min_zoom":8.0,"bus_shield_text":"211\u044d","name:ru":"\u0410\u043a\u0430\u0434\u0435\u043c\u0438\u043a\u0430 \u041f\u0430\u0432\u043b\u043e\u0432\u0430 \u0443\u043b\u0438\u0446\u0430","landuse_kind":"urban_area"},"arcs":[634]},{"type":"LineString","properties":{"kind":"major_road","network":"ua:regional","sort_rank":380,"kind_detail":"primary","source":"openstreetmap.org","min_zoom":8.0,"landuse_kind":"national_park","shield_text":"45","ref":"\u0420-45","id":255105965},"arcs":[635]},{"type":"LineString","properties":{"old_name:uk":"\u0406\u043b\u043b\u0456\u0447\u0430 \u043f\u0440\u043e\u0441\u043f\u0435\u043a\u0442","kind":"major_road","name:en":"Novo-Bavarskyi Avenue","sort_rank":380,"kind_detail":"primary","old_name:ru":"\u0418\u043b\u044c\u0438\u0447\u0430 \u043f\u0440\u043e\u0441\u043f\u0435\u043a\u0442","bus_network":null,"source":"openstreetmap.org","min_zoom":8.0,"old_name:en":"Illicha Avenue","old_name":"\u0406\u043b\u043b\u0456\u0447\u0430 \u043f\u0440\u043e\u0441\u043f\u0435\u043a\u0442","name:ru":"\u041d\u043e\u0432\u043e-\u0411\u0430\u0432\u0430\u0440\u0441\u043a\u0438\u0439 \u043f\u0440\u043e\u0441\u043f\u0435\u043a\u0442","landuse_kind":"urban_area","bus_shield_text":"209","id":492090680},"arcs":[636]},{"type":"LineString","properties":{"bus_network":null,"name:en":"New Bridge","sort_rank":380,"kind_detail":"primary","kind":"major_road","source":"openstreetmap.org","min_zoom":8.0,"bus_shield_text":"270\u0435","name:ru":"\u041d\u043e\u0432\u044b\u0439 \u043c\u043e\u0441\u0442","landuse_kind":"urban_area"},"arcs":[637]},{"type":"LineString","properties":{"bus_network":null,"name:en":"Sumskaya ulitsa","sort_rank":380,"landuse_kind":"urban_area","kind":"major_road","source":"openstreetmap.org","min_zoom":8.0,"bus_shield_text":"6","kind_detail":"primary"},"arcs":[638]},{"type":"MultiLineString","properties":{"bus_network":null,"name:en":"Ozerianska Street","sort_rank":380,"kind_detail":"primary","old_name:ru":"\u041c\u0443\u0440\u0430\u043d\u043e\u0432\u0430 \u0443\u043b\u0438\u0446\u0430","kind":"major_road","source":"openstreetmap.org","min_zoom":8.0,"old_name":"\u041c\u0443\u0440\u0430\u043d\u043e\u0432\u0430 \u0432\u0443\u043b\u0438\u0446\u044f","name:ru":"\u041e\u0437\u0435\u0440\u044f\u043d\u0441\u043a\u0430\u044f \u0443\u043b\u0438\u0446\u0430","landuse_kind":"urban_area","bus_shield_text":"270\u0435"},"arcs":[[639],[640],[641]]},{"type":"LineString","properties":{"bus_network":null,"name:en":"Vernadskoho Street","sort_rank":380,"kind_detail":"primary","kind":"major_road","source":"openstreetmap.org","min_zoom":8.0,"bus_shield_text":"304\u0435","name:ru":"\u0412\u0435\u0440\u043d\u0430\u0434\u0441\u043a\u043e\u0433\u043e \u0443\u043b\u0438\u0446\u0430","landuse_kind":"urban_area"},"arcs":[642]},{"type":"MultiLineString","properties":{"kind":"major_road","network":"ua:international","sort_rank":381,"landuse_kind":"urban_area","source":"openstreetmap.org","min_zoom":8.0,"kind_detail":"trunk","shield_text":"03","ref":"\u041c-03"},"arcs":[[643],[644]]},{"type":"LineString","properties":{"alt_name:ru":"\u0410\u043a\u0430\u0434\u0435\u043c\u0438\u043a\u0430 \u0411\u0435\u043b\u0435\u0446\u043a\u043e\u0433\u043e \u0443\u043b\u0438\u0446\u0430","kind":"major_road","name:en":"Moiseivska Street","sort_rank":380,"kind_detail":"primary","source":"openstreetmap.org","min_zoom":8.0,"alt_name:en":"Akademika Beletskoho Street","landuse_kind":"urban_area","name:ru":"\u041c\u043e\u0438\u0441\u0435\u0435\u0432\u0441\u043a\u0430\u044f \u0443\u043b\u0438\u0446\u0430","id":24361298},"arcs":[645]},{"type":"LineString","properties":{"source":"openstreetmap.org","kind":"major_road","network":"e-road","sort_rank":381,"kind_detail":"trunk","min_zoom":8.0,"shield_text":"105"},"arcs":[646]},{"type":"MultiLineString","properties":{"old_name:uk":"1-\u0457 \u041a\u0456\u043d\u043d\u043e\u0457 \u0410\u0440\u043c\u0456\u0457 \u0432\u0443\u043b\u0438\u0446\u044f","bus_network":null,"name:en":"Holdberhivska Street","sort_rank":380,"kind_detail":"primary","old_name:ru":"1-\u0439 \u041a\u043e\u043d\u043d\u043e\u0439 \u0410\u0440\u043c\u0438\u0438 \u0443\u043b\u0438\u0446\u0430","kind":"major_road","source":"openstreetmap.org","min_zoom":8.0,"old_name:en":"1st Kinnoi Armiyi Street","old_name":"1-\u0457 \u041a\u0456\u043d\u043d\u043e\u0457 \u0410\u0440\u043c\u0456\u0457 \u0432\u0443\u043b\u0438\u0446\u044f","name:ru":"\u0413\u043e\u043b\u044c\u0434\u0431\u0435\u0440\u0433\u043e\u0432\u0441\u043a\u0430\u044f \u0443\u043b\u0438\u0446\u0430","landuse_kind":"urban_area","bus_shield_text":"211\u044d"},"arcs":[[647],[648]]},{"type":"LineString","properties":{"kind":"major_road","sort_rank":380,"kind_detail":"primary","bus_network":null,"source":"openstreetmap.org","min_zoom":8.0,"bus_shield_text":"304\u0435","landuse_kind":"urban_area","id":197843262},"arcs":[649]},{"type":"MultiLineString","properties":{"kind":"major_road","name:en":"Hrekivska Street","sort_rank":380,"kind_detail":"primary","source":"openstreetmap.org","min_zoom":8.0,"landuse_kind":"urban_area","name:ru":"\u0413\u0440\u0435\u043a\u043e\u0432\u0441\u043a\u0430\u044f \u0443\u043b\u0438\u0446\u0430"},"arcs":[[650],[651],[652],[653]]},{"type":"MultiLineString","properties":{"kind":"major_road","network":"ua:regional","sort_rank":380,"kind_detail":"primary","source":"openstreetmap.org","min_zoom":8.0,"shield_text":"45","ref":"\u0420-45"},"arcs":[[654],[655],[656],[657],[658],[659],[660],[661],[662]]},{"type":"LineString","properties":{"kind":"major_road","name:en":"Heroiv Pratsi Street","sort_rank":380,"kind_detail":"primary","bus_network":null,"source":"openstreetmap.org","min_zoom":8.0,"bus_shield_text":"247\u0435","name:ru":"\u041b\u0435\u0441\u044f \u0421\u0435\u0440\u0434\u044e\u043a\u0430 \u0443\u043b\u0438\u0446\u0430","landuse_kind":"urban_area","id":255958150},"arcs":[663]},{"type":"LineString","properties":{"old_name:uk":"\u041a\u043e\u0441\u0456\u043e\u0440\u0430 \u043f\u0440\u043e\u0441\u043f\u0435\u043a\u0442","kind":"major_road","name:en":"Oleksandrivskyi Avenue","sort_rank":380,"kind_detail":"primary","old_name:ru":"\u041a\u043e\u0441\u0438\u043e\u0440\u0430 \u043f\u0440\u043e\u0441\u043f\u0435\u043a\u0442","bus_network":null,"source":"openstreetmap.org","min_zoom":8.0,"old_name:en":"Kosiora Avenue","old_name":"\u041a\u043e\u0441\u0456\u043e\u0440\u0430 \u043f\u0440\u043e\u0441\u043f\u0435\u043a\u0442","name:ru":"\u0410\u043b\u0435\u043a\u0441\u0430\u043d\u0434\u0440\u043e\u0432\u0441\u043a\u0438\u0439 \u043f\u0440\u043e\u0441\u043f\u0435\u043a\u0442","landuse_kind":"urban_area","bus_shield_text":"304\u0435","id":86450559},"arcs":[664]},{"type":"LineString","properties":{"kind":"major_road","name:en":"Zhyliardi Descent","sort_rank":380,"kind_detail":"primary","bus_network":null,"source":"openstreetmap.org","min_zoom":8.0,"bus_shield_text":"247\u0435","name:ru":"\u0416\u0438\u043b\u044f\u0440\u0434\u0438 \u0441\u043f\u0443\u0441\u043a","landuse_kind":"urban_area","id":92117316},"arcs":[665]},{"type":"LineString","properties":{"kind":"major_road","name:en":"Muranova Street","sort_rank":380,"kind_detail":"primary","bus_shield_text":"270\u0435","bus_network":null,"source":"openstreetmap.org","min_zoom":8.0,"old_name":"\u0411\u0430\u043a\u0438\u043d\u0441\u044c\u043a\u0438\u0445 \u041a\u043e\u043c\u0456\u0441\u0430\u0440\u0456\u0432 \u0432\u0443\u043b\u0438\u0446\u044f","name:ru":"\u041f\u0430\u043d\u0430\u0441\u043e\u0432\u0441\u043a\u0438\u0439 \u043f\u0440\u043e\u0435\u0437\u0434","landuse_kind":"urban_area","id":383036883},"arcs":[666]},{"type":"LineString","properties":{"kind":"major_road","name:en":"Petrovskoho Street","network":"ua:regional","sort_rank":380,"kind_detail":"primary","source":"openstreetmap.org","min_zoom":8.0,"shield_text":"46","name:ru":"\u041f\u0435\u0442\u0440\u043e\u0432\u0441\u043a\u043e\u0433\u043e \u0443\u043b\u0438\u0446\u0430","ref":"\u0420-46"},"arcs":[667]},{"type":"LineString","properties":{"kind":"major_road","name:en":"Kibalchycha Street","sort_rank":380,"kind_detail":"primary","source":"openstreetmap.org","min_zoom":8.0,"landuse_kind":"urban_area","name:ru":"\u041a\u0438\u0431\u0430\u043b\u044c\u0447\u0438\u0447\u0430 \u0443\u043b\u0438\u0446\u0430"},"arcs":[668]},{"type":"LineString","properties":{"bus_network":null,"network":"ua:regional","sort_rank":380,"kind_detail":"primary","kind":"major_road","source":"openstreetmap.org","min_zoom":8.0,"bus_shield_text":"198","shield_text":"78","landuse_kind":"urban_area","ref":"\u0420-78"},"arcs":[669]},{"type":"LineString","properties":{"kind":"major_road","sort_rank":380,"kind_detail":"primary","old_name:ru":"\u0410\u043d\u0440\u0438 \u0411\u0430\u0440\u0431\u044e\u0441\u0430 \u0443\u043b\u0438\u0446\u0430","bus_network":null,"source":"openstreetmap.org","min_zoom":8.0,"old_name":"\u0410\u043d\u0440\u0456 \u0411\u0430\u0440\u0431\u044e\u0441\u0430 \u0432\u0443\u043b\u0438\u0446\u044f","name:ru":"\u042e\u0440\u044b \u0417\u043e\u0439\u0444\u0435\u0440\u0430 \u0443\u043b\u0438\u0446\u0430","landuse_kind":"urban_area","bus_shield_text":"270\u0435","id":34871960},"arcs":[670]},{"type":"LineString","properties":{"kind":"major_road","sort_rank":380,"kind_detail":"primary","bus_network":null,"source":"openstreetmap.org","min_zoom":8.0,"bus_shield_text":"281\u044d","landuse_kind":"urban_area","id":150737788},"arcs":[671]},{"type":"LineString","properties":{"bus_network":null,"name:en":"New Bridge","sort_rank":380,"kind_detail":"primary","kind":"major_road","source":"openstreetmap.org","min_zoom":8.0,"bus_shield_text":"97\u0435","name:ru":"\u041d\u043e\u0432\u044b\u0439 \u043c\u043e\u0441\u0442","landuse_kind":"urban_area"},"arcs":[672]},{"type":"MultiLineString","properties":{"kind":"major_road","network":"ua:regional","sort_rank":380,"kind_detail":"primary","source":"openstreetmap.org","min_zoom":8.0,"landuse_kind":"urban_area","shield_text":"46","ref":"\u0420-46"},"arcs":[[673],[674],[675],[676]]},{"type":"LineString","properties":{"kind":"major_road","name:en":"Kharkivska Street","network":"ua:regional","sort_rank":380,"kind_detail":"primary","source":"openstreetmap.org","min_zoom":8.0,"landuse_kind":"residential","shield_text":"45","name:ru":"\u0425\u0430\u0440\u044c\u043a\u043e\u0432\u0441\u043a\u0430\u044f \u0443\u043b\u0438\u0446\u0430","ref":"\u0420-45","id":255188816},"arcs":[677]},{"type":"MultiLineString","properties":{"source":"openstreetmap.org","kind":"major_road","landuse_kind":"urban_area","sort_rank":380,"kind_detail":"primary","ref":"14\u041a-28","min_zoom":8.0},"arcs":[[678],[679]]},{"type":"LineString","properties":{"bus_network":null,"name:en":"Heroiv Stalinhrada Avenue","sort_rank":380,"kind_detail":"primary","kind":"major_road","source":"openstreetmap.org","min_zoom":8.0,"bus_shield_text":"107\u0435","name:ru":"\u0413\u0435\u0440\u043e\u0435\u0432 \u0421\u0442\u0430\u043b\u0438\u043d\u0433\u0440\u0430\u0434\u0430 \u043f\u0440\u043e\u0441\u043f\u0435\u043a\u0442","landuse_kind":"urban_area"},"arcs":[680]},{"type":"MultiLineString","properties":{"bus_network":null,"name:en":"Yuriia Haharina Avenue","sort_rank":380,"kind_detail":"primary","kind":"major_road","source":"openstreetmap.org","min_zoom":8.0,"bus_shield_text":"259\u044d","name:ru":"\u042e\u0440\u0438\u044f \u0413\u0430\u0433\u0430\u0440\u0438\u043d\u0430 \u043f\u0440\u043e\u0441\u043f\u0435\u043a\u0442","landuse_kind":"urban_area"},"arcs":[[681],[682]]},{"type":"LineString","properties":{"old_name:uk":"\u041d\u0430\u0440\u0456\u043c\u0430\u043d\u043e\u0432\u0430 \u0432\u0443\u043b\u0438\u0446\u044f","bus_network":null,"name:en":"Dudynskoi Street","sort_rank":380,"kind_detail":"primary","old_name:ru":"\u041d\u0430\u0440\u0438\u043c\u0430\u043d\u043e\u0432\u0430 \u0443\u043b\u0438\u0446\u0430","kind":"major_road","source":"openstreetmap.org","min_zoom":8.0,"old_name:en":"Narimanova Street","old_name":"\u041d\u0430\u0440\u0456\u043c\u0430\u043d\u043e\u0432\u0430 \u0432\u0443\u043b\u0438\u0446\u044f","name:ru":"\u0414\u0443\u0434\u0438\u043d\u0441\u043a\u043e\u0439 \u0443\u043b\u0438\u0446\u0430","landuse_kind":"urban_area","bus_shield_text":"34"},"arcs":[683]},{"type":"LineString","properties":{"kind":"major_road","name:en":"Okhtyrska Street","network":"ua:regional","sort_rank":380,"kind_detail":"primary","source":"openstreetmap.org","min_zoom":8.0,"landuse_kind":"residential","shield_text":"45","name:ru":"\u0410\u0445\u0442\u044b\u0440\u0441\u043a\u0430\u044f \u0443\u043b\u0438\u0446\u0430","ref":"\u0420-45","id":255109336},"arcs":[684]},{"type":"LineString","properties":{"kind":"major_road","name:en":"Chebysheva Street","sort_rank":380,"kind_detail":"primary","bus_network":null,"source":"openstreetmap.org","min_zoom":8.0,"bus_shield_text":"247\u0435","name:ru":"\u0427\u0435\u0431\u044b\u0448\u0435\u0432\u0430 \u0443\u043b\u0438\u0446\u0430","landuse_kind":"urban_area","id":60114269},"arcs":[685]},{"type":"LineString","properties":{"kind":"major_road","name:en":"Kytayenka Street","sort_rank":380,"kind_detail":"primary","bus_network":null,"source":"openstreetmap.org","min_zoom":8.0,"bus_shield_text":"209","name:ru":"\u041a\u0438\u0442\u0430\u0435\u043d\u043a\u043e \u0443\u043b\u0438\u0446\u0430","landuse_kind":"urban_area","id":156319650},"arcs":[686]},{"type":"MultiLineString","properties":{"bus_network":null,"name:en":"Yuriia Haharina Avenue","network":"ua:international","sort_rank":381,"landuse_kind":"urban_area","kind":"major_road","name:ru":"\u042e\u0440\u0438\u044f \u0413\u0430\u0433\u0430\u0440\u0438\u043d\u0430 \u043f\u0440\u043e\u0441\u043f\u0435\u043a\u0442","source":"openstreetmap.org","min_zoom":8.0,"bus_shield_text":"305e","shield_text":"03","kind_detail":"trunk","ref":"\u041c-03;\u041c-18"},"arcs":[[687],[688],[689]]},{"type":"LineString","properties":{"kind":"major_road","name:lt":"Slav\u0173 prospektas","sort_rank":380,"kind_detail":"primary","bus_network":null,"source":"openstreetmap.org","min_zoom":8.0,"bus_shield_text":"6","id":25718011},"arcs":[690]},{"type":"LineString","properties":{"kind":"major_road","name:en":"Schytrovska Street","sort_rank":380,"kind_detail":"primary","source":"openstreetmap.org","min_zoom":8.0,"landuse_kind":"urban_area","name:ru":"\u0429\u0438\u0442\u0440\u043e\u0432\u0441\u043a\u0430\u044f \u0443\u043b\u0438\u0446\u0430","id":38230958},"arcs":[691]},{"type":"LineString","properties":{"kind":"major_road","name:en":"Poltavsky Shlyakh Street","sort_rank":380,"kind_detail":"primary","bus_network":null,"source":"openstreetmap.org","min_zoom":8.0,"bus_shield_text":"209","name:ru":"\u041f\u043e\u043b\u0442\u0430\u0432\u0441\u043a\u0438\u0439 \u0428\u043b\u044f\u0445 \u0443\u043b\u0438\u0446\u0430","landuse_kind":"urban_area","id":492090682},"arcs":[692]},{"type":"LineString","properties":{"bus_network":null,"name:en":"Poltavsky Shlyakh Street","sort_rank":380,"kind_detail":"primary","kind":"major_road","source":"openstreetmap.org","min_zoom":8.0,"bus_shield_text":"1168","name:ru":"\u041f\u043e\u043b\u0442\u0430\u0432\u0441\u043a\u0438\u0439 \u0428\u043b\u044f\u0445 \u0443\u043b\u0438\u0446\u0430","landuse_kind":"urban_area"},"arcs":[693]},{"type":"MultiLineString","properties":{"kind":"major_road","name:en":"Holdberhivska Street","sort_rank":380,"kind_detail":"primary","source":"openstreetmap.org","min_zoom":8.0,"landuse_kind":"urban_area","name:ru":"\u0413\u043e\u043b\u044c\u0434\u0431\u0435\u0440\u0433\u043e\u0432\u0441\u043a\u0430\u044f \u0443\u043b\u0438\u0446\u0430"},"arcs":[[694],[695]]},{"type":"LineString","properties":{"kind":"major_road","name:en":"Korolenka Lane","sort_rank":380,"kind_detail":"primary","source":"openstreetmap.org","min_zoom":8.0,"landuse_kind":"urban_area","name:ru":"\u041a\u043e\u0440\u043e\u043b\u0435\u043d\u043a\u043e \u043f\u0435\u0440\u0435\u0443\u043b\u043e\u043a","id":24412990},"arcs":[696]},{"type":"MultiLineString","properties":{"bus_network":null,"network":"ua:regional","sort_rank":380,"kind_detail":"primary","kind":"major_road","source":"openstreetmap.org","min_zoom":8.0,"bus_shield_text":"1168","shield_text":"46","landuse_kind":"urban_area","ref":"\u0420-46"},"arcs":[[697],[698]]}]},"earth":{"type":"GeometryCollection","geometries":[{"type":"Polygon","properties":{"sort_rank":10,"source":"naturalearthdata.com","kind":"earth","min_zoom":0.0,"id":4755},"arcs":[[699]]}]},"landuse":{"type":"GeometryCollection","geometries":[{"type":"MultiPolygon","properties":{"source":"openstreetmap.org","kind":"residential","tier":2,"area":43281506,"sort_rank":20,"min_zoom":8.0,"osm_relation":true},"arcs":[[[700]]]},{"type":"Polygon","properties":{"source":"openstreetmap.org","kind":"nature_reserve","area":25957200,"tier":2,"id":258739635,"min_zoom":8.0,"sort_rank":23},"arcs":[[701]]},{"type":"Polygon","properties":{"kind":"residential","name":"\u041e\u0433\u0443\u043b\u044c\u0446\u044b","area":10882300,"sort_rank":20,"source":"openstreetmap.org","min_zoom":8.0,"tier":2,"id":-3555575,"osm_relation":true},"arcs":[[702]]},{"type":"Polygon","properties":{"kind":"residential","name":"\u042f\u0431\u043b\u0443\u0447\u043d\u0435","area":10808000,"sort_rank":20,"source":"openstreetmap.org","min_zoom":8.0,"tier":2,"id":-5711323,"osm_relation":true},"arcs":[[703]]},{"type":"Polygon","properties":{"kind":"residential","name:en":"Prudianka","name":"\u041f\u0440\u0443\u0434\u044f\u043d\u043a\u0430","area":16200000,"sort_rank":20,"source":"openstreetmap.org","min_zoom":8.0,"old_name":"\u041d\u043e\u0432\u043e\u0441\u0435\u0440\u0433\u0435\u0435\u0432\u043a\u0430","tier":2,"id":254397111},"arcs":[[704]]},{"type":"Polygon","properties":{"kind":"residential","name:en":"Borisovka","name":"\u0411\u043e\u0440\u0438\u0441\u043e\u0432\u043a\u0430","area":41941300,"sort_rank":20,"source":"openstreetmap.org","min_zoom":8.0,"tier":2,"id":182405348},"arcs":[[705]]},{"type":"Polygon","properties":{"kind":"residential","name":"\u0420\u044f\u0431\u0438\u043d\u0430","area":17046000,"sort_rank":20,"source":"openstreetmap.org","min_zoom":8.0,"tier":2,"id":-5711322,"osm_relation":true},"arcs":[[706]]},{"type":"Polygon","properties":{"kind":"residential","name:en":"Vesele","name":"\u0412\u0435\u0441\u0435\u043b\u0435","area":21117800,"sort_rank":20,"source":"openstreetmap.org","min_zoom":8.0,"tier":2,"name:ru":"\u0412\u0435\u0441\u0451\u043b\u043e\u0435","id":230239338},"arcs":[[707]]},{"type":"Polygon","properties":{"kind":"residential","name":"\u0406\u0432\u0430\u043d\u043e-\u0428\u0438\u0439\u0447\u0438\u043d\u0435","area":14391400,"sort_rank":20,"source":"openstreetmap.org","min_zoom":8.0,"tier":2,"id":-3546025,"osm_relation":true},"arcs":[[708]]},{"type":"MultiPolygon","properties":{"kind":"national_park","protect_class":"2","area":421810848,"sort_rank":18,"source":"openstreetmap.org","min_zoom":8.0,"tier":1,"osm_relation":true},"arcs":[[[709],[710],[711],[712],[713],[714],[715],[716],[717]],[[718]],[[719],[720]],[[721]]]},{"type":"Polygon","properties":{"old_name:uk":"\u0416\u043e\u0432\u0442\u043d\u0435\u0432\u0435","kind":"residential","name:en":"Zhovtneve","name":"\u0421\u043b\u043e\u0431\u043e\u0436\u0430\u043d\u0441\u044c\u043a\u0435","area":15013000,"sort_rank":20,"old_name:ru":"\u041e\u043a\u0442\u044f\u0431\u0440\u044c\u0441\u043a\u043e\u0435","source":"openstreetmap.org","min_zoom":8.0,"old_name:en":"Zhovtneve","old_name":"\u0416\u043e\u0432\u0442\u043d\u0435\u0432\u0435","tier":2,"name:ru":"\u041e\u043a\u0442\u044f\u0431\u0440\u044c\u0441\u043a\u043e\u0435","id":-3560034,"osm_relation":true},"arcs":[[722]]},{"type":"Polygon","properties":{"kind":"residential","name":"\u0420\u043e\u0433\u0430\u043d\u044c","area":14625300,"sort_rank":20,"source":"openstreetmap.org","min_zoom":8.0,"tier":2,"id":80663984},"arcs":[[723]]},{"type":"Polygon","properties":{"kind":"residential","name":"\u0420\u043e\u0437\u0441\u043e\u0448\u0456","area":13682800,"sort_rank":20,"source":"openstreetmap.org","min_zoom":8.0,"tier":2,"id":-5695109,"osm_relation":true},"arcs":[[724]]},{"type":"MultiPolygon","properties":{"source":"openstreetmap.org","kind":"park","tier":2,"area":124905208,"sort_rank":24,"min_zoom":8.0,"osm_relation":true},"arcs":[[[725]],[[726]]]},{"type":"Polygon","properties":{"kind":"residential","name":"\u0412\u0435\u043b\u0438\u043a\u0430 \u041f\u0438\u0441\u0430\u0440\u0456\u0432\u043a\u0430","area":31188500,"sort_rank":20,"source":"openstreetmap.org","min_zoom":8.0,"tier":2,"id":-3267167,"osm_relation":true},"arcs":[[727]]},{"type":"Polygon","properties":{"kind":"residential","name:en":"Cherkaski Tyshky","name":"\u0427\u0435\u0440\u043a\u0430\u0441\u044c\u043a\u0456 \u0422\u0438\u0448\u043a\u0438","area":26646000,"sort_rank":20,"source":"openstreetmap.org","min_zoom":8.0,"tier":2,"name:ru":"\u0427\u0435\u0440\u043a\u0430\u0441\u0441\u043a\u0438\u0435 \u0422\u0438\u0448\u043a\u0438","id":249603166},"arcs":[[728]]},{"type":"MultiPolygon","properties":{"source":"naturalearthdata.com","kind":"urban_area","name":"","area":4456758240,"sort_rank":11,"min_zoom":4.0},"arcs":[[[729]],[[730]],[[731]],[[732]],[[733]],[[734]],[[735]],[[736]],[[737]],[[738]],[[739]],[[740]],[[741]],[[742]],[[743]]]},{"type":"Polygon","properties":{"kind":"residential","name":"\u042f\u043c\u043d\u0435","area":13362600,"sort_rank":20,"source":"openstreetmap.org","min_zoom":8.0,"tier":2,"name:ru":"\u042f\u043c\u043d\u043e\u0435","id":-3925371,"osm_relation":true},"arcs":[[744]]},{"type":"Polygon","properties":{"kind":"residential","name":"\u041f\u043e\u043f\u0456\u0432\u043a\u0430","area":11617900,"sort_rank":20,"source":"openstreetmap.org","min_zoom":8.0,"tier":2,"id":-2934284,"osm_relation":true},"arcs":[[745]]},{"type":"Polygon","properties":{"kind":"residential","name":"\u041a\u0438\u0440\u0438\u043a\u0456\u0432\u043a\u0430","area":18317900,"sort_rank":20,"source":"openstreetmap.org","min_zoom":8.0,"tier":2,"id":-5714048,"osm_relation":true},"arcs":[[746]]},{"type":"Polygon","properties":{"kind":"residential","name:en":"Valky","name":"\u0412\u0430\u043b\u043a\u0438","area":24089000,"sort_rank":20,"source":"openstreetmap.org","min_zoom":8.0,"tier":2,"name:pl":"Wa\u0142ki","id":-2409013,"osm_relation":true},"arcs":[[747]]},{"type":"Polygon","properties":{"kind":"residential","name":"\u0413\u0440\u0430\u0439\u0432\u043e\u0440\u043e\u043d","area":19788700,"sort_rank":20,"source":"openstreetmap.org","min_zoom":8.0,"tier":2,"id":-7789555,"osm_relation":true},"arcs":[[748]]},{"type":"Polygon","properties":{"kind":"residential","name":"\u0420\u043e\u0433\u0430\u043d\u044c","area":14625300,"sort_rank":20,"source":"openstreetmap.org","min_zoom":8.0,"tier":2,"id":-3559999,"osm_relation":true},"arcs":[[749]]},{"type":"Polygon","properties":{"kind":"residential","name:en":"Tsyrkuny","name":"\u0426\u0438\u0440\u043a\u0443\u043d\u0438","area":17736700,"sort_rank":20,"source":"openstreetmap.org","min_zoom":8.0,"tier":2,"name:ru":"\u0426\u0438\u0440\u043a\u0443\u043d\u044b","id":249603165},"arcs":[[750]]},{"type":"Polygon","properties":{"kind":"residential","name":"\u0422\u0430\u0440\u0430\u0441\u0456\u0432\u043a\u0430","area":14130100,"sort_rank":20,"source":"openstreetmap.org","min_zoom":8.0,"tier":2,"id":-5802784,"osm_relation":true},"arcs":[[751]]},{"type":"MultiPolygon","properties":{"source":"openstreetmap.org","kind":"residential","tier":2,"area":491632013,"sort_rank":20,"min_zoom":8.0},"arcs":[[[752]],[[753]],[[754]],[[755]],[[756]]]},{"type":"Polygon","properties":{"kind":"residential","name":"\u041a\u0443\u043f'\u0454\u0432\u0430\u0445\u0430","area":10435500,"sort_rank":20,"source":"openstreetmap.org","min_zoom":8.0,"tier":2,"id":-3546065,"osm_relation":true},"arcs":[[757]]},{"type":"Polygon","properties":{"kind":"residential","name":"\u0412\u0456\u043b\u044c\u043d\u0435","area":10900900,"sort_rank":20,"source":"openstreetmap.org","min_zoom":8.0,"tier":2,"id":-5725009,"osm_relation":true},"arcs":[[758]]}]}},"type":"Topology","transform":{"translate":[35.15625,49.8379824531],"scale":[0.0003433228,0.0002193537]},"arcs":[[[4096,2038],[-36,-16],[-77,23],[7,32],[-71,23],[-40,57],[-140,0],[-19,90],[-78,-94],[-96,-48],[17,-31],[-48,-25],[-196,19],[9,34],[-39,-2],[-16,111],[-19,1],[30,56],[-147,129],[-116,181],[-26,13],[-20,-21],[-50,136],[-215,77],[-50,-10],[-5,21],[-187,-25],[-196,-67],[-44,29],[-91,7],[-51,-74],[-49,31],[-59,-20],[-10,41],[-114,-81],[41,-23],[-14,-62],[-186,-195],[-326,-12],[-72,70],[30,34],[-52,83],[-28,-1],[4,256],[-47,71],[-17,-61],[-254,171],[-93,185],[-25,4],[8,65],[-32,81],[-109,82],[103,105],[-98,177],[20,61],[82,-1],[104,51],[76,-35],[-5,55],[26,37],[-70,8],[-37,36],[1,74],[39,95],[-16,50]],[[4096,1875],[0,13]],[[120,0],[-120,71]],[[1461,2339],[234,16],[186,195],[14,62],[-41,23],[114,81],[10,-41],[59,20],[49,-31],[51,74],[91,-7],[44,-29],[196,67],[187,25],[5,-21],[50,10],[215,-77],[50,-136],[20,21],[26,-13],[116,-181],[147,-129],[-30,-56],[19,-1],[16,-111],[39,2],[-9,-34],[196,-19],[48,25],[-17,31],[96,48],[78,94],[19,-90],[140,0],[40,-57],[71,-23],[-7,-32],[77,-23],[36,16]],[[4096,1888],[0,-13]],[[907,4096],[16,-50],[-39,-95],[-1,-74],[37,-36],[70,-8],[-26,-37],[5,-55],[-76,35],[-104,-51],[-82,1],[-20,-61],[98,-177],[-103,-105],[109,-82],[32,-81],[-8,-65],[25,-4],[93,-185],[254,-171],[17,61],[49,-75],[-6,-252],[28,1],[52,-83],[-30,-34],[72,-70],[92,-4]],[[1461,2339],[-12,-19],[113,-6],[-11,-49],[-45,-42],[-38,6],[-29,-78],[-76,47],[18,20],[-106,31],[-60,-52],[-167,-12],[56,-70],[-32,-54],[-58,45],[-23,-33],[-111,77],[4,24],[-60,9],[-46,83],[-39,-64],[-90,-2],[9,-119],[-152,110],[-97,-133],[97,-70],[-87,-53],[-99,13],[-17,-141],[-66,10],[-8,-39],[-108,46],[-15,-45],[-106,52]],[[3145,459],[48,-85],[-7,-104]],[[3186,270],[-7,-62]],[[3161,114],[35,-113],[1,-1]],[[3169,647],[14,-69],[-51,-94],[52,-83],[6,-16],[3,-8],[0,-3],[1,-3],[0,-5],[-13,-168]],[[3196,0],[-1,3],[-4,7],[-32,84],[-1,14],[21,62],[7,100]],[[3136,699],[-1,1]],[[3135,700],[-3,4]],[[3132,704],[6,54]],[[3138,758],[4,1]],[[3142,759],[37,-2]],[[3179,757],[2,-1]],[[3181,756],[59,-11]],[[3240,745],[4,0]],[[3244,745],[93,5]],[[3337,750],[5,0]],[[3342,750],[42,30]],[[3384,780],[5,5]],[[3389,785],[27,32]],[[3416,817],[3,4]],[[3419,821],[16,29]],[[3435,850],[1,2]],[[3135,700]],[[3132,704],[3,-4]],[[3138,758]],[[3142,759],[-4,-1]],[[3181,756]],[[3179,757],[2,-1]],[[3244,745]],[[3240,745],[4,0]],[[3342,750]],[[3337,750],[5,0]],[[3383,780],[1,0]],[[3389,785],[-6,-5]],[[3418,821],[1,0]],[[3416,817],[2,4]],[[3437,854],[-2,-4]],[[2813,4096],[49,-28],[74,-138],[123,-28],[1,-81],[67,-34]],[[3127,3787],[7,3]],[[3134,3790],[24,15]],[[3158,3805],[6,3]],[[3164,3808],[27,-1],[92,-101],[105,-40],[11,-68],[80,-60],[107,57],[95,-16],[123,30],[146,-61],[146,-108]],[[3127,3787],[10,4],[27,17]],[[3559,520],[115,-55],[-1,-81],[49,-57],[-88,-245],[67,-43],[92,-19],[3,-2],[4,-2],[4,-4],[5,-7]],[[3775,23],[31,-23]],[[1960,3078],[282,327],[44,98],[-172,175],[2,163],[-54,30],[-22,64],[18,161]],[[2975,653],[12,6]],[[2987,659],[4,2]],[[2991,661],[65,31]],[[3056,692],[5,0]],[[3061,692],[34,13]],[[3095,705],[5,1]],[[3100,706],[31,-2]],[[3131,704],[3,-4]],[[3134,700],[30,-47]],[[3164,653],[4,-3]],[[3168,650],[48,-5]],[[3216,645],[5,-2]],[[3221,643],[53,-13]],[[3274,630],[4,-1]],[[3278,629],[56,-16]],[[3334,613],[5,-2]],[[3339,611],[52,-25]],[[3391,586],[4,-2]],[[3395,584],[59,-19]],[[3454,565],[5,-1]],[[3459,564],[46,-13]],[[3505,551],[4,-3]],[[3509,548],[50,-23]],[[3559,525],[5,-3]],[[3564,522],[51,-26]],[[3615,496],[2,-1]],[[2991,661]],[[2987,659],[4,2]],[[3061,693],[0,-1]],[[3056,692],[5,1]],[[3100,706]],[[3095,705],[5,1]],[[3134,700]],[[3131,704],[3,-4]],[[3168,650]],[[3164,653],[4,-3]],[[3221,643]],[[3216,645],[5,-2]],[[3278,629]],[[3274,630],[4,-1]],[[3334,613],[5,-2]],[[3334,613]],[[3391,586],[4,-2]],[[3391,586]],[[3454,566],[5,-2]],[[3454,565],[0,1]],[[3505,551],[4,-3]],[[3505,551]],[[3559,525],[5,-3]],[[3559,525]],[[3615,496]],[[1565,388],[78,30],[154,-25],[93,11],[154,141],[27,1]],[[2071,546],[3,0]],[[3048,701],[15,-80],[-18,-61],[-79,-30],[-155,23],[-93,-46],[-172,29],[-73,-51],[-67,14],[-168,-28],[-167,75]],[[3222,639],[1,2]],[[3223,641],[6,44]],[[3229,685],[0,5]],[[3229,690],[-71,47]],[[3158,737],[-4,2]],[[3154,739],[-18,20]],[[3136,759],[-3,3]],[[3133,762],[-14,34]],[[3119,796],[-1,4]],[[3118,800],[-10,56]],[[3108,856],[-1,4]],[[3107,860],[-8,39]],[[3099,899],[-1,4]],[[3098,903],[-38,61]],[[3060,964],[-1,7]],[[3059,971],[-13,37]],[[3046,1008],[-2,3]],[[3044,1011],[-7,10]],[[3044,1011],[2,-3]],[[3044,1011]],[[3058,970],[2,-6]],[[3059,971],[-1,-1]],[[3099,899]],[[3098,903],[1,-4]],[[3108,856]],[[3107,860],[1,-4]],[[3119,796]],[[3118,800],[1,-4]],[[3136,759]],[[3133,762],[3,-3]],[[3158,737]],[[3154,739],[4,-2]],[[3222,637],[1,4]],[[3229,690]],[[3229,685],[0,5]],[[3222,639],[1,2]],[[3223,641],[6,44]],[[3229,685],[0,5]],[[3229,690],[-71,47]],[[3158,737],[-4,2]],[[3154,739],[-18,20]],[[3136,759],[-3,3]],[[3133,762],[-14,34]],[[3119,796],[-1,4]],[[3118,800],[-10,56]],[[3108,856],[-1,4]],[[3107,860],[-8,39]],[[3099,899],[-1,4]],[[3098,903],[-38,61]],[[3060,964],[-1,7]],[[3059,971],[-13,37]],[[3046,1008],[-2,3]],[[3044,1011],[-7,10]],[[3044,1011],[2,-3]],[[3044,1011]],[[3058,970],[2,-6]],[[3059,971],[-1,-1]],[[3099,899]],[[3098,903],[1,-4]],[[3108,856]],[[3107,860],[1,-4]],[[3119,796]],[[3118,800],[1,-4]],[[3136,759]],[[3133,762],[3,-3]],[[3158,737]],[[3154,739],[4,-2]],[[3222,637],[1,4]],[[3229,690]],[[3229,685],[0,5]],[[1714,407],[-3,1]],[[1711,408],[-71,10],[-98,-33],[-241,20],[-180,-51],[-297,87],[-179,-8],[-86,-80],[-84,-21],[-53,-54],[-196,-60],[-5,-113],[-131,-105]],[[2067,548],[-175,-143],[-181,3]],[[2067,548],[7,-2]],[[3048,701],[15,-80],[-18,-61],[-74,-29],[-158,22],[-91,-45],[-174,29],[-77,-53],[-65,15],[-168,-28],[-33,17]],[[2957,941],[38,-86],[11,-51],[29,-54],[12,-31],[7,-40]],[[3600,3043],[-14,-64],[-78,-117],[-11,-102],[-148,-266],[-255,-117],[-121,-197],[4,-215],[-143,-516],[-5,-101],[9,-128],[91,-172],[22,-88],[20,-62],[13,-23],[12,-47],[8,-22],[22,-40],[19,-52]],[[4096,3416],[-246,-198],[-193,-80],[-54,-81],[-28,-92]],[[2975,653],[12,6]],[[2987,659],[4,2]],[[2991,661],[65,31]],[[3056,692],[5,0]],[[3061,692],[34,13]],[[3095,705],[5,1]],[[3100,706],[31,-2]],[[3131,704],[3,-4]],[[3134,700],[30,-47]],[[3164,653],[4,-3]],[[3168,650],[48,-5]],[[3216,645],[5,-2]],[[3221,643],[53,-13]],[[3274,630],[4,-1]],[[3278,629],[56,-16]],[[3334,613],[5,-2]],[[3339,611],[52,-25]],[[3391,586],[4,-2]],[[3395,584],[59,-19]],[[3454,565],[5,-1]],[[3459,564],[46,-13]],[[3505,551],[4,-3]],[[3509,548],[50,-23]],[[3559,525],[5,-3]],[[3564,522],[51,-26]],[[3615,496],[2,-1]],[[2991,661]],[[2987,659],[4,2]],[[3061,693],[0,-1]],[[3056,692],[5,1]],[[3100,706]],[[3095,705],[5,1]],[[3134,700]],[[3131,704],[3,-4]],[[3168,650]],[[3164,653],[4,-3]],[[3221,643]],[[3216,645],[5,-2]],[[3278,629]],[[3274,630],[4,-1]],[[3334,613],[5,-2]],[[3334,613]],[[3391,586],[4,-2]],[[3391,586]],[[3454,566],[5,-2]],[[3454,565],[0,1]],[[3505,551],[4,-3]],[[3505,551]],[[3559,525],[5,-3]],[[3559,525]],[[3615,496]],[[3136,699],[-1,1]],[[3135,700],[-3,4]],[[3132,704],[6,54]],[[3138,758],[4,1]],[[3142,759],[37,-2]],[[3179,757],[2,-1]],[[3181,756],[59,-11]],[[3240,745],[4,0]],[[3244,745],[93,5]],[[3337,750],[5,0]],[[3342,750],[42,30]],[[3384,780],[5,5]],[[3389,785],[27,32]],[[3416,817],[3,4]],[[3419,821],[16,29]],[[3435,850],[1,2]],[[3135,700]],[[3132,704],[3,-4]],[[3138,758]],[[3142,759],[-4,-1]],[[3181,756]],[[3179,757],[2,-1]],[[3244,745]],[[3240,745],[4,0]],[[3342,750]],[[3337,750],[5,0]],[[3383,780],[1,0]],[[3389,785],[-6,-5]],[[3418,821],[1,0]],[[3416,817],[2,4]],[[3437,854],[-2,-4]],[[3123,777],[-10,-9]],[[3129,662],[1,-1]],[[1069,1489],[-46,50]],[[3289,689],[-28,-19]],[[3229,692],[30,-22]],[[3259,670],[-30,23]],[[3093,754],[9,-15]],[[3239,394]],[[3016,605],[-3,4]],[[279,1728],[-279,103]],[[451,1608],[-142,106]],[[936,1548],[-228,24],[-136,-12]],[[1159,1346],[151,-94],[71,-11],[159,-82],[255,-8],[268,-170],[34,1]],[[2241,925],[-18,3]],[[3178,644],[-1,1]],[[3216,496],[-4,116],[-26,26]],[[3216,475],[23,-81]],[[3239,394],[-23,99]],[[3177,479],[0,11]],[[3130,661],[21,2]],[[3480,556],[-13,-47]],[[3468,508],[13,48]],[[3451,880],[-11,-22]],[[3093,753],[21,8]],[[1069,1480],[0,9]],[[3229,693],[-16,-20]],[[3213,672],[16,20]],[[4087,3802],[-5,74]],[[309,1714],[-30,14]],[[2575,728],[-55,2],[-39,36]],[[3146,765],[64,94]],[[3153,661],[-1,2]],[[3177,645],[-2,1]],[[4003,3337],[-48,-23]],[[4004,3337],[-1,0]],[[4008,3339],[-4,-2]],[[4042,3365],[-1,2]],[[4050,3390],[44,28]],[[2074,587],[-9,-3]],[[2065,584],[9,3]],[[2074,587],[208,73],[121,-35]],[[2507,584],[180,-51],[5,1],[20,10],[-205,40]],[[2822,569],[15,3]],[[3719,439],[18,-9]],[[3720,435]],[[3737,430],[91,-64]],[[3829,368],[-92,62]],[[2665,666],[-20,12]],[[3375,733],[4,-2]],[[3449,723],[-34,4]],[[2986,986],[22,-27]],[[3009,959],[-23,28]],[[3136,686],[2,-6]],[[2836,570],[5,296],[73,83]],[[3238,1202],[150,-77],[255,-334],[82,-340]],[[3725,450],[-5,-15]],[[3037,447],[140,32]],[[3122,683],[6,-2]],[[3467,507],[-3,-3]],[[3468,508],[-1,-1]],[[3467,509],[0,-2]],[[3114,761]],[[3056,730],[7,5]],[[3270,323],[19,-58]],[[3157,686],[72,6]],[[3229,693],[-9,4],[-20,-2],[-38,-6],[-4,-2]],[[3259,670],[21,-20],[26,-20]],[[3306,633],[-47,37]],[[3502,547],[-12,8],[-141,52]],[[3357,601],[131,-47]],[[3488,554],[0,1]],[[3488,554],[14,-7]],[[3502,547],[96,-48]],[[3625,486],[35,-18]],[[3660,468],[34,-17]],[[3690,453],[-6,6]],[[3694,451],[25,-12]],[[3233,1291],[-28,131],[-3,252],[93,188],[-9,202],[-39,130],[19,53]],[[3266,2247],[16,23]],[[3282,2271],[-16,-24]],[[2976,979],[4,2]],[[3547,720],[-6,-6]],[[566,3435],[-25,31]],[[3081,747],[12,6]],[[3123,775],[0,2]],[[3177,490],[37,5]],[[3167,706],[97,56],[75,111]],[[1071,1475],[-14,-4]],[[3013,609],[-66,-76]],[[1343,0],[88,39]],[[3114,761],[24,8]],[[3123,777],[23,-12]],[[3451,880],[14,26]],[[3335,483],[-96,-89]],[[3239,394],[96,89]],[[4096,3438],[-3,2]],[[3440,858],[-5,-9]],[[3100,896],[6,-30]],[[3106,866],[17,-91]],[[3123,777],[-17,89]],[[3008,959],[26,-49]],[[3034,910],[-25,49]],[[3034,910],[59,-156]],[[3102,739],[19,-44]],[[3169,344],[68,47]],[[3237,391],[2,2]],[[3239,394],[-2,-3]],[[4015,3342],[9,4]],[[3210,772],[34,-24]],[[3013,609],[-29,28]],[[2835,528],[1,42]],[[594,3214],[38,98]],[[1060,1465],[3,-7]],[[1063,1458],[-2,7]],[[1063,1458],[34,-46]],[[2984,497],[8,11]],[[1097,1412],[62,-66]],[[3289,689],[64,59]],[[3138,680],[19,6]],[[3191,795],[10,-5]],[[2997,504],[-11,7]],[[850,2659],[82,-32]],[[3121,695],[0,1]],[[3725,451],[0,-1]],[[2904,249],[-1,5]],[[3339,873],[76,-13]],[[3435,849],[-3,2]],[[1070,1474],[1,0]],[[2849,573],[26,7]],[[3005,668],[-30,-15]],[[3123,686],[-5,0]],[[3118,686],[3,0]],[[3150,664],[1,-1]],[[3151,662],[1,1]],[[3158,687],[-2,-1]],[[3229,692],[1,1]],[[3235,1189],[2,7]],[[3237,1196],[2,3]],[[3238,1199],[-1,-3]],[[3358,603],[-1,0]],[[3908,3450],[-12,-17]],[[3898,3432],[12,17]],[[3908,3450],[3,1]],[[3910,3449],[46,-9]],[[3955,3442],[-44,9]],[[3957,3442],[-2,0]],[[4002,3445],[-45,-3]],[[3958,3441],[43,2]],[[4016,3533],[-14,-87]],[[4004,3438],[8,-51],[11,-12]],[[4023,3375],[-18,63]],[[4005,3446],[12,87]],[[4010,3445],[26,6]],[[4023,3375],[13,-8]],[[4082,3876],[-30,106]],[[4064,3452],[1,-2]],[[4067,3450],[0,2]],[[4087,3800],[0,2]],[[4006,3445],[-4,0],[0,-3],[3,0],[1,3]],[[1444,45],[178,82],[120,181]],[[1742,308],[43,57],[11,26],[0,5],[4,47]],[[1800,443],[3,39],[1,0]],[[1804,482],[130,57],[102,34],[29,11]],[[2065,584],[-132,-45],[-129,-56],[0,-1]],[[1804,482],[-4,-39]],[[1800,443],[-5,-47],[0,-5],[-53,-83]],[[2403,625],[81,-35]],[[2484,590],[23,-6]],[[2507,584],[-23,6]],[[3828,366],[61,-43]],[[3890,324],[-61,44]],[[3931,293],[165,-77]],[[4096,217],[-165,76]],[[3167,706],[-10,-20]],[[3221,493],[-6,2]],[[3431,489],[-96,-6]],[[3332,615],[-26,18]],[[3306,630],[25,-16],[26,-13]],[[2903,254],[-66,137],[-2,137]],[[2937,511],[-102,17]],[[2984,497],[-41,13]],[[980,1703],[-1,-18]],[[983,1614],[62,-79]],[[2620,695],[-45,33]],[[2645,678],[-22,16]],[[3152,663],[-2,1]],[[3022,674],[13,47]],[[3114,761],[-1,0]],[[3167,676],[4,-1]],[[3121,695],[0,-10]],[[3123,684],[-2,11]],[[3355,598],[22,131]],[[3244,748],[4,-4]],[[3210,859],[-75,53]],[[2974,653],[0,-1]],[[2929,620],[-74,-2]],[[2972,651],[34,17]],[[2977,654],[30,15]],[[4036,3451],[26,1]],[[4069,3451],[-7,1]],[[4093,3440],[-24,11]],[[3635,325],[18,58]],[[3449,685],[-129,5]],[[3646,785],[-99,-65]],[[3153,664],[-1,0]],[[3153,663],[0,1]],[[3153,664],[12,25]],[[3376,729],[-41,-246]],[[3955,3314],[-110,-112]],[[4094,3418],[2,1]],[[3720,435],[-3,-6]],[[2223,928],[-48,45],[-65,11]],[[3821,3651],[0,2]],[[4096,3485],[-4,1]],[[3265,704],[24,-15]],[[3435,849],[-82,-101]],[[3241,1207],[-3,-8]],[[4041,3367],[1,12]],[[4042,3379],[0,-14]],[[4042,3379],[8,11]],[[624,3351],[-57,84]],[[451,1608],[27,-132],[94,84]],[[3896,3433],[-59,-86],[-44,-18]],[[3795,3329],[42,17],[61,86]],[[3987,4037],[14,-4]],[[4052,3982],[-52,71]],[[4091,3250],[-22,0]],[[4090,3788],[-3,12]],[[4090,3788],[2,-7]],[[4096,3252],[-5,-2]],[[4091,3250],[5,0]],[[4096,3760],[-4,21]],[[4096,3421],[-2,-2]],[[4096,3752],[0,-3]],[[3892,3103],[-1,0],[0,-2],[1,0],[0,2]],[[3968,3138],[2,1]],[[3999,3173],[2,2],[-1,1],[-2,-1],[1,-2]],[[3320,690],[-31,-1]],[[3239,1199],[-6,92]],[[3596,2731],[47,207],[90,91],[33,86],[79,87]],[[3040,616],[1,17]],[[3314,918],[-51,22]],[[3106,932],[-6,-36]],[[3128,681],[8,5]],[[3136,686],[-8,-3]],[[3289,265],[12,-35],[51,-20]],[[3630,297],[5,28]],[[3717,429],[-64,-46]],[[3115,768],[-1,-7]],[[4040,3362],[-32,-23]],[[4041,3367],[-1,0]],[[2969,667],[5,-14]],[[2623,694],[-3,1]],[[3210,859],[49,80]],[[3171,675],[6,-30]],[[3216,475],[0,16]],[[3259,670],[2,0]],[[3261,670],[-2,0]],[[3113,761],[-20,-7]],[[2947,533],[-1,-5]],[[3040,623],[-27,-14]],[[3249,375],[19,-2]],[[3268,373],[6,3],[0,1],[-6,-4]],[[2980,981],[123,151],[135,70]],[[3138,769],[1,0]],[[3146,765],[-12,-58]],[[3415,727],[-36,4]],[[3173,805],[18,-10]],[[3213,673],[-31,-41]],[[3183,632],[30,40]],[[2837,572],[11,1]],[[2848,573],[-10,0]],[[2848,573],[1,0]],[[3150,664],[0,-1]],[[3093,754],[-12,-6]],[[3511,697],[30,17],[-30,-16]],[[2432,612],[11,-23],[-34,-93],[-20,-159],[-50,-144],[-1,-13],[11,-180]],[[2350,0],[-10,193],[50,144],[20,159],[35,93],[29,5]],[[3736,3034],[112,-6],[43,71]],[[3895,3103],[73,35]],[[3998,3171],[-28,-32]],[[4069,3250],[-47,-19],[-22,-54]],[[3598,499],[27,-13]],[[3129,662],[1,-3]],[[3130,659],[0,2]],[[3130,659],[0,-5]],[[3735,3033],[-8,-9]],[[3083,665],[-42,-32]],[[2074,963],[-11,18]],[[3335,483],[20,115]],[[728,2674],[-40,72]],[[989,2174],[5,-29]],[[3259,939],[-43,186],[19,64]],[[3016,605],[24,11]],[[3157,687],[-21,-1]],[[1060,1465],[11,4]],[[4092,3486]],[[4016,3534],[2,-1]],[[3210,772],[-9,18]],[[3511,698],[-62,25]],[[2680,657],[-15,9]],[[3263,940],[-4,-1]],[[3297,2291],[299,440]],[[3806,3305],[-54,148],[50,69],[19,129]],[[3821,3653],[37,229],[-20,96],[79,58],[68,1]],[[3845,3202],[1,3]],[[3985,4037],[15,18]],[[3996,4096],[4,-41]],[[3486,945],[22,42]],[[3248,744],[2,-10]],[[3215,495],[-1,0]],[[3136,686],[-2,21],[2,-21]],[[3178,644],[33,-33],[4,-116]],[[825,2636],[1,1]],[[3353,748],[22,-15]],[[3376,732],[135,-35]],[[2712,544],[110,25]],[[3846,3205],[-40,100]],[[3135,912],[-29,20]],[[3352,210],[62,-21],[161,33],[55,75]],[[959,2608],[2,-6]],[[2908,253],[-4,-4]],[[3077,337],[-118,-27],[-51,-57]],[[3169,344]],[[3105,641],[3,-15]],[[3108,626],[-3,15]],[[3128,636],[-1,-13]],[[3127,623],[1,13]],[[3349,607],[-17,8]],[[3509,697],[-7,-1]],[[3502,695],[9,2]],[[4093,3750],[-5,-3]],[[4088,3747],[5,3]],[[3115,768]],[[2914,949],[62,30]],[[2904,249],[-123,-95],[-110,-154]],[[2969,667],[52,32]],[[3076,681],[11,-20],[18,-20]],[[3105,641],[-29,40]],[[3121,685],[1,-2]],[[3308,209],[23,-70]],[[3249,375],[21,-52]],[[4092,3486]],[[3443,683],[6,1]],[[3511,698],[-2,-1]],[[2875,580],[37,27]],[[3005,668],[113,18]],[[3118,686],[-111,-17]],[[3169,344],[-92,-7]],[[3128,683],[-5,1]],[[3502,696],[-53,-11]],[[3449,684],[53,11]],[[3239,394],[0,-1]],[[3150,665],[-9,16]],[[3150,665],[0,-1]],[[3151,665],[-1,0]],[[3301,230],[7,-21]],[[3331,139],[3,-8]],[[3329,891],[11,-16]],[[3465,906],[21,39]],[[1431,39],[13,6]],[[3889,323],[42,-30]],[[3931,293],[-41,31]],[[3063,736],[-8,-5]],[[3352,80],[63,-42],[10,-38]],[[3239,393],[0,1]],[[3129,662],[-38,-3]],[[826,2637],[24,22]],[[3261,670],[6,5]],[[736,2662],[43,-12]],[[2943,510],[-6,1]],[[3063,735],[18,12]],[[4018,3533],[74,-47]],[[3049,727],[-14,-6]],[[3049,727],[7,3]],[[3054,731],[-5,-4]],[[3151,662],[24,-16]],[[2838,573],[-12,-3]],[[2903,254],[5,-1]],[[3250,734],[15,-30]],[[3282,2270],[11,9],[4,12],[-15,-20]],[[3110,624],[73,8]],[[3182,632],[-72,-8]],[[3151,663],[0,-1]],[[3130,655],[0,-4]],[[3130,651],[-2,-15]],[[3128,636],[2,15]],[[3130,651],[0,3]],[[541,3466],[-15,107],[-122,181],[-13,108],[-85,122],[-6,112]],[[567,3435],[-1,0]],[[688,2746],[-152,203],[-22,92],[80,173]],[[632,3312],[-8,39]],[[736,2662],[-8,12]],[[779,2650],[46,-14]],[[961,2602],[51,-124],[-23,-304]],[[979,1685],[4,-71]],[[994,2145],[26,-90],[-66,-267],[26,-85]],[[3432,851],[-17,9]],[[3464,504],[-33,-15]],[[3340,875],[-1,-2]],[[3055,731],[-1,0]],[[2110,984],[-36,-21]],[[3037,447],[-40,57]],[[3334,131],[18,-51]],[[3113,768],[2,0]],[[3510,699],[-1,-2]],[[3081,748],[-18,-12]],[[1023,1539],[-87,9]],[[1057,1471],[3,-6]],[[1071,1474],[-1,0]],[[2481,766],[-122,111],[-118,48]],[[952,2631],[7,-23]],[[4088,3747],[-68,-41],[24,-107],[-27,-65]],[[4018,3534],[25,61],[1,4],[-24,107],[68,41]],[[3335,483],[-114,10]],[[3215,495],[1,-20]],[[3216,493],[0,3]],[[2984,637],[-10,15]],[[932,2627],[20,4]],[[3314,918],[15,-27]],[[2937,511],[9,17]],[[3239,393],[2,-3]],[[3241,390],[-2,4]],[[3241,390],[8,-15]],[[4092,3486],[4,-3]],[[2986,511],[-8,-12]],[[2977,654],[-3,-1]],[[2912,607],[62,46]],[[3108,626],[2,-2]],[[3110,624],[-2,2]],[[3141,681],[0,5]],[[2804,625],[-124,32]],[[2804,625],[51,-7]],[[0,4096],[4096,0],[0,-4096],[-4096,0],[0,4096]],[[1020,1710],[47,16],[-25,44],[17,9],[26,-45],[0,38],[48,2],[-18,43],[48,-24],[29,53],[29,-11],[-47,-49],[23,-25],[-54,-25],[22,-23],[-44,-27],[-35,18],[-57,-15],[-9,21]],[[2262,3571],[38,64],[100,-4],[-7,-57],[63,-53],[-92,-66],[-29,78],[-73,38]],[[1848,349],[22,23],[3,-49],[15,78],[10,7],[2,-69],[127,-18],[-1,-27],[-115,-35],[14,52],[-44,10],[9,-35],[-20,-10],[-22,73]],[[195,2160],[14,19],[16,-23],[14,47],[18,-65],[56,-62],[-58,-10],[-60,51],[0,43]],[[2890,1823],[42,9],[-2,85],[35,-34],[135,19],[-81,-42],[15,-41],[-25,30],[-36,-60],[-69,-4],[-14,38]],[[2374,3459],[67,51],[11,24],[-35,32],[-2,40],[41,-48],[10,97],[23,-8],[-5,-101],[55,12],[4,-43],[52,23],[51,-20],[-45,-32],[18,-27],[-14,-62],[-202,0],[-14,16],[62,88],[-77,-42]],[[84,2375],[40,-6],[22,29],[126,-75],[60,-8],[-140,-58],[-21,20],[29,29],[-69,35],[-20,-12],[-27,46]],[[3939,1458],[47,134],[24,-11],[32,30],[-31,-47],[85,-45],[-28,-66],[-22,-19],[-58,39],[-27,-50],[-22,35]],[[1257,2228],[15,16],[35,-41],[26,-60],[-21,-104],[102,-99],[-10,-23],[-50,26],[-17,-18],[8,37],[-14,18],[-21,-14],[20,18],[-27,45],[-34,-8],[31,24],[-19,39],[24,42],[-44,7],[34,34],[-38,61]],[[39,2399],[38,22],[2,-4],[20,-4],[14,3],[10,-5],[-11,9],[-3,-4],[-10,-1],[-15,3],[-5,4],[-1,2],[-11,-2],[12,4],[20,-11],[13,7],[12,0],[-13,11],[-57,1],[52,48],[85,0],[55,-43],[26,82],[25,-9],[3,23],[117,-26],[26,45],[89,33],[3,33],[30,-13],[68,64],[94,3],[3,-10],[-13,-16],[-33,21],[-4,-73],[-52,-48],[-50,36],[21,-72],[35,18],[31,-19],[-111,-31],[-15,58],[-32,23],[-91,-94],[3,-37],[34,-5],[13,34],[28,-24],[21,33],[26,-38],[-23,12],[-22,-26],[-25,29],[-11,-27],[-59,-15],[-28,32],[-19,-8],[-4,-42],[-33,-31],[20,-21],[-22,-14],[-49,4],[-53,36],[-15,-11],[-52,50],[-107,1]],[[268,2435],[44,-77],[36,28],[-10,32],[56,64],[-41,20],[31,-6],[29,6],[6,-13],[8,10],[-15,4],[-58,1],[-58,-22],[-28,-47]],[[628,2640],[18,-6],[23,-20],[-12,32],[-29,-6]],[[259,2333],[52,-13],[15,19],[-21,21],[-46,-27]],[[188,2397],[33,-24],[12,8],[-18,43],[-27,-27]],[[465,2540],[2,-5],[5,2],[31,33],[-38,-30]],[[528,2567],[16,-13],[15,5],[-25,10],[-6,-2]],[[397,2490],[7,-8],[6,11],[-11,4],[-2,-7]],[[509,2572],[1,-5],[10,5],[-6,3],[-5,-3]],[[716,2644],[14,19],[48,-7],[13,-74],[-13,27],[-7,8],[-6,-5],[34,-75],[-65,11],[9,46],[-27,50]],[[728,2673],[9,21],[21,3],[22,26],[35,11],[-32,-17],[21,-13],[50,33],[11,-49],[46,44],[34,5],[-52,-61],[-78,3],[2,-39],[-36,46],[-25,-15],[21,-13],[-49,15]],[[737,2682],[18,-4],[3,9],[-9,-1],[-12,-4]],[[933,2776],[171,76],[6,-18],[45,-7],[33,-32],[16,61],[50,-87],[-26,27],[4,-40],[-39,-5],[13,49],[-20,-6],[-27,15],[5,-17],[-25,2],[-51,44],[-72,-43],[43,1],[-36,-38],[-20,27],[13,-30],[-32,-17],[-39,-1],[-12,39]],[[3625,1556],[2,74],[92,8],[3,-114],[-61,-9],[-36,41]],[[3805,321],[41,32],[32,-44],[41,50],[42,-41],[-99,-82],[-41,14],[-16,71]],[[717,2357],[30,8],[59,-70],[17,11],[81,-67],[17,15],[9,-34],[109,-84],[-62,12],[-106,100],[-74,33],[-54,-19],[-1,35],[26,2],[-51,58]],[[77,998],[85,116],[95,62],[68,11],[12,-97],[39,-57],[-71,-127],[-66,-26],[-9,17],[-54,-40],[-99,141]],[[0,1160],[0,57],[42,92],[-13,66],[25,19],[32,-36],[35,12],[19,-146],[36,-23],[-1,40],[20,-57],[48,-4],[-68,-30],[-65,1],[-2,31],[79,-17],[-79,19],[-9,56],[-23,-25],[21,-61],[-36,58],[9,-55],[-70,3]],[[808,2667],[85,9],[55,70],[37,-8],[34,27],[-15,-80],[61,-3],[23,26],[0,-34],[-64,-12],[-1,-32],[-25,6],[-84,-59],[-68,28],[-38,62]],[[3512,1286],[63,33],[7,32],[138,-50],[-37,-85],[-46,-4],[-58,26],[-42,-10],[-25,58]],[[4088,0],[-92,0],[-41,82],[65,102],[63,-92],[5,-92]],[[3045,2548],[4,-35],[-65,-50],[34,-103],[96,-49],[-58,-93],[-68,42],[-54,118],[-15,135],[65,1],[0,101],[61,-67]],[[3582,2978],[17,-9],[-64,-101],[-20,-109],[-21,-36],[-57,-7],[-64,51],[-4,56],[68,45],[0,51],[52,86],[-20,167],[130,51],[22,-64],[-54,-139],[15,-42]],[[1528,2868],[-63,28],[-81,127],[-18,98],[93,61],[37,-10],[0,-152],[59,-62],[5,-39],[-32,-51]],[[2432,1964],[-76,15],[-61,66],[-23,114],[160,-3],[55,-41],[12,-108],[-67,-43]],[[4084,3982],[12,-717],[-93,-8],[-48,16],[0,102],[-33,0],[0,50],[-56,17],[-49,186],[8,51],[65,0],[65,304],[129,-1]],[[3211,3982],[-6,-105],[-115,-48],[-41,-49],[-23,14],[-10,138],[-32,0],[19,70],[208,-20]],[[2564,3425],[-146,56],[-49,96],[38,92],[92,10],[11,-86],[42,-33],[12,-135]],[[0,401],[0,41],[7,-5],[0,-31],[-7,-5]],[[2175,690],[46,-32],[105,21],[76,-39],[4,-42],[-36,-60],[-33,-152],[-130,0],[-70,-57],[-46,42],[-45,370],[93,-4],[36,-47]],[[2785,0],[-359,0],[-57,82],[39,70],[91,-70],[38,41],[26,162],[65,0],[0,50],[97,0],[-1,49],[-31,103],[-58,2],[-78,-55],[-58,2],[3,27],[-36,24],[65,152],[-34,95],[-67,73],[-190,86],[3,83],[58,87],[4,83],[25,-11],[72,-192],[129,51],[33,-51],[97,-50],[58,-2],[45,40],[58,164],[-20,69],[-142,83],[46,195],[19,59],[81,-27],[81,26],[-4,-108],[69,-195],[47,-15],[102,88],[45,-23],[0,-50],[62,48],[52,94],[48,9],[32,-101],[33,0],[0,-50],[96,0],[195,-152],[-55,-115],[0,-76],[87,-113],[0,-101],[102,-95],[60,-108],[-34,-80],[-103,-67],[-96,7],[-91,89],[-56,11],[-113,-41],[-24,-71],[18,-124],[14,-28],[64,0],[0,-51],[70,-82],[-238,0],[6,82],[-62,32],[-132,-83],[-68,129],[-94,23],[-66,-27],[-68,-156]],[[1820,943],[-33,-152],[-33,-51],[-32,51],[-65,-152],[-145,152],[-16,102],[73,-43],[251,93]],[[298,892],[57,-191],[-12,-82],[-77,-31],[-25,61],[57,142],[-40,41],[-122,-41],[17,100],[63,36],[147,16],[0,102],[162,0],[-12,-109],[-54,-41],[-161,-3]],[[243,1245],[-82,3],[-69,53],[-20,98],[53,31],[173,-132],[-55,-53]],[[1133,1515],[7,-65],[-49,-43],[-103,44],[-75,-1],[7,78],[64,77],[-6,98],[43,-8],[62,-132],[50,-48]],[[620,2544],[55,44],[16,78],[31,-13],[15,-94],[-28,-8],[-24,-61],[-65,54]],[[757,2990],[119,91],[30,-66],[-28,-71],[-7,43],[-31,-12],[-28,32],[-55,-17]],[[0,2314],[24,7],[30,-39],[-10,-24],[-44,3],[0,53]],[[1296,0],[10,64],[35,18],[110,-39],[-28,-43],[-7,0],[-42,24],[7,-24],[-85,0]],[[1449,2954],[23,42],[17,-34],[48,-12],[32,22],[73,-44],[-64,-20],[5,-20],[-20,3],[-46,-63],[-68,126]],[[3805,321],[41,32],[32,-44],[41,50],[42,-41],[-99,-82],[-41,14],[-16,71]],[[3495,1120],[59,5],[25,70],[62,-43],[-61,-111],[-29,24],[-24,-32],[-32,87]],[[260,2861],[24,-15],[33,57],[55,17],[12,62],[27,-33],[41,4],[-50,-90],[-58,15],[-37,-21],[0,-45],[-44,-4],[18,28],[-21,25]],[[2449,733],[45,-7],[-21,41],[56,-9],[10,-25],[67,2],[-2,19],[17,14],[-1,-76],[30,17],[25,-41],[-71,-17],[-21,-48],[-20,18],[21,56],[-36,8],[49,-11],[20,16],[-18,21],[-113,10],[10,-34],[-47,46]],[[3572,1667],[70,107],[44,-25],[60,-117],[-25,-30],[-18,57],[-63,-32],[-68,40]],[[3337,2572],[113,116],[13,30],[-41,-3],[42,7],[10,27],[-35,35],[8,20],[50,-9],[13,56],[41,-24],[-2,-115],[-47,6],[-14,-62],[-38,8],[-59,-103],[28,-35],[-59,4],[45,89],[-68,-47]],[[3285,3059],[2,124],[67,-2],[30,28],[-30,-68],[55,-19],[-3,-21],[-58,7],[-14,-58],[-49,9]],[[1372,0],[-78,0],[22,23],[-9,41],[42,15],[3,-35],[16,38],[-13,-53],[18,52],[35,-31],[-11,-38],[-30,8],[5,-20]],[[231,1629],[31,21],[48,221],[-2,-114],[43,-2],[-25,-11],[31,-17],[-40,14],[-9,-32],[35,-50],[-33,27],[-27,-17],[3,-35],[-55,-5]],[[553,2604],[136,143],[62,-52],[-39,-36],[-80,21],[-79,-76]]]}