{"objects":{"water":{"type":"GeometryCollection","geometries":[]},"buildings":{"type":"GeometryCollection","geometries":[]},"places":{"type":"GeometryCollection","geometries":[{"type":"Point","properties":{"name:pt":"Oblast de Kharkiv","name:az":"Kharkiv vilay\u0259ti","name:id":"Oblast Kharkiv","name:ka":"\u10ee\u10d0\u10e0\u10d9\u10dd\u10d5\u10d8\u10e1 \u10dd\u10da\u10e5\u10d8","name:mr":"\u0916\u093e\u0930\u094d\u0915\u0940\u0935\u094d\u0939 \u0913\u092c\u094d\u0932\u093e\u0938\u094d\u0924","name:ko":"\ud558\ub974\ud0a4\uc6b0 \uc8fc","name:cv":"\u0425\u0430\u0440\u043a\u043e\u0432 \u043e\u0431\u043b\u0430\u04ab\u04d7","name:ar":"\u062e\u0627\u0631\u0643\u064a\u0641 \u0623\u0648\u0628\u0644\u0627\u0633\u062a","name:cs":"Charkov oblast","min_zoom":4.0,"name:ro":"Regiunea Kharkiv","name:it":"Oblast' di Kharkiv","name:zh-min-nan":"Kharkiv s\u00e9ng","name:vi":"Kharkiv (t\u1ec9nh)","name:pl":"Obw\u00f3d Charkowa","id":3679338874,"name:ca":"Prov\u00edncia de Kharkiv","name:fa":"\u0627\u0633\u062a\u0627\u0646 \u062e\u0627\u0631\u06a9\u0641","name:bg":"\u0425\u0430\u0440\u043a\u043e\u0432 \u043e\u0431\u043b\u0430\u0441\u0442","name:lt":"Kharkiv sritis","source":"openstreetmap.org","kind_detail":"state","name:sh":"Kharkivska oblast","name:de":"Oblast Kharkiv","name:tr":"Kharkiv Oblast\u0131","name:fr":"Oblast de Kharkiv","name:mk":"\u0425\u0430\u0440\u043a\u043e\u0432 \u043e\u0431\u043b\u0430\u0441\u0442","name:be":"\u0425\u0430\u0440\u043a\u0430\u045e\u0441\u043a\u0430\u044f \u0432\u043e\u0431\u043b\u0430\u0441\u0446\u044c","name:zh":"\u54c8\u723e\u79d1\u592b\u5730\u5dde","name:lv":"Charkovas apgabals","name:ja":"\u30cf\u30ea\u30b3\u30d5\u5dde","name:nn":"Kharkiv oblast","name:no":"Kharkiv oblast","kind":"region","name:sk":"Kharkivsk\u00e1 oblas\u0165","name:hy":"\u053d\u0561\u0580\u056f\u0578\u057e \u0574\u0561\u0580\u0566","name:ru":"\u0425\u0430\u0440\u044c\u043a\u043e\u0432\u0441\u043a\u0430\u044f \u043e\u0431\u043b\u0430\u0441\u0442\u044c","name:sv":"Kharkiv oblast","name:hu":"Kharkiv ter\u00fclet","name:hr":"Kharkivska oblast","name:sr":"\u041a\u0445\u0430\u0440\u043a\u0438\u0432 \u043e\u0431\u043b\u0430\u0441\u0442","name:eo":"\u0124arkiva Provinco","name:en":"Kharkiv Oblast","name":"\u0425\u0430\u0440\u043a\u0456\u0432\u0441\u044c\u043a\u0430 \u043e\u0431\u043b\u0430\u0441\u0442\u044c","name:gl":"Oblast de Kharkiv","name:fi":"Harkova alue","name:eu":"Kharkiv oblasta","name:et":"Kharkiv oblast","name:nl":"Oblast Kharkiv","name:es":"\u00d3blast de Kharkiv"},"coordinates":[3561,4060]},{"type":"Point","properties":{"kind":"locality","name:en":"Pervomaiskyi","name":"\u041f\u0435\u0440\u0432\u043e\u043c\u0430\u0439\u0441\u044c\u043a\u0438\u0439","kind_detail":"town","name:de":"Perwomajskyj","source":"openstreetmap.org","min_zoom":8.0,"name:ru":"\u041f\u0435\u0440\u0432\u043e\u043c\u0430\u0439\u0441\u043a\u0438\u0439","name:hu":"Pervomaiskyi","id":337561310,"population":31275},"coordinates":[3101,2020]},{"type":"Point","properties":{"kind":"locality","name:en":"Krasnohrad","name":"\u041a\u0440\u0430\u0441\u043d\u043e\u0433\u0440\u0430\u0434","kind_detail":"town","name:de":"Krasnohrad","source":"openstreetmap.org","min_zoom":8.0,"id":27122099,"population":27600},"coordinates":[844,2045]},{"type":"Point","properties":{"kind":"locality","name:en":"Merefa","name":"\u041c\u0435\u0440\u0435\u0444\u0430","kind_detail":"town","source":"openstreetmap.org","min_zoom":8.0,"name:pl":"Merefa","id":1685829433,"population":25135},"coordinates":[2641,4008]},{"type":"Point","properties":{"kind":"locality","name:en":"Zmiiv","name":"\u0417\u043c\u0456\u0457\u0432","kind_detail":"town","name:de":"Smijiw","source":"openstreetmap.org","min_zoom":8.0,"name:ru":"\u0417\u043c\u0438\u0451\u0432","name:pl":"Zmijiw","id":2125331780,"population":16976},"coordinates":[3513,3492]},{"type":"Point","properties":{"old_name:uk":"\u041a\u043e\u043c\u0441\u043e\u043c\u043e\u043b\u044c\u0441\u044c\u043a\u0435","kind":"locality","name:en":"Slobozhanske","name":"\u0421\u043b\u043e\u0431\u043e\u0436\u0430\u043d\u0441\u044c\u043a\u0435","kind_detail":"town","old_name:ru":"\u041a\u043e\u043c\u0441\u043e\u043c\u043e\u043b\u044c\u0441\u043a\u043e\u0435","name:de":"Sloboschanske","source":"openstreetmap.org","min_zoom":8.0,"old_name:en":"Komsomolske","old_name":"\u041a\u043e\u043c\u0441\u043e\u043c\u043e\u043b\u044c\u0441\u044c\u043a\u0435","name:ru":"\u0421\u043b\u043e\u0431\u043e\u0436\u0430\u043d\u0441\u043a\u043e\u0435","id":337553635,"population":15825},"coordinates":[3984,3027]},{"type":"Point","properties":{"kind":"locality","name:en":"Nova Vodolaha","name":"\u041d\u043e\u0432\u0430 \u0412\u043e\u0434\u043e\u043b\u0430\u0433\u0430","kind_detail":"town","name:de":"Nowa Wodolaha","source":"openstreetmap.org","min_zoom":8.0,"name:ru":"\u041d\u043e\u0432\u0430\u044f \u0412\u043e\u0434\u043e\u043b\u0430\u0433\u0430","id":337548059,"population":13538},"coordinates":[2050,3560]},{"type":"Point","properties":{"kind":"locality","name:en":"Valky","name":"\u0412\u0430\u043b\u043a\u0438","kind_detail":"town","name:de":"Walky","source":"openstreetmap.org","min_zoom":8.0,"name:pl":"Wa\u0142ki","id":337543361,"population":10295},"coordinates":[1306,4063]},{"type":"Point","properties":{"kind":"locality","name:en":"Pereschepyne","name":"\u041f\u0435\u0440\u0435\u0449\u0435\u043f\u0438\u043d\u0435","kind_detail":"town","source":"openstreetmap.org","min_zoom":8.0,"name:ru":"\u041f\u0435\u0440\u0435\u0449\u0435\u043f\u0438\u043d\u043e","name:pl":"Pereszczepyne","id":337575950,"population":10150},"coordinates":[591,428]},{"type":"Point","properties":{"kind":"locality","name:en":"Sakhnovschyna","name":"\u0421\u0430\u0445\u043d\u043e\u0432\u0449\u0438\u043d\u0430","kind_detail":"town","name:de":"Sachnowschtschyna","source":"openstreetmap.org","min_zoom":8.0,"name:pl":"Sachnowszczyzna","id":337569695,"population":8625},"coordinates":[2094,1026]},{"type":"Point","properties":{"kind":"locality","name:en":"Krasnopavlivka","name":"\u041a\u0440\u0430\u0441\u043d\u043e\u043f\u0430\u0432\u043b\u0456\u0432\u043a\u0430","kind_detail":"town","source":"openstreetmap.org","min_zoom":8.0,"name:ru":"\u041a\u0440\u0430\u0441\u043d\u043e\u043f\u0430\u0432\u043b\u043e\u0432\u043a\u0430","id":337570085,"population":7828},"coordinates":[3412,1000]},{"type":"Point","properties":{"kind":"locality","name:en":"Paniutyne","name":"\u041f\u0430\u043d\u044e\u0442\u0438\u043d\u0435","kind_detail":"town","source":"openstreetmap.org","min_zoom":8.0,"old_name":"\u041b\u043e\u0437\u043e\u0432\u0430\u044f-\u0410\u0437\u043e\u0432\u0441\u043a\u0430\u044f","name:ru":"\u041f\u0430\u043d\u044e\u0442\u0438\u043d\u043e","id":337579677,"population":7332},"coordinates":[3267,58]},{"type":"Point","properties":{"kind":"locality","name:en":"Kehychivka","name":"\u041a\u0435\u0433\u0438\u0447\u0456\u0432\u043a\u0430","kind_detail":"town","name:de":"Kehytschiwka","source":"openstreetmap.org","min_zoom":8.0,"old_name":"\u0414\u043e\u0431\u0440\u043e\u0438\u0432\u0430\u043d\u043e\u0432\u043a\u0430 \u0438 \u0415\u0433\u043e\u0440\u043e\u0432\u043a\u0430","name:ru":"\u041a\u0435\u0433\u0438\u0447\u0451\u0432\u043a\u0430","name:pl":"Kehycziwka","id":337564178,"population":6539},"coordinates":[1786,1628]},{"type":"Point","properties":{"kind":"locality","name:en":"Chutove","name":"\u0427\u0443\u0442\u043e\u0432\u0435","kind_detail":"town","name:de":"Tschutowe","source":"openstreetmap.org","min_zoom":8.0,"name:ru":"\u0427\u0443\u0442\u043e\u0432\u043e","name:pl":"Czutowe","id":337548020,"population":6372},"coordinates":[38,3576]},{"type":"Point","properties":{"kind":"locality","name:en":"Vasyscheve","name":"\u0412\u0430\u0441\u0438\u0449\u0435\u0432\u0435","kind_detail":"town","source":"openstreetmap.org","min_zoom":8.0,"name:ru":"\u0412\u0430\u0441\u0438\u0449\u0435\u0432\u043e","id":337543424,"population":6069},"coordinates":[3422,4084]},{"type":"Point","properties":{"kind":"locality","name:en":"Zachepylivka","name":"\u0417\u0430\u0447\u0435\u043f\u0438\u043b\u0456\u0432\u043a\u0430","kind_detail":"town","name:de":"Satschepyliwka","source":"openstreetmap.org","min_zoom":8.0,"name:ru":"\u0417\u0430\u0447\u0435\u043f\u0438\u043b\u043e\u0432\u043a\u0430","name:pl":"Zaczepyliwka","id":337567787,"population":4409},"coordinates":[246,1221]},{"type":"Point","properties":{"kind":"locality","name:en":"Zidky","name":"\u0417\u0456\u0434\u044c\u043a\u0438","kind_detail":"town","source":"openstreetmap.org","min_zoom":8.0,"name:ru":"\u0417\u0438\u0434\u044c\u043a\u0438","id":337549096,"population":4087},"coordinates":[3663,3441]},{"type":"Point","properties":{"kind":"locality","name:en":"Orilka","name":"\u041e\u0440\u0456\u043b\u044c\u043a\u0430","kind_detail":"town","source":"openstreetmap.org","min_zoom":8.0,"name:ru":"\u041e\u0440\u0435\u043b\u044c\u043a\u0430","id":337578035,"population":3909},"coordinates":[2506,246]},{"type":"Point","properties":{"old_name:uk":"\u0427\u0430\u043f\u0430\u0454\u0432\u0435","kind":"locality","name:en":"Slobozhanske","name":"\u0421\u043b\u043e\u0431\u043e\u0436\u0430\u043d\u0441\u044c\u043a\u0435","kind_detail":"town","old_name:ru":"\u0427\u0430\u043f\u0430\u0435\u0432\u043e","name:de":"Sloboschanske","source":"openstreetmap.org","min_zoom":8.0,"old_name:en":"Chapaieve","old_name":"\u0427\u0430\u043f\u0430\u0454\u0432\u0435","name:ru":"\u0421\u043b\u043e\u0431\u043e\u0436\u0430\u043d\u0441\u043a\u043e\u0435","id":337561736,"population":2911},"coordinates":[2068,1993]},{"type":"Point","properties":{"kind":"locality","name:en":"Vvedenka","name":"\u0412\u0432\u0435\u0434\u0435\u043d\u043a\u0430","kind_detail":"town","source":"openstreetmap.org","min_zoom":8.0,"old_name":"\u0412\u0432\u0435\u0434\u0435\u043d\u0441\u043a\u043e\u0435","id":337543657,"population":2710},"coordinates":[3932,4038]},{"type":"Point","properties":{"kind":"locality","name:en":"Utkivka","name":"\u0423\u0442\u043a\u0456\u0432\u043a\u0430","kind_detail":"town","source":"openstreetmap.org","min_zoom":8.0,"name:ru":"\u0423\u0442\u043a\u043e\u0432\u043a\u0430","id":337544672,"population":1339},"coordinates":[2513,3901]},{"type":"Point","properties":{"kind":"locality","name:en":"Birky","name":"\u0411\u0456\u0440\u043a\u0438","kind_detail":"town","source":"openstreetmap.org","min_zoom":8.0,"name:ru":"\u0411\u043e\u0440\u043a\u0438","id":337549437,"population":657},"coordinates":[2610,3405]}]},"transit":{"type":"GeometryCollection","geometries":[{"type":"MultiLineString","properties":{"source":"openstreetmap.org","kind":"train","name":"\u0406\u0437\u044e\u043c <-> \u0425\u0430\u0440\u043a\u0456\u0432-\u041b\u0435\u0432\u0430\u0434\u0430","sort_rank":275,"ref":"\u0406\u0437\u044e\u043c - \u0425\u0430\u0440\u043a\u0456\u0432","min_zoom":6.0,"osm_relation":true},"arcs":[[2],[3],[4],[5],[6]]},{"type":"LineString","properties":{"source":"openstreetmap.org","kind":"train","name":"\u041b\u043e\u0441\u0454\u0432\u0435 - \u0413\u0440\u0430\u043a\u043e\u0432\u0435 (Elektritschka)","sort_rank":275,"ref":"\u041b\u043e\u0441\u0454\u0432\u0435 - \u0413\u0440\u0430\u043a\u043e\u0432\u0435","min_zoom":6.0,"osm_relation":true},"arcs":[7]},{"type":"LineString","properties":{"kind":"train","name":"6292\/6290 \u041a\u0440\u0430\u043c\u0430\u0442\u043e\u0440\u0441\u043a \u2014 \u0425\u0430\u0440\u044c\u043a\u043e\u0432","sort_rank":275,"source":"openstreetmap.org","min_zoom":6.0,"ref":"6292\/6290","id":-7121328,"osm_relation":true},"arcs":[8]},{"type":"MultiLineString","properties":{"source":"openstreetmap.org","kind":"train","name":"Poltava - Losova","sort_rank":275,"ref":"Poltava - Losova","min_zoom":6.0,"osm_relation":true},"arcs":[[9],[10],[11],[12],[13],[14],[15],[16]]},{"type":"LineString","properties":{"kind":"train","name":"\u0425\u0430\u0440\u043a\u0456\u0432 - \u0425\u0435\u0440\u0441\u043e\u043d","sort_rank":275,"source":"openstreetmap.org","min_zoom":6.0,"ref":"375\u041e","osm_relation":true,"network":"\u0423\u043a\u0440\u0437\u0430\u043b\u0456\u0437\u043d\u0438\u0446\u044f"},"arcs":[17]}]},"pois":{"type":"GeometryCollection","geometries":[{"type":"Point","properties":{"kind":"national_park","protect_class":"2","area":358151000,"source":"openstreetmap.org","min_zoom":6.55,"tier":1,"name:ru":"\u041d\u0430\u0446\u0438\u043e\u043d\u0430\u043b\u044c\u043d\u044b\u0439 \u043f\u0440\u0438\u0440\u043e\u0434\u043d\u044b\u0439 \u043f\u0430\u0440\u043a \u00ab\u0413\u043e\u043c\u043e\u043b\u044c\u0448\u0430\u043d\u0441\u043a\u0438\u0435 \u043b\u0435\u0441\u0430\u00bb","id":-4270269,"osm_relation":true,"name":"\u041d\u0430\u0446\u0456\u043e\u043d\u0430\u043b\u044c\u043d\u0438\u0439 \u043f\u0440\u0438\u0440\u043e\u0434\u043d\u0438\u0439 \u043f\u0430\u0440\u043a \u00ab\u0413\u043e\u043c\u0456\u043b\u044c\u0448\u0430\u043d\u0441\u044c\u043a\u0456 \u043b\u0456\u0441\u0438\u00bb"},"coordinates":[3377,2929]}]},"boundaries":{"type":"GeometryCollection","geometries":[{"type":"LineString","properties":{"name:right:hy":"\u053d\u0561\u0580\u056f\u0578\u057e\u056b \u0574\u0561\u0580\u0566","name:right:no":"Kharkiv oblast","name:right:hr":"Harkivska oblast","name:left:sv":"Dnipropetrovsk oblast","name:right:hu":"Harkivi ter\u00fclet","name:left:sr":"\u0414\u045a\u0435\u043f\u0440\u043e\u043f\u0435\u0442\u0440\u043e\u0432\u0441\u043a\u0430 \u043e\u0431\u043b\u0430\u0441\u0442","name:right:lt":"Charkovo sritis","name:right:lv":"Harkovas apgabals","name:left:lt":"Dniepropetrovsko sritis","name:left:sh":"Dnjipropetrovska oblast","name:left:sk":"Dnepropetrovsk\u00e1 oblas\u0165","name:left:hu":"Dnyipropetrovszki ter\u00fclet","name:left:hr":"Dnjipropetrovska oblast","name:right:os":"\u0425\u0430\u0440\u044c\u043a\u043e\u0432\u044b \u043e\u0431\u043b\u00e6\u0441\u0442","name:right:vi":"Kharkiv (t\u1ec9nh)","sort_rank":256,"name:left:ca":"Prov\u00edncia de Dnipropetrovsk","source":"openstreetmap.org","name:right:ar":"\u062e\u0627\u0631\u0643\u064a\u0641 \u0623\u0648\u0628\u0644\u0627\u0633\u062a","name:left:cv":"\u0414\u043d\u0435\u043f\u0440\u043e\u043f\u0435\u0442\u0440\u043e\u0432\u0441\u043a \u043e\u0431\u043b\u0430\u00e7\u0115","name:left:cs":"Dn\u011bpropetrovsk\u00e1 oblast","name:left":"\u0414\u043d\u0456\u043f\u0440\u043e\u043f\u0435\u0442\u0440\u043e\u0432\u0441\u044c\u043a\u0430 \u043e\u0431\u043b\u0430\u0441\u0442\u044c","name:right:es":"\u00d3blast de J\u00e1rkov","name:right:sh":"Harkivska oblast","name:right:sr":"\u0425\u0430\u0440\u043a\u043e\u0432\u0441\u043a\u0430 \u043e\u0431\u043b\u0430\u0441\u0442","name:left:ka":"\u10d3\u10dc\u10d4\u10de\u10e0\u10dd\u10de\u10d4\u10e2\u10e0\u10dd\u10d5\u10e1\u10d9\u10d8\u10e1 \u10dd\u10da\u10e5\u10d8","name:right:eu":"Kharkiveko oblasta","name:right:et":"Harkivi oblast","name:left:ko":"\ub4dc\ub2c8\ud504\ub85c\ud398\ud2b8\ub85c\uc6b0\uc2dc\ud06c \uc8fc","name:right:it":"Oblast' di Charkiv","name:left:ro":"Regiunea Dniepropetrovsk","name:right:ru":"\u0425\u0430\u0440\u044c\u043a\u043e\u0432\u0441\u043a\u0430\u044f \u043e\u0431\u043b\u0430\u0441\u0442\u044c","name:right:ro":"Regiunea Harkov","name:left:ru":"\u0414\u043d\u0435\u043f\u0440\u043e\u043f\u0435\u0442\u0440\u043e\u0432\u0441\u043a\u0430\u044f \u043e\u0431\u043b\u0430\u0441\u0442\u044c","name:right:mr":"\u0916\u093e\u0930\u094d\u0915\u0940\u0935\u094d\u0939 \u0913\u092c\u094d\u0932\u093e\u0938\u094d\u0924","name:right:id":"Oblast Kharkiv","name:right:eo":"\u0124arkiva provinco","name:right:en":"Kharkiv Oblast","name:left:vi":"Dnipropetrovsk (t\u1ec9nh)","kind":"region","name":"\u0414\u043d\u0456\u043f\u0440\u043e\u043f\u0435\u0442\u0440\u043e\u0432\u0441\u044c\u043a\u0430 \u043e\u0431\u043b\u0430\u0441\u0442\u044c - \u0425\u0430\u0440\u043a\u0456\u0432\u0441\u044c\u043a\u0430 \u043e\u0431\u043b\u0430\u0441\u0442\u044c","name:left:fa":"\u0627\u0633\u062a\u0627\u0646 \u062f\u0646\u06cc\u067e\u0631\u0648\u067e\u062a\u0631\u0648\u0641\u0633\u06a9","name:right:fa":"\u0627\u0633\u062a\u0627\u0646 \u062e\u0627\u0631\u06a9\u0641","min_zoom":8.0,"name:right:be":"\u0425\u0430\u0440\u043a\u0430\u045e\u0441\u043a\u0430\u044f \u0432\u043e\u0431\u043b\u0430\u0441\u0446\u044c","name:left:zh":"\u7b2c\u8042\u4f2f\u7f57\u5f7c\u5f97\u7f57\u592b\u65af\u514b\u5dde","name:left:fr":"Oblast de Dnipropetrovsk","name:right:zh":"\u54c8\u723e\u79d1\u592b\u5dde","name:left:hy":"\u0534\u0576\u0565\u057a\u0580\u0578\u057a\u0565\u057f\u0580\u0578\u057e\u057d\u056f\u056b \u0574\u0561\u0580\u0566","name:right:nn":"Kharkiv oblast","name:right:mk":"\u0425\u0430\u0440\u043a\u043e\u0432\u0441\u043a\u0430 \u043e\u0431\u043b\u0430\u0441\u0442","name:right:nl":"Oblast Charkov","name:right:ja":"\u30cf\u30eb\u30ad\u30a6\u5dde","name:right:fr":"Oblast de Kharkiv","name:left:lv":"D\u0146epropetrovskas apgabals","name:left:ja":"\u30c9\u30cb\u30d7\u30ed\u30da\u30c8\u30ed\u30a6\u30b7\u30af\u5dde","id:right":-71254,"name:left:nn":"Dnipropetrovsk oblast","name:left:no":"Dnipropetrovsk oblast","name:right:sk":"Charkovsk\u00e1 oblas\u0165","name:left:bg":"\u0414\u043d\u0435\u043f\u0440\u043e\u043f\u0435\u0442\u0440\u043e\u0432\u0441\u043a\u0430 \u043e\u0431\u043b\u0430\u0441\u0442","name:left:be":"\u0414\u043d\u0435\u043f\u0440\u0430\u043f\u044f\u0442\u0440\u043e\u045e\u0441\u043a\u0430\u044f \u0432\u043e\u0431\u043b\u0430\u0441\u0446\u044c","name:left:fi":"Dnepropetrovskin alue","id":-101746,"name:right:fi":"Harkovan alue","name:left:eo":"Dnipropetrovska provinco","name:left:en":"Dnipropetrovsk Oblast","name:right:ca":"Prov\u00edncia de Kh\u00e0rkiv","kind_detail":"4","name:left:mk":"\u0414\u043d\u0435\u043f\u0440\u043e\u043f\u0435\u0442\u0440\u043e\u0432\u0441\u043a\u0430 \u043e\u0431\u043b\u0430\u0441\u0442","name:left:nl":"Oblast Dnjepropetrovsk","id:left":-101746,"name:left:es":"\u00d3blast de Dnipropetrovsk","name:right:cs":"Charkovsk\u00e1 oblast","name:right":"\u0425\u0430\u0440\u043a\u0456\u0432\u0441\u044c\u043a\u0430 \u043e\u0431\u043b\u0430\u0441\u0442\u044c","name:left:eu":"Dnipropetrovskeko oblasta","name:left:et":"Dnipropetrovski oblast","name:right:ka":"\u10ee\u10d0\u10e0\u10d9\u10dd\u10d5\u10d8\u10e1 \u10dd\u10da\u10e5\u10d8","name:right:zh-min-nan":"Xarkiv s\u00e9ng","name:right:pt":"Oblast de Kharkiv","name:left:ar":"\u062f\u0646\u064a\u0628\u0631\u0648\u0628\u062a\u0631\u0648\u0641\u0633\u0643 \u0623\u0648\u0628\u0644\u0627\u0633\u062a","name:left:pl":"Obw\u00f3d dniepropetrowski","name:left:tr":"Dnipropetrovsk Oblast\u0131","name:left:id":"Oblast Dnipropetrovsk","name:left:az":"Dnepropetrovsk vilay\u0259ti","name:right:tr":"Harkiv Oblast\u0131","name:right:bg":"\u0425\u0430\u0440\u043a\u043e\u0432\u0441\u043a\u0430 \u043e\u0431\u043b\u0430\u0441\u0442","name:left:pt":"Oblast de Dnipropetrovsk","name:left:mr":"\u0926\u094d\u0928\u0947\u092a\u094d\u0930\u094b\u092a\u0947\u0924\u094d\u0930\u094b\u0935\u094d\u0938\u094d\u0915 \u0913\u092c\u094d\u0932\u093e\u0938\u094d\u0924","name:right:sv":"Charkiv oblast","name:right:ko":"\ud558\ub974\ud0a4\uc6b0 \uc8fc","name:left:zh-min-nan":"Dnipropetrovsk s\u00e9ng","name:left:it":"Oblast' di Dnipropetrovs'k","name:right:pl":"Obw\u00f3d charkowski","osm_relation":true,"name:right:de":"Oblast Charkiw","name:left:de":"Oblast Dnipropetrowsk"},"arcs":[0]},{"type":"LineString","properties":{"name:right:hy":"\u053d\u0561\u0580\u056f\u0578\u057e\u056b \u0574\u0561\u0580\u0566","name:right:no":"Kharkiv oblast","name:right:hr":"Harkivska oblast","name:left:sv":"Poltava oblast","name:right:hu":"Harkivi ter\u00fclet","name:left:sr":"\u041f\u043e\u043b\u0442\u0430\u0432\u0441\u043a\u0430 \u043e\u0431\u043b\u0430\u0441\u0442","name:right:lt":"Charkovo sritis","name:right:lv":"Harkovas apgabals","name:left:lt":"Poltavos sritis","name:left:sh":"Poltavska oblast","name:left:sk":"Poltavsk\u00e1 oblas\u0165","name:left:hu":"Poltavai ter\u00fclet","name:left:hr":"Poltavska oblast","name:right:os":"\u0425\u0430\u0440\u044c\u043a\u043e\u0432\u044b \u043e\u0431\u043b\u00e6\u0441\u0442","name:right:vi":"Kharkiv (t\u1ec9nh)","sort_rank":256,"name:left:ca":"Prov\u00edncia de Poltava","name:left:gl":"Oblast de Poltava","source":"openstreetmap.org","name:right:ar":"\u062e\u0627\u0631\u0643\u064a\u0641 \u0623\u0648\u0628\u0644\u0627\u0633\u062a","name:left:cv":"\u041f\u043e\u043b\u0442\u0430\u0432\u0430 \u043e\u0431\u043b\u0430\u00e7\u0115","name:left:cs":"Poltavsk\u00e1 oblast","name:left":"\u041f\u043e\u043b\u0442\u0430\u0432\u0441\u044c\u043a\u0430 \u043e\u0431\u043b\u0430\u0441\u0442\u044c","name:right:es":"\u00d3blast de J\u00e1rkov","name:right:sh":"Harkivska oblast","name:right:sr":"\u0425\u0430\u0440\u043a\u043e\u0432\u0441\u043a\u0430 \u043e\u0431\u043b\u0430\u0441\u0442","name:left:ka":"\u10de\u10dd\u10da\u10e2\u10d0\u10d5\u10d8\u10e1 \u10dd\u10da\u10e5\u10d8","name:right:eu":"Kharkiveko oblasta","name:right:et":"Harkivi oblast","name:left:ko":"\ud3f4\ud0c0\ubc14 \uc8fc","name:right:it":"Oblast' di Charkiv","name:left:ro":"Regiunea Poltava","name:right:ru":"\u0425\u0430\u0440\u044c\u043a\u043e\u0432\u0441\u043a\u0430\u044f \u043e\u0431\u043b\u0430\u0441\u0442\u044c","name:right:ro":"Regiunea Harkov","name:left:ru":"\u041f\u043e\u043b\u0442\u0430\u0432\u0441\u043a\u0430\u044f \u043e\u0431\u043b\u0430\u0441\u0442\u044c","name:right:mr":"\u0916\u093e\u0930\u094d\u0915\u0940\u0935\u094d\u0939 \u0913\u092c\u094d\u0932\u093e\u0938\u094d\u0924","name:right:id":"Oblast Kharkiv","name:right:eo":"\u0124arkiva provinco","name:right:en":"Kharkiv Oblast","name:left:vi":"Poltava (t\u1ec9nh)","kind":"region","name":"\u041f\u043e\u043b\u0442\u0430\u0432\u0441\u044c\u043a\u0430 \u043e\u0431\u043b\u0430\u0441\u0442\u044c - \u0425\u0430\u0440\u043a\u0456\u0432\u0441\u044c\u043a\u0430 \u043e\u0431\u043b\u0430\u0441\u0442\u044c","name:left:fa":"\u0627\u0633\u062a\u0627\u0646 \u067e\u0648\u0644\u062a\u0627\u0648\u0627","name:right:fa":"\u0627\u0633\u062a\u0627\u0646 \u062e\u0627\u0631\u06a9\u0641","min_zoom":8.0,"name:right:be":"\u0425\u0430\u0440\u043a\u0430\u045e\u0441\u043a\u0430\u044f \u0432\u043e\u0431\u043b\u0430\u0441\u0446\u044c","name:left:zh":"\u6ce2\u5c14\u5854\u74e6\u5dde","name:left:fr":"Oblast de Poltava","name:right:zh":"\u54c8\u723e\u79d1\u592b\u5dde","name:left:hy":"\u054a\u0578\u056c\u057f\u0561\u057e\u0561\u0575\u056b \u0574\u0561\u0580\u0566","name:right:nn":"Kharkiv oblast","name:right:mk":"\u0425\u0430\u0440\u043a\u043e\u0432\u0441\u043a\u0430 \u043e\u0431\u043b\u0430\u0441\u0442","name:right:nl":"Oblast Charkov","name:right:ja":"\u30cf\u30eb\u30ad\u30a6\u5dde","name:right:fr":"Oblast de Kharkiv","name:left:lv":"Poltavas apgabals","name:left:ja":"\u30dd\u30eb\u30bf\u30f4\u30a1\u5dde","id:right":-71254,"name:left:nn":"Poltava oblast","name:left:no":"Poltava oblast","name:right:sk":"Charkovsk\u00e1 oblas\u0165","name:left:bg":"\u041f\u043e\u043b\u0442\u0430\u0432\u0441\u043a\u0430 \u043e\u0431\u043b\u0430\u0441\u0442","name:left:be":"\u041f\u0430\u043b\u0442\u0430\u045e\u0441\u043a\u0430\u044f \u0432\u043e\u0431\u043b\u0430\u0441\u0446\u044c","name:left:fi":"Pultavan alue","id":-91294,"name:right:fi":"Harkovan alue","name:left:eo":"Poltava provinco","name:left:en":"Poltava Oblast","name:right:ca":"Prov\u00edncia de Kh\u00e0rkiv","kind_detail":"4","name:left:mk":"\u041f\u043e\u043b\u0442\u0430\u0432\u0441\u043a\u0430 \u043e\u0431\u043b\u0430\u0441\u0442","name:left:nl":"Oblast Poltava","id:left":-91294,"name:left:es":"\u00d3blast de Poltava","name:right:cs":"Charkovsk\u00e1 oblast","name:right":"\u0425\u0430\u0440\u043a\u0456\u0432\u0441\u044c\u043a\u0430 \u043e\u0431\u043b\u0430\u0441\u0442\u044c","name:left:eu":"Poltavako oblasta","name:left:et":"Poltava oblast","name:right:ka":"\u10ee\u10d0\u10e0\u10d9\u10dd\u10d5\u10d8\u10e1 \u10dd\u10da\u10e5\u10d8","name:right:zh-min-nan":"Xarkiv s\u00e9ng","name:right:pt":"Oblast de Kharkiv","name:left:ar":"\u0628\u0648\u0644\u062a\u0627\u0641\u0627 \u0623\u0648\u0628\u0644\u0627\u0633\u062a","name:left:pl":"Obw\u00f3d po\u0142tawski","name:left:tr":"Poltava Oblast\u0131","name:left:id":"Oblast Poltava","name:left:az":"Poltava vilay\u0259ti","name:right:tr":"Harkiv Oblast\u0131","name:right:bg":"\u0425\u0430\u0440\u043a\u043e\u0432\u0441\u043a\u0430 \u043e\u0431\u043b\u0430\u0441\u0442","name:left:pt":"Oblast de Poltava","name:left:mr":"\u092a\u094b\u0932\u094d\u0924\u093e\u0935\u094d\u0939\u093e \u0913\u092c\u094d\u0932\u093e\u0938\u094d\u0924","name:right:sv":"Charkiv oblast","name:right:ko":"\ud558\ub974\ud0a4\uc6b0 \uc8fc","name:left:zh-min-nan":"Poltava s\u00e9ng","name:left:it":"Oblast' di Poltava","name:right:pl":"Obw\u00f3d charkowski","osm_relation":true,"name:right:de":"Oblast Charkiw","name:left:de":"Oblast Poltawa"},"arcs":[1]}]},"roads":{"type":"GeometryCollection","geometries":[{"type":"MultiLineString","properties":{"kind":"major_road","network":"ua:regional","sort_rank":380,"kind_detail":"primary","source":"openstreetmap.org","min_zoom":8.0,"shield_text":"11","ref":"\u0420-11"},"arcs":[[18],[19]]},{"type":"MultiLineString","properties":{"kind":"major_road","network":"ua:regional","sort_rank":380,"kind_detail":"primary","source":"openstreetmap.org","min_zoom":8.0,"landuse_kind":"national_park","shield_text":"78","ref":"\u0420-78"},"arcs":[[20],[21]]},{"type":"LineString","properties":{"kind":"major_road","network":"ua:regional","sort_rank":380,"kind_detail":"primary","source":"openstreetmap.org","min_zoom":8.0,"shield_text":"78","name:ru":"\u0413\u0430\u0433\u0430\u0440\u0438\u043d\u0430 \u0443\u043b\u0438\u0446\u0430","ref":"\u0420-78"},"arcs":[22]},{"type":"LineString","properties":{"kind":"major_road","network":"ua:regional","sort_rank":380,"kind_detail":"primary","source":"openstreetmap.org","min_zoom":8.0,"landuse_kind":"residential","shield_text":"11","ref":"\u0420-11"},"arcs":[23]},{"type":"MultiLineString","properties":{"kind":"major_road","network":"e-road","sort_rank":381,"kind_detail":"trunk","source":"openstreetmap.org","min_zoom":8.0,"shield_text":"105","ref":"\u041c-18"},"arcs":[[24],[25],[26],[27]]},{"type":"LineString","properties":{"kind":"major_road","network":"e-road","sort_rank":381,"kind_detail":"trunk","source":"openstreetmap.org","min_zoom":8.0,"shield_text":"105","name:ru":"\u0428\u0435\u0432\u0447\u0435\u043d\u043a\u043e \u0443\u043b\u0438\u0446\u0430","ref":"\u041c-18;\u0422-04-12","id":118321870},"arcs":[28]},{"type":"LineString","properties":{"kind":"major_road","network":"e-road","sort_rank":381,"kind_detail":"trunk","source":"openstreetmap.org","min_zoom":8.0,"landuse_kind":"residential","shield_text":"40","name:ru":"\u0425\u0430\u0440\u044c\u043a\u043e\u0432\u0441\u043a\u0430\u044f \u0443\u043b\u0438\u0446\u0430","ref":"\u041c-03"},"arcs":[29]},{"type":"LineString","properties":{"kind":"major_road","network":"ua:regional","sort_rank":380,"kind_detail":"primary","source":"openstreetmap.org","min_zoom":8.0,"landuse_kind":"urban_area","shield_text":"51","name:ru":"\u041a\u043e\u043c\u0438\u043d\u0442\u0435\u0440\u043d\u0430 \u0443\u043b\u0438\u0446\u0430","ref":"\u0420-51","id":191428363},"arcs":[30]},{"type":"LineString","properties":{"kind":"major_road","network":"ua:regional","sort_rank":380,"kind_detail":"primary","source":"openstreetmap.org","min_zoom":8.0,"landuse_kind":"urban_area","shield_text":"51","name:ru":"\u0418\u0432\u0430\u043d\u0430 \u0421\u0435\u0440\u0435\u0434\u044b \u0443\u043b\u0438\u0446\u0430","ref":"\u0420-51"},"arcs":[31]},{"type":"MultiLineString","properties":{"kind":"major_road","network":"ua:regional","sort_rank":380,"kind_detail":"primary","source":"openstreetmap.org","min_zoom":8.0,"shield_text":"51","ref":"\u0420-51"},"arcs":[[32],[33]]},{"type":"LineString","properties":{"kind":"major_road","network":"ua:regional","sort_rank":380,"kind_detail":"primary","source":"openstreetmap.org","min_zoom":8.0,"landuse_kind":"urban_area","shield_text":"78","name:ru":"\u0413\u0430\u0433\u0430\u0440\u0438\u043d\u0430 \u0443\u043b\u0438\u0446\u0430","ref":"\u0420-78","id":147689498},"arcs":[34]},{"type":"LineString","properties":{"kind":"major_road","name:en":"Lenina Street","network":"ua:regional","sort_rank":380,"kind_detail":"primary","source":"openstreetmap.org","min_zoom":8.0,"landuse_kind":"urban_area","shield_text":"11","name:ru":"\u041b\u0435\u043d\u0438\u043d\u0430 \u0443\u043b\u0438\u0446\u0430","ref":"\u0420-11"},"arcs":[35]},{"type":"LineString","properties":{"kind":"major_road","network":"e-road","sort_rank":381,"kind_detail":"trunk","source":"openstreetmap.org","min_zoom":8.0,"landuse_kind":"residential","shield_text":"40","name:ru":"\u0428\u0435\u0432\u0447\u0435\u043d\u043a\u043e \u0443\u043b\u0438\u0446\u0430","ref":"\u041c-03","id":349597092},"arcs":[36]},{"type":"LineString","properties":{"kind":"major_road","network":"e-road","sort_rank":381,"kind_detail":"trunk","source":"openstreetmap.org","min_zoom":8.0,"shield_text":"40","name:ru":"\u0428\u0435\u0432\u0447\u0435\u043d\u043a\u043e \u0443\u043b\u0438\u0446\u0430","ref":"\u041c-03","id":349597092},"arcs":[37]},{"type":"LineString","properties":{"kind":"major_road","network":"e-road","sort_rank":381,"kind_detail":"trunk","source":"openstreetmap.org","min_zoom":8.0,"shield_text":"40","ref":"\u041c-03"},"arcs":[38]},{"type":"MultiLineString","properties":{"kind":"highway","network":"ua:international","sort_rank":383,"landuse_kind":"urban_area","source":"openstreetmap.org","min_zoom":8.0,"all_networks":["ua:international"],"kind_detail":"motorway","shield_text":"29","ref":"\u041c-29","all_shield_texts":["29"]},"arcs":[[39],[40],[41],[42]]},{"type":"MultiLineString","properties":{"kind":"major_road","network":"e-road","sort_rank":381,"landuse_kind":"residential","source":"openstreetmap.org","min_zoom":8.0,"kind_detail":"trunk","shield_text":"40","name:ru":"\u041e\u043a\u0442\u044f\u0431\u0440\u044c\u0441\u043a\u0430\u044f \u0443\u043b\u0438\u0446\u0430","ref":"\u041c-03"},"arcs":[[43],[44],[45]]},{"type":"MultiLineString","properties":{"kind":"major_road","network":"ua:regional","sort_rank":380,"kind_detail":"primary","source":"openstreetmap.org","min_zoom":8.0,"landuse_kind":"urban_area","shield_text":"11","ref":"\u0420-11"},"arcs":[[46],[47],[48],[49]]},{"type":"MultiLineString","properties":{"kind":"major_road","network":"ua:regional","sort_rank":380,"kind_detail":"primary","source":"openstreetmap.org","min_zoom":8.0,"landuse_kind":"urban_area","shield_text":"78","ref":"\u0420-78"},"arcs":[[50],[51]]},{"type":"MultiLineString","properties":{"sort_rank":380,"kind_detail":"primary","min_zoom":8.0,"kind":"major_road","source":"openstreetmap.org"},"arcs":[[52],[53],[54]]},{"type":"MultiLineString","properties":{"kind":"major_road","network":"e-road","sort_rank":381,"kind_detail":"trunk","source":"openstreetmap.org","min_zoom":8.0,"shield_text":"105","name:ru":"\u0428\u0435\u0432\u0447\u0435\u043d\u043a\u043e \u0443\u043b\u0438\u0446\u0430","ref":"\u041c-18"},"arcs":[[55],[56]]},{"type":"LineString","properties":{"kind":"major_road","network":"e-road","sort_rank":381,"landuse_kind":"residential","source":"openstreetmap.org","min_zoom":8.0,"kind_detail":"trunk","shield_text":"40","name:ru":"\u0413\u0435\u0440\u043e\u0435\u0432 \u0427\u0435\u0440\u043d\u043e\u0431\u044b\u043b\u044f \u043f\u0440\u043e\u0441\u043f\u0435\u043a\u0442","ref":"\u041c-03"},"arcs":[57]},{"type":"LineString","properties":{"kind":"major_road","network":"ua:regional","sort_rank":380,"kind_detail":"primary","source":"openstreetmap.org","min_zoom":8.0,"shield_text":"51","name:ru":"\u041a\u043e\u043c\u0438\u043d\u0442\u0435\u0440\u043d\u0430 \u0443\u043b\u0438\u0446\u0430","ref":"\u0420-51","id":191428363},"arcs":[58]},{"type":"MultiLineString","properties":{"bus_network":null,"network":"ua:regional","sort_rank":380,"kind_detail":"primary","kind":"major_road","source":"openstreetmap.org","min_zoom":8.0,"bus_shield_text":"316","shield_text":"78","landuse_kind":"urban_area","ref":"\u0420-78"},"arcs":[[59],[60]]},{"type":"LineString","properties":{"kind":"major_road","network":"ua:regional","sort_rank":380,"kind_detail":"primary","bus_network":null,"source":"openstreetmap.org","min_zoom":8.0,"bus_shield_text":"316","shield_text":"78","ref":"\u0420-78","id":108980797},"arcs":[61]},{"type":"MultiLineString","properties":{"kind":"highway","network":"ua:international","sort_rank":383,"kind_detail":"motorway","source":"openstreetmap.org","min_zoom":8.0,"all_networks":["ua:international"],"shield_text":"29","ref":"\u041c-29","all_shield_texts":["29"]},"arcs":[[62],[63],[64],[65],[66],[67]]},{"type":"LineString","properties":{"kind":"major_road","network":"e-road","sort_rank":381,"landuse_kind":"residential","source":"openstreetmap.org","min_zoom":8.0,"kind_detail":"trunk","shield_text":"40","name:ru":"\u043f\u0440\u043e\u0441\u043f\u0435\u043a\u0442 \u0413\u0435\u0440\u043e\u0435\u0432 \u0427\u0435\u0440\u043d\u043e\u0431\u044b\u043b\u044f","ref":"\u041c-03"},"arcs":[68]},{"type":"LineString","properties":{"kind":"major_road","network":"ua:regional","sort_rank":380,"kind_detail":"primary","source":"openstreetmap.org","min_zoom":8.0,"shield_text":"79","ref":"\u0420-79"},"arcs":[69]},{"type":"MultiLineString","properties":{"kind":"major_road","network":"e-road","sort_rank":381,"kind_detail":"trunk","source":"openstreetmap.org","min_zoom":8.0,"shield_text":"40","name:ru":"\u041e\u043a\u0442\u044f\u0431\u0440\u044c\u0441\u043a\u0430\u044f \u0443\u043b\u0438\u0446\u0430","ref":"\u041c-03"},"arcs":[[70],[71],[72]]},{"type":"MultiLineString","properties":{"kind":"major_road","network":"e-road","sort_rank":381,"landuse_kind":"urban_area","source":"openstreetmap.org","min_zoom":8.0,"kind_detail":"trunk","shield_text":"105","ref":"\u041c-18"},"arcs":[[73],[74],[75]]},{"type":"LineString","properties":{"kind":"major_road","name:en":"Oreshkova Street","network":"ua:regional","sort_rank":380,"kind_detail":"primary","bus_network":null,"source":"openstreetmap.org","min_zoom":8.0,"bus_shield_text":"198","shield_text":"78","name:ru":"\u041e\u0440\u0435\u0448\u043a\u043e\u0432\u0430 \u0443\u043b\u0438\u0446\u0430","landuse_kind":"urban_area","ref":"\u0420-78","id":37974491},"arcs":[76]},{"type":"LineString","properties":{"kind":"major_road","name:en":"Oreshkova Street","network":"ua:regional","sort_rank":380,"kind_detail":"primary","bus_network":null,"source":"openstreetmap.org","min_zoom":8.0,"bus_shield_text":"316","shield_text":"78","name:ru":"\u041e\u0440\u0435\u0448\u043a\u043e\u0432\u0430 \u0443\u043b\u0438\u0446\u0430","landuse_kind":"urban_area","ref":"\u0420-78","id":150698327},"arcs":[77]},{"type":"MultiLineString","properties":{"kind":"major_road","network":"ua:regional","sort_rank":380,"kind_detail":"primary","source":"openstreetmap.org","min_zoom":8.0,"shield_text":"78","ref":"\u0420-78"},"arcs":[[78],[79],[80],[81]]},{"type":"MultiLineString","properties":{"kind":"major_road","network":"ua:regional","sort_rank":380,"kind_detail":"primary","source":"openstreetmap.org","min_zoom":8.0,"landuse_kind":"urban_area","shield_text":"51","ref":"\u0420-51"},"arcs":[[82],[83]]}]},"earth":{"type":"GeometryCollection","geometries":[{"type":"Polygon","properties":{"sort_rank":10,"source":"naturalearthdata.com","kind":"earth","min_zoom":0.0,"id":4755},"arcs":[[84]]}]},"landuse":{"type":"GeometryCollection","geometries":[{"type":"Polygon","properties":{"kind":"national_park","protect_class":"2","area":358151008,"sort_rank":18,"source":"openstreetmap.org","min_zoom":3.0,"tier":1,"id":-4270269,"osm_relation":true},"arcs":[[85]]},{"type":"Polygon","properties":{"kind":"residential","name:en":"Starovirivka","name":"\u0421\u0442\u0430\u0440\u043e\u0432\u0456\u0440\u0456\u0432\u043a\u0430","area":72353504,"sort_rank":20,"source":"openstreetmap.org","min_zoom":8.0,"tier":2,"name:ru":"\u0421\u0442\u0430\u0440\u043e\u0432\u0435\u0440\u043e\u0432\u043a\u0430","id":253780673},"arcs":[[86]]},{"type":"Polygon","properties":{"kind":"residential","name:en":"Karavan","name":"\u041a\u0430\u0440\u0430\u0432\u0430\u043d","area":19429900,"sort_rank":20,"source":"openstreetmap.org","min_zoom":8.0,"tier":2,"id":254483307},"arcs":[[87]]},{"type":"Polygon","properties":{"kind":"residential","name:en":"Lozova","name":"\u041b\u043e\u0437\u043e\u0432\u0430","area":15198500,"sort_rank":20,"source":"openstreetmap.org","min_zoom":8.0,"tier":2,"name:ru":"\u041b\u043e\u0437\u043e\u0432\u0430\u044f","id":264280179},"arcs":[[88]]},{"type":"MultiPolygon","properties":{"source":"naturalearthdata.com","kind":"urban_area","name":"","area":4456758240,"sort_rank":11,"min_zoom":4.0},"arcs":[[[89]],[[90]],[[91]],[[92]],[[93]],[[94]],[[95],[96]],[[97]],[[98]],[[99]],[[100]],[[101]],[[102]],[[103]]]},{"type":"Polygon","properties":{"kind":"residential","name:en":"Oleksiivka","name":"\u041e\u043b\u0435\u043a\u0441\u0456\u0457\u0432\u043a\u0430","area":22134900,"sort_rank":20,"name:de":"Olexijiwka","source":"openstreetmap.org","min_zoom":8.0,"tier":2,"name:ru":"\u0410\u043b\u0435\u043a\u0441\u0435\u0435\u0432\u043a\u0430","id":254483248},"arcs":[[104]]},{"type":"MultiPolygon","properties":{"kind":"residential","name:en":"Valky","name":"\u0412\u0430\u043b\u043a\u0438","area":24089000,"sort_rank":20,"source":"openstreetmap.org","min_zoom":8.0,"tier":2,"name:pl":"Wa\u0142ki","id":-2409013,"osm_relation":true},"arcs":[[[105]],[[106]]]},{"type":"MultiPolygon","properties":{"source":"openstreetmap.org","kind":"residential","tier":2,"area":491632013,"sort_rank":20,"min_zoom":8.0},"arcs":[[[107]],[[108]],[[109]],[[110]],[[111]],[[112]]]}]}},"type":"Topology","transform":{"translate":[35.15625,48.9224992638],"scale":[0.0003433228,0.0002235066]},"arcs":[[[2543,0],[-98,75],[23,32],[-76,59],[34,44],[-143,132],[-27,-85],[34,-13],[-11,-26],[-27,16],[-43,-28],[-90,30],[-14,-56],[-69,-22],[4,-57],[-79,23],[-28,-45],[-29,4],[15,-51],[-22,-11],[-46,33],[26,34],[-32,19],[-2,36],[-40,-26],[-44,31],[-23,-40],[-34,12],[-13,73],[-35,4],[-36,-40],[4,-38],[-45,-2],[-5,-26],[-2,109],[-63,23],[-28,-19],[-11,29],[-36,-4],[-12,-32],[-44,3],[-8,71],[-65,-8],[-56,27],[-33,-62],[-8,23],[-27,-22],[-150,47],[-70,-52],[9,34],[-32,-5],[-26,41],[-30,0],[2,40],[-67,33],[8,30],[-88,8],[-25,27],[4,51],[-44,-16],[-61,61],[-68,23],[7,38],[-28,32],[-96,36],[32,37],[-17,64],[-17,-13],[-25,27],[-28,-19],[-6,25],[-14,-25],[-53,101],[-59,3],[-27,-60],[-30,29],[-81,14],[61,64],[50,10],[-112,51],[0,43],[58,14],[-64,52],[-76,-7],[-16,-15]],[[0,1685],[248,-9],[62,-36],[-13,-30],[38,-22],[49,85],[-26,97],[173,209],[-56,45],[63,71],[49,-39],[51,72],[-79,30],[46,189],[-140,41],[46,218],[436,-93],[28,108],[-19,37],[-163,45],[14,60],[-24,6],[5,37],[-64,26],[15,27],[190,19],[31,28],[-98,262],[-77,114],[22,78],[-259,-37],[-41,75],[-193,14],[-59,38],[37,68],[-40,18],[63,17],[-15,75],[-106,15],[-51,88],[18,146],[-35,51],[66,30],[-8,101],[-64,37]],[[3197,4096],[34,-28],[29,-5],[3,-1],[4,-2],[2,-2],[3,-3],[2,-2],[3,-5],[4,-13],[12,-53],[51,-60],[5,-120],[29,-75],[34,-39],[8,-25],[21,-28],[34,-63],[30,-47],[15,-10],[100,-27],[65,-52],[64,-133],[83,-78]],[[3832,3225],[56,-51]],[[3276,4049],[-45,19],[-33,25],[-2,3]],[[3484,3558],[76,-53]],[[3832,3225],[264,-244]],[[3806,4096],[23,-16],[59,-16],[208,-12]],[[3276,0],[1,123],[48,60]],[[0,2022],[42,-30],[594,-111],[226,84]],[[771,1937],[42,19],[49,9]],[[862,1965],[4,1]],[[866,1966],[3,1],[3,2],[50,36],[22,10]],[[944,2015],[-31,-14],[-47,-35]],[[944,2015],[111,34],[118,-6],[207,-201],[422,-228],[16,-291],[45,-49],[-27,-105],[36,-40],[136,-39],[67,-58],[150,-265],[120,-90],[24,-64],[-10,-36],[8,-39],[2,-3],[3,-6],[36,-39],[18,-61]],[[2366,552],[42,-62],[18,-61]],[[2426,429],[61,-185],[142,-43],[301,-174],[127,-27]],[[90,4096],[-90,-71]],[[7,2341],[23,-19]],[[59,2311],[655,-207]],[[3440,3269],[39,-38]],[[3600,3137],[7,-13]],[[3473,3347],[-10,-22]],[[30,2322],[29,-11]],[[552,367],[-58,-367]],[[947,1819],[101,-336],[1,-214],[-166,-541],[-168,-205],[-71,-43]],[[2000,3673],[-84,-49],[-117,-201],[-81,-255],[-148,-176],[-246,-36],[-198,-92],[-231,-621]],[[2563,3845],[-49,-47],[-150,-35],[-220,-5],[-43,-25]],[[611,455],[-20,-28]],[[1333,4092],[10,4]],[[3258,96],[8,-40]],[[3266,56],[51,-4]],[[2508,3795],[151,-81],[1,-57],[77,-127],[67,-45],[103,-452],[65,-94],[-5,-174],[-137,-348],[134,-272]],[[3121,2002],[142,-253],[55,-56],[60,-177],[41,-1014],[-169,-367]],[[3495,3402],[-22,-55]],[[0,2347],[4,-3]],[[1319,4063],[-49,-43]],[[1270,4020],[-6,-6]],[[1264,4014],[-196,-39],[-109,-103],[-156,-5],[-606,-145],[-65,-57]],[[1049,2126],[-26,-85],[-3,-49],[22,-135]],[[1046,1859],[-22,182],[18,46],[8,38]],[[2004,3721],[94,17]],[[2098,3738],[-93,-16]],[[0,3537],[8,9]],[[15,3554],[36,34]],[[86,3621],[40,39]],[[4,2344],[3,-3]],[[714,2104],[116,-1]],[[830,2103],[2,1]],[[832,2100],[-2,3]],[[3497,3411],[-2,-9]],[[3959,2994],[116,-47]],[[1033,1531],[-3,-9]],[[1030,1522],[22,2]],[[1030,1522],[6,-2]],[[591,427],[-39,-60]],[[644,480],[-33,-25]],[[1333,4092],[-13,-24]],[[3250,135],[8,-39]],[[3449,4004],[30,-117]],[[3554,3614],[-57,-203]],[[3479,3887],[48,-86],[27,-187]],[[1042,1857],[-46,-192],[57,-251],[-16,-197],[-128,-441],[-114,-155],[-14,-59],[4,-110],[-23,-73],[-7,-35],[39,-237],[-43,-107]],[[751,0],[44,107],[-40,237],[7,35],[13,28],[11,45],[-4,110],[14,59],[114,155],[128,441],[15,197],[-56,251],[49,192],[0,2]],[[2005,3722],[-106,-18],[-48,-32],[-5,-4],[-110,-145],[-183,-93],[-158,-196],[-245,-125],[-169,-183],[-10,-451],[78,-349]],[[1050,2125],[-78,351],[10,449],[168,183],[245,125],[159,197],[183,93],[114,149],[153,49]],[[2349,4096],[0,-7],[-40,-94],[-120,-125],[-91,-132]],[[2098,3738],[212,256],[40,95],[0,7]],[[1320,4068],[-1,-5]],[[1052,1524],[112,71],[31,-36],[85,-10],[165,-159],[94,-187],[197,-180],[387,-109],[7,16],[90,-160],[256,-97],[304,-191],[173,148],[101,23],[102,74],[44,-8],[207,82],[246,31],[46,-54],[63,-4],[90,-89],[43,32],[83,-101],[118,86]],[[8,3546],[7,8]],[[51,3588],[35,33]],[[126,3660],[6,5]],[[895,2243],[-64,-151],[116,-273]],[[2101,3733],[-101,-60]],[[2671,4096],[-33,-46],[-75,-205]],[[3425,4096],[23,-91]],[[3448,4005],[1,-1]],[[3463,3325],[-23,-56]],[[3479,3231],[121,-94]],[[3607,3124],[32,-62],[320,-68]],[[4075,2947],[21,-66]],[[2964,2145],[53,-64],[37,28],[67,-107]],[[3317,52],[48,-52]],[[4096,4096],[0,-4096],[-4096,0],[0,4096],[4096,0]],[[3065,2902],[45,42],[-17,-1],[0,95],[33,23],[-3,77],[45,-4],[3,44],[45,-25],[4,-34],[10,40],[32,0],[57,-57],[35,34],[27,-27],[19,12],[-27,3],[-14,22],[22,-21],[6,27],[30,3],[-20,36],[43,78],[45,-43],[-26,-37],[-1,-38],[37,68],[113,-87],[-5,-113],[94,-120],[-27,-92],[-49,24],[10,-22],[-29,-4],[64,-18],[-27,-44],[-113,64],[-38,-15],[-52,-118],[55,9],[-2,-40],[-131,16],[-54,-16],[15,-43],[-81,-9],[-52,45],[-27,-49],[-46,44],[22,27],[-17,9],[22,4],[6,-28],[6,17],[-24,93],[66,-38],[14,55],[-29,41],[81,-53],[18,40],[-60,80],[-70,-2],[7,-15],[-24,19],[-9,-33],[-57,55]],[[1370,2684],[109,109],[174,38],[22,41],[47,-15],[7,35],[206,-78],[-4,-36],[-84,17],[-64,-50],[-260,-30],[-79,-69],[-74,38]],[[1815,3077],[19,23],[70,-24],[34,13],[35,-43],[-7,-23],[-38,-3],[6,-24],[-61,-22],[-36,22],[-22,81]],[[2068,2518],[174,-69],[-1,-58],[122,-108],[-117,48],[-32,88],[-25,12],[9,-18],[-3,-12],[-19,19],[5,-30],[-13,25],[-25,-9],[36,25],[-54,15],[-57,72]],[[3228,0],[47,150],[51,-7],[79,-143],[-177,0]],[[3057,1982],[-86,87],[-19,219],[201,-80],[25,-70],[-31,-128],[-90,-28]],[[0,2336],[0,228],[40,-28],[5,-41],[-38,-59],[0,-99],[-7,-1]],[[1135,1906],[-125,-66],[0,-50],[-47,4],[-44,66],[-233,179],[18,57],[187,148],[22,-6],[0,-50],[100,-27],[109,-108],[50,-14],[-6,-86],[-31,-47]],[[4084,2974],[-32,-90],[-97,50],[5,66],[70,85],[35,-23],[19,-88]],[[3114,3182],[-130,49],[-50,49],[-15,101],[135,-41],[43,-59],[17,-99]],[[2208,2878],[-1,-33],[163,-11],[-46,-180],[-66,-40],[-115,21],[47,249],[18,-6]],[[2201,2837],[6,-2],[0,10],[-8,-5],[2,-3]],[[752,2784],[-13,137],[46,107],[85,72],[108,33],[6,-74],[-103,-76],[-82,-181],[-47,-18]],[[3996,4096],[92,0],[8,-143],[-48,43],[-52,100]],[[3502,3331],[-52,30],[-33,72],[-13,247],[85,4],[143,-154],[-130,-199]],[[3750,3577],[-119,102],[65,100],[29,1],[100,-101],[-32,-99],[-43,-3]],[[2143,3480],[-103,25],[-44,89],[6,120],[44,115],[94,-162],[19,-101],[-16,-86]],[[3269,4096],[238,0],[60,-68],[-3,-60],[-62,-90],[-78,31],[-20,118],[-81,-60],[-15,-39],[-49,36],[10,132]],[[2426,4096],[359,0],[-75,-169],[-114,-49],[0,-50],[-97,50],[-68,211],[-5,7]],[[3229,2159],[45,54],[20,-25],[27,13],[-2,-100],[35,-67],[-13,-48],[-38,18],[-20,52],[-35,6],[-19,97]],[[1245,4052],[4,23],[44,1],[3,20],[85,0],[12,-37],[-45,-8],[-26,21],[13,-52],[-86,0],[-4,32]],[[1423,4096],[-2,-3],[-5,3],[7,0]],[[2051,1063],[14,40],[31,-23],[-6,34],[55,-12],[-23,-141],[-71,102]],[[2899,2424],[119,44],[-60,45],[7,38],[25,3],[18,-23],[62,-1],[32,-89],[43,-55],[34,5],[-27,-13],[22,-34],[-54,44],[-70,-11],[-49,40],[-93,-32],[-9,39]],[[65,2737],[97,121],[69,-18],[-41,-8],[-31,-42],[-28,-185],[-38,28],[3,61],[-31,43]],[[0,3618],[0,1],[53,-31],[75,76],[-23,-48],[-73,-53],[83,-72],[-18,-23],[-52,26],[-13,-56],[-32,31],[0,68],[36,38],[-36,43]],[[0,2255],[0,56],[1,1],[36,-27],[6,21],[-23,7],[35,31],[-7,87],[34,36],[-21,43],[65,4],[-18,-120],[-44,-31],[-13,-138],[-35,11],[-16,-17],[0,30],[3,1],[-3,5]],[[1294,4096],[78,0],[9,-39],[-58,16],[11,-52],[-84,2],[-4,30],[3,21],[49,4],[-18,4],[14,14]]]}