{"objects":{"water":{"type":"GeometryCollection","geometries":[{"type":"MultiPolygon","properties":{"source":"naturalearthdata.com","kind":"ocean","area":1576712559132672,"sort_rank":200,"min_zoom":0.0,"id":1},"arcs":[[[5]],[[6]]]},{"type":"MultiLineString","properties":{"source":"naturalearthdata.com","kind":"ocean","sort_rank":205,"boundary":true,"min_zoom":0.0,"id":50},"arcs":[[7],[8]]},{"type":"LineString","properties":{"source":"naturalearthdata.com","kind":"ocean","sort_rank":205,"boundary":true,"min_zoom":0.0,"id":52},"arcs":[9]},{"type":"Point","properties":{"label_placement":true,"kind":"sea","name":"\u041e\u0431\u0438\u0442\u0456\u0447\u043d\u0430 \u0437\u0430\u0442\u043e\u043a\u0430","source":"openstreetmap.org","sort_rank":200,"min_zoom":3.0,"id":4791686387},"coordinates":[2919,2222]}]},"buildings":{"type":"GeometryCollection","geometries":[]},"places":{"type":"GeometryCollection","geometries":[{"type":"Point","properties":{"name:sr":"\u041c\u0435\u043b\u0438\u0442\u043e\u043f\u043e\u0459","name:ro":"Melitopol","name:sk":"Melitopo\u013e","name:lt":"Melitopolis","name:eo":"Melitopolo","min_zoom":8.0,"name:it":"Melitopol'","name:ru":"\u041c\u0435\u043b\u0438\u0442\u043e\u043f\u043e\u043b\u044c","name:pl":"Melitopol","name:hu":"Melitopol","id":1756064266,"population":156917,"kind":"locality","name:en":"Melitopol","name":"\u041c\u0435\u043b\u0456\u0442\u043e\u043f\u043e\u043b\u044c","kind_detail":"city","name:de":"Melitopol","source":"openstreetmap.org","name:fr":"Melitopol","name:es":"Melitopol"},"coordinates":[616,3285]},{"type":"Point","properties":{"kind":"locality","name:en":"Prymorsk","name":"\u041f\u0440\u0438\u043c\u043e\u0440\u0441\u044c\u043a","kind_detail":"town","name:de":"Prymorsk","source":"openstreetmap.org","min_zoom":8.0,"old_name":"\u041d\u043e\u0433\u0430\u0439\u0441\u044c\u043a","name:ru":"\u041f\u0440\u0438\u043c\u043e\u0440\u0441\u043a","name:pl":"Prymorsk","id":337687511,"population":12183},"coordinates":[3469,2800]},{"type":"Point","properties":{"kind":"locality","name:en":"Pryazovske","name":"\u041f\u0440\u0438\u0430\u0437\u043e\u0432\u0441\u044c\u043a\u0435","kind_detail":"town","name:de":"Pryasowske","source":"openstreetmap.org","min_zoom":8.0,"name:ru":"\u041f\u0440\u0438\u0430\u0437\u043e\u0432\u0441\u043a\u043e\u0435","name:pl":"Pryazow\u015bke","id":337687581,"population":6818},"coordinates":[1406,2782]},{"type":"Point","properties":{"kind":"locality","name:en":"Kyrylivka","name":"\u041a\u0438\u0440\u0438\u043b\u0456\u0432\u043a\u0430","kind_detail":"town","name:de":"Kyryliwka","source":"openstreetmap.org","min_zoom":8.0,"name:ru":"\u041a\u0438\u0440\u0438\u043b\u043b\u043e\u0432\u043a\u0430","name:pl":"Kiry\u0142\u00f3wka","id":337690427,"population":3472},"coordinates":[621,1265]},{"type":"Point","properties":{"kind":"locality","name:en":"Myrne","name":"\u041c\u0438\u0440\u043d\u0435","kind_detail":"town","source":"openstreetmap.org","min_zoom":8.0,"name:ru":"\u041c\u0438\u0440\u043d\u043e\u0435","name:pl":"Myrne","id":337684928,"population":3103},"coordinates":[829,3699]}]},"transit":{"type":"GeometryCollection","geometries":[]},"pois":{"type":"GeometryCollection","geometries":[]},"boundaries":{"type":"GeometryCollection","geometries":[{"type":"LineString","properties":{"name:kg":"Ukrayina","name:ka":"\u10e3\u10d9\u10e0\u10d0\u10d8\u10dc\u10d0","name:ko":"\uc6b0\ud06c\ub77c\uc774\ub098","name:cv":"\u0423\u043a\u0440\u0430\u0438\u043d\u0430","name:cu":"\u041e\u0443\u043a\u0440\u0430\u0438\u043d\u0430","name:kl":"Ukraine","name:cs":"Ukrajina","name:tw":"Ukraine","name:tt":"\u0423\u043a\u0440\u0430\u0438\u043d\u0430","name:kw":"Ukrayn","name:kv":"\u0423\u043a\u0440\u0430\u0438\u043d\u0430","name:th":"\u0e1b\u0e23\u0e30\u0e40\u0e17\u0e28\u0e22\u0e39\u0e40\u0e04\u0e23\u0e19","name:tl":"Ukranya","name:ce":"\u0423\u043a\u0440\u0430\u0438\u043d\u0430","name:ta":"\u0b89\u0b95\u0bcd\u0bb0\u0bc8\u0ba9\u0bcd","name:tg":"\u0423\u043a\u0440\u0430\u0439\u0438\u043d\u0430","name:ca":"Ucra\u00efna","name:te":"\u0c09\u0c15\u0c4d\u0c30\u0c46\u0c2f\u0c3f\u0c28\u0c4d","name:cy":"Wcr\u00e1in","name:qu":"Ukranya","name:da":"Ukraine","name:de":"Ukraine","source":"openstreetmap.org","name:kn":"\u0caf\u0cc1\u0c95\u0ccd\u0cb0\u0cc7\u0ca8\u0ccd","name:dv":"\u0794\u07aa\u0786\u07b0\u0783\u07ac\u0787\u07a8\u0782\u07b0","name:km":"\u17a2\u17ca\u17bb\u1799\u1780\u17d2\u179a\u17c2\u1793","name:lv":"Ukraina","name:lt":"Ukraina","name:uz":"Ukraina","name:kk":"\u0423\u043a\u0440\u0430\u0438\u043d\u0430","name:ur":"\u06cc\u0648\u06a9\u0631\u06cc\u0646","name:lb":"Ukrain","name:la":"Ucraina","name:ug":"\u0626\u06c7\u0643\u0631\u0627\u0626\u0649\u0646\u0627","name:li":"Oekra\u00efne","name:ln":"Ukraine","name:el":"\u039f\u03c5\u03ba\u03c1\u03b1\u03bd\u03af\u03b1","name:eo":"Ukrainujo","name:en":"Ukraine","name":"\u0423\u043a\u0440\u0430\u0457\u043d\u0430","name:tk":"Ukraina","name:ee":"Ukraine","name:ku":"\u00dbkrayna","name:eu":"Ukraina","name:et":"Ukraina","name:es":"Ucrania","name:ia":"Ukraina","name:rm":"Ucraina","name:az":"Ukrayna","name:ie":"Ucraina","name:id":"Ukraina","name:ig":"Yukrain","name:ar":"\u0623\u0648\u0643\u0631\u0627\u0646\u064a\u0627","name:io":"Ukrainia","name:is":"\u00dakra\u00edna","name:am":"\u12e9\u12ad\u122c\u1295","name:it":"Ucraina","name:an":"Ucra\u00edna","name:ru":"\u0423\u043a\u0440\u0430\u0438\u043d\u0430","name:ab":"\u0423\u043a\u0440\u0430\u0438\u043d\u0430","name:af":"Oekra\u00efne","kind_detail":"2","name:ky":"\u0423\u043a\u0440\u0430\u0438\u043d\u0430","name:zh-yue":"\u70cf\u514b\u862d","name:zh":"\u4e4c\u514b\u5170","name:so":"Ukrain","name:sn":"Ukraine","name:sm":"Ukraine","name:sl":"Ukrajina","name:sk":"Ukrajina","name:ja":"\u30a6\u30af\u30e9\u30a4\u30ca","name:sh":"Ukrajina","name:se":"Ukraina","name:sc":"Ucraina","name:br":"Ukraina","name:bs":"Ukrajina","name:bn":"\u0987\u0989\u0995\u09cd\u09b0\u09c7\u09a8","name:bo":"\u0f68\u0f74\u0f40\u0f0b\u0f62\u0f61\u0f72\u0f0b\u0f53\u0f72\u0f0d","name:bi":"Ukraine","name:sw":"Ukraine","name:be":"\u0423\u043a\u0440\u0430\u0456\u043d\u0430","name:su":"Ukraina","name:bg":"\u0423\u043a\u0440\u0430\u0439\u043d\u0430","name:ss":"IYukhureni","name:ba":"\u0423\u043a\u0440\u0430\u0438\u043d\u0430","name:sq":"Ukraina","name:jv":"Ukraina","name:pt":"Ucr\u00e2nia","name:ps":"\u0627\u0648\u06a9\u0631\u0627\u06cc\u0646","name:oc":"Ucra\u00efna","min_zoom":8.0,"name:ro":"Ucraina","name:zh-min-nan":"Ukrayina","name:os":"\u0423\u043a\u0440\u0430\u0438\u043d\u00e6","name:or":"\u0b5f\u0b41\u0b15\u0b4d\u0b30\u0b47\u0b28","name:pl":"Ukraina","sort_rank":262,"name:sr":"\u0423\u043a\u0440\u0430\u0458\u0438\u043d\u0430","osm_relation":true,"name:pa":"\u0a2f\u0a42\u0a15\u0a4d\u0a30\u0a47\u0a28","name:tr":"Ukrayna","name:hi":"\u092f\u0941\u0915\u094d\u0930\u0947\u0928","name:sv":"Ukraina","name:he":"\u05d0\u05d5\u05e7\u05e8\u05d0\u05d9\u05e0\u05d4","name:hy":"\u0548\u0582\u056f\u0580\u0561\u056b\u0576\u0561","name:ht":"Ikr\u00e8n","name:hu":"Ukrajna","name:hr":"Ukrajina","kind":"country","name:ts":"Ukraine","name:yi":"\u05d0\u05d5\u05e7\u05e8\u05d0\u05d9\u05e0\u05e2","name:yo":"Ukr\u00e9\u00ecn","name:mt":"Ukrajna","alt_name:eo":"Ukrainio","name:ms":"Ukraine","name:mr":"\u092f\u0941\u0915\u094d\u0930\u0947\u0928","name:my":"\u101a\u1030\u1000\u101b\u102d\u1014\u103a\u1038\u1014\u102d\u102f\u1004\u103a\u1004\u1036","int_name":"Ukraine","name:mg":"Okraina","name:vi":"Ukraina","name:ml":"\u0d09\u0d15\u0d4d\u0d30\u0d48\u0d7b","name:mn":"\u0423\u043a\u0440\u0430\u0439\u043d","name:mi":"\u016akareinga","id":-60199,"name:mk":"\u0423\u043a\u0440\u0430\u0438\u043d\u0430","name:vo":"Lukray\u00e4n","name:fa":"\u0627\u0648\u06a9\u0631\u0627\u06cc\u0646","name:rw":"Ikerene","name:fi":"Ukraina","old_name:vi":"\u00d4 Kh\u1eafc Lan","name:fo":"Ukraina","alt_name:vi":"Uy Ki\u00ean","name:fr":"Ukraine","name:fy":"Oekra\u00efne","name:nl":"Oekra\u00efne","name:nn":"Ukraina","name:no":"Ukraina","name:na":"Ukraine","name:ne":"\u092f\u0941\u0915\u094d\u0930\u0947\u0928","name:wa":"Oucrinne","name:wo":"Ukreen","name:nv":"Y\u00f3\u00f3kwein","name:ga":"An \u00dacr\u00e1in","name:gd":"An Ucr\u00e0in","name:gn":"Ukya\u00f1a","name:gl":"Ucra\u00edna","maritime_boundary":true,"name:gv":"Yn Ookraan","name:gu":"\u0aaf\u0ac1\u0a95\u0acd\u0ab0\u0ac7\u0aa8"},"arcs":[0]},{"type":"LineString","properties":{"name:right:hy":"\u053d\u0565\u0580\u057d\u0578\u0576\u056b \u0574\u0561\u0580\u0566","name:right:no":"Kherson oblast","name:right:hr":"Hersonska oblast","name:left:sv":"Zaporizjzja oblast","name:right:hu":"Herszoni ter\u00fclet","name:left:sr":"\u0417\u0430\u043f\u043e\u0440\u043e\u0448\u043a\u0430 \u043e\u0431\u043b\u0430\u0441\u0442","name:right:lt":"Chersono sritis","name:right:lv":"Hersonas apgabals","name:left:lt":"Zaporo\u017e\u0117s sritis","name:left:sh":"Zapori\u0161ka oblast","name:left:sk":"Z\u00e1poro\u017esk\u00e1 oblas\u0165","name:left:hu":"Zaporizzsjai ter\u00fclet","name:left:hr":"Zapori\u0161ka oblast","name:left:ga":"C\u00faige Zaporizhia","name:right:vi":"Kherson (t\u1ec9nh)","sort_rank":256,"name:left:ca":"Prov\u00edncia de Zapor\u00edjjia","source":"openstreetmap.org","name:right:ar":"\u062e\u064a\u0631\u0633\u0648\u0646 \u0623\u0648\u0628\u0644\u0627\u0633\u062a","name:right:az":"Xerson vilay\u0259ti","name:left:cs":"Z\u00e1poro\u017esk\u00e1 oblast","name:left":"\u0417\u0430\u043f\u043e\u0440\u0456\u0437\u044c\u043a\u0430 \u043e\u0431\u043b\u0430\u0441\u0442\u044c","name:right:es":"\u00d3blast de Jers\u00f3n","name:right:sr":"\u0425\u0435\u0440\u0441\u043e\u043d\u0441\u043a\u0430 \u043e\u0431\u043b\u0430\u0441\u0442","name:left:ka":"\u10d6\u10d0\u10de\u10dd\u10e0\u10dd\u10df\u10d8\u10d4\u10e1 \u10dd\u10da\u10e5\u10d8","name:right:eu":"Khersongo oblasta","name:right:et":"Hersoni oblast","name:left:ko":"\uc790\ud3ec\ub9ac\uc790 \uc8fc","name:right:it":"Oblast' di Cherson","name:left:ro":"Regiunea Zaporoje","name:right:ru":"\u0425\u0435\u0440\u0441\u043e\u043d\u0441\u043a\u0430\u044f \u043e\u0431\u043b\u0430\u0441\u0442\u044c","name:right:ro":"Regiunea Herson","name:left:ru":"\u0417\u0430\u043f\u043e\u0440\u043e\u0436\u0441\u043a\u0430\u044f \u043e\u0431\u043b\u0430\u0441\u0442\u044c","name:right:ms":"Oblast Kherson","name:right:mr":"\u0916\u0947\u0930\u094d\u0938\u0928 \u0913\u092c\u094d\u0932\u093e\u0938\u094d\u0924","name:right:id":"Oblast Kherson","name:right:eo":"\u0124ersona provinco","name:right:en":"Kherson Oblast","name:left:vi":"Zaporizhia (t\u1ec9nh)","kind":"region","name":"\u0417\u0430\u043f\u043e\u0440\u0456\u0437\u044c\u043a\u0430 \u043e\u0431\u043b\u0430\u0441\u0442\u044c - \u0425\u0435\u0440\u0441\u043e\u043d\u0441\u044c\u043a\u0430 \u043e\u0431\u043b\u0430\u0441\u0442\u044c","name:left:no":"Zaporizjzjia oblast","name:right:fa":"\u0627\u0633\u062a\u0627\u0646 \u062e\u0631\u0633\u0648\u0646","min_zoom":8.0,"name:right:be":"\u0425\u0435\u0440\u0441\u043e\u043d\u0441\u043a\u0430\u044f \u0432\u043e\u0431\u043b\u0430\u0441\u0446\u044c","name:left:zh":"\u624e\u6ce2\u7f85\u71b1\u5dde","name:left:fr":"Oblast de Zaporijia","name:right:zh":"\u8d6b\u5c14\u677e\u5dde","name:left:hy":"\u0536\u0561\u057a\u0578\u0580\u0578\u056a\u056b\u0565\u056b \u0574\u0561\u0580\u0566","name:right:nn":"Kherson oblast","name:left:bs":"Zapori\u0161ka oblast","name:right:nl":"Oblast Cherson","name:right:ja":"\u30d8\u30eb\u30bd\u30f3\u5dde","name:right:fr":"Oblast de Kherson","name:left:lv":"Zaporo\u017ejes apgabals","name:left:ja":"\u30b6\u30dd\u30ea\u30fc\u30b8\u30e3\u5dde","name:right:sv":"Cherson oblast","name:left:nn":"Zaporizjzjia oblast","name:right:sh":"Hersonska oblast","name:right:sk":"Chersonsk\u00e1 oblas\u0165","name:left:bg":"\u0417\u0430\u043f\u043e\u0440\u043e\u0436\u043a\u0430 \u043e\u0431\u043b\u0430\u0441\u0442","name:left:be":"\u0417\u0430\u043f\u0430\u0440\u043e\u0436\u0441\u043a\u0430\u044f \u0432\u043e\u0431\u043b\u0430\u0441\u0446\u044c","name:left:fi":"Zapori\u017e\u017ejan alue","id":-71980,"name:right:fi":"Hersonin alue","name:left:eo":"Zapori\u0135a provinco","name:left:en":"Zaporizhia Oblast","name:right:ca":"Prov\u00edncia de Kherson","kind_detail":"4","name:left:mk":"\u0417\u0430\u043f\u043e\u0440\u043e\u0448\u043a\u0430 \u043e\u0431\u043b\u0430\u0441\u0442","name:left:nl":"Oblast Zaporizja","id:left":-71980,"name:left:es":"\u00d3blast de Zaporiyia","name:right:cs":"Chersonsk\u00e1 oblast","name:right":"\u0425\u0435\u0440\u0441\u043e\u043d\u0441\u044c\u043a\u0430 \u043e\u0431\u043b\u0430\u0441\u0442\u044c","id:right":-71022,"name:left:os":"\u0417\u0430\u043f\u043e\u0440\u043e\u0436\u044c\u0435\u0439\u044b \u043e\u0431\u043b\u00e6\u0441\u0442","name:left:eu":"Zaporizhiako oblasta","name:left:et":"Zapori\u017e\u017eja oblast","name:right:mk":"\u0425\u0435\u0440\u0441\u043e\u043d\u0441\u043a\u0430 \u043e\u0431\u043b\u0430\u0441\u0442","name:right:zh-min-nan":"Xerson s\u00e9ng","name:right:pt":"Oblast de Kherson","name:left:ar":"\u0632\u0627\u0628\u0648\u0631\u0648\u062c\u064a\u064a\u0647 \u0623\u0648\u0628\u0644\u0627\u0633\u062a","name:left:pl":"Obw\u00f3d zaporoski","name:left:tr":"Zaporijya Oblast\u0131","name:left:id":"Oblast Zaporizhia","name:right:tr":"Herson Oblast\u0131","name:right:bg":"\u0425\u0435\u0440\u0441\u043e\u043d\u0441\u043a\u0430 \u043e\u0431\u043b\u0430\u0441\u0442","name:left:pt":"Oblast de Zapor\u00edjia","name:left:mr":"\u091d\u093e\u092a\u094b\u0930\u093f\u091d\u093f\u092f\u093e \u0913\u092c\u094d\u0932\u093e\u0938\u094d\u0924","name:right:ga":"C\u00faige Kherson","name:right:ko":"\ud5e4\ub974\uc190 \uc8fc","name:left:zh-min-nan":"Zaporizhzhya s\u00e9ng","name:left:it":"Oblast' di Zapori\u017e\u017eja","name:right:pl":"Obw\u00f3d cherso\u0144ski","osm_relation":true,"name:right:ka":"\u10ee\u10d4\u10e0\u10e1\u10dd\u10dc\u10d8\u10e1 \u10dd\u10da\u10e5\u10d8","name:right:de":"Oblast Cherson","name:left:de":"Oblast Saporischschja","name:right:os":"\u0425\u0435\u0440\u0441\u043e\u043d\u044b \u043e\u0431\u043b\u00e6\u0441\u0442"},"arcs":[1]},{"type":"LineString","properties":{"name:right:hy":"\u053d\u0565\u0580\u057d\u0578\u0576\u056b \u0574\u0561\u0580\u0566","name:left:bs":"Zapori\u0161ka oblast","name:right:hr":"Hersonska oblast","name:left:sv":"Zaporizjzja oblast","name:right:hu":"Herszoni ter\u00fclet","name:left:sr":"\u0417\u0430\u043f\u043e\u0440\u043e\u0448\u043a\u0430 \u043e\u0431\u043b\u0430\u0441\u0442","name:right:lt":"Chersono sritis","name:right:lv":"Hersonas apgabals","name:left:lt":"Zaporo\u017e\u0117s sritis","name:left:sh":"Zapori\u0161ka oblast","name:left:sk":"Z\u00e1poro\u017esk\u00e1 oblas\u0165","name:left:hu":"Zaporizzsjai ter\u00fclet","name:left:hr":"Zapori\u0161ka oblast","name:left:ga":"C\u00faige Zaporizhia","name:left:it":"Oblast' di Zapori\u017e\u017eja","sort_rank":256,"name:left:ca":"Prov\u00edncia de Zapor\u00edjjia","name:right:sk":"Chersonsk\u00e1 oblas\u0165","source":"openstreetmap.org","name:right:ar":"\u062e\u064a\u0631\u0633\u0648\u0646 \u0623\u0648\u0628\u0644\u0627\u0633\u062a","name:right:sv":"Cherson oblast","name:right:az":"Xerson vilay\u0259ti","name:left:cs":"Z\u00e1poro\u017esk\u00e1 oblast","name:left":"\u0417\u0430\u043f\u043e\u0440\u0456\u0437\u044c\u043a\u0430 \u043e\u0431\u043b\u0430\u0441\u0442\u044c","name:right:es":"\u00d3blast de Jers\u00f3n","name:right:mk":"\u0425\u0435\u0440\u0441\u043e\u043d\u0441\u043a\u0430 \u043e\u0431\u043b\u0430\u0441\u0442","name:left:ja":"\u30b6\u30dd\u30ea\u30fc\u30b8\u30e3\u5dde","name:left:ka":"\u10d6\u10d0\u10de\u10dd\u10e0\u10dd\u10df\u10d8\u10d4\u10e1 \u10dd\u10da\u10e5\u10d8","name:right:eu":"Khersongo oblasta","name:right:et":"Hersoni oblast","name:left:ko":"\uc790\ud3ec\ub9ac\uc790 \uc8fc","name:right:it":"Oblast' di Cherson","name:left:ro":"Regiunea Zaporoje","name:right:ru":"\u0425\u0435\u0440\u0441\u043e\u043d\u0441\u043a\u0430\u044f \u043e\u0431\u043b\u0430\u0441\u0442\u044c","name:right:ro":"Regiunea Herson","name:left:ru":"\u0417\u0430\u043f\u043e\u0440\u043e\u0436\u0441\u043a\u0430\u044f \u043e\u0431\u043b\u0430\u0441\u0442\u044c","name:right:ms":"Oblast Kherson","name:right:mr":"\u0916\u0947\u0930\u094d\u0938\u0928 \u0913\u092c\u094d\u0932\u093e\u0938\u094d\u0924","name:right:id":"Oblast Kherson","name:right:eo":"\u0124ersona provinco","name:right:en":"Kherson Oblast","name:left:vi":"Zaporizhia (t\u1ec9nh)","kind":"region","name":"\u0417\u0430\u043f\u043e\u0440\u0456\u0437\u044c\u043a\u0430 \u043e\u0431\u043b\u0430\u0441\u0442\u044c - \u0425\u0435\u0440\u0441\u043e\u043d\u0441\u044c\u043a\u0430 \u043e\u0431\u043b\u0430\u0441\u0442\u044c","name:right:sh":"Hersonska oblast","min_zoom":8.0,"name:right:be":"\u0425\u0435\u0440\u0441\u043e\u043d\u0441\u043a\u0430\u044f \u0432\u043e\u0431\u043b\u0430\u0441\u0446\u044c","name:left:zh":"\u624e\u6ce2\u7f85\u71b1\u5dde","name:left:fr":"Oblast de Zaporijia","name:right:zh":"\u8d6b\u5c14\u677e\u5dde","name:left:hy":"\u0536\u0561\u057a\u0578\u0580\u0578\u056a\u056b\u0565\u056b \u0574\u0561\u0580\u0566","name:right:nn":"Kherson oblast","name:right:no":"Kherson oblast","name:right:nl":"Oblast Cherson","name:right:ja":"\u30d8\u30eb\u30bd\u30f3\u5dde","name:right:fr":"Oblast de Kherson","name:left:lv":"Zaporo\u017ejes apgabals","name:right:sr":"\u0425\u0435\u0440\u0441\u043e\u043d\u0441\u043a\u0430 \u043e\u0431\u043b\u0430\u0441\u0442","id:right":-71022,"name:left:nn":"Zaporizjzjia oblast","name:left:no":"Zaporizjzjia oblast","name:left:nl":"Oblast Zaporizja","name:left:be":"\u0417\u0430\u043f\u0430\u0440\u043e\u0436\u0441\u043a\u0430\u044f \u0432\u043e\u0431\u043b\u0430\u0441\u0446\u044c","name:left:bg":"\u0417\u0430\u043f\u043e\u0440\u043e\u0436\u043a\u0430 \u043e\u0431\u043b\u0430\u0441\u0442","name:right:fa":"\u0627\u0633\u062a\u0627\u0646 \u062e\u0631\u0633\u0648\u0646","name:left:fi":"Zapori\u017e\u017ejan alue","id":-71980,"name:right:fi":"Hersonin alue","name:left:eo":"Zapori\u0135a provinco","name:left:en":"Zaporizhia Oblast","name:right:ca":"Prov\u00edncia de Kherson","kind_detail":"4","name:left:pl":"Obw\u00f3d zaporoski","id:left":-71980,"name:left:es":"\u00d3blast de Zaporiyia","name:right:cs":"Chersonsk\u00e1 oblast","name:right":"\u0425\u0435\u0440\u0441\u043e\u043d\u0441\u044c\u043a\u0430 \u043e\u0431\u043b\u0430\u0441\u0442\u044c","name:left:os":"\u0417\u0430\u043f\u043e\u0440\u043e\u0436\u044c\u0435\u0439\u044b \u043e\u0431\u043b\u00e6\u0441\u0442","name:left:eu":"Zaporizhiako oblasta","name:left:et":"Zapori\u017e\u017eja oblast","osm_relation":true,"name:right:zh-min-nan":"Xerson s\u00e9ng","name:right:pt":"Oblast de Kherson","name:left:ar":"\u0632\u0627\u0628\u0648\u0631\u0648\u062c\u064a\u064a\u0647 \u0623\u0648\u0628\u0644\u0627\u0633\u062a","name:left:mk":"\u0417\u0430\u043f\u043e\u0440\u043e\u0448\u043a\u0430 \u043e\u0431\u043b\u0430\u0441\u0442","name:left:tr":"Zaporijya Oblast\u0131","name:left:id":"Oblast Zaporizhia","name:right:tr":"Herson Oblast\u0131","name:right:bg":"\u0425\u0435\u0440\u0441\u043e\u043d\u0441\u043a\u0430 \u043e\u0431\u043b\u0430\u0441\u0442","name:left:pt":"Oblast de Zapor\u00edjia","name:left:mr":"\u091d\u093e\u092a\u094b\u0930\u093f\u091d\u093f\u092f\u093e \u0913\u092c\u094d\u0932\u093e\u0938\u094d\u0924","name:right:ga":"C\u00faige Kherson","name:right:ko":"\ud5e4\ub974\uc190 \uc8fc","name:left:zh-min-nan":"Zaporizhzhya s\u00e9ng","name:right:vi":"Kherson (t\u1ec9nh)","name:right:pl":"Obw\u00f3d cherso\u0144ski","name:right:os":"\u0425\u0435\u0440\u0441\u043e\u043d\u044b \u043e\u0431\u043b\u00e6\u0441\u0442","name:right:ka":"\u10ee\u10d4\u10e0\u10e1\u10dd\u10dc\u10d8\u10e1 \u10dd\u10da\u10e5\u10d8","name:right:de":"Oblast Cherson","name:left:de":"Oblast Saporischschja","maritime_boundary":true},"arcs":[2]},{"type":"LineString","properties":{"name:pt":"Oblast de Zapor\u00edjia","name:ro":"Regiunea Zaporoje","name:id":"Oblast Zaporizhia","name:ka":"\u10d6\u10d0\u10de\u10dd\u10e0\u10dd\u10df\u10d8\u10d4\u10e1 \u10dd\u10da\u10e5\u10d8","name:mr":"\u091d\u093e\u092a\u094b\u0930\u093f\u091d\u093f\u092f\u093e \u0913\u092c\u094d\u0932\u093e\u0938\u094d\u0924","name:ko":"\uc790\ud3ec\ub9ac\uc790 \uc8fc","name:ar":"\u0632\u0627\u0628\u0648\u0631\u0648\u062c\u064a\u064a\u0647 \u0623\u0648\u0628\u0644\u0627\u0633\u062a","name:cs":"Z\u00e1poro\u017esk\u00e1 oblast","name:tr":"Zaporijya Oblast\u0131","min_zoom":8.0,"name:eo":"Zapori\u0135a provinco","name:it":"Oblast' di Zapori\u017e\u017eja","name:zh-min-nan":"Zaporizhzhya s\u00e9ng","name:os":"\u0417\u0430\u043f\u043e\u0440\u043e\u0436\u044c\u0435\u0439\u044b \u043e\u0431\u043b\u00e6\u0441\u0442","name:vi":"Zaporizhia (t\u1ec9nh)","name:pl":"Obw\u00f3d zaporoski","id":-71980,"name:ca":"Prov\u00edncia de Zapor\u00edjjia","name:hu":"Zaporizzsjai ter\u00fclet","name:nn":"Zaporizjzjia oblast","sort_rank":256,"kind_detail":"4","name:no":"Zaporizjzjia oblast","name:de":"Oblast Saporischschja","source":"openstreetmap.org","name:fr":"Oblast de Zaporijia","name:mk":"\u0417\u0430\u043f\u043e\u0440\u043e\u0448\u043a\u0430 \u043e\u0431\u043b\u0430\u0441\u0442","name:zh":"\u624e\u6ce2\u7f85\u71b1\u5dde","name:lv":"Zaporo\u017ejes apgabals","name:ja":"\u30b6\u30dd\u30ea\u30fc\u30b8\u30e3\u5dde","name:lt":"Zaporo\u017e\u0117s sritis","name:sh":"Zapori\u0161ka oblast","name:sv":"Zaporizjzja oblast","name:ga":"C\u00faige Zaporizhia","name:bs":"Zapori\u0161ka oblast","name:sk":"Z\u00e1poro\u017esk\u00e1 oblas\u0165","name:hy":"\u0536\u0561\u057a\u0578\u0580\u0578\u056a\u056b\u0565\u056b \u0574\u0561\u0580\u0566","name:ru":"\u0417\u0430\u043f\u043e\u0440\u043e\u0436\u0441\u043a\u0430\u044f \u043e\u0431\u043b\u0430\u0441\u0442\u044c","name:be":"\u0417\u0430\u043f\u0430\u0440\u043e\u0436\u0441\u043a\u0430\u044f \u0432\u043e\u0431\u043b\u0430\u0441\u0446\u044c","name:bg":"\u0417\u0430\u043f\u043e\u0440\u043e\u0436\u043a\u0430 \u043e\u0431\u043b\u0430\u0441\u0442","name:hr":"Zapori\u0161ka oblast","name:sr":"\u0417\u0430\u043f\u043e\u0440\u043e\u0448\u043a\u0430 \u043e\u0431\u043b\u0430\u0441\u0442","osm_relation":true,"kind":"region","name:en":"Zaporizhia Oblast","name":"\u0417\u0430\u043f\u043e\u0440\u0456\u0437\u044c\u043a\u0430 \u043e\u0431\u043b\u0430\u0441\u0442\u044c","maritime_boundary":true,"name:fi":"Zapori\u017e\u017ejan alue","name:eu":"Zaporizhiako oblasta","name:et":"Zapori\u017e\u017eja oblast","name:nl":"Oblast Zaporizja","name:es":"\u00d3blast de Zaporiyia"},"arcs":[3]},{"type":"LineString","properties":{"name:ga":"C\u00faige Kherson","name:pt":"Oblast de Kherson","name:az":"Xerson vilay\u0259ti","name:id":"Oblast Kherson","name:ka":"\u10ee\u10d4\u10e0\u10e1\u10dd\u10dc\u10d8\u10e1 \u10dd\u10da\u10e5\u10d8","name:mr":"\u0916\u0947\u0930\u094d\u0938\u0928 \u0913\u092c\u094d\u0932\u093e\u0938\u094d\u0924","name:ko":"\ud5e4\ub974\uc190 \uc8fc","name:ar":"\u062e\u064a\u0631\u0633\u0648\u0646 \u0623\u0648\u0628\u0644\u0627\u0633\u062a","name:cs":"Chersonsk\u00e1 oblast","min_zoom":8.0,"name:ro":"Regiunea Herson","name:it":"Oblast' di Cherson","name:zh-min-nan":"Xerson s\u00e9ng","name:os":"\u0425\u0435\u0440\u0441\u043e\u043d\u044b \u043e\u0431\u043b\u00e6\u0441\u0442","name:vi":"Kherson (t\u1ec9nh)","name:pl":"Obw\u00f3d cherso\u0144ski","name:lt":"Chersono sritis","id":-71022,"name:ca":"Prov\u00edncia de Kherson","name:fa":"\u0627\u0633\u062a\u0627\u0646 \u062e\u0631\u0633\u0648\u0646","name:hu":"Herszoni ter\u00fclet","name:ms":"Oblast Kherson","source":"openstreetmap.org","sort_rank":256,"kind_detail":"4","name:no":"Kherson oblast","name:de":"Oblast Cherson","name:tr":"Herson Oblast\u0131","name:fr":"Oblast de Kherson","name:mk":"\u0425\u0435\u0440\u0441\u043e\u043d\u0441\u043a\u0430 \u043e\u0431\u043b\u0430\u0441\u0442","name:zh":"\u8d6b\u5c14\u677e\u5dde","name:lv":"Hersonas apgabals","name:ja":"\u30d8\u30eb\u30bd\u30f3\u5dde","name:nn":"Kherson oblast","name:sh":"Hersonska oblast","name:sv":"Cherson oblast","name:eo":"\u0124ersona provinco","name:sk":"Chersonsk\u00e1 oblas\u0165","name:hy":"\u053d\u0565\u0580\u057d\u0578\u0576\u056b \u0574\u0561\u0580\u0566","name:ru":"\u0425\u0435\u0440\u0441\u043e\u043d\u0441\u043a\u0430\u044f \u043e\u0431\u043b\u0430\u0441\u0442\u044c","name:be":"\u0425\u0435\u0440\u0441\u043e\u043d\u0441\u043a\u0430\u044f \u0432\u043e\u0431\u043b\u0430\u0441\u0446\u044c","name:bg":"\u0425\u0435\u0440\u0441\u043e\u043d\u0441\u043a\u0430 \u043e\u0431\u043b\u0430\u0441\u0442","name:hr":"Hersonska oblast","name:sr":"\u0425\u0435\u0440\u0441\u043e\u043d\u0441\u043a\u0430 \u043e\u0431\u043b\u0430\u0441\u0442","osm_relation":true,"kind":"region","name:en":"Kherson Oblast","name":"\u0425\u0435\u0440\u0441\u043e\u043d\u0441\u044c\u043a\u0430 \u043e\u0431\u043b\u0430\u0441\u0442\u044c","maritime_boundary":true,"name:fi":"Hersonin alue","name:eu":"Khersongo oblasta","name:et":"Hersoni oblast","name:nl":"Oblast Cherson","name:es":"\u00d3blast de Jers\u00f3n"},"arcs":[4]}]},"roads":{"type":"GeometryCollection","geometries":[{"type":"MultiLineString","properties":{"kind":"major_road","network":"e-road","sort_rank":381,"landuse_kind":"urban_area","source":"openstreetmap.org","min_zoom":8.0,"kind_detail":"trunk","shield_text":"58","ref":"\u041c-14"},"arcs":[[10],[11],[12]]},{"type":"LineString","properties":{"kind":"major_road","network":"ua:international","sort_rank":381,"kind_detail":"trunk","source":"openstreetmap.org","min_zoom":8.0,"shield_text":"14","ref":"\u041c-14"},"arcs":[13]},{"type":"LineString","properties":{"kind":"major_road","network":"ua:regional","sort_rank":380,"kind_detail":"primary","source":"openstreetmap.org","min_zoom":8.0,"shield_text":"37","ref":"\u0420-37"},"arcs":[14]},{"type":"MultiLineString","properties":{"kind":"major_road","network":"e-road","sort_rank":381,"kind_detail":"trunk","source":"openstreetmap.org","min_zoom":8.0,"shield_text":"105","ref":"\u041c-18"},"arcs":[[15],[16]]},{"type":"LineString","properties":{"kind":"major_road","name:en":"Interkulturna Street","network":"e-road","sort_rank":381,"kind_detail":"trunk","source":"openstreetmap.org","min_zoom":8.0,"old_name":"\u0414\u0437\u0435\u0440\u0436\u0438\u043d\u0441\u044c\u043a\u043e\u0433\u043e \u0432\u0443\u043b\u0438\u0446\u044f","shield_text":"58","name:ru":"\u0418\u043d\u0442\u0435\u0440\u043a\u0443\u043b\u044c\u0442\u0443\u0440\u043d\u0430\u044f \u0443\u043b\u0438\u0446\u0430","landuse_kind":"urban_area","ref":"\u041c-14","id":25292935},"arcs":[17]},{"type":"LineString","properties":{"old_name:uk":"\u0420\u0430\u0434\u044f\u043d\u0441\u044c\u043a\u0430 \u0432\u0443\u043b\u0438\u0446\u044f","kind":"major_road","network":"e-road","sort_rank":381,"kind_detail":"trunk","old_name:ru":"\u0421\u043e\u0432\u0435\u0442\u0441\u043a\u0430\u044f \u0443\u043b\u0438\u0446\u0430","source":"openstreetmap.org","min_zoom":8.0,"old_name:en":"Radianska Street","old_name":"\u0420\u0430\u0434\u044f\u043d\u0441\u044c\u043a\u0430 \u0432\u0443\u043b\u0438\u0446\u044f","shield_text":"58","name:ru":"\u0421\u043b\u0430\u0432\u044f\u043d\u0441\u043a\u0430\u044f \u0443\u043b\u0438\u0446\u0430","ref":"\u041c-14","id":112304622},"arcs":[18]},{"type":"MultiLineString","properties":{"kind":"major_road","network":"e-road","sort_rank":381,"kind_detail":"trunk","source":"openstreetmap.org","min_zoom":8.0,"shield_text":"58","ref":"\u041c-14"},"arcs":[[19],[20],[21],[22],[23]]},{"type":"MultiLineString","properties":{"kind":"major_road","name:en":"Hetmana Sahaidachnoho Street","sort_rank":381,"landuse_kind":"urban_area","old_name:ru":"\u0424\u0440\u0443\u043d\u0437\u0435 \u0443\u043b\u0438\u0446\u0430","source":"openstreetmap.org","min_zoom":8.0,"old_name":"\u0424\u0440\u0443\u043d\u0437\u0435 \u0432\u0443\u043b\u0438\u0446\u044f","name:ru":"\u0413\u0435\u0442\u043c\u0430\u043d\u0430 \u0421\u0430\u0433\u0430\u0439\u0434\u0430\u0447\u043d\u043e\u0433\u043e \u0443\u043b\u0438\u0446\u0430","kind_detail":"trunk"},"arcs":[[24],[25],[26]]},{"type":"LineString","properties":{"kind":"major_road","network":"e-road","sort_rank":381,"kind_detail":"trunk","source":"openstreetmap.org","min_zoom":8.0,"shield_text":"58","name:ru":"\u041c\u0435\u043b\u0438\u0442\u043e\u043f\u043e\u043b\u044c\u0441\u043a\u043e\u0435 \u0448\u043e\u0441\u0441\u0435","ref":"\u041c-14","id":37900407},"arcs":[27]},{"type":"MultiLineString","properties":{"kind":"major_road","name:en":"Ivana Aleksieieva Street","network":"e-road","sort_rank":381,"kind_detail":"trunk","old_name:ru":"\u041a\u0440\u0443\u043f\u0441\u043a\u043e\u0439 \u0443\u043b\u0438\u0446\u0430","source":"openstreetmap.org","min_zoom":8.0,"old_name":"\u041a\u0440\u0443\u043f\u0441\u044c\u043a\u043e\u0457 \u0432\u0443\u043b\u0438\u0446\u044f","shield_text":"58","name:ru":"\u0418\u0432\u0430\u043d\u0430 \u0410\u043b\u0435\u043a\u0441\u0435\u0435\u0432\u0430 \u0443\u043b\u0438\u0446\u0430","landuse_kind":"urban_area","ref":"\u041c-14"},"arcs":[[28],[29]]},{"type":"LineString","properties":{"kind":"major_road","name:en":"Kakhovske Road","network":"e-road","sort_rank":381,"kind_detail":"trunk","source":"openstreetmap.org","min_zoom":8.0,"landuse_kind":"urban_area","shield_text":"58","name:ru":"\u041a\u0430\u0445\u043e\u0432\u0441\u043a\u043e\u0435 \u0448\u043e\u0441\u0441\u0435","ref":"\u041c-14","id":123450495},"arcs":[30]},{"type":"LineString","properties":{"source":"openstreetmap.org","kind":"major_road","landuse_kind":"urban_area","sort_rank":380,"kind_detail":"primary","min_zoom":8.0},"arcs":[31]},{"type":"LineString","properties":{"kind":"major_road","name:en":"Voiniv-Internatsionalistiv Street","sort_rank":380,"kind_detail":"primary","source":"openstreetmap.org","min_zoom":8.0,"landuse_kind":"urban_area","name:ru":"\u0412\u043e\u0438\u043d\u043e\u0432-\u0418\u043d\u0442\u0435\u0440\u043d\u0430\u0446\u0438\u043e\u043d\u0430\u043b\u0438\u0441\u0442\u043e\u0432 \u0443\u043b\u0438\u0446\u0430"},"arcs":[32]},{"type":"LineString","properties":{"kind":"major_road","name:en":"Kakhovske Road","network":"e-road","sort_rank":381,"kind_detail":"trunk","source":"openstreetmap.org","min_zoom":8.0,"shield_text":"58","name:ru":"\u041a\u0430\u0445\u043e\u0432\u0441\u043a\u043e\u0435 \u0448\u043e\u0441\u0441\u0435","ref":"\u041c-14","id":123450495},"arcs":[33]},{"type":"MultiLineString","properties":{"kind":"major_road","name:en":"Heroiv Ukrainy Street","sort_rank":380,"kind_detail":"primary","old_name:ru":"\u041a\u0438\u0440\u043e\u0432\u0430 \u0443\u043b\u0438\u0446\u0430","source":"openstreetmap.org","min_zoom":8.0,"old_name":"\u041a\u0456\u0440\u043e\u0432\u0430 \u0432\u0443\u043b\u0438\u0446\u044f","name:ru":"\u0413\u0435\u0440\u043e\u0435\u0432 \u0423\u043a\u0440\u0430\u0438\u043d\u044b \u0443\u043b\u0438\u0446\u0430","landuse_kind":"urban_area"},"arcs":[[34],[35],[36]]},{"type":"LineString","properties":{"kind":"major_road","network":"e-road","sort_rank":381,"kind_detail":"trunk","source":"openstreetmap.org","min_zoom":8.0,"landuse_kind":"residential","shield_text":"58","name:ru":"\u0414\u043e\u0440\u043e\u0436\u043d\u0430\u044f \u0443\u043b\u0438\u0446\u0430","ref":"\u041c-14","id":333219778},"arcs":[37]},{"type":"MultiLineString","properties":{"kind":"major_road","network":"e-road","sort_rank":381,"kind_detail":"trunk","is_bicycle_related":true,"source":"openstreetmap.org","min_zoom":8.0,"landuse_kind":"residential","shield_text":"105","name:ru":"\u0411\u043e\u0433\u0434\u0430\u043d\u0430 \u0425\u043c\u0435\u043b\u044c\u043d\u0438\u0446\u043a\u043e\u0433\u043e \u043f\u0440\u043e\u0441\u043f\u0435\u043a\u0442","ref":"\u041c-18"},"arcs":[[38],[39]]},{"type":"MultiLineString","properties":{"kind":"major_road","network":"e-road","sort_rank":381,"kind_detail":"trunk","source":"openstreetmap.org","min_zoom":8.0,"landuse_kind":"residential","shield_text":"58","ref":"\u041c-14"},"arcs":[[40],[41]]},{"type":"LineString","properties":{"sort_rank":380,"kind_detail":"primary","min_zoom":8.0,"kind":"major_road","source":"openstreetmap.org"},"arcs":[42]},{"type":"LineString","properties":{"kind":"major_road","name:en":"Voiniv-Internatsionalistiv Street","sort_rank":380,"kind_detail":"primary","source":"openstreetmap.org","min_zoom":8.0,"landuse_kind":"residential","name:ru":"\u0412\u043e\u0438\u043d\u043e\u0432-\u0418\u043d\u0442\u0435\u0440\u043d\u0430\u0446\u0438\u043e\u043d\u0430\u043b\u0438\u0441\u0442\u043e\u0432 \u0443\u043b\u0438\u0446\u0430","id":123461651},"arcs":[43]},{"type":"MultiLineString","properties":{"kind":"major_road","network":"e-road","sort_rank":381,"kind_detail":"trunk","source":"openstreetmap.org","min_zoom":8.0,"landuse_kind":"residential","shield_text":"105","name:ru":"\u0411\u043e\u0433\u0434\u0430\u043d\u0430 \u0425\u043c\u0435\u043b\u044c\u043d\u0438\u0446\u043a\u043e\u0433\u043e \u043f\u0440\u043e\u0441\u043f\u0435\u043a\u0442","ref":"\u041c-18"},"arcs":[[44],[45],[46],[47],[48]]},{"type":"MultiLineString","properties":{"kind":"major_road","name:en":"Hetmana Sahaidachnoho Street","network":"e-road","sort_rank":381,"landuse_kind":"urban_area","old_name:ru":"\u0424\u0440\u0443\u043d\u0437\u0435 \u0443\u043b\u0438\u0446\u0430","name:ru":"\u0413\u0435\u0442\u043c\u0430\u043d\u0430 \u0421\u0430\u0433\u0430\u0439\u0434\u0430\u0447\u043d\u043e\u0433\u043e \u0443\u043b\u0438\u0446\u0430","source":"openstreetmap.org","min_zoom":8.0,"old_name":"\u0424\u0440\u0443\u043d\u0437\u0435 \u0432\u0443\u043b\u0438\u0446\u044f","shield_text":"105","kind_detail":"trunk","ref":"\u041c-18"},"arcs":[[49],[50]]},{"type":"MultiLineString","properties":{"kind":"major_road","network":"e-road","sort_rank":381,"landuse_kind":"urban_area","is_bicycle_related":true,"source":"openstreetmap.org","min_zoom":8.0,"kind_detail":"trunk","shield_text":"105","name:ru":"\u0411\u043e\u0433\u0434\u0430\u043d\u0430 \u0425\u043c\u0435\u043b\u044c\u043d\u0438\u0446\u043a\u043e\u0433\u043e \u043f\u0440\u043e\u0441\u043f\u0435\u043a\u0442","ref":"\u041c-18"},"arcs":[[51],[52]]},{"type":"MultiLineString","properties":{"kind":"major_road","network":"e-road","sort_rank":381,"kind_detail":"trunk","source":"openstreetmap.org","min_zoom":8.0,"landuse_kind":"residential","shield_text":"105","ref":"\u041c-18"},"arcs":[[53],[54]]},{"type":"MultiLineString","properties":{"kind":"major_road","name:en":"Heroiv Ukrainy Street","network":"e-road","sort_rank":381,"kind_detail":"trunk","old_name:ru":"\u041a\u0438\u0440\u043e\u0432\u0430 \u0443\u043b\u0438\u0446\u0430","source":"openstreetmap.org","min_zoom":8.0,"old_name":"\u041a\u0456\u0440\u043e\u0432\u0430 \u0432\u0443\u043b\u0438\u0446\u044f","shield_text":"58","name:ru":"\u0413\u0435\u0440\u043e\u0435\u0432 \u0423\u043a\u0440\u0430\u0438\u043d\u044b \u0443\u043b\u0438\u0446\u0430","landuse_kind":"urban_area","ref":"\u041c-14"},"arcs":[[55],[56]]},{"type":"MultiLineString","properties":{"kind":"major_road","network":"e-road","sort_rank":381,"landuse_kind":"urban_area","source":"openstreetmap.org","min_zoom":8.0,"kind_detail":"trunk","shield_text":"105","name:ru":"\u041b\u043e\u043c\u043e\u043d\u043e\u0441\u043e\u0432\u0430 \u0443\u043b\u0438\u0446\u0430","ref":"\u041c-18"},"arcs":[[57],[58],[59]]},{"type":"MultiLineString","properties":{"kind":"major_road","name:en":"Hetmanska Street","network":"e-road","sort_rank":381,"landuse_kind":"urban_area","old_name:ru":"\u041b\u0435\u043d\u0438\u043d\u0430 \u0443\u043b\u0438\u0446\u0430","name:ru":"\u0413\u0435\u0442\u043c\u0430\u043d\u0441\u043a\u0430\u044f \u0443\u043b\u0438\u0446\u0430","source":"openstreetmap.org","min_zoom":8.0,"old_name":"\u041b\u0435\u043d\u0456\u043d\u0430 \u0432\u0443\u043b\u0438\u0446\u044f","shield_text":"58","kind_detail":"trunk","ref":"\u041c-14"},"arcs":[[60],[61]]},{"type":"MultiLineString","properties":{"kind":"major_road","network":"e-road","sort_rank":381,"kind_detail":"trunk","source":"openstreetmap.org","min_zoom":8.0,"landuse_kind":"residential","shield_text":"58","name:ru":"\u0413\u043e\u0440\u044c\u043a\u043e\u0433\u043e \u0443\u043b\u0438\u0446\u0430","ref":"\u041c-14"},"arcs":[[62],[63]]},{"type":"MultiLineString","properties":{"kind":"major_road","network":"e-road","sort_rank":381,"landuse_kind":"urban_area","source":"openstreetmap.org","min_zoom":8.0,"kind_detail":"trunk","shield_text":"105","ref":"\u041c-18"},"arcs":[[64],[65]]},{"type":"LineString","properties":{"kind":"major_road","name:en":"Pokrovska Street","sort_rank":381,"kind_detail":"trunk","old_name:ru":"\u041b\u0443\u043d\u0430\u0447\u0430\u0440\u0441\u043a\u043e\u0433\u043e \u0443\u043b\u0438\u0446\u0430","is_bicycle_related":true,"source":"openstreetmap.org","min_zoom":8.0,"old_name":"\u041b\u0443\u043d\u0430\u0447\u0430\u0440\u0441\u044c\u043a\u043e\u0433\u043e \u0432\u0443\u043b\u0438\u0446\u044f","name:ru":"\u041f\u043e\u043a\u0440\u043e\u0432\u0441\u043a\u0430\u044f \u0443\u043b\u0438\u0446\u0430","landuse_kind":"urban_area","id":111812069},"arcs":[66]},{"type":"LineString","properties":{"kind":"major_road","name:en":"Oleksandra Nevskoho Street","sort_rank":381,"kind_detail":"trunk","source":"openstreetmap.org","min_zoom":8.0,"int_name":"Aleksandra Nevskogo street","landuse_kind":"urban_area","name:ru":"\u0410\u043b\u0435\u043a\u0441\u0430\u043d\u0434\u0440\u0430 \u041d\u0435\u0432\u0441\u043a\u043e\u0433\u043e \u0443\u043b\u0438\u0446\u0430","id":111812073},"arcs":[67]},{"type":"MultiLineString","properties":{"kind":"major_road","network":"e-road","sort_rank":381,"landuse_kind":"residential","source":"openstreetmap.org","min_zoom":8.0,"kind_detail":"trunk","shield_text":"105","name:ru":"\u041b\u043e\u043c\u043e\u043d\u043e\u0441\u043e\u0432\u0430 \u0443\u043b\u0438\u0446\u0430","ref":"\u041c-18"},"arcs":[[68],[69]]},{"type":"MultiLineString","properties":{"source":"openstreetmap.org","kind":"major_road","landuse_kind":"residential","sort_rank":381,"kind_detail":"trunk","min_zoom":8.0},"arcs":[[70],[71]]},{"type":"MultiLineString","properties":{"kind":"major_road","network":"e-road","sort_rank":381,"kind_detail":"trunk","source":"openstreetmap.org","min_zoom":8.0,"shield_text":"58","name:ru":"\u0413\u043e\u0440\u044c\u043a\u043e\u0433\u043e \u0443\u043b\u0438\u0446\u0430","ref":"\u041c-14"},"arcs":[[72],[73]]},{"type":"LineString","properties":{"kind":"major_road","name:en":"Oleksandra Nevskoho Street","network":"e-road","sort_rank":381,"kind_detail":"trunk","is_bicycle_related":true,"source":"openstreetmap.org","min_zoom":8.0,"landuse_kind":"urban_area","shield_text":"58","name:ru":"\u0410\u043b\u0435\u043a\u0441\u0430\u043d\u0434\u0440\u0430 \u041d\u0435\u0432\u0441\u043a\u043e\u0433\u043e \u0443\u043b\u0438\u0446\u0430","ref":"\u041c-14","id":51109248},"arcs":[74]},{"type":"LineString","properties":{"kind":"major_road","network":"e-road","sort_rank":381,"kind_detail":"trunk","source":"openstreetmap.org","min_zoom":8.0,"landuse_kind":"urban_area","shield_text":"58","name:ru":"\u0414\u043e\u0440\u043e\u0436\u043d\u0430\u044f \u0443\u043b\u0438\u0446\u0430","ref":"\u041c-14","id":333219778},"arcs":[75]},{"type":"LineString","properties":{"kind":"major_road","network":"e-road","sort_rank":381,"kind_detail":"trunk","source":"openstreetmap.org","min_zoom":8.0,"landuse_kind":"urban_area","shield_text":"105","name:ru":"\u0411\u043e\u0433\u0434\u0430\u043d\u0430 \u0425\u043c\u0435\u043b\u044c\u043d\u0438\u0446\u043a\u043e\u0433\u043e \u043f\u0440\u043e\u0441\u043f\u0435\u043a\u0442","ref":"\u041c-18","id":123201873},"arcs":[76]}]},"earth":{"type":"GeometryCollection","geometries":[{"type":"Polygon","properties":{"sort_rank":10,"source":"naturalearthdata.com","min_zoom":0.0,"kind":"earth","area":65220184345},"arcs":[[77]]}]},"landuse":{"type":"GeometryCollection","geometries":[{"type":"MultiPolygon","properties":{"source":"openstreetmap.org","kind":"aerodrome","tier":3,"area":57065221,"sort_rank":60,"min_zoom":8.0},"arcs":[[[78]]]},{"type":"Polygon","properties":{"kind":"residential","name":"\u041d\u043e\u0432\u043e\u0432\u0430\u0441\u0438\u043b\u0456\u0432\u043a\u0430","area":14193700,"sort_rank":20,"source":"openstreetmap.org","min_zoom":8.0,"tier":2,"id":-3590947,"osm_relation":true},"arcs":[[79]]},{"type":"MultiPolygon","properties":{"source":"naturalearthdata.com","kind":"urban_area","name":"","area":615079280,"sort_rank":11,"min_zoom":4.0},"arcs":[[[80]]]},{"type":"MultiPolygon","properties":{"kind":"protected_area","protect_class":"2","area":1201871633,"sort_rank":17,"source":"openstreetmap.org","min_zoom":6.0,"tier":2,"osm_relation":true},"arcs":[[[81]]]},{"type":"MultiPolygon","properties":{"source":"openstreetmap.org","kind":"residential","tier":2,"area":165278214,"sort_rank":20,"min_zoom":8.0},"arcs":[[[82]],[[83]],[[84]],[[85]],[[86]],[[87]],[[88]],[[89]],[[90]],[[91]]]},{"type":"Polygon","properties":{"kind":"nature_reserve","protect_class":"4","area":20921900,"sort_rank":23,"source":"openstreetmap.org","min_zoom":8.0,"tier":2,"id":-5450737,"osm_relation":true},"arcs":[[92],[93],[94],[95],[96],[97]]},{"type":"MultiPolygon","properties":{"kind":"residential","name:en":"Dmytrivka","name":"\u0414\u043c\u0438\u0442\u0440\u0456\u0432\u043a\u0430","area":14252200,"sort_rank":20,"source":"openstreetmap.org","min_zoom":8.0,"tier":2,"name:ru":"\u0414\u043c\u0438\u0442\u0440\u043e\u0432\u043a\u0430","id":-3588849,"osm_relation":true},"arcs":[[[98]]]},{"type":"Polygon","properties":{"kind":"residential","name":"\u041a\u043e\u0441\u0442\u044f\u043d\u0442\u0438\u043d\u0456\u0432\u043a\u0430","area":23024100,"sort_rank":20,"source":"openstreetmap.org","min_zoom":8.0,"tier":2,"name:ru":"\u041a\u043e\u043d\u0441\u0442\u0430\u043d\u0442\u0438\u043d\u043e\u0432\u043a\u0430","id":-3591449,"osm_relation":true},"arcs":[[99]]}]}},"type":"Topology","transform":{"translate":[35.15625,46.0732306254],"scale":[0.0003433228,0.0002360721]},"arcs":[[[741,0],[63,75],[104,235],[332,493],[191,108],[110,104],[102,150],[220,119],[141,143],[138,-204],[224,-169],[267,-85],[280,10],[212,75],[183,131],[111,127],[83,148],[146,91],[141,142],[121,234],[137,32],[49,-63]],[[0,944],[207,-63],[148,-70],[121,-127]],[[476,684],[163,-170],[269,-204]],[[908,310],[332,493],[191,108],[110,104],[102,150],[220,119],[141,143],[138,-204],[224,-169],[267,-85],[280,10],[212,75],[183,131],[111,127],[83,148],[146,91],[141,142],[121,234],[137,32],[49,-63]],[[737,0],[93,118],[78,192]],[[4096,2904],[0,-2904],[-4096,0],[0,227],[16,6],[67,73],[72,103],[157,307],[47,55],[15,17],[278,463],[43,43],[102,71],[45,45],[89,125],[45,52],[56,40],[344,174],[95,88],[235,276],[85,72],[163,93],[217,125],[70,-2],[397,75],[211,-31],[109,25],[51,2],[60,-27],[20,-17],[15,-20],[25,-50],[7,-6],[33,-23],[1,-20],[-4,-28],[-7,-17],[14,-39],[3,8],[4,27],[29,11],[28,17],[10,-14],[-1,-63],[22,0],[18,123],[56,96],[197,209],[84,65],[94,47],[146,29],[121,72],[112,0]],[[0,396],[0,771],[34,52],[98,103],[23,47],[12,65],[-8,36],[-17,31],[-9,55],[-29,61],[-52,78],[-22,84],[63,81],[9,-76],[30,-77],[38,-57],[46,-31],[37,-36],[22,-14],[30,-9],[47,-3],[22,-14],[-59,-160],[-17,-112],[26,-94],[71,-62],[57,5],[51,44],[50,55],[-12,-107],[-41,-70],[-106,-110],[-85,-152],[-31,-73],[-69,-78],[-80,-164],[-129,-69]],[[1954,2330],[-163,-93],[-85,-72],[-235,-276],[-95,-88],[-344,-174],[-56,-40],[-45,-52],[-89,-125],[-45,-45],[-102,-71],[-43,-43],[-278,-463],[-15,-17],[-47,-55],[-157,-307],[-72,-103],[-67,-73],[-16,-6]],[[0,396],[129,69],[80,164],[69,78],[31,73],[85,152],[106,110],[41,70],[12,107],[-50,-55],[-51,-44],[-57,-5],[-71,62],[-26,94],[17,112],[59,160],[-22,14],[-47,3],[-30,9],[-22,14],[-37,36],[-46,31],[-38,57],[-30,77],[-9,76],[-63,-81],[22,-84],[52,-78],[29,-61],[9,-55],[17,-31],[8,-36],[-12,-65],[-23,-47],[-98,-103],[-34,-52]],[[1954,2330],[217,125],[70,-2],[397,75],[211,-31],[109,25],[51,2],[60,-27],[20,-17],[15,-20],[25,-50],[7,-6],[33,-23],[1,-20],[-4,-28],[-7,-17],[14,-39],[3,8],[4,27],[29,11],[28,17],[10,-14],[-1,-63],[22,0],[18,123],[56,96],[197,209],[84,65],[94,47],[146,29],[121,72],[112,0]],[[538,3205],[1,1]],[[702,3269],[37,-15]],[[806,3227],[5,-2]],[[423,3052],[166,-99],[214,33],[119,193]],[[2711,4096],[192,-159],[251,-159],[146,-55],[84,-87],[204,-63],[508,-285]],[[500,3127],[-326,-341],[-73,-230],[-100,-161],[-1,-1]],[[600,4096],[31,-471]],[[665,3273],[37,-4]],[[3452,2813],[48,40]],[[0,3139],[404,52]],[[404,3191],[8,-3]],[[811,3225],[179,-75],[372,-325]],[[1466,2779],[591,-42],[620,55],[721,11]],[[3500,2853],[84,71],[190,-71],[322,156]],[[643,3290],[3,-1]],[[646,3289],[-3,2]],[[646,3289],[10,-7]],[[3398,2803],[54,10]],[[513,3199],[25,6]],[[539,3206],[80,44]],[[416,3188],[97,11]],[[617,3252],[-1,-1]],[[616,3309],[-44,-85]],[[412,3188],[4,0]],[[613,3253],[-28,12]],[[613,3253],[6,-3]],[[621,3250],[-8,3]],[[754,3248],[43,-17]],[[571,3188],[-7,-6]],[[565,3181],[6,6]],[[739,3254],[15,-6]],[[1405,2784],[8,-1]],[[231,2863],[-83,27],[-12,276]],[[621,3316],[-5,-7]],[[538,3161],[10,9]],[[548,3170],[2,1]],[[549,3172],[-1,-2]],[[564,3182],[-13,-9]],[[552,3172],[13,9]],[[635,3293],[8,-3]],[[643,3291],[-8,2]],[[643,3290],[-14,-48],[-58,-54]],[[571,3187],[59,55],[13,49]],[[551,3173],[-2,-1]],[[550,3171],[2,1]],[[627,3248],[21,8]],[[627,3248],[-6,2],[-2,0],[8,-2]],[[626,3311],[9,-18]],[[635,3293],[-9,18]],[[636,3433],[5,31],[-5,-31]],[[656,3257],[-8,-1]],[[666,3256],[-10,1]],[[1369,2818],[36,-34]],[[1413,2783],[52,-4]],[[516,3143],[-16,-16]],[[631,3625],[10,-161]],[[656,3282],[8,0]],[[664,3282],[1,-9]],[[636,3433],[-18,-106],[8,-16]],[[626,3311],[10,122]],[[550,3172],[0,-1]],[[552,3172],[-1,1]],[[1362,2825],[7,-7]],[[1465,2779],[1,0]],[[665,3273],[1,-17]],[[797,3231],[9,-4]],[[516,3143],[22,18]],[[1873,2284],[-82,-47],[-85,-72],[-235,-276],[-95,-88],[-344,-174],[-56,-40],[-45,-52],[-89,-125],[-45,-45],[-102,-71],[-43,-43],[-278,-463],[-15,-17],[-47,-55],[-157,-307],[-72,-103],[-67,-73],[-16,-6],[0,169],[129,69],[80,164],[69,78],[31,73],[85,152],[106,110],[41,70],[12,107],[-50,-55],[-51,-44],[-57,-5],[-71,62],[-26,94],[17,112],[59,160],[-22,14],[-47,3],[-30,9],[-22,14],[-37,36],[-46,31],[-38,57],[-30,77],[-9,76],[-63,-81],[22,-84],[52,-78],[29,-61],[9,-55],[17,-31],[8,-36],[-12,-65],[-23,-47],[-98,-103],[-34,-52],[0,2929],[4096,0],[0,-1192],[-112,0],[-121,-72],[-146,-29],[-94,-47],[-84,-65],[-197,-209],[-56,-96],[-15,-102],[-3,-21],[-22,0],[1,21],[0,42],[-10,14],[-28,-17],[-29,-11],[-4,-27],[0,-1],[-3,-7],[-2,7],[-12,32],[7,17],[4,28],[-1,20],[-33,23],[-7,6],[-25,50],[-15,20],[-20,17],[-60,27],[-51,-2],[-109,-25],[-211,31],[-397,-75],[-70,2],[-217,-125],[-81,-46]],[[358,3361],[80,97],[60,28],[23,-35],[-14,-37],[-66,-57],[-55,21],[-28,-17]],[[1682,3247],[10,38],[50,-1],[-6,-41],[73,-37],[-2,-20],[-43,-2],[46,-61],[-101,54],[-27,70]],[[557,3604],[119,34],[43,-40],[33,-94],[32,0],[32,-330],[-64,47],[-130,-94],[-194,0],[-12,62],[-92,53],[71,215],[0,94],[33,0],[60,94],[37,0],[32,-41]],[[0,212],[0,253],[113,60],[-7,109],[191,227],[1,-194],[-181,-339],[-94,-103],[-23,-13]],[[361,1807],[20,156],[6,1],[25,-39],[-16,-139],[19,-63],[-44,14],[-10,70]],[[0,2589],[0,113],[27,23],[24,-36],[-45,-58],[7,-39],[-13,-3]],[[1277,2748],[56,16],[63,92],[5,80],[55,10],[22,-45],[-10,-117],[-44,-90],[-25,-19],[-24,27],[-19,-14],[-27,48],[-38,-10],[-14,22]],[[513,3193],[20,10],[154,-63],[-39,-31],[-76,5],[-54,22],[21,24],[-26,33]],[[679,3819],[90,1],[-31,60],[22,-3],[28,61],[3,-114],[107,-53],[-17,-23],[-1,29],[-71,20],[66,-28],[-163,-26],[-29,10],[-4,66]],[[618,4041],[106,5],[-41,-114],[-55,3],[-10,106]],[[551,3451],[89,-19],[4,21],[71,-28],[-56,-50],[6,-39],[59,27],[-6,-32],[19,0],[51,31],[-38,-46],[-90,-30],[-30,42],[30,13],[-29,9],[-7,-24],[6,-14],[-21,-4],[-58,143]],[[29,3476],[83,29],[-7,16],[20,18],[8,-41],[20,34],[-5,-41],[35,60],[-38,-83],[50,-17],[4,-115],[-19,-1],[-17,116],[-130,-4],[-4,29]],[[777,3289],[92,67],[-2,48],[-57,31],[5,7],[80,-38],[10,6],[-56,17],[-26,19],[3,4],[82,-34],[-45,25],[59,9],[-29,-110],[-62,-50],[1,20],[-55,-21]],[[678,3488],[6,46],[78,-42],[61,53],[33,0],[-107,-113],[-71,56]],[[846,3574],[13,29],[87,42],[-30,8],[29,4],[-1,51],[21,-25],[11,18],[45,-170],[-175,43]],[[955,3657],[9,-5],[5,21],[-3,0],[-11,-16]],[[972,3642],[1,-4],[8,1],[-1,3],[-8,0]],[[952,3637],[2,-8],[8,2],[-2,7],[-8,-1]],[[979,3642],[12,1],[-11,6],[-1,-7]],[[960,3641],[3,-9],[3,1],[-3,8],[-3,0]],[[4062,3225],[21,44],[13,15],[-7,-71],[-16,-14],[-11,26]],[[681,3051],[67,86],[-11,117],[92,22],[-35,-50],[45,-18],[-75,-160],[-83,3]]]}