{"objects":{"water":{"type":"GeometryCollection","geometries":[]},"buildings":{"type":"GeometryCollection","geometries":[]},"places":{"type":"GeometryCollection","geometries":[{"type":"Point","properties":{"name:pt":"Ant\u00e1rtida","name:cs":"Antarktida","name:io":"Antarktika","name:is":"Su\u00f0urskautslandi\u00f0","name:it":"Antartide","name:vi":"Ch\u00e2u Nam C\u1ef1c","name:ru":"\u0410\u043d\u0442\u0430\u0440\u043a\u0442\u0438\u0434\u0430","alt_name:pt":"Ant\u00e1rtida","id":506532878,"name:ca":"Ant\u00e0rtida","name:vo":"Lantarkop","alt_name:vi":"Nam C\u1ef1c Ch\u00e2u","name:fi":"Etel\u00e4manner","name:da":"Antarktis","name:de":"Antarktis","source":"openstreetmap.org","name:fr":"Antarctique","alt_name:vo":"Sul\u00fcdop","name:fy":"Antarktika","name:be":"\u0410\u043d\u0442\u0430\u0440\u043a\u0442\u044b\u043a\u0430","name:zh":"\u5357\u6781\u6d32","name:sl":"Antarktika","name:sk":"Antarkt\u00edda","name:ja":"\u5357\u6975","name:uz":"Antarktida","name:he":"\u05d0\u05e0\u05d8\u05e8\u05e7\u05d8\u05d9\u05e7\u05d4","kind":"country","name:br":"Antarktika","name:uk":"\u0410\u043d\u0442\u0430\u0440\u043a\u0442\u0438\u043a\u0430","name:sv":"Antarktis","min_zoom":2.0,"name:hr":"Antartika","name:sr":"\u0410\u043d\u0442\u0430\u0440\u043a\u0442\u0438\u043a","population":0,"name:el":"\u0391\u03bd\u03c4\u03b1\u03c1\u03ba\u03c4\u03b9\u03ba\u03ae","name:eo":"Antarkto","name":"Antarctica","name:ku":"Antarkt\u00eeka","name:gv":"Yn Austrail","name:no":"Antarktika","name:es":"Ant\u00e1rtida"},"coordinates":[915,2131]}]},"transit":{"type":"GeometryCollection","geometries":[]},"pois":{"type":"GeometryCollection","geometries":[]},"boundaries":{"type":"GeometryCollection","geometries":[]},"roads":{"type":"GeometryCollection","geometries":[]},"earth":{"type":"GeometryCollection","geometries":[{"type":"Polygon","properties":{"sort_rank":10,"source":"naturalearthdata.com","min_zoom":0.0,"kind":"earth","area":392091543542},"arcs":[[0]]}]},"landuse":{"type":"GeometryCollection","geometries":[]}},"type":"Topology","transform":{"translate":[33.75,-82.3088925182],"scale":[0.0006866455,0.0000941666]},"arcs":[[[0,0],[0,934],[0,3162],[4096,0],[0,-4096],[-4096,0]]]}