{"objects":{"water":{"type":"GeometryCollection","geometries":[]},"buildings":{"type":"GeometryCollection","geometries":[]},"places":{"type":"GeometryCollection","geometries":[{"type":"Point","properties":{"name:pt":"Turquia","name:cy":"Twrci","name:mt":"Turkija","name:ko":"\ud130\ud0a4","name:kn":"\u0c9f\u0cb0\u0ccd\u0c95\u0cbf","name:km":"\u1791\u17bd\u179a\u1782\u17b8","name:kl":"Tyrkia","name:cs":"Turecko","alt_name:eo":"Turkio","name:ki":"Uturuki","name:ku":"Tirkiye","name:ti":"\u1271\u122d\u12ad","name:ks":"\u062a\u064f\u0631\u06a9\u06cc","name:to":"Toake","name:sv":"Turkiet","name:or":"\u0b24\u0b41\u0b30\u0b4d\u0b15\u0b40","name:pl":"Turcja","name:ta":"\u0ba4\u0bc1\u0bb0\u0bc1\u0b95\u0bcd\u0b95\u0bbf","name:tg":"\u0422\u0443\u0440\u043a\u0438\u044f","name:ca":"Turquia","name:te":"\u0c1f\u0c30\u0c4d\u0c15\u0c40","name:hu":"T\u00f6r\u00f6korsz\u00e1g","name:ro":"Turcia","name:ka":"\u10d7\u10e3\u10e0\u10e5\u10d4\u10d7\u10d8","name:hr":"Turska","name:da":"Tyrkiet","name:de":"T\u00fcrkei","name:dz":"\u0f4a\u0f71\u0f62\u0f0b\u0f40\u0f72","source":"openstreetmap.org","name:lv":"Turcija","name:lt":"Turkija","name:uz":"Turkiya","name:kk":"\u0422\u04af\u0440\u043a\u0438\u044f","name:he":"\u05d8\u05d5\u05e8\u05e7\u05d9\u05d4","kind":"country","name:ur":"\u062a\u0631\u06a9\u06cc","name:lb":"Tierkei","name:la":"Turcia","name:lg":"Ttake","name:uk":"\u0422\u0443\u0440\u0435\u0447\u0447\u0438\u043d\u0430","name:hy":"\u0539\u0578\u0582\u0580\u0584\u056b\u0561","min_zoom":2.0,"name:li":"T\u00f6rkie\u00eb","name:ln":"Tiliki","name:lo":"\u0e95\u0eb8\u0e99\u0e81\u0eb5","population":79814871,"name:el":"\u03a4\u03bf\u03c5\u03c1\u03ba\u03af\u03b1","name:eo":"Turkujo","name:en":"Turkey","name":"T\u00fcrkiye","official_name":"T\u00fcrkiye Cumhuriyeti","name:ee":"T\u025bki nutome","name:th":"\u0e1b\u0e23\u0e30\u0e40\u0e17\u0e28\u0e15\u0e38\u0e23\u0e01\u0e35","name:gu":"\u0aa4\u0ac1\u0ab0\u0acd\u0a95\u0ab8\u0acd\u0aa4\u0abe\u0aa8","name:eu":"Turkia","name:et":"T\u00fcrgi","name:nl":"Turkije","name:es":"Turqu\u00eda","name:ia":"Turchia","name:rm":"Tirchia","name:rn":"Turukiya","name:az":"T\u00fcrkiy\u0259","name:id":"Turki","name:ms":"Turki","name:mr":"\u0924\u0941\u0930\u094d\u0915\u0940","name:ar":"\u062a\u0631\u0643\u064a\u0627","name:my":"\u1010\u1030\u101b\u1000\u102e","name:io":"Turkia","int_name":"Turkey","name:is":"Tyrkland","name:am":"\u1271\u122d\u12ad","name:it":"Turchia","name:vi":"Th\u1ed5 Nh\u0129 K\u1ef3","name:ru":"\u0422\u0443\u0440\u0446\u0438\u044f","id":424298326,"name:mk":"\u0422\u0443\u0440\u0446\u0438\u0458\u0430","name:af":"Turkye","name:zu":"i-Turkey","name:ha":"Turkiyya","name:nn":"Tyrkia","name:ff":"Turkii","name:fi":"Turkki","name:hi":"\u0924\u0941\u0930\u094d\u0915\u0940","name:mg":"Torkia","name:fo":"Turkaland","name:fr":"Turquie","name:fy":"Turkije","name:vo":"T\u00fcrk\u00e4n","name:zh":"\u571f\u8033\u5176","name:gv":"Yn Turkee","name:so":"Turki","name:sn":"Turkey","name:sl":"Tur\u010dija","name:sk":"Turecko","name:ja":"\u30c8\u30eb\u30b3","name:si":"\u0dad\u0dd4\u0dbb\u0dca\u0d9a\u0dd2\u0dba","name:fa":"\u062a\u0631\u06a9\u06cc\u0647","name:sg":"Turuk\u00efi","name:se":"Durka","name:ne":"\u091f\u0930\u094d\u0915\u0940","name:br":"Turkia","name:bs":"Turska","name:bm":"Turiki","name:bn":"\u09a4\u09c1\u09b0\u09b8\u09cd\u0995","name:bo":"\u0f4f\u0f74\u0f62\u0f40\u0f72\u0f0d","name:ml":"\u0d24\u0d41\u0d7c\u0d15\u0d4d\u0d15\u0d3f","name:no":"Tyrkia","name:sw":"Uturuki","name:be":"\u0422\u0443\u0440\u0446\u044b\u044f","name:bg":"\u0422\u0443\u0440\u0446\u0438\u044f","name:sr":"\u0422\u0443\u0440\u0441\u043a\u0430","name:sq":"Turqi","name:ga":"An Tuirc","name:gd":"An Tuirc","name:gl":"Turqu\u00eda","name:yo":"Or\u00edl\u1eb9\u0301\u00e8de T\u1ecd\u1ecdki","name:ak":"T\u025b\u025bki"},"coordinates":[1711,260]},{"type":"Point","properties":{"kind":"region","name:en":"Tokat","name":"Tokat \u0130li","name:tr":"Tokat","kind_detail":"province","source":"openstreetmap.org","min_zoom":4.0,"name:uk":"\u0422\u043e\u043a\u0430\u0442","name:ru":"\u0422\u043e\u043a\u0430\u0442","id":2894839376},"coordinates":[4084,2858]},{"type":"Point","properties":{"kind":"region","name":"Amasya","kind_detail":"province","source":"openstreetmap.org","min_zoom":4.0,"name:uk":"\u0410\u043c\u0430\u0441\u044c\u044f","name:ru":"\u0410\u043c\u0430\u0441\u044c\u044f","id":1752934108},"coordinates":[2946,3483]},{"type":"Point","properties":{"kind":"region","name":"Yozgat","kind_detail":"province","source":"openstreetmap.org","min_zoom":4.0,"name:uk":"\u0419\u043e\u0437\u0433\u0430\u0442","name:ru":"\u0419\u043e\u0437\u0433\u0430\u0442","id":2952091624},"coordinates":[2069,1695]},{"type":"Point","properties":{"name:el":"\u03a4\u03c3\u03bf\u03c1\u03bf\u03cd\u03bc","kind":"region","name":"\u00c7orum","name:ka":"\u10e9\u10dd\u10e0\u10e3\u10db\u10d8\u10e1 \u10de\u10e0\u10dd\u10d5\u10d8\u10dc\u10ea\u10d8\u10d0","name:fa":"\u0627\u0633\u062a\u0627\u0646 \u0686\u0648\u0631\u0648\u0645","kind_detail":"province","source":"openstreetmap.org","min_zoom":4.0,"name:uk":"\u0427\u043e\u0440\u0443\u043c","name:hy":"\u0549\u0578\u0580\u0578\u0582\u0574","name:ru":"\u0427\u043e\u0440\u0443\u043c","name:zh":"\u4e54\u9c81\u59c6\u7701","id":4954410573},"coordinates":[1423,3317]},{"type":"Point","properties":{"kind":"region","name":"K\u0131r\u015fehir","kind_detail":"province","source":"openstreetmap.org","min_zoom":4.0,"name:uk":"\u041a\u0438\u0440\u0448\u0435\u0445\u0456\u0440","name:ru":"\u041a\u044b\u0440\u0448\u0435\u0445\u0438\u0440","id":2978689328},"coordinates":[548,964]},{"type":"Point","properties":{"kind":"region","name":"K\u0131r\u0131kkale","kind_detail":"province","source":"openstreetmap.org","min_zoom":4.0,"name:uk":"\u041a\u0438\u0440\u0438\u043a\u043a\u0430\u043b\u0435","name:ru":"\u041a\u044b\u0440\u044b\u043a\u043a\u0430\u043b\u0435","id":3042002359},"coordinates":[113,2019]},{"type":"Point","properties":{"source":"naturalearthdata.com","kind":"locality","name":"Amasya","population":82896,"region_capital":true,"min_zoom":7.0,"id":2416},"coordinates":[3034,3477]}]},"transit":{"type":"GeometryCollection","geometries":[{"type":"LineString","properties":{"kind":"train","name":"Ankara - Sivas H\u0131zl\u0131 Tren Hatt\u0131","sort_rank":275,"source":"openstreetmap.org","min_zoom":6.0,"operator":"DDY","id":-7001049,"osm_relation":true},"arcs":[58]}]},"pois":{"type":"GeometryCollection","geometries":[]},"boundaries":{"type":"GeometryCollection","geometries":[{"type":"LineString","properties":{"source":"naturalearthdata.com","kind":"region","name":"Samsun - Tokat","sort_rank":256,"kind_detail":"4","min_zoom":6.0,"id":1466},"arcs":[0]},{"type":"MultiLineString","properties":{"source":"naturalearthdata.com","kind":"region","name":"Samsun - Amasya","sort_rank":256,"kind_detail":"4","min_zoom":6.0,"id":1467},"arcs":[[1],[2],[3],[4],[5]]},{"type":"MultiLineString","properties":{"source":"naturalearthdata.com","kind":"region","name":"Amasya - Tokat","sort_rank":256,"kind_detail":"4","min_zoom":6.0,"id":5998},"arcs":[[6],[7],[8],[9],[10]]},{"type":"LineString","properties":{"source":"naturalearthdata.com","kind":"region","name":"\u00c7ankiri - \u00c7orum","sort_rank":256,"kind_detail":"4","min_zoom":6.0,"id":5999},"arcs":[11]},{"type":"LineString","properties":{"source":"naturalearthdata.com","kind":"region","name":"\u00c7orum - Amasya","sort_rank":256,"kind_detail":"4","min_zoom":6.0,"id":6000},"arcs":[12]},{"type":"LineString","properties":{"source":"naturalearthdata.com","kind":"region","name":"Tokat - Sivas","sort_rank":256,"kind_detail":"4","min_zoom":6.0,"id":6009},"arcs":[13]},{"type":"MultiLineString","properties":{"source":"naturalearthdata.com","kind":"region","name":"Sivas - Kayseri","sort_rank":256,"kind_detail":"4","min_zoom":6.0,"id":6010},"arcs":[[14],[15],[16],[17]]},{"type":"LineString","properties":{"source":"naturalearthdata.com","kind":"region","name":"Aksaray - Ankara","sort_rank":256,"kind_detail":"4","min_zoom":6.0,"id":6013},"arcs":[18]},{"type":"LineString","properties":{"source":"naturalearthdata.com","kind":"region","name":"Kayseri - Nevsehir","sort_rank":256,"kind_detail":"4","min_zoom":6.0,"id":6017},"arcs":[19]},{"type":"LineString","properties":{"source":"naturalearthdata.com","kind":"region","name":"Nevsehir - Aksaray","sort_rank":256,"kind_detail":"4","min_zoom":6.0,"id":6018},"arcs":[20]},{"type":"MultiLineString","properties":{"source":"naturalearthdata.com","kind":"region","name":"Tokat - Yozgat","sort_rank":256,"kind_detail":"4","min_zoom":6.0,"id":6019},"arcs":[[21],[22],[23],[24],[25]]},{"type":"MultiLineString","properties":{"source":"naturalearthdata.com","kind":"region","name":"Yozgat - Amasya","sort_rank":256,"kind_detail":"4","min_zoom":6.0,"id":6020},"arcs":[[26],[27],[28]]},{"type":"MultiLineString","properties":{"source":"naturalearthdata.com","kind":"region","name":"Yozgat - \u00c7orum","sort_rank":256,"kind_detail":"4","min_zoom":6.0,"id":6021},"arcs":[[29],[30],[31],[32],[33],[34],[35]]},{"type":"MultiLineString","properties":{"source":"naturalearthdata.com","kind":"region","name":"Yozgat - Kayseri","sort_rank":256,"kind_detail":"4","min_zoom":6.0,"id":6022},"arcs":[[36],[37]]},{"type":"LineString","properties":{"source":"naturalearthdata.com","kind":"region","name":"Sivas - Yozgat","sort_rank":256,"kind_detail":"4","min_zoom":6.0,"id":6023},"arcs":[38]},{"type":"LineString","properties":{"source":"naturalearthdata.com","kind":"region","name":"Nevsehir - Yozgat","sort_rank":256,"kind_detail":"4","min_zoom":6.0,"id":6024},"arcs":[39]},{"type":"LineString","properties":{"source":"naturalearthdata.com","kind":"region","name":"Kirsehir - Ankara","sort_rank":256,"kind_detail":"4","min_zoom":6.0,"id":6025},"arcs":[40]},{"type":"MultiLineString","properties":{"source":"naturalearthdata.com","kind":"region","name":"Kirsehir - Aksaray","sort_rank":256,"kind_detail":"4","min_zoom":6.0,"id":6026},"arcs":[[41],[42],[43],[44],[45],[46]]},{"type":"MultiLineString","properties":{"source":"naturalearthdata.com","kind":"region","name":"Kirsehir - Nevsehir","sort_rank":256,"kind_detail":"4","min_zoom":6.0,"id":6027},"arcs":[[47],[48],[49],[50]]},{"type":"LineString","properties":{"source":"naturalearthdata.com","kind":"region","name":"Kirsehir - Yozgat","sort_rank":256,"kind_detail":"4","min_zoom":6.0,"id":6028},"arcs":[51]},{"type":"LineString","properties":{"source":"naturalearthdata.com","kind":"region","name":"\u00c7ankiri - Kinkkale","sort_rank":256,"kind_detail":"4","min_zoom":6.0,"id":6042},"arcs":[52]},{"type":"LineString","properties":{"source":"naturalearthdata.com","kind":"region","name":"Kinkkale - \u00c7orum","sort_rank":256,"kind_detail":"4","min_zoom":6.0,"id":6043},"arcs":[53]},{"type":"LineString","properties":{"source":"naturalearthdata.com","kind":"region","name":"Yozgat - Kinkkale","sort_rank":256,"kind_detail":"4","min_zoom":6.0,"id":6044},"arcs":[54]},{"type":"LineString","properties":{"source":"naturalearthdata.com","kind":"region","name":"Kirsehir - Kinkkale","sort_rank":256,"kind_detail":"4","min_zoom":6.0,"id":6045},"arcs":[55]},{"type":"LineString","properties":{"source":"naturalearthdata.com","kind":"region","name":"Kastamonu - \u00c7ankiri","sort_rank":256,"kind_detail":"4","min_zoom":6.0,"id":6161},"arcs":[56]},{"type":"LineString","properties":{"source":"naturalearthdata.com","kind":"region","name":"\u00c7orum - Kastamonu","sort_rank":256,"kind_detail":"4","min_zoom":6.0,"id":6162},"arcs":[57]}]},"roads":{"type":"GeometryCollection","geometries":[{"type":"LineString","properties":{"source":"naturalearthdata.com","kind":"minor_road","sort_rank":355,"kind_detail":"tertiary","min_zoom":6.0,"id":19403},"arcs":[59]},{"type":"LineString","properties":{"source":"naturalearthdata.com","kind":"major_road","sort_rank":379,"kind_detail":"secondary","min_zoom":3.0,"id":19404},"arcs":[60]},{"type":"LineString","properties":{"source":"naturalearthdata.com","kind":"major_road","kind_detail":"secondary","sort_rank":379,"landuse_kind":"urban_area","min_zoom":4.0,"id":19407},"arcs":[61]},{"type":"MultiLineString","properties":{"source":"naturalearthdata.com","kind":"major_road","sort_rank":379,"kind_detail":"secondary","min_zoom":4.0,"id":19407},"arcs":[[62],[63]]},{"type":"LineString","properties":{"source":"naturalearthdata.com","kind":"major_road","sort_rank":379,"kind_detail":"secondary","min_zoom":4.0,"id":19447},"arcs":[64]},{"type":"LineString","properties":{"source":"naturalearthdata.com","kind":"major_road","sort_rank":379,"kind_detail":"secondary","min_zoom":3.0,"id":19462},"arcs":[65]},{"type":"LineString","properties":{"source":"naturalearthdata.com","kind":"major_road","sort_rank":379,"kind_detail":"secondary","min_zoom":3.0,"id":19472},"arcs":[66]},{"type":"MultiLineString","properties":{"source":"naturalearthdata.com","kind":"major_road","sort_rank":379,"kind_detail":"secondary","min_zoom":4.0,"id":19477},"arcs":[[67],[68]]},{"type":"LineString","properties":{"source":"naturalearthdata.com","kind":"major_road","kind_detail":"secondary","sort_rank":379,"landuse_kind":"urban_area","min_zoom":4.0,"id":19649},"arcs":[69]},{"type":"LineString","properties":{"source":"naturalearthdata.com","kind":"major_road","sort_rank":379,"kind_detail":"secondary","min_zoom":4.0,"id":19649},"arcs":[70]},{"type":"LineString","properties":{"source":"naturalearthdata.com","kind":"major_road","kind_detail":"secondary","sort_rank":379,"landuse_kind":"urban_area","min_zoom":4.0,"id":19650},"arcs":[71]},{"type":"LineString","properties":{"source":"naturalearthdata.com","kind":"major_road","sort_rank":379,"kind_detail":"secondary","min_zoom":4.0,"id":19650},"arcs":[72]},{"type":"LineString","properties":{"source":"naturalearthdata.com","kind":"major_road","kind_detail":"secondary","sort_rank":379,"landuse_kind":"urban_area","min_zoom":4.0,"id":19686},"arcs":[73]},{"type":"LineString","properties":{"source":"naturalearthdata.com","kind":"major_road","sort_rank":379,"kind_detail":"secondary","min_zoom":4.0,"id":19686},"arcs":[74]},{"type":"LineString","properties":{"source":"naturalearthdata.com","kind":"major_road","sort_rank":379,"kind_detail":"secondary","min_zoom":3.0,"id":19697},"arcs":[75]},{"type":"LineString","properties":{"source":"naturalearthdata.com","kind":"major_road","kind_detail":"secondary","sort_rank":379,"landuse_kind":"urban_area","min_zoom":3.0,"id":19754},"arcs":[76]},{"type":"LineString","properties":{"source":"naturalearthdata.com","kind":"major_road","sort_rank":379,"kind_detail":"secondary","min_zoom":3.0,"id":19754},"arcs":[77]},{"type":"LineString","properties":{"source":"naturalearthdata.com","kind":"major_road","kind_detail":"secondary","sort_rank":379,"landuse_kind":"urban_area","min_zoom":4.0,"id":19757},"arcs":[78]},{"type":"LineString","properties":{"source":"naturalearthdata.com","kind":"major_road","sort_rank":379,"kind_detail":"secondary","min_zoom":4.0,"id":19757},"arcs":[79]},{"type":"LineString","properties":{"source":"naturalearthdata.com","kind":"major_road","kind_detail":"secondary","sort_rank":379,"landuse_kind":"urban_area","min_zoom":3.0,"id":19848},"arcs":[80]},{"type":"LineString","properties":{"source":"naturalearthdata.com","kind":"major_road","sort_rank":379,"kind_detail":"secondary","min_zoom":3.0,"id":19848},"arcs":[81]},{"type":"LineString","properties":{"source":"naturalearthdata.com","kind":"major_road","kind_detail":"secondary","sort_rank":379,"landuse_kind":"urban_area","min_zoom":4.0,"id":19895},"arcs":[82]},{"type":"LineString","properties":{"source":"naturalearthdata.com","kind":"major_road","sort_rank":379,"kind_detail":"secondary","min_zoom":4.0,"id":19895},"arcs":[83]},{"type":"LineString","properties":{"source":"naturalearthdata.com","kind":"major_road","kind_detail":"secondary","sort_rank":379,"landuse_kind":"urban_area","min_zoom":4.0,"id":19950},"arcs":[84]},{"type":"LineString","properties":{"source":"naturalearthdata.com","kind":"major_road","sort_rank":379,"kind_detail":"secondary","min_zoom":4.0,"id":19950},"arcs":[85]},{"type":"LineString","properties":{"source":"naturalearthdata.com","kind":"minor_road","kind_detail":"tertiary","sort_rank":355,"landuse_kind":"urban_area","min_zoom":6.0,"id":20058},"arcs":[86]},{"type":"MultiLineString","properties":{"source":"naturalearthdata.com","kind":"minor_road","sort_rank":355,"kind_detail":"tertiary","min_zoom":6.0,"id":20058},"arcs":[[87],[88]]},{"type":"LineString","properties":{"source":"naturalearthdata.com","kind":"minor_road","kind_detail":"tertiary","sort_rank":355,"landuse_kind":"urban_area","min_zoom":6.0,"id":20151},"arcs":[89]},{"type":"MultiLineString","properties":{"source":"naturalearthdata.com","kind":"minor_road","sort_rank":355,"kind_detail":"tertiary","min_zoom":6.0,"id":20151},"arcs":[[90],[91]]},{"type":"LineString","properties":{"source":"naturalearthdata.com","kind":"major_road","sort_rank":379,"kind_detail":"secondary","min_zoom":3.0,"id":20300},"arcs":[92]},{"type":"LineString","properties":{"source":"naturalearthdata.com","kind":"major_road","sort_rank":379,"kind_detail":"secondary","min_zoom":4.0,"id":20333},"arcs":[93]},{"type":"LineString","properties":{"source":"naturalearthdata.com","kind":"major_road","sort_rank":379,"kind_detail":"secondary","min_zoom":3.0,"id":20344},"arcs":[94]},{"type":"LineString","properties":{"source":"naturalearthdata.com","kind":"minor_road","sort_rank":355,"kind_detail":"tertiary","min_zoom":6.0,"id":20413},"arcs":[95]},{"type":"LineString","properties":{"source":"naturalearthdata.com","kind":"major_road","sort_rank":379,"kind_detail":"secondary","min_zoom":4.0,"id":20414},"arcs":[96]},{"type":"LineString","properties":{"source":"naturalearthdata.com","kind":"major_road","sort_rank":379,"kind_detail":"secondary","min_zoom":4.0,"id":20519},"arcs":[97]},{"type":"LineString","properties":{"source":"naturalearthdata.com","kind":"major_road","sort_rank":379,"kind_detail":"secondary","min_zoom":4.0,"id":20522},"arcs":[98]},{"type":"LineString","properties":{"source":"naturalearthdata.com","kind":"major_road","sort_rank":379,"kind_detail":"secondary","min_zoom":4.0,"id":20523},"arcs":[99]},{"type":"LineString","properties":{"source":"naturalearthdata.com","kind":"minor_road","sort_rank":355,"kind_detail":"tertiary","min_zoom":6.0,"id":20635},"arcs":[100]},{"type":"LineString","properties":{"source":"naturalearthdata.com","kind":"major_road","sort_rank":379,"kind_detail":"secondary","min_zoom":4.0,"id":20731},"arcs":[101]},{"type":"LineString","properties":{"source":"naturalearthdata.com","kind":"major_road","sort_rank":379,"kind_detail":"secondary","min_zoom":4.0,"id":20742},"arcs":[102]},{"type":"LineString","properties":{"source":"naturalearthdata.com","kind":"major_road","sort_rank":379,"kind_detail":"secondary","min_zoom":4.0,"id":20770},"arcs":[103]},{"type":"LineString","properties":{"source":"naturalearthdata.com","kind":"major_road","sort_rank":379,"kind_detail":"secondary","min_zoom":4.0,"id":20819},"arcs":[104]},{"type":"LineString","properties":{"source":"naturalearthdata.com","kind":"minor_road","sort_rank":355,"kind_detail":"tertiary","min_zoom":6.0,"id":20839},"arcs":[105]},{"type":"LineString","properties":{"source":"naturalearthdata.com","kind":"major_road","sort_rank":379,"kind_detail":"secondary","min_zoom":4.0,"id":20851},"arcs":[106]},{"type":"LineString","properties":{"source":"naturalearthdata.com","kind":"major_road","sort_rank":379,"kind_detail":"secondary","min_zoom":4.0,"id":20928},"arcs":[107]},{"type":"LineString","properties":{"source":"naturalearthdata.com","kind":"minor_road","sort_rank":355,"kind_detail":"tertiary","min_zoom":6.0,"id":21012},"arcs":[108]},{"type":"LineString","properties":{"source":"naturalearthdata.com","kind":"major_road","sort_rank":379,"kind_detail":"secondary","min_zoom":4.0,"id":21013},"arcs":[109]},{"type":"LineString","properties":{"source":"naturalearthdata.com","kind":"major_road","sort_rank":379,"kind_detail":"secondary","min_zoom":4.0,"id":21056},"arcs":[110]},{"type":"LineString","properties":{"source":"naturalearthdata.com","kind":"major_road","sort_rank":379,"kind_detail":"secondary","min_zoom":4.0,"id":21117},"arcs":[111]},{"type":"LineString","properties":{"source":"naturalearthdata.com","kind":"highway","sort_rank":383,"kind_detail":"motorway","min_zoom":4.0,"id":21139},"arcs":[112]},{"type":"LineString","properties":{"source":"naturalearthdata.com","kind":"minor_road","sort_rank":355,"kind_detail":"tertiary","min_zoom":6.0,"id":21155},"arcs":[113]},{"type":"LineString","properties":{"source":"naturalearthdata.com","kind":"major_road","sort_rank":379,"kind_detail":"secondary","min_zoom":4.0,"id":21189},"arcs":[114]},{"type":"LineString","properties":{"source":"naturalearthdata.com","kind":"major_road","kind_detail":"secondary","sort_rank":379,"landuse_kind":"urban_area","min_zoom":4.0,"id":48468},"arcs":[115]},{"type":"LineString","properties":{"source":"naturalearthdata.com","kind":"major_road","sort_rank":379,"kind_detail":"secondary","min_zoom":4.0,"id":48468},"arcs":[116]},{"type":"LineString","properties":{"source":"naturalearthdata.com","kind":"major_road","kind_detail":"secondary","sort_rank":379,"landuse_kind":"urban_area","min_zoom":4.0,"id":48469},"arcs":[117]},{"type":"LineString","properties":{"source":"naturalearthdata.com","kind":"major_road","sort_rank":379,"kind_detail":"secondary","min_zoom":4.0,"id":48469},"arcs":[118]}]},"earth":{"type":"GeometryCollection","geometries":[{"type":"Polygon","properties":{"sort_rank":10,"source":"naturalearthdata.com","min_zoom":0.0,"kind":"earth","area":387809480543},"arcs":[[119]]}]},"landuse":{"type":"GeometryCollection","geometries":[{"type":"MultiPolygon","properties":{"source":"openstreetmap.org","kind":"nature_reserve","tier":2,"area":371547489,"sort_rank":23,"min_zoom":6.0,"osm_relation":true},"arcs":[[[120]]]},{"type":"MultiPolygon","properties":{"source":"naturalearthdata.com","kind":"urban_area","name":"","area":4254922016,"sort_rank":11,"min_zoom":4.0},"arcs":[[[121]],[[122]],[[123]],[[124]],[[125]],[[126]],[[127]],[[128]],[[129]],[[130]]]}]}},"type":"Topology","transform":{"translate":[33.75,38.8225909762],"scale":[0.0006866455,0.0005266863]},"arcs":[[[3922,3888],[160,38],[14,6]],[[2628,4096],[123,-93],[50,-85],[48,-14]],[[3713,4096],[11,-12],[18,-44],[23,-40],[157,-112]],[[3323,3844],[61,15],[52,45],[66,43],[45,77],[21,72]],[[2960,3912],[56,-11],[193,-3],[114,-54]],[[2849,3904],[111,8]],[[3881,3853],[0,13],[41,22]],[[3475,3078],[89,42],[121,80],[21,19],[12,5],[11,7],[9,96],[117,25],[65,91],[1,71],[24,62],[51,75],[-30,75],[-24,10],[-23,17],[-29,29],[-16,32],[18,26],[0,13]],[[3892,3853],[-11,0]],[[3168,3205],[117,-32],[37,-31],[41,-22],[32,-8],[29,-14],[25,-19],[26,-1]],[[2563,2594],[57,121],[43,47],[79,33],[27,7],[51,23],[43,50],[38,55],[43,76],[65,143],[38,46],[121,10]],[[312,2740],[115,65],[30,7],[26,12],[42,72],[34,79],[20,14],[4,50],[-11,48],[-16,50],[-22,47],[-37,60],[-18,71],[4,68],[-10,66],[-35,71],[-10,81],[31,75],[17,75],[-72,119]],[[2297,2680],[17,130],[0,50],[14,44],[125,191],[34,138],[0,70],[-37,86],[-24,10],[-50,10],[-109,65],[-243,41],[-45,29],[-40,68],[-59,126],[-14,51],[22,124],[4,183]],[[3406,2091],[340,68],[241,12],[109,42]],[[3014,972],[77,-6],[71,-36],[13,-18],[19,-41],[12,-15],[47,-19],[48,-8],[138,-102],[144,-19]],[[3694,748],[241,-35],[72,-56],[73,-26]],[[3583,708],[111,40]],[[4080,631],[16,6]],[[262,339],[-48,-126],[58,-160],[-3,-53]],[[1861,415],[-20,-35],[-15,-40],[-4,-46],[0,-46],[-29,-102],[-41,-98],[24,-48]],[[707,198],[-15,-77],[33,-121]],[[2563,2594],[100,-113],[115,-81]],[[3286,2453],[60,-60],[-10,-107],[-2,-74],[29,-54],[27,-26],[16,-41]],[[3028,2388],[68,6],[68,14],[61,27],[61,18]],[[2913,2412],[115,-24]],[[2778,2400],[135,12]],[[2415,2610],[-66,6],[-27,20],[-12,38],[-13,6]],[[2563,2594],[-72,22]],[[2491,2616],[-76,-6]],[[2297,2680],[-58,-22],[-140,-10],[-15,-85],[19,-22],[-6,-32],[-14,-42],[-3,-37],[-40,-51],[-114,-69],[-67,-8]],[[1859,2302],[-124,36]],[[1735,2338],[-218,-107],[-118,-6]],[[1255,2197],[-223,40]],[[1032,2237],[-142,-47],[-139,-63],[-228,-27],[-82,-40]],[[1399,2225],[-58,6]],[[1341,2231],[-86,-34]],[[2192,362],[163,106],[65,22],[472,310],[122,172]],[[1861,415],[331,-53]],[[3406,2091],[41,-139],[70,-126],[52,-28],[14,-41],[4,-45],[-43,-155],[-106,-106],[-126,-98],[-50,-62],[-45,-70],[-35,-72],[-46,-62],[-67,-49],[-55,-66]],[[1861,415],[-19,47],[-22,46],[-13,40],[-5,43],[13,45],[-33,57],[-117,74],[-18,76],[-29,57],[-46,25],[-38,46],[-13,36],[-6,41],[-10,24],[-43,19],[-24,6]],[[0,519],[8,-13],[30,-22],[77,-6],[47,-21],[20,-20],[91,-34],[-11,-64]],[[262,339],[20,-30],[61,-11]],[[374,300],[57,-26],[21,-76],[57,-51]],[[343,298],[31,2]],[[613,201],[63,-11]],[[509,147],[73,43],[31,11]],[[676,190],[31,8]],[[1261,1105],[94,-23]],[[868,58],[59,16],[-6,44],[-17,83],[32,102],[176,75],[79,49],[90,42],[61,78],[-33,74],[-43,76],[19,124],[-17,98],[-31,56],[-13,68],[7,43],[30,19]],[[1355,1082],[83,15]],[[707,198],[161,-140]],[[1438,1097],[-38,88],[-63,56],[-74,12],[-63,43],[-201,249],[-19,39],[-13,44],[-28,39],[-114,2],[-67,23],[-74,83],[-76,71],[-79,1],[-30,27],[-28,31]],[[0,2808],[176,-55],[136,-13]],[[441,2060],[-3,97],[39,79],[29,46],[6,62],[-20,55],[-1,22],[-4,22],[-27,29],[-35,5],[-37,37],[-60,135],[-16,91]],[[441,2060],[13,-37],[7,-40],[-5,-40],[15,-38]],[[471,1905],[-234,-226],[-66,-195],[-100,-159],[-71,-58]],[[52,4096],[-4,-12],[55,-92],[86,-30],[45,-43],[49,-34],[60,-13],[61,-2]],[[753,4096],[19,-20],[-34,-95],[-207,-85],[-127,-26]],[[4096,1962],[-305,-33]],[[2798,4086],[-17,10]],[[2798,4086],[42,0],[48,8],[5,2]],[[1545,4096],[-31,-17]],[[1514,4079],[-1,-1],[-48,16],[-37,0],[-24,-8],[-42,-8],[-42,16],[-2,2]],[[1681,4086],[-36,0],[-35,10]],[[373,4096],[-20,-26],[-96,-8],[-36,-15],[-54,0],[-48,-16],[-42,-31],[-66,-24],[-11,-5]],[[2732,3906],[0,39],[12,31],[42,24],[0,70],[12,16]],[[2504,3882],[0,16],[90,0],[24,16],[114,-8]],[[2504,3882],[-30,8],[-42,-16],[-30,8],[-229,16],[-48,16],[-36,31],[-42,55],[-12,23],[-18,16],[-36,0],[-36,47],[-23,10]],[[1732,4096],[-27,-10],[-24,0]],[[3138,3529],[-94,-30]],[[3675,3718],[-30,-32],[-30,-7],[-24,-24],[-42,-16],[-30,16],[-24,31],[-18,8],[-30,-15],[-48,7],[-66,0],[-42,-15],[-37,-16],[-24,-31],[-42,-63],[-24,-23],[-26,-9]],[[3044,3499],[-30,70],[-12,26]],[[3002,3595],[-6,13],[-96,47],[-42,31],[-54,55],[-54,47],[-18,39],[6,47],[-6,32]],[[3044,3499],[-12,-32],[-10,-6]],[[3022,3461],[-14,-9],[6,-24]],[[1933,3397],[60,39],[48,16],[54,39],[78,31],[60,31],[48,8],[66,31],[31,24],[24,31],[24,39],[18,24],[18,47],[42,125]],[[1765,3271],[48,47],[24,8],[34,26]],[[1871,3352],[8,6],[54,39]],[[4004,3576],[19,-15],[36,-16],[30,-23],[7,-1]],[[3675,3718],[18,-8],[54,-8],[12,-8],[30,-47],[18,-15],[42,-24],[90,0],[18,-16],[36,-7],[11,-9]],[[1747,3257],[18,14]],[[1549,3076],[54,47],[30,7],[60,55],[18,47],[24,16],[12,9]],[[3461,3109],[-2,-2],[30,-24],[0,-39],[-12,-15],[-72,-63]],[[3014,3428],[0,-23],[-12,-55],[-24,-32],[0,-7],[78,0],[60,7],[72,-7],[139,0],[66,7],[42,8],[48,0],[0,-31],[24,-39],[-12,-32],[-6,-31],[12,-47],[-40,-37]],[[3405,2966],[29,-14]],[[3434,2952],[37,-17],[54,-63],[72,-8],[66,-39],[30,-8],[84,39],[36,0],[30,-7],[42,-8]],[[1593,2561],[-8,29],[-24,31],[-2,4]],[[1559,2625],[-28,51],[6,63],[-6,55],[18,47],[18,15],[-24,32],[-6,94],[12,94]],[[1597,2551],[-4,10]],[[1611,2554],[4,1]],[[1597,2551],[14,3]],[[1615,2555],[54,12],[66,0],[78,15],[72,-15],[18,0],[48,15],[54,8],[60,0],[24,-16],[48,-7],[36,-16],[60,-8],[54,16],[85,-8],[42,-24],[24,-31],[36,-31],[18,-39],[24,-16],[24,-39],[42,-39]],[[353,2065],[12,8],[42,63],[30,63],[6,31],[24,47],[18,70],[24,16],[49,24],[102,78],[24,15],[36,16],[36,-8],[54,24],[18,15],[72,16],[42,39],[66,8],[12,0],[36,47],[84,47],[42,47],[30,16],[54,8],[72,62],[48,24],[36,39],[12,23],[6,87],[19,39],[24,15],[42,16],[24,16]],[[4096,2035],[-13,15],[-18,31],[-30,94],[-24,55],[-6,55],[-30,117],[12,94],[0,110],[12,31],[18,8],[30,31],[18,0]],[[353,2065],[-24,0],[-12,32],[-24,23],[-30,0],[-24,16],[-54,-8],[-84,8],[-42,-31],[-59,-56]],[[2582,2332],[-12,-32],[-24,-15],[-48,-8],[-48,-55],[-36,-23],[-54,0],[-55,-32],[-18,-15],[-30,-47],[-18,-134],[-18,-39],[-54,-62],[0,-32]],[[2167,1838],[-48,40],[-24,7],[-78,8],[-12,8],[-96,0],[-72,24],[-60,31],[-60,15]],[[1122,1596],[-66,54],[-60,16],[-42,24],[-78,31],[-90,8],[-24,8],[-36,39],[-48,78],[-24,24],[-96,0],[-31,15],[-18,24],[-24,78],[-42,31],[-42,8],[-48,31]],[[1717,1971],[-36,0],[-24,-7],[-48,-39],[-18,-8],[-54,-8],[-12,-8],[-30,-31],[-24,-71],[-43,-62],[-42,-47],[-48,-32],[-60,8],[-36,-8],[-42,-31],[-30,-39],[-48,8]],[[4096,1948],[-1,0],[-30,-8],[-90,-8],[-48,0],[-108,-15],[-48,-16],[-60,-8],[-72,0],[-18,0],[-60,-31],[-30,8],[-90,15],[-42,0],[-48,-7],[-30,-8],[-36,-32],[-49,-7],[-42,-8],[-36,-32],[-18,-54],[-36,-32],[-30,-86],[-30,-23],[-18,-8],[-42,31],[-6,24],[-54,7],[-126,16],[-78,-23],[-6,0],[-78,-24],[-42,-16],[-24,0],[-54,24],[-66,0],[-18,31],[-30,16],[-61,16],[-42,15],[-36,24],[-36,55],[-60,54]],[[2167,1838],[-24,-86],[0,-23],[18,-63],[0,-110],[24,-54],[54,-63],[18,-47],[18,-23],[42,-8],[36,-39],[0,-47]],[[3873,1000],[78,24],[72,78],[18,16],[24,31],[30,16],[1,0]],[[0,1036],[23,4],[54,0],[36,15],[102,-8],[36,-23],[60,-16],[42,-31],[48,-8]],[[401,969],[54,-16],[48,-31],[24,-31]],[[3417,750],[42,31],[48,24],[36,31],[12,24],[36,23],[72,16],[72,31],[138,70]],[[2353,1275],[7,-118],[-7,-39],[-36,-71],[-18,-54],[6,-79],[-36,-70],[0,-47],[-66,-71],[-30,-31]],[[527,891],[0,-24],[19,-70],[30,-24],[24,-117],[6,-24]],[[606,632],[12,-31],[102,-78],[48,-32],[54,-23],[36,-8],[18,0],[66,0],[96,-23],[54,0]],[[2173,695],[-30,-39],[-18,-78],[-36,-47],[-48,-24],[-36,-23],[-42,-79],[-6,-31],[-18,-24],[6,-31],[18,-23],[-6,-55],[-18,-63]],[[1092,437],[36,-8],[78,-24],[36,-15],[108,-47],[60,-8],[79,23],[60,0],[24,-8],[18,-15],[54,-24],[120,-7],[30,-8],[54,-39],[36,-16],[54,-63]],[[2876,100],[48,47],[54,31],[90,71],[72,70],[36,47],[36,39],[73,63],[90,70],[24,40],[0,31],[-12,70],[6,32],[24,39]],[[1939,178],[48,-31],[60,-31],[24,-16],[6,-47],[-12,-24],[11,-29]],[[2876,100],[-60,-39],[-24,-55],[-6,-6]],[[4091,0],[5,7]],[[2876,100],[48,-31],[114,-8],[78,0],[18,-16],[38,-45]],[[3956,2857],[55,7],[72,-15]],[[3885,2841],[66,15],[5,1]],[[4087,2808],[-4,41]],[[4065,2676],[6,8],[18,86],[-2,38]],[[0,0],[0,4096],[4096,0],[0,-4096],[-4096,0]],[[855,711],[10,78],[49,26],[49,-31],[63,-1],[87,-95],[-86,-78],[-172,101]],[[1615,2552],[-97,42],[14,34],[99,-12],[-16,-64]],[[3506,3081],[2,-65],[-97,-84],[-33,21],[-24,-13],[-26,48],[-47,7],[33,64],[64,0],[16,63],[114,-21],[-2,-20]],[[1873,3358],[-16,-46],[-107,-58],[-103,79],[40,39],[9,-18],[32,21],[16,63],[47,7],[68,-30],[14,-57]],[[3089,3624],[52,-69],[-5,-53],[-114,-43],[0,21],[-32,1],[-16,105],[115,38]],[[1091,3660],[-10,-32],[-23,2],[-58,19],[-4,37],[36,48],[59,-74]],[[2552,4008],[1,-85],[-153,-9],[-9,52],[81,21],[0,21],[65,-21],[0,42],[15,-21]],[[1520,4075],[-37,21],[76,0],[-9,-4],[-30,-17]],[[4096,3667],[0,-151],[-103,49],[97,106],[6,-4]],[[3168,2890],[-32,-85],[-49,0],[-16,42],[-51,-23],[-14,24],[-1,40],[82,2],[0,21],[81,-21]],[[4096,2995],[0,-178],[-6,-12],[-65,42],[-91,13],[-16,51],[75,42],[0,63],[20,5],[45,-26],[38,0]]]}