{"objects":{"water":{"type":"GeometryCollection","geometries":[{"type":"Polygon","properties":{"source":"naturalearthdata.com","kind":"ocean","area":1576712559132672,"sort_rank":200,"min_zoom":0.0,"id":1},"arcs":[[233]]},{"type":"Polygon","properties":{"source":"naturalearthdata.com","kind":"lake","name":"Sea of Galilee","area":227224112,"sort_rank":200,"min_zoom":0.0,"id":578},"arcs":[[234]]},{"type":"Point","properties":{"label_placement":true,"kind":"lake","name":"Sea of Galilee","area":227224112,"sort_rank":200,"source":"naturalearthdata.com","min_zoom":0.0,"id":578},"coordinates":[2670,1482]},{"type":"LineString","properties":{"source":"naturalearthdata.com","kind":"ocean","sort_rank":205,"boundary":true,"min_zoom":0.0,"id":52},"arcs":[235]},{"type":"LineString","properties":{"source":"naturalearthdata.com","kind":"ocean","sort_rank":205,"boundary":true,"min_zoom":0.0,"id":54},"arcs":[236]},{"type":"LineString","properties":{"source":"naturalearthdata.com","kind":"lake","sort_rank":367,"boundary":true,"min_zoom":0.0,"id":578},"arcs":[237]},{"type":"Point","properties":{"label_placement":true,"kind":"sea","name":"Levantine Sea","source":"openstreetmap.org","sort_rank":200,"min_zoom":3.0,"id":4807012221},"coordinates":[437,3649]}]},"buildings":{"type":"GeometryCollection","geometries":[]},"places":{"type":"GeometryCollection","geometries":[{"type":"Point","properties":{"name:ka":"\u10da\u10d8\u10d1\u10d0\u10dc\u10d8","name:ko":"\ub808\ubc14\ub17c","name:cv":"\u041b\u0438\u0432\u0430\u043d","name:km":"\u179b\u17b8\u1794\u1784\u17cb","name:kl":"Libanon","name:cs":"Libanon","name:ki":"Lebanoni","name:kw":"Lebnon","name:kv":"\u041b\u0438\u0432\u0430\u043d","name:ku":"Libnan","name:ti":"\u120a\u1263\u1296\u1235","name:ks":"\u0644\u066e\u06ea\u0628\u0646\u0627\u0646","name:to":"Lepanoni","name:tl":"Libano","name:ce":"\u041b\u0438\u0432\u0430\u043d","name:ta":"\u0bb2\u0bc6\u0baa\u0ba9\u0bbe\u0ba9\u0bcd","name:tg":"\u041b\u0438\u0432\u0430\u043d","name:ca":"L\u00edban","name:te":"\u0c32\u0c46\u0c2c\u0c28\u0c3e\u0c28\u0c4d","name:cy":"Libanus","name:hr":"Libanon","name:da":"Libanon","name:de":"Libanon","name:dz":"\u0f63\u0f7a\u0f0b\u0f56\u0f0b\u0f53\u0f7c\u0f53","source":"openstreetmap.org","name:kn":"\u0cb2\u0cc6\u0cac\u0ca8\u0cbe\u0ca8\u0ccd","name:dv":"\u078d\u07aa\u0784\u07aa\u0782\u07a7\u0782\u07b0","name:lv":"Lib\u0101na","name:lt":"Libanas","name:uz":"Livan","name:kk":"\u041b\u0438\u0432\u0430\u043d","name:lb":"Libanon","name:la":"Libanus","name:lg":"Lebanoni","name:uk":"\u041b\u0456\u0432\u0430\u043d","name:ug":"\u0644\u0649\u06cb\u0627\u0646","name:li":"Libanon","name:ln":"Lib\u00e1","name:lo":"\u0ec0\u0ea5\u0e9a\u0eb2\u0e99\u0ead\u0e99","name:el":"\u039b\u03af\u03b2\u03b1\u03bd\u03bf\u03c2","name:eo":"Libano","name:en":"Lebanon","name":"\u0644\u0628\u0646\u0627\u0646","name:tk":"Liwan","name:ee":"Leban\u0254n nutome","name:th":"\u0e1b\u0e23\u0e30\u0e40\u0e17\u0e28\u0e40\u0e25\u0e1a\u0e32\u0e19\u0e2d\u0e19","name:eu":"Libano","name:et":"Liibanon","name:es":"L\u00edbano","name:ia":"Libano","name:rm":"Libanon","name:rn":"Libani","name:az":"Lebanon","name:ie":"Libano","name:id":"Lebanon","name:ar":"\u0627\u0644\u062c\u0645\u0647\u0648\u0631\u064a\u0629 \u0627\u0644\u0644\u0628\u0646\u0627\u0646\u064a\u0629","name:io":"Libano","name:ak":"L\u025bban\u0254n","name:am":"\u120a\u1263\u1296\u1235","name:it":"Libano","name:an":"Liban","name:ru":"\u041b\u0438\u0432\u0430\u043d","name:rw":"Libani","name:af":"Libanon","name:zu":"i-Lebanon","name:ky":"\u041b\u0438\u0432\u0430\u043d","name:zh-yue":"\u9ece\u5df4\u5ae9","name:zh":"\u9ece\u5df4\u5ae9","name:so":"Lubnaan","name:sn":"Lebanon","name:sl":"Libanon","name:sk":"Libanon","name:ja":"\u30ec\u30d0\u30ce\u30f3","name:si":"\u0dbd\u0dd9\u0db6\u0db1\u0db1\u0dba","name:sh":"Libanon","name:sg":"Lib\u00f9aan","name:se":"Libanon","name:sa":"\u0932\u0947\u092c\u0928\u093e\u0928","name:bs":"Liban","name:bm":"Liba\u014b","name:bn":"\u09b2\u09c7\u09ac\u09be\u09a8\u09a8","name:bo":"\u0f63\u0f7a\u0f56\u0f0b\u0f53\u0f7c\u0f53\u0f0d","name:br":"Liban","name:sw":"Lebanoni","name:be":"\u041b\u0456\u0432\u0430\u043d","name:su":"Libanon","name:bg":"\u041b\u0438\u0432\u0430\u043d","name:ss":"ILibhanoni","name:ba":"\u041b\u0438\u0432\u0430\u043d","name:sq":"Liban","name:jv":"Libanon","name:pt":"L\u00edbano","name:ps":"\u0644\u06d0\u0628\u0646\u0627\u0646","name:oc":"Liban","min_zoom":2.0,"name:ro":"Liban","name:zh-min-nan":"L\u012b-pa-l\u00f9n","name:os":"\u041b\u0438\u0432\u0430\u043d","name:or":"\u0b32\u0b47\u0b2c\u0b3e\u0b28\u0b28\u0b4d","name:pl":"Liban","name:sr":"\u041b\u0438\u0431\u0430\u043d","name:pa":"\u0a32\u0a3f\u0a2c\u0a28\u0a3e\u0a28","name:tr":"L\u00fcbnan","name:hi":"\u0932\u0947\u092c\u0928\u093e\u0928","name:sv":"Libanon","name:he":"\u05dc\u05d1\u05e0\u05d5\u05df","name:ha":"Labanan","name:hy":"\u053c\u056b\u0562\u0561\u0576\u0561\u0576","name:ht":"Liban","name:hu":"Libanon","name:qu":"Libanu","population":3971000,"kind":"country","name:is":"L\u00edbanon","name:yi":"\u05dc\u05d1\u05e0\u05d5\u05df","name:yo":"Or\u00edl\u1eb9\u0301\u00e8de Lebanoni","name:mt":"Libanu","name:ms":"Lubnan","name:mr":"\u0932\u0947\u092c\u093e\u0928\u0928","name:my":"\u101c\u1000\u103a\u1018\u1014\u103d\u1014\u103a","official_name":"\u0627\u0644\u062c\u0645\u0647\u0648\u0631\u064a\u0629 \u0627\u0644\u0644\u0628\u0646\u0627\u0646\u064a\u0629","int_name":"Lebanon - \u0644\u0628\u0646\u0627\u0646","name:mg":"Libana","name:ml":"\u0d32\u0d2c\u0d28\u0d4b\u0d7a","name:vi":"Liban","name:mn":"\u041b\u0438\u0432\u0430\u043d","id":424297742,"name:mk":"\u041b\u0438\u0431\u0430\u043d","name:vo":"Liban\u00e4n","name:ff":"Libaa","name:fi":"Libanon","name:fo":"Libanon","name:fr":"Liban","name:fy":"Libanon","name:nl":"Libanon","name:nn":"Libanon","name:no":"Libanon","name:na":"Ribanon","name:nb":"Libanon","name:ne":"\u0932\u0947\u092c\u0928\u094b\u0928","name:wo":"Libaa","name:nv":"\u0141\u00edbanoo","name:ga":"An Liob\u00e1in","name:gd":"Leabanon","name:gn":"L\u00edvano","name:gl":"L\u00edbano","name:gv":"Yn Livaan","name:gu":"\u0ab2\u0ac7\u0aac\u0aa8\u0acb\u0aa8","name:tt":"\u041b\u0438\u0432\u0430\u043d"},"coordinates":[3049,3344]},{"type":"Point","properties":{"source":"naturalearthdata.com","kind":"locality","name":"Tel Aviv-Yafo","country_capital":true,"population":3112000,"min_zoom":4.0,"id":7195},"coordinates":[1483,226]},{"type":"Point","properties":{"source":"naturalearthdata.com","kind":"locality","name":"Damascus","country_capital":true,"population":2466000,"min_zoom":4.0,"id":7129},"coordinates":[3711,2696]},{"type":"Point","properties":{"source":"naturalearthdata.com","kind":"locality","name":"Beirut","country_capital":true,"population":1846000,"min_zoom":5.0,"id":6991},"coordinates":[2560,3342]},{"type":"Point","properties":{"source":"naturalearthdata.com","kind":"locality","name":"Haifa","population":1011000,"region_capital":true,"min_zoom":7.0,"id":3973},"coordinates":[1789,1514]},{"type":"Point","properties":{"source":"naturalearthdata.com","kind":"locality","name":"Nablus","population":215981,"min_zoom":7.0,"id":4816},"coordinates":[2191,468]},{"type":"Point","properties":{"source":"naturalearthdata.com","kind":"locality","name":"Nazareth","population":151459,"region_capital":true,"min_zoom":7.0,"id":3974},"coordinates":[2251,1308]},{"type":"Point","properties":{"source":"naturalearthdata.com","kind":"locality","name":"Zahle","population":78145,"region_capital":true,"min_zoom":7.0,"id":3270},"coordinates":[3137,3301]},{"type":"Point","properties":{"source":"naturalearthdata.com","kind":"locality","name":"Al Qunaytirah","population":4318,"region_capital":true,"min_zoom":7.0,"id":2454},"coordinates":[3020,2041]}]},"transit":{"type":"GeometryCollection","geometries":[{"type":"LineString","properties":{"kind":"train","name:en":"Nahariyya => Beer Sheva","name":"\u05e0\u05d4\u05e8\u05d9\u05d4 => \u05d1\u05d0\u05e8 \u05e9\u05d1\u05e2","sort_rank":275,"colour":"#0B3B17","source":"openstreetmap.org","min_zoom":6.0,"operator":"Israel Railways","ref":"Darkgreen","osm_relation":true,"colour_name":"black"},"arcs":[191]},{"type":"MultiLineString","properties":{"kind":"train","name:en":"Be'er Sheva \u2013 Center \u21d2 Hod HaSharon-Sokolov","name":"\u05d1\u05d0\u05e8 \u05e9\u05d1\u05e2 \u05de\u05e8\u05db\u05d6 \u21d0 \u05d4\u05d5\u05d3 \u05d4\u05e9\u05e8\u05d5\u05df - \u05e1\u05d5\u05e7\u05d5\u05dc\u05d5\u05d1","sort_rank":275,"source":"openstreetmap.org","min_zoom":6.0,"operator":"Israel Railways","osm_relation":true},"arcs":[[192],[193]]},{"type":"LineString","properties":{"kind":"train","name:en":"Beer Sheva => Nahariyya","name":"\u05d1\u05d0\u05e8 \u05e9\u05d1\u05e2 => \u05e0\u05d4\u05e8\u05d9\u05d4","sort_rank":275,"colour":"#0B3B17","source":"openstreetmap.org","min_zoom":6.0,"operator":"Israel Railways","ref":"Darkgreen","osm_relation":true,"colour_name":"black"},"arcs":[194]},{"type":"MultiLineString","properties":{"kind":"train","name:en":"Atlit => Beit She'an","name":"\u05e2\u05ea\u05dc\u05d9\u05ea=>\u05d1\u05d9\u05ea \u05e9\u05d0\u05df","service":"long_distance","sort_rank":275,"source":"openstreetmap.org","min_zoom":5.0,"osm_relation":true},"arcs":[[195],[196],[197]]},{"type":"MultiLineString","properties":{"kind":"train","name:en":"Hod HaSharon-Sokolov \u21d2 Be'er Sheva \u2013 Center","name":"\u05d4\u05d5\u05d3 \u05d4\u05e9\u05e8\u05d5\u05df - \u05e1\u05d5\u05e7\u05d5\u05dc\u05d5\u05d1 \u21d0 \u05d1\u05d0\u05e8 \u05e9\u05d1\u05e2 \u05de\u05e8\u05db\u05d6","sort_rank":275,"name:ar":"\u0647\u0648\u062f \u0647\u0634\u0627\u0631\u0648\u0646-\u0633\u0648\u0643\u0648\u0644\u0648\u0641 \u21d0 \u0628\u0626\u0631 \u0627\u0644\u0633\u0628\u0639-\u0645\u0631\u0643\u0632","source":"openstreetmap.org","min_zoom":6.0,"operator":"Israel Railways","osm_relation":true},"arcs":[[198],[199]]},{"type":"MultiLineString","properties":{"kind":"train","name:en":"Rishon LeTsiyyon HaRishonim => Hod HaSharon Sokolov","name":"\u05e8\u05d0\u05e9\u05d5\u05df \u05dc\u05e6\u05d9\u05d5\u05df \u05d4\u05e8\u05d0\u05e9\u05d5\u05e0\u05d9\u05dd => \u05e0\u05ea\u05e0\u05d9\u05d4","sort_rank":275,"colour":"#0B2161","source":"openstreetmap.org","min_zoom":6.0,"operator":"Israel Railways","ref":"Darkblue","osm_relation":true,"colour_name":"navy"},"arcs":[[200],[201],[202],[203]]},{"type":"MultiLineString","properties":{"kind":"train","name:en":"Netanya=> Rishon LeTsiyyon HaRishonim","name":"\u05e0\u05ea\u05e0\u05d9\u05d4 => \u05e8\u05d0\u05e9\u05d5\u05df \u05dc\u05e6\u05d9\u05d5\u05df \u05d4\u05e8\u05d0\u05e9\u05d5\u05e0\u05d9\u05dd","sort_rank":275,"colour":"#0B2161","source":"openstreetmap.org","min_zoom":6.0,"operator":"Israel Railways","ref":"Darkblue","osm_relation":true,"colour_name":"navy"},"arcs":[[204],[205]]},{"type":"LineString","properties":{"kind":"train","name:en":"Tel Aviv Center Savidor => Jerusalem Malha","name":"\u05ea\u05dc \u05d0\u05d1\u05d9\u05d1 \u05e1\u05d1\u05d9\u05d3\u05d5\u05e8 => \u05d9\u05e8\u05d5\u05e9\u05dc\u05d9\u05dd \u05de\u05dc\u05d7\u05d4","sort_rank":275,"colour":"#0099FF","source":"openstreetmap.org","min_zoom":6.0,"operator":"Israel Railways","ref":"Blue","id":-1660972,"osm_relation":true,"colour_name":"dodgerblue"},"arcs":[206]},{"type":"MultiLineString","properties":{"kind":"train","name:en":"Kiryat Motzkin \u21d2 Haifa","name":"\u05e7\u05e8\u05d9\u05ea \u05de\u05d5\u05e6\u05e7\u05d9\u05df \u21d0 \u05d7\u05d9\u05e4\u05d4","sort_rank":275,"colour":"#8A0808","source":"openstreetmap.org","min_zoom":6.0,"ref":"Red","osm_relation":true,"colour_name":"darkred"},"arcs":[[207],[208],[209],[210]]},{"type":"LineString","properties":{"kind":"train","name:en":"Modiin => Nahariyya","name":"\u05de\u05d5\u05d3\u05d9\u05e2\u05d9\u05df => \u05e0\u05d4\u05e8\u05d9\u05d4","sort_rank":275,"colour":"#74DF00","source":"openstreetmap.org","min_zoom":6.0,"operator":"Israel Railways","ref":"Lightgreen","osm_relation":true,"colour_name":"yellowgreen"},"arcs":[211]},{"type":"LineString","properties":{"kind":"train","name:en":"Binyamina \u21d2 Ashkelon","name":"\u05d1\u05e0\u05d9\u05de\u05d9\u05e0\u05d4 => \u05d0\u05e9\u05e7\u05dc\u05d5\u05df","sort_rank":275,"colour":"#0040FF","source":"openstreetmap.org","min_zoom":6.0,"operator":"Israel Railways","ref":"Blue","osm_relation":true,"colour_name":"blue"},"arcs":[212]},{"type":"LineString","properties":{"kind":"train","name:en":"Nahariyya => Modiin","name":"\u05e0\u05d4\u05e8\u05d9\u05d4 => \u05de\u05d5\u05d3\u05d9\u05e2\u05d9\u05df","sort_rank":275,"colour":"#74DF00","source":"openstreetmap.org","min_zoom":6.0,"operator":"Israel Railways","ref":"Lightgreen","osm_relation":true,"colour_name":"yellowgreen"},"arcs":[213]},{"type":"MultiLineString","properties":{"kind":"train","colour_name":"red","sort_rank":275,"colour":"red","state":"proposed","source":"openstreetmap.org","min_zoom":6.0,"osm_relation":true},"arcs":[[214],[215],[216],[217],[218],[219]]},{"type":"MultiLineString","properties":{"kind":"train","name:en":"Haifa \u21d2 Kiryat Motzkin","name":"\u05d7\u05d9\u05e4\u05d4 \u21d0 \u05e7\u05e8\u05d9\u05ea \u05de\u05d5\u05e6\u05e7\u05d9\u05df","sort_rank":275,"colour":"#8A0808","source":"openstreetmap.org","min_zoom":6.0,"ref":"Red","osm_relation":true,"colour_name":"darkred"},"arcs":[[220],[221],[222]]},{"type":"LineString","properties":{"kind":"train","name:en":"Ashkelon \u21d2 Binyamina","name":"\u05d0\u05e9\u05e7\u05dc\u05d5\u05df => \u05d1\u05e0\u05d9\u05de\u05d9\u05e0\u05d4","sort_rank":275,"colour":"#0040FF","source":"openstreetmap.org","min_zoom":6.0,"operator":"Israel Railways","ref":"Blue","id":-1659773,"osm_relation":true,"colour_name":"blue"},"arcs":[223]},{"type":"MultiLineString","properties":{"kind":"train","name:en":"Beit She'an => Atlit","name":"\u05e2\u05ea\u05dc\u05d9\u05ea <= \u05d1\u05d9\u05ea \u05e9\u05d0\u05df","service":"long_distance","sort_rank":275,"source":"openstreetmap.org","min_zoom":5.0,"osm_relation":true},"arcs":[[224],[225],[226]]},{"type":"LineString","properties":{"kind":"train","name:en":"Jerusalem Malha => Tel Aviv Center Savidor","name":"\u05d9\u05e8\u05d5\u05e9\u05dc\u05d9\u05dd \u05de\u05dc\u05d7\u05d4 => \u05ea\u05dc \u05d0\u05d1\u05d9\u05d1 \u05e1\u05d1\u05d9\u05d3\u05d5\u05e8","sort_rank":275,"colour":"#0099FF","source":"openstreetmap.org","min_zoom":6.0,"operator":"Israel Railways","ref":"Blue","id":-1660971,"osm_relation":true,"colour_name":"dodgerblue"},"arcs":[227]},{"type":"MultiLineString","properties":{"sort_rank":275,"source":"openstreetmap.org","min_zoom":6.0,"kind":"train","osm_relation":true},"arcs":[[228],[229],[230],[231],[232]]}]},"pois":{"type":"GeometryCollection","geometries":[{"type":"Point","properties":{"kind":"protected_area","name:en":"Har Meron Nature Reserve","protect_class":"1","area":142118000,"name:he":"\u05e9\u05de\u05d5\u05e8\u05ea \u05d8\u05d1\u05e2 \u05d4\u05e8 \u05de\u05d9\u05e8\u05d5\u05df","source":"openstreetmap.org","min_zoom":7.0,"tier":2,"ref":"400","id":-5336354,"osm_relation":true,"name":"\u0645\u062d\u0645\u064a\u0629 \u0637\u0628\u064a\u0639\u064a\u0629 \u062c\u0628\u0644 \u0627\u0644\u062c\u0631\u0645\u0642"},"coordinates":[2379,1794]},{"type":"Point","properties":{"kind":"protected_area","name:en":"Har HaCarmel National Park","protect_class":"2","area":113602000,"source":"openstreetmap.org","min_zoom":7.0,"tier":2,"id":-4759745,"osm_relation":true,"name":"\u05d2\u05df \u05dc\u05d0\u05d5\u05de\u05d9 \u05d4\u05e8 \u05d4\u05db\u05e8\u05de\u05dc"},"coordinates":[1821,1309]}]},"boundaries":{"type":"GeometryCollection","geometries":[{"type":"MultiLineString","properties":{"source":"naturalearthdata.com","kind":"indefinite","sort_rank":259,"kind_detail":"2","min_zoom":0.0,"id":28},"arcs":[[0],[1],[2],[3],[4],[5],[6],[7],[8]]},{"type":"MultiLineString","properties":{"source":"naturalearthdata.com","kind":"country","sort_rank":262,"kind_detail":"2","min_zoom":0.0,"id":330},"arcs":[[9],[10]]},{"type":"MultiLineString","properties":{"source":"naturalearthdata.com","kind":"disputed","sort_rank":261,"kind_detail":"2","min_zoom":0.0,"id":27},"arcs":[[11],[12],[13],[14]]},{"type":"LineString","properties":{"source":"naturalearthdata.com","kind":"line_of_control","name":"Ceasefire Lines 1974","sort_rank":260,"kind_detail":"2","min_zoom":0.0,"id":35},"arcs":[15]},{"type":"LineString","properties":{"source":"naturalearthdata.com","kind":"indefinite","sort_rank":259,"kind_detail":"2","min_zoom":0.0,"id":46},"arcs":[16]},{"type":"LineString","properties":{"source":"naturalearthdata.com","kind":"indefinite","sort_rank":259,"kind_detail":"2","min_zoom":0.0,"id":47},"arcs":[17]},{"type":"MultiLineString","properties":{"source":"naturalearthdata.com","kind":"indefinite","sort_rank":259,"kind_detail":"2","min_zoom":0.0,"id":48},"arcs":[[18],[19],[20],[21],[22],[23],[24],[25],[26]]},{"type":"MultiLineString","properties":{"source":"naturalearthdata.com","kind":"country","sort_rank":262,"kind_detail":"2","min_zoom":0.0,"id":252},"arcs":[[27],[28],[29],[30],[31],[32],[33],[34],[35]]},{"type":"MultiLineString","properties":{"source":"naturalearthdata.com","kind":"country","sort_rank":262,"kind_detail":"2","min_zoom":0.0,"id":253},"arcs":[[36],[37],[38],[39],[40]]},{"type":"MultiLineString","properties":{"source":"naturalearthdata.com","kind":"country","sort_rank":262,"kind_detail":"2","min_zoom":0.0,"id":331},"arcs":[[41],[42],[43],[44],[45],[46],[47],[48],[49],[50],[51],[52]]},{"type":"LineString","properties":{"source":"naturalearthdata.com","kind":"overlay_limit","name":"UNDOF","sort_rank":259,"kind_detail":"2","min_zoom":0.0,"id":439},"arcs":[53]},{"type":"MultiLineString","properties":{"source":"naturalearthdata.com","kind":"region","name":"HaMerkaz - Haifa","sort_rank":256,"kind_detail":"4","min_zoom":6.8,"id":7876},"arcs":[[54],[55],[56],[57],[58]]},{"type":"LineString","properties":{"source":"naturalearthdata.com","kind":"region","name":"South Lebanon - Beqaa","sort_rank":256,"kind_detail":"4","min_zoom":7.0,"id":7899},"arcs":[59]},{"type":"MultiLineString","properties":{"source":"naturalearthdata.com","kind":"region","name":"Dar`a - Quneitra","sort_rank":256,"kind_detail":"4","min_zoom":6.0,"id":7935},"arcs":[[60],[61],[62]]},{"type":"LineString","properties":{"source":"naturalearthdata.com","kind":"region","sort_rank":256,"kind_detail":"4","min_zoom":6.8,"id":476},"arcs":[63]},{"type":"MultiLineString","properties":{"source":"naturalearthdata.com","kind":"region","sort_rank":256,"kind_detail":"4","min_zoom":6.8,"id":478},"arcs":[[64],[65]]},{"type":"LineString","properties":{"source":"naturalearthdata.com","kind":"region","sort_rank":256,"kind_detail":"4","min_zoom":6.8,"id":479},"arcs":[66]},{"type":"LineString","properties":{"source":"naturalearthdata.com","kind":"region","sort_rank":256,"kind_detail":"4","min_zoom":7.0,"id":487},"arcs":[67]},{"type":"MultiLineString","properties":{"source":"naturalearthdata.com","kind":"region","sort_rank":256,"kind_detail":"4","min_zoom":7.0,"id":488},"arcs":[[68],[69]]},{"type":"LineString","properties":{"source":"naturalearthdata.com","kind":"region","sort_rank":256,"kind_detail":"4","min_zoom":7.0,"id":489},"arcs":[70]},{"type":"MultiLineString","properties":{"source":"naturalearthdata.com","kind":"region","name":"Rif Dimashq - Dar`a","sort_rank":256,"kind_detail":"4","min_zoom":6.0,"id":1669},"arcs":[[71],[72],[73],[74],[75]]},{"type":"MultiLineString","properties":{"source":"naturalearthdata.com","kind":"region","name":"As Suwayda' - Dar`a","sort_rank":256,"kind_detail":"4","min_zoom":6.0,"id":1670},"arcs":[[76],[77],[78],[79],[80],[81],[82],[83],[84],[85],[86]]},{"type":"MultiLineString","properties":{"source":"naturalearthdata.com","kind":"region","name":"Irbid - Mafraq","sort_rank":256,"kind_detail":"4","min_zoom":6.7,"id":3429},"arcs":[[87],[88],[89]]},{"type":"LineString","properties":{"source":"naturalearthdata.com","kind":"region","name":"Jarash - Mafraq","sort_rank":256,"kind_detail":"4","min_zoom":6.7,"id":3430},"arcs":[90]},{"type":"LineString","properties":{"source":"naturalearthdata.com","kind":"region","name":"Balqa - Zarqa","sort_rank":256,"kind_detail":"4","min_zoom":6.7,"id":3432},"arcs":[91]},{"type":"LineString","properties":{"source":"naturalearthdata.com","kind":"region","name":"Zarqa - Jarash","sort_rank":256,"kind_detail":"4","min_zoom":6.7,"id":3433},"arcs":[92]},{"type":"MultiLineString","properties":{"source":"naturalearthdata.com","kind":"region","name":"Zarqa - Amman","sort_rank":256,"kind_detail":"4","min_zoom":6.7,"id":3434},"arcs":[[93],[94],[95],[96],[97]]},{"type":"MultiLineString","properties":{"source":"naturalearthdata.com","kind":"region","name":"Irbid - Balqa","sort_rank":256,"kind_detail":"4","min_zoom":6.7,"id":3420},"arcs":[[98],[99]]},{"type":"LineString","properties":{"source":"naturalearthdata.com","kind":"region","name":"Balqa - Ajlun","sort_rank":256,"kind_detail":"4","min_zoom":6.7,"id":3421},"arcs":[100]},{"type":"MultiLineString","properties":{"source":"naturalearthdata.com","kind":"region","name":"Irbid - Ajlun","sort_rank":256,"kind_detail":"4","min_zoom":6.7,"id":3422},"arcs":[[101],[102],[103],[104],[105],[106]]},{"type":"MultiLineString","properties":{"source":"naturalearthdata.com","kind":"region","name":"Jarash - Balqa","sort_rank":256,"kind_detail":"4","min_zoom":6.7,"id":3423},"arcs":[[107],[108],[109]]},{"type":"MultiLineString","properties":{"source":"naturalearthdata.com","kind":"region","name":"Irbid - Jarash","sort_rank":256,"kind_detail":"4","min_zoom":6.7,"id":3424},"arcs":[[110],[111]]},{"type":"LineString","properties":{"source":"naturalearthdata.com","kind":"region","name":"Ajlun - Jarash","sort_rank":256,"kind_detail":"4","min_zoom":6.7,"id":3425},"arcs":[112]},{"type":"LineString","properties":{"source":"naturalearthdata.com","kind":"region","name":"Amman - Balqa","sort_rank":256,"kind_detail":"4","min_zoom":6.7,"id":3427},"arcs":[113]},{"type":"MultiLineString","properties":{"source":"naturalearthdata.com","kind":"region","name":"Mafraq - Zarqa","sort_rank":256,"kind_detail":"4","min_zoom":6.7,"id":3435},"arcs":[[114],[115],[116],[117],[118],[119],[120]]},{"type":"MultiLineString","properties":{"source":"naturalearthdata.com","kind":"region","name":"HaZafon - Haifa","sort_rank":256,"kind_detail":"4","min_zoom":6.8,"id":7872},"arcs":[[121],[122],[123],[124],[125],[126],[127],[128],[129]]},{"type":"MultiLineString","properties":{"source":"naturalearthdata.com","kind":"region","name":"Tel Aviv - HaMerkaz","sort_rank":256,"kind_detail":"4","min_zoom":6.8,"id":7875},"arcs":[[130],[131],[132],[133],[134]]},{"type":"MultiLineString","properties":{"source":"naturalearthdata.com","kind":"region","name":"Mount Lebanon - North Lebanon","sort_rank":256,"kind_detail":"4","min_zoom":7.0,"id":7892},"arcs":[[135],[136],[137],[138],[139],[140],[141],[142],[143],[144],[145]]},{"type":"MultiLineString","properties":{"source":"naturalearthdata.com","kind":"region","name":"Beirut - Mount Lebanon","sort_rank":256,"kind_detail":"4","min_zoom":7.0,"id":7893},"arcs":[[146],[147]]},{"type":"MultiLineString","properties":{"source":"naturalearthdata.com","kind":"region","name":"Mount Lebanon - Beqaa","sort_rank":256,"kind_detail":"4","min_zoom":7.0,"id":7894},"arcs":[[148],[149],[150]]},{"type":"LineString","properties":{"source":"naturalearthdata.com","kind":"region","name":"Beqaa - North Lebanon","sort_rank":256,"kind_detail":"4","min_zoom":7.0,"id":7895},"arcs":[151]},{"type":"LineString","properties":{"source":"naturalearthdata.com","kind":"region","name":"Beqaa - Mount Lebanon","sort_rank":256,"kind_detail":"4","min_zoom":7.0,"id":7897},"arcs":[152]},{"type":"MultiLineString","properties":{"source":"naturalearthdata.com","kind":"region","name":"South Lebanon - Mount Lebanon","sort_rank":256,"kind_detail":"4","min_zoom":7.0,"id":7898},"arcs":[[153],[154],[155],[156],[157],[158],[159],[160],[161]]},{"type":"MultiLineString","properties":{"source":"naturalearthdata.com","kind":"region","name":"Beqaa - An Nabatiyah","sort_rank":256,"kind_detail":"4","min_zoom":7.0,"id":7900},"arcs":[[162],[163],[164]]},{"type":"MultiLineString","properties":{"source":"naturalearthdata.com","kind":"region","name":"An Nabatiyah - South Lebanon","sort_rank":256,"kind_detail":"4","min_zoom":7.0,"id":7901},"arcs":[[165],[166],[167],[168],[169],[170],[171],[172],[173],[174],[175],[176],[177],[178],[179],[180],[181]]},{"type":"MultiLineString","properties":{"source":"naturalearthdata.com","kind":"region","name":"Rif Dimashq - Quneitra","sort_rank":256,"kind_detail":"4","min_zoom":6.0,"id":7934},"arcs":[[182],[183],[184]]},{"type":"MultiLineString","properties":{"source":"naturalearthdata.com","kind":"region","name":"Rif Dimashq - Damascus","sort_rank":256,"kind_detail":"4","min_zoom":7.0,"id":8121},"arcs":[[185],[186],[187],[188],[189],[190]]}]},"roads":{"type":"GeometryCollection","geometries":[{"type":"LineString","properties":{"source":"naturalearthdata.com","kind":"minor_road","sort_rank":355,"kind_detail":"tertiary","min_zoom":6.0,"id":25159},"arcs":[238]},{"type":"LineString","properties":{"source":"naturalearthdata.com","kind":"minor_road","kind_detail":"tertiary","sort_rank":355,"landuse_kind":"urban_area","min_zoom":6.0,"id":25169},"arcs":[239]},{"type":"MultiLineString","properties":{"source":"naturalearthdata.com","kind":"highway","kind_detail":"motorway","sort_rank":383,"landuse_kind":"urban_area","min_zoom":3.0,"id":25203},"arcs":[[240],[241]]},{"type":"LineString","properties":{"source":"naturalearthdata.com","kind":"highway","sort_rank":383,"kind_detail":"motorway","min_zoom":3.0,"id":25203},"arcs":[242]},{"type":"LineString","properties":{"source":"naturalearthdata.com","kind":"minor_road","sort_rank":355,"kind_detail":"tertiary","min_zoom":6.0,"id":25244},"arcs":[243]},{"type":"MultiLineString","properties":{"source":"naturalearthdata.com","kind":"highway","kind_detail":"motorway","sort_rank":383,"landuse_kind":"urban_area","min_zoom":3.0,"id":25291},"arcs":[[244],[245]]},{"type":"LineString","properties":{"source":"naturalearthdata.com","kind":"highway","sort_rank":383,"kind_detail":"motorway","min_zoom":3.0,"id":25291},"arcs":[246]},{"type":"LineString","properties":{"source":"naturalearthdata.com","kind":"minor_road","sort_rank":355,"kind_detail":"tertiary","min_zoom":6.0,"id":25305},"arcs":[247]},{"type":"LineString","properties":{"source":"naturalearthdata.com","kind":"major_road","kind_detail":"secondary","sort_rank":379,"landuse_kind":"urban_area","min_zoom":3.0,"id":25313},"arcs":[248]},{"type":"LineString","properties":{"source":"naturalearthdata.com","kind":"minor_road","kind_detail":"tertiary","sort_rank":355,"landuse_kind":"urban_area","min_zoom":6.0,"id":25405},"arcs":[249]},{"type":"LineString","properties":{"source":"naturalearthdata.com","kind":"minor_road","sort_rank":355,"kind_detail":"tertiary","min_zoom":6.0,"id":25405},"arcs":[250]},{"type":"LineString","properties":{"source":"naturalearthdata.com","kind":"minor_road","kind_detail":"tertiary","sort_rank":355,"landuse_kind":"urban_area","min_zoom":6.0,"id":25406},"arcs":[251]},{"type":"MultiLineString","properties":{"source":"naturalearthdata.com","kind":"minor_road","kind_detail":"tertiary","sort_rank":355,"landuse_kind":"urban_area","min_zoom":6.0,"id":25406},"arcs":[[252],[253]]},{"type":"MultiLineString","properties":{"source":"naturalearthdata.com","kind":"minor_road","sort_rank":355,"kind_detail":"tertiary","min_zoom":6.0,"id":25406},"arcs":[[254],[255]]},{"type":"LineString","properties":{"source":"naturalearthdata.com","kind":"minor_road","kind_detail":"tertiary","sort_rank":355,"landuse_kind":"urban_area","min_zoom":6.0,"id":25421},"arcs":[256]},{"type":"LineString","properties":{"source":"naturalearthdata.com","kind":"minor_road","sort_rank":355,"kind_detail":"tertiary","min_zoom":6.0,"id":25421},"arcs":[257]},{"type":"MultiLineString","properties":{"source":"naturalearthdata.com","kind":"highway","kind_detail":"motorway","sort_rank":383,"landuse_kind":"urban_area","min_zoom":3.0,"id":25477},"arcs":[[258],[259]]},{"type":"LineString","properties":{"source":"naturalearthdata.com","kind":"highway","sort_rank":383,"kind_detail":"motorway","min_zoom":3.0,"id":25477},"arcs":[260]},{"type":"LineString","properties":{"source":"naturalearthdata.com","kind":"highway","kind_detail":"motorway","sort_rank":383,"landuse_kind":"urban_area","min_zoom":3.0,"id":25482},"arcs":[261]},{"type":"LineString","properties":{"source":"naturalearthdata.com","kind":"highway","kind_detail":"motorway","sort_rank":383,"landuse_kind":"urban_area","min_zoom":3.0,"id":25505},"arcs":[262]},{"type":"LineString","properties":{"source":"naturalearthdata.com","kind":"major_road","kind_detail":"secondary","sort_rank":379,"landuse_kind":"urban_area","min_zoom":3.0,"id":25511},"arcs":[263]},{"type":"LineString","properties":{"source":"naturalearthdata.com","kind":"major_road","kind_detail":"secondary","sort_rank":379,"landuse_kind":"urban_area","min_zoom":3.0,"id":25543},"arcs":[264]},{"type":"LineString","properties":{"source":"naturalearthdata.com","kind":"major_road","sort_rank":379,"kind_detail":"secondary","min_zoom":3.0,"id":25544},"arcs":[265]},{"type":"LineString","properties":{"source":"naturalearthdata.com","kind":"major_road","kind_detail":"secondary","sort_rank":379,"landuse_kind":"urban_area","min_zoom":3.0,"id":25550},"arcs":[266]},{"type":"LineString","properties":{"source":"naturalearthdata.com","kind":"major_road","sort_rank":379,"kind_detail":"secondary","min_zoom":3.0,"id":25550},"arcs":[267]},{"type":"LineString","properties":{"source":"naturalearthdata.com","kind":"major_road","sort_rank":379,"kind_detail":"secondary","min_zoom":3.0,"id":25553},"arcs":[268]},{"type":"LineString","properties":{"source":"naturalearthdata.com","kind":"highway","kind_detail":"motorway","sort_rank":383,"landuse_kind":"urban_area","min_zoom":3.0,"id":25566},"arcs":[269]},{"type":"LineString","properties":{"source":"naturalearthdata.com","kind":"highway","sort_rank":383,"kind_detail":"motorway","min_zoom":3.0,"id":25566},"arcs":[270]},{"type":"LineString","properties":{"source":"naturalearthdata.com","kind":"major_road","kind_detail":"secondary","sort_rank":379,"landuse_kind":"urban_area","min_zoom":3.0,"id":25569},"arcs":[271]},{"type":"MultiLineString","properties":{"source":"naturalearthdata.com","kind":"major_road","sort_rank":379,"kind_detail":"secondary","min_zoom":3.0,"id":25569},"arcs":[[272],[273]]},{"type":"LineString","properties":{"source":"naturalearthdata.com","kind":"minor_road","kind_detail":"tertiary","sort_rank":355,"landuse_kind":"urban_area","min_zoom":6.0,"id":25578},"arcs":[274]},{"type":"LineString","properties":{"source":"naturalearthdata.com","kind":"minor_road","kind_detail":"tertiary","sort_rank":355,"landuse_kind":"urban_area","min_zoom":6.0,"id":25578},"arcs":[275]},{"type":"MultiLineString","properties":{"source":"naturalearthdata.com","kind":"minor_road","sort_rank":355,"kind_detail":"tertiary","min_zoom":6.0,"id":25578},"arcs":[[276],[277]]},{"type":"LineString","properties":{"source":"naturalearthdata.com","kind":"major_road","kind_detail":"secondary","sort_rank":379,"landuse_kind":"urban_area","min_zoom":3.0,"id":25579},"arcs":[278]},{"type":"LineString","properties":{"source":"naturalearthdata.com","kind":"major_road","sort_rank":379,"kind_detail":"secondary","min_zoom":3.0,"id":25579},"arcs":[279]},{"type":"LineString","properties":{"source":"naturalearthdata.com","kind":"highway","kind_detail":"motorway","sort_rank":383,"landuse_kind":"urban_area","min_zoom":3.0,"id":25607},"arcs":[280]},{"type":"LineString","properties":{"source":"naturalearthdata.com","kind":"highway","sort_rank":383,"kind_detail":"motorway","min_zoom":3.0,"id":25607},"arcs":[281]},{"type":"LineString","properties":{"source":"naturalearthdata.com","kind":"minor_road","sort_rank":355,"kind_detail":"tertiary","min_zoom":7.0,"id":25622},"arcs":[282]},{"type":"LineString","properties":{"source":"naturalearthdata.com","kind":"major_road","kind_detail":"secondary","sort_rank":379,"landuse_kind":"urban_area","min_zoom":3.0,"id":25631},"arcs":[283]},{"type":"LineString","properties":{"source":"naturalearthdata.com","kind":"major_road","sort_rank":379,"kind_detail":"secondary","min_zoom":3.0,"id":25631},"arcs":[284]},{"type":"LineString","properties":{"source":"naturalearthdata.com","kind":"major_road","sort_rank":379,"kind_detail":"secondary","min_zoom":3.0,"id":25663},"arcs":[285]},{"type":"LineString","properties":{"source":"naturalearthdata.com","kind":"highway","kind_detail":"motorway","sort_rank":383,"landuse_kind":"urban_area","min_zoom":3.0,"id":25666},"arcs":[286]},{"type":"LineString","properties":{"source":"naturalearthdata.com","kind":"highway","sort_rank":383,"kind_detail":"motorway","min_zoom":3.0,"id":25670},"arcs":[287]},{"type":"LineString","properties":{"source":"naturalearthdata.com","kind":"minor_road","kind_detail":"tertiary","sort_rank":355,"landuse_kind":"urban_area","min_zoom":7.0,"id":25689},"arcs":[288]},{"type":"MultiLineString","properties":{"source":"naturalearthdata.com","kind":"minor_road","sort_rank":355,"kind_detail":"tertiary","min_zoom":7.0,"id":25689},"arcs":[[289],[290]]},{"type":"LineString","properties":{"source":"naturalearthdata.com","kind":"major_road","sort_rank":379,"kind_detail":"secondary","min_zoom":3.0,"id":25696},"arcs":[291]},{"type":"LineString","properties":{"source":"naturalearthdata.com","kind":"major_road","sort_rank":379,"kind_detail":"secondary","min_zoom":3.0,"id":25701},"arcs":[292]},{"type":"LineString","properties":{"source":"naturalearthdata.com","kind":"major_road","sort_rank":379,"kind_detail":"secondary","min_zoom":3.0,"id":25707},"arcs":[293]},{"type":"LineString","properties":{"source":"naturalearthdata.com","kind":"minor_road","sort_rank":355,"kind_detail":"tertiary","min_zoom":7.0,"id":25708},"arcs":[294]},{"type":"LineString","properties":{"source":"naturalearthdata.com","kind":"major_road","sort_rank":379,"kind_detail":"secondary","min_zoom":3.0,"id":25716},"arcs":[295]},{"type":"LineString","properties":{"source":"naturalearthdata.com","kind":"minor_road","sort_rank":355,"kind_detail":"tertiary","min_zoom":7.0,"id":25735},"arcs":[296]},{"type":"LineString","properties":{"source":"naturalearthdata.com","kind":"highway","kind_detail":"motorway","sort_rank":383,"landuse_kind":"urban_area","min_zoom":3.0,"id":25737},"arcs":[297]},{"type":"LineString","properties":{"source":"naturalearthdata.com","kind":"highway","kind_detail":"motorway","sort_rank":383,"landuse_kind":"urban_area","min_zoom":3.0,"id":25737},"arcs":[298]},{"type":"LineString","properties":{"source":"naturalearthdata.com","kind":"highway","sort_rank":383,"kind_detail":"motorway","min_zoom":3.0,"id":25737},"arcs":[299]},{"type":"LineString","properties":{"source":"naturalearthdata.com","kind":"highway","sort_rank":383,"kind_detail":"motorway","min_zoom":3.0,"id":25742},"arcs":[300]},{"type":"LineString","properties":{"source":"naturalearthdata.com","kind":"highway","kind_detail":"motorway","sort_rank":383,"landuse_kind":"urban_area","min_zoom":3.0,"id":25753},"arcs":[301]},{"type":"LineString","properties":{"source":"naturalearthdata.com","kind":"highway","sort_rank":383,"kind_detail":"motorway","min_zoom":3.0,"id":25753},"arcs":[302]},{"type":"LineString","properties":{"source":"naturalearthdata.com","kind":"highway","kind_detail":"motorway","sort_rank":383,"landuse_kind":"urban_area","min_zoom":6.0,"id":25754},"arcs":[303]},{"type":"LineString","properties":{"source":"naturalearthdata.com","kind":"highway","sort_rank":383,"kind_detail":"motorway","min_zoom":6.0,"id":25754},"arcs":[304]},{"type":"LineString","properties":{"source":"naturalearthdata.com","kind":"minor_road","sort_rank":355,"kind_detail":"tertiary","min_zoom":7.0,"id":25771},"arcs":[305]},{"type":"LineString","properties":{"source":"naturalearthdata.com","kind":"highway","kind_detail":"motorway","sort_rank":383,"landuse_kind":"urban_area","min_zoom":3.0,"id":25777},"arcs":[306]},{"type":"LineString","properties":{"source":"naturalearthdata.com","kind":"minor_road","kind_detail":"tertiary","sort_rank":355,"landuse_kind":"urban_area","min_zoom":7.0,"id":25778},"arcs":[307]},{"type":"LineString","properties":{"source":"naturalearthdata.com","kind":"minor_road","sort_rank":355,"kind_detail":"tertiary","min_zoom":7.0,"id":25778},"arcs":[308]},{"type":"LineString","properties":{"source":"naturalearthdata.com","kind":"highway","kind_detail":"motorway","sort_rank":383,"landuse_kind":"urban_area","min_zoom":3.0,"id":25786},"arcs":[309]},{"type":"LineString","properties":{"source":"naturalearthdata.com","kind":"minor_road","kind_detail":"tertiary","sort_rank":355,"landuse_kind":"urban_area","min_zoom":7.0,"id":25787},"arcs":[310]},{"type":"LineString","properties":{"source":"naturalearthdata.com","kind":"minor_road","sort_rank":355,"kind_detail":"tertiary","min_zoom":7.0,"id":25787},"arcs":[311]},{"type":"LineString","properties":{"source":"naturalearthdata.com","kind":"highway","kind_detail":"motorway","sort_rank":383,"landuse_kind":"urban_area","min_zoom":3.0,"id":25791},"arcs":[312]},{"type":"LineString","properties":{"source":"naturalearthdata.com","kind":"highway","kind_detail":"motorway","sort_rank":383,"landuse_kind":"urban_area","min_zoom":3.0,"id":25792},"arcs":[313]},{"type":"LineString","properties":{"source":"naturalearthdata.com","kind":"highway","sort_rank":383,"kind_detail":"motorway","min_zoom":3.0,"id":25792},"arcs":[314]},{"type":"LineString","properties":{"source":"naturalearthdata.com","kind":"highway","kind_detail":"motorway","sort_rank":383,"landuse_kind":"urban_area","min_zoom":3.0,"id":25800},"arcs":[315]},{"type":"LineString","properties":{"source":"naturalearthdata.com","kind":"highway","kind_detail":"motorway","sort_rank":383,"landuse_kind":"urban_area","min_zoom":3.0,"id":25803},"arcs":[316]},{"type":"LineString","properties":{"source":"naturalearthdata.com","kind":"highway","sort_rank":383,"kind_detail":"motorway","min_zoom":3.0,"id":25803},"arcs":[317]},{"type":"LineString","properties":{"source":"naturalearthdata.com","kind":"minor_road","kind_detail":"tertiary","sort_rank":355,"landuse_kind":"urban_area","min_zoom":6.0,"id":25816},"arcs":[318]},{"type":"LineString","properties":{"source":"naturalearthdata.com","kind":"minor_road","kind_detail":"tertiary","sort_rank":355,"landuse_kind":"urban_area","min_zoom":7.0,"id":25818},"arcs":[319]},{"type":"LineString","properties":{"source":"naturalearthdata.com","kind":"minor_road","kind_detail":"tertiary","sort_rank":355,"landuse_kind":"urban_area","min_zoom":6.0,"id":25824},"arcs":[320]},{"type":"LineString","properties":{"source":"naturalearthdata.com","kind":"highway","kind_detail":"motorway","sort_rank":383,"landuse_kind":"urban_area","min_zoom":3.0,"id":25829},"arcs":[321]},{"type":"LineString","properties":{"source":"naturalearthdata.com","kind":"major_road","kind_detail":"secondary","sort_rank":379,"landuse_kind":"urban_area","min_zoom":3.0,"id":25849},"arcs":[322]},{"type":"LineString","properties":{"source":"naturalearthdata.com","kind":"major_road","kind_detail":"secondary","sort_rank":379,"landuse_kind":"urban_area","min_zoom":4.0,"id":25851},"arcs":[323]},{"type":"LineString","properties":{"source":"naturalearthdata.com","kind":"minor_road","kind_detail":"tertiary","sort_rank":355,"landuse_kind":"urban_area","min_zoom":6.0,"id":25874},"arcs":[324]},{"type":"MultiLineString","properties":{"source":"naturalearthdata.com","kind":"minor_road","sort_rank":355,"kind_detail":"tertiary","min_zoom":6.0,"id":25874},"arcs":[[325],[326]]},{"type":"LineString","properties":{"source":"naturalearthdata.com","kind":"minor_road","kind_detail":"tertiary","sort_rank":355,"landuse_kind":"urban_area","min_zoom":7.0,"id":25876},"arcs":[327]},{"type":"MultiLineString","properties":{"source":"naturalearthdata.com","kind":"minor_road","sort_rank":355,"kind_detail":"tertiary","min_zoom":7.0,"id":25876},"arcs":[[328],[329]]},{"type":"LineString","properties":{"source":"naturalearthdata.com","kind":"minor_road","sort_rank":355,"kind_detail":"tertiary","min_zoom":6.0,"id":25883},"arcs":[330]},{"type":"LineString","properties":{"source":"naturalearthdata.com","kind":"major_road","kind_detail":"secondary","sort_rank":379,"landuse_kind":"urban_area","min_zoom":3.0,"id":25887},"arcs":[331]},{"type":"MultiLineString","properties":{"source":"naturalearthdata.com","kind":"major_road","sort_rank":379,"kind_detail":"secondary","min_zoom":3.0,"id":25887},"arcs":[[332],[333]]},{"type":"LineString","properties":{"source":"naturalearthdata.com","kind":"minor_road","kind_detail":"tertiary","sort_rank":355,"landuse_kind":"urban_area","min_zoom":7.0,"id":25891},"arcs":[334]},{"type":"LineString","properties":{"source":"naturalearthdata.com","kind":"minor_road","kind_detail":"tertiary","sort_rank":355,"landuse_kind":"urban_area","min_zoom":6.0,"id":25892},"arcs":[335]},{"type":"LineString","properties":{"source":"naturalearthdata.com","kind":"minor_road","sort_rank":355,"kind_detail":"tertiary","min_zoom":6.0,"id":25892},"arcs":[336]},{"type":"LineString","properties":{"source":"naturalearthdata.com","kind":"major_road","kind_detail":"secondary","sort_rank":379,"landuse_kind":"urban_area","min_zoom":4.0,"id":25901},"arcs":[337]},{"type":"LineString","properties":{"source":"naturalearthdata.com","kind":"major_road","sort_rank":379,"kind_detail":"secondary","min_zoom":4.0,"id":25901},"arcs":[338]},{"type":"LineString","properties":{"source":"naturalearthdata.com","kind":"highway","kind_detail":"motorway","sort_rank":383,"landuse_kind":"urban_area","min_zoom":3.0,"id":25907},"arcs":[339]},{"type":"LineString","properties":{"source":"naturalearthdata.com","kind":"highway","sort_rank":383,"kind_detail":"motorway","min_zoom":3.0,"id":25907},"arcs":[340]},{"type":"LineString","properties":{"source":"naturalearthdata.com","kind":"minor_road","sort_rank":355,"kind_detail":"tertiary","min_zoom":7.0,"id":25921},"arcs":[341]},{"type":"LineString","properties":{"source":"naturalearthdata.com","kind":"minor_road","sort_rank":355,"kind_detail":"tertiary","min_zoom":7.0,"id":25932},"arcs":[342]},{"type":"LineString","properties":{"source":"naturalearthdata.com","kind":"minor_road","sort_rank":355,"kind_detail":"tertiary","min_zoom":7.0,"id":25941},"arcs":[343]},{"type":"LineString","properties":{"source":"naturalearthdata.com","kind":"minor_road","sort_rank":355,"kind_detail":"tertiary","min_zoom":7.0,"id":25954},"arcs":[344]},{"type":"LineString","properties":{"source":"naturalearthdata.com","kind":"major_road","sort_rank":379,"kind_detail":"secondary","min_zoom":4.0,"id":25955},"arcs":[345]},{"type":"LineString","properties":{"source":"naturalearthdata.com","kind":"major_road","kind_detail":"secondary","sort_rank":379,"landuse_kind":"urban_area","min_zoom":3.0,"id":25962},"arcs":[346]},{"type":"LineString","properties":{"source":"naturalearthdata.com","kind":"major_road","sort_rank":379,"kind_detail":"secondary","min_zoom":3.0,"id":25962},"arcs":[347]},{"type":"LineString","properties":{"source":"naturalearthdata.com","kind":"minor_road","sort_rank":355,"kind_detail":"tertiary","min_zoom":6.0,"id":25963},"arcs":[348]},{"type":"LineString","properties":{"source":"naturalearthdata.com","kind":"major_road","kind_detail":"secondary","sort_rank":379,"landuse_kind":"urban_area","min_zoom":3.0,"id":25975},"arcs":[349]},{"type":"LineString","properties":{"source":"naturalearthdata.com","kind":"minor_road","sort_rank":355,"kind_detail":"tertiary","min_zoom":6.0,"id":25983},"arcs":[350]},{"type":"LineString","properties":{"source":"naturalearthdata.com","kind":"minor_road","sort_rank":355,"kind_detail":"tertiary","min_zoom":6.0,"id":25984},"arcs":[351]},{"type":"LineString","properties":{"source":"naturalearthdata.com","kind":"minor_road","sort_rank":355,"kind_detail":"tertiary","min_zoom":7.0,"id":26009},"arcs":[352]},{"type":"LineString","properties":{"source":"naturalearthdata.com","kind":"minor_road","sort_rank":355,"kind_detail":"tertiary","min_zoom":6.0,"id":26029},"arcs":[353]},{"type":"LineString","properties":{"source":"naturalearthdata.com","kind":"minor_road","sort_rank":355,"kind_detail":"tertiary","min_zoom":7.0,"id":26033},"arcs":[354]},{"type":"LineString","properties":{"source":"naturalearthdata.com","kind":"major_road","sort_rank":379,"kind_detail":"secondary","min_zoom":4.0,"id":26034},"arcs":[355]},{"type":"LineString","properties":{"source":"naturalearthdata.com","kind":"minor_road","sort_rank":355,"kind_detail":"tertiary","min_zoom":7.0,"id":26056},"arcs":[356]},{"type":"LineString","properties":{"source":"naturalearthdata.com","kind":"highway","sort_rank":383,"kind_detail":"motorway","min_zoom":3.0,"id":26074},"arcs":[357]},{"type":"LineString","properties":{"source":"naturalearthdata.com","kind":"major_road","sort_rank":379,"kind_detail":"secondary","min_zoom":4.0,"id":26077},"arcs":[358]},{"type":"LineString","properties":{"source":"naturalearthdata.com","kind":"major_road","kind_detail":"secondary","sort_rank":379,"landuse_kind":"urban_area","min_zoom":3.0,"id":26085},"arcs":[359]},{"type":"LineString","properties":{"source":"naturalearthdata.com","kind":"major_road","sort_rank":379,"kind_detail":"secondary","min_zoom":3.0,"id":26085},"arcs":[360]},{"type":"LineString","properties":{"source":"naturalearthdata.com","kind":"minor_road","sort_rank":355,"kind_detail":"tertiary","min_zoom":6.0,"id":26099},"arcs":[361]},{"type":"LineString","properties":{"source":"naturalearthdata.com","kind":"major_road","sort_rank":379,"kind_detail":"secondary","min_zoom":4.0,"id":26101},"arcs":[362]},{"type":"LineString","properties":{"source":"naturalearthdata.com","kind":"major_road","sort_rank":379,"kind_detail":"secondary","min_zoom":3.0,"id":26121},"arcs":[363]},{"type":"LineString","properties":{"source":"naturalearthdata.com","kind":"minor_road","sort_rank":355,"kind_detail":"tertiary","min_zoom":7.0,"id":26128},"arcs":[364]},{"type":"LineString","properties":{"source":"naturalearthdata.com","kind":"major_road","sort_rank":379,"kind_detail":"secondary","min_zoom":4.0,"id":26150},"arcs":[365]},{"type":"LineString","properties":{"source":"naturalearthdata.com","kind":"minor_road","sort_rank":355,"kind_detail":"tertiary","min_zoom":7.0,"id":26170},"arcs":[366]},{"type":"LineString","properties":{"source":"naturalearthdata.com","kind":"major_road","sort_rank":379,"kind_detail":"secondary","min_zoom":4.0,"id":26184},"arcs":[367]},{"type":"LineString","properties":{"source":"naturalearthdata.com","kind":"minor_road","kind_detail":"tertiary","sort_rank":355,"landuse_kind":"urban_area","min_zoom":7.0,"id":26185},"arcs":[368]},{"type":"MultiLineString","properties":{"source":"naturalearthdata.com","kind":"minor_road","sort_rank":355,"kind_detail":"tertiary","min_zoom":7.0,"id":26185},"arcs":[[369],[370]]},{"type":"LineString","properties":{"source":"naturalearthdata.com","kind":"minor_road","sort_rank":355,"kind_detail":"tertiary","min_zoom":6.0,"id":26186},"arcs":[371]},{"type":"LineString","properties":{"source":"naturalearthdata.com","kind":"minor_road","sort_rank":355,"kind_detail":"tertiary","min_zoom":5.0,"id":26189},"arcs":[372]},{"type":"LineString","properties":{"source":"naturalearthdata.com","kind":"major_road","sort_rank":379,"kind_detail":"secondary","min_zoom":4.0,"id":26206},"arcs":[373]},{"type":"LineString","properties":{"source":"naturalearthdata.com","kind":"minor_road","sort_rank":355,"kind_detail":"tertiary","min_zoom":5.0,"id":26216},"arcs":[374]},{"type":"MultiLineString","properties":{"source":"naturalearthdata.com","kind":"minor_road","kind_detail":"tertiary","sort_rank":355,"landuse_kind":"protected_area","min_zoom":5.0,"id":26238},"arcs":[[375],[376],[377]]},{"type":"MultiLineString","properties":{"source":"naturalearthdata.com","kind":"minor_road","sort_rank":355,"kind_detail":"tertiary","min_zoom":5.0,"id":26238},"arcs":[[378],[379],[380],[381]]},{"type":"LineString","properties":{"source":"naturalearthdata.com","kind":"major_road","kind_detail":"secondary","sort_rank":379,"landuse_kind":"urban_area","min_zoom":3.0,"id":26244},"arcs":[382]},{"type":"LineString","properties":{"source":"naturalearthdata.com","kind":"major_road","sort_rank":379,"kind_detail":"secondary","min_zoom":3.0,"id":26244},"arcs":[383]},{"type":"LineString","properties":{"source":"naturalearthdata.com","kind":"minor_road","kind_detail":"tertiary","sort_rank":355,"landuse_kind":"urban_area","min_zoom":5.0,"id":26257},"arcs":[384]},{"type":"LineString","properties":{"source":"naturalearthdata.com","kind":"highway","kind_detail":"motorway","sort_rank":383,"landuse_kind":"urban_area","min_zoom":5.0,"id":26258},"arcs":[385]},{"type":"LineString","properties":{"source":"naturalearthdata.com","kind":"minor_road","kind_detail":"tertiary","sort_rank":355,"landuse_kind":"urban_area","min_zoom":5.0,"id":26259},"arcs":[386]},{"type":"LineString","properties":{"source":"naturalearthdata.com","kind":"minor_road","sort_rank":355,"kind_detail":"tertiary","min_zoom":5.0,"id":26259},"arcs":[387]},{"type":"LineString","properties":{"source":"naturalearthdata.com","kind":"minor_road","sort_rank":355,"kind_detail":"tertiary","min_zoom":6.0,"id":26273},"arcs":[388]},{"type":"LineString","properties":{"source":"naturalearthdata.com","kind":"highway","sort_rank":383,"kind_detail":"motorway","min_zoom":3.0,"id":26299},"arcs":[389]},{"type":"LineString","properties":{"source":"naturalearthdata.com","kind":"minor_road","kind_detail":"tertiary","sort_rank":355,"landuse_kind":"urban_area","min_zoom":7.0,"id":26308},"arcs":[390]},{"type":"LineString","properties":{"source":"naturalearthdata.com","kind":"minor_road","sort_rank":355,"kind_detail":"tertiary","min_zoom":7.0,"id":26308},"arcs":[391]},{"type":"LineString","properties":{"source":"naturalearthdata.com","kind":"major_road","kind_detail":"secondary","sort_rank":379,"landuse_kind":"urban_area","min_zoom":3.0,"id":26313},"arcs":[392]},{"type":"LineString","properties":{"source":"naturalearthdata.com","kind":"major_road","sort_rank":379,"kind_detail":"secondary","min_zoom":3.0,"id":26313},"arcs":[393]},{"type":"LineString","properties":{"source":"naturalearthdata.com","kind":"major_road","kind_detail":"secondary","sort_rank":379,"landuse_kind":"urban_area","min_zoom":3.0,"id":26322},"arcs":[394]},{"type":"LineString","properties":{"source":"naturalearthdata.com","kind":"minor_road","sort_rank":355,"kind_detail":"tertiary","min_zoom":6.0,"id":26345},"arcs":[395]},{"type":"LineString","properties":{"source":"naturalearthdata.com","kind":"major_road","kind_detail":"secondary","sort_rank":379,"landuse_kind":"urban_area","min_zoom":3.0,"id":26351},"arcs":[396]},{"type":"LineString","properties":{"source":"naturalearthdata.com","kind":"major_road","kind_detail":"secondary","sort_rank":379,"landuse_kind":"urban_area","min_zoom":3.0,"id":26352},"arcs":[397]},{"type":"LineString","properties":{"source":"naturalearthdata.com","kind":"minor_road","sort_rank":355,"kind_detail":"tertiary","min_zoom":7.0,"id":26357},"arcs":[398]},{"type":"LineString","properties":{"source":"naturalearthdata.com","kind":"minor_road","sort_rank":355,"kind_detail":"tertiary","min_zoom":7.0,"id":26358},"arcs":[399]},{"type":"LineString","properties":{"source":"naturalearthdata.com","kind":"highway","kind_detail":"motorway","sort_rank":383,"landuse_kind":"urban_area","min_zoom":3.0,"id":26374},"arcs":[400]},{"type":"LineString","properties":{"source":"naturalearthdata.com","kind":"minor_road","kind_detail":"tertiary","sort_rank":355,"landuse_kind":"protected_area","min_zoom":6.0,"id":26395},"arcs":[401]},{"type":"LineString","properties":{"source":"naturalearthdata.com","kind":"minor_road","kind_detail":"tertiary","sort_rank":355,"landuse_kind":"urban_area","min_zoom":6.0,"id":26395},"arcs":[402]},{"type":"LineString","properties":{"source":"naturalearthdata.com","kind":"minor_road","sort_rank":355,"kind_detail":"tertiary","min_zoom":6.0,"id":26395},"arcs":[403]},{"type":"LineString","properties":{"source":"naturalearthdata.com","kind":"minor_road","sort_rank":355,"kind_detail":"tertiary","min_zoom":6.0,"id":26397},"arcs":[404]},{"type":"LineString","properties":{"source":"naturalearthdata.com","kind":"minor_road","kind_detail":"tertiary","sort_rank":355,"landuse_kind":"urban_area","min_zoom":7.0,"id":26407},"arcs":[405]},{"type":"LineString","properties":{"source":"naturalearthdata.com","kind":"minor_road","sort_rank":355,"kind_detail":"tertiary","min_zoom":7.0,"id":26407},"arcs":[406]},{"type":"LineString","properties":{"source":"naturalearthdata.com","kind":"minor_road","sort_rank":355,"kind_detail":"tertiary","min_zoom":6.0,"id":26412},"arcs":[407]},{"type":"LineString","properties":{"source":"naturalearthdata.com","kind":"minor_road","kind_detail":"tertiary","sort_rank":355,"landuse_kind":"urban_area","min_zoom":6.0,"id":26427},"arcs":[408]},{"type":"LineString","properties":{"source":"naturalearthdata.com","kind":"minor_road","sort_rank":355,"kind_detail":"tertiary","min_zoom":6.0,"id":26430},"arcs":[409]},{"type":"LineString","properties":{"source":"naturalearthdata.com","kind":"minor_road","kind_detail":"tertiary","sort_rank":355,"landuse_kind":"urban_area","min_zoom":6.0,"id":26443},"arcs":[410]},{"type":"LineString","properties":{"source":"naturalearthdata.com","kind":"minor_road","kind_detail":"tertiary","sort_rank":355,"landuse_kind":"urban_area","min_zoom":6.0,"id":26443},"arcs":[411]},{"type":"MultiLineString","properties":{"source":"naturalearthdata.com","kind":"minor_road","sort_rank":355,"kind_detail":"tertiary","min_zoom":6.0,"id":26443},"arcs":[[412],[413]]},{"type":"LineString","properties":{"source":"naturalearthdata.com","kind":"highway","kind_detail":"motorway","sort_rank":383,"landuse_kind":"urban_area","min_zoom":3.0,"id":26477},"arcs":[414]},{"type":"LineString","properties":{"source":"naturalearthdata.com","kind":"highway","kind_detail":"motorway","sort_rank":383,"landuse_kind":"urban_area","min_zoom":3.0,"id":26477},"arcs":[415]},{"type":"LineString","properties":{"source":"naturalearthdata.com","kind":"highway","sort_rank":383,"kind_detail":"motorway","min_zoom":3.0,"id":26477},"arcs":[416]},{"type":"LineString","properties":{"source":"naturalearthdata.com","kind":"minor_road","kind_detail":"tertiary","sort_rank":355,"landuse_kind":"urban_area","min_zoom":6.0,"id":26490},"arcs":[417]},{"type":"LineString","properties":{"source":"naturalearthdata.com","kind":"minor_road","sort_rank":355,"kind_detail":"tertiary","min_zoom":6.0,"id":26490},"arcs":[418]},{"type":"LineString","properties":{"source":"naturalearthdata.com","kind":"minor_road","kind_detail":"tertiary","sort_rank":355,"landuse_kind":"urban_area","min_zoom":6.0,"id":26491},"arcs":[419]},{"type":"LineString","properties":{"source":"naturalearthdata.com","kind":"minor_road","kind_detail":"tertiary","sort_rank":355,"landuse_kind":"urban_area","min_zoom":6.0,"id":26491},"arcs":[420]},{"type":"LineString","properties":{"source":"naturalearthdata.com","kind":"minor_road","sort_rank":355,"kind_detail":"tertiary","min_zoom":6.0,"id":26491},"arcs":[421]},{"type":"LineString","properties":{"source":"naturalearthdata.com","kind":"highway","kind_detail":"motorway","sort_rank":383,"landuse_kind":"urban_area","min_zoom":3.0,"id":26496},"arcs":[422]},{"type":"LineString","properties":{"source":"naturalearthdata.com","kind":"highway","kind_detail":"motorway","sort_rank":383,"landuse_kind":"urban_area","min_zoom":3.0,"id":26496},"arcs":[423]},{"type":"LineString","properties":{"source":"naturalearthdata.com","kind":"highway","sort_rank":383,"kind_detail":"motorway","min_zoom":3.0,"id":26496},"arcs":[424]},{"type":"MultiLineString","properties":{"source":"naturalearthdata.com","kind":"highway","kind_detail":"motorway","sort_rank":383,"landuse_kind":"urban_area","min_zoom":6.0,"id":26507},"arcs":[[425],[426]]},{"type":"LineString","properties":{"source":"naturalearthdata.com","kind":"highway","sort_rank":383,"kind_detail":"motorway","min_zoom":6.0,"id":26507},"arcs":[427]},{"type":"LineString","properties":{"source":"naturalearthdata.com","kind":"minor_road","kind_detail":"tertiary","sort_rank":355,"landuse_kind":"urban_area","min_zoom":6.0,"id":26508},"arcs":[428]},{"type":"LineString","properties":{"source":"naturalearthdata.com","kind":"minor_road","sort_rank":355,"kind_detail":"tertiary","min_zoom":6.0,"id":26508},"arcs":[429]},{"type":"LineString","properties":{"source":"naturalearthdata.com","kind":"minor_road","kind_detail":"tertiary","sort_rank":355,"landuse_kind":"urban_area","min_zoom":7.0,"id":26526},"arcs":[430]},{"type":"LineString","properties":{"source":"naturalearthdata.com","kind":"minor_road","kind_detail":"tertiary","sort_rank":355,"landuse_kind":"urban_area","min_zoom":6.0,"id":26527},"arcs":[431]},{"type":"LineString","properties":{"source":"naturalearthdata.com","kind":"highway","kind_detail":"motorway","sort_rank":383,"landuse_kind":"urban_area","min_zoom":3.0,"id":26528},"arcs":[432]},{"type":"LineString","properties":{"source":"naturalearthdata.com","kind":"highway","kind_detail":"motorway","sort_rank":383,"landuse_kind":"urban_area","min_zoom":3.0,"id":26528},"arcs":[433]},{"type":"LineString","properties":{"source":"naturalearthdata.com","kind":"highway","sort_rank":383,"kind_detail":"motorway","min_zoom":3.0,"id":26528},"arcs":[434]},{"type":"LineString","properties":{"source":"naturalearthdata.com","kind":"minor_road","kind_detail":"tertiary","sort_rank":355,"landuse_kind":"urban_area","min_zoom":7.0,"id":26569},"arcs":[435]},{"type":"LineString","properties":{"source":"naturalearthdata.com","kind":"minor_road","sort_rank":355,"kind_detail":"tertiary","min_zoom":7.0,"id":26569},"arcs":[436]},{"type":"LineString","properties":{"source":"naturalearthdata.com","kind":"highway","kind_detail":"motorway","sort_rank":383,"landuse_kind":"urban_area","min_zoom":3.0,"id":26570},"arcs":[437]},{"type":"LineString","properties":{"source":"naturalearthdata.com","kind":"highway","sort_rank":383,"kind_detail":"motorway","min_zoom":3.0,"id":26570},"arcs":[438]},{"type":"LineString","properties":{"source":"naturalearthdata.com","kind":"minor_road","kind_detail":"tertiary","sort_rank":355,"landuse_kind":"urban_area","min_zoom":7.0,"id":26571},"arcs":[439]},{"type":"LineString","properties":{"source":"naturalearthdata.com","kind":"minor_road","sort_rank":355,"kind_detail":"tertiary","min_zoom":7.0,"id":26571},"arcs":[440]},{"type":"LineString","properties":{"source":"naturalearthdata.com","kind":"minor_road","sort_rank":355,"kind_detail":"tertiary","min_zoom":7.0,"id":26578},"arcs":[441]},{"type":"LineString","properties":{"source":"naturalearthdata.com","kind":"highway","kind_detail":"motorway","sort_rank":383,"landuse_kind":"urban_area","min_zoom":6.0,"id":26607},"arcs":[442]},{"type":"LineString","properties":{"source":"naturalearthdata.com","kind":"highway","sort_rank":383,"kind_detail":"motorway","min_zoom":6.0,"id":26607},"arcs":[443]},{"type":"LineString","properties":{"source":"naturalearthdata.com","kind":"minor_road","kind_detail":"tertiary","sort_rank":355,"landuse_kind":"urban_area","min_zoom":6.0,"id":26610},"arcs":[444]},{"type":"LineString","properties":{"source":"naturalearthdata.com","kind":"minor_road","sort_rank":355,"kind_detail":"tertiary","min_zoom":6.0,"id":26610},"arcs":[445]},{"type":"LineString","properties":{"source":"naturalearthdata.com","kind":"minor_road","sort_rank":355,"kind_detail":"tertiary","min_zoom":6.0,"id":26612},"arcs":[446]},{"type":"LineString","properties":{"source":"naturalearthdata.com","kind":"highway","kind_detail":"motorway","sort_rank":383,"landuse_kind":"urban_area","min_zoom":6.0,"id":26627},"arcs":[447]},{"type":"LineString","properties":{"source":"naturalearthdata.com","kind":"highway","sort_rank":383,"kind_detail":"motorway","min_zoom":6.0,"id":26627},"arcs":[448]},{"type":"LineString","properties":{"source":"naturalearthdata.com","kind":"minor_road","kind_detail":"tertiary","sort_rank":355,"landuse_kind":"urban_area","min_zoom":7.0,"id":26628},"arcs":[449]},{"type":"LineString","properties":{"source":"naturalearthdata.com","kind":"minor_road","sort_rank":355,"kind_detail":"tertiary","min_zoom":7.0,"id":26628},"arcs":[450]},{"type":"LineString","properties":{"source":"naturalearthdata.com","kind":"minor_road","sort_rank":355,"kind_detail":"tertiary","min_zoom":6.0,"id":26629},"arcs":[451]},{"type":"LineString","properties":{"source":"naturalearthdata.com","kind":"minor_road","sort_rank":355,"kind_detail":"tertiary","min_zoom":6.0,"id":26630},"arcs":[452]},{"type":"LineString","properties":{"source":"naturalearthdata.com","kind":"highway","sort_rank":383,"kind_detail":"motorway","min_zoom":3.0,"id":26631},"arcs":[453]},{"type":"LineString","properties":{"source":"naturalearthdata.com","kind":"minor_road","kind_detail":"tertiary","sort_rank":355,"landuse_kind":"urban_area","min_zoom":6.0,"id":26647},"arcs":[454]},{"type":"MultiLineString","properties":{"source":"naturalearthdata.com","kind":"minor_road","sort_rank":355,"kind_detail":"tertiary","min_zoom":6.0,"id":26647},"arcs":[[455],[456]]},{"type":"LineString","properties":{"source":"naturalearthdata.com","kind":"minor_road","sort_rank":355,"kind_detail":"tertiary","min_zoom":7.0,"id":26677},"arcs":[457]},{"type":"LineString","properties":{"source":"naturalearthdata.com","kind":"major_road","sort_rank":379,"kind_detail":"secondary","min_zoom":3.0,"id":26690},"arcs":[458]},{"type":"LineString","properties":{"source":"naturalearthdata.com","kind":"minor_road","sort_rank":355,"kind_detail":"tertiary","min_zoom":6.0,"id":26700},"arcs":[459]},{"type":"LineString","properties":{"source":"naturalearthdata.com","kind":"major_road","sort_rank":379,"kind_detail":"secondary","min_zoom":3.0,"id":26701},"arcs":[460]},{"type":"MultiLineString","properties":{"source":"naturalearthdata.com","kind":"highway","kind_detail":"motorway","sort_rank":383,"landuse_kind":"urban_area","min_zoom":3.0,"id":26714},"arcs":[[461],[462]]},{"type":"LineString","properties":{"source":"naturalearthdata.com","kind":"highway","sort_rank":383,"kind_detail":"motorway","min_zoom":3.0,"id":26714},"arcs":[463]},{"type":"LineString","properties":{"source":"naturalearthdata.com","kind":"minor_road","kind_detail":"tertiary","sort_rank":355,"landuse_kind":"urban_area","min_zoom":6.0,"id":26716},"arcs":[464]},{"type":"LineString","properties":{"source":"naturalearthdata.com","kind":"minor_road","sort_rank":355,"kind_detail":"tertiary","min_zoom":6.0,"id":26716},"arcs":[465]},{"type":"LineString","properties":{"source":"naturalearthdata.com","kind":"highway","sort_rank":383,"kind_detail":"motorway","min_zoom":6.0,"id":26724},"arcs":[466]},{"type":"LineString","properties":{"source":"naturalearthdata.com","kind":"minor_road","sort_rank":355,"kind_detail":"tertiary","min_zoom":7.0,"id":26734},"arcs":[467]},{"type":"LineString","properties":{"source":"naturalearthdata.com","kind":"minor_road","sort_rank":355,"kind_detail":"tertiary","min_zoom":7.0,"id":26751},"arcs":[468]},{"type":"LineString","properties":{"source":"naturalearthdata.com","kind":"highway","sort_rank":383,"kind_detail":"motorway","min_zoom":3.0,"id":26760},"arcs":[469]},{"type":"LineString","properties":{"source":"naturalearthdata.com","kind":"major_road","sort_rank":379,"kind_detail":"secondary","min_zoom":3.0,"id":26768},"arcs":[470]},{"type":"LineString","properties":{"source":"naturalearthdata.com","kind":"major_road","sort_rank":379,"kind_detail":"secondary","min_zoom":3.0,"id":26770},"arcs":[471]},{"type":"LineString","properties":{"source":"naturalearthdata.com","kind":"minor_road","sort_rank":355,"kind_detail":"tertiary","min_zoom":6.0,"id":26778},"arcs":[472]},{"type":"LineString","properties":{"source":"naturalearthdata.com","kind":"minor_road","sort_rank":355,"kind_detail":"tertiary","min_zoom":6.0,"id":26796},"arcs":[473]},{"type":"LineString","properties":{"source":"naturalearthdata.com","kind":"minor_road","sort_rank":355,"kind_detail":"tertiary","min_zoom":6.0,"id":26803},"arcs":[474]},{"type":"LineString","properties":{"source":"naturalearthdata.com","kind":"highway","sort_rank":383,"kind_detail":"motorway","min_zoom":6.0,"id":26817},"arcs":[475]},{"type":"LineString","properties":{"source":"naturalearthdata.com","kind":"minor_road","sort_rank":355,"kind_detail":"tertiary","min_zoom":6.0,"id":26836},"arcs":[476]},{"type":"LineString","properties":{"source":"naturalearthdata.com","kind":"major_road","sort_rank":379,"kind_detail":"secondary","min_zoom":3.0,"id":26843},"arcs":[477]},{"type":"LineString","properties":{"source":"naturalearthdata.com","kind":"highway","kind_detail":"motorway","sort_rank":383,"landuse_kind":"urban_area","min_zoom":3.0,"id":26853},"arcs":[478]},{"type":"LineString","properties":{"source":"naturalearthdata.com","kind":"minor_road","sort_rank":355,"kind_detail":"tertiary","min_zoom":7.0,"id":26854},"arcs":[479]},{"type":"LineString","properties":{"source":"naturalearthdata.com","kind":"minor_road","sort_rank":355,"kind_detail":"tertiary","min_zoom":7.0,"id":26864},"arcs":[480]},{"type":"LineString","properties":{"source":"naturalearthdata.com","kind":"minor_road","sort_rank":355,"kind_detail":"tertiary","min_zoom":7.0,"id":26865},"arcs":[481]},{"type":"LineString","properties":{"source":"naturalearthdata.com","kind":"minor_road","sort_rank":355,"kind_detail":"tertiary","min_zoom":7.0,"id":26896},"arcs":[482]},{"type":"LineString","properties":{"source":"naturalearthdata.com","kind":"minor_road","kind_detail":"tertiary","sort_rank":355,"landuse_kind":"urban_area","min_zoom":7.0,"id":26910},"arcs":[483]},{"type":"LineString","properties":{"source":"naturalearthdata.com","kind":"minor_road","sort_rank":355,"kind_detail":"tertiary","min_zoom":7.0,"id":26917},"arcs":[484]},{"type":"LineString","properties":{"source":"naturalearthdata.com","kind":"minor_road","sort_rank":355,"kind_detail":"tertiary","min_zoom":6.0,"id":26924},"arcs":[485]},{"type":"LineString","properties":{"source":"naturalearthdata.com","kind":"major_road","kind_detail":"secondary","sort_rank":379,"landuse_kind":"urban_area","min_zoom":3.0,"id":26931},"arcs":[486]},{"type":"LineString","properties":{"source":"naturalearthdata.com","kind":"major_road","kind_detail":"secondary","sort_rank":379,"landuse_kind":"urban_area","min_zoom":3.0,"id":26941},"arcs":[487]},{"type":"LineString","properties":{"source":"naturalearthdata.com","kind":"minor_road","kind_detail":"tertiary","sort_rank":355,"landuse_kind":"urban_area","min_zoom":7.0,"id":26949},"arcs":[488]},{"type":"LineString","properties":{"source":"naturalearthdata.com","kind":"minor_road","sort_rank":355,"kind_detail":"tertiary","min_zoom":7.0,"id":26949},"arcs":[489]},{"type":"LineString","properties":{"source":"naturalearthdata.com","kind":"minor_road","sort_rank":355,"kind_detail":"tertiary","min_zoom":7.0,"id":26960},"arcs":[490]},{"type":"LineString","properties":{"source":"naturalearthdata.com","kind":"major_road","kind_detail":"secondary","sort_rank":379,"landuse_kind":"urban_area","min_zoom":3.0,"id":26966},"arcs":[491]},{"type":"LineString","properties":{"source":"naturalearthdata.com","kind":"highway","kind_detail":"motorway","sort_rank":383,"landuse_kind":"urban_area","min_zoom":3.0,"id":26982},"arcs":[492]},{"type":"LineString","properties":{"source":"naturalearthdata.com","kind":"highway","sort_rank":383,"kind_detail":"motorway","min_zoom":3.0,"id":26982},"arcs":[493]},{"type":"LineString","properties":{"source":"naturalearthdata.com","kind":"major_road","kind_detail":"secondary","sort_rank":379,"landuse_kind":"urban_area","min_zoom":3.0,"id":26985},"arcs":[494]},{"type":"MultiLineString","properties":{"source":"naturalearthdata.com","kind":"minor_road","kind_detail":"tertiary","sort_rank":355,"landuse_kind":"urban_area","min_zoom":7.0,"id":26987},"arcs":[[495],[496]]},{"type":"LineString","properties":{"source":"naturalearthdata.com","kind":"minor_road","sort_rank":355,"kind_detail":"tertiary","min_zoom":7.0,"id":26987},"arcs":[497]},{"type":"LineString","properties":{"source":"naturalearthdata.com","kind":"minor_road","kind_detail":"tertiary","sort_rank":355,"landuse_kind":"urban_area","min_zoom":7.0,"id":26994},"arcs":[498]},{"type":"LineString","properties":{"source":"naturalearthdata.com","kind":"minor_road","kind_detail":"tertiary","sort_rank":355,"landuse_kind":"urban_area","min_zoom":6.0,"id":26998},"arcs":[499]},{"type":"LineString","properties":{"source":"naturalearthdata.com","kind":"highway","kind_detail":"motorway","sort_rank":383,"landuse_kind":"urban_area","min_zoom":3.0,"id":27005},"arcs":[500]},{"type":"LineString","properties":{"source":"naturalearthdata.com","kind":"major_road","sort_rank":379,"kind_detail":"secondary","min_zoom":4.0,"id":27006},"arcs":[501]},{"type":"LineString","properties":{"source":"naturalearthdata.com","kind":"highway","kind_detail":"motorway","sort_rank":383,"landuse_kind":"urban_area","min_zoom":3.0,"id":27017},"arcs":[502]},{"type":"LineString","properties":{"source":"naturalearthdata.com","kind":"major_road","kind_detail":"secondary","sort_rank":379,"landuse_kind":"urban_area","min_zoom":4.0,"id":27027},"arcs":[503]},{"type":"LineString","properties":{"source":"naturalearthdata.com","kind":"major_road","sort_rank":379,"kind_detail":"secondary","min_zoom":4.0,"id":27027},"arcs":[504]},{"type":"LineString","properties":{"source":"naturalearthdata.com","kind":"minor_road","kind_detail":"tertiary","sort_rank":355,"landuse_kind":"urban_area","min_zoom":7.0,"id":27028},"arcs":[505]},{"type":"LineString","properties":{"source":"naturalearthdata.com","kind":"highway","kind_detail":"motorway","sort_rank":383,"landuse_kind":"urban_area","min_zoom":3.0,"id":27029},"arcs":[506]},{"type":"MultiLineString","properties":{"source":"naturalearthdata.com","kind":"highway","kind_detail":"motorway","sort_rank":383,"landuse_kind":"urban_area","min_zoom":3.0,"id":27034},"arcs":[[507],[508]]},{"type":"LineString","properties":{"source":"naturalearthdata.com","kind":"highway","sort_rank":383,"kind_detail":"motorway","min_zoom":3.0,"id":27034},"arcs":[509]},{"type":"LineString","properties":{"source":"naturalearthdata.com","kind":"major_road","kind_detail":"secondary","sort_rank":379,"landuse_kind":"urban_area","min_zoom":4.0,"id":27037},"arcs":[510]},{"type":"LineString","properties":{"source":"naturalearthdata.com","kind":"major_road","kind_detail":"secondary","sort_rank":379,"landuse_kind":"urban_area","min_zoom":3.0,"id":27044},"arcs":[511]},{"type":"LineString","properties":{"source":"naturalearthdata.com","kind":"major_road","sort_rank":379,"kind_detail":"secondary","min_zoom":3.0,"id":27044},"arcs":[512]},{"type":"LineString","properties":{"source":"naturalearthdata.com","kind":"highway","kind_detail":"motorway","sort_rank":383,"landuse_kind":"urban_area","min_zoom":6.0,"id":27046},"arcs":[513]},{"type":"LineString","properties":{"source":"naturalearthdata.com","kind":"highway","sort_rank":383,"kind_detail":"motorway","min_zoom":6.0,"id":27046},"arcs":[514]},{"type":"LineString","properties":{"source":"naturalearthdata.com","kind":"major_road","kind_detail":"secondary","sort_rank":379,"landuse_kind":"urban_area","min_zoom":3.0,"id":27047},"arcs":[515]},{"type":"LineString","properties":{"source":"naturalearthdata.com","kind":"highway","kind_detail":"motorway","sort_rank":383,"landuse_kind":"urban_area","min_zoom":3.0,"id":27048},"arcs":[516]},{"type":"LineString","properties":{"source":"naturalearthdata.com","kind":"major_road","kind_detail":"secondary","sort_rank":379,"landuse_kind":"urban_area","min_zoom":4.0,"id":27051},"arcs":[517]},{"type":"LineString","properties":{"source":"naturalearthdata.com","kind":"highway","kind_detail":"motorway","sort_rank":383,"landuse_kind":"urban_area","min_zoom":3.0,"id":27052},"arcs":[518]},{"type":"LineString","properties":{"source":"naturalearthdata.com","kind":"minor_road","sort_rank":355,"kind_detail":"tertiary","min_zoom":6.0,"id":27074},"arcs":[519]},{"type":"LineString","properties":{"source":"naturalearthdata.com","kind":"highway","kind_detail":"motorway","sort_rank":383,"landuse_kind":"urban_area","min_zoom":3.0,"id":27081},"arcs":[520]},{"type":"LineString","properties":{"source":"naturalearthdata.com","kind":"major_road","kind_detail":"secondary","sort_rank":379,"landuse_kind":"urban_area","min_zoom":3.0,"id":27086},"arcs":[521]},{"type":"LineString","properties":{"source":"naturalearthdata.com","kind":"major_road","sort_rank":379,"kind_detail":"secondary","min_zoom":3.0,"id":27086},"arcs":[522]},{"type":"LineString","properties":{"source":"naturalearthdata.com","kind":"minor_road","sort_rank":355,"kind_detail":"tertiary","min_zoom":7.0,"id":27090},"arcs":[523]},{"type":"LineString","properties":{"source":"naturalearthdata.com","kind":"minor_road","kind_detail":"tertiary","sort_rank":355,"landuse_kind":"urban_area","min_zoom":7.0,"id":27091},"arcs":[524]},{"type":"LineString","properties":{"source":"naturalearthdata.com","kind":"minor_road","sort_rank":355,"kind_detail":"tertiary","min_zoom":7.0,"id":27091},"arcs":[525]},{"type":"LineString","properties":{"source":"naturalearthdata.com","kind":"highway","kind_detail":"motorway","sort_rank":383,"landuse_kind":"urban_area","min_zoom":3.0,"id":27092},"arcs":[526]},{"type":"MultiLineString","properties":{"source":"naturalearthdata.com","kind":"minor_road","kind_detail":"tertiary","sort_rank":355,"landuse_kind":"urban_area","min_zoom":7.0,"id":27101},"arcs":[[527],[528]]},{"type":"MultiLineString","properties":{"source":"naturalearthdata.com","kind":"minor_road","sort_rank":355,"kind_detail":"tertiary","min_zoom":7.0,"id":27101},"arcs":[[529],[530]]},{"type":"LineString","properties":{"source":"naturalearthdata.com","kind":"minor_road","sort_rank":355,"kind_detail":"tertiary","min_zoom":7.0,"id":27125},"arcs":[531]},{"type":"LineString","properties":{"source":"naturalearthdata.com","kind":"minor_road","sort_rank":355,"kind_detail":"tertiary","min_zoom":6.0,"id":27146},"arcs":[532]},{"type":"LineString","properties":{"source":"naturalearthdata.com","kind":"highway","sort_rank":383,"kind_detail":"motorway","min_zoom":3.0,"id":27164},"arcs":[533]},{"type":"LineString","properties":{"source":"naturalearthdata.com","kind":"minor_road","kind_detail":"tertiary","sort_rank":355,"landuse_kind":"urban_area","min_zoom":6.0,"id":27174},"arcs":[534]},{"type":"LineString","properties":{"source":"naturalearthdata.com","kind":"minor_road","sort_rank":355,"kind_detail":"tertiary","min_zoom":6.0,"id":27174},"arcs":[535]},{"type":"LineString","properties":{"source":"naturalearthdata.com","kind":"minor_road","kind_detail":"tertiary","sort_rank":355,"landuse_kind":"urban_area","min_zoom":7.0,"id":27178},"arcs":[536]},{"type":"LineString","properties":{"source":"naturalearthdata.com","kind":"minor_road","sort_rank":355,"kind_detail":"tertiary","min_zoom":7.0,"id":27178},"arcs":[537]}]},"earth":{"type":"GeometryCollection","geometries":[{"type":"MultiPolygon","properties":{"sort_rank":10,"source":"naturalearthdata.com","min_zoom":0.0,"kind":"earth","area":272252207501},"arcs":[[[538]]]}]},"landuse":{"type":"GeometryCollection","geometries":[{"type":"Polygon","properties":{"kind":"protected_area","protect_class":"1","area":142118000,"sort_rank":17,"source":"openstreetmap.org","min_zoom":7.0,"tier":2,"id":-5336354,"osm_relation":true},"arcs":[[539],[540],[541],[542],[543],[544],[545]]},{"type":"MultiPolygon","properties":{"source":"naturalearthdata.com","kind":"urban_area","name":"","area":9682811775,"sort_rank":11,"min_zoom":4.0},"arcs":[[[546]],[[547]],[[548]],[[549]],[[550]],[[551]],[[552]],[[553],[554]],[[555]],[[556]],[[557]],[[558]],[[559]],[[560]],[[561]],[[562]],[[563]],[[564]],[[565]],[[566]],[[567]],[[568]],[[569]],[[570]],[[571]],[[572]],[[573]],[[574]],[[575]],[[576]],[[577]],[[578]],[[579]],[[580]],[[581],[582],[583]],[[584]],[[585]]]},{"type":"Polygon","properties":{"kind":"protected_area","protect_class":"2","area":113602000,"sort_rank":17,"source":"openstreetmap.org","min_zoom":7.0,"tier":2,"id":-4759745,"osm_relation":true},"arcs":[[586],[587],[588]]}]}},"type":"Topology","transform":{"translate":[33.75,31.952162238],"scale":[0.0006866455,0.0005749467]},"arcs":[[[2638,2313],[8,-10],[26,-42],[19,-14]],[[2323,1919],[82,22],[70,30],[45,3],[7,27],[27,49],[13,29],[7,44],[4,86],[11,38],[13,24],[9,24],[10,16],[17,2]],[[2691,2248],[0,-1],[9,-7]],[[2691,2247],[0,1]],[[2234,1998],[7,-3],[9,-4],[16,-13],[14,-18],[10,-20],[14,-18],[19,-3]],[[2162,1981],[54,17],[18,0]],[[2122,1987],[9,0],[21,-6],[10,0]],[[2090,1969],[7,2],[16,13],[9,3]],[[1974,1977],[116,-8]],[[2747,1264],[23,13],[48,43],[80,51],[26,7]],[[2712,1269],[35,-5]],[[2214,971],[-26,10],[-42,34],[-19,11],[-3,1]],[[2124,1027],[-26,-2],[-20,-15],[-37,-43],[-45,-29],[-43,-21],[-39,-28],[-28,-51],[-18,-90],[-6,-30],[-10,-35],[-6,-5],[-19,-7],[-6,-4],[-6,-22],[-5,-55],[-4,-22],[18,-6],[10,-13],[3,-19],[-5,-22],[-11,-21],[-57,-53],[-19,-26],[-3,-16],[24,-54],[7,-30],[18,-164],[1,-32],[-3,-39],[0,-1],[1,-1],[1,-1],[1,0],[1,-6],[0,-6],[0,-7],[-1,-6],[-6,-45]],[[2637,752],[-117,31],[-34,9],[-35,1],[-38,12],[-8,44],[1,53],[-13,41],[-44,27],[-43,6]],[[2306,976],[-92,-5]],[[3016,2530],[2,-9],[-8,-11],[-2,-29],[-5,-9],[-3,-23],[-24,-18],[-11,-12],[-32,-15],[56,-38],[-49,-69],[10,-14],[41,-28],[6,-82],[33,-20],[4,-50],[-16,-34],[-16,-26],[0,-26],[55,-23],[-5,-23],[19,-166],[9,-21],[34,-57],[-21,-40],[-10,-2],[-25,-44],[-17,-52],[6,-21],[-12,-45],[-72,-87],[-39,-58]],[[3016,2530],[-22,-27],[-29,-58],[-24,-27],[-17,-11],[-20,-9],[-21,-5],[-20,-2],[-25,-7],[-56,-58],[-29,-24],[-23,-5],[-21,-4],[-13,-14],[5,-32],[-1,-7]],[[3088,2573],[-37,-22],[-35,-21]],[[4096,3831],[-14,-24],[-65,-55],[-29,-36],[-8,-25],[-3,-20],[-8,-16],[-24,-12],[-20,-1]],[[3925,3642],[-31,12],[-17,1]],[[3877,3655],[-31,-15],[-48,-62],[-58,-50],[-23,-28],[-20,-31],[-31,-63],[2,-6],[10,-17],[9,-11],[43,-33],[57,-10],[25,-15],[3,-36],[-18,-23],[-28,-4]],[[3769,3251],[-54,13],[-75,36],[-26,5]],[[3614,3305],[-22,-8],[-20,-16],[-24,-15],[-30,0]],[[3518,3266],[-12,7],[-18,23],[-10,6]],[[3478,3302],[-52,-32],[-25,-11],[-27,-7],[-24,-9],[-14,-19],[-20,-37],[-48,-41],[-20,-30],[-9,-20],[-26,-24],[-11,-16],[-2,-15],[4,-31],[-4,-17],[-7,-7],[-19,-7],[-6,-6],[-5,-37],[19,-12],[32,-6],[34,-19],[21,-6],[27,-13],[24,-18],[13,-20],[-5,-32],[-22,-26],[-30,-20],[-28,-13]],[[3248,2751],[-34,1]],[[3214,2752],[-34,-11],[-17,-24],[20,-35],[-23,-55],[-46,-38],[-26,-16]],[[2712,1269],[-27,-20],[-22,-29],[-13,-12],[-10,-4],[-3,-6],[-1,-14],[6,-13],[12,-7],[0,-11],[-10,0],[0,-13],[8,-16],[5,-45],[8,-21],[-6,-10],[-2,-1]],[[2657,1047],[-1,5],[-2,6]],[[2654,1058],[-3,-6],[-7,-19]],[[2644,1033],[-9,12]],[[2635,1045],[5,-36],[4,-12],[-20,0],[0,-11]],[[2632,986],[6,0],[10,-15],[3,-8],[14,-14],[0,-11],[-13,-4],[-9,-9],[-5,-12],[-3,-12],[6,-4],[3,-3],[4,-2],[6,-1],[0,-13],[-9,-7],[-10,-4],[9,-12],[-20,-13],[3,-3]],[[2624,986],[8,0]],[[2630,839],[3,-1],[2,-8],[-11,0],[0,-11],[9,-9],[2,-7],[-6,-5],[-15,-2],[7,-20],[3,-5],[7,-8],[6,-11]],[[2627,839],[3,0]],[[2637,752],[5,-13],[2,-16],[-9,0]],[[2635,723],[0,12]],[[2635,735],[-11,0],[0,-12],[8,-17],[-1,-52],[13,-26],[-6,-20],[-1,-33],[6,-33],[11,-21],[-7,-4],[-6,-5],[-3,-6],[-3,-10]],[[2654,496],[-19,-82],[-6,-27],[6,-21],[0,-13],[-12,-6],[-6,-8],[0,-10],[7,-11],[-24,-42],[-1,-20],[15,-22],[-24,-20],[-8,-30],[3,-80],[15,-41],[4,-19],[0,-24],[3,-14],[3,-6]],[[2635,496],[19,0]],[[2941,1384],[8,-1],[6,-5],[13,-17],[157,-37],[14,-8],[25,-26],[7,-3]],[[2924,1378],[9,4],[8,2]],[[3190,1288],[6,-3],[2,-12],[-2,-11],[-5,-7]],[[3171,1287],[19,1]],[[3191,1255],[-5,0]],[[3186,1255],[13,-16],[13,-12],[15,-6]],[[3248,1225],[34,-2],[7,-20],[-5,-30],[2,-32],[13,-30],[66,-100],[8,-21],[0,-7],[6,-1],[17,-1],[21,-1]],[[3227,1221],[21,4]],[[3535,1000],[16,-8],[47,-49],[94,-65],[128,-123],[22,-12],[28,-9],[82,-8],[24,-15],[53,-7],[67,-8]],[[3504,979],[7,4],[17,15],[7,2]],[[3471,988],[9,-1],[15,-6],[9,-2]],[[3417,980],[54,8]],[[3088,2573],[4,-26],[-5,-17],[-12,-13],[-24,-18],[-15,-19],[-6,-23],[0,-23],[6,-22],[12,-28],[1,-2],[3,-15],[-1,-16],[-7,-15],[-10,-8],[-10,-4],[-7,-4],[-3,-3],[1,-7],[9,-1],[14,-1],[14,0],[8,-6],[4,-5],[1,-7],[10,-54],[7,-20],[12,-18],[16,-21],[5,-9],[0,-7],[-9,-9],[0,-8],[3,-10],[5,-4],[3,0],[9,7],[6,-2],[8,-5],[2,-10],[6,-9],[0,-29],[0,-17],[-1,-7],[-7,-4],[-8,-4],[-8,-4],[-5,-7],[3,-7],[5,-7],[8,0],[0,-12],[-18,0],[-32,-4],[-5,-45],[18,-154],[30,-13],[38,-31],[-17,-35],[-32,-33],[-43,-84],[-21,-76],[1,-1],[2,-10],[-8,-15],[-31,-44],[-9,-17],[-11,-7],[-24,-14],[-32,-46]],[[1851,746],[-9,3],[-2,2],[-2,3],[-1,2],[-3,3],[-5,3],[-23,21],[-6,4],[-5,2],[-73,6]],[[1722,795],[-14,-2],[-3,-1],[-16,-2]],[[1689,790],[-60,2]],[[1629,792],[-1,0]],[[1868,748],[-1,0],[-16,-2]],[[2745,2576],[-5,37],[-6,10],[-8,16],[-2,6],[-6,23],[-4,41]],[[3221,2179],[-12,-67],[-1,-18],[2,-2],[20,-16],[4,-3],[4,-6],[7,-14],[2,-7],[1,-4],[-19,-30],[-9,-22],[-2,-3],[-17,-109],[-1,-13],[7,-16],[17,-25],[0,-1],[8,-17],[6,-9],[6,-7],[3,-6],[9,-31],[2,-10],[0,-6],[-1,-3],[-2,-2],[-3,0]],[[3252,1732],[-2,1],[-3,1],[-2,2],[-2,2],[-2,2],[-2,3],[-1,2],[-1,6],[-1,3],[-2,3],[-2,1],[-3,2],[-7,1]],[[3222,1761],[-26,-2],[-4,-1],[-5,-2],[-6,-6],[-2,-4],[0,-4],[1,-3],[1,-2],[4,-5],[2,-6],[2,-11],[5,-34],[-1,-7],[-1,-3],[-7,-11],[-44,-35],[-77,-72],[-10,-16]],[[1930,1637]],[[1536,418]],[[1433,106]],[[1628,792]],[[2760,3940]],[[2619,3399]],[[2524,3327]],[[2370,2848]],[[4015,2335],[6,0],[5,-4],[3,-4],[2,-3],[2,-5],[3,-6],[6,-21],[2,-5],[3,-5],[49,-57]],[[3833,2167],[2,1],[4,3],[1,1],[1,3],[1,3],[1,3],[1,19],[1,3],[1,3],[5,7],[43,40],[6,4],[1,1],[72,45],[4,4],[8,11],[25,17],[5,0]],[[3619,2328],[3,-1],[2,-1],[2,-2],[2,-2],[12,-21],[7,-8],[4,-4],[2,-2],[16,-8],[2,-2],[2,-2],[2,-2],[1,-3],[1,-3],[2,-18],[1,-3],[1,-2],[2,-3],[2,-2],[2,-1],[3,-2],[4,-1],[27,-4],[6,-1],[3,-2],[4,-3],[2,-3],[1,-2],[6,-14],[2,-2],[2,-2],[14,-10],[5,-4],[3,-4],[7,-3],[37,-11],[12,-2],[8,-1]],[[3314,2131],[8,2],[9,3],[5,2],[9,7],[22,19],[2,2],[116,9],[6,2],[22,12],[61,20],[14,7],[5,14],[8,15],[3,6],[2,7],[0,3],[0,3],[0,7],[-6,19],[1,6],[2,8],[7,16],[5,6],[4,2]],[[3221,2179],[32,-13],[3,-3],[6,-6],[9,-16],[5,-7],[10,-2],[28,-1]],[[4096,2154],[-16,-9],[-12,-2]],[[4068,2143],[-41,5]],[[4027,2148],[-9,0],[-6,-1],[-25,-20],[-8,-7],[-7,-9],[-5,-8],[-2,-8],[-2,-8],[0,-5],[0,-4],[1,-4],[3,-8],[1,-7],[1,-4],[-2,-11],[-2,-9],[0,-6],[0,-4],[3,-13],[4,-11],[10,-22],[2,-6],[2,-7],[0,-7],[1,-27],[1,-3],[1,-3],[3,-5],[2,-2],[3,-1],[2,-1],[3,-1],[2,0]],[[4039,1926],[4,0],[3,-1],[3,-2],[2,-2],[1,-2],[2,-3],[1,-6],[2,-41],[1,-3],[1,-4],[2,-5],[7,-14],[3,-9],[-1,-5],[-1,-3],[-3,-1],[-7,0]],[[4004,1916],[3,0],[22,9],[3,0],[7,1]],[[4059,1825],[-86,6]],[[3973,1831],[-59,-4],[-16,-4],[-11,-6],[-44,-34],[-20,-20],[-18,-10],[-23,-18],[-5,-5],[-3,-5],[0,-4],[0,-3],[2,-6],[4,-8],[1,-3],[1,-3],[0,-4],[0,-3],[0,-4],[-1,-3],[-12,-24],[-2,-6],[0,-3],[0,-4],[1,-10],[3,-13],[4,-18],[26,-62],[5,-18],[-1,-6],[-1,-1],[-2,-5],[0,-27],[11,-117],[-16,-14],[-3,-9],[-1,-11],[0,-7],[1,-11],[1,-4],[2,-5],[4,-8],[2,-3],[2,-2],[4,-2],[7,-2],[7,0],[3,0],[4,-1],[22,-9],[6,-2],[30,-3],[6,-3],[10,-5],[19,-13],[6,-7],[4,-6],[0,-8],[-3,-13],[-2,-2],[-1,-3],[-4,-4],[-4,-3],[-11,-6],[-5,-3],[-2,-2],[-7,-9],[-2,-1],[-3,-2],[-5,-2],[-18,-6],[-3,-2],[-3,-4],[-2,-9],[1,-8],[9,-20],[1,-5],[-2,-6],[-5,-14],[-1,-5],[-2,-12],[1,-5],[3,-3],[24,-4],[22,0]],[[3940,1087],[4,-1],[3,-1],[6,-7],[4,-5],[5,-4],[5,-3],[3,-1],[4,0]],[[3909,1082],[28,5],[3,0]],[[3998,1068],[17,-27],[2,-10],[-1,-3],[-10,-13],[-8,-18],[-1,-5],[1,-5],[7,-11],[20,-23],[14,-23],[4,-8],[2,-6],[-1,-15],[-2,-7],[-10,-33],[-1,-8],[5,-84],[-1,-5],[-6,-49],[0,-10],[0,-1]],[[3974,1065],[24,3]],[[3393,790],[11,3],[10,45],[-18,143]],[[3338,819],[16,-5],[27,-22],[12,-2]],[[3302,685],[11,15],[2,13],[-4,26],[-8,17],[-7,14],[-2,15],[5,14],[21,17],[18,3]],[[3263,425],[-15,36],[-19,32],[-10,10],[-12,8],[-7,12],[1,17],[14,27],[66,76],[21,42]],[[3191,163],[-28,17],[-10,4],[-12,12],[-7,9],[-9,45]],[[3263,425],[-5,-36],[-7,-16],[-12,-13],[-19,-9],[-23,-14],[-17,-13],[-55,-74]],[[3191,163],[34,-45],[35,-33],[49,-60],[28,-21],[13,-4]],[[3716,117],[154,-14],[31,-14],[30,-25],[57,-64]],[[3591,43],[30,6],[19,11],[28,35],[17,15],[31,7]],[[3497,44],[94,-1]],[[3360,0],[25,15],[17,3],[24,2],[71,24]],[[2645,415],[101,-12]],[[2635,414],[10,1]],[[2832,355],[-38,8],[-24,10],[-24,30]],[[3056,782],[9,-4],[7,-23],[7,-14],[29,-24],[31,-44]],[[2994,747],[23,3],[18,11],[10,15],[11,6]],[[2951,749],[43,-2]],[[2848,710],[35,10],[44,25],[24,4]],[[2811,712],[37,-2]],[[2746,403],[7,17],[1,10],[-4,16],[-20,46],[-9,29],[-2,26],[22,109],[10,27],[14,18],[21,9],[25,2]],[[2832,355],[2,-15],[15,-5],[20,-2]],[[2995,336],[29,-5],[20,-9],[17,-17],[11,-15],[53,-40]],[[2869,333],[126,3]],[[3208,700],[46,-13],[48,-2]],[[3139,673],[50,21],[19,6]],[[2832,355],[61,70],[99,46],[13,15],[4,15],[-1,17],[4,24],[10,29],[25,39],[23,23],[22,15],[16,7],[31,18]],[[3191,163],[-43,-14],[-45,-46],[-23,-13],[-55,-17],[-22,-18],[-46,-55]],[[3263,425],[30,-10],[12,-13],[5,-12],[-2,-12],[-7,-10],[-4,-13],[1,-16],[7,-12],[15,-11],[16,-3]],[[3388,345],[14,-2],[19,-11],[35,-28],[22,-6]],[[3336,313],[17,4],[15,8],[20,20]],[[3562,319],[59,-6],[59,-30],[25,-19],[23,-6]],[[3478,298],[21,2],[30,12],[15,4],[18,3]],[[3829,290],[79,-8],[26,-14],[46,-44],[51,-30],[65,-23]],[[3728,258],[22,0],[18,9],[16,12],[18,9],[27,2]],[[1930,1637],[4,-1],[10,-4],[4,-3],[3,-4],[6,-12],[2,-5],[3,-4],[6,-4],[1,-3],[1,-5],[-4,-22],[1,-3],[2,-4],[12,-8],[4,-4],[2,-2],[5,-4],[2,-1],[5,-2],[22,-7],[5,-3],[2,-1],[2,-4],[0,-6],[-4,-21],[0,-4],[1,-6],[3,-9],[15,-33],[1,-5],[0,-7],[-2,-14],[-2,-6],[-1,-5],[-15,-23],[-1,-2],[-2,-5],[-1,-3],[3,-25],[-1,-5],[-2,-3],[-7,-5],[-2,-3],[-1,-5],[1,-9],[0,-4],[0,-3],[-2,-5],[-4,-5],[-3,-4],[-3,-1],[-2,-2],[-3,0]],[[1996,1299],[-2,1],[-2,2],[-2,3],[-4,7],[-2,2],[-2,1]],[[1982,1315],[-3,0],[-2,-1],[-2,-3],[-2,-5],[-1,-11],[0,-3],[7,-31],[0,-7],[-1,-4],[-21,-12],[-2,-2],[-2,-2],[-3,-4],[-11,-25],[-4,-8],[-3,-1],[-2,-2],[-3,0]],[[1927,1194],[-3,0],[-19,8],[-6,2],[-4,0]],[[1895,1204],[-3,0],[-3,-1],[-3,-1],[-2,-2],[-5,-4],[-1,-2],[-3,-5],[-1,-3],[-1,-6],[-1,-4],[3,-5],[4,-7],[12,-13],[2,-5],[0,-3]],[[1893,1143],[-7,1],[-8,4],[-4,1],[-3,0]],[[1871,1149],[-7,0],[-3,-1],[-3,-1],[-1,-3],[0,-4],[2,-5],[6,-10],[2,-7],[2,-5],[0,-3],[0,-4],[1,-3],[1,-2],[6,-5],[20,-14],[2,-3],[1,-3],[-1,-7],[-4,-13],[0,-3],[0,-3],[1,-3],[3,-3],[9,-6],[3,-3],[2,-3],[2,-4],[5,-3],[9,-6],[5,-3],[6,-3],[43,-9],[3,-1],[3,0]],[[2071,1080],[6,-4],[5,-3],[41,-39],[4,-8]],[[1989,1003],[4,0],[6,3],[10,7],[4,4],[3,4],[1,3],[2,2],[2,2],[8,5],[3,3],[1,4],[1,3],[0,3],[1,3],[2,2],[3,2],[13,6],[2,2],[2,2],[2,3],[4,7],[3,5],[2,1],[3,1]],[[1610,106],[7,1],[25,11],[7,5],[3,4],[0,3],[-1,3],[-1,1],[-4,4],[-2,1],[-13,7],[-2,1],[-2,3],[0,3],[-7,41],[-1,3],[-1,3],[-2,2],[-4,4],[-6,5],[-3,2],[-4,3],[-1,1],[-1,2],[-2,2],[-1,2],[-1,3],[0,3],[0,4],[1,6],[2,6],[1,18],[1,7],[1,4],[10,12],[3,5],[10,21],[3,13],[0,4],[0,4],[-3,7],[0,3],[0,3],[1,6],[2,8],[0,13],[-1,3],[-1,3],[-1,3],[-2,2],[-8,4],[-2,1],[-2,2],[-3,5],[-7,5],[-9,7],[-2,2],[-5,3],[-7,1],[-30,4]],[[1545,418],[-9,0]],[[1590,121],[3,-1],[2,-1],[6,-7],[6,-5],[3,-1]],[[1530,80],[5,1],[5,2],[1,0],[1,0],[22,24],[1,2],[2,3],[4,2],[9,6],[6,1],[4,0]],[[1433,106],[13,-15],[7,-4],[47,-7],[30,0]],[[2922,3884],[-26,3],[-97,49],[-37,4],[-2,0]],[[3125,3856],[-9,2],[-29,18],[-11,5],[-18,14],[-8,3],[-11,0]],[[3039,3898],[-19,-2],[-19,-4],[-10,-4],[-7,-1]],[[2984,3887],[-36,1]],[[2948,3888],[-21,-4],[-5,0]],[[3270,3831],[-9,1],[-10,1],[-49,24],[-8,8],[-3,1],[-7,3],[-4,0]],[[3180,3869],[-4,-1],[-3,-5],[-4,-8],[-3,-4],[-3,-1],[-4,-1],[-4,0]],[[3155,3849],[-11,3],[-9,4]],[[3135,3856],[-10,0]],[[3293,3827],[-14,7]],[[3279,3834],[-9,-3]],[[2552,3321],[19,1],[5,3],[6,8],[3,5],[17,1],[16,52],[1,8]],[[2524,3327],[28,-6]],[[2967,3157],[4,0],[5,0],[4,2],[4,3],[3,3],[10,16],[-7,13],[-48,34],[95,112],[24,43],[7,14],[1,4],[16,20],[66,60],[17,7]],[[2950,3158],[17,-1]],[[2714,2709],[13,11],[6,6],[11,15],[4,8],[3,11],[20,84],[17,44],[10,19],[84,126],[14,8],[6,4],[7,11],[12,13],[1,5],[0,4],[-22,22],[40,58],[10,0]],[[3488,4096],[-9,-32],[-45,-46],[-54,-68],[-5,-45],[-5,-16],[-30,-51],[-6,-6],[-3,-2],[-4,-1],[-34,-2]],[[3293,3827],[-12,-29],[-2,-13],[-5,-105],[-65,-130],[-41,-62]],[[2714,2709],[9,49],[-2,5],[-1,6],[-6,3],[-7,3],[-4,2],[-7,7],[-2,6],[0,4],[3,11],[1,15],[1,35],[-4,13],[-6,9],[-7,1]],[[2682,2878],[-4,-1],[-5,-3],[-3,-3],[-4,-2],[-3,0],[-4,0],[-13,-3],[-7,0],[-3,-1],[-3,-1],[-2,-3],[-1,-2],[-2,-2],[-2,-2],[-7,-1],[-2,-2],[-3,-6],[-2,-2],[-7,-4],[-3,-1],[-6,-1],[-10,-2]],[[2493,2817],[-36,6],[-37,20],[-43,2],[-7,3]],[[2586,2836],[-8,0]],[[2578,2836],[-3,0],[-6,-3],[-2,-1],[-17,-6],[-11,-3]],[[2539,2823],[-14,1]],[[2525,2824],[-4,0],[-2,-2],[-2,-3],[-2,-2]],[[2515,2817],[-6,0]],[[2509,2817],[-16,0]],[[2863,2659],[29,-10],[30,-18],[8,-10],[4,-13],[14,-30],[7,-8],[5,-4],[67,-9],[23,-6],[1,0]],[[2773,2567],[11,4],[14,18],[13,20],[15,19],[20,21],[10,7],[7,3]],[[2745,2576],[28,-9]],[[2611,2429],[-22,50],[-5,14],[3,24],[-5,112],[1,5],[7,43],[1,15],[-1,0],[0,1],[-1,0],[-3,1]],[[2586,2694],[-3,0],[-4,-1],[0,-1],[-3,-4],[-3,-3],[-4,-3],[-4,-2],[-3,-1],[-9,0],[-4,-1],[-4,-1],[-17,-10],[-8,-2],[-5,-1],[-9,0]],[[2506,2664],[-11,2]],[[2495,2666],[-63,-14],[-14,-9],[2,-2],[4,-2],[3,-3],[2,-5],[-1,-8],[-4,-4],[-4,-2],[-9,-1],[-16,-2],[-5,-3],[-3,-5],[-4,-7],[-11,-19],[-2,-6],[0,-3],[3,-1]],[[2745,2576],[-12,-23],[-6,-5],[-9,-3],[-25,-24],[-6,-19],[-2,-3],[-3,-5],[-5,-3],[-8,-1]],[[2381,2573],[3,-1],[2,-3],[1,-3],[-1,-5],[-1,-4],[-26,-47],[-2,-9],[1,-15],[-2,-4],[-3,-1]],[[2373,2570],[8,3]],[[2353,2481],[-3,2],[-4,5],[-1,3],[-3,3],[-7,5],[-3,4],[-2,3],[-2,8],[-3,4],[-5,2],[-7,1]],[[2313,2521],[-15,-4],[-7,-4],[-4,-4],[-1,-4],[0,-8],[0,-2],[-1,-5],[-1,-6],[-5,-11],[-4,-5],[-6,-3],[-14,0],[-3,-2],[2,-2],[3,-2],[4,-3],[4,-1],[4,-1],[16,-1]],[[2669,2490],[-5,1],[-3,1],[-3,1],[-3,1]],[[2655,2494],[-4,0],[-2,-1],[-5,-3],[-3,-1],[-6,-2],[-8,-12],[-16,-46]],[[2289,2454],[4,-1],[15,-9],[4,-2],[4,-4],[4,-11],[-7,-28],[23,-24],[28,-9],[38,-7],[10,-1]],[[2285,2453],[4,1]],[[2447,2368],[-14,-19],[-1,-10],[1,-7],[0,-28],[-3,-9],[-4,-9],[-7,-6],[-40,-51],[-8,-9],[-7,-5],[-10,-4],[-6,-2],[-8,-5],[-3,-5],[0,-4],[3,-3],[3,-2],[4,-1],[4,-2],[3,-3],[2,-7],[-2,-2],[-14,-9],[-5,-2],[-4,-1],[-13,0],[-6,-1],[-2,-5],[-1,-18],[-2,-6],[-4,-6],[-7,-7],[-2,-1],[-3,-2],[-4,0]],[[2412,2358],[6,1],[6,5],[23,4]],[[2287,2117],[-11,3]],[[2276,2120],[-8,-1],[-4,-6],[-18,-48],[0,-4],[-1,-8],[-2,-8],[0,-4],[1,-9],[0,-5],[-1,-19],[-2,-13]],[[3048,2384],[61,-32],[15,-10],[0,-3],[-1,-3],[-7,-9],[-6,-9],[-2,-3],[-2,-5],[-3,-10],[-2,-10],[0,-7],[0,-8],[1,-3],[2,-6],[9,-21],[4,-4],[3,-1]],[[3145,2270],[34,-6],[17,-1],[18,-3],[6,-3],[3,-3],[1,-4],[1,-3],[0,-8],[-2,-14],[1,-27],[-1,-8],[-2,-11]],[[3120,2240],[1,2],[2,3],[2,5],[2,8],[1,2],[1,2],[2,2],[2,2],[5,3],[3,1],[4,0]],[[3724,2804],[41,-4],[23,-32],[-1,-19],[3,-32],[-14,-38],[-33,-34],[-5,-21]],[[3555,2715],[-11,32],[56,31],[43,2],[81,24]],[[3589,2651],[-8,18],[31,32],[-34,17]],[[3578,2718],[-23,-3]],[[3738,2624],[-28,5],[-88,44]],[[3622,2673],[-33,-22]],[[1965,1832],[-27,-121],[20,-117],[-54,-98],[-35,-32],[-72,62],[-41,-13],[-45,-395],[43,-198],[-91,-85],[-36,-258],[-120,-398],[146,-178]],[[1465,0],[6,145],[31,9],[18,58]],[[1537,266],[185,10],[4,80],[-49,23]],[[1653,1],[-146,177],[120,399],[36,258],[91,85],[-44,198],[45,395],[42,13],[72,-62],[35,32],[54,98],[-20,117],[26,121]],[[1733,1288],[24,228],[41,10],[60,-58]],[[1815,1514],[4,-2]],[[2539,976],[-232,96],[-68,102],[-197,58],[-69,52],[-16,63],[-99,121]],[[1520,212],[-18,-58],[-31,-8],[-5,-146]],[[1677,379],[49,-23],[-4,-80],[-185,-10]],[[1652,0],[-140,160]],[[1512,160],[-5,14]],[[1677,379],[49,-23],[-3,-78],[-72,-1],[-37,-11],[-21,-5],[-2,0],[-2,0],[-2,0],[-21,2],[-7,1],[-18,6],[-29,-110]],[[1563,263],[29,-2],[57,16],[3,0],[13,2]],[[1527,233],[-14,-76],[139,-157]],[[1528,233],[15,38],[179,6],[4,79],[-49,23]],[[1653,1],[-140,156],[15,76]],[[1758,1461],[13,67],[66,-44]],[[1858,1468],[24,0],[41,66]],[[1876,1464],[-2,0],[-2,-1]],[[1923,1533],[-2,-3]],[[1964,1832],[-26,-121],[20,-117],[-54,-98],[-35,-32],[-72,62],[-42,-13],[-45,-395],[44,-198],[-91,-85],[-36,-258],[-120,-399],[68,-76],[94,-46],[23,-56]],[[1652,0],[-145,178],[120,399],[36,257],[89,80],[-5,66]],[[1692,0],[-23,56],[-94,46],[-68,76],[120,399],[36,258],[91,85],[-43,198],[45,395],[41,13],[72,-62],[35,32],[54,98],[-20,117],[27,121]],[[1467,61],[-22,12],[1,56],[25,54],[122,61]],[[1593,244],[6,0]],[[1593,244],[2,5]],[[1595,249],[25,18]],[[1595,249],[4,-5]],[[1599,244],[60,5]],[[1758,1461],[12,66],[101,-63],[32,31],[20,39]],[[1876,1465],[-4,-1]],[[1923,1533],[-2,-3]],[[1747,980],[4,-66],[-88,-80],[-36,-257],[-120,-399],[145,-178]],[[2539,976],[-232,96],[-67,101],[-193,56],[-69,50],[-41,100],[-66,81],[-22,12],[-29,39],[-13,7],[-8,7],[-2,1],[-2,1],[-3,1],[-10,0],[-12,0],[-15,-16],[-22,-224]],[[1792,1528],[4,-1]],[[1815,1514],[4,-2]],[[1527,233],[-14,-76],[140,-156]],[[2257,1690],[-13,2],[-2,0],[-2,-1],[-8,-2],[-9,-3],[-31,-13],[-31,-5],[-30,0],[-20,3],[-4,1],[-3,0],[-55,-4],[-4,0],[-11,3],[-2,0],[-19,0],[-21,5],[-4,0],[-4,0],[-10,-1],[-3,0],[-2,-1],[-9,-4],[-1,-1],[-8,-1],[-2,-1],[-3,-1],[-1,-2],[-1,-2],[-1,-2],[0,-2],[0,-3],[1,-5],[4,-13]],[[1948,1637],[9,-46],[-76,-123],[-108,60],[-15,-67]],[[2258,1690],[-1,0]],[[2257,1690],[-17,1],[-48,-18],[-31,-5],[-30,-1],[-25,5],[-57,-4],[-36,3],[-25,5],[-14,-1],[-13,-6],[-2,0],[-10,-2],[-4,-3],[3,-27]],[[1948,1637],[5,-15],[5,-8],[0,-2],[1,-3],[0,-2],[0,-3],[-1,-10],[0,-2],[-1,-1],[-1,-2],[-3,-5],[-41,-70],[-6,-16],[-2,-2],[-1,-2],[-2,-1],[-9,-8],[-8,-14],[-1,-1],[-2,-2],[-1,-1],[-2,-1],[-1,-1],[-2,-1],[-3,0],[-3,0],[-2,0],[-2,0],[-15,7],[-77,57],[-15,-67]],[[2786,4096],[-15,-39],[-6,-54],[-1,-55],[-5,-9],[-20,-15],[-5,-12],[0,-60],[5,-24],[20,-39],[5,-20],[-7,-54],[-23,-76],[0,-43],[5,-6],[7,-5],[7,-8],[1,-16],[-6,-7],[-24,-1],[-10,-3],[-11,-17],[-17,-42],[-13,-15],[10,0],[2,-3],[-1,-7],[-7,-14],[-14,-35],[-9,-12],[-22,-7],[-13,1],[-21,1],[-14,-8],[-10,0],[-9,8],[-17,7],[-19,3],[-16,-5],[-7,-14],[4,-14],[9,-17],[5,-20],[0,-13],[-3,-72],[-5,-34],[-58,-140],[1,-21],[-24,-16],[-18,-71],[-22,-20],[9,-12],[-56,-151],[-3,-22],[-16,-52],[-38,-40],[-76,-58],[6,-22],[-9,-21],[-27,-40],[-5,-24],[-1,-47],[-4,-23],[-27,-76],[-22,-32],[-31,-23],[30,-45],[-6,-52],[-44,-95],[-5,12],[-5,2],[-9,-2],[9,-12],[-10,-14],[-9,-20],[-11,-17],[-32,-14],[-15,-15],[-13,-20],[-9,-19],[1,-6],[0,-4],[2,-2],[6,1],[-1,-8],[0,-3],[-2,-1],[-6,-1],[9,-12],[-6,-5],[-8,-11],[-6,-7],[6,-30],[-7,-33],[-19,-57],[-10,-105],[-9,-26],[18,-9],[2,-21],[-6,-22],[-12,-46],[-6,-15],[-51,-55],[-13,-3],[-23,5],[-29,19],[-19,5],[-21,-13],[-12,-35],[-8,-156],[-33,-141],[2,-26],[-7,-23],[-9,-78],[-8,-17],[-45,-226],[-52,-261],[-117,-372],[-20,-11],[-1,-8],[2,-19],[-1,-8],[-46,-153],[-1401,0],[0,4096],[2786,0]],[[2752,1562],[-3,-17],[-1,-14],[6,-20],[-9,-47],[1,-21],[8,-17],[-9,-4],[-2,-7],[1,-10],[0,-13],[-51,-60],[-32,4],[-11,30],[-5,34],[-16,16],[-9,6],[-16,41],[-25,37],[-5,11],[9,54],[46,50],[53,30],[32,-4],[24,-23],[11,-13],[5,-17],[-2,-26]],[[2786,4096],[-15,-39],[-6,-54],[-1,-55],[-5,-9],[-20,-15],[-5,-12],[0,-60],[5,-24],[20,-39],[5,-20],[-7,-54],[-23,-76],[0,-43],[5,-6],[7,-5],[7,-8],[1,-16],[-6,-7],[-24,-1],[-10,-3],[-11,-17],[-17,-42],[-13,-15],[10,0],[2,-3],[-1,-7],[-7,-14],[-14,-35],[-9,-12],[-22,-7],[-13,1],[-21,1],[-14,-8],[-10,0],[-9,8],[-17,7],[-19,3],[-16,-5],[-7,-14],[4,-14],[9,-17],[5,-20],[0,-13],[-3,-72],[-5,-34],[-58,-140],[1,-21],[-24,-16],[-18,-71],[-22,-20],[9,-12],[-56,-151],[-3,-22],[-16,-52],[-38,-40],[-76,-58],[6,-22],[-9,-21],[-27,-40],[-5,-24],[-1,-47],[-4,-23],[-27,-76],[-22,-32],[-31,-23],[30,-45],[-6,-52],[-44,-95],[-5,12],[-5,2],[-9,-2],[9,-12],[-10,-14],[-9,-20],[-11,-17],[-32,-14],[-15,-15],[-13,-20],[-9,-19],[1,-6],[0,-4],[2,-2],[6,1],[-1,-8],[0,-3],[-2,-1],[-6,-1],[9,-12],[-6,-5],[-8,-11],[-6,-7],[6,-30],[-7,-33],[-19,-57],[-10,-105],[-9,-26],[18,-9],[2,-21],[-6,-22],[-12,-46],[-6,-15],[-51,-55],[-13,-3],[-23,5],[-29,19],[-19,5],[-21,-13],[-12,-35],[-8,-156],[-33,-141],[2,-26],[-7,-23],[-9,-78],[-8,-17],[-45,-226]],[[1636,832],[-52,-261],[-117,-372],[-20,-11],[-1,-8],[2,-19],[-1,-8],[-46,-153]],[[2752,1562],[-3,-17],[-1,-14],[6,-20],[-9,-47],[1,-21],[8,-17],[-9,-4],[-2,-7],[1,-10],[0,-13],[-51,-60],[-32,4],[-11,30],[-5,34],[-16,16],[-9,6],[-16,41],[-25,37],[-5,11],[9,54],[46,50],[53,30],[32,-4],[24,-23],[11,-13],[5,-17],[-2,-26]],[[3912,4096],[-15,-17]],[[3201,4096],[5,-25],[12,8]],[[2798,3992],[6,29],[11,26]],[[2851,4071],[13,8],[18,14],[1,3]],[[2815,4047],[1,3],[35,21]],[[3897,4079],[-36,-36],[0,-29],[-42,-50],[-12,-36],[-18,-22]],[[2756,3820],[-6,22],[6,64],[30,43],[2,7]],[[2789,3959],[9,33]],[[2788,3956],[1,3]],[[3789,3906],[-72,-50],[-30,-50],[-54,-22]],[[2780,3763],[-24,57]],[[3567,3612],[6,-14]],[[3633,3784],[-18,-14],[-18,-14],[-12,-43],[-24,-36],[0,-50],[6,-15]],[[3552,3607],[3,-2],[18,-7]],[[3218,4079],[18,-8],[5,-4]],[[3242,4054],[-30,-11],[0,-22],[24,-7],[11,3]],[[3241,4067],[7,-10],[-6,-3]],[[3247,4017],[20,4],[36,-14],[36,-15],[18,8],[12,-22],[-6,-57],[-24,-29],[12,-7],[42,43],[0,-43],[-12,-15],[6,-28],[36,-15],[12,-21],[36,-22],[-6,-64],[36,-36],[30,-57],[21,-20]],[[3573,3598],[6,-14],[-18,-13]],[[3561,3571],[-12,-9]],[[2672,3404],[18,22],[12,57],[24,36],[30,22],[18,35],[-24,29],[-6,22],[30,64],[0,1]],[[2784,3737],[-4,26]],[[2774,3692],[12,28],[-2,17]],[[2648,3397],[24,7]],[[2594,3332],[12,22],[42,43]],[[2588,3325],[6,7]],[[2702,3246],[-18,22],[-12,-7],[-36,21],[-12,22],[-36,21]],[[3056,3254],[-30,-8]],[[2831,3236],[-39,-4],[-18,7],[-72,7]],[[2876,3232],[-12,7],[-33,-3]],[[3026,3246],[-42,-21],[-18,0],[-12,21],[-42,0],[-36,-14]],[[2588,3325],[-6,-71],[-30,-22],[-23,-33]],[[2529,3199],[-7,-10]],[[3092,3214],[-10,10]],[[3082,3224],[-14,15],[-12,15]],[[3122,3182],[-30,32]],[[3144,3164],[-4,-4]],[[3373,3415],[-10,-11],[-54,-50],[-12,-50],[-67,-36],[-43,-52]],[[3187,3216],[-11,-13],[-32,-39]],[[3549,3562],[-48,-29],[-54,-43],[-74,-75]],[[3140,3160],[-9,11]],[[3131,3171],[-9,11]],[[2504,3159],[-12,-20],[-12,-29]],[[2522,3189],[-18,-30]],[[3915,3096],[-18,21],[-24,7],[-36,36],[-12,72],[12,29],[36,50],[24,50],[36,29],[30,7],[42,36],[91,32]],[[3152,3060],[0,64],[-12,36]],[[3152,3060]],[[3224,3002],[-12,29],[-18,22],[-42,7]],[[2480,3110],[6,-29],[-12,-28],[-30,-36],[0,-36]],[[4096,3056],[-19,-25],[-18,-36],[-24,-28]],[[3152,3060],[-20,-18]],[[3132,3042],[-4,-4],[-42,-93],[-36,-36]],[[3152,3060]],[[3993,2888],[42,57],[0,22]],[[4096,2903],[-67,-15],[-36,0]],[[3357,2881],[-6,14],[-24,36],[-48,50],[-55,21]],[[3357,2881],[-36,21],[-61,43],[-36,57]],[[3375,2866],[-18,15]],[[3417,2830],[-30,29],[-12,7]],[[2360,2809],[44,65]],[[2435,2959],[9,15],[0,7]],[[2404,2874],[10,14],[0,36],[21,35]],[[3393,2802],[0,28],[-18,36]],[[3836,2839],[-23,-16],[-24,-43]],[[4035,2967],[-60,-58],[-60,-36],[-60,-21],[-19,-13]],[[3943,2867],[-28,-22],[-54,-29],[-36,-22],[-18,-7],[-18,-7]],[[3993,2888],[-42,-15],[-8,-6]],[[3050,2909],[-36,-86],[0,-43],[12,-36]],[[3789,2780],[-6,-21],[-42,-22]],[[3732,2810],[21,-30],[-12,-43]],[[3915,3096],[-60,-50],[-36,-22],[-60,-29],[-48,-36],[-6,-7],[6,-43],[18,-28],[-18,-43],[12,-15],[9,-13]],[[3741,2737],[-18,-21]],[[3723,2716],[-66,28],[-30,36],[-36,22],[-41,0]],[[3550,2802],[-1,0],[-90,14],[-18,-7],[-24,21]],[[3723,2716],[-18,-22]],[[2360,2809],[-6,-49]],[[2354,2760],[-1,-1],[-12,-29],[-36,-43]],[[3723,2716],[-60,-8],[-54,-35]],[[3609,2673],[-21,0]],[[3588,2673],[-45,0],[-54,7],[-30,21],[-24,22],[-36,43],[-6,36]],[[3567,2629],[18,29],[24,15]],[[3567,2629],[48,0],[30,44],[60,21]],[[3771,2608],[-24,72]],[[3705,2694],[-42,-93]],[[3657,2565],[6,36]],[[3495,2558],[36,57],[36,14]],[[2387,2626],[21,-25],[42,-12]],[[2305,2687],[24,-22],[18,-7],[31,-21],[9,-11]],[[2450,2589],[36,-10],[12,-28],[24,-15],[12,-28]],[[2790,2547],[-27,-22]],[[2763,2525],[-13,-10],[-6,-15]],[[3026,2744],[-30,0],[-36,-7],[-30,-43],[-18,-14],[-30,-43],[-24,-8],[-24,-35],[-30,-36],[-14,-11]],[[2534,2508],[-12,-22]],[[2202,2513],[-4,-29]],[[2198,2484],[-1,-5]],[[2305,2687],[-18,-36],[-36,-14],[-24,-43],[-24,-72],[-1,-9]],[[3657,2565],[-12,-29],[-6,-64]],[[3785,2581],[-14,27]],[[3825,2472],[-6,57],[-30,43],[-4,9]],[[3459,2509],[6,13],[30,36]],[[3423,2457],[30,36],[6,16]],[[3659,2473],[-8,56],[6,36]],[[3663,2450],[-4,23]],[[2744,2500],[0,-21],[-42,-15],[-6,-7],[-18,7],[-30,-43]],[[3633,2443],[-18,-57]],[[2648,2421],[-12,-35],[6,-29]],[[2642,2357],[30,-22]],[[3309,2328],[6,15],[30,28],[36,15],[42,71]],[[2141,2328],[-4,-14]],[[2197,2479],[-12,-58],[-18,-35],[-18,-29],[-8,-29]],[[2522,2486],[-30,-36],[-36,-14],[-24,-29],[18,-29],[-18,-50],[12,-14]],[[2137,2314],[-12,-22]],[[2600,2278],[12,0],[18,29],[0,36],[12,14]],[[2444,2314],[12,14],[24,-21],[48,-22],[30,7],[6,15],[18,-22],[18,-7]],[[2672,2335],[-18,-36],[-6,-28],[12,-22],[-12,-36]],[[3963,2149],[-72,100],[-30,50],[-30,101],[-6,72]],[[3615,2386],[-12,-94],[-12,-57],[0,-36],[12,-43],[0,-14]],[[3110,2134],[108,58],[24,64],[67,72]],[[3603,2142],[-18,-65]],[[3729,2048],[30,43],[18,36],[0,43],[-6,22],[-36,43],[-24,64],[-36,94],[-12,57]],[[3008,2048],[36,15],[18,50],[48,21]],[[2125,2292],[11,-49]],[[2136,2243],[1,-8],[-6,-29],[-24,-36],[-6,-28],[-18,-22],[-30,-21],[-6,-36],[-36,-29]],[[4053,2013],[-12,35],[-24,58],[-18,28],[-36,15]],[[3014,2013],[-12,14],[6,21]],[[2011,2034],[-30,-29],[0,-43]],[[3585,2077],[-18,-72],[-30,-71]],[[2804,1876],[42,29],[30,14],[60,43],[78,51]],[[3537,1934],[0,-86]],[[2636,1805],[90,50],[48,-7],[30,28]],[[2647,2191],[-5,-60]],[[2642,2131],[0,-4],[0,-50],[12,-129],[-6,-72],[-12,-28],[0,-43]],[[2648,2213],[0,-14],[-1,-8]],[[4096,1895],[-7,3],[-42,57],[-6,36],[12,22]],[[2462,1805],[6,7],[42,7],[12,-7]],[[2618,1776],[18,29]],[[2522,1812],[60,-65],[18,22],[18,7]],[[2440,1713],[4,1]],[[2465,1726],[6,5]],[[2477,1741],[3,6],[-14,42]],[[2414,1704],[26,9]],[[2444,1714],[12,4],[9,8]],[[2466,1789],[-4,16]],[[2471,1731],[3,2],[3,8]],[[1969,1886],[0,-17],[-18,-29],[0,-71],[-12,-72]],[[1981,1962],[-12,-43],[0,-33]],[[1939,1697],[54,-22],[42,-7]],[[2035,1668],[18,0]],[[2053,1668],[8,2]],[[2061,1670],[22,5],[42,-7],[36,15],[42,0],[48,14],[54,7],[24,7],[61,-14],[24,7]],[[2618,1776],[-12,-29],[6,-14],[-6,-72],[12,-29],[-6,-14]],[[3603,1553],[6,122],[0,36],[18,72],[54,143],[30,87],[18,35]],[[3509,1540],[-2,-15]],[[3537,1848],[6,-36],[-12,-79],[-18,-158],[-4,-35]],[[3513,1523],[-6,-5]],[[3603,1553],[-72,-14],[-18,-16]],[[1939,1697],[6,-50],[24,-43],[-42,-72],[-24,-7],[6,-15]],[[2612,1618],[-36,-36],[-18,-43],[12,-43],[18,-7],[6,-22]],[[1849,1460],[-36,43]],[[1909,1510],[-6,-21],[-30,-22],[-24,-7]],[[3975,1431],[-42,22],[-18,14],[-102,43],[-36,29],[-18,-7],[-84,7],[-42,29],[-30,-15]],[[3999,1424],[-24,7]],[[3507,1518],[-12,-65],[-24,-72]],[[1898,1404],[20,-20]],[[1849,1460],[36,-43],[13,-13]],[[1918,1384],[39,-39]],[[2594,1467],[18,-36],[24,-35],[12,-58]],[[4096,1322],[-31,31],[-18,28],[-5,5]],[[4042,1386],[-43,38]],[[2648,1338],[24,-28]],[[2263,1317],[-24,-22]],[[2648,1338],[-36,-7],[-30,0],[-24,-14],[-24,7],[-48,7],[-24,0],[-18,-36],[-12,-7]],[[2077,1305],[6,-3],[5,0]],[[2153,1278],[32,-26],[54,43]],[[1957,1345],[36,-21],[30,-7],[30,0],[24,-12]],[[2088,1302],[25,0],[18,-7],[22,-17]],[[3453,1302],[6,-21],[-18,-36],[-18,-72]],[[3471,1381],[-6,-23]],[[3465,1358],[-12,-56]],[[2262,1162],[-29,-17]],[[2432,1288],[-18,-22],[-61,-50],[-36,-14],[-36,-29],[-19,-11]],[[2239,1181],[-6,-36]],[[2239,1295],[-6,-29],[5,-17]],[[2238,1249],[7,-26],[-6,-42]],[[1729,1171],[-6,-26],[-12,-15]],[[1813,1503],[-30,22],[-18,-15],[-6,-86],[-6,-57],[-12,-50],[-6,-43],[0,-37]],[[1735,1237],[0,-42],[-6,-24]],[[2166,1120],[-71,-19]],[[2233,1145],[-47,-19]],[[2186,1126],[-7,-3],[-13,-3]],[[3423,1173],[35,-21]],[[3458,1152],[1,0],[90,-58]],[[3050,1066],[-24,7],[-30,-7]],[[3068,1058],[-18,8]],[[3331,1091],[-16,-11],[-18,-22]],[[3423,1173],[-13,-25]],[[3410,1148],[-5,-11],[-48,-28],[-26,-18]],[[2996,1066],[-24,-8],[-1,0]],[[2971,1058],[-59,0],[-54,51],[-54,7],[-30,21],[-30,-7],[-30,7],[-18,-21],[0,-65],[-6,-36],[6,-35]],[[3297,1058],[-29,-74]],[[3268,984],[-1,-4]],[[3240,985],[-22,-5],[-78,35],[-30,22],[-42,21]],[[3267,980],[-19,7],[-8,-2]],[[2672,1310],[-12,-65],[-36,-36],[0,-43],[-12,-36],[12,-43],[-18,-14],[0,-36],[-18,-29],[-12,-21],[-24,-29]],[[2095,1101],[-3,-3]],[[2092,1098],[-15,-18],[-54,-57],[-30,-29],[-36,-14],[-36,0],[-12,-22],[-36,-21],[-42,-15],[-30,-21]],[[2233,1145],[0,-29],[2,-2]],[[2235,1114],[28,-34],[12,-22],[0,-50],[-18,-36],[-6,-35],[6,-44]],[[1801,901],[-12,-8]],[[1771,885],[-30,-13],[-12,0],[-48,-22]],[[1789,893],[-18,-8]],[[1708,969],[-3,-32],[-30,-51],[6,-36]],[[1711,994],[-3,-25]],[[4096,862],[-7,-12]],[[3999,858],[90,-8]],[[3206,843],[6,36],[30,72],[25,29]],[[3554,1093],[49,-13],[39,-29]],[[3549,1094],[5,-1]],[[3642,1051],[9,-7],[48,-100],[84,-65],[90,-57],[66,-15],[6,0],[54,51]],[[2552,958],[0,-29],[-18,-21],[0,-29],[-12,-14],[18,-43],[6,-65],[18,-21]],[[3267,980],[18,-15],[60,-36],[54,-79],[42,-35],[78,-8],[30,-14],[18,-14],[42,-79]],[[3609,700],[-24,-15]],[[3609,700],[24,-15]],[[1617,745],[-2,-17],[12,-43],[-12,-21]],[[1711,1130],[-6,-14],[-24,-122],[12,-29],[0,-28],[-30,-29],[-18,-72],[0,-21],[-22,-40]],[[1623,775],[-2,-3],[-4,-27]],[[1665,657],[-50,7]],[[1669,657],[-4,0]],[[1801,901],[36,-22],[42,-64],[0,-36],[-18,-43],[-6,-29],[0,-65]],[[2564,736],[30,-15],[6,-43],[12,-57]],[[3639,592],[-6,93]],[[3128,571],[12,64],[-12,36],[24,36],[48,50],[6,22],[-12,21],[12,43]],[[3633,685],[36,-21],[84,-36],[54,-29],[90,-36],[30,-7]],[[3116,556],[12,15]],[[2257,893],[-6,-14],[-36,-14],[-18,-22],[-42,-14],[-12,-36],[-18,-21],[0,-44],[-18,-21],[6,-43],[-36,-36],[6,-7],[-6,-50],[12,-8],[-6,-28]],[[2083,535],[30,-22],[30,0],[18,-14],[42,-22]],[[2203,477],[30,-21]],[[1855,642],[-18,-35],[-24,-72],[0,-15],[-36,-71],[-6,-29]],[[2233,456],[-6,-29],[-30,-50],[-6,-14]],[[3927,556],[60,-14],[109,-43]],[[1615,664],[-18,-43],[0,-50],[-18,-22],[-18,-79],[-18,-50],[-6,-43],[-12,-36]],[[2696,980],[-6,-43],[-6,-94],[-6,-43],[-18,-28],[0,-29],[18,-43],[-6,-22],[12,-86],[18,-57],[24,-43],[6,-22],[-12,-43],[12,-14],[-30,-72]],[[2564,320],[-24,28]],[[2612,621],[6,-50],[6,-51],[-6,-50],[-12,-57],[-36,-65],[-6,-28]],[[2702,341],[-18,-79]],[[1597,305],[-6,-57]],[[3543,248],[66,107],[30,87],[12,28],[0,50],[-12,72]],[[3621,241],[-18,-8],[-60,15]],[[1525,341],[-12,-36],[0,-28],[-12,-51]],[[1501,226],[-6,-21]],[[2843,271],[3,-16],[18,-43],[48,-22]],[[2702,341],[30,0],[66,-21],[12,-29],[24,7],[6,-7],[3,-20]],[[2540,348],[-12,-14],[12,-43],[0,-43],[-6,-29],[-42,-57]],[[1489,155],[-6,14],[12,36]],[[3056,133],[-12,22],[6,28],[0,29],[6,65],[12,21],[0,1]],[[3068,299],[0,42],[-6,7],[-6,43],[42,79],[18,22],[-6,36],[6,28]],[[1495,205],[42,-50],[24,-22]],[[2912,190],[39,-20]],[[2980,140],[4,-7],[42,7],[24,-14]],[[2951,170],[15,-8],[14,-22]],[[1543,104],[18,29]],[[1537,104],[6,0]],[[1465,90],[0,22],[12,35],[12,8]],[[3285,83],[60,7],[30,7],[48,22],[36,21],[54,65],[30,43]],[[3134,61],[-54,65],[-24,7]],[[3282,80],[-28,-33]],[[3285,83],[-3,-3]],[[1507,47],[30,57]],[[1507,47],[-36,14],[-6,29]],[[1561,133],[21,-26]],[[1643,78],[8,-2],[30,-36]],[[1582,107],[15,-17],[46,-12]],[[1507,47],[-6,-14]],[[1681,40],[12,-15]],[[1693,25],[6,-7]],[[1729,255],[12,-22],[-12,-50],[1,-2]],[[1730,181],[17,-26],[0,-58],[-6,-36],[-18,-36],[-24,-7]],[[1537,11],[-30,36]],[[3170,11],[0,14],[-36,36]],[[3254,47],[-60,-29],[-24,-7]],[[3170,4],[0,7]],[[2191,363],[-6,-43],[18,-65],[-6,-14],[-24,-22],[0,-29],[24,-14],[12,-36],[-12,-36],[-18,-21],[-36,0],[12,-29],[-6,-29],[-18,-14],[2,-11]],[[3170,0],[0,4]],[[1535,3],[2,8]],[[1535,0],[0,3]],[[2684,262],[-12,-50],[-6,-86],[-12,-43],[0,-79],[2,-4]],[[2912,190],[-6,-21],[-30,-29],[2,-5]],[[2878,135],[4,-9],[-6,-93],[-23,-33]],[[3170,11],[4,-11]],[[3247,0],[7,33],[31,25]],[[3292,73],[-6,8]],[[3286,81],[-1,2]],[[3285,58],[12,11],[-5,4]],[[2492,162],[-24,-36],[6,-22],[24,-50],[6,-21],[-4,-33]],[[4057,0],[-4,4],[-54,43],[-30,14],[-18,29],[-60,36],[-24,29],[-48,35],[-18,0],[-72,0],[-36,8],[-48,28],[-24,15]],[[1699,18],[4,-18]],[[1501,33],[-2,-3]],[[1499,30],[-29,-30]],[[1501,33],[0,-4]],[[1501,29],[0,-11],[-7,-18]],[[2786,4096],[1310,0],[0,-4096],[-2695,0],[46,153],[1,8],[-2,19],[1,8],[20,11],[117,372],[52,261],[45,226],[8,17],[9,78],[7,23],[-2,26],[33,141],[8,156],[12,35],[21,13],[19,-5],[29,-19],[23,-5],[13,3],[51,55],[6,15],[12,46],[6,22],[-2,21],[-18,9],[9,26],[10,105],[19,57],[7,33],[-6,30],[6,7],[8,11],[6,5],[-9,12],[6,1],[2,1],[0,3],[1,8],[-6,-1],[-2,2],[0,4],[-1,6],[9,19],[13,20],[15,15],[32,14],[11,17],[9,20],[10,14],[-9,12],[9,2],[5,-2],[5,-12],[44,95],[6,52],[-30,45],[31,23],[22,32],[27,76],[4,23],[1,47],[5,24],[27,40],[9,21],[-6,22],[76,58],[38,40],[16,52],[3,22],[56,151],[-9,12],[22,20],[18,71],[24,16],[-1,21],[58,140],[5,34],[3,72],[0,13],[-5,20],[-9,17],[-4,14],[7,14],[16,5],[19,-3],[17,-7],[9,-8],[10,0],[14,8],[21,-1],[13,-1],[22,7],[9,12],[14,35],[7,14],[1,7],[-2,3],[-10,0],[13,15],[17,42],[11,17],[10,3],[24,1],[6,7],[-1,16],[-7,8],[-7,5],[-5,6],[0,43],[23,76],[7,54],[-5,20],[-20,39],[-5,24],[0,60],[5,12],[20,15],[5,9],[1,55],[6,54],[15,39]],[[2284,1847],[19,20],[17,-27],[44,48],[36,-45],[58,-13],[5,-43],[52,27],[3,-113],[-63,30],[-12,-18],[-142,20],[20,39],[-37,75]],[[2412,1822],[13,-7],[4,0],[-7,9],[-10,-2]],[[2465,1732],[11,-3],[2,12],[-6,3],[-7,-12]],[[2424,1809],[4,-6],[4,-1],[-1,8],[-7,-1]],[[2358,1764],[11,-13],[16,4],[-1,17],[-26,-8]],[[2504,1763],[3,-15],[1,-2],[1,7],[-5,10]],[[2487,1774],[4,-7],[11,-3],[-12,9],[-3,1]],[[3114,275],[-12,-30],[28,-73],[-43,-50],[22,-31],[39,9],[53,-36],[96,19],[-42,-83],[-280,0],[-52,95],[12,19],[-75,27],[-50,79],[20,50],[79,6],[33,-38],[16,-116],[71,60],[10,133],[75,-40]],[[2262,644],[-51,26],[-14,70],[51,-26],[14,-70]],[[2941,663],[-50,17],[-14,60],[66,-37],[-2,-40]],[[3977,1050],[32,0],[17,-39],[-45,-47],[-37,47],[-47,13],[-1,26],[81,19],[0,-19]],[[4096,1428],[0,-142],[-65,92],[65,50]],[[2322,1315],[-7,-45],[-101,-27],[-17,-39],[-36,25],[-12,72],[48,-20],[65,78],[60,-44]],[[3508,1455],[0,-96],[-113,-1],[-76,-49],[11,127],[135,13],[50,105],[-7,-99]],[[1716,944],[56,-2],[-2,-75],[-10,-30],[-113,0],[11,-174],[22,-19],[-65,-78],[-32,-96],[129,-39],[12,-72],[-52,-16],[-9,-28],[19,-37],[78,18],[33,-20],[-1,-27],[-80,-88],[0,-97],[-32,-64],[-141,0],[-113,85],[158,486],[119,626],[90,-89],[-82,-62],[-15,-35],[20,-67]],[[1582,69],[21,-31],[60,7],[-46,74],[-34,3],[-1,-53]],[[3572,1108],[0,-20],[82,0],[-17,-56],[-33,-9],[-80,46],[48,39]],[[2502,978],[-48,14],[-95,58],[48,45],[65,-7],[0,-38],[65,-39],[-35,-33]],[[3298,1156],[48,-10],[-49,-174],[-48,19],[-97,-77],[-65,19],[-32,58],[-97,78],[38,75],[43,-17],[113,58],[31,-26],[1,-124],[32,-24],[5,83],[44,91],[33,-29]],[[2153,1184],[-4,-18],[113,19],[0,-78],[-81,20],[-81,-39],[-16,19],[32,58],[-48,174],[85,-155]],[[3414,1146],[-36,19],[-32,97],[78,41],[84,-2],[48,-136],[-142,-19]],[[2145,2227],[-50,83],[41,38],[29,-120],[-20,-1]],[[2699,2112],[-64,21],[-17,76],[53,-33],[28,-64]],[[3071,2286],[-16,-58],[-57,11],[-24,-69],[-82,57],[49,59],[65,20],[0,38],[81,-19],[-16,-39]],[[2262,2402],[-62,-7],[-3,123],[64,-75],[1,-41]],[[4046,2521],[-53,16],[12,30],[85,-10],[-44,-36]],[[2631,2434],[-13,-51],[-56,-17],[-9,36],[33,10],[-17,10],[17,58],[48,-20],[-3,-26]],[[2924,2545],[-140,-62],[-37,16],[31,51],[41,-10],[58,49],[81,-13],[-34,-31]],[[2565,2734],[-44,-61],[8,-23],[57,23],[16,-97],[-97,39],[-81,-39],[-49,39],[41,39],[80,-6],[-8,83],[45,5],[20,34],[12,-36]],[[3589,3620],[-6,-45],[-75,-13],[-14,25],[95,33]],[[2844,3117],[-16,-38],[-48,19],[-34,-40],[-31,1],[15,69],[39,41],[124,26],[-49,-78]],[[3508,3117],[-99,-87],[-47,-9],[16,77],[33,0],[16,39],[81,-20]],[[3199,3135],[18,-56],[-33,-20],[-16,20],[-32,-39],[-33,19],[0,39],[-32,-19],[-13,14],[-3,24],[32,0],[30,62],[82,-44]],[[3330,3330],[0,-97],[-95,-26],[-18,-32],[-29,24],[-4,54],[-33,0],[-31,-40],[-33,1],[-11,25],[60,91],[120,-8],[59,62],[-1,43],[97,-20],[-33,-58],[-48,-19]],[[2990,3813],[-22,10],[38,48],[10,99],[20,-1],[35,-21],[-4,-53],[-77,-82]],[[2809,3007],[-13,-83],[-49,39],[-64,-39],[42,94],[84,-11]],[[2371,2726],[-25,49],[42,122],[47,-69],[-64,-102]],[[3928,2838],[1,-30],[-49,-19],[-33,-78],[49,-116],[-146,-19],[-32,-96],[-178,-20],[-16,97],[-83,-61],[-47,3],[2,36],[49,1],[19,39],[173,137],[-81,76],[-16,39],[16,20],[114,-77],[81,52],[64,6],[0,19],[49,-19],[58,44],[23,-6],[-17,-28]],[[2941,2982],[22,38],[72,28],[36,-27],[-26,-26],[-104,-13]],[[2423,1637],[-30,-36],[47,-49],[-16,-22],[-49,41],[-81,-19],[-62,44],[-2,33],[36,-18],[61,38],[74,-19],[6,38],[16,-31]],[[1955,1764],[32,-4],[0,-34],[81,39],[-8,-105],[56,-89],[-119,34],[38,-92],[-97,-58],[17,-77],[-146,39],[-32,-20],[-4,-76],[-54,-119],[37,332],[105,-13],[51,55],[46,320],[61,-54],[-64,-78]],[[3410,1643],[-64,-14],[0,-19],[-65,58],[43,32],[87,-32],[-1,-25]],[[2859,4096],[35,0],[5,-39],[45,-53],[-2,-56],[-64,36],[-19,-105],[18,-8],[-49,-58],[49,-47],[97,8],[-52,-73],[-78,-43],[77,-101],[0,-26],[-28,-8],[65,-135],[-100,10],[-14,-29],[8,-17],[41,17],[49,-59],[-30,-48],[-148,-48],[-88,-90],[23,-123],[-81,-19],[13,-72],[-29,-44],[-33,19],[-21,-34],[-50,7],[-10,27],[-32,0],[-7,76],[-54,-8],[97,210],[28,-8],[19,94],[-18,5],[-15,137],[23,19],[45,-18],[80,13],[60,145],[40,11],[-20,78],[20,64],[68,-37],[-1,64],[-61,10],[-26,172],[55,45],[-24,51],[11,62],[64,-37],[19,63]],[[2747,3276],[65,-23],[48,38],[-58,64],[-87,-25],[32,-54]],[[2521,3040],[30,-17],[53,34],[30,-17],[-3,49],[-62,28],[-50,-46],[2,-31]],[[3197,4096],[39,0],[13,-90],[-29,-18],[-101,18],[11,65],[-13,25],[41,0],[10,-32],[29,28],[0,4]],[[3037,4096],[41,0],[-27,-27],[-30,6],[16,21]],[[1776,1360],[15,52],[112,-8],[60,-79],[9,-91],[-58,-29],[-19,58],[-53,-15],[-16,47],[-47,19],[-3,46]],[[1841,1305],[32,-35],[62,-5],[16,40],[-65,62],[-6,-39],[36,-5],[-50,-7],[6,22],[-11,4],[-20,-37]],[[1823,1354],[8,-4],[2,5],[-4,3],[-6,-4]]]}