{"objects":{"water":{"type":"GeometryCollection","geometries":[]},"buildings":{"type":"GeometryCollection","geometries":[]},"places":{"type":"GeometryCollection","geometries":[{"type":"Point","properties":{"name:pt":"Tanz\u00e2nia","name:ps":"\u062a\u0646\u0632\u0627\u0646\u06cc\u0627","name:ka":"\u10e2\u10d0\u10dc\u10d6\u10d0\u10dc\u10d8\u10d0","name:mt":"Tan\u017canija","name:tr":"Tanzanya","name:cv":"\u0422\u0430\u043d\u0437\u0430\u043d\u0438","name:km":"\u178f\u1784\u17cb\u17a0\u17d2\u179f\u17b6\u1793\u17b8","name:cs":"Tanzanie","name:tt":"\u0422\u0430\u043d\u0437\u0430\u043d\u0438\u044f","name:tk":"Tanzani\u00fda","name:ku":"Tanzanya","name:ti":"\u1273\u1295\u12db\u1292\u12eb","name:ks":"\u062a\u064e\u0646\u062c\u0627\u0646\u0650\u06cc\u0627","name:to":"Tenisania","name:pa":"\u0a24\u0a28\u0a1c\u0a3c\u0a3e\u0a28\u0a40\u0a06","name:os":"\u0422\u0430\u043d\u0437\u0430\u043d\u0438","name:or":"\u0b24\u0b3e\u0b1e\u0b4d\u0b1c\u0b3e\u0b28\u0b3f\u0b06","name:ce":"\u0422\u0430\u043d\u0437\u0430\u043d\u0438","name:ta":"\u0b9f\u0bbe\u0ba9\u0bcd\u0b9a\u0bbe\u0ba9\u0bbf\u0baf\u0bbe","name:tg":"\u0422\u0430\u043d\u0437\u0430\u043d\u0438\u044f","name:ca":"Tanz\u00e0nia","name:te":"\u0c1f\u0c3e\u0c02\u0c1c\u0c3e\u0c28\u0c3f\u0c2f\u0c3e","name:cy":"Tanzan\u00efa","source":"openstreetmap.org","name:ln":"Tanzani","name:de":"Tansania","name:dz":"\u0f4a\u0f71\u0f53\u0f0b\u0f5b\u0f71\u0f0b\u0f53\u0f72\u0f0b\u0f61","name:ko":"\ud0c4\uc790\ub2c8\uc544","name:nv":"T\u02bcanzan\u00ed\u00edya","name:kn":"\u0c9f\u0cbe\u0c82\u0c9c\u0cbe\u0ca8\u0cbf\u0caf\u0cbe","name:dv":"\u0793\u07ac\u0782\u07b0\u0792\u07ad\u0782\u07a8\u0787\u07a7","name:lv":"Tanz\u0101nija","name:lt":"Tanzanija","name:uz":"Tanzaniya","name:kk":"\u0422\u0430\u043d\u0437\u0430\u043d\u0438\u044f","name:he":"\u05d8\u05e0\u05d6\u05e0\u05d9\u05d4","min_zoom":2.0,"kind":"country","name:ur":"\u062a\u0646\u0632\u0627\u0646\u06cc\u06c1","name:lb":"Tansania","name:lg":"Tanzaniya","name:uk":"\u0422\u0430\u043d\u0437\u0430\u043d\u0456\u044f","name:hy":"\u054f\u0561\u0576\u0566\u0561\u0576\u056b\u0561","name:ug":"\u062a\u0627\u0646\u0632\u0627\u0646\u0649\u064a\u06d5","name:hu":"Tanz\u00e1nia","name:hr":"Tanzanija","name:lo":"\u0e97\u0eb2\u0e99\u0e8a\u0eb2\u0ec0\u0e99\u0e8d","population":41048532,"name:el":"\u03a4\u03b1\u03bd\u03b6\u03b1\u03bd\u03af\u03b1","name:eo":"Tanzanio","name":"Tanzania","name:ee":"Tanzania nutome","name:th":"\u0e1b\u0e23\u0e30\u0e40\u0e17\u0e28\u0e41\u0e17\u0e19\u0e0b\u0e32\u0e40\u0e19\u0e35\u0e22","name:yi":"\u05d8\u05d0\u05e0\u05d6\u05d0\u05e0\u05d9\u05e2","name:et":"Tansaania","name:yo":"Or\u00edl\u1eb9\u0301\u00e8de Tan\u1e63ania","name:rm":"Tansania","name:rn":"Tanzaniya","name:az":"tanzaniya","name:mr":"\u091f\u093e\u0902\u091d\u093e\u0928\u093f\u092f\u093e","name:qu":"Tansanya","name:ar":"\u062a\u0646\u0640\u0632\u0627\u0646\u064a","name:my":"\u1010\u1014\u103a\u1007\u1014\u103a\u1014\u102e\u1038\u101a\u102c\u1038","official_name":"Den forente republikken Tanzania","name:is":"Tansan\u00eda","name:am":"\u1273\u1295\u12db\u1292\u12eb","name:ml":"\u0d1f\u0d3e\u0d7b\u0d38\u0d3e\u0d28\u0d3f\u0d2f","name:ru":"\u0422\u0430\u043d\u0437\u0430\u043d\u0438\u044f","name:rw":"Tanzaniya","name:mi":"T\u0101nahia","id":424314335,"name:mk":"\u0422\u0430\u043d\u0437\u0430\u043d\u0438\u0458\u0430","name:af":"Tanzani\u00eb","name:zu":"i-Tanzania","name:ha":"Tanzaniya","name:mn":"\u0422\u0430\u043d\u0437\u0430\u043d\u0438","name:ff":"Tansanii","name:fi":"Tansania","name:hi":"\u0924\u0902\u091c\u093e\u093c\u0928\u093f\u092f\u093e","name:fo":"Tansania","name:fr":"Tanzanie","name:wo":"Tansani","name:zh-yue":"\u5766\u6851\u5c3c\u4e9e","name:vo":"Tansan\u00e4n","name:zh":"\u5766\u6851\u5c3c\u4e9a","name:so":"Tansaaniya","name:sr":"\u0422\u0430\u043d\u0437\u0430\u043d\u0438\u0458\u0430","name:sl":"Tanzanija","name:sk":"Tanz\u00e1nia","name:ja":"\u30bf\u30f3\u30b6\u30cb\u30a2","name:si":"\u0da7\u0dd0\u0db1\u0dca\u0dc3\u0dcf\u0db1\u0dd2\u0dba\u0dcf\u0dc0","name:sh":"Tanzanija","name:sg":"Tanzan\u00efi","name:se":"Tanz\u00e1nia","name:sc":"Tanz\u00e0nia","name:ne":"\u0924\u093e\u0928\u094d\u091c\u093e\u0928\u093f\u092f\u093e","name:sa":"\u091f\u0902\u091c\u093e\u0928\u093f\u092f\u093e","name:bs":"Tanzanija","name:bm":"Tanzani","name:bn":"\u09a4\u09be\u099e\u09cd\u099c\u09be\u09a8\u09bf\u09af\u09bc\u09be","name:bo":"\u0f4f\u0f53\u0f0b\u0f5b\u0f0b\u0f53\u0f72\u0f0b\u0f61\u0f0d","name:be":"\u0422\u0430\u043d\u0437\u0430\u043d\u0456\u044f","name:bg":"\u0422\u0430\u043d\u0437\u0430\u043d\u0438\u044f","name:ss":"IThanzaniya","name:ba":"\u0422\u0430\u043d\u0437\u0430\u043d\u0438\u044f","name:sq":"Tanzani","name:ga":"An Tans\u00e1in","name:gd":"Tansain\u00eca","name:ht":"Tanzani","name:fa":"\u062a\u0627\u0646\u0632\u0627\u0646\u06cc\u0627","name:gu":"\u0aa4\u0abe\u0a82\u0a9d\u0abe\u0aa8\u0abf\u0aaf\u0abe"},"coordinates":[2968,2762]},{"type":"Point","properties":{"admin_level":"4","kind":"region","name":"Iringa","kind_detail":"state","source":"openstreetmap.org","min_zoom":4.0,"name:uk":"\u0406\u0440\u0456\u043d\u0491\u0430","name:ru":"\u0418\u0440\u0438\u043d\u0433\u0430","id":4353377217},"coordinates":[2523,929]},{"type":"Point","properties":{"admin_level":"4","kind":"region","name":"Dodoma","kind_detail":"state","source":"openstreetmap.org","min_zoom":4.0,"name:uk":"\u0414\u043e\u0434\u043e\u043c\u0430","name:ru":"\u0414\u043e\u0434\u043e\u043c\u0430","id":4353376449},"coordinates":[3021,3517]},{"type":"Point","properties":{"source":"naturalearthdata.com","kind":"locality","name":"Dodoma","country_capital":true,"population":218269,"min_zoom":5.0,"id":6446},"coordinates":[2913,3263]},{"type":"Point","properties":{"source":"naturalearthdata.com","kind":"locality","name":"Iringa","population":111820,"region_capital":true,"min_zoom":7.0,"id":2511},"coordinates":[2825,936]},{"type":"Point","properties":{"source":"naturalearthdata.com","kind":"locality","name":"Mpwapwa","population":19806,"min_zoom":7.0,"id":2509},"coordinates":[3976,3019]},{"type":"Point","properties":{"source":"naturalearthdata.com","kind":"locality","name":"Itigi","population":19711,"min_zoom":7.0,"id":2517},"coordinates":[1063,3973]},{"type":"Point","properties":{"source":"naturalearthdata.com","kind":"locality","name":"Manyoni","population":310,"min_zoom":7.0,"id":2516},"coordinates":[1675,3856]}]},"transit":{"type":"GeometryCollection","geometries":[]},"pois":{"type":"GeometryCollection","geometries":[{"type":"Point","properties":{"kind":"nature_reserve","name":"Ruaha National Park","area":20633400000,"min_zoom":5.12,"name:de":"Ruaha-Nationalpark","source":"openstreetmap.org","name:fr":"Parc national de Ruaha","tier":2,"id":362940538},"coordinates":[907,889]}]},"boundaries":{"type":"GeometryCollection","geometries":[{"type":"LineString","properties":{"source":"naturalearthdata.com","kind":"region","name":"Mbeya - Singida","sort_rank":256,"kind_detail":"4","min_zoom":5.5,"id":6192},"arcs":[0]},{"type":"LineString","properties":{"source":"naturalearthdata.com","kind":"region","name":"Dodoma - Morogoro","sort_rank":256,"kind_detail":"4","min_zoom":5.5,"id":1479},"arcs":[1]},{"type":"LineString","properties":{"source":"naturalearthdata.com","kind":"region","name":"Dodoma - Manyara","sort_rank":256,"kind_detail":"4","min_zoom":5.5,"id":1481},"arcs":[2]},{"type":"LineString","properties":{"source":"naturalearthdata.com","kind":"region","name":"Dodoma - Singida","sort_rank":256,"kind_detail":"4","min_zoom":5.5,"id":6184},"arcs":[3]},{"type":"LineString","properties":{"source":"naturalearthdata.com","kind":"region","name":"Singida - Tabora","sort_rank":256,"kind_detail":"4","min_zoom":5.5,"id":6185},"arcs":[4]},{"type":"MultiLineString","properties":{"source":"naturalearthdata.com","kind":"region","name":"Morogoro - Iringa","sort_rank":256,"kind_detail":"4","min_zoom":5.5,"id":6195},"arcs":[[5],[6],[7],[8],[9],[10]]},{"type":"MultiLineString","properties":{"source":"naturalearthdata.com","kind":"region","name":"Iringa - Dodoma","sort_rank":256,"kind_detail":"4","min_zoom":5.5,"id":6197},"arcs":[[11],[12],[13],[14],[15],[16],[17],[18],[19],[20],[21]]},{"type":"MultiLineString","properties":{"source":"naturalearthdata.com","kind":"region","name":"Iringa - Singida","sort_rank":256,"kind_detail":"4","min_zoom":5.5,"id":6198},"arcs":[[22],[23],[24],[25]]},{"type":"MultiLineString","properties":{"source":"naturalearthdata.com","kind":"region","name":"Iringa - Mbeya","sort_rank":256,"kind_detail":"4","min_zoom":5.5,"id":6199},"arcs":[[26],[27],[28],[29],[30]]}]},"roads":{"type":"GeometryCollection","geometries":[{"type":"LineString","properties":{"source":"naturalearthdata.com","kind":"minor_road","sort_rank":355,"kind_detail":"tertiary","min_zoom":7.0,"id":42797},"arcs":[31]},{"type":"LineString","properties":{"source":"naturalearthdata.com","kind":"major_road","sort_rank":379,"kind_detail":"secondary","min_zoom":3.0,"id":42802},"arcs":[32]},{"type":"LineString","properties":{"source":"naturalearthdata.com","kind":"minor_road","sort_rank":355,"kind_detail":"tertiary","min_zoom":7.0,"id":42803},"arcs":[33]},{"type":"LineString","properties":{"source":"naturalearthdata.com","kind":"major_road","sort_rank":379,"kind_detail":"secondary","min_zoom":3.0,"id":42809},"arcs":[34]},{"type":"LineString","properties":{"source":"naturalearthdata.com","kind":"major_road","sort_rank":379,"kind_detail":"secondary","min_zoom":3.0,"id":42819},"arcs":[35]},{"type":"LineString","properties":{"source":"naturalearthdata.com","kind":"major_road","sort_rank":379,"kind_detail":"secondary","min_zoom":3.0,"id":42820},"arcs":[36]},{"type":"LineString","properties":{"source":"naturalearthdata.com","kind":"major_road","sort_rank":379,"kind_detail":"secondary","min_zoom":3.0,"id":42865},"arcs":[37]},{"type":"LineString","properties":{"source":"naturalearthdata.com","kind":"major_road","kind_detail":"secondary","sort_rank":379,"landuse_kind":"urban_area","min_zoom":3.0,"id":42871},"arcs":[38]},{"type":"LineString","properties":{"source":"naturalearthdata.com","kind":"major_road","sort_rank":379,"kind_detail":"secondary","min_zoom":3.0,"id":42871},"arcs":[39]},{"type":"LineString","properties":{"source":"naturalearthdata.com","kind":"major_road","kind_detail":"secondary","sort_rank":379,"landuse_kind":"urban_area","min_zoom":3.0,"id":42872},"arcs":[40]},{"type":"LineString","properties":{"source":"naturalearthdata.com","kind":"major_road","sort_rank":379,"kind_detail":"secondary","min_zoom":3.0,"id":42872},"arcs":[41]},{"type":"LineString","properties":{"source":"naturalearthdata.com","kind":"major_road","kind_detail":"secondary","sort_rank":379,"landuse_kind":"urban_area","min_zoom":3.0,"id":42873},"arcs":[42]},{"type":"LineString","properties":{"source":"naturalearthdata.com","kind":"major_road","sort_rank":379,"kind_detail":"secondary","min_zoom":3.0,"id":42873},"arcs":[43]},{"type":"LineString","properties":{"source":"naturalearthdata.com","kind":"major_road","sort_rank":379,"kind_detail":"secondary","min_zoom":3.0,"id":42881},"arcs":[44]},{"type":"LineString","properties":{"source":"naturalearthdata.com","kind":"major_road","sort_rank":379,"kind_detail":"secondary","min_zoom":4.0,"id":42882},"arcs":[45]},{"type":"LineString","properties":{"source":"naturalearthdata.com","kind":"major_road","kind_detail":"secondary","sort_rank":379,"landuse_kind":"urban_area","min_zoom":4.0,"id":42923},"arcs":[46]},{"type":"LineString","properties":{"source":"naturalearthdata.com","kind":"major_road","sort_rank":379,"kind_detail":"secondary","min_zoom":4.0,"id":42923},"arcs":[47]},{"type":"LineString","properties":{"source":"naturalearthdata.com","kind":"major_road","sort_rank":379,"kind_detail":"secondary","min_zoom":4.0,"id":43088},"arcs":[48]},{"type":"LineString","properties":{"source":"naturalearthdata.com","kind":"major_road","sort_rank":379,"kind_detail":"secondary","min_zoom":3.0,"id":43149},"arcs":[49]},{"type":"LineString","properties":{"source":"naturalearthdata.com","kind":"major_road","kind_detail":"secondary","sort_rank":379,"landuse_kind":"urban_area","min_zoom":4.0,"id":43172},"arcs":[50]},{"type":"LineString","properties":{"source":"naturalearthdata.com","kind":"major_road","sort_rank":379,"kind_detail":"secondary","min_zoom":4.0,"id":43172},"arcs":[51]},{"type":"LineString","properties":{"source":"naturalearthdata.com","kind":"major_road","kind_detail":"secondary","sort_rank":379,"landuse_kind":"urban_area","min_zoom":3.0,"id":43179},"arcs":[52]},{"type":"LineString","properties":{"source":"naturalearthdata.com","kind":"major_road","sort_rank":379,"kind_detail":"secondary","min_zoom":3.0,"id":43179},"arcs":[53]},{"type":"LineString","properties":{"source":"naturalearthdata.com","kind":"major_road","kind_detail":"secondary","sort_rank":379,"landuse_kind":"urban_area","min_zoom":3.0,"id":43228},"arcs":[54]},{"type":"LineString","properties":{"source":"naturalearthdata.com","kind":"major_road","sort_rank":379,"kind_detail":"secondary","min_zoom":3.0,"id":43228},"arcs":[55]},{"type":"LineString","properties":{"source":"naturalearthdata.com","kind":"major_road","sort_rank":379,"kind_detail":"secondary","min_zoom":3.0,"id":43283},"arcs":[56]},{"type":"LineString","properties":{"source":"naturalearthdata.com","kind":"major_road","sort_rank":379,"kind_detail":"secondary","min_zoom":3.0,"id":43316},"arcs":[57]}]},"earth":{"type":"GeometryCollection","geometries":[{"type":"MultiPolygon","properties":{"sort_rank":10,"source":"naturalearthdata.com","min_zoom":0.0,"kind":"earth","area":385943303090},"arcs":[[[58]]]}]},"landuse":{"type":"GeometryCollection","geometries":[{"type":"MultiPolygon","properties":{"source":"naturalearthdata.com","kind":"urban_area","name":"","area":297794284,"sort_rank":11,"min_zoom":4.0},"arcs":[[[59]],[[60]]]},{"type":"Polygon","properties":{"source":"openstreetmap.org","kind":"nature_reserve","area":20633399296,"tier":2,"id":362940538,"min_zoom":4.0,"sort_rank":23},"arcs":[[61]]},{"type":"MultiPolygon","properties":{"source":"openstreetmap.org","kind":"park","tier":2,"area":3569396675,"sort_rank":24,"min_zoom":4.0},"arcs":[[[62]]]}]}},"type":"Topology","transform":{"translate":[33.75,-8.4071681636],"scale":[0.0006866455,0.000681441]},"arcs":[[[275,1333],[-67,29],[-60,44],[-29,7],[-24,14],[-5,60],[-26,62],[-5,39],[-18,34],[-41,13]],[[3973,1521],[53,56],[11,69],[-18,71],[-9,72],[18,66],[63,131],[5,3]],[[4096,3906],[-83,40],[-88,54],[-51,67],[-17,29]],[[2232,4096],[17,-29],[48,-52],[16,-43],[-29,-37],[-46,-39],[-7,-60],[-14,-56],[-38,-55],[-51,-122],[-6,-170],[-31,-132],[12,-128],[29,-52],[14,-57],[-1,-53],[-24,-47],[-15,-132],[26,-251],[-41,-98],[-183,-9],[23,-136],[7,-156]],[[475,4096],[4,-5],[44,-33],[4,-66],[-30,-61],[-39,-31],[-8,-26],[-4,-29],[-1,-128],[-77,-286],[-4,-122],[17,-50],[5,-48],[-100,-75],[-85,-72],[-51,-82],[-16,-13],[-36,-5],[-31,-13],[-58,-42],[-9,-9]],[[3973,1521],[32,-148],[25,-43],[43,-19]],[[4073,1311],[20,1],[3,0]],[[4096,674],[-80,7]],[[4016,681],[-128,-47],[-106,-81],[-46,-44],[-2,-16],[-1,-19],[2,-25],[8,-24],[9,-49],[-25,-43],[-84,-13],[-47,-12]],[[3596,308],[-54,12]],[[3542,320],[-128,-78],[-112,-105],[-101,-125],[-4,-12]],[[2080,2096],[-142,86]],[[2901,1962],[-51,4],[-104,57],[-70,26],[-71,8],[-20,12],[0,23],[-18,30],[-33,18],[-68,23],[-70,6]],[[2396,2169],[-49,-8],[-49,0],[-42,-11],[-30,-31],[-146,-23]],[[3252,1873],[-31,6],[-57,20],[-26,4],[-21,10],[-26,17],[-15,4],[-128,31]],[[2948,1965],[-47,-3]],[[3385,1881],[-16,1],[-12,6],[-21,6]],[[3336,1894],[-84,-21]],[[3770,1585],[-18,10],[-6,11],[-4,29],[-5,11],[-8,11],[-17,34],[-11,11],[-22,14],[-8,6],[-13,30],[-10,33],[-17,27],[-34,11],[-28,5],[-132,53],[-20,1]],[[3417,1882],[-32,-1]],[[3973,1521],[-8,36],[-9,21],[-25,16],[-35,7]],[[3896,1601],[-68,-1],[-39,-12],[-19,-3]],[[1938,2182],[-58,18],[-61,7],[-60,15],[-56,5]],[[1703,2227],[-22,-21],[-26,-17],[-30,-12],[-25,-19],[-62,-35],[-53,-43],[-17,-142],[-54,-104],[-429,-89],[-73,-89],[2,-45],[-28,-24],[-69,-10]],[[817,1577],[-67,3],[-66,24],[-67,0]],[[617,1604],[-50,-55],[-44,-63],[-121,-82],[-127,-71]],[[275,1333],[37,-25],[24,-28],[-21,-40],[-29,-35],[-40,-95],[-33,-56],[-40,-53],[-27,-54],[-12,-60],[21,-43],[56,-7]],[[888,871],[75,-6],[216,-51],[53,-38],[62,-20],[395,-63],[14,-45],[-5,-37],[39,-7]],[[211,837],[677,34]],[[1807,610],[66,-24],[40,-41],[-35,-48],[-64,-49],[-80,-24],[-35,-44],[-53,-121],[-38,-64],[-51,-39],[-62,-21],[-53,-50],[-42,-63],[-10,-22]],[[1737,604],[70,6]],[[703,4096],[89,-35],[84,-18],[72,-24],[30,-6],[96,-37]],[[1585,3904],[-12,36],[-12,49],[0,30],[-18,30],[-6,47]],[[1074,3976],[72,-12],[96,-18],[90,-18],[48,-6],[205,-18]],[[3041,4096],[-3,-17],[-30,-24],[-6,-36],[18,0],[18,-18],[0,-18],[-24,-61],[-18,-85]],[[2996,3837],[0,-12],[-18,-24]],[[1759,3801],[-162,85],[-12,18]],[[4096,3408],[-13,0],[-150,6]],[[2951,3288],[-3,-1],[-36,-13]],[[3260,3383],[-36,6],[-30,0],[-60,-24],[-48,0],[-42,-18],[-48,-36],[-45,-23]],[[2918,3336],[0,-43],[-6,-19]],[[2978,3801],[-36,-30],[-12,-37],[-6,-30],[-6,-79],[-30,-24],[0,-30],[30,-30],[6,-12],[-6,-109],[0,-84]],[[2912,3274],[-18,19],[-6,4]],[[2888,3297],[-36,26],[-66,54],[-24,31],[-48,6],[-30,24],[-60,6],[-12,6],[-60,48],[-36,6],[-30,0],[-66,13],[-30,18],[-97,72],[-84,49],[-84,30],[-54,18],[-138,24],[-18,6],[-48,43],[-12,6],[-66,6],[-30,12]],[[3729,3220],[-18,0],[-42,36],[-6,18],[-48,49],[-30,6],[-12,-6],[-48,18],[-48,-12],[-30,-6],[-78,0],[-36,6],[-73,54]],[[3933,3414],[-12,-19],[-6,-30],[-36,-42],[-12,-12],[6,-49],[-18,-12],[-30,-6],[-24,-24],[-42,6],[-30,-6]],[[2912,3274],[-12,-6],[-8,-10]],[[2892,3258],[-16,-20],[-30,-54],[0,-19],[54,-54],[12,-18],[0,-109],[6,-30],[48,-37],[12,-36]],[[2978,2881],[12,-24],[24,-30],[30,-19],[18,-48],[18,-12],[42,-18],[54,-67],[42,-91],[24,-30],[73,-67],[24,-30],[12,-42],[30,-43],[-6,-30],[-18,-48],[-6,-43],[0,-36],[-24,-42],[0,-43],[-36,-78],[-37,-49],[-42,-36],[12,-30],[36,-25],[25,-24],[6,-18],[-24,-30],[-25,-12],[-48,0],[-60,6],[-18,12],[-66,12],[-42,-6],[-66,-36],[-30,-25],[-48,-84]],[[4035,1386],[24,-6],[24,-24],[13,0]],[[2847,996],[-31,-34]],[[2864,1695],[-6,-12],[18,-49],[30,-42],[-24,-43],[-6,-72],[12,-18],[30,6],[30,12],[30,-6],[12,-31],[12,-6],[6,-30],[-18,-30],[-24,-79],[-30,-54],[6,-37],[-12,-90],[-12,-25],[-30,-48],[-41,-45]],[[2840,902],[30,18],[4,1]],[[2874,921],[26,5],[66,-18],[48,12],[66,54],[78,37],[30,24],[48,12],[49,-12],[24,12],[30,24],[42,18],[108,13],[30,-19],[12,0],[48,-18],[30,18],[48,37],[72,48],[96,49],[18,24],[36,24],[30,6],[54,79],[36,18],[36,18]],[[2817,886],[23,16]],[[2546,575],[54,61],[48,66],[54,79],[36,42],[42,36],[37,27]],[[2263,163],[6,43],[30,24],[48,6],[19,30],[18,49],[24,24],[12,30],[0,49],[6,18],[48,12],[24,24],[6,18],[0,31],[24,36],[18,18]],[[1910,0],[101,48],[42,6],[36,13],[30,42],[18,12],[72,0],[54,42]],[[4096,4096],[0,-4096],[-4096,0],[0,4096],[4096,0]],[[2879,915],[-35,-42],[-28,13],[-4,101],[65,17],[-16,-66],[18,-23]],[[2941,3221],[-57,43],[9,72],[48,0],[14,-24],[-14,-91]],[[0,860],[114,21],[-3,-23],[42,24],[1,97],[64,74],[77,164],[30,14],[63,136],[-18,37],[16,47],[247,55],[92,76],[95,-14],[175,27],[111,127],[125,71],[117,189],[348,238],[241,-273],[477,-278],[-2,-76],[-107,-60],[-77,-128],[-61,-5],[-75,-65],[-27,22],[-86,-28],[-24,-38],[78,-127],[0,-56],[-36,-61],[-122,-64],[-165,-21],[-78,-116],[45,-244],[-118,-216],[-200,-43],[-14,-34],[77,-4],[0,-106],[-71,-119],[-9,-62],[-24,-18],[-1300,0],[-18,860]],[[4096,1310],[0,-558],[-102,0],[-246,-122],[51,567],[142,70],[153,44],[2,-1]]]}