{"objects":{"water":{"type":"GeometryCollection","geometries":[{"type":"Polygon","properties":{"source":"naturalearthdata.com","kind":"ocean","area":1576712559132672,"sort_rank":200,"min_zoom":0.0,"id":1},"arcs":[[47]]},{"type":"LineString","properties":{"source":"naturalearthdata.com","kind":"ocean","sort_rank":205,"boundary":true,"min_zoom":0.0,"id":75},"arcs":[48]}]},"buildings":{"type":"GeometryCollection","geometries":[]},"places":{"type":"GeometryCollection","geometries":[{"type":"Point","properties":{"source":"naturalearthdata.com","kind":"locality","name":"Barreiros","population":35565,"min_zoom":7.0,"id":4444},"coordinates":[3969,2850]},{"type":"Point","properties":{"name:sr":"\u041c\u0430\u0441\u0435\u0458\u043e","name:he":"\u05de\u05e1\u05d9\u05d9\u05d0\u05d5","name:lv":"Maseio","name:ja":"\u30de\u30bb\u30a4\u30aa","name:ka":"\u10db\u10d0\u10e1\u10d4\u10d8\u10dd","name:uz":"Maseyo","name:ko":"\ub9c8\uc138\uc774\uc624","name:se":"\u041c\u0430\u0441\u0435\u0458\u043e","name:ar":"\u0645\u0627\u0633\u0627\u064a\u0648","name:kk":"\u041c\u0430\u0441\u0435\u0439\u043e","kind":"locality","name:th":"\u0e21\u0e32\u0e40\u0e0b\u0e42\u0e2d","name:uk":"\u041c\u0430\u0441\u0435\u0439\u043e","name:ml":"\u092e\u093e\u0938\u0947\u0908\u092f\u094b","name:ru":"\u041c\u0430\u0441\u0435\u0439\u043e","name:bg":"\u041c\u0430\u0441\u0435\u0439\u043e","name":"Macei\u00f3","name:tg":"\u041c\u0430\u0441\u0435\u0439\u043e","name:mk":"\u041c\u0430\u0441\u0435\u0458\u043e","population":996736,"name:fa":"\u0645\u0627\u0633\u0627\u06cc\u0648","name:eo":"Maceioo","name:lt":"Masejas","kind_detail":"city","region_capital":true,"min_zoom":8.0,"id":243850911,"source":"openstreetmap.org","name:be":"\u041c\u0430\u0441\u0435\u0451","name:zh":"\u9a6c\u585e\u7ea6","name:hy":"\u0544\u0561\u057d\u0565\u0575\u0578"},"coordinates":[2413,437]},{"type":"Point","properties":{"source":"openstreetmap.org","kind":"locality","name":"Garanhuns","kind_detail":"city","population":130154,"min_zoom":8.0,"id":415522047},"coordinates":[202,2670]},{"type":"Point","properties":{"source":"openstreetmap.org","kind":"locality","name":"Rio Largo","kind_detail":"town","population":67359,"min_zoom":8.0,"id":415522088},"coordinates":[2106,938]},{"type":"Point","properties":{"source":"openstreetmap.org","kind":"locality","name":"Uni\u00e3o dos Palmares","kind_detail":"town","population":62395,"min_zoom":8.0,"id":415521723},"coordinates":[1539,1882]},{"type":"Point","properties":{"source":"openstreetmap.org","kind":"locality","name":"Palmares","kind_detail":"town","population":58584,"min_zoom":8.0,"id":415522113},"coordinates":[2835,3279]},{"type":"Point","properties":{"source":"openstreetmap.org","kind":"locality","name":"S\u00e3o Miguel dos Campos","kind_detail":"town","population":53070,"min_zoom":8.0,"id":415521994},"coordinates":[1357,37]},{"type":"Point","properties":{"kind":"locality","name":"S\u00e3o Bento do Una","kind_detail":"town","source":"openstreetmap.org","min_zoom":8.0,"name:ru":"\u0421\u0430\u043d-\u0411\u0435\u043d\u0442\u0443-\u0434\u0443-\u0423\u043d\u0430","id":415522049,"population":49038},"coordinates":[344,3761]},{"type":"Point","properties":{"source":"openstreetmap.org","kind":"locality","name":"Campo Alegre","kind_detail":"town","population":46671,"min_zoom":8.0,"id":415522019},"coordinates":[597,47]},{"type":"Point","properties":{"source":"openstreetmap.org","kind":"locality","name":"Marechal Deodoro","kind_detail":"town","population":46565,"min_zoom":8.0,"id":415522085},"coordinates":[1939,254]},{"type":"Point","properties":{"source":"openstreetmap.org","kind":"locality","name":"Atalaia","kind_detail":"town","population":44379,"min_zoom":8.0,"id":2409615618},"coordinates":[1575,863]},{"type":"Point","properties":{"source":"openstreetmap.org","kind":"locality","name":"Barreiros","kind_detail":"town","population":43502,"min_zoom":8.0,"id":415522125},"coordinates":[4018,2890]},{"type":"Point","properties":{"source":"openstreetmap.org","kind":"locality","name":"Bonito","kind_detail":"town","population":40578,"min_zoom":8.0,"id":415522098},"coordinates":[2421,3904]},{"type":"Point","properties":{"source":"openstreetmap.org","kind":"locality","name":"Ribeir\u00e3o","kind_detail":"town","population":39548,"min_zoom":8.0,"id":415522121},"coordinates":[3460,3802]},{"type":"Point","properties":{"source":"openstreetmap.org","kind":"locality","name":"Catende","kind_detail":"town","population":34907,"min_zoom":8.0,"id":415522097},"coordinates":[2439,3322]},{"type":"Point","properties":{"source":"openstreetmap.org","kind":"locality","name":"Lajedo","kind_detail":"town","population":34595,"min_zoom":8.0,"id":415522053},"coordinates":[679,3356]},{"type":"Point","properties":{"source":"openstreetmap.org","kind":"locality","name":"S\u00e3o Lu\u00eds do Quitunde","kind_detail":"town","population":32588,"min_zoom":8.0,"id":415522104},"coordinates":[2919,1409]},{"type":"Point","properties":{"source":"openstreetmap.org","kind":"locality","name":"Pilar","kind_detail":"town","population":32546,"min_zoom":8.0,"id":415522083},"coordinates":[1781,572]},{"type":"Point","properties":{"source":"openstreetmap.org","kind":"locality","name":"\u00c1gua Preta","kind_detail":"town","population":30606,"min_zoom":8.0,"id":415522114},"coordinates":[3037,3209]},{"type":"Point","properties":{"source":"openstreetmap.org","kind":"locality","name":"Gameleira","kind_detail":"town","population":27489,"min_zoom":8.0,"id":415522123},"coordinates":[3431,3587]},{"type":"Point","properties":{"source":"openstreetmap.org","kind":"locality","name":"Vi\u00e7osa","kind_detail":"town","population":26799,"min_zoom":8.0,"id":415522040},"coordinates":[930,1247]},{"type":"Point","properties":{"source":"openstreetmap.org","kind":"locality","name":"Murici","kind_detail":"town","population":26731,"min_zoom":8.0,"id":415522071},"coordinates":[1805,1442]},{"type":"Point","properties":{"source":"openstreetmap.org","kind":"locality","name":"Maragogi","kind_detail":"town","population":26520,"min_zoom":8.0,"id":415522110},"coordinates":[3903,2312]},{"type":"Point","properties":{"source":"openstreetmap.org","kind":"locality","name":"Limoeiro de Anadia","kind_detail":"town","population":26236,"min_zoom":8.0,"id":415522017},"coordinates":[177,167]},{"type":"Point","properties":{"source":"openstreetmap.org","kind":"locality","name":"Boca da Mata","kind_detail":"town","population":25882,"min_zoom":8.0,"id":415521997},"coordinates":[1022,444]},{"type":"Point","properties":{"source":"openstreetmap.org","kind":"locality","name":"Porto Calvo","kind_detail":"town","population":25870,"min_zoom":8.0,"id":415522106},"coordinates":[3390,2194]},{"type":"Point","properties":{"source":"openstreetmap.org","kind":"locality","name":"Panelas","kind_detail":"town","population":25555,"min_zoom":8.0,"id":415522027},"coordinates":[1602,3347]},{"type":"Point","properties":{"source":"openstreetmap.org","kind":"locality","name":"Matriz de Camaragibe","kind_detail":"town","population":25376,"min_zoom":8.0,"id":415522108},"coordinates":[3024,1892]},{"type":"Point","properties":{"source":"openstreetmap.org","kind":"locality","name":"Quipap\u00e1","kind_detail":"town","population":25301,"min_zoom":8.0,"id":415522024},"coordinates":[1605,2858]},{"type":"Point","properties":{"source":"openstreetmap.org","kind":"locality","name":"Canhotinho","kind_detail":"town","population":24874,"min_zoom":8.0,"id":415522022},"coordinates":[1062,2711]},{"type":"Point","properties":{"source":"openstreetmap.org","kind":"locality","name":"S\u00e3o Jos\u00e9 da Laje","kind_detail":"town","population":22941,"min_zoom":8.0,"id":415521724},"coordinates":[1473,2320]},{"type":"Point","properties":{"source":"openstreetmap.org","kind":"locality","name":"Cupira","kind_detail":"town","population":22764,"min_zoom":8.0,"id":415522090},"coordinates":[1775,3511]},{"type":"Point","properties":{"source":"openstreetmap.org","kind":"locality","name":"Altinho","kind_detail":"town","population":22418,"min_zoom":8.0,"id":415522026},"coordinates":[1460,3852]},{"type":"Point","properties":{"source":"openstreetmap.org","kind":"locality","name":"Agrestina","kind_detail":"town","population":22371,"min_zoom":8.0,"id":415522093},"coordinates":[1799,3941]},{"type":"Point","properties":{"source":"openstreetmap.org","kind":"locality","name":"Joaquim Gomes","kind_detail":"town","population":22366,"min_zoom":8.0,"id":415522075},"coordinates":[2361,1942]},{"type":"Point","properties":{"source":"openstreetmap.org","kind":"locality","name":"S\u00e3o Jo\u00e3o","kind_detail":"town","population":21886,"min_zoom":8.0,"id":415522050},"coordinates":[574,2714]},{"type":"Point","properties":{"source":"openstreetmap.org","kind":"locality","name":"S\u00e3o Joaquim do Monte","kind_detail":"town","population":21700,"min_zoom":8.0,"id":415522099},"coordinates":[2199,4022]},{"type":"Point","properties":{"source":"openstreetmap.org","kind":"locality","name":"Cajueiro","kind_detail":"town","population":20670,"min_zoom":8.0,"id":415521719},"coordinates":[1194,1168]},{"type":"Point","properties":{"source":"openstreetmap.org","kind":"locality","name":"Col\u00f4nia Leopoldina","kind_detail":"town","population":19946,"min_zoom":8.0,"id":415522076},"coordinates":[2450,2589]},{"type":"Point","properties":{"source":"openstreetmap.org","kind":"locality","name":"Taquarana","kind_detail":"town","population":18695,"min_zoom":8.0,"id":415522020},"coordinates":[203,444]},{"type":"Point","properties":{"source":"openstreetmap.org","kind":"locality","name":"Cachoeirinha","kind_detail":"town","population":18037,"min_zoom":8.0,"id":415521720},"coordinates":[939,3861]},{"type":"Point","properties":{"source":"openstreetmap.org","kind":"locality","name":"Anadia","kind_detail":"town","population":17765,"min_zoom":8.0,"id":415521993},"coordinates":[749,332]},{"type":"Point","properties":{"source":"openstreetmap.org","kind":"locality","name":"Capela","kind_detail":"town","population":17504,"min_zoom":8.0,"id":415521722},"coordinates":[1398,1123]},{"type":"Point","properties":{"source":"openstreetmap.org","kind":"locality","name":"Correntes","kind_detail":"town","population":16733,"min_zoom":8.0,"id":415522042},"coordinates":[681,1965]},{"type":"Point","properties":{"source":"openstreetmap.org","kind":"locality","name":"Joaquim Nabuco","kind_detail":"town","population":16458,"min_zoom":8.0,"id":415522120},"coordinates":[3018,3458]},{"type":"Point","properties":{"source":"openstreetmap.org","kind":"locality","name":"Lagoa dos Gatos","kind_detail":"town","population":16454,"min_zoom":8.0,"id":415522095},"coordinates":[1917,3369]},{"type":"Point","properties":{"source":"openstreetmap.org","kind":"locality","name":"Ibateguara","kind_detail":"town","population":15805,"min_zoom":8.0,"id":415522072},"coordinates":[1848,2425]},{"type":"Point","properties":{"source":"openstreetmap.org","kind":"locality","name":"Messias","kind_detail":"town","population":15547,"min_zoom":8.0,"id":415522073},"coordinates":[2107,1185]},{"type":"Point","properties":{"source":"openstreetmap.org","kind":"locality","name":"Jurema","kind_detail":"town","population":15396,"min_zoom":8.0,"id":415522025},"coordinates":[1238,3176]},{"type":"Point","properties":{"source":"openstreetmap.org","kind":"locality","name":"Xex\u00e9u","kind_detail":"town","population":14779,"min_zoom":8.0,"id":415522115},"coordinates":[2732,2926]},{"type":"Point","properties":{"source":"openstreetmap.org","kind":"locality","name":"Satuba","kind_detail":"town","population":14584,"min_zoom":8.0,"id":415522089},"coordinates":[2155,668]},{"type":"Point","properties":{"source":"openstreetmap.org","kind":"locality","name":"Jupi","kind_detail":"town","population":14274,"min_zoom":8.0,"id":415522051},"coordinates":[422,3198]},{"type":"Point","properties":{"source":"openstreetmap.org","kind":"locality","name":"Maribondo","kind_detail":"town","population":14249,"min_zoom":8.0,"id":415521990},"coordinates":[753,634]},{"type":"Point","properties":{"source":"openstreetmap.org","kind":"locality","name":"Passo de Camaragibe","kind_detail":"town","population":14225,"min_zoom":8.0,"id":415522107},"coordinates":[3124,1649]},{"type":"Point","properties":{"source":"openstreetmap.org","kind":"locality","name":"Barra de Santo Ant\u00f4nio","kind_detail":"town","population":14159,"min_zoom":8.0,"id":415522102},"coordinates":[3060,1156]},{"type":"Point","properties":{"source":"openstreetmap.org","kind":"locality","name":"Barra de Guabiraba","kind_detail":"town","population":13384,"min_zoom":8.0,"id":415522101},"coordinates":[2621,4066]},{"type":"Point","properties":{"source":"openstreetmap.org","kind":"locality","name":"Jaqueira","kind_detail":"town","population":12560,"min_zoom":8.0,"id":415522094},"coordinates":[2236,3151]},{"type":"Point","properties":{"source":"openstreetmap.org","kind":"locality","name":"Maraial","kind_detail":"town","population":12473,"min_zoom":8.0,"id":415522092},"coordinates":[2188,2989]},{"type":"Point","properties":{"source":"openstreetmap.org","kind":"locality","name":"Flexeiras","kind_detail":"town","population":12271,"min_zoom":8.0,"id":415522074},"coordinates":[2444,1525]},{"type":"Point","properties":{"source":"openstreetmap.org","kind":"locality","name":"Novo Lino","kind_detail":"town","population":12266,"min_zoom":8.0,"id":415522077},"coordinates":[2617,2519]},{"type":"Point","properties":{"source":"openstreetmap.org","kind":"locality","name":"Branquinha","kind_detail":"town","population":12142,"min_zoom":8.0,"id":415521721},"coordinates":[1594,1616]},{"type":"Point","properties":{"source":"openstreetmap.org","kind":"locality","name":"Lagoa do Ouro","kind_detail":"town","population":12136,"min_zoom":8.0,"id":415522002},"coordinates":[300,1980]},{"type":"Point","properties":{"source":"openstreetmap.org","kind":"locality","name":"Santana do Munda\u00fa","kind_detail":"town","population":12002,"min_zoom":8.0,"id":415522044},"coordinates":[1005,1842]},{"type":"Point","properties":{"source":"openstreetmap.org","kind":"locality","name":"Cort\u00eas","kind_detail":"town","population":11812,"min_zoom":8.0,"id":415522117},"coordinates":[2969,3903]},{"type":"Point","properties":{"source":"openstreetmap.org","kind":"locality","name":"Cal\u00e7ado","kind_detail":"town","population":11637,"min_zoom":8.0,"id":415522052},"coordinates":[662,3110]},{"type":"Point","properties":{"source":"openstreetmap.org","kind":"locality","name":"Quebrangulo","kind_detail":"town","population":11607,"min_zoom":8.0,"id":415521999},"coordinates":[259,1398]},{"type":"Point","properties":{"source":"openstreetmap.org","kind":"locality","name":"Jucati","kind_detail":"town","population":10965,"min_zoom":8.0,"id":415522048},"coordinates":[220,3213]},{"type":"Point","properties":{"source":"openstreetmap.org","kind":"locality","name":"Porto de Pedras","kind_detail":"town","population":10620,"min_zoom":8.0,"id":415522112},"coordinates":[3663,1875]},{"type":"Point","properties":{"source":"openstreetmap.org","kind":"locality","name":"Angelim","kind_detail":"town","population":10272,"min_zoom":8.0,"id":415522023},"coordinates":[802,2671]},{"type":"Point","properties":{"source":"openstreetmap.org","kind":"locality","name":"Paripueira","kind_detail":"town","population":10027,"min_zoom":8.0,"id":415522100},"coordinates":[2943,981]}]},"transit":{"type":"GeometryCollection","geometries":[{"type":"MultiLineString","properties":{"kind":"train","name":"Rodovia Governador M\u00e1rio Covas","sort_rank":275,"source":"openstreetmap.org","min_zoom":6.0,"ref":"BR-101","osm_relation":true,"network":"BR"},"arcs":[[3],[4],[5],[6],[7],[8],[9],[10],[11],[12],[13],[14],[15],[16],[17],[18],[19],[20],[21],[22],[23],[24],[25],[26],[27],[28],[29],[30],[31],[32],[33],[34],[35],[36],[37],[38],[39],[40],[41],[42],[43],[44],[45],[46]]}]},"pois":{"type":"GeometryCollection","geometries":[{"type":"Point","properties":{"kind":"protected_area","tier":2,"protect_class":"5","area":4175930000,"source":"openstreetmap.org","min_zoom":7.0,"operator":"Instituto Chico Mendes de Conserva\u00e7\u00e3o da Biodiversidade","id":-3424554,"osm_relation":true,"name":"\u00c1rea de Prote\u00e7\u00e3o Ambiental Costa dos Corais"},"coordinates":[4057,1643]}]},"boundaries":{"type":"GeometryCollection","geometries":[{"type":"LineString","properties":{"name:kg":"Brazil","name:ty":"Brazil","name:ka":"\u10d1\u10e0\u10d0\u10d6\u10d8\u10da\u10d8\u10d0","name:ko":"\ube0c\ub77c\uc9c8","name:cv":"\u0411\u0440\u0430\u0437\u0438\u043b\u0438","name:cu":"\u0411\u0440\u0430\ua641\u0457\u043b\u0457\ua657","name:kl":"Brazil","name:cs":"Braz\u00edlie","name:ki":"Brazil","name:co":"Brasile","name:kv":"\u0411\u0440\u0430\u0437\u0438\u043b\u0438\u044f","name:ku":"Braz\u00eel","name:ce":"\u0411\u0440\u0430\u0437\u0438\u043b\u0438\u044f","name:ta":"\u0baa\u0bbf\u0bb0\u0bc7\u0b9a\u0bbf\u0bb2\u0bcd","name:tg":"\u0411\u0440\u0430\u0437\u0438\u043b\u0438\u044f","name:ky":"\u0411\u0440\u0430\u0437\u0438\u043b\u0438\u044f","name:te":"\u0c2c\u0c4d\u0c30\u0c46\u0c1c\u0c3f\u0c32\u0c4d","name:da":"Brasilien","name:de":"Brasilien","name:dz":"\u0f56\u0f71\u0f62\u0f71\u0f0b\u0f5b\u0f72\u0f63\u0f0b","source":"openstreetmap.org","name:kn":"\u0cac\u0ccd\u0cb0\u0cc6\u0c9c\u0cbf\u0cb2\u0ccd","name:dv":"\u0784\u07aa\u0783\u07ac\u0792\u07a8\u078d\u07b0","name:km":"\u1794\u17d2\u179a\u17c1\u179f\u17ca\u17b8\u179b","name:lv":"Braz\u012blija","name:lt":"Brazilija","name:uz":"Braziliya","name:kk":"\u0411\u0440\u0430\u0437\u0438\u043b\u0438\u044f","name:ur":"\u0628\u0631\u0627\u0632\u06cc\u0644","name:lb":"Brasilien","name:la":"Brasilia","name:tt":"\u0411\u0440\u0430\u0437\u0438\u043b\u0438\u044f","name:uk":"\u0411\u0440\u0430\u0437\u0438\u043b\u0456\u044f","name:ug":"\u0628\u0631\u0627\u0632\u0649\u0644\u0649\u064a\u06d5","name:li":"Braziel","name:ln":"Brazil","name:el":"\u0392\u03c1\u03b1\u03b6\u03b9\u03bb\u03af\u03b1","name:eo":"Brazilo","name:en":"Brazil","name":"Brasil","name:tk":"Brazili\u00fda","name:ee":"Brazil","name:th":"\u0e1b\u0e23\u0e30\u0e40\u0e17\u0e28\u0e1a\u0e23\u0e32\u0e0b\u0e34\u0e25","name:et":"Brasiilia","name:ay":"Wrasil","name:rm":"Brasilia","name:rn":"Brazil","name:az":"Braziliya","name:ig":"Brazil","name:as":"\u09ac\u09cd\u09f0\u09be\u099c\u09bf\u09b2","name:zh-min-nan":"Pa-se","name:io":"Brazilia","name:is":"Brasil\u00eda","name:am":"\u1265\u122b\u12da\u120d","name:it":"Brasile","name:ru":"\u0411\u0440\u0430\u0437\u0438\u043b\u0438\u044f","name:rw":"Burezile","name:af":"Brasili\u00eb","name:zu":"IBrazili","kind_detail":"2","name:za":"Bahsih","name:zh-yue":"\u5df4\u897f","name:zh":"\u5df4\u897f","name:so":"Barasiil","name:sl":"Brazilija","name:sk":"Braz\u00edlia","name:ja":"\u30d6\u30e9\u30b8\u30eb","name:sh":"Brazil","name:se":"Brasilia","name:sc":"Brasile","name:br":"Brazil","name:bs":"Brazil","name:bm":"Brazil","name:bn":"\u09ac\u09cd\u09b0\u09be\u099c\u09bf\u09b2","name:bo":"\u0f54\u0f74\u0f0b\u0f62\u0f74\u0f0b\u0f5f\u0f72\u0f63\u0f0d","name:bi":"Brazil","name:sw":"Brazil","name:be":"\u0411\u0440\u0430\u0437\u0456\u043b\u0456\u044f","name:bg":"\u0411\u0440\u0430\u0437\u0438\u043b\u0438\u044f","name:ba":"\u0411\u0440\u0430\u0437\u0438\u043b\u0438\u044f","name:sq":"Brazili","name:sa":"\u092c\u094d\u0930\u093e\u0938\u0940\u0932","name:ps":"\u0628\u0631\u0627\u0632\u06cc\u0644","min_zoom":8.0,"name:ro":"Brazilia","name:pa":"\u0a2c\u0a4d\u0a30\u0a3e\u0a1c\u0a3c\u0a40\u0a32","name:os":"\u0411\u0440\u0430\u0437\u0438\u043b\u0438","name:or":"\u0b2c\u0b4d\u0b30\u0b3e\u0b1c\u0b3f\u0b32","name:pl":"Brazylia","name:st":"Brazil","sort_rank":262,"name:sr":"\u0411\u0440\u0430\u0437\u0438\u043b","osm_relation":true,"name:ar":"\u0627\u0644\u0628\u0631\u0627\u0632\u064a\u0644","name:tr":"Brezilya","name:hi":"\u092c\u094d\u0930\u093e\u091c\u093c\u0940\u0932","name:sv":"Brasilien","name:he":"\u05d1\u05e8\u05d6\u05d9\u05dc","name:hy":"\u0532\u0580\u0561\u0566\u056b\u056c\u056b\u0561","name:ht":"Brezil","name:hu":"Braz\u00edlia","name:hr":"Brazil","kind":"country","name:yi":"\u05d1\u05e8\u05d0\u05d6\u05d9\u05dc","name:mt":"Bra\u017cil","name:ms":"Brazil","name:mr":"\u092c\u094d\u0930\u093e\u091d\u0940\u0932","name:my":"\u1018\u101b\u102c\u1007\u102e\u1038\u1014\u102d\u102f\u1004\u103a\u1004\u1036","official_name":"Rep\u00fablica Federativa do Brasil","name:mg":"Brazila","name:ml":"\u0d2c\u0d4d\u0d30\u0d38\u0d40\u0d7d","name:mn":"\u0411\u0440\u0430\u0437\u0438\u043b","name:mi":"Par\u012bhi","id":-59470,"name:mk":"\u0411\u0440\u0430\u0437\u0438\u043b","name:vo":"Brasil\u00e4n","name:fa":"\u0628\u0631\u0632\u06cc\u0644","name:fi":"Brasilia","old_name:vi":"Ba T\u00e2y","alt_name:vi":"Brazil;Bra-xin","name:fr":"Br\u00e9sil","name:fy":"Brazylje","name:nl":"Brazili\u00eb","name:na":"Bradir","name:ne":"\u092c\u094d\u0930\u093e\u091c\u093f\u0932","name:wa":"Braezi","name:wo":"Breesil","name:nv":"Bwaz\u00ed\u00edl","name:ga":"An Bhrasa\u00edl","name:gd":"Braisil","name:gn":"Pindorama","maritime_boundary":true,"name:gv":"Yn Vrasseel","name:gu":"\u0aac\u0acd\u0ab0\u0abe\u0a9d\u0abf\u0ab2"},"arcs":[0]},{"type":"LineString","properties":{"name:left:la":"Alacunae","name:right:ja":"\u30da\u30eb\u30ca\u30f3\u30d6\u30fc\u30b3","name:right:fr":"Pernambouc","name:left:hi":"\u0905\u0932\u093e\u0917\u094b\u0906\u0938","name:right:hy":"\u054a\u0565\u0580\u0576\u0561\u0574\u0562\u0578\u0582\u056f\u0578\u0582","name:right:uk":"\u041f\u0435\u0440\u043d\u0430\u043c\u0431\u0443\u043a\u0443","name:left:he":"\u05d0\u05dc\u05d2\u05d5\u05d0\u05e1","name:left:ja":"\u30a2\u30e9\u30b4\u30a2\u30b9","id:right":-303702,"name:right:lt":"Pernambukas","name:right:hi":"\u092a\u0947\u0930\u0928\u093e\u092e\u094d\u092c\u0941\u0915\u094b","name:right:lv":"Pernambuku","name:left:lt":"Alagoasas","name:left:hy":"\u0531\u056c\u0561\u0563\u0578\u0561\u057d","name:left:lv":"Alagoasa","name:left:be":"\u0410\u043b\u0430\u0433\u043e\u0430\u0441","name:right:uz":"Prenambuku","name:right:he":"\u05e4\u05e8\u05e0\u05de\u05d1\u05d5\u05e7\u05d5","name:right:la":"Pernambucum","short_name:left":"AL","name:left:eo":"Alagoaso","sort_rank":256,"kind_detail":"4","id":-303781,"source":"openstreetmap.org","name:right:ar":"\u0628\u064a\u0631\u0646\u0627\u0645\u0628\u0648\u0643\u0648","id:left":-303781,"name:right":"Pernambuco","name:left:os":"\u0410\u043b\u0430\u0433\u043e\u0430\u0441","name:left":"Alagoas","name:right:mk":"\u041f\u0435\u0440\u043d\u0430\u043c\u0431\u0443\u043a\u043e","name:left:sr":"\u0410\u043b\u0430\u0433\u043e\u0430\u0441","name:right:sr":"\u041f\u0435\u0440\u043d\u0430\u043c\u0431\u0443\u043a\u043e","name:left:ka":"\u10d0\u10da\u10d0\u10d2\u10dd\u10d0\u10e1\u10d8","name:left:ar":"\u0623\u0644\u0627\u063a\u0648\u0627\u0633","name:left:mk":"\u0410\u043b\u0430\u0433\u043e\u0458\u0430\u0441","name:left:ko":"\uc54c\ub77c\uace0\uc544\uc2a4","name:right:ko":"\ud398\ub974\ub0a8\ubd80\ucfe0","name:right:ru":"\u041f\u0435\u0440\u043d\u0430\u043c\u0431\u0443\u043a\u0443","name:left:th":"\u0e2d\u0e32\u0e25\u0e32\u0e42\u0e01\u0e2d\u0e31\u0e2a","name:left:mr":"\u0906\u0932\u093e\u0917\u094b\u0906\u0938","name:right:th":"\u0e40\u0e1b\u0e23\u0e4c\u0e19\u0e31\u0e21\u0e1a\u0e39\u0e01\u0e39","name:left:ru":"\u0410\u043b\u0430\u0433\u043e\u0430\u0441","short_name:right":"PE","name:right:mr":"\u092a\u0930\u094d\u0928\u093e\u0902\u092c\u0941\u0915\u094b","min_zoom":8.0,"name:right:tg":"\u041f\u0435\u0440\u043d\u0430\u043c\u0431\u0443\u043a\u0443","name:right:eo":"Pernambuko","name:right:os":"\u041f\u0435\u0440\u043d\u0430\u043c\u0431\u0443\u043a\u0443","name:left:tg":"\u0410\u043b\u0430\u0433\u043e\u0430\u0441","name:left:uk":"\u0410\u043b\u0430\u0433\u043e\u0430\u0441","kind":"region","name:right:ka":"\u10de\u10d4\u10e0\u10dc\u10d0\u10db\u10d1\u10e3\u10d9\u10e3","name":"Alagoas - Pernambuco","name:left:fa":"\u0622\u0644\u0627\u06af\u0648\u0627\u0633","name:right:fa":"\u067e\u0631\u0646\u0627\u0645\u0628\u0648\u06a9\u0648","name:right:bg":"\u041f\u0435\u0440\u043d\u0430\u043c\u0431\u0443\u043a\u043e","osm_relation":true,"name:right:be":"\u041f\u0435\u0440\u043d\u0430\u043c\u0431\u0443\u043a\u0443","name:left:zh":"\u963f\u62c9\u6208\u65af","name:right:zh":"\u4f2f\u5357\u5e03\u54e5","name:left:bg":"\u0410\u043b\u0430\u0433\u043e\u0430\u0441"},"arcs":[1]},{"type":"LineString","properties":{"name:ka":"\u10d0\u10da\u10d0\u10d2\u10dd\u10d0\u10e1\u10d8","name:mr":"\u0906\u0932\u093e\u0917\u094b\u0906\u0938","name:ko":"\uc54c\ub77c\uace0\uc544\uc2a4","name:ar":"\u0623\u0644\u0627\u063a\u0648\u0627\u0633","name:th":"\u0e2d\u0e32\u0e25\u0e32\u0e42\u0e01\u0e2d\u0e31\u0e2a","name:os":"\u0410\u043b\u0430\u0433\u043e\u0430\u0441","name:ru":"\u0410\u043b\u0430\u0433\u043e\u0430\u0441","name:tg":"\u0410\u043b\u0430\u0433\u043e\u0430\u0441","name:mk":"\u0410\u043b\u0430\u0433\u043e\u0458\u0430\u0441","name:fa":"\u0622\u0644\u0627\u06af\u0648\u0627\u0633","short_name":"AL","sort_rank":256,"kind_detail":"4","id":-303781,"source":"openstreetmap.org","name:zh":"\u963f\u62c9\u6208\u65af","name:lv":"Alagoasa","name:ja":"\u30a2\u30e9\u30b4\u30a2\u30b9","name:lt":"Alagoasas","name:hi":"\u0905\u0932\u093e\u0917\u094b\u0906\u0938","name:he":"\u05d0\u05dc\u05d2\u05d5\u05d0\u05e1","name:eo":"Alagoaso","name:la":"Alacunae","name:uk":"\u0410\u043b\u0430\u0433\u043e\u0430\u0441","name:hy":"\u0531\u056c\u0561\u0563\u0578\u0561\u057d","name:be":"\u0410\u043b\u0430\u0433\u043e\u0430\u0441","name:bg":"\u0410\u043b\u0430\u0433\u043e\u0430\u0441","name:sr":"\u0410\u043b\u0430\u0433\u043e\u0430\u0441","osm_relation":true,"kind":"region","name":"Alagoas","min_zoom":8.0,"maritime_boundary":true},"arcs":[2]}]},"roads":{"type":"GeometryCollection","geometries":[{"type":"LineString","properties":{"kind":"major_road","network":"BR","sort_rank":380,"kind_detail":"primary","source":"openstreetmap.org","min_zoom":8.0,"landuse_kind":"urban_area","shield_text":"424","ref":"BR-424"},"arcs":[49]},{"type":"MultiLineString","properties":{"bus_network":null,"network":"BR","sort_rank":380,"kind_detail":"primary","kind":"major_road","source":"openstreetmap.org","min_zoom":8.0,"bus_shield_text":"607","shield_text":"104","landuse_kind":"urban_area","ref":"BR-104;BR-316"},"arcs":[[50],[51]]},{"type":"LineString","properties":{"source":"openstreetmap.org","kind":"major_road","sort_rank":380,"kind_detail":"primary","ref":"AL-435","min_zoom":8.0},"arcs":[52]},{"type":"LineString","properties":{"source":"openstreetmap.org","kind":"major_road","sort_rank":380,"kind_detail":"primary","ref":"AL-450;AL-105","min_zoom":8.0},"arcs":[53]},{"type":"MultiLineString","properties":{"source":"openstreetmap.org","kind":"major_road","sort_rank":381,"kind_detail":"trunk","ref":"BR-101","min_zoom":8.0},"arcs":[[54],[55],[56],[57],[58],[59],[60],[61],[62],[63],[64]]},{"type":"MultiLineString","properties":{"source":"openstreetmap.org","kind":"major_road","sort_rank":380,"kind_detail":"primary","ref":"PE-180","min_zoom":8.0},"arcs":[[65],[66],[67]]},{"type":"MultiLineString","properties":{"source":"openstreetmap.org","kind":"major_road","sort_rank":380,"kind_detail":"primary","ref":"BR-316","min_zoom":8.0},"arcs":[[68],[69]]},{"type":"MultiLineString","properties":{"source":"openstreetmap.org","kind":"major_road","sort_rank":380,"kind_detail":"primary","ref":"PE-177","min_zoom":8.0},"arcs":[[70],[71]]},{"type":"LineString","properties":{"source":"openstreetmap.org","kind":"highway","sort_rank":383,"kind_detail":"motorway","ref":"BR-101;BR-104","min_zoom":8.0,"id":517800864},"arcs":[72]},{"type":"MultiLineString","properties":{"kind":"major_road","network":"BR","sort_rank":380,"kind_detail":"primary","source":"openstreetmap.org","min_zoom":8.0,"shield_text":"424","ref":"AL-101"},"arcs":[[73],[74],[75]]},{"type":"LineString","properties":{"kind":"major_road","network":"BR","sort_rank":380,"kind_detail":"primary","is_bicycle_related":true,"source":"openstreetmap.org","min_zoom":8.0,"shield_text":"316","ref":"BR-316","id":232598669},"arcs":[76]},{"type":"LineString","properties":{"source":"openstreetmap.org","kind":"major_road","landuse_kind":"protected_area","sort_rank":380,"kind_detail":"primary","ref":"AL-101;AL-460","min_zoom":8.0},"arcs":[77]},{"type":"MultiLineString","properties":{"kind":"major_road","network":"BR","sort_rank":380,"kind_detail":"primary","source":"openstreetmap.org","min_zoom":8.0,"landuse_kind":"urban_area","shield_text":"104"},"arcs":[[78],[79],[80]]},{"type":"LineString","properties":{"source":"openstreetmap.org","kind":"major_road","sort_rank":380,"kind_detail":"primary","ref":"PE-103","min_zoom":8.0},"arcs":[81]},{"type":"LineString","properties":{"kind":"major_road","sort_rank":380,"landuse_kind":"urban_area","source":"openstreetmap.org","min_zoom":8.0,"kind_detail":"primary","ref":"PE-126","id":31534657},"arcs":[82]},{"type":"MultiLineString","properties":{"sort_rank":355,"source":"openstreetmap.org","min_zoom":8.0,"name":"Trajeto para Gal\u00e9s","kind":"ferry"},"arcs":[[83],[84]]},{"type":"MultiLineString","properties":{"source":"openstreetmap.org","kind":"highway","landuse_kind":"urban_area","sort_rank":383,"kind_detail":"motorway","ref":"BR-101","min_zoom":8.0},"arcs":[[85],[86]]},{"type":"MultiLineString","properties":{"source":"openstreetmap.org","kind":"major_road","sort_rank":380,"kind_detail":"primary","ref":"AL-440","min_zoom":8.0},"arcs":[[87],[88]]},{"type":"LineString","properties":{"source":"openstreetmap.org","kind":"major_road","sort_rank":380,"kind_detail":"primary","ref":"AL-480","min_zoom":8.0},"arcs":[89]},{"type":"MultiLineString","properties":{"source":"openstreetmap.org","kind":"major_road","sort_rank":380,"kind_detail":"primary","ref":"PE-149","min_zoom":8.0},"arcs":[[90],[91],[92]]},{"type":"MultiLineString","properties":{"source":"openstreetmap.org","kind":"major_road","sort_rank":380,"kind_detail":"primary","ref":"AL-450","min_zoom":8.0},"arcs":[[93],[94]]},{"type":"MultiLineString","properties":{"source":"openstreetmap.org","kind":"major_road","sort_rank":380,"kind_detail":"primary","ref":"AL-101","min_zoom":8.0},"arcs":[[95],[96],[97],[98],[99],[100],[101],[102],[103]]},{"type":"MultiLineString","properties":{"source":"openstreetmap.org","kind":"major_road","landuse_kind":"urban_area","sort_rank":380,"kind_detail":"primary","ref":"AL-101","min_zoom":8.0},"arcs":[[104],[105],[106],[107],[108]]},{"type":"MultiLineString","properties":{"kind":"highway","network":"BR","sort_rank":383,"kind_detail":"motorway","source":"openstreetmap.org","min_zoom":8.0,"all_networks":["BR"],"shield_text":"104","ref":"BR-101;BR-104","all_shield_texts":["104"]},"arcs":[[109],[110],[111],[112],[113],[114],[115],[116]]},{"type":"MultiLineString","properties":{"kind":"major_road","network":"BR","sort_rank":380,"kind_detail":"primary","source":"openstreetmap.org","min_zoom":8.0,"shield_text":"423","ref":"BR-423"},"arcs":[[117],[118]]},{"type":"MultiLineString","properties":{"kind":"major_road","network":"BR","sort_rank":380,"kind_detail":"primary","source":"openstreetmap.org","min_zoom":8.0,"shield_text":"424","ref":"BR-424"},"arcs":[[119],[120],[121],[122],[123],[124]]},{"type":"LineString","properties":{"source":"openstreetmap.org","kind":"major_road","sort_rank":380,"kind_detail":"primary","ref":"AL-201","min_zoom":8.0},"arcs":[125]},{"type":"MultiLineString","properties":{"kind":"highway","network":"BR","sort_rank":383,"kind_detail":"motorway","source":"openstreetmap.org","min_zoom":8.0,"all_networks":["BR"],"shield_text":"104","ref":"BR-104","all_shield_texts":["104"]},"arcs":[[126],[127],[128]]},{"type":"MultiLineString","properties":{"source":"openstreetmap.org","kind":"major_road","sort_rank":380,"kind_detail":"primary","ref":"AL-110","min_zoom":8.0},"arcs":[[129],[130],[131]]},{"type":"MultiLineString","properties":{"kind":"major_road","network":"BR","sort_rank":380,"kind_detail":"primary","source":"openstreetmap.org","min_zoom":8.0,"landuse_kind":"urban_area","shield_text":"423","ref":"BR-423"},"arcs":[[132],[133]]},{"type":"LineString","properties":{"source":"openstreetmap.org","kind":"major_road","sort_rank":380,"kind_detail":"primary","ref":"PE-120","min_zoom":8.0},"arcs":[134]},{"type":"LineString","properties":{"source":"openstreetmap.org","kind":"major_road","sort_rank":380,"kind_detail":"primary","ref":"PE-058","min_zoom":8.0,"id":365597792},"arcs":[135]},{"type":"MultiLineString","properties":{"kind":"highway","network":"BR","sort_rank":383,"landuse_kind":"urban_area","source":"openstreetmap.org","min_zoom":8.0,"all_networks":["BR"],"kind_detail":"motorway","shield_text":"104","ref":"BR-104","all_shield_texts":["104"]},"arcs":[[136],[137]]},{"type":"LineString","properties":{"source":"openstreetmap.org","kind":"major_road","sort_rank":380,"kind_detail":"primary","ref":"AL-401","min_zoom":8.0},"arcs":[138]},{"type":"MultiLineString","properties":{"kind":"major_road","network":"BR","sort_rank":380,"kind_detail":"primary","source":"openstreetmap.org","min_zoom":8.0,"landuse_kind":"urban_area","shield_text":"424"},"arcs":[[139],[140],[141],[142],[143]]},{"type":"MultiLineString","properties":{"source":"openstreetmap.org","kind":"major_road","landuse_kind":"urban_area","sort_rank":380,"kind_detail":"primary","min_zoom":8.0},"arcs":[[144],[145],[146],[147],[148],[149],[150],[151],[152]]},{"type":"LineString","properties":{"sort_rank":355,"source":"openstreetmap.org","kind":"ferry","min_zoom":8.0,"id":297301130},"arcs":[153]},{"type":"LineString","properties":{"source":"openstreetmap.org","kind":"ferry","sort_rank":355,"landuse_kind":"urban_area","min_zoom":8.0,"id":297301130},"arcs":[154]},{"type":"LineString","properties":{"source":"openstreetmap.org","kind":"highway","landuse_kind":"urban_area","sort_rank":383,"kind_detail":"motorway","min_zoom":8.0,"id":545361050},"arcs":[155]},{"type":"LineString","properties":{"kind":"major_road","network":"BR","sort_rank":380,"kind_detail":"primary","source":"openstreetmap.org","min_zoom":8.0,"shield_text":"424","ref":"AL-210"},"arcs":[156]},{"type":"MultiLineString","properties":{"source":"openstreetmap.org","kind":"ferry","name":"Balsa","sort_rank":355,"landuse_kind":"protected_area","min_zoom":8.0,"id":256493846},"arcs":[[157],[158]]},{"type":"MultiLineString","properties":{"source":"openstreetmap.org","kind":"major_road","sort_rank":380,"kind_detail":"primary","ref":"AL-205","min_zoom":8.0},"arcs":[[159],[160],[161],[162],[163],[164],[165],[166]]},{"type":"MultiLineString","properties":{"source":"openstreetmap.org","kind":"major_road","sort_rank":380,"kind_detail":"primary","ref":"AL-210","min_zoom":8.0},"arcs":[[167],[168],[169],[170],[171],[172]]},{"type":"MultiLineString","properties":{"source":"openstreetmap.org","kind":"major_road","sort_rank":380,"kind_detail":"primary","ref":"PE-218","min_zoom":8.0,"id":435217395},"arcs":[[173],[174]]},{"type":"LineString","properties":{"kind":"major_road","sort_rank":380,"landuse_kind":"urban_area","source":"openstreetmap.org","min_zoom":8.0,"kind_detail":"primary","ref":"BR-316","id":298030660},"arcs":[175]},{"type":"MultiLineString","properties":{"kind":"major_road","network":"BR","sort_rank":380,"kind_detail":"primary","source":"openstreetmap.org","min_zoom":8.0,"landuse_kind":"urban_area","shield_text":"316"},"arcs":[[176],[177],[178]]},{"type":"MultiLineString","properties":{"source":"openstreetmap.org","kind":"major_road","sort_rank":380,"kind_detail":"primary","ref":"AL-220","min_zoom":8.0},"arcs":[[179],[180]]},{"type":"LineString","properties":{"source":"openstreetmap.org","kind":"major_road","sort_rank":380,"kind_detail":"primary","ref":"PE-187","min_zoom":8.0,"id":382759768},"arcs":[181]},{"type":"LineString","properties":{"source":"openstreetmap.org","kind":"major_road","sort_rank":380,"kind_detail":"primary","ref":"PE-203","min_zoom":8.0},"arcs":[182]},{"type":"LineString","properties":{"source":"openstreetmap.org","kind":"major_road","network":"BR","sort_rank":380,"kind_detail":"primary","min_zoom":8.0,"shield_text":"416"},"arcs":[183]},{"type":"MultiLineString","properties":{"source":"openstreetmap.org","kind":"major_road","landuse_kind":"protected_area","sort_rank":380,"kind_detail":"primary","min_zoom":8.0},"arcs":[[184],[185],[186]]},{"type":"LineString","properties":{"kind":"highway","network":"BR","sort_rank":383,"kind_detail":"motorway","source":"openstreetmap.org","min_zoom":8.0,"all_networks":["BR"],"shield_text":"416","ref":"BR-101","all_shield_texts":["416"]},"arcs":[187]},{"type":"LineString","properties":{"kind":"major_road","sort_rank":380,"kind_detail":"primary","bus_network":null,"source":"openstreetmap.org","min_zoom":8.0,"bus_shield_text":"607","landuse_kind":"urban_area","id":278749885},"arcs":[188]},{"type":"LineString","properties":{"source":"openstreetmap.org","kind":"major_road","sort_rank":380,"kind_detail":"primary","ref":"PE-073","min_zoom":8.0},"arcs":[189]},{"type":"MultiLineString","properties":{"sort_rank":380,"kind_detail":"primary","min_zoom":8.0,"kind":"major_road","source":"openstreetmap.org"},"arcs":[[190],[191],[192],[193],[194],[195],[196],[197],[198],[199],[200],[201],[202],[203],[204],[205],[206],[207],[208],[209],[210],[211],[212],[213],[214],[215],[216],[217],[218],[219],[220],[221],[222],[223],[224],[225],[226],[227],[228],[229],[230],[231],[232],[233],[234],[235],[236],[237],[238],[239],[240],[241],[242],[243],[244],[245],[246],[247],[248],[249],[250],[251],[252],[253]]},{"type":"LineString","properties":{"source":"openstreetmap.org","kind":"major_road","sort_rank":380,"kind_detail":"primary","ref":"PE-085","min_zoom":8.0},"arcs":[254]},{"type":"MultiLineString","properties":{"kind":"major_road","network":"BR","sort_rank":380,"kind_detail":"primary","source":"openstreetmap.org","min_zoom":8.0,"landuse_kind":"urban_area","shield_text":"423","ref":"BR-424"},"arcs":[[255],[256]]},{"type":"MultiLineString","properties":{"bus_network":null,"network":"BR","sort_rank":380,"kind_detail":"primary","kind":"major_road","source":"openstreetmap.org","min_zoom":8.0,"bus_shield_text":"607","shield_text":"104","landuse_kind":"urban_area"},"arcs":[[257],[258]]},{"type":"LineString","properties":{"source":"openstreetmap.org","kind":"major_road","sort_rank":380,"kind_detail":"primary","ref":"AL-465","min_zoom":8.0},"arcs":[259]},{"type":"LineString","properties":{"source":"openstreetmap.org","kind":"major_road","sort_rank":380,"kind_detail":"primary","ref":"PE-109","min_zoom":8.0},"arcs":[260]},{"type":"LineString","properties":{"kind":"major_road","service":"unpaved","sort_rank":380,"kind_detail":"primary","source":"openstreetmap.org","min_zoom":8.0,"ref":"AL-470","id":171510768},"arcs":[261]},{"type":"MultiLineString","properties":{"kind":"major_road","network":"BR","sort_rank":380,"kind_detail":"primary","source":"openstreetmap.org","min_zoom":8.0,"shield_text":"416","ref":"AL-110"},"arcs":[[262],[263],[264]]},{"type":"MultiLineString","properties":{"source":"openstreetmap.org","kind":"major_road","sort_rank":380,"kind_detail":"primary","ref":"BR-424","min_zoom":8.0},"arcs":[[265],[266]]},{"type":"LineString","properties":{"source":"openstreetmap.org","kind":"major_road","sort_rank":380,"kind_detail":"primary","ref":"AL-110;BR-316","min_zoom":8.0},"arcs":[267]},{"type":"MultiLineString","properties":{"source":"openstreetmap.org","kind":"major_road","landuse_kind":"protected_area","sort_rank":380,"kind_detail":"primary","ref":"AL-101","min_zoom":8.0},"arcs":[[268],[269],[270],[271],[272]]},{"type":"MultiLineString","properties":{"source":"openstreetmap.org","kind":"major_road","landuse_kind":"nature_reserve","sort_rank":381,"kind_detail":"trunk","ref":"BR-101","min_zoom":8.0},"arcs":[[273],[274]]},{"type":"LineString","properties":{"source":"openstreetmap.org","kind":"major_road","sort_rank":380,"kind_detail":"primary","ref":"PE-060","min_zoom":8.0},"arcs":[275]},{"type":"MultiLineString","properties":{"kind":"major_road","network":"BR","sort_rank":380,"kind_detail":"primary","source":"openstreetmap.org","min_zoom":8.0,"shield_text":"104","ref":"BR-104"},"arcs":[[276],[277],[278],[279],[280],[281],[282],[283],[284]]},{"type":"LineString","properties":{"source":"openstreetmap.org","kind":"major_road","network":"BR","sort_rank":380,"kind_detail":"primary","min_zoom":8.0,"shield_text":"104"},"arcs":[285]},{"type":"MultiLineString","properties":{"source":"openstreetmap.org","kind":"major_road","landuse_kind":"urban_area","sort_rank":380,"kind_detail":"primary","ref":"PE-096","min_zoom":8.0},"arcs":[[286],[287],[288]]},{"type":"LineString","properties":{"kind":"major_road","sort_rank":380,"landuse_kind":"urban_area","source":"openstreetmap.org","min_zoom":8.0,"kind_detail":"primary","ref":"PE-177","id":177404610},"arcs":[289]},{"type":"MultiLineString","properties":{"kind":"major_road","network":"BR","sort_rank":380,"kind_detail":"primary","source":"openstreetmap.org","min_zoom":8.0,"landuse_kind":"urban_area","shield_text":"104","ref":"BR-104"},"arcs":[[290],[291],[292]]},{"type":"LineString","properties":{"source":"openstreetmap.org","kind":"major_road","sort_rank":380,"kind_detail":"primary","ref":"PE-096","min_zoom":8.0,"id":31534888},"arcs":[293]},{"type":"LineString","properties":{"source":"openstreetmap.org","kind":"major_road","sort_rank":380,"kind_detail":"primary","ref":"AL-413","min_zoom":8.0},"arcs":[294]},{"type":"MultiLineString","properties":{"source":"openstreetmap.org","kind":"major_road","sort_rank":380,"kind_detail":"primary","ref":"PE-214","min_zoom":8.0},"arcs":[[295],[296],[297]]},{"type":"MultiLineString","properties":{"source":"openstreetmap.org","kind":"major_road","network":"BR","sort_rank":380,"kind_detail":"primary","min_zoom":8.0,"shield_text":"424"},"arcs":[[298],[299],[300],[301],[302],[303]]},{"type":"MultiLineString","properties":{"sort_rank":383,"kind_detail":"motorway","min_zoom":8.0,"kind":"highway","source":"openstreetmap.org"},"arcs":[[304],[305],[306],[307]]},{"type":"MultiLineString","properties":{"source":"openstreetmap.org","kind":"major_road","sort_rank":380,"kind_detail":"primary","ref":"AL-101;AL-460","min_zoom":8.0},"arcs":[[308],[309]]},{"type":"MultiLineString","properties":{"source":"openstreetmap.org","kind":"ferry","name":"Trajeto para Gal\u00e9s","sort_rank":355,"landuse_kind":"protected_area","min_zoom":8.0},"arcs":[[310],[311]]},{"type":"LineString","properties":{"kind":"major_road","network":"BR","sort_rank":380,"kind_detail":"primary","source":"openstreetmap.org","min_zoom":8.0,"landuse_kind":"urban_area","shield_text":"316","ref":"BR-104","id":263713977},"arcs":[312]},{"type":"LineString","properties":{"kind":"major_road","network":"BR","sort_rank":380,"kind_detail":"primary","source":"openstreetmap.org","min_zoom":8.0,"landuse_kind":"urban_area","shield_text":"316","ref":"BR-316"},"arcs":[313]},{"type":"LineString","properties":{"source":"openstreetmap.org","kind":"major_road","sort_rank":380,"kind_detail":"primary","ref":"AL-440;AL-210","min_zoom":8.0},"arcs":[314]},{"type":"LineString","properties":{"kind":"major_road","network":"BR","sort_rank":381,"kind_detail":"trunk","source":"openstreetmap.org","min_zoom":8.0,"shield_text":"316","ref":"BR-101"},"arcs":[315]},{"type":"MultiLineString","properties":{"source":"openstreetmap.org","kind":"major_road","sort_rank":380,"kind_detail":"primary","ref":"BR-101","min_zoom":8.0},"arcs":[[316],[317]]},{"type":"MultiLineString","properties":{"source":"openstreetmap.org","kind":"major_road","sort_rank":380,"kind_detail":"primary","ref":"PE-112","min_zoom":8.0},"arcs":[[318],[319]]},{"type":"MultiLineString","properties":{"source":"openstreetmap.org","kind":"highway","sort_rank":383,"kind_detail":"motorway","ref":"BR-101","min_zoom":8.0},"arcs":[[320],[321],[322],[323],[324],[325],[326],[327],[328],[329],[330],[331],[332],[333],[334],[335],[336],[337],[338],[339],[340],[341],[342],[343],[344],[345],[346],[347],[348],[349],[350],[351],[352],[353],[354],[355],[356],[357],[358],[359],[360],[361],[362],[363],[364],[365],[366],[367],[368],[369],[370],[371],[372]]},{"type":"LineString","properties":{"kind":"major_road","sort_rank":380,"landuse_kind":"protected_area","source":"openstreetmap.org","min_zoom":8.0,"kind_detail":"primary","ref":"AL-435","id":149082521},"arcs":[373]},{"type":"LineString","properties":{"source":"openstreetmap.org","kind":"major_road","sort_rank":380,"kind_detail":"primary","ref":"AL-470","min_zoom":8.0},"arcs":[374]},{"type":"MultiLineString","properties":{"source":"openstreetmap.org","kind":"major_road","sort_rank":380,"kind_detail":"primary","ref":"AL-430","min_zoom":8.0},"arcs":[[375],[376],[377]]},{"type":"LineString","properties":{"kind":"major_road","network":"BR","sort_rank":380,"kind_detail":"primary","source":"openstreetmap.org","min_zoom":8.0,"shield_text":"104","ref":"PE-177"},"arcs":[378]},{"type":"MultiLineString","properties":{"kind":"major_road","network":"BR","sort_rank":380,"kind_detail":"primary","source":"openstreetmap.org","min_zoom":8.0,"shield_text":"316","ref":"BR-316;AL-110"},"arcs":[[379],[380]]},{"type":"LineString","properties":{"source":"openstreetmap.org","kind":"major_road","sort_rank":380,"kind_detail":"primary","ref":"PE-064","min_zoom":8.0},"arcs":[381]},{"type":"LineString","properties":{"source":"openstreetmap.org","kind":"major_road","sort_rank":380,"kind_detail":"primary","ref":"PE-60","min_zoom":8.0,"id":31534760},"arcs":[382]},{"type":"MultiLineString","properties":{"source":"openstreetmap.org","kind":"major_road","sort_rank":380,"kind_detail":"primary","ref":"AL-215","min_zoom":8.0},"arcs":[[383],[384],[385]]},{"type":"LineString","properties":{"source":"openstreetmap.org","kind":"ferry","name":"Balsa","sort_rank":355,"min_zoom":8.0,"id":256493846},"arcs":[386]},{"type":"LineString","properties":{"source":"openstreetmap.org","kind":"major_road","sort_rank":380,"kind_detail":"primary","ref":"AL-105","min_zoom":8.0},"arcs":[387]},{"type":"MultiLineString","properties":{"source":"openstreetmap.org","kind":"major_road","sort_rank":380,"kind_detail":"primary","ref":"PE-126","min_zoom":8.0},"arcs":[[388],[389],[390],[391]]},{"type":"LineString","properties":{"source":"openstreetmap.org","kind":"major_road","sort_rank":380,"kind_detail":"primary","ref":"PE-177;PE-126","min_zoom":8.0},"arcs":[392]},{"type":"MultiLineString","properties":{"kind":"major_road","network":"BR","sort_rank":380,"kind_detail":"primary","source":"openstreetmap.org","min_zoom":8.0,"shield_text":"316","ref":"BR-316"},"arcs":[[393],[394],[395],[396],[397],[398]]},{"type":"MultiLineString","properties":{"source":"openstreetmap.org","kind":"major_road","network":"BR","sort_rank":380,"kind_detail":"primary","min_zoom":8.0,"shield_text":"316"},"arcs":[[399],[400],[401],[402],[403],[404]]},{"type":"MultiLineString","properties":{"bus_network":null,"network":"BR","sort_rank":380,"kind_detail":"primary","kind":"major_road","source":"openstreetmap.org","min_zoom":8.0,"bus_shield_text":"607","shield_text":"104","landuse_kind":"urban_area","ref":"BR-104"},"arcs":[[405],[406]]},{"type":"LineString","properties":{"kind":"major_road","sort_rank":380,"landuse_kind":"urban_area","source":"openstreetmap.org","min_zoom":8.0,"kind_detail":"primary","ref":"BR-104;BR-316","id":383830586},"arcs":[407]}]},"earth":{"type":"GeometryCollection","geometries":[{"type":"Polygon","properties":{"sort_rank":10,"source":"naturalearthdata.com","kind":"earth","min_zoom":0.0,"id":4469},"arcs":[[408]]}]},"landuse":{"type":"GeometryCollection","geometries":[{"type":"MultiPolygon","properties":{"kind":"nature_reserve","protect_class":"1","area":110584524,"sort_rank":23,"operator":"Instituto Chico Mendes de Conserva\u00e7\u00e3o da Biodiversidade","source":"openstreetmap.org","min_zoom":8.0,"tier":2},"arcs":[[[409]],[[410]]]},{"type":"Polygon","properties":{"kind":"protected_area","protect_class":"5","area":4175930112,"sort_rank":17,"operator":"Instituto Chico Mendes de Conserva\u00e7\u00e3o da Biodiversidade","source":"openstreetmap.org","min_zoom":4.0,"tier":2,"id":-3424554,"osm_relation":true},"arcs":[[411]]},{"type":"MultiPolygon","properties":{"source":"naturalearthdata.com","kind":"urban_area","name":"","area":241788989,"sort_rank":11,"min_zoom":4.0},"arcs":[[[412]],[[413]],[[414]],[[415]]]}]}},"type":"Topology","transform":{"translate":[-36.5625,-9.7956775828],"scale":[0.0003433228,0.0003389916]},"arcs":[[[2959,0],[154,224],[131,123],[449,585],[200,170],[203,292]],[[4096,2635],[-60,40],[-228,11],[-422,104],[-31,41],[-133,-14],[-40,81],[-75,-44],[-46,31],[-58,-31],[-21,24],[-165,-120],[-90,-16],[14,-22],[-36,-26],[-65,14],[-50,-64],[-29,10],[-189,-61],[-101,58],[21,115],[-56,32],[-37,-38],[-44,9],[-8,-38],[-49,-8],[-57,42],[-73,-14],[-27,26],[-45,-21],[-36,-68],[-103,-25],[-12,-28],[-293,-37],[-65,-86],[-116,-32],[0,-77],[64,-53],[-20,-53],[-93,-69],[-154,-13],[-20,-65],[-56,-19],[-42,-89],[-93,-1],[32,-107],[-18,-94],[-35,16],[-89,-36],[-11,19],[-57,-89],[-71,4],[2,-56],[-157,-2],[-37,-26],[-11,41],[-39,11],[-75,-81],[-72,-2],[-12,-66],[-207,-74]],[[2959,0],[154,224],[131,123],[449,585],[200,170],[203,292]],[[1725,669],[-18,-50],[-13,-4],[-57,3],[-13,-28],[-35,-23],[-25,-5]],[[1564,562],[-11,-83]],[[1553,479]],[[1553,479],[-5,-5],[6,-9]],[[1554,465],[0,-1]],[[1554,464],[26,-58]],[[1580,406],[1,-2]],[[1581,404],[-1,-6]],[[1580,398],[-2,-3]],[[1578,395],[-48,-54],[15,-56],[-2,-5],[-13,-10]],[[1530,270],[-1,-1]],[[1529,269],[-19,-28]],[[1510,241],[-1,-1]],[[1509,240],[-91,-163],[-9,-1]],[[1409,76],[-10,9],[-33,-19],[-34,3],[-23,-69]],[[1368,69],[-30,2]],[[1510,241],[-10,-14],[-38,-63],[-45,-86],[-8,-2]],[[1509,240],[21,30]],[[1578,395],[-42,-44],[-6,-10],[-2,-6],[1,-6],[16,-44],[-2,-4],[-13,-11],[-1,-1]],[[1550,507],[-2,-12],[4,-11]],[[1564,562],[-2,0],[-2,-3],[-8,-41]],[[1553,479],[-2,-9],[0,-1],[3,-4]],[[1554,464],[-1,15]],[[1567,564],[10,2]],[[1577,567],[-9,-2]],[[1581,404],[-13,42]],[[1580,406],[0,-8]],[[1724,669],[-17,-49],[-12,-4],[-54,3],[-5,-1],[-3,-2],[-3,-4],[-6,-22],[-21,-4],[-3,-4],[-1,-5],[-2,-1]],[[1725,669],[4,17]],[[1738,719],[-2,-3],[-2,-6],[-6,-24]],[[1729,686],[9,33]],[[1738,719],[6,9],[23,17],[23,39],[52,56],[67,25],[63,64],[30,79],[110,36],[3,5],[0,8],[-12,87],[14,49],[24,34],[1,3],[1,5],[0,5],[-2,3],[-17,20]],[[1740,721],[28,24],[16,28]],[[2114,1051],[-66,-26]],[[2124,1263],[19,-29],[-34,-51],[-5,-35]],[[2590,2404],[-26,-151],[-174,-110],[-80,-164],[8,-102],[-65,-121],[94,-139],[-182,-135],[-34,-74],[-7,-145]],[[2694,2633],[-2,-70],[-81,-50],[-22,-109]],[[2705,2607],[4,205],[-40,31],[57,94]],[[2726,2937],[29,90]],[[2795,3056],[-38,-24]],[[2773,3182],[4,-33]],[[2773,3182],[7,75],[13,3],[17,-3],[4,0],[7,3],[16,8],[5,4],[6,1],[8,4],[9,6],[41,65],[-1,12],[7,19],[5,19],[6,45],[35,27],[5,28],[38,23],[24,24],[62,20],[55,35],[76,64],[20,-1],[27,10],[8,-3],[33,-20],[3,-1],[3,1],[12,8],[31,13],[34,-9],[10,3],[10,15],[5,14],[14,97],[-7,29],[4,6],[18,8],[15,10],[2,2],[2,4],[25,88],[79,48],[2,2],[5,9],[17,12],[19,21],[6,8],[10,20],[3,2],[12,1],[3,1],[5,14],[13,-3],[22,9],[67,12],[4,2]],[[3753,4096],[-105,-20],[-6,-14],[-14,-2],[-2,-1],[-13,-23],[-41,-38],[-7,-12],[-79,-48],[-24,-88],[-37,-24],[-5,-7],[-22,-153],[-43,5],[-30,-11],[-16,-10],[-39,23],[-21,0],[-10,-10],[-21,2],[-127,-97],[-69,-23],[-59,-45],[-39,-55],[-7,-17],[0,-27],[-12,-39],[1,-13],[-40,-63],[-84,-27],[-5,-4],[-4,-16]],[[2795,3055],[4,16],[-21,76]],[[2039,0],[1,5],[150,145],[35,71],[-20,-30],[-41,-14],[-98,-16],[-11,-17],[-1,-25],[-10,-14],[-38,14],[-15,18],[-68,230],[-18,35],[-43,40],[-83,54],[-33,49],[62,33],[65,-25],[41,-49],[-9,-41],[91,-141],[0,-31],[26,-62],[30,-49],[14,10],[129,131],[20,8],[21,15],[9,29],[0,80],[-10,38],[-43,73],[-6,20],[35,38],[41,-11],[36,-35],[25,-31],[55,-91],[-9,-53],[-40,-47],[-44,-72],[50,38],[25,13],[26,9],[71,6],[28,9],[38,5],[62,190],[51,93],[79,39],[139,91],[26,30],[234,350],[10,45],[23,62],[58,63],[71,53],[66,35],[0,-20],[67,52],[253,333],[46,116],[84,117],[83,195],[126,169],[95,183],[0,-2558],[-2057,0]],[[4096,2558],[-95,-183],[-126,-169],[-83,-195],[-84,-117],[-46,-116],[-253,-333],[-67,-52],[0,20],[-66,-35],[-71,-53],[-58,-63],[-23,-62],[-10,-45],[-234,-350],[-26,-30],[-139,-91],[-79,-39],[-51,-93],[-62,-190],[-38,-5],[-28,-9],[-71,-6],[-26,-9],[-25,-13],[-50,-38],[44,72],[40,47],[9,53],[-55,91],[-25,31],[-36,35],[-41,11],[-35,-38],[6,-20],[43,-73],[10,-38],[0,-80],[-9,-29],[-21,-15],[-20,-8],[-129,-131],[-14,-10],[-30,49],[-26,62],[0,31],[-91,141],[9,41],[-41,49],[-65,25],[-62,-33],[33,-49],[83,-54],[43,-40],[18,-35],[68,-230],[15,-18],[38,-14],[10,14],[1,25],[11,17],[98,16],[41,14],[20,30],[-35,-71],[-150,-145],[-1,-5]],[[177,2638],[-35,134]],[[2285,679],[1,-3]],[[2288,677],[-1,2]],[[2941,1730],[87,33],[198,-241],[46,-8],[49,-83],[58,26]],[[752,329],[-69,-57]],[[1330,64],[-6,-60],[-2,-4]],[[1725,669],[-16,-48],[-71,-3],[-76,-58],[-12,-70],[27,-97],[-40,-42],[4,-73],[-121,-196],[-89,-17]],[[1724,675],[1,-6]],[[1725,669],[4,17]],[[1729,686],[-3,-5]],[[1859,852],[-130,-166]],[[2314,1608],[-112,-116],[-37,-10],[-34,-74],[-7,-145]],[[2294,1713],[-1,-40],[49,-52]],[[2565,2268],[-176,-126],[-80,-167]],[[2345,1618],[-15,-5]],[[2698,2891],[28,46]],[[361,3738],[312,-383]],[[395,4096],[-55,-116],[22,-241]],[[675,3353],[45,-65],[82,-17],[74,-101],[48,-228],[89,-109],[-9,-23],[51,-87]],[[190,625],[3,-1]],[[1689,615],[82,-9]],[[328,2709],[124,-11],[113,31],[163,3],[68,-35],[192,-21],[74,49]],[[1064,2726],[102,60],[222,8],[51,36],[52,-22],[32,36]],[[2104,1148],[10,-97]],[[2193,267],[-6,-4]],[[2188,262],[88,25]],[[2276,288],[-76,-17]],[[2138,655],[34,6]],[[3688,1888],[-3,-17]],[[2395,547],[2,-16]],[[2415,431],[-20,116]],[[2397,530],[17,-99]],[[2429,3899],[-3,54]],[[2783,3260],[-17,-2]],[[3900,2287]],[[3907,2303]],[[2880,3318],[-102,-77]],[[2779,3241],[65,32],[25,18],[11,25]],[[1102,973],[45,204]],[[1161,1258],[184,176],[37,0]],[[2699,2583],[145,-65],[188,-11],[80,-72],[54,7],[77,-34],[37,37]],[[1457,3841],[-28,-48],[-96,-37],[-225,-168],[-12,-47],[-93,-54],[-119,-4],[-96,36]],[[1457,3841],[4,7]],[[1658,3940],[-197,-92]],[[683,272],[17,-49],[59,-21],[160,-13],[96,-103],[31,-86]],[[726,626],[-35,-126],[61,-171]],[[2187,263],[-60,-75],[-57,-106],[3,-37],[-34,-45]],[[2039,0],[35,46],[-3,37],[3,3],[51,95],[2,7],[61,74]],[[2200,271],[-7,-4]],[[2604,613],[289,324],[85,61],[31,60]],[[3009,1058],[32,16],[15,89]],[[3556,1701],[-175,-242]],[[3556,1701],[15,20]],[[3628,1787],[-45,-34]],[[3737,1979],[110,170],[48,179],[104,75]],[[2505,472],[12,21]],[[2517,493],[5,10]],[[2522,503],[19,29]],[[2541,532],[2,2]],[[2543,534],[61,79]],[[2129,1257],[2,-4]],[[2131,1253],[11,-20]],[[2142,1233],[1,-1],[-11,-22]],[[2132,1210],[-28,-62]],[[2115,1057],[-12,87],[29,66]],[[2132,1210],[10,23]],[[2142,1233],[1,2],[-12,18]],[[2131,1253],[-7,10]],[[0,2705],[142,8]],[[1093,4096],[-392,-731],[-226,-57],[-94,-158],[14,-133],[-91,-231]],[[0,2880],[142,-108]],[[216,2619],[-19,-10],[-20,29]],[[645,1983],[-78,28],[-61,63],[1,103],[-75,85],[-103,1],[-85,118],[-57,-12],[-68,60],[41,54],[4,52],[48,31],[7,51]],[[1989,610],[9,-62],[40,-35],[74,-155]],[[2118,353],[76,-82]],[[2194,269],[-1,-2]],[[3215,2821],[-44,-40],[-103,16],[-23,-34],[-115,-17],[-27,44],[-35,-45],[-155,-57]],[[2115,1048],[3,-5]],[[2161,937],[40,-97]],[[2202,839],[-40,99]],[[383,617],[-30,-7],[-76,-147],[-277,-134]],[[926,1235],[-90,-71],[-87,0],[-78,-127],[-51,-26],[-81,-191],[3,-150]],[[818,1328],[-5,46],[28,42],[-65,105],[0,62]],[[142,2713],[18,-3]],[[272,2720],[32,66]],[[2407,3337],[-44,33],[3,29],[-47,17],[-17,105],[-92,22],[-89,74],[-49,119],[-107,104],[-154,98]],[[3666,4096],[3,-17]],[[2118,1043],[43,-106]],[[2162,938],[-44,107]],[[2117,636],[38,-42],[-10,-81],[54,-52],[48,7]],[[2298,300],[93,69]],[[2339,341],[-40,-39]],[[2391,369],[-35,-16],[-16,-11]],[[2340,342],[-1,-1]],[[2339,341],[1,0],[0,1]],[[269,2718],[1,0]],[[271,2718],[-1,1]],[[272,2718],[-1,1]],[[2397,531],[0,-1]],[[2414,431],[1,-2]],[[2415,429],[0,2]],[[2461,533],[0,-2]],[[2773,3394],[41,-110]],[[2778,3259],[1,-2]],[[2483,355],[0,-11]],[[2483,382],[0,-27]],[[2121,1038],[-3,3]],[[1422,1136],[157,-139],[73,-147],[-18,-21]],[[3273,1419],[-3,0]],[[3329,1421],[-54,-2]],[[770,1545],[-100,12],[-230,-36],[-88,-93],[-73,-15]],[[982,1854],[-37,22]],[[982,1854],[4,-5]],[[1047,1852],[-61,-3]],[[1047,1852],[83,31],[52,69],[71,25],[41,-36],[234,-15],[5,-39]],[[1047,1852],[2,0]],[[2325,1999],[-68,34],[-18,43],[-261,-69],[-124,31],[-255,-135]],[[2311,1923],[25,8]],[[255,1397],[-255,-211]],[[258,1402],[158,-135]],[[957,1269],[-63,-25],[-66,77],[-78,33],[-43,-8],[-54,-76],[-84,10],[-100,-33],[-53,22]],[[1161,1258],[-43,31],[-156,-19]],[[1234,1155],[-87,21]],[[1236,1154],[77,20],[109,-38]],[[0,2307],[0,52]],[[0,2363],[81,14],[38,52]],[[2285,677],[3,-2]],[[2444,586],[-89,126],[-67,-35]],[[2444,586],[1,-8]],[[2461,533],[-16,45]],[[750,0],[-118,44],[-241,46],[-114,65],[-80,9],[-48,-63],[-149,8]],[[1448,112],[91,-29],[64,-83]],[[706,2346],[51,22],[30,52],[-10,114],[28,30],[1,100]],[[263,1975],[2,68],[51,87],[-39,72],[-1,121]],[[2425,2594],[47,9]],[[3575,1731],[8,21]],[[3706,1891],[2,5]],[[3722,1936],[12,34]],[[2696,2638],[-1,-1]],[[2361,591]],[[4096,3353],[-161,30],[-47,-18],[-101,58],[-89,3],[-244,151],[-61,85]],[[416,1267],[0,2]],[[677,2316],[-64,146],[-5,99]],[[608,2559],[34,59],[-68,100],[44,20]],[[681,1976],[79,-147]],[[945,1876],[-62,64],[-90,-13],[-20,50],[-68,-15]],[[806,2664],[1,4]],[[962,1270],[-2,-1]],[[960,1269],[-1,0]],[[959,1269],[-2,0]],[[1062,2725],[2,1]],[[1234,1155],[2,-1]],[[1435,111],[7,14]],[[1458,3842],[-1,0]],[[1576,1857],[-43,30]],[[1776,3989],[-118,-49]],[[1987,613],[2,-1]],[[2039,5],[-1,1]],[[2039,7],[1,-1]],[[2070,3795],[71,19],[27,37],[88,-38],[136,62],[21,41]],[[2115,157],[0,3]],[[2116,163],[1,-1]],[[2133,1252],[-11,-20]],[[2130,3089],[-7,-2]],[[2131,1259],[-2,-2]],[[2131,1259],[-2,-1]],[[2134,1252],[-3,7]],[[2137,213]],[[2141,222],[-1,0]],[[2154,564],[6,-3]],[[2203,271],[0,1]],[[2276,287],[4,-1]],[[2430,3327],[-23,10]],[[2413,3916],[16,-18]],[[2413,3916],[2,0]],[[2429,3899],[-7,-52],[42,-15],[-39,-73],[4,-74],[25,-54],[44,0],[37,-63]],[[2446,3257],[-9,89]],[[2590,3573],[23,6],[11,-48],[67,1],[22,-55],[71,-16],[-27,-54],[16,-13]],[[2607,2504],[1,1]],[[2608,2505]],[[2616,2503],[-8,2]],[[2616,2503],[0,-1]],[[2618,2502],[-2,1]],[[3018,3453],[-35,-19],[-35,31]],[[3188,1578],[7,-22]],[[3428,3792],[0,1]],[[3428,3791],[0,1]],[[3428,3792],[29,5],[5,51]],[[3461,3840],[-13,6]],[[3461,3828],[0,1]],[[3461,3829]],[[3461,3829]],[[3556,1701]],[[3670,4078],[-2,0]],[[3708,1896],[14,40]],[[3722,3807],[-1,0]],[[3734,1970],[3,9]],[[4017,2904],[3,-7]],[[673,3354],[2,0]],[[960,1270],[-1,-1]],[[959,1269],[0,-1],[1,1]],[[960,1269],[0,1]],[[1869,2452],[-1,-1],[1,-1],[1,1],[-1,1]],[[2073,86],[-2,-1],[0,-2],[2,1],[0,2]],[[3377,2209]],[[2414,4048],[112,30],[218,-36],[75,-106],[135,-28],[80,-116],[332,133],[82,-79]],[[161,2711],[53,-16],[48,18]],[[262,2713],[10,7]],[[2286,676],[75,-85]],[[2361,591],[34,-44]],[[3371,2207],[80,-57],[149,6],[212,-58]],[[2371,4096],[75,-87],[-20,-56]],[[763,1599],[-24,51]],[[1587,2435],[281,16]],[[1871,2450],[100,8],[83,44],[67,-12],[38,-42],[37,7],[29,51],[43,19],[-2,25],[159,44]],[[2695,2637],[-223,-34]],[[645,1983],[36,-7]],[[2196,270],[-2,-1]],[[386,616],[-1,1]],[[3009,1058]],[[3381,1459],[-1,-2]],[[3571,1721],[4,10]],[[3583,1753],[0,-1]],[[4096,2608],[-97,-205]],[[2330,1613],[-16,-5]],[[2342,1621],[3,-3]],[[4096,3231],[-52,-32],[17,-160],[-64,-91],[20,-44]],[[1575,1853],[25,48],[-122,140],[62,137],[-14,85],[31,149],[30,23],[-25,57],[32,89],[-69,268]],[[1594,1637],[148,-74],[22,-96],[43,-23]],[[1724,4096],[87,-158],[-21,-112],[30,-132],[-89,-208],[-135,-52],[-32,-230],[23,-59],[-32,-95],[47,-150]],[[1815,1440],[-8,4]],[[1815,1440],[13,-11]],[[1834,1422],[-6,7]],[[1834,1422],[181,-127],[45,5],[24,-40],[33,1]],[[2201,840],[1,-2]],[[2203,838],[-1,1]],[[1575,1853],[-42,-49],[13,-105],[48,-62]],[[2868,3289],[3,1]],[[2871,3290],[-2,1]],[[2878,3288],[-7,2]],[[272,2718],[56,-9]],[[2202,838],[7,-15]],[[2210,823],[-7,15]],[[2395,547],[-107,130]],[[4012,2967],[-187,63],[-128,-22],[-181,19],[-103,61],[-202,-10],[-85,25],[-31,69],[-60,29],[-36,57],[-121,30]],[[3056,1163],[-8,34],[-126,71]],[[259,1975],[42,4]],[[303,1980],[241,48]],[[302,1979],[1,1],[-2,0],[0,-1],[1,0]],[[216,2619],[3,0]],[[1989,612],[-2,1]],[[2187,263],[1,-1]],[[2276,287],[8,-1],[14,14]],[[2299,302],[-23,-14]],[[2115,356],[-1,-1],[1,-1],[1,2],[-1,0]],[[2105,1159],[2,-2]],[[2118,1041],[-4,8]],[[2127,1210],[1,-1]],[[2136,1220],[-1,0]],[[3685,1871],[-57,-84]],[[3680,1900],[8,-12]],[[3900,2287],[71,-67]],[[3907,2303],[85,-23]],[[2290,679],[-2,0]],[[2205,673],[80,4]],[[1147,1177],[14,81]],[[1726,681],[-2,-6]],[[1331,65],[-1,-1]],[[2640,2530],[-36,-35]],[[2068,3738],[1,1]],[[2070,3737],[-3,137],[39,81],[139,141]],[[1907,864]],[[1907,864],[10,10],[2,4]],[[1919,878],[4,9],[2,5],[3,5],[56,56]],[[1984,953],[3,3],[1,2],[10,45]],[[1998,1003],[0,1],[13,10],[25,7]],[[2036,1021],[5,2],[3,1],[68,20],[3,5],[0,8]],[[2114,1051],[-73,-27],[-5,-3]],[[2036,1021],[-38,-18]],[[1998,1003],[-3,-2],[-8,-45],[-3,-3]],[[1984,953],[-65,-75]],[[1919,878],[-12,-14]],[[1907,864]],[[1907,864]],[[1907,864],[-3,-1],[-4,0]],[[1900,863],[-22,-3]],[[1878,860],[-7,-1],[-12,-7],[19,8]],[[1878,860],[8,3],[14,0]],[[1900,863],[4,0],[3,1]],[[1907,864]],[[1907,864]],[[1907,864],[3,2]],[[2124,1263],[5,-6]],[[2695,2637],[-1,-4],[-1,-55]],[[2693,2578],[-1,-15],[-7,-5]],[[2685,2558],[-45,-28],[-36,-35],[-39,-227],[40,227],[72,45],[8,18]],[[2685,2558],[8,20]],[[2693,2578],[12,29],[14,95],[-10,112],[-4,2]],[[2705,2816],[-36,26],[1,1]],[[2670,2843],[2,4]],[[2672,2847],[26,44],[40,22]],[[2738,2913],[1,0],[16,114],[40,28],[0,1]],[[2795,3056],[-8,42]],[[2787,3098],[-9,49],[-5,35],[6,59]],[[2778,3241],[-5,-2],[0,-57],[4,-33],[10,-51]],[[2787,3098],[8,-42]],[[2795,3056],[-38,-24],[-31,-95],[12,-24]],[[2738,2913],[0,-1],[-66,-65]],[[2672,2847],[-3,-3],[1,-1]],[[2670,2843],[35,-27]],[[2705,2816],[2,-1],[12,-113],[-21,-59],[-2,-5]],[[2880,3316],[83,182],[291,175],[54,-24],[88,14],[24,157]],[[3420,3820],[1,0],[13,9]],[[3434,3829],[19,12],[2,1],[8,10],[17,77],[156,131],[118,36]],[[3753,4096],[-118,-35],[-155,-131],[-26,-88],[-1,-1],[-19,-12]],[[3434,3829],[-14,-9]],[[3420,3820],[0,-1],[-25,-155],[-87,-14],[-54,24],[-291,-174],[-83,-182]],[[2258,1774],[49,83]],[[2307,1857],[10,17],[-1,1]],[[2316,1875],[-7,100],[8,-100],[-1,0]],[[2316,1875],[-9,-18]],[[2307,1857],[-47,-86]],[[2260,1771],[-7,-14],[41,-44],[-34,58]],[[2260,1771],[-2,3]],[[3380,1457],[-1,0]],[[760,1829],[10,-52],[-31,-127]],[[2347,1612],[87,-73],[172,-53],[24,49],[88,33],[76,-25],[83,-74],[27,6]],[[2922,1268],[-15,25],[19,32],[-45,86],[25,55]],[[2909,1528],[24,-26],[51,28],[82,-25],[-3,71],[61,55]],[[1525,2849],[77,51]],[[385,617],[1,-1]],[[542,670],[-149,-50]],[[3462,3829],[155,-106],[58,71],[52,11],[79,-47],[36,-126],[101,5],[106,45],[47,-24]],[[4096,2706],[-76,191]],[[1542,356],[-81,42],[-308,9],[-86,56],[-72,-7],[-56,-109],[-131,-36],[-56,19]],[[1960,167],[-63,89],[-45,-3],[-229,162],[-72,94]],[[2070,85],[-108,79]],[[3275,1419],[-2,0]],[[2906,1466],[-6,128],[46,158],[-19,47],[52,78],[65,35],[-27,85],[18,50],[138,47],[198,113],[-67,100],[-24,239],[-44,124],[5,142],[-26,9]],[[2123,3087],[-78,-41],[-68,-83],[-130,45],[-27,-12]],[[2445,3256],[-166,-72],[-60,-85],[-89,-10]],[[2447,3256],[-1,1],[-1,0],[1,-1],[1,0]],[[2766,3258],[-319,-2]],[[1602,2900],[61,70],[157,26]],[[0,886],[190,-261]],[[193,624],[76,-39],[47,31],[66,3]],[[1099,970],[-199,-238],[-172,-105],[-114,44],[-72,-1]],[[1771,606],[1,-1]],[[1775,605],[290,8],[73,42]],[[2172,661],[33,12]],[[1722,685],[-89,144],[-74,40],[-17,-20],[-331,57],[-112,64]],[[1722,685],[3,-7]],[[1726,680],[-4,5]],[[1727,674],[4,-4]],[[1731,670],[-3,6]],[[1771,607],[-40,63]],[[2209,823],[76,-144]],[[2287,679],[-77,144]],[[2286,676],[2,1]],[[4096,2558],[-95,-183],[-126,-169],[-83,-195],[-84,-117],[-46,-116],[-253,-333],[-67,-52],[0,20],[-66,-35],[-71,-53],[-58,-63],[-23,-62],[-10,-45],[-234,-350],[-26,-30],[-139,-91],[-79,-39],[-51,-93],[-62,-190],[-38,-5],[-28,-9],[-71,-6],[-26,-9],[-25,-13],[-50,-38],[44,72],[40,47],[9,53],[-55,91],[-25,31],[-36,35],[-41,11],[-35,-38],[6,-20],[43,-73],[10,-38],[0,-80],[-9,-29],[-21,-15],[-20,-8],[-129,-131],[-14,-10],[-30,49],[-26,62],[0,31],[-91,141],[9,41],[-41,49],[-65,25],[-62,-33],[33,-49],[83,-54],[43,-40],[18,-35],[68,-230],[15,-18],[38,-14],[10,14],[1,25],[11,17],[98,16],[41,14],[20,30],[-35,-71],[-150,-145],[-1,-5],[-2039,0],[0,4096],[4096,0],[0,-1538]],[[1885,1643],[34,22],[-30,7],[21,79],[171,59],[44,-13],[-59,-118],[12,-37],[39,15],[22,-58],[63,21],[49,61],[96,-62],[-292,-91],[41,63],[-76,8],[14,60],[-149,-16]],[[275,1696],[93,56],[-7,46],[51,8],[72,-120],[-10,-52],[36,-20],[-102,-47],[-80,20],[7,27],[-15,27],[-20,-10],[-25,65]],[[2757,731],[24,40],[47,12],[12,50],[169,170],[0,56],[13,-20],[32,8],[27,45],[-7,37],[19,65],[-81,122],[63,-63],[28,1],[-11,-30],[25,13],[-37,-115],[20,-13],[38,143],[72,80],[52,10],[22,47],[61,16],[-72,15],[-7,-33],[-94,59],[4,29],[-45,29],[60,-5],[9,-29],[19,30],[28,-34],[38,12],[-9,-19],[33,-35],[34,-2],[179,173],[63,165],[-28,-93],[66,98],[44,23],[23,110],[13,13],[-112,19],[90,23],[-2,-29],[33,-6],[-17,-30],[24,15],[6,62],[38,22],[80,137],[62,176],[102,112],[89,195],[0,-1678],[-77,-98],[-142,-132],[-110,-159],[-432,-479],[-578,670]],[[2445,581],[27,-49],[47,1],[50,97],[46,-23],[-92,-245],[-163,-29],[-75,-51],[84,119],[9,53],[-80,122],[-74,45],[-75,205],[67,15],[157,-69],[99,-11],[-27,-180]],[[2149,924],[-23,19],[-10,113],[97,0],[8,-57],[-72,-75]],[[240,2793],[64,0],[0,-66],[33,0],[-28,-53],[-167,-45],[0,196],[65,0],[33,-32]],[[2828,3219],[-60,27],[-13,83],[41,152],[56,-50],[30,-78],[-5,-79],[-49,-55]]]}