{"objects":{"water":{"type":"GeometryCollection","geometries":[{"type":"Polygon","properties":{"source":"naturalearthdata.com","kind":"ocean","area":1576712559132672,"sort_rank":200,"min_zoom":0.0,"id":1},"arcs":[[28]]},{"type":"LineString","properties":{"source":"naturalearthdata.com","kind":"ocean","sort_rank":205,"boundary":true,"min_zoom":0.0,"id":75},"arcs":[29]}]},"buildings":{"type":"GeometryCollection","geometries":[]},"places":{"type":"GeometryCollection","geometries":[{"type":"Point","properties":{"source":"openstreetmap.org","kind":"locality","name":"Coruripe","kind_detail":"town","population":52584,"min_zoom":8.0,"id":415521995},"coordinates":[1126,3120]},{"type":"Point","properties":{"source":"openstreetmap.org","kind":"locality","name":"Teot\u00f4nio Vilela","kind_detail":"town","population":41498,"min_zoom":8.0,"id":415522018},"coordinates":[598,3768]},{"type":"Point","properties":{"source":"openstreetmap.org","kind":"locality","name":"S\u00e3o Sebasti\u00e3o","kind_detail":"town","population":31922,"min_zoom":8.0,"id":415522011},"coordinates":[54,3694]},{"type":"Point","properties":{"source":"openstreetmap.org","kind":"locality","name":"Junqueiro","kind_detail":"town","population":25175,"min_zoom":8.0,"id":415522016},"coordinates":[256,3727]},{"type":"Point","properties":{"source":"openstreetmap.org","kind":"locality","name":"Pia\u00e7abu\u00e7u","kind_detail":"town","population":17980,"min_zoom":8.0,"id":415522007},"coordinates":[375,2286]},{"type":"Point","properties":{"source":"openstreetmap.org","kind":"locality","name":"Jequi\u00e1 da Praia","kind_detail":"town","population":11887,"min_zoom":8.0,"id":416654915},"coordinates":[1571,3463]}]},"transit":{"type":"GeometryCollection","geometries":[{"type":"MultiLineString","properties":{"kind":"train","name":"Rodovia Governador M\u00e1rio Covas","sort_rank":275,"source":"openstreetmap.org","min_zoom":6.0,"ref":"BR-101","osm_relation":true,"network":"BR"},"arcs":[[6],[7],[8],[9],[10],[11],[12],[13],[14],[15],[16],[17],[18],[19],[20],[21],[22],[23],[24],[25],[26],[27]]}]},"pois":{"type":"GeometryCollection","geometries":[{"type":"Point","properties":{"kind":"nature_reserve","tier":2,"protect_class":"6","area":106007000,"source":"openstreetmap.org","min_zoom":8.93,"operator":"Instituto Chico Mendes de Conserva\u00e7\u00e3o da Biodiversidade","id":-4722291,"osm_relation":true,"name":"Reserva Extrativista Marinha da Lagoa do Jequi\u00e1"},"coordinates":[1723,3486]}]},"boundaries":{"type":"GeometryCollection","geometries":[{"type":"LineString","properties":{"name:kg":"Brazil","name:ty":"Brazil","name:ka":"\u10d1\u10e0\u10d0\u10d6\u10d8\u10da\u10d8\u10d0","name:ko":"\ube0c\ub77c\uc9c8","name:cv":"\u0411\u0440\u0430\u0437\u0438\u043b\u0438","name:cu":"\u0411\u0440\u0430\ua641\u0457\u043b\u0457\ua657","name:kl":"Brazil","name:cs":"Braz\u00edlie","name:ki":"Brazil","name:co":"Brasile","name:kv":"\u0411\u0440\u0430\u0437\u0438\u043b\u0438\u044f","name:ku":"Braz\u00eel","name:ce":"\u0411\u0440\u0430\u0437\u0438\u043b\u0438\u044f","name:ta":"\u0baa\u0bbf\u0bb0\u0bc7\u0b9a\u0bbf\u0bb2\u0bcd","name:tg":"\u0411\u0440\u0430\u0437\u0438\u043b\u0438\u044f","name:ky":"\u0411\u0440\u0430\u0437\u0438\u043b\u0438\u044f","name:te":"\u0c2c\u0c4d\u0c30\u0c46\u0c1c\u0c3f\u0c32\u0c4d","name:da":"Brasilien","name:de":"Brasilien","name:dz":"\u0f56\u0f71\u0f62\u0f71\u0f0b\u0f5b\u0f72\u0f63\u0f0b","source":"openstreetmap.org","name:kn":"\u0cac\u0ccd\u0cb0\u0cc6\u0c9c\u0cbf\u0cb2\u0ccd","name:dv":"\u0784\u07aa\u0783\u07ac\u0792\u07a8\u078d\u07b0","name:km":"\u1794\u17d2\u179a\u17c1\u179f\u17ca\u17b8\u179b","name:lv":"Braz\u012blija","name:lt":"Brazilija","name:uz":"Braziliya","name:kk":"\u0411\u0440\u0430\u0437\u0438\u043b\u0438\u044f","name:ur":"\u0628\u0631\u0627\u0632\u06cc\u0644","name:lb":"Brasilien","name:la":"Brasilia","name:tt":"\u0411\u0440\u0430\u0437\u0438\u043b\u0438\u044f","name:uk":"\u0411\u0440\u0430\u0437\u0438\u043b\u0456\u044f","name:ug":"\u0628\u0631\u0627\u0632\u0649\u0644\u0649\u064a\u06d5","name:li":"Braziel","name:ln":"Brazil","name:el":"\u0392\u03c1\u03b1\u03b6\u03b9\u03bb\u03af\u03b1","name:eo":"Brazilo","name:en":"Brazil","name":"Brasil","name:tk":"Brazili\u00fda","name:ee":"Brazil","name:th":"\u0e1b\u0e23\u0e30\u0e40\u0e17\u0e28\u0e1a\u0e23\u0e32\u0e0b\u0e34\u0e25","name:et":"Brasiilia","name:ay":"Wrasil","name:rm":"Brasilia","name:rn":"Brazil","name:az":"Braziliya","name:ig":"Brazil","name:as":"\u09ac\u09cd\u09f0\u09be\u099c\u09bf\u09b2","name:zh-min-nan":"Pa-se","name:io":"Brazilia","name:is":"Brasil\u00eda","name:am":"\u1265\u122b\u12da\u120d","name:it":"Brasile","name:ru":"\u0411\u0440\u0430\u0437\u0438\u043b\u0438\u044f","name:rw":"Burezile","name:af":"Brasili\u00eb","name:zu":"IBrazili","kind_detail":"2","name:za":"Bahsih","name:zh-yue":"\u5df4\u897f","name:zh":"\u5df4\u897f","name:so":"Barasiil","name:sl":"Brazilija","name:sk":"Braz\u00edlia","name:ja":"\u30d6\u30e9\u30b8\u30eb","name:sh":"Brazil","name:se":"Brasilia","name:sc":"Brasile","name:br":"Brazil","name:bs":"Brazil","name:bm":"Brazil","name:bn":"\u09ac\u09cd\u09b0\u09be\u099c\u09bf\u09b2","name:bo":"\u0f54\u0f74\u0f0b\u0f62\u0f74\u0f0b\u0f5f\u0f72\u0f63\u0f0d","name:bi":"Brazil","name:sw":"Brazil","name:be":"\u0411\u0440\u0430\u0437\u0456\u043b\u0456\u044f","name:bg":"\u0411\u0440\u0430\u0437\u0438\u043b\u0438\u044f","name:ba":"\u0411\u0440\u0430\u0437\u0438\u043b\u0438\u044f","name:sq":"Brazili","name:sa":"\u092c\u094d\u0930\u093e\u0938\u0940\u0932","name:ps":"\u0628\u0631\u0627\u0632\u06cc\u0644","min_zoom":8.0,"name:ro":"Brazilia","name:pa":"\u0a2c\u0a4d\u0a30\u0a3e\u0a1c\u0a3c\u0a40\u0a32","name:os":"\u0411\u0440\u0430\u0437\u0438\u043b\u0438","name:or":"\u0b2c\u0b4d\u0b30\u0b3e\u0b1c\u0b3f\u0b32","name:pl":"Brazylia","name:st":"Brazil","sort_rank":262,"name:sr":"\u0411\u0440\u0430\u0437\u0438\u043b","osm_relation":true,"name:ar":"\u0627\u0644\u0628\u0631\u0627\u0632\u064a\u0644","name:tr":"Brezilya","name:hi":"\u092c\u094d\u0930\u093e\u091c\u093c\u0940\u0932","name:sv":"Brasilien","name:he":"\u05d1\u05e8\u05d6\u05d9\u05dc","name:hy":"\u0532\u0580\u0561\u0566\u056b\u056c\u056b\u0561","name:ht":"Brezil","name:hu":"Braz\u00edlia","name:hr":"Brazil","kind":"country","name:yi":"\u05d1\u05e8\u05d0\u05d6\u05d9\u05dc","name:mt":"Bra\u017cil","name:ms":"Brazil","name:mr":"\u092c\u094d\u0930\u093e\u091d\u0940\u0932","name:my":"\u1018\u101b\u102c\u1007\u102e\u1038\u1014\u102d\u102f\u1004\u103a\u1004\u1036","official_name":"Rep\u00fablica Federativa do Brasil","name:mg":"Brazila","name:ml":"\u0d2c\u0d4d\u0d30\u0d38\u0d40\u0d7d","name:mn":"\u0411\u0440\u0430\u0437\u0438\u043b","name:mi":"Par\u012bhi","id":-59470,"name:mk":"\u0411\u0440\u0430\u0437\u0438\u043b","name:vo":"Brasil\u00e4n","name:fa":"\u0628\u0631\u0632\u06cc\u0644","name:fi":"Brasilia","old_name:vi":"Ba T\u00e2y","alt_name:vi":"Brazil;Bra-xin","name:fr":"Br\u00e9sil","name:fy":"Brazylje","name:nl":"Brazili\u00eb","name:na":"Bradir","name:ne":"\u092c\u094d\u0930\u093e\u091c\u093f\u0932","name:wa":"Braezi","name:wo":"Breesil","name:nv":"Bwaz\u00ed\u00edl","name:ga":"An Bhrasa\u00edl","name:gd":"Braisil","name:gn":"Pindorama","maritime_boundary":true,"name:gv":"Yn Vrasseel","name:gu":"\u0aac\u0acd\u0ab0\u0abe\u0a9d\u0abf\u0ab2"},"arcs":[0]},{"type":"MultiLineString","properties":{"name:left:uz":"Serjipi","name:right:ja":"\u30a2\u30e9\u30b4\u30a2\u30b9","name:left:hi":"\u0938\u0930\u094d\u091c\u093f\u092a\u0947","name:left:la":"Seregipe","name:right:uk":"\u0410\u043b\u0430\u0433\u043e\u0430\u0441","name:left:he":"\u05e1\u05e8\u05d6'\u05d9\u05e4\u05d4","name:left:ja":"\u30bb\u30eb\u30b8\u30c3\u30da","id:right":-303781,"name:right:lt":"Alagoasas","name:right:hi":"\u0905\u0932\u093e\u0917\u094b\u0906\u0938","name:right:lv":"Alagoasa","name:left:lt":"Ser\u017eip\u0117","name:left:sh":"Ser\u017eipi","name:left:lv":"Ser\u017eipi","name:left:be":"\u0421\u0435\u0440\u0436\u044b\u043f\u0456","name:right:he":"\u05d0\u05dc\u05d2\u05d5\u05d0\u05e1","name:right:la":"Alacunae","short_name:left":"SE","name:left:eo":"Ser\u011dipo","sort_rank":256,"kind_detail":"4","id":-303940,"source":"openstreetmap.org","name:right:hy":"\u0531\u056c\u0561\u0563\u0578\u0561\u057d","name:right:ar":"\u0623\u0644\u0627\u063a\u0648\u0627\u0633","id:left":-303940,"name:right":"Alagoas","name:left:os":"\u0421\u0435\u0440\u0436\u0438\u043f\u0438","name:left":"Sergipe","name:right:mk":"\u0410\u043b\u0430\u0433\u043e\u0458\u0430\u0441","name:left:sr":"\u0421\u0435\u0440\u0436\u0438\u043f\u0435","name:right:sr":"\u0410\u043b\u0430\u0433\u043e\u0430\u0441","name:left:ka":"\u10e1\u10d4\u10e0\u10df\u10d8\u10de\u10d8","name:left:ar":"\u0633\u064a\u0631\u062c\u064a\u0628\u064a","name:left:mk":"\u0421\u0435\u0440\u0433\u0438\u043f\u0435","name:left:ko":"\uc138\ub974\uc9c0\ud53c","name:right:ko":"\uc54c\ub77c\uace0\uc544\uc2a4","name:right:ru":"\u0410\u043b\u0430\u0433\u043e\u0430\u0441","name:left:th":"\u0e40\u0e0b\u0e23\u0e4c\u0e0a\u0e34\u0e40\u0e1b","name:left:mr":"\u0938\u0930\u094d\u091c\u093f\u092a\u0947","name:right:th":"\u0e2d\u0e32\u0e25\u0e32\u0e42\u0e01\u0e2d\u0e31\u0e2a","name:left:ru":"\u0421\u0435\u0440\u0436\u0438\u043f\u0438","short_name:right":"AL","name:right:mr":"\u0906\u0932\u093e\u0917\u094b\u0906\u0938","min_zoom":8.0,"name:right:tg":"\u0410\u043b\u0430\u0433\u043e\u0430\u0441","name:right:eo":"Alagoaso","name:right:os":"\u0410\u043b\u0430\u0433\u043e\u0430\u0441","name:left:tg":"\u0421\u0435\u0440\u0436\u0438\u043f\u0438","name:left:uk":"\u0421\u0435\u0440\u0436\u0438\u043f\u0456","kind":"region","name:right:ka":"\u10d0\u10da\u10d0\u10d2\u10dd\u10d0\u10e1\u10d8","name":"Sergipe - Alagoas","name:left:fa":"\u0633\u0631\u0698\u06cc\u067e\u0647","name:right:fa":"\u0622\u0644\u0627\u06af\u0648\u0627\u0633","name:right:bg":"\u0410\u043b\u0430\u0433\u043e\u0430\u0441","osm_relation":true,"name:right:be":"\u0410\u043b\u0430\u0433\u043e\u0430\u0441","name:left:zh":"\u585e\u5c14\u5e0c\u57f9","name:left:bg":"\u0421\u0435\u0440\u0436\u0438\u043f\u0438","name:right:zh":"\u963f\u62c9\u6208\u65af","name:left:hy":"\u054d\u0565\u0580\u056a\u056b\u057a\u056b"},"arcs":[[1],[2]]},{"type":"LineString","properties":{"name:left:uz":"Serjipi","name:right:ja":"\u30a2\u30e9\u30b4\u30a2\u30b9","name:left:hi":"\u0938\u0930\u094d\u091c\u093f\u092a\u0947","name:left:la":"Seregipe","name:right:uk":"\u0410\u043b\u0430\u0433\u043e\u0430\u0441","name:left:he":"\u05e1\u05e8\u05d6'\u05d9\u05e4\u05d4","name:left:ja":"\u30bb\u30eb\u30b8\u30c3\u30da","id:right":-303781,"name:right:lt":"Alagoasas","name:right:hi":"\u0905\u0932\u093e\u0917\u094b\u0906\u0938","name:right:lv":"Alagoasa","name:left:lt":"Ser\u017eip\u0117","name:left:sh":"Ser\u017eipi","name:left:lv":"Ser\u017eipi","name:left:be":"\u0421\u0435\u0440\u0436\u044b\u043f\u0456","name:right:he":"\u05d0\u05dc\u05d2\u05d5\u05d0\u05e1","name:right:la":"Alacunae","short_name:left":"SE","name:right:tg":"\u0410\u043b\u0430\u0433\u043e\u0430\u0441","name:left:eo":"Ser\u011dipo","sort_rank":256,"kind_detail":"4","name:left:zh":"\u585e\u5c14\u5e0c\u57f9","id":-303940,"source":"openstreetmap.org","name:right:hy":"\u0531\u056c\u0561\u0563\u0578\u0561\u057d","name:right:ar":"\u0623\u0644\u0627\u063a\u0648\u0627\u0633","id:left":-303940,"name:right":"Alagoas","name:left:ko":"\uc138\ub974\uc9c0\ud53c","name:left:hy":"\u054d\u0565\u0580\u056a\u056b\u057a\u056b","name:left":"Sergipe","name:right:mk":"\u0410\u043b\u0430\u0433\u043e\u0458\u0430\u0441","name:right:sr":"\u0410\u043b\u0430\u0433\u043e\u0430\u0441","name:left:ka":"\u10e1\u10d4\u10e0\u10df\u10d8\u10de\u10d8","name:left:ar":"\u0633\u064a\u0631\u062c\u064a\u0628\u064a","name:left:mk":"\u0421\u0435\u0440\u0433\u0438\u043f\u0435","name:left:os":"\u0421\u0435\u0440\u0436\u0438\u043f\u0438","name:right:ko":"\uc54c\ub77c\uace0\uc544\uc2a4","name:right:ru":"\u0410\u043b\u0430\u0433\u043e\u0430\u0441","name:left:th":"\u0e40\u0e0b\u0e23\u0e4c\u0e0a\u0e34\u0e40\u0e1b","name:left:mr":"\u0938\u0930\u094d\u091c\u093f\u092a\u0947","name:right:th":"\u0e2d\u0e32\u0e25\u0e32\u0e42\u0e01\u0e2d\u0e31\u0e2a","name:left:ru":"\u0421\u0435\u0440\u0436\u0438\u043f\u0438","short_name:right":"AL","name:right:mr":"\u0906\u0932\u093e\u0917\u094b\u0906\u0938","name:right:bg":"\u0410\u043b\u0430\u0433\u043e\u0430\u0441","name:left:sr":"\u0421\u0435\u0440\u0436\u0438\u043f\u0435","name:right:eo":"Alagoaso","name:right:os":"\u0410\u043b\u0430\u0433\u043e\u0430\u0441","name:left:tg":"\u0421\u0435\u0440\u0436\u0438\u043f\u0438","name:left:uk":"\u0421\u0435\u0440\u0436\u0438\u043f\u0456","kind":"region","name:right:ka":"\u10d0\u10da\u10d0\u10d2\u10dd\u10d0\u10e1\u10d8","name":"Sergipe - Alagoas","name:left:fa":"\u0633\u0631\u0698\u06cc\u067e\u0647","name:right:fa":"\u0622\u0644\u0627\u06af\u0648\u0627\u0633","min_zoom":8.0,"osm_relation":true,"name:right:be":"\u0410\u043b\u0430\u0433\u043e\u0430\u0441","maritime_boundary":true,"name:right:zh":"\u963f\u62c9\u6208\u65af","name:left:bg":"\u0421\u0435\u0440\u0436\u0438\u043f\u0438"},"arcs":[3]},{"type":"LineString","properties":{"name:ka":"\u10e1\u10d4\u10e0\u10df\u10d8\u10de\u10d8","name:mr":"\u0938\u0930\u094d\u091c\u093f\u092a\u0947","name:ko":"\uc138\ub974\uc9c0\ud53c","name:ar":"\u0633\u064a\u0631\u062c\u064a\u0628\u064a","name:th":"\u0e40\u0e0b\u0e23\u0e4c\u0e0a\u0e34\u0e40\u0e1b","name:os":"\u0421\u0435\u0440\u0436\u0438\u043f\u0438","name:ru":"\u0421\u0435\u0440\u0436\u0438\u043f\u0438","name:uz":"Serjipi","name:tg":"\u0421\u0435\u0440\u0436\u0438\u043f\u0438","name:mk":"\u0421\u0435\u0440\u0433\u0438\u043f\u0435","name:fa":"\u0633\u0631\u0698\u06cc\u067e\u0647","short_name":"SE","sort_rank":256,"kind_detail":"4","name:hi":"\u0938\u0930\u094d\u091c\u093f\u092a\u0947","id":-303940,"source":"openstreetmap.org","name:zh":"\u585e\u5c14\u5e0c\u57f9","name:lv":"Ser\u017eipi","name:ja":"\u30bb\u30eb\u30b8\u30c3\u30da","name:lt":"Ser\u017eip\u0117","name:sh":"Ser\u017eipi","name:he":"\u05e1\u05e8\u05d6'\u05d9\u05e4\u05d4","name:eo":"Ser\u011dipo","name:la":"Seregipe","name:uk":"\u0421\u0435\u0440\u0436\u0438\u043f\u0456","name:hy":"\u054d\u0565\u0580\u056a\u056b\u057a\u056b","name:be":"\u0421\u0435\u0440\u0436\u044b\u043f\u0456","name:bg":"\u0421\u0435\u0440\u0436\u0438\u043f\u0438","name:sr":"\u0421\u0435\u0440\u0436\u0438\u043f\u0435","osm_relation":true,"kind":"region","name":"Sergipe","min_zoom":8.0,"maritime_boundary":true},"arcs":[4]},{"type":"LineString","properties":{"name:ka":"\u10d0\u10da\u10d0\u10d2\u10dd\u10d0\u10e1\u10d8","name:mr":"\u0906\u0932\u093e\u0917\u094b\u0906\u0938","name:ko":"\uc54c\ub77c\uace0\uc544\uc2a4","name:ar":"\u0623\u0644\u0627\u063a\u0648\u0627\u0633","name:th":"\u0e2d\u0e32\u0e25\u0e32\u0e42\u0e01\u0e2d\u0e31\u0e2a","name:os":"\u0410\u043b\u0430\u0433\u043e\u0430\u0441","name:ru":"\u0410\u043b\u0430\u0433\u043e\u0430\u0441","name:tg":"\u0410\u043b\u0430\u0433\u043e\u0430\u0441","name:mk":"\u0410\u043b\u0430\u0433\u043e\u0458\u0430\u0441","name:fa":"\u0622\u0644\u0627\u06af\u0648\u0627\u0633","short_name":"AL","sort_rank":256,"kind_detail":"4","id":-303781,"source":"openstreetmap.org","name:zh":"\u963f\u62c9\u6208\u65af","name:lv":"Alagoasa","name:ja":"\u30a2\u30e9\u30b4\u30a2\u30b9","name:lt":"Alagoasas","name:hi":"\u0905\u0932\u093e\u0917\u094b\u0906\u0938","name:he":"\u05d0\u05dc\u05d2\u05d5\u05d0\u05e1","name:eo":"Alagoaso","name:la":"Alacunae","name:uk":"\u0410\u043b\u0430\u0433\u043e\u0430\u0441","name:hy":"\u0531\u056c\u0561\u0563\u0578\u0561\u057d","name:be":"\u0410\u043b\u0430\u0433\u043e\u0430\u0441","name:bg":"\u0410\u043b\u0430\u0433\u043e\u0430\u0441","name:sr":"\u0410\u043b\u0430\u0433\u043e\u0430\u0441","osm_relation":true,"kind":"region","name":"Alagoas","min_zoom":8.0,"maritime_boundary":true},"arcs":[5]}]},"roads":{"type":"GeometryCollection","geometries":[{"type":"MultiLineString","properties":{"source":"openstreetmap.org","kind":"major_road","sort_rank":381,"kind_detail":"trunk","ref":"BR-101","min_zoom":8.0},"arcs":[[30],[31]]},{"type":"MultiLineString","properties":{"source":"openstreetmap.org","kind":"major_road","sort_rank":380,"kind_detail":"primary","ref":"AL-229","min_zoom":8.0},"arcs":[[32],[33],[34]]},{"type":"MultiLineString","properties":{"source":"openstreetmap.org","kind":"major_road","sort_rank":380,"kind_detail":"primary","ref":"AL-225","min_zoom":8.0},"arcs":[[35],[36],[37],[38]]},{"type":"LineString","properties":{"source":"openstreetmap.org","kind":"major_road","sort_rank":380,"kind_detail":"primary","ref":"AL-450","min_zoom":8.0},"arcs":[39]},{"type":"MultiLineString","properties":{"source":"openstreetmap.org","kind":"major_road","sort_rank":380,"kind_detail":"primary","ref":"AL-101","min_zoom":8.0},"arcs":[[40],[41],[42],[43],[44],[45],[46],[47],[48],[49]]},{"type":"LineString","properties":{"source":"openstreetmap.org","kind":"highway","sort_rank":383,"kind_detail":"motorway","ref":"BR-101;AL-110","min_zoom":8.0},"arcs":[50]},{"type":"MultiLineString","properties":{"source":"openstreetmap.org","kind":"major_road","sort_rank":380,"kind_detail":"primary","ref":"AL-110","min_zoom":8.0},"arcs":[[51],[52]]},{"type":"MultiLineString","properties":{"source":"openstreetmap.org","kind":"major_road","sort_rank":380,"kind_detail":"primary","ref":"AL-455","min_zoom":8.0},"arcs":[[53],[54]]},{"type":"LineString","properties":{"source":"openstreetmap.org","kind":"ferry","name":"Brejo Grande - Pia\u00e7abu\u00e7u","sort_rank":355,"min_zoom":8.0,"id":318771598},"arcs":[55]},{"type":"LineString","properties":{"kind":"major_road","network":"SE","sort_rank":380,"kind_detail":"primary","source":"openstreetmap.org","min_zoom":8.0,"shield_text":"204","ref":"SE-204","id":325902657},"arcs":[56]},{"type":"LineString","properties":{"source":"openstreetmap.org","kind":"major_road","sort_rank":380,"kind_detail":"primary","ref":"SE-200","min_zoom":8.0},"arcs":[57]},{"type":"MultiLineString","properties":{"source":"openstreetmap.org","kind":"major_road","sort_rank":380,"kind_detail":"primary","ref":"AL-220","min_zoom":8.0},"arcs":[[58],[59]]},{"type":"MultiLineString","properties":{"sort_rank":380,"kind_detail":"primary","min_zoom":8.0,"kind":"major_road","source":"openstreetmap.org"},"arcs":[[60],[61],[62],[63],[64],[65],[66],[67],[68],[69],[70],[71],[72],[73],[74],[75],[76],[77],[78],[79],[80]]},{"type":"LineString","properties":{"kind":"major_road","network":"SE","sort_rank":380,"kind_detail":"primary","source":"openstreetmap.org","min_zoom":8.0,"shield_text":"120","ref":"SE-120"},"arcs":[81]},{"type":"MultiLineString","properties":{"sort_rank":383,"kind_detail":"motorway","min_zoom":8.0,"kind":"highway","source":"openstreetmap.org"},"arcs":[[82],[83]]},{"type":"MultiLineString","properties":{"source":"openstreetmap.org","kind":"major_road","sort_rank":380,"kind_detail":"primary","ref":"BR-101","min_zoom":8.0},"arcs":[[84],[85]]},{"type":"MultiLineString","properties":{"source":"openstreetmap.org","kind":"highway","sort_rank":383,"kind_detail":"motorway","ref":"BR-101","min_zoom":8.0},"arcs":[[86],[87],[88],[89],[90],[91],[92],[93],[94],[95],[96],[97],[98],[99],[100],[101],[102],[103],[104],[105]]},{"type":"MultiLineString","properties":{"kind":"major_road","sort_rank":380,"landuse_kind":"nature_reserve","source":"openstreetmap.org","min_zoom":8.0,"kind_detail":"primary","ref":"AL-101","id":169371003},"arcs":[[106],[107]]},{"type":"MultiLineString","properties":{"source":"openstreetmap.org","kind":"major_road","sort_rank":380,"kind_detail":"primary","ref":"AL-105","min_zoom":8.0},"arcs":[[108],[109]]},{"type":"LineString","properties":{"source":"openstreetmap.org","kind":"major_road","landuse_kind":"nature_reserve","sort_rank":380,"kind_detail":"primary","min_zoom":8.0,"id":169366359},"arcs":[110]}]},"earth":{"type":"GeometryCollection","geometries":[{"type":"Polygon","properties":{"sort_rank":10,"source":"naturalearthdata.com","kind":"earth","min_zoom":0.0,"id":4469},"arcs":[[111]]}]},"landuse":{"type":"GeometryCollection","geometries":[{"type":"Polygon","properties":{"kind":"nature_reserve","protect_class":"1","area":57750000,"sort_rank":23,"operator":"Instituto Chico Mendes de Conserva\u00e7\u00e3o da Biodiversidade","source":"openstreetmap.org","min_zoom":8.0,"tier":2,"id":-5242502,"osm_relation":true},"arcs":[[112]]},{"type":"Polygon","properties":{"kind":"nature_reserve","protect_class":"6","area":106007000,"sort_rank":23,"operator":"Instituto Chico Mendes de Conserva\u00e7\u00e3o da Biodiversidade","source":"openstreetmap.org","min_zoom":7.0,"tier":2,"id":-4722291,"osm_relation":true},"arcs":[[113]]}]}},"type":"Topology","transform":{"translate":[-36.5625,-11.1784018737],"scale":[0.0003433228,0.0003375792]},"arcs":[[[0,1167],[189,127],[394,110],[145,78],[221,168],[66,73],[79,156],[163,167],[126,245],[76,90],[284,183],[81,103],[231,451],[409,477],[58,191],[97,94],[157,63],[148,103],[35,50]],[[512,1965],[-77,111],[-45,133],[-67,56],[-39,13],[-107,-64],[-162,26],[-15,199]],[[0,2464],[20,41],[-20,34]],[[817,1545],[-305,420]],[[0,1167],[189,127],[394,110],[234,141]],[[817,1545],[198,178],[79,156],[163,167],[126,245],[76,90],[284,183],[81,103],[231,451],[409,477],[58,191],[97,94],[157,63],[148,103],[35,50]],[[50,3616],[10,16]],[[60,3632]],[[60,3632],[-2,2]],[[264,3707],[-17,-18]],[[261,3741],[11,-50],[-9,-7],[-16,5]],[[247,3689],[-6,1],[-3,0],[-23,-18],[-43,18],[-53,-3],[-36,-17],[-23,-38]],[[60,3632],[-47,-67],[-13,-30]],[[0,3535],[8,11],[6,19],[12,10],[24,41]],[[60,3632],[59,55],[97,-16],[35,16]],[[721,3772],[-2,-1]],[[719,3771],[-95,-9],[-109,62],[-6,2],[-6,0],[-35,-5],[-3,-1],[-55,-31],[-108,7],[-3,-1],[-2,-1],[-22,-23],[-14,-30]],[[261,3741],[-3,-7],[7,-22]],[[265,3748],[36,47],[111,-7],[94,38],[119,-64],[57,-7],[39,17]],[[784,3789],[-21,-2]],[[763,3787],[-44,-16]],[[763,3786],[-42,-14]],[[763,3786],[235,-13],[5,1],[19,9],[57,28],[39,7],[65,-2],[28,-13],[24,0],[3,2],[6,8],[1,2],[1,3],[-2,4],[-8,6],[4,14],[0,7],[-21,71]],[[1219,3920],[75,129]],[[1309,4096],[-15,-47]],[[1219,3920],[16,-117],[-50,13],[-67,2],[-38,-6],[-82,-38],[-214,15]],[[784,3789],[-11,1],[-5,-1],[-5,-2]],[[763,3787],[0,-1]],[[0,1868],[70,12],[53,30],[44,17],[56,13],[82,9],[108,35],[37,19],[338,445],[9,24],[-1,15],[-5,19],[-3,36],[9,69],[24,50],[86,94],[320,263],[148,196],[117,44],[41,43],[99,203],[30,44],[34,18],[20,26],[70,156],[132,104],[62,66],[59,178],[2057,0],[0,-4096],[-4096,0],[0,1868]],[[2039,4096],[-59,-178],[-62,-66],[-132,-104],[-70,-156],[-20,-26],[-34,-18],[-30,-44],[-99,-203],[-41,-43],[-117,-44],[-148,-196],[-320,-263],[-86,-94],[-24,-50],[-9,-69],[3,-36],[5,-19],[1,-15],[-9,-24],[-338,-445],[-37,-19],[-108,-35],[-82,-9],[-56,-13],[-44,-17],[-53,-30],[-70,-12]],[[763,3786],[-42,-14]],[[1322,4096],[-105,-181],[21,-108],[-119,12],[-129,-44],[-217,15]],[[0,2756],[12,-93]],[[23,3009],[-23,-99]],[[12,2659],[2,-10]],[[0,3032],[23,-23]],[[16,2647],[91,-32]],[[109,2612],[10,-80],[61,-12],[47,-53]],[[228,2466],[-7,-110],[158,-42],[2,-21]],[[1046,4096],[8,-25]],[[227,2467],[1,-1]],[[761,2621],[-48,-149],[-202,-145],[-114,-43]],[[764,2626],[359,353],[24,37],[-48,36]],[[1099,3055],[26,19],[-11,60],[52,-1],[29,-29],[116,29],[49,67],[-6,74],[115,34]],[[1471,3310],[71,56],[9,39]],[[1553,3411],[6,27]],[[1563,3446],[38,1],[25,89],[63,35],[60,167],[120,134],[-10,94]],[[1848,4006],[0,-32]],[[2039,4096],[-51,-68],[-41,-33],[-9,-10],[-86,27]],[[1852,4009],[79,-24],[7,0],[4,3],[5,7],[2,1],[39,31],[51,69]],[[97,3678],[-40,-49]],[[57,3635],[-8,168],[-49,67]],[[23,3009],[50,69],[-26,80],[120,252],[-45,175],[-59,45]],[[821,3136],[12,-12]],[[835,3121],[261,-70]],[[276,2228],[21,60],[68,1]],[[0,2048],[190,136]],[[190,2184],[75,33]],[[1299,4059],[-217,21],[-121,-64],[-211,80]],[[1603,4096],[5,-7],[238,-73]],[[50,3616],[8,18]],[[57,3635],[6,-5]],[[378,2285],[-3,0]],[[378,2285],[9,-2],[10,1]],[[382,2284],[-4,1]],[[381,2293],[1,-9]],[[386,2284],[-4,0]],[[1032,4065],[-6,-5]],[[1299,4060],[-1,0]],[[1299,4058],[0,-1],[1,1]],[[1301,4060],[0,1],[-1,-1]],[[1469,3308],[2,2]],[[1562,3447],[1,-1]],[[1848,3974],[11,-8]],[[1944,3994],[-15,-6]],[[1931,3985],[15,9]],[[1939,3986]],[[1988,4028],[1,0]],[[1998,4035],[-1,1]],[[1301,4059],[0,1],[-2,-1],[0,-1],[2,1]],[[1848,4012],[2,-3],[3,1],[-3,3],[-2,-1]],[[0,2244],[133,-88]],[[251,3687],[22,6],[-8,55]],[[573,3790],[8,-4]],[[261,3741],[-14,-52]],[[773,3790],[-10,-4]],[[0,3535],[94,140],[5,2],[1,1]],[[100,3678],[18,9],[50,3],[7,-1],[5,-2]],[[180,3687],[27,-12]],[[207,3675],[2,0]],[[209,3675],[7,-4],[9,7]],[[225,3678],[7,5],[19,4]],[[57,3629],[-57,-94]],[[581,3786],[20,-12],[30,-13],[35,-4],[16,-2],[39,17],[-89,-11],[-71,36],[-82,25],[-13,-2],[-37,-23]],[[429,3797],[-4,-2],[-55,-2]],[[370,3793],[-14,-1],[-58,3],[-17,-26]],[[281,3769],[-20,-28],[9,-53],[-45,-10]],[[225,3678],[-16,-3]],[[209,3675],[-2,0]],[[207,3675],[-24,12],[-3,0]],[[180,3687],[-80,-9]],[[100,3678],[-3,0]],[[265,3748],[16,21]],[[281,3769],[18,25],[58,-2],[13,1]],[[370,3793],[59,4]],[[429,3797],[3,1],[46,24],[95,-32]],[[1551,3405],[2,6]],[[1559,3438],[2,9]],[[817,3173],[4,-37],[-200,-125],[-44,39],[-93,-72],[-153,-50],[-33,20],[-285,-286]],[[832,3787],[-32,-256],[-51,-123],[49,-106],[19,-125]],[[1561,3447],[1,0]],[[2039,4096],[-59,-178],[-62,-66],[-132,-104],[-70,-156],[-20,-26],[-34,-18],[-30,-44],[-99,-203],[-41,-43],[-117,-44],[-148,-196],[-320,-263],[-86,-94],[-24,-50],[-9,-69],[3,-36],[5,-19],[1,-15],[-9,-24],[-338,-445],[-37,-19],[-108,-35],[-82,-9],[-56,-13],[-44,-17],[-53,-30],[-70,-12],[0,2228],[2039,0]],[[0,1830],[118,43],[42,17],[-160,-72],[0,12]],[[1333,3672],[124,-47],[-34,61],[59,-58],[9,31],[19,-2],[-5,-33],[51,5],[-33,48],[-19,62],[23,-3],[8,-60],[41,-29],[4,20],[-10,-141],[17,-2],[-6,-46],[-13,-6],[-7,-31],[-5,-9],[-9,-4],[10,-30],[-7,-14],[10,-18],[-14,-25],[203,323],[123,-84],[-224,-346],[-112,93],[21,40],[-10,14],[5,29],[-9,4],[5,16],[8,3],[11,44],[-22,19],[-11,100],[-88,7],[-113,69]]]}