{"objects":{"water":{"type":"GeometryCollection","geometries":[{"type":"MultiPolygon","properties":{"source":"naturalearthdata.com","kind":"ocean","area":1576712559132672,"sort_rank":200,"min_zoom":0.0,"id":1},"arcs":[[[2]]]},{"type":"MultiLineString","properties":{"source":"naturalearthdata.com","kind":"ocean","sort_rank":205,"boundary":true,"min_zoom":0.0,"id":2799},"arcs":[[3],[4],[5],[6]]}]},"buildings":{"type":"GeometryCollection","geometries":[]},"places":{"type":"GeometryCollection","geometries":[{"type":"Point","properties":{"name:pt":"Ilhas Ge\u00f3rgia do Sul e Sandwich do Sul","name:cy":"Ynysoedd De Georgia a De Sandwich","alt_name:el":"\u039d\u03ae\u03c3\u03bf\u03b9 \u039d\u03cc\u03c4\u03b9\u03b1 \u0393\u03b5\u03c9\u03c1\u03b3\u03af\u03b1 \u03ba\u03b1\u03b9 \u039d\u03cc\u03c4\u03b9\u03b5\u03c2 \u03a3\u03ac\u03bd\u03c4\u03bf\u03c5\u03b9\u03c4\u03c2;\u039d\u03b7\u03c3\u03b9\u03ac \u039d\u03cc\u03c4\u03b9\u03b1 \u0393\u03b5\u03c9\u03c1\u03b3\u03af\u03b1 \u03ba\u03b1\u03b9 \u039d\u03cc\u03c4\u03b9\u03b5\u03c2 \u03a3\u03ac\u03bd\u03c4\u03bf\u03c5\u03b9\u03c4\u03c2;\u039d\u03b7\u03c3\u03b9\u03ac \u039d\u03cc\u03c4\u03b9\u03b1 \u0393\u03b5\u03c9\u03c1\u03b3\u03af\u03b1 \u03ba\u03b1\u03b9 \u039d\u03cc\u03c4\u03b9\u03bf\u03b9 \u03a3\u03ac\u03bd\u03c4\u03bf\u03c5\u03b9\u03c4\u03c2","name:ko":"\uc0ac\uc6b0\uc2a4\uc870\uc9c0\uc544 \uc0ac\uc6b0\uc2a4\uc0cc\ub4dc\uc704\uce58 \uc81c\ub3c4","name:kn":"\u0ca6\u0c95\u0ccd\u0cb7\u0cbf\u0ca3 \u0c9c\u0cbe\u0cb0\u0ccd\u0c9c\u0cbf\u0caf\u0cbe \u0cae\u0ca4\u0ccd\u0ca4\u0cc1 \u0ca6\u0c95\u0ccd\u0cb7\u0cbf\u0ca3 \u0cb8\u0ccd\u0caf\u0cbe\u0c82\u0ca1\u0ccd\u0cb5\u0cbf\u0c9a\u0ccd \u0ca6\u0ccd\u0cb5\u0cc0\u0caa\u0c97\u0cb3\u0cc1","name:km":"\u1780\u17c4\u17c7\u200b\u17a0\u17d2\u179f\u1780\u17a0\u17d2\u179f\u17ca\u17b8\u200b\u1781\u17b6\u1784\u200b\u178f\u17d2\u1794\u17bc\u1784 \u1793\u17b7\u1784\u200b\u179f\u17b6\u1793\u17cb\u179c\u17b7\u1785\u200b\u1781\u17b6\u1784\u200b\u178f\u17d2\u1794\u17bc\u1784","name:cs":"Ji\u017en\u00ed Georgie a Ji\u017en\u00ed Sandwichovy ostrovy","name:tt":"\u041a\u04e9\u043d\u044c\u044f\u043a \u0413\u0435\u043e\u0440\u0433\u0438\u044f \u04bb\u04d9\u043c \u041a\u04e9\u043d\u044c\u044f\u043a \u0421\u0430\u043d\u0434\u0432\u0438\u0447 \u0443\u0442\u0440\u0430\u0443\u043b\u0430\u0440\u044b","name:kw":"Jeorji Dheghow hag Ynysow Sandwich Deghow","name:tr":"G\u00fcney Georgia ve G\u00fcney Sandwich Adalar\u0131","name:ku":"Georgiaya Ba\u015f\u00fbr \u00fb girav\u00ean Sandwich\u00ea y\u00ean Ba\u015f\u00fbr","name:ti":"\u12f0\u1261\u1265 \u1306\u122d\u1302\u12eb \u12a5\u1293 \u12e8\u12f0\u1261\u12f5 \u1233\u1295\u12f5\u12ca\u127d \u12f0\u1234\u1276\u127d","name:ks":"\u062c\u0646\u0648\u0657\u0628\u06cc \u062c\u0627\u0631\u062c\u0650\u06cc\u0627 \u062a\u06c1\u0655 \u062c\u0646\u0648\u0657\u0628\u06cc \u0633\u06cc\u0646\u065b\u0691\u0648\u0655\u0686 \u062c\u0654\u0632\u06cc\u0656\u0631\u0655","name:to":"\u02bbOtumotu Siosia-tonga mo Saniuisi-tonga","name:sv":"Sydgeorgien och Sydsandwich\u00f6arna","name:os":"\u0425\u0443\u0441\u0441\u0430\u0440 \u0414\u0436\u043e\u0440\u0434\u0436\u0438 \u00e6\u043c\u00e6 \u0425\u0443\u0441\u0441\u0430\u0440 \u0421\u0430\u043d\u0434\u0432\u0438\u0447\u044b \u0441\u0430\u043a\u044a\u0430\u0434\u00e6\u0445\u0442\u00e6","name:or":"\u0b26\u0b15\u0b4d\u0b37\u0b3f\u0b23 \u0b1c\u0b30\u0b4d\u0b1c\u0b3f\u0b06 \u0b0f\u0b2c\u0b02 \u0b26\u0b15\u0b4d\u0b37\u0b3f\u0b23 \u0b38\u0b3e\u0b23\u0b4d\u0b21\u0b71\u0b3f\u0b1a\u0b4d \u0b26\u0b4d\u0b2c\u0b40\u0b2a\u0b2a\u0b41\u0b1e\u0b4d\u0b1c","name:pl":"Georgia Po\u0142udniowa i Sandwich Po\u0142udniowy","name:ta":"\u0ba4\u0bc6\u0bb1\u0bcd\u0b95\u0bc1 \u0baf\u0bcb\u0bb0\u0bcd\u0b9a\u0bbf\u0baf\u0bbe \u0bae\u0bb1\u0bcd\u0bb1\u0bc1\u0bae\u0bcd \u0ba4\u0bc6\u0bb1\u0bcd\u0b95\u0bc1 \u0b9a\u0ba3\u0bcd\u0b9f\u0bcd\u0bb5\u0bbf\u0b9a\u0bcd \u0ba4\u0bc0\u0bb5\u0bc1\u0b95\u0bb3\u0bcd","name:ca":"Illes Ge\u00f2rgia del Sud i Sandwich del Sud","name:te":"\u0c26\u0c15\u0c4d\u0c37\u0c3f\u0c23 \u0c1c\u0c3e\u0c30\u0c4d\u0c1c\u0c3f\u0c2f\u0c3e \u0c2e\u0c30\u0c3f\u0c2f\u0c41 \u0c26\u0c15\u0c4d\u0c37\u0c3f\u0c23 \u0c38\u0c3e\u0c02\u0c21\u0c4d\u0c35\u0c3f\u0c1a\u0c4d \u0c26\u0c40\u0c35\u0c41\u0c32\u0c41","name:vi":"Qu\u1ea7n \u0111\u1ea3o Nam Georgia v\u00e0 Nam Sandwich","name:ro":"Georgia de Sud \u015fi Insulele Sandwich de Sud","name:ka":"\u10e1\u10d0\u10db\u10ee\u10e0\u10d4\u10d7\u10d8 \u10ef\u10dd\u10e0\u10ef\u10d8\u10d0 \u10d3\u10d0 \u10e1\u10d0\u10db\u10ee\u10e0\u10d4\u10d7 \u10e1\u10d4\u10dc\u10d3\u10d5\u10d8\u10e9\u10d8\u10e1 \u10d9\u10e3\u10dc\u10eb\u10e3\u10da\u10d4\u10d1\u10d8","name:da":"Sydgeorgien og Sydsandwich\u00f8erne","name:de":"S\u00fcdgeorgien und die S\u00fcdlichen Sandwichinseln","name:dz":"\u0f66\u0f71\u0f60\u0f74\u0f50\u0f0b\u0f47\u0f7d\u0f62\u0f0b\u0f47\u0f71\u0f0b \u0f51\u0f44\u0f0b \u0f66\u0f71\u0f60\u0f74\u0f50\u0f0b\u0f66\u0f7a\u0f53\u0f4c\u0f84\u0f0b\u0f5d\u0f72\u0f45\u0f0b\u0f42\u0fb3\u0f72\u0f44\u0f0b\u0f5a\u0f7c\u0f58","source":"openstreetmap.org","name:lv":"Dienvidd\u017eord\u017eija un Dienvidsendvi\u010du salas","name:lt":"Piet\u0173 D\u017eord\u017eija ir Piet\u0173 Sandvi\u010do salos","name:hi":"\u0926\u0915\u094d\u0937\u093f\u0923 \u091c\u094b\u0930\u094d\u091c\u093f\u092f\u093e \u0914\u0930 \u0926\u0915\u094d\u0937\u093f\u0923 \u0938\u0948\u0902\u0921\u0935\u093f\u091a \u0926\u094d\u0935\u0940\u092a\u0938\u092e\u0942\u0939","name:he":"\u05d2\u05f3\u05d5\u05e8\u05d2\u05f3\u05d9\u05d4 \u05d4\u05d3\u05e8\u05d5\u05de\u05d9\u05ea \u05d5\u05d0\u05d9\u05d9 \u05e1\u05e0\u05d3\u05d5\u05d5\u05d9\u05e5\u05f3 \u05d4\u05d3\u05e8\u05d5\u05de\u05d9\u05d9\u05dd","kind":"country","name:ur":"\u062c\u0646\u0648\u0628\u06cc \u062c\u0627\u0631\u062c\u06cc\u0627 \u0627\u0648\u0631 \u062c\u0646\u0648\u0628\u06cc \u0633\u06cc\u0646\u0688\u0648\u0686 \u062c\u0632\u0627\u0626\u0631","name:uk":"\u041f\u0456\u0432\u0434\u0435\u043d\u043d\u0430 \u0414\u0436\u043e\u0440\u0434\u0436\u0456\u044f \u0442\u0430 \u041f\u0456\u0432\u0434\u0435\u043d\u043d\u0456 \u0421\u0430\u043d\u0434\u0432\u0456\u0447\u0435\u0432\u0456 \u043e\u0441\u0442\u0440\u043e\u0432\u0438","min_zoom":2.0,"name:hu":"D\u00e9li-Georgia \u00e9s D\u00e9li-Sandwich-szigetek","name:hr":"Ju\u017ena Georgija i oto\u010dje Ju\u017eni Sandwich","name:lo":"\u0ec0\u0e81\u0eb2\u0eb0\u0e88\u0ead\u0e94\u0ec0\u0e88\u0e8d\u0ec3\u0e95\u0ec9\u0ec1\u0ea5\u0eb0\u0eab\u0ea1\u0eb9\u0ec8\u0ec0\u0e81\u0eb2\u0eb0\u0ec1\u0e8a\u0e99\u0ea7\u0eb4\u0e94\u0e95\u0ead\u0e99\u0ec3\u0e95\u0ec9","population":3,"name:el":"\u039d\u03ae\u03c3\u03bf\u03b9 \u039d\u03cc\u03c4\u03b9\u03bf\u03c2 \u0393\u03b5\u03c9\u03c1\u03b3\u03af\u03b1 \u03ba\u03b1\u03b9 \u039d\u03cc\u03c4\u03b9\u03bf\u03b9 \u03a3\u03ac\u03bd\u03c4\u03bf\u03c5\u03b9\u03c4\u03c2","name:eo":"Sud-Georgio kaj Sud-Sandvi\u0109insuloj","name":"South Georgia and South Sandwich Islands","name:ee":"Anyiehe Georgia kple Anyiehe Sandwich \u0192udomekpowo nutome","name:th":"\u0e40\u0e01\u0e32\u0e30\u0e40\u0e0b\u0e32\u0e17\u0e4c\u0e08\u0e2d\u0e23\u0e4c\u0e40\u0e08\u0e35\u0e22\u0e41\u0e25\u0e30\u0e2b\u0e21\u0e39\u0e48\u0e40\u0e01\u0e32\u0e30\u0e40\u0e0b\u0e32\u0e17\u0e4c\u0e41\u0e0b\u0e19\u0e14\u0e4c\u0e27\u0e34\u0e0a","name:eu":"Hegoaldeko Georgiak eta Hegoaldeko Sandwich uharteak","name:et":"L\u00f5una-Georgia ja L\u00f5una-Sandwichi saared","name:nl":"Zuid-Georgi\u00eb en de Zuidelijke Sandwicheilanden","name:es":"Islas Georgias del Sur y Sandwich del Sur","name:rm":"Georgia dal Sid e las Inslas Sandwich dal Sid","name:az":"C\u0259nub G\u00fcrc\u00fcstan v\u0259 C\u0259nub Sandvil\u00e7 Adalar\u0131","name:id":"Georgia Selatan dan Kepulauan Sandwich Selatan","name:ms":"Georgia Selatan dan Kepulauan Sandwich Selatan","name:mr":"\u0938\u093e\u0909\u0925 \u091c\u0949\u0930\u094d\u091c\u093f\u092f\u093e \u0935 \u0938\u093e\u0909\u0925 \u0938\u0901\u0921\u0935\u093f\u091a \u0926\u094d\u0935\u0940\u092a\u0938\u092e\u0942\u0939","name:ar":"\u062c\u0632\u0631 \u062c\u0648\u0631\u062c\u064a\u0627 \u0627\u0644\u062c\u0646\u0648\u0628\u064a\u0629 \u0648\u0633\u0627\u0646\u062f\u0648\u064a\u062a\u0634 \u0627\u0644\u062c\u0646\u0648\u0628\u064a\u0629","name:my":"\u1010\u1031\u102c\u1004\u103a \u1002\u103b\u1031\u102c\u103a\u1002\u103b\u102e\u101a\u102c \u1014\u103e\u1004\u1037\u103a \u1010\u1031\u102c\u1004\u103a \u1006\u1004\u103a\u1038\u1012\u101d\u1005\u103a\u1002\u103b\u103a \u1000\u103b\u103d\u1014\u103a\u1038\u1005\u102f\u1019\u103b\u102c\u1038","name:is":"Su\u00f0ur-Georg\u00eda og Su\u00f0ur-Sandv\u00edkureyjar","name:am":"\u12f0\u1261\u1265 \u1306\u122d\u1302\u12eb \u12a5\u1293 \u12e8\u12f0\u1261\u1265 \u1233\u1295\u12f5\u12ca\u127d \u12f0\u1234\u1276\u127d","name:it":"Georgia del Sud e isole Sandwich meridionali","name:ml":"\u0d26\u0d15\u0d4d\u0d37\u0d3f\u0d23 \u0d1c\u0d4b\u0d7c\u0d1c\u0d4d\u0d1c\u0d3f\u0d2f\u0d2f\u0d41\u0d02 \u0d26\u0d15\u0d4d\u0d37\u0d3f\u0d23 \u0d38\u0d3e\u0d7b\u0d21\u0d4d\u200c\u0d35\u0d3f\u0d1a\u0d4d\u0d1a\u0d4d \u0d26\u0d4d\u0d35\u0d40\u0d2a\u0d41\u0d15\u0d33\u0d41\u0d02","name:ru":"\u042e\u0436\u043d\u0430\u044f \u0413\u0435\u043e\u0440\u0433\u0438\u044f \u0438 \u042e\u0436\u043d\u044b\u0435 \u0421\u0430\u043d\u0434\u0432\u0438\u0447\u0435\u0432\u044b \u041e\u0441\u0442\u0440\u043e\u0432\u0430","name:mn":"\u04e8\u043c\u043d\u04e9\u0434 \u0416\u043e\u0440\u0436\u0438\u0430 \u0431\u0430 \u04e8\u043c\u043d\u04e9\u0434 \u0421\u044d\u043d\u0434\u0432\u0438\u0447\u0438\u0439\u043d \u0410\u0440\u043b\u0443\u0443\u0434","id":249399339,"name:mk":"\u0408\u0443\u0436\u043d\u0430 \u0413\u0440\u0443\u0437\u0438\u0458\u0430 \u0438 \u0408\u0443\u0436\u043d\u0438 \u0421\u0435\u043d\u0434\u0432\u0438\u0447 \u041e\u0441\u0442\u0440\u043e\u0432\u0438","name:af":"Suid-Georgi\u00eb en die Suidelike Sandwich-eilande","name:zu":"i-South Georgia ne-South Sandwich Islands","name:nn":"S\u00f8r-Georgia og S\u00f8r-Sandwich\u00f8yane","name:fi":"Etel\u00e4-Georgia ja Etel\u00e4iset Sandwichsaaret","name:no":"S\u00f8r-Georgia og S\u00f8r-Sandwich\u00f8yene","name:fo":"Su\u00f0urgeorgia","name:mt":"South Georgia and the South Sandwich Islands","name:fr":"G\u00e9orgie du Sud-et-les \u00celes Sandwich du Sud","name:fy":"S\u00fad-Ge\u00f6rgje en de S\u00fadlike Sandwicheilannen","name:zh":"\u5357\u55ac\u6cbb\u4e9e\u5cf6\u8207\u5357\u6851\u5a01\u5947\u7fa4\u5cf6","name:sl":"Ju\u017ena Georgia in Ju\u017eni Sandwichevi otoki","name:sk":"Ju\u017en\u00e1 Georgia a Ju\u017en\u00e9 Sandwichove ostrovy","name:ja":"\u30b5\u30a6\u30b9\u30b8\u30e7\u30fc\u30b8\u30a2\u30fb\u30b5\u30a6\u30b9\u30b5\u30f3\u30c9\u30a6\u30a3\u30c3\u30c1\u8af8\u5cf6","name:si":"\u0daf\u0d9a\u0dd4\u0dab\u0dd4 \u0da2\u0ddd\u0dbb\u0dca\u0da2\u0dd2\u0dba\u0dcf\u0dc0 \u0dc3\u0dc4 \u0daf\u0d9a\u0dd4\u0dab\u0dd4 \u0dc3\u0dd0\u0db1\u0dca\u0da9\u0dca\u0dd2\u0da0\u0dca \u0daf\u0dd6\u0db4\u0dad\u0dca","name:fa":"\u062c\u0632\u0627\u06cc\u0631 \u062c\u0648\u0631\u062c\u06cc\u0627\u06cc \u062c\u0646\u0648\u0628\u06cc \u0648 \u0633\u0627\u0646\u062f\u0648\u06cc\u0686 \u062c\u0646\u0648\u0628\u06cc","name:se":"Lulli Georgia ja Lulli Sandwich-sullot","name:ne":"\u0926\u0915\u094d\u0937\u093f\u0923 \u091c\u0930\u094d\u091c\u093f\u092f\u093e \u0930 \u0926\u0915\u094d\u0937\u093f\u0923 \u0938\u094d\u092f\u093e\u0928\u094d\u0921\u0935\u0940\u091a \u091f\u093e\u092a\u0941\u0939\u0930\u0942","name:br":"Jorjia ar Su hag Inizi Sandwich ar Su","name:bs":"Ju\u017ena D\u017eord\u017eija i Ju\u017ena Sendvi\u010dka Ostrva","name:bn":"\u09a6\u0995\u09cd\u09b7\u09bf\u09a3 \u099c\u09b0\u09cd\u099c\u09bf\u09af\u09bc\u09be \u0993 \u09a6\u0995\u09cd\u09b7\u09bf\u09a3 \u09b8\u09cd\u09af\u09be\u09a8\u09cd\u09a1\u0989\u0987\u099a \u09a6\u09cd\u09ac\u09c0\u09aa\u09aa\u09c1\u099e","name:sw":"Jojia Kusini na Visiwa vya Sandwich Kusini","name:be":"\u041f\u0430\u045e\u0434\u043d\u0451\u0432\u0430\u044f \u0413\u0435\u043e\u0440\u0433\u0456\u044f \u0456 \u041f\u0430\u045e\u0434\u043d\u0451\u0432\u044b\u044f \u0421\u044d\u043d\u0434\u0432\u0456\u0447\u0430\u0432\u044b \u0430\u0441\u0442\u0440\u0430\u0432\u044b","name:bg":"\u042e\u0436\u043d\u0430 \u0414\u0436\u043e\u0440\u0434\u0436\u0438\u044f \u0438 \u042e\u0436\u043d\u0438 \u0421\u0430\u043d\u0434\u0432\u0438\u0447\u0435\u0432\u0438 \u043e\u0441\u0442\u0440\u043e\u0432\u0438","name:wo":"Jeoorji gu B\u00ebj-saalum ak Duni Islaand yi B\u00ebj-saalum","name:sr":"\u0408\u0443\u0436\u043d\u0430 \u040f\u043e\u0440\u045f\u0438\u0458\u0430 \u0438 \u0408\u0443\u0436\u043d\u0430 \u0421\u0435\u043d\u0434\u0432\u0438\u0447\u043a\u0430 \u041e\u0441\u0442\u0440\u0432\u0430","name:sq":"Gjeorgjia Jugore dhe Ishujt Jugor\u00eb Sandui\u00e7","name:ga":"An tSeoirsia Theas agus Oile\u00e1in Sandwich Theas","name:gd":"Se\u00f2irsia-a-Deas is na h-Eileanan Shandwich-a-Deas","name:gl":"Illas Xeorxia do Sur e Sandwich do Sur","name:gv":"Georgia Yiass as Ellanyn Sandwich Yiass","name:gu":"\u0aa6\u0a95\u0acd\u0ab7\u0abf\u0aa3 \u0a9c\u0acd\u0aaf\u0acb\u0ab0\u0acd\u0a9c\u0ac0\u0aaf\u0abe \u0a85\u0aa8\u0ac7 \u0aa6\u0a95\u0acd\u0ab7\u0abf\u0aa3 \u0ab8\u0ac7\u0aa8\u0acd\u0aa1\u0ab5\u0abf\u0a9a \u0a86\u0a87\u0ab2\u0ac7\u0aa8\u0acd\u0aa1"},"coordinates":[2195,675]},{"type":"Point","properties":{"source":"naturalearthdata.com","kind":"locality","name":"Grytviken","population":99,"min_zoom":7.0,"id":4800},"coordinates":[159,3502]}]},"transit":{"type":"GeometryCollection","geometries":[]},"pois":{"type":"GeometryCollection","geometries":[]},"boundaries":{"type":"GeometryCollection","geometries":[{"type":"MultiLineString","properties":{"name:az":"C\u0259nubi Georgiya v\u0259 C\u0259nubi Sandvi\u00e7 adalar\u0131","name:tr":"G\u00fcney Georgia ve G\u00fcney Sandwich Adalar\u0131","name:cs":"Ji\u017en\u00ed Georgie a Ji\u017en\u00ed Sandwichovy ostrovy","min_zoom":8.0,"name:ru":"\u042e\u0436\u043d\u0430\u044f \u0413\u0435\u043e\u0440\u0433\u0438\u044f \u0438 \u042e\u0436\u043d\u044b\u0435 \u0421\u0430\u043d\u0434\u0432\u0438\u0447\u0435\u0432\u044b \u041e\u0441\u0442\u0440\u043e\u0432\u0430","name:ta":"\u0ba4\u0bc6\u0bb1\u0bcd\u0b95\u0bc1 \u0baf\u0bcb\u0bb0\u0bcd\u0b9a\u0bbf\u0baf\u0bbe \u0bae\u0bb1\u0bcd\u0bb1\u0bc1\u0bae\u0bcd \u0ba4\u0bc6\u0bb1\u0bcd\u0b95\u0bc1 \u0b9a\u0ba3\u0bcd\u0b9f\u0bcd\u0bb5\u0bbf\u0b9a\u0bcd \u0ba4\u0bc0\u0bb5\u0bc1\u0b95\u0bb3\u0bcd","id":-1983628,"name:ca":"Illes Ge\u00f2rgia del Sud i Sandwich del Sud","sort_rank":262,"kind_detail":"2","name:da":"South Georgia og South Sandwich Islands","name:fo":"Su\u00f0ursandwichoyggjar og Su\u00f0urgeorgia","source":"openstreetmap.org","name:fr":"G\u00e9orgie du Sud-et-les \u00celes Sandwich du Sud","name:de":"S\u00fcdgeorgien und die S\u00fcdlichen Sandwichinseln","name:zh":"\u5357\u55ac\u6cbb\u4e9e\u548c\u5357\u6851\u5a01\u5947\u7fa4\u5cf6","name:nl":"Zuid-Georgia en de Zuidelijke Sandwicheilanden","name:ja":"\u30b5\u30a6\u30b9\u30b8\u30e7\u30fc\u30b8\u30a2\u30fb\u30b5\u30a6\u30b9\u30b5\u30f3\u30c9\u30a6\u30a3\u30c3\u30c1\u8af8\u5cf6","name:nn":"S\u00f8r-Georgia og S\u00f8r-Sandwich\u00f8yane","name:hi":"\u0926\u0915\u094d\u0937\u093f\u0923 \u091c\u0949\u0930\u094d\u091c\u093f\u092f\u093e \u090f\u0935\u0902 \u0926\u0915\u094d\u0937\u093f\u0923 \u0938\u0948\u0902\u0921\u0935\u093f\u091a \u0926\u094d\u0935\u0940\u092a \u0938\u092e\u0942\u0939","name:eo":"Sud-Georgio kaj Sud-Sandvi\u0109insuloj","name:br":"Georgia ar Su hag Inizi Sandwich ar Su","name:sk":"Ju\u017en\u00e1 Georgia a Ju\u017en\u00e9 Sandwichove ostrovy","name:uk":"\u041f\u0456\u0432\u0434\u0435\u043d\u043d\u0430 \u0414\u0436\u043e\u0440\u0434\u0436\u0456\u044f \u0442\u0430 \u041f\u0456\u0432\u0434\u0435\u043d\u043d\u0456 \u0421\u0430\u043d\u0434\u0432\u0456\u0447\u0435\u0432\u0456 \u043e\u0441\u0442\u0440\u043e\u0432\u0438","name:fy":"S\u00fad-Georgje en de S\u00fadlike Sandwicheilannen","name:be":"\u041f\u0430\u045e\u0434\u043d\u0451\u0432\u0430\u044f \u0414\u0436\u043e\u0440\u0434\u0436\u044b\u044f \u0456 \u041f\u0430\u045e\u0434\u043d\u0451\u0432\u044b\u044f \u0421\u0430\u043d\u0434\u0432\u0456\u0447\u0430\u0432\u044b \u0430\u0441\u0442\u0440\u0430\u0432\u044b","name:bg":"\u042e\u0436\u043d\u0430 \u0414\u0436\u043e\u0440\u0434\u0436\u0438\u044f \u0438 \u042e\u0436\u043d\u0438 \u0421\u0430\u043d\u0434\u0432\u0438\u0447\u0435\u0432\u0438 \u043e\u0441\u0442\u0440\u043e\u0432\u0438","name:hr":"Ju\u017ena Georgija i Oto\u010dje Ju\u017eni Sandwich","name:sr":"\u0408\u0443\u0436\u043d\u0430 \u040f\u043e\u0440\u045f\u0438\u0458\u0430 \u0438 \u0408\u0443\u0436\u043d\u0430 \u0421\u0435\u043d\u0434\u0432\u0438\u0447\u043a\u0430 \u041e\u0441\u0442\u0440\u0432\u0430","osm_relation":true,"name:el":"\u039d\u03ae\u03c3\u03bf\u03b9 \u039d\u03cc\u03c4\u03b9\u03b1 \u0393\u03b5\u03c9\u03c1\u03b3\u03af\u03b1 \u03ba\u03b1\u03b9 \u039d\u03cc\u03c4\u03b9\u03b5\u03c2 \u03a3\u03ac\u03bd\u03c4\u03bf\u03c5\u03b9\u03c4\u03c2","kind":"country","name:en":"South Georgia and the South Sandwich Islands","name":"South Georgia and South Sandwich Islands","maritime_boundary":true,"name:et":"L\u00f5una-Georgia ja L\u00f5una-Sandwichi saared","name:es":"Islas Georgias del Sur y Sandwich del Sur"},"arcs":[[0],[1]]}]},"roads":{"type":"GeometryCollection","geometries":[]},"earth":{"type":"GeometryCollection","geometries":[{"type":"MultiPolygon","properties":{"sort_rank":10,"source":"naturalearthdata.com","min_zoom":0.0,"kind":"earth","area":4952209631},"arcs":[[[7]],[[8]]]},{"type":"Point","properties":{"label_placement":true,"kind":"island","name":"South Georgia","name:nn":"S\u00f8r-Georgia","area":10379799552,"name:no":"S\u00f8r-Georgia","name:cs":"Ji\u017en\u00ed Georgie","name:de":"S\u00fcdgeorgien","source":"openstreetmap.org","min_zoom":7.0,"name:ru":"\u042e\u0436\u043d\u0430\u044f \u0413\u0435\u043e\u0440\u0433\u0438\u044f","name:pl":"Georgia Po\u0142udniowa","id":-7212523,"osm_relation":true},"coordinates":[180,2704]}]},"landuse":{"type":"GeometryCollection","geometries":[{"type":"Polygon","properties":{"kind":"glacier","natural":"glacier","name":"Nordenskjold Glacier","area":239750000,"sort_rank":29,"source":"openstreetmap.org","min_zoom":8.0,"tier":3,"id":302948144},"arcs":[[9]]},{"type":"Polygon","properties":{"kind":"glacier","natural":"glacier","name":"Ross and Weddle Glacier","area":115168000,"sort_rank":29,"source":"openstreetmap.org","min_zoom":8.0,"tier":3,"id":-6073034,"osm_relation":true},"arcs":[[10]]},{"type":"Polygon","properties":{"kind":"glacier","natural":"glacier","area":27273000,"sort_rank":29,"source":"openstreetmap.org","min_zoom":8.0,"tier":3,"id":302948140},"arcs":[[11]]},{"type":"Polygon","properties":{"kind":"glacier","natural":"glacier","name":"Hamberg Glacier","area":15985800,"sort_rank":29,"source":"openstreetmap.org","min_zoom":8.0,"tier":3,"id":467412211},"arcs":[[12]]},{"type":"Polygon","properties":{"kind":"glacier","natural":"glacier","name":"Harker Glacier","area":17129800,"sort_rank":29,"source":"openstreetmap.org","min_zoom":8.0,"tier":3,"id":368262360},"arcs":[[13]]}]}},"type":"Topology","transform":{"translate":[-36.5625,-54.9776136707],"scale":[0.0003433228,0.0001990185]},"arcs":[[[0,402],[158,-198],[222,-166],[26,-38]],[[2863,0],[207,154],[198,286],[92,322],[-7,311],[-109,307],[-167,276],[-143,166],[27,382],[-76,332],[-87,165],[-125,166],[-256,201],[-287,287],[-90,190],[-163,206],[-81,191],[-103,154]],[[4096,4096],[0,-4096],[-4096,0],[0,2417],[60,0],[48,-20],[77,-50],[72,-67],[32,-69],[-9,-39],[-41,-61],[-10,-56],[17,-39],[40,-27],[46,-16],[37,-5],[41,-37],[219,-306],[100,-182],[24,-104],[26,-87],[-11,-76],[45,-75],[30,9],[4,-71],[107,-122],[68,-57],[56,-24],[131,-174],[119,-66],[-36,-26],[-18,-9],[-27,-3],[21,-56],[33,-34],[41,-15],[85,1],[29,25],[22,30],[18,15],[32,-7],[62,-25],[37,1],[-10,44],[-1,27],[11,66],[22,-54],[33,-20],[84,2],[-5,23],[-9,57],[-6,24],[27,-23],[29,-11],[31,-2],[33,4],[0,32],[-35,22],[-57,69],[-28,14],[-76,5],[-32,9],[-31,18],[-36,38],[-58,85],[-37,17],[-41,10],[-41,27],[-37,41],[-29,53],[90,-10],[84,-47],[145,-111],[79,-40],[95,-20],[87,27],[59,102],[95,-27],[57,-5],[25,15],[13,42],[32,37],[40,27],[38,10],[0,37],[-111,29],[-143,73],[-126,109],[-62,132],[79,9],[-9,113],[-70,225],[12,12],[68,125],[50,152],[12,57],[-32,13],[-35,-18],[-75,-67],[-43,-26],[-270,-14],[-46,9],[-31,25],[-54,76],[-34,33],[127,151],[67,52],[50,46],[-32,20],[-23,37],[-9,58],[-11,43],[-28,14],[-71,-7],[-49,54],[-21,16],[-43,-31],[-17,-4],[-37,11],[-38,18],[-25,30],[0,44],[-33,6],[-29,18],[-22,32],[-15,47],[52,24],[17,53],[2,66],[8,66],[-239,-11],[-39,27],[25,98],[39,34],[2,24],[-88,68],[30,31],[4,31],[-7,39],[-5,55],[-10,44],[-24,16],[-33,0],[-34,-7],[-20,78],[-89,55],[-189,72],[1,-61],[6,-40],[12,-32],[20,-41],[68,-81],[10,-37],[17,-99],[28,-88],[6,-67],[-51,-39],[-61,16],[-52,65],[-76,143],[-51,23],[-63,-41],[-115,-138],[23,51],[11,54],[-5,53],[-29,48],[16,55],[-9,23],[-17,15],[-9,29],[10,42],[26,10],[29,2],[23,16],[15,78],[-25,61],[-42,21],[-36,-41],[-43,55],[-76,-29],[-51,-45],[0,248],[10,9],[88,39],[47,-2],[44,-37],[14,35],[5,18],[-5,18],[-14,35],[-45,-42],[-33,29],[-26,50],[-20,23],[4031,0]],[[1904,1459],[-9,113],[-70,225],[12,12],[68,125],[50,152],[12,57],[-32,13],[-35,-18],[-75,-67],[-43,-26],[-270,-14],[-46,9],[-31,25],[-54,76],[-34,33],[127,151],[67,52],[50,46],[-32,20],[-23,37],[-9,58],[-11,43],[-28,14],[-71,-7],[-49,54],[-21,16],[-43,-31],[-17,-4],[-37,11],[-38,18],[-25,30],[0,44],[-33,6],[-29,18],[-22,32],[-15,47],[52,24],[17,53],[2,66],[8,66],[-239,-11],[-39,27],[25,98],[39,34],[2,24],[-88,68],[30,31],[4,31],[-7,39],[-5,55],[-10,44],[-24,16],[-33,0],[-34,-7],[-20,78],[-89,55],[-189,72],[1,-61],[6,-40],[12,-32],[20,-41],[68,-81],[10,-37],[17,-99],[28,-88],[6,-67],[-51,-39],[-61,16],[-52,65],[-76,143],[-51,23],[-63,-41],[-115,-138],[23,51],[11,54],[-5,53],[-29,48],[16,55],[-9,23],[-17,15],[-9,29],[10,42],[26,10],[29,2],[23,16],[15,78],[-25,61],[-42,21],[-36,-41],[-43,55],[-76,-29],[-51,-45]],[[0,3921],[10,9],[88,39],[47,-2],[44,-37],[14,35],[5,18],[-5,18],[-14,35],[-45,-42],[-33,29],[-26,50],[-20,23]],[[33,4096],[-33,-7]],[[0,2417],[60,0],[48,-20],[77,-50],[72,-67],[32,-69],[-9,-39],[-41,-61],[-10,-56],[17,-39],[40,-27],[46,-16],[37,-5],[41,-37],[219,-306],[100,-182],[24,-104],[26,-87],[-11,-76],[45,-75],[30,9],[4,-71],[107,-122],[68,-57],[56,-24],[131,-174],[119,-66],[-36,-26],[-18,-9],[-27,-3],[21,-56],[33,-34],[41,-15],[85,1],[29,25],[22,30],[18,15],[32,-7],[62,-25],[37,1],[-10,44],[-1,27],[11,66],[22,-54],[33,-20],[84,2],[-5,23],[-9,57],[-6,24],[27,-23],[29,-11],[31,-2],[33,4],[0,32],[-35,22],[-57,69],[-28,14],[-76,5],[-32,9],[-31,18],[-36,38],[-58,85],[-37,17],[-41,10],[-41,27],[-37,41],[-29,53],[90,-10],[84,-47],[145,-111],[79,-40],[95,-20],[87,27],[59,102],[95,-27],[57,-5],[25,15],[13,42],[32,37],[40,27],[38,10],[0,37],[-111,29],[-143,73],[-126,109],[-62,132],[79,9]],[[0,3673],[51,45],[76,29],[43,-55],[36,41],[42,-21],[25,-61],[-15,-78],[-23,-16],[-29,-2],[-26,-10],[-10,-42],[9,-29],[17,-15],[9,-23],[-16,-55],[29,-48],[5,-53],[-11,-54],[-23,-51],[115,138],[63,41],[51,-23],[76,-143],[52,-65],[61,-16],[51,39],[-6,67],[-28,88],[-17,99],[-10,37],[-68,81],[-20,41],[-12,32],[-6,40],[-1,61],[189,-72],[89,-55],[20,-78],[34,7],[33,0],[24,-16],[10,-44],[5,-55],[7,-39],[-4,-31],[-30,-31],[88,-68],[-2,-24],[-39,-34],[-25,-98],[39,-27],[239,11],[-8,-66],[-2,-66],[-17,-53],[-52,-24],[15,-47],[22,-32],[29,-18],[33,-6],[0,-44],[25,-30],[38,-18],[37,-11],[17,4],[43,31],[21,-16],[49,-54],[71,7],[28,-14],[11,-43],[9,-58],[23,-37],[32,-20],[-50,-46],[-67,-52],[-127,-151],[34,-33],[54,-76],[31,-25],[46,-9],[270,14],[43,26],[75,67],[35,18],[32,-13],[-12,-57],[-50,-152],[-68,-125],[-12,-12],[70,-225],[9,-113],[-79,-9],[62,-132],[126,-109],[143,-73],[111,-29],[0,-37],[-38,-10],[-40,-27],[-32,-37],[-13,-42],[-25,-15],[-57,5],[-95,27],[-59,-102],[-87,-27],[-95,20],[-79,40],[-145,111],[-84,47],[-90,10],[29,-53],[37,-41],[41,-27],[41,-10],[37,-17],[58,-85],[36,-38],[31,-18],[32,-9],[76,-5],[28,-14],[57,-69],[35,-22],[0,-32],[-33,-4],[-31,2],[-29,11],[-27,23],[6,-24],[9,-57],[5,-23],[-84,-2],[-33,20],[-22,54],[-11,-66],[1,-27],[10,-44],[-37,-1],[-62,25],[-32,7],[-18,-15],[-22,-30],[-29,-25],[-85,-1],[-41,15],[-33,34],[-21,56],[27,3],[18,9],[36,26],[-119,66],[-131,174],[-56,24],[-68,57],[-107,122],[-4,71],[-30,-9],[-45,75],[11,76],[-26,87],[-24,104],[-100,182],[-219,306],[-41,37],[-37,5],[-46,16],[-40,27],[-17,39],[10,56],[41,61],[9,39],[-32,69],[-72,67],[-77,50],[-48,20],[-60,0],[0,1256]],[[0,4089],[33,7],[32,0],[20,-23],[26,-50],[33,-29],[45,42],[14,-35],[5,-18],[-5,-18],[-14,-35],[-44,37],[-47,2],[-88,-39],[-10,-9],[0,168]],[[122,2825],[99,8],[145,-50],[32,29],[-164,63],[29,49],[165,-28],[65,183],[135,-45],[10,-114],[45,-38],[-1,-39],[81,-111],[-45,-19],[54,-54],[47,-7],[0,69],[26,-22],[126,52],[73,-20],[-19,-34],[-132,-31],[-30,-63],[23,-83],[-181,44],[-140,244],[-5,-53],[80,-141],[-81,-40],[-14,87],[-67,69],[-39,-98],[-33,20],[-9,62],[-187,68],[-69,-27],[-19,70]],[[874,2136],[79,82],[93,17],[58,-79],[185,-16],[-11,-64],[97,-53],[42,-151],[-25,-19],[-41,69],[-28,-54],[41,-108],[-52,26],[-28,52],[-39,-68],[-41,109],[52,18],[37,145],[-137,13],[23,-47],[-31,-75],[-47,-7],[-24,134],[-203,76]],[[1516,1798],[61,101],[74,30],[11,-76],[-36,-20],[42,-45],[-32,-50],[-35,9],[-28,-29],[-57,80]],[[0,3202],[41,-47],[64,-9],[-9,-18],[-96,-11],[0,85]],[[0,3067],[25,21],[64,-24],[117,14],[-23,-35],[-66,-7],[9,-25],[-44,-11],[-31,31],[-47,-48],[-4,84]]]}