{"objects":{"water":{"type":"GeometryCollection","geometries":[{"type":"Polygon","properties":{"source":"naturalearthdata.com","kind":"ocean","area":1576712559132672,"sort_rank":200,"min_zoom":0.0,"id":1},"arcs":[[2]]},{"type":"LineString","properties":{"source":"naturalearthdata.com","kind":"ocean","sort_rank":205,"boundary":true,"min_zoom":0.0,"id":872},"arcs":[3]}]},"buildings":{"type":"GeometryCollection","geometries":[]},"places":{"type":"GeometryCollection","geometries":[]},"transit":{"type":"GeometryCollection","geometries":[]},"pois":{"type":"GeometryCollection","geometries":[]},"boundaries":{"type":"GeometryCollection","geometries":[{"type":"LineString","properties":{"name:ty":"Tanata","name:ka":"\u10d9\u10d0\u10dc\u10d0\u10d3\u10d0","name:ko":"\uce90\ub098\ub2e4","name:cv":"\u041a\u0430\u043d\u0430\u0434\u0430","name:cu":"\u041a\u0430\u043d\u0430\u0434\u0430","name:cs":"Kanada","name:cr":"\u1473\u14c7\u1456","name:tt":"\u041a\u0430\u043d\u0430\u0434\u0430","name:co":"Canad\u00e0","name:kv":"\u041a\u0430\u043d\u0430\u0434\u0430","name:ku":"Kanada","name:tl":"Kanada","name:ce":"\u041a\u0430\u043d\u0430\u0434\u0430","name:ta":"\u0b95\u0ba9\u0b9f\u0bbe","name:tg":"\u041a\u0430\u043d\u0430\u0434\u0430","name:ca":"Canad\u00e0","name:te":"\u0c15\u0c46\u0c28\u0c21\u0c3e","name:qu":"Kanada","name:de":"Kanada","name:dz":"\u0f40\u0f7a\u0f0b\u0f53\u0f0b\u0f4c\u0f0b","source":"openstreetmap.org","name:kn":"\u0c95\u0cc6\u0ca8\u0ca1\u0cbe","name:dv":"\u0786\u07ac\u0782\u07ac\u0791\u07a7","name:km":"\u1780\u17b6\u178e\u17b6\u178a\u17b6","name:lv":"Kan\u0101da","name:lt":"Kanada","name:uz":"Kanada","name:kk":"\u041a\u0430\u043d\u0430\u0434\u0430","name:tw":"Kanada","name:lb":"Kanada","name:uk":"\u041a\u0430\u043d\u0430\u0434\u0430","name:ug":"\u0643\u0627\u0646\u0627\u062f\u0627","name:ln":"Kanad\u00e1","name:kw":"Kanada","name:eo":"Kanado","name":"Canada","name:tk":"Kanada","name:th":"\u0e1b\u0e23\u0e30\u0e40\u0e17\u0e28\u0e41\u0e04\u0e19\u0e32\u0e14\u0e32","name:eu":"Kanada","name:et":"Kanada","name:es":"Canad\u00e1","name:ay":"Kanada","name:rn":"Kanada","name:az":"Kanada","name:id":"Kanada","name:ig":"K\u00e1nada","name:el":"\u039a\u03b1\u03bd\u03b1\u03b4\u03ac\u03c2","name:as":"\u0995\u09be\u09a8\u09be\u09a1\u09be","name:ar":"\u0643\u0646\u062f\u0627","name:io":"Kanada","name:av":"\u041a\u0430\u043d\u0430\u0434\u0430","name:is":"Kanada","name:am":"\u12ab\u1293\u12f3","name:an":"Canad\u00e1","name:ru":"\u041a\u0430\u043d\u0430\u0434\u0430","name:ab":"\u041a\u0430\u043d\u0430\u0434\u0430","name:af":"Kanada","name:zu":"IKhanada","kind_detail":"2","name:ky":"\u041a\u0430\u043d\u0430\u0434\u0430","name:zh-yue":"\u52a0\u62ff\u5927","name:zh":"\u52a0\u62ff\u5927","name:so":"Kanada","name:sl":"Kanada","name:sk":"Kanada","name:ja":"\u30ab\u30ca\u30c0","name:sh":"Kanada","name:sg":"Kanad\u00e4a","name:se":"Kan\u00e1da","name:sa":"\u0915\u0947\u0928\u0921\u093e","name:bs":"Kanada","name:bm":"Kanada","name:bn":"\u0995\u09be\u09a8\u09be\u09a1\u09be","name:bo":"\u0f41\u0f0b\u0f53\u0f0b\u0f4c\u0f0d","name:br":"Kanada","name:sw":"Kanada","name:be":"\u041a\u0430\u043d\u0430\u0434\u0430","name:su":"Kanada","name:bg":"\u041a\u0430\u043d\u0430\u0434\u0430","name:ss":"IKhanada","name:ba":"\u041a\u0430\u043d\u0430\u0434\u0430","name:sq":"Kanadaja","name:jv":"Kanada","name:bi":"Kanada","name:pt":"Canad\u00e1","name:ps":"\u06a9\u0627\u0646\u0627\u0689\u0627","name:oc":"Canad\u00e0","min_zoom":8.0,"name:pa":"\u0a15\u0a48\u0a28\u0a47\u0a21\u0a3e","name:os":"\u041a\u0430\u043d\u0430\u0434\u00e6","name:or":"\u0b15\u0b3e\u0b28\u0b3e\u0b21\u0b3c\u0b3e","name:pl":"Kanada","sort_rank":262,"name:sr":"\u041a\u0430\u043d\u0430\u0434\u0430","osm_relation":true,"name:ik":"Kanada","name:tr":"Kanada","name:hi":"\u0915\u0928\u093e\u0921\u093e","name:sv":"Kanada","name:he":"\u05e7\u05e0\u05d3\u05d4","name:ha":"Kanada","name:hy":"\u053f\u0561\u0576\u0561\u0564\u0561","name:ht":"Kanada","name:hu":"Kanada","name:hr":"Kanada","kind":"country","name:yi":"\u05e7\u05d0\u05e0\u05d0\u05d3\u05e2","name:iu":"\u1472\u14c7\u1455 \/ kanata","name:yo":"K\u00e1n\u00e1d\u00e0","name:mt":"Kanada","name:ms":"Kanada","name:mr":"\u0915\u0945\u0928\u0921\u093e","name:my":"\u1000\u1014\u1031\u1012\u102b\u1014\u102d\u102f\u1004\u103a\u1004\u1036","name:mg":"Kanada","name:ml":"\u0d15\u0d3e\u0d28\u0d21","name:mn":"\u041a\u0430\u043d\u0430\u0434","name:mi":"K\u0101nata","id":-1428125,"name:mk":"\u041a\u0430\u043d\u0430\u0434\u0430","name:vo":"Kanad\u00e4n","name:fa":"\u06a9\u0627\u0646\u0627\u062f\u0627","name:rw":"Kanada","name:fi":"Kanada","old_name:vi":"Gia N\u00e3 \u0110\u1ea1i","name:fo":"Kanada","alt_name:vi":"Ca-na-\u0111a","name:fy":"Kanada","name:na":"Kanada","name:ne":"\u0915\u094d\u092f\u093e\u0928\u093e\u0921\u093e","name:ur":"\u06a9\u06cc\u0646\u06cc\u0688\u0627","name:wo":"Kanadaa","name:nv":"Deeteel Bik\u00e9yah","name:ga":"Ceanada","name:gn":"Kanat\u00e3","name:gl":"Canad\u00e1","maritime_boundary":true,"name:gv":"Yn Chanadey","name:gu":"\u0a95\u0ac7\u0aa8\u0ac7\u0aa1\u0abe"},"arcs":[0]},{"type":"LineString","properties":{"name:pt":"Territ\u00f3rios do Noroeste","name:cy":"Tiriogaethau'r Gogledd-orllewin","name:ko":"\ub178\uc2a4\uc6e8\uc2a4\ud2b8 \uc900\uc8fc","name:cs":"Severoz\u00e1padn\u00ed teritoria","name:kw":"Tiredhow an North-West","min_zoom":8.0,"name:az":"\u015eimal-Q\u0259rb \u0259razil\u0259ri","name:tl":"Hilagang Kanlurang mga Nasasakupan","name:pa":"\u0a09\u0a71\u0a24\u0a30-\u0a2a\u0a71\u0a1b\u0a2e\u0a40 \u0a30\u0a3e\u0a1c\u0a16\u0a47\u0a24\u0a30","name:os":"\u0426\u00e6\u0433\u0430\u0442-\u041d\u044b\u0433\u0443\u044b\u043b\u00e6\u043d \u0442\u0435\u0440\u0440\u0438\u0442\u043e\u0440\u0438\u0442\u00e6","name:pl":"Terytoria P\u00f3\u0142nocno-Zachodnie","name:ta":"\u0bb5\u0b9f\u0bae\u0bc7\u0bb1\u0bcd\u0b95\u0bc1 \u0ba8\u0bbf\u0bb2\u0baa\u0bcd\u0baa\u0b95\u0bc1\u0ba4\u0bbf\u0b95\u0bb3\u0bcd","name:ca":"Territoris del Nord-oest","name:ka":"\u10e9\u10e0\u10d3\u10d8\u10da\u10dd-\u10d3\u10d0\u10e1\u10d0\u10d5\u10da\u10d4\u10d7\u10d8 \u10e2\u10d4\u10e0\u10d8\u10e2\u10dd\u10e0\u10d8\u10d4\u10d1\u10d8","sort_rank":256,"name:de":"Nordwest-Territorien","source":"openstreetmap.org","osm_relation":true,"name:lv":"Zieme\u013crietumu Teritorijas","name:tr":"Kuzeybat\u0131 Topraklar\u0131","name:hi":"\u0928\u0949\u0930\u094d\u0925\u0935\u0947\u0938\u094d\u091f \u091f\u0947\u0930\u0940\u091f\u0930\u0940\u091c\u093c","name:he":"\u05d4\u05d8\u05e8\u05d9\u05d8\u05d5\u05e8\u05d9\u05d5\u05ea \u05d4\u05e6\u05e4\u05d5\u05df-\u05de\u05e2\u05e8\u05d1\u05d9\u05d5\u05ea","name:eo":"Nordokcidentaj Teritorioj","name:ur":"\u0634\u0645\u0627\u0644 \u0645\u063a\u0631\u0628\u06cc \u0639\u0644\u0627\u0642\u06c1 \u062c\u0627\u062a\u060c \u06a9\u06cc\u0646\u06cc\u0688\u0627","name:lb":"Nordwest-Territoiren","name:la":"Territoria septentrio-occidentalia","name:uk":"\u041f\u0456\u0432\u043d\u0456\u0447\u043d\u043e-\u0437\u0430\u0445\u0456\u0434\u043d\u0456 \u0442\u0435\u0440\u0438\u0442\u043e\u0440\u0456\u0457","name:hy":"\u0540\u0575\u0578\u0582\u057d\u056b\u057d\u0561\u0580\u0587\u0574\u057f\u0575\u0561\u0576 \u057f\u0561\u0580\u0561\u056e\u0584\u0576\u0565\u0580","name:ug":"Gherbiy Shimal Rayoni","name:hu":"\u00c9szaknyugati ter\u00fcletek","name:hr":"Sjeverozapadni teritoriji","name:oc":"Territ\u00f2ris del N\u00f2rd O\u00e8st","name:el":"\u0392\u03bf\u03c1\u03b5\u03b9\u03bf\u03b4\u03c5\u03c4\u03b9\u03ba\u03ac \u0395\u03b4\u03ac\u03c6\u03b7","kind":"region","name":"Northwest Territories","name:th":"\u0e19\u0e2d\u0e23\u0e4c\u0e17\u0e40\u0e27\u0e2a\u0e15\u0e4c\u0e40\u0e17\u0e23\u0e4c\u0e23\u0e34\u0e17\u0e2d\u0e23\u0e35\u0e2a\u0e4c","name:yi":"\u05e0\u05d0\u05e8\u05d3\u05d5\u05d5\u05e2\u05e1\u05d8 \u05d8\u05e2\u05e8\u05d9\u05d8\u05d0\u05e8\u05d9\u05e2\u05e1","name:et":"Loodealad","name:es":"Territorios del Noroeste","name:ro":"Teritoriile de Nordvest","name:id":"Wilayah Barat Laut","name:ms":"Wilayah Barat Laut","name:mr":"\u0928\u0949\u0930\u094d\u0925\u0935\u0947\u0938\u094d\u091f \u091f\u0947\u0930\u093f\u091f\u094b\u0930\u0940\u091c","name:ar":"\u0627\u0644\u0623\u0642\u0627\u0644\u064a\u0645 \u0627\u0644\u0634\u0645\u0627\u0644\u064a\u0629 \u0627\u0644\u063a\u0631\u0628\u064a\u0629","name:is":"Nor\u00f0vesturh\u00e9ru\u00f0in","name:iu":"\u14c4\u14c7\u1466\u14ef\u140a\u1585","name:it":"Territori del Nord-Ovest","name:ru":"\u0421\u0435\u0432\u0435\u0440\u043e-\u0417\u0430\u043f\u0430\u0434\u043d\u044b\u0435 \u0442\u0435\u0440\u0440\u0438\u0442\u043e\u0440\u0438\u0438","name:vi":"C\u00e1c L\u00e3nh th\u1ed5 T\u00e2y B\u1eafc","name:mn":"\u0411\u0430\u0440\u0443\u0443\u043d \u0425\u043e\u0439\u0434 \u041d\u0443\u0442\u0430\u0433 \u0414\u044d\u0432\u0441\u0433\u044d\u0440","id":-391220,"name:mk":"\u0421\u0435\u0432\u0435\u0440\u043e\u0437\u0430\u043f\u0430\u0434\u043d\u0438 \u0422\u0435\u0440\u0438\u0442\u043e\u0440\u0438\u0438","name:af":"Noordwestelike gebiede","name:fa":"\u0642\u0644\u0645\u0631\u0648\u0647\u0627\u06cc \u0634\u0645\u0627\u0644 \u063a\u0631\u0628","name:lt":"\u0160iaur\u0117s Vakar\u0173 teritorijos","kind_detail":"4","name:uz":"Shimoli-G\u02bbarbiy hududlar","name:fr":"Territoires du Nord-Ouest","name:fy":"Noardwestlike Territoaria","name:zh":"\u897f\u5317\u5730\u533a","name:sl":"Severozahodni teritoriji","name:sk":"Severoz\u00e1padn\u00e9 terit\u00f3ri\u00e1","name:ja":"\u30ce\u30fc\u30b9\u30a6\u30a8\u30b9\u30c8\u6e96\u5dde","name:nn":"Nordvestterritoria","name:no":"Nordvestterritoriene","name:sc":"Territ\u00f2rios de su Norti-Uestu","name:br":"Tiriado\u00f9 ar Gwalarn","name:bs":"Sjeverozapadne teritorije","name:eu":"Ipar-mendebaldeko Lurraldeak","name:be":"\u041f\u0430\u045e\u043d\u043e\u0447\u043d\u0430-\u0417\u0430\u0445\u043e\u0434\u043d\u0456\u044f \u0442\u044d\u0440\u044b\u0442\u043e\u0440\u044b\u0456","name:bg":"\u0421\u0435\u0432\u0435\u0440\u043e\u0437\u0430\u043f\u0430\u0434\u043d\u0438 \u0442\u0435\u0440\u0438\u0442\u043e\u0440\u0438\u0438","name:sr":"\u0421\u0435\u0432\u0435\u0440\u043e\u0437\u0430\u043f\u0430\u0434\u043d\u0435 \u0442\u0435\u0440\u0438\u0442\u043e\u0440\u0438\u0458\u0435","name:sq":"Territoret Veri-Per\u00ebndimore","name:ga":"Cr\u00edocha an Iarthuaiscirt","name:gd":"Roinnean an Iar Thuath","name:gl":"Territorios do Noroeste","maritime_boundary":true,"name:gv":"Thallooyn yn Eear Hwoaie","name:fi":"Luoteisterritoriot"},"arcs":[1]}]},"roads":{"type":"GeometryCollection","geometries":[]},"earth":{"type":"GeometryCollection","geometries":[{"type":"Polygon","properties":{"sort_rank":10,"source":"naturalearthdata.com","kind":"earth","min_zoom":0.0,"id":4678},"arcs":[[4]]}]},"landuse":{"type":"GeometryCollection","geometries":[]}},"type":"Topology","transform":{"translate":[-120.9375,76.8408164144],"scale":[0.0003433228,0.0000772329]},"arcs":[[[91,4096],[-91,-118]],[[91,4096],[-91,-118]],[[3992,4096],[-94,-69],[-81,-121],[-3,-245],[-66,-92],[-213,-4],[-300,-228],[-18,-125],[0,-157],[-11,-149],[-51,-135],[-136,-34],[-62,-64],[40,-81],[-65,-271],[-103,-54],[-210,60],[-79,-62],[-75,-131],[-38,-210],[31,-305],[-58,0],[-180,-153],[-35,-79],[-4,-96],[21,-80],[37,-33],[-173,-377],[-412,-128],[-174,-307],[40,-122],[44,-105],[47,-77],[48,-42],[-9,-20],[-1650,0],[0,4096],[3992,0]],[[3992,4096],[-94,-69],[-81,-121],[-3,-245],[-66,-92],[-213,-4],[-300,-228],[-18,-125],[0,-157],[-11,-149],[-51,-135],[-136,-34],[-62,-64],[40,-81],[-65,-271],[-103,-54],[-210,60],[-79,-62],[-75,-131],[-38,-210],[31,-305],[-58,0],[-180,-153],[-35,-79],[-4,-96],[21,-80],[37,-33],[-173,-377],[-412,-128],[-174,-307],[40,-122],[44,-105],[47,-77],[48,-42],[-9,-20]],[[1650,0],[9,20],[-48,42],[-47,77],[-44,105],[-40,122],[174,307],[412,128],[173,377],[-37,33],[-21,80],[4,96],[35,79],[180,153],[58,0],[-31,305],[38,210],[75,131],[79,62],[210,-60],[103,54],[65,271],[-40,81],[62,64],[136,34],[51,135],[11,149],[0,157],[18,125],[300,228],[213,4],[66,92],[3,245],[81,121],[94,69],[104,0],[0,-4096],[-2446,0]]]}