{"objects":{"water":{"type":"GeometryCollection","geometries":[{"type":"MultiPolygon","properties":{"source":"naturalearthdata.com","kind":"ocean","area":1576712559132672,"sort_rank":200,"min_zoom":0.0,"id":1},"arcs":[[[4]]]},{"type":"MultiLineString","properties":{"source":"naturalearthdata.com","kind":"ocean","sort_rank":205,"boundary":true,"min_zoom":0.0,"id":716},"arcs":[[5],[6]]},{"type":"MultiLineString","properties":{"source":"naturalearthdata.com","kind":"ocean","sort_rank":205,"boundary":true,"min_zoom":0.0,"id":861},"arcs":[[7],[8],[9],[10]]}]},"buildings":{"type":"GeometryCollection","geometries":[]},"places":{"type":"GeometryCollection","geometries":[]},"transit":{"type":"GeometryCollection","geometries":[]},"pois":{"type":"GeometryCollection","geometries":[]},"boundaries":{"type":"GeometryCollection","geometries":[{"type":"LineString","properties":{"name:ty":"Tanata","name:ka":"\u10d9\u10d0\u10dc\u10d0\u10d3\u10d0","name:ko":"\uce90\ub098\ub2e4","name:cv":"\u041a\u0430\u043d\u0430\u0434\u0430","name:cu":"\u041a\u0430\u043d\u0430\u0434\u0430","name:cs":"Kanada","name:cr":"\u1473\u14c7\u1456","name:tt":"\u041a\u0430\u043d\u0430\u0434\u0430","name:co":"Canad\u00e0","name:kv":"\u041a\u0430\u043d\u0430\u0434\u0430","name:ku":"Kanada","name:tl":"Kanada","name:ce":"\u041a\u0430\u043d\u0430\u0434\u0430","name:ta":"\u0b95\u0ba9\u0b9f\u0bbe","name:tg":"\u041a\u0430\u043d\u0430\u0434\u0430","name:ca":"Canad\u00e0","name:te":"\u0c15\u0c46\u0c28\u0c21\u0c3e","name:qu":"Kanada","name:de":"Kanada","name:dz":"\u0f40\u0f7a\u0f0b\u0f53\u0f0b\u0f4c\u0f0b","source":"openstreetmap.org","name:kn":"\u0c95\u0cc6\u0ca8\u0ca1\u0cbe","name:dv":"\u0786\u07ac\u0782\u07ac\u0791\u07a7","name:km":"\u1780\u17b6\u178e\u17b6\u178a\u17b6","name:lv":"Kan\u0101da","name:lt":"Kanada","name:uz":"Kanada","name:kk":"\u041a\u0430\u043d\u0430\u0434\u0430","name:tw":"Kanada","name:lb":"Kanada","name:uk":"\u041a\u0430\u043d\u0430\u0434\u0430","name:ug":"\u0643\u0627\u0646\u0627\u062f\u0627","name:ln":"Kanad\u00e1","name:kw":"Kanada","name:eo":"Kanado","name":"Canada","name:tk":"Kanada","name:th":"\u0e1b\u0e23\u0e30\u0e40\u0e17\u0e28\u0e41\u0e04\u0e19\u0e32\u0e14\u0e32","name:eu":"Kanada","name:et":"Kanada","name:es":"Canad\u00e1","name:ay":"Kanada","name:rn":"Kanada","name:az":"Kanada","name:id":"Kanada","name:ig":"K\u00e1nada","name:el":"\u039a\u03b1\u03bd\u03b1\u03b4\u03ac\u03c2","name:as":"\u0995\u09be\u09a8\u09be\u09a1\u09be","name:ar":"\u0643\u0646\u062f\u0627","name:io":"Kanada","name:av":"\u041a\u0430\u043d\u0430\u0434\u0430","name:is":"Kanada","name:am":"\u12ab\u1293\u12f3","name:an":"Canad\u00e1","name:ru":"\u041a\u0430\u043d\u0430\u0434\u0430","name:ab":"\u041a\u0430\u043d\u0430\u0434\u0430","name:af":"Kanada","name:zu":"IKhanada","kind_detail":"2","name:ky":"\u041a\u0430\u043d\u0430\u0434\u0430","name:zh-yue":"\u52a0\u62ff\u5927","name:zh":"\u52a0\u62ff\u5927","name:so":"Kanada","name:sl":"Kanada","name:sk":"Kanada","name:ja":"\u30ab\u30ca\u30c0","name:sh":"Kanada","name:sg":"Kanad\u00e4a","name:se":"Kan\u00e1da","name:sa":"\u0915\u0947\u0928\u0921\u093e","name:bs":"Kanada","name:bm":"Kanada","name:bn":"\u0995\u09be\u09a8\u09be\u09a1\u09be","name:bo":"\u0f41\u0f0b\u0f53\u0f0b\u0f4c\u0f0d","name:br":"Kanada","name:sw":"Kanada","name:be":"\u041a\u0430\u043d\u0430\u0434\u0430","name:su":"Kanada","name:bg":"\u041a\u0430\u043d\u0430\u0434\u0430","name:ss":"IKhanada","name:ba":"\u041a\u0430\u043d\u0430\u0434\u0430","name:sq":"Kanadaja","name:jv":"Kanada","name:bi":"Kanada","name:pt":"Canad\u00e1","name:ps":"\u06a9\u0627\u0646\u0627\u0689\u0627","name:oc":"Canad\u00e0","min_zoom":8.0,"name:pa":"\u0a15\u0a48\u0a28\u0a47\u0a21\u0a3e","name:os":"\u041a\u0430\u043d\u0430\u0434\u00e6","name:or":"\u0b15\u0b3e\u0b28\u0b3e\u0b21\u0b3c\u0b3e","name:pl":"Kanada","sort_rank":262,"name:sr":"\u041a\u0430\u043d\u0430\u0434\u0430","osm_relation":true,"name:ik":"Kanada","name:tr":"Kanada","name:hi":"\u0915\u0928\u093e\u0921\u093e","name:sv":"Kanada","name:he":"\u05e7\u05e0\u05d3\u05d4","name:ha":"Kanada","name:hy":"\u053f\u0561\u0576\u0561\u0564\u0561","name:ht":"Kanada","name:hu":"Kanada","name:hr":"Kanada","kind":"country","name:yi":"\u05e7\u05d0\u05e0\u05d0\u05d3\u05e2","name:iu":"\u1472\u14c7\u1455 \/ kanata","name:yo":"K\u00e1n\u00e1d\u00e0","name:mt":"Kanada","name:ms":"Kanada","name:mr":"\u0915\u0945\u0928\u0921\u093e","name:my":"\u1000\u1014\u1031\u1012\u102b\u1014\u102d\u102f\u1004\u103a\u1004\u1036","name:mg":"Kanada","name:ml":"\u0d15\u0d3e\u0d28\u0d21","name:mn":"\u041a\u0430\u043d\u0430\u0434","name:mi":"K\u0101nata","id":-1428125,"name:mk":"\u041a\u0430\u043d\u0430\u0434\u0430","name:vo":"Kanad\u00e4n","name:fa":"\u06a9\u0627\u0646\u0627\u062f\u0627","name:rw":"Kanada","name:fi":"Kanada","old_name:vi":"Gia N\u00e3 \u0110\u1ea1i","name:fo":"Kanada","alt_name:vi":"Ca-na-\u0111a","name:fy":"Kanada","name:na":"Kanada","name:ne":"\u0915\u094d\u092f\u093e\u0928\u093e\u0921\u093e","name:ur":"\u06a9\u06cc\u0646\u06cc\u0688\u0627","name:wo":"Kanadaa","name:nv":"Deeteel Bik\u00e9yah","name:ga":"Ceanada","name:gn":"Kanat\u00e3","name:gl":"Canad\u00e1","maritime_boundary":true,"name:gv":"Yn Chanadey","name:gu":"\u0a95\u0ac7\u0aa8\u0ac7\u0aa1\u0abe"},"arcs":[0]},{"type":"LineString","properties":{"name:pt":"Col\u00fambia Brit\u00e2nica","name:ka":"\u10d1\u10e0\u10d8\u10e2\u10d0\u10dc\u10d4\u10d7\u10d8\u10e1 \u10d9\u10dd\u10da\u10e3\u10db\u10d1\u10d8\u10d0","name:ko":"\ube0c\ub9ac\ud2f0\uc2dc\uceec\ub7fc\ube44\uc544 \uc8fc","name:kn":"\u0cac\u0ccd\u0cb0\u0cbf\u0c9f\u0cbf\u0cb7\u0ccd\u200c\u200c \u0c95\u0cca\u0cb2\u0c82\u0cac\u0cbf\u0caf\u0cbe","name:kl":"Britisk Columbia","name:cs":"Britsk\u00e1 Kolumbie","name:kw":"Kolombi Bredennek","min_zoom":8.0,"name:az":"Britaniya Kolumbiyas\u0131","alt_name:cs":"Provincie Britsk\u00e1 Kolumbie","name:pa":"\u0a2c\u0a4d\u0a30\u0a3f\u0a1f\u0a3f\u0a38\u0a3c \u0a15\u0a4b\u0a32\u0a70\u0a2c\u0a40\u0a06","name:os":"\u0411\u0440\u0438\u0442\u0430\u043d\u0438\u0439\u044b \u041a\u043e\u043b\u0443\u043c\u0431\u0438","name:pl":"Kolumbia Brytyjska","name:ta":"\u0baa\u0bbf\u0bb0\u0bbf\u0b9f\u0bcd\u0b9f\u0bbf\u0b9a\u0bc1 \u0b95\u0bca\u0bb2\u0bae\u0bcd\u0baa\u0bbf\u0baf\u0bbe","name:ca":"Col\u00fambia Brit\u00e0nica","sort_rank":256,"name:hr":"Britanska Kolumbija","name:da":"Britisk Columbia","name:de":"Britisch-Kolumbien","source":"openstreetmap.org","osm_relation":true,"name:lv":"Britu Kolumbija","name:tr":"Britanya Kolumbiyas\u0131","name:uz":"Britaniya Kolumbiyasi","name:he":"\u05e7\u05d5\u05dc\u05d5\u05de\u05d1\u05d9\u05d4 \u05d4\u05d1\u05e8\u05d9\u05d8\u05d9\u05ea","name:eo":"Brita Kolumbio","name:ur":"\u0628\u0631\u0679\u0634 \u06a9\u0648\u0644\u0645\u0628\u06cc\u0627","name:la":"Columbia Britannica","name:uk":"\u0411\u0440\u0438\u0442\u0430\u043d\u0441\u044c\u043a\u0430 \u041a\u043e\u043b\u0443\u043c\u0431\u0456\u044f","name:hy":"\u0532\u0580\u056b\u057f\u0561\u0576\u0561\u056f\u0561\u0576 \u053f\u0578\u056c\u0578\u0582\u0574\u0562\u056b\u0561","name:ug":"Britani Kolumbiye","name:hu":"Brit Columbia","name:qu":"British Columbia pruwinsya","name:oc":"Col\u00f3mbia Britanica","name:el":"\u0392\u03c1\u03b5\u03c4\u03b1\u03bd\u03b9\u03ba\u03ae \u039a\u03bf\u03bb\u03bf\u03bc\u03b2\u03af\u03b1","kind":"region","name":"British Columbia","name:th":"\u0e23\u0e31\u0e10\u0e1a\u0e23\u0e34\u0e15\u0e34\u0e0a\u0e42\u0e04\u0e25\u0e31\u0e21\u0e40\u0e1a\u0e35\u0e22","name:eu":"Columbia Britainiarra","name:et":"Briti Columbia","name:es":"Columbia Brit\u00e1nica","name:ia":"Columbia Britannic","name:ro":"Columbia Britanic\u0103","name:ie":"British Colombia","name:mr":"\u092c\u094d\u0930\u093f\u091f\u093f\u0936 \u0915\u094b\u0932\u0902\u092c\u093f\u092f\u093e","name:ar":"\u0643\u0648\u0644\u0648\u0645\u0628\u064a\u0627 \u0627\u0644\u0628\u0631\u064a\u0637\u0627\u0646\u064a\u0629","name:is":"Breska K\u00f3lumb\u00eda","name:am":"\u1265\u122a\u1272\u123d \u12ae\u1208\u121d\u1262\u12eb","name:it":"Columbia Britannica","name:ru":"\u0411\u0440\u0438\u0442\u0430\u043d\u0441\u043a\u0430\u044f \u041a\u043e\u043b\u0443\u043c\u0431\u0438\u044f","name:mn":"\u0411\u0440\u0438\u0442\u0438\u0448 \u041a\u043e\u043b\u0430\u043c\u0431\u0438\u0430","id":-390867,"name:mk":"\u0411\u0440\u0438\u0442\u0430\u043d\u0441\u043a\u0430 \u041a\u043e\u043b\u0443\u043c\u0431\u0438\u0458\u0430","name:af":"Brits-Columbi\u00eb","name:fa":"\u0628\u0631\u06cc\u062a\u06cc\u0634 \u06a9\u0644\u0645\u0628\u06cc\u0627","name:lt":"Brit\u0173 Kolumbija","kind_detail":"4","name:hi":"\u092c\u094d\u0930\u093f\u091f\u093f\u0936 \u0915\u094b\u0932\u092e\u094d\u092c\u093f\u092f\u093e","alt_name:vi":"Columbia thu\u1ed9c Anh","name:fr":"Colombie-Britannique","name:fy":"Britsk-Kolumbia","name:zh":"\u4e0d\u5217\u98a0\u54e5\u4f26\u6bd4\u4e9a\u7701","name:sl":"Britanska Kolumbija","name:nl":"Brits-Columbia","name:ja":"\u30d6\u30ea\u30c6\u30a3\u30c3\u30b7\u30e5\u30b3\u30ed\u30f3\u30d3\u30a2\u5dde","name:nn":"Britisk Columbia","name:no":"Britisk Columbia","name:sc":"Col\u00f9mbia Brit\u00e0nnica","name:bs":"Britanska Kolumbija","name:yi":"\u05d1\u05e8\u05d9\u05d8\u05d9\u05e9\u05e2 \u05e7\u05d0\u05dc\u05d5\u05de\u05d1\u05d9\u05e2","name:sk":"Britsk\u00e1 Kolumbia","name:sw":"British Kolumbia","name:be":"\u041f\u0440\u0430\u0432\u0456\u043d\u0446\u044b\u044f \u0411\u0440\u044b\u0442\u0430\u043d\u0441\u043a\u0430\u044f \u041a\u0430\u043b\u0443\u043c\u0431\u0456\u044f","name:bg":"\u0411\u0440\u0438\u0442\u0430\u043d\u0441\u043a\u0430 \u041a\u043e\u043b\u0443\u043c\u0431\u0438\u044f","name:sr":"\u0411\u0440\u0438\u0442\u0430\u043d\u0441\u043a\u0430 \u041a\u043e\u043b\u0443\u043c\u0431\u0438\u0458\u0430","name:sq":"Kolumbia Britanike","name:ga":"An Chol\u00f3im Bhriotanach","name:gd":"Columbia Bhreatannach","name:gn":"Kolumbia Vyreta\u00f1agua","name:gl":"Columbia Brit\u00e1nica","maritime_boundary":true,"name:gv":"Yn Cholombey Ghoaldagh","name:fi":"Brittil\u00e4inen Kolumbia"},"arcs":[1]},{"type":"LineString","properties":{"source":"openstreetmap.org","kind":"aboriginal_lands","name":"Homais 2","sort_rank":250,"min_zoom":8.0,"osm_relation":true,"id":-2098490},"arcs":[2]},{"type":"LineString","properties":{"source":"openstreetmap.org","kind":"aboriginal_lands","name":"Homais 2","sort_rank":250,"min_zoom":8.0,"osm_relation":true,"id":-2098490},"arcs":[3]}]},"roads":{"type":"GeometryCollection","geometries":[]},"earth":{"type":"GeometryCollection","geometries":[{"type":"MultiPolygon","properties":{"sort_rank":10,"source":"naturalearthdata.com","min_zoom":0.0,"kind":"earth","area":19552934254},"arcs":[[[11]],[[12]],[[13]],[[14]]]},{"type":"Point","properties":{"label_placement":true,"kind":"island","name":"Nootka Island","area":1249660032,"source":"openstreetmap.org","min_zoom":8.0,"id":-2143304,"osm_relation":true},"coordinates":[3441,3628]}]},"landuse":{"type":"GeometryCollection","geometries":[{"type":"MultiPolygon","properties":{"source":"openstreetmap.org","kind":"park","tier":2,"area":181295360,"sort_rank":24,"min_zoom":8.0},"arcs":[[[15]],[[16]]]},{"type":"MultiPolygon","properties":{"source":"openstreetmap.org","kind":"park","tier":2,"area":1850314595,"sort_rank":24,"min_zoom":6.0,"osm_relation":true},"arcs":[[[17]],[[18]],[[19]]]},{"type":"MultiPolygon","properties":{"source":"openstreetmap.org","kind":"park","tier":2,"area":231665207,"sort_rank":24,"min_zoom":8.0,"osm_relation":true},"arcs":[[[20],[21]],[[22],[23],[24],[25],[26],[27],[28],[29]]]},{"type":"Polygon","properties":{"source":"openstreetmap.org","kind":"park","area":111442000,"tier":2,"id":167091326,"min_zoom":7.0,"sort_rank":24},"arcs":[[30]]}]}},"type":"Topology","transform":{"translate":[-127.96875,48.9224992638],"scale":[0.0003433228,0.0002235066]},"arcs":[[[1031,4096],[54,-45],[177,-89],[209,-54],[266,-362],[149,-117],[162,-80],[173,-300],[462,-532],[221,-179],[269,-121],[67,-331],[90,-193],[129,-170],[363,-264],[274,-100]],[[2207,4096],[47,-54],[175,-101],[192,-163],[280,-443],[89,-111],[126,-80],[35,-113],[110,-97],[163,-68],[114,-6],[189,-127],[153,5],[34,-116],[-25,-406],[23,-138],[75,-174],[109,-64]],[[4096,2186],[-25,0],[25,-17]],[[4096,2168],[0,-15]],[[4096,2152],[0,-2152],[-4096,0],[0,4096],[2999,0],[-22,-8],[-67,-12],[-25,-22],[-26,-60],[73,-28],[25,-3],[28,-9],[41,-42],[21,-10],[11,-9],[38,-40],[22,-12],[18,6],[25,17],[28,12],[28,-4],[25,-36],[-24,-29],[-47,-20],[-84,-17],[-30,-28],[-24,-40],[-16,-47],[-45,56],[-38,30],[-27,-18],[-10,-83],[180,-199],[164,-116],[46,-53],[53,-78],[45,-40],[370,-160],[119,15],[61,160],[-4,98],[-43,177],[-14,217],[-11,80],[-19,65],[-28,66],[-55,205],[-7,19],[111,0],[1,-21],[12,-72],[94,-381],[34,-73],[59,-39],[31,-5],[0,-276],[-1,-1],[-11,-31],[-1,-21],[13,-4],[0,-197],[-8,-17],[-12,-36],[-7,-41],[3,-30],[-1,-25],[-17,-26],[27,-56],[14,-20],[1,-1],[0,-233],[-1,-81],[1,-7],[0,-4],[-17,-91],[-17,-56],[4,-51],[30,-48]],[[3816,3872],[-55,205],[-7,19]],[[2999,4096],[-22,-8],[-67,-12],[-25,-22],[-26,-60],[73,-28],[25,-3],[28,-9],[41,-42],[21,-10],[11,-9],[38,-40],[22,-12],[18,6],[25,17],[28,12],[28,-4],[25,-36],[-24,-29],[-47,-20],[-84,-17],[-30,-28],[-24,-40],[-16,-47],[-45,56],[-38,30],[-27,-18],[-10,-83],[180,-199],[164,-116],[46,-53],[53,-78],[45,-40],[370,-160],[119,15],[61,160],[-4,98],[-43,177],[-14,217],[-11,80],[-19,65],[-28,66]],[[3865,4096],[1,-21],[12,-72],[94,-381],[34,-73],[59,-39],[31,-5]],[[4096,2975],[-8,-17],[-12,-36],[-7,-41],[3,-30],[-1,-25],[-17,-26],[27,-56],[14,-20],[1,-1]],[[4096,2490],[-1,-81],[1,-7]],[[4096,2398],[-17,-91],[-17,-56],[4,-51],[30,-48]],[[4096,2152],[-30,48],[-4,51],[17,56],[17,91],[0,-246]],[[4096,2723],[-1,1],[-14,20],[-27,56],[17,26],[1,25],[-3,30],[7,41],[12,36],[8,17],[0,-252]],[[2999,4096],[755,0],[7,-19],[55,-205],[28,-66],[19,-65],[11,-80],[14,-217],[43,-177],[4,-98],[-61,-160],[-119,-15],[-370,160],[-45,40],[-53,78],[-46,53],[-164,116],[-180,199],[10,83],[27,18],[38,-30],[45,-56],[16,47],[24,40],[30,28],[84,17],[47,20],[24,29],[-25,36],[-28,4],[-28,-12],[-25,-17],[-18,-6],[-22,12],[-38,40],[-11,9],[-21,10],[-41,42],[-28,9],[-25,3],[-73,28],[26,60],[25,22],[67,12],[22,8]],[[4096,4096],[0,-591],[-31,5],[-59,39],[-34,73],[-94,381],[-12,72],[-1,21],[231,0]],[[3869,3052],[1,82],[59,-4],[21,-102],[-72,0],[-9,24]],[[2577,4096],[149,0],[12,-12],[-27,0],[0,-71],[-142,48],[8,35]],[[4096,2187],[-18,0],[0,52],[18,53],[0,-105]],[[4062,2424],[24,17],[-15,31],[25,33],[0,-125],[-34,44]],[[4096,2711],[-18,15],[-6,12],[24,-1],[0,-26]],[[2955,3589],[50,90],[47,0],[-31,-89],[16,-88],[83,-122],[75,-10],[20,-15],[9,-43],[31,1],[38,-18],[34,-70],[-3,-107],[-20,70],[15,36],[-32,66],[-67,15],[-28,58],[-77,11],[-88,128],[-10,62],[-24,-7],[-38,32]],[[2964,3592],[52,-20],[-14,73],[-30,-27],[-8,-26]],[[2822,4077],[101,0],[46,-71],[49,-16],[-18,-127],[-178,0],[0,214]],[[2926,3959],[12,-13],[23,14],[-3,4],[-32,-5]],[[2902,3943],[8,-23],[9,-7],[0,32],[-17,-2]],[[2910,3962],[5,-9],[9,4],[-7,11],[-7,-6]],[[2914,4001],[5,-8],[12,-3],[-1,12],[-16,-1]],[[2965,3981],[8,-1],[-4,8],[-4,0],[0,-7]],[[2937,3935],[4,0],[0,10],[-3,0],[-1,-10]],[[2936,3970],[6,0],[4,8],[-10,0],[0,-8]],[[3991,3036],[2,330],[103,0],[0,-330],[-105,0]]]}