{"objects":{"water":{"type":"GeometryCollection","geometries":[{"type":"Polygon","properties":{"source":"naturalearthdata.com","kind":"ocean","area":1576712559132672,"sort_rank":200,"min_zoom":0.0,"id":1},"arcs":[[5],[6]]},{"type":"MultiLineString","properties":{"source":"naturalearthdata.com","kind":"ocean","sort_rank":205,"boundary":true,"min_zoom":0.0,"id":55},"arcs":[[7],[8]]},{"type":"LineString","properties":{"source":"naturalearthdata.com","kind":"ocean","sort_rank":205,"boundary":true,"min_zoom":0.0,"id":4070},"arcs":[9]}]},"buildings":{"type":"GeometryCollection","geometries":[]},"places":{"type":"GeometryCollection","geometries":[]},"transit":{"type":"GeometryCollection","geometries":[]},"pois":{"type":"GeometryCollection","geometries":[]},"boundaries":{"type":"GeometryCollection","geometries":[{"type":"MultiLineString","properties":{"name:ka":"\u10d0\u10e0\u10d0\u10d1\u10d7\u10d0 \u10d2\u10d0\u10d4\u10e0\u10d7\u10d8\u10d0\u10dc\u10d4\u10d1\u10e3\u10da\u10d8 \u10e1\u10d0\u10d0\u10db\u10d8\u10e0\u10dd\u10d4\u10d1\u10d8","name:ko":"\uc544\ub78d\uc5d0\ubbf8\ub9ac\ud2b8","name:kn":"\u0cb8\u0c82\u0caf\u0cc1\u0c95\u0ccd\u0ca4 \u0c85\u0cb0\u0cac \u0c85\u0cae\u0cc0\u0cb0\u0cbe\u0ca4","name:kl":"United Arab Emirates","name:cs":"Spojen\u00e9 arabsk\u00e9 emir\u00e1ty","name:ki":"United Arab Emirates","name:kw":"Pennternasedh Unys Arabek","name:kv":"\u04e6\u0442\u0443\u0432\u0442\u0447\u04e7\u043c \u0410\u0440\u0430\u0431 \u042d\u043c\u0438\u0440\u0430\u0442\u044a\u044f\u0441","name:ku":"M\u00eerni\u015f\u00een\u00ean Ereb\u00ee y\u00ean Yekb\u00fby\u00ee","name:tl":"United Arab Emirates","name:ce":"\u04c0\u0430\u0440\u0431\u0438\u0439\u043d \u0426\u0445\u044c\u0430\u044c\u043d\u0430\u043a\u0445\u0435\u0442\u0442\u0430 \u042d\u043c\u0438\u0440\u0430\u0442\u0430\u0448","name:ta":"\u0b90\u0b95\u0bcd\u0b95\u0bbf\u0baf \u0b85\u0bb0\u0baa\u0bc1 \u0b85\u0bae\u0bc0\u0bb0\u0b95\u0bae\u0bcd","name:tg":"\u0410\u043c\u043e\u0440\u0430\u0442\u0438 \u041c\u0443\u0442\u0442\u0430\u04b3\u0438\u0434\u0430\u0438 \u0410\u0440\u0430\u0431","name:ca":"Emirats \u00c0rabs Units","name:te":"\u0c2f\u0c41\u0c28\u0c48\u0c1f\u0c46\u0c21\u0c4d \u0c05\u0c30\u0c2c\u0c4d \u0c0e\u0c2e\u0c3f\u0c30\u0c47\u0c1f\u0c4d\u0c38\u0c4d","name:cy":"Yr Emiradau Arabaidd Unedig","name:qu":"Hukllachasqa Arab Imiratukuna","name:da":"Forenede Arabiske Emirater","name:de":"Vereinigte Arabische Emirate","name:dz":"\u0f61\u0f74\u0f0b\u0f53\u0f60\u0f72\u0f0b\u0f4a\u0f7a\u0f4a\u0f0b\u0f68\u0f0b\u0f62\u0f56\u0f0b\u0f68\u0f7a\u0f0b\u0f58\u0f72\u0f0b\u0f62\u0f7a\u0f4a\u0f66\u0f72\u0f0b","source":"openstreetmap.org","name:dv":"\u0787\u07ac\u0786\u07aa\u0788\u07ac\u0783\u07a8 \u07a2\u07a6\u0783\u07a6\u0784\u07a8 \u0787\u07a8\u0789\u07a7\u0783\u07a7\u078c\u07aa","name:lv":"Apvienotie Ar\u0101bu Emir\u0101ti","name:lt":"Jungtiniai Arab\u0173 Emyratai","name:uz":"Birlashgan Arab Amirliklari","name:kk":"\u0411\u0456\u0440\u0456\u043a\u043a\u0435\u043d \u0410\u0440\u0430\u0431 \u04d8\u043c\u0456\u0440\u043b\u0456\u043a\u0442\u0435\u0440\u0456","name:ur":"\u0645\u062a\u062d\u062f\u06c1 \u0639\u0631\u0628 \u0627\u0645\u0627\u0631\u0627\u062a","name:lb":"Vereenegt Arabesch Emiraten","name:la":"Phylarchiarum Arabicarum Confoederatio","name:tt":"\u0411\u0435\u0440\u043b\u04d9\u0448\u043a\u04d9\u043d \u0413\u0430\u0440\u04d9\u043f \u04d8\u043c\u0438\u0440\u043b\u0435\u043a\u043b\u04d9\u0440\u0435","name:uk":"\u041e\u0431'\u0454\u0434\u043d\u0430\u043d\u0456 \u0410\u0440\u0430\u0431\u0441\u044c\u043a\u0456 \u0415\u043c\u0456\u0440\u0430\u0442\u0438","name:ug":"\u0626\u06d5\u0631\u06d5\u0628 \u0628\u0649\u0631\u0644\u06d5\u0634\u0645\u06d5 \u062e\u06d5\u0644\u0649\u067e\u0649\u0644\u0649\u0643\u0649","name:li":"Vereinegde Arabische Emiraote","name:el":"\u0397\u03bd\u03c9\u03bc\u03ad\u03bd\u03b1 \u0391\u03c1\u03b1\u03b2\u03b9\u03ba\u03ac \u0395\u03bc\u03b9\u03c1\u03ac\u03c4\u03b1","name:eo":"Unui\u011dintaj Arabaj Emirlandoj","name:en":"United Arab Emirates","name":"\u0627\u0644\u0625\u0645\u0627\u0631\u0627\u062a \u0627\u0644\u0639\u0631\u0628\u064a\u0651\u0629 \u0627\u0644\u0645\u062a\u0651\u062d\u062f\u0629","name:tk":"Birle\u015fen Arap Emirlikleri","name:th":"\u0e2a\u0e2b\u0e23\u0e31\u0e10\u0e2d\u0e32\u0e2b\u0e23\u0e31\u0e1a\u0e40\u0e2d\u0e21\u0e34\u0e40\u0e23\u0e15\u0e2a\u0e4c","name:eu":"Arabiar Emirerri Batuak","name:et":"Araabia \u00dchendemiraadid","name:es":"Emiratos \u00c1rabes Unidos","name:ia":"Emiratos Arabe Unite","name:az":"Birl\u0259\u015fmi\u015f \u018fr\u0259b \u018fmirlikl\u0259ri","name:ie":"Unit Arabic Emiratus","name:id":"Uni Emirat Arab","name:ar":"\u0627\u0644\u0625\u0645\u0627\u0631\u0627\u062a \u0627\u0644\u0639\u0631\u0628\u064a\u0629 \u0627\u0644\u0645\u062a\u062d\u062f\u0629","name:io":"Unionita Araba Emirati","name:av":"\u0413I\u0430\u0440\u0430\u0431\u0430\u0437\u0443\u043b \u0426\u043e\u043b\u044a\u0430\u0440\u0430\u043b \u0418\u043c\u0430\u0440\u0430\u0442\u0430\u043b","name:is":"Sameinu\u00f0u arab\u00edsku furstad\u00e6min","name:am":"\u12e8\u1270\u1263\u1260\u1229\u1275 \u12e8\u12d3\u1228\u1265 \u130d\u12db\u1276\u127d","name:it":"Emirati Arabi Uniti","name:an":"Emiratos Arabes Unitos","name:ru":"\u041e\u0431\u044a\u0435\u0434\u0438\u043d\u0451\u043d\u043d\u044b\u0435 \u0410\u0440\u0430\u0431\u0441\u043a\u0438\u0435 \u042d\u043c\u0438\u0440\u0430\u0442\u044b","name:rw":"Nyarabu Zunze Ubumwe","name:af":"Verenigde Arabiese Emirate","kind_detail":"2","name:ky":"\u0411\u0438\u0440\u0438\u043a\u043a\u0435\u043d \u0410\u0440\u0430\u0431 \u042d\u043c\u0438\u0440\u043b\u0438\u043a\u0442\u0435\u0440\u0438","name:zh-yue":"\u963f\u62c9\u4f2f\u806f\u5408\u914b\u9577\u570b","name:zh":"\u963f\u62c9\u4f2f\u8054\u5408\u914b\u957f\u56fd","name:so":"Imaaraatka Carabta","name:sl":"Zdru\u017eeni arabski emirati","name:sk":"Spojen\u00e9 arabsk\u00e9 emir\u00e1ty","name:ja":"\u30a2\u30e9\u30d6\u9996\u9577\u56fd\u9023\u90a6","name:sh":"Ujedinjeni Arapski Emirati","name:se":"Ovttastuvvan ar\u00e1baemir\u00e1htat","name:sd":"\u06af\u068f\u064a\u0644 \u0639\u0631\u0628 \u0627\u0645\u0627\u0631\u0627\u062a","name:br":"Emirelezhio\u00f9 Arab Unanet","name:bs":"Ujedinjeni Arapski Emirati","name:bn":"\u09b8\u0982\u09af\u09c1\u0995\u09cd\u09a4 \u0986\u09b0\u09ac \u0986\u09ae\u09bf\u09b0\u09be\u09a4","name:bo":"\u0f61\u0f72\u0f0b\u0f53\u0f7a\u0f0b\u0f41\u0fb2\u0f7a\u0f0b\u0f40\u0fb2\u0f72\u0f0b\u0f68\u0f0b\u0f62\u0f56\u0f0b\u0f68\u0f7a\u0f0b\u0f58\u0f7a\u0f0b\u0f62\u0f7a\u0f0b\u0f41\u0fb2\u0f72\u0f0d","name:sw":"Falme za Kiarabu","name:be":"\u0410\u0431'\u044f\u0434\u043d\u0430\u043d\u044b\u044f \u0410\u0440\u0430\u0431\u0441\u043a\u0456\u044f \u042d\u043c\u0456\u0440\u0430\u0442\u044b","name:su":"Uni \u00c9mirat Arab","name:bg":"\u041e\u0431\u0435\u0434\u0438\u043d\u0435\u043d\u0438 \u0430\u0440\u0430\u0431\u0441\u043a\u0438 \u0435\u043c\u0438\u0440\u0441\u0442\u0432\u0430","name:ss":"Bunye bema-Arabhu","name:sr":"\u0423\u0458\u0435\u0434\u0438\u045a\u0435\u043d\u0438 \u0410\u0440\u0430\u043f\u0441\u043a\u0438 \u0415\u043c\u0438\u0440\u0430\u0442\u0438","name:sq":"Emiratet e Bashkuara Arabe","name:jv":"Uni Emirat Arab","name:pt":"Emirados \u00c1rabes Unidos","name:ps":"\u0639\u0631\u0628\u064a \u0645\u062a\u062d\u062f\u0647 \u0627\u0645\u0627\u0631\u0627\u062a","name:oc":"Emirats Arabis Units","min_zoom":8.0,"name:ro":"Emiratele Arabe Unite","name:zh-min-nan":"A-la-pek Li\u00e2n-ha\u030dp Th\u00e2u-l\u00e2ng-kok","name:os":"\u0410\u0440\u0430\u0431\u0431\u044b \u0418\u0443\u0433\u043e\u043d\u0434 \u042d\u043c\u0438\u0440\u0430\u0442\u0442\u00e6","name:or":"\u0b5f\u0b41\u0b28\u0b3e\u0b07\u0b1f\u0b47\u0b21\u0b3c \u0b06\u0b30\u0b2c \u0b0f\u0b2e\u0b3f\u0b30\u0b1f","name:pl":"Zjednoczone Emiraty Arabskie","sort_rank":262,"osm_relation":true,"name:pa":"\u0a38\u0a70\u0a2f\u0a41\u0a15\u0a24 \u0a05\u0a30\u0a2c \u0a07\u0a2e\u0a30\u0a3e\u0a24","name:tr":"Birle\u015fik Arap Emirlikleri","name:hi":"\u0938\u0902\u092f\u0941\u0915\u094d\u0924 \u0905\u0930\u092c \u0905\u092e\u0940\u0930\u093e\u0924","name:sv":"F\u00f6renade Arabemiraten","name:he":"\u05d0\u05d9\u05d7\u05d5\u05d3 \u05d4\u05d0\u05de\u05d9\u05e8\u05d5\u05d9\u05d5\u05ea \u05d4\u05e2\u05e8\u05d1\u05d9\u05d5\u05ea","name:hy":"\u0531\u0580\u0561\u0562\u0561\u056f\u0561\u0576 \u0544\u056b\u0561\u0581\u0575\u0561\u056c \u0537\u0574\u056b\u0580\u0578\u0582\u0569\u0575\u0578\u0582\u0576\u0576\u0565\u0580","name:ht":"Emira Arab Ini","name:hu":"Egyes\u00fclt Arab Em\u00edrs\u00e9gek","name:hr":"Ujedinjeni Arapski Emirati","kind":"country","name:yi":"\u05e4\u05d0\u05e8\u05d0\u05d9\u05d9\u05e0\u05d9\u05d2\u05d8\u05e2 \u05d0\u05e8\u05d0\u05d1\u05d9\u05e9\u05e2 \u05e2\u05de\u05d9\u05e8\u05d0\u05d8\u05df","name:yo":"\u00c0w\u1ecdn \u1eb8\u0301m\u00edr\u00e9t\u00ec \u00c1r\u00e1b\u00f9 A\u1e63\u1ecd\u0300kan","name:mt":"Emirati G\u0127arab Mag\u0127quda","name:ms":"Emiriah Arab Bersatu","name:mr":"\u0938\u0902\u092f\u0941\u0915\u094d\u0924 \u0905\u0930\u092c \u0905\u092e\u093f\u0930\u093e\u0924\u0940","name:my":"\u1021\u102c\u101b\u1015\u103a\u1005\u1031\u102c\u103a\u1018\u103d\u102c\u1038\u1019\u103b\u102c\u1038\u1015\u103c\u100a\u103a\u1011\u1031\u102c\u1004\u103a\u1005\u102f\u1014\u102d\u102f\u1004\u103a\u1004\u1036","name:vi":"C\u00e1c Ti\u1ec3u v\u01b0\u01a1ng qu\u1ed1c \u1ea2 R\u1eadp Th\u1ed1ng nh\u1ea5t","name:ml":"\u0d10\u0d15\u0d4d\u0d2f \u0d05\u0d31\u0d2c\u0d4d \u0d0e\u0d2e\u0d3f\u0d31\u0d47\u0d31\u0d4d\u0d31\u0d41\u0d15\u0d7e","name:mn":"\u0410\u0440\u0430\u0431\u044b\u043d \u041d\u044d\u0433\u0434\u0441\u044d\u043d \u042d\u043c\u0438\u0440\u0442 \u0423\u043b\u0441","id":-307763,"name:mk":"\u041e\u0431\u0435\u0434\u0438\u043d\u0435\u0442\u0438 \u0410\u0440\u0430\u043f\u0441\u043a\u0438 \u0415\u043c\u0438\u0440\u0430\u0442\u0438","name:vo":"Lemir\u00e4ns Larabik Pebal\u00f6l","name:fa":"\u0627\u0645\u0627\u0631\u0627\u062a \u0645\u062a\u062d\u062f\u0647 \u0639\u0631\u0628\u06cc","name:fi":"Yhdistyneet arabiemiirikunnat","old_name:vi":"C\u00e1c qu\u1ed1c gia ng\u1eebng b\u1eafn;Oman ng\u1eebng b\u1eafn","name:fo":"Sameindu Emirr\u00edkini","name:fr":"\u00c9mirats arabes unis","name:fy":"Feriene Arabyske Emiraten","name:nl":"Verenigde Arabische Emiraten","name:nn":"Dei sameinte arabiske emirata","name:no":"De forente arabiske emirater","name:na":"Emireitit Arabiya","name:ne":"\u0938\u0902\u092f\u0941\u0915\u094d\u0924 \u0905\u0930\u092c \u0907\u092e\u093f\u0930\u0947\u091f\u094d\u0938","name:wo":"Imaaraat yu Araab yu Bennoo yi","name:nv":"\u00c1s\u00e1\u00ed Bik\u00e9yah Y\u00e1zh\u00ed A\u0142hidadiidzoo\u00edg\u00ed\u00ed","name:ga":"Aontas na n\u00c9im\u00edr\u00edochta\u00ed Arabacha","name:gd":"Na h-Iomaratan Arabach Aonaichte","name:gn":"Aravia Emiryvy Joaju","name:gl":"Emiratos \u00c1rabes Unidos","maritime_boundary":true,"name:gv":"Ny h-Emmiraidyn Arabagh Unnaneysit"},"arcs":[[0],[1]]},{"type":"LineString","properties":{"name:ka":"\u10d8\u10e0\u10d0\u10dc\u10d8","name:ko":"\uc774\ub780","name:cv":"\u0418\u0441\u043b\u0430\u043c \u0420\u0435\u0441\u043f\u0443\u0431\u043b\u0438\u043a\u0438 \u0418\u0440\u0430\u043d","name:km":"\u17a2\u17ca\u17b8\u179a\u17c9\u1784\u17cb","name:kl":"Iran","name:cs":"\u00cdr\u00e1n","name:tw":"Iran","name:tt":"\u0418\u0440\u0430\u043d","name:co":"Iranu","name:kv":"\u0418\u0440\u0430\u043d","name:th":"\u0e1b\u0e23\u0e30\u0e40\u0e17\u0e28\u0e2d\u0e34\u0e2b\u0e23\u0e48\u0e32\u0e19","name:ks":"\u0627\u06cc\u0656\u0631\u0627\u0646","name:tl":"Iran","name:ce":"\u0418\u0440\u0430\u043d","name:ta":"\u0b88\u0bb0\u0bbe\u0ba9\u0bcd","name:tg":"\u042d\u0440\u043e\u043d","name:ca":"Iran","name:te":"\u0c07\u0c30\u0c3e\u0c28\u0c4d","name:cy":"Iran","name:qu":"Iran","name:da":"Iran","name:de":"Iran","name:dz":"\u0f68\u0f72\u0f0b\u0f62\u0f71\u0f53\u0f0b","source":"openstreetmap.org","name:kn":"\u0c87\u0cb0\u0cbe\u0ca8\u0ccd","name:dv":"\u0787\u07a9\u0783\u07a7\u0782\u07b0","name:lv":"Ir\u0101na","name:lt":"Iranas","name:uz":"Eron","name:kk":"\u0418\u0440\u0430\u043d","name:ur":"\u0627\u06cc\u0631\u0627\u0646","name:lb":"Iran","name:la":"Irania","name:uk":"\u0406\u0440\u0430\u043d","name:ug":"\u0626\u0649\u0631\u0627\u0646","name:li":"Iran","name:ln":"Iran","name:el":"\u0399\u03c1\u03ac\u03bd","name:eo":"Irano","name:en":"Iran","name":"\u200f\u0627\u06cc\u0631\u0627\u0646\u200e","name:tk":"E\u00fdran","name:ku":"\u00ceran","name:eu":"Iran","name:et":"Iraan","name:es":"Ir\u00e1n","name:ia":"Iran","name:rm":"Iran","name:az":"\u0130ran","name:ie":"Iran","name:id":"Iran","name:ar":"\u0625\u06cc\u0631\u0627\u0646","name:io":"Iran","name:is":"\u00cdran","name:am":"\u134b\u122d\u1235","name:it":"Iran","name:an":"Ir\u00e1n","name:ru":"\u0418\u0440\u0430\u043d","name:rw":"Irani","name:af":"Iran","name:zu":"I-Irani","kind_detail":"2","name:za":"Iran","name:zh-yue":"\u4f0a\u6717","name:zh":"\u4f0a\u6717","name:so":"Iiraan","name:sl":"Iran","name:sk":"Ir\u00e1n","name:ja":"\u30a4\u30e9\u30f3","name:si":"\u0d89\u0dbb\u0dcf\u0db1\u0dba","name:sh":"Iran","name:se":"Iran","name:sc":"Iran","name:br":"Iran","name:bs":"Iran","name:bn":"\u0987\u09b0\u09be\u09a8","name:bo":"\u0f61\u0f72\u0f0b\u0f63\u0f44\u0f0b\u0f0d","name:sa":"\u0908\u0930\u093e\u0928","name:sw":"Uajemi","name:be":"\u0406\u0440\u0430\u043d","name:su":"Iran","name:bg":"\u0418\u0440\u0430\u043d","name:ss":"I-Irani","name:ba":"\u0418\u0440\u0430\u043d","name:sq":"Irani","name:jv":"Iran","name:pt":"Ir\u00e3o","name:ps":"\u0627\u06cc\u0631\u0627\u0646","name:oc":"Iran","min_zoom":8.0,"name:ro":"Iran","name:zh-min-nan":"Iran","name:os":"\u0418\u0440\u0430\u043d","name:or":"\u0b07\u0b30\u0b3e\u0b28","name:pl":"Iran","sort_rank":262,"name:sr":"\u0418\u0440\u0430\u043d","osm_relation":true,"name:pa":"\u0a07\u0a30\u0a3e\u0a28","name:tr":"\u0130ran","name:hi":"\u0908\u0930\u093e\u0928","name:sv":"Iran","name:he":"\u05d0\u05d9\u05e8\u05d0\u05df","name:ha":"Iran","name:hy":"\u053b\u0580\u0561\u0576","name:ht":"Iran","name:hu":"Ir\u00e1n","name:hr":"Iran","kind":"country","name:yi":"\u05d0\u05d9\u05e8\u05d0\u05df","name:yo":"\u00ccr\u00e1n\u00ec","name:mt":"Iran","name:ms":"Iran","name:mr":"\u0907\u0930\u093e\u0923","name:my":"\u1021\u102e\u101b\u1014\u103a\u1014\u102d\u102f\u1004\u103a\u1004\u1036","name:kw":"Iran","name:mg":"Iran","name:vi":"Iran","name:ml":"\u0d07\u0d31\u0d3e\u0d7b","name:mn":"\u0418\u0440\u0430\u043d","name:mi":"\u012ar\u0101na","id":-304938,"name:mk":"\u0418\u0440\u0430\u043d","name:vo":"Lir\u00e4n","name:fa":"\u0627\u06cc\u0631\u0627\u0646","name:fi":"Iran","name:ky":"\u0418\u0440\u0430\u043d","name:fo":"Iran","name:fr":"Iran","name:fy":"Iran","int_name":"Iran","name:nl":"Iran","name:nn":"Iran","name:no":"Iran","name:na":"Iran","name:ne":"\u0907\u0930\u093e\u0928","name:wa":"Iran","name:wo":"Iraan","name:nv":"Iiw\u0105\u0301\u0105\u0301","name:ga":"An Iar\u00e1in","name:gd":"Ior\u00e0n","name:gn":"Ir\u00e1n","name:gl":"Ir\u00e1n - \u0627\u06cc\u0631\u0627\u0646","maritime_boundary":true,"name:gv":"Yn Eeraan","name:gu":"\u0a88\u0ab0\u0abe\u0aa8"},"arcs":[2]},{"type":"MultiLineString","properties":{"kind":"region","name:en":"Abu Dhabi","name":"\u0623\u0628\u0648 \u0638\u0628\u064a","sort_rank":256,"kind_detail":"4","min_zoom":8.0,"name:de":"Abu Dhabi","source":"openstreetmap.org","maritime_boundary":true,"name:ru":"\u0410\u0431\u0443-\u0414\u0430\u0431\u0438","id":-3766481,"osm_relation":true},"arcs":[[3],[4]]}]},"roads":{"type":"GeometryCollection","geometries":[{"type":"MultiLineString","properties":{"source":"openstreetmap.org","kind":"highway","name:en":"Sheikh Makhtoum Bin Rashid Road","sort_rank":383,"kind_detail":"motorway","ref":"E11","min_zoom":8.0},"arcs":[[10],[11]]},{"type":"MultiLineString","properties":{"sort_rank":380,"kind_detail":"primary","min_zoom":8.0,"kind":"major_road","source":"openstreetmap.org"},"arcs":[[12],[13],[14],[15],[16],[17],[18],[19],[20],[21],[22],[23],[24],[25],[26],[27],[28],[29],[30]]},{"type":"LineString","properties":{"kind":"highway","name:en":"Sheikh Khalifa Bin Zayed Highway","sort_rank":383,"kind_detail":"motorway","source":"openstreetmap.org","min_zoom":8.0,"ref":"E12","id":133910688},"arcs":[31]},{"type":"LineString","properties":{"source":"openstreetmap.org","kind":"major_road","name:en":"Ajban Road","sort_rank":380,"kind_detail":"primary","min_zoom":8.0,"id":247800473},"arcs":[32]},{"type":"LineString","properties":{"source":"openstreetmap.org","kind":"major_road","name:en":"Street 17","sort_rank":381,"kind_detail":"trunk","min_zoom":8.0,"id":30759220},"arcs":[33]},{"type":"MultiLineString","properties":{"kind":"highway","name:en":"Sheikh Khalifa Bin Zayed Highway","sort_rank":383,"kind_detail":"motorway","source":"openstreetmap.org","min_zoom":8.0,"loc_name":"Yas Island Road","ref":"E12"},"arcs":[[34],[35],[36],[37],[38],[39],[40]]},{"type":"MultiLineString","properties":{"source":"openstreetmap.org","kind":"highway","name:en":"Sheikh Maktoom Road","sort_rank":383,"kind_detail":"motorway","ref":"E11","min_zoom":8.0},"arcs":[[41],[42]]},{"type":"LineString","properties":{"source":"openstreetmap.org","kind":"highway","sort_rank":383,"kind_detail":"motorway","ref":"E11","min_zoom":8.0},"arcs":[43]},{"type":"MultiLineString","properties":{"source":"openstreetmap.org","kind":"highway","sort_rank":383,"kind_detail":"motorway","ref":"E10","min_zoom":8.0},"arcs":[[44],[45]]},{"type":"MultiLineString","properties":{"source":"openstreetmap.org","kind":"major_road","name:en":"Ajban Road","sort_rank":380,"kind_detail":"primary","ref":"E16","min_zoom":8.0},"arcs":[[46],[47],[48],[49],[50],[51],[52],[53]]},{"type":"MultiLineString","properties":{"source":"openstreetmap.org","kind":"highway","name:en":"Sheikh Mohammed Bin Rashid Al Maktoum Road","sort_rank":383,"kind_detail":"motorway","ref":"E11","min_zoom":8.0},"arcs":[[54],[55]]},{"type":"MultiLineString","properties":{"source":"openstreetmap.org","kind":"highway","sort_rank":383,"kind_detail":"motorway","ref":"E12","min_zoom":8.0},"arcs":[[56],[57]]},{"type":"MultiLineString","properties":{"source":"openstreetmap.org","kind":"highway","name:en":"Sheikh Maktoum Bin Rashid Road","sort_rank":383,"kind_detail":"motorway","ref":"E11","min_zoom":8.0},"arcs":[[58],[59]]},{"type":"MultiLineString","properties":{"source":"openstreetmap.org","kind":"major_road","name:en":"Sheikh Mohammed Bin Rashid Al Maktoum Road","sort_rank":381,"kind_detail":"trunk","ref":"E311","min_zoom":8.0},"arcs":[[60],[61],[62],[63]]}]},"earth":{"type":"GeometryCollection","geometries":[{"type":"MultiPolygon","properties":{"sort_rank":10,"source":"naturalearthdata.com","min_zoom":0.0,"kind":"earth","area":32948117064},"arcs":[[[64]],[[65]],[[66]]]}]},"landuse":{"type":"GeometryCollection","geometries":[{"type":"MultiPolygon","properties":{"source":"openstreetmap.org","kind":"nature_reserve","tier":2,"area":253300510,"sort_rank":23,"min_zoom":8.0},"arcs":[[[67]]]}]}},"type":"Topology","transform":{"translate":[53.4375,24.5271348226],"scale":[0.0003433228,0.0003107315]},"arcs":[[[1079,0],[-679,213],[-19,185],[-110,231],[-79,89],[-192,121]],[[4096,2146],[-66,-39],[-308,-362],[-359,-117],[-196,-111],[-227,-299],[-59,-147],[-1201,-982],[-501,-89]],[[2532,4096],[81,-122],[171,-130],[204,-67],[194,-27],[163,8],[188,64],[563,-22]],[[1079,0],[-679,213],[-19,185],[-110,231],[-79,89],[-192,121]],[[4096,1366],[-374,379],[-359,-117],[-196,-111],[-79,-79],[-148,-220],[-59,-147],[-1201,-982],[-501,-89]],[[4096,1120],[-244,-144],[40,-50],[-15,-43],[-42,-29],[-43,-9],[-5,4],[-89,42],[-17,-18],[-14,-31],[-14,-21],[-114,-78],[-27,-30],[-8,-52],[23,-23],[21,-14],[-16,-23],[14,-41],[8,-41],[12,-33],[26,-19],[0,-20],[-54,-25],[-17,-45],[-9,-44],[-30,-20],[-50,-10],[-11,-26],[23,-29],[48,-21],[-109,-221],[-9,-6],[-267,0],[-31,49],[-23,89],[-20,0],[-38,-50],[-10,-29],[8,-33],[-23,22],[-10,26],[-5,21],[-30,-35],[-36,-24],[-35,-10],[0,-20],[25,-6],[-2879,0],[0,4096],[4096,0],[0,-2976]],[[2312,2305],[-59,19],[-38,-56],[48,-57],[37,0],[37,-18],[-25,112]],[[4096,1120],[-244,-144],[40,-50],[-15,-43],[-42,-29],[-43,-9],[-5,4],[-89,42],[-17,-18],[-14,-31],[-14,-21],[-114,-78],[-27,-30],[-8,-52],[23,-23],[21,-14],[-16,-23],[14,-41],[8,-41],[12,-33],[26,-19],[0,-20],[-54,-25],[-17,-45],[-9,-44],[-30,-20],[-50,-10],[-11,-26],[23,-29],[48,-21],[-109,-221],[-9,-6]],[[3107,0],[-31,49],[-23,89],[-20,0],[-38,-50],[-10,-29],[8,-33],[-23,22],[-10,26],[-5,21],[-30,-35],[-36,-24],[-35,-10],[0,-20],[25,-6]],[[2253,2324],[59,-19],[25,-112],[-37,18],[-37,0],[-48,57],[38,56]],[[3657,33],[-4,-33]],[[3654,0],[2,19]],[[3527,857],[141,-20],[95,-82]],[[3763,755],[4,-3],[11,-28]],[[3778,724],[10,-26],[14,-35]],[[3802,663],[31,-79]],[[3833,584],[3,-9],[8,-4]],[[3844,571],[38,-20]],[[3882,551],[4,-2],[12,-5],[62,-38],[62,-14],[74,-17]],[[4096,476],[-136,32],[-61,37],[-12,5],[-5,1]],[[3882,551],[-19,4],[-10,5],[-9,11]],[[3844,571],[-11,13]],[[3833,584],[-3,3],[-5,14],[-3,7],[-20,55]],[[3802,663],[-17,46],[-7,15]],[[3778,724],[-15,31]],[[3763,755],[-1,2],[-11,11],[-85,70],[-139,20]],[[3524,858],[2,-1],[1,1]],[[3527,858],[-2,2],[-1,-2]],[[3852,282],[2,-1],[1,2],[-2,1],[-1,-2]],[[3863,271],[-3,-1],[1,-1],[2,0],[0,2]],[[3871,280],[-2,2],[-1,-2],[1,-1],[2,1]],[[2904,22],[-6,-6]],[[3973,266],[1,-2],[2,1],[-1,2],[-2,-1]],[[3898,506],[1,-1]],[[2898,16],[-56,-9]],[[2842,7],[-4,-1],[-7,-6]],[[2832,0],[6,5],[4,2]],[[2842,7],[2,1],[58,9],[62,53]],[[2963,71],[-39,-23],[-20,-26]],[[2978,70],[115,-70]],[[3097,0],[-118,71]],[[3656,19],[6,58]],[[3657,48],[0,-15]],[[3662,89],[-5,-41]],[[3661,81],[-53,-81]],[[3609,0],[47,60],[6,17]],[[3738,296],[114,-13]],[[3852,283],[-114,14]],[[3855,282],[13,-2]],[[3868,281],[-13,2]],[[3870,279],[103,-14]],[[3974,266],[-104,15]],[[3976,265],[120,-18]],[[4096,248],[-120,18]],[[3939,577],[-212,-273],[-64,-206],[-2,-17]],[[3662,77],[66,225],[150,190]],[[2979,71],[-16,0]],[[2964,70],[14,0]],[[3878,492],[159,177],[59,103]],[[4096,778],[-54,-99],[-103,-102]],[[4096,570],[-18,-16]],[[4078,554],[-15,-12],[-234,-306],[-16,-236]],[[3814,0],[25,248],[217,282],[8,11],[14,13]],[[4078,554],[2,3],[16,13]],[[2879,0],[-25,6],[0,20],[35,10],[36,24],[30,35],[5,-21],[10,-26],[23,-22],[-8,33],[10,29],[38,50],[20,0],[23,-89],[31,-49],[-228,0]],[[2312,2305],[25,-112],[-37,18],[-37,0],[-48,57],[38,56],[59,-19]],[[4096,1120],[0,-1120],[-722,0],[9,6],[109,221],[-48,21],[-23,29],[11,26],[50,10],[30,20],[9,44],[17,45],[54,25],[0,20],[-26,19],[-12,33],[-8,41],[-14,41],[16,23],[-21,14],[-23,23],[8,52],[27,30],[114,78],[14,21],[14,31],[17,18],[89,-42],[5,-4],[43,9],[42,29],[15,43],[-40,50],[244,144]],[[2156,2232],[20,94],[95,48],[51,-14],[65,-72],[3,-110],[-33,-38],[-48,-9],[-131,55],[-22,46]]]}